200801010000 METAR MRLM 010000Z 21002KT 9999 FEW025 BKN080 25/22 A2986 RMK FEW240 HZ ARND=
200801010100 METAR MRLM NIL=
200801010200 METAR MRLM NIL=
200801010300 METAR MRLM NIL=
200801010400 METAR MRLM NIL=
200801010500 METAR MRLM NIL=
200801010600 METAR MRLM NIL=
200801010700 METAR MRLM NIL=
200801010800 METAR MRLM NIL=
200801010900 METAR MRLM NIL=
200801011000 METAR MRLM NIL=
200801011100 METAR MRLM NIL=
200801011200 METAR MRLM NIL=
200801011300 METAR MRLM 011300Z 21006KT 9999 DZ FEW010 BKN025 21/19 A2993 RMK FEW080 RN S HZ ARND=
200801011400 METAR MRLM 011400Z NIL=
200801011500 METAR MRLM 011500Z 18004KT CAVOK 28/23 A2994 RMK SCT110 TCU RN NE HZ ARND TRACE AC=
200801011600 METAR MRLM 011600Z 08008KT CAVOK 28/22 A2993 RMK SCT090 SCT120 TRACE CU HZ LEVE ARND=
200801011700 METAR MRLM 011700Z 03024KT 9999 RA SCT015 BKN100 25/22 A2996=
200801011800 METAR MRLM 011800Z 07009KT 8000 +DZ SCT015 SCT025 24/21 A2994 RERA RMK FEW090 VIS SW W UNL=
200801011900 METAR MRLM 011900Z 20007KT 4000 RA BKN015 23/20 A2995 RMK FEW090=
200801012000 METAR MRLM 012000Z NIL=
200801012100 METAR MRLM 012100Z 21006KT 4000 RA BKN010 22/21 A2990=
200801012200 METAR MRLM 012200Z 22005KT 9999 +DZ OVC010 23/21 A2989 RN HZ ARND=
200801012300 METAR MRLM 012300Z 23005KT 9999 DZ OVC010 23/21 A2991 RN HZ ARND=
200801020000 METAR MRLM 020000Z 26005KAT 9999 OVC010 22/21 A2992 RN HZ ARND=
200801020100 METAR MRLM NIL=
200801020200 METAR MRLM NIL=
200801020300 METAR MRLM NIL=
200801020400 METAR MRLM NIL=
200801020500 METAR MRLM NIL=
200801020600 METAR MRLM NIL=
200801020700 METAR MRLM NIL=
200801020800 METAR MRLM NIL=
200801020900 METAR MRLM NIL=
200801021000 METAR MRLM NIL=
200801021100 METAR MRLM NIL=
200801021200 METAR MRLM NIL=
200801021300 METAR MRLM NIL=
200801021400 METAR MRLM 021400Z 22004KT CAVOK 23/21 A2994 BKN090 HZY RN N NE=
200801021500 METAR MRLM 021500Z 08004KT 9000 -DZ FEW015 OVC090 25/23 A2996 HZY=
200801021600 METAR MRLM 021600Z 04004KT 3000 -RA FEW015 OVC090 23/22 A2997=
200801021700 METAR MRLM 021700Z 18004KT 9999 BKN005 SCT025 23/22 A2996 RMK FEW090 RERA RN HZ ARND=
200801021800 METAR MRLM 021800Z 24004KT 9999 +DZ FEW010 OVC020 24/22 A2995 RN HZ ARND=
200801021900 METAR MRLM 021900Z 24004KT 9999 FEW015 BKN090 24/22 A2997 RN SW W HZY=
200801022000 METAR MRLM 022000Z NIL=
200801022100 METAR MRLM 022100Z 23006KT 9999 FEW020 28/23 A2991 RMK FEW100 HZ ARND RN DST N NE=
200801022200 METAR MRLM 022200Z 18004KT 9999 FEW020 SCT080 27/24 A2991 RMK HZ ARND=
200801022300 METAR MRLM 022300Z 00000KT 9999 FEW010 SCT100 26/24 A2991 RMK TCU DST N NE HZY=
200801030000 METAR MRLM 030000Z 23003KT CAVOK 23/21 A2994 RMK TCU RN DST QUAD N HZ ARND OVC080=
200801030100 METAR MRLM NIL=
200801030200 METAR MRLM NIL=
200801030300 METAR MRLM NIL=
200801030400 METAR MRLM NIL=
200801030500 METAR MRLM NIL=
200801030600 METAR MRLM NIL=
200801030700 METAR MRLM NIL=
200801030800 METAR MRLM NIL=
200801030900 METAR MRLM NIL=
200801031000 METAR MRLM NIL=
200801031100 METAR MRLM NIL=
200801031200 METAR MRLM NIL=
200801031300 METAR MRLM 031300Z 22003KT 9999 SCT024 BKN080 19/17 A3003 RMK TCU DST NW N RN DST ARND=
200801031400 METAR MRLM 031400Z 36002KT 8000 +DZ BKN026 SCT080 20/18 A3006 RERA RMK RN ARND=
200801031500 METAR MRLM 031500Z 20005KT 8000 VCSH BKN026 SCT080 20/19 A3008 REDZ=
200801031600 METAR MRLM 031600Z 19007KT 9999 BKN026 SCT080 23/19 A3008 RMK RN DST ARND=
200801031700 METAR MRLM 031700Z 19005KT 9999 SCT026 SCT240 27/21 A3001 RMK RN DST W NW N NE TRACE AC=
200801031800 METAR MRLM 031800Z 08003KT 9999 BKN025 SCT090 28/22 A3002 RMK TCU RN DST NW N NE E HZ HZ ARND=
200801031900 METAR MRLM 031900Z 12002KT 9999 SCT025 SCT080 24/20 A3001 RMK TCU RN HZ ARND=
200801032000 METAR MRLM NIL=
200801032100 METAR MRLM NIL=
200801032200 METAR MRLM NIL=
200801032300 METAR MRLM NIL=
200801040000 METAR MRLM NIL=
200801040100 METAR MRLM NIL=
200801040200 METAR MRLM NIL=
200801040300 METAR MRLM NIL=
200801040400 METAR MRLM NIL=
200801040500 METAR MRLM NIL=
200801040600 METAR MRLM NIL=
200801040700 METAR MRLM NIL=
200801040800 METAR MRLM NIL=
200801041100 METAR MRLM NIL=
200801041200 METAR MRLM NIL=
200801041300 METAR MRLM 041300Z NIL=
200801041400 METAR MRLM 041400Z RTD 23005KT 9999 SCT030 SCT080 23/21 A3001 RMK TCU RN DST N NE E SE HZY=
200801041500 METAR MRLM 041500Z 16005KT 3000N VCSH SCT030 BKN080 24/22 A3003 RMK RN HZ ARND=
200801041600 METAR MRLM 041600Z 09015KT 2000 RA BKN025 SCT080 23/21 A3006=
200801041700 METAR MRLM 041700Z 18005KT 9999 BKN030 SCT080 22/20 A3002 RERA RMK RN DST ARND=
200801041800 METAR MRLM 041800Z 24004KT 9999 3000N DZ BKN028 SCT080 23/20 A3002 RMK RN ARND=
200801041900 METAR MRLM 041900Z 24005KT 9999 BKN030 23/21 A2997 REDZ RMK FEW080 RN HZ ARND=
200801042000 METAR MRLM 042000Z NIL=
200801042100 METAR MRLM 042100Z 18008KT 9999 SCT030 SCT080 26/22 A2991 RMK CB DST E NE RN DST ARND=
200801042200 METAR MRLM 042200Z 18002KT 9999 FEW030 BKN080 25/22 A2991 RMK RN DST NE SSW W=
200801042300 METAR MRLM 042300Z 24004KT 9999 SCT030 SCT080 25/23 A2991 RMK HZ ARND=
200801050000 METAR MRLM 050000Z 28002KT 9999 BKN030 24/23 A2991 RMK RN DST N NE FEW080 HZ ARND=
200801050100 METAR MRLM NIL=
200801050200 METAR MRLM NIL=
200801050300 METAR MRLM NIL=
200801050400 METAR MRLM NIL=
200801050500 METAR MRLM NIL=
200801050600 METAR MRLM NIL=
200801050700 METAR MRLM NIL=
200801050800 METAR MRLM NIL=
200801050900 METAR MRLM NIL=
200801051000 METAR MRLM NIL=
200801051100 METAR MRLM NIL=
200801051200 METAR MRLM 051200Z NIL=
200801051300 METAR MRLM 051300Z 00000KT 9999 FEW030 BKN080 21/20 A2993 RMK HZ ARND=
200801051400 METAR MRLM 051400Z 00000KT 9999 SCT030 SCT080 24/21 A2994 RMK RN DST E HZ ARND=
200801051500 METAR MRLM NIL=
200801051600 METAR MRLM 051600Z 27002KT E 9999 SCT030 SCT080 25/23 A2994 RMK RN DST NE SE S HZ ARND=
200801051700 METAR MRLM 051700Z 04006KT E 9999 FEW030 SCT080 28/22 A2994 RMK HZ ARND=
200801051800 METAR MRLM 051800Z 04008KT 999 FEW025 BKN080 28/22 A2991 RMK RN DST NW N NE E HZ ARND=
200801051900 METAR MRLM 051900Z 01005KT 9999 FEW024 BKN030 25/22 A2990 RMK RN DST HZ ARND FEW080=
200801052000 METAR MRLM 052000Z NIL=
200801052100 METAR MRLM 052100Z 20005KT 9999 FEW025 BKN080 27/23 A2982 RN SSW W HZ ARND=
200801052200 METAR MRLM 052200Z 19003KT 9999 FEW025 BKN080 28/24 A2985 RMK HZ ARND=
200801052300 METAR MRLM 052300Z 00000KT 9999 SCT026 BKN080 26/24 A2987 RMK RN W HZ ARND=
200801060000 METAR MRLM 060000Z 06012KT 9999 3000E DZ BKN024 SCT080 26/23 A2987 RMK RASH E SE S HZ ARND=
200801060100 METAR MRLM NIL=
200801060200 METAR MRLM NIL=
200801060300 METAR MRLM NIL=
200801060400 METAR MRLM NIL=
200801060500 METAR MRLM NIL=
200801060600 METAR MRLM NIL=
200801060700 METAR MRLM NIL=
200801060800 METAR MRLM NIL=
200801060900 METAR MRLM NIL=
200801061000 METAR MRLM NIL=
200801061100 METAR MRLM NIL=
200801061200 METAR MRLM NIL=
200801061300 METAR MRLM 061300Z 34005KT 9999 FEW025 22/22 A2991 RMK FEW090 TCU NW N NE HZ ARND=
200801061400 METAR MRLM 061400Z 00000KT E 9999 FEW025 BKN080 25/23 A2992 RMK RN NW HZ=
200801061500 METAR MRLM 061500Z 35006KT E 9999 3000E HZ FEW025 BKN080 26/24 A2994 RMK TCU RN NW NNE=
200801061600 METAR MRLM 061600Z 25004KT(E) 9999 DZ FEW015 BKN030 26/23 A2999 RMK RN HZ ARND=
200801061700 METAR MRLM 061700Z 18004KT 5000 DZ FEW015 BKN030 25/23 A2996 RMK RN ARND=
200801061800 METAR MRLM 061800Z 23004KT(E) 5000 DZ FEW012 BKN030 24/23 A2994 RERA RMK FEW080 RN ARND=
200801061900 METAR MRLM 061900Z 19005KT(E) 7000 -DZ SCT015 BKN030 24/24 A2991 RMK RN ARND=
200801062000 METAR MRLM 062000Z NIL=
200801062100 METAR MRLM 062100Z 22006KT 9999 SCT015 BKN030 24/23 A2987 REDZ RN SE S SW HZY=
200801062200 METAR MRLM 062200Z 19006KT 9999 SCT030 BKN080 24/23 A2977 RN NE SW HZY=
200801062300 METAR MRLM 062300Z 20005KT 9999 FEW026 SCT040 24/23 A2987 SCT080 HZY=
200801070000 METAR MRLM 070000Z 22005KT 9999 FEW025 SCT080 24/23 A2989 TCU NW N NE FEW250 HZY=
200801070100 METAR MRLM NIL=
200801070200 METAR MRLM NIL=
200801070300 METAR MRLM NIL=
200801070400 METAR MRLM NIL=
200801070500 METAR MRLM NIL=
200801070600 METAR MRLM NIL=
200801070700 METAR MRLM NIL=
200801070800 METAR MRLM NIL=
200801070900 METAR MRLM NIL=
200801071000 METAR MRLM NIL=
200801071100 METAR MRLM NIL=
200801071200 METAR MRLM 071200Z NIL=
200801071300 METAR MRLM 071300Z 19004KT 9999 +DZ FEW025 SCT030 23/22 A2993 RMK FEW080 RN ARND=
200801071400 METAR MRLM 071400Z 22004KT 9999 SCT015 SCT090 24/23 A2993 REDZ RN ARND=
200801071500 METAR MRLM 071500Z 26006KT 9999 FEW030 SCT080 26/23 A2997 RN SE SW NE HZY=
200801071600 METAR MRLM 071600Z 08004KT 9999 BKN030 SCT080 27/24 A2997 RN ARND HZY=
200801071700 METAR MRLM 071700Z 00000KT 9999 BKN028 27/23 A2996 RMK TCU RN NW W E FEW080 HZY=
200801071800 METAR MRLM 071800Z 08004KT 9999 SCT028 SCT080 27/24 A2995 HZY=
200801071900 METAR MRLM 071900Z 08004KT 9999 FEW025 SCT090 28/24 A2991 TCU RN SW HZY=
200801072000 METAR MRLM 072000Z NIL=
200801072100 METAR MRLM 072100Z 04004KT 9999 FEW025 SCT090 28/22 A2988 RMK RN DST N ENE HZ ARND=
200801072200 METAR MRLM 072200Z 06006KT 9999 SCT025 SCT090 27/22 A2989 RMK HZ ARND=
200801072300 METAR MRLM 072300Z 00000KT 9999 FEW025 SCT090 27/23 A2990 RMK FEW240 HZ ARND=
200801080000 METAR MRLM 080000Z 18002KT 9999 SCT025 SCT240 24/22 A2992 RMK FEW080 HZ ARND=
200801080100 METAR MRLM NIL=
200801080200 METAR MRLM NIL=
200801080300 METAR MRLM NIL=
200801080400 METAR MRLM NIL=
200801080500 METAR MRLM NIL=
200801080600 METAR MRLM NIL=
200801080700 METAR MRLM NIL=
200801080800 METAR MRLM NIL=
200801080900 METAR MRLM NIL=
200801081000 METAR MRLM NIL=
200801081100 METAR MRLM NIL=
200801081200 METAR MRLM NIL=
200801081300 METAR MRLM 081300Z 18003KT 9999 FEW015 SCT026 22/21 A2995 REDZ RMK RN HZ DST ARND=
200801081400 METAR MRLM 081400Z 20006KT 9999 SCT026 BKN080 23/21 A2998 RMK RN DST HZ ARND=
200801081500 METAR MRLM 081500Z 20004KT 9999 BKN028 SCT080 24/22 A2999 RMK RN DST HZ ARND=
200801081600 METAR MRLM 081600Z 20003KT 9999 SCT024 SCT090 25/23 A2999 RERA RMK RN DST S SW W FEW230 HZ ARND=
200801081700 METAR MRLM 081700Z 19003KT 9999 FEW030 BKN230 28/22 A2997 RMK TRACE AC HZY=
200801081800 METAR MRLM 081800Z 04002KT 9999 FEW030 BKN230 28/21 A2995 RMK TRACE AC HZY=
200801081900 METAR MRLM 081900Z 07002KT 9999 FEW030 BKN230 28/22 A2992 RMK HZ ARND=
200801082000 METAR MRLM 082000Z NIL=
200801082100 METAR MRLM 082100Z 03004KT 9999 FEW030 BKN230 28/22 A2986 RMK HZY=
200801082200 METAR MRLM 082200Z 02003KT 9999 FEW030 BKN230 28/22 A2986 RMK HZY=
200801082300 METAR MRLM 082300Z 02003KT 9999 FEW030 BKN230 27/21 A2987 RMK HZY=
200801090000 METAR MRLM 090000Z 02003KT 9999 FEW030 BKN230 26/21 A2980 RMK HZY=
200801090100 METAR MRLM NIL=
200801090200 METAR MRLM NIL=
200801090300 METAR MRLM NIL=
200801090400 METAR MRLM NIL=
200801090500 METAR MRLM NIL=
200801090600 METAR MRLM NIL=
200801090700 METAR MRLM NIL=
200801090800 METAR MRLM NIL=
200801090900 METAR MRLM NIL=
200801091000 METAR MRLM NIL=
200801091100 METAR MRLM NIL=
200801091200 METAR MRLM NIL=
200801091300 METAR MRLM 091300Z 24003KT CAVOK 21/19 A2992 RMK TRACE CU FEW100 BKN240 HZY=
200801091400 METAR MRLM 091400Z 21004KT CAVOK 24/22 A2993 RMK FEW100 BKN240 TRACE CU HZY=
200801091500 METAR MRLM 091500Z 25003KT CAVOK 27/24 A2995 RMK SCT090 BKN240 HZY=
200801091600 METAR MRLM 091600Z 02004KT CAVOK 28/21 A2994 RMK SCT090 BKN240 TRACE CU HZY=
200801091700 METAR MRLM 091700Z 01006KT CAVOK 28/20 A2992 RMK FEW090 BKN290 TRACE CU HZY=
200801091800 METAR MRLM NIL=
200801091900 METAR MRLM 091900Z 02006KT 9999 FEW028 BKN240 28/21 A2988 RMK TRACE AC HZY=
200801092000 METAR MRLM 092000Z NIL=
200801092100 METAR MRLM 092100Z 02006KT 9999 FEW028 BKN240 28/21 A2983 RMK TRACE AC HZ ARND=
200801092200 METAR MRLM 092200Z 01005KT CAVOK 28/21 A2983 RMK OVC240 TRACE CU AC HZ ARND=
200801092300 METAR MRLM 092300Z 01005KT CAVOK 27/21 A2984 RMK SCT090 SCT240=
200801100000 METAR MRLM 100000Z 00000KT 9999 FEW030 BKN080 25/22 A2986 RMK TRACE CI HZ ARND=
200801100100 METAR MRLM NIL=
200801100200 METAR MRLM NIL=
200801100300 METAR MRLM NIL=
200801100400 METAR MRLM NIL=
200801100500 METAR MRLM NIL=
200801100600 METAR MRLM NIL=
200801100700 METAR MRLM NIL=
200801100800 METAR MRLM NIL=
200801100900 METAR MRLM NIL=
200801101000 METAR MRLM NIL=
200801101100 METAR MRLM NIL=
200801101200 METAR MRLM 101200Z NIL=
200801101300 METAR MRLM 101300Z 21002KT CAVOK 22/19 A2990 RMK OVC240 TRACE CU AC HZ LGT ARND=
200801101400 METAR MRLM 101400Z 21002KT CAVOK 25/21 A2992 RMK OVC240 TRACE CU AC HZ LGT ARND=
200801101500 METAR MRLM 101500Z 21002KT 9999 FEW026 BKN240 28/22 A2993 RMK HZ LGT ARND=
200801101600 METAR MRLM 101600Z 07004KT 9999 FEW026 BKN240 28/21 A2992 RMK HZ LGT ARND=
200801101700 METAR MRLM 101700Z 04004KT 9999 FEW026 BKN240 28/21 A2991 RMK HZ ARND=
200801101800 METAR MRLM 101800Z 03005KT 9999 FEW026 BKN240 28/22 A2988 RMK TRACE AC HZ ARND=
200801101900 METAR MRLM 101900Z 03004KT 9999 FEW026 BKN240 28/22 A2985 RMK TRACE AC HZ ARND=
200801102000 METAR MRLM 102000Z NIL=
200801102100 METAR MRLM 102100Z 06005KT 9999 SCT025 BKN290 28/22 A2982 RMK TRACE AC HZ ARND=
200801102200 METAR MRLM 102200Z 06003KT 9999 FEW030 BKN240 27/22 A2982=
200801102300 METAR MRLM 102300Z 07002KT 9999 FEW028 BKN240 27/22 A2982=
200801110000 METAR MRLM 110000Z 16002KT 9999 FEW028 BKN240 25/22 A2984=
200801110100 METAR MRLM NIL=
200801110200 METAR MRLM NIL=
200801110300 METAR MRLM NIL=
200801110400 METAR MRLM NIL=
200801110500 METAR MRLM NIL=
200801110600 METAR MRLM NIL=
200801110700 METAR MRLM NIL=
200801110800 METAR MRLM NIL=
200801110900 METAR MRLM NIL=
200801111000 METAR MRLM NIL=
200801111100 METAR MRLM NIL=
200801111200 METAR MRLM NIL=
200801111300 METAR MRLM 111300Z 23002KT CAVOK 23/20 A2987 RMK BKN090 FEW240 HZ LEVE ARND=
200801111400 METAR MRLM 111400Z 21002KT CAVOK 26/20 A2990 RMK BKN090 FEW240 HZ LEVE ARND=
200801111500 METAR MRLM 111500Z 02003KT CAVOK 27/22 A2991 RMK FEW090 SCT240 TRACE CU=
200801111600 METAR MRLM 111600Z 02004KT 9999 FEW30 27/22 A2991 RMK FEW240=
200801111700 METAR MRLM 111700Z 01004KT 9999 FEW025 27/22 A2989 RMK FEW090 FEW240=
200801111800 METAR MRLM 111800Z 03006KT 9999 FEW025 28/22 A2987 RMK FEW090 FEW240=
200801111900 METAR MRLM 111900Z 05007KT 9999 FEW025 SCT090 28/22 A2984=
200801112000 METAR MRLM NIL=
200801112100 METAR MRLM 112100Z 08008KT 9999 FEW025 BKN090 28/22 A2980=
200801112200 METAR MRLM 112200Z 08010KT 9999 BKN025 28/22 A2980 TRZAS AC CI=
200801112300 METAR MRLM 112300Z 08009KT 9999 BKN026 27/22 A2980 FEW090 HZY=
200801120000 METAR MRLM 120000Z 09008KT 9999 BKN026 27/21 A2982 TRACE AC CI=
200801120100 METAR MRLM NIL=
200801120200 METAR MRLM NIL=
200801120300 METAR MRLM NIL=
200801120400 METAR MRLM NIL=
200801120500 METAR MRLM NIL=
200801120600 METAR MRLM NIL=
200801120700 METAR MRLM NIL=
200801120800 METAR MRLM NIL=
200801120900 METAR MRLM NIL=
200801121000 METAR MRLM NIL=
200801121100 METAR MRLM NIL=
200801121200 METAR MRLM NIL=
200801121300 METAR MRLM 121300Z 18005KT 9999 -DZ FEW025 SCT040 21/19 A2988 SCT090=
200801121400 METAR MRLM 121400Z 19004KT CAVOK 23/19 A2990 REDZ TRAZAS CU BKN090=
200801121500 METAR MRLM 121500Z 08004KT CAVOK 27/20 A2990 FEW100 TRAZAS CU=
200801121600 METAR MRLM 121600Z 08006KT 9999 FEW025 28/20 A2989=
200801121700 METAR MRLM 121700Z 07007KT 9999 FEW025 28/20 A2987 TRAZAS AC=
200801121800 METAR MRLM 121800Z 06007KT 9999 FEW025 28/21 A2985 FEW100=
200801121900 METAR MRLM 121900Z 05007KT 9999 FEW025 29/20 A2983=
200801122000 METAR MRLM NIL=
200801122100 METAR MRLM 122100Z 04007KT 9999 FEW025 28/21 A2980 RMK TRACE AC CI=
200801122200 METAR MRLM 122200Z 03004KT 9999 SCT025 28/21 A2979=
200801122300 METAR MRLM 122300Z 04004KT 9999 SCT025 28/20 A2981 RMK TRACE AC=
200801130000 METAR MRLM 130000Z 03003KT 9999 SCT025 27/19 A2982 TRACE CI=
200801130100 METAR MRLM NIL=
200801130200 METAR MRLM NIL=
200801130300 METAR MRLM NIL=
200801130400 METAR MRLM NIL=
200801130500 METAR MRLM NIL=
200801130600 METAR MRLM NIL=
200801130700 METAR MRLM NIL=
200801130800 METAR MRLM NIL=
200801130900 METAR MRLM NIL=
200801131000 METAR MRLM NIL=
200801131100 METAR MRLM NIL=
200801131200 METAR MRLM 131200Z 00000KT 9999 FEW030 19/18 A2989=
200801131300 METAR MRLM 131300Z 00000KT 9999 FEW030 22/19 A2990=
200801131400 METAR MRLM 131400Z 00000KT 9999 FEW030 25/19 A2992=
200801131500 METAR MRLM NIL=
200801131600 METAR MRLM 131600Z 02005KT 9999 SKC 27/20 A2992=
200801131700 METAR MRLM 131700Z 05007KT 9999 SKC 28/18 A2990=
200801131800 METAR MRLM 131800Z 03006KT 9999 FEW030 28/20 A2988=
200801131900 METAR MRLM 131900Z 04006KT 9999 FEW030 28/20 A2984=
200801132000 METAR MRLM 132000Z NIL=
200801132100 METAR MRLM 132100Z 01005KT 9999 FEW030 28/19 A2982=
200801132200 METAR MRLM 132200Z 01004KT 9999 SKC 29/18 A2983=
200801132300 METAR MRLM 132300Z 36004KT 9999 SKC 28/18 A2985=
200801140000 METAR MRLM 140000Z 00000KT 9999 SKC 23/20 A2987=
200801140100 METAR MRLM NIL=
200801140200 METAR MRLM NIL=
200801140300 METAR MRLM NIL=
200801140400 METAR MRLM NIL=
200801140500 METAR MRLM NIL=
200801140600 METAR MRLM NIL=
200801140700 METAR MRLM NIL=
200801140800 METAR MRLM NIL=
200801140900 METAR MRLM NIL=
200801141000 METAR MRLM NIL=
200801141100 METAR MRLM NIL=
200801141200 METAR MRLM 141200Z NIL=
200801141300 METAR MRLM 141300Z 19004KT 9999 FEW025 SCT090 21/18 A2993 RMK RN DST NE E=
200801141400 METAR MRLM 141400Z 20005KT 9999 FEW025 SCT090 24/19 A2995=
200801141500 METAR MRLM 141500Z 10005KT 9999 FEW025 SCT090 27/19 A2995=
200801141600 METAR MRLM 141600Z 20003KT 9999 FEW025 28/19 A2993 RMK FEW100=
200801141700 METAR MRLM 141700Z 07004KT 9999 FEW025 29/19 A2991 RMK FEW100=
200801141800 METAR MRLM 141800Z 12009KT 9999 FEW025 29/20 A2989 TRACE AC CI=
200801141900 METAR MRLM 141900Z NIL=
200801142000 METAR MRLM 142000Z NIL=
200801142100 METAR MRLM 142100Z 01007KT 9999 FEW025 28/21 A2983 RMK FEW100=
200801142200 METAR MRLM 142200Z 01006KT CAVOK 28/20 A2984 RMK BKN100 TRA CU=
200801142300 METAR MRLM 142300Z 36006KT CAVOK 28/19 A2985 RMK BKN080 TRACE CU=
200801150000 METAR MRLM 150000Z 36005KT 9999 FEW030 BKN080 27/20 A2986 RMK RN N NE=
200801150100 METAR MRLM NIL=
200801150200 METAR MRLM NIL=
200801150300 METAR MRLM NIL=
200801150400 METAR MRLM NIL=
200801150500 METAR MRLM NIL=
200801150600 METAR MRLM NIL=
200801150700 METAR MRLM NIL=
200801150800 METAR MRLM NIL=
200801150900 METAR MRLM NIL=
200801151000 METAR MRLM NIL=
200801151100 METAR MRLM NIL=
200801151200 METAR MRLM NIL=
200801151300 METAR MRLM 151300Z 21004KT CAVOK 21/19 A2990 RMK BKN100 TRACE CU=
200801151400 METAR MRLM 151400Z 21004KT 9999 FEW040 BKN100 23/20 A2993 RMK RN E SE HZ ARND=
200801151500 METAR MRLM 151500Z 21004KT 9999 FEW030 BKN100 26/21 A2993 RMK RN DST E SE HZ ARND=
200801151600 METAR MRLM 151600Z 22002KT 9999 FEW030 BKN090 28/19 A2992 RMK RN DST NE E SE HZ LGT ARND=
200801151700 METAR MRLM 151700Z 05003KT 9999 FEW028 BKN080 29/20 A2990 RMK RN DST NW N NE E HZ ARND=
200801151800 METAR MRLM 151800Z 03014KT 9999 FEW024 BKN080 25/22 A2989 RMK RN DST HZ ARND=
200801151900 METAR MRLM 151900Z 05009KT 9999 SCT025 BKN080 25/22 A2987 RMK RN DST HZ ARND=
200801152000 METAR MRLM 152000Z NIL=
200801152100 METAR MRLM 152100Z 24002KT 9999 SCT030 BKN080 26/21 A2983 REDZ RN ARND=
200801152200 METAR MRLM 152200Z 15002KT 9999 SCT030 BKN080 26/21 A2983 RMK RN ARND=
200801152300 METAR MRLM 152300Z 17002KT 9999 FEW030 BKN080 25/21 A2983 RMK RN S SE SW HZ ARND=
200801160000 METAR MRLM 160000Z 16002KT 9999 BKN035 SCT080 25/21 A2983 RMK HZ ARND=
200801160200 METAR MRLM NIL=
200801160300 METAR MRLM NIL=
200801160400 METAR MRLM NIL=
200801160500 METAR MRLM NIL=
200801160700 METAR MRLM NIL=
200801160800 METAR MRLM NIL=
200801160900 METAR MRLM NIL=
200801161000 METAR MRLM NIL=
200801161100 METAR MRLM NIL=
200801161200 METAR MRLM 161200Z NIL=
200801161300 METAR MRLM 161300Z 00000KT 9999 BKN030 SCT080 24/21 A2987 RMK RN DST ARND HZY=
200801161400 METAR MRLM 161400Z 00000KT 9999 SCT028 SCT080 26/22 A2990 RN DST SW/NE HZ ARND=
200801161500 METAR MRLM 161500Z 23004KT 9999 FEW025 SCT090 28/22 A2990 RMK RN DST S/SW KZ ARND=
200801161600 METAR MRLM 161600Z 05003KT 9999 FEW028 SCT090 29/22 A2989 RMK RN DST=
200801161700 METAR MRLM 161700Z 04005KT 9999 SCT024 SCT090 28/22 A2988 RMK TCU RN DST N/NE HZ ARND=
200801161800 METAR MRLM 161800Z 36008KT 9999 SCT024 SCT090 28/23 A2986 RMK RN DST ARND HZY=
200801161900 METAR MRLM 161900Z 01005KT 9999 FEW024 BKN090 28/23 A2982 RMK RN DST=
200801162000 METAR MRLM NIL=
200801162100 METAR MRLM 162100Z 36005KT 9999 FEW024 BKN090 28/23 A2981 RMK HZY=
200801162200 METAR MRLM 162200Z 08004KT 9999 FEW024 BKN090 28/23 A2980 HZY=
200801162300 METAR MRLM 162300Z 08004KT 9999 FFEW024 BKN090 28/23 A2980 HZY=
200801170000 METAR MRLM 170000Z 00000KT 9999 SCT025 BKN100 26/23 A2983 HZY=
200801170100 METAR MRLM NIL=
200801170200 METAR MRLM NIL=
200801170300 METAR MRLM NIL=
200801170400 METAR MRLM NIL=
200801170500 METAR MRLM NIL=
200801170600 METAR MRLM NIL=
200801170700 METAR MRLM NIL=
200801170800 METAR MRLM NIL=
200801170900 METAR MRLM NIL=
200801171000 METAR MRLM NIL=
200801171100 METAR MRLM NIL=
200801171200 METAR MRLM 171200Z NIL=
200801171300 METAR MRLM 171300Z 21003KT 9999 FEW025 22/20 A2990 TRAZAS AC HZY=
200801171400 METAR MRLM 171400Z 20003KT 9999 FEW025 26/21 A2992 HZY=
200801171500 METAR MRLM NIL=
200801171600 METAR MRLM 171600Z 09004KT 9999 FEW025 29/22 A2991 HZY=
200801171700 METAR MRLM 171700Z 08004KT 9999 FEW025 29/21 A2991 FEW100 HZY=
200801171800 METAR MRLM 171800Z 04005KT 9999 FEW025 SCT100 29/22 A2988=
200801171900 METAR MRLM 171900Z 05004KT 9999 FEW025 29/21 A2985 FEW100 HZY=
200801172000 METAR MRLM 172000Z NIL=
200801172100 METAR MRLM 172100Z 04003KT 9999 FEW025 29/22 A2981 RMK FEW090 HZ ARND=
200801172200 METAR MRLM 172200Z 03006KT 9999 SCT025 29/23 A2981 RMK FEW090 HZY=
200801172300 METAR MRLM 172300Z 03003KT 9999 SCT025 SCT090 28/22 A2983 RMK HZ ARND=
200801180000 METAR MRLM 180000Z 03003KT 9999 -RA BKN025 28/23 A2984=
200801180100 METAR MRLM NIL=
200801180200 METAR MRLM NIL=
200801180300 METAR MRLM NIL=
200801180400 METAR MRLM NIL=
200801180500 METAR MRLM NIL=
200801180600 METAR MRLM NIL=
200801180700 METAR MRLM NIL=
200801180800 METAR MRLM NIL=
200801180900 METAR MRLM NIL=
200801181000 METAR MRLM NIL=
200801181100 METAR MRLM NIL=
200801181200 METAR MRLM NIL=
200801181300 METAR MRLM 181300Z 20003KT 9999 FEW026 23/20 A2989 RMK FEW090 HZ ARND=
200801181400 METAR MRLM 181400Z 19002KT 9999 FEW026 26/21 A2991 RMK FEW090 RN DST NE HZ ARND=
200801181500 METAR MRLM 181500Z 14003KT 9999 FEW025 BKN080 26/22 A2981 RMK RN DST NE HZ ARND=
200801181600 METAR MRLM 181600Z 00000KT 9999 SCT028 BKN080 28/22 A2991 RMK RN DST NE E HZ ARND=
200801181700 METAR MRLM 181700Z 03016KT 4000 +DZ BKN025 SCT080 26/21 A2990 RMK RN ARND=
200801181800 METAR MRLM 181800Z 01005KT 8000 -DZ BKN025 SCT080 24/21 A2990 RERA RMK RN ARND=
200801181900 METAR MRLM 181900Z 10003KT 8000 DZ SCT025 SCT080 25/21 A2987 RMK RN ARND=
200801182000 METAR MRLM 182000Z 21005KT 9999 SCT025 BKN080 25/21 A2982 REDZ RMK RN DST ARND=
200801182100 METAR MRLM 182100Z 05012KT 3000 -RA BKN015 SCT080 24/22 A2984=
200801182200 METAR MRLM 182200Z 08003KT 9999 -DZ SCT015 BKN080 23/21 A2984 RERA RMK RN DST ARND=
200801182300 METAR MRLM 182300Z 20004KT 9999 SCT028 SCT080 23/21 A2984 REDZ RMK RN DST ARND=
200801190000 METAR MRLM 190000Z 20004KT 9999 SCT028 BKN080 23/21 A2984 RMK RN DST ARND=
200801190100 METAR MRLM NIL=
200801190200 METAR MRLM NIL=
200801190300 METAR MRLM NIL=
200801190400 METAR MRLM NIL=
200801190500 METAR MRLM NIL=
200801190600 METAR MRLM NIL=
200801190700 METAR MRLM NIL=
200801190800 METAR MRLM NIL=
200801190900 METAR MRLM NIL=
200801191000 METAR MRLM NIL=
200801191100 METAR MRLM NIL=
200801191200 METAR MRLM NIL=
200801191300 METAR MRLM 191300Z 20003KT 9999 SCT030 BKN080 22/19 A2986 RMK RN DST NW N NE HZY=
200801191400 METAR MRLM 191400Z 00000KT 9999 FEW025 BKN080 23/20 A2990 RMK RN DST N NE HZ ARND=
200801191500 METAR MRLM 191500Z 00000KT 9999 SCT030 BKN080 26/21 A2990 RMK RN DST NW N NE HZY=
200801191600 METAR MRLM 191600Z 05003KT 9999 FEW030 BKN080 26/22 A2990 RMK RN DST NW N NE HZ ARND=
200801191700 METAR MRLM 191700Z 36006KT 9999 SCT030 BKN090 27/22 A2989 RMK HZY=
200801191800 METAR MRLM 191800Z 32005KT 9999 SCT030 BKN080 26/22 A2987 RMK HZ ARND=
200801191900 METAR MRLM 191900Z NIL=
200801192000 METAR MRLM 192000Z 35006KT 9999 FEW025 BKN080 26/22 A2983 RMK HZY=
200801192100 METAR MRLM 192100Z 32004KT 9999 SCT030 BKN080 27/21 A2982 RMK RN DST W NW N HZ ARND=
200801192200 METAR MRLM 192200Z 00000KT 9999 SCT030 BKN080 27/21 A2982 RMK RN DST S SW HZ ARND=
200801192300 METAR MRLM 192300Z 23002KT 9999 FEW030 BKN080 26/22 A2983 RMK HZ ARND=
200801200000 METAR MRLM 200000Z 00000KT 9999 SCT035 BKN080 25/22 A2983 RMK HZ ARND=
200801200100 METAR MRLM NIL=
200801200200 METAR MRLM NIL=
200801200300 METAR MRLM NIL=
200801200400 METAR MRLM NIL=
200801200500 METAR MRLM NIL=
200801200600 METAR MRLM NIL=
200801200700 METAR MRLM NIL=
200801200800 METAR MRLM NIL=
200801200900 METAR MRLM NIL=
200801201000 METAR MRLM NIL=
200801201100 METAR MRLM NIL=
200801201200 METAR MRLM NIL=
200801201300 METAR MRLM 201300Z 22002KT CAVOK 23/20 A2990 RMK TRACE CU HZ ARND BKN250=
200801201400 METAR MRLM 201400Z 00000KT CAVOK 26/21 A2993 RMK SCT280 TRACE CU AC HZ ARND=
200801201500 METAR MRLM 201500Z 30002KT CAVOK 29/22 A2993 RMK FEW100 FEW280 TRA CU HZ ARND=
200801201600 METAR MRLM 201600Z 36008KT CAVOK 29/23 A2992 RMK FEW100 TRACE CU CI HZ ARND=
200801201700 METAR MRLM 201700Z 36007KT 9999 FEW025 29/23 A2991 RMK FEW100 HZ ARND=
200801201800 METAR MRLM 201800Z 36007KT 9999 FEW025 29/23 A2990 RMK FEW090 HZ ARND=
200801201900 METAR MRLM 201900Z 35009KT 9999 FEW025 29/23 A2987 RMK FEW090 HZ ARND=
200801202000 METAR MRLM 202000Z NIL=
200801202100 METAR MRLM 202100Z 04006KT 9999 FEW025 29/23 A2984 FEW080 HZ ARND=
200801202200 METAR MRLM 202200Z 34006KT 9999 FEW025 29/23 A2985 RMK FEW080 HZY=
200801202300 METAR MRLM 202300Z 34007KT 9999 FEW025 28/23 A2985 RMK FEW080 TCU DST NW/N/NE HZ ARND=
200801210000 METAR MRLM 210000Z 00000KT CAVOK 27/23 A2988 RMK BKN090 TRACE CU HZ ARND=
200801210100 METAR MRLM NIL=
200801210200 METAR MRLM NIL=
200801210300 METAR MRLM NIL=
200801210400 METAR MRLM NIL=
200801210500 METAR MRLM NIL=
200801210600 METAR MRLM NIL=
200801210700 METAR MRLM NIL=
200801210800 METAR MRLM NIL=
200801210900 METAR MRLM NIL=
200801211000 METAR MRLM NIL=
200801211100 METAR MRLM NIL=
200801211200 METAR MRLM NIL=
200801211300 METAR MRLM 211300Z 15004KT 9999 BKN026 23/21 A2996 RMK FEW080 TCU/RN DST NW/N/NE/E HZY=
200801211400 METAR MRLM 211400Z 18003KT 9999 SCT026 SCT080 24/22 A2997 RMK REDZ RN DST N/NE/W HZ ARND=
200801211500 METAR MRLM 211500Z 00000KT 9999 FEW028 BKN080 26/23 A2997 RMK TCU/RN NW/N/NE/E HZ ARND=
200801211600 METAR MRLM 211600Z 06010KT 3000 RA SCT012 BKN028 25/23 A3000=
200801211700 METAR MRLM 211700Z 15004KT 9999 BKN030 SCT080 25/22 A2997 RMK RERA RN DST DST ARND=
200801211800 METAR MRLM 211800Z 00000KT 9999 SCT080 25/22 A2996 RMK RN ARND=
200801211900 METAR MRLM 211900Z 21005KT 9999 BKN028 SCT080 26/22 A2993 RMK RN DST ARND=
200801212000 METAR MRLM 212000Z 21004KT 9999 SCT018 BKN090 26/22 A2990 RMK RN DST SE/S/SW=
200801212100 METAR MRLM 212100Z 20003KT 9999 FEW028 BKN090 28/22 A2989 RN SE S SW=
200801212200 METAR MRLM 212200Z 08003KT 9999 FEW028 SCT090 29/22 A2987 RN SE S HZY=
200801212300 METAR MRLM 212300Z 07002KT 9999 FEW028 SCT090 28/22 A2989 HZY=
200801220000 METAR MRLM NIL=
200801220100 METAR MRLM NIL=
200801220200 METAR MRLM NIL=
200801220300 METAR MRLM NIL=
200801220400 METAR MRLM NIL=
200801220500 METAR MRLM NIL=
200801220600 METAR MRLM NIL=
200801220700 METAR MRLM NIL=
200801220800 METAR MRLM NIL=
200801220900 METAR MRLM NIL=
200801221000 METAR MRLM NIL=
200801221100 METAR MRLM NIL=
200801221200 METAR MRLM NIL=
200801221300 METAR MRLM 221300Z 20003KT 9999 SCT025 BKN080 22/20 A2995 RMK RN SE S SW W HZY=
200801221400 METAR MRLM 221400Z 20003KT 9999 SCT025 BKN080 22/20 A2995 RN SE S SW W HZY=
200801221500 METAR MRLM 221500Z 21002KT 9999 FEW025 28/21 A2997 FEW080 TCU RN N E HZY=
200801221600 METAR MRLM 221600Z 09004KT 9999 FEW025 SCT100 28/20 A2998 RN NW SE HZY=
200801221700 METAR MRLM 221700Z 08003KT 9999 FEW025 SCT090 29/20 A2996 HZY=
200801221800 METAR MRLM NIL=
200801221900 METAR MRLM 221900Z 08004KT 9999 FEW025 30/20 A2992 FEW090 HZY=
200801222000 METAR MRLM 222000Z 07005KT 9999 FEW025 30/20 A2989 FEW100 HZY=
200801222100 METAR MRLM 222100Z 06004KT 9999 FEW025 BKN090 29/20 A2987 RMK HZY=
200801222200 METAR MRLM 222200Z 07003KT 9999 FEW025 28/20 A2986 RMK FEW090 HZY=
200801222300 METAR MRLM 222300Z 04003KT CAVOK 28/21 A2987 RMK FEW080 HZY=
200801230000 METAR MRLM 230000Z 00000KT CAVOK 25/22 A2987 RMK FEW080 FEW280 HZY=
200801230100 METAR MRLM NIL=
200801230200 METAR MRLM NIL=
200801230300 METAR MRLM NIL=
200801230400 METAR MRLM NIL=
200801230500 METAR MRLM NIL=
200801230600 METAR MRLM NIL=
200801230700 METAR MRLM NIL=
200801230800 METAR MRLM NIL=
200801230900 METAR MRLM NIL=
200801231000 METAR MRLM NIL=
200801231100 METAR MRLM NIL=
200801231200 METAR MRLM NIL=
200801231300 METAR MRLM 231300Z 22002KT 9999 SCT035 SCT080 22/20 A2992 RMK RN DST ARND HZY=
200801231400 METAR MRLM 231400Z 23003KT 9999 FEW030 SCT080 25/21 A2993 RMK RN DST SE HZY=
200801231500 METAR MRLM 231500Z 02003KT CAVOK 28/21 A2994 RMK BKN090 HZ ARND=
200801231600 METAR MRLM 231600Z 05003KT CAVOK 28/22 A2994 RMK SCT090 TRACE CU HZY=
200801231700 METAR MRLM 231700Z 03003KT 9999 FEW025 BKN080 28/21 A2992 RMK HZ ARND=
200801231800 METAR MRLM 231800Z 36006KT 9999 FEW025 BKN080 29/22 A2990 RMK HZ ARND=
200801231900 METAR MRLM 231900Z 36005KT 9999 FEW025 SCT260 29/22 A2986 RMK HZ ARND=
200801232000 METAR MRLM 232000Z 36007KT 9999 FEW026 SCT280 29/22 A2984 RMK TRACE AC HZ ARND=
200801232100 METAR MRLM 232100Z 36011KT 9999 FEW026 SCT090 29/22 A2983 TRACE CI HZY=
200801232200 METAR MRLM 232200Z 35009KT 9999 FEW025 BKN090 28/22 A2983 RMK HZY=
200801232300 METAR MRLM 232300Z 34007KT 9999 FEW025 BKN080 28/23 A2984 RMK HZY=
200801240000 METAR MRLM 240000Z 00000KT 9999 FEW025 BKN080 27/23 A2980=
200801240100 METAR MRLM NIL=
200801240200 METAR MRLM NIL=
200801240300 METAR MRLM NIL=
200801240400 METAR MRLM NIL=
200801240500 METAR MRLM NIL=
200801240600 METAR MRLM NIL=
200801240700 METAR MRLM NIL=
200801240800 METAR MRLM NIL=
200801240900 METAR MRLM NIL=
200801241000 METAR MRLM NIL=
200801241100 METAR MRLM NIL=
200801241200 METAR MRLM NIL=
200801241300 METAR MRLM 241300Z 28002KT 9999 BKN026 SCT080 23/21 A2989 RMK RN DST ARND=
200801241400 METAR MRLM 241400Z 27002KT 8000 DZ BKN025 SCT080 24/22 A2994 RERA RMK RN ARND=
200801241500 METAR MRLM 241500Z 22004KT 9999 SCT012 SCT035 24/22 A2994 REDZ RMK FEW080 RN ARND=
200801241600 METAR MRLM 241600Z 28004KT 5000 +DZ BKN014 SCT035 24/22 A2995 RMK RN ARND=
200801241700 METAR MRLM 241700Z 23005KT 5000 DZ BKN015 SCT080 24/22 A2993 RMK RN ARND=
200801241800 METAR MRLM 241800Z 22003KT 4000 +DZ BKN015 SCT080 25/22 A2992 RMK RN ARND=
200801241900 METAR MRLM 241900Z 20003KT 9999 BKN026 SCT080 24/22 A2990 REDZ RMK RN DST ARND=
200801242000 METAR MRLM 242000Z NIL=
200801242100 METAR MRLM 242100Z 21003KT 9999 DZ FEW015 SCT030 24/22 A2987 RMK RN DST ARND=
200801242200 METAR MRLM 242200Z 30005KT 9999 -DZ BKN028 SCT080 25/22 A2989 RMK RN DST ARND=
200801242300 METAR MRLM 242300Z 24003KT 9999 DZ BKN028 24/22 A2989 RMK RN ARND=
200801250000 METAR MRLM 250000Z 17003KT 7000 -DZ BKN024 23/22 A2990 RMK FEW080 RN ARND=
200801250100 METAR MRLM NIL=
200801250200 METAR MRLM NIL=
200801250300 METAR MRLM NIL=
200801250400 METAR MRLM NIL=
200801250500 METAR MRLM NIL=
200801250600 METAR MRLM NIL=
200801250700 METAR MRLM NIL=
200801250800 METAR MRLM NIL=
200801250900 METAR MRLM NIL=
200801251000 METAR MRLM NIL=
200801251100 METAR MRLM NIL=
200801251200 METAR MRLM 251200Z NIL=
200801251300 METAR MRLM 251300Z 22005KT 9999 FEW020 BKN090 21/20 A2997 RMK RN DST N E HZ ARND=
200801251400 METAR MRLM 251400Z 33011KT 5000 RA FEW010 OVC090 24/22 A3001 RMK VIS 8000 N=
200801251500 METAR MRLM 251500Z 18006KT 9999 FEW015 BKN090 24/22 A3000 RERA RMK RN DST S W N HZ ARND=
200801251600 METAR MRLM 251600Z 18005KT 9999 OVC025 27/22 A3000 RMK TRACE AC RN DST S W HZ ARND=
200801251700 METAR MRLM 251700Z 18004KT 9999 BKN018 27/23 A2998 RMK RN DST S TRACE AC HZ LGT ARND=
200801251800 METAR MRLM 251800Z 09005KT 090V22KT 9999 BKN035 29/22 A2996 RMK TRACE AC HZ ARND=
200801251900 METAR MRLM 251900Z 07005KT 9999 SCT025 SCT110 29/22 A2994 RMK RN DST NW N HZ ARND=
200801252000 METAR MRLM NIL=
200801252100 METAR MRLM 252100Z 07004KT 9999 SCT030 SCT080 28/22 A2991 RMK HA ARND=
200801252200 METAR MRLM 252200Z 07004KT 9999 FEW030 29/22 A2992 RMK FEW090 HZ ARND=
200801252300 METAR MRLM NIL=
200801260000 METAR MRLM 260000Z 17002KT 9999 FEW018 SCT110 26/22 A2994 RMK RN DST E HZ ARND TRAZAS CI=
200801260100 METAR MRLM NIL=
200801260200 METAR MRLM NIL=
200801260300 METAR MRLM NIL=
200801260400 METAR MRLM NIL=
200801260500 METAR MRLM NIL=
200801260600 METAR MRLM NIL=
200801260700 METAR MRLM NIL=
200801260800 METAR MRLM NIL=
200801260900 METAR MRLM NIL=
200801261000 METAR MRLM NIL=
200801261100 METAR MRLM NIL=
200801261200 METAR MRLM 261200Z NIL=
200801261300 METAR MRLM 261300Z 08006KT 9999 FEW012 22/19 A2998 FEW080 HZ ARND RN DST NW=
200801261400 METAR MRLM 261400Z 23006KT 9999 FEW025 SCT080 24/20 A3000 HZ LGT ARND=
200801261500 METAR MRLM 261500Z 28005KT 9999 FEW028 SCT080 27/22 A3001 RMK HA LGT ARND=
200801261600 METAR MRLM 261600Z 02004KT 9999 FEW035 28/22 A3000 RMK FEW080 HZ LGT ARND=
200801261700 METAR MRLM 261700Z 01007KT 9999 FEW032 28/22 A2998 RMK HZ LGT ARND=
200801261800 METAR MRLM 261800Z 04007KT 9999 FEW040 29/20 A2996 RMK HZ LGT ARND=
200801261900 METAR MRLM 261900Z 04010KT 9999 FEW045 29/20 A2994 RMK HZ LGT ARND=
200801262000 METAR MRLM NIL=
200801262100 METAR MRLM 262100Z 05007KT 9999 FEW040 29/21 A2990 TRAZAS AC HZ AROUND=
200801262200 METAR MRLM 262200Z 04008KT 9999 FEW040 29/23 A2991 RMK FEW120 HZ AROUND=
200801262300 METAR MRLM 262300Z 02007KT 99999 FEW045 BKN090 28/19 A2992 RMK HZ AROUND=
200801270000 METAR MRLM 270000Z 03004KT CAVOK 27/21 A2992 RMK BKN090 TRAZAS CU=
200801270100 METAR MRLM NIL=
200801270200 METAR MRLM NIL=
200801270300 METAR MRLM NIL=
200801270400 METAR MRLM NIL=
200801270500 METAR MRLM NIL=
200801270600 METAR MRLM NIL=
200801270700 METAR MRLM NIL=
200801270800 METAR MRLM NIL=
200801270900 METAR MRLM NIL=
200801271000 METAR MRLM NIL=
200801271100 METAR MRLM NIL=
200801271200 METAR MRLM NIL=
200801271300 METAR MRLM 271300Z 23003KT 9999 SCT026 22/21 A3000 RMK FEW090=
200801271400 METAR MRLM 271400Z 00000KT 9999 SCT030 SCT090 25/22 A3002 RMK RN DST=
200801271500 METAR MRLM 271500Z 00000KT 9999 SCT028 SCT080 28/22 A3003 RMK RN DST SW HZ ARND=
200801271600 METAR MRLM 271600Z 04003KT 9999 SCT028 29/21 A3000 RMK FEW100 RN DST SSE HZ ARMD=
200801271700 METAR MRLM 271700Z 01002KT 9999 SCT028 29/21 A3001 RMK FEW100 RN DST ESE HZY=
200801271800 METAR MRLM 271800Z 04003KT 9999 SCT028 BKN090 29/21 A2998 RMK HZ ARND=
200801271900 METAR MRLM 271900Z 06003KT 9999 SCT026 SCT090 28/21 A2995 RMK RN DST N/NE HZ ARND=
200801272000 METAR MRLM 272000Z NIL=
200801272100 METAR MRLM 272100Z 01007KT 9999 SCT025TCU 29/22 A2992 RMK TRACE AC RN HZ DST ARND=
200801272200 METAR MRLM 272200Z 02008KT 5000 RA BKN025TCU 28/22 A2992=
200801272300 METAR MRLM 272300Z 30002KT 9999 -DZ BKN026 25/22 A2992 RERA RN DST ARND=
200801280000 METAR MRLM 280000Z 20003KT 9999 BKN025 23/21 A2995 REDZ RMK RN DST ARND=
200801280100 METAR MRLM NIL=
200801280200 METAR MRLM NIL=
200801280300 METAR MRLM NIL=
200801280400 METAR MRLM NIL=
200801280500 METAR MRLM NIL=
200801280600 METAR MRLM NIL=
200801280700 METAR MRLM NIL=
200801280800 METAR MRLM NIL=
200801280900 METAR MRLM NIL=
200801281000 METAR MRLM NIL=
200801281100 METAR MRLM NIL=
200801281200 METAR MRLM 281200Z 22004KT 9999 SCT028 21/19 A2997 RMK RN DIST E S=
200801281300 METAR MRLM 281300Z 20004KT 9999 SCT030 21/19 A2999 RMK FEW080 LEVE HZ ARND=
200801281400 METAR MRLM 281400Z 19005KT 9999 FEW028 24/20 A3001 RMK HZ ARND=
200801281500 METAR MRLM 281500Z 20004KT 9999 FEW028 27/20 A3003 RMK HZ ARND=
200801281600 METAR MRLM 281600Z 20002KT 9999 FEW028 28/21 A3002 RMK FEW090 LEVE HZ ARND=
200801281700 METAR MRLM 281700Z 00000KT 9999 FEW028 29/20 A2999 RMK FEW090 LEVE HZ ARND=
200801281800 METAR MRLM 281800Z 08003KT 9999 FEW028 29/20 A2996 RMK TRACE AC HZ ARND=
200801281900 METAR MRLM 281900Z 05005KT 9999 FEW028 29/21 A2993 RMK HZ ARND=
200801282000 METAR MRLM 282000Z NIL=
200801282100 METAR MRLM 282100Z 08005KT CAVOK 29/21 A2988 FEW280 TRACE CU AC=
200801282200 METAR MRLM 282200Z 05007KT 9999 NSC 29/21 A2988 RMK TRACE CU AC=
200801282300 METAR MRLM 282300Z 04008KT CAVOK 28/21 A2990 FEW090 TRACE CU CI=
200801290000 METAR MRLM 290000Z 05007KT 9999 FEW025 SCT090 27/21 A2991 RMK RN DST NW N TRACE CI=
200801290100 METAR MRLM NIL=
200801290200 METAR MRLM NIL=
200801290300 METAR MRLM NIL=
200801290400 METAR MRLM NIL=
200801290500 METAR MRLM NIL=
200801290600 METAR MRLM NIL=
200801290700 METAR MRLM NIL=
200801290800 METAR MRLM NIL=
200801290900 METAR MRLM NIL=
200801291000 METAR MRLM NIL=
200801291100 METAR MRLM NIL=
200801291200 METAR MRLM 291200Z NIL=
200801291300 METAR MRLM 291300Z 28004KT 9999 FEW015 BKN080 22/19 A2994 RMK RN DST NW TRACE CI HZ LGT ARND=
200801291400 METAR MRLM 291400Z 20003KT CAVOK 25/19 A2996 RMK TRACE CU FEW080=
200801291500 METAR MRLM 291500Z 03003KT CAVOK 27/19 A2996 RMK TRACE CU CI FEW120=
200801291600 METAR MRLM 291600Z 03006KT CAVOK 27/20 A2996 RMK FEW130 TRACE CU CI HZY=
200801291700 METAR MRLM 291700Z 05004KT 9999 FEW025 28/20 A2995 RMK FEW110 HZY=
200801291800 METAR MRLM 291800Z 04006KT 9999 FEW038 28/20 A2993 RMK TRACE AC HZY=
200801291900 METAR MRLM 291900Z 04006KT 9999 FEW035 28/21 A2990 HZ ARND=
200801292000 METAR MRLM 292000Z NIL=
200801292100 METAR MRLM 292100Z 04010KT 9999 FEW038 29/21 A2987 RMK HZ LEVE ARND=
200801292200 METAR MRLM 292200Z NIL=
200801292300 METAR MRLM 292300Z 05005KT 9999 FEW025 28/21 A2988 RMK HZ LEVE ARND=
200801300000 METAR MRLM 300000Z 07006KT 9999 BKN030 27/22 A2990 RMK HZ LEVE ARND TRACE AC=
200801300100 METAR MRLM NIL=
200801300200 METAR MRLM NIL=
200801300300 METAR MRLM NIL=
200801300400 METAR MRLM NIL=
200801300500 METAR MRLM NIL=
200801300600 METAR MRLM NIL=
200801300700 METAR MRLM NIL=
200801300800 METAR MRLM NIL=
200801300900 METAR MRLM NIL=
200801301000 METAR MRLM NIL=
200801301100 METAR MRLM NIL=
200801301200 METAR MRLM 301200Z NIL=
200801301300 METAR MRLM 301300Z 22005KT CAVOK 20/18 A2996 RMK FEW300 TRACE CU HZ=
200801301400 METAR MRLM 301400Z 20008KT CAVOK 24/19 A2997 RMK FEW300 TRACE CU HZ=
200801301500 METAR MRLM 301500Z 20004KT CAVOK 28/19 A2999 RMK FEW300 TRACE CU HZ ARND=
200801301600 METAR MRLM 301600Z 05005KT CAVOK 27/19 A2998 RMK FEW300 HZ ARND=
200801301700 METAR MRLM 301700Z 05006KT CAVOK 28/20 A2997 RMK FEW300 TRACE CU HZ ARND=
200801301800 METAR MRLM 301800Z 07006KT CAVOK 28/20 A2994 RMK FEW300 TRACE CU AC HA LEVE ARND=
200801301900 METAR MRLM 301900Z 06007KT CAVOK 28/21 A2991 RMK FEW120 FEW300 HZ ARND=
200801302000 METAR MRLM 302000Z NIL=
200801302100 METAR MRLM 302100Z 06008KT 9999 FEW033 28/22 A2988 RMK FEW120 HZ LGT ARND=
200801302200 METAR MRLM 302200Z 07006KT 9999 FEW038 BKN120 29/21 A2988 LGT ARND=
200801302300 METAR MRLM 302300Z 06006KT 9999 BKN035 28/21 A2988 RMK HZ LGT ARND=
200801310000 METAR MRLM 310000Z 08006KT 9999 BKN032 27/21 A2989 FEW300 HZ LGT ARND=
200801310100 METAR MRLM NIL=
200801310200 METAR MRLM NIL=
200801310300 METAR MRLM NIL=
200801310400 METAR MRLM NIL=
200801310500 METAR MRLM NIL=
200801310600 METAR MRLM NIL=
200801310700 METAR MRLM NIL=
200801310800 METAR MRLM NIL=
200801310900 METAR MRLM NIL=
200801311000 METAR MRLM NIL=
200801311100 METAR MRLM NIL=
200801311200 METAR MRLM 311200Z 19004KT 9999 FEW028 SCT300 20/19 A2996=
200801311300 METAR MRLM 311300Z 20004KT 9999 FEW028 22/19 A2997 RMK TRAZAS CI=
200801311400 METAR MRLM 311400Z 14002KT 9999 FEW028 26/20 A2999 RMK FEW280=
200801311500 METAR MRLM 311500Z 10008KT 9999 NSC 28/20 A3000 RMK TRAZAS CU=
200801311600 METAR MRLM 311600Z 10010KT CAVOK 28/20 A3000 FEW280 TRAZAS CU=
200801311700 METAR MRLM 311700Z 09009KT CAVOK 28/21 A2998 RMK FEW280 TRAZAS CU=
200801311800 METAR MRLM 311800Z 08008KT CAVOK 29/19 A2995 RMK FEW230 TRAZAS CU=
200801311900 METAR MRLM 311900Z 06008KT CAVOK 29/20 A2992 RMK FEW230 TRAZAS CU=
200801312000 METAR MRLM NIL=
200801312100 METAR MRLM 312100Z 04005KT CAVOK 29/20 A2988 TRACE CU AS FEW230=
200801312200 METAR MRLM 312200Z 05005KT CAVOK 29/20 A2988 RMK FEW230 TRACE CU AC=
200801312300 METAR MRLM 312300Z 03004KT CAVOK 28/21 A2990 RMK FEW230 TRACE CU AC=
200801312352 METAR MRLM 010000Z 01002KT CAVOK 27/21 A2991 RMK FEW100 BKN280 TRACE CU=
200802010000 METAR MRLM 010000Z 01002KT CAVOK 27/21 A2991 RMK FEW100 BKN280 TRACE CU=
200802010100 METAR MRLM NIL=
200802010200 METAR MRLM NIL=
200802010300 METAR MRLM NIL=
200802010400 METAR MRLM NIL=
200802010500 METAR MRLM NIL=
200802010600 METAR MRLM NIL=
200802010700 METAR MRLM NIL=
200802010800 METAR MRLM NIL=
200802010900 METAR MRLM NIL=
200802011000 METAR MRLM NIL=
200802011100 METAR MRLM NIL=
200802011200 METAR MRLM 011200Z NIL=
200802011300 METAR MRLM 011300Z 21004KT 3000 -RA BKN020 SCT080 22/20 A3004=
200802011400 METAR MRLM 011400Z 22004KT 8000 -DZ BKN022 SCT080 22/21 A3006 RMK RERA RN ARND=
200802011500 METAR MRLM 011500Z 21005KT 9999 +DZ FEW012 BKN028 22/21 A3007 RMK RN AROUND=
200802011600 METAR MRLM 011600Z 21005KT 9999 SCT030 SCT080 24/21 A3007 RMK REDZ RN AROUND=
200802011700 METAR MRLM 011700Z 21005KT 9999 SCT030 BKN090 25/21 A3004 RMK RN DIST N NE N=
200802011800 METAR MRLM 011800Z 21004KT 9999 BKN030 SCT080 27/21 A3002=
200802011900 METAR MRLM 011900Z 25002KT 9999 SCT022 SCT030 27/21 A2999 RMK RN N NE E SE FEW280 HZ AROUND=
200802012000 METAR MRLM NIL=
200802012100 METAR MRLM 012100Z NIL=
200802012200 METAR MRLM 012200Z 36010KT 4000 -RA BKN024 SCT080 23/20 A2997=
200802012300 METAR MRLM 012300Z 21004KT 9999 BKN026 SCT080 22/20 A2998 RERA RMK RN DST ARND=
200802020000 METAR MRLM 020000Z 21004KT 9999 SCT024 SCT080 22/20 A2999 RMK RN DST ARND=
200802020100 METAR MRLM NIL=
200802020200 METAR MRLM NIL=
200802020300 METAR MRLM NIL=
200802020400 METAR MRLM NIL=
200802020500 METAR MRLM NIL=
200802020600 METAR MRLM NIL=
200802020700 METAR MRLM NIL=
200802020800 METAR MRLM NIL=
200802020900 METAR MRLM NIL=
200802021000 METAR MRLM NIL=
200802021100 METAR MRLM NIL=
200802021200 METAR MRLM NIL=
200802021300 METAR MRLM 021300Z 21006KT 9999 FEW015 BKN090 20/19 A3002 RMK RN DST N NE HZ LGT ARND=
200802021400 METAR MRLM 021400Z 20006KT 9999 FEW022 BKN100 24/20 A3004 RMK RN DST N NE HZ LGT ARND=
200802021500 METAR MRLM 021500Z 30003KT 9999 FEW035 BKN090 28/20 A3005 RMK HZ LGT ARND=
200802021600 METAR MRLM 021600Z 04003KT 9999 FEW035 BKN090 27/20 A3004 RMK HZ LGT ARND=
200802021700 METAR MRLM 021700Z 04005KT 9999 FEW040 BKN090 28/20 A3002 RMK HZ LGT ARND=
200802021800 METAR MRLM 021800Z 02006KT 9999 FEW043 SCT110 28/20 A3000 RMK HZ LGT ARND=
200802021900 METAR MRLM 021900Z 02006KT 9999 FEW045 28/19 A2997 RMK TRACE AC CI HZ LEVE ARND=
200802022000 METAR MRLM 022000Z NIL=
200802022100 METAR MRLM 022100Z 36007KT 9999 FEW040 28/20 A2993 RMK TRACE SC FEW300 HZY=
200802022200 METAR MRLM 022200Z 36007KT 9999 FEW045 28/19 A2993 RMK TRACE AC FEW300 HZY=
200802022300 METAR MRLM 022300Z 35007KT 9999 FEW040 28/20 A2994 RMK FEW300 TRACE AC=
200802030000 METAR MRLM 030000Z 31004KT 9999 FEW024 25/20 A2995 RMK FEW090 FEWCI HZY=
200802030100 METAR MRLM NIL=
200802030200 METAR MRLM NIL=
200802030300 METAR MRLM NIL=
200802030400 METAR MRLM NIL=
200802030500 METAR MRLM NIL=
200802030600 METAR MRLM NIL=
200802030700 METAR MRLM NIL=
200802030800 METAR MRLM NIL=
200802030900 METAR MRLM NIL=
200802031000 METAR MRLM NIL=
200802031100 METAR MRLM NIL=
200802031200 METAR MRLM 031200Z 22002KT 9999 FEW028 BKN260 19/17 A2998=
200802031300 METAR MRLM 031300Z 21005KT 9999 FEW028 SCT280 21/18 A3001 RMK TRACE AC=
200802031400 METAR MRLM 031400Z 31004KT 9999 FEW028 SCT280 24/19 A3002 RMK TRACE AC HZY=
200802031500 METAR MRLM 031500Z 06002KT CAVOK 28/19 A3003 RMK TRACE CU FEW090 SCT090=
200802031600 METAR MRLM 031600Z 02003KT 9999 FEW028 SCT280 28/19 A3003 RMK FEW090=
200802031700 METAR MRLM 031700Z 06003KT 9999 FEW025 BKN090 28/20 A3002 RMK RN DST NNE=
200802031800 METAR MRLM 031800Z 02009KT 9999 FEW026 BKN090 27/22 A3000 RMK RN DST NNE=
200802031900 METAR MRLM 031900Z 02005KT 9999 FEW026 BKN090 27/21 A2997=
200802032000 METAR MRLM 032000Z NIL=
200802032100 METAR MRLM 032100Z 05003KT 9999 FEW030 SCT090 29/20 A2991 RMK TRACE CI=
200802032200 METAR MRLM 032200Z 05004KT 9999 FEW030 SCT090 28/19 A2991=
200802032300 METAR MRLM 032300Z 04003KT CAVOK 27/20 A2991 RMK TRACE CU FEW100 FEW250=
200802040000 METAR MRLM 040000Z 04005KT CAVOK 27/19 A2992 RMK BKN280 TRACE CU AC=
200802040100 METAR MRLM NIL=
200802040200 METAR MRLM NIL=
200802040300 METAR MRLM NIL=
200802040400 METAR MRLM NIL=
200802040500 METAR MRLM NIL=
200802040600 METAR MRLM NIL=
200802040700 METAR MRLM NIL=
200802040800 METAR MRLM NIL=
200802040900 METAR MRLM NIL=
200802041000 METAR MRLM NIL=
200802041100 METAR MRLM NIL=
200802041200 METAR MRLM 041200Z NIL=
200802041300 METAR MRLM 041300Z 20006KT CAVOK 21/18 A2996 RMK FEW110 FEW300 TCU RN DST NE HZ LGT NE HZ LGT ARND=
200802041400 METAR MRLM 041400Z 20006KT CAVOK 25/20 A2997 RMK FEW110 FEW300 TRACE CU HZ LGT ARND=
200802041500 METAR MRLM 041500Z 05003KT CAVOK 28/20 A2998 RMK TRACE CU FEW130 FEW300 HZ LGT ARND=
200802041600 METAR MRLM 041600Z 07004KT CAVOK 28/19 A2997 RMK TRACE CU CI HZ LGT ARND=
200802041700 METAR MRLM 041700Z 07005KT CAVOK 28/20 A2996 RMK TRACE CU CI HZ LGT ARND=
200802041800 METAR MRLM 041800Z 07007KT 9999 FEW040 28/21 A2994 RMK FEW130 HZ LGT ARND=
200802041900 METAR MRLM 041900Z 05007KT 9999 FEW035 28/21 A2991 RMK HZ LGT ARND=
200802042000 METAR MRLM 042000Z NIL=
200802042100 METAR MRLM 042100Z 06009KT 9999 FEW035 29/22 A2986 RMK HZ LGT ARND=
200802042200 METAR MRLM 042200Z 07008KT 9999 FEW035 29/21 Q2986=
200802042300 METAR MRLM 042300Z 09008KT 9999 FEW033 28/21 A2987 HZ LGT ARND=
200802050000 METAR MRLM 050000Z 09009KT 9999 FEW030 27/21 A2988 RMK TRACE CI HZ LGT ARWND=
200802050100 METAR MRLM NIL=
200802050200 METAR MRLM NIL=
200802050300 METAR MRLM NIL=
200802050400 METAR MRLM NIL=
200802050500 METAR MRLM NIL=
200802050600 METAR MRLM NIL=
200802050700 METAR MRLM NIL=
200802050800 METAR MRLM NIL=
200802050900 METAR MRLM NIL=
200802051000 METAR MRLM NIL=
200802051100 METAR MRLM NIL=
200802051200 METAR MRLM NIL=
200802051300 METAR MRLM 051300Z 20005KT CAVOK 21/18 A2995 RMK FEW090 TRAZAS CU HZ LGT ARND=
200802051400 METAR MRLM 051400Z 21003KT CAVOK 25/19 A2997 RMK FEW090 TRAZAS CI HZ LGT ARND=
200802051500 METAR MRLM 051500Z 00000KT 9999 NSC 28/19 A2997 RKM TRAZAS CU/AC=
200802051600 METAR MRLM 051600Z 02005KT 9999 NSC 28/20 A2997 RMK TRAZAS CU/AC=
200802051700 METAR MRLM 051700Z 04004KT 9999 NSC 28/20 A2985 RMK TRAZAS CU=
200802051800 METAR MRLM 051800Z 05006KT 9999 NSC 29/19 A2993 RMK TRAZAS CU=
200802051900 METAR MRLM 051900Z 05007KT 9999 NSC 29/20 A2990 RMK TRAZAS CU=
200802052000 METAR MRLM NIL=
200802052100 METAR MRLM 052100Z 07008KKT 999 NSC 29/22 A2984 TRAZAS CU=
200802052200 METAR MRLM 052200Z 06007KT 9999 NSC 29/21 A2984 TRAZAS CU=
200802052300 METAR MRLM 052300Z 04006KT 9999 NSC 28/22 A2986 TRAZAS CU=
200802060000 METAR MRLM 060000Z 04005KT 9999 NSC 27/22 A2988 TRACE CU=
200802060100 METAR MRLM NIL=
200802060200 METAR MRLM NIL=
200802060300 METAR MRLM NIL=
200802060400 METAR MRLM NIL=
200802060600 METAR MRLM NIL=
200802060700 METAR MRLM NIL=
200802060800 METAR MRLM NIL=
200802060900 METAR MRLM NIL=
200802061000 METAR MRLM NIL=
200802061100 METAR MRLM NIL=
200802061200 METAR MRLM NIL=
200802061300 METAR MRLM 061300Z 21005KT 9999 FEW015 22/20 A2994 FEW300 TRAZAS SCT HZY=
200802061400 METAR MRLM 061400Z 20005KT CAVOK 26/21 A2996 FEW300 TRAZAS CU HZY=
200802061500 METAR MRLM 061500Z 06004KT CAVOK 28/22 A2997 TRAZAS CU FEW300 HZY=
200802061600 METAR MRLM 061600Z 05004KT 9999 FEW033 29/22 A2997 FEW300 HZY=
200802061700 METAR MRLM 061700Z 03006KT 9999 FEW035 29/22 A2993 FEW300 HZY=
200802061800 METAR MRLM 061800Z 02009KT 9999 FEW035 29/22 A2991 FEW090 HZY=
200802061900 METAR MRLM 061900Z 02008KT 9999 FEW033 BKN090 28/22 A2989 HZY=
200802062000 METAR MRLM 062000Z NIL=
200802062100 METAR MRLM 062100Z 02008KT 9999 FEW032 BKN100 29/23 A2986 RMK TCU RN SW HZ ARND=
200802062200 METAR MRLM 062200Z 36005KT 9999 FEW028 BKN100 28/23 A2985 RMK RN DST SW LEVE HZ ARND=
200802062300 METAR MRLM 062300Z 36003KT 9999 FEW025 BKN090 28/22 A2986 RMK RN DST SW LEVE HZ ARND=
200802070000 METAR MRLM 070000Z 00000KT CAVOK 25/23 A2988 RMK BKN090 LEVE HZ ARND=
200802070100 METAR MRLM NIL=
200802070200 METAR MRLM NIL=
200802070300 METAR MRLM NIL=
200802070400 METAR MRLM NIL=
200802070500 METAR MRLM NIL=
200802070600 METAR MRLM NIL=
200802070700 METAR MRLM NIL=
200802070800 METAR MRLM NIL=
200802070900 METAR MRLM NIL=
200802071000 METAR MRLM NIL=
200802071100 METAR MRLM NIL=
200802071200 METAR MRLM NIL=
200802071300 METAR MRLM 071300Z 21005KT CAVOK 22/20 A2994 RMK TRACE CU BKN300 HZ=
200802071400 METAR MRLM 071400Z 21006KT CAVOK 26/21 A2996 RMK TRACE CU AC BKN300 HZ ARND=
200802071500 METAR MRLM 071500Z 14003KT 9999 FEW030 BKN300 29/23 A2996 RMK TRACE AC VIS 7000 E SE HZ=
200802071600 METAR MRLM 071600Z 04005KT 9999 FEW030 BKN300 29/23 A2994 RMK TRACE AC HZ ARND=
200802071700 METAR MRLM 071700Z NIL=
200802071800 METAR MRLM 071800Z 08007KT 9999 FEW030 SCT080 BKN300 29/23 A2993 RMK HZ ARND=
200802071900 METAR MRLM 071900Z 05007KT 9999 FEW030 SCT080 29/24 A2993 RMK SCT300 HZ ARND TCU DST W=
200802072000 METAR MRLM NIL=
200802072100 METAR MRLM 072100Z 05008KT 9999 BKN030 29/23 A2984 RMK LGT HZ ARND=
200802072200 METAR MRLM 072200Z 04006KT 9999 BKN030 29/22 A2985 HZ ARND=
200802072300 METAR MRLM 072300Z 04007KT 9999 SCT028 28/23 A2986 RMK FEW090 RN NE=
200802080000 METAR MRLM 080000Z 06005KT 9999 SCT025 SCT110 28/22 A2987=
200802080100 METAR MRLM NIL=
200802080200 METAR MRLM NIL=
200802080300 METAR MRLM NIL=
200802080400 METAR MRLM NIL=
200802080500 METAR MRLM NIL=
200802080600 METAR MRLM NIL=
200802080700 METAR MRLM NIL=
200802080800 METAR MRLM NIL=
200802080900 METAR MRLM NIL=
200802081000 METAR MRLM NIL=
200802081100 METAR MRLM NIL=
200802081200 METAR MRLM 081200Z 21002KT 999 FEW025 BKN080 22/290 A2990 HZY=
200802081300 METAR MRLM 081300Z 22002KT 9999 FEW025 SCT080 23/21 A2992 RMK HZ ARND=
200802081400 METAR MRLM 081400Z 00000KT 9999 FEW025 SCT080 25/22 A2994 RMK HZ ARND=
200802081500 METAR MRLM 081500Z 00000KT 9999 FEW025 28/22 A2995 RMK TRACE AC HZ ARND=
200802081600 METAR MRLM 081600Z 06004KT 9999 FEW025 29/22 A2994 RMK HZ ARND=
200802081700 METAR MRLM 081700Z 03007KT 9999 FEW025 29/23 A2992 RMK HZ ARND=
200802081800 METAR MRLM 081800Z 02009KT 9999 FEW025 29/23 A2990 RMK HZ ARND=
200802081900 METAR MRLM 081900Z 02009KT 9999 FEW025 29/23 A2987 RMK HZ ARND=
200802082000 METAR MRLM 082000Z NIL=
200802082100 METAR MRLM 082100Z 01007KT 9999 BKN025 29/22 A2983 RMK HZ ARND=
200802082200 METAR MRLM 082200Z 02008KT 9999 SCT025 28/22 A2983 RMK HZ ARND=
200802082300 METAR MRLM 082300Z 02008KT 9999 SCT025 28/22 A2984 RMK HZ ARND=
200802090000 METAR MRLM 090000Z 02007KT 9999 SCT025 27/22 A2985 RMK HZ ARND TRACE CI=
200802090100 METAR MRLM NIL=
200802090200 METAR MRLM NIL=
200802090300 METAR MRLM NIL=
200802090400 METAR MRLM NIL=
200802090500 METAR MRLM NIL=
200802090600 METAR MRLM NIL=
200802090700 METAR MRLM NIL=
200802090800 METAR MRLM NIL=
200802090900 METAR MRLM NIL=
200802091000 METAR MRLM NIL=
200802091100 METAR MRLM NIL=
200802091200 METAR MRLM 091200Z NIL=
200802091300 METAR MRLM 091300Z 22004KT 9999 FEW025 22/20 A2991 RMK FEW090 FEW300 HZ ARND=
200802091400 METAR MRLM 091400Z 21003KT 9999 FEW025 SCT090 24/21 A2993 RMK TRACE CI HZ ARND=
200802091500 METAR MRLM 091500Z 21002KT 9999 FEW025 SCT090 28/22 A2994 RMK TRACE CI HZ ARND=
200802091600 METAR MRLM NIL=
200802091700 METAR MRLM 091700Z 01004KT 9999 FEQW025 SCT090 29/22 A2993 RMK FEW100 HZ ARND=
200802091800 METAR MRLM 091800Z 04005KT E 9999 FEW025 BKN090 28/24 A2990 RMK RN NE HZ ARND=
200802091900 METAR MRLM 091900Z 01009KT E 9999 FEW025 SCT090 29/23 A2988 RMK HZ ARND=
200802092000 METAR MRLM 092000Z NIL=
200802092100 METAR MRLM 092100Z 04010KT 9999 SCT025 29/23 A2984 RMK TRAZAS AC HZ ARND0=
200802092200 METAR MRLM 092200Z 04010KT 9999 SCT025 29/22 A2983 RMK TRAZAS CI HA ARND=
200802092300 METAR MRLM 092300Z 03006KT 9999 SCT025 28/22 A2985 RMK TRAZAS CI HZ ARND=
200802100000 METAR MRLM 100000Z 04004KT 9999 SCT015 SCT300 27/22 A2987 RMK HZ ARND=
200802100100 METAR MRLM NIL=
200802100200 METAR MRLM NIL=
200802100300 METAR MRLM NIL=
200802100400 METAR MRLM NIL=
200802100500 METAR MRLM NIL=
200802100600 METAR MRLM NIL=
200802100700 METAR MRLM NIL=
200802100800 METAR MRLM NIL=
200802100900 METAR MRLM NIL=
200802101000 METAR MRLM NIL=
200802101100 METAR MRLM NIL=
200802101200 METAR MRLM 101200Z 21004KT 4000 DZ SCT015 SCT030 22/20 A291 REDZ RMK FEW080 RN ARND=
200802101300 METAR MRLM 101300Z 21003KT 9999 +DZ BKN030 SCT080 22/21 A2993 RMK RN DST ARND=
200802101400 METAR MRLM 101400Z 19004KT 9999 BKN030 SCT080 24/21 A2995 RMK REDZ RN DST ARND=
200802101500 METAR MRLM 101500Z 23004KT 9999 BKN028 SCT080 26/22 A2997 RMK RN DST ARND=
200802101600 METAR MRLM 101600Z 08004KT 8000 +DZ BKN028 SCT080 26/22 A2998 RMK RN ARND=
200802101700 METAR MRLM 101700Z 12004KT 9999 -DZ SCT028 SCT080 27/23 A2996 RMK RN DST ARND=
200802101800 METAR MRLM 101800Z 00000KT 9999 -DZ BKN028 SCT080 27/23 A2994 RMR RN DST ARND=
200802101900 METAR MRLM 101900Z 13002KT 9999 -DZ BKN028 SCT080 27/23 A2991 RMK RN DST ARND=
200802102000 METAR MRLM NIL=
200802102100 METAR MRLM 102100Z 36012KT 9999 BKN025 SCT080 26/23 A2988 RN ARND=
200802102200 METAR MRLM 102200Z 32003KT 9999 SCT025 BKN080 26/22 A2987 RN SW=
200802102300 METAR MRLM 102300Z 20002KT 9999 SCT025 BKN080 26/23 A2987=
200802110000 METAR MRLM 110000Z 21002KT 9999 FEW022 SCT030 25/23 A2988 FEW080 RN E SE SW=
200802110100 METAR MRLM NIL=
200802110200 METAR MRLM NIL=
200802110300 METAR MRLM NIL=
200802110400 METAR MRLM NIL=
200802110500 METAR MRLM NIL=
200802110600 METAR MRLM NIL=
200802110700 METAR MRLM NIL=
200802110800 METAR MRLM NIL=
200802110900 METAR MRLM NIL=
200802111000 METAR MRLM NIL=
200802111100 METAR MRLM NIL=
200802111200 METAR MRLM 111200Z 19004KT 9999 BKN024 23/22 A2990 RERA RMK FEW080 RN ARND=
200802111300 METAR MRLM 111300Z 22002KT 9999 BKN025 SCT080 23/22 A2992 RN ARND=
200802111400 METAR MRLM NIL=
200802111500 METAR MRLM 111500Z 20005KT 9999 SCT028 SCT080 26/23 A2995 RN ARND HZY=
200802111600 METAR MRLM 111600Z 00000KT 9999 FEW028 SCT080 28/23 A2996 RN ARND=
200802111700 METAR MRLM 111700Z 05003KT 9999 SCT025 SCT090 29/23 A2993 RN ARND HZY=
200802111800 METAR MRLM 111800Z 02010KT 9999 -DZ BKN025 SCT090 26/23 A2991 RERA RN S SW W=
200802111900 METAR MRLM 111900Z 33003KT 9999 SCT025 SCT090 28/23 A2989 REDZ RN/HZ ARND=
200802112000 METAR MRLM 112000Z NIL=
200802112100 METAR MRLM 112100Z 08003KT 9999 BKN025 27/22 A2984 REDZ RMK FEW080 HZ RN ARND=
200802112200 METAR MRLM 112200Z 20004KT 8000 -RA BKN026 24/22 A2984 RMK FEW080=
200802112300 METAR MRLM 112300Z 24003KT 9999 BKN026 23/22 A2985 RERA RMK RN DST ARND=
200802120000 METAR MRLM 120000Z 21003KT 9999 BKN026 23/21 A22986 RMK RN DST W NW N NE TRACE CI=
200802120100 METAR MRLM NIL=
200802120200 METAR MRLM NIL=
200802120300 METAR MRLM NIL=
200802120400 METAR MRLM NIL=
200802120500 METAR MRLM NIL=
200802120600 METAR MRLM NIL=
200802120700 METAR MRLM NIL=
200802120800 METAR MRLM NIL=
200802120900 METAR MRLM NIL=
200802121000 METAR MRLM NIL=
200802121100 METAR MRLM NIL=
200802121200 METAR MRLM 121200Z 19002KT 9999 DZ BKN028 22/20 A2988 RMK RN ARND FEW080=
200802121300 METAR MRLM 121300Z 00000KT 8000 DZ BKN028 SCT080 22/20 A2989 RMK RN ARND=
200802121400 METAR MRLM 121400Z 17002KT 3000 RA BKN024 SCT080 22/21 A2993=
200802121500 METAR MRLM 121500Z 02004KT 9999 -DZ FEW012 BKN030 23/22 A2994 RMK FEW080 RN DST ARND=
200802121600 METAR MRLM 121600Z 22002KT 9999 BKN030 SCT080 25/22 A2993 RMK RN DST ARND=
200802121700 METAR MRLM 121700Z 16003KT 9999 FEW030 BKN090 27/22 A2990 RMK RN DST SE S=
200802121800 METAR MRLM 121800Z 20008KT 9999 FEW030 BKN090 28/23 A2988=
200802121900 METAR MRLM 121900Z 18006KT 9999 FEW030 SCT100 29/22 A2984=
200802122000 METAR MRLM 122000Z NIL=
200802122100 METAR MRLM 122100Z 36004KT 9999 FEW026 BKN100 29/22 A2990 RMK RN DST S SW W=
200802122200 METAR MRLM 122200Z 36003KT 9999 FEW026 BKN230 28/22 A2980 RMK RN DST SSW W FEW090 HZ ARND=
200802122300 METAR MRLM 122300Z 01002KT 9999 SCT030 SCT230 28/22 A2981 RMK TRACE AC HZY=
200802130000 METAR MRLM 130000Z 02003KT 9999 BKN026 27/22 A2983 FEW230 TRACE AC RN DST E=
200802130100 METAR MRLM NIL=
200802130200 METAR MRLM NIL=
200802130300 METAR MRLM NIL=
200802130400 METAR MRLM NIL=
200802130500 METAR MRLM NIL=
200802130600 METAR MRLM NIL=
200802130700 METAR MRLM NIL=
200802130800 METAR MRLM NIL=
200802130900 METAR MRLM NIL=
200802131200 METAR MRLM 131200Z 22003KT 9999 BKN030 SCT080 22/20 A2985 HZY=
200802131300 METAR MRLM 131300Z 23003KT 9999 BKN030 SCT080 23/21 A2988 RMK RN DST E SE S W HZY=
200802131400 METAR MRLM 131400Z 23002KT 9999 FEW025 BKN090 25/22 A2990 HZ ARND=
200802131500 METAR MRLM 131500Z 25003KT 9999 FEW028 BKN090 28/22 A2991 RMK FEW230 HZY=
200802131600 METAR MRLM 131600Z 02003KT 9999 FEW025 BKN090 29/22 A2990 HZY=
200802131700 METAR MRLM 131700Z 02005KT 9999 FEWW028 30/23 A2988 RMK TRACE AC FEW260 HZY=
200802131800 METAR MRLM 131800Z 36008KT 9999 FEW028 SCT240 30/23 A2986 RMK TRACE AC HZ ARND=
200802131900 METAR MRLM 131900Z 35007KT 9999 FEW028 BKN090 29/23 A2984 HZY=
200802132000 METAR MRLM 132000Z NIL=
200802132100 METAR MRLM 132100Z 35005KT 9999 FEW025 BKN260 29/24 A2981 RMK TRACE AC HZ ARND=
200802132200 METAR MRLM 132200Z 01005KT 9999 FEW025 BKN260 29/24 A2981 RMK TRACE AC HZ ARND=
200802132300 METAR MRLM 132300Z 36006KT 9999 SCT025 BKN260 28/23 A2981 RMK HZ ARND=
200802140000 METAR MRLM 140000Z 35006KT 9999 BKN025 SCT260 28/23 A2983 RMK RN DST SE WSW TRACE AC HZ ARND=
200802140100 METAR MRLM NIL=
200802140200 METAR MRLM NIL=
200802140300 METAR MRLM NIL=
200802140400 METAR MRLM NIL=
200802140500 METAR MRLM NIL=
200802140600 METAR MRLM NIL=
200802140700 METAR MRLM NIL=
200802140800 METAR MRLM NIL=
200802140900 METAR MRLM NIL=
200802141000 METAR MRLM NIL=
200802141100 METAR MRLM NIL=
200802141200 METAR MRLM NIL=
200802141300 METAR MRLM 141300Z 21003KT 9999 SCT025 SCT230 23/22 A2996 RMK FEW080 RN DST HZ ARND=
200802141400 METAR MRLM 141400Z 21004KT 9999 FEW025 BKN080 25/22 A2997 RMK FEW230 HZ ARND=
200802141500 METAR MRLM 141500Z 25003KT 9999 FEW025 BKN230 28/23 A2998 RMK FEW090 RN DST E NE HZ ARND=
200802141600 METAR MRLM 141600Z 31002KT 9999 FEW025 BKN080 29/22 A2998 RMK RN DST NE E HZ ARND=
200802141700 METAR MRLM 141700Z 33006KT 9999 DZ BKN028 SCT080 28/24 A2996 RMK RN ARND=
200802141800 METAR MRLM 141800Z 27006KT 9999 DZ SCT024 BKN080 24/22 A2996 RMK RN DST ARND=
200802141900 METAR MRLM 141900Z 28004KT 3000 RA BKN024 25/22 A2994 RMK FEW080=
200802142000 METAR MRLM 142000Z NIL=
200802142100 METAR MRLM 142100Z 24004KT 7000 BKN024 SCT080 24/22 A2991 RERA RN ARND=
200802142200 METAR MRLM 142200Z 04004KT 8000 -DZ BKN024 SCT080 24/22 A2990 RMK RN ARND=
200802142300 METAR MRLM 142300Z 20003KT 8000 DZ BKN024 SCT080 24/22 A2991 RMK RN ARND=
200802150000 METAR MRLM 150000Z 20003KT 9999 -DZ SCT020 BKN030 24/22 A2993 RMK RN ARND TCU DST NW N NE=
200802150100 METAR MRLM NIL=
200802150200 METAR MRLM NIL=
200802150300 METAR MRLM NIL=
200802150400 METAR MRLM NIL=
200802150500 METAR MRLM NIL=
200802150600 METAR MRLM NIL=
200802150700 METAR MRLM NIL=
200802150800 METAR MRLM NIL=
200802150900 METAR MRLM NIL=
200802151000 METAR MRLM NIL=
200802151100 METAR MRLM NIL=
200802151200 METAR MRLM 151200Z 22004KT 9999 FEW025 BKN230 22/21 A2995 RMK HZ ARND=
200802151300 METAR MRLM 151300Z 20004KT 9999 FEW025 SCT230 23/21 A2997 RMK FEW090 HZ ARND=
200802151400 METAR MRLM NIL=
200802151500 METAR MRLM 151500Z 05002KT 9999 FEW035 SCT230 29/22 A3000 RMK FEW090 TCU NE ENE HZ ARND=
200802151600 METAR MRLM 151600Z 05003KT 9999 SCT025 BKN090 28/22 A3000 RMK RN W NW N NE TRACE CI HZ ARND=
200802151700 METAR MRLM 151700Z 01003KT 9999 FEW025 BKN230 28/23 A2999 RMK FEW090 HZ ARND=
200802151800 METAR MRLM 151800Z 05002KT 9999 FEW025 BKN230 28/21 A2996 RMK TRACE AC HZ ARND=
200802151900 METAR MRLM 151900Z 04003KT 9999 FEW025 BKN230 29/22 A2992 RMK HZ ARND=
200802152000 METAR MRLM 152000Z NIL=
200802152100 METAR MRLM 152100Z 02004KT 9999 FEW025 BKN230 28/22 A2988 RMK HZY=
200802152200 METAR MRLM 152200Z 04003KT 9999 FEW025 BKN230 28/22 A2988 RMK HZY=
200802152300 METAR MRLM 152300Z 00000KT 9999 FEW025 OVC230 27/22 A2989 RMK HZY=
200802160000 METAR MRLM 160000Z 00000KT 9999 SCT025 BKN230 26/23 A2990 RMK HZY=
200802160100 METAR MRLM NIL=
200802160200 METAR MRLM NIL=
200802160300 METAR MRLM NIL=
200802160400 METAR MRLM NIL=
200802160500 METAR MRLM NIL=
200802160600 METAR MRLM NIL=
200802160700 METAR MRLM NIL=
200802160800 METAR MRLM NIL=
200802160900 METAR MRLM NIL=
200802161000 METAR MRLM NIL=
200802161100 METAR MRLM NIL=
200802161200 METAR MRLM 161200Z 26002KT 9999 SCT030 SCT080 20/19 A2990 RMK FEW280 RN DST NW N NE HZ ARND=
200802161300 METAR MRLM 161300Z 03015KT 9999 -RA SCT024 BKN080 24/21 A2993=
200802161400 METAR MRLM 161400Z 25004KT 9999 SCT030 BKN090 23/21 A2994 RERA RMK RN DST SW/W/NW HZY=
200802161500 METAR MRLM 161500Z 24004KT 9999 FEW030 BKN080 25/21 A2994 RMK RN DST W/N/NE HZY=
200802161600 METAR MRLM 161600Z 26002KT 9999 SCT030 BKN080 27/21 A2994 RN DST N/NE/E HZY=
200802161700 METAR MRLM 161700Z 02004KT 9999 FEW028 BKN080 27/22 A2991 RMK RN DST NNW HZY=
200802161800 METAR MRLM 161800Z 06004KT 9999FEW028 BKN090 9/21 2989 RMK RN DST NW/N/NE HZY=
200802161900 METAR MRLM 161900Z 03006KT 9999 SCT035 BKN080 28/22 A2986 RMK RN DST NW/N/NE HZY=
200802162000 METAR MRLM 162000Z NIL=
200802162100 METAR MRLM 162100Z 03013KT 9999 SCT030 BKN080 27/21 A2982 RMK RN HZ DST ARND=
200802162200 METAR MRLM 162200Z 04012KT 9999 SCT028 BKN080 26/21 A2981 RMK HZ RN DST ARND=
200802162300 METAR MRLM 162300Z 05012KT 9999 FEW028 BKN080 25/21 A2982 RMK HZ RN DST ARND=
200802170000 METAR MRLM 170000Z 00000KT 9999 SCT030 BKN080 25/22 A2984 RMK RN DST HZ ARND=
200802170100 METAR MRLM NIL=
200802170200 METAR MRLM NIL=
200802170300 METAR MRLM NIL=
200802170400 METAR MRLM NIL=
200802170500 METAR MRLM NIL=
200802170600 METAR MRLM NIL=
200802170700 METAR MRLM NIL=
200802170800 METAR MRLM NIL=
200802170900 METAR MRLM NIL=
200802171000 METAR MRLM NIL=
200802171100 METAR MRLM NIL=
200802171200 METAR MRLM 171200Z 18005KT 9999 +DZ SCT035 BKN080 22/21 A2987 RERA RN DST ARND=
200802171300 METAR MRLM 171300Z 20005KT 9999 FEW026 BKN080 22/21 A2989 REDZ=
200802171400 METAR MRLM 171400Z 19004KT 9999 FEW030 BKN090 24/21 A2990 RMK RN DST SW W SE=
200802171500 METAR MRLM NIL=
200802171600 METAR MRLM 171600Z 18002KT CAVOK 28/21 A2992 RMK OVC080 HZ ARND=
200802171700 METAR MRLM 171700Z 05003KT 9999 FEW030 BKN090 29/21 A2990 RMK HZ ARND=
200802171800 METAR MRLM 171800Z 05003KT 9999 FEW030 BKN090 29/21 A2988 RMK TRACE CI HZ ARND=
200802171900 METAR MRLM 171900Z 04003KT 9999 FEW030 BKN090 29/22 A2984 RMK TRACE CI HZ ARND=
200802172000 METAR MRLM 172000Z NIL=
200802172100 METAR MRLM 172100Z 05005KT 9999 FEW030 BKN250 29/21 A2980 RMK FEW100 HZY=
200802172200 METAR MRLM 172200Z 04004KT 9999 FEW024 BKN100 29/21 A2981 RMK FEW250 RN DST SE S SW W HZY=
200802172300 METAR MRLM 172300Z 04004KT 9999 FEW024 BKN090 27/22 A2983 RMK TRACE CI RN DST E S HZY=
200802180000 METAR MRLM 180000Z 05004KT 9999 BKN030 SCT090 27/22 A2984 RMK RN DST NNE SE HZ ARND=
200802180100 METAR MRLM NIL=
200802180200 METAR MRLM NIL=
200802180300 METAR MRLM NIL=
200802180400 METAR MRLM NIL=
200802180500 METAR MRLM NIL=
200802180600 METAR MRLM NIL=
200802180700 METAR MRLM NIL=
200802180800 METAR MRLM NIL=
200802180900 METAR MRLM NIL=
200802181000 METAR MRLM NIL=
200802181100 METAR MRLM NIL=
200802181200 METAR MRLM 181200Z 20003KT 9999 FEW025 BKN090 23/21 A2989 RMK RN ARND=
200802181300 METAR MRLM NIL=
200802181400 METAR MRLM 181400Z 05002KT 9999 FEW030 BKN250 27/22 A2994 RMK FEW100 HZY=
200802181500 METAR MRLM 181500Z 06002KT 9999 FEW030 BKN100 28/22 A2996 RMK FEW250 HZY=
200802181600 METAR MRLM 181600Z 05004KT 9999 FEW030 BKN240 29/23 A2995 RMK FEW100 HZY=
200802181700 METAR MRLM 181700Z 06004KT 9999 FEW030 BKN240 29/23 A2993 RMK FEW120 HZY=
200802181800 METAR MRLM 181800Z 07006KT 9999 FEW030 BKN240 30/23 A2991 RMK FEW120 HZ ARND=
200802181900 METAR MRLM 181900Z 06007KT 9999 FEW030 BKN240 29/23 A2989 RMK TRACE AC HZY=
200802182000 METAR MRLM 182000Z NIL=
200802182100 METAR MRLM 182100Z 05004KT 9999 FEW030 BKN240 29/23 A2985 RMK HZ ARND=
200802182200 METAR MRLM 182200Z 05005KT 9999 FEW030 BKN240 28/23 A2986 RMK TRACE AC HZ ARND=
200802182300 METAR MRLM 182300Z 06005KT 9999 SCT030 BKN240 28/22 A2988 RMK HZ ARND=
200802190000 METAR MRLM 190000Z 06005KT 9999 BKN028 SCT240 28/23 A2990 RMK RN DST SE HZ ARND=
200802190100 METAR MRLM NIL=
200802190200 METAR MRLM NIL=
200802190300 METAR MRLM NIL=
200802190400 METAR MRLM NIL=
200802190500 METAR MRLM NIL=
200802190600 METAR MRLM NIL=
200802190700 METAR MRLM NIL=
200802190800 METAR MRLM NIL=
200802190900 METAR MRLM NIL=
200802191000 METAR MRLM NIL=
200802191100 METAR MRLM NIL=
200802191200 METAR MRLM 191200Z 26003KT 6000 VCSH BKN026 23/22 A2998 REDZ RMK FEW090 RN ARND HZ ARND=
200802191300 METAR MRLM 191300Z 24003KT 9999 -DZ BKN026 24/22 A3001 RMK FEW080 RN DST ARND=
200802191400 METAR MRLM 191400Z 21004KT 3000 RA BKN025 24/22 A3003 RMK FEW080=
200802191500 METAR MRLM 191500Z 18003KT 9999 BKN028 SCT080 24/23 A3005 RERA RMK RN DST HZ ARND=
200802191600 METAR MRLM 11600Z 20003KT 9999 BKN028 27/24 A3005 RMK FEW080 RN DST HZ ARND=
200802191700 METAR MRLM 191700Z 16005KT 9999 BKN025 SCT080 28/23 A3002 RMK RN DST ARND TCU W NW=
200802191800 METAR MRLM 191800Z 13003KT 9999 BKN025 SCT080 27/22 A3002 RMK RN DST HZ ARND=
200802191900 METAR MRLM 191900Z 28002KT 9999 SCT023 SCT080 27/24 A2999 RERA RMK FEW230 RN DST ARND=
200802192000 METAR MRLM 192000Z NIL=
200802192100 METAR MRLM 192100Z 00000KT 9999 SCT025 SCT090 27/24 A2996 RMK RERA RN ARND HZ=
200802192200 METAR MRLM 192200Z 24003KT 9999 SCT025 SCT230 26/23 A2995 RMK FEW090 RN SW HZ ARND=
200802192300 METAR MRLM 192300Z 24002KT 9999 FEW025 BKN230 25/23 A2995 RMK FEW090 HZ ARND=
200802200000 METAR MRLM 200000Z 21005KT 9999 FEW024 BKN250 25/23 A2996 RMK TCU RN DST NW N NE FEW090 HZ ARND=
200802200100 METAR MRLM NIL=
200802200200 METAR MRLM NIL=
200802200300 METAR MRLM NIL=
200802200400 METAR MRLM NIL=
200802200500 METAR MRLM NIL=
200802200600 METAR MRLM NIL=
200802200700 METAR MRLM NIL=
200802200800 METAR MRLM NIL=
200802200900 METAR MRLM NIL=
200802201000 METAR MRLM NIL=
200802201100 METAR MRLM NIL=
200802201200 METAR MRLM 201200Z 24003KT 9999 SCT015TCU BKN030 22/21 A2999 RMK RN DST NW N NE E HZ ARND=
200802201300 METAR MRLM 201300Z 32004KT 9999 BKN022 SCT130 24/22 A3002 REDZ RN HZ ARND=
200802201400 METAR MRLM 201400Z 22005KT 9999 SCT015 BKN080 23/21 A3004 RMK RN ARND=
200802201500 METAR MRLM 201500Z 17004KT 8000 -DZ SCT014 BKN028 23/21 A3007 RMK RN ARND=
200802201600 METAR MRLM 201600Z 23003KT 9999 BKN028 SCT030 24/21 A3008 REDZ RN ARND=
200802201700 METAR MRLM NIL=
200802201800 METAR MRLM 201800Z 09009KT 9999 FEW025 BKN080 26/21 A3001 RMK RN HZ ARND=
200802201900 METAR MRLM 201900Z 17003KT 9999 FEW028 BKN080 26/21 A2991 RMK RN SE S HZ ARND=
200802202000 METAR MRLM 202000Z NIL=
200802202100 METAR MRLM 202100Z 23003KT 9999 FEW025 BKN090 28/20 A2993 RMK RN DST SE HZY=
200802202200 METAR MRLM 202200Z 23005KT 9999 FEW025 BKN090 27/20 A2992=
200802202300 METAR MRLM 202300Z 00000KT 9999 FEW025 BKN090 27/22 A2993=
200802210000 METAR MRLM 210000Z 00000KT 9999 FEW025 BKN090 25/23 A2994 RMK DZ SE/S=
200802210100 METAR MRLM NIL=
200802210200 METAR MRLM NIL=
200802210300 METAR MRLM NIL=
200802210400 METAR MRLM NIL=
200802210500 METAR MRLM NIL=
200802210600 METAR MRLM NIL=
200802210700 METAR MRLM NIL=
200802210800 METAR MRLM NIL=
200802210900 METAR MRLM NIL=
200802211000 METAR MRLM NIL=
200802211100 METAR MRLM NIL=
200802211200 METAR MRLM 211200Z NIL=
200802211300 METAR MRLM 211300Z 00000KT 9999 FEW030 BKN090 22/20 A2998 RMK HZY=
200802211400 METAR MRLM 211400Z 22002KT CAVOK 23/20 A3000 RMK OVC090 TRAZAS CU HZY=
200802211500 METAR MRLM 211500Z 00000KT CAVOK 28/21 A3001 RMK BKN090 TRAZAS CU HZY=
200802211600 METAR MRLM 211600Z 07004KT CAVOK 29/21 A3000 RMK BKN100 HZY=
200802211700 METAR MRLM 211700Z 06006KT CAVOK 29/21 A299 BKN090 RMK TRAZAS CU/CI DZ ARND=
200802211800 METAR MRLM 211800Z 06006KT CAVOK 29/20 A2997 RMK TRAZAS CU HZY=
200802211900 METAR MRLM 211900Z 04008KT 9999 FEW025 BKN090 29/21 A2995 RMK RN DST=
200802212000 METAR MRLM 212000Z NIL=
200802212100 METAR MRLM 212100Z 07005KT 9999 FEW025 BKN090 28/21 A2990 HZ ARND=
200802212200 METAR MRLM 212200Z 07007KT 9999 FEW030 BKN090 28/21 A2990=
200802212300 METAR MRLM 212300Z 07007KT 9999 SCT025 BKN090 27/21 A2990 HZ ARND=
200802220000 METAR MRLM 22000Z 08007KT 9999 FEW025 BKN090 27/21 A2991=
200802220100 METAR MRLM NIL=
200802220200 METAR MRLM NIL=
200802220300 METAR MRLM NIL=
200802220400 METAR MRLM NIL=
200802220500 METAR MRLM NIL=
200802220600 METAR MRLM NIL=
200802220700 METAR MRLM NIL=
200802220800 METAR MRLM NIL=
200802220900 METAR MRLM NIL=
200802221000 METAR MRLM NIL=
200802221100 METAR MRLM NIL=
200802221200 METAR MRLM 221200Z 21003KT CAVOK 19/18 A2993 RMK FEW100 TRACE CU SC=
200802221300 METAR MRLM 221300Z 21002KT CAVOK 22/19 A2995 FEW100 TRACE CU SCT HZY=
200802221400 METAR MRLM 221400Z 20003KT 9999 FEW025 25/20 A2999/ TRACE AC HZY=
200802221500 METAR MRLM 221500Z 07002KT 9999 FEW025 28/21 A2998 TRACE CI HZ ARND=
200802221600 METAR MRLM 221600Z 09005KT 9999 FEW025 28/20 A2998 TRACE CI HZY=
200802221700 METAR MRLM 221700Z 07006KT 9999 FEW025 28/22 A2997 TRACI CI=
200802221800 METAR MRLM 221800Z 05005KT 9999 FEW025 28/22 A2994 TRACE CI=
200802221900 METAR MRLM 221900Z 05005KT 9999 FEW025 29/22 A2992 FEW090 TRACE CI RN DIST SSW=
200802222000 METAR MRLM NIL=
200802222100 METAR MRLM 222100Z 03004KT 9999 FEW025 BKN090 28/22 A2988 RMK RN DST SSW W=
200802222200 METAR MRLM 222200Z 06004KT 9999 FEW025 BKN090 28/21 A2988 RMK RN DST SW W=
200802222300 METAR MRLM 222300Z 08004KT 9999 FEW025 BKN090 27/21 A2988 RMK RN DST W SW=
200802230000 METAR MRLM 230000Z 09004KT 9999 FEW025 BKN090 27/21 A2989 RN DST SW W=
200802230100 METAR MRLM NIL=
200802230200 METAR MRLM NIL=
200802230300 METAR MRLM NIL=
200802230400 METAR MRLM NIL=
200802230500 METAR MRLM NIL=
200802230600 METAR MRLM NIL=
200802230700 METAR MRLM NIL=
200802230800 METAR MRLM NIL=
200802230900 METAR MRLM NIL=
200802231000 METAR MRLM NIL=
200802231100 METAR MRLM NIL=
200802231200 METAR MRLM 231200Z 20003KT 9999 FEW025 BKN080 22/20 A2995 RMK HZ ARND=
200802231300 METAR MRLM 231300Z 20002KT 9999 FEW025 BKN080 23/21 A2996 RMK HZ LGT ARND=
200802231400 METAR MRLM 231400Z 20003KT 9999 FEW025 SCT090 25/22 A2997 RMK HZ ARNWD=
200802231500 METAR MRLM 231500Z 08004KT 9999 FEW025 28/21 A2999 RMK FEW040 HZ ARND=
200802231600 METAR MRLM 231600Z 05004KT 9999 FEW025 28/21 A2998 RMK TRACE CI HZ ARND LGT=
200802231700 METAR MRLM 231700Z 05007KT 9999 FEW025 29/22 A2997 RMK TRACE AC CI HZ LGT ARND=
200802231800 METAR MRLM 231800Z 04008KT 9999 FEW025 29/22 A2995 RMK FEW090 TRACE CI HZ ARND=
200802231900 METAR MRLM 231900Z 05008KT 9999 FEW025 29/22 A2994 RMK TRACE AC CI TCU DST NE=
200802232000 METAR MRLM 232000Z NIL=
200802232100 METAR MRLM 232100Z 04007KT 9999 FEW025 SCT300 29/22 A2990 RMK TRACE AC=
200802232200 METAR MRLM 232200Z 03006KT 9999 FEW025 29/22 A2991 RMK FEW100 FEW280=
200802232300 METAR MRLM 232300Z 03004KT 9999 FEW025 28/22 A2991 RMK FEW100 FEW280=
200802240000 METAR MRLM 240000Z 06003KT 9999 FEW025 SCT250 27/21 A2992 RMK TRACE AC=
200802240100 METAR MRLM NIL=
200802240200 METAR MRLM NIL=
200802240300 METAR MRLM NIL=
200802240400 METAR MRLM NIL=
200802240500 METAR MRLM NIL=
200802240600 METAR MRLM NIL=
200802240700 METAR MRLM NIL=
200802240800 METAR MRLM NIL=
200802240900 METAR MRLM NIL=
200802241000 METAR MRLM NIL=
200802241100 METAR MRLM NIL=
200802241200 METAR MRLM 241200Z 20004KT 9999 SCT030 BKN080 22/20 A2997 RN DIST E HZ ARND=
200802241300 METAR MRLM 241300Z 21002KT 9999 SCT030 BKN080 23/20 A3000 RMK RN DST N NE E SE HZ LGT ARND=
200802241400 METAR MRLM 241400Z 22003KT 9999 -DZ BKN025 SCT080 24/21 A3002 RMK RN DST ARND=
200802241500 METAR MRLM 241500Z 15007KT 4000 +DZ FEW012 BKN020 23/21 A3005 RERA RMK FEW080 HZ ARND=
200802241600 METAR MRLM 241600Z 21007KT 9999 SCT015 BKN080 24/21 A3003 RERA RMK RN DST ARND=
200802241700 METAR MRLM 241700Z 31006KT 2000 RA BKN015 SCT080 24/21 A3003=
200802241800 METAR MRLM 241800Z 21004KT 9999 SCT025 BKN080 24/22 A3001 RERA RMK RN DST ARND=
200802241900 METAR MRLM 241900Z 20006KT 9999 BKN026 SCT080 25/22 A2998 RMK RN DST ARND=
200802242000 METAR MRLM 242000Z NIL=
200802242100 METAR MRLM 242100Z 22004KT 9999 FEW030 BKN080 26/22 A2994 RMK RN SW W=
200802242200 METAR MRLM 242200Z 20003KT 9999 FEW030 BKN080 27/22 A2993=
200802242300 METAR MRLM 242300Z 00000KT CAVOK 26/23 A2993 RMK BKN080 TRACE SC=
200802250000 METAR MRLM 250000Z 00000KT CAVOK 25/22 A2994 RMK BKN080 FEW280=
200802250100 METAR MRLM NIL=
200802250200 METAR MRLM NIL=
200802250300 METAR MRLM NIL=
200802250400 METAR MRLM NIL=
200802250500 METAR MRLM NIL=
200802250600 METAR MRLM NIL=
200802250700 METAR MRLM NIL=
200802250800 METAR MRLM NIL=
200802250900 METAR MRLM NIL=
200802251000 METAR MRLM NIL=
200802251100 METAR MRLM NIL=
200802251200 METAR MRLM NIL=
200802251300 METAR MRLM 251300Z 10002KT 9999 BKN028 SCT080 23/21 A3001 RMK RN NW N NE E HZ ARND=
200802251400 METAR MRLM 251400Z 10006KT 9999 FEW014 BKN028 25/22 A3003 RMK FEW080 RN HZ ARND=
200802251500 METAR MRLM 251500Z 15004KT 9999 FEW020 BKN030 24/22 A3004 RMK RN ARND HZ=
200802251600 METAR MRLM 251600Z 19005KT 9999 BKN026 SCT080 24/22 A3003 RMK RN DST ARND HZ=
200802251700 METAR MRLM 251700Z 22005KT 9999 BKN026 SCT080 25/21 A3001 RMK RN DST ARND HZ=
200802251800 METAR MRLM 251800Z 21002KT 9999 -DZ FEW025 BKN080 26/21 A3000 RMK RN DST ARND HZ=
200802251900 METAR MRLM 251900Z 03005KT 4000 -RA BKN026 SCT080 25/21 A2999=
200802252000 METAR MRLM 252000Z NIL=
200802252100 METAR MRLM NIL=
200802252200 METAR MRLM 252200Z 00000KT 9999 FEW030 BKN090 27/22 A2992 RMK FEW230 HZY=
200802252300 METAR MRLM 252300Z 00000KT CAVOK 26/22 2992 RMK BKN090 FEW230 HZY=
200802260000 METAR MRLM 260000Z 00000KT 9999 FEW026 BKN090 26/23 A2992 RMK FEW230 RN DST S HZY=
200802260100 METAR MRLM NIL=
200802260200 METAR MRLM NIL=
200802260300 METAR MRLM NIL=
200802260400 METAR MRLM NIL=
200802260500 METAR MRLM NIL=
200802260600 METAR MRLM NIL=
200802260700 METAR MRLM NIL=
200802260800 METAR MRLM NIL=
200802260900 METAR MRLM NIL=
200802261000 METAR MRLM NIL=
200802261100 METAR MRLM NIL=
200802261200 METAR MRLM 261200Z 20004KT 9999 FEW026 BKN080 22/20 A2993 RERA RMK RN DST SE SW W TRACE CI HZ ARND=
200802261300 METAR MRLM 261300Z 21003KT 9999 FEW030 BKN090 23/20 A2995 RMK RN DST SW/WNW TRAZAS CI HZY=
200802261400 METAR MRLM 261400Z 20003KT 9999 FEW025 SCT090 26/21 A2997 RMK SCT230 RN DST WSW HZY=
200802261500 METAR MRLM 261500Z 19002KT 9999 FEW026 SCT090 26/21 A2998 RMK SCT230 HZY=
200802261600 METAR MRLM 261600Z 01003KT 9999 FEW025 BKN230 28/22 A2998 RMK TRAZAS SC HZY=
200802261700 METAR MRLM 261700Z 02005KT 9999 FEW026 BKN230 28/22 A2997 RMK FEW090 HZY=
200802261800 METAR MRLM 261800Z 36006KT 9999 FEW026 BKN230 28/21 A2995 RMK FEW090 HZY=
200802261900 METAR MRLM 261900Z 01006KT 9999 FEW026 BKN230 28/22 A2992 RMK FEW090 HZY=
200802262000 METAR MRLM 262000Z NIL=
200802262100 METAR MRLM 262100Z 03005KT 9999 FEW025 BKN250 28/22 A2987 TRACE SC HZY=
200802262200 METAR MRLM 262200Z 04002KT 9999 FEW025 BKN230 28/21 A2986 TRACE CI AC HZY=
200802262300 METAR MRLM 262300Z 05002KT 9999 FEW025 BKN250 27/20 A2987 FEW090 HZ ARND=
200802270000 METAR MRLM 270000Z 08002KT 9999 FEW030 SCT080 27/21 A2988 RMK FEW230 HZ ARND=
200802270100 METAR MRLM NIL=
200802270200 METAR MRLM NIL=
200802270300 METAR MRLM NIL=
200802270400 METAR MRLM NIL=
200802270500 METAR MRLM NIL=
200802270600 METAR MRLM NIL=
200802270700 METAR MRLM NIL=
200802270800 METAR MRLM NIL=
200802270900 METAR MRLM NIL=
200802271000 METAR MRLM NIL=
200802271100 METAR MRLM NIL=
200802271200 METAR MRLM 271200Z 21002KT 9999 FEW028 BKN090 22/20 A2990 RMK HZ ARND=
200802271300 METAR MRLM 271300Z 00000KT 9999 FEW026 BKN080 23/20 A2993 RMK HZ LGT ARND=
200802271400 METAR MRLM 271400Z 00000KT 9999 FEW025 BKN080 25/21 A2996 RMK HZ ARND=
200802271500 METAR MRLM 271500Z 04003KT 9999 SCT030 SCT080 28/20 A2999 HZ ARND=
200802271600 METAR MRLM 271600Z 04003KT 9999 SCT030 28/21 A2997 TRACE CI=
200802271700 METAR MRLM 271700Z 05006KT 9999 FEW030 28/21 A2996 TRACE CI=
200802271800 METAR MRLM 271800Z 05006KT 9999 FEW025 29/21 A2994 TRACE CI=
200802271900 METAR MRLM 271900Z 05006KT 9999 FEW025 29/22 A2991 TRACE CI=
200802272000 METAR MRLM 272000Z NIL=
200802272100 METAR MRLM 272100Z 04005KT 9999 FEW025 29/21 A2988 RMK TRACE AC CI=
200802272200 METAR MRLM 272200Z 02006KT CAVOK 29/21 A2988 RMK FEW230 TRACE CU AC=
200802272300 METAR MRLM 272300Z 04005KT CAVOK 28/20 A2990 RMK BKN230 TRACE CU AC=
200802280000 METAR MRLM 280000Z 08003KT CAVOK 27/20 A2991 RMK TRACE AC BKN230=
200802280100 METAR MRLM NIL=
200802280200 METAR MRLM NIL=
200802280300 METAR MRLM NIL=
200802280400 METAR MRLM NIL=
200802280500 METAR MRLM NIL=
200802280600 METAR MRLM NIL=
200802280700 METAR MRLM NIL=
200802280800 METAR MRLM NIL=
200802280900 METAR MRLM NIL=
200802281000 METAR MRLM NIL=
200802281100 METAR MRLM NIL=
200802281200 METAR MRLM 281200Z 21004KT CAVOK 19/17 A2999 RMK FEW280 TRACE SC HZY=
200802281300 METAR MRLM 281300Z 21003KT CAVOK 22/18 A3001 FEW280 RMK TRACE SC HZY=
200802281400 METAR MRLM 281400Z 23004KT CAVOK 25/20 A3003 RMK FEW280 TRACE AC HZY=
200802281500 METAR MRLM 281500Z 27002KT 9999 FEW026 28/21 A3004 RMK TRACE CI HZY=
200802281600 METAR MRLM 281600Z 01007KT 9999 FEW026 29/21 A3004 RMK TRACE CU=
200802281700 METAR MRLM 281700Z 36007KT 9999 FEW026 29/22 A3002=
200802281800 METAR MRLM 281800Z 02007KT 9999 FEW026 29/22 A3000=
200802281900 METAR MRLM 281900Z 01009KT 9999 FEW026 29/21 A2998 RMK TRACE AC=
200802282000 METAR MRLM 282000Z NIL=
200802282100 METAR MRLM 282100Z 02008KT 9999 FEW026 29/20 A2994 RMK TRACE AC=
200802282200 METAR MRLM 282200Z 02005KT 9999 SCT026 28/20 A2994 RMK FEW090=
200802282300 METAR MRLM 282300Z 36006KT 9999 SCT026 27/21 A2995 RMK FEW090=
200802290000 METAR MRLM 290000Z 02003KT 9999 BKN026 SCT090 27/21 A2996=
200802290100 METAR MRLM NIL=
200802290200 METAR MRLM NIL=
200802290300 METAR MRLM NIL=
200802290400 METAR MRLM NIL=
200802290500 METAR MRLM NIL=
200802290600 METAR MRLM NIL=
200802290700 METAR MRLM NIL=
200802290800 METAR MRLM NIL=
200802290900 METAR MRLM NIL=
200802291000 METAR MRLM NIL=
200802291100 METAR MRLM NIL=
200802291200 METAR MRLM 291200Z 24004KT 9999 SCT025 SCT080 22/20 A2998 REDZ RN DIST SW W HZ ARND=
200802291300 METAR MRLM 291300Z 20004KT 9999 FEW025 23/21 A3001 RMK FEW090 HZ ARND=
200802291400 METAR MRLM 291400Z 20004KT 9999 FEW025 26/21 A3002 RMK FEW090 HZ ARND=
200802291500 METAR MRLM 291500Z 02002KT 9999 SCT026 28/21 A3004 RMK FEW100=
200802291600 METAR MRLM 291600Z 05002KT 9999 FEW025 29/21 A3003 RMK TRACE AC=
200802291700 METAR MRLM 291700Z 04004KT 9999 FEW025 29/21 A3001 RMK TRACE AC=
200802291800 METAR MRLM 291800Z 04005KT 9999 FEW025 29/21 A2998 RMK TRACE AC CI=
200802291900 METAR MRLM 291900Z 04007KT 9999 FEW025 29/21 A2995 RMK TRACE AC CI=
200802292000 METAR MRLM 292000Z NIL=
200802292100 METAR MRLM 292100Z 05004KT 9999 FEW025 29/21 A2991 RMK TRACE AC CI=
200802292200 METAR MRLM NIL=
200802292300 METAR MRLM 292300Z 08003KT 9999 FEW025 28/21 A2992 RMK TRACE AC CI=
200803010000 METAR MRLM 010000Z 05002KT 9999 SCT025 27/21 A2993 RMK FEW090 FEW230=
200803010100 METAR MRLM NIL=
200803010200 METAR MRLM NIL=
200803010300 METAR MRLM NIL=
200803010400 METAR MRLM NIL=
200803010500 METAR MRLM NIL=
200803010600 METAR MRLM NIL=
200803010700 METAR MRLM NIL=
200803010800 METAR MRLM NIL=
200803010900 METAR MRLM NIL=
200803011000 METAR MRLM NIL=
200803011100 METAR MRLM NIL=
200803011200 METAR MRLM 011200Z 12002KT 9999 BKN026 SCT080 22/20 A2995 RMK RN DST ARND=
200803011300 METAR MRLM 011300Z 22005KT 9999 SCT028 SCT090 23/21 A2996 REDZ RMK RN DST ARND HZ=
200803011400 METAR MRLM 011400Z 21003KT 9999 FEW030 BKN090 26/22 A2997 RMK RN SW W NE FEW280 HZ ARND=
200803011500 METAR MRLM 011500Z 00000KT 9999 SCT024 BKN080 28/21 A2999 RMK RN NW N NE HZ ARND=
200803011600 METAR MRLM 011600Z 08006KT 9999 FEW028 BKN080 28/21 A2999 RN NW HZ ARND=
200803011700 METAR MRLM 011700Z 07006KT 9999 FEW025 BKN090 28/22 A2997 RMK FEW230 HZ ARND=
200803011800 METAR MRLM 011800Z 07007KT 9999 FEW025 BKN090 29/22 A2994 RMK FEW230 HZ ARND=
200803011900 METAR MRLM 011900Z 06007KT 9999 FEW025 BKN230 29/21 A2992 RMK FEW090 HZ ARND=
200803012000 METAR MRLM 012000Z NIL=
200803012100 METAR MRLM 012100Z 04005KT 9999 FEW025 BKN230 29/22 A2988 RMK HZ ARND=
200803012200 METAR MRLM 012200Z 05004KT 9999 FEW025 BKN230 29/21 A2988 RMK HZ ARND=
200803012300 METAR MRLM 012300Z 05004KT 9999 FEW025 BKN230 28/22 A2988 RMK HZ ARND=
200803020000 METAR MRLM 020000Z 03003KT 9999 FEW025 BKN230 27/22 A2990 RMKL HZ ARND=
200803020100 METAR MRLM NIL=
200803020200 METAR MRLM NIL=
200803020300 METAR MRLM NIL=
200803020400 METAR MRLM NIL=
200803020500 METAR MRLM NIL=
200803020600 METAR MRLM NIL=
200803020700 METAR MRLM NIL=
200803020800 METAR MRLM NIL=
200803020900 METAR MRLM NIL=
200803021000 METAR MRLM NIL=
200803021100 METAR MRLM NIL=
200803021200 METAR MRLM 021200Z 22002KT 9999 FEW025 20/18 A2993 RMK FEW090 HZ ARND=
200803021300 METAR MRLM 021300Z 21003KT 9999 FEW025 23/19 A2994 RMK FEW090 HZ ARND=
200803021400 METAR MRLM 021400Z 20003KT 9999 FEW025 26/20 A2995 RMK HZ ARND=
200803021500 METAR MRLM 021500Z 05003KT 9999 FEW025 29/22 A2996 RMK HZ ARND=
200803021600 METAR MRLM 021600Z 06004KT 9999 FEW025 29/23 A2995 RMK HZ ARND=
200803021700 METAR MRLM 021700Z 05004KT 9999 FEW025 29/22 A2993 RMK TRAZAS AC HZ ARND=
200803021800 METAR MRLM 021800Z 05004KT 9999 FEW025 29/22 A2991 RMK TRAZAS AC HZ ARND=
200803021900 METAR MRLM 021900Z 02009KT 9999 FEW025 29/22 A2988 RMK TRAZAS AC HZ ARND=
200803022000 METAR MRLM 022000Z NIL=
200803022100 METAR MRLM 022100Z 36008KT 9999 FEW025 29/21 A2985 RMK FEW090 HZ ARND=
200803022200 METAR MRLM 022200Z 35007KT CAVOK 29/21 A2985 FEW090 TRACE CU HZ ARND=
200803022300 METAR MRLM 02300Z 36005KT CAVOK 28/21 A2985 FEW090 TRACE CU HZ ARND=
200803030000 METAR MRLM 030000Z 36005KT 9999 FEW025 27/21 A2987 HZ ARND=
200803030100 METAR MRLM NIL=
200803030200 METAR MRLM NIL=
200803030300 METAR MRLM NIL=
200803030400 METAR MRLM NIL=
200803030500 METAR MRLM NIL=
200803030600 METAR MRLM NIL=
200803030700 METAR MRLM NIL=
200803030800 METAR MRLM NIL=
200803030900 METAR MRLM NIL=
200803031000 METAR MRLM NIL=
200803031100 METAR MRLM NIL=
200803031200 METAR MRLM 031200Z NIL=
200803031300 METAR MRLM 031300Z 20005KT 9999 FEW025 BKN080 21/19 A2994 RN S SE SW W HZY=
200803031400 METAR MRLM 031400Z 20004KT 9999 FEW025 SCT090 25/20 A2995 DZ SW W HZY=
200803031500 METAR MRLM 031500Z 21002KT CAVOK 28/20 A2995 FEW100 TRACE CU HZY=
200803031600 METAR MRLM 031600Z 04004KT 9999 NSC 29/20 A2995 TRACE CU AC HZY=
200803031700 METAR MRLM 031700Z 04005KT 9999 NSC 29/20 A2994 TRACE CU AC=
200803031800 METAR MRLM 031800Z 03005KT 9999 FEW030 29/20 A2991 TRACE AC=
200803031900 METAR MRLM 031900Z 01009KT 9999 FEW030 30/21 A2989 FEW090=
200803032000 METAR MRLM 032000Z NIL=
200803032100 METAR MRLM 032100Z 03006KT 9999 FEW025 SCT090 29/21 A2986=
200803032200 METAR MRLM 032200Z 05008KT 9999 FEW025 SCT090 28/22 A2986=
200803032300 METAR MRLM 032300Z 07004KT 9999 FEW025 SCT090 27/22 A2987=
200803040000 METAR MRLM NIL=
200803040100 METAR MRLM NIL=
200803040200 METAR MRLM NIL=
200803040300 METAR MRLM NIL=
200803040400 METAR MRLM NIL=
200803040500 METAR MRLM NIL=
200803040600 METAR MRLM NIL=
200803040700 METAR MRLM NIL=
200803040800 METAR MRLM NIL=
200803040900 METAR MRLM NIL=
200803041000 METAR MRLM NIL=
200803041100 METAR MRLM NIL=
200803041200 METAR MRLM 041200Z 22003KT 9999 FEW028 BKN080 22/20 A2993 RMK TRACE CI HZ ARND=
200803041300 METAR MRLM 041300Z 23002KT 9999 FEW028 BKN090 22/20 A2994 RMK TRACE CI HZY=
200803041400 METAR MRLM 041400Z 20002KT 9999 SCT028 BKN080 24/20 A2996 RM HZY=
200803041500 METAR MRLM 041500Z 00000KT 9999 SCT028 BKN090 28/22 A2997 RMK HZY=
200803041600 METAR MRLM 041600Z 06003KT 9999 FEW028 SCT090 29/22 A2996 RMK HZ ARND=
200803041700 METAR MRLM 041700Z 07004KT 9999 FEW028 SCT090 28/22 A2994 RMK HZ ARND=
200803041800 METAR MRLM 041800Z 06005KT 9999 FEW028 SCT090 29/22 A2993 RMK HZ ARND=
200803041900 METAR MRLM 041900Z 06006KT 9999 FEW028 29/21 A2990 RMK FEW090 HZY=
200803042000 METAR MRLM 042000Z NIL=
200803042100 METAR MRLM 042100Z 05006KT 9999 FEW028 BKN090 29/22 A2986 RMK HZ ARND=
200803042200 METAR MRLM 042200Z 06004KT 9999 FEW028 BKN090 28/22 A2986 RMK TRACE CI HZ ARND=
200803042300 METAR MRLM 042300Z 05003KT 9999 FEW025 SCT080 28/21 A2986 RMK RN DST S SW HZ ARND=
200803050000 METAR MRLM 050000Z 22002KT 9999 FEW025 SCT080 25/22 A2988 RMK FEW240 RN DST SSW SW HZ ARND=
200803050100 METAR MRLM NIL=
200803050200 METAR MRLM NIL=
200803050300 METAR MRLM NIL=
200803050400 METAR MRLM NIL=
200803050500 METAR MRLM NIL=
200803050600 METAR MRLM NIL=
200803050700 METAR MRLM NIL=
200803050800 METAR MRLM NIL=
200803050900 METAR MRLM NIL=
200803051000 METAR MRLM NIL=
200803051100 METAR MRLM NIL=
200803051200 METAR MRLM NIL=
200803051300 METAR MRLM NIL=
200803051400 METAR MRLM NIL=
200803051500 METAR MRLM NIL=
200803051600 METAR MRLM NIL=
200803051700 METAR MRLM 051700Z 03005KT 9999 FEW025 BKN090 30/23 A2997 RMK RN DST SW NW N NE HZ ARND=
200803051800 METAR MRLM 051800Z 04013KT 9999 FEW025 BKN080 28/22 A2996 RMK RN DST N NE SW HZ ARND=
200803051900 METAR MRLM 051900Z 09004KT 9999 FEW025 BKN080 28/21 A2994 RMK RN DST S SW NE HZ ARND=
200803052000 METAR MRLM 052000Z NIL=
200803052100 METAR MRLM 052100Z 11004KT 9999 FEW028 BKN090 28/20 A2988 RMK RN S SW W HZ ARND=
200803052200 METAR MRLM NIL=
200803052300 METAR MRLM 052300Z 21003KT CAVOK 27/22 A2988 RMK BKN080 TRACE AC HZ ARND=
200803060000 METAR MRLM 060000Z 00000KT 9999 FEW028 BKN080 26/22 A2990 RMK RN DST SSW HZ ARND=
200803060100 METAR MRLM NIL=
200803060200 METAR MRLM NIL=
200803060300 METAR MRLM NIL=
200803060400 METAR MRLM NIL=
200803060500 METAR MRLM NIL=
200803060600 METAR MRLM NIL=
200803060700 METAR MRLM NIL=
200803060800 METAR MRLM NIL=
200803060900 METAR MRLM NIL=
200803061000 METAR MRLM NIL=
200803061100 METAR MRLM NIL=
200803061200 METAR MRLM 061200Z 20004KT 9999 FEW028 BKN090 21/19 A2994 RMK TRACE CI HZ ARND=
200803061300 METAR MRLM 061300Z 20004KT CAVOK 22/20 A2995 RMK OVC080 HZ ARND=
200803061400 METAR MRLM 061400Z 20003KT CAVOK 25721 A2997 RMK BKN090 TRACE SC HZ ARND=
200803061500 METAR MRLM 061500Z 19003KT CAVOK 28/21 A2998 RMK SCT100 FEW250 TRACE CU HZ ARND=
200803061600 METAR MRLM 061600Z 05004KT 9999 FEW026 BKN250 29/22 A2997 RMK FEW100 HZ ARND=
200803061700 METAR MRLM 061700Z 05006KT 9999 FEW026 BKN100 29/22 A2995 RMK FEW250 HZ ARND=
200803061800 METAR MRLM 061800Z 06006KT 9999 FEW026 SCT090 29/23 A2993 RMK FEW250 RN SSW HZ ARND=
200803061900 METAR MRLM 061900Z 06008KT 9999 FEW026 SCT090 29/23 A2990 RMK FEW250 RN SSW SW HZ ARND=
200803062000 METAR MRLM NIL=
200803062100 METAR MRLM NIL=
200803062200 METAR MRLM NIL=
200803062300 METAR MRLM NIL=
200803070000 METAR MRLM NIL=
200803070100 METAR MRLM NIL=
200803070200 METAR MRLM NIL=
200803070300 METAR MRLM NIL=
200803070400 METAR MRLM NIL=
200803070500 METAR MRLM NIL=
200803070600 METAR MRLM NIL=
200803070700 METAR MRLM NIL=
200803070800 METAR MRLM NIL=
200803070900 METAR MRLM NIL=
200803071000 METAR MRLM NIL=
200803071100 METAR MRLM NIL=
200803071200 METAR MRLM 071200Z 21004KT 9999 FEW025 SCT080 23/21 A2990 RMK TRACE CI HZ HY=
200803071300 METAR MRLM NIL=
200803071400 METAR MRLM 071400Z 18002KT CAVOK 28/21 A2993 RMK FEW230 TRAZAS CU/AC HZ ARND=
200803071500 METAR MRLM NIL=
200803071600 METAR MRLM NIL=
200803071700 METAR MRLM NIL=
200803071800 METAR MRLM NIL=
200803071900 METAR MRLM 071900Z 06007KT 9999 FEW026 30/22 A2988 RMK FEW250=
200803072000 METAR MRLM NIL=
200803072100 METAR MRLM NIL=
200803072200 METAR MRLM NIL=
200803072300 METAR MRLM NIL=
200803080000 METAR MRLM NIL=
200803080100 METAR MRLM NIL=
200803080200 METAR MRLM NIL=
200803080300 METAR MRLM NIL=
200803080500 METAR MRLM NIL=
200803080600 METAR MRLM NIL=
200803080700 METAR MRLM NIL=
200803080800 METAR MRLM NIL=
200803081000 METAR MRLM NIL=
200803081100 METAR MRLM NIL=
200803081200 METAR MRLM NIL=
200803081300 METAR MRLM 081300Z 22003KT 9999 -RA BKN026 SCT080 24/22 A2996=
200803081400 METAR MRLM NIL=
200803081500 METAR MRLM 081500Z 15003KT 9999 FEW030 BKN080 28/23 A2999 RMK RN DIST SE=
200803081600 METAR MRLM NIL=
200803081700 METAR MRLM NIL=
200803081800 METAR MRLM NIL=
200803081900 METAR MRLM NIL=
200803082000 METAR MRLM NIL=
200803082100 METAR MRLM NIL=
200803082200 METAR MRLM NIL=
200803082300 METAR MRLM 082300Z 01007KT 9999 FEW025 28/23 A2991 RMK TRACE CI=
200803090000 METAR MRLM NIL=
200803090100 METAR MRLM NIL=
200803090200 METAR MRLM NIL=
200803090300 METAR MRLM NIL=
200803090400 METAR MRLM NIL=
200803090500 METAR MRLM NIL=
200803090600 METAR MRLM NIL=
200803090700 METAR MRLM NIL=
200803090800 METAR MRLM NIL=
200803090900 METAR MRLM NIL=
200803091000 METAR MRLM NIL=
200803091100 METAR MRLM NIL=
200803091200 METAR MRLM 091200Z 21004KT 9999 SCT026 SCT045 21/19 A2997 RMK TRACE AC=
200803091300 METAR MRLM NIL=
200803091400 METAR MRLM NIL=
200803091500 METAR MRLM NIL=
200803091600 METAR MRLM NIL=
200803091700 METAR MRLM NIL=
200803091800 METAR MRLM NIL=
200803091900 METAR MRLM 091900Z 04005KT 9999 FEW025 BKN090 29/21 A2995 RMK TRACE CI HZY=
200803092000 METAR MRLM 092000Z NIL=
200803092100 METAR MRLM 092100Z 03004KT 9999 FEW025 BKN090 29/19 A2991 RMK HZ ARND LGT=
200803092200 METAR MRLM NIL=
200803092300 METAR MRLM 092300Z 03003KT 9999 FEW026 28/20 A2992 RMK FEW090 TRACE CI=
200803100000 METAR MRLM 100000Z 00000KT 9999 FEW026 BKN300 25/21 A2994 RMK TRACE CI=
200803100100 METAR MRLM NIL=
200803100200 METAR MRLM NIL=
200803100300 METAR MRLM NIL=
200803100400 METAR MRLM NIL=
200803100500 METAR MRLM NIL=
200803100600 METAR MRLM NIL=
200803100700 METAR MRLM NIL=
200803100800 METAR MRLM NIL=
200803100900 METAR MRLM NIL=
200803101000 METAR MRLM NIL=
200803101100 METAR MRLM NIL=
200803101200 METAR MRLM 101200Z 00000KT 999 FEW030 BKN240 20/19 A2999 RN DIST NW FEW090 HZ ARND=
200803101300 METAR MRLM 101300Z 26004KT 9999 SCT030 SCT240 22/19 A3001 RMK FEW090 RN DST W NW N NE HZ ARND=
200803101400 METAR MRLM 101400Z 25002KT 9999 FEW030 SCT250 24/20 A3003 RMK FEW090 RN DST NW N NE HZ ARND=
200803101500 METAR MRLM 101500Z 28002KT 9999 SCT030 BKN090 26/21 A3005 RMK FEW240 RN DST NW N NE HZ ARND=
200803101600 METAR MRLM 101600Z 24003KT 9999 FEW026 BKN090 28/20 A3004 RMK TRACE CI RN DST NE HZ ARND=
200803101700 METAR MRLM 101700Z 02002KT 9999 FEW028 SCT090 29/21 A3003 RMK SCT240 RN DST E NE HZ ARND=
200803101800 METAR MRLM 101800Z 05010KT 9999 FEW025 SCT090 28/21 A3001 RMK SCT240 HZ ARND=
200803101900 METAR MRLM 101900Z 04006KT 9999 FEW025 SCT090 29/21 A2999 RMK SCT240 HZ ARND=
200803102000 METAR MRLM NIL=
200803102100 METAR MRLM 102100Z 02008KT 9999 FEW025 BKN240 29/21 A2994 RMK FEW100 HZ ARND=
200803102200 METAR MRLM 102200Z 04005KT 9999 FEW025 BKN240 29/20 A2994 RMK HZ ARND=
200803102300 METAR MRLM 102300Z 05003KT CAVOK 28/20 A2994 RMK BKN240 TRACE CU AC=
200803110000 METAR MRLM 110000Z 04002KT 9999 FEW030 BKN240 27/20 A2994 RMK TRACE AC HZ ARND=
200803110100 METAR MRLM NIL=
200803110200 METAR MRLM NIL=
200803110300 METAR MRLM NIL=
200803110400 METAR MRLM NIL=
200803110500 METAR MRLM NIL=
200803110600 METAR MRLM NIL=
200803110700 METAR MRLM NIL=
200803110800 METAR MRLM NIL=
200803110900 METAR MRLM NIL=
200803111000 METAR MRLM NIL=
200803111100 METAR MRLM NIL=
200803111200 METAR MRLM 111200Z 21004KT 9999 FEW025 20/17 A2997 FEW090 TRACE CI HZ ARND=
200803111300 METAR MRLM 111300Z 21003KT 9999 FEW025 22/18 A2998 RMK FEW090 TRACE CI HZ ARND=
200803111400 METAR MRLM 111400Z 20003KT 9999 FEW025 26/20 A3002 RMK FEW100 TRACE CI HZ ARND=
200803111500 METAR MRLM 111500Z 02002KT 9999 FEW025 29/21 A3001 RMK TRACE AC CI HZ ARND=
200803111600 METAR MRLM 111600Z 04003KT 9999 FEW025 29/21 A3001 RMK TRACE AC CI=
200803111700 METAR MRLM 111700Z 02006KT 9999 FEW025 29/21 A2999 RMK FEW240 HZ ARND=
200803111800 METAR MRLM 111800Z 01006KT 9999FEW025 29/21 A2996 RMK TCU N ENE TRACE CU CI HZ ARND=
200803111900 METAR MRLM NIL=
200803112000 METAR MRLM NIL=
200803112100 METAR MRLM 112100Z 01008KT 9999 FEW025 29/22 A2988 RMK FEW090 FEW240 HZ LGT ARND=
200803112200 METAR MRLM 112200Z 03006KT 9999 FEW025 28/21 A2988 RMK DST SSW/SW TRAZAS SC HZ LGT ARNFD=
200803112300 METAR MRLM 112300Z 02010KT 999 SCT025 27/21 A2989 RMK FEW090 HZ LGT ARND=
200803120000 METAR MRLM 120000Z 01008KT 9999 SCT025 27/21 A2989 RMK FEW090 TRACE CI HZ ARND=
200803120100 METAR MRLM NIL=
200803120200 METAR MRLM NIL=
200803120300 METAR MRLM NIL=
200803120400 METAR MRLM NIL=
200803120500 METAR MRLM NIL=
200803120600 METAR MRLM NIL=
200803120700 METAR MRLM NIL=
200803120800 METAR MRLM NIL=
200803120900 METAR MRLM NIL=
200803121000 METAR MRLM NIL=
200803121100 METAR MRLM NIL=
200803121200 METAR MRLM NIL=
200803121300 METAR MRLM 121300Z 26005KT 9999 SCT030 BKN090 21/20 A2998 RMK RN DST ARND=
200803121400 METAR MRLM 121400Z 28003KT 9999 SCT030 SCT080 23/20 A3000 RMK RN DST ARND=
200803121500 METAR MRLM 121500Z 24004KT 9999 FEW030 BKN080 23/20 A3002 RMK RN DST=
200803121600 METAR MRLM 121600Z 24002KT 9999 FEW028 SCT030 26/20 A3000 RMK SCT080 RN DST NW/N/NE=
200803121700 METAR MRLM 121700Z 03004KT 9999 SCT030 BKN080 27/19 A2999 RMK RN DST NW/N/E HZ LGT ARND=
200803121800 METAR MRLM 121800Z 34012KT 9999 FEW030 BKN080 26/20 A2988 RMK RN DST WNW HZ LGT ARND=
200803121900 METAR MRLM 121900Z 33008KT 9999 FEW028 BKN090 27/19 A2992 RMK RN DST WNW HZY=
200803122000 METAR MRLM 122000Z NIL=
200803122100 METAR MRLM 132100Z 01005KT 9999 FEW028 BKN090 28/19 A2988=
200803122200 METAR MRLM 122200Z 35005KT CAVOK 28/19 A2989 BKN090 TRACE CU=
200803122300 METAR MRLM 122300Z 35006KT CAVOK 27/20 A2990 BKN090 TRACE CU=
200803130000 METAR MRLM 130000Z 34004KT 9999 SCT030 SCT080 27/21 A2992 RN DIST NE SW W=
200803130100 METAR MRLM NIL=
200803130200 METAR MRLM NIL=
200803130300 METAR MRLM NIL=
200803130400 METAR MRLM NIL=
200803130500 METAR MRLM NIL=
200803130600 METAR MRLM NIL=
200803130700 METAR MRLM NIL=
200803130800 METAR MRLM NIL=
200803130900 METAR MRLM NIL=
200803131000 METAR MRLM NIL=
200803131100 METAR MRLM NIL=
200803131200 METAR MRLM NIL=
200803131300 METAR MRLM 131300Z 21003KT 9999 FEW026 SCT100 23/20 A2997 TRACE CI HZ ARND=
200803131400 METAR MRLM 131400Z 20002KT 9999 FEW026 BKN100 25/21 A3000=
200803131500 METAR MRLM 131500Z 00000KT 9999 FEW026 BKN100 28/21 A3001 HZY=
200803131600 METAR MRLM 131600Z 04003KT 9999 FEW026 BKN100 28/21 A3000 HZ ARND=
200803131700 METAR MRLM 131700Z 04004KT 9999 FEW025 BKN100 29/21 A2998=
200803131800 METAR MRLM 131800Z 02006KT 9999 FEW026 SCT100 29/22 A2997 SCT250 HZ ARND=
200803131900 METAR MRLM NIL=
200803132000 METAR MRLM NIL=
200803132100 METAR MRLM 132100Z 05008KT 9999 FEW024 SCT250 28/21 A2989 RMK FEW090 RN DST SSW W HZY=
200803132200 METAR MRLM 132200Z 05006KT 9999 FEW024 SCT250 28/21 A2988 RMK FEW090 RN DST SSW W=
200803132300 METAR MRLM 132300Z 06005KT 9999 FEW024 SCT090 28/21 A2990 RMK SCT250 RN DST SE S SW W=
200803140000 METAR MRLM 140000Z 07003KT 9999 SCT024 SCT090 27/20 A2992 RMK RN DST SE S SW W=
200803140100 METAR MRLM NIL=
200803140200 METAR MRLM NIL=
200803140300 METAR MRLM NIL=
200803140400 METAR MRLM NIL=
200803140500 METAR MRLM NIL=
200803140600 METAR MRLM NIL=
200803140700 METAR MRLM NIL=
200803140800 METAR MRLM NIL=
200803140900 METAR MRLM NIL=
200803141000 METAR MRLM NIL=
200803141100 METAR MRLM NIL=
200803141200 METAR MRLM 141200Z 00000KT CAVOK 22/20 A2995 RMK BKN090 TRACE CU/CI HZ ARND=
200803141300 METAR MRLM 141300Z 23002KT 9999 FEW025 BKN090 23/21 A2997 RMK TRACE CI HZ ARND=
200803141400 METAR MRLM 141400Z 00000KT 9999 FEW025 SCT100 27/20 A2998 RMK TRACE CI HZY=
200803141500 METAR MRLM 141500Z 08003KT 9999 FEW024 28/21 A2998 FEW100 TRACE CI=
200803141600 METAR MRLM NIL=
200803141700 METAR MRLM 141700Z 06006KT 9999 FEW024 28/22 A2996 RMK RN DST NNE TRACE CI=
200803141800 METAR MRLM 141800Z 04007KT 9999 SCT024 29/22 A2994 RMK TRACE AC RN DST S SW=
200803141900 METAR MRLM 141900Z 04008KT FEW024 29/22 A2991 RMK RN DST S SW FEW090=
200803142000 METAR MRLM 142000Z NIL=
200803142100 METAR MRLM 142100Z 06005KT 9999 FEW024 SCT100 29/20 A2986 RMK RN DST S/SW/SE=
200803142200 METAR MRLM 142200Z 06006KT 9999 FEW024 SCT090 28/20 A2986 RMK RN DST S SW SW=
200803142300 METAR MRLM 142300Z 07003KT 9999 FEW024 BKN100 28/20 A2987=
200803150000 METAR MRLM 150000Z 09004KT 9999 FEW024 BKN090 27/20 A2987 RMK RN DST SW W TRACE CI=
200803150100 METAR MRLM NIL=
200803150200 METAR MRLM NIL=
200803150300 METAR MRLM NIL=
200803150400 METAR MRLM NIL=
200803150500 METAR MRLM NIL=
200803150600 METAR MRLM NIL=
200803150700 METAR MRLM NIL=
200803150800 METAR MRLM NIL=
200803150900 METAR MRLM NIL=
200803151000 METAR MRLM NIL=
200803151100 METAR MRLM NIL=
200803151200 METAR MRLM 151200Z 20003KT CAVOK 23/20 A2992 FEW100 TRACE CU FEW300 HZ ARND=
200803151300 METAR MRLM 151300Z 20002KT 9999 FEW25 25/21 A2993 RMK FEW100 TRACE CI HZ ARND=
200803151400 METAR MRLM 151400Z 11003KT CAVOK 28/21 A2994 RMK FEW100 TRACE CU HZ ARND=
200803151500 METAR MRLM 151500Z 10007KT 9999 NSC 29/21 A2994 RMK TRACE CU CI HZ ARND=
200803151600 METAR MRLM 151600Z 10008KT 9999 NSC 29/21 A2994 RMK TRACE CU AC HZ ARND=
200803151700 METAR MRLM 151700Z 07007KT 9999 FEW026 30/21 A2992 RMK FEW100 HZ ARND=
200803151800 METAR MRLM 151800Z 06007KT 9999 FEW026 SCT100 29/22 A2990 RMK HZ ARND=
200803151900 METAR MRLM 151900Z 05008KT 9999 FEW026 29/23 A2988 RMK FEW100 HZ LGT ARND=
200803152000 METAR MRLM NIL=
200803152100 METAR MRLM 152100Z 06005KT 9999 FEW024 SCT120 29/23 A2984 RMK TRACE CI=
200803152200 METAR MRLM 152200Z 08006KT 9999 FEW024 SCT090 29/23 A2984 RMK RN DST SW=
200803152300 METAR MRLM 152300Z 07004KT 9999 FEW024 28/22 A2984 RMK FEW090=
200803160000 METAR MRLM 160000Z 08005KT 9999 FEW024 SCT100 27/22 A2985 RMK FEW250 RN DST SW W=
200803160100 METAR MRLM NIL=
200803160200 METAR MRLM NIL=
200803160300 METAR MRLM NIL=
200803160400 METAR MRLM NIL=
200803160500 METAR MRLM NIL=
200803160600 METAR MRLM NIL=
200803160700 METAR MRLM NIL=
200803160800 METAR MRLM NIL=
200803160900 METAR MRLM NIL=
200803161000 METAR MRLM NIL=
200803161100 METAR MRLM NIL=
200803161200 METAR MRLM 161200Z 20004KT CAVOK 22/20 A2989 RMK TRACE CU OVC280 HZY=
200803161300 METAR MRLM 161300Z 20004KT CAVOK 24/21 A2991 RMK OVC280 TRACE CU HZ ARND=
200803161400 METAR MRLM 161400Z 15002KT 9999 FEW025 BKN280 28/22 A2993 RMK HZ ARND=
200803161500 METAR MRLM 161500Z 09004KT 9999 FEW025 BKN280 29/21 A2993 RMK HZ ARND=
200803161600 METAR MRLM 161600Z 07005KT 9999 FEW025 SCT280 30/21 A2994 RMK FEW100 CB NW HZ ARND=
200803161700 METAR MRLM 161700Z 06007KT 9999 FEW030 SCT280 30/20 A2993 RMK TRACE AC=
200803161800 METAR MRLM 161800Z 07005KT 9999 FEW030 SCT280 30/24 A2991 RMK FEW100=
200803161900 METAR MRLM 161900Z 04006KT 9999 FEW030 SCT280 30/21 A2989 RMK TRACE AC=
200803162000 METAR MRLM 162000Z NIL=
200803162100 METAR MRLM 162100Z 03006KT 9999 FEW030 SCT280 30/23 A2986 RMK TRAZAS AC=
200803162200 METAR MRLM 162200Z 03005KT 9999 FEW026 29/23 A2986 FEW280 TRAZAS AC=
200803162300 METAR MRLM 162300Z 02002KT 9999 SCT026 28/23 A2987 RMK TRAZAS AC=
200803170000 METAR MRLM 170000Z 35003KT 9999 BKN026 28/23 A2989 RMK FEW090=
200803170100 METAR MRLM NIL=
200803170200 METAR MRLM NIL=
200803170300 METAR MRLM NIL=
200803170400 METAR MRLM NIL=
200803170500 METAR MRLM NIL=
200803170600 METAR MRLM NIL=
200803170700 METAR MRLM NIL=
200803170800 METAR MRLM NIL=
200803170900 METAR MRLM NIL=
200803171000 METAR MRLM NIL=
200803171100 METAR MRLM NIL=
200803171200 METAR MRLM NIL=
200803171300 METAR MRLM 171300Z 18003KT 9999 -DZ BKN026 SCT080 23/21 A2995 RMK RN DST ARND=
200803171400 METAR MRLM 171400Z 23002KT 9999 DZ BKN024 SCT080 24/22 A2997 RMK RN DST ARND=
200803171500 METAR MRLM 171500Z 20003KT 9999 BKN028 SCT080 25/23 A2988 REDZ RMK RN DST ARND HZY=
200803171600 METAR MRLM 171600Z 18004KT 9999 BKN028 27/23 A2998 RMK RN DST E/SE/S/SW HZ LGT ARND=
200803171700 METAR MRLM 171700Z 14003KT 9999 BKN028 30/24 A2995 RMK FEW080 RN DST S/SW HZ LGT ARND=
200803171800 METAR MRLM 171800Z 08005KT 9999 SCT026 30/23 A2993 RMK TRAZAS AC HZ ARND=
200803171900 METAR MRLM 171900Z 07005KT 9999 SCT026 30/22 A2991 RMK TRAZAS AC HZ ARND=
200803172000 METAR MRLM NIL=
200803172100 METAR MRLM 172100Z 05006KT 9999 FEW026 30/23 A2987 HZ ARND=
200803172200 METAR MRLM 17220Z 04005KT 9999 FEW026 29/23 A2987 HZ LGT ARND=
200803172300 METAR MRLM 172300Z 05006KT 9999 BKN026 29/13 A2983 HZ ARND=
200803172356 METAR MRLM 180000Z 03006KT 9999 BKN025 28/23 A2988 HZ ARND=
200803180000 METAR MRLM 180000Z 03006KT 9999 BKN025 28/23 A2988 HZ ARND=
200803180100 METAR MRLM NIL=
200803180200 METAR MRLM NIL=
200803180300 METAR MRLM NIL=
200803180500 METAR MRLM NIL=
200803180600 METAR MRLM NIL=
200803180700 METAR MRLM NIL=
200803180800 METAR MRLM NIL=
200803180900 METAR MRLM NIL=
200803181000 METAR MRLM NIL=
200803181100 METAR MRLM NIL=
200803181200 METAR MRLM NIL=
200803181300 METAR MRLM 181300Z 18003KT 9999 BKN026 23/21 A2997 FEW090 RN DIST ARND=
200803181400 METAR MRLM 181400Z 00000KT 9999 3000N VCSH BKN028 25/23 A2997 FEW090 HZ ARND=
200803181500 METAR MRLM 181500Z 18002KT 9999 3000N DZ BKN028 26/13 A2996 RERA FEW090 RASH N=
200803181600 METAR MRLM NIL=
200803181700 METAR MRLM NIL=
200803181800 METAR MRLM 181800Z 06004KT 9999 FEW025 SCT100 29/22 A2992 TCU RN DIST N NE FEW250 HZY=
200803181900 METAR MRLM 181900Z 06005KT 9999 FEW027 SCT090 29/22 A2990 SCT250 HZY=
200803182000 METAR MRLM NIL=
200803182100 METAR MRLM 182100Z 07010KT 9999 FEW025 BKN100 30/23 A2985 RN DST SE S SW HZY=
200803182200 METAR MRLM 182200Z 07008KT 9999 SCT025 SCT100 29/23 A2984 HZ ARND=
200803182300 METAR MRLM 182300Z 09007KT 9999 SCT025 BKN090 28/22 A2989 RMK RN DST SE S SW HZ ARND=
200803190000 METAR MRLM NIL=
200803190100 METAR MRLM NIL=
200803190200 METAR MRLM NIL=
200803190400 METAR MRLM NIL=
200803190500 METAR MRLM NIL=
200803190600 METAR MRLM NIL=
200803190700 METAR MRLM NIL=
200803190800 METAR MRLM NIL=
200803190900 METAR MRLM NIL=
200803191000 METAR MRLM NIL=
200803191100 METAR MRLM NIL=
200803191200 METAR MRLM 191200Z 00000KT CAVOK 22/20 A2987 RMK FEW100 BKN250 HZ ARND=
200803191300 METAR MRLM 191300Z 00000KT CAVOK 23/20 A2988 FEW100 BKN250 HZ ARND=
200803191400 METAR MRLM 191400Z 00000KT CAVOK 25/21 A2991 RMK BKN090 FEW250 HZY=
200803191500 METAR MRLM 191500Z 07002KT CAVOK 28/20 A2992 RMK BKN090 FEW250 HZY=
200803191600 METAR MRLM 191600Z 03004KT CAVOK 29/21 A2992 RMK FEW090 SCT250 TRACE CU HZY=
200803191700 METAR MRLM 191700Z 02005KT CAVOK 29/21 A2992 RMK BKN250 TRACE CU HZY=
200803191800 METAR MRLM 191800Z 02011KT 9999 BKN024 28/23 A2991 RMK FEW250 HZY=
200803191900 METAR MRLM 191900Z 03008KT 9999 SCT024 SCT090 28/23 A2988 FEW250 HZY=
200803192000 METAR MRLM 192000Z NIL=
200803192100 METAR MRLM 192100Z 03005KT 9999 FEW025 BKN250 29/22 A2983 RMK FEW090 HZ ARND=
200803192200 METAR MRLM 192200Z 04005KT 9999 FEW030 SCT250 29/22 A2983 RMK FEW090 HZ ARND=
200803192300 METAR MRLM 192300Z 02004KT 9999 FEW030 SCT090 28/22 A2983 RMK SCT250 HZ ARND=
200803200000 METAR MRLM 200000Z 01003KT 9999 FEW030 BKN250 27/22 A2985 RMK FEW090 HZ ARND=
200803200100 METAR MRLM NIL=
200803200200 METAR MRLM NIL=
200803200300 METAR MRLM NIL=
200803200400 METAR MRLM NIL=
200803200500 METAR MRLM NIL=
200803200600 METAR MRLM NIL=
200803200700 METAR MRLM NIL=
200803200800 METAR MRLM NIL=
200803200900 METAR MRLM NIL=
200803201000 METAR MRLM NIL=
200803201100 METAR MRLM NIL=
200803201200 METAR MRLM NIL=
200803201300 METAR MRLM 201300Z 21004KT 3000 -RA FEW015 BKN022 23/22 A2991 RETS RMK CB E SE=
200803201400 METAR MRLM 201400Z 22004KT 4000 -RA OVC015 23/22 A2994=
200803201500 METAR MRLM 201500Z 16003KT 8000 DZ BKN015 SCT080 24/22 A2996 RMK RN ARND=
200803201600 METAR MRLM 201600Z 19004KT 8000 VCSH BKN015 25/23 A2996 REDZ RMK FEW080 RN ARND=
200803201700 METAR MRLM 201700Z 20004KT 9999 BKN024 SCT080 25/23 A2995 RMK RN DST HZ ARND=
200803201800 METAR MRLM 201800Z 18005KT 9999 BKN024 SCT080 27/22 A2993 RMK RN DST HZ ARND=
200803201900 METAR MRLM 201900Z 00000KT 9999 SCT024 SCT080 27/23 A2991 RMK RN HZ DST ARND=
200803202000 METAR MRLM NIL=
200803202100 METAR MRLM 202100Z 01002KT 9999 SCT025 BKN080 29/23 A2986 RMK RN DST HZ ARND=
200803202200 METAR MRLM 202200Z 00000KT 9999 BKN026 SCT080 28/22 A2987 RMKRN DZT HZ ARND=
200803202300 METAR MRLM 202300Z 35003KT 9999 BKN025 SCT240 28/22 A2987 RMK TRACE AC RN DST HZ ARND=
200803210000 METAR MRLM 210000Z 00000KT 9999 BKN025 SCT240 27/23 A2989 RMK TCU RN DST E SE S HZ ARND=
200803210100 METAR MRLM NIL=
200803210200 METAR MRLM NIL=
200803210300 METAR MRLM NIL=
200803210400 METAR MRLM NIL=
200803210500 METAR MRLM NIL=
200803210700 METAR MRLM NIL=
200803210800 METAR MRLM NIL=
200803210900 METAR MRLM NIL=
200803211000 METAR MRLM NIL=
200803211100 METAR MRLM NIL=
200803211200 METAR MRLM NIL=
200803211300 METAR MRLM 211300Z 21008KT 9999 OVC015 23/21 A2994 RMK RN HZ ARND=
200803211400 METAR MRLM 211400Z 16007KT 3000 RA BKN015 23/21 A2998 RMK FEW090=
200803211500 METAR MRLM 211500Z 20008KT 9999 DZ SCT006 BKN015 23/22 A2999 RMK FEW090 RN HZ ARND=
200803211600 METAR MRLM 211600Z 16009KT 9999 FEW010 BKN015 24/22 A3000 RMK FEW090 RN HZ ARND=
200803211700 METAR MRLM 211700Z 23008KT 9999 DZ FEW010 BKN015 24/22 A2998 RMK FEW090 RN HZ ARND=
200803211800 METAR MRLM 211800Z 21007KT 9999 FEW012 BKN018 24/22 A2995 RMK RN HZ ARND=
200803211900 METAR MRLM 21190Z 22006KT 9999 +DZ BKN013 24/22 A2993 RMK FEW090 HZ ARND=
200803212000 METAR MRLM NIL=
200803212100 METAR MRLM 212100Z 21009KT 9999 FEW015 SCT090 25/22 A2988 RMK FEW110 RN DST S/SW/W HZY=
200803212200 METAR MRLM 212200Z 23006KT 9999 FEW020 BKN090 25/20 A2987 RMK FEW110 DZ DST S/SW/W HZ LGT ARND=
200803212300 METAR MRLM 212300Z 21005KT 9999 FEW015 OVC090 24/21 A2988 RMK DZ DST=
200803220000 METAR MRLM NIL=
200803220100 METAR MRLM NIL=
200803220200 METAR MRLM NIL=
200803220300 METAR MRLM NIL=
200803220400 METAR MRLM NIL=
200803220500 METAR MRLM NIL=
200803220600 METAR MRLM NIL=
200803220800 METAR MRLM NIL=
200803220900 METAR MRLM NIL=
200803221100 METAR MRLM NIL=
200803221200 METAR MRLM 221200Z NIL=
200803221300 METAR MRLM 221300Z 22005KT 9999 FEW015 BKN090 22/20 A2992 RMK FEW280 RN DST NW/N HZY=
200803221400 METAR MRLM 221400Z 23007KT CAVOK 24/21 A2994 RMK BKN080 SCT110 RN DST NW HZY=
200803221500 METAR MRLM 221500Z 25007KT CAVOK 26/21 A2994 RMK TRAZAS CU BKN080 SCT110 HZY=
200803221600 METAR MRLM NIL=
200803221700 METAR MRLM NIL=
200803221800 METAR MRLM NIL=
200803221900 METAR MRLM 221900Z 01008KT 9999 FEW040 BKN280 29/21 A2986 RMK TCU DST NE HZ LGT ARND=
200803222000 METAR MRLM NIL=
200803222100 METAR MRLM 222100Z 03008KT 9999 FEW030 SCT120 BKN280 28/22 A2983 RN=
200803222200 METAR MRLM 222200Z 03006KT 9999 FEW030 BKN090 27/17 A2981 FEW280 RN=
200803222300 METAR MRLM 232300Z 03004KT 9999 FEW030 BKN090 27/21 A2983 FEW280 RN S SW HZY=
200803230000 METAR MRLM 230000Z 03003KT CAVOK 27/21 A2984 TRACE SCT BKN090 FEW280 DZ S SW HZ ARND=
200803230100 METAR MRLM NIL=
200803230200 METAR MRLM NIL=
200803230300 METAR MRLM NIL=
200803230400 METAR MRLM NIL=
200803230500 METAR MRLM NIL=
200803230600 METAR MRLM NIL=
200803230700 METAR MRLM NIL=
200803230800 METAR MRLM NIL=
200803230900 METAR MRLM NIL=
200803231000 METAR MRLM NIL=
200803231100 METAR MRLM NIL=
200803231200 METAR MRLM 231200Z 22003KT 9999 FEW025 BKN080 22/20 A2987 RMK HZ ARND=
200803231300 METAR MRLM 231300Z 22003KT 9999 FEW025 BKN080 23/20 A2989 RN NE W HZY=
200803231400 METAR MRLM 231400Z 19003KT CAVOK 26/21 A2991 BKN090 TRACE CU HZ ARND=
200803231500 METAR MRLM 231500Z 00000KT 9999 FEW025 BKN080 28/20 A2992 HZ ARND=
200803231600 METAR MRLM 231600Z 05006KT 9999 FEW025 BKN090 28/22 A29993 HZY=
200803231700 METAR MRLM 231700Z 07005KT 9999 FEW025 BKN090 29/20 A2992 HZY=
200803231800 METAR MRLM 231800Z 06005KT 9999 FEW025 BKN090 29/22 A2990 RN NNE NE TRACE CI HZY=
200803231900 METAR MRLM 231900Z 05006KT 9999 SCT025 SCT090 29/22 A2988 HZ ARND=
200803232000 METAR MRLM NIL=
200803232100 METAR MRLM 232100Z 05004KT 9999 FEW025 SCT100 29/21 A2983 RMK FEW240 RN DST S SW W HZ LGT ARND=
200803232200 METAR MRLM 232200Z 04002KT 9999 FEW025 BKN090 28/21 A2983 RMK FEW240 RN SE S SW HZ ARND=
200803232300 METAR MRLM 232300Z 00000KT 9999 FEW025 SCT090 28/21 A2983 RMK SCT240 RN DST SE S SW W=
200803240000 METAR MRLM 240000Z 20002KT 9999 FEW025 BKN090 25/22 A2985 RMK FEW240 RN DST S SW=
200803240100 METAR MRLM NIL=
200803240200 METAR MRLM NIL=
200803240300 METAR MRLM NIL=
200803240400 METAR MRLM NIL=
200803240500 METAR MRLM NIL=
200803240600 METAR MRLM NIL=
200803240700 METAR MRLM NIL=
200803240800 METAR MRLM NIL=
200803240900 METAR MRLM NIL=
200803241000 METAR MRLM NIL=
200803241100 METAR MRLM NIL=
200803241200 METAR MRLM 241200Z 24004KT CAVOK 23/20 A2992 RMK OVC090 TRACE CU HZ ARND=
200803241300 METAR MRLM 241300Z 22004KT CAVOK 23/20 A2994 RMK TRACE CU OVC090 HZY=
200803241400 METAR MRLM NIL=
200803241500 METAR MRLM 241500Z 18002KT CAVOK 27/21 A2997 RMK TRACE CU BKN100 FEW240 HZY=
200803241600 METAR MRLM NIL=
200803241700 METAR MRLM NIL=
200803241800 METAR MRLM NIL=
200803241900 METAR MRLM NIL=
200803242300 METAR MRLM 242300Z 34007KT 9999 FEW030 BKN080 27/22 A2989=
200803250000 METAR MRLM 250000Z 00000KT 9999 BKN030 SCT080 27/22 A2990 RMK RN DST SE S SW W HZ ARND=
200803250100 METAR MRLM NIL=
200803250200 METAR MRLM NIL=
200803250300 METAR MRLM NIL=
200803250400 METAR MRLM NIL=
200803250500 METAR MRLM NIL=
200803250600 METAR MRLM NIL=
200803250700 METAR MRLM NIL=
200803250800 METAR MRLM NIL=
200803250900 METAR MRLM NIL=
200803251000 METAR MRLM NIL=
200803251100 METAR MRLM NIL=
200803251200 METAR MRLM NIL=
200803251300 METAR MRLM 251300Z 23003KT 9999 FEW015 BKN090 23/21 A3000 RMK RN DST W NW E SE HZ ARND=
200803251400 METAR MRLM 251400Z 26006KT 9999 FEW015 BKN090 25/22 A3003 RMK FEW110 RN DST E HZ ARND=
200803251500 METAR MRLM 251500Z 28007KT CAVOK 28/22 A3003 RMK TRACE CU SCT090 BKN110 TCU DST NNE HZ ARND=
200803251600 METAR MRLM 251600Z 29009KT 9999 FEW040 BKN120 30/22 A3004 RMK HZ ARND=
200803251700 METAR MRLM 251700Z 32012KT 9999 SCT040 SCT120 30/22 A3002 RMK TCU DST NW N HZ ARND=
200803251800 METAR MRLM 251800Z 34010KT 9999 SCT038 SCT120 30/22 A2999 RMK TCU DST NE E HZ ARND LGT=
200803251900 METAR MRLM 251900Z 35012KT 9999 SCT035 SCT130 30/23 A2998 RMK HZ ARND=
200803252000 METAR MRLM 252000Z NIL=
200803252100 METAR MRLM 252100Z 35011KT 9999 SCT035 SCT120 30/23 A2993 RMK HZ ARND=
200803252200 METAR MRLM 252200Z 36010KT 9999 SCT030 SCT120 29/23 A2993 RMK RN SW FEW280 HZ ARND=
200803252300 METAR MRLM 252300Z 02008KT 9999 SCT030 SCT280 28/22 A2993 RMK FEW120 HZ ARND=
200803260000 METAR MRLM 260000Z 02005KT 9999 SCT025 SCT280 27/22 A2996 RMK TRACE AC TCU DST SE SW W RN DST SW W HZ ARND=
200803260100 METAR MRLM NIL=
200803260200 METAR MRLM NIL=
200803260300 METAR MRLM NIL=
200803260400 METAR MRLM NIL=
200803260500 METAR MRLM NIL=
200803260600 METAR MRLM NIL=
200803260700 METAR MRLM NIL=
200803260800 METAR MRLM NIL=
200803260900 METAR MRLM NIL=
200803261000 METAR MRLM NIL=
200803261100 METAR MRLM NIL=
200803261200 METAR MRLM NIL=
200803261300 METAR MRLM 261300Z 23006KT 9999 +DZ FEW020 SCT090 22/20 A3000 RMK SCT100 HZ ARND=
200803261400 METAR MRLM 261400Z 16006KT 8000 +DZ FEW015 BKN090 22/21 A3001 RMK FEW100 HZ ARND=
200803261500 METAR MRLM 261500Z 20007KT 9999 DZ BKN025 SCT100 23/21 A3001 RMK TRACE ST HZ ARND=
200803261600 METAR MRLM 261600Z 22007KT 9999 BKN020 SCT090 25/22 A3001 RMK RN E S SW W=
200803261700 METAR MRLM 261700Z 25004KT 9999 -DZ BKN020 26/22 A2998 RMK FW090=
200803261800 METAR MRLM 261800Z 06009KT 5000 +DZ FEW009 SCT025 BKN090 24/22 A2997=
200803261900 METAR MRLM 261900Z 31004KT 9999 DZ FEW008 BKN025 24/22 A2997 RMK FEW100=
200803262000 METAR MRLM 262000Z NIL=
200803262100 METAR MRLM 262100Z 15008KT 2000 -RA BKN010 24/22 A2991 RMK FEW090=
200803262200 METAR MRLM 262200Z 19006KT 9999 DZ FEW007 BKN025 23/22 A2990 RMK FEW100=
200803262300 METAR MRLM 262300Z 21008KT 8000 DZ SCT020 BKN090 23/21 A2992 RMK TRAZAS ST HZ ARND=
200803270000 METAR MRLM 270000Z 20010KT 9999 BKN020 SCT090 23/21 A2992 RMK TRCE ST RN/HZ ARND=
200803270100 METAR MRLM NIL=
200803270200 METAR MRLM NIL=
200803270300 METAR MRLM NIL=
200803270400 METAR MRLM NIL=
200803270500 METAR MRLM NIL=
200803270600 METAR MRLM NIL=
200803270700 METAR MRLM NIL=
200803270800 METAR MRLM NIL=
200803270900 METAR MRLM NIL=
200803271000 METAR MRLM NIL=
200803271100 METAR MRLM NIL=
200803271200 METAR MRLM NIL=
200803271300 METAR MRLM 271300Z 22002KT 9999 FEW030 BKN090 22/19 A2990 RMK RN DST N/NE HZ ARND=
200803271400 METAR MRLM 271400Z 21002KT 9999 FEW030 BKN090 23/20 A2992 RMK RN DST NW/N/NE HZY=
200803271500 METAR MRLM 271500Z 24003KT 9999 SCT030 BKN090 26/22 2993 RMK RN DST NW/N/NE HZY=
200803271600 METAR MRLM 271600Z 02004KT 9999 SCT030 BKN080 27/22 A2992 RMK RN DST NW/N/NE/E HZY=
200803271700 METAR MRLM 271700Z 07015KT 4000 +DZ BKN028 SCT080 25/23 A2993 RMK RN ARND=
200803271800 METAR MRLM 271800Z 09005KT 9999 SCT030 BKN080 27/23 A2989 REDZ RMK RN DST ARND HZY=
200803271900 METAR MRLM 271900Z 08005KT 9999 SCT030 BKN090 26/22 A2987 RMK RN DST=
200803272000 METAR MRLM 272000Z NIL=
200803272100 METAR MRLM 272100Z 01010KT 9999 SCT028 BKN080 27/22 A2983 RN DIST ARND HZ ARND=
200803272200 METAR MRLM 272200Z 03008KT 9999 SCT025 SCT080 26/22 A2983 RN DIST ARND=
200803272300 METAR MRLM 272300Z 18002KT 9999 SCT026 SCT080 26/22 A2983 RN DIST ARND HZ ARND=
200803272354 METAR MRLM 280000Z 22003KT 9999 SCT026 SCT080 25/22 A2984 RN/HZ ARND=
200803280000 METAR MRLM 280000Z 22003KT 9999 SCT026 SCT080 25/22 A2984 RN/HZ ARND=
200803280100 METAR MRLM NIL=
200803280200 METAR MRLM NIL=
200803280300 METAR MRLM NIL=
200803280400 METAR MRLM NIL=
200803280500 METAR MRLM NIL=
200803280600 METAR MRLM NIL=
200803280700 METAR MRLM NIL=
200803280800 METAR MRLM NIL=
200803280900 METAR MRLM NIL=
200803281000 METAR MRLM NIL=
200803281100 METAR MRLM NIL=
200803281200 METAR MRLM NIL=
200803281300 METAR MRLM NIL=
200803281400 METAR MRLM 281400Z 20002KT 9999 FEW025 BKN090 25/21 A2992 HZ ARND=
200803281500 METAR MRLM 281500Z 00000KT 9999 FEW025 BKN090 25/22 A2992 HZ ARND=
200803281600 METAR MRLM NIL=
200803281700 METAR MRLM NIL=
200803281800 METAR MRLM NIL=
200803281900 METAR MRLM NIL=
200803282000 METAR MRLM NIL=
200803282100 METAR MRLM NIL=
200803282200 METAR MRLM NIL=
200803282300 METAR MRLM NIL=
200803290000 METAR MRLM NIL=
200803290100 METAR MRLM NIL=
200803290200 METAR MRLM NIL=
200803290300 METAR MRLM NIL=
200803290400 METAR MRLM NIL=
200803290500 METAR MRLM NIL=
200803290600 METAR MRLM NIL=
200803290900 METAR MRLM NIL=
200803291000 METAR MRLM NIL=
200803291100 METAR MRLM NIL=
200803291200 METAR MRLM NIL=
200803291300 METAR MRLM NIL=
200803291400 METAR MRLM NIL=
200803291500 METAR MRLM NIL=
200803291600 METAR MRLM NIL=
200803291700 METAR MRLM NIL=
200803291800 METAR MRLM NIL=
200803291900 METAR MRLM NIL=
200803292000 METAR MRLM NIL=
200803292100 METAR MRLM 292100Z 23005KT 9999 FEW030 BKN090 27/21 A2987=
200803292200 METAR MRLM 292200Z 22004KT CAVOK 27/21 A2986=
200803292300 METAR MRLM 292300Z 19004KT CAVOK 26/22 A2986=
200803300000 METAR MRLM 300000Z 21004KT CAVOK 25/22 A2988=
200803300100 METAR MRLM NIL=
200803300200 METAR MRLM NIL=
200803300300 METAR MRLM NIL=
200803300400 METAR MRLM NIL=
200803300500 METAR MRLM NIL=
200803300600 METAR MRLM NIL=
200803300700 METAR MRLM NIL=
200803300900 METAR MRLM NIL=
200803301000 METAR MRLM NIL=
200803301100 METAR MRLM NIL=
200803301200 METAR MRLM NIL=
200803301300 METAR MRLM NIL=
200803301400 METAR MRLM NIL=
200803301500 METAR MRLM NIL=
200803301600 METAR MRLM NIL=
200803301700 METAR MRLM NIL=
200803301800 METAR MRLM NIL=
200803301900 METAR MRLM NIL=
200803302000 METAR MRLM NIL=
200803302100 METAR MRLM 302100Z 02009KT 999 BKN030 29/2 A2985 RMK RN SW FEW110 FEW280 HZ ARND=
200803302200 METAR MRLM NIL=
200803302300 METAR MRLM 302300Z 04007KT 9999 BKN030 28722 A2985 RMK FEW120 FEW280 RN SW W=
200803310000 METAR MRLM 310000Z 04004KT 9999 SCT025 SCT090 28/21 A2987 RMK FEW280 RN DST SW=
200803310100 METAR MRLM NIL=
200803310200 METAR MRLM NIL=
200803310300 METAR MRLM NIL=
200803310400 METAR MRLM NIL=
200803310500 METAR MRLM NIL=
200803310600 METAR MRLM NIL=
200803310700 METAR MRLM NIL=
200803310800 METAR MRLM NIL=
200803310900 METAR MRLM NIL=
200803311000 METAR MRLM NIL=
200803311100 METAR MRLM NIL=
200803311200 METAR MRLM 311200Z 22004KT 9999 FEW025 SCT100 21/19 A2991 TRACE SC HZ ARND=
200803311300 METAR MRLM 311300Z 22003KT 9999 FEW025 SCT100 22/20 A2993 RMK TRACE CI HZ LEVE ARND=
200803311400 METAR MRLM 311400Z 00000KT 9999 FEW028 27/22 A2995 RMK FEW100 TRACE CI HZ ARND=
200803311500 METAR MRLM 311500Z 06002KT 9999 FEW028 29/21 A2995 RMK FEW240 TRACE AC HZ ARND=
200803311600 METAR MRLM NIL=
200803311700 METAR MRLM 311700Z 05005KT 9999 FEW025 29/22 A2993 RMK FEW240=
200803311800 METAR MRLM 311800Z 05006KT 9999 FEW025 30722 A2991 RMK FEW240 TRACE AC=
200803311900 METAR MRLM 311900Z 03008KT 9999 FEW025 40/22 A2988 RMK FEW240 TRACE AC=
200803312000 METAR MRLM 312000Z NIL=
200803312100 METAR MRLM 312100Z 04007KT 9999 FEW025 SCT240 29/22 A2985 RMK TRAZAS AC=
200803312200 METAR MRLM 312200Z 04007KT 9999 SCT025 SCT240 29/23 A2984 RMK TRAZAS AC=
200803312300 METAR MRLM 312300Z 06005KT 9999 FEW025 SCT240 29/22 A2985 RMK TRAZAS AC=
200804010000 METAR MRLM 010000Z 06006KT 9999 BKN025 28/22 A2986 RMK FEW240=
200804010100 METAR MRLM NIL=
200804010200 METAR MRLM NIL=
200804010300 METAR MRLM NIL=
200804010400 METAR MRLM NIL=
200804010500 METAR MRLM NIL=
200804010600 METAR MRLM NIL=
200804010700 METAR MRLM NIL=
200804010800 METAR MRLM NIL=
200804010900 METAR MRLM NIL=
200804011000 METAR MRLM NIL=
200804011100 METAR MRLM NIL=
200804011200 METAR MRLM 011200Z 22004KT 9999 FEW025 BKN230 22/20 A2991 RMK TCU DST NW N FEW090 HZ ARND=
200804011300 METAR MRLM 011300Z 21003KT 9999 FEW025 BKN230 24/21 A2994 RMK FEW090 TCU/RN DST NW HZ ARND=
200804011400 METAR MRLM 011400Z 19003KT 9999 FEW025 BKN230 27/21 A2995 RMK FEW090 HZ ARND=
200804011500 METAR MRLM 011500Z 03002KT 9999 FEW025 BKN230 29/20 A2996 RMK FEW090 HZ LGT ARND=
200804011600 METAR MRLM 011600Z 04006KT 9999 FEW030 BKN240 29/21 A2996 RMK TRAZAS AC=
200804011700 METAR MRLM 011700Z 07006KT 9999 FEW030 SCT250 30/21 A2994=
200804011800 METAR MRLM 011800Z 06007KT 9999 FEW030 30/22 A2992 RMK FEW250=
200804011900 METAR MRLM 011900Z 05007KT 9999 FEW030 32/22 A2989 RMK FEW250=
200804012000 METAR MRLM 012000Z NIL=
200804012100 METAR MRLM 012100Z 06007KT 9999 FEW025 30/22 A2984 FEW250=
200804012200 METAR MRLM 012200Z 04007KT 9999 FEW026 29/22 A2984 FEW250=
200804012300 METAR MRLM 012300Z 06007KT 9999 SCT025 29/21 A2985 TRACE CI=
200804012359 METAR MRLM 020000Z 05005KT 9999 SCT025 28/21 A2987 TRACE CI=
200804020000 METAR MRLM 020000Z 05005KT 9999 SCT025 28/21 A2987 TRACE CI=
200804020100 METAR MRLM NIL=
200804020200 METAR MRLM NIL=
200804020300 METAR MRLM NIL=
200804020400 METAR MRLM NIL=
200804020500 METAR MRLM NIL=
200804020600 METAR MRLM NIL=
200804020700 METAR MRLM NIL=
200804020800 METAR MRLM NIL=
200804020900 METAR MRLM NIL=
200804021000 METAR MRLM NIL=
200804021100 METAR MRLM NIL=
200804021200 METAR MRLM NIL=
200804021300 METAR MRLM 021300Z 21005KT CAVOK 23/20 A2995 FEW100 TRACE CU HZ LGT ARND=
200804021400 METAR MRLM 021400Z 20004KT CAVOK 27/22 A2996 TRACE CU FEW100 HZ LGT ARND=
200804021500 METAR MRLM 021500Z 05003KT 9999 FEW028 BKN100 29/21 A2997 HZ LGT ARND=
200804021600 METAR MRLM 021600Z 04005KT 9999 FEW035 SCT100 29/22 A2996 HZ LGT ARND=
200804021653 METAR MRLM NIL=
200804021700 METAR MRLM NIL=
200804021800 METAR MRLM 021800Z 04006KT 9999 FEW030 BKN090 28/23 A2992 HZARND=
200804021900 METAR MRLM 021900Z 06007KT 9999 FEW030 BKN090 29/23 A2989 HZ ARND=
200804021952 METAR MRLM NIL=
200804022000 METAR MRLM NIL=
200804022100 METAR MRLM 022100Z 03006KT 9999 FEW038 29/22 A2985 TTRCE AC CB DST S HZY=
200804022200 METAR MRLM 022200Z 02006KT 9999 FEW038 29/22 A2984 RMK TRACE AC HZY TCU DST S=
200804022300 METAR MRLM 022300Z 01006KT 9999 SCT040 29/21 A2985 RMK CB DST S TRACE CI HZY=
200804030000 METAR MRLM 030000Z 35006KT 9999 BKN030 28/22 A2987 RMK TRCE AC CI CB DST S HZY=
200804030100 METAR MRLM NIL=
200804030200 METAR MRLM NIL=
200804030300 METAR MRLM NIL=
200804030400 METAR MRLM NIL=
200804030500 METAR MRLM NIL=
200804030600 METAR MRLM NIL=
200804030700 METAR MRLM NIL=
200804030800 METAR MRLM NIL=
200804030900 METAR MRLM NIL=
200804031000 METAR MRLM NIL=
200804031100 METAR MRLM NIL=
200804031200 METAR MRLM 031200Z NIL=
200804031300 METAR MRLM 031300Z 22006KT CAVOK 24/20 A2992 RMK TRACE CU LEVE HZY FEW280=
200804031400 METAR MRLM 031400Z 25003KT 9999 NSC 28/21 A2994 RMK TRCE CU CI LEVE HZY=
200804031500 METAR MRLM 031500Z 03005KT 9999 FEW035 28/22 A2994 RMK TCU DST NE E=
200804031600 METAR MRLM 031600Z 01007KT 9999 FEW035 29/22 A2994 RMK TRACE AC LEVE HZY=
200804031700 METAR MRLM 031700Z 01007KT 9999 FEW035 29/22 A2991 RMK LEVE HZY TRACE AC=
200804031800 METAR MRLM 031800Z 02008KT 9999 FEW030 29/23 A2989 RMK TRACE AC CI=
200804031900 METAR MRLM 031900Z 02009KT 9999 FEW030 29/23 A2985 RMK CB DST S TCU DST SW TRACE CI LEVE HZY=
200804032000 METAR MRLM 032000Z NIL=
200804032100 METAR MRLM 032100Z 03009KT 9999 FEW035 29/23 A2981 RMK TRACE CI CB DST S HZ LGT ARND=
200804032200 METAR MRLM 032200Z 04009KT 9999 SCT035 29/22 A2980 RMK CB DST S TRACE CI HZ LGT ARND=
200804032300 METAR MRLM 032300Z 05007KT 9999 BKN030 28/22 A2982 RMK CB DST S SW TRACE CI HZ ARND=
200804040000 METAR MRLM 040000Z 05008KT 9999 BKN030 28/22 A2983 RMK CB DST SE S SW TRACE CI HZ ARND=
200804040100 METAR MRLM NIL=
200804040200 METAR MRLM NIL=
200804040300 METAR MRLM NIL=
200804040400 METAR MRLM NIL=
200804040500 METAR MRLM NIL=
200804040600 METAR MRLM NIL=
200804040700 METAR MRLM NIL=
200804040800 METAR MRLM NIL=
200804040900 METAR MRLM NIL=
200804041000 METAR MRLM NIL=
200804041100 METAR MRLM NIL=
200804041200 METAR MRLM 041200Z 20003KT 9999 FEW025 BKN090 22/20 A2989 TCU DIST NW N HZ ARND=
200804041300 METAR MRLM 041300Z 20004KT 9999 FEW025 SCT100 25/21 A2991 RMK TCU DST NW N HZ LGT ARND=
200804041400 METAR MRLM 041400Z 02002KT 9999 FEW025 SCT100 28/22 A2993 RMK TCU RN DST NW N HZ ARND=
200804041500 METAR MRLM 041500Z 05003KT 9999 FEW025 SCT090 29/22 A2993 RMK TCU RN DST NW N HZ ARND=
200804041600 METAR MRLM 041600Z 03005KT 9999 FEW025 29/23 A2992 RMK FEW090 TCU DST NW NE HZ ARND=
200804041700 METAR MRLM 041700Z 04005KT 9999 FEW025 30/23 A2990 RMK FEW090 HZ ARND=
200804041800 METAR MRLM 041800Z 04008KT 9999 FEW025 29/23 A2988 RMK FEW 090 TCU RN DST SW HZ LGT ARND=
200804041900 METAR MRLM 041900Z 03007KT 9999 FEW025 30/22 A2984 RMK FEW090 TCU DST W NW HZ LGT ARND=
200804042000 METAR MRLM 042000Z NIL=
200804042100 METAR MRLM 042100Z 02006KT 9999 FEW025 29/23 A2979 RMK CB SE S SW TRACE AC=
200804042200 METAR MRLM 042200Z 06005KT 9999 FEW025 SCT230 29/22 A2980 RMK CB RN SE SSW=
200804042300 METAR MRLM 042300Z 06005KT 9999 FEW025 SCT230 28/22 A2980 RMK FEW090 CB SE SSW=
200804050000 METAR MRLM 050000Z 00000KT 9999 FEW030 SCT090 28/22 A2980 RMK SCT230 CB DST SE S SW W RN SW W=
200804050100 METAR MRLM NIL=
200804050200 METAR MRLM NIL=
200804050300 METAR MRLM NIL=
200804050400 METAR MRLM NIL=
200804050500 METAR MRLM NIL=
200804050600 METAR MRLM NIL=
200804050700 METAR MRLM NIL=
200804050800 METAR MRLM NIL=
200804050900 METAR MRLM NIL=
200804051000 METAR MRLM NIL=
200804051100 METAR MRLM NIL=
200804051200 METAR MRLM NIL=
200804051300 METAR MRLM 051300Z 22002KT 9999 FEW025 SCT100 27/22 A2990 RMK TRACE CI HZ ARND=
200804051400 METAR MRLM 051400Z 22002KT 9999 FEW025 SCT100 27/22 A2990 RMK TRACE CI HZ ARND=
200804051500 METAR MRLM 051500Z 05003KT 9999 FEW025 SCT090 29/23 A2993 RMK TCU RN N NE RN NW TRACE CI HZ ARND=
200804051600 METAR MRLM 051600Z 02005KT 9999 FEW025 30723 A2992 RMK TCU NW N TRACE AC CI HZ ARND=
200804051700 METAR MRLM 051700Z 01008KT 9999 FEW025 30/24 A2991 RMK CB NW TRACE AC CI HZ ARND=
200804051800 METAR MRLM 051800Z 02009KT 9999 FEW025 30/23 A2989 RMK TRACE AC CI HZ ARND=
200804051900 METAR MRLM 051900Z 04006KT 9999 FEW025 30/24 A2986 RMK TCU E NE SW TRACE AC CI HZ ARND=
200804052000 METAR MRLM 052000Z NIL=
200804052100 METAR MRLM 052100Z 01008KT 9999 SCT025 SCT230 28/23 A2982 CB SE S SW HZY=
200804052200 METAR MRLM 052200Z 02005KT 9999 BKN025 SCT230 28/23 A282 CB SE S SW RN S SW=
200804052300 METAR MRLM 052300Z 01008KT 9999 BKN025 28/23 A2984 FEW230 CB RN SE S SW W HZY=
200804060000 METAR MRLM 060000Z 04006KT 9999 FEW025 SCT230 28/23 A2985 RMK CB DST SE S SW RN S SW NW E HZY=
200804060100 METAR MRLM NIL=
200804060200 METAR MRLM NIL=
200804060300 METAR MRLM NIL=
200804060400 METAR MRLM NIL=
200804060500 METAR MRLM NIL=
200804060600 METAR MRLM NIL=
200804060700 METAR MRLM NIL=
200804060800 METAR MRLM NIL=
200804060900 METAR MRLM NIL=
200804061000 METAR MRLM NIL=
200804061100 METAR MRLM NIL=
200804061200 METAR MRLM NIL=
200804061300 METAR MRLM 061300Z 22005KT CAVOK 24/22 A2990 FEW140 SCT300 HZY=
200804061400 METAR MRLM 061400Z 24003KT CAVOK 27/23 A2992 TRAZAS CU FEW140 FEW300 HZY=
200804061500 METAR MRLM 061500Z 04005KT 140V240 9999 FEW030 29/23 A2991 TRAZAS AC CI HZY=
200804061600 METAR MRLM 061600Z 01008KT 9999 FEW035 30/23 A2992 HZY=
200804061700 METAR MRLM 061700Z 0200KT 9999 FEW035 30/23 A2991 HZY=
200804061800 METAR MRLM 061800Z 04010KT 9999 FEW030 30/24 A2988 HZY TCU SW=
200804061900 METAR MRLM NIL=
200804062000 METAR MRLM 062000Z NIL=
200804062100 METAR MRLM 062100Z 03005KT 9999 FEW025 SCT140 29/23 A2981 CB RN DIST SW=
200804062200 METAR MRLM NIL=
200804062300 METAR MRLM NIL=
200804062355 METAR MRLM 070000Z 04004KT 9 CHECK TEXT NEW ENDING ADDED KATLYTAA=
200804070000 METAR MRLM 070000Z 04004KT 9999 SCT025 BKN140 28/23 A2984 RN DIST SE S SW W FEW250 HZ ARND=
200804070100 METAR MRLM NIL=
200804070200 METAR MRLM NIL=
200804070300 METAR MRLM NIL=
200804070400 METAR MRLM NIL=
200804070500 METAR MRLM NIL=
200804070600 METAR MRLM NIL=
200804070700 METAR MRLM NIL=
200804070800 METAR MRLM NIL=
200804070900 METAR MRLM NIL=
200804071000 METAR MRLM NIL=
200804071100 METAR MRLM NIL=
200804071200 METAR MRLM NIL=
200804071300 METAR MRLM 071300Z 20005KT 9999 FEW015 BKN300 25/22 A2986 TCU RN DIST E HZY=
200804071400 METAR MRLM 071400Z 13002KT 9999 FEW015 BKN300 26/13 A2988 HZ ARND TRACE AC=
200804071500 METAR MRLM 071500Z 05004KT 9999 SCT030 SCT280 29/23 A2989 TRACE AC HZ ARND=
200804071600 METAR MRLM 071600Z 04005KT 9999 FEW035 SCT280 30/23 A2988 TRACE AC HZ ARND=
200804071700 METAR MRLM 071700Z 04007KT 9999 SCT035 BKN300 30/23 A2987 HZ ARND=
200804071800 METAR MRLM 071800Z 05010KT 9999 SCT030 BKN280 30/24 A2985 FEW140 CB=
200804071900 METAR MRLM 071900Z 05007KT 9999 SCT025 SCT140 29/23 A2983 CB DIST SW S RN DIST SW FEW120 FEW280=
200804072000 METAR MRLM NIL=
200804072100 METAR MRLM 072100Z 03008KT 9999 SCT030 SCT270 29/23 A2979 RMK CB DST SE E SW W=
200804072200 METAR MRLM 072200Z 05006KT 9999 FEW030 SCT150 29/22 A2979 RMK FEW130 FEW270 CB RN DST SE S SW W HZ ARND=
200804072300 METAR MRLM 072300Z 05006KT 9999 FEW030 BKN140 28/22 A2979 RMK FEW120 FEW270 RN DST SE S SW W HZY=
200804080000 METAR MRLM 080000Z 07004KT 9999 SCT028 SCT150 28/22 A2981 RMK RN DST S SW FEW130 FEW270 HZ ARND=
200804080100 METAR MRLM NIL=
200804080200 METAR MRLM NIL=
200804080300 METAR MRLM NIL=
200804080400 METAR MRLM NIL=
200804080500 METAR MRLM NIL=
200804080600 METAR MRLM NIL=
200804080700 METAR MRLM NIL=
200804080800 METAR MRLM NIL=
200804080900 METAR MRLM NIL=
200804081000 METAR MRLM NIL=
200804081200 METAR MRLM 081200Z 21004KT 9999 FEW025 SCT240 23/21 A2983 HZY=
200804081300 METAR MRLM 081300Z 17007KT 9999 BKN026 25/22 29/87 TRAZAS CI HZY=
200804081400 METAR MRLM NIL=
200804081500 METAR MRLM NIL=
200804081600 METAR MRLM NIL=
200804081700 METAR MRLM 081700Z 34006KT 9999 FEW026 SCT280 31/23 A2986 RMK HZ ARND=
200804081800 METAR MRLM 081800Z 01006KT 9999 FEW026 BKN250 31/24 A2983 RMK HZ ARND=
200804081900 METAR MRLM 081900Z 03008KT 9999 FEW026 BKN250 30/24 A2982 RMK HZ ARND=
200804082000 METAR MRLM 082000Z NIL=
200804082100 METAR MRLM 082100Z 02005KT 9999 FEW026 BKN250 30/23 A2978 RMK CB DST SE S SW W HZ ARND=
200804082200 METAR MRLM 082200Z 03009KT 9999 SCT025 BKN250 29/23 A2978 RMK CB DST SE S SW W HZ ARND=
200804082300 METAR MRLM 082300Z 05008KT 9999 BKN025 28/23 A2979 RMK FEW100 RN DST S SW HZ ARND=
200804090000 METAR MRLM 090000Z 05007KT 9999 BKN025 SCT130 28/23 A2981 RMK RN DST SE S SW W HZ ARND=
200804090100 METAR MRLM NIL=
200804090200 METAR MRLM NIL=
200804090300 METAR MRLM NIL=
200804090400 METAR MRLM NIL=
200804090500 METAR MRLM NIL=
200804090800 METAR MRLM NIL=
200804090900 METAR MRLM NIL=
200804091000 METAR MRLM NIL=
200804091100 METAR MRLM NIL=
200804091200 METAR MRLM 091200Z 20006KT 9999 FEW024 SCT090 23/22 A2986 CB DIST NW N NE E RN DIST ARND FEW230 HZ ARND=
200804091300 METAR MRLM 091300Z 00000KT 9999 FEW024 SCT090 24/23 A2987 RMK SCT230 CB RN DST NW N NE E HZ ARND=
200804091400 METAR MRLM 091400Z 00000KT 9999 FEW024 SCT090 26/23 A2989 RMK SCT230 CB RN DST NW NE E=
200804091500 METAR MRLM 091500Z 02002KT 9999 FEW024 BKN230 28/24 A2991 RMK FEW100 CB RN DST NW N NE E HZ ARND=
200804091600 METAR MRLM 091600Z 08003KT 9999 SCT024 SCT230 29/23 A2991 RMK FEW100 TCU RN DST W N NE HZ ARND=
200804091700 METAR MRLM 091700Z 03010KT 9999 SCT024TCU SCT230 29/24 A2989 RMK RN NE E SW CB DST NW HZ ARND=
200804091800 METAR MRLM 091800Z 03005KT 9999 SCT024 SCT090 28/24 A2987 REDZ RMK FEW230 CB DST SSE NW HZ ARND=
200804091900 METAR MRLM 091900Z 06008KT 9999 FEW024 SCT090 29/24 A2985 RMK FEW230 CB DST ARND TS DST NNW RN NNW SE SW=
200804092000 METAR MRLM 092000Z NIL=
200804092100 METAR MRLM 092100Z 06008KT 9999 SCT026 SCT090 28/23 A2980 RMK CB E SE RN S SW W HZ ARND=
200804092200 METAR MRLM 092200Z 05007KT 9999 BKN026 SCT090 28/23 A2979 RMK CB RN SE S SW HZ ARND=
200804092300 METAR MRLM 092300Z 04008KT 9999 BKN025 28/23 A2982 RMK FEW230 CB RN E SE S SW W HZ ARND=
200804100000 METAR MRLM 100000Z 05006KT 9999 BKN025 SCT090 28/23 A2983 RM CB RN DST E SE S SW W HZ ARND=
200804100100 METAR MRLM NIL=
200804100200 METAR MRLM NIL=
200804100300 METAR MRLM NIL=
200804100400 METAR MRLM NIL=
200804100500 METAR MRLM NIL=
200804100600 METAR MRLM NIL=
200804100700 METAR MRLM NIL=
200804100800 METAR MRLM NIL=
200804100900 METAR MRLM NIL=
200804101000 METAR MRLM NIL=
200804101100 METAR MRLM NIL=
200804101200 METAR MRLM NIL=
200804101300 METAR MRLM 101300Z 22004KT 9999 SCT015 SCT280 24/22 A2984 RMK TRACE AC RN NW NE N E=
200804101400 METAR MRLM 101400Z 29006KT 8000 +DZ BKN015 24/22 A2990 RMK VIS N NE SW UNL FEW100=
200804101500 METAR MRLM 101500Z 22007KT 9999 FEW015 BKN090 25/23 A2991 RMK RN HZ ARND=
200804101600 METAR MRLM 101600Z 23007KT 9999 FEW018 BKN090 26/23 A2990 RMK RN N E SE FEW070=
200804101700 METAR MRLM 101700Z 19005KT 9999 BKN030 29/22 A2989 RMK RN N E S FEW090=
200804101800 METAR MRLM 101800Z 10010KT 9999 DZ FEW010 BKN020 27/23 A2988 RMK FEW090 RN HZ ARND=
200804101900 METAR MRLM 101900Z 09011KT 9999 SCT020 SCT090 26/22 A2986 RMK RN HZ ARND TRACE AS=
200804102000 METAR MRLM 102000Z NIL=
200804102100 METAR MRLM 102100Z 01004KT 9999 -DZ FEW015 BKN030 25/23 A2983 FEW100 RN HZ ARND=
200804102200 METAR MRLM 102200Z 20006KT 9999 BKN030 26/23 A2991 RN SE S FEW100=
200804102300 METAR MRLM 102300Z 21004KT CAVOK 26/23 A2981 OVC080 RN SE S=
200804110000 METAR MRLM 110000Z 19002KT CAVOK 25/22 A2982 BKN080 FEW100 RN SE S SW=
200804110100 METAR MRLM NIL=
200804110200 METAR MRLM NIL=
200804110300 METAR MRLM NIL=
200804110400 METAR MRLM NIL=
200804110500 METAR MRLM NIL=
200804110600 METAR MRLM NIL=
200804110700 METAR MRLM NIL=
200804110800 METAR MRLM NIL=
200804110900 METAR MRLM NIL=
200804111000 METAR MRLM NIL=
200804111100 METAR MRLM NIL=
200804111200 METAR MRLM NIL=
200804111300 METAR MRLM 111300Z 21006KT CAVOK 25/22 A2986 SCT070 SCT090 RN NW NE=
200804111400 METAR MRLM 111400Z 21006KT CAVOK 26/22 A2986 SCT070 BKN090 TRAZAS SCT RN N NE=
200804111500 METAR MRLM 111500Z 04004KT 9999 FEW025 SCT090 28/23 A2987 SCT130 RN N=
200804111600 METAR MRLM 111600Z 02014KT 9999 FEW020 SCT090 27/23 A2988 SCT100 RN N=
200804111700 METAR MRLM 111700Z 02008KT 9999 FEW035 SCT090 28/21 A2987=
200804111800 METAR MRLM NIL=
200804111900 METAR MRLM 111900Z 05012KT 9999 FEW030 BKN090 28/22 A2982 DZ N E RN SW=
200804112000 METAR MRLM NIL=
200804112100 METAR MRLM 112100Z 01003KT/010V180 CAVOK 28/21 A2978 RMK BKN090 FEW110 RN DST QUAD W=
200804112200 METAR MRLM 112200Z 04005KT 9999 FEW030 BKN090 27/22 A2978 RMK FEW11 RN DST SW W=
200804112300 METAR MRLM 112300Z 10002KT 9999 FEW025 BKN080 27/23 A2978 RMK TRCE CI RN DST E SE=
200804120000 METAR MRLM 120000Z 17002KT CAVOK 25/23 A2980 RMK TRACE SC CI SCT080 SCT100 TCU RN DST SE=
200804120100 METAR MRLM NIL=
200804120200 METAR MRLM NIL=
200804120300 METAR MRLM NIL=
200804120400 METAR MRLM NIL=
200804120500 METAR MRLM NIL=
200804120600 METAR MRLM NIL=
200804120700 METAR MRLM NIL=
200804120800 METAR MRLM NIL=
200804120900 METAR MRLM NIL=
200804121000 METAR MRLM NIL=
200804121100 METAR MRLM NIL=
200804121200 METAR MRLM 121200Z 19004KT 9999 FEW030 BKN080 22/21 A2983 RM RN DST W NW E HZ ARND=
200804121300 METAR MRLM 121300Z 20004KT 9999 FEW010 BKN090 24/21 A2985 RN DIST E HZ ARND=
200804121400 METAR MRLM 121400Z 19002KT 9999 FEW030 BKN090 26/22 A2988 RN DIST E HZ ARND=
200804121500 METAR MRLM 121500Z 12005KT 9999 FEW030 BKN090 27/23 A2989 RN DIST E HZ ARND=
200804121600 METAR MRLM 121600Z 10006KT 9999 FEW028 BKN090 28/23 A2989 RN DIST E HZ ARND=
200804121700 METAR MRLM 121700Z 11006KT 9999 FEW028 BKN090 29/22 A2988 HZ ARND=
200804121800 METAR MRLM 121800Z 08007KT 9999 FEW028 BKN090 28/23 A2988 RN DIST SW HZ ARND=
200804121900 METAR MRLM 121900Z 08004KT 9999 FEW028 BKN090 29/22 A2983 HZ ARND=
200804122000 METAR MRLM 122000Z NIL=
200804122100 METAR MRLM 122100Z 03004KT 9999 FEW025 BKN090 29/22 A2980 RN SW HA ARND=
200804122200 METAR MRLM 122200Z 02004KT 9999 FEW028 BKN090 28/22 A2979 HZY=
200804122300 METAR MRLM 122300Z 01002KT 9999 SCT030 BKN080 28/22 A2981 HZ ARND=
200804122355 METAR MRLM 13000Z 00000KT 9999 BKN030 SCT080 26/23 A2982 RN DIST E SE SSW=
200804130000 METAR MRLM 13000Z 00000KT 9999 BKN030 SCT080 26/23 A2982 RN DIST E SE SSW=
200804130100 METAR MRLM NIL=
200804130200 METAR MRLM NIL=
200804130300 METAR MRLM NIL=
200804130400 METAR MRLM NIL=
200804130500 METAR MRLM NIL=
200804130600 METAR MRLM NIL=
200804130700 METAR MRLM NIL=
200804130800 METAR MRLM NIL=
200804130900 METAR MRLM NIL=
200804131000 METAR MRLM NIL=
200804131100 METAR MRLM NIL=
200804131200 METAR MRLM 131200Z 21003KT 9999 FEW028 BKN260 22/20 A2985 FEW090 HZY=
200804131300 METAR MRLM 131300Z 22004KT 9999 FEW028 BKN260 26/21 A2988 RMK TRACE AC TCU DST N HZ ARND=
200804131400 METAR MRLM 131400Z 00000KT CAVOK 29/22 A2991 RMK FEW120 BKN250 TRACE CU HZ ARND=
200804131500 METAR MRLM 131500Z 01006KT 9999 FEW028 BKN260 29/22 A2992 RMK FEW120 TCU DST NNE HZ ARND=
200804131600 METAR MRLM 131600Z 02005KT 9999 FEW028 BKN260 29/22 A2991 RMK TCU DST NW N NE TRACE AC=
200804131700 METAR MRLM 131700Z 01008KT 9999 FEW028 BKN260 30/23 A2991 RMK FEW100 TCU DST NW N NE=
200804131800 METAR MRLM 131800Z 02008KT 9999 FEW026 BKN260 30/23 A2989 RMK FEW090 TCU DST NE E=
200804131900 METAR MRLM 131900Z 01007KT 9999 FEW025 BKN090 29/24 A2987 RMK FEW250 TCU DST N NE SW=
200804132000 METAR MRLM 132000Z NIL=
200804132100 METAR MRLM 132100Z 04009KT 9999 FEW025 BKN090 28/23 A2983 RMK TCU RN DST S SW FEW250 HZ ARND=
200804132200 METAR MRLM 132200Z 04007KT 9999 FEW025 BKN090 28/22 A2982 RMK CB DST E N SW TCU S SW RN NE=
200804132300 METAR MRLM 132300Z 32002KT 9999 SCT028 BKN080 27/21 A2984 RMK RN DST SE S SW=
200804140000 METAR MRLM 140000Z 00000KT 9999 BKN028 26/22 A2984 RMK FEW080 FEW250 TCU RN DST SE S SW W=
200804140100 METAR MRLM NIL=
200804140200 METAR MRLM NIL=
200804140300 METAR MRLM NIL=
200804140400 METAR MRLM NIL=
200804140500 METAR MRLM NIL=
200804140600 METAR MRLM NIL=
200804140700 METAR MRLM NIL=
200804140800 METAR MRLM NIL=
200804140900 METAR MRLM NIL=
200804141000 METAR MRLM NIL=
200804141100 METAR MRLM NIL=
200804141200 METAR MRLM NIL=
200804141300 METAR MRLM 141300Z 20005KT 9999 BKN015 24/22 A2993 RMK FEW110 RN DST NE E SE HZ ARND=
200804141400 METAR MRLM 141400Z 20005KT 9999 BKN015 25/23 A2993 RMK RN DST N E FEW080 HZ ARND=
200804141500 METAR MRLM 141500Z 02003KT 9999 -DZ OVC025 28/23 A2995 RMK TRACE AC RN S W N HZ ARND=
200804141600 METAR MRLM 141600Z 04003KT 9999 SCT035 SCT100 30/23 A2995 RMK RN S HZ ARND=
200804141700 METAR MRLM 141700Z 36006KT 9999 SCT035 BKN110 30/23 A2995 RMK RN DST S SW HZ ARND=
200804141800 METAR MRLM 141800Z 03004KT 9999 SCT038 BKN110 30/22 A2993 RMK HZ ARND=
200804141900 METAR MRLM 141900Z 01006KT 9999 SCT038 SCT110 30/22 A2990 RMK TRACE CI RN DST SW HZ ARND=
200804142000 METAR MRLM 142000Z NIL=
200804142100 METAR MRLM 142100Z 03006KT 9999 BKN040 29/22 A2986 RMK RN DST SW FEW130 HZ ARND=
200804142200 METAR MRLM NIL=
200804142300 METAR MRLM 142300Z 02006KT 9999 SCT035 SCT130 28721 A2987 RK TRACE CI HZ ARND=
200804150000 METAR MRLM 150000Z 03004KT 999 SCT035 SCT130 28/21 A2989 RMK FEW280 RMK HZ ARND=
200804150100 METAR MRLM NIL=
200804150200 METAR MRLM NIL=
200804150300 METAR MRLM NIL=
200804150400 METAR MRLM NIL=
200804150500 METAR MRLM NIL=
200804150600 METAR MRLM NIL=
200804150700 METAR MRLM NIL=
200804150800 METAR MRLM NIL=
200804150900 METAR MRLM NIL=
200804151000 METAR MRLM NIL=
200804151100 METAR MRLM NIL=
200804151200 METAR MRLM 151200Z NIL=
200804151300 METAR MRLM 151300Z 19008KT 9999 FEW015 OVC090 22/20 A2997 RMK RN NW E S SW=
200804151400 METAR MRLM 151400Z 20008KT 9999 SCT025 SCT090 25/20 A2999 RMK RN SE HZ ARND=
200804151500 METAR MRLM NIL=
200804151600 METAR MRLM 151600Z 06004KT 9999 FEW045 BKN140 30720 A2997 RMK RN N NE HZ ARND=
200804151700 METAR MRLM 151700Z 36010KT 9999 FEW045 BKN110 30/21 A2996 RMK RN NE HZ ARND=
200804151800 METAR MRLM 151800Z 06009KT 9999 FEW035 SCT080 28/21 A2994 RMK SCT110 DZ SW=
200804151900 METAR MRLM 151900Z 01004KT 9999 FEW040 SCT090 29/21 A2990 RMK SCT110 DZ SW HZ ARND=
200804152000 METAR MRLM 152000Z NIL=
200804152100 METAR MRLM 152100Z 03004KT CAVOK 30/19 A2985 TRAZAS CU BKN120 TCU NE HZY=
200804152200 METAR MRLM 152200Z 01004KT CAVOK 29/20 A2984 BKN130 TRZAS CU=
200804152300 METAR MRLM 152300Z 36007KT 9999 FEW040 BKN140 28/20 A2986=
200804160000 METAR MRLM 160000Z 36006KT 9999 FEW035 BKN130 28/21 A2988 FEW280 CB S HZY=
200804160100 METAR MRLM NIL=
200804160200 METAR MRLM NIL=
200804160300 METAR MRLM NIL=
200804160400 METAR MRLM NIL=
200804160500 METAR MRLM NIL=
200804160600 METAR MRLM NIL=
200804160700 METAR MRLM NIL=
200804160800 METAR MRLM NIL=
200804160900 METAR MRLM NIL=
200804161000 METAR MRLM NIL=
200804161100 METAR MRLM NIL=
200804161200 METAR MRLM 161200Z 22003KT 9999 FEW028 BKN090 22/20 A2988 RMK FEW230 HZ ARND=
200804161300 METAR MRLM 161300Z 21004KT CAVOK 25/20 A2991 FEW090 BKN260 TRAZAS CU HZY=
200804161400 METAR MRLM 161400Z 26004KT 9999 FEW028 BKN260 28/22 A2992 FEW100 HZY=
200804161500 METAR MRLM 161500Z 30003KT 9999 FEW028 SCT090 30/21 A2992 FEW250 HZY=
200804161600 METAR MRLM 161600Z 27005KT 9999 FEW028 BKN090 30/20 A2991 RN NE=
200804161700 METAR MRLM 161700Z 31010KT 9999 FEW025 BKN080 30/20 A2990 RN N N E E HZY=
200804161800 METAR MRLM 161800Z 33005KT 9999 -DZ FEW028 BKN090 29/21 A2989 RN NW N NE=
200804161900 METAR MRLM 161900Z 06008KT 9999 DZ SCT026 BKN080 26/23 A2985 RN NW N NE=
200804162000 METAR MRLM 162000Z NIL=
200804162100 METAR MRLM 162100Z 22003KT 3000 -RA BKN020 SCT080 24/22 A2983=
200804162200 METAR MRLM 162200Z 00000KT 3000 +DZ BKN015 SCT080 24/22 A2983 RN ARND=
200804162300 METAR MRLM NIL=
200804170000 METAR MRLM 170000Z 22003KT 9999 FEW015 SCT040 23/21 A2984 REDZ FEW080 RAN ARND=
200804170100 METAR MRLM NIL=
200804170200 METAR MRLM NIL=
200804170300 METAR MRLM NIL=
200804170500 METAR MRLM NIL=
200804170600 METAR MRLM NIL=
200804170700 METAR MRLM NIL=
200804170800 METAR MRLM NIL=
200804170900 METAR MRLM NIL=
200804171000 METAR MRLM NIL=
200804171100 METAR MRLM NIL=
200804171200 METAR MRLM 171200Z 22003KT 2000 DZ SCT012 BKN020 23/22 A2984 RETS RMK CB DST ARND RN ARND=
200804171300 METAR MRLM 171300Z 3000 +DZ BKN015 SCT024 23/22 A2987 RASH ARND=
200804171400 METAR MRLM 171400Z 19003KT 9999 DZ BKN026 SCT080 24/23 A2989 RERA RN=
200804171500 METAR MRLM 171500Z 20005KT 9999 SCT020 BKN026 25/23 A2990 REDZ RN DIST ARND=
200804171600 METAR MRLM 171600Z 22004KT 99999 FEW020 BKN028 26/24 A2989 FEW080 RN=
200804171700 METAR MRLM 171700Z 29003KT 9999 BKN028 28/24 A2988 FEW080 RN DIST ARND=
200804171800 METAR MRLM 171800Z 21003KT 9999 BKN026 SCT080 25/24 A2986 RN ARND=
200804171900 METAR MRLM 171900Z 18004KT 9999 BKN026 SCT080 27/24 A2982 RN ARND=
200804171957 METAR MRLM 182000Z 09005KT 4000 DZ BKN024 SCT080 26/23 A2981 RN ARND=
200804172000 METAR MRLM NIL=
200804172100 METAR MRLM 172100Z 23004KT 4000 +DZ BKN024 SCT080 25/23 A2980 RMK RN ARND=
200804172200 METAR MRLM 172200Z 22004KT 4000 DZ BKN024 SCT080 25/23 A2980 RMK RN ARND=
200804172300 METAR MRLM 172300Z 00000KT 3000 -RA BKN022 25/23 A2982 RMK FEW080=
200804180000 METAR MRLM 180000Z 19002KT 4000 DZ BKN022 SCT080 24/22 A2980 RMK RN ARND=
200804180100 METAR MRLM NIL=
200804180200 METAR MRLM NIL=
200804180300 METAR MRLM NIL=
200804180400 METAR MRLM NIL=
200804180500 METAR MRLM NIL=
200804180600 METAR MRLM NIL=
200804180700 METAR MRLM NIL=
200804180800 METAR MRLM NIL=
200804180900 METAR MRLM NIL=
200804181000 METAR MRLM NIL=
200804181100 METAR MRLM NIL=
200804181200 METAR MRLM 181200Z NIL=
200804181300 METAR MRLM 181300Z 23002KT 9999 -D BKN020 24/23 A2985 RMK FEW090 VIS 8000 NW N VCSH HZ ARND=
200804181400 METAR MRLM 181400Z 19003KT 6000 RA OVC018 25/23 A2987 RMK VIS 9999 QUAD S=
200804181500 METAR MRLM 181500Z 19006KT 9999 -DZ FEW009 BKN018 26/24 A2988 RMK VIS 8000 VCSH=
200804181600 METAR MRLM 181600Z 21007KT 6000 +DZ BKN015 26/24 A2987 RMK FEW090 9999 E=
200804181700 METAR MRLM 181700Z 22008KT 9999 SCT015 SCT100 27/24 A2986 RMK TRACE ST FEW120 RN DST SW W=
200804181800 METAR MRLM 181800Z 23007KT 9999 BKN028 SCT130 A2984 RMK RN DST SW W NE HZ ARND=
200804181900 METAR MRLM 181900Z 26004KT 9999 OVC030 29/24 A2982 RMK TRACE AC AS RN DST QUAD N W HZ ARND=
200804182000 METAR MRLM 182000Z NIL=
200804182100 METAR MRLM 182100Z 07004KT 9999 SCT025 SCT280 29/24 A2979 RMK RN S SW W TRACE AC HZ ARND=
200804182200 METAR MRLM 182200Z 33004KT 330V020 9999 BKN025 30/24 A2979 RMK HZ ARND FEW280 TRCE AC=
200804182300 METAR MRLM 182300Z 29004KT 9999 FEW025 BKN280 29/24 A2990 RMK HZ ARND TRACE AC=
200804190000 METAR MRLM 190000Z 28004KT CAVOK 27/24 A2981 RMK BKN280 TRACE CU AC HZ ARND=
200804190100 METAR MRLM NIL=
200804190200 METAR MRLM NIL=
200804190300 METAR MRLM NIL=
200804190400 METAR MRLM NIL=
200804190500 METAR MRLM NIL=
200804190600 METAR MRLM NIL=
200804190700 METAR MRLM NIL=
200804190800 METAR MRLM NIL=
200804190900 METAR MRLM NIL=
200804191000 METAR MRLM NIL=
200804191100 METAR MRLM NIL=
200804191200 METAR MRLM 191200Z NIL=
200804191300 METAR MRLM 191300Z 21008KT 8000 3000NW -RA FEW030 OVC100 24/23 A2987=
200804191400 METAR MRLM 191400Z 21006KT 8000 DZ FEW015 OVC100 24/23 A2990 RMK RN ARND=
200804191500 METAR MRLM 191500Z 19005KT 8000 RA FEW003 OVC012 25/24 A2991=
200804191600 METAR MRLM 191600Z 20006KT 8000 DZ FEW009 OVC015 26/25 A2990 RMK RN HZ ARND=
200804191700 METAR MRLM 191700Z 20007KT 9999 OVC015 28/24 A2989 RMK TRACE ST HZ ARND=
200804191800 METAR MRLM 191800Z 04009KT/090V310 9999 BKN015 27/24 A2987 RMK FEW080 RN HZ ARND=
200804191900 METAR MRLM 191900Z 04003KT 9999 BKN025 SCT090 29/24 A2984 RN DST W HZ ARND=
200804192000 METAR MRLM 192000Z NIL=
200804192100 METAR MRLM 192100Z 21005KT 9999 BKN020 SCT060 27/24 A2980 RMK RN S W HZ ARND=
200804192200 METAR MRLM 192200Z 23004KT 9999 DZ SCT020 SCT090 27/23 A2980 RMK RN DST S W HZ ARND=
200804192300 METAR MRLM 192300Z 22003KT 9999 SCT015 BKN090 27/24 A2981 RMK RN S HZ ARND=
200804200000 METAR MRLM 200000Z 21003KT 9999 SCT015 BKN080 26/24 A2983 RMK RN DST S W TRACE CI HZ ARND=
200804200100 METAR MRLM NIL=
200804200200 METAR MRLM NIL=
200804200300 METAR MRLM NIL=
200804200400 METAR MRLM NIL=
200804200500 METAR MRLM NIL=
200804200600 METAR MRLM NIL=
200804200700 METAR MRLM NIL=
200804200800 METAR MRLM NIL=
200804200900 METAR MRLM NIL=
200804201000 METAR MRLM NIL=
200804201100 METAR MRLM NIL=
200804201200 METAR MRLM NIL=
200804201300 METAR MRLM 201300Z 21003KT 3000 -RA OVC025 24/23 A2987=
200804201400 METAR MRLM 201400Z 24004KT 9999 BKN026 SCT080 25/23 A2988 RERA RMK RN ARND=
200804201500 METAR MRLM 201500Z 20003KT 9999 SCT025 SCT028 28/24 A2989 RMK FEW080 RN ARND=
200804201600 METAR MRLM 201600Z 00000KT 3000 RA BKN020 SCT025 27/24 A2989=
200804201700 METAR MRLM 201700Z 22003KT 9999 BKN028 26/24 A2989 RERA RMK FEW080 RN ARND=
200804201800 METAR MRLM 201800Z 21003KT 9999 BKN026 30724 A2986 RMK FEW080 RN ARND=
200804201900 METAR MRLM 201900Z 06003KT 9999 BKN026 SCT090 28724 A2986 RMK RN ARND=
200804202000 METAR MRLM 202000Z NIL=
200804202100 METAR MRLM 202100Z 00000KT 9999 BKN026 28/23 A2980 FEW080 HZ/RN ARND=
200804202200 METAR MRLM 202200Z 00000KT 9999 BKN026 29/24 A2980 FEW090 RN ARND=
200804202300 METAR MRLM 202300Z 20003KT 9999 BKN026 SCT080 27/24 A2981 RN ARND HZY=
200804210000 METAR MRLM NIL=
200804210100 METAR MRLM NIL=
200804210200 METAR MRLM NIL=
200804210300 METAR MRLM NIL=
200804210400 METAR MRLM NIL=
200804210500 METAR MRLM NIL=
200804210600 METAR MRLM NIL=
200804210700 METAR MRLM NIL=
200804210800 METAR MRLM NIL=
200804210900 METAR MRLM NIL=
200804211000 METAR MRLM NIL=
200804211100 METAR MRLM NIL=
200804211200 METAR MRLM NIL=
200804211300 METAR MRLM 211300Z 21003KT 9999 SCT012 BKN025 24/23 A2981 REDZ RN HZ ARND=
200804211400 METAR MRLM 211400Z 20003KT 9999 BKN024 SCT080 25/23 A2989 RN DIST ARND=
200804211500 METAR MRLM 211500Z 24003KT 9999 BKN024 26/24 A2989 FEW080 RN DIST ARN HZY=
200804211600 METAR MRLM 211600Z 20004KT 9999 -DZ BKN022 26/24 A2990 FEW080 RN DIST ARND=
200804211700 METAR MRLM 211700Z 22004KT 9999 -DZ BKN022 26/24 A2989 FEW080 RN AND HZ ARND=
200804211800 METAR MRLM 211800Z 21003KT 9999 BKN022 SCT080 27/24 A2989 REDZ RN AND HZ ARND=
200804211900 METAR MRLM 211900Z 00000KT 9999 BKN022 29/24 A2985 FEW080 RN DIST S SW W NW HZ ARND=
200804212000 METAR MRLM NIL=
200804212100 METAR MRLM 212100Z 00000KT 9999 SCT022 SCT080 28/24 A2982 RN S SW W NW=
200804212200 METAR MRLM 212200Z 33002KT 9999 -DZ FEW022 SCT080 26/24 A281 RERA RN ARND=
200804212300 METAR MRLM 212300Z 23003KT 9999 BKN022 25/23 A2982 REDZ FEW080 RN ARND=
200804220000 METAR MRLM 220000Z 21003KT 9999 BKN022 25/23 A2983 RN DST ARND FEW080=
200804220100 METAR MRLM NIL=
200804220200 METAR MRLM NIL=
200804220300 METAR MRLM NIL=
200804220400 METAR MRLM NIL=
200804220500 METAR MRLM NIL=
200804220600 METAR MRLM NIL=
200804220700 METAR MRLM NIL=
200804220800 METAR MRLM NIL=
200804220900 METAR MRLM NIL=
200804221000 METAR MRLM NIL=
200804221100 METAR MRLM NIL=
200804221200 METAR MRLM 221200Z NIL=
200804221300 METAR MRLM 221300Z 23003KT 9999 FEW025 SCT080 24/23 A2986 FEW100 TRACE CI RN DIST N HZY=
200804221400 METAR MRLM 221400Z 22003KT 9999 FEW020 SCT080 28/24 A29888 FEW100 FEW280 RN DIST QUAD N HZ LGT ARND=
200804221500 METAR MRLM 221500Z 36009KT 9999 SCT020 SCT110 28/24 A2987 RN DIST NW N NE E CB E TRACE CI HZY=
200804221600 METAR MRLM 221600Z 02005KT 9999 BKN025 SCT110 29/24 A2988 RN DIST N E S HZ ARND TRACE CI=
200804221700 METAR MRLM NIL=
200804221800 METAR MRLM 221800Z 06010KT 9999 FEW025 SCT090 BKN110 28/24 A2986 RN=
200804221900 METAR MRLM 221900Z 06008KT 9999 FEW030 SCT090 30/24 A2984 RN DIST SW W SCT030 HZY=
200804222000 METAR MRLM NIL=
200804222100 METAR MRLM 222100Z 05012KT 9999 BKN030 30/23 A2984 TRACE AC CI RN DST QUAD S W HZ ARND=
200804222200 METAR MRLM 222200Z 05009KT 9999 BKN025 29/24 A2980 RMK FEW090 RN DST QUAD W S HZ ARND=
200804222300 METAR MRLM 222300Z 03010KT 9999 BKN025 28/23 A2980 RMK RN DST QUAD S W FEW080=
200804230000 METAR MRLM 230000Z 03009KT 9999 BKN025 SCT090 28/23 A2982 RMK RN DST QUAD S N=
200804230100 METAR MRLM NIL=
200804230200 METAR MRLM NIL=
200804230300 METAR MRLM NIL=
200804230400 METAR MRLM NIL=
200804230500 METAR MRLM NIL=
200804230600 METAR MRLM NIL=
200804230700 METAR MRLM NIL=
200804231100 METAR MRLM NIL=
200804231200 METAR MRLM NIL=
200804231300 METAR MRLM NIL=
200804231400 METAR MRLM NIL=
200804231500 METAR MRLM NIL=
200804231600 METAR MRLM NIL=
200804231700 METAR MRLM 231700Z 07015KT 9999 DZ BKN022 27/22 A2991 RMK VIS 8000 NE FEW080=
200804231800 METAR MRLM 231800Z 07007KT 9999 SCT025 SCT120 28/22 A2889 RMK TRACE CI HZ ARND=
200804231900 METAR MRLM 231900Z NIL=
200804232000 METAR MRLM 232000Z NIL=
200804232100 METAR MRLM 232100Z 04012KT 9999 BKN035 SCT080 29/22 A2983 RMK RN DST S SW W HZ ARND=
200804232200 METAR MRLM 232200Z 04010KT 9999 BKN032 23/23 A2982 RMK FEW080 RN DST S W=
200804232300 METAR MRLM 232300Z 06010KT 9999 BKN030 28/22 A2983 RMK FEW080 TRACE CI RN DST S SW W NW HZ ARND=
200804240000 METAR MRLM 240000Z 04008KT 9999 BKN030 SCT080 28/23 A2985 RMK RN DST S SW=
200804240100 METAR MRLM NIL=
200804240200 METAR MRLM NIL=
200804240300 METAR MRLM NIL=
200804240400 METAR MRLM NIL=
200804240500 METAR MRLM NIL=
200804240600 METAR MRLM NIL=
200804240700 METAR MRLM NIL=
200804240800 METAR MRLM NIL=
200804240900 METAR MRLM NIL=
200804241000 METAR MRLM NIL=
200804241100 METAR MRLM NIL=
200804241200 METAR MRLM 241200Z NIL=
200804241300 METAR MRLM 241300Z 00000KT 9999 FEW025 SCT090 25/22 A2992 RMK TCU RN DST ENE FEW240 HZY=
200804241400 METAR MRLM 241400Z 03004KT 9999 FEW025 27/22 A2993 RMK TCU RN DST ENE FEW090 FEW240 HZY=
200804241500 METAR MRLM 241500Z 07003KT 9999 FEW025 28/23 A2993 RMK TCU RN DST ENE FEW090 TRACE CI HZY=
200804241600 METAR MRLM 241600Z 07006KT 9999 FEW025 SCT090 29/22 A2994 TCU RN DST NE N NW HZY=
200804241700 METAR MRLM 241700Z 04009KT 9999 FEW025 SCT090 29/23 A2993 RMK TCU RN DST NW NNE HZY=
200804241800 METAR MRLM 241800Z 06007KT 9999 FEW025 SCT090 30/23 A2990 RMK TCU RN DST NW N HZY=
200804241900 METAR MRLM 241900Z 03008KT 9999 FEW025 30/22 A2988 RMK FEW090 TCU RN S SW W NW=
200804242000 METAR MRLM 242000Z NIL=
200804242100 METAR MRLM NIL=
200804242200 METAR MRLM NIL=
200804242300 METAR MRLM NIL=
200804250000 METAR MRLM NIL=
200804250100 METAR MRLM NIL=
200804250200 METAR MRLM NIL=
200804250300 METAR MRLM NIL=
200804250400 METAR MRLM NIL=
200804250500 METAR MRLM NIL=
200804250600 METAR MRLM NIL=
200804250700 METAR MRLM NIL=
200804250800 METAR MRLM NIL=
200804250900 METAR MRLM NIL=
200804251000 METAR MRLM NIL=
200804251100 METAR MRLM NIL=
200804251200 METAR MRLM 251200Z 00000KT 9999 FEW025 22/20 A2988 RMK FEW090 TRACE CI=
200804251300 METAR MRLM 251300Z 19002KT 9999 FEW025 25/22 A2990 RMK FEW090 TRACE CI=
200804251400 METAR MRLM 251400Z 00000KT 9999 FEW025 28/22 A2991 RMK FEW240=
200804251500 METAR MRLM 251500Z 08004KT 9999 FEW025 28/22 A2991 RMK TRACE CI=
200804251600 METAR MRLM 251600Z 08006KT 9999 FEW025 29/22 A2990 RMK FEW240=
200804251700 METAR MRLM 251700Z 06006KT 9999 FEW025 29/22 A2989 RMK FEW290=
200804251800 METAR MRLM 251800Z 06008KT 9999 FEW025 30/22 A2987 RMK TRACE CI=
200804251900 METAR MRLM 251900Z 05008KT 9999 FEW025 30722 A2984 RMK FEW230=
200804252000 METAR MRLM NIL=
200804252100 METAR MRLM 252100Z 05006KT 9999 FEW025 SCT100 29/22 A2981 FEW230 RN SW W=
200804252200 METAR MRLM 252200Z 05006KT 9999 FEW025 SCT100 28/21 A2980=
200804252300 METAR MRLM 252300Z 08003KT 9999 SCT026 29/21 A2981 RN S SE FEW090=
200804260000 METAR MRLM 260000Z 04004KT 9999 BKN026 28/21 A2982 FEW230=
200804260100 METAR MRLM NIL=
200804260200 METAR MRLM NIL=
200804260300 METAR MRLM NIL=
200804260400 METAR MRLM NIL=
200804260500 METAR MRLM NIL=
200804260600 METAR MRLM NIL=
200804260700 METAR MRLM NIL=
200804260800 METAR MRLM NIL=
200804260900 METAR MRLM NIL=
200804261000 METAR MRLM NIL=
200804261100 METAR MRLM NIL=
200804261200 METAR MRLM 261200Z NIL=
200804261300 METAR MRLM 261300Z 19004KT 9999 FEW015 BKN090 24/21 A2989 RN N NE E HZY=
200804261400 METAR MRLM 261400Z 22002KT 999 VCSH SCT020 SCT090 26/21 A2991 VSBY N 7KM=
200804261500 METAR MRLM 261500Z 05014KT 9999 DZ OVC015 26/22 A2992 VSBY N NE 5KM=
200804261600 METAR MRLM NIL=
200804261700 METAR MRLM 261700Z 09006KT 9999 FEW020 BKN090 27/23 A2991 RERA=
200804261800 METAR MRLM 261800Z 08006KT 9999 FEW030 BKN120 28/22 A2988 HZY=
200804261900 METAR MRLM 261900Z 05007KT 9999 FEW030 SCT130 29/22 A2985 FEW300=
200804262000 METAR MRLM NIL=
200804262100 METAR MRLM 262100Z 05008KT 9999 SCT035 BKN080 28/21 A2981 RN DIST SW HZ ARND TRACE CI=
200804262200 METAR MRLM 262200Z 06010KT 9999 BKN030 28/22 A2981 FEW080 RN SW W DIST=
200804262300 METAR MRLM 262300Z 08007KT 9999 BKN030 28/22 A2982 FEW080 RN DIST SW W NW=
200804262353 METAR MRLM 270000Z 07004KT 9999 FEW028 BKN090 27/22 A2983 RN DIST QUQD W TRACECI HZ ARND=
200804270000 METAR MRLM 270000Z 07004KT 9999 FEW028 BKN090 27/22 A2983 RN DIST QUQD W TRACECI HZ ARND=
200804270100 METAR MRLM NIL=
200804270200 METAR MRLM NIL=
200804270300 METAR MRLM NIL=
200804270400 METAR MRLM NIL=
200804270500 METAR MRLM NIL=
200804270600 METAR MRLM NIL=
200804270700 METAR MRLM NIL=
200804270800 METAR MRLM NIL=
200804270900 METAR MRLM NIL=
200804271000 METAR MRLM NIL=
200804271100 METAR MRLM NIL=
200804271200 METAR MRLM 271200Z NIL=
200804271300 METAR MRLM 271300Z 36013KT 8000 VCSH SCT006 SCT012 24/22 A2991 FEW090 RASH SE S=
200804271400 METAR MRLM 271400Z 01013KT 9999 -DZ FEW010 BKN025 24/22 A2993 VIS SE S 6KM DUE RN FEW090=
200804271500 METAR MRLM 271500Z 08007KT 9999 DZ BKN025 24/21 A2993 FEW110 RN DIST E SE S SW HZY=
200804271600 METAR MRLM 271600Z 15009KT 9999 FEW010 SCT080 BKN100 24/22 A2992 RN=
200804271700 METAR MRLM 271700Z 16010KT 9999 FEW020 BKN090 25/22 A2992 DZ SE S HZ ARND=
200804271800 METAR MRLM 271800Z 19008KT CAVOK 26/22 A2999 TRACE SCT CU SCT090 BKN110 DZ SE HZ ARND=
200804271900 METAR MRLM 271900Z 21009KT CAVOK 28/22 A2986 BKN090 FEW110 DZ S HZ ARND=
200804272000 METAR MRLM 272000Z NIL=
200804272100 METAR MRLM 272100Z 18004KT CAVOK 29/20 A2982 A2982 RMK BKN090 SCT110 HZ LEVE ARND=
200804272200 METAR MRLM 272200Z 18002KT CAVOK 28/22 A2981 RMK TRACE SC CI OVC090=
200804272300 METAR MRLM 272300Z 17002KT CAVOK 27/22 A2982 RMK TRACE SC FEW120 FEW270=
200804280000 METAR MRLM 280000Z 19003KT CAVOK 25/23 A2983 RMK SCT110 SCT280 HZ ARND=
200804280100 METAR MRLM NIL=
200804280200 METAR MRLM NIL=
200804280300 METAR MRLM NIL=
200804280400 METAR MRLM NIL=
200804280500 METAR MRLM NIL=
200804280600 METAR MRLM NIL=
200804280700 METAR MRLM NIL=
200804280800 METAR MRLM NIL=
200804280900 METAR MRLM NIL=
200804281000 METAR MRLM NIL=
200804281100 METAR MRLM NIL=
200804281200 METAR MRLM 281200Z 22005KT CAVOK 22/20 A2988 FEW090 BKN220 HZY=
200804281300 METAR MRLM 281300Z 22004KT CAVOK 23/20 A2991 RMK OVC220 TRACE CU AC HZ ARND=
200804281400 METAR MRLM 281400Z 23003KT CAVOK 27/21 A2991 RMK OVC240 TRACE CU AC HZ ARND=
200804281500 METAR MRLM 281500Z 33002KT CAVOK 30/22 A2992 RMK OVC240 TRACE CU AC HZ ARND=
200804281600 METAR MRLM 281600Z 01003KT CAVOK 29/21 A2992 RMK OVC240 TRACE AC HZ ARND=
200804281700 METAR MRLM 281700Z 02004KT CAVOK 29/21 A2992 RMK OVC240 TRACE AC HZ ARND=
200804281800 METAR MRLM 281800Z 36005KT CAVOK 29/22 A2989 RMK OVC240 TRACE AC HZ ARND=
200804281900 METAR MRLM 281900Z 01005KT 9999 FEW026 BKN240 29/22 A2986 RMK HZ ARND=
200804282000 METAR MRLM 282000Z NIL=
200804282100 METAR MRLM 282100Z 35007KT 9999 FEW026 BKN230 29/23 A2981 RMK TRACE AC=
200804282200 METAR MRLM 282200Z 35006KT 9999 FEW026 BKN230 29/23 A2982 RMK TRACE AC=
200804282300 METAR MRLM 282300Z 34005KT 9999 FEW025 SCT230 29/23 A2983 RM CB DST S=
200804290000 METAR MRLM 290000Z 00000KT 9999 FEW026 SCT240 27/23 A2985 TRACE AC=
200804290100 METAR MRLM NIL=
200804290200 METAR MRLM NIL=
200804290300 METAR MRLM NIL=
200804290400 METAR MRLM NIL=
200804290500 METAR MRLM NIL=
200804290600 METAR MRLM NIL=
200804290700 METAR MRLM NIL=
200804290800 METAR MRLM NIL=
200804290900 METAR MRLM NIL=
200804291000 METAR MRLM NIL=
200804291100 METAR MRLM NIL=
200804291200 METAR MRLM 291200Z 21005KT 9999 FEW025 SCT090 21/19 A2990 SCT230 RN=
200804291300 METAR MRLM 291300Z 22004KT 9999 FEW025 SCT100 23/20 A2993 RMK FEW230 RN DST NW N NE HZY=
200804291400 METAR MRLM 291400Z 20003KT 9999 FEW030 BKN080 26/21 A2995 RMK RN DST ENE=
200804291500 METAR MRLM 291500Z 26004KT 9999 FEW025 BKN045 27/22 A2995 TCU RN DST NW N FEW080=
200804291600 METAR MRLM 291600Z 27006KT 999 SCT028 BKN080 28/22 A2994 RMK RN DST NW N NE ESE=
200804291700 METAR MRLM 291700Z 28004KT 9999 FEW028 BKN080 28/23 A2993 RMK FEW040 RN DST WNW NW N NE=
200804291800 METAR MRLM 291800Z 34008KT 9999 -DZ FEW020 BKN030 26/22 A2992 FEW080 TCU DST S RN DST ARND=
200804291900 METAR MRLM 291900Z 26004KT 9999 SCT028 BKN080 25/23 A2989 REDZ RMK RN DST S SW=
200804292000 METAR MRLM 292000Z NIL=
200804292100 METAR MRLM 292100Z 26004KT 9999 FEW035 BKN090 29/23 A2983=
200804292200 METAR MRLM 292200Z 25002KT 9999 FEW045 BKN080 28/23 A2984 RMK TRAZAS CI=
200804292300 METAR MRLM 292300Z 25003KT 9999 FEW045 BKN080 28/23 A2985 RMK FEW230=
200804300000 METAR MRLM 300000Z 00000KT 9999 FEW040 BKN080 26/23 A2987 RMK HZ ARND=
200804300100 METAR MRLM NIL=
200804300200 METAR MRLM NIL=
200804300300 METAR MRLM 300300Z 05005KT 9999 FEW040 BKN140 30/22 A2984 RN SW HZY=
200804300400 METAR MRLM NIL=
200804300500 METAR MRLM NIL=
200804300600 METAR MRLM NIL=
200804300700 METAR MRLM NIL=
200804300800 METAR MRLM NIL=
200804300900 METAR MRLM NIL=
200804301000 METAR MRLM NIL=
200804301100 METAR MRLM NIL=
200804301200 METAR MRLM 301200Z NIL=
200804301300 METAR MRLM 301300Z 25006KT 9999 FEW015 BKN090 25/22 A2992 RMK RN DST QUANDS N/E HZ ARND=
200804301400 METAR MRLM 301400Z 28007KT 9999 FEW020 BKN090 26/22 A2994 RMK TRAZAS CI HZ LGT ARND RN QUANDS W/N/E=
200804301500 METAR MRLM 301500Z 26005KT 9999 FEW020 BKN090 27/23 A2994 RMK RN DST HZ ARND=
200804301600 METAR MRLM 301600Z 23006KT CAVOK 29/22 A2994 RMK FEW080 BKN100 TRAZAS CU DZ W HZ LGT ARND=
200804301700 METAR MRLM 301700Z 06005KT 060V170 9999 FEW038 BKN140 29/22 A2992 RMK TRAZAS CI HZ ARN=
200804301800 METAR MRLM 301800Z 04007KT 9999 FEW035 BKN140 29/23 A2990 RMK TRAZAS CI HZ ARND=
200804301900 METAR MRLM 301900Z 05008KT 9999 FEW030 BKN110 29/23 A2987 RMK CB/RN DST S TRAZAS CI HZ ARND=
200804302000 METAR MRLM 302000Z NIL=
200804302100 METAR MRLM 302100Z 05005KT 9999 FEW040 BKN140 30/22 A2984 RN SW HZY=
200804302200 METAR MRLM 302200Z 08006KT 9999 FEW028 BKN090 29/23 A2985 RN SW HZY=
200804302300 METAR MRLM 302300Z 04007KT 999 FEW025 BKN090 28/23 A2986 SCT270 RN SW W HZY=
200805010000 METAR MRLM 010000Z 04005KT 9999 FEW020 SCT110 28/24 A2987 RN DST SW S W HZY=
200805010100 METAR MRLM NIL=
200805010200 METAR MRLM NIL=
200805010300 METAR MRLM NIL=
200805010400 METAR MRLM NIL=
200805010500 METAR MRLM NIL=
200805010600 METAR MRLM NIL=
200805010700 METAR MRLM NIL=
200805010800 METAR MRLM NIL=
200805010900 METAR MRLM NIL=
200805011000 METAR MRLM NIL=
200805011100 METAR MRLM NIL=
200805011200 METAR MRLM NIL=
200805011300 METAR MRLM 011300Z 20006KT CAVOK 26/22 A2991 RMK TRACE CU FEW140 FEW280 HZ ARND=
200805011400 METAR MRLM 011400Z 20004KT 9999 FEW035 30/22 A2992 RMK TRACE AC FEW300 HZ ARND=
200805011500 METAR MRLM 011500Z 04005KT 9999 FEW035 29/22 A2992 RMK TRACE AC FEW300 HZ ARND=
200805011600 METAR MRLM 011600Z 03006KT 9999 FEW035 29/22 A2990 RMK FEW140 FEW300 HZ ARND=
200805011700 METAR MRLM NIL=
200805011800 METAR MRLM NIL=
200805011900 METAR MRLM 011900Z 01011KT 9999 FEW035 SCT280 30/23 A2983 RMK TRACE AC CB DST S LEVE HZ ARND=
200805012000 METAR MRLM 012000Z 01011KT 9999 FEW035 SCT280 30/23 A2983 RMK TRACE AC CB DST S LEVE HZ ARND=
200805012100 METAR MRLM 012100Z 02011KT 9999 FEW035 BKN270 29/22 A2981 HZ ARND=
200805012200 METAR MRLM 012200Z 01007KT 9999 BKN035 SCT270 29/22 A2981 TRACE AC HZ ARND=
200805012300 METAR MRLM 012300Z 02005KT 9999 BKN030 SCT270 28/22 A2983 RN DIST SW=
200805012354 METAR MRLM 02000Z 02003KT/020V120 9999 BKN025 SCT270 28/23 A2984 TRACE AC AHZ ARND=
200805020000 METAR MRLM 02000Z 02003KT/020V120 9999 BKN025 SCT270 28/23 A2984 TRACE AC AHZ ARND=
200805020100 METAR MRLM NIL=
200805020200 METAR MRLM NIL=
200805020300 METAR MRLM NIL=
200805020400 METAR MRLM NIL=
200805020500 METAR MRLM NIL=
200805020600 METAR MRLM NIL=
200805020700 METAR MRLM NIL=
200805020800 METAR MRLM NIL=
200805020900 METAR MRLM NIL=
200805021000 METAR MRLM NIL=
200805021100 METAR MRLM NIL=
200805021200 METAR MRLM 021200Z 21004KT 9999 FEW026 BKN260 23/21 A2986 RMK HZ ARND=
200805021300 METAR MRLM 021300Z 20004KT 9999 FEW026 25/22 A2987 FEW260 HZ ARND=
200805021400 METAR MRLM 021400Z 000000KT 9999 FEW028 29/23 A2989 FEW260 HZ ARND=
200805021500 METAR MRLM 021500Z 05005KT 9999 FEW026 29/22 A2990 FEW260 TCU NW N HZ ARND=
200805021600 METAR MRLM 021600Z 04004KT 9999 FEW026 29/22 A2989 FEW260 TRACE AC HZ ARND=
200805021700 METAR MRLM 021700Z 02005KT 9999 FEW026 SCT260 30/23 A2988 HZ ARND=
200805021800 METAR MRLM 021800Z 01006KT 9999 FEW026 BKN300 30/24 A2986 HZ ARND=
200805021900 METAR MRLM 021900Z 01007KT 9999 FEW026 BKN300 30/23 A2983 HZ ARND=
200805022000 METAR MRLM 022000Z NIL=
200805022100 METAR MRLM 022100Z 04008KT 9999 FEW025 BKN280 29/23 A2979 RMK TRACE AC RN DST SW HZ ARND=
200805022200 METAR MRLM 022200Z NIL=
200805022300 METAR MRLM 022300Z 06005KT 9999 SCT026 BKN250 29/23 A2980 RMK TRACE AC HZ ARND=
200805030000 METAR MRLM 030000Z 05005KT 9999 SCT026 SCT250 28/23 A2982 RMK RN DST SSW SW TRACE AC HZ ARND=
200805030100 METAR MRLM NIL=
200805030200 METAR MRLM NIL=
200805030300 METAR MRLM NIL=
200805030400 METAR MRLM NIL=
200805030500 METAR MRLM NIL=
200805030600 METAR MRLM NIL=
200805030700 METAR MRLM NIL=
200805030800 METAR MRLM NIL=
200805030900 METAR MRLM NIL=
200805031000 METAR MRLM NIL=
200805031100 METAR MRLM NIL=
200805031200 METAR MRLM 031200Z 00000KT 9999 -DZ FEW012 BKN022 25/23 A2986 TCU NW N NE FEW080 RN ARND=
200805031300 METAR MRLM 031300Z 00000KT 9999 2000W -RA FEW012 BKN024 25/23 A2988 RMK FEW080=
200805031400 METAR MRLM 031400Z 24002KT 7000 -RA BKN015 SCT080 25/24 A2990=
200805031500 METAR MRLM 031500Z 22004KT 9999 FEW015 BKN030 25/24 A2991 RERA RMK FEW080 TCU DST E NE RN DST ARND=
200805031600 METAR MRLM 031600Z 17005KT 8000 +DZ BKN026 SCT080 25/24 A2991 RMK RN ARND=
200805031700 METAR MRLM 031700Z 25003KT 999 FEW025 BKN090 27/24 A2990 REDZ RMK FEW026 RN DST SE S SW W HZ LEVE ARND=
200805031800 METAR MRLM 031800Z 23005KT 9999 FEW025 BKN080 27/24 A2988 RMK RN DST SE S SW W=
200805031900 METAR MRLM 031900Z 21004KT 9999 FEW026 BKN090 28/23 A2985 RMK RN DST SE S SW W TRACE CI LEVE HZ ARND=
200805032000 METAR MRLM 032000Z NIL=
200805032100 METAR MRLM 032100Z 04004KT 9999 FEW025TCU BKN090 29/23 A2979 RN SSW/W TRASAS CI HZ ARND=
200805032200 METAR MRLM 032200Z 01003KT 9999 FEW025 BKN090 28/23 A2980 RMK RN DST S SW W TRACE CI HZY=
200805032300 METAR MRLM 032300Z 00000KT 9999 FEW025 BKN090 28/23 A2981 FEW230 HZY=
200805040000 METAR MRLM 040000Z 00000KT 9999 FEW030 BKN090 27/24 A2983 RMK CB DST SW W FEW230 HZ ARND=
200805040100 METAR MRLM NIL=
200805040200 METAR MRLM NIL=
200805040300 METAR MRLM NIL=
200805040400 METAR MRLM NIL=
200805040500 METAR MRLM NIL=
200805040600 METAR MRLM NIL=
200805040700 METAR MRLM NIL=
200805040800 METAR MRLM NIL=
200805040900 METAR MRLM NIL=
200805041000 METAR MRLM NIL=
200805041100 METAR MRLM NIL=
200805041200 METAR MRLM 041200Z NIL=
200805041300 METAR MRLM 041300Z 22004KT 9999 FEW014 BKN280 25/23 A2989 HZ ARND=
200805041400 METAR MRLM 041400Z 04003KT 9999 FEW025 BKN280 28/23 A2991 RMK TRACE AC HZ ARND=
200805041500 METAR MRLM 041500Z 04004KT FEW030 BKN280 29/26 A2992=
200805041600 METAR MRLM 041600Z 05005KT 9999 FEW032 BKN270 29/22 A2991 RMK HZ ARND=
200805041700 METAR MRLM 041700Z 05006KT 9999 FEW035 BKN280 29/22 A2990 RMK HZ ARND=
200805041800 METAR MRLM 041800Z 03007KT 9999 FEW038 BKN280 30/22 A2987 HZ ARND=
200805041900 METAR MRLM 041900Z 03008KT 9999 FEW035 BKN280 30/23 A2987=
200805042000 METAR MRLM 042000Z NIL=
200805042100 METAR MRLM 042100Z 03009KT 9999 SCT035 SCT280 30/23 A2983 RMK HZ ARND=
200805042200 METAR MRLM 042200Z 02008KT 9999 SCT030 BKN280 29/23 A2993 RMK HZ LGT ARND=
200805042300 METAR MRLM 042300Z 03007KT 9999 SCT032 BKN280 28/22 A2984 RMK HZ ARND=
200805050000 METAR MRLM 050000Z 03005KT 99999 FEW030 BKN280 28/22 A2985 RMK HZ ARND=
200805050100 METAR MRLM NIL=
200805050200 METAR MRLM NIL=
200805050300 METAR MRLM NIL=
200805050400 METAR MRLM NIL=
200805050500 METAR MRLM NIL=
200805050600 METAR MRLM NIL=
200805050700 METAR MRLM NIL=
200805050800 METAR MRLM NIL=
200805050900 METAR MRLM NIL=
200805051000 METAR MRLM NIL=
200805051100 METAR MRLM NIL=
200805051200 METAR MRLM NIL=
200805051300 METAR MRLM 051300Z 22004KT CAVOK 25/22 A2990 RMK TRAZAS CU FEW120 BKN280 HZ ARND=
200805051400 METAR MRLM 051400Z 21003KT CAVOK 28/22 A2993 RMK TRAZAS CU/AC OVC280 HZ ARND=
200805051500 METAR MRLM 051500Z 03003KT 9999 FEW035 BKN280 29/22 A2993 RMK TRAZAS AC HZ ARND=
200805051600 METAR MRLM 051600Z 04005KT 9999 FEW035 OVC280 29/22 A2993 RMK HZ LGT ARND=
200805051700 METAR MRLM 051700Z 03008KT 9999 FEW035 BKN280 29/23 A2991 RMK HZ LGT ARND=
200805051800 METAR MRLM 051800Z 04008K 9999 FEW032 BKN280 30/23 A2989 RMK HZ LGT ARND=
200805051900 METAR MRLM 051900Z 02010KT 9999 FEW032 BKN028 30/24 A2988 RMK TRAZAS AC CB DST S HZ LGT ARND=
200805052000 METAR MRLM 052000Z NIL=
200805052100 METAR MRLM 052100Z 02009KT 9999 SCT038 SCT280 30/22 A2985 HZY=
200805052200 METAR MRLM 052200Z 03009KT 9999 FEW035 SCT280 30/23 A2984 HZY=
200805052300 METAR MRLM 052300Z 01007KT 9999 BKN030 SCT280 29/23 A2985 HZY=
200805060000 METAR MRLM 060000Z 03006KT 9999 BKN025 SCT280 28/23 A2987 CB DST SW HZY=
200805060100 METAR MRLM NIL=
200805060200 METAR MRLM NIL=
200805060300 METAR MRLM NIL=
200805060400 METAR MRLM NIL=
200805060500 METAR MRLM NIL=
200805060600 METAR MRLM NIL=
200805060700 METAR MRLM NIL=
200805060800 METAR MRLM NIL=
200805060900 METAR MRLM NIL=
200805061000 METAR MRLM NIL=
200805061100 METAR MRLM NIL=
200805061200 METAR MRLM 061200Z 21004KT CAVOK 22/20 A2987 RMK BKN250 TRACE CU=
200805061300 METAR MRLM 061300Z 20003KT CAVOK 23/21 A2989 BKN250 TRAZAS SCT=
200805061400 METAR MRLM 061400Z 20002KT CAVOK 27/22 A2991 BKN250 TRAZAS CU=
200805061500 METAR MRLM 061500Z 08002KT CAVOK 29/21 A2991 BKN250 TRAZAS AC=
200805061600 METAR MRLM 061600Z 04004KT CAVOK 29/22 A2990 BKN250 TRAZAS CU=
200805061700 METAR MRLM 061700Z 04004KT 9999 FEW030 BKN250 29/22 A2990=
200805061800 METAR MRLM 061800Z 03006KT 9999 FEW030 BKN250 30/22 A2986=
200805061900 METAR MRLM 061900Z 04006KT 9999 FEW030 SCT250 30/23 A2983=
200805062000 METAR MRLM 062000Z NIL=
200805062100 METAR MRLM 062100Z 05008KT 9999 FEW028 SCT250 30/24 A2980 TRACE AC=
200805062200 METAR MRLM 062200Z 03003KT 9999 FEW025 SCT250 30/23 A2980 TRACE AC=
200805062300 METAR MRLM 062300Z 04008KT 9999 FEW025 SCT250 30/22 A2980=
200805062355 METAR MRLM 070000Z 04003KT 9999 SCT025 BKN250 29/22 A2982=
200805070000 METAR MRLM 070000Z 04003KT 9999 SCT025 BKN250 29/22 A2982=
200805070100 METAR MRLM NIL=
200805070200 METAR MRLM NIL=
200805070300 METAR MRLM NIL=
200805070400 METAR MRLM NIL=
200805070500 METAR MRLM NIL=
200805070600 METAR MRLM NIL=
200805070700 METAR MRLM NIL=
200805070800 METAR MRLM NIL=
200805070900 METAR MRLM NIL=
200805071000 METAR MRLM NIL=
200805071100 METAR MRLM NIL=
200805071200 METAR MRLM 071200Z 20003KT 9999 FEW026 BKN080 23/21 A2983 RMK TRAZAS CI RN DST ENE/E=
200805071300 METAR MRLM 071300Z 20008KT 9999 FEW025 BKN080 24/22 A2984 RMK RN DIST NE E=
200805071400 METAR MRLM 071400Z 19008KT 9999 FEW025 BKN080 25/22 A2986 RMK NW N NE=
200805071500 METAR MRLM 071500Z 03005KT 9999 SCT026 27/22 A2988 RMK RN DIST NW N NE=
200805071600 METAR MRLM 071600Z 18003KT 9999 FEW026 BKN090 28/23 A2988 RMK TRACE CI RN DIST W=
200805071700 METAR MRLM 071700Z 07002KT 9999 FEW026 BKN260 30/22 A2985 RMK FEW090=
200805071800 METAR MRLM 071800Z 07003KT 9999 FEW026 BKN300 30/21 A2982=
200805071900 METAR MRLM 071900Z 04005KT 9999 FEW025 SCT300 30/22 A2971 RMK TRACE AC=
200805072000 METAR MRLM 072000Z NIL=
200805072100 METAR MRLM 072100Z 02008KT 9999 FEW025 30/22 A2976 RMK FEW090 FEW300=
200805072200 METAR MRLM 072200Z 35005KT 9999 SCT025 30/23 A2976 RMK FEW100 TRACE CI=
200805072300 METAR MRLM 072300Z 01004KT 9999 SCT025 29/24 A2978 RMK TRACE AC CI=
200805080000 METAR MRLM 080000Z 00000KT 9999 FEW025 SCT300 28/23 A2979 RMK FEW090 HZ ARND=
200805080100 METAR MRLM NIL=
200805080200 METAR MRLM NIL=
200805080300 METAR MRLM NIL=
200805080400 METAR MRLM NIL=
200805080500 METAR MRLM NIL=
200805080600 METAR MRLM NIL=
200805080700 METAR MRLM NIL=
200805080800 METAR MRLM NIL=
200805080900 METAR MRLM NIL=
200805081000 METAR MRLM NIL=
200805081100 METAR MRLM NIL=
200805081200 METAR MRLM NIL=
200805081300 METAR MRLM 081300Z 25006KT 9999 SCT030 BKN090 24/22 A2982 RMK RN DST QUADS N E DZ DST W=
200805081400 METAR MRLM 081400Z 26007KT 9999 DZ SCT025 SCT090 25/22 A2983 RMK RN DST QUADS N E=
200805081500 METAR MRLM 081500Z 34002KT 8000 +DZ BKN025 SCT090 26/22 A2985 RMK VIS 9999 SW W=
200805081600 METAR MRLM 081600Z 23006KT 9999 BKN025 25/23 A2986 RMK FEW110 RN HZ ARND=
200805081700 METAR MRLM 081700Z 21009KT 9999 VCSH OVC020 26/23 A2984 RMK VIS 8000 NW N=
200805081800 METAR MRLM 081800Z 21003KT 9999 FEW012 OVC020 26/24 A2983 RETS RMK RN HZ ARND TRACE AS=
200805081900 METAR MRLM 081900Z 23005KT 9999 -DZ FEW014 SCT025 26/24 A2983 RMK SCT110 FEW270=
200805082000 METAR MRLM 082000Z NIL=
200805082100 METAR MRLM 082100Z 19003KT 9999 FEW038 SCT140 BKN280 31/23 A2975 HZ ARND=
200805082200 METAR MRLM 082200Z 03005KT 9999 FEW030 SCT140 BKN280 30/24 A2974 RMK TCU NE HZ ARND=
200805082300 METAR MRLM 082300Z 30007KT CAVOK 29/24 A2976 RMK SCT140 BKN280 CBS RN DST N NE E HZ ARND=
200805090000 METAR MRLM 090000Z 00000KT CAVOK 28/24 A2979 RMK TRACE SC BKN090 SCT280 RN DST N E=
200805090100 METAR MRLM NIL=
200805090200 METAR MRLM NIL=
200805090300 METAR MRLM NIL=
200805090400 METAR MRLM NIL=
200805090500 METAR MRLM NIL=
200805090600 METAR MRLM NIL=
200805090700 METAR MRLM NIL=
200805090800 METAR MRLM NIL=
200805090900 METAR MRLM NIL=
200805091000 METAR MRLM NIL=
200805091100 METAR MRLM NIL=
200805091200 METAR MRLM NIL=
200805091300 METAR MRLM 091300Z 20003KT 200V280 9999 BKN025 25/24 A2982 RMK RN DST N E TS DST E=
200805091400 METAR MRLM 091400Z 12002KT/120V190 8000 RA BKN025 25/24 A2986 RMK FEW090 VIS SW W UNLTD HZY=
200805091500 METAR MRLM 091500Z 34002KT 3000 -RA BKN020 SCT090 25/23 A2987=
200805091600 METAR MRLM 091600Z 17004KT/170V080 6000 RA FEW005 OVC015 25/24 A2987=
200805091700 METAR MRLM 091700Z 23006KT 9999 FEW007 BKN025 25/24 A2984 RERA RMK FEW090 RN HZ ARND=
200805091800 METAR MRLM 091800Z 26004KT 9999 OVC025 26/24 A2982 RMK RN HZ DST ARND=
200805091900 METAR MRLM 091900Z 18004KT 9999 OVC020 28/25 A2982 RMK RN HZ ARND=
200805092000 METAR MRLM 092000Z NIL=
200805092100 METAR MRLM 092100Z 19005KT 9999 FEW025 BKN100 28/24 A2979 RMK RN DST QUANSD S/W TRAZAS CI HA ARND=
200805092200 METAR MRLM 092200Z 22003KT CAVOK 29/25 S2978 RMK TRAZASSC SCT110 SCT150 FEW260 RN DST SE HZ LGT ARND=
200805092300 METAR MRLM 092300Z 00000KT CAVOK 28/25 A2980 RMK FEW130 SCT150 SCT260 RN DST SE HZ ARND=
200805100000 METAR MRLM 100000Z 20002KT CAVOK 27/25 A2981 RMK FEW130 BKN150 FEW260 RN DST SE HZ ARND=
200805100100 METAR MRLM NIL=
200805100200 METAR MRLM NIL=
200805100300 METAR MRLM NIL=
200805100400 METAR MRLM NIL=
200805100500 METAR MRLM NIL=
200805100600 METAR MRLM NIL=
200805100700 METAR MRLM NIL=
200805100800 METAR MRLM NIL=
200805100900 METAR MRLM NIL=
200805101000 METAR MRLM NIL=
200805101100 METAR MRLM NIL=
200805101200 METAR MRLM 101200Z 19002KT 9999 FEW025 SCT090 24/23 A2981 RMK FEW250 HZ ARND=
200805101300 METAR MRLM 101300Z 20003KT 9999 FEW030 SCT090 26/23 A2984 RMK FEW300 CB DST NW RN DST SE/S HZ ARND=
200805101400 METAR MRLM 101400Z 22003KT CAVOK 29/24 A2984 RMK FEW100 BKN300 CB DST NW HZ ARND=
200805101500 METAR MRLM 101500Z 04006KT CAVOK 30/24 A2983 RMK OVC300 CB DST NW/N/NE TRAZAS AC HZ LGT ARND=
200805101600 METAR MRLM 101600Z 36008KT 9999 SCT025 BKN090 30/25 A2985 RMK CB DST NW/N/NE HZ ARND=
200805101700 METAR MRLM 101700Z 35006KT 9999 FEW025 BKN300 30/24 A2982 RMK FEW100 CB DST N/NE HZ ARND=
200805101800 METAR MRLM 101800Z 34009KT 9999 FEW025 BKN280 31/25 A2982 RMK FEW100 CB DST NE/E HZ ARND=
200805101900 METAR MRLM 101900Z 36009KT 9999 FEW025 BKN280 30/25 A2979 RMK FEW100 CB DST S/SW/W HZ ARND=
200805102000 METAR MRLM 102000Z NIL=
200805102100 METAR MRLM 102100Z 01007KT 9999 SCT025 SCT230 30/25 A2977 FEW090 RN E SE TS S SW HZY=
200805102200 METAR MRLM 102200Z 36006KT 9999 SCT025 SCT260 30/25 A2976 FEW100 CB RN SE S SW HZY=
200805102300 METAR MRLM 102300Z 03002KT 9999 FEW025 BKN090 29/25 A2980 FEW230 CB RN SW W SE HZY=
200805110000 METAR MRLM 110000Z 07003KT 9999 FEW024 SCT028 29/25 A2983 RN DST NW N SCT080 HZY=
200805110100 METAR MRLM NIL=
200805110200 METAR MRLM NIL=
200805110300 METAR MRLM NIL=
200805110400 METAR MRLM NIL=
200805110500 METAR MRLM NIL=
200805110600 METAR MRLM NIL=
200805110700 METAR MRLM NIL=
200805110800 METAR MRLM NIL=
200805110900 METAR MRLM NIL=
200805111000 METAR MRLM NIL=
200805111100 METAR MRLM NIL=
200805111200 METAR MRLM 111200Z 00000KT 9999 FEW040 BKN090 24/23 A2980 RMK RN DST W NW N NE FEW230 HZ ARND=
200805111300 METAR MRLM 111300Z 23002KT 9999 FEW028 BKN080 24/23 A2987 FEW230 RN W NW N NE HZY=
200805111400 METAR MRLM 111400Z 27006KT 8000 +DZ SCT022 BKN030 25/23 A2990 RN ARND=
200805111500 METAR MRLM 111500Z 26005KT 8000 DZ SCT020 BKN026 25/23 A2991 RN ARND=
200805111600 METAR MRLM 111600Z NIL=
200805111700 METAR MRLM 111700Z 20002KT 8000 +DZ BN022 SCT080 26/24 A2993 CB TS SE S RN ARND=
200805111800 METAR MRLM 111800Z 22003KT 8000 -RA SCT024 BKN080 26/24 A2990 RETS CB SE=
200805111900 METAR MRLM 111900Z 26002KT 9999 DZ FEW024 BKN090 26/24 A2985=
200805112000 METAR MRLM NIL=
200805112100 METAR MRLM 112100Z 03002KT 9999 SCT026 SCT230 28/24 A2981 RMK REDZ RN DIST ARND=
200805112200 METAR MRLM 112200Z 05003KT 9999 SCT026 SCT090 28/24 A2982 RMK TRACE CI RN NE HZ ARND=
200805112300 METAR MRLM 112300Z 11002KT 9999 FEW025 BKN230 28/24 A2984 RMK TRACE AC HZ ARND=
200805112355 METAR MRLM 120000Z 00000KT 9999 FEW024 BKN230 27/24 A2985 RMK TRACE AC CB DIST SW TCU W HZ ARND=
200805120000 METAR MRLM 120000Z 00000KT 9999 FEW024 BKN230 27/24 A2985 RMK TRACE AC CB DIST SW TCU W HZ ARND=
200805120100 METAR MRLM NIL=
200805120200 METAR MRLM NIL=
200805120300 METAR MRLM NIL=
200805120400 METAR MRLM NIL=
200805120500 METAR MRLM NIL=
200805120600 METAR MRLM NIL=
200805120700 METAR MRLM NIL=
200805120800 METAR MRLM NIL=
200805120900 METAR MRLM NIL=
200805121000 METAR MRLM NIL=
200805121100 METAR MRLM NIL=
200805121200 METAR MRLM NIL=
200805121300 METAR MRLM 121300Z 23004KT CAVOK 24/22 A2989 RMK FEW150 SCT280 HZ ARND=
200805121357 METAR MRLM 131400Z 00000KT CAVOK 28/23 A2990 RMK TRACE CU SCT280 HZ LGT ARND=
200805121400 METAR MRLM 121400Z 00000KT CAVOK 28/23 A2990 RMK TRACE CU SCT280 HZ LGT ARND=
200805121500 METAR MRLM 121500Z 05003KT CAVOK 29/23 A2991 RMK TRACE CU FEW280 HZ ARND=
200805121600 METAR MRLM 121600Z 03006KT 9999 FEW025 29/24 A2990 RMK TRACE CI HZ ARND=
200805121700 METAR MRLM 121700Z 04006KT 9999 FEW025 30/25 A2987 RMK TRACE CI HZ LGT ARND=
200805121800 METAR MRLM 121800Z 03008KT 9999 FEW025 30/25 A2987 RMK CB DIST S HZ ARND=
200805121900 METAR MRLM 121900Z 02008KT 9999 FEW028 30/25 A2984 RMK CB DIST S TRACE CI HZ ARND=
200805122000 METAR MRLM NIL=
200805122100 METAR MRLM 122100Z 01007KT 9999 FEW028 30/24 A2982 RMK TRACE AC CI CB DST S SW LEVE HZ ARND=
200805122200 METAR MRLM 122200Z 01007KT 9999 FEW030 30/24 A2981 RMK TRCE CI HZ ARND=
200805122300 METAR MRLM 122300Z 01006KT 9999 FEW028 SCT090 30/24 A2983 RMK HZ ARND TRACE CI=
200805130000 METAR MRLM 130000Z 02004KT 9999 FEW025 29/24 A2985 RMK FEW090 FEW280 HZ ARND=
200805130100 METAR MRLM NIL=
200805130200 METAR MRLM NIL=
200805130300 METAR MRLM NIL=
200805130400 METAR MRLM NIL=
200805130500 METAR MRLM NIL=
200805130600 METAR MRLM NIL=
200805130700 METAR MRLM NIL=
200805130800 METAR MRLM NIL=
200805130900 METAR MRLM NIL=
200805131000 METAR MRLM NIL=
200805131100 METAR MRLM NIL=
200805131200 METAR MRLM 131200Z 22003KT 9999 NSC 26/23 A2990 RMK TRACE CU HZ ARND=
200805131300 METAR MRLM 131300Z 22003KT 9999 NSC 26/23 A2990 RMK TRACE CU HZ ARND=
200805131400 METAR MRLM 131400Z 00000KT 9999 FEW026 30/23 A2992 RMK HZ=
200805131500 METAR MRLM 131500Z 04003KT 9999 FEW025 30/24 A2992 RMK HZ ARND=
200805131600 METAR MRLM 131600Z 05005KT 9999 FEW025 30/24 A2992 RMK TRACE CI HZ ARND=
200805131700 METAR MRLM 131700Z 03006KT 9999 FEW025 30/24 A2992 RMK TRACE CI HZ ARND=
200805131800 METAR MRLM 131800Z 01006KT 9999 FEW025 30/25 A2990 RMK TRACE CI HZ ARND=
200805131900 METAR MRLM 131900Z 01005KT 9999 FEW025 30/25 A2987 RMK TRCE CI HZ ARND=
200805132000 METAR MRLM 132000Z NIL=
200805132100 METAR MRLM 132100Z 01008KT 9999 FEW025 31/25 A2983 RMK TRACE CI HZ ARND=
200805132200 METAR MRLM 132200Z 36005KT 9999 SCT025 30/24 A2983 RMK TRACE AC CI HZ ARND=
200805132300 METAR MRLM 132300Z 36006KT 9999 BKN025 29/24 A2985 RMK FEW100 HZ ARND=
200805140000 METAR MRLM 140000Z 01004KT 999 SCT025 29/24 A2986 RMK TRACE SC HZ ARND=
200805140100 METAR MRLM NIL=
200805140200 METAR MRLM NIL=
200805140300 METAR MRLM NIL=
200805140400 METAR MRLM NIL=
200805140500 METAR MRLM NIL=
200805140600 METAR MRLM NIL=
200805140700 METAR MRLM NIL=
200805140800 METAR MRLM NIL=
200805140900 METAR MRLM NIL=
200805141000 METAR MRLM NIL=
200805141100 METAR MRLM NIL=
200805141200 METAR MRLM 141200Z NIL=
200805141300 METAR MRLM 141300Z 22005KT 9999 OVC018 26/22 A2990 RMK RN HZ ARND=
200805141400 METAR MRLM 141400Z 20004KT 9999 -DZ FEW015 BKN025 26/23 A2992 RMK RN HZ ARND=
200805141500 METAR MRLM 141500Z 21003KT 9999 BKN028 30/24 A2992 RMK RN N QUAD HZ ARND FEW080=
200805141600 METAR MRLM 141600Z 07006KT 9999 SCT030 SCT280 30/24 A2991 RMK RN N HZ ARND=
200805141700 METAR MRLM 141700Z 07007KT 9999 SCT030 SCT280 30/24 A2989 RMK HZ ARND=
200805141800 METAR MRLM 141800Z 06008KT 9999 BKN030 31/24 A2989 RMK FEW280 HZ ARND=
200805141900 METAR MRLM 141900Z 05012KT 9999 OVC030 30/25 A2986 RMK TRACE AC HZY=
200805142000 METAR MRLM NIL=
200805142100 METAR MRLM 142100Z 06011KT 9999 SCT030 30/24 A2983 RMK TRACE CI RN S SW W HZ ARND=
200805142200 METAR MRLM 142200Z 05012KT 9999 OVC028 30/24 A2984 RMK RN DST S SW W HZ ARND=
200805142300 METAR MRLM 142300Z 05013KT 9999 OVC028 29/24 A2985 RMK TRACE CI RN SE S SW W HZ ARND=
200805150000 METAR MRLM 150000Z 05015KT 9999 DZ BKN025 29/24 A2987 RMK RN S W FEW080 FEW280=
200805150100 METAR MRLM NIL=
200805150200 METAR MRLM NIL=
200805150300 METAR MRLM NIL=
200805150400 METAR MRLM NIL=
200805150500 METAR MRLM NIL=
200805150600 METAR MRLM NIL=
200805150700 METAR MRLM NIL=
200805150800 METAR MRLM NIL=
200805150900 METAR MRLM NIL=
200805151000 METAR MRLM NIL=
200805151100 METAR MRLM NIL=
200805151200 METAR MRLM NIL=
200805151300 METAR MRLM 151300Z 19004KT 9999 FEW025 26/24 A2991 RMK FEW090 TRACE CI TCU N HZ ARND=
200805151400 METAR MRLM 151400Z 19002KT 9999 FEW024TCU 28/24 A2993 RMK RN NW N NE FEW080 HZ ARND=
200805151500 METAR MRLM 151500Z 02004KT 9999 SCT025 SCT090 30/24 A2993 RMK RN NW N NE HZ ARND=
200805151600 METAR MRLM 151600Z 01005KT 9999 FEW025 SCT090 30/24 A2993 RMK TCU RN N W N NE HZ ARND=
200805151700 METAR MRLM 151700Z 36012KT 9999 DZ SCYT025 SCT080 27/24 A2993 RMK RN W N W N NE TRACE CI HZ ARND=
200805151800 METAR MRLM 151800Z 02006KT 999 SCT025 SCT090 29/24 A2991 REDZ RMK RN NE HZ ARND=
200805151900 METAR MRLM 151900Z 03005KT 9999 SCT025 30/24 A2989 RMK FW230 TCU E RN W SW HZ ARND=
200805152000 METAR MRLM 152000Z NIL=
200805152100 METAR MRLM 152100Z 03010KT 999 BKN025 29/24 A2984 RN SW FEW080 HZY=
200805152200 METAR MRLM 152200Z 03009KT 9999 BKN025 29/23 A2984 FEW080 RN SW HZY=
200805152300 METAR MRLM 152300Z 020090KT 9999 BKN025 SCT080 29/24 A2985 RN E SE S SW HZY=
200805160000 METAR MRLM 160000Z 02011KT 9999 BKN025 29/24 A2987 RN E SE S SW FEW080 HZY=
200805160100 METAR MRLM NIL=
200805160200 METAR MRLM NIL=
200805160300 METAR MRLM NIL=
200805160400 METAR MRLM NIL=
200805160500 METAR MRLM NIL=
200805160600 METAR MRLM NIL=
200805160700 METAR MRLM NIL=
200805160800 METAR MRLM NIL=
200805160900 METAR MRLM NIL=
200805161000 METAR MRLM NIL=
200805161100 METAR MRLM NIL=
200805161200 METAR MRLM NIL=
200805161300 METAR MRLM 161300Z 22005KT 9999 FEW012 OVC110 25/24 A2994 RN E SE S HZY=
200805161400 METAR MRLM 161400Z 22005KT 9999 BKN015 26/24 A2996 FEW110 RN E S HZY=
200805161500 METAR MRLM 161500Z 12006KT 9999 -DZ OVC015 27/24 A2996 VSBY E 8KM DUE RN=
200805161600 METAR MRLM 161600Z 03005KT 030V120 9000 3000NW RA OVC015 26/24 A2997=
200805161700 METAR MRLM 161700Z 26006KT 9999 DZ VCSH SCT015 BKN090 26/24 A2995 VSBY S SW W 8K DUE RN=
200805161800 METAR MRLM 161800Z 22005KT 9999 FEW018 BKN080 27/23 A2994 DZ E SE S HZY=
200805161900 METAR MRLM 161900Z 05003KT 9999 FEW030 SCT110 30/24 A2990 FEW280 HZY=
200805162000 METAR MRLM 162000Z NIL=
200805162100 METAR MRLM 162100Z 10005KT 9999 SCT028 SCT080 29/23 A2986=
200805162200 METAR MRLM 162200Z 07003KT 9999 SCT030 SCT090 29/23 A2984=
200805162300 METAR MRLM 162300Z 08004KT 9999 FEW028 BKN090 29/23 A2985=
200805170000 METAR MRLM NIL=
200805170100 METAR MRLM NIL=
200805170200 METAR MRLM NIL=
200805170300 METAR MRLM NIL=
200805170400 METAR MRLM NIL=
200805170500 METAR MRLM NIL=
200805170600 METAR MRLM NIL=
200805170700 METAR MRLM NIL=
200805170800 METAR MRLM NIL=
200805170900 METAR MRLM NIL=
200805171000 METAR MRLM NIL=
200805171100 METAR MRLM NIL=
200805171200 METAR MRLM NIL=
200805171300 METAR MRLM 171300Z 21003KT 9999 SCT025 BKN090 25/22 A2993 RMK RN DST N NE FEW280 HZ ARND=
200805171400 METAR MRLM 171400Z 22004KT 9999 SCT025 BKN090 28/23 A2993 RMK RN DST NW N NE E TRACE CI HZ ARND=
200805171500 METAR MRLM 171500Z 08004KT 9999 BKN030 29/23 A2994 RMK RN DST N NE E FEW090 HZ ARND=
200805171600 METAR MRLM 171600Z 06007KT 9999 BKN030TCU 29/23 A2993 RMK RN NW N NE E FEW090 HZ ARND=
200805171700 METAR MRLM 171700Z 06014KT 9999 SCT028 SCT090 29/24 A2992 RMK FEW280 RN N NE E HZ ARND=
200805171800 METAR MRLM 171800Z 06008KT 9999 FEW030 SCT080 30/24 A2990 RMK SCT280 HZ ARND=
200805171900 METAR MRLM 171900Z 07011KT 9999 FEW030 BKN280 30/24 A2998 RMK TRACE SC HZ ARND=
200805172000 METAR MRLM NIL=
200805172100 METAR MRLM 172100Z 07009KT 9999 FEW035 BKN280 30/23 A2984 RMK HZ LEVE ARND=
200805172200 METAR MRLM 172200Z 06009KT 9999 BKN035 SCT280 30/23 A2984 RMK LEVE HZ ARND=
200805172300 METAR MRLM 172300Z 07008KT 9999 BKN030 29/23 A2985 RMK TRACE AC FEW280 HZ ARND=
200805180000 METAR MRLM 180000Z 08008KT 9999 BKN030 29/23 A2987 RMK TRACE AC FEW280=
200805180100 METAR MRLM NIL=
200805180200 METAR MRLM NIL=
200805180300 METAR MRLM NIL=
200805180400 METAR MRLM NIL=
200805180500 METAR MRLM NIL=
200805180600 METAR MRLM NIL=
200805180700 METAR MRLM NIL=
200805180800 METAR MRLM NIL=
200805180900 METAR MRLM NIL=
200805181000 METAR MRLM NIL=
200805181100 METAR MRLM NIL=
200805181200 METAR MRLM 181200Z 22005KT 9999 FEW026 BKN00 23/21 A2987 RN NE E HZY=
200805181300 METAR MRLM 181300Z 21004KT 9999 FEW030 BKN090 24/21 A2990 RMK RN DST NE E HZ ARND=
200805181400 METAR MRLM 181400Z 20003KT 9999 FEW026 BKN080 26/23 A2991 RMK RN DST N NE E HZ ARND=
200805181500 METAR MRLM 181500Z 00000KT 9999 FEW025 BKN090 28/23 A2994 RMK RN DST NW N NE HZ ARND=
200805181600 METAR MRLM 181600Z 36002KT 9999 SCT028 BKN080 29/23 REDZ RMK RN DST ARND=
200805181700 METAR MRLM 181700Z 35006KT 9999 FEW028 BKN080 28/23 A2991 RMK RN DST E=
200805181800 METAR MRLM 181800Z 02004KT 9999 FEW028 BKN080 29/24 A2989 RMK RN DST SE HZ ARND=
200805181900 METAR MRLM 181900Z 01005KT 9999 FEW028 SCT100 29/23 A2986 RMK SCT230=
200805182000 METAR MRLM 182000Z NIL=
200805182100 METAR MRLM 182100Z 36005KT 9999 FEW025 BKN240 30/23 A2982 RMK TRACE AC=
200805182200 METAR MRLM 182200Z 03006KIT 9999 FEW025 BKN240 29/23 A2982 RMK TRACE AC CB DST S SW=
200805182300 METAR MRLM 182300Z 02004KT 9999 FEW028 SCT100 29/23 A2984 RMK FEW240 CB DST S SW HZ ARND=
200805190000 METAR MRLM 190000Z 01005KT 9999 BKN028 SCT230 29/23 A2986 RMK TRACE SC CB DST S SW HZ ARND=
200805190100 METAR MRLM NIL=
200805190200 METAR MRLM NIL=
200805190300 METAR MRLM NIL=
200805190400 METAR MRLM NIL=
200805190500 METAR MRLM NIL=
200805190600 METAR MRLM NIL=
200805190700 METAR MRLM NIL=
200805190800 METAR MRLM NIL=
200805190900 METAR MRLM NIL=
200805191000 METAR MRLM NIL=
200805191100 METAR MRLM NIL=
200805191200 METAR MRLM NIL=
200805191300 METAR MRLM 191300Z 20004KT 9999 FEW024 SCT100 24/22 A2991 RMK CB DST NW N NE E RN NE E SCT240 HZ ARND=
200805191400 METAR MRLM 191400Z 19005KT 9999 FEW025 BKN090 25/22 A2993 RMK CB RN DST N NE E FEW230 HZ ARND=
200805191500 METAR MRLM 191500Z 19002KT 9999 FEW030 BKN090 27/23 A2994 RMK RN DST NE E FEW230 HZ ARND=
200805191600 METAR MRLM 191600Z 08003KT 9999 FEW028 BKN090 29/23 A2994 RMK HZ ARND=
200805191700 METAR MRLM 191700Z 07003KT 9999 FEW028 BKN090 29/23 A2991 RMK HZ ARND=
200805191800 METAR MRLM 191800Z 05005KT 9999 FEW030 BKN090 29/24 A2990 TRACE CI HZ ARND=
200805191900 METAR MRLM 191900Z 07002KT 9999 FEW030 BKN100 29/23 A2988 RMK TRACE CI HZ ARND=
200805192000 METAR MRLM 192000Z NIL=
200805192100 METAR MRLM 192100Z 03004KT 9999 FEW028 BKN090 29/23 A2983 RMK FEW230 HZ ARND=
200805192200 METAR MRLM 192200Z 02003KT 9999 FEW028 BKN220 29/24 A2983 RMK FEW090 CB SW HZ ARND=
200805192300 METAR MRLM 192300Z 36002KT 9999 FEW026 BKN100 28/23 A2984 RMK SCT230 CB RN SW HZ ARND=
200805200000 METAR MRLM 200000Z 25002KT 9999 FEW026 BKN100 27/24 A2986 RMK SCT230 CB RN DST SW HZ ARND=
200805200100 METAR MRLM NIL=
200805200200 METAR MRLM NIL=
200805200300 METAR MRLM NIL=
200805200400 METAR MRLM NIL=
200805200500 METAR MRLM NIL=
200805200600 METAR MRLM NIL=
200805200700 METAR MRLM NIL=
200805200800 METAR MRLM NIL=
200805200900 METAR MRLM NIL=
200805201000 METAR MRLM NIL=
200805201100 METAR MRLM NIL=
200805201200 METAR MRLM NIL=
200805201300 METAR MRLM 201300Z 20005KT 9999 DZ BKN090 SCT140 24/22 A2991 RMK RN DST N E HZ ARND=
200805201400 METAR MRLM 201400Z 00000KT 9999 -DZ BKN090 SCT140 24/23 A2993 RMK TRACE SC HZ LEVE ARND RN N E=
200805201500 METAR MRLM 201500Z 22003KT 9999 -DZ BKN090 26/24 A2992 RMK FEW140 FEW260 CB RN NE E=
200805201600 METAR MRLM 201600Z 25004KT 9999 FEW025 BKN110 29/24 A2991 REDZ RMK FEW270 HZ LEVE ARND=
200805201700 METAR MRLM 201700Z 01009KT 9999 SCT023 BKN120 29/24 A2990 RMK TRACE CI RN N HZ ARND=
200805201800 METAR MRLM 201800Z 36011KT 9999 FEW025 BKN140 30/24 A2987 RMK FEW270 RN N E S SW W HZ ARND=
200805201900 METAR MRLM 201900Z 36010KT 9999 FEW025 BKN140 29/24 A2984 RMK FEW280 CB RN DST S SW W HZ ARND=
200805202000 METAR MRLM 202000Z NIL=
200805202100 METAR MRLM 202100Z 36008KT 9999 FEW025 BKN140 29/24 A2981 CB RN S W FEW270=
200805202200 METAR MRLM NIL=
200805202300 METAR MRLM 202300Z 10005KT 9999 FEW022 BKN080 28/24 A2983 FEW130 RN S W=
200805210000 METAR MRLM 210000Z 00000KT 9999 FEW018 OVC080 27/24 A2984 RN S W=
200805210100 METAR MRLM NIL=
200805210200 METAR MRLM NIL=
200805210300 METAR MRLM NIL=
200805210400 METAR MRLM NIL=
200805210500 METAR MRLM NIL=
200805210600 METAR MRLM NIL=
200805210700 METAR MRLM NIL=
200805210800 METAR MRLM NIL=
200805210900 METAR MRLM NIL=
200805211000 METAR MRLM NIL=
200805211100 METAR MRLM NIL=
200805211200 METAR MRLM NIL=
200805211300 METAR MRLM 211300Z 20003KT 9999 SCT015 BKN100 26/23 A2986 RN NW N HZY=
200805211400 METAR MRLM 211400Z 28003KT 9999 FEW018 OVC120 29/24 A2988 CB SE HZY=
200805211500 METAR MRLM 211500Z 02005KT 9999 FEW028 BKN140 29/23 A2988 CB E SE HZY=
200805211600 METAR MRLM 211600Z 02007KT 9999 FEW030 OVC130 30/23 A2987 CB NE E SE HZY=
200805211700 METAR MRLM 211700Z 36010KT 9999 FEW032 OVC130 30/24 A2987 TCU RN S SW RN/CB NE E=
200805211800 METAR MRLM 211800Z 36009KT 9999 FEW035 BKN130 30/23 A2984 RMK CB ARND RN SW E HZY FEW280=
200805211900 METAR MRLM 211900Z 03008KT 999 FEW025 SCT140 30/24 A2983 SCT280 CB ARND RN S W HZY=
200805212000 METAR MRLM 212000Z NIL=
200805212100 METAR MRLM 212100Z 05004KT 9999 -DZ BKN023 SCT100 28/24 A2979 RMK CB RN S W TRACE CI=
200805212200 METAR MRLM NIL=
200805212300 METAR MRLM 212300Z 21004KT 9999 SCT010 BKN100 25/24 A2981 REDZ RN HZ AROUND=
200805212355 METAR MRLM 220000Z 22004KT 9999 -DZ FEW010 SCT080 BKN120 26/24 A2980 RMK RN AR0UND TRACE ST=
200805220000 METAR MRLM 220000Z 22004KT 9999 -DZ FEW010 SCT080 BKN120 26/24 A2980 RMK RN AR0UND TRACE ST=
200805220100 METAR MRLM NIL=
200805220200 METAR MRLM NIL=
200805220300 METAR MRLM NIL=
200805220400 METAR MRLM NIL=
200805220500 METAR MRLM NIL=
200805220600 METAR MRLM NIL=
200805220700 METAR MRLM NIL=
200805220800 METAR MRLM NIL=
200805220900 METAR MRLM NIL=
200805221000 METAR MRLM NIL=
200805221100 METAR MRLM NIL=
200805221200 METAR MRLM NIL=
200805221300 METAR MRLM 221300Z 23003KT 9999 FEW030 BKN100 24/23 A2982 RMK FEW230 RN DST NNE=
200805221400 METAR MRLM 221400Z 23002KT 9999 SCT025 SCT230 27/24 A2985 RMK FEW100 RN DST NNE HZ ARND=
200805221500 METAR MRLM 221500Z 35003KT 9999 FEW025 BKN230 30/24 A2986 RMK FEW100 HZ ARND=
200805221600 METAR MRLM NIL=
200805221700 METAR MRLM 221700Z 06006KT 9999 FEW025 SCT100 29/24 A2986 RMK CB RN DST N SCT230=
200805221800 METAR MRLM 221800Z 04004KT 9999 FEW025 SCT100 30/22 A2986 RMK SCT230 CB RN DST N NE=
200805221900 METAR MRLM 221900Z 02008KT 9999 FEW025 SCT100 30/23 A2982 RMK RN DST AROUND SCT230=
200805222000 METAR MRLM 222000Z NIL=
200805222100 METAR MRLM 222100Z 22004KT 9999 -DZ SCT024 SCT090 27/24 A2980 RMK CB DST ARND RN DST SE S SW W=
200805222200 METAR MRLM 222200Z 21002KT 9999 -DZ FEW024 BKN080 26/23 A2980 RMK CB DST SE RN DST SE S SW W=
200805222300 METAR MRLM 222300Z 20003KT 9999 -DZ FEW028 BKN080 25/23 A2980 RMK TRCE CI RN DST SE S SW W=
200805230000 METAR MRLM 230000Z 21004KT 9999 FEW028 BKN080 25/22 A2981 REDZ RMK RN DST E SE TRACE CI=
200805230100 METAR MRLM NIL=
200805230200 METAR MRLM NIL=
200805230300 METAR MRLM NIL=
200805230400 METAR MRLM NIL=
200805230500 METAR MRLM NIL=
200805230600 METAR MRLM NIL=
200805230700 METAR MRLM NIL=
200805230800 METAR MRLM NIL=
200805230900 METAR MRLM NIL=
200805231000 METAR MRLM NIL=
200805231100 METAR MRLM NIL=
200805231200 METAR MRLM 231200Z 22003KT 9999 FEW025 BKN230 24/22 A2986 RMK FEW100 TCU DIST ENE=
200805231300 METAR MRLM 231300Z 20004KT 9999 FEW025 FEW025 BKN230 25/22 A2987 RMK TCU DST NE ENE FEW100=
200805231400 METAR MRLM 231400Z 21003KT 9999 FEW025 BKN230 28/23 A2989 RMK FEW100=
200805231500 METAR MRLM 231500Z 05004KT 9999 FEW025 BKN090 30/23 A2989 RMK FEW230 TCU DST N NE=
200805231600 METAR MRLM 231600Z 36005KT 9999 FEW025 SCT100 30/23 A2988 RMK SCT230CB RN DST N NE ENE=
200805231700 METAR MRLM 231700Z 36008KT 9999 FEW025 BKN230 31/23 A2987 RMK FEW100 CB RN DST NW N=
200805231800 METAR MRLM 231800Z 36008KT 9999 FEW025 BKN230 30/24 A2986 RMK TCU DST ESE SE TRACE AC=
200805231900 METAR MRLM 231900Z 36007KT 9999 FEW025 BKN230 30/25 A2983 RMK TCU DST ESE SE S SW TRACE AC=
200805232000 METAR MRLM 232000Z NIL=
200805232100 METAR MRLM 232100Z 02005KT 9999 FEW025 BKN230 30/23 A2979 RMK CB DST E SE S SW W=
200805232200 METAR MRLM 232200Z 04003KT 9999 FEW025 BKN230 30/23 A2980 RMK TRACE AC CB E SE S SW W RN SW W=
200805232300 METAR MRLM 232300Z 05002KT 9999 FEW025 BKN230 29/23 A2981 RMK FEW100 CB DST E SE S SW=
200805240000 METAR MRLM NIL=
200805240100 METAR MRLM NIL=
200805240200 METAR MRLM NIL=
200805240300 METAR MRLM NIL=
200805240500 METAR MRLM NIL=
200805240600 METAR MRLM NIL=
200805240700 METAR MRLM NIL=
200805240800 METAR MRLM NIL=
200805240900 METAR MRLM NIL=
200805241000 METAR MRLM NIL=
200805241100 METAR MRLM NIL=
200805241200 METAR MRLM NIL=
200805241300 METAR MRLM 241300Z 20006KT CAVOK 27/23 A2984 RMK BKN300 TRACE CU AC CB DST E SE HZ LGT ARND=
200805241400 METAR MRLM 241400Z 07003KT 070V210 CAVOK 30/22 A2985 RMK TRACE CU AC BKN300 CB DST E HZ ARND=
200805241500 METAR MRLM 241500Z 05005KT 9999 FEW040 BKN300 30/22 A2986 RMK TRACE AC CB DST NE E HZ ARND=
200805241600 METAR MRLM 241600Z 06006KT 9999 FEW038 BKN300 30/23 A2986=
200805241700 METAR MRLM 241700Z 04007KT 9999 FEW035 SCT300 30/23 A2985 RMK CB DIST N NE E=
200805241800 METAR MRLM 241800Z 03009KT 9999 FEW030 SCT300 31/24 A2982 RMK TRACE AC TCU DST S SW W CB DST N NE E SE=
200805241900 METAR MRLM 241900Z 03008KT 9999 FEW030 30/24 A2980 RMK FEW090 FEW300 CB DST N SE S SW W=
200805242000 METAR MRLM 242000Z NIL=
200805242100 METAR MRLM 242100Z 02008KT 9999 SCT030 SCT090 31/24 A2978 RMK FEW280 CB RN SE S SW W=
200805242200 METAR MRLM 242200Z 04007KT 9999 BKN030 30/24 A2978 RKM FEW140 FEW280 CB RN SE S SW W=
200805242300 METAR MRLM 242300Z 08006KT 9999 BKN028 29/23 A2989 RMK FEW100 TRACE CI CB RN S W=
200805250000 METAR MRLM 250000Z 14004KT 9999 OVC020 28/24 A2982 RMK CB RN DST S W TCU RN DST E TRACE AS AC CI=
200805250100 METAR MRLM NIL=
200805250200 METAR MRLM NIL=
200805250300 METAR MRLM NIL=
200805250400 METAR MRLM NIL=
200805250500 METAR MRLM NIL=
200805250600 METAR MRLM NIL=
200805250700 METAR MRLM NIL=
200805250800 METAR MRLM NIL=
200805250900 METAR MRLM NIL=
200805251000 METAR MRLM NIL=
200805251100 METAR MRLM NIL=
200805251200 METAR MRLM NIL=
200805251300 METAR MRLM 251300Z 28002KT 999 FEW020 BKN090 25/23 A2985 RM RN N HZ=
200805251400 METAR MRLM 251400Z 22003KT 9999 SCT020 SCT090 27/24 A2988 RMK RN DST N=
200805251500 METAR MRLM 251500Z 31005KT 9999 SCT025 SCT090 28/23 A2988 RMK RN N TRACE CI=
200805251600 METAR MRLM NIL=
200805251700 METAR MRLM 251700Z 02009KT 9999 BKN020 SCT090 28/23 A2988 RMK RN DST ARND=
200805251800 METAR MRLM 251800Z 07005KT 9999 +DZ FEW025 OVC080 28/23 A2984 RMK CB RN N E=
200805251900 METAR MRLM 251900Z 07005KT 9999 SCT025 SCT090 28/23 A2980 REDZ RMK CB RN NE E DZ SE FEW270=
200805252000 METAR MRLM 252000Z NIL=
200805252100 METAR MRLM 252100Z 10008KT 9999 FEW020 SCT090 BKN150 28/24 A2975 CB RN DIST SW W=
200805252200 METAR MRLM 252200Z 08007KT 9999 SCT020 BKN090 28/24 A2976 CB RN E SE S SW W=
200805252300 METAR MRLM 252300Z 03007KT 9999 BKN020 SCT090 28/23 A2977 RN S SW W=
200805260000 METAR MRLM 260000Z 02006KT 9999 DZ BKN020 SCT090 28/23 A2978 RN S W=
200805260100 METAR MRLM NIL=
200805260200 METAR MRLM NIL=
200805260300 METAR MRLM NIL=
200805260400 METAR MRLM NIL=
200805260500 METAR MRLM NIL=
200805260600 METAR MRLM NIL=
200805260700 METAR MRLM NIL=
200805260800 METAR MRLM NIL=
200805260900 METAR MRLM NIL=
200805261000 METAR MRLM NIL=
200805261100 METAR MRLM NIL=
200805261200 METAR MRLM NIL=
200805261300 METAR MRLM 261300Z 00000KT 9999 FEW030 BKN230 24/22 A2991 FEW100 RN NW N NE=
200805261400 METAR MRLM 261400Z 26002KT 9999 FEW030 BKN230 28/23 A2981 RN NW N NE FEW100=
200805261500 METAR MRLM 261500Z 29006KT 9999 FEW026 BKN100 29/21 A2982 RMK FEW230 RN NW N NE E=
200805261600 METAR MRLM 261600Z 29006KT 9999 FEW026 BKN100 30/21 A2982 RMK FEW230 CB RN NW N NE E=
200805261700 METAR MRLM 261700Z 29009KT 9999 FEW026 BKN090 30/21 A2981 RMK CB RN NW N NE E FEW230=
200805261800 METAR MRLM 261800Z 31011KT 9999 FEW026 BKN090 31/22 A2979 RN N NE SW W TCU W NW FEW230=
200805261900 METAR MRLM 261900Z 33005KT 9999 SCT024 SCT090 29/24 A2977 RN ARND=
200805262000 METAR MRLM 262000Z NIL=
200805262100 METAR MRLM 262100Z 30003KT 9999 BKN205 SCT090 27/24 A2975 RN DST AROUND TCU W NW=
200805262200 METAR MRLM 262200Z 30006KT 9999 -RA BKN205 SCT080 26/24 A2974=
200805262300 METAR MRLM 262300Z 22003KT 9999 BKN024 26/24 A2974 RMK RERA FEW080 RN AROUND=
200805262354 METAR MRLM 270000Z 25003KT 8000 -DZ BKN022 SCT030 25/23 A2976 RN AROUND=
200805270000 METAR MRLM 270000Z 25003KT 8000 -DZ BKN022 SCT030 25/23 A2976 RN AROUND=
200805270100 METAR MRLM NIL=
200805270200 METAR MRLM NIL=
200805270300 METAR MRLM NIL=
200805270400 METAR MRLM NIL=
200805270500 METAR MRLM NIL=
200805270600 METAR MRLM NIL=
200805270700 METAR MRLM NIL=
200805270800 METAR MRLM NIL=
200805270900 METAR MRLM NIL=
200805271000 METAR MRLM NIL=
200805271100 METAR MRLM NIL=
200805271200 METAR MRLM 271200Z NIL=
200805271300 METAR MRLM 271300Z 23002KT 9999 FEW025 BKN090 25/22 A2977 RMK CB DST NW N NE TRACE CI=
200805271400 METAR MRLM 271400Z 26004KT 9999 FEW025 BKN100 27/22 A2978 RMK TRACE CI CB RN DST NW N NE=
200805271500 METAR MRLM 271500Z 29009KT 9999 FEW030 BKN100 29/22 A2978 RMK CB RN DST S SW NW N E FEW230=
200805271600 METAR MRLM 271600Z 28007KT 9999 FEW028 OVC100 29/23 A2997 RMK CB RN DST AROUND FEW230=
200805271700 METAR MRLM 271700Z 31009KT 9999 SCT025 OVC100 29/24 A2979 RMK FEW230 CB RN DST NW N NE=
200805271800 METAR MRLM 271800Z 31007KT 9999 -DZ SCT022 SCT100 29/24 A2975 RMK TCU DST AROUND RN SE TRACE CI=
200805271900 METAR MRLM 271900Z 33012KT 9999 BKN022 SCT090 29/24 A2973 REDZ RMK TCU RN DST AROUND=
200805272000 METAR MRLM 272000Z NIL=
200805272100 METAR MRLM 272100Z 35008KT 8000 -RA BKN022 SCT080 27/24 A2972 RMK TCU DST ARND CB TS DST SSW=
200805272200 METAR MRLM 272200Z 01008KT 8000 -RA BKN020 SCT080 26/24 A2971 RETS RMK CB DST ARND=
200805272300 METAR MRLM 272300Z 10007KT 4000 RA OVC020 25/23 A2973=
200805280000 METAR MRLM 280000Z 19004KT 7000 +DZ BKN020 SCT080 25/23 A2975 RMK CB DST NW N NE RN DST ARND=
200805280100 METAR MRLM NIL=
200805280200 METAR MRLM NIL=
200805280300 METAR MRLM NIL=
200805280400 METAR MRLM NIL=
200805280500 METAR MRLM NIL=
200805280600 METAR MRLM NIL=
200805280700 METAR MRLM NIL=
200805280800 METAR MRLM NIL=
200805280900 METAR MRLM NIL=
200805281000 METAR MRLM NIL=
200805281100 METAR MRLM NIL=
200805281200 METAR MRLM NIL=
200805281300 METAR MRLM 281300Z 21002KT CAVOK 24/23 A2979 RERA RMK BKN090 SCT120 TRACE ST RN DST SE S SW W NW=
200805281400 METAR MRLM 281400Z 17003KT 9999 +DZ BKN090 SCT120 25/23 A2980 RMK TRCE SC=
200805281500 METAR MRLM 281500Z 02002KT 9999 FEW020 SCT140 27/23 A2979 RMK FEW120 FEW270 RN DST QUAD N E=
200805281600 METAR MRLM 281600Z 35002KT 9999 FEW020 SCT120 BKN260 28/24 A2979 RMK CB DST S SW RN DST SE NW=
200805281700 METAR MRLM 281700Z 04004KT 9999 SCT025 SCT140 28/24 A2978 RMK FEW260 HZ LGT ARND=
200805281800 METAR MRLM 281800Z 01006KT 9999 -DZ FEW025 BKN140 28/23 A2978 RMK FEW110 FEW260 RN DST QUAD S W=
200805281900 METAR MRLM 281900Z 36004KT 9999 +DZ FEW020 OVC100 27/23 A2977=
200805282000 METAR MRLM 282000Z NIL=
200805282100 METAR MRLM 282100Z 08003KT 9999 -DZ SCT015 SCT140 26/24 A2975 RMK FEW100 RN ARND=
200805282200 METAR MRLM NIL=
200805282300 METAR MRLM 282300Z 19003KT 9999 FEW010 SCT025 BKN140 26/24 A2976 RMK RN DST W TRACE AC=
200805290000 METAR MRLM 290000Z 19002KT 9999 FEW008 SCT080 BKN140 25/24 A2976 RMK RN DST S W=
200805290100 METAR MRLM NIL=
200805290200 METAR MRLM NIL=
200805290300 METAR MRLM NIL=
200805290400 METAR MRLM NIL=
200805290500 METAR MRLM NIL=
200805290600 METAR MRLM NIL=
200805290700 METAR MRLM NIL=
200805290800 METAR MRLM NIL=
200805290900 METAR MRLM NIL=
200805291000 METAR MRLM NIL=
200805291100 METAR MRLM NIL=
200805291200 METAR MRLM NIL=
200805291300 METAR MRLM 291300Z 25003KT 9999 SCT020 BKN130 24/22 A2976 RMK RN DST W TRACE CI=
200805291400 METAR MRLM 291400Z 22004KT 9999 FEW015 SCT090 BKN260 26/23 A2978 RMK RN DST W=
200805291500 METAR MRLM 291500Z 15002KT 9999 FEW020 BKN090 27/23 A2980 RMK RN DST W FEW270=
200805291600 METAR MRLM 291600Z 27003KT 9999 FEW020 SCT140 28/23 A2980 FEW090 FEW270 RN DST W=
200805291700 METAR MRLM 291700Z 27004KT 9999 FEW025 SCT080 BKN 28/23 A2979 RN DST S W=
200805291800 METAR MRLM 291800Z 01003KT 9999 +DZ FEW020 SCT090 BKN120 28/24 A2980 RMK RN S W=
200805291900 METAR MRLM 291900Z 29005KT 9999 RA FEW012 SCT080 BKN100 26/24 A2980=
200805292000 METAR MRLM 292000Z NIL=
200805292100 METAR MRLM 292100Z 31007KT 9999 DZ FEW012 BKN090 26/23 A2978 RMK FEW150 TRACE CI=
200805292200 METAR MRLM 292200Z 28006KT CAVOK 26/23 A2977 REDZ RN N W N BKN110 FEW150 TRACE ST CI=
200805292300 METAR MRLM 292300Z 05005KT 9999 DZ BKN100 25/22 A2979 RMK FEW140 TRACE SC RN N W=
200805300000 METAR MRLM 300000Z 22002KT CAVOK 25/22 A2981 REDZ BKN090 FEW280 TRACE SCT RN DST W N=
200805300100 METAR MRLM NIL=
200805300200 METAR MRLM NIL=
200805300300 METAR MRLM NIL=
200805300400 METAR MRLM NIL=
200805300500 METAR MRLM NIL=
200805300600 METAR MRLM NIL=
200805300700 METAR MRLM NIL=
200805300800 METAR MRLM NIL=
200805300900 METAR MRLM NIL=
200805301000 METAR MRLM NIL=
200805301100 METAR MRLM NIL=
200805301200 METAR MRLM 301200Z NIL=
200805301212 METAR MRLM 301212Z 21004KT CAVOK 23/21 A2991 RMK TRACE SC SCT230=
200805301300 METAR MRLM 301300Z 22003KT CAVOK 24/22 A2986 RMK SCT230 TRACE SC AC=
200805301400 METAR MRLM 301400Z 21002KT CAVOK 28/23 A2988 RMK BKN230 TRACE SC AC=
200805301500 METAR MRLM 301500Z 04004KT CAVOK 29/23 A2989 RMK SCT100 BKN230 TRACE SC=
200805301600 METAR MRLM 301600Z 02005KT CAVOK 29/23 A2988 RMK BKN100 FEW230 TRACE CU=
200805301700 METAR MRLM 301700Z 34004KT 9999 FEW025 SCT100 29/23 A2988 RMK SCT230=
200805301800 METAR MRLM 301800Z 36008KT 9999 FEW025 SCT230 30/23 A2985 RMK FEW100=
200805301900 METAR MRLM 301900Z 36007KT 9999 FEW025 SCT230 30/24 A2984 RMK FEW100=
200805302000 METAR MRLM 302000Z NIL=
200805302100 METAR MRLM 302100Z 02007KT 9999 FEW025 SCT100 30/23 A2979 CB SE S FEW230=
200805302200 METAR MRLM 302200Z 03005KT 9999 FEW026 30/23 A2979 FEW100 FEW230 CB SE S SW RN SW=
200805302300 METAR MRLM 302300Z 02003KT 9999 FEW026 SCT230 29/23 A2980 CB SE S SW FEW100=
200805310000 METAR MRLM 310000Z 04002KT 9999 FEW015 SCT090 29/23 A2983 SCT230 CB RN DST SE S SW W=
200805310100 METAR MRLM NIL=
200805310200 METAR MRLM NIL=
200805310300 METAR MRLM NIL=
200805310400 METAR MRLM NIL=
200805310500 METAR MRLM NIL=
200805310600 METAR MRLM NIL=
200805310700 METAR MRLM NIL=
200805310800 METAR MRLM NIL=
200805310900 METAR MRLM NIL=
200805311000 METAR MRLM NIL=
200805311100 METAR MRLM NIL=
200805311200 METAR MRLM 311200Z NIL=
200805311300 METAR MRLM 311300Z 20003KT CAVOK 27/23 A2989 SCT230 TRAZAS CU HZY=
200805311400 METAR MRLM 311400Z 08003KT CAVOK 29/24 A2989 SCT230 TRAZAS CU HZY=
200805311500 METAR MRLM NIL=
200805311600 METAR MRLM 311600Z 05004KT 9999 FEW025 BKN250 30/24 A2989 CB N=
200805311700 METAR MRLM 311700Z 03005KT 9999 FEW025 BKN250 30/24 A2988 TCU N=
200805311800 METAR MRLM 311800Z 01006KT 9999 FEW025 BKN250 30/24 A2987=
200805311900 METAR MRLM 311900Z 03005KT 9999 FEW025 BKN250 30/24 A2984 CB N S SW W=
200805312000 METAR MRLM 312000Z NIL=
200805312100 METAR MRLM NIL=
200805312200 METAR MRLM 312200Z 35006KT 9999 FEW025 BKN230 30/24 A2978 RMK CB DST SE S SW W=
200805312300 METAR MRLM 312300Z 02004KT 9999 FEW025 BKN250 30/24 A2980 RMK CB DST ESE E SW=
200805312358 METAR MRLM 010000Z 01004KT 9999 BKN025 29/24 A2982 RMK CB DST ESE SSW TRACE AC=
200806010000 METAR MRLM 010000Z 01004KT 9999 BKN025 29/24 A2982 RMK CB DST ESE SSW TRACE AC=
200806010100 METAR MRLM NIL=
200806010200 METAR MRLM NIL=
200806010300 METAR MRLM NIL=
200806010400 METAR MRLM NIL=
200806010500 METAR MRLM NIL=
200806010600 METAR MRLM NIL=
200806010700 METAR MRLM NIL=
200806010800 METAR MRLM NIL=
200806010900 METAR MRLM NIL=
200806011000 METAR MRLM NIL=
200806011100 METAR MRLM NIL=
200806011200 METAR MRLM NIL=
200806011300 METAR MRLM 011300Z 22004KT 9999 FEW015 SCT120 BKN280 26/24 A2988 RMK CB RN DST NE/SW HZ ARND=
200806011400 METAR MRLM 011400Z 28002KT 9999 FEW020 OVC280 29/24 A2988 RMK TRACE AC HZ ARND=
200806011500 METAR MRLM 011500Z 05003KT 9999 BKN025 SCT280 29/24 A2990 TRACE AC HZ AROUND=
200806011600 METAR MRLM 011600Z 04004KT 9999 SCT028 SCT280 30/25 A2989 FEW140 HZ ARND CB NE=
200806011700 METAR MRLM 011700Z 06004KT 9999 FEW030 BKN280 30/24 A2984 RMK FEW140 CB DST N E RN DST NE=
200806011800 METAR MRLM 011800Z 06006KT 9999 FEW025 BKN270 30/25 A2987 RMK TRACE AC CB DST N S W=
200806011900 METAR MRLM 011900Z 06008KT 9999 FEW025 BKN270 30/25 A2985 RMK CB RN DST S FEW140=
200806012000 METAR MRLM 012000Z NIL=
200806012100 METAR MRLM 012100Z 08005KT 9999 FEW025 BKN270 29/24 A2981 RMK FEW140 FEW170 LEVE HZ ARND CB RN DST QUAD W S=
200806012200 METAR MRLM 012200Z 07007KT 9999 FEW025 SCT150 BKN270 29/24 A2980 RMK FEW110 CB RN DST QUAD W LEVE HZ ARND=
200806012300 METAR MRLM 012300Z 10006KT CAVOK 29/24 A2981 RMK FEW110 SCT150 BKN270=
200806020000 METAR MRLM 020000Z 15004KT CAVOK 28/24 A2983 RMK FEW110 BKN150 SCT270 CB RN DST W HZ LEVE ARND TRACE SC=
200806020100 METAR MRLM NIL=
200806020200 METAR MRLM NIL=
200806020300 METAR MRLM NIL=
200806020400 METAR MRLM NIL=
200806020500 METAR MRLM NIL=
200806020600 METAR MRLM NIL=
200806020700 METAR MRLM NIL=
200806020800 METAR MRLM NIL=
200806020900 METAR MRLM NIL=
200806021000 METAR MRLM NIL=
200806021100 METAR MRLM NIL=
200806021200 METAR MRLM 021200Z NIL=
200806021300 METAR MRLM 021300Z 19002KT CAVOK 25/23 A2986 RMK CB RN DST QUAD N FEW140 SCT160 BKN270 LEVE HZ ARND=
200806021400 METAR MRLM 021400Z 20002KT CAVOK 28/24 A2989 RMK OVC270 RN DST N NE E LGT HZ ARND=
200806021500 METAR MRLM 021500Z 01003KT 9999 FEW025 OVC270 29/24 A2989 RMK FEW140 CB RN DST E NW HZ LEVE ARND=
200806021600 METAR MRLM 021600Z 02008KT 9999 FEW028 OVC270 29/23 A2988 TRACE AC CB DST QUAD N LEVE HZ ARND=
200806021700 METAR MRLM 021700Z 36010KT 9999 FEW028 OVC270 30/24 A2987 RMK TRACE AC CB DST N NE HZ LEVE ARND=
200806021800 METAR MRLM 021800Z 36008KT 9999 FEW035 BKN270 30/23 A2985 RMK LGT HZ ARND FEW140=
200806021900 METAR MRLM 021900Z 36010KT 9999 FEW030 BKN140 30/24A2983 RMK FEW270 CB RN DST QUAD S LEVE HZ ARND=
200806022000 METAR MRLM 022000Z NIL=
200806022100 METAR MRLM 022100Z 02008KT 9999 FEW030 SCT140 BKN270 30/24 A2980 RMK CBS RN DST S W QDS=
200806022200 METAR MRLM 022200Z 05009KT 9999 FEW028 BKN140 29/24 A2981 RMK FEW270 CBS RN DST S W QDS=
200806022300 METAR MRLM 022300Z 29006KT 9999 FEW025 BKN130 29/24 A2983 RMK FEW270 CBS RN DST W S QDS=
200806030000 METAR MRLM 030000Z 21002KT 9999 FEW018 SCT100 28/24 A2983 RMK CBS RN DST SW QDS SCT140 FEW270=
200806030100 METAR MRLM NIL=
200806030200 METAR MRLM NIL=
200806030300 METAR MRLM NIL=
200806030400 METAR MRLM NIL=
200806030500 METAR MRLM NIL=
200806030600 METAR MRLM NIL=
200806030700 METAR MRLM NIL=
200806030800 METAR MRLM NIL=
200806030900 METAR MRLM NIL=
200806031000 METAR MRLM NIL=
200806031100 METAR MRLM NIL=
200806031200 METAR MRLM 031200Z 21004KT 9999 FEW035 BKN090 24/21 A2987 RMK FEW230 HZ ARND=
200806031300 METAR MRLM 031300Z 23003KT 9999 FEW035 SCT090 25/21 A2987 RMK SCT230 CB DST NW N NE E=
200806031400 METAR MRLM 031400Z 10003KT 9999 FEW035 BKN230 29/21 A2987 RMK FEW100 CB LINE W NW N=
200806031500 METAR MRLM 031500Z 10005KT CAVOK 30/22 A2988 TRACE CU BKN230=
200806031600 METAR MRLM 031600Z 08011KT 9999 FEW026 BKN230 31/23 A2985 RMK CB DST NW N NE=
200806031700 METAR MRLM 031700Z 08007KT 9999 FEW026 BKN230 30/23 A2986 RMK CB DST NW N NE TRACE AC=
200806031800 METAR MRLM 031800Z 04006KT 9999 FEW026 BKN230 30/24 A2985 RMK TCU DST S SW FEW100=
200806031900 METAR MRLM 031900Z 04007KT 9999 FEW026 BKN230 30/23 A2986 RMK CB DST ARND RN SW FEW100=
200806032000 METAR MRLM 032000Z NIL=
200806032100 METAR MRLM 032100Z 04004KT 9999 FEW025 BKN230 30/24 A2978 RMK CB DST ARND RN S SW W TRACE AC=
200806032200 METAR MRLM 032200Z 06003KT 9999 FEW025 BKN230 30/24 A2976 RMK CB RN SE SW W TRACE AC=
200806032300 METAR MRLM 032300Z 06004KT 9999 FEW025 BKN230 29/24 A2977 RMK CB RN SW W FEW100=
200806040000 METAR MRLM 040000Z 02004KT 9999 FEW030 BKN230 29724 A2979 RMK CB RN DST S SW W TCU NNE FEW100=
200806040100 METAR MRLM NIL=
200806040200 METAR MRLM NIL=
200806040300 METAR MRLM NIL=
200806040400 METAR MRLM NIL=
200806040500 METAR MRLM NIL=
200806040600 METAR MRLM NIL=
200806040700 METAR MRLM NIL=
200806040800 METAR MRLM NIL=
200806040900 METAR MRLM NIL=
200806041000 METAR MRLM NIL=
200806041100 METAR MRLM NIL=
200806041200 METAR MRLM 041200Z 18002KT 9999 FEW026 BKN230 29/24 A2984 RMK TCU N ENE HZ ARND=
200806041300 METAR MRLM 041300Z 20003KT 9999 FEW024 BKN2300 27/24 A2985 RMK CB RN N ENE S SW FEW090 HZ ARND=
200806041400 METAR MRLM 041400Z 18002KT 9999 FEW026 BKN230 29/24 A2984 RMK TCU N ENE HZ ARND=
200806041500 METAR MRLM 041500Z 02005KT 9999 SCT025 BKN230 30/24 A2986 RMK CB E HZ ARND=
200806041600 METAR MRLM 041600Z 35008KT 9999 SCT025 BKN230 29/24 A2986 RMKCB NW HZ ARND=
200806041700 METAR MRLM 041700Z 36007KT 9999 FEW022TCU BKN230 30/25 A2985 RMK CB DST E SE RN SSW=
200806041800 METAR MRLM 041800Z 36006KT 9999 FEW024 BKN230 30/24 A2984 RMK CB DST ARND RN SW=
200806041900 METAR MRLM 041900Z 01007KT 9999 FEW024 BKN230 30/24 A2981 RMK CB ARND HZ=
200806042000 METAR MRLM NIL=
200806042100 METAR MRLM 042100Z 36006KT 9999 SCT025 BKN230 30/25 A2977 CB RN S SW W HZY=
200806042200 METAR MRLM 042200Z 05004KT 9999 SCT024 SCT230 30/24 A2978 CB RN SE S SW W=
200806042300 METAR MRLM 042300Z 05003KT 999 SCT025 BKN230 29/24 A2979 CB SE S SW W RN S SW=
200806050000 METAR MRLM 050000Z 06003KT 9999 SCT025 BKN230 29/24 A2981 CB SE S SW W RN SW=
200806050100 METAR MRLM NIL=
200806050200 METAR MRLM NIL=
200806050300 METAR MRLM NIL=
200806050400 METAR MRLM NIL=
200806050500 METAR MRLM NIL=
200806050600 METAR MRLM NIL=
200806050700 METAR MRLM NIL=
200806050800 METAR MRLM NIL=
200806050900 METAR MRLM NIL=
200806051000 METAR MRLM NIL=
200806051100 METAR MRLM NIL=
200806051200 METAR MRLM 051200Z NIL=
200806051300 METAR MRLM 051300Z 22005KT CAVOK 25/23 A2985 BKN110 SCT270 RN TCU E HZY=
200806051400 METAR MRLM 051400Z 24004KT CAVOK 29/25 A2987 OVC110 RN E HZY=
200806051500 METAR MRLM 051500Z 05004KT 9999 FEW030 SCT270 30/24 A2987 HZY FEW110=
200806051600 METAR MRLM 051600Z 03006KT 9999 FEW030 SCT150 BKN270 30/25 A2989 CB RN N HZY=
200806051700 METAR MRLM 051700Z 03010KT 9999 FEW025 SCT140 29/24 A2990 CB RN N E FEW100=
200806051800 METAR MRLM 051800Z 36012KT 9999 FEW022 SCT140 28/23 A2987 CB RN N E W SCT270=
200806051900 METAR MRLM 051900Z 02004KT 9999 FEW030 BKN150 28/23 A2984 CB W HZY=
200806052000 METAR MRLM 052000Z NIL=
200806052100 METAR MRLM 052100Z 07005KT 9999 FEW030 OVC280 29/23 A2980 RMK TRACE AC TCU RN DST SW CB DST W HZ LGT AROUND=
200806052200 METAR MRLM 052200Z 04006KT 9999 FEW030 BKN270 29/23 A2979 RMK FEW140 CB W HZ ARND=
200806052300 METAR MRLM 052300Z 10003KT 9999 FEW025 BKN270 28/23 A2980 FEW140 CB W E HZ ARND=
200806052358 METAR MRLM 060000Z 13005KT 9999 FEW018 BKN270 27/24 A2983 RMK CBS DST NE SE S SW W FEW110 HZ LGT ARND=
200806060000 METAR MRLM 060000Z 13005KT 9999 FEW018 BKN270 27/24 A2983 RMK CBS DST NE SE S SW W FEW110 HZ LGT ARND=
200806060100 METAR MRLM NIL=
200806060200 METAR MRLM NIL=
200806060300 METAR MRLM NIL=
200806060400 METAR MRLM NIL=
200806060500 METAR MRLM NIL=
200806060600 METAR MRLM NIL=
200806060700 METAR MRLM NIL=
200806060800 METAR MRLM NIL=
200806060900 METAR MRLM NIL=
200806061000 METAR MRLM NIL=
200806061100 METAR MRLM NIL=
200806061200 METAR MRLM NIL=
200806061300 METAR MRLM 061300Z 22005KT 9999 FEW015 SCT110 BKN270 24/22 A2985 RMK RN DST N/NE/E HZ LGT ARNWD=
200806061400 METAR MRLM 061400Z 24004KT CAVOK 26/23 A2987 RMK BKN090 SCT270 CB RN DST N TRACE SC=
200806061500 METAR MRLM 061500Z 25005KT 9999 FEW020 SCT110 27/23 A2988 RMK CB RN DST N NE HZ ARND FEW 270=
200806061600 METAR MRLM 061600Z 28008KT 9999 FEW030 BKN140 30/23 A2988 RMK FEW270 CB RN DST N HZ ARND=
200806061700 METAR MRLM 061700Z 32010KT 9999 FEW035 SCT140 BKN270 31/23 A2986 RMK CB RN DST N HZ LGT ARND=
200806061800 METAR MRLM 061800Z 36009KT 9999 SCT030 BKN270 31/24 A2983 RMK TRACE AC HZ ARND CB RN DST N=
200806061900 METAR MRLM 061900Z 35010KT 9999 FEW030 SCT150 BKN270 30/24 A2982 RMK CB RN DST E HZ ARND=
200806062000 METAR MRLM 062000Z NIL=
200806062100 METAR MRLM 062100Z 01011KT 9999 FEW028 SCT110 BKN280 30/24 A2979 RMK CB RN DST S SW W LEVE HZ ARND=
200806062200 METAR MRLM 062200Z 03006KT 9999 FEW025 BKN130 29/24 A2980 RMK FEW280 CB RN DST QUAD S W HZ LEVE ARND=
200806062300 METAR MRLM 062300Z 02009KT 9999 BKN020 SCT100 28/24 A2982 RMK RN DST QUAD S W LEVE HZ ARND=
200806070000 METAR MRLM 070000Z 05008KT 9999 BKN020 SCT090 28/24 A2983 RMK CB RN DST QUAD S W HZ LGT ARND=
200806070100 METAR MRLM NIL=
200806070200 METAR MRLM NIL=
200806070300 METAR MRLM NIL=
200806070400 METAR MRLM NIL=
200806070500 METAR MRLM NIL=
200806070600 METAR MRLM NIL=
200806070700 METAR MRLM NIL=
200806070800 METAR MRLM NIL=
200806070900 METAR MRLM NIL=
200806071000 METAR MRLM NIL=
200806071100 METAR MRLM NIL=
200806071200 METAR MRLM NIL=
200806071300 METAR MRLM 071300Z 22003KT 9999 FEW022 SCT045 25/23 A2989 RMK SCT090 RN DST W NW N NE TRACE CI HZ ARND=
200806071400 METAR MRLM 071400Z 20003KT 9999 SCT030 SCT080 26/24 A2989 RMK TRACE CI HZ ARND=
200806071500 METAR MRLM 071500Z 21002KT 9999 BKN030 SCT080 27/24 A2991 RMK CB TS DST E RN DST E SE S SW HZ ARND=
200806071600 METAR MRLM 071600Z 21004KT 9999 SCT025 BKN090 29/24 A2990 RETS RMK RN DST ARND CB DST SE S SW W HZ ARND=
200806071700 METAR MRLM 071700Z 20002KT 9999 BKN025 SCT080 29/24 A2989 RMK RN DST E SE S SW HZ LGT ARND=
200806071800 METAR MRLM 071800Z 00000KT 9999 SCT025 SCT090 30/23 A2988 RMK CB RN DST ARND HZ LGT ARND=
200806071900 METAR MRLM 071900Z 09004KT 9999 FEW025 BKN090 30/23 A2984 RMK CB RN DST ARND HZ ARND=
200806072000 METAR MRLM 072000Z NIL=
200806072100 METAR MRLM 072100Z 07005KT 9999 SCT025 SCT090 29/24 A2982 RMK FEW230 CB RN DST NE SW W HZ ARND=
200806072200 METAR MRLM 072200Z 07006KT 9999 SCT025 SCT080 28/24 A2983 RMK TRACE CI CB RN DST SE S SW W HZY=
200806072300 METAR MRLM 072300Z 02002KT 9999 FEW025 BKN080 28/24 A2984 RMK RN DST SW W NW TRACE CI HZY=
200806080000 METAR MRLM NIL=
200806080100 METAR MRLM NIL=
200806080200 METAR MRLM NIL=
200806080300 METAR MRLM NIL=
200806080400 METAR MRLM NIL=
200806080500 METAR MRLM NIL=
200806080600 METAR MRLM NIL=
200806080700 METAR MRLM NIL=
200806080800 METAR MRLM NIL=
200806080900 METAR MRLM NIL=
200806081000 METAR MRLM NIL=
200806081100 METAR MRLM NIL=
200806081200 METAR MRLM 081200Z 00000KT 9999 FEW026 BKN230 24/22 A2985 RMK FEW090 CB RN DST NW N HZ ARND=
200806081300 METAR MRLM 081300Z 00000KT 9999 FEW030 BKN230 25/23 A2986 CB RN DST NW N FEW090 HZ ARND=
200806081400 METAR MRLM 081400Z 21003KT 9999 FEW030 BKN230 26/23 A2986 FEW080 HZY=
200806081500 METAR MRLM 081500Z 02004KT 9999 FEW030 BKN230 29/23 A2988 CB RN DST NW N NE TRACE SCT HZY=
200806081600 METAR MRLM 081600Z 36004KT 9999 FEW030 BKN230 29/23 A2988 RMK TRACE AC CB RN DST NW N E HZY=
200806081700 METAR MRLM 081700Z 01005KT 9999 FEW025 BKN230 30/23 A2987 RMK FEW090 CB RN DST NW N NE E HZY=
200806081800 METAR MRLM 081800Z 02006KT 9999 FEW024 BKN230 30/22 A2986 RMK FEW090 CB RN DST ARND TS DST SW HZY=
200806081900 METAR MRLM 081900Z 05015KT 9999 SCT025 SCT080 28/24 A2995 RMK CB RN DST ARND=
200806082000 METAR MRLM 082000Z NIL=
200806082100 METAR MRLM 082100Z 19002KT DZ BKN026 SCT080 27/23 A2983 RMK CB S SW W RN ARND=
200806082200 METAR MRLM 082200Z 22002KT 9999 DZ SCT025 BKN080 25/23 A2983 RMK CB RN SE S SW W TRACE CI=
200806082300 METAR MRLM 082300Z 16002KT 9999 -DZ FEW020 BKN080 25/23 A2982 RMK CB RN SE S SW W TCU N=
200806090000 METAR MRLM 090000Z 00000KT 9999 -DZ SCT030 BKN080 25723 A2983 RMK CB RN DST SE S SW W=
200806090100 METAR MRLM NIL=
200806090200 METAR MRLM NIL=
200806090300 METAR MRLM NIL=
200806090400 METAR MRLM NIL=
200806090500 METAR MRLM NIL=
200806090600 METAR MRLM NIL=
200806090700 METAR MRLM NIL=
200806090800 METAR MRLM NIL=
200806090900 METAR MRLM NIL=
200806091000 METAR MRLM NIL=
200806091100 METAR MRLM NIL=
200806091200 METAR MRLM NIL=
200806091300 METAR MRLM 091300Z 23003KT CAVOK 24/22 A2988 RMK SCT090 SCT130 CB RNNE HZ ARND=
200806091400 METAR MRLM 091400Z 21005KT 9999 FEW020 BKN130 27/23 A2990 RMK FEW090 CB RN N NE HZ LEVE ARND=
200806091500 METAR MRLM 091500Z 27003KT 9999 SCT035 BKN120 29/22 A2991 RMK CB RN DST NW N NE E HZ ARND=
200806091600 METAR MRLM 091600Z 36010KT 9999 FEW030 BKN130 29/23 A2991 RMK CB RN DST NW N NE E HZ ARND=
200806091700 METAR MRLM 091700Z 05006KT 9999 SCT025 BKN240 29/24 A2991 RMK CB RN NW N NE E HZ ARND=
200806091800 METAR MRLM 091800Z 03007KT 9999 BKN025 SCT140 29/24 A2990 RMK CB RN N RN W HZ ARND=
200806091900 METAR MRLM 091900Z 01011KT 9999 BKN025 SCT140 29/24 A2988 RMK CB RN N S SW W TRACE CI HZ ARND=
200806092000 METAR MRLM NIL=
200806092100 METAR MRLM 092100Z 02005KT 9999 +DZ SCT018 BKN090 28/24 A2984 CB RN S W=
200806092200 METAR MRLM 092200Z 05005KT 9999 +DZ SCT020 BLN090 27/23 A2984 RN E S W=
200806092300 METAR MRLM 092300Z 20003KT 9999 -DZ BKN010 SCT090 26/24 A2986 VSBY S W 8KM DUE VCSH=
200806100000 METAR MRLM 100000Z 23004KT 8000 RA SCT010 OVC090 26/24 A2989 VSBY E UNL=
200806100100 METAR MRLM NIL=
200806100200 METAR MRLM NIL=
200806100300 METAR MRLM NIL=
200806100400 METAR MRLM NIL=
200806100500 METAR MRLM NIL=
200806100600 METAR MRLM NIL=
200806100700 METAR MRLM NIL=
200806100800 METAR MRLM NIL=
200806100900 METAR MRLM NIL=
200806101000 METAR MRLM NIL=
200806101100 METAR MRLM NIL=
200806101200 METAR MRLM 101200Z NIL=
200806101300 METAR MRLM 101300Z 26005KT CAVOK 26/23 A2989 FEW120 SCT270 TRAZAS CU CB/RN N HZY=
200806101400 METAR MRLM 101400Z 28006KT CAVOK 29/23 A2992 FEW140 SCT270 RMK TRACE CU CB RN N HZY=
200806101500 METAR MRLM 101500Z 30008KT 9999 FEW032 SCT140 29/23 A2994 FEW270 CB RN N HZY=
200806101600 METAR MRLM 101600Z 35007KT 9999 FEW030 BKN270 30/23 A2993 TRAZAS AC CB RN N=
200806101700 METAR MRLM 101700Z 36012KT 9999 FEW030 SCT280 29/23 A2992 FEW110 CB RN N FEW110 HZY=
200806101800 METAR MRLM NIL=
200806101900 METAR MRLM 101900Z 03008KT 9999 BKN020 28/24 A2988 RN W S FEW280 HZY=
200806102000 METAR MRLM NIL=
200806102100 METAR MRLM 102100Z 05004KT 9999 SCT025 BKN140 28/24 A2083 RMK FEW280 CB RN DST S HZ LGT ARND=
200806102200 METAR MRLM 102200Z 03005KT 999 FEW025 BKN140 29/24 A2981 RMK SCT280 CB RN DST S W=
200806102300 METAR MRLM 102300Z 36007KT 9999 BKN020 SCT140 28/24 A2983 RMK FEW280 CB RN DST S W=
200806110000 METAR MRLM 110000Z 31006KT 9999 FEW020 BKN080 28/25 A2985 RMK CB RN DST S W TRACE CI=
200806110100 METAR MRLM NIL=
200806110200 METAR MRLM NIL=
200806110300 METAR MRLM NIL=
200806110400 METAR MRLM NIL=
200806110500 METAR MRLM NIL=
200806110600 METAR MRLM NIL=
200806110700 METAR MRLM NIL=
200806110800 METAR MRLM NIL=
200806110900 METAR MRLM NIL=
200806111000 METAR MRLM NIL=
200806111100 METAR MRLM NIL=
200806111200 METAR MRLM 111200Z 21003KT 9999 FEW025 BKN240 25/23 A2990 CB DST NW HZ ARND=
200806111300 METAR MRLM 111300Z 22002KT 9999 FEW025 BKN230 27/24 A2990 RMK TRACE AC CB LINE DST W NW N NE HZ ARND=
200806111400 METAR MRLM 111400Z 16002KT 9999 FEW025 BKN240 29/23 A2989 RMK CB DST NW N NE HZ ARND=
200806111500 METAR MRLM 111500Z 04003KT 9999 FEW025 BKN240 29/24 A2989 RMK CB DST NW N NE HZ ARND=
200806111600 METAR MRLM 111600Z 02004KT 9999 FEW025 BKN240 30/23 A2989 RMK CB DST NW N NE E HZ ARND=
200806111700 METAR MRLM 111700Z 36007KT 9999 FEW025 BKN240 30/24 A2987 RMK CB RN DST NW N NE TRACE AC HZ ARND=
200806111800 METAR MRLM 111800Z 35009KT 9999 FEW025 BKN240 30/24 A2985 RMK CB DST NW N SW HZ ARND=
200806111900 METAR MRLM 111900Z 36006KT 9999 FEW025 BKN240 30/24 A282 RMK CB DST HZ ARND=
200806112000 METAR MRLM 112000Z NIL=
200806112100 METAR MRLM 112100Z 36007KT 9999 SCT025 BKN240 29/25 A2978 RMK CB DST HZ ARND=
200806112200 METAR MRLM 112200Z 01005KT 9999 SCT025 SCT240 29/24 A2976 RMK CB DST ARND RN DST SE SW HZ ARND=
200806112300 METAR MRLM 112300Z 36004KT 9999 BKN025 SCT240 29/24 A2981 RMK CB RN DST SE S SW=
200806120000 METAR MRLM 120000Z 02004KT 9999 SCT025 BKN240 28/24 A2982 RMK CB RN DST SE S SW TCU DST NE HZ ARND=
200806120100 METAR MRLM NIL=
200806120200 METAR MRLM NIL=
200806120300 METAR MRLM NIL=
200806120400 METAR MRLM NIL=
200806120500 METAR MRLM NIL=
200806120600 METAR MRLM NIL=
200806120700 METAR MRLM NIL=
200806120800 METAR MRLM NIL=
200806120900 METAR MRLM NIL=
200806121000 METAR MRLM NIL=
200806121100 METAR MRLM NIL=
200806121200 METAR MRLM 101200Z 12002KT 9999 SCT030 BKN080 24/23 A2984 REDZ RMK CB RN DIST ARND=
200806121300 METAR MRLM 121300Z 11008KT 9999 DZ FEW025 BKN080 25/24 A2984 RMK CB RN DST W NW N NE=
200806121400 METAR MRLM 121400Z 10003KT 9999 SCT030 BKN080 26/23 A2985 REDZ RMK CB RN DST W NW N NE=
200806121500 METAR MRLM 121500Z 07003KT 9999 SCT035 BKN090 28/23 A2987 RMK CB RN DST W NW N NE=
200806121600 METAR MRLM 121600Z 27006KT 9999 SCT030 SCT090 28/24 A2990 RMK CB RN DST W NW N NE HZ ARND=
200806121700 METAR MRLM 121700Z 29006KT 9999 BKN030 SCT090 28/24 A2989 RMK CBRN DST W NW NE N=
200806121800 METAR MRLM 121800Z 28006KT 9999 BKN026 SCT080 28/24 A2987 RMK CB RN DST W NW N NE=
200806121900 METAR MRLM 121900Z 30005KT 9999 FEW025 BKN090 28/24 A2984 RMK RN DST W NW N NE HZ ARND=
200806122000 METAR MRLM 122000Z NIL=
200806122100 METAR MRLM 122100Z 32006KT 9999 SCT025 SCT035 28/24 A2981 RMK TCU RB DST SW W HZ ARND=
200806122200 METAR MRLM 122200Z 29005KT 9999 SCT025 BKN090 28/24 A2981 TCU RN DST ARND HZY=
200806122300 METAR MRLM 122300Z 27004KT 9999 BKN026 SCT080 28/24 A2982 RMK RN DST ARND HZY=
200806130000 METAR MRLM 130000Z 00000KT 9999 -DZ BKN025 27/24 A2984 RMK RN DST ARND FEW080 CB DST NE=
200806130100 METAR MRLM NIL=
200806130200 METAR MRLM NIL=
200806130300 METAR MRLM NIL=
200806130400 METAR MRLM NIL=
200806130500 METAR MRLM NIL=
200806130600 METAR MRLM NIL=
200806130700 METAR MRLM NIL=
200806130800 METAR MRLM NIL=
200806130900 METAR MRLM NIL=
200806131000 METAR MRLM NIL=
200806131100 METAR MRLM NIL=
200806131200 METAR MRLM NIL=
200806131300 METAR MRLM 131300Z 23007KT CAVOK 26/23 A2988 RMK TRACE CU SCT090 SCT280 RN DST SE HZ ARND=
200806131400 METAR MRLM 131400Z 23004KT CAVOK 28/24 A2989 RMK TRACE CU SCT140 BKN280 HZ ARND=
200806131500 METAR MRLM 131500Z 11003KT 110V210 9999 FEW038 BKN280 31/24 A2989 RMK TCU DST NW NE HZY FEW140=
200806131600 METAR MRLM 131600Z 02008KT 9999 SCT030 SCT280 30/24 A2990 RMK FEW140 CB DST NW HZY=
200806131700 METAR MRLM 131700Z 03005KT 9999 FEW028 BKN080 30/23 A2988 RMK FEW280 CB DST N NW HZ ARND=
200806131800 METAR MRLM 131800Z 01007KT 9999 FEW030 SCT280 30/24 A2987 RMK CB DST NW NE E FEW140 LGT HZ ARND=
200806131900 METAR MRLM 131900Z 01012KT 9999 FEW025 SCT140 30/25 A2986 RMK CB RN DST NE E LGT HZ ARND FEW280=
200806132000 METAR MRLM NIL=
200806132100 METAR MRLM 132100Z 36007KT 9999 FEW028 BKN110 29/24 A2982 RK FEW280 CB RN E HZ ARND=
200806132200 METAR MRLM 132200Z 02006KT 9999 DZ FEW025 OVC110 29/24 A2982 RMK TRACE CI CB RN DST E SE HZ ARND=
200806132300 METAR MRLM 132300Z 01004KT 9999 BKN025 2/24 A2982 REDZ TRACE AC RN HZ ARND FEW270=
200806140000 METAR MRLM 140000Z 31005KT 9999 BKN020 28/24 A2982 RMK RN DST S W HZ=
200806140100 METAR MRLM NIL=
200806140200 METAR MRLM NIL=
200806140300 METAR MRLM NIL=
200806140400 METAR MRLM NIL=
200806140500 METAR MRLM NIL=
200806140600 METAR MRLM NIL=
200806140700 METAR MRLM NIL=
200806140800 METAR MRLM NIL=
200806140900 METAR MRLM NIL=
200806141000 METAR MRLM NIL=
200806141100 METAR MRLM NIL=
200806141200 METAR MRLM NIL=
200806141300 METAR MRLM 141300Z 21004KT 9999 DZ FEW015 SCT080 BKN140 24/23 A2988 RK RN HZ ARND TRACE CI=
200806141400 METAR MRLM 141400Z 25003KT 9999 RA BKN015 SCT140 25/23 A2990 RMK VIS 8000 W VCSH=
200806141500 METAR MRLM 141500Z 24007KT 9999 FEW015 OVC080 27/24 A2991 RERA RMK RN S W N HZ ARND=
200806141600 METAR MRLM 141600Z 28010KT 9999 FEW032 SCT140 30/23 A2988 RMK FEW280 TCU E HZ ARND=
200806141700 METAR MRLM 141700Z 28008KT 9999 FEW040 31/23 A2986 RMK FEW140 FEW280 CB RN NE HZ ARND=
200806141800 METAR MRLM 141800Z 34011KT 9999 FEW045 31/23 A2983 RMK FWE140 FEW280 CB RN E HZ ARND=
200806141900 METAR MRLM 141900Z 34015KT 9999 FEW035 SCT130 31/24 A2982 RMK FEW280 CB DST S SW NE RN NE HZ ARND=
200806142000 METAR MRLM NIL=
200806142100 METAR MRLM 142100Z 02012KT 999 SCT025 BKN100 29/24 A2979 RN HZ ARND=
200806142200 METAR MRLM NIL=
200806142300 METAR MRLM 142300Z 01008KT 9999 SCTG018 BKN090 27/24 A2981 RN E S W=
200806150000 METAR MRLM 150000Z 29002KT 9999 FEW015 BKN090 27/24 A2982 RN E S W CB SW W HZY=
200806150100 METAR MRLM NIL=
200806150200 METAR MRLM NIL=
200806150300 METAR MRLM NIL=
200806150400 METAR MRLM NIL=
200806150500 METAR MRLM NIL=
200806150600 METAR MRLM NIL=
200806150700 METAR MRLM NIL=
200806150800 METAR MRLM NIL=
200806150900 METAR MRLM NIL=
200806151000 METAR MRLM NIL=
200806151100 METAR MRLM NIL=
200806151200 METAR MRLM NIL=
200806151300 METAR MRLM 151300Z 26003KT 9999 FEW030 BKN090 26/23 A2985 RN SSW SW W HZY=
200806151400 METAR MRLM 151400Z 27006KT 9999 FEW030 BKN090 27/23 A2986 RN SSW SW HZY=
200806151500 METAR MRLM 151500Z 25005KT 9999 FEW030 BKN090 28/23 A2986 FEW230 HZY=
200806151600 METAR MRLM 151600Z 28005KT 9999 FEW025 BKN230 31/23 A2984 FEW100 HZY=
200806151700 METAR MRLM 151700Z 35009KT 9999 FEW025 BKN230 31/24 A2983 FEW100 HZY=
200806151800 METAR MRLM NIL=
200806151900 METAR MRLM 151900Z 23012KT 9999 SCT030 27/22 A2993=
200806152000 METAR MRLM 152000Z NIL=
200806152100 METAR MRLM 152100Z 02005KT 9999 FEW025 BKN250 30/24 A2975 RMK TRACE AC TCU DST SW/SE=
200806152200 METAR MRLM NIL=
200806152300 METAR MRLM 152300Z 03004KT 9999 FEW025 SCT100 29/24 A2978 RMK SCT250 CB DST SW/SE/S RN SE/S=
200806160024 METAR MRLM 160024Z 03003KT 9999 FEW025 BKN250 29/23 A2980 RMK FEW090 CB DST SE/S/SW TCU NE=
200806160100 METAR MRLM NIL=
200806160200 METAR MRLM NIL=
200806160300 METAR MRLM NIL=
200806160400 METAR MRLM NIL=
200806160500 METAR MRLM NIL=
200806160600 METAR MRLM NIL=
200806160700 METAR MRLM NIL=
200806160800 METAR MRLM NIL=
200806160900 METAR MRLM NIL=
200806161000 METAR MRLM NIL=
200806161100 METAR MRLM NIL=
200806161200 METAR MRLM 161200Z 20005KT 9999 SCT030 SCT090 23/22 A2987 RETS CB RN W NW N NE E FEW230 HZ ARND=
200806161300 METAR MRLM 161300Z 23003KT 9999 SCT030 SCT080 24/22 A2990 RMK CB RN DS W NW N SE E HZ ARND=
200806161400 METAR MRLM 161400Z 00000KT 9999 BKN030 SCT080 25/23 A2991 RMK CB RN DST W NW N NE HZ ARND=
200806161500 METAR MRLM 161500Z 28003KT 9999 SCT030 SCT230 27/23 A2999 RMK FEW090 CB DST N NE E=
200806161600 METAR MRLM 161600Z 30002KT 9999 SCT030 BKN090 29/23 A2990 RMK CB RN DST N NE HZ ARND=
200806161700 METAR MRLM 161700Z 36005KT 9999 FEW030 BKN090 29/23 A2980 RMK RN DST NW N HZ ARND=
200806161800 METAR MRLM 161800Z 01008KT 9999 FEW025 BKN090 30/23 A2988 RMK FEW230 TCU DST SE S RN DST NW N NE=
200806161900 METAR MRLM 161900Z 36008KT 9999 FEW026 BKN250 30/24 Z2985 RMK FEW250 CB RN DST N SW HZ ARND=
200806162000 METAR MRLM 162000Z NIL=
200806162100 METAR MRLM 162100Z 35004KT 9999 FEW026 BKN250 30/24 A2981 RMK CB DST S TRACE AC HZ ARND=
200806162200 METAR MRLM 162200Z 01004KT 9999 FEW026 BKN250 30/24 A2981 RMK CB DST SE SSW TRACE AC HZ ARND=
200806162300 METAR MRLM 162300Z 01003KT 9999 FEW026 BKN230 29/23 A2982 RMK CB DST S W HZ ARND=
200806170000 METAR MRLM 170000Z 34003KT 9999 FEW026 BKN230 29/24 A2984 RMK CB DST S W HZ ARND TRACE AC=
200806170100 METAR MRLM NIL=
200806170200 METAR MRLM NIL=
200806170300 METAR MRLM NIL=
200806170400 METAR MRLM NIL=
200806170500 METAR MRLM NIL=
200806170600 METAR MRLM NIL=
200806170700 METAR MRLM NIL=
200806170800 METAR MRLM NIL=
200806170900 METAR MRLM NIL=
200806171000 METAR MRLM NIL=
200806171100 METAR MRLM NIL=
200806171200 METAR MRLM 171200Z NIL=
200806171300 METAR MRLM 171300Z 23005KT 9999 RA BKN030 SCT090 24/23 A2991 RMK TCU DST N NE E=
200806171400 METAR MRLM 171400Z 21007KT 9999 +DZ SCT015 BKN080 24/23 A2992 RMK CB DST NE HZ ARND=
200806171500 METAR MRLM 171500Z 21007KT 9999 SCT025 BKN090 27/23 A2994 REDZ RMK CB DST QUAD N RN DST NE W HZ ARND=
200806171600 METAR MRLM 171600Z 24008KT 9999 SCT025 SCT140 29/24 A2993 RMK CB RN DST QUAD N TRACE CI DZ DST W HZ ARND=
200806171700 METAR MRLM 171700Z 27008KT CAVOK 31/23 A2991 RMK TRACE CU SCT110 BKN280 CB RN DST QUAD N=
200806171800 METAR MRLM 171800Z 02008KT 020V240 9999 FEW038 SCT140 31/24 A2990 RMK CB DST QUAD N CB DST S FEW280 HZ LGT ARND=
200806171900 METAR MRLM 171900Z 01009KT 9999 FEW035 SCT280 31/24 A2987 RMK FEW140 CB DST N NE HZ LGT ARND=
200806172000 METAR MRLM 172000Z NIL=
200806172100 METAR MRLM 172100Z 01007KT 999 FEW035 SCT280 31/24 A2983 RMK CB DST S LGT HZ ARND FEW140=
200806172200 METAR MRLM 172200Z 36007KT 9999 FEW035 SCT280 30/23 A2983 RMK CB DST S W QD RN DST SW W FEW140 HZY=
200806172300 METAR MRLM 172300Z 35007KT 9999 FEW030 SCT090 30/24 A2984 RMK FEW280 CB DST S W QUADS RN SW W HZY=
200806180000 METAR MRLM 180000Z 29003KT CAVOK 28/24 A2985 RMK SCT280 RN DST W HZY=
200806180100 METAR MRLM NIL=
200806180200 METAR MRLM NIL=
200806180300 METAR MRLM NIL=
200806180400 METAR MRLM NIL=
200806180500 METAR MRLM NIL=
200806180600 METAR MRLM NIL=
200806181000 METAR MRLM NIL=
200806181100 METAR MRLM NIL=
200806181200 METAR MRLM NIL=
200806181300 METAR MRLM NIL=
200806181400 METAR MRLM NIL=
200806181500 METAR MRLM 181500Z 32003KT 9999 FEW025 OVC090 29/23 A2989 RMK CBS RN DST N E QDS TRACE CI HZY=
200806181600 METAR MRLM 181600Z 35012KT 9999 FEW025 OVC090 29/24 A2990 RMK CBS RN DST N E QDS TRACE CI=
200806181700 METAR MRLM 181700Z 30010KT 8000 DZ SCT015 BKN090 26/24 A2991 RMK VIS UNL S NW=
200806181800 METAR MRLM 181800Z 27002KT 8000 -RA BKN015 SCT090 26/24 A2991=
200806181900 METAR MRLM 181900Z 21002KT 9999 FEW015 BKN090 28/25 A2987 RERA DZ SE HZY=
200806182000 METAR MRLM 182000Z NIL=
200806182100 METAR MRLM 182100Z 01006KT 9999 FEW025 SCT140 31/24 A2981 RMK TRACE CI HZ ARND=
200806182200 METAR MRLM 182200Z 36007KT 9999 FEW030 BKN110 30/24 A2980 RMK TRACE CI HZ ARND=
200806182300 METAR MRLM 182300Z 02004KT 9999 FEW030 BKN10 29/24 A2982 RMK TRACE CI HZ LEVE ARND=
200806190000 METAR MRLM NIL=
200806190100 METAR MRLM NIL=
200806190200 METAR MRLM NIL=
200806190300 METAR MRLM NIL=
200806190400 METAR MRLM NIL=
200806190500 METAR MRLM NIL=
200806190600 METAR MRLM NIL=
200806190700 METAR MRLM NIL=
200806190800 METAR MRLM NIL=
200806190900 METAR MRLM NIL=
200806191000 METAR MRLM NIL=
200806191100 METAR MRLM NIL=
200806191200 METAR MRLM 191200Z NIL=
200806191300 METAR MRLM 191300Z 20003KT CAVOK 27/23 A2986 RMK FEW100 TRACE CU CI HZ ARND=
200806191400 METAR MRLM 191400Z 00000KT CAVOK 30/24 A2986 RMK FEW100 TRACE CU CI HZ ARND=
200806191500 METAR MRLM 191500Z 04003KT 9999 FEW026 30/24 A2987 RMK FEW100 FEW250 HZ ARND=
200806191600 METAR MRLM 191600Z 02006KT 999 FEW026 SCT240 30/24 A2987 RMK CB NW N HZ ARND=
200806191700 METAR MRLM 191700Z 02006KT 9999 FEW026 BKN230 30/24 A2987 RMK CB N NE HZ ARND=
200806191800 METAR MRLM 191800Z 01009KT 9999 FEW025 SCT120 31/25 A2986 RMK FEW240 TCU DST W NW SW HZ ARND=
200806191900 METAR MRLM 191900Z 01006KT 9999 FEW025 BKN120 31/24 A2984 RMK CB SW HZ ARND=
200806192000 METAR MRLM NIL=
200806192100 METAR MRLM 192100Z 02007KT 9999 FEW025 BKN240 30/24 A2978 CB N HZY=
200806192200 METAR MRLM 192200Z 03006KT 9999 FEW025 BKN240 30/24 A2978 HZY=
200806192300 METAR MRLM 192300Z 36004KT 9999 FEW025 BKN240 30/24 A2979 CB W FEW100 HZY=
200806200000 METAR MRLM 200000Z 34006KT 9999 SCT025 SCT240 29/24 A2981 FEW100 CB SSW SW HZY=
200806200100 METAR MRLM NIL=
200806200200 METAR MRLM NIL=
200806200300 METAR MRLM NIL=
200806200400 METAR MRLM NIL=
200806200500 METAR MRLM NIL=
200806200600 METAR MRLM NIL=
200806200700 METAR MRLM NIL=
200806200800 METAR MRLM NIL=
200806200900 METAR MRLM NIL=
200806201000 METAR MRLM NIL=
200806201100 METAR MRLM NIL=
200806201200 METAR MRLM 201200Z 20004KT 9999 BKN025TCU 24/23 A2988 RMK RN DST S/SW/W TRAZAS AC/CI HZ ARNS=
200806201300 METAR MRLM 201300Z 20002KT 9999 SCT025 SCT080 27/24 A2988 TCU N HZ ARND=
200806201400 METAR MRLM 201400Z 00000KT 9999 FEW025 BKN090 29/24 A2989 HZY=
200806201500 METAR MRLM 201500Z 06003KT 9999 FEW025 30/24 A2990 FEW090 FEW230 TCU N HZY=
200806201600 METAR MRLM NIL=
200806201700 METAR MRLM 201700Z NIL=
200806201800 METAR MRLM 201800Z 06004KT 9999 FEW025 BKN230 31/24 A2986 CB NW N NE HZY=
200806201900 METAR MRLM 201900Z 03008KT 9999 FEW025 BKN230 31/24 A2985 CB NW N NE RN N NE FEW080 HZY=
200806202000 METAR MRLM 202000Z NIL=
200806202100 METAR MRLM 202100Z 36012KT 9999 FEW018CB BKN024 29/25 A2982 RMK CB RN DST W NW N FEW090 HZ ARND=
200806202200 METAR MRLM 202200Z 32006KT 9999 SCT025 BKN090 28/24 A2981 RMK CB RN DST W NW N E TRACE CI HZ ARND=
200806202300 METAR MRLM 202300Z 31007KT 9999 FEW015 SCT035 29/24 A2984 RMK SCT080 CB RN DST NW N NE=
200806210000 METAR MRLM 210000Z 33007KT 9999 BKN020 SCT080 28/25 A2986 RMK CB RN DST W NW NE HZ ARND=
200806210100 METAR MRLM NIL=
200806210200 METAR MRLM NIL=
200806210300 METAR MRLM NIL=
200806210400 METAR MRLM NIL=
200806210500 METAR MRLM NIL=
200806210600 METAR MRLM NIL=
200806210700 METAR MRLM NIL=
200806210800 METAR MRLM NIL=
200806210900 METAR MRLM NIL=
200806211000 METAR MRLM NIL=
200806211100 METAR MRLM NIL=
200806211200 METAR MRLM NIL=
200806211300 METAR MRLM 211300Z 19003KT 8000 VCSH FEW007 OVC015TCU 26/24 A2990 RMK VIS E UNL=
200806211400 METAR MRLM 211400Z 14008KT 060V140 9999 VCSH OVC015TCU 27/24 A2993 RMK VIS NW 8000 DUE RASH HZ ARND=
200806211500 METAR MRLM 211500Z 24005KT 9999 OVC015TCU 28/25 A2994 RMK HZ ARND=
200806211600 METAR MRLM 211600Z 19003KT 19003KT 9999 OVC035TCU 31/24 A2992 RMK RN N E HZ ARND=
200806211700 METAR MRLM 211700Z 0 006KT 9999 BKN025TCU 30/25 A2991 RMK TRACE AC RN NE E SW HZ ARND=
200806211800 METAR MRLM 211800Z 02004KT 9999 BKN025 31/26 A2988 RMK TCU DST SE HZ ARND=
200806211900 METAR MRLM 211900Z 01006KT 9999 BKN028 31/25 A2987 RMK FEW090 RN N NE E HZ ARND=
200806212000 METAR MRLM 212000Z NIL=
200806212100 METAR MRLM 212100Z 02007KT 9999 VCSH BKN028 30/25 A2984 RMK VIS 8000E SE HZ ARND=
200806212200 METAR MRLM 212200Z 17004KT 9999 OVC020 28/24 A2984 RMK VIS 8000 QUAD S TRACE AC CI HZ ARND=
200806212300 METAR MRLM 212300Z 18006KT 8000 +DZ BKN010 26/24 A2985 RMK VIS 9999 QUAD N HZ ARND=
200806220000 METAR MRLM 220000Z 21004KT 9999 FEW010 BKN090 26/24 A2985 RMK CB RN DST SE S SW W FEW280 HZ LGT ARND=
200806220100 METAR MRLM NIL=
200806220200 METAR MRLM NIL=
200806220300 METAR MRLM NIL=
200806220400 METAR MRLM NIL=
200806220500 METAR MRLM NIL=
200806220600 METAR MRLM NIL=
200806220700 METAR MRLM NIL=
200806220800 METAR MRLM NIL=
200806220900 METAR MRLM NIL=
200806221000 METAR MRLM NIL=
200806221100 METAR MRLM NIL=
200806221200 METAR MRLM NIL=
200806221300 METAR MRLM 221300Z 23005KT CAVOK 27/24 A2985 RMK SCT110 SCT280 HZ ARND CB RN DST N=
200806221400 METAR MRLM 221400Z 23004KT CAVOK 28/23 A2987 RMK SCT120 BKN280 CB RN DST NW TCU RN DST N HZ ARND TRACE CU=
200806221500 METAR MRLM 221500Z 36005KT 260V360 CAVOK 31/25 A2987 RMK BKN100 FEW280 TRACE CU HZ ARND CB RN DST NE=
200806221600 METAR MRLM 221600Z 02008KT 9999 FEW030 BKN090 30/24 A2986 RMK SCT280 CB RN DST QUAD N HZ LGT ARND=
200806221700 METAR MRLM 221700Z 35009KT 9999 FEW028 BKN110 29/24 A2985 RMK SCT270 CB RN DST QUAD N HZ LGT ARND=
200806221800 METAR MRLM 221800Z 36008KT 9999 FEW030 SCT080 BKN280 31/24 A2984 RMK CB DST NW HZ LGT ARND=
200806221900 METAR MRLM 221900Z 36009KT 9999 FEW028 SCT120 BKN280 30/24 A2981 RMK CB DST NE HZ LGT ARND=
200806222000 METAR MRLM 222000Z NIL=
200806222100 METAR MRLM NIL=
200806222200 METAR MRLM 222200Z 35008KT 9999 FEW030 SCT120 BKN280 30/24 A2977 RMK CBS RN DST N NE LGT HZ ARND=
200806222300 METAR MRLM 222300Z 31007KT 9999 FEW030 SCT150 30/24 A2980 RMK FEW120 SCT270 CBS RN DST N QUAD=
200806230000 METAR MRLM 230000Z 27003KT 9999 -DZ VCSH SCT015 SCT120 27/24 A2980 RERA RMK VIS NW 8KMS=
200806230100 METAR MRLM NIL=
200806230200 METAR MRLM NIL=
200806230300 METAR MRLM NIL=
200806230400 METAR MRLM NIL=
200806230500 METAR MRLM NIL=
200806230600 METAR MRLM NIL=
200806230700 METAR MRLM NIL=
200806230800 METAR MRLM NIL=
200806230900 METAR MRLM NIL=
200806231000 METAR MRLM NIL=
200806231100 METAR MRLM NIL=
200806231200 METAR MRLM NIL=
200806231300 METAR MRLM 231300Z NIL=
200806231400 METAR MRLM 231400Z 24005KT 9999 BKN026 SCT080 25/24 A2987 CBS RN DST ARND TS DST N=
200806231500 METAR MRLM 231500Z 29004KT 9999 BKN028 SCT090 25/23 A2987 RMK CB RN DST ARND TRACE CI=
200806231600 METAR MRLM 231600Z 32002KT 9999 DZ BKN030 SCT090 25/23 A2988 RMK CB RN DST ARND=
200806231700 METAR MRLM 231700Z 00000KT 7000 DZ SCT020 SCT080 25/24 A2987 RMK CB DST NW N NE RN ARND=
200806231800 METAR MRLM 231800Z 22003KT 8000 DZ BKN025 SCT080 25/24 A2985 RMK CB DST W NW N NE=
200806231900 METAR MRLM 231900Z 25002KT 8000 -RA SCT025 BKN080 25/24 A2984 RMK CB DST W NW N NE VIS S UNL=
200806232000 METAR MRLM 232000Z NIL=
200806232100 METAR MRLM 232100Z 26002KT 8000 +DZ SCT015 SCT080 26/24 A2983 RERA RMK CB W NW N NE RN ARND=
200806232200 METAR MRLM 232200Z 27002KT 9999 SCT020 BKN080 26/24 A2983 REDZ RN HZ ARND=
200806232300 METAR MRLM 232300Z 25002KT 9999 SCT030 BKN090 25/24 A2984 RMK RN NW HZ ARND=
200806240000 METAR MRLM 240000Z 00000KT 9999 FEW024 BKN090 25/24 A2985 RMK CB DST W N RN DST W NW N NE HZ ARND=
200806240100 METAR MRLM NIL=
200806240200 METAR MRLM NIL=
200806240300 METAR MRLM NIL=
200806240400 METAR MRLM NIL=
200806240500 METAR MRLM NIL=
200806240600 METAR MRLM NIL=
200806240700 METAR MRLM NIL=
200806240800 METAR MRLM NIL=
200806240900 METAR MRLM NIL=
200806241000 METAR MRLM NIL=
200806241100 METAR MRLM NIL=
200806241200 METAR MRLM 241200Z NIL=
200806241300 METAR MRLM 241300Z 24002KT 9999 FEW030 BKN090 25/23 A2992 RMK CB RN W NW N NE TRACE CI HZ ARND=
200806241400 METAR MRLM 241400Z 21003KT 9999 SCT035 BKN090 26/23 A2993 RMK CB WNW NW N NE RN NE E TRACE CI HZ ARND=
200806241500 METAR MRLM 241500Z 00000KT 9999 SCT030 BKN080 27/23 A2994 RMK CB RN N NE E HZ ARND=
200806241600 METAR MRLM 241600Z 02004KT 9999 SCT030 BKN080 27/23 A2995 RMK CB NW N NE HZ ARND=
200806241700 METAR MRLM 241700Z 36009KT 9999 FEW023 BKN130 26/23 A2995 RMK CB NW N NE E TS NW RN ARND=
200806241800 METAR MRLM NIL=
200806241900 METAR MRLM 241900Z 03003KT 9999 DZ SCT015 BKN080 26/24 A2983 RN HZ ARND=
200806242000 METAR MRLM NIL=
200806242100 METAR MRLM 242100Z 00000KT 999 FEW024 BKN090 28/23 A2989 FEW220 CB RN W N NE HZY=
200806242200 METAR MRLM 242200Z 00000KT 9999 FEW024 BKN090 27/23 A2990 RN W NW N NE HZY=
200806242300 METAR MRLM 242300Z 35004KT 9999 BKN026 SCT090 27/22 A2992 RN ARND=
200806250000 METAR MRLM 250000Z 22002KT 999 SCT026 BKN090 26/23 A2992 CB/RN W NW N NE HZY=
200806250100 METAR MRLM NIL=
200806250200 METAR MRLM NIL=
200806250300 METAR MRLM NIL=
200806250400 METAR MRLM NIL=
200806250500 METAR MRLM NIL=
200806250600 METAR MRLM NIL=
200806250700 METAR MRLM NIL=
200806250800 METAR MRLM NIL=
200806250900 METAR MRLM NIL=
200806251000 METAR MRLM NIL=
200806251100 METAR MRLM NIL=
200806251200 METAR MRLM NIL=
200806251300 METAR MRLM NIL=
200806251400 METAR MRLM 251400Z 19009KT 7000 RA FEW005 SCT020 BKN090 23/22 A3000 RETS=
200806251500 METAR MRLM 251500Z 21006KT 7000 -RA SCT015 BKN090 23/21 A2999=
200806251600 METAR MRLM 251600Z 20010KT 9999 -DZ OVC090 23/22 A2995 CB N NE E=
200806251700 METAR MRLM 251700Z 33007KT CAVOK 24/22 A2991 TRACE AC BKN100 SCT270 REDZ CB RN N QUAD=
200806251800 METAR MRLM 251800Z 28006KT CAVOK 27/23 A2987 FEW130 BKN150 SCT270 CB RN N E=
200806251900 METAR MRLM 251900Z 06004KT CAVOK 28/23 A2989 FEW110 BKN150 FEW270 CB RN DST N E=
200806252000 METAR MRLM 252000Z NIL=
200806252100 METAR MRLM 252100Z 07004KT 9999 SCT023 OVC100 28/23 A2989 RMK CB RN DST N NE E HZ LGT ARND=
200806252200 METAR MRLM 252200Z 08007KT 9999 DZ OVC100 27/23 A2986 RMK TRACE SC AC CB RN DST NE E=
200806252300 METAR MRLM 252300Z 07003KT 9999 -DZ BKN015 26/24 A2986 RMK CB RN DST NE E FEW140 CHECK TEXT NEW ENDING ADDED KATLYTAA=
200806260000 METAR MRLM 260000Z 26007KT 9999 DZ OVC120 26/24 A2982 RMK CB DST N E RN DST E TRACE AC HZ LGT ARND=
200806260100 METAR MRLM NIL=
200806260200 METAR MRLM NIL=
200806260300 METAR MRLM NIL=
200806260400 METAR MRLM NIL=
200806260500 METAR MRLM NIL=
200806260600 METAR MRLM NIL=
200806260700 METAR MRLM NIL=
200806260800 METAR MRLM NIL=
200806260900 METAR MRLM NIL=
200806261000 METAR MRLM NIL=
200806261100 METAR MRLM NIL=
200806261200 METAR MRLM NIL=
200806261300 METAR MRLM 261300Z 18004KT 090V180 CAVOK 23/22 A2982 RMK FEW140 TRACE CI CB RN DST N=
200806261400 METAR MRLM 261400Z 16002KT 9999 BKN035 25/22 A2988 RMK FEW00 CB RN N HZ LGT ARND=
200806261500 METAR MRLM 261500Z 22006KT CAVOK 26/24 A2989 RMK BKN080 FEW280 CB RN DST N NE E S DZ W NW=
200806261700 METAR MRLM 261700Z 01004KT CAVOK 28/22 A2987=
200806261800 METAR MRLM NIL=
200806261900 METAR MRLM 261900Z 32007KT CAVOK 29/23 A2987 RMK TRACE SC SCT140 BKN270 HZ ARND=
200806262000 METAR MRLM 262000Z NIL=
200806262100 METAR MRLM 262100Z 36008KT 9999 FEW025 BKN120 29/24 A2980 RMK RN DST SW W FEW280 HZ LGT ARND=
200806262200 METAR MRLM 262200Z 32005KT 9999 FEW022 OVC110 28/24 A2980 RMK TRACE CI RN DST SW HZ LGT ARND=
200806262300 METAR MRLM 262300Z 27003KT 9999 FEW020 SCT090 BKN110 28/24 A2979 RMK CB DST S SW W N NE TRACE CI=
200806270000 METAR MRLM 270000Z 00000KT CAVOK 27/24 A2981 RMK BKN090 SCT130 FEW270 CB DST N NE HZ LGT ARND=
200806270100 METAR MRLM NIL=
200806270200 METAR MRLM NIL=
200806270300 METAR MRLM NIL=
200806270400 METAR MRLM NIL=
200806270500 METAR MRLM NIL=
200806270600 METAR MRLM NIL=
200806270700 METAR MRLM NIL=
200806270800 METAR MRLM NIL=
200806270900 METAR MRLM NIL=
200806271000 METAR MRLM NIL=
200806271100 METAR MRLM NIL=
200806271200 METAR MRLM 271200Z 00000KT CAOK 23/22 A2981 FEW080 BKN230 TRAZAS CU HZY=
200806271300 METAR MRLM 271300Z 24003KT CAVOK 24/23 A2981 RMK BKN090 SCT230 TRACE CU HZ ARND=
200806271400 METAR MRLM 271400Z 26005KT CAVOK 27/23 A2982 RMK SCT090 SCT230 CB RN DST N NW NE HZ ARND=
200806271500 METAR MRLM 271500Z 28003KT CAVOK 28/23 A2985 RMK SCT090 BKN230 HZ ARND CB RN DST NW N NE=
200806271600 METAR MRLM 271600Z 25003KT CAVOK 29/23 A2982 RMK OVC230 TRACE CU AC HZ ARND=
200806271700 METAR MRLM 271700Z 33009KT CAVOK 29/24 A2981 RMK OVC230 TRACE CU HZ ARND=
200806271800 METAR MRLM 271800Z 34010KT 9999 FEW026 BKN230 29/24 A2982 RMK FEW100 HZ ARND=
200806271900 METAR MRLM 271900Z 33012KT 9999 FEW024 BKN230 30/24 A2981 RMK FEW100 RN DST NW N NE HZ ARND=
200806272000 METAR MRLM NIL=
200806272100 METAR MRLM 272100Z 30007KT 9999 BKN024 SCT100 29/24 A2979 TCU/RN ARND HZT=
200806272200 METAR MRLM 272200Z 33009KT 9999 SCT024 BKN090 28/24 A2980 RMK CB DST S SW W RN ARND HZY=
200806272300 METAR MRLM 272300Z 29002KT 9999 BKN024 SCT090 28/24 A2982 CB DST S SW W RN HZ DST ARND=
200806280000 METAR MRLM 280000Z 25002KT 9999 BKN024 SCT090 27/24 A2984 CB RN DST S SW W HZ ARND=
200806280100 METAR MRLM NIL=
200806280200 METAR MRLM NIL=
200806280300 METAR MRLM NIL=
200806280400 METAR MRLM NIL=
200806280500 METAR MRLM NIL=
200806280700 METAR MRLM NIL=
200806280800 METAR MRLM NIL=
200806280900 METAR MRLM NIL=
200806281000 METAR MRLM NIL=
200806281100 METAR MRLM NIL=
200806281200 METAR MRLM 281200Z 23004KT 7000 -RA FEW012 SCT024 24/23 A2985 RMK SCT080 CB DST NW N NE=
200806281300 METAR MRLM 281300Z 21003KT 8000 +DZ SCT025 SCT080 24/23 A2987 RERA CB DST SW NW N NE=
200806281400 METAR MRLM 281400Z 20003KT 8000 DZ BKN024 SCT080 24/23 A2990 RMK CB DST NW N NE E RN ARND=
200806281500 METAR MRLM 281500Z 00000KT 9999 SCT024 SCT080 25/23 A2989 REDZ CB RN DST NW N NE E S E HZ ARND=
200806281600 METAR MRLM 281600Z 12004KT 9999 BKN026 SCT080 26/24 A2988 RMK CB RN DST NW N NE SE HZY=
200806281700 METAR MRLM 281700Z 12009KT 9999 SCT028 SCT230 28/23 A2984 RMK FEW080 CB DST W NW NE SE RN DST ARND HZY=
200806281800 METAR MRLM 281800Z 12009KT 9999 SCT028 SCT230 28/23 A2984 RMK FEW080 CB DST W NW NE SE RN DST ARND HZY=
200806281900 METAR MRLM 281900Z 10009KT 9999 SCT028 SCT080 28/23 A2982 RMK FEW230 CB RN DST NW N NE HZ ARND=
200806282000 METAR MRLM 282000Z NIL=
200806282100 METAR MRLM NIL=
200806282200 METAR MRLM 282200Z 30007KT 9999 SCT025 BKN080 28/24 A2983 RMK CB RN W NW N NE HZ ARND=
200806282300 METAR MRLM 282300Z 30006KT 9999 SCT024 SCT080 27/24 A2984 RMK CB RN ARND FEW230=
200806290000 METAR MRLM 290000Z 11012KT 9999 FEW035 BKN180 27/22 A2980=
200806290100 METAR MRLM NIL=
200806290200 METAR MRLM NIL=
200806290300 METAR MRLM NIL=
200806290400 METAR MRLM NIL=
200806290500 METAR MRLM NIL=
200806290600 METAR MRLM NIL=
200806290700 METAR MRLM NIL=
200806290800 METAR MRLM NIL=
200806290900 METAR MRLM NIL=
200806291000 METAR MRLM NIL=
200806291100 METAR MRLM NIL=
200806291200 METAR MRLM 291200Z NIL=
200806291300 METAR MRLM 291300Z 24003KT CAVOK 25/23 A2987 RMK FEW090 SCT140 BKN280 CB RN DST NW N NE E HZ ARND=
200806291400 METAR MRLM 291400Z 28004KT CAVOK 27/24 A2988 RMK OVC270 CB RN NE TRACE AC HZ ARND=
200806291500 METAR MRLM 291500Z 29005KT CAVOK 29/23 A2989 RMK BKN120 FEW280 HZ ARND=
200806291600 METAR MRLM 291600Z 32006KT 9999 FEW028 OVC090 30/24 A2989 RMK TRACE CI HZ ARND=
200806291700 METAR MRLM 291700Z 34010KT 9999 FEW028 BKN110 30/24 A2987 RMK FEW280 RN N NE HZ ARND=
200806291800 METAR MRLM 291800Z 35010KT 9999 FEW028 BKN110 31/25 A2985 RMK FEW280 HZ ARND=
200806291900 METAR MRLM 291900Z 35011KT 9999 FEW025 BKN110 30/25 A2984 RMK CB DST NW N NE E FEW280 HZ ARND=
200806292000 METAR MRLM NIL=
200806292100 METAR MRLM 292100Z 34009KT 9999 FEW030 BKN280 30/25 A2980 CB S W HZY=
200806292200 METAR MRLM 292200Z 34008KT 9999 FEW025 OVC280 30/25 A2980 TRAZAS AC CB S W RN SW W HZY=
200806292300 METAR MRLM 292300Z 31006KT 9999 BKN025 SCT280 29/24 A2982 CB S W RN SW W=
200806300000 METAR MRLM 300000Z 34006KT 9999 SCT018 SCT280 28/24 A2984 CB RN S W HZY=
200806300100 METAR MRLM NIL=
200806300200 METAR MRLM NIL=
200806300300 METAR MRLM NIL=
200806300400 METAR MRLM NIL=
200806300500 METAR MRLM NIL=
200806300600 METAR MRLM NIL=
200806300700 METAR MRLM NIL=
200806300800 METAR MRLM NIL=
200806300900 METAR MRLM NIL=
200806301000 METAR MRLM NIL=
200806301100 METAR MRLM NIL=
200806301200 METAR MRLM 301200Z NIL=
200806301300 METAR MRLM 301300Z 27007KT 8000 3000NW TSRA SCT006 SCT010CB 24/23 A2991 FEW120 TS W=
200806301400 METAR MRLM 301400Z 31002KT 180V310KT 9999 RA SCT006 SCT025 23/22 A2994 VSBY W NW N NE 7KM DUE RN RETS=
200806301500 METAR MRLM 301500Z 02007KT 8000 RA SCT008 SCT025 25/23 A2995 FEW100 CB N=
200806301600 METAR MRLM 301600Z 22005KT 9999 +DZ FEW007 SCT090 BKN130 24/23 A2994 CB N=
200806301700 METAR MRLM 301700Z 20002KT 9999 DZ FEW009 SCT130 BKN150 25/24 A2991 CB RN N=
200806301800 METAR MRLM 301800Z 10006KT 9999 FEW013 SCT130 BKN270 27/24 A2989 CB N HZY=
200806301900 METAR MRLM 301900Z 09007KT 9999 FEW025 SCT130 BKN270 29/24 A2987 CB RN N E HZY=
200806302000 METAR MRLM 302000Z NIL=
200806302100 METAR MRLM 302100Z 07009KT 9999 FEW028 SCT140 BKN270 29/24 A2981 RMK CB RN DST E S HZ ARND=
200806302200 METAR MRLM 302200Z 07011KT 9999 FEW022 BKN270 28/24 A2979 RMK CB DST S W RN DST SW NW E FEW130 FEW150 HZ LGT ARND=
200806302300 METAR MRLM NIL=
200807010000 METAR MRLM 010000Z 25004KT 180V250 9999 FEW013 SCT140 BKN270 27/24 A2982 RMK CB DST E S W RN DST E=
200807010100 METAR MRLM NIL=
200807010200 METAR MRLM NIL=
200807010300 METAR MRLM NIL=
200807010400 METAR MRLM NIL=
200807010500 METAR MRLM NIL=
200807010600 METAR MRLM NIL=
200807010700 METAR MRLM NIL=
200807010800 METAR MRLM NIL=
200807010900 METAR MRLM NIL=
200807011000 METAR MRLM NIL=
200807011100 METAR MRLM NIL=
200807011200 METAR MRLM NIL=
200807011300 METAR MRLM 021300Z 27005KT 9999 FEW010 BKN150 25/23 A2984 RMK FEW270 CB RN DST N HZ ARND LGT=
200807011400 METAR MRLM 011400Z 27007KT 9999 BKN012 26/24 A2985 RMK TRACE AC FEW270 HZ LGT ARND=
200807011500 METAR MRLM 011500Z 27011KT 9999 BKN015 27/24 A2988 RMK FEW150 FEW270 CB RN DST NE=
200807011600 METAR MRLM 011600Z 29009KT 9999 BKN032 29/23 A2988 RMK CB RN DST NE FEW150 FEW270 HZ LGT ARND=
200807011700 METAR MRLM 011700Z 28007KT 9999 FEW035 SCT140 30/23 A2988 RMK FEW280 CB RN DST NE HZ LGT ARND=
200807011800 METAR MRLM 011800Z 01012KT 9999 FEW025 SCT130 29/25 A2985 RMK SCT270 CB RN DST N NE HZ ARND LGT=
200807011900 METAR MRLM 011900Z 35015KT 9999 SCT020 SCT120 29/25 A2984 RMK FEW270 CB RN DST N=
200807012000 METAR MRLM 012000Z NIL=
200807012100 METAR MRLM 012100Z 34010KT 9999 FEW020 SCT150 BKN270 28/24 A2980 RMK FEW130 CB RN DST ARND=
200807012200 METAR MRLM 012200Z 35011KT 9999 FEW022 BKN240 27/23 A2981 RMK FEW270 CB RN DST ARND=
200807012300 METAR MRLM 012300Z 34008KT 9999 FEW020 BKN130 27/23 A2984 RMK FEW150 FEW270 CB RN DS ARND=
200807012355 METAR MRLM 020000Z NIL=
200807020000 METAR MRLM NIL=
200807020100 METAR MRLM NIL=
200807020200 METAR MRLM NIL=
200807020300 METAR MRLM NIL=
200807020400 METAR MRLM NIL=
200807020500 METAR MRLM NIL=
200807020600 METAR MRLM NIL=
200807020700 METAR MRLM NIL=
200807020800 METAR MRLM NIL=
200807020900 METAR MRLM NIL=
200807021000 METAR MRLM NIL=
200807021100 METAR MRLM NIL=
200807021200 METAR MRLM 021200Z NIL=
200807021300 METAR MRLM 021300Z 24004KT CAVOK 25/23 A2988 RMK SCT080 SCT130 FEW280 TRACE SC HZ LG ARND=
200807021400 METAR MRLM 021400Z 27007KT 9999 FEW025 BKN280 28/23 A2989 RMK TRACE AC HZ LGT ARND=
200807021500 METAR MRLM 021500Z 23006KT 9999 FEW028 BKN280 29/23 A2990 RMK TRACE AC HZ LGT ARND=
200807021600 METAR MRLM 021600Z 36010KT 9999 FEW028 SCT080 29/23 A2990 RMK SCT280 HZ LGT ARND=
200807021700 METAR MRLM 021700Z 36009KT 9999 FEW025 BKN280 29/25 A2989 RMK HZ LGT ARND=
200807021800 METAR MRLM 021800Z 36010KT 9999 FEW025 BKN280 29/25 A2987 RMK TRACE AC HZ LGT ARND CB DST SE S NW E=
200807021900 METAR MRLM NIL=
200807022000 METAR MRLM 022000Z NIL=
200807022100 METAR MRLM NIL=
200807022200 METAR MRLM 022200Z 02005KT 9999 BKN025 29/24 A2981 RMK CB RN DST S W QUADS FEW090=
200807022300 METAR MRLM 022300Z 03005KT 9999 3000NW DZ VCSH OVC020 29/24 A2983 RMK RN SE=
200807030000 METAR MRLM 030000Z 03005KT 9999 3000NW DZ VCSH OVC020 29/24 A2982=
200807030100 METAR MRLM NIL=
200807030200 METAR MRLM NIL=
200807030300 METAR MRLM NIL=
200807030400 METAR MRLM NIL=
200807030500 METAR MRLM NIL=
200807030600 METAR MRLM NIL=
200807030700 METAR MRLM NIL=
200807030800 METAR MRLM NIL=
200807030900 METAR MRLM NIL=
200807031000 METAR MRLM NIL=
200807031100 METAR MRLM NIL=
200807031200 METAR MRLM 031200Z NIL=
200807031300 METAR MRLM 031300Z 21002KT 5000 2000W RA FEW006 OVC015 24/23 A2993=
200807031400 METAR MRLM 031400Z 21005KT 7000 RA FEW005 BKN020 24/23 A2995 RMK FEW100=
200807031500 METAR MRLM 031500Z 21006KT 9999 -DZ BKN020 24/23 A2996 RMK TRACE ST FEW100=
200807031600 METAR MRLM 031600Z 21005KT 9999 +DZ SCT090 OVC100 25/23 A2996 RMK TRACE ST SC=
200807031700 METAR MRLM 031700Z 24003KT 9999 +DZ FEW007 BKN090 25/24 A2996 RMK SCT110=
200807031800 METAR MRLM NIL=
200807031900 METAR MRLM 031900Z 05004KT 9999 DZ FEW025 SCT130 28/23 A2990 RMK SCT150 FEW270 CBS RN NW W DST=
200807032000 METAR MRLM 032000Z NIL=
200807032100 METAR MRLM 032100Z 01006KT 9999 DZ FEW020 SCT130 27/23 A2985 RMK CB NE SCT150 FEW270 HZ ARND=
200807032200 METAR MRLM 032200Z 02004KT 9999 FEW025 BKN140 28/24 A2984 RMK HZ ARND FEW270=
200807032300 METAR MRLM 032300Z 02006KT 9999 FEW020 BKN140 28/24 A2987 RMK CB RN DST N E FEW230=
200807040000 METAR MRLM NIL=
200807040100 METAR MRLM NIL=
200807040200 METAR MRLM NIL=
200807040300 METAR MRLM NIL=
200807040400 METAR MRLM NIL=
200807040500 METAR MRLM NIL=
200807040600 METAR MRLM NIL=
200807040700 METAR MRLM NIL=
200807040800 METAR MRLM NIL=
200807040900 METAR MRLM NIL=
200807041000 METAR MRLM NIL=
200807041100 METAR MRLM NIL=
200807041200 METAR MRLM 041200Z NIL=
200807041300 METAR MRLM 041300Z 22002KT CAVOK 25/23 A2990 RMK BKN140 FEW280 CB DST NW SW HZ ARND TRACE ST=
200807041400 METAR MRLM 041400Z 26005KT CAVOK 27/23 A292 RMK BKN140 FEW280 TRACE SC HZ ARND=
200807041500 METAR MRLM NIL=
200807041600 METAR MRLM 041600Z 33005KT 9999 FEW035 OVC110 30/23 A2993 RMK TRACE CI HZ ARND=
200807041700 METAR MRLM 041700Z 01008KT 9999 FEW030 SCT090 BKN120 29/23 A2991 RMK TRACE CI HZ ARND=
200807041800 METAR MRLM 041800Z 35004KT 9999 FEW030 BKN120 30/24 A2990 RMK FEW270 CB NE HZ ARND=
200807041900 METAR MRLM 041900Z 35011KT 9999 FEW028 SCT140 30724 A2987 RMK CB S SW=
200807042000 METAR MRLM NIL=
200807042100 METAR MRLM 042100Z 34011KT 9999 BKN020 28/24 A2984 FEW270 CB RN S W=
200807042200 METAR MRLM 042200Z 35010KT 9999 BKN025 29/24 A2983 CB RN S W FEW280=
200807042300 METAR MRLM 042300Z 34009KT 9999 BKN020 28/24 A2984 CB RN S W FEW270=
200807050000 METAR MRLM 050000Z NIL=
200807050100 METAR MRLM NIL=
200807050200 METAR MRLM NIL=
200807050300 METAR MRLM NIL=
200807050400 METAR MRLM NIL=
200807050500 METAR MRLM NIL=
200807050600 METAR MRLM NIL=
200807050700 METAR MRLM NIL=
200807050800 METAR MRLM NIL=
200807050900 METAR MRLM NIL=
200807051000 METAR MRLM NIL=
200807051100 METAR MRLM NIL=
200807051200 METAR MRLM NIL=
200807051300 METAR MRLM 051300Z 00000KT CAVOK 25/24 A2988 SCT140 SCT280 CB/RN N HZY=
200807051400 METAR MRLM 051400Z 28005KT CAVOK 26/24 A2990 TRAZAS SC/CU BKN130 SCT280 CB/RN N=
200807051500 METAR MRLM 051500Z 28007KT 999 FEW025 BKN140 29/24 A2991 CB RN N HZY=
200807051600 METAR MRLM 051600Z 29010KT 9999 FEW025 SCT090 BKN110 29/24 A2991 CB RN N=
200807051700 METAR MRLM NIL=
200807051800 METAR MRLM 051800Z 31015KT 9999 SCT025 BKN120 29/24 A2988 CB RN N FEW270=
200807051900 METAR MRLM 051900Z 23018KT 9999 BKN025 29/24 A2988 TRAZAS AC FEW270 CB RN N=
200807052000 METAR MRLM 052000Z NIL=
200807052100 METAR MRLM 052100Z 30007KT 9999 SCT020 SCT110 28/24 A2983 RM CB DST S W N FEW150 FEW270=
200807052200 METAR MRLM 052200Z 30006KT 9999 BKN020 28/24 A2985 RMK TRACE AS CI CB DST S W N=
200807052300 METAR MRLM 052300Z 25006KT 9999 RA BKN012 26/24 A2985 RMK FEW120 FEW270 CB DST N=
200807060000 METAR MRLM 060000Z NIL=
200807060100 METAR MRLM NIL=
200807060200 METAR MRLM NIL=
200807060300 METAR MRLM NIL=
200807060400 METAR MRLM NIL=
200807060500 METAR MRLM NIL=
200807060600 METAR MRLM NIL=
200807060700 METAR MRLM NIL=
200807060800 METAR MRLM NIL=
200807060900 METAR MRLM NIL=
200807061000 METAR MRLM NIL=
200807061100 METAR MRLM NIL=
200807061200 METAR MRLM NIL=
200807061300 METAR MRLM 061300Z 23003KT CAVOK 24/23 A2989 RMK BKN130 FEW270 TRACE SC HZ LGT ARND=
200807061400 METAR MRLM 061400Z 24002KT CAVOK 26/23 A2992 RMK TRACE SC SCT100 SCT280 HZ LGT ARND=
200807061500 METAR MRLM 061500Z 04003KT 9999 FEW020 SCT120 OVC270 27/23 A2991 RMK HZ LGT ARND=
200807061600 METAR MRLM 061600Z 01006KT 9999 FEW023 SCT120 BKN270 28/24 A2992 HZ LGT ARND=
200807061700 METAR MRLM 061700Z 36005KT 9999 FEW025 SCT140 BKN270 29/23 A2991 RMK HZ LGT ARND=
200807061800 METAR MRLM 061800Z 02005KT 9999 FEW028 BKN140 29/23 A2990 RMK SCT280 HZ LGT ARND=
200807061900 METAR MRLM 061900Z 03005KT 9999 FEW030 SCT140 BKN280 29/23 A2988 RMK CB DST SE HZ LGT ARND=
200807062000 METAR MRLM 062000Z NIL=
200807062100 METAR MRLM 062100Z 07006KT 9999 FEW028 OVC280 29/24 A2985 RMK TRACE AC CB DST SE S HZ LGT ARND=
200807062200 METAR MRLM 062200Z 07005KT 9999 FEW025 OVC280 29/24 A2983 RMK TRACE AC CB DST SE S W HZ LGT ARND=
200807062300 METAR MRLM 062300Z 07006KT 9999 FEW023 SCT150 BKN280 29/24 A2983 RMK CB DST S W RN DST NW FEW130=
200807062355 METAR MRLM 070000Z NIL=
200807070000 METAR MRLM NIL=
200807070100 METAR MRLM NIL=
200807070200 METAR MRLM NIL=
200807070300 METAR MRLM NIL=
200807070400 METAR MRLM NIL=
200807070500 METAR MRLM NIL=
200807070600 METAR MRLM NIL=
200807070700 METAR MRLM NIL=
200807070800 METAR MRLM NIL=
200807070900 METAR MRLM NIL=
200807071000 METAR MRLM NIL=
200807071100 METAR MRLM NIL=
200807071200 METAR MRLM 071200Z NIL=
200807071300 METAR MRLM 071300Z 24004KT 9999 FEW012 BKN090 26/24 A2989 RMK RN DST N HZ LGT ARND=
200807071400 METAR MRLM 071400Z 23004KT 9999 FEW015 BKN080 27/24 A2989 RMK FEW280 CB RN DST E DZ NW HZ ARND=
200807071500 METAR MRLM 071500Z 19002KT 9999 SCT020 SCT080 29/24 A2900 RMK FEW280 TCU RN DST E SE=
200807071600 METAR MRLM 071600Z 06016KT 4000 RA BKN015 SCT080 26/23 A2992 RMK VIS NW N 7KMS=
200807071700 METAR MRLM 071700Z 18004KT 9999 FEW015 BKN080 27/24 A2991 RERA RMK RN DST N S SW CB DST E=
200807071800 METAR MRLM 071800Z 10008KT 9999 FEW020 BKN090 28/24 A2989 RMK FEW270 CB DST SE HZ LGT ARND=
200807071900 METAR MRLM 071900Z 09006KT 9999 FEW030 SCT130 BKN270 29/23 A2987 RMK CB DST SE HZ LGT ARND=
200807072000 METAR MRLM 072000Z NIL=
200807072100 METAR MRLM 072100Z 07008KT 9999 FEW0228 BKN270 29/23 A2982 RMK FEW090 CB DST S SW W HZY=
200807072200 METAR MRLM 072200Z 06008KT 9999 FEW030 BKN110 30/24 A2983 RMK SCT270 CB DST SE LGT HZ ARND=
200807072300 METAR MRLM 072300Z NIL=
200807080000 METAR MRLM 080000Z NIL=
200807080100 METAR MRLM NIL=
200807080200 METAR MRLM NIL=
200807080300 METAR MRLM NIL=
200807080400 METAR MRLM NIL=
200807080500 METAR MRLM NIL=
200807080600 METAR MRLM NIL=
200807080700 METAR MRLM NIL=
200807080800 METAR MRLM NIL=
200807080900 METAR MRLM NIL=
200807081000 METAR MRLM NIL=
200807081100 METAR MRLM NIL=
200807081200 METAR MRLM NIL=
200807081300 METAR MRLM 081300Z NIL=
200807081400 METAR MRLM 081400Z 20005KT CAVOK 28/22 A2987 RMK TRACE CU AC OVC300 LGT HZ ARND CB DST N E=
200807081500 METAR MRLM 081500Z 18003KT CAVOK 30/22 A2986 RMK TRACE CU AC CB DST N QUAD LGT HZ ARND=
200807081600 METAR MRLM 081600Z 05007KT 9999 FEW035 BKN280 29/22 A2987 RMK FEW140 CB DST N=
200807081700 METAR MRLM 081700Z 07006KT 9999 FEW038 BKN280 30/23 A2986 RMK FEW140 CB DST N QUAD LGT HZ ARND=
200807081800 METAR MRLM 081800Z 04012KT 9999 FEW025 SCT130 BKN270 24/24 A2985 RMK CBS RN DST NW N NE E HZ ARND=
200807081900 METAR MRLM 081900Z 02008KT 9999 FEW030 SCT110 BKN270 29/23 A2983 RMK BCS RN DST N QUAD LGT HZ ARND=
200807082000 METAR MRLM 082000Z NIL=
200807082100 METAR MRLM 082100Z 02004KT CAVOK 29/23 A2980 RMK TRACE CU BKN110 SCT270 CB RN DST N HZ ARND=
200807082200 METAR MRLM 082200Z 09003KT CAVOK 29/23 A2982 RMK BKN100 FEW270 TRACE CU RN N E=
200807082300 METAR MRLM 082300Z 04004KT 9999 FEW030 BKN080 29/22 A2983 RMK RN DST N E TRACE CI=
200807090000 METAR MRLM NIL=
200807090100 METAR MRLM NIL=
200807090200 METAR MRLM NIL=
200807090300 METAR MRLM NIL=
200807090400 METAR MRLM NIL=
200807090500 METAR MRLM NIL=
200807090600 METAR MRLM NIL=
200807090700 METAR MRLM NIL=
200807090800 METAR MRLM NIL=
200807090900 METAR MRLM NIL=
200807091000 METAR MRLM NIL=
200807091100 METAR MRLM NIL=
200807091200 METAR MRLM NIL=
200807091300 METAR MRLM NIL=
200807091400 METAR MRLM 091400Z 20003KT CAVOK 26/23 A2985 RMK BKN120 SCT270 HZ ARND=
200807091500 METAR MRLM 091500Z 03003KT CAVOK 27/24 A2986 RMK BKN120 FEW270 HZ ARND TRACE CU=
200807091600 METAR MRLM 091600Z 02003KT CAVOK 28/23 Z2986 RMK TRACE CU BKN120 FEW270 HZ ARND=
200807091700 METAR MRLM 091700Z 31009KT 9999 FEW035 BKN130 29/23 A2986 RMK FEW270 HZ ARND=
200807091800 METAR MRLM 091800Z 31009KT 9999 FEW035 BKN110 29/22 A2987 RMK FEW270 HZ ARND=
200807091900 METAR MRLM 091900Z 30010KT 9999 FEW038 BKN120 30/22 A2984 TMK TCU DST S HZ ARND FEW280=
200807092000 METAR MRLM NIL=
200807092100 METAR MRLM 092100Z 04015KT 7000 VCSH SCT015 BKN080 26/23 A2983 VSBY NE UNL=
200807092200 METAR MRLM 092200Z 06011KT 5000 -RA BKN013 SCT090 25/22 A2875=
200807092300 METAR MRLM 092300Z 24005KT 240V320 5000 RA SCT010 SCT090 24/22 A2986=
200807100000 METAR MRLM 100000Z NIL=
200807100100 METAR MRLM NIL=
200807100200 METAR MRLM NIL=
200807100300 METAR MRLM NIL=
200807100400 METAR MRLM NIL=
200807100500 METAR MRLM NIL=
200807100600 METAR MRLM NIL=
200807100700 METAR MRLM NIL=
200807100800 METAR MRLM NIL=
200807100900 METAR MRLM NIL=
200807101000 METAR MRLM NIL=
200807101100 METAR MRLM NIL=
200807101200 METAR MRLM NIL=
200807101300 METAR MRLM 101300Z 27003KT CAVOK 24/22 A2991 FEW080 OVC130 TCU NW HZY=
200807101400 METAR MRLM 101400Z 20003KT CAVOK 25/23 A2991 OVC140 HZY=
200807101500 METAR MRLM 101500Z 28003KT CAVOK 29/22 A2991 TRAZAS CU FEW270 HZY=
200807101600 METAR MRLM 101600Z 02008KT 9999 FEW025 BKN140 28/23 A2992 FEW270 HZY=
200807101700 METAR MRLM 101700Z 36007KT 9999 FEW030 BKN140 29/23 A2882 FEW280 HZY=
200807101800 METAR MRLM 101800Z 36007KT 999 FEW030 SCT140 29/23 A2992 SCT280 TCU S SW CB E HZY=
200807101900 METAR MRLM 101900Z 35009KT 9999 FEW030 BKN280 30/24 A2990 CB S W N NE E RN W=
200807102000 METAR MRLM 102000Z NIL=
200807102100 METAR MRLM 102100Z 02008KT 9999 SCT023 SCT280 29/25 A2985 RMK TRACE AC CB RN DST S SW W HZ LGT ARND=
200807102200 METAR MRLM 102200Z 36006KT 9999 SCT025 SCT280 29/24 A2986 RMK FEW140 CB RN DST S W=
200807102300 METAR MRLM 102300Z 33004KT 9999 SCT022 SCT280 28/24 A2987 RMK FEW130 FEW150 CB DST S W RETS=
200807110000 METAR MRLM 110000Z NIL=
200807110100 METAR MRLM NIL=
200807110200 METAR MRLM NIL=
200807110300 METAR MRLM NIL=
200807110400 METAR MRLM NIL=
200807110500 METAR MRLM NIL=
200807110600 METAR MRLM NIL=
200807110700 METAR MRLM NIL=
200807110800 METAR MRLM NIL=
200807110900 METAR MRLM NIL=
200807111000 METAR MRLM NIL=
200807111100 METAR MRLM NIL=
200807111200 METAR MRLM NIL=
200807111300 METAR MRLM 111300Z 24005KT 9999 FEW015 SCT150 25/22 A2996 RMK CB RN DST N E TCU DST N SCT250=
200807111400 METAR MRLM 111400Z 23003KT 9999 FEW015 SCT130 25/22 A2998 RMK RN DST NW E SE FEW150 FEW280=
200807111500 METAR MRLM 111500Z 24003KT 9999 DZ SCT120 SCT140 26/23 A2997 RMK TRACE SC FEW270 CB RN DST E SE HZ ARND=
200807111600 METAR MRLM 111600Z 27006KT 9999 FEW020 BKN130 28/23 A2999 RMK CB RN DST E DZ SE HZ LG ARND=
200807111700 METAR MRLM 111700Z 36007KT 9999 FEW025 BKN120 29/24 A2998 RMK CB RN DST SE FEW280 HZ ARND LGT=
200807111800 METAR MRLM 111800Z 36008KT 9999 FEW025 BKN140 29/24 A2997 RMK CB RN DST SE FEW160 FEW270 HZ LGT ARND=
200807111900 METAR MRLM 111900Z 02007KT 9999 FEW030 BKN270 30/24 A2994 RMK TRACE AC FEW150 CB DST W N HZ LGT ARND=
200807112000 METAR MRLM NIL=
200807112100 METAR MRLM 112100Z 33010KT 9999 FEW030 BKN270 29/24 A2987 RMK FEW150 TRACE AC HZ LGT ARND CB DST N NE E=
200807112200 METAR MRLM 112200Z 35012KT 9999 FEW020 BKN270 29/24 A2989 RMK FEW080 FEW150 RN DST S SW W CB RN DST N NE E=
200807112300 METAR MRLM 112300Z NIL=
200807112357 METAR MRLM 120000Z NIL=
200807120400 METAR MRLM NIL=
200807120500 METAR MRLM NIL=
200807120600 METAR MRLM NIL=
200807120700 METAR MRLM NIL=
200807120800 METAR MRLM NIL=
200807120900 METAR MRLM NIL=
200807121000 METAR MRLM NIL=
200807121100 METAR MRLM NIL=
200807121200 METAR MRLM 121200Z NIL=
200807121300 METAR MRLM 121300Z NIL=
200807121400 METAR MRLM 121400Z 26009KT 9999 FEW010 BKN090 24/22 A2996 RMK CB RN DST N E FEW150=
200807121500 METAR MRLM 121500Z 26006KT 9999 FEW020 BKN080 25/23 A2996 RMK FEW150 CB RN DST N E DZ N=
200807121600 METAR MRLM 121600Z 28006KT 9999 FEW020 BKN080 25/23 A2997 RMK RN DST NW N NE E DZ S W=
200807121700 METAR MRLM 121700Z 24005KT 9999 +DZ FEW020 SCT090 BKN140 25/23 A2997 RMK RN DS N=
200807121800 METAR MRLM 121800Z 08006KT 9999 RA SCT090 OVC120 25/23 A2994 CB RN N TRACE SCT=
200807121900 METAR MRLM 121900Z 28006KT 9999 +DZ FEW010 SCT025 OVC130 26/23 A2994 RMK VIS 6 KMS NE ST BAJOS CB RN N=
200807122000 METAR MRLM 122000Z NIL=
200807122100 METAR MRLM 122100Z 27010KT 9999 SCT015 SCT110 26/24 A2987 RMK FEW270 CBS DST N S RN DST N QUAD=
200807122200 METAR MRLM 122200Z 30010KT 9999 SCT015 SCT090 27/23 A2986 RMK FEW270 CB DST S N QDS RN N=
200807122300 METAR MRLM 122300Z 30008KT 9999 BKN015 26/23 A2987 RMK FEW110 RN DST N CB DST S=
200807130000 METAR MRLM NIL=
200807130100 METAR MRLM NIL=
200807130200 METAR MRLM NIL=
200807130300 METAR MRLM NIL=
200807130400 METAR MRLM NIL=
200807130500 METAR MRLM NIL=
200807130600 METAR MRLM NIL=
200807130700 METAR MRLM NIL=
200807130800 METAR MRLM NIL=
200807130900 METAR MRLM NIL=
200807131000 METAR MRLM NIL=
200807131100 METAR MRLM NIL=
200807131200 METAR MRLM 131200Z NIL=
200807131300 METAR MRLM 131300Z NIL=
200807131400 METAR MRLM 131400Z 27005KT 9999 FEW015 SCT080 BKN110 25/23 A2991 RMK CBS RN DST N QD TRACE CI HZ ARND=
200807131500 METAR MRLM 131500Z 28007KT 9999 FEW022 BKN090 27/23 A2992 RMK CBS RN DST N QD DZ NE FEW130 LGT HZ ARND=
200807131600 METAR MRLM 131600Z 30010KT 9999 FEW020 OVC080 28/23 A2993 RMK CBS RN DST N QUAD=
200807131700 METAR MRLM 131700Z 30010KT 9999 DZ FEW025 BKN080 28/23 A2992 RMK FEW150 CBS RN DST N QUAD=
200807131800 METAR MRLM 131800Z 32011KT 9999 BKN030 SCT120 29/23 A2989 RMK CBS RN DST N SE=
200807131900 METAR MRLM 131900Z 31009KT 9999 FEW025 BKN140 29/24 A2985 RMK FEW270 CBS RN DST N SE LGT HZ ARND=
200807132000 METAR MRLM 132000Z NIL=
200807132100 METAR MRLM 132100Z 34013KT 9999 DZ FEW025 BKN090 28/23 A2983 RM CB RN DST SW N FEW270=
200807132200 METAR MRLM 132200Z 33013KT 9999 BKN025 28/23 A2982 RMK FEW130 FEW270 CB RN DST S W=
200807132300 METAR MRLM 132300Z 30008KT 9999 BKN020 27/23 A2985 CB RN S W FEW140 TRACE CI=
200807140000 METAR MRLM NIL=
200807140100 METAR MRLM NIL=
200807140200 METAR MRLM NIL=
200807140300 METAR MRLM NIL=
200807140400 METAR MRLM NIL=
200807140500 METAR MRLM NIL=
200807140600 METAR MRLM NIL=
200807140700 METAR MRLM NIL=
200807140800 METAR MRLM NIL=
200807140900 METAR MRLM NIL=
200807141000 METAR MRLM NIL=
200807141100 METAR MRLM NIL=
200807141200 METAR MRLM NIL=
200807141300 METAR MRLM 141300Z 21006KT 9999 FEW015 OVC090 25/22 A2989 RMK CB DST NW SE RN S TRACE CI=
200807141400 METAR MRLM 141400Z 20007KT CAVOK 26/22 A2991 RMK TRACE SC BKN110 FEW270 CB RN E SE S DZ NE=
200807141500 METAR MRLM 141500Z 19006KT CAVOK 28/22 A2990 RMK BKN110 FEW270 CB RN DST N NE E SE CB DST W NW HZ LEVE ARND=
200807141600 METAR MRLM 141600Z 19006KT CAVOK 28/23 A2990 RMK TRACE CU BKN090 FEW260 CB RN N E=
200807141700 METAR MRLM 141700Z 02004KT 9999 FEW028 BKN090 28/23 A2990 RMK FEW260 CB RN N E=
200807141800 METAR MRLM 141800Z 36006KT 9999 FEW030 BKN090 29/23 A2989 RMK CB RN DST N FEW270=
200807141900 METAR MRLM 141900Z 35006KT 9999 FEW028 SCT090 BKN270 28/23 A2985 RMK FEW150 CB RN N=
200807142000 METAR MRLM NIL=
200807142100 METAR MRLM 142100Z 36008KT 9999 FEW023 SCT150 BKN270 28/24 A2979 CB N S RN NW=
200807142200 METAR MRLM 142200Z 34007KT 9999 FEW020 SCT150 BKN270 28/23 A2879 CB N=
200807142300 METAR MRLM 142300Z 33007KT 9999 FEW022 SCT150 BKN270 28/23 A2982 CB N TCU SW=
200807150000 METAR MRLM 150000Z NIL=
200807150100 METAR MRLM NIL=
200807150200 METAR MRLM NIL=
200807150300 METAR MRLM NIL=
200807150400 METAR MRLM NIL=
200807150500 METAR MRLM NIL=
200807150600 METAR MRLM NIL=
200807150700 METAR MRLM NIL=
200807150800 METAR MRLM NIL=
200807150900 METAR MRLM NIL=
200807151000 METAR MRLM NIL=
200807151100 METAR MRLM NIL=
200807151200 METAR MRLM NIL=
200807151300 METAR MRLM 151300Z 23006KT 9999 DZ FEW006 OVC020 24/22 A2993 RMK VSBY SE S 7KM LW ST/RASH=
200807151400 METAR MRLM 151400Z 21005KT 9999 DZ SCT020 SCT090 24/23 A2995 FFEW270 RN ARND=
200807151500 METAR MRLM 151500Z 21008KT 9999 FEW015 SCT090 25/23 A2996 SCT270 CB RN N E S=
200807151600 METAR MRLM 151600Z 26005KT CAVOK 27/23 A2996 TRAZAS SCT SCT090 SCT110 FEW270 CB RN N NE E=
200807151700 METAR MRLM 151700Z 29004KT CAVOK 28/23 A2995 BKN090 SCT270 TRAZAS CU HZY=
200807151800 METAR MRLM 151800Z 26003KT 9999 FEW030 BKN080 29/23 A2993 CB RN E FEW270 HZY=
200807151900 METAR MRLM 151900Z 06004KT 9999 FEW030 BKN080 29/24 A2991 FEW270 CB RN E=
200807152000 METAR MRLM 152000Z NIL=
200807152100 METAR MRLM 152100Z 05002KT 9999 FEW030 SCT090 28/22 A2987 RMK SCT150 TRACE CI CB DST RN ARND E=
200807152200 METAR MRLM 152200Z 00000KT 9999 DZ FEW025 SCT090 BKN140 28/23 A2987 RMK CB RN DST N E=
200807152300 METAR MRLM 152300Z 05003KT 9999 BKN025 SCT120 BKN140 28/23 2989 RMK CB DST N E HZ LGT ARND=
200807160000 METAR MRLM NIL=
200807160100 METAR MRLM NIL=
200807160200 METAR MRLM NIL=
200807160300 METAR MRLM NIL=
200807160400 METAR MRLM NIL=
200807160500 METAR MRLM NIL=
200807160600 METAR MRLM NIL=
200807160700 METAR MRLM NIL=
200807160800 METAR MRLM NIL=
200807160900 METAR MRLM NIL=
200807161000 METAR MRLM NIL=
200807161100 METAR MRLM NIL=
200807161200 METAR MRLM NIL=
200807161300 METAR MRLM 161300Z 29005KT CAVOK 25/22 A2992 RMK SCT140 SCT280 CB DST N E SE RN DST E SE HZ LGT ARND=
200807161400 METAR MRLM 161400Z 28009KT CAVOK 27/22 A2994 RMK SCT140 SCT280 CB RN DST E HZ ARND TRACE SC=
200807161500 METAR MRLM 161500Z 28008KT CAVOK 28/23 A2992 RMK TRACE CU FEW140 OVC270 CB DST N HZ LGT ARND=
200807161600 METAR MRLM 161600Z 30015KT 9999 FEW035 OVC270 29/22 A2992 RMK FEW140 HZ LGT ARND=
200807161700 METAR MRLM 161700Z 21012KT 9999 FEW035 OVC270 30/23 A2990 RMK FEW140 HZ LGT ARND CB DST N=
200807161800 METAR MRLM 161800Z 34015KT 9999 FEW035 SCT140 BKN280 30/24 A2988 RMK CB DST N E HZ LGT ARND=
200807161900 METAR MRLM 161900Z 33016KT 9999 FEW030 SCT140 BKN280 30/24 A2987 RMK CB DST N SE RN DST N HZ LGT ARND=
200807162000 METAR MRLM NIL=
200807162100 METAR MRLM NIL=
200807162200 METAR MRLM NIL=
200807162300 METAR MRLM 162300Z NIL=
200807162359 METAR MRLM 170000Z NIL=
200807170000 METAR MRLM NIL=
200807170100 METAR MRLM 170100Z NIL=
200807170200 METAR MRLM 170200Z NIL=
200807170300 METAR MRLM NIL=
200807170400 METAR MRLM NIL=
200807170500 METAR MRLM NIL=
200807170600 METAR MRLM NIL=
200807170700 METAR MRLM NIL=
200807170800 METAR MRLM NIL=
200807170900 METAR MRLM NIL=
200807171000 METAR MRLM NIL=
200807171100 METAR MRLM NIL=
200807171200 METAR MRLM NIL=
200807171300 METAR MRLM 171300Z 26003KT 260V340 9999 FEW015 BKN080 25/22 A2986 RMK FEW025 FEW140 HZ ARND=
200807171400 METAR MRLM 171400Z 09002KT 9999 FEW015 SCT025 BKN090 25/22 A2989 RMK TRACE CI HZ ARND=
200807171500 METAR MRLM 171500Z 26008KT 9999 FEW025 BKN100 28/22 A2988 RMK FEW270 CB RN DST E=
200807171600 METAR MRLM 171600Z 27016KT 9999 SCT030 BKN110 28/22 A2986 RMK FEW270 CB RN DST E HZ LGT ARND=
200807171700 METAR MRLM 171700Z 27012KT 9999 SCT035 BKN110 30/23 A2986 RMK FEW270 HZ LGT ARND=
200807171800 METAR MRLM 171800Z 28012KT 9999 SCT038 SCT080 BKN110 30/21 A2985 RMK RN DST SW TRACE CI=
200807171900 METAR MRLM 171900Z 29009KT 9999 SCT040 BKN110 30/22 2983 RMK CB RN DST N NE RN DST S SW DZ SW FEW080 TRACE CI=
200807172000 METAR MRLM 172000Z NIL=
200807172100 METAR MRLM 172100Z 33012KT 9999 FEW028 BKN080 29/23 A2978 RMK CBS RN DST S W QUADS FEW270=
200807172200 METAR MRLM 172200Z 33012KT 9999 VCSH FEW012 BKN025 28/23 A2978 CB RN DST S W QDS VIS 8KMS W FEW090=
200807172300 METAR MRLM 172300Z 25012KT 4000 -RA SCT005 OVC020 25/23 A2988=
200807180000 METAR MRLM NIL=
200807180100 METAR MRLM NIL=
200807180200 METAR MRLM NIL=
200807180300 METAR MRLM NIL=
200807180400 METAR MRLM NIL=
200807180500 METAR MRLM NIL=
200807180600 METAR MRLM NIL=
200807180700 METAR MRLM NIL=
200807180800 METAR MRLM NIL=
200807180900 METAR MRLM NIL=
200807181000 METAR MRLM NIL=
200807181100 METAR MRLM NIL=
200807181200 METAR MRLM 181200Z NIL=
200807181300 METAR MRLM 181300Z 20004KT 9999 -DZ BKN080 SCT110 25/23 A2982 RMK CBS RN DST N NE TRACE ST=
200807181400 METAR MRLM 181400Z 03004KT 030V190 CAVOK 27/23 A2982 RMK FEW090 OVC120 TRACE SC CI REDZ=
200807181500 METAR MRLM 181500Z NIL=
200807181506 METAR MRLM 181506Z 01004KT 9999 FEW020 OVC130 28/23 A2984 RMK CBS DST N NE=
200807181600 METAR MRLM 181600Z 01005KT 9999 SCT025 SCT130 29/24 A2984 RMK TCU RN DST SW FEW080=
200807181700 METAR MRLM 181700Z 01009KT 9999 VCSH FEW025 BKN080 28/23 A2983 RMK FEW140 TRACE CI VIS SW 8KMS CBS RN DST S QUAD=
200807181800 METAR MRLM 181800Z 34007KT 9999 DZ FEW025 BKN080 28/23 A2982 RMK FEW130 TRACE CI CB RN DST S SW W=
200807181900 METAR MRLM 181900Z 36007KT 9999 SCT025 BKN090 29/23 A2980 RMK CBS RN DST S W QUADS TRACE CI=
200807182000 METAR MRLM 182000Z NIL=
200807182100 METAR MRLM 182100Z 36007KT 9999 BKN030 SCT080 29/23 A2976 RK CB RN S W TRACE CI=
200807182200 METAR MRLM 182200Z 23006KT 9999 BKN018 27/23 A2976 RMK CB RN S W FEW090 FEW140 TRACE CI=
200807182300 METAR MRLM 182300Z 25007KT 9999 -DZ BKN015 SCT090 25/23 A2985 RMK VIS NW W 6000 MTS DUE RN=
200807190000 METAR MRLM NIL=
200807190100 METAR MRLM NIL=
200807190200 METAR MRLM NIL=
200807190300 METAR MRLM NIL=
200807190400 METAR MRLM NIL=
200807190500 METAR MRLM NIL=
200807190600 METAR MRLM NIL=
200807190700 METAR MRLM NIL=
200807190800 METAR MRLM NIL=
200807190900 METAR MRLM NIL=
200807191000 METAR MRLM NIL=
200807191100 METAR MRLM NIL=
200807191200 METAR MRLM 191200Z NIL=
200807191300 METAR MRLM 191300Z 25004KT 9999 FEW012 BKN080 25/23 A2980 RMK SCT110 TRACE CI CB RN N HZ LEVE ARND=
200807191400 METAR MRLM 191400Z 2607KT 9999O FEW015 SCT120 27/23 A2980 RMK SCT270 RMK CB RN DST N=
200807191500 METAR MRLM 191500Z 29006KT 9999 FEW025 SCT080 28/23 A2982 RMK FEW100 CB RN N FEW270=
200807191600 METAR MRLM 191600Z 27005KT 9999 FEW020 SCT035 28/24 A2983 RMK FEW090 FEW270 CB DST NW N NE E RN N=
200807191700 METAR MRLM 191700Z 28007KT 9999 FEW020 SCT080 BKN140 27/23 A2983 RMK FEW270 CB RN N=
200807191800 METAR MRLM 191800Z 30007KT 9999 DZ FEW018 SCT025 26/23 A2982 RMK CB RN N FEW140 FEW270=
200807191900 METAR MRLM 191900Z 30005KT 9999 -DZ SCT010 SCT140 27/25 A2980 RMK FEW090 FEW270 CB RN N=
200807192000 METAR MRLM NIL=
200807192100 METAR MRLM NIL=
200807192200 METAR MRLM NIL=
200807192300 METAR MRLM 192300Z 26004KT 9999 FEW015 SCT140 BKN270 27/23 A2976 FEW080 CB RN S W=
200807200000 METAR MRLM NIL=
200807200100 METAR MRLM NIL=
200807200200 METAR MRLM NIL=
200807200300 METAR MRLM NIL=
200807200400 METAR MRLM NIL=
200807200500 METAR MRLM NIL=
200807200600 METAR MRLM NIL=
200807200700 METAR MRLM NIL=
200807200800 METAR MRLM NIL=
200807200900 METAR MRLM NIL=
200807201000 METAR MRLM NIL=
200807201100 METAR MRLM NIL=
200807201200 METAR MRLM NIL=
200807201300 METAR MRLM 201300Z 20002KT CAVOK 27/23 A2985 BKN270 CB NE E HZY=
200807201400 METAR MRLM 201400Z 07003KT CAVOK 27/23 A2987 TRAZAS CU BKN280 CB NE HZY=
200807201500 METAR MRLM 201500Z 07004KT 9999 FEW020 BKN280 28/24 A2988 CB N HZY=
200807201600 METAR MRLM 201600Z 05004KT 9999 FEW025 BKN280 29/24 A2988 CB N HZY=
200807201700 METAR MRLM NIL=
200807201800 METAR MRLM 201800Z 01007KT 9999 FEW025 BKN280 29/24 A2985 CB S NW N NE HZY=
200807201900 METAR MRLM 201900Z 01006KT 9999 FEW028 BKN280 29/24 A2984 CB S N HZY=
200807202000 METAR MRLM NIL=
200807202100 METAR MRLM 202100Z 36008KT 9999 SCT028 BKN280 30/24 A2978 RMK CB DST SE HZ ARND=
200807202200 METAR MRLM 202200Z 36009KT 9999 SCT025 SCT280 29/25 A2979 RMK HZ LGT ARND=
200807202300 METAR MRLM 202300Z 01007KT 9999 SCT023 SCT280 29/24 A2980 RMK HZ LGT ARND CB DST S SW=
200807210000 METAR MRLM 210000Z NIL=
200807210100 METAR MRLM NIL=
200807210200 METAR MRLM NIL=
200807210300 METAR MRLM NIL=
200807210400 METAR MRLM NIL=
200807210500 METAR MRLM NIL=
200807210600 METAR MRLM NIL=
200807210700 METAR MRLM NIL=
200807210800 METAR MRLM NIL=
200807210900 METAR MRLM NIL=
200807211000 METAR MRLM NIL=
200807211100 METAR MRLM NIL=
200807211200 METAR MRLM NIL=
200807211300 METAR MRLM 211300Z 27004KT CAVOK 24/23 A2986 RMK BKN110 FEW150 FEW270 CB RN DST N E HZ LGT ARND=
200807211400 METAR MRLM 211400Z 26004KT CAVOK 25/24 A2989 RMK BKN090 FEW150 FEW270 CB RN DST N E HZ ARND=
200807211500 METAR MRLM 211500Z 22003KT CAVOK 27/24 A2989 RMK BKN090 FEW150 CB RN DST N NE E TSTM E HZ LGT ARND=
200807211600 METAR MRLM 211600Z 17003KT CAVOK 28/24 A2991 RMK CB RN DST N E TSTM NE BKN090 FEW150=
200807211700 METAR MRLM 211700Z 19003KT CAVOK 27/24 A2988 RMK TRACE SC SCT100 BKN140 SCT100 FEW270 RN DST N HZ LGT ARND=
200807211800 METAR MRLM 211800Z 30003KT CAVOK 28/24 A2984 RMK FEW100 SCT140 SCT270 CB N HZ LG ARND=
200807211900 METAR MRLM 211900Z 01009KT CAVOK 29/25 A2982 RMK TRACE SC SCT110 SCT140 FEW270 HZ LGT ARND=
200807212000 METAR MRLM 212000Z NIL=
200807212100 METAR MRLM 212100Z 08004KT 9999 FEW025 BKN110 29/24 A2980 RMK TRACE CI CB DST NE LEVE HZ ARND=
200807212200 METAR MRLM 212200Z 10004KT 9999 FEW025 BKN110 29/24 A2980 RMK CB DST N NE TRACE CI LEVE HZ ARND=
200807212300 METAR MRLM 212300Z 22005KT 9999 FEW020 BKN110 28/24 A2980 RMK FEW280 CB DST S SW W HZ LGT ARND=
200807220000 METAR MRLM NIL=
200807220100 METAR MRLM NIL=
200807220200 METAR MRLM NIL=
200807220300 METAR MRLM NIL=
200807220400 METAR MRLM NIL=
200807220500 METAR MRLM NIL=
200807220600 METAR MRLM NIL=
200807220700 METAR MRLM NIL=
200807220800 METAR MRLM NIL=
200807220900 METAR MRLM NIL=
200807221000 METAR MRLM NIL=
200807221100 METAR MRLM NIL=
200807221200 METAR MRLM 221200Z NIL=
200807221300 METAR MRLM 221300Z 21006KT 9999 FEW025 SCT110 24/22 A2987 RMK CB RN DST QUAD N E FEW150 FEW270 HZ LEVE ARND=
200807221400 METAR MRLM 221400Z 21004KT CAVOK 25/23 A2989 RMK OVC080 TRACE SC CB RN DST QUAD N E HZ ARND=
200807221500 METAR MRLM 221500Z 23004KT 9999 FEW025 SCT150 BKN270 27/23 A2989 RMK FEW090 CB RN DST QUAD N E HZ ARND=
200807221600 METAR MRLM 221600Z 23005KT CAVOK 28/24 A2986 RMK TRACE CU SCT110 FEW150 BKN270 HZ LEVE ARND=
200807221700 METAR MRLM 221700Z 02007KT CAVOK 30/24 A2985 RMK TRACE SC BKN140 SC170 HZ ARND=
200807221800 METAR MRLM 221800Z 36009KT 9999 FEW025 BKN280 30/25 A2986 RMK CB DST N NE FEW140 HZ LEVE ARND=
200807221900 METAR MRLM 221900Z 01006KT 9999 FEW025 BKN280 30/24 A2983 RMK CB DST QUAD N S HZ LEVE ARND=
200807222000 METAR MRLM 222000Z NIL=
200807222100 METAR MRLM 222100Z 08004KT 9999 SCT028 SCT280 30/24 A2981 RMK CB DST S SW W=
200807222200 METAR MRLM 222200Z 08006KT 9999 SCT028 BKN280 30/24 A2980 RMK HZ ARND CB DST S SW W=
200807222300 METAR MRLM 222300Z 05006KT 9999 FEW022 SCT150 BKN280 29/24 A2981 CBS DST S NW TRACE AC HZY=
200807230000 METAR MRLM NIL=
200807230100 METAR MRLM NIL=
200807230200 METAR MRLM NIL=
200807230300 METAR MRLM NIL=
200807230400 METAR MRLM NIL=
200807230500 METAR MRLM NIL=
200807230600 METAR MRLM NIL=
200807230700 METAR MRLM NIL=
200807230800 METAR MRLM NIL=
200807230900 METAR MRLM NIL=
200807231000 METAR MRLM NIL=
200807231100 METAR MRLM NIL=
200807231200 METAR MRLM NIL=
200807231300 METAR MRLM 231300Z 23005KT CAVOK 26/23 A2980 RMK CBS DST N E SCT140 BKN280 LGT HZ ARND=
200807231400 METAR MRLM 231400Z 32007KT CAVOK 29/22 A2985 RMK BKN140 SCT280 CB DST N E HZ ARND=
200807231500 METAR MRLM 231500Z 01007KT 9999 FEW028 SCT140 29/24 A2986 RMK SCT280 CBS RN DST E HZY=
200807231600 METAR MRLM NIL=
200807231603 METAR MRLM 231603Z 35011KT 9999 FEW025 SCT140 30/24 A2985 RMK SCT280 HZY=
200807231700 METAR MRLM 231700Z 36011KT 9999 FEW028 BKN120 30/24 A2986 RMK FEW280 LGT HZ ARND CB DST NW N=
200807231800 METAR MRLM 231800Z 01012KT 9999 FEW023 SCT080 29/25 A2985 RMK FEW110 TRACE CI CB DST SW RN DST N NE EHZY=
200807231900 METAR MRLM 231900Z 03028KT 7000 RA FEW012 OVC020 26/23 A2984=
200807232000 METAR MRLM 232000Z 06016KT 9999 DZ FEW016 SCT025 26/23 A2983 RMK SCT080 FEW120 VIS W 6KMS=
200807232100 METAR MRLM 232100Z 20007KT 9999 DZ BKN010 25/23 A2985 RMK VIS S W 8000MTS DUE ST RN=
200807232200 METAR MRLM 232200Z 19008KT 9999 DZ SCT090 SCT120 24/22 A2982=
200807232300 METAR MRLM NIL=
200807240000 METAR MRLM NIL=
200807240100 METAR MRLM NIL=
200807240200 METAR MRLM NIL=
200807240300 METAR MRLM NIL=
200807240400 METAR MRLM NIL=
200807240500 METAR MRLM NIL=
200807240600 METAR MRLM NIL=
200807240700 METAR MRLM NIL=
200807240800 METAR MRLM NIL=
200807240900 METAR MRLM NIL=
200807241000 METAR MRLM NIL=
200807241100 METAR MRLM NIL=
200807241200 METAR MRLM 241200Z NIL=
200807241300 METAR MRLM 241300Z 24005KT 9999 FEW020 BKN140 25/23 A2988 RMK FEW280 CB NW HZ LEVE ARND=
200807241400 METAR MRLM 241400Z 22005KT CAVOK 27/23 A2988 RMK TRACE CU BKN140 FEW280 HZ ARND=
200807241500 METAR MRLM 241500Z 36004KT CAVOK 28/24 A2988 RMK TRACE CU BKN140 FEW280 HZ ARND=
200807241600 METAR MRLM 241600Z 32009KT 9999 FEW035 BKN140 31/23 A2988 RMK HZ ARND FEW280=
200807241700 METAR MRLM 241700Z 32011KT 32011KT 9999 FEW035 SCT140 31/24 A2988 RMK HZ ARND FEW280=
200807241800 METAR MRLM 241800Z 34012KT 9999 FEW030 SCT090 30/24 A2988 RMK FEW280 CB DST NE S SW W RN SW HZ ARND=
200807241900 METAR MRLM 241900Z 33012KT 9999 BKN025 30/25 A2986 RMK FEW130 TRACE CI CB RN S W=
200807242000 METAR MRLM NIL=
200807242100 METAR MRLM 242100Z 31012KT 9999 BKN030 30/24 A2982 CB RN S W N DZ SE FEW280=
200807242200 METAR MRLM 242200Z 35014KT 9999 SCT028 SCT140 29/23 A2985 FEW080 CB RN E S W=
200807242300 METAR MRLM 242300Z 34011KT 9999 -DZ SCT022 BKN080 28/23 A2986 RN S W=
200807250000 METAR MRLM 250000Z NIL=
200807250100 METAR MRLM NIL=
200807250200 METAR MRLM NIL=
200807250300 METAR MRLM NIL=
200807250400 METAR MRLM NIL=
200807250500 METAR MRLM NIL=
200807250600 METAR MRLM NIL=
200807250700 METAR MRLM NIL=
200807250800 METAR MRLM NIL=
200807250900 METAR MRLM NIL=
200807251000 METAR MRLM NIL=
200807251100 METAR MRLM NIL=
200807251200 METAR MRLM NIL=
200807251300 METAR MRLM 251300Z 28007KT 9999 FEW025 BKN080 24/22 A2989 FEW270 CB RN N E=
200807251400 METAR MRLM 251400Z 31011KT 020V310 2000 +TSRA OVC010CB 24/23 A2995=
200807251500 METAR MRLM 251500Z 25005KT 8000 RA FEW008 SCT025 BKN140 24/23 A2994 VSBY S UNL CB N E RETS=
200807251600 METAR MRLM 251600Z 27002KT 6000 +DZ BKN025 24/23 A2995 VSBY SW UNL FEW120=
200807251700 METAR MRLM 251700Z 22008KT 9999 BKN025 26/23 A2994 FEW080 RN ARND=
200807251800 METAR MRLM 251800Z 25009KT 9999 SCT032 SCT270 29/22 A2991 FEW 090 CB RN S W N HZY=
200807251900 METAR MRLM NIL=
200807252000 METAR MRLM 252000Z NIL=
200807252100 METAR MRLM 252100Z 29008KT 290V360 9999 FEW030 SCT140 30/23 A2986 RMK SCT270 TRACE AC CB RN DST E HZ ARND=
200807252200 METAR MRLM 252200Z 29004KT 9999 -DZ VCSHFEW025 SCT080 29/24 A2987 RETS RMK SCT140 FEW270 CB RN DST HA ARND VIS 8000 E NE=
200807252300 METAR MRLM 252300Z 02016KT 020V120 3000 -RATS FEW010CB SCT015 SCT080 26/24 A2989 RMK TS NE=
200807260000 METAR MRLM 260000Z NIL=
200807260100 METAR MRLM NIL=
200807260200 METAR MRLM NIL=
200807260300 METAR MRLM NIL=
200807260400 METAR MRLM NIL=
200807260500 METAR MRLM NIL=
200807260600 METAR MRLM NIL=
200807260700 METAR MRLM NIL=
200807260800 METAR MRLM NIL=
200807260900 METAR MRLM NIL=
200807261000 METAR MRLM NIL=
200807261100 METAR MRLM NIL=
200807261200 METAR MRLM NIL=
200807261300 METAR MRLM 261300Z 24007KT 8000 VCSH FEW006 OVC015 24/23 A2988 RMK VIS 9999 NE=
200807261400 METAR MRLM 261400Z 20006KT 8000 DZ VCSH OVC015 24/23 A2991 RMK VIS N NE UNL HZ ARND=
200807261500 METAR MRLM 261500Z 20006KT 9999 BKN015 25/23 A2993 RMK HZ RN ARND FEW120=
200807261600 METAR MRLM 261600Z 23005KT 9999 DZ OVC015 26/24 A2992 RMK TRACE AS RN HZ ARND=
200807261700 METAR MRLM 261700Z 23005KT 9999 DZ VCSH OVC012 27/25 A2991 RMK VIS SE 8000 TRACE AS HZ LGT ARND=
200807261800 METAR MRLM 261800Z 17012KT 8000 VCSH OVC015 26/24 A2989 RMK VIS N UNL=
200807261900 METAR MRLM 261900Z 20010KT 9999 BKN015 SCT270 27/24 A2987 RMK RN DST W HZ ARND=
200807262000 METAR MRLM 262000Z NIL=
200807262100 METAR MRLM 262100Z 06004KT 9999 BKN028 30/24 A2984 RMK FEW270 TCU DST NW E HZ ARND=
200807262200 METAR MRLM 262200Z 02004KT 9999 BKN028 SCT280 29/24 A2983 RMK RN DST QUAD N TRACE AS HZ ARND=
200807262300 METAR MRLM 262300Z 36005KT 9999 VCSH BKN023 SCT280 29/24 A2985 RMK VIS 8000 NW TCU SHRA HZ ARND=
200807270000 METAR MRLM 270000Z NIL=
200807270100 METAR MRLM NIL=
200807270200 METAR MRLM NIL=
200807270300 METAR MRLM NIL=
200807270400 METAR MRLM NIL=
200807270500 METAR MRLM NIL=
200807270600 METAR MRLM NIL=
200807270700 METAR MRLM NIL=
200807270800 METAR MRLM NIL=
200807270900 METAR MRLM NIL=
200807271000 METAR MRLM NIL=
200807271100 METAR MRLM NIL=
200807271200 METAR MRLM NIL=
200807271300 METAR MRLM 271300Z 27007KT 9999 FEW020 SCT080 BKN100 24/23 A2990 RMK VIS 8000 E RA HZ ARND=
200807271400 METAR MRLM 271400Z 21008KT 9999 SCT025 BKN090 26/24 A2990 RERA RMK RN DST E HZ ARND=
200807271500 METAR MRLM NIL=
200807271600 METAR MRLM 271600Z 33008KT 9999 SCT025 BKN120 29/24 A2992 RMK CB RN DST N E=
200807271700 METAR MRLM 271700Z 28007KT 9999 RA SCT025 SCT080 26/23 A2992 RMK FEW130 TSTM DST E=
200807271800 METAR MRLM 271800Z 24004KT 8000 -RA SCT025 BKN120 26/24 A2992 VIS 9999 SW W NW TRACE ST CB DST W NW N NE E=
200807271900 METAR MRLM 271900Z 14003KT 6000 -RA BKN025 26/24 A2989 RMK FEW120=
200807272000 METAR MRLM 272000Z NIL=
200807272100 METAR MRLM 272100Z NIL=
200807272101 METAR MRLM 272101Z 27006KT 9999 SCT010 BKN090 26/24 A2983 RMK SCT270 TRACE CS CB RN DST N HZ ARND=
200807272200 METAR MRLM 272200Z 31006KT 9999 BKN015 27/24 A2984 RMK FEW090 CBS RN DST NW N=
200807272300 METAR MRLM 272300Z 33008KT 9999 RA BKN010 26/24 A2987 RMK VIS NW 6KMS DUE LOW ST=
200807280000 METAR MRLM NIL=
200807280100 METAR MRLM NIL=
200807280200 METAR MRLM NIL=
200807280300 METAR MRLM NIL=
200807280400 METAR MRLM NIL=
200807280500 METAR MRLM NIL=
200807280600 METAR MRLM NIL=
200807280700 METAR MRLM NIL=
200807280800 METAR MRLM NIL=
200807280900 METAR MRLM NIL=
200807281000 METAR MRLM NIL=
200807281100 METAR MRLM NIL=
200807281200 METAR MRLM 281200Z NIL=
200807281300 METAR MRLM 281300Z NIL=
200807281301 METAR MRLM 281301Z 22005KT CAVOK 25/23 A2990 RMK TRACE SC OVC090 CBS RN DST N HZ ARND=
200807281400 METAR MRLM 281400Z 24004KT CAVOK 28/24 A2991 RMK TRACE CU BKN080 CB DST NW LGT HZ ARND=
200807281500 METAR MRLM 281500Z 35005KT 9999 FEW035 BKN120 30/23 A2992 RMK HZ ARND=
200807281600 METAR MRLM 281600Z 02006KT 9999 FEW032 BKN080 29/23 A2992 RMK LGT HZ ARND=
200807281700 METAR MRLM 281700Z 01006KT 9999 FEW035 BKN110 29/23 A2993 RMK FEW280 LGT HZ ARND=
200807281800 METAR MRLM 281800Z 04005KT 9999 FEW035 BKN140 29/23 A2991 RMK LG HZ ARND FEW280=
200807281900 METAR MRLM 281900Z 02006KT 9999 FEW035 SCT140 BKN250 29/23 A2988 CBS DST S=
200807282000 METAR MRLM 282000Z NIL=
200807282100 METAR MRLM 282100Z 03005KT 9999 FEW032 SCT140 BKN280 30/23 A2986 RMK CB S HZ ARND=
200807282200 METAR MRLM 292200Z 04005KT 9999 FEW028 BKN130 29/23 A2986 RMK CB DST S SW W E SCT280 HZ ARND=
200807282300 METAR MRLM NIL=
200807290000 METAR MRLM NIL=
200807290100 METAR MRLM NIL=
200807290200 METAR MRLM NIL=
200807290300 METAR MRLM NIL=
200807290400 METAR MRLM NIL=
200807290500 METAR MRLM NIL=
200807290600 METAR MRLM NIL=
200807290700 METAR MRLM NIL=
200807290800 METAR MRLM NIL=
200807290900 METAR MRLM NIL=
200807291000 METAR MRLM NIL=
200807291100 METAR MRLM NIL=
200807291200 METAR MRLM 291200Z NIL=
200807291300 METAR MRLM 291300Z 28005KT CAVOK 27/23 A2991 RMK TRACE ST BKN080 SCT110 RN DST W NW N=
200807291400 METAR MRLM 291400Z 28011KT CAVOK 26/23 A2992 RMK TRACE ST BKN090 FEW280 HZ LEVE ARND RN NW N=
200807291500 METAR MRLM 291500Z 27014KT 9999 FEW025 SCT140 28/23 A2992 RMK SCT280 CB RN N=
200807291600 METAR MRLM 291600Z 29014KT 9999 FEW025 SCT120 BKN280 29/23 A2992 RMK CB RN N=
200807291700 METAR MRLM 291700Z 30018KT 9999 FEW033 BKN120 30/23 A2993 RMK FEW270 CB RN N HZ ARND=
200807291800 METAR MRLM 291800Z 28016KT 9999 SCT033 SCT130 30/23 A2991 RMK FEW280 CB RN N TCU SE=
200807291900 METAR MRLM 291900Z 32017KT 9999 VCSH FEW012 OVC025 29/23 A2990 RMK VIS N 8000MTS=
200807292000 METAR MRLM NIL=
200807292100 METAR MRLM 292100Z 22009KT CAVOK 25/22 A2986 BKN080 FEW150 FEW270 CB RN S W N=
200807292200 METAR MRLM 292200Z 26009KT 9999 -DZ FEW015 BKN080 25/22 A2987 SCT140 CB RN S W N=
200807292300 METAR MRLM NIL=
200807300000 METAR MRLM NIL=
200807300100 METAR MRLM NIL=
200807300200 METAR MRLM NIL=
200807300300 METAR MRLM NIL=
200807300400 METAR MRLM NIL=
200807300500 METAR MRLM NIL=
200807300600 METAR MRLM NIL=
200807300700 METAR MRLM NIL=
200807300800 METAR MRLM NIL=
200807300900 METAR MRLM NIL=
200807301000 METAR MRLM NIL=
200807301100 METAR MRLM NIL=
200807301200 METAR MRLM NIL=
200807301300 METAR MRLM 301300Z 23004KT CAVOK 25/22 A2988 BKN080 HZY=
200807301400 METAR MRLM 301400Z 24005KT CAVOK 28/22 A2990 SCT090=
200807301500 METAR MRLM 301500Z 29005KT CAVOK 29/23 A2990 BKN140 FEW270 CB RN N=
200807301600 METAR MRLM 301600Z 32007KT 9999 FEW040 BKN140 30/22 A2989 FEW280 CB RN N=
200807301700 METAR MRLM 301700Z 34012KT 9999 FEW035 BKN120 30/23 A2989 RMK FEW280 CB RN N NE=
200807301800 METAR MRLM 301800Z 34012KT 9999 FEW032 BKN110 30/23 A2986 CB S SW W RN NE=
200807301900 METAR MRLM 301900Z 33014KT 9999 FEW030 SCT130 29/24 A2983 CB SE S SW W SCT280=
200807302000 METAR MRLM NIL=
200807302100 METAR MRLM 302100Z 33014KT 9999 BKN025 29/24 A2980 RMK CB DST SW RN W TSTM DST SW FEW040=
200807302200 METAR MRLM 302200Z 32011KT 999 SCT023 SCT280 A2980 RMK FEW090 CB RN DST SW=
200807302300 METAR MRLM 302300Z 29010KT 9999 BKN018 28/24 A2983 RMK CB RN DST QUANDS S/W FEW150 FEW280=
200807310000 METAR MRLM NIL=
200807310100 METAR MRLM NIL=
200807310200 METAR MRLM NIL=
200807310300 METAR MRLM NIL=
200807310400 METAR MRLM NIL=
200807310500 METAR MRLM NIL=
200807310600 METAR MRLM NIL=
200807310700 METAR MRLM NIL=
200807310800 METAR MRLM NIL=
200807310900 METAR MRLM NIL=
200807311000 METAR MRLM NIL=
200807311100 METAR MRLM NIL=
200807311200 METAR MRLM NIL=
200807311300 METAR MRLM NIL=
200807311400 METAR MRLM 311400Z 23005KT CAVOK 29/23 A2987 RMK TRACE CU AC SCT280 RN DST N=
200807311500 METAR MRLM 311500Z 34009KT 9999 FEW032 SCT280 30/24 A2988 RMK CB RN DST N HZ LGT ARND=
200807311600 METAR MRLM 311600Z 36011KT 9999 FEW028 SCT270 30/26 A2988 RMK CB RN DST N=
200807311700 METAR MRLM 311700Z 35012KT 9999 FEW028 SCT270 30/24 A2987 RMK CB RN DST N=
200807311800 METAR MRLM 311800Z 35011KT 9999 FEW028 SCT280 30/24 A2985 RMK CB DST W N RN DST NW FEW140=
200807311900 METAR MRLM 311900Z 35012KT 9999 FEW028 SCT110 30/25 A2983 RMK HZ CB ARND RN DST W NW=
200807312000 METAR MRLM NIL=
200807312100 METAR MRLM 312100Z 31013KT 9999 DZ VCSH BKN020 29/24 A2981 RMK 8000 QUAD S W FEW080=
200807312200 METAR MRLM 312200Z 33016KT 9999 BKN022 27/23 A2981 RMK FEW280 TRACE AC RN DST QUAD S W=
200807312300 METAR MRLM 312300Z 27004KT 9999 SCT018 BKN080 26/23 A2982 RMK FEW280 CB RN DST QUAD S W=
200808010000 METAR MRLM 010000Z NIL=
200808010100 METAR MRLM NIL=
200808010200 METAR MRLM NIL=
200808010300 METAR MRLM NIL=
200808010400 METAR MRLM NIL=
200808010500 METAR MRLM NIL=
200808010600 METAR MRLM NIL=
200808010700 METAR MRLM NIL=
200808010800 METAR MRLM NIL=
200808010900 METAR MRLM NIL=
200808011000 METAR MRLM NIL=
200808011100 METAR MRLM NIL=
200808011200 METAR MRLM 011200Z NIL=
200808011300 METAR MRLM 011300Z 18004KT 9999 -DZ BKN015 24/23 A2988 RMK TRACE CI FEW140 VIS 8000 QUAD E RA=
200808011400 METAR MRLM 011400Z 21006KT 9999 FEW015 BKN080 25/23 A2989 RMK FEW270 TCU RN DST N S HZ ARND=
200808011500 METAR MRLM 011500Z 18005KT 9999 FEW025 BKN080 29/23 A2989 RMK TRACE AC LEVE HZ ARND=
200808011600 METAR MRLM 011600Z 02005KT 9999 FEW035 BKN280 30/23 A2989 TRACE AC=
200808011700 METAR MRLM 011700Z 02007KT 9999 FEW032 BKN280 30/23 A2988 RMK TRACE AC HZ ARND=
200808011800 METAR MRLM 011800Z 02006KT 9999 FEW035 OVC280 30/23 A2987 RMK TRACE AC HZ ARND=
200808011900 METAR MRLM 011900Z 36010KT 9999 FEW032 BKN280 30/24 A2984 RMK TCU DST NE TRACE AC LEVE HZ ARND=
200808012000 METAR MRLM 012000Z NIL=
200808012100 METAR MRLM 012100Z 35009KT 9999 FEW030 OVC280 30/24 A2981 RMK CB DST N LGT HZ ARND=
200808012200 METAR MRLM 012200Z 34010KT 9999 FEW028 BKN280 30/24 A2980 RMK FEW140 CB DST N NE LGT HZ ARND=
200808012300 METAR MRLM 012300Z 32010KT 9999 SCT025 BKN250 29/24 A2980 RMK TRACE AC HZ ARND=
200808020000 METAR MRLM NIL=
200808020100 METAR MRLM NIL=
200808020200 METAR MRLM NIL=
200808020300 METAR MRLM 020300Z 08004KT 9999 FEW030 BKN110 28/24 A2978 RMK SCT270 CB DST S W=
200808020400 METAR MRLM NIL=
200808020500 METAR MRLM NIL=
200808020600 METAR MRLM NIL=
200808020700 METAR MRLM NIL=
200808020800 METAR MRLM NIL=
200808020900 METAR MRLM NIL=
200808021000 METAR MRLM NIL=
200808021100 METAR MRLM NIL=
200808021200 METAR MRLM 021200Z NIL=
200808021300 METAR MRLM 021300Z 22004KT CAVOK 24/23 A2985 RMK SCT130 SCT280 CB N E HZY=
200808021400 METAR MRLM 021400Z 20003KT CAVOK 25/23 A2987 RMK BKN110 FEW270 CB RN DST N E TS DST NE=
200808021500 METAR MRLM 021500Z 17002KT CAVOK 27/23 A2988 RMK BKN090 CB RN DS N E HZY=
200808021600 METAR MRLM 021600Z 11008KT 9999 FEW020 OVC080 27/23 A2989 RMK CBS RN N NE TRACE CI=
200808021700 METAR MRLM 021700Z 09008KT 9999 +DZ FEW018 BKN080 27/23 A2988 RMK SCT140 CB DST N NE=
200808021800 METAR MRLM 021800Z 14003KT 9999 FEW015 BKN150 27/24 A2985 RERA RMK CB RN DST N E LGT HZ ARND=
200808021900 METAR MRLM 021900Z 09007KT 9999 FEW020 SCT120 BKN270 28/24 A2982 CB DST ARND RN DST W N NE=
200808022000 METAR MRLM 022000Z NIL=
200808022100 METAR MRLM 022100Z 06008KT 9999 FEW022 BKN120 29/24 A2977 RMK CB HZ ARND SCT270 DZ SE=
200808022200 METAR MRLM 022200Z 10006KT 9999 FEW025 SCT110 BKN270 28/24 A2976 RMK CB DST SW N=
200808022300 METAR MRLM NIL=
200808030000 METAR MRLM NIL=
200808030100 METAR MRLM NIL=
200808030200 METAR MRLM NIL=
200808030300 METAR MRLM NIL=
200808030400 METAR MRLM NIL=
200808030500 METAR MRLM NIL=
200808030600 METAR MRLM NIL=
200808030700 METAR MRLM NIL=
200808030800 METAR MRLM NIL=
200808030900 METAR MRLM NIL=
200808031000 METAR MRLM NIL=
200808031100 METAR MRLM NIL=
200808031200 METAR MRLM 031200Z NIL=
200808031300 METAR MRLM 031300Z 21005KT 9999 FEW025 SCT090 24/23 A2985 RMK SCT280 CB RN NE E TSTM E HZ ARND=
200808031400 METAR MRLM 031400Z 20004KT 9999 FEW020 BKN120 26/23 A2986 RMK SCT280 TSTM NE CB RN DST N E HZ ARND=
200808031500 METAR MRLM 031500Z 02005KT 9999 FEW020 BKN100 28/24 A2988 RMK CB RN DST N E FEW280=
200808031600 METAR MRLM 031600Z 31008KT 9999 FEW023 BKN090 27/23 A2986 RMK SCT150 FEW280 CB RN DST N E=
200808031700 METAR MRLM 031700Z 30008KT 9999 FEW028 SCT150 BKN270 27/22 A2986 RMK FEW120 CB RN W=
200808031800 METAR MRLM 031800Z 31010KT 9999 FEW028 SCT150 BKN270 28/22 A2984 RMK FEW100 CB RN N=
200808031900 METAR MRLM 031900Z 28007KT 9999 FEW025 SCT150 BKN270 28/23 A2982 RMK TRACE AC CB DST S W NW RN N=
200808032000 METAR MRLM NIL=
200808032100 METAR MRLM NIL=
200808032200 METAR MRLM 032200Z 30010KT 9999 FEW012 BKN270 28/24 A2977 FEW110 CB RN SE S SW W=
200808032300 METAR MRLM 032300Z 30007KT 9999 FEW020 SCT110 28/24 A2979 CB RN S HZY=
200808040000 METAR MRLM 040000Z NIL MRPV 040000Z NIL=
200808040100 METAR MRLM NIL=
200808040200 METAR MRLM NIL=
200808040300 METAR MRLM NIL=
200808040400 METAR MRLM NIL=
200808040500 METAR MRLM NIL=
200808040600 METAR MRLM NIL=
200808040700 METAR MRLM NIL=
200808040800 METAR MRLM NIL=
200808040900 METAR MRLM NIL=
200808041000 METAR MRLM NIL=
200808041100 METAR MRLM NIL=
200808041200 METAR MRLM NIL=
200808041300 METAR MRLM 041300Z 24005KT CAVOK 24/23 A2983 RMK BKN090 FEW270 CB RN DST N/NW/E=
200808041400 METAR MRLM 041400Z 30003KT CAVOK 29/24 A2984 SCT110 SCT270 CB RN N NE=
200808041500 METAR MRLM 041500Z 36006KT 270V360 CAVOK 30/24 A2982 FEW CU BKN270 CB N NW=
200808041600 METAR MRLM 041600Z 35010KT 9999 FEW030 BKN270 30/24 A2983 RMK CB DST NW TRAZAS AC HZ ARND=
200808041700 METAR MRLM 041700Z 36012KT 9999 FEW025 SCT140 30/25 A2984 SCT280=
200808041800 METAR MRLM 041800Z 36010KT 9999 FEW025 SCT270 30/25 A2983 FEW140 CB S W=
200808041900 METAR MRLM 041900Z 35011KT 9999 FEW028 SCT270 30/24 A2980 FEW140 CB/RN SW W=
200808042000 METAR MRLM 042000Z NIL=
200808042100 METAR MRLM 042100Z 34011KT 9999 SCT022 SCT280 30/24 A2977 RMK FEW140 CB DST S W RN DST S SW W=
200808042200 METAR MRLM 042200Z 31009KT 9999 SCT028 BKN280 30/24 A2977 RMK CB DST SW RN DST W N=
200808042300 METAR MRLM 042300Z 30011KT 9999 SCT025 BKN280 29/24 A2979 RMK CB DST S W RN DST W TRACE AC AS=
200808050000 METAR MRLM 050000Z NIL=
200808050100 METAR MRLM NIL=
200808050200 METAR MRLM NIL=
200808050300 METAR MRLM NIL=
200808050400 METAR MRLM NIL=
200808050500 METAR MRLM NIL=
200808050600 METAR MRLM NIL=
200808050700 METAR MRLM NIL=
200808050800 METAR MRLM NIL=
200808050900 METAR MRLM NIL=
200808051000 METAR MRLM NIL=
200808051100 METAR MRLM NIL=
200808051200 METAR MRLM NIL=
200808051300 METAR MRLM 051300Z 04004KT 8000 TSRA FEW005 FEW015CB BKN020 25/23 A2984 RMK TS E VIS S UNL=
200808051400 METAR MRLM 051400Z 19005KT 6000 RA FEW006 SCT015 BKN100 24/23 A2986=
200808051500 METAR MRLM 051500Z 23004KT 8000 -RA SCT020 BKN090 24/23 A2986 RMK FEW110 VIS S W UNL=
200808051600 METAR MRLM 051600Z 23006KT 9999 RA VCFG SCT020 BKN080 25/23 A2986 RMK VIS E 8000=
200808051700 METAR MRLM 051700Z 04011KT 040V170 1000 +RA OVC015 25/24 A2989=
200808051800 METAR MRLM 051800Z 28006KT 6000 RA FEW006 BKN015 24/23 A2987 RMK FEW090 VIS SW UNL=
200808051900 METAR MRLM 051900Z 24002KT 7000 RA SCT020 SCT080 BKN100 24/23 A2985 RMK VIS S UNL=
200808052000 METAR MRLM 052000Z NIL=
200808052100 METAR MRLM 052100Z 29006KT 7000 RA FEW006 BKN080 24/23 A2983 RMK FEW020 FEW100 VIS 9999 QUAD S CB DST QUAD N=
200808052200 METAR MRLM 052200Z 28009KT 9999 +DZ FEW006 SCT090 24/23 A2982 RMK VIS 5000 W NW N ST CB DST N=
200808052300 METAR MRLM 052300Z 29011KT 9999 -DZ FEW007 OVC100 24/23 A2981 RMK FEW090 CB RN DST QUAD N=
200808060000 METAR MRLM 060000Z NIL=
200808060100 METAR MRLM 060100Z NIL=
200808060200 METAR MRLM NIL=
200808060300 METAR MRLM NIL=
200808060400 METAR MRLM NIL=
200808060500 METAR MRLM NIL=
200808060700 METAR MRLM NIL=
200808060800 METAR MRLM NIL=
200808060900 METAR MRLM NIL=
200808061000 METAR MRLM NIL=
200808061100 METAR MRLM NIL=
200808061200 METAR MRLM NIL=
200808061300 METAR MRLM 061300Z 30007KT 6000 +DZ FEW005 BKN020 A2988 RMK FEW100 VIS 9999 N NE=
200808061400 METAR MRLM 061400Z 23006KT 8000 +DZ FEW006 SCT020 BKN090 24/23 A2988 RMK VIS 9999 QUAD N E=
200808061500 METAR MRLM 061500Z 22008KT CAVOK 27/24 A2988 RMK TRACE SC BKN130 FEW280 RN DST SE HZ ARND=
200808061600 METAR MRLM 061600Z 20006KT 9999 BKN023 29/24 A2987 RMK HZ ARND CB DST NE=
200808061700 METAR MRLM 061700Z 27005KT 010V270 9999 DZ VCSH FEW015CB BKN025 29/24 A2985 RMK VIS 8000 QUAD E TS CB RN=
200808061800 METAR MRLM 061800Z 30003KT 8000 +DZ VCTS FEW010CB BKN020 28/25 A2985 RMK TS NE VIS 9999 NW FEW100=
200808061900 METAR MRLM 061900Z 34010KT 8000 DZ VCTS VCSH SCT006 FEW010CB BKN080 26/24 A 2983 RMK TS N=
200808062000 METAR MRLM 062000Z NIL=
200808062100 METAR MRLM 062100Z 23003KT 6000 +DZ VCSH FEW006 OVC015 24/23 A2981 RMK CBS S W RETSRA TRACE AC=
200808062200 METAR MRLM 062200Z 22005KT 8000 VCSH OVC015 24/23 A2981 VIS UNLTD TO N TRACE ST=
200808062300 METAR MRLM 062300Z 19012KT 3000 RA VCSH FEW006 OVC015 24/23 A2981 RMK VIS UNL TO N=
200808070000 METAR MRLM NIL=
200808070100 METAR MRLM NIL=
200808070200 METAR MRLM NIL=
200808070300 METAR MRLM NIL=
200808070500 METAR MRLM NIL=
200808070600 METAR MRLM NIL=
200808070700 METAR MRLM NIL=
200808070800 METAR MRLM NIL=
200808070900 METAR MRLM NIL=
200808071000 METAR MRLM NIL=
200808071100 METAR MRLM NIL=
200808071300 METAR MRLM 071300Z 24004KT 8000 DZ VCSH FEW005 OVC020 24/23 A2982 RETS RN ARND=
200808071400 METAR MRLM 071400Z NIL=
200808071500 METAR MRLM 071500Z 21004KT 9999 FEW005 OVC020 24/23 A2986 RMK TRACE AS CBS N E QDS RN ARND HZ ARND=
200808071600 METAR MRLM 071600Z 21005KT 9999 SCT020 BKN140 24/23 A2984 RMK TRACE ST FEW080 CBS RN DST N E S QDS=
200808071700 METAR MRLM 071700Z 27003KT 9999 +DZ FEW020 SCT080 BKN130 25/23 A2982 RMK TS DST N CBS N E QDS RN HZ ARND=
200808071800 METAR MRLM 071800Z 20003KT 9999 -DZ SCT020 SCT080 26/21 A2981 RMK CBS DST N TSTM N HZ ARND FEW130=
200808071900 METAR MRLM 071900Z 02003KT 5000 -RA BKN015 26/24 A2981 RMK TS E FEW100=
200808072000 METAR MRLM 072000Z NIL=
200808072100 METAR MRLM 072100Z 31004KT 6000 RA FEW007 SCT015 BKN100 25/24 A2978 RMKCB N E HZ ARND=
200808072200 METAR MRLM 072200Z 20003KT 6000 -RA FEW007 SCT020 BKN100 25/24 A2977=
200808072300 METAR MRLM 072300Z 19003KT 9999 -DZ FEW090 OVC130 25/24 A2975 RMK CB RN DST N E=
200808080000 METAR MRLM NIL=
200808080100 METAR MRLM NIL=
200808080200 METAR MRLM NIL=
200808080300 METAR MRLM NIL=
200808080400 METAR MRLM NIL=
200808080500 METAR MRLM NIL=
200808080600 METAR MRLM NIL=
200808080700 METAR MRLM NIL=
200808080800 METAR MRLM NIL=
200808080900 METAR MRLM NIL=
200808081000 METAR MRLM NIL=
200808081100 METAR MRLM NIL=
200808081200 METAR MRLM NIL=
200808081300 METAR MRLM 081300Z 21003KT 9999 FEW015 SCT130 BKN270 24/22 A2983 RMK CB RN DST N NW E HZ ARND=
200808081400 METAR MRLM 081400Z 02003KT CAVOK 26/22 A2984 RMK TRACE SC SCT130 SCT280 TCU RN DST E HZ ARND=
200808081500 METAR MRLM 081500Z 04004KT CAVOK 28/23 A2985 RM TRACE SCT CU BKN130 FEW280 HZ ARND=
200808081600 METAR MRLM 081600Z 30007KT 9999 SCT032 BKN090 29/23 A2986 RMK DZ NE E HZ ARND TRACE CI=
200808081700 METAR MRLM 081700Z 00000KT 9999 FEW035 BKN130 28/24 A2985=
200808081800 METAR MRLM 081800Z 36014KT 9999 FEW028 SCT280 29/24 A2983 RMK CB DST NW HZ ARND=
200808081900 METAR MRLM 081900Z 36011KT 9999 FEW025 BKN280 29/24 A2980 RMK CB DST S HZ ARND FEW100=
200808082000 METAR MRLM NIL=
200808082100 METAR MRLM 082100Z 33009KT 9999 FEW025 BKN280 30/25 A2974 CB S W HZY=
200808082200 METAR MRLM 082200Z 35008KT 9999 FEW026 BKN280 30/25 A2974 FEW140 CB S=
200808082300 METAR MRLM 082300Z 36007KT 9999 FEW020 SCT100 BKN280 29/25 A2976 CB S RN S SW=
200808090000 METAR MRLM 090000Z NIL=
200808090100 METAR MRLM NIL=
200808090200 METAR MRLM NIL=
200808090300 METAR MRLM NIL=
200808090400 METAR MRLM NIL=
200808090500 METAR MRLM NIL=
200808090600 METAR MRLM NIL=
200808090700 METAR MRLM NIL=
200808090800 METAR MRLM NIL=
200808090900 METAR MRLM NIL=
200808091000 METAR MRLM NIL=
200808091100 METAR MRLM NIL=
200808091200 METAR MRLM NIL=
200808091300 METAR MRLM 091300Z 23004KT CAVOK 25/24 A2985 FEW130 BKN280 CB RN N=
200808091400 METAR MRLM 091400Z 24006KT CAVOK 28/24 A2986 SCT080 BKN280 TRAZAS CU RN N NE E HZY=
200808091500 METAR MRLM 091500Z 32007KT 9999 FEW025 BKN090 29/24 A2989 CB RN N NE E SCT280 HZY=
200808091600 METAR MRLM 091600Z 34009KT 9999 FEW030 BKN090 29/23 A2989 SCT280 CB RN N E HZY=
200808091700 METAR MRLM 091700Z 33013KT 9999 FEW030 SCT110 BKN280 30/24 A2989 RN NE E=
200808091800 METAR MRLM 091800Z 34011KT 9999 FEW025 BKN280 29/24 A2987 FEW110 TCU SE SW=
200808091900 METAR MRLM 091900Z 34009KT 9999 FEW025 SCT090 BKN280 30/24 A2984 CB NE HZY=
200808092000 METAR MRLM 092000Z NIL=
200808092100 METAR MRLM 092100Z 33013KT 9999 OVC025 29/24 A2982 RMK TRACE AC CI RN DST S W N HZ ARND LGT=
200808092200 METAR MRLM 092200Z 33007KT 9999 BKN020 29/24 A2983 RMK FEW090 FEW270 CB RN DST S W DZ N E=
200808092300 METAR MRLM 092300Z 25004KT 9999 3000NW VCSH BKN018 28/24 A2984 RMK FEW150=
200808100000 METAR MRLM 100000Z NIL=
200808100100 METAR MRLM NIL=
200808100200 METAR MRLM NIL=
200808100300 METAR MRLM NIL=
200808100400 METAR MRLM NIL=
200808100500 METAR MRLM NIL=
200808100600 METAR MRLM NIL=
200808100700 METAR MRLM NIL=
200808100800 METAR MRLM NIL=
200808100900 METAR MRLM NIL=
200808101000 METAR MRLM NIL=
200808101100 METAR MRLM NIL=
200808101200 METAR MRLM 101200Z NIL=
200808101300 METAR MRLM 101300Z 22006KT 9999 FEW015 SCT080 BKN270 25/23 A2992 RMK HZ ARND=
200808101400 METAR MRLM 101400Z 23005KT CAVOK 29/24 A2993 RMK TRACE CU AC BKN270 HZ LGT ARND=
200808101500 METAR MRLM 101500Z 15004KT 9999 SCT032 BKN270 30/24 A2994 RMK HZ ARND=
200808101600 METAR MRLM 101600Z 03005KT 9999 FEW030 BKN280 30/23 A2992 HZ ARND CB DST NE=
200808101700 METAR MRLM 101700Z 03008KT 9999 FEW032 BKN280 30/24 A2991 RMK CB DST N NE E HA LGT ARND=
200808101800 METAR MRLM 101800Z 01009KT 9999 FEW032 BKN270 30/24 A2990 RMK TRACE AC CB RN DST N HZ LGT ARND=
200808101900 METAR MRLM 101900Z NIL=
200808102000 METAR MRLM 102000Z NIL=
200808102100 METAR MRLM 102100Z 35009KT 9999 FEW033 BKN270 30/23 A2984 RMK FEW130 CB DST W HZ LEVE ARND=
200808102200 METAR MRLM 102200Z 35007KT 9999 FEW030 BKN270 29/23 A2983 RMK TRACE AC FEW150 LEVE HZ ARND=
200808102300 METAR MRLM 102300Z 33008KT CAVOK 29/23 A2984 RMK TRACE CU BKN150 SCT270 HZ LGT ARND=
200808110000 METAR MRLM 110000Z NIL=
200808110100 METAR MRLM NIL=
200808110200 METAR MRLM NIL=
200808110300 METAR MRLM NIL=
200808110400 METAR MRLM NIL=
200808110500 METAR MRLM NIL=
200808110600 METAR MRLM NIL=
200808110700 METAR MRLM NIL=
200808110800 METAR MRLM NIL=
200808110900 METAR MRLM NIL=
200808111000 METAR MRLM NIL=
200808111100 METAR MRLM NIL=
200808111200 METAR MRLM 111200Z=
200808111300 METAR MRLM 111300Z 21005KT CAVOK 24/22 A2989 RMK BKN130 FEW270 CB RN DST NE TCU DS NW HZ LEVE ARND=
200808111400 METAR MRLM 111400Z 23005KT CAVOK 26/23 A2990 RMK SCT140 SCT270 TRACE CU CB DST NW N NE E RN DST NE HZ ARND=
200808111500 METAR MRLM 111500Z 24004KT CAVOK 28/23 A2990 RMK TRACE CU FEW140 OVC270 CB DST NW NE E HZ ARND=
200808111600 METAR MRLM 111600Z 30008KT 9999 FEW035 BKN270 30/23 A2990 RMK FEW140 CB DST NW NE E HZ LGT ARND=
200808111700 METAR MRLM 111700Z 34012KT 9999 FEW032 BKN140 31/24 A2989 RMK FEW270 CB DST NW N NE E RN DST NE HZ LGT ARND=
200808111800 METAR MRLM 111800Z 34013KT 9999 FEW030 SCT140 30/25 A2987 RMK SCT260 RN DST NE E CB DST W NW N NE E=
200808111900 METAR MRLM 111900Z 35014KT 9999 SCT025 SCT270 30/25 A2985 RMK FEW140 CB DST ARND RN DST SW HZ LGT ARND=
200808112000 METAR MRLM 112000Z NIL=
200808112100 METAR MRLM 112100Z 36007KT 9999 BKN020 SCT090 28/24 A2985 RMK CB RN DST S W TRACE CI=
200808112200 METAR MRLM 112200Z 26005KT 080V260 9999 +DZ BKN025 SCT090 28/23 A2985 RMK CBS RN DST S W=
200808112300 METAR MRLM 112300Z 20006KT 9999 -RA VCSH SCT010 BKN090 26/24 A2987 RMK VIS S 8KMS=
200808120000 METAR MRLM NIL=
200808120100 METAR MRLM NIL=
200808120200 METAR MRLM NIL=
200808120300 METAR MRLM NIL=
200808120400 METAR MRLM NIL=
200808120500 METAR MRLM NIL=
200808120600 METAR MRLM NIL=
200808120700 METAR MRLM NIL=
200808120800 METAR MRLM NIL=
200808120900 METAR MRLM NIL=
200808121000 METAR MRLM NIL=
200808121100 METAR MRLM NIL=
200808121200 METAR MRLM NIL=
200808121300 METAR MRLM 121300Z 23007KT 9999 FEW015 OVC090 23/21 A2990 RMK DZ N CBS RN DST NW N LGT HZ ARND=
200808121400 METAR MRLM 121400Z 20006KT 9999 FEW015 BKN090 29/22 A2991 RMK TCU RN DST NE CBS RN DST NW TRACE CI HZY=
200808121500 METAR MRLM 121500Z 25006KT 9999 FEW032 29/23 A2989 RMK FEW130 CB RN DST NW NE=
200808121600 METAR MRLM 121600Z 31012KT 9999 FEW040 SCT270 30/22 A2990 RMK CBS RN DST NW N NE E FEW140=
200808121700 METAR MRLM 121700Z 35011KT 9999 FEW032 BKN260 30/23 A2987 RMK TRACE AC CB DST NW N NE E RN SW NE=
200808121800 METAR MRLM 121800Z 35012KT 9999 SCT030 SCT080 30/24 A2986 RMK CBS RN DST S SW W NW NE E LGT HZ ARND=
200808121900 METAR MRLM 121900Z 35012KT 9999 SCT025 SCT080 29/24 A2984 RMK FEW080 SCT270=
200808122000 METAR MRLM 122000Z NIL=
200808122100 METAR MRLM 122100Z 01008KT 9999 FEW030 BKN080 29/23 A2979 RMK FEW270 CB S W N RN W=
200808122200 METAR MRLM 122200Z 01005KT 9999 FEW035 BKN090 29/22 A2979 RMK FEW270 CB RN S W=
200808122300 METAR MRLM 122300Z 02003KT 9999 DZ FEW030 BKN090 28/22 A2981 RMK FEW270 CB RN DST S W=
200808130000 METAR MRLM NIL=
200808130100 METAR MRLM NIL=
200808130200 METAR MRLM NIL=
200808130300 METAR MRLM NIL=
200808130400 METAR MRLM NIL=
200808130500 METAR MRLM NIL=
200808130600 METAR MRLM NIL=
200808130700 METAR MRLM NIL=
200808130800 METAR MRLM NIL=
200808130900 METAR MRLM NIL=
200808131000 METAR MRLM NIL=
200808131100 METAR MRLM NIL=
200808131200 METAR MRLM NIL=
200808131300 METAR MRLM 131300Z 23004KT CAVOK 25722 2987 RMK SCT140 SCT280 HZ ARND=
200808131400 METAR MRLM 131400Z 04004KT 040V130 CAVOK 29/22 A2990 RMK SCT140 BKN280 HZ ARND=
200808131500 METAR MRLM 131500Z 02004KT 9999 FEW030 SCT150 29/23 A2991 RMK CB DST N SCT280 HZ ARND=
200808131600 METAR MRLM 131600Z 02006KT 9999 SCT030 29/23 A2991 RMK TRACE AC FEW280 CB N HZ ARND=
200808131700 METAR MRLM 131700Z 04006KT 9999 SCT028 29/24 A2991 RMK TRACE AC FEW280 CB N E RN N NE=
200808131800 METAR MRLM 131800Z 03006KT 9999 SCT028 30/24 A2988 RMNK FEW270 CB RN N CB SE S TRACE AC=
200808131900 METAR MRLM 131900Z 04007KT 9999 SCT030 SCT270 30/24 A2985 RMK CB DST W NW N SE S RNB DST N NW TRACE AC=
200808132000 METAR MRLM NIL=
200808132100 METAR MRLM 132100Z 05004KT 9999 FEW030 SCT270 30/24 A2981 CB S=
200808132200 METAR MRLM NIL=
200808132300 METAR MRLM 132300Z 06005KT 9999 BKN028 BKN270 29/24 A2983 CB S SW W NW N=
200808140000 METAR MRLM 140000Z NIL=
200808140100 METAR MRLM NIL=
200808140200 METAR MRLM NIL=
200808140300 METAR MRLM NIL=
200808140400 METAR MRLM NIL=
200808140500 METAR MRLM NIL=
200808140600 METAR MRLM NIL=
200808140700 METAR MRLM NIL=
200808140800 METAR MRLM NIL=
200808140900 METAR MRLM NIL=
200808141000 METAR MRLM NIL=
200808141100 METAR MRLM NIL=
200808141200 METAR MRLM 141200Z NIL=
200808141300 METAR MRLM 141300Z 21004KT CAVOK 26/23 A2990 SCT100 SCT280 CB RN DIST N HZ LGT ARND=
200808141400 METAR MRLM NIL=
200808141500 METAR MRLM 141500Z 09005KT CAVOK 29/23 A2992 SCT090 BKN280 TRAZAS CU CB RN N=
200808141600 METAR MRLM 141600Z 06006KT 9999 FEW035 BKN270 30/23 A2992 CB RN N NE=
200808141700 METAR MRLM 141700Z 07008KT 999 FEW033 BKN270 30/25 A2991 FEW130=
200808141800 METAR MRLM 141800Z 07009KT 9999 FEW035 SCT130 31/24 A2989 SCT270 HZY=
200808141900 METAR MRLM 141900Z 08008KT 9999 FEW033 SCT280 30/24 A2986 FEW150=
200808142000 METAR MRLM NIL=
200808142100 METAR MRLM 142100Z 07009KT 9999 FEW032 BKN028 30/24 A2984 RMK FEW140 HZ LGT ARND=
200808142200 METAR MRLM 142200Z 06007KT 9999 BKN028 SCT280 30/25 A2984 FEW140 HZ ARND=
200808142300 METAR MRLM 142300Z 07006KT 9999 BKN030 SCT280 30/24 A2985 FEW040 HZ LGT ARND=
200808150000 METAR MRLM 150000Z NIL=
200808150100 METAR MRLM NIL=
200808150200 METAR MRLM NIL=
200808150300 METAR MRLM NIL=
200808150400 METAR MRLM NIL=
200808150500 METAR MRLM NIL=
200808150600 METAR MRLM NIL=
200808150700 METAR MRLM NIL=
200808150800 METAR MRLM NIL=
200808150900 METAR MRLM NIL=
200808151000 METAR MRLM NIL=
200808151100 METAR MRLM NIL=
200808151200 METAR MRLM NIL=
200808151300 METAR MRLM 151300Z NIL=
200808151400 METAR MRLM 151400Z 32004KT 9999 FEW030 BKN280 29/23 A2993 RMK TRACE AC CB DST NW N HZ ARND=
200808151500 METAR MRLM 151500Z 03005KT 9999 FEW025 BKN280 29/24 A2993 RMK TCU DST N HZ ARND=
200808151600 METAR MRLM 151600Z 01009KT 9999 FEW028 29/24 A2993 RMK SCT280=
200808151700 METAR MRLM 151700Z 35011KT 9999 FEW030 30/24 A2993 RMK FEW280 TRACE AC HZ LGT ARND=
200808151800 METAR MRLM 151800Z 01010KT 9999 FEW032 30/23 A2991 RMK FEW280 TRACE AC CB DST SE SW HZ LGT ARND=
200808151900 METAR MRLM 151900Z 36008KT 9999 FEW033 30/23 A2988 RMK TRACE AC FEW280 CB DST SE S SW NW N RN DST SW=
200808152000 METAR MRLM 152000Z NIL=
200808152100 METAR MRLM 152100Z 36008KT 999 FEW030 BKN280 30/23 A2993 RMK FEW140 RN DST SW CB DST SE S SW W N=
200808152200 METAR MRLM 152200Z 02007KT 9999 FEW032 BKN280 30/23 A2984 RMK CB DST SE S TRACE AC LGT HZ ARND=
200808152300 METAR MRLM 152300Z 01007KT 9999 FEW032 BKN280 29/23 A2986 RMK CB RN DST S SW=
200808160000 METAR MRLM 160000Z NIL=
200808160100 METAR MRLM NIL=
200808160200 METAR MRLM NIL=
200808160300 METAR MRLM NIL=
200808160400 METAR MRLM NIL=
200808160500 METAR MRLM NIL=
200808160600 METAR MRLM NIL=
200808160700 METAR MRLM NIL=
200808160800 METAR MRLM NIL=
200808160900 METAR MRLM NIL=
200808161000 METAR MRLM NIL=
200808161100 METAR MRLM NIL=
200808161200 METAR MRLM NIL=
200808161300 METAR MRLM 161300Z 24005KT CAVOK 26/22 A2990 RMK SCT130 FEW270 CB DST NW N NE E HZ ARND=
200808161400 METAR MRLM 161400Z 26004KT CAVOK 29/23 A2990 RMK FEW140 SCT280 CB DST NW N HZY=
200808161500 METAR MRLM 161500Z 28010KT CAVOK 30/22 A2990 RMK TRACE CU AC BKN280 HZ LEVE ARND CB DST NW N=
200808161600 METAR MRLM 161600Z 31010KT CAVOK 32/21 A2991 FEW050 TRACE AC BKN280 CB DST QUAD N HZ LGT ARND=
200808161700 METAR MRLM 161700Z 36011KT 9999 FEW040 BKN280 31/23 A2989 RMK FEW140 CB DST QUAD N HZ LGT ARND=
200808161800 METAR MRLM 161800Z 35013KT 9999 FEW038 BKN280 31/23 A2988 RMK CB DST QUAD N FEW140 HZ LGT ARND=
200808161900 METAR MRLM NIL=
200808162000 METAR MRLM 162000Z 35015KT 9999 FEW028 SCT140 BKN270 30/25 A2983 RMK CB RN DST NE SW=
200808162100 METAR MRLM 162100Z 35015KT 9999 SCT028 BKN270 30/24 A2980=
200808162200 METAR MRLM 162200Z NIL=
200808162300 METAR MRLM 162300Z NIL=
200808170000 METAR MRLM NIL=
200808170100 METAR MRLM NIL=
200808170200 METAR MRLM NIL=
200808170300 METAR MRLM NIL=
200808170500 METAR MRLM NIL=
200808170600 METAR MRLM NIL=
200808170700 METAR MRLM NIL=
200808170800 METAR MRLM NIL=
200808170900 METAR MRLM NIL=
200808171000 METAR MRLM NIL=
200808171100 METAR MRLM NIL=
200808171200 METAR MRLM NIL=
200808171300 METAR MRLM 171300Z NIL=
200808171400 METAR MRLM 171400Z NIL=
200808171500 METAR MRLM 171500Z NIL=
200808171600 METAR MRLM NIL=
200808171700 METAR MRLM NIL=
200808171800 METAR MRLM NIL=
200808171900 METAR MRLM NIL=
200808172000 METAR MRLM NIL=
200808172100 METAR MRLM NIL=
200808172200 METAR MRLM NIL=
200808172300 METAR MRLM 172300Z 08006KT 9999 BKN025 SCT090 29/23 A2981 RMK CB RN DST S W TRACE CI=
200808180000 METAR MRLM NIL=
200808180100 METAR MRLM NIL=
200808180200 METAR MRLM NIL=
200808180300 METAR MRLM NIL=
200808180400 METAR MRLM NIL=
200808180500 METAR MRLM NIL=
200808180600 METAR MRLM NIL=
200808180700 METAR MRLM NIL=
200808180800 METAR MRLM NIL=
200808180900 METAR MRLM NIL=
200808181000 METAR MRLM NIL=
200808181100 METAR MRLM NIL=
200808181200 METAR MRLM 181200Z NIL=
200808181300 METAR MRLM 181300Z 20005KT CAVOK 27/23 A2986 RMK BKN120 FEW270 CB NE E HZ LEVE ARND=
200808181400 METAR MRLM 181400Z 06003KT 9999 FEW030 BKN270 29/23 A2988 RMK FEW130 CB RN NE E=
200808181500 METAR MRLM 181500Z 06006KT 9999 FEW028 SCT110 BKN260 28/23 A2989 RMK CB RN NE E=
200808181600 METAR MRLM 181600Z 05006KT 9999 FEW020 SCT080 28/24 A2990 RMK SCT140 FEW260 CB RN N NE E=
200808181700 METAR MRLM 181700Z 04006KT 9999 SCT024 SCT080 28/24 A2988 RMK TRACE AS CI CB DST N NE=
200808181800 METAR MRLM 181800Z 01006KT 9999 SCT025 SCT080 30/24 A2986 RMK TRACE CI CB SE S SW W NW HZ ARND=
200808181900 METAR MRLM 181900Z 35009KT 9999 SCT025 30/24 A2983 RMK FEW090 FEW270 CB DST S W N HZ ARND=
200808182000 METAR MRLM NIL=
200808182100 METAR MRLM 182100Z 02006KT 9999 FEW028 SCT270 30/24 A2980 RN CB S W=
200808182200 METAR MRLM 182200Z 02007KT 9999 FEW028 SCT270 29/24 A2980 CB RN S W=
200808182300 METAR MRLM 182300Z 02005KT 9999 SCT038 29/22 A2981 FEW270 CB RN S W N E=
200808190000 METAR MRLM NIL=
200808190100 METAR MRLM NIL=
200808190200 METAR MRLM NIL=
200808190300 METAR MRLM NIL=
200808190400 METAR MRLM NIL=
200808190500 METAR MRLM NIL=
200808190600 METAR MRLM NIL=
200808190700 METAR MRLM NIL=
200808190800 METAR MRLM NIL=
200808190900 METAR MRLM NIL=
200808191000 METAR MRLM NIL=
200808191100 METAR MRLM NIL=
200808191200 METAR MRLM NIL=
200808191300 METAR MRLM 191300Z 20006KT CAVOK 26/23 A2987 FEW090 SCT140 BKN270 TSTM N CB N NE E RN NE E=
200808191400 METAR MRLM 191400Z 14005KT 9999 FEW033 SCT150 29/23 A2989 FEW100 SCT270 CB RN N=
200808191500 METAR MRLM 191500Z 07005KT 9999 FEW032 BKN270 29/23 A2989 CB RN N FEW110=
200808191600 METAR MRLM 191600Z 09007KT 9999 FEW035 SCT130 BKN270 30/23 A2989 FEW150 CB NE E HZY=
200808191700 METAR MRLM 191700Z 07009K 9999 FEW038 BKN140 30/23 A2987 FEW270 CB NW N NE E SE=
200808191800 METAR MRLM 191800Z 08011KT 9999 FEW035 SCT110 BKN270 31/23 A2985 CB ARND=
200808191900 METAR MRLM 191900Z 08010KT 9999 FEW035 BKN280 31/23 A2983 CB S W=
200808192000 METAR MRLM 192000Z NIL=
200808192100 METAR MRLM 192100Z 08011KT 9999 BKN030 30/20 A2981 RMK FEW280 CB NE S W NW=
200808192200 METAR MRLM 192200Z 09007KT 9999 BKN030 30/24 A2981=
200808192300 METAR MRLM 192300Z 09010KT 9999 BKN025 SCT280 29/24 A2981=
200808200000 METAR MRLM 200000Z NIL=
200808200100 METAR MRLM NIL=
200808200200 METAR MRLM NIL=
200808200300 METAR MRLM NIL=
200808200400 METAR MRLM NIL=
200808200500 METAR MRLM NIL=
200808200700 METAR MRLM NIL=
200808200800 METAR MRLM NIL=
200808200900 METAR MRLM NIL=
200808201000 METAR MRLM NIL=
200808201100 METAR MRLM NIL=
200808201200 METAR MRLM NIL=
200808201300 METAR MRLM 201300Z NIL=
200808201400 METAR MRLM 201400Z 22003KT 5000 -TSRA FEW008 SCT010CB BKN015 25/23 A2992 RMK TS E SE=
200808201500 METAR MRLM 201500Z 21002KT 8000 DZ TS FEW006 SCT015CB BKN025 24/23 A2994 RMK VIS E S UNL=
200808201600 METAR MRLM 201600Z 25003KT 9999 VCSH SCT006 BKN015 25/23 A2996 RETS RMK VIS 8000 N DUE RA=
200808201700 METAR MRLM 201700Z 26006KT CAVOK 26/24 A2992 RMK TRACE ST SC AC BKN140 FEW260 CB RN DST W NW N NE=
200808201800 METAR MRLM 201800Z 25002KT CAVOK 28/24 A2988 RMK TRACE AC SCT120 BKN270 CB DST ARND RN DST N=
200808201900 METAR MRLM 201900Z 03005KT 9999 FEW020 BKN270 28/24 A2985 RMK FEW140 CB DST S N HZ LGT ARND=
200808202000 METAR MRLM 202000Z NIL=
200808202100 METAR MRLM 202100Z 02007KT 9999 FEW023 OVC270 28/24 A2981 RMK CB RN DST SE TCU RN DST SW TRACE AC=
200808202200 METAR MRLM 202200Z 02004KT 9999 FEW032 OVC270 29/23 A2980 RMK CB RN DST QUAD S=
200808202300 METAR MRLM 202300Z 03005KT 9999 FEW025 OVC280 28/23 A2983 RMK CB RN DST SE S SW W TRACE AC=
200808210000 METAR MRLM 210000Z NIL=
200808210100 METAR MRLM 210100Z NIL=
200808210200 METAR MRLM NIL=
200808210300 METAR MRLM NIL=
200808210400 METAR MRLM NIL=
200808210500 METAR MRLM NIL=
200808210600 METAR MRLM NIL=
200808210700 METAR MRLM NIL=
200808210800 METAR MRLM NIL=
200808210900 METAR MRLM NIL=
200808211000 METAR MRLM NIL=
200808211100 METAR MRLM NIL=
200808211200 METAR MRLM 211200Z NIL=
200808211300 METAR MRLM 211300Z 21006KT CAVOK 25/22 A2990 RMK TRACE AC BKN280 TCU DST NW NE LGT HZ ARND=
200808211400 METAR MRLM 211400Z 24004KT CAVOK 29/23 A2992 RMK TCU DST N NE FEW140 BKN280 TRACE CU HZ ARND=
200808211500 METAR MRLM 211500Z 22005KT 9999 FEW038 BKN280 31/23 A2992 RMK HZ LGT ARND=
200808211600 METAR MRLM 211600Z 36007KT 9999 FEW032 BKN280 30/24 2992 RMK TRACE AC HZ ARND=
200808211700 METAR MRLM 211700Z 36010KT 9999 FEW030 BKN280 30/24 A2991 RMK FEW140 CB DST NW NE E HZ LGT ARND=
200808211800 METAR MRLM 211800Z 36010KT 9999 FEW028 SCT280 30/24 A2989 RMK TCU RN DST S FEW120 HZ LGT ARND=
200808211900 METAR MRLM 211900Z 35009KT 9999 FEW030 BKN280 30/24 A2986 RMK CB DST NW SE S SW W TRACE AC HZ LGT ARND=
200808212000 METAR MRLM 212000Z NIL=
200808212100 METAR MRLM 212100Z 34008KT 999 FEW028 BKN270 30/24 A2982 RMK TRACE AC CB DST NE SE S W=
200808212200 METAR MRLM 212200Z 35008KT 9999 FEW024 BKN260 29/24 A2983 RMK FEW140 CB DST S W HZ ARND=
200808212300 METAR MRLM 212300Z 36004KT 9999 BKN024 SCT270 29/24 A2984=
200808220000 METAR MRLM NIL=
200808220100 METAR MRLM NIL=
200808220200 METAR MRLM NIL=
200808220300 METAR MRLM NIL=
200808220400 METAR MRLM NIL=
200808220500 METAR MRLM NIL=
200808220600 METAR MRLM NIL=
200808220700 METAR MRLM NIL=
200808220800 METAR MRLM NIL=
200808220900 METAR MRLM NIL=
200808221000 METAR MRLM NIL=
200808221100 METAR MRLM NIL=
200808221200 METAR MRLM 221200Z NIL=
200808221300 METAR MRLM 221300Z 23003KT CAVOK 23/22 A2989 RMK FEW120 SCT140 BKN270 CBS RN DST N NE E=
200808221400 METAR MRLM 221400Z 28002KT CAVOK 24/22 A2990 RMK FEW120 SCT140 SCT170 CB RNB DST NW N NE=
200808221500 METAR MRLM 221500Z 32005KT CAVOK 26/22 A2993 RMK FEW130 FEW150 BKN270 CBS DST NE TCU N NE RN DST NW=
200808221600 METAR MRLM 221600Z 24004KT CAVOK 29/24 A2993 RMK TRACE CU BKN130 FEW270 CB RN DST NW LGT HZ ARND=
200808221700 METAR MRLM 221700Z 29009KT 9999 FEW040 SCT140 BKN270 30/22 A2991 CBS RN DST N QUAD LGT HZ ARND=
200808221800 METAR MRLM 221800Z 34013KT 9999 FEW035 SCT140 BKN270 30/24 A2989 RMK CBS RN DST E N HZY=
200808221900 METAR MRLM 221900Z 32010KT 9999 FEW040 SCT140 BKN270 3/23 A2987 RMK CBS DST S N RN N=
200808222000 METAR MRLM 222000Z NIL=
200808222100 METAR MRLM 222100Z 33014KT 9999 SCT028 BKN090 30/24 A2985 RMK FEW270 CB RN ARND=
200808222200 METAR MRLM 222200Z 33013KT 9999 SCT025 SCT120 29/24 A2983 RMK FEW270 CB RN ARND=
200808222300 METAR MRLM 222300Z 34010KT 9999 SCT025 SCT270 29/24 A2983 RMK TRACE AC CB RN ARND=
200808230000 METAR MRLM NIL=
200808230100 METAR MRLM NIL=
200808230200 METAR MRLM NIL=
200808230300 METAR MRLM NIL=
200808230400 METAR MRLM NIL=
200808230500 METAR MRLM NIL=
200808230600 METAR MRLM NIL=
200808230700 METAR MRLM NIL=
200808230800 METAR MRLM NIL=
200808230900 METAR MRLM NIL=
200808231000 METAR MRLM NIL=
200808231100 METAR MRLM NIL=
200808231200 METAR MRLM 231200Z NIL=
200808231300 METAR MRLM 231300Z 26003KT CAVOK 26/23 A2990 RMK SCT140 SCT270 CB RN DST NW N E HZ ARND=
200808231400 METAR MRLM 231400Z 27009KT 9999 FEW022 BKN110 27/22 A2991 RMK FEW270 CB RN W N HZ ARND=
200808231500 METAR MRLM 231500Z 28010KT 9999 FEW030 BKN110 29/23 A2992 RMK TRACE CI CB RN N HZ ARND=
200808231600 METAR MRLM 231600Z 28012KT 9999 SCT030 BKN110 29/23 A2991 RMK CB RN N HZ ARND TRACE CI=
200808231700 METAR MRLM 231700Z 33015KT 9999 VCSH OVC025 29/24 A2990 RMK 8000 N=
200808231800 METAR MRLM 231800Z 36017KT 9999 DZ VCSH OVC020 27/23 A2989 RMK TRACE AC AS VIS 8000 N=
200808231900 METAR MRLM 231900Z 34005KT 9999 DZ BKN020 SCT090 27/23 A2988 RMK CB RN HZ ARND=
200808232000 METAR MRLM NIL=
200808232100 METAR MRLM 232100Z 16004KT 8000 RA FEW005 BKN100 24/23 A2986 VSBY N E UNL CB N=
200808232200 METAR MRLM 232200Z 21006KT 9999 DZ FEW020 OVC100 24/23 A2985 CB N0=
200808232300 METAR MRLM 232300Z 20006KT 9999 +DZ FEW015 SCRT080 BKN100 24/22 A2985 CB RN NE E=
200808240000 METAR MRLM 240000Z NIL=
200808240100 METAR MRLM NIL=
200808240200 METAR MRLM NIL=
200808240300 METAR MRLM NIL=
200808240400 METAR MRLM NIL=
200808240500 METAR MRLM NIL=
200808240600 METAR MRLM NIL=
200808240700 METAR MRLM NIL=
200808240800 METAR MRLM NIL=
200808240900 METAR MRLM NIL=
200808241000 METAR MRLM NIL=
200808241100 METAR MRLM NIL=
200808241200 METAR MRLM 241200Z NIL=
200808241300 METAR MRLM 241300Z 22004KT CAVOK 26/23 A2986 FEW140 FEW280 CB NE E HZY=
200808241400 METAR MRLM 241400Z 22003KT CAVOK 28/23 A2987 TRAZAS CU FEW140 SCT280 TCU NE=
200808241500 METAR MRLM 241500Z 30007KT 9999 FEW042 SCT280 30/21 A2986 TRAZAS AC TCU N NE E=
200808241600 METAR MRLM 241600Z 36009KT 9999 FEW032 SCT280 29/23 A2987 TCU N NE=
200808241700 METAR MRLM 241700Z 35011KT 9999 FEW030 SCT280 29/23 A2986 CB NE FEW120 HZY=
200808241800 METAR MRLM 241800Z 354010KT 9999 FEW028 SCT120 29/24 A2984 FEW280 TCU RN SW W=
200808241900 METAR MRLM 241900Z 35009KT 9999 SCT028 SCT080 30/24 A2981 CB S W RN W=
200808242000 METAR MRLM 242000Z NIL=
200808242100 METAR MRLM 242100Z 36004KT 9999 VCSH BKN028 SCT090 29/23 A2978 RMK CB RN S SW W VIS 8000 DUE RN=
200808242200 METAR MRLM 242200Z 22006KT 9999 DZ BKN015 SCT090 26/24 A2978 RMK TRACE CI RN S SW W=
200808242300 METAR MRLM 242300Z 24004KT 9999 SCT012 BKN090 26/24 A2979 RMK CB DST SE S RN NW TRACE CI=
200808250000 METAR MRLM 250000Z NIL=
200808250100 METAR MRLM NIL=
200808250200 METAR MRLM NIL=
200808250300 METAR MRLM NIL=
200808250400 METAR MRLM NIL=
200808250500 METAR MRLM NIL=
200808250600 METAR MRLM NIL=
200808250700 METAR MRLM NIL=
200808250800 METAR MRLM NIL=
200808250900 METAR MRLM NIL=
200808251000 METAR MRLM NIL=
200808251100 METAR MRLM NIL=
200808251200 METAR MRLM NIL=
200808251300 METAR MRLM 251300Z 19002KT CAVOK 24/23 A2985 RMK TRACE ST BKN100 SCT280 HZ LEVE ARND=
200808251400 METAR MRLM 251400Z 19004KT CAVOK 25/23 A2987 RMK BKN130 FEW270 TRACE SC=
200808251500 METAR MRLM 251500Z 22006KT CAVOK 29/23 A2986 RMK TRACE CU BKN110 FEW280 HZ LGT ARN=
200808251600 METAR MRLM 251600Z 30008KT 9999 FEW040 BKN130 30/22 A2985 RMK FEW280 HZ LGT ARND=
200808251700 METAR MRLM 251700Z 01011KT 9999 FEW032 BKN140 29/23 A2985 RMK TRACE CI HZ LGT ARND=
200808251800 METAR MRLM NIL=
200808251900 METAR MRLM 251900Z 35013K 9999 FEW035 SCT120 30/23 A2980 RMK CB DST S RN DST SW TRACE CI=
200808252000 METAR MRLM 252000Z NIL=
200808252100 METAR MRLM 252100Z 03008KT 9999 SCT028 SCT090 29/23 A2977 RMK TRACE CI CB RN DST S W=
200808252200 METAR MRLM NIL=
200808252300 METAR MRLM 252300Z 09006KT 9999 BKN025 SCT090 28/23 A2980 RMK CB RN DST QUADS S W TRACE CI=
200808260000 METAR MRLM 260000Z NIL=
200808260100 METAR MRLM 260100Z NIL=
200808260200 METAR MRLM NIL=
200808260300 METAR MRLM NIL=
200808260400 METAR MRLM NIL=
200808260500 METAR MRLM NIL=
200808260600 METAR MRLM NIL=
200808260700 METAR MRLM NIL=
200808260800 METAR MRLM NIL=
200808260900 METAR MRLM NIL=
200808261000 METAR MRLM NIL=
200808261100 METAR MRLM NIL=
200808261200 METAR MRLM 261200Z NIL=
200808261300 METAR MRLM 261300Z 26005KT CAVOK 27/23 A2984 RMK TRACE CU SCT140 SCT280 LGT HZ=
200808261400 METAR MRLM 261400Z 27005KT CAVOK 30/23 A2986 RMK TRACE SC CU TCU DST NE BKN140 FEW280 LGT HZ ARND=
200808261500 METAR MRLM 261500Z 02006KT CAVOK 29/24 A2987 RMK TRACE CI CU OVC090 CB RN DST NE=
200808261600 METAR MRLM 261600Z 34007KT CAVOK 30/23 A2988 RMK OVC090 TRACE CU CI CB RN DST N NE=
200808261700 METAR MRLM 261700Z 02005KT 9999 FEW028 OVC090 29/24 A2988 RMK CB DST NW N LGT HZ ARND=
200808261800 METAR MRLM 261800Z 04006KT 9999 FEW028 BKN090 30/24 A2985 RMK CB DST NW TRACE CI KZ LGT ARND=
200808261900 METAR MRLM 261900Z 03006KT 9999 SCT025 BKN090 30/25 A2983 RMK CB DST QUAD W TRACE CI LGT HZ ARND=
200808262000 METAR MRLM 262000Z NIL=
200808262100 METAR MRLM 212100Z 07007KT 9999 SCT028 SCT140 BKN280 30/25 A2979 RMK CB DST W S QUADS RN DST W=
200808262200 METAR MRLM 262200Z 06003KT 9999 FEW025 BKN110 30/24 A2980 RMK FEW280 CBS RN DST S W QDS=
200808262300 METAR MRLM 262300Z 06006KT 9999 SCT025 SCT110 BKN280 29/24 A2979 RMK CB RN DST W QD=
200808270000 METAR MRLM NIL=
200808270100 METAR MRLM NIL=
200808270200 METAR MRLM NIL=
200808270300 METAR MRLM NIL=
200808270400 METAR MRLM NIL=
200808270500 METAR MRLM NIL=
200808270600 METAR MRLM NIL=
200808270700 METAR MRLM NIL=
200808270800 METAR MRLM NIL=
200808270900 METAR MRLM NIL=
200808271000 METAR MRLM NIL=
200808271100 METAR MRLM NIL=
200808271200 METAR MRLM 271200Z NIL=
200808271300 METAR MRLM 271300Z NIL=
200808271400 METAR MRLM 271400Z 07003KT CAVOK 29/24 A2989 TRACE CU BKN110 FEW280 CB DST E HZ LG ARND=
200808271500 METAR MRLM 271500Z 04005KT 9999 FEW025 BKN110 30/24 A2989 RMK TRACE CI CB DST NE E=
200808271600 METAR MRLM 271600Z 02006KT 9999 FEW028 SCT130 30/24 A2988 RMK SCT270 HZY=
200808271700 METAR MRLM 271700Z 02007KT 9999 FEW028 SCT140 31/24 A2987 RMK CB DST SE S LGT HZ ARND FEW270=
200808271800 METAR MRLM 271800Z 02008KT 9999 FEW030 BKN270 30/24 A2984 RMK TRACE AC CB DST S W HZ LGT ARND=
200808271900 METAR MRLM 271900Z 36011KT 9999 SCT030 BKN270 30/25 A2981 RMK CB DST SE S SW W TSTM RN SW=
200808272000 METAR MRLM 272000Z NIL=
200808272100 METAR MRLM 272100Z 36006KT 9999 FEW032 SCT270 31/24 A2976 RMK FEW150 CB DST S W RN S SW W=
200808272200 METAR MRLM 272200Z 01006KT 9999 FEW030 BKN270 31/24 A2976 RMK TRACE AC CB RN S SW W=
200808272300 METAR MRLM 272300Z 05004KT 9999 FEW030 BKN270 30/24 A2978 RMK CB RN DST S W FEW110=
200808280000 METAR MRLM NIL=
200808280100 METAR MRLM NIL=
200808280200 METAR MRLM NIL=
200808280300 METAR MRLM NIL=
200808280400 METAR MRLM NIL=
200808280500 METAR MRLM NIL=
200808280600 METAR MRLM NIL=
200808280700 METAR MRLM NIL=
200808280800 METAR MRLM NIL=
200808280900 METAR MRLM NIL=
200808281000 METAR MRLM NIL=
200808281100 METAR MRLM NIL=
200808281200 METAR MRLM NIL=
200808281300 METAR MRLM 281300Z 20004KT CAVOK 25/22 A2980 RMK FEW140 BKN280 CB RN NE E HZ LEVE ARND=
200808281400 METAR MRLM 281400Z 22004KT CAVOK 28/23 A2981 RMK FEW110 BKN270 CB RN E HZ ARND=
200808281500 METAR MRLM 281500Z 06005KT CAVOK 29/22 A2983 RMK FEW140 BKN280 TRACE CU CB E HZ ARND=
200808281600 METAR MRLM 281600Z 07004KT 9999 FEW035 BKN120 30/23 A2980 RMK FEW280 HZ ARND=
200808281700 METAR MRLM 281700Z 03006KT 9999 FEW030 OVC100 30/23 A2983 RMK TRACE CI HZ ARND=
200808281800 METAR MRLM 281800Z 07006KT 9999 FEW030 BKN130 30/24 A2985 RMK CB DST S FEW270=
200808281900 METAR MRLM 281900Z 03006KT 9999 FEW028 SCT080 30/24 A2980 RMK CB SE S SW W NW NE=
200808282000 METAR MRLM NIL=
200808282100 METAR MRLM 282100Z 08007KT 9999 FEW038 BKN280 31/24 A2998 CB S W RN S SW=
200808282200 METAR MRLM 282200Z 10006KT 9999 FEW038 BKN280 31/23 A2971 FEW140 CB RN S W=
200808282300 METAR MRLM 282300Z 09007KT CAVOK 30/24 A2971 FEW130 BKN280 CB RN S W=
200808290000 METAR MRLM NIL=
200808290100 METAR MRLM NIL=
200808290200 METAR MRLM NIL=
200808290300 METAR MRLM NIL=
200808290400 METAR MRLM NIL=
200808290500 METAR MRLM NIL=
200808290600 METAR MRLM NIL=
200808290700 METAR MRLM NIL=
200808290800 METAR MRLM NIL=
200808290900 METAR MRLM NIL=
200808291000 METAR MRLM NIL=
200808291100 METAR MRLM NIL=
200808291200 METAR MRLM NIL=
200808291300 METAR MRLM NIL=
200808291400 METAR MRLM 291400Z 00000KT CAVOK 29/23 A2974 TRAZAS CU BKN280 CB E=
200808291500 METAR MRLM 291500Z 08004KT 9999 FEW025 BKN280 29/23 A2977=
200808291600 METAR MRLM 291600Z 07004KT 9999 FEW030 BKN280 29/23 A2977 HZY=
200808291700 METAR MRLM 291700Z 07006KT 9999 FEW030 SCT280 30/24 A2977 CB E=
200808291800 METAR MRLM 291800Z 07006KT 9999 FEW030 SCT280 30/24 A2978 CB E SE TCU S SW W RN SW=
200808291900 METAR MRLM 291900Z 07008KT 9999 FEW028 31/25 A2971 FEW280 CB E SE S SW W RN SW W=
200808292000 METAR MRLM 292000Z NIL=
200808292100 METAR MRLM 292100Z 07005KT 9999 BKN028 31/25 A2971 RMK FEW110 FEW280 CB RN DST S W=
200808292200 METAR MRLM 292200Z 10007KT 9999 BKN025 20/25 A2970 RMK CB RN DST S W FEW110 FEW280=
200808292300 METAR MRLM 292300Z 11008KT 9999 BKN025 29/25 A2972 RMK CB DST S N FEW100 FEW280=
200808300000 METAR MRLM NIL=
200808300100 METAR MRLM NIL=
200808300200 METAR MRLM NIL=
200808300300 METAR MRLM NIL=
200808300400 METAR MRLM NIL=
200808300500 METAR MRLM NIL=
200808300600 METAR MRLM NIL=
200808300700 METAR MRLM NIL=
200808300800 METAR MRLM NIL=
200808300900 METAR MRLM NIL=
200808301000 METAR MRLM NIL=
200808301100 METAR MRLM NIL=
200808301200 METAR MRLM NIL=
200808301300 METAR MRLM 301300Z 22203KT CAVOK 26/23 A2994 RMK SCT140 SCT280 HZ ARND=
200808301400 METAR MRLM 301400Z NIL=
200808301500 METAR MRLM 301500Z 05003KT CAVOK 30/23 A2981 RMK TRACE SC BKN130 FEW280 HZ LGT ARND=
200808301600 METAR MRLM 301600Z 05004KT 9999 FEW035 BKN280 30/23 A2981 RMK FEW140 HZ LGT ARND=
200808301700 METAR MRLM 301700Z 05006KT 9999 FEW032 BKN280 30/24 A2981 RMK TRACE AC CB DST SW N HZ LGT ARND=
200808301800 METAR MRLM 301800Z 07008KT 9999 FEW038 SCT110 BKN280 31/23 A2979 RMK CB DST S W RN DST S SW W=
200808301900 METAR MRLM 301900Z 07006KT 9999 FEW025 BKN110 31/23 A2979 RMK CB RN DST S W FEW280=
200808302000 METAR MRLM 302000Z NIL=
200808302100 METAR MRLM 302100Z 06004KT 9999 SCT035 BKN110 30/24 A2972 RMK FEW280 CB DST QUAD S W RN DST SE S W NW=
200808302200 METAR MRLM 302200Z 06005KT 9999 SCT035 BKN120 30/23 A2972 RMK CB RN DST QUAD S W FEW280=
200808302300 METAR MRLM 302300Z 08004KT 9999 SCT030 BKN110 29/23 A2974 RMK CB RN DST QUAD S W FEW280=
200808310000 METAR MRLM 310000Z NIL=
200808310100 METAR MRLM 310100Z NIL=
200808310200 METAR MRLM NIL=
200808310300 METAR MRLM NIL=
200808310400 METAR MRLM NIL=
200808310500 METAR MRLM NIL=
200808310600 METAR MRLM NIL=
200808310700 METAR MRLM NIL=
200808310800 METAR MRLM NIL=
200808310900 METAR MRLM NIL=
200808311000 METAR MRLM NIL=
200808311100 METAR MRLM NIL=
200808311200 METAR MRLM 311200Z NIL=
200808311300 METAR MRLM 311300Z 23002KT 9999 DZ FEW020 BKN140 25/23 A//// RMK FEW080 FEW260 RN DST QUAD N E=
200808311400 METAR MRLM 311400Z 00000KT 9999 -DZ FEW015 BKN140 26/23 A2983 RMK FEW080 FEW270 RN DST N NE E=
200808311500 METAR MRLM 311500Z 20002KT 9999 FEW015 SCT080 27/24 A2985 REDZ RMK TRACE CI SCT140 RN DST QUAD N E=
200808311600 METAR MRLM 311600Z 23002KT 9999 FEW015 BKN140 28/25 A2985 RMK FEW120 FEW280 CB RN DST N NE=
200808311700 METAR MRLM 311700Z 21002KT 9999 FEW018 SCT140 28/25 A2985 RETS FEW120 SCT270 CB RN DST NE E=
200808311800 METAR MRLM 311800Z 05003KT 9999 SCT030 SCT120 30/24 A2983 RMK FEW270 CB DST N NE E TSTM RN DST NE=
200808311900 METAR MRLM 311900Z 01006KT 9999 FEW030 SCT140 30/24 A2980 RMK CB DST QUAD N S SC270 TRACE AS=
200808312000 METAR MRLM 312000Z NIL=
200808312100 METAR MRLM 312100Z NIL=
200808312200 METAR MRLM 312200Z NIL=
200808312300 METAR MRLM 312300Z NIL=
200809010000 METAR MRLM NIL=
200809010100 METAR MRLM NIL=
200809010200 METAR MRLM NIL=
200809010300 METAR MRLM NIL=
200809010400 METAR MRLM NIL=
200809010500 METAR MRLM NIL=
200809010600 METAR MRLM NIL=
200809010700 METAR MRLM NIL=
200809010800 METAR MRLM NIL=
200809010900 METAR MRLM NIL=
200809011000 METAR MRLM NIL=
200809011100 METAR MRLM NIL=
200809011200 METAR MRLM 011200Z NIL=
200809011300 METAR MRLM 011300Z 24003KT CAVOK 27/24 A2986 RMK TRACE CU AC FEW140 BKN280 CBS RN DST N NE LGT HZ ARND=
200809011400 METAR MRLM 011400Z 24002KT 9999 FEW012 SCT140 27/25 A2986 RMK CBS RN DST N NE E FEW080 FEW280=
200809011500 METAR MRLM 011500Z 29003KT 9999 FEW028 SCT140 29/24 A2988 RMK CBS RN DST N NE E FEW100 SCT270=
200809011600 METAR MRLM 011600Z 33007KT 9999 SCT035 SCT140 31/24 A2988 RMK CB DST N NE E RN DST NE FEW270=
200809011700 METAR MRLM 011700Z 31007KT 9999 FEW038 SCT140 32/24 A2988 RMK SCT280 CBS RN DST N NE=
200809011800 METAR MRLM 011800Z 30010KT 9999 FEW035 BKN270 31/24 A2988 RMK FEW110 CB S DST SE S SW W LGT HZ ARND=
200809011900 METAR MRLM 011900Z 32009KT 9999 FEW030 BKN270 31/25 A2980 RMK CB DST S W FEW140 LGT HZ ARND=
200809012000 METAR MRLM 012000Z NIL=
200809012100 METAR MRLM 012100Z 32009KT 9999 BKN028 SCT270 31/25 A2978 RMK CB DST S W RN S=
200809012200 METAR MRLM 012200Z 06004KT 9999 FEW028 BKN270 30/24 A2978 RMK CB RN DST SW TRACE AC=
200809012300 METAR MRLM 012300Z 05002KT 9999 FEW030 BKN280 30/24 A2978 RMK CB RN S W TRACE AC=
200809020000 METAR MRLM NIL=
200809020100 METAR MRLM NIL=
200809020200 METAR MRLM NIL=
200809020300 METAR MRLM NIL=
200809020400 METAR MRLM NIL=
200809020500 METAR MRLM NIL=
200809020600 METAR MRLM NIL=
200809020700 METAR MRLM NIL=
200809020800 METAR MRLM NIL=
200809020900 METAR MRLM NIL=
200809021000 METAR MRLM NIL=
200809021100 METAR MRLM NIL=
200809021200 METAR MRLM NIL=
200809021300 METAR MRLM 021300Z 20003KT CAVOK 26/23 A2981 RMK OVC280 TRACE AC HZ ARND=
200809021400 METAR MRLM 021400Z 20003KT CAVOK 29/23 A2983 RMK BKN270 TRACE AC HZ ARND=
200809021500 METAR MRLM 021500Z 04005KT CAVOK 29/24 A2984 RMK BKN280 CB E HZ ARND FEW AC=
200809021600 METAR MRLM 021600Z 09006KT 9999 FEW028 BKN280 30/24 A2984 RMK TRACE AC HZ ARND=
200809021700 METAR MRLM 021700Z NIL=
200809021800 METAR MRLM 021800Z 08008KT 9999 FEW038 BKN140 31/23 A2982 RMK CB SE S SW W FEW280 HZ ARND=
200809021900 METAR MRLM 021900Z 08009KT 9999 FEW038 SCT140 31/24 A2980 RMK FW280 CB DST SE SW W=
200809022000 METAR MRLM NIL=
200809022100 METAR MRLM 022100Z 06007KT 9999 FEW032 BKN270 31/24 A2978 CB S W RN SW=
200809022200 METAR MRLM 022200Z 08004KT CAVOK 30/24 A2978 TRAZAS CU FEW150 BKN270 CB RN S W=
200809022300 METAR MRLM 022300Z 10006KT CAVOK 30/24 A2978 TRACE SCT SCT120 BKN270 CB RN S W=
200809030000 METAR MRLM 030000Z NIL=
200809030100 METAR MRLM NIL=
200809030200 METAR MRLM NIL=
200809030300 METAR MRLM NIL=
200809030400 METAR MRLM NIL=
200809030500 METAR MRLM NIL=
200809030600 METAR MRLM NIL=
200809030700 METAR MRLM NIL=
200809030800 METAR MRLM NIL=
200809030900 METAR MRLM NIL=
200809031000 METAR MRLM NIL=
200809031100 METAR MRLM NIL=
200809031200 METAR MRLM NIL=
200809031300 METAR MRLM 031300Z 20004KT CAVOK 26/23 A2980 TRAZAS AC OVC280 HZY=
200809031400 METAR MRLM 031400Z 00000KT CAVOK 2/23 A2980 TRAZAS CU OVC280 HZY=
200809031500 METAR MRLM 031500Z 08003KT CAVOK 29/22 A2982 TRAZAS CU OVC280 HZY=
200809031600 METAR MRLM 031600Z 04005KT CAOK 30/23 A2983 TRAZAS CU OVC280 HZY CB E=
200809031700 METAR MRLM 031700Z 03005KT 9999 FEW035 OVC280 30/23 A2984 CB DST SE S HZY=
200809031800 METAR MRLM 031800Z 06005KT 9999 FEW035 BKN280 30/23 A2981 CB SE S SW W HZY=
200809031900 METAR MRLM 031900Z 06006KT 9999 FEW032 BKN280 30/24 A2981 CB S W HZY=
200809032000 METAR MRLM 032000Z NIL=
200809032100 METAR MRLM 032100Z 08007KT 9999 BKN028 SCT110 30/24 A2978 RMK CB RN DST S W=
200809032200 METAR MRLM 032200Z 08007KT 9999 VCSH SCT030 BKN090 30/25 30/25 A2975 RMK VIS 8000 W NW DUE RN CB DST S W TRACE CI=
200809032300 METAR MRLM 032300Z 28014KT 1000 TSRA SCT010CB BKN015 25/22 A2976=
200809040000 METAR MRLM 040000Z NIL=
200809040100 METAR MRLM NIL=
200809040200 METAR MRLM NIL=
200809040300 METAR MRLM NIL=
200809040400 METAR MRLM NIL=
200809040500 METAR MRLM NIL=
200809040600 METAR MRLM NIL=
200809040700 METAR MRLM NIL=
200809040800 METAR MRLM NIL=
200809040900 METAR MRLM NIL=
200809041000 METAR MRLM NIL=
200809041100 METAR MRLM NIL=
200809041200 METAR MRLM NIL=
200809041300 METAR MRLM 041300Z 23002KT CAVOK 25/23 A2981 RMK BKN110 FEW270 CB RN DST N NE HZ LGT ARND=
200809041400 METAR MRLM 041400Z 20003KT CAVOK 28/24 A2981 RMK SCT110 SCT270 CB RN DST NE HZ LGT ARND=
200809041500 METAR MRLM 041500Z 00000KT CAVOK 30/24 A2983 RMK FEW110 OVC270 CB RN DST E TRACE SC HZ LGT ARND=
200809041600 METAR MRLM 041600Z 07003KT 9999 FEW032 BKN270 30/24 A2985 RNK FEW130 HZ LGT AROUND=
200809041700 METAR MRLM 041700Z 07006KT 9999 FEW028 SCT120 30/25 A2985 RMK SCT270 HZ LGT AROUND=
200809041800 METAR MRLM 041800Z 09007KT 9999 FEW028 BKN130 30/25 A2979 RMK FEW280 CB DST SE SW W RN DST SW W=
200809041900 METAR MRLM 041900Z 09008KT 9999 FEW030 SCT130 BKN280 31/25 A2978 RMK DST SE SW W RN DST SW W=
200809042000 METAR MRLM NIL=
200809042100 METAR MRLM 042100Z 08006KT 9999 FEW030 BKN090 30/24 A2974 RMK FEW280 CB DST QUAD S W RN DST QUAD W=
200809042200 METAR MRLM 042200Z 15002KT CAVOK 29/24 A2973 RMK BKN090 FEW280 TRACE SC CB RN DST QUAD W S=
200809042300 METAR MRLM 042300Z 19003KT 9999 DZ BKN090 28/25 A2973 RMK TRACE SC FEW280 CB RN DST QUAD S W=
200809050000 METAR MRLM NIL=
200809050100 METAR MRLM 050100Z NIL=
200809050200 METAR MRLM NIL=
200809050300 METAR MRLM NIL=
200809050400 METAR MRLM NIL=
200809050500 METAR MRLM NIL=
200809050600 METAR MRLM NIL=
200809050700 METAR MRLM NIL=
200809050800 METAR MRLM NIL=
200809050900 METAR MRLM NIL=
200809051000 METAR MRLM NIL=
200809051100 METAR MRLM NIL=
200809051200 METAR MRLM 051200Z NIL=
200809051300 METAR MRLM 051300Z 21004KT 9999 FEW020 BKN110 25/24 A2984 RMK FEW150 HZ LGT ARND=
200809051400 METAR MRLM 051400Z NIL=
200809051500 METAR MRLM 051500Z 00000KT 9999 FEW028 BKN120 30/24 A2985 RMK FEW270 LGT HZ ARND=
200809051600 METAR MRLM 051600Z 02005KT 9999 FEW030 BKN110 30/24 A2987 RMK FEW270 LGT HZ ARND=
200809051700 METAR MRLM 051700Z 02005KT 9999 FEW030 BKN110 30/24 A2986 RMK DZ DST SW CB DST S SW FEW270 HZ LGT ARND=
200809051800 METAR MRLM 051800Z 03005KT 9999 FEW028 BKN120 30/24 A2984 RMK CB DST SE S SW W RN DST SW SCT280 HZ LGT ARND=
200809051900 METAR MRLM 051900Z 04003KT 9999 FEW032 SCT140 30/24 A2984 RMK FEW120 FEW280 TCU DST N E CB DST QUAD S W RN DST S SW W=
200809052000 METAR MRLM 052000Z NIL=
200809052100 METAR MRLM 052100Z 23005KT 9999 FEW018 BKN090 27/24 A2981 RMK FEW270 CBS RN DST S W QDS FEW140=
200809052200 METAR MRLM 052200Z 20005KT 9999 FEW018 BKN090 27/23 A2981 RMK CBS RN DST S W QDS RASH SE TRACE AS CI=
200809052300 METAR MRLM NIL=
200809060000 METAR MRLM NIL=
200809060100 METAR MRLM NIL=
200809060200 METAR MRLM NIL=
200809060300 METAR MRLM NIL=
200809060400 METAR MRLM NIL=
200809060500 METAR MRLM NIL=
200809060600 METAR MRLM NIL=
200809060700 METAR MRLM NIL=
200809060800 METAR MRLM NIL=
200809060900 METAR MRLM NIL=
200809061000 METAR MRLM NIL=
200809061100 METAR MRLM NIL=
200809061200 METAR MRLM 061200Z NIL=
200809061300 METAR MRLM 061300Z 19003KT 9999 -DZ BKN090 SCT110 24/23 A2981 RMK RN DST E S QUAD=
200809061400 METAR MRLM 061400Z 00000KT CAVOK 25/23 A2992 RERA RMK BKN090 SCT110 RN DST E=
200809061500 METAR MRLM 061500Z 00000KT CAVOK 28/24 A2992 RMK TRACE SC BKN110 FEW270 CB DST E SE=
200809061600 METAR MRLM 061600Z 07006KT 9999 FEW023 BKN120 28/24 A2992=
200809061700 METAR MRLM 061700Z 10006KT 9999 FEW025 BKN090 29/24 A2993 RMK RN DST SE TRACE CI=
200809061800 METAR MRLM 061800Z 08006KT 9999 FEW028 BKN100 29/24 A2990 RMK FEW270 CB DST W NW SE LGT HZ ARND=
200809061900 METAR MRLM 061900Z 09008KT 9999 FEW030 SCT140 30/24 A2987 RMK FEW280 CB DST SE S W E=
200809062000 METAR MRLM 062000Z NIL=
200809062100 METAR MRLM 062100Z 07006KT 9999 FEW038 30/23 A2985 RMK FW280 CB S W HZ ARND=
200809062200 METAR MRLM 062200Z 07004KT 9999 FEW035 30/23 A2984 RMK FEW280 CB S SW W NW FEW280 HZ ARND=
200809062300 METAR MRLM 062300Z 06003KT 9999 FEW032 30/23 A2984 RMK FEW280 CB DST S SW W NW HZ ARND=
200809070000 METAR MRLM NIL=
200809070100 METAR MRLM NIL=
200809070200 METAR MRLM NIL=
200809070300 METAR MRLM NIL=
200809070400 METAR MRLM NIL=
200809070500 METAR MRLM NIL=
200809070600 METAR MRLM NIL=
200809070700 METAR MRLM NIL=
200809070800 METAR MRLM NIL=
200809070900 METAR MRLM NIL=
200809071000 METAR MRLM NIL=
200809071100 METAR MRLM NIL=
200809071200 METAR MRLM 071200Z NIL=
200809071300 METAR MRLM 071300Z 22004KT CAVOK 25/22 A2980 RMK TRACE CU AC SCT280 CB DST E SE HZ LEVE ARND=
200809071400 METAR MRLM 071400Z 24002KT CAVOK 30/23 A2990 RMK TRACE CU AC FEW280 CB E HZ ARND=
200809071500 METAR MRLM 071500Z 31006KT CAVOK 31/22 A2992 RMK TRACE CU AC SCT270 CB DST E HZ ARND=
200809071600 METAR MRLM 071600Z 29006KT CAVOK 32/22 A2992 RMK FEW050 SCT270 HZ ARND=
200809071700 METAR MRLM 071700Z 13010KT 9999 FEW038 BKN270 31/24 A2992 RMK TRACE AC CB DST E SE HZ ARND=
200809071800 METAR MRLM 071800Z 03009KT 9999 FEW035 BKN270 31/24 A2988 RMK CB SE TRACE AC HZ ARND=
200809071900 METAR MRLM 071900Z 36006KT 9999 FEW035 BKN260 31/23 A2985 RMK CB SE S HZ ARND=
200809072000 METAR MRLM NIL=
200809072100 METAR MRLM 072100Z 33007KT 9999 FEW045 BKN270 31/26 A2994 CB SE S HZY=
200809072200 METAR MRLM 072200Z 33006KT 9999 FEW042 BKN270 31/26 A2985 CB SE S W HZY=
200809072300 METAR MRLM 072300Z 09005KT 9999 FEW032 BKN270 30/24 A2981 CB SE S W=
200809080000 METAR MRLM NIL=
200809080100 METAR MRLM NIL=
200809080200 METAR MRLM NIL=
200809080300 METAR MRLM NIL=
200809080400 METAR MRLM NIL=
200809080500 METAR MRLM NIL=
200809080600 METAR MRLM NIL=
200809080700 METAR MRLM NIL=
200809080800 METAR MRLM NIL=
200809080900 METAR MRLM NIL=
200809081000 METAR MRLM NIL=
200809081100 METAR MRLM NIL=
200809081200 METAR MRLM NIL=
200809081300 METAR MRLM 081300Z 20003KT CAVOK 26/23 A28979 SCT090 SCT220 CB E SE HZY=
200809081400 METAR MRLM 081400Z 20003KT CAVOK 29/23 A2988 TRACE CU FEW080 BKN280 CB E HZY=
200809081500 METAR MRLM 081500Z 07004KT CAVOK 30/24 A2990 TRACE CU OVC270 HZY=
200809081600 METAR MRLM 081600Z 06007KT 9999 FEW028 BKN270 30/25 A2990 HZY=
200809081700 METAR MRLM 081700Z 06008KT 9999 FEW035 BKN280 31/24 A2990 HZY=
200809081800 METAR MRLM 081800Z 07010KT 9999 FEW035 SCT280 31/24 A2986 CB S SW HZY=
200809081900 METAR MRLM 081900Z 06009KT 9999 FEW032 SCT280 31/25 A2982 CB S SW W HZY=
200809082000 METAR MRLM NIL=
200809082100 METAR MRLM 082100Z 05006KT 9999 FEW032 BKN280 31/24 A2978 RMK CB DST SE S SW W HZ ARND LGT TRACE AC=
200809082200 METAR MRLM 082200Z 06004KT 9999 FEW030 BKN280 29/24 A2978 RMK FEW140 CB DST S W RN S SW=
200809082300 METAR MRLM 082300Z 04003KT 9999 FEW028 BKN280 30/24 A2978 RMK FEW140 CB DST S W RN DST S SW W HZLGT ARND=
200809090000 METAR MRLM NIL=
200809090100 METAR MRLM NIL=
200809090200 METAR MRLM NIL=
200809090300 METAR MRLM NIL=
200809090400 METAR MRLM NIL=
200809090500 METAR MRLM NIL=
200809090600 METAR MRLM NIL=
200809090700 METAR MRLM NIL=
200809090800 METAR MRLM NIL=
200809090900 METAR MRLM NIL=
200809091000 METAR MRLM NIL=
200809091100 METAR MRLM NIL=
200809091200 METAR MRLM NIL=
200809091300 METAR MRLM 091300Z 25002KT 8000 -RA OVC100 24/23 A2989 RMK CB NW N VIS E UNL=
200809091400 METAR MRLM 00000KT 9999 DZ FEW130 SCT150 26/24 A2989 RMK SCT270 DZ W NW HZ ARND=
200809091500 METAR MRLM 091500Z 20002KT 9999 FEW025 BKN140 29/25 A2989 RMK FEW270 HZ LGT ARND=
200809091600 METAR MRLM 091600Z 08004KT 9999 FEW028 BKN140 30/24 A2989 RMK TRACE CI CB DST E=
200809091700 METAR MRLM NIL=
200809091800 METAR MRLM NIL=
200809091900 METAR MRLM 091900Z 09005KT 9999 FEW038 BKN140 31/23 A2988 RMK CB RN DST S SW FEW280=
200809092000 METAR MRLM 092000Z 09008KT 9999 FEW030 BKN130 31/24 A2988 RMK FEW150 FEW270 CB RN DST S W=
200809092100 METAR MRLM 092100Z 11007KT 9999 DZ SCT020 SCT090 30/24 A2980 RMK CB DST CB DST S W TRACE CI=
200809092200 METAR MRLM 092200Z 18005KT 9999 FEW020 BKN100 28/24 A2985 REDZ RMK TRACE CI SCT130 DZ DST QUAD S W=
200809092300 METAR MRLM 092300Z 20003KT 9999 -DZ FEW012 BKN100 27/25 A2985 RMK CB DST W NW FEW140 FEW280=
200809100000 METAR MRLM 100000Z NIL=
200809100100 METAR MRLM 100100Z NIL=
200809100200 METAR MRLM NIL=
200809100300 METAR MRLM NIL=
200809100400 METAR MRLM NIL=
200809100500 METAR MRLM NIL=
200809100600 METAR MRLM NIL=
200809100700 METAR MRLM NIL=
200809100800 METAR MRLM NIL=
200809100900 METAR MRLM NIL=
200809101000 METAR MRLM NIL=
200809101100 METAR MRLM NIL=
200809101200 METAR MRLM NIL=
200809101300 METAR MRLM 101300Z 00000KT CAVOK 24/22 A2991 RMK TRACE AC SCT140 SCT270 CB DST N NE E RN DST NE E=
200809101400 METAR MRLM 101400Z 24004KT CAVOK 26/23 A2991 RMK TRACE AC SCT140 SCT270 CB DST N NE E RN DST NE E=
200809101500 METAR MRLM 101500Z 26002KT CAVOK 28/23 A2990 RMK FEW140 BKN270 CB DST N NE RN DST NE=
200809101600 METAR MRLM 101600Z 03003KT CAVOK 30/22 A2994 RMK FEW150 BKN270 TRACE AC CB DST NW NE HZ ARND=
200809101700 METAR MRLM 101700Z 03004KT CAVOK 30/23 A2994 RMK TRACE CU AC OVC270 CB DST NW HZ LGT ARND=
200809101800 METAR MRLM 101800Z 02005KT 9999 FEW035 OVC280 31/23 A2994 RMK HZ LGT ARND=
200809101900 METAR MRLM 101900Z 03008KT 9999 FEW035 BKN280 31/24 A2988 RMK CB DST N SE HZ LGT ARND=
200809102000 METAR MRLM 102000Z 03008KT 9999 FEW035 BKN280 31/24 A2988 CB DST QUAD S TRACE AC CB DST E=
200809102100 METAR MRLM 102100Z 03006KT 9999 FEW035 SCT280 31/23 A2982 RMK CB DST S W QUAD CB DST E TRACE AC=
200809102200 METAR MRLM 102200Z 05007KT 9999 FEW033 BKN280 31/24 A2982 CB DST S W HZY=
200809102300 METAR MRLM 102300Z 08007KT 9999 FEW030 BKN280 30/24 A2982 RMK CB DST S W TRACE AC HZY=
200809110000 METAR MRLM NIL=
200809110100 METAR MRLM NIL=
200809110200 METAR MRLM NIL=
200809110300 METAR MRLM NIL=
200809110400 METAR MRLM NIL=
200809110500 METAR MRLM NIL=
200809110600 METAR MRLM NIL=
200809110700 METAR MRLM NIL=
200809110800 METAR MRLM NIL=
200809110900 METAR MRLM NIL=
200809111000 METAR MRLM NIL=
200809111100 METAR MRLM NIL=
200809111200 METAR MRLM 111200Z NIL=
200809111300 METAR MRLM 111300Z 21003KT CAVOK 27/23 A2993 RMK TRACE CU AC BKN280 CB DST N E LGT HZ ARND=
200809111400 METAR MRLM 111400Z 00000KT CAVOK 30/24 A2993 RMK CB DST N TRACE CU FEW150 BKN270 LGT HZ ARND=
200809111500 METAR MRLM 111500Z 10006KT 9999 FEW032 BKN270 30/24 A2993 RMK CB DST NW TRACE AC LGT HZ ARND=
200809111600 METAR MRLM 111600Z 09008KT 9999 FEW030 BKN280 31/25 A2995 RMK TRACE AC LGT HZ ARND=
200809111700 METAR MRLM 111700Z 08008KT 9999 FEW045 BKN280 31/21 A2995 RMK CB DST NW FEW140 LGT HZ ARND=
200809111800 METAR MRLM 111800Z 08009KT 9999 FEW035 BKN280 31/24 A2992 RMK FEW140 CB DST W NW E FEW140 HZY=
200809111900 METAR MRLM 111900Z 08009KT 9999 FEW035 BKN280 31/24 A2988 TRACE AC LGT HZY SCTD CB DST ARND=
200809112000 METAR MRLM 112000Z 08010KT 9999 FEW035 BKN280 32/25 A2988 RMK CB DST S W QUAD LGT HZ ARND=
200809112100 METAR MRLM 1121000Z 08008KT 9999 FEW035 BKN280 31/25 A2985 RMK CB DST SW HZ ARND=
200809112200 METAR MRLM 112200Z 07007KT 9999 FEW035 BKN280 31/24 A2983 RMK CB DST S W HZ ARND=
200809112300 METAR MRLM 112300Z 08004KT 9999 FEW032 BKN280 30/24 A2983 RMK CB S W HZ LGT ARND=
200809120000 METAR MRLM NIL=
200809120100 METAR MRLM NIL=
200809120200 METAR MRLM NIL=
200809120300 METAR MRLM NIL=
200809120400 METAR MRLM NIL=
200809120500 METAR MRLM NIL=
200809120600 METAR MRLM NIL=
200809120700 METAR MRLM NIL=
200809120800 METAR MRLM NIL=
200809120900 METAR MRLM NIL=
200809121000 METAR MRLM NIL=
200809121100 METAR MRLM NIL=
200809121200 METAR MRLM NIL=
200809121300 METAR MRLM 121300Z 22003KT CAVOK 25/23 A2993 RMK FEW150 BKN270 CB DST N RN NE HZ ARND=
200809121400 METAR MRLM NIL=
200809121500 METAR MRLM 121500Z 00000KT CAVOK 31/24 A2993 RMK OVC270 HZ ARND TRACE CU=
200809121600 METAR MRLM 121600Z 07006KT CAVOK 30/24 A2993 RMK TRACE CU AC FEW150 BKN270 CB N NE RN NE=
200809121700 METAR MRLM 121700Z 07009KT CAVOK 30/24 A2995 RMK TRACE CU FEW080 FEW150 BKN270 CB RN N NE E HZ ARND=
200809121800 METAR MRLM 121800Z 09005KT 9999 FEW035 BKN270 31/23 A2988 RMK CB RN NE TRACE AC HZ ARND=
200809121900 METAR MRLM 121900Z 05008KT 9999 FEW035 BKN270 31/24 A2984 RMK TRACE AC FEW150 CB W NE RN NE=
200809122000 METAR MRLM NIL=
200809122100 METAR MRLM 122100Z 09007KT 9999 FEW033 SCT080 BKN270 30/23 A2982 CB SE=
200809122200 METAR MRLM 122200Z 10004KT 9999 FEW038 BKN270 30/23 A2982 FEW090 CB N NE=
200809122300 METAR MRLM 122300Z 00000KT CAVOK 29/24 A2982 RACE CU OVC270 CB NE S SW W=
200809130000 METAR MRLM NIL=
200809130100 METAR MRLM NIL=
200809130200 METAR MRLM NIL=
200809130300 METAR MRLM NIL=
200809130400 METAR MRLM NIL=
200809130500 METAR MRLM NIL=
200809130600 METAR MRLM NIL=
200809130700 METAR MRLM NIL=
200809130800 METAR MRLM NIL=
200809130900 METAR MRLM NIL=
200809131000 METAR MRLM NIL=
200809131100 METAR MRLM NIL=
200809131200 METAR MRLM NIL=
200809131300 METAR MRLM 131300Z 27002KT 9999 BKN020 25/22 A2985 FEW090 FEW270 CB RN N E=
200809131400 METAR MRLM 131400Z 21005KT 9999 FEW020 BKN090 28/23 A2985 HZY RN E=
200809131500 METAR MRLM 131500Z 12004KT 9999 VCSH FEW030 BKN080 30/24 A2989 VSBY NE E 8KM DUE RN/CB=
200809131600 METAR MRLM 131600Z 05021KT 9999 DZ SCT025 SCT090 25/22 A2983 FEW110 TCU CB RN W N=
200809131700 METAR MRLM 131700Z 06012KT CAVOK 28/22 A2987 TRAZAS CU BKN110 SCT270 CB RN W NW N NE E=
200809131800 METAR MRLM 131800Z 11012KT 9999 FEW030 BKN270 30/24 A2983 CB E SW NW=
200809131900 METAR MRLM 131900Z 08008KT CAVOK 30/22 A2980 TRACE CU FEW140 BKN270 CB NW=
200809132000 METAR MRLM 132000Z 08010KT 9999 FEW035 SCT140 BKN270 30/23 A2980 FEW090 CB NW NE=
200809132100 METAR MRLM 132100Z 06007KT 9999 FEW028 SCT140 29/24 A2979 RMK FEW080 SCT270 CB DST NW NE E RN S=
200809132200 METAR MRLM 132200Z 08005KT 9999 FEW028 SCT270 30/24 A2979 RMK FEW090 FEW140 CB DST W NE RN DST W=
200809132300 METAR MRLM 132300Z 14004KT CAVOK 29/24 A2979 RMK TRACE CU AC BKN140 CB DST S W N=
200809140000 METAR MRLM 140000Z NIL=
200809140100 METAR MRLM NIL=
200809140200 METAR MRLM NIL=
200809140300 METAR MRLM NIL=
200809140400 METAR MRLM NIL=
200809140500 METAR MRLM NIL=
200809140600 METAR MRLM NIL=
200809140700 METAR MRLM NIL=
200809140800 METAR MRLM NIL=
200809140900 METAR MRLM NIL=
200809141000 METAR MRLM NIL=
200809141100 METAR MRLM NIL=
200809141200 METAR MRLM NIL=
200809141300 METAR MRLM 141300Z 17003KT 100V170 9999 FEW025 BKN080 26/23 A2987 CB RN DST N TRACE CI HZ ARND=
200809141400 METAR MRLM 141400Z 10004KT 9999 FEW025 BKN080 28/23 A2987 RMK FEW270 CB DST N HZ LGT ARND=
200809141500 METAR MRLM 141500Z 10004KT 9999 FEW025 BKN080 29/24 A2990 RMK CB RN DST N HZ LGT ARND=
200809141600 METAR MRLM 151600Z 10006KT 9999 SCT025 BKN080 29/24 A2986 RMK HZ LGT ARND RN DST SW=
200809141700 METAR MRLM 141700Z 06004KT 9999 FEW030 SCT110 30/24 A2983 RMK SCT280 TCU SW CB DST NW N E HZ LGT ARND=
200809141800 METAR MRLM 141800Z 03003KT 9999 FEW035 SCT280 30/24 A2980 RMK FEW110 CB DST S W NW N HZ LGT ARND=
200809141900 METAR MRLM 141900Z 01006KT 9999 FEW035 SCT280 31/24 A2980 RMK CB DST S W HZ LGT ARND=
200809142000 METAR MRLM 142000Z 16008KT 9999 FEW035 SCT280 31/24 A2974 RMK CB DST S W HZ LGT ARND=
200809142100 METAR MRLM 142100Z 36008KT 9999 SCT035 SCT270 31/24 A2974 RMK FEW090 CB RN DST QUAD S W=
200809142200 METAR MRLM 142200Z 35008KT 9999 SCT030 SCT270 30/24 A2974 RMK FEW140 TRACE AS CB RN DST QUAD S W LGT HZ ARND=
200809142300 METAR MRLM 142300Z 36007KT 9999 BKN025 30/25 A2977 RMK FEW270 TRACE AC CB RN DST QUAD S W=
200809150000 METAR MRLM 150000Z NIL=
200809150100 METAR MRLM NIL=
200809150200 METAR MRLM NIL=
200809150300 METAR MRLM NIL=
200809150400 METAR MRLM NIL=
200809150500 METAR MRLM NIL=
200809150600 METAR MRLM NIL=
200809150700 METAR MRLM NIL=
200809150800 METAR MRLM NIL=
200809150900 METAR MRLM NIL=
200809151000 METAR MRLM NIL=
200809151100 METAR MRLM NIL=
200809151200 METAR MRLM NIL=
200809151300 METAR MRLM 151300Z 21002KT CAVOK 26/24 A2986 RMK FEW130 SC150 BKN270 CB RN DST NE E HZ LGT ARND=
200809151400 METAR MRLM 151400Z 26002KT CAVOK 28/23 A2988 RMK TRACE SC FEW120 SCT150 BKN270 CB RN DST NE E HZ LGT ARND=
200809151500 METAR MRLM 151500Z 23003KT CAVOK 29/24 A2989 RMK TRACE SC SCT150 BKN270 CB RN DST NE E HZ LGT ARND=
200809151600 METAR MRLM 151600Z 29003KT CAVOK 30/23 A2989 RMK TRACE CU AC SCT150 BKN270 CB RN DST NE E=
200809151700 METAR MRLM 151700Z 11006KT 9999 FEW025 SCT090 30/24 A2988 RMK FEW140 SCT270 CB RN DST QUAD E CB DST N HZ LGT ARND=
200809151800 METAR MRLM 151800Z 02007KT 9999 VCSH SCT025 BKN090 30/24 A2991 RMK CB RN VIS 7000 N NE E SE FEW270=
200809151900 METAR MRLM 151900Z 31006KT 9999 FEW020 SCT130 27/23 A2990 RMK SCT260 RN DST QUAD N=
200809152000 METAR MRLM 152000Z 32003KT 9999 -DZ FEW090 SCT130 28/23 A2980 RMK CB DST NW RN DST E SCT250=
200809152100 METAR MRLM 152100Z 33006KT 9999 DZ FEW010 BKN140 28/23 A2977 RMK CB DST W SCT260 LGT HZ ARND=
200809152200 METAR MRLM 152200Z 30003KT 9999 FEW025 BKN140 28/23 A2977 REDZ RMK FEW090 FEW260 CB DST W=
200809152300 METAR MRLM 152300Z 21002KT 9999 FEW025 SCT140 28/24 A2980 RMK FEW090 FEW270 RN DST N NE LGT HZ ARND=
200809160000 METAR MRLM NIL=
200809160100 METAR MRLM NIL=
200809160200 METAR MRLM NIL=
200809160300 METAR MRLM NIL=
200809160400 METAR MRLM NIL=
200809160500 METAR MRLM NIL=
200809160600 METAR MRLM NIL=
200809160700 METAR MRLM NIL=
200809160800 METAR MRLM NIL=
200809160900 METAR MRLM NIL=
200809161000 METAR MRLM NIL=
200809161100 METAR MRLM NIL=
200809161200 METAR MRLM 161200Z NIL=
200809161300 METAR MRLM 161300Z 23004KT CAVOK 24/22 A2986 RMK TRACE CU SCT090 SCT270 CB DST NW N NE E RN DST E=
200809161400 METAR MRLM 161400Z 25002KT CAVOK 28/23 A2989 RMK SCT110 BKN270 CBS DST NW N NE E HZY=
200809161500 METAR MRLM 161500Z 27006KT CAVOK 31/23 A2989 RMK TRACE CU FEW140 BKN270 CBS RN DST NW N NE E LGT HZ ARND=
200809161600 METAR MRLM 161600Z 31014KT 9999 FEW040 SCT140 32/23 A2989 RMK CBS N E SCT270=
200809161700 METAR MRLM 161700Z 33016KT 9999 FEW025 SCT090 30/25 A2989 RMK SCT140 FEW270 RN DST N E QDS=
200809161800 METAR MRLM 161800Z 32011KT 9999 DZ SCT020 SCT120 28/24 A2986 CBS RN DST N E QDS TRACE AC FEW270=
200809161900 METAR MRLM 161900Z 33007KT 9999 +DZ BKN015 28/25 A2983 RMK FEW120 RN N E QUADS=
200809162000 METAR MRLM 162000Z 34010KT 8000 RA BKN015TCU 28/25 A2983 RMK FEW110 VIS W SW UNL CB DST N NE E=
200809162100 METAR MRLM 162100Z 31005KT 9999 RA SCT013 SCT110 27/25 A2980 RMK VIS S 8000 VCSH=
200809162200 METAR MRLM 162200Z 23004KT 9999 RA FEW012 OVC110 26/25 A2980=
200809162300 METAR MRLM 162300Z 00000KT 9999 +DZ SCT010 BKN110 26/24 A2983 RMK RN W=
200809170000 METAR MRLM NIL=
200809170100 METAR MRLM NIL=
200809170200 METAR MRLM NIL=
200809170300 METAR MRLM NIL=
200809170400 METAR MRLM NIL=
200809170500 METAR MRLM NIL=
200809170600 METAR MRLM NIL=
200809170700 METAR MRLM NIL=
200809170800 METAR MRLM NIL=
200809170900 METAR MRLM NIL=
200809171000 METAR MRLM NIL=
200809171100 METAR MRLM NIL=
200809171200 METAR MRLM 171200Z NIL=
200809171300 METAR MRLM 171300Z 20002KT CAVOK 26/23 A2983 RMK TRACE SC FEW130 FEW150 BKN270 CB RN NE E SE HZ ARND=
200809171400 METAR MRLM 171400Z 21003KT CAVOK 28/23 A2986 RMK TRACE SC FEW130 FEW150 BKN270 CB RN NE E SE=
200809171500 METAR MRLM 171500Z 23002KT 9999 FEW035 SCT140 BKN270 30/23 A2986 RMK CB RN N NE E=
200809171600 METAR MRLM NIL=
200809171700 METAR MRLM 171700Z 31003KT 9999 FEW040 SCT140 31/22 A2986 RMK SCT270 CB DST NW N HZ LEVE ARND=
200809171800 METAR MRLM 171800Z 06008KT 9999 FEW035 SCT130 30/23 A2983 RMK SCT270 RN SW CB N E HZ ARND=
200809171900 METAR MRLM 171900Z 02007KT 9999 FEW035 SCT120 30/23 A2980 RMK SCT270 CB DST N S RN DST NW N S=
200809172000 METAR MRLM 172000Z 06004KT 9999 FEW030 BKN120 30/23 A2980 RMK SCT270 CB RN DST NW S W HZ ARND=
200809172100 METAR MRLM 172100Z 23005KT 9999 FEW030 BKN110 29/23 A2977 SCT270 CB RN SW W=
200809172200 METAR MRLM 172200Z 04002KT 9999 FEW025 BKN090 29/23 A2977 CB RN W=
200809172300 METAR MRLM 172300Z 06002KT 9999 FEW025 OVC090 29/23 A2980 RN SW W=
200809180000 METAR MRLM 180000Z NIL=
200809180100 METAR MRLM NIL=
200809180200 METAR MRLM NIL=
200809180300 METAR MRLM NIL=
200809180400 METAR MRLM NIL=
200809180500 METAR MRLM NIL=
200809180600 METAR MRLM NIL=
200809180700 METAR MRLM NIL=
200809180800 METAR MRLM NIL=
200809180900 METAR MRLM NIL=
200809181000 METAR MRLM NIL=
200809181100 METAR MRLM NIL=
200809181200 METAR MRLM NIL=
200809181300 METAR MRLM 181300Z 27003KT 9999 VCSH BKN020 25/24 A2989 FEW090 VSBY B 8KM DUE RN=
200809181400 METAR MRLM 181400Z 21002KT 9999 BKN025 26/24 A2989 FEW110 RN N=
200809181500 METAR MRLM 181500Z 19002KT 9999 FEW020 BKN090 26/24 A2989 SCT140 CB RN N=
200809181600 METAR MRLM 181600Z 29003KT 9999 FEW013 BKN140 26/24 A2989 FEW090 FEW270 RN CB N=
200809181700 METAR MRLM 181700Z 26004KT 9999 FEW018 BKN150 27/23 A2986 FEW120 FEW270 CB RN N=
200809181800 METAR MRLM 181800Z 29004KT 9999 FEW025 BKN150 29/24 A2986 CB RN NE=
200809181900 METAR MRLM 181900Z 30004KT 9999 FEW032 BKN270 30/23 A2983 FEW120 HZY=
200809182000 METAR MRLM 182000Z 290005KT 9999 FEW035 BKN220 30/24 A2980 FEW150 CB SE S HZY=
200809182100 METAR MRLM 182100Z 32007KT 9999 SCT040 BKN270 31/23 A2977 RMK FEW140 CB RN DST SE S HZ LGT ARND=
200809182200 METAR MRLM 182200Z 33009KT 9999 SCT028 SCT280 30/24 A2980 RMK FEW140 CB RN DST SE S SW W=
200809182300 METAR MRLM 182300Z 33009KT 9999 FEW023 BKN100 29/24 A2980 RMK FEW270 CB RN DST SE S SW W=
200809190000 METAR MRLM 190000Z NIL=
200809190100 METAR MRLM NIL=
200809190200 METAR MRLM NIL=
200809190300 METAR MRLM NIL=
200809190400 METAR MRLM NIL=
200809190500 METAR MRLM NIL=
200809190600 METAR MRLM NIL=
200809190700 METAR MRLM NIL=
200809190800 METAR MRLM NIL=
200809190900 METAR MRLM NIL=
200809191000 METAR MRLM NIL=
200809191100 METAR MRLM NIL=
200809191200 METAR MRLM NIL=
200809191300 METAR MRLM 191300Z 21004KT 9999 FEW008 SCT120 24/23 A2985 RMK FEW150 FEW270 CB RN DST NW N NE HZ LGT ARND=
200809191400 METAR MRLM 191400Z 23003KT 9999 FEW015 SCT120 27/24 A2988 RMK SCT270 CB RN DST NW N HZ LGT ARND=
200809191500 METAR MRLM 191500Z 27007KT 9999 FEW025 BKN140 28/24 A2988 RMK FEW270 CB RN DST N HZ ARND LGT=
200809191600 METAR MRLM 191600Z 30006KT 9999 FEW028 BKN110 29/24 A2988 RMK FEW270 CB RN DST N HZ LGT ARND=
200809191700 METAR MRLM 191700Z 27004KT 9999 FEW030 OVC100 29/23 A2985 RMK CB RN DST N=
200809191800 METAR MRLM 191800Z 25002KT 9999 SCT038 BKN110 31/23 A2983 RMK CB RN DST N NE TRACE CI HZ ARND=
200809191900 METAR MRLM 191900Z 35009KT 9999 FEW038 BKN110 31/23 A2980 RMK CB DST SE S SW W N FEW270=
200809192000 METAR MRLM 192000Z 30009KT 9999 FEW040 BKN120 31/23 A2980 RMK FEW270 CB DST SE S W N RN DST S SW W N=
200809192100 METAR MRLM 192100Z 33009KT 9999 FEW045 BKN110 31/22 A2980 RMK CB RN DST N NE SE S SW W TRACE CI=
200809192200 METAR MRLM 192200Z 29004KT 9999 FEW035 BKN090 29/23 A2980 CB RN DST QUAD S W DZ NE TRACE CI=
200809192300 METAR MRLM 192300Z 00000KT 9999 FEW020 BKN090 28/23 A2980 RMK DZ DST S SW=
200809200000 METAR MRLM 200000Z NIL=
200809200100 METAR MRLM 200100Z NIL=
200809200200 METAR MRLM NIL=
200809200300 METAR MRLM NIL=
200809200400 METAR MRLM NIL=
200809200500 METAR MRLM NIL=
200809200600 METAR MRLM NIL=
200809200700 METAR MRLM NIL=
200809200800 METAR MRLM NIL=
200809200900 METAR MRLM NIL=
200809201000 METAR MRLM NIL=
200809201100 METAR MRLM NIL=
200809201200 METAR MRLM 201200Z NIL=
200809201300 METAR MRLM 201300Z 20003KT 9999 +DZ FEW012 SCT090 BKN120 24/22 A2989=
200809201400 METAR MRLM 201400Z 22002KT 9999 DZ FEW012 SCT090 BKN130 25/23 A2989=
200809201500 METAR MRLM 201500Z 26003KT 9999 +DZ FEW012 BKN090 25/23 A2989 RMK CB RN DST NW N SCT130=
200809201600 METAR MRLM 201600Z 25004KT 9999 +DZ FEW010 BKN090 26/23 A2992 RMK SCT110=
200809201700 METAR MRLM 201700Z 26003KT 9999 -DZ FEW010 BKN090 26/24 A2992 RMK SCT120=
200809201800 METAR MRLM 201800Z 27005KT 9999 DZ FEW015 BKN090 27/24 A2986 RMK SCT140 CBBRN DST NW=
200809201900 METAR MRLM 201900Z 21003KT 9999 FEW028 BKN110 29/24 A2980 REDZ RMK FEW150 FEW270 RN DST W NW=
200809202000 METAR MRLM 202000Z 07005KT CAVOK 29/24 A2977 RMK DZ DST W CB DST SE FEW150 FEW280 BKN110=
200809202100 METAR MRLM 202100Z 04009KT CAVOK 30/23 A2977 RMK TRACE SC BKN110 FEW280 CB DST NE HZY=
200809202200 METAR MRLM 202200Z 06007KT 9999 FEW030 BKN110 29/23 A2980 RMK TRACE CI HZ SE=
200809202300 METAR MRLM 202300Z 09008KT 9999 SCT025 BKN110 29/23 A2980 TRACE CI HZ SE=
200809210000 METAR MRLM NIL=
200809210100 METAR MRLM NIL=
200809210200 METAR MRLM NIL=
200809210300 METAR MRLM NIL=
200809210400 METAR MRLM NIL=
200809210500 METAR MRLM NIL=
200809210600 METAR MRLM NIL=
200809210700 METAR MRLM NIL=
200809210800 METAR MRLM NIL=
200809210900 METAR MRLM NIL=
200809211000 METAR MRLM NIL=
200809211100 METAR MRLM NIL=
200809211200 METAR MRLM 211200Z NIL=
200809211300 METAR MRLM 211300Z 20003KT 9999 FEW025 SCT035 25/23 A2985 RMK SCT080 CB RN DST N QUAD=
200809211400 METAR MRLM 211400Z 24002KT 9999 FEW018 SCT035 27/23 A2988 RMK TRACE CI SCT080 CB DST N=
200809211500 METAR MRLM 211500Z 11002KT 9999 FEW032 BKN080 29/23 A2988 RMK TRACE CI CB RN DST N RN SW=
200809211600 METAR MRLM 211600Z 05004KT 9999 SCT030 SCT120 30/22 A2988 RMK SCT270 CB RN DST N TCU DST SE S=
200809211700 METAR MRLM 211700Z 08007KT 9999 SCT025 BKN090 29/24 A2985 RMK TRACE CI SCTD CB RN DST ARND=
200809211800 METAR MRLM 211800Z 03010KT 9999 BKN025 29/25 A2982 RMK CB RN DST ARND TRACE CI FEW110=
200809211900 METAR MRLM 211900Z 03013KT 9999 SCT020 SCT090 28/24 A2983 RMK CBS RN DST ARND FEW270=
200809212000 METAR MRLM 212000Z 05006KT 9999 -DZ SCT020 SCT080 28/24 A2980 RMK FEW270 CBS RN DST S W QDS=
200809212100 METAR MRLM 212100Z 21003KT 9999 +DZ SCT010 BKN150 26/24 A2977 RMK TRACE CI=
200809212200 METAR MRLM 212200Z 22003KT 9999 FEW010 BKN090 26/25 A2980 REDZ RMK CB SE S SW W FEW270=
200809212300 METAR MRLM 212300Z 19003KT 9999 FEW010 BKN080 26/24 A2980 RMK FEW270 CB RN S W=
200809220000 METAR MRLM NIL=
200809220100 METAR MRLM NIL=
200809220200 METAR MRLM NIL=
200809220300 METAR MRLM NIL=
200809220400 METAR MRLM NIL=
200809220500 METAR MRLM NIL=
200809220600 METAR MRLM NIL=
200809220700 METAR MRLM NIL=
200809220800 METAR MRLM NIL=
200809220900 METAR MRLM NIL=
200809221000 METAR MRLM NIL=
200809221100 METAR MRLM NIL=
200809221200 METAR MRLM 221200Z NIL=
200809221300 METAR MRLM 221300Z 22003KT CAVOK 26/23 A2985 RMK BKN080 FEW270 CB RN DST NW N NE E HZ ARND=
200809221400 METAR MRLM 221400Z 07002KT CAVOK 28/22 A2988 RMK TRACE SC FEW110 BKN270 CB N NE HZ ARND=
200809221500 METAR MRLM 221500Z 03003KT 9999 FEW030 BKN270 29/23 A2988 RMK CB DST N TRACE AC HZ SE=
200809221600 METAR MRLM 221600Z 02005KT 9999 FEW035 BKN280 29/23 A2988 RMK CB DST NW N NE HZ SE=
200809221700 METAR MRLM 221700Z 17008KT 9999 SCT033 BKN280 30/24 A2988 RMK CB DST NW N NE HZ SE=
200809221800 METAR MRLM 221800Z 36010KT 9999 SCT030 BKN280 30/24 A2988 RMK CB DST N NE TCU W FEW130=
200809221900 METAR MRLM 221900Z 36007KT 9999 FEW030 SCT090 BKN280 30/24 A2986 RMK CB N NE SE S SW W RN SW NW=
200809222000 METAR MRLM 222000Z 36007KT 9999 SCT030 BKN280 30/24 A2980 RMK FEW110 CB N NE SE S SW W HZ LEVE ARND=
200809222100 METAR MRLM 222100Z 36007KT 9999 SCT030 BKN280 30/24 A2980 CB N NE SE S SW W RN SW W=
200809222200 METAR MRLM 222200Z 01004KT 9999 FEW030 BKN280 30/24 A2980 CB NE SE S SW W RN SW=
200809222300 METAR MRLM 222300Z 29008KT 6000 VCFG SCT002 BKN020 21/19 A2996 RN E=
200809230000 METAR MRLM NIL=
200809230100 METAR MRLM NIL=
200809230200 METAR MRLM NIL=
200809230300 METAR MRLM NIL=
200809230400 METAR MRLM NIL=
200809230500 METAR MRLM NIL=
200809230600 METAR MRLM NIL=
200809230700 METAR MRLM NIL=
200809230800 METAR MRLM NIL=
200809230900 METAR MRLM NIL=
200809231000 METAR MRLM NIL=
200809231100 METAR MRLM NIL=
200809231200 METAR MRLM 231200Z NIL=
200809231300 METAR MRLM 231300Z 22003KT CAVOK 25/23 A2986 SCT080 SCT270 TRACE CU CB RN NW N NE E HZ SE=
200809231400 METAR MRLM 231400Z 00000KT CAVOK 27/23 A2989 TRACE CU FEW090 SCT140 SCT270 CB RN NW N NE=
200809231500 METAR MRLM 231500Z 00000KT 9999 FEW020 SCT120 28/24 A2989 SCT150 FEW270 CB RN NW N NE E=
200809231600 METAR MRLM 231600Z 26004KT 9999 FEW020 SCT150 29/24 A2989 FEW110 FEW270 CB RN NW N NE E=
200809231800 METAR MRLM 231800Z 29004KT 9999 FEW028 SCT090 30/24 A2988FEW140 FEW270 CB ARND RN S W NE=
200809231900 METAR MRLM 231900Z 33007KT 9999 FEW030 BKN270 30/24 A2988 FEW120 CB ARND RN NE N SE W=
200809232000 METAR MRLM 232000Z 33006KT 9999 FEW028 BKN270 31/24 A2980 CB DST ARND RN W FEW150=
200809232100 METAR MRLM 232100Z 32007KT 9999 FEW030 BKN270 30/24 A2981 RMK CB DST ARND RN DST SW W SE FEW140=
200809232200 METAR MRLM 232200Z 33008KT 9999 SCT030 BKN270 30/24 A2981 RMK RN DST S SW W FEW130=
200809232300 METAR MRLM 232300Z 32006KT 9999 SCT028 BKN270 29/24 A2980 RMK CB DST SE S SW W NW FEW140=
200809240000 METAR MRLM 240000Z NIL=
200809240100 METAR MRLM NIL=
200809240200 METAR MRLM NIL=
200809240300 METAR MRLM NIL=
200809240400 METAR MRLM NIL=
200809240500 METAR MRLM NIL=
200809240600 METAR MRLM NIL=
200809240700 METAR MRLM NIL=
200809240800 METAR MRLM NIL=
200809240900 METAR MRLM NIL=
200809241000 METAR MRLM NIL=
200809241100 METAR MRLM NIL=
200809241200 METAR MRLM NIL=
200809241300 METAR MRLM 241300Z 23002KT CAVOK 26/23 A2983 RMK CB DST NE E SE FEW090 BKN280=
200809241400 METAR MRLM NIL=
200809241500 METAR MRLM 241500Z 05005KT 9999 FEW020 SCT150 28/23 A2991 RMK TRACE AC SCT280 CB RN DST NE E=
200809241600 METAR MRLM 241600Z 05004KT 9999 FEW025 SCT140 28/23 A2990 RMK TRACE AC FEW270 CB RN DST NE E=
200809241700 METAR MRLM 241700Z NIL=
200809241800 METAR MRLM 241800Z 11004KT E 9999 FEW025 BKN130 29/25 A2986 RMK CB DST W NW N NE E RN DST NE E FEW270=
200809241900 METAR MRLM 241900Z 06003KT 9999 FEW030 BKN120 29/23 A2977 RMK CB DST SE S W NW N NE RN DST E FEW270=
200809242000 METAR MRLM 242000Z 05003KT 9999 FEW035 BKN260 30/23 A2976 RMK TRACE AC FEW150 CB DST SE S NW RN DST E=
200809242100 METAR MRLM 242100Z 05003KT 9999 FEW030 BKN270 30/23 A2974 RMK CB DST SE S W NW TRACE AC FEW150=
200809242200 METAR MRLM 242200Z 08006K 9999 FEW030 BKN270 29/23 A2974 RM CB DST S W NW FEW150=
200809242300 METAR MRLM 242300Z 08006KT 9999 FEW030 BKN270 29/23 A2977 RMK TRACE AC FEW150 CB DST S SW W=
200809250000 METAR MRLM NIL=
200809250100 METAR MRLM NIL=
200809250200 METAR MRLM NIL=
200809250300 METAR MRLM NIL=
200809250400 METAR MRLM NIL=
200809250500 METAR MRLM NIL=
200809250700 METAR MRLM NIL=
200809250800 METAR MRLM NIL=
200809250900 METAR MRLM NIL=
200809251000 METAR MRLM NIL=
200809251100 METAR MRLM NIL=
200809251200 METAR MRLM 251200Z NIL=
200809251300 METAR MRLM 251300Z 21002KT 9999 FEW020 BKN080 26/23 A2984 RMK DZ N TRACE CI=
200809251400 METAR MRLM 251400Z 15002KT CAVOK 30/23 A2985 RMK TRACE CU SCT080 FEW280 HZ LGT ARND=
200809251500 METAR MRLM 251500Z 06004KT 9999 FEW033 30/23 RMK TRACE AC FEW300 TCU DST NE HZ LGT ARND=
200809251600 METAR MRLM 251600Z 06005KT 9999 FEW035 30/24 A2984 RMK CB DST N FEW300 HZ LGT ARND=
200809251700 METAR MRLM 251700Z 06005KT 9999 FEW035 31/23 A2982 RMK FEW300 CB DST N HZ LGT ARND=
200809251800 METAR MRLM 251800Z 05005KT 9999 FEW038 31/23 A2980 RMK FEW300 CB DST S SW W=
200809251900 METAR MRLM 251900Z 03006KT 9999 FEW038 31/24 A2976 RMK FEW300 CB DST SE S SW W NW=
200809252000 METAR MRLM 252000Z 04005KT 9999 FEW035 31/24 A2973 RMK CB SE S SW W FEW300=
200809252100 METAR MRLM 252100Z 05003KT 9999 FEW033 31/24 A2972 RMK FEW003 CB DST SE S SW W=
200809252200 METAR MRLM 252200Z 11003KT 040V110 9999 FEW035 31/24 A2972 RMK FEW003 CBS DST SE S SW W NW=
200809252300 METAR MRLM 252300Z 04004KT 9999 FEW032 29/24 A2974 RMK FEW280 CB DST S SW W NW RN DST SW W NW=
200809260000 METAR MRLM NIL=
200809260100 METAR MRLM NIL=
200809260200 METAR MRLM NIL=
200809260300 METAR MRLM NIL=
200809260400 METAR MRLM NIL=
200809260500 METAR MRLM NIL=
200809260600 METAR MRLM NIL=
200809260700 METAR MRLM NIL=
200809260800 METAR MRLM NIL=
200809260900 METAR MRLM NIL=
200809261000 METAR MRLM NIL=
200809261100 METAR MRLM NIL=
200809261200 METAR MRLM 261200Z NIL=
200809261300 METAR MRLM 261300Z 22003KT CAVOK 27/23 A2986 RMK TRACE CU AC FEW280 TCU CB RN DST N LGT HZ ARND=
200809261400 METAR MRLM 261400Z 02002KT 9999 FEW035 30/23 A2987 RMK TRACE AC FEW280 CBS RN DST N LGT HZ ARND=
200809261500 METAR MRLM 261500Z 03003KT 9999 FEW035 30/24 A2987 RMK TCU DST NE TRACE AC FEW280 LGT HZ ARND=
200809261600 METAR MRLM 261600Z 04006KT 9999 FEW030 30/24 A2987 RMK FEW280 LGT HZ ARND=
200809261700 METAR MRLM 261700Z 04006KT 9999 FEW030 31/25 A2984 RMK FEW280 CB DST E LGT HZ ARND=
200809261800 METAR MRLM 261800Z 07006KT 9999 FEW030 31/25 A2981 RMK CB DST E LGT HZ ARND=
200809261900 METAR MRLM 261900Z 06007KT 9999 FEW030 SCT280 31/24 A2978 RMK CB DST SE S SW=
200809262000 METAR MRLM 262000Z 07007KT 9999 FEW035 BKN280 31/25 A2975 RMK CB DST SE S SW=
200809262100 METAR MRLM 262100Z 06006KT 9999 FEW030 BKN280 31/25 A2975 RMK CB DIST SE/S/SW/W/LIG HZ ARND=
200809262200 METAR MRLM 262200Z 04006KT 9999 BKN030 31/24 A2975 RMK FEW280 CB DST SE S SW W NW=
200809262300 METAR MRLM 262300Z 04004KT 9999 FEW028 BKN280 30/24 A2976 RMK CB DST SE S SW W NW RN DST SW W=
200809270000 METAR MRLM NIL=
200809270100 METAR MRLM NIL=
200809270200 METAR MRLM NIL=
200809270300 METAR MRLM NIL=
200809270400 METAR MRLM NIL=
200809270500 METAR MRLM NIL=
200809270600 METAR MRLM NIL=
200809270700 METAR MRLM NIL=
200809270800 METAR MRLM NIL=
200809270900 METAR MRLM NIL=
200809271000 METAR MRLM NIL=
200809271100 METAR MRLM NIL=
200809271200 METAR MRLM 271200Z NIL=
200809271300 METAR MRLM 271300Z 00000KT 9999 FEW020 BKN080 25/24 A2986 RMK DZ NW CB RN N NE E SE FEW140=
200809271400 METAR MRLM 271400Z 22002KT 9999 FEW020 WCT080 28/24 A2988 RMK FEW140 SCT260 CB RN N NE E SE=
200809271500 METAR MRLM 271500Z 14005KT 9999 BKN018 28/25 A2990 RMK CB RN DST E SE NE FEW090=
200809271600 METAR MRLM 271600Z 11009KT 9999 FEW020 BKN090 30/24 A2988 RMK CB DST N NE RN E SE NW=
200809271700 METAR MRLM 271700Z 14008KT 9999 FEW028 BKN080 28/23 A2987 RMK FEW130 FEW270 RMK CB RN NE E DZ SE S=
200809271800 METAR MRLM 271800Z 17005KT 9999 FEW035 BKN090 30/24 A2982 RMK FEW270 CB DST ARND RN NE E DZ S=
200809271900 METAR MRLM 271900Z 10009KT 9999 FEW030 SCT090 BKN270 30/24 A2979 RMK CB DST NW N NE W E HZ ARND=
200809272000 METAR MRLM 272000Z 07012KT 9999 FEW038 BKN270 30/23 A2978 RMK FEW110 CB DST ARND RN E=
200809272100 METAR MRLM 272100Z 09007K 9999 FEW035 BKN110 30/23 A2978 CB ARND RN SW W=
200809272200 METAR MRLM 272200Z 10007KT 9999 FEW030 BKN100 30/23 A2978 CB ARND RN NE=
200809272300 METAR MRLM 272300Z 08007KT CAVOK 29/23 A2981 SCT110 BKN270 CB ARND RN NE E=
200809280000 METAR MRLM 280000Z NIL=
200809280100 METAR MRLM NIL=
200809280200 METAR MRLM NIL=
200809280300 METAR MRLM NIL=
200809280400 METAR MRLM NIL=
200809280500 METAR MRLM NIL=
200809280600 METAR MRLM NIL=
200809280700 METAR MRLM NIL=
200809280800 METAR MRLM NIL=
200809280900 METAR MRLM NIL=
200809281000 METAR MRLM NIL=
200809281100 METAR MRLM NIL=
200809281200 METAR MRLM NIL=
200809281300 METAR MRLM 281300Z 24003KT CAVOK 27/24 A2984 BKN300 CB NW N=
200809281400 METAR MRLM 281400Z 26002KT CAVOK 29/23 A2986 TRACE CU BKN300 CB N=
200809281500 METAR MRLM 281500Z NIL=
200809281600 METAR MRLM 281600Z NIL=
200809281700 METAR MRLM 281700Z NIL=
200809281800 METAR MRLM NIL=
200809281900 METAR MRLM 281900Z NIL=
200809282000 METAR MRLM 282000Z NIL=
200809282100 METAR MRLM 282100Z NIL=
200809282200 METAR MRLM 282200Z NIL=
200809282300 METAR MRLM 282300Z 12002KT 7000 -RA SCT020 BKN100 24/24 A2983=
200809290000 METAR MRLM 290000Z NIL=
200809290100 METAR MRLM NIL=
200809290200 METAR MRLM NIL=
200809290300 METAR MRLM NIL=
200809290400 METAR MRLM NIL=
200809290500 METAR MRLM NIL=
200809290600 METAR MRLM NIL=
200809290700 METAR MRLM NIL=
200809290800 METAR MRLM NIL=
200809290900 METAR MRLM NIL=
200809291000 METAR MRLM NIL=
200809291100 METAR MRLM NIL=
200809291200 METAR MRLM NIL=
200809291300 METAR MRLM 291300Z 22003KT CAVOK 24/23 A2984 RMK SCT110 SCT270 FEW140 CB RN DST N/NE/E TRAZAS C=
200809291400 METAR MRLM 291400Z 19005KT CAVOK 25/23 A2986 RMK BKN110 FEW140 FEW270 TRACE SC CB RN DST N NE E=
200809291500 METAR MRLM 291500Z 00000KT 9999 FEW020 BKN110 26/23 A2988 RMK FEW140 TRACE CI CB RN DST N NE E TSTM DST E=
200809291600 METAR MRLM 291600Z 19003KT 9999 DZ FEW015 SCT035 27/24 A2989 RMK FEW110 FEW140 FEW270 CB RN NE E=
200809291700 METAR MRLM 291700Z 09006KT 8000 RA BKN015 27/24 A2987 RMK FEW140 FEW270 SE S SW W NW UNL=
200809291800 METAR MRLM 291800Z 09010KT 9999 DZ BKN015 27/24 A2985 RMK TRACE AC FEW130 RN NW N NE E SW=
200809291900 METAR MRLM 291900Z 09006KT 9999 DZ FEW015 BKN140 27/24 A2982 RMK FEW110 CB RN DST NW N NE=
200809292000 METAR MRLM 292000Z NIL=
200809292100 METAR MRLM 292100Z 07002KT 9999 FEW020 BKN150 28/24 A2977 RMK FEW130 FEW270 CB DST SE W NW RN DST N=
200809292200 METAR MRLM 292200Z 04002KT 9999 FEW015 BKN110 28/24 A2977 RMK CB DST NE FEW150 FEW270=
200809292300 METAR MRLM 292300Z 29005KT 9999 FEW020 BKN110 28/24 A2979 RMK TRACE CI FEW150 RN DST S=
200809300000 METAR MRLM NIL=
200809300100 METAR MRLM NIL=
200809300200 METAR MRLM NIL=
200809300300 METAR MRLM NIL=
200809300400 METAR MRLM NIL=
200809300500 METAR MRLM NIL=
200809300600 METAR MRLM NIL=
200809300700 METAR MRLM NIL=
200809300800 METAR MRLM NIL=
200809300900 METAR MRLM NIL=
200809301000 METAR MRLM NIL=
200809301100 METAR MRLM NIL=
200809301200 METAR MRLM 301200Z NIL=
200809301300 METAR MRLM 301300Z 25002KT CAVOK 25/23 A2991 RMK TRACE SC BKN120 FEW140 FEW270 CB RN DST N E=
200809301400 METAR MRLM 301400Z 22002KT 9999 FEW020 BKN100 27/23 A2992 RMK FEW140 FEW270 CB RN DST NE DZ E=
200809301500 METAR MRLM 301500Z 23002KT CAVOK 28/23 A2994 RMK TRACE SC SCT090 SCT140 FEW270 CB RN DST NE=
200809301600 METAR MRLM 301600Z 21003KT 9999 DZ BKN090 SCT150 29/23 A2993 RMK TRACE CU FEW270 CB RN DST NE=
200809301700 METAR MRLM 301700Z 19003KT 9999 FEW035 SCT080 30/23 A2991 REDA RMK FEW150 FEW270 CB RN DST NE E=
200809301800 METAR MRLM 301800Z 03004KT 9999 FEW035 BKN110 30/23 A2988 RMK SCT270 CB DST S SW NW LEVE HZ ARND=
200809301900 METAR MRLM 301900Z 04004KT 9999 FEW030 BKN090 30/25 A2985 RMK SCT270 CB DST SE FU CABEZERA 32 SE=
200809302000 METAR MRLM 302000Z NIL=
200809302100 METAR MRLM 302100Z 01007KT 9999 FEW035 BKN130 30/23 A2980 RMK CB DST SW FEW270 LGT HZ ARND=
200809302200 METAR MRLM 302200Z 35008KT 9999 FEW028 BKN080 29/23 A2980 RMK FEW280 RN DST SW CB DST S=
200809302300 METAR MRLM 302300Z 01004KT 9999 SCT025 SCT130 29/23 A2982 RMK RN DST SW CBS DST S W FEW230=
200810010000 METAR MRLM NIL=
200810010100 METAR MRLM NIL=
200810010200 METAR MRLM NIL=
200810010300 METAR MRLM NIL=
200810010400 METAR MRLM NIL=
200810010500 METAR MRLM NIL=
200810010600 METAR MRLM NIL=
200810010700 METAR MRLM NIL=
200810010800 METAR MRLM NIL=
200810010900 METAR MRLM NIL=
200810011000 METAR MRLM NIL=
200810011100 METAR MRLM NIL=
200810011200 METAR MRLM 011200Z NIL=
200810011300 METAR MRLM 011300Z 22003KT CAVOK 27/23 A2989 RMK BKN090 SCT280 HZ ARND=
200810011400 METAR MRLM 011400Z 04003KT 9999 FEW028 BKN280 29/23 A2991 RMK TRACE AC CB DST NE E LGT HZ ARND=
200810011500 METAR MRLM 011500Z 03003KT 9999 FEW030 BKN280 30/24 A2991 RMK CB DST N NE LGT HZ ARND=
200810011600 METAR MRLM 011600Z 05006KT 9999 FEW030 BKN280 30/24 A2990 RMK CBS DST N NE TRACE AC LGT HZ ARND=
200810011700 METAR MRLM 011700Z 05006KT 9999 FEW030 BKN280 30/24 A2986 RMK TRACE AC CBS DST S N LGT HZ ARND=
200810011800 METAR MRLM 011800Z 06008KT 9999 FEW038 BKN280 31/23 A2984 RMK CB DST N S QDS TCU SW FEW AC LGT HZ ARND=
200810011900 METAR MRLM 011900Z 05010KT 9999 FEW030 BKN280 31/24 A2981 RMK TRACE AC CB DST NW NE SE S SW=
200810012000 METAR MRLM 012000Z 05007KT 9999 FEW035 BKN280 31/24 A2978 RMK TS RN DST SW CBS DST S SW W=
200810012100 METAR MRLM 012100Z 05004KT 9999 FEW030 BKN280 30/24 A2977 RMK CB DST S SW W RN SW FEW150=
200810012200 METAR MRLM 012200Z 07002KT 9999 FEW030 BKN280 30/23 A2976 RMK TRACE AC FEW150 CB S SW W NW RN SW W=
200810012300 METAR MRLM 012300Z 33003KT CAVOK 30/23 A2976 RMK TRACE ST AC FEW150 BKN280 CB DST S SW N NW RN DST SW W NW=
200810020000 METAR MRLM NIL=
200810020100 METAR MRLM NIL=
200810020200 METAR MRLM NIL=
200810020300 METAR MRLM NIL=
200810020400 METAR MRLM NIL=
200810020500 METAR MRLM NIL=
200810020600 METAR MRLM NIL=
200810020700 METAR MRLM NIL=
200810020800 METAR MRLM NIL=
200810020900 METAR MRLM NIL=
200810021000 METAR MRLM NIL=
200810021100 METAR MRLM NIL=
200810021200 METAR MRLM 021200Z NIL=
200810021300 METAR MRLM 021300Z 20003KT CAVOK 25/23 A2986 RMK CB RN N NE E SCT090 SCT140 FEW270 HZ ARND=
200810021400 METAR MRLM 021400Z 23002KT CAVOK 27/23 A2988 RMK BKN140 FEW270 CB RN NE E HZ ARND=
200810021500 METAR MRLM 021500Z 07005KT 070V290 CAVOK 29/22 A2989 RMK SCT140 SCT150 FEW270 CB RN NE E HZ ARND TRACE SC=
200810021600 METAR MRLM 021600Z 30004KT 9999 FEW035 BKN110 30/23 A2983 RMK FEW150 FEW270 CB RN NE E=
200810021700 METAR MRLM 021700Z 00000KT 9999 FEW035 BKN130 30/23 A2986 RMK FW150 FEW270 RN DST NE HZ ARND=
200810021800 METAR MRLM 021800Z 07007KT 9999 FEW030 BKN270 30/23 A2982 RMK FW140 CB NW NE HZ ARND=
200810021900 METAR MRLM 021900Z 36007KT 9999 FEW030 BKN270 29/23 A2980 RMK RN ST SW FEW090=
200810022000 METAR MRLM 022000Z 01007KT 9999 FEW030 BKN120 30/24 A2977 RMK TCU NW SW HZ CHECK TEXT NEW ENDING ADDED KATLYTAA=
200810022100 METAR MRLM 022100Z 35006KT 9999 FEW030 BKN110 30/24 A2976 CB RN S SW FEW270=
200810022200 METAR MRLM 022200Z 06006KT 9999 FEW028 BKN110 30/24 A2976 CB SE S SW RN SW=
200810022300 METAR MRLM 022300Z 07007KT 9999 FEW025 BKN090 29/24 A2976 RN SW W=
200810030000 METAR MRLM 030000Z NIL=
200810030100 METAR MRLM NIL=
200810030200 METAR MRLM NIL=
200810030300 METAR MRLM NIL=
200810030400 METAR MRLM NIL=
200810030500 METAR MRLM NIL=
200810030600 METAR MRLM NIL=
200810030700 METAR MRLM NIL=
200810030800 METAR MRLM NIL=
200810030900 METAR MRLM NIL=
200810031000 METAR MRLM NIL=
200810031100 METAR MRLM NIL=
200810031200 METAR MRLM NIL=
200810031300 METAR MRLM 031300Z 27003KT CAVOK 27/23 A2985 BKN090 FEW280 TCU E HZY=
200810031400 METAR MRLM 031400Z 27003KT CAVOK 28/22 A2987 TRACE CU OVC080 CB E=
200810031500 METAR MRLM 031500Z 25005KT 9999 FEW035 BKN080 29/22 A2988 CB E HZY=
200810031600 METAR MRLM 031600Z 05004KT 9999 SCT040 SCT270 31/23 A2987 CB N NE E FEW140=
200810031700 METAR MRLM 031700Z 01009KT 9999 SCT035 BKN080 30/22 A2986 CB RN N NE E S SW=
200810031800 METAR MRLM 031800Z 04010KT 9999 FEW035 SCT080 30/23 A2983 FEW150 SCT270 CB RN N NE E TCU RN SW W=
200810031900 METAR MRLM 031900Z 01007KT 9999 FEW030 SCT080 29/23 A2981 SCT150 FEW270 CB RN N NE E S SW W=
200810032000 METAR MRLM 032000Z 12005KT 9999 FEW028 SCT120 29/23 A2979 SCT150 CB RN N NE E S SW W=
200810032100 METAR MRLM 032100Z 02005KT 9999 FEW025 SCT120 28/24 A2978 RMK SCT140 FEW270 CB RN DST S SW W NW N NE=
200810032200 METAR MRLM 032200Z 05007KT 9999 FEW025 BKN090 28/23 A2978 RMK FEW150 CB RN DST SE S SW W NW N NE=
200810032300 METAR MRLM 032300Z 08005KT 9999 FEW025 SCT110 28/23 A2977 RMK FEW080 FEW150 FEW270 CB RN DST SE S SW N NE=
200810040000 METAR MRLM 040000Z NIL=
200810040100 METAR MRLM NIL=
200810040200 METAR MRLM NIL=
200810040300 METAR MRLM NIL=
200810040400 METAR MRLM NIL=
200810040500 METAR MRLM NIL=
200810040600 METAR MRLM NIL=
200810040700 METAR MRLM NIL=
200810040800 METAR MRLM NIL=
200810040900 METAR MRLM NIL=
200810041000 METAR MRLM NIL=
200810041100 METAR MRLM NIL=
200810041200 METAR MRLM NIL=
200810041300 METAR MRLM 041300Z NIL=
200810041303 METAR MRLM 041303Z 22003KT 9999 FEW015 BKN140 24/23 A2986 RMK TRACE CI CB RN DST NW N NE E=
200810041400 METAR MRLM 041400Z 22002KT 9999 DZ VCSH FEW010 BKN090 25/23 A2989 RNK VIS N NE E 8000 DUE SH TRACE CI=
200810041500 METAR MRLM 041500Z 30002KT 9999 DZ SCT010 BKN080 26/24 A2990 RMK CB RN N NE E TSTM E=
200810041600 METAR MRLM 041600Z 23002KT 9999 +DZ OVC110 26/24 A2988 RMK TRACE SC=
200810041700 METAR MRLM 041700Z 29003KT 9999 +DZ FEW080 BKN140 27/25 A2987 RMK TRACE SC CB DST NE E HZ ARND=
200810041800 METAR MRLM NIL=
200810041900 METAR MRLM 041900Z 35009KT 9999 FEW035 BKN130 31/24 A2980 RMK SCT270 CB DST N E ESE HZ ARND=
200810042000 METAR MRLM 042000Z 33008KT 9999 FEW028 BKN120 29/24 A2979 RMK CB DST N NE E SE SCT270 HZ LGT ARND=
200810042100 METAR MRLM 042100Z 35007KT 9999 FEW025 BKN120 29/23 A2977 RMK CB DST N NW SW S SE SCT270 LGT HZ ARND=
200810042200 METAR MRLM 042200Z 35005KT 9999 FEW030 SCT140 BKN270 29/23 A2978 RMK CB DST SE S SW W NW RN DST W LGT HZ ARND=
200810042300 METAR MRLM 042300Z 00000KT 9999 FEW025 SCT140 BKN280 28/24 A2979 RMK CB RN DST SE S SW W NW=
200810050000 METAR MRLM NIL=
200810050100 METAR MRLM NIL=
200810050200 METAR MRLM NIL=
200810050300 METAR MRLM NIL=
200810050400 METAR MRLM NIL=
200810050500 METAR MRLM NIL=
200810050600 METAR MRLM NIL=
200810050700 METAR MRLM NIL=
200810050800 METAR MRLM NIL=
200810050900 METAR MRLM NIL=
200810051000 METAR MRLM NIL=
200810051100 METAR MRLM NIL=
200810051200 METAR MRLM NIL=
200810051300 METAR MRLM 051300Z 22003KT 9999 FEW015 BKN130 27/23 A2987 RMK FEW270 CB RN DST N NE E=
200810051400 METAR MRLM 051400Z 20002KT 9999 FEW025 BKN120 28/24 A2988 RMK CB RN DST NW N NE E=
200810051500 METAR MRLM 051500Z 03005KT 9999 FEW035 BKN090 31/23 A2990=
200810051600 METAR MRLM NIL=
200810051700 METAR MRLM 051700Z 35012KT 9999 TS VCSH SCT015CB SCT025 BKN080 29/24 A2989=
200810051800 METAR MRLM 051800Z 21004KT 9999 DZ SCT020 BKN100 28/24 A2985 RETS=
200810051900 METAR MRLM 051900Z 20004KT 9999 DZ FEW025 BKN100 29/24 A2982=
200810052000 METAR MRLM 052000Z 04005KT 9999 FEW025 BKN130 30/24 A2997=
200810052100 METAR MRLM NIL=
200810052200 METAR MRLM NIL=
200810052300 METAR MRLM NIL=
200810060000 METAR MRLM NIL=
200810060100 METAR MRLM NIL=
200810060200 METAR MRLM NIL=
200810060300 METAR MRLM NIL=
200810060400 METAR MRLM NIL=
200810060500 METAR MRLM NIL=
200810060600 METAR MRLM NIL=
200810060700 METAR MRLM NIL=
200810060800 METAR MRLM NIL=
200810060900 METAR MRLM NIL=
200810061000 METAR MRLM NIL=
200810061100 METAR MRLM NIL=
200810061200 METAR MRLM 061200Z NIL=
200810061300 METAR MRLM 061300Z 24002KT CAVOK 25/23 A2986 RMK TRACE CU SCT090 BKN270 CBS DST N E LGT HZ ARND=
200810061400 METAR MRLM 061400Z 21002KT CAVOK 29/24 A2987 RMK TRACE CU BKN110 SCT280 CBS RN DST N=
200810061500 METAR MRLM 061500Z 06005KT CAVOK 29/23 A2988 RMK TRACE CU CI OVC120 CBS DST N E LGT HZ ARND=
200810061600 METAR MRLM 061600Z 03006KT 9999 FEW025 BKN090 29/24 A2988 RMK CBS DST N NE E TRACE CI=
200810061700 METAR MRLM 061700Z 03004KT 9999 FEW030 BKN110 30/23 A2985 RMK FEW280 TCU RN W CB DST N LGT HZ ARND=
200810061800 METAR MRLM 061800Z 36008KT 9999 FEW035 SCT110 30/23 A2983 CBS DST S SW W N E RN DST W N FEW280=
200810061900 METAR MRLM 061900Z 35011KT 9999 FEW045 SCT130 31/22 A2979 RMK FEW280 CBS DST ARND RN DST S SW=
200810062000 METAR MRLM 062000Z 33009KT 9999 FEW040 SCT280 31/22 A2976 RMK FEW120 CBS DST SE S SW W=
200810062100 METAR MRLM 062100Z 33009KT 9999 FEW040 SCT280 31/23 A2975 RMK FEW140 CB RN DST SE S SW CB W NW=
200810062200 METAR MRLM 062200Z 33008KT 9999 FEW035 BKN090 30/23 A2977 RMK FEW270 CB RN SE S SW W NW=
200810062300 METAR MRLM 062300Z 30005KT 9999 FEW030 BKN070 29/23 A2980 RMK TRACE CI CB RN DST SE S SW W NW=
200810070000 METAR MRLM NIL=
200810070100 METAR MRLM NIL=
200810070200 METAR MRLM NIL=
200810070300 METAR MRLM NIL=
200810070400 METAR MRLM NIL=
200810070500 METAR MRLM NIL=
200810070600 METAR MRLM NIL=
200810070700 METAR MRLM NIL=
200810070800 METAR MRLM NIL=
200810070900 METAR MRLM NIL=
200810071000 METAR MRLM NIL=
200810071100 METAR MRLM NIL=
200810071200 METAR MRLM 071200Z NIL=
200810071300 METAR MRLM 071300Z 20003KT CAVOK 26/22 A2985 RMK TRACE CU OVC140 HZ=
200810071400 METAR MRLM 071400Z 00000KT CAVOK 28/23 A2987 RMK TRACE CI BKN140 HZ ARND CB N=
200810071500 METAR MRLM 071500Z 04003KT 9999 FEW030 BKN140 30/23 A2987 RMK CB N NE E HZ ARND TRACE CI=
200810071600 METAR MRLM NIL=
200810071700 METAR MRLM 071700Z 05004KT 9999 FEW040 BKN280 30/23 A2984 RMK FEW140 CB NW N NE=
200810071800 METAR MRLM 071800Z 05008KT 9999 FEW040 BKN280 31/23 A2981 RMK TRACE AC CB S SW W NW N NE=
200810071900 METAR MRLM 071900Z 06006KT 9999 FEW045 BKN280 31/22 A2979 RMK CB DST SE S SW W NW TRACE AC=
200810072000 METAR MRLM 072000Z 06007KT 9999 FEW040 BKN280 31/23 A2975 RMK CB DST SE S SW W NW FU SE=
200810072100 METAR MRLM 072100Z 05006KT 9999 FEW035 BKN280 30/23 A2975 CB SE S SW W NW HUMO PISTA 32=
200810072200 METAR MRLM 072200Z 07006KT 9999 FEW035 BKN280 30/24 A2975 CB RN SE S SW W NW HUMO PISTA 32=
200810072300 METAR MRLM 072300Z 08007KT 9999 SCT028 SCT150 29/24 A2987 FEW280 CB RN SE S SW W NW=
200810080000 METAR MRLM 080000Z NIL=
200810080100 METAR MRLM NIL=
200810080200 METAR MRLM NIL=
200810080300 METAR MRLM NIL=
200810080400 METAR MRLM NIL=
200810080500 METAR MRLM NIL=
200810080600 METAR MRLM NIL=
200810080700 METAR MRLM NIL=
200810080800 METAR MRLM NIL=
200810080900 METAR MRLM NIL=
200810081000 METAR MRLM NIL=
200810081100 METAR MRLM NIL=
200810081200 METAR MRLM NIL=
200810081300 METAR MRLM 081300Z 25003KT 9999 FEW015 BKN130 25/23 A2986 CB RN N NE E=
200810081400 METAR MRLM 081400Z 25002KT 9999 FEW015 SCT090 26/24 A2988 FEW150 FEW270 CB RN N NE E=
200810081500 METAR MRLM 081500Z 00000KT 9999 FEW020 BKN270 28/24 A2989 FEW090 FEW140 CB RN N NE=
200810081600 METAR MRLM 081600Z 30002KT 9999 FEW035 BKN270 30/23 A2988 FEW090 CB N NW=
200810081700 METAR MRLM 081700Z 29006KT 9999 FEW035 SCT110 BKN270 31/24 A2985 CB N NE HZY=
200810081800 METAR MRLM 081800Z 33008KT 9999 FEW035 BKN270 30/24 A2983 FEW130 CB N NE S W=
200810081900 METAR MRLM 081900Z 34008KT 9999 FEW030 BKN270 30/24 A2980 CB ARND RN SW=
200810082000 METAR MRLM 082000Z 33009KT 9999 SCT035 SCT270 31/24 A2978 CB RN SE S SW W NW=
200810082100 METAR MRLM 082100Z 33008KT 9999 BKN030 30/24 A2978 RMK CB RN DST SE S SW NW TRACE AC=
200810082200 METAR MRLM 082200Z 34008KT 9999 BKN025 29/24 A2979 RMK CB RN DST SE S SW W NW TRACE AC=
200810082300 METAR MRLM 082300Z 23003KT 9999 OVC020 28/25 A2981 RMK CB RN DST SE S SW N NW TRACE AC CI=
200810090000 METAR MRLM 090000Z NIL=
200810090100 METAR MRLM NIL=
200810090200 METAR MRLM NIL=
200810090300 METAR MRLM NIL=
200810090400 METAR MRLM NIL=
200810090500 METAR MRLM NIL=
200810090600 METAR MRLM NIL=
200810090700 METAR MRLM NIL=
200810090800 METAR MRLM NIL=
200810090900 METAR MRLM NIL=
200810091000 METAR MRLM NIL=
200810091100 METAR MRLM NIL=
200810091200 METAR MRLM NIL=
200810091300 METAR MRLM 091300Z 21003KT 9999 FEW015 BKN130 25/23 A2990 RMK FEW150 FEW270 RN DST NW N NE=
200810091400 METAR MRLM 091400Z 26004KT 9999 FEW025 BKN130 28/23 A2992 RMK FEW270 CB DST NW N NE E=
200810091500 METAR MRLM 091500Z 28005KT 9999 FEW030 BKN130 28/23 A2993 RMK FEW270 CBRN DST N E DZ NE=
200810091600 METAR MRLM 091600Z 30006KT 9999 FEW025 SCT140 BKN270 30/22 A2993 RMK RN CB DST N E=
200810091700 METAR MRLM 091700Z 34010KT 9999 FEW040 BKN40 31/23 A2991 RMK SCT270 CB RN DST E=
200810091800 METAR MRLM 091800Z 36010KT 9999 SCT030 SCT270 30/23 A2988 RMK CB RN DST SW FEW120 HZ ARND=
200810091900 METAR MRLM 091900Z 34012KT 9999 FEW038 SCT140 BKN270 30/23 A2985 RMK CB RN DST SSW HZ ARND=
200810092000 METAR MRLM 092000Z 32005KT 9999 FEW038 BKN090 30/22 A2984 RMK FEW270 CB RN DST S SW=
200810092100 METAR MRLM 092100Z 01003KT 9999 FEW038 SCT090 29/23 A2981 RMK CB RN DST SE S SW SCT270=
200810092200 METAR MRLM 092200Z 23002KT 9999 FEW030 BKN110 29/23 A2981 RMK FEW270 CB RN DST SE S SW HZ LGT ARND=
200810092300 METAR MRLM 092300Z 24002KT CAVOK 28/23 A2982 RMK BKN090 SCT270 CB RN DST S E=
200810100000 METAR MRLM NIL=
200810100100 METAR MRLM NIL=
200810100200 METAR MRLM NIL=
200810100300 METAR MRLM NIL=
200810100400 METAR MRLM NIL=
200810100500 METAR MRLM NIL=
200810100600 METAR MRLM NIL=
200810100700 METAR MRLM NIL=
200810100800 METAR MRLM NIL=
200810100900 METAR MRLM NIL=
200810101000 METAR MRLM NIL=
200810101100 METAR MRLM NIL=
200810101200 METAR MRLM 101200Z NIL=
200810101300 METAR MRLM 101300Z 22004KT CAVOK 25/23 A2988 RMK BKN130 SCT270 CB RN DST N NE E HZ LGT ARND=
200810101400 METAR MRLM 101400Z 26003KT 9999 FEW035 BKN270 30/23 A2988 RMK CB RN DST N NE E TRACE AC HZ LGT ARND=
200810101500 METAR MRLM 101500Z 30003KT 9999 FEW045 BKN270 31/22 A2988 RMK FEW130 CB DST N E HZ LGT ARND=
200810101600 METAR MRLM 101600Z 01009KT 9999 FEW035 BKN270 31/24 A2986 RMK TRACE AC CB DST NE E=
200810101700 METAR MRLM 101700Z 02008KT 9999 FEW035 BKN270 31/24 A2983 RMK CB DST NE E RN DST NE TRACE AC=
200810101800 METAR MRLM 101800Z 36010KT 9999 FEW035 BKN270 31/24 A2981 RMK FEW150 CB RN DST N NE TCU RN DST SW=
200810101900 METAR MRLM 101900Z 36010KT 9999 FEW035 SCT110 31/24 A2978 RMK CB DST ARND RN DST S SW W NE E FEW150 FEW270=
200810102000 METAR MRLM 102000Z 36009KT 9999 FEW035 BKN270 30/23 A2977 RMK FEW090 CB DST ARND RN DST S SW W=
200810102100 METAR MRLM 102100Z 02009KT 9999 FEW035 BKN270 31/24 A2976 RMK CBS DST ARND RN DST SE S SW W FEW130=
200810102200 METAR MRLM 102200Z 03004KT 9999 FEW030 BKN270 30/23 A2977 RMK CB DST ARND RN DST SE S SW W FEW130 FEW150=
200810102300 METAR MRLM 102300Z 03002KT 9999 FEW030 BKN110 29/23 A2978 RMK SCT270 CB S DST ARND RN DST SE S SW W=
200810110000 METAR MRLM NIL=
200810110100 METAR MRLM NIL=
200810110200 METAR MRLM NIL=
200810110300 METAR MRLM NIL=
200810110400 METAR MRLM NIL=
200810110500 METAR MRLM NIL=
200810110600 METAR MRLM NIL=
200810110700 METAR MRLM NIL=
200810110800 METAR MRLM NIL=
200810110900 METAR MRLM NIL=
200810111000 METAR MRLM NIL=
200810111100 METAR MRLM NIL=
200810111200 METAR MRLM 111200Z NIL=
200810111300 METAR MRLM 111300Z 23002KT CAVOK 24/22 A2984 RMK OVC080 CB DST N LGT HZ ARND=
200810111400 METAR MRLM 111400Z 26003KT CAVOK 28/22 A2984 RMK TRACE CI OVC080 CB DST N NE E LGT HZ ARND=
200810111500 METAR MRLM 111500Z 27012KT CAVOK 29/22 A2983 RMK CB DST NW N NE E SCT090 SCT270 LGT HZ ARND=
200810111600 METAR MRLM 111600Z 30909KT 9999 FEW040 BKN090 31/23 A2984 RMK FEW270 LGT HZ ARND CBS DST NW N NE E=
200810111700 METAR MRLM 111700Z 33010KT 9999 FEW030 BKN090 30/24 A2982 RMK TRACE CI FEW250 CBS DST NW N NE E RN DST NE ESE=
200810111800 METAR MRLM 111800Z 34013KT 9999 FEW030 BKN110 31/24 A2978 RMK CBS RN DST N NE E SE FEW270=
200810111900 METAR MRLM 111900Z 34013KT 9999 FEW040 SCT110 31/23 A2975 RMK CBS RN N E SE FEW150 FEW270=
200810112000 METAR MRLM 112000Z 35008KT 9999 FEW035 SCT150 30/23 A2972 RMK FEW100 FEW270 CB DST ARND RN N E S=
200810112100 METAR MRLM 112100Z 02007KT 9999 SCT030 SCT090 29/23 A2972 RMK CB ARND RN E S=
200810112200 METAR MRLM 112200Z 02005KT 9999 FEW030 SCT090 29/23 A2975 RMK FEW150 CB ARND RN NE SE S SW W=
200810112300 METAR MRLM 112300Z 36002KT 9999 SCT025 BKN140 28/23 A2975 RMK FEW090 CB DST ARND TCU RN SW W RN DST NE E=
200810120000 METAR MRLM NIL=
200810120100 METAR MRLM NIL=
200810120200 METAR MRLM NIL=
200810120300 METAR MRLM NIL=
200810120400 METAR MRLM NIL=
200810120500 METAR MRLM NIL=
200810120600 METAR MRLM NIL=
200810120700 METAR MRLM NIL=
200810120800 METAR MRLM NIL=
200810120900 METAR MRLM NIL=
200810121000 METAR MRLM NIL=
200810121100 METAR MRLM NIL=
200810121200 METAR MRLM 121200Z NIL=
200810121300 METAR MRLM 121300Z 23002KT 9999 FEW020 BKN280 25/23 A2980 RMK FEW130 CB RN N NE E HZ ARND=
200810121400 METAR MRLM NIL=
200810121500 METAR MRLM NIL=
200810121600 METAR MRLM NIL=
200810121700 METAR MRLM NIL=
200810121800 METAR MRLM NIL=
200810121900 METAR MRLM NIL=
200810122000 METAR MRLM NIL=
200810122100 METAR MRLM 122100Z NIL=
200810122200 METAR MRLM 122200Z NIL=
200810122300 METAR MRLM 122300Z 22006KT 8000 -RA SCT010 BKN110 24/22 A2973 CB NW N VSBY SE S SW UNL=
200810130000 METAR MRLM NIL=
200810130100 METAR MRLM NIL=
200810130200 METAR MRLM NIL=
200810130300 METAR MRLM NIL=
200810130400 METAR MRLM NIL=
200810130500 METAR MRLM NIL=
200810130600 METAR MRLM NIL=
200810130700 METAR MRLM NIL=
200810130800 METAR MRLM NIL=
200810130900 METAR MRLM NIL=
200810131000 METAR MRLM NIL=
200810131100 METAR MRLM NIL=
200810131200 METAR MRLM NIL=
200810131300 METAR MRLM 131300Z 23003KT CAVOK 24/22 A2979 TRACE SCT SCT110 SCT150 FEW270 CB RN N NE=
200810131400 METAR MRLM 131400Z 27004KT 9999 FEW020 BKN110 26/22 A2981 FEW270 CB RN N NE=
200810131500 METAR MRLM 131500Z 29002KT 9999 FEW030 BKN110 28/22 A2983 CB RN NE=
200810131600 METAR MRLM 131600Z 27006KT 9999 FEW040 BKN130 30/21 A2983 CB W NE E=
200810131700 METAR MRLM 131700Z 30006KT 9999 FEW045 BKN120 30/21 A2980 CB W FEW270=
200810131800 METAR MRLM 131800Z 30008KT 9999 FEW045 SCT110 31/21 A2977 FEW080 CB RN S SW W=
200810131900 METAR MRLM 131900Z 32007KT 9999 FEW040 BKN080 30/22 A2976 RN S SW W=
200810132000 METAR MRLM 132000Z 06006KT 9999 FEW030 BKN110 29/23 A2972 CB RN SE S SW W=
200810132100 METAR MRLM 132100Z 02005KT 9999 FEW030 SCT080 29/23 A2971 RMK CB RN DST SE S SW W SCT110 TRACE CI=
200810132200 METAR MRLM 132200Z 28002KT 9999 DZ SCT025 SCT090 29/23 A2972 RMK FEW140 RN DST SW=
200810132300 METAR MRLM 132300Z 16003KT 9999 SCT020 SCT090 28/24 A2974 REDZ RMK CB RN DST NE E=
200810140000 METAR MRLM NIL=
200810140100 METAR MRLM NIL=
200810140200 METAR MRLM NIL=
200810140300 METAR MRLM NIL=
200810140400 METAR MRLM NIL=
200810140500 METAR MRLM NIL=
200810140600 METAR MRLM NIL=
200810140700 METAR MRLM NIL=
200810140800 METAR MRLM NIL=
200810140900 METAR MRLM NIL=
200810141000 METAR MRLM NIL=
200810141100 METAR MRLM NIL=
200810141200 METAR MRLM NIL=
200810141300 METAR MRLM 141300Z 20004KT CAVOK 26/22 A2979 RMK TCU DST NE FEW080 BKN110 TRACE CI=
200810141400 METAR MRLM 141400Z 00000KT CAVOK 30/22 A2979 RMK TRACE CU SCT120 FEW280 HZ LGT ARND=
200810141500 METAR MRLM 141500Z 08004KT 9999 FEW040 30/22 A2979 RMK FEW140 FEW280 CB DST SE S HZ LGT ARND=
200810141600 METAR MRLM 141600Z 06005KT 9999 FEW040 30/22 A2979 RMK FEW130 FEW280 HZ LGT ARND=
200810141700 METAR MRLM 141700Z 02007KT 9999 FEW035 SCT090 31/23 A2978 RMK CB DST S FEW280=
200810141800 METAR MRLM 141800Z 02009KT 9999 FEW030 SCT090 30/24 A2975 RMK FEW280 CB DST SE S SW RN DST SW=
200810141900 METAR MRLM 141900Z 04007KT 9999 FEW035 BKN080 30/24 A2973 RMK FEW280 CB RN DST S SW W=
200810142000 METAR MRLM 142000Z 17002KT 9999 +DZ FEW012 SCT025 27/24 A2924 RERA RMK TRACE CI SCT110 CB RN S SW W=
200810142100 METAR MRLM 142100Z 23003KT 9999 SCT012 BKN080 27/24 A2970 REDZ RMK CB RN DST SE S SW W NW TRACE CI=
200810142200 METAR MRLM 142200Z 20006KT 9999 DZ SCT012 SCT025 26/23 A2971 RMK VCSH VIS 8000 SE S SW=
200810142300 METAR MRLM 142300Z 19004KT 8000 DZ VCTS VCSH SCT007 SCT015CB SCT090 25/23 A2973 RMK VIS 9999 W NW N NE E TS SE=
200810150000 METAR MRLM NIL=
200810150100 METAR MRLM NIL=
200810150200 METAR MRLM NIL=
200810150300 METAR MRLM NIL=
200810150400 METAR MRLM NIL=
200810150500 METAR MRLM NIL=
200810150600 METAR MRLM NIL=
200810150700 METAR MRLM NIL=
200810150800 METAR MRLM NIL=
200810150900 METAR MRLM NIL=
200810151000 METAR MRLM NIL=
200810151100 METAR MRLM NIL=
200810151200 METAR MRLM 151200Z=
200810151300 METAR MRLM 151300Z 20003KT CAVOK 26/23 A2979 RMK TRACE SC SCT110 FEW150 SCT270 CB RN DST N NE SW W=
200810151400 METAR MRLM 151400Z 22003KT 9999 -DZ SCT020 BKN150 27/24 A2982 RMK FEW270 CB DST SW N E=
200810151500 METAR MRLM 151500Z 23002KT 9999 +DZ SCT120 BKN150 27/25 A2983 RMK TRACE SC CI CB DST N=
200810151600 METAR MRLM NIL=
200810151700 METAR MRLM 151700Z 05002KT 9999 FEW025 BKN090 29/24 A2981 REDZ RMK FEW140 CB RN DST S SW=
200810151800 METAR MRLM 151800Z 14002KT CAVOK 30/24 A2979 RMK TRACE SC BKN090 SCT140 RN DST SE S SW W=
200810151900 METAR MRLM NIL=
200810152000 METAR MRLM 152000Z 07002KT 9999 FEW025 BKN140 29/24 A2976 REDZ RMK FEW270 CB RN DST SE S SW W=
200810152100 METAR MRLM 152100Z 10006KT 9999 DZ FEW025 BKN140 29/24 A2972 RMK FEW100 FEW270 CBS RN DST E SE S SW W=
200810152200 METAR MRLM 152200Z 11005KT CAVOK 29/24 A2973 REDZ RMK TRACE ST FEW110 FEW270 CBS RN DST E SE S W=
200810152300 METAR MRLM 152300Z 15004KT 9999 +DZ FEW100 BKN140 28/24 A2973 TRACE ST CI CBS RN DST E SE SW W=
200810160000 METAR MRLM NIL=
200810160100 METAR MRLM NIL=
200810160200 METAR MRLM NIL=
200810160300 METAR MRLM NIL=
200810160400 METAR MRLM NIL=
200810160500 METAR MRLM NIL=
200810160600 METAR MRLM NIL=
200810160700 METAR MRLM NIL=
200810160800 METAR MRLM NIL=
200810160900 METAR MRLM NIL=
200810161000 METAR MRLM NIL=
200810161100 METAR MRLM NIL=
200810161200 METAR MRLM 161200Z NIL=
200810161300 METAR MRLM 161300Z 25002KT CAVOK 25/23 A2983 RMK FEW140 BKN090 FEW270 CB DST N NE=
200810161400 METAR MRLM 161400Z 23003KT CAVOK 27/23 A2986 RMK TRACE SC BKN110 SCT270 TRACE AS CBS RN DST N NE=
200810161500 METAR MRLM 161500Z 28002KT CAVOK 29/23 A2988 RMK TRACE SC BKN090 FEW270 CBS RN DST W N NE=
200810161600 METAR MRLM 161600Z 29004KT CAVOK 30/23 A2989 RMK TRACE SC CI OVC090 CBS RN DST SW W NE=
200810161700 METAR MRLM 161700Z 29005KT 9999 FEW035 OVC090 30/23 A2986 RMK DZ DST S W=
200810161800 METAR MRLM 161800Z 25004KT 9999 DZ FEW028 BKN090 30/24 A2983 RMK CBS RN DST W FEW110=
200810161900 METAR MRLM 161900Z 05004KT 9999 FEW030 BKN110 30/24 A2979 RMK FEW270 CBS RN DST SE W NW NE=
200810162000 METAR MRLM 162000Z 03006KT 9999 FEW030 BKN110 30/24 A2978 RMK CBS RN DST TO W AND N QUADS FEW270=
200810162100 METAR MRLM 162100Z 08006KT 9999 FEW028 BKN110 29/24 A2979 RMK FEW140 CB RN ARND=
200810162200 METAR MRLM 162200Z 31006KT 9999 -DZ SCT020 SCT090 29/24 A2980 CB DST ARND RN W N FEW140=
200810162300 METAR MRLM 162300Z 28006KT 9999 DZ FEW005 OVC015 27/24 A2982 RMK RN S W=
200810170000 METAR MRLM NIL=
200810170100 METAR MRLM NIL=
200810170200 METAR MRLM NIL=
200810170300 METAR MRLM NIL=
200810170400 METAR MRLM NIL=
200810170500 METAR MRLM NIL=
200810170600 METAR MRLM NIL=
200810170700 METAR MRLM NIL=
200810170800 METAR MRLM NIL=
200810170900 METAR MRLM NIL=
200810171000 METAR MRLM NIL=
200810171100 METAR MRLM NIL=
200810171200 METAR MRLM NIL=
200810171300 METAR MRLM 171300Z 20003KT CAVOK 24/22 A2991 RMK BKN090 FEW270 RMK CB RN N NE E TRACE CU=
200810171400 METAR MRLM 171400Z 20004KT CAVOK 27/23 A2992 RMK TRACE CU FEW110 BKN270 CB RN N NE E=
200810171500 METAR MRLM 171500Z 07004KT CAVOK 29/23 A2993 RMK TRACE CU FEW120 BKN270 CB NW N NE E RN NE=
200810171600 METAR MRLM 171600Z 04005KT 9999 FEW030 BKN270 30/23 A2992 RMK TRACE AC CB N NE E=
200810171700 METAR MRLM 171700Z 04006KT 9999 FEW035 BKN270 30/23 A2980 RMK TRACE AC CB N=
200810171800 METAR MRLM 171800Z 05006KT 9999 FEW035 BKN270 30/24 A2989 RMK TRACE AC CB SE S W TCU RN SW=
200810171900 METAR MRLM 171900Z 03006KT 9999 FEW030 BKN270 30/24 A2985 RMK FEW150 CB SE S SW NE RN SW=
200810172000 METAR MRLM 172000Z 01003KT 9999 FEW028 BKN270 29/24 A2982 RMK FEW150 CB DST S W RN SW W=
200810172100 METAR MRLM 172100Z 02003KT 9999 FEW030 SCT080 31/24 A2981 CB/RN DST S SW W SCT270=
200810172200 METAR MRLM 172200Z 36004KT 9999 FEW025 SCT130 30/24 A2982 SCT270 CB RN S W=
200810172300 METAR MRLM 172300Z 27002KT 9999 FEW020 SCT090 29/25 A2982 SCT270 CB RN S W=
200810180000 METAR MRLM NIL=
200810180100 METAR MRLM NIL=
200810180200 METAR MRLM NIL=
200810180300 METAR MRLM NIL=
200810180400 METAR MRLM NIL=
200810180500 METAR MRLM NIL=
200810180600 METAR MRLM NIL=
200810180700 METAR MRLM NIL=
200810180800 METAR MRLM NIL=
200810180900 METAR MRLM NIL=
200810181000 METAR MRLM NIL=
200810181100 METAR MRLM NIL=
200810181200 METAR MRLM NIL=
200810181300 METAR MRLM NIL=
200810181400 METAR MRLM 181400Z 28003KT 9999 +DZ VCSH FEW015 BKN090 24/23 A2993 VSBY N NE 6KM=
200810181500 METAR MRLM 181500Z 23002KT 9999 FEW008 BKN090 25/23 A2994 CB RN NW N NE E SE=
200810181600 METAR MRLM 181600Z 25004KT 9999 FEW015 BKN090 27/24 A2993 CB RN N NE E SE=
200810181700 METAR MRLM 181700Z 27004KT 9999 FEW025 BKN110 29/24 A2990 CB RN N NE SCT270=
200810181800 METAR MRLM 181800Z 30005KT 9999 FEW028 BKN270 29/24 A2987 FEW110 CB RN NE=
200810181900 METAR MRLM 181900Z 32005KT 9999 FEW030 BKN270 30/24 A2984 CB NE E=
200810182000 METAR MRLM 182000Z 30003KT 9999 FEW030 BKN270 31/25 A2981 FEW120 CB RN NE=
200810182100 METAR MRLM 182100Z 32009KT 9999 FEW028 BKN270 30/24 A2980 RMK CB RN DST SW TRACE AC=
200810182200 METAR MRLM 182200Z 34008KT 9999 FEW025 BKN270 29/24 A2981 RMK RN DST SW CB RN NE TRACE AC=
200810182300 METAR MRLM 182300Z 36006KT 9999 FEW020 BKN270 28/24 A2982 RMK CB DST SE S SW=
200810190000 METAR MRLM 190000Z NIL=
200810190100 METAR MRLM NIL=
200810190200 METAR MRLM NIL=
200810190300 METAR MRLM NIL=
200810190400 METAR MRLM NIL=
200810190500 METAR MRLM NIL=
200810190600 METAR MRLM NIL=
200810190700 METAR MRLM NIL=
200810190800 METAR MRLM NIL=
200810190900 METAR MRLM NIL=
200810191000 METAR MRLM NIL=
200810191100 METAR MRLM NIL=
200810191200 METAR MRLM NIL=
200810191300 METAR MRLM 191300Z 22002KT CAVOK 27/24 A2987 RMK CB DST NW N NE BKN120 SCT270 HZ LGT ARND=
200810191400 METAR MRLM 191400Z 23003KT 9999 FEW030 BKN270 30/24 A2987 RMK CB DST N NE HZ ARND LGT=
200810191500 METAR MRLM 191500Z 36008KT 9999 FEW035 BKN270 31/24 A2989 RMK FEW140 CB DST NE E RN DST E SE=
200810191600 METAR MRLM 191600Z 02008KT 9999 FEW030 SCT110 BKN270 30/24 A2989 RMK CB RN DST E/SW=
200810191700 METAR MRLM 191700Z 05007KT 9999 FEW030 SCT110 BKN270 30/24 A2987 RMK CB RN DST E SE=
200810191800 METAR MRLM 191800Z 02006KT 9999 FEW030 SCT090 BKN270 30/24 A2985 RMK CB HZ DST ARND=
200810191900 METAR MRLM 191900Z 03006KT 9999 FEW030 BKN270 30/24 A2982 RMK FEW110 CB HZ DST ARND=
200810192000 METAR MRLM 192000Z 02005KT 9999 FEW030 BKN270 31/24 A2979 RMK CB HZ DST ARND FEW110=
200810192100 METAR MRLM 192100Z 02005KT 9999 SCT030 SCT270 30/24 A2979 RMK CB DST ARND AZ ARND=
200810192200 METAR MRLM 192200Z 01004KT 9999 SCT030 SCT130 31/24 A2980 RMK SCT270 CR RN DST QUAD S W=
200810192300 METAR MRLM 192300Z 02003KT 9999 SCT025 SCT130 29/24 A2981 RMK SCT270 CB RN DST QUADS S W RN DST NE N=
200810200000 METAR MRLM NIL=
200810200100 METAR MRLM NIL=
200810200200 METAR MRLM NIL=
200810200300 METAR MRLM NIL=
200810200400 METAR MRLM NIL=
200810200500 METAR MRLM NIL=
200810200600 METAR MRLM NIL=
200810200700 METAR MRLM NIL=
200810200800 METAR MRLM NIL=
200810200900 METAR MRLM NIL=
200810201000 METAR MRLM NIL=
200810201100 METAR MRLM NIL=
200810201200 METAR MRLM 201200Z=
200810201300 METAR MRLM 201300Z 20005KT CAVOK 26/23 A2987 RMK TRACE CU AC FEW270 CB DST NW E=
200810201400 METAR MRLM 201400Z 00000KT CAVOK 30/24 A2989 RMK TRACE AC FEW270 CB DST NW E=
200810201500 METAR MRLM 201500Z 02005KT 9999 FEW030 SCT270 30/24 A2989 RMK TRACE AC CB DST E HZ LGT ARND=
200810201600 METAR MRLM 281600Z 01006KT 9999 FEW030 BKN280 30/24 A2989 RMK CB DST NW E=
200810201700 METAR MRLM 281700Z 10006KT 9999 FEW035 BKN280 31/24 A2987 RMK FEW140 CB DST NW E HZ LGT ARND=
200810201800 METAR MRLM 201800Z 02007KT 9999 FEW030 SCT140 30/24 A2984 RMK FEW280 CB RN DST NW E RN DST E=
200810201900 METAR MRLM 201900Z 02008KT 9999 FEW035 BKN140 31/24 A29981 RMK CB DST ARND RN DST E TRACE CI=
200810202000 METAR MRLM 202000Z 02005KT 9999 SCT035 SCT100 31/24 A2979 RMK CB DST ARND RN DST NE S SW=
200810202100 METAR MRLM 202100Z 02004KT 9999 SCT028 SCT110 30/25 A2978 RMK CB DST ARND TRACE CI RN DST SW W=
200810202200 METAR MRLM 202200Z 05004KT 9999 SCT028 BKN110 30/24 A2979 RMK CB DST S W QDS TCU RN E RN S SW W TRACE CI=
200810202300 METAR MRLM 202300Z 01002KT 9999 SCT025 BKN110 29/25 A2980 RMK CB RN DST S FEW270=
200810210000 METAR MRLM NIL=
200810210100 METAR MRLM NIL=
200810210200 METAR MRLM NIL=
200810210300 METAR MRLM NIL=
200810210400 METAR MRLM NIL=
200810210500 METAR MRLM NIL=
200810210600 METAR MRLM NIL=
200810210700 METAR MRLM NIL=
200810210800 METAR MRLM NIL=
200810210900 METAR MRLM NIL=
200810211000 METAR MRLM NIL=
200810211100 METAR MRLM NIL=
200810211200 METAR MRLM NIL=
200810211300 METAR MRLM 211300Z 22003KT CAVOK 27/24 A2985 RMK TRACE CU AC BKN280 CB DST E LGT HZ ARND=
200810211400 METAR MRLM 211400Z 30003KT 9999 FEW035 BKN280 30/23 A2987 RMK FEW140 CB DST E LGT HZ ARND=
200810211500 METAR MRLM 211500Z 03005KT 9999 FEW035 BKN280 30/24 A2988 RMK FEW150 CB DST N NE LGT HZ ARND=
200810211600 METAR MRLM 211600Z 05007KT 9999 FEW035 BKN280 31/24 A2987 RMK CB DST N NE FEW140 LGT HZ ARND=
200810211700 METAR MRLM 211700Z 36008KT 9999 FEW035 SCT280 31/24 A2985 RMK CB DST E LGT HZ SE=
200810211800 METAR MRLM 211800Z 36006KT 9999 FEW035 SCT280 31/24 A2980 RMK CB DST E NE N LGT HZ SE TRACE AC=
200810211900 METAR MRLM NIL=
200810212000 METAR MRLM 212000Z 02006KT 9999 FEW030 BKN280 31/24 A2975 RMK LGT HZ SE CB DST NW N SE S SW W=
200810212100 METAR MRLM 212100Z 03005KT 9999 SCT035 BKN280 31/24 A2973 RMK CB S W RN SSW=
200810212200 METAR MRLM 212200Z 01005KT 9999 BKN030 31/25 A2975 RMK FEW280 CB RN S SW W=
200810212300 METAR MRLM 212300Z 06002KT 9999 BKN025 29/24 A2976 RMK CB RN DST SE S SW W TRACE AC FEW200=
200810220000 METAR MRLM NIL=
200810220100 METAR MRLM NIL=
200810220200 METAR MRLM NIL=
200810220300 METAR MRLM NIL=
200810220400 METAR MRLM NIL=
200810220500 METAR MRLM NIL=
200810220600 METAR MRLM NIL=
200810220700 METAR MRLM NIL=
200810220800 METAR MRLM NIL=
200810220900 METAR MRLM NIL=
200810221000 METAR MRLM NIL=
200810221100 METAR MRLM NIL=
200810221200 METAR MRLM 221200Z NIL=
200810221300 METAR MRLM 221300Z 21004KT CAVOK 25/23 A2984 RMK BKN140 SCT270 TCU NE CB RN E HZ ARND=
200810221400 METAR MRLM 221400Z 22002KT CAVOK 28/24 A2985 RMK BKN110 FEW270 CB N NE E HZ ARND=
200810221500 METAR MRLM 221500Z 07004KT 9999 FEW035 SCT270 31/24 A2985 RMK CB N NE FEW140 HZ SE=
200810221600 METAR MRLM 221600Z 06005KT 9999 FEW030 BKN270 30/24 A2986 RMK FEW140 CB E HZ LEVE ARND=
200810221700 METAR MRLM 221700Z 05005KT 9999 FEW035 BKN280 31/24 A2982 RMK TRACE AC CB N NE HZ ARND=
200810221800 METAR MRLM 221800Z 06007KT 9999 FEW028 BKN270 31/25 A2980 RMK TRACE AC CB DST S HZ ARND=
200810221900 METAR MRLM 221900Z 06009KT 9999 FEW028 BKN270 31/25 A2977 CB S W HZ ARND=
200810222000 METAR MRLM 222000Z 07008KT 9999 FEW035 BKN270 31/24 A2974 RMK CB S W RN SW W=
200810222100 METAR MRLM 222100Z 07006KT 9999 SCT035 BKN270 31/24 A2973 CB W S RN SW W=
200810222200 METAR MRLM 222200Z 08006KT 9999 SCT030 BKN280 31/24 A2974 CB S W RN W=
200810222300 METAR MRLM NIL=
200810230000 METAR MRLM 230000Z NIL=
200810230100 METAR MRLM NIL=
200810230200 METAR MRLM NIL=
200810230300 METAR MRLM NIL=
200810230400 METAR MRLM NIL=
200810230500 METAR MRLM NIL=
200810230600 METAR MRLM NIL=
200810230700 METAR MRLM NIL=
200810230800 METAR MRLM NIL=
200810230900 METAR MRLM NIL=
200810231000 METAR MRLM NIL=
200810231100 METAR MRLM NIL=
200810231200 METAR MRLM NIL=
200810231300 METAR MRLM 231300Z 00000KT 999 FEW030 BKN140 26/24 A2988 FEW280 CB RN N NE E=
200810231400 METAR MRLM 231400Z 23002KT 9999 +DZ FEW025 BKN100 27/24 A2989 FEW280 CB RN NW N NE E S=
200810231500 METAR MRLM 231500Z 29005KT 9999 FEW025 BKN110 29/26 A2990 REDZ CB RN NW N NE E SE=
200810231600 METAR MRLM 231600Z 35007KT 9999 SCT030 SCT130 31/24 A2989 CB RN N NE E SE=
200810231700 METAR MRLM 231700Z 30007KT 9999 FEW035 BKN120 32/25 A2987 FEW270 CB RN N E=
200810231800 METAR MRLM 231800Z 35008KT 9999 FEW030 SCT120 31/25 A2984 SCT270 CB RN H ARND=
200810231900 METAR MRLM 231900Z 01006KT 9999 FEW035 BKN110 31/24 A2981 FEW270 CB HZ ARND RN S SW W=
200810232000 METAR MRLM 232000Z 36007KT 9999 FEW030 SCT110 31/24 A2978 SCT270 CB S W RN S SW W=
200810232100 METAR MRLM 232100Z 33006KT 9999 FEW030 SCT120 BKN270 31/24 A2978 RMK CB DST S W RN DST S SW W=
200810232200 METAR MRLM 232200Z 32004KT 9999 SCT035 BKN270 31/24 A2978 RMK CB RN DST W HZ LGT ARND TRACE AC=
200810232300 METAR MRLM 232300Z 30003KT 9999 FEW025 BKN280 29/24 A2979 RMK TRACE AC CB DST SE S SW W NW NE=
200810240000 METAR MRLM 240000Z NIL=
200810240100 METAR MRLM NIL=
200810240200 METAR MRLM NIL=
200810240300 METAR MRLM NIL=
200810240400 METAR MRLM NIL=
200810240500 METAR MRLM NIL=
200810240600 METAR MRLM NIL=
200810240700 METAR MRLM NIL=
200810240800 METAR MRLM NIL=
200810240900 METAR MRLM NIL=
200810241000 METAR MRLM NIL=
200810241100 METAR MRLM NIL=
200810241200 METAR MRLM NIL=
200810241300 METAR MRLM 241300Z 25002KT 9999 +DZ FEW080 OVC110 24/23 A2990 RMK TRACE SC CB RN DST NE E=
200810241400 METAR MRLM 241400Z 20003KT 7000 RA FEW007 OVC100 24/23 A2993 RMK CB N NE=
200810241500 METAR MRLM 241500Z 23004KT 7000 RA FEW006 OVC100 24/23 A2993 RMK VIS SW UNL=
200810241600 METAR MRLM 241600Z 23004KT 8000 RA FEW006 OVC110 24/23 A2990 RMK VIS E SE S UNL=
200810241700 METAR MRLM 241700Z 26002KT CAVOK 25/24 A2984 RERA RMK TRACE ST AC BKN110 FEW270 RN DST W NW N NE=
200810241800 METAR MRLM 241800Z NIL=
200810241803 METAR MRLM 241803Z 24005KT CAVOK 28/24 A2983 RMK TRACE SC SCT110 FEW150 FEW270 RN DST W NW N=
200810241900 METAR MRLM 241900Z 30008KT 9999 FEW025 BKN130 29/25 A2982 RMK RN DST NW N FEW270=
200810242000 METAR MRLM 242000Z NIL=
200810242100 METAR MRLM 242100Z 30007KT 9999 SCT020 SCT090 29/24 A2979 RMK SCT270 CB DST SE S LGT HZ ARND=
200810242200 METAR MRLM 242200Z 29005KT 9999 BKN020 29/25 A2979 RMK FEW120 FEW270 CB DST S HZ LGT ARND=
200810242300 METAR MRLM 242300Z 29005KT 9999 BKN020 28/25 A2981 RMK SCT270 CB DST SE HZ ARND=
200810250000 METAR MRLM NIL=
200810250100 METAR MRLM NIL=
200810250200 METAR MRLM NIL=
200810250300 METAR MRLM NIL=
200810250400 METAR MRLM NIL=
200810250500 METAR MRLM NIL=
200810250600 METAR MRLM NIL=
200810250700 METAR MRLM NIL=
200810250800 METAR MRLM NIL=
200810250900 METAR MRLM NIL=
200810251000 METAR MRLM NIL=
200810251100 METAR MRLM NIL=
200810251200 METAR MRLM 251200Z NIL=
200810251300 METAR MRLM 251300Z 22004KT 9999 FEW015 BKN090 25/23 A2989 RMK TRACE CI TCU DST NW N NE E LEVE HZ SE=
200810251400 METAR MRLM 251400Z 21003KT CAVOK 28/23 A2991 RMK TRACE CU BKN120 FEW270 TCU DST N NE E RN DST E HZ LGT SE=
200810251500 METAR MRLM 251500Z 21005KT CAVOK 31/24 A2990 RMK TRACE CU SCT140 BKN270 CB DST N E RN DST E HZ LGT SE=
200810251600 METAR MRLM 251600Z 03005KT 9999 FEW035 BKN280 31/24 A2989 RMK CB DST NW N E TRACE AC=
200810251700 METAR MRLM 251700Z 10007KT 9999 FEW035 BKN270 31/24 A2986 RMK CB DST N NW E RN DST NW TRACE AC=
200810251800 METAR MRLM 251800Z 36008KT 9999 FEW038 BKN280 31/24 A2984 RMK CB DST NW NE E=
200810251900 METAR MRLM 251900Z 35008KT 9999 FEW035TCU BKN280 31/24 A2981 RMK RN DST SW CB DST QUAD N E=
200810252000 METAR MRLM 252000Z 35009KT 9999 FEW035TCU BKN280 31/24 A2979 RMK CB DST SE S SW N TRACE AC=
200810252100 METAR MRLM 252100Z 35006KT 9999 FEW035 BKN280 31/24 A2977 RMK TRACE AC TCU RN DST SW CBS DST SE S NW N=
200810252200 METAR MRLM 252200Z 34007KT 9999 SCT028 BKN280 30/24 A2979 RMK TRACE AC CBS DST S W QDS RN DST W=
200810252300 METAR MRLM 252300Z 34006KT 9999 BKN025 29/24 A2980 RMK FEW280 CBS DST S W QDS RN DST ARND=
200810260000 METAR MRLM NIL=
200810260100 METAR MRLM NIL=
200810260200 METAR MRLM NIL=
200810260300 METAR MRLM NIL=
200810260400 METAR MRLM NIL=
200810260500 METAR MRLM NIL=
200810260600 METAR MRLM NIL=
200810260700 METAR MRLM NIL=
200810260800 METAR MRLM NIL=
200810260900 METAR MRLM NIL=
200810261000 METAR MRLM NIL=
200810261100 METAR MRLM NIL=
200810261200 METAR MRLM 261200Z NIL=
200810261300 METAR MRLM 261300Z 23002KT 9999 FEW020 BKN080 25/23 A2990 RMK DZ SW NE LGT HZ ARND CB DST NW=
200810261400 METAR MRLM 261400Z 22003KT CAVOK 27/24 A2991 REDZ RMK TRACE CU OVC080 CB DST NE LGT HZ ARND=
200810261500 METAR MRLM 261500Z 21003KT CAVOK 30/24 A2982 RMK TRACE CU SCT080 BKN130 DZ DST S SW CB DST NE LGT HZ ARND=
200810261600 METAR MRLM 261600Z 01004KT 9999 FEW035 NKN120 31/24 A2991 RMK CB DST NE LGT HZ ARND=
200810261700 METAR MRLM 261700Z 07007KT 9999 SCT040TCU SCT120 32/24 A2988 RMK CB DST SE LGT HZ ARND TRACE CI=
200810261800 METAR MRLM 261800Z 11007KT 9999 SCT038TCU 32/24 A2985 RMK TRACE AC FEW270 CB HZ DST ARND RN DST SW=
200810261900 METAR MRLM 261900Z 11007KT 9999 FEW040 32/24 A2982 RMK CB HZ DST ARND FEW110 FEW270=
200810262000 METAR MRLM 262000Z 35008KT 9999 SCT038 32/24 A2979 RMK CBS DST NW E FEW110 FEW270=
200810262100 METAR MRLM 262100Z 33007KT 9999 FEW035 SCT090 31/21 A2977 RMK CB NW N NE E HZ ARND FEW270=
200810262200 METAR MRLM 262200Z 34006KT 9999 FEW035 31/24 A2978 RMK FEW130 FEW270 CB E SE NW=
200810262300 METAR MRLM 262300Z 31004KT 9999 FEW028 30/24 A2979 RMK CB DST N FEW090 FEW270 HZ LEVE ARND=
200810270000 METAR MRLM NIL=
200810270100 METAR MRLM NIL=
200810270200 METAR MRLM NIL=
200810270300 METAR MRLM NIL=
200810270400 METAR MRLM NIL=
200810270500 METAR MRLM NIL=
200810270600 METAR MRLM NIL=
200810270700 METAR MRLM NIL=
200810270800 METAR MRLM NIL=
200810270900 METAR MRLM NIL=
200810271000 METAR MRLM NIL=
200810271100 METAR MRLM NIL=
200810271200 METAR MRLM 271200Z NIL=
200810271300 METAR MRLM 271300Z 19002KT 9999 +DZ VCSH FEW015 BKN100 25/23 A2994 RMK VIS 7000 N NE CB DST NW N FEW270=
200810271400 METAR MRLM 271400Z 15003KT 9999 OVC020 26/23 A2996 REDZ RMK CB DST NW DZ N NE SE S=
200810271500 METAR MRLM 271500Z 21004KT 9999 FEW028 BKN090 29/23 A2996 RMK FEW270 CB RN N HZ ARND=
200810271600 METAR MRLM 271600Z 25002KT 9999 FEW028 BKN110 32/24 A2994 RMK CB RN N FEW270=
200810271700 METAR MRLM 271700Z 03007KT 9999 FEW040 BKN080 32/24 A2992 RMK FEW270 DZ CB RN NE E=
200810271800 METAR MRLM 271800Z 36008KT 9999 FEW025 BKN080 29/24 A2991 DZ NE E W CB RN NW N=
200810271900 METAR MRLM 271900Z 01005KT 9999 FEW035 BKN080 30/22 A2987 RMK CB HZ ARND RN NW N DZ SE=
200810272000 METAR MRLM 272000Z 01005KT 9999 FEW040 SCT140 31/26 A2984 RMK SCT280 CB NW NE E SE HZ ARND=
200810272100 METAR MRLM 272100Z 01005KT 9999 FEW040 SCT140 BKN280 31/23 A2983 CB NE E HZY=
200810272200 METAR MRLM 272200Z 35007KT 9999 FEW035 BKN080 30/23 A2984 CB RN NE E S=
200810272300 METAR MRLM 272300Z 30004KT 9999 FEW030 BKN070 29/23 A2986 FEW280 CB RN W NW NE DZ NE=
200810280000 METAR MRLM NIL=
200810280100 METAR MRLM NIL=
200810280200 METAR MRLM NIL=
200810280300 METAR MRLM NIL=
200810280400 METAR MRLM NIL=
200810280500 METAR MRLM NIL=
200810280600 METAR MRLM NIL=
200810280700 METAR MRLM NIL=
200810280800 METAR MRLM NIL=
200810280900 METAR MRLM NIL=
200810281000 METAR MRLM NIL=
200810281100 METAR MRLM NIL=
200810281200 METAR MRLM NIL=
200810281300 METAR MRLM 281300Z 23004KT 9999 SCT020 BKN130 24/22 A2993 HZY DZ NW TCU RN N E=
200810281400 METAR MRLM 281400Z 24004KT 9999 FEW025 BKN130 27/21 A2993 CB RN NW N NE E=
200810281500 METAR MRLM 281500Z 00000KT 9999 VCSH FEW030 BKN090 28/22 A2990=
200810281600 METAR MRLM 281600Z 31014KT 8000 DZ SCT013 SCT090 26/24 A2997 VSBY E SE UNL=
200810281700 METAR MRLM 281700Z 23004KT 9999 -DZ FEW015 BKN035 26/23 A2985 FEW090=
200810281800 METAR MRLM 281800Z 29005KT 9999 +DZ FEW010 SCT025 26/24 A2993 SCT100 CB RN N E=
200810281900 METAR MRLM 281900Z 26003KT 9999 +DZ FEW018 SCT025 26/23 A2991 SCT100 CB RN N E=
200810282000 METAR MRLM 282000Z 290005KT 9999 FEW025 BKN090 27/22 A2987 REDZ CB RN W N=
200810282100 METAR MRLM 282100Z 29003KT CAVOK 27/23 A3987 RMK TRACE ST CB DST N NE RN DST ARND=
200810282200 METAR MRLM 282200Z 27005KT 9999 SCT025 BKN090 28/23 A2987 RMK RN DST N E=
200810282300 METAR MRLM 282300Z 30005KT 9999 FEW020 BKN080 27/23 A2989 RMK DZ NE=
200810290000 METAR MRLM 290000Z NIL=
200810290100 METAR MRLM NIL=
200810290200 METAR MRLM NIL=
200810290300 METAR MRLM NIL=
200810290400 METAR MRLM NIL=
200810290500 METAR MRLM NIL=
200810290600 METAR MRLM NIL=
200810290700 METAR MRLM NIL=
200810290800 METAR MRLM NIL=
200810290900 METAR MRLM NIL=
200810291000 METAR MRLM NIL=
200810291100 METAR MRLM NIL=
200810291200 METAR MRLM NIL=
200810291300 METAR MRLM NIL=
200810291400 METAR MRLM 291400Z 19003KT 9999 +DZ FEW015 SCT090 BKN110 23/22 A2996=
200810291500 METAR MRLM NIL=
200810291600 METAR MRLM 291600Z 20003KT 9999 +DZ BKN090 SCT110 26/23 A2996 RMK CB RN N E TRACE ST=
200810291700 METAR MRLM 291700Z 06003KT 8000 RA BKN090 SCT110 26/23 A2996 RMK TRACE ST=
200810291800 METAR MRLM 291800Z 19003KT 9999 -DZ BKN090 25/23 A2994 RMK TRACE ST HZ ARND=
200810291900 METAR MRLM 291900Z 18003KT 9999 +DZ SCT025 SCT090 25/23 A2992=
200810292000 METAR MRLM 292000Z 19005KT 9999 -DZ SCT090 SCT110 25/22 A2989 RMK TRACE SC=
200810292100 METAR MRLM 292100Z 20005KT 9999 -DZ FEW090 OVC110 24/22 A2987 RMK TRACE SC CB RN DST NE E=
200810292200 METAR MRLM 292200Z 21005KT 9999 -DZ FEW090 OVC110 24/22 A2986 RMK TRACE SC CB RN DST N NE=
200810292300 METAR MRLM 292300Z 21004KT CAVOK 24/23 A2982 REDZ RMK TRACE SC FEW090 OVC110 RN DST NE=
200810300000 METAR MRLM NIL=
200810300100 METAR MRLM NIL=
200810300200 METAR MRLM NIL=
200810300300 METAR MRLM NIL=
200810300400 METAR MRLM NIL=
200810300500 METAR MRLM NIL=
200810300600 METAR MRLM NIL=
200810300700 METAR MRLM NIL=
200810300800 METAR MRLM NIL=
200810300900 METAR MRLM NIL=
200810301000 METAR MRLM NIL=
200810301100 METAR MRLM NIL=
200810301200 METAR MRLM NIL=
200810301300 METAR MRLM 301300Z 23004KT 9999 DZ VCSH FEW015 BKN090 23/22 A2983 RMK TRACE CI CB RN HZ DST ARND VIS 8000E=
200810301400 METAR MRLM 301400Z 22003KT CAVOK 24/23 A2994 REDZ RMK TRACE SC CI BKN080 FEW110 CB DST NW RN DST QUAD E S=
200810301500 METAR MRLM 301500Z 21004KT 9999 -DZ VCSH FEW010 BKN080 25/23 A2996 RMK FEW110 VIS 8000 N NE=
200810301600 METAR MRLM 301600Z 20005KT 6000 -RA FEW006 OVC015 24/22 A2997=
200810301700 METAR MRLM 301700Z 20002KT 5000 -RA SCT005 BKN015 24/22 A2998 RMK FEW100=
200810301800 METAR MRLM 301800Z 20004KT 4000 -RA SCT005 SCT015 23/22 A2997 RMK FEW090=
200810301900 METAR MRLM 301900Z 21004KT 8000 RA FEW005 SCT015 BKN090 24/23 A2995=
200810302000 METAR MRLM 30200Z 26003KT 9999 +DZ FEW007 OVC100 24/23 A2989 RMK TRACE CU SC CB RN DST QUAD N=
200810302100 METAR MRLM 302100Z 30006KT 9999 FEW010 BKN140 25/23 A2986 REDZ RMK CBS RN DST W NW N FEW100 TRACE CI=
200810302200 METAR MRLM 302200Z 29004KT 9999 FEW012 BKN090 26/23 A2989 RMK FEW140 FEW270 CBS DST S W N NE E=
200810302300 METAR MRLM 302300Z 20004KT CAVOK 25/23 A2990 RMK BKN090=
200810310000 METAR MRLM NIL=
200810310100 METAR MRLM NIL=
200810310200 METAR MRLM NIL=
200810310300 METAR MRLM NIL=
200810310400 METAR MRLM NIL=
200810310500 METAR MRLM NIL=
200810310600 METAR MRLM NIL=
200810310700 METAR MRLM NIL=
200810310800 METAR MRLM NIL=
200810310900 METAR MRLM NIL=
200810311000 METAR MRLM NIL=
200810311100 METAR MRLM NIL=
200810311200 METAR MRLM NIL=
200810311300 METAR MRLM 311300Z 28007KT 9999 FEW010 SCT090 23/21 A2997 RMK FEW140 FEW270 CBS RN DST W NW N NE SE=
200810311400 METAR MRLM 311400Z 21006KT 9999 FEW015 SCT090 25/22 A2998 RMK SCT280 CBS RN DST N E=
200810311500 METAR MRLM 311500Z 28006KT 9999 FEW025 BKN080 27/22 A2999 RMK FEW270 CBS RN DST NW SE DZ E=
200810311600 METAR MRLM 311600Z 26004KT 9999 SCT025 SCT080 27/22 A2997 RMK TRACE CI DZ SE=
200810311700 METAR MRLM NIL=
200810311800 METAR MRLM 311800Z 30007KT 9999 FEW028 BKN080 28/22 A2993 RMK CBS RN DST N E NW DZ SE TRACE CI=
200810311900 METAR MRLM NIL=
200810312000 METAR MRLM 312000Z 31008KT 9999 FEW028 SCT150 29/23 A2986 RMK FEW120 SCT270 CBS RN DST NW NE=
200810312100 METAR MRLM 312100Z 31009KT 9999 DZ FEW025 SCT110 28/23 A2985 RK CB RN DST E SCT140 FEW270=
200810312200 METAR MRLM 312200Z 32010KT 9999 -DZ FEW020 SCT110 BKN130 27/23 A2988 RMK CB RN DST NE E SE=
200810312300 METAR MRLM 312300Z 27004KT 9999 FEW015 SCT110 26/23 A2989 REDZ RMK FEW130 FEW270 CB RN DST W NW N E SE=
200811010000 METAR MRLM NIL=
200811010100 METAR MRLM NIL=
200811010200 METAR MRLM NIL=
200811010300 METAR MRLM NIL=
200811010400 METAR MRLM NIL=
200811010500 METAR MRLM NIL=
200811010600 METAR MRLM NIL=
200811010700 METAR MRLM NIL=
200811010800 METAR MRLM NIL=
200811010900 METAR MRLM NIL=
200811011000 METAR MRLM NIL=
200811011100 METAR MRLM NIL=
200811011200 METAR MRLM 011200Z NIL=
200811011300 METAR MRLM 011300Z 26007KT 8000 DZ OVC008 24/23 A2991 RMK TRACE AS CB RN N E=
200811011400 METAR MRLM 011400Z 25007KT 9999 -DZ FEW002 SCT080 25/23 A2993 RMK SCT120 CB RN DST N E=
200811011500 METAR MRLM 011500Z 25004KT 9999 DZ FEW045 SCT090 26/23 A2985 RMK SCT140 CB RN N E=
200811011600 METAR MRLM 011600Z 26005KT 9999 DZ FEW015 BKN090 27/23 A2994 RMK CB RN DST N E SCT270=
200811011700 METAR MRLM 011700Z 27006KT 9999 FEW020 OVC090 27/23 A2992 REDZ RMK TRACE AS CB RN E=
200811011800 METAR MRLM 011800Z 29004KT 9999 FEW025 SCT100 BKN150 28/23 A2988 RMK TRACE CI CB S NW DZ E=
200811011900 METAR MRLM 011900Z 31007KT 9999 FEW025 SCT110 29/24 A2987 RMK FW140 FEW270 DZ E CB W=
200811012000 METAR MRLM 012000Z 32008KT 9999 FEW030 BKN110 29/22 A2984 RMK FEW270 DZ E/ CB DIST N=
200811012100 METAR MRLM 012100Z 32008KT 9999 FEW035 BKN110 29/22 A2984 SCT270 RN E CB N=
200811012200 METAR MRLM 012200Z 30008KT 9999 FEW025 BKN110 28/23 A2984 CB ARND RN E S SW SCT270=
200811012300 METAR MRLM 012300Z 31005KT 9999 BKN020 27/23 A2986 CB RN ARND FEW110=
200811020000 METAR MRLM 020000Z NIL=
200811020100 METAR MRLM NIL=
200811020200 METAR MRLM NIL=
200811020300 METAR MRLM NIL=
200811020400 METAR MRLM NIL=
200811020500 METAR MRLM NIL=
200811020600 METAR MRLM NIL=
200811020700 METAR MRLM NIL=
200811020800 METAR MRLM NIL=
200811020900 METAR MRLM NIL=
200811021000 METAR MRLM NIL=
200811021100 METAR MRLM NIL=
200811021200 METAR MRLM NIL=
200811021300 METAR MRLM 021300Z 27006KT 9999 DZ BKN015 25/22 A2991 FEW130 RN W NW N NE E=
200811021400 METAR MRLM 021400Z NIL=
200811021500 METAR MRLM 021500Z NIL=
200811021600 METAR MRLM NIL=
200811021700 METAR MRLM 021700Z NIL=
200811021800 METAR MRLM NIL=
200811021900 METAR MRLM NIL=
200811022000 METAR MRLM 022000Z NIL=
200811022100 METAR MRLM 022100Z NIL=
200811022200 METAR MRLM 022200Z NIL=
200811022300 METAR MRLM 022300Z 28005KT 9999 SCT008 BKN015 24/23 A2984 RMK CB RN DST ARWND FEW110=
200811030000 METAR MRLM NIL=
200811030100 METAR MRLM NIL=
200811030200 METAR MRLM NIL=
200811030300 METAR MRLM NIL=
200811030400 METAR MRLM NIL=
200811030500 METAR MRLM NIL=
200811030600 METAR MRLM NIL=
200811030700 METAR MRLM NIL=
200811030800 METAR MRLM NIL=
200811030900 METAR MRLM NIL=
200811031000 METAR MRLM NIL=
200811031100 METAR MRLM NIL=
200811031200 METAR MRLM NIL=
200811031300 METAR MRLM 031300Z 28006KT 9999 FEW017 BKN090 25/21 A2990 RMK CB RN DST N NE TRACE CI=
200811031400 METAR MRLM 031400Z 28009KT 9999 FEW020 SCT090 26/22 A2992 RMK FEW025 FEW270 CB RN DST NW N NE E=
200811031500 METAR MRLM 031500Z 28007KT 9999 FEW025 BKN100 27/22 A2991 RMK FEW270 CB RN DST N=
200811031600 METAR MRLM 031600Z 29012KT 9999 SCT030 BKN110 29/22 A2990 RMK FEW270 CB RN DST N=
200811031700 METAR MRLM 031700Z 31012KT 9999 SCT035 SCT090 29/22 A2988 RMK CB RN DST N NE=
200811031800 METAR MRLM 031800Z 31014KT 9999 SCT032 SCT110 29/23 A2985 RMK DZ N NE=
200811031900 METAR MRLM 031900Z 31015KT 9999 SCT030 BKN100 28/23 A2982 RMK RN DST NW DZ E=
200811032000 METAR MRLM 032000Z 32017KT 9999 SCT025 SCT090 28/23 A2981 RMK RN DST N NE SW=
200811032100 METAR MRLM 032100Z 33010KT 9999 BKN023 28/23 A2980 RMK FEW090 CB RN DST NW N NE SW=
200811032200 METAR MRLM 032200Z 31009KT 9999 DZ SCT020 SCT090 27/23 A2982 RMK RN DST QUAD S W N=
200811032300 METAR MRLM 032300Z 29004KT 9999 DZ VCSH BKN018 26/23 A2983 RMK VIS 8000N FEW090=
200811040000 METAR MRLM NIL=
200811040100 METAR MRLM NIL=
200811040200 METAR MRLM NIL=
200811040300 METAR MRLM NIL=
200811040400 METAR MRLM NIL=
200811040500 METAR MRLM NIL=
200811040600 METAR MRLM NIL=
200811040700 METAR MRLM NIL=
200811040800 METAR MRLM NIL=
200811040900 METAR MRLM NIL=
200811041000 METAR MRLM NIL=
200811041100 METAR MRLM NIL=
200811041200 METAR MRLM 041200Z NIL=
200811041300 METAR MRLM 041300Z 28006KT 9999 SCT025 BKN080 25/20 A2988 RMK RN DST NW NE E SE=
200811041400 METAR MRLM 041400Z 28011KT 9999 FEW040 BKN150 28/20 A2990 RMK FEW270 RN DST E=
200811041500 METAR MRLM 041500Z 27011KT 9999 FEW035 BKN140 27/21 A2991 RMK TRACE CI CB DST NE LGT HZ ARND=
200811041600 METAR MRLM 041600Z 28011KT 9999 FEW040 BKN140 30/21 A2989 RMK CB RN DST NE E TRACE CI=
200811041700 METAR MRLM 041700Z 30010KT 9999 FEW040 BKN140 30/22 A2986 RMK FEW270 CB RN NE=
200811041800 METAR MRLM 041800Z 31013KT 9999 SCT040 BKN110 30/22 A2983 RMK FEW270 CB DST ARND RN DST NE=
200811041900 METAR MRLM 041900Z 32013KT 9999 FEW040 BKN110 30/23 A2980 RMK CB DST NE N SE S RN DST NE S FEW270=
200811042000 METAR MRLM 042000Z 31013KT 9999 FEW025 BKN130 30/23 A2998 RMK SCT270 CB RN DST S SW NE=
200811042100 METAR MRLM 042100Z 31011KT 9999 SCT035 SCT130 30/23 A2978 RMK RN DST SE S SW W SCT270=
200811042200 METAR MRLM 042200Z 31007KT 9999 BKN030 29/23 A2980 RMK FEW090 FEW270 CBS RN DST NE E SE S SW W=
200811042300 METAR MRLM 042300Z 26003KT 9999 BKN022 28/23 A2981 RMK DZ W RN DSTA RND FEW110 FEW270=
200811050000 METAR MRLM NIL=
200811050100 METAR MRLM NIL=
200811050200 METAR MRLM NIL=
200811050300 METAR MRLM NIL=
200811050400 METAR MRLM NIL=
200811050500 METAR MRLM NIL=
200811050600 METAR MRLM NIL=
200811050700 METAR MRLM NIL=
200811050800 METAR MRLM NIL=
200811050900 METAR MRLM NIL=
200811051000 METAR MRLM NIL=
200811051100 METAR MRLM NIL=
200811051200 METAR MRLM 051200Z NIL=
200811051300 METAR MRLM 051300Z 26002KT CAVOK 26/22 A2987 RMK SCT080 BKN100 LGT HZ ARND=
200811051400 METAR MRLM 051400Z 30004KT CAVOK 28/22 A2989 RMK SCT080 BKN100 LGT HZ ARND=
200811051500 METAR MRLM 051500Z 29006KT CAVOK 28/22 A2990 RMK TRACE SC BKN090 FEW120 LGT HZ ARND=
200811051600 METAR MRLM 051600Z 27010KT CAVOK 29/21 A2989 RMK TRACE SC CI SCT090 SCT130=
200811051700 METAR MRLM 051700Z 28007KT CAVOK 30/21 A2988 RMK BKN110 FEW270 TRACE SC=
200811051800 METAR MRLM 051800Z 31008KT CAVOK 31/21 A2985 RMK TRACE SC BKN090 FEW270 LGT HZ ARND CBS DST N E=
200811051900 METAR MRLM 051900Z 330015KT CAVOK 31/20 A2982 RMK TRACE SC FEW090 BKN140 FEW280 RN DST SW=
200811052000 METAR MRLM 052000Z 32012KT CAVOK 30/21 A2979 RMK TRACE SC SCT120 SCT280 LGT HZ ARND=
200811052100 METAR MRLM 052100Z 31011KT CAVOK 30/21 A2979 RMK TRACE SC BKN090 FEW110 FEW270 RN S SW=
200811052200 METAR MRLM 052200Z 30007KT 9999 FEW035 SCT080 28/21 A2980 RMK SCT120 FEW280 RN SW W=
200811052300 METAR MRLM 052300Z 30008KT 9999 FEW035 BKN080 28/21 A2982 RMK FEW110 FEW270 RN DST SW W=
200811060000 METAR MRLM NIL=
200811060100 METAR MRLM NIL=
200811060200 METAR MRLM NIL=
200811060300 METAR MRLM NIL=
200811060400 METAR MRLM NIL=
200811060500 METAR MRLM NIL=
200811060600 METAR MRLM NIL=
200811060700 METAR MRLM NIL=
200811060800 METAR MRLM NIL=
200811060900 METAR MRLM NIL=
200811061000 METAR MRLM NIL=
200811061100 METAR MRLM NIL=
200811061200 METAR MRLM 061200Z NIL=
200811061300 METAR MRLM 061300Z 20004KT CAVOK 26/22 A2987 RMK SCT110 FEW280 HZ ARND=
200811061400 METAR MRLM 061400Z 13003KT CAVOK 29/23 A2989 RMK TRACE CU SCT140 FEW280 HZ ARND=
200811061500 METAR MRLM 061500Z 08006KT CAVOK 29/23 A2989 RMK TRACE SC FEW140 FEW280 HZ ARND=
200811061600 METAR MRLM 061600Z 10011KT 9999 FEW045 30/21 A2988 RMK TRACE AC FEW280 HZ ARND=
200811061700 METAR MRLM 061700Z 09012KT 9999 FEW040 BKN280 31/22 A2986 RMK TRACE AC=
200811061800 METAR MRLM 061800Z 09013KT 9999 FEW045 BKN300 30/23 A2983 RMK FEW AC=
200811061900 METAR MRLM 061900Z 08013KT 9999 FEW038 BKN280 31/23 A2981 RMK TRACE AC CB W SE=
200811062000 METAR MRLM 062000Z 08012KT 9999 FEW035 BKN280 31/23 A2978 RMK FEW140 CB SE S SW W=
200811062100 METAR MRLM 062100Z 09011KT 9999 FEW035 SCT090 31/23 A2978 SCT280 CB DST SE S SW W=
200811062200 METAR MRLM 062200Z 09009KT 9999 FEW033 SCT110 29/23 A2979 SCT280 CB SE S SW W RN SW=
200811062300 METAR MRLM 062300Z 10008KT CAVOK 29/23 A2980 CB S W RN SW W SCT110 SCT280=
200811070000 METAR MRLM 070000Z NIL=
200811070100 METAR MRLM NIL=
200811070200 METAR MRLM NIL=
200811070300 METAR MRLM NIL=
200811070400 METAR MRLM NIL=
200811070500 METAR MRLM NIL=
200811070600 METAR MRLM NIL=
200811070700 METAR MRLM NIL=
200811070800 METAR MRLM NIL=
200811070900 METAR MRLM NIL=
200811071000 METAR MRLM NIL=
200811071100 METAR MRLM NIL=
200811071200 METAR MRLM NIL=
200811071300 METAR MRLM 071300Z 20003KT CAVOK 26/22 A2985 FEW140 FEW300 HZY=
200811071400 METAR MRLM 071400Z 00000KT CAVOK 30/23 A2988 TRACE CU FEW140 FEW300=
200811071500 METAR MRLM 071500Z 03004KT CAVOK 29/23 A2988 TRACE CU FEW140 FEW280 HZY=
200811071600 METAR MRLM 071600Z 09007KT 9999 FEW035 BKN280 30/23 A2987 HZY=
200811071700 METAR MRLM 071700Z 09008KT 9999 FEW032 BKN280 30/24 A2985=
200811071800 METAR MRLM 071800Z 08008KT 9999 FEW030 BKN280 30/24 A2982 CB NE=
200811071900 METAR MRLM 071900Z 07009KT 9999 FEW033 BKN280 30/24 A2979 CB SE S SW W N=
200811072000 METAR MRLM 072000Z 06008KT 9999 FEW035 BKN280 30/24 A2977 CB S W RN SW=
200811072100 METAR MRLM 072100Z 07006KT 9999 FEW035 BKN280 30/23 A2976 RMK CB DST S W RN DST SW W=
200811072200 METAR MRLM 072200Z 05004KT 9999 FEW030 BKN280 29/23 A2979 RMK FEW110 CB RN DST S W=
200811072300 METAR MRLM 072300Z 09005KT CAVOK 29/23 A2981 RMK TRACE SC FEW110 BKN270 CB RN DST S W=
200811080000 METAR MRLM 080000Z NIL=
200811080100 METAR MRLM NIL=
200811080200 METAR MRLM NIL=
200811080300 METAR MRLM NIL=
200811080400 METAR MRLM NIL=
200811080500 METAR MRLM NIL=
200811080600 METAR MRLM NIL=
200811080700 METAR MRLM NIL=
200811080800 METAR MRLM NIL=
200811080900 METAR MRLM NIL=
200811081000 METAR MRLM NIL=
200811081100 METAR MRLM NIL=
200811081200 METAR MRLM NIL=
200811081300 METAR MRLM 081300Z 21003KT CAVOK 25/22 A2987 RMK FEW300 TCU DST NE HZ SE=
200811081400 METAR MRLM 081400Z 00000KT CAVOK 29/23 A2989 RMK TRACE CU FEW300 HZ LGT ARND=
200811081500 METAR MRLM 081500Z 03005KT CAVOK 29/23 A2990 RMK TRACE CU AC FEW300 HZ ARND LGT=
200811081600 METAR MRLM 081600Z 06004KT 9999 FEW028 29/24 A2990 RMK TRACE AC FEW300 HZ LGT ARND=
200811081700 METAR MRLM 081700Z 07006KT 9999 FEW030 30/24 A2987 RMK TRACE AC CI HZ SE=
200811081800 METAR MRLM 081800Z 09006KT 9999 FEW030 30/24 A2983 RMK TRACE AC FEW030 CB DST SE S W N NE=
200811081900 METAR MRLM 081900Z 07009KT 9999 FEW030 30/24 A2980 RMK CB DST S SW W N NE FEW300=
200811082000 METAR MRLM 082000Z 08008KT 9999 FEW030 SCT300 30/24 A2978 RMK CB DST HZ LGT SE=
200811082100 METAR MRLM 082100Z 07009KT 9999 FEW035 BKN300 30/23 A2978 RMK CB DST ARND RN DST SW HZ SE=
200811082200 METAR MRLM 082200Z 09007KT 9999 FEW030 BKN280 30/24 A2979=
200811082300 METAR MRLM 082300Z 09006KT 9999 FEW025 BKN280 29/24 A2981 RMK FEW140 FEW160 CB DST QUAD S W=
200811090000 METAR MRLM NIL=
200811090100 METAR MRLM NIL=
200811090200 METAR MRLM NIL=
200811090300 METAR MRLM NIL=
200811090500 METAR MRLM NIL=
200811090600 METAR MRLM NIL=
200811090800 METAR MRLM NIL=
200811090900 METAR MRLM NIL=
200811091000 METAR MRLM NIL=
200811091100 METAR MRLM NIL=
200811091200 METAR MRLM 091200Z NIL=
200811091300 METAR MRLM 091300Z 18003KT 8000 +DZ TS VCSH SCT010CB BKN015 24/22 A2988 RMK FEW100 CB TS SHRA N NE E VIS 9999 SW W=
200811091400 METAR MRLM 091400Z 08004KT 6000 -RA SCT007 BKN015 25/23 A2991 RETS=
200811091500 METAR MRLM 091500Z 22003KT 3000 +DZ SCT005 SCT010 24/23 A2992 RMK VIS 9999 NE=
200811091600 METAR MRLM 091600Z 21003KT 8000 DZ FEW005 OVC020 24/23 A2991=
200811091700 METAR MRLM 091700Z 21004KT 5000 RA FEW005 BKN020 24/23 A2990 RMK FEW090=
200811091800 METAR MRLM 091800Z 18004KT 8000 VCSH SCT005 OVC020 24/23 A2990 RERA VIS 9999 NW=
200811091900 METAR MRLM 091900Z 17003KT 4000 DZ FEW008 OVC020 24/23 A2986 RMK HZ ARND=
200811092000 METAR MRLM 092000Z 25003KT 9999 FEW015 BKN100 24/23 A2983 REDZ RMK CB RN DST QUAD W N TRACE AS=
200811092100 METAR MRLM 092100Z 23005KT 9999 FEW020 BKN090 24/22 A2982 RMK FEW110 CBS RN DST W NW SE LGT HZ ARND=
200811092200 METAR MRLM 092200Z 21003KT 9999 FEW015 OVC090 25/22 A2982 RMK RN DST W NW SE TRACE AS=
200811092300 METAR MRLM 092300Z 21003KT 9999 FEW010 BKN090 24/23 A2984 RMK FEW110 RN DST W QUAD=
200811100000 METAR MRLM NIL=
200811100100 METAR MRLM NIL=
200811100200 METAR MRLM NIL=
200811100300 METAR MRLM NIL=
200811100400 METAR MRLM NIL=
200811100500 METAR MRLM NIL=
200811100600 METAR MRLM NIL=
200811100700 METAR MRLM NIL=
200811100800 METAR MRLM NIL=
200811100900 METAR MRLM NIL=
200811101000 METAR MRLM NIL=
200811101100 METAR MRLM NIL=
200811101200 METAR MRLM 101200Z NIL=
200811101300 METAR MRLM NIL=
200811101400 METAR MRLM 101400Z 21005KT 8000 -DZ BKN020 SCT090 RMK TRACE SC VIS S SW UNLTD=
200811101500 METAR MRLM 101500Z 24005KT 8000 +DZ BKN025 24/22 A2994 FEW090 VIS S SW W UNLTD=
200811101600 METAR MRLM 101600Z 27006KT 9999 +DZ BKN025 24/21 A2994 RMK FEW090=
200811101700 METAR MRLM 101700Z 24006KT 9000 +DZ SCT020 BKN090 24/22 A2993 RMK RN HZ ARND=
200811101800 METAR MRLM 101800Z 24006KT 9999 FEW018 BKN090 26/22 A2989 REDZ RMK RN HZ DST ARND CBS DST N E=
200811101900 METAR MRLM 101900Z 25004KT CAVOK 27/23 A2985 RMK TRACE SC BKN090 FEW110 CBS RN DST E DZ N=
200811102000 METAR MRLM 102000Z 23002KT CAVOK 27/23 A2984 RMK TRACE SC SCT070 BKN090 CBS RN DST N NE E=
200811102100 METAR MRLM 102100Z 27003KT 9999 DZ VCSH FEW070 BKN090 27/23 A2983 RMK CB RN DST NE E SE VIS 8000MTS NW HZ LEVE ARND TRACE SC=
200811102200 METAR MRLM 102200Z 26004KT CAVOK 26/23 A2982 RMK TRACE SC FEW080 BKN090 RN ARND DZ W=
200811102300 METAR MRLM 102300Z 26004KT CAVOK 26/23 A2983 RMK TRACE SC SCT070 CB RN N NE E HZ LEVE ARND=
200811110000 METAR MRLM NIL=
200811110100 METAR MRLM NIL=
200811110200 METAR MRLM NIL=
200811110300 METAR MRLM NIL=
200811110400 METAR MRLM NIL=
200811110500 METAR MRLM NIL=
200811110600 METAR MRLM NIL=
200811110700 METAR MRLM NIL=
200811110800 METAR MRLM NIL=
200811110900 METAR MRLM NIL=
200811111000 METAR MRLM NIL=
200811111100 METAR MRLM NIL=
200811111200 METAR MRLM 111200Z NIL=
200811111300 METAR MRLM 111300Z 26003KT CAVOK 25/22 A2990 BKN070 SCT090 CB RN N E=
200811111400 METAR MRLM 111400Z 28004KT 9999 FEW025 BKN110 27/22 A2991 CB RN N E=
200811111500 METAR MRLM 111500Z 31010KT 9999 FEW020 BKN080 26/22 A2992 CB RN N E FEW100=
200811111600 METAR MRLM NIL=
200811111700 METAR MRLM NIL=
200811111900 METAR MRLM 111900Z=
200811112000 METAR MRLM 112000Z 28005KT 9999 SCT015 SCT090 26/24 A2982 RN ARND=
200811112100 METAR MRLM 112100Z 28004KT 9999 +DZ VCSH BKN013 SCT100 27/24 A2980 RMK VIS W 8000MTS HZ ARND=
200811112200 METAR MRLM 112200Z 29006KT 9999 FEW018 SCT090 BKN110 26/23 A2980 REDZ RMK RN W NW N NE HZ ARND=
200811112300 METAR MRLM 112300Z 28006KT CAVOK 25/22 A2981 RMK TRACE ST AS FEW070 OVC090 RN DST W NW NE=
200811120000 METAR MRLM NIL=
200811120100 METAR MRLM NIL=
200811120200 METAR MRLM NIL=
200811120300 METAR MRLM NIL=
200811120400 METAR MRLM NIL=
200811120500 METAR MRLM NIL=
200811120600 METAR MRLM NIL=
200811120700 METAR MRLM NIL=
200811120800 METAR MRLM NIL=
200811120900 METAR MRLM NIL=
200811121000 METAR MRLM NIL=
200811121100 METAR MRLM NIL=
200811121200 METAR MRLM NIL=
200811121300 METAR MRLM 121300Z NIL=
200811121303 METAR MRLM 121303Z 27006KT 8000 -DZ FEW008 BKN090 24/22 A2984 RMK SCT110 VIS S UNL=
200811121400 METAR MRLM NIL=
200811121500 METAR MRLM 121500Z 28005KT 9999 FEW018 BKN090 26/23 A2986 RMK FEW110 RN DST W NW N NE E=
200811121600 METAR MRLM 121600Z 30003KT 9999 -DZ FEW010 BKN020 26/23 A2987 RMK FEW110 RN DST S SW W=
200811121700 METAR MRLM 121700Z 05003KT 9999 SCT020 SCT140 28/24 A2983 REDZ RMK RN DST W DZ SE TRACE CI=
200811121800 METAR MRLM 121800Z 09005KT 9999 FEW028 BKN110 29/24 A2978 RMK FEW270 CB DST N NW=
200811121900 METAR MRLM 121900Z NIL=
200811121930 METAR MRLM 121930Z 32008KT 9999 FEW030 SCT120 30/24 A2977 RMK FEW270 CB RN CB DST NW N HZ ARND=
200811122000 METAR MRLM 122000Z 01010KT 9999 FEW028 30/25 A2975 RMK FEW110 FEW280 CB DST SE NW N RN DST NW=
200811122100 METAR MRLM 122100Z 34010KT 9999 FEW028 30/24 A2974 RMK FEW110 FEW280 CB DST NW/SW RN DST SW/W/NW=
200811122200 METAR MRLM NIL=
200811122300 METAR MRLM 122300Z 32006KT 9999 SCT020 SCT280 28/24 A2977 CB SE=
200811130000 METAR MRLM NIL=
200811130100 METAR MRLM NIL=
200811130200 METAR MRLM NIL=
200811130300 METAR MRLM NIL=
200811130400 METAR MRLM NIL=
200811130500 METAR MRLM NIL=
200811131300 METAR MRLM 131300Z 22005KT CAVOK 23/21 A2985 RMK TRACE SC SCT280 HZ=
200811131400 METAR MRLM 131400Z 22003KT CAVOK 27/22 A2986 RMK TRACE SC FEW280 HX LGT ARND=
200811131500 METAR MRLM 131500Z 21002KT 9999 FEW025 29/22 A2987 RMK TCU DST N FEW280 HZ LGT ARND=
200811131600 METAR MRLM 131600Z 07004KT CAVOK 31/21 A2986 RMK TRACE CU CI CB DST NW N NE=
200811131700 METAR MRLM 131700Z 05008KT 9999 FEW045 31/22 A2984 RMK CB DST NW N E TRACE CI HZ LGT ARND=
200811131800 METAR MRLM 131800Z 36007KT CAVOK 31/20 A2981 RMK TRACE CU CI CB DST NW N NE E=
200811131900 METAR MRLM 131900Z 36008KT CAVOK 31/20 A2979 RMK TRACE CU AC FEW280 CB DST N E HZ LGT SE=
200811132000 METAR MRLM 132000Z 35008KT 9999 FEW038 31/22 A2977 RMK CB DST S N NE E SE FEW280=
200811132100 METAR MRLM 132100Z 36006KT 9999 FEW035 31/22 A2976 RMK TRACE AC FEW280 CB DST N NE E SE S HZ SE LGT=
200811132200 METAR MRLM 132200Z 36005KT CAVOK 30/23 A2977 TRACE CU FEW130 SCT270 CB DST N NE SE S HZ LGT SE=
200811132300 METAR MRLM 132300Z 36004KT CAVOK 29/22 A2977 RMK TRACE CU SCT130 SCT280 CB DST S NW SE HZ LGT SE=
200811140000 METAR MRLM NIL=
200811140100 METAR MRLM NIL=
200811140200 METAR MRLM NIL=
200811140300 METAR MRLM NIL=
200811140400 METAR MRLM NIL=
200811140500 METAR MRLM NIL=
200811140600 METAR MRLM NIL=
200811140700 METAR MRLM NIL=
200811140800 METAR MRLM NIL=
200811140900 METAR MRLM NIL=
200811141000 METAR MRLM NIL=
200811141100 METAR MRLM NIL=
200811141200 METAR MRLM 141200Z NIL=
200811141300 METAR MRLM 141300Z 22007KT CAVOK 24/21 A2984 RMK TRACE AC OVC270 CB DST NW N NE E HZ LGT ARND=
200811141400 METAR MRLM 141400Z 23004KT CAVOK 27/22 A2985 RMK TRACE CU FEW140 OVC270 HZ LGT SW=
200811141500 METAR MRLM 141500Z 28004KT CAVOK 29/22 A2986 RMK TRACE CU SCT130 SCT270 HZ LGT SE RN DST NE E CB DST NW N NE E=
200811141600 METAR MRLM 141600Z 34007KT CAVOK 30/23 A2985 RMK TRCE CU BKN110 SCT270 CB DST QUAD N HZ LGT SE=
200811141700 METAR MRLM 141700Z 30005KT 9999 FEW030 30/22 A2983 RMK CB DST QUAD N HZ LGT ARND FEW270=
200811141800 METAR MRLM 141800Z 35007KT 9999 FEW025 BKN130 31/23 A2982 RMK CB DST NW N HZ LGT ARND FEW270=
200811141900 METAR MRLM 141900Z 34008KT 9999 FEW022 SCT120 30/23 A2979 RMK SCT250 CB DST NW N NE HZ LGT ARND=
200811142000 METAR MRLM 142000Z 33008KT 9999 FEW022 BKN270 30/24 A2976 RMK FEW130 CB DST S NW TCU DS SW W=
200811142100 METAR MRLM 142100Z 36006KT 9999 FEW022 BKN270 30/23 A2975 RMK CB DST S N TRACE AC LGT HZ ARND=
200811142200 METAR MRLM 142200Z 36006KT 9999 FEW020 BKN270 30/24 A2974 RMK FEW140 CB DST SE S LGT HZ ARND=
200811142300 METAR MRLM 142300Z 00000KT CAVOK 28/24 A2976 RMK TRACE CU FEW130 BKN280 CBS DST SE S SW W NW LGT HZ ARND=
200811150000 METAR MRLM NIL=
200811150100 METAR MRLM NIL=
200811150200 METAR MRLM NIL=
200811150300 METAR MRLM NIL=
200811150400 METAR MRLM NIL=
200811150500 METAR MRLM NIL=
200811150600 METAR MRLM NIL=
200811150700 METAR MRLM NIL=
200811150800 METAR MRLM NIL=
200811150900 METAR MRLM NIL=
200811151000 METAR MRLM NIL=
200811151100 METAR MRLM NIL=
200811151200 METAR MRLM 151200Z NIL=
200811151300 METAR MRLM 151300Z 22004KT CAVOK 24/21 A2983 RMK TRACE CU BKN270 CB DST NE HZ ARND=
200811151400 METAR MRLM 151400Z 19003KT CAVOK 27/22 A2986 RMK TRACE CU AC BKN270 TCU DST N NE LGT HZ SE=
200811151500 METAR MRLM 151500Z 04003KT CAVOK 30/22 A2986 RMK TCU DST N NE TRACE CU AC BKN270=
200811151600 METAR MRLM 151600Z 04005KT CAVOK 30/22 A2985 RMK TRACE CU FEW140 BKN270=
200811151700 METAR MRLM 151700Z 36008KT 9999 FEW025 BKN270 30/23 A2983 RMK FEW140 CB DST NE LGT HZ ARND=
200811151800 METAR MRLM 151800Z 35008KT 9999 FEW023 SCT280 31/24 A2982 RMK CBS RN DST NE FEW150 HZ SE=
200811151900 METAR MRLM 151900Z 35008KT 9999 FEW020 SCT280 30/24 A2979 RMK CB RN DST NE=
200811152000 METAR MRLM 152000Z 36008KT 9999 FEW020 SCT280 30/24 A2977 RMK TCU DST SW FEW140=
200811152100 METAR MRLM 152100Z 35006KT 9999 FEW020 SCT280 30/24 A2976 RMK TCU SW CB SE FEW140 HZ LEVE SE=
200811152200 METAR MRLM 152200Z 36007KT 9999 FEW020 BKN270 30/24 A2977 RMK TRACE AC CB DST SE=
200811152300 METAR MRLM 152300Z 33006KT 9999 SCT018 SCT270 29/24 A2978 RMK CB DST S SE TRACE AC=
200811160000 METAR MRLM NIL=
200811160100 METAR MRLM NIL=
200811160200 METAR MRLM NIL=
200811160300 METAR MRLM NIL=
200811160400 METAR MRLM NIL=
200811160500 METAR MRLM NIL=
200811160600 METAR MRLM NIL=
200811160700 METAR MRLM NIL=
200811160800 METAR MRLM NIL=
200811160900 METAR MRLM NIL=
200811161000 METAR MRLM NIL=
200811161100 METAR MRLM NIL=
200811161200 METAR MRLM 161200Z NIL=
200811161300 METAR MRLM 161300Z 20004KT CAVOK 25/22 A2989 RMK TRACE CU SCT110 SCT270 CB RN N=
200811161400 METAR MRLM 161400Z 22002KT 9999 FEW020 BKN110 28/23 A2990 RMK FEW270 CB RN N=
200811161500 METAR MRLM 161500Z 31010KT 9999 FEW025 BKN110 30/22 A2991 RMK CB RN N TRACE CI=
200811161600 METAR MRLM 161600Z 31010KT 9999 BKN022 SCT090 29/23 A2992 RMK TRACE CI CB RN N=
200811161700 METAR MRLM 161700Z 31014KT 9999 -DZ BKN015 SCT090 28/23 A2990 RMK CB RN N=
200811161800 METAR MRLM 161800Z 31012KT 9999 SCT020 BKN100 28/23 A2986 REDZ RMK TRACE CI CB N E RN N=
200811161900 METAR MRLM 161900Z 31010KT 9999 SCT025 SCT110 30/22 A2984 RMK CB N E RN N TRACE CI=
200811162000 METAR MRLM 162000Z 31010KT 9999 SCT020 BKN120 29/23 A2982 RMK CB DST E NW N TRACE CI=
200811162100 METAR MRLM 162100Z 31012KT 9999 SCT025 BKN130 29/22 A2980 FEW270 CB N E RN N=
200811162200 METAR MRLM 162200Z 29009KT 9999 SCT020 SCT130 29/23 A2982=
200811162300 METAR MRLM 162300Z 29007KT 9999 FEW015 SCT140 27/22 A2984 FEW270 CB RN N E S=
200811170000 METAR MRLM NIL=
200811170100 METAR MRLM NIL=
200811170200 METAR MRLM NIL=
200811170300 METAR MRLM NIL=
200811170400 METAR MRLM NIL=
200811170500 METAR MRLM NIL=
200811170600 METAR MRLM NIL=
200811170700 METAR MRLM NIL=
200811170800 METAR MRLM NIL=
200811170900 METAR MRLM NIL=
200811171000 METAR MRLM NIL=
200811171100 METAR MRLM NIL=
200811171200 METAR MRLM NIL=
200811171300 METAR MRLM 171300Z 28008KT CAVOK 25/21 A2990 CB RN N TRACE SCT SCT120=
200811171400 METAR MRLM 171400Z 28009KT 9999 FEW010 BKN090 26/22 A2993 CB RN NW N NE E=
200811171500 METAR MRLM 171500Z 29008KT 9999 FEW015 BKN100 27/23 A2993 CB RN NW N NE E=
200811171600 METAR MRLM 171600Z 30012KT 9999 SCT020 BKN090 29/23 A2991 CB RN N NE E=
200811171700 METAR MRLM 171700Z 31014KT 9999 SCT018 SCT090 29/23 A2991 CB RN N E=
200811171800 METAR MRLM 171800Z 31012KT 9999 DZ SCT015 BKN080 28/23 A2988 FEW100 RN N=
200811171900 METAR MRLM 171900Z 31013KT 9999 -DZ BKN015 SCT080 28/23 A2986=
200811172000 METAR MRLM 172000Z 30011KT 9999 BKN013 SCT080 27/23 A2983 RMK REDZ RN ARND EXCEPTO E/S=
200811172100 METAR MRLM 172100Z 29008KT 5000 RA FEW005 OVC010 26/23 A2983=
200811172200 METAR MRLM 172200Z 27005KT 4000 RA BKN005 25/23 A2984 RMK FEW015=
200811172300 METAR MRLM 172300Z 25004KT 9999 VCSH OVC010 24/23 A2984 RERA RMK VIS 8000 N E TRACE AS=
200811180000 METAR MRLM 180000Z NIL=
200811180100 METAR MRLM NIL=
200811180200 METAR MRLM NIL=
200811180300 METAR MRLM NIL=
200811180400 METAR MRLM NIL=
200811180500 METAR MRLM NIL=
200811180600 METAR MRLM NIL=
200811180700 METAR MRLM NIL=
200811180800 METAR MRLM NIL=
200811180900 METAR MRLM NIL=
200811181000 METAR MRLM NIL=
200811181100 METAR MRLM NIL=
200811181200 METAR MRLM NIL=
200811181300 METAR MRLM 181300Z NIL=
200811181400 METAR MRLM 181400Z 26008KT 2000 +RA BKN005 23/22 A2993 RMK FEW090=
200811181500 METAR MRLM 181500Z 26007KT 6000 RA FEW004 BKN012 24/22 A2993 RMK FEW090=
200811181600 METAR MRLM 181600Z 27009KT 4000 -RA FEW006 BKN012 24/22 A2993 RMK TRACE AC VIS SE UNL=
200811181700 METAR MRLM 181700Z 29009KT 5000 -RA SCT005 BKN012 24/22 A2991 RMK VIS SE UNL=
200811181800 METAR MRLM 181800Z 27006KT 6000 RA SCT006 BKN012 24/23 A2989=
200811181900 METAR MRLM 181900Z 31012KT 6000 RA OVC007 25/23 A2986 RMK CB W N TRACE AS=
200811182000 METAR MRLM 182000Z 29009KT 8000 VCSH BKN006 25/23 A2985 RERA RMK FEW012 RN ARND=
200811182100 METAR MRLM 182100Z 33015KT 2000 +RA BKN004 SCT010 25/23 A2984=
200811182200 METAR MRLM 182200Z 33017KT 8000 DZ VCSH BKN007 25/23 A2985 RMK FEW015 CB DST QUAD N=
200811182300 METAR MRLM 182300Z 31020KT 2000 -RA BKN007 25/23 A2986 RMK FEW15=
200811190000 METAR MRLM NIL=
200811190100 METAR MRLM NIL=
200811190200 METAR MRLM NIL=
200811190300 METAR MRLM NIL=
200811190400 METAR MRLM NIL=
200811190500 METAR MRLM NIL=
200811190600 METAR MRLM NIL=
200811190700 METAR MRLM NIL=
200811190800 METAR MRLM NIL=
200811190900 METAR MRLM NIL=
200811191000 METAR MRLM NIL=
200811191100 METAR MRLM NIL=
200811191200 METAR MRLM 191200Z NIL=
200811191300 METAR MRLM 191300Z 26010KT 7000 RA FEW005 BKN020 22/21 A2993 RMK SCT090=
200811191400 METAR MRLM 191400Z 25011KT 9000 -DZ FEW010 BKN015 23/20 A2994 RMK RN DST ARND FEW090=
200811191500 METAR MRLM 191500Z 25011KT CAVOK 23/19 A2994 RERA RMK TRACE SC BKN080 FEW100 RN DST ARND=
200811191600 METAR MRLM 191600Z 26012KT 6000 -RA SCT025 SCT080 24/19 A2995 RMK FEW100=
200811191700 METAR MRLM 191700Z 26010KT 8000 +DZ BKN080 22/20 A2993 RMK FEW100 RN ARND=
200811191800 METAR MRLM 191800Z 25010KT 9000 +DZ FEW010 BKN080 22/20 A2990 RMK FEW100 RN DST ARND=
200811191900 METAR MRLM 191900Z 26008KT 9999 DZ BKN080 SCT100 23/10 A12986 RMK TRACE SC RN DST ARND CB DST QUAD N E=
200811192000 METAR MRLM 192000Z 25008KT 5000 -RA BKN015 SCT090 22/20 A2986=
200811192100 METAR MRLM 192100Z 25008KT 2000 -RA FEW006 BKN015 22/20 A2985 FEW090=
200811192200 METAR MRLM 192200Z 25010KT 4000 RA BKN015 SCT090 22/20 A2985=
200811192300 METAR MRLM 192300Z 27013KT 2000 -RA BKN010 22/21 A2987 RMK FEW090=
200811200000 METAR MRLM NIL=
200811200100 METAR MRLM NIL=
200811200200 METAR MRLM NIL=
200811200300 METAR MRLM NIL=
200811200400 METAR MRLM NIL=
200811200500 METAR MRLM NIL=
200811200600 METAR MRLM NIL=
200811200700 METAR MRLM NIL=
200811200800 METAR MRLM NIL=
200811200900 METAR MRLM NIL=
200811201000 METAR MRLM NIL=
200811201100 METAR MRLM NIL=
200811201200 METAR MRLM 201200Z NIL=
200811201300 METAR MRLM 201300Z 28010KT 9999 SCT020 BKN090 23/17 A2992 RMK RN DST ARND=
200811201400 METAR MRLM 201400Z 28012KT 8000 DZ VCSH FEW020 BKN090 23/17 A2995 RMK TRACE AS=
200811201500 METAR MRLM 201500Z 26014KT 9999 -DZ VCSH SCT020 BKN090 23/18 A2994 RMK VIS 8KMS W=
200811201600 METAR MRLM 201600Z 26013KT CAVOK 23/19 A2994 REDZ RMK RN DST ARND TRACE SC OVC080=
200811201700 METAR MRLM 201700Z 23011KT 9999 SCT020 BKN080 24/19 A2992 RMK RN DST ARND=
200811201800 METAR MRLM 201800Z 27011KT 9999 DZ FEW020 BKN080 24/18 A2989 RMK FEW100 RN HZ DST ARND=
200811201900 METAR MRLM 201900Z 27011KT 8000 -DZ FEW020 BKN080 23/19 A2988 RMK FEW100 RN HZ ARND=
200811202000 METAR MRLM 202000Z 27012KT 8000 DZ FEW020 BKN080 22/19 A2986 RMK FEW100=
200811202100 METAR MRLM 202100Z 26012KT 7000 +DZ BKN080 SCT100 22/18 A2986 RMK TRACE SC RN HZ ARND=
200811202200 METAR MRLM 202200Z 27012KT 8000 DZ FEW015 BKN080 22/18 A2987 RMK FEW100 RN HZ ARND=
200811202300 METAR MRLM 202300Z 27009KT 6000 +DZ SCT010 SCT080 21/18 A2988 RMK FEW100 RN HZ ARND=
200811210000 METAR MRLM NIL=
200811210100 METAR MRLM NIL=
200811210200 METAR MRLM NIL=
200811210300 METAR MRLM NIL=
200811210400 METAR MRLM NIL=
200811210500 METAR MRLM NIL=
200811210600 METAR MRLM NIL=
200811210700 METAR MRLM NIL=
200811210800 METAR MRLM NIL=
200811210900 METAR MRLM NIL=
200811211000 METAR MRLM NIL=
200811211100 METAR MRLM NIL=
200811211200 METAR MRLM 211200Z NIL=
200811211300 METAR MRLM 211300Z 25008KT 8000 +DZ SCT080 BKN100 21/20 A2994 RMK VIS N UNL TRACE SC=
200811211400 METAR MRLM 211400Z 27007KT 9999 DZ FEW025 SCT080 BKN100 23/20 A2995 RMK RN N=
200811211500 METAR MRLM 211500Z 28007KT 9999 BKN025 24/20 A2997 REDZ FEW120 TRACE CI RN S W=
200811211600 METAR MRLM 211600Z 27011KT 9999 DZ SCT028 BKN080 25/21 A2995 RMK TRACE CI RN ARND=
200811211700 METAR MRLM 211700Z 27008KT 9999 -DZ BKN033 24/20 A2995 RMK TRACE ST FEW120 RN S W=
200811211800 METAR MRLM 211800Z 27014KT 9999 FEW035 BKN0 80 26/21 A2992 REDZ RMK CB RN NE E FEW110=
200811211900 METAR MRLM 211900Z 27012KT 9999 8000 RA BKN080 FEW100 24/21 A2991 RMK TRACE ST SC=
200811212000 METAR MRLM 212000Z 26008KT 6000 RA FEW016 BKN080 23/21 A2989 RMK FEW100=
200811212100 METAR MRLM 212100Z 25010KT 9999 -DZ BKN080 SCT100 22/20 A2988=
200811212200 METAR MRLM 212200Z 24008KT 9999 DZ FEW015 BKN080 22/20 A2989 RN ARND=
200811212300 METAR MRLM 212300Z 25008KT 8000 +DZ BKN080 23/20 A2991 FEW100 VSBY N W UNL=
200811220000 METAR MRLM 220000Z NIL=
200811220100 METAR MRLM NIL=
200811220200 METAR MRLM NIL=
200811220300 METAR MRLM NIL=
200811220400 METAR MRLM NIL=
200811220500 METAR MRLM NIL=
200811220600 METAR MRLM NIL=
200811220700 METAR MRLM NIL=
200811220800 METAR MRLM NIL=
200811220900 METAR MRLM NIL=
200811221000 METAR MRLM NIL=
200811221100 METAR MRLM NIL=
200811221200 METAR MRLM NIL=
200811221300 METAR MRLM 221300Z 26007KT 4000 RA FEW007 BKN012 23/21 A2994 FEW090=
200811221400 METAR MRLM 221400Z 25011KT 6000 200NW +DZ VCSH FEW008 OVC012 23/21 A2995=
200811221500 METAR MRLM 221500Z 26005KT 3000 RA FEW007 OVC010 23/21 A2997=
200811221600 METAR MRLM 221600Z 25006KT 1000 SHRA OVC010 23/22 A2998=
200811221700 METAR MRLM 221700Z 28009KT 0800 SHRA OVC010 23/22 A2996=
200811221800 METAR MRLM 221800Z 31013KT 5000 2000SE -RA VCSH SCT005 SCT010 24/23 A2993=
200811221900 METAR MRLM 221900Z 27009KT 5000 -RA BKN007 SCT010 24/23 A2990=
200811222000 METAR MRLM 222000Z 27009KT 5000 -RA BKN007 SCT010 24/23 A2990=
200811222100 METAR MRLM 222100Z 25005KT 1000 +RA SCT007 SCT010 23/22 A2987=
200811222200 METAR MRLM 222200Z 31007KT 4000 RA OVC006 24/23 A2987=
200811222300 METAR MRLM 222300Z 02015KT 6000 RA BKN015 SCT090 26/23 A2989=
200811230000 METAR MRLM 230000Z NIL=
200811230100 METAR MRLM NIL=
200811230200 METAR MRLM NIL=
200811230300 METAR MRLM NIL=
200811230400 METAR MRLM NIL=
200811230500 METAR MRLM NIL=
200811230600 METAR MRLM NIL=
200811230700 METAR MRLM NIL=
200811230800 METAR MRLM NIL=
200811230900 METAR MRLM NIL=
200811231000 METAR MRLM NIL=
200811231100 METAR MRLM NIL=
200811231200 METAR MRLM NIL=
200811231300 METAR MRLM 231300Z 21006KT 8000 VCSH SCT010 SCT080 24/22 A2990 RMK FEW110 VIS S SW UNL=
200811231400 METAR MRLM 231400Z 23005KT 8000 VCSH BKN010 24/23 A2992 RMK FEW090 VIS S SW UNL=
200811231500 METAR MRLM 231500Z 23003KT 7000 RA VCSH OVC010 25/23 A2991 RMK VIS W NW UNL TRACE ST=
200811231600 METAR MRLM 231600Z 18005KT 7000 VCSH SCT008 BKN012 24/23 A2990 RERA RMK HZ ARND=
200811231700 METAR MRLM 231700Z 23005KT 7000 DZ VCSH OVC010 25/23 A2987 RMK VIS W UNL=
200811231800 METAR MRLM 231800Z 32011KT 2000 -RA OVC010 25/23 A2986=
200811231900 METAR MRLM 231900Z 29003KT 2000 RA OVC008 24/23 A2984=
200811232000 METAR MRLM 232000Z 23003KT 0800 SHRA OVC008 24/23 A2981=
200811232100 METAR MRLM 232100Z 32009KT 4000 RA SCT006 BKN010 24/23 A2980 RMK FEW090=
200811232200 METAR MRLM 232200Z 31005KT 4000 -RA SCT006 SCT010 24/23 A2981 RMK FEW090=
200811232300 METAR MRLM 232300Z 25005KT 3000 +RA OVC008 24/23 A2981=
200811240000 METAR MRLM NIL=
200811240100 METAR MRLM NIL=
200811240200 METAR MRLM NIL=
200811240300 METAR MRLM NIL=
200811240400 METAR MRLM NIL=
200811240500 METAR MRLM NIL=
200811240600 METAR MRLM NIL=
200811240700 METAR MRLM NIL=
200811240800 METAR MRLM NIL=
200811240900 METAR MRLM NIL=
200811241000 METAR MRLM NIL=
200811241100 METAR MRLM NIL=
200811241200 METAR MRLM NIL=
200811241300 METAR MRLM 241300Z 25008KT 8000 VCSH FEW005 OVC012 25/23 A2982 RMK RAMPA INUNDADA=
200811241400 METAR MRLM 241400Z 26007KT 4000 VCSH FEW005 BKN015 25/23 A2984 RMK FEW090 VIS 9999 S SW W RAMPA INUNDADA=
200811241500 METAR MRLM 241500Z 25006KT 8000 VCSH FEW007 OVC015 25/23 A2985 RERA RMK RAMPA INUNDADA RN ARND=
200811241600 METAR MRLM 241600Z 25009KT 4000 RA FEW007 OVC013 25/23 A2985 RMK RAMPA INUNDADA=
200811241700 METAR MRLM 241700Z 25007KT 5000 -RA SCT006 BKN013 24/23 A2983=
200811241800 METAR MRLM 241800Z 26008KT 8000 +DZ FEW007 OVC015 24/23 A2981 RERA RMK RAMPA INUNDADA=
200811241900 METAR MRLM 241900Z 26008KT 9999 FEW012 SCT025 26/23 A2978 REDZ RMK SCT090 FEW130 RN DST ARND CB DST QUAD N E=
200811242000 METAR MRLM 242000Z 28008KT 9999 SCT012 SCT020 26/23 A2977 RMK FEW090 RN DST ARND RAMPA INUNDADA=
200811242100 METAR MRLM 242100Z 27009KT 8000 RA FEW008 BKN020 25/23 A2977 RMK FEW090 HZ ARND=
200811242200 METAR MRLM 242200Z 25006KT 8000 RA FEW007 SCT035 BKN090 25/23 A2977 RMK RAMPA INUNDADA HZ ARND=
200811242300 METAR MRLM 242300Z 26003KT 9999 +DZ FE009 OVC110 25/23 A2977=
200811242355 METAR MRLM 250000Z NIL=
200811250000 METAR MRLM NIL=
200811250100 METAR MRLM NIL=
200811250200 METAR MRLM NIL=
200811250300 METAR MRLM NIL=
200811250400 METAR MRLM NIL=
200811250500 METAR MRLM NIL=
200811250600 METAR MRLM NIL=
200811250700 METAR MRLM NIL=
200811250800 METAR MRLM NIL=
200811250900 METAR MRLM NIL=
200811251000 METAR MRLM NIL=
200811251100 METAR MRLM NIL=
200811251200 METAR MRLM 251200Z NIL=
200811251300 METAR MRLM 251300Z NIL=
200811251400 METAR MRLM 251400Z 27010KT 9999 DZ VCSH FEW015 BKN080 25/23 A2987 RMK VIS 8 KMS DUE RN FEW110=
200811251500 METAR MRLM 251500Z 27006KT 9999 DZ FEW010 BKN080 25/23 A2988 RMK TRAZAS SC FEW110 RN DST E S HZ LG ARND=
200811251600 METAR MRLM 251600Z 28010KT 8000 +DZ SCT013 SCT080 26/24 A2987 RMK FEW110 VIS UNL SE HZ ARND=
200811251700 METAR MRLM 251700Z 30011KT 9999 VCSH BKN013 26/23 A2987 RMK FEW090 VIS N DUE RN HZ 8 KMS=
200811251800 METAR MRLM 251800Z 28008KT 5000 RA SCT012 BKN090 25/23 A2985=
200811251900 METAR MRLM 251900Z 25009KT 7000 RA SCT008 BKN090 25/23 A2983=
200811252000 METAR MRLM 252000Z 28006KT 5000 RA OVC010 26/24 A2981=
200811252100 METAR MRLM 252100Z 29006KT 5000 RA BKN080 25/23 A2980 RMK FEW090=
200811252200 METAR MRLM 252200Z 25005KT 4000 RA SCT008 SCT015 25/23 A2982 RMK FEW090=
200811252300 METAR MRLM 252300Z 03008KT 4000 -RA SCT008 BKN015 23/22 A2985=
200811260000 METAR MRLM NIL=
200811260100 METAR MRLM NIL=
200811260200 METAR MRLM NIL=
200811260300 METAR MRLM NIL=
200811260400 METAR MRLM NIL=
200811260500 METAR MRLM NIL=
200811260600 METAR MRLM NIL=
200811260700 METAR MRLM NIL=
200811260800 METAR MRLM NIL=
200811260900 METAR MRLM NIL=
200811261000 METAR MRLM NIL=
200811261100 METAR MRLM NIL=
200811261200 METAR MRLM 261200Z NIL=
200811261300 METAR MRLM 261300Z 00000KT 4000 -RA FEW005 OVC015 23/22 A2992=
200811261400 METAR MRLM 261400Z 27002KT 8000 3000 NW RA SCT005 BKN020 23/22 A2996 RMK HZ ARND=
200811261500 METAR MRLM 261500Z 24002KT 8000 RA FEW006 BKN020 23/22 A2998 RMK FEW090 VIS E SE UNL=
200811261600 METAR MRLM 261600Z 25003KT 9999 DZ FEW007 BKN020 24/23 A2998=
200811261700 METAR MRLM 261700Z 25003KT 9999 DZ SCT010 BKN025 25/23 A2996RMK RN DST ARND=
200811261800 METAR MRLM 261800Z 24005KT 9999 FEW012 BKN080 25723 A2991 REDZ RMK TRACE AS FEW025 RN ARND=
200811261900 METAR MRLM 261900Z 28010KT 9999 -DZ FEW012 BKN080 25/23 A2990 RMK FEW110 CB RN N=
200811262000 METAR MRLM 262000Z 28007KT 8000 RA SCT008 BKN080 24/23 A2988 RMK TRACE AS VIS E SE S SW UNL=
200811262100 METAR MRLM 262100Z 29007KT 5000 +DZ BKN007 24/23 A2988 FEW008=
200811262200 METAR MRLM 262200Z 30006KT 2000 -RA BKN008 24/22 A2989 FEW090=
200811262300 METAR MRLM 262300Z 23006KT 9999 DZ VCSH FEW006 BKN025 23/22 A2989 CB N RN HZ ARND VSBY S 8KM=
200811270000 METAR MRLM NIL=
200811270100 METAR MRLM NIL=
200811270200 METAR MRLM NIL=
200811270300 METAR MRLM NIL=
200811270400 METAR MRLM NIL=
200811270500 METAR MRLM NIL=
200811270600 METAR MRLM NIL=
200811270700 METAR MRLM NIL=
200811270800 METAR MRLM NIL=
200811270900 METAR MRLM NIL=
200811271000 METAR MRLM NIL=
200811271100 METAR MRLM NIL=
200811271200 METAR MRLM 271200Z NIL=
200811271300 METAR MRLM 271300Z 26007KT 8000 DZ VCSH FEW015 BKN080 23/21 A2998 VSBY W UNL=
200811271400 METAR MRLM 271400Z=
200811271500 METAR MRLM 271500Z 27008KT 6000 -DZ FEW009 BKN020 23/22 A3002 FEW090=
200811271600 METAR MRLM 271600Z 27008KT 7000 -DZ FEW009 SCT025 BKN090 24/22 A3001 RN ARND=
200811271700 METAR MRLM 271700Z 27006KT 5000 +DZ FEW008 BKN015 24/22 A3000 FEW090 HZY=
200811271800 METAR MRLM 271800Z 33013KT 9999 SCT030 SCT090 28/22 A2995=
200811271900 METAR MRLM 271900Z 24006KT 5000 +DZ SCT020 24/22 A2995=
200811272000 METAR MRLM 272000Z 23005KT 4000 RA FEW008 BKN020 24/22 A2992 FEW090=
200811272100 METAR MRLM 272100Z 24005KT 9999 DZ BKN025 SCT090 24/22 A2991 RMK TRACE ST RN HZ ARND=
200811272200 METAR MRLM 272200Z 25006KT 5000 +DZ BKN020 SCT090 24/22 A2991 RMK RN HZ ARND=
200811272300 METAR MRLM 272300Z 23006KT 4000 RA BKN020 SCT090 23/22 A2991 RMK TRACE ST HZ ARND=
200811280000 METAR MRLM 280000Z NIL=
200811280100 METAR MRLM NIL=
200811280200 METAR MRLM NIL=
200811280300 METAR MRLM NIL=
200811280400 METAR MRLM NIL=
200811280500 METAR MRLM NIL=
200811280600 METAR MRLM NIL=
200811280700 METAR MRLM NIL=
200811280800 METAR MRLM NIL=
200811280900 METAR MRLM NIL=
200811281000 METAR MRLM NIL=
200811281100 METAR MRLM NIL=
200811281200 METAR MRLM NIL=
200811281300 METAR MRLM 281300Z 26005KT 9999 SCT025 BKN080 23/21 A2993 RMK FEW100 RN DST N S HZ ARND=
200811281400 METAR MRLM 281400Z 24006KT 9999 DZ FEW030 BKN080 23/22 A2995 RMK TRACE ST FEW100 RN HZ DST ARND=
200811281500 METAR MRLM 281500Z 26006KT 8000 -DZ FEW015 BKN080 24/22 A2996 RMK FEW100 HZ ARND=
200811281600 METAR MRLM 281600Z 27007KT 9999 FEW012 25/23 A2995 RERA RMK RN HZ DST ARND FEW110=
200811281700 METAR MRLM 281700Z 27008KT 9999 FEW020 OVC080 26/22 A2993 RMK RN DST SE S DZ W NW N E HZ LGT ARND=
200811281800 METAR MRLM 281800Z 27009KT 9999 FEW025 BKN080 27/22 A2986 RMK CB RN N TRACE AC CI HZ LGT ARND=
200811281900 METAR MRLM 281900Z 27009KT 9999 FEW030 BKN080 28/22 A2987 RMK FEW110 TRACE CI TCU DST NW N NE E HZ LGT ARND=
200811282000 METAR MRLM 282000Z 27007KT 9999 FEW030 SCT080 BKN130 28/23 A2984 RMK TRACE CI CB DST NW NE=
200811282100 METAR MRLM 282100Z 28008KT 9999 FEW028 BKN110 29/23 A2981 RMK HZ LGT ARND FEW270 CB DST NW NE E=
200811282200 METAR MRLM 282200Z 28006KT 9999 FEW020 SCT130 27/22 A2981 RMK FEW080 SCT130 CB DST S W N NE E SE=
200811282300 METAR MRLM 282300Z 31006KT CAVOK 26/23 A2983 RNK CB DST ARND TRACE SCT FEW070 SCT090 SCT270=
200811290000 METAR MRLM NIL=
200811290100 METAR MRLM NIL=
200811290200 METAR MRLM NIL=
200811290300 METAR MRLM NIL=
200811290400 METAR MRLM NIL=
200811290500 METAR MRLM NIL=
200811290600 METAR MRLM NIL=
200811290700 METAR MRLM NIL=
200811290800 METAR MRLM NIL=
200811290900 METAR MRLM NIL=
200811291000 METAR MRLM NIL=
200811291100 METAR MRLM NIL=
200811291200 METAR MRLM NIL=
200811291300 METAR MRLM 291300Z 00000KT CAVOK 24/22 A2987 RMK OVC070 TCU DST NW N CB RN DST E TRACE CI=
200811291400 METAR MRLM 291400Z 26003KT CAVOK 26/22 A2988 RMK TRACE CU CI FEW070 BKN090 HZ LGT ARND=
200811291500 METAR MRLM 291500Z 27004KT CAVOK 28/23 A2988 RMK TRACE CU SCT130 SCT270 CB DST NW HZ LGT ARND=
200811291600 METAR MRLM 291600Z 34012KT 9999 FEW030 BKN270 30/24 A2986 RMK CB DST NW E TRACE AC HZ LGT ARND=
200811291700 METAR MRLM 291700Z 33008KT 9999 FEW030 BKN270 29/23 A2985 RMK CB DST NE E FEW120=
200811291800 METAR MRLM 291800Z 32010KT 9999 FEW028 BKN270 29/24 A2982 RMK FEW140 CB DST N NE E HZ LGT ARND=
200811291900 METAR MRLM 291900Z 33012KT 9999 FEW028 SCT270 29/24 A2980 FEW130 CB DST NE E TCU DST SW HZ LGT ARND=
200811292000 METAR MRLM 292000Z 33013KT 9999 FEW020 SCT140 28/24 A2977 RMK SCT270 CB DST NE E S SW HZ LGT ARND=
200811292100 METAR MRLM 292100Z 33012KT 9999 BKN020 28/24 A2977 RMK CB DST NE SE S SW FEW270 FEW140=
200811292200 METAR MRLM 292200Z 32009KT 9999 FEW020 SCT130 28/24 A2977 RMK FEW270 CB DST NE S HZ LGT ARND=
200811292300 METAR MRLM 292300Z 28003KT 9999 BKN013 27/24 A2979 RMK FEW140 FEW270 CB RN DST S W=
200811300000 METAR MRLM NIL=
200811300100 METAR MRLM NIL=
200811300200 METAR MRLM NIL=
200811300300 METAR MRLM NIL=
200811300400 METAR MRLM NIL=
200811300500 METAR MRLM NIL=
200811300600 METAR MRLM NIL=
200811300700 METAR MRLM NIL=
200811300800 METAR MRLM NIL=
200811300900 METAR MRLM NIL=
200811301000 METAR MRLM NIL=
200811301100 METAR MRLM NIL=
200811301200 METAR MRLM NIL=
200811301300 METAR MRLM 301300Z 23002KT CAVOK 23/22 A2984 RMK CB RN DST SE S SW W N SCT110 BKN140 FEW270=
200811301400 METAR MRLM 301400Z 23004KT CAVOK 24/22 A2987 RMK TRACE SC FEW090 BKN140 FEW270 CB RN DST SE S SW W CB DST N=
200811301500 METAR MRLM 301500Z 23004KT CAVOK 24/22 A2987 RMK SCT110 BKN140 FEW260 CB RN DST SE S W CB NW N=
200811301600 METAR MRLM 301600Z 19002KT CAVOK 24/22 A2987 RMK SCT090 BKN140 FEW260 CB RN DST SE S SW W CB NW N=
200811301700 METAR MRLM 301700Z 00000KT CAVOK 25/23 A2986 RMK FEW090 BKN140 FEW270 CB RN DST S SW W CB DST NW N=
200811301800 METAR MRLM 301800Z 00000KT CAVOK 25/23 A2984 RMK FEW100 BKN140 RMK FEW270 CB RN DST S SW W CB DST NW N=
200811301900 METAR MRLM 301900Z 00000KT CAVOK 24/23 A2981 RMK FEW090 BKN130 FEW270 CB RN DST SW W=
200811302000 METAR MRLM 302000Z 00000KT CAVOK 25/23 A2980 RMK CB RN DST SW FEW100 BKN130 FEW270=
200811302100 METAR MRLM 302100Z 08004KT CAVOK 25/23 A2978 RMK FEW080 SCT100 SCT130 FEW270 CB RN S SW=
200811302200 METAR MRLM 302200Z 02002KT CAVOK 26/22 A2979 RMK FEW100 SCT120 FEW140 FEW270 CB RN DST S SW=
200811302300 METAR MRLM 302300Z 25003KT CAVOK 24/23 A2981 RMK FEW080 BKN140 FEW270 RMK CB RN DST SE S=
200812010000 METAR MRLM NIL=
200812010100 METAR MRLM NIL=
200812010200 METAR MRLM NIL=
200812010300 METAR MRLM NIL=
200812010400 METAR MRLM NIL=
200812010500 METAR MRLM NIL=
200812010600 METAR MRLM NIL=
200812010700 METAR MRLM NIL=
200812010800 METAR MRLM NIL=
200812010900 METAR MRLM NIL=
200812011000 METAR MRLM NIL=
200812011100 METAR MRLM NIL=
200812011200 METAR MRLM 011200Z NIL=
200812011300 METAR MRLM 011300Z 21003KT CAVOK 24/22 A2995 RMK TRACE SC CI BKN120 HZ SE=
200812011400 METAR MRLM 011400Z 00000KT CAVOK 29/22 A2997 RMK TRACE SC SCT140 SCT300 CB RN NE HZ LEVE SE=
200812011500 METAR MRLM 011500Z 06003KT CAVOK 27/22 A2997 RMK TRACE SC BKN090 SCT300 CB RN NE HZ LEVE SE=
200812011600 METAR MRLM 011600Z 09004KT 9999 FEW025 BKN100 27/23 A2998 RMK FEW080 FEW300 CB RN DST NE=
200812011700 METAR MRLM 011700Z 30004KT 9999 FEW032 BKN110 28/22 A2996 RMK CB NE TRACE CI HZ SE=
200812011800 METAR MRLM 011800Z 01006KT 9999 FEW028 BKN100 28/23 A2994 RMK FEW080 TRACE CI CB N NE HZ LEVE ARND=
200812011900 METAR MRLM 011900Z 04005KT 9999 FEW028 BKN100 29/23 A2992 RMK CB CB RN N FEW080 HZ ARND=
200812012000 METAR MRLM 012000Z 03007KT 9999 DZ FEW020 BKN110 29/24 A2990 RMK CB DST SW TRACE CI=
200812012100 METAR MRLM 012100Z 08003KT 9999 FEW025 BKN100 28/23 A2989 REDZ CB S W RN S SW W=
200812012200 METAR MRLM 012200Z 09004KT 9999 FEW025 SCT110 2/24 A2989 SCT270 CB S W=
200812012300 METAR MRLM 012300Z 11004KT 9999 FEW018 BKN090 27/24 A2991 FEW270 CB S W=
200812020000 METAR MRLM 020000Z NIL=
200812020100 METAR MRLM NIL=
200812020200 METAR MRLM NIL=
200812020300 METAR MRLM NIL=
200812020400 METAR MRLM NIL=
200812020500 METAR MRLM NIL=
200812020600 METAR MRLM NIL=
200812020700 METAR MRLM NIL=
200812020800 METAR MRLM NIL=
200812020900 METAR MRLM NIL=
200812021000 METAR MRLM NIL=
200812021100 METAR MRLM NIL=
200812021200 METAR MRLM 021200Z NIL=
200812021300 METAR MRLM 021300Z 29005KT 2000 TSRA SCT005 SCT015CB SCT020 24/23 A3002 TS NE=
200812021400 METAR MRLM 021400Z 23006KT 2000 TSRA SCT006 SCT012CB SCT020 24/23 A3003 TS N VSBY SW 8KM=
200812021500 METAR MRLM 021500Z 24005KT 5000 RA FEW025 OVC015 24/23 A3002 RETS CB N=
200812021600 METAR MRLM 021600Z 28008KT 3000 -RA SCT006 BKN015 24/23 A3001 CB W N VSBY E 8KM=
200812021700 METAR MRLM 021700Z 25007KT 9999 FEW007 OVC020 24/23 A2999 RN ARND RERA=
200812021800 METAR MRLM 021800Z 27010KT 5000 RA SCT007 OVC015 24/23 A2997=
200812021900 METAR MRLM 021900Z 23007KT 1000 +RA SCT006 BKN015 24/23 A2995=
200812022000 METAR MRLM 022000Z 27004KT 5000 2000NW -RA FEW006 BKN010 24/23 A2993 CB W NW N NE=
200812022100 METAR MRLM 022100Z 29006KT 2000 -TSRA FEW006 SCT010CB BKN015 24/23 A2993 RMK VIS 6000 N NE=
200812022200 METAR MRLM 022200Z 10015KT 0500 -SHRA FEW003 OVC010TCU 24/23 A2993=
200812022300 METAR MRLM 022300Z 07008KT 0500 -SHRA OVC010TCU 24/23 A2997=
200812030000 METAR MRLM 030000Z NIL=
200812030100 METAR MRLM NIL=
200812030200 METAR MRLM NIL=
200812030300 METAR MRLM NIL=
200812030400 METAR MRLM NIL=
200812030500 METAR MRLM NIL=
200812030600 METAR MRLM NIL=
200812030700 METAR MRLM NIL=
200812030800 METAR MRLM NIL=
200812030900 METAR MRLM NIL=
200812031000 METAR MRLM NIL=
200812031100 METAR MRLM NIL=
200812031200 METAR MRLM NIL=
200812031300 METAR MRLM 031300Z 25002KT 3000 RA SCT030 BKN012 23/22 A2996=
200812031400 METAR MRLM 031400Z NIL=
200812031500 METAR MRLM 031500Z 25005KT 4000 TSRA SCT010CB BKN015 23/22 A2997 RMK TS NE E=
200812031600 METAR MRLM 031600Z 26003KT 3000 +RA OVC015 23/22 A2997=
200812031700 METAR MRLM 031700Z 20005KT 5000 RA SCT005 BKN015 23/22 A2995 RMK CB N W VIS 8000 E SE FEW090=
200812031800 METAR MRLM 031800Z 24002KT 4000 +DZ FEW004 BKN015 24/23 A2992 RMK FEW090=
200812031900 METAR MRLM 031900Z 28005KT 5000 RA SCT006 BKN015 24/23 A2990=
200812032000 METAR MRLM 032000Z 32005KT 2000 +RA SCT003 SCT015 24/23 A2989=
200812032100 METAR MRLM 032100Z 27003KT 8000 DZ FEW005 BKN020 23/22 A2988 RMK RN ARND FEW090=
200812032200 METAR MRLM 032200Z 21003KT 8000 +DZ BKN020 23/22 A2988 RMK CB RN DST QUAD N FEW090 TRACE AS=
200812032300 METAR MRLM 032300Z 28003KT 8000 +DZ SCT020 BKN090 23/22 A2989 RMK VIS 9999 SE S SW CB RN W NW N NE=
200812040000 METAR MRLM NIL=
200812040100 METAR MRLM NIL=
200812040200 METAR MRLM NIL=
200812040300 METAR MRLM NIL=
200812040400 METAR MRLM NIL=
200812040500 METAR MRLM NIL=
200812040600 METAR MRLM NIL=
200812040700 METAR MRLM NIL=
200812040800 METAR MRLM NIL=
200812040900 METAR MRLM NIL=
200812041000 METAR MRLM NIL=
200812041100 METAR MRLM NIL=
200812041200 METAR MRLM NIL=
200812041300 METAR MRLM 041300Z 24004KT 9999 FEW020 BKN090 22/20 A2990 RMK CB DST QUAD N E LGT HZ ARND TRACE AS=
200812041400 METAR MRLM 041400Z 29004KT 29004KT 8000 DZ FEW020 OVC080 23/21 A2993 RMK CB RN DST QUAD N E HZ ARND=
200812041500 METAR MRLM 041500Z 29003KT 8000 +DZ FEW020 BKN080 25/22 A2994 RMK FEW100 CB RN QUAD N E VIS 9999 S SW W HZ ARND=
200812041600 METAR MRLM 041600Z 26005KT 9999 FEW008 BKN020 25/22 A2994 REDZ RMK FEW090 RN HZ ARND CB DST QUAD N E=
200812041700 METAR MRLM 041700Z 00000KT 5000 DZ BKN006 SCT020 24/22 A2994 RMK RN HZ ARND=
200812041800 METAR MRLM 041800Z 21003KT 9999 -DZ FEW008 SCT020 25/23 A2990 RMK SCT080 FEW120 RN HZ ARND CB DST QUAD N=
200812041900 METAR MRLM 041900Z 23002KT 8000 RA SCT006 BKN020 25/23 A2990 RMK HZ ARND TRACE AS=
200812042000 METAR MRLM 042000Z 28005KT 8000 +DZ SCT008 SCT025 24/23 A2988 FEW080 VIS 9999 E NE CB DST QUAD N=
200812042100 METAR MRLM 042100Z 24004KT 9999 DZ FEW009 BKN080 24/23 A2986=
200812042200 METAR MRLM 042200Z 00000KT 9999 BKN020 SCT080 25/23 A2988 RMK REDZ CB RN DST N E=
200812042300 METAR MRLM 042300Z 00000KT 9999 -DZ BKN015 24/23 A2992 RMK FEW090 HZ ARND=
200812042355 METAR MRLM 050000Z NIL=
200812050000 METAR MRLM NIL=
200812050100 METAR MRLM 050100Z NIL=
200812050200 METAR MRLM NIL=
200812050300 METAR MRLM NIL=
200812050500 METAR MRLM NIL=
200812050600 METAR MRLM NIL=
200812050700 METAR MRLM NIL=
200812050800 METAR MRLM NIL=
200812050900 METAR MRLM NIL=
200812051000 METAR MRLM NIL=
200812051100 METAR MRLM NIL=
200812051200 METAR MRLM NIL=
200812051300 METAR MRLM 051300Z 20004KT 9999 FEW015 SCT080 24/21 A2995 RMK SCT140 CB RN DST E SE S HZ SE=
200812051400 METAR MRLM 051400Z 21004KT 9999 SCT028 BKN090 27/21 A2996 RMK CB RN DST N E HZ SE=
200812051500 METAR MRLM 051500Z 34009KT 9999 BKN022 26/22 A2998 RMK RN ARND HZ SE=
200812051600 METAR MRLM 051600Z 32005KT 9999 FEW020 BKN070 27/22 A2998 RMK FEW090 TRACE CI CB RN DST E SE S NW=
200812051700 METAR MRLM 051700Z 11004KT 9999 FEW020 SCT070 26/22 A2997 SCT100 TRACE CI CB RN DST E S SW=
200812051800 METAR MRLM 051800Z 21006KT 9999 FEW028 BKN120 28/22 A2992 RMK FEW080 SC DST NE HZ LGT ARND=
200812051900 METAR MRLM 051900Z 19006KT 9999 FEW040 BKN130 30/22 A2988 RMK FEW270 CB DST NE=
200812052000 METAR MRLM 052000Z 07004KT 9999 FEW045 BKN130 31/21 A2985 RMK FEW080 TRACE CI TCU N NE HZ LGT ARND=
200812052100 METAR MRLM 052100Z 02005KT 9999 FEW030 BKN080 29/23 A2985 RMK TCU RASH DST NW N NE E TRACE CI HZ LEVE ARND=
200812052200 METAR MRLM NIL=
200812052300 METAR MRLM 052300Z 01013KT 3000 RA SCT018 BKN080 26/23 A2987 RMK VIS NW N UNL=
200812060000 METAR MRLM NIL=
200812060100 METAR MRLM NIL=
200812060200 METAR MRLM NIL=
200812060300 METAR MRLM NIL=
200812060400 METAR MRLM NIL=
200812060500 METAR MRLM NIL=
200812060600 METAR MRLM NIL=
200812060700 METAR MRLM NIL=
200812060800 METAR MRLM NIL=
200812060900 METAR MRLM NIL=
200812061000 METAR MRLM NIL=
200812061100 METAR MRLM NIL=
200812061200 METAR MRLM 061200Z NIL=
200812061300 METAR MRLM 061300Z 00000KT CAVOK 23/21 A2994 RMK SCT070 SCT090 RMK RN S TRACE SC HZ ARND DZ E=
200812061400 METAR MRLM 061400Z 22004KT CAVOK 25/22 A2995 RMK TRACE SC CI BKN090 HZ LEVE ARND CB DST SW NW=
200812061500 METAR MRLM 061500Z 08003KT CAVOK 28/22 A2995 RMK TRACE CU SCT100 FEW270 CB DST NW HZ LEVE ARND=
200812061600 METAR MRLM 061600Z 31005KT 8000 DZ FEW018 SCT020 BKN090 25/22 A2999 VSBY NW N NE UNL=
200812061700 METAR MRLM NIL=
200812061800 METAR MRLM NIL=
200812061900 METAR MRLM 061900Z 34009KT 9999 FEW028 29/23 A2988 RMK CB DST NW E FEW090 TRACE CI HZ ARND=
200812062000 METAR MRLM 062000Z 01006KT 9999 FEW028 BKN090 29/23 A2987 RMK TRACE CI CB NW N NE HZ LEVE ARND=
200812062100 METAR MRLM 062100Z 01004KT 9999 FEW030 SCT090 29/23 A2986 RN E CB NW NE E=
200812062200 METAR MRLM 062200Z 35004KT 9999 BKN025 28/24 A2988 FEW090 RN N=
200812062300 METAR MRLM 062300Z 04008KT 9999 SCT020 SCT090 26/23 A2989 TCU RN NE S SW W=
200812070000 METAR MRLM 070000Z NIL=
200812070100 METAR MRLM NIL=
200812070200 METAR MRLM NIL=
200812070300 METAR MRLM NIL=
200812070400 METAR MRLM NIL=
200812070500 METAR MRLM NIL=
200812070600 METAR MRLM NIL=
200812070700 METAR MRLM NIL=
200812070800 METAR MRLM NIL=
200812070900 METAR MRLM NIL=
200812071000 METAR MRLM NIL=
200812071100 METAR MRLM NIL=
200812071200 METAR MRLM 071200Z NIL=
200812071300 METAR MRLM 071300Z 06008KT 3000 RA FEW005 OVC020 23/22 A2998 VSBY W UNL=
200812071400 METAR MRLM 071400Z 21005KT 9999 SCT020 SCT090 24/22 A2998=
200812071500 METAR MRLM 071500Z 28003KT 9999 VCSH BKN020 26/22 A2999 FEW090 RN ARND VSBY NE E 8KM=
200812071600 METAR MRLM NIL=
200812071700 METAR MRLM 071700Z 27005KT 8000 DZ FEW010 BKN020 25/23 A2998 VSBY NE N UNL RN ARND=
200812071800 METAR MRLM 071800Z 28005KT 9999 DZ BKN025 SCT100 26/22 A2995 RN ARND=
200812071900 METAR MRLM 071900Z 25005KT 9999 FEW018 BKN080 26/23 A2991 REDZ RN ARND=
200812072000 METAR MRLM 072000Z 23004KT CAVOK 28/23 A2988 BKN080 SCT100 CB NE E SE S RN ARND=
200812072100 METAR MRLM 072100Z 00000KT 9999 SCT025 SCT080 28/22 A2987 RMK TRACE ST RN DST W N E=
200812072200 METAR MRLM 072200Z 08007KT 9999 SCT015 SCT025 27/23 A2989 RMK RN HZ ARND FEW090=
200812072300 METAR MRLM 072300Z 08003KT 8000 -DZ BKN015 25/23 A2990 RERA RMK VIS E SE UNL TRACE AS=
200812080000 METAR MRLM 080000Z NIL=
200812080100 METAR MRLM NIL=
200812080200 METAR MRLM NIL=
200812080300 METAR MRLM NIL=
200812080400 METAR MRLM NIL=
200812080500 METAR MRLM NIL=
200812080600 METAR MRLM NIL=
200812080700 METAR MRLM NIL=
200812080800 METAR MRLM NIL=
200812080900 METAR MRLM NIL=
200812081000 METAR MRLM NIL=
200812081100 METAR MRLM NIL=
200812081200 METAR MRLM NIL=
200812081300 METAR MRLM 081300Z 26003KT CAVOK 23/21 A2995 RMK TRACE CI SCT080 SCT140 HZ LGT ARND=
200812081400 METAR MRLM 081400Z 28005KT CAVOK 26/23 A2996 RMK TRACE SC SCT110 FEW280 HZ LGT ARND=
200812081500 METAR MRLM 081500Z 32005KT CAVOK 28/23 A2996 RMK TRACE SC HZ LGT ARND FEW090 FEW280=
200812081600 METAR MRLM 081600Z 29004KT CAVOK 29/23 A2994 RMK TRACE CU FEW100 BKN280 CB DST E HZ LGT ARND=
200812081700 METAR MRLM 081700Z 35010KT CAVOK 29/24 A2991 RMK TRACE CU SCT130 FEW280 CB RN DST E HZ LGT ARND=
200812081800 METAR MRLM 081800Z 35010KT 9999 FEW028 BKN080 29/23 A2988 RMK RN DST NE E SE HZ LGT ARND TRACE CI=
200812081900 METAR MRLM 081900Z 32007KT 9999 FEW028 BKN070 28/23 A2987 RMK FEW090 TRACE CI RN DST NE E SE S HZ LGT ARND=
200812082000 METAR MRLM 082000Z 02005KT 9999 FEW022 BKN070 28/23 A2986 RMK FEW090 DZ HZ ARND=
200812082100 METAR MRLM 082100Z 08010KT 8000 VCSH FEW020 SCT070 26/22 A2986 RMK FEW090 VIS 9999 NW N=
200812082200 METAR MRLM 082200Z 07004KT 9999 FEW015 SCT025 BKN100 26/23 A2986 RMK DZ HZ ARND=
200812082300 METAR MRLM 082300Z 13005KT 9999 DZ BKN012 SCT100 25/22 A2987 RMK RN HZ ARND=
200812090000 METAR MRLM NIL=
200812090100 METAR MRLM NIL=
200812090200 METAR MRLM NIL=
200812090300 METAR MRLM NIL=
200812090400 METAR MRLM NIL=
200812090500 METAR MRLM NIL=
200812090600 METAR MRLM NIL=
200812090700 METAR MRLM NIL=
200812090800 METAR MRLM NIL=
200812090900 METAR MRLM NIL=
200812091000 METAR MRLM NIL=
200812091100 METAR MRLM NIL=
200812091200 METAR MRLM 091200Z NIL=
200812091300 METAR MRLM 091300Z 26002KT 9999 FEW015 BKN080 24/22 A2989 RMK FEW100 VIS 8000W RN HZ ARND=
200812091400 METAR MRLM 091400Z 21004KT 9999 SCT025 SCT090 25/23 A2989 RMK RN DST QUAD N E LGT HZ ARND=
200812091500 METAR MRLM 091500Z 06005KT 9999 SCT025 SCT080 26/23 A2990 RMK RN DST QUAD N E HZ LGT ARND=
200812091600 METAR MRLM 091600Z 20004KT 9999 DZ FEW025 BKN080 25/23 A2989 RMK VIS 8000S RN HZ RN DST ARND=
200812091700 METAR MRLM 091700Z 18002KT 9999 SCT025 SCT080 27/24 A2987 REDZ RMK VIS 8000 NW N NE E RN HZ ARND=
200812091800 METAR MRLM 091800Z 06004KT 3000 +DZ SCT015 SCT100 25/23 A2986 RERA RMK VIS 8000 N NE TCU DST NW HZ ARND=
200812091900 METAR MRLM 091900Z 18004KT 9999 FEW025 BKN080 26/24 A2982 REDZ RN DIST S W=
200812092000 METAR MRLM 092000Z 17007KT CAVOK 29/24 A2979 RN DIST SE S SCT090 BKN280 HZ LG ARND=
200812092100 METAR MRLM 092100Z 18006KT 9999 FEW025 SCT120 BKN280 29/24 A2978 RMK RN DST S SW HZ LGT ARND=
200812092200 METAR MRLM 092200Z 17005KT 9999 FEW025 BKN090 28/23 A2978 RMK FEW280 HZ ARND=
200812092300 METAR MRLM 092300Z 16002KT 9999 FEW018 BKN080 27/23 A2979 RMK DZ HZ LGT=
200812092357 METAR MRLM 100000Z NIL=
200812100000 METAR MRLM NIL=
200812100100 METAR MRLM NIL=
200812100200 METAR MRLM NIL=
200812100300 METAR MRLM NIL=
200812100400 METAR MRLM NIL=
200812100500 METAR MRLM NIL=
200812100600 METAR MRLM NIL=
200812100700 METAR MRLM NIL=
200812100800 METAR MRLM NIL=
200812100900 METAR MRLM NIL=
200812101000 METAR MRLM NIL=
200812101100 METAR MRLM NIL=
200812101200 METAR MRLM 101200Z NIL=
200812101300 METAR MRLM 101300Z 23004KT 9999 OVC025 24/23 A2983 RMK RN HZ ARND=
200812101400 METAR MRLM 101400Z 19003KT 9999 OVC025 26/24 A2985 RMK VIS 8 KMS N NE E DUE RN HZ ARND=
200812101500 METAR MRLM 101500Z 19003KT 9999 OVC020 27/24 A2986 RMK VIS N 8 KMS DUE RN HZ ARND TRACE AC=
200812101600 METAR MRLM 101600Z 03004KT 9999 SCT020 SCT090 29/25 A2985 VIS 5 KMS SE E S HZ CB RN N FEW270=
200812101700 METAR MRLM NIL=
200812101800 METAR MRLM 101800Z 06004KT 8000 BKN025 29/24 A2982 RMK BR ARND FEW080 RN DST N VIS UNL W=
200812101900 METAR MRLM 101900Z 01011KT 9999 DZ FEW013 BKN080 27/24 A2980 RMK VIS 8 KMS DUE HZ N RN N E FEW140=
200812102000 METAR MRLM 102000Z 05003KT 9999 FEW015 BKN080 27/24 A2978 RMK RN DST N W VIS 6 KMS DUE HZ SE=
200812102100 METAR MRLM 102100Z 03003KT 9999 FEW015 BKN080 27/24 A2976 RMK VIS S SW 6000MTS DUE HZ RN NW NE S TCU NE=
200812102200 METAR MRLM 102200Z 16002KT 9999 SCT015TCU SCT080 28/24 A2976 RMK FEW280 VIS NE 6000 DUE HZ=
200812102300 METAR MRLM 102300Z 02006KT 5000 RA FEW006 BKN012 27/24 A2979 RMK FEW090 HZ ARND=
200812110000 METAR MRLM NIL=
200812110100 METAR MRLM NIL=
200812110200 METAR MRLM NIL=
200812110300 METAR MRLM NIL=
200812110400 METAR MRLM NIL=
200812110500 METAR MRLM NIL=
200812110600 METAR MRLM NIL=
200812110700 METAR MRLM NIL=
200812110800 METAR MRLM NIL=
200812110900 METAR MRLM NIL=
200812111000 METAR MRLM NIL=
200812111100 METAR MRLM NIL=
200812111200 METAR MRLM 111200Z NIL=
200812111300 METAR MRLM 111300Z 21005KT 5000 RA FEW005 OVC015 24/23 A2987 RMK VIS NE UNL=
200812111400 METAR MRLM 111400Z 19005KT 8000 -DZ SCT004 BKN015 24/23 A2990 RMK VIS NE UNL=
200812111500 METAR MRLM 111500Z 21007KT 9999 -DZ FEW006 OVC015 25/23 A2991 RMK TRACE AC AS RN HZ ARND=
200812111600 METAR MRLM 111600Z 24005KT 9999 FEW015 BKN090 26/23 A2991 REDZ RMK RN S FEW 280 HZ ARND=
200812111700 METAR MRLM NIL=
200812111800 METAR MRLM 111800Z 02003KT 9999 BKN025 29/24 A2986 RMK FEW110 FEW280 RN SW HZ ARND=
200812111900 METAR MRLM NIL=
200812112000 METAR MRLM 112000Z 06006KT 9999 SCT025 29/23 A2980 RMK TRACE AC FEW280 HZ ARND=
200812112100 METAR MRLM NIL=
200812112200 METAR MRLM NIL=
200812112300 METAR MRLM NIL=
200812120000 METAR MRLM 120000Z NIL=
200812120100 METAR MRLM NIL=
200812120200 METAR MRLM NIL=
200812120300 METAR MRLM NIL=
200812120400 METAR MRLM NIL=
200812120500 METAR MRLM NIL=
200812120600 METAR MRLM NIL=
200812120700 METAR MRLM NIL=
200812120800 METAR MRLM NIL=
200812120900 METAR MRLM NIL=
200812121000 METAR MRLM NIL=
200812121100 METAR MRLM NIL=
200812121200 METAR MRLM 121200Z NIL=
200812121300 METAR MRLM 121300Z 21006KT CAVOK 23/21 A2994 SCT080 SCT270=
200812121400 METAR MRLM 121400Z 20004KT CAVOK 27/22 A2995 SCT110 BKN270 TCU NW=
200812121500 METAR MRLM 121500Z 02004KT CAVOK 29/23 A2996 TRAZAS SCT SCT110 BKN280 HZY=
200812121600 METAR MRLM 121600Z 01008KT CAVOK 28/23 A2995 TRAZAS CU OVC120=
200812121700 METAR MRLM 121700Z 34006KT CAVOK 30/22 A2994 TRAZAS SCT OVC090 HZY CB N=
200812121800 METAR MRLM 121800Z 08007KT 9999 FEW035 SCT090 30/22 A2992 SCT130=
200812121900 METAR MRLM 121900Z 34006KT 9999 FEW038 BKN100 30/22 A2988 HZY=
200812122000 METAR MRLM 122000Z 33007KT 9999 FEW030 BKN100 29/23 A2986 HZY=
200812122100 METAR MRLM 122100Z 31010KT 9999 BKN035 SCT100 28/23 A2985 RMK HZ ARND=
200812122200 METAR MRLM 122200Z 29008KT 9999 SCT018 BKN090 26/23 A2986 RMK HZ LGT ARND RN DST SW W=
200812122300 METAR MRLM 122300Z 30007KT 9999 OVC018 26/23 A2988 RMK TRACE AC RN DST W=
200812130000 METAR MRLM 130000Z NIL=
200812130100 METAR MRLM NIL=
200812130200 METAR MRLM NIL=
200812130300 METAR MRLM NIL=
200812130400 METAR MRLM NIL=
200812130500 METAR MRLM NIL=
200812130600 METAR MRLM NIL=
200812130700 METAR MRLM NIL=
200812130800 METAR MRLM NIL=
200812130900 METAR MRLM NIL=
200812131000 METAR MRLM NIL=
200812131100 METAR MRLM NIL=
200812131200 METAR MRLM NIL=
200812131300 METAR MRLM 131300Z 27007KT 5000 +DZ FEW005 BKN020 21/20 A2997 RMK FEW090=
200812131400 METAR MRLM 131400Z 28011KT 9999 DZ SCT007 BKN080 21/20 A2997 RMK RN N E=
200812131500 METAR MRLM 131500Z 27009KT 7000 FEW008 SCT080 BKN100 22/20 A2997=
200812131600 METAR MRLM 131600Z 26010KT 8000 +DZ SCT008 SCT080 22/21 A2997 RMK SCT100 RN ARND=
200812131700 METAR MRLM 131700Z 26008KT 4000 RA FEW008 SCT015 BKN090 22/21 A2995=
200812131800 METAR MRLM 131800Z 26010KT 5000 RA FEW008 SCT015 BKN090 22/21 A2994=
200812131900 METAR MRLM 131900Z 28010KT 5000 -DZ FEW010 OVC015 23/21 A2990 RMK TRACE AS=
200812132000 METAR MRLM 132000Z 25010KT 8000 4000NW RA SCT006 BKN015 22/21 A2987 RMK TRACE AS=
200812132100 METAR MRLM 132100Z 27008KT 9999 DZ FEW010 SCT080 BKN100 23/21 A2986 RERA RMK CB DST QUAD S N RN ARND=
200812132200 METAR MRLM 132200Z 26009KT 9999 SCT015 BKN080 24/21 A2987 REDZ RMK CB RN DST QUAD W N=
200812132300 METAR MRLM 132300Z 26008KT 9999 FEW015 BKN080 24/21 A2987 RMK TRACE CI FEW100 CB RN DST QUAD W N=
200812140000 METAR MRLM NIL=
200812140100 METAR MRLM NIL=
200812140200 METAR MRLM NIL=
200812140300 METAR MRLM NIL=
200812140400 METAR MRLM NIL=
200812140500 METAR MRLM NIL=
200812140600 METAR MRLM NIL=
200812140700 METAR MRLM NIL=
200812140800 METAR MRLM NIL=
200812140900 METAR MRLM NIL=
200812141000 METAR MRLM NIL=
200812141100 METAR MRLM NIL=
200812141200 METAR MRLM NIL=
200812141300 METAR MRLM 141300Z 21004KT CAVOK 24/22 A2998 RMK TRACE SC BKN080 FEW140 FEW280 CB RN DST QUAD N=
200812141400 METAR MRLM 141400Z 00000KT 9999 DZ FEW020 BKN080 25/22 A2999 RMK FEW100 CB RN DST QUAD N=
200812141500 METAR MRLM 141500Z 22004KT 9999 FEW025 BKN080 27/23 A2999 RMK FEW270 HZ SE CB RN DST QUAD N=
200812141600 METAR MRLM 141600Z 03004KT 9999 SCT025 SCT080 28/23 A2999 RMK TRACE CI HZ LGT ARND CB DST N E RN DST N=
200812141700 METAR MRLM 141700Z 02006KT 9999 FEW030 BKN090 29/23 A2996 RMK FEW280 CB DST E SE LGT HZ ARND=
200812141800 METAR MRLM 141800Z 01004KT 9999 BKN032 SCT090 29/22 A2994 RMK TCU RN DST S NW TRACE CI HZ SE=
200812141900 METAR MRLM 141900Z 01005KT 9999 FEW030 BKN080 29/13 A2992 RMK TCU DST SW TRACE CI HZ SW=
200812142000 METAR MRLM 142000Z 01005KT 9999 VCSH SCT025TCU BKN080 28/23 A2989 RMK TRACE CI VIS 8000 NE E TCU NE E HZ LEVE ARND=
200812142100 METAR MRLM 142100Z 35010KT 9999 DZ VCFH FEW020 BKN080 26/21 A2989 RMK VIS 8 KMS DUE RN NW=
200812142200 METAR MRLM 142200Z 02006KT 9999 FEW025 BKN080 27/21 A2989 RMK REDZ TRAZAS CI TCU SE DZ W=
200812142300 METAR MRLM 142300Z 20002KT 9999 FEW025 BKN080 26/23 A2990 RMK TCU RN DST NE E SE DZ SE W FEW280 HZ LGT ARND=
200812142357 METAR MRLM 150000Z NIL=
200812150000 METAR MRLM NIL=
200812150100 METAR MRLM 150100Z NIL=
200812150200 METAR MRLM 150200Z NIL=
200812150300 METAR MRLM NIL=
200812150400 METAR MRLM NIL=
200812150500 METAR MRLM NIL=
200812150600 METAR MRLM NIL=
200812150700 METAR MRLM NIL=
200812150800 METAR MRLM NIL=
200812150900 METAR MRLM NIL=
200812151000 METAR MRLM NIL=
200812151100 METAR MRLM NIL=
200812151200 METAR MRLM NIL=
200812151300 METAR MRLM 151300Z 20002KT CAVOK 23/21 A2999 RMK TRAZAS CU FEW080 BKN280 HZ LGT ARND=
200812151400 METAR MRLM 151400Z 16004KT CAVOK 26/21 A3001 RMK TRAZAS CU FEW090 BKN280 HZ LGT ARND=
200812151500 METAR MRLM 151500Z 17008KT CAVOK 28/22 A3001 RMK TRAZAS CU SCT100 SCT280 HZ ARND=
200812151600 METAR MRLM 151600Z 06003KT 9999 FEW025 SCT110 SCT280 29/24 A3000 RMK HZ LGT ARND=
200812151700 METAR MRLM 151700Z 07004KT 9999 FEW025 SCT280 29/23 A2997 RMK TRAZAS AC TCU N NE HZ ARND=
200812151800 METAR MRLM 151800Z 04005KT 9999 FEW025 SCT280 29/23 A2995 RMK TRAZAS AC HZ ARND=
200812151900 METAR MRLM 151900Z 02007KT 9999 FEW025 FEW280 29/23 A2993 RMK TRAZAS AC HZ ARND=
200812152000 METAR MRLM 152000Z 02008KT 9999 FEW025 29/24 A2990 TRACE AC FEW280 HZ ARND=
200812152100 METAR MRLM NIL=
200812152200 METAR MRLM NIL=
200812152300 METAR MRLM NIL=
200812160000 METAR MRLM NIL=
200812160100 METAR MRLM NIL=
200812160200 METAR MRLM NIL=
200812160300 METAR MRLM NIL=
200812160400 METAR MRLM NIL=
200812160500 METAR MRLM NIL=
200812160600 METAR MRLM NIL=
200812160700 METAR MRLM NIL=
200812160800 METAR MRLM NIL=
200812160900 METAR MRLM NIL=
200812161000 METAR MRLM NIL=
200812161100 METAR MRLM NIL=
200812161200 METAR MRLM 161200Z NIL=
200812161300 METAR MRLM NIL=
200812161400 METAR MRLM 161400Z 22004KT 9999 OVC025 24/22 A2998 REDZ RMK TRACE ST AC CI RN DST N NE E S=
200812161500 METAR MRLM 161500Z 21003KT 9999 DZ BKN025 26/22 A2997 RMK FEW090 HZ ARND RN DST S W N QDS TCU N=
200812161600 METAR MRLM 161600Z 10004KT 9999 SCT025 SCT080 26/22 A2997 RMK TCU NW DZ DST E SE=
200812161700 METAR MRLM 161700Z 18003KT 9999 OVC035 29/22 A2995 RMK FEW AC DZ E S HZ ARND=
200812161800 METAR MRLM 161800Z 36008KT 9999 OVC025 28/23 A2992 RMK RN DST SW S NW HZY=
200812161900 METAR MRLM 161900Z 36005KT 9999 BKN025 SCT080 30/23 A2989 DZ DST N NE E HZ SE=
200812162000 METAR MRLM 162000Z 33005KT 9999 FEW025 BKN100 27/23 A2987 RMK RN DST SW W TRACE ST=
200812162100 METAR MRLM 162100Z 07004KT 9999 SCT025 SCT090 28/23 A2987 RN E HZY=
200812162200 METAR MRLM 162200Z 05002KT 9999 FEW020 SCT090 27/23 A2986 HZY=
200812162300 METAR MRLM NIL=
200812170000 METAR MRLM NIL=
200812170100 METAR MRLM NIL=
200812170200 METAR MRLM NIL=
200812170300 METAR MRLM NIL=
200812170400 METAR MRLM NIL=
200812170500 METAR MRLM NIL=
200812170600 METAR MRLM NIL=
200812170700 METAR MRLM NIL=
200812170800 METAR MRLM NIL=
200812170900 METAR MRLM NIL=
200812171000 METAR MRLM NIL=
200812171100 METAR MRLM NIL=
200812171200 METAR MRLM 171200Z NIL=
200812171300 METAR MRLM 171300Z 21005KT 9999 DZ BKN015 25/22 A2994 FEW080 RN DST NW N NE=
200812171400 METAR MRLM 171400Z 171400Z22004KT 9999 BKN025 27/22 A2995 HZY=
200812171500 METAR MRLM 171500Z 21003KT 9999 BKN038 30/22 A2996 HZY=
200812171600 METAR MRLM 171600Z 04003KT 9999 SCT035 30/22 A2995 HZY=
200812171700 METAR MRLM 171700Z 09004KT 9999 FEW025 30/22 A2993 FEW090 TCU RN N=
200812171800 METAR MRLM 171800Z 06005KT 9999 FEW025 OVC080 29/22 A2991 RN N VSBY 8KM=
200812171900 METAR MRLM 171900Z 33009KT 9999 BKN015 27/23 A2990 RN ARND FEW080 VSBY E 8KM=
200812172000 METAR MRLM 172000Z 18003KT 9999 BKN020 28/22 A2986 FEW100 RN N S HZY=
200812172100 METAR MRLM 172100Z 23003KT 9999 BKN025 27/22 A2987 RMK FEW080 HZ LGT ARND DZ N W=
200812172200 METAR MRLM 172200Z 33003KT 9999 FEW025 SCT080 28/22 A2987 RMK TCU RN N HZ ARND=
200812172300 METAR MRLM 172300Z 31004KT 9999 FEW025 BKN070 27/22 A2988 RMK RN DST W HZ ARND=
200812180000 METAR MRLM NIL=
200812180100 METAR MRLM NIL=
200812180200 METAR MRLM NIL=
200812180300 METAR MRLM NIL=
200812180400 METAR MRLM NIL=
200812180500 METAR MRLM NIL=
200812180600 METAR MRLM NIL=
200812180700 METAR MRLM NIL=
200812180800 METAR MRLM NIL=
200812180900 METAR MRLM NIL=
200812181000 METAR MRLM NIL=
200812181100 METAR MRLM NIL=
200812181200 METAR MRLM NIL=
200812181300 METAR MRLM 181300Z 03015KT 6000 +DZ FEW005 BKN015 24/21 A2999 RMK VIS NE UNL=
200812181400 METAR MRLM 181400Z 21006KT 9999 FEW015 BKN090 22/21 A3000 REDZ RMK RN DST S SW W N NW GZ LGT SE=
200812181500 METAR MRLM 181500Z 19006KT 9999 DZ BKN020 24/21 A3001 RMK FEW120 RN S SW W HZ SE=
200812181600 METAR MRLM 181600Z 19007KT 9999 SCT025 27/21 A3001 RMK FEW130 HZ SE=
200812181700 METAR MRLM 181700Z 22003KT 9999 SCT035 29/21 A2999 RMK TRACE AC HZ SE=
200812181800 METAR MRLM 181800Z 02006KT 9999 SCT035 SCT080 30/21 A2996 RMK RN NE HZ SE=
200812181900 METAR MRLM 181900Z 32007KT 9999 FEW030 BKN080 29/21 A2993 RMK DZ S HZ SE=
200812182000 METAR MRLM 182000Z 34008KT 9999 FEW040 BKN090 29/21 A2990 RMK DZ NE E HZ SE=
200812182100 METAR MRLM 182100Z 32005KT 9999 FEW020 OVC090 29/20 A2990 RMK DZ DST N NE E HZ SE=
200812182200 METAR MRLM 182200Z 03016KT 9999 FEW015 OVC080 25/22 A2990 RMK DZ DST NE E HZ ARND=
200812182300 METAR MRLM 182300Z 35016KT 9999 FEW020 OVC080 26/20 A2992 RMK DZ DST N NE E HZ ARND=
200812190000 METAR MRLM NIL=
200812190100 METAR MRLM NIL=
200812190200 METAR MRLM NIL=
200812190300 METAR MRLM NIL=
200812190400 METAR MRLM NIL=
200812190500 METAR MRLM NIL=
200812190600 METAR MRLM NIL=
200812190700 METAR MRLM NIL=
200812190800 METAR MRLM NIL=
200812190900 METAR MRLM NIL=
200812191000 METAR MRLM NIL=
200812191100 METAR MRLM NIL=
200812191200 METAR MRLM NIL=
200812191300 METAR MRLM 191300Z 22004KT 9999 SCT015 SCT080 23/21 A2998 RMK SCT090 DZ DST NE E RN DST NE HZ LGT ARND=
200812191400 METAR MRLM 191400Z 28003KT 9999 FEW020 BKN080 24/21 A3001 RMK DZ DST S W NW HZ LGT ARND=
200812191500 METAR MRLM 191500Z 21005KT 9999 FEW020 BKN080 26/21 A3000 RMK HZ ARND=
200812191600 METAR MRLM 191600Z 28002KT 9999 FEW035 SCT080 29/21 A3000 RMK HZ SE=
200812191700 METAR MRLM 191700Z 02006KT 9999 FEW025 BKN090 28/21 A2996 RMK DZ DST E HZ ARND=
200812191800 METAR MRLM 191800Z 01007KT 9999 FEW030 BKN080 29/23 A2993 RMK HZ ARND=
200812191900 METAR MRLM 191900Z 36008KT 9999 FEW030 OVC080 29/22 A2990 RMK HZ ARND=
200812192000 METAR MRLM 192000Z 34010KT 9999 FEW030 OVC080 28/22 A2998 RMK HZ ARND=
200812192100 METAR MRLM 192100Z 05008KT 9999 FEW025 OVC080 28/22 A2988 RMK DZ SW RN ARND=
200812192200 METAR MRLM 192200Z 3208KT 9999 FEW025 OVC080 28/22 A2988 RMK RN DST N HZ ARND=
200812192300 METAR MRLM 192300Z 26003KT 9999 FEW020 OVC080 27/22 A2990 RMK HZ ARND=
200812192358 METAR MRLM 200000Z NIL=
200812200000 METAR MRLM NIL=
200812200100 METAR MRLM 200100Z NIL=
200812200200 METAR MRLM 200200Z NIL=
200812200300 METAR MRLM NIL=
200812200400 METAR MRLM NIL=
200812200500 METAR MRLM NIL=
200812200600 METAR MRLM NIL=
200812200700 METAR MRLM NIL=
200812200800 METAR MRLM NIL=
200812200900 METAR MRLM NIL=
200812201000 METAR MRLM NIL=
200812201100 METAR MRLM NIL=
200812201200 METAR MRLM 201200Z NIL=
200812201300 METAR MRLM 201300Z NIL=
200812201400 METAR MRLM 201400Z 21005KT 9999 FEW015 BKN090 26/22 A2998 RMK RN DST SE HZ LGT ARND=
200812201500 METAR MRLM 201500Z 08015KT 9999 FEW030 22/15 A3004 RMK VEL MAX WIND 20 KTS POLVO PISTA 09 RN N=
200812201600 METAR MRLM 201600Z 18003KT 9999 BKN035 SCT090 29/21 A2997 RMK DZ NE SE HZ LGT ARND=
200812201700 METAR MRLM 201700Z 10005KT 9999 SCT035 BKN090 28/21 A2995 RMK FEW070 RN DST SE S HZ LGT ARND=
200812201800 METAR MRLM 201800Z 16006KT 9999 FEW035 BKN110 29/22 A2992 RMK TCU DST N HZ LGT SE=
200812201900 METAR MRLM 201900Z 14005KT 9999 FEW045 SCT110 30/20 A2989 RMK RN DST N=
200812202000 METAR MRLM 202000Z 06006KT 9999 FEW045 30/20 A2987 RMK RN DST N FEW110 HZ SE=
200812202100 METAR MRLM 202100Z 36016KT 9999 FEW035 SCT110 27/21 A2986 RMK RN DST NE HZ ARND=
200812202200 METAR MRLM 202200Z NIL=
200812202300 METAR MRLM 202300Z NIL=
200812210000 METAR MRLM NIL=
200812210100 METAR MRLM NIL=
200812210200 METAR MRLM NIL=
200812210300 METAR MRLM NIL=
200812210400 METAR MRLM NIL=
200812210500 METAR MRLM NIL=
200812210600 METAR MRLM NIL=
200812210700 METAR MRLM NIL=
200812210800 METAR MRLM NIL=
200812210900 METAR MRLM NIL=
200812211000 METAR MRLM NIL=
200812211100 METAR MRLM NIL=
200812211200 METAR MRLM NIL=
200812211300 METAR MRLM 211300Z 23004KT 9999 FEW035 BKN090 22/19 A2991 RMK RN DST N NE E FEW120=
200812211400 METAR MRLM 211400Z 21007KT 9999 FEW020 SCT080 23/20 A2995 RMK SCT110 RN DST NE E DZ N=
200812211500 METAR MRLM 211500Z 00000KT 9999 BKN025 25/20 A2997 RMK FEW090 DZ N NE E HZY=
200812211600 METAR MRLM 211600Z 00000KT 999 FEW035 BKN080 27/21 A2995 RMK DZ N HZ SE=
200812211700 METAR MRLM 211700Z 02006KT 9999 FEW035 BKN070 27/20 A2992 RMK FEW150 TCU DST NE HZ SE=
200812211800 METAR MRLM 211800Z 31010KT 9999 FEW030 SCT070 28/22 A2988 RMK TCU DST N NE HZ SW=
200812211900 METAR MRLM 211900Z 34010KT 9999 FEW032 SCT080 29/22 A2985 RMK TCU DST N NE HZ SE=
200812212000 METAR MRLM 212000Z 32013KT 9999 FEW032 28/22 A2983 RMK FEW100 TCU DST N HZ SE=
200812212100 METAR MRLM 212100Z 31011KT 9999 FEW030 28/22 A2984 RMK TCU DIST NW/ FEW080/ BR SE=
200812212200 METAR MRLM 212200Z NIL=
200812212300 METAR MRLM 212300Z NIL=
200812220000 METAR MRLM 220000Z NIL=
200812220100 METAR MRLM NIL=
200812220200 METAR MRLM NIL=
200812220300 METAR MRLM NIL=
200812220400 METAR MRLM NIL=
200812220500 METAR MRLM NIL=
200812220600 METAR MRLM NIL=
200812220700 METAR MRLM NIL=
200812220800 METAR MRLM NIL=
200812220900 METAR MRLM NIL=
200812221000 METAR MRLM NIL=
200812221100 METAR MRLM NIL=
200812221200 METAR MRLM 221200Z NIL=
200812221300 METAR MRLM 221300Z 25002KT 9999 SCT040 SCT080 23/20 A2995 RN N NE=
200812221400 METAR MRLM 221400Z 29003KT 9999 FEW040 BKN080 25/21 A2987 TCU N NE RN NE=
200812221500 METAR MRLM 221500Z 02004KT CAVOK 27/21 A2998 TRAZAS CU AS SCT080 SCT110=
200812221600 METAR MRLM 221600Z 30006KT CAVOK 29/20 A2997 TRAZAS CU FEW070 FEW090 TCU N NE=
200812221700 METAR MRLM 221700Z 32009KT 9999 SCT040 SCT070 29/20 A2996 FEW140 TCU RN N NE=
200812221800 METAR MRLM 221800Z 33013KT 9999 SCT030 SCT090 28/22 A2995=
200812221900 METAR MRLM 221900Z 31007KT 9999 FEW035 BKN080 29/22 A2991 TCU S SW W N=
200812222000 METAR MRLM 222000Z 09008KT 9999 FEW035 SCT080 28/22 A2989 TCU S=
200812222100 METAR MRLM 222100Z 33008KT 9999 FEW035 SCT090 29/22 A2989 RMK RN DST SW=
200812222200 METAR MRLM 222200Z 30010KT 9999 SCT025 27/22 A2989 RMK FEW080 RN SW=
200812222300 METAR MRLM 222300Z 31009KT 9999 OVC020 27/22 A2992 RMK TRACE AC RN DST S SW W=
200812230000 METAR MRLM NIL=
200812230100 METAR MRLM NIL=
200812230200 METAR MRLM NIL=
200812230300 METAR MRLM NIL=
200812230400 METAR MRLM NIL=
200812230500 METAR MRLM NIL=
200812230600 METAR MRLM NIL=
200812230700 METAR MRLM NIL=
200812230800 METAR MRLM NIL=
200812230900 METAR MRLM NIL=
200812231000 METAR MRLM NIL=
200812231100 METAR MRLM NIL=
200812231200 METAR MRLM NIL=
200812231300 METAR MRLM 231300Z 00000KT CAVOK 23/20 A2997 RMK SCT110 HZ LGT ARND TRACE CU=
200812231400 METAR MRLM 231400Z 19003KT CAVOK 26/21 A2999 RMK FEW120 HZ LGT SE=
200812231500 METAR MRLM 231500Z 05004KT CAVOK 27/21 A2999 RMK TRACE CU TCU DST N E HZ SE FEW110=
200812231600 METAR MRLM 231600Z 03004KT 9999 FEW030 SCT100 27/22 A3000 RMK HZ SE=
200812231700 METAR MRLM 231700Z 04003KT 9999 FEW030 BKN090 28/21 A2998 RMK HZ SE=
200812231800 METAR MRLM 231800Z 03003KT 9999 FEW035 SCT110 28/22 A2995 RMK HZ SE=
200812231900 METAR MRLM 231900Z 01006KT 9999 FEW030 FEW100 28/22 A2992 RMK HZ SE=
200812232000 METAR MRLM 232000Z 36007KT 9999 FEW030 29/22 A2990 RMK FEW120 HZ SE=
200812232100 METAR MRLM 232100Z 36007KT 9999 FEW030 29/23 A2989 RMK FEW120 HZ SE=
200812232200 METAR MRLM 232200Z 02004KT 9999 FEW030 SCT110 29/22 A2989 RMK HZ SE=
200812232300 METAR MRLM 232300Z 08009KT 9999 FEW020 BKN090 27/23 A2990 RMK HZ SE=
200812240000 METAR MRLM NIL=
200812240100 METAR MRLM NIL=
200812240200 METAR MRLM NIL=
200812240400 METAR MRLM NIL=
200812240500 METAR MRLM NIL=
200812240600 METAR MRLM NIL=
200812240700 METAR MRLM NIL=
200812240800 METAR MRLM NIL=
200812240900 METAR MRLM NIL=
200812241000 METAR MRLM NIL=
200812241100 METAR MRLM NIL=
200812241200 METAR MRLM NIL=
200812241300 METAR MRLM 241300Z 19003KT 9999 FEW020 BKN090 23/21 A2997 RMK TRACE ST RN HZ ARND=
200812241400 METAR MRLM 241400Z 21005KT 9999 FEW025 SCT090 24/22 A2999 RMK RN DST E SW W HZ LRVE ARND=
200812241500 METAR MRLM 241500Z 20007KT 9999 FEW025 BKN080 26/22 A2999 RMK VIS 8000 SE RN DZ DST ESW HZ ARND=
200812241600 METAR MRLM 241600Z 20005KT 9999 FEW028 BKN080 28/23 A2999 RMK RN DST SW E SE DZ DST NE HZ ARND=
200812241700 METAR MRLM 241700Z 21004KT 9999 FEW025 BKN080 30/22 A2997 RMK FEW070 RN DST SE S HZ ARND=
200812241800 METAR MRLM 241800Z 07003KT 9999 FEW035 BKN070 29/22 A2995 RMK FEW090 DZ DST NE E HZ ARND=
200812241900 METAR MRLM 241900Z 12007KT 9999 DZ FEW020 BKN070 27/23 A2993 RMK FEW090 DZ DST SE S SW W HZ ARND=
200812242000 METAR MRLM 242000Z 09003KT 9999 FEW030 SCT090 29/27 A2990 REDZ RMK TCU DST N HZ SE=
200812242100 METAR MRLM 242100Z 06003KT 9999 FEW025 SCT120 28/23 A2989 RMK TRAZAS CI HZ ARND=
200812242200 METAR MRLM 242200Z 09003KT 9999 FEW030 SCT110 28/23 A2989 RMK HZ SE=
200812242300 METAR MRLM 242300Z 06002KT 9999 FEW030 BKN010 29/22 A2990 RMK DZ N E SE HZ ARND=
200812242350 METAR MRLM 250000Z NIL=
200812250000 METAR MRLM NIL=
200812250100 METAR MRLM NIL=
200812250200 METAR MRLM NIL=
200812250300 METAR MRLM NIL=
200812250400 METAR MRLM NIL=
200812250500 METAR MRLM NIL=
200812250600 METAR MRLM NIL=
200812250700 METAR MRLM NIL=
200812250800 METAR MRLM NIL=
200812250900 METAR MRLM NIL=
200812251000 METAR MRLM NIL=
200812251100 METAR MRLM NIL=
200812251200 METAR MRLM NIL=
200812251300 METAR MRLM 251300Z 23003KT 9999 FEW020 BKN080 23/22 A2996 RMK TRAZAS CI RN DST NW N NE=
200812251400 METAR MRLM NIL=
200812251500 METAR MRLM 251500Z 20006KT 9999 FEW005 BKN080 25/23 A2999 RERA RMK FEW020 TRAZAS CI RN SE S SW W HZ ARND=
200812251600 METAR MRLM 251600Z 20006KT 9999 FEW025 SCT080 28/23 A2998 RMK HZ ARND=
200812251700 METAR MRLM 251700Z 19004KT 9999 FEW035 30/22 A2995 RMK TRACES AC CI HZ LGT ARND=
200812251800 METAR MRLM 251800Z 07003KT 9999 FEW040 30/22 A2991 RMK FEW090 TCU N NE CB DST NE HZ ARND=
200812251900 METAR MRLM 251900Z 04007KT 9999 FEW030 BKN090 30/23 A2988 HZ ARND DZ NE TRACE CI=
200812252000 METAR MRLM 252000Z 03013KT 9999 FEW025 OVC080 28/23 A2986 RERA RMK HZ ARND DZ NW N NE=
200812252100 METAR MRLM 252100Z 03017KT 9999 +DZ FEW015 OVC090 27/24 A2985 RMK VIS N NE 8000MTS HZ ARND=
200812252200 METAR MRLM 252200Z 05007KT 9999 FEW015 OVC080 26/23 A2986 RMK DZ NE E HZ ARND=
200812252300 METAR MRLM 252300Z 23003KT 9999 DZ FEW015 OVC080 26/23 A2988 RMK DZ N NE E NW HZ ARND=
200812260000 METAR MRLM NIL=
200812260100 METAR MRLM NIL=
200812260200 METAR MRLM NIL=
200812260300 METAR MRLM NIL=
200812260400 METAR MRLM NIL=
200812260500 METAR MRLM NIL=
200812260600 METAR MRLM NIL=
200812260700 METAR MRLM NIL=
200812260800 METAR MRLM NIL=
200812260900 METAR MRLM NIL=
200812261000 METAR MRLM NIL=
200812261100 METAR MRLM NIL=
200812261200 METAR MRLM NIL=
200812261300 METAR MRLM 261300Z 17004KT 8000 DZ VCSH BKN015 24/23 A2994 RMK TRACE ST FEW 110 RN S SW W NW HZ ARND=
200812261400 METAR MRLM 261400Z 19006KT 9999 +DZ FEW015 25/23 A2995 RMK TRACE ST FEW090 VIS NW N NE E 3000MTS HZ ARND=
200812261500 METAR MRLM 261500Z 08006KT 8000 DZ VCSH BKN015 26/23 A2997 RMK FEW090 VIS E UNL HZ ARND=
200812261600 METAR MRLM 261600Z 17005KT 9999 DZ OVC018 27/24 A2997 RMK TRACE ST AC AS HZ ARND=
200812261700 METAR MRLM 261700Z 10004KT 9999 +DZ BKN015TCU 26/24 A2996 RERA RMK FEW110 VIS S SE SW W 8000MTS TRACE ST=
200812261800 METAR MRLM 261800Z 10003KT 8000 HZ BKN015 SCT090 29/24 A2994 RMK VIS SE 5000 DUE HZ VIS SW W UNL=
200812261900 METAR MRLM 261900Z 06007KT 9999 BKN025 SCT110 27/22 A2991 RERA RMK VIS S SW W 8000MTS HZ ARND=
200812262000 METAR MRLM 262000Z 10003KT 8000 SCT025 BKN090 29/23 A2990 RMK HZ ARND=
200812262100 METAR MRLM 262100Z 11005KT 8000 FEW025 BKN090 29/24 A2988 VSBY SE NW 5KM DUE HZ VSBY S SW W UNL=
200812262200 METAR MRLM 262200Z 10004KT 8000 FEW025 BKN100 28/23 A2988 VSBY SE NW 5KM DUE HZ VSBY S SW W UNL=
200812262300 METAR MRLM 262300Z 11003KT 8000 FEW020 BKN090 28/24 A2984 VSBY NE N E 4KM DUE HZ=
200812270000 METAR MRLM NIL=
200812270100 METAR MRLM NIL=
200812270200 METAR MRLM NIL=
200812270300 METAR MRLM NIL=
200812270400 METAR MRLM NIL=
200812270500 METAR MRLM NIL=
200812270600 METAR MRLM NIL=
200812270700 METAR MRLM NIL=
200812270800 METAR MRLM NIL=
200812270900 METAR MRLM NIL=
200812271000 METAR MRLM NIL=
200812271100 METAR MRLM NIL=
200812271200 METAR MRLM 271200Z NIL=
200812271300 METAR MRLM 271300Z 24004KT 8000 RA FEW005 BKN015 22/21 A2994 FEW090 VSBY NW N NE UNL=
200812271400 METAR MRLM 271400Z 23005KT 9999 SCT015 SCT090 25/22 A2997 RERA FEW280 RN SE S HZY=
200812271500 METAR MRLM 271500Z 16006KT 9999 FEW022 26/21 A2998 FEW110 FEW280 HZY=
200812271600 METAR MRLM 271600Z 17006KT CAVOK 28/21 A2996 TRACE CU BKN080 FEW280 HZY=
200812271700 METAR MRLM 271700Z 10004KT CAVOK 29/22 A2994 TRACE CU FEW120 SCT280 HZY=
200812271800 METAR MRLM 271800Z 08007KT 9999 FEW040 BKN120 30/22 A2992 VSBY SE 8KM DUE HZ=
200812271900 METAR MRLM 271900Z 09006KT 9999 FEW035 SCT120 29/22 A2988 SCT280=
200812272000 METAR MRLM 272000Z 08006KT CAVOK 29/22 A2985 TRAZAS SCT OVC280=
200812272100 METAR MRLM 272100Z 07008KT CAVOK 29/22 A2983 RMK TRACE CU OVC280 HZ LGT ARND=
200812272200 METAR MRLM 272200Z NIL=
200812272300 METAR MRLM 272300Z NIL=
200812280000 METAR MRLM 280000Z NIL=
200812280100 METAR MRLM NIL=
200812280200 METAR MRLM NIL=
200812280300 METAR MRLM NIL=
200812280400 METAR MRLM NIL=
200812280500 METAR MRLM NIL=
200812280600 METAR MRLM NIL=
200812280700 METAR MRLM NIL=
200812280800 METAR MRLM NIL=
200812280900 METAR MRLM NIL=
200812281000 METAR MRLM NIL=
200812281100 METAR MRLM NIL=
200812281200 METAR MRLM NIL=
200812281300 METAR MRLM 281300Z 23002KT CAVOK 22/21 A2992 RMK TRACE AC SCT300 HZ LGT ARND=
200812281400 METAR MRLM 281400Z 00000KT CAVOK 24/21 A2994 RMK TRACE CI BKN090 HZ LGT ARND=
200812281500 METAR MRLM 281500Z 05005KT CAVOK 27/21 A2995 RMK TRACE CI SCT090 HZ LGT ARND=
200812281600 METAR MRLM 281600Z 04005KT CAVOK 27/22 A2994 RMK BKN100 HZ LGT ARND=
200812281700 METAR MRLM 281700Z 02003KT CAVOK 28/23 A2992 RMK TRACE CU CI HZ LGT ARND=
200812281800 METAR MRLM 281800Z 03006KT CAVOK 29/22 A2990 RMK TRACE CU CI HZ LGT ARND=
200812281900 METAR MRLM 281900Z 04004KT 9999 FEW032 BKN090 29/22 A2988 RMK HZ LGT ARND=
200812282000 METAR MRLM 282000Z 06004KT 9999 FEW028 BKN080 28/22 A2986 RMK HZ LGT ARND=
200812282100 METAR MRLM 282100Z 00000KT 9999 FEW025 BKN090 28/22 A2985 HZ LGT ARND=
200812282200 METAR MRLM 282200Z NIL=
200812282300 METAR MRLM 282300Z NIL=
200812290000 METAR MRLM NIL=
200812290100 METAR MRLM NIL=
200812290200 METAR MRLM NIL=
200812290300 METAR MRLM NIL=
200812290400 METAR MRLM NIL=
200812290500 METAR MRLM NIL=
200812290600 METAR MRLM NIL=
200812290700 METAR MRLM NIL=
200812290800 METAR MRLM NIL=
200812290900 METAR MRLM NIL=
200812291000 METAR MRLM NIL=
200812291100 METAR MRLM NIL=
200812291200 METAR MRLM NIL=
200812291300 METAR MRLM 291300Z 19006KT 9999 FEW015 OVC090 23/20 A2996 RMK DZ DST S W NWHZ LGT ARND=
200812291400 METAR MRLM 291400Z 20005KT CAVOK 25/21 A2998 RMK OVC090 HZ ARND=
200812291500 METAR MRLM 291500Z 19004KT CAVOK 27/21 A2998 RMK TRACE CU BKN120 HZ ARND=
200812291600 METAR MRLM 291600Z 10005KT CAVOK 29/21 A2998 RMK FEW130 HZ ARND=
200812291700 METAR MRLM 291700Z 10005KT CAVOK 30/21 A2995 RMK TRACE CU SCT130 HZ ARND=
200812291800 METAR MRLM 291800Z 04006KT 9999 FEW040 SCT130 29/21 A2994 RMK HZ SE=
200812291900 METAR MRLM 291900Z 05006KT 9999 FEW040 30/21 A2991 RMK FEW130 TRACE CI HZ SE=
200812292000 METAR MRLM 292000Z 04006KT 9999 FEW040 29/21 A2989 RMK TRACE AC HZ LGT SE=
200812292100 METAR MRLM 292100Z 04006KT 9999 FEW040 29/21 A2987 RMK TRACES AC HZ LGT ARND CB DST NW=
200812292200 METAR MRLM 292200Z 04006KT 9999 NSC 29/21 A2988 RMK TRACE CU AC HZ SE=
200812292300 METAR MRLM 292300Z 09003KT 9999 NSC 28/22 A2989 RMK TRACE CU AC HZ SE=
200812292352 METAR MRLM 300000Z NIL=
200812300000 METAR MRLM NIL=
200812300100 METAR MRLM NIL=
200812300200 METAR MRLM NIL=
200812300300 METAR MRLM NIL=
200812300400 METAR MRLM NIL=
200812300500 METAR MRLM NIL=
200812300600 METAR MRLM NIL=
200812300700 METAR MRLM NIL=
200812300800 METAR MRLM NIL=
200812300900 METAR MRLM NIL=
200812301000 METAR MRLM NIL=
200812301100 METAR MRLM NIL=
200812301200 METAR MRLM NIL=
200812301300 METAR MRLM 301300Z 23002KT 9999 BKN025 22/20 A2994 RMK FEW080 DZ DS S SW HZ LG ARND=
200812301400 METAR MRLM 301400Z 26005KT 9999 FEW025 BKN120 26/19 A2995 RMK HZ ARND=
200812301500 METAR MRLM 301500Z NIL=
200812301600 METAR MRLM 301600Z 02003KT 9999 DZ BKN030 26/21 A2998 RMK FEW090 HZ ARND=
200812301700 METAR MRLM 301700Z 17003KT 9999 FEW020 BKN110 26/22 A2996 REDZ RMK FEW080 DZ S SW E=
200812301800 METAR MRLM 301800Z 14006KT 9999 FEW025 BKN090 28/22 A2992 RMK HZ ARND=
200812301900 METAR MRLM 301900Z 10005KT CAVOK 22/28 A2988 RMK TRAZAS CU HZ FEW130=
200812302000 METAR MRLM 302000Z 09009KT CAVOK 30/21 A2986 RMK SCT090 TRACE CU HZ ARND=
200812302100 METAR MRLM 302100Z 08008KT CAVOK 29/22 A2985 RMK BKN110 TRACE CU HZ ARND=
200812302200 METAR MRLM 302200Z 05007KT CAVOK 29/22 A2985 RMK BKN100 TRACE CU ST HZ ARND=
200812302300 METAR MRLM 302300Z 02010KT CAVOK 27/23 A2987 RMK TRACE CU OVC090 HZ ARND=
200812310000 METAR MRLM NIL=
200812310100 METAR MRLM NIL=
200812310200 METAR MRLM NIL=
200812310300 METAR MRLM NIL=
200812310400 METAR MRLM NIL=
200812310500 METAR MRLM NIL=
200812310600 METAR MRLM NIL=
200812310700 METAR MRLM NIL=
200812310800 METAR MRLM NIL=
200812310900 METAR MRLM NIL=
200812311000 METAR MRLM NIL=
200812311100 METAR MRLM NIL=
200812311200 METAR MRLM 311200Z 32005KT CAVOK 28/20 A2995 RMK TRACE CU FEW130 FEW300 TCU NE HZ ARND=
200812311300 METAR MRLM 311300Z 21003KT CAVOK 23/21 A2994 RMK BKN090 HZ SE=
200812311400 METAR MRLM 311400Z 25003KT CAVOK 25/21 A2996 RMK TRACE SC BKN110 FEW300 HZ SE=
200812311500 METAR MRLM 311500Z 25003KT CAVOK 27/20 A2996 RMK FEW120 SCT300 TRACE CU TCU NE HZ ARND=
200812311600 METAR MRLM 311600Z 32005KT CAVOK 28/20 A2995 RMK TRACE CU FEW130 FEW300 TCU NE HZ ARND=
200812311700 METAR MRLM 311700Z 02007KT 9999 FEW035 SCT130 28/21 A2993 RMK TRACE CC TCU RN DST N NE=
200812311800 METAR MRLM 311800Z 02015KT 9999 SCT030 SCT100 29/22 A2993 RMK RN N E NW HZ ARND=
200812311900 METAR MRLM 311900Z 36013KT 9999 FEW020 BKN110 26722 A2991 RMK DZ N HZ ARND=
200812312000 METAR MRLM 312000Z 30003KT 9999 FEW035 SCT090 28/20 A2988 RMK FEW100 DZ N NE HZ SE=
200812312100 METAR MRLM 312100Z 33004KT 9999 FEW035 BKN090 27/20 A2987 DZ N HZ SE=
200812312200 METAR MRLM 312200Z 28004KT 9999 FEW035 BKN090 28/21 A2987 DZ N HZY=
200812312300 METAR MRLM 312300Z 23005KT CAVOK 26/21 A2988 OVC080 TRAZAS CU DZ N NE HZY=
