200901010000 METAR MRLM NIL=
200901010100 METAR MRLM NIL=
200901010200 METAR MRLM NIL=
200901010300 METAR MRLM NIL=
200901010400 METAR MRLM NIL=
200901010500 METAR MRLM NIL=
200901010600 METAR MRLM NIL=
200901010700 METAR MRLM NIL=
200901010800 METAR MRLM NIL=
200901010900 METAR MRLM NIL=
200901011000 METAR MRLM NIL=
200901011100 METAR MRLM NIL=
200901011200 METAR MRLM 011200Z NIL=
200901011300 METAR MRLM 011300Z 13005KT 5000 +DZ FEW005 BKN015 22/21 A2997 FEW090=
200901011400 METAR MRLM 011400Z 19005KT 4000 RA BKN015 SCT090 22/21 A2992 HZY=
200901011500 METAR MRLM 011500Z 20007KT 8000 +DZ BKN015 SCT090 22/21 A2998 VSBY NE E UNL=
200901011600 METAR MRLM 011600Z 22007KT 9999 DZ FEW015 SCT080 23/21 A2997 SCT100=
200901011700 METAR MRLM 011700Z 22003KT 4000 +DZ BKN015 23/22 A2997 FEW090=
200901011800 METAR MRLM 011800Z 19004KT 4000 DZ SCT005 SCT015 23/21 A2995 FEW090=
200901011900 METAR MRLM 011900Z 17003KT 5000 -DZ SCT005 SCT090 23/22 A2992 HZY=
200901012000 METAR MRLM 012000Z 21005KT CAVOK 24/21 A2987 REDZ BKN090 FEW120 DZ SW W=
200901012100 METAR MRLM NIL=
200901012200 METAR MRLM 012200Z 20003KT CAVOK 27/22 A2985 BKN080 SCT100 HZ ARND=
200901012300 METAR MRLM 012300Z 23003KT CAVOK 25/22 A2986 BKN080 FEW110 HZ ARND=
200901020000 METAR MRLM NIL=
200901020100 METAR MRLM NIL=
200901020200 METAR MRLM NIL=
200901020300 METAR MRLM NIL=
200901020400 METAR MRLM NIL=
200901020500 METAR MRLM NIL=
200901020600 METAR MRLM NIL=
200901020700 METAR MRLM NIL=
200901020800 METAR MRLM NIL=
200901020900 METAR MRLM NIL=
200901021000 METAR MRLM NIL=
200901021100 METAR MRLM NIL=
200901021200 METAR MRLM NIL=
200901021300 METAR MRLM 021300Z 20003KT CAVOK 23/20 A2991 TRAZAS SCT BKN090 RN DST E DZ SE=
200901021400 METAR MRLM 021400Z 21003KT CAVOK 25/20 A2993 SCT080 SCT110 RN DST E=
200901021500 METAR MRLM 021500Z 22002KT 9999 FEW025 BKN090 26/21 A2984 RN DST E HZ SE=
200901021600 METAR MRLM 021600Z 00000KT 9999 FEW035 BKN080 29/21 A2993 RN E HZ SE=
200901021700 METAR MRLM 021700Z 06012KT 9999 BKN025 26/21 A2992 FEW080 DZ N/E=
200901021720 METAR MRLM 021720Z 03006KT 9999 DZ VCSH FEW020 BKN100 27/22 A2991 VIS 4KMS DUE RN NW=
200901021800 METAR MRLM 021800Z 26002KT 9999 FEW030 BKN100 28/22 A2989 REDZ DZ NW/S TCU/ RN DST N/NE HZ SE=
200901021900 METAR MRLM 021900Z 07006KT CAVOK 27/22 A2986 BKN090 FEW120 HZ SE TRAZAS CU=
200901022000 METAR MRLM 022000Z 08005KT 9999 FEW030 SCT100 28/22 A2984 FEW140 HZ SE=
200901022100 METAR MRLM 022100Z 06005KT 9999 FEW035 SCT120 28/21 A2983 RMK HZ SE=
200901022200 METAR MRLM 022200Z 05004KT 9999 FEW030 28/22 A2983 RMK TRACE AC HZ SE=
200901022300 METAR MRLM 022300Z 06004KT 9999 FEW010 27/22 A2985 RMK TRACE CU HZ SE=
200901030000 METAR MRLM NIL=
200901030100 METAR MRLM NIL=
200901030200 METAR MRLM NIL=
200901030300 METAR MRLM NIL=
200901030400 METAR MRLM NIL=
200901030500 METAR MRLM NIL=
200901030600 METAR MRLM NIL=
200901030700 METAR MRLM NIL=
200901030800 METAR MRLM NIL=
200901030900 METAR MRLM NIL=
200901031000 METAR MRLM NIL=
200901031100 METAR MRLM NIL=
200901031200 METAR MRLM 031200Z NIL=
200901031300 METAR MRLM 031300Z 30002KT 9999 FEW015 BKN080 21/20 A2992 RMK RN DST QUAD E=
200901031400 METAR MRLM 031400Z 12004KT 9999 DZ FEW015 SCT080 BKN100 23/20 A2995 RMK VIS 8000SE RA HZ=
200901031500 METAR MRLM 031500Z 19006KT 9999 FEW015 SCT080 BKN110 25/22 A2995 REDZ RMK DZ DST QUAD E S=
200901031600 METAR MRLM 031600Z 21004KT 9999 SCT040 BKN090 26/22 A2993 RMK DZ DST S W NW N NE=
200901031700 METAR MRLM 031700Z 35003KT 9999 FEW030 BKN090 28/21 A2992 RMK DZ DST NW HZ SE=
200901031800 METAR MRLM 031800Z 36004KT 9999 FEW032 SCT080 28/22 A2988 RMK SCT120 HZ LGT ARND=
200901031900 METAR MRLM 031900Z 01005KT 9999 FEW030 SCT120 29/23 A2986 RMK HZ LGT ARND=
200901032000 METAR MRLM 032000Z 36004KT 9999 FEW035 29/22 A2984 RMK FEW090 TRACE CI TCU DST NE HZ SE=
200901032100 METAR MRLM 032100Z 02003KT 9999 FEW032 BKN080 29/23 A2982 RMK TRACE CI HZ LGT ARND=
200901032200 METAR MRLM 032200Z NIL=
200901032300 METAR MRLM 032300Z NIL=
200901032359 METAR MRLM 040000Z NIL=
200901040000 METAR MRLM NIL=
200901040100 METAR MRLM NIL=
200901040200 METAR MRLM NIL=
200901040300 METAR MRLM NIL=
200901040400 METAR MRLM NIL=
200901040500 METAR MRLM NIL=
200901040600 METAR MRLM NIL=
200901040700 METAR MRLM NIL=
200901040800 METAR MRLM NIL=
200901040900 METAR MRLM NIL=
200901041000 METAR MRLM NIL=
200901041100 METAR MRLM NIL=
200901041200 METAR MRLM NIL=
200901041300 METAR MRLM 041300Z 20005KT 9999 FEW020 BKN080 23/22 A2994 RMK HZ ARND RN DST N NE=
200901041400 METAR MRLM 041400Z 22005KT CAVOK 26/23 A2995 RMK TRACE CU BKN090 HZ ARND=
200901041500 METAR MRLM 041500Z 05004KT 9999 FEW030 SCT090 29/22 A2996 RMK HZ ARND=
200901041600 METAR MRLM 041600Z 04004KT 9999 FEW030 BKN090 29/23 A2995 RMK HZ ARND=
200901041700 METAR MRLM 041700Z 02006KT 9999 FEW030 BKN090 29/23 A2994 RMK HZ LGT ARND=
200901041800 METAR MRLM 041800Z 36006KT 9999 FEW035 BKN090 30/23 A2992 RMK HZ LGT ARND=
200901041900 METAR MRLM 041900Z 36007KT 9999 FEW030 BKN110 30/23 A2989 RMK HZ LGT ARND=
200901042000 METAR MRLM 042000Z 36007KT 9999 FEW030 SCT110 29/24 A2987 RMK HZ LGT ARND=
200901042100 METAR MRLM 042100Z 36007KT 9999 SCT025 SCT130 29/24 A2987 RMK HZ ARND=
200901042200 METAR MRLM NIL=
200901042300 METAR MRLM NIL=
200901050000 METAR MRLM NIL=
200901050100 METAR MRLM NIL=
200901050200 METAR MRLM NIL=
200901050300 METAR MRLM NIL=
200901050400 METAR MRLM NIL=
200901050500 METAR MRLM NIL=
200901050600 METAR MRLM NIL=
200901050700 METAR MRLM NIL=
200901050800 METAR MRLM NIL=
200901050900 METAR MRLM NIL=
200901051000 METAR MRLM NIL=
200901051100 METAR MRLM NIL=
200901051200 METAR MRLM 051200Z NIL=
200901051300 METAR MRLM 051300Z 24004KT 9999 DZ BKN012 23/22 A2994 RMK FEW090 RN ARND=
200901051400 METAR MRLM 051400Z 24004KT 9999 OVC015 5/23 A2994 RMK RN ARND TRACE AC AS=
200901051500 METAR MRLM 051500Z 30006KT 3000 RA OVC015 25/23 A2997=
200901051600 METAR MRLM 051600Z 25004KT 8000 +DZ FEW005 OVC015 25/23 A2996=
200901051700 METAR MRLM 051700Z 17005KT 9999 BKN015 SCT090 27/24 A2993 REDZ RMK TCU RN N=
200901051800 METAR MRLM 051800Z 14004KT 9999 +DZ FEW010 OVC020 28/23 A2991 RMK RN N=
200901051900 METAR MRLM 051900Z 07002KT 9999 FEW030 BKN090 29/23 A2987 REDZ RMK TCU RN N=
200901052000 METAR MRLM 052000Z 15003KT 9999 FEW030 BKN090 30/23 A2984 RMK TCU RN DST N=
200901052100 METAR MRLM 052100Z 36006KT 9999 FEW020 SCT070 29/25 A2983 SCT110 TCU RN N HZ SE=
200901052200 METAR MRLM 052200Z 36005KT 9999 FEW020 BKN080 28/24 A2983 RN N NE HZ S=
200901052300 METAR MRLM 052300Z 02003KT 9999 SCT020 BKN090 28/24 A2985 RN SE HZY=
200901060000 METAR MRLM 060000Z NIL=
200901060100 METAR MRLM NIL=
200901060200 METAR MRLM NIL=
200901060300 METAR MRLM NIL=
200901060400 METAR MRLM NIL=
200901060500 METAR MRLM NIL=
200901060600 METAR MRLM NIL=
200901060700 METAR MRLM NIL=
200901060800 METAR MRLM NIL=
200901060900 METAR MRLM NIL=
200901061000 METAR MRLM NIL=
200901061100 METAR MRLM NIL=
200901061200 METAR MRLM 061200Z NIL=
200901061300 METAR MRLM 061300Z 22002KT 9999 BKN015 24/22 A2990 RN HZ ARND=
200901061400 METAR MRLM 061400Z 22004KT 9999 FEW010 BKN025 25/23 A2993 FEW080 RN E SE S HZY=
200901061500 METAR MRLM 061500Z 21005KT 9999 FEW020 BKN070 27/23 A2984 RN S N E HZY=
200901061600 METAR MRLM 061600Z 17002KT 9999 SCT030 BKN080 29/23 A2992 TCU RN N E HZY=
200901061700 METAR MRLM 061700Z 08007KT 9999 SCT015 SCT080 27/24 A2991 REDZ TCU RN N E HZY=
200901061800 METAR MRLM 061800Z 04005KT 9999 SCT020 SCT080 28/24 A2988 RN N HZY=
200901061900 METAR MRLM 061900Z 02007KT 9999 FEW020 BKN090 28/24 A2985 TCU RN S S HZY=
200901062000 METAR MRLM 062000Z 03004KT 9999 FEW020 BKN090 28/23 A2981 HZ SE=
200901062100 METAR MRLM 062100Z 04003KT 9999 FEW020 BKN270 28/23 A2982 RMK FEW080 HZ ARND=
200901062200 METAR MRLM 062200Z 08002KT 9999 FEW025 BKN270 29/23 A2982 RMK TRACE ST HZ ARND=
200901062300 METAR MRLM 062300Z 06003KT 9999 SCT020 BKN090 27/23 A2983 RMK TRACE CI HZ ARND=
200901070000 METAR MRLM 070000Z NIL=
200901070100 METAR MRLM NIL=
200901070200 METAR MRLM NIL=
200901070300 METAR MRLM NIL=
200901070400 METAR MRLM NIL=
200901070500 METAR MRLM NIL=
200901070600 METAR MRLM NIL=
200901070700 METAR MRLM NIL=
200901070800 METAR MRLM NIL=
200901070900 METAR MRLM NIL=
200901071000 METAR MRLM NIL=
200901071100 METAR MRLM NIL=
200901071200 METAR MRLM NIL=
200901071300 METAR MRLM 071300Z 21005KT CAVOK 23/22 A2988 RMK SCT080 BKN100 RN DST N E HZ ARND=
200901071400 METAR MRLM 071400Z 22004KT CAVOK 25/23 A2990 RMK SCT080 BKN100 RN DST BE E HZ LGT ARND=
200901071500 METAR MRLM 071500Z 26002KT CAVOK 27/23 A2992 RMK BKN080 FEW100 TRACE SC RN DST N NE=
200901071600 METAR MRLM 071600Z 03007KT 9999 RA BKN015 27/24 A2991 RMK FEW100 VIS 8000 DUE HZ=
200901071700 METAR MRLM 071700Z 04010KT 4000 RA BKN00 25/23 A2992 RMK FEW080=
200901071800 METAR MRLM 071800Z 36010KT 5000 RA FEW005 BKN010 24/23 A2990 RMK FEW080=
200901071900 METAR MRLM 071900Z 32007KT 9999 FEW010 SCT070 24/22 A2987 RERA RMK SCT090 RN HZ ARND=
200901072000 METAR MRLM 072000Z 27005KT 9999 FEW015 BKN080 25/20 A2985 RMK RN DST E TRACE SC HZ ARND=
200901072100 METAR MRLM 072100Z 30006KT 4000 +DZ BKN008 SCT080 24/22 A2984=
200901072200 METAR MRLM 072200Z 25006KT 3000 RA BKN007 SCT080 23/22 A2984=
200901072300 METAR MRLM 072300Z 25005KT 8000 +DZ BKN005 23/22 A2985 RMK FEW070=
200901080000 METAR MRLM NIL=
200901080100 METAR MRLM NIL=
200901080200 METAR MRLM NIL=
200901080300 METAR MRLM NIL=
200901080400 METAR MRLM NIL=
200901080500 METAR MRLM NIL=
200901080600 METAR MRLM NIL=
200901080700 METAR MRLM NIL=
200901080800 METAR MRLM NIL=
200901080900 METAR MRLM NIL=
200901081000 METAR MRLM NIL=
200901081100 METAR MRLM NIL=
200901081200 METAR MRLM 081200Z NIL=
200901081300 METAR MRLM 081300Z 00000KT 9999 FEW025 BKN080 22/21 A2989 RMK RN DST W NW N NE LGT HZ ARND=
200901081400 METAR MRLM 081400Z 24002KT 9999 FEW015 BKN080 24/22 A2991 RMK RN DST W NW SE HZ LGT ARND=
200901081500 METAR MRLM 081500Z 25003KT 9999 FEW015 BKN070 27/23 A2991 RMK DZ DST SW HZ ARND=
200901081600 METAR MRLM 081600Z 28004KT 9999 FEW020 BKN080 28/24 A2984 RMK HZ ARND=
200901081700 METAR MRLM 081700Z 24002KT 9999 FEW030 SCT090 27/23 A2988 RMK HZ ARND=
200901081800 METAR MRLM 081800Z 36005KT 9999 FEW035 BKN070 30/23 A2987 RMK HZ ARND=
200901081900 METAR MRLM NIL=
200901082000 METAR MRLM NIL=
200901082100 METAR MRLM NIL=
200901082200 METAR MRLM NIL=
200901082300 METAR MRLM NIL=
200901090000 METAR MRLM NIL=
200901090100 METAR MRLM NIL=
200901090200 METAR MRLM NIL=
200901090300 METAR MRLM NIL=
200901090400 METAR MRLM NIL=
200901090500 METAR MRLM NIL=
200901090600 METAR MRLM NIL=
200901090700 METAR MRLM NIL=
200901090800 METAR MRLM NIL=
200901090900 METAR MRLM NIL=
200901091000 METAR MRLM NIL=
200901091100 METAR MRLM NIL=
200901091200 METAR MRLM NIL=
200901091300 METAR MRLM 091300Z 20005KIT 9999 BKN015 23/22 A2994 RMK FEW110 HZ ARND RN DST S SW=
200901091400 METAR MRLM 091400Z 20006KT 9999 BKN015 SCT080 25/23 A2998 RMK DZ E SE HZ LGT ARND=
200901091500 METAR MRLM NIL=
200901091600 METAR MRLM 091600Z 10006KT 9999 SCT030 29/23 A2998 RMK TRACE AC HZ DENSA AL SE=
200901091700 METAR MRLM 091700Z 06004KT 9999 SCT030 29/23 A2997 RMK TRACE CI AC HZ SE=
200901091800 METAR MRLM 091800Z 06004KT 9999 FEW030 29/23 A2994 RMK FEW280 HZ ARND=
200901091900 METAR MRLM 091900Z 08004KT 9999 FEW035 30/23 A2990 RMK FEW280 TCU N HZ SE=
200901092000 METAR MRLM 092000Z 06007KT 9999 FEW035 30/22 A2987 RMK FEW280 TRACE AC HZ SE=
200901092100 METAR MRLM 092100Z 06007KT 9999 FEW030 SCT260 29/23 A2987 TRACE AC HZ=
200901092200 METAR MRLM 092200Z 05008KT 9999 FEW030 SCT260 29/23 A2987 RMK TRACE AC HZ ARND=
200901092300 METAR MRLM 092300Z 07003KT 9999 FEW025 SCT280 28/23 A2988 RMK TRACE AC HZ ARND=
200901100000 METAR MRLM NIL=
200901100100 METAR MRLM NIL=
200901100200 METAR MRLM NIL=
200901100300 METAR MRLM NIL=
200901100400 METAR MRLM NIL=
200901100500 METAR MRLM NIL=
200901100600 METAR MRLM NIL=
200901100700 METAR MRLM NIL=
200901100800 METAR MRLM NIL=
200901100900 METAR MRLM NIL=
200901101000 METAR MRLM NIL=
200901101100 METAR MRLM NIL=
200901101200 METAR MRLM NIL=
200901101300 METAR MRLM 34003KT CAVOK 23/21 A2977 RMK FEW140 SCT280 HZ ARND=
200901101400 METAR MRLM 101400Z 21004KT CAVOK 26/22 A2999 RMK TRACE CU FEW140 FEW280 HZ SE=
200901101500 METAR MRLM 101500Z 10003KT CAVOK 29/21 A2999 RMK TRACE CU FEW140 FEW280 HZ SE=
200901101600 METAR MRLM 101600Z 09004KT CAVOK 29/22 A2988 RMK TRACE CU FEW140 FEW280 HZ SE=
200901101700 METAR MRLM 101700Z 08006KT 9999 FEW035 29/22 A2996 RMK TCU N TRACE CI FEW14 0 HZ SE=
200901101800 METAR MRLM 101800Z 08006KT 9999 FEW035 BKN140 29/22 A2994 RMK HZ LEVE ARND=
200901101900 METAR MRLM 101900Z 07009KT 9999 FEW035 BKN130 29/22 A2991 RMK HZ SE TRACE CI=
200901102000 METAR MRLM 102000Z 06008KT 9999 FEW035 BKN110 29/22 A2988 RMK TRACE CI HZ SE=
200901102100 METAR MRLM 102100Z 04009KT 9999 FEW030 BKN130 29/22 A2987=
200901102200 METAR MRLM 102200Z 07004KT 9999 FEW035 SCT140 29/22 A2987=
200901102300 METAR MRLM 102300Z 07004KT 9999 FEW035 SCT140 29/22 A2987=
200901110000 METAR MRLM 110000Z NIL=
200901110100 METAR MRLM NIL=
200901110200 METAR MRLM NIL=
200901110300 METAR MRLM NIL=
200901110400 METAR MRLM NIL=
200901110500 METAR MRLM NIL=
200901110600 METAR MRLM NIL=
200901110700 METAR MRLM NIL=
200901110800 METAR MRLM NIL=
200901110900 METAR MRLM NIL=
200901111000 METAR MRLM NIL=
200901111100 METAR MRLM NIL=
200901111200 METAR MRLM 111200Z NIL=
200901111300 METAR MRLM 111300Z 00000KT CAVOK 24/21 A2993 RMK FEW140 BKN280 LGT HZ SE=
200901111400 METAR MRLM 111400Z 28002KT CAVOK 26/21 A2995 FEW140 BKN280=
200901111500 METAR MRLM 111500Z 02003KT CAVOK 28/22 A2996 BKN130 FEW280 RN E TRAZAS SCT=
200901111600 METAR MRLM 111600Z 08008KT CAVOK 28/22 A2996 TRAZAS CU OVC110 RN E=
200901111700 METAR MRLM 111700Z 10005KT CAVOK 27/22 A2995 TRAZAS CU BKN090 DZ E=
200901111800 METAR MRLM 111800Z 10008KT 9999 FEW025 SCT080 28/22 A2992 SCT110 RN E=
200901111900 METAR MRLM 111900Z 11009KT CAVOK 28/21 A2988 TRAZAS CU BKN080 DZ E=
200901112000 METAR MRLM 112000Z 05018KT 9999 FEW015 BKN080 26/23 A2986 DZ E SE=
200901112100 METAR MRLM 112100Z 14003KT CAVOK 27/22 A2984 RMK DZ SE S TRACE SC FEW070 BKN090=
200901112200 METAR MRLM 112200Z 05002KT CAVOK 28/22 A2983 RMK TRACE CU CI BKN080 HZ ARND=
200901112300 METAR MRLM 112300Z 00000KT CAVOK 27/22 A2985 RMK SCT080 SCT100 RN DST N=
200901120000 METAR MRLM 120000Z NIL=
200901120100 METAR MRLM NIL=
200901120200 METAR MRLM NIL=
200901120300 METAR MRLM NIL=
200901120400 METAR MRLM NIL=
200901120500 METAR MRLM NIL=
200901120600 METAR MRLM NIL=
200901120700 METAR MRLM NIL=
200901120800 METAR MRLM NIL=
200901120900 METAR MRLM NIL=
200901121000 METAR MRLM NIL=
200901121100 METAR MRLM NIL=
200901121200 METAR MRLM NIL=
200901121300 METAR MRLM 121300Z 25004KT 9999 SCT025 SCT080 23/20 A2992 RMK DZ HZ ARND=
200901121400 METAR MRLM 121400Z 22004KT 9999 FEW015 SCT080 24/21 A2994 RMK SCT270 RN DST S HZ LGT ARND=
200901121500 METAR MRLM 121500Z 18004KT 9999 FEW025 SCT090 26/22 A2995 RMK SCT270 DZ NE HZ ARND=
200901121600 METAR MRLM 121600Z 22002KT 9999 FEW035 BKN080 29/22 A2995 RMK TRACE CI DZ N NE E HZ ARND=
200901121700 METAR MRLM 121700Z 09002KT 9999 SCT030 BKN080 28/22 A2992 RMK TRACE CI HZ ARND=
200901121800 METAR MRLM 121800Z 03003KT 9999 FEW030 BKN080 28/22 A2989 RMK HZ ARND=
200901121900 METAR MRLM 121900Z 03005KT 9999 FEW030 BKN080 29/23 A2986 RMK TRACE CI HZ ARND=
200901122000 METAR MRLM 122000Z 02007KT 9999 FEW035 BKN110 29/22 A2983 RMK HZ ARND=
200901122100 METAR MRLM 122100Z 02006KT 9999 FEW035 30/22 A2982 RMK FEW100 FEW280 HZ SE=
200901122200 METAR MRLM 122200Z 02007KT 9999 FEW030 SCT110 28/23 A2982 RMK HZ ARND=
200901122300 METAR MRLM 122300Z 03005KT 9999 FEW030 SCT110 28/22 A2983 RMK TRACE CI HZ ARND=
200901130000 METAR MRLM NIL=
200901130100 METAR MRLM NIL=
200901130200 METAR MRLM NIL=
200901130300 METAR MRLM NIL=
200901130400 METAR MRLM NIL=
200901130500 METAR MRLM NIL=
200901130600 METAR MRLM NIL=
200901130700 METAR MRLM NIL=
200901130800 METAR MRLM NIL=
200901130900 METAR MRLM NIL=
200901131000 METAR MRLM NIL=
200901131100 METAR MRLM NIL=
200901131200 METAR MRLM NIL=
200901131300 METAR MRLM 131300Z 17004KT 5000 RA BKN020 23/21 A2993 RMK FEW090 VIS 8000 N NW S=
200901131400 METAR MRLM 131400Z 21005KT 9999 BKN020 SCT090 23/22 A2995 RERA RMK RN DST QUAD S W LGT HZ ARND=
200901131500 METAR MRLM 131500Z 20006KT CAVOK 25/22 A2996 RMK TRACE SC CI OVC090 DZ DST S SW HZ ARND=
200901131600 METAR MRLM 131600Z 20003KT CAVOK 29/22 A2995 RMK SCT090 SCT110 TRACE CI RN DST QUAD N HZ ARND=
200901131700 METAR MRLM 131700Z 06004KT 9999 FEW035 BKN080 29/22 A2994 RMK DZ DST QUAD N HZ ARND=
200901131800 METAR MRLM 131800Z 01006KT 9999 FEW030 BKN070 28/22 A2991 RMK DZ DST SW W HZ ARND SCT110=
200901131900 METAR MRLM 131900Z 02004KT 9999 FEW028 BKN090 28/23 A2989 RMK FEW110 HZ ARN D=
200901132000 METAR MRLM 132000Z 36002KT 9999 FEW030 SCT080 29/22 A2987 RMK SCT110 LGT HZ ARND=
200901132100 METAR MRLM 132100Z 34004KT 9999 FEW030 SCT080 29/23 A2986 RMK SCT110 HZ LGT ARND=
200901132200 METAR MRLM 132200Z 34005KT 9999 FEW030 SCT080 BKN110 28/22 A2983 RMK HZ LGT ARND=
200901132300 METAR MRLM 132300Z 32003KT 9999 FEW025 BKN100 28/22 A2988 RMK HZ LGT ARND=
200901132352 METAR MRLM 140000Z NIL=
200901140000 METAR MRLM NIL=
200901140100 METAR MRLM 140100Z NIL=
200901140200 METAR MRLM NIL=
200901140300 METAR MRLM NIL=
200901140400 METAR MRLM NIL=
200901140500 METAR MRLM NIL=
200901140600 METAR MRLM NIL=
200901140700 METAR MRLM NIL=
200901140800 METAR MRLM NIL=
200901140900 METAR MRLM NIL=
200901141000 METAR MRLM NIL=
200901141100 METAR MRLM NIL=
200901141200 METAR MRLM 141200Z NIL=
200901141300 METAR MRLM 141300Z 23004KT CAVOK 22/20 A2994 RMK SCT080 FEW280 RN DST N HZ LEVE ARND=
200901141400 METAR MRLM 141400Z 24003KT CAVOK 26/22 A2997 RMK SCT080 FEW280 HZ LGT ARND RN DST N NE=
200901141500 METAR MRLM 141500Z 26003KT CAVOK 28/22 A2997 RMK BKN090 FEW280 RN DST E HZ LGT ARND=
200901141600 METAR MRLM 141600Z 30002KT CAVOK 30/22 A2996 RMK TRACE CU CI OVC110 RN DST SE HZ LGT ARND=
200901141700 METAR MRLM 141700Z 34007KT 9999 FEW035 BKN090 29/22 A2995 RMK TRACE CI HZ LGT ARND=
200901141800 METAR MRLM 141800Z 35007KT 9999 FEW030 BKN080 29/22 A2993 HZ LGT ARND FEW280=
200901141900 METAR MRLM 141900Z 36006KT 9999 FEW035 SCT270 30/23 A2990 RMK FEW270 HZ LGT ARND=
200901142000 METAR MRLM 142000Z 35008KT 9999 FEW035 BKN280 30/23 A2988 FEW130 HZ LGT ARND=
200901142100 METAR MRLM 142100Z 35007KT 9999 FEW030 SCT110 BKN270 30/23 A2987 RK TCU RN NE HZ ARND=
200901142200 METAR MRLM 142200Z 36010KT 9999 FEW028 BKN090 28/23 A2988 RMK FEW270 RN NE E SE HZ ARND=
200901142300 METAR MRLM 142300Z 03010KT 9999 FEW018 BKN090 27/23 A2991 RMK DZ N NE FEW11 0 HZ ARND=
200901150000 METAR MRLM NIL=
200901150100 METAR MRLM NIL=
200901150200 METAR MRLM NIL=
200901150300 METAR MRLM NIL=
200901150400 METAR MRLM NIL=
200901150500 METAR MRLM NIL=
200901150600 METAR MRLM NIL=
200901150700 METAR MRLM NIL=
200901150800 METAR MRLM NIL=
200901150900 METAR MRLM NIL=
200901151000 METAR MRLM NIL=
200901151100 METAR MRLM NIL=
200901151200 METAR MRLM 151200Z 11010G20KT CAVOK 19/15 A3002 RMK TRACE SC BKN250 RN DST NNE=
200901151300 METAR MRLM 151300Z 21004KT 9999 SCT015 SCT090 23/21 A2996 RMK RN HZ ARND=
200901151400 METAR MRLM 151400Z 22003KT 9999 -DZ BKN015 SCT090 23/22 A2998=
200901151500 METAR MRLM 151500Z 14003KT 9999 BKN015 24/22 A3000 REDZ RMK RN HZ ARND=
200901151600 METAR MRLM 151600Z 31006KT 9999 DZ BKN012 24/23 A3000 RMK FEW090 RN W N HZ ARND=
200901151700 METAR MRLM 151700Z 22006KT 9999 FEW012 BKN080 25/22 A2998 REDZ RMK DZ W FEW 110=
200901151800 METAR MRLM 151800Z 19005KT 9999 BKN020 26/22 A2995 RMK SCT090 RN E S W HZ ARND=
200901151900 METAR MRLM 151900Z 19005KT 9999 BKN012 SCT090 25/23 A2994 RMK DZ S W HZ ARN D=
200901152000 METAR MRLM 152000Z 21006KT 9999 BKN015 26722 A2992 RMK FEW110 TRACE CI DZ S W=
200901152100 METAR MRLM 152100Z 21005KT 9999 FEW020 BKN090 26/22 A2990 FEW280 HZY=
200901152200 METAR MRLM 152200Z 22003KT 9999 FEW020 BKN110 27/23 A2990 HZY TCU RN NE=
200901152300 METAR MRLM 152300Z 19003KT 9999 SCT018 SCT090 26/23 A2992 TCU RN N NE=
200901160000 METAR MRLM 160000Z NIL=
200901160100 METAR MRLM NIL=
200901160200 METAR MRLM NIL=
200901160300 METAR MRLM NIL=
200901160400 METAR MRLM NIL=
200901160500 METAR MRLM NIL=
200901160600 METAR MRLM NIL=
200901160700 METAR MRLM NIL=
200901160800 METAR MRLM NIL=
200901160900 METAR MRLM NIL=
200901161000 METAR MRLM NIL=
200901161100 METAR MRLM NIL=
200901161200 METAR MRLM 161200Z NIL=
200901161300 METAR MRLM 161300Z 24006KT 8000 -DZ SCT080 BKN100 21/19 A3002 VSBY NE UNL=
200901161400 METAR MRLM 161400Z 22006KT 9999 SCT025 BKN090 22/20 A3005 REDZ DZ HA ARND=
200901161500 METAR MRLM 161500Z 22004KT 9999 FEW012 BKN090 23/21 A3005 DZ ARND=
200901161600 METAR MRLM 161600Z 00000KT 9999 FEW020 BKN080 25/21 A3004 FEW110 DZ HZ ARND=
200901161700 METAR MRLM 161700Z 30010KT 9999 SCT020 SCT080 25/21 A3004 FEW110 DZ ARND=
200901161800 METAR MRLM 161800Z 30008KT 9999 -DZ FEW018 BKN070 24/21 A3004 FEW090 HZY=
200901161900 METAR MRLM 161900Z 29009KT 9999 DZ FEW015 SCT080 BKN100 24/21 A3001=
200901162000 METAR MRLM 162000Z 23005KT 9999 -DZ FEW012 OVC090 24/22 A3000 HZY=
200901162100 METAR MRLM 162100Z 22005KT CAVOK 24/21 A2997 RMK DZ S BKN090 FEW110=
200901162200 METAR MRLM 162200Z 20005KT CAVOK 25/21 A2995 RMK DZ SW BKN090 SCT110=
200901162300 METAR MRLM NIL=
200901170000 METAR MRLM 170000Z NIL=
200901170100 METAR MRLM NIL=
200901170200 METAR MRLM NIL=
200901170300 METAR MRLM NIL=
200901170400 METAR MRLM NIL=
200901170500 METAR MRLM NIL=
200901170600 METAR MRLM NIL=
200901170700 METAR MRLM NIL=
200901170800 METAR MRLM NIL=
200901170900 METAR MRLM NIL=
200901171000 METAR MRLM NIL=
200901171100 METAR MRLM NIL=
200901171200 METAR MRLM NIL=
200901171300 METAR MRLM 171300Z 21005KT CAVOK 21/19 A3004 RMK TRACE CU SCT080 SCT140 FEW270 HZ LGT ARND=
200901171400 METAR MRLM 171400Z NIL=
200901171500 METAR MRLM 171500Z 19002KT 9999 FEW020 BKN070 24/20 A3008 RMK FEW140 FEW270 DZ S HZ LGT ARND=
200901171600 METAR MRLM 171600Z 19004KT CAVOK 27/21 A3007 RMK TRACE SC SCT100 SCT140 FEW270 HZ SE=
200901171700 METAR MRLM 171700Z 00000KT CAVOK 28/21 A3005 RMK TRACE SC BKN110 SCT270 DZ NE=
200901171800 METAR MRLM 171800Z 04004KT CAVOK 28/21 A3003 RMK DZ NE BKN090 FEW120 FEW270=
200901171900 METAR MRLM 171900Z 02004KT 9999 FEW035 BKN100 28/22 A3000 RMK FEW120 HZ ARND=
200901172000 METAR MRLM 172000Z 02006KT 9999 FEW030 BKN090 28/21 A2997 RMK HZ LGT ARND TRACE CI=
200901172100 METAR MRLM 172100Z 01004KT CAVOK 28/21 A2996 TRAZAS CU/CI SCT090 SCT120 HZ SE=
200901172200 METAR MRLM NIL=
200901172300 METAR MRLM NIL=
200901180000 METAR MRLM NIL=
200901180100 METAR MRLM NIL=
200901180200 METAR MRLM NIL=
200901180300 METAR MRLM NIL=
200901180400 METAR MRLM NIL=
200901180500 METAR MRLM NIL=
200901180600 METAR MRLM NIL=
200901180700 METAR MRLM NIL=
200901180800 METAR MRLM NIL=
200901180900 METAR MRLM NIL=
200901181000 METAR MRLM NIL=
200901181100 METAR MRLM NIL=
200901181200 METAR MRLM 181200Z NIL=
200901181300 METAR MRLM 181300Z 32007KT 9999 SCT015 SCT090 24/21 A3002 FEW140 RN DST S/S W/W/E DZ NW/N/NE=
200901181400 METAR MRLM 181400Z 24002KT 9999 FEW012 BKN100 24/21 A3006 RN DST ARND TRAZA S ST BAJOS SW/W=
200901181500 METAR MRLM 181500Z 05003KT 9999 BKN018 SCT140 25/22 A3007 RN/HZ ARND=
200901181600 METAR MRLM 181600Z 34006KT 9999 SCT025 SCT090 26/20 A3007 FEW140 RN DST N/E=
200901181700 METAR MRLM 181700Z 24005KT 9999 SCT025 BKN090 26/21 A3004 RN DST N/E=
200901181800 METAR MRLM 181800Z 35016KT 7000 DZ BKN025 26/22 A3002 FEW100 VIS 9999 S/SW/ W=
200901181900 METAR MRLM 181900Z 25004KT 9999 DZ FEW018 BKN090 25/21 A3000 RN DST ARND FEW120=
200901182000 METAR MRLM 182000Z 15004KT 9999 FEW025 SCT090 26/21 A2997 SCT120 RN DSY N/N E/E=
200901182100 METAR MRLM NIL=
200901182200 METAR MRLM 182200Z NIL=
200901182300 METAR MRLM 182300Z NIL=
200901182358 METAR MRLM 190000Z NIL=
200901190000 METAR MRLM NIL=
200901190100 METAR MRLM NIL=
200901190200 METAR MRLM NIL=
200901190300 METAR MRLM NIL=
200901190400 METAR MRLM NIL=
200901190500 METAR MRLM NIL=
200901190600 METAR MRLM NIL=
200901190700 METAR MRLM NIL=
200901190800 METAR MRLM NIL=
200901190900 METAR MRLM NIL=
200901191000 METAR MRLM NIL=
200901191100 METAR MRLM NIL=
200901191200 METAR MRLM 191200Z NIL=
200901191300 METAR MRLM 191300Z 24006KT 9999 SCT020 SCT100 23/21 A3001 RMK RN DST NW N NE E=
200901191400 METAR MRLM 191400Z 00000KT 6000 +DZ SCT015 BKN090 23/21 A3004=
200901191500 METAR MRLM 191500Z 09002KT 7000 +DZ BKN020 23/21 A3006 RMK FEW090 TRACE LOW ST HZ ARND=
200901191600 METAR MRLM 191600Z 19006KT 9999 DZ FEW005 SCT090 23/21 A3005 RMK TRACE SC SCT011 RN NW DZ S QUAD=
200901191700 METAR MRLM 191700Z 23006KT 9999 FEW015 BKN110 25/22 A3002 REDZ RMK FEW090 DZ S SW W RN DST N=
200901191800 METAR MRLM 191800Z 25005KT 9999 FEW020 SCT090 26/22 A2999 RMK SCT110 DZ SW W NW=
200901191900 METAR MRLM 191900Z 25003KT CAVOK 28/21 A2995 RMK OVC100 TRACE ST SC HZ SE=
200901192000 METAR MRLM 192000Z 30008KT CAVOK 26/22 A2993 RMK BKN090 FEW110 TRACE SC CI=
200901192100 METAR MRLM 192100Z 29006KT 9999 FEW020 BKN090 26/22 A2993 RMK HZ SE=
200901192200 METAR MRLM 192200Z 31006KT 9999 FEW020 BKN100 26/22 A2994 RMK HZ SE=
200901192300 METAR MRLM 192300Z 29003KT CAVOK 25/21 A2995 BKN090 FEW110 TRACE SCT HZ SE=
200901200000 METAR MRLM NIL=
200901200100 METAR MRLM NIL=
200901200200 METAR MRLM NIL=
200901200300 METAR MRLM NIL=
200901200400 METAR MRLM NIL=
200901200500 METAR MRLM NIL=
200901200600 METAR MRLM NIL=
200901200700 METAR MRLM NIL=
200901200800 METAR MRLM NIL=
200901200900 METAR MRLM NIL=
200901201000 METAR MRLM NIL=
200901201100 METAR MRLM NIL=
200901201200 METAR MRLM NIL=
200901201300 METAR MRLM 201300Z 28003KT CAVOK 23/21 A2999 RMK BKN080 FEW100 TRACE ST CI RN N E=
200901201400 METAR MRLM 201400Z 29004KT CAVOK 24/21 A3002 RMKTRACE CU CI OVC090 RN DST N NE E=
200901201500 METAR MRLM 201500Z 28004KT 9999 FEW020 BKN090 25/21 A3002 RMK FEW120 RN NE HZ ARND=
200901201600 METAR MRLM 201600Z 28004KT 9999 FEW025 BKN090 27/21 A3003 RMK RN DST SE E=
200901201700 METAR MRLM 201700Z 33007KT 9999 BKN025 SCT120 27/22 A3000 RMK TRACE AC RN NE HZ LEVE ARND=
200901201800 METAR MRLM 201800Z 34012KT 9999 -DZ SCT020 BKN110 26/22 A2998 RMK RN S HZ ARND=
200901201900 METAR MRLM 201900Z 34009KT 9999 OVC020 26/22 A2996 REDZ RMK TRACE AS HZ SE=
200901202000 METAR MRLM 202000Z 19009KT 9999 BKN020 25/22 A2994 RMK FEW100 TRACE ST RN S W HZ ARND=
200901202100 METAR MRLM 202100Z 34007KT 9999 SCT015 SCT110 25/22 A2992 FEW090 RN/HZ ARND=
200901202200 METAR MRLM 202200Z 29005KT 9999 FEW015 BKN100 25/22 A2992 RN S HZY=
200901202300 METAR MRLM 202300Z 27004KT 9999 SCT015 BKN100 24/22 A2993 RN N NW W HZY=
200901210000 METAR MRLM 210000Z NIL=
200901210100 METAR MRLM NIL=
200901210200 METAR MRLM NIL=
200901210300 METAR MRLM NIL=
200901210400 METAR MRLM NIL=
200901210500 METAR MRLM NIL=
200901210600 METAR MRLM NIL=
200901210700 METAR MRLM NIL=
200901210800 METAR MRLM NIL=
200901210900 METAR MRLM NIL=
200901211000 METAR MRLM NIL=
200901211100 METAR MRLM NIL=
200901211200 METAR MRLM NIL=
200901211300 METAR MRLM 211300Z 24005KT 6000 RA BKN010 22/21 A3004 FEW090=
200901211400 METAR MRLM 211400Z 25005KT 4000 RA BKN015 22/21 A3006 FEW090 VSBY SE S SW UNL=
200901211500 METAR MRLM 211500Z 25005KT 9999 BKN010 23/21 A2009 RERA FEW040 FEW090 RN ARND=
200901211600 METAR MRLM 211600Z 26006KT 8000 -DZ BKN015 SCT100 24/22 A30908 VSBY S W UNL=
200901211700 METAR MRLM 211700Z 24004KT 8000 +DZ BKN020 25/21 A3006 FEW090 RN ARND VSBY SW W UNL=
200901211800 METAR MRLM 211800Z 26006KT 9999 BKN020 25/21 A3003 REDZ FEW100 RN ARND=
200901211900 METAR MRLM NIL=
200901212000 METAR MRLM 212000Z 24007KT 8000 DZ FEW008 BKN020 23/21 A3002 VSBY N NE UNL=
200901212100 METAR MRLM 212100Z 24006KT 9999 FEW010 BKN025 23/21 A3000 RERZ RMK FEW100 RN DST ARND=
200901212200 METAR MRLM 212200Z 34007KT 9999 BKN015 24/21 A2999 RMK FEW100 RN DST N NE E=
200901212300 METAR MRLM 212300Z 21003KT 4000 +DZ BKN010 23/20 A3002 RMK FEW090=
200901220000 METAR MRLM 220000Z NIL=
200901220100 METAR MRLM NIL=
200901220200 METAR MRLM NIL=
200901220300 METAR MRLM NIL=
200901220400 METAR MRLM NIL=
200901220500 METAR MRLM NIL=
200901220600 METAR MRLM NIL=
200901220700 METAR MRLM NIL=
200901220800 METAR MRLM NIL=
200901220900 METAR MRLM NIL=
200901221000 METAR MRLM NIL=
200901221100 METAR MRLM NIL=
200901221200 METAR MRLM NIL=
200901221300 METAR MRLM NIL=
200901221400 METAR MRLM 221400Z 26004KT 8000 -DZ FEW006 BKN015 21/20 A3008 RMK FEW090 UNL N=
200901221500 METAR MRLM 221500Z 22007KT 9999 FEW008 BKN090 2/20 A3008 REDZ RMK TRACE SC FEW110 RN DST NE E DZ S=
200901221600 METAR MRLM 221600Z 30006KT 8000 RA FEW009 BKN090 23/21 A3008 RMK FEW110 VIS 3000 NW=
200901221700 METAR MRLM 221700Z 27006KT 4000 -DZ SCT040 SCT090 22/21 A3007=
200901221800 METAR MRLM 221800Z 27005KT 8000 -DZ OVC007 22/21 A3005 RMK UNL N NE HZ ARND=
200901221900 METAR MRLM 221900Z 27006KT 9999 OVC010 23/21 A3003 RMK REDZ TRACE AS RN DST S W=
200901222000 METAR MRLM 222000Z 30007KT 9999 BKN010 23/20 A3001 RMK FEW090 RN DST S W HZ ARND=
200901222100 METAR MRLM 222100Z 27006KT 9999 FEW010 BKN090 23/21 A2999 RMK RN DST W/N=
200901222200 METAR MRLM 222200Z 27004KT 9999 FEW010 BKN090 23/21 A3000 RN DST NW/HZ SE=
200901222300 METAR MRLM 222300Z 32004KT 9999 -DZ SCT010 SCT090 22/20 A3002 RN DST N/NE HZ ARND=
200901230000 METAR MRLM NIL=
200901230100 METAR MRLM NIL=
200901230200 METAR MRLM NIL=
200901230300 METAR MRLM NIL=
200901230400 METAR MRLM NIL=
200901230500 METAR MRLM NIL=
200901230600 METAR MRLM NIL=
200901230700 METAR MRLM NIL=
200901230800 METAR MRLM NIL=
200901230900 METAR MRLM NIL=
200901231000 METAR MRLM NIL=
200901231100 METAR MRLM NIL=
200901231200 METAR MRLM 231200Z NIL=
200901231300 METAR MRLM 231300Z 22005KT 9999 SCT020 BKN080 22/21 A3004 RN/HZ ARND=
200901231400 METAR MRLM 231400Z 19004KT 9999 FEW012 BKN080 24/21 A3006 DZ SE RN DST W/NW=
200901231500 METAR MRLM 231500Z 18004KT 9999 FEW020 BKN030 26/22 A3006 FEW070 RN DST NW=
200901231600 METAR MRLM 231600Z 24003KT 9999 FEW045 BKN090 28/20 A3005 TRAZAS SCT DZ NW HZ SE=
200901231700 METAR MRLM 231700Z 09005KT 9999 FEW040 29/21 A3002 FEW090 HZ ARND=
200901231800 METAR MRLM 231800Z 06003KT 9999 SCT040 29/21 A3000 FEW090 TRAZAS CI HA SE=
200901231900 METAR MRLM 231900Z 04005KT 9999 SCT040 29/21 A2997 FEW300 TRAZAS CC=
200901232000 METAR MRLM 232000Z 02005KT 9999 FEW035 29/21 A2995 RMK FEW180 HZ SE=
200901232100 METAR MRLM 232100Z 03007KT 9999 FEW035 29/22 A2993 RMK TRACE AC CI HZ SE=
200901232200 METAR MRLM 232200Z 03005KT 9999 FEW035 29/22 A2994 RMK TRACE AC CI HZ SE=
200901232300 METAR MRLM 232300Z 06003KT 9999 FEW035 28/22 A2994 TRACE AC CI=
200901240000 METAR MRLM NIL=
200901240100 METAR MRLM NIL=
200901240200 METAR MRLM NIL=
200901240300 METAR MRLM NIL=
200901240400 METAR MRLM NIL=
200901240500 METAR MRLM NIL=
200901240600 METAR MRLM NIL=
200901240700 METAR MRLM NIL=
200901240800 METAR MRLM NIL=
200901240900 METAR MRLM NIL=
200901241000 METAR MRLM NIL=
200901241100 METAR MRLM NIL=
200901241200 METAR MRLM NIL=
200901241300 METAR MRLM 241300Z 02007KT 9999 -DZ FEW010 SCT025 BKN090 23/20 A2998 RMK VIS 8KMS N DUE RN=
200901241400 METAR MRLM NIL=
200901241500 METAR MRLM 241500Z 23004KT 9999 FEW020 SCT080 BKN110 25/22 A2999 RMK RN DST SE DZ SW=
200901241600 METAR MRLM 241600Z 24002KT 9999 FEW038 BKN110 28/21 A2999 HZ SE=
200901241700 METAR MRLM 241700Z 03005KT 9999 FEW038 29/21 A2996 RMK FEW130 LGT HZ ARND=
200901241800 METAR MRLM 241800Z 07006KT 9999 FEW035 29/22 A2994 RMK FEW110 TRACE CI HZ SE TCU DST NE=
200901241900 METAR MRLM 241900Z 04006KT 9999 FEW035 29/22 A2990 RMK FEW090 TCU RN DST N NE=
200901242000 METAR MRLM 242000Z 02011KT 9999 FEW030 SCT080 29/22 A2989 RMK LGT HZ SE TRACE CI=
200901242100 METAR MRLM 242100Z 03011KT 9999 FEW030 SCT080 29/23 A2987 RMK CB E HZ SE=
200901242200 METAR MRLM 242200Z 02008KT 9999 FEW025 SCT090 29/23 A2988 RMK TCU RN DST N NE E=
200901242300 METAR MRLM 242300Z 01007KT 9999 FEW020 BKN090 28/23 A2989 RMK TCU RN NE E HZ ARND=
200901250000 METAR MRLM NIL=
200901250100 METAR MRLM NIL=
200901250200 METAR MRLM NIL=
200901250300 METAR MRLM NIL=
200901250400 METAR MRLM NIL=
200901250500 METAR MRLM NIL=
200901250600 METAR MRLM NIL=
200901250700 METAR MRLM NIL=
200901250800 METAR MRLM NIL=
200901250900 METAR MRLM NIL=
200901251000 METAR MRLM NIL=
200901251100 METAR MRLM NIL=
200901251200 METAR MRLM NIL=
200901251300 METAR MRLM 251300Z 24004KT 9999 SCT015 BKN090 23/21 A2992 RMK RN HZ ARND=
200901251400 METAR MRLM 251400Z 23003KT 8000 -DZ FEW007 BKN015 23/22 A2995 RMK VIS UNL E S SW W=
200901251500 METAR MRLM 251500Z 03002KT 4000 +DZ HZ BKN010 SCT090 24/22 A2997=
200901251600 METAR MRLM 251600Z 19002KT 4000 +DZ HZ BKN010 SCT090 24/22 A2997=
200901251700 METAR MRLM 251700Z 27003KT 8000 DZ HZ SCT015 BKN090 24/22 A2995=
200901251800 METAR MRLM 251800Z 06006KT 4000 RA BKN010 SCT090 23/21 A2995=
200901251900 METAR MRLM 251900Z 20006KT 9999 DZ FEW010 OVC090 23/22 A2991 RMK RN HZ ARND=
200901252000 METAR MRLM 252000Z 19005KT 9999 FEW015 BKN070 25/22 A2988 REDZ RMK FEW090 RN N S W=
200901252100 METAR MRLM 252100Z 00000KT 8000 -DZ BKN025 SCT090 25/20 A2989=
200901252200 METAR MRLM 252200Z 36009KT 4000 -DZ HZ BKN013 SCT090 24/21 A2990=
200901252300 METAR MRLM 252300Z 05003KT 4000 RA BKN010 SCT090 23/21 A2992=
200901260000 METAR MRLM 260000Z NIL=
200901260100 METAR MRLM NIL=
200901260200 METAR MRLM NIL=
200901260300 METAR MRLM NIL=
200901260400 METAR MRLM NIL=
200901260500 METAR MRLM NIL=
200901260600 METAR MRLM NIL=
200901260700 METAR MRLM NIL=
200901260800 METAR MRLM NIL=
200901260900 METAR MRLM NIL=
200901261000 METAR MRLM NIL=
200901261100 METAR MRLM NIL=
200901261200 METAR MRLM NIL=
200901261300 METAR MRLM 261300Z 24004KT 9999 BKN015 23/21 A2995 FEW090 RN N E=
200901261400 METAR MRLM 261400Z 21003KT 9999 -DZ BKN010 SCT090 24/22 A2997 VSBYN NE E 8KM DUE RN=
200901261500 METAR MRLM 261500Z 19005KT 9999 3000SE RA BKN010 25/23 A2998 FEW080=
200901261600 METAR MRLM 261600Z 10003KT 4000 -DZ FEW015 BKN030 25/22 A2998 RMK VSBY E SE S SW UNL=
200901261700 METAR MRLM 261700Z 25004KT 9999 FEW015 SCT025 27/23 A2996 REDZ FEW090 RN SW W NW=
200901261800 METAR MRLM 261800Z 14003KT 9999 OVC030 28/23 A2994 RN NE=
200901261900 METAR MRLM 261900Z 10007KT 9999 BKN030 29/22 A2991 FEW090 RN S SW=
200901262000 METAR MRLM 262000Z 09006KT 9999 FEW040 29/21 A2990 HZ SE=
200901262100 METAR MRLM 262100Z 06005KT 9999 FEW040 29/21 A2988 RMK TRACE AC HZ ARND=
200901262200 METAR MRLM 262200Z 06006KT 9999 FEW040 29/22 A2989 RMK FEW110=
200901262300 METAR MRLM 262300Z 05005KT 9999 SCT035 28/22 A2990 RMK TRACE AC HZ SE=
200901270000 METAR MRLM 270000Z NIL=
200901270100 METAR MRLM NIL=
200901270200 METAR MRLM NIL=
200901270300 METAR MRLM NIL=
200901270400 METAR MRLM NIL=
200901270500 METAR MRLM NIL=
200901270600 METAR MRLM NIL=
200901270700 METAR MRLM NIL=
200901270800 METAR MRLM NIL=
200901270900 METAR MRLM NIL=
200901271000 METAR MRLM NIL=
200901271100 METAR MRLM NIL=
200901271200 METAR MRLM NIL=
200901271300 METAR MRLM 271300Z NIL=
200901271400 METAR MRLM 271400Z 10002KT 9999 FEW030 26/20 A2999 RMK FEW070 HZ ARND=
200901271500 METAR MRLM 271500Z 00000KT CAVOK 28/20 A2998 RMK TRACE CU BKN090 HZ SE LGT=
200901271600 METAR MRLM 271600Z 04004KT 9999 SCT035 27/21 A2996 RMK TRACE CU RN DST N NE HZ ARND=
200901271700 METAR MRLM 271700Z 01008KT 9999 SCT035 SCT080 28/21 A2994 RMK RN DST E DZ S SW TCU DST NW HZ SE=
200901271800 METAR MRLM 271800Z 02008KT 9999 BKN080 28/22 A2991 RMK TRACE CU CU N HZ ARND=
200901271900 METAR MRLM 271900Z 04007KT CAVOK 29/22 A2988 RMK BKN080 TRACE CU SC HZ ARND=
200901272000 METAR MRLM 272000Z 03006KT 9999 FEW035 BKN090 29/22 A2986 RMK HZ LGT ARND=
200901272100 METAR MRLM 272100Z 03010KT 9999 FEW030 BKN090 28/22 A2986 RMK FEW070 DZ DST N/NE HZ SE=
200901272200 METAR MRLM 272200Z 02010KT 9999 FEW020 SCT070 27/23 A2986 SCT090 RB DST W DZ E HZ ARND=
200901272300 METAR MRLM 272300Z 15006KT 9999 BKN020 26/23 A2988 FEW070 RN DST SW/E HZ ARND=
200901280000 METAR MRLM NIL=
200901280100 METAR MRLM NIL=
200901280200 METAR MRLM NIL=
200901280300 METAR MRLM NIL=
200901280400 METAR MRLM NIL=
200901280500 METAR MRLM NIL=
200901280600 METAR MRLM NIL=
200901280700 METAR MRLM NIL=
200901280800 METAR MRLM NIL=
200901280900 METAR MRLM NIL=
200901281000 METAR MRLM NIL=
200901281100 METAR MRLM NIL=
200901281200 METAR MRLM 281200Z NIL=
200901281300 METAR MRLM 281300Z 24005KT 5000 RA OVC015 22/21 A2992 TRAZAS AS=
200901281400 METAR MRLM 281400Z 21004KT 3000 -RA BKN010 SCT090 22/21 A2995=
200901281500 METAR MRLM 281500Z 17003KT 2000 -RA SCT004 SCT015 22/22 A2996 FEW090=
200901281600 METAR MRLM 281600Z 23004KT 8000 +DZ BKN020 23/22 A2996 FEW080 TRAZAS ST=
200901281700 METAR MRLM 281700Z 22005KT 8000 +DZ BKN020 23/22 A2994 FEW080 TRAZAS ST=
200901281800 METAR MRLM 281800Z 21005KT 9999 DZ SCT015 BKN090 25/23 A2991 RN ARND HZ AE=
200901281900 METAR MRLM 281900Z 21005KT 9999 SCT020 BKN090 26/22 A2988 REDZ RMK RN DST N E HZ ARND=
200901282000 METAR MRLM 282000Z 23002KT 9999 FEW030 BKN090 28/23 A2986 RMK FEW080 DZ NE E W NW HZ ARND=
200901282100 METAR MRLM 282100Z 22004KT 9999 FEW025 BKN070 28/23 A2986 RMK FEW030 DZ N NE E SE HZ ARND=
200901282200 METAR MRLM 282200Z 15004KT 9999 FEW030 BKN080 28/23 A2987 RMK FEW100 DZ DST N NE E HZ ARND=
200901282300 METAR MRLM 282300Z 04008KT 9999 SCT020 SCT080 27/23 A2989 RMK RN DST S NW N DZ NE E HZ ARND=
200901290000 METAR MRLM NIL=
200901290100 METAR MRLM NIL=
200901290200 METAR MRLM NIL=
200901290300 METAR MRLM NIL=
200901290400 METAR MRLM NIL=
200901290500 METAR MRLM NIL=
200901290600 METAR MRLM NIL=
200901290700 METAR MRLM NIL=
200901290800 METAR MRLM NIL=
200901290900 METAR MRLM NIL=
200901291000 METAR MRLM NIL=
200901291100 METAR MRLM NIL=
200901291200 METAR MRLM NIL=
200901291300 METAR MRLM 291300Z 00000KT 9999 BKN015 23/22 A2995 RMK FEW090 RN HZ ARND=
200901291400 METAR MRLM 291400Z 00000KT 9999 FEW020 BKN090 24/22 A2996 RMK RN DST S QD HZ ARNDTRACE ST=
200901291500 METAR MRLM 291500Z 16002KT 9999 FEW020 BKN090 26/23 A2995 RMK TCU RN DST N LGT HZ ARND=
200901291600 METAR MRLM 291600Z 03003KT 9999 FEW020 SCT090 27/23 A2994 RMK TCU RN DST N NE HZ ARND=
200901291700 METAR MRLM 291700Z 04004KT 9999 FEW025 BKN080 28/23 A2993 RMK RN DST NE HZ ARND=
200901291800 METAR MRLM 291800Z 01007KT 9999 FEW020 SCT030 28/23 A2991 RMK FEW080 TRACE CI RN NE HZ ARND=
200901291900 METAR MRLM 291900Z 02007KT 9999 FEW020 SCT080 28/22 A2987 RMK FEW030 HZ ARND=
200901292000 METAR MRLM 292000Z 08004KT 9999 FEW025 BKN070 29/23 A2987 RMK HZ ARND=
200901292100 METAR MRLM 292100Z 04003KT 9999 FEW035 SCT080 29/22 A2986 RMK HZ ARND=
200901292200 METAR MRLM 292200Z 02004KT 9999 FEW030 BKN090 29/23 A2987 RMK HZ ARND=
200901292300 METAR MRLM 292300Z 07005KT 9999 FEW020 SCT080 28/23 A2989 RMK FEW100 RN ST W DZ E HZ ARND=
200901300000 METAR MRLM NIL=
200901300100 METAR MRLM NIL=
200901300200 METAR MRLM NIL=
200901300300 METAR MRLM NIL=
200901300400 METAR MRLM NIL=
200901300500 METAR MRLM NIL=
200901300600 METAR MRLM NIL=
200901300700 METAR MRLM NIL=
200901300800 METAR MRLM NIL=
200901300900 METAR MRLM NIL=
200901301000 METAR MRLM NIL=
200901301100 METAR MRLM NIL=
200901301200 METAR MRLM NIL=
200901301300 METAR MRLM 301300Z 22005KT CAVOK 22/21 A2997 RMK BKN070 DZ N NE HZ ARND TRA CE CI=
200901301400 METAR MRLM 301400Z 00000KT CAVOK 25/22 A2998 RMK TRACE CU BKN070 TCU RN N HZ ARND=
200901301500 METAR MRLM 301500Z 00000KT 9999 FEW025 BKN090 28/23 A2999 RMK FEW070 RN DST NW E HZ LEVE ARND=
200901301600 METAR MRLM 301600Z 03004KT 9999 FEW025 BKN100 28/23 A2998 RMK TCU RN NE N HZ SE=
200901301700 METAR MRLM 301700Z 03003KT 9999 FEW030 SCT090 29/22 A2995 RMK HZ SE=
200901301800 METAR MRLM 301800Z 02006KT 9999 FEW035 SCT090 29/22 A2992 RM HZ SE=
200901301900 METAR MRLM 301900Z 02007KT 9999 FEW035 SCT070 29/22 A2990 RMK HZ SE=
200901302000 METAR MRLM 302000Z 05007KT 9999 FEW030 30/23 A2989 RMK FEW080 HZ SE=
200901302100 METAR MRLM 302100Z 04006KT 9999 FEW030 29/23 A2988 TCU NE TRAZAS AC CI HZ SE=
200901302200 METAR MRLM 302200Z 05005KT 9999 FEW030 30/23 A2989 TRAZAS AC HZ SE=
200901302300 METAR MRLM 302300Z 02005KT 9999 FEW030 29/23 A2991 HZY=
200901310000 METAR MRLM 310000Z NIL=
200901310100 METAR MRLM NIL=
200901310200 METAR MRLM NIL=
200901310300 METAR MRLM NIL=
200901310400 METAR MRLM NIL=
200901310500 METAR MRLM NIL=
200901310600 METAR MRLM NIL=
200901310700 METAR MRLM NIL=
200901310800 METAR MRLM NIL=
200901310900 METAR MRLM NIL=
200901311000 METAR MRLM NIL=
200901311100 METAR MRLM NIL=
200901311200 METAR MRLM NIL=
200901311300 METAR MRLM 311300Z 00000KT 9999 SCT020 BKN080 23/21 A2999 RN N HZY=
200901311400 METAR MRLM 311400Z 20004KT 9999 FEW025 BKN080 26/22 A3000 RN TCU N=
200901311500 METAR MRLM 311500Z 11002KT 9999 FEW025 SCT035 27/22 A3000 FEW080 RN N E=
200901311600 METAR MRLM 311600Z 34009KT 9999 FEW018 SCT035 27/23 A3000 SCT090 RN N E=
200901311700 METAR MRLM 311700Z 34013KT 8000 -DZ FEW018 BKN090 26/22 A3000 RN ARND=
200901311800 METAR MRLM 311800Z 34005KT 9999 DZ FEW012 BKN110 25/23 A2997 RERA FEW080 RN ARND=
200901311900 METAR MRLM 311900Z 03005KT 9999 BKN020 SCT080 26/22 A2995 REDZ RN ARND=
200901312000 METAR MRLM 312000Z 26004KT 9999 DZ FEW010 SCT080 BKN100 24/22 A2992 RN ARND=
200901312100 METAR MRLM 312100Z 21003KT CAVOK 26/22 A2990 REDZ RMK DZ E SE S TRACE SC BKN080=
200901312200 METAR MRLM 312200Z NIL=
200901312300 METAR MRLM NIL=
200902010000 METAR MRLM NIL=
200902010100 METAR MRLM NIL=
200902010200 METAR MRLM NIL=
200902010300 METAR MRLM NIL=
200902010400 METAR MRLM NIL=
200902010500 METAR MRLM NIL=
200902010600 METAR MRLM NIL=
200902010700 METAR MRLM NIL=
200902010800 METAR MRLM NIL=
200902010900 METAR MRLM NIL=
200902011000 METAR MRLM NIL=
200902011100 METAR MRLM NIL=
200902011200 METAR MRLM NIL=
200902011300 METAR MRLM 011300Z 24002KT CAVOK 21/20 A2997 RMK TRACE SC BKN080 FEW280 DZ NE SE=
200902011400 METAR MRLM 011400Z 20003KT 9999 FEW015 BKN080 23/20 A2998 RMK FEW280 DZ N=
200902011500 METAR MRLM 011500Z 19003KT CAVOK 25/21 A2999 RMK DZ NE E TRACE CU CI BKN080 SCT110=
200902011600 METAR MRLM 011600Z 07009KT CAVOK 26/21 A2999 RMK TRACE CU DZ NE E BKN080 FEW100=
200902011700 METAR MRLM 011700Z 18005KT CAVOK 27/21 A2995 RMK SCT070 SCT100 RN DST E TRACE CU=
200902011800 METAR MRLM 011800Z 10010KT CAVOK 28/21 A2993 RMK TRACE SC CI FEW080 BKN090 DZ E=
200902011900 METAR MRLM 011900Z 08016KT 9999 FEW025 BKN090 26/21 A2991 RMK TRACE CI=
200902012000 METAR MRLM 012000Z 06010KT 9999 FEW040 BKN090 28/20 A2987 RMK TRACE CI=
200902012100 METAR MRLM 012100Z 08005KT CAVOK 29/19 A2985 TRAZAS CU/CI BKN080 HZ SE=
200902012200 METAR MRLM NIL=
200902012300 METAR MRLM NIL=
200902020000 METAR MRLM NIL=
200902020100 METAR MRLM NIL=
200902020200 METAR MRLM NIL=
200902020300 METAR MRLM NIL=
200902020400 METAR MRLM NIL=
200902020500 METAR MRLM NIL=
200902020600 METAR MRLM NIL=
200902020700 METAR MRLM NIL=
200902020800 METAR MRLM NIL=
200902020900 METAR MRLM NIL=
200902021000 METAR MRLM NIL=
200902021100 METAR MRLM NIL=
200902021200 METAR MRLM 021200Z NIL=
200902021300 METAR MRLM 021300Z 22005KT CAVOK 21/19 A2991 OVC070 RN DST N/NE/E LGT ARND=
200902021400 METAR MRLM 021400Z 23003KT CAVOK 24/20 A2992 SCT070 SCT090 RN DST N/NE=
200902021500 METAR MRLM 021500Z 22005KT CAVOK 25/20 A2994 TRAZAS SCT BKN070 FEW090=
200902021600 METAR MRLM 021600Z 26002KT 9999 FEW030 BKN070 27/21 A2994 RN N/E=
200902021700 METAR MRLM 021700Z 26007KT 9999 SCT035 BKN080 28/21 A2992 RN N/E=
200902021800 METAR MRLM 021800Z 00000KT 9999 DZ BKN025 26/22 A2991 FEW090 VIS 8KMS N/SE=
200902021900 METAR MRLM 021900Z 00000KT CAVOK DZ FEW020 BKN090 27/23 A2987 FEW035 RN DST ARND=
200902021930 METAR MRLM 021930Z 00000KT 9999 DZ FEW020 BKN090 27/23 A2987 RN DST ARND=
200902022000 METAR MRLM 022000Z 22003KT 9999 DZ FEW020 SCT035 27/23 A2984 SCT090 RN N/E=
200902022100 METAR MRLM 022100Z 00000KT 9999 FEW020 BKN035 28/23 A2983 REDZ RMK FEW080 TCU N E=
200902022200 METAR MRLM 022200Z 07002KT 9999 FEW025 SCT035 27/23 A2983 RMK SCT080 RN DST N E=
200902022300 METAR MRLM 022300Z 04004KT 9999 FEW020 BKN040 27/23 A2984 RMK FEW080 RN N HZ ARND=
200902030000 METAR MRLM NIL=
200902030100 METAR MRLM NIL=
200902030200 METAR MRLM NIL=
200902030300 METAR MRLM NIL=
200902030400 METAR MRLM NIL=
200902030500 METAR MRLM NIL=
200902030600 METAR MRLM NIL=
200902030700 METAR MRLM NIL=
200902030800 METAR MRLM NIL=
200902030900 METAR MRLM NIL=
200902031000 METAR MRLM NIL=
200902031100 METAR MRLM NIL=
200902031200 METAR MRLM 031200Z NIL=
200902031300 METAR MRLM 031300Z 21004KT 9999 BKN030 SCT080 23/22 A2989 RMK TCU RN N E=
200902031400 METAR MRLM 031400Z 25003KT 9999 FEW010 BKN025 25/23 A2992 RMK FEW080 RN DST N E QUADS=
200902031500 METAR MRLM 031500Z 30007KT 4000 RA FEW012 BKN020 25/23 A2994=
200902031600 METAR MRLM 031600Z 23005KT 8000 +DZ FEW007 BKN015 24/23 A2994 RMK TRACE AC AS VIS N UNL=
200902031700 METAR MRLM 031700Z 23006KT 9999 -DZ OVC015 26/23 A2993 RMK TRACE SCT AC AS RN E HZ ARND=
200902031800 METAR MRLM 031800Z 23004KT 9999 OVC025 29/24 A2991 REDZ RMK TRACE AC AS RN DST S E TCU N=
200902031900 METAR MRLM 031900Z 32004KT 9999 -DZ BKN030 29/23 A2987 RMK FEW080 TCU RN N E VIS 7KMS SE DUE HZ=
200902032000 METAR MRLM 032000Z 32006KT 9999 +DZ BKN015 27/24 A2986 RMK FEW080 VIS 8KMS E SE S N TCU N QD HZ ARND=
200902032100 METAR MRLM 032100Z 23003KT 8000 OVC015 27/24 A2986 REDZ RMK TRACE ST VIS W UNL RN HZ ARND=
200902032200 METAR MRLM 032200Z 25003KT 4000 RA OVC100 25/22 A2986=
200902032300 METAR MRLM 032300Z 17004KT 4000 +RA OVC010 24/23 A2988=
200902040000 METAR MRLM NIL=
200902040100 METAR MRLM NIL=
200902040200 METAR MRLM NIL=
200902040300 METAR MRLM NIL=
200902040400 METAR MRLM NIL=
200902040500 METAR MRLM NIL=
200902040600 METAR MRLM NIL=
200902040700 METAR MRLM NIL=
200902040800 METAR MRLM NIL=
200902040900 METAR MRLM NIL=
200902041000 METAR MRLM NIL=
200902041100 METAR MRLM NIL=
200902041200 METAR MRLM NIL=
200902041300 METAR MRLM 041300Z 25005KT 5000 RA FEW005 OVC015 22/21 A2999=
200902041400 METAR MRLM 041400Z 33016KT 4000 RA BKN015 23/22 A3004 RMK FEW090=
200902041500 METAR MRLM 041500Z 35013KT 2000 +RA OVC010 23/22 A3006=
200902041600 METAR MRLM 041600Z 24008KT 5000 +DZ OVC015 23/21 A3004 RERA TRACE ST AS=
200902041700 METAR MRLM 041700Z 31007KT 9999 SCT020 SCT090 24/22 A3005 RERA RMK FEW110 TRACE ST RN HZ ARND=
200902041800 METAR MRLM 041800Z 26003KT 1000 +RA OVC010 23/22 A3006=
200902041900 METAR MRLM 041900Z 36016KT 2000 +RA OVC010 23/22 A3003 RMK RAMPAS CON=
200902042000 METAR MRLM 042000Z 16007KT 0800 SHRA OVC010 22/21 A3001 RMK ACUMULACION DE AGUA EN LA RAMPA=
200902042100 METAR MRLM 042100Z 18003KT 6000 RA BKN010 22/21 A2999 RERA FEW090=
200902042200 METAR MRLM 042200Z 22004KT 8000 FEW010 SCT025 23/22 A3000 RERA FEW090 HZY=
200902042300 METAR MRLM 042300Z 22005KT 9999 SCT010 SCT025 23/22 A33002 VSBY NE 7KM=
200902050000 METAR MRLM 050000Z NIL=
200902050100 METAR MRLM NIL=
200902050200 METAR MRLM NIL=
200902050300 METAR MRLM NIL=
200902050400 METAR MRLM NIL=
200902050500 METAR MRLM NIL=
200902050600 METAR MRLM NIL=
200902050700 METAR MRLM NIL=
200902050800 METAR MRLM NIL=
200902050900 METAR MRLM NIL=
200902051000 METAR MRLM NIL=
200902051100 METAR MRLM NIL=
200902051200 METAR MRLM NIL=
200902051300 METAR MRLM 051300Z 01019KT 9999 BKN025 27/22 A3005 FEW130 RN S W PISTA INUNDADA=
200902051400 METAR MRLM 051400Z 36015KT 9999 +DZ OVC023 27/22 A3008 RN ARND PISTA INUNDADA=
200902051500 METAR MRLM 051500Z 01021KT 9999 BKN020 24/22 A3009 REDZ RN ARND RAMPA INUNDADA=
200902051600 METAR MRLM 051600Z 35018KT 8000 VCSH FEW015 BKN070 26/22 A3010 FEW090 RN ARND VSBY N NE UNL=
200902051700 METAR MRLM 051700Z 34019KT 8000 DZ BKN020 SCT090 26/22 A3009 RAMPA INUNDADA=
200902051800 METAR MRLM 051800Z 31008KT 5000 +DZ FEW010 OVC020 24/22 A3008 RAMPA INUNDAD A=
200902051900 METAR MRLM 051900Z 34015KT 8000 VCSH OVC015 26/21 A3006 REDZ REDZ PISTA INUNDADA=
200902052000 METAR MRLM 052000Z 09018KT 5000 DZ SCT007 SCT070 23/22 A3005 RESH RAMPA INUNDADA=
200902052100 METAR MRLM 052100Z 30006KT 9999 +DZ OVC008 23/21 A3006 RMK RAMPA HUMEDA=
200902052200 METAR MRLM 052200Z 30007KT 8000 DZ BKN010 24/21 A3006 RMK FEW070 RAMPA INUNDADA HZ ARND=
200902052300 METAR MRLM 052300Z 26003KT 4000 +DZ OVC010 23/21 A3005 RMK RAMPA INUNDADA=
200902060000 METAR MRLM NIL=
200902060100 METAR MRLM NIL=
200902060200 METAR MRLM NIL=
200902060300 METAR MRLM NIL=
200902060400 METAR MRLM NIL=
200902060500 METAR MRLM NIL=
200902060600 METAR MRLM NIL=
200902060700 METAR MRLM NIL=
200902060800 METAR MRLM NIL=
200902060900 METAR MRLM NIL=
200902061000 METAR MRLM NIL=
200902061100 METAR MRLM NIL=
200902061200 METAR MRLM NIL=
200902061300 METAR MRLM 061300Z NIL=
200902061400 METAR MRLM 061400Z 29010KT 8000 3000NW RA FEW007 OVC015 21/19 A3009 RMK RAMPA INUNDADA=
200902061500 METAR MRLM 061500Z 27008KT 4000 RA SCT007 SCT015 20/19 A3012=
200902061600 METAR MRLM 061600Z 28009KT 4000 RA FEW006 BKN010 21/19 A3011 RMK FEW090 RAMPA INUNDADA=
200902061700 METAR MRLM 061700Z 27005KT 5000 -DZ HZ FEW007 BKN015 21/20 A3009 RERA RMK RAMPA INUNDADA=
200902061800 METAR MRLM 061800Z 27008KT 8000 DZ FEW007 OVC030 22/20 A3007 RMK TRACE ACAS RN HZ ARND RAMPA INUNDADA=
200902061900 METAR MRLM 061900Z 25005KT 5000 +DZ HZ SCT007 SCT030 22/21 A3004 RMK TRACE AS RAMPA INUNDADA=
200902062000 METAR MRLM 062000Z 23006KT 5000 +DZ HZ OVC015 22/21 A3001=
200902062100 METAR MRLM 062100Z 25004KT 9999 -DZ FEW007 OVC030 22/21 A2999 RN/HZ ARND RAMPA INUNDADA=
200902062200 METAR MRLM 062200Z 25006KT 4000 RA BKN010 22/20 A2998 FEW070 RAMPA INUNDADA=
200902062300 METAR MRLM 062300Z 26005KT 6000 DZ OVC010 22/20 A2999 RN/HZ ARND RAMPA INUN DADA=
200902070000 METAR MRLM NIL=
200902070100 METAR MRLM NIL=
200902070200 METAR MRLM NIL=
200902070300 METAR MRLM NIL=
200902070400 METAR MRLM NIL=
200902070500 METAR MRLM NIL=
200902070600 METAR MRLM NIL=
200902070700 METAR MRLM NIL=
200902070800 METAR MRLM NIL=
200902070900 METAR MRLM NIL=
200902071000 METAR MRLM NIL=
200902071100 METAR MRLM NIL=
200902071200 METAR MRLM 071200Z NIL=
200902071300 METAR MRLM 071300Z 27009KT 5000 RA FEW005 OVC015 21/20 A3004 VIS 9999 NE=
200902071400 METAR MRLM 071400Z 27010KT 5000 -DZ OVC015 21/20 A3005 RERA TRAZAS ST BAJOS RN/HZ ARND=
200902071500 METAR MRLM 071500Z 26009KT 9999 DZ OVC015 22/20 A3006 TRAZAS SCT RN ARND=
200902071600 METAR MRLM 071600Z 28010KT 8000 +DZ FEW005 BKN012 22/20 A3006 FEW090 RN/HZ ARND=
200902071700 METAR MRLM 071700Z 26007KT 8000 DZ FEW008 OVC020 22/20 A3005 TRAZAS AC/AS VIS 9999 N=
200902071800 METAR MRLM 071800Z 07007KT 9999 FEW010 BKN025 23/21 A3002 REDZ RN DST ARND FEW090 RAMPA INUNDADA=
200902071900 METAR MRLM 071900Z 26009KT 3000 +DZ BKN015 24/21 A3000 TRAZAS ST FEW090=
200902072000 METAR MRLM 072000Z 26008KT 9999 DZ FEW008 BKN020 22/20 A2998 FEW090 RN/HZ ARND=
200902072100 METAR MRLM 072100Z 26005KT 9999 DZ OVC020 23/21 A2997 RMK RN DST ARND TRACE ST AS AC=
200902072200 METAR MRLM 072200Z NIL=
200902072300 METAR MRLM 072300Z NIL=
200902080000 METAR MRLM NIL=
200902080100 METAR MRLM NIL=
200902080200 METAR MRLM NIL=
200902080300 METAR MRLM NIL=
200902080400 METAR MRLM NIL=
200902080500 METAR MRLM NIL=
200902080600 METAR MRLM NIL=
200902080700 METAR MRLM NIL=
200902080800 METAR MRLM NIL=
200902080900 METAR MRLM NIL=
200902081000 METAR MRLM NIL=
200902081100 METAR MRLM NIL=
200902081200 METAR MRLM NIL=
200902081300 METAR MRLM 081300Z 23003KT 8000 DZ BKN015 SCT090 22/21 A2998 HZY=
200902081400 METAR MRLM 081400Z 22004KT 5000 +DZ BKN015 22/21 A2999 VIS S UNL FEW090=
200902081500 METAR MRLM 081500Z 16003KT 9999 DZ SCT015 BKN080 24/22 A3000 RMK VIS N 8KMS DUE RN HZ ARND=
200902081600 METAR MRLM 081600Z 08004KT 9999 FEW020 BKN080 26/22 A3000 REDZ RMK RN DST N E QDS LGT HZ ARND=
200902081700 METAR MRLM 081700Z 35007KT 5000 RA BKN028 29/23 A2998 RMK FEW080 HZY=
200902081800 METAR MRLM 081800Z 36004KT 5000 RA BKN020 24/23 A2996 RMK RN HZ ARND FEW080=
200902081900 METAR MRLM 081900Z 06003KT 9999 +DZ FEW005 OVC015 26/23 A2995 RERA RMK RN HZ ARND=
200902082000 METAR MRLM 082000Z 16008KT 9999 FEW010 OVC020 26/22 A2992 REDZ RMK RN ARND VIS 8KMS E DUE HZ=
200902082100 METAR MRLM 082100Z 17004KT 9999 FEW018 BKN080 26/22 A2990 RMK RN HZ ARND=
200902082200 METAR MRLM NIL=
200902082300 METAR MRLM NIL=
200902090000 METAR MRLM NIL=
200902090100 METAR MRLM NIL=
200902090200 METAR MRLM NIL=
200902090300 METAR MRLM NIL=
200902090400 METAR MRLM NIL=
200902090500 METAR MRLM NIL=
200902090600 METAR MRLM NIL=
200902090700 METAR MRLM NIL=
200902090800 METAR MRLM NIL=
200902090900 METAR MRLM NIL=
200902091000 METAR MRLM NIL=
200902091100 METAR MRLM NIL=
200902091200 METAR MRLM NIL=
200902091300 METAR MRLM 091300Z 22005KT 9999 FEW015 BKN080 22/19 A2998 RMK RN DST N TRAC E CI HZ LEVE ARND=
200902091400 METAR MRLM 091400Z 23003KT 9999 FEW020 BKN080 24/21 A3000 RMK FEW090 TRACE CI RN N=
200902091500 METAR MRLM 091500Z 09002KT 9999 FEW035 BKN090 28/21 A3001 RMK TRACE CI TCU N NE HZ ARND=
200902091600 METAR MRLM 091600Z 06004KT 9999 FEW025 SCT090 27/23 A3001 RMK SCT300 HZ ARN D=
200902091700 METAR MRLM 091700Z 07005KT 9999 FEW030 BKN280 38/23 A2997 RMK FEW140 TCU N=
200902091800 METAR MRLM 091800Z 07005KT 9999 FEW030 SCT280 29/22 A2995 RMK TRACE AC TCU N HZ LEVE ARND=
200902091900 METAR MRLM 091900Z 06008KT 9999 FEW035 SCT280 29/22 A2992 RMK FEW100 HZ LEV E ARND=
200902092000 METAR MRLM 092000Z 05010KT 9999 FEW035 SCT230 29/22 A2989 RMK FEW120 HZ SE=
200902092100 METAR MRLM 092100Z 04009KT 9999 FEW035 29/22 A2988 FEW100 FEW280 HZ SE=
200902092200 METAR MRLM 092200Z 04007KT 9999 FEW035 SCT280 29/21 A2998 FEW100 HZ SE=
200902092300 METAR MRLM 092300Z 08005KT 9999 FEW030 BKN080 28/22 A2989 FEW280 HZY=
200902100000 METAR MRLM 100000Z NIL=
200902100100 METAR MRLM NIL=
200902100200 METAR MRLM NIL=
200902100300 METAR MRLM NIL=
200902100400 METAR MRLM NIL=
200902100500 METAR MRLM NIL=
200902100600 METAR MRLM NIL=
200902100700 METAR MRLM NIL=
200902100800 METAR MRLM NIL=
200902100900 METAR MRLM NIL=
200902101000 METAR MRLM NIL=
200902101100 METAR MRLM NIL=
200902101200 METAR MRLM NIL=
200902101300 METAR MRLM 101300Z 32005KT 9999 SCT015 BKN080 22/20 A2997 VSBY W NW 8KM DUE RN RN E SE=
200902101400 METAR MRLM 101400Z 20005KT 9999 FEW015 BKN080 23/20 A2997 RN E SE W=
200902101500 METAR MRLM 101500Z 19003KT 9999 FEW025 BKN090 26/21 A2997 DZ E SE=
200902101600 METAR MRLM 101600Z 10008KT 9999 FEW030 SCT090 27/21 A2996 RN N NE E HZ SE=
200902101700 METAR MRLM 101700Z 08009KT 9999 FEW020 BKN030 27/21 A2996 FEW090 RN NW DZ N NE SE=
200902101800 METAR MRLM 101800Z 08006KT 9999 FEW030 SCT070 27/21 A2993 SCT090 DZ SW=
200902101900 METAR MRLM 101900Z 04003KT CAVOK 28/21 A2991 RMK SCT070 BKN090 TRAZAS SC CU DZ SW=
200902102000 METAR MRLM 102000Z 05003KT CAVOK 28/21 A2988 RMK FEW080 BKN090=
200902102100 METAR MRLM 102100Z 05007KT CAVOK 28/20 A2986 RMK FEW080 BKN090 TRACE CU HZ SE=
200902102200 METAR MRLM 102200Z 05004KT CAVOK 28/20 A2986 RMK FEW080 BKN090 TRACE CU HZ SE=
200902102300 METAR MRLM 102300Z 00000KT CAVOK 28/22 A2987 RMK BKN080 FEW090 HZ SE=
200902110000 METAR MRLM 110000Z NIL=
200902110100 METAR MRLM NIL=
200902110200 METAR MRLM NIL=
200902110300 METAR MRLM NIL=
200902110400 METAR MRLM NIL=
200902110500 METAR MRLM NIL=
200902110600 METAR MRLM NIL=
200902110700 METAR MRLM NIL=
200902110800 METAR MRLM NIL=
200902110900 METAR MRLM NIL=
200902111000 METAR MRLM NIL=
200902111100 METAR MRLM NIL=
200902111200 METAR MRLM 111200Z 21002KT CAVOK 20/18 A2992 RMK FEW080 SCT100=
200902111300 METAR MRLM 111300Z 22002KT CAVOK 21/19 A2993 RMK BKN090 HZ ARND LGT=
200902111400 METAR MRLM 111400Z 20004KT CAVOK 23/20 A2995 RMK BKN090 HX SE DZ NE=
200902111500 METAR MRLM 111500Z 18002KT CAVOK 28/20 A2995 RMK BKN100 TRACE CU SC HZ SE=
200902111600 METAR MRLM 111600Z 06004KT CAVOK 28/21 A2995 RMK SCT100=
200902111700 METAR MRLM 111700Z 06006KT CAVOK 28/20 A2993 RMK BKN090 TRACE CU=
200902111800 METAR MRLM 111800Z 04005KT CAVOK 28/21 A2992 RMK BKN090 FEW100 TRACE CU RN DST NE=
200902111900 METAR MRLM 111900Z 05005KT 9999 FEW030 BKN090 27/21 A2990 RMK FEW100 DZ NE=
200902112000 METAR MRLM 112000Z 08004KT 9999 FEW025 BKN090 27/22 A2988 RMK FEW100 DZ NE E HZ SE=
200902112100 METAR MRLM 112100Z 10004KT 9999 FEW030 SCT080 28/21 A2987 SCT100 DZ E HZ SE=
200902112200 METAR MRLM 112200Z 05008KT 9999 FEW025 BKN080 28/23 A2988 FEW100 HZ SE=
200902112300 METAR MRLM 112300Z 06004KT 9999 FEW025 BKN080 27/23 A2988 FEW090 DZ E HZ SE=
200902120000 METAR MRLM 120000Z 06002KT 9999 FEW020 BKN070 27/23 A2990 FEW090 HZ ARND=
200902120100 METAR MRLM NIL=
200902120200 METAR MRLM NIL=
200902120300 METAR MRLM NIL=
200902120400 METAR MRLM NIL=
200902120500 METAR MRLM NIL=
200902120600 METAR MRLM NIL=
200902120700 METAR MRLM NIL=
200902120800 METAR MRLM NIL=
200902120900 METAR MRLM NIL=
200902121000 METAR MRLM NIL=
200902121100 METAR MRLM NIL=
200902121200 METAR MRLM NIL=
200902121210 METAR MRLM 121210Z 27003KT 9999 SCT010 BKN070 23/21 A2993 RMK HZ ARND=
200902121300 METAR MRLM 121300Z 29003KT 9999 FEW010 BKN080 24/22 A2994 HZ ARND0=
200902121400 METAR MRLM 121400Z 24004KT 8000 RA FEW010 BKN070 23/22 A2996 VIS 5KMS N/NE/ W/NW=
200902121500 METAR MRLM 121500Z 20005KT 8000 +DZ FEW010 BKN070 23/22 A2997 RERA FEW090 HZ ARND=
200902121600 METAR MRLM 121600Z 22005KT 9999 SCT010 SCT070 26/23 A2997 REDZ FEW090 DZ NE=
200902121700 METAR MRLM 121700Z 22003KT 9999 -DZ SCT015 SCT070 27/23 A2997 FEW090 HZ SE=
200902121800 METAR MRLM 121800Z 17004KT 9999 SCT020 27/24 A2996 REDZ RN E HZ ARND=
200902121900 METAR MRLM 121900Z 18003KT 9999 DZ BKN025 28/23 A2994 FEW080 RN E HZ ARND=
200902122000 METAR MRLM 122000Z 00000KT 9999 DZ FEW020 SCT080 28/23 A2991 SCT100 RN SW HZ ARND=
200902122100 METAR MRLM 122100Z 04004KT 9999 SCT025 SCT070 28/23 A2989 REDZ RMK FEW090 RN DST NW E HZ ARND=
200902122200 METAR MRLM 122200Z 19005KT 9999 4000SE DZ HZ FEW015 BKN070 27/24 A2989 RMK FEW090 RN NW=
200902122300 METAR MRLM 122300Z 22003KT 9999 FEW015 BKN070 26/23 A2991 REDZ RMK RN SW HZ ARND=
200902130000 METAR MRLM 130000Z 23004KT 8000 DZ SCT010 SCT070 23/23 A2992 RMK HZ ARND=
200902130100 METAR MRLM NIL=
200902130200 METAR MRLM NIL=
200902130300 METAR MRLM NIL=
200902130400 METAR MRLM NIL=
200902130500 METAR MRLM NIL=
200902130600 METAR MRLM NIL=
200902130700 METAR MRLM NIL=
200902130800 METAR MRLM NIL=
200902130900 METAR MRLM NIL=
200902131000 METAR MRLM NIL=
200902131100 METAR MRLM NIL=
200902131200 METAR MRLM NIL=
200902131300 METAR MRLM 131300Z 23005KT 9999 OVC015 23/22 A2996 RMK RN HZ ARND TRACE AC=
200902131400 METAR MRLM 131400Z 20004KT 9999 FEW015 26/23 A2997 RMK TCU RN N HZ ARND FEW140=
200902131500 METAR MRLM 131500Z 00000KT 9999 BKN035 30/23 A2998 RMK FEW140 RMK VIS 8KMS E SE DUE HZ=
200902131600 METAR MRLM 131600Z 04004KT 9999 SCT030 29/23 A2997 RMK HZ ARND FEW140=
200902131700 METAR MRLM 131700Z 04004KT 9999 FEW028 SCT130 29/23 A2996 LGT HZ ARND=
200902131800 METAR MRLM 131800Z 03003KT 9999 FEW030 29/23 A2994 RMK FEW080 FEW140 LGT HZ ARND=
200902131900 METAR MRLM 131900Z 02006KT 9999 FEW030 BKN080 29/23 A2991 RMK LGT HZ ARND=
200902132000 METAR MRLM 132000Z 03007KT 9999 FEW030 BKN080 29/23 A2988 LGT HZ ARND=
200902132100 METAR MRLM 132100Z 01005KT 9999 FEW028 BKN090 29/23 A2986 RMK HZ LEVE ARND=
200902132200 METAR MRLM 132200Z 02003KT 9999 FEW030 BKN090 29/23 A2985 RMK HZ ARND=
200902132300 METAR MRLM 132300Z 04003KT 9999 FEW025 SCT080 28/23 A2985 RMK HZ ARND=
200902140000 METAR MRLM 140000Z 00000KT 9999 FEW015 26/23 A2989 RMK TRACE AC HZ LEVE ARND=
200902140100 METAR MRLM NIL=
200902140200 METAR MRLM NIL=
200902140300 METAR MRLM NIL=
200902140400 METAR MRLM NIL=
200902140500 METAR MRLM NIL=
200902140600 METAR MRLM NIL=
200902140700 METAR MRLM NIL=
200902140800 METAR MRLM NIL=
200902140900 METAR MRLM NIL=
200902141000 METAR MRLM NIL=
200902141100 METAR MRLM NIL=
200902141200 METAR MRLM NIL=
200902141300 METAR MRLM 141300Z 00000KT 9999 SCT015 BKN090 23/21 A2988 RMK RN N TRACE CI HZ ARND=
200902141400 METAR MRLM 141400Z 03008KT 9999 OVC015 26/22 A2990 RMK TRACE AC AS VIS SE 8000 HZ=
200902141500 METAR MRLM 141500Z 02014KT 9999 OVC015 26/23 A2993 RMK TRACE ST AC AS RN ARND=
200902141600 METAR MRLM 141600Z 06013KT 9999 DZ FEW015 SCT080 BKN100 25/23 A2993 RMK RN ARND=
200902141700 METAR MRLM 141700Z 01004KT 9999 FEW015 SCT025 27/23 A2992 REDZ RMK RN HZ ARND SCT100=
200902141800 METAR MRLM 141800Z 07006KT 4000 +DZ SCT015 SCT090 26/23 A2991 RMK VIS NW UNL=
200902141900 METAR MRLM 141900Z 00000KT 9999 DZ SCT010 SCT025 25/23 A2988 RMK SCT100 RN HZ ARND VIS 8000 NW DUE HZ=
200902142000 METAR MRLM 142000Z 24002KT 9999 -DZ FEW015 SCT080 26/23 A2985 RMK SCT110 HZ ARND RN SW=
200902142100 METAR MRLM 142100Z 09004KT 9999 FEW018 BKN090 27/23 A2984 REDZ HZ ARND RN S SW N DIST TCU N FEW070=
200902142200 METAR MRLM 142200Z 06003KT 9999 FEW025 BKN080 27/22 A2984 RN HZ ARND FEW100=
200902142300 METAR MRLM 142300Z 27002KT CAVOK 26/22 A2984 TRACE SCT BKN080 FEW100 RN N HZY=
200902150000 METAR MRLM 15000Z 00000KT 9999 BKN015 25/23 A2986 FEW120 TRACE CI HZ ARND=
200902150001 METAR MRLM 15000Z 00000KT 9999 BKN015 25/23 A2986 FEW120 TRACE CI HZ ARND=
200902150100 METAR MRLM NIL=
200902150200 METAR MRLM NIL=
200902150300 METAR MRLM NIL=
200902150400 METAR MRLM NIL=
200902150500 METAR MRLM NIL=
200902150600 METAR MRLM NIL=
200902150700 METAR MRLM NIL=
200902150800 METAR MRLM NIL=
200902150900 METAR MRLM NIL=
200902151000 METAR MRLM NIL=
200902151100 METAR MRLM NIL=
200902151200 METAR MRLM 151200Z 22005KT CAVOK 21/19 A2990 RMK FEW100 TRACE CI HZ SE=
200902151300 METAR MRLM 151300Z 22005KT CAVOK 22/20 A2991 FEW110 TRACE CU CI HZ SE=
200902151400 METAR MRLM 151400Z 24003KT CAVOK 26/21 A2991 SCT110 TRACE CU=
200902151500 METAR MRLM 151500Z 08003KT 9999 FEW030 BKN110 26/22 A2994 TRACE CI HZ SE=
200902151600 METAR MRLM 151600Z 03003KT 9999 FEW030 BKN100 27/22 A2996 HZ ARND=
200902151700 METAR MRLM 151700Z 06013KT 9999 SCT015 SCT080 25/23 A2995 FEW100 HZY=
200902151800 METAR MRLM 151800Z 08013KT 9999 FEW020 SCT080 26/22 A2994 FEW100 HZ SE=
200902151900 METAR MRLM 151900Z 10009KT 9999 FEW025 BKN080 26/21 A2991 RMK FEW100=
200902152000 METAR MRLM 152000Z 05003KT 9999 FEW035 SCT080 27/20 A2988 RMK SCT100=
200902152100 METAR MRLM 152100Z 00000KT 9999 FEW035 BKN090 28/21 A2987 RMK DZ NE=
200902152200 METAR MRLM 152200Z 05002KT 9999 FEW035 SCT090 28/21 A2987 RMK FEW100 HZ ARND=
200902152300 METAR MRLM 152300Z 03002KT 9999 FEW030 BKN080 27/21 A2987 RMK FEW110 HZ SE=
200902160000 METAR MRLM 160000Z 34005KT 9999 FEW025 BKN080 26/21 A2989 RMK DZ NE RN NW HZ ARND=
200902160100 METAR MRLM NIL=
200902160200 METAR MRLM NIL=
200902160300 METAR MRLM NIL=
200902160400 METAR MRLM NIL=
200902160500 METAR MRLM NIL=
200902160600 METAR MRLM NIL=
200902160700 METAR MRLM NIL=
200902160800 METAR MRLM NIL=
200902160900 METAR MRLM NIL=
200902161000 METAR MRLM NIL=
200902161100 METAR MRLM NIL=
200902161200 METAR MRLM 161200Z 00000KT 9999 SCT010 21/20 A2995 RMK FEW100 HZ SE=
200902161300 METAR MRLM 161300Z 20004KT 9999 FEW010 23/20 A2996 RMK FEW100=
200902161400 METAR MRLM 161400Z 21002KT 9999 NSC 26/21 A2997 TRACE CU AC=
200902161500 METAR MRLM 161500Z 04003KT 9999 FEW030 27/21 A2999 RMK TRACE AC HZ SE=
200902161600 METAR MRLM 161600Z 04002KT 9999 FEW030 28/22 A2999 RMK FEW110=
200902161700 METAR MRLM 161700Z 05003KT 9999 FEW035 28/21 A2997 RMK TRACE CI=
200902161800 METAR MRLM 161800Z 03004KT 9999 FEW035 28/21 A2996 RMK TRACE CI HZ SE=
200902161900 METAR MRLM 161900Z 10007KT 9999 FEW040 29/22 A2994 RMK TRACE CI HZ SE=
200902162000 METAR MRLM 162000Z 13007KT 9999 FEW035 29/22 A2991 RMK TRACE AC=
200902162100 METAR MRLM 162100Z 07006KT 9999 FEW035 29/22 A2990 TRAZAS AC HZ SE=
200902162200 METAR MRLM 162200Z 02006KT 9999 SCT035 29/22 A2990 TRAZAS AC/CI HZ SE=
200902162300 METAR MRLM 162300Z 02004KT 9999 FEW030 28/21 A2991 FEW110 HZ SE=
200902170000 METAR MRLM 170000Z 00000KT 9999 SCT020 SCT100 25/22 A2992 HZ ARND=
200902170100 METAR MRLM NIL=
200902170200 METAR MRLM NIL=
200902170300 METAR MRLM NIL=
200902170400 METAR MRLM NIL=
200902170500 METAR MRLM NIL=
200902170600 METAR MRLM NIL=
200902170700 METAR MRLM NIL=
200902170800 METAR MRLM NIL=
200902170900 METAR MRLM NIL=
200902171000 METAR MRLM NIL=
200902171100 METAR MRLM NIL=
200902171200 METAR MRLM 171200Z NIL=
200902171300 METAR MRLM 171300Z 00000KT 9999 FEW015 OVC080 23/20 A2998 GZ LGT ARND=
200902171400 METAR MRLM 171400Z 22003KT CAVOK 25/20 A2999 TRAZAS CU BKN090 HZ SE=
200902171500 METAR MRLM 171500Z 10003KT CAVOK 29/21 A3000 TRAZAS SCT/AC SCT130 HZ SE=
200902171600 METAR MRLM 171600Z 10008KT CAVOK 29/19 A3000 TRAZAS SCT SCT090 HZ SE=
200902171700 METAR MRLM 171700Z 11010KT CAVOK 30/19 A2998 TRAZAS AC/AS FEW0500=
200902171800 METAR MRLM 171800Z 11009KT CAVOK 30/18 A2995 FEW060 HZ SE=
200902171900 METAR MRLM 171900Z 09007KT CAVOK 30/20 A2992 FEW050 HZ SE=
200902172000 METAR MRLM 172000Z 10008KT CAVOK 30/19 A2989 FEW050 HZ SE=
200902172100 METAR MRLM 172100Z 08007KT CAVOK 30/19 A2988 RMK FEW060 CB HZ SE=
200902172200 METAR MRLM 172200Z 09007KT CAVOK 29/19 A2988 RMK FEW050 HZ SE=
200902172300 METAR MRLM 172300Z 08006KT 9999 NSC 28/19 A2989 TRACE CU=
200902180000 METAR MRLM 180000Z 09006KT 9999 FEW040 27/19 A2990 RMK LGT HZ ARND=
200902180100 METAR MRLM NIL=
200902180200 METAR MRLM NIL=
200902180300 METAR MRLM NIL=
200902180400 METAR MRLM NIL=
200902180500 METAR MRLM NIL=
200902180600 METAR MRLM NIL=
200902180700 METAR MRLM NIL=
200902180800 METAR MRLM NIL=
200902180900 METAR MRLM NIL=
200902181000 METAR MRLM NIL=
200902181100 METAR MRLM NIL=
200902181200 METAR MRLM 181200Z NIL=
200902181300 METAR MRLM 181300Z 20003KT CAVOK 21/17 A2994 RMK TRACE SC CI BKN080 LGT HZ ARND=
200902181400 METAR MRLM 181400Z 20004KT CAVOK 25/17 A2995 RMK FEW080 LGT HZ ARND=
200902181500 METAR MRLM 181500Z 10003KT 9999 NSC 28/19 A2996 TRACE CU AC HZ SE=
200902181600 METAR MRLM 181600Z 10005KT 9999 NSC 28/19 A2995 RMK TRACE CU AC HZ SE=
200902181700 METAR MRLM 181700Z 09006KT 9999 NSC 29/17 A2993 RMK TRACE CU AC HZ SE=
200902181800 METAR MRLM 181800Z 09007KT CAVOK 29/19 A2990 RMK FEW050 TRACE AC HZ SE=
200902181900 METAR MRLM 181900Z 06009KT 9999 FEW040 29/20 A2987 RMK FEW150 HZ SE=
200902182000 METAR MRLM 182000Z 04010KT 9999 FEW045 SCT150 29/20 A2985 RMK LGT HZ ARND=
200902182100 METAR MRLM 182100Z 05012KT CAVOK 29/19 A2984 RMK FEW050 TRACE AC HZ SE=
200902182200 METAR MRLM 182200Z 03008KT 9999 NSC 29/19 A2983 RMK TRACE CU AC HZ SE=
200902182300 METAR MRLM 182300Z 03003KT CAVOK 29/19 A2984 RMK TRACE CU SCT090 HZ=
200902190000 METAR MRLM 190000Z 04003KT CAVOK 29/20 A2986 RMK SCT100 HZ LEVE SE=
200902190100 METAR MRLM NIL=
200902190200 METAR MRLM NIL=
200902190300 METAR MRLM NIL=
200902190400 METAR MRLM NIL=
200902190500 METAR MRLM NIL=
200902190600 METAR MRLM NIL=
200902190700 METAR MRLM NIL=
200902190800 METAR MRLM NIL=
200902190900 METAR MRLM NIL=
200902191000 METAR MRLM NIL=
200902191100 METAR MRLM NIL=
200902191200 METAR MRLM 191200Z 23004KT 9999 DZ FEW010 SCT080 22/20 A2987 FEW100=
200902191300 METAR MRLM 191300Z 00000KT 9999 FEW010 BKN080 23/21 A2990 REDZ RMK FEW100 DZ E NE=
200902191400 METAR MRLM 191400Z 20004KT 9999 FEW010 BKN090 23/21 A2991 RMK FEW100 HZ ARN D=
200902191500 METAR MRLM 191500Z 22006KT 9999 FEW015 SCT080 25/22 A2991 RMK SCT100 HZ SE=
200902191600 METAR MRLM 191600Z 14004KT 9999 FEW020 BKN080 26/22 A2992 RMK FEW100 HZ SE=
200902191700 METAR MRLM 191700Z 18004KT 9999 FEW025 SCT090 27/22 A2990 RMK SCT100=
200902191800 METAR MRLM 191800Z 17004KT 9999 FEW025 BKN090 26/22 A2988 RMK DZ SW NE=
200902191900 METAR MRLM 191900Z 00000KT 9999 FEW030 BKN090 28/22 A2985 RMK FEW100=
200902192000 METAR MRLM 192000Z 02004KT 9999 FEW030 BKN090 29/22 A2982=
200902192052 METAR MRLM 102100Z 02007KT 9999 FEW030 SCT090 28/22 A2981 HZ ARND=
200902192100 METAR MRLM NIL=
200902192200 METAR MRLM 192200Z 01005KT 9999 FEW035 SCT09029/23 A2980 FEW100 HZ ARND=
200902192300 METAR MRLM 192300Z 05005KT 9999 FEW025 BKN090 28/23 A2981 TRACE CI HZ ARND=
200902192352 METAR MRLM 200000Z 28006KT 9999 FEW020SCT080 27/23 A2982 FEW090 RN NW N NE HZY=
200902200000 METAR MRLM 200000Z 28006KT 9999 FEW020SCT080 27/23 A2982 FEW090 RN NW N NE HZY=
200902200100 METAR MRLM NIL=
200902200200 METAR MRLM NIL=
200902200300 METAR MRLM NIL=
200902200400 METAR MRLM NIL=
200902200500 METAR MRLM NIL=
200902200600 METAR MRLM NIL=
200902200700 METAR MRLM NIL=
200902200800 METAR MRLM NIL=
200902200900 METAR MRLM NIL=
200902201000 METAR MRLM NIL=
200902201100 METAR MRLM NIL=
200902201200 METAR MRLM 201200Z 21005KT 3000 RA OVC010 23/22 A2985=
200902201300 METAR MRLM 201300Z 21005KT 3000 +RA FEW005 OVC015 23/22 A2987=
200902201400 METAR MRLM 201400Z 20005KT 5000 RA FEW005 BKN015 23/22 A2989=
200902201500 METAR MRLM 201500Z 20004KT 5000 +DZ FEW005 BKN020 23/22A2990 RERA FEW090=
200902201600 METAR MRLM 201600Z 22005KT 8000 +DZ FEW005 BKN035 24/23 A2990 TRACE ST HZ SE=
200902201700 METAR MRLM 201700Z 22003KT 2000 +RA OVC010 24/23 A2984=
200902201800 METAR MRLM 201800Z 27003KT 1000 +RA OVC010 24/23 A2987=
200902201900 METAR MRLM 201900Z 12008KT 1500 +RA OVC010 23/22 A2985=
200902202000 METAR MRLM 202000Z 19008KT 8000 +DZ FEW005 BKN020 23/22 A2983 RERA RN NE SW=
200902202100 METAR MRLM 202100Z 19004KT 9999 -DZ SCT005 SCT020 24/23 A2982 RMK TRACE ST RN W SW E=
200902202200 METAR MRLM 202200Z 20005KT 9999 DZ SCT005 SCT025 24/23 A2983 RMK RN W SW=
200902202300 METAR MRLM 202300Z 21004KT 9999 -DZ SCT010 SCT030 24/23 A2983 RMK RN S SW HZ ARND=
200902210000 METAR MRLM 210000Z 20003KT 9999 FEW010 SCT030 24/23 A2984 REDZ RMK FEW080 RN SW HZ ARND=
200902210100 METAR MRLM NIL=
200902210200 METAR MRLM NIL=
200902210300 METAR MRLM NIL=
200902210400 METAR MRLM NIL=
200902210500 METAR MRLM NIL=
200902210600 METAR MRLM NIL=
200902210700 METAR MRLM NIL=
200902210800 METAR MRLM NIL=
200902210900 METAR MRLM NIL=
200902211000 METAR MRLM NIL=
200902211100 METAR MRLM NIL=
200902211200 METAR MRLM NIL=
200902211300 METAR MRLM 211300Z 2003KT 9999 FEW015 BKN080 23/21 A2990 REDZ RMK FEW100 RN S W HZ ARND=
200902211400 METAR MRLM 211400Z 21006KT CAVOK 26/21 A2991 RMK SCT080 FEW100 TRACE SC CU TCU DST NW N HZ LGT ARND=
200902211500 METAR MRLM 211500Z 19004KT CAVOK 28/21 A2992 RMK TRACE CU FEW080 SCT140 HZ LGT ARND TCU N=
200902211600 METAR MRLM 211600Z 09005KT 9999 SCT040 SCT100 29/21 A2992 RMK FEW080 RN DST SE HZ LGT ARND=
200902211700 METAR MRLM 211700Z 08005KT 9999 FEW040 BKN090 29/21 A2991 RMK RN DST N NE HZ LGT ARND=
200902211800 METAR MRLM 211800Z 02005KT 9999 FEW040 BKN080 29/21 A2989 RMK TCU RN DST N HZ LGT ARND=
200902211900 METAR MRLM 211900Z 36019KT 9999 SCT025 SCT090 27/23 A2988 RMK DZ N=
200902212000 METAR MRLM 212000Z 05012KT 9999 FEW025 BKN090 27/22 A2986 RMK FEW080 DZ N HZ LGT ARND=
200902212100 METAR MRLM 212100Z 02013KT 9999 FEW030 SCT070 27/21 A2985 SCT090 DZ N/NE HZ LGT ARND=
200902212200 METAR MRLM 212200Z 22004KT CAVOK 29/20 A2984 TRAZAS CU SCT070 SCT090 HZ LGT ARND=
200902212300 METAR MRLM 212300Z 25003KT CAVOK 27/21 A2985 TRAZAS CU SCT070 SCT090 HZ LGT ARND=
200902220000 METAR MRLM 220000Z 00000KT CAVOK 25/22 A2986 SCT090 HZ LGT ARWLD=
200902220100 METAR MRLM NIL=
200902220200 METAR MRLM NIL=
200902220300 METAR MRLM NIL=
200902220400 METAR MRLM NIL=
200902220500 METAR MRLM NIL=
200902220600 METAR MRLM NIL=
200902220700 METAR MRLM NIL=
200902220800 METAR MRLM NIL=
200902220900 METAR MRLM NIL=
200902221000 METAR MRLM NIL=
200902221100 METAR MRLM NIL=
200902221200 METAR MRLM NIL=
200902221300 METAR MRLM 221300Z 23002KT 9999 SCT025 SCT090 23/21 A2993 RN DST W TRAZAS CI HZ ARND=
200902221400 METAR MRLM 221400Z 24004KT 9999 FEW015 SCT080 25/22 A2994 SCT100 TRAZAS CI DZ W HZ ARND=
200902221500 METAR MRLM 221500Z 05003KT CAVOK 26/23 A2995 TRAZAS CU SCT090 SCT280 HZ LGT ARND=
200902221600 METAR MRLM 221600Z 04004KT 9999 FEW025 27/22 A2995 FEW110 FEW280 HZ LGT ARM D=
200902221700 METAR MRLM 221700Z 36005KT 9999 FEW025 28/23 A2994 FEW110 FEW280 HZ SE=
200902221800 METAR MRLM 221800Z 35007KT 9999 FEW025 SCT280 29/23 A2991 FEW110 HZ SE=
200902221900 METAR MRLM 221900Z 01008KT 9999 FEW025 BKN280 29/23 A2990 RMK FEW110 HZ SE=
200902222000 METAR MRLM 222000Z 01007KT 9999 FEW030 BKN280 29/23 A2988 RMK TRAZAS AC CICU HZ LGT ARND=
200902222100 METAR MRLM 222100Z 01006KT 9999 FEW030 BKN280 29/23 A2986 RMK HZ SE=
200902222200 METAR MRLM 222200Z 35004KT 9999 BKN025 SCT280 29/24 A2987 RMK LGT HZ ARND=
200902222300 METAR MRLM 222300Z 35003KT 9999 BKN020 28/24 A2988 RMK FEW280 LGT HZ ARND=
200902230000 METAR MRLM 230000Z 36005KT 9999 OVC020 27/23 A2989 RMK TRACE AC CI HZ ARND=
200902230100 METAR MRLM NIL=
200902230200 METAR MRLM NIL=
200902230300 METAR MRLM NIL=
200902230400 METAR MRLM NIL=
200902230500 METAR MRLM NIL=
200902230600 METAR MRLM NIL=
200902230700 METAR MRLM NIL=
200902230800 METAR MRLM NIL=
200902230900 METAR MRLM NIL=
200902231000 METAR MRLM NIL=
200902231100 METAR MRLM NIL=
200902231200 METAR MRLM 231200Z 17002KT 8000 -DZ BKN010 23/22 A2993 RMK FEW080 RN SW E N=
200902231300 METAR MRLM 231300Z 19003KT 8000 -DZ BKN010 23/21 A2996 RMK FEW080 RN DST SW E SE=
200902231400 METAR MRLM 231400Z 20004KT 8000 RA OVC010 23/22 A2998=
200902231500 METAR MRLM 231500Z 20004KT 9999 DZ BKN010 24/23 A3000 RERA RMK FEW080=
200902231600 METAR MRLM 231600Z 24004KT 9999 SCT015 SCT090 26/23 A3001 REDZ RMK RN DST SW HZ SE=
200902231700 METAR MRLM 231700Z 25012KT 9999 FEW030 SCT090 29/23 A2999 RMK RN DST SW HZ ARND=
200902231800 METAR MRLM 231800Z 20010KT 9999 SCT030 29/23 A2997 RMK HZ SE=
200902231900 METAR MRLM 231900Z 01008KT 9999 SCT030 29/23 A2995 RMK HZ SE=
200902232000 METAR MRLM 232000Z 02007KT 9999 SCT030 29/23 A2993 RMK HZ SE=
200902232100 METAR MRLM 232100Z 05005KT 9999 FEW035 30/23 A2990 RMK TRACE CU AC HZ SE=
200902232200 METAR MRLM 232200Z 05007KT 9999 FEW030 30/23 A2990=
200902232300 METAR MRLM 232300Z 05003KT 9999 FEW025 28/23 A2991 RMK TRACE AC HZ ARND=
200902240000 METAR MRLM 240000Z 34004KT 9999 FEW025 SCT110 27/23 A2992 RMK HZ ARND=
200902240100 METAR MRLM NIL=
200902240200 METAR MRLM NIL=
200902240300 METAR MRLM NIL=
200902240400 METAR MRLM NIL=
200902240500 METAR MRLM NIL=
200902240600 METAR MRLM NIL=
200902240700 METAR MRLM NIL=
200902240800 METAR MRLM NIL=
200902240900 METAR MRLM NIL=
200902241000 METAR MRLM NIL=
200902241100 METAR MRLM NIL=
200902241200 METAR MRLM NIL=
200902241300 METAR MRLM 241300Z 24004KT CAVOK 23/21 A2995 RMK BKN080 FEW100 RN W HZ ARND=
200902241400 METAR MRLM 241400Z 23002KT 9999 FEW015 BKN080 24/21 A2997 RMK FEW100 HZ SE=
200902241500 METAR MRLM 241500Z 16003KT 9999 FEW025 SCT080 26/21 A2998 RMK FEW100 DZ NE E HZ SE=
200902241600 METAR MRLM 241600Z 09006KT 9999 FEW025 BKN090 26/22 A2999 RMK FEW100 DZ N SW HZ ARN D=
200902241700 METAR MRLM 241700Z 19004KT 9999 FEW030 SCT100 28/21 A2997 RMK SCT120=
200902241800 METAR MRLM 241800Z 09006KT 9999 FEW035 29/21 A2993 RMK FEW120 FEW270 HZ SE=
200902241900 METAR MRLM 241900Z 06006KT 9999 FEW035 SCT110 29/22 A2991 RMK TRACE CI=
200902242000 METAR MRLM 242000Z 03006KT 9999 FEW040 SCT110 30/21 A2988=
200902242100 METAR MRLM 242100Z 02009KT 9999 FEW035 BKN100 29/22 A2987 HZ ARND=
200902242200 METAR MRLM 242200Z 31016KT 9999 FEW020 BKN090 27/21 A2987 FEW100 DZ N NE E HZY=
200902242300 METAR MRLM 242300Z 01010KT 9999 FEW025 BKN090 27/22 A2987 DZ N NE E/HZY=
200902242353 METAR MRLM 250000Z 02012KT 9999 FEW025 SCT090 27/22 A2988 DZ NE E HZY=
200902250000 METAR MRLM 250000Z 02012KT 9999 FEW025 SCT090 27/22 A2988 DZ NE E HZY=
200902250100 METAR MRLM NIL=
200902250200 METAR MRLM NIL=
200902250300 METAR MRLM NIL=
200902250400 METAR MRLM NIL=
200902250500 METAR MRLM NIL=
200902250600 METAR MRLM NIL=
200902250700 METAR MRLM NIL=
200902250800 METAR MRLM NIL=
200902250900 METAR MRLM NIL=
200902251000 METAR MRLM NIL=
200902251100 METAR MRLM NIL=
200902251200 METAR MRLM NIL=
200902251300 METAR MRLM 251300Z 22004KT 9999 FEW015 23/20 A2996 RMK TRACE CI HZY=
200902251400 METAR MRLM 251400Z 22004KT 9999 FEW015 SCT130 26/21 A2987 RMK HZ LGT ARND=
200902251500 METAR MRLM 251500Z 02002KT 9999 SCT020 BKN090 28/22 A2999 RMK RN DIST NE E HZ ARND=
200902251600 METAR MRLM 251600Z 35005KT 9999 FEW025 BKN090 28/22 A2999 RMK DZ DST=
200902251700 METAR MRLM 251700Z NIL=
200902251800 METAR MRLM 251800Z 35016KT 9999 DZ BKN023 27/23 A2996 RMK VIS E 8KM DUE RN FEW090=
200902251900 METAR MRLM 251900Z COR 05011KT 9999 DZ SCT028 SCT090 26/21 A2994 RMK VIS 8KM E DUE RN=
200902252000 METAR MRLM 252000Z 02004KT CAVOK 27/20 A2992 REDZ RMK SCT080 SCT100 TRACE SC VIS E 8KM DUE RN=
200902252100 METAR MRLM 252100Z 12007KT 9999 FEW020 SCT080 25/21 A2991 RMK RN DST ARND SCT100=
200902252200 METAR MRLM 252200Z 20004KT 9999 FEW020 SCT080 25/21 A2990 RMK SCT100 RN DST N E=
200902252300 METAR MRLM 252300Z 03006KT 6000 +DZ FEW020 SCT070 24/22 A2992 RMK SCT090 UNL NW N=
200902260000 METAR MRLM 260000Z 06004KT 5000 +DZ FEW008 BKN020 23/22 A2993 RMK FEW080=
200902260100 METAR MRLM NIL=
200902260200 METAR MRLM NIL=
200902260300 METAR MRLM NIL=
200902260400 METAR MRLM NIL=
200902260500 METAR MRLM NIL=
200902260600 METAR MRLM NIL=
200902260700 METAR MRLM NIL=
200902260800 METAR MRLM NIL=
200902260900 METAR MRLM NIL=
200902261000 METAR MRLM NIL=
200902261100 METAR MRLM NIL=
200902261200 METAR MRLM NIL=
200902261300 METAR MRLM 261300Z 24006KT 8000 DZ BKN025 22/21 A2996 RMK FEW090 VIS SE S UNL=
200902261400 METAR MRLM 261400Z 22008KT 8000 -DZ FEW020 BKN080 22/21 A2999 RMK FEW100 VIS N UNL=
200902261500 METAR MRLM 261500Z 18006KT 9999 FEW010 SCT080 23/21 A3000 REDZ RMK RN DST ARND=
200902261600 METAR MRLM 261600Z 19006KT 9999 SCT015 SCT080 25/22 A2999 RMK FEW110 RN DST ARND=
200902261700 METAR MRLM 261700Z 20004KT 9999 BKN025 26/21 A2997 RMK DZ HZ ARND FEW090=
200902261800 METAR MRLM 261800Z 23005KT 9999 SCT020 SCT080 26/21 A2997 RMK FEW110 DZ DST E SE SW W HZ ARND LGT=
200902261900 METAR MRLM 261900Z 23004KT 9999 OVC025 26/22 A2992 RMK RN DST SE S DZ N NE=
200902262000 METAR MRLM 262000Z 18005KT 9999 SCT025 SCT080 26/22 A2989 RMK FEW100 HZ LGT ARND=
200902262100 METAR MRLM 262100Z 20005KT 9999 BKN025 26/21 A2988 FEW080 FEW110 RN DST E/S=
200902262200 METAR MRLM 262200Z 20005KT 9999 SCT025 SCT080 27/22 A2987 FEW100 DZ SE=
200902262300 METAR MRLM 262300Z 21003KT 9999 FEW020 BKN080 26/22 A2987 DZ S=
200902270000 METAR MRLM 270000Z 22002KT 9999 FEW015 SCT080 25/22 A2988 RN DST NW SCT090=
200902270100 METAR MRLM NIL=
200902270200 METAR MRLM NIL=
200902270300 METAR MRLM NIL=
200902270400 METAR MRLM NIL=
200902270500 METAR MRLM NIL=
200902270600 METAR MRLM NIL=
200902270700 METAR MRLM NIL=
200902270800 METAR MRLM NIL=
200902270900 METAR MRLM NIL=
200902271000 METAR MRLM NIL=
200902271100 METAR MRLM NIL=
200902271200 METAR MRLM 271200Z 23004KT 8000 -DZ SCT005 SCT070 22/21 A2989 RMK FEW090=
200902271300 METAR MRLM 271300Z 27003KT 9999 FEW005 SCT070 22/21 A2990 REDZ SCT090 RN DST W/S HZ ARND=
200902271400 METAR MRLM 271400Z 2/21 A2992 HZ ARND=
200902271500 METAR MRLM 271500Z 23005KT 8000 -DZ FEW010 SCT070 23/22 A2994 FEW090 HZ ARN D=
200902271600 METAR MRLM 271600Z 20005KT 9999 FEW010 BKN070 24/22 A2994 REDZ DZ NE/S=
200902271700 METAR MRLM 271700Z 21005KT 9999 FEW010 SCT080 24/23 A2993 REDZ FEW100=
200902271800 METAR MRLM 271800Z 20005KT 6000 -DZ FEW010 OVC025 24/22 A2991 HZ ARND=
200902271900 METAR MRLM 271900Z 21004KT 8000 -DZ BKN010 24/21 A2989 RMK FEW025 HZ ARND=
200902272000 METAR MRLM 272000Z 20005KT 9999 SCT010 SCT070 24/22 A2986 RERA RMK RN DST NW HZ SE=
200902272100 METAR MRLM 272100Z 21004KT 9999 FEW015 SCT070 25/22 A2984 RMK FEW090 HZ SE=
200902272200 METAR MRLM 272200Z 19004KT 9999 FEW010 BKN090 26/22 A2983 RMK HZ SE=
200902272300 METAR MRLM 272300Z 19003KT 9999 FEW020 BKN090 25/22 A2983 RMK HZ SE=
200902280000 METAR MRLM 280000Z 00000KT CAVOK 24/22 A2984 RMK BKN090 TRACE CU HZ SE=
200902280100 METAR MRLM NIL=
200902280200 METAR MRLM NIL=
200902280300 METAR MRLM NIL=
200902280400 METAR MRLM NIL=
200902280500 METAR MRLM NIL=
200902280600 METAR MRLM NIL=
200902280700 METAR MRLM NIL=
200902280800 METAR MRLM NIL=
200902280900 METAR MRLM NIL=
200902281000 METAR MRLM NIL=
200902281100 METAR MRLM NIL=
200902281200 METAR MRLM 281200Z NIL=
200902281300 METAR MRLM 281300Z 00000KT 8000 DZ SCT010 SCT030 22/21 A2989 RMK RN W HZ ARND=
200902281400 METAR MRLM 281400Z 16006KT 8000 -DZ SCT010 SCT070 22/21 A2991 LGT HZ ARND=
200902281500 METAR MRLM 281500Z 19008KT 8000 DZ SCT010 SCT070 23/22 A2991 RMK RN N QUAD HZ SE=
200902281600 METAR MRLM 281600Z 22004KT 9999 SCT020 SCT090 25/22 A2991 REDZ RMK RN SE=
200902281700 METAR MRLM 281700Z 00000KT 9999 SCT020 SCT090 26/22 A2990 RMK FEW100 RN NW=
200902281800 METAR MRLM 281800Z 19003KT 9999 FEW030 BKN090 27/22 A2987 RMK HZ SE=
200902281900 METAR MRLM 281900Z 00000KT 9999 FEW030 BKN090 28/22 A2985 RMK FEW100 HZ SE=
200902282000 METAR MRLM 282000Z 08004KT 5000 +DZ SCT025 SCT080 27/22 A2983 RMK FEW100 HZ ARND=
200902282100 METAR MRLM 282100Z 27004KT 9999 SCT015 BKN080 25/22 A2982 REDZ RMK FEW100 RN DST SW N=
200902282200 METAR MRLM 282200Z 32004KT 5000 -DZ BKN015 27/22 A2984 RMK FEW080 HZ ARND=
200902282300 METAR MRLM 282300Z 24004KT 9999 SCT010 SCT080 24/22 A2985 REDZ RMK FEW100 RN DST SW DZ NE=
200903010000 METAR MRLM 010000Z 21005KT 9999 SCT010 SCT080 23/21 A2985 RMK DZ DST SW N HZ ARND=
200903010100 METAR MRLM NIL=
200903010200 METAR MRLM NIL=
200903010300 METAR MRLM NIL=
200903010400 METAR MRLM NIL=
200903010500 METAR MRLM NIL=
200903010600 METAR MRLM NIL=
200903010700 METAR MRLM NIL=
200903010800 METAR MRLM NIL=
200903010900 METAR MRLM NIL=
200903011000 METAR MRLM NIL=
200903011100 METAR MRLM NIL=
200903011200 METAR MRLM NIL=
200903011300 METAR MRLM 011300Z 00000KT CAVOK 22/20 A2991 RMK BKN080 RN DST QUAD N=
200903011400 METAR MRLM 011400Z 26004KT CAVOK A2992 RMK BKN090 RN DST QUAD N=
200903011500 METAR MRLM 011500Z 03004KT CAVOK 29/22 A2994 RMK TRACE CU BKN100 RN DST N NE HZ ARND=
200903011600 METAR MRLM 011600Z 36007KT 9999 FEW035 SCT080 29/22 A2994 RMK SCT110 RN DST N NE E=
200903011700 METAR MRLM 011700Z 35012KT 9999 FEW025 SCT080 27/23 A2993 RMK SCT100 RN DST NE E=
200903011800 METAR MRLM 011800Z 05015KT 9999 FEW030 SCT080 28/21 A2992 RMK DZ DST QUAD N E SCT100=
200903011900 METAR MRLM 011900Z 36006KT 9999 FEW032 SCT080 27/21 A2990 RMK DZ DST QUAD E RN DST SW SCT090=
200903012000 METAR MRLM 012000Z 01004KT 9999 BKN028 SCT090 28/22 A2988 RMK DIST S SW W=
200903012100 METAR MRLM 012100Z 21005KT 9999 SCT030 SCT090 27/21 A2987 RMK RN DIST NE E N S SW W=
200903012200 METAR MRLM 012200Z 20004KT 9999 OVC025 27/22 A2986 RMK RN DIST ARND=
200903012300 METAR MRLM 012300Z 10007KT 9999 -DZ BKN015 SCT090 25/22 A2988 RMK VIS 8KM E SE S DUE RN=
200903020000 METAR MRLM 02000Z 20004KT 3000 RA SCT010 SCT09024/22 A2990=
200903020100 METAR MRLM NIL=
200903020200 METAR MRLM NIL=
200903020300 METAR MRLM NIL=
200903020400 METAR MRLM NIL=
200903020500 METAR MRLM NIL=
200903020600 METAR MRLM NIL=
200903020700 METAR MRLM NIL=
200903020800 METAR MRLM NIL=
200903020900 METAR MRLM NIL=
200903021000 METAR MRLM NIL=
200903021100 METAR MRLM NIL=
200903021200 METAR MRLM NIL=
200903021300 METAR MRLM 021300Z 21005KT 9999 FEW015 SCT080 BKN100 23/19 A2997 RMK RN DIST NE E SE=
200903021400 METAR MRLM 021400Z 15004KT 9999 BKN015 SCT090 23/20 RMK DZ SE S HZ LGT ARND=
200903021500 METAR MRLM 021500Z 22006KT 9999 FEW020 BKN080 24/20 A3001 RN DIST N E QUAD FEW090=
200903021600 METAR MRLM 021600Z 20004KT 9999 SCT025 SCT080 26/21 A3000 RMK VIS NE 5KM DUE RN=
200903021700 METAR MRLM 021700Z 25005KT 9999 FEW025 BKN08026/21 A3000 FEW090 RMK RN SW W=
200903021800 METAR MRLM 021800Z 25006KT CAVOK 27/20 A2999 RMK TRACE SC FEW100 DZ DIST SE SW W NW=
200903021900 METAR MRLM 021900Z 24007KT CAVOK 27/21 A2997 RMK TRACE CU BKN090 FEW100 LGT HZ ARND=
200903022000 METAR MRLM 022000Z 24005KT 9999 FEW040 BKN090 A2994 RMK DZ N NE=
200903022100 METAR MRLM 022100Z 12002KT 9999 FEW032 BKN080 26/20 A2993 RMK RN DST ARND=
200903022200 METAR MRLM 022200Z 35003KT 9999 FEW015 BKN028 27/21 A2993 RMK VIS NE E 7000 DUE RN TRACE AC AS=
200903022300 METAR MRLM 022300Z 03009KT 9999 DZ SCT020 BKN080 25/21 A2996 RMK RN ARND=
200903030000 METAR MRLM 030000Z 28004KT 5000 +DZ HZ BKN012 23/20 A2999 RMK FEW090 HZ ARND=
200903030100 METAR MRLM NIL=
200903030200 METAR MRLM NIL=
200903030300 METAR MRLM NIL=
200903030400 METAR MRLM NIL=
200903030500 METAR MRLM NIL=
200903030600 METAR MRLM NIL=
200903030700 METAR MRLM NIL=
200903030800 METAR MRLM NIL=
200903030900 METAR MRLM NIL=
200903031000 METAR MRLM NIL=
200903031100 METAR MRLM NIL=
200903031200 METAR MRLM 031200Z 22004KT 9999 SCT010 SCT080 21/20 A3000 RMK RN DST SW NE E=
200903031300 METAR MRLM 031300Z 22003KT 9999 DZ FEW010 SCT080 22/20 A3003 RMK FEW090 RN DST E=
200903031400 METAR MRLM 031400Z 22004KT 9999 FEW010 BKN080 22/21 A3004 REDZ RMK FEW090 RN DST N NE HZ SE=
200903031500 METAR MRLM 031500Z 00000KT 9999 FEW015 BKN090 24/21 A3006 RMK VIS NE N 5000 HZ SE=
200903031600 METAR MRLM 031600Z 28009KT 3000 -DZ HZ FEW015 OVC030 23/21 A3006 RMK RN DST ARND=
200903031700 METAR MRLM 031700Z 26007KT 8000 -DZ FEW010 BKN070 22/21 A3005 RMK RN DST N NE HZ ARND=
200903031800 METAR MRLM 031800Z 27007KT 5000 +DZ OVC010 22/21 A3004 RMK RN DST N NE E HZ ARND=
200903031900 METAR MRLM 031900Z 26008KT 9999 SCT010 SCT070 23/22 A3002 RMK RN DST NE HZ ARND=
200903032000 METAR MRLM 032000Z 28007KT 8000 DZ BKN010 23/21 A3001 RMK FEW070 RN DST NE HZ ARND=
200903032100 METAR MRLM 032100Z 30007KT 8000 DZ SCT010 SCT070 23/21 A3000 RN DST E HZ ARND=
200903032200 METAR MRLM 032200Z 32004KT 4000 +DZ BKN010 23/21 A3001 FEW070 HZ ARND=
200903032300 METAR MRLM 032300Z 24005KT 8000 DZ SCT010 SCT080 22/21 A3000 RN DST N/NE HZ ARND=
200903040000 METAR MRLM 040000Z 24005KT 8000 DZ BKN010 SCT080 21/20 A3001 HZ ARND=
200903040100 METAR MRLM NIL=
200903040200 METAR MRLM NIL=
200903040300 METAR MRLM NIL=
200903040400 METAR MRLM NIL=
200903040500 METAR MRLM NIL=
200903040600 METAR MRLM NIL=
200903040700 METAR MRLM NIL=
200903040800 METAR MRLM NIL=
200903040900 METAR MRLM NIL=
200903041000 METAR MRLM NIL=
200903041100 METAR MRLM NIL=
200903041200 METAR MRLM 041200Z 21004KT 9999 FEW010 BKN080 21/19 A3000 RMK TRACE AC CI HZ SE=
200903041300 METAR MRLM 041300Z 21003KT 9999 FEW015 SCT080 23/20 A3001 FEW100 HZ SE=
200903041400 METAR MRLM 041400Z 00000KT 9999 FEW020 BKN080 24/21 A3002 DZ NW HZ SE=
200903041500 METAR MRLM 041500Z 27006KT 9999 FEW020 BKN090 25/21 A3004 DZ DST NW/N HZ SE=
200903041600 METAR MRLM 041600Z 27005KT 9999 FEW020 SCT080 25/21 A3005 FEW090 DZ DST N HZ SE=
200903041700 METAR MRLM 041700Z 29005KT 2000 -RA OVC010 23/22 A3004 HZ ARND REDZ=
200903041800 METAR MRLM 041800Z 24005KT 2000 +DZ FEW008 OVC010 23/21 A3001 RERA HZ ARND=
200903041900 METAR MRLM 041900Z 25005KT 3000 -DZ OVC015 23/22 A2999 HZ ARND=
200903042000 METAR MRLM 042000Z 26005KT 3000 +DZ OVC015 23/21 A2997 HZ ARND=
200903042100 METAR MRLM 042100Z 27004KT 2000 +DZ OVC015 23/21 A2996 RMK HZ ARND=
200903042200 METAR MRLM 042200Z 23003KT 1500 +RA OVC010 23/21 A2996 HZ ARND=
200903042300 METAR MRLM 042300Z 24004KT 3000 +DZ OVC005 22/21 A2996=
200903050000 METAR MRLM 050000Z 24004KT 3000 +DZ OVC005 22/21 A2996=
200903050100 METAR MRLM NIL=
200903050200 METAR MRLM NIL=
200903050300 METAR MRLM NIL=
200903050400 METAR MRLM NIL=
200903050500 METAR MRLM NIL=
200903050600 METAR MRLM NIL=
200903050700 METAR MRLM NIL=
200903050800 METAR MRLM NIL=
200903050900 METAR MRLM NIL=
200903051000 METAR MRLM NIL=
200903051100 METAR MRLM NIL=
200903051200 METAR MRLM 051200Z 09012KT 3000 RA FEW005 BKN010 23/22 A2997 RMK FEW090=
200903051300 METAR MRLM 051300Z 13014KT 2000 -RA FEW005 BKN010 23/21 A2999 RMK FEW090=
200903051400 METAR MRLM 051400Z 20006KT 6000 +DZ FEW005 BKN010 22/21 A3000 RMK FEW090=
200903051500 METAR MRLM 051500Z 19007KT 5000 RA FEW005 BKN010 22/21 A3002 RMK VIS 8KMS TO N=
200903051600 METAR MRLM 051600Z 22004KT 9999 DZ OVC010 24/23 A3001 RERA RMK VIS 5KMS NE E=
200903051700 METAR MRLM 051700Z 17003KT 8000 DZ BKN015 25/23 A2999 RMK TRACE ST FEW090 RN HZ ARND=
200903051800 METAR MRLM 051800Z 21003KT 8000 +DZ BKN010 25/23 A2997 RMK FEW090 VIS UNL S QUAD=
200903051900 METAR MRLM 051900Z 14003KT 6000 +DZ BKN010 25/23 A2995 RMK VIS 9KMS N HZ ARND=
200903052000 METAR MRLM 052000Z 18005KT 9999 BKN015 SCT080 26/23 A2992 REDZ RN HZ ARND=
200903052100 METAR MRLM 052100Z 11007KT 9999 DZ OVC120 26/22 A2990 RMK RN DST HZ ARND=
200903052200 METAR MRLM 052200Z 19004KT 9999 DZ OVC015 25/23 A2990 RMK VIS 8000 QUAD N RA TRACE ST HZ ARND=
200903052300 METAR MRLM 052300Z 22003KT 6000 -DZ OVC010TCU 25/23 A2991 RMK VIS 9999 SW W=
200903060000 METAR MRLM 060000Z 29003KT 3000 +RA OVC010 24/23 A2994=
200903060100 METAR MRLM NIL=
200903060200 METAR MRLM NIL=
200903060300 METAR MRLM NIL=
200903060400 METAR MRLM NIL=
200903060500 METAR MRLM NIL=
200903060600 METAR MRLM NIL=
200903060700 METAR MRLM NIL=
200903060800 METAR MRLM NIL=
200903060900 METAR MRLM NIL=
200903061000 METAR MRLM NIL=
200903061100 METAR MRLM NIL=
200903061200 METAR MRLM NIL=
200903061300 METAR MRLM 061300Z 20003KT 5000 RA BKN012 23/22 A3000 RMK FEW090=
200903061400 METAR MRLM 061400Z 19006KT 4000 -RA BKN010 23/22 A3001 RMK FEW090=
200903061500 METAR MRLM 061500Z 18006KT 4000 -RA BKN010 23/22 A3002 RMK FEW090=
200903061600 METAR MRLM 061600Z 19006KT 4000 RA FEW006 BKN010 23/22 A3003 RMK FEW090=
200903061700 METAR MRLM 061700Z 21009KT 9999 BKN015 25/23 A3000 RERA FEW110 RN HZ ARND=
200903061800 METAR MRLM 061800Z 19007KT 9999 OVC018 26/23 A2998 RMK TRACE ST VIS 6000 QUAD E RN=
200903061900 METAR MRLM 061900Z 17005KT 3000 -RA FEW005 OVC015 24/22 A2997 RMK TRAZAS AS=
200903062000 METAR MRLM 062000Z 21005KT 9999 BKN012 26/23 A2994 RERA RMK RN DZ AROUND FEW100=
200903062100 METAR MRLM 062100Z 17003KT 9999 BKN018 27/23 A2992 RMK FEW130 RN DIST HZ ARND=
200903062200 METAR MRLM 062200Z 08008KT 9999 SCT020 SCT100 27/23 A2992 RMK FEW140 RN AND HZ ARND=
200903062300 METAR MRLM 062300Z 11002KT 9999 SCT028 SCT090 28/23 A2991 RMK HZ HZ ARND=
200903062358 METAR MRLM 070000Z 14004KT 7000 RA OVC013 25/23 A2993 TRACE AC AS=
200903070000 METAR MRLM 070000Z 14004KT 7000 RA OVC013 25/23 A2993 TRACE AC AS=
200903070100 METAR MRLM NIL=
200903070200 METAR MRLM NIL=
200903070300 METAR MRLM NIL=
200903070400 METAR MRLM NIL=
200903070500 METAR MRLM NIL=
200903070600 METAR MRLM NIL=
200903070700 METAR MRLM NIL=
200903070800 METAR MRLM NIL=
200903070900 METAR MRLM NIL=
200903071000 METAR MRLM NIL=
200903071100 METAR MRLM NIL=
200903071200 METAR MRLM 071200Z 22003KT 9999 FEW010 BKN090 22/21 A2994 RMK DZ N QUAD=
200903071300 METAR MRLM 071300Z 20005KT 9999 SCT010 SCT090 23/21 A2997 RMK DZ N HZ SE=
200903071400 METAR MRLM 071400Z 17006KT 5000 +DZ SCT010 BKN090 22/21 A3001 RMK DZ DST W N NE HZ ARND=
200903071500 METAR MRLM 071500Z 20006KT 9999 FEW020 BKN100 25/21 A3000 RMK HZ SE=
200903071600 METAR MRLM 071600Z 16005KT 9999 FEW025 SCT080 27/20 A3000 RMK SCT100=
200903071700 METAR MRLM 071700Z 09004KT 9999 SCT030 SCT090 29/21 A2998 RMK DZ N NE=
200903071800 METAR MRLM 071800Z 20002KT 9999 BKN010 SCT100 25/22 A2998 RERA RMK HZ SE=
200903071900 METAR MRLM 071900Z 19004KT 9999 FEW025 BKN100 27/21 A2993 RMK HZ SE=
200903072000 METAR MRLM 072000Z 04004KT 9999 FEW035 BKN100 29/21 A2990 RMK HZ ARND=
200903072100 METAR MRLM 072100Z 05010KT 9999 SCT030 BKN090 28/27 A2989 RMK DZ DST N NE HZ ARND=
200903072200 METAR MRLM 072200Z 03013KT 9999 DZ SCT015 BKN090 25/22 A2990 RMK DZ NE E HZ ARND=
200903072300 METAR MRLM 072300Z 02005KT 9999 FEW020 BKN090 26/22 A2991 REDZ RMK DZ NE HZ ARND=
200903072359 METAR MRLM 080000Z 00000KT 9999 SCT015 SCT090 25/22 A2992 RMK DZ NW N E HZ ARND=
200903080000 METAR MRLM 080000Z 00000KT 9999 SCT015 SCT090 25/22 A2992 RMK DZ NW N E HZ ARND=
200903080100 METAR MRLM NIL=
200903080200 METAR MRLM NIL=
200903080300 METAR MRLM NIL=
200903080400 METAR MRLM NIL=
200903080500 METAR MRLM NIL=
200903080600 METAR MRLM NIL=
200903080700 METAR MRLM NIL=
200903080800 METAR MRLM NIL=
200903080900 METAR MRLM NIL=
200903081000 METAR MRLM NIL=
200903081100 METAR MRLM NIL=
200903081200 METAR MRLM 081200Z 22004KT 7000 -DZ FEW005 BKN030 22/21 A2990 RMK FEW090 RN DST QUAD N HZ ARND=
200903081300 METAR MRLM 081300Z 21005KT 4000 +DZ SCT005 SCT030 23/22 A2992 RMK RN DST N HZ ARND=
200903081400 METAR MRLM 081400Z 19006KT 3000 -RA BKN010 23/22 A2994 RMK FEW080=
200903081500 METAR MRLM 081500Z 21003KT 2000 +RA OVC010 23/22 A2997 RMK HZ ARND=
200903081600 METAR MRLM 081600Z 21004KT 3000 -RA SCT010 SCT030 24/21 A2997 RMK FEW080 HZ ARND=
200903081700 METAR MRLM 081700Z 29005KT 7000 -DZ SCT010 SCT030 25/23 A2996 RERA VIS SW UNL HZ ARND=
200903081800 METAR MRLM 081800Z 00000KT 5000 RA OVC010 24/22 A2994 REDZ RMK TRACE AC HZ ARND=
200903081900 METAR MRLM 081900Z 31003KT 7000 +DZ OVC010 24/22 A2992 RERA TRAZAS AS HZ SE=
200903082000 METAR MRLM 082000Z 21006KT 8000 -DZ SCT015 SCT030 25/22 A2988 FEW090 RN DST N/NE HZ SE=
200903082100 METAR MRLM 082100Z 21004KT 2000 +RA OVC010 24/22 A2986 RMK HZY=
200903082200 METAR MRLM 082200Z 00000KT 1500 +RA OVC005 23/22 2988=
200903082300 METAR MRLM 082300Z 24006KT 1500 +RA BKN005 23/22 2988 RMK FEW080 HZ ARND=
200903090000 METAR MRLM 090000Z 15005KT 1000 +RA OVC005 23/22 A2990 RMK HZ ARND=
200903090100 METAR MRLM NIL=
200903090200 METAR MRLM NIL=
200903090300 METAR MRLM NIL=
200903090400 METAR MRLM NIL=
200903090500 METAR MRLM NIL=
200903090600 METAR MRLM NIL=
200903090700 METAR MRLM NIL=
200903090800 METAR MRLM NIL=
200903090900 METAR MRLM NIL=
200903091000 METAR MRLM NIL=
200903091100 METAR MRLM NIL=
200903091200 METAR MRLM 091200Z NIL=
200903091300 METAR MRLM 091300Z 21006KT 8000 DZ BKN015 22/21 A2994 RMK FEW090 RN/HZ ARND RAMPA INUNDADA=
200903091400 METAR MRLM 091400Z 21006KT 9999 SCT015 SCT080 23/22 A2996 RMK VIS 8KM N/NE RN/HZ ARND RAMPA INUMDADA=
200903091500 METAR MRLM 091500Z 35005KT 5000 RA BKN010 24/22 A2998 RMK TRAZAS ST FEW090 RAMPA INUNDADA=
200903091600 METAR MRLM NIL=
200903091700 METAR MRLM 091700Z 20005KT 9999 FEW018 BKN080 26/22 A2996 REDZ RMK FEW080 HZ ARND RAMPO INUNDADA=
200903091800 METAR MRLM 091800Z 0000OKT 8000 +DZ SCT020 SCT080 27/22 A2994 RMK VIS UNL QUAND N HZ ARN=
200903091900 METAR MRLM 091900Z 19005KT 9999 BKN020 SCT080 27/23 A2992 REDZ RMK RN DST QUAND S HZ ARND=
200903092000 METAR MRLM 092000Z 19005KT 9999 OVC020 27/23 A2989 RMK RN DST QUAND S TCU DST NW HZ ARND=
200903092100 METAR MRLM 092100Z 14005KT 9999 BKN025 27/22 A2988 RMK FEW090 RN HZ ARND=
200903092200 METAR MRLM 092200Z 10012KT 4000 +DZ HZ BKN025 26/21 A2989 RMK FEW080=
200903092300 METAR MRLM 092300Z 20004KT 8000 +DZ HZ SCT008 SCT090 23/22 A2991 RERA=
200903100000 METAR MRLM 100000Z 20006KT 8000 DZ HZ BKN010 SCT080 23/21 A2992=
200903100100 METAR MRLM 100100Z 09017KT 9999 NSC 26/19 A2981 RMK TRACE AC VEL MAX VTO 25KT=
200903100200 METAR MRLM NIL=
200903100300 METAR MRLM NIL=
200903100400 METAR MRLM NIL=
200903100500 METAR MRLM NIL=
200903100600 METAR MRLM NIL=
200903100700 METAR MRLM NIL=
200903100800 METAR MRLM NIL=
200903100900 METAR MRLM NIL=
200903101000 METAR MRLM NIL=
200903101100 METAR MRLM NIL=
200903101200 METAR MRLM NIL=
200903101300 METAR MRLM 101300Z 21005KT 9999 FEW015 BKN080 23/21 A2994 RMK TCU RN DST NE HZ ARND=
200903101400 METAR MRLM NIL=
200903101500 METAR MRLM 101500Z 18003KT CAVOK 26/21 A2998 REDZ RMK TRACE SC OVC090 HZ ARND=
200903101600 METAR MRLM 101600Z 12004KT 9999 FEW040 SCT110 29/20 A2997 RMK TCU DST N HZ ARND=
200903101700 METAR MRLM 101700Z 09006KT 9999 BKN038 29/21 A2995 RMK FEW110 HZ ARND=
200903101800 METAR MRLM NIL=
200903101900 METAR MRLM 101900Z 11006KT 9999 FEW040 BKN090 29/21 A2991 RMK HZ ARND=
200903102000 METAR MRLM 102000Z 11007KT 9999 FEW040 BKN090 29/21 A2989 RMK HZ ARND=
200903102100 METAR MRLM 102100Z 10006KT CAVOK 28/20 A2986 RMK TRACE SC BKN090 HZ=
200903102200 METAR MRLM 102200Z 14004KT CAVOK 27/20 A2986 RMK TRACE SC SCT090 HZ=
200903102300 METAR MRLM 102300Z 12002KT CAVOK 27/22 A2987 RMK TRACE SC BKN090 FEW150 HZ LEVE ARND=
200903110000 METAR MRLM 110000Z 09006KT 9999 FEW030 BKN090 27/21 A2989 RMK FEW140 TRACECI HZ ARND=
200903110100 METAR MRLM NIL=
200903110200 METAR MRLM NIL=
200903110300 METAR MRLM NIL=
200903110400 METAR MRLM NIL=
200903110500 METAR MRLM NIL=
200903110600 METAR MRLM NIL=
200903110700 METAR MRLM NIL=
200903110800 METAR MRLM NIL=
200903110900 METAR MRLM NIL=
200903111000 METAR MRLM NIL=
200903111100 METAR MRLM NIL=
200903111200 METAR MRLM 111200Z 00000KT 9999 FEW010 SCT100 20/19 A2991 RMK HZ SE=
200903111300 METAR MRLM 111300Z 00000KT 9999 FEW015 BKN100 22/19 A2994=
200903111400 METAR MRLM 111400Z 00000KT 9999 FEW020 BKN090 23/20 A2995 RMK RN DST N NE HZ SE=
200903111500 METAR MRLM 111500Z 17004KT 9999 SCT020 SCT090 25/21 A2997 RMK RN DST W HZ ARND=
200903111600 METAR MRLM 111600Z 03007KT 9999 SCT025 BKN090 27/22 A2998 RMK RN DST N SW HZ LEVE ARND=
200903111700 METAR MRLM 111700Z 06010KT 9999 SCT020 BKN090 26/22 A2996 RMK HZ LEVE ARND=
200903111800 METAR MRLM 111800Z 08005KT 9999 SCT030 BKN090 27/21 A2994 RMK HZ LEVE ARND=
200903111900 METAR MRLM 111900Z 10007KT 9999 FEW040 BKN100 29/20 A2991 RMK HZ ARND=
200903112000 METAR MRLM 112000Z 10006KT 9999 FEW040 BKN100 28/19 A2988 RMK HZ ARND=
200903112100 METAR MRLM 112100Z 07006KT 9999 FEW035 BKN090 28/21 A2987 RMK HZY=
200903112200 METAR MRLM 112200Z 02006KT 9999 FEW035 BKN090 27/20 A2987 RN DIST SW HZ ARND=
200903112300 METAR MRLM 112300Z 00000KT 9999 SCT030 SCT080 26/20 A2987 RMK RN DIST S SW HZY=
200903112354 METAR MRLM 120000Z 00000KT 9999 SCT020 BKN080 25/22 A2989 RMK RN DIST SW HZ ARND=
200903120000 METAR MRLM 120000Z 00000KT 9999 SCT020 BKN080 25/22 A2989 RMK RN DIST SW HZ ARND=
200903120100 METAR MRLM NIL=
200903120200 METAR MRLM NIL=
200903120300 METAR MRLM NIL=
200903120400 METAR MRLM NIL=
200903120500 METAR MRLM NIL=
200903120600 METAR MRLM NIL=
200903120700 METAR MRLM NIL=
200903120800 METAR MRLM NIL=
200903120900 METAR MRLM NIL=
200903121000 METAR MRLM NIL=
200903121100 METAR MRLM NIL=
200903121200 METAR MRLM NIL=
200903121300 METAR MRLM 121300Z 00000KT 9999 FEW015 BKN090 22/19 A2994 RMK RN N HZ SE=
200903121400 METAR MRLM 121400Z 00000KT 9999 SCT020 SCT090 25/20 A2997 RN DIST N HZ ARND=
200903121500 METAR MRLM 121500Z 05009KT 9999 FEW030 SCT090 26/21 A2999 FEW100 HZ ARND=
200903121600 METAR MRLM 121600Z 11002KT 9999 FEW040 BKN090 28/19 A2999 RMK HZ SE=
200903121700 METAR MRLM 121700Z 11007KT 9999 FEW030 BKN090 28/21 A2998 RMK HZ ARND=
200903121800 METAR MRLM 121800Z 10007KT 9999 SCT040 SCT090 29/21 A2995 FEW100 RN=
200903121900 METAR MRLM 121900Z 09005KT 9999 FEW040 BKN100 29/19 A2993 RMK HZ LGT ARND=
200903122000 METAR MRLM 122000Z 07005KT CAVOK 29/20 A2991 RMK BKN100 TRACE CU HZ ARND=
200903122100 METAR MRLM 122100Z 03005KT 9999 FEW040 SCT100 30/21 A2989 RMK HZ SE=
200903122200 METAR MRLM 122200Z 03003KT 9999 FEW035 SCT110 29/21 A2988 RMK HZ SE=
200903122300 METAR MRLM 122300Z 04003KT 9999 FEW030 BKN110 27/21 A2988 RMK HZ LGT ARND=
200903130000 METAR MRLM 130000Z 05004KT 9999 FEW030 BKN100 27/21 A2990 RMK HZ ARND=
200903130100 METAR MRLM NIL=
200903130200 METAR MRLM NIL=
200903130300 METAR MRLM NIL=
200903130400 METAR MRLM NIL=
200903130500 METAR MRLM NIL=
200903130600 METAR MRLM NIL=
200903130700 METAR MRLM NIL=
200903130800 METAR MRLM NIL=
200903130900 METAR MRLM NIL=
200903131000 METAR MRLM NIL=
200903131100 METAR MRLM NIL=
200903131200 METAR MRLM 131200Z NIL=
200903131300 METAR MRLM 131300Z 19004KT 99999 FEW040 BKN080 22/19 A2995 RN NE E DZ W HZY=
200903131400 METAR MRLM 131400Z 16002KT 9999 BKN040 24/20 A2997 RMK FEW090 DZ N NE HZ ARND=
200903131500 METAR MRLM 131500Z 10003KT CAVOK 26/21 A2998 RMK TRACE SC FEW070 BKN090 HZ ARND=
200903131600 METAR MRLM 131600Z 06005KTCAVOK 27/20 A2998 RMK TRACE CI FEW070 BKN090 HZ ARND=
200903131700 METAR MRLM 131700Z 09007KT CAVOK 29/21 A2995 RMK TRACE CU SCT110 HZ ARND LGT ARND=
200903131800 METAR MRLM 131800Z 07009KT 9999 FEW038 SCT120 28/21 RMK TCU NE DIST HZ ARND LGT=
200903131900 METAR MRLM 131900Z 07007KT 9999 FEW035 29/21 A2990 RMK FEW 140 HZ LGT ARND=
200903132000 METAR MRLM 132000Z 06007KT 9999 FEW035 28/22 A2988 RMK FEW140 TRACE CI HZ ARND=
200903132100 METAR MRLM 132100Z 05007KT 9999 FEW035 SCT110 28/22 A2886 RMK TRAZAS CI HZ LGT ARND=
200903132200 METAR MRLM 132200Z 03006KT 9999 FEW030 BKN090 28/21 A2986 RMK TRAZAS CI CB DST S HZ LGT ARND=
200903132300 METAR MRLM 132300Z 02005KT 9999 FEW030 BKN100 27/21 A2987 RMK FEW280 CB/RN DST SE HZ LGT ARND=
200903140000 METAR MRLM 140000Z 36008KT 9999 SCT022 BKN100 26/22 A2989 RMK TRAZAS CI RN DST QUANDS S/W HZ LGT ARND=
200903140100 METAR MRLM NIL=
200903140200 METAR MRLM NIL=
200903140300 METAR MRLM NIL=
200903140400 METAR MRLM NIL=
200903140500 METAR MRLM NIL=
200903140600 METAR MRLM NIL=
200903140700 METAR MRLM NIL=
200903140800 METAR MRLM NIL=
200903140900 METAR MRLM NIL=
200903141000 METAR MRLM NIL=
200903141100 METAR MRLM NIL=
200903141200 METAR MRLM 141200Z NIL=
200903141230 METAR MRLM 141230Z 18003KT CAVOK 23/20 A2994 OVC090 DZ DST S/SW HZ ALGT ARN D=
200903141300 METAR MRLM 141300Z 20004KT CAVOK 23/20 A2995 RMK TRAZAS SC OVC090 DZ SW RN DST SW HZ ARND=
200903141400 METAR MRLM 141400Z 21006KT CAVOK 25/20 A2996 RMK BKN070 FEW090 RN DST NE HZ LGT ARND=
200903141500 METAR MRLM 141500Z 19004KT CAVOK 27/21 A2998 RMK SCT070 BKN090 DZ NE/N/E HZ LGT ARND=
200903141600 METAR MRLM 141600Z 11002KT CAVOK 28/21 A2998 RMK TRAZAS CU BKN070 FEW090 HZ LGT ARND=
200903141700 METAR MRLM 141700Z 04004KT 9999 FEW040 BKN090 29/21 A2996 RMK HZ LGT ARND=
200903141800 METAR MRLM 141800Z 04006KT 9999 FEW035 BKN140 29/22 A2994 RMK HZ ARND=
200903141900 METAR MRLM 141900Z 04008KT 9999 FEW035 BKN110 29/22 2992 RMK HZ ARND=
200903142000 METAR MRLM 142000Z 04008KT 9999 FEW035 BKN090 28/21 A2990 RMK RN DST S/SW HZ LGT ARND=
200903142100 METAR MRLM 142100Z 04007KT 9999 FEW035 BKN090 28/22 A2988 RMK RN DST S SW LGT HZ ARND=
200903142200 METAR MRLM 142200Z 06007KT 9999 FEW030 BKN090 27/21 A2988 RMK RN DST S SW LGT HZ ARND=
200903142300 METAR MRLM 142300Z 08004KT 9999 FEW025 BKN080 27/22 A2989 RMK TRACE CI RN DST SW LGT HZ ARND=
200903150000 METAR MRLM 150000Z 08003KT 9999 SCT028 SCT090 27/21 A2990 RMK RN DST S SW W TRACE CI LGT HZ ARND=
200903150100 METAR MRLM 150100Z 07010KT 9999 SKC 28/17 A2980=
200903150200 METAR MRLM NIL=
200903150300 METAR MRLM NIL=
200903150400 METAR MRLM NIL=
200903150500 METAR MRLM NIL=
200903150600 METAR MRLM NIL=
200903150700 METAR MRLM NIL=
200903150800 METAR MRLM NIL=
200903150900 METAR MRLM NIL=
200903151000 METAR MRLM NIL=
200903151100 METAR MRLM NIL=
200903151200 METAR MRLM 151200Z 20003KT 9999 FEW010 BKN100 22/21 A2996 RMK HZ SE=
200903151300 METAR MRLM 151300Z 21003KT 9999 FEW015 SCT100 24/21 A2997=
200903151400 METAR MRLM 151400Z 20003KT CAVOK 26/21 A2999 RMK TRACE SC CU BKN100 FEW120 HZ SE=
200903151500 METAR MRLM 151500Z 09005KT 9999 NSC 28/22 A2999 RMK TRACE SC CU AC=
200903151600 METAR MRLM 151600Z 08008KT 9999 FEW030 28/22 A2999 RMK TRACE AC HZ SE=
200903151700 METAR MRLM 151700Z 07010KT 9999 FEW030 28/22 A2996 RMK TRACE AS HZ SE=
200903151800 METAR MRLM 151800Z 06009KT 9999 FEW030 29/22 A2994 RMK TRACE AS HZ SE=
200903151900 METAR MRLM 151900Z 05010KT 9999 FEW035 29/22 A2991 RMK TRACE AS HZ SE=
200903152000 METAR MRLM 152000Z 05009KT 9999 FEW035 29/22 A2989 TRACE AS HZ SE=
200903152100 METAR MRLM 152100Z 05008KT 9999 FEW030 29/22 A2989 RMK TRACE AS HZ SE=
200903152200 METAR MRLM 152200Z 06005KT 9999 FEW030 SCT130 28/22 A2989 HZ SE=
200903152300 METAR MRLM 152300Z 07004KT 9999 FEW025 SCT130 28/22 A2990 RMK LGT HZ ARND=
200903160000 METAR MRLM 160000Z 09004KT 9999 FEW020 SCT140 27/22 A2992 RMK FEW270 HZ LGT ARND=
200903160100 METAR MRLM NIL=
200903160200 METAR MRLM NIL=
200903160300 METAR MRLM NIL=
200903160400 METAR MRLM NIL=
200903160500 METAR MRLM NIL=
200903160600 METAR MRLM NIL=
200903160700 METAR MRLM NIL=
200903160800 METAR MRLM NIL=
200903160900 METAR MRLM NIL=
200903161000 METAR MRLM NIL=
200903161100 METAR MRLM NIL=
200903161200 METAR MRLM 161200Z 23002KT 9999 SCT010 22/20 A2997 RMK TRAZAS AC HZ LGT ARND=
200903161300 METAR MRLM 161300Z 00000KT 9999 FEW015 SCT110 24/20 A3000 RMK RN DST NW HZ LEVE ARND=
200903161400 METAR MRLM 161400Z 11002KT 9999 FEW020 SCT100 24/20 A3002 RMK FEW110 DZ DST NE E=
200903161500 METAR MRLM 161500Z 12010KT 9999 FEW020 BKN090 26/21 A3004 RMK FEW110 DZ DST NE E SE HZ ARND=
200903161600 METAR MRLM 161600Z 19003KT 9999 FEW030 BKN100 28/21 A3003 RMK HZ SE=
200903161700 METAR MRLM 161700Z 09006KT 9999 FEW040 29/21 A3001 RMK TRACE AS HZ SE=
200903161800 METAR MRLM 161800Z 08006KT 9999 FEW040 29/22 A2998 RMK HZ SE=
200903161900 METAR MRLM 161900Z 08007KT 9999 FEW035 29/22 A2996 RMK HZ SE=
200903162000 METAR MRLM 162000Z 06008KT 9999 FEW035 29/22 A2993=
200903162100 METAR MRLM 162100Z 06007KT 9999 FEW030 29/22 A2993 RMK TRACE AS HZ SE=
200903162200 METAR MRLM 162200Z 05006KT 9999 FEW030 29/22 A2993 RMK TRACE AC AS HZ LGT ARND=
200903162300 METAR MRLM 162300Z 05005KT 9999 BKN030 28/22 A2992 RMK FEW080 HZ LGT ARND=
200903170000 METAR MRLM 170000Z 04004KT 9999 SCT025 SCT080 27/22 A2993 RMK HZ ARND=
200903170100 METAR MRLM NIL=
200903170200 METAR MRLM NIL=
200903170300 METAR MRLM NIL=
200903170400 METAR MRLM NIL=
200903170500 METAR MRLM NIL=
200903170600 METAR MRLM NIL=
200903170700 METAR MRLM NIL=
200903170800 METAR MRLM NIL=
200903170900 METAR MRLM NIL=
200903171000 METAR MRLM NIL=
200903171100 METAR MRLM NIL=
200903171200 METAR MRLM NIL=
200903171300 METAR MRLM 171300Z 21002KT 9999 FEW0 5 BKN080 23/22 A2998 RMK RN N QUAD HZ ARND=
200903171400 METAR MRLM 171400Z 26002KT 9999 FEW015 27/22 A2999 RMK RMK FEW120 HZ ARND=
200903171500 METAR MRLM 171500Z 02002KT 9999 FEW035TCU 29/22 A3000 RMK TRACE AC HZY=
200903171600 METAR MRLM 171600Z 02006KT 9999 SCT035 29/22 A3000 RMK FEW090 HZ ARND=
200903171700 METAR MRLM 171700Z 36007KT 9999 SCT030 29/23 A2998 RMK FEW090 HZ ARND=
200903171800 METAR MRLM 171800Z 01008KT 9999 FEW030 29/23 A2995 TRACE AC HZY=
200903171900 METAR MRLM 171900Z 36007KT 9999 FEW028 28/23 A2993 RMK FEW090 RN SW HZ LGT ARND=
200903172000 METAR MRLM 172000Z 36007KT 9999 SCT025 SCT090 29/23 A2991 RMK RN DST SW HZ LGT ARND=
200903172100 METAR MRLM 172100Z 36007KT 9999 BKN030 28/22 A2989 RMK FEW090 RN DST S/SW HZ LGT ARNWD=
200903172200 METAR MRLM 221700Z 36007KT 9999 SCT030 SCT090 28/22 A2990 RMK RN DST SW HZ LGT ARNWD=
200903172300 METAR MRLM NIL=
200903180000 METAR MRLM NIL=
200903180100 METAR MRLM NIL=
200903180200 METAR MRLM NIL=
200903180300 METAR MRLM NIL=
200903180400 METAR MRLM NIL=
200903180500 METAR MRLM NIL=
200903180600 METAR MRLM NIL=
200903180700 METAR MRLM NIL=
200903180800 METAR MRLM NIL=
200903180900 METAR MRLM NIL=
200903181000 METAR MRLM NIL=
200903181100 METAR MRLM NIL=
200903181200 METAR MRLM 181200Z NIL=
200903181300 METAR MRLM 181300Z 22004KT 9999 FEW015 23/20 A2995 RMK TRACE AC HZ ARND LGT=
200903181400 METAR MRLM 181400Z 22003KT 9999 FEW025 27/22 A2985 RMK HZ LGT ARND=
200903181500 METAR MRLM 181500Z 04004KT 9999 SCT035 28/22 A2996 RMK HZ ARND LGT=
200903181600 METAR MRLM 181600Z 01006KT 9999 FEW025 28/22 A2995 RMK HZ ARND LGT=
200903181700 METAR MRLM 181700Z 02007KT 9999 NSC 26/11 A2999 RMK TRECE CU VL MX VTO 21KT=
200903181800 METAR MRLM 181800Z 01007KT 9999 FEW025 29/22 A2993 RMK TRACE AC HZ LGT ARND=
200903181900 METAR MRLM 181900Z 01087KT 9999 FEW032 29/22 A2992 RMK FEW110 HZ ARND=
200903182000 METAR MRLM 182000Z 01006KT 9999 FEW035 29/22 A2987 RMK HZ LGT ARND=
200903182100 METAR MRLM NIL=
200903182200 METAR MRLM 182200Z 35005KT 9999 SCT030 SCT080 28/22 A2985 RMK HZ LGT ARND=
200903182300 METAR MRLM 182300Z 03002KT 9999 BKN032 28/21 A2986 RMK FEW110 HZ LGT ARND=
200903190000 METAR MRLM 190000Z 00000KT 9999 SCT020 SCT110 26/22 A2986 RMK FEW300 HZ LGT ARND=
200903190100 METAR MRLM NIL=
200903190200 METAR MRLM NIL=
200903190300 METAR MRLM NIL=
200903190400 METAR MRLM NIL=
200903190500 METAR MRLM NIL=
200903190600 METAR MRLM NIL=
200903190700 METAR MRLM NIL=
200903190800 METAR MRLM NIL=
200903190900 METAR MRLM NIL=
200903191000 METAR MRLM NIL=
200903191100 METAR MRLM NIL=
200903191200 METAR MRLM 191200Z 22004KT 9999 FEW010 21/19 A2989 RMK TRACE AS HZ LGT ARND=
200903191300 METAR MRLM 191300Z 20005KT 9999 NSC 23/21 A2990 RMK TRAZAS CU/SC/AC HZ LGT ARND=
200903191400 METAR MRLM 191400Z 20002KT 9999 NSC 26/22 A2992 RMK TRAZAS CU HZ SE=
200903191500 METAR MRLM 191500Z 04002KT 9999 FEW030 28/22 A2993 RMK HZ SE=
200903191600 METAR MRLM 191600Z 04005KT 9999 FEW030 28/22 A2992 RMK HZ SE=
200903191700 METAR MRLM 191700Z 04505KT 9999 FEW030 28/22 A2991 RMK HZ LGT ARND=
200903191800 METAR MRLM 191800Z 03006KT 9999 FEW035 29/22 A2986 RMK HZ LGT ARND=
200903191900 METAR MRLM 191900Z 04005KT 9999 FEW035 29/22 A2987 RMK FEW100 HZLGT ARND=
200903192000 METAR MRLM 192000Z 03004KT 9999 SCT035 SCT100 29/22 A2984 RMK HZ LGT ARND=
200903192100 METAR MRLM 192100Z 03004KT 9999 SCT040 29/22 A2983 RMK FEW100 LGT HZ ARND=
200903192200 METAR MRLM 192200Z 04004KT 9999 SCT030 28/22 A2982 RMK FEW100 HZ ARND=
200903192300 METAR MRLM 192300Z 04006KT 9999 SCT030 SCT090 27/22 A2983 RMK LGT HZ ARND=
200903200000 METAR MRLM 200000Z 05003KT 9999 SCT030 BKN090 27/22 A2983 RMK HZ LGT ARND=
200903200100 METAR MRLM NIL=
200903200200 METAR MRLM NIL=
200903200300 METAR MRLM NIL=
200903200400 METAR MRLM NIL=
200903200500 METAR MRLM NIL=
200903200600 METAR MRLM NIL=
200903200700 METAR MRLM NIL=
200903200800 METAR MRLM NIL=
200903200900 METAR MRLM NIL=
200903201000 METAR MRLM NIL=
200903201100 METAR MRLM NIL=
200903201200 METAR MRLM 201200Z 22003KT CAOK 21/20 A2988 RMK FEW100 TRACE SC HZ SE=
200903201300 METAR MRLM 201300Z 20004KT CAVOK 23/21 A2990 RMK SCT100 TRACE SC CU HZ SE=
200903201400 METAR MRLM 201400Z 19003KT 9999 FEW030 27/21 A2992 RMK TRACE ACAS HZ SE=
200903201500 METAR MRLM 201500Z 07002KT 9999 SCT035 29/22 A2993 RMK TRACE AC LGT HZ ARND=
200903201600 METAR MRLM 201600Z 05004KT 9999 FEW030 28/22 A2992 RMK TRACE AC LGT HZ ARND=
200903201700 METAR MRLM 201700Z 04008KT 9999 FEW030 29/22 A2991 RMK HZ SE=
200903201800 METAR MRLM 201800Z 02007KT 9999 FEW030 29/22 A2988 RMK FEW100 HZ SE=
200903201900 METAR MRLM 201900Z 04007KT 9999 FEW035 29/22 A2986 RMK FEW110=
200903202000 METAR MRLM 202000Z 04006KT 9999 FEW035 29/22 A2983 RMK SCT110=
200903202100 METAR MRLM 202100Z 02006KT 9999 FEW040 BKN110 29/22 A2982 RMK HZ SE=
200903202200 METAR MRLM 202200Z 02005KT 9999 FEW035 BKN100 28/22 A2982 RMK FEW110 HZ SE=
200903202300 METAR MRLM 202300Z 03006KT 9999 BKN030 28/21 A2983 RMK FEW100 RN DST S HZ LEVE ARND=
200903210000 METAR MRLM 210000Z 02010KT 9999 BKN025 27/22 A2984 RMK FEW090 RN DST S SW HZ LEVE ARND=
200903210100 METAR MRLM NIL=
200903210200 METAR MRLM NIL=
200903210300 METAR MRLM NIL=
200903210400 METAR MRLM NIL=
200903210500 METAR MRLM NIL=
200903210600 METAR MRLM NIL=
200903210700 METAR MRLM NIL=
200903210800 METAR MRLM NIL=
200903210900 METAR MRLM NIL=
200903211000 METAR MRLM NIL=
200903211100 METAR MRLM NIL=
200903211200 METAR MRLM 211200Z NIL=
200903211300 METAR MRLM 211300Z 21006KT 5000 +DZ HZ SCT015 SCT090 22/21 A2997 RMK VIS 9999 N NE E=
200903211400 METAR MRLM 211400Z 20004KT 9999 SCT010 SCT080 23/21 A2997 REDZ RMK FEW100 RN DST ARND=
200903211500 METAR MRLM 211500Z 18005KT 9999 BKN020 25/21 A2998 RMK TRACE SC FEW090 RN HZ ARND=
200903211600 METAR MRLM 211600Z 22005KT 9999 FEW020 BKN080 25/21 A2998 RMK RN DST S SE SW=
200903211700 METAR MRLM 211700Z 21006KT 9999 FEW030 BKN090 27/21 A2996 RMK RN DST E=
200903211800 METAR MRLM 211800Z 23003KT 9999 SCT045 SCT090 29/20 A2994 RMK RN DST E HZ LEVE ARND=
200903211900 METAR MRLM 211900Z 03005KT 9999 SCT040 SCT090 29/21 A2992 RMK RN DST E HZ LEVE ARND=
200903212000 METAR MRLM 212000Z 11014KT 9999 SCT025 SCT090 27/22 A2990 RMK VIS 8KM AL NE DZ DST E/S//SW/W=
200903212100 METAR MRLM 212100Z 02009KT 7000 RA BKN015 SCT080 24/22 A2990 RMK VIS UNL W NW N=
200903212200 METAR MRLM 212200Z 21003KT 9999 FEW015 BKN080 25/22 A2989 RERA RMK RN DIST S SW W DZ SE=
200903212300 METAR MRLM 212300Z 21005KT CAVOK 24/21 A2989 TRACE SCT OVC080=
200903220000 METAR MRLM 220000Z 22004KT CAVOK 23/21 A2990 TRACE SCT OVC090 HZ ARND=
200903220100 METAR MRLM NIL=
200903220200 METAR MRLM NIL=
200903220300 METAR MRLM NIL=
200903220400 METAR MRLM NIL=
200903220500 METAR MRLM NIL=
200903220600 METAR MRLM NIL=
200903220700 METAR MRLM NIL=
200903220800 METAR MRLM NIL=
200903220900 METAR MRLM NIL=
200903221000 METAR MRLM NIL=
200903221100 METAR MRLM NIL=
200903221200 METAR MRLM NIL=
200903221300 METAR MRLM 221300Z 01008KT 5000 +DZ SCT015 SCT090 23/20 A2996=
200903221400 METAR MRLM 221400Z 24005KT 9999 BKN025 23/21 A2996 RERA RMK FEW090 RN HZ ARND=
200903221500 METAR MRLM 221500Z 24004KT 9999 BKN015 24/22 A2997 RMK DZ N NNE E RN W FEW090=
200903221600 METAR MRLM 221600Z 23005KT 9999 FEW025 BKN090 25/21 A2996 DZ S HZ ARND=
200903221700 METAR MRLM 221700Z 28003KT 9999 FEW040 BKN090 29/20 A2994 RMK TCU RN=
200903221800 METAR MRLM 221800Z 30006KT 9999 FEW035 BKN080 28/21 A2991 RMK RN DIST NW HZ LGT ARND=
200903221900 METAR MRLM 221900Z 35009KT 9999 FEW040 BKN090 29/20 A2988 RMK RN NE HZ LGT ARND=
200903222000 METAR MRLM 222000Z 35010KT 9999 FEW030 BKN090 28/21 A2986 RMK RN DST S/SW HZ LGT ARND=
200903222100 METAR MRLM 222100Z 34008KT 9999 FEW035 BKN080 28/21 A2985 RMK FEW100 RNDST SW HZ LGT ARND=
200903222200 METAR MRLM 222200Z 32007KT 9999 FEW035 SCT070 BKN090 A 2985 RMK RN DST S HZ ARND=
200903222300 METAR MRLM 222300Z 29003KT 9999 FEW025 BKN090 26/21 A2986 RMK FEW070 HZ LFR ARND=
200903230000 METAR MRLM NIL=
200903230100 METAR MRLM NIL=
200903230200 METAR MRLM NIL=
200903230300 METAR MRLM NIL=
200903230400 METAR MRLM NIL=
200903230500 METAR MRLM NIL=
200903230600 METAR MRLM NIL=
200903230700 METAR MRLM NIL=
200903230800 METAR MRLM NIL=
200903230900 METAR MRLM NIL=
200903231000 METAR MRLM NIL=
200903231100 METAR MRLM NIL=
200903231200 METAR MRLM 231200Z 22006KT 9999 FEW010 SCT090 21/19 A2989 RMK FEW110 TRACE CI HZ SE=
200903231300 METAR MRLM 231300Z 22004KT CAVOK 23/20 A2990 RMK BKN110 TRACE SC CI CU HZ SE=
200903231400 METAR MRLM 231400Z 00000KT CAVOK 25/21 A2992 RMK SCT090 FEW100 TRACE CU SC HZ SE=
200903231500 METAR MRLM 231500Z 00000KT 9999 FEW035 BKN100 27/20 A2993 RMK FEW110 HZ SE=
200903231600 METAR MRLM 231600Z 02009KT 9999 FEW030 SCT080 27/22 A2994 RMK FEW100 RN DST NE HZ LGT ARND=
200903231700 METAR MRLM 231700Z 08003KT 9999 DZ FEW015 BKN080 24/21 A2994 RMK FEW100 RN DST N NE HZ LGT ARND=
200903231800 METAR MRLM 231800Z 10008KT 9999 FEW020 BKN090 25/21 A2991 REDZ RMK FEW100 RN DST E HZ LGT ARND=
200903231900 METAR MRLM 231900Z 10012KT 9999 FEW025 BKN090 26/20 A2989 RMK HZ LGT ARND=
200903232000 METAR MRLM 232000Z 09009KT 9999 FEW025 BKN100 26/21 A2983=
200903232100 METAR MRLM NIL=
200903232200 METAR MRLM 232200Z 15003KT 9999 FEW020 BKN100 25/21 A2984 RMK FEW110 HZ LGT ARND=
200903232300 METAR MRLM 232300Z 15002KT 9999 FEW020 BKN100 25/21 A2985 RMK HZ LGT ARND=
200903240000 METAR MRLM 240000Z 17002KT 9999 FEW020 BKN100 25/21 A2986 RMK RN DST QUND S HZ ARND FU NW=
200903240100 METAR MRLM NIL=
200903240200 METAR MRLM NIL=
200903240300 METAR MRLM NIL=
200903240400 METAR MRLM NIL=
200903240500 METAR MRLM NIL=
200903240600 METAR MRLM NIL=
200903240700 METAR MRLM NIL=
200903240800 METAR MRLM NIL=
200903240900 METAR MRLM NIL=
200903241000 METAR MRLM NIL=
200903241100 METAR MRLM NIL=
200903241200 METAR MRLM 241200Z 20005KT CAVOK 20/18 A2990 RMK SCT120 FEW140 TRACE SC=
200903241300 METAR MRLM 241300Z 20005KT CAVOK 23/19 A2992 RMK TRAZAS SC/CI FEW120 HZ LGT ARND=
200903241400 METAR MRLM 241400Z 20004KT CAVOK 26/20 A2992 RMK TRAZAS CU SCT120 HZ LGT ARND=
200903241500 METAR MRLM 241500Z 07004KT CAVOK 28/20 A2993 RMK TRAZAS CU/SC SCT110 HZ SE=
200903241600 METAR MRLM 241600Z 03005KT CAVOK 28/20 A2993 RMK TRAZAS CU FEW120=
200903241700 METAR MRLM 241700Z 02006KT 9999 NSC 29/21 A2992 RMK TRAZAS CU/AC/AS/CI=
200903241800 METAR MRLM 241800Z 02007KT 9999 FEW040 29/21 A2989 RMK TRAZAS AS/CI HZ LGT ARND=
200903241900 METAR MRLM 241900Z 02009KT 9999 FEW035 29/22 A2987 RMK TRAZAS ACAS=
200903242000 METAR MRLM 242000Z 03007KT 9999 FEW035 29/22 A2986 RMK TRAZAS ACAS=
200903242100 METAR MRLM 242100Z 06004KT 9999 FEW040 SCT110 30/22 A2985 RMK HZ SE=
200903242200 METAR MRLM 242200Z 05004KT 9999 FEW030 SCT110 29/22 A2984 LGT HZ ARND TRACE CI=
200903242300 METAR MRLM 242300Z 05003KT 9999 FEW030 SCT100 28/22 A2984 RMK TRACE CI FEW120 LGT HZ ARND=
200903250000 METAR MRLM 250000Z 00000KT CAVOK 27/22 A2986 RMK TRACE CU SC SCT120 FEW270 LGT HZ ARND=
200903250100 METAR MRLM NIL=
200903250200 METAR MRLM NIL=
200903250300 METAR MRLM NIL=
200903250400 METAR MRLM NIL=
200903250500 METAR MRLM NIL=
200903250600 METAR MRLM NIL=
200903250700 METAR MRLM NIL=
200903250800 METAR MRLM NIL=
200903250900 METAR MRLM NIL=
200903251000 METAR MRLM NIL=
200903251100 METAR MRLM NIL=
200903251200 METAR MRLM NIL=
200903251300 METAR MRLM 251300Z 21004KT CAVOK 22/20 A2991 RMK TRACE CU BKN080 FEW140 FEW280 RN DST N QD=
200903251400 METAR MRLM 251400Z 19003KT CAVOK 27/22 A2992 RMK TRACE CU BKN130 FEW280 HZ ARND=
200903251500 METAR MRLM 251500Z 08003KT 9999 FEW032 BKN100 28/22 A2993 RMK TRACE CI HZ ARND=
200903251600 METAR MRLM 251600Z 06005KT 9999 SCT030 SCT090 28/22 A2993 RMK TRACE CI LGT HZ ARND=
200903251700 METAR MRLM 251700Z 08012KT 9999 SCT025 SCT100 28/23 A2993 RMK TCU DST N SW LGT HZ ARND=
200903251800 METAR MRLM 251800Z 10008KT 9999 SCT028 SCT090 28/23 A2990 RMK TCU DST SW NW N RN DST SW LGT HZ ARND=
200903251900 METAR MRLM 251900Z 10008KT 9999 FEW030 BKN100 29/23 A2987 RMK RN DST SW LGT HZ ARND=
200903252000 METAR MRLM 252000Z 19009KT 9999 FEW035 BKN090 29/22 A2985 HZ ARND=
200903252100 METAR MRLM 252100Z 10005KT 9999 FEW030 BKN090 28/22 A2984=
200903252200 METAR MRLM 252200Z 09006KT 9999 FEW033 BKN130 28/22 A2983 RMK FEW280 HZ LEVE ARND=
200903252300 METAR MRLM 252300Z 10005KT 9999 FEW033 BKN090 28/22 A2985 RMK HZ LEVE ARND=
200903260000 METAR MRLM 260000Z 09005KT CAVOK 27/21 A2986 RMK TRACE SC OVC090 HZ=
200903260100 METAR MRLM 260100Z NIL=
200903260200 METAR MRLM NIL=
200903260300 METAR MRLM NIL=
200903260400 METAR MRLM NIL=
200903260500 METAR MRLM NIL=
200903260600 METAR MRLM NIL=
200903260700 METAR MRLM NIL=
200903260800 METAR MRLM NIL=
200903260900 METAR MRLM NIL=
200903261000 METAR MRLM NIL=
200903261100 METAR MRLM NIL=
200903261200 METAR MRLM 261200Z NIL=
200903261300 METAR MRLM 261300Z 19003KT CAVOK 23/21 A2989 RMK FEW130 LEVE HZ ARND=
200903261400 METAR MRLM 261400Z 10006KT 9999 NSC 27/21 A2991 RMK TRACE CU AC HZ=
200903261500 METAR MRLM 261500Z 10009KT 9999 NSC 29/21 A2991 RMK TRACE CU CI HZ=
200903261600 METAR MRLM 261600Z 18012KT 9999 NSC 29/21 A2990 RMK TRACE CU CI HZ LEVE ARND=
200903261700 METAR MRLM 271700Z 09010KT 9999 NSC 30/22 A2988 RMK TRACE CU LEVE HZ ARND=
200903261800 METAR MRLM 261800Z 08011KT 9999 NSC 29/22 A2985 RMK TRACE CU HZ LEVE ARND=
200903261900 METAR MRLM 261900Z 07011KT 9999 FEW025 30/22 A2982 RMK LEVE HZ ARND=
200903262000 METAR MRLM 262000Z 07008KT 9999 FEW040 30/22 A2980 HZ LEVE ARND=
200903262100 METAR MRLM 262100Z 06009KT 9999 NSC 30/22 A2980 TRACE CU AC HZ LGT ARND=
200903262200 METAR MRLM 262200Z 06008KT CAVOK 29/22 A2976 RMK TRACE CU FEW140 HZ ARND=
200903262300 METAR MRLM 262300Z 05008KT CAVOK 28/22 A2980 TRACE CU SCT090 HZ ARND=
200903270000 METAR MRLM 270000Z 06007KT 9999 FEW028 BKN090 28/22 A2981 RMK RN DIST SW HZ ARND=
200903270100 METAR MRLM NIL=
200903270200 METAR MRLM NIL=
200903270300 METAR MRLM NIL=
200903270400 METAR MRLM NIL=
200903270500 METAR MRLM NIL=
200903270600 METAR MRLM NIL=
200903270700 METAR MRLM NIL=
200903270800 METAR MRLM NIL=
200903270900 METAR MRLM NIL=
200903271000 METAR MRLM NIL=
200903271100 METAR MRLM NIL=
200903271200 METAR MRLM 271200Z 00000KT 9999 FEW010 SCT110 22/21 A2983 LGT HZ ARND=
200903271300 METAR MRLM 271300Z 00000KT 9999 FEW010 SCT110 23/21 A2985 HZ SE=
200903271400 METAR MRLM 271400Z 05002KT 9999 FEW030 27/22 A2986 RMK TRACE AC HZ ARND=
200903271500 METAR MRLM 271500Z 07005KT 9999 FEW030 28/22 A2988 TRACE AC HZ ARND=
200903271600 METAR MRLM 271600Z 05008KT 9999 FEW025 28/23 A2988 RMK FEW120 HZ LGT ARND=
200903271700 METAR MRLM 271700Z 06010KT 9999 FEW030 29/23 A2986 FEW110 HZ SE=
200903271800 METAR MRLM 271800Z 06012KT 9999 FEW030 29/23 A2984 FEW110 HZ SE=
200903271900 METAR MRLM 271900Z 05008KT 9999 FEW035 30/22 A2982 FEW110 HZ ARND=
200903272000 METAR MRLM 272000Z 07009KT 9999 FEW035 30/23 A2977 RMK TRACE AC HZ ARND=
200903272100 METAR MRLM 272100Z 07008KT 9999 FEW030 29/23 A2977 TRAZAS AC/AS HZ LGT ARND=
200903272200 METAR MRLM 272200Z 09009KT 9999 FEW030 29/23 A2977 FEW100 HZ LGT ARND0=
200903272300 METAR MRLM 272300Z 08008KT 9999 SCT025 SCT100 28/23 A2977 HZ ARND=
200903280000 METAR MRLM NIL=
200903280100 METAR MRLM NIL=
200903280200 METAR MRLM NIL=
200903280300 METAR MRLM NIL=
200903280400 METAR MRLM NIL=
200903280500 METAR MRLM NIL=
200903280600 METAR MRLM NIL=
200903280700 METAR MRLM NIL=
200903280800 METAR MRLM NIL=
200903280900 METAR MRLM NIL=
200903281000 METAR MRLM NIL=
200903281100 METAR MRLM NIL=
200903281200 METAR MRLM 281200Z NIL=
200903281300 METAR MRLM 281300Z 00000KT CAVOK 23/21 A2986 RMK TRACE CU SCT100 HZ ARND=
200903281400 METAR MRLM 281400Z 00000KT CAVOK 28/23 A2988 RMK TRACE CU SC SCT100 HZ SE=
200903281500 METAR MRLM 281500Z 05004KT 9999 FEW030 28/22 A2989 RMK TRACE AC HZ ARND=
200903281600 METAR MRLM 281600Z 06005KT 9999 FEW030 28/23 A2989 RMK TRACE AC AS HZ ARND=
200903281700 METAR MRLM 281700Z 06006KT 9999 FEW030 29/24 A2989 RMK TRACE AC AS HZ SE=
200903281800 METAR MRLM 281800Z 06007KT 9999 FEW030 29/23 A2987 RMK TRACE AC HZ SE=
200903281900 METAR MRLM 281900Z 07007KT 9999 FEW030 30/24 A2985 RMK FEW100 HZ SE=
200903282000 METAR MRLM 282000Z 06006KT 9999 SCT030 SCT100 30/24 A2983 RMK HZ LEVE ARND=
200903282100 METAR MRLM 282100Z 06006KT 9999 SCT040 SCT100 30/23 A2981 RMK HZ LGT ARND=
200903282200 METAR MRLM 282200Z 06006KT 9999 SCT030 30/23 A2979 RMK FEW100 HZ LGT ARND=
200903282300 METAR MRLM 282300Z 07006KT 9999 SCT030 29/23 A2979 RMK FEW110 HZ LGT ARND=
200903290000 METAR MRLM 290000Z 08006KT 9999 SCT025 28/23 A2980 RMK FEW110 HZ LGT ARND=
200903290100 METAR MRLM NIL=
200903290200 METAR MRLM NIL=
200903290300 METAR MRLM NIL=
200903290400 METAR MRLM NIL=
200903290500 METAR MRLM NIL=
200903290600 METAR MRLM NIL=
200903290700 METAR MRLM NIL=
200903290800 METAR MRLM NIL=
200903290900 METAR MRLM NIL=
200903291000 METAR MRLM NIL=
200903291100 METAR MRLM NIL=
200903291200 METAR MRLM 291200Z NIL=
200903291300 METAR MRLM 291300Z 22004KT CAVOK 24/22 A2987 RMK TRAZAS CU/AC SCT300 HZ ARND=
200903291400 METAR MRLM 291400Z 23002KT 9999 FEW025 28/23 A2990 RMK TRAZAS AC FEW300 HZY=
200903291500 METAR MRLM 291500Z 09005KT 9999 SCT030 SCT300 29/23 A2991 RMK HZ ARND=
200903291600 METAR MRLM 291600Z 09007KT 9999 FEW030 SCT300 30/24 A2991 RMK HZ ARND=
200903291700 METAR MRLM 291700Z 08006KT 9999 FEW030 BKN300 30/24 A2989 RMK TRAZAS AC HZ LGT ARND=
200903291800 METAR MRLM 291800Z 06007KT 9999 FEW025 BKN300 30/24 A2987 RMK HZ ARND=
200903291900 METAR MRLM 291900Z 05007KT 9999 FEW028 BKN300 30/24 A2985 RMK HZ ARND=
200903292000 METAR MRLM 292000Z NIL=
200903292100 METAR MRLM 292100Z 06008KT 9999 BKN028 29/24 A2980 RMK TRACE CI RN DST SW HZ ARND=
200903292200 METAR MRLM 292200Z 09007KT 9999 FEW035 BKN280 29/23 A2980 RMK TRACE AC CB DST S LGT HZ ARND=
200903292300 METAR MRLM 292300Z 10007KT CAVOK 28/23 A2981 RMK TRACE CU FEW120 BKN280 LGT HZ ARND=
200903300000 METAR MRLM 300000Z 10007KT CAVOK 28/23 A2983 RMK BKN100 SCT280 CB DST SW W LGT HZ ARND=
200903300100 METAR MRLM NIL=
200903300200 METAR MRLM NIL=
200903300300 METAR MRLM NIL=
200903300400 METAR MRLM NIL=
200903300500 METAR MRLM NIL=
200903300600 METAR MRLM NIL=
200903300700 METAR MRLM NIL=
200903300800 METAR MRLM NIL=
200903300900 METAR MRLM NIL=
200903301000 METAR MRLM NIL=
200903301100 METAR MRLM NIL=
200903301200 METAR MRLM NIL=
200903301300 METAR MRLM 301300Z 20003KT CAVOK 25/22 A2991 RMK BKN280 HZ ARND=
200903301400 METAR MRLM 131400Z 04003KT CAVOK 28/23 A2992 RMK TRACE CU BKN300 HZ ARND=
200903301500 METAR MRLM 301500Z 08004KT CAVOK 29/23 A2992 RMK TRACE CU BKN300 HZ ARND=
200903301600 METAR MRLM 301600Z 09008KT CAVOK 29/23 A2991 RMK TRACE CU BKN300 LGT HZ ARND=
200903301700 METAR MRLM 301700Z 07008KT 9999 FEW030 30/23 A2991 RMK FEW300 LGT HZ ARND=
200903301800 METAR MRLM 301800Z 07009KT 9999 FEW030 30/24 A2988 RMK TRACE CI LGT HZ ARND=
200903301900 METAR MRLM 301900Z 07008KT 9999 FEW032 30/23 A2986 RMK TRACE CI HZ LGT ARND=
200903302000 METAR MRLM 302000Z 07009KT 9999 FEW030 30//23 A2984 RMK TRACE CI HZ ARND=
200903302100 METAR MRLM 302100Z 05007KT 9999 FEW035 30/23 A2981 RMK TRACE AC FEW300 HZ LEVE ARND=
200903302200 METAR MRLM 302200Z 06007KT 9999 FEW035 SCT110 29/23 A2981 RMK RN DST SW TRACE CI HZ LEVE ARND=
200903302300 METAR MRLM 302300Z 07006KT 9999 FEW030 BKN090 28/23 A2982 RMK FEW280 RN DST SW HZ LEVE ARND=
200903310000 METAR MRLM 310000Z 09004KT CAVOK 28/22 A2983 RMK TRACE CU BKN090 FEW080 RN DST SW HZ LEVE ARND=
200903310100 METAR MRLM NIL=
200903310200 METAR MRLM NIL=
200903310300 METAR MRLM NIL=
200903310400 METAR MRLM NIL=
200903310500 METAR MRLM NIL=
200903310600 METAR MRLM NIL=
200903310700 METAR MRLM NIL=
200903310800 METAR MRLM NIL=
200903310900 METAR MRLM NIL=
200903311000 METAR MRLM NIL=
200903311100 METAR MRLM NIL=
200903311200 METAR MRLM 311200Z 21005KT 9999 FEW010 21/20 A2989 RMK FEW110 RN DST E HZ LGT ARND=
200903311300 METAR MRLM 311300Z 20005KT CAVOK 23/21 A2991 FEW110 HZ SE=
200903311400 METAR MRLM 311400Z 00000KT CAVOK 27/21 A2992 SCT110 HZ SE=
200903311500 METAR MRLM 311500Z 08009KT 9999 FEW030 BKN100 27/22 A2994 RN DST NE HZ LGT ARND=
200903311600 METAR MRLM 311600Z 10013KT 9999 FEW030 BKN100 29/22 A2993 TRAZAS CI HZ LGT ARND=
200903311700 METAR MRLM 311700Z 11014KT 9999 FEW030 SCT110 29/22 A2991 RMK HZ SE=
200903311800 METAR MRLM 311800Z 10012KT 9999 FEW030 SCT100 30/21 A2988 RMK TRACE CI HZ SE=
200903311900 METAR MRLM 311900Z 10012KT 9999 FEW040 30/22 A2987 RMK TRACE CI FEW120 HZ LEVE ARND=
200903312000 METAR MRLM 312000Z 09011KT 9999 FEW035 30/22 A2985 RMK TRACE CI FEW120 HZ LEVE ARND=
200903312100 METAR MRLM 312100Z 09009KT 9999 FEW035 29/22 A2984 RMK TRACE AC FEW280 HZ LGT ARND=
200903312200 METAR MRLM NIL=
200903312300 METAR MRLM 312300Z 08008KT 9999 SCT030 SCT280 28/23 A2984 TRACE AC AS HZ LGT ARND=
200903312352 METAR MRLM 010000Z 08008KT 9999 SCT030 28/23 A2986 TRACE AC CI HZ ARND=
200904010000 METAR MRLM 010000Z 08008KT 9999 SCT030 28/23 A2986 TRACE AC CI HZ ARND=
200904010100 METAR MRLM NIL=
200904010200 METAR MRLM NIL=
200904010300 METAR MRLM NIL=
200904010400 METAR MRLM NIL=
200904010500 METAR MRLM NIL=
200904010600 METAR MRLM NIL=
200904010700 METAR MRLM NIL=
200904010800 METAR MRLM NIL=
200904010900 METAR MRLM NIL=
200904011000 METAR MRLM NIL=
200904011100 METAR MRLM NIL=
200904011200 METAR MRLM 011200Z 00000KT 9999 FEW010 SCT100 22/21 A2989 TRACE CIDZ NE E HZ ARND=
200904011300 METAR MRLM 011300Z 00000KT 9999 FEW010 BKN100 24/22 A2991 RMK TRACE CI DZ N NE E HZ LGT ARND=
200904011400 METAR MRLM 011400Z 00000KT 9999 FEW010 BKN100 26/23 A2993 RMK DZ N NE HZ ARND=
200904011500 METAR MRLM 011500Z 05003KT 9999 FEW025 SCT100 28/23 A2994 RMK TRACE CI HZ LGT ARND=
200904011600 METAR MRLM 011600Z 07008KT 9999 FEW030 SCT110 29/23 A2993 RMK FEW280 HZ ARND=
200904011700 METAR MRLM 011700Z 05010KT 9999 FEW030 BKN110 29/23 A2993 RMK TRACE CI HZ SE=
200904011800 METAR MRLM 011800Z 05011KT 9999 FEW030 BKN110 29/23 A2991 RMK HZ ARND=
200904011900 METAR MRLM 011900Z 05008KT 9999 SCT025 29/24 A2987 RMK FEW090 HZ ARND=
200904012000 METAR MRLM 012000Z 05008KT 9999 SCT030 SCT100 29/23 A2986 RMK HZ ARND=
200904012100 METAR MRLM 012100Z 29011KT 9999 FEW035 SCT280 32/20 A2978 RMK TCU S HZ LEVE ARND=
200904012200 METAR MRLM 012200Z 08011KT 9999 SCT025 SCT090 28/24 A2982 RMK HZ LEVE ARND=
200904012300 METAR MRLM 012300Z 06009KT 9999 SCT025 SCT090 28/23 A2983 RMK HZ LEVE ARND=
200904020000 METAR MRLM 020000Z 06009KT 9999 SCT025 SCT090 28/23 A2984 RMK FEW100 RN E SE HZ LEVE ARND=
200904020100 METAR MRLM NIL=
200904020200 METAR MRLM 020200Z 28004KT 9999 SCT040 27/23 A2983=
200904020300 METAR MRLM NIL=
200904020400 METAR MRLM NIL=
200904020500 METAR MRLM NIL=
200904020600 METAR MRLM NIL=
200904020700 METAR MRLM NIL=
200904020800 METAR MRLM NIL=
200904020900 METAR MRLM NIL=
200904021000 METAR MRLM NIL=
200904021100 METAR MRLM NIL=
200904021200 METAR MRLM NIL=
200904021300 METAR MRLM 021300Z 15003KT CAVOK 26/23 A2988 RMK TRACE CU CI SCT100 HZ ARND=
200904021400 METAR MRLM 021400Z 10007KT 9999 FEW030 28/22 A2989 RMK TRACE CI HZ=
200904021500 METAR MRLM 021500Z 10010KT 9999 FEW035 29/22 A2990 RMK TRACE CI HZ ARND=
200904021600 METAR MRLM 021600Z 10010KT 9999 FEW035 29/23 A2989RMK TRACE CI HZ ARND=
200904021700 METAR MRLM NIL=
200904021800 METAR MRLM 021800Z 08011KT 9999 FEW032 29/23 A2985 RMK TRACE CI HZ ARND=
200904021900 METAR MRLM 021900Z 08013KT 9999 FEW032 30/22 A2981 RMK FEW280 HZ ARND=
200904022000 METAR MRLM 022000Z 08011KT 9999 FEW038 29/22 A2979 RMK FEW280 HZ ARND=
200904022100 METAR MRLM 022100Z 09009KT 9999 FEW038 30/22 A2978 RMK HZ LGT ARND=
200904022200 METAR MRLM 022200Z 09009KT 9999 FEW035 29/22 A2977 RMK FEW280 HZ LGT ARND=
200904022300 METAR MRLM 022300Z 08008KT CAVOK 29/22 A2978 RMK TRAZAS CU/AC SCT280 HZ LGT ARND=
200904030000 METAR MRLM 030000Z 09007KT CAVOK28/22 A2979 RMK TRAZAS CU/AC FEW100 SCT280 HZ LGT ARND=
200904030100 METAR MRLM NIL=
200904030200 METAR MRLM NIL=
200904030300 METAR MRLM NIL=
200904030400 METAR MRLM NIL=
200904030500 METAR MRLM NIL=
200904030600 METAR MRLM NIL=
200904030700 METAR MRLM NIL=
200904030800 METAR MRLM NIL=
200904030900 METAR MRLM NIL=
200904031000 METAR MRLM NIL=
200904031100 METAR MRLM NIL=
200904031200 METAR MRLM 031200Z NIL=
200904031300 METAR MRLM 031300Z 23002KT 9999 FEW015 BKN080 25/22 A2988 RMK RN DST QUAND N HZ LGT ARND=
200904031400 METAR MRLM 031400Z 17003KT CAVOK 27/23 A2989 RMK TRAZAS CU OVC080 HZ LGT ARND=
200904031500 METAR MRLM 031500Z 11010KT 9999 FEW030 OVC090 29/23 A2989 RMK HZ LGT ARND=
200904031600 METAR MRLM 031600Z 10010KT 9999 FEW030 BKN100 29/23 A2990 RMK TRAZAS CI HZ LGT ARND=
200904031700 METAR MRLM 031700Z 08009KT 9999 FEW030 BKN100 30/24 A2989 RMK TRAZAS CI HZ LGT ARND=
200904031800 METAR MRLM 031800Z 06010KT 9999 FEW030 30/23 A2987 RMK FEW090 HZ LGT ARND=
200904031900 METAR MRLM 031900Z 06011KT 9999 FEW035 30/23 A2984 RMK HZ LGT ARND=
200904032000 METAR MRLM 032000Z 06009KT 9999 FEW032 30/23 A2981 RMK FEW090 HZ ARND=
200904032100 METAR MRLM 032100Z 05008KT 9999 SCT030 29/23 A2980 RMK FEW090 RN DST SW W LGT HZ ARND=
200904032200 METAR MRLM 032200Z 06007KT 9999 SCT028 29/23 A2979 RMK FEW090 RN DST SW HZ ARND=
200904032300 METAR MRLM 032300Z 07006KT 9999 BKN030 29/23 A2980 RMK TRACE AC RN DST SW LGT HZ ARND=
200904040000 METAR MRLM 040000Z 09006KT 9999 FEW025 SCT090 28/22 A2982 RMK TRACE CI HZ ARND=
200904040100 METAR MRLM NIL=
200904040200 METAR MRLM NIL=
200904040300 METAR MRLM NIL=
200904040400 METAR MRLM NIL=
200904040500 METAR MRLM NIL=
200904040600 METAR MRLM NIL=
200904040700 METAR MRLM NIL=
200904040800 METAR MRLM NIL=
200904040900 METAR MRLM NIL=
200904041000 METAR MRLM NIL=
200904041100 METAR MRLM NIL=
200904041200 METAR MRLM 041200Z 21005KT 9999 SCT010 SCT090 22/20 A2989 RMK FEW100 HZ SE=
200904041300 METAR MRLM 041300Z 22003KT 9999 FEW010 BKN100 23/21 A2991 RMK HZ SE=
200904041400 METAR MRLM 041400Z VRB02KT 9999 SCT012 26/24 A2989=
200904041401 METAR MRLM 041401Z COR 19004KT CAVOK 28/23 A2993 RMK TRACE CU SC SCT100 HZ SE=
200904041500 METAR MRLM 041500Z 09006KT 9999 SCT030 29/23 A2992 RMK FEW100 HZ SE=
200904041600 METAR MRLM 041600Z 08007KT 9999 FEW035 30/23 A2992 RMK TRACE AC LGT HZ ARND=
200904041700 METAR MRLM 041700Z 06006KT 9999 FEW030 29/23 A2992 RMK TRACE AC LGT HZ ARND=
200904041800 METAR MRLM 041800Z 06007KT 9999 FEW030 30/23 A2990 RMK TRACE AC HZ ARND=
200904041900 METAR MRLM 041900Z 08007KT 9999 FEW030 30/23 A2986 RMK HZ ARND=
200904042000 METAR MRLM 042000Z 06007KT 9999 FEW040 30/23 A2983 RMK TRACE AC LGT HZ ARND=
200904042100 METAR MRLM 042100Z 05009KT 9999 SCT040 30/23 A2981 RMK HZ LEVE ARND=
200904042200 METAR MRLM 042200Z 05008KT 9999 SCT040 30/22 A2982 RMK HZ LGT ARND=
200904042300 METAR MRLM 042300Z 07006KT 9999 SCT030 29/22 A2982 RMK FEW100 HZ LGT ARND=
200904050000 METAR MRLM 050000Z 07005KT 9999 SCT030 28/22 A2983 RMK FEW100 HZ LGT ARND=
200904050100 METAR MRLM NIL=
200904050200 METAR MRLM NIL=
200904050300 METAR MRLM NIL=
200904050400 METAR MRLM NIL=
200904050500 METAR MRLM NIL=
200904050600 METAR MRLM NIL=
200904050700 METAR MRLM NIL=
200904050800 METAR MRLM NIL=
200904050900 METAR MRLM NIL=
200904051000 METAR MRLM NIL=
200904051100 METAR MRLM NIL=
200904051200 METAR MRLM 051200Z NIL=
200904051300 METAR MRLM 051300Z 22003KT 9999 SCT010 SCT100 24/22 A2987 RMK HZ SE=
200904051400 METAR MRLM 051400Z 19002KT 9999 SCT020 28/23 A2989 RMK FEW110 HZ SE=
200904051500 METAR MRLM 051500Z 07003KT 9999 FEW030 29/23 A2990 RMK HZ SE=
200904051600 METAR MRLM 051600Z 06004KT 9999 FEW030 29/22 A2991 RMK HZ LGT ARND=
200904051700 METAR MRLM 051700Z 06006KT 9999 FEW040 30/22 A2990 RMK TRACE AC HZ LGT ARND=
200904051800 METAR MRLM 051800Z 05007KT 9999 FEW040 30/23 A2989 RMK TRACE AC HZ LGT ARND=
200904051900 METAR MRLM 051900Z 06009KT 9999 FEW035 30/23 A2987 RMK TRACE AC HZ LGT ARND=
200904052000 METAR MRLM 052000Z 06008KT 9999 SCT040 30/22 A2984 RMK TRACE AC HZ LGT ARND=
200904052100 METAR MRLM 052100Z 05009KT 9999 SCT040 30/23 A2983 RMK FEW100 HZ SE=
200904052200 METAR MRLM 052200Z 06008KT 9999 SCT040 SCT100 30/22 A2982 RMK HZ SE=
200904052300 METAR MRLM 052300Z 05009KT 9999 SCT030 SCT100 29/23 A2983 HZ SE=
200904060000 METAR MRLM 060000Z 06009KT 9999 BKN030 28/23 A2984 FEW100 HZ LGT ARND=
200904060100 METAR MRLM NIL=
200904060200 METAR MRLM NIL=
200904060300 METAR MRLM NIL=
200904060400 METAR MRLM NIL=
200904060500 METAR MRLM NIL=
200904060600 METAR MRLM NIL=
200904060700 METAR MRLM NIL=
200904060800 METAR MRLM NIL=
200904060900 METAR MRLM NIL=
200904061000 METAR MRLM NIL=
200904061100 METAR MRLM NIL=
200904061200 METAR MRLM NIL=
200904061300 METAR MRLM 061300Z 21004KT 9999 FEW015 25/21 A2990 RMK HZ LGT ARND=
200904061400 METAR MRLM 061400Z 20003KT 9999 SCT033 28/22 A2992 RMK TRACE AC LGT HZ ARND=
200904061500 METAR MRLM 061500Z 06004KT 9999 SCT035 29/22 A2993 RMK HZ LGT ARND=
200904061600 METAR MRLM 061600Z 07006KT SCT035 29/22 A2992 RMK HZ LGT ARND=
200904061700 METAR MRLM 061700Z 06006KT 9999 FEW035 29/22 A2990 RMK HZ LGT ARND=
200904061800 METAR MRLM 061800Z 05008KT 9999 FEW040 30/22 A2988 RMK HZ LGT ARND=
200904061900 METAR MRLM 061900Z 04007KT 9999 FEW040 30/22 A2985 RMK TRACE AC HZ LGT ARND=
200904062000 METAR MRLM 062000Z 03010KT 9999 FEW040 30/22 A2983 RMK TRACE AC HZ LGT ARND=
200904062100 METAR MRLM 062100Z 02006KT 9999 FEW045 30/21 A2983 FEW100 HZY=
200904062200 METAR MRLM 062200Z 03005KT 9999 FEW045 30/21 A2982 FEW110 HZY=
200904062300 METAR MRLM 062300Z 03005KTY 9999 FEW035 29/22 A2984 FEW110 HZY=
200904070000 METAR MRLM 070000Z 06002KT CAVOK 28/21 A2986 TRAZAS CU BKN070 FEW300 HZY=
200904070100 METAR MRLM 070100Z NIL=
200904070200 METAR MRLM NIL=
200904070300 METAR MRLM NIL=
200904070400 METAR MRLM NIL=
200904070500 METAR MRLM NIL=
200904070600 METAR MRLM NIL=
200904070700 METAR MRLM NIL=
200904070800 METAR MRLM NIL=
200904070900 METAR MRLM NIL=
200904071000 METAR MRLM NIL=
200904071100 METAR MRLM NIL=
200904071200 METAR MRLM 071200Z NIL=
200904071300 METAR MRLM 071300Z 22004KT 9999 SCT015 SCT080 25/20 A2998 RN NW N NE E HZY=
200904071400 METAR MRLM 071400Z 26004KT 9999 SCT035 SCT080 29/21 A3001 HZY=
200904071500 METAR MRLM 071500Z 04007KT 9999 BKN045 30/21 A3002 DZ NE TRACE AC HZY=
200904071600 METAR MRLM 071600Z 36008KT 9999 BKN040 30/22 A3001 RN E HZY=
200904071700 METAR MRLM 071700Z 01007KT 9999 SCT040 30/22 A3000 HZY=
200904071800 METAR MRLM 071800Z 36010KT 9999 FEW040 31/23 A2998 FEW090 HZY=
200904071900 METAR MRLM 071900Z 36009KT 9999 FEW035 30/23 A2996 HZY=
200904072000 METAR MRLM 072000Z 36009KT 9999 SCT030 27/13 A3001=
200904072100 METAR MRLM 072100Z 34011KT 9999 BKN038 30/22 A2993 RMK TRAZAS AC HZ LGT ARND=
200904072200 METAR MRLM 072200Z 33011KT 9999 OVC040 30/22 A2993 RMK TRAZAS AC HZ LGT ARND=
200904072300 METAR MRLM 072300Z 33010KT 9999 FEW038 29/22 A2994 RMK TRAZAS AC HZ LGT ARND=
200904080000 METAR MRLM 080000Z 30005KT 9999 BKN032 28/21 A2997 RKM TRAZAS AC/CI CB DST S HZ LGT ARND=
200904080100 METAR MRLM NIL=
200904080200 METAR MRLM NIL=
200904080300 METAR MRLM NIL=
200904080400 METAR MRLM NIL=
200904080500 METAR MRLM NIL=
200904080600 METAR MRLM NIL=
200904080700 METAR MRLM NIL=
200904080800 METAR MRLM NIL=
200904080900 METAR MRLM NIL=
200904081000 METAR MRLM NIL=
200904081100 METAR MRLM NIL=
200904081200 METAR MRLM 081200Z 22005KT 9999 FEW020 SCT100 20/17 A2999 RMK TRACE CI HZ SE=
200904081300 METAR MRLM 081300Z 20005KT 9999 FEW030 SCT110 22/17 A3001 RMK FEW280 HZ SW=
200904081400 METAR MRLM 081400Z 22003KT 9999 FEW030 BKN110 24/18 A3004 RMK TRAZAS CI RN DST NE/E HZ SE=
200904081500 METAR MRLM 081500Z 22003KT 9999 FEW040 BKN110 26/18 A3005 RMK RN DST N/NE/E HZ LGT ARND=
200904081600 METAR MRLM 081600Z 22005KT CAVOK 29/18 A3006 RMK TRAZAS CU/SC BKN110 HZ LGT ARND=
200904081700 METAR MRLM 081700Z 09014KT 9999 DZ FEW030 OVC090 26/21 A3006 RMK RN DST QUAND N HZ LGT ARND=
200904081800 METAR MRLM 081800Z 33010KT 9999 -DZ FEW030 OVC090 25/20 A3004 RMK RN DST NE/E HZ ARND=
200904081900 METAR MRLM 081900Z 19006KT 9999 +DZ FEW015 BKN090 24/21 A3001 RMK FEW100 HZ ARND=
200904082000 METAR MRLM 082000Z 19004KT 9999 FEW030 BKN090 27/21 A2996 REDZ RMK FEW100 DZ N/NE HZ ARND=
200904082100 METAR MRLM 082100Z 18003KT 9999 FEW035 BKN090 28/21 A2994 RMK FEW100 DZ NE HZY=
200904082200 METAR MRLM 082200Z 20003KT 9999 FEW030 BKN090 27/21 A2993 RMK FEW110 HZY=
200904082300 METAR MRLM 082300Z 00000KT 9999 FEW030 BKN110 27/21 A2993 HZY=
200904090000 METAR MRLM 090000Z 00000KT 9999 FEW020 BKN100 26/22 A2994 RMK TRACE CI FEW110 RN DST E SE S HZY=
200904090100 METAR MRLM NIL=
200904090200 METAR MRLM NIL=
200904090300 METAR MRLM NIL=
200904090400 METAR MRLM NIL=
200904090500 METAR MRLM NIL=
200904090600 METAR MRLM NIL=
200904090700 METAR MRLM NIL=
200904090800 METAR MRLM NIL=
200904090900 METAR MRLM NIL=
200904091000 METAR MRLM NIL=
200904091100 METAR MRLM NIL=
200904091200 METAR MRLM 091200Z 22004KT CAVOK 21/19 A2994 RMK SCT120 SCT270 HZ SE=
200904091300 METAR MRLM 091300Z 22005KT CAVOK 22/19 A2995 RMK SCT110 SCT270 HZY=
200904091400 METAR MRLM 091400Z 20004KT CAVOK 25/21 A2997 RMK TRACE CU BKN110 FEW270 HZ LGT ARND=
200904091500 METAR MRLM 091500Z 05003KT 9999 FEW040 SCT100 29/21 A2997 RMK FEW110 RN DST NE HZY=
200904091600 METAR MRLM 091600Z 34012KT 9999 FEW020 BKN100 27/23 A2998 RMK FEW110 DZ DST NW HZ LGT ARND=
200904091700 METAR MRLM 091700Z 32004KT 9999 FEW030 BKN100 28/22 A2996 RMK DZ W HZ ARND=
200904091800 METAR MRLM 091800Z 03004KT 9999 FEW040 BKN110 30/22 A2994 RMK LGT HZ ARND=
200904091900 METAR MRLM 091900Z 03005KT 9999 FEW030 BKN100 29/22 A2992 RMK TRACE CI FEW1 20=
200904092000 METAR MRLM 092000Z 05005KT 9999 FEW030 SCT110 29/22 A2989 RMK SCT280=
200904092100 METAR MRLM 092100Z 06006KT 9999 FEW030 SCT120 29/23 A2988 RMK TRACE CI HZ LGT ARND=
200904092200 METAR MRLM 092200Z 06005KT 9999 FEW030 SCT110 29/23 A2988 RMK HZ LGT ARND=
200904092300 METAR MRLM 092300Z 05006KT 9999 SCT030 SCT100 28/23 A2988 RMK TRACE CI HZ LEVE ARND=
200904100000 METAR MRLM 100000Z 08006KT 9999 SCT030 28/22 A2989 RMK FEW100 FEW270 HZ LGT ARND=
200904100100 METAR MRLM NIL=
200904100200 METAR MRLM NIL=
200904100300 METAR MRLM NIL=
200904100400 METAR MRLM NIL=
200904100500 METAR MRLM NIL=
200904100600 METAR MRLM NIL=
200904100700 METAR MRLM NIL=
200904100800 METAR MRLM NIL=
200904100900 METAR MRLM NIL=
200904101000 METAR MRLM NIL=
200904101100 METAR MRLM NIL=
200904101200 METAR MRLM NIL=
200904101300 METAR MRLM 101300Z 21005KT CAVOK 23/21 A2995 RMK TRACE CU BKN300 HZ LGT ARND=
200904101400 METAR MRLM 101400Z 20002KT CAVOK 27/22 A2998 RMK TRACE CU SC BKN300 HZ LGT ARND=
200904101500 METAR MRLM 101500Z 06003KT CAVOK 28/21 A2998 RMK TRACE SC CU BKN300 HZ LGT ARND=
200904101600 METAR MRLM 101600Z 09006KT 9999 FEW045 BKN300 29/20 A2998 RMK HZ LGT ARND=
200904101700 METAR MRLM 101700Z 07006KT 9999 FEW040 BKN300 29/21 A2996 RMK HZ LEVE ARND=
200904101800 METAR MRLM 101800Z 05007KT 9999 FEW045 SCT300 30/21 A2994 RMK HZ LGT ARND=
200904101900 METAR MRLM 101900Z 06008KT 9999 FEW040 SCT300 30/21 A2991 RMK HZ LGT ARND=
200904102000 METAR MRLM 102000Z 05008KT CAVOK 30/20 A2989 RMK TRACE SC AC SCT300 HZ LGT ARND=
200904102100 METAR MRLM 102100Z 06010KT CAVOK 30/22 A2988 TRACE SCT FEW120 SCT300 HZ LGT ARND=
200904102200 METAR MRLM 102200Z 06005KT CAVOK 29/22 A2988 TRACE SCT FEW120 FEW300 HZ LGT ARND=
200904102300 METAR MRLM 102300Z 06005KT CAVOK 29/22 A2988 TRACE SCT FEW090 FEW300 CB DIST S HZ LGT ARND=
200904102357 METAR MRLM 110000Z 06005KT CAVOK 29/22 A2988 TRACE SC FEW090 CB DIST S HZ LGT ARND=
200904110000 METAR MRLM 110000Z 06005KT CAVOK 29/22 A2988 TRACE SCT FEW090 CB DIST S HZ LGT ARND=
200904110100 METAR MRLM NIL=
200904110200 METAR MRLM NIL=
200904110300 METAR MRLM NIL=
200904110400 METAR MRLM NIL=
200904110500 METAR MRLM NIL=
200904110600 METAR MRLM NIL=
200904110700 METAR MRLM NIL=
200904110800 METAR MRLM NIL=
200904110900 METAR MRLM NIL=
200904111000 METAR MRLM NIL=
200904111100 METAR MRLM NIL=
200904111200 METAR MRLM NIL=
200904111300 METAR MRLM 111300Z 21004KT CAVOK 23/20 A2997 BKN090 RN DIST N NE E HZ LGT ARND=
200904111400 METAR MRLM 111400Z 00000KT CAVOK 26/21 A2999 RMK RN DIST N FEW070 BKN090 HZ LGT ARND=
200904111500 METAR MRLM 111500Z 03003KT CAVOK 27/22 A3002 RMK TRACE SC FEW070 BKN090 DZ NW NE E SE HZ LGT ARND=
200904111600 METAR MRLM 111600Z 05005KT CAVOK 28/22 A2999 TRACE CU SCT070 SCT090 HZ LGT ARND=
200904111700 METAR MRLM 111700Z 09005KT 9999 FEW035 BKN110 29/23 A2998 HZ ARND=
200904111754 METAR MRLM 171800Z 08005KT 9999 FEW038 BKN110 30/22 A2996 HZY ARND=
200904111800 METAR MRLM 111800Z 08005KT 9999 FEW038 BKN110 30/22 A2996 HZY ARND=
200904111900 METAR MRLM 111900Z 06007KT 9999 FEW035 BKN110 30/23 A2993 RMK HZ LGT ARND=
200904112000 METAR MRLM 112000Z 04008KT 9999 SCT030 SCT110 30/23 A2990 RMK HZ LGT ARND=
200904112100 METAR MRLM 112100Z 03009KT 9999 FEW032 SCT090 30/24 A2987 TCU E S SW HZY=
200904112200 METAR MRLM 112200Z 01006KT 9999 FEW035 30/24 A2987 FEW080 FEW280 HZY=
200904112300 METAR MRLM 112300Z 36007KT 9999 FEW030 30/24 A2987 FEW080 FEW280 HZY=
200904120000 METAR MRLM 120000Z 36005KT 9999 SCT025 SCT090 29/24 A2988 HZY=
200904120100 METAR MRLM NIL=
200904120200 METAR MRLM NIL=
200904120300 METAR MRLM NIL=
200904120400 METAR MRLM NIL=
200904120500 METAR MRLM NIL=
200904120600 METAR MRLM NIL=
200904120700 METAR MRLM NIL=
200904120800 METAR MRLM NIL=
200904120900 METAR MRLM NIL=
200904121000 METAR MRLM NIL=
200904121100 METAR MRLM NIL=
200904121200 METAR MRLM 121200Z 21004KT 9999 BKN010 23/22 A2992 RMK SCT090 DZ DST N E HZ ARND=
200904121300 METAR MRLM 121300Z 21004KT 9999 BKN010 24/23 A2994 SCT090 DZ NE HZY=
200904121400 METAR MRLM 121400Z 20003KT 9999 SCT010 SCT090 27/24 A2996 RN N HZ SE=
200904121500 METAR MRLM 121500Z 20004KT 9999 SCT020 SCT090 28/23 A2996 FEW110 RN NW S HZ SE=
200904121600 METAR MRLM 121600Z 09006KT 9999 BKN020 30/23 A2996 SCT100 RN NE E HZY=
200904121700 METAR MRLM 121700Z 30005KT 9999 DZ SCT020 SCT100 27/24 A2996=
200904121800 METAR MRLM 121800Z 02003KT 9999 FEW030 BKN100 30/24 A2993 REDZ HZY=
200904121900 METAR MRLM 121900Z 03003KT 9999 FEW030 BKN110 30/24 A2990 RN SW HZY=
200904122000 METAR MRLM 122000Z 04006KT 9999 FEW030 SCT110 30/24 A2988 HZY=
200904122100 METAR MRLM 122100Z 03007KT 9999 FEW030 SCT110 30/24 A2986 RMK HZ LGT ARND TCU DST SW=
200904122200 METAR MRLM 122200Z 03006KT 9999 FEW030 SCT120 29/24 A2986 RMK HZ LGT ARND=
200904122300 METAR MRLM 122300Z 04003KT 9999 SCT025 29/24 A2986 RMK FEW110 TRAZAS CI HZ LGT ARND=
200904130000 METAR MRLM 130000Z 02006KT 9999 SCT025 28/23 A2987 RMK FEW110 TRAZAS CI DZ E HZ ARND=
200904130100 METAR MRLM NIL=
200904130200 METAR MRLM NIL=
200904130300 METAR MRLM NIL=
200904130400 METAR MRLM NIL=
200904130500 METAR MRLM NIL=
200904130600 METAR MRLM NIL=
200904130700 METAR MRLM NIL=
200904130800 METAR MRLM NIL=
200904130900 METAR MRLM NIL=
200904131000 METAR MRLM NIL=
200904131100 METAR MRLM NIL=
200904131200 METAR MRLM 131200Z 20002KT 9999 SCT010 23/22 A2989 RMK TRACE CI FEW110 DZ E HZ ARND=
200904131300 METAR MRLM 131300Z 20003KT 9999 FEW010 SCT100 24/23 A2991 RMK TRAZAS CI DZ NE HZ SE=
200904131400 METAR MRLM 131400Z 17003KT 9999 FEW02028/24 A2992 RMK FEW090 TRAZAS CI HZ SE=
200904131500 METAR MRLM 131500Z 10006KT 9999 FEW035 SCT090 30/23 A2991 RMK HZ SW=
200904131600 METAR MRLM 131600Z 08008KT 9999 FEW035 30/23 A2990 RMK FEW090 FEW280 HZ LGT ARND=
200904131700 METAR MRLM 131700Z 08009KT 9999 FEW030 30/24 A2989 RMK FEW090 HZ LGT ARND=
200904131800 METAR MRLM 131800Z 06011KT 9999 FEW030 SCT100 30/24 A2987 RMK HZ LGT ARND=
200904131900 METAR MRLM 131900Z 05012KT 9999 FEW030 SCT100 30/24 A2985 RMK HZ LGT ARND=
200904132000 METAR MRLM 132000Z 05012KT 9999 FEW030 30/24 A2984 RMK FEW100 SCT270 HZ LGT ARND=
200904132100 METAR MRLM 132100Z 05010KT 9999 SCT030 SCT270 30/24 A2982 RMK TRACE AC HZ ARND=
200904132200 METAR MRLM 132200Z 06010KT 9999 BKN030 29/23 A2982 RMK FEW270 HZ ARND=
200904132300 METAR MRLM 132300Z 05011KT 9999 BKN025 29/23 A2982 RMK TRACE AC SCT270 DZ NE HZ ARND=
200904140000 METAR MRLM 140000Z 06011KT 9999 BKN025 28/23 A2984 RMK TRACE CI RN DST SW HZY=
200904140100 METAR MRLM NIL=
200904140200 METAR MRLM NIL=
200904140300 METAR MRLM NIL=
200904140400 METAR MRLM NIL=
200904140500 METAR MRLM NIL=
200904140600 METAR MRLM NIL=
200904140700 METAR MRLM NIL=
200904140800 METAR MRLM NIL=
200904140900 METAR MRLM NIL=
200904141000 METAR MRLM NIL=
200904141100 METAR MRLM NIL=
200904141200 METAR MRLM 141200Z NIL=
200904141300 METAR MRLM 141300Z 25005KT 9999 BKN015 24/23 A2991 REDZ RMK RN DST E SE S SW W=
200904141400 METAR MRLM NIL=
200904141500 METAR MRLM 141500Z 18006KT 9999 FEW015 SCT100 26/22 A2994 RMK SCT280 RN DST S QUAD LGT HZ ARND=
200904141600 METAR MRLM 141600Z 17006KT CAVOK 29/22 A2993 RMK TRACE CU FEW100 BKN280 HZ ARND=
200904141700 METAR MRLM 141700Z 09010KT 9999 FEW040 BKN280 30/22 A2992 RMK TRACE AC LGT HZ ARND=
200904141800 METAR MRLM 141800Z 09010KT 9999 FEW040 BKN280 20/22 A2989 RMK TRACE AC LGT HZ ARND=
200904141900 METAR MRLM 141900Z 07010KT 9999 FEW035 BKN280 30/22 A2987 HZY=
200904142000 METAR MRLM 142000Z 06011KT 9999 FEW035 BKN280 30/23 A2985 RMK RN DST SW W HZ ARND=
200904142100 METAR MRLM 142100Z 06009KT 9999 FEW030 SCT110 29/23 A2984 RMK SCT280 RN DST SW HZ ARND=
200904142200 METAR MRLM 142200Z 06006KT 9999 FEW028 SCT100 28/23 A2984 RMK SCT280 RN DST SW HZ LEVE ARND=
200904142300 METAR MRLM 142300Z 04006KT 9999 SCT028 SCT280 28/23 A2986 RMK TRACE AC HZ LGT ARND=
200904150000 METAR MRLM 150000Z 05004KT 9999 BKN028 28/22 A2988 RMK FEW110 FEW280 HZ LEVE ARND=
200904150100 METAR MRLM NIL=
200904150200 METAR MRLM NIL=
200904150300 METAR MRLM NIL=
200904150400 METAR MRLM NIL=
200904150500 METAR MRLM NIL=
200904150600 METAR MRLM NIL=
200904150700 METAR MRLM NIL=
200904150800 METAR MRLM NIL=
200904150900 METAR MRLM NIL=
200904151000 METAR MRLM NIL=
200904151100 METAR MRLM NIL=
200904151200 METAR MRLM 151200Z NIL=
200904151300 METAR MRLM 151300Z 00000KT CAVOK 26/21 A2993 RMK TRACE CU FEW110 SCT280 HZ LGT ARND=
200904151400 METAR MRLM 151400Z 10005KT CAVOK 28/22 A2995 TRACE CU FEW110 SCT280 HZ LGT ARND=
200904151500 METAR MRLM 151500Z 10010KT CAVOK 29/21 A2995 RMK TRACE CU AC BKN280 HZ LGT ARND=
200904151600 METAR MRLM 151600Z 09010KT 9999 FEW040 BKN280 29/21 A2994 RMK HZ LGT ARND=
200904151700 METAR MRLM 151700Z 07008KT 9999 FEW040 BKN280 30/22 A2993 RMK HZ LGT ARND=
200904151800 METAR MRLM 151800Z 05008KT 9999 FEW040 BKN280 30/22 A2991 RMK HZ LGT ARND=
200904151900 METAR MRLM 151900Z 06005KT 9999 FEW038 BKN250 30/22 A2989 RMK TRAZAS AC HZ LGT ARND=
200904152000 METAR MRLM 152000Z 04007KT CAVOK 30/22 A2987 RMK TRAZAS C AC BKN250 HZ LGT ARND=
200904152100 METAR MRLM 152100Z 04006KT 9999 FEW035 BKN280 30/22 A2986 RMK FEW110 HZ LGT ARND=
200904152200 METAR MRLM 152200Z 02006KT 9999 FEW035 BKN280 29/23 A2987 FEW110 HZ ARND=
200904152300 METAR MRLM 152300Z 05005KT 9999 SCT032 SCT090 29/22 A2988 RMK SCT280 RN DIST SW HZ LGT ARND=
200904152354 METAR MRLM 16000Z 03005KT 9999 SCT025 SCT090 28/23 A2990 FEW280 RN DIST SW HZ LGT ARND=
200904160000 METAR MRLM 160000Z 03005KT 9999 SCT025 SCT090 28/23 A2990 FEW280 RN=
200904160100 METAR MRLM NIL=
200904160200 METAR MRLM NIL=
200904160300 METAR MRLM NIL=
200904160400 METAR MRLM NIL=
200904160500 METAR MRLM NIL=
200904160600 METAR MRLM NIL=
200904160700 METAR MRLM NIL=
200904160800 METAR MRLM NIL=
200904160900 METAR MRLM NIL=
200904161000 METAR MRLM NIL=
200904161100 METAR MRLM NIL=
200904161200 METAR MRLM 161200Z 25002KT 9999 SCT010 SCT100 22/20 A2992 RMK FEW270 HZ SE=
200904161300 METAR MRLM 161300Z 20005KT 9999 FEW020 BKN100 24/20 A2994 RMK FEW270 HZ SE=
200904161400 METAR MRLM 161400Z 20004KT 9999 FEW030 SCT100 28/21 A2995 RMK FEW270 HZ SE=
200904161500 METAR MRLM 161500Z 04005KT 9999 FEW040 SCT100 29/22 A2995 RMK FEW270 HZ LGT ARND=
200904161600 METAR MRLM 161600Z 07004KT 9999 FEW040 BKN090 29/22 A2995 RMK TRACE CI HZ LGT ARND=
200904161700 METAR MRLM 161700Z 10003KT 9999 FEW035 BKN090 29/22 A2994 RMK HZ ARND=
200904161800 METAR MRLM 161800Z 08004KT 9999 FEW030 BKN090 29/22 A2992 RMK FEW100 RN DIST NE E HZ ARND=
200904161900 METAR MRLM 161900Z 08008KT 9999 FEW030 BKN100 29/23 A2990 RN NE HZ ARND=
200904162000 METAR MRLM 162000Z 09009KT 9999 FEW030 BKN100 28/22 A2987 RN DIST N NE E=
200904162100 METAR MRLM 162100Z 08005KT 9999 FEW030 BKN/N100 28/22 A2986 RN NE HZY=
200904162200 METAR MRLM 162200Z 08005KT 9999 FEW035 BKN090 29/22 A2986 RN NE E HZY=
200904162300 METAR MRLM 162300Z 16002KT 9999 FEW030 BKN090 28/23 A2987 FEW100 RN SW HZY=
200904170000 METAR MRLM 170000Z 20002KT 9999 FEW020 SCT090 27/23 A2987 FEW100 RN SW N NE HZY=
200904170100 METAR MRLM NIL=
200904170200 METAR MRLM NIL=
200904170300 METAR MRLM NIL=
200904170400 METAR MRLM NIL=
200904170500 METAR MRLM NIL=
200904170600 METAR MRLM NIL=
200904170700 METAR MRLM NIL=
200904170800 METAR MRLM NIL=
200904170900 METAR MRLM NIL=
200904171000 METAR MRLM NIL=
200904171100 METAR MRLM NIL=
200904171200 METAR MRLM 171200Z 22003KT 9999 SCT010 SCT090 24/22 A2990 RMK FEW100 RN DST W NW N NE HZ ARND=
200904171300 METAR MRLM 171300Z 21004KT 9999 SCT010 SCT090 24/22 A2991 FEW100 RN NE HZY=
200904171400 METAR MRLM 171400Z 20002KT 9999 FEW020 BKN090 26/23 A2993 FEW100 HZY=
200904171500 METAR MRLM 171500Z 16003KT 9999 FEW030 BKN100 28/23 A2993 HZY=
200904171600 METAR MRLM 171600Z 07004KT 9999 FEW030 BKN100 29/23 A2992 HZY=
200904171700 METAR MRLM 171700Z 07006KT 9999 FEW035 SCT100 30/23 A2992 HZY=
200904171800 METAR MRLM 171800Z 02009KT 9999 FEW030 SCT110 29/24 A2989 HZY=
200904171900 METAR MRLM 171900Z 03012KT 9999 SCT030 SCT110 29/24 A2988 HZY=
200904172000 METAR MRLM 172000Z 03009KT 9999 SCT030 SCT110 29/23 A2987 HZY=
200904172100 METAR MRLM 172100Z 05009KT 9999 FEW025 BKN090 28/23 A2985 RMK FEW110 HZY=
200904172200 METAR MRLM 172200Z 06008KT 9999 SCT030 SCT090 28/22 A2984 RMK FEW100 RN DST SE HZ LGT ARND=
200904172300 METAR MRLM 172300Z 07008KT 9999 SCT025 SCT090 28/23 A2985 RMK HZ ARND=
200904180000 METAR MRLM 180000Z 07008KT 9999 BKN025 27/22 A2986 RMK SCT090 RN DST=
200904180100 METAR MRLM NIL=
200904180200 METAR MRLM NIL=
200904180300 METAR MRLM NIL=
200904180400 METAR MRLM NIL=
200904180500 METAR MRLM NIL=
200904180600 METAR MRLM NIL=
200904180700 METAR MRLM NIL=
200904180800 METAR MRLM NIL=
200904180900 METAR MRLM NIL=
200904181000 METAR MRLM NIL=
200904181100 METAR MRLM NIL=
200904181200 METAR MRLM NIL=
200904181300 METAR MRLM 181300Z 21004KT 9999 FEW015 BKN090 24/22 A2989 RMK FEW070 HZ ARND=
200904181400 METAR MRLM 181400Z 18003KT 9999 SCT028 BKN090 28/22 A2991 RMK TRAZAS CI DZ NE HZ LGT ARND=
200904181500 METAR MRLM 181500Z 21008KT 9999 SCT038 SCT100 29/22 A2991 RMK TRAZAS CI HZ ARND=
200904181600 METAR MRLM 181600Z 10008KT 9999 BKN038 SCT280 29/22 A2990 RMK TRAZAS AC HZ LGT ARND=
200904181700 METAR MRLM 181700Z 07006KT 9999 SCT038 SCT090 30/22 A2990 RMK FEW280 HZ LGT ARND=
200904181800 METAR MRLM 181800Z 06007KT 9999 FEW040 SCT090 30/22 A2988 RMK FEW300 HZ LGT ARND=
200904181900 METAR MRLM 181900Z 05008KT 9999 SCT035 30/22 A2985 RMK FEW100 FEW300 HZ LGT ARND=
200904182000 METAR MRLM 182000Z 04007KT 9999 BKN035 30/23 A2985 RMK TRAZAS AC/CI HZ LGT ARND=
200904182100 METAR MRLM 182100Z 03008KT 9999 BKN038 30/22 A2981 TRACE CI LGT HZ ARND=
200904182200 METAR MRLM 182200Z 02008KT 9999 BKN040 30/22 A2981 RMK LGT HZ ARND=
200904182300 METAR MRLM 182300Z 03006KT 9999 BKN035 29/22 A2982 RMK TRACE AC=
200904190000 METAR MRLM 190000Z 03006KT 9999 SCT035 28/21 A2983 RMK TRACE AC RN DST S QUAD=
200904190100 METAR MRLM NIL=
200904190200 METAR MRLM NIL=
200904190300 METAR MRLM NIL=
200904190400 METAR MRLM NIL=
200904190500 METAR MRLM NIL=
200904190600 METAR MRLM NIL=
200904190700 METAR MRLM NIL=
200904190800 METAR MRLM NIL=
200904190900 METAR MRLM NIL=
200904191000 METAR MRLM NIL=
200904191100 METAR MRLM NIL=
200904191200 METAR MRLM 191200Z NIL=
200904191300 METAR MRLM 191300Z 21004KT CAVOK 26/21 A2989 RMK TRACE CU SCT280 LGT HZ ARND=
200904191400 METAR MRLM 191400Z 05002KT 9999 FEW025 SCT280 28/21 A2991 RMK LGT HZ ARND=
200904191500 METAR MRLM 191500Z 06003KT 9999 FEW040 29/21 A2992 RMK LGT HZ ARND FEW280=
200904191600 METAR MRLM 191600Z 05006KT 9999 FEW040 29/21 A2991 RMK FEW280 LGT HZ ARND=
200904191700 METAR MRLM 191700Z 05006KT 9999 FEW040 30/21 A2990 RMK FEW280 LGT HZ ARND=
200904191800 METAR MRLM 191800Z 04007KT 9999 FEW045 30/20 A2987 RMK FEW280 LGT HZ ARND=
200904191900 METAR MRLM 191900Z 04008KT 9999 FEW045 30/21 A2984 RMK FEW280 LGT HZ ARND=
200904192000 METAR MRLM 192000Z 02008KT 9999 FEW045 30/21 A2981 RMK TRACE AC CI LGT HZ ARND=
200904192100 METAR MRLM 192100Z 02007KT CAVOK 30/21 A2981 RMK TRACE CU FEW110 HZ LGT ARN D=
200904192200 METAR MRLM 192200Z 02007KT CAVOK 30/21 A2980 RMK TRACE CU CI FEW110 HZ Y=
200904192300 METAR MRLM 192300Z 05006KT 9999 FEW040 SCT090 29/21 A2981 RMK HZ LGT ARND=
200904200000 METAR MRLM 200000Z 03005KT 9999 FEW035 BKN090 28/21 A2983 RMK RN DST QUAD S HZ LEVE ARND=
200904200100 METAR MRLM NIL=
200904200200 METAR MRLM NIL=
200904200300 METAR MRLM NIL=
200904200400 METAR MRLM NIL=
200904200500 METAR MRLM NIL=
200904200600 METAR MRLM NIL=
200904200700 METAR MRLM NIL=
200904200800 METAR MRLM NIL=
200904200900 METAR MRLM NIL=
200904201000 METAR MRLM NIL=
200904201100 METAR MRLM NIL=
200904201200 METAR MRLM 201200Z NIL=
200904201300 METAR MRLM 201300Z 20004KT 9999 SCT020 SCT090 25/22 A2988 RMK DZ NE/E HZ ARND=
200904201400 METAR MRLM 201400Z 18002KT 9999 SCT030 SCT090 27/22 A2991 RMK RN SW/N/NE/E FEW100=
200904201500 METAR MRLM 201500Z 09015KT 6000 +DZ BKN010 25/23 A2993 RMK FEW080 HZ ARND=
200904201600 METAR MRLM 201600Z 23005KT 9999 SCT010 BKN090 25/23 A2992 REDZ RMK HZ ARND=
200904201700 METAR MRLM 201700Z 18003KT 9999 FEW025 BKN090 28/22 A2991 HZ LGT ARND=
200904201800 METAR MRLM 201800Z 08003KT 9999 FEW030 BKN100 29/22 A2988 RMK HZ LGT ARND=
200904201900 METAR MRLM 201900Z 06005KT 9999 FEW035 BKN100 30/23 A2986 RMK HZ LGT ARND=
200904202000 METAR MRLM 202000Z 08007KT 9999 FEW040 SCT100 30/22 A2984 RMK HZ LGT SE=
200904202100 METAR MRLM 202100Z 08005KT CAVOK 30/22 A2982 TRACE CU SCT SCT110 HZ SE=
200904202200 METAR MRLM 202200Z 04006KT 9999 FEW040 SCT270 30/21 A2983 TRACE AC HZ ARND=
200904202300 METAR MRLM 202300Z 02006KT 9999 FEW035 SCT270 24/22 A2984 RMK TRACE AC AS HZ ARND=
200904202358 METAR MRLM 210000Z 03003KT CAVOK 28/22 A2986 TRACE SC FEW110 SCT270 HZ ARND=
200904210000 METAR MRLM 210000Z 03003KT CAVOK 28/22 A2986 TRACE SCT FEW110 SCT270 HZ ARND=
200904210100 METAR MRLM NIL=
200904210200 METAR MRLM NIL=
200904210300 METAR MRLM NIL=
200904210400 METAR MRLM NIL=
200904210500 METAR MRLM NIL=
200904210600 METAR MRLM NIL=
200904210700 METAR MRLM NIL=
200904210800 METAR MRLM NIL=
200904210900 METAR MRLM NIL=
200904211000 METAR MRLM NIL=
200904211100 METAR MRLM NIL=
200904211200 METAR MRLM NIL=
200904211300 METAR MRLM 211300Z 230005KT -DZ BKN010 23/22 A2997 FEW080 HZ ARND=
200904211400 METAR MRLM 211400Z 24005KT 9999 BKN010 SCT090 23/22 A3000 REDZ RMK DZ NW NE E HZ ARND=
200904211500 METAR MRLM 211500Z 19004KT 9999 -DZ SCT010 SCT090 24/22 A3001 HZ ARND=
200904211600 METAR MRLM 211600Z 21005KT 9999 -DZ SCT010 SCT090 25/23 A2998 RN DIST W HZ ARND=
200904211700 METAR MRLM 211700Z 25004KT 9999 FEW020 BKN100 27/23 A2996 REDZ HZ LGT ARND=
200904211800 METAR MRLM 211800Z 23003KT 9999 FEW040 SCT100 30/22 A2992 FEW110 HZ ARND=
200904211900 METAR MRLM 211900Z 01005KT 9999 FEW035 SCT100 30/23 A2989 TRACE CI HZ LGT ARND=
200904212000 METAR MRLM 212000Z 01009KT 9999 FEW040 SCT090 31/23 A2986 FEW110 HZ ARND=
200904212100 METAR MRLM 212100Z 17009KT 9999 DZ SCT035 SCT090 30/23 A2986 RN SW E HZY=
200904212200 METAR MRLM 212200Z 02006KT 9999 DZ SCT035 SCT090 30/23 A2988 RN E SE S HZY=
200904212300 METAR MRLM 212300Z 20005KT 9999 SCT020 SCT090 26/23 A2987 REDZ FEW100 RN S HZY=
200904220000 METAR MRLM 220000Z 27003KT 9999 FEW010 SCT110 26/23 A2988 FEW270 CB TCU NW N RN S SE HZY=
200904220100 METAR MRLM NIL=
200904220200 METAR MRLM NIL=
200904220300 METAR MRLM NIL=
200904220400 METAR MRLM NIL=
200904220500 METAR MRLM NIL=
200904220600 METAR MRLM NIL=
200904220700 METAR MRLM NIL=
200904220800 METAR MRLM NIL=
200904220900 METAR MRLM NIL=
200904221000 METAR MRLM NIL=
200904221100 METAR MRLM NIL=
200904221200 METAR MRLM 221200Z 29005KT 6000 RA BKN015 SCT090 24/23 A2996=
200904221300 METAR MRLM 221300Z 24003KT 5000 RA BKN015 SCT090 24/23 A3000=
200904221400 METAR MRLM 221400Z 24002KT 6000 RA FEW005 BKN015 24/23 A3003=
200904221500 METAR MRLM 221500Z 20004KT 6000 RA FEW006 SCT030 24/23 A3004 SCT090=
200904221600 METAR MRLM 221600Z 21005KT 9999 +DZ FEW006 BKN025 25/24 A3002 RERA FEW090=
200904221700 METAR MRLM 221700Z 20006KT 9999 +DZ BKN090 SCT110 26/24 A3000 TRAZAS SCT=
200904221800 METAR MRLM 221800Z 18006KT CAVOK 28/24 A2997 REDZ TRAZAS SCT BKN080 SCT110 RN DST N HZY=
200904221900 METAR MRLM 221900Z 21003KT CAVOK 28/24 A2994 TRAZAS SCT BKN110 HZY=
200904222000 METAR MRLM 222000Z 23003KT CAVOK29/24 A2991 TRAZAS SCT BKN090 SCT110=
200904222100 METAR MRLM 222100Z 16002KT CAVOK 30/24 A2988 RMK TRAZAS SC BKN100 FEW120 HZ LGT ARND=
200904222200 METAR MRLM 222200Z 01003KT CAVOK 30/23 A2988 RMK TRAZAS SC BKN100 SCT120 HZ ARND=
200904222300 METAR MRLM 222300Z 04003KT CAVOK 29/24 A2989 RMK TRAZAS SC BKN090 FEW110 CB DST NW/N HZ LGT ARND=
200904230000 METAR MRLM 230000Z 03003KT CAVOK 28/24 A2991 RMK TRAZAS SC BKN090 SCT110 CB/RN DST N/NE HZY=
200904230100 METAR MRLM NIL=
200904230200 METAR MRLM NIL=
200904230300 METAR MRLM NIL=
200904230400 METAR MRLM NIL=
200904230500 METAR MRLM NIL=
200904230600 METAR MRLM NIL=
200904230700 METAR MRLM NIL=
200904230800 METAR MRLM NIL=
200904230900 METAR MRLM NIL=
200904231000 METAR MRLM NIL=
200904231100 METAR MRLM NIL=
200904231200 METAR MRLM 231200Z=
200904231300 METAR MRLM 231300Z 25003KT 2000 RA FEW003 BKN025 24/23 A2995=
200904231400 METAR MRLM 231400Z 28002KT 7000 +DZ FEW006 BKN025 24/23 A2996 RMK FEW090 VIS UNL QUAND W=
200904231500 METAR MRLM 231500Z 19004KT 1000 +RA BKN015 24/23 A3000 RMK FEW090=
200904231600 METAR MRLM 231600Z 23004KT 5000 RA BKN015 SCT090 23/22 A2999 RETS RMK CB NE=
200904231700 METAR MRLM 231700Z 25003KT 7000 RA BKN015 SCT090 23/22 A2997=
200904231800 METAR MRLM 231800Z 26002KT 9999 RA BKN025 SCT090 23/22 A2994 RMK VIS 8KM QUAND N=
200904231900 METAR MRLM 231900Z 25003KT 9999 +DZ FEW015 BKN110 24/22 2991 RERA RMK TRAZAS ST FEW090 CB/RN QUAND N=
200904232000 METAR MRLM 232000Z 28003KT 9999 -DZ FEW015 BKN090 24/22 A2990 RMK TRAZAS ST CB/RN DST QUAND N=
200904232100 METAR MRLM 232100Z 25004KT 9999 +DZ FEW007 BKN110 24/22 A2986 RMK TRACE SC FEW090 CB S RN DST N QD=
200904232200 METAR MRLM 232200Z 00000KT 9999 -DZ BKN090 SCT110 24/23 A2984 RMK TRACE SC CBS RN DST NW N NE E=
200904232300 METAR MRLM 232300Z 28003KT 9999 -DZ BKN025 24/22 A2986 RMK FEW110 RN ARND=
200904240000 METAR MRLM 240000Z 26003KT 8000 DZ FEW007 OVC015 24/22 A2989 RMK VIS S SW W UNLTD=
200904240100 METAR MRLM NIL=
200904240200 METAR MRLM NIL=
200904240300 METAR MRLM NIL=
200904240400 METAR MRLM NIL=
200904240500 METAR MRLM NIL=
200904240600 METAR MRLM NIL=
200904240700 METAR MRLM NIL=
200904240800 METAR MRLM NIL=
200904240900 METAR MRLM NIL=
200904241000 METAR MRLM NIL=
200904241100 METAR MRLM NIL=
200904241200 METAR MRLM 241200Z NIL=
200904241300 METAR MRLM 241300Z 21005KT 9999 SCT005 SCT090 23/22 A2993 RMK RN DST SW DZ E HZ ARND=
200904241400 METAR MRLM 241400Z 20003KT 9999 SCT010 SCT090 26/24 A2995 RMK DZ E HZ ARND=
200904241500 METAR MRLM 241500Z 00000KT 9999 SCT025 BKN100 28/23 A2996 HZ ARND=
200904241600 METAR MRLM 241600Z 07003KT 9999 SCT030 SCT090 29/23 A2997 RMK FEW100 RN DST NE HZ ARND=
200904241700 METAR MRLM 241700Z 04018KT 9999 FEW025 SCT180 BKN250 33/19 A2984=
200904241800 METAR MRLM 241800Z 07003KT 9999 FEW025 BKN100 29/24 A2994 RMK RN DST SW HZ ARND=
200904241900 METAR MRLM 241900Z 07003KT 9999 SCT030 BKN110 29/24 A2992 RMK HZ ARND=
200904242000 METAR MRLM 242000Z 07003KT 9999 SCT030 BKN110 29/24 A2990 HZ ARND=
200904242100 METAR MRLM 242100Z 08004KT 9999 SCT030 SCT110 29/24 A2988 RMK FEW270 HZ ARN D=
200904242200 METAR MRLM 242200Z 06005KT 9999 SCT025 SCT110 29/24 A2987 RMK FEW270 HZ ARN D=
200904242300 METAR MRLM 242300Z 08006KT 9999 FEW025 SCT110 28/23 A2988 RMK SCT270 HZ ARND=
200904250000 METAR MRLM 250000Z 09006KT 9999 FEW020 SCT120 28/23 A2988 RMK FEW270 HZ ARN D=
200904250100 METAR MRLM NIL=
200904250200 METAR MRLM NIL=
200904250300 METAR MRLM NIL=
200904250400 METAR MRLM NIL=
200904250500 METAR MRLM NIL=
200904250600 METAR MRLM NIL=
200904250700 METAR MRLM NIL=
200904250800 METAR MRLM NIL=
200904250900 METAR MRLM NIL=
200904251000 METAR MRLM NIL=
200904251100 METAR MRLM NIL=
200904251200 METAR MRLM NIL=
200904251300 METAR MRLM 251300Z 00000KT CAVOK 26/23 A2993 RMK TRACE CI CU SCT110 HZ Y=
200904251400 METAR MRLM 251400Z 07003KT CAVOK 27/23 A2994 RMK TRACE CU CI SCT100 HZ LGT ARND=
200904251500 METAR MRLM 251500Z 09006KT CAVOK 29/22 A2995 RMK TRACE CU SCT110 FEW270 HZ LGT ARND=
200904251600 METAR MRLM 251600Z 10010KT 9999 FEW040 BKN110 30/21 A2994 RMK RN DST NE HZ ARND=
200904251700 METAR MRLM 251700Z 08011KT 9999 FEW035 SCT100 30/23 A2994 RMK FEW110 HZ LGT ARND=
200904251800 METAR MRLM 251800Z 10008KT 9999 FEW030 SCT100 30/23 A2993 RMK FEW120 HZ LGT ARND=
200904251900 METAR MRLM 251900Z 09007KT 9999 FEW035 SCT110 30/22 A2990 RMK FEW270 HZ LGT ARND=
200904252000 METAR MRLM 252000Z 07007KT 9999 FEW035 29/22 A2988 RMK TRACE CI FEW110 HZ LGT ARND=
200904252100 METAR MRLM 252100Z 08006KT 9999 FEW030 29/23 A2986 FEW120 FEW270 HZ ARND=
200904252200 METAR MRLM 252200Z 07006KT 9999 FEW030 SCT270 29/22 A2986 FEW120 HZ ARND=
200904252300 METAR MRLM 252300Z 05004KT 9999 FEW030 SCT270 29/22 A2987 FEW110 HZ ARND=
200904252359 METAR MRLM 260000Z 00000KT 9999 SCT030 SCT270 28/22 A2989 TRACE AC AS HZ ARND=
200904260000 METAR MRLM 260000Z 00000KT 9999 SCT030 SCT270 28/22 A2989 TRACE AC AS HZ ARND=
200904260100 METAR MRLM NIL=
200904260200 METAR MRLM NIL=
200904260300 METAR MRLM NIL=
200904260400 METAR MRLM NIL=
200904260500 METAR MRLM NIL=
200904260600 METAR MRLM NIL=
200904260700 METAR MRLM NIL=
200904260800 METAR MRLM NIL=
200904260900 METAR MRLM NIL=
200904261000 METAR MRLM NIL=
200904261100 METAR MRLM NIL=
200904261200 METAR MRLM 261200Z NIL=
200904261300 METAR MRLM 261300Z 19002KT CAVOK 26/22 A2992 SCT090 FEW280 HZ ARND=
200904261400 METAR MRLM 261400Z 11008KT CAVOK 28/22 A2992 TRACE CU AC FEW280=
200904261500 METAR MRLM 261500Z 09008KT 9999 FEW035 29/22 A2992 TRACE AC FEW280 HZ LGT ARND=
200904261600 METAR MRLM 261600Z 08007KT 9999 FEW032 29/22 A2993 TRACE AC FEW280 HZ LGT ARND=
200904261700 METAR MRLM 261700Z 07009KT 9999 SCT030 30/23 A2992 TRACE CI FEW140 HZ LGT ARND=
200904261800 METAR MRLM 261800Z 07007KT 9999 SCT032 SCT100 29/23 A2990 TRACE CI HZ LGT ARND=
200904261900 METAR MRLM 261900Z 05008KT 9999 BKN030 SCT110 30/23 A2988 MRK TRAZAS CI HZY=
200904262000 METAR MRLM 262000Z 06008KT 9999 BKN030 30/23 A2986 RMK TRAZAS AC FEW280 RN SW HZY=
200904262100 METAR MRLM 262100Z 05006KT 9999 BKN035 30/23 A2985 RN SW FEW140 HZY=
200904262200 METAR MRLM 262200Z 05007KT 9999 BKN035 29/22 A2985 FEW140 RN SW HZY=
200904262300 METAR MRLM 262300Z 04006KT 9999 BKN028 28/23 A2985 RNSW W FEW150=
200904270000 METAR MRLM 270000Z 04005KT 9999 OVC028 28/22 A2986 RN SE SW W HZY=
200904270100 METAR MRLM NIL=
200904270200 METAR MRLM NIL=
200904270300 METAR MRLM NIL=
200904270400 METAR MRLM NIL=
200904270500 METAR MRLM NIL=
200904270600 METAR MRLM NIL=
200904270700 METAR MRLM NIL=
200904270800 METAR MRLM NIL=
200904270900 METAR MRLM NIL=
200904271000 METAR MRLM NIL=
200904271100 METAR MRLM NIL=
200904271200 METAR MRLM NIL=
200904271300 METAR MRLM 271300Z 35006KT 9999 FEW035 BKN090 24/22 A2990 RN NW N NE E=
200904271400 METAR MRLM 271400Z 22003KT CAVOK 26/23 A2991 TRAZAS CU FEW070 BKN090 DZ W HZY=
200904271500 METAR MRLM 271500Z 22004KT CAVOK 27/23 A2991 TRAZAS CU OVC090 HZY=
200904271600 METAR MRLM 271600Z 05004KT 9999 FEW035 BKN110 29/22 A2991 HZY=
200904271700 METAR MRLM 271700Z 03005KT 9999 FEW035 SCT120 30/23 A2991 HZY=
200904271800 METAR MRLM 271800Z 04006KT 9999 FEW035 BKN090 30/23 A2988 HZY=
200904271900 METAR MRLM 271900Z 04008KT 9999 FEW035 BKN120 30/23 A2986 RMK HZY=
200904272000 METAR MRLM 272000Z 07008KT 9999 FEW035 BKN120 30/23 A2984 RMK HZY=
200904272100 METAR MRLM 272100Z 03012KT 9999 SCT025 BKN090 29/25 A2983 RMK TRAZAS CI RN DST SW/W/N/NE CB DST S HZ LGT ARND=
200904272200 METAR MRLM 272200Z 04009KT 9999 FEW025 BKN090 28/23 A2983 RMK FEW070 RN DST S/SW/NW/N/NE=
200904272300 METAR MRLM 272300Z 11006KT 9999 SCT020 BKN100 28/24 A2983 RMK RN DST S/SW/NW/N/NE=
200904280000 METAR MRLM 280000Z 05010KT 9999 SCT018 SCT100 27/24 A2986 RMK RN ARND=
200904280100 METAR MRLM NIL=
200904280200 METAR MRLM NIL=
200904280300 METAR MRLM NIL=
200904280400 METAR MRLM NIL=
200904280500 METAR MRLM NIL=
200904280600 METAR MRLM NIL=
200904280700 METAR MRLM NIL=
200904280800 METAR MRLM NIL=
200904280900 METAR MRLM NIL=
200904281000 METAR MRLM NIL=
200904281100 METAR MRLM NIL=
200904281200 METAR MRLM 281200Z NIL=
200904281300 METAR MRLM 281300Z 26005KT 9999 SCT010 SCT090 25/23 A2991 RMK VIS NW/N 7KM DUE RN HZ ARND=
200904281400 METAR MRLM 281400Z 30006KT 3000 RA OVC010 24/25 A2994 RMK HZ ARND=
200904281500 METAR MRLM 281500Z 24003KT 6000 +DZ BKN006 25/23 A2996 RERA RMK FEW080 HZ ARND=
200904281600 METAR MRLM 281600Z 20008KT 9999 SCT010 SCT090 25/24 A2994 REDZ RMK FEW100 HZ ARND=
200904281700 METAR MRLM 281700Z 20006KT 9999 SCT020 BKN090 27/23 A2993 RMK RN DST N/NE/E HZ LGT ARND=
200904281800 METAR MRLM 281800Z 00000KT 9999 SCT030 SCT090 30/24 A2991 RMK RN DST SE/NE/N HZ LGT ARND=
200904281900 METAR MRLM 281900Z 06008KT 7000 +DZ BKN015 27/23 A2990 RMK FEW090 HZ ARND=
200904282000 METAR MRLM 282000Z 03003KT 9999 BKN020 SCT090 28/24 A2987 REDZ RMK RN DST NE/N HZ LGT ARND=
200904282100 METAR MRLM 282100Z 03004KT 9999 BKN020 28/24 A2986 RMK FEW090 RN DST NE E DZ NW HZ ARND=
200904282200 METAR MRLM 282200Z 00000KT 9999 BKN020 SCT090 27/23 A2985 RMK DZ NW HZ ARND=
200904282300 METAR MRLM 282300Z 2002KT 9999 BKN010 SCT100 26/23 A2986 RMK RN DST S NE E SE HZY=
200904290000 METAR MRLM 290000Z 00000KT 9999 BKN010 26/24 A2987 RMK RN DST SW E N FEW090 HZ ARND=
200904290100 METAR MRLM NIL=
200904290200 METAR MRLM NIL=
200904290300 METAR MRLM NIL=
200904290400 METAR MRLM NIL=
200904290500 METAR MRLM NIL=
200904290600 METAR MRLM NIL=
200904290700 METAR MRLM NIL=
200904290900 METAR MRLM NIL=
200904291000 METAR MRLM NIL=
200904291100 METAR MRLM NIL=
200904291200 METAR MRLM 291200Z NIL=
200904291300 METAR MRLM 291300Z 20003KT 9999 DZ BKN010 24/22 A2993 RMK FEW100 RN DST S DZ DST NE N HZ ARND=
200904291401 METAR MRLM 291401Z COR 27004KT 9999 DZ BKN010 SCT010 24/23 A2995 RERA RN DST E N HZY=
200904291500 METAR MRLM 291500Z 12005KT 6000 RA BKN010 25/23 A2996 RMK FEW090 HZY=
200904291600 METAR MRLM 291600Z 00000KT 9999 FEW010 SCT090 26/23 A2993 RERA RMK FEW100 HZY=
200904291700 METAR MRLM 291700Z 05003KT 9999 SCT020 SCT090 28/24 A2993 RMK HZ ARND=
200904291800 METAR MRLM 291800Z 02006KT 9999 SCT025 SCT090 28/23 A2992 RMK FEW100 RN DST NE N HZ ARND=
200904291900 METAR MRLM 291900Z 03008KT 9999 SCT020 SCT090 27/23 A2990 RMK RN DST NW DZ SW W HZY=
200904292000 METAR MRLM 292000Z 25005KT 9999 SCT020 BKN100 27/23 A2988 RMK HZ ARND=
200904292100 METAR MRLM 292100Z 24002KT 9999 FEW020 BKN100 27/24 A2987 RMK FEW110 HZ ARN D=
200904292200 METAR MRLM 292200Z 23002KT 9999 FEW020 BKN090 27/23 A2987 RMK FEW100 HZ ARN D=
200904292300 METAR MRLM 292300Z 00000KT 9999 SCT020 BKN090 27/23 A2987 RMK HZ ARND=
200904300000 METAR MRLM 300000Z 00000KT 9999 FEW010 BKN100 27/24 A2988 RMK HZ ARND=
200904300100 METAR MRLM NIL=
200904300200 METAR MRLM NIL=
200904300300 METAR MRLM NIL=
200904300400 METAR MRLM NIL=
200904300500 METAR MRLM NIL=
200904300600 METAR MRLM NIL=
200904300700 METAR MRLM NIL=
200904300800 METAR MRLM NIL=
200904300900 METAR MRLM NIL=
200904301000 METAR MRLM NIL=
200904301100 METAR MRLM NIL=
200904301200 METAR MRLM 301200Z NIL=
200904301300 METAR MRLM 301300Z 20005KT 8000 +DZ BKN020 SCT100 23/22 A2996 RMK HZ ARND TRACE ST=
200904301400 METAR MRLM 301400Z 21004KT 9999 FEW015 BKN090 24/22 A2997 REDZ RMK FEW110 HZ LGT ARND DZ DST QUAD S W=
200904301500 METAR MRLM 301500Z 19003KT CAVOK 25/23 A2997 RMK TRACE SC BKN090 SCT110 RN DST N DZ DST W NW HZ LEVE ARND=
200904301600 METAR MRLM 301600Z 21002KT CAVOK 27/23 A2998 RMK TRACE SC BKN100 SCT120 RN DST QUAD N E HZ LGT ARND=
200904301700 METAR MRLM 301700Z 00000KT CAVOK 29/24 A2997 RMK TRACE SC BKN090 SCT100 RN DST NE HZ LGT ARND=
200904301800 METAR MRLM 301800Z 04003KT 9999 FEW028 BKN090 29/23 A2994 RMK FEW100 RN DST E S HZ LGT ARND=
200904301900 METAR MRLM 301900Z 04005KT 9999 FEW025 BKN090 28/23 A2992 RMK FEW100 RN DST SE HZ LEVE ARND=
200904302000 METAR MRLM 302000Z 06006KT 9999 FEW030 BKN090 29/22 A2989 RMK FEW120 RN DST S HZ LGT ARND=
200904302100 METAR MRLM 302100Z 08009KT 9999 FEW025 BKN090 28/23 A2989 RMK RN S HZ ARND FEW140=
200904302200 METAR MRLM 302200Z 15003KT CAVOK 28/23 A2988 RMK TRACE SC SCT080 BKN090 RN W=
200904302300 METAR MRLM 302300Z 08002KT CAVOK 2823 A2989 RMK BKN100 SCT150 HZ ARND=
200905010000 METAR MRLM 010000Z 00000KT CAVOK 26/24 A2991 RMK BKN110 SCT270 HZ LEVE ARND=
200905010100 METAR MRLM NIL=
200905010200 METAR MRLM NIL=
200905010300 METAR MRLM NIL=
200905010400 METAR MRLM NIL=
200905010500 METAR MRLM NIL=
200905010600 METAR MRLM NIL=
200905010700 METAR MRLM NIL=
200905010800 METAR MRLM NIL=
200905010900 METAR MRLM NIL=
200905011000 METAR MRLM NIL=
200905011100 METAR MRLM NIL=
200905011200 METAR MRLM NIL=
200905011300 METAR MRLM 011300Z 20006KT 9999 BKN015 24/22 A2997 RMK FEW100 RN HZ ARND=
200905011400 METAR MRLM 011400Z 19004KT 9999 SCT015 SCT100 24/22 A2999 REDZ RMK RN HZ DST ARND=
200905011500 METAR MRLM 011500Z 20007KT 9999 FEW015 BKN090 24/22 A3001 RMK FEW110 DZ S RN DST N HZ LGT ARND=
200905011600 METAR MRLM 011600Z 19005KT CAVOK 26/23 A3000 RMK BKN100 FEW110 DZ S HZ LGT ARND=
200905011700 METAR MRLM 011700Z 19005KT CAVOK 27/23 A2998 RMK OVC100 HZ LGT ARND=
200905011800 METAR MRLM 011800Z 21003KT CAVOK 29/23 A2995 RMK TRACE SC OVC100 HZ LGT ARND=
200905011900 METAR MRLM 011900Z 04003KT CAVOK 30/23 A2993 RMK TRACE SC OVC100 HZ LGT ARND=
200905012000 METAR MRLM 012000Z 06005KT 9999 FEW038 BKN100 30/22 A2990 RMK HZ ARND=
200905012100 METAR MRLM 012100Z 06003KT 9999 FEW035 BKN090 29/22 A2990 HZ ARND=
200905012200 METAR MRLM 012200Z 05005KT 9999 FEW035 BKN090 29/22 A2989 RMK HZ ARND=
200905012300 METAR MRLM 012300Z 05005KT 9999 FEW030 BKN130 29/22 A2990 RMK SCT260 HZ ARN D=
200905020000 METAR MRLM 020000Z 02004KT CAVOK 28/23 A2994 RMK FEW130 SCT150 SCT270 HZ ARND=
200905020100 METAR MRLM NIL=
200905020200 METAR MRLM NIL=
200905020300 METAR MRLM NIL=
200905020400 METAR MRLM NIL=
200905020500 METAR MRLM NIL=
200905020600 METAR MRLM NIL=
200905020700 METAR MRLM NIL=
200905020800 METAR MRLM NIL=
200905020900 METAR MRLM NIL=
200905021000 METAR MRLM NIL=
200905021100 METAR MRLM NIL=
200905021200 METAR MRLM 021200Z 25004KT 9999 BKN010 24/22 A2993 RMK FEW100 RN DST NW NE E HZ ARND=
200905021300 METAR MRLM 021300Z 20003KT 9999 SCT010 BKN100 24/22 A2995 RMK RN S SW N HZ LEVE ARND=
200905021400 METAR MRLM 021400Z 00000KT 9999 BKN015 SCT100 26/23 A2996 RMK RN SW DZ NE HZ LEVE ARND=
200905021500 METAR MRLM 021500Z 00000KT 9999 SCT020 SCT100 27/23 A2996 RMK DZ NE HZ LEVE ARND=
200905021600 METAR MRLM 021600Z 10007KT 9999 BKN090 27/24 A2996 RMK FEW090 RN NE SE HZ ARND=
200905021700 METAR MRLM 021700Z 07009KT 9999 BKN020 SCT090 27/23 A2996 RMK RN NE E HZ ARND=
200905021800 METAR MRLM 021800Z 26003KT 9999 SCT020 SCT090 26/23 A2994 RMK RN S HZ ARND=
200905021900 METAR MRLM 021900Z 20004KT 9999 FEW020 BKN090 27/23 A2991 RMK HZ ARND=
200905022000 METAR MRLM 022000Z 17003KT 9999 FEW020 BKN100 27/24 A2988 RMK HZ ARND=
200905022100 METAR MRLM NIL=
200905022200 METAR MRLM 022200Z 10004KT CAVOK 28/24 A2985 RMK SCT090 BKN100 HZ LGT ARND=
200905022300 METAR MRLM 022300Z 13003KT CAVOK 28/23 A2896 RMK SCT090 SCT100 HZ LGT ARND=
200905030000 METAR MRLM 030000Z 09005KT CAVOK 28/24 A2988 RMK TRAZAS SC BKN090 SCT100 RN S HZ ARND=
200905030100 METAR MRLM NIL=
200905030200 METAR MRLM NIL=
200905030300 METAR MRLM NIL=
200905030400 METAR MRLM NIL=
200905030500 METAR MRLM NIL=
200905030600 METAR MRLM NIL=
200905030700 METAR MRLM NIL=
200905030800 METAR MRLM NIL=
200905030900 METAR MRLM NIL=
200905031000 METAR MRLM NIL=
200905031100 METAR MRLM NIL=
200905031200 METAR MRLM 031200Z NIL=
200905031300 METAR MRLM 031300Z 22002KT 9999 SCT010 SCT100 24/22 A2994 RMK FEW110 RN NE/E HZ ARND=
200905031400 METAR MRLM 031400Z 00000KT 9999 FEW015 SCT100 26/23 A2996 RMK FEW110 RN NE HZ ARND=
200905031500 METAR MRLM 031500Z 03004KT 9999 FEW030 BKN110 28/22 A2996 RMK RN DST NE HZ ARND=
200905031600 METAR MRLM 031600Z 08003KT 9999 FEW030 BKN110 28/23 A2995 RMK FEW120 HZ ARND=
200905031700 METAR MRLM 031700Z 06005KT 9999 FEW035 BKN110 30/23 A2995 RMK FEW120 HZ LGT ARND=
200905031800 METAR MRLM 031800Z 06007KT 9999 FEW030 BKN100 29/24 A2992 HZ LGT ARND=
200905031900 METAR MRLM 031900Z 05011KT 9999 FEW020 SCT100 28/24 A2990 RMK SCT120 RN DST SW HZ LGT ARND=
200905032000 METAR MRLM 032000Z 06007KT 9999 SCT020 SCT100 28/24 A2986 RMK RN SW/W HZ ARND=
200905032100 METAR MRLM 032100Z 09004KT 9999 -DZ BKN015 SCT100 27/24 A2986 RMK RN SW W HZ LGT ARND=
200905032200 METAR MRLM 032200Z 00000KT 9999 BKN020 SCT090 27/23 A2986 REDZ RMK TS DST SW W HZ ARND=
200905032300 METAR MRLM 032300Z 20003KT 9999 DZ SCT010 SCT090 26/24 A2987 RMK FEW100 RN S SW HZ ARND=
200905040000 METAR MRLM 040000Z 20004KT 9999 DZ BKN010 SCT090 25/24 A2988 RMK RN DST SW NE=
200905040100 METAR MRLM NIL=
200905040200 METAR MRLM NIL=
200905040300 METAR MRLM NIL=
200905040400 METAR MRLM NIL=
200905040500 METAR MRLM NIL=
200905040600 METAR MRLM NIL=
200905040700 METAR MRLM NIL=
200905040800 METAR MRLM NIL=
200905040900 METAR MRLM NIL=
200905041000 METAR MRLM NIL=
200905041100 METAR MRLM NIL=
200905041200 METAR MRLM NIL=
200905041300 METAR MRLM 041300Z 21003KT CAVOK 25/23 A2991 TRACE AC FEW280 HZY=
200905041400 METAR MRLM 041400Z 00000KT CAVOK 29/23 A2992 RMK TRACE CU FEW280 HZY=
200905041500 METAR MRLM 041500Z 00000KT 9999 FEW030 SCT280 29/23 A2994 RMK CB DST NW N TRACE AC LGT HZ ARND=
200905041600 METAR MRLM 041600Z 08006KT 9999 FEW030 29/23 A2992 RMK FEW280 CB DIST NW HZ ARND LGT=
200905041700 METAR MRLM 041700Z 06008KT 9999 FEW030 29/24 A2992 RMK TRACE AC FEW280 CB DST NW LGT HZ ARND=
200905041800 METAR MRLM 041800Z 04009KT 9999 SCT025 29/24 A2989 RMK CB DST SW FEW150 TRACE CI LGT HZ ARND=
200905041900 METAR MRLM 041900Z 02012KT 9999 FEW020 29/25 A2987 RMK FEW150 FEW280 LGT HZ ARND TCU RN DST SW W=
200905042000 METAR MRLM 042000Z 05009KT 9999 FEW025 SCT130 30/25 A2984 FEW280 RN DST SW LG HZ ARND=
200905042100 METAR MRLM 042100Z 06007KT 9999 FEW025 BKN080 29/24 A2983 RMK TRACE AS FEW2 80 CB RN DST QUAD S HZ LGT ARND=
200905042200 METAR MRLM 042200Z 04007KT 9999 FEW025 SCT090 BKN260 28/23 A2983 RMK RN DST S=
200905042300 METAR MRLM 042300Z 07003KT 9999 SCT025 SCT270 28/23 A2983 RMK RN DST QUAD S HZ LGT ARND=
200905050000 METAR MRLM 050000Z 07006KT 9999 SCT020 SCT270 28/24 A2985 RMK FEW140 RN DST SW HZ LGT ARND=
200905050100 METAR MRLM NIL=
200905050200 METAR MRLM NIL=
200905050300 METAR MRLM NIL=
200905050400 METAR MRLM NIL=
200905050500 METAR MRLM NIL=
200905050600 METAR MRLM NIL=
200905050700 METAR MRLM NIL=
200905050800 METAR MRLM NIL=
200905050900 METAR MRLM NIL=
200905051000 METAR MRLM NIL=
200905051100 METAR MRLM NIL=
200905051200 METAR MRLM 051200Z NIL=
200905051300 METAR MRLM 051300Z 20004KT 9999 BKN020 SCT080 25/22 A2992 RMK TCU DST W N LGT HZ ARND=
200905051400 METAR MRLM 051400Z 21002KT 9999 FEW025 BKN080 28/23 A2994 RMK FEW270 HZ LGT ARND CB RN DST N=
200905051500 METAR MRLM 051500Z 09002KT 9999 SCT030 SCT090 29/23 A2994 RMK CB RN DST QUAD N HZ LGT ARND=
200905051600 METAR MRLM 051600Z 04002KT 9999 FEW028 BKN100 29/23 A2994 RMK FEW270 CB DST N NE HZ LGT ARND=
200905051700 METAR MRLM 051700Z 02005KT 9999 SCT028 SCT280 30/24 A2992 RMK TRACE AC CB DST NE LGT HZ ARND=
200905051800 METAR MRLM 051800Z 02006KT 9999 FEW028 BKN280 30/24 A2992 RMK FEW140 TCU DST SW HZ LGT ARND=
200905051900 METAR MRLM 051900Z 05007KT 9999 FEW025 BKN280 29/24 A2986 RMK CB DST S SW W HZ ARND=
200905052000 METAR MRLM 052000Z 04005KT 9999 SCT035 SCT280 30/23 A2983 RMK CB DST SE S SW RN DST S SW FEW150 HZ LGT ARND=
200905052100 METAR MRLM 052100Z 05005KT 9999 FEW028 BKN270 29/23 A2983 RMK FEW100 CB DST S SW HZ ARND=
200905052200 METAR MRLM 052200Z 03004KT 9999 SCT025 SCT270 29/24 A2982 RMK RN DST S SW HZ ARND=
200905052300 METAR MRLM 052300Z 04003KT 9999 BKN025 28/23 A2983 RMK FEW140 FEW270 RN DST S HZ LGT ARND=
200905060000 METAR MRLM 060000Z 20002KT 9999 BKN015TCU 27/24 A2986 RMK CB RN S FEW140 FEW270 HZ ARND=
200905060100 METAR MRLM NIL=
200905060200 METAR MRLM NIL=
200905060300 METAR MRLM NIL=
200905060400 METAR MRLM NIL=
200905060500 METAR MRLM NIL=
200905060600 METAR MRLM NIL=
200905060700 METAR MRLM NIL=
200905060800 METAR MRLM NIL=
200905060900 METAR MRLM NIL=
200905061000 METAR MRLM NIL=
200905061100 METAR MRLM NIL=
200905061200 METAR MRLM NIL=
200905061300 METAR MRLM 061300Z 20004KT 9999 SCT010 BKN090 24/23 A2991 HZY=
200905061400 METAR MRLM 061400Z 20003KT 9999 SCT010 BKN100 26/23 A2992 DZ NW HZY=
200905061500 METAR MRLM 061500Z 00000KT 9999 FEW020 BKN100 28/23 A2993 DZ E HZY=
200905061600 METAR MRLM 061600Z 04005KT 9999 SCT025 SCRT100 29/23 A2993 FEW110 HZY=
200905061700 METAR MRLM 061700Z 03009KT 9999 FEW025 SCT100 29/24 A2992 FEW110 HZ SE=
200905061800 METAR MRLM 061800Z 04008KT 9999 SCT020 SCT110 29/24 A2990 FEW120 HZ SE=
200905061900 METAR MRLM 061900Z 03005KT 9999 FEW030 SCT110 29/24 A2987 FEW280=
200905062000 METAR MRLM 062000Z 05007KT 9999 FEW030 SCT100 30/23 A2983 TCU SW S SCT280 HZY=
200905062100 METAR MRLM 062100Z 04007KT 9999 FEW025 BKN270 30/23 A2982 RMK FEW110 HZ LEV E ARND=
200905062200 METAR MRLM 062200Z 05006KT 9999 FEW025 SCT270 29/24 A2982 RMK CB TCU SW S FEW110 HZ LEVE ARND=
200905062300 METAR MRLM 062300Z 04006KT 9999 OVC025 29/24 A2984 RMK TRACE CI AS AC=
200905070000 METAR MRLM 070000Z 04006KT 9999 BKN020 SCT280 28/24 A2985 RMK TRACE AS AC RN S SW HZ ARND=
200905070100 METAR MRLM NIL=
200905070200 METAR MRLM NIL=
200905070300 METAR MRLM NIL=
200905070400 METAR MRLM NIL=
200905070500 METAR MRLM NIL=
200905070600 METAR MRLM NIL=
200905070700 METAR MRLM NIL=
200905070800 METAR MRLM NIL=
200905070900 METAR MRLM NIL=
200905071000 METAR MRLM NIL=
200905071100 METAR MRLM NIL=
200905071200 METAR MRLM 071200Z 21005KT 9999 BKN005 24/23 A2988 RMK FEW080 RN N S HZ ARND=
200905071300 METAR MRLM 071300Z 22004KT 9999 TSRA OVC008 24/23 A2990 RMK VIS 8000 E SE HZ ARND=
200905071400 METAR MRLM 071400Z 22003KT 9999 DZ SCT010 SCT080 24/23 A2992 RETS RN W HZ ARND=
200905071500 METAR MRLM 071500Z 19004KT 9999 FEW010 SCT080 26/24 A2992 REDZ SCT100 RN W E HZ ARND=
200905071600 METAR MRLM 071600Z 19004KT 9999 FEW020 BKN100 28/24 A2992 RMK TRACE CI FEW1 10 RN E HZ SE=
200905071700 METAR MRLM 071700Z 12003KT 9999 BKN025 29/24 A2990 RMK FEW100 RN SE HZ SE=
200905071800 METAR MRLM 071800Z 14006KT 9999 SCT030 SCT100 30/24 A2987 RMK TRACE CI FEW1 20 RN SW HZ LEVE SE=
200905071900 METAR MRLM 071900Z 09005KT 9999 FEW035 SCT100 30/23 A2984 RMK FEW270 HZ SE=
200905072000 METAR MRLM 072000Z 09007KT 9999 FEW040 SCT110 31/23 A2981 RMK SCT270 HZ SE=
200905072100 METAR MRLM 072100Z 10008KT 9999 FEW035 SCT110 30/23 A2980 RMK SCT270 HZ LGT SE=
200905072200 METAR MRLM 072200Z 07005KT 9999 FEW030 SCT110 29/22 A2979 RMK SCT270 HZ LGT ARND=
200905072300 METAR MRLM 072300Z 08005KT CAVOK 29/22 A2979 RMK TRAZAS CU SCT110 BKN270 TCU DST W HZ LGT ARND=
200905080000 METAR MRLM 080000Z 05004KT CAVOK 29/22 A2980 RMK TRAZAS CU SCT100 SCT270 HZ ARND=
200905080100 METAR MRLM NIL=
200905080200 METAR MRLM NIL=
200905080300 METAR MRLM NIL=
200905080400 METAR MRLM NIL=
200905080500 METAR MRLM NIL=
200905080600 METAR MRLM NIL=
200905080700 METAR MRLM NIL=
200905080800 METAR MRLM NIL=
200905080900 METAR MRLM NIL=
200905081000 METAR MRLM NIL=
200905081100 METAR MRLM NIL=
200905081200 METAR MRLM NIL=
200905081300 METAR MRLM 081300Z 21004KT 9999 FEW020 BKN090 24/22 A2988 REDZ RMK CB/RN DST W/NW DZ NE/E HZ LGT ARND=
200905081400 METAR MRLM 081400Z 23004KT 9999 FEW015 BKN080 26/24 A2988 TRAZAS CI LGT HZ ARND=
200905081500 METAR MRLM 081500Z 07004KT 9999 FEW025 BKN090 28/23 A2988 RMK CB DST N/NE RN DST E HZ LGT ARND=
200905081600 METAR MRLM 081600Z 07006KT 9999 FEW025 BKN090 28/24 A2987 RMK TRAZAS CI HZ LGT ARND=
200905081700 METAR MRLM 081700Z 07005KT 9999 FEW025 BKN080 29/24 A2987 RMK HZ ARND=
200905081800 METAR MRLM 081800Z 09008KT 9999 BKN025 29/24 A2985 RMK FEW090 CB DST QUAND N LGT HZ ARND=
200905081900 METAR MRLM 081900Z 10008KT 9999 BKN025 30/24 A2983 RMK FEW120 CB DST N/NE/E/SW HZ LGT ARND=
200905082000 METAR MRLM 082000Z NIL=
200905082100 METAR MRLM 082100Z 10005KT 9999 FEW028 BKN090 29/23 A2979 RMK CB DST S W FEW280 LGT HZ ARND=
200905082200 METAR MRLM 082200Z 07003KT 9999 FEW028 BKN090 30/23 A2979 RMK CB DST S QD RN DST SE TRACE CI HZY=
200905082300 METAR MRLM 082300Z 08004KT 9999 FEW025 BKN070 29/23 A2981 RMK FEW140 CB DST S W HZY=
200905090000 METAR MRLM 090000Z 00000KT CAVOK 28/23 A2983 RMK TRACE SC CI BKN090 FEW140 LGT HZ ARND CBS RN DST SE S=
200905090100 METAR MRLM NIL=
200905090200 METAR MRLM NIL=
200905090300 METAR MRLM NIL=
200905090400 METAR MRLM NIL=
200905090500 METAR MRLM NIL=
200905090600 METAR MRLM NIL=
200905090700 METAR MRLM NIL=
200905090800 METAR MRLM NIL=
200905090900 METAR MRLM NIL=
200905091000 METAR MRLM NIL=
200905091100 METAR MRLM NIL=
200905091200 METAR MRLM NIL=
200905091300 METAR MRLM 091300Z 20004KT CAVOK 24/23 A2988 RMK TRACE SC AS FEW100 BKN280 CBS N NE=
200905091400 METAR MRLM 091400Z 25002KT CAVOK 26/23 A2987 RMK SCT090 BKN280 HZY=
200905091500 METAR MRLM 091500Z 27002KT CAVOK 29/23 A2989 RMK TRACE CU AC OVC280 HZY=
200905091600 METAR MRLM 091600Z 03003KT 9999 FEW030 SCT080 BKN280 29/23 A2989 HZ LGT ARND=
200905091700 METAR MRLM 091700Z 05003KT 9999 FEW032 BKN280 30/24 A2988 RMK CB DST NE HZY=
200905091800 METAR MRLM 091800Z 03005KT 9999 FEW028 BKN280 30/24 A2986 RMK FEW130 HZY=
200905091900 METAR MRLM 091900Z 04006KT 9999 FEW028 BKN280 30/24 A2984 RMK FEW140 CB DST W HZY=
200905092000 METAR MRLM 092000Z 36005KT 9999 FEW030 BKN280 31/25 A2981 RMK FEW120 CB DST W HZY=
200905092100 METAR MRLM 092100Z 02006KT 9999 BKN030 SCT280 31/25 A2981 RMK CB DST E W HZ ARND=
200905092200 METAR MRLM 092200Z 01007KT 9999 BKN028 30/24 A2979 RMK FEW300 HZ LGT ARND=
200905092300 METAR MRLM 092300Z 03007KT 9999 BKN023TCU 29/24 A2980 RMK FEW030 RN DST NW CB RN DST QUAD S W HZ LGT ARND=
200905100000 METAR MRLM 100000Z 04006KT 9999 SCT023 SCT280 29/24 A2981 RMK CB RN DST SE S SW W TRACE AC HZY=
200905100100 METAR MRLM NIL=
200905100200 METAR MRLM NIL=
200905100300 METAR MRLM NIL=
200905100400 METAR MRLM NIL=
200905100500 METAR MRLM NIL=
200905100600 METAR MRLM NIL=
200905100700 METAR MRLM NIL=
200905100800 METAR MRLM NIL=
200905100900 METAR MRLM NIL=
200905101000 METAR MRLM NIL=
200905101100 METAR MRLM NIL=
200905101200 METAR MRLM 101200Z 22006KT 9999 TS BKN010 SCT100 24/23 A2989 RMK TCU/CB/TS QUAND N HZ ARND=
200905101300 METAR MRLM 101300Z 32003KT 9999 BKN010 SCT100 25/24 A2985 RMK RN DST NW NE HZ ARND=
200905101400 METAR MRLM 101400Z 28002KT 9999 SCT010 SCT100 26/24 A2986 RMK CB TS DST NW N RN DST NE FEW110 HZ ARND=
200905101500 METAR MRLM 101500Z 29007KT 9999 BKN015 SCT090 27/24 A2987 RMK CB TS TCU DST QUAD N HZ ARND=
200905101600 METAR MRLM 101600Z 03012KT 8000 3500N TSRA BKN015CB 26/23 A2990 RMK TRACE CI AC=
200905101700 METAR MRLM 101700Z 00000KT 9999 FEW015CB BKN020 27/23 A2989 RETSRA RMK TS RA DST QUAD N=
200905101800 METAR MRLM 101800Z 00000KT 9999 BKN020 28/24 A2987 RMK FEW090 TCU DST N NE HZ ARND=
200905101900 METAR MRLM 101900Z 00000KT 9999 SCT020 SCT090 28/24 A2986 RMK FEW100 HZ ARND=
200905102000 METAR MRLM 102000Z 04002KT 9999 SCT020 SCT090 28/24 A2983 RMK FEW100 HZ ARND=
200905102100 METAR MRLM 102100Z 00000KT 9999 SCT030 BKN090 29/24 A2982 HZY=
200905102200 METAR MRLM 102200Z 00000KT 9999 SCT025 SCT090 29/24 A2981 HZY=
200905102300 METAR MRLM 102300Z 00000KT CAVOK 29/24 A2980 TRZAS CU SCT110 SCT270 HZY=
200905110000 METAR MRLM 110000Z 00000KT 9999 SCT015 SCT110 27/24 A2980 FEW270 HZY=
200905110100 METAR MRLM NIL=
200905110200 METAR MRLM NIL=
200905110300 METAR MRLM NIL=
200905110400 METAR MRLM NIL=
200905110500 METAR MRLM NIL=
200905110600 METAR MRLM NIL=
200905110700 METAR MRLM NIL=
200905110800 METAR MRLM NIL=
200905110900 METAR MRLM NIL=
200905111000 METAR MRLM NIL=
200905111100 METAR MRLM NIL=
200905111200 METAR MRLM 111200Z 20005KT 7000 3000NE RA OVC010 24/23 A2983=
200905111300 METAR MRLM 111300Z 17003KT 2000 TSRA BKN010CB 24/23 A2986 FEW020 VSBY SW 5KM=
200905111400 METAR MRLM 111400Z 20003KT 8000 VCTSRA SCT010CB SCT020 24/23 A2986 RETSRA FEW080=
200905111500 METAR MRLM 111500Z 23003KT 9999 FEW010CB BKN020 26/24 A2987 RN W NW N NE FEW090=
200905111600 METAR MRLM 111600Z 00000KT 9999 TS BKN020 27/24 A2988 CB N FEW090 HZ SE=
200905111700 METAR MRLM 111700Z 32009KT 9999 TS BKN015 27/24 A2987 CB N FEW090 HZY=
200905111800 METAR MRLM 111800Z 00000KT 9999 +DZ SCT015 SCT090 26/24 A2984 RETS RN NW HZY=
200905111900 METAR MRLM 111900Z 30003KT 9999 DZ SCT015 SCT100 26/24 A2984 RN NW FEW090 HZY=
200905112000 METAR MRLM 112000Z 24003KT 9999 DZ SCT015 SCT100 28/25 A2979 CB TS N FEW090 HZY=
200905112100 METAR MRLM 112100Z 02003KT 9999 BKN025 29/24 A2979 REDZ RMK CB TS DST N NW FEW100 HZ ARND=
200905112200 METAR MRLM 112200Z 34008KT 9999 BKN025 27/24 A2978 RMK CB TS N FEW090 HZ ARND=
200905112300 METAR MRLM 112300Z 33003KT 9999 DZ BKN015 SCT090 27/24 A2978 RMK RN N HZ ARND=
200905120000 METAR MRLM 120000Z 00000KT 9999 BKN010 26/24 A2980 REDZ RN N E FEW090 HZ ARND=
200905120100 METAR MRLM NIL=
200905120200 METAR MRLM NIL=
200905120300 METAR MRLM NIL=
200905120400 METAR MRLM NIL=
200905120500 METAR MRLM NIL=
200905120600 METAR MRLM NIL=
200905120700 METAR MRLM NIL=
200905120800 METAR MRLM NIL=
200905120900 METAR MRLM NIL=
200905121000 METAR MRLM NIL=
200905121100 METAR MRLM NIL=
200905121200 METAR MRLM 121200Z NIL=
200905121300 METAR MRLM 121300Z 22006KT 4000 TSRA FEW005 SCT010CB BKN015 23/23 A2986=
200905121400 METAR MRLM 121400Z 20007KT 4000 TSRA FEW005 SCT010CB BKN015 23/22 A2989 RMK TS E=
200905121500 METAR MRLM 121500Z 23006KT 5000 RA FEW005 BKN015 23/23 A2990 RETS FEW090=
200905121600 METAR MRLM 121600Z 18006KT 1000 +TSRA FEW005 SCT010CB BKN015 23/22 A2996=
200905121700 METAR MRLM 121700Z 22006KT 4000 -RA FEW004 OVC015 23/22 A2990 RMK RAMPA Y PISTA INUNDADA=
200905121800 METAR MRLM 121800Z 25004KT 8000 +DZ BKN030 SCT090 23/22 A2987 RMK VIS E UNL CB S SW W PISTA Y RAMPA INUNDADA=
200905121900 METAR MRLM 121900Z 31004KT 9999 -DZ FEW05 BKN030 24/23 A2984 RMK SCT090 CB RN S SW HZ ARND=
200905122000 METAR MRLM 122000Z 31003KT 9999 +DZ SCT035 SCT100 24/23 A2983 RMK CB RN DST HZ ARND=
200905122100 METAR MRLM 122100Z 31003KT 9999 -DZ SCT035 BKN100 24/23 A2981 RMK RAMPA INUNDADA CB/RN DST E/QUAND N=
200905122200 METAR MRLM 122200Z 27003KT CAVOK 24/23 A2981 REDZ RMK TRAZAS SC BKN080 SCT100 RAMPA ININDADA CB/RN DST QUAND N=
200905122300 METAR MRLM 122300Z 00000KT CAVOK 24/22 A2982 RMK BKN090 RAMPA INUNDADA CB/RN DST QUAND N=
200905130000 METAR MRLM 130000Z 26002KT CAVOK 24/22 A2982 RMK BKN090 FEW110 CB/RN DST E/SE=
200905130100 METAR MRLM NIL=
200905130200 METAR MRLM NIL=
200905130300 METAR MRLM NIL=
200905130400 METAR MRLM NIL=
200905130500 METAR MRLM NIL=
200905130600 METAR MRLM NIL=
200905130700 METAR MRLM NIL=
200905130800 METAR MRLM NIL=
200905130900 METAR MRLM NIL=
200905131000 METAR MRLM NIL=
200905131100 METAR MRLM NIL=
200905131200 METAR MRLM 131200Z NIL=
200905131300 METAR MRLM 131300Z 21005KT 9999 FEW015 BKN090 24/22 A2987 RMK RAMPA INUNDADA RN DST N/NE/SW HZY=
200905131400 METAR MRLM 131400Z 21005KT 9999 SCT020 SCT090 26/23 A2987 RMK RAMPA INUNDADA HZ ARND=
200905131500 METAR MRLM 131500Z 22004KT 9999 FEW025 SCT140 28/23 A2988 RMK SCT280 RAMPA CON AGUA LGT HZ ARND=
200905131600 METAR MRLM 131600Z 03004KT 9999 SCT032 BKN280 29/23 A2988 RMK TRAZAS AC HZ ARND AGUA EN LA RAMPA=
200905131700 METAR MRLM 131700Z 03005KT 9999 FEW032 BKN140 30/23 A2987 RMK FEW280 HZ ARND=
200905131800 METAR MRLM 131800Z 36009KT 9999 FEW030 BKN130 30/24 A2986 RMK FEW280 HZ LGT ARND CB DST S/SW/W=
200905131900 METAR MRLM 131900Z 01011KT 9999 FEW032 BKN130 30/24 A2984 RMK TRAZAS CI CB DST QUAND S HZ LGT ARND=
200905132000 METAR MRLM 132000Z 31008KT 9999 FEW030 BKN130 30/24 A2982 RMK FEW280 CB DST E/S/SW/W HZ ARND=
200905132100 METAR MRLM 132100Z 26007KT 9999 SCT030 SCT110 30/24 A2981 RMK FEW280 CB DST SW W HZY=
200905132200 METAR MRLM 132200Z 36008KT 9999 DZ BKN020TCU 28/23 A2981 RM HZ ARND=
200905132300 METAR MRLM 132300Z 08010KT 5000 RA BKN015TCU SCT090 27/24 A2983 VIS N UNL=
200905140000 METAR MRLM 140000Z 21003KT 9999 FEW008 BKN015TCU 26/24 A2984 RERA CB RN DST SE S SW=
200905140100 METAR MRLM NIL=
200905140200 METAR MRLM NIL=
200905140300 METAR MRLM NIL=
200905140400 METAR MRLM NIL=
200905140500 METAR MRLM NIL=
200905140600 METAR MRLM NIL=
200905140700 METAR MRLM NIL=
200905140800 METAR MRLM NIL=
200905140900 METAR MRLM NIL=
200905141000 METAR MRLM NIL=
200905141100 METAR MRLM NIL=
200905141200 METAR MRLM 141200Z 28004KT 5000 RA OVC010 24/23 A2986=
200905141300 METAR MRLM 141300Z 22003KT 3000 +RA OVC007 24/23 A2988=
200905141400 METAR MRLM 141400Z 25004KT 5000 RA BKN007 24/23 A2989 RMK FEW090=
200905141500 METAR MRLM 141500Z 25004KT 9999 DZ BKN010 25/23 A2991 RERA RMK FEW090 RN DST W N E HZ ARND=
200905141600 METAR MRLM 141600Z 25006KT 9999 BKN010 SCT090 25/23 A2992 REDZ RMK RN DST W N E HZY=
200905141701 METAR MRLM 141701Z COR 24005KT 9999 SCT015 SCT090 26/23 A2990 RMK RN DST N NE HZ ARND=
200905141800 METAR MRLM 141800Z 00000KT 9999 SCT020 BKN100 28/24 A2986 RMK RN DST NE HZ LGT ARND=
200905141900 METAR MRLM 141900Z 20006KT 9999 SCT020 SCT100 28/24 A2984 RMK RN DST NE HZ ARND=
200905142000 METAR MRLM 142000Z 33011KT 9999 SCT030 SCT090 29/24 A2983 RMK FEW100 RN DST NW N NE LGT HZ ARND=
200905142100 METAR MRLM 142100Z 28004KT 9999 SCT020 SCT090 27/23 A2980 RMK FEW100 RN DST NW W E HZ LGT ARND=
200905142200 METAR MRLM 142200Z 26002KT 9999 SCT020 SCT090 27/24 A2981 RMK HZ ARND=
200905142300 METAR MRLM 142300Z 25004KT 9999 SCT015 SCT100 26/24 A2982 RMK HZ ARND=
200905150000 METAR MRLM 150000Z 00000KT 9999 BKN010 26/24 A2983 RMK FEW090 RN DST SW NW E HZ ARND=
200905150100 METAR MRLM NIL=
200905150200 METAR MRLM NIL=
200905150300 METAR MRLM NIL=
200905150400 METAR MRLM NIL=
200905150500 METAR MRLM NIL=
200905150600 METAR MRLM NIL=
200905150700 METAR MRLM NIL=
200905150800 METAR MRLM NIL=
200905150900 METAR MRLM NIL=
200905151000 METAR MRLM NIL=
200905151100 METAR MRLM NIL=
200905151200 METAR MRLM 151200Z 21004KT 9999 SCT010 BKN100 23/21 A2985 RMK TCU DST N HZ ARND=
200905151300 METAR MRLM 151300Z 22003KT 9999 FEW010 SCT100 24/22 A2987 RMK TCU DST QUAD N TRACE CI HZ LGT ARND=
200905151400 METAR MRLM 151400Z 22002KT 9999 FEW020 BKN100 27/23 A2988 RMK TCU RN DST QUAD N HZ LGT ARND=
200905151500 METAR MRLM 151500Z 03003KT 9999 SCT030 SCT090 28/23 A2989 RMK RN DST NE E HZ LGT ARND=
200905151600 METAR MRLM 151600Z 00000KT 9999 SCT025 BKN100 28/23 A2985 RMK HZY=
200905151700 METAR MRLM 151700Z 04003KT 9999 SCT030 SCT100 29/24 A2986 RMK CB NE/E HZY=
200905151800 METAR MRLM 151800Z 07006KT 9999 SCT030 SCT100 30/24 A2984 RMK CB TCU N HZY=
200905151900 METAR MRLM 151900Z 06005KT 9999 FEW025 SCT100 29/24 A2982 RMK CB DST N NE E TCU DST S FEW270 HZ LGT AROUND=
200905152000 METAR MRLM 152000Z 02005KT 9999 FEW025 SCT110 28/24 A2980 RMK SCT270 TCU DST S HZ ARND=
200905152100 METAR MRLM 152100Z 05007KT 9999 FEW025 SCT270 29/24 A2978 TCU S FEW110 HZY=
200905152200 METAR MRLM NIL=
200905152300 METAR MRLM 152300Z 07004KT 9999 BKN020 SCT110 28/24 A2979 TCU S SW HZY=
200905160000 METAR MRLM NIL=
200905160100 METAR MRLM NIL=
200905160200 METAR MRLM NIL=
200905160300 METAR MRLM NIL=
200905160400 METAR MRLM NIL=
200905160500 METAR MRLM NIL=
200905160600 METAR MRLM NIL=
200905160700 METAR MRLM NIL=
200905160800 METAR MRLM NIL=
200905160900 METAR MRLM NIL=
200905161000 METAR MRLM NIL=
200905161100 METAR MRLM NIL=
200905161200 METAR MRLM 161200Z NIL=
200905161300 METAR MRLM 161300Z 25006KT 5000 +DZ HZ BKN025 24/23 A2985 FEW090=
200905161400 METAR MRLM 161400Z 26003KT 9999 -DZ FEW015 BKN080 24/23 A2986 CB/RN N=
200905161500 METAR MRLM 161500Z 27004KT 9999 FEW015 BKN090 26/23 A2988 REDZ CB RN N E HZY=
200905161600 METAR MRLM 161600Z 28006KT 9999 SCT015 BKN090 26/23 A2986 CB RN W NW N NE HZY=
200905161700 METAR MRLM 161700Z 28007KT 9999 FEW018 BKN080 27/23 A2987 CB RN N=
200905161800 METAR MRLM 161800Z 29007KT 9999 FEW028 BKN100 29/23 A2984 CB ARND RN NW=
200905161900 METAR MRLM 161900Z 29005KT 9999 FEW030 BKN110 29/23 A2982 CB HZ ARND=
200905162000 METAR MRLM 162000Z 02004KT 9999 FEW045 BKN120 31/22 A2980 RN SW HZY=
200905162100 METAR MRLM 162100Z 34005KT 9999 FEW040 SCT070 29/22 A2978 RMK SCT090 CB RN S SW=
200905162200 METAR MRLM 162200Z 35003KT CAVOK 29/22 A2978 RMK TRACE SC BKN090 SCT110 HZ ARND=
200905162300 METAR MRLM 162300Z 03003KT CAVOK 28/23 A2980 RMK TRACE SC CI SCT070 SCT090 HZ ARND=
200905170000 METAR MRLM 170000Z 00000KT CAVOK 27/24 A2980 RMK SCT090 FEW280 RMK HZ ARND=
200905170100 METAR MRLM NIL=
200905170200 METAR MRLM NIL=
200905170300 METAR MRLM NIL=
200905170400 METAR MRLM NIL=
200905170500 METAR MRLM NIL=
200905170600 METAR MRLM NIL=
200905170700 METAR MRLM NIL=
200905170800 METAR MRLM NIL=
200905170900 METAR MRLM NIL=
200905171000 METAR MRLM NIL=
200905171100 METAR MRLM NIL=
200905171200 METAR MRLM 171200Z NIL=
200905171300 METAR MRLM 171300Z 25002KT CAVOK 23/22 A2982 RMK SCT090 SCT270 CB RN NW N NE E HZ LEVE ARND=
200905171400 METAR MRLM 171400Z 26002KT 9999 FEW015 BKN090 25/22 A2986 RMK FEW270 CB RN DST NW N NE E=
200905171500 METAR MRLM 171500Z 33007KT 9999 SCT015 SCT080 27/24 A2986 RMK CB RN NW N NE E HZ ARND=
200905171600 METAR MRLM 171600Z 28003KT 9999 FEW020 BKN090 27/24 A2985 RMK CB RN DST NW N NE E TRACE CI HZ LEVE ARND=
200905171700 METAR MRLM 171700Z 34005KT 9999 FEW020 BKN090 29/23 A2983 RMK CB RN NW N NE HZ ARND=
200905171800 METAR MRLM 171800Z 33011KT 9999 FEW025 BKN090 28/23 A2981 RMK TRACE CI CB RN N NE E HZ LEVE ARND=
200905171900 METAR MRLM 171900Z 35012KT 9999 SCT025 BKN090 28/24 A2979 RMK CB DST ARND RN N HZ LEVE ARND TRACE CI=
200905172000 METAR MRLM 172000Z 34008KT 9999 FEW025 BKN090 28/24 A2977 RMK CB SE S DZ DST NW TRACE CI=
200905172100 METAR MRLM 172100Z 31005KT 9999 FEW030 BKN140 29/23 A2996 RMK FEW090 CB RN DST S SW W=
200905172200 METAR MRLM 172200Z 29003KT CAVOK 29/23 A2976 RMK TRACE ST CI BKN110 CB RN DST S SW=
200905172300 METAR MRLM 172300Z 00000KT CAVOK 28/23 A2978 RMK TRACE SC FEW300 CB RN DST SE S SW=
200905180000 METAR MRLM 180000Z 22002KT CAVOK 27/24 A2978 RMK TRACE SC BKN120 FEW300 CB RN DST SE S=
200905180100 METAR MRLM NIL=
200905180200 METAR MRLM NIL=
200905180300 METAR MRLM NIL=
200905180400 METAR MRLM NIL=
200905180500 METAR MRLM NIL=
200905180600 METAR MRLM NIL=
200905180700 METAR MRLM NIL=
200905180800 METAR MRLM NIL=
200905180900 METAR MRLM NIL=
200905181000 METAR MRLM NIL=
200905181100 METAR MRLM NIL=
200905181200 METAR MRLM 181200Z 22004KT 9999 SCT035 BKN080 24/22 A2981 HZY=
200905181300 METAR MRLM 181300Z 23003KT CAVOK 25/22 A2982 RMK TRACE SC SCT070 BKN090 HZ ARND=
200905181400 METAR MRLM 181400Z 23002KT CAVOK 27/23 A2982 RMK TRACE SC BKN090 HZ LGT ARND=
200905181500 METAR MRLM 181500Z 01005KT CAVOK 29/24 A2983 RMK TRACE SC FEW280 TCU DST S HZ ARND LGT=
200905181600 METAR MRLM 181600Z 02005KT 9999 FEW030 30/24 A2982 RMK FEW300 HZ ARND LGT=
200905181700 METAR MRLM 181700Z 02007KT 9999 FEW025 30/24 A2983 RMK TRACE AC HZ ARND FEW300=
200905181800 METAR MRLM 181800Z 02007KT 9999 FEW025 30/24 A2980 RMK FEW300 TCU DST SW W TRACE AS HZ ARND LGT=
200905181900 METAR MRLM 181900Z 01005KT 9999 FEW030 SCT090 30/24 A2975 RMK HZ ARND=
200905182000 METAR MRLM 182000Z 36006KT 9999 FEW035 31/24 A2976 RMK FEW090 FEW300 CB DST S SW W=
200905182100 METAR MRLM 182100Z 29006KT 9999 FEW030 30/24 A2974 RMK RN DST SW TCU S TRACE=
200905182200 METAR MRLM 182200Z 02006KT 9999 FEW025 30/24 A2974 RMK FEW090 FEW300 CBS RN DST S SW=
200905182300 METAR MRLM 182300Z 02005KT 9999 FEW025 SCT090 29/24 A2975 RMK FEW300 RN DST SE S SW W=
200905190000 METAR MRLM 190000Z 03003KT 9999 SCT025 SCT090 28/24 A2978 RMK CB RN DST SE S SW W=
200905190100 METAR MRLM NIL=
200905190200 METAR MRLM NIL=
200905190300 METAR MRLM NIL=
200905190400 METAR MRLM NIL=
200905190500 METAR MRLM NIL=
200905190600 METAR MRLM NIL=
200905190700 METAR MRLM NIL=
200905190800 METAR MRLM NIL=
200905190900 METAR MRLM NIL=
200905191000 METAR MRLM NIL=
200905191100 METAR MRLM NIL=
200905191200 METAR MRLM 191200Z 06004KT 9999 BKN015 26/23 A2984 RMK FEW090 RN NW NE SE HZ ARND=
200905191300 METAR MRLM 191300Z 19004KT 9999 BKN015 SCT100 25/24 A2984 RMK HZ ARND=
200905191400 METAR MRLM 191400Z 00000KT 9999 FEW020 SCT100 28/24 A2984 FEW270 HZ ARND=
200905191500 METAR MRLM 191500Z 08005KT 9999 FEW025 BKN270 29/24 A2984 RMK FEW110 HZ SE=
200905191600 METAR MRLM 191600Z 07005KT 9999 FEW030 BKN270 30/24 A2983 RMK FEW120 HZ SE=
200905191700 METAR MRLM 191700Z 03006KT 9999 FEW030 BKN280 30/24 A2983 RMK HZ SE=
200905191800 METAR MRLM 191800Z 03008KT 9999 FEW030 BKN280 30/24 A2981 RMK TRACE AC TCU DST SW LGT HZ SE=
200905191900 METAR MRLM 191900Z 02006KT 9999 SCT025TCU SCT270 29/23 A2978 TRACE AC RN DST S SW=
200905192000 METAR MRLM 192000Z 03004KT 9999 FEW030 SCT270 30/24 A2976 RMK CB DIST SE S SW W NW=
200905192100 METAR MRLM 192100Z 03003KT 9999 FEW030 SCT270 29/24 A2976 RMK CB DST S SW W FEW110=
200905192200 METAR MRLM 192200Z 07004KT 9999 FEW025 SCT110 29/24 A2976 RMK SCT270 HZ ARN D=
200905192300 METAR MRLM 192300Z 16003KT 9999 FEW020 BKN110 28/24 A2979 RMK FEW270 RN DST SW HZ ARND=
200905200000 METAR MRLM 200000Z 14003KT 9999 FEW020 BKN100 28/24 A2980 RMK CB RN DST QUAD S FEW270 HZ ARND=
200905200100 METAR MRLM NIL=
200905200200 METAR MRLM NIL=
200905200300 METAR MRLM NIL=
200905200400 METAR MRLM NIL=
200905200500 METAR MRLM NIL=
200905200600 METAR MRLM NIL=
200905200700 METAR MRLM NIL=
200905200800 METAR MRLM NIL=
200905200900 METAR MRLM NIL=
200905201000 METAR MRLM NIL=
200905201100 METAR MRLM NIL=
200905201200 METAR MRLM 201200Z NIL=
200905201300 METAR MRLM 201300Z 19002KT CAVOK 28/23 A2986 RMK TRACE SC CU SCT140 SCT300 HZ ARND=
200905201400 METAR MRLM 201400Z 27002KT CAVOK 29/23 A2986 RMK TRACE SC FEW140 BKN300 CB DST N HZ ARND=
200905201500 METAR MRLM 201500Z 02005KT 9999 FEW035 BKN100 30/23 A2987 RMK FEW280 HZ ARN D=
200905201600 METAR MRLM 201600Z 02008KT 9999 FEW035 BKN100 30/23 A2986 RMK TCU DST N S HZ LEVE ARND=
200905201700 METAR MRLM 201700Z 02006KT 9999 FEW035 BKN110 30/23 A2986 RMK TRACE CI CB DST N RN DST SW HZ ARND=
200905201800 METAR MRLM 201800Z 04005KT 9999 FEW035 SCT120 30/24 A2984 RMK SCT280 CB DST NW E HZ ARND=
200905201900 METAR MRLM 201900Z 02005KT 9999 FEW035 SCT090 BKN280 31/24 A2982 RMK CB SE S HZ LGT ARND=
200905202000 METAR MRLM 202000Z 01005KT 9999 FEW035 BKN280 31/24 A2980 RM TRACE AC CB DST S SE W RN DST W=
200905202100 METAR MRLM 202100Z 03005KT 9999 FEW035 BKN280 30/24 A2978 CB SW W RN W HZY=
200905202200 METAR MRLM 202200Z 06005KT 9999 SCT030 SCT280 30/24 A2978 FEW120 CB S W RN W=
200905202300 METAR MRLM 202300Z 08005KT 9999 BKN025 29/24 A2978 FEW280 CB RN S W=
200905210000 METAR MRLM 210000Z 33003KT 9999 SCT025 SCT090 28/24 A2980 FEW270 CB DST S W RN W=
200905210100 METAR MRLM NIL=
200905210200 METAR MRLM NIL=
200905210300 METAR MRLM NIL=
200905210400 METAR MRLM NIL=
200905210500 METAR MRLM NIL=
200905210600 METAR MRLM NIL=
200905210700 METAR MRLM NIL=
200905210800 METAR MRLM NIL=
200905210900 METAR MRLM NIL=
200905211000 METAR MRLM NIL=
200905211100 METAR MRLM NIL=
200905211200 METAR MRLM NIL=
200905211300 METAR MRLM 211300Z 23004KT CAVOK 25/23 A2986 TRACE SCT BKN070 FEW090 CB RN N=
200905211400 METAR MRLM 211400Z NIL 22003KT 9999 FEW015 BKN070 28/24 A2988 FEW090 RN NE=
200905211500 METAR MRLM 211500Z 04003KT 9999 SCT025 SCT070 29/24 A2989 RN NE HZY=
200905211600 METAR MRLM 211600Z 27003KT 9999 FEW030 BKN080 29/23 A2988 RN E HZY=
200905211700 METAR MRLM 211700Z 04006KT 9999 FEW025 BKN090 29/24 A2987 DZ E HZY=
200905211800 METAR MRLM 211800Z 05003KT 9999 FEW035 BKN080 30/23 A2984 HZY=
200905211900 METAR MRLM 211900Z 04008KT 9999 FEW035 BKN090 30/23 A2981 HZY=
200905212000 METAR MRLM 212000Z 03006KT 9999 FEW035 BKN300 31/24 A2978 FEW100 HZY=
200905212100 METAR MRLM 212100Z 04007KT 9999 FEW035 BKN300 30/24 A2977 RMK CB S TRACE AC HZ ARND=
200905212200 METAR MRLM 212200Z 08004KT 9999 FEW035 BKN300 30/23 A2977 RMK CB S FEW150 HZ ARND=
200905212300 METAR MRLM 212300Z 04004KT CAVOK 29/24 A2978 RMK TRACE SC BKN140 SCT280 CB SE S SW W HZ ARND=
200905220000 METAR MRLM 220000Z 20002KT CAVOK 27/24 A2980 RMK SCT130 SCT250 FEW280 RN DST SE S SW W=
200905220100 METAR MRLM NIL=
200905220200 METAR MRLM NIL=
200905220300 METAR MRLM NIL=
200905220400 METAR MRLM NIL=
200905220500 METAR MRLM NIL=
200905220600 METAR MRLM NIL=
200905220700 METAR MRLM NIL=
200905220800 METAR MRLM NIL=
200905220900 METAR MRLM NIL=
200905221000 METAR MRLM NIL=
200905221100 METAR MRLM NIL=
200905221200 METAR MRLM 221200Z NIL=
200905221300 METAR MRLM 221300Z 18005KT 7000 TSDZ FEW007 SCT010 24/23 A2984 RERA FEW080 VIS NW N NE UNL=
200905221400 METAR MRLM 221400Z 21003KT 9999 BKN010 25/24 A2987 RETS DZ FEW090 CB RN NE HZ ARND=
200905221500 METAR MRLM 221500Z 21003KT 9999 DZ BKN015 27/24 A2986 RMK FEW090 CB TS N NE HZ ARND=
200905221600 METAR MRLM 221600Z 09005KT 9999 FEW015TCU FEW030 SCT100 30/25 A2985 REDZ RMK CB RN S NE E HZ ARND=
200905221700 METAR MRLM 221700Z 08005KT 9999 FEW015TCU SCT030 SCT100 30/25 A2984 RMK RN W NE HZ ARND=
200905221800 METAR MRLM 221800Z 06007KT 9999 SCT025 BKN100 30/25 A2983 RMK CB RN SW S HZ ARND=
200905221900 METAR MRLM 221900Z 08009KT 9999 SCT030 BKN100 30/24 A2982 RMK CB RN S SW W NE E HZ LEVE SE=
200905222000 METAR MRLM 222000Z 08008KT 9999 FEW030 SCT090 29/24 A2980 RMK SCT100 CB RN SW W NE E HZ SE=
200905222100 METAR MRLM 222100Z 10007KT 9999 FEW030 SCT090 29/23 A2977 RMK SCT100 RN DST SE HZ LGT ARND=
200905222200 METAR MRLM 222200Z 14004KT 9999 FEW025 BKN090 28/23 A2978 RMK FEW100 TRACE CI RN DST SE=
200905222300 METAR MRLM 222300Z 00000KT 9999 FEW020 SCT090 28/24 A2980 RMK SCT100 TCU DST NW RN DST E SE HZ LGT ARND=
200905230000 METAR MRLM 230000Z 19002KT CAVOK 27/24 A2981 RMK BKN090 TRACE CI TCU DST W NW RN DST SE HZ ARND=
200905230100 METAR MRLM NIL=
200905230200 METAR MRLM NIL=
200905230300 METAR MRLM NIL=
200905230400 METAR MRLM NIL=
200905230500 METAR MRLM NIL=
200905230600 METAR MRLM NIL=
200905230700 METAR MRLM NIL=
200905230800 METAR MRLM NIL=
200905230900 METAR MRLM NIL=
200905231000 METAR MRLM NIL=
200905231100 METAR MRLM NIL=
200905231200 METAR MRLM 231200Z NIL=
200905231300 METAR MRLM 231300Z 23004KT 9999 TS FEW010 FEW015CB BKN100 25/23 A2989 RMK RN DST N NE HZ ARND=
200905231400 METAR MRLM 231400Z 25003KT 9999 FEW020 BKN100 28/24 A2989 RETS RMK TRACE CI HZ ARND=
200905231500 METAR MRLM 231500Z 14002KT 9999 SCT025TCU FEW110 30/24 A2990 RMK RN DST NE HZ LGT ARND=
200905231600 METAR MRLM 231600Z 02006KT 9999 FEW025TCU FEW030 SCT110 30/25 A2989 RMK FEW270 HZ LGT ARND=
200905231700 METAR MRLM 231700Z 05006KT 9999 FEW030 SCT110 30/25 A2988 RMK TCU DST S SW W SCT270 HZ LGT ARND=
200905231800 METAR MRLM 231800Z 04004KT 9999 FEW030 SCT270 31/25 A2986 RMK CB DST W NW FEW112 HZ ARND=
200905231900 METAR MRLM 231900Z 02006KT 9999 FEW030 SCT270 31/25 A2984 RMK TRACE AC AS HZ LGT ARND=
200905232000 METAR MRLM 232000Z 03007KT 9999 FEW030 BKN270 31/25 A2982 RMK CB DST SW TRACE AC AS HZ LGT ARND=
200905232100 METAR MRLM 232100Z 03004KT 9999 SCT025 SCT270 30/25 A2981 RMK CB DST S SE TRACE AS HZY=
200905232200 METAR MRLM 232200Z 04005KT 9999 BKN025 SCT260 29/24 A2981 RMK TRACE AC AS RN DST SW HZ ARND=
200905232300 METAR MRLM 232300Z 02003KT 9999 BKN020 29/25 A2983 RMK TRACE AC FEW260 RN DST SW DZ DST NE HZY=
200905240000 METAR MRLM 240000Z 14007KT 6000 -TSRA BKN010 SCT025 26/24 A2985=
200905240100 METAR MRLM NIL=
200905240200 METAR MRLM NIL=
200905240300 METAR MRLM NIL=
200905240400 METAR MRLM NIL=
200905240500 METAR MRLM NIL=
200905240600 METAR MRLM NIL=
200905240700 METAR MRLM NIL=
200905240800 METAR MRLM NIL=
200905240900 METAR MRLM NIL=
200905241000 METAR MRLM NIL=
200905241100 METAR MRLM NIL=
200905241200 METAR MRLM 241200Z 23005KT 9999 SCT010 SCT100 23/22 A2989 RMK CB N E RN W NW N TRACE CI HZ ARND=
200905241300 METAR MRLM 241300Z 23004KT 9999 SCT010 SCT100 23/22 A2990 RMK FEW270 RN DST NW N CB DST NE HZY=
200905241400 METAR MRLM 241400Z 24004KT 9999 FEW015 SCT260 25/23 A2990 RMK FEW110 RN DST NW HZ SE=
200905241500 METAR MRLM NIL=
200905241600 METAR MRLM 241600Z 02003KT 9999 FEW035 SCT260 31/24 A2991 RMK FEW120 HZ SE=
200905241700 METAR MRLM 241700Z 12006KT 9999 FEW030 SCT260 31/24 A2991 RMK FEW120 HZ LGT SE=
200905241800 METAR MRLM 241800Z 01007KT 9999 FEW030 BKN270 31/24 A2988 RMK CB DST S QD FEW120 HZ SE=
200905241900 METAR MRLM 241900Z 03007KT 9999 FEW030 BKN270 31/25 A2985 RMK CB DST S TRACE AC AS HZ SE=
200905242000 METAR MRLM 242000Z 06006KT 9999 FEW035 BKN270 31/25 A2983 RMK CB RN DST QUAD S TRACE AC AS=
200905242100 METAR MRLM 242100Z 14005KT 9999 FEW030 BKN280 31/24 A2982 RMK CB RN DST SW S FEW120 HZ LGT SE=
200905242200 METAR MRLM 242200Z 04005KT 9999 FEW030 BKN270 31/24 A2981 RMK CB RM DST S SW W FEW120 HZ LGT ARND=
200905242300 METAR MRLM 242300Z 07005KT 9999 SCT025 SCT260 29/24 A2983 RMK TCU DST NE FEW110 HZ LGT ARND=
200905250000 METAR MRLM 250000Z 08005KT 9999 SCT025 SCT260 29/24 A2984 RMK TRACE AC AS HZ ARND=
200905250100 METAR MRLM NIL=
200905250200 METAR MRLM NIL=
200905250300 METAR MRLM NIL=
200905250400 METAR MRLM NIL=
200905250500 METAR MRLM NIL=
200905250600 METAR MRLM NIL=
200905250700 METAR MRLM NIL=
200905250800 METAR MRLM NIL=
200905250900 METAR MRLM NIL=
200905251000 METAR MRLM NIL=
200905251100 METAR MRLM NIL=
200905251200 METAR MRLM NIL=
200905251300 METAR MRLM 251300Z 22004KT CAVOK 26/24 A2987 RMK TRACE CU AC OVC280 HZ LEVE ARND=
200905251400 METAR MRLM 251400Z 25002KT CAVOK 30/25 A2988 RMK TRACE CU AC OVC280 CB DST E HZ LEVE ARND=
200905251500 METAR MRLM 251500Z 03005KT 9999 FEW025 BKN280 30/25 A2988 RMK FEW140 CB DST NW HZ LEVE ARND=
200905251600 METAR MRLM 251600Z 03005KT 9999 FEW030 SCT280 31/25 A2988 RMK CB DST NW FEW150 HZ LEVE ARND=
200905251700 METAR MRLM 251700Z 05007KT 9999 FEW030 SCT300 30/25 A2987 RMK FEW150 CB DST W NW N HZ LGT ARND=
200905251800 METAR MRLM 251800Z 07008KT 9999 FEW030 SCT280 31/25 A2984 RMK TRACE AC CB DST S SW W HZ LEVE ARND=
200905251900 METAR MRLM 251900Z 08008KT 9999 FEW030 SCT280 31/25 A2982 RMK CB DST S SW W HZ LGT ARND=
200905252000 METAR MRLM 252000Z 07008KT 9999 SCT025 SCT280 31/25 A2980 RMK CB DST S SE W RN DST SW W=
200905252100 METAR MRLM 252100Z 06007KT 9999 SCT030 SCT280 31/25 A2977 CB RN S W=
200905252200 METAR MRLM 252200Z 07006KT 9999 BKN025 SCT270 30/25 A2977 CB S W N RN W=
200905252300 METAR MRLM 252300Z 05004KT 9999 BKN025 30/25 A2978 CB RN S W=
200905260000 METAR MRLM 260000Z 05006KT 9999 BKN025 29/25 A2977 CB RN S W FEW140=
200905260100 METAR MRLM NIL=
200905260200 METAR MRLM NIL=
200905260300 METAR MRLM NIL=
200905260400 METAR MRLM NIL=
200905260500 METAR MRLM NIL=
200905260600 METAR MRLM NIL=
200905260700 METAR MRLM NIL=
200905260800 METAR MRLM NIL=
200905260900 METAR MRLM NIL=
200905261000 METAR MRLM NIL=
200905261100 METAR MRLM NIL=
200905261200 METAR MRLM NIL=
200905261300 METAR MRLM 261300Z 23003KT CAVOK 26/24 A2983 SCT140 BKN280 CB NW N HZY=
200905261400 METAR MRLM 261400Z 01003KT CAVOK 29/25 A2985 TRAZAS SCT OVC280 HZY=
200905261500 METAR MRLM 261500Z 03005KT 9999 FEW025 BKN280 30/25 A2984 HZY=
200905261600 METAR MRLM 261600Z 03008KT 9999 FEW025 BKN280 31/25 A2984 HZY=
200905261700 METAR MRLM 261700Z 09007KT 9999 FEW030 BKN280 31/25 A2985 HZY=
200905261800 METAR MRLM 261800Z 02008KT 9999 SCT030 BKN280 31/25 A2984 CB S SW W HZY=
200905261900 METAR MRLM 261900Z 05008KT 9999 BKN030 31/25 A2982 CB SW W NE E TS/RN SW=
200905262000 METAR MRLM 262000Z 07006KT 9999 SCT025 SCT070 30/24 A2979 FEW140 CB ARND RN S SW W=
200905262100 METAR MRLM 262100Z 09002KT 9999 SCT025 SCT140 29/24 A2978 RMK FEW270 CB DST ARND RN S W=
200905262200 METAR MRLM 262200Z 19002KT 9999 FEW025 SCT130 30/25 A2977 RMK CB RN S W FEW 130 SCT270=
200905262300 METAR MRLM 262300Z 00000KT CAVOK 29/25 A2979 RMK TRACE CU BKN130 FEW150 FEW 270 CB RN DST S W=
200905270000 METAR MRLM 270000Z 06004KT CAVOK 29/24 A2981 RMK TRACE SC FEW090 BKN120 FEW 150 CB NE RN SW=
200905270100 METAR MRLM NIL=
200905270200 METAR MRLM NIL=
200905270300 METAR MRLM NIL=
200905270400 METAR MRLM NIL=
200905270500 METAR MRLM NIL=
200905270600 METAR MRLM NIL=
200905270700 METAR MRLM NIL=
200905270800 METAR MRLM NIL=
200905270900 METAR MRLM NIL=
200905271000 METAR MRLM NIL=
200905271100 METAR MRLM NIL=
200905271200 METAR MRLM 271200Z NIL=
200905271300 METAR MRLM 271300Z 21003KT CAVOK 26/24 A2983 RMK BKN140 SCT270 HZ ARND CB DST E SE=
200905271400 METAR MRLM 271400Z 20003KT CAVOK 30/24 A2983 RMK SCT140 SCT270 HZ LEVE ARND=
200905271500 METAR MRLM 271500Z 06005KT 9999 FEW030 SCT140 30/24 A2983 RMK SCT280 HZ ARN D=
200905271600 METAR MRLM 271600Z 07009KT 9999 FW030 SCT140 31/24 A2983 RMK TRACE CI CB DST NE HZ=
200905271700 METAR MRLM NIL=
200905271800 METAR MRLM 271800Z 06008KT 9999 FEW035 BKN140 31/25 A2981 RMK CB DST NE E S SW W TRACE CI HZ LEVE ARND=
200905271900 METAR MRLM 271900Z 07009KT 9999 SCT030 31/25 A2979 RMK FEW140 FEW270 CB DST ARND RN SW=
200905272000 METAR MRLM 272000Z 09008KT 9999 BKN025 30/25 A2978 RMK CB DST ARND RN S SW FEW140 FEW270=
200905272100 METAR MRLM 272100Z 06005KT 9999 FEW030 BKN140 31/25 A2983 RMK CB DST NE E S TCU SW=
200905272200 METAR MRLM 272200Z 11005KT 9999 FEW025 SCT140 29/25 A2976 RMK FEW110 FEW270 RN DST SW S W=
200905272300 METAR MRLM 272300Z 19003KT CAVOK 28/25 A2979 RMK TRACE SC BKN100 FEW150 CB DST ARND RN DST SW W N NE=
200905280000 METAR MRLM 280000Z 24002KT CAVOK 28/25 A2979 RMK BKN100 SCT140 CB RN DST W=
200905280100 METAR MRLM NIL=
200905280200 METAR MRLM NIL=
200905280300 METAR MRLM NIL=
200905280400 METAR MRLM NIL=
200905280500 METAR MRLM NIL=
200905280600 METAR MRLM NIL=
200905280700 METAR MRLM NIL=
200905280800 METAR MRLM NIL=
200905280900 METAR MRLM NIL=
200905281000 METAR MRLM NIL=
200905281100 METAR MRLM NIL=
200905281200 METAR MRLM 281200Z NIL=
200905281300 METAR MRLM 281300Z 00000KT CAVOK 27/23 A2985 RMK FEW140 BKN280 CB RN DST N HZ LGT ARND=
200905281400 METAR MRLM 281400Z 00000KT CAVOK 30/24 A2986 RMK TRACE CU OVC280 HZ LGT ARND=
200905281500 METAR MRLM 281500Z 06002KT CAVOK 30/24 A2986 RMK TRACE CU OVC280 HZ LGT ARND=
200905281600 METAR MRLM 281600Z 32006KT 9999 FEW040 BKN280 32/24 A2987 RMK HZ LGT ARND=
200905281700 METAR MRLM 281700Z 31009KT 9999 FEW030 BKN280 31/24 A2987 RMK TCU DST SW W NE HZ ARND=
200905281800 METAR MRLM 281800Z 36011KT 9999 SCT030 SCT300 32/26 A2986 RMK CB DST SE S SW W N RN DST S SW W N HZARND LGT TRACE AC=
200905281900 METAR MRLM 281900Z 33013KT 9999 BKN025 31/26 A2984 RMK CB RN DST S SW W N NE TRACE AC FEW270=
200905282000 METAR MRLM 282000Z 36010KT 9999 SCT025 SCT280 30/25 A2981 RMK CB RN DST S SW W HZ ARND=
200905282100 METAR MRLM 282100Z 34007KT 9999 4000S VCSH BKN025 29/25 A2981 RMK RN S W QDS FEW270=
200905282200 METAR MRLM 282200Z 23007KT 9999 FEW015 SCT090 26/23 A2981 RMK SCT270 CBS RN DST S W QUAD=
200905282300 METAR MRLM NIL=
200905290000 METAR MRLM NIL=
200905290100 METAR MRLM NIL=
200905290200 METAR MRLM NIL=
200905290300 METAR MRLM NIL=
200905290400 METAR MRLM NIL=
200905290500 METAR MRLM NIL=
200905290600 METAR MRLM NIL=
200905290700 METAR MRLM NIL=
200905290800 METAR MRLM NIL=
200905290900 METAR MRLM NIL=
200905291000 METAR MRLM NIL=
200905291100 METAR MRLM NIL=
200905291200 METAR MRLM NIL=
200905291300 METAR MRLM 291300Z 22004KT CAVOK 25/23 A2989 RMK TRACE AC OVC280 LGT HZ ARND=
200905291400 METAR MRLM 291400Z 26002KT CAVOK 29/23 A2988 RMK TRACE AC OVC280 CB DST N LGT HZ ARND=
200905291500 METAR MRLM NIL=
200905291700 METAR MRLM 291700Z 06005KT 9999 FEW035 SCT280 31/24 A2990 RMK FEW140 CB DST NE LGT HZ ARND=
200905291800 METAR MRLM 291800Z 01007KT 9999 FEW030 SCT140 31/25 A2988 RMK FEW270 CBS DST NW TCU DST S SW HZY=
200905291900 METAR MRLM 291900Z 02008KT 9999 BKN030 31/25 A2987 RMK FEW280 CB DST S SW TCU RN DST SW=
200905292000 METAR MRLM 292000Z 02006KT 9999 FEW030 BKN280 31/25 A2983 CBS DST S W TRACE AC=
200905292100 METAR MRLM 292100Z 03005KT 9999 SCT035 SCT280 31/25 A2983 RMK TRACE AC RN DST SW W CB DST QUAD S W=
200905292200 METAR MRLM NIL=
200905292300 METAR MRLM 292300Z 14002KT 070V140 9999 FEW025 BKN280 29/24 A2984 RMK TRACE AC CB DST QUAD S W RN DST SW W=
200905300000 METAR MRLM 300000Z 15003KT CAVOK 29/24 A2985 RMK TRACE CU SCT150 SCT280 CB RN DST SW W HZ ARND=
200905300100 METAR MRLM NIL=
200905300200 METAR MRLM NIL=
200905300300 METAR MRLM NIL=
200905300400 METAR MRLM NIL=
200905300500 METAR MRLM NIL=
200905300600 METAR MRLM NIL=
200905300700 METAR MRLM NIL=
200905300800 METAR MRLM NIL=
200905300900 METAR MRLM NIL=
200905301000 METAR MRLM NIL=
200905301100 METAR MRLM NIL=
200905301200 METAR MRLM 301200Z 21005KT CAVOK 24/22 A2987 RMK TRACE CU BKN110 FEW270 CB DST N NE HZ LGT ARND=
200905301300 METAR MRLM 301300Z 00000KT 9999 FEW015 BKN110 26/23 A2990 RMK FEW270 HZ LEVE ARND=
200905301400 METAR MRLM 301400Z 21003KT 9999 FEW020 BKN110 27/24 A2991 RMK TRACE CI HZ LGT ARND=
200905301500 METAR MRLM 301500Z 00000KT 9999 FEW030 BKN110 30/24 A2992 RMK HZ LGT ARND=
200905301600 METAR MRLM 301600Z 06003KT 9999 SCT030 SCT100 30/24 A2990 RMK FEW270 HZ LGT ARND=
200905301700 METAR MRLM 301700Z 04005KT 9999 SCT030 SCT100 31/25 A2988 RMK FEW260 HZ LEVE ARND=
200905301800 METAR MRLM 301800Z 02006KT 9999 FEW030 BKN260 31/25 A2985 RMK FEW110 CB TCU DST SW S HZ ARND=
200905301900 METAR MRLM 301900Z 05006KT 9999 FEW025 BKN260 31/25 A2983 RMK CB TCU SW S TRACE AC AS HZ LGT ARND=
200905302000 METAR MRLM 302000Z 03006KT 9999 FEW025 BKN260 31/25 A2982 RMK CB DST SE FEW100 HZ LGTA ARND=
200905302100 METAR MRLM 302100Z 05005KT 9999 FEW030 BKN270 30/24 A2980 CB SW S HZY=
200905302200 METAR MRLM 302200Z 06005KT 9999 SCT030 BKN270 30/23 A2980 CB S W HZY=
200905302300 METAR MRLM 302300Z 08003KT 9999 FEW030 BKN260 29/24 A2982 CB SW S W FEW100 HZY=
200905310000 METAR MRLM 310000Z 06004KT CAVOK 29/24 A2984 CB W BKN100 SCT260 HZY=
200905310100 METAR MRLM NIL=
200905310200 METAR MRLM NIL=
200905310300 METAR MRLM NIL=
200905310400 METAR MRLM NIL=
200905310500 METAR MRLM NIL=
200905310600 METAR MRLM NIL=
200905310700 METAR MRLM NIL=
200905310800 METAR MRLM NIL=
200905310900 METAR MRLM NIL=
200905311000 METAR MRLM NIL=
200905311100 METAR MRLM NIL=
200905311200 METAR MRLM 311200Z 21004KT 9999 SCT010 SCT270 24/22 A2987 RMK CB DST N QD FEW110 HZ ARND=
200905311300 METAR MRLM 311300Z 22003KT 9999 FEW010 SCT260 25/23 A2988 RMK CB DST N FEW110 HZY=
200905311400 METAR MRLM 311400Z 22002KT 9999 FEW015 SCT260 26/23 A2990 CB N SCT110 HZY=
200905311500 METAR MRLM 311500Z 00000KT 9999 SCT015 SCT100 27/24 A2991 CB RN N FEW260 HZY=
200905311600 METAR MRLM 311600Z 29004KT 9999 BKN020 SCT100 28/24 A2991 RN N HZY=
200905311700 METAR MRLM 311700Z 29004KT 9999 SCT020 SCT100 28/24 A2990 RN N NE HZY=
200905311800 METAR MRLM 311800Z 30003KT 9999 BKN020 28/24 A2988 RN SE FEW100 HZY=
200905311900 METAR MRLM 311900Z 03007KT 9999 BKN020 28/24 A2987 RN W FEW100 HZY=
200905312000 METAR MRLM 312000Z 04009KT 9999 -RA OVC020 28/24 A2984 HZY=
200905312100 METAR MRLM 312100Z 02005KT 9999 BKN015 27/23 A2983 RERA FEW090 HZ ARND=
200905312200 METAR MRLM 312200Z 00000KT 9999 +DZ BKN010 26/24 A2983 RMK RN S SW FEW090 HZ ARND=
200905312300 METAR MRLM 312300Z 18003KT 9999 -RA BKN010 SCT090 25/24 A2981 REDZ RMK HZ ARND=
200906010000 METAR MRLM 010000Z 18003KT 9999 SCT010 SCT090 25/24 A2983 RERA RMK RN W HZ ARND=
200906010100 METAR MRLM NIL=
200906010200 METAR MRLM NIL=
200906010300 METAR MRLM NIL=
200906010400 METAR MRLM NIL=
200906010500 METAR MRLM NIL=
200906010600 METAR MRLM NIL=
200906010700 METAR MRLM NIL=
200906010800 METAR MRLM NIL=
200906010900 METAR MRLM NIL=
200906011000 METAR MRLM NIL=
200906011100 METAR MRLM NIL=
200906011200 METAR MRLM NIL=
200906011300 METAR MRLM 011300Z 20004KT CAVOK 25/23 A2985 RMK BKN080 FEW140 CB DST NW HZ LEVE ARND=
200906011400 METAR MRLM 011400Z 00000KT 9999 FEW035 BKN130 29/23 A2987 RMK TRACE CI CB NW HZ LEVE ARND=
200906011500 METAR MRLM 011500Z 20003KT 9999 FEW025 BKN120 29/24 A2988 RMK FEW280 TCU NE HZ ARND=
200906011600 METAR MRLM 011600Z 19003KT 9999 FEW030 SCT090 29/23 A2988 RMK SCT140 SCT280 HZ ARND=
200906011700 METAR MRLM 011700Z 09005KT 9999 FEW025 BKN140 30/23 A2987 RMK FEW280 RN N HZ ARND=
200906011800 METAR MRLM 011800Z 06005KT 9999 FEW040 SCT140 31/23 A2985 RMK CB RN DST NW SCT280 HZ ARND=
200906011900 METAR MRLM 011900Z 03008KT 9999 FEW035 SCT140 31/24 A2983 RMK SCT270 CB DST W NW N RN NW N=
200906012000 METAR MRLM 012000Z 01007KT 9999 FWE030 BKN130 30/24 A2982 RMK CB SW NW N RN DST NW W FEW270=
200906012100 METAR MRLM 012100Z 02008KT 9999 FEW025 BKN270 30/25 A2980 RMK FEW140 CB DST ARND RN DST W N=
200906012200 METAR MRLM 012200Z 01013KT 9999 OVC025 29/25 A2981 RMK RN ARND=
200906012300 METAR MRLM 012300Z 02008KT 9999 SCT020 SCT270 28/24 A2981 RMK FEW130 CB RN HZ ARND=
200906020000 METAR MRLM 020000Z 04004KT 9999 -DZ BKN020 28/24 A2983 RMK CB RN HZ ARND TRACE AC FEW270=
200906020100 METAR MRLM NIL=
200906020200 METAR MRLM NIL=
200906020300 METAR MRLM NIL=
200906020400 METAR MRLM NIL=
200906020500 METAR MRLM NIL=
200906020600 METAR MRLM NIL=
200906020700 METAR MRLM NIL=
200906020800 METAR MRLM NIL=
200906020900 METAR MRLM NIL=
200906021000 METAR MRLM NIL=
200906021100 METAR MRLM NIL=
200906021200 METAR MRLM 021200Z MRPV 021200Z 11008KT 9999 SCT025 BKN250 21/18 A2994 DZ NW N NE E SE=
200906021300 METAR MRLM 021300Z 24003KT 9999 FEW020 BKN090 25/23 A2984 RMK TRACE CI CB RN N NE E HZ ARND=
200906021400 METAR MRLM 021400Z 33008KT 9999 DZ VCSH FEW005 BKN015 27/24 A2987 RMK FEW090 VIS NW N NE E 8000 HZ ARND=
200906021500 METAR MRLM 021500Z 31004KT 9999 DZ SCT015 SCT090 28/25 A2988 RMK RN W NW NE HZ ARND=
200906021600 METAR MRLM 021600Z 04003KT 040V240 9999 BKN025 30/25 A2986 REDZ RMK FEW080 RN NW N NE E HZ ARND=
200906021700 METAR MRLM 021700Z 02004KT 9999 SCT030TCU SCT080 30/24 A2985 RMK RN W N CB N HZ ARND=
200906021800 METAR MRLM 021800Z 04007KT 9999 BKN025 31/25 A2983 RMK TCU RN W CB RN NW N FEW100 TRACE CI HZ ARND=
200906021900 METAR MRLM 021900Z 06007KT 9999 BKN025TCU 31/25 A2981 RMK RN DST NW N TRACE CI FEW100 HZ ARND=
200906022000 METAR MRLM 022000Z 04011KT 9999 BKN020TCU 30/25 A2979 RERA RMK RN S W TRACE CI HZ ARND=
200906022100 METAR MRLM 022100Z 03009KT 9999 OVC025TCU 30/25 A2978 RN DST S SW W HZ ARND=
200906022200 METAR MRLM 022200Z 04009KT 9999 OVC025 30/25 A2979 RMK RN DST S SW W HZY=
200906022300 METAR MRLM 022300Z 04008KT 9999 BKN020 29/25 A2981 RMK FEW280 RN S W=
200906030000 METAR MRLM 030000Z 04007KT 9999 BKN020TCU 29/24 A2982 RMK RN DST S W CB DST S TRACE CI AC=
200906030100 METAR MRLM NIL=
200906030200 METAR MRLM NIL=
200906030300 METAR MRLM NIL=
200906030400 METAR MRLM NIL=
200906030500 METAR MRLM NIL=
200906030600 METAR MRLM NIL=
200906030700 METAR MRLM NIL=
200906030800 METAR MRLM NIL=
200906030900 METAR MRLM NIL=
200906031000 METAR MRLM NIL=
200906031100 METAR MRLM NIL=
200906031200 METAR MRLM NIL=
200906031300 METAR MRLM 031300Z 22004KT 9999 SCT015 SCT100 25/23 A2984 RMK RN DST W NW N HZ ARND=
200906031400 METAR MRLM 031400Z 17003KT 9999 FEW035 BKN090 27/22 A2978 RMK FEW250=
200906031402 METAR MRLM 031402Z COR 27003KT 9999 BKN015 SCT100 26/23 A2985 RMK CB RN DST N LGT HZ ARND=
200906031500 METAR MRLM 031500Z 33006KT 9999 BKN020 SCT100 28/23 A2985 RMK TCU DST SW CB RN DST N RN NE HZY=
200906031600 METAR MRLM 031600Z 29003KT 9999 SCT020 SCT090 28/24 A2984 RMK CB RN DST N HZY=
200906031700 METAR MRLM 031700Z NIL=
200906031800 METAR MRLM 031800Z 05011KT 8000 -DZ OVC015 25/23 A2987 RMK RN DST N HZY=
200906031900 METAR MRLM 031900Z 10006KT 3000 +RA OVC010 24/23 A2981=
200906032000 METAR MRLM 032000Z 25004KT 8000 +DZ BKN010 SCT090 24/23 A2979 CB RN DST N HZY=
200906032100 METAR MRLM 032100Z 26004KT 9999 BKN010 SCT100 25/24 A2977 REDZ RMK RN DST NE N HZ ARND=
200906032200 METAR MRLM 032200Z 25004KT 9999 -DZ BKN010 SCT100 26/24 A2976 RMK RN DST NE N HZ ARND=
200906032300 METAR MRLM 032300Z 26003KT 9999 SCT015 SCT090 26/24 A2977 REDZ RMK TCU DST N NE RN DST E HZ ARND=
200906040000 METAR MRLM 040000Z 21003KT 9999 BKN015 SCT090 26/24 A2977 RMK TCU RN DST NE E HZ ARND=
200906040100 METAR MRLM NIL=
200906040200 METAR MRLM NIL=
200906040300 METAR MRLM NIL=
200906040400 METAR MRLM NIL=
200906040500 METAR MRLM NIL=
200906040600 METAR MRLM NIL=
200906040700 METAR MRLM NIL=
200906040800 METAR MRLM NIL=
200906040900 METAR MRLM NIL=
200906041000 METAR MRLM NIL=
200906041100 METAR MRLM NIL=
200906041200 METAR MRLM 041200Z NIL=
200906041300 METAR MRLM 041300Z 00000KT 9999 DZ BKN010 25/23 A2984 RMK FEW090 RN DST E W NE HZ ARND=
200906041400 METAR MRLM 041400Z 00000KT 9999 BKN015 SCT100 26/24 A2984 REDZ RMK RN DST E HZ ARND=
200906041500 METAR MRLM 041500Z 00000KT 9999 FEW025 SCT100 30/24 A2983 RMK TCU DST NW N FEW260 HZ ARND=
200906041600 METAR MRLM 041600Z 34002KT 160V040 9999 SCT030 SCT100 30/23 A2983 RMK TCU DST NW N TRACE CI HZ ARND=
200906041700 METAR MRLM 041700Z 01006KT 9999 BKN030 SCT110 30/24 A2982 RMK CB DST W NW N HZ ARND=
200906041800 METAR MRLM 041800Z 36007KT 9999 SCT030 BKN110 31/25 A2981 RMK CB DST NW N TRACE CI HZ ARND=
200906041900 METAR MRLM 041900Z 34007KT 9999 FEW030 BKN110 31/25 A2979 RMK TCU DST SW HZ ARND=
200906042000 METAR MRLM 042000Z 35012KT 9999 FEW025 BKN110 30/26 A2977 RMK TCU DST S W FEW090 HZ ARND=
200906042100 METAR MRLM 042100Z 10008KT 9999 FEW035 OVC250 34/21 A2987=
200906042200 METAR MRLM 042200Z 32005KT 9999 SCT025 BKN120 29/25 A2977 RN E HZY=
200906042300 METAR MRLM 042300Z 30005KT 9999 SCT020 BKN110 29/24 A2977 RN E SE HZY=
200906050000 METAR MRLM 050000Z 00000KT 9999 FEW015 BKN110 28/25 A2979 RN NE E HZY=
200906050100 METAR MRLM NIL=
200906050200 METAR MRLM NIL=
200906050300 METAR MRLM NIL=
200906050400 METAR MRLM NIL=
200906050500 METAR MRLM NIL=
200906050600 METAR MRLM NIL=
200906050700 METAR MRLM NIL=
200906050800 METAR MRLM NIL=
200906050900 METAR MRLM NIL=
200906051000 METAR MRLM NIL=
200906051100 METAR MRLM NIL=
200906051200 METAR MRLM NIL=
200906051300 METAR MRLM 051300Z 22004KT 9999 DZ BKN015 25/23 A2986 FEW035 HZ/RN ARND CB N=
200906051400 METAR MRLM 051400Z 051400Z30011KT 9999 SCT025 SCT140 28/23 A2985 FEW280 CB/RN N=
200906051500 METAR MRLM 051500Z 27009KT 9999 BKN020 SCT080 29/25 A2986 DZ NW N NE E CB RN NW E=
200906051600 METAR MRLM 051600Z 29007KT 9999 +DZ SCT025 SCT090 29/24 A2986 HZY=
200906051700 METAR MRLM 051700Z 29004KT 9999 FEW025 BKN070 29/24 A2985 REDZ FEW280 HZY=
200906051800 METAR MRLM 051800Z 34010KT 9999 FEW030 BKN130 31/25 A2984 FEW280 CB N HZY=
200906051900 METAR MRLM 36012KT 9999 SCT020TCU SCT140 30/26 A2983 CB RN S W HZY=
200906052000 METAR MRLM 052000Z 01015KT 9999 DZ FEW005 OVC020 28/24 A2981 RN ARND=
200906052100 METAR MRLM NIL=
200906052200 METAR MRLM 052200Z 34007KT 4000 TSRA FEW005 SCT010CB SCT015 26/24 A2982 RMK TS S SW FEW090=
200906052300 METAR MRLM 052300Z 20003KT 5000 2000W RA SCT005 SCT010 25/24 A2986 RETS FEW 090=
200906060000 METAR MRLM 060000Z 18005KT 8000 RA FEW006 SCT010 BKN090 24/22 A2988=
200906060100 METAR MRLM NIL=
200906060200 METAR MRLM NIL=
200906060300 METAR MRLM NIL=
200906060400 METAR MRLM NIL=
200906060500 METAR MRLM NIL=
200906060600 METAR MRLM NIL=
200906060700 METAR MRLM NIL=
200906060800 METAR MRLM NIL=
200906060900 METAR MRLM NIL=
200906061000 METAR MRLM NIL=
200906061100 METAR MRLM NIL=
200906061200 METAR MRLM 061200Z NIL=
200906061300 METAR MRLM 061300Z 00000KT CAVOK 24/21 A2986 RMK TRACE SC BKN090 FEW270 HZ ARND=
200906061400 METAR MRLM 061400Z 23002KT CAVOK 26/22 A2987 RMK TRACE SC BKN090 FEW270=
200906061500 METAR MRLM 061500Z 07003KT 9999 DZ FEW015 BKN080 28/23 A2988 RMK FEW140 TRA CE CI=
200906061600 METAR MRLM 061600Z 05003KT 9999 FEW030 BKN140 29/22 A2989 REDZ RMK TRACE CI FEW090 TCU N NE HZ LEVE ARND=
200906061700 METAR MRLM 061700Z 05005KT 999 FEW030 BKN140 29/23 A2987 RMK TRACE CI CB DST N NE HZ LEVE ARND=
200906061800 METAR MRLM 061800Z 04004KT 9999 FEW030 BKN130 30/24 A2983 RMK TRACE CI CB CUADRANTE N HZ LEVE ARND=
200906061900 METAR MRLM 061900Z 01004KT 9999 FEW030 SCT110 30/24 A2983 RMK FEW090 CB DST EN EL CUADRANTE N=
200906062000 METAR MRLM 062000Z 02006KT 9999 FEW035 BKN110 30/23 A2980 RMK FEW080 CB N NE SE S HZ LEVE ARND=
200906062100 METAR MRLM 062100Z 01006KT 9999 FEW030 BKN110 30/24 A2979 RMK FEW080 CB RN DST SE S N NE=
200906062200 METAR MRLM 062200Z 36005KT 9999 FEW030 SCT080 30/24 A2980 RMK SCT130 CB RN DST S N=
200906062300 METAR MRLM 062300Z 01004KT 9999 SCT020 SCT140 28/23 A2981 RMK FEW260 CB RN DST E SE S SW W=
200906070000 METAR MRLM 070000Z 07007KT 9999 BKN025 29/24 A2983 RMK CB RN DST ARND FEW110 FEW260=
200906070100 METAR MRLM NIL=
200906070200 METAR MRLM NIL=
200906070300 METAR MRLM NIL=
200906070400 METAR MRLM NIL=
200906070500 METAR MRLM NIL=
200906070600 METAR MRLM NIL=
200906070700 METAR MRLM NIL=
200906070800 METAR MRLM NIL=
200906070900 METAR MRLM NIL=
200906071000 METAR MRLM NIL=
200906071100 METAR MRLM NIL=
200906071200 METAR MRLM 071200Z 21003KT 9999 FEW010 BKN110 23/22 A2986 TCU RN NE HZ SE=
200906071300 METAR MRLM 071300Z 00000KT 9999 SCT010 SCT100 25/23 A2987 RMK TCU RN DST N NE TRACE CI HZ LGT ARND=
200906071400 METAR MRLM 071400Z 08008KT 9999 BKN015 SCT100 27/24 A2988 RMK TCU RN N NE HZ SE=
200906071500 METAR MRLM 071500Z 08005KT 9999 SCT020 SCT100 28/24 A2990 RMK TCU DST NW HZ SE LGT=
200906071600 METAR MRLM 071600Z 09005KT 9999 SCT020 BKN110 29/24 A2988=
200906071700 METAR MRLM 071700Z 09007KT 9999 SCT025 SCT110 29/24 A2987=
200906071800 METAR MRLM 071800Z 09009KT 9999 SCT025 SCT110 29/24 A2984 RMK TRACE CI=
200906071900 METAR MRLM 071900Z 09009KT 9999 SCT025 SCT110 29/24 A2984 RMK TRACE CI=
200906072000 METAR MRLM 072000Z 08010KT 9999 BKN030 SCT100 30/24 A2980=
200906072100 METAR MRLM 072100Z 07007KT 9999 SCT025 SCT100 29/24 A2977 RMK TRACE CI=
200906072200 METAR MRLM 072200Z 08005KT 9999 SCT025 29/24 A2976 RMK TCU DST S CB RN DST SW W FEW100 FEW260=
200906072300 METAR MRLM 072300Z 06003KT 9999 SCT025 SCT260 28/23 A2978 RMK TCU DST S CB DST SW W FEW110=
200906080000 METAR MRLM 080000Z 04003KT 9999 BKN020 28/24 A2980 RMK RN DST W FEW110 TRACE CI=
200906080100 METAR MRLM NIL=
200906080200 METAR MRLM NIL=
200906080300 METAR MRLM NIL=
200906080400 METAR MRLM NIL=
200906080500 METAR MRLM NIL=
200906080600 METAR MRLM NIL=
200906080700 METAR MRLM NIL=
200906080800 METAR MRLM NIL=
200906080900 METAR MRLM NIL=
200906081000 METAR MRLM NIL=
200906081100 METAR MRLM NIL=
200906081200 METAR MRLM NIL=
200906081300 METAR MRLM 081300Z 00000KT 9999 BKN010 25/24 A2986 RMK RN DST N FEW090 LGT HZ ARND=
200906081400 METAR MRLM 081400Z 00000KT 9999 BKN015 26/24 A2986 RMK RN DST NE FEW100 HZ SE=
200906081500 METAR MRLM 081500Z 30004KT 9999 BKN020 27/24 A2986 RMK RN DST NE FEW100 TRACE CI HZ SE=
200906081600 METAR MRLM 081600Z 34005KT 9999 BKN020 27/24 A2986 RMK CB RN DST NE E TRACE CI HZ SE=
200906081700 METAR MRLM 081700Z 05003KT 9999 BKN020 28/24 A2984 RMK RN DST NE FEW100 TRACE CI=
200906081800 METAR MRLM 081800Z 09004KT 9999 SCT025 SCT260 29/24 A2981 RMK FEW110=
200906081900 METAR MRLM 081900Z 07005KT 9999 FEW030 BKN260 30/24 A2979 RMK TRACE AC=
200906082000 METAR MRLM 082000Z 05006KT 9999 FEW025 BKN260 30/25 A2987 RMK TRACE AC=
200906082100 METAR MRLM 082100Z 05006KT 9999 FEW025 BKN220 29/25 2975=
200906082200 METAR MRLM 082200Z 05005 9999 FEW020 BKN220 29/24 A2974=
200906082300 METAR MRLM 082300Z 02004KT 9999 FEW020 SCT270 29/24 A2974=
200906090000 METAR MRLM 090000Z 36004KT 9999 FEW020 SCT110 29/24 A2975=
200906090100 METAR MRLM NIL=
200906090200 METAR MRLM NIL=
200906090300 METAR MRLM NIL=
200906090400 METAR MRLM NIL=
200906090500 METAR MRLM NIL=
200906090600 METAR MRLM NIL=
200906090700 METAR MRLM NIL=
200906090800 METAR MRLM NIL=
200906090900 METAR MRLM NIL=
200906091000 METAR MRLM NIL=
200906091100 METAR MRLM NIL=
200906091200 METAR MRLM NIL=
200906091300 METAR MRLM 091300Z 28002KT CAVOK 25/24 A2983 RMK SC CU SCT090 FEW140 SCT240 CB/RN DST N E S=
200906091400 METAR MRLM 091400Z 31002KT CAVOK 27/25 A2986 RMK TRACE SC SCT100 SCT270 CB/ RN DST NW N NE E=
200906091500 METAR MRLM 091500Z 27002KT 9999 FEW025 BKN280 29/25 A2987 RMK CB/RN DST N NE E TRACE AC=
200906091600 METAR MRLM 091600Z 36011KT 9999 FEW030 BKN280 31/25 A2986 RMK TRACE AC CB/R N DST NE HZ LGT ARND=
200906091700 METAR MRLM NIL=
200906091800 METAR MRLM 091800Z 01007KT 9999 FEW028 BKN280 31/25 A2985 RMK FEW140 CB/RN DST N NE E SW HZ LGT ARND=
200906091900 METAR MRLM 091900Z 01005KT 9999 FEW030 SCT140 31/25 A2982 RMK SCT280 CB DST NE E HZ LGT ARND=
200906092000 METAR MRLM 092000Z 02004KT 9999 FEW030 SCT140 30/25 A2979 RMK SCT280 HZ ARND=
200906092100 METAR MRLM 092100Z 36008KT 9999 FEW025 BKN280 30/25 A2978 HZY=
200906092200 METAR MRLM 092200Z 36008KT 9999 BKN020 30/25 A2978 CB S SW NE FEW 140 FEW280=
200906092300 METAR MRLM 092300Z 02006KT 9999 BKN020 SCT270 29/24 A2980 CB RN S W CB NE=
200906100000 METAR MRLM 100000Z 35006KT 9999 SCT020 BKN270 29/25 A2981 CB ARND RN S W=
200906100100 METAR MRLM NIL=
200906100200 METAR MRLM NIL=
200906100300 METAR MRLM NIL=
200906100400 METAR MRLM NIL=
200906100500 METAR MRLM NIL=
200906100600 METAR MRLM NIL=
200906100700 METAR MRLM NIL=
200906100800 METAR MRLM NIL=
200906100900 METAR MRLM NIL=
200906101000 METAR MRLM NIL=
200906101100 METAR MRLM NIL=
200906101200 METAR MRLM 101200Z NIL=
200906101300 METAR MRLM 101300Z 20004KT CAVOK 26/24 A2987 BKN090 SCT280 CB RN N NE E HZY=
200906101400 METAR MRLM 101400Z 19003KT CAVOK 28/23 A2987 TRAZAS SCT SCT090 SCT270 HZY=
200906101500 METAR MRLM 101500Z 20002KT CAVOK 29/24 A2988 TRAZAS SCT FEW100 BKN270 HZY TCU NE=
200906101600 METAR MRLM 101600Z 01003KT CAVOK 30/25 A2987 TRACE CU FEW140 BKN280 HZY=
200906101700 METAR MRLM 101700Z 01007KT 9999 FEW030 BKN270 31/25 A2987 HZY=
200906101800 METAR MRLM 101800Z 02006KT 9999 FEW028 BKN270 31/25 A2985 FEW150 HZY=
200906101900 METAR MRLM 101900Z 36008KT 9999 FEW030 BKN280 31/25 A2983 HZY CB NW=
200906102000 METAR MRLM 102000Z=
200906102100 METAR MRLM 102100Z 01006KT 9999 FEW025 SCT140 BKN270 30/24 A2980 RMK CB RN S TSTM SW HZ ARND=
200906102200 METAR MRLM 102200Z 33003KT 9999 FEW025 BKN130 29/25 A2981 RMK FWE270 CB RN DST SE S SW W=
200906102300 METAR MRLM 102300Z 28002KT 9999 FEW020 BKN270 29/25 A2981 RMK CB RN SE S SW W TRACE AC FEW140=
200906110000 METAR MRLM 110000Z 19004KT CAVOK 26/23 A2981 RMK TRACE SC AC FEW140 BKN270 CB RN DST E SE W HZ ARND=
200906110100 METAR MRLM NIL=
200906110200 METAR MRLM NIL=
200906110300 METAR MRLM NIL=
200906110400 METAR MRLM NIL=
200906110500 METAR MRLM NIL=
200906110600 METAR MRLM NIL=
200906110700 METAR MRLM NIL=
200906110800 METAR MRLM NIL=
200906110900 METAR MRLM NIL=
200906111000 METAR MRLM NIL=
200906111100 METAR MRLM NIL=
200906111200 METAR MRLM 111200Z 22005KT CAVOK 24/22 A2984 RMK TRACE CU CI BKN110 CB RN DST N HZ LGT AROUND=
200906111300 METAR MRLM 111300Z 23005KT CAVOK 26/23 A2984 RMK BKN110 TRACE CI CB N HZ LEVE ARND=
200906111400 METAR MRLM 111400Z 26003KT 9999 FEW020 BKN100 28/24 A2986 RMK CB N NE HZ ARND=
200906111500 METAR MRLM 111500Z 30007KT 9999 BKN030 30/24 A2987 RMK CB RN DST N FEW100 HZ ARND=
200906111600 METAR MRLM 111600Z 34012KT 9999 SCT025 SCT110 29/25 A2987 RMK TCU RN DST NW W HZ ARND=
200906111700 METAR MRLM 111700Z 34011KT 9999 BKN025 SCT100 30/25 A2987 RMK CB RN SW W NW HZ ARND=
200906111800 METAR MRLM 111800Z 35009KT 9999 BKN020 28/24 A2986 RMK CB RN S SW W FEW100 HZ ARND=
200906111900 METAR MRLM 111900Z 35009KT 9999 DZ SCT020 SCT100 28/24 A2985 RMK RN SW W HZ ARND=
200906112000 METAR MRLM 112000Z 02008KT 9999 BKN020 SCT100 28/24 A2983 REDZ RMK RN DST SE HZ ARND=
200906112100 METAR MRLM 112100Z 01002KT 9999 BKN025 SCT110 29/24 A2982 RMK RN DST S W E HZ ARND=
200906112200 METAR MRLM 112200Z 00000KT 9999 SCT020 SCT110 28/24 A2981 RMK RN DST SW HZ ARND=
200906112300 METAR MRLM 112300Z 20004KT 9999 FEW015 BKN100 27/24 Q2983 RMK RN DST S SE HZ ARND=
200906120000 METAR MRLM 120000Z 23003KT CAVOK 26/24 A2983 RMK TRACE SC CU B CHECK TEXT NEW ENDING ADDED KATLYTAA=
200906120100 METAR MRLM NIL=
200906120200 METAR MRLM NIL=
200906120300 METAR MRLM NIL=
200906120400 METAR MRLM NIL=
200906120500 METAR MRLM NIL=
200906120600 METAR MRLM NIL=
200906120700 METAR MRLM NIL=
200906120800 METAR MRLM NIL=
200906120900 METAR MRLM NIL=
200906121000 METAR MRLM NIL=
200906121100 METAR MRLM NIL=
200906121200 METAR MRLM 121200Z 22004KT CAVOK 23/22 A2982 TRAZAS CU SCT110 SCT280 HZY=
200906121300 METAR MRLM 121300Z 00000KT CAVOK 27/23 A2984 RMK TRACE CU BKN110 SCT280 HZ ARND=
200906121400 METAR MRLM 121400Z 05003KT CAVOK 28/23 A2986 RMK TRACE CU BKN110 FEW270 HZ LGT ARND=
200906121500 METAR MRLM NIL=
200906121600 METAR MRLM 121600Z 29002KT 9999 FEW035 BKN110 31/23 A2986 RMK HZ LGT SE=
200906121700 METAR MRLM 121700Z 35006KT 9999 SCT030 BKN100 30/24 A2987 RMK TCU DST S SW HZ LGT SE=
200906121800 METAR MRLM 121800Z 36007KT 9999 SCT030 BKN100 30/24 A2985 RMK RN DST SW HZ ARND=
200906121900 METAR MRLM 121900Z 36006KT 9999 FEW030 BKN100 30/24 A2984 RMK TCU RN DST SW HZ ARND=
200906122000 METAR MRLM 122000Z 36005KT 9999 FEW030 BKN110 30/24 A2981 RMK TCU DST SW S HZ ARND=
200906122100 METAR MRLM 122100Z 36006KT 9999 SCT025 BKN110 30/25 A2980 RMK TCU AND RN DIST S SW HZ ARND=
200906122200 METAR MRLM 122200Z 09005KT 9999 FEW020 OVC130 26/24 A2981 RMK RN DST N=
200906122300 METAR MRLM 122300Z 33004KT 9999 BKN020 SCT100 29/24 A2982 RMK TCU DST S HZ ARND=
200906130000 METAR MRLM 130000Z 00000KT 9999 BKN020 SCT100 28/24 A2984 RMK CB DST S SW TRACE CI HZY=
200906130100 METAR MRLM 130100Z NIL=
200906130200 METAR MRLM NIL=
200906130300 METAR MRLM NIL=
200906130400 METAR MRLM NIL=
200906130500 METAR MRLM NIL=
200906130600 METAR MRLM NIL=
200906130700 METAR MRLM NIL=
200906130800 METAR MRLM NIL=
200906130900 METAR MRLM NIL=
200906131000 METAR MRLM NIL=
200906131100 METAR MRLM NIL=
200906131200 METAR MRLM 131200Z 23003KT CAVOK 24/23 A2986 RMK CB RN N SCT120 FEW280 HZ LEVE ARND=
200906131300 METAR MRLM 131300Z 19004KT CAVOK 25/23 A2988 RMK CB RN DST N QUAD BKN120 TRACE CI HZY=
200906131400 METAR MRLM 131400Z 00000KT 9999 FEW025 BKN110 28/23 A2990 RMK CB DST NE E TRACE CI HZY=
200906131500 METAR MRLM 131500Z 07003KT 9999 -DZ BKN025 SCT100 28/24 A2991 RMK CB RN DST NE E TRACE CI HZ ARND=
200906131600 METAR MRLM 131600Z 02005KT 7000 +RA BKN020 28/24 A2991 RMK FEW090=
200906131700 METAR MRLM 131700Z 02007KT 9999 BKN020 SCT090 28/24 A2990 RERA RMK CB RN DST NW TRACE CI HZ SE=
200906131800 METAR MRLM NIL=
200906131900 METAR MRLM NIL=
200906132000 METAR MRLM NIL=
200906132100 METAR MRLM NIL=
200906132200 METAR MRLM NIL=
200906132300 METAR MRLM NIL=
200906140000 METAR MRLM NIL=
200906140100 METAR MRLM NIL=
200906140200 METAR MRLM NIL=
200906140300 METAR MRLM NIL=
200906140400 METAR MRLM NIL=
200906140500 METAR MRLM NIL=
200906140600 METAR MRLM NIL=
200906140700 METAR MRLM NIL=
200906140800 METAR MRLM NIL=
200906140900 METAR MRLM NIL=
200906141000 METAR MRLM NIL=
200906141100 METAR MRLM NIL=
200906141200 METAR MRLM 141200Z NIL=
200906141300 METAR MRLM 141300Z 20004KT CAVOK 24/22 A2986 RMK TRACE CU SC OVC110 HZ LGT SE=
200906141400 METAR MRLM 141400Z 00000KT 9999 FEW015 BKN110 25/23 A2988 RMK DZ DST NE=
200906141500 METAR MRLM 141500Z 02003KT 9999 FEW025 SCT100 28/22 A2990 RMK SCT270=
200906141600 METAR MRLM 141600Z 35010KT 9999 SCT030 29/23 A2992 RMK FEW100 FEW280=
200906141700 METAR MRLM 141700Z 34005KT 9999 SCT030 SCT100 30/23 A2991 RMK FEW280=
200906141800 METAR MRLM 141800Z 02003KT 9999 SCT030 SCT100 29/23 A2989 RMK RN DST NW=
200906141900 METAR MRLM 141900Z 01005KT 9999 SCT030 BKN100 30/24 A2987 RMK TRACE CI=
200906142000 METAR MRLM NIL=
200906142100 METAR MRLM 142100Z 03004KT 9999 SCT030 SCT110 30/24 A2983 TCU RN SW=
200906142200 METAR MRLM 142200Z 06004KT 9999 BKN025 SCT110 29/23 A2984 TCU RN SW W HZ SE=
200906142300 METAR MRLM 142300Z 07003KT 9999 BKN025 SCT100 29/23 A2985 CB RN SW S HZY SE=
200906150000 METAR MRLM 150000Z 15003KT 9999 -DZ BKN020 28/24 A2985 CB RN SW S FEW100 HZY=
200906150100 METAR MRLM NIL=
200906150200 METAR MRLM NIL=
200906150300 METAR MRLM NIL=
200906150400 METAR MRLM NIL=
200906150500 METAR MRLM NIL=
200906150600 METAR MRLM NIL=
200906150700 METAR MRLM NIL=
200906150800 METAR MRLM NIL=
200906150900 METAR MRLM NIL=
200906151000 METAR MRLM NIL=
200906151100 METAR MRLM NIL=
200906151200 METAR MRLM NIL=
200906151300 METAR MRLM 151300Z 23002KT CAVOK 25/23 A2991 TRAZAS CU FEW120 BKN270 CB NE HZY=
200906151400 METAR MRLM 151400Z 20004KT 9999 FEW020 SCT110 28/24 A2992 SCT270 HZY=
200906151500 METAR MRLM 151500Z 04003KT 9999 FEW030 BKN270 30/23 A2991 FEW110 HZY=
200906151600 METAR MRLM 151600Z 06004KT 9999 FEW030 BKN260 30/24 A2989 TRACE AC HZ SE=
200906151700 METAR MRLM 151700Z 06005KT 9999 FEW030 BKN260 30/24 A2988 TRAZAS AC=
200906151800 METAR MRLM 151800Z 01006KT 9999 SCT030 BKN260 30/24 A2986 TRZAS AC=
200906151900 METAR MRLM 151900Z 36007KT 9999 SCT030 BKN260 31/25 A2985=
200906152000 METAR MRLM 152000Z 01006KT 9999 SCT030 SCT270 31/25 A2982=
200906152100 METAR MRLM 152100Z 03005KT 9999 FEW025 BKN270 30/24 A2981 RMK CB DST S=
200906152200 METAR MRLM 152200Z 01005KT 9999 SCT025 BKN270 30/25 A2980 RMK CB DST S FEW1 20=
200906152300 METAR MRLM 152300Z 01004KT 9999 SCT025 SCT270 29/24 A2982 RMK CB RN DST S TRACE AC HZ ARND=
200906160000 METAR MRLM 160000Z 00000KT 9999 BKN020 29/24 A2984 RMK CB SW W TRACE AC FEW270 HZ=
200906160100 METAR MRLM NIL=
200906160200 METAR MRLM NIL=
200906160300 METAR MRLM NIL=
200906160400 METAR MRLM NIL=
200906160500 METAR MRLM NIL=
200906160600 METAR MRLM NIL=
200906160700 METAR MRLM NIL=
200906160800 METAR MRLM NIL=
200906160900 METAR MRLM NIL=
200906161000 METAR MRLM NIL=
200906161100 METAR MRLM NIL=
200906161200 METAR MRLM 161200Z NIL=
200906161300 METAR MRLM NIL=
200906161400 METAR MRLM 161400Z 23004KT 9999 FEW020 SCT260 28/24 A2989 RMK CB DST NE FEW 120 HZ ARND=
200906161500 METAR MRLM 161500Z 05004KT 9999 SCT025 SCT260 40/24 A2988 RMK TCU S NE E TRACE AC AS HZ LEVE SE=
200906161600 METAR MRLM 161600Z 01008KT 9999 SCT030 SCT260 31/24 A2989 RMK TCU W CB RN NE E TRACE AC AS HZ LEVE SE=
200906161700 METAR MRLM NIL=
200906161800 METAR MRLM 161800Z 04005KT 9999 SCT030 BKN100 30/24 A2987 RMK RN DST SW NE HZ SE=
200906161900 METAR MRLM 161900Z 07006KT 9999 SCT025 SCT100 30/24 A2984 RMK HZ SE=
200906162000 METAR MRLM 162000Z 07005KT 9999 SCT030 SCT260 30/24 A2984 RMK TCU DST SW W FEW110 HZ LEVE SE=
200906162100 METAR MRLM 162100Z 03004KT 9999 FEW025 SCT260 30/25 A2980 RMK TCU DST SW W FEW110 HZ LGT SE=
200906162200 METAR MRLM 162200Z 07005KT 9999 FEW025 BKN270 30/24 A2980 RMK CB DST SW W TRACE AC=
200906162300 METAR MRLM 162300Z 08004KT 9999 FEW025 BKN270 30/24 A2980 RMK CB DST SW W N TRACE AC=
200906170000 METAR MRLM NIL=
200906170100 METAR MRLM NIL=
200906170200 METAR MRLM NIL=
200906170300 METAR MRLM NIL=
200906170400 METAR MRLM NIL=
200906170500 METAR MRLM NIL=
200906170600 METAR MRLM NIL=
200906170700 METAR MRLM NIL=
200906170800 METAR MRLM NIL=
200906170900 METAR MRLM NIL=
200906171000 METAR MRLM NIL=
200906171100 METAR MRLM NIL=
200906171200 METAR MRLM NIL=
200906171300 METAR MRLM 171300Z 00000KT CAVOK 26/23 A2986 RMK TRACE CU SCT100 TRACE CI HZ LGT SE=
200906171400 METAR MRLM 171400Z 08002KT 9999 FEW025 SCT280 29/24 A2987 RMK FEW110=
200906171500 METAR MRLM 171500Z 07003KT 9999 FEW030 SCT270 30/24 A2986 RMK TRACE AC=
200906171600 METAR MRLM 171600Z 04006KT 9999 FEW030 SCT260 30/24 A2987 RMK TCU RN DST S FEW120=
200906171700 METAR MRLM 171700Z 05009KT 9999 FEW030 SCT260 31/25 A2987 RMK CB DST S TCU DST W N SCT110=
200906171800 METAR MRLM 171800Z 05006KT 9999 FEW030 BKN110 30/24 A2985 RMK CB DST W S FEW260=
200906171900 METAR MRLM 171900Z 03005KT 9999 SCT030 SCT260 30/24 A2982 RMK FEW110 HZ LGT ARND=
200906172000 METAR MRLM 172000Z 04005KT 9999 SCT030 SCT250 31/24 A2980 RMK CB DST W TRACE AC HZ ARND=
200906172100 METAR MRLM 172100Z 01005KT 9999 BKN025 SCT250 30/25 A2979 RMK HZ ARND=
200906172200 METAR MRLM 172200Z 36006KT 9999 SCT025 30/25 A2979 RMK CB DST W FEW250 HZ ARND=
200906172300 METAR MRLM 172300Z 02004KT 9999 BKN025 29/24 A2980 RMK CB DST SW W FEW250 HZY=
200906180000 METAR MRLM 180000Z 00000KT 9999 BKN020 28/24 A2979 RMK TRACE AC FEW250 HZ ARND=
200906180100 METAR MRLM NIL=
200906180200 METAR MRLM NIL=
200906180300 METAR MRLM NIL=
200906180400 METAR MRLM NIL=
200906180500 METAR MRLM NIL=
200906180600 METAR MRLM NIL=
200906180700 METAR MRLM NIL=
200906180800 METAR MRLM NIL=
200906180900 METAR MRLM NIL=
200906181000 METAR MRLM NIL=
200906181100 METAR MRLM NIL=
200906181200 METAR MRLM NIL=
200906181300 METAR MRLM 181300Z 23003KT 9999 VCTS VCSH FEW010CB FEW015 SCT120 25/23 A2981 RMK VIS 7KMS NE FEW260 HZ ARND=
200906181400 METAR MRLM 181400Z 20003KT 9999 FEW010 SCT110 25/23 A2984 RMK CB RN DST N FEW260 HZ ARND=
200906181500 METAR MRLM 181500Z 00000KT 9999 BKN015 SCT110 28/24 A2987 RMK CB RN N TRACE CI HZY=
200906181600 METAR MRLM 181600Z 08003KT 9999 BKN020 28/24 A2986 RMK CB RN DST N TCU SW FEW100 HZ ARND=
200906181700 METAR MRLM 181700Z 00000KT 9999 BKN020 SCT100 29/24 A2984 RMK CB RN DST N NE NW TCU DST SW HZ ARND=
200906181800 METAR MRLM 181800Z 30005KT 9999 -DZ BKN020 SCT100 28/24 A2979 RMK CB RN DST W NW N NE HZY=
200906181900 METAR MRLM 181900Z 28003KT 9999 -DZ SCT015 BKN090 27/25 A2975 RMK RN DST WNW TRACE CI HZY=
200906182000 METAR MRLM 182000Z 03012KT 9999 -DZ BKN015 27/24 A2976 RMK RN DST NW FEW090HZY=
200906182100 METAR MRLM 182100Z 02007KT 9999 BKN020 SCT100 28/24 A2976 REDZ RMK HZ ARND=
200906182200 METAR MRLM 182200Z 00000KT 9999 SCT025 SCT100 29/24 A2976 RMK TCU DST SW FEW260 HZ ARND=
200906182300 METAR MRLM 182300Z 00000KT 9999 FEW025 SCT110 29/24 A2977 RMK CB DST SW W SCT260 HZ ARND=
200906190000 METAR MRLM 190000Z 36003KT 9999 SCT020 28/24 A2979 RMK CB DST SW S FEW110 FEW250 HZ ARND=
200906190100 METAR MRLM NIL=
200906190200 METAR MRLM NIL=
200906190300 METAR MRLM NIL=
200906190400 METAR MRLM NIL=
200906190500 METAR MRLM NIL=
200906190600 METAR MRLM NIL=
200906190700 METAR MRLM NIL=
200906190800 METAR MRLM NIL=
200906190900 METAR MRLM NIL=
200906191000 METAR MRLM NIL=
200906191100 METAR MRLM NIL=
200906191200 METAR MRLM 191200Z 16003KT 9999 BKN010 24/22 A2982 RMK RN DST NE E FEW100 HZ ARND=
200906191300 METAR MRLM 191300Z 20003KT 9999 BKN010 24/23 A2983 RMK RN DST QUAD N FEW100 TRACE CI HZ ARND=
200906191400 METAR MRLM 191400Z 00000KT 9999 DZ BKN010 25/23 A2985 RMK RN DST QUAD N E FEW090 HZ ARND=
200906191500 METAR MRLM 191500Z 22003KT 9999 SCT010 BKN100 26/24 A2984 REDZ RMK RN DST NE E TRACE CI HZ ARND=
200906191600 METAR MRLM 191600Z 00000KT 9999 FEW020 BKN100 28/24 A2993 RMK RN DST NE HZ ARND=
200906191700 METAR MRLM 191700Z 05004KT 9999 SCT025 SCT100 28/24 A2981 RMK RN DST E HZ ARND=
200906191800 METAR MRLM 191800Z 33006KT 9999 FEW030 BKN110 30/23 A2981 RMK RN DST E HZ ARND=
200906191900 METAR MRLM 191900Z 34010KT 9999 FEW030 SCT110 30/24 A2979 RMK SCT250 HZ ARND=
200906192000 METAR MRLM 192000Z 34009KT 9999 FEW035 SCT100 30/23 A2976 RMK FEW250 HZ LGT SE=
200906192100 METAR MRLM 192100Z 36007KT 9999 FEW030 BKN100 30/24 A2976 HZ SE=
200906192200 METAR MRLM 192200Z 01007KT 9999 BKN025 29/24 A2975 RMK RN DST SW FEW100 TRAZAS CI HZY=
200906192300 METAR MRLM 192300Z 03007KT 9999 BKN020 28/24 A2977 TCU RN DST S W NW FEW100 HZY=
200906200000 METAR MRLM 200000Z 03007KT 9999 BKN015 28/24 A2976 TCU RN S W FEW100 HZY=
200906200100 METAR MRLM NIL=
200906200200 METAR MRLM NIL=
200906200300 METAR MRLM NIL=
200906200400 METAR MRLM NIL=
200906200500 METAR MRLM NIL=
200906200600 METAR MRLM NIL=
200906200700 METAR MRLM NIL=
200906200800 METAR MRLM NIL=
200906200900 METAR MRLM NIL=
200906201000 METAR MRLM NIL=
200906201100 METAR MRLM NIL=
200906201200 METAR MRLM 201200Z 21004KT CAVOK 23/22 A2984 RMK TRACE CU BKN120 FEW250 HZ LGT ARND=
200906201300 METAR MRLM 201300Z 22002KT CAVOK 26/22 A2984 RMK TRAZAS C BKN140 FEW250 HZY=
200906201400 METAR MRLM 201400Z 00000KT CAVOK 28/23 A2984 TRAZAS CU SCT140 SCT250 HZ SE=
200906201500 METAR MRLM 201500Z 04004KT 9999 FEW025 SCT250 29/24 A2985 FEW130 HZ SE=
200906201600 METAR MRLM 201600Z 04003KT 9999 FEW030 BKN250 29/24 A2986 FEW130=
200906201700 METAR MRLM 201700Z 02005KT 9999 FEW030 BKN250 30/24 A2985 TRACE AC=
200906201800 METAR MRLM 201800Z 01006KT 9999 FEW030 BKN250 30/24 A2983 TRACE AC=
200906201900 METAR MRLM 201900Z 36008KT 9999 FEW035 BKN250 31/24 A2981=
200906202000 METAR MRLM 202000Z 01009KT 9999 FEW035 BKN260 30/25 A2980 CB NW W FEW120=
200906202100 METAR MRLM 202100Z 35004KT 9999 FEW030 BKN260 30/24 A2978 RMK CB DST SW W FEW120=
200906202200 METAR MRLM 202200Z 01005KT 9999 SCT025 SCT260 29/24 A2977 RMK TRACE AC HZ LEVE ARND=
200906202300 METAR MRLM 202300Z 28003KT 9999 SCT025 SCT110 29/24 A2979 RMK FEW260 HZ ARN D=
200906210000 METAR MRLM 210000Z 27002KT 9999 FEW020 SCT100 28/24 A2981 RMK TCU DST NE FEW260 HZ ARND=
200906210100 METAR MRLM NIL=
200906210200 METAR MRLM NIL=
200906210300 METAR MRLM NIL=
200906210400 METAR MRLM NIL=
200906210500 METAR MRLM NIL=
200906210600 METAR MRLM NIL=
200906210700 METAR MRLM NIL=
200906210800 METAR MRLM NIL=
200906210900 METAR MRLM NIL=
200906211000 METAR MRLM NIL=
200906211100 METAR MRLM NIL=
200906211200 METAR MRLM 211200Z NIL=
200906211300 METAR MRLM 211300Z 19005KT 8000 -RA BKN010 24/23 A2985 RMK FEW090=
200906211400 METAR MRLM 211400Z 00000KT 9999 RA BKN010 25/23 A2988 RMK VIS N NE 8000 FEW 090 HZ ARND=
200906211500 METAR MRLM 211500Z 19004KT 8000 +DZ BKN010 25/24 A2988 RMK RA NE FEW090 HZ ARND=
200906211600 METAR MRLM 211600Z 24004KT 9999 SCT015 SCT100 27/25 A2988 REDZ RN DST NW TRACE CI HZ ARND=
200906211700 METAR MRLM 211700Z 35003KT 9999 SCT025 SCT110 30724 A2986 RMK TRACE CI HZ ARND=
200906211800 METAR MRLM 211800Z 02007KT 9999 SCT025 BKN110 30/24 A2985 RMK TCU DST NW HZ ARND=
200906211900 METAR MRLM 211900Z 36006KT 9999 SCT025 BKN100 30/24 A2983 RMK TRACE CI HZ ARND=
200906212000 METAR MRLM 212000Z 36007KT 9999 SCT020 SCT120 30/25 A2981 RMK FW260 HZ ARND=
200906212100 METAR MRLM 212100Z 36005KT 9999 SCT030 31/25 A2979 RMK CB DST SW FEW120 FEW260 HZ LGT ARND=
200906212200 METAR MRLM 2200Z 21004KT 9999 BKN015 26/24 A2983 REDZ RMK CB RN DST SW TCU DST W TRACE AC CI HZ ARND=
200906212300 METAR MRLM 212300Z 23003KT 9999 +DZ BKN020 28/25 A2981 RMK TRACE AC CI=
200906220000 METAR MRLM 2200Z 21004KT 9999 BKN015 26/24 A2983 REDZ RMK CB RN DST SW TCU DST W TRACE AC CI HZ ARND=
200906220100 METAR MRLM NIL=
200906220200 METAR MRLM NIL=
200906220300 METAR MRLM NIL=
200906220400 METAR MRLM NIL=
200906220500 METAR MRLM NIL=
200906220600 METAR MRLM NIL=
200906220700 METAR MRLM NIL=
200906220800 METAR MRLM NIL=
200906220900 METAR MRLM NIL=
200906221000 METAR MRLM NIL=
200906221100 METAR MRLM NIL=
200906221200 METAR MRLM 221200Z 00000KT 0500 FG VV/// 23/23 A2982=
200906221300 METAR MRLM 221300Z 21005KT CAVOK 26/23 A2985 RMK TRACE CU TCU DST N SCT120 SCT270 HZ ARND=
200906221400 METAR MRLM 221400Z 22003KT CAVOK 29/23 A2986 RMK TRACE CU SCT110 SCT270 HZ SE=
200906221500 METAR MRLM 221500Z 23004KT CAVOK 29/23 A2986 RMK CB DST N TRACE CU FEW110 BKN260 HZ SE=
200906221600 METAR MRLM 221600Z 04003KT 9999 FEW030 BKN250 29/23 A2986 RMK FEW120 HZ SE=
200906221700 METAR MRLM 221700Z 01006KT 9999 FEW035 BKN250 30/23 A2984 RMK TRACE AC HZ SE=
200906221800 METAR MRLM 221800Z 01006KT 9999 FEW035 BKN250 30/23 A2984 RMK TRACE AC HZ SE=
200906221900 METAR MRLM 221900Z 01007KT 9999 FEW030 BKN250 31/24 A2982 RMK TCU DST NE TRACE AC HZ ARND=
200906222000 METAR MRLM 222000Z 35006KT CAVOK 31/24 A2982 RMK CB DST SW TRACE CU AC OVC250 HZ ARND=
200906222100 METAR MRLM 222100Z 35007KT 9999 FEW030 BKN260 30/24 A2977 RMK CB DST SW TRACE AC HZ ARND=
200906222200 METAR MRLM 222200Z 36008KT 9999 SCT025 SCT260 30/24 A2978 TRACE AC HZ ARND=
200906222300 METAR MRLM 222300Z 36009KT 9999 BKN025 29/24 A2979 RMK FEW260 HZY=
200906230000 METAR MRLM 230000Z 36005KT 9999 BKN020 29/24 A2980 RMK FEW260 HZY=
200906230100 METAR MRLM NIL=
200906230200 METAR MRLM NIL=
200906230300 METAR MRLM NIL=
200906230400 METAR MRLM NIL=
200906230500 METAR MRLM NIL=
200906230600 METAR MRLM NIL=
200906230700 METAR MRLM NIL=
200906230800 METAR MRLM NIL=
200906230900 METAR MRLM NIL=
200906231000 METAR MRLM NIL=
200906231100 METAR MRLM NIL=
200906231200 METAR MRLM NIL=
200906231300 METAR MRLM 231300Z 23004KT 9999 FEW020 OVC250 26/23 A2984 RMK TRACE AC HZ ARND=
200906231400 METAR MRLM 231400Z 06005KT CAVOK 29/23 A2986 RMK TRACE CU AC BKN250 HZ SE=
200906231500 METAR MRLM 231500Z 31002KT 9999 FEW030 SCT250 31/23 A2986 RMK CB DST N TRACE AC HZ SE=
200906231600 METAR MRLM 231600Z 01008KT 9999 FEW030 SCT130 30/24 A2986 RMK CB DST N HZ SE FEW250=
200906231700 METAR MRLM 231700Z 35009KT 9999 FEW035 BKN120 31/24 A2986 RMK TCU DST SW S CB DST NE TRACE CI HZ SE=
200906231800 METAR MRLM 231800Z 35010KT 9999 FEW035 BKN110 31/24 A2984 CB DST SW NE TRACE CI HZ SE=
200906231900 METAR MRLM NIL=
200906231901 METAR MRLM 231901Z 36008KT 9999 FEW030 SCT110 31/25 A2983 CB DST SW W NE FEW250 HZ ARND=
200906232000 METAR MRLM 232000Z 35007KT 9999 SCT025 SCT250 29/24 A2980 RMK CB DST S SW NE TRACE AC HZ ARND=
200906232100 METAR MRLM 232100Z 36006KT 9999 SCT025 SCT250 30/25 A2979 RMK CB DST S TRACE AC HZ ARND=
200906232200 METAR MRLM 232200Z 02006KT 9999 BKN025 30/24 A2979 RMK FEW250 HZ ARND=
200906232300 METAR MRLM 232300Z 01006KT 9999 SCT020 SCT250 29/25 A2981 RMK CB DST W SW FEW120 HZ ARND=
200906240000 METAR MRLM 240000Z 02006KT 9999 BKN020 28/24 A2983 RMK CB DST S SW S FEW120 FEW250 HZ ARND=
200906240100 METAR MRLM NIL=
200906240200 METAR MRLM NIL=
200906240300 METAR MRLM NIL=
200906240400 METAR MRLM NIL=
200906240500 METAR MRLM NIL=
200906240600 METAR MRLM NIL=
200906240700 METAR MRLM NIL=
200906240800 METAR MRLM NIL=
200906240900 METAR MRLM NIL=
200906241000 METAR MRLM NIL=
200906241100 METAR MRLM NIL=
200906241200 METAR MRLM 241200Z 22005KT CAVOK 24/22 A2985 RMK SCT130 SCT260 HZ ARND=
200906241300 METAR MRLM 241300Z 20005KT CAVOK 26/23 A2986 RMK TRACE CU FEW130 BKN250 HZ SW=
200906241400 METAR MRLM 241400Z 20002KT 9999 FEW025 BKN250 28/24 A2987 RMK FEW130 HZ SE=
200906241500 METAR MRLM 241500Z 03003KT 9999 FEW030 BKN250 30/24 A2987 RMK FEW130 HZ SE=
200906241600 METAR MRLM NIL=
200906241700 METAR MRLM 241700Z 06005KT 9999 FEW030 SCT130 30/24 A2985 RMK TCU DST S SCT250 HZ SE=
200906241800 METAR MRLM 241800Z 06005KT 9999 FEW030 SCT140 30/24 A2983 RMK CB DST SW SCT250=
200906241900 METAR MRLM 241900Z 04006KT 9999 FEW030 BKN250 30/25 A2981 RMK CB DST W FEW140=
200906242000 METAR MRLM 242000Z 04007KT 9999 SCT030 SCT250 31/24 A2979 RMK CB TCU DST S TRACE AC=
200906242100 METAR MRLM 242100Z 05008KT 9999 BKN025 30/25 A2979 CB RN S FEW250 HZY=
200906242200 METAR MRLM 242200Z 06005KT 9999 BKN025 29/24 A2981 CB RN S HZY=
200906242300 METAR MRLM 242300Z 20005KT 7000 RA VCTS OVC020 26/24 A2983=
200906250000 METAR MRLM 250000Z 30008KT 1000 TS SHRA SCT010CB OVC020 24/23 A2987=
200906250100 METAR MRLM NIL=
200906250200 METAR MRLM NIL=
200906250300 METAR MRLM NIL=
200906250400 METAR MRLM NIL=
200906250500 METAR MRLM NIL=
200906250600 METAR MRLM NIL=
200906250700 METAR MRLM NIL=
200906250800 METAR MRLM NIL=
200906250900 METAR MRLM NIL=
200906251000 METAR MRLM NIL=
200906251100 METAR MRLM NIL=
200906251200 METAR MRLM NIL=
200906251300 METAR MRLM 251300Z 23002KT CAVOK 25/23 A2985 FEW140 BKN280 CB RN NE=
200906251400 METAR MRLM 251400Z 18002KT 9999 FEW015 BKN280 28/22 A2987 FEW110 CB RN NE=
200906251500 METAR MRLM 251500Z 06004KT 9999 FEW030 SCT130 28/22 A2989 SCT280 RN NE=
200906251600 METAR MRLM 251600Z 251600Z07004KT 9999 FEW035 SCT140 29/22 A2989 FEW280 HZY=
200906251700 METAR MRLM 251700Z 05005KT 9999 SCT030 SCT280 30/23 A2987 CB N SE FEW110 HZY=
200906251800 METAR MRLM 251800Z 06007KT 9999 FEW0335 SCT110 30/23 A2986 SCT280 CB N TCU RN SW W=
200906251900 METAR MRLM 251900Z 05008KT 9999 TS FEW015CB FEW030 SCT10 30/24 A2983 SCT270 CB RN S W TSTM W=
200906252000 METAR MRLM 252000Z 07008KT 9999 BKN030 29/24 A2981 RETS FEW110 CB RN S W=
200906252100 METAR MRLM 252100Z 08006KT 9999 BKN028 30/24 A2980 RMK FEW140 CB RN DST S W=
200906252200 METAR MRLM 252200Z 10005KT 9999 DZ BKN025 29/24 A2978 RMK FEW110 CB RN DST S W=
200906252300 METAR MRLM 252300Z 21003KT 9999 SCT015 BKN090 28/24 A2981 REDZ RMK CB RN EN LOS CUADRANTES S W DZ SE=
200906260000 METAR MRLM 260000Z 24003KT 9999 FEW025 BKN090 27/24 A2981 RMK RN CUADRANTE W DZ SE=
200906260100 METAR MRLM NIL=
200906260200 METAR MRLM NIL=
200906260300 METAR MRLM NIL=
200906260400 METAR MRLM NIL=
200906260500 METAR MRLM NIL=
200906260600 METAR MRLM NIL=
200906260700 METAR MRLM NIL=
200906260800 METAR MRLM NIL=
200906260900 METAR MRLM NIL=
200906261000 METAR MRLM NIL=
200906261100 METAR MRLM NIL=
200906261200 METAR MRLM 261200Z NIL=
200906261300 METAR MRLM 261300Z 27006KT 9999 FEW012 BKN025 25/23 A2986 RMK FEW120 CB RN DST N E=
200906261400 METAR MRLM 261400Z 27003KT 9999 BKN020 25/23 A2987 RMK FEW130 CB RN CUADRANT E W NE=
200906261500 METAR MRLM 261500Z 20002KT 8000 VCSH BKN010 25/23 A2989 RMK FEW090 VIS S SW W UNL=
200906261600 METAR MRLM 261600Z 23003KT 9999 DZ SCT010 SCT090 25/23 A2989 RMK VIS S SW W 8000 DUE RN=
200906261700 METAR MRLM 261700Z 22005KT 9999 FEW008 SCT020 25724 A2987 RMK REDZ SCT090 RN ARND=
200906261800 METAR MRLM 261800Z 23006KT 9999 FEW010 BKKN025 26/24 A2986 RMK FEW110 CB RN N E=
200906261900 METAR MRLM 261900Z 24003KT 9999 FEW015 SCT030 28/24 A2983 RMK CB RN NW E SCT130 TRACE CI=
200906262000 METAR MRLM 262000Z 23003KT 9999 FEW030 SCT090 29/24 A2980 RMK SCT270 CB DST NW E=
200906262100 METAR MRLM 262100Z 21003KT 9999 FEW035 SCT110 BKN270 30/23 A2980 RMK CB RN DST E SE=
200906262200 METAR MRLM 262200Z 01005KT 9999 FEW030 BKN110 30/24 A2980 RMK CB DST E SE S SW SCT270=
200906262300 METAR MRLM 262300Z 35005KT 9999 FEW025 SCT120 BKN270 29/24 A2981 RMK CB DST NE E SE SW W=
200906270000 METAR MRLM 270000Z 00000KT 9999 FEW015 BKN100 28/25 A2983 RMK SCT270 CB HZ DST ARND=
200906270100 METAR MRLM NIL=
200906270200 METAR MRLM NIL=
200906270300 METAR MRLM NIL=
200906270400 METAR MRLM NIL=
200906270500 METAR MRLM NIL=
200906270600 METAR MRLM NIL=
200906270700 METAR MRLM NIL=
200906270800 METAR MRLM NIL=
200906270900 METAR MRLM NIL=
200906271000 METAR MRLM NIL=
200906271100 METAR MRLM NIL=
200906271200 METAR MRLM 271200Z NIL=
200906271300 METAR MRLM 271300Z 19005KT CAVOK 25/22 A2986 RMK TRACE CU OVC130 HZ ARND=
200906271400 METAR MRLM 271400Z 00000KT CAVOK 28/24 A2986 RMK TRACE CU FEW130 BKN250 HZ SE=
200906271500 METAR MRLM 271500Z 02003KT CAVOK 29/23 A2985 RMK TRACE CU OVC250 HZ ARND=
200906271600 METAR MRLM 271600Z 03004KT CAVOK 30/24 A2986 RMK TRACE CU OVC250 HZ ARND=
200906271700 METAR MRLM 271700Z 01004KT 9999 FEW030 OVC250 30/24 A2984 RMK HZ SE=
200906271800 METAR MRLM 271800Z 36006KT 9999 FEW035 OVC250 31/24 A2984 RMK HZ SE=
200906271900 METAR MRLM 271900Z 36009KT 9999 FEW030 OVC250 31/25 A2982 RMK HZ SE=
200906272000 METAR MRLM 272000Z 35007KT 9999 FEW030 OVC250 31/25 A2980=
200906272100 METAR MRLM 272100Z 36007KT 9999 FEW030 BKN250 31/25 A2979 RMK CB DST SW HZ SE=
200906272200 METAR MRLM 272200Z 36005KT 9999 FEW035 BKN250 31/25 A2978 RMK CB DST SW HZY=
200906272300 METAR MRLM 272300Z 36005KT 9999 SCT025 BKN250 30/23 A2979 RMK TRACE AC HZY=
200906280000 METAR MRLM 280000Z 26002KT 9999 SCT020 BKN250 29/25 A2981 RMK CB DST S SW W HZY=
200906280100 METAR MRLM NIL=
200906280200 METAR MRLM NIL=
200906280300 METAR MRLM NIL=
200906280400 METAR MRLM NIL=
200906280500 METAR MRLM NIL=
200906280600 METAR MRLM NIL=
200906280700 METAR MRLM NIL=
200906280800 METAR MRLM NIL=
200906280900 METAR MRLM NIL=
200906281000 METAR MRLM NIL=
200906281100 METAR MRLM NIL=
200906281200 METAR MRLM NIL=
200906281300 METAR MRLM 281300Z 20004KT CAVOK 26/23 A2984 RMK TRACE CU BKN100 TRACE CI HZ ARND=
200906281400 METAR MRLM 281400Z 00000KT CAVOK 30/24 A2985 RMK TRACE CU BKN110 TRACE HZ SE=
200906281500 METAR MRLM 281500Z 00000KT CAVOK 30/24 A2985 RMK CB DST N TRACE CU BKN110 TRACE CI HZ SE=
200906281600 METAR MRLM 281600Z 01006KT 9999 FEW020 SCT110 31/24 A2984 FEW260 HZ SE=
200906281700 METAR MRLM 281700Z 02008KT 9999 FEW030 BKN250 31/25 A2983 RMK TRACE AC HZ SE=
200906281800 METAR MRLM 281800Z 02005KT 9999 FEW030 BKN250 31/24 A2983 RMK TCU DST SW TRACE AC HZ SE=
200906281900 METAR MRLM 281900Z 03007KT 9999 FEW030 OVC250 31/25 A2981 RMK CB DST SW TRACE AC HZY=
200906282000 METAR MRLM 282000Z 03005KT 9999 FEW030 SCT110 31/25 A2981 RMK CB DST SW SCT250 HZ ARND=
200906282100 METAR MRLM 282100Z 01006KT 9999 FEW025 SCT110 SCT250 30/25 A2980 RMK CB DST SW W HZ ARND=
200906282200 METAR MRLM 282200Z 04004KT 9999 SCT025 SCT100 30/25 A2982 RMK CB DST SW FEW250 HZ ARND=
200906282300 METAR MRLM 282300Z 11005KT 9999 SCT025 SCT100 30/25 A2983 RMK CB DST SW HZ ARND=
200906290000 METAR MRLM 290000Z 16004KT 9999 SCT020 BKN100 29/25 A2981 RMK CB DST SW HZ ARND=
200906290100 METAR MRLM NIL=
200906290200 METAR MRLM NIL=
200906290300 METAR MRLM NIL=
200906290400 METAR MRLM NIL=
200906290500 METAR MRLM NIL=
200906290600 METAR MRLM NIL=
200906290700 METAR MRLM NIL=
200906290800 METAR MRLM NIL=
200906290900 METAR MRLM NIL=
200906291000 METAR MRLM NIL=
200906291100 METAR MRLM NIL=
200906291200 METAR MRLM NIL=
200906291300 METAR MRLM 291300Z 13011KT 9999 FEW010 SCT140 BKN250 27/21 A2982 RMK TRACE AC CB RN DST QUAD N E=
200906291400 METAR MRLM 291400Z 12012KT 9999 SCT030 SCT280 29/23 A2985 RMK DZ E=
200906291500 METAR MRLM 291500Z 10007KT 9999 BKN030 30/23 A2985 RMK FEW090 FEW280 CB RN DST NE E HZ LGT ARND=
200906291600 METAR MRLM 291600Z 31008KT 9999 FEW025 SCT060 28/23 A2988 CB RN N DZ E SE=
200906291700 METAR MRLM 291700Z 02008KT 9999 SCT030 BKN280 31/24 A2983 RMK CB DST NE E TRACE AC HZ LGT ARND=
200906291800 METAR MRLM 291800Z 35009KT 9999 FEW030 BKN280 31/24 A2981 RMK CB DST NE TCU RN DST SW FEW150=
200906291900 METAR MRLM 291900Z 35012KT 9999 FEW040 SCT280 31/23 A2980 RMK FEW140 CB DST S RN DST S SW=
200906292000 METAR MRLM 292000Z 35009KT 9999 TS FEW015CB FEW040 SCT140 28/23 A2978 RMK SCT280 CB RN DST S TSTN DST SW=
200906292100 METAR MRLM 292100Z 36008KT 9999 FEW030 SCT140 BKN270 30/24 A2977 RETS CB RN S=
200906292200 METAR MRLM 292200Z 36004KT 9999 BKN025 29/24 A2978 FEW140 FEW280 CB RN S=
200906292300 METAR MRLM 292300Z 07002KT 9999 FEW025 BKN140 29/24 A2978 FEW280 CB RN S W=
200906300000 METAR MRLM 300000Z 19003KT 9999 FEW015 BKN120 28/24 A2980 FEW270 CB RN S W=
200906300100 METAR MRLM NIL=
200906300200 METAR MRLM NIL=
200906300300 METAR MRLM NIL=
200906300400 METAR MRLM NIL=
200906300500 METAR MRLM NIL=
200906300600 METAR MRLM NIL=
200906300700 METAR MRLM NIL=
200906300800 METAR MRLM NIL=
200906300900 METAR MRLM NIL=
200906301000 METAR MRLM NIL=
200906301100 METAR MRLM NIL=
200906301200 METAR MRLM NIL=
200906301300 METAR MRLM 301300Z 21004KT 9999 FEW015 SCT140 27/23 A2983 SCT280 HZY=
200906301400 METAR MRLM 301400Z 24002KT 9999 FEW028 BKN280 29/23 A2984 TRAZAS AC HZY=
200906301500 METAR MRLM 301500Z 07002KT CAVOK 29/24 A2985 TRAZAS CU BKN280 HZY CB E=
200906301600 METAR MRLM 301600Z 09005KT 9999 FEW030 BKN280 30/24 A2984 HZY=
200906301700 METAR MRLM 301700Z 08007KT 9999 FEW028 BKN280 30/24 A2983 HZY=
200906301800 METAR MRLM 301800Z 08008KT 9999 FEW028 BKN280 30/25 A2981 CB NE SE HZY=
200906301900 METAR MRLM 301900Z 07007KT 9999 FEW028 BKN280 30/25 A2979 CB ARND=
200906302000 METAR MRLM 302000Z 05009KT 9999 FEW035 SCT280 31/24 A2977 CB ARND=
200906302100 METAR MRLM NIL=
200906302200 METAR MRLM 302200Z 06009KT 9999 SCT030 SCT280 30/24 A2974 RMK CB DST S SW HZ ARND=
200906302300 METAR MRLM NIL=
200907010000 METAR MRLM NIL=
200907010100 METAR MRLM NIL=
200907010200 METAR MRLM NIL=
200907010300 METAR MRLM NIL=
200907010400 METAR MRLM NIL=
200907010500 METAR MRLM NIL=
200907010600 METAR MRLM NIL=
200907010700 METAR MRLM NIL=
200907010800 METAR MRLM NIL=
200907010900 METAR MRLM NIL=
200907011000 METAR MRLM NIL=
200907011200 METAR MRLM NIL=
200907011300 METAR MRLM NIL=
200907011400 METAR MRLM NIL=
200907011500 METAR MRLM 011500Z 05002KT 9999 SCT030 SCT260 30/24 A2987 RMK TCU E FEW140 HZ SE=
200907011600 METAR MRLM 011600Z 03005KT 9999 SCT030 SCT250 31/25 A2987 RMK TCU DST SW FEW140=
200907011700 METAR MRLM 011700Z 02006KT 9999 FEW030 SCT140 SCT250 31/25 A2987=
200907011800 METAR MRLM 011800Z 36007KT 9999 FEW030 BKN250 31/25 A2982 RMK FEW140=
200907011900 METAR MRLM 011900Z 36009KT 9999 SCT030 BKN250 31/25 A2981 RMK CB DST SE TRAC E AC=
200907012000 METAR MRLM 012000Z 02008KT 9999 SCT030 BKN250 31/25 A2979 RMK CB SE TRACE AC=
200907012100 METAR MRLM 012100Z 03008KT 9999 SCT035 SCT250 31/24 A2979 RMK CB DST SW=
200907012200 METAR MRLM 012200Z 04008KT 9999 BKN025 30/25 A2979 RMK CB DST S SW FEW110 FEW250=
200907012300 METAR MRLM 012300Z 06003KT 9999 SCT020 SCT110 29/25 A2981 RMK CB RN DST S SW TRACE CI HZ ARND=
200907020000 METAR MRLM 020000Z 18002KT 9999 BKN020 29/25 A2981 RMK CB RN S SW W FEW110 TRACE CI HZ ARND=
200907020100 METAR MRLM NIL=
200907020200 METAR MRLM NIL=
200907020300 METAR MRLM NIL=
200907020400 METAR MRLM NIL=
200907020500 METAR MRLM NIL=
200907020600 METAR MRLM NIL=
200907020700 METAR MRLM NIL=
200907020800 METAR MRLM NIL=
200907020900 METAR MRLM NIL=
200907021000 METAR MRLM NIL=
200907021100 METAR MRLM NIL=
200907021200 METAR MRLM 021200Z NIL=
200907021300 METAR MRLM 021300Z 20005KT CAVOK 26/23 A2986 RMK TRACE CU CI BKN100 HZ SE=
200907021400 METAR MRLM 021400Z 21003KT 9999 FEW020 BKN100 28/24 A2989 RMK HZ SE=
200907021500 METAR MRLM 02002KT 9999 SCT030 SCT100 31/24 A2989 RMK HZ SE=
200907021600 METAR MRLM 021600Z 36008KT 9999 BKN025 SCT100 29/25 A2990 RMK RN DST N NE HZ ARND VL MX VTO 16KT=
200907021700 METAR MRLM 021700Z 35010KT 9999 BKN025 SCT100 29/24 A2989 RMK RN DST N NE HZ ARND=
200907021800 METAR MRLM 021800Z 33009KT 9999 BKN025 29/24 A2988 RMK RN DST NE NW FEW100 HZ ARND=
200907021900 METAR MRLM 021900Z 29006KT 9999 SCT030 BKN110 29/23 A2985 RMK RN DST E HZ ARND=
200907022000 METAR MRLM 022000Z 28006KT 9999 DZ SCT030 BKN110 30/23 A2985 RMK HZ ARND=
200907022100 METAR MRLM 022100Z 30005KT 9999 SCT030 BKN100 30/24 A2983 REDZ CB TS DST N QUAD HZY=
200907022200 METAR MRLM 022200Z 04007KT 2000 TSRA SCT010CB FEW015 24/23 A2985 RMK VEL MAX VTO 16KT=
200907022300 METAR MRLM 022300Z 21003KT 9999 BKN010 SCT100 24/23 A2987 RETSRA RMK CB RN DST W HZ SE=
200907030000 METAR MRLM 030000Z 23004KT 9999 SCT010 SCT100 24/22 A2985 RMK TCU RN DST NW N HZ SE=
200907030100 METAR MRLM NIL=
200907030200 METAR MRLM NIL=
200907030300 METAR MRLM NIL=
200907030400 METAR MRLM NIL=
200907030500 METAR MRLM NIL=
200907030600 METAR MRLM NIL=
200907030700 METAR MRLM NIL=
200907030800 METAR MRLM NIL=
200907030900 METAR MRLM NIL=
200907031000 METAR MRLM NIL=
200907031100 METAR MRLM NIL=
200907031200 METAR MRLM NIL=
200907031300 METAR MRLM 031300Z 23004KT CAVOK 25/22 A2989 RMK TRACE SC SCT110 FEW150 CB RN N NE E SE=
200907031400 METAR MRLM 031400Z 23004KT 9999 FEW015 SCT090 26/23 A2986 RMK FEW140 SCT270 CB RN DST N SE=
200907031500 METAR MRLM NIL=
200907031600 METAR MRLM 031600Z 25004KT 9999 SCT025 SCT090 28/24 A2992 RMK CBS RN DST N NE FEW140=
200907031700 METAR MRLM 031700Z 30007KT 9999 BKN020 29/24 A2991 RMK FEW090 TSTM DST E CB RN DST N E=
200907031800 METAR MRLM 031800Z 28007KT 9999 TSRA FEW010CB BKN020 28/24 A2987 RMK SCT100 VIS 8KMS E SE=
200907031900 METAR MRLM 031900Z 27004KT 8000 TSRA FEW010CB BKN020 26/24 A2987=
200907032000 METAR MRLM 032000Z 35016KT 6000 -RA VCSH BKN007 SCT090 26/25 A2986 RETS RMK VIS SE S 3KMS=
200907032100 METAR MRLM 032100Z 32009KT 6000 -RA FEW007 BKN020 26/24 A2986 RMK FEW090 CB DST QUAD N E=
200907032200 METAR MRLM 032200Z 25007KT 8000 TSRA FEW010CB BKN015 25/23 A2987 RMK TS E=
200907032300 METAR MRLM 032300Z 26006KT 4000 RA BKN015 24/23 A2987 RETS RMK FEW090=
200907040000 METAR MRLM 040000Z 22006KT 7000 RA BKN015 24/23 A2988 RMK CB DST QUAD N E FEW090 TRACE ST=
200907040100 METAR MRLM NIL=
200907040200 METAR MRLM NIL=
200907040300 METAR MRLM NIL=
200907040400 METAR MRLM NIL=
200907040500 METAR MRLM NIL=
200907040600 METAR MRLM NIL=
200907040700 METAR MRLM NIL=
200907040800 METAR MRLM NIL=
200907040900 METAR MRLM NIL=
200907041000 METAR MRLM NIL=
200907041100 METAR MRLM NIL=
200907041200 METAR MRLM 041200Z NIL=
200907041300 METAR MRLM 041300Z 22004KT 9999 FEW015 BKN270 24/23 A2992 RMK FEW090 CB RN DST QUAD N HZ ARND=
200907041400 METAR MRLM 041400Z 24005KT 9999 FEW015 SCT100 BKN270 26/23 A2993 RMK CB RN DST QUAD N HZ ARND=
200907041500 METAR MRLM 041500Z 22003KT 9999 TSRA FEW010CB SCT025 SCT100 27/25 A2995 RMK VIS 8000 NE E=
200907041600 METAR MRLM 041600Z 19002KT 4000 TSRA FEW010CB BKN015 26/25 A2996 RMK FEW090 TS N E=
200907041700 METAR MRLM 041700Z 33008KT 5000 RA SCT007 BKN012 24/23 A2997 RETS RMK CB DST QUAD N E=
200907041800 METAR MRLM 041800Z 23003KT 8000 RA FEW006 SCT025 SCT100 24/23 A2995 RMK VIS 9999 S CB DST N NE E=
200907041900 METAR MRLM 041900Z 20004KT 9999 FEW015 BKN090 25/23 A2994 RERA RMK FEW250 CB RN HZ DST ARND=
200907042000 METAR MRLM 042000Z 19005KT 9999 DZ BKN110 SCT150 26/24 A2990 RMK CB RN DST QUAD E HZ ARND=
200907042100 METAR MRLM 042100Z 18004KT CAVOK 28/24 A2987 REDZ SCT110 SCT260 CB RN N E HZY=
200907042200 METAR MRLM 042200Z 18003KT CAVOK 28/24 A2985 SCT150 SCT260 HZY=
200907042300 METAR MRLM 042300Z 00000KT CAVOK28/24 A2985 BKN150 SCT260 HZY=
200907050000 METAR MRLM 050000Z 21002KT CAVOK 27/25 A2985 VSBY N E 5KM DUE HZ SCT150 SCT250=
200907050100 METAR MRLM NIL=
200907050200 METAR MRLM NIL=
200907050300 METAR MRLM NIL=
200907050400 METAR MRLM NIL=
200907050500 METAR MRLM NIL=
200907050600 METAR MRLM NIL=
200907050700 METAR MRLM NIL=
200907050800 METAR MRLM NIL=
200907050900 METAR MRLM NIL=
200907051000 METAR MRLM NIL=
200907051100 METAR MRLM NIL=
200907051200 METAR MRLM NIL=
200907051300 METAR MRLM 051300Z 26002KT 9999 FEW010 BKN100 25/22 A2987 RMK RN DST=
200907051400 METAR MRLM 051400Z 25004KT 9999 SCT020 SCT100 26/22 A2987 RN SW E SE HZY=
200907051500 METAR MRLM 051500Z 26004KT 9999 SCT020 SCT100 27/22 A2989 RN E HZY=
200907051600 METAR MRLM 051600Z 00000KT 9999 BKN025 SCT090 28/23 A2989 RN S E HZY=
200907051700 METAR MRLM 051700Z 15004KT 6000 RA BKN010 26/24 A2989 VSBY N NE 3KM FEW090=
200907051800 METAR MRLM 051800Z 26004KT 9999 +DZ SCT010 BKN090 26/24 A2986 RERA=
200907051900 METAR MRLM 051900Z 27005KT 9999 +DZ FEW020 BKN090 28/24 A2984 RN SW HZY=
200907052000 METAR MRLM 052000Z 28005KT 9999 FEW020 BKN100 29/24 A2984 REDZ RN W NW N HZY=
200907052100 METAR MRLM 052100Z 30005KT 9999 -DZ SCT020 SCT100 28/24 A2983 RMK HZ ARND=
200907052200 METAR MRLM 052200Z 23003KT 9999 SCT020 BKN090 28/24 A2981 REDZ RMK RN DST W SE E HZ ARND=
200907052300 METAR MRLM 052300Z 11010KT 9999 +DZ BKN015 SCT090 27/24 A2984 RMK HZ ARND=
200907060000 METAR MRLM 060000Z 18002KT 9999 +DZ BKN010 25/23 A2985 RMK RN DST ARND FEW09 0=
200907060100 METAR MRLM NIL=
200907060200 METAR MRLM NIL=
200907060300 METAR MRLM NIL=
200907060400 METAR MRLM NIL=
200907060500 METAR MRLM NIL=
200907060600 METAR MRLM NIL=
200907060700 METAR MRLM NIL=
200907060800 METAR MRLM NIL=
200907060900 METAR MRLM NIL=
200907061000 METAR MRLM NIL=
200907061100 METAR MRLM NIL=
200907061200 METAR MRLM 061200Z NIL=
200907061300 METAR MRLM 061300Z 00000KT CAVOK 25/23 A2986 RMK BKN100 TRACE CI HZ ARND=
200907061400 METAR MRLM 061400Z 22002KT CAVOK 29/23 A2986 RMK TRACE CU CI FEW100 BKN120 HZ SE=
200907061500 METAR MRLM 061500Z 36007KT CAVOK 29/23 A2986 RMK TRACE CU SCT120 SCT250 HZ SE=
200907061600 METAR MRLM 061600Z 34008KT 9999 FEW030 SCT250 29722 A2986 RMK FEW120 HZ SE=
200907061700 METAR MRLM 061700Z 35008KT 9999 FEW035 BKN250 31/22 A2985 RMK HZ SE=
200907061800 METAR MRLM 061800Z 35010KT 9999 FEW040 BKN250 31/23 A2985 RMK HZ SE=
200907061900 METAR MRLM 061900Z 31009KT 9999 SCT035 SCT250 30/24 A2983 RMK HZ LEVE SE=
200907062000 METAR MRLM 062000Z 33011KT 9999 FEW030 BKN250 29/24 A2980 RMK CB DST S FEW12 0 HZ LEVE SE=
200907062100 METAR MRLM 062100Z 35008KT 9999 FEW030 OVC250 30/24 A2978 RMK CB DST S SW TRACE AC HZ LGT ARND=
200907062200 METAR MRLM 062200Z 35008KT 9999 FEW025 OVC250 30/24 A2978 RMK CB DST SW W HZ LGT ARND=
200907062300 METAR MRLM 062300Z 33006KT 9999 FEW025 OVC250 29/24 A2978 RMK CB RN DST SW W HZ ARND=
200907070000 METAR MRLM 070000Z 00000KT 9999 SCT020 SCT250 28/24 A2980 RMK CB RN DST S SW W FEW120 HZ ARND=
200907070100 METAR MRLM NIL=
200907070200 METAR MRLM NIL=
200907070300 METAR MRLM NIL=
200907070400 METAR MRLM NIL=
200907070500 METAR MRLM NIL=
200907070600 METAR MRLM NIL=
200907070700 METAR MRLM NIL=
200907070800 METAR MRLM NIL=
200907070900 METAR MRLM NIL=
200907071000 METAR MRLM NIL=
200907071100 METAR MRLM NIL=
200907071200 METAR MRLM 071200Z NIL=
200907071300 METAR MRLM 071300Z 23004KT CAVOK 25/23 A2984 RMK TRACE SC CI OVC090 CB DST NW HZ ARND=
200907071400 METAR MRLM NIL=
200907071500 METAR MRLM 071500Z 31003KT 9999 FEW035 SCT280 30/23 A2986 RMK FEW110 CB DST NW HZ LGT ARND=
200907071600 METAR MRLM 071600Z 01003KT 9999 FEW030 BKN280 31/23 A2985 RMK CB DST W NW N TRACE AC HZ LGT ARND=
200907071700 METAR MRLM 071700Z 35009KT 9999 FEW040 BKN280 31/23 A2984 RMK CB DST N TRACE AC HZ LGT ARND=
200907071800 METAR MRLM 071800Z 35010KT 9999 FEW035 BKN280 31/280 31/25 A2983 RMK TRACE SC AC CB DST N HZ ARND LGT=
200907071900 METAR MRLM 071900Z 35010KT 9999 FEW035 BKN280 31/24 A2981 RMK FEW140 CB DST N E W HZ LGT ARND=
200907072000 METAR MRLM 072000Z 35011KT 9999 FEW030 BKN280 31/25 A2978 RMK CB DST E SE S TRACE AC HZ LGT ARND=
200907072100 METAR MRLM 072100Z 35008KT 9999 FEW035 BKN280 31/24 A2979 RMK TRACE AC CB DST E SE S SW LGT HZ ARND=
200907072200 METAR MRLM 072200Z 35008KT 9999 FEW030 BKN280 30/24 A2976 RMK CBS RN DST S TRACE AC HZ ARND=
200907072300 METAR MRLM 072300Z 33005KT 9999 FEW025 BKN270 29/24 A2977 RMK CB DST SE S SW W RN DST S SW TRACE AC=
200907080000 METAR MRLM 080000Z 23002KT CAVOK 28/25 A2979 RMK TRACE CU FEW130 FEW150 BKN270 CB DST SE S SW W RN S=
200907080100 METAR MRLM NIL=
200907080200 METAR MRLM NIL=
200907080300 METAR MRLM NIL=
200907080400 METAR MRLM NIL=
200907080500 METAR MRLM NIL=
200907080600 METAR MRLM NIL=
200907080700 METAR MRLM NIL=
200907080800 METAR MRLM NIL=
200907080900 METAR MRLM NIL=
200907081000 METAR MRLM NIL=
200907081100 METAR MRLM NIL=
200907081200 METAR MRLM NIL=
200907081300 METAR MRLM 081300Z 21003KT CAVOK 26/23 A2980 RMK FEW140 BKN280 CBS RN DST NW HZ ARND=
200907081400 METAR MRLM 081400Z 22003KT CAVOK 27/23 A2981 RMK TRACE CU AC FEW140 BKN270 CBS RN DST NW N NE E=
200907081500 METAR MRLM 081500Z 28003KT CAVOK 28/24 A2984 RMK TRACE CU SCT130 SCT150 FEW270 CBS RN DST N E QDS=
200907081600 METAR MRLM 081600Z 27002KT 9999 DZ FEW025 BKN090 27/24 A2989 RMK CBS RN DST N E TSTM DST NE=
200907081700 METAR MRLM 081700Z 25002 8000 TSRA FEW010CB SCT015 SCT090 27/24 A2988 RMK TS NE VIS S W UNL=
200907081800 METAR MRLM 081800Z 10005KT 8000 TSRA FEW015CB SCT025 SCT130 26/25 A2986 RMK VIS SW W UNLTD TS E SE=
200907081900 METAR MRLM 081900Z 12009KT 9999 RA SCT015 SCT130 26/24 A2981 RETS RMK CB DST E SE S=
200907082000 METAR MRLM 082000Z 13007KT CAVOK 26/23 A2977 RERA RMK TRACE SC BKN140 SCT260 CB RN DST SE=
200907082100 METAR MRLM 082100Z 20004KT CAVOK 27/23 A2975 RMK CB DST NW N DZ DST SE FEW090 BKN140 FEW260=
200907082200 METAR MRLM 082200Z 27004KT CAVOK 27/24 A2973 RMK CB DST W NW N TRACE AC BKN140 FEW260=
200907082300 METAR MRLM 082300Z 00000KT CAVOK 27/24 A2977 TRACE AC BKN140 FEW260 CB DST W=
200907090000 METAR MRLM 090000Z 00000KT CAVOK 27/24 A2980 TRACE SCT AC BKN140 FEW260 CB RN DST NW N NE=
200907090100 METAR MRLM NIL=
200907090200 METAR MRLM NIL=
200907090300 METAR MRLM NIL=
200907090400 METAR MRLM NIL=
200907090500 METAR MRLM NIL=
200907090600 METAR MRLM NIL=
200907090700 METAR MRLM NIL=
200907090800 METAR MRLM NIL=
200907090900 METAR MRLM NIL=
200907091000 METAR MRLM NIL=
200907091100 METAR MRLM NIL=
200907091200 METAR MRLM NIL=
200907091300 METAR MRLM 091300Z 22003KT CAVOK 24/22 A2985 RMK BKN120 SCT250 CB TS DST N NE HZ ARND=
200907091400 METAR MRLM 091400Z 00000KT CAVOK 26/23 A2988 RMK TRACE CU BKN120 FEW250 CB TS DST N NE HZ ARND=
200907091500 METAR MRLM 091500Z 22003KT CAVOK 26/23 A2990 RMK TRACE CU BKN120 CB TS DST QUAD N HZ ARND=
200907091600 METAR MRLM 091600Z 23003KT CAVOK 27/24 A2990 RMK TRACE CU BKN110 FEW140 RN DST W NW N HZ ARND=
200907091700 METAR MRLM NIL=
200907091800 METAR MRLM 091800Z 26008KT CAVOK 28/23 A2981 RMK TRACE CU BKN140 FEW250 RN DST W HZ LGT ARND=
200907091900 METAR MRLM 091900Z 30008KT 9999 FEW030 BKN140 29/24 A2978 RMK FEW250 HZ LGT ARND=
200907092000 METAR MRLM 092000Z 34011KT 9999 FEW020 BKN140 29/24 A2980 RMK HZ LGT ARND=
200907092100 METAR MRLM 092100Z 30007KT 9999 FEW025 BKN130 29/23 A2981 HZ SE=
200907092200 METAR MRLM 092200Z 28007KT 9999 SCT020 BKN130 28/23 A1981 TCU SW HZ SE=
200907092300 METAR MRLM 092300Z 31006KT 9999 FEW020 OVC120 28/23 A2983 TCU SW W HZY=
200907100000 METAR MRLM 100000Z 30003KT 9999 SCT020 BKN110 27/24 A2986 CB DST SW RN W NE HZY=
200907100100 METAR MRLM NIL=
200907100200 METAR MRLM NIL=
200907100300 METAR MRLM NIL=
200907100400 METAR MRLM NIL=
200907100500 METAR MRLM NIL=
200907100600 METAR MRLM NIL=
200907100700 METAR MRLM NIL=
200907100800 METAR MRLM NIL=
200907100900 METAR MRLM NIL=
200907101000 METAR MRLM NIL=
200907101100 METAR MRLM NIL=
200907101200 METAR MRLM 101200Z 22004KT CAVOK 24/22 A2986 RMK TRACE CU BKN110 FEW260 RN DST E HZ ARND=
200907101300 METAR MRLM 101300Z 00000KT CAVOK 25/23 A2987 RMK TRAZAS OVC110 HZY=
200907101400 METAR MRLM 101400Z 00000KT CAVOK 26/23 A2989 TRACE CU OVC110 HZ SE=
200907101500 METAR MRLM 101500Z 00000KT CAVOK 28/24 A2992 TRAZAS CU OVC140 HZY=
200907101600 METAR MRLM 101600Z 00000KT 9999 FEW030 BKN140 29/24 A2981 RN N HZY=
200907101700 METAR MRLM 101700Z 04002KT 9999 FEW025 BKN140 29/24 A2990 HZY=
200907101800 METAR MRLM 101800Z 02006KT 9999 FEW025 SCT140 30/25 A2989 FEW260 HZY=
200907101900 METAR MRLM 101900Z 35005KT 9999 FEW030 BKN120 31/25 A2986 TCU SW W CB N FEW260 HZY=
200907102000 METAR MRLM 102000Z 35008KT 9999 SCT025 SCT120 30/25 A2985 CB S SW NE FEW260 HZY=
200907102100 METAR MRLM 102100Z 36014KT 3000 +RA BKN020 28/24 A2984 RMK FEW090=
200907102200 METAR MRLM 102200Z 03004KT 9999 BKN025 SCT100 28/23 A2984 RERA RMK RN DST SW HZ ARND=
200907102300 METAR MRLM 102300Z 24005KT 8000 VCRA BKN020 26/24 A2984 RMK FEW100=
200907110000 METAR MRLM 110000Z 26004KT 3000 +RA BKN015 25/23 A2987 RMK FEW090=
200907110100 METAR MRLM NIL=
200907110200 METAR MRLM NIL=
200907110300 METAR MRLM NIL=
200907110400 METAR MRLM NIL=
200907110500 METAR MRLM NIL=
200907110600 METAR MRLM NIL=
200907110700 METAR MRLM NIL=
200907110800 METAR MRLM NIL=
200907110900 METAR MRLM NIL=
200907111000 METAR MRLM NIL=
200907111100 METAR MRLM NIL=
200907111200 METAR MRLM 111200Z NIL=
200907111300 METAR MRLM 111300Z 29007KT 9999 FEW010 SCT140 25/22 A2990 RMK SCT280 CB RN DST N NE E=
200907111400 METAR MRLM 111400Z 29003KT 9999 FEW018 BKN120 26/22 A2996 RMK FEW140 CB RN N E=
200907111500 METAR MRLM 111500Z 27002KT 9999 FEW018 BKN110 26/22 A2996 RMK FEW130 FEW150 CB RN DST N E=
200907111600 METAR MRLM 111600Z 01008KT 8000 VCSH BKN020 SCT090 26/22 A3000 VIS W UNL=
200907111700 METAR MRLM 111700Z 16005KT 9999 +DZ FEW010 SCT090 BKN120 28/21 A3000 RERA RMK CB RN DST N E=
200907111800 METAR MRLM 111800Z 19004KT 9999 FEW020 BKN090 26/22 A2994 REDZ RMK FEW140 FEW260 CB RN CUADRANTES N E=
200907111900 METAR MRLM 111900Z 12004KT CAVOK 28/22 A2990 RMK TRACE SC SCT110 SCT140=
200907112000 METAR MRLM 112000Z 10006KT CAVOK 28/22 A2987 RMK TRACE SC CU AC BKN150 SCT26 0 CB RN N NE=
200907112100 METAR MRLM 112100Z 09006KT CAVOK 28/23 A2985 RMK TRACE SC AC BKN150=
200907112200 METAR MRLM 112200Z 09005KT CAVOK 28/22 A2985 RMK TRACE SC AC BKN150 FE260 CB RN DST N NE=
200907112300 METAR MRLM 112300Z 09005KT CAVOK 28/22 A2985 RMK TRACE SC AC BKN140 FEW260 CB RN DST N NE=
200907120000 METAR MRLM 120000Z 00000KT CAVOK 27/23 A2987 RMK TRACE CI FEW120 BKN150 CB RN DST W N=
200907120100 METAR MRLM NIL=
200907120200 METAR MRLM NIL=
200907120300 METAR MRLM NIL=
200907120400 METAR MRLM NIL=
200907120500 METAR MRLM NIL=
200907120600 METAR MRLM NIL=
200907120700 METAR MRLM NIL=
200907120800 METAR MRLM NIL=
200907120900 METAR MRLM NIL=
200907121000 METAR MRLM NIL=
200907121100 METAR MRLM NIL=
200907121200 METAR MRLM 121200Z=
200907121300 METAR MRLM 121300Z 26003KT 9999 FEW025 BKN080 24/21 A2989 RMK RN DST N=
200907121400 METAR MRLM 121400Z 31002KT 9999 SCT025 SCT080 25/21 A2991 RMK DZ N E=
200907121500 METAR MRLM 121500Z 28006KT 9999 FEW030 BKN080 28/22 A2991 RMK FEW280 CB RNDST N=
200907121600 METAR MRLM 121600Z 28007KT CAVOK 29/23 A2991 RMK TRACE SC CU SCT080 SCT280 CB RN DST N=
200907121700 METAR MRLM 121700Z 32008KT 9999 FEW030 SCT080 29/22 A2990 RMK SCT280 CB RN DST N=
200907121800 METAR MRLM 121800Z 31009KT 9999 FEW030 SCT080 29/23 A2988 RMK SCT280 CB RN DST N=
200907121900 METAR MRLM 121900Z 34011KT 9999 FEW030 BKN280 31/25 A2987 RMK FEW090 CB RN DST N=
200907122000 METAR MRLM 122000Z 32012KT 9999 FEW035 SCT140 31/14 A2986 RMK FEW280 CB RN DST N NE=
200907122100 METAR MRLM 122100Z 32011KT 9999 FEW030 SCT130 30/24 A2985 RMK FEW080 FEW 280 CBS RN DST N=
200907122200 METAR MRLM 122200Z 32010KT 9999 FEW030 SCT090 30/24 A2985 RMK FEW280=
200907122300 METAR MRLM 122300Z 32006KT 9999 FEW020 SCT140 28/24 A2986 RMK SCT280 CBS RN DST NW N HZY=
200907130000 METAR MRLM 130000Z 35007KT 9999 FEW015 BKN140 28/25 A2988 RMK FEW280 CB DST S NW N RN DST NW N HZY=
200907130100 METAR MRLM NIL=
200907130200 METAR MRLM NIL=
200907130300 METAR MRLM NIL=
200907130400 METAR MRLM NIL=
200907130500 METAR MRLM NIL=
200907130600 METAR MRLM NIL=
200907130700 METAR MRLM NIL=
200907130800 METAR MRLM NIL=
200907130900 METAR MRLM NIL=
200907131000 METAR MRLM NIL=
200907131100 METAR MRLM NIL=
200907131200 METAR MRLM 131200Z 27002KT 8000 +DZ VCTS BKN010 FEW015CB 25/23 A2989 RMK FEW090 VIS NE E SE 5000MTS=
200907131300 METAR MRLM 131300Z 20005KT 8000 +DZ VCTS VCSH BKN010 FEW015CB 24/23 A2989 RMK FEW090 VIS 5KMS N NE E SE=
200907131400 METAR MRLM 131400Z 23004KT 8000 -RA VCTS VCSH FEW015CB BKN020 24/23 A2990 VIS 4KMS E SE S=
200907131500 METAR MRLM 131500Z 22003KT 9999 +DZ BKN015 25/23 A2989 RETSRA RMK CB TS DST S SE FEW090 HZY=
200907131600 METAR MRLM 131600Z 20004KT 9999 BKN015 26/24 A2988 REDZ RMK RN DST S SE E FEW090 HZ ARND=
200907131700 METAR MRLM 131700Z 19005KT 9999 BKN020 28/24 A2988 RMK RN DST NE E S SE FEW100 HZ ARND=
200907131800 METAR MRLM 131800Z 00000KT 9999 BKN015 27/25 A2986 RERA RMK RN DST W FEW090 HZ ARND=
200907131900 METAR MRLM 131900Z 19003KT 9999 BKN020 SCT090 29/25 A2984 RMK RN DST S NE N HZY=
200907132000 METAR MRLM 132000Z 04006KT 6000 -RA BKN020 28/25 A2983 RMK FEW090 VIS SW UNL=
200907132100 METAR MRLM 132100Z 36003KT 9999 BKN015 SCT090 28/25 A2982 RERA RMK VIS 6000 N NE SE HZ=
200907132200 METAR MRLM 132200Z 36003KT 9999 SCT015 SCT090 28/25 A2983 RMK VIS 6000 N E SE HZ=
200907132300 METAR MRLM 132300Z 01003KT 9999 SCT020 SCT100 28/24 A2984 RMK RN DST NE VIS 5000 NW SE HZ TRACE CI=
200907140000 METAR MRLM 140000Z 00000KT 9999 BKN015 SCT100 27/24 A2987 RMK RN DST E VIS 5000 NW SE HZ TRACE CI=
200907140100 METAR MRLM NIL=
200907140200 METAR MRLM NIL=
200907140300 METAR MRLM NIL=
200907140400 METAR MRLM NIL=
200907140500 METAR MRLM NIL=
200907140600 METAR MRLM NIL=
200907140700 METAR MRLM NIL=
200907140800 METAR MRLM NIL=
200907140900 METAR MRLM NIL=
200907141000 METAR MRLM NIL=
200907141100 METAR MRLM NIL=
200907141200 METAR MRLM 141200Z 24003KT 9999 FEW010 SCT110 SCT260 23/22 A2991 RMK RN DST NE E HZ ARND=
200907141300 METAR MRLM 141300Z 21005KT 9999 FEW010 SCT100 24/22 A2992 RMK FEW260 RN DST NE E HZ ARND=
200907141400 METAR MRLM 141400Z 20002KT 9999 SCT015 SCT100 26/23 A2993 RMK RN DST NE E SE CB DST N TRACE CI HZY=
200907141500 METAR MRLM 141500Z 10016KT 9999 SCT020 SCT100 27/23 A2993 RMK RN DST SE E N HZY=
200907141600 METAR MRLM 141600Z 09003KT 9999 SCT025 BKN100 28/22 A2995 RMK RN DST N E HZY=
200907141700 METAR MRLM 141700Z 06003KT 9999 FEW035 BKN100 29/21 A2991 RMK HZ ARND=
200907141800 METAR MRLM 141800Z 08005KT CAVOK 30/22 A2990 RMK TRACE CU BKN100 FEW250 CB DST N NE HZ ARND=
200907141900 METAR MRLM 141900Z 07006KT 9999 FEW030 SCT110 30/24 A2989 RMK FEW250 RN DST NE HZ ARND=
200907142000 METAR MRLM 142000Z 07004KT 9999 FEW030 BKN100 30/23 A2987 RMK TRACE CI HZ ARND=
200907142100 METAR MRLM 142100Z 02006KT CAVOK 30/23 A2984 TRAZAS CU FEW120 BKN250 HZY=
200907142200 METAR MRLM 142200Z 01008KT CAVOK 30/24 A2983 TRACE CU FEW130 BKN250 HZY=
200907142300 METAR MRLM 142300Z 35007KT CAVOK 30/24 A2982 TRACE CU AC OVC250 HZY=
200907150000 METAR MRLM 150000Z 00000KT CAVOK 28/23 A2984 TRACE AC OVC250 HZY=
200907150100 METAR MRLM NIL=
200907150200 METAR MRLM NIL=
200907150300 METAR MRLM NIL=
200907150400 METAR MRLM NIL=
200907150500 METAR MRLM NIL=
200907150600 METAR MRLM NIL=
200907150700 METAR MRLM NIL=
200907150800 METAR MRLM NIL=
200907150900 METAR MRLM NIL=
200907151000 METAR MRLM NIL=
200907151100 METAR MRLM NIL=
200907151200 METAR MRLM NIL=
200907151300 METAR MRLM 151300Z 29003KT 1000 +TSRA SCT010CB SCT015 23/21 A2981=
200907151400 METAR MRLM 151400Z 24006KT 4000 -TSRA SCT010CB SCT015 23/22 A2995 FEW090=
200907151500 METAR MRLM 151500Z 19005KT 9999 DZ VCTS SCT010CB BKN015 23/22 A2995 VSBY E SE S 8KM FEW090=
200907151600 METAR MRLM 151600Z 21004KT 9999 +DZ SCT020 SCT090 23/22 A2993=
200907151700 METAR MRLM 151700Z 26004KT CAVOK 24/23 A2992 REDZ SCT090 SCT130 FEW270 CB RN W N TSTM NE TRACE SCT=
200907151800 METAR MRLM 151800Z 05003KT 9999 FEW020 SCT090 27/23 A2993 SCT130 CB RN N E BKN NE=
200907151900 METAR MRLM 151900Z 10002KT 9999 FEW020 SCT090 26/23 A2991 SCT120 CB RN N E HZY=
200907152000 METAR MRLM 152000Z 13005KT 9999 +DZ FEW015 SCT090 BKN110 25/23 A2987 CB RN S W=
200907152100 METAR MRLM 152100Z 09012KT 9999 +DZ BKN090 SCT120 27/22 A29982 RMK CB RN DST N=
200907152200 METAR MRLM 152200Z 27008KT CAVOK 25/23 A2979 REDZ RMK BKN090 SCT110=
200907152300 METAR MRLM 152300Z 29003KT 9999 FEW015 BKN120 26/24 A2985 RMK FEW110=
200907160000 METAR MRLM 160000Z 24004KT 9999 FEW010 BKN130 26/24 A2988 RMK HZ ARND FEW090=
200907160100 METAR MRLM NIL=
200907160200 METAR MRLM NIL=
200907160300 METAR MRLM NIL=
200907160400 METAR MRLM NIL=
200907160500 METAR MRLM NIL=
200907160600 METAR MRLM NIL=
200907160700 METAR MRLM NIL=
200907160800 METAR MRLM NIL=
200907160900 METAR MRLM NIL=
200907161000 METAR MRLM NIL=
200907161100 METAR MRLM NIL=
200907161200 METAR MRLM 161200Z 32003KT 7000 TSRA FEW010CB SCT020 SCT090 23/22 A2988 RMK CB DST QUAD N E TSTM NE=
200907161300 METAR MRLM 161300Z 23003KT 9999 RA OVC020 24/22 A2989 RETS VIS N NE 7000MTS=
200907161400 METAR MRLM 161400Z 19003KT 9999 OVC025 24/23 A2991 RERA TCU RN HZ ARND=
200907161500 METAR MRLM 161500Z 17004KT 9999 OVC020 26/23 A2991 RMK TCU HZ ARND RN DST W NW N NE E=
200907161600 METAR MRLM 161600Z 18002KT 9999 BKN025 29/24 A2991 RMK FEW090 DZ N HZ ARND=
200907161700 METAR MRLM 161700Z 07004KT 9999 SCT030 30/24 A2989 RMK TRACE AC CI HZ ARND CB DST E=
200907161800 METAR MRLM 161800Z 10005KT 9999 FEW030 31/25 A2987 RMK TCU S SW FEW120 TRACE CI HZ ARND=
200907161900 METAR MRLM 161900Z 10007KT 9999 FEW030 SCT090 31/25 A2985 RMK HZ ARND=
200907162000 METAR MRLM 162000Z 07005KT 9999 FEW030 31/25 A2983 RMK TRACE CI CB NE E=
200907162100 METAR MRLM 162100Z 08007KT 9999 FEW030 BKN090 31/25 A2983 RMK TCU RN E CB S HZ ARND=
200907162200 METAR MRLM 162200Z 07005KT 9999 FEW030 SCT280 31/25 A2982 RMK FEW110 HZ LEVE ARND=
200907162300 METAR MRLM 162300Z 08006KT 9999 FEW025 BKN090 30/25 A2983 RMK FEW280 HZ ARND=
200907170000 METAR MRLM 170000Z 08004KT CAVOK 29/25 A2983 RMK TRACE CU SCT080 SCT280 DZ E SE HZ ARND=
200907170100 METAR MRLM NIL=
200907170200 METAR MRLM NIL=
200907170300 METAR MRLM NIL=
200907170400 METAR MRLM NIL=
200907170500 METAR MRLM NIL=
200907170600 METAR MRLM NIL=
200907170700 METAR MRLM NIL=
200907170800 METAR MRLM NIL=
200907170900 METAR MRLM NIL=
200907171000 METAR MRLM NIL=
200907171100 METAR MRLM NIL=
200907171200 METAR MRLM 171200Z 24003KT 9999 SCT010 SCT120 23/21 A2988 RMK FEW250 RN DST W NE HZ ARND=
200907171300 METAR MRLM 171300Z 00000KT 9999 DZ BKN010 25/24 A2983 RMK FEW090 RN DST NE HZ ARND=
200907171400 METAR MRLM 171400Z 00000KT 9999 +DZ VCTSRA FEW010CB BKN020 26/24 A2984 RMK FEW090 VIS 5000 N NE E=
200907171500 METAR MRLM 171500Z 00000KT 9999 BKN020 26/25 A2986 RETSRA RMK FEW090 VIS 5000 W NW N DUE RN=
200907171600 METAR MRLM 171600Z 10008KT 8000 3500N +DZ VCTSRA FEW010CB BKN020 27/24 A2986=
200907171700 METAR MRLM 171700Z 00000KT 9999 DZ VCTSRA FEW010CB BKN020 26/24 A2987 RMK VIS 6000 NW N=
200907171800 METAR MRLM 171800Z 16003KT 9999 -DZ BKN015 27/25 A2986 RETSRA RMK FEW090 RN DST NW NE HZ ARND=
200907171900 METAR MRLM 171900Z 17004KT 8000 RA OVC015 27/24 A2984 REDZ=
200907172000 METAR MRLM 172000Z 36004KT 9999 -DZ BKN015 SCT090 28/25 A2982 RERA RMK RN DST W SW HZ ARND=
200907172100 METAR MRLM 172100Z 08005KT 9999 -DZ BKN015 28/25 A2981 RMK FEW090 RN DST W E SE HZ ARND=
200907172200 METAR MRLM 172200Z 00000KT 9999 OVC015 28/25 A2982 REDZ RMK RN TS DST SE S RN N NE E SW HZ ARND=
200907172300 METAR MRLM 172300Z 17003KT 9999 -DZ VCSH OVC010 27/25 A2983 RMK CB DST SE E VIS N 4KMS HZ ARND=
200907180000 METAR MRLM 180000Z 00000KT 9999 BKN010 26/24 A2984 REDZ RMK CB TS DST N FEW090 HZ ARND=
200907180100 METAR MRLM NIL=
200907180200 METAR MRLM NIL=
200907180300 METAR MRLM NIL=
200907180400 METAR MRLM NIL=
200907180500 METAR MRLM NIL=
200907180600 METAR MRLM NIL=
200907180700 METAR MRLM NIL=
200907180800 METAR MRLM NIL=
200907180900 METAR MRLM NIL=
200907181000 METAR MRLM NIL=
200907181100 METAR MRLM NIL=
200907181200 METAR MRLM 181200Z 20004KT 9999 -DZ OVC100 25/24 A2987 RMK RN DST N NE E SE HZ ARND=
200907181300 METAR MRLM 181300Z 19003KT 3000 +RA OVC010 25/23 A2989=
200907181400 METAR MRLM 181400Z 20005KT 9999 -DZ VCSH BKN010 25/24 A2991 RERA RMK FEW090 VIS N 6KMS N E SE=
200907181500 METAR MRLM 181500Z 20004KT 9999 -DZ BKN015 26/24 A2991 RMK FEW090 RN DST NE E SE S HZY=
200907181600 METAR MRLM 181600Z 00000KT 9999 SCT015 SCT090 26/25 A2990 REDZ RMK CB RN DST N NE HZY=
200907181700 METAR MRLM 181700Z 19004KT 9999 BKN015 27/25 A2990 RMK FEW090 RN DST NW N NE HZY=
200907181800 METAR MRLM 181800Z 06003KT 9999 SCT020 SCT120 29/25 A2987 RMK TRACE CI TCU DST N NE HZY=
200907181900 METAR MRLM 181900Z 04004KT 9999 SCT025 SCT250 30/25 A2984 RMK FEW100 CB TS DST NE HZY=
200907182000 METAR MRLM 182000Z 03013KT 9999 VCTS VCSH FEW015CB SCT020 SCT100 29/25 A2984 FEW250 VIS 6KMS N HZY=
200907182100 METAR MRLM 182100Z 05003KT 9999 SCT020 SCT100 28/25 A2982 RMK CB TS DST QUAD N HZY=
200907182200 METAR MRLM 182200Z 07007KT 9999 -DZ VCSC VCTS FEW015CB OVC020 28/25 A2983 VIS 6000 N HZY=
200907182300 METAR MRLM 182300Z 03003KT 4000 TSRA SCT015CB BKN020 26/24 A2984 RMK FEW090 VIS 8000S=
200907190000 METAR MRLM 190000Z 24003KT 4000 RA OVC010 25/24 A2985 RETS RMK CB TS DST QUAD N=
200907190100 METAR MRLM NIL=
200907190200 METAR MRLM NIL=
200907190300 METAR MRLM NIL=
200907190400 METAR MRLM NIL=
200907190500 METAR MRLM NIL=
200907190600 METAR MRLM NIL=
200907190700 METAR MRLM NIL=
200907190800 METAR MRLM NIL=
200907190900 METAR MRLM NIL=
200907191000 METAR MRLM NIL=
200907191100 METAR MRLM NIL=
200907191200 METAR MRLM NIL=
200907191300 METAR MRLM 191300Z 22005KT 5000 TSRA FEW010CB BKN015 23/22 A2992 RMK SCT090 TS E=
200907191400 METAR MRLM 191400Z 22003KT 4000 RA FEW008 OVC120 24/23 A2994 RETS CB DST ARND VIS 8000 W NW=
200907191500 METAR MRLM 191500Z 26003KT 8000 -DZ OVC020 24/23 A2994 RERA RMK TSTM NE CB ARND=
200907191600 METAR MRLM 191600Z 22003KT 8000 -DZ BKN020 25/23 A2995 RMK CB DST ARND VIS 9999 QUAD S W TSTM NE FEW090=
200907191700 METAR MRLM 191700Z 30006KT 8000 +DZ BKN020 24/23 A2994 RMK TSTM NE CB DST QUAD NE VIS 9999 SE S SW W=
200907191800 METAR MRLM 191800Z 24006KT 9999 -DZ FEW007 BKN120 24/23 A2992 RMK FEW015 FEW270 CB RN DST NW N NE E TSTM NE=
200907191900 METAR MRLM 191900Z 28004KT 9999 FEW010 BKN120 25/23 A2988 RMK FEW270 CB RN DST NW N NE E=
200907192000 METAR MRLM 192000Z 33007KT 9999 FEW010 BKN130 26/23 A2987 FEW090 FEW270 CB RN DIST W NW N NE E=
200907192100 METAR MRLM 192100Z 27006KT CAVOK 26/23 A2987 TRACE SCT FEW270 SCT090 SCT130 CB RN NW N NE E CB S=
200907192200 METAR MRLM 192200Z 192200Z27006KT CAVOK26/23 A2986 TRACE SCT FEW090 BKN130 FEW270 CB RN NW N NE=
200907192300 METAR MRLM 192300Z 29005KT CAVOK 26/23 A2987 TRACE SCT FEW090 BKN130 FEW270 CB/RN N=
200907200000 METAR MRLM 200000Z 27005KT 9999 FEW010 SCT090 25/23 A2988 CB RN N SCT130=
200907200100 METAR MRLM NIL=
200907200200 METAR MRLM NIL=
200907200300 METAR MRLM NIL=
200907200400 METAR MRLM NIL=
200907200500 METAR MRLM NIL=
200907200600 METAR MRLM NIL=
200907200700 METAR MRLM NIL=
200907200800 METAR MRLM NIL=
200907200900 METAR MRLM NIL=
200907201000 METAR MRLM NIL=
200907201100 METAR MRLM NIL=
200907201200 METAR MRLM 201200Z NIL=
200907201300 METAR MRLM 201300Z 30005KT 9999 FEW020 BKN090 25/22 A2985 TRACE ST CB /RN N DZ SW W=
200907201400 METAR MRLM 201400Z 26006KT 9999 FEW020 BKN090 26/22 A2987 CB RN N=
200907201500 METAR MRLM 201500Z 28015KT CAVOK28/22 A2987 TRACE SCT SCT070 SCT090 SCT280 CB RN N NE E=
200907201600 METAR MRLM NIL=
200907201700 METAR MRLM 201700Z 31013KT 9999 DZ BKN015 27/23 A2990 FEW080 RN ARND=
200907201800 METAR MRLM 201800Z 29008KT 9999 SCT020 SCT080 26/23 A2989 REDZ CB RN ARND=
200907201900 METAR MRLM 201900Z 27006KT 9999 -DZ FEW015 BKN080 26/23 A2990 CB RN HZ ARND=
200907202000 METAR MRLM 202000Z 27007KT 9999 DZ FEW010 BKN080 25/23 A2987 RERA CB RN ARND=
200907202100 METAR MRLM 202100Z 27006KT 9999 OVC015 26/23 A2987 REDZ RMK CB CUADRANTE N RN ARND=
200907202200 METAR MRLM 202200Z 23004KT 9999 -DZ BKN015 26/23 A2986 RMK FEW090=
200907202300 METAR MRLM 202300Z 18004KT 9999 DZ FEW015 SCT110 BKN130 25/23 A2986=
200907210000 METAR MRLM 210000Z 00000KT 9999 -DZ SCT090 BKN110 25/23 A2988 RMK CB RN DST EN LOS CUADRANTES DE N E HZ ARND=
200907210100 METAR MRLM NIL=
200907210200 METAR MRLM NIL=
200907210300 METAR MRLM NIL=
200907210400 METAR MRLM NIL=
200907210500 METAR MRLM NIL=
200907210600 METAR MRLM NIL=
200907210700 METAR MRLM NIL=
200907210800 METAR MRLM NIL=
200907210900 METAR MRLM NIL=
200907211000 METAR MRLM NIL=
200907211100 METAR MRLM NIL=
200907211200 METAR MRLM 211200Z NIL=
200907211300 METAR MRLM 211300Z 22004KT CAVOK 2522 A2982 RMK BKN100 TRACE CI HZ SE=
200907211400 METAR MRLM 211400Z 07003KT CAVOK 28/22 A2987 RMK TRACE CU BKN100 FEW260 HZ SE=
200907211500 METAR MRLM 211500Z 07004KT CAVOK 28/23 A2987 RMK TRACE CU BKN100 FEW260 CB NE N HZ LEVE SE=
200907211600 METAR MRLM 211600Z 07006KT CAVOK 29/23 A2987 RMK TRACE CU AC BKN250 CB DST SW N=
200907211700 METAR MRLM 211700Z 01009KT 9999 FEW035 SCT250 30722 A2987 RMK TRACE AC CB NW=
200907211800 METAR MRLM 211800Z 01008KT 9999 FEW035 SCT250 30/23 A2984 RMK FEW140 TCU SW=
200907211900 METAR MRLM 211900Z 36009KT 9999 FEW035 SCT260 30/23 A2981 RMK TRACE AC TCU SW=
200907212000 METAR MRLM 212000Z 33010KT 9999 FEW035 SCT260 31/23 A2979 RMK TRACE AC CB DST SW=
200907212100 METAR MRLM 212100Z 33009KT 9999 FEW035 BKN260 31/24 A2977 RMK TRACE AC=
200907212200 METAR MRLM 212200Z 34009KT 9999 FEW030 BKN250 30/24 A2976 RMK TRACE AC TCU DST S SW=
200907212300 METAR MRLM 212300Z 35008KT 9999 FEW030 BKN250 29/24 A2978 RMK FEW130 TCU CB DST S SW W=
200907220000 METAR MRLM 220000Z 33007KT 9999 BKN025 28/23 A2980 RMK FEW110 TRACE CI CB DST S SW W HZ LGT SE=
200907220100 METAR MRLM NIL=
200907220200 METAR MRLM NIL=
200907220300 METAR MRLM NIL=
200907220400 METAR MRLM NIL=
200907220500 METAR MRLM NIL=
200907220600 METAR MRLM NIL=
200907220700 METAR MRLM NIL=
200907220800 METAR MRLM NIL=
200907220900 METAR MRLM NIL=
200907221000 METAR MRLM NIL=
200907221100 METAR MRLM NIL=
200907221200 METAR MRLM 221200Z 27003KT 9999 SCT010 SCT100 25/23 A2987 RN N HZ SE=
200907221300 METAR MRLM 221300Z 29003KT 9999 FEW015 SCT100 SCT250 26/23 A2988 RMK HZ SE=
200907221400 METAR MRLM 221400Z 28005KT 9999 FEW020 BKN250 28/23 A2988 RMK FEW100 HZ SE=
200907221500 METAR MRLM 221500Z 28006KT 9999 FEW030 SCT110 SCT250 29/23 A2989=
200907221600 METAR MRLM 221600Z 30007KT 9999 SCT030 BKN250 30/24 A2990 RMK TRACE AC=
200907221700 METAR MRLM 221700Z 32008KT 9999 FEW030 BKN250 30/24 A2988 RMK TRACE AC=
200907221800 METAR MRLM 221800Z 34010KT 9999 FEW035 BKN250 31/24 A2986 RMK TRACE AC TCU DST SE=
200907221900 METAR MRLM 221900Z 34007KT 9999 FEW030 BKN250 29/24 A2983 RMK FEW140=
200907222000 METAR MRLM 222000Z 35011KT 9999 FEW030 BKN250 30/24 A2981 RMK FEW130=
200907222100 METAR MRLM 222100Z 34010KT 9999 FEW025 BKN250 29/25 A2981 RMK FEW130 TCU DST SW=
200907222200 METAR MRLM 222200Z 33009KT 9999 FEW025 BKN250 30/24 A2979 RMK FEW130 TCU DST S SW CB DST NW N HZ SE=
200907222300 METAR MRLM 222300Z 33007KT 9999 FEW020 SCT130 SCT250 29/24 A2981 RMK CB DST S SW N=
200907230000 METAR MRLM 230000Z 29003KT 9999 FEW020 SCT110 28/23 A2984 RMK CB DST S SW N FEW250=
200907230100 METAR MRLM NIL=
200907230200 METAR MRLM NIL=
200907230300 METAR MRLM NIL=
200907230400 METAR MRLM NIL=
200907230500 METAR MRLM NIL=
200907230600 METAR MRLM NIL=
200907230700 METAR MRLM NIL=
200907230800 METAR MRLM NIL=
200907230900 METAR MRLM NIL=
200907231000 METAR MRLM NIL=
200907231100 METAR MRLM NIL=
200907231200 METAR MRLM NIL=
200907231300 METAR MRLM 231300Z NIL=
200907231306 METAR MRLM 231306Z 20004KT 9999 +DZ FEW020 SCT090 BKN120 24/22 A2986 RMK CBS RN DST E QUAD=
200907231400 METAR MRLM 231400Z 00000KT 9999 FEW012 SCT250 28/24 A2984=
200907231401 METAR MRLM 231401Z COR 00000KT 9999 +DZ SCT090 SCT110 25/23 A2989 RMK TRACE ST CBS RN DST ARND=
200907231500 METAR MRLM 231500Z 18006KT 9999 FEW020 BKN090 27/24 A2988 RMK CBS RN DST HZ ARND TRACE CI=
200907231600 METAR MRLM 231600Z 17004KT CAVOK 28/24 A2988 RMK TRACE CU BKN110 SCT270 CBS RN DST N E=
200907231700 METAR MRLM 231700Z 07003KT CAVOK 29/24 A2987 RMK TRACE CU SCT110 BKN260 CBS DST N E=
200907231800 METAR MRLM 231800Z 06005KT 9999 FEW030 SCT110 29/24 A2985 RMK SCT270 CBS DST N E RN DST N=
200907231900 METAR MRLM 231900Z 03006KT 9999 FEW030 SCT120 30/24 A2981 RMK SCT270 CBS DST NW N NE E SE RN DST NW=
200907232000 METAR MRLM 232000Z 02007KT 9999 FEW030 SCT110 30/24 A2980 RMK FEW270 CB DST NW LGT HZ ARND=
200907232100 METAR MRLM 232100Z 02005KT 9999 FEW035 SCT130 30/24 A2978 RMK TCU DST SW FEW280 LGT HZ ARND=
200907232200 METAR MRLM 232200Z 03004KT 9999 FEW030 SCT110 30/34 A2978 RMK FEW280 HZ LGT ARND=
200907232300 METAR MRLM 232300Z 01003KT 9999 FEW030 BKN110 30/24 A2979 RMK FEW280 HZ ARND=
200907240000 METAR MRLM 240000Z 01003KT CAVOK 29/24 A2980 RMK TRACE SC FEW140 BKN090 FEW280 CB DST S SW=
200907240100 METAR MRLM NIL=
200907240200 METAR MRLM NIL=
200907240300 METAR MRLM NIL=
200907240400 METAR MRLM NIL=
200907240500 METAR MRLM NIL=
200907240600 METAR MRLM NIL=
200907240700 METAR MRLM NIL=
200907240800 METAR MRLM NIL=
200907240900 METAR MRLM NIL=
200907241000 METAR MRLM NIL=
200907241100 METAR MRLM NIL=
200907241200 METAR MRLM NIL=
200907241300 METAR MRLM 241300Z 24006KT 4000 TSRA FEW010CB BKN015 24/23 A2983 RMK TS E VIS 9999 SW W=
200907241400 METAR MRLM 241400Z 19004KT 8000 +DZ OVC015 24/24 A2985 RETS RMK TSTM NE VIS 9999 NE E S SW=
200907241500 METAR MRLM 241500Z 23005KT 9999 RA VCTS FEW010CB OVC015 25/24 A2987 REDZ RMK VIS 5000 E SE=
200907241600 METAR MRLM 241600Z 19004KT 9999 RA OVC020 25/24 A2989 RMK RETSRA VIS 8000 SE S TSTM=
200907241700 METAR MRLM 241700Z 13002KT 9999 RA FEW020 BKN090 27/25 A2985 RERA RMK CB RN DST QUAD N E=
200907241800 METAR MRLM 241800Z 20002KT CAVOK 28/25 A2982 RERA RMK CB RN DST QUAD N E TRACE ST FEW110 SCT150 BKN270 HZ LGT ARND=
200907241900 METAR MRLM 241900Z 05004KT 9999 FEW020 BKN270 29/25 A2981 RMK CB RN DST NW N NE E HZ ARND TRACE AC=
200907242000 METAR MRLM 242000Z 36005KT 9999 FEW025 BKN270 29/24 A2978 RMK TRACE AC HZY CB DST NW N NE E=
200907242100 METAR MRLM 242100Z 36007KT 9999 FEW025 BKN270 29/24 A2978 CB N NE HZY=
200907242200 METAR MRLM 242200Z 35007KT 9999 FEW025 BKN270 29/25 A2977 CB N NE HZY TRACE AC=
200907242300 METAR MRLM 242300Z 28002KT 9999 FEW025 BKN270 29/24 A2978 CB N HZY=
200907250000 METAR MRLM 250000Z 27002KT 9999 FEW015 SCT140 BKN280 28/25 A2980 CB RN N E HZY=
200907250100 METAR MRLM NIL=
200907250200 METAR MRLM NIL=
200907250300 METAR MRLM NIL=
200907250400 METAR MRLM NIL=
200907250500 METAR MRLM NIL=
200907250600 METAR MRLM NIL=
200907250700 METAR MRLM NIL=
200907250800 METAR MRLM NIL=
200907250900 METAR MRLM NIL=
200907251000 METAR MRLM NIL=
200907251100 METAR MRLM NIL=
200907251200 METAR MRLM 251200Z 00000KT 9999 OVC010 24/23 A2983 RMK RN DST NNE NW=
200907251300 METAR MRLM 251300Z 30002KT 9999 +DZ SCT010 SCT090 24/23 A2986 CB/TS DST N HZ ARND=
200907251400 METAR MRLM 251400Z 01019KT 4000 +RA OVC010 26/24 A2987 CB TS N=
200907251500 METAR MRLM 251500Z 23004KT 9999 SCT010 SCT090 25/23 A2988 RERA RN NW N HZ SE=
200907251600 METAR MRLM 251600Z 24003KT CAVOK 26/24 A2985 TRACE CU OVC100 HZ SE=
200907251700 METAR MRLM 251700Z 02005KT CAVOK 28/24 A2985 TRACE CU OVC100 RN W HZ SE=
200907251800 METAR MRLM 251800Z 36004KT CAVOK 28/24 A2985 TRACE CU OVC100 HZY=
200907251900 METAR MRLM 251900Z 03002KT 9999 FEW025 OVC110 29/24 A2983 HZY=
200907252000 METAR MRLM 252000Z 04004KT 9999 FEW025 BKN110 29/24 A2982 HZY=
200907252100 METAR MRLM 252100Z 01005KT 9999 FEW025 SCT110 SCT250 29/24 A2980 RMK H HVH152 252103 GG MUHAYMYX MYNNYMYX SAZZMAMX SBBRYZYX SCZZMAMX SEZZMAMX SKZZMAMX SPZZMAMX SVZZMAMX TAPAYMYX TJSJYMYX TNCAYMYX HVH153 252103 GG EGZZMCAR EGZZMSAM KWBCYMYX KWBCYZYX MDSDYMYX MKJPYMYX MPMGYMYX MPZZMAMX 252057 MROCYMYX=
200907252200 METAR MRLM 252200Z 36004KT CAVOK 29/24 A2979 RMK TRACE CU FEW120 OVC250 HZ ARND=
200907252300 METAR MRLM 252300Z 36004KT CAVOK 29/24 A2981 RMK TRACE CU BKN250 HZ ARND=
200907260000 METAR MRLM 260000Z 34003KT CAVOK 28/24 A2984 RMK TRACE CU FEW140 BKN250 RN NE HZ ARND=
200907260100 METAR MRLM NIL=
200907260200 METAR MRLM NIL=
200907260300 METAR MRLM NIL=
200907260400 METAR MRLM NIL=
200907260500 METAR MRLM NIL=
200907260600 METAR MRLM NIL=
200907260700 METAR MRLM NIL=
200907260800 METAR MRLM NIL=
200907260900 METAR MRLM NIL=
200907261000 METAR MRLM NIL=
200907261100 METAR MRLM NIL=
200907261200 METAR MRLM 261200Z 00000KT 9999 SCT010 SCT120 25/23 A2988 RMK TRACE CI CB DST NW W HZ ARND=
200907261300 METAR MRLM 261300Z 00000KT 9999 FEW010 BKN110 26/23 A2989 RMK CB NW N HZ ARND=
200907261400 METAR MRLM 261400Z 34003KT 9999 BKN020 28/24 A2990 RMK FEW100 RN NE E HZ ARND=
200907261500 METAR MRLM 261500Z 28002KT 9999 SCT020 SCT100 28/24 A2992 RMK RN E HZ ARND=
200907261600 METAR MRLM 261600Z 24002KT 9999 SCT020 BKN100 29/25 A2991 RMK CB DST N NE RN E HZ ARND=
200907261700 METAR MRLM 261700Z 33003KT 9999 BKN030 SCT100 30/25 A2989 RMK RN DST N HZ ARND=
200907261800 METAR MRLM 261800Z 00000KT 9999 BKN015 27/25 A2987 RERA FEW100 CB TS DST NE E HZ ARND=
200907261900 METAR MRLM 261900Z 00000KT 9999 +DZ OVC015 27/25 A2987 RMK CB TS DST SE S RN E SE HZ ARND=
200907262000 METAR MRLM 262000Z 22004KT 8000 -RA BKN015 27/25 A2985 REDZ RMK FEW090 CB TS DST SE S=
200907262100 METAR MRLM 262100Z 21004KT 8000 3000N VCSH +DZ BKN020 28/25 A2984 RERA=
200907262200 METAR MRLM 262200Z 20003KT 9999 -DZ BKN010 27/25 A2984 RMK RN DST N W FEW090=
200907262300 METAR MRLM 262300Z 03006KT 9999 4000S DZ VCSH BKN015 28/26 A2983 RMK FEW 090 VL MX VTO 12KT=
200907270000 METAR MRLM 270000Z 04014KT 9999 DZ OVC020 28/25 A2983 RMK RN DST S W TCU DST NW HZ ARND=
200907270100 METAR MRLM NIL=
200907270200 METAR MRLM NIL=
200907270300 METAR MRLM NIL=
200907270400 METAR MRLM NIL=
200907270500 METAR MRLM NIL=
200907270600 METAR MRLM NIL=
200907270700 METAR MRLM NIL=
200907270800 METAR MRLM NIL=
200907270900 METAR MRLM NIL=
200907271000 METAR MRLM NIL=
200907271100 METAR MRLM NIL=
200907271200 METAR MRLM NIL=
200907271300 METAR MRLM 271300Z 24004KT 9999 OVC015 26/25 A2991 REDZ RMK HZ ARND RN N E=
200907271400 METAR MRLM 271400Z 00000KT 9999 DZ OVC 015 28/25 A2993 RMK RN HZ ARND=
200907271500 METAR MRLM 271500Z 07002KT 8000 HZ BKN025TCU 30/25 A2993 RMK VIS UNL S W=
200907271600 METAR MRLM 271600Z 08003KT 9999 BKN025 30/25 A2992 RMK FEW300 HZ ARND=
200907271700 METAR MRLM 271700Z 08004KT 9999 FEW025 SCT280 30/25 A2991 RMK FEW140 HZ ARND=
200907271800 METAR MRLM 271800Z 06003KT 9999 FEW030 BKN110 31/25 A2987 RMK FEW280 HZ ARND=
200907271900 METAR MRLM 271900Z 05010KT 9999 FEW020 BKN090 30/25 A2987 RMK HZ ARND RN N NE E=
200907272000 METAR MRLM 272000Z 04013KT 9999 FEW030 BKN090 29/23 A2985 RMK TRACE CI HZ ARND=
200907272100 METAR MRLM 272100Z 02010KT 9999 FEW035 SCT100 30/23 A2983 RMK SCT280 HZY=
200907272200 METAR MRLM 272200Z 05005KT 9999 FEW035 BKN100 30/23 A2982 RMK FEW280 HZY=
200907272300 METAR MRLM 272300Z 03004KT CAVOK 30/24 A2984 RMK TRACE CU OVC090 LGT HZ ARND RN DST NE E=
200907280000 METAR MRLM 280000Z 03010KT CAVOK 29/25 A2984 RMK TRACE ST SC BKN090 FEW280 TCU DST NW HZY=
200907280100 METAR MRLM NIL=
200907280200 METAR MRLM NIL=
200907280300 METAR MRLM NIL=
200907280400 METAR MRLM NIL=
200907280500 METAR MRLM NIL=
200907280600 METAR MRLM NIL=
200907280700 METAR MRLM NIL=
200907280800 METAR MRLM NIL=
200907280900 METAR MRLM NIL=
200907281000 METAR MRLM NIL=
200907281100 METAR MRLM NIL=
200907281200 METAR MRLM 281200Z NIL=
200907281300 METAR MRLM 281300Z 19005KT 9999 SCT025 SCT080 25/23 A2987 RMK DZ DST S SW W HZY=
200907281400 METAR MRLM 281400Z NIL=
200907281500 METAR MRLM 281500Z 29002KT CAVOK 31/22 A2985 RMK TRACE CU SC FEW080 CBS RN DST N QUAD HZY=
200907281600 METAR MRLM 281600Z 04005KT 9999 FEW035 SCT100 30/23 A2986 RMK FEW300 LGT HZ ARND=
200907281700 METAR MRLM 281700Z 01006KT 9999 FEW030 BKN110 30/24 A2985 RMK FEW280 HZY=
200907281800 METAR MRLM 281800Z 02006KT 9999 FEW030 BKN300 30/24 A2982 RMK FEW120 CB DST NW HZY=
200907281900 METAR MRLM 281900Z 02005KT 9999 FEW035 OVC280 31/24 A2979 RMK TRACE AC HZY=
200907282000 METAR MRLM 282000Z 02007KT 9999 FEW040 BKN280 31/23 A2977 CB DST NE HZ ARND=
200907282100 METAR MRLM 282100Z 02005KT 9999 FEW038 BKN280 31/24 A2976 RMK FEW150 HZ LGT ARND CB DST NE=
200907282200 METAR MRLM 282200Z 01007KT 9999 FEW035 BKN280 31/24 A2976 RMK FEW150 CB DST N NE LGT HZ ARND=
200907282300 METAR MRLM 282300Z 02005KT 9999 FEW030 BKN100 30/24 A2978 RMK FEW280 HZ LGT ARND=
200907290000 METAR MRLM 290000Z 35004KT CAVOK 29/24 A2978 RMK TRACE CU BKN110 SCT280 HZ LGT ARND=
200907290100 METAR MRLM NIL=
200907290200 METAR MRLM NIL=
200907290300 METAR MRLM NIL=
200907290400 METAR MRLM NIL=
200907290500 METAR MRLM NIL=
200907290600 METAR MRLM NIL=
200907290700 METAR MRLM NIL=
200907290800 METAR MRLM NIL=
200907290900 METAR MRLM NIL=
200907291000 METAR MRLM NIL=
200907291100 METAR MRLM NIL=
200907291200 METAR MRLM NIL=
200907291300 METAR MRLM 291300Z 22005KT 9999 BKN010 25/23 A2982 RMK FEW100 RN DST NE E HA ARND=
200907291400 METAR MRLM 291400Z 00000KT 9999 -DZ BKN010 25/23 A2983 RERA CB TS DST N NE E HZY=
200907291500 METAR MRLM 291500Z 31004KT 8000 -RA VCTS FEW010CB BKN015 25/24 A2983 RERA CB TS DST N NE E HZY=
200907291600 METAR MRLM 291600Z 00000KT 9999 -RA BKN015 25/24 A2985 RMK FEW090 VIS 6000 QUAD N W RN=
200907291700 METAR MRLM 291700Z 20003KT 9999 BKN015 SCT090 26/24 A2984 RERA RN DST S/SE HZ ARND=
200907291800 METAR MRLM 291800Z 23004KT 9999 BKN015 SCT100 27/25 A2982 TRAZAS CI CB DST NW/N HZ ARND=
200907291900 METAR MRLM NIL=
200907292000 METAR MRLM 292000Z 04003KT 9999 SCT025 BKN250 30/25 30/25 A2978 TRACE AC TCU DIST SW HZY=
200907292100 METAR MRLM 292100Z 01003KT 9999 FEW030 OVC250 31/25 A2976 TRACE AC HZY=
200907292200 METAR MRLM 292200Z 02002KT CAVOK 30/24 A2976 TRACE CU OVC250 TCU SE HZY=
200907292300 METAR MRLM 292300Z 36002KT CAVOK 29/25 A2976 TRACE CU/AC OVC250 TCU N NE HZY=
200907300000 METAR MRLM 300000Z 00000KT CAVOK 28/25 A2978 TRAZAS SCT FEW140 BKN250 TCU N NE HZY=
200907300100 METAR MRLM NIL=
200907300200 METAR MRLM NIL=
200907300300 METAR MRLM NIL=
200907300400 METAR MRLM NIL=
200907300500 METAR MRLM NIL=
200907300600 METAR MRLM NIL=
200907300700 METAR MRLM NIL=
200907300800 METAR MRLM NIL=
200907300900 METAR MRLM NIL=
200907301000 METAR MRLM NIL=
200907301100 METAR MRLM NIL=
200907301200 METAR MRLM 301200Z 23004KT 9999 3000N +DZ VCTS VCSH FEW010CB BKN015 25/24 A2983 FEW080 HZ ARND=
200907301300 METAR MRLM 301300Z 00000KT 8000 3000N RA FEW010CB BKN015 25/24 A2988 RMK FEW080=
200907301400 METAR MRLM 301400Z 08005KT 6000 TSRA FEW010CB BKN015 25/23 A2987 FEW080=
200907301500 METAR MRLM 301500Z 17002KT 6000 RA VCTS FEW010CB OVC015 24/23 A2990=
200907301600 METAR MRLM NIL=
200907301700 METAR MRLM 301700Z 20005KT 9999 +DZ BKN015 SCT090 24/23 A2987 RN S E=
200907301800 METAR MRLM 301800Z 13003KT 9999 BKN020 SCT090 25/23 A2987 REDZ RN S E HZY=
200907301900 METAR MRLM 301900Z 00000KT 9999 BKN020 SCT090 26/24 A2983 RN SE E HZY=
200907302000 METAR MRLM 302000Z 00000KT 9999 SCT020 BKN100 27/23 A2980 HZY=
200907302100 METAR MRLM 302100Z 25004KT 9999 FEW015 SCT120 2724 A2977 RMK FEW250 HZ ARND=
200907302200 METAR MRLM 302200Z 25004KT 9999 FEW015 SCT120 27/24 A2974 RMK FEW250 RN NE HZ ARND=
200907302300 METAR MRLM 302300Z 31003KT 9999 FEW015 SCT250 27/24 A2977 RMK FEW120 HZ ARND=
200907310000 METAR MRLM 310000Z 00000KT 9999 SCT010 SCT250 26/24 A2980 RMK FEW120 HZ ARND=
200907310100 METAR MRLM NIL=
200907310200 METAR MRLM NIL=
200907310300 METAR MRLM NIL=
200907310400 METAR MRLM NIL=
200907310500 METAR MRLM NIL=
200907310600 METAR MRLM NIL=
200907310700 METAR MRLM NIL=
200907310800 METAR MRLM NIL=
200907310900 METAR MRLM NIL=
200907311000 METAR MRLM NIL=
200907311100 METAR MRLM NIL=
200907311200 METAR MRLM 311200Z NIL=
200907311300 METAR MRLM 311300Z 20004KT 9999 FEW015 SCT140 25/22 A2998 RMK FEW280 CB DST SW HA LGT ARND=
200907311400 METAR MRLM 311400Z 11004 9999 FEW025 29/24 A2991 RMK FEW140 FEW280 CB DST N SW HZ LGT ARND=
200907311500 METAR MRLM 311500Z 09006KT 9999 FEW025 SCT140 29/24 A2992 RMK CB/RN DST E NE FEW280 HZ LGT ARND=
200907311600 METAR MRLM 311600Z 08009KT 9999 FEW025 SCT110 30/24 A2990 RMK CB RN DST E HZ ARND=
200907311700 METAR MRLM 311700Z 09008KT 9999 FEW025 BKN110 30/25 A2990 RMK TRACE CI HZ LGT ARND=
200907311800 METAR MRLM 311800Z 09006KT FEW020 BKN130 30/25 A2988 RMK CB DST N NE FEW280 HZ LGT ARND=
200907311900 METAR MRLM NIL=
200907312000 METAR MRLM 312000Z 06005KT 9999 FEW025 BKN280 30/25 A2980 FEW150 CB DST S SW HA ARND=
200907312100 METAR MRLM 312100Z 02009KT 9999 FEW030 BKN280 30/25 A2980 RMK TRACE AC CB DST SW W SE HZ LGT ARND=
200907312200 METAR MRLM 312200Z 35011KT 9999 SCT025 SCT280 31/25 A2982 RMK FEW140 CB DSTM SE S HZ ARND=
200907312300 METAR MRLM 312300Z 33009KT 9999 BKN025 30/25 A2984 RMK HZ LGT ARND FEW280=
200908010000 METAR MRLM 010000Z 34006KT 9999 BKN020 29/25 A2987 RMK RN DST SW W CB DST S SW TRACE AC FEW270=
200908010100 METAR MRLM NIL=
200908010200 METAR MRLM NIL=
200908010300 METAR MRLM NIL=
200908010400 METAR MRLM NIL=
200908010500 METAR MRLM NIL=
200908010600 METAR MRLM NIL=
200908010700 METAR MRLM NIL=
200908010800 METAR MRLM NIL=
200908010900 METAR MRLM NIL=
200908011000 METAR MRLM NIL=
200908011100 METAR MRLM NIL=
200908011200 METAR MRLM NIL=
200908011300 METAR MRLM 011300Z 20004KT 9999 FEW012 BKN090 25/24 A2989 RMK FEW270 CB RN DST NW HZ LGT ARND=
200908011400 METAR MRLM 011400Z 24003KT CAVOK 27/24 A2989 RMK TRACE SC SCT110 SCT280 CB DST NW NE RN DST NE HZ ARND=
200908011500 METAR MRLM 011500Z 04002KT 9999 FEW025 BKN090 29/24 A2989 RMK CB RN DST N NE E TSTM DST E=
200908011600 METAR MRLM 011600Z 02003KT 9999 FEW030 BKN100 30/25 A2989 RMK FEW270 CB RN DST N HZ ARND=
200908011700 METAR MRLM 011700Z 03004KT 9999 FEW025 BKN280 30/25 A2988 RMK TRACE AC CB RN DST NW HZ ARND=
200908011800 METAR MRLM 011800Z 02005KT 9999 FEW025 BKN280 30/25 A2986 RMK FEW140 TCU W CB DST NE HZ LGT ARND=
200908011900 METAR MRLM 011900Z 02005KT 9999 FEW025 BKN120 30/25 A2984 RMK TRACE CI FEW080 HZ LGT ARND TCU DST NW=
200908012000 METAR MRLM 012000Z 05006KT 9999 FEW025 BKN090 30/25 A2981 RMK TCU DST SW FEW270 HZ ARND=
200908012100 METAR MRLM 012100Z 36006KT 9999 FEW025 BKN280 31/25 A2980 RMK CB DST E FEW140 LGT HZ ARND=
200908012200 METAR MRLM 012200Z 35007KT 9999 SCT030 SCT120 30/24 A2981 TCU RN DST SW FEW280 HZ ARND=
200908012300 METAR MRLM 012300Z 34008KT 9999 OVC020 30/25 A2981 TRACE CI HZY=
200908020000 METAR MRLM 020000Z 35009KT 9999 OVC020 29/25 A2982 RMK TCU RN DST S W TRACE CI HZY=
200908020100 METAR MRLM NIL=
200908020200 METAR MRLM NIL=
200908020300 METAR MRLM NIL=
200908020400 METAR MRLM NIL=
200908020500 METAR MRLM NIL=
200908020600 METAR MRLM NIL=
200908020700 METAR MRLM NIL=
200908020800 METAR MRLM NIL=
200908020900 METAR MRLM NIL=
200908021000 METAR MRLM NIL=
200908021100 METAR MRLM NIL=
200908021200 METAR MRLM 021200Z 23004KT 9999 OVC010 25/23 A2986 RMK RN DST E W HZ ARND=
200908021300 METAR MRLM 021300Z 22004KT 9999 BKN010 25/24 A2988 RMK FEW090 RN DST N E SE HZ LGT ARND=
200908021400 METAR MRLM 021400Z 24003KT 9999 +DZ OVC100 26/24 A2988 RMK RN DST QUAD N E HZ ARND=
200908021500 METAR MRLM 021500Z 22004KT 9999 BKN015 27/25 A2989 REDZ RMK FEW090 RN DST SW SE HZ Y=
200908021600 METAR MRLM 021600Z 36009KT 9999 BKN020 29/24 A2989 RMK FEW090 RN DST QUAD S HZY=
200908021700 METAR MRLM 021700Z 01010KT 9999 BKN020 29/24 A2989 RMK FEW090 RN DST QUAD S HZ Y=
200908021800 METAR MRLM 021800Z 36006KT 9999 DZ OVC020 29/25 A2988 RMK RN DST S NE HZY=
200908021900 METAR MRLM 021900Z 15003KT 9999 BKN015 27/24 A2987 REDZ RMK FEW090 RN DST SW E HZY=
200908022000 METAR MRLM 022000Z 19004KT 9999 +DZ OVC010 25/23 A2986 RMK RN DST E HZ Y=
200908022100 METAR MRLM 022100Z 21002KT 9999 OVC010 25/24 A2983 REDZ RMK RN DST N HZY=
200908022200 METAR MRLM 022200Z 24004KT 8000 -RA BKN010 26/24 A2981 RMK FEW080=
200908022300 METAR MRLM 022300Z 24003KT 9999 +DZ VCSH BKN010 25/24 A2981 RERA FEW080 VIS N 7KMS HZY=
200908030000 METAR MRLM NIL=
200908030100 METAR MRLM NIL=
200908030200 METAR MRLM NIL=
200908030300 METAR MRLM NIL=
200908030400 METAR MRLM NIL=
200908030500 METAR MRLM NIL=
200908030600 METAR MRLM NIL=
200908030700 METAR MRLM NIL=
200908030800 METAR MRLM NIL=
200908030900 METAR MRLM NIL=
200908031000 METAR MRLM NIL=
200908031100 METAR MRLM NIL=
200908031200 METAR MRLM NIL=
200908031300 METAR MRLM 031300Z 22003KT 8000 -RA BKN010 25/24 A2987 RMK FEW090=
200908031400 METAR MRLM 031400Z 21003KT 9999 BKN010 25/24 A2987 RERA RMK FEW090 RN DST QUAD N HZY=
200908031500 METAR MRLM 031500Z 25003KT 9999 SCT010 26/25 A2986 RMK RN DST N NE HZY=
200908031600 METAR MRLM 031600Z 36003KT 9999 SCT020 SCT090 29/25 A2988 RMK RN DST QUAD N HZY=
200908031700 METAR MRLM 031700Z 35006KT 8000 +DZ BKN015 SCT090 28/25 A2987 RMK CB TS DST N NE HZY=
200908031800 METAR MRLM 031800Z 36006KT 9999 SCT020 SCT090 28/24 A2986 REDZ RMK RN DST QUAD N E HZY=
200908031900 METAR MRLM 031900Z 35004KT 9999 SCT020 BKN100 28/25 A2983 RMK TCU RN DST NE TRACE CI HZY=
200908032000 METAR MRLM 032000Z 35009KT 9999 BKN020 SCT100 29/26 A2982 RMK CB TS DST QUAD N HZY=
200908032100 METAR MRLM 032100Z 29003KT 9999 -DZ BKN010 SCT090 27/25 A2980 CB/TS SE RN NW HZY=
200908032200 METAR MRLM 032200Z 36003KT 9999 BKN010 29/25 A2980 REDZ FEW090 TRAZAS CI CB/RN N NE SE HZY=
200908032300 METAR MRLM 032300Z 33006KT 9999 BKN010 28/24 A2980 FEW090 RN NW HZY=
200908040000 METAR MRLM 040000Z 23003KT 9999 OVC010 27/25 A2981 RN N NE E HZY=
200908040100 METAR MRLM NIL=
200908040200 METAR MRLM NIL=
200908040300 METAR MRLM NIL=
200908040400 METAR MRLM NIL=
200908040500 METAR MRLM NIL=
200908040600 METAR MRLM NIL=
200908040700 METAR MRLM NIL=
200908040800 METAR MRLM NIL=
200908040900 METAR MRLM NIL=
200908041000 METAR MRLM NIL=
200908041100 METAR MRLM NIL=
200908041200 METAR MRLM 041200Z 06014KT 8000 TSRA FEW010CB BKN015 27/25 A2985 RMK FEW090=
200908041300 METAR MRLM 041300Z 09011KT 8000 +DZ SCT015 SCT090 26/24 A2984 RETS CB W NW E VSBY S NE UNL HZY=
200908041400 METAR MRLM 041400Z 01006KT 5000 VCSH BKN010 26/24 A2986 VSBY N UNL FEW090 RASH S=
200908041500 METAR MRLM 041500Z 22004K 8000 DZ VCSH BKN008 26/24 A2988 VSBY N UNL FEW090=
200908041600 METAR MRLM 041600Z 36007KT 9999 SCT015 SCT270 28/26 A2987 REDZ FEW140 RN S W HZY=
200908041700 METAR MRLM 041700Z 03009KT 9999 OVC015 29/26 A2985 RN S W HZY=
200908041800 METAR MRLM 041800Z 04012KT 9999 VCSH BKN015 29/26 A2985 VSBY S 6KM=
200908041900 METAR MRLM 041900Z 20006KT 8000 DZ VCSH OVC010 26/24 A2982 VSBY N UNL=
200908042000 METAR MRLM 042000Z 20005KT 9999 VCSH FEW008 OVC015 26/24 A2980 REDZ S UNL=
200908042100 METAR MRLM 042100Z 23005KT 5000 RA BKN015 26/24 A2978 RMK VIS SW UNL FEW090=
200908042200 METAR MRLM 042200Z 30004KT 3000 +DZ SCT003 BKN015 25/24 A2979 RMK RETSRA CB DST W NW=
200908042300 METAR MRLM 042300Z 23005KT 5000 RA FEW006 BKN015 25/25 A2979 RMK FEW090=
200908050000 METAR MRLM 050000Z 25005KT 5000 RA BKN015 25/23 A2979=
200908050100 METAR MRLM NIL=
200908050200 METAR MRLM NIL=
200908050300 METAR MRLM NIL=
200908050400 METAR MRLM NIL=
200908050500 METAR MRLM NIL=
200908050600 METAR MRLM NIL=
200908050700 METAR MRLM NIL=
200908050800 METAR MRLM NIL=
200908050900 METAR MRLM NIL=
200908051000 METAR MRLM NIL=
200908051100 METAR MRLM NIL=
200908051200 METAR MRLM 051200Z NIL=
200908051300 METAR MRLM 051300Z 27003KT 5000 RA BKN015 24/23 A2984 RMK FEW090 CB RN ARND VIS S UNL=
200908051400 METAR MRLM 051400Z 26005KT 9999 FEW005 BKN020 24/24 A2992 RERA RMK CB RN DST ARND FEW090=
200908051500 METAR MRLM 051500Z 24004KT 9999 OVC020 25/24 A2985 RMK CB RN DST ARND=
200908051600 METAR MRLM 051600Z 00000KT 9999 FEW010 BKN080 27/24 A2986 RMK CB RN ARND FEW120=
200908051700 METAR MRLM 051700Z 10007KT 9999 TS FEW005 FEW010CB BKN080 27/25 A2986 RMK TS E FEW120 VISIBILIDAD E 8000MTS=
200908051800 METAR MRLM 051800Z 22004KT 9999 DZ FEW020 BKN080 25/24 A2981 RETS RA RMK FEW080 CB RN ARND=
200908051900 METAR MRLM 051900Z 21002KT 9999 FEW010 BKN090 26/24 A2982 REDZ RMK FEW025 FEW130 CB RN DST ARND=
200908052000 METAR MRLM 052000Z 05002KT 9999 FEW015 BKN090 27/25 A2979 RMK TRACE SC FEW27 0 CB RN ARND=
200908052100 METAR MRLM 052100Z 05003KT 9999 FEW015 BKN080 28/24 A2979 RMK FEW270 CB RN DST NE SE=
200908052200 METAR MRLM 052200Z 02003KT 9999 FEW025 BKN090 28/24 A2978 RMK SCT270 CB RN DST ARND=
200908052300 METAR MRLM 052300Z 30002KT 9999 FEW020 SCT080 28/24 A2979 RMK SCT270 CB RN DST N=
200908060000 METAR MRLM 060000Z 31003KT 9999 FEW025 BKN090 27/24 A2981 RMK CB RN DST N NE E SE TRACE CI=
200908060100 METAR MRLM NIL=
200908060200 METAR MRLM NIL=
200908060300 METAR MRLM NIL=
200908060400 METAR MRLM NIL=
200908060500 METAR MRLM NIL=
200908060600 METAR MRLM NIL=
200908060700 METAR MRLM NIL=
200908060800 METAR MRLM NIL=
200908060900 METAR MRLM NIL=
200908061000 METAR MRLM NIL=
200908061100 METAR MRLM NIL=
200908061200 METAR MRLM 061200Z 00000KT 9999 FEW010 BKN140 24/23 A2983 FEW260 RN E SE HZY=
200908061300 METAR MRLM 061300Z 27003KT CAVOK 26/23 A2984 TRCE SCT BKN120 FEW260 RN DST SE S HZ ARND=
200908061400 METAR MRLM 061400Z 00000KT CAVOK 25/23 A2987 RMK TRACE SC OVC110 HZ ARND=
200908061500 METAR MRLM 061500Z 28004KT 9999 FEW020 BKN110 29/24 A2989 RMK CB TS DST NE E HZ ARND=
200908061600 METAR MRLM 061600Z 33012KT 9999 DZ SCT020 BKN100 25/23 A2991 RMK CB TS DST N HZ ARND VL MX VTO 21KT=
200908061700 METAR MRLM 061700Z 35006KT 9999 DZ BKN020 SCT100 27/22 A2991 RMK CB TS DST N RN DST W HZ ARND=
200908061800 METAR MRLM 061800Z 01002KT 9999 -DZ BKN020 SCT090 26/22 A2990 RMK RN DST NW HZ ARND=
200908061900 METAR MRLM 061900Z 00000KT 1000 +RA OVC010 25/23 A2989 REDZ=
200908062000 METAR MRLM 062000Z 22005KT 8000 +DZ BKN010 24/23 A2987 RERA RMK FEW090 RN DST NE=
200908062100 METAR MRLM 062100Z 23004KT 9999 SCT010 SCT090 24/23 A2984 REDZ RMK RN DST SW SE HZ ARND=
200908062200 METAR MRLM 062200Z 22003KT 9999 -DZ FEW010 BKN100 24/23 A2983 RMK RN DST NE SE HZ ARND=
200908062300 METAR MRLM 062300Z 25003KT 9999 -DZ FEW010 BKN090 24/23 A2984 RMK RN DST SE HZ ARND=
200908070000 METAR MRLM 070000Z 22003KT 9999 DZ FEW010 BKN100 24/23 A2985 RMK CB DST NW N RN DST W NW HZY=
200908070100 METAR MRLM NIL=
200908070200 METAR MRLM NIL=
200908070300 METAR MRLM NIL=
200908070400 METAR MRLM NIL=
200908070500 METAR MRLM NIL=
200908070600 METAR MRLM NIL=
200908070800 METAR MRLM NIL=
200908070900 METAR MRLM NIL=
200908071000 METAR MRLM NIL=
200908071100 METAR MRLM NIL=
200908071200 METAR MRLM 071200Z NIL=
200908071300 METAR MRLM 071300Z 00000KT CAVOK 24/22 A2989 RMK TRACE SC BKN110 FEW250 TCU DST NE HZ ARND=
200908071400 METAR MRLM 071400Z 00000KT CAVOK 27/23 A2990 RMK TRACE SC CI BKN100 SCT140 TCU DST NE E HZY=
200908071500 METAR MRLM 071500Z 00000KT CAVOK 27/23 A2991 RMK TRACE CU SC BKN110 RN DST NE E HZ ARND=
200908071600 METAR MRLM 071600Z 01004KT 9999 SCT020 BKN100 27/23 A2993 RMK RN DST NE W HZY=
200908071700 METAR MRLM 071700Z 32003KT 2000 RA BKN010 24/22 A2993 RMK FEW090=
200908071800 METAR MRLM 071800Z 15006KT 2000 TSRA FEW005 FEW010CB BKN080 23/22 A2994=
200908071900 METAR MRLM 071900Z 20006KT 8000 -RA SCT010 BKN080 23/22 A2992 RETS=
200908072000 METAR MRLM 072000Z 18004KT 9999 +DZ FEW010 BKN090 23/22 A2988 RERA RMK RN DST E HZY=
200908072100 METAR MRLM 072100Z 00000KT 9999 -DZ FEW015 BKN090 23/22 A2984 RMK RN DST E HZY=
200908072200 METAR MRLM 072200Z 10005KT 9999 -DZ FEW020 BKN090 25/22 A2983 RMK RN DST E SE HZY=
200908072300 METAR MRLM 072300Z 23004KT CAVOK 24/23 A2983 REDZ RMK BKN100 RN DST W NW E=
200908080000 METAR MRLM 080000Z 22004KT CAVOK 24/23 A2984 RMK TRACE SC BKN100 RN DST W NW HZY=
200908080100 METAR MRLM NIL=
200908080200 METAR MRLM NIL=
200908080300 METAR MRLM NIL=
200908080400 METAR MRLM NIL=
200908080500 METAR MRLM NIL=
200908080600 METAR MRLM NIL=
200908080700 METAR MRLM NIL=
200908080800 METAR MRLM NIL=
200908080900 METAR MRLM NIL=
200908081000 METAR MRLM NIL=
200908081100 METAR MRLM NIL=
200908081200 METAR MRLM 081200Z 23003KT 9999 BKN010 SCT100 23/22 A2991=
200908081300 METAR MRLM 081300Z 00000KT 9999 FEW010 BKN100 24/22 A2993 RMK TRACE CI CB DST N NE HZ LGT ARND=
200908081400 METAR MRLM 081400Z 00000KT CAVOK 27/23 A2994 RMK TRACE SC BKN120 SCT250 HZ LGT ARND=
200908081500 METAR MRLM 081500Z 00000KT CAVOK 28/24 A2995 RMK TRACE SC CI BKN130 CB DST N HZ LGT ARND=
200908081600 METAR MRLM 081600Z 02006KT 9999 FEW025 BKN110 29/23 A2996 RMK TRACE CI HZ LGT ARND=
200908081700 METAR MRLM 081700Z 02004KT 9999 SCT020 SCT110 29/24 A2995 RMK FEW250=
200908081800 METAR MRLM 081800Z 02006KT 9999 FEW030 SCT140 SCT250 30/24 A2992 RMK TCU DST NW N=
200908081900 METAR MRLM 081900Z 03004KT 9999 FEW030 SCT140 BKN250 30/24 A2989 RMK TCU DST NW=
200908082000 METAR MRLM 082000Z 02006KT 9999 FEW030 SCT130 SCT250 30/24 A2988 RMK TCU DST SW=
200908082100 METAR MRLM 082100Z 36005KT 9999 FEW030 SCT140 30/24 A2986 SCT270 TCU SW N=
200908082200 METAR MRLM 082200Z 35004KT 9999 FEW035 BKN140 30/23 A2984 FEW250=
200908090000 METAR MRLM 090000Z 36004KT 9999 FEW020 BKN100 29/24 A2988 CB SW NE N=
200908090100 METAR MRLM NIL=
200908090200 METAR MRLM NIL=
200908090400 METAR MRLM NIL=
200908090500 METAR MRLM NIL=
200908090600 METAR MRLM NIL=
200908090700 METAR MRLM NIL=
200908090800 METAR MRLM NIL=
200908090900 METAR MRLM NIL=
200908091000 METAR MRLM NIL=
200908091100 METAR MRLM NIL=
200908091200 METAR MRLM 091200Z 29006KT 9999 SCT010 BKN090 24/22 A2990 RMK CB DST N RN DST W HZY=
200908091300 METAR MRLM NIL=
200908091400 METAR MRLM 091400Z 27004KT 9999 BKN010 25/23 A2992 CB/TS W NW N RN NE E HZ SE=
200908091500 METAR MRLM 091500Z 26005KT 2000 +RA BKN015 26/23 A2993 FEW090 CB/TS N=
200908091600 METAR MRLM 091600Z 27005KT 9999 BKN010 SCT090 25/24 A2994 RERA CB N RN S SW HZY=
200908091700 METAR MRLM 091700Z 27007KT 9999 BKN010 SCT090 27/24 A2992 RN N W HZY=
200908091800 METAR MRLM 091800Z 26005KT 9999 SCT020 BKN090 26/24 A2992 CB NW RN NE E HZ SE=
200908091900 METAR MRLM 091900Z 01006KT 9999 SCT015 SCT090 28/24 A2992 RN N NE SE HZY=
200908092000 METAR MRLM 092000Z 02003KT 9999 -DZ SCT020 BKN080 27/24 A2990 RN N NE E SE HZY=
200908092100 METAR MRLM 092100Z 03008KT 9999 DZ SCT015 SCT090 27/24 A2987 RMK CB DST N RN DST E HZ ARND=
200908092200 METAR MRLM 09210Z 03008KT 9999 DZ SCT015 SCT090 27/24 A2987 RMK CB DST N RN DST E HZ ARND=
200908092300 METAR MRLM 092300Z 07004KT 9999 SCT015 BKN090 27/24 A2988 REDZ RMK RN E HZ ARND=
200908100000 METAR MRLM 100000Z 22003KT 9999 BKN010 26/24 A2988 RMK FEW090 RN DST NE E HZ ARND=
200908100100 METAR MRLM NIL=
200908100200 METAR MRLM NIL=
200908100300 METAR MRLM NIL=
200908100500 METAR MRLM NIL=
200908100600 METAR MRLM NIL=
200908100700 METAR MRLM NIL=
200908100800 METAR MRLM NIL=
200908100900 METAR MRLM NIL=
200908101000 METAR MRLM NIL=
200908101100 METAR MRLM NIL=
200908101200 METAR MRLM 101200Z 28005KT 1000 +RA OVC007 24/22 A2993=
200908101300 METAR MRLM 101300Z 27007KT 2000 +RA FEW007 OVC100 24/22 A2995=
200908101400 METAR MRLM 101400Z 24004KT 2000 +RA FEW007 OVC010 23/22 A2998=
200908101500 METAR MRLM 101500Z 23006KT 9999 DZ FEW007 SCT010 SCT090 23/22 A2987 RERA RMK RN DST N W=
200908101600 METAR MRLM 101600Z 20003KT 8000 -RA SCT010 BKN090 24/23 A2997 REDZ=
200908101700 METAR MRLM 101700Z 22003KT 8000 -RA SCT010 BKN090 25/23 A2995 RMK HZ ARND=
200908101800 METAR MRLM 101800Z 20004KT 9999 SCT015 SCT090 26/24 A2994 RERA RMK KRN DST N NE E HZ ARND=
200908101900 METAR MRLM 101900Z 00000KT 9999 SCT020 SCT100 28/23 A2993 RMK RN W N HZ SE=
200908102000 METAR MRLM 102000Z 06005KT 9999 BKN020 SCT100 28/23 A2992 RMK HZ ARND=
200908102100 METAR MRLM 102100Z 01004KT 9999 SCT020 BKN110 28/23 A2099 RMK HZ ARND=
200908102200 METAR MRLM 102200Z 29004KT 9999 SCT020 BKN110 27/23 A2988 RMK RN DST E SE HZ ARND=
200908102300 METAR MRLM 102300Z 31005KT 9999 4000N DZ VCSH BKN015 SCT100 26/23 A2990=
200908110000 METAR MRLM 110000Z 30003KT 9999 DZ BKN010 25/23 A2990 RMK FEW080 HZ ARND RN DST SW W=
200908110100 METAR MRLM NIL=
200908110200 METAR MRLM NIL=
200908110300 METAR MRLM NIL=
200908110400 METAR MRLM NIL=
200908110600 METAR MRLM NIL=
200908110700 METAR MRLM NIL=
200908110800 METAR MRLM NIL=
200908110900 METAR MRLM NIL=
200908111000 METAR MRLM NIL=
200908111100 METAR MRLM NIL=
200908111200 METAR MRLM 111200Z 26003KT 9999 SCT010 BKN100 23/22 A2989 RN NW HZY=
200908111300 METAR MRLM 111300Z 21002KT 9999 SCT010 BKN100 24/22 A2990 RMK RN DST NE HZ LGT ARND=
200908111400 METAR MRLM 111400Z 23004KT 9999 FEW015 BKN100 24/23 A2992 RMK RN DST N HZ LGT ARND=
200908111500 METAR MRLM 111500Z 23005KT 9999 FEW020 BKN100 27/23 A2991 RMK HZ LGT ARND=
200908111600 METAR MRLM 111600Z 01006KT 9999 FEW025 BKN110 29/24 A2990 RMK FEW250 HZ LGT ARND=
200908111700 METAR MRLM 111700Z 36009KT 9999 FEW025 BKN110 29/24 A2990 RMK TRACE CI HZ ARND=
200908111800 METAR MRLM 111800Z 35007KT 9999 FEW025 BKN100 29/24 A2988 RMK HZ ARND=
200908111900 METAR MRLM 111900Z 36006KT 9999 FEW030 SCT110 SCT250 31/25 A2995 RMK HZ ARND=
200908112000 METAR MRLM 112000Z 36008KT 9999 FEW030 BKN250 30/24 A2984 RMK TRACE AV CB DST NE N HZ LGT ARND=
200908112100 METAR MRLM 112100Z 24008KT 9999 FEW030 BKN250 30/25 A2984 RMK CB DST W N LGT HZ ARND=
200908112200 METAR MRLM 112200Z 33008KT 9999 FEW030 SCT250 30/25 A2982 RMK CB DS SW NE HZY=
200908112300 METAR MRLM 112300Z 29006KT 9999 BKN020 29/25 A2984 RMK TRACE CI FEW100 HZ ARND=
200908120000 METAR MRLM 120000Z 30003KT 9999 SCT015 SCT250 28/25 A2987 TRACE AC CBS DST SW HZ ARND=
200908120100 METAR MRLM NIL=
200908120200 METAR MRLM NIL=
200908120300 METAR MRLM NIL=
200908120400 METAR MRLM NIL=
200908120500 METAR MRLM NIL=
200908120600 METAR MRLM NIL=
200908120700 METAR MRLM NIL=
200908120800 METAR MRLM NIL=
200908120900 METAR MRLM NIL=
200908121000 METAR MRLM NIL=
200908121100 METAR MRLM NIL=
200908121200 METAR MRLM NIL=
200908121300 METAR MRLM 121300Z 00000KT CAVOK 27/24 A2987 RMK TRACE CU SCT110 HZ ARND=
200908121400 METAR MRLM 121400Z 00000KT 9999 FEW025 SCT100 30/25 A2989 HZ ARND=
200908121500 METAR MRLM 121500Z 02004KT 9999 SCT025 30/25 A2990 RMK TRACE AC CI HZY=
200908121600 METAR MRLM 121600Z 01004KT 9999 FEW025TCU 30/25 A2990 RMK TRACE CI FEW100 HZ ARND=
200908121700 METAR MRLM 121700Z 04003KT 9999 FEW025 30/25 A2990 RMK FEW300 HZY=
200908121800 METAR MRLM 121800Z 06005KT 9999 FEW025 SCT280 30/25 A2988 HZ ARND=
200908121900 METAR MRLM 121900Z 05004KT 9999 FEW025 BKN280 30/25 A2986 RMK CB DST E HZY=
200908122000 METAR MRLM NIL=
200908122100 METAR MRLM 122100Z 07006KT 9999 FEW025 BKN280 30/25 A2982 RMK CB DST N TRACE AC HZ LGT ARND=
200908122200 METAR MRLM 122200Z 09004KT 9999 SCT030 BKN280 30/25N A2982 RMK CB DST S HZ LGT ARND=
200908122300 METAR MRLM 122300Z 09005KT 9999 FEW025 BKN280 30/25 A2986 RMK FEW140 HZ LEVE ARND=
200908130000 METAR MRLM 130000Z 07004KT 9999 FEW020 BKN280 29/25 A2984 RMK FEW120 HZ LGT ARND=
200908130100 METAR MRLM NIL=
200908130200 METAR MRLM NIL=
200908130300 METAR MRLM NIL=
200908130400 METAR MRLM NIL=
200908130500 METAR MRLM NIL=
200908130600 METAR MRLM NIL=
200908130700 METAR MRLM NIL=
200908130800 METAR MRLM NIL=
200908130900 METAR MRLM NIL=
200908131100 METAR MRLM NIL=
200908131200 METAR MRLM 131200Z 20003KT CAVOK 24/23 A2987 RMK SCT110 BKNSRO=
200908131300 METAR MRLM 131300Z 20004KT CAVOK 26/23 A2987 RMK TRACE CU SCT110 BKN250 HZ LGT ARND=
200908131400 METAR MRLM 131400Z 20003KT 9999 FEW020 BKN250 29/25 A2987 RMK HZ LGT SE=
200908131500 METAR MRLM 131500Z 35005KT CAVOK 30/25 A2987 RMK TRACE CU AC OVC250 HZ LGT ARND=
200908131600 METAR MRLM 131600Z 04004KT 9999 FEW030 BKN250 30/25 A2988 RMK FEW130 HZY=
200908131700 METAR MRLM 131700Z 01004KT 9999 FEW030 BKN250 31/25 A2985 RMK HZY=
200908131800 METAR MRLM 131800Z 36007KT 9999 FEW030 BKN250 31/25 A2985 RMK FEW110 HZY=
200908131900 METAR MRLM 131900Z 35008KT 9999 FEW035 SCT110 SCT260 31/25 A2982 RMK CB DST NE TCU DS HVH820 131858 GG MUHAYMYX MYNNYMYX SAZZMAMX SBBRYZYX SCZZMAMX SEZZMAMX SKZZMAMX SPZZMAMX SVZZMAMX TAPAYMYX TJSJYMYX TNCAYMYX TNCCYMYX MPDAYFYX 131851 MROCYMYX=
200908132000 METAR MRLM 132000Z 35010KT 9999 SCT030 SCT110 31/25 A2982 RMK CB DST NE HZY=
200908132100 METAR MRLM 132100Z 01017KT 6000 +RA BKN020 29/26 A2980 FEW090=
200908132200 METAR MRLM 132200Z 02011KT 9999 +DZ BKN015 27/25 A2981 RERA FEW090 CB RN NE=
200908132300 METAR MRLM 132300Z 36011KT 9999 +DZ BKN015 27/24 A2983 FEW090 RN NW W=
200908140000 METAR MRLM 140000Z 24003KT 9999 SCT010 SCT090 27/24 A2984 REDZ RN W NW HZY=
200908140100 METAR MRLM NIL=
200908140200 METAR MRLM NIL=
200908140300 METAR MRLM NIL=
200908140400 METAR MRLM NIL=
200908140500 METAR MRLM NIL=
200908140600 METAR MRLM NIL=
200908140700 METAR MRLM NIL=
200908140800 METAR MRLM NIL=
200908140900 METAR MRLM NIL=
200908141000 METAR MRLM NIL=
200908141100 METAR MRLM NIL=
200908141200 METAR MRLM 141200Z 27004KT 9999 -RA BKN010 24/23 A2984=
200908141300 METAR MRLM 141300Z 25005KT 8000 +DZ BKN010 24/23 A2985 FEW090 RN W NE E=
200908141400 METAR MRLM 141400Z 20004KT 5000 +RA BKN010 24/23 A2987 REDZ=
200908141500 METAR MRLM 141500Z 00000KT 4000 +RA FEW005 BKN010 24/23 A2993 CB TS N=
200908141600 METAR MRLM 141600Z 22005KT 5000 -RA FEW005 BKN010 24/23 A2994 CB TS N E=
200908141700 METAR MRLM NIL=
200908141800 METAR MRLM 141800Z 20004KT 9999 SCT010 SCT090 24/23 A2990 RERA TCU NW HZY=
200908141900 METAR MRLM 141900Z 20006KT 9999 SCT015 BKN090 26/23 A2986 RN SW SE=
200908142000 METAR MRLM 142000Z 21003KT 9999 FEW020 BKN110 28/24 A2983 HZ SE=
200908142100 METAR MRLM 142100Z 00000KT CAVOK 28/24 A2981 RMK TRACE CU FEW110 BKN250 HZ SE=
200908142200 METAR MRLM 142200Z 23003KT CAVOK 29/23 A2981 RMK SCT110 SCT250 HZ SE=
200908142300 METAR MRLM 142300Z 00000KT CAVOK 30/24 A2981 RMK SCT110 BKN250 HZ ARND=
200908150000 METAR MRLM 150000Z 00000KT CAVOK 28/25 A2982 RMK SCT120 BKN250 CBDST NW RN SE HZ ARND=
200908150100 METAR MRLM NIL=
200908150200 METAR MRLM NIL=
200908150300 METAR MRLM NIL=
200908150400 METAR MRLM NIL=
200908150500 METAR MRLM NIL=
200908150600 METAR MRLM NIL=
200908150700 METAR MRLM NIL=
200908150800 METAR MRLM NIL=
200908150900 METAR MRLM NIL=
200908151000 METAR MRLM NIL=
200908151100 METAR MRLM NIL=
200908151200 METAR MRLM NIL=
200908151300 METAR MRLM 151300Z 20004KT 9999 FEW010 BKN250 23/22 A2983 RMK FEW140 RN DST N CB E=
200908151400 METAR MRLM 151400Z 28005KT 9999 -DZ SCT015 SCT120 26/23 A2986 RMK FEW250 RN N W=
200908151500 METAR MRLM 151500Z 28006KT 9999 BKKN020 SCT110 27/23 A2987 REDZ RMK RN DST N=
200908151600 METAR MRLM 151600Z 36006KT 9999 BKN020 SCT110 27/24 A2988 RMK RN DST NE=
200908151700 METAR MRLM 151700Z 36004KT 9999 SCT030 SCT100 29/24 A2985 RMK FEW250 HZ LGT AROUND=
200908151800 METAR MRLM 151800Z 01005KT 9999 SCT030 SCT100 29/23 A2982 RMK FEW250 TCU DST NE HZ LGT SE=
200908151900 METAR MRLM 151900Z 01007KT 9999 FEW030 BKN250 30/24 A2978 RMK FEW120 HSZ LGT ARND=
200908152000 METAR MRLM 152000Z 35007KT 9999 FEW030 BKN250 30/23 A2976 RMK TRACE AC=
200908152100 METAR MRLM 152100Z 35009KT 9999 FEW030 BKN250 30/24 A2974 RMK TRACE AC CB DST SW=
200908152200 METAR MRLM 152200Z 34007KT 9999 FEW025 SCT120 SCT250 29/24 A2975 RMK CB DST S SW=
200908152300 METAR MRLM 152300Z 27004KT 9999 SCT020 SCT250 28/24 A2978 RMK FEW120 CB RN DST SW S=
200908160000 METAR MRLM 160000Z 26003KT 9999 SCT020 SCT110 27/24 A2978 RMK CB RN DST SSW W=
200908160100 METAR MRLM NIL=
200908160200 METAR MRLM NIL=
200908160300 METAR MRLM NIL=
200908160400 METAR MRLM NIL=
200908160500 METAR MRLM NIL=
200908160600 METAR MRLM NIL=
200908160700 METAR MRLM NIL=
200908160800 METAR MRLM NIL=
200908160900 METAR MRLM NIL=
200908161000 METAR MRLM NIL=
200908161100 METAR MRLM NIL=
200908161200 METAR MRLM NIL=
200908161300 METAR MRLM 161300Z 00000KT CAVOK 24/22 A2986 RMK BKN140 SCT250 CB DST N HZ SE=
200908161400 METAR MRLM 161400Z 28002KT 9999 FEW015 SCT110 SCT250 25/22 A2988 RMK RN DST N NE HZ SE=
200908161500 METAR MRLM 161500Z 26005KT CAVOK 26/22 A2988 RMK TRACE SC BKN120 SCT250 RN DST N HZ SE=
200908161600 METAR MRLM 161600Z 27006KT CAVOK 28/24 A2990 RMK TRACE CU SC BKN110 SCT250=
200908161700 METAR MRLM 161700Z 30007KT 9999 SCT025 SCT110 29/24 A2988 RMK FEW250=
200908161800 METAR MRLM 161800Z 32009KT 9999 SCT025 BKN250 30/24 A2986 RMK TRACE AC TCU DST SW HZ LGT ARND=
200908161900 METAR MRLM NIL=
200908162000 METAR MRLM 162000Z 33010KT 9999 FEW030 BKN250 30/24 A2980 RMK FEW140 HZ LGT ARND=
200908162100 METAR MRLM 162100Z 34010KT 9999 FEW035 BKN250 30/23 A2977 RMK FEW130 CB DST S NE LGT HZ ARND=
200908162200 METAR MRLM 162200Z 34008KT CAVOK 30/24 A2978 RMK TRACE CU SCT120 BKN250 C DST SW HZY=
200908162300 METAR MRLM 162300Z 31005KT 9999 FEW020 SCT110 28/24 A2979 RMK SCT250 CB DST SW LGT HZ ARND=
200908170000 METAR MRLM 170000Z 28003KT 9999 SCT020 BKN110 27/24 A2981 RMK CB DST SW HZ ARND=
200908170100 METAR MRLM NIL=
200908170200 METAR MRLM NIL=
200908170300 METAR MRLM NIL=
200908170400 METAR MRLM NIL=
200908170500 METAR MRLM NIL=
200908170600 METAR MRLM NIL=
200908170700 METAR MRLM NIL=
200908170800 METAR MRLM NIL=
200908170900 METAR MRLM NIL=
200908171000 METAR MRLM NIL=
200908171100 METAR MRLM NIL=
200908171200 METAR MRLM 171200Z 00000KT CAVOK 24/23 A2983 RMK FEW140 SCT260 CB DST CUADRA NTE N=
200908171300 METAR MRLM 171300Z 23002KT CAVOK 26/23 A2985 RMK FEW140 BKN250 CB DST N=
200908171400 METAR MRLM 171400Z 02003KT CAVOK 29/24 A2987 RMK TRACE CU SCT140 BKN250 CB DST N HZ ARND=
200908171500 METAR MRLM 171500Z 02005KT 9999 FEW030 BKN250 30/24 A2987 RMK FEW140 CB DST N NE=
200908171600 METAR MRLM 171600Z NIL=
200908171700 METAR MRLM 171700Z 35010KT 9999 FEW030 BKN250 30/24 A2986 RMK TRACE AC LGT HZ SE=
200908171800 METAR MRLM 171800Z 35011KT 9999 SCT030 BKN250 30/25 A2985 RMK TRACE AC CB DST NE LGT HZ SE=
200908171900 METAR MRLM 171900Z 34011KT 9999 SCT025 SCT260 30/25 A2985 RMK TRACE AC LGT HZ SE=
200908172000 METAR MRLM 172000Z 35010KT 9999 BKN025 30/25 A2981 RMK FEW250 HZ SE=
200908172100 METAR MRLM 172100Z 35009KT 9999 BKN025 30/25 A2980 RMK FEW250 TCU DST SW HZY=
200908172200 METAR MRLM 172200Z 36007KT 9999 BKN020 30/25 A2979 RMK TRACE CI HZ LGT ARND=
200908172300 METAR MRLM 172300Z 02008KT 9999 BKN020 29/25 A2980 RMK TRACE CI TCU DST NE E HZ ARND=
200908180000 METAR MRLM 180000Z 03016KT 9999 -RA OVC010 27/24 A2980 RMK VIS 6000N=
200908180100 METAR MRLM NIL=
200908180200 METAR MRLM NIL=
200908180300 METAR MRLM NIL=
200908180400 METAR MRLM NIL=
200908180500 METAR MRLM NIL=
200908180600 METAR MRLM NIL=
200908180700 METAR MRLM NIL=
200908180800 METAR MRLM NIL=
200908180900 METAR MRLM NIL=
200908181000 METAR MRLM NIL=
200908181100 METAR MRLM NIL=
200908181200 METAR MRLM 181200Z 20006KT 9999 FEW010 SCT110 23/22 A2984 RMK SCT260 RN DST NE E HZ LGT ARND=
200908181300 METAR MRLM 181300Z 22004KT 9999 FEW010 BKN100 25/23 A2985 RMK FEW250 HZ LGT ARND=
200908181400 METAR MRLM 181400Z 20003KT 9999 FEW020 BKN100 28/24 A2986 RMK HZ LGT ARND=
200908181500 METAR MRLM 181500Z 04002KT 9999 FEW030 BKN100 29/24 A2987 RMK TRACE CI TCU DST N NE SE HZ LGT ARND=
200908181600 METAR MRLM 181600Z 02004KT 9999 FEW030 BKN100 29/24 A2987 RMK TRACE CI TCU DST N NE SE HZ LGT ARND=
200908181700 METAR MRLM 181700Z 03005KT 9999 SCT030 BKN100 30/24 A2987 RMK CB DST N NE SE HZ LGT ARND=
200908181800 METAR MRLM 181800Z 05004KT 9999 FEW030 SCT120 30/24 A2984 RMK FEW250 CB DST QUAD N HZ LGT ARND=
200908181900 METAR MRLM 181900Z 02004KT 9999 FEW030 SCT250 30/24 A2981 RMK FEW120 CB DST NE N HZ LGT ARND=
200908182000 METAR MRLM 182000Z 04007KT 9999 FEW030 SCT250 30/24 A2978 RMK FEW140 HZ LGT SE=
200908182100 METAR MRLM 182100Z 02008KT 9999 FEW030 SCT140 30/24 A2976 SCT250 TCU SW NEHZ SE=
200908182200 METAR MRLM 182200Z 01006KT 9999 FEW035 BKN120 31/24 A2976 FEW250 TCU NE HZ SE=
200908182300 METAR MRLM 182300Z 02007KT 9999 SCT030 30/24 A2977 FEW120 FEW250 HZ SE=
200908190000 METAR MRLM 190000Z 02005KT 9999 BKN020 SCT250 27/24 A2978 TRACE AC CB SW NW HZY=
200908190100 METAR MRLM NIL=
200908190200 METAR MRLM NIL=
200908190300 METAR MRLM NIL=
200908190400 METAR MRLM NIL=
200908190500 METAR MRLM NIL=
200908190600 METAR MRLM NIL=
200908190700 METAR MRLM NIL=
200908190800 METAR MRLM NIL=
200908190900 METAR MRLM NIL=
200908191000 METAR MRLM NIL=
200908191100 METAR MRLM NIL=
200908191200 METAR MRLM 191200Z 24004KT CAVOK 24/22 A2981 RMK SCT110 SCT260 CB DST N HZ ARND=
200908191300 METAR MRLM 191300Z 21004KT CAVOK 25/23 A2983 BKN110 FEW260 CB N HZY=
200908191400 METAR MRLM 191400Z 00000KT CAVOK 28/23 A2985 BKN110 CB/TS N NE HZ SE=
200908191500 METAR MRLM 191500Z 05005KT 9999 SCT020 SCT100 29/24 A2985 RN N HZY=
200908191600 METAR MRLM 191600Z 36005KT 9999 SCT020 BKN100 28/24 A2986=
200908191700 METAR MRLM 191700Z 34007KT 9999 FEW020 BKN100 29/25 A2986 REDZ HZY=
200908191800 METAR MRLM 191800Z 34011KT 9999 SCT020 SCT100 29/25 A2983 RN NE HZY=
200908191900 METAR MRLM 191900Z 01012KT 9999 SCT020 SCT100 28/25 A2979 FEW250 RN S SW N NE HZY=
200908192000 METAR MRLM 192000Z 34010KT 9999 BKN020 28/24 A2980 RN SW HZY=
200908192100 METAR MRLM 192100Z 36006KT 9999 SCT020 SCT100 28/24 A2978 RMK RN DST N NE=
200908192200 METAR MRLM 192200Z 28003KT 9999 FEW025 BKN110 28/23 A2977=
200908192300 METAR MRLM 192300Z 00000KT CAVOK 27/23 A2978 RMK TRACE SC BKN110=
200908200000 METAR MRLM 200000Z 00000KT 9999 FEW020 BKN110 27/23 A2980 RMK HZ SE S=
200908200100 METAR MRLM NIL=
200908200200 METAR MRLM NIL=
200908200300 METAR MRLM NIL=
200908200400 METAR MRLM NIL=
200908200500 METAR MRLM NIL=
200908200600 METAR MRLM NIL=
200908200700 METAR MRLM NIL=
200908200800 METAR MRLM NIL=
200908200900 METAR MRLM NIL=
200908201000 METAR MRLM NIL=
200908201100 METAR MRLM NIL=
200908201200 METAR MRLM NIL=
200908201300 METAR MRLM 201300Z 00000KT CAVOK 26/23 A2985 RMK TRACE SC CU CI BKN130 CB DST N SE HZ ARND=
200908201400 METAR MRLM 201400Z 20002KT 9999 FEW040 BKN120 29/24 A2987 RMK FEW280 CB DST NW E RN E=
200908201500 METAR MRLM 201500Z 06005KT 9999 SCT030 SCT120 29/24 A2990 RMK TRACE CI CB RN NE E HZ ARND=
200908201600 METAR MRLM 201600Z 04004KT 9999 FEW030 BKN110 30/24 A2988 RMK TRACE CI CB RN NE HZ ARND=
200908201700 METAR MRLM 201700Z 36007KT 999 FEW030 BKN110 30/24 A2988 RMK HZ ARND=
200908201800 METAR MRLM 201800Z 36008KT 9999 FEW035 BKN120 31/24 A2985 RMK TCU SW HZ ARND=
200908201900 METAR MRLM 201900Z 01009KT CAVOK 30/24 A2982 RMK BKN120 TRACE CI HZ ARND=
200908202000 METAR MRLM 202000Z 36006KT CAVOK 31/24 A2981 RMK TRACE CU SCT120 SCT250 CB DST SW HZ HVH869 2019CU SCT120 SCT250 CB DST SW HZ ARND=
200908202100 METAR MRLM 202100Z 01007KT 9999 FEW030 BKN250 31/25 A2979 RMK FEW140 TCU DST S HZ LGT ARND=
200908202200 METAR MRLM 202200Z 36006KT 9999 FEW030 BKN250 30/25 A2979 RMK FEW140 TCU DST SW HZ LGT ARND=
200908202300 METAR MRLM 202300Z 03005KT 9999 SCT020 SCT250 29/24 A2982 RMK RN DST S HZ LGT ARND=
200908210000 METAR MRLM 210000Z 03010KT 9999 BKN020 27/24 A2982 RMK FEW250 CB RN S SW HZ LGT ARND=
200908210100 METAR MRLM NIL=
200908210200 METAR MRLM NIL=
200908210300 METAR MRLM NIL=
200908210400 METAR MRLM NIL=
200908210500 METAR MRLM NIL=
200908210600 METAR MRLM NIL=
200908210700 METAR MRLM NIL=
200908210800 METAR MRLM NIL=
200908210900 METAR MRLM NIL=
200908211000 METAR MRLM NIL=
200908211100 METAR MRLM NIL=
200908211200 METAR MRLM NIL=
200908211300 METAR MRLM 211300Z 00000KT CAVOK 25/23 A2988 RMK TRACE SC BKN110 CB RN DST E HZ LGT ARND=
200908211400 METAR MRLM 211400Z 21002KT CAVOK 26/23 A2990 RMK BKN110 FEW280 CB RN DST E SE=
200908211500 METAR MRLM 211500Z 16002KT CAVOK 27/23 A2989 RMK FEW110 FEW150 BKN270 CB RN DST NE E HZ LGT ARND=
200908211600 METAR MRLM 211600Z 05003KT CAVOK 28/23 A2989 RMK TRACE CU FEW140 BKN280 CB RN DST N HZ LGT ARND=
200908211700 METAR MRLM 211700Z 06004KT 9999 FEW030 BKN280 29/23 A2988 RMK FEW140 CB RN DST NE HZ LGT ARND=
200908211800 METAR MRLM 211800Z 10007KT 9999 FEW030 BKN270 30/24 A2986 RMK FEW130 CB RN DST NE HZ HZ LGT ARND=
200908211900 METAR MRLM 211900Z 09006KT 9999 FEW035 SCT110 29/23 A2982 RMK SCT270 HZ LGT ARND=
200908212000 METAR MRLM 212000Z 08007KT 9999 FEW030 BKN130 29/23 A2980 RMK FEW270 HZ LGT ARND=
200908212100 METAR MRLM 212100Z 06006KT 9999 FEW030 SCT110 29/24 A2979 RMK FEW140 FEW270 LGT HZ ARND=
200908212200 METAR MRLM 212200Z 02004KT 9999 FEW030 BKN110 30/24 A2977 RMK FEW270 HZY=
200908212300 METAR MRLM 212300Z 02004KT 9999 FEW028 SCT110 29/24 A2979 RMK SCT270 HZY=
200908220000 METAR MRLM 220000Z 02003KT 9999 FEW020 SCT120 28/24 A2980 RMK SCT270 CB DST NW HZY=
200908220100 METAR MRLM NIL=
200908220200 METAR MRLM NIL=
200908220300 METAR MRLM NIL=
200908220400 METAR MRLM NIL=
200908220600 METAR MRLM NIL=
200908220700 METAR MRLM NIL=
200908220800 METAR MRLM NIL=
200908221000 METAR MRLM NIL=
200908221100 METAR MRLM NIL=
200908221200 METAR MRLM 221200Z 22004KT CAVOK 24/22 A2985 RMK TRACE SC BKN120 HZ=
200908221300 METAR MRLM 221300Z 22004KT CAVOK 24/22 A2987 RMK TRACE CU SC BKN120 HZ SE=
200908221400 METAR MRLM 221400Z 22003KT CAVOK 27/24 A2990 RMK TRACE CU BKN140 TCU DST NE HZ ARND=
200908221500 METAR MRLM 221500Z 00000KT 9999 SCT030 BKN140 30/24 A2991 RMK HZY=
200908221600 METAR MRLM 221600Z 06005KT 9999 FEW030 SCT140 30/24 A2990 RMK FEW250 HZ LGT ARND=
200908221700 METAR MRLM 221700Z 04006KT 9999 FEW030 BKN250 30/24 A2989 RMK TRACE AC HZ ARND=
200908221800 METAR MRLM 221800Z NIL=
200908221900 METAR MRLM 221900Z 03007KT CAVOK 30/24 A2983 RMK TRACE CU OVC250 HZY=
200908222000 METAR MRLM 222000Z 04006KT CAVOK 30/24 A2981 TRAZAS CU OVC250 HZ ARND=
200908222100 METAR MRLM 222100Z 03005KT CAVOK 30/24 A2979 RMK TRACE CU AC OVC250 HZ ARND=
200908222200 METAR MRLM 222200Z 03004KT 9999 SCT030 BKN250 30/24 A2979 RMK HZ ARND=
200908222300 METAR MRLM 222300Z 04004KT 9999 SCT025 BKN250 30/24 A2981 RMK HZ Y=
200908230000 METAR MRLM 230000Z 04003KT 9999 BKN020 SCT250 28/24 A2982 RMK HZY=
200908230100 METAR MRLM NIL=
200908230200 METAR MRLM NIL=
200908230400 METAR MRLM NIL=
200908230500 METAR MRLM NIL=
200908230600 METAR MRLM NIL=
200908230700 METAR MRLM NIL=
200908230800 METAR MRLM NIL=
200908230900 METAR MRLM NIL=
200908231000 METAR MRLM NIL=
200908231100 METAR MRLM NIL=
200908231200 METAR MRLM 231200Z 23004KT 9999 SCT010 SCT090 23/21 A2982 RMK RN DST NE HZ SE=
200908231300 METAR MRLM 231300Z 24004KT 9999 SCT010 SCT090 24/22 A2985 RMK CB TS DST NE E HZ SE=
200908231400 METAR MRLM 231400Z 18003KT 8000 -RA BKN010 SCT090 23/22 A2989 RMK CB TS DST NE E=
200908231500 METAR MRLM 231500Z 20003KT 5000 +RA BKN010 23/22 A2991 RMK FEW090=
200908231600 METAR MRLM 231600Z 00000KT 9999 -DZ SCT020 BKN100 24/23 A2987 RERA RMK RN DST SW E HZ LGT SE=
200908231700 METAR MRLM 231700Z 24003KT 9999 SCT020 BKN100 25/23 A2988 REDZ HZ ARND=
200908231800 METAR MRLM 231800Z 24003KT 9999 FEW020 SCT110 27/24 A2984 RMK SCT250 NOSIG=
200908231900 METAR MRLM 231900Z 26004KT CAVOK 29/24 A2982 RMK TRACE CU SCT120 BKN260 HZ LGT ARND=
200908232000 METAR MRLM 232000Z 29006KT CAVOK 29/24 A2980 RMK TRACE CU SCT120 SCT260 HZ LGT ARND=
200908232100 METAR MRLM 232100Z 32006KT CAVOK 29/24 A2978 TRACE CU BKN120 SCT250 HZY=
200908232200 METAR MRLM 232200Z 32007KT CAVOK 29/24 A2977 TRACE CU BKN1100 SCT250 HZY=
200908232300 METAR MRLM 232300Z 31004KT CAVOK 28/24 A2979 TRACE CU SCT110 BKN250 HZY=
200908240000 METAR MRLM 240000Z 30003KT CAVOK 27/23 A2980 TRACE CU BKN110 SCT250 HZY=
200908240100 METAR MRLM NIL=
200908240200 METAR MRLM NIL=
200908240300 METAR MRLM NIL=
200908240400 METAR MRLM NIL=
200908240500 METAR MRLM NIL=
200908240600 METAR MRLM NIL=
200908240700 METAR MRLM NIL=
200908240800 METAR MRLM NIL=
200908240900 METAR MRLM NIL=
200908241000 METAR MRLM NIL=
200908241100 METAR MRLM NIL=
200908241200 METAR MRLM NIL=
200908241300 METAR MRLM 241300Z 22004KT CAVOK 24/23 A2982 BKN090 SCT270 HZY=
200908241400 METAR MRLM 241400Z 20003KT 9999 FEW035 BKN280 27/24 A2985 FEW130 HZY=
200908241500 METAR MRLM 241500Z 26003KT 9999 FEW030 BKN280 30/24 A2984 TRACE AC HZY=
200908241600 METAR MRLM 241600Z 36007KT 9999 FEW035 BKN280 31/24 A2983 HZY CB N=
200908241700 METAR MRLM 241700Z 35011KT 9999 FEW030 BKN280 31/25 A2982 CB N NE E HZY=
200908241800 METAR MRLM 241800Z 35008KT 9999 FEW025 SCT140 30/25 A2982 FEW120 CB RN NW N NE E HZY=
200908241900 METAR MRLM 241900Z 36016KT 8000 RA BKN015 28/25 A2982 FEW120 VSBY N UNL=
200908242000 METAR MRLM 242000Z 34010KT 9999 FEW015 BKN090 27/24 A2980 RERA RN/HZ ARND=
200908242100 METAR MRLM 242100Z 35005KT 9999 +DZ SCT018 SCT090 28/24 A2979 RMK HZ ARND=
200908242200 METAR MRLM 242200Z 35007KT 9999 DZ SCT015 SCT090 27/24 A2979 RMK FEW120 CB RN NE TCU RN S SW=
200908242300 METAR MRLM 242300Z 26003KT 9999 DZ FEW015 SCT110 BKN140 27/24 A2978 RMK CB RN NE E=
200908250000 METAR MRLM 250000Z 270003KT 9999 DZ BKN120 26/24 A2979 RMK TRACE SC FEW140 CB RN NE E=
200908250100 METAR MRLM NIL=
200908250200 METAR MRLM NIL=
200908250300 METAR MRLM NIL=
200908250400 METAR MRLM NIL=
200908250500 METAR MRLM NIL=
200908250600 METAR MRLM NIL=
200908250700 METAR MRLM NIL=
200908250800 METAR MRLM NIL=
200908250900 METAR MRLM NIL=
200908251000 METAR MRLM NIL=
200908251100 METAR MRLM NIL=
200908251200 METAR MRLM 251200Z NIL=
200908251300 METAR MRLM 251300Z 00000KT CAVOK 27/22 A2978 RMK SCT130 SCT250 HZ LEVE ARND TRACE SC=
200908251400 METAR MRLM 251400Z 28005KT CAVOK 28/22 A2979 RMKBKN110 FEW280 HZ ARND=
200908251500 METAR MRLM 251500Z 28007KT CAVOK 29/23 A2980 RMK BKN110 FEW280 TRACE SC HZ ARND=
200908251600 METAR MRLM 251600Z 31008KT 9999 FEW030 BKN100 29/23 A2982 RMK TRACE CI HZ ARND=
200908251700 METAR MRLM 251700Z 34008KT 9999 BKN030 SCT110 30/24 A2982=
200908251800 METAR MRLM 251800Z 36010KT 9999 BKN025 SCT130 29/25 A2980 RMKTCU RN SW TRACE CI=
200908251900 METAR MRLM 251900Z 36007KT 9999 SCT025 BKN120 30/25 A2977 RMK RN DST SW TRAC E CI HZ ARND=
200908252000 METAR MRLM 252000Z 36008KT 9999 SCT025 SCT130 30/24 A2976 RMK TRACE CI FEW09 0 RN W CB SE=
200908252100 METAR MRLM 252100Z 34006KT 9999 FEW025 SCT090 29/24 A2974 RMK SCT140 FEW280 CVDST SE N RN DST SW W=
200908252200 METAR MRLM 252200Z 36006KT 9999 FEW025 BKN110 30/25 A2974 RMK FEW090 FEW280 RN DST NW=
200908252300 METAR MRLM 252300Z 35005KT 9999 FEW025 BKN110 29/25 A2975 RMK FEW280 CB DST S RN NW FEW280=
200908260000 METAR MRLM 260000Z 30003KT CAVOK 28/24 A2976 RMK TRACE CU CI OVC090 CB RN DST NW HZ LGT ARND=
200908260100 METAR MRLM NIL=
200908260200 METAR MRLM NIL=
200908260300 METAR MRLM NIL=
200908260400 METAR MRLM NIL=
200908260500 METAR MRLM NIL=
200908260600 METAR MRLM NIL=
200908260700 METAR MRLM NIL=
200908260800 METAR MRLM NIL=
200908260900 METAR MRLM NIL=
200908261000 METAR MRLM NIL=
200908261100 METAR MRLM NIL=
200908261200 METAR MRLM 261200Z NIL=
200908261300 METAR MRLM 261300Z 21003KT 9999 FEW010 BKN100 25/24 A2985 RMK RN DST E HZ LGT SE=
200908261400 METAR MRLM 261400Z 18003KT 9999 SCT015 BKN100 27/25 A2986 RMK RN DST S SE TCU DST NE=
200908261500 METAR MRLM 261500Z 11006KT 9999 SCT020 SCT100 29/25 A2987 RMK TCU DST NE W HZ ARND LGT=
200908261600 METAR MRLM 261600Z 07006KT 9999 SCT030 30/25 A2987 RMK FEW120=
200908261700 METAR MRLM 261700Z 07005KT 9999 FEW030 30/25 A2986 RMK TRACE AC FEW260=
200908261800 METAR MRLM 261800Z 06006KT 9999 FEW030 SCT260 30/25 A2985=
200908261900 METAR MRLM 261900Z 07006KT 9999 FEW030 BKN250 31/24 A2982=
200908262000 METAR MRLM 262000Z 05007KT CAVOK 31/24 A2980 RMK TRACE CU BKN250=
200908262100 METAR MRLM 262100Z 06010KT CAVOK 31/24 A2979 RMK TRACE CU AC BKN250=
200908262200 METAR MRLM 262200Z 06007KT CAVOK 31/25 A2977 RMK TRACE CU AC BKN250=
200908262300 METAR MRLM 262300Z 09004KT CAVOK 30/25 A2979 RMK TRACE CU FEW140 BKN250 TCU DST W=
200908270000 METAR MRLM 270000Z 07004KT 9999 FEW020 BKN250 29/25 A2980 FEW140 LGT HZ SE=
200908270100 METAR MRLM NIL=
200908270200 METAR MRLM NIL=
200908270300 METAR MRLM NIL=
200908270400 METAR MRLM NIL=
200908270500 METAR MRLM NIL=
200908270600 METAR MRLM NIL=
200908270700 METAR MRLM NIL=
200908270800 METAR MRLM NIL=
200908270900 METAR MRLM NIL=
200908271000 METAR MRLM NIL=
200908271100 METAR MRLM NIL=
200908271200 METAR MRLM NIL=
200908271300 METAR MRLM 271300Z 22004KT 9999 SCT010 SCT100 26/24 A2985 REDZ RMK CB TS DST NE HZ SE=
200908271400 METAR MRLM 271400Z 22003KT 9999 SCT015 SCT100 27/24 A2986 RMK FEW260 CB TS DST E HZ SE=
200908271500 METAR MRLM 271500Z 00000KT 9999 SCT020 SCT100 28/25 A2988 RMK CB TS DST E LGT HZ SE=
200908271600 METAR MRLM 271600Z 00000KT 9999 BKN020 SCT100 28/25 A2990 CB TS DST SE E=
200908271700 METAR MRLM 271700Z 08003KT 9999 +DZ BKN020 SCT090 29/25 A2989 RMK CB RN DST S=
200908271800 METAR MRLM 271800Z 03004KT 9999 SCT020 29/25 A2983 REDZ RMK FEW100 FEW250 CB RN DST RN HZ ARND=
200908271900 METAR MRLM 271900Z 03007KT 9999 SCT020 BKN250 30/26 A2981 RMK TRACE AC CB DST N HZY=
200908272000 METAR MRLM 272000Z 03006KT 9999 FEW030 BKN250 31/25 A2980 RMK TCU DST SW HZ LIG SE=
200908272100 METAR MRLM 272100Z 02006KT CAVOK 30/25 A2978 RMK FEW140 BKN250 HZ LGT SE=
200908272200 METAR MRLM 272200Z 03005KT CAVOK 30/25 A2978 RMK SCT120 SCT250 CB TS DST E SE HZ LGT ARND=
200908272300 METAR MRLM 272300Z 05004KT 9999 FEW025 BKN250 30/24 A2980 RMK FEW120 CB TS DST SE HZ LGT ARND=
200908280000 METAR MRLM 280000Z 05003KT 9999 BKN020 29/25 A2983 RMK FEW110 HZ LGT ARND=
200908280100 METAR MRLM NIL=
200908280200 METAR MRLM NIL=
200908280300 METAR MRLM NIL=
200908280400 METAR MRLM NIL=
200908280500 METAR MRLM NIL=
200908280600 METAR MRLM NIL=
200908280700 METAR MRLM NIL=
200908280800 METAR MRLM NIL=
200908280900 METAR MRLM NIL=
200908281000 METAR MRLM NIL=
200908281100 METAR MRLM NIL=
200908281200 METAR MRLM NIL=
200908281300 METAR MRLM 281300Z 30003KT 9999 DZ SCT010 SCT030 24/23 A2984 RMK CB RN DST QUAD N E TRACE AS TSTM DST NE=
200908281400 METAR MRLM 281400Z 23003KT 9999 SCT015 SCT080 26/24 A2986 REDZ RMK CB RN DST QUAD NE TSTM DST NE=
200908281500 METAR MRLM 281500Z 00000KT 9999 FEW020 BKN080 28/24 A2986 RMK FEW150 TSTM DST NE CB RN DST QUAD N NE=
200908281600 METAR MRLM 281600Z 36019KT 1000 TSRA FEW005 SCT010CB BKN015 27/24 A2988=
200908281700 METAR MRLM 281700Z 26005KT 8000 TSRA FEW005 SCT010CB BKN020 24/23 A2989=
200908281800 METAR MRLM 281800Z 21005KT 9999 +DZ FEW005 SCT010 SCT130 24/23 A2987 RERATS CB RN DST ARND=
200908281900 METAR MRLM 281900Z 23005KT 9999 BKN025 SCT130 24/23 A2985 REDZ RMK CB RN DST ARND TRACE ST=
200908282000 METAR MRLM 282000Z 22003KT CAVOK 26/24 A2980 RMK SCT090 BKN130 FEW270 CB RN DST NW N NE E TSTM DST NE=
200908282100 METAR MRLM 282100Z 28002KT CAVOK 27/24 A2977 SCT130 FEW150 SCT270 CB RN N NE E=
200908282200 METAR MRLM 282200Z 36003KT CAVOK 29/24 A2979 OVC110 CB RN N NE=
200908282300 METAR MRLM 282300Z 27004KT CAVOK 27/24 A2979 BKN110 SCT140 CB RN N NE E=
200908290000 METAR MRLM 290000Z 24004KT CAVOK 26/24 A2979 BKN100 SCT130 CB RN N E=
200908290100 METAR MRLM NIL=
200908290200 METAR MRLM NIL=
200908290300 METAR MRLM NIL=
200908290400 METAR MRLM NIL=
200908290500 METAR MRLM NIL=
200908290600 METAR MRLM NIL=
200908290700 METAR MRLM NIL=
200908290800 METAR MRLM NIL=
200908290900 METAR MRLM NIL=
200908291100 METAR MRLM NIL=
200908291200 METAR MRLM NIL=
200908291300 METAR MRLM 291300Z 28006KT 9999 BKN020 SCT080 26/22 A2988 RN ARND=
200908291400 METAR MRLM 291400Z 33006KT 9999 DZ SCT015 SCT080 24/21 A2993 RERA CB RN ARND=
200908291500 METAR MRLM 291500Z 20005KT 9999 +DZ BKN010 24/22 A2993 FEW100 CB N RN ARND=
200908291600 METAR MRLM 291600Z 25006KT 9999 DZ BKN090 25/22 A2992 FEW120 CB RN NW N NE E=
200908291700 METAR MRLM 291700Z 30004KT 9999 FEW010 SCT090 26/22 A2992 FEW025 SCT130 CB RN NE=
200908291800 METAR MRLM 291800Z 29004KT 9999 BKN025 SCT090 27/22 A2991 CB RNNE DZ NE E=
200908291900 METAR MRLM 291900Z 36016KT 3000 RA OVC015 26/22 A2990=
200908292000 METAR MRLM 292000Z 27005KT 9999 -DZ BKN025 24/22 A2988 FEW090 RERA RN ARND=
200908292100 METAR MRLM 292100Z 22003KT 9999 -DZ FEW008 BKN100 25/23 A2986 RMK FEW130 CB RN DST N E=
200908292200 METAR MRLM 292200Z 23003KT CAVOK 26/24 A2983 REDZ RMK FEW080 BKN100 TRACE SC DZ S W=
200908292300 METAR MRLM 292300Z 14002KT 9999 DZ BKN100 26/23 A2987 RMK CB RN DST NW NE E TRACE SC=
200908300000 METAR MRLM 300000Z 00000KT 9999 DZ BKN100 25/24 A2987 RMK TRACE SC FEW130 CB DST N E=
200908300100 METAR MRLM NIL=
200908300200 METAR MRLM NIL=
200908300300 METAR MRLM NIL=
200908300400 METAR MRLM NIL=
200908300500 METAR MRLM NIL=
200908300600 METAR MRLM NIL=
200908300700 METAR MRLM NIL=
200908300800 METAR MRLM NIL=
200908300900 METAR MRLM NIL=
200908301000 METAR MRLM NIL=
200908301200 METAR MRLM 301200Z 24005KT CAVOK 24/21 A2983 RMK OVC120 HZ LEVE ARND=
200908301300 METAR MRLM 301300Z 24005KT CAVOK 24/21 A2983 RMK OVC120 HZ LEVE ARND=
200908301400 METAR MRLM 301400Z 24005KT CAVOK 24/21 A2983 RMK OVC110 HZ LEVE SE=
200908301500 METAR MRLM 301500Z 24005KT CAVOK 24/21 A2983 RMK BKN110 HZ SE=
200908301600 METAR MRLM 301600Z 36003KT CAVOK 29/24 ND RMK BKN110 CB DST NE HZ LEVE SE=
200908301700 METAR MRLM 301700Z 00000KT 9999 FEW020 SCT120 30/23 ND RMK FEW250 HZ=
200908301800 METAR MRLM 301800Z 02008KT 9999 FEW030 BKN120 30/23 A2985 RMK HZ ARND=
200908301900 METAR MRLM NIL=
200908302000 METAR MRLM 302000Z 02007KT CAVOK 30/24 A2984 RMK OVC120 CB DST SW HZ=
200908302100 METAR MRLM 302100Z 02005KT 9999 FEW030 BKN110 30/24 A2983 RMK HZ LGT ARND=
200908302200 METAR MRLM 302200Z 04011KT 9999 SCT020 SCT100 28/24 A2989=
200908302300 METAR MRLM 302300Z 04007KT 9999 FEW020 BKN100 28/23 A2983 RMK HZ LGT ARND=
200908310000 METAR MRLM 310000Z 04007KT 9999 FEW015 BKN100 27/24 A2987 RMK HZ LGT ARND=
200908310100 METAR MRLM NIL=
200908310200 METAR MRLM NIL=
200908310300 METAR MRLM NIL=
200908310400 METAR MRLM NIL=
200908310500 METAR MRLM NIL=
200908310600 METAR MRLM NIL=
200908310700 METAR MRLM NIL=
200908310800 METAR MRLM NIL=
200908310900 METAR MRLM NIL=
200908311000 METAR MRLM NIL=
200908311100 METAR MRLM NIL=
200908311200 METAR MRLM 311200Z 03007KT CAVOK 28/23 A2983 BKN110 TCU NW HZ SE=
200908311300 METAR MRLM 311300Z 28003KT CAVOK 25/21 ND RMK SCT130 CB DST N W HZ LGT SE=
200908311400 METAR MRLM 311400Z 00000KT CAVOK 28/23 ND RMK BKN120 CB DST NW N HZ LGT SE=
200908311500 METAR MRLM 311500Z 00000KT 9999 FEW030 BKN120 29/24 ND RMK HZ LGT SE=
200908311600 METAR MRLM 311600Z 07004KT 9999 FEW030 BKN130 30/24 ND RMK HZ ARND=
200908311700 METAR MRLM 311700Z 06003KT 9999 FEW030 BKN140 30/24 ND RMK TCU DST NW=
200908311800 METAR MRLM 311800Z 03006KT 9999 FEW030 30/24 ND RMK FEW140 TCU DST S CB DST NW=
200908311900 METAR MRLM 311900Z 36008KT 9999 FEW030 30/24 ND RMK CB DST NW TCU DST SW=
200908312000 METAR MRLM 312000Z 01008KT 9999 FEW030 30/24 ND RMK CB DST NW SW=
200908312100 METAR MRLM 312100Z 01006KT 9999 FEW025 30/24 //// RMK CB DST S SW=
200908312200 METAR MRLM 312200Z 02008KT 9999 SCT025 30/24 //// CB DST S=
200908312300 METAR MRLM 312300Z 32005KT 9999 BKN020 30/24 A2983 RMK CB DTS S HZ SE=
200909010000 METAR MRLM 010000Z 30004KT 9999 BKN020 29/24 A2986 RMK CB DST S SW HZY=
200909010100 METAR MRLM NIL=
200909010200 METAR MRLM NIL=
200909010300 METAR MRLM NIL=
200909010400 METAR MRLM NIL=
200909010500 METAR MRLM NIL=
200909010600 METAR MRLM NIL=
200909010700 METAR MRLM NIL=
200909010800 METAR MRLM NIL=
200909010900 METAR MRLM NIL=
200909011000 METAR MRLM NIL=
200909011100 METAR MRLM NIL=
200909011200 METAR MRLM 011200Z 21004KT CAVOK 26/24 A2990 RMK BKN080 FEW280 CB DST NW NE HZ LEVE ARND=
200909011300 METAR MRLM 011300Z 21004KT CAVOK 26/24 A2990 RMK SCT090 SCT280 C DST N HZ ARND=
200909011400 METAR MRLM NIL=
200909011500 METAR MRLM 011500Z 07004KT CAVOK 29/24 A2990 RMK SCT120 SCT280 TRACE SC CB DST N RN DST NE=
200909011600 METAR MRLM 011600Z 03004KT 9999 FEW030 BKN120 30/24 A2994 RMK CB DST NW N FEW280 HZY=
200909011700 METAR MRLM 011700Z 04005KT 9999 FEW030 BKN110 30/24 A2993 RMK FEW280 HZY=
200909011800 METAR MRLM 011800Z 06005KT 9999 FEW025 30/25 A2990 RMK FEW140 FEW280 CB DST NW SE HZY=
200909011900 METAR MRLM 011900Z 04005KT 9999 FEW025 31/25 A2987 RMK FEW140 FEW280 HZY=
200909012000 METAR MRLM 012000Z 03008KT 9999 FEW030 31/25 A2987 RMK FEW140 FEW280 HZY=
200909012100 METAR MRLM 012100Z 04005KT 9999 FEW030 31/25 A2985 RMK TRACE CI FEW150 LGT HZ ARND CB DST S=
200909012200 METAR MRLM 012200Z 06005KT 9999 FEW030 31/24 A2984 RMK FEW150 FEW280 HZ LGT ARND CB DST S=
200909012300 METAR MRLM 012300Z 08003KT 9999 FEW028 BKN280 30/24 A2985 RMK TRACE AC HZ LEVE ARND=
200909020000 METAR MRLM 020000Z 10003KT 9999 SCT020 SCT080 29/25 A2988 RMK HZ LGT ARND TRACE AC=
200909020100 METAR MRLM NIL=
200909020200 METAR MRLM NIL=
200909020300 METAR MRLM NIL=
200909020400 METAR MRLM NIL=
200909020500 METAR MRLM NIL=
200909020600 METAR MRLM NIL=
200909020700 METAR MRLM NIL=
200909020800 METAR MRLM NIL=
200909020900 METAR MRLM NIL=
200909021000 METAR MRLM NIL=
200909021100 METAR MRLM NIL=
200909021200 METAR MRLM 021200Z NIL=
200909021300 METAR MRLM 021300Z 23004KT CAVOK 26/24 A2988 RMK FEW080 CB RN DST QUAD N TRACE CI HZ LGT ARND=
200909021400 METAR MRLM 021400Z 20002KT CAVOK 27/25 A2990 RMK TRACE SC CI BKN090 RN DST NW N NE E CB DST NW=
200909021500 METAR MRLM 021500Z 01005KT 9999 FEW025 BKN120 29/24 A2991 RMK TCU DST W HZY=
200909021600 METAR MRLM 021600Z 34005KT 9999 FEW038 BKN100 31/24 A2991 RMK HZY=
200909021700 METAR MRLM 021700Z 01007KT 9999 FEW035 SCT130 31/24 A2989 RMK CB DST E HZY TRACE CI=
200909021800 METAR MRLM 021800Z 01006KT 9999 FEW035 BKN140 31/24 A2987 RMK CB DST NE E TRACE CI HZ LGT ARND=
200909021900 METAR MRLM 021900Z 36010KT 9999 FEW035 BKN140 31/25 A2984 RMK TRACE CI CB RN DST NE E HZ ARND=
200909022000 METAR MRLM 022000Z 01011KT 9999 FEW028 BKN090 30/25 A2983 RMK CB RN DST N HZ LGT ARND=
200909022100 METAR MRLM 022100Z 34016KT 9999 FEW018 BKN080 29/25 A2983 CB N NE RN SW W NE N=
200909022200 METAR MRLM 022200Z 36014KT 9999 OVC015 28/25 A2983 RN ARND=
200909022300 METAR MRLM 022300Z 03011KT 9999 FEW015 SCT035 27/24 A2985 SCT280 RN ARND CB N=
200909030000 METAR MRLM 030000Z 22003KT 9999 +DZ FEW015 BKN090 26/24 A2986=
200909030100 METAR MRLM NIL=
200909030200 METAR MRLM NIL=
200909030300 METAR MRLM NIL=
200909030400 METAR MRLM NIL=
200909030500 METAR MRLM NIL=
200909030600 METAR MRLM NIL=
200909030700 METAR MRLM NIL=
200909030800 METAR MRLM NIL=
200909030900 METAR MRLM NIL=
200909031000 METAR MRLM NIL=
200909031100 METAR MRLM NIL=
200909031200 METAR MRLM 031200Z 23004KT CAVOK 25/22 A2987 RMK SCT130 BKN250 HZ LGT ARND=
200909031300 METAR MRLM 031300Z 21005KT CAVOK 26/23 A2987 SCT130 SCT250 HZ SE=
200909031400 METAR MRLM 031400Z 23002KT CAVOK 29/24 A2988 FEW140 BKN250 HZ SE=
200909031500 METAR MRLM 031500Z 03003KT CAVOK 30/24 A2990 OVC250 HZY=
200909031600 METAR MRLM 031600Z 36006KT 9999 FEW040 OVC250 32/23 A2989 HZY=
200909031700 METAR MRLM 031700Z 35007KT CAVOK 32/22 A2989 OVC250 HZY=
200909031800 METAR MRLM 031800Z 36006KT CAVOK32/24 A2987 OVC250 HZY=
200909031900 METAR MRLM 031900Z 35008KT 9999 FEW035 BKN250 31/24 A2984 HZY=
200909032000 METAR MRLM 032000Z 35009KT 9999 FEW035 BKN250 31/25 A2981 FEW140 HZY=
200909032100 METAR MRLM 032100Z 34009KT CAVOK 31/24 A2982 RMK FEW140 BKN250 HZ LEVE ARND=
200909032200 METAR MRLM 032200Z 32005KT 9999 FEW030 SCT250 30/24 A2980 RMK FEW120 HZ ARND=
200909032300 METAR MRLM 032300Z 34005KT 9999 SCT020 SCT100 30/24 A2982 RMK FEW250 HZ ARND=
200909040000 METAR MRLM 040000Z 28003KT 9999 BKN020 29/25 A2981 RMK FEW100 FEW250 HZ ARND=
200909040100 METAR MRLM NIL=
200909040200 METAR MRLM NIL=
200909040300 METAR MRLM NIL=
200909040400 METAR MRLM NIL=
200909040500 METAR MRLM NIL=
200909040600 METAR MRLM NIL=
200909040700 METAR MRLM NIL=
200909040800 METAR MRLM NIL=
200909040900 METAR MRLM NIL=
200909041000 METAR MRLM NIL=
200909041100 METAR MRLM NIL=
200909041200 METAR MRLM 041200Z 00000KT 9999 BKN010 SCT100 24/20 A2988 RMK HZ ARND DATOS ESTIMADOS=
200909041300 METAR MRLM 041300Z 23003KT 9999 FEW020 SCT100 26/22 A2987 RMK FEW250 CB TS NE HZ ARND=
200909041400 METAR MRLM 041400Z 00000KT CAVOK 28/23 A2989 RMK FEW110 BKN250 CB RN DST NW HZ SE=
200909041500 METAR MRLM 041500Z 34003KT 999 FEW020 SCT110 28/23 A2989 RMKSCT250 CB RN DST N NE=
200909041600 METAR MRLM NIL=
200909041700 METAR MRLM 041700Z 35008KT 9999 BKN020 28/23 ND RMK CB RN NE HZ ARND=
200909041800 METAR MRLM NIL=
200909041900 METAR MRLM 041900Z 32008KT 9999 FEW030 BKN110 30/24 ND RMK FEW250 HZ W=
200909042000 METAR MRLM 042000Z 36010KT 9999 SCT030 SCT110 30/24 ND RMK FEW250 TCU DST SW HZ SE=
200909042100 METAR MRLM 042100Z 35012KT 9999 SCT030 SCT120 30/24 ND RMK FEW250 CV DST S SW HZ LGT SE=
200909042200 METAR MRLM 042200Z 31006KT 9999 BKN025 29/23 ND RMK FEW100 HZ LGT SE=
200909042300 METAR MRLM 042300Z 29003KT 9999 BKN025 28/23 ND RMK FEW100 HZ LGT SE=
200909050000 METAR MRLM 050000Z 32003KT 9999 SCT020 SCT100 27/22 ND RMK RN DST NE HZ LGT SE=
200909050100 METAR MRLM NIL=
200909050200 METAR MRLM NIL=
200909050300 METAR MRLM NIL=
200909050400 METAR MRLM NIL=
200909050500 METAR MRLM NIL=
200909050600 METAR MRLM NIL=
200909050700 METAR MRLM NIL=
200909050800 METAR MRLM NIL=
200909050900 METAR MRLM NIL=
200909051000 METAR MRLM NIL=
200909051100 METAR MRLM NIL=
200909051200 METAR MRLM NIL=
200909051300 METAR MRLM 051300Z 28003KT 9999 FEW015 BKN090 25/23 A2987 RMK CB RN DST NW NE E=
200909051400 METAR MRLM 051400Z 28003KT 9999 FEW015 BKN090 25/23 A2987 RMK CB RN DST NW N NE E=
200909051500 METAR MRLM 051500Z 27004KT 9999 FEW020 BKN100 29/24 A2987 RMK FEW140 TRACE CI CB RN DST NW=
200909051600 METAR MRLM 051600Z 02006KT 9999 FEW025 BKN100 30/23 A2986 RMK FEW140 TRACE CI HZ LGT ARND=
200909051700 METAR MRLM 051700Z 02006KT 9999 FEW028 BKN140 30/24 A2986 RMK HZ ARND=
200909051800 METAR MRLM 051800Z 02007KT 9999 FEW025 BKN140 30/25 A2983 RMK HZ LGT ARND=
200909051900 METAR MRLM 051900Z 02007KT 9999 FEW025 BKN140 30/25 A2981 RMK FEW090 HZ LGT ARND=
200909052000 METAR MRLM 052000Z 03006KT 9999 FEW025 BKN110 30/25 A2979 RMK FEW090 CB DST SE S W=
200909052100 METAR MRLM 052100Z NIL=
200909052101 METAR MRLM 052101Z 01006KT 9999 SCT025 SCT110 30/25 A2978 RMK TRACE CI CB DST SE S SW W DST RN S SW W=
200909052200 METAR MRLM 052200Z 01006KT 9999 SCT025 30/25 A2978 RMK FEW140 FEW270 CBS DST S W QDS RN W=
200909052300 METAR MRLM 052300Z 01004KT 9999 BKN020 29/26 A2979 RMK FEW140 TRACE CI CBS RN DST S W QDS=
200909060000 METAR MRLM 060000Z 00000KT 9999 SCT010 SCT090 28/26 A2980 RMK FEW270 CB RN DST S W NE=
200909060100 METAR MRLM NIL=
200909060200 METAR MRLM NIL=
200909060300 METAR MRLM NIL=
200909060400 METAR MRLM NIL=
200909060500 METAR MRLM NIL=
200909060600 METAR MRLM NIL=
200909060700 METAR MRLM NIL=
200909060800 METAR MRLM NIL=
200909060900 METAR MRLM NIL=
200909061000 METAR MRLM NIL=
200909061100 METAR MRLM NIL=
200909061200 METAR MRLM NIL=
200909061300 METAR MRLM 061300Z 00000KTE CAVOK 26/23 A2986 RMK FEW140 BKN280 CB DST N HZ ARND=
200909061400 METAR MRLM 061400Z 27004KTE CAVOK 28/23 A2987 RMK BKN080 FEW280 TRACE SC HZ LGT ARND=
200909061500 METAR MRLM 061500Z 28008KTE 9999 FEW25 SCT090 BKN140 29/23 A2990 RMK HZ ARND=
200909061600 METAR MRLM 061600Z 33008KT 9999 SCT025 SCT080 30/24 A2989 RMK FEW280 TCU RN DST NW N=
200909061700 METAR MRLM 061700Z 32009KT 9999 SCT030 SCT080 30/24 A2990 RMK LGT HZ ARND=
200909061800 METAR MRLM 061800Z 10012KTE 9999 FEW025 BKN270 30/23 A2987 RMK FEW130 CB DST ARND RN DST NE E SE W HZ LEVE ARND=
200909061900 METAR MRLM 061900Z 08008KTE 9999 FEW030 BKN270 30/25 A2984 RMK FEW140 CB DST QUAD E S W RN DST QUAD E=
200909062000 METAR MRLM 062000Z 01008KTE 9999 SCT030 SCT270 31/25 A2980 RMK CB RN DST E S SE W FEW140=
200909062100 METAR MRLM 062100Z 01012KT 9999 FEW025 BKN270 30/25 A2979 RMK CBS RN DST S SW W FEW130=
200909062200 METAR MRLM 062200Z 35008KT 9999 BKN025 30/25 A2980 RMK CBS RN DST S SW W FEW270=
200909062300 METAR MRLM 062300Z 28004KT 9999 BKN020 29/24 A2980 RMK CBS RN DST SW W FEW270=
200909070000 METAR MRLM 070000Z 00000KT 9999 DZ SCT015 SCT270 28/25 A2979 RMK CB DST NE S SW W RN DST SW W FEW140=
200909070100 METAR MRLM NIL=
200909070200 METAR MRLM NIL=
200909070300 METAR MRLM NIL=
200909070400 METAR MRLM NIL=
200909070500 METAR MRLM NIL=
200909070600 METAR MRLM NIL=
200909070700 METAR MRLM NIL=
200909070800 METAR MRLM NIL=
200909070900 METAR MRLM NIL=
200909071000 METAR MRLM NIL=
200909071100 METAR MRLM NIL=
200909071200 METAR MRLM 071200Z NIL=
200909071300 METAR MRLM 071300Z 24003KT CAVOK 26/22 A2986 RMK FEW120 SCT250 CB DST N W=
200909071400 METAR MRLM 071400Z 28003KT CAVOK 29/23 A2990 RMK FEW120 SCT250 CB DST QUAD N HZ LGT SE=
200909071500 METAR MRLM 071500Z 36004KTE 9999 FEW030 BKN250 30/24 A2988 RMK FEW140 CB DST QUAD N HZ LGT SE=
200909071600 METAR MRLM 071600Z 01005KTE 9999 FEW030 BKN250 31/24 A//// RMK CB DST QUAD N HZ LGT SE=
200909071700 METAR MRLM 071700Z 01006KTE 9999 FEW030 BKN250 31/24 A2984 CB DST NW HZ LGT SE=
200909071800 METAR MRLM 071800Z 36004KTE 9999 FEW030 BKN250 31/24 A2985 RMK CB DST NW HZ LGT SE=
200909071900 METAR MRLM 071900Z 02003KTE 9999 FEW040 BKN250 31/24 A2982 RMK FEW130 HZ LGT SE=
200909072000 METAR MRLM 072000Z 02002KTE CAVOK 31/23 A2977 RMK FEW130 BKN250 TCU DIST SW=
200909072100 METAR MRLM NIL=
200909072200 METAR MRLM 072200Z 04002KT 9999 FEW030 OVC260 31/25 A2976=
200909072300 METAR MRLM 072300Z 01003KT 9999 SCT020 BKN260 30/25 A2975 HZ SE=
200909080000 METAR MRLM 080000Z 02005KT 9999 BKN020 29/26 A2979 FEW260 HZ SE=
200909080100 METAR MRLM NIL=
200909080200 METAR MRLM NIL=
200909080300 METAR MRLM NIL=
200909080400 METAR MRLM NIL=
200909080500 METAR MRLM NIL=
200909080600 METAR MRLM NIL=
200909080700 METAR MRLM NIL=
200909080800 METAR MRLM NIL=
200909080900 METAR MRLM NIL=
200909081000 METAR MRLM NIL=
200909081100 METAR MRLM NIL=
200909081200 METAR MRLM NIL=
200909081300 METAR MRLM 081300Z 21002KT 9999 BKN010 24/22 A2984 FEW100 CB/TS NE E=
200909081400 METAR MRLM 081400Z 19004KT 9999 BKN015 25/23 A2986 RERA FEW100 CB/TS S HZY=
200909081500 METAR MRLM 081500Z 00000KT 9999 BKN015 26/3 A2986 FEW100 RN SW E N HZY=
200909081600 METAR MRLM 081600Z 00000KT 9999 BKN020 SCT100 28/24 A2984 RN W NW N HZY=
200909081700 METAR MRLM 081700Z 34003KT 9999 SCT030 30/24 A2984 FEW110 FEW250 CB E W NW HZY=
200909081800 METAR MRLM 081800Z 36007KT 9999 SCT030 SCT250 31/25 A2981 J HZY=
200909081900 METAR MRLM 081900Z 01005KT 9999 SCT030 SCT250 30/25 A2978 CB E S HZY=
200909082000 METAR MRLM 082000Z 01004KT 9999 FEW030 BKN250 30/25 A2978 TCU N HZY=
200909082100 METAR MRLM 082100Z 03003KT 9999 FEW030 SCT250 31/24 A2975 RMK TCU DST N W HZ ARND=
200909082200 METAR MRLM 082200Z 01003KT 9999 FEW030 SCT250 30/25 A2976 RMK TCU DST NW HZ ARND=
200909082300 METAR MRLM 082300Z 05002KT 9999 SCT025 SCT250 30/25 A2974 HZ LEVE ARND=
200909090000 METAR MRLM 090000Z 00000KT 9999 BKN020 SCT250 29/25 A2977 RMK TCU RN DST N NE HZ ARND=
200909090100 METAR MRLM NIL=
200909090200 METAR MRLM NIL=
200909090300 METAR MRLM NIL=
200909090400 METAR MRLM NIL=
200909090500 METAR MRLM NIL=
200909090600 METAR MRLM NIL=
200909090700 METAR MRLM NIL=
200909090800 METAR MRLM NIL=
200909090900 METAR MRLM NIL=
200909091000 METAR MRLM NIL=
200909091100 METAR MRLM NIL=
200909091200 METAR MRLM NIL=
200909091300 METAR MRLM 091300Z 22004KT 9999 BKN015 25/23 A2986 RERA RMK VIS SW W 8000 DUE RASH=
200909091400 METAR MRLM 091400Z 24004KT 9999 SCT015 28/24 A2986 RMK TCU RN E TRACE AC CI=
200909091500 METAR MRLM 091500Z 15004KT 9999 BKN025 29/24 A2986 RMK TRACE AC FEW280 TCU RN S HZ LEVE ARND=
200909091600 METAR MRLM 091600Z 25004KT 9999 SCT025 30/24 A2983 RMK TCU RN DST N NE FEW28 0 TRACE AC=
200909091700 METAR MRLM 091700Z 09006KT 9999 SCT030 31/24 A2983 RMK TRACE AC FEW280 TCU RN N=
200909091800 METAR MRLM 091800Z 05008KT 9999 FEW035 31/24 A2980 RMK CB DST NWN NE E RN N NE TRACE AC=
200909091900 METAR MRLM NIL=
200909092000 METAR MRLM 092000Z 05007KT 9999 FEW022 30/26 A2979 RMKCB DST NW S FEW140 FEW270 HZ LEVE SE=
200909092100 METAR MRLM 092100Z 01006KT 9999 FEW028 BKN270 30/25 A2976 RMK CB DST S HZ SE TRACE AC=
200909092200 METAR MRLM 092200Z 02004KT 9999 FEW030 SCT280 30/24 A2977 RMK CB DST S HZ SE TRACE AC=
200909092300 METAR MRLM 092300Z 05006KT 9999 FEW025 SCT280 30/24 A2980 RMK CB DST S HZ LGT ARND TRACE AC=
200909100000 METAR MRLM 100000Z 04004KT 9999 FEW025 BKN270 29/25 A2979 RMK CB DST S W TRACE AC HZ ARND=
200909100100 METAR MRLM NIL=
200909100200 METAR MRLM NIL=
200909100300 METAR MRLM NIL=
200909100400 METAR MRLM NIL=
200909100500 METAR MRLM NIL=
200909100600 METAR MRLM NIL=
200909100700 METAR MRLM NIL=
200909100800 METAR MRLM NIL=
200909100900 METAR MRLM NIL=
200909101000 METAR MRLM NIL=
200909101100 METAR MRLM NIL=
200909101200 METAR MRLM NIL=
200909101300 METAR MRLM 101300Z 25004KT 9999 FEW015 BKN100 24/22 A2986 RMK CB RN DST N E TRACE CI HZ LGT ARND=
200909101400 METAR MRLM 101400Z 02020KT 3000 RA OVC012 25/22 A2990 RMK VIS UNL SW W=
200909101500 METAR MRLM 101500Z 18004KT 9999 DZ FEW015 BKN110 25/22 A2988 RERA RMK CB RN DST E FEW090 TRACE CI=
200909101600 METAR MRLM 101600Z 11004KT E 9999 FEW020 BKN090 26/22 A2986 REDZ RMK CB RN DST E FEW090 TRACE CI=
200909101700 METAR MRLM 101700Z 13004KT E 9999 FEW025 SCT090 BKN140 27/23 A2986 RMK HZ LGT ARND TCU DST SW=
200909101800 METAR MRLM 101800Z 07004KT /E/ 9999 FEW025 BKN090 29/21 A2986 RMK TCU DST SW TRACE CI HZ LGT ARND=
200909101900 METAR MRLM 101900Z 07004KTE 9999 FEW025 BKN140 29/23 A2983 RMK CB DST NW TRACE CI HZ LGT ARND=
200909102000 METAR MRLM 102000Z 08005EKT 9999 FEW030 BKN130 29/22 A2980 CB DST S/SW TRAZA S CI HZ ARND=
200909102100 METAR MRLM 102100Z 08004KT 9999 FEW038 SCT140 30/22 A2978 RMK TRACE CI CB DST SE S SW HZ SE=
200909102200 METAR MRLM 102200Z 08004KT VTO/E 9999 FEW035 SCT140 30/23 A2982 RMK CB DST S W FEW280 HZ SE=
200909102300 METAR MRLM 102300Z 07004KT E 9999 FEW030 BKN140 29/23 A2979 RMK FEW280 CB DST SE S SW W HZ SE=
200909110000 METAR MRLM 110000Z 00000KT CAVOK 27/24 A2981 RMK CB DST SW W BKN130 FEW280 HZ SE=
200909110100 METAR MRLM NIL=
200909110200 METAR MRLM NIL=
200909110300 METAR MRLM NIL=
200909110400 METAR MRLM NIL=
200909110500 METAR MRLM NIL=
200909110600 METAR MRLM NIL=
200909110700 METAR MRLM NIL=
200909110800 METAR MRLM NIL=
200909110900 METAR MRLM NIL=
200909111000 METAR MRLM NIL=
200909111100 METAR MRLM NIL=
200909111200 METAR MRLM 111200Z 19003KT CAVOK 24/21 A2989 RMK BKN130 SCT260 CB DST N=
200909111300 METAR MRLM 111300Z 19003KT CAVOK 25/22 A2990 RMK BKN130 FEW250 CB DST N=
200909111400 METAR MRLM 111400Z 18004KT CAVOK 28/24 A2990 RMK BKN120 FEW250 LGT HZ SE=
200909111500 METAR MRLM 111500Z 22003KT CAVOK 29/24 A2991 RMK SCT140 BKN250 LGT HZ SE=
200909111600 METAR MRLM 111600Z 03005KT 9999 FEW030 BKN250 30/24 A2989 RMK FEW140 HZ SE=
200909111700 METAR MRLM 111700Z 36008KT 9999 FEW030 BKN250 31/24 A2986 RMK LGT HZ SE=
200909111800 METAR MRLM 111800Z 26009KT 9999 SCT035 BKN140 30/24 A2987=
200909111802 METAR MRLM 111802Z COR 36011KT 9999 FEW030 BKN250 31/25 A2984=
200909111900 METAR MRLM 111900Z 36012KT 9999 FEW030 OVC250 31/25 A2985 RMK TCU DST SW LGT HZ SE=
200909112000 METAR MRLM 112000Z 36012KT 9999 SCT020 SCT250 30/25 A2981 CB DST S SW HZ SE=
200909112100 METAR MRLM 112100Z 01008KT 9999 SCT020 SCT250 29/25 A2984 RMK CB DST S SW HZ LGT SE=
200909112200 METAR MRLM 112200Z 34010KTE 9999 BKN020 SCT250 29/25 A2983 RMK CB DST S SW HZ LGT ARND=
200909112300 METAR MRLM 112300Z 34006KT 9999 BKN015 29/26 A2986 RMK RN DST SW HZY=
200909120000 METAR MRLM 120000Z 36006KT 9999 OVC015 28/26 A2989 RMK RN DST QUAD S HZ ARND=
200909120100 METAR MRLM NIL=
200909120200 METAR MRLM NIL=
200909120300 METAR MRLM NIL=
200909120400 METAR MRLM NIL=
200909120500 METAR MRLM NIL=
200909120600 METAR MRLM NIL=
200909120700 METAR MRLM NIL=
200909120800 METAR MRLM NIL=
200909120900 METAR MRLM NIL=
200909121000 METAR MRLM NIL=
200909121100 METAR MRLM NIL=
200909121200 METAR MRLM 121200Z 19003KT /E/ BKN020 24/21 A2989 RMK FEW100 HZ SE=
200909121300 METAR MRLM 121300Z 26003KTE 9999 SCT020 25/22 A2991 RMK FEW100 FEW260 HZ SE=
200909121400 METAR MRLM 121400Z 10002KTE 9999 FEW025 SCT120 27/22 A2990 RMK FEW260 HZ SE=
200909121500 METAR MRLM 121500Z 00000KTE 9999 FEW025 SCT120 27/22 A2990 RMK FEW250 RN DST E HZ SE=
200909121600 METAR MRLM 121600Z 00000KT 9999 FEW030 BKN110 27/22 A2993 RMK RN DST E SE=
200909121700 METAR MRLM 121700Z 28002KTE 9999 FEW030 BKN110 28/23 A2992 RMK RN DST E=
200909121800 METAR MRLM 121800Z 00000KTE 9999 FEW030 SCT120 29/23 A2987 RMK SCT150 RN DST E=
200909121900 METAR MRLM 121900Z 36003KTE 9999 FEW030 BKN120 29/23 A2991 RMK FEW250 RN DST NE=
200909122000 METAR MRLM 122000Z 00000KTE 9999 DZ FEW020 BKN110 29/24 A2984 RMK RN DST NE=
200909122100 METAR MRLM 122100Z 09003KT 9999 DZ FEW020 BKN110 29/27 A2984 RMK RN NE HZY=
200909122200 METAR MRLM 122200Z 12002KT 9999 DZ FEW020 BKN100 28/23 A2985 RN NE HZY=
200909122300 METAR MRLM 122300Z 28002KT CAVOK27/24 A2981 REDZ SCT110 SCT250 HSY=
200909130000 METAR MRLM 130000Z 04004KT CAVOK 27/24 A2983 SCT110 SCT250 HZY=
200909130100 METAR MRLM NIL=
200909130200 METAR MRLM NIL=
200909130300 METAR MRLM NIL=
200909130400 METAR MRLM NIL=
200909130500 METAR MRLM NIL=
200909130600 METAR MRLM NIL=
200909130700 METAR MRLM NIL=
200909130800 METAR MRLM NIL=
200909130900 METAR MRLM NIL=
200909131000 METAR MRLM NIL=
200909131100 METAR MRLM NIL=
200909131200 METAR MRLM NIL=
200909131300 METAR MRLM 131300Z 20004KT CAVOK 25/21 A2988 RMK FEW140 BKN270 CB DST NW HZ SW=
200909131400 METAR MRLM 131400Z 24004KT CAVOK 28/22 A2989 BKN270 HZ SE CB NW SW=
200909131500 METAR MRLM 131500Z 08004KTE CAVOK 30/24 A2989 FEW140 BKN280 HZ SE=
200909131600 METAR MRLM 131600Z 03006KT 9999 FEW035 SCT140 30/23 A2988 CB NE E HZ SE=
200909131700 METAR MRLM 131700Z 01007KTE 9999 FEW035 BKN140 30/23 A2988 CB NE FEW280 HZ SE=
200909131800 METAR MRLM 131800Z 03006KTE 9999 FEW035 BKN140 30/23 A2987 CB N NE=
200909131900 METAR MRLM 131900Z 03006KT 9999 FEW040 BKN140 30/22 A2983 CB N NE=
200909132000 METAR MRLM 132000Z NIL=
200909132100 METAR MRLM 132100Z 05006KT 9999 FEW035 SCT180 31/22 A2980 RMK CB DST SW NE SE TRACE AC HZ SE=
200909132200 METAR MRLM 132200Z 04006KT 9999 FEW030 BKN280 30/22 A2980 RMK FEW140 CB NE SE W HZ SE=
200909132300 METAR MRLM 132300Z 04004KT 999 FEW035 SCT280 30/23 A2979 RMK FEW140 HZ SE CB N S W=
200909140000 METAR MRLM 140000Z 00000KT CAVOK 29/22 A2980 RMK FWE140 BKN280 CB DST S SW W NE HZ SE=
200909140100 METAR MRLM NIL=
200909140200 METAR MRLM NIL=
200909140300 METAR MRLM NIL=
200909140400 METAR MRLM NIL=
200909140500 METAR MRLM NIL=
200909140600 METAR MRLM NIL=
200909140700 METAR MRLM NIL=
200909140800 METAR MRLM NIL=
200909140900 METAR MRLM NIL=
200909141000 METAR MRLM NIL=
200909141100 METAR MRLM NIL=
200909141200 METAR MRLM 141200Z NIL=
200909141300 METAR MRLM 141300Z 25004KT 9999 FEW015 SCT280 26/22 A2990 RMK FEW100 CB DST NW NE E HZ ARND=
200909141400 METAR MRLM 141400Z 00000KT 9999 FEW020 SCT280 29/23 A2990 RMK CB DST NW N NE TRACE AC=
200909141500 METAR MRLM 141500Z 04004KT 9999 FEW040 SCT280 30/22 A2990 RMK HZ LEVE ARND CB NW N NE E=
200909141600 METAR MRLM NIL=
200909141700 METAR MRLM 141700Z 36012KT 9999 FEW040 SCT280 31/23 A2990 RMK CB DST NW E RN E FEW150=
200909141800 METAR MRLM 141800Z 01008KT 9999 FEW038 BKN280 31/23 A2989 RMK CB DST E SE SW NW RN E HZ SE=
200909141900 METAR MRLM 141900Z 02007KT 9999 BKN035 SCT280 31/24 A2986 RMK CB DST SW HZ ARND=
200909142000 METAR MRLM 142000Z 01007KT 9999 BKN030 30/24 A2984 RMK FEW270 CB S SW HZ ARND=
200909142100 METAR MRLM 142100Z 04008KT 9999 BKN030 SCT270 30/24 A2983 RMK CB RN SW HZ ARND=
200909142200 METAR MRLM 142200Z 04005KT 9999 SCT030 SCT280 29/22 A2982 RMK FEW140 CB LTNG RN DST SW HZ LEVE ARND=
200909142300 METAR MRLM 142300Z 04005KT 9999 SCT030 29/23 A2982 RMK CB RN SW FEW140 FEW28 0 HZ SE=
200909150000 METAR MRLM 150000Z 04004KT 9999 BKN020 29/25 A2983 RMK FEW140 HZ SE=
200909150100 METAR MRLM NIL=
200909150200 METAR MRLM NIL=
200909150300 METAR MRLM NIL=
200909150400 METAR MRLM NIL=
200909150500 METAR MRLM NIL=
200909150600 METAR MRLM NIL=
200909150700 METAR MRLM NIL=
200909150800 METAR MRLM NIL=
200909150900 METAR MRLM NIL=
200909151000 METAR MRLM NIL=
200909151100 METAR MRLM NIL=
200909151200 METAR MRLM 151200Z 00000KT 9999 NSC 24/22 A2986 TRACE SCT CI=
200909151300 METAR MRLM 151300Z 19003KT /E/ 9999 NSC 25/21 A2990 RMK TRACE CU CI=
200909151400 METAR MRLM 151400Z 19003KT /E/ CAVOK 27/22 A2994 RMK FEW250=
200909151500 METAR MRLM 151500Z 09004KT 9999 FEW035 29/22 A2992 RMK FEW250=
200909151600 METAR MRLM 151600Z 09004KT 9999 FEW040 30/22 A2991 RMK FEW250=
200909151700 METAR MRLM 151700Z 11003KT CAVOK 30/21 A2991 RMK FEW250 TCU NW=
200909151800 METAR MRLM 151800Z 11003KT 9999 FEW040 30/21 A2987 RMK FEW250 CB DST NW=
200909151900 METAR MRLM 151900Z 09004KT 9999 FEW050 SCT250 31/21 A2989=
200909152000 METAR MRLM 152000Z 09005KT CAVOK 31/21 A2983 RMK SCT280=
200909152100 METAR MRLM 152100Z 12005KT E CAVOK 30/21 A2985 RMK BKN250=
200909152200 METAR MRLM 152200Z 09003KT CAVOK 30/21 A2982 RMK BKN250=
200909152300 METAR MRLM 152300Z 09003KT 9999 FEW040 BKN250 30/22 A2984=
200909160000 METAR MRLM 160000Z 11004KT 9999 FEW035 BKN250 29/21 A2984=
200909160100 METAR MRLM NIL=
200909160200 METAR MRLM NIL=
200909160300 METAR MRLM NIL=
200909160500 METAR MRLM NIL=
200909160600 METAR MRLM NIL=
200909160700 METAR MRLM NIL=
200909160800 METAR MRLM NIL=
200909160900 METAR MRLM NIL=
200909161000 METAR MRLM NIL=
200909161100 METAR MRLM NIL=
200909161200 METAR MRLM 161200Z 19002KT CAVOK 24/21 A2991 RMK FEW110 BKN250 TCU DST N=
200909161300 METAR MRLM 161300Z 19004KT CAVOK 25/20 A2992 FEW110 BKN250 CB DST N/NE=
200909161400 METAR MRLM 161400Z 18002KT CAVOK 27/22 A2994 RMK FEW120 BKN250 CB DST N NE=
200909161500 METAR MRLM 161500Z 06003KT 9999 FEW040 BKN250 30/22 A2990 FEW120 CB RN DST N DST=
200909161600 METAR MRLM 161600Z 03005KT 9999 FEW040 BKN110 30/22 A2991 FEW250 CB DST NW=
200909161700 METAR MRLM 161700Z 09005KT 9999 SCT035 SCT110 30/23 A2989 RMK FEW250 TCU DST SW=
200909161900 METAR MRLM 161900Z 07003KT 9999 FEW040 BKN250 30/22 A2982 TCU DST SW=
200909162000 METAR MRLM 162000Z 11004KT 9999 FEW040 BKN250 30/22 A2983=
200909162100 METAR MRLM 162100Z 11004KT 9999 SCT040 BKN250 30/22 A2978=
200909162200 METAR MRLM 162200Z 12005KT 9999 SCT035 BKN250 29/22 A2977 RMK TCU DST S=
200909162300 METAR MRLM 162300Z 12003KT 9999 SCT030 SCT110 29/22 A2978 RMK FEW250=
200909170000 METAR MRLM 170000Z 13002KT 9999 SCT020 SCT110 29/22 A2981 RMK FEW250 TCU DST SW=
200909170100 METAR MRLM NIL=
200909170200 METAR MRLM NIL=
200909170300 METAR MRLM NIL=
200909170400 METAR MRLM NIL=
200909170500 METAR MRLM NIL=
200909170600 METAR MRLM NIL=
200909170700 METAR MRLM NIL=
200909170800 METAR MRLM NIL=
200909170900 METAR MRLM NIL=
200909171000 METAR MRLM NIL=
200909171100 METAR MRLM NIL=
200909171200 METAR MRLM 171200Z NIL=
200909171300 METAR MRLM 171300Z 24004KTE 9999 FEW015 SCT300 26/23 A2988 RMK FEW090 CB DST S SW NW NE RN DST S SW=
200909171400 METAR MRLM 171400Z 20004KTE 9999 FEW030 SCT300 28/21 A2987 RMK FEW110 CB DST S SW HZ LEVE ARND=
200909171500 METAR MRLM 171500Z 07004KTE 9999 SCT040 SCT300 29/21 A2988 RMK CB DST NE N HZ LEVE ARND=
200909171600 METAR MRLM 171600Z 09007KTE 9999 SCT040 SCT280 30/21 A2987 RMK CB DST N NE E HZ SE=
200909171700 METAR MRLM 171700Z NIL=
200909171800 METAR MRLM 171800Z 08006KTE 9999 FEW040 BKN280 30/20 A2983 RMK CB DST QUAD N HZ LEVE SE=
200909171900 METAR MRLM 171900Z 03007KT 9999 FEW035 BKN280 31/24 A2982 RMK CB DST QUAD N=
200909172000 METAR MRLM 172000Z 05004KT 9999 FEW038 BKN270 31/23 A2978 RMK CB DST SE S SW S=
200909172100 METAR MRLM 172100Z 05004KT 9999 FEW040 BKN270 30/22 A2978 CB SE S SW W NW=
200909172200 METAR MRLM 172200Z 07003KT 9999 FEW030 BKN270 29/23 A2978 CB SE S SW=
200909180000 METAR MRLM 180000Z 00000KT CAVOK 26/24 A2980 BKN270 CB SW W=
200909180100 METAR MRLM NIL=
200909180200 METAR MRLM NIL=
200909180300 METAR MRLM NIL=
200909180400 METAR MRLM NIL=
200909180500 METAR MRLM NIL=
200909180600 METAR MRLM NIL=
200909180700 METAR MRLM NIL=
200909180800 METAR MRLM NIL=
200909180900 METAR MRLM NIL=
200909181000 METAR MRLM NIL=
200909181100 METAR MRLM NIL=
200909181200 METAR MRLM NIL=
200909181300 METAR MRLM 181300Z 23004KT CAVOK 26/22 A2985 RMK BKN120 FEW280 CB DIST NW N HZ SE=
200909181400 METAR MRLM 181400Z 27003KT CAVOK 30/24 A2988 BKN140 HZ SE CB DIST N=
200909181500 METAR MRLM 181500Z 01005KT 9999 FEW035 SCT140 30/23 A2988 SCT280 CB NW NE=
200909181600 METAR MRLM 181600Z 36008KT 9999 FEW038 SCT280 30/23 A2987 FEW140 HZ SE CB NE NW=
200909181700 METAR MRLM 181700Z NIL=
200909181800 METAR MRLM 181800Z 01008KT 9999 FEW030 SCT150 30/24 A2983 SCT280 CB=
200909181900 METAR MRLM 181900Z 02008KT 9999 FEW035 BKN280 31/24 A2981 FEW150 CB DIST NW SE RN SW=
200909182000 METAR MRLM 182000Z 01007KT 9999 SCT030 BKN280 30/24 A2978 CB DIST N SE HZ SE=
200909182100 METAR MRLM 182100Z 02006KT 9999 SCT030 BKN280 30/24 A2977 RMK CB DST NE SE S SW W RN DST SW W=
200909182200 METAR MRLM 182200Z 01005KT 9999 OVC026 29/24 A2977 RMK CB DST SE S SW W RN SW W=
200909182300 METAR MRLM 182300Z 07003KT 9999 BKN025 29/24 A2980 RMK FEW110 CB DST SE S SW W RN SW W=
200909190000 METAR MRLM 190000Z 22003KT 9999 BKN015 27/24 A2982 RMK FEW100 CB RN SW W=
200909190100 METAR MRLM NIL=
200909190200 METAR MRLM NIL=
200909190300 METAR MRLM NIL=
200909190400 METAR MRLM NIL=
200909190500 METAR MRLM NIL=
200909190600 METAR MRLM NIL=
200909190700 METAR MRLM NIL=
200909190800 METAR MRLM NIL=
200909190900 METAR MRLM NIL=
200909191000 METAR MRLM NIL=
200909191100 METAR MRLM NIL=
200909191200 METAR MRLM 191200Z 21004KT CAVOK 23/22 A2984 RMK SCT110 BKN260 CB DST NE=
200909191300 METAR MRLM 191300Z 23003KT CAVOK 24/22 A2986 RMK SCT110 SCT260=
200909191400 METAR MRLM 191400Z 00000KT CAVOK 26/23 A2989 RMK BKN100 CB N NE=
200909191500 METAR MRLM 191500Z 00000KT 9999 FEW030 SCT100 30/24 A2989 RMK FEW250 CB DST NE=
200909191600 METAR MRLM 191600Z 03005KT 9999 SCT030 30/25 A2991 RMK FEW110 FEW250 CB DST NE=
200909191700 METAR MRLM 191700Z 01005KT 9999 SCT030 30/24 A2989 RMK FEW110 FEW250 CB DST NE=
200909191800 METAR MRLM 191800Z 04006KT 9999 FEW030 SCT110 31/24 A2988 RMK SCT250 CB DST S=
200909191900 METAR MRLM 191900Z 05006KT 9999 FEW030 SCT250 31/24 A2983 RMK FEW120 CB DST S SW NE=
200909192000 METAR MRLM 192000Z 05004KT 9999 FEW035 BKN250 31/24 A2981 RMK CB DST S SW W=
200909192100 METAR MRLM 192100Z 05008KT CAVOK 31/24 A2978 RMK BKN250 CB DST SW=
200909192200 METAR MRLM 192200Z 05004KT CAVOK 30/23 A2978 RMK BKN250 CB DST S SW=
200909192300 METAR MRLM 192300Z 22002KT CAVOK 29/24 A2980 RMK FEW120 BKN250 CB DST SW=
200909200000 METAR MRLM 200000Z 17003KT CAVOK 28/24 A2980 RMK SCT120 BKN250=
200909200100 METAR MRLM NIL=
200909200200 METAR MRLM NIL=
200909200300 METAR MRLM NIL=
200909200400 METAR MRLM NIL=
200909200500 METAR MRLM NIL=
200909200600 METAR MRLM NIL=
200909200700 METAR MRLM NIL=
200909200800 METAR MRLM NIL=
200909200900 METAR MRLM NIL=
200909201000 METAR MRLM NIL=
200909201100 METAR MRLM NIL=
200909201200 METAR MRLM 201200Z 24004KT 9999 FEW015 SCT110 24/22 A2985 CB DIST NE=
200909201300 METAR MRLM 201300Z 22005KT 9999 FEW015 BKN110 25/23 A2986 RMK CB TS DST NE=
200909201400 METAR MRLM 201400Z 00000KT 9999 BKN015 SCT100 26/24 A2980 RMK CB TS DST NE E=
200909201500 METAR MRLM 201500Z 07008KT 8000 3000N TSRA FEW010CB BKN015 25/22 A2996=
200909201600 METAR MRLM 201600Z 22005KT 9999 BKN015 24/22 A2993 RETS RMK FEW100=
200909201700 METAR MRLM 201700Z 20004KT 9999 DZ BKN015 SCT110 27/24 A2983 RMK RN DST N NE=
200909201800 METAR MRLM 201800Z 36002KT 9999 SCT030 BKN110 30/24 A2986 REDZ=
200909201900 METAR MRLM 201900Z 10002KT 9999 FEW040 BKN250 31/23 A2983 RMK FEW120=
200909202000 METAR MRLM NIL=
200909202100 METAR MRLM 202100Z 04004KT CAVOK 31/23 A2978 RMK SCT110 SCT250=
200909202200 METAR MRLM 202200Z 02004KT CAVOK 31/24 A2977 RMK SCT100 SCT250=
200909202300 METAR MRLM 202300Z 04004KT CAVOK 30/24 A2978 RMK SCT100 BKN250=
200909210000 METAR MRLM 210000Z 00000KT CAVOK 28/25 A2979 RMK FEW110 SCT250=
200909210100 METAR MRLM NIL=
200909210200 METAR MRLM NIL=
200909210300 METAR MRLM NIL=
200909210400 METAR MRLM NIL=
200909210500 METAR MRLM NIL=
200909210600 METAR MRLM NIL=
200909210700 METAR MRLM NIL=
200909210800 METAR MRLM NIL=
200909210900 METAR MRLM NIL=
200909211000 METAR MRLM NIL=
200909211100 METAR MRLM NIL=
200909211200 METAR MRLM NIL=
200909211300 METAR MRLM 211300Z 22004KT CAVOK 25/23 A2986 RMK SCT090 FEW150 CBS RN DST E SE=
200909211400 METAR MRLM 211400Z 22003KT CAVOK 27/24 A2987 RMK FEW150 BKN270 CB DST E SE=
200909211500 METAR MRLM 211500Z 20003KT CAVOK 29/24 A2987 RMK FEW140 FEW270 CB S RN DST E SE=
200909211600 METAR MRLM 211600Z 06003KT CAVOK 32/24 A2985 RMK FEW150 BKN270 CB DST NW N E SE RN DST E SE=
200909211700 METAR MRLM 211700Z 01005KT 9999 FEW035 BKN270 31/24 A2983 CB DST NW N E SE RN E SE=
200909211800 METAR MRLM 211800Z 36007KT 9999 FEW035 BKN270 31/24 A2980 RMK CB DS NW N RN ESE FEW140=
200909211900 METAR MRLM 211900Z 02006KT 9999 FEW035 BKN270 31/24 A2978 RMK HZ SE CB DST NW N=
200909212000 METAR MRLM 212000Z 03005KT 9999 FEW035 BKN270 31/24 A2977 RMK FEW140 CB DST NW E HZ SE=
200909212100 METAR MRLM 212100Z 03005KT 9999 FEW035 BKN270 31/24 A2976 RMK CB DST NW E S HZ SE=
200909212200 METAR MRLM 212200Z 03003KT 9999 FEW030 BKN270 30/24 A2977 RMK FEW130 CB DST NW E S SW HZ SE=
200909212300 METAR MRLM 212300Z 02003KT 9999 FEW025 BKN270 30/25 A2977 RMK CB DST NW E S SW FEW130 HZ SE=
200909220000 METAR MRLM 220000Z 00000KT 9999 FEW020 BKN270 29/25 A2978 RMK FEW140 CB DST NW N HZ SE=
200909220100 METAR MRLM NIL=
200909220200 METAR MRLM NIL=
200909220300 METAR MRLM NIL=
200909220400 METAR MRLM NIL=
200909220500 METAR MRLM NIL=
200909220600 METAR MRLM NIL=
200909220700 METAR MRLM NIL=
200909220800 METAR MRLM NIL=
200909220900 METAR MRLM NIL=
200909221000 METAR MRLM NIL=
200909221100 METAR MRLM NIL=
200909221200 METAR MRLM NIL=
200909221300 METAR MRLM 221300Z 21004KT CAVOK 25/23 A2981 RMK SCT090 FEW140 SCT250 CB/RN DST NW E HZ SE=
200909221400 METAR MRLM 221400Z 21005KT CAVOK 27/24 A2982 RMK BKN090 SCT270 CB DST NW NE RN DST E HZ ARND=
200909221500 METAR MRLM 221500Z 00000KT 9999 FEW028 SCT090 30/25 A2982 RMK SCT280 CB RN DST E HZ LEVE ARND=
200909221600 METAR MRLM 221600Z 02004KT 9999 FEW025 BKN280 30/25 A2981 RMK FEW110 CB DST NE E HZ LGT ARND=
200909221700 METAR MRLM 221700Z NIL=
200909221800 METAR MRLM 221800Z 03006KT 9999 FEW035 BKN280 31/24 A2977 RMK CB DST QUAD N RN DST N NE HZ ARND=
200909221900 METAR MRLM 221900Z 02008KT 9999 FEW035 SCT110 32/25 A2975 RMK SCT280 CB DST HZ ARND RN DST N NE E=
200909222000 METAR MRLM 222000Z 01009KT 9999 FEW025 SCT110 30/25 A2976 RMK FEW270 CB DST HZ ARND RN DST QUAD N=
200909222100 METAR MRLM 222100Z 36004KT 9999 FEW025 SCT110 31/25 A2972 SCT280 CB DST ARND RN N=
200909222200 METAR MRLM 222200Z 02004KT 9999 FEW028 SCT110 30/25 A2970 CB ARND SCT280 RN DST NW N=
200909222300 METAR MRLM 222300Z 36005KT 9999 FEW025 SCT150 29/25 A2973 SCT280 CB ARND RN S SW W=
200909230000 METAR MRLM 230000Z 25002KT 9999 FEW015 BKN280 28/25 A2976 FEW150 CB RN W SW S=
200909230100 METAR MRLM NIL=
200909230200 METAR MRLM NIL=
200909230300 METAR MRLM NIL=
200909230400 METAR MRLM NIL=
200909230500 METAR MRLM NIL=
200909230600 METAR MRLM NIL=
200909230700 METAR MRLM NIL=
200909230800 METAR MRLM NIL=
200909230900 METAR MRLM NIL=
200909231000 METAR MRLM NIL=
200909231100 METAR MRLM NIL=
200909231200 METAR MRLM NIL=
200909231300 METAR MRLM 231300Z 27004KT 9999 FEW020 OVC250 27/23 A2976 CB NE HZ SE=
200909231400 METAR MRLM 231400Z 29005KT CAVOK 29/23 A2978 OVC250 CB NE E HZ SE=
200909231500 METAR MRLM 231500Z 28006KT 9999 FEW030 OVC250 31/24 A2980 CB NE E HZ SE=
200909231600 METAR MRLM 231600Z 32005KT 9999 FEW035 BKN250 31/24 A2980 FEW130 CB E SE TCU N=
200909231700 METAR MRLM 231700Z 36008KT 9999 BKN025 30/25 A2978 FEW250 RN E SE S=
200909231800 METAR MRLM 231800Z 19006KT 9999 BKN020 26/24 A2976 FEW110 CB TS SW W RN E HZ SE=
200909231900 METAR MRLM 231900Z 00000KT 9999 SCT025 SCT110 29/24 A2973 CB W RN NE E=
200909232000 METAR MRLM NIL=
200909232100 METAR MRLM 232100Z 22002KT 9999 FEW025 SCT110 20/24 A2969 RMK SCT250=
200909232200 METAR MRLM 232200Z 30004KT 9999 FEW025 BKN250 29/24 A2969 RMK FEW110=
200909232300 METAR MRLM 232300Z 27004KT 9999 BKN020 28/24 A2971 RMK FEW110=
200909240000 METAR MRLM 240000Z 27003KT 9999 SCT020 SCT250 27/24 A2972 RMK FEW110=
200909240100 METAR MRLM NIL=
200909240200 METAR MRLM NIL=
200909240300 METAR MRLM NIL=
200909240400 METAR MRLM NIL=
200909240500 METAR MRLM NIL=
200909240600 METAR MRLM NIL=
200909240700 METAR MRLM NIL=
200909240800 METAR MRLM NIL=
200909240900 METAR MRLM NIL=
200909241000 METAR MRLM NIL=
200909241100 METAR MRLM NIL=
200909241200 METAR MRLM 241200Z NIL=
200909241300 METAR MRLM 241300Z 24002KT CAVOK 28/23 A2975 RMK BKN130 FEW250 TCU DST N HZ SE=
200909241400 METAR MRLM 241400Z 00000KT CAVOK 29/23 A2978 RMK BKN250 SCT140 HZ SE=
200909241500 METAR MRLM 241500Z 06003KT 9999 FEW030 BKN120 30/23 A2978 RMK FEW250=
200909241600 METAR MRLM 241600Z 04003KT 9999 FEW030 BKN120 30/24 A2978 RMK FEW250 TCU DST N=
200909241700 METAR MRLM 241700Z 01007KT 9999 FEW030 BKN250 31/25 A2977 RMK FEW110 TCU DST N=
200909241800 METAR MRLM 241800Z 35010KT 9999 FEW030 BKN250 31/25 A2975 RMK TCU DST SW W=
200909241900 METAR MRLM 241900Z 34010KT 9999 SCT030 BKN250 31/25 A2972 RMK CB DST SW W=
200909242000 METAR MRLM 242000Z 30006KT 9999 BKN025 30/25 A2970 RMK FEW250 CB SW W=
200909242100 METAR MRLM 242100Z 31009KT 9999 OVC025 30/25 A2970 RMK HZ LGT ARND=
200909242200 METAR MRLM 242200Z 30006KT 9999 BKN025 30/24 A2970 RMK FEW250 CB DST SE HZ LGT ARND=
200909242300 METAR MRLM 242300Z 29004KT 9999 FEW020 SCT110 29/24 A2973 RMK FEW250 RN DST S HZ LGT ARND=
200909250000 METAR MRLM 250000Z 27003KT 9999 FEW020 SCT110 27/25 A2975 RMK FEW250 CB RN DST S HZ ARND=
200909250100 METAR MRLM NIL=
200909250200 METAR MRLM NIL=
200909250300 METAR MRLM NIL=
200909250400 METAR MRLM NIL=
200909250500 METAR MRLM NIL=
200909250600 METAR MRLM NIL=
200909250700 METAR MRLM NIL=
200909250800 METAR MRLM NIL=
200909250900 METAR MRLM NIL=
200909251000 METAR MRLM NIL=
200909251100 METAR MRLM NIL=
200909251200 METAR MRLM 251200Z NIL=
200909251300 METAR MRLM 251300Z 03004KT 8000 VCSH BKN010 SCT080 25/23 A2985 RMK VIS UNL SE S SW W=
200909251400 METAR MRLM 251400Z 28003KT 9999 FEW020 BKN090 25/23 A2985 RERA RMK CB RN DST NW W N NE FEW140=
200909251500 METAR MRLM 251500Z 00000KT CAVOK 26/23 A2986 RMK BKN090 FEW150 FEW270 CB RN DST N=
200909251600 METAR MRLM 251600Z 00000KT CAVOK 28/22 A2985 RMK FEW100 BKN150 CB RN DST N=
200909251700 METAR MRLM 251700Z NIL=
200909251800 METAR MRLM NIL=
200909251900 METAR MRLM 251900Z 33008KT 9999 FEW035 BKN270 30/23 A2978 RMK CB DST NW S HZ LGT ARND=
200909252000 METAR MRLM 252000Z 33009KT 9999 FEW038 BKN280 30/23 A2979 RMK CB DST SE S SW W HZ LGT ARND=
200909252100 METAR MRLM 252100Z 34007KT 9999 FEW028 BKN270 30/24 A2973 CB DST SE/S/SW/W HZ LGT ARND=
200909252200 METAR MRLM 252200Z 35007KT 9999 FEW020 BKN270 29/24 A2976 CB DST SE S HZY=
200909252300 METAR MRLM 252300Z 33006KT 9999 FEW020 BKN150 28/24 A2979 RMK FEW270 CB DST SE S HZ SE=
200909260000 METAR MRLM 260000Z 00000KT CAVOK 27/24 A2981 RMK BKN150 FEW270 CB DST S SW HZ SE=
200909260100 METAR MRLM NIL=
200909260200 METAR MRLM NIL=
200909260300 METAR MRLM NIL=
200909260400 METAR MRLM NIL=
200909260500 METAR MRLM NIL=
200909260600 METAR MRLM NIL=
200909260700 METAR MRLM NIL=
200909260800 METAR MRLM NIL=
200909260900 METAR MRLM NIL=
200909261000 METAR MRLM NIL=
200909261100 METAR MRLM NIL=
200909261200 METAR MRLM NIL=
200909261300 METAR MRLM 261300Z 23002KT 9999 FEW010 SCT080 26/24 A2985 RMK SCT100 CBS RN DST N E QDS TS DST NE=
200909261400 METAR MRLM 261400Z 04017KT 7000 RA FEW005 OVC015 24/22 A2993 RETS=
200909261500 METAR MRLM 261500Z 19007KT 9999 DZ FEW005 BKN090 23/22 A2991 RERA RMK FEW130 CB DST N E RN ARND=
200909261600 METAR MRLM 261600Z 15004KT CAVOK 24/22 A2985 REDZ RMK SCT090 SCT140 CBS RN DST NW NE E=
200909261700 METAR MRLM 261700Z 27005KT CAVOK 26/23 A2980 FEW090 BKN140 FEW270 CB DST RN DST NW N NE=
200909261800 METAR MRLM 261800Z 32012KT CAVOK 28/24 A2981 RMK BKN110 FEW150 FEW270 CB RN DST NW N E=
200909261900 METAR MRLM 261900Z 34010KT CAVOK 29/23 A2981 CBS RN DST NW N E BKN110 FEW270=
200909262000 METAR MRLM 262000Z 00000KT CAVOK 29/24 A2980 RMK OVC120 CB RN DST NW N=
200909262100 METAR MRLM 262100Z 18004KT 9999 FEW030 BKN110 29/23 A2979 RMK FEW090 FEW270 CB DST S SE NW N NE RN DST NW N=
200909262200 METAR MRLM 262200Z 04002KT CAVOK 29/23 A2976 RMK CB DST ARND FEW110=
200909262300 METAR MRLM 262300Z 00000KT CAVOK 28/25 A2976 RMK FEW120 BKN150 FEW270 CB DST ARND RN DST NW N NE=
200909270000 METAR MRLM 270000Z 01006KT CAVOK 29/24 A2977 RMK BKN150 FEW270 CB DST ARND RN DST NW N=
200909270100 METAR MRLM NIL=
200909270200 METAR MRLM NIL=
200909270300 METAR MRLM NIL=
200909270400 METAR MRLM NIL=
200909270500 METAR MRLM NIL=
200909270600 METAR MRLM NIL=
200909270700 METAR MRLM NIL=
200909270800 METAR MRLM NIL=
200909270900 METAR MRLM NIL=
200909271000 METAR MRLM NIL=
200909271100 METAR MRLM NIL=
200909271200 METAR MRLM 271200Z 24004KT CAVOK 23/21 A2982 RMK BKN100 TCU DST NE=
200909271300 METAR MRLM 271300Z 23004KT CAVOK 25/22 A2983 RMK BKN100 FEW260 TCU DST N NE HZ SE=
200909271400 METAR MRLM 271400Z 28005KT CAVOK 28/22 A2985 RMK BKN100 FEW120 TCU DST N NE HZ SE=
200909271500 METAR MRLM 271500Z 29006KT CAVOK 29/23 A2984 RMK BKN110 SCT250 RMK TCU DST N=
200909271600 METAR MRLM 271600Z 31008KT CAVOK 30/24 A2986 RMK BKN110 CB RN DST NE HZ SE=
200909271700 METAR MRLM 271700Z 33017KT 9999 SCT025 SCT100 29/24 A2985=
200909271800 METAR MRLM 271800Z 36021KT 9999 BKN020 28/24 A2984 RMK FEW100 RN DST QUAD N=
200909271900 METAR MRLM 271900Z 08017KT 9999 BKN020 27/23 A2981 RMK FEW100 CB RN DST QUAD N W HZ ARND=
200909272000 METAR MRLM 272000Z 00000KT 9999 +DZ VCSH BKN020 BKN100 26/22 A2981 RMK HZ ARND VIS 6000N=
200909272100 METAR MRLM NIL=
200909272200 METAR MRLM 272200Z 00000KT 9999 FEW030 SCT110 28/22 A2979 SCT250 HZY=
200909272300 METAR MRLM 272300Z 00000KT 9999 FEW020 BKN100 27/23 A2981 RN E N HZ SE=
200909280000 METAR MRLM 280000Z 00000KT 9999 SCT020 BKN100 26/22 A2982 RN NE E HZ SE=
200909280100 METAR MRLM NIL=
200909280200 METAR MRLM NIL=
200909280300 METAR MRLM NIL=
200909280400 METAR MRLM NIL=
200909280500 METAR MRLM NIL=
200909280600 METAR MRLM NIL=
200909280700 METAR MRLM NIL=
200909280800 METAR MRLM NIL=
200909280900 METAR MRLM NIL=
200909281000 METAR MRLM NIL=
200909281100 METAR MRLM NIL=
200909281200 METAR MRLM 281200Z 20005KT 9999 FEW015 BKN110 24/22 A2986 HZ SE=
200909281300 METAR MRLM 281300Z 23004KT 9999 FEW020 SCT130 26/22 A2986 FEW120 HZ SE=
200909281400 METAR MRLM 281400Z 28003KT CAVOK 29/22 A2988 SCT130 FEW250 HZ SE=
200909281500 METAR MRLM 281500Z 31006KT CAVOK 31/22 A2988 SCT130 FEW250 HZ SE=
200909281600 METAR MRLM 281600Z 32006KT CAVOK 31/22 A2987 SCT130 SCT250 DZ SE TCU N=
200909281700 METAR MRLM 281700Z 34010KT 9999 FEW040 BKN120 31/23 A2986 FEW250 HZ SE=
200909281800 METAR MRLM 281800Z 36009KT 9999 FEW040 BKN250 31/23 A2982 FEW120 CB SW NE HZ SE=
200909281900 METAR MRLM 281900Z 34010KT CAVOK 30/24 A2981 SCT130 BKN250 CB SW NE HZ SE=
200909282000 METAR MRLM 282000Z 34010KT 9999 FEW020 BKN250 29/25 A2979 FEW130 CB RN S SW NE=
200909282100 METAR MRLM 282100Z 36007KT 9999 BKN020 28/25 A2978 RMK FWE120 CB RN S HZ ARND=
200909282200 METAR MRLM 282200Z 25002KT 9999 SCT020 SCT130 29/25 A2978 RMK CB RN DST S HZ ARND=
200909282300 METAR MRLM NIL=
200909290000 METAR MRLM 290000Z 00000KT 9999 FEW020 BKN130 27/25 A2980 RMK RN DST S SE HZ ARND=
200909290100 METAR MRLM NIL=
200909290200 METAR MRLM NIL=
200909290300 METAR MRLM NIL=
200909290400 METAR MRLM NIL=
200909290500 METAR MRLM NIL=
200909290600 METAR MRLM NIL=
200909290700 METAR MRLM NIL=
200909290800 METAR MRLM NIL=
200909290900 METAR MRLM NIL=
200909291000 METAR MRLM NIL=
200909291100 METAR MRLM NIL=
200909291200 METAR MRLM 291200Z 22005KT 9999 FEW015 SCT090 23/22 A2988 RMK FEW130 FEW150 CB RN DST W NW NE E DZ N=
200909291300 METAR MRLM 291300Z 22002KT CAVOK 24/23 A2989 RMK BKN090 FEW140 CB RN DST NW N W DZ N=
200909291400 METAR MRLM 291400Z 19003KT CAVOK 25/23 A2992 RMK BKN090 FEW150 CB RN NW N NE=
200909291500 METAR MRLM 291500Z 17002KT CAVOK 28/23 A2991 RMK CB DST SW NW N NE E RN N NE E SCT140 BKN270=
200909291600 METAR MRLM 291600Z 04004KT 9999 FEW025 BKN270 29/24 A2991 RMK FEW140 CB DST NW NE E=
200909291700 METAR MRLM 291700Z 05004KT 9999 FEW028 SCT270 29/24 A2987 RMK FEW140 CB DST NW HZ SE=
200909291800 METAR MRLM 291800Z 07005KT 9999 FEW028 SCT270 29/24 A2983 RMK FEW130 CB DST SW HZ SE=
200909291900 METAR MRLM 291900Z 04003KT 9999 FEW030 SCT280 30/24 A2980 RMK CB DST SW W HZ SE FEW140=
200909292000 METAR MRLM 292000Z 01004KT 9999 FEW030 SCT140 30/24 A2977 RMK FEW270 CB S W HZ SE=
200909292100 METAR MRLM 292100Z 36010KT 9999 FEW025 SCT140 30/25 A2975 RMK FEW270 CB DST S SW W HZ SE=
200909292200 METAR MRLM 292200Z 34008KT 9999 FEW028 SCT130 30/24 A2976 RMK CB DST SE S FEW270=
200909292300 METAR MRLM 292300Z 33007KT 9999 FEW030 BKN140 29/24 A2978 RMK CB DST SE S=
200909300000 METAR MRLM 300000Z 23003KT 9999 BKN015 27/25 A2981 RMK CB DST SE S HZ SE=
200909300100 METAR MRLM NIL=
200909300200 METAR MRLM NIL=
200909300300 METAR MRLM NIL=
200909300400 METAR MRLM NIL=
200909300500 METAR MRLM NIL=
200909300600 METAR MRLM NIL=
200909300700 METAR MRLM NIL=
200909300800 METAR MRLM NIL=
200909300900 METAR MRLM NIL=
200909301000 METAR MRLM NIL=
200909301100 METAR MRLM NIL=
200909301200 METAR MRLM NIL=
200909301300 METAR MRLM 301300Z 29002KT CAVOK 26/23 A2987 RMK SCT090 FEW150 SCT270 CB RN DST N=
200909301400 METAR MRLM 301400Z 27006KT CAVOK 28/23 A2989 RMK FEW140 BKN270 CB RN DST N=
200909301500 METAR MRLM 301500Z 31008KT CAVOK 29/24 A2989 RMK BKN110 FEW270 RN DST N=
200909301600 METAR MRLM 301600Z 32012KT 9999 SCT030 SCT110 31/25 A2988 RMK FEW280 HZ SE=
200909301700 METAR MRLM 301700Z 32013KT 9999 FEW030 BKN280 31/25 A2985 RMK FEW140 CB DST N HZ LGT ARND=
200909301800 METAR MRLM 301800Z 34012KT 9999 FEW030 BKN280 31/24 A2982 RMK TCU DST SW HZ LGT ARND=
200909301900 METAR MRLM 301900Z 34012KT 9999 FEW025 BKN280 30/25 A2979 RMK CB DST HZ SE=
200909302000 METAR MRLM 302000Z 35010KT 9999 FEW030 BKN280 30/24 A2977 RMK CB DST SE SW HZ SE=
200909302100 METAR MRLM 302100Z 24012KT 9999 SCT025 BKN280 30/25 A2976 CB DST E SE HZ SE=
200909302200 METAR MRLM 302200Z 34008KT 9999 BKN025 29/24 A2977 RMK FEW130 FEW280 RN DST SW W S CB DST E W=
200909302300 METAR MRLM 302300Z 33007KT 9999 BKN025 29/24 A2977 RMK CB DST E S FEW130 FEW280 HZ SE=
200910010000 METAR MRLM 010000Z 27002KT 9999 FEW015 SCT280 27/24 A2982 RMK FEW080 CB DST SW W=
200910010100 METAR MRLM NIL=
200910010200 METAR MRLM NIL=
200910010300 METAR MRLM NIL=
200910010400 METAR MRLM NIL=
200910010500 METAR MRLM NIL=
200910010600 METAR MRLM NIL=
200910010700 METAR MRLM NIL=
200910010800 METAR MRLM NIL=
200910010900 METAR MRLM NIL=
200910011000 METAR MRLM NIL=
200910011100 METAR MRLM NIL=
200910011200 METAR MRLM 011200Z 24003KT 9999 FEW015 BKN110 25/23 A2981 RMK CB DST NE HZ SE=
200910011300 METAR MRLM 011300Z 30003KT 9999 SCT015 SCT110 26/23 A2985 CB RN DST NE HZ SE=
200910011400 METAR MRLM 011400Z 29004KT 9999 VCSH BKN015 27/24 A2989 RMK FEW100 VIS NE E 6KMS=
200910011500 METAR MRLM 011500Z 20004KT 9999 SCT015 SCT100 25/23 A2989 RERA RMK RN DST E SE HZ ARND=
200910011600 METAR MRLM 011600Z 20005KT 9999 FEW015 BKN100 27/24 A2987 RMK RN DST SE HZ ARND=
200910011700 METAR MRLM 011700Z 27005KT 9999 FEW030 BKN100 30/24 A2985 RMK HZ SE=
200910011800 METAR MRLM 011800Z 27002KT 9999 FEW035 BKN110 31/24 A2982 FEW250 HZ SE=
200910011900 METAR MRLM 011900Z 01006KT 9999 FEW030 SCT130 31/24 A2979 SCT250 HZ ARND=
200910012000 METAR MRLM 012000Z 36008KT 9999 FEW030 SCT140 31/25 A2978 RMK SCT250 HZ ARND=
200910012100 METAR MRLM 012100Z 35005KT CAVOK 30/25 A2976 RMK SCT120 SCT250 CB DST SW W HZ ARND=
200910012200 METAR MRLM 012200Z 29003KT 9999 FEW020 BKN120 29/25 A2976 RMK FEW250 CB RN DST QUAD S HZ ARND=
200910012300 METAR MRLM 012300Z 00000KT CAVOK 29/25 A2977 RMK SCT110 BKN250 CB DST S HZ ARND=
200910020000 METAR MRLM 020000Z 00000KT CAVOK 28/26 A2977 RMK SCT100 BKN250 HZ ARND=
200910020100 METAR MRLM NIL=
200910020200 METAR MRLM NIL=
200910020300 METAR MRLM NIL=
200910020400 METAR MRLM NIL=
200910020500 METAR MRLM NIL=
200910020600 METAR MRLM NIL=
200910020700 METAR MRLM NIL=
200910020800 METAR MRLM NIL=
200910020900 METAR MRLM NIL=
200910021000 METAR MRLM NIL=
200910021100 METAR MRLM NIL=
200910021200 METAR MRLM 021200Z 23003KT CAVOK 24/23 A2981 RMK FEW140 OVC260 CB DST N NE E HZ SE=
200910021300 METAR MRLM 021300Z 27003KT CAVOK 26/23 A2982 RMK FEW140 OVC260 CB RN DST N NE HZ SE=
200910021400 METAR MRLM 021400Z 00000KT CAVOK 28/23 A2983 RMK SCT120 BKN250 CB RN DST N NE HZ SE=
200910021500 METAR MRLM 021500Z 33006KT CAVOK 29/23 A2985 RMK SCT120 SCT250 CB RN DST NE HZ SE=
200910021600 METAR MRLM NIL=
200910021700 METAR MRLM 021700Z 31009KT 9999 BKN020 SCT110 29/25 A2983 HZ ARND=
200910021800 METAR MRLM 021800Z 35008KT 9999 SCT020 SCT110 29/25 A2980 RMK HZ ARND=
200910021900 METAR MRLM 021900Z 33008KT 9999 FEW020 BKN120 29/25 A2977 RMK HZ ARND=
200910022000 METAR MRLM 022000Z 35007KT 9999 FEW020 BKN120 29/25 A2975 RMK CB DST SW HZ ARND=
200910022100 METAR MRLM 022100Z 36009KT 9999 SCT020 SCT120 29/24 A2974 CB SW HZY=
200910022200 METAR MRLM 022200Z 00000KT 9999 FEW015 SCT110 28/24 A2084 FEW250 HZY=
200910022300 METAR MRLM 022300Z 00000KT 9999 FEW015 BKN100 28/25 A2976 FEW250 HZY=
200910030000 METAR MRLM 030000Z 00000KT CAVOK 27/25 A2977 BKN100 FEW250 CB RN SW HZY=
200910030100 METAR MRLM NIL=
200910030200 METAR MRLM NIL=
200910030300 METAR MRLM NIL=
200910030400 METAR MRLM NIL=
200910030500 METAR MRLM NIL=
200910030600 METAR MRLM NIL=
200910030700 METAR MRLM NIL=
200910030800 METAR MRLM NIL=
200910030900 METAR MRLM NIL=
200910031000 METAR MRLM NIL=
200910031100 METAR MRLM NIL=
200910031200 METAR MRLM NIL=
200910031300 METAR MRLM 031300Z 22003KT CAVOK 26/23 A2984 SCT110 FEW280 CB DIST NE=
200910031400 METAR MRLM 031400Z 26003KT CAVOK 29/23 A2984 SCT110 FEW280 CB RN N NE E HZY=
200910031500 METAR MRLM 031500Z 02005KT 9999 FEW030 BKN110 31/24 A2984 RMK FEW300 CB N NE HZ ARND=
200910031600 METAR MRLM 031600Z 02006KT 9999 SCT030 SCT090 30/25 A2985 RMK FEW300 HZ LEVE ARND=
200910031700 METAR MRLM 031700Z 03007KT 9999 SCT028 SCT110 30/25 A2982 RMK FEW300 HZ LEVE ARND=
200910031800 METAR MRLM 031800Z 36008KT 9999 FEW028 31/25 A2979 RMK FEW300 CB N HZ LEVE ARND=
200910031900 METAR MRLM 031900Z 01010KT 9999 FEW030 31/25 A2977 RMK CB NW N SE FEW280 HZ LEVE SE=
200910032000 METAR MRLM 032000Z 01009KT 9999 FWE025 31/25 A2975 RMK CB NW N SE SW FEW280 HZ LEVE SE=
200910032100 METAR MRLM 032100Z 35008KT 9999 SCT025 SCT280 30/25 A2973 RMK CB SE S HZ SE=
200910032200 METAR MRLM 032200Z 35009KT 9999 BKN020 30/25 A2973 RMK FEW280 CB DST SE SW HZ SE=
200910032300 METAR MRLM 032300Z 34008KT 9999 BKN023 29/25 A2975 RMK TCU RN DST S SW FEW28 0=
200910040000 METAR MRLM 040000Z 30002KT 9999 BKN020 28/25 A2976 RMK FEW280 TCU RN DST S SW=
200910040100 METAR MRLM NIL=
200910040200 METAR MRLM NIL=
200910040300 METAR MRLM NIL=
200910040400 METAR MRLM NIL=
200910040500 METAR MRLM NIL=
200910040600 METAR MRLM NIL=
200910040700 METAR MRLM NIL=
200910040800 METAR MRLM NIL=
200910040900 METAR MRLM NIL=
200910041000 METAR MRLM NIL=
200910041100 METAR MRLM NIL=
200910041200 METAR MRLM 041200Z NIL=
200910041300 METAR MRLM 041300Z 23002KT 9999 FEW025 BKN130 26/23 A2983 RMK FEW100 FEW280 CB RN DST N NE E HZ ARND=
200910041400 METAR MRLM 041400Z 31002KT CAVOK 26/24 A2984 RMK FEW120 SCT159 SCT260 CB RN NW N NE E=
200910041500 METAR MRLM 041500Z 00000KT CAVOK 26/24 A2984 RMK FEW120 BKN150 FEW260 CB RN DST NW N NE E TSTM NE=
200910041600 METAR MRLM 041600Z 00000KT 9999 DZ FEW090 BKN140 26/24 A2986 RMK FEW260 CB RN NW N NE=
200910041700 METAR MRLM 041700Z 00000KT 9999 SCT015 SCT110 28/25 A2984 RMK CB RN DST NW N NE E=
200910041800 METAR MRLM 041800Z 34003KT 9999 SCT025 BKN090 29/24 A2982 RMK CB RN NE E HZ ARND=
200910041900 METAR MRLM 041900Z 02007KT 9999 SCT020 BKN090 29/24 A2982 RMK DZ N NE HZ LEVE ARND=
200910042000 METAR MRLM 042000Z 36005KT 9999 FEW020 BKN280 29/25 A2976 RMK DZ NW N E CB RN DST SW W FEW100=
200910042100 METAR MRLM 042100Z 03005KT 9999 FEW020 BKN080 29/24 A2976 RMK CB DST ARND RN DST SW DZ E FEW250=
200910042200 METAR MRLM 042200Z 09002KT 9999 FEW020 BKN080 29/24 A2976 RMK FEW260 CB RN DST ARND=
200910042300 METAR MRLM 042300Z 09004KT 9999 FEW018 BKN090 28/24 A2978 RMK CB DST ARND RN DST E SE S SW W=
200910050000 METAR MRLM 050000Z 18002KT 9999 DZ SCT012 SCT080 27/25 A2980 RMK CB RN DST ARND FEW260=
200910050100 METAR MRLM NIL=
200910050200 METAR MRLM NIL=
200910050300 METAR MRLM NIL=
200910050400 METAR MRLM NIL=
200910050500 METAR MRLM NIL=
200910050600 METAR MRLM NIL=
200910050700 METAR MRLM NIL=
200910050800 METAR MRLM NIL=
200910050900 METAR MRLM NIL=
200910051000 METAR MRLM NIL=
200910051100 METAR MRLM NIL=
200910051200 METAR MRLM 051200Z 00000KT CAVOK 24/23 A2980 RMK BKN120 SCT250 CB DST N HZ ARN=
200910051300 METAR MRLM 051300Z 21003KT CAVOK 25/23 A2982 RMK FEW100 SCT120 FEW250 HZ SE=
200910051400 METAR MRLM 051400Z 22003KT CAVOK 26/24 A2984 RMK BKN110 FEW250 CB DST NE=
200910051500 METAR MRLM 051500Z 24004KT CAVOK 29/24 A2985 RMK SCT110 BKN250 CB DST N NE=
200910051600 METAR MRLM 051600Z 04005KT 9999 FEW030 BKN250 30/24 A2985 RMK FEW120 CB DST N NE=
200910051700 METAR MRLM 051700Z 02006KT 9999 FEW030 BKN250 30/24 A2983 RMK FEW130 CB DST N NE=
200910051800 METAR MRLM 051800Z 01009KT 9999 F HVH762 051804 FF MPZLZQZX MKJKZQZX MUFHZRZX KZMAZRZX KZJXZRZX KZTLZRZX 051801 MROCZPZX /FPL-DAL412-IS -B738/M-SDGHIRWZ/C -MROC1920 -N0454F370 UA322 SPP UG448 EMONA UG448 UCL UG448 TADPO G448 MTH DCT LBV J73 SZW HONIE5 -KATL0354 KGSP KTYS -EET/MPZL0025 MKJK0057 MUFH0139 KZMA0214 KZJX0250 KZTL0326 REG/N3755D SEL/QRAD NAV/RNVD1E2A1 RNP10 RMK/TCAS AGCS EQUIPPED/=
200910051900 METAR MRLM 051900Z 02009KT 9999 FEW025 SCT120 29/24 A2978 RMK SCT250 CB DST S N NW=
200910052000 METAR MRLM 052000Z 03006KT 9999 SCT030 SCT110 29/24 A2977 RMK FEW250 CB RN DST S SW=
200910052100 METAR MRLM 052100Z 05002KT 9999 FEW020 SCT120 28/24 A2975 RMK SCT250 CB RN DST S SW W=
200910052200 METAR MRLM 052200Z 00000KT CAVOK 29/25 A2976 RMK SCT120 SCT250 CB RN DST S SW SE=
200910052300 METAR MRLM 052300Z 00000KT 9999 FEW015 BKN120 28/25 A2978 RMK FEW250 CB RN DST S HZ SE=
200910060000 METAR MRLM 060000Z 00000KT 9999 DZ FEW015 BKN110 27/25 A2979 RMK RN DST S HZ ANRD=
200910060100 METAR MRLM NIL=
200910060200 METAR MRLM NIL=
200910060300 METAR MRLM NIL=
200910060400 METAR MRLM NIL=
200910060500 METAR MRLM NIL=
200910060600 METAR MRLM NIL=
200910060700 METAR MRLM NIL=
200910060800 METAR MRLM NIL=
200910060900 METAR MRLM NIL=
200910061000 METAR MRLM NIL=
200910061100 METAR MRLM NIL=
200910061200 METAR MRLM 061200Z 21003KT CAVOK 23/22 A2983 RMK SCT100 SCT250=
200910061300 METAR MRLM 061300Z 00000KT CAVOK 24/23 A2985 RMK BKN140 SCT250 HZ SE=
200910061400 METAR MRLM 061400Z 20005KT CAVOK 27/24 A2985 SCT130 BKN250 HZ SE=
200910061500 METAR MRLM 061500Z 03005KT 9999 FEW030 SCT140 29/24 A2988 RMK SCT250 TCU DST N HZ SE=
200910061600 METAR MRLM NIL=
200910061700 METAR MRLM 061700Z 36007KT 9999 FEW030 BKN110 30/24 A2987 RMK TCU DST S RN NE=
200910061800 METAR MRLM 061800Z 36008KT 9999 SCT025 SCT100 29/24 A2985 RMK RN DST N=
200910061900 METAR MRLM 061900Z 03008KT 9999 SCT020SCT100 27/24 A2984 RMK RN DST W NW N E=
200910062000 METAR MRLM 062000Z 01006KT 9999 -DZ BKN020 26/24 A2982 RMK RN DST SE=
200910062100 METAR MRLM 062100Z 06003KT 9999 BKN020 SCT110 27/23 A2982 RMK RN DST W HZ SE=
200910062200 METAR MRLM 062200Z 00000KT 9999 FEW020 BKN110 27/23 A2982 RMK HZ SE=
200910062300 METAR MRLM 062300Z 00000KT 9999 FEW015 BKN110 26/24 A2983 RMK HZ ARND=
200910070000 METAR MRLM 070000Z 00000KT 9999 -DZ FEW015 BKN100 26/24 A2983 RMK HZ ARND=
200910070100 METAR MRLM NIL=
200910070200 METAR MRLM NIL=
200910070300 METAR MRLM NIL=
200910070400 METAR MRLM NIL=
200910070500 METAR MRLM NIL=
200910070600 METAR MRLM NIL=
200910070700 METAR MRLM NIL=
200910070800 METAR MRLM NIL=
200910070900 METAR MRLM NIL=
200910071000 METAR MRLM NIL=
200910071100 METAR MRLM NIL=
200910071200 METAR MRLM 071200Z NIL=
200910071300 METAR MRLM 071300Z 24004KT CAVOK 26/23 A2990 RMK OVC120 HZ LGT ARND CB RN DST N=
200910071400 METAR MRLM 071400Z 22003KT CAVOK 28/24 A2991 RMK OVC120 HZ LGT ARND CB DST N NE E RN DST N=
200910071500 METAR MRLM 071500Z 01006KT CAVOK 30/24 A2992 RMK CB DST NW N E RN DST E BKN130 FEW280=
200910071600 METAR MRLM 071600Z 01005KT 9999 FEW025 SCT140 30/25 A2992 RMK FEW280=
200910071700 METAR MRLM 071700Z 36007KT 9999 FEW030 SCT140 31/25 A2991 RMK FEW280 HZ SE=
200910071800 METAR MRLM 071800Z 01006KT 9999 FEW030 31/25 A2991 RMK FEW140 CB DST NW HZ SE=
200910071900 METAR MRLM 071900Z 36005KT 9999 FEW028 31/25 A2985 RMK FEW140 FEW300 CB DST SW HZ SE=
200910072000 METAR MRLM 072000Z 36006KT 9999 FEW030 31/25 A2982 RMK FEW140 FEW300 CB DST SE SW HZ SE=
200910072100 METAR MRLM 072100Z 36007KT 9999 FEW035 BKN150 31/24 A2982 FEW300 CB DST S SW HZ SE=
200910072200 METAR MRLM 072200Z 01003KT 9999 FEW030 BKN150 30/24 A2982 FEW280 HZ SE CB DST E S=
200910072300 METAR MRLM 072300Z 36003KT 9999 FEW025 BKN130 30/24 A2984 CB DST N NE E S FEW280 HZ SE=
200910080000 METAR MRLM 080000Z 24002KT CAVOK 28/25 A2987 BKN130 FEW280 CB DST NW NE S HZ SE=
200910080100 METAR MRLM 080100Z NIL=
200910080200 METAR MRLM NIL=
200910080300 METAR MRLM NIL=
200910080400 METAR MRLM NIL=
200910080500 METAR MRLM NIL=
200910080600 METAR MRLM NIL=
200910080700 METAR MRLM NIL=
200910080800 METAR MRLM NIL=
200910080900 METAR MRLM NIL=
200910081000 METAR MRLM NIL=
200910081100 METAR MRLM NIL=
200910081200 METAR MRLM NIL=
200910081300 METAR MRLM 081300Z 23003KT 9999 FEW015 BKN080 25/24 A2987 CB RN N E HZ ARND=
200910081400 METAR MRLM 081400Z 01006KT 5000 RA SCT012 SCT080 27/24 A2989 VIS UNL SE S SW=
200910081500 METAR MRLM 081500Z 05004KT 5000 RA FEW005 BKN010 27/25 A2991 TCU N E FEW080=
200910081600 METAR MRLM 081600Z 24005KT 8000 +DZ FEW008 BKN015 27/25 A2990 TCU RN HZ ARND=
200910081700 METAR MRLM 081700Z 22006KT 8000 +DZ VCSH BKN025TCU 30/25 A2987 FEW090 VIS UNL S HZ ARND=
200910081800 METAR MRLM 081800Z 26005KT 6000 +RA SCT008 SCT015TCU 26/24 A2985=
200910081900 METAR MRLM 081900Z 23007KT 8000 TSRA FEW006 SCT010CB BKN015 25/24 A2984 TS DST S SW W=
200910082000 METAR MRLM 082000Z 23005KT 8000 RA OVC010 25/24 A2982 RETS=
200910082100 METAR MRLM 082100Z 11010KT 1000 +TSRA SCT006 SCT010CB 25/24 A2983=
200910082200 METAR MRLM 082200Z 29002KT 9999 RA FEW005 SCT025 BKN100 25/24 A2981 RETS RMK CB DST N NE=
200910082300 METAR MRLM 082300Z 32004KT 9999 +DZ FEW005 BKN120 25/24 A2978 RMK FEW090 CB DST W N LTNG NE=
200910090000 METAR MRLM 090000Z 28005KT 9999 -DZ FEW080 BKN100 25/24 A2981 RMK CB RN ARND=
200910090100 METAR MRLM NIL=
200910090200 METAR MRLM NIL=
200910090300 METAR MRLM NIL=
200910090400 METAR MRLM NIL=
200910090500 METAR MRLM NIL=
200910090600 METAR MRLM NIL=
200910090700 METAR MRLM NIL=
200910090800 METAR MRLM NIL=
200910090900 METAR MRLM NIL=
200910091000 METAR MRLM NIL=
200910091100 METAR MRLM NIL=
200910091200 METAR MRLM 091200Z NIL=
200910091300 METAR MRLM 091300Z 23002KT CAVOK 25724 A2983 RMK FEW120 OVC250 CB RN N HZ SE=
200910091400 METAR MRLM 091400Z 00000KT 9999 FEW020 BKN250 28/24 A2985 RMK FEW120 HZ SE=
200910091500 METAR MRLM 091500Z 28003KT 9999 BKN020 SCT130 28/24 A2988 RMK HZ ARND=
200910091600 METAR MRLM 091600Z 28005KT 9999 SCT020 BKN100 28/24 A2986 RMK FEW120 HZ ARND=
200910091700 METAR MRLM 091700Z 01004KT 9999 FEW030 BKN110 30/24 A2985 RMK HZ SE=
200910091800 METAR MRLM 091800Z 35009KT 9999 FEW025 SCT120 30/25 A2981 RMK SCT250 TCU DST SW CB RN NE HZ ARND=
200910091900 METAR MRLM 091900Z 36008KT 9999 SCT025 SCT250 30/25 A2977 RMK FEW120 HZ LEVE SE=
200910092000 METAR MRLM 092000Z 36008KT 9999 SCT030 BKN250 30/25 A2975 RMK RN DST SW TCU NE HZ LEVE ARND=
200910092100 METAR MRLM 092100Z 36009KT 9999 FEW030 BKN250 30/25 A2975 RMK CB RN DST SW W HZ LGT ARND=
200910092200 METAR MRLM 092200Z 35008KT 9999 SCT020 SCT250 29/25 A2976 RMK RN DST S SW W HZ ARND=
200910092300 METAR MRLM 092300Z 34002KT 9999 SCT020 BKN250 28/25 A2979 RMK RN DST W SE HZ ARND=
200910100000 METAR MRLM 100000Z 00000KT 9999 FEW015 SCT130 27/25 A2980 RMK SCT250 CB RN DST W HZ ARND=
200910100100 METAR MRLM NIL=
200910100200 METAR MRLM NIL=
200910100300 METAR MRLM NIL=
200910100400 METAR MRLM NIL=
200910100500 METAR MRLM NIL=
200910100600 METAR MRLM NIL=
200910100700 METAR MRLM NIL=
200910100800 METAR MRLM NIL=
200910100900 METAR MRLM NIL=
200910101000 METAR MRLM NIL=
200910101100 METAR MRLM NIL=
200910101200 METAR MRLM NIL=
200910101300 METAR MRLM 101300Z 27006KT 9999 SCT015 SCT100 26/24 A2989 RMK RN DST N NW HZ SW=
200910101400 METAR MRLM 101400Z 28006KT 9999 SCT020 BKN100 27/24 A2990 RMK RN DST N HZ SE=
200910101500 METAR MRLM 101500Z 28005KT 9999 BKN020 SCT100 29/24 A2990 RMK HZ SE=
200910101600 METAR MRLM 101600Z 31006KT 9999 BKN020 SCT110 29/25 A2989 RMK HZ SE=
200910101700 METAR MRLM 101700Z 30004KT 9999 SCT030 SCT120 31/24 A2987 RMK HZ LGT ARND=
200910101800 METAR MRLM 101800Z 36008KT 9999 FEW030 BKN250 31/26 A2983 RMK FEW130 CB DST NE HZ LGT ARND=
200910101900 METAR MRLM 101900Z 35010KT 9999 FEW030 BKN250 31/25 A2981 RMK HZ LGT ARND=
200910102000 METAR MRLM 102000Z 34010KT 9999 FEW030 31/25 A2980 RMK HZ LGT ARND=
200910102100 METAR MRLM 102100Z 34008KT 9999 FEW025 BKN250 30/25 A2978 RMK TCU SW HZY=
200910102200 METAR MRLM 102200Z 34008KT 9999 SCT020 BKN250 29/25 A2979 HZ ARMD=
200910102300 METAR MRLM 102300Z 33006KT 9999 SCT020 BKN250 29/25 A2981 RMK HZ ARND=
200910110000 METAR MRLM 110000Z 29002KT 9999 BKN015 28/25 A2984 RMK FEW250 HZY=
200910110100 METAR MRLM NIL=
200910110200 METAR MRLM NIL=
200910110300 METAR MRLM NIL=
200910110400 METAR MRLM NIL=
200910110500 METAR MRLM NIL=
200910110600 METAR MRLM NIL=
200910110800 METAR MRLM NIL=
200910110900 METAR MRLM NIL=
200910111000 METAR MRLM NIL=
200910111100 METAR MRLM NIL=
200910111200 METAR MRLM NIL=
200910111300 METAR MRLM 111300Z 22003KT CAVOK 25/24 A2990 RMK FEW070 SCT090 SCT300 CB RN DST SE HZ LGT ARND=
200910111400 METAR MRLM 111400Z 20004KT CAVOK 27/25 A2982 RMK SCT080 BKN300 CB RN DST SE HZ ARND=
200910111500 METAR MRLM 111500Z 23004KT 9999 FEW025 BKN300 29/24 A2993 RMK FEW090 CB RN DST SE TCU DST NW HZ ARND=
200910111600 METAR MRLM 111600Z 02006KT 9999 FEW025TCU BKN300 30/25 A2992 HZ LGT ARND/=
200910111700 METAR MRLM 111700Z 36006KT 9999 FEW035 BKN300 31/24 A2988 RMK HZ ARND=
200910111800 METAR MRLM 111800Z 37007KT 9999 FEW030 BKN300 31/25 A2986 RMK FEW110 HZ LGT ARND=
200910111900 METAR MRLM 111900Z 36008KT 9999 FEW028 BKN300 31/25 A2984 RMK FEW120 HZ LGT ARND=
200910112000 METAR MRLM 112000Z 36007KT 9999 FEW025 BKN280 30/25 A2983 RMK HZ LGY ARND=
200910112100 METAR MRLM 112100Z 36007KT 9999 FEW028 BKN280 30/25 A2983 RMK LGT HZ ARND=
200910112200 METAR MRLM 112200Z 35006KT 9999 SCT025 SCT140 30/25 A2984 RMK FEW280 HZ ARND=
200910112300 METAR MRLM 112300Z 33006KT 9999 SCT025 SCT130 29/24 A2984 RMK FEW280 HZY=
200910120000 METAR MRLM 120000Z 24005KT 9999 FEW015 BKN090 28/24 A2983 RMK CB DST S FEW28 0 LGT HZ ARND=
200910120100 METAR MRLM NIL=
200910120200 METAR MRLM NIL=
200910120300 METAR MRLM NIL=
200910120400 METAR MRLM NIL=
200910120500 METAR MRLM NIL=
200910120600 METAR MRLM NIL=
200910120700 METAR MRLM NIL=
200910120800 METAR MRLM NIL=
200910120900 METAR MRLM NIL=
200910121000 METAR MRLM NIL=
200910121100 METAR MRLM NIL=
200910121200 METAR MRLM NIL=
200910121300 METAR MRLM 121300Z 27004KT 9999 DZ FEW025 BKN090 23/22 A2988 RMK CB RN DST ARND=
200910121400 METAR MRLM 121400Z 22003KT 9999 FEW030 SCT090 24/22 A2991 RMK REDZ SCT130 CB RN DST ARND=
200910121500 METAR MRLM 121500Z 13003KT 9999 FEW030 BKN080 25/22 A2992 RMK FEW140 CB RN DST NW E=
200910121600 METAR MRLM 121600Z 20005KT 9999 BKN025 27/23 A2990 RMK FEW090 FEW250 DZ DST E SE=
200910121700 METAR MRLM 121700Z 25002KT 9999 SCT035 SCT080 28/23 A2988 RMK FEW250 HZ LEVE ARND=
200910121800 METAR MRLM 121800Z 29005KT 9999 SCT035 SCT080 30/23 A2985 RMK DZ DST SE=
200910121900 METAR MRLM 121900Z 29005KT 9999 BKN040 30/23 A2982 RMK FEW270 DZ DST SE S HZ LEVE ARND=
200910122000 METAR MRLM 122000Z 35005KT 9999 SCT040 SCT090 32/24 A2980 HZ ARND FEW270=
200910122100 METAR MRLM 122100Z 30004KT 9999 FEW040 BKN270 31/23 A2978 FEW140 RN DST S HZ ARND=
200910122200 METAR MRLM 1222HVH043 122159 GG EGZZMCAR EGZZMSAM KWBCYMYX KWBCYZYX MDSDYMYX MKJPYMYX MPDAYXYX MPMGYMYX 122149 MROCYMYX SACS31=
200910122300 METAR MRLM 122300Z 18002KT CAVOK 28/26 A2982 SCT140 SCT270 HZ ARND=
200910130000 METAR MRLM 130000Z 00000KT CAVOK 27/25 A2983 BKN130 FEW270=
200910130100 METAR MRLM NIL=
200910130200 METAR MRLM NIL=
200910130300 METAR MRLM NIL=
200910130400 METAR MRLM NIL=
200910130500 METAR MRLM NIL=
200910130600 METAR MRLM NIL=
200910130700 METAR MRLM NIL=
200910130800 METAR MRLM NIL=
200910130900 METAR MRLM NIL=
200910131000 METAR MRLM NIL=
200910131100 METAR MRLM NIL=
200910131200 METAR MRLM 131200Z 20003KT 9999 BKN015 24/23 A2987 RMK FEW100 FEW260 TCU DST S SW HZ SE=
200910131300 METAR MRLM 131300Z 20004KT 9999 FEW015 SCT120 26/23 SCT260 HZ SE=
200910131400 METAR MRLM 131400Z 21005KT 9999 FEW020 BKN260 29/24 A2989 FEW130 HZ SE=
200910131500 METAR MRLM 131500Z 03003KT 9999 FEW030 OVC260 30/24 A2990 HZ ARND=
200910131600 METAR MRLM 131600Z 01004KT 9999 FEW030 OVC260 30/25 A2989 HZ ARND=
200910131700 METAR MRLM 131700Z 36007KT CAVOK 30/25 A2987 OVC250 HZ ARND=
200910131800 METAR MRLM 131800Z 35008KT 9999 SCT030 BKN250 31/25 A2984 HZ ARND=
200910131900 METAR MRLM 131900Z 02009KT 9999 BKN030 31/25A2981 FEW250 HZ ARND=
200910132000 METAR MRLM 132000Z 36009KT 9999 SCT030 SCT250 31/25 A2979 FEW130 HZ ARND=
200910132100 METAR MRLM 132100Z 35010KT 9999 SCT030 SCT250 30/24 A2977 RMK FEW130 HZ ARND=
200910132200 METAR MRLM 132200Z 35009KT 9999 SCT030 SCT250 30/23 A2979 RMK HZ ARND=
200910132300 METAR MRLM 132300Z 35006KT 9999 BKN025 29/24 A2981 RMK FEW110 FEW250 HZ ARND=
200910140000 METAR MRLM 140000Z 00000KT 9999 OVC020 28/24 A2983 RMK HZ ARND=
200910140100 METAR MRLM NIL=
200910140200 METAR MRLM NIL=
200910140300 METAR MRLM NIL=
200910140400 METAR MRLM NIL=
200910140500 METAR MRLM NIL=
200910140600 METAR MRLM NIL=
200910140700 METAR MRLM NIL=
200910140800 METAR MRLM NIL=
200910140900 METAR MRLM NIL=
200910141000 METAR MRLM NIL=
200910141100 METAR MRLM NIL=
200910141200 METAR MRLM 141200Z 25004KT 8000 3000N TS +DZ FEW010CB BKN015 24/23 A2985 RMK RN DST W=
200910141300 METAR MRLM 141300Z 27004KT 8000 +DZ BKN015 24/23 A2986 RMK FEW090 CB TS DST NE E=
200910141400 METAR MRLM 141400Z 00000KT 8000 RA BKN015 24/23 A2989 REDZ RMK FEW090 CB TS DST N NE=
200910141500 METAR MRLM 141500Z 25006KT 2000 +RA OVC010 23/22 A2993 RETSSH CB TS DST NE E=
200910141600 METAR MRLM 141600Z 32003KT 3000 -RA OVC010 23/22 A2995 RMK CB TS NE E=
200910141700 METAR MRLM 141700Z 26003KT 5000 -RA FEW006 OVC010 23/22 A2993=
200910141800 METAR MRLM 141800Z 26006KT 5000 -RA FEW006 OVC010 23/22 A2988 RMK CB TS DST NE E=
200910141900 METAR MRLM 141900Z 24004KT 9999 +DZ BKN010 SCST080 24/23 A2983 RERA RMK RN DST N NW SE=
200910142000 METAR MRLM 142000Z 32005KT 9999 +DZ SCT010 SCT080 25723 A2982 RMK RN DST N NW=
200910142100 METAR MRLM 142100Z 27002KT 9999 -DZ SCT010 BKN090 25/23 A2981 RMK RN DST N NE HZ ARND=
200910142200 METAR MRLM 142200Z 24003KT 9999 FEW010 SCT090 25/24 A2981 REDZ RMK S CHECK TEXT NEW ENDING ADDED KATLYTAA=
200910142300 METAR MRLM 142300Z 00000KT 9999 FEW010 BKN110 25/23 A2983 RMK RN DST SE E HZ ARND=
200910150000 METAR MRLM 150000Z 23004KT 9999 SCT010 BKN110 24/23 A2985 RMK RN DST S SW N NE HZ ARND=
200910150100 METAR MRLM NIL=
200910150200 METAR MRLM NIL=
200910150300 METAR MRLM NIL=
200910150400 METAR MRLM NIL=
200910150500 METAR MRLM NIL=
200910150600 METAR MRLM NIL=
200910150700 METAR MRLM NIL=
200910150800 METAR MRLM NIL=
200910150900 METAR MRLM NIL=
200910151000 METAR MRLM NIL=
200910151100 METAR MRLM NIL=
200910151200 METAR MRLM NIL=
200910151300 METAR MRLM 151300Z 22005KT CAVOK 24/22 A2983 RMK FEW300 CB DST NW HZ ARND LGT=
200910151400 METAR MRLM 151400Z 26002KT CAVOK 28/23 A2985 RMK FEW300 HZ LGT ARND=
200910151500 METAR MRLM 151500Z 07004KT CAVOK 29/24 A2983 RMK FEW300 TCU DST E HZ LGT ARND=
200910151600 METAR MRLM 151600Z 07003KT 9999 FEW030 30/23 A2988 RMK FEW300 HZ LGT ARND=
200910151700 METAR MRLM 151700Z 04005KT 9999 FEW030 BKN300 30/24 A2985 RMK CB DST N HZ LGT ARND=
200910151800 METAR MRLM 151800Z 03006KT 9999 FEW030 BKN300 30/24 A2982 RMK CB DST N HZ LGT ARND=
200910151900 METAR MRLM 151900Z 03007KT 9999 FEW030 BKN300 30/24 A2979 RMK CB DST NW HZ SE=
200910152000 METAR MRLM 152000Z 03005KT 9999 FEW030 BKN300 30/24 A2977 RMK CB DST NW NE HZ SE=
200910152100 METAR MRLM 152100Z 01006KT 9999 FEW025 BKN300 30/24 A2976 RMK LGT HZ ARN CB DST N SW=
200910152200 METAR MRLM 152200Z 02005KT 9999 FEW028 BKN280 30/24 A2976 CB DST S LGT HZ ARND=
200910152300 METAR MRLM 152300Z 02003KT 9999 FEW025 BKN280 29/24 A2978 RMK CB DST S HZ ARND=
200910160000 METAR MRLM 160000Z 00000KT 9999 FEW010 BKN280 26/24 A2979 RMK CB DST SW LGT HZ ARND=
200910160100 METAR MRLM NIL=
200910160200 METAR MRLM NIL=
200910160300 METAR MRLM NIL=
200910160400 METAR MRLM NIL=
200910160500 METAR MRLM NIL=
200910160600 METAR MRLM NIL=
200910160700 METAR MRLM NIL=
200910160800 METAR MRLM NIL=
200910160900 METAR MRLM NIL=
200910161000 METAR MRLM NIL=
200910161100 METAR MRLM NIL=
200910161200 METAR MRLM NIL=
200910161300 METAR MRLM 161300Z 25002KT CAVOK 26/22 A2985 RMK FEW140 BKN280 LGT HZ ARND=
200910161400 METAR MRLM 161400Z 00000KT 9999 FEW025 BKN280 29/23 A2987 RMK FEW120 CBS RN E DST LGT HZ ARND=
200910161500 METAR MRLM 161500Z 04002KT 9999 SCT028 SCT090 29/23 A2988 RMK FEW280 CBS RN DST E HZ ARND=
200910161600 METAR MRLM 161600Z 07005KT 9999 SCT025 SCT090 29/24 A2987 RMK RN DST NE=
200910161700 METAR MRLM NIL=
200910161800 METAR MRLM 161800Z 06005KT 9999 FEW030 SCT100 30/23 A2983 RMK CB DST NE SCT280 LGT HZ ARND=
200910161900 METAR MRLM 161900Z 07006KT 9999 FEW030 BKN280 30/23 A2979 RMK FEWW130 CBS DST NE E LGT HZ ARND=
200910162000 METAR MRLM 162000Z 06006KT 9999 FEW035 SCTY280 30/23 A2978 RMK FEW140 CB DST NE SE S SW HZ SE=
200910162100 METAR MRLM 162100Z 04005KT 9999 FEW030 SCT140 30/23 A2977 RMK SCT280 CB RN DST ARND HZ SE=
200910162200 METAR MRLM 162200Z 08006KT 9999 FEW030 SCT280 30/23 A2978 RMK CB HZ DST ARND FEW140=
200910162300 METAR MRLM 162300Z 08006KT 9999 FEW025 BKN280 29/24 A2979 RMK FEW140 HZ SE CB DST ARND=
200910170000 METAR MRLM 170000Z 16002KT 9999 FEW015 BKN280 27/24 A2980 RMK CB DST QUAD S W HZ LGT SE=
200910170100 METAR MRLM NIL=
200910170200 METAR MRLM NIL=
200910170300 METAR MRLM NIL=
200910170400 METAR MRLM NIL=
200910170500 METAR MRLM NIL=
200910170600 METAR MRLM NIL=
200910170700 METAR MRLM NIL=
200910170800 METAR MRLM NIL=
200910170900 METAR MRLM NIL=
200910171000 METAR MRLM NIL=
200910171100 METAR MRLM NIL=
200910171200 METAR MRLM 171200Z 22005KT CAVOK 23/21 A2987 RMK BKN110 HZ SE=
200910171300 METAR MRLM 171300Z 22004KT CAVOK 26/23 A2988 RMK FEW110 SCT260 HZ SE=
200910171400 METAR MRLM 171400Z 00000KT CAVOK 30/23 A2991 RMK SCT120 SCT250 HZ SE=
200910171500 METAR MRLM 171500Z 00000KT 9999 FEW030 BKN120 30/23 A2992 RMK TCU DST N HZ SE=
200910171600 METAR MRLM 171600Z 05004KT 9999 SCT030 SCT130 30/23 A2992 RMK FEW250 CB DST SW NE HZ SE=
200910171700 METAR MRLM 171700Z 08004KT 9999 SCT035 BKN110 30/23 A2989 RMK CB DST NE E SW HZ ARND=
200910171800 METAR MRLM 171800Z 08009KT 9999 SCT025 BKN100 29/24 A2987 RMK CB DST N NE HZ ARND=
200910171900 METAR MRLM 171900Z 06007KT 9999 SCT025 SCT100 29/24 A2984 RMK HZ ARND=
200910172000 METAR MRLM 172000Z 03003KT 9999 SCT030 SCT110 29/24 A2982 RMK FEW250 HZ ARND=
200910172100 METAR MRLM 172100Z 02003KT 9999 FEW030 SCT110 29/23 A2981 SCT250 HZ ARND=
200910172200 METAR MRLM 172200Z 02012KT 9999 BKN020 28/24 A2982 FEW110 HZ ARND=
200910172300 METAR MRLM 172300Z 01007KT 9999 SCT020 BKN110 28/24 A2983=
200910180000 METAR MRLM 180000Z 00000KT 9999 FEW015 BKN110 26/24 A2984=
200910180100 METAR MRLM NIL=
200910180200 METAR MRLM NIL=
200910180300 METAR MRLM NIL=
200910180400 METAR MRLM NIL=
200910180500 METAR MRLM NIL=
200910180600 METAR MRLM NIL=
200910180700 METAR MRLM NIL=
200910180800 METAR MRLM NIL=
200910180900 METAR MRLM NIL=
200910181000 METAR MRLM NIL=
200910181100 METAR MRLM NIL=
200910181200 METAR MRLM 181200Z 22003KT CAVOK 24/22 A2984 RMK BKN100 CB DST NW N RN E SE=
200910181300 METAR MRLM 181300Z 00000KT CAVOK 26/23 A2986 BKN100 CB DST N NE RN DST SE=
200910181400 METAR MRLM 181400Z 00000KT CAVOK 29/23 A2988 SCT110 SCT250 CB DST NW HZ SE=
200910181500 METAR MRLM 181500Z 29007KT CAVOK 30/23 A2989 BKN130 SCT250 CB DST NW HZ SE=
200910181600 METAR MRLM 181600Z 31008KT CAVOK 30/24 A2988 BKN130 FEW250 CB DST N NE=
200910181700 METAR MRLM 181700Z 32007KT 9999 FEW040 BKN140 32/22 A2987 FEW250=
200910181800 METAR MRLM 181800Z 32011KT 9999 FEW030 BKN140 31/24 A2984 FEW250 TCU DST S SW=
200910181900 METAR MRLM 181900Z 32010KT 9999 FEW030 SCT140 30/24 A2980 SCT250 TCU DST S SW=
200910182000 METAR MRLM 182000Z 33012KT 9999 SCT030 SCT250 30/24 A2977 FEW130 TCU DST S=
200910182100 METAR MRLM 182100Z 31011KT 9999 SCT030 BKN250 30/24 A2976 RMK CB DST S SW=
200910182200 METAR MRLM 182200Z 32008KT 9999 SCT025 BKN250 29/24 A2976 RMK CB DST S SW=
200910182300 METAR MRLM 182300Z 29005KT 9999 BKN020 SCT250 28/24 A2978 RMK CB DST SW HZ SE=
200910190000 METAR MRLM 190000Z 23002KT 999 OVC020 27/24 A2980 RMK CB DST S HZ SE=
200910190100 METAR MRLM NIL=
200910190200 METAR MRLM NIL=
200910190300 METAR MRLM NIL=
200910190400 METAR MRLM NIL=
200910190500 METAR MRLM NIL=
200910190600 METAR MRLM NIL=
200910190700 METAR MRLM NIL=
200910190800 METAR MRLM NIL=
200910190900 METAR MRLM NIL=
200910191000 METAR MRLM NIL=
200910191100 METAR MRLM NIL=
200910191200 METAR MRLM 191200Z NIL=
200910191300 METAR MRLM 191300Z 27009KT 9999 FEW015 BKN280 26/23 A2979 RMK CB RN DST N NE E HZ ARND=
200910191400 METAR MRLM 191400Z 29010KT 9999 SCT015 SCT270 28/23 A2982 RMK CB RN N NE E HZ LEVE ARND=
200910191500 METAR MRLM 191500Z 28007KT 9999 BKN020 27/23 A2985 RMK FEW140 CB RN DST N E=
200910191600 METAR MRLM 191600Z 30010KT 9999 BKN020 28/23 A2986 RMK FEW120 CB RN DST N E=
200910191700 METAR MRLM 191700Z 28007KT 9999 SCT025 SCT130 28/23 A2983 RMK CB RN CUADRANT E E=
200910191800 METAR MRLM 191800Z 27005KT 9999 SCT025 SCT130 29/24 A2979 RMK FEW090 CB RN DST N E=
200910191900 METAR MRLM 191900Z 30008KT 9999 BKN028 29/23 A2977 RMK FEW100 FEW250 CB RN CUADRANTE E=
200910192000 METAR MRLM 192000Z 32007KT 9999 SCT030 SCT270 29/23 A2975 RMK FEW090 RN SW CB RN DST N E=
200910192100 METAR MRLM 192100Z 30007KT 9999 SCT025 SCT090 29/24 A2973 RMK CB RN ARND FEW270=
200910192200 METAR MRLM 192200Z 26005KT 9999 SCT020 SCT090 28/24 A2973 RMK FEW270 CB RN ARND=
200910192300 METAR MRLM 192300Z 25003KT 9999 FEW015 BKN090 27/24 A2974 RMK CB RN ARND=
200910200000 METAR MRLM 200000Z 26004KT 9999 SCT015 BKN090 26/23 A2976 RMK CB RN N E=
200910200100 METAR MRLM NIL=
200910200200 METAR MRLM NIL=
200910200300 METAR MRLM NIL=
200910200400 METAR MRLM NIL=
200910200500 METAR MRLM NIL=
200910200600 METAR MRLM NIL=
200910200700 METAR MRLM NIL=
200910200800 METAR MRLM NIL=
200910200900 METAR MRLM NIL=
200910201000 METAR MRLM NIL=
200910201100 METAR MRLM NIL=
200910201200 METAR MRLM NIL=
200910201300 METAR MRLM 201300Z 27005KT 9999 FEW015 BKN080 25/23 A2979 RMK FEW110 RN DST N E=
200910201400 METAR MRLM 201400Z 28006KT 9999 FEW020 BKN080 27/23 A2982 RMK CB RN DST N NE E=
200910201500 METAR MRLM 201500Z 28007KT 9999 FEW025 BKN080 28/23 A2983 RMK CB RN DST N NE E=
200910201600 METAR MRLM 201600Z 26007KT 9999 FEW025 BKN080 29/23 A2981 RMK FEW120 CB DST N NE E=
200910201700 METAR MRLM 201700Z 31007KT 9999 SCT030 SCT090 29/23 A2980 RMK FEW130 CB RN DST N NE E=
200910201800 METAR MRLM 201800Z 33011KT 9999 SCT030 SCT130 29/23 A2979 RMK FEW110 CB RN DSY ARND=
200910201900 METAR MRLM 201900Z 35010KT 9999 BKN025 29/24 A2974 RMK FEW080 FEW140 CB RN DST ARND=
200910202000 METAR MRLM 202000Z 33009KT 9999 DZ SCT020 SCT080 29/24 A2971 RMK CB RN ARND=
200910202100 METAR MRLM 202100Z 34005KT 5000 RA OVC015 27/24 A2971 RMK VIS NW N UNLTD=
200910202200 METAR MRLM 202200Z 07003KT 5000 RA OVC010 26/24 A2972 RMK VIS NW UNLTD=
200910202300 METAR MRLM 202300Z 19003KT 5000 2000SW RA SCT007 BKN010 25/24 A2974=
200910210000 METAR MRLM 210000Z 23004KT 5000 RA OVC010 24/23 A2976=
200910210100 METAR MRLM NIL=
200910210200 METAR MRLM NIL=
200910210300 METAR MRLM NIL=
200910210400 METAR MRLM NIL=
200910210500 METAR MRLM NIL=
200910210600 METAR MRLM NIL=
200910210700 METAR MRLM NIL=
200910210800 METAR MRLM NIL=
200910210900 METAR MRLM NIL=
200910211000 METAR MRLM NIL=
200910211100 METAR MRLM NIL=
200910211200 METAR MRLM 211200Z 22004KT 999 SCT015 SCT100 23/22 A2980 RMK CB DST NE HZ SE=
200910211300 METAR MRLM 211300Z 23004KT 9999 FEW015 BKN110 24/23 A2981 RMK CB DST N NE HZ SE=
200910211400 METAR MRLM 211400Z 29003KT 9999 FEW020 BKN110 28/23 A2982 FEW250 CB DST N NE HZ SE=
200910211500 METAR MRLM 211500Z 33005KT 9999 FEW020 BKN110 29/23 A2983 RMK CBS DST S N NE HZ SE=
200910211600 METAR MRLM 211600Z 01008KT 9999 SCT020 BKN110 28/24 A2983 CB DST S HZ SE=
200910211700 METAR MRLM 211700Z 36006KT 9999 FEW025 BKN100 28/23 A2981 RMK HZ SE=
200910211800 METAR MRLM 211800Z 01004KT 9999 FEW030 BKN100 29/23 A2977=
200910211900 METAR MRLM 211900Z 02005KT 9999 FEW030 BKN110 29/23 A2973 RMK CB DST NW=
200910212000 METAR MRLM 212000Z 36005KT CAVOK 29/23 A2971 RMK OVC110 CB DST S=
200910212100 METAR MRLM 212100Z 36007KT 9999 SCT020 BKN110 28/24 A2969=
200910212200 METAR MRLM 212200Z 34003KT 9999 SCT020 SCT110 28/24 A2970=
200910212300 METAR MRLM 212300Z 02003KT 9999 +DZ BKN015 SCT100 27/24 A2972=
200910220000 METAR MRLM 220000Z 00000KT 9999 BKN015 27/25 A2973 REDZ RMK FEW100=
200910220100 METAR MRLM NIL=
200910220200 METAR MRLM NIL=
200910220300 METAR MRLM NIL=
200910220400 METAR MRLM NIL=
200910220500 METAR MRLM NIL=
200910220600 METAR MRLM NIL=
200910220700 METAR MRLM NIL=
200910220800 METAR MRLM NIL=
200910220900 METAR MRLM NIL=
200910221000 METAR MRLM NIL=
200910221100 METAR MRLM NIL=
200910221200 METAR MRLM 221200Z 16003KT CAVOK 24/23 A2976 RMK BKN110 HZ ARND=
200910221300 METAR MRLM 221300Z 00000KT CAVOK 27/24 A2978 RMK BKN110 RN DST W/NW HZ ARND=
200910221400 METAR MRLM 221400Z 00000KT 9999 FEW020 BKN110 28/24 A2982 RMK HZ SE=
200910221500 METAR MRLM 221500Z 31006KT 9999 SCT025 SCT100 28/23 A2982=
200910221600 METAR MRLM 221600Z 30007KT 9999 BKN025 SCT100 29/24 A2981=
200910221700 METAR MRLM 221700Z 33009KT 9999 FEW025 BKN100 29/24 A2979=
200910221800 METAR MRLM 221800Z 330009KT 9999 SCT030 BKN100 29/24 A2977 RMK CB/RN DST S/SW=
200910221900 METAR MRLM 221900Z 30005KT 9999 SCT025 BKN100 28/24 A2976 RMK CB/RN DST S=
200910222000 METAR MRLM 222000Z 00000KT 9999 DZ BKN030 SCT110 30/24 A2972 RMK CB/RN DST S=
200910222100 METAR MRLM 222100Z 34007KT 9999 SCT030 BKN110 30/24 A2970=
200910222200 METAR MRLM 222200Z 35006KT 9999 SCT020 BKN110 28/24 A2972=
200910222300 METAR MRLM 222300Z 00000KT 9999 SCT020 BKN100 28/24 A2973 CB DST SW=
200910230000 METAR MRLM 230000Z 00000KT 9999 SCT020 SCT100 27/24 A2973 HZ ARND=
200910230100 METAR MRLM NIL=
200910230200 METAR MRLM NIL=
200910230300 METAR MRLM NIL=
200910230400 METAR MRLM NIL=
200910230500 METAR MRLM NIL=
200910230600 METAR MRLM NIL=
200910230700 METAR MRLM NIL=
200910230800 METAR MRLM NIL=
200910230900 METAR MRLM NIL=
200910231000 METAR MRLM NIL=
200910231100 METAR MRLM NIL=
200910231200 METAR MRLM NIL=
200910231300 METAR MRLM 231300Z 20005KT CAVOK 26/23 A2978 OVC110 TCU/RN DST NW/N HZ LGT ARWND=
200910231400 METAR MRLM 231400Z 00000KT CAVOK 28/24 A2981 FEW090 BKN110 CB RN DST N HZ LGT ARWND=
200910231500 METAR MRLM 231500Z 00000KT 9999 SCT025 BKN110 30/25 A2981 CB RN DST N NE HZ LGT ARWND=
200910231600 METAR MRLM 231600Z 36008KT 9999 FEW025 BKN130 30/24 A2979 FEW090 CB DST N NE E HZ LGT ARND=
200910231700 METAR MRLM 231700Z 01007KT 9999 FEW025 BKN090 30/25 A2977 CB RN DST N NE HZ SE=
200910231800 METAR MRLM 231800Z 02008KT 9999 FEW028 BKN130 A31800Z 25005KT 9999 SCT030TCU BKN120 25/21 A2993 TEMPO 8000 VCSH=
200910231900 METAR MRLM 231900Z 03010KT 9999 DZ TS FEW010CB SCT020 SCT140 28/25 A2972 FEW120 CB ARND=
200910232000 METAR MRLM 232000Z 01005KT 9999 -DZ FEW020 BKN120 28/24 A2972 RETS CB DST ARND FEW090=
200910232100 METAR MRLM 232100Z 35003KT 8000 RA BKN015 SCT090 28/24 A2970 RMK CB ARND VIS E N UNL=
200910232200 METAR MRLM 232200Z 28005KT 8000 TSRA SCT010CB BKN015 26/24 A2970 RMK VIS N E UNL FEW100=
200910232300 METAR MRLM 232300Z 21004KT 8000 SCT015 SCT100 25/24 A2975=
200910240000 METAR MRLM 240000Z 18004KT 7000 RA SCT010 SCT100 25/23 A2978=
200910240100 METAR MRLM NIL=
200910240200 METAR MRLM NIL=
200910240300 METAR MRLM NIL=
200910240400 METAR MRLM NIL=
200910240500 METAR MRLM NIL=
200910240600 METAR MRLM NIL=
200910240700 METAR MRLM NIL=
200910240800 METAR MRLM NIL=
200910240900 METAR MRLM NIL=
200910241000 METAR MRLM NIL=
200910241100 METAR MRLM NIL=
200910241200 METAR MRLM 241200Z NIL=
200910241300 METAR MRLM 241300Z 22004KT CAVOK 25/23 A2980 RMK SCT120 SCT280 CB RN SE HZ ARND=
200910241400 METAR MRLM 241400Z 00000KT CAVOK 28/23 A2981 RMK SCT1400 BKN280 RMK CB DST S SW CB DST N=
200910241500 METAR MRLM 241500Z 03005KT CAVOK 28/24 A2982 RMK CB DST N RN S SCT140 BKN280=
200910241600 METAR MRLM 241600Z 06004KT 9999 FEW025 BKN280 29/24 A2972 RMK CB DST N RN S=
200910241700 METAR MRLM 241700Z 04004KT 9999 FEW030 BKN280 29/23 A2981 RMK FEW140 CB NE HZ SE=
200910241800 METAR MRLM 241800Z 04004KT 9999 FEW030 BKN280 29/23 A2974 RMK CB DST N NE RN S SW FEW140 HZ SE=
200910241900 METAR MRLM 241900Z 12005KT 9999 SCT020 BKN100 27/24 A2975 RMK RN N=
200910242000 METAR MRLM 242000Z 08003KT 9999 SCT030 BKN280 29/23 A2974 RMK CB DST NW N NE E RN SW=
200910242100 METAR MRLM 242100Z 07005KT 9999 FEW030 BKN250 29/23 A2972 RMK FEW130 RN DST E CB DST N E=
200910242200 METAR MRLM 242200Z 07005KT 9999 FEW030 BKN280 29/23 A2971 RMK FEW140 CB DST SE S SW N NE=
200910242300 METAR MRLM 242300Z 00000KT 9999 FEW018 SCT140 28/24 A2973 RMK SCT280 RN DST NE CB DST ARND=
200910250000 METAR MRLM 250000Z 00000KT 9999 FEW015 SCT280 26/23 A2975 RMK FEW 140 CB DST ARND RN N=
200910250100 METAR MRLM NIL=
200910250200 METAR MRLM NIL=
200910250300 METAR MRLM NIL=
200910250400 METAR MRLM NIL=
200910250500 METAR MRLM NIL=
200910250600 METAR MRLM NIL=
200910250700 METAR MRLM NIL=
200910250800 METAR MRLM NIL=
200910250900 METAR MRLM NIL=
200910251000 METAR MRLM NIL=
200910251100 METAR MRLM NIL=
200910251200 METAR MRLM 251200Z 00000KT 9999 FEW010 SCT110 23/22 A2980 FEW250 CB DST NE E=
200910251300 METAR MRLM 251300Z 22003KT CAVOK 25/23 A2981 RMK SCT120 SCT250 HZ SE=
200910251400 METAR MRLM 251400Z 00000KT CAVOK 29/24 A2984 RMK SCT120 BKN250=
200910251500 METAR MRLM 251500Z 36008KT 9999 FEW030 BKN250 29/24 A2985 RMK FEW120=
200910251600 METAR MRLM 251600Z 36007KT 9999 FEW030 SCT250 29/24 A2984 RMK FEW130=
200910251700 METAR MRLM 251700Z 36008KT 9999 FEW030 SCT130 29/24 A2981 RMK SCT250=
200910251800 METAR MRLM 251800Z 36006KT 9999 FEW030 SCT250 29/24 A2979 RMK FEW140 CB DST S SW=
200910251900 METAR MRLM 251900Z 36006KT 9999 FEW030 30/24 A2977 RMK FEW140 FEW250 CB DST SW=
200910252000 METAR MRLM 252000Z 01006KT 9999 SCT030 29/24 A2975 RMK FEW250 CB DST SW=
200910252100 METAR MRLM 252100Z 01005KT 9999 SCT030 29/24 A2974 RMK FEW250 CB DST S SW=
200910252200 METAR MRLM 252200Z 05003KT 9999 BKN030 29/24 A2974 RMK FEW250 CB DST S SW=
200910252300 METAR MRLM 252300Z 04002KT 9999 SCT020 SCT250 28/24 A2974 RMK FEW130 CB DST S=
200910260000 METAR MRLM 260000Z 00000KT 9999 SCT015 SCT250 26/24 A2975 RMK FEW120 CB DST S=
200910260100 METAR MRLM NIL=
200910260200 METAR MRLM NIL=
200910260300 METAR MRLM NIL=
200910260400 METAR MRLM NIL=
200910260500 METAR MRLM NIL=
200910260600 METAR MRLM NIL=
200910260700 METAR MRLM NIL=
200910260800 METAR MRLM NIL=
200910260900 METAR MRLM NIL=
200910261000 METAR MRLM NIL=
200910261100 METAR MRLM NIL=
200910261200 METAR MRLM 261200Z 22005KT CAVOK 23/22 A2980 RMK BKN110 CB DST N E HZ ARND=
200910261300 METAR MRLM 261300Z 22004KT 9999 FEW015 BKN110 25/23 A2981 RMK CB RN DST NE E HZ SE=
200910261400 METAR MRLM 261400Z 00000KT 9999 FEW025 BKN110 29/23 A2984 RMK CB RN DST NE E=
200910261500 METAR MRLM 261500Z 05008KT 9999 BKN020 27/24 A2986 RMK CB RN DST N NE E VEL MAX VTO 16KT=
200910261600 METAR MRLM 261600Z 11005KT 9999 -DZ BKN015 26/24 A2986 RERA RMK RN DST W NW TCU DST SW FEW100=
200910261700 METAR MRLM 261700Z 15003KT 9999 SCT020 SCT100 28/25 A2983 REDZ RMK RN DST N NE E=
200910261800 METAR MRLM 261800Z 08006KT 9999 SCT025 BKN100 29/24 A2980 RMK CB DST NE RN DST N=
200910261900 METAR MRLM 261900Z 06006KT 9999 SCT020 BKN100 29/25 A2978 RMK TCU DST SW CB NW NE=
200910262000 METAR MRLM 262000Z 05004KT 9999 FEW020 BKN110 30/25 A2975=
200910262100 METAR MRLM 262100Z 07004KT 9999 FEW030 SCT110 30/24 A2975 RMK FEW250 TCU DST SE=
200910262200 METAR MRLM 262200Z 08003KT 9999 FEW030 SCT250 30/24 A2975 RMK FEW120 TCU DST SE/SW=
200910262300 METAR MRLM 262300Z 00000KT 9999 FEW020 SCT130 28/24 A2977 RMK SCT250 CB DST S/SW/W=
200910270000 METAR MRLM NIL=
200910270100 METAR MRLM NIL=
200910270200 METAR MRLM NIL=
200910270300 METAR MRLM NIL=
200910270400 METAR MRLM NIL=
200910270500 METAR MRLM NIL=
200910270600 METAR MRLM NIL=
200910270700 METAR MRLM NIL=
200910270800 METAR MRLM NIL=
200910270900 METAR MRLM NIL=
200910271000 METAR MRLM NIL=
200910271100 METAR MRLM NIL=
200910271200 METAR MRLM NIL=
200910271300 METAR MRLM 271300Z 21005KT CAVOK 25/22 A2981 RETS RMK BKN110 FEW270 CB/RN DST QUANDS N/E CB DST SW=
200910271400 METAR MRLM 271400Z 00000KT CAVOK 26/23 A2984 RMK BKN080 FEW100 RN NE HZ N/SE=
200910271500 METAR MRLM 271500Z 31004KT 9999 5000N RA OVC090 27/24 A2984=
200910271600 METAR MRLM 271600Z 00000KT CAVOK 26/24 A2981 RERA RMK FEW120 BKN260 CB/RN DST NE=
200910271700 METAR MRLM 271700Z 34007KT 9999 FEW020 BKN270 28/25 A2979 RMK FEW130 CB DST QUAND N=
200910271800 METAR MRLM 271800Z 34009KT 9999 FEW020 SCT140 30/25 A2977 RMK SCT280 CB DST QUANDS N/E=
200910271900 METAR MRLM 271900Z 35008KT 9999 FEW025 SCT280 30/25 A2974 RMK FEW110 CB DST ARND=
200910272000 METAR MRLM 272000Z 34008KT 9999 FEW025 SCT130 BKN280 30/25 A2973 RMK CB DST ARND RN DST SW=
200910272100 METAR MRLM 272100Z 36007KT 9999 FEW023 BKN280 29/25 A2972 CB HZ ARND RN DST N FEW120=
200910272200 METAR MRLM 272200Z 36006KT 9999 OVC020 29/25 A2974 CB RN HZ ARND=
200910272300 METAR MRLM 272300Z 30003KT 9999 SCT015 SCT100 27/25 A2976 RERA CB RN HZ ARND FEW270=
200910280000 METAR MRLM 280000Z 22004KT 9999 SCT012 SCT090 27/25 A2977 CB RN HZ ARND FEW2 70=
200910280100 METAR MRLM NIL=
200910280200 METAR MRLM NIL=
200910280300 METAR MRLM NIL=
200910280400 METAR MRLM NIL=
200910280500 METAR MRLM NIL=
200910280600 METAR MRLM NIL=
200910280700 METAR MRLM NIL=
200910280800 METAR MRLM NIL=
200910280900 METAR MRLM NIL=
200910281000 METAR MRLM NIL=
200910281100 METAR MRLM NIL=
200910281200 METAR MRLM 281200Z=
200910281300 METAR MRLM 281300Z 27003KT 9999 +DZ FEW015 BKN100 25/24 A2981 RMK FEW025 CB DST NE=
200910281400 METAR MRLM 281400Z 22004KT 9999 -DZ FEW090 BKN140 25/24 A2981 RMK FEW270 HZ LGT ARND/=
200910281500 METAR MRLM 281500Z 06004KT 9999 DZ FEW012 SCT140 27/24 A2982 SCT270 CB RN NW CB NW E HZ LGT ARND=
200910281600 METAR MRLM 281600Z 28005KT 9999 FEW020 SCT080 28/24 A2982 REDZ SCT270 CB DST N NE HZ ARND=
200910281700 METAR MRLM 281700Z 31006KT 9999 FEW025 SCT130 BKN270 29/24 A2980 CB DST N HZ LGT ARND=
200910281800 METAR MRLM 281800Z 31006KT 9999 FEW032 BKN120 30/24 A2978 CB DST N S TCU RN NW FEW270=
200910281900 METAR MRLM 281900Z 31006KT 9999 FEW030 BKN130 30/24 A2973 FEW280 CB HZ ARND RN DST W=
200910282000 METAR MRLM NIL=
200910282100 METAR MRLM 282100Z 33007KT 9999 FEW025 BKN270 29/24 A2972 RMK FEW140 CB DST S W N RN DST S SW=
200910282200 METAR MRLM 282200Z 33006KT 9999 FEW025 BKN270 29/24 A2973 RMK FEW140 CB DST ARND RN DST S W=
200910282300 METAR MRLM 282300Z 29002KT 9999 SCT020 SCT090 28/25 A2975 RMK CB RN DST S W FEW140 FEW270=
200910290000 METAR MRLM 290000Z 00000KT 9999 FEW012 BKN090 27/24 A2977 RMK FEW270 CB RN DST S W=
200910290100 METAR MRLM NIL=
200910290200 METAR MRLM NIL=
200910290300 METAR MRLM NIL=
200910290400 METAR MRLM NIL=
200910290500 METAR MRLM NIL=
200910290600 METAR MRLM NIL=
200910290700 METAR MRLM NIL=
200910290800 METAR MRLM NIL=
200910290900 METAR MRLM NIL=
200910291000 METAR MRLM NIL=
200910291100 METAR MRLM NIL=
200910291200 METAR MRLM 291200Z 20003KT CAVOK 23/22 A2980 RMK SCT110 BKN260 CB/RN DST N/NE=
200910291300 METAR MRLM 291300Z 00000KT 9999 FEW015 BKN260 25/23 A2983 RMK FEW110 CB RN DST N NE=
200910291400 METAR MRLM 291400Z 36002KT 9999 FEW020 SCT120 28/23 A2984 RMK SCT250 CB RN DST N NE HZ SE=
200910291500 METAR MRLM 291500Z 34007KT 9999 SCT025 BKN110 29/24 A2986 RMK RN DST E HZ SE=
200910291600 METAR MRLM 291600Z 35005KT 9999 SCT020 SCT110 28/24 A2985 RMK FEW250 CB NE HZ SE=
200910291700 METAR MRLM 291700Z 02008KT 9999 SCT020 SCT250 29/25 A2982 RMK FEW120 CB DST S SE=
200910291800 METAR MRLM 291800Z 02007KT 9999 FEW020 SCT250 29/24 A2979 RMK FEW130 CB DST S SW W HZ SE=
200910291900 METAR MRLM 291900Z 04005KT 9999 FEW020 BKN250 29/24 A2977 RMK FEW130 CB DST S SW HZ SE=
200910292000 METAR MRLM 292000Z 08004KT 9999 FEW020 BKN250 29/25 A2974 RMK CB DST S W HZ SE=
200910292100 METAR MRLM 292100Z 07003KT 9999 SCT025 SCT110 29/24 A2973 RMK FEW250 CB DST SW HZ SE=
200910292200 METAR MRLM 292200Z 11002KT 9999 SCT020 BKN110 28/24 A2994 RMK HZ SE=
200910292300 METAR MRLM 292300Z 14003KT 9999 SCT015 BKN100 27/24 A2976 RMK HZ ARND=
200910300000 METAR MRLM 300000Z 13003KT 999 FEW015 BKN100 27/24 A2978 RMK HZ ARND=
200910300100 METAR MRLM NIL=
200910300200 METAR MRLM NIL=
200910300300 METAR MRLM NIL=
200910300400 METAR MRLM NIL=
200910300500 METAR MRLM NIL=
200910300600 METAR MRLM NIL=
200910300700 METAR MRLM NIL=
200910300800 METAR MRLM NIL=
200910300900 METAR MRLM NIL=
200910301000 METAR MRLM NIL=
200910301100 METAR MRLM NIL=
200910301200 METAR MRLM 301200Z 23002KT CAVOK 23/22 A2980 BKN100 CB DST N/NE HZ SE=
200910301300 METAR MRLM 301300Z 22004KT CAVOK 24/22 A2981 RMK BKN100 CB DST N NE HZ SE=
200910301400 METAR MRLM 301400Z 00000KT CAVOK 27/23 A2982 RMK BKN110 CB DST NW N HZ SE=
200910301500 METAR MRLM 301500Z 03003KT 9999 FEW030 BKN110 30/24 A2984 RMK CB DST NW N HZ SE=
200910301600 METAR MRLM 301600Z 01008KT 9999 SCT035 SCT120 30/23 A2983=
200910301700 METAR MRLM 301700Z 35008KT 9999 SCT030 BKN100 29/23 A2982=
200910301800 METAR MRLM 301800Z 34009KT 9999 +DZ SCT025 BKN100 29/24 A2980 RMK CB DST SW HZ ARND=
200910301900 METAR MRLM 301900Z 34008KT 9999 -DZ BKN020 28/24 A2977 RMK FEW100 HZ ARND=
200910302000 METAR MRLM 302000Z 34005KT 9999 -RA BKN015 27/25 A2975 REDZ RMK FEW100=
200910302100 METAR MRLM 302100Z 30003KT 9999 -RA BKN015 SCT090 27/25 A2975=
200910302200 METAR MRLM 302200Z 21004KT 9999 -DZ SCT010 SCT090 26/24 A2975 RERA RMK CBS DST SW=
200910302300 METAR MRLM 302300Z 23003KT 9999 SCT010 BKN100 25/24 A2976 REDZ RMK CB DST SW RN DST E HZ ARND=
200910310000 METAR MRLM 310000Z 20004KT 9999 FEW010 BKN100 25/24 A2977 RMK RN DST SW W HZ ARND=
200910310100 METAR MRLM NIL=
200910310200 METAR MRLM NIL=
200910310300 METAR MRLM NIL=
200910310400 METAR MRLM NIL=
200910310500 METAR MRLM NIL=
200910310600 METAR MRLM NIL=
200910310700 METAR MRLM NIL=
200910310800 METAR MRLM NIL=
200910310900 METAR MRLM NIL=
200910311000 METAR MRLM NIL=
200910311100 METAR MRLM NIL=
200910311200 METAR MRLM NIL=
200910311300 METAR MRLM 311300Z 22002KT CAVOK 25/23 A2984 RMK FEW080 BKN100 CB DST E LGT HZ ARND=
200910311400 METAR MRLM 311400Z 26003KT CAVOK 26/23 A2987 RMK OVC090 LGT HZ ARND=
200910311500 METAR MRLM 311500Z 27005KT CAVOK 28/23 A2988 RMK OVC090 TCU RN DST NE LGT HZ ARND=
200910311600 METAR MRLM 311600Z 28007KT 9999 FEW030 BKN100 30/23 A2987 CB RN DST NE HZ ARND=
200910311700 METAR MRLM 311700Z 31008KT 9999 FEW035 BKN090 29/23 A2985 RMK CBS RN DST NE=
200910311800 METAR MRLM 311800Z 33009KT 9999 FEW025 BKN090 29/24 A2982 RMK CBS DST NW NE E RN DST NE=
200910311900 METAR MRLM 311900Z 33008KT 9999 SCT025 BKN090 30/25 A2979 RMK CB DST N RN NE=
200910312000 METAR MRLM 312000Z 34008KT 9999 SCT025 SCT100 30/25 A2976 RMK RN DST SW=
200910312100 METAR MRLM 312100Z 35007KT 9999 BKN020 SCT120 29/24 A2975 RMK CB/RN DST S/E=
200910312200 METAR MRLM 312200Z 36007KT 9999 OVC020 28/24 A2975 RMK CB/RN DST QUANDS S/W=
200910312300 METAR MRLM 312300Z 36007KT 9999 BKN020 28/24 A2977 RMK FEW130 CB/RN QUANDS S/W=
200911010000 METAR MRLM 010000Z 36008KT 9999 TS FEW010 SCT015CB SCT090 28/24 A2979 RMK TC/RN QUANDS S/W=
200911010100 METAR MRLM NIL=
200911010200 METAR MRLM NIL=
200911010300 METAR MRLM NIL=
200911010400 METAR MRLM NIL=
200911010500 METAR MRLM NIL=
200911010600 METAR MRLM NIL=
200911010700 METAR MRLM NIL=
200911010800 METAR MRLM NIL=
200911010900 METAR MRLM NIL=
200911011000 METAR MRLM NIL=
200911011100 METAR MRLM NIL=
200911011200 METAR MRLM NIL=
200911011300 METAR MRLM 011300Z 24004KT 9999 FEW015 SCT130 26/23 A2984 RMK FEW280 CB DST N/NE HZ SE=
200911011400 METAR MRLM 011400Z 28005KT 9999 FEW020 BKN130 28/23 A2987 RMK FEW270 CB/RN DST N/NE=
200911011500 METAR MRLM 011500Z 27006KT 9999 FEW032 SCT100 29/23 A2986 RMK FEW270 CB/RN DST N/NE HZ SE=
200911011600 METAR MRLM 011600Z 27007KT 9999 FEW035 BKN090 29/23 A2985 RMK FEW270 HZ SE CB/RN QUAND N=
200911011700 METAR MRLM 011700Z 31009KT 9999 SCT030 SCT270 30/24 A2983 RMK FEW130 CB/RN N/NE=
200911011800 METAR MRLM 011800Z 32009KT 9999 SCT035 SCT270 31/24 A2979 RMK FEW130 CB DST NW/N/NE RN DST NE=
200911011900 METAR MRLM 011900Z 35013KT 9999 SCT030 SCT280 30/24 A2976 RMK FEW130 CB DST NW/N/NE/E=
200911012000 METAR MRLM 012000Z 35011KT 9999 FEW025 BKN270 30/25 A2973 RMK CB DST=
200911012100 METAR MRLM 012100Z 33010KT 9999 FEW030 BKN090 30/24 A2972 TCU RN DST S SW CB DST NW N FEW270=
200911012200 METAR MRLM 012200Z 34010KT 9999 FEW025 BKN080 29/24 A2976 FEW280 CB RN DST SE S SW W=
200911012300 METAR MRLM 012300Z 34009KT 9999 SCT020 SCT080 28/24 A2974 FEW280 CB RN DST S W=
200911020000 METAR MRLM 020000Z 34008KT 9999 DZ TS FEW010 SCT015CB SCT090 28/24 A2977 CB RN TS S W=
200911020100 METAR MRLM NIL=
200911020200 METAR MRLM NIL=
200911020300 METAR MRLM NIL=
200911020400 METAR MRLM NIL=
200911020500 METAR MRLM NIL=
200911020600 METAR MRLM NIL=
200911020700 METAR MRLM NIL=
200911020800 METAR MRLM NIL=
200911020900 METAR MRLM NIL=
200911021000 METAR MRLM NIL=
200911021100 METAR MRLM NIL=
200911021200 METAR MRLM NIL=
200911021300 METAR MRLM 021300Z 26004KT 9999 FEW020 BKN110 26/22 A2984 FEW250=
200911021400 METAR MRLM 021400Z 27011KT 9999 FEW020 SCT120 27/23 A2986 SCT250=
200911021500 METAR MRLM 021500Z 29010KT 9999 SCT025 BKN110 28/23 A2986 CB DST NE=
200911021600 METAR MRLM 021600Z 28008KT 9999 SCT025 SCT100 29/23 A2987 RN DST N/NE=
200911021700 METAR MRLM 021700Z 30010KT 9999 BKN025 29/24 A2985 FEW100 RN DST NW N=
200911021800 METAR MRLM 021800Z 31010KT 9999 DZ BKN020 28/24 A2982 FEW100 RN DST SW NW N=
200911021900 METAR MRLM 021900Z 29009KT 9999 BKN020 27/23 A2979 FEW100 RN DST N VEL/MAX VTO 16NUDOS=
200911022000 METAR MRLM 022000Z 32013KT 9999 BKN025 29/24 A2978 FEW100 RN DST S=
200911022100 METAR MRLM 022100Z 30011KT 9999 BKN020 28/24 A2976 RMK FEW RN DST S SW=
200911022200 METAR MRLM 022200Z 31011KT 9999 DZ OVC020 27/23 A2978 RMK RN DST SE W=
200911022300 METAR MRLM 022300Z 29004KT 9999 DZ BKN020 26/23 A2980 RMK FEW110 RN DST W S=
200911030000 METAR MRLM 030000Z 29007KT 9999 -DZ BKN015 25/23 A2981 RMK FEW090 RN N S SW=
200911030100 METAR MRLM NIL=
200911030200 METAR MRLM NIL=
200911030300 METAR MRLM NIL=
200911030400 METAR MRLM NIL=
200911030500 METAR MRLM NIL=
200911030600 METAR MRLM NIL=
200911030700 METAR MRLM NIL=
200911030800 METAR MRLM NIL=
200911030900 METAR MRLM NIL=
200911031000 METAR MRLM NIL=
200911031100 METAR MRLM NIL=
200911031200 METAR MRLM 031200Z NIL=
200911031300 METAR MRLM 031300Z 29002KT 9999 SCT010 BKN090 25/23 A2985 RMK RN DST N=
200911031400 METAR MRLM 031400Z 30004KT 9999 SCT010 SCT090 25/23 A2987 RMK RN DST NW HZ ARND=
200911031500 METAR MRLM 031500Z 28008KT 9999 DZ BKN010 SCT090 24/22 A2988 RMK RN DST NW N HZ ARND=
200911031600 METAR MRLM 031600Z 27008KT 9999 SCT020 BKN100 26/23 A2987 RMK HZ ARND=
200911031700 METAR MRLM 031700Z 28009KT 9999 FEW025 BKN110 27/23 A2986 RMK CB DST NE HZ ARND=
200911031800 METAR MRLM 031800Z 27008KT 9999 FEW025 BKN110 28/23 A2982 RMK HZ LEVE ARND=
200911031900 METAR MRLM 031900Z 28008KT 9999 FEW025 BKN110 28/23 A2978 RMK FEW130=
200911032000 METAR MRLM 032000Z 29009KT 999 DZ SCT020 BKN120 27/23 A2977 RMK RN DST NE RAFAGAS 15KT=
200911032100 METAR MRLM 032100Z 29008KT 9999 SCT020 BKN110 27/23 A2976 RMK CB RN DST N=
200911032200 METAR MRLM 032200Z 28004KT 9999 SCT015 BKN100 27/24 A2977 RMK RN DST NW=
200911032300 METAR MRLM 032300Z 29005KT 9999 FEW015 BKN100 27/23 A2977 RMK FEW120 HZ SW=
200911040000 METAR MRLM 040000Z 28005KT 9999 SCT015 BKN100 26/23 A2979 RMK TCU DST SW HZ SE=
200911040100 METAR MRLM NIL=
200911040200 METAR MRLM NIL=
200911040300 METAR MRLM NIL=
200911040400 METAR MRLM NIL=
200911040500 METAR MRLM NIL=
200911040600 METAR MRLM NIL=
200911040700 METAR MRLM NIL=
200911040800 METAR MRLM NIL=
200911040900 METAR MRLM NIL=
200911041000 METAR MRLM NIL=
200911041100 METAR MRLM NIL=
200911041200 METAR MRLM NIL=
200911041300 METAR MRLM 041300Z 27008KT 9999 FEW015 SCT025 25/22 A2985 CB RN DIST NW N NE E FEW090 FEW270=
200911041400 METAR MRLM 041400Z 27008KT 9999 FEW018 SCT030 26/22 A2988 SCT090 FEW270 RN CB DIST N NE=
200911041500 METAR MRLM 041500Z 27008KT 9999 FEW025 BKN090 27/23 A2989 FEW070 FEW270 CB/R N DST N NE RN SW=
200911041600 METAR MRLM 041600Z 29007KT 9999 FEW015 SCT025 28/23 A2989 RMK SCT090 CB/RN DST N NE RN SW=
200911041700 METAR MRLM NIL=
200911041800 METAR MRLM 041800Z 26006KT 9999 SCT030 SCT090 29/23 A2983 RMK CB/RN DST QUAD N FEW270=
200911041900 METAR MRLM 041900Z 25004KT 9999 FEW030 BKN080 29/23 A2983 FEW250 CB RN DST S W N NE=
200911042000 METAR MRLM NIL=
200911042100 METAR MRLM 042100Z 36004KT 9999 SCT030 SCT090 29/24 A2977 RMK FEW150 CBS RN DST SW N NE=
200911042200 METAR MRLM 042200Z 00000KT 9999 DZ FEW020 SCT030 28/25 A2978 RERA RMK SCT080 CBS RN DST N NE=
200911042300 METAR MRLM 042300Z 00000 TS FEW010 SCT020CB SCT090 27/25 A2979 REDZ TS RN W QUAD FEW150=
200911050000 METAR MRLM 050000Z 25007KT 8000 TSRA SCT015CB SCT025 25/24 A2983=
200911050100 METAR MRLM NIL=
200911050200 METAR MRLM NIL=
200911050300 METAR MRLM NIL=
200911050400 METAR MRLM NIL=
200911050500 METAR MRLM NIL=
200911050600 METAR MRLM NIL=
200911050700 METAR MRLM NIL=
200911050800 METAR MRLM NIL=
200911050900 METAR MRLM NIL=
200911051000 METAR MRLM NIL=
200911051100 METAR MRLM NIL=
200911051200 METAR MRLM NIL=
200911051300 METAR MRLM 051300Z 19005KT 9999 SCT025 SCT110 24/23 A2989 RMK FEW270 CBS RN DST E=
200911051400 METAR MRLM 051400Z 18004KT 9999 FEW030 SCT120 BKN280 27/24 A2990 CBS RN E SE DST=
200911051500 METAR MRLM 051500Z 09004KT 9999 FEW030 SCT140 29/23 A2992 RMK SCT280 CBS RN DST E SE=
200911051600 METAR MRLM 051600Z 08007KT 9999 FEW030 SCT130 29/24 A2991 RMK SCT280 CBS RN DST E=
200911051700 METAR MRLM 051700Z 08007KT 9999 FEW030 BKN120 29/24 A2989 RMK FEW270 CB DST E HZ SE=
200911051800 METAR MRLM 051800Z 06004KT 9999 FEW025 BKN090 29/24 A2986 RMK CBS DST ARND RN DST SW W FEW270=
200911051900 METAR MRLM 051900Z 08004KT 9999 FEW018 BKN090 28/24 A2983 RERA FEW270 CBS DST ARND RN DST S=
200911052000 METAR MRLM 052000Z 14002KT 9999 SCT015 BKN090 28/25 A2982 RMK CB DST ARND RN DST S=
200911052100 METAR MRLM 052100Z 17002KT 9999 DZ SCT012 BKN090 27/25 A2980 RMK CB/RN DST QUANDS S/W=
200911052200 METAR MRLM 052200Z 18003KT 9999 +DZ FEW010 BKN090 26/25 A2982 RMK CB/RN DST QUANDS S/W=
200911052300 METAR MRLM 052300Z 16003KT 9999 DZ FEW007 BKN025 25/24 A2983 RMK FEW140 CB/RN DST ARND=
200911060000 METAR MRLM 060000Z 16002KT 9999 DZ FEW008 BKN025 25/23 A2985 RMK FEW130 CB/RN DST ARND LTNG DST W/NW=
200911060100 METAR MRLM NIL=
200911060200 METAR MRLM NIL=
200911060300 METAR MRLM NIL=
200911060400 METAR MRLM NIL=
200911060500 METAR MRLM NIL=
200911060600 METAR MRLM NIL=
200911060700 METAR MRLM NIL=
200911060800 METAR MRLM NIL=
200911060900 METAR MRLM NIL=
200911061000 METAR MRLM NIL=
200911061100 METAR MRLM NIL=
200911061200 METAR MRLM 061200Z 21002KT CAVOK 23/22 A2986 RMK FEW 100 SCT130 CB DST NE E=
200911061300 METAR MRLM 061300Z 21005KT CAVOK 25/22 A2988 RMK FEW130 FEW250=
200911061400 METAR MRLM 061400Z 19002KT CAVOK 28/23 A2989 RMK SCT250=
200911061500 METAR MRLM 061500Z 09006KT 9999 FEW030 SCT250 29/23 A2990=
200911061600 METAR MRLM 061600Z 05006KT 9999 FEW030 SCT250 30/24 A2990 RMK FEW140=
200911061700 METAR MRLM 061700Z 05005KT 9999 FEW040 SCT250 30/22 A2987=
200911061800 METAR MRLM 061800Z 04005KT 9999 FEW040 BKN260 30/23 A2985=
200911061900 METAR MRLM 061900Z 05005KT 9999 FEW040 30/23 A2982 RMK FEW260=
200911062000 METAR MRLM 062000Z 06005KT 9999 FEW035 SCT260 30/23 A2980 RMK FEW140=
200911062100 METAR MRLM 062100Z 07005KT 9999 FEW035 SCT250 30/23 A2978 CB DST SE NW=
200911062200 METAR MRLM 062200Z 08006KT 9999 FEW030 SCT120 29/23 A2978 SCT250 CB DST SE S=
200911062300 METAR MRLM 062300Z 10008KT 9999 FEW030 BKN110 29/23 A2980 FEW250 CB DST S SW W=
200911070000 METAR MRLM 070000Z 15002KT CAVOK 27/23 A2982 BKN110 CB DST SW=
200911070100 METAR MRLM 070100Z NIL=
200911070200 METAR MRLM NIL=
200911070300 METAR MRLM NIL=
200911070400 METAR MRLM NIL=
200911070500 METAR MRLM NIL=
200911070600 METAR MRLM NIL=
200911070700 METAR MRLM NIL=
200911070800 METAR MRLM NIL=
200911070900 METAR MRLM NIL=
200911071000 METAR MRLM NIL=
200911071100 METAR MRLM NIL=
200911071200 METAR MRLM 071200Z 20004KT CAVOK 23/21 A2984 RMK FEW140 SCT260 CB DST NE HZ SE=
200911071300 METAR MRLM 071300Z 21003KT CAVOK 25/22 A2984 BKN260 CB DST NE HZ SE=
200911071400 METAR MRLM 071400Z 03003KT CAVOK 28/23 A2985 FEW130 BKN250 CB DST NE HZ SE=
200911071500 METAR MRLM 071500Z 05003KT CAVOK 29/23 A2987 FEW130 SCT250=
200911071600 METAR MRLM 071600Z 07007KT 9999 FEW030 SCT260 30/24 A2986 CB DST N=
200911071700 METAR MRLM 071700Z 08007KT 9999 FEW030 30/24 A2984 FEW260=
200911071800 METAR MRLM 071800Z 07008KT 9999 FEW030 30/25 A2981 CB DST SW=
200911071900 METAR MRLM 071900Z 06008KT 9999 FEW030 30/24 A2979 CB DST SW=
200911072000 METAR MRLM 072000Z 07008KT 9999 FEW030 30/25 A2976 CB DST S SW=
200911072100 METAR MRLM 072100Z 08007KT 9999 SCT025 30/24 A2975 RMK CB DST S=
200911072200 METAR MRLM 072200Z 10006KT 9999 SCT025 30/24 A2976 RMK FEW250 CB DST S SW=
200911072300 METAR MRLM 072300Z 11005KT 9999 SCT025 SCT250 28/24 A2977 RMK CB DST S SW=
200911080000 METAR MRLM 080000Z 14003KT 9999 FEW020 BKN250 26/24 A2978 RMK CB TS DST SW W=
200911080100 METAR MRLM NIL=
200911080200 METAR MRLM NIL=
200911080300 METAR MRLM NIL=
200911080400 METAR MRLM NIL=
200911080500 METAR MRLM NIL=
200911080600 METAR MRLM NIL=
200911080700 METAR MRLM NIL=
200911080800 METAR MRLM NIL=
200911080900 METAR MRLM NIL=
200911081000 METAR MRLM NIL=
200911081100 METAR MRLM NIL=
200911081200 METAR MRLM NIL=
200911081300 METAR MRLM 081300Z 22003KT CAVOK 24/22 A2983 RMK FEW140 FEW300 HZ ARND=
200911081400 METAR MRLM 081400Z 22002KT CAVOK 28/24 A2985 RMK BKN140 TCU DST W HZ=
200911081500 METAR MRLM 081500Z 03003KT 9999 FEW025 BKN140 29/24 A2986 RMK CB DST NE HZ ARND=
200911081600 METAR MRLM 081600Z 01006KT 9999 FEW025 BKN140 30/24 A2985 RMK CB DST N NE HZ ARND=
200911081700 METAR MRLM 081700Z 36007KT 9999 FEW028 SCT140 30/24 A2984 RMK FEW280 CB DST NW HZ LEVE ARND=
200911081800 METAR MRLM 081800Z 36008KT 9999 FEW030 SCT090 30/24 A2981 RMK FEW280 CB DST NW SW HZ ARND=
200911081900 METAR MRLM 081900Z 01010KT 9999 FEW025 BKN280 30/25 A2979 RMK FEW140 CB DST NW NE S SW HZ LEVE ARND=
200911082000 METAR MRLM 082000Z 36004KT 9999 FEW025 BKN280 29/24 A2976 RMK CB DST SE SW W NW HZ ARND=
200911082100 METAR MRLM 082100Z 02003KT 9999 FEW025 BKN280 29/24 A2976 RMK CB DST ARND RN DST E FEW150=
200911082200 METAR MRLM 082200Z 00000KT 9999 SCT025 SCT150 29/24 A2976 RMK CB DST ARND RN DST E SCT280=
200911082300 METAR MRLM 082300Z 04002KT 9999 FEW025 SCT150 28/24 A2977 RMK CB DST ARND RN E FEW130 SCT280=
200911090000 METAR MRLM 090000Z 00000KT CAVOK 27/24 A2979 RMK FEW130 SCT150 SCT280 CB DST ARND RN E SE=
200911090100 METAR MRLM NIL=
200911090200 METAR MRLM NIL=
200911090300 METAR MRLM NIL=
200911090400 METAR MRLM NIL=
200911090500 METAR MRLM NIL=
200911090600 METAR MRLM NIL=
200911090700 METAR MRLM NIL=
200911090800 METAR MRLM NIL=
200911090900 METAR MRLM NIL=
200911091000 METAR MRLM NIL=
200911091100 METAR MRLM NIL=
200911091200 METAR MRLM NIL=
200911091300 METAR MRLM 091300Z 22004KT CAVOK 25/23 A2984 RMK SCT080 SCT110 CB RN DST QUAD N E=
200911091400 METAR MRLM 091400Z 22003KT CAVOK 27/24 A2985 RMK BKN090 FEW110 CB RN DST QUAD N E=
200911091500 METAR MRLM 091500Z 01004KT 9999 FEW020 BKN080 28/24 A2986 RMK FEW120 CB RN DST QUAD NE=
200911091600 METAR MRLM 091600Z 28003KT 9999 FEW025 BKN090 29/24 A2985 RMK CB DST NW E RN DST E FEW120=
200911091700 METAR MRLM 091700Z 36008KT 9999 FEW022 SCT090 29/25 A2983 RMK CB RN DST E FEW120 FEW260=
200911091800 METAR MRLM 091800Z 36007KT 9999 FEW025 BKN090 29/24 A2981 RMK CB DST E DZ SE TCU DST NW NE=
200911091900 METAR MRLM 091900Z 36008KT 9999 FEW025 SCT100 309/25 A2977 RMK SCT280 CB DST NW N NE E=
200911092000 METAR MRLM 092000Z 35008KT 9999 SCT025 SCT120 30/24 A2976 RMK SCT280 CB DST ARND=
200911092100 METAR MRLM 092100Z 36006KT 9999 FEW030 SCT280 30/24 A2974 RMK FEW090 CB DST S W QDS=
200911092200 METAR MRLM 092200Z 35005KT 9999 SCT025 SCT280 29/24 A2975 RMK CBS DST S W TCU RN SW=
200911092300 METAR MRLM 092300Z 01003KT 9999 FEW022 SCT140 28/24 A2977 RMK CBS DST ARND=
200911100000 METAR MRLM 100000Z 21002KT 9999 FEW015 BKN130 26/24 A2978 RMK CBS DST ARND FEW280 HZ SE=
200911100100 METAR MRLM NIL=
200911100200 METAR MRLM NIL=
200911100300 METAR MRLM NIL=
200911100400 METAR MRLM NIL=
200911100500 METAR MRLM NIL=
200911100600 METAR MRLM NIL=
200911100700 METAR MRLM NIL=
200911100800 METAR MRLM NIL=
200911100900 METAR MRLM NIL=
200911101000 METAR MRLM NIL=
200911101100 METAR MRLM NIL=
200911101200 METAR MRLM 101200Z 20004KT 4000 +RA FEW005 OVC010 24/23 A2983=
200911101300 METAR MRLM 101300Z 00000KT 6000 +RA FEW005 BKN010 24/23 A2985 RMK FEW090 CB TS DST E=
200911101400 METAR MRLM 101400Z 26002KT 6000 -RA FEW005 BKN010 24/23 A2988 RMK FEW090 TS DST NE=
200911101500 METAR MRLM 101500Z 00000KT 8000 -RA BKN010 24/23 A2989 RMK FEW090 CB TS DST N NE=
200911101600 METAR MRLM 101600Z 24004KT 8000 +DZ BKN010 24/23 A2989 RERA RMK FEW090 RN DST W N=
200911101700 METAR MRLM 101700Z 26003KT 9999 DZ SCT010 BKN090 25/24 A2985 RMK RN DST W NW N=
200911101800 METAR MRLM 101800Z 00000KT 9999 SCT015 BKN090 26/23 A2982 RMK RN DST SE TCU DST NE E=
200911101900 METAR MRLM 101900Z 00000KT 9999 FEW015 BKN100 27/24 A2979 RMK CB DST NE=
200911102000 METAR MRLM 102000Z 00000KT CAVOK 29/24 A2976 RMK SCT110 BKN250 HZ SE=
200911102100 METAR MRLM 102100Z 05003KT CAVOK 28/25 A2976 RMK SCT110 SCT250=
200911102200 METAR MRLM 102200Z 35003KT 9999 FEW020 BKN250 28/24 A2977 RMK FEW120=
200911102300 METAR MRLM 102300Z 00000KT CAVOK 28/25 A2978 RMK FEW120 BKN250 CB/RN DST SW/NE/E=
200911110000 METAR MRLM 110000Z 25003KT CAVOK 26/24 A2978 RMK BKN120 SCT250 CB/TS DST NE/E=
200911110100 METAR MRLM NIL=
200911110200 METAR MRLM NIL=
200911110300 METAR MRLM NIL=
200911110400 METAR MRLM NIL=
200911110500 METAR MRLM NIL=
200911110600 METAR MRLM NIL=
200911110700 METAR MRLM NIL=
200911110800 METAR MRLM NIL=
200911110900 METAR MRLM NIL=
200911111000 METAR MRLM NIL=
200911111100 METAR MRLM NIL=
200911111200 METAR MRLM 111200Z 21003KT 9999 DZ FEW010 BKN090 24/22 A2980 RMK CB RN DST N=
200911111300 METAR MRLM 111300Z 00000KT 9999 FEW010 BKN110 24/22 A2981 RMK CB/RN DST QUAND N=
200911111400 METAR MRLM 111400Z 00000KT 9999 -RA SCT015 BKN100 25/23 A2985 RMK VIS 6KM QUAND N=
200911111500 METAR MRLM 111500Z 29003KT 9999 -DZ SCT015 BKN090 25/23 A2987 RERA RMK DST W QUAND N=
200911111600 METAR MRLM 111600Z 28006KT 3000 +RA OVC010 24/22 A2988=
200911111700 METAR MRLM 111700Z 6000 -RA BKN010 SCT090 24/23 A2984=
200911111800 METAR MRLM 111800Z 25004KT 9999 SCT015 BKN100 26/24 A2980 RERA RMK CB/RN DST NE=
200911111900 METAR MRLM 111900Z 26004KT 9999 FEW020 BKN100 28/24 A2976 RMK CB DST N=
200911112000 METAR MRLM 112000Z 29005KT 9999 SCT025 BKN110 29/24 A2973 RMK TCU DST SW=
200911112100 METAR MRLM 112100Z 27003KT 9999 SCT020 SCT100 28/24 A2972 RMK TCU DST SW RN DST NW NE=
200911112200 METAR MRLM 112200Z 00000KT 9999 SCT020 BKN100 28/24 A2985 RMK DZ DST NE E=
200911112300 METAR MRLM 112300Z 00000KT 9999 SCT010 BKN100 27/25 A2975 RMK CB RN DST N HZ SE=
200911120000 METAR MRLM 120000Z 00000KT 9999 FEW010 SCT110 26/25 A2976 RMK CB RN DST N NE HZ SE=
200911120100 METAR MRLM 120100Z NIL=
200911120200 METAR MRLM NIL=
200911120300 METAR MRLM NIL=
200911120400 METAR MRLM NIL=
200911120500 METAR MRLM NIL=
200911120600 METAR MRLM NIL=
200911120700 METAR MRLM NIL=
200911120800 METAR MRLM NIL=
200911120900 METAR MRLM NIL=
200911121000 METAR MRLM NIL=
200911121100 METAR MRLM NIL=
200911121200 METAR MRLM NIL=
200911121300 METAR MRLM 121300Z 27004KT CAVOK 26/23 A2981 RMK BKN090 FEW280 CB RN DST NW HZ LGT ARND=
200911121400 METAR MRLM 121400Z 28007KT CAVOK 26/23 A2983 RMK BKN080 FEW280 TCU DST N HZ LGT ARND=
200911121500 METAR MRLM 121500Z 29009KT 9999 FEW028 BKN090 29/23 A2983 RMK FEW280 CB DST QUAD N HZ LGT ARND=
200911121600 METAR MRLM 121600Z 29009KT 9999 FEW028 SCT100 28/23 A2981 RMK SCT280 CB DST QUAD H HZ LGT ARND=
200911121700 METAR MRLM 121700Z 31011KT 9999 FEW035 SCT120 31/24 A2978 RMK SCT280 CB DST QUAD S NE=
200911121800 METAR MRLM 121800Z 31010KT 9999 FEW035 SCT110 31/24 A2975 RMK CB DST QUAD N E FEW280 HZ SE=
200911121900 METAR MRLM 121900Z 31015KT 9999 FEW030 SCT110 29723 A2973 RMK FEW280 CB DST N/E HZ SE=
200911122000 METAR MRLM 122000Z 31008KT 9999 FEW030 SCT120 BKN280 29/23 A2971 RMK CB DST NE RN DST SW NW N=
200911122100 METAR MRLM 122100Z 26010KT 9999 SCT030 SCT120 29/23 A2972 RMK FEW280 CB DST ARND RN S W N=
200911122200 METAR MRLM 122200Z 29010KT 9999 BKN020 27/23 A2974 RMK FEW120 CB RN DST ARND=
200911122300 METAR MRLM 122300Z 27005KT 9999 OVC015 27/23 A2976 RMK RN ARND CB DST SW N=
200911130000 METAR MRLM 130000Z 26004KT 9999 SCT015 SCT100 26/23 A2976=
200911130100 METAR MRLM NIL=
200911130200 METAR MRLM NIL=
200911130300 METAR MRLM NIL=
200911130400 METAR MRLM NIL=
200911130500 METAR MRLM NIL=
200911130600 METAR MRLM NIL=
200911130700 METAR MRLM NIL=
200911130800 METAR MRLM NIL=
200911130900 METAR MRLM NIL=
200911131000 METAR MRLM NIL=
200911131100 METAR MRLM NIL=
200911131200 METAR MRLM 131200Z NIL=
200911131300 METAR MRLM 131300Z 26009KT 5000 RA FEW006 BKN015 22/21 A2985 RMK FEW090=
200911131400 METAR MRLM 131400Z 25008KT 6000 RA BKN010 22/21 A2987 RMK FEW090=
200911131500 METAR MRLM NIL=
200911131600 METAR MRLM 131600Z 26008KT 9999 DZ OVC020 23/22 A2988 RMK VIS 8000E DUE RN=
200911131700 METAR MRLM 131700Z 24008KT 9999 RA BKN020 SCT090 22/21 A2988=
200911131800 METAR MRLM 131800Z 25004KT 9999 +DZ BKN020 SCT090 23/21 A2985=
200911131900 METAR MRLM 131900Z 25007KT 9000 +DZ OVC020 23/21 A2981=
200911132000 METAR MRLM 132000Z 25006KT 9999 RA BKN020 23/21 A2979 RMK FEW090 CB N E=
200911132100 METAR MRLM 132100Z 28008KT 9999 DZ FEW010 BKN025 24/22 A2979 RMK CB N/E=
200911132200 METAR MRLM 132200Z 26007KT 9999 BKN025 SCT090 23/21 A2979 RMK REDZ RN HZ=
200911132300 METAR MRLM 132300Z 24006KT 9999 DZ OVC025 23/21 A2980 RMK RN ARND=
200911140000 METAR MRLM 140000Z 26005KT 9999 +DZ OVC025 23/21 A2981 RMK CB DST N=
200911140100 METAR MRLM NIL=
200911140200 METAR MRLM NIL=
200911140300 METAR MRLM NIL=
200911140400 METAR MRLM NIL=
200911140500 METAR MRLM NIL=
200911140600 METAR MRLM NIL=
200911140700 METAR MRLM NIL=
200911140800 METAR MRLM NIL=
200911140900 METAR MRLM NIL=
200911141000 METAR MRLM NIL=
200911141100 METAR MRLM NIL=
200911141200 METAR MRLM 141200Z 23006KT 4000 RA FEW005 OVC010 24/23 A2982=
200911141300 METAR MRLM 141300Z 26004KT 2000 +RA OVC010 24/23 A2985=
200911141400 METAR MRLM 141400Z 26004KT 8000 +DZ BKN010 24/23 A2987 RMK FEW080=
200911141500 METAR MRLM 141500Z 26009KT 4000 RA BKN010 24/23 A2988 REDZ RKM FEW080=
200911141600 METAR MRLM 141600Z 27006KT 8000 +DZ BKN010 SCT090 25/23 A2987 RERA=
200911141700 METAR MRLM 141700Z 27007KT 5000 RA FEW005 BKN015 24/23 A2986 RMK REDZ FEW090=
200911141800 METAR MRLM 1418OO 28008KT 5000 RA BKN015 24/23 A2985 RMK FEW080=
200911141900 METAR MRLM 141900Z 26007KT 5000 RA FEW005 BKN010 24/23 A2984=
200911142000 METAR MRLM 142000Z 27008KT 4000 RA OVC010 24/23 A2981=
200911142100 METAR MRLM 142100Z 24004KT 8000 +DZ BKN015 SCT090 24/23 A2981 RERA=
200911142200 METAR MRLM 142200Z 21005KT 9999 DZ BKN015 SCT090 23/22 A2981 RMK RN DST N=
200911142300 METAR MRLM 142300Z 22004KT 9999 SCT020 BKN090 24/22 A2981 REDZ RMK RN DST W NW=
200911150000 METAR MRLM NIL=
200911150100 METAR MRLM NIL=
200911150200 METAR MRLM NIL=
200911150300 METAR MRLM NIL=
200911150400 METAR MRLM NIL=
200911150500 METAR MRLM NIL=
200911150600 METAR MRLM NIL=
200911150700 METAR MRLM NIL=
200911150800 METAR MRLM NIL=
200911150900 METAR MRLM NIL=
200911151000 METAR MRLM NIL=
200911151100 METAR MRLM NIL=
200911151200 METAR MRLM 151200Z 22003KT 9999 BKN010 SCT090 23/22 A2983 RMK RN DST N NE=
200911151300 METAR MRLM 151300Z 25003KT 6000 RA BKN010 23/22 A2985 RMK FEW090=
200911151400 METAR MRLM 151400Z 19003KT 9999 DZ BKN015 SCT090 24/23 A2987 RERA RMK VIS 8KMS NE E RN=
200911151500 METAR MRLM 151500Z 22003KT 9999 BKN015 SCT100 25/24 A2988 REDZ RMK CB TS DST N NE=
200911151600 METAR MRLM 151600Z 32006KT 9999 DZ BKN015 26/24 A2990 RMK FEW100 CBTS DST N=
200911151700 METAR MRLM 151700Z 27003KT 9999 +DZ BKN010 25/24 A2987 RMK FEW090 CB TS DST N=
200911151800 METAR MRLM 151800Z 28005KT 9999 -DZ OVC010 25/23 A2985 RMK CB TS DST N NE=
200911151900 METAR MRLM 151900Z 26006KT 8000 +DZ FEW005 BKN015 25/23 A2982 RMK FEW090 VIS S SW UNL CB TS DST N NE=
200911152000 METAR MRLM 152000Z 26005KT 8000 +DZ FEW005 BKN010 24/23 A2981 RMK CB TS DST N NE=
200911152100 METAR MRLM 152100Z 25003KT 8000 +DZ BKN010 24/23 A2979 RMK FEW080 RN DST QUAND N=
200911152200 METAR MRLM 152200Z 26003KT 9999 -DZ SCT006 SCT010 24/23 A2980 RMK FEW080 RN DST NE HZ ARND=
200911152300 METAR MRLM 152300Z 23003KT 9999 DZ BKN010 24/23 A2981 RMK FEW080 RN DST E=
200911160000 METAR MRLM 160000Z 22003KT 9999 DZ BKN006 24/23 A2982 RMK FEW080 RN DST NE/E=
200911160100 METAR MRLM NIL=
200911160200 METAR MRLM NIL=
200911160300 METAR MRLM NIL=
200911160400 METAR MRLM NIL=
200911160500 METAR MRLM NIL=
200911160600 METAR MRLM NIL=
200911160700 METAR MRLM NIL=
200911160800 METAR MRLM NIL=
200911160900 METAR MRLM NIL=
200911161000 METAR MRLM NIL=
200911161100 METAR MRLM NIL=
200911161200 METAR MRLM 161200Z 23003KT 9999 -DZ BKN006 24/2 A2983 RMK FEW080 RN DST NE/N=
200911161300 METAR MRLM 161300Z 20003KT 9999 BKN010 SCT090 25/24 A2985 RMK RN DST W/SW=
200911161400 METAR MRLM 161400Z 22004KT 9999 BKN010 SCT100 26/24 A2986 RMK DST SW/W/NW=
200911161500 METAR MRLM 161500Z 28005KT 9999 SCT015 SCT100 27/24 A2987 RMK FEW250 RN DST W/NW=
200911161600 METAR MRLM 161600Z 28004KT 9999 DZ BKN020 28/24 A2987 RMK FEW100 RN DST QUAND N=
200911161700 METAR MRLM 161700Z 29004KT 9999 SCT020 SCT110 28/25 A2984 REDZ RMK RN DST W/N=
200911161800 METAR MRLM 161800Z 32005KT 9999 SCT030 BKN110 30/24 A2981 RMK RN DST N/NE HZ LGT ARND=
200911161900 METAR MRLM 161900Z 35005KT 9999 BKN020 SCT100 28/25 A2980 RMK TCU DST S RN DST N/NE HZ ARND=
200911162000 METAR MRLM 162000Z 01007KT 9999 BKN020 27/25 A2978 RMK FEW100 RN DST N HZ ARND=
200911162100 METAR MRLM 162100Z 00000KT 9999 BKN020 SCT100 28/24 A2976 RMK RN DST N=
200911162200 METAR MRLM 162200Z 01002KT 9999 BKN020 28/24 A2977 RMK FEW090 RN DST N NE=
200911162300 METAR MRLM 162300Z 00000KT 8000 +DZ BKN010 26/24 A2978 RERA RMK FEW080 RN DST QUAD N E SE=
200911170000 METAR MRLM 170000Z 21004KT 9999 -DZ BKN010 25/24 A2980 RMK FEW080 RN DST N NW E=
200911170100 METAR MRLM NIL=
200911170200 METAR MRLM NIL=
200911170300 METAR MRLM NIL=
200911170400 METAR MRLM NIL=
200911170500 METAR MRLM NIL=
200911170600 METAR MRLM NIL=
200911170700 METAR MRLM NIL=
200911170800 METAR MRLM NIL=
200911170900 METAR MRLM NIL=
200911171000 METAR MRLM NIL=
200911171100 METAR MRLM NIL=
200911171200 METAR MRLM 171200Z 24004KT 9999 BKN007 SCT080 224/23 A2983 RMK RN DST E SE=
200911171300 METAR MRLM 171300Z 28004KT 6000 +RA OVC010 25/23 A2986=
200911171400 METAR MRLM 171400Z 24003KT 6000 +RA BKN007 SCT015 25/23 A2988=
200911171500 METAR MRLM 171500Z 28003KT 9999 DZ SCT007 SCT015 25/24 A2989 RMK RN DST S N NE E=
200911171600 METAR MRLM 171600Z 24008KT 9999 DZ SCT006 BKN010 24/23 A2990 RMK RN DST NW W SE=
200911171700 METAR MRLM 171700Z 25006KT 9999 SCT006 BKN010 24/23 A2989 REDZ RMK RN DST QUAD N E SE=
200911171800 METAR MRLM 171800Z 25009KT 9999 -DZ BKN010 23/22 A2987 RMK FEW080 RN NE E=
200911171900 METAR MRLM 171900Z 23009KT 5000 +RA OVC010 23/22 A2984=
200911172000 METAR MRLM 172000Z 24005KT 8000 RA BKN010 23/22 A2983 RMK FEW080=
200911172100 METAR MRLM 172100Z 21003KT 9999 -DZ BKN015 SCT080 24/22 A2981 RMK RN DST W NE N=
200911172200 METAR MRLM 172200Z 26003KT 9999 DZ BKN015 SCT090 24/22 A2980 RMK RN DST N E=
200911172300 METAR MRLM 172300Z 00000KT 9999 BKN010 24/23 A2983 REDZ RMK FEW080 RN DST N HZ ARND=
200911180000 METAR MRLM 180000Z 28004KT 9999 OVC010 24/22 A2984 RMK RN N E HZ ARND=
200911180100 METAR MRLM NIL=
200911180155 METAR MRLM=
200911180200 METAR MRLM 180200Z NIL=
200911180300 METAR MRLM NIL=
200911180400 METAR MRLM NIL=
200911180500 METAR MRLM NIL=
200911180600 METAR MRLM NIL=
200911180700 METAR MRLM NIL=
200911180800 METAR MRLM NIL=
200911180900 METAR MRLM NIL=
200911181000 METAR MRLM NIL=
200911181100 METAR MRLM NIL=
200911181200 METAR MRLM 181200Z 21006KT 9999 BKN007 22/21 A2989 RMK FEW080 RN DST W/NW/N HZ ARND=
200911181300 METAR MRLM 181300Z 24007KT 9999 SCT007 SCT010 22/21 A2991 RMK FEW080 RN DST W NW HZ ARND=
200911181400 METAR MRLM 181400Z 25005KT 9999 BKN010 SCT080 23/21 A2993 RMK HZ AROUND=
200911181500 METAR MRLM 181500Z 23006KT 9999 BKN015 24/21 A2993 RMK FEW080=
200911181600 METAR MRLM 181600Z 23006KT 9999 BKN020 SCT090 29/22 A2991 RMK CB DST N=
200911181700 METAR MRLM 181700Z 21004KT 9999 SCT030 SCT100 28/23 A2989 RMK CB RN DST N=
200911181800 METAR MRLM 181800Z 34018KT 9999 4000N DZ VCSH BKN015 25/23 A2988 RMK FEW090=
200911181900 METAR MRLM 181900Z 30006KT 6000 RA OVC010 24/22 A2987=
200911182000 METAR MRLM 182000Z 27005KT 6000 +DZ FEW007 BKL010 24/22 A2980 RERA=
200911182200 METAR MRLM 182200Z 27006KT 5000 RA FEW007 BKN010 24/23 A2984=
200911182300 METAR MRLM 182300Z 24005KT DZ FEW006 BKN015 23/22 A2985 RERA=
200911190000 METAR MRLM 190000Z 24006KT 9999 -DZ BKN007 23/22 A2985 RMK RN SE FEW080=
200911190100 METAR MRLM 190100Z NIL=
200911190200 METAR MRLM NIL=
200911190300 METAR MRLM NIL=
200911190400 METAR MRLM NIL=
200911190500 METAR MRLM NIL=
200911190600 METAR MRLM NIL=
200911190700 METAR MRLM NIL=
200911190800 METAR MRLM NIL=
200911190900 METAR MRLM NIL=
200911191000 METAR MRLM NIL=
200911191100 METAR MRLM NIL=
200911191200 METAR MRLM NIL=
200911191300 METAR MRLM NIL=
200911191400 METAR MRLM 191400Z 20006KT 9999 BKN020 24/23 A2988 RMK FEW090 RN DST E HZ SE=
200911191500 METAR MRLM 191500Z 18004KT 9999 BKN020 25/23 A2989 RMK FEW090 RN DST=
200911191600 METAR MRLM 191600Z 21004KT 9999 FEW010 BKN020 25/23 A2988 RMK RN DST S/NE HZ SE=
200911191700 METAR MRLM 191700Z 25003KT 9999 DZ VVSH BKN020 26/23 A2987 RMK FEW080 VIS NW/N 6KM=
200911191800 METAR MRLM 191800Z 24003KT 9999 BKN025 SCT100 26/23 A2984 RMK REDZ CB DST NW/NE=
200911191900 METAR MRLM 191900Z 20004KT 9999 SCT020 BKN100 27/24 A2982 RMK HZ SE=
200911192000 METAR MRLM 192000Z 06017KT 9999 SCT035 30/21 A2972=
200911192100 METAR MRLM 192100Z 25004KT 9999 SCT035 30/23 A2978 RMK FEW120 HZ SE=
200911192200 METAR MRLM 192200Z 06014KT 9999 SCT035 28/20 A2971=
200911192300 METAR MRLM NIL=
200911200000 METAR MRLM 200000Z 21002KT 9999 SCT015 BKN110 25/23 A2980 RMK RN DST E SE S=
200911200100 METAR MRLM NIL=
200911200200 METAR MRLM NIL=
200911200300 METAR MRLM NIL=
200911200400 METAR MRLM NIL=
200911200500 METAR MRLM NIL=
200911200600 METAR MRLM NIL=
200911200700 METAR MRLM NIL=
200911200800 METAR MRLM NIL=
200911200900 METAR MRLM NIL=
200911201000 METAR MRLM NIL=
200911201100 METAR MRLM NIL=
200911201200 METAR MRLM 201200Z 20005KT 9999 -DZ BKN010 SCT080 22/21 A2983 RMK RN N NE=
200911201300 METAR MRLM 201300Z 00000KT 5000 RA FEW006 OVC010 23/2 A2986=
200911201400 METAR MRLM 201400Z 22004KT 8000 +DZ FEW006 BKN010 23/22 A2987 RERA RMK RN DST N NE E=
200911201500 METAR MRLM 201500Z 20005KT 9999 DZ BKN010 24/22 A2986 RMK RN DST NE E SE=
200911201600 METAR MRLM 201600Z 20006KT 9999 SCT020 SCT090 25/23 A2984 REDZ RMK RN DST E SE=
200911201700 METAR MRLM 201700Z 23005KT 9999 BKN020 26/23 A2983 RMK FEW090 RN DST S SW=
200911201800 METAR MRLM 201800Z 22004KT 9999 BKN020 27/24 A2980 RMK RN DST E FEW090=
200911201900 METAR MRLM NIL=
200911202000 METAR MRLM NIL=
200911202100 METAR MRLM NIL=
200911202200 METAR MRLM NIL=
200911202300 METAR MRLM NIL=
200911210000 METAR MRLM NIL=
200911210001 METAR MRLM 210001Z 23003KT 9999 SCT010 BKN100 24/23 A2978 RMK CB/RN QUAND N=
200911210100 METAR MRLM NIL=
200911210200 METAR MRLM NIL=
200911210300 METAR MRLM NIL=
200911210400 METAR MRLM NIL=
200911210500 METAR MRLM NIL=
200911210600 METAR MRLM NIL=
200911210700 METAR MRLM NIL=
200911210800 METAR MRLM NIL=
200911210900 METAR MRLM NIL=
200911211000 METAR MRLM NIL=
200911211100 METAR MRLM NIL=
200911211200 METAR MRLM 211200Z 22006KT 9999 -DZ BKN007 23/22 A2981 RMK FEW015 RN DST N/E=
200911211300 METAR MRLM 211300Z 23004KT 9999 -DZ BKN010 24/23 A2983 RMK FEW020 RN DST SW/N/NE/SE=
200911211400 METAR MRLM 211400Z 21005KT 9999 BKN010 24/23 A2984 RMK FEW080 RN DST N E SE=
200911211500 METAR MRLM 211500Z 21006KT 9999 BKN015 25/23 A2985 RMK RN DST E SE FEW080=
200911211600 METAR MRLM 211600Z 22004KT 9999 BKN020 27/23 A2985 RMK FEW090=
200911211700 METAR MRLM 211700Z 27005KT 9999 BKN030 SCT090 29/23 A2982 RMK HZ DST SE=
200911211800 METAR MRLM 211800Z 26004KT 9999 SCT030 BKN100 29/23 A2981 RMK HZ DST SE=
200911211900 METAR MRLM NIL=
200911212000 METAR MRLM 212000Z 27004KT 9999 SCT030 BKN100 29/24 A2977 RMK RN DST=
200911212100 METAR MRLM 212100Z 27004KT 9999 FEW035 BKN110 30/23 A2974 RMK HZ DST SE=
200911212200 METAR MRLM 212200Z 28002KT 9999 BKN025 SCT100 29/24 A2975 RMK RN DST NE E HZ SE=
200911212300 METAR MRLM 212300Z 25002KT 9999 BKN020 28/24 A2976 RMK FEW100 RN DST NE E SE=
200911220000 METAR MRLM 220000Z 00000KT 9999 BKN015 27/25 A2976 RMK FEW090 RN DST NE E SE=
200911220100 METAR MRLM NIL=
200911220200 METAR MRLM NIL=
200911220300 METAR MRLM NIL=
200911220400 METAR MRLM NIL=
200911220500 METAR MRLM NIL=
200911220600 METAR MRLM NIL=
200911220700 METAR MRLM NIL=
200911220800 METAR MRLM NIL=
200911220900 METAR MRLM NIL=
200911221000 METAR MRLM NIL=
200911221100 METAR MRLM NIL=
200911221200 METAR MRLM 221200Z 26002KT 9999 BKN007 24/23 A2982 RMK FEW020 CB TS DST NE E=
200911221300 METAR MRLM 221300Z 24003KT 9999 BKN010 24/23 A2983 RMK FEW020 CB TS DST N NE E=
200911221400 METAR MRLM 221400Z 23003KT 9999 -DZ BKN010 25/24 A2986 RMK FEW020 CB TS DST N NE E=
200911221500 METAR MRLM 221500Z 00000KT 6000 -TSRA FEW007CB OVC010 25/24 A2986=
200911221600 METAR MRLM 221600Z 00000KT 8000 3000N -RA VCSH BKN010 26/25 A2985 RETS RMK FEW020=
200911221700 METAR MRLM 221700Z 09002KT 4000 +RA OVC015 26/24 A2983=
200911221800 METAR MRLM 221800Z 27005KT 3000 +RA OVC010 25/24 A2979=
200911221900 METAR MRLM 221900Z 25003KT 9999 -DZ BKN010 SCT090 26/24 A2977 RERA RMK HZY=
200911222000 METAR MRLM 222000Z 29004KT 8000 +DZ BKN010 26/24 A2976 FEW080 CB TS=
200911222100 METAR MRLM 222100Z 27004KT 8000 +DZ SCT008 OVC010 25/24 A2977 RMK CB RN DST N NE=
200911222200 METAR MRLM 222200Z 27003KT 6000 RA FEW008 OVC010 25/24 A2979 REDZ=
200911222300 METAR MRLM 222300Z 27004KT 3000 +RA BKN010 25/24 A2980 RMK FEW120=
200911230000 METAR MRLM 230000Z 24003KT 3000 +RA OVC010 24/23 A2980=
200911230100 METAR MRLM NIL=
200911230200 METAR MRLM NIL=
200911230300 METAR MRLM NIL=
200911230400 METAR MRLM NIL=
200911230500 METAR MRLM NIL=
200911230600 METAR MRLM NIL=
200911230700 METAR MRLM NIL=
200911230800 METAR MRLM NIL=
200911230900 METAR MRLM NIL=
200911231000 METAR MRLM NIL=
200911231100 METAR MRLM NIL=
200911231200 METAR MRLM 231200Z NIL=
200911231300 METAR MRLM 231300Z 22006KT 9999 SCT015 SCT100 25/23 A2982 RMK TCU DST SW N NE=
200911231400 METAR MRLM 231400Z 27003KT 9999 FEW020 SCT120 28/24 A2985 RMK CB DST N NE=
200911231500 METAR MRLM 231500Z 31008KT 9999 FEW030 SCT110 29/24 A2985 RMK CB RN DST N NE HZ SE=
200911231600 METAR MRLM 231600Z 33010KT 9999 RA BKN020 28/24 A2987 RMK FEW100 VIS 6000 N NE=
200911231700 METAR MRLM 231700Z 34006KT 8000 RA BKN015 26/24 A2985 RMK FEW090 VIS 5000 NW E SE=
200911231800 METAR MRLM 231800Z 23006KT 9999 BKN020 26/24 A2982 RERA RMK FEW090 RN DST E SE=
200911231900 METAR MRLM 231900Z 28003KT 9999 SCT020 BKN100 28/24 A2979 RMK RN DST E=
200911232000 METAR MRLM 232000Z 32007KT 9999 BKN020 SCT100 29/25 A2977 RMK RN DST=
200911232100 METAR MRLM 232100Z 31008KT 9999 SCT020 SCT090 28/24 A2975 RMK HZ ARND=
200911232200 METAR MRLM 232200Z 28006KT 9999 SCT015 SCT090 27/24 A2977 RMK HZ ARND=
200911232300 METAR MRLM 232300Z 30004KT 9999 FEW015 BKN100 27/24 A2989 RN DST NE HZ ARND=
200911240000 METAR MRLM 240000Z 31005KT 9999 SCT010 BKN100 26/24 A2978 RMK DST RN DST NE HZ ARND=
200911240100 METAR MRLM 240100Z NIL=
200911240200 METAR MRLM 240200Z NIL=
200911240300 METAR MRLM NIL=
200911240400 METAR MRLM NIL=
200911240500 METAR MRLM NIL=
200911240600 METAR MRLM NIL=
200911240700 METAR MRLM NIL=
200911240800 METAR MRLM NIL=
200911240900 METAR MRLM NIL=
200911241000 METAR MRLM NIL=
200911241100 METAR MRLM NIL=
200911241200 METAR MRLM 241200Z 00000KT CAVOK 24/23 A2980 RMK BKN110 FEW130 HZ ARND=
200911241300 METAR MRLM 241300Z 29004KT CAVOK 25/24 A2982 RMK FEW100 BKN120 HZ ARND=
200911241400 METAR MRLM 241400Z 26005KT 9999 SCT015 BKN100 26/23 A2983 RMK HZ AROUND=
200911241500 METAR MRLM 241500Z 29005KT 9999 FEW025 SCT120 29/24 A2983 RMK SCT250 HZ AROUND=
200911241600 METAR MRLM 241600Z 32006KT 9999 FEW025 BKN250 29/24 A2982 RMK FEW120 HZ AROUND=
200911241700 METAR MRLM 241700Z 36010KT 9999 SCT020 SCT120 29/25 A2979 RMK FEW250 HZ AROUND=
200911241800 METAR MRLM 241800Z 34012KT 9999 FEW025 BKN250 30/25 A2976 RMK FEW130 HZ AROUND=
200911241900 METAR MRLM 241900Z 35012KT 9999 FEW025 SCT120 29/25 A2974 RMK SCT259 TCU DST SW W HZ AROUND=
200911242000 METAR MRLM 242000Z 34010KT 9999 BKN015 SCT110 28/25 A2972 RMK CB DST SW W HZ AROUND=
200911242100 METAR MRLM 242100Z 36006KT 9999 BKN015 28/25 A2973 RMK FEW100 HZ ARND=
200911242200 METAR MRLM NIL=
200911242300 METAR MRLM 242300Z 00000KT 9999 SCT015 BKN110 28/24 A2975 RMK CB DST S HZ ARND=
200911250000 METAR MRLM 250000Z 00000KT 9999 -DZ FEW010 BKN100 27/25 A2977 RMK HZ ARND=
200911250100 METAR MRLM NIL=
200911250200 METAR MRLM 250200Z NIL=
200911250300 METAR MRLM NIL=
200911250400 METAR MRLM NIL=
200911250500 METAR MRLM NIL=
200911250600 METAR MRLM NIL=
200911250700 METAR MRLM NIL=
200911250800 METAR MRLM NIL=
200911250900 METAR MRLM NIL=
200911251000 METAR MRLM NIL=
200911251100 METAR MRLM NIL=
200911251200 METAR MRLM 251200Z 00000KT CAV0K 23/22 A2977 RMK SCT120 SCT260 HZ SE=
200911251300 METAR MRLM 251300Z 00000KT CAVOK 24/23 A2980 BKN130 FEW260 HZ SE=
200911251400 METAR MRLM 251400Z 30002KT CAVOK 27/23 A2982 BKN120 FEW260 HZ DST SE=
200911251500 METAR MRLM 251500Z CAVOK 29/23 A2981 RMK BKN110 FEW250 CB DST SW NW NE HZ SE=
200911251600 METAR MRLM 251600Z 29006KT 9999 FEW030 BKN250 30/25 A2980 RMK FEW130 CB DST QUAD N HZ SE=
200911251700 METAR MRLM 251700Z 34011KT 9999 FEW025 BKN250 30/25 A2979 RMK FEW130 CB DST N QD HZ SE=
200911251800 METAR MRLM 251800Z 35011KT 9999 FEW025 SCT120 30/25 A2977 RMK SCT250 TCU DST SW CB DST N HZ SE=
200911251900 METAR MRLM 251900Z 34011KT 9999 SCT030 SCT120 30/24 A2973 RMK FEW250 CB DST S SW N HZ SE=
200911252000 METAR MRLM NIL=
200911252100 METAR MRLM 252100Z 35007KT 9999 BKN020 28/25 2972 RMK FEW100 CB RN DST S HZ ARND=
200911252200 METAR MRLM 252200Z 04003KT 9999 BKN020 28/24 A2971 RMK FEW100 FEW250 HZ ARND=
200911252300 METAR MRLM 252300Z 00000KT 9999 BKN015 SCT100 27/24 A2975 RMK HZ ARND=
200911260000 METAR MRLM 260000Z 21003KT 9999 BKN010 26/24 A2975 RMK FEW100 RN DST E HZ ARND=
200911260100 METAR MRLM NIL=
200911260200 METAR MRLM NIL=
200911260300 METAR MRLM NIL=
200911260400 METAR MRLM NIL=
200911260500 METAR MRLM NIL=
200911260600 METAR MRLM NIL=
200911260700 METAR MRLM NIL=
200911260800 METAR MRLM NIL=
200911260900 METAR MRLM NIL=
200911261000 METAR MRLM NIL=
200911261100 METAR MRLM NIL=
200911261200 METAR MRLM 261200Z NIL=
200911261300 METAR MRLM 261300Z 00000KT 9999 BKN010 SCT100 25/23 A2982 RMK RN DST E/SE=
200911261400 METAR MRLM 261400Z 20002KT 9999 SCT015 BKN100 26/24 A2984 RMK RN DST E/SE HZ ARND=
200911261500 METAR MRLM 261500Z 18002KT 9999 SCT020 BKN100 27/24 A2984 RMK HZ ARND=
200911261600 METAR MRLM 261600Z 06004KT 9999 FEW025 BKN100 29/24 A2984 RMK HZ ARND=
200911261700 METAR MRLM 261700Z 04003KT 9999 FEW030 BKN250 29/24 2981 RMK FEW120 HZ ARND=
200911261800 METAR MRLM 261800Z 03006KT 9999 FEW030 SCT130 30/24 A2977 RMK SCT250 HZ ARND=
200911261900 METAR MRLM 261900Z 02006KT 9999 FEW030 SCT130 30/24 A2974=
200911262000 METAR MRLM 262000Z 02005KT 9999 FEW030 SCT140 30/24 A2972=
200911262100 METAR MRLM 262100Z 01005KT 9999 FEW030 30/24 A2971 RMK FEW140=
200911262200 METAR MRLM 262200Z 28005KT 9999 FEW030TCU SCT120 31/24 A2969=
200911262300 METAR MRLM 262300Z 36004 9999 FEW020 SCT130 28/24 A2973 RMK SCT260 CB DST SW HZ ARND=
200911270000 METAR MRLM 270000Z 35003KT 9999 SCT020 SCT260 28/24 A2975 RMK FEW130 CB DST S/SW HZ ARND=
200911270100 METAR MRLM NIL=
200911270200 METAR MRLM NIL=
200911270300 METAR MRLM NIL=
200911270400 METAR MRLM NIL=
200911270500 METAR MRLM NIL=
200911270600 METAR MRLM NIL=
200911270700 METAR MRLM NIL=
200911270800 METAR MRLM NIL=
200911270900 METAR MRLM NIL=
200911271000 METAR MRLM NIL=
200911271100 METAR MRLM NIL=
200911271200 METAR MRLM 271200Z 35008KT 5000 RA OVC010 25/24 A2985=
200911271300 METAR MRLM 271300Z 21005KT 6000 RA OVC010 24/23 A2987=
200911271400 METAR MRLM 271400Z 00000KT 6000 RA BKN010 24/23 A2989 RMK FEW080=
200911271500 METAR MRLM 271500Z 00000KT 8000 +DZ BKN010 24/23 A2991 RMK FEW080=
200911271600 METAR MRLM 271600Z 24003KT 9999 -DZ BKN015 26/24 A2989 RMK FEW090 RN DST W SE=
200911271700 METAR MRLM 271700Z 21005KT 9999 BKN015 27/24 A2986=
200911271800 METAR MRLM 271800Z 30004KT 9999 BKN015 SCT100 27/24 A2984 RMK RN DST QUAD S/E HZ ARND=
200911271900 METAR MRLM 271900Z 34003KT 9999 BKN020 SCT100 28/23 A2981 RMK CB DST SW W RN DST NW HZ ARND=
200911272000 METAR MRLM 272000Z 20002KT 9999 BKN020 28/24 A2980 FEW100 RN DST W/NW/N HZ ARND=
200911272100 METAR MRLM 272100Z 26003KT 9999 SCT020 BKN100 27/24 A2978 RMK RN DST N HZ ARND=
200911272200 METAR MRLM 272200Z 23002KT 9999 SCT015 SCT100 27/25 A2979 RMK CB N HZ ARND=
200911272300 METAR MRLM 272300Z 23003KT 9999 SCT010 SCT090 27/25 A2980 RMK RN DST S CB N HZ ARND=
200911280000 METAR MRLM 280000Z 24003KT 9999 BKN010 SCT090 2625 A2981 RMK RN DST S HZ ARND=
200911280100 METAR MRLM NIL=
200911280200 METAR MRLM NIL=
200911280300 METAR MRLM NIL=
200911280400 METAR MRLM NIL=
200911280500 METAR MRLM NIL=
200911280600 METAR MRLM NIL=
200911280700 METAR MRLM NIL=
200911280800 METAR MRLM NIL=
200911280900 METAR MRLM NIL=
200911281000 METAR MRLM NIL=
200911281100 METAR MRLM NIL=
200911281200 METAR MRLM 281200Z NIL=
200911281300 METAR MRLM 281300Z 24005KT 9999 BKN025 24/22 A2987 REDZ RMK RN DST ARND=
200911281400 METAR MRLM 281400Z 24004KT 9999 SCT025 SCT090 24/22 A2987 RMK RN DST ARND=
200911281500 METAR MRLM 281500Z 22004KT 9999 BKN025 26/23 A2986 RMK FEW090 RN DST ARND=
200911281600 METAR MRLM 281600Z 18006KT 9999 DZ FEW015 BKN090 25/23 A2989 RERA RKM RN ARMD=
200911281700 METAR MRLM 281700Z 18006KT 9999 FEW015 BKN090 26/23 A2987 REDZ RMK RN HZ DST ARND=
200911281800 METAR MRLM 281800Z 20007KT 9999 RA SCT015 BKN090 25/22 A2985=
200911281900 METAR MRLM 281900Z 17007KT 9000 +DZ SCT015 BKN090 24/22 A2983 RMK VIS QNL NE E=
200911282000 METAR MRLM 282000Z 21007 9999 SCT015 SCT090 25/23 A2980 RMK DZ DST W N=
200911282100 METAR MRLM 282100Z 24004KT 9999 +DZ SCT0015 SCT090 26/23 A2980 RMK RN DST S/W=
200911282200 METAR MRLM 282200Z 22005KT 9999 FEW015 BKN090 25/22 A2980 RMK REDZ SCT280 RN DST S/W=
200911282300 METAR MRLM 282300Z 24003KT 9999 SCT013 BKN090 25/23 A2980 RMK RN DST W FEW250=
200911290000 METAR MRLM 290000Z 23003KT 9999 FEW010 BKN090 24/23 A2983 RMK DST S/W/SW FEW280=
200911290100 METAR MRLM NIL=
200911290200 METAR MRLM NIL=
200911290300 METAR MRLM NIL=
200911290400 METAR MRLM NIL=
200911290500 METAR MRLM NIL=
200911290600 METAR MRLM NIL=
200911290700 METAR MRLM NIL=
200911290800 METAR MRLM NIL=
200911290900 METAR MRLM NIL=
200911291000 METAR MRLM NIL=
200911291100 METAR MRLM NIL=
200911291200 METAR MRLM 291200Z NIL=
200911291300 METAR MRLM 291300Z 21004KT CAVOK 24/22 A2988 RMK RN DST N NE E SCT110 SCT280 HZ LEVE ARND=
200911291400 METAR MRLM 291400Z 00000KT 9999 FEW020 BKN090 27/21 A2991 RMK RN DST NE FEW280 HZ ARND=
200911291500 METAR MRLM 291500Z 34011KT 9999 DZ FEW018 BKN090 26/22 A2993 RMK RN DST NE=
200911291600 METAR MRLM 291600Z 23004KT 9999 SCT030 BKN090 27/21 A2991 RMK REDZ DZ W/NE HZ ARND=
200911291700 METAR MRLM 291700Z 23006KT 9999 FEW025 BKN090 27/23 A2989 DZ SW/S HZ ARND=
200911291800 METAR MRLM 291800Z 26003KT CAVOK 30/21 A2989 RMK FEW070 BKN090 FEW280 HZ ARND=
200911291900 METAR MRLM 291900Z 01004KT 9999 FEW040 30/21 A2983 RMK FEW100 FEW280 HZ LGT SE=
200911292000 METAR MRLM 292000Z 03006KT 9999 FEW040 SCT120 30/22 A2982 RMK FEW280 HZ LGT SE=
200911292100 METAR MRLM 292100Z 06011KT 9999 FEW025 BKN090 29/24 A2981 RMK HZ SE=
200911292200 METAR MRLM 292200Z 08006KT 9999 FEW023 BKN090 28/23 A2982 RMK HZ SE=
200911292300 METAR MRLM 292300Z 00000KT CAVOK 28/23 A2980 RMK BKN090 LGT HZ ARND=
200911300000 METAR MRLM 300000Z 00000KT CAVOK 26/24 A2983 RMK BKN090 LGT HZ ARND=
200911300100 METAR MRLM NIL=
200911300200 METAR MRLM NIL=
200911300300 METAR MRLM NIL=
200911300400 METAR MRLM NIL=
200911300500 METAR MRLM NIL=
200911300600 METAR MRLM NIL=
200911300700 METAR MRLM NIL=
200911300800 METAR MRLM NIL=
200911300900 METAR MRLM NIL=
200911301000 METAR MRLM NIL=
200911301100 METAR MRLM NIL=
200911301200 METAR MRLM 301200Z 23004KT 9999 FEW010 21/20 A2985 RMK FEW130 SCT260 HZ SE=
200911301300 METAR MRLM 301300Z 24004KT CAVOK 27/22 A2988 RMK FEW130 FEW250 HZ SE=
200911301400 METAR MRLM 301400Z 24004KT CAVOK 27/22 A2988 RMK FEW130 FEW250 HZ SE=
200911301500 METAR MRLM 301500Z 25003KT CAVOK 29/23 A2988 RMK BKN120 HZ SE=
200911301600 METAR MRLM 301600Z 34006KT 9999 FEW030 BKN120 30/23 A2988 RMK FEW250 HZ SE=
200911301700 METAR MRLM 301700Z 36008KT 9999 SCT030 BKN120 29/23 A2986 RMK RN DST E HZY=
200911301800 METAR MRLM 301800Z 04016KT 9999 -DZ BKN015 26/23 A2986 RMK FEW100 RN DST SW HZ ARND=
200911301900 METAR MRLM 301900Z 02007KT 8000 +DZ SCT015 BKN090 26/23 A2983 RMK HZ ARND=
200911302000 METAR MRLM 302000Z 25003KT 5000 RA OVC010 24/22 A2982 REDZ=
200911302100 METAR MRLM NIL=
200911302200 METAR MRLM 302200Z 00000KT 9999 BKN010 24/23 A2980 FEW090 RMK RN DST E HZ ARND=
200911302300 METAR MRLM 302300Z 12005KT 9999 DZ VCSH OVC010 25/23 A2981 RMK VIS NE 6KM HZ ARND=
200912010000 METAR MRLM 010000Z 22005KT 8000 OVC010 24/23 A2980 RMK HZ ARND=
200912010100 METAR MRLM NIL=
200912010200 METAR MRLM NIL=
200912010300 METAR MRLM NIL=
200912010400 METAR MRLM NIL=
200912010500 METAR MRLM NIL=
200912010600 METAR MRLM NIL=
200912010700 METAR MRLM NIL=
200912010800 METAR MRLM NIL=
200912010900 METAR MRLM NIL=
200912011000 METAR MRLM NIL=
200912011100 METAR MRLM NIL=
200912011200 METAR MRLM 011200Z 00000KT 6000 RA OVC010 24/22 A2984=
200912011300 METAR MRLM 011300Z 00000KT 5000 RA OVC010 23/22 A2987=
200912011400 METAR MRLM 011400Z 23005KT 9999 DZ BKN010 24/23 A2987 RERA RMK FEW090=
200912011500 METAR MRLM 011500Z 20006KT 9999 SCT020 BKN100 29/86 REDZ RMK HZ DST SE=
200912011600 METAR MRLM 011600Z 19005KT 9999 FEW020 BKN110 29/24 A2985 RMK HZ DST SE=
200912011700 METAR MRLM 011700Z 08004KT CAVOK 29/24 A2982 RMK SCT110 HZ ARND=
200912011800 METAR MRLM 011800Z 01007KT CAVOK 30/25 A2979 RMK BKN120 HZ ARND=
200912011900 METAR MRLM 011900Z 01007KT 9999 FEW025 SCT120 29/24 A2976=
200912012000 METAR MRLM 012000Z 02007KT 9999 FEW025 BKN110 30/24 A2973=
200912012100 METAR MRLM 012100Z 36009KT 9999 BKN020 SCT010 28/24 A2972 RMK RN DST N NE=
200912012200 METAR MRLM 012200Z 36009KT 9999 BKN020 SCT100 28723 A2972 RMK RN DST NW=
200912012300 METAR MRLM 012300Z 27004KT 9999 SCT020 BKN100 28/24 A2973 RMK RN DST NW HZ ARND=
200912020000 METAR MRLM 020000Z 00000KT 9999 SCT015 SCT100 26/24 A2974 RMK HZ ARND=
200912020100 METAR MRLM NIL=
200912020200 METAR MRLM NIL=
200912020300 METAR MRLM NIL=
200912020400 METAR MRLM NIL=
200912020500 METAR MRLM NIL=
200912020600 METAR MRLM NIL=
200912020700 METAR MRLM NIL=
200912020800 METAR MRLM NIL=
200912020900 METAR MRLM NIL=
200912021000 METAR MRLM NIL=
200912021100 METAR MRLM NIL=
200912021200 METAR MRLM 021200Z NIL=
200912021300 METAR MRLM 021300Z 22003KT 9999 FEW015 BKN090 24/23 A2981 RMK RN DST QUAD N HZ LEVE ARND=
200912021400 METAR MRLM 021400Z 01004KT 9999 BKN015 SCT090 27/24 A2983 RMK RN DST QUAD N E HZ ARND=
200912021500 METAR MRLM 021500Z 07009KT 9999 BKN015 25/24 A2984 RMK FEW090 RN HZ DST ARND=
200912021600 METAR MRLM 021600Z 10006KT 9999 FEW020 BKN100 28/24 A2983 RMK FEW080 HZ LEVE ARND=
200912021700 METAR MRLM 021700Z 24005KT 9999 FEW035 BKN100 31/24 A2979 RMK LEVE HA ARND=
200912021800 METAR MRLM 021800Z 05004KT 9999 FEW030 BKN090 31/24 A2975 RMK CB DST NE E HZ ARND=
200912021900 METAR MRLM 021900Z 01010KT 9999 FEW028 BKN110 30/24 A2973 RMK CB DST N NE E FEW090=
200912022000 METAR MRLM 022000Z 36007KT 9999 FEW030 BKN090 30/24 A2972 RMK FEW280 CB DST N NW NE E HZ LEVE SE=
200912022100 METAR MRLM 022100Z 36009KT 9999 FEW025 SCT040 30/24 A2972 RMK FEW280 TCU RN DST SW/W CB DST N=
200912022200 METAR MRLM 022200Z 35008KT 9999 FEW020 SCT010 28/24 A2973 RMK FEW270 CB DST W=
200912022300 METAR MRLM 022300Z 33004KT 9999 BKN020 28/25 A2975 RMK RN DST SW W FEW270=
200912030000 METAR MRLM 030000Z 33005KT 9999 BKN015 28/25 A2977 RMK FEW270 TCU/RN DST SE W=
200912030100 METAR MRLM NIL=
200912030200 METAR MRLM NIL=
200912030300 METAR MRLM NIL=
200912030400 METAR MRLM NIL=
200912030500 METAR MRLM NIL=
200912030600 METAR MRLM NIL=
200912030700 METAR MRLM NIL=
200912030800 METAR MRLM NIL=
200912030900 METAR MRLM NIL=
200912031000 METAR MRLM NIL=
200912031100 METAR MRLM NIL=
200912031200 METAR MRLM 031200Z NIL=
200912031300 METAR MRLM 031300Z 06006KT 6000 RA BKN015 SCT090 25/23 A2986=
200912031400 METAR MRLM 031400Z 21004KT 5000 +DZ SCT005 SCT020 25/24 A2987 RMK FEW090 VIS N UNL=
200912031500 METAR MRLM 031500Z 19007KT 9999 FEW010 BKN110 27/25 A2987 REDZ RMK RN DST S LGT HZ ARND=
200912031600 METAR MRLM NIL=
200912031700 METAR MRLM 031700Z 16004KT CAVOK 31/23 A2983 RMK FEW130 CB DST NE LGT HZ ARND=
200912031800 METAR MRLM 031800Z 05005KT 9999 FEW030 31/25 A2981 RMK FEW040 CB DST NW HZ SE=
200912031900 METAR MRLM 031900Z 05005KT 9999 FEW030 31/25 A2977 RMK HZ DST SE=
200912032000 METAR MRLM 032000Z 03010KT 9999 FEW028 30/25 A2976 RMK HZ DST SE=
200912032100 METAR MRLM 032100Z 02009KT 9999 FEW028 30/25 A2978 RMK FEW140 HZ ARND=
200912032200 METAR MRLM 032200Z 03007KT 9999 FEW020 BKN090 30/25 A2976 RMK HZ SW=
200912032300 METAR MRLM 032300Z 03008KT 9999 FEW020 BKN090 29/25 A2977 RMK HZ LEVE ARND=
200912040000 METAR MRLM 040000Z 02006KT 9999 FEW020 BKN080 29/25 A2979 RMK HZ SW=
200912040100 METAR MRLM NIL=
200912040200 METAR MRLM NIL=
200912040300 METAR MRLM NIL=
200912040400 METAR MRLM NIL=
200912040500 METAR MRLM NIL=
200912040600 METAR MRLM NIL=
200912040700 METAR MRLM NIL=
200912040800 METAR MRLM NIL=
200912040900 METAR MRLM NIL=
200912041000 METAR MRLM NIL=
200912041100 METAR MRLM NIL=
200912041200 METAR MRLM 041200Z 18004KT 9999 BKN010 25/24 A2984 RMK FEW090 HZ ARND=
200912041300 METAR MRLM 041300Z 20004KT 9999 BKN010 25/24 A2988 RMK FEW090 RN DST NE HZ ARND=
200912041400 METAR MRLM 041400Z 18005KT 9999 DZ BKN008 26/24 A2987 RMK RN DST E=
200912041500 METAR MRLM 041500Z 21003KT 9999 SCT015 SCT100 28/25 A2987 RMK REDZ RN DST N/NE HZ SE=
200912041600 METAR MRLM 041600Z 01003KT 9999 BKN015 SCT100 28/25 A2987 RMK RN DST S/SE HZ ARND=
200912041700 METAR MRLM 041700Z 06014KT 9999 FEW035 33/21 A2978=
200912041800 METAR MRLM 041800Z 03006KT 9999 BKN020 29/28 A2983 RMK REDZ HZ ARND=
200912041900 METAR MRLM 041900Z 07004KT 9999 SCT025 SCT110 30/25 A2980 RMK RN DST NE HZ ARND=
200912042000 METAR MRLM 042000Z 07007KT 9999 SCT025 30/25 A2978 FEW110 HZ ARND=
200912042100 METAR MRLM 042100Z 08006KT 9999 FEW030 30/25 A2978 HZ ARND=
200912042200 METAR MRLM 042200Z 07004KT 9999 SCT030 29/25 A2978 HZ ARND=
200912042300 METAR MRLM 042300Z 07002KT 9999 BKN020 29/25 A2979 RMK HZ ARND=
200912050000 METAR MRLM 050000Z 07005KT 9999 BKN015 28/25 A2980 RMK FEW090 HZY=
200912050100 METAR MRLM NIL=
200912050200 METAR MRLM NIL=
200912050300 METAR MRLM NIL=
200912050400 METAR MRLM NIL=
200912050500 METAR MRLM NIL=
200912050600 METAR MRLM NIL=
200912050700 METAR MRLM NIL=
200912050800 METAR MRLM NIL=
200912050900 METAR MRLM NIL=
200912051000 METAR MRLM NIL=
200912051100 METAR MRLM NIL=
200912051200 METAR MRLM 051200Z 23005KT 9999 FEW015 24/22 A2987 RMK HZ ARND=
200912051300 METAR MRLM NIL=
200912051400 METAR MRLM 051400Z 24003KT 9999 NSC 28/24 A2989 RMK TRACE CU HZ SE=
200912051500 METAR MRLM 051500Z 26005KT 9999 NSC 30/24 A2989 RMK TRACE CU AC HZ SE=
200912051600 METAR MRLM 051600Z 33007KT 9999 FEW030 30/24 A2988 RMK FEW110 HZ SE=
200912051700 METAR MRLM 051700Z 36009KT 9999 SCT030 SCT110 30/24 A2986 HZY=
200912051800 METAR MRLM 051800Z 34012KT 9999 SCT020 BKN100 28/25 A2985 HZY=
200912051900 METAR MRLM 051900Z 34016KT 9999 SCT020 BKN100 27/23 A2984 RN DST N HZ ARND=
200912052000 METAR MRLM 052000Z 34010KT 9999 -DZ BKN020 SCT090 27/22 A2983 RMK RN DST W NE HZ ARND=
200912052100 METAR MRLM 052100Z 00000KT 9999 SCT020 BKN100 27/23 A2983 RMK HZ ARND=
200912052200 METAR MRLM 052200Z 19002KT 9999 SCT015 SCT100 27/24 A2983 RMK HZ ARND=
200912052300 METAR MRLM 052300Z 00000KT 9999 BKN015 27/24 A2985 RMK FEW090 HZ ARND=
200912060000 METAR MRLM 060000Z 00000KT 9999 BKN015 26/24 A2986 RMK FEW090 HZ ARND=
200912060100 METAR MRLM NIL=
200912060200 METAR MRLM NIL=
200912060300 METAR MRLM NIL=
200912060400 METAR MRLM NIL=
200912060500 METAR MRLM NIL=
200912060600 METAR MRLM NIL=
200912060700 METAR MRLM NIL=
200912060800 METAR MRLM NIL=
200912060900 METAR MRLM NIL=
200912061000 METAR MRLM NIL=
200912061100 METAR MRLM NIL=
200912061200 METAR MRLM 061200Z NIL=
200912061300 METAR MRLM 061300Z 27005KT 9999 DZ SCT030 SCT090 24/22 A2991 RMK VIS 8KM W DUE RN/HZ=
200912061400 METAR MRLM 061400Z 24004KT 9999 BKN020 SCT090 25/23 A2993 REDZ RMK RN/HZ ARND=
200912061500 METAR MRLM 061500Z 29006KT 9999 +DZ BKN013 SCT090 26/23 A2994 RMK VIS 8KM W DUE RN=
200912061600 METAR MRLM 061600Z 17003KT 9999 FEW012 BKN090 27/25 A2994 REDZ RMK RN NE/E/SE/SW/W HZ LGT ARND=
200912061700 METAR MRLM 061700Z 17003KT 9999 FEW020 BKN090 27/23 A2992 RMK FEW110 RN QUANDS N=
200912061800 METAR MRLM 061800Z 36010KT 9999 FEW015 BKN090 27/24 A2990 RMK FEW110 RN DST QUANDS S/W=
200912061900 METAR MRLM 061900Z 21004KT CAVOK 27/23 A2987 RMK SCT080 SCT100 DZ S/N=
200912062000 METAR MRLM 062000Z 23003KT CAVOK 29/24 A2984 RMK BKN080 SCT100 LGT HZ ARND=
200912062100 METAR MRLM 062100Z 10003KT CAVOK 30/24 A2983 RMK SCT090 SCT110 HZ LEVE Y=
200912062200 METAR MRLM 062200Z 07003KT 9999 FEW020 BKN090 29/25 A2983 RMK HZ LEVE ARND=
200912062300 METAR MRLM 062300Z 04004KT 9999 FEW018 BKN090 28/25 A2985 RMK HZ LEVE ARND=
200912070000 METAR MRLM 070000Z 04004KT CAVOK 28/24 A2985 RMK FEW090 BKN070 HZ LEVE ARND=
200912070100 METAR MRLM NIL=
200912070200 METAR MRLM NIL=
200912070300 METAR MRLM NIL=
200912070400 METAR MRLM NIL=
200912070500 METAR MRLM NIL=
200912070600 METAR MRLM NIL=
200912070700 METAR MRLM NIL=
200912070800 METAR MRLM NIL=
200912070900 METAR MRLM NIL=
200912071000 METAR MRLM NIL=
200912071100 METAR MRLM NIL=
200912071200 METAR MRLM NIL=
200912071300 METAR MRLM 071300Z 20005KT 9999 FEW015 BKN090 25/21 A2994 RMK RN DST QUAD S W=
200912071400 METAR MRLM 071400Z 21005KT 9999 FEW015 SCT110 27/22 A2995 RMK DZ DST NE E SE HZ SE=
200912071500 METAR MRLM 071500Z 30004KT 9999 DZ FEW015 BKN090 27/22 A2996 RN N E=
200912071600 METAR MRLM 071600Z 13009KT 9999 FEW025 BKN090 26/22 A2996 REDZ DZ S W=
200912071700 METAR MRLM 071700Z 20006KT 9999 FEW025 BKN090 27/22 A2993 RMK RN DST NE=
200912071800 METAR MRLM 071800Z 22005KT 9999 FEW045 BKN110 31/20 A2994 RMK RN DST N NE E HZ SE=
200912071900 METAR MRLM 071900Z 01007KT 9999 FEW035 BKN090 27/21 A2989 RMK DZ DST S SW NW=
200912072000 METAR MRLM 072000Z 03003KT CAVOK 29/22 A2987 RMK BKN090 FEW110 HZY=
200912072100 METAR MRLM 072100Z 00000KT CAVOK 30/22 A2986 RMK FEW090 FEW110 HZ ARND=
200912072200 METAR MRLM 072200Z 02002KT CAVOK 30/22 A2986 RMK FEW130 HZ SE=
200912072300 METAR MRLM 072300Z 02004KT CAVOK 29/22 A2987 RMK FEW130 LGT HZ SE=
200912080000 METAR MRLM 080000Z 19003KT 9999 NSC 27/22 A2988 RMK TRACE AC LGT HZ N/E=
200912080100 METAR MRLM NIL=
200912080200 METAR MRLM NIL=
200912080300 METAR MRLM NIL=
200912080400 METAR MRLM NIL=
200912080500 METAR MRLM NIL=
200912080600 METAR MRLM NIL=
200912080700 METAR MRLM NIL=
200912080800 METAR MRLM NIL=
200912080900 METAR MRLM NIL=
200912081000 METAR MRLM NIL=
200912081100 METAR MRLM NIL=
200912081200 METAR MRLM 081200Z 21003KT 9999 FEW010 BKN110 22/20 A2990 RMK RN DST=
200912081300 METAR MRLM 081300Z 22005KT CAVOK 23/21 A2992 RMK BKN110 HZ ARND=
200912081400 METAR MRLM 081400Z 00000KT CAVOK 26/22 A2993 RMK BKN100 RN DST N NE HZ ARND=
200912081500 METAR MRLM 081500Z 32009KT 9999 BKN025 SCT100 26/21 A2995 RMK RN DST N NE SE HZ ARND=
200912081600 METAR MRLM 081600Z 28006KT 9999 -DZ SCT015 BKN090 25/22 A2994 RMK RN DST N NE NZ ARND=
200912081700 METAR MRLM 081700Z 30006KT 9999 DZ SCT020 SCT090 26/24 A2992 RMK VIS 6000 N/E DUE RN HZ ARND=
200912081800 METAR MRLM 081800Z 22003KT 9999 DZ SCT020 SCT100 26/22 A2990 RMK RN DST N NE HZ ARND=
200912081900 METAR MRLM 081900Z 18003KT 8000 +DZ BKN010 SCT100 25/23 A2987=
200912082000 METAR MRLM 082000Z 17003KT 8000 +DZ BKN010 25/23 A2984 RMK FEW090=
200912082100 METAR MRLM 082100Z 00000KT 6000 RA OVC010 25/23 A2984 RMK REDZ=
200912082200 METAR MRLM 082200Z 20005KT 9999 -DZ BKN010 24/23 A2984 RMK RERA FEW090=
200912082300 METAR MRLM 082300Z 21004KT 9999 BKN010 24/23 A2984 RMK FEW090 RN DST N HZ SE=
200912090000 METAR MRLM 090000Z 23004KT 9999 BKN010 SCT090 23/22 A2984 RMK RN DST E HZ SE=
200912090100 METAR MRLM NIL=
200912090200 METAR MRLM NIL=
200912090300 METAR MRLM NIL=
200912090400 METAR MRLM NIL=
200912090500 METAR MRLM NIL=
200912090600 METAR MRLM NIL=
200912090700 METAR MRLM NIL=
200912090800 METAR MRLM NIL=
200912090900 METAR MRLM NIL=
200912091000 METAR MRLM NIL=
200912091100 METAR MRLM NIL=
200912091200 METAR MRLM 091200Z 21004KT CAVOK 23/21 A2984 RMK BKN110 HZ SE=
200912091300 METAR MRLM 091300Z 00000KT CAVOK 25/23 A2987 RMK BKN110 HZ SE=
200912091400 METAR MRLM 091400Z 360003KT CAVOK 28/22 A2989 MRK FEW120 HZ ARND=
200912091500 METAR MRLM 091500Z 36006KT CAVOK 28/23 A29990 RMK FEW120 FEW260 HZ ARND=
200912091600 METAR MRLM 091600Z 31006KT 9999 NSC 29/22 A2989 RMK TRACE AC C HZ ARND=
200912091700 METAR MRLM 091700Z 36005KT 9999 FEW030 30/24 A2987 HZ ARND=
200912091800 METAR MRLM 091800Z 34007KT 9999 FEW030 29/24 A2984 RMK HZ ARND=
200912091900 METAR MRLM 091900Z 35009KT 9999 FEW030 29/24 A2981 RMK HZ LEVE ARND=
200912092000 METAR MRLM 092000Z 35007KT 9999 FEW030 29/24 A2978 FEW120 HZ LGT ARND=
200912092100 METAR MRLM 092100Z 35007KT 9999 SCT025 29/24 A2977 HZ LG ARND=
200912092200 METAR MRLM 092200Z 34006KT 9999 BKN025 29/24 A2977 LGT HZ ARND=
200912092300 METAR MRLM 092300Z 36006KT 9999 BKN020 28/24 A2978 RMK FEW250 HZ ARND=
200912100000 METAR MRLM NIL=
200912100100 METAR MRLM 100100Z NIL=
200912100200 METAR MRLM NIL=
200912100300 METAR MRLM NIL=
200912100400 METAR MRLM NIL=
200912100500 METAR MRLM NIL=
200912100600 METAR MRLM NIL=
200912100700 METAR MRLM NIL=
200912100800 METAR MRLM NIL=
200912100900 METAR MRLM NIL=
200912101000 METAR MRLM NIL=
200912101100 METAR MRLM NIL=
200912101200 METAR MRLM NIL=
200912101300 METAR MRLM 101300Z 23004KT CAVOK 24/22 A2987 RMK BKN080 FEW280 TCU RN N NE DST=
200912101400 METAR MRLM 101400Z 28003KT CAVOK 28/23 A2988 RMK BKN090 FEW280 TCU RN DST NW N NE E HZY=
200912101500 METAR MRLM 101500Z 27007KT CAVOK 29/22 A2987 RMK SCT090 SCT140 FEW280 HZ SE TCU RN N QD=
200912101600 METAR MRLM 101600Z 30005KT CAVOK 29/23 A2987 RMK SCT090 SCT140 PCPN DST QD=
200912101700 METAR MRLM 101700Z 01012KT 9999 BKN025 SCT090 28/22 A2985 RMK RN DST N QD=
200912101800 METAR MRLM 101800Z 34010KT 9999 +DZ FEW015 BKN090 27/24 A2984 RMK RN DST N QUAD FEW120=
200912101900 METAR MRLM 101900Z 34007KT 9999 DZ FEW020 SCT090 28/24 A2981 RMK SCT120 TCU DST NE=
200912102000 METAR MRLM 102000Z 102000Z28006KT 9999 FEW020 SCT080 30/24 A2978 REDZ HZ ARND=
200912102100 METAR MRLM 102100Z 30005KT 9999 FEW035 BKN090 30/23 A2978 RMK CB DST QUAND S=
200912102200 METAR MRLM 102200Z 34008KT 9999 FEW020 SCT080 28/24 A2980 RMK SCT110 CB/RN DST SE/S=
200912102300 METAR MRLM 102300Z 01009KT 9999 FEW018 BKN080 27/24 A2982 RMK FEW120 RN DST SW/W/NE=
200912110000 METAR MRLM 110000Z 05007KT 9999 BKN015 27/21 A2983 RMK FEW080 RN DST QUANDS S/W/N=
200912110100 METAR MRLM NIL=
200912110200 METAR MRLM NIL=
200912110300 METAR MRLM NIL=
200912110400 METAR MRLM NIL=
200912110500 METAR MRLM NIL=
200912110600 METAR MRLM NIL=
200912110700 METAR MRLM NIL=
200912110800 METAR MRLM NIL=
200912110900 METAR MRLM NIL=
200912111000 METAR MRLM NIL=
200912111100 METAR MRLM NIL=
200912111200 METAR MRLM 111200Z NIL=
200912111300 METAR MRLM 111300Z 24006KT 9999 +DZ OVC015 24/23 A2992 RMK VIS E 8KM DUE RN=
200912111400 METAR MRLM 111400Z 21005KT 9999 DZ OVC010 25/24 A2993 RMK RN/HZ ARND=
200912111500 METAR MRLM 111500Z 21005KT 9999 BKN015 27/14 A2993 REDZ RMK FEW110 VIS 8KM QUAND E DUE RN=
200912111600 METAR MRLM 111600Z 00000KT 9999 OVC025 29/24 A2993 RMK RN/HZ ARND=
200912111700 METAR MRLM 111700Z 04004KT 6000 +DZ HZ OVC025 29/24 A2990 RMK VIS UNL QUANDS S/W=
200912111800 METAR MRLM 111800Z 16002KT 8000 +DZ HZ OVC012 27/24 A2988 RMK VIS UNL W=
200912111900 METAR MRLM 111900Z 00000KT 9999 BKN022 28/24 A2986 REDZ RMK FEW110 RN/HZ ARND=
200912112000 METAR MRLM 112000Z 02002KT 9999 BKN025 29/24 A2985 RMK FEW080 RN/HZ ARND=
200912112100 METAR MRLM 112100Z 00000KT 9999 +DZ OVC022 29/25 A2984=
200912112200 METAR MRLM 112200Z 19002KT 9999 OVC020 27/25 A2985 REDZ RMK RN HZ ARND=
200912112300 METAR MRLM 112300Z 21004KT 9999 +DZ SCT012 SCT090 27/25 A2985 RMK VIS 5000 N NE E RA=
200912120000 METAR MRLM 120000Z 19006KT 9999 OVC010 23/22 A2988 RERA RMKRN ARND=
200912120100 METAR MRLM NIL=
200912120200 METAR MRLM NIL=
200912120300 METAR MRLM NIL=
200912120400 METAR MRLM NIL=
200912120500 METAR MRLM NIL=
200912120600 METAR MRLM NIL=
200912120700 METAR MRLM NIL=
200912120800 METAR MRLM NIL=
200912120900 METAR MRLM NIL=
200912121000 METAR MRLM NIL=
200912121100 METAR MRLM NIL=
200912121200 METAR MRLM 121200Z 00000KT 9999 SCT010 BKN100 23/21 A2990 RMK TCU DST N QD HZ SE=
200912121300 METAR MRLM 121300Z 00000KT CAVOK 25/22 A2992 RMK BKN100 RN DST W N NE HZ SE=
200912121400 METAR MRLM 121400Z 20003KT 9999 FEW015 BKN100 26/23 A2994 RMK RN DST N NE HZ SE=
200912121500 METAR MRLM 121500Z 00000KT 9999 FEW025 BKN110 28/23 A2993 RMK FEW260 HZ ARND=
200912121600 METAR MRLM 121600Z 00000KT CAVOK 30/24 A2992 RMK SCT120 FEW260 RN DST NE HZ ARND=
200912121700 METAR MRLM 121700Z 03017KT 9999 SCT020 BKN100 27/24 A2992 RMK HZ ARND=
200912121800 METAR MRLM NIL=
200912121900 METAR MRLM 121900Z 18003KT 9999 BKN015 26/23 A2987 RMK FEW090 RN DST E/SE/S HZ ARND=
200912122000 METAR MRLM 122000Z 17006KT 9999 BKN020 SCT100 26/22 A2985 RMK RN DST SW HZ ARND=
200912122100 METAR MRLM 122100Z 21004KT 9999 BKN020 SCT100 27/22 A2983 RMK DZ DST NE HZ SE=
200912122200 METAR MRLM 122200Z 00000KT 9999 FEW025 BKN110 28/23 RMK HZ SE=
200912122300 METAR MRLM 122300Z 00000KT 9999 BKN025 SCT100 28/22 A2983 RMK DZ DST N/E HZ ARND=
200912130000 METAR MRLM 130000Z 00000KT 9999 BKN015 26/23 A2984 RMK FEW090 RN DST E SE HZ ARND=
200912130100 METAR MRLM NIL=
200912130200 METAR MRLM NIL=
200912130300 METAR MRLM NIL=
200912130400 METAR MRLM NIL=
200912130500 METAR MRLM NIL=
200912130600 METAR MRLM NIL=
200912130700 METAR MRLM NIL=
200912130800 METAR MRLM NIL=
200912130900 METAR MRLM NIL=
200912131000 METAR MRLM NIL=
200912131100 METAR MRLM NIL=
200912131200 METAR MRLM 131200Z 00000KT 8000 3000N +RA BKN007 SCT010 24/23 A2985=
200912131300 METAR MRLM 131300Z 20003KT 8000 RA BKN007 24/23 A2988 RMK FEW080 VIS 6000N=
200912131400 METAR MRLM 131400Z 23005KT 9999 -DZ BKN010 SCT100 25/24 A2990 RERA RMK RN DST SE W SW HZ ARND=
200912131500 METAR MRLM 131500Z 19004KT 9999 BKN015 SCT100 26/24 A2990 RMK RN DST NE LGT HZ ARND=
200912131600 METAR MRLM 131600Z 19003KT 9999 SCT020 SCT110 28/24 A2989=
200912131700 METAR MRLM 131700Z 03003KT 9999 SCT030 SCT110 30/25 A2986 RMK TCU DST N HZ ARND=
200912131800 METAR MRLM 131800Z 03004KT 9999 BKN030 30/24 A2983 RMK FEW110 RN DST N NE HZ ARND=
200912131900 METAR MRLM 131900Z 36009KT 9999 BKN020 30/25 A2980 RMK FEW110 RN DST N NE TCU DST S SW HZ ARND=
200912132000 METAR MRLM 132000Z 01006KT 9999 SCT020 SCT110 29/25 A2977 RMK TCU DST SW HZ ARND=
200912132100 METAR MRLM 132100Z 04010KT 7000 RA OVC010 26/24 A2978=
200912132200 METAR MRLM 132200Z 21002KT 9999 BKN010 26/24 A2978 RERA RMK FEW090 DZ DST N NE E HZ ARND=
200912132300 METAR MRLM 132300Z 21002KT 9999 -DZ BKN010 25/24 A2978 RMK FEW090 HZ ARND=
200912140000 METAR MRLM 140000Z 20003KT 6000 RA OVC010 25/24 A2978=
200912140100 METAR MRLM NIL=
200912140200 METAR MRLM NIL=
200912140300 METAR MRLM NIL=
200912140400 METAR MRLM NIL=
200912140500 METAR MRLM NIL=
200912140600 METAR MRLM NIL=
200912140700 METAR MRLM NIL=
200912140800 METAR MRLM NIL=
200912140900 METAR MRLM NIL=
200912141000 METAR MRLM NIL=
200912141100 METAR MRLM NIL=
200912141200 METAR MRLM NIL=
200912141300 METAR MRLM 141300Z 04010KT 8000 VCSH HZ BKN015 28/24 A2984 RMK UNL N E FEW120=
200912141400 METAR MRLM 141400Z 13003KT 8000 VCSH HZ OVC015 26/23 A2986 RMK VIS N UNL=
200912141500 METAR MRLM 141500Z 18005KT 8000 BKN022 26/24 A2986 RMK RN S W VIS UNL N HZ ARND=
200912141600 METAR MRLM 141600Z 20003KT 8000 OVC012 27/25 A2986 RMK RN W VIS UNL N HZ ARND=
200912141700 METAR MRLM 141700Z 22003KT 8000 +DZ OVC012 26/24 A2984 RERA RMK VIS UNL N HZ ARND=
200912141800 METAR MRLM 141800Z 19004KT 7000 RA OVC015 28/25 A2982 RMK VIS UNL MW=
200912141900 METAR MRLM 141900Z 21005KT 8000 +DZ OVC018 28/25 A2978 RERA RMK VIS UNL N HZ ARND=
200912142000 METAR MRLM 142000Z 14002KT 9999 OVC015 28/25 A2976 REDZ RMK RN DZ ARND=
200912142100 METAR MRLM NIL=
200912142200 METAR MRLM 142200Z 18004KT 9999 +DZ SCT015 BKN080 25/23 A2977 RN HZ ARND=
200912142300 METAR MRLM 142300Z 21006KT 9999 DZ FEW010 BKN080 25/23 A2978 RMK FEW100 RN HZ ARND=
200912150000 METAR MRLM 150000Z 20004KT 8000 +DZ SCT010 SCT080 25/23 A2979=
200912150100 METAR MRLM NIL=
200912150200 METAR MRLM NIL=
200912150300 METAR MRLM NIL=
200912150400 METAR MRLM NIL=
200912150500 METAR MRLM NIL=
200912150600 METAR MRLM NIL=
200912150700 METAR MRLM NIL=
200912150800 METAR MRLM NIL=
200912150900 METAR MRLM NIL=
200912151000 METAR MRLM NIL=
200912151100 METAR MRLM NIL=
200912151200 METAR MRLM NIL=
200912151300 METAR MRLM 151300Z 20006KT 6000 -DZ FEW005 SCT020 BKN090 23/22 A2982=
200912151400 METAR MRLM 151400Z 21005KT 9999 FEW015 BKN090 23/22 A2983 REDZ RN HZ ARND=
200912151500 METAR MRLM 151500Z 13002KT 6000 +DZ SCT015 SCT090 24/23 A2985 RMK HZY=
200912151600 METAR MRLM 151600Z 16002KT 6000 +DZ FEW008 BKN025 24/23 A2984 RMK FEW090 VIS NW UNLTD HZY=
200912151700 METAR MRLM 151700Z 25003KT 6000 DZ FEW010 BKN080 25/23 A2982 FEW100 HZ ARND=
200912151800 METAR MRLM 151800Z 27006KT 9999 FEW015 BKN080 26/24 A2980 RMK REDZ RN HZ ARND=
200912151900 METAR MRLM 151900Z 26005KT 9999 FEW015 BKN080 26/24 A2978 RMK RN HZ ARND=
200912152000 METAR MRLM 152000Z 26005KT 9999 FEW015 BKN035 26/23 A2977 RMK FEW090 RN HZ ARND=
200912152100 METAR MRLM 152100Z 28007KT 9999 FEW010 BKN035 25/23 A2977 RMK FEW090 RN/HZ ARND=
200912152200 METAR MRLM 152200Z NIL=
200912152300 METAR MRLM 152300Z 23006KT CAVOK 25/23 A2977 RMK OVC080 RN/HZ ARND=
200912160000 METAR MRLM 160000Z 21002KT CAVOK 25/23 A2979 RMK OVC080 RN/HZ ARND=
200912160100 METAR MRLM NIL=
200912160200 METAR MRLM NIL=
200912160300 METAR MRLM NIL=
200912160400 METAR MRLM NIL=
200912160500 METAR MRLM NIL=
200912160600 METAR MRLM NIL=
200912160700 METAR MRLM NIL=
200912160800 METAR MRLM NIL=
200912160900 METAR MRLM NIL=
200912161000 METAR MRLM NIL=
200912161100 METAR MRLM NIL=
200912161200 METAR MRLM 161200Z 23002KT 9999 BKN010 SCT090 23/22 A2984 RMK RN DST N E HZ ARND=
200912161300 METAR MRLM 161300Z 21004KT 9999 BKN010 SCT090 24/23 A2986 RMK RN DST E HZ ARND=
200912161400 METAR MRLM 161400Z 19004KT 9999 SCT010 SCT090 25/23 A2989 RMK HZ ARND=
200912161500 METAR MRLM 161500Z 24004KT 9999 BKN020 SCT100 26/23 A2989 RMK HZ ARND=
200912161600 METAR MRLM 161600Z 22004KT 9999 SCT020 SCT100 28/24 A2988 RMK HZ ARND=
200912161700 METAR MRLM 161700Z 00000KT 9999 SCT030 SCT110 30/24 A2986 RMK HZ ARND=
200912161800 METAR MRLM 161800Z 00000KT 9999 SCT030 SCT110 30/25 A2982 RMK FEW250 HZ ARND=
200912161900 METAR MRLM 161900Z 03003KT 9999 SCT030 SCT110 30/24 A2980 RMK FEW250 HZ ARND=
200912162000 METAR MRLM 162000Z 01008KT 9999 BKN020 SCT100 28/24 A2978 RMK RN DST N HZ ARND=
200912162100 METAR MRLM 162100Z 03009KT 9999 BKN015 SCT100 27/24 A2978 RMK RN DST N HZ ARND=
200912162200 METAR MRLM 162200Z 01012KT 6000 +DZ VCSH BKN015 26/23 A2979 RMK FEW090 VIS 4000N=
200912162300 METAR MRLM 162300Z 25004KT 9999 -DZ BKN010 SCT090 24/23 A2979 RMK RN DST W NW HZ ARND=
200912170000 METAR MRLM 170000Z 09010G20KT 9999 FEW012 BKN250 21/17 A2990 RMK RN DST NE E NOSIG=
200912170100 METAR MRLM NIL=
200912170200 METAR MRLM NIL=
200912170300 METAR MRLM NIL=
200912170400 METAR MRLM NIL=
200912170500 METAR MRLM NIL=
200912170600 METAR MRLM NIL=
200912170700 METAR MRLM NIL=
200912170800 METAR MRLM NIL=
200912170900 METAR MRLM NIL=
200912171000 METAR MRLM NIL=
200912171100 METAR MRLM NIL=
200912171200 METAR MRLM 171200Z 00000KT 9999 FEW005 BKN010 24/23 A2983 RMK FEW090 HZ ARND=
200912171300 METAR MRLM 171300Z 08007KT 9999 -DZ BKN010 25/22 A2986 RMK FEW090 HZ ARND=
200912171400 METAR MRLM 171400Z 23004KT 9999 -DZ BKN010 SCT090 24/22 A2988 RMK RN DST NE HZ ARND=
200912171500 METAR MRLM 171500Z 23002KT 9999 SCT015 SCT090 25/23 A2988 RMK RN DST NE HZ ARND=
200912171600 METAR MRLM 171600Z 02003KT 9999 -DZ BKN020 SCT090 26/22 A2988 RMK RN DST NE HZ ARND=
200912171700 METAR MRLM 171700Z 17003KT 9999 FEW020 BKN100 27/23 A2985 RMK HZ LGT ARND=
200912171800 METAR MRLM 171800Z 19004KT CAVOK 28/23 A2982 RMK BKN100 HZ SE=
200912171900 METAR MRLM 171900Z 07003KT CAVOK 28/23 A2978 RMK BKN110 HZ SE=
200912172000 METAR MRLM 172000Z 07002KT CAVOK 29/23 A2976 RMK BKN110 HZ ARND=
200912172100 METAR MRLM 172100Z 07003KT CAVOK 29/23 A2975 RMK SCT110 FEW250 HZ ARND=
200912172200 METAR MRLM 172200Z 08003KT CAVOK 29/23 A2975 RMK SCT120 SCT250 HZ ARND=
200912172300 METAR MRLM 172300Z 07003KT CAVOK 28/23 A2977 RMK BKN110 FEW250 HZ ARND=
200912180000 METAR MRLM NIL=
200912180100 METAR MRLM NIL=
200912180200 METAR MRLM NIL=
200912180300 METAR MRLM NIL=
200912180400 METAR MRLM NIL=
200912180500 METAR MRLM NIL=
200912180600 METAR MRLM NIL=
200912180700 METAR MRLM NIL=
200912180800 METAR MRLM NIL=
200912180900 METAR MRLM NIL=
200912181000 METAR MRLM NIL=
200912181100 METAR MRLM NIL=
200912181200 METAR MRLM 181200Z NIL=
200912181300 METAR MRLM 181300Z 21005KT CAVOK 23/20 A2981 RMK FEW280 LGT HZ ARND=
200912181400 METAR MRLM 181400Z 23004KT CAVOK 26/22 A2984 RMK FEW280 LGT HZ ARND CB DST SW=
200912181500 METAR MRLM 181500Z 23003KT CAVOK 29/23 A2983 RMK FEW280 LGT HZ ARND=
200912181600 METAR MRLM 181600Z 03004KT 9999 FEW025 29/23 A2982 RMK FEW280 HZ LGT ARND=
200912181700 METAR MRLM 181700Z 34007KT CAVOK 30/21 A2981 RMK FEW280 LGT HZ ARND=
200912181800 METAR MRLM 181800Z 36009KT 9999 FEW045 30/21 A2978 RMK FEW280 LGT HZ ARND=
200912181900 METAR MRLM 181900Z 36009KT 9999 FEW040 30/21 A2975 RMK FEW280 HZ LGT ARND=
200912182000 METAR MRLM 182000Z 36008KT 9999 FEW035 BKN280 30/23 A2975 RMK LGT HZ ARND=
200912182100 METAR MRLM 182100Z 35006KT 9999 FEW030 BKN280 29/23 A2975 RMK FEW140 HZ LGT ARND=
200912182200 METAR MRLM 182200Z 34009KT 9999 FEW028 BKN270 28/23 A2975 RMK FEW140 HZ LGT ARND=
200912182300 METAR MRLM 182300Z 31004KT 9999 FEW025 BKN160 28/23 A2977 RMK FEW140 FEW270=
200912190000 METAR MRLM 190000Z 23004KT CAVOK 26/23 A2979 RMK FEW130 BKN150 FEW270 HZ ARND=
200912190100 METAR MRLM NIL=
200912190200 METAR MRLM NIL=
200912190300 METAR MRLM NIL=
200912190400 METAR MRLM NIL=
200912190500 METAR MRLM NIL=
200912190600 METAR MRLM NIL=
200912190700 METAR MRLM NIL=
200912190800 METAR MRLM NIL=
200912190900 METAR MRLM NIL=
200912191000 METAR MRLM NIL=
200912191100 METAR MRLM NIL=
200912191200 METAR MRLM NIL=
200912191300 METAR MRLM 191300Z 22003KT 9999 FEW015 BKN080 24/23 A2989 RMK TCU RN VIS 8000 NW N NE E DZ SE S SW W=
200912191400 METAR MRLM 191400Z 03008KT 9999 -DZ BKN020 SCT090 26/23 A2992 RMK RN ARND=
200912191500 METAR MRLM 191500Z 21006KT 9999 DZ SCT020 SCT090 25/23 A2992 RMK HZ ARND=
200912191600 METAR MRLM 191600Z 20005KT CAVOK 25/23 A2991 REDZ RMK DZ S BKN090 FEW110=
200912191700 METAR MRLM 191700Z 20005KT CAVOK 28/23 A2989 RMK BKN090 FEW110 DZ S=
200912191800 METAR MRLM 191800Z 25002KT CAVOK 29/23 A2986 RMK SCT090 SCT110 DZ SE=
200912191900 METAR MRLM 191900Z 32006KT 9999 FEW035 BKN090 29/23 A2985 RMK RN DST W FEW110 HZ SW=
200912192000 METAR MRLM 192000Z 32010KT 9999 FEW022 BKN090 27/23 A2984 RMK RN DST S FEW110=
200912192100 METAR MRLM 192100Z 33010KT 9999 FEW020 BKN080 27/23 A2984 RMK RN DST E S SW DZ NW NE=
200912192200 METAR MRLM 192200Z 02002KT 9999 SCT025 SCT100 26/23 A2986 RN DST SE DZ SW W NE E=
200912192300 METAR MRLM 192300Z 21003KT 9999 FEW020 BKN090 26/23 A2986 RMK DZ SE SW=
200912200000 METAR MRLM 200000Z 23004KT 9999 FEW025 BKN090 25/22 A2987 RMK FEW110 DZ DST W SW=
200912200100 METAR MRLM NIL=
200912200200 METAR MRLM NIL=
200912200300 METAR MRLM NIL=
200912200400 METAR MRLM NIL=
200912200500 METAR MRLM NIL=
200912200600 METAR MRLM NIL=
200912200700 METAR MRLM NIL=
200912200800 METAR MRLM NIL=
200912200900 METAR MRLM NIL=
200912201000 METAR MRLM NIL=
200912201100 METAR MRLM NIL=
200912201200 METAR MRLM 201200Z 21002KT CAVOK 22/21 A2990 RMK SCT120 BKN250 HZ SE=
200912201300 METAR MRLM 201300Z 22003KT CAVOK 25/21 A2993 RMK FEW120 BKN250 HZ SE=
200912201400 METAR MRLM 201400Z 00000KT CAVOK 28/22 A2995 RMK SCT110 BKN250 HZ LIG SE=
200912201500 METAR MRLM 201500Z 29007KT CAVOK 27/22 A2995 RMK SCT110 SCT250 HZ LIG SE=
200912201600 METAR MRLM 201600Z 30010KT 9999 SCT030 SCT110 29/23 A2996 RMK FEW 250 HZ LIG SE=
200912201700 METAR MRLM 201700Z 30010KT 9999 BKN030 29/23 A2995 RMK FEW110 FEW250 HZY=
200912201800 METAR MRLM 201800Z 30010KT 9999 BKN020 28/23 A2993 RMK FEW100 HZY=
200912201900 METAR MRLM 201900Z 31011KT 9999 -DZ BKN020 26/23 A2991 RMK HZ ARND=
200912202000 METAR MRLM 202000Z 29009KT 9999 BKN020 27/23 A2989 RMK FEW110 HZY=
200912202100 METAR MRLM 202100Z 30010KT 9999 OVC020 20/23 A2988 RMK HZ LGT ARND=
200912202200 METAR MRLM 202200Z 24006KT 9999 DZ BKN015 25/23 A2988 RMK FEW100 HZ ARND=
200912202300 METAR MRLM 202300Z 25003KT 9999 SCT010 SCT100 24/23 A2989 REDZ RMK HZ ARND=
200912210000 METAR MRLM 210000Z 25002KT 9999 FEW010 BKN110 24/22 A2989 RMK HZ ARND=
200912210100 METAR MRLM NIL=
200912210200 METAR MRLM NIL=
200912210300 METAR MRLM NIL=
200912210400 METAR MRLM NIL=
200912210500 METAR MRLM NIL=
200912210600 METAR MRLM NIL=
200912210700 METAR MRLM NIL=
200912210800 METAR MRLM NIL=
200912210900 METAR MRLM NIL=
200912211000 METAR MRLM NIL=
200912211100 METAR MRLM NIL=
200912211200 METAR MRLM 211200Z 28006KT 9999 SCT010 BKN100 24/22 A2993=
200912211300 METAR MRLM 211300Z 27006KT 9999 BKN010 24/22 A2995 RMK FEW100=
200912211400 METAR MRLM 211400Z 27006KT 9999 BKN015 SCT100 24/22 A2998=
200912211500 METAR MRLM 211500Z 26006KT 9999 BKN015 SCT100 25/22 A2999 RMK RN DST NE HZ LGT SW=
200912211600 METAR MRLM 211600Z 27008KT 9999 SCT015 SCT110 25/22 A2999 RMK HZ LGT ARND=
200912211700 METAR MRLM 211700Z 27011KT 9999 -DZ BKN010 25/22 A2998 RMK FEW100 HZ LGT ARND=
200912211800 METAR MRLM 211800Z 27008KT 9999 -DZ BKN010 SCT100 25/22 A2995 RMK HZ LGT ARND=
200912211900 METAR MRLM 211900Z 27008KT 9999 DZ BKN010 24/22 A2993 RMK FEW090 HZ ARND=
200912212000 METAR MRLM 212000Z 26009KT 9999 -DZ OVC010 24/22 A2991 RMK VEL.MAX.VTO. 18KT HZ ARND=
200912212100 METAR MRLM 212100Z 26009KT 9999 BKN010 SCT090 24/22 A2991 RN DST N NE=
200912212200 METAR MRLM 212200Z 27012KT 9999 FEW007 BKN015 24/21 A2991 RMK FEW090 RN DST N NE=
200912212300 METAR MRLM 212300Z 26010KT 9999 FEW007 BKN010 23/21 A2993 RMK GUST 16KT RN NE=
200912220000 METAR MRLM 220000Z 25011KT 9999 OVC010 22/20 A2993 RMK RN N=
200912220100 METAR MRLM NIL=
200912220200 METAR MRLM NIL=
200912220300 METAR MRLM NIL=
200912220400 METAR MRLM NIL=
200912220500 METAR MRLM NIL=
200912220600 METAR MRLM NIL=
200912220700 METAR MRLM NIL=
200912220800 METAR MRLM NIL=
200912220900 METAR MRLM NIL=
200912221000 METAR MRLM NIL=
200912221100 METAR MRLM NIL=
200912221200 METAR MRLM NIL=
200912221300 METAR MRLM 221300Z 26004KT 9999 BKN025 23/19 A2994 RMK FEW080 RN DST N E=
200912221400 METAR MRLM 221400Z 27006KT 9999 BKN025 24/20 A2996 RMK FEW080 RN DST S SE N W=
200912221500 METAR MRLM 221500Z 29005KT 9999 SCT025 SCT090 25/21 A2998 RMK RN DST SW W=
200912221600 METAR MRLM 221600Z 27008KT CAVOK 25/21 A2997 RMK SCT080 SCT100 DZ NE=
200912221700 METAR MRLM 221700Z 30007KT 9999 FEW030 BKN110 28/22 A2994 RMK HZ AND=
200912221800 METAR MRLM 221800Z 28007KT 9999 FEW038 SCT140 29/22 A2991 RMK HZ LEVE ARND=
200912221900 METAR MRLM 221900Z 30010KT 9999 FEW035 BKN110 28/21 A2987 RMK FEW080=
200912222000 METAR MRLM 222000Z 28007KT 9999 FEW030 BKN090 28/21 A2985 RMK HZ SE=
200912222100 METAR MRLM 222100Z 31011KT 9999 FEW028 BKN080 27/22 A2984 RMK FEW080 HZ DST SE=
200912222200 METAR MRLM 222200Z 30005KT CAVOK 27/22 A2985 RMK FEW080 BKN140 HZ SE=
200912222300 METAR MRLM 222300Z 29004KT CAVOK 27/22 A2985 RMK FEW070 BKN090 HZ SE=
200912230000 METAR MRLM 230000Z 28004KT CAVOK 26/22 A2988 RMK FEW070 BKN090 HZ SE=
200912230100 METAR MRLM NIL=
200912230200 METAR MRLM NIL=
200912230300 METAR MRLM NIL=
200912230400 METAR MRLM NIL=
200912230500 METAR MRLM NIL=
200912230600 METAR MRLM NIL=
200912230700 METAR MRLM NIL=
200912230800 METAR MRLM NIL=
200912230900 METAR MRLM NIL=
200912231000 METAR MRLM NIL=
200912231100 METAR MRLM NIL=
200912231200 METAR MRLM 231200Z NIL=
200912231300 METAR MRLM 231300Z 21004KT 9999 FEW015 SCT070 24/21 A2990 RMK SCT100 TCU/RN DST N HZ SE=
200912231400 METAR MRLM 231400Z 27003KT 9999 BKN025 28/22 A2992 RMK FEW130 TCU/RN DST N=
200912231500 METAR MRLM 231500Z 30007KT 9999 FEW030 SCT110 28/22 A2993 RMK HZ SE=
200912231600 METAR MRLM 231600Z 28007KT 9999 SCT030 SCT120 29/22 A2992 RMK HZ SE=
200912231700 METAR MRLM 231700Z 31007KT 9999 SCT035 SCT110 29/22 A2990 RMK HZ SE=
200912231800 METAR MRLM 231800Z 31001KT 9999 SCT040 SCT110 30/22 A2987 RMK HZ SE=
200912231900 METAR MRLM 231900Z 33012KT 9999 SCT030 BKN090 29/22 A2985 RMK RN DST=
200912232000 METAR MRLM 232000Z 33012KT 9999 SCT028 SCT090 28/23 A2984 RMK RN DST S/SW/W=
200912232100 METAR MRLM 232100Z 31007KT 9999 OVC025 28/23 A2982 RMK RN DST S SW W=
200912232200 METAR MRLM 232200Z 30005KT 9999 BKN025 27/23 A2982 RMK FEW080 RMK RN DST SW W=
200912232300 METAR MRLM 232300Z 29003KT 9999 BKN020 27/23 A2983 RMK RN SW W FEW080=
200912240000 METAR MRLM 240000Z 29003KT 999 BKN015 26/23 A2985 RMK FEW080 RN DST SW W=
200912240100 METAR MRLM NIL=
200912240200 METAR MRLM NIL=
200912240300 METAR MRLM NIL=
200912240400 METAR MRLM NIL=
200912240500 METAR MRLM NIL=
200912240600 METAR MRLM NIL=
200912240700 METAR MRLM NIL=
200912240800 METAR MRLM NIL=
200912240900 METAR MRLM NIL=
200912241000 METAR MRLM NIL=
200912241100 METAR MRLM NIL=
200912241200 METAR MRLM 241200Z 222004KT 9999 NSC 21/20 A2985 RMK TRACE AC=
200912241300 METAR MRLM 241300Z 23003KT 9999 NSC 24/22 A2988 RMK TRACE AC=
200912241400 METAR MRLM 241400Z 00000KT 9999 NSC 27/22 A2989 RMK TRACE CU HZ SE=
200912241500 METAR MRLM 241500Z 02004KT 9999 SCT025 28/23 A2990 RMK HZ LGT ARND=
200912241600 METAR MRLM 241600Z 01005KT 9999 SCT025 28/23 A2990=
200912241700 METAR MRLM 241700Z 01006KT 9999 BKN025 29/23 A2989=
200912241800 METAR MRLM 241800Z 03005KT 9999 FEW025 29/23 A2986=
200912241900 METAR MRLM 241900Z 04005KT 9999 FEW030 29/24 A2982=
200912242000 METAR MRLM 242000Z 04006KT 9999 FEW030 29/24 A2980=
200912242100 METAR MRLM 242100Z 03005KT 9999 FEW030 29/23 A2979=
200912242200 METAR MRLM 242200Z 03003KT 9999 SCT020 28/23 A2979=
200912242300 METAR MRLM 242300Z 01002KT 9999 BKN020 28/23 A2981 RMK HZY=
200912250000 METAR MRLM 250000Z 00000KT 9999 SCT020 SCT100 28/23 A2982 LGT HZ ARND=
200912250100 METAR MRLM NIL=
200912250200 METAR MRLM NIL=
200912250300 METAR MRLM NIL=
200912250400 METAR MRLM NIL=
200912250500 METAR MRLM NIL=
200912250600 METAR MRLM NIL=
200912250700 METAR MRLM NIL=
200912250800 METAR MRLM NIL=
200912250900 METAR MRLM NIL=
200912251000 METAR MRLM NIL=
200912251100 METAR MRLM NIL=
200912251200 METAR MRLM 251200Z 00000KT 9999 FEW010 FEW250 22/21 A2985 RMK LGT HZ SE=
200912251300 METAR MRLM 251300Z 20002KT 9999 NSC 24/22 A2987 RMK TRACE CU CI HZ SE=
200912251400 METAR MRLM 251400Z 00000KT 9999 NSC 28/24 A2989 RMK TRACE CU HZ SE=
200912251500 METAR MRLM 251500Z 03002KT 9999 FEW025 29/24 A2990 RMK FEW120 HZ SE=
200912251600 METAR MRLM 251600Z 08005KT 9999 FEW030 SCT250 29/24 A2990=
200912251700 METAR MRLM 251700Z 06006KT 9999 FEW030 29/24 A2989 RMK FEW250=
200912251800 METAR MRLM 251800Z 04006KT 9999 FEW030 30/24 A2987 RMK FEW120=
200912251900 METAR MRLM 251900Z 05007KT 9999 SCT020 SCT110 29/25 A2985=
200912252000 METAR MRLM 252000Z 04007KT 9999 SCT020 SCT100 29/25 A2983=
200912252100 METAR MRLM 252100Z 28006KT 9999 RA FEW015CB BKN035 SCT100 27/21 A2996=
200912252200 METAR MRLM 252200Z 06006KT 9999 BKN020 29/24 A2983 RMK FEW100=
200912252300 METAR MRLM 252300Z 06005KT 9999 BKN015 28/24 A2984 RMK FEW090=
200912260000 METAR MRLM 260000Z 07005KT 9999 BKN015 28/24 A2985=
200912260100 METAR MRLM NIL=
200912260200 METAR MRLM NIL=
200912260300 METAR MRLM NIL=
200912260400 METAR MRLM NIL=
200912260500 METAR MRLM NIL=
200912260600 METAR MRLM NIL=
200912260700 METAR MRLM NIL=
200912260800 METAR MRLM NIL=
200912260900 METAR MRLM NIL=
200912261000 METAR MRLM NIL=
200912261100 METAR MRLM NIL=
200912261200 METAR MRLM 261200Z 03006KT 9999 SCT035 30/23 A2984 RMK HZ LGT SE=
200912261300 METAR MRLM 261300Z 23003KT 9999 FEW015 BKN080 26/23 A2992 RMK HZ SE=
200912261400 METAR MRLM 261400Z 23003KT 9999 SCT030 29/23 A2994 RMK FEW090 HZ SE=
200912261500 METAR MRLM 261500Z 03004KT 9999 BKN035 30/23 A2995 RMK FEW110 TCU/RN DST E=
200912261600 METAR MRLM 261600Z 01004KT 9999 SCT028 SCT130 29/23 A2995 RMK HZ SE=
200912261700 METAR MRLM 261700Z 01005KT 9999 SCT030 30/23 A2992 RMK HZ SE=
200912261800 METAR MRLM 261800Z 01007KT 9999 FEW030 30/23 A2990 RMK TCU DST NW HZ SE=
200912261900 METAR MRLM 261900Z 01007KT 9999 FEW033 30/23 A2987 RMK HZ SE=
200912262000 METAR MRLM 262000Z 02006KT 9999 SCT035 30/23 A2985=
200912262100 METAR MRLM NIL=
200912262200 METAR MRLM 262200Z 36003KT 9999 FEW030 30/23 A2984 RMK FEW280 CB DST S NOSIG=
200912262300 METAR MRLM 262300Z 02003KT 9999 FEW025 29/23 A2985 RMK FEW280 HZ LGT SE=
200912270000 METAR MRLM 270000Z 19002KT 9999 FEW012 26/23 A2987 RMK FEW280 HZ SE=
200912270100 METAR MRLM NIL=
200912270200 METAR MRLM NIL=
200912270300 METAR MRLM NIL=
200912270400 METAR MRLM NIL=
200912270500 METAR MRLM NIL=
200912270600 METAR MRLM NIL=
200912270700 METAR MRLM NIL=
200912270800 METAR MRLM NIL=
200912270900 METAR MRLM NIL=
200912271000 METAR MRLM NIL=
200912271100 METAR MRLM NIL=
200912271200 METAR MRLM NIL=
200912271300 METAR MRLM 271300Z 20005KT 9999 FEW015TCU SCT280 23/21 A2998 RMK TCU RN DST QUAD N E CB DST E FEW080 FEW150=
200912271400 METAR MRLM 271400Z 23002KT 9999 FEW015 BKN080 24/22 A2996 RMK FEW280 TCU RN DST NW CB RN DST E=
200912271500 METAR MRLM 271500Z 02002KT 9999 FEW015 SCT090 27/22 A2997 RMK SCT280 HZ SE=
200912271600 METAR MRLM 271600Z 08003KT 9999 FEW025 BKN280 28/22 A2997 RMK FEW090 HZ SE=
200912271700 METAR MRLM 271700Z 09004KT 9999 FEW025 BKN280 28/23 A2996 RMK HZ SE=
200912271800 METAR MRLM NIL=
200912271900 METAR MRLM 271900Z 10006KT 9999 SCT028 BKN280 29/23 A2993 RMK HZ LEVE SE=
200912272000 METAR MRLM 272000Z 06008KT 9999 FEW030 BKN280 30/24 A2988 RMK HZ SE=
200912272100 METAR MRLM 272100Z 07009KT 9999 FEW028 BKN250 29/24 A2987 RMK HZ SE=
200912272200 METAR MRLM 272200Z 06009KT 9999 SCT025 BKN280 29/24 A2986 RMK HZ SE=
200912272300 METAR MRLM 272300Z 09008KT 9999 BKN025 SCT250 28/23 A2988 RMK HZ SE=
200912280000 METAR MRLM 280000Z 07006KT 9999 OVC025 28/23 A2990 RMK HZ SE=
200912280100 METAR MRLM NIL=
200912280200 METAR MRLM NIL=
200912280300 METAR MRLM NIL=
200912280400 METAR MRLM NIL=
200912280500 METAR MRLM NIL=
200912280600 METAR MRLM NIL=
200912280700 METAR MRLM NIL=
200912280800 METAR MRLM NIL=
200912280900 METAR MRLM NIL=
200912281000 METAR MRLM NIL=
200912281100 METAR MRLM NIL=
200912281200 METAR MRLM 281200Z 21004KT CAVOK 21/20 A2994 RMK FEW250=
200912281300 METAR MRLM 281300Z 21004KT FEW015 23/21 A2996 RMK HZ SE=
200912281400 METAR MRLM 281400Z 00000KT 9999 FEW030 28/22 A3000 RMK HZ SE=
200912281500 METAR MRLM 281500Z 00000KT 9999 FEW035 29/22 A3001 RMK HZ SE=
200912281600 METAR MRLM 281600Z 01005KT 9999 FEW030 29/22 A3000 RMK FEW130 LGT HZ SE=
200912281700 METAR MRLM 281700Z 36008KT 9999 FEW030 SCT120 30/22 A2999 RMK FEW250 LGT HZ SE=
200912281800 METAR MRLM 281800Z 35005KT 9999 SCT030 SCT110 29/22 A2997=
200912281900 METAR MRLM 281900Z 02003KT 9999 SCT030 BKN110 29/23 A2994 RMK DZ DST NE HZ LGT ARND=
200912282000 METAR MRLM 282000Z 04015KT 9999 SCT025 SCT100 27/22 A2993 RMK HZ SE=
200912282100 METAR MRLM 282100Z 04011KT 9999 SCT025 SCT100 27/22 A2990 RMK HZ SE=
200912282200 METAR MRLM 282200Z 36007KT 9999 BKN020 SCT100 26/23 A2991 RMK RN DST N NE=
200912282300 METAR MRLM 282300Z 24004KT 9999 BKN020 SCT100 25/22 A2992 RMK RN DST N HZ ARND=
200912290000 METAR MRLM 290000Z 25003KT 9999 SCT015 BKN090 25/23 A2992 RMK RN DST N HZ ARND=
200912290100 METAR MRLM NIL=
200912290200 METAR MRLM NIL=
200912290300 METAR MRLM NIL=
200912290400 METAR MRLM NIL=
200912290500 METAR MRLM NIL=
200912290600 METAR MRLM NIL=
200912290700 METAR MRLM NIL=
200912290800 METAR MRLM NIL=
200912290900 METAR MRLM NIL=
200912291000 METAR MRLM NIL=
200912291100 METAR MRLM NIL=
200912291200 METAR MRLM NIL=
200912291300 METAR MRLM 291300Z 19004KT 8000 RA FEW007 BKN010 22/21 A2997 RMK VIS UNL E=
200912291400 METAR MRLM 291400Z 21004KT 9999 SCT010 BKN090 23/22 A2999 RERA RMK RN DST SW N HZ LGT ARND=
200912291500 METAR MRLM 291500Z 21005KT 9999 SCT015 BKN100 25/23 A3000 RMK HZ LGT ARND=
200912291600 METAR MRLM 291600Z 20005KT 9999 BKN025 SCT110 28/23 A3000 RMK HZ LGT ARND=
200912291700 METAR MRLM 291700Z 10006KT 9999 BKN040 30/22 A2998 RMK HZ LGT ARND=
200912291800 METAR MRLM 291800Z 10005KT 9999 BKN040 31/23 A2994 RMK FEW130 HZ SE=
200912291900 METAR MRLM 291900Z 10008KT 9999 SCT045 30/21 A2993 RMK FEW130 HZ SE=
200912292000 METAR MRLM 292000Z 10006KT 9999 FEW045 30/22 A2990 RMK FEW250=
200912292100 METAR MRLM 292100Z 10008KT 9999 FEW040 30/23 A2989 RMK HZ SE=
200912292200 METAR MRLM 292200Z 09006KT 9999 SCT035 SCT120 29/22 A2988 HZ SE=
200912292300 METAR MRLM 292300Z 09007KT CAVOK 29/23 A2989 RMK FEW120 SCT250 TCU DST NE HZ SE=
200912300000 METAR MRLM 300000Z 08009KT 9999 FEW020 SCT250 28/23 A2990 RMK FEW110 RN DST N NE HZ ARND=
200912300100 METAR MRLM NIL=
200912300200 METAR MRLM NIL=
200912300300 METAR MRLM NIL=
200912300400 METAR MRLM NIL=
200912300500 METAR MRLM NIL=
200912300600 METAR MRLM NIL=
200912300700 METAR MRLM NIL=
200912300800 METAR MRLM NIL=
200912300900 METAR MRLM NIL=
200912301000 METAR MRLM NIL=
200912301100 METAR MRLM NIL=
200912301200 METAR MRLM NIL=
200912301300 METAR MRLM 301300Z 23004KT 9999 FEW015 SCT090 21/19 A2998 RMK DZ E SE LG HZ ARND=
200912301400 METAR MRLM 301400Z 18004KT 9999 SCT015 SCT090 24/20 A3001 RMK RN DST E SE LGT HZ ARND=
200912301500 METAR MRLM 301500Z 20006KT 9999 FEW035 BKN090 27/20 A2999 RMK RN DST N NE E HZ ARND=
200912301600 METAR MRLM NIL=
200912301700 METAR MRLM 301700Z 21007KT 9999 FEW020 BKN110 25/23 A2999 RERA RMK RN DST S QD=
200912301800 METAR MRLM 301800Z 20006KT CAVOK 28/22 A2995 RMK BKN130 LGT HZ ARND=
200912301900 METAR MRLM 301900Z 04003KT CAVOK 30/22 A2992 RMK FEW140 LGT HZ ARND=
200912302000 METAR MRLM 302000Z 03005KT 9999 FEW045 30/21 A2989 RMK LGT HZ ARND=
200912302100 METAR MRLM 302100Z 04005KT 9999 FEW045 30/21 A2988 RMK FEW140 LGT HZ ARND=
200912302200 METAR MRLM 302200Z 03005KT 9999 NSC 30/22 A2987 RMK TRAZAS CU/AC LGT HZ ARND=
200912302300 METAR MRLM 302300Z 03005KT 9999 NSC 29/22 A2987 RMK TRAZAS CU/AC LGT HZ ARND=
200912310000 METAR MRLM 310000Z 06007KT 9999 NSC 28/22 A2989 RMK TRAZAS AC/CI HZ LGT ARND=
200912310100 METAR MRLM NIL=
200912310200 METAR MRLM NIL=
200912310300 METAR MRLM NIL=
200912310400 METAR MRLM NIL=
200912310500 METAR MRLM NIL=
200912310600 METAR MRLM NIL=
200912310700 METAR MRLM NIL=
200912310800 METAR MRLM NIL=
200912310900 METAR MRLM NIL=
200912311000 METAR MRLM NIL=
200912311100 METAR MRLM NIL=
200912311200 METAR MRLM NIL=
200912311300 METAR MRLM 311300Z 24003KT 9999 BKN020 23/21 A2996 RERA RMK FEW100 RN/HZ DST ARND=
200912311400 METAR MRLM 311400Z 23004KT 9999 BKN025 24/22 A2998 RMK FEW090 RN/HZ DST ARND=
200912311500 METAR MRLM 311500Z 29003KT 9999 SCT015 SCT090 25/22 A3000 RMK RN/HZ ARND=
200912311600 METAR MRLM 311600Z 24004KT 9999 FEW020 BKN090 27/23 A2998 RMK HZ ARND=
200912311700 METAR MRLM 311700Z 27003KT 9999 SCT040 SCT140 29/23 A2996 RMK HZ ARND=
200912311800 METAR MRLM 311800Z 03005KT 9999 BKN035 29/22 A2994 RMK FEW090 HZ ARND=
200912311900 METAR MRLM 311900Z 04004KT 9999 FEW045 BKN140 31/22 A2991 RMK LGT HZ ARND HVY HZ SE=
200912312000 METAR MRLM 312000Z 08003KT 9999 FEW035 BKN140 30/23 A2988 RMK HZ ARND=
200912312100 METAR MRLM 312100Z 01004KT 9999 FEW035 BKN110 30/23 A2988 RMK CB RN DST NE HZ ARND=
200912312200 METAR MRLM 312200Z 36004KT 9999 FEW035 BKN110 29/22 A2988 RMK RN DST QUAD N HZ ARND=
200912312300 METAR MRLM 312300Z 04009KT 9999 FEW020 SCT080 28/23 A2990 RMK SCT100 VIS 8000N RA HZ ARND=
