201101010000 METAR MRLM 010000Z 00000KT 9999 -DZ BKN010 24/23 A2988 RMK FEW090 RA DST QUAD N HZ ARND=
201101010100 METAR MRLM NIL=
201101010200 METAR MRLM NIL=
201101010300 METAR MRLM NIL=
201101010400 METAR MRLM NIL=
201101010500 METAR MRLM NIL=
201101010600 METAR MRLM NIL=
201101010700 METAR MRLM NIL=
201101010800 METAR MRLM NIL=
201101010900 METAR MRLM NIL=
201101011000 METAR MRLM NIL=
201101011100 METAR MRLM NIL=
201101011200 METAR MRLM NIL=
201101011300 METAR MRLM 011300Z 00000KT CAVOK 23/22 A2993 RMK BKN110 RA DST N HZ ARND=
201101011400 METAR MRLM 011400Z 22003KT CAVOK 25/23 A2994 RMK BKN120 HZ ARND=
201101011500 METAR MRLM 011500Z 00000KT 9999 FEW025 SCT130 29/23 A2995 RMK HZ ARND=
201101011600 METAR MRLM 011600Z 02003KT 9999 FEW025 28/23 A2994 RMK FEW130 HZ ARND=
201101011700 METAR MRLM 011700Z 01003KT 9999 SCT020 SCT120 28/23 A2993 RMK TCU DST S SW RA DST N NE E HZ ARND=
201101011800 METAR MRLM 011800Z 07005KT 9999 SCT015 BKN120 26/23 A2991 RMK TCU DST SW RA DST N NE E=
201101011900 METAR MRLM 011900Z 09005KT 9999 BKN020 27/23 A2989 RMK SCT120 RA DST NE SW HZ ARND=
201101012000 METAR MRLM 012000Z 09003KT 9999 SCT030 27/22 A2986 RMK FEW130 FEW250 HZ ARND=
201101012100 METAR MRLM 012100Z 05004KT 9999 FEW030 SCT130 27/23 A2985 RMK FEW250 HZ ARND=
201101012200 METAR MRLM 012200Z 06003KT 9999 FEW025 BKN130 28/23 A2984 RMK HZ ARND=
201101012300 METAR MRLM 012300Z 05004KT 9999 SCT020 SCT120 27/23 A2986 RMK HZ ARND=
201101012351 METAR MRLM 020000Z 06003KT 9999 -DZ SCT015 BKN110 26/23 A2988 RMK CB RN DST N TCU DST S HZ ARND=
201101020000 METAR MRLM 020000Z 06003KT 9999 -DZ SCT015 BKN110 26/23 A2988 RMK CB RN DST N TCU DST S HZ ARND=
201101020100 METAR MRLM NIL=
201101020200 METAR MRLM NIL=
201101020300 METAR MRLM NIL=
201101020400 METAR MRLM NIL=
201101020500 METAR MRLM NIL=
201101020600 METAR MRLM NIL=
201101020700 METAR MRLM NIL=
201101020800 METAR MRLM NIL=
201101020900 METAR MRLM NIL=
201101021000 METAR MRLM NIL=
201101021100 METAR MRLM NIL=
201101021200 METAR MRLM 021200Z NIL=
201101021300 METAR MRLM 021300Z 16004KT 3000 +RA FEW003 BKN010 23/22 A2993 RMK FEW090 VIS 5000 NW N=
201101021400 METAR MRLM 021400Z 16005KT 5000 2000S +DZ VCSH SCT003 SCT010 23/22 A2996=
201101021500 METAR MRLM 021500Z 16004KT 3000 RA SCT004 SCT010 24/23 A2996 RMK VIS 5000 NW N NE=
201101021600 METAR MRLM 021600Z 04011KT 9999 SCT012 BKN080 25/22 A2997 RERA RMK VIS 8000 S SW W DUE RA=
201101021700 METAR MRLM 021700Z 02010KT 9999 SCT015 BKN080 26/23 A2995 RMK RA DST ARND=
201101021800 METAR MRLM 021800Z 02007KT 9999 SCT015 BKN080 27/23 A2994 RMK RA DST E SE S SW W HZ SE=
201101021900 METAR MRLM 021900Z 01005KT 9999 SCT018 SCT090 27/23 A2993 RMK FEW070 HZ ARND=
201101022000 METAR MRLM 022000Z 01004KT 9999 SCT018 SCT090 28/23 A2991 RMK HZ ARND=
201101022100 METAR MRLM 022100Z 01005KT 9999 BKN022 29/23 A2990 RMK RN DST S SW W HZ ARND FEW140 FEW280=
201101022200 METAR MRLM 022200Z 00000KT 9999 FEW018 BKN025 27/22 A2989 RMK FEW080 FEW280 HZ ARND=
201101022300 METAR MRLM 022300Z 19005KT 9999 BKN015TCU 26/22 A2989 RMK RN DST QUAD N E FEW080 HZ ARND=
201101030000 METAR MRLM 030000Z 02008KT 2000 +SHRA OVC015TCU 23/22 A2991=
201101030100 METAR MRLM NIL=
201101030200 METAR MRLM NIL=
201101030300 METAR MRLM NIL=
201101030400 METAR MRLM NIL=
201101030500 METAR MRLM NIL=
201101030600 METAR MRLM NIL=
201101030700 METAR MRLM NIL=
201101030800 METAR MRLM NIL=
201101030900 METAR MRLM NIL=
201101031000 METAR MRLM NIL=
201101031100 METAR MRLM NIL=
201101031200 METAR MRLM NIL=
201101031300 METAR MRLM 031300Z 22004KT 9999 BKN015 22/21 A2996 RMK FEW080 RN DST NE E HZ ARND=
201101031400 METAR MRLM 031400Z 24002KT 9999 BKN015 25/22 A2998 RMK FEW280 HZ LEVE ARND RN DST N NE=
201101031500 METAR MRLM 031500Z 19002KT 9999 BKN025 27/21 A2998 RMK FEW080 RN DST NE E SE S HZ ARND=
201101031600 METAR MRLM 031600Z 29003KT 9999 SCT025 SCT070 27/21 A2997 RMK FEW280 RN DST NE E DZ DST S SW HZ ARND=
201101031700 METAR MRLM 031700Z 10003KT 9999 FEW020 BKN080 26/22 A2996 RMK RN DST SW NE E HZ ARND=
201101031800 METAR MRLM 031800Z 05011KT 9999 DZ SCT010 BKN080 24/22 A2994 RMK RN HZ ARND=
201101031900 METAR MRLM 031900Z 01013KT 9999 DZ FEW015 BKN080 22/20 A2993 RERA RMK FEW100 RN HZ ARND=
201101032000 METAR MRLM 032000Z 30003KT 9999 FEW020 BKN080 27/19 A2990 RMK FEW100 RN DST N NE E HZ LGT ARND=
201101032100 METAR MRLM 032100Z 33002KT 9999 SCT028 SCT080 26/20 A2989 RMK RN HZ ARND=
201101032200 METAR MRLM 032200Z 22003KT 9999 BKN015 25/21 A2989 RMK FEW080 RN HZ ARND=
201101032300 METAR MRLM 032300Z 30007KT 9999 DZ BKN015 SCT080 23/21 A2990 RMK RN HZ ARND=
201101040000 METAR MRLM 040000Z 23004KT 9999 BKN012 22/21 A2992 REDZ RMK RN HZ ARND=
201101040100 METAR MRLM NIL=
201101040200 METAR MRLM NIL=
201101040300 METAR MRLM NIL=
201101040400 METAR MRLM NIL=
201101040500 METAR MRLM NIL=
201101040600 METAR MRLM NIL=
201101040700 METAR MRLM NIL=
201101040800 METAR MRLM NIL=
201101040900 METAR MRLM NIL=
201101041000 METAR MRLM NIL=
201101041100 METAR MRLM NIL=
201101041200 METAR MRLM 041200Z 00000KT 9999 BKN010 21/20 A2992 RMK FEW100 HZ LGT ARND=
201101041300 METAR MRLM 041300Z 22004KT 9999 BKN015 SCT100 22/20 A2994 RMK HZ LGT HZ=
201101041400 METAR MRLM 041400Z 00000KT CAVOK 24/20 A2996 RMK BKN110 HZ=
201101041500 METAR MRLM 041500Z 36006KT CAVOK 25/21 A2997 RMK SCT120 HZ LGT ARND=
201101041600 METAR MRLM 041600Z 36006KT 9999 FEW030 26/21 A2997 RMK FEW120 HZ ARND=
201101041700 METAR MRLM 041700Z 35008KT 9999 FEW030 27/21 A2996 RMK FEW130 HZ LGT ARND=
201101041800 METAR MRLM 041800Z 34008KT 9999 FEW035 27/20 A2995 RMK FEW130 LGT HZ ARND=
201101041900 METAR MRLM 041900Z 35010KT CAVOK 27/23 A2991 RMK SCT120 HZ ARND=
201101042000 METAR MRLM 042000Z 34010KT CAVOK 27/22 A2989 RMK SCT120 LGT HZ ARND=
201101042100 METAR MRLM 042100Z 34009KT CAVOK 27/22 A2988 RMK BKN120 LGT HZ ARND=
201101042200 METAR MRLM 042200Z 33008KT 9999 FEW030 27/22 A2988 RMK FEW120 LGT HZY=
201101042300 METAR MRLM 042300Z 32006KT 9999 SCT020 26/22 A2989 RMK HZ ARND=
201101042357 METAR MRLM 050000Z 35003KT 9999 SCT010 SCT110 24/22 A2990 RMK RA DST N HZ ARND=
201101050000 METAR MRLM 050000Z 35003KT 9999 SCT010 SCT110 24/22 A2990 RMK RA DST N HZ ARND=
201101050100 METAR MRLM NIL=
201101050200 METAR MRLM NIL=
201101050300 METAR MRLM NIL=
201101050400 METAR MRLM NIL=
201101050500 METAR MRLM NIL=
201101050600 METAR MRLM NIL=
201101050700 METAR MRLM NIL=
201101050800 METAR MRLM NIL=
201101050900 METAR MRLM NIL=
201101051000 METAR MRLM NIL=
201101051100 METAR MRLM NIL=
201101051200 METAR MRLM 051200Z 20005KT 9999 BKN010 22/20 A2994 RMK FEW090 RA DST N NE HZ ARND=
201101051300 METAR MRLM 051300Z 21004KT 9999 BKN010 SCT100 22/20 A2995 RMK RA DST N NE HZ ARND=
201101051400 METAR MRLM 051400Z 13008KT 8000 RA BKN010 22/21 A2999 RMK FEW090=
201101051500 METAR MRLM 051500Z 14004KT 8000 RA BKN007 22/21 A3002 RMK FEW080=
201101051600 METAR MRLM 051600Z 21007KT 9999 -DZ BKN010 SCT090 23/21 A2999 RERA RMK RA DST N HZ ARND=
201101051700 METAR MRLM 051700Z 21005KT 9999 -DZ BKN020 SCT100 24/21 A2997 RMK RA DST W NW N HZ ARND=
201101051800 METAR MRLM 051800Z 31007KT 9999 DZ BKN020 SCT100 25/21 A2996 RMK RA DST QUAD N HZ ARND=
201101051900 METAR MRLM 051900Z 28005KT 9999 BKN020 25/21 A2993 REDZ RMK RA DST N HZ ARND=
201101052000 METAR MRLM 052000Z 31008KT 9999 DZ BKN020 SCT100 25/21 A2991 RMK RA DST N HZ ARND=
201101052100 METAR MRLM 052100Z 30005KT 9999 -DZ BKN015 24/21 A2990 RMK SCT100 RA DST N S HZ ARND=
201101052200 METAR MRLM 052200Z 26004KT 9999 SCT020 SCT100 25/21 A2990 RMK RA DST N NE HZ ARND=
201101052300 METAR MRLM 052300Z 28004KT 9999 SCT010 SCT090 23/21 A2991 RMK RA DST N NW HZ ARND=
201101060000 METAR MRLM 060000Z 25002KT 9999 BKN010 23/21 A2992 RMK HZ ARND=
201101060100 METAR MRLM NIL=
201101060200 METAR MRLM NIL=
201101060300 METAR MRLM NIL=
201101060400 METAR MRLM NIL=
201101060500 METAR MRLM NIL=
201101060600 METAR MRLM NIL=
201101060700 METAR MRLM NIL=
201101060800 METAR MRLM NIL=
201101060900 METAR MRLM NIL=
201101061000 METAR MRLM NIL=
201101061100 METAR MRLM NIL=
201101061200 METAR MRLM 061200Z NIL=
201101061300 METAR MRLM 061300Z 22005KT CAVOK 21/20 A2993 RMK FEW090 TCU DST NE HZ ARND=
201101061400 METAR MRLM 061400Z 23003KT CAVOK 25/21 A2995 RMK FEW090 LGT HZ ARND=
201101061500 METAR MRLM 061500Z 29003KT 9999 SCT025 27/21 A2995 RMK HZ ARND=
201101061600 METAR MRLM 061600Z 36008KT 9999 SCT023 27/22 A2995 RMK HZ LGT ARND FEW140=
201101061700 METAR MRLM 061700Z 35010KT 9999 FEW025 SCT130 27/22 A2993 RMK HZ LGT ARND=
201101061800 METAR MRLM 061800Z 35009KT 9999 FEW250 BKN140 27/22 A2990 RMK LGT HZ ARND=
201101061900 METAR MRLM 061900Z 36009KT 9999 FEW020 BKN090 27/22 A2987 RMK LGT HZ ARND=
201101062000 METAR MRLM 062000Z 35009KT 9999 FEW020 BKN090 27/22 A2985 RMK LGT HZ ARND=
201101062100 METAR MRLM 062100Z 35007KT 9999 FEW020 BKN080 27/22 A2985 RMK RA DST SW HZ LGT ARND=
201101062200 METAR MRLM 062200Z 35005KT 9999 FEW020 SCT070 27/22 A2985 RMK SCT080 RA DST SW HZ LGT ARND=
201101062300 METAR MRLM 062300Z 32004KT 9999 FEW020 SCT070 26/22 A2987 RMK RA DST S SW=
201101070000 METAR MRLM 070000Z 29002KT 9999 FEW015 SCT070 25/22 A2988 RMK RA DST S SW HZ LGT ARND=
201101070100 METAR MRLM NIL=
201101070200 METAR MRLM NIL=
201101070300 METAR MRLM NIL=
201101070400 METAR MRLM NIL=
201101070500 METAR MRLM NIL=
201101070600 METAR MRLM NIL=
201101070700 METAR MRLM NIL=
201101070800 METAR MRLM NIL=
201101070900 METAR MRLM NIL=
201101071000 METAR MRLM NIL=
201101071100 METAR MRLM NIL=
201101071200 METAR MRLM 071200Z NIL=
201101071300 METAR MRLM 071300Z 24007KT 9999 DZ SCT015 SCT080 21/20 A2995 RMK VIS 8000 W NW N NE DUE RA=
201101071400 METAR MRLM 071400Z 27006KT 6000 +DZ VCSH SCT025 SCT080 21/20 A2999 RMK VIS UNL NE=
201101071500 METAR MRLM 071500Z 22007KT 9999 FEW025 BKN080 22/20 A2999 REDZ RMK RA HZ ARND FEW090=
201101071600 METAR MRLM 071600Z 23005KT 9999 FEW025 BKN080 24/21 A2997 RMK RA HZ ARND FEW100=
201101071700 METAR MRLM 071700Z 22007KT 9999 FEW030 BKN080 25/20 A2994 RMK DZ HZ ARND=
201101071800 METAR MRLM 071800Z 23006KT 9999 FEW025 BKN080 26/21 A2992 RMK FEW100 DZ SE S SW W HZ ARND=
201101071900 METAR MRLM 071900Z 23006KT 9999 BKN025 SCT090 26/20 A2988 RMK RA DST W HZ ARND LGT=
201101072000 METAR MRLM 072000Z 23005KT 9999 SCT025 SCT080 26/21 A2986 RMK FEW100 RA DST S SW NE E=
201101072100 METAR MRLM 072100Z 21004KT 9999 BKN025 27/20 A2984 RMK FEW080 FEW100 RN DST N NE E S SW=
201101072200 METAR MRLM 072200Z 04010KT 9999 BKN018 SCT090 26/21 A2985 RMK RN DST N NE E SE=
201101072300 METAR MRLM 072300Z 06012KT 9999 SCT020 24/21 A2985 RMK FEW080 FEW100 DZ DST NW N NE E SE=
201101080000 METAR MRLM 080000Z 08005KT 9999 DZ BKN020 SCT090 24/21 A2986 RMK HZ ARND=
201101080100 METAR MRLM NIL=
201101080200 METAR MRLM NIL=
201101080300 METAR MRLM NIL=
201101080400 METAR MRLM NIL=
201101080500 METAR MRLM NIL=
201101080600 METAR MRLM NIL=
201101080700 METAR MRLM NIL=
201101080800 METAR MRLM NIL=
201101080900 METAR MRLM NIL=
201101081000 METAR MRLM NIL=
201101081100 METAR MRLM NIL=
201101081200 METAR MRLM NIL=
201101081300 METAR MRLM 081300Z 00000KT 9999 SCT010 SCT100 21/20 A2991 RMK HZ ARND=
201101081400 METAR MRLM 081400Z 25003KT 9999 SCT015 BKN110 23/20 A2993 RMK HZ ARND=
201101081500 METAR MRLM 081500Z 28006KT CAVOK 25/20 A2992 RMK BKN120 SCT240 HZ LEVE ARND=
201101081600 METAR MRLM 081600Z 29006KT CAVOK 28/20 A2992 RMK SCT130 SCT250 HZ LEVE ARND=
201101081700 METAR MRLM 081700Z 26006KT 9999 FEW035 BKN250 28/21 A2990 RMK FEW130 HZ LEVE ARND=
201101081800 METAR MRLM 081800Z 32010KT 9999 FEW035 BKN250 29/21 A2988 RMK FEW130=
201101081900 METAR MRLM 081900Z 32012KT 9999 FEW030 SCT250 27/21 A2986 RMK FEW120=
201101082000 METAR MRLM 082000Z 33011KT 9999 SCT030 27/22 A2984 RMK FEW120 SCT250=
201101082100 METAR MRLM 082100Z 33009KT 9999 SCT030 27/22 A2983 RMK FEW120 SCT250 LGT HZ ARND=
201101082200 METAR MRLM 082200Z 32007KT 9999 BKN020 SCT120 26/22 A2983 RMK RN DST S HZ LGT ARND=
201101082300 METAR MRLM 082300Z 28003KT 9999 BKN015 25/22 A2984 RMK FEW110 RN DST S SW LGT HZ ARND=
201101090000 METAR MRLM 090000Z 31004KT 9999 BKN015 SCT110 25/22 A2985 RMK LGT HZ ARND=
201101090100 METAR MRLM NIL=
201101090200 METAR MRLM NIL=
201101090300 METAR MRLM NIL=
201101090400 METAR MRLM NIL=
201101090500 METAR MRLM NIL=
201101090600 METAR MRLM NIL=
201101090700 METAR MRLM NIL=
201101090800 METAR MRLM NIL=
201101090900 METAR MRLM NIL=
201101091000 METAR MRLM NIL=
201101091100 METAR MRLM NIL=
201101091200 METAR MRLM NIL=
201101091300 METAR MRLM 091300Z 23002KT CAVOK 23/21 A2989 RMK SCT120=
201101091400 METAR MRLM 091400Z 00000KT CAVOK 26/21 A2992 RMK FEW130 SCT250=
201101091500 METAR MRLM 091500Z 00000KT CAVOK 26/21 A2993 RMK FEW130 BKN250=
201101091600 METAR MRLM 091600Z 04003KT CAVOK 27/21 A2993 RMK BKN250=
201101091700 METAR MRLM 091700Z 03005KT 9999 FEW030 27/21 A2991 RMK FE130 FEW250=
201101091800 METAR MRLM 091800Z 04004KT 9999 FEW035 27/21 A2988 RMK FEW140 FEW250=
201101091900 METAR MRLM 091900Z 02005KT CAVOK 28/21 A2986 RMK SCT250=
201101092000 METAR MRLM 092000Z 02005KT CAVOK 28/21 A2984 RMK BKN250=
201101092100 METAR MRLM 092100Z 02005KT CAVOK 27/21 A2984 RMK FEW130 BKN240=
201101092200 METAR MRLM 092200Z 36004KT CAVOK 27/21 A2984 RMK SCT130 BKN240=
201101092300 METAR MRLM 092300Z 34003KT CAVOK 26/22 A2985 RMK BKN120 SCT240=
201101100000 METAR MRLM 100000Z 00000KT 9999 FEW015 BKN120 24/22 A2986 RMK FEW240 HZ SE=
201101100100 METAR MRLM NIL=
201101100200 METAR MRLM NIL=
201101100300 METAR MRLM NIL=
201101100400 METAR MRLM NIL=
201101100500 METAR MRLM NIL=
201101100600 METAR MRLM NIL=
201101100700 METAR MRLM NIL=
201101100800 METAR MRLM NIL=
201101100900 METAR MRLM NIL=
201101101000 METAR MRLM NIL=
201101101100 METAR MRLM NIL=
201101101200 METAR MRLM NIL=
201101101300 METAR MRLM 101300Z 30004KT 9999 FEW015 SCT025 23/21 A2991 REDZ RMK DZ W NW NE E SE SCT080=
201101101400 METAR MRLM 101400Z 27007KT 9999 FEW012 SCT020 24/21 A2992 RMK SCT080 RN DST N NE E S=
201101101500 METAR MRLM 101500Z 26005KT 9999 BKN020 25/21 A2993 RMK DZ SW RN DST N NE E FEW080=
201101101600 METAR MRLM 101600Z 24006KT 8000 +DZ VCSH FEW006 SCT025 23/22 A2993 RMK SCT090=
201101101700 METAR MRLM 101700Z 24002KT 6000 +DZ VCSH FEW007 BKN015 23/22 A2993 RMK SCT090 VIS 8KM SE S SW=
201101101800 METAR MRLM 101800Z 25004KT 8000 +DZ VCSH FEW006 SCT025 BKN090 23/22 A2990 RMK VIS UNL E SE S SW=
201101101900 METAR MRLM 101900Z 21003KT 9999 -DZ VCSH FEW008 SCT070 24/22 A2986 REDZ RMK SCT090 RN DST N NW W NE E=
201101102000 METAR MRLM 102000Z 20002KT 9999 FEW015 SCT030 26/23 A2983 RMK SCT080 FEW100 RN DST ARND=
201101102100 METAR MRLM 102100Z 36003KT 9999 DZ VCSH SCT015 BKN090 25/22 A2984 RMK VIS 8KM NE E SE DUE RA HZ ARND=
201101102200 METAR MRLM 102200Z 23002KT 9999 +DZ VCSH FEW010 SCT020 25/23 A2987 RMK FEW080 FEW100 VIS 8KM NW N W=
201101102300 METAR MRLM 102300Z 00000KT 9999 -DZ BKN070 25/23 A2987 RMK RA/HZ ARND FEW090=
201101110000 METAR MRLM 110000Z 00000KT 9999 FEW006 SCT025 25/23 A2989 RMK RA DST NW N NE E SCT080=
201101110100 METAR MRLM NIL=
201101110200 METAR MRLM NIL=
201101110300 METAR MRLM NIL=
201101110400 METAR MRLM NIL=
201101110500 METAR MRLM NIL=
201101110600 METAR MRLM NIL=
201101110700 METAR MRLM NIL=
201101110800 METAR MRLM NIL=
201101110900 METAR MRLM NIL=
201101111000 METAR MRLM NIL=
201101111100 METAR MRLM NIL=
201101111200 METAR MRLM NIL=
201101111225 METAR MRLM 111225Z 24006KT 7000 RA FEW005 OVC015 22/21 A2994=
201101111300 METAR MRLM 111300Z 24008KT 9999 FEW006 OVC012 22/21 A2997 RERA RMK RA/HZ ARND=
201101111400 METAR MRLM 111400Z 21006KT 9999 DZ OVC015 23/21 A2998 RMK RN HZ ARND=
201101111500 METAR MRLM 111500Z 19006KT 9999 BKN015 25/22 A2998 REDZ RMK FEW140 RA DST NE E SE S SW HZY=
201101111600 METAR MRLM 111600Z 19005KT 9999 BKN020 28/23 A2996 RMK FEW130 RA DST WS W NW N NE HZ LGT ARND=
201101111700 METAR MRLM 111700Z 03003KT 9999 OVC025TCU 29/23 A2994 RMK RA HZ ARND=
201101111800 METAR MRLM 111800Z 10004KT 8000 VCSH OVC025TCU 29/23 A2991 RERA RMK RN/HZ ARND=
201101111900 METAR MRLM 111900Z 05003KT 8000 VCSH OVC025TCU 28/23 A2988 RMK RN HZ ARND VIS S SW W UNLD=
201101112000 METAR MRLM 112000Z 34010KT 5000 RA OVC015 26/23 A2987=
201101112100 METAR MRLM 112100Z 26003KT 8000 VCSH OVC015 25/23 A2985 RERA RMK VIS UNL NW N NE HZ ARND=
201101112200 METAR MRLM 112200Z 29003KT 8000 VCSH BKN012 26/24 A2986 RMK VIS UNL E NE HZ ARND FEW070=
201101112300 METAR MRLM 112300Z 33005KT 9999 OVC012 26/24 A2987 RERA RMK RA HZ ARND=
201101120000 METAR MRLM 120000Z 02009KT 9999 BKN012TCU 26/23 A2989 RMK RA HZ ARND FEW090=
201101120100 METAR MRLM NIL=
201101120200 METAR MRLM NIL=
201101120300 METAR MRLM NIL=
201101120400 METAR MRLM NIL=
201101120500 METAR MRLM NIL=
201101120600 METAR MRLM NIL=
201101120700 METAR MRLM NIL=
201101120800 METAR MRLM NIL=
201101120900 METAR MRLM NIL=
201101121000 METAR MRLM NIL=
201101121100 METAR MRLM NIL=
201101121200 METAR MRLM 121200Z NIL=
201101121300 METAR MRLM 121300Z 21004KT 9999 BKN007 23/22 A2993 RMK FEW090 RA DST NE N HZ ARND=
201101121400 METAR MRLM 121400Z 20005KT 9999 FEW015 SCT100 25/23 A2996 RMK RA DST NE HZ ARND=
201101121500 METAR MRLM 121500Z 00000KT 9999 DZ SCT020TCU SCT100 29/24 A2977 RMK VIS 6000 N HZ ARND=
201101121600 METAR MRLM 121600Z 00000KT 9999 BKN010 SCT090 23/22 A2997 RERA RMK RA DST E SE HZ ARND=
201101121700 METAR MRLM 121700Z 21005KT 9999 -DZ BKN015 SCT100 25/23 A2995 RMK RA DST SE HZ ARND=
201101121800 METAR MRLM 121800Z 20005KT 9999 BKN020 SCT100 27/23 A2992 RMK RA DST NE E HZ ARND=
201101121900 METAR MRLM 121900Z 21004KT 9999 SCT025 SCT100 28/23 A2989 RMK RA DST N NE HZ ARND=
201101122000 METAR MRLM 122000Z 32005KT 8000 +DZ VCSH BKN010 24/22 A2988 RERA RMK FEW090 HZ ARND=
201101122100 METAR MRLM 122100Z 00000KT 8000 DZ VCSH BKN010 24/23 A2987 RMK FEW090 HZ ARND=
201101122200 METAR MRLM 122200Z 19003KT 9999 RA BKN007 23/22 A2987 RMK FEW080 VIS 7000 QUAD N=
201101122300 METAR MRLM 122300Z 22003KT 8000 RA OVC007 23/22 A2989 RMK VIS 5000 QUAD N=
201101130000 METAR MRLM 130000Z 20006KT 7000 RA OVC007 23/23 A2991 RMK VIS 4000 QUAD N=
201101130100 METAR MRLM NIL=
201101130200 METAR MRLM NIL=
201101130300 METAR MRLM NIL=
201101130400 METAR MRLM NIL=
201101130500 METAR MRLM NIL=
201101130600 METAR MRLM NIL=
201101130700 METAR MRLM NIL=
201101130800 METAR MRLM NIL=
201101130900 METAR MRLM NIL=
201101131000 METAR MRLM NIL=
201101131100 METAR MRLM NIL=
201101131200 METAR MRLM NIL=
201101131300 METAR MRLM 131300Z 16003KT 6000 RA FEW006 OVC010 22/21 A2996 RMK VIS 4KM QUAD N=
201101131400 METAR MRLM 131400Z 19004KT 8000 DZ FEW007 BKN010 22/22 A2998 RERA RMK FEW080 RA DIST CUAD N=
201101131500 METAR MRLM 131500Z 21003KT 9999 -DZ FEW007 BKN010 23/22 A2999 RMK FEW090 RA DIST W/ NW/ N/ E. HZ ARND=
201101131600 METAR MRLM 131600Z 24005KT 9999 -DZ BKN010 24/23 A2998 RMK FEW090 RA DST NW N HZ ARND=
201101131700 METAR MRLM 131700Z 23005KT 9999 -DZ BKN015 SCT090 24/22 A2997 RMK RA DST W N E HZ ARND=
201101131800 METAR MRLM 131800Z 22005KT 9999 BKN020 SCT100 26/22 A2993 RMK HZ ARND=
201101131900 METAR MRLM 131900Z 23005KT 9999 SCT030 SCT110 28/22 A2990 RMK TCU DST N HZ ARND=
201101132000 METAR MRLM NIL=
201101132100 METAR MRLM 132100Z 28005KT 9999 BKN020 SCT100 26/22 A2987 REDZ RMK RN DST E SE S HZ ARND=
201101132200 METAR MRLM 132200Z 21004KT 9999 DZ VCSH BKN010 24/22 A2988 RMK FEW090 VIS 8KMS N=
201101132300 METAR MRLM 132300Z 25005KT 9999 -DZ FEW007 BKN010 24/22 A2989 RMK FEW090 RN DST W HZ ARND=
201101140000 METAR MRLM 140000Z 23004KT 9999 DZ BKN007 23/22 A2990 RMK FEW090 CB RN DST N HZ ARND=
201101140100 METAR MRLM NIL=
201101140200 METAR MRLM NIL=
201101140300 METAR MRLM NIL=
201101140400 METAR MRLM NIL=
201101140500 METAR MRLM NIL=
201101140600 METAR MRLM NIL=
201101140700 METAR MRLM NIL=
201101140800 METAR MRLM NIL=
201101140900 METAR MRLM NIL=
201101141000 METAR MRLM NIL=
201101141100 METAR MRLM NIL=
201101141200 METAR MRLM NIL=
201101141300 METAR MRLM 141300Z 23005KT 4000 RA BKN020 22/21 A2994=
201101141400 METAR MRLM 141400Z 20003KT 8000 DZ VCSH OVC015 23/22 A2996 RERA RMK VIS UNL SE S SW=
201101141500 METAR MRLM NIL=
201101141600 METAR MRLM 141600Z 24005KT 9999 FEW007 BKN015 24/23 A2995 REDZ RMK VIS 8KMS NW N NE DUE RA FEW080=
201101141700 METAR MRLM 141700Z 26006KT 1000 +SHRA OVC015TCU 24/23 A2994=
201101141800 METAR MRLM 141800Z 25004KT 4000 RA BKN012 23/22 A2992 RMK FEW090=
201101141900 METAR MRLM 141900Z 25005KT 8000 RA FEW005 OVC015 24/23 A2988 RMK VIS UNL E=
201101142000 METAR MRLM 142000Z 25004KT 9999 DZ FEW006 BKN015 25/23 A2986 RMK RA HZ ARND RERA=
201101142100 METAR MRLM 142100Z 25005KT 8000 DZ VCSH SCT010 SCT018 25/23 A2986 RMK VIS UNL S SW W=
201101142200 METAR MRLM 142200Z 25004KT 8000 VCSH FEW007 BKN015 24/23 A2986 RERA RMK VIS UNL SW W HZ ARND FEW080=
201101142300 METAR MRLM 142300Z 22004KT 3000 TSRA FEW005 FEW010CB BKN015 24/23 A2987 RMK VIS 8KM S SW TS NW=
201101150000 METAR MRLM 150000Z 20006KT 3000 RA FEW003 OVC010 23/22 A2988 RETS=
201101150100 METAR MRLM NIL=
201101150200 METAR MRLM NIL=
201101150300 METAR MRLM NIL=
201101150400 METAR MRLM NIL=
201101150500 METAR MRLM NIL=
201101150600 METAR MRLM NIL=
201101150700 METAR MRLM NIL=
201101150800 METAR MRLM NIL=
201101150900 METAR MRLM NIL=
201101151000 METAR MRLM NIL=
201101151100 METAR MRLM NIL=
201101151200 METAR MRLM NIL=
201101151300 METAR MRLM 151300Z 26004KT 8000 DZ VCSH OVC012 23/22 2992 RMK INUNDATED RWY=
201101151400 METAR MRLM 151400Z 28002KT 4000 RA FEW003 OVC012 23/22 A2995 RMK INUNDATED RWY HZ ARND=
201101151500 METAR MRLM 151500Z 29007KT 7000 +DZ VCSH SCT004 SCT012 23/22 A2996 RERA RMK INUNDATED RWY=
201101151600 METAR MRLM 151600Z 26003KT 8000 VCSH SCT004 SCT012 23/22 A2996 RMK RAMPA INUNDADA=
201101151700 METAR MRLM 151700Z 19004KT 3000 +DZ VCSH SCT005 BKN012 23/21 A2996 RMK INUNDATED RAMP VIS 8KM NW=
201101151800 METAR MRLM 151800Z 20006KT 5000 RA SCT004 BKN015 23/22 A2993 RMK INUNDATED RAMP FEW090 HZ ARND=
201101151900 METAR MRLM 151900Z 20004KT 7000 -DZ VCSH SCT004 SCT015 23/22 A2991 RERA RMK RAMPA INUNDADA FEW090 HZ ARND=
201101152000 METAR MRLM 152000Z 20005KT 9999 -DZ SCT020 SCT080 24/22 A2987 RMK RN HZ ARND FEW100=
201101152100 METAR MRLM 152100Z 23004KT 9999 FEW020 BKN080 27/22 A2985 RMK FEW100 RA DST SW W N NE E HZ ARND=
201101152200 METAR MRLM 152200Z 31004KT 9999 FEW008 BKN020 25/23 A2986 RMK FEW080 RA NW N NE E HZ ARND=
201101152300 METAR MRLM 152300Z 30005KT 7000 RA BKN020 23/22 A2987 RMK FEW090 HZ ARND=
201101160000 METAR MRLM 160000Z 22002KT 9999 OVC015 23/22 A2989 RERA RMK RA ARND=
201101160100 METAR MRLM NIL=
201101160200 METAR MRLM NIL=
201101160300 METAR MRLM NIL=
201101160400 METAR MRLM NIL=
201101160500 METAR MRLM NIL=
201101160600 METAR MRLM NIL=
201101160700 METAR MRLM NIL=
201101160800 METAR MRLM NIL=
201101160900 METAR MRLM NIL=
201101161000 METAR MRLM NIL=
201101161100 METAR MRLM NIL=
201101161200 METAR MRLM NIL=
201101161300 METAR MRLM 161300Z 24003KT 9999 FEW015 BKN110 22/21 A2990 RMK HZ ARND=
201101161400 METAR MRLM 161400Z 25002KT CAVOK 24/22 A2992 RMK BKN110 HZ ARND=
201101161500 METAR MRLM 161500Z 00000KT CAVOK 26/22 A2993 RMK BKN110 HZ ARND=
201101161600 METAR MRLM 161600Z 00000KT CAVOK 28/23 A2992 RMK BKN120 HZ ARND=
201101161700 METAR MRLM 161700Z 01005KT 9999 FEW025 28/23 A2990 RMK FEW130 HZ ARND=
201101161800 METAR MRLM 161800Z 36007KT 9999 FEW030 28/22 A2987 RMK HZ ARND=
201101161900 METAR MRLM 161900Z 36007KT 9999 FEW030 28/22 A2984 RMK HZ ARND=
201101162000 METAR MRLM 162000Z 36007KT 9999 FEW030 28/22 A2982 RMK FEW250 HZ ARND=
201101162100 METAR MRLM 162100Z 36006KT 9999 FEW030 28/22 A2981 RMK HZ LGT ARND=
201101162200 METAR MRLM 162200Z 36004KT 9999 FEW025 28/23 A2981 RMK FEW250 HZ LGT ARND=
201101162300 METAR MRLM 162300Z 01005KT 9999 FEW020 SCT250 27/22 A2982 RMK FEW130 HZ ARND=
201101170000 METAR MRLM 170000Z 35004KT 9999 FEW015 SCT250 26/23 A2983 RMK FEW120 HZ ARND=
201101170100 METAR MRLM NIL=
201101170200 METAR MRLM NIL=
201101170300 METAR MRLM NIL=
201101170400 METAR MRLM NIL=
201101170500 METAR MRLM NIL=
201101170600 METAR MRLM NIL=
201101170700 METAR MRLM NIL=
201101170800 METAR MRLM NIL=
201101170900 METAR MRLM NIL=
201101171000 METAR MRLM NIL=
201101171100 METAR MRLM NIL=
201101171200 METAR MRLM 171200Z NIL=
201101171220 METAR MRLM 171220Z 20004KT 9999 BKN010 22/21 A2991 RMK FEW090 RA DST N NE HZ ARND=
201101171300 METAR MRLM 171300Z 16003KT 9999 BKN015 SCT100 22/21 A2991 RMK RA DST N NE HZ ARND=
201101171400 METAR MRLM 171400Z 18003KT 9999 FEW020 BKN110 24/22 A2991 RMK HZ ARND=
201101171500 METAR MRLM 171500Z 24003KT 9999 SCT020 SCT110 25/22 A2992 RMK HZ ARND=
201101171600 METAR MRLM 171600Z 28003KT 9999 SCT025 SCT110 27/22 A2993 RMK HZ ARND=
201101171700 METAR MRLM 171700Z 36010KT 9999 BKN020 SCT110 26/23 A2992 RMK RA DST N HZ ARND=
201101171800 METAR MRLM 171800Z 02010KT 9999 BKN020 SCT120 26/22 A2990 RMK RA DST N HZ ARND=
201101171900 METAR MRLM 171900Z 02012KT 9999 -DZ BKN015 SCT100 25/22 A2988 RMK RA DST NE HZ ARND=
201101172000 METAR MRLM 172000Z 07006KT 9999 -DZ SCT015 SCT100 26/22 A2986 RMK RN=
201101172100 METAR MRLM 172100Z 14003KT 9999 SCT020 SCT100 27/21 A2984 RMK RA DST NE HZ ARND=
201101172200 METAR MRLM 172200Z 00000KT 9999 SCT025 BKN100 28/21 A2982 RMK HZ ARND=
201101172300 METAR MRLM 172300Z 00000KT 9999 SCT020 BKN100 28/21 A2982=
201101180000 METAR MRLM 180000Z 00000KT 9999 FEW015 BKN100 25/22 A2984 RMK HZ ARND=
201101180100 METAR MRLM NIL=
201101180200 METAR MRLM NIL=
201101180300 METAR MRLM NIL=
201101180400 METAR MRLM NIL=
201101180500 METAR MRLM NIL=
201101180600 METAR MRLM NIL=
201101180700 METAR MRLM NIL=
201101180800 METAR MRLM NIL=
201101180900 METAR MRLM NIL=
201101181000 METAR MRLM NIL=
201101181100 METAR MRLM NIL=
201101181200 METAR MRLM NIL=
201101181300 METAR MRLM 181300Z 23004KT 9999 NSC 23/22 A2991 RMK HZ ARND=
201101181400 METAR MRLM 181400Z 00000KT 9999 NSC 28/22 A2994 RMK HZ ARND=
201101181500 METAR MRLM 181500Z 02005KT 9999 FEW015 27/23 A2996 RMK FEW140 HZ ARND=
201101181600 METAR MRLM 181600Z 03007KT SCT018 27/23 A2995 RMK FEW130 HZ ARND=
201101181700 METAR MRLM 181700Z 06009KT 9999 FEW015 BKN090 27/23 A2992 RMK HZ ARND=
201101181800 METAR MRLM 181800Z 08004KT 9999 FEW020 SCT090 27/23 A2990 RMK SCT130 HZ LEVE ARND=
201101181900 METAR MRLM 181900Z 06004KT 9999 FEW020 BKN090 28/23 A2987 RMK HZ LGT ARND=
201101182000 METAR MRLM 182000Z 07006KT 9999 FEW025 SCT090 28/22 A2985 RMK HZ LGT ARND=
201101182100 METAR MRLM 182100Z 04007KT 9999 FEW025 SCT100 28/22 A2984 RMK LGT HZ ARND=
201101182200 METAR MRLM 182200Z 02003KT 9999 FEW020 SCT090 27/23 A2984 RMK FEW110 HZ ARND=
201101182300 METAR MRLM 182300Z 04005KT 9999 FEW020 BKN080 27/22 A2986 RMK LGT HZ ARND=
201101190000 METAR MRLM 190000Z 04003KT 9999 FEW018 BKN070 27/23 A2987 RMK LGT HZ ARND FEW300=
201101190100 METAR MRLM NIL=
201101190200 METAR MRLM NIL=
201101190300 METAR MRLM NIL=
201101190400 METAR MRLM NIL=
201101190500 METAR MRLM NIL=
201101190600 METAR MRLM NIL=
201101190700 METAR MRLM NIL=
201101190800 METAR MRLM NIL=
201101190900 METAR MRLM NIL=
201101191000 METAR MRLM NIL=
201101191100 METAR MRLM NIL=
201101191200 METAR MRLM 191200Z 22003KT CAVOK 22/21 A2993 RMK SCT080 HZ ARND LGT=
201101191300 METAR MRLM 191300Z 21004KT CAVOK 23/21 A2995 RMK SCT080 LGT HZ ARND=
201101191400 METAR MRLM 191400Z 23003KT CAVOK 27/22 A2997 RMK SCT110 LGT HZ ARND=
201101191500 METAR MRLM 191500Z 05003KT CAVOK 28/22 A2997 RMK FEW110 LGT HZ ARND=
201101191600 METAR MRLM 191600Z 36006KT 9999 FEW022 28/23 A2996 RMK LGT HZ ARND=
201101191700 METAR MRLM 191700Z 36004KT 9999 FEW022 28/23 A2994 RMK FEW300 LGT HZ ARND=
201101191800 METAR MRLM 191800Z 02008KT 9999 FEW025 28/23 A2992 RMK LGT HZ ARND FEW300=
201101191900 METAR MRLM 191900Z 02006KT 9999 FEW025 28/22 A2990 RMK FEW300 LGT HZ ARND=
201101192000 METAR MRLM 192000Z 02008KT 9999 FEW030 28/22 A2990 RMK FEW120 FEW300 LGT HZ ARND=
201101192100 METAR MRLM 192100Z 02005KT 9999 FEW025 SCT120 28/22 A2987 RMK FEW300 CB DST S LGT HZ ARND=
201101192200 METAR MRLM 192200Z 09010KT 9999 NSC 32/18 A2973=
201101192300 METAR MRLM 192300Z 02003KT 9999 SCT020 BKN080 28/23 A2989 RMK CB DSR SW LGT HZ ARND=
201101200000 METAR MRLM 200000Z 22002KT 9999 BKN012 26/23 A2990 RMK FEW090 RN DST E LGT HZ ARND=
201101200100 METAR MRLM NIL=
201101200200 METAR MRLM NIL=
201101200300 METAR MRLM NIL=
201101200400 METAR MRLM NIL=
201101200500 METAR MRLM NIL=
201101200600 METAR MRLM NIL=
201101200700 METAR MRLM NIL=
201101200800 METAR MRLM NIL=
201101200900 METAR MRLM NIL=
201101201000 METAR MRLM NIL=
201101201100 METAR MRLM NIL=
201101201200 METAR MRLM 201200Z NIL=
201101201300 METAR MRLM 201300Z 00000KT CAVOK 23/21 A2991 RMK BKN250 HZ ARND=
201101201400 METAR MRLM 201400Z 00000KT CAVOK 27/21 A2994 RMK FEW140 BKN250 HZ ARND=
201101201500 METAR MRLM 201500Z 06002KT 9999 FEW030 SCT250 27/22 A2995 RMK FEW140 HZ ARND=
201101201600 METAR MRLM 201600Z 36004KT 9999 FEW030 BKN140 27/23 A2994 RMK FEW250 HZ ARND=
201101201700 METAR MRLM 201700Z 01006KT 9999 FEW025 BKN140 28/23 A2992 RMK HZ ARND=
201101201800 METAR MRLM 201800Z 01006KT 9999 FEW025 BKN130 28/22 A2989 RMK HZ ARND=
201101201900 METAR MRLM 201900Z 01006KT CAVOK 28/22 A2987 RMK BKN130 HZ ARND=
201101202000 METAR MRLM 202000Z 01006KT 9999 FEW030 BKN130 28/21 A2984 RMK HZ ARND=
201101202100 METAR MRLM 202100Z 03006KT 9999 FEW030 BKN120 28/22 A2984 RMK HZ ARND=
201101202200 METAR MRLM 202200Z 04004KT 9999 FEW025 BKN120 27/25 A2984 RMK HZ ARND=
201101202300 METAR MRLM 202300Z 00000KT 9999 SCT025 BKN110 28/22 A2984 RMK HZ ARND=
201101210000 METAR MRLM 210000Z 00000KT 9999 SCT020 BKN110 26/23 A2984 HA ARND=
201101210100 METAR MRLM NIL=
201101210200 METAR MRLM NIL=
201101210300 METAR MRLM NIL=
201101210400 METAR MRLM NIL=
201101210500 METAR MRLM NIL=
201101210600 METAR MRLM NIL=
201101210700 METAR MRLM NIL=
201101210800 METAR MRLM NIL=
201101210900 METAR MRLM NIL=
201101211000 METAR MRLM NIL=
201101211100 METAR MRLM NIL=
201101211200 METAR MRLM 211200Z 21004KT CAVOK 20/19 A2987 RMK SCT250 HZ ARND=
201101211300 METAR MRLM 211300Z 23003KT CAVOK 22/20 A2989 RMK BKN250 HZ ARND=
201101211400 METAR MRLM 211400Z 21003KT CAVOK 26/21 A2991 RMK BKN260 RMK HZ ARND=
201101211500 METAR MRLM 211500Z 00000KT CAVOK 28/22 A2992 RMK BKN260 HZ ARND=
201101211600 METAR MRLM 211600Z 05004KT 9999 FEW030 BKN260 28/22 A2992 RMK HZ ARND=
201101211700 METAR MRLM 211700Z 04004KT 9999 FEW030 BKN260 28/22 A2990 HZ ARND=
201101211800 METAR MRLM 211800Z 04004KT CAVOK 28/21 A2987 RMK BKN260 HZ ARND=
201101211900 METAR MRLM 211900Z 02004KT CAVOK 28/22 A2984 RMK BKN260 HZ ARND=
201101212000 METAR MRLM 212000Z 02005KT CAVOK 28/22 A2981 RMK BKN250 HZ ARND=
201101212100 METAR MRLM 212100Z 04005KT CAVOK 28/22 A2979 RMK OVC250 HZ ARND=
201101212200 METAR MRLM 212200Z 01003KT 9999 FEW025 BKN250 27/22 A2989 RMK FEW130 HZ ARND=
201101212300 METAR MRLM 212300Z 36003KT 9999 FEW025 SCT120 27/22 A2979 RMK SCT250 HZ ARND=
201101220000 METAR MRLM 220000Z 92992KT 9999 FEW020 BKN110 26/22 A2984 RMK HZ ARND=
201101220100 METAR MRLM NIL=
201101220200 METAR MRLM NIL=
201101220300 METAR MRLM NIL=
201101220400 METAR MRLM NIL=
201101220500 METAR MRLM NIL=
201101220600 METAR MRLM NIL=
201101220700 METAR MRLM NIL=
201101220800 METAR MRLM NIL=
201101220900 METAR MRLM NIL=
201101221000 METAR MRLM NIL=
201101221100 METAR MRLM NIL=
201101221200 METAR MRLM 221200Z NIL=
201101221300 METAR MRLM 221300Z 24003KT 9999 FEW015 SCT130 22/20 A2986 RMK HZ LGT ARND=
201101221400 METAR MRLM 221400Z 23004KT CAVOK 23/22 A2989 RMK BKN080 SCT120 FEW280 HZ ARND=
201101221500 METAR MRLM 221500Z 23003KT CAVOK 27/22 A2980 RMK SCT080 SCT120 HZ ARND LGT=
201101221600 METAR MRLM 221600Z 06003KT 9999 FEW022 SCT120 28/23 A2991 RMK FEW080 HZ ARND LGT=
201101221700 METAR MRLM 221700Z 05006KT 9999 FEW020 BKN280 28/23 A2989 RMK HZ LGT ARND=
201101221800 METAR MRLM 221800Z 02006KT 9999 FEW022 BKN280 28/23 A2988 RMK HZ LGT ARND=
201101221900 METAR MRLM 221900Z 05007KT 9999 FEW020 BKN270 28/23 A2985 RMK HZ LGT ARND=
201101222000 METAR MRLM 222000Z 05005KT 9999 FEW018 BKN260 27/23 A2982 RMK FEW150 HZ ARND=
201101222100 METAR MRLM 222100Z 07003KT 9999 SCT018 SCT260 27/23 A2982 RMK HZ LEVE ARND=
201101222200 METAR MRLM 222200Z 04003KT 9999 BKN020 27/23 A2982 RMK FEW260 HZ LEVE ARND=
201101222300 METAR MRLM 222300Z 04005KT 9999 OVC020 27/22 A2983 RMK HZ ARND=
201101222357 METAR MRLM 230000Z 04007KT 9999 SCT018 SCT260 26/22 A2984 RMK HZ LGT ARND FEW070=
201101230000 METAR MRLM 230000Z 04007KT 9999 SCT018 SCT260 26/22 A2984 RMK HZ LGT ARND FEW070=
201101230100 METAR MRLM NIL=
201101230200 METAR MRLM NIL=
201101230300 METAR MRLM NIL=
201101230400 METAR MRLM NIL=
201101230500 METAR MRLM NIL=
201101230600 METAR MRLM NIL=
201101230700 METAR MRLM NIL=
201101230800 METAR MRLM NIL=
201101230900 METAR MRLM NIL=
201101231000 METAR MRLM NIL=
201101231100 METAR MRLM NIL=
201101231200 METAR MRLM NIL=
201101231300 METAR MRLM 231300Z 21005KT 9999 FEW012 21/18 A2990 RMK FEW300 HZ LEVE ARND=
201101231400 METAR MRLM 231400Z 20005KT CAVOK 25/20 A2992 RMK FEW300 RMK HZ LEVE ARND=
201101231500 METAR MRLM 231500Z 08003KT 9999 FEW025 28/22 A2993 RMK FEW300 HZ LEVE ARND=
201101231600 METAR MRLM 231600Z 06005KT 9999 FEW022 SCT300 27/22 A2993 RMK HZ LEVE ARND=
201101231700 METAR MRLM 231700Z 04004KT 9999 FEW022 27/22 A2991 RMK FEW300 HZ LEVE ARND=
201101231800 METAR MRLM 231800Z 02007KT 9999 FEW025 SCT300 27/22 A2988 RMK HZ LEVE ARND=
201101231900 METAR MRLM 231900Z 36006KT 9999 FEW030 SCT280 28/21 A2986 RMK HZ LEVE ARND=
201101232000 METAR MRLM 232000Z 02006KT 9999 FEW028 SCT280 28/21 A2984 RMK HZ LEVE ARND=
201101232100 METAR MRLM 232100Z 36005KT 9999 FEW028 SCT280 28/22 A2983 LGT HZ ARND=
201101232200 METAR MRLM 232200Z 01007KT 9999 FEW035 28/20 A2984 RMK FEW300 LGT HZ ARND=
201101232300 METAR MRLM 232300Z 36007KT 9999 SCT025 SCT280 28/18 A2985 LGT HZ ARND=
201101240000 METAR MRLM 240000Z 33005KT 9999 SCT025 27/20 A2987 RMK LGT HZ ARND FEW280=
201101240100 METAR MRLM NIL=
201101240200 METAR MRLM NIL=
201101240300 METAR MRLM NIL=
201101240400 METAR MRLM NIL=
201101240500 METAR MRLM NIL=
201101240600 METAR MRLM NIL=
201101240700 METAR MRLM NIL=
201101240800 METAR MRLM NIL=
201101240900 METAR MRLM NIL=
201101241000 METAR MRLM NIL=
201101241100 METAR MRLM NIL=
201101241200 METAR MRLM NIL=
201101241300 METAR MRLM 241300Z 22005KT CAVOK 20/18 A2992 RMK BKN120 LGT HZ ARND=
201101241400 METAR MRLM 241400Z 23004KT CAVOK 25/19 A2993 RMK BKN130=
201101241500 METAR MRLM 241500Z 26002KT CAVOK 28/20 A2993 RMK FEW140 SCT270=
201101241600 METAR MRLM 241600Z 35007KT CAVOK 27/20 A2993 RMK FEW140 SCT270=
201101241700 METAR MRLM 241700Z 36006KT CAVOK 28/20 A2993 RMK FEW140 BKN270=
201101241800 METAR MRLM 241800Z 36007KT CAVOK 28/21 A2991 RMK SCT140 BKN270=
201101241900 METAR MRLM 241900Z 03004KT 9999 FEW030 SCT130 28/21 A2989 RMK SCT260=
201101242000 METAR MRLM 242000Z 02002KT 9999 FEW030 SCT130 28/21 A2987 RMK SCT270=
201101242100 METAR MRLM 242100Z 01004KT 9999 FEW030 BKN130 28/21 A2986 RMK FEW270=
201101242200 METAR MRLM 242200Z 00000KT 9999 FEW030 BKN120 28/21 A2986 RMK FEW260=
201101242300 METAR MRLM 242300Z 35004KT 9999 SCT025 BKN120 27/22 A2987=
201101250000 METAR MRLM 250000Z 36003KT 9999 SCT020 BKN110 26/21 A2989 RMK LGT HZ ARND=
201101250100 METAR MRLM NIL=
201101250200 METAR MRLM NIL=
201101250300 METAR MRLM NIL=
201101250400 METAR MRLM NIL=
201101250500 METAR MRLM NIL=
201101250600 METAR MRLM NIL=
201101250700 METAR MRLM NIL=
201101250800 METAR MRLM NIL=
201101250900 METAR MRLM NIL=
201101251000 METAR MRLM NIL=
201101251100 METAR MRLM NIL=
201101251200 METAR MRLM NIL=
201101251300 METAR MRLM 251300Z NIL=
201101251400 METAR MRLM 251400Z 20004KT 9999 SCT020 SCT110 24/21 A2993 RMK FEW250 HZ LEVE ARND=
201101251500 METAR MRLM 251500Z 17003KT 9999 SCT025 BKN110 27/22 A2993 RMK LGT HZ ARND=
201101251600 METAR MRLM 251600Z 10005KT 9999 BKN030 SCT110 28/22 A2994 RMK LGT HZ ARND=
201101251700 METAR MRLM 251700Z 09005KT 9999 SCT030 28/22 A2993 RMK FEW120 FEW250 HZ ARND=
201101251800 METAR MRLM 251800Z 09006KT 9999 FEW030 BKN260 28/22 A2990 RMK LGT HZ ARND=
201101251900 METAR MRLM 251900Z 09007KT CAVOK 28/22 A2986 RMK OVC260 HZ ARND=
201101252000 METAR MRLM 252000Z 07007KT CAVOK 28/22 A2984 RMK OVC260 HZ ARND=
201101252100 METAR MRLM 252100Z 07007KT CAVOK 28/22 A2982 RMK BKN270 HZ ARND=
201101252200 METAR MRLM 252200Z 06005KT CAVOK 28/22 A2982 RMK BKN250 HZ ARND=
201101252300 METAR MRLM 252300Z 03003KT 9999 FEW025 BKN250 27/22 A2982 RMK HZ ARND=
201101260000 METAR MRLM 260000Z 00000KT 9999 SCT015 BKN250 25/22 A2983 RMK HZ ARND=
201101260100 METAR MRLM NIL=
201101260200 METAR MRLM NIL=
201101260300 METAR MRLM NIL=
201101260400 METAR MRLM NIL=
201101260500 METAR MRLM NIL=
201101260600 METAR MRLM NIL=
201101260700 METAR MRLM NIL=
201101260800 METAR MRLM NIL=
201101260900 METAR MRLM NIL=
201101261000 METAR MRLM NIL=
201101261100 METAR MRLM NIL=
201101261200 METAR MRLM 261200Z 22004KT CAVOK 20/19 A2989 RMK BKN070 FEW080 FEW300 HZY=
201101261300 METAR MRLM 261300Z 21005KT CAVOK 21/19 A2990 RMK BKN070 FEW080 FEW300 HZ ARND=
201101261400 METAR MRLM 261400Z 23004KT CAVOK 23/20 A2992 RMK BKN070 FEW080 HZ ARND RA N NE=
201101261500 METAR MRLM 261500Z 27002KT CAVOK 27/21 A2995 RMK OVC080 HZ ARND RA NE E=
201101261600 METAR MRLM 261600Z 36006KT 9999 FEW032 BKN080 29/21 A2994 RMK HZ ARND RA NE E=
201101261700 METAR MRLM 261700Z 35004KT 9999 FEW032 SCT070 28/20 A2992 RMK SCT090 HZ ARND=
201101261800 METAR MRLM 261800Z 31003KT 9999 FEW030 BKN090 29/21 A2990 RMK FEW070 HZ ARND=
201101261900 METAR MRLM 261900Z 36009KT 9999 FEW030 BKN090 29/21 A2987 RMK HZ ARND=
201101262000 METAR MRLM 262000Z 36008KT 9999 FEW028 BKN090 29/22 A2984 RMK HZ ARND=
201101262100 METAR MRLM 262100Z 35009KT 9999 FEW030 BKN090 28/21 A2983 RMK LEVE HZ ARND=
201101262200 METAR MRLM 262200Z 34006KT 9999 FEW028 BKN090 29/22 A2984 RMK LEVE HZ ARND CB DST SE=
201101262300 METAR MRLM 262300Z 33008KT 9999 FEW022 SCT090 28/22 A2985 RMK HZ LEVE ARND FEW300=
201101270000 METAR MRLM 270000Z 28002KT CAVOK 26/22 A2987 RMK SCT090 SCT300 HZ LEVE ARND=
201101270100 METAR MRLM NIL=
201101270200 METAR MRLM NIL=
201101270300 METAR MRLM NIL=
201101270400 METAR MRLM NIL=
201101270500 METAR MRLM NIL=
201101270600 METAR MRLM NIL=
201101270700 METAR MRLM NIL=
201101270800 METAR MRLM NIL=
201101270900 METAR MRLM NIL=
201101271000 METAR MRLM NIL=
201101271100 METAR MRLM NIL=
201101271200 METAR MRLM 271200Z NIL=
201101271212 METAR MRLM 271212Z 21004KT 9999 FEW025 BKN080 21/20 A2991 RMK FEW100 RN DST N NE E DZ SE S=
201101271300 METAR MRLM 271300Z 22003KT 9999 SCT025 SCT080 22/20 A2992 RMK RA DST SE HZ ARND LGT=
201101271400 METAR MRLM 271400Z 34003KT CAVOK 27/21 A2995 RMK SCT070 RA DST TCU N NE HZ ARND LGT=
201101271500 METAR MRLM 271500Z 36013KT 9999 FEW012 BKN025 25/22 A2998 RMK FEW080 RA DST N NE HZ ARND LGT=
201101271600 METAR MRLM 271600Z 36006KT 9999 DZ SCT015 SCT090 25/22 A2999 RMK RA DST N E HZ ARND LGT=
201101271700 METAR MRLM 271700Z 06003KT 9999 DZ FEW015 SCT080 25/21 A2998 RMK SCT100 HZ DST ARND=
201101271800 METAR MRLM 271800Z 19005KT 9999 FEW022 BKN080 26/21 A2995 REDZ RMK FEW100 TCU RA DST NE HZ ARND=
201101271900 METAR MRLM 271900Z 16003KT 9999 SCT030 SCT100 29/22 A2992 RMK FEW100 TCU RA SDT NE DZ SW=
201101272000 METAR MRLM 272000Z 36004KT 9999 FEW025 SCT080 28/22 A2989 RMK SCT100 DZ NW W HZ ARND=
201101272100 METAR MRLM 272100Z 35005KT 9999 FEW025 BKN090 27/21 A2988 RMK FEW080 HZ ARND RA DST SW NW=
201101272200 METAR MRLM 272200Z 35012KT 9999 FEW030 BKN090 28/20 A2988 RMK HZ ARND=
201101272300 METAR MRLM 272300Z 26002KT CAVOK 27/21 A2988 RMK FEW070 BKN090 HZ ARND=
201101280000 METAR MRLM 280000Z 25002KT CAVOK 25/21 A2989 RMK BKN080 FEW100 HZ ARND=
201101280100 METAR MRLM NIL=
201101280200 METAR MRLM NIL=
201101280300 METAR MRLM NIL=
201101280400 METAR MRLM NIL=
201101280500 METAR MRLM NIL=
201101280600 METAR MRLM NIL=
201101280700 METAR MRLM NIL=
201101280800 METAR MRLM NIL=
201101280900 METAR MRLM NIL=
201101281000 METAR MRLM NIL=
201101281100 METAR MRLM NIL=
201101281200 METAR MRLM 281200Z 22005KT CAVOK 21/20 A2993 RMK BKN110 HZ ARND=
201101281300 METAR MRLM 281300Z 21004KT CAVOK 22/20 A2995 RMK SCT120 HZ ARND=
201101281400 METAR MRLM 281400Z 23003KT CAVOK 26/21 A2998 RMK SCT130 HZ ARND=
201101281500 METAR MRLM 281500Z 26003KT CAVOK 28/21 A2999 RMK SCT270 HZ ARND=
201101281600 METAR MRLM 281600Z 32005KT 9999 FEW040 SCT270 30/21 A2998 RMK FEW140 HZ ARND=
201101281700 METAR MRLM 281700Z 36009KT 9999 FEW040 SCT130 29/22 A2997 RMK FEW270 HZ ARND=
201101281800 METAR MRLM 281800Z 01008KT 9999 FEW040 BKN130 29/21 A2994 RMK HZ ARND=
201101281900 METAR MRLM 281900Z 36009KT CAVOK 29/22 A2991 RMK BKN130 RMK HZ ARND=
201101282000 METAR MRLM 282000Z 36011KT 9999 FEW030 BKN120 29/23 A2989 RMK HZ ARND=
201101282100 METAR MRLM 282100Z 35002KT 9999 FEW030 BKN110 28/23 A2988 HZ ARND=
201101282200 METAR MRLM 282200Z 36006KT 9999 FEW025 BKN100 27/22 A2989 HZ ARND=
201101282300 METAR MRLM 282300Z 33006KT 9999 SCT025 BKN100 27/22 A2990 RMK HZ ARND=
201101290000 METAR MRLM 290000Z 00000KT 9999 BKN020 SCT100 26/22 A2992 RMK HZ ARND=
201101290100 METAR MRLM NIL=
201101290200 METAR MRLM NIL=
201101290300 METAR MRLM NIL=
201101290400 METAR MRLM NIL=
201101290500 METAR MRLM NIL=
201101290600 METAR MRLM NIL=
201101290700 METAR MRLM NIL=
201101290800 METAR MRLM NIL=
201101290900 METAR MRLM NIL=
201101291000 METAR MRLM NIL=
201101291100 METAR MRLM NIL=
201101291200 METAR MRLM 291200Z 21004KT 9999 BKN010 22/21 A2999 RMK FEW100 RA DST SE S HZ ARND=
201101291300 METAR MRLM 291300Z 21003KT 9999 DZ BKN010 22/21 A3001 RMK FEW100 RN DST E HZ ARND=
201101291400 METAR MRLM 291400Z 19004KT 9999 DZ BKN010 22/21 A3004 RMK FEW100 RN DST E SE S HZ ARND=
201101291500 METAR MRLM 291500Z 19005KT 9999 BKN015 SCT100 24/22 A3005 REDZ RMK RN DST NE E HZ ARND=
201101291600 METAR MRLM 291600Z 00000KT 9999 SCT020 SCT110 25/22 A3005 RMK RN DST NE E HZ ARND=
201101291700 METAR MRLM 291700Z 18004KT 9999 -DZ SCT020 SCT110 25/22 A3002 RMK HZ ARND=
201101291800 METAR MRLM 291800Z 12004KT 9999 SCT030 29/22 A3000 RMK FEW120 HZ ARND=
201101291900 METAR MRLM 291900Z 05004KT 9999 FEW035 28/21 A2997 RMK LGT HZ ARND=
201101292000 METAR MRLM 292000Z 03005KT 9999 FEW035 29/21 A2995 RMK HZ LGT ARND=
201101292100 METAR MRLM 292100Z 02007KT 9999 FEW035 29/22 A2993=
201101292200 METAR MRLM 292200Z 02006KT 9999 FEW040 29/21 A2993=
201101292300 METAR MRLM 292300Z 03008KT 9999 NSC 28/22 A2994=
201101300000 METAR MRLM 300000Z 03008KT CAVOK 26/22 A2996 RMK SCT270 LGT HZ ARND=
201101300100 METAR MRLM NIL=
201101300200 METAR MRLM NIL=
201101300300 METAR MRLM NIL=
201101300400 METAR MRLM NIL=
201101300500 METAR MRLM NIL=
201101300600 METAR MRLM NIL=
201101300700 METAR MRLM NIL=
201101300800 METAR MRLM NIL=
201101300900 METAR MRLM NIL=
201101301000 METAR MRLM NIL=
201101301100 METAR MRLM NIL=
201101301200 METAR MRLM NIL=
201101301300 METAR MRLM 301300Z 22004KT CAVOK 22/19 A3000 RMK FEW090 TCU DST NE HZ ARND=
201101301400 METAR MRLM 301400Z 00000KT CAVOK 24/20 A3003 RMK OVC080 LGT HZ ARND=
201101301500 METAR MRLM 301500Z 23002KT CAVOK 27/21 A3004 RMK OVC080 RN DST N NE LGT HZ ARND=
201101301600 METAR MRLM 301600Z 01006KT 9999 FEW025 BKN080 26/20 A3005 RMK RN DST N NE LGT HZ ARND=
201101301700 METAR MRLM 301700Z 01004KT 9999 FEW025 BKN080 27/21 A3002 RMK RN DST N NE LGT HZ ARND=
201101301800 METAR MRLM 301800Z 03006KT 9999 FEW025 BKN080 28/21 A3000 RMK RN DST N NE LGT HZ ARND=
201101301900 METAR MRLM 301900Z 03014KT 9999 FEW023 BKN080 27/21 A2998 RMK DZ N NE LGT HZ ARND=
201101302000 METAR MRLM 302000Z 36008KT 9999 FEW030 BKN080 27/19 A2995 RMK RN DST SW DZ NW N LGT HZ ARND=
201101302100 METAR MRLM 302100Z 01003KT 9999 SCT038 SCT080 28/19 A2993 RMK DZ E NW HZ ARND=
201101302200 METAR MRLM 302200Z 36005KT 9999 FEW038 SCT080 28/19 A2994 RMK HZ ARND=
201101302300 METAR MRLM 302300Z 25002KT 9999 SCT040 28/19 A2994 RMK FEW090 HZ ARND=
201101310000 METAR MRLM 310000Z 00000KT CAVOK 23/20 A2996 RMK HZ ARND FEW100=
201101310100 METAR MRLM NIL=
201101310200 METAR MRLM NIL=
201101310300 METAR MRLM NIL=
201101310400 METAR MRLM NIL=
201101310500 METAR MRLM NIL=
201101310600 METAR MRLM NIL=
201101310700 METAR MRLM NIL=
201101310800 METAR MRLM NIL=
201101310900 METAR MRLM NIL=
201101311000 METAR MRLM NIL=
201101311100 METAR MRLM NIL=
201101311200 METAR MRLM 311200Z 22004KT CAVOK 18/17 A2996 RMK SCT280 LGT HZ ARND=
201101311300 METAR MRLM 311300Z 00000KT CAVOK 21/20 A2998 RMK SCT280 HZ ARND=
201101311400 METAR MRLM 311400Z 00000KT CAVOK 25/19 A3001 RMK FEW100 FEW300 HZ ARND=
201101311500 METAR MRLM 311500Z 03003KT CAVOK 26/20 A3002 RMK FEW080 BKN120 FEW300 HZ ARND=
201101311600 METAR MRLM 311600Z 36006KT 9999 FEW030 BKN110 27/20 A3001 RMK FEW080 HZ ARND=
201101311700 METAR MRLM 311700Z 35005KT 9999 FEW028 BKN090 27/21 A2990 RMK DZ SE HZ ARND=
201101311800 METAR MRLM 311800Z 35005KT 9999 SCT028 SCT080 28/21 A2997 RMK DZ NE E SE HZ ARND=
201101311900 METAR MRLM 311900Z 05004KT 9999 BKN030 SCT080 27/20 A2995 RMK DZ NE E SE HZ ARND=
201101312000 METAR MRLM 312000Z 04017KT 9999 BKN025 SCT090 26/21 A2994 RMK DZ N E RA SW HZ ARND=
201101312100 METAR MRLM 312100Z 09006KT 9999 DZ SCT020 BKN090 26/21 A2992 RMK RN DST SW HZ LEVE ARND=
201101312200 METAR MRLM 312200Z 18005KT 9999 SCT018 BKN090 25/21 A2990 REDZ RMK DZ DST SE S SW W HZ LEVE ARND=
201101312300 METAR MRLM 312300Z 19005KT 9999 FEW018 BKN070 25/21 A2989 RMK DZ HZ DST ARND RN DST E FEW090=
201101312359 METAR MRLM 010000Z 19003KT 9999 SCT018 SCT080 24721 A2991 RMK DZ NE RN DST SE HZ ARND=
201102010000 METAR MRLM 010000Z 19003KT 9999 SCT018 SCT080 24721 A2991 RMK DZ NE RN DST SE HZ ARND=
201102010100 METAR MRLM NIL=
201102010200 METAR MRLM NIL=
201102010300 METAR MRLM NIL=
201102010400 METAR MRLM NIL=
201102010500 METAR MRLM NIL=
201102010600 METAR MRLM NIL=
201102010700 METAR MRLM NIL=
201102010800 METAR MRLM NIL=
201102010900 METAR MRLM NIL=
201102011000 METAR MRLM NIL=
201102011100 METAR MRLM NIL=
201102011200 METAR MRLM 011200Z 20004KT 9999 -DZ BKN007 22/21 A2993 RMK FEW090 RA DST N NE=
201102011300 METAR MRLM 011300Z 23004KT 9999 DZ BKN007 22/21 A2995 RMK FEW090 RA DST NW N=
201102011400 METAR MRLM 011400Z 26003KT 9999 BKN015 SCT100 24/22 A2996 REDZ RMK RA DST N HZ ARND=
201102011500 METAR MRLM 011500Z 00000KT 9999 FEW030 SCT120 27/22 A2998 RMK FEW250 HZ ARND=
201102011600 METAR MRLM 021600Z 01006KT 9999 FEW030 BKN120 27/22 A2997 RMK HX ARND=
201102011700 METAR MRLM 011700Z 35007KT 9999 SCT025 BKN110 27/22 A2996 RMK HZ ARND=
201102011800 METAR MRLM 011800Z 36006KT 9999 FEW030 28/23 A2977 RMK HZ ARND=
201102011900 METAR MRLM 011900Z 02007KT 9999 FEW030 28/23 A2990 RMK FEW130 NOSIG=
201102012000 METAR MRLM 012000Z 04007KT 9999 SCT030 28/23 A2987 RMK HZ ARND=
201102012100 METAR MRLM 012100Z 06006KT 9999 FEW035 29/22 A2985 RMK HZ ARND=
201102012200 METAR MRLM 012200Z 07006KT CAVOK 29/23 A2985 RMK FEW130 HZ ARND=
201102012300 METAR MRLM 012300Z 06006KT CAVOK 28/22 A2987 RMK FEW120 HZ ARND=
201102020000 METAR MRLM 020000Z 05007KT 9999 FEW02027/22 A2988 RMK FEW110 FEW250 HZ ARND=
201102020100 METAR MRLM NIL=
201102020200 METAR MRLM NIL=
201102020300 METAR MRLM NIL=
201102020400 METAR MRLM NIL=
201102020500 METAR MRLM NIL=
201102020600 METAR MRLM NIL=
201102020700 METAR MRLM NIL=
201102020800 METAR MRLM NIL=
201102020900 METAR MRLM NIL=
201102021000 METAR MRLM NIL=
201102021100 METAR MRLM NIL=
201102021200 METAR MRLM 021200Z 00000KT 9999 SCT008 21/20 A2992 RMK SCT100 RA NE E HZ ARND=
201102021300 METAR MRLM 021300Z 03004KT 9999 +DZ BKN008 22/21 A2995 RMK FEW090 RA DST N NE E=
201102021400 METAR MRLM 021400Z 21003KT 9999 BKN010 23/22 A2998 REDZ RMK FEW090 RA DST N E HZ ARND=
201102021500 METAR MRLM 021500Z 17004KT 9999 BKN010 SCT100 24/22 A2999 RMK HZ ARND=
201102021600 METAR MRLM 021600Z 19003KT 9999 SCT020 SCT100 28/23 A2999 RMK HZ ARND=
201102021700 METAR MRLM 021700Z 09003KT 9999 SCT030 28/22 A2998 RMK FEW110 HZ ARND=
201102021800 METAR MRLM 021800Z 09004KT 9999 FEW030 SCT120 29/23 A2996 RMK HZ ARND=
201102021900 METAR MRLM 021900Z 06006KT 9999 FEW030 SCT120 29/23 A2994 RMK HZ ARND=
201102022000 METAR MRLM 022000Z 06006KT 9999 FEW030 SCT110 28/22 A2990 RMK HZ ARND=
201102022100 METAR MRLM 022100Z 06006KT 9999 FEW030 28/23 A2988 RMK FEW250 HZ ARND=
201102022200 METAR MRLM 022200Z 07006KT 9999 FEW030 29/23 A2988 RMK FEW250 HZ ARND=
201102022300 METAR MRLM 022300Z 06005KT 9999 SCT025 BKN100 27/22 A2990=
201102030000 METAR MRLM 030000Z 05004KT 9999 BKN020 SCT100 27/22 A2991 RMK HZ ARND=
201102030100 METAR MRLM NIL=
201102030200 METAR MRLM NIL=
201102030300 METAR MRLM NIL=
201102030400 METAR MRLM NIL=
201102030500 METAR MRLM NIL=
201102030600 METAR MRLM NIL=
201102030700 METAR MRLM NIL=
201102030800 METAR MRLM NIL=
201102030900 METAR MRLM NIL=
201102031000 METAR MRLM NIL=
201102031100 METAR MRLM NIL=
201102031200 METAR MRLM NIL=
201102031300 METAR MRLM 031300Z 24004KT 9999 BKN015 22/21 A2995 RMK FEW090 VIS N 7KMS N NE SE DUE RN=
201102031400 METAR MRLM NIL=
201102031500 METAR MRLM 031500Z 21005KT 8000 DZ VCSH FEW006 BKN015 23/21 A3000 RMK VIS E SE S SW UNL=
201102031600 METAR MRLM 031600Z 20008KT 9999 BKN012TCU 25/22 A3000 REDZ RMK RN HZ ARND=
201102031700 METAR MRLM 031700Z 19006KT 9999 SCT018 27/22 A2998 RMK FEW080 LGT HZ ARND=
201102031800 METAR MRLM 031800Z 16004KT 9999 SCT028 29/22 A2996 RMK FEW130 LGT HZ ARND=
201102031900 METAR MRLM 031900Z 09007KT 9999 SCT028 29/22 A2993 RMK LGT HZ ARND FEW110=
201102032000 METAR MRLM 032000Z 11008KT 9999 SCT030 29/22 A2990 RMK LGT HZ ARND=
201102032100 METAR MRLM 032100Z 10007KT 9999 FEW032 29/22 A2988 RMK HZ ARND=
201102032200 METAR MRLM 032200Z 07008KT 9999 FEW028 28/22 A2988 RMK FEW130 LGT HZ ARND=
201102032300 METAR MRLM 032300Z 06006KT 9999 FEW028 SCT080 28/22 A2989 RMK LGT HZ ARND=
201102032355 METAR MRLM 040000Z 18003KT 9999 FEW015 BKN090 25/22 A2990 RMK FEW300 HZ LGT ARND=
201102040000 METAR MRLM 040000Z 18003KT 9999 FEW015 BKN090 25/22 A2990 RMK FEW300 HZ LGT ARND=
201102040100 METAR MRLM NIL=
201102040200 METAR MRLM NIL=
201102040300 METAR MRLM NIL=
201102040400 METAR MRLM NIL=
201102040500 METAR MRLM NIL=
201102040600 METAR MRLM NIL=
201102040700 METAR MRLM NIL=
201102040800 METAR MRLM NIL=
201102040900 METAR MRLM NIL=
201102041000 METAR MRLM NIL=
201102041100 METAR MRLM NIL=
201102041200 METAR MRLM NIL=
201102041228 METAR MRLM 041228Z 20006KT 9999 BKN015 22/21 A2995 RMK FEW080 RN HZ ARND=
201102041300 METAR MRLM 041300Z 09005KT 9999 OVC012 22/21 A2997 RMK RN HZ DST ARND=
201102041400 METAR MRLM 041400Z 20006KT 9999 SCT015 SCT080 23/21 A2999 RMK RN DST SE S SW W LGT HZ ARND=
201102041500 METAR MRLM 041500Z 21005KT 9999 SCT020 26/23 A2999 RMK FEW080 LGT HZ ARND=
201102041600 METAR MRLM 041600Z 17004KT 9999 SCT030 SCT110 28/21 A2998 RMK TCU RN DST N NE E LGT HZ ARND=
201102041700 METAR MRLM 041700Z 08006KT 9999 BKN030 SCT080 30/22 A2996 RMK RN DST NW N NE E SE HZ ARND=
201102041800 METAR MRLM 041800Z 09004KT 9999 FEW025 BKN080 29/22 A2994 RMK RN HZ ARND=
201102041900 METAR MRLM 041900Z 07005KT 9999 FEW028 BKN080 28/22 A2991 RMK DZ W LGT HZ ARND=
201102042000 METAR MRLM 042000Z 05004KT 9999 FEW028 SCT090 28/22 A2988 RMK LGT HZ ARND=
201102042100 METAR MRLM 042100Z 10006KT 9999 FEW033 SCT090 29/21 A2986 RMK HZ ARND=
201102042200 METAR MRLM 042200Z 09007KT 9999 FEW030 29/22 A2985 RMK HZ ARND=
201102042300 METAR MRLM 042300Z 08006KT CAVOK 28/22 A2986 RMK FEW090 RZ ARND=
201102050000 METAR MRLM 050000Z 08006KT CAVOK 27/22 A2986 RMK SCT120 FEW300 HZ ARND=
201102050100 METAR MRLM NIL=
201102050200 METAR MRLM NIL=
201102050300 METAR MRLM NIL=
201102050400 METAR MRLM NIL=
201102050500 METAR MRLM NIL=
201102050600 METAR MRLM NIL=
201102050700 METAR MRLM NIL=
201102050800 METAR MRLM NIL=
201102050900 METAR MRLM NIL=
201102051000 METAR MRLM NIL=
201102051100 METAR MRLM NIL=
201102051200 METAR MRLM 051200Z 14002KT 9999 -DZ VCSH BKN007 22/21 A2991 RMK FEW090 VIS N 8KMS HZ ARND=
201102051300 METAR MRLM 051300Z 00000KT 9999 DZ BKN010 23/21 A2993 RMK FEW090 VIS N 5KMS HZ ARND=
201102051400 METAR MRLM 051400Z 11004KT 6000 +RA BKN007 22/21 A2995 RMK FEW080=
201102051500 METAR MRLM 051500Z 14003KT 6000 RA OVC007 23/21 A2997=
201102051600 METAR MRLM 051600Z 19005KT 9999 BKN015 SCT090 24/22 A2995 RERA RMK RA DST N NE HZ ARND=
201102051700 METAR MRLM 051700Z 18005KT 9999 -DZ BKN020 SCT100 25/21 A2994 RMK HZ ARND=
201102051800 METAR MRLM 051800Z 20007KT 9999 SCT020 BKN100 25721 A2992 RMK HZ ARND=
201102051900 METAR MRLM 051900Z 19006KT 9999 SCT025 SCT110 26/20 A2989 RMK HZ ARND=
201102052000 METAR MRLM 052000Z 20004KT 9999 SCT030 BKN110 27/21 A2986 RMK HZ ARND=
201102052100 METAR MRLM 052100Z 18005KT 9999 SCT030 BKN110 28/20 A2984 RMK RA DST NW N HZ ARND=
201102052200 METAR MRLM 052200Z 31004KT 9999 -DZ BKN025 SCT100 26/21 A2984 RMK RA DST N HZ ARND=
201102052300 METAR MRLM 052300Z 23003KT 9999 BKN015 SCT100 23/21 A2985 RMK HZ ARND=
201102060000 METAR MRLM 060000Z 22003KT 9999 SCT010 SCT100 23/21 A2987=
201102060100 METAR MRLM NIL=
201102060200 METAR MRLM NIL=
201102060300 METAR MRLM NIL=
201102060400 METAR MRLM NIL=
201102060500 METAR MRLM NIL=
201102060600 METAR MRLM NIL=
201102060700 METAR MRLM NIL=
201102060800 METAR MRLM NIL=
201102060900 METAR MRLM NIL=
201102061000 METAR MRLM NIL=
201102061100 METAR MRLM NIL=
201102061200 METAR MRLM 061200Z NIL=
201102061221 METAR MRLM 061221Z 26004KT 9999 SCT015 BKN100 21/19 A2990 RMK HZ ARND=
201102061300 METAR MRLM 061300Z 22004KT 9999 SCT015 BKN100 22/19 A2991 RMK HZ ARND=
201102061400 METAR MRLM 061400Z 20006KT 9999 FEW020 BKN110 23/20 A2994 RMK HZ ARND=
201102061500 METAR MRLM 061500Z 26003KT CAVOK 28/20 A2995 RMK SCT130 HZ ARND=
201102061600 METAR MRLM 061600Z 27004KT 9999 NSC 28/18 A2995=
201102061700 METAR MRLM 061700Z 02005KT 9999 NSC 29/20 A2993=
201102061800 METAR MRLM 061800Z 35010KT 9999 FEW040 28/20 A2991 RMK FEW140=
201102061900 METAR MRLM 061900Z 35007KT 9999 FEW040 28/20 A2989 RMK FEW140=
201102062000 METAR MRLM 062000Z 35009KT 9999 FEW040 29/21 A2987 RMK FEW140=
201102062100 METAR MRLM 062100Z 35007KT CAVOK 28/21 A2986 RMK FEW140 HZ ARND LGT=
201102062200 METAR MRLM 062200Z 35006KT CAVOK 28/21 A2986 RMK FEW130 HZ LGT ARND=
201102062300 METAR MRLM 062300Z 35004KT CAVOK 28/21 A2986 SCT130 HZ LGT ARND=
201102062354 METAR MRLM 070000Z 35005KT 9999 FEW025 SCT120 26/21 A2989 RMK SCT250 HZ LGT ARND=
201102070000 METAR MRLM 070000Z 35005KT 9999 FEW025 SCT120 26/21 A2989 RMK SCT250 HZ LGT ARND=
201102070100 METAR MRLM NIL=
201102070200 METAR MRLM NIL=
201102070300 METAR MRLM NIL=
201102070400 METAR MRLM NIL=
201102070500 METAR MRLM NIL=
201102070600 METAR MRLM NIL=
201102070700 METAR MRLM NIL=
201102070800 METAR MRLM NIL=
201102070900 METAR MRLM NIL=
201102071000 METAR MRLM NIL=
201102071100 METAR MRLM NIL=
201102071200 METAR MRLM NIL=
201102071300 METAR MRLM 071300Z 22004KT CAVOK 22/20 A2985 RMK FEW090 FEW300 TCU RN DST N NE CB DST SW HZ LEVE ARND=
201102071400 METAR MRLM 071400Z 21004KT CAVOK 26/21 A2996 RMK FEW110 FEW300 HZ LEVE ARND=
201102071500 METAR MRLM 071500Z 04003KT CAVOK 29/21 A2997 RMK FEW300 HZ LEVE ARND=
201102071600 METAR MRLM 071600Z 07003KT CAVOK 28/21 A2977 RMK FEW300 HZ LEVE ARND=
201102071700 METAR MRLM 071700Z 02005KT 9999 FEW026N28/22 A2996 RMK FEW300 HZ LEVE ARND=
201102071800 METAR MRLM 071800Z 02008KT 9999 FEW026 28/22 A2994 RMK FEW300 HZ LEVE ARND=
201102071900 METAR MRLM 071900Z 01008KT 9999 FEW025 29/23 A2992 RMK FEW090 FEW300 HZ LEVE ARND=
201102072000 METAR MRLM 072000Z 02007KT 9999 FEW025 SCT090 29/23 A2989 RMK HZ ARND=
201102072100 METAR MRLM 072100Z 36006KT 9999 FEW025 SCT090 28/23 A2988 RMK SCT300 LGT HZ ARND=
201102072200 METAR MRLM 072200Z 02005KT 9999 FEW025 SCT090 28/22 A2987 RMK SCT300 HZ ARND=
201102072300 METAR MRLM 072300Z 36005KT 9999 FEW022 BKN300 28/22 A2988 RMK HZ LGT ARND=
201102080000 METAR MRLM 080000Z 00000KT 9999 FEW015 SCT130 BKN300 25/22 A2990 RMK LGT HZ ARND=
201102080100 METAR MRLM NIL=
201102080200 METAR MRLM NIL=
201102080300 METAR MRLM NIL=
201102080400 METAR MRLM NIL=
201102080500 METAR MRLM NIL=
201102080600 METAR MRLM NIL=
201102080700 METAR MRLM NIL=
201102080800 METAR MRLM NIL=
201102080900 METAR MRLM NIL=
201102081000 METAR MRLM NIL=
201102081100 METAR MRLM NIL=
201102081200 METAR MRLM 081200Z NIL=
201102081300 METAR MRLM 081300Z 24002KT CAVOK 23/20 A2999 RMK SCT080 LGT HZ ARND=
201102081400 METAR MRLM 081400Z 20005KT 9999 NSC 26/21 A3000 RMK LGT HZ ARND=
201102081500 METAR MRLM 081500Z 03002KT CAVOK 29/22 A3002 RMK SCT110 LGT HZ ARND=
201102081600 METAR MRLM 081600Z 03004KT 9999 FEW028 SCT110 28/22 A3001 RMK LGT HZ ARND=
201102081700 METAR MRLM 081700Z 02006KT 9999 FEW025 28/22 A2999 RMK FEW120 LGT HZ ARND=
201102081800 METAR MRLM 081800Z 36006KT 9999 FEW026 29/23 A2997 RMK FEW140 LGT HZ ARND=
201102081900 METAR MRLM 081900Z 35009KT 9999 FEW028 28/22 A2993 RMK LGT HZ ARND FEW130 TCU DST NE E=
201102082000 METAR MRLM 082000Z 36008KT 9999 SCT026 29/23 A2992 RMK FEW090 LGT HZ ARND=
201102082100 METAR MRLM 082100Z 02012KT 9999 FEW020 28/23 A2990 RMK FEW090 TCU SW S RN DST SW LGT HZ ARND=
201102082200 METAR MRLM 082200Z 02005KT 9999 FEW026 28/22 A2988 RMK FEW090 RN DST SW LGT HZ ARND=
201102082300 METAR MRLM 082300Z 01005KT 9999 FEW020 SCT090 27/22 A2989 RMK LGT HZ ARND=
201102090000 METAR MRLM 090000Z 24004KT 9999 FEW012 BKN080 24/21 A2990 RMK FEW300 CB DST S LGT HZ ARND=
201102090100 METAR MRLM NIL=
201102090200 METAR MRLM NIL=
201102090300 METAR MRLM NIL=
201102090400 METAR MRLM NIL=
201102090500 METAR MRLM NIL=
201102090600 METAR MRLM NIL=
201102090700 METAR MRLM NIL=
201102090800 METAR MRLM NIL=
201102090900 METAR MRLM NIL=
201102091000 METAR MRLM NIL=
201102091100 METAR MRLM NIL=
201102091200 METAR MRLM NIL=
201102091226 METAR MRLM 091226Z 00000KT 5000 +DZ VCSH FEW005 BKN012 22/21 A2996 RMK FEW090 HZ ARND=
201102091300 METAR MRLM 091300Z 23004KT 9999 FEW005 BKN020 22/21 A2997 RMK RN DST HZ ARND=
201102091400 METAR MRLM 091400Z 23005KT 9999 FEW015 BKN070 23/22 A2987 REDZ RMK RN DST SW W NW NE E LGT HZ ARND FEW090=
201102091500 METAR MRLM 091500Z 21004KT 9999 FEW015 BKN080 25/22 A2998 RMK FEW090 RN DST N NE E LGT HZ ARND=
201102091600 METAR MRLM 091600Z 05004KT 9999 SCT020 SCT090 26/21 A2998 RMK DZ N NE E FEW080 LGT HZ ARND=
201102091700 METAR MRLM 091700Z 10003KT 9999 SCT020 BKN080 26/21 A2996 RMK DZ NW E RN NE LGT HZ ARND=
201102091800 METAR MRLM 091800Z 09004KT 9999 FEW023 BKN080 27/22 A2993 RMK FEW090 TCU RN DST NE E LGT HZ ARND=
201102091900 METAR MRLM 091900Z 06006KT 9999 FEW020 BKN080 27/22 A2989 RMK LGT HZ ARND=
201102092000 METAR MRLM 092000Z 06006KT 9999 BKN035 32/17 A2978=
201102092100 METAR MRLM 092100Z 05002KT 9999 FEW030 BKN090 29/21 A3984 RMK FEW140 HZ ARND=
201102092200 METAR MRLM 092200Z 01004KT 9999 FEW032 SCT110 28/21 A2984 RMK HZ ARND=
201102092300 METAR MRLM 092300Z 01003KT CAVOK 28/20 A2984 RMK SCT090 HZ ARND CB DST S=
201102092357 METAR MRLM 100000Z 02004KT CAVOK 26/21 A2985 RMK FEW080 FEW120 FEW300 HZ ARND CB DST S=
201102100000 METAR MRLM 100000Z 02004KT CAVOK 26/21 A2985 RMK FEW080 FEW120 FEW300 HZ ARND CB DST S=
201102100100 METAR MRLM NIL=
201102100200 METAR MRLM NIL=
201102100300 METAR MRLM NIL=
201102100400 METAR MRLM NIL=
201102100500 METAR MRLM NIL=
201102100600 METAR MRLM NIL=
201102100700 METAR MRLM NIL=
201102100800 METAR MRLM NIL=
201102100900 METAR MRLM NIL=
201102101000 METAR MRLM NIL=
201102101100 METAR MRLM NIL=
201102101200 METAR MRLM 101200Z NIL=
201102101300 METAR MRLM 101300Z 22002KT CAVOK 22/21 A2990 RMK BKN080 FEW300 HZ ARND=
201102101400 METAR MRLM 101400Z 23003KT 9999 FEW012 BKN080 24/22 A2992 RMK RA NW N NE E HZ ARND=
201102101500 METAR MRLM 101500Z 27002KT 9999 BKN023 27/22 A2994 RMK FEW070 RA DST NW N NE E HZ ARND=
201102101600 METAR MRLM 101600Z 04012KT 9999 OVC020 26/21 A2995 RMK RA HZ ARND=
201102101700 METAR MRLM 101700Z 08009KT 9999 BKN020 SCT090 26/22 A2994 RMK DZ E HZ ARND=
201102101800 METAR MRLM 101800Z 13006KT 9999 FEW015 BKN080 26/22 A2992 RMK FEW100 DZ SW RA W HZ ARND=
201102101900 METAR MRLM 101900Z 20006KT 9999 FEW015 SCT070 BKN090 26/21 A2988 RMK HZ ARND DZ SW W=
201102102000 METAR MRLM 102000Z 21005KT CAVOK 27/21 A2986 RMK DZ SW HZ ARND SCT070 BKN090=
201102102100 METAR MRLM 102100Z 00000KT CAVOK 29/21 A2984 RMK FEW070 BKN090 HZ ARND LGT=
201102102200 METAR MRLM 102200Z 08003KT 9999 FEW028 BKN080 27/21 A2984 RMK HZ ARND LGT=
201102102300 METAR MRLM 102300Z 07004KT CAVOK 27/20 A2985 RMK SCT070 SCT090 HZ ARND LGT TCU DST S=
201102110000 METAR MRLM 110000Z08003KT CAVOK 27/21 A2986 RMK SCT070 SCT090 RA DST SW W HZ ARND=
201102110100 METAR MRLM NIL=
201102110200 METAR MRLM NIL=
201102110300 METAR MRLM NIL=
201102110400 METAR MRLM NIL=
201102110500 METAR MRLM NIL=
201102110600 METAR MRLM NIL=
201102110700 METAR MRLM NIL=
201102110800 METAR MRLM NIL=
201102110900 METAR MRLM NIL=
201102111000 METAR MRLM NIL=
201102111100 METAR MRLM NIL=
201102111200 METAR MRLM 111200Z NIL=
201102111220 METAR MRLM 111220Z 22004KT CAVOK 21/20 A2994 RMK BKN070 LGT HZ ARND=
201102111300 METAR MRLM 111300Z 22003KT CAVOK 23/21 A2995 RMK FEW070 HZ LGT ARND TCU DST NW E=
201102111400 METAR MRLM 111400Z 21003KT 9999 FEW022 27/21 A2998 RMK HZ LGT ARND=
201102111500 METAR MRLM 111500Z 09003KT 9999 SCT026 28/22 A2999 RMK HZ ARND LGT=
201102111600 METAR MRLM 111600Z 07004KT 9999 SCT026 28/22 A2999 RMK HZ LGT ARND=
201102111700 METAR MRLM 111700Z 04005KT 9999 FEW025 28/22 A2998 RMK HZ LGT ARND=
201102111800 METAR MRLM 111800Z 05005KT 9999 FEW025 28/22 A2996 RMK HZ ARND LGT=
201102111900 METAR MRLM 111900Z 05006KT 9999 FEW025 28/23 A2993 RMK HZ LGT ARND=
201102112000 METAR MRLM 112000Z 05005KT 9999 FEW028 29/22 A2990 RMK HZ LGT ARND=
201102112100 METAR MRLM 112100Z 05005KT 9999 FEW028 29/22 A2990 RMK LGT HZ ARND=
201102112200 METAR MRLM 112200Z 03005KT 9999 FEW028 29/22 A2988 RMK LGT HZ ARND=
201102112300 METAR MRLM 112300Z 02006KT 9999 FEW025 28/22 A2989 RMK LGT HZ ARND=
201102120000 METAR MRLM 120000Z 03005KT 9999 BKN022 27/22 A2991 RMK HZ ARND=
201102120100 METAR MRLM NIL=
201102120200 METAR MRLM NIL=
201102120300 METAR MRLM NIL=
201102120400 METAR MRLM NIL=
201102120500 METAR MRLM NIL=
201102120600 METAR MRLM NIL=
201102120700 METAR MRLM NIL=
201102120800 METAR MRLM NIL=
201102120900 METAR MRLM NIL=
201102121000 METAR MRLM NIL=
201102121100 METAR MRLM NIL=
201102121200 METAR MRLM 121200Z 22005KT 9999 FEW015 BKN080 21/19 A2998 RMK TCU RA NE E HZ ARND=
201102121300 METAR MRLM 121300Z 20005KT CAVOK 22/19 A2999 RMK BKN080 LGT HZ ARND TCU DST N/NE=
201102121400 METAR MRLM 121400Z 21003KT CAVOK 26/20 A2999 RMK FEW300 LHT HZ ARND=
201102121500 METAR MRLM 121500Z 03003KT CAVOK 28/19 A3002 RMK FEW090 FEW300 TCU DST N/NE LGT HZ ARND=
201102121600 METAR MRLM 121600Z 03005KT CAVOK 28/20 A3001 RMK BKN090 LGT HZ ARND=
201102121700 METAR MRLM 121700Z 02005KT 9999 FEW028 28/22 A2999 RMK FEW090 FEW300 TCU DST NE LGT HZ ARND=
201102121800 METAR MRLM 121800Z 02005KT 9999 FEW024 SCT300 28/22 A2996 RMK LGT HZ ARND TCU DST NE=
201102121900 METAR MRLM 121900Z 02005KT 9999 FEW024 29/23 A2993 RMK FEW110 FEW300 LGT HZ ARND=
201102122000 METAR MRLM 122000Z 02008KT 9999 SCT025 SCT110 29/23 A2991 RMK FEW300 LGT HZ ARND=
201102122100 METAR MRLM 122100Z 02008KT 9999 BKN026 SCT140 29/23 A2991 RMK LGT HZ ARND=
201102122200 METAR MRLM 122200Z 02007KT 9999 BKN025 SCT110 28/23 A2991 RMK LGT HZ ARND RN DST SW=
201102122300 METAR MRLM 122300Z 01007KT 9999 SCT022 SCT090 28/22 A2992 RMK TCU RN DST SW LGT HZ ARND=
201102130000 METAR MRLM 130000Z 02007KT 9999 SCT015 SCT025 27/22 A2994 RMK RN DST SW HZY=
201102130100 METAR MRLM NIL=
201102130200 METAR MRLM NIL=
201102130300 METAR MRLM NIL=
201102130400 METAR MRLM NIL=
201102130500 METAR MRLM NIL=
201102130600 METAR MRLM NIL=
201102130700 METAR MRLM NIL=
201102130800 METAR MRLM NIL=
201102130900 METAR MRLM NIL=
201102131000 METAR MRLM NIL=
201102131100 METAR MRLM NIL=
201102131200 METAR MRLM 131200Z NIL=
201102131300 METAR MRLM 131300Z 21005KT 9999 OVC015TCU 23/21 A3002 RERA VIS E SE SW 8KMS DUE RN=
201102131400 METAR MRLM 131400Z 19005KT 9999 BKN015TCU 25/23 A3004 RMK RN NW N NE E HZ ARND=
201102131500 METAR MRLM 131500Z 19002KT 9999 BKN030TCU 29/22 A3005 RMK VIS NE 8KMS LGT HZ ARND=
201102131600 METAR MRLM 131600Z 36013KT 2000 +SHRA OVC010TCU 25/22 A3007=
201102131700 METAR MRLM 131700Z 24006KT 8000 2000NW RA VCSH OVC010TCU 23/22 A3005=
201102131800 METAR MRLM 131800Z 23005KT 9999 RA OVC010TCU 24/22 A3003 RMK VIS SW 8KMS=
201102131900 METAR MRLM 131900Z 26004KT 9999 BKN015TCU 26/23 A3000 RMK RN DST E SE S FEW090 LGT HZ ARND=
201102132000 METAR MRLM 132000Z 34008KT 9999 OVC025 29/23 A2998 RMK RN E SE S SW HZ ARND=
201102132100 METAR MRLM 132100Z 34012KT 9999 OVC030 29/22 A2997 RMK RN DST S SW LGT HZ ARND=
201102132200 METAR MRLM 132200Z 32007KT 9999 BKN032 29/21 A2997 RMK FEW300 HZ ARND=
201102132300 METAR MRLM 132300Z 30005KT 9999 BKN025TCU 27/21 A2997 RMK FEW300 RN DST SE E SW W LGT HZ ARND=
201102140000 METAR MRLM 140000Z 24006KT 9999 OVC015 24/21 A2998 RMK RN QUAD S W HZ ARND=
201102140100 METAR MRLM NIL=
201102140200 METAR MRLM NIL=
201102140300 METAR MRLM NIL=
201102140400 METAR MRLM NIL=
201102140500 METAR MRLM NIL=
201102140600 METAR MRLM NIL=
201102140700 METAR MRLM NIL=
201102140800 METAR MRLM NIL=
201102140900 METAR MRLM NIL=
201102141000 METAR MRLM NIL=
201102141100 METAR MRLM NIL=
201102141200 METAR MRLM NIL=
201102141300 METAR MRLM 141300Z 22005KT 9999 +DZ VCSH BKN015 22/21 A2998 RMK VIS 8KM N SW DUE RA=
201102141400 METAR MRLM 141400Z 21003KT 9999 VCSH OVC015 24/22 A3001 REDZ RMK VIS 8KM NE DUE RA RN HZ ARND=
201102141500 METAR MRLM 141500Z 21002KT 5000 RA BKN015 24/22 A3003 RMK FEW090 VIS 8KM E SE HZ ARND=
201102141600 METAR MRLM 141600Z 00000KT 9999 DZ VCSH FEW008 BKN015 25/23 A3003 RERA RMK FEW090 VIS 8KM N DUE RA RN HZ ARND=
201102141700 METAR MRLM 141700Z 19004KT 9999 OVC018 27/22 A3001 RMK VIS 8KM NE DUE RA HZ ARND RN DST N E=
201102141800 METAR MRLM 141800Z 06006KT 7000 RA SCT012 SCT090 25/23 A2998 RMK HZ ARND=
201102141900 METAR MRLM 141900Z 22004KT 9999 SCT020 BKN090 27/23 A2995 RERA RMK HZ LGT ARND RN DST SW=
201102142000 METAR MRLM 142000Z 08004KT 9999 FEW025 BKN070 28/22 A2992 RMK FEW090 DZ NE E HZ LGT ARND=
201102142100 METAR MRLM 142100Z 03006KT 9999 FEW022 SCT070 28/22 A2990 RMK SCT090 HZ ARND DZ N NE=
201102142200 METAR MRLM 142200Z 03006KT 9999 FEW018 SCT070 27/22 A2990 RMK CST080 DZ NW N NE HZ ARND=
201102142300 METAR MRLM 142300Z 03010KT 9999 SCT018 SCT080 27/22 A2991 RMK TCU RA DST NE S SW DZ NW N SE=
201102150000 METAR MRLM 150000Z 01005KT 9999 FEW015 SCT070 26/22 A2992 RMK SCT090 RA DST NW N NE HZ ARND=
201102150100 METAR MRLM NIL=
201102150200 METAR MRLM NIL=
201102150300 METAR MRLM NIL=
201102150400 METAR MRLM NIL=
201102150500 METAR MRLM NIL=
201102150600 METAR MRLM NIL=
201102150700 METAR MRLM NIL=
201102150800 METAR MRLM NIL=
201102150900 METAR MRLM NIL=
201102151000 METAR MRLM NIL=
201102151100 METAR MRLM NIL=
201102151200 METAR MRLM NIL=
201102151300 METAR MRLM 151300Z 21004KT 9999 +DZ VCSH FEW015 SCT070 22/21 A2999 RERA RMK SCT090 VIS E W 8KMS RN HZ ARND=
201102151400 METAR MRLM 151400Z 20005KT 8000 +DZ VCSH FEW005 SCT015 22/22 A3001 RMK SCT09 0 VIS UNL SE S=
201102151500 METAR MRLM 151500Z 34003KT 8000 +DZ VCSH BKN020 SCT090 24/22 A3002 RMK VIS UNL S SW W HZ RA ARND=
201102151600 METAR MRLM 151600Z 28004KT 9999 DZ FEW020 SCT080 25/23 A3002 RMK RA DST N NE HZ ARND SCT140=
201102151700 METAR MRLM 151700Z 36004KT 9999 BKN020 SCT090 27/22 A3000 RMK RA DST W NW NE E HZ ARND=
201102151800 METAR MRLM NIL=
201102151900 METAR MRLM 151900Z 36007KT 9999 SCT020 BKN090 27/22 A2996 RMK DZ NW N NE HZ ARND RA DST SW=
201102152000 METAR MRLM 152000Z 36008KT 9999 SCT020 BKN090 26/23 A2993 RMK HZ LEVE ARND RA NW N=
201102152100 METAR MRLM 152100Z 34009KT 9999 FEW020 SCT070 27/22 A2993 RMK SCT090 RA DST W NW N NE DZ E HZ LGT ARND=
201102152200 METAR MRLM 152200Z 34006KT 9999 BKN015 26/22 A2993 RMK RA HZ ARND FEW090=
201102152300 METAR MRLM 152300Z 32005KT 9999 SCT015 SCT090 25/22 A2993 RMK FEW070 RA DST S SW W NW N DZ E HZ ARND=
201102160000 METAR MRLM 160000Z 28003KT 9999 FEW015 SCT070 24/22 A2994 RMK SCT090 RA DST SW W NW N NE HZ LGT ARND=
201102160100 METAR MRLM NIL=
201102160200 METAR MRLM NIL=
201102160300 METAR MRLM NIL=
201102160400 METAR MRLM NIL=
201102160500 METAR MRLM NIL=
201102160600 METAR MRLM NIL=
201102160700 METAR MRLM NIL=
201102160800 METAR MRLM NIL=
201102160900 METAR MRLM NIL=
201102161000 METAR MRLM NIL=
201102161100 METAR MRLM NIL=
201102161200 METAR MRLM 161200Z NIL=
201102161225 METAR MRLM 161225Z 20004KT CAVOK 22/21 A2998 RMK SCT070 SCT090 TCU RN DST NW N NE LGT HZ ARND=
201102161300 METAR MRLM 161300Z 00000KT CAVOK 23/21 A3000 RMK SCT070 SCT090 HZ ARND LGT=
201102161400 METAR MRLM 161400Z 18004KT CAVOK 27/22 A3001 RMK SCT140 HZ LGT ARND=
201102161500 METAR MRLM 161500Z 24002KT CAVOK 29/22 A3003 RMK SCT140 HZ LGT ARND=
201102161600 METAR MRLM 161600Z 01003KT 9999 FEW025 SCT140 28/22 A3002 RMK HZ LGT ARND=
201102161700 METAR MRLM 161700Z 36009KT 9999 FEW030 29/23 A3000 RMK FEW140 HZ LGT ARND=
201102161800 METAR MRLM 161800Z 36010KT 9999 FEW028 29/22 A2998 RMK HZ LGT ARND TCU DST E S=
201102161900 METAR MRLM 161900Z 36011KT 9999 FEW028 29/22 A2995 RMK KZ LGT ARND=
201102162000 METAR MRLM 162000Z 36009KT 9999 FEW028 29/22 A2993 RMK TCU DST SW NW HZ LGT ARND=
201102162100 METAR MRLM 162100Z 36007KT 9999 FEW026 29/22 A2992 RMK LGT HZ ARND CB DT SW=
201102162200 METAR MRLM 162200Z 01008KT 9999 FEW026 28/22 A2992 RMK TCU DST SE/NW LGT HZ ARND=
201102162300 METAR MRLM 162300Z 35006KT 9999 SCT022 28/22 A2992 RMK TCU DST S LGT HZ ARND=
201102170000 METAR MRLM 170000Z 29002KT 9999 BKN015 26/22 A2993 RMK CB DST S LGT HZ ARND=
201102170100 METAR MRLM NIL=
201102170200 METAR MRLM NIL=
201102170300 METAR MRLM NIL=
201102170400 METAR MRLM NIL=
201102170500 METAR MRLM NIL=
201102170600 METAR MRLM NIL=
201102170700 METAR MRLM NIL=
201102170800 METAR MRLM NIL=
201102170900 METAR MRLM NIL=
201102171000 METAR MRLM NIL=
201102171100 METAR MRLM NIL=
201102171200 METAR MRLM 171200Z 24004KT 9999 SCT010 SCT110 22/20 A2997 RMK DZ NE HZ ARND=
201102171300 METAR MRLM 171300Z 23004KT 9999 SCT015 SCT110 22/20 A2988 RMK DZ DST E HZ ARND=
201102171400 METAR MRLM 171400Z 20004KT CAVOK 25/21 A2999 RMK BKN120 HZ ARND=
201102171500 METAR MRLM 171500Z 22002KT 9999 FEW035 SCT130 28/21 A3000 RMK HZ LGT ARND=
201102171600 METAR MRLM 171600Z 34006KT 9999 FEW040 SCT130 30/21 A3000 RMK RA DST NE HZ LGT ARND=
201102171700 METAR MRLM 171700Z 35017KT 9999 BKN025 27/22 A3000 RMK RA DST N/NE HZ LGT ARND=
201102171800 METAR MRLM 171800Z 31004KT 9999 -DZ BKN020 25/23 A2999 RMK SCT100 HZ ARND=
201102171900 METAR MRLM 171900Z 27006KT 9999 SCT025 SCT110 26/23 A2997 RMK HZ ARND=
201102172000 METAR MRLM 172000Z 27004KT 9999 SCT030 SCT120 28/22 A2994 RMK HZ ARND=
201102172100 METAR MRLM 172100Z 35003KT 9999 SCT030 28/22 A2992 FEW120 LGT HZ ARND=
201102172200 METAR MRLM 172200Z 31003KT 9999 FEW030 SCT120 30/22 A2991 RMK LGT HZ ARND=
201102172300 METAR MRLM 172300Z 34006KT 9999 FEW025 SCT120 27/22 A2992 RMK LGT HZ ARND=
201102180000 METAR MRLM 180000Z 30005KT 9999 FEW020 SCT110 25/22 A2994 RMK TCU DST SW DZ N HZ ARND=
201102180100 METAR MRLM NIL=
201102180200 METAR MRLM NIL=
201102180300 METAR MRLM NIL=
201102180400 METAR MRLM NIL=
201102180500 METAR MRLM NIL=
201102180600 METAR MRLM NIL=
201102180700 METAR MRLM NIL=
201102180800 METAR MRLM NIL=
201102180900 METAR MRLM NIL=
201102181000 METAR MRLM NIL=
201102181100 METAR MRLM NIL=
201102181200 METAR MRLM 181200Z 00000KT 9999 BKN010 SCT100 22/21 A2999 RMK HZ ARND=
201102181300 METAR MRLM 181300Z 22002KT 9999 BKN010 SCT100 23/22 A3001 HZ ARND=
201102181400 METAR MRLM 181400Z 00000KT 9999 FEW020 SCT120 25/23 A3003 LGT HZ ARND=
201102181500 METAR MRLM 181500Z 01004KT CAVOK 26/23 A3003 RMK BKN120 LGT HZ ARND=
201102181600 METAR MRLM 181600Z 01006KT 9999 FEW025 BKN130 28/23 A3004 HZ ARND=
201102181700 METAR MRLM 181700Z 02008KT 9999 SCT020 BKN120 27/22 A3003 RMK DZ DST E LGT HZ ARND=
201102181800 METAR MRLM 181800Z 05009KT 9999 -DZ BKN020 SCT110 27/22 A3000 RMK HZ ARND=
201102181900 METAR MRLM 181900Z 08009KT 9999 BKN020 SCT110 27/23 A2998 RMK HZ ARND=
201102182000 METAR MRLM 182000Z 05006KT 9999 BKN020 26/23 A2996 RMK FEW100 HZ ARND=
201102182100 METAR MRLM 182100Z 07004KT 9999 SCT025 SCT120 28/23 A2994 RMK CB DST SW LGT HZ ARND=
201102182200 METAR MRLM 182200Z 08004KT 9999 FEW020 BKN110 27/22 A2993 RMK CB DST SW LGT HZ ARND=
201102182300 METAR MRLM 182300Z 14002KT 9999 SCT020 SCT110 26/22 A2994 HZ ARND=
201102182353 METAR MRLM 190000Z 00000KT 9999 SCT015 SCT100 25/22 A2995 RMK RN DST S HZ ARND=
201102190000 METAR MRLM 190000Z 00000KT 9999 SCT015 SCT100 25/22 A2995 RMK RN DST S HZ ARND=
201102190100 METAR MRLM NIL=
201102190200 METAR MRLM NIL=
201102190300 METAR MRLM NIL=
201102190400 METAR MRLM NIL=
201102190500 METAR MRLM NIL=
201102190600 METAR MRLM NIL=
201102190700 METAR MRLM NIL=
201102190800 METAR MRLM NIL=
201102190900 METAR MRLM NIL=
201102191000 METAR MRLM NIL=
201102191100 METAR MRLM NIL=
201102191200 METAR MRLM NIL=
201102191300 METAR MRLM 191300Z 20004KT CAVOK 24/21 A2998 RMK LGT HZ ARND FEW090=
201102191400 METAR MRLM 191400Z 22003KT CAVOK 27/22 A3000 RMK FEW140 LGT HZ ARND=
201102191500 METAR MRLM 191500Z 08012KT 9999 FEW025 28/22 A3000 RMK LGT HZ ARND=
201102191600 METAR MRLM 191600Z 06003KT 9999 FEW025 28/22 A2999 RMK LGT HZ ARND=
201102191700 METAR MRLM 191700Z 05005KT 9999 FEW025 28/23 A2997 RMK LGT HZ ARND=
201102191800 METAR MRLM 191800Z 04007KT 9999 FEW023 28/23 A2994 RMK LGT HZ ARND=
201102191900 METAR MRLM 191900Z 05006KT 9999 FEW024 28/23 A2991 RMK FEW300 LGT HZ ARND=
201102192000 METAR MRLM 192000Z 04006KT 9999 FEW024 28/23 A2988 FEW300 HZ LGT ARND=
201102192100 METAR MRLM 192100Z 04004KT 9999 BKN025 28/22 A2987 RMK HZ ARND=
201102192200 METAR MRLM 192200Z 04007KT 9999 BKN030 29/21 A2987 RMK HZ ARND=
201102192300 METAR MRLM 192300Z 02005KT 9999 BKN027 28/22 A2989 RMK HZ ARND=
201102200000 METAR MRLM 200000Z 01004KT 9999 OVC022 27/22 A2990 RMK HZ ARND=
201102200100 METAR MRLM NIL=
201102200200 METAR MRLM NIL=
201102200300 METAR MRLM NIL=
201102200400 METAR MRLM NIL=
201102200500 METAR MRLM NIL=
201102200600 METAR MRLM NIL=
201102200700 METAR MRLM NIL=
201102200800 METAR MRLM NIL=
201102200900 METAR MRLM NIL=
201102201000 METAR MRLM NIL=
201102201100 METAR MRLM NIL=
201102201200 METAR MRLM 201200Z 23003KT CAVOK 22/20 A2993 RMK BKN080 FEW30 HZ ARND TCU RA DST N=
201102201300 METAR MRLM 201300Z 25002KT CAVOK 23/21 A2994 RMK BKN080 FEW300 TCU RA DST N HZ ARND=
201102201400 METAR MRLM 201400Z 20002KT CAVOK 28/22 A2996 RMK SCT090 FEW300 TCU RA NW N NE HZ ARND=
201102201500 METAR MRLM 201500Z 05004KT 9999 FEW025 BKN080 26/21 A2997 RMK TCU RA DST N HZ ARND FEW300=
201102201600 METAR MRLM 201600Z 02005KT 9999 FEW023 BKN080 27/21 A2997 RMK HZ ARND=
201102201700 METAR MRLM 201700Z 01005KT 9999 FEW026 SCT090 28/21 A2995 RMK FEW300 HZ ARND TCU N NE SE=
201102201800 METAR MRLM 201800Z 01006KT 9999 FEW025 SCT090 28/22 A2992 RMK TCU DST W N NE E HZ ARND FEW300=
201102201900 METAR MRLM 201900Z 36008KT 9999 SCT028 SCT080 29/22 A2990 RMK HZ ARND FEW300=
201102202000 METAR MRLM 202000Z 02007KT 9999 SCT025 BKN080 29/23 A2988 RMK HZ ARND RA DST SW=
201102202100 METAR MRLM 202100Z 03004KT 9999 FEW028 BKN080 28/21 A2986 RMK CB DST NW TCU RA DST S SW HZ ARND LGT=
201102202200 METAR MRLM NIL=
201102202300 METAR MRLM 202300Z 00000KT 9999 SCT025 27/21 A2987 RMK TCU RA DST S SW HZ ARND LGT=
201102210000 METAR MRLM 210000Z 06004KT 9999 BKN022 27/21 A2988 RMK FEW080 TCU RA DST SE S SW W HZ ARND LGT=
201102210100 METAR MRLM NIL=
201102210200 METAR MRLM NIL=
201102210300 METAR MRLM NIL=
201102210400 METAR MRLM NIL=
201102210500 METAR MRLM NIL=
201102210600 METAR MRLM NIL=
201102210700 METAR MRLM NIL=
201102210800 METAR MRLM NIL=
201102210900 METAR MRLM NIL=
201102211000 METAR MRLM NIL=
201102211100 METAR MRLM NIL=
201102211200 METAR MRLM 211200Z NIL=
201102211210 METAR MRLM 211210Z 20003KT CAVOK 20/19 A2993 RMK FEW120 BKN250=
201102211300 METAR MRLM 211300Z 20003KT CAVOK 21/19 A2993 RMK FEW120 BKN260 HZ LGT SE=
201102211400 METAR MRLM 211400Z 17002KT CAVOK 26/21 A2996 RMK SCT120 SCT270 HZ ARND=
201102211500 METAR MRLM 211500Z 10006KT 9999 FEW035 BKN120 28/21 A2998 RMK HZ ARND=
201102211600 METAR MRLM 211600Z 10007KT 9999 FEW035 BKN120 28/20 A2998 RMK HZ LGT ARND=
201102211700 METAR MRLM 211700Z 09008KT 9999 FEW035 29/20 A2995 RMK FEW130 HZ LGT ARND=
201102211800 METAR MRLM 211800Z 09008KT 9999 FEW040 SCT130 29/21 A2994 RMK HZ LGT ARND=
201102211900 METAR MRLM 211900Z 08008KT 9999 FEW040 SCT120 29/21 A2992 HZ LGT ARND=
201102212000 METAR MRLM 212000Z 08008KT CAVOK 29/21 A2990 RMK SCT120 HZ ARND=
201102212100 METAR MRLM 212100Z 07007KT CAVOK 29/21 A2987 RMK SCT130 HZ LGT ARND=
201102212200 METAR MRLM 212200Z 07009KT 9999 FEW040 29/20 A2987 RMK LGT HZ ARND=
201102212300 METAR MRLM 212300Z 07008KT 9999 FEW040 28/21 A2987 RMK LGT HZ ARND=
201102220000 METAR MRLM 220000Z 07007KT 9999 FEW035 27/21 A2988 RMK LGT HZ ARND=
201102220100 METAR MRLM NIL=
201102220200 METAR MRLM NIL=
201102220300 METAR MRLM NIL=
201102220400 METAR MRLM NIL=
201102220500 METAR MRLM NIL=
201102220600 METAR MRLM NIL=
201102220700 METAR MRLM NIL=
201102220800 METAR MRLM NIL=
201102220900 METAR MRLM NIL=
201102221000 METAR MRLM NIL=
201102221100 METAR MRLM NIL=
201102221200 METAR MRLM 221200Z 23004KT 9999 FEW015 BKN100 21/20 A2994 RMK HZ ARND=
201102221300 METAR MRLM 221300Z 20002KT 9999 FEW015 SCT110 24/20 A2995 RMK HZ ARND=
201102221400 METAR MRLM 221400Z 17002KT CAVOK 27/20 A2997 RMK FEW130 HZ ARND=
201102221500 METAR MRLM 221500Z 11004KT CAVOK 29/20 A2998 RMK FEW140 HZ ARND=
201102221600 METAR MRLM 221600Z 09005KT 9999 FEW040 28/21 A2997 RMK HZ ARND=
201102221700 METAR MRLM 221700Z 08007KT 9999 NSC 29/21 A2996 RMK HZ ARND=
201102221800 METAR MRLM 221800Z 07008KT 9999 NSC 29/21 A2993 RMK HZ LGT ARND=
201102221900 METAR MRLM 221900Z 07008KT 9999 NSC 29/20 A2990 RMK HZ LGT ARND=
201102222000 METAR MRLM 222000Z 06008KT CAVOK 29/21 A2988 RMK FEW270 LGT HZ ARND=
201102222100 METAR MRLM 222100Z 05009KT 9999 NSC 29/21 A2986 RMK LGT HZ ARND=
201102222200 METAR MRLM 222200Z 05007KT 9999 NSC 29/21 A2986 RMK HZY=
201102222300 METAR MRLM 222300Z 05005KT CAVOK 28/21 A2987 RMK FEW270 LGT HZ ARND=
201102230000 METAR MRLM 230000Z 03005KT 9999 FEW030 SCT270 27/21 A2988 RMK LGT HZ ARND=
201102230100 METAR MRLM NIL=
201102230200 METAR MRLM NIL=
201102230300 METAR MRLM NIL=
201102230400 METAR MRLM NIL=
201102230500 METAR MRLM NIL=
201102230600 METAR MRLM NIL=
201102230700 METAR MRLM NIL=
201102230800 METAR MRLM NIL=
201102230900 METAR MRLM NIL=
201102231000 METAR MRLM NIL=
201102231100 METAR MRLM NIL=
201102231200 METAR MRLM 231200Z 23003KT 9999 BKN015 SCT070 21/19 A2994 RMR RA DST W N HZ ARND LGT=
201102231300 METAR MRLM 231300Z 21005KT 9999 FEW015 BKN070 22/20 A2985 RMK FEW090 RN DST W N QDS LGT HZ ARND=
201102231400 METAR MRLM 231400Z 22004KT 9999 DZ VCSH BKN015 23/20 A2997 RMK DZ W NW N NE VIS 7KMS DUE RN=
201102231500 METAR MRLM 231500Z 18003KT 9999 SCT015 SCT070 24/22 A2999 REDZ RMK DZ E SE S SW W LGT HZ ARND=
201102231600 METAR MRLM 231600Z 19005KT 9999 SCT025 SCT080 25/22 A2999 RMK DZ DST SE S SW LGT HZ ARND=
201102231700 METAR MRLM 231700Z 21006KT 9999 FEW025 BKN090 27/21 A2997 RMK FEW070 LGT HZ ARND=
201102231800 METAR MRLM 231800Z 20004KT CAVOK 30/18 A2994 RMK FEW120 FEW120 FEW300 HZ ARND DST NW TCU DST N E QDS=
201102231900 METAR MRLM 231900Z 04006KT CAVOK 29/20 A2991 RMK SCT120 LGT HZ ARND FEW300=
201102232000 METAR MRLM 232000Z 02007KT 9999 FEW038 29/20 A2991 RMK FEW300 FEW110 TCU DST N E LGT HZ ARND=
201102232100 METAR MRLM 232100Z 02008KT 9999 FEW040 29/20 A2987 RMK FEW140 FEW300 TCU DST N LGT HZ ARND=
201102232200 METAR MRLM 232200Z 02007KT 9999 FEW042 29/20 A2987 RMK FEW130 FEW300 LGT HZ ARND=
201102232300 METAR MRLM 232300Z 01006KT 9999 FEW038 SCT130 28/21 A2988 RMK LGT HZ ARND=
201102240000 METAR MRLM 240000Z 35003KT CAVOK 26/21 A2989 RMK BKN100 FEW300 LGT HZ ARND=
201102240100 METAR MRLM 240100Z NIL=
201102240200 METAR MRLM 240200Z NIL=
201102240300 METAR MRLM NIL=
201102240400 METAR MRLM NIL=
201102240500 METAR MRLM NIL=
201102240600 METAR MRLM NIL=
201102240700 METAR MRLM NIL=
201102240800 METAR MRLM NIL=
201102240900 METAR MRLM NIL=
201102241000 METAR MRLM NIL=
201102241100 METAR MRLM NIL=
201102241200 METAR MRLM NIL=
201102241300 METAR MRLM 241300Z 22002KT CAVOK 24/20 A2995 RMK SCT150 TCU DST N LGT HZ ARND=
201102241400 METAR MRLM 241400Z 22003KT CAVOK 26/20 A2997 RMK SCT130 TCU DST NW N LGT HZ ARND=
201102241500 METAR MRLM 241500Z 04004KT CAVOK 28/22 A2998 RMK SCT110 LGT HZ ARND=
201102241600 METAR MRLM 241600Z 32008KT 9999 FEW025 29/21 A2998 RMK LGT HZ ARND=
201102241700 METAR MRLM 241700Z 33010KT 9999 FEW027 BKN110 30/22 A2996 RMK LGT HZ ARND=
201102241800 METAR MRLM 241800Z 34014KT 9999 FEW033 BKN090 29/23 A2994 RMK LGT HZ ARND=
201102241900 METAR MRLM 241900Z 36010KT 9999 FEW028 BKN110 28/23 A2992 RMK RN DST SW LGT HZ ARND=
201102242000 METAR MRLM 242000Z 02009KT 9999 FEW025 BKN130 27/22 A2989 RMK LGT HZ ARND RN DST S SW=
201102242100 METAR MRLM 242100Z 01005KT 9999 FEW028 BKN080 27/22 A2987 RMK RA DST SW S HZ LEVE ARND=
201102242200 METAR MRLM 242200Z 01005KT 9999 FEW028 BKN080 27/22 A2987 RMK RA DST SW S HZ LEVE ARND=
201102242300 METAR MRLM 242300Z 03009KT 9999 BKN023 27/22 A2987 RMK FEW110 RA DST S SW W HZ ARND=
201102250000 METAR MRLM 250000Z 04007KT 9999 BKN022 26/22 A2988 RMK FEW110 FEW300 RA DST S SW W HZ LEVE ARND=
201102250100 METAR MRLM NIL=
201102250200 METAR MRLM NIL=
201102250300 METAR MRLM NIL=
201102250400 METAR MRLM NIL=
201102250500 METAR MRLM NIL=
201102250600 METAR MRLM NIL=
201102250700 METAR MRLM NIL=
201102250800 METAR MRLM NIL=
201102250900 METAR MRLM NIL=
201102251000 METAR MRLM NIL=
201102251100 METAR MRLM NIL=
201102251200 METAR MRLM NIL=
201102251300 METAR MRLM 251300Z 22004KT 9999 FEW015 BKN100 22/21 A2994 RMK HZ ARND=
201102251400 METAR MRLM 251400Z 22003KT CAVOK 26/22 A2996 RK SCT120 HZ ARND=
201102251500 METAR MRLM 251500Z 07003KT CAVOK 28/22 A2997 RMK SCT130 HZ ARND=
201102251600 METAR MRLM 251600Z 03004KT 9999 FEW030 28/22 A2997 RMK FEW140 HZ ARND=
201102251700 METAR MRLM 251700Z 36007KT 9999 FEW035 SCT300 29/22 A2996 RMK FEW140 HZ ARND=
201102251800 METAR MRLM 251800Z 35007KT 9999 SCT035 SCT300 28/23 A2994 RMK HZ ARND=
201102251900 METAR MRLM 251900Z 03005KT 9999 FEW025 28/24 A2991 RMK FEW140 HZ ARND=
201102252000 METAR MRLM 252000Z 03005KT CAVOK 29/24 A2987 RMK SCT140 HZ ARND=
201102252100 METAR MRLM 252100Z 03007KT CAVOK 29/23 A2985 RMK BKN130 HZ ARND=
201102252200 METAR MRLM 252200Z 06005KT CAVOK 29/21 A2985 RMK FEW130 HZ ARND=
201102252300 METAR MRLM 252300Z 08003KT 9999 FEW025 SCT130 28/23 A2986 RMK HZ ARND=
201102260000 METAR MRLM 260000Z 09005KT 9999 FEW020 BKN120 27/23 A2986 RMK HZ ARND=
201102260100 METAR MRLM NIL=
201102260200 METAR MRLM NIL=
201102260300 METAR MRLM NIL=
201102260400 METAR MRLM NIL=
201102260500 METAR MRLM NIL=
201102260600 METAR MRLM NIL=
201102260700 METAR MRLM NIL=
201102260800 METAR MRLM NIL=
201102260900 METAR MRLM NIL=
201102261000 METAR MRLM NIL=
201102261100 METAR MRLM NIL=
201102261200 METAR MRLM 261200Z 20003KT 9999 BKN015 23/22 A2989 RMK FEW100 HZ ARND=
201102261300 METAR MRLM 261300Z 00000KT 9999 SCT015 BKN100 24/23 A2991 RMK HZ ARND=
201102261400 METAR MRLM 261400Z 00000KT 9999 BKN015 SCT100 25/24 A2994 RMK RA DST N HZ ARND=
201102261500 METAR MRLM 261500Z 34005KT 9999 SCT020 SCT110 27/24 A2996 RMK RA DST N NE HZ ARND=
201102261600 METAR MRLM 261600Z 04008KT 9999 BKN015 26/23 A2997 RMK FEW100 RA DST N NE HZ ARND=
201102261700 METAR MRLM 261700Z 08006KT 9999 SCT015 SCT110 26/24 A2994 RMK RA DST N HZ ARND=
201102261800 METAR MRLM 261800Z 07005KT 9999 FEW020 SCT120 28/23 A2991 RMK SCT280 HZ ARND=
201102261900 METAR MRLM 261900Z 02005KT 9999 FEW020 SCT120 28/23 A2980 RMK SCT280 HZ ARND=
201102262000 METAR MRLM 262000Z 07006KT CAVOK 29/23 A2985 RMK FEW130 BKN180 CB DST SW NE HZ ARND=
201102262100 METAR MRLM 262100Z 08005KT CAVOK 29/24 A2983 RMK FEW140 BKN280 CB DST N HZ ARND=
201102262200 METAR MRLM 262200Z 06006KT 9999 FEW030 BKN280 29/23 A2983 RMK HZ ARND=
201102262300 METAR MRLM 262300Z 07006KT 9999 SCT020 BKN270 28/23 A2984 RMK TCU DST NE HZ ARND=
201102270000 METAR MRLM 270000Z 08006KT 9999 -DZ VCSH BKN015 SCT270 27/24 A2985 RMK CB DST QUAD N HZ ARND=
201102270100 METAR MRLM NIL=
201102270200 METAR MRLM NIL=
201102270300 METAR MRLM NIL=
201102270400 METAR MRLM NIL=
201102270500 METAR MRLM NIL=
201102270600 METAR MRLM NIL=
201102270700 METAR MRLM NIL=
201102270800 METAR MRLM NIL=
201102270900 METAR MRLM NIL=
201102271000 METAR MRLM NIL=
201102271100 METAR MRLM NIL=
201102271200 METAR MRLM NIL=
201102271300 METAR MRLM 271300Z 25003KT 6000 +DZ VCSH SCT005 SCT010TCU 23/22 A2993=
201102271400 METAR MRLM 271400Z 19003KT 6000 DZ VCSH SCT005 SCT015 24/23 A2995 RMK FEW090 RN/HZ ARND=
201102271500 METAR MRLM 271500Z 18004KT 4000 RA BKN015 24/23 A2997 RMK FEW080 VIS=
201102271600 METAR MRLM 271600Z 11011KT 1000 +SHRA FEW006 BKN010TCU 24/23 A2998=
201102271700 METAR MRLM 271700Z 21004KT 8000 RA FEW004 BKN015 24/23 A2995 RMK VIS=
201102271800 METAR MRLM 271800Z 22004KT 9999 RA +DZ VCSH FEW005 BKN015 25/24 A2992 RMK VIS 8KM SW LGT HZ ARND=
201102271900 METAR MRLM 271900Z 20005KT 9999 FEW008 BKN012 25/24 A2989 REDZ/ RN-HZ ARND=
201102272000 METAR MRLM 272000Z 21004KT 9999 DZ VCSH BKN020TCU 27/23 A2987 RMK HZ ARND/ FEW120=
201102272100 METAR MRLM 272100Z 07003KT 9999 RADZ VCSH BKN026 28/23 A2985 VIS 7KMS NE HZ ARND FEW080=
201102272200 METAR MRLM 272200Z 04013KT 1000 +SHRA OVC010TCU 24/22 A2986=
201102272300 METAR MRLM 272300Z 12002KT 6000 RADZ VCSH OVC015 24/23 A2986 VIS NW W N NE 8KMS HZ ARND=
201102280000 METAR MRLM 280000Z 17004KT 6000 RADZ VCSH FEW005 BKN012 24/23 A2987 RMK VIS SE S SW 8KMS FEW080 HZY=
201102280100 METAR MRLM NIL=
201102280200 METAR MRLM NIL=
201102280300 METAR MRLM NIL=
201102280400 METAR MRLM NIL=
201102280500 METAR MRLM NIL=
201102280600 METAR MRLM NIL=
201102280700 METAR MRLM NIL=
201102280800 METAR MRLM NIL=
201102280900 METAR MRLM NIL=
201102281000 METAR MRLM NIL=
201102281100 METAR MRLM NIL=
201102281200 METAR MRLM NIL=
201102281300 METAR MRLM NIL=
201102281400 METAR MRLM 281400Z 20005KT 9999 FEW006 BKN012TCU 25/23 A2996 RERA RMK FEW120 RN HZ ARND=
201102281500 METAR MRLM 281500Z 20004KT 9999 OVC015TCU 27/24 A2998 RMK RN HZ ARND=
201102281600 METAR MRLM 281600Z 16003KT 9999 OVC017TCU 27/24 A2998 RMK RN HZ ARND=
201102281700 METAR MRLM 281700Z 06004KT 9999 OVC028TCU 29/23 A2996 RMK RN HZ ARND=
201102281800 METAR MRLM 281800Z 10004KT 9999 OVC025TCU 29/24 A2993 RMK RN HZ ARND=
201102281900 METAR MRLM 281900Z 08003KT 9999 BKN020TCU 27/24 A2991 RERA RN HZ ARND FEW080=
201102282000 METAR MRLM 282000Z 04003KT 9999 DZ VCSH OVC018TCU 27/24 A2989 RMK HZ SE=
201102282100 METAR MRLM 282100Z 07009KT 9999 BKN018TCU 27/24 A2986 RMK FEW070 RN DST S W HZ DENSA SE=
201102282200 METAR MRLM 282200Z 17002KT 9999 RA OVCO25TCU 29/23 A2987 RMK VIS 7000 NW HZ SE=
201102282300 METAR MRLM 282300Z 20005KT 9999 OVC010TCU 25/23 A2988 RERE RMK HZ RN DST ARND=
201103010000 METAR MRLM 010000Z 21004KT 9999 VCSH OVC010TCU 25/23 A2989 RMK RN HZ ARND VIS 6000 NE E=
201103010100 METAR MRLM NIL=
201103010200 METAR MRLM NIL=
201103010300 METAR MRLM NIL=
201103010400 METAR MRLM NIL=
201103010500 METAR MRLM NIL=
201103010600 METAR MRLM NIL=
201103010700 METAR MRLM NIL=
201103010800 METAR MRLM NIL=
201103010900 METAR MRLM NIL=
201103011000 METAR MRLM NIL=
201103011100 METAR MRLM NIL=
201103011200 METAR MRLM 011200Z 06019KT 3000 +RA OVC007 24/22 A2993=
201103011300 METAR MRLM 011300Z 03014KT 9999 -DZ BKN015 26/23 A2995 RERA RMK FEW090 RA DST S SW HZ ARND=
201103011400 METAR MRLM 011400Z 02015KT 9999 -DZ BKN020 27/23 A2998 RMK FEW100 RA DST S SW HZ ARND=
201103011500 METAR MRLM 011500Z 02013KT 9999 BKN020 SCT100 27/23 A3000 RMK RA DST SW W HZ ARND=
201103011600 METAR MRLM 011600Z 02011KT 9999 SCT025 SCT110 28/23 A3001 RMK HZ ARND=
201103011700 METAR MRLM 011700Z 02010KT 9999 SCT030 BKN110 28/23 A3000 RMK HZ ARND=
201103011800 METAR MRLM 011800Z 03007KT 9999 SCT030 SCT120 29/23 A2998 RMK HZ ARND=
201103011900 METAR MRLM 011900Z 03006KT 9999 SCT030 BKN130 29/23 A2995 RMK HZ ARND=
201103012000 METAR MRLM 012000Z 01005KT 9999 BKN025 28/23 A2993 RMK FEW130 FEW270 HZ ARND=
201103012100 METAR MRLM 012100Z 36004KT 9999 BKN030 29/23 A2991 RMK FEW250 HZ ARND=
201103012200 METAR MRLM 012200Z 36005KT 9999 BKN025 SCT130 28/23 A2991 RMK HZ ARND=
201103012300 METAR MRLM 012300Z 01003KT 9999 FEW025 BKN130 28/22 A2992 RMK TCU DST SW HZ ARND=
201103020000 METAR MRLM 020000Z 00000KT 9999 SCT015 BKN120 26/23 A2993 RMK HZ ARND=
201103020100 METAR MRLM NIL=
201103020200 METAR MRLM NIL=
201103020300 METAR MRLM NIL=
201103020400 METAR MRLM NIL=
201103020500 METAR MRLM NIL=
201103020600 METAR MRLM NIL=
201103020700 METAR MRLM NIL=
201103020800 METAR MRLM NIL=
201103020900 METAR MRLM NIL=
201103021000 METAR MRLM NIL=
201103021100 METAR MRLM NIL=
201103021200 METAR MRLM 021200Z 00000KT CAVOK 21/20 A2996 RMK BKN130 HZ ARND=
201103021300 METAR MRLM 021300Z 21003KT CAVOK 23/21 A2998 RMK BKN130 HZ ARND=
201103021400 METAR MRLM 021400Z 20004KT CAVOK 26/21 A3000 RMK SCT130 HZ ARND=
201103021500 METAR MRLM 021500Z 06003KT CAVOK 27/21 A3001 RMK FEW140 HZ ARND=
201103021600 METAR MRLM 021600Z 05005KT CAVOK 28/21 A3000 RMK SCT140 HZ ARND=
201103021700 METAR MRLM 021700Z 36007KT CAVOK 28/21 A2998 RMK SCT130 HZ ARND=
201103021800 METAR MRLM 021800Z 36011KT 9999 FEW030 BKN130 28/22 A2996 RMK HZ ARND=
201103021900 METAR MRLM 021900Z 02017KT 9999 FEW030 BKN120 27/22 A2994 RMK HZ ARND=
201103022000 METAR MRLM 022000Z 36010KT 9999 SCT030 BKN120 28/21 A2992 RMK HZ ARND=
201103022100 METAR MRLM 022100Z 36010KT 9999 SCT035 BKN120 28/21 A2992 RMK HZ ARND=
201103022200 METAR MRLM 022200Z 01012KT 9999 SCT025 SCT110 26/21 A2991 RMK RA DST SW HZ ARND=
201103022300 METAR MRLM 022300Z 35008KT 9999 SCT025 BKN110 26/18 A2991 RMK CB RA DST SW HZ ARND=
201103030000 METAR MRLM 030000Z 27002KT 9999 SCT020 SCT100 24/19 A2991 RMK CB RA DST S HZ ARND=
201103030100 METAR MRLM NIL=
201103030200 METAR MRLM NIL=
201103030300 METAR MRLM NIL=
201103030400 METAR MRLM NIL=
201103030500 METAR MRLM NIL=
201103030600 METAR MRLM NIL=
201103030700 METAR MRLM NIL=
201103030800 METAR MRLM NIL=
201103030900 METAR MRLM NIL=
201103031000 METAR MRLM NIL=
201103031100 METAR MRLM NIL=
201103031200 METAR MRLM 031200Z NIL=
201103031300 METAR MRLM 031300Z 22003KT 9999 FEW020 SCT070 22/20 A2998 RMK SCT090 TCU RA N HZ LGT ARND=
201103031400 METAR MRLM 031400Z 031400Z20004KT 9999 FEW020 SCT070 24/20 A3000 RMK SCT090 RA DST N HZ LGT ARND=
201103031500 METAR MRLM 031500Z 19003KT 9999 FEW025 SCT070 26/21 A3001 RMK SCT090 DZ SE NW HZ LGT ARND=
201103031600 METAR MRLM 031600Z 36005KT 9999 FEW025 BKN070 28/21 A3001 RMK FEW090 HZ ARND LGT=
201103031700 METAR MRLM 031700Z 36005KT 9999 FEW035 BKN080 28/20 A2998 RMK HZ ARND LGT=
201103031800 METAR MRLM 031800Z 36007KT 9999 FEW045 BKN080 28/20 A2995 RMK TCU DST NE E HZ LGT ARND=
201103031900 METAR MRLM 031900Z 05018KT 9999 FEW028 BKN080 27/21 A2994 RMK DZ DST NE HZ ARND LGT=
201103032000 METAR MRLM 032000Z 05011KT 9999 FEW030 SCT080 27/21 A2991 RMK TCU RA DST N E FEW300 HZ LGT ARND=
201103032100 METAR MRLM 032100Z 03009KT 9999 FEW045 SCT120 28/19 A2989 RMK FEW300 LGT HZ ARND TCU DST RN NE E=
201103032200 METAR MRLM 032200Z 36007KT 9999 FEW038 SCT110 28/21 A2987 RMK TCU RN DST NE LGT HZ ARND SCT300=
201103032300 METAR MRLM 032300Z 03004KT CAVOK 27/20 A2989 RMK SCT080 SCT100 LGT HZ ARND=
201103040000 METAR MRLM 040000Z 05004KT CAVOK 26/20 A2990 RMK BKN080 SCT300 LGT HZ ARND=
201103040100 METAR MRLM NIL=
201103040200 METAR MRLM NIL=
201103040300 METAR MRLM NIL=
201103040400 METAR MRLM NIL=
201103040500 METAR MRLM NIL=
201103040600 METAR MRLM NIL=
201103040700 METAR MRLM NIL=
201103040800 METAR MRLM NIL=
201103040900 METAR MRLM NIL=
201103041000 METAR MRLM NIL=
201103041100 METAR MRLM NIL=
201103041200 METAR MRLM 041200Z 22004KT 9999 FEW025 BKN070 21/20 A2993 RMK TCU RA DST NW N NE E HZ ARND=
201103041300 METAR MRLM 041300Z 22003KT 9999 SCT025 BKN080 22/20 A2995 RMK RN DST NW N NE E LGT HZ ARND=
201103041400 METAR MRLM 041400Z 06010KT 9999 SCT018 SCT080 24/21 2999 RMK DZ N E=
201103041500 METAR MRLM 041500Z 00000KT 9999 FEW020 SCT030 26/20 A3000 RMK DZ QUAD N SCT080 HZ SE=
201103041600 METAR MRLM 041600Z 32006KT 9999 BKN030 SCT080 27/21 A3000 RMK RN DST QUAD N DZ SE=
201103041700 METAR MRLM 041700Z 35011KT 9999 SCT023 SCT090 25/20 A2998 RMK DZ QUAD N=
201103041800 METAR MRLM 041800Z 32006KT 9999 SCT030 SCT080 26/20 A2996 RMK DZ DST NW E TCU RN DST SW LGT HZ ARND=
201103041900 METAR MRLM 041900Z 12002KT 9999 SCT035 SCT080 28/19 A2994 RMK DZ NW RN DST SW LGT HZ ARND=
201103042000 METAR MRLM 042000Z 04002KT 9999 FEW045 BKN090 29/19 A2991 RMK RN SW LGT HZ ARND=
201103042100 METAR MRLM 042100Z 04002KT 9999 FEW045 SCT080 27/19 A2989 RMK SCT110 RN DST SW LGT HZ ARND=
201103042200 METAR MRLM 042200Z 00000KT 9999 SCT040 SCT090 27/19 A2989 RMK LGT HZ ARND=
201103042300 METAR MRLM 042300Z 00000KT 9999 SCT035 BKN090 27/19 A2989 RMK LGT HZ ARND=
201103050000 METAR MRLM 050000Z 16002KT 9999 SCT020 BKN080 25/21 A2990 RMK LGT HZ ARND=
201103050100 METAR MRLM NIL=
201103050200 METAR MRLM NIL=
201103050300 METAR MRLM NIL=
201103050400 METAR MRLM NIL=
201103050500 METAR MRLM NIL=
201103050600 METAR MRLM NIL=
201103050700 METAR MRLM NIL=
201103050800 METAR MRLM NIL=
201103050900 METAR MRLM NIL=
201103051000 METAR MRLM NIL=
201103051100 METAR MRLM NIL=
201103051200 METAR MRLM 051200Z 22002KT CAVOK 20/19 A2994 RMK BKN110 HZ ARND=
201103051300 METAR MRLM 051300Z 22004KT 9999 NSC 23720 A2996 HZ ARND=
201103051400 METAR MRLM 051400Z 20008KT 9999 NSC 26/21 A2998 HZ ARND=
201103051500 METAR MRLM NIL=
201103051600 METAR MRLM 051600Z 06004KT 9999 FEW040 28/19 A2999 RMK HZY=
201103051700 METAR MRLM 051700Z 05005KT 9999 FEW040 28/20 A2997 RMK HZ LGT ARND=
201103051800 METAR MRLM 051800Z 06007KT 9999 NSC 28/20 A2995 RMK HZ LGT ARND=
201103051900 METAR MRLM 051900Z 05008KT 9999 NSC 29/20 A2992 RMK LGT HZ ARND=
201103052000 METAR MRLM 052000Z 05008KT 9999 FEW040 28/20 A2990 RMK LGT HZ ARND=
201103052100 METAR MRLM 052100Z 06006KT 9999 FEW035 28/20 A2987 RMK HZ LEVE ARND=
201103052200 METAR MRLM 052200Z 05005KT 9999 FEW035 27/20 A2987 RMK FEW120 HZ LEVE ARND=
201103052300 METAR MRLM 052300Z 05003KT 9999 SCT030 SCT110 27/20 A2988 RMK HZ ARND=
201103052359 METAR MRLM 060000Z 08003KT 9999 BKN025 SCT00 26/21 A2988 RMK HZ ARND=
201103060000 METAR MRLM 060000Z 08003KT 9999 BKN025 SCT00 26/21 A2988 RMK HZ ARND=
201103060100 METAR MRLM NIL=
201103060200 METAR MRLM NIL=
201103060300 METAR MRLM NIL=
201103060400 METAR MRLM NIL=
201103060500 METAR MRLM NIL=
201103060600 METAR MRLM NIL=
201103060700 METAR MRLM NIL=
201103060800 METAR MRLM NIL=
201103060900 METAR MRLM NIL=
201103061000 METAR MRLM NIL=
201103061100 METAR MRLM NIL=
201103061200 METAR MRLM 061200Z NIL=
201103061213 METAR MRLM 061213Z 22004KT 9999 BKN015 20/18 A2994 RMK FEW110 RA DST NE HZ ARND=
201103061300 METAR MRLM 061300Z 00000KT 9999 BKN015 21/19 A2995 RMK FEW110 RA DST E HZ ARND=
201103061400 METAR MRLM 061400Z 21004KT 9999 BKN020 SCT110 24/19 A2998 RMK RA DST E HZ ARND=
201103061500 METAR MRLM 061500Z 07006KT 9999 SCT030 SCT120 26/20 A3000 RMK RA DST E HZ ARND=
201103061600 METAR MRLM 061600Z 10007KT 9999 SCT030 SCT120 27/22 A3001 RMK HZ LEVE ARND=
201103061700 METAR MRLM 061700Z 09007KT 9999 FEW030 27/21 A3001 RMK FEW130=
201103061800 METAR MRLM 061800Z 08008KT 9999 NSC 27/21 A2996=
201103061900 METAR MRLM 061900Z 09008KT 9999 FEW035 28/21 A2994=
201103062000 METAR MRLM 062000Z 09007KT 9999 FEW035 28/21 A2991 RMK FEW130=
201103062100 METAR MRLM 062100Z 08006KT 9999 FEW030 28/21 A2989 FEW130 HZY=
201103062200 METAR MRLM 062200Z 08005KT 9999 FEW030 27/21 A2988 HZY ARND LGT=
201103062300 METAR MRLM 062300Z 11002KT 9999 FEW025 SCT100 26/21 A2988 HZY=
201103062352 METAR MRLM 07000Z 00000KT 9999 FEW020 SCT100 25/21 A2989 HZY=
201103070000 METAR MRLM 07000Z 00000KT 9999 FEW020 SCT100 25/21 A2989 HZY=
201103070100 METAR MRLM 070100Z NIL=
201103070200 METAR MRLM NIL=
201103070300 METAR MRLM NIL=
201103070400 METAR MRLM NIL=
201103070500 METAR MRLM NIL=
201103070600 METAR MRLM NIL=
201103070700 METAR MRLM NIL=
201103070800 METAR MRLM NIL=
201103070900 METAR MRLM NIL=
201103071000 METAR MRLM NIL=
201103071100 METAR MRLM NIL=
201103071200 METAR MRLM 071200Z 22004KT 9999 FEW015 BKN300 20/18 A2992 RMK FEW140 LGT HZ ARND=
201103071300 METAR MRLM 071300Z 23006KT CAVOK 22/19 A2993 RMK FEW140 BKN300 HZ LGT ARND=
201103071400 METAR MRLM 071400Z 22004KT CAVOK 26/20 A2994 RMK FEW140 BKN300 HZ LGT ARND=
201103071500 METAR MRLM 071500Z 03003KT CAVOK 28/21 A2995 RMK FEW140 BKN300 RA DST E HZ LGT ARND=
201103071600 METAR MRLM 071600Z 01006KT 9999 FEW040 SCT130 28/20 A2995 RMK SCT300 RA DST E=
201103071700 METAR MRLM 071700Z 02007KT 9999 FEW040 BKN130 28/21 A2993 RMK FEW300 TCU DST NE HZ LGT ARND=
201103071800 METAR MRLM 071800Z 02007KT 9999 FEW038 BKN100 28/21 A2991 RMK RA DST NE E HZ ARND=
201103071900 METAR MRLM 071900Z 05011KT 9999 SCT030 SCT090 28/22 A2989 RMK RA DST NE E HZ ARND=
201103072000 METAR MRLM 072000Z 07009KT 9999 FEW030 BKN080 27/22 A2986 RMK RA DST NE E HZ ARND=
201103072100 METAR MRLM 072100Z 07006KT 9999 FEW035 BKN080 27/20 A2984 RMK DZ NE RA SW HZ ARND=
201103072200 METAR MRLM 072200Z 03002KT 9999 FEW020 SCT045 BKN080 28/20 A2984 RMK RA DST SW HZ ARND=
201103072300 METAR MRLM 072300Z 24002KT CAVOK 28/20 A2985 RMK SCT070 BKN080 HZ ARND=
201103080000 METAR MRLM 080000Z 19002KT CAVOK 25/21 A2985 RMK SCT080 SCT100 FEW300 RMK HZ ARND=
201103080100 METAR MRLM NIL=
201103080200 METAR MRLM NIL=
201103080300 METAR MRLM NIL=
201103080400 METAR MRLM NIL=
201103080500 METAR MRLM NIL=
201103080600 METAR MRLM NIL=
201103080700 METAR MRLM NIL=
201103080800 METAR MRLM NIL=
201103080900 METAR MRLM NIL=
201103081000 METAR MRLM NIL=
201103081100 METAR MRLM NIL=
201103081200 METAR MRLM NIL=
201103081300 METAR MRLM 081300Z 00000KT CAVOK 24/21 A2983 RMK BKN300 HZ ARND LGT=
201103081400 METAR MRLM 081400Z 21003KT 9999 FEW015 SCT300 27/20 A2996 RMK HZ ARND=
201103081500 METAR MRLM 081500Z 11005KT 9999 FEW035 28/21 A2998 RMK FEW140 FEW300 HZ ARND LGT=
201103081600 METAR MRLM 081600Z 09005KT 9999 BKN030 28/22 A2999 RMK FEW100 HZ ARND=
201103081700 METAR MRLM 081700Z 06012KT 9999 DZ VCSH BKN022 SCT100 27/23 A2998 RMK RA NW S HZ ARND LGT=
201103081800 METAR MRLM 081800Z 06009KT 9999 SCT038 SCT110 29/21 A2996 REDZ RMK HZ ARND LGT=
201103081900 METAR MRLM 081900Z 04010KT 9999 FEW040 BKN090 29/21 A2994 RMK RA DST SW HZ LGT ARND=
201103082000 METAR MRLM 082000Z 09006KT 9999 FEW035 BKN090 28/22 A2992 RMK FEW070 RA DST SW HZ ARND=
201103082100 METAR MRLM 082100Z 07005KT 9999 FEW038 BKN090 29/21 A2990 RMK LGT HZ ARND FEW070=
201103082200 METAR MRLM 082200Z 08005KT 9999 FEW038 BKN100 29/21 A2990 RMK RN DST SW W FEW300 LGHT HZ ARND=
201103082300 METAR MRLM 082300Z 09005KT 9999 SCT030 SCT100 27/21 A2991 RMK FEW280 RN DST SW LGHT HZ ARND=
201103090000 METAR MRLM 090000Z 10006KT 9999 BKN025 27/22 A2992 RMK FEW100 RN DST NW LGHT HZ ARND=
201103090100 METAR MRLM NIL=
201103090200 METAR MRLM NIL=
201103090300 METAR MRLM NIL=
201103090400 METAR MRLM NIL=
201103090500 METAR MRLM NIL=
201103090600 METAR MRLM NIL=
201103090700 METAR MRLM NIL=
201103090800 METAR MRLM NIL=
201103090900 METAR MRLM NIL=
201103091000 METAR MRLM NIL=
201103091100 METAR MRLM NIL=
201103091200 METAR MRLM 091200Z 00000KT CAVOK 22/20 A2999 RMK BKN100 HZ ARND=
201103091300 METAR MRLM 091300Z 23003KT CAVOK 22/21 A3000 RMK BKN110 HZ ARND=
201103091400 METAR MRLM 091400Z 00000KT CAVOK 24/21 A3002 RMK BKN110 HZ ARND=
201103091500 METAR MRLM 091500Z 05002KT CAVOK 28/21 A3003 RMK SCT270 HZ ARND=
201103091600 METAR MRLM 091600Z 05004KT 9999 FEW030 28/21 A3003 RMK FEW270 HZ ARND=
201103091700 METAR MRLM 091700Z 04006KT 9999 FEW035 28/21 A3002 RMK FEW270 LGHT HZ ARND=
201103091800 METAR MRLM 091800Z 05007KT CAVOK 29/22 A2999 RMK BKN270 LGHT HZ ARND=
201103091900 METAR MRLM 091900Z 05006KT CAVOK 29/21 A2996 RMK BKN260 LGHT HZ ARND=
201103092000 METAR MRLM 092000Z 06008KT CAVOK 29/21 A2994 RMK BKN260 LGHT HZ ARND=
201103092100 METAR MRLM 092100Z 04007KT 9999 FEW035 SCT260 28/22 A2991 RMK FEW 120 HZ LGT ARND=
201103092200 METAR MRLM 092200Z 05006KT 9999 BKN030 SCT110 28/21 A2991 RMK LGT HZ ARND=
201103092300 METAR MRLM 092300Z 04005KT 9999 BKN030 SCT100 27/1 A2993 RMK HZ ARND=
201103100000 METAR MRLM 100000Z 04003KT 9999 BKN025 26/21 A2994 RMK FEW100 HZ ARND=
201103100100 METAR MRLM NIL=
201103100200 METAR MRLM NIL=
201103100300 METAR MRLM NIL=
201103100400 METAR MRLM NIL=
201103100500 METAR MRLM NIL=
201103100600 METAR MRLM NIL=
201103100700 METAR MRLM NIL=
201103100800 METAR MRLM NIL=
201103100900 METAR MRLM NIL=
201103101000 METAR MRLM NIL=
201103101100 METAR MRLM NIL=
201103101200 METAR MRLM 101200Z 20004KT CAVOK 21/20 A3000 RMK BKN250 HZ LGT ARND=
201103101300 METAR MRLM 101300Z 21004KT CAVOK 23/20 A3001 RMK BKN250 HZ LGT ARND=
201103101400 METAR MRLM 101400Z 19002KT CAVOK 27/21 A3003 RMK BKN260 HZ LGT ARND=
201103101500 METAR MRLM 101500Z 08003KT CAVOK 28/21 A3004 RMK OVC260 LGT HZ ARND=
201103101600 METAR MRLM 101600Z 08005KT CAVOK 28/21 A3004 RMK OVC260 HZ ARND=
201103101700 METAR MRLM 101700Z 08005KT CAVOK 29/21 A3002 RMK BKN250 HZ ARND=
201103101800 METAR MRLM NIL=
201103101900 METAR MRLM 101900Z 05006KT CAVOK 28/21 A2998 BKN250=
201103102000 METAR MRLM 102000Z 04005KT 9999 FEW035 BKN250 28/21 A2995=
201103102100 METAR MRLM 102100Z 07005KT 9999 FEW035 BKN250 29/21 A2993 RMK FEW120 HZ LEVE ARND=
201103102200 METAR MRLM 102200Z 06005KT 9999 FEW035 SCT120 28/21 A2991 RMK SCT250 HZ LEVE ARND=
201103102300 METAR MRLM 102300Z 06004KT 9999 FEW030 SCT110 27/21 A2993 RMK SCT250 HZ ARND=
201103110000 METAR MRLM 110000Z 07004KT 9999 FEW030 SCT100 26/20 A2994 RMK SCT250 HZ ARND=
201103110100 METAR MRLM NIL=
201103110200 METAR MRLM NIL=
201103110300 METAR MRLM NIL=
201103110400 METAR MRLM NIL=
201103110500 METAR MRLM NIL=
201103110600 METAR MRLM NIL=
201103110700 METAR MRLM NIL=
201103110800 METAR MRLM NIL=
201103110900 METAR MRLM NIL=
201103111000 METAR MRLM NIL=
201103111100 METAR MRLM NIL=
201103111200 METAR MRLM 111200Z NIL=
201103111214 METAR MRLM 111214Z 22004KT 9999 FEW015 20/18 A3002 RMK LGHT HZ ARND=
201103111300 METAR MRLM 111300Z 21006KT 9999 SCT015 21/18 A3003 RMK HZ LEVE ARND=
201103111400 METAR MRLM 111400Z 23003KT 9999 DZ SCT020 23/19 A3006 RMK FEW100 HZ=
201103111500 METAR MRLM 111500Z 00000KT 9999 FEW020 BKN110 26/21 A3007 REDZ RMK HZ LEVE ARND=
201103111600 METAR MRLM 111600Z 04004KT 9999 FEW030 SCT120 28/22 A3007=
201103111700 METAR MRLM 111700Z 08004KT 9999 FEW040 29/21 A3005 RMK FEW120=
201103111800 METAR MRLM 111800Z 07006KT 9999 FEW040 29/20 A3002 RMK FEW130=
201103111900 METAR MRLM 111900Z 07006KT 9999 FEW040 29/21 A2999=
201103112000 METAR MRLM 112000Z 05010KT 9999 FEW035 29/21 A2997=
201103112100 METAR MRLM 112100Z 04009KT 9999 FEW035 29/20 A2995=
201103112200 METAR MRLM 112200Z 03007KT 9999 FEW035 28/21 A2995=
201103112300 METAR MRLM NIL=
201103120000 METAR MRLM 120000Z 04004KT 9999 SCT025 26/21 A2999 RMK FEW110 HZ ARND=
201103120100 METAR MRLM NIL=
201103120200 METAR MRLM NIL=
201103120300 METAR MRLM NIL=
201103120400 METAR MRLM NIL=
201103120500 METAR MRLM NIL=
201103120600 METAR MRLM NIL=
201103120700 METAR MRLM NIL=
201103120800 METAR MRLM NIL=
201103120900 METAR MRLM NIL=
201103121000 METAR MRLM NIL=
201103121100 METAR MRLM NIL=
201103121200 METAR MRLM NIL=
201103121300 METAR MRLM 121300Z 21004KT 9999 BKN015 SCT100 22/19 A3003 HZ ARND=
201103121400 METAR MRLM 121400Z 21002KT 9999 SCT020 SCT110 24/21 A3005=
201103121500 METAR MRLM 121500Z 21003KT CAVOK 27/21 A3007 RMK BKN120=
201103121600 METAR MRLM 121600Z 02005KT CAVOK 27/20 A3006 RMK BKN120 HZ ARND=
201103121700 METAR MRLM 121700Z 01007KT 9999 FEW035 BKN120 28/20 A3004 RMK HZ ARND=
201103121800 METAR MRLM 121800Z 01006KT 9999 FEW040 SCT130 28/20 A3001 RMK HZ ARND=
201103121900 METAR MRLM 121900Z 01006KT 9999 FEW035 SCT130 28/21 A2999=
201103122000 METAR MRLM 122000Z 03009KT 9999 SCT030 SCT120 27/22 A2996=
201103122100 METAR MRLM 122100Z 03010KT 9999 SCT030 SCT120 27/22 A2994=
201103122200 METAR MRLM 122200Z 02007KT 9999 FEW030 SCT120 26/21 A2994=
201103122300 METAR MRLM 122300Z 04002KT 9999 FEW030 SCT110 26/20 A2995 RMK CB DST SW=
201103130000 METAR MRLM 130000Z 00000KT 9999 FEW020 BKN100 25/21 A2996 RMK HZ LGT ARND=
201103130100 METAR MRLM NIL=
201103130200 METAR MRLM NIL=
201103130300 METAR MRLM NIL=
201103130400 METAR MRLM NIL=
201103130500 METAR MRLM NIL=
201103130600 METAR MRLM NIL=
201103130700 METAR MRLM NIL=
201103130800 METAR MRLM NIL=
201103130900 METAR MRLM NIL=
201103131000 METAR MRLM NIL=
201103131100 METAR MRLM NIL=
201103131200 METAR MRLM 131200Z 20005KT 9999 BKN010 SCT100 20/18 A3001 RMK RA DST NE HZ ARND=
201103131300 METAR MRLM 131300Z 20004KT 9999 SCT015 SCT100 21/19 A3002 RMK RA DST E HA ARND=
201103131400 METAR MRLM 131400Z 18003KT 9999 SCT020 BKN110 23/20 A3005 RMK HZ ARND=
201103131500 METAR MRLM 131500Z 17002KT 9999 SCT025 SCT110 26/21 A3006 RMK HZ ARND=
201103131600 METAR MRLM 131600Z 14004KT 9999 FEW035 BKN120 28/20 A3006 RMK HZ LGT ARND=
201103131700 METAR MRLM 131700Z 09005KT 9999 SCT035 BKN120 28/21 A3003=
201103131800 METAR MRLM 131800Z 06005KT 9999 FEW040 BKN130 28/20 A3000=
201103131900 METAR MRLM 131900Z 01006KT 9999 FEW040 BKN130 29/20 A2997=
201103132000 METAR MRLM 132000Z 36007KT CAVOK 28/20 A2995 RMK BKN130=
201103132100 METAR MRLM 132100Z 01007KT CAVOK 29/20 A2993 RMK BKN140=
201103132200 METAR MRLM 132200Z 02006KT CAVOK 28/21 A2992 RMK SCT140 FEW250=
201103132300 METAR MRLM 132300Z 03006KT CAVOK 28/21 A2994 RMK FEW130 FEW250=
201103140000 METAR MRLM 140000Z 04007KT 9999 FEW030 26/20 A2995 RMK FEW120 LGHT HZ ARND=
201103140100 METAR MRLM NIL=
201103140200 METAR MRLM NIL=
201103140300 METAR MRLM NIL=
201103140400 METAR MRLM NIL=
201103140500 METAR MRLM NIL=
201103140600 METAR MRLM NIL=
201103140700 METAR MRLM NIL=
201103140800 METAR MRLM NIL=
201103140900 METAR MRLM NIL=
201103141000 METAR MRLM NIL=
201103141100 METAR MRLM NIL=
201103141200 METAR MRLM 141200Z 21004KT CAVOK 21/19 A2998 RMK SCT260 HZ ARND=
201103141300 METAR MRLM 141300Z 20004KT CAVOK 23/19 A2998 RMK SCT260=
201103141400 METAR MRLM 141400Z 21003KT CAVOK 27/20 A3000 RMK SCT270=
201103141500 METAR MRLM 141500Z 09005KT CAVOK 28/19 A3001 RMK FEW270=
201103141600 METAR MRLM 141600Z 08005KT CAVOK 29/19 A3001 RMK FEW270=
201103141700 METAR MRLM 141700Z 06003KT 9999 NSC 29/20 A2999=
201103141800 METAR MRLM 141800Z 06006KT 9999 FEW040 29/20 A2997=
201103141900 METAR MRLM 141900Z 05008KT 9999 FEW040 SCT130 29/21 A2994=
201103142000 METAR MRLM 142000Z 04010KT 9999 FEW040 SCT120 29/21 A2992=
201103142100 METAR MRLM 142100Z 04010KT 9999 SCT035 BKN120 28/19 A2990 RMK LGT HZ ARND=
201103142200 METAR MRLM 142200Z 04005KT 9999 SCT035 SCT110 27/20 A2990 LGT HZ ARND=
201103142300 METAR MRLM 142300Z 00000KT 9999 SCT035 BKN110 27/20 A2990 RMK HZ LGT ARND=
201103150000 METAR MRLM 150000Z 04005KT 9999 SCT030 BKN100 27/20 A2991 LGT HZ ARND=
201103150100 METAR MRLM NIL=
201103150200 METAR MRLM NIL=
201103150300 METAR MRLM NIL=
201103150400 METAR MRLM NIL=
201103150500 METAR MRLM NIL=
201103150600 METAR MRLM NIL=
201103150700 METAR MRLM NIL=
201103150800 METAR MRLM NIL=
201103150900 METAR MRLM NIL=
201103151000 METAR MRLM NIL=
201103151100 METAR MRLM NIL=
201103151200 METAR MRLM NIL=
201103151300 METAR MRLM 151300Z 20004KT CAVOK 24/20 A3000 RMK FEW300 BKN080 TCU RN DST N LGT HZ ARND=
201103151400 METAR MRLM 151400Z 00000KT 9999 VCSH FEW025 BKN090 25/20 3002 VIS 8KMS NE LGT HZ ARND=
201103151500 METAR MRLM 151500Z 06004KT 9999 SCT023 SCT090 25/20 A3004 RMK TCU RN DST NW DZ E SE W LGT HZ ARND=
201103151600 METAR MRLM 151600Z 10003KT 9999 BKN035 28/21 A3004 RMK FEW080 LGT HZ ARND=
201103151700 METAR MRLM 151700Z 03004KT 9999 SCT040 28/20 A3002 RMK FEW100 FEW300 LGT HZ ARND TCU N NE=
201103151800 METAR MRLM 151800Z 05006KT 9999 FEW045 29/21 A2999 RMK TCU DST N NE FEW110 LGT HZ ARND=
201103151900 METAR MRLM 151900Z 04008KT 9999 FEW040 29/21 A2995 RMK FEW090 TCU DST N NE E HZY=
201103152000 METAR MRLM 152000Z 02011KT 9999 FEW035 SCT090 29/22 A2993 RMK LGT HZ ARND=
201103152100 METAR MRLM 152100Z 05011KT 9999 SCT035 29/22 A2991 RMK FEW100 HZ LEVE ARND=
201103152200 METAR MRLM 152200Z 04009KT 9999 BKN038 29/21 A2991 RMK FEW120 HZ LEVE ARND=
201103152300 METAR MRLM 152300Z 07008KT 9999 BKN035 28/22 A2993 RMK RN DST SW HZ=
201103160000 METAR MRLM 160000Z 05009KT 9999 BKN030 27/21 A2995 RMK FEW300 RN DST S SW HZ LEVE ARND=
201103160100 METAR MRLM NIL=
201103160200 METAR MRLM NIL=
201103160300 METAR MRLM NIL=
201103160400 METAR MRLM NIL=
201103160500 METAR MRLM NIL=
201103160600 METAR MRLM NIL=
201103160700 METAR MRLM NIL=
201103160800 METAR MRLM NIL=
201103160900 METAR MRLM NIL=
201103161000 METAR MRLM NIL=
201103161100 METAR MRLM NIL=
201103161200 METAR MRLM 161200Z NIL=
201103161220 METAR MRLM 161220Z 21004KT CAVOK 20/18 A3001 RMK FEW110 LGHT HZ ARND=
201103161300 METAR MRLM 161300Z 21005KT CAVOK 22/19 A3003 RMK SCT120 HZ LEVE ARND=
201103161400 METAR MRLM 161400Z 22004KT CAVOK 25/19 A3004 RMK BKN120 HZ LEVE ARND=
201103161500 METAR MRLM 161500Z 08004KT CAVOK 28/20 A3005 RMK BKN090 FEW130 HZ LEVE ARND=
201103161600 METAR MRLM 161600Z 06004KT 9999 FEW040 28/20 A3005 RMK FEW140 HZ LEVE ARND=
201103161700 METAR MRLM 161700Z 04004KT 9999 FEW040 28/20 A3003 RMK FEW140 HZ LEVE ARND=
201103161800 METAR MRLM 161800Z 05006KT 9999 FEW040 29/21 A3000 RMK HZ LEVE ARND FEW130 TCU DST N=
201103161900 METAR MRLM 161900Z 07007KT 9999 FEW040 29721 A2998 RMK TCU DST E HZ LGT ARND FEW140=
201103162000 METAR MRLM 162000Z 06006KT 9999 FEW038 SCT130 29/21 A2995 RMK HZ LGT ARND=
201103162100 METAR MRLM NIL=
201103162200 METAR MRLM 162200Z 06006KT 9999 SCT040 SCT130 29/21 A2994 RMK HZ ARND=
201103162300 METAR MRLM 162300Z 05003KT 9999 SCT035 SCT120 28/21 A2995 RMK HZ LEVE ARND=
201103170000 METAR MRLM 170000Z 03004KT 9999 FEW028 SCT130 27/21 A2996 RMK HZ ARND=
201103170100 METAR MRLM NIL=
201103170200 METAR MRLM NIL=
201103170300 METAR MRLM NIL=
201103170400 METAR MRLM NIL=
201103170500 METAR MRLM NIL=
201103170600 METAR MRLM NIL=
201103170700 METAR MRLM NIL=
201103170800 METAR MRLM NIL=
201103170900 METAR MRLM NIL=
201103171000 METAR MRLM NIL=
201103171100 METAR MRLM NIL=
201103171200 METAR MRLM 171200Z 26003KT 9999 -DZ BKN007 ///// A3001 RMK FEW080 HZ ARND=
201103171300 METAR MRLM 171300Z 00000KT 6000 RA BKN007 ////// A3004 RMK FEW080=
201103171400 METAR MRLM 171400Z 21005KT 9999 BKN010 ///// A3005 RERA RMK FEW090 RA N HZ ARND=
201103171500 METAR MRLM NIL=
201103171600 METAR MRLM 171600Z 20005KT 9999 SCT015 SCT100 24/21 A3006 RMK HZ ARND=
201103171700 METAR MRLM 171700Z 18003KT 9999 SCT020 SCT100 25/20 A3000 RMK HZ ARND=
201103171800 METAR MRLM 171800Z 00000KT 9999 SCT030 BKN110 29/20 A2999 RMK HZ ARND=
201103171900 METAR MRLM 171900Z 06011 9999 DZ SCT025 SCT110 28/23 A2998 RMK HZ ARND=
201103172000 METAR MRLM 172000Z 36016KT 9999 DZ BKN015 SCT100 24/22 A2997 RMK RA DST N HZ ARND=
201103172100 METAR MRLM 172100Z 18007KT 9999 -DZ BKN010 SCT090 23/21 A2996 RMK RA DST E SE HZ ARND=
201103172200 METAR MRLM 172200Z 19005KT 9999 BKN010 SCT090 23/21 A2995 RMK HZ ARND=
201103172300 METAR MRLM 172300Z 21004KT 9999 SCT015 BKN100 24/21 A2995 RMK HZ ARND=
201103180000 METAR MRLM 180000Z 20003KT 9999 SCT010 BKN100 23/21 A2997 RMK HZ ARND=
201103180100 METAR MRLM NIL=
201103180200 METAR MRLM NIL=
201103180300 METAR MRLM NIL=
201103180400 METAR MRLM NIL=
201103180500 METAR MRLM NIL=
201103180600 METAR MRLM NIL=
201103180700 METAR MRLM NIL=
201103180800 METAR MRLM NIL=
201103180900 METAR MRLM NIL=
201103181000 METAR MRLM NIL=
201103181100 METAR MRLM NIL=
201103181200 METAR MRLM 181200Z NIL=
201103181215 METAR MRLM 181215Z 20003KT 9999 SCT010 SCT100 21/20 A2999 AMK RA DST N NE HZ ARND=
201103181300 METAR MRLM 181300Z 01005KT 9999 +DZ BKN015 BKN015 SCT100 22/20 A3002 RMK RA DST SW E=
201103181400 METAR MRLM 181400Z 19002KT 9999 SCT015 SCT100 23/20 A3002 REDZ RMK RA DST SW HZ ARND=
201103181500 METAR MRLM 181500Z 22005KT 9999 FEW020 BKN110 25/21 A3004 RMK HZ ARND=
201103181600 METAR MRLM 181600Z 02003KT 9999 SCT025 SCT110 28/21 A3004 RMK RA DST N NE HZ ARND=
201103181700 METAR MRLM 181700Z 07011KT 9999 DZ BKN015 SCT100 25/22 A3005 RMK RA DST SE S HZ ARND=
201103181800 METAR MRLM 181800Z 05005KT 9999 SCT025 BKN110 28/22 A3000 REDZ RMK RA DST S HZ ARND=
201103181900 METAR MRLM NIL=
201103182000 METAR MRLM 182000Z 03003KT 9999 FEW040 SCT130 29/20 A2995 RMK HZ LGT ARND=
201103182100 METAR MRLM 182100Z 36004KT 9999 FEW040 SCT130 29/19 A2993 RMK LGHT HZ ARND=
201103182200 METAR MRLM 182200Z 01003KT 9999 SCT035 SCT120 28/20 A2992 RMK LGHT HZ ARND=
201103182300 METAR MRLM 182300Z 02007KT 9999 SCT030 SCT110 28/20 A2993 RMK RA DST NE HZ ARND=
201103190000 METAR MRLM 190000Z 04013KT 9999 -DZ BKN020 SCT100 25/21 A2995 RMK RA DST NE E HZ ARND=
201103190100 METAR MRLM NIL=
201103190200 METAR MRLM NIL=
201103190300 METAR MRLM NIL=
201103190400 METAR MRLM NIL=
201103190500 METAR MRLM NIL=
201103190600 METAR MRLM NIL=
201103190700 METAR MRLM NIL=
201103190800 METAR MRLM NIL=
201103190900 METAR MRLM NIL=
201103191000 METAR MRLM NIL=
201103191100 METAR MRLM NIL=
201103191200 METAR MRLM 191200Z 23004KT 9999 SCT015 BKN080 22/19 A2998 RMK RA QUAD S W DZ NE=
201103191300 METAR MRLM 191300Z 24004KT 9999 BKN015 SCT080 22/20 A2999 RMK RN DST S W DZ DST NE LGHT HZ ARND=
201103191400 METAR MRLM 191400Z 23004KT 9999 SCT015 BKN080 23/20 A3001 RMK DZ NE S SW LGHT HZ ARND=
201103191500 METAR MRLM 191500Z 21004KT 9999 BKN018 24/21 A3002 RMK FEW080 RN DST S W DZ N NE LGHT HZ ARND=
201103191600 METAR MRLM 191600Z 00000KT 9999 BKN015 SCT080 24/21 A3002 RERA RMK RN HZ ARND=
201103191700 METAR MRLM 191700Z 25005KT 9999 FEW028 BKN080 26/21 A3000 RMK RN DST QUAD N LGHT HZ ARND=
201103191800 METAR MRLM 191800Z 22005KT 9999 BKN030 27/21 A2998 RMK FEW090 RN DST HZ ARND=
201103191900 METAR MRLM 191900Z 00000KT 9999 VCSH SCT040 SCT080 28/19 A2997 RMK VIS 7KM QUAD N=
201103192000 METAR MRLM 192000Z 21006KT 9999 FEW010 BKN070 23/21 A2995 RERA RMK FEW090 RN HZ ARND=
201103192100 METAR MRLM 192100Z 17004KT 9999 SCT013 SCT070 24/21 A2993 RMK SCT090 RN DST HZ ARND=
201103192200 METAR MRLM 192200Z 19006KT 9999 FEW015 SCT070 24/21 A2993 RMK SCT090 RN HZ DST ARND=
201103192300 METAR MRLM 192300Z 22005KT CAVOK 24/20 A2993 RMK BKN070 SCT090 RN DST E S=
201103200000 METAR MRLM 200000Z 21004KT CAVOK 23/20 A2993 RMK BKN070 SCT090 RN DST E DZ SW=
201103200100 METAR MRLM NIL=
201103200200 METAR MRLM NIL=
201103200300 METAR MRLM NIL=
201103200400 METAR MRLM NIL=
201103200500 METAR MRLM NIL=
201103200600 METAR MRLM NIL=
201103200700 METAR MRLM NIL=
201103200800 METAR MRLM NIL=
201103200900 METAR MRLM NIL=
201103201000 METAR MRLM NIL=
201103201100 METAR MRLM NIL=
201103201200 METAR MRLM NIL=
201103201300 METAR MRLM 201300Z 22007KT 8000 DZ VCSH BKN012 SCT090 22/20 A3002 RMK VIS N UNL=
201103201400 METAR MRLM NIL=
201103201500 METAR MRLM 201500Z 20005KT 9999 FEW020 BKN070 25/20 A3004 RMK FEW090 RN DST SE S W NE=
201103201600 METAR MRLM 201600Z 17004KT 9999 BKN015 SCT070 26/21 A3004 RMK RN DST N NE LGT HZ ARND=
201103201700 METAR MRLM 201700Z 18003KT 9999 FEW028 BKN070 26/20 A3003 RMK DZ S W QUADS LGT HZ ARND=
201103201800 METAR MRLM 201800Z 19004KT CAVOK 27/20 A3000 RMK BKN080 FEW100 TCU DST N NE LGT HZ ARND=
201103201900 METAR MRLM 201900Z 20004KT CAVOK 29/20 A2996 RMK BKN070 SCT090 TCU DST NE E LGT HZ ARND=
201103202000 METAR MRLM 202000Z 14004KT CAVOK 29/18 A2994 RMK FEW070 FEW090 RN DST N E QUADS=
201103202100 METAR MRLM 202100Z 00000KT 9999 FEW040 BKN070 27/19 A2992 RMK FEW090 DZ HZ LEVE DST ARND=
201103202200 METAR MRLM 202200Z 12008KT 9999 DZ VCSH SCT020 SCT080 25/21 A2992 RMK VIS 8000 SE=
201103202300 METAR MRLM 202300Z 23004KT 9999 SCT020 SCT070 25/20 A2991 REDZ RMK RN DST S DZ DST W NW FEW090 HZ LEVE ARND=
201103210000 METAR MRLM 210000Z 21003KT 9999 FEW040 SCT070 25/20 A2992 RMK SCT090 FEW300 HZ LEVE ARND=
201103210100 METAR MRLM NIL=
201103210200 METAR MRLM NIL=
201103210300 METAR MRLM NIL=
201103210400 METAR MRLM NIL=
201103210500 METAR MRLM NIL=
201103210600 METAR MRLM NIL=
201103210700 METAR MRLM NIL=
201103210800 METAR MRLM NIL=
201103210900 METAR MRLM NIL=
201103211000 METAR MRLM NIL=
201103211100 METAR MRLM NIL=
201103211200 METAR MRLM 211200Z NIL=
201103211300 METAR MRLM 211300Z 23004KT 9999 -DZ BKN010 SCT100 22/20 A2998 RMK RA DST N HZ ARND=
201103211400 METAR MRLM 211400Z 27004KT 9999 SCT010 SCT100 22/20 A3000 RMK RA DST NE HZ ARND=
201103211500 METAR MRLM 211500Z 21003KT 9999 SCT015 BKN100 24/21 A3002 RERA RMK RA DST SE S HZ ARND=
201103211600 METAR MRLM 211600Z 17006KT 9999 SCT020 BKN110 25/20 A3002 RMK HZ ARND=
201103211700 METAR MRLM 211700Z 18005KT 9999 FEW030 BKN120 26/20 A3000 RMK HZ ARND=
201103211800 METAR MRLM 211800Z 20002KT 9999 SCT035 SCT120 27/19 A3000 RMK HZ ARND=
201103211900 METAR MRLM 211900Z 00000KT 9999 FEW035 BKN110 28/21 A2997 RMK HZ ARND=
201103212000 METAR MRLM 212000Z 00000KT 9999 FEW035 BKN110 28/21 A2995 RMK HZ ARND=
201103212100 METAR MRLM 212100Z 00000KT 9999 FEW030 BKN100 27/21 A2993 RMK HZ ARND=
201103212200 METAR MRLM 212200Z 12007KT 9999 SCT025 SCT100 26/21 A2991 RMK HZ ARND=
201103212300 METAR MRLM 212300Z 00000KT 9999 SCT025 SCT100 26/21 A2991 RMK HZ ARND=
201103220000 METAR MRLM 220000Z 00000KT 9999 FEW020 BKN100 25/21 A2991 RMK HZ ARND=
201103220100 METAR MRLM NIL=
201103220200 METAR MRLM NIL=
201103220300 METAR MRLM NIL=
201103220400 METAR MRLM NIL=
201103220500 METAR MRLM NIL=
201103220600 METAR MRLM NIL=
201103220700 METAR MRLM NIL=
201103220800 METAR MRLM NIL=
201103220900 METAR MRLM NIL=
201103221000 METAR MRLM NIL=
201103221100 METAR MRLM NIL=
201103221200 METAR MRLM 221200Z NIL=
201103221300 METAR MRLM 221300Z 23004KT 9999 BKN010 SCT090 22/20 A2995 RMK HZ ARND=
201103221400 METAR MRLM 221400Z 20003KT 9999 SCT015 BKN100 23/20 A2998 RMK HZ ARND=
201103221500 METAR MRLM 221500Z 25004KT 9999 FEW030 BKN110 26/20 A2999 RMK HZ ARND=
201103221600 METAR MRLM 221600Z 00000KT 9999 FEW035 BKN120 28/19 A2999 RMK HZ ARND=
201103221700 METAR MRLM 221700Z 02004KT 9999 FEW040 SCT120 28/20 A2997 RMK FEW250 HZ ARND=
201103221800 METAR MRLM 221800Z 01006KT 9999 FEW040 SCT130 28/19 A2995 RMK SCT250 HZ LGT ARND=
201103221900 METAR MRLM 221900Z 01006KT 9999 FEW040 SCT130 28/19 A2995 RMK SCT250 HZ LGT ARND=
201103222000 METAR MRLM 222000Z 04006KT CAVOK 28/20 A2989 RMK FEW140 SCT250 HZ LGT ARND=
201103222100 METAR MRLM 222100Z 04007KT CAVOK 28/20 A2997 RMK SCT140 SCT250 HZ ARND=
201103222200 METAR MRLM 222200Z 36007KT 9999 SCT035 SCT130 27/20 A2987 RMK FEW250 HZ ARND=
201103222300 METAR MRLM 222300Z 35013KT 9999 SCT020 SCT110 25/22 A2988 RMK HZ ARND=
201103230000 METAR MRLM 230000Z 06009KT 9999 SCT015 BKN110 25/19 A2990 RMK RA DST S HZ ARND=
201103230100 METAR MRLM NIL=
201103230200 METAR MRLM NIL=
201103230300 METAR MRLM NIL=
201103230400 METAR MRLM NIL=
201103230500 METAR MRLM NIL=
201103230600 METAR MRLM NIL=
201103230700 METAR MRLM NIL=
201103230800 METAR MRLM NIL=
201103230900 METAR MRLM NIL=
201103231000 METAR MRLM NIL=
201103231100 METAR MRLM NIL=
201103231200 METAR MRLM NIL=
201103231300 METAR MRLM 231300Z 30002KT CAVOK 24/19 A2992 RMK SCT070 SCT080 HZ LGT ARND=
201103231400 METAR MRLM 231400Z 23003KT CAVOK 25/20 A2993 RMK BKN070 SCT080 HZ ARND LGT=
201103231500 METAR MRLM 231500Z 05002KT 9999 FEW035 SCT070 27/20 A2995 RMK SCT080 HZ ARND RA DST NE E=
201103231600 METAR MRLM 231600Z 02005KT 9999 SCT035 SCT080 27/21 A2885 RMK RA DST E DZ DST NE=
201103231700 METAR MRLM 231700Z 10008KT 9999 FEW035 BKN080 27/21 A2993 RMK HZ ARNS LGT=
201103231800 METAR MRLM 231800Z 10007KT 9999 FEW040 BKN080 28/20 A2990 RMK HZ LGT ARND=
201103231900 METAR MRLM 231900Z 07007KT 9999 FEW035 BKN090 28/21 A2987 RMK HZ LGT ARND FEW280=
201103232000 METAR MRLM 232000Z 09008KT 9999 FEW045 SCT080 29/20 A2984 RMK HZ LGT ARND=
201103232100 METAR MRLM 232100Z 07006KT CAVOK 29/20 A2983 RMK SCT070/ SCT080 FEW300 RNDIST SW/ LGT HZ ARND=
201103232200 METAR MRLM 232200Z 06006KT 9999 FEW035 SCT070 27/20 A2983 RMK FEW110 FEW280 RN DST SW LGHT HZ ARND=
201103232300 METAR MRLM 232300Z 04004KT 9999 FEW035 SCT080 27/20 A2984 RMK FEW070 FEW280 LGHT HZ ARND=
201103240000 METAR MRLM 240000Z 03006KT 9999 SCT030 SCT090 27/20 A2986 RMK FEW070 RN DST W NW E S=
201103240100 METAR MRLM 240100Z NIL=
201103240200 METAR MRLM NIL=
201103240300 METAR MRLM NIL=
201103240400 METAR MRLM NIL=
201103240500 METAR MRLM NIL=
201103240600 METAR MRLM NIL=
201103240700 METAR MRLM NIL=
201103240800 METAR MRLM NIL=
201103240900 METAR MRLM NIL=
201103241000 METAR MRLM NIL=
201103241100 METAR MRLM NIL=
201103241200 METAR MRLM NIL=
201103241300 METAR MRLM 241300Z 21004KT CAVOK 22/20 A2992 RMK OVC080 LGHT HZ ARND=
201103241400 METAR MRLM 241400Z 20003KT CAVOK 25/21 A2994 RMK FEW070 BKN090 LGHT ARND=
201103241500 METAR MRLM 241500Z 08005KT 9999 FEW035 SCT130 27/20 A2995 RMK FEW280=
201103241600 METAR MRLM 241600Z 07005KT 9999 FEW035 28/21 A2995 RMK FEW140 FEW280=
201103241700 METAR MRLM 241700Z 07006KT 9999 FEW035 SCT280 28/21 A2993 RMK LGHT HZ ARND=
201103241800 METAR MRLM 241800Z 05007KT 9999 FEW035 SCT280 28/21 A2990 RMK LGHT HZ ARND=
201103241900 METAR MRLM 241900Z 05008KT 9999 FEW035 29/21 A2988 RMK FEW120 FEW280=
201103242000 METAR MRLM 242000Z 05006KT 9999 FEW035 SCT280 29/21 A2986 RMK FEW120=
201103242100 METAR MRLM 242100Z 06008KT 9999 FEW035 29/21 A2984 RMK FEW090 FEW280 RN DST SW LGT HZ ARND=
201103242200 METAR MRLM 242200Z 05006KT 9999 FEW030 SCT090 28/22 A2985 RMK RN DST S SW FEW280 LGT HZ ARND=
201103242300 METAR MRLM 242300Z 08003KT 9999 OVC025 27/22 A2985 RMK RN DST S SW W=
201103250000 METAR MRLM 250000Z 05009KT 9999 VCSH BKN028 27/22 A2986 REDZ RMK VIS SW W 8KMS FEW090=
201103250100 METAR MRLM NIL=
201103250200 METAR MRLM NIL=
201103250300 METAR MRLM NIL=
201103250400 METAR MRLM NIL=
201103250500 METAR MRLM NIL=
201103250600 METAR MRLM NIL=
201103250700 METAR MRLM NIL=
201103250800 METAR MRLM NIL=
201103250900 METAR MRLM NIL=
201103251000 METAR MRLM NIL=
201103251100 METAR MRLM NIL=
201103251200 METAR MRLM 251200Z 23003KT 9999 SCT010 SCT100 22/20 A2991 RMK HZ ARND=
201103251300 METAR MRLM 251300Z 20004KT CAVOK 23/21 A2993 RMK BKN110 HZ ARND=
201103251400 METAR MRLM 251400Z 19004KT 9999 NSC 27/21 A2993 RMK HZ ARND=
201103251500 METAR MRLM 251500Z 05004KT 9999 NSC 28/21 A2994 RMK HZ ARND=
201103251600 METAR MRLM 251600Z 05004KT 9999 FEW030 28/22 A2994 RMK HZ ARND=
201103251700 METAR MRLM 251700Z 02006KT 9999 FEW035 28/21 A2992 HZ ARND=
201103251800 METAR MRLM 251800Z 04007KT 9999 NSC 29/22 A2990 RMK HZ ARND=
201103251900 METAR MRLM 251900Z 02007KT 9999 NSC 29/22 A2987 RMK HZ ARND=
201103252000 METAR MRLM 252000Z 02005KT 9999 NSC 29/22 A2984 RMK HZ ARND=
201103252100 METAR MRLM 252100Z 02006KT 9999 FEW035 29/22 A2985 RMK FEW130 HZ ARND=
201103252200 METAR MRLM 252200Z 03004KT 9999 FEW030 28/22 A2982 RMK FEW120 HZ ARND=
201103252300 METAR MRLM 252300Z 03004KT 9999 FEW030 SCT120 28/22 A2982 RMK HZ ARND=
201103260000 METAR MRLM 260000Z 04005KT 9999 SCT020 SCT110 27/22 A2984 RMK HZ ARND=
201103260100 METAR MRLM NIL=
201103260200 METAR MRLM NIL=
201103260300 METAR MRLM NIL=
201103260400 METAR MRLM NIL=
201103260500 METAR MRLM NIL=
201103260600 METAR MRLM NIL=
201103260700 METAR MRLM NIL=
201103260800 METAR MRLM NIL=
201103260900 METAR MRLM NIL=
201103261000 METAR MRLM NIL=
201103261100 METAR MRLM NIL=
201103261200 METAR MRLM 261200Z 21004KT 9999 SCT010 SCT100 22/20 A2986 RMK HZ ARND=
201103261300 METAR MRLM 261300Z 21004KT 9999 NSC 24/21 A2989 RMK HZ ARND=
201103261400 METAR MRLM 261400Z 20003KT 9999 NSC 27/22 A2989 RMK HZ ARND=
201103261500 METAR MRLM 261500Z 00000KT 9999 FEW030 29/22 A2990 RMK HZ ARND=
201103261600 METAR MRLM 261600Z 04003KT 9999 FEW030 28/23 A2989 RMK HZ ARND=
201103261700 METAR MRLM 261700Z 02006KT CAVOK 29/23 A2985 RMK FEW250 HZ ARND=
201103261800 METAR MRLM 261800Z 02006KT CAVOK 29/23 A2985 RMK FEW250 HZ ARND=
201103261900 METAR MRLM 261900Z 02007KT CAVOK 29/23 A2982 RMK FEW250 HZ ARND=
201103262000 METAR MRLM 262000Z 01006KT 9999 FEW030 30/23 A2980 RMK FEW250 HZ ARND=
201103262100 METAR MRLM 262100Z 28015KT 9999 FEW040 32/16 A2970=
201103262200 METAR MRLM 262200Z 36007KT 9999 FEW030 29/23 A2978 RMK HZ ARND=
201103262300 METAR MRLM 262300Z 01006KT 9999 FEW030 29/23 A2978 RMK HZ ARND=
201103270000 METAR MRLM 270000Z 03004KT 9999 SCT025 28/23 A2982 RMK HZ ARND=
201103270100 METAR MRLM NIL=
201103270200 METAR MRLM NIL=
201103270300 METAR MRLM NIL=
201103270400 METAR MRLM NIL=
201103270500 METAR MRLM NIL=
201103270600 METAR MRLM NIL=
201103270700 METAR MRLM NIL=
201103270800 METAR MRLM NIL=
201103270900 METAR MRLM NIL=
201103271000 METAR MRLM NIL=
201103271100 METAR MRLM NIL=
201103271200 METAR MRLM 271200Z NIL=
201103271300 METAR MRLM 271300Z 20004KT 9999 NSC 25/22 A2986 RMK HZ ARND=
201103271400 METAR MRLM 271400Z 18002KT 9999 FEW030 29/23 A2989 RMK HZ ARND=
201103271500 METAR MRLM 271500Z 06003KT 9999 SCT030 30/24 A2991 RMK HZ ARND FEW140=
201103271600 METAR MRLM 271600Z 05004KT 9999 SCT028 29/24 A2990 RMK HZ ARND=
201103271700 METAR MRLM 271700Z 04006KT 9999 FEW030 30/24 A2987 RMK HZ LEVE W=
201103271800 METAR MRLM 271800Z 02007KT 9999 SCT030 29/24 A2985 RMK HZ ARND=
201103271900 METAR MRLM 271900Z 02007KT 9999 SCT030 30/24 A2981 RMK HZ ARND=
201103272000 METAR MRLM 272000Z 03006KT 9999 FEW030 30/21 A2979 RMK HZ ARND=
201103272100 METAR MRLM 272100Z 03007KT 9999 FEW030 30/24 A2978 RMK HZ LGT ARND TCU DST S=
201103272200 METAR MRLM 272200Z 03006KT 9999 FEW030 SCT280 30/24 A2977 RMK TCU DST S FEW090 HX LGT ARND=
201103272300 METAR MRLM 272300Z 03006KT 9999 BKN025 28/24 A2979 RMK FEW140 FEW250 CB RA DST S SW W HZ ARND=
201103280000 METAR MRLM 280000Z 02004KT 9999 SCT025 SCT270 28/24 A2971 RMK FEW080 CB DST SE S SW W HZ ARND LGT=
201103280100 METAR MRLM NIL=
201103280200 METAR MRLM NIL=
201103280300 METAR MRLM NIL=
201103280400 METAR MRLM NIL=
201103280500 METAR MRLM NIL=
201103280600 METAR MRLM NIL=
201103280700 METAR MRLM NIL=
201103280800 METAR MRLM NIL=
201103280900 METAR MRLM NIL=
201103281000 METAR MRLM NIL=
201103281100 METAR MRLM NIL=
201103281200 METAR MRLM 281200Z NIL=
201103281300 METAR MRLM 281300Z 22004KT CAVOK 26/23 A2988 RMK SCT280 CB DST SW HZ ARND LGT=
201103281400 METAR MRLM 281400Z 23002KT CAVOK 29/24 A2990 RMK BKN280 HZ LGT ARND CB DST SW=
201103281500 METAR MRLM 281500Z 02005KT 9999 FEW030 BKN280 29/24 A2991 RMK HZ ARND LGT=
201103281600 METAR MRLM 281600Z 36007KT 9999 FEW025 BKN270 29/14 A2991 RMK HZ ARND LGT=
201103281700 METAR MRLM 281700Z 01005KT 9999 FEW028 BKN270 30/17 A2989 RMK HZ ARND LGT=
201103281800 METAR MRLM 281800Z 36007KT 9999 FEW030 BKN270 28/24 A2986 RMK HZ ARND LGT=
201103281900 METAR MRLM 281900Z 01008KT 9999 FEW030 BKN270 30/24 A2983 RMK HZ ARND=
201103282000 METAR MRLM 282000Z 01010KT 9999 FEW030 BKN280 30/24 A2981 RMK HZ ARND LGT=
201103282100 METAR MRLM 282100Z 01009KT 9999 FEW030 30/24 A2979 RMK FEW280 LGHT HZ ARND RN DST SW=
201103282200 METAR MRLM 282200Z 01008KT 9999 SCT025 SCT270 29/24 A2979 RMK RN DST S SW W HZ ARND=
201103282300 METAR MRLM 282300Z 01007KT 9999 FEW025 SCT070 28/24 A2980 RMK SCT260 HZ ARND RN DST S SW W=
201103290000 METAR MRLM 290000Z 04005KT 9999 SCT025 SCT270 28/24 A2982 RMK FEW120 CB DST S SW HZ ARND=
201103290100 METAR MRLM NIL=
201103290200 METAR MRLM NIL=
201103290300 METAR MRLM NIL=
201103290400 METAR MRLM NIL=
201103290500 METAR MRLM NIL=
201103290600 METAR MRLM NIL=
201103290700 METAR MRLM NIL=
201103290800 METAR MRLM NIL=
201103290900 METAR MRLM NIL=
201103291000 METAR MRLM NIL=
201103291100 METAR MRLM NIL=
201103291200 METAR MRLM NIL=
201103291300 METAR MRLM 291300Z 22004KT 9999 FEW010 SCT120 24/22 A2991 RMK SCT270 HZ ARND=
201103291400 METAR MRLM 291400Z 22004KT 9999 VCSH SCT015 SCT120 26/23 A2993 RMK VIS 8000 QUAD N HZ ARND=
201103291500 METAR MRLM 291500Z 08003KT 9999 +DZ VCSH BKN010 26/24 A2996 RMK FEW110 VIS 8000 NW E SE=
201103291600 METAR MRLM 291600Z 22003KT 9999 -DZ BKN010 27/25 A2996 RMK FEW110 HZ ARND=
201103291700 METAR MRLM 291700Z 06003KT 9999 BKN020 SCT110 28/25 A2995 RMK HZ ARND=
201103291800 METAR MRLM 291800Z 04006KT 9999 BKN025 SCT120 29/25 A2992 RMK HZ ARND=
201103291900 METAR MRLM 291900Z 05006KT 9999 SCT025 29/24 A2990 RMK FEW130 FEW250 HZ ARND=
201103292000 METAR MRLM 292000Z 05007KT 9999 SCT030 SCT250 29/24 A2988 RMK FEW130 HZ ARND=
201103292100 METAR MRLM 292100Z 05008KT 9999 SCT025 SCT120 29/24 A2986 RMK FEW250 HZ ARND=
201103292200 METAR MRLM 292200Z 05008KT 9999 BKN025 SCT250 29/24 A2985 HZ ARND=
201103292300 METAR MRLM 292300Z 05006KT 9999 BKN020 28/24 A2987 RMK FEW110 FEW250 HZ ARNM D=
201103300000 METAR MRLM 300000Z 06006KT 9999 BKN015 27/24 A2988 RMK FEW100 RN DST E HZ ARND=
201103300100 METAR MRLM NIL=
201103300200 METAR MRLM NIL=
201103300300 METAR MRLM NIL=
201103300400 METAR MRLM NIL=
201103300500 METAR MRLM NIL=
201103300600 METAR MRLM NIL=
201103300700 METAR MRLM NIL=
201103300800 METAR MRLM NIL=
201103300900 METAR MRLM NIL=
201103301000 METAR MRLM NIL=
201103301100 METAR MRLM NIL=
201103301200 METAR MRLM 301200Z NIL=
201103301300 METAR MRLM 301300Z 19004KT 9999 BKN010 24/22 A2996 RMK FEW110 HZ ARND=
201103301400 METAR MRLM 301400Z 20003KT 9999 BKN015 25/23 A2998 RMK FEW110 FEW250 HZ ARND=
201103301500 METAR MRLM 301500Z 09003KT 9999 BKN020 SCT250 28/23 A2998 RMK HZ ARND=
201103301600 METAR MRLM 301600Z 07009KT 9999 BKN030 SCT260 30/23 A2998 RMK HZ ARND=
201103301700 METAR MRLM 301700Z 05011KT 9999 SCT030 SCT260 29/23 A2996 RMK HZ ARND=
201103301800 METAR MRLM 301800Z 06009KT 9999 FEW030 BKN260 29/23 A2994 RMK HZ ARND=
201103301900 METAR MRLM 301900Z 06009KT 9999 FEW035 BKN260 29/22 A2990 RMK FEW140 HZ ARND=
201103302000 METAR MRLM 302000Z 06008KT CAVOK 30/22 A2987 RMK FEW140 BKN260 HZ ARND=
201103302100 METAR MRLM 302100Z 07007KT CAVOK 29/22 A2985 RMK BKN250 HZ ARND=
201103302200 METAR MRLM 302200Z 06008KT 9999 SCT030 SCT250 28/22 A2984 RMK HZ ARND=
201103302300 METAR MRLM 302300Z 07007KT 9999 SCT025 SCT250 28/23 A2984 RMK HZ ARND=
201103310000 METAR MRLM 310000Z 08007KT 9999 BKN020 SCT250 27/22 A2985 RMK HZ ARND=
201103310100 METAR MRLM NIL=
201103310200 METAR MRLM NIL=
201103310300 METAR MRLM NIL=
201103310400 METAR MRLM NIL=
201103310500 METAR MRLM NIL=
201103310600 METAR MRLM NIL=
201103310700 METAR MRLM NIL=
201103310800 METAR MRLM NIL=
201103310900 METAR MRLM NIL=
201103311000 METAR MRLM NIL=
201103311100 METAR MRLM NIL=
201103311200 METAR MRLM 311200Z NIL=
201103311300 METAR MRLM 311300Z 18004KT 9999 VCSH SCT015TCU SCT080 24/22 A2990 VIS 8 KM NE TCU/RA QUAD N E HZ LGT ARMD FEW280=
201103311400 METAR MRLM 311400Z 18002KY 9999 VCSH FEW020 BKN070 26/22 A2993 VIS 8 KM E RA QUAD N E FEW280 HZ LGT ARND=
201103311500 METAR MRLM 311500Z 08008KT 9999 DZ VCSH BKN018 27/23 A2994 FEW070 VIS 8 KM NE E RA DST N E=
201103311600 METAR MRLM 311600Z 08012KT 9999 FEW022 SCT090 28/23 A2993 REDZ RN DST E HZ LGT ARND=
201103311700 METAR MRLM 311700Z 07011KT 9999 FEW025 SCT280 28/23 A2991 RMK HZ LGT ARND=
201103311800 METAR MRLM 311800Z 06008KT 9999 FEW030 BKN280 29/22 A2988 RMK HZ LGT ARND=
201103311900 METAR MRLM 311900Z 07006KT 9999 FEW035 BKN280 29/22 A2984 RMK HZ LGT ARND=
201103312000 METAR MRLM 312000Z 05006KT 9999 FEW030 BKN280 29/23 A2981 RMK HZ LGT ARND=
201103312100 METAR MRLM 312100Z 05007KT 9999 FEW030 BKN280 29/23 A2981 RMK HZ ARND=
201103312200 METAR MRLM 312200Z 06005KT 9999 BKN025 28/22 A2979 RMK FEW080 HZ ARND RA DST S SW=
201103312300 METAR MRLM 312300Z 09006KT 9999 BKN025 28/22 A2980 RMK RA DST S SW W FEW070 HZ ARND=
201104010000 METAR MRLM 010000Z 09006KT 9999 BKN025 27/22 A2982 RMK RA DST E S FEW070 HZ ARND=
201104010100 METAR MRLM NIL=
201104010200 METAR MRLM NIL=
201104010300 METAR MRLM NIL=
201104010400 METAR MRLM NIL=
201104010500 METAR MRLM NIL=
201104010600 METAR MRLM NIL=
201104010700 METAR MRLM NIL=
201104010800 METAR MRLM NIL=
201104010900 METAR MRLM NIL=
201104011000 METAR MRLM NIL=
201104011100 METAR MRLM NIL=
201104011200 METAR MRLM 011200Z NIL=
201104011300 METAR MRLM 011300Z 22004KT CAVOK CAVOK 24/21 A2987 RMK FEW160 BKN300 TCU DST NW HZ ARND=
201104011400 METAR MRLM 011400Z 20003KT CAVOK 28/22 A2989 RMK BKN300 HZ ARND=
201104011500 METAR MRLM 011500Z 09005KT 9999 FEW035 BKN300 29/22 A2991 RMK HZ ARND=
201104011600 METAR MRLM 011600Z 09007KT 9999 FEW035 BKN300 29/23 A2991 RMK HZ ARND=
201104011700 METAR MRLM NIL=
201104011800 METAR MRLM 011800Z 05007KT 9999 FEW035 BKN300 29/23 A2987 RMK HZY ARND=
201104011900 METAR MRLM 011900Z 04007KT 9999 FEW030 BKN300 29/23 A2984 RMK FEW140 HZ ARND=
201104012000 METAR MRLM 012000Z 07007KT 9999 FEW030 BKN300 29/23 A2981 RMK HZ ARND=
201104012100 METAR MRLM 012100Z 06007KT 9999 BKN025 28/23 A2978 RMK FEW070 FEW300 RA DST SW HZ ARND LGT=
201104012200 METAR MRLM 012200Z 06006KT 9999 BKN025 SCT280 28/23 A2978 RMK HZ ARND LGT=
201104012300 METAR MRLM 012300Z 04006KT 9999 OVC025 28/23 A2981 RM RA DST S SW W HZ ARND LGT=
201104020000 METAR MRLM 020000Z 05005KT 9999 BKN025 28/22 A2984 RMK FEW280 RA DST E SE S HZ ARND=
201104020100 METAR MRLM NIL=
201104020200 METAR MRLM NIL=
201104020300 METAR MRLM NIL=
201104020400 METAR MRLM NIL=
201104020500 METAR MRLM NIL=
201104020600 METAR MRLM NIL=
201104020700 METAR MRLM NIL=
201104020800 METAR MRLM NIL=
201104020900 METAR MRLM NIL=
201104021000 METAR MRLM NIL=
201104021100 METAR MRLM NIL=
201104021200 METAR MRLM 021200Z 21004KT CAVOK 21/19 A2988 RMK BKN250 HZ ARND=
201104021300 METAR MRLM 021300Z 21005KT CAVOK 22/20 A2990 RMK BKN250 HZ ARND=
201104021400 METAR MRLM 021400Z 22003KT CAVOK 26/21 A2991 RMK SCT250 HZ ARND=
201104021500 METAR MRLM 021500Z 05003KT 9999 FEW035 SCT250 28/21 A2994 RMK HZ ARND=
201104021600 METAR MRLM 021600Z 05005KT 9999 FEW040 SCT260 29/21 A2995 RMK HZ ARND=
201104021700 METAR MRLM 021700Z 03007KT CAVOK 29/22 A2992 RMK SCT260 HZ ARND=
201104021800 METAR MRLM 021800Z 03006KT CAVOK 29/22 A2991 RMK SCT260 HZ ARND=
201104021900 METAR MRLM 021900Z 02007KT CAVOK 29/22 A2988 RMK BKN260 HZ LGT ARND=
201104022000 METAR MRLM NIL=
201104022100 METAR MRLM 022100Z 36006KT 9999 FEW035 BKN250 28/22 A2984 RMK FEW110=
201104022200 METAR MRLM 022200Z 34007KT 9999 FEW035 SCT110 29/21 A2984 RMK SCT250=
201104022300 METAR MRLM 022300Z 36005KT 9999 FEW030 BKN250 28/21 A2986 RMK FEW110 LGHT HZ ARND=
201104030000 METAR MRLM 030000Z 35004KT CAVOK 28/21 A2988 RMK SCT110 BKN250 HZ ARND=
201104030100 METAR MRLM 030100Z NIL=
201104030200 METAR MRLM NIL=
201104030300 METAR MRLM NIL=
201104030400 METAR MRLM NIL=
201104030500 METAR MRLM NIL=
201104030600 METAR MRLM NIL=
201104030700 METAR MRLM NIL=
201104030800 METAR MRLM NIL=
201104030900 METAR MRLM NIL=
201104031000 METAR MRLM NIL=
201104031100 METAR MRLM NIL=
201104031200 METAR MRLM 031200Z 20004KT 9999 BKN010 21/19 A2992 RMK FEW100 HZ ARND=
201104031300 METAR MRLM 031300Z 21003KT 9999 BKN010 22/20 A2992 RMK FEW110 RA DST NE HZ ARND=
201104031400 METAR MRLM 031400Z 00000KT 9999 BKN015 SCT110 23/21 A2996 RMK CB RA DST N HZ ARND=
201104031500 METAR MRLM 031500Z 22003KT 9999 BKN020 SCT110 26/23 A2999 RMK CB RA DST N TCU SW HZ ARND=
201104031600 METAR MRLM 031600Z 04003KT 9999 SCT025 SCT110 28/23 A2998 RMK HZ ARND=
201104031700 METAR MRLM 031700Z 06003KT 9999 SCT030 SCT120 29/22 A2997 RMK HZ ARND=
201104031800 METAR MRLM 031800Z 07008KT 9999 SCT030 SCT120 29/23 A2994 RMK TCU DST SW HZ ARND=
201104031900 METAR MRLM 031900Z 09007KT 9999 FEW035 SCT130 30/23 A2992 RMK FEW250 TCU DST SW W HZ ARND=
201104032000 METAR MRLM 032000Z 09006KT 9999 FEW035 BKN250 30/23 A2989 RMK HZ ARND=
201104032100 METAR MRLM 032100Z 06005KT 9999 FEW030 SCT130 29/23 A2987 RMK SCT250 HZ ARND=
201104032200 METAR MRLM 032200Z 04006KT 9999 SCT030 SCT130 29/23 A2987 RMK FEW250 HZ ARND=
201104032300 METAR MRLM NIL=
201104040000 METAR MRLM 040000Z 050007KT 9999 BKN020 28/23 A2989 RMK FEW110 FEW250 TCU DST SW HZ ARND=
201104040100 METAR MRLM NIL=
201104040200 METAR MRLM NIL=
201104040300 METAR MRLM NIL=
201104040400 METAR MRLM NIL=
201104040500 METAR MRLM NIL=
201104040600 METAR MRLM NIL=
201104040700 METAR MRLM NIL=
201104040800 METAR MRLM NIL=
201104040900 METAR MRLM NIL=
201104041000 METAR MRLM NIL=
201104041100 METAR MRLM NIL=
201104041200 METAR MRLM NIL=
201104041300 METAR MRLM 041300Z 21005KT 9999 FEW015 BKN280 25/22 A2991 RMK FEW140 LGT HZ ARND=
201104041400 METAR MRLM 041400Z 22003KT 9999 FEW030 BKN280 28/23 A2992 LGT HZ ARND=
201104041500 METAR MRLM 041500Z 03004KT 9999 SCT028 SCT280 29/23 A2993 RMK FEW160 LGT HZ ARND=
201104041600 METAR MRLM 041600Z 01006KT 9999 FEW028 BKN280 29/23 A2992 RMK LGT HZ ARND=
201104041700 METAR MRLM 041700Z 01008KT 9999 FEW030 BKN280 29/23 A2991 RMK FEW150 LGT HZ ARND=
201104041800 METAR MRLM 041800Z 01010KT 9999 FEW035 SCT140 29/23 A2989 RMK SCT280 HZY=
201104041900 METAR MRLM 041900Z 02016KT 9999 BKN025 29/24 A2987 RMK FEW090 RN DST SW W LGT HZ ARND=
201104042000 METAR MRLM 042000Z 36009KT 9999 BKN025 28/23 A2985 RMK FEW090 RN DST S SW W LGT HZ ARND=
201104042100 METAR MRLM 042100Z 34006KT 9999 FEW030 SCT070 BKN090 29/22 A2984 RMK RN DST S SW W HZ LEVE ARND=
201104042200 METAR MRLM 042200Z 35006KT 9999 BKN030 SCT090 29/22 A2984 RMK RN DST QUAD S W HZ LEVE ARND=
201104042300 METAR MRLM 042300Z 36008KT 9999 BKN025 28/22 A2985 RMK FEW090 RN DST QUAD S W=
201104050000 METAR MRLM 050000Z 34010KT 9999 BKN020 27/23 A2987 RMK FEW070 RN DST QUAD S W=
201104050100 METAR MRLM NIL=
201104050200 METAR MRLM NIL=
201104050300 METAR MRLM NIL=
201104050400 METAR MRLM NIL=
201104050500 METAR MRLM NIL=
201104050600 METAR MRLM NIL=
201104050700 METAR MRLM NIL=
201104050800 METAR MRLM NIL=
201104050900 METAR MRLM NIL=
201104051000 METAR MRLM NIL=
201104051100 METAR MRLM NIL=
201104051200 METAR MRLM 051200Z NIL=
201104051300 METAR MRLM 051300Z 26004KT 9999 SCT025 SCT070 24/22 A2990 RMK RN DST HZ LEVE ARND=
201104051400 METAR MRLM 051400Z 26007KT 9999 DZ FEW015 SCT070 24/22 A2992 RMK SCT090 HZ LEVE ARND RN DST QUAD N=
201104051500 METAR MRLM 051500Z 29007KT 8000 RA FEW013 SCT025 25/22 A2994 RMK VIS 9999 S SW W SCT080=
201104051600 METAR MRLM 051600Z 27006KT 4000 RA FEW010 BKN025 24/22 A2995 RMK SCT80=
201104051700 METAR MRLM 051700Z 25007KT 9999 +DZ VCSH FEW008 SCT025 25/23 A2993 RERA RMK SCT090 VIS 8000 QUAD W=
201104051800 METAR MRLM 051800Z 28009KT 9999 SCT035 SCT100 29/23 A2991 REDZ RMK RN DST SW NW N NE E LEVE HZ ARND=
201104051900 METAR MRLM 051900Z 28006KT 9999 FEW025 BKN070 27/23 A2989 RMK RN DST QUAD W FEW090=
201104052000 METAR MRLM 052000Z 29004KT 9999 FEW023 BKN070 28/23 A2988 RMK RN DST QUAD N DZ DST E=
201104052100 METAR MRLM 052100Z 34015KT 2000 +RA OVC010 24/23 A2988=
201104052200 METAR MRLM 052200Z 22006KT 8000 TSRA FEW012CB SCT020 SCT080 23/22 A2987 A298 7 VIS W E UNL=
201104052300 METAR MRLM 052300Z 21004KT 8000 RA BKN015 23/22 A2988 RETS RMK VIS QUAD N UNL FEW035 FEW080=
201104060000 METAR MRLM 060000Z 20004KT 9999 DZ SCT025 SCT100 23/22 A2989 RERA RMK FEW080 RA N E S=
201104060100 METAR MRLM NIL=
201104060200 METAR MRLM NIL=
201104060300 METAR MRLM NIL=
201104060400 METAR MRLM NIL=
201104060500 METAR MRLM NIL=
201104060600 METAR MRLM NIL=
201104060700 METAR MRLM NIL=
201104060800 METAR MRLM NIL=
201104060900 METAR MRLM NIL=
201104061000 METAR MRLM NIL=
201104061100 METAR MRLM NIL=
201104061200 METAR MRLM NIL=
201104061300 METAR MRLM 061300Z 24003KT 9999 SCT015 SCT120 24/22 A2998 RMK FEW250 RA DST NE E HZ ARND=
201104061400 METAR MRLM 061400Z 20004KT 9999 BKN015 SCT120 25/23 A2999 RMK RA DST N HZ ARND=
201104061500 METAR MRLM 061500Z 00000KT 9999 SCT020 BKN120 28/24 A3001 RMK HZ ARND=
201104061600 METAR MRLM 061600Z 02003KT 9999 FEW030 BKN130 29/23 A3001 RMK HZ ARND=
201104061700 METAR MRLM 061700Z 03004KT CAVOK 29/22 A3000 RMK FEW130 BKN260 HZ ARND=
201104061800 METAR MRLM 061800Z 02004KT CAVOK 29/22 A2996 RMK BKN260 HZ ARND=
201104061900 METAR MRLM 061900Z 36006KT CAVOK 29/23 A2993 RMK BKN250 HZ ARND=
201104062000 METAR MRLM 062000Z 02006KT 9999 FEW030 SCT140 29/22 A2990 RMK SCT250 HZ ARND=
201104062100 METAR MRLM 062100Z 36006KT 9999 FEW030 SCT130 29/23 A2989 RMK SCT250 HZ ARND=
201104062200 METAR MRLM 062200Z 36005KT 9999 FEW030 BKN250 29/22 A2988 RMK HZ ARND=
201104062300 METAR MRLM 062300Z 01005KT 9999 FEW025 SCT250 28/22 A2989 RMK FEW120 HZ ARND=
201104070000 METAR MRLM 070000Z 36006KT 9999 BKN020 27/22 A2991 RMK FEW110 HZ ARND=
201104070100 METAR MRLM NIL=
201104070200 METAR MRLM NIL=
201104070300 METAR MRLM NIL=
201104070400 METAR MRLM NIL=
201104070500 METAR MRLM NIL=
201104070600 METAR MRLM NIL=
201104070700 METAR MRLM NIL=
201104070800 METAR MRLM NIL=
201104070900 METAR MRLM NIL=
201104071000 METAR MRLM NIL=
201104071100 METAR MRLM NIL=
201104071200 METAR MRLM 071200Z 19004KT 4000 RA BKN007 22/21 A2994 RMK FEW080=
201104071300 METAR MRLM 071300Z 21004KT 7000 RA BKN007 22/21 A2996 RMK FEW080 4000N=
201104071400 METAR MRLM 071400Z 24005KT 9999 DZ VCSH BKN010 23/22 A2999 RERA RMK FEW080 VIZ 8000 N=
201104071500 METAR MRLM 071500Z 00000KT 4000 +RA OVC010 23/22 A3001=
201104071600 METAR MRLM 071600Z 23003KT 4000 +RA FEW007 OVC010 23/18 A3001=
201104071700 METAR MRLM 071700Z 20004KT 8000 DZ VCSH BKN010 23/22 A3000 RERA RMK FEW080=
201104071800 METAR MRLM 071800Z 22003KT 8000 DZ VCSH BKN010 23/22 A2998 RMK FEW090=
201104071900 METAR MRLM 071900Z 23007KT 9999 BKN010 SCT090 24/22 A2994 REDZ RMK RA DST NW HZ ARND=
201104072000 METAR MRLM 072000Z 22006KT 9999 SCT015 BKN100 24/22 A2991 RMK RA DST SW W HZ ARND=
201104072100 METAR MRLM 072100Z 20006KT 9999 SCT015 BKN100 25/22 A2988 RMK HZ ARND=
201104072200 METAR MRLM 072200Z 21004KT 9999 SCT020 SCT100 25/22 A2987 RMK RA DST N HZ=
201104072300 METAR MRLM 072300Z 07009KT 9999 +DZ VCSH BKN010 24/22 A2989 RMK FEW090 VIS 8KM E SE=
201104080000 METAR MRLM 080000Z 15006KT 9999 -DZ BKN007 23/22 A2990 RMK FEW090 RA DST E HZ ARND=
201104080100 METAR MRLM NIL=
201104080200 METAR MRLM NIL=
201104080300 METAR MRLM NIL=
201104080400 METAR MRLM NIL=
201104080500 METAR MRLM NIL=
201104080600 METAR MRLM NIL=
201104080700 METAR MRLM NIL=
201104080800 METAR MRLM NIL=
201104080900 METAR MRLM NIL=
201104081000 METAR MRLM NIL=
201104081100 METAR MRLM NIL=
201104081200 METAR MRLM NIL=
201104081228 METAR MRLM 081228Z 22003KT CAVOK 22/21 A2991 RMK SCT070 SCT090 RN DST QUAD S W=
201104081300 METAR MRLM 081300Z 23004KT CAVOK 23/22 A2992 RMK FEW070 BKN090 RN QUAD S W=
201104081400 METAR MRLM 081400Z 23003KT 9999 FEW030 BKN090 25/23 A2995 RMK DZ DST W LGHT HZ ARND=
201104081500 METAR MRLM 081500Z 20003KT CAVOK 26/23 A2996 RMK SCT070 BKN090 DZ DST SW W LGHT HZ=
201104081600 METAR MRLM 081600Z 27002KT CAVOK 29/22 A2995 RMK SCT070 BKN090 LGHT HZ ARND=
201104081700 METAR MRLM 081700Z 36005KT 9999 FEW035 BKN090 29/22 A2994 RMK FEW070 LGHT HZ ARND=
201104081800 METAR MRLM 081800Z 36004KT 9999 FEW035 BKN090 29/22 A2993 RMK FEW070=
201104081900 METAR MRLM 081900Z 01005KT 9999 DZ FEW030 SCT070 28/22 A2990 RMK SCT090=
201104082000 METAR MRLM 082000Z 02004KT 9999 FEW035 BKN090 29/22 A2987 RERA FEW070 HZ LGT ARND=
201104082100 METAR MRLM 082100Z 01005KT 9999 FEW030 SCT070 28/22 A2987 RMK SCT090 RN DST N NE SE LGT HZ ARND=
201104082200 METAR MRLM 082200Z 01016KT 9999 BKN015 26/23 A2987 RMK FEW090 RN DST HZ ARND=
201104082300 METAR MRLM 082300Z 02009KT 9999 BKN015 26/23 A2987 REDZ RMK RN HZ ARND FEW090=
201104090000 METAR MRLM 090000Z 02003KT 9999 +DZ FEW006 SCT015 25/23 A2989 RMK SCT090 RN ARND=
201104090100 METAR MRLM NIL=
201104090200 METAR MRLM NIL=
201104090300 METAR MRLM NIL=
201104090400 METAR MRLM NIL=
201104090500 METAR MRLM NIL=
201104090600 METAR MRLM NIL=
201104090700 METAR MRLM NIL=
201104090800 METAR MRLM NIL=
201104090900 METAR MRLM NIL=
201104091000 METAR MRLM NIL=
201104091100 METAR MRLM NIL=
201104091200 METAR MRLM NIL=
201104091300 METAR MRLM 091300Z 00000KT 2000 +RA OVC012 23/22 A2996=
201104091400 METAR MRLM 091400Z 26004KT 9999 6000 RA FEW005 BKN015 23/22 A2999 FEW090=
201104091500 METAR MRLM 091500Z 23006KT 9999 VCSH SCT008 SCT020 24/22 A3000 RERA RN HZ ARND VS QUAD E 8KM=
201104091600 METAR MRLM NIL=
201104091700 METAR MRLM 091700Z 20006KT 9999 DZ VCSH FEW006 SCT025 24/23 A2999 RERA SCT090 VIS S SW 8KM=
201104091800 METAR MRLM 091800Z 22005KT 9999 VCSH FEW015 BKN090 27/23 A2996 REDZ VIS 8KM NE RN N=
201104091900 METAR MRLM 091900Z 02003KT 9999 SCT025 SCT08028/23 A2994 RN W N QUAD=
201104092000 METAR MRLM 092000Z 00000KT 9999 BKN025 SCT080 27/23 A2991 RMK DZ DST O TCU S/N HZ LEVE ARND=
201104092100 METAR MRLM 092100Z 24003KT 9999 SCT020 SCT080 27/23 A2989 RMK DZ DST NE S SW HZ LEVE ARND=
201104092200 METAR MRLM 092200Z 01007KT 9999 BKN025 27/23 A2989 RMK FEW080 RN DST N HZ LEVE ARND=
201104092300 METAR MRLM 092300Z 00000KT 9999 BKN022 SCT080 27/22 A2990 RMK HZ LEVE ARND RN DST NW N=
201104100000 METAR MRLM 100000Z 00000KT 8000 DZ VCSH FEW006 BKN015 25/23 A2993 RERA RMK FEW080 VIS 9999 S SW NE HZ LEVE ARND=
201104100100 METAR MRLM NIL=
201104100200 METAR MRLM NIL=
201104100300 METAR MRLM NIL=
201104100400 METAR MRLM NIL=
201104100500 METAR MRLM NIL=
201104100600 METAR MRLM NIL=
201104100700 METAR MRLM NIL=
201104100800 METAR MRLM NIL=
201104100900 METAR MRLM NIL=
201104101000 METAR MRLM NIL=
201104101100 METAR MRLM NIL=
201104101200 METAR MRLM 101200Z NIL=
201104101300 METAR MRLM 101300Z 23004KT 9999 SCT010 BKN110 24/22 A2998 RMK RA DST N NE E SE HZ ARND=
201104101400 METAR MRLM 101400Z 01007KT 7000 +DZ BKN010 SCT100 25/22 A3001=
201104101500 METAR MRLM 101500Z 00000KT 3000 +RA OVC007 24/22 A3002=
201104101600 METAR MRLM 101600Z 23006KT 8000 +DZ VCSH BKN007 SCT015 23/22 A3002 RERA=
201104101700 METAR MRLM 101700Z 22006KT 9999 SCT015 SCT100 24/22 A3001 REDZ HZ ARND=
201104101800 METAR MRLM 101800Z 21005KT 9999 SCT020 SCT110 27/23 A2999 RMK TCU DST N NE HZ ARND=
201104101900 METAR MRLM 101900Z 00000KT 9999 SCT030 BKN110 28/22 A2997 RMK HZ ARND=
201104102000 METAR MRLM 102000Z 00000KT 9999 FEW030 BKN120 28/22 A2994 RMK TCU DST SW HZ ARND=
201104102100 METAR MRLM 102100Z 00000KT 9999 FEW035 SCT120 29/22 A2991 RMK FEW250 TCU DST W HZ ARND=
201104102200 METAR MRLM 102200Z 03010KT 9999 DZ VCSH SCT025 SCT110 27/22 A2992 RMK VIS 8KMS QUAD N=
201104102300 METAR MRLM 102300Z 00000KT 9999 -DZ BKN010 SCT100 25/22 A2993 RMK RA E HZ ARND=
201104110000 METAR MRLM 110000Z 20004KT 9999 BKN010 SCT090 24/22 A2994 RMK RA NE HZ ARND=
201104110100 METAR MRLM NIL=
201104110200 METAR MRLM NIL=
201104110300 METAR MRLM NIL=
201104110400 METAR MRLM NIL=
201104110500 METAR MRLM NIL=
201104110600 METAR MRLM NIL=
201104110700 METAR MRLM NIL=
201104110800 METAR MRLM NIL=
201104110900 METAR MRLM NIL=
201104111000 METAR MRLM NIL=
201104111100 METAR MRLM NIL=
201104111200 METAR MRLM NIL=
201104111300 METAR MRLM 111300Z 22003KT CAVOK 24/21 A2997 RMK SCT120 BKN250 HZ ARND=
201104111400 METAR MRLM 111400Z 00000KT CAVOK 27/22 A2999 RMK FEW130 BKN250 HZ ARND=
201104111500 METAR MRLM 111500Z 06003KT 9999 FEW030 BKN260 28/22 A2999 RMK HZ ARND=
201104111600 METAR MRLM 111600Z 05004KT 9999 FEW030 SCT260 28/22 A2999 RMK HZ ARND=
201104111700 METAR MRLM 111700Z 03005KT 9999 FEW030 SCT140 28/23 A2997 RMK FEW250 HZ ARND=
201104111800 METAR MRLM 111800Z 04005KT 9999 FEW030 SCT140 28/23 A2994 RMK HZ ARND=
201104111900 METAR MRLM 111900Z 03008KT 9999 SCT025 SCT130 29/23 A2991 RMK HZ ARND=
201104112000 METAR MRLM 112000Z 02007KT 9999 FEW030 29/22 A2989 RMK FEW130 TCU DST SW HZ ARND=
201104112100 METAR MRLM 112100Z 06005KT 9999 FEW030 BKN120 28/21 A2987 RMK TCU DST SW HZ ARND=
201104112200 METAR MRLM 112200Z 02008KT 9999 FEW025 BKN110 28/22 A2988 RMK TCU DST S SW HZ ARND=
201104112300 METAR MRLM 112300Z 01007KT 9999 BKN025 SCT110 28/23 A2989 RMK TCU DST S HZ ARND=
201104120000 METAR MRLM 120000Z 05006KT 9999 SCT025 SCT100 27/22 A2991 RMK TCU DST S SW HZ ARND=
201104120100 METAR MRLM NIL=
201104120200 METAR MRLM NIL=
201104120300 METAR MRLM NIL=
201104120400 METAR MRLM NIL=
201104120500 METAR MRLM NIL=
201104120600 METAR MRLM NIL=
201104120700 METAR MRLM NIL=
201104120800 METAR MRLM NIL=
201104120900 METAR MRLM NIL=
201104121000 METAR MRLM NIL=
201104121100 METAR MRLM NIL=
201104121200 METAR MRLM NIL=
201104121300 METAR MRLM 121300Z 15007KT 9999 VCSH BKN020 SCT090 23/21 A3000 RMK VIS 8000 S=
201104121400 METAR MRLM 121400Z 20008KT CAVOK 24/22 A3001 RMK RA S FEW070 BKN090 FEW110=
201104121500 METAR MRLM 121500Z 21005KT CAVOK 26/21 A3001 RMK SCT080 SCT110 TCU RA DST N HZ LGT ARND=
201104121600 METAR MRLM 121600Z 20005KT 9999 FEW035 BKN090 28/21 A3001 RMK HZ ARND LGT=
201104121700 METAR MRLM 121700Z 06004KT 9999 SCT035 SCT100 29/21 A2999 RMK HZ ARND=
201104121800 METAR MRLM 121800Z 08005KT 9999 SCT035 SCT100 29/21 A2996 RMK FEW300 HZ ARND LGT=
201104121900 METAR MRLM 121900Z 07007KT 9999 FEW040 SCT130 19/20 A2992 RMK FEW300 TCU DST NE HZ ARND LGT=
201104122000 METAR MRLM 122000Z 05007KT 9999 FEW040 BKN080 29/20 A2990 RMK FEW300 TCU DST N NE E SW HZ LGT ARND=
201104122100 METAR MRLM 122100Z 05007KT 9999 FEW040 BKN090 29/21 A2988 RMK FEW300 TCU DST NE LGHT HZ ARND=
201104122200 METAR MRLM 122200Z 05006KT 9999 FEW040 SCT080 28/21 A2987 RMK FEW300 HZ ARND=
201104122300 METAR MRLM 122300Z 05008KT 9999 FEW030 28/22 A2989 RMK FEW090 FEW300 HZY ARND=
201104130000 METAR MRLM 130000Z 05006KT 9999 FEW030 SCT100 27/21 A2991 RMK SCT300 RN DST QUAD S HZY ARND=
201104130100 METAR MRLM NIL=
201104130200 METAR MRLM NIL=
201104130300 METAR MRLM NIL=
201104130400 METAR MRLM NIL=
201104130500 METAR MRLM NIL=
201104130600 METAR MRLM NIL=
201104130700 METAR MRLM NIL=
201104130800 METAR MRLM NIL=
201104130900 METAR MRLM NIL=
201104131000 METAR MRLM NIL=
201104131100 METAR MRLM NIL=
201104131200 METAR MRLM 131200Z 22004KT 9999 FEW020 SCT150 22/20 A2997 RMK TCU DST NW SW FEW080 HZY ARND=
201104131300 METAR MRLM 131300Z 22004KT 9999 SCT020 SCT140 23/21 A2999 RMK FEW080 TCU DST SW NW HZY ARND=
201104131400 METAR MRLM 131400Z 19003KT 9999 FEW025 SCT300 27/21 A3001 RMK HZY ARND=
201104131500 METAR MRLM 131500Z 08003KT 9999 FEW040 SCT300 28/20 A3002 RMK FEW140 HZY ARND=
201104131600 METAR MRLM 131600Z 08005KT 9999 FEW035 SCT300 29/20 A3001 RMK FEW150 HZY ARND=
201104131700 METAR MRLM 131700Z 06006KT 9999 FEW040 28/20 A2999 RMK HZY ARND=
201104131800 METAR MRLM 131800Z 07006KT 9999 FEW040 28/20 A2995 RMK HZY ARND=
201104131900 METAR MRLM 131900Z 07006KT 9999 FEW045 29/20 A2992 RMK HZY ARND=
201104132000 METAR MRLM 132000Z 05006KT 9999 FEW045 29/19 A2990 RMK HZY ARND=
201104132100 METAR MRLM NIL=
201104132200 METAR MRLM 132200Z 03006KT CAVOK 28/19 A2989 RMK FEW080 FEW150 FEW300 LGT HZ ARND=
201104132300 METAR MRLM 132300Z 03006KT CAVOK 28/19 A2990 RMK FEW080 FEW150 FEW300 LGT HZ ARND=
201104140000 METAR MRLM 140000Z 03004KT 9999 FEW038 SCT080 27/20 A2991 RMK FEW300 LGT HZ ARND=
201104140100 METAR MRLM NIL=
201104140200 METAR MRLM NIL=
201104140300 METAR MRLM NIL=
201104140400 METAR MRLM NIL=
201104140500 METAR MRLM NIL=
201104140600 METAR MRLM NIL=
201104140700 METAR MRLM NIL=
201104140800 METAR MRLM NIL=
201104140900 METAR MRLM NIL=
201104141000 METAR MRLM NIL=
201104141100 METAR MRLM NIL=
201104141200 METAR MRLM 141200Z 21004KT 9999 NSC 21/18 A2994 RMK HZ ARND LGT=
201104141300 METAR MRLM 141300Z 21004KT 9999 NSC 23/19 A2995 RMK LGT HZ ARND=
201104141400 METAR MRLM 141400Z 19003KT 9999 NSC 27/19 A2996=
201104141500 METAR MRLM 141500Z 06005KT 9999 NSC 28/20 A2997=
201104141600 METAR MRLM 141600Z 04008KT 9999 NSC 28/18 A2997=
201104141700 METAR MRLM 141700Z 04008KT 9999 NSC 28/20 A2995=
201104141800 METAR MRLM 141800Z 04007KT 9999 NSC 28/20 A2993=
201104141900 METAR MRLM 141900Z 03008KT 9999 NSC 28/19 A2990=
201104142000 METAR MRLM 142000Z 03010KT CAVOK 29/20 A2986 RMK FEW140=
201104142100 METAR MRLM 142100Z 04006KT CAVOK 29/20 A2985 RMK SCT130=
201104142200 METAR MRLM 142200Z 03006KT CAVOK 29/17 A2985 RMK BKN130=
201104142300 METAR MRLM 142300Z 05005KT 9999 FEW040 BKN120 28/18 A2985 RMK HZ LEVE ARND=
201104150000 METAR MRLM 150000Z 03004KT 9999 FEW035 BKN110 27/19 A2986 RMK HZ LEVE ARND=
201104150100 METAR MRLM NIL=
201104150200 METAR MRLM NIL=
201104150300 METAR MRLM NIL=
201104150400 METAR MRLM NIL=
201104150500 METAR MRLM NIL=
201104150600 METAR MRLM NIL=
201104150700 METAR MRLM NIL=
201104150800 METAR MRLM NIL=
201104150900 METAR MRLM NIL=
201104151000 METAR MRLM NIL=
201104151100 METAR MRLM NIL=
201104151200 METAR MRLM 151200Z 24004KT CAVOK 21/19 A2991 RMK SCT130 SCT250 HZY ARND=
201104151300 METAR MRLM 151300Z 22004KT CAVOK 22/20 A2993 RMK FEW130 BKN250 HZ LEVE ARND=
201104151400 METAR MRLM 151400Z 00000KT CAVOK 27/21 A2994 RMK BKN260 HZ LEVE ARND=
201104151500 METAR MRLM 151500Z 04004KT CAVOK 28/19 A2993 OVC260 HA LGT ARND=
201104151600 METAR MRLM 151600Z 06004KT 9999 FEW040 BKN260 28/20 A2993=
201104151700 METAR MRLM 151700Z 04006KT 9999 FEW040 BKN250 28/20 A2991=
201104151800 METAR MRLM 151800Z 04006KT 9999 FEW040 OVC250 28/21 A2989=
201104151900 METAR MRLM 151900Z 06009KT 9999 FEW040 BKN260 29/21 A2987=
201104152000 METAR MRLM 152000Z 07009KT 9999 FEW035 BKN260 29/21 A2985 HZ LGT ARND=
201104152100 METAR MRLM 152100Z 06009KT CAVOK 29/21 A2983 RMK BKN260 HZ ARND=
201104152200 METAR MRLM 152200Z 05008KT CAVOK 29/20 A2982 RMK FEW130 BKN260 HZ ARND=
201104152300 METAR MRLM 152300Z 07008KT 9999 SCT035 SCT120 28/20 A2983 RMK FEW250 HZ ARND=
201104160000 METAR MRLM 160000Z 06006KT 9999 FEW030 SCT110 27/20 A2984 RMK FEW250 HZ ARND=
201104160100 METAR MRLM NIL=
201104160200 METAR MRLM NIL=
201104160300 METAR MRLM NIL=
201104160400 METAR MRLM NIL=
201104160500 METAR MRLM NIL=
201104160600 METAR MRLM NIL=
201104160700 METAR MRLM NIL=
201104160800 METAR MRLM NIL=
201104160900 METAR MRLM NIL=
201104161000 METAR MRLM NIL=
201104161100 METAR MRLM NIL=
201104161200 METAR MRLM 161200Z NIL=
201104161300 METAR MRLM 161300Z 23003KT CAVOK 24/21 A2993 RMK BKN080 HZ LGT ARND=
201104161400 METAR MRLM 161400Z 05002KT CAVOK 28/21 A2996 RMK FEW070 BKN080 HZ LGT ARND=
201104161500 METAR MRLM 161500Z 08004KT CAVOK 28/21 A2996 RMK BKN080 HZ LGT ARND=
201104161600 METAR MRLM 161600Z 07005KT 9999 FEW040 BKN080 29/21 A2996 RMK HZ LGT ARND=
201104161700 METAR MRLM 161700Z 05006KT 9999 FEW040 SCT100 29/22 A2995 RMK FEW080 HZ LGT ARND=
201104161800 METAR MRLM 161800Z 04006KT 9999 FEW035 BKN090 28/22 A2993 RMK HZ LGT ARND=
201104161900 METAR MRLM 161900Z 04007KT 9999 FEW035 SCT300 29/22 A2989 RMK HZ ARND=
201104162000 METAR MRLM 162000Z 04006KT 9999 SCT035 SCT300 29/22 A2986 RMK HZ LGT ARND=
201104162100 METAR MRLM 162100Z 04005KT 9999 SCT035 SCT300 29/22 A2984 RMK HZ ARND LGT=
201104162200 METAR MRLM 162200Z 04006KT 9999 SCT035 SCT300 29/22 A2984 RMK HZ LGT ARND=
201104162300 METAR MRLM 162300Z 03008KT 9999 OVC030 28/22 A2984 RMK TCU RA DST SW HZ ARND=
201104170000 METAR MRLM 170000Z 03011KT 9999 BKN025 27/22 A2986 RMK FEW280 RA DST S HZ ARND=
201104170100 METAR MRLM NIL=
201104170200 METAR MRLM NIL=
201104170300 METAR MRLM NIL=
201104170400 METAR MRLM NIL=
201104170500 METAR MRLM NIL=
201104170600 METAR MRLM NIL=
201104170700 METAR MRLM NIL=
201104170800 METAR MRLM NIL=
201104170900 METAR MRLM NIL=
201104171000 METAR MRLM NIL=
201104171100 METAR MRLM NIL=
201104171200 METAR MRLM NIL=
201104171300 METAR MRLM 171300Z 06012KT 9999 OVC015 26/22 A2994 RMK RA HZ ARND=
201104171400 METAR MRLM 171400Z 08005KT 9999 SCT015 SCT030 25/22 A2996 RMK FEW080 RA HZ ARND=
201104171500 METAR MRLM 171500Z 10004KT 9999 FEW015 BKN030 26/21 A2997 RMK FEW090 HZ ARND LGT RA DST N=
201104171600 METAR MRLM 171600Z 05015KT 9999 DZ VCSH BKN015 25/22 A2998 RMK FEW080 VIS 8000 N=
201104171700 METAR MRLM 171700Z 06008KT 9999 SCT020 SCT070 25/21 A2998 REDZ RMK FEW090 DZ S SW E=
201104171800 METAR MRLM 171800Z 14005KT 9999 BKN030 26/20 A2996 RMK FEW090 RA DST S SW W=
201104171900 METAR MRLM 171900Z 22005KT 9999 SCT025 SCT070 25/20 A2993 RMK FEW090 DZ DST S SW LGT ARND=
201104172000 METAR MRLM NIL=
201104172100 METAR MRLM 172100Z 20007KT CAVOK 26/20 A2987 RMK BKN070 FEW090 DZ DST S W N LGHT HZ ARND=
201104172200 METAR MRLM 172200Z 20005KT 9999 SCT028 SCT080 26/20 A2986 RMK RN DST W S LGHT HZ ARND=
201104172300 METAR MRLM 172300Z 13002KT 9999 FEW025 BKN080 25/20 A2988 RMK RN DST NE SE LGHT HZ ARND=
201104180000 METAR MRLM 180000Z 19002KT FEW020 BKN090 25/21 A2989 RMK RN DST NE FEW070 LGHT HZ ARND=
201104180100 METAR MRLM NIL=
201104180200 METAR MRLM NIL=
201104180300 METAR MRLM NIL=
201104180400 METAR MRLM NIL=
201104180500 METAR MRLM NIL=
201104180600 METAR MRLM NIL=
201104180700 METAR MRLM NIL=
201104180800 METAR MRLM NIL=
201104180900 METAR MRLM NIL=
201104181000 METAR MRLM NIL=
201104181100 METAR MRLM NIL=
201104181200 METAR MRLM 181200Z 00000KT CAVOK 22/20 A2993 RMK BKN100 HZ ARND=
201104181300 METAR MRLM 181300Z 21002KT CAVOK 23/21 A2994 RMK BKN100 HZ ARND=
201104181400 METAR MRLM 181400Z 20003KT CAVOK 25/21 A2996 RMK BKN110 LGHT HZ ARND=
201104181500 METAR MRLM 181500Z 11005KT CAVOK 26/21 A2997 RMK BKN110 LGHT HZ ARND=
201104181600 METAR MRLM 181600Z 10006KT CAVOK 28/20 A2998 RMK BKN120 LGHT HZ ARND=
201104181700 METAR MRLM NIL=
201104181800 METAR MRLM 181800Z 09007KT 9999 FEW040 BKN130 29/21 A2995 RMK LGHT HZ ARND=
201104181900 METAR MRLM 181900Z 08008KT 9999 FEW035 BKN130 29/22 A2992 RMK LGHT HZ ARND=
201104182000 METAR MRLM NIL=
201104182100 METAR MRLM 182100Z 05005KT 9999 FEW035 SCT140 29/21 2988 RMK LGT HZ ARND=
201104182200 METAR MRLM 182200Z 04004KT 9999 FEW035 29/22 2987 RMK FEW140 FEW250 LGT HZ ARND=
201104182300 METAR MRLM 182300Z 06007KT 9999 SCT030 SCT120 28/22 2989 RMK FEW250 HZ LGT ARND=
201104190000 METAR MRLM 190000Z 06005KT 9999 BKN025 27/22 2990 RMK FEW110 FEW250 TCU S SW HZY=
201104190100 METAR MRLM 190100Z NIL=
201104190200 METAR MRLM NIL=
201104190300 METAR MRLM NIL=
201104190400 METAR MRLM NIL=
201104190500 METAR MRLM NIL=
201104190600 METAR MRLM NIL=
201104190700 METAR MRLM NIL=
201104190800 METAR MRLM NIL=
201104190900 METAR MRLM NIL=
201104191000 METAR MRLM NIL=
201104191100 METAR MRLM NIL=
201104191200 METAR MRLM 191200Z 19005KT 9999 BKN010 SCT090 22/20 A2996 RMK HZ ARND=
201104191300 METAR MRLM 191300Z 19004KT 9999 BKN010 SCT090 23/20 2998 RMK RA DST E HZ ARND=
201104191400 METAR MRLM 191400Z 00000KT 9999 SCT005 SCT010 24/21 3000 RMK HZ ARND=
201104191401 METAR MRLM 191401Z 00000KT 9999 SCT005 SCT010 24/21 A3000 RMK HZ ARND=
201104191500 METAR MRLM 191500Z 09005KT 9999 SCT020 BKN110 25/21 A3000 RMK HZ ARND=
201104191600 METAR MRLM 191600Z 16005KT CAVOK 28/20 A3000 RMK BKN160 HZ LGT ARND=
201104191700 METAR MRLM 191700Z 09005KT CAVOK 29/20 A2999 RMK BKN130 HZ LGT=
201104191800 METAR MRLM 191800Z 10008KT CAVOK 28/20 A2996 RMK BKN130 HZ LGT ARND=
201104191900 METAR MRLM 191900Z 09007KT CAVOK 28/21 A2994 RMK BKN120 HZ LGT ARND=
201104192000 METAR MRLM 192000Z 0705KT CAVOK 29/21 A2991 RMK SCT120 HZ LGT ARND=
201104192100 METAR MRLM 192100Z 08006KT CAVOK 29/22 A2989 RMK FEW130 BKN260 HZ LEVE ARND=
201104192200 METAR MRLM 192200Z 07006KT CAVOK 28/22 A2988 RMK BKN260 HZ LEVE ARND=
201104192300 METAR MRLM 192300Z 08005KT CAVOK 28/22 A2989 RMK BKN250 HZ LEVE ARND=
201104200000 METAR MRLM 200000Z 09004KT CAVOK 27/21 A2990 RMK FEW110 BKN250 HZ LEVE ARND=
201104200100 METAR MRLM NIL=
201104200200 METAR MRLM NIL=
201104200300 METAR MRLM NIL=
201104200400 METAR MRLM NIL=
201104200500 METAR MRLM NIL=
201104200600 METAR MRLM NIL=
201104200700 METAR MRLM NIL=
201104200800 METAR MRLM NIL=
201104200900 METAR MRLM NIL=
201104201000 METAR MRLM NIL=
201104201100 METAR MRLM NIL=
201104201200 METAR MRLM 201200Z NIL=
201104201300 METAR MRLM 201300Z 21004KT 9999 FEW015 BKN300 23/21 A2995 RMK HZ LEVE ARND=
201104201400 METAR MRLM 201400Z 19003KT 9999 FEW020 BKN300 27/22 A2998 RMK HZ LEVE ARND=
201104201500 METAR MRLM 201500Z 09005KT 9999 BKN035 SCT300 29/22 A2999 RKM HZ LEVE ARND=
201104201600 METAR MRLM 201600Z 08006KT 9999 SCT030 SCT300 29/22 A2999 RMK HZ LEVE ARND=
201104201700 METAR MRLM 201700Z 07007KT 9999 FEW030 SCT080 28/22 A2998 RMK SCT300 RN DST SW HZ LEVE ARND=
201104201800 METAR MRLM 201800Z 07006KT 9999 FEW030 BKN080 29/22 A2997 RMK FEW300 RN DST SW HZ LEVE ARND=
201104201900 METAR MRLM 201900Z 06006KT 9999 FEW030 BKN080 28/23 A2994 RMK FEW300 RN DST SW HZ LEVE ARND=
201104202000 METAR MRLM 202000Z 0800KT 9999 SCT025 SCT080 29/22 A2991 RMK HZ LEVE ARND=
201104202100 METAR MRLM 202100Z 05007KT 9999 BKN035 29/22 A2988 RMK FEW080 RA DST SW HZ LGT ARND=
201104202200 METAR MRLM 202200Z 06007KT 9999 BKN030 28/22 A2988 RMK FEW080 FEW300 HZY LGT ARND RA S SW W=
201104202300 METAR MRLM 202300Z 06007KT 9999 FEW030 9999 BKN280 28/22 A2989 RMK FEW080 RA S SW HZY ARND=
201104210000 METAR MRLM 210000Z 08007KT 9999 FEW030 BKN280 27/21 A2989 RMK FEW080 RA QUAD S HZY ARND=
201104210100 METAR MRLM NIL=
201104210200 METAR MRLM NIL=
201104210300 METAR MRLM NIL=
201104210400 METAR MRLM NIL=
201104210500 METAR MRLM NIL=
201104210600 METAR MRLM NIL=
201104210700 METAR MRLM NIL=
201104210800 METAR MRLM NIL=
201104210900 METAR MRLM NIL=
201104211000 METAR MRLM NIL=
201104211100 METAR MRLM NIL=
201104211200 METAR MRLM NIL=
201104211300 METAR MRLM 211300Z 20004KT 9999 FEW015 SCT110 23/21 A2993 RMK SCT280 TCU DST E HZ ARND=
201104211400 METAR MRLM 211400Z 00000KT 9999 FEW025 SCT100 27/21 A2994 RMK SCT280 HZ ARND=
201104211500 METAR MRLM 211500Z 10003KT 9999 SCT040 SCT280 28/20 A2995 RMK HZ ARND=
201104211600 METAR MRLM 211600Z 08006KT 9999 SCT040 BKN280 29/21 A2995 RMK TCU RA N HZ ARND=
201104211700 METAR MRLM 211700Z 09008KT 9999 FEW035 BKN280 29/22 A2994 RMK HZ ARND=
201104211800 METAR MRLM 211800Z 07009KT 9999 FEW035 BKN280 29/22 A2992 RMK HZ LGT ARND=
201104211900 METAR MRLM 211900Z 06008KT 9999 FEW035 BKN270 29/22 A2990 RMK HZ ARND=
201104212000 METAR MRLM 212000Z 07008KT 9999 FEW040 BKN270 29/21 A2988 RMK HZ ARND RA SW FEW080=
201104212100 METAR MRLM 212100Z 07008KT 9999 FEW035 SCT080 29/22 A2987 RMK SCT270 HZ LGT ARND RA DST S SW W=
201104212200 METAR MRLM 212200Z 07008KT 9999 BKN035 28/22 A2987 RMK FEW080 FEW270 RA DST S SW W HZ ARND=
201104212300 METAR MRLM 212300Z 08006KT 9999 SCT035 SCT080 28/21 A2987 RMK FEW270 RA DST SE S SW W HZ LGT ARND=
201104220000 METAR MRLM NIL=
201104220100 METAR MRLM NIL=
201104220200 METAR MRLM NIL=
201104220300 METAR MRLM NIL=
201104220400 METAR MRLM NIL=
201104220500 METAR MRLM NIL=
201104220600 METAR MRLM NIL=
201104220700 METAR MRLM NIL=
201104220800 METAR MRLM NIL=
201104220900 METAR MRLM NIL=
201104221000 METAR MRLM NIL=
201104221100 METAR MRLM NIL=
201104221200 METAR MRLM 221200Z 19005KT CAVOK 23/21 A2992 RMK BKN110 HZ ARND=
201104221300 METAR MRLM 221300Z 19005KT CAVOK 23/21 A2993 RMK SCT120 SCT270 HZ ARND=
201104221400 METAR MRLM 221400Z 16004KT CAVOK 27/21 A2995 RMK FEW130 SCT280 HZ LGT ARND=
201104221500 METAR MRLM 221500Z 17004KT CAVOK 29/21 A2996 RMK FEW140 HZ ARND LGT=
201104221600 METAR MRLM 221600Z 08007KT CAVOK 29/20 A2996 RMK FEW140 FEW270 HZ LGT ARND=
201104221700 METAR MRLM 221700Z 07008KT CAVOK 29/20 A2995 RMK SCT260 HX LGT ARND=
201104221800 METAR MRLM 221800Z 08009KT CAVOK 30/20 A2993 RMK SCT260 HZ ARND LGT=
201104221900 METAR MRLM 221900Z 08008KT 9999 FEW040 BKN250 30/21 A2990=
201104222000 METAR MRLM 222000Z 07009KT 9999 FEW040 BKN250 29/22 A2988=
201104222100 METAR MRLM 222100Z 07010KT 9999 FEW035 BKN250 29/21 A2986 RMK LGHT HZ ARND=
201104222200 METAR MRLM 222200Z 07007KT 9999 FEW030 SCT250 28/22 A2985 RMK FEW130 TCU DST SW LGHT HZ ARND=
201104222300 METAR MRLM 222300Z 07006KT CAVOK 28/22 A2986 RMK SCT120 SCT250 LGHT HZ ARND=
201104230000 METAR MRLM 230000Z 09005KT CAVOK 27/21 A2987 RMK BKN110 SCT250 LGHT HZ ARND=
201104230100 METAR MRLM NIL=
201104230200 METAR MRLM NIL=
201104230300 METAR MRLM NIL=
201104230400 METAR MRLM NIL=
201104230500 METAR MRLM NIL=
201104230600 METAR MRLM NIL=
201104230700 METAR MRLM NIL=
201104230800 METAR MRLM NIL=
201104230900 METAR MRLM NIL=
201104231000 METAR MRLM NIL=
201104231100 METAR MRLM NIL=
201104231200 METAR MRLM 231200Z 20004KT 9999 FEW010 BKN100 23/21 A2992 RMK HZ ARND=
201104231300 METAR MRLM 231300Z 20004KT 9999 FEW015 BKN110 24/22 A2995 HZ ARND=
201104231400 METAR MRLM 231400Z 15003KT CAVOK 27/22 A2996 BKN110 FEW250 HZ ARND=
201104231500 METAR MRLM NIL=
201104231600 METAR MRLM 231600Z 11007KT 9999 FEW040 BKN120 28/21 A2996 RMK LGHT HZ ARND=
201104231700 METAR MRLM 231700Z 08008KT 9999 FEW040 SCT250 29/21 A2995 RMK FEW130=
201104231800 METAR MRLM 231800Z 09007KT 9999 FEW040 SCT140 29/22 A2993 RMK FEW250=
201104231900 METAR MRLM 231900Z 08007KT 9999 FEW035 BKN130 29/22 A2991 RMK HZ ARND=
201104232000 METAR MRLM 232000Z 05004KT 9999 FEW030 BKN110 28/21 A2989=
201104232100 METAR MRLM 232100Z 08003KT 9999 SCT030 BKN110 28/22 A2988 RMK HZ ARND=
201104232200 METAR MRLM 232200Z 00000KT 9999 SCT030 SCT100 28/22 A2987 RMK HZ ARND=
201104232300 METAR MRLM 232300Z 00000KT 9999 BKN025 SCT100 28/22 A2988 RMK HZ ARND=
201104240000 METAR MRLM 240000Z 00000KT 9999 BKN020 26/22 A2990 RMK FEW100 HZ ARND=
201104240100 METAR MRLM NIL=
201104240200 METAR MRLM NIL=
201104240300 METAR MRLM NIL=
201104240400 METAR MRLM NIL=
201104240500 METAR MRLM NIL=
201104240600 METAR MRLM NIL=
201104240700 METAR MRLM NIL=
201104240800 METAR MRLM NIL=
201104240900 METAR MRLM NIL=
201104241000 METAR MRLM NIL=
201104241100 METAR MRLM NIL=
201104241200 METAR MRLM 241200Z 20003KT CAVOK 24/21 A2993 RMK BKN080 FEW100 HZ LGT ARND=
201104241300 METAR MRLM 241300Z 21004KT CAVOK 26/21 A2994 RMK SCT080 SCT110 HZ LGT ARND=
201104241400 METAR MRLM 241400Z 09004KT CAVOK 28/20 A2996 RMK BKN080 FEW100 HZ LGT ARND=
201104241500 METAR MRLM 241500Z 09005KT 9999 FEW045 SCT080 29/20 A2996 RMK HZ LGT ARND=
201104241600 METAR MRLM 241600Z 08006KT 9999 FEW040 SCT110 29/20 A2996 RMK HZ LGT ARND=
201104241700 METAR MRLM 241700Z 08008KT 9999 FEW045 SCT110 29/20 A2995 RMK HZ LGT ARND=
201104241800 METAR MRLM 241800Z 07006KT 9999 FEW040 SCT090 29/21 A2993 RMK HZ LGT ARND=
201104241900 METAR MRLM 241900Z 04006KT 9999 FEW040 SCT090 28/21 A2991 RMK FEW080 HZ LGT ARND=
201104242000 METAR MRLM 242000Z 02004KT 9999 FEW040 BKN090 29/21 A2988 RMK FEW110 RN DST SW HZ LGT ARND=
201104242100 METAR MRLM 242100Z 02004KT 9999 FEW040 BKN090 29/21 A2986 RMK FEW070 RN DST SW CB DST S HZ LEVE ARND=
201104242200 METAR MRLM 242200Z 02003KT 9999 FEW030 SCT080 28/22 A2986 RMK FEW110 RN DST SW HZ LEVE ARND=
201104242300 METAR MRLM 242300Z 36002KT 9999 FEW030 SCT080 28/22 A2986 RMK FEW100 HZ LEVE ARND RN DST SW CB DST S=
201104250000 METAR MRLM 250000Z 03003KT 9999 SCT035 SCT090 28/21 A2988 RMK FEW280 RN DST SE S SW W HZ LEVE ARND=
201104250100 METAR MRLM NIL=
201104250200 METAR MRLM NIL=
201104250300 METAR MRLM NIL=
201104250400 METAR MRLM NIL=
201104250500 METAR MRLM NIL=
201104250600 METAR MRLM NIL=
201104250700 METAR MRLM NIL=
201104250800 METAR MRLM NIL=
201104250900 METAR MRLM NIL=
201104251000 METAR MRLM NIL=
201104251100 METAR MRLM NIL=
201104251200 METAR MRLM 251200Z NIL=
201104251210 METAR MRLM 251210Z 00000KT CAVOK 24/21 A2991 RMK SCT150 LGHT HZ ARND=
201104251300 METAR MRLM 251300Z 21004KT 9999 NSC 26/21 A2992 RMK HZ LEVE ARND=
201104251400 METAR MRLM 251400Z 16002KT CAVOK 29/21 A2994 RMK FEW300 HZ LEVE ARND=
201104251500 METAR MRLM 251500Z 07004KT 9999 FEW035 29/22 A2993 RMK FEW300 HZ LEVE ARND=
201104251600 METAR MRLM 251600Z 07006KT 9999 FEW035 29/22 A2992 RMK FEW300 HZ LEVE ARND=
201104251700 METAR MRLM 251700Z 06007KT 9999 FEW035 29/22 A2991 RMK HZ LEVE ARND=
201104251800 METAR MRLM 251800Z 04008KT 9999 FEW035 29/22 A2989 RMK HZ LEVE ARND=
201104251900 METAR MRLM 251900Z 04008KT 9999 FEW040 30/21 A2986 RMK HZ LEVE ARND=
201104252000 METAR MRLM 252000Z 03007KT 9999 FEW040 29/22 A2983 RMK HZY CB DST SE S SW W=
201104252100 METAR MRLM 252100Z 03006KT CAVOK 29/22 A2983 RMK FEW090 SCT110 HZ ARND=
201104252200 METAR MRLM 252200Z 04005KT 9999 FEW035 SCT080 29/21 A2982 RMK FEW280 HZ ARND=
201104252300 METAR MRLM 252300Z 03004KT CAVOK 28/22 A2982 RMK CB DST S FEW070 FEW090=
201104260000 METAR MRLM 260000Z 09004KT CAVOK 28/22 A2984 RMK FEW090 BKN270 CB DST SE S SW W HZ ARND=
201104260100 METAR MRLM NIL=
201104260200 METAR MRLM NIL=
201104260300 METAR MRLM NIL=
201104260400 METAR MRLM NIL=
201104260500 METAR MRLM NIL=
201104260600 METAR MRLM NIL=
201104260700 METAR MRLM NIL=
201104260800 METAR MRLM NIL=
201104260900 METAR MRLM NIL=
201104261000 METAR MRLM NIL=
201104261100 METAR MRLM NIL=
201104261200 METAR MRLM 261200Z 22005KT CAVOK 22/20 A2985 RMK SCT270 CB DST N NE HZ ARND=
201104261300 METAR MRLM 261300Z 21003KT CAVOK 25/21 A2988 RMK SCT270 CB DST N HZ ARND=
201104261400 METAR MRLM 261400Z 00000KT CAVOK 29/22 A2990 RMK FEW140 SCT270 CB N HZ ARND=
201104261500 METAR MRLM 261500Z 04008KT 9999 BKN030 28/22 A2991 RMK RA N FEW120 HZY ARND=
201104261600 METAR MRLM 261600Z 07009KT 9999 SCT025 BKN120 28/23 A2991 RMK CB RA DST N HZ ARND=
201104261700 METAR MRLM 261700Z 09007KT 9999 SCT025 BKN120 28/23 A2991 RMK HZY ARND=
201104261800 METAR MRLM 261800Z 09014KT 9999 FEW025 BKN120 28/23 A2989 RMK TCU S CB RA E HZ ARND=
201104261900 METAR MRLM 261900Z 03007KT CAVOK 29/23 A2980 RMK SCT130 SCT250 CB DST S E HZ ARND=
201104262000 METAR MRLM 262000Z 36012KT CAVOK 29/23 A2976 RMK FW130 SCT250 HZ ARND=
201104262100 METAR MRLM 262100Z 01005KT CAVOK 29/24 A2978 RM SCT130 SCT250 HZ LGT ARND=
201104262200 METAR MRLM 262200Z 36009KT 9999 FEW030 SCT140 29/25 A2978 RMK SCT250 HZ LGT ARND=
201104262300 METAR MRLM 262300Z 02003KT 9999 FEW030 BKN120 28/23 A2981 RMK HZ ARND LGT=
201104270000 METAR MRLM NIL=
201104270100 METAR MRLM NIL=
201104270200 METAR MRLM NIL=
201104270300 METAR MRLM NIL=
201104270400 METAR MRLM NIL=
201104270500 METAR MRLM NIL=
201104270600 METAR MRLM NIL=
201104270700 METAR MRLM NIL=
201104270800 METAR MRLM NIL=
201104270900 METAR MRLM NIL=
201104271000 METAR MRLM NIL=
201104271100 METAR MRLM NIL=
201104271200 METAR MRLM 271200Z 25003KT 5000 +RA OVC007 24/23 A2987=
201104271300 METAR MRLM 271300Z 00000KT 9999 SCT007 BKN100 25/24 A2989 RERA RMK CB RA DST N NE HZ ARND=
201104271400 METAR MRLM 271400Z 00000KT 9999 FEW010 BKN110 26/25 A2990 RMK FEW250 CB RA DST NE HZ ARND=
201104271500 METAR MRLM 271500Z 07003KT 9999 SCT015 SCT110 27/24 A2971 RMKI CB DST N NE HZ ARND=
201104271600 METAR MRLM 271600Z 02004KT 9999 SCT015 SCT110 27/24 A2991 RMK RA DST N HZ ARND=
201104271700 METAR MRLM 271700Z 06004KT 9999 SCT020 BKN110 27/24 A2991 RMK HZ ARND=
201104271800 METAR MRLM NIL=
201104271900 METAR MRLM 271900Z 02005KT 9999 BKN130 28/24 A2984 RMK FEW250 HZ ARND=
201104272000 METAR MRLM 272000Z 01009KT 9999 FEW025 BKN250 29/25 A2983 RMK FEW130 TCU DST S HZ ARND=
201104272100 METAR MRLM 272100Z 06007KT 9999 SCT020 SCT250 29/24 A2982 RMK TCU DST S HZ ARND=
201104272200 METAR MRLM 272200Z 36008KT 9999 BKN020 SCT250 28/24 A2982 RMK HZ ARND=
201104272300 METAR MRLM 272300Z 32004KT 9999 SCT020 SCT130 28/24 A2985 RMK FEW250 HZ ARND=
201104280000 METAR MRLM 280000Z 00000KT 9999 SCT015 SCT240 27/24 A2987 RMK FEW130 HZ ARND=
201104280100 METAR MRLM 280100Z NIL=
201104280200 METAR MRLM NIL=
201104280300 METAR MRLM NIL=
201104280400 METAR MRLM NIL=
201104280500 METAR MRLM NIL=
201104280600 METAR MRLM NIL=
201104280700 METAR MRLM NIL=
201104280800 METAR MRLM NIL=
201104280900 METAR MRLM NIL=
201104281000 METAR MRLM NIL=
201104281100 METAR MRLM NIL=
201104281200 METAR MRLM NIL=
201104281300 METAR MRLM 281300Z 23005KT 9999 FEW015 SCT025 24/23 A2994 RMK SCT080 RN DST SE LGHT HZ ARND=
201104281400 METAR MRLM 281400Z 21003KT FEW015 SCT030 27/24 2996 RMK SCT080 RN DST SE TCU DST N LGHT HZ ARND=
201104281500 METAR MRLM 281500Z 09004KT 9999 FEW025 BKN080 29/24 A2996 RMK RN DST E SE LGHT HZ ARND=
201104281600 METAR MRLM 281600Z 10006KT 9999 FEW025 BKN090 29/24 A2996 RMK RN DST QUAD N E FEW270 LGHT HZ ARND=
201104281700 METAR MRLM 281700Z 10006KT 9999 SCT025TCU SCT080 29/24 A2995 RMK FEW270 TCU RN QUAD N E LGHT HZ ARND=
201104281800 METAR MRLM 281800Z 10008KT 9999 FEW025 BKN090 29/24 A2992 RMK FEW270 CB RN DST N LGHT HZ ARND=
201104281900 METAR MRLM 281900Z 06006KT 9999 FEW025 BKN110 29/24 A2990 RMK FEW270 CB DST HZ ARND RN DST N SW=
201104282000 METAR MRLM 282000Z 06004KT 9999 FEW025 SCT090 28/23 A2988 RMK SCT270 CB DST HZ ARND RN DST SW W=
201104282100 METAR MRLM 282100Z 05004KT 9999 FEW020 BKN270 28/24 A2985 RMK CB DST S W HZ LGT ARND=
201104282200 METAR MRLM 282200Z 08002KT 9999 FEW020 SCT080 28/24 A2987 RMK SCT270 HZ LGT ARND CB DST S W=
201104282300 METAR MRLM 282300Z 04003KT 9999 FEW020 SCT080 28/24 A2987 RMK CB DST S SW RN DST SW SCT270 HZ LGT ARND=
201104290000 METAR MRLM NIL=
201104290100 METAR MRLM NIL=
201104290200 METAR MRLM NIL=
201104290300 METAR MRLM NIL=
201104290400 METAR MRLM NIL=
201104290500 METAR MRLM NIL=
201104290600 METAR MRLM NIL=
201104290700 METAR MRLM NIL=
201104290800 METAR MRLM NIL=
201104290900 METAR MRLM NIL=
201104291000 METAR MRLM NIL=
201104291100 METAR MRLM NIL=
201104291200 METAR MRLM NIL=
201104291300 METAR MRLM 291300Z 21003KT CAVOK 26/23 A2992 RMK FEW250 SCT300 TCU DST RN NW N HZ LGT ARND=
201104291400 METAR MRLM 291400Z 21003KT 9999 FEW025TCU 29/23 A2993 RMK FEW130 FEW300 HZ LGT ARND=
201104291500 METAR MRLM 291500Z 10004KT 9999 SCT030 29/23 A2994 RMK FEW300 HZ LGT ARND=
201104291600 METAR MRLM 291600Z 07005KT 9999 SCT025 29/24 A2994 RMK FEW300 HZ LGT ARND=
201104291700 METAR MRLM 291700Z 06008KT 9999 SCT025 30/24 A2992 RMK FEW300 HZ LGT ARND=
201104291800 METAR MRLM 291800Z 08008KT 9999 SCT025 30/24 A2990 RMK FEW300 HZ LGT ARND=
201104291900 METAR MRLM 291900Z 07009KT 9999 OVC030 30/24 A2987 RMK HZ LGT ARND=
201104292000 METAR MRLM 292000Z 06010KT 9999 BKN030 30/24 A2985 RMK FEW300 HZ LGT ARND=
201104292100 METAR MRLM 292100Z 06009KT 9999 OVC030 30/24 A2983 RMK HZ LEVE ARND=
201104292200 METAR MRLM 292200Z 07008KT 9999 OVC030 29/23 A2983 RMK HZ LEVE ARND RN DST S SW=
201104292300 METAR MRLM 292300Z 06006KT 9999 BKN028 29/23 A2983 RMK HZ LEVE AND FEW280=
201104300000 METAR MRLM 300000Z 05006KT 9999 BKN025 28/23 A2984 RMK HZ LEVE ARND FEW090 FEW280=
201104300100 METAR MRLM NIL=
201104300200 METAR MRLM NIL=
201104300300 METAR MRLM NIL=
201104300400 METAR MRLM NIL=
201104300500 METAR MRLM NIL=
201104300600 METAR MRLM NIL=
201104300700 METAR MRLM NIL=
201104300800 METAR MRLM NIL=
201104300900 METAR MRLM NIL=
201104301000 METAR MRLM NIL=
201104301100 METAR MRLM NIL=
201104301200 METAR MRLM 301200Z 26003KT 9999 FEW015 SCT110 23/21 A2986 RMK FEW260 HZ ARND=
201104301300 METAR MRLM 301300Z 22004KT 9999 FEW020 SCT120 26/22 A2987 RMK HZ LEVE ARND=
201104301400 METAR MRLM 301400Z 00000KT 9999 FEW030 29/23 A2989 RMK FEW130 HZ LEVE ARND=
201104301500 METAR MRLM 301500Z 07003KT 9999 FEW030 29/23 A2990 RMK FEW250 HZ LEVE ARND=
201104301600 METAR MRLM 301600Z 06006KT 9999 FEW030 29/23 A2989 RMK FEW250 HZ LEVE ARND=
201104301700 METAR MRLM 301700Z 07007KT 9999 FEW035 30/23 A2988 RMK FEW250 HZ LEVE ARND=
201104301800 METAR MRLM 301800Z 08006KT 9999 FEW035 30/23 A2984 RMK FEW260 HZ LEVE ARND=
201104301900 METAR MRLM 301900Z 07008KT 9999N FEW035 30/23 A2982 RMK FEW260 HZ LEVE ARND=
201104302000 METAR MRLM 302000Z 06008KT 9999 FEW040 30/22 A2979 RMK FEW260 HZ LEVE ARND=
201104302100 METAR MRLM 302100Z 06007KT 9999 SCT035 30/23 A2978 RK FEW260 HZ ARND=
201104302200 METAR MRLM 302200Z 07006KT 9999 SCT030 29/23 A2977 RMK FEW250 HZ ARND=
201104302300 METAR MRLM 302300Z 05005KT 9999 SCT030 SCT250 29/23 A2979 RMK HZ ARND=
201105010000 METAR MRLM 010000Z 06004KT 9999 BKN035 28/22 A2980 CB DST S SW HZY ARND=
201105010100 METAR MRLM NIL=
201105010200 METAR MRLM NIL=
201105010300 METAR MRLM NIL=
201105010400 METAR MRLM NIL=
201105010500 METAR MRLM NIL=
201105010600 METAR MRLM NIL=
201105010700 METAR MRLM NIL=
201105010800 METAR MRLM NIL=
201105010900 METAR MRLM NIL=
201105011000 METAR MRLM NIL=
201105011100 METAR MRLM NIL=
201105011200 METAR MRLM 011200Z 24005KT CAVOK 23/19 A2983 RMK FEW130 CB DST NNE HZ LGT ARND=
201105011300 METAR MRLM 011300Z 25003KT CAVOK 25/20 A2985 RMK FEW140 CB DST N HZ LGT ARND=
201105011400 METAR MRLM 011400Z 00000KT 9999 FEW040 SCT140 28/20 A2986 RMK HZ ARND=
201105011500 METAR MRLM 011500Z 01006KT 9999 FEW030 SCT130 28/23 A2987 RMK HZ ARND=
201105011600 METAR MRLM 011600Z 36008KT 9999 BKN030 SCT130 28/23 A2988 RMK HZ ARND=
201105011700 METAR MRLM 011700Z 03006KT 999 BKN030 SCT130 29/23 A2986 RMK TCU S SW HZ ARND=
201105011800 METAR MRLM 011800Z 05010KT 9999 SCT025 SCT120 29/23 A2985 RMK HZ ARND=
201105011900 METAR MRLM 011900Z 04007KT 9999 FEW030 29/23 A2982 RMK FEW130 TCU SW=
201105012000 METAR MRLM 012000Z 03005KT 9999 SCT030 SCT130 28/23 A2980 RMK CB RA S SW=
201105012100 METAR MRLM 012100Z 04006KT 9999 SCT030 SCT130 29/22 A2979 RMK CB RA SW HZ ARND=
201105012200 METAR MRLM 012200Z 06011KT 9999 +DZ OVC020 27/22 A2978 RMK RA N=
201105012300 METAR MRLM 012300Z 03010KT 9999 BKN015 27/24 A2978 REDZ RMK FEW130 RA W HZ ARND=
201105020000 METAR MRLM 020000Z 05003KT 9999 SCT015 27/23 A2979 RMK FEW120 FEW250 CB RA DST SE S HZ ARND=
201105020100 METAR MRLM NIL=
201105020200 METAR MRLM NIL=
201105020300 METAR MRLM NIL=
201105020400 METAR MRLM NIL=
201105020500 METAR MRLM NIL=
201105020600 METAR MRLM NIL=
201105020700 METAR MRLM NIL=
201105020800 METAR MRLM NIL=
201105020900 METAR MRLM NIL=
201105021000 METAR MRLM NIL=
201105021100 METAR MRLM NIL=
201105021200 METAR MRLM NIL=
201105021300 METAR MRLM 021300Z 22004KT 8000 DZ VCSH SCT006 SCT015 23/22 A2989 VIS 9999 NE/E FEW080=
201105021400 METAR MRLM 021400Z 27004KT 9999 FEW008 BKN025 24/22 A2991 REDZ RMK FEW080 RA HZ ARND=
201105021500 METAR MRLM 021500Z 27004KT 9999 FEW008 BKN015 26/23 A2991 RMK RA HZ LGT ARND=
201105021600 METAR MRLM 021600Z 12007KT 9999 FEW025 BKN070 27/23 A2989 RMK FEW090 RA DST NE E HZ LGT ARND=
201105021700 METAR MRLM 021700Z 12007KT 9999 FEW025 BKN070 27/23 A2989 RMK FEW090 RA DST NE E HZ LGT ARND=
201105021800 METAR MRLM 021800Z 12006KT 9999 FEW035 BKN070 28/21 A2987 RMK FEW090 DZ DST SW=
201105021900 METAR MRLM 021900Z 14004KT 9999 FEW040 BKN070 29/21 A2983 RMK FEW090 DZ DST SW HZ LGT ARND=
201105022000 METAR MRLM 022000Z 09006KT 9999 FEW035 BKN090 30/22 A2980 RMK CB DST NE HZ LGT ARND=
201105022100 METAR MRLM 022100Z 08007KT 9999 FEW035 SCT130 29/23/ A2977 RMK LGHT HZ ARND TCU DST S W NE=
201105022200 METAR MRLM 022200Z 07008KT 9999 FEW040 SCT140 29/21 A2978 RMK LGHT HZ ARND TCU DST NE S=
201105022300 METAR MRLM 022300Z 08005KT 9999 FEW040 29/22 A2978 RMK FEW140 LGHT HZ ARND TCU SE S=
201105030000 METAR MRLM 030000Z 08006KT CAVOK 28/22 A2981 RMK FEW150 FEW300 TCU DST N LGHT HZ ARND=
201105030100 METAR MRLM NIL=
201105030200 METAR MRLM NIL=
201105030300 METAR MRLM NIL=
201105030400 METAR MRLM NIL=
201105030500 METAR MRLM NIL=
201105030600 METAR MRLM NIL=
201105030700 METAR MRLM NIL=
201105030800 METAR MRLM NIL=
201105030900 METAR MRLM NIL=
201105031000 METAR MRLM NIL=
201105031100 METAR MRLM NIL=
201105031200 METAR MRLM 031200Z 23005KT 9999 FEW015 SCT130 23/21 A2987 RMK RA N HZ ARND=
201105031300 METAR MRLM 031300Z 23004KT 9999 FEW018 SCT090 25/22 A2989 RMK FEW130 DZ NE LGHT HZ ARND=
201105031400 METAR MRLM 031400Z 24004KT 9999 FEW020 BKN070 27/23 A2991 RMK FEW090 RN DST N NE DZ NW=
201105031500 METAR MRLM 031500Z 02006KT 9999 SCT025 SCT080 28/23 A2992 RMK RN DST N NE E LGHT HZ ARND=
201105031600 METAR MRLM 031600Z 01007KT 9999 FEW025 BKN070 28/23 A2992 RMK FEW090 DZ NW E=
201105031700 METAR MRLM 031700Z 02010KT 9999 FEW030 SCT080 29/23 A2990 RMK SCT100 DZ DST SE LGHT HZ=
201105031800 METAR MRLM 031800Z 01007KT 9999 FEW030 BKN100 29/23 A2988 RMK FEW080 CB DST N NE LGHT HZ ARND=
201105031900 METAR MRLM 031900Z 01010KT 9999 FEW030 SCT100 30/23 A2987 RMK FEW080 CB DST N NE=
201105032000 METAR MRLM 032000Z 01010KT 9999 FEW025 SCT080 29/23 A2985 RMK FEW100 DZ NE CB DST NW N SE S LGHT ARND=
201105032100 METAR MRLM 032100Z 02007KT 9999 FEW030 SCT100 29/24 A2982 RMK FEW080 CB DST NE E S SW RN DST SW HZ LGT ARND=
201105032200 METAR MRLM 032200Z 03005KT 9999 FEW028 BKN080 29/23 A2982 RMK FEW100 CB DST ARND HZ LGT ARND RN SW=
201105032300 METAR MRLM 032300Z 02004KT 9999 FEW025 SCT080 28/23 A2983 RMK SCT110 CB DST E SE S SW HZ LGT ARND=
201105040000 METAR MRLM 040000Z 02005KT 9999 SCT020 SCT090 28/23 A2986 RMK FEW140 RN DST QUAD S CB DST QUAD E S HZ ARND=
201105040100 METAR MRLM NIL=
201105040200 METAR MRLM NIL=
201105040300 METAR MRLM NIL=
201105040400 METAR MRLM NIL=
201105040500 METAR MRLM NIL=
201105040600 METAR MRLM NIL=
201105040700 METAR MRLM NIL=
201105040800 METAR MRLM NIL=
201105040900 METAR MRLM NIL=
201105041000 METAR MRLM NIL=
201105041100 METAR MRLM NIL=
201105041200 METAR MRLM NIL=
201105041300 METAR MRLM 041300Z 27004KT 9999 FEW015 SCT080 24/23 A2990 RMK FEW140 SCT270 CB RN DST QUAD N E HZ LGT ARND=
201105041400 METAR MRLM NIL=
201105041500 METAR MRLM 041500Z 29005KT 9999 FEW015 BKN070 26/23 A2994 RMK FEW100 RN DST QUAD N E DZ S=
201105041600 METAR MRLM 041600Z 29004KT 9999 FEW020 BKN080 27/23 A2992 RMK RN DST NE NW DZ SE HZ LGT ARND=
201105041700 METAR MRLM 041700Z 29003KT 9999 FEW020 BKN100 29/24 A2991 RMK FEW240 RA DST NE HZ LGT ARND=
201105041800 METAR MRLM 041800Z 36010KT 9999 FEW030 BKN110 29/24 A2989 RMK RA DST N NE TCU DST SW HZ LGT ARND=
201105041900 METAR MRLM 041900Z 36008KT 9999 FEW030 BKN110 29/24 A2987 RMK HZ LGT ARND=
201105042000 METAR MRLM 042000Z 01007KT 9999 FEW030 BKN120 29/24 A2984 RMK TCU DST SW W CB DST N HZ LGT ARND=
201105042100 METAR MRLM 042100Z 33006KT 9999 FEW025 BKN120 29/24 A2984 RMK CB RA DST SW HZ LEVE ARND=
201105042200 METAR MRLM 042200Z 31006KT CAVOK 28/24 A2984 RMK BKN120 FEW240 HZ LEVE ARND=
201105042300 METAR MRLM 042300Z 32005KT 9999 FEW020 BKN110 28/24 A2986 RMK HZ ARND=
201105050000 METAR MRLM 050000Z 30004KT 9999 DZ BKN015 26/24 A2986 FEW100=
201105050100 METAR MRLM NIL=
201105050200 METAR MRLM NIL=
201105050300 METAR MRLM NIL=
201105050400 METAR MRLM NIL=
201105050500 METAR MRLM NIL=
201105050600 METAR MRLM NIL=
201105050700 METAR MRLM NIL=
201105050800 METAR MRLM NIL=
201105050900 METAR MRLM NIL=
201105051000 METAR MRLM NIL=
201105051100 METAR MRLM NIL=
201105051200 METAR MRLM NIL=
201105051300 METAR MRLM 051300Z 22005KT 5000 +RA OVC007 24/23 A2992=
201105051400 METAR MRLM 051400Z 31005KT 7000 RA BKN007 24/23 A2993 RMK FEW080 VIS 4000 QUAD N RA=
201105051500 METAR MRLM 051500Z 23004KT 5000 +RA BKN007 25/23 A2994 RMK FEW080=
201105051600 METAR MRLM 051600Z 00000KT 9999 DZ BKN010 SCT090 26/24 A2993 RERA RMK RN DST W NW N E HZ ARND=
201105051700 METAR MRLM 051700Z 36004KT 9999 DZ BKN015 SCT090 27/23 A2992 RMK RA DST W NW N HZ ARND=
201105051800 METAR MRLM 051800Z 29004KT 9999 BKN015 26/24 A2990 REDZ RMK FEW090 RA DST N NE HZ ARND=
201105051900 METAR MRLM 051900Z 34006KT 9999 BKN015 27/24 A2988 RMK FEW080 RA DST W NW HZ ARND=
201105052000 METAR MRLM 052000Z 31006KT 9999 DZ VCSH BKN010 26/23 A2986 FEW080 VIS 8KMS N NE E HZ ARND=
201105052100 METAR MRLM 052100Z 07007KT 9999 DZ BKN010 SCT080 25/23 A2984 RMK RA DST N NE HZ ARND=
201105052200 METAR MRLM 052200Z 29005KT 9999 DZ BKN010 SCT080 25/23 A2985 RMK RA NW N HZ ARND=
201105052300 METAR MRLM 052300Z 26004KT 9999 SCT010 SCT090 25/23 A2985 RMK RA DST NW CB DST N NE HZ ARND=
201105060000 METAR MRLM 060000Z 29005KT 9999 SCT007 BKN090 24/23 A2986 RMK CB RA N NE HZ ARND=
201105060100 METAR MRLM NIL=
201105060200 METAR MRLM NIL=
201105060300 METAR MRLM NIL=
201105060400 METAR MRLM NIL=
201105060500 METAR MRLM NIL=
201105060600 METAR MRLM NIL=
201105060700 METAR MRLM NIL=
201105060800 METAR MRLM NIL=
201105060900 METAR MRLM NIL=
201105061000 METAR MRLM NIL=
201105061100 METAR MRLM NIL=
201105061200 METAR MRLM 061200Z 27002KT 7000 +DZ VCSH FEW006 BKN015 24/23 A2991 RMK FEW09 0=
201105061300 METAR MRLM 061300Z 20005KT 5000 RA FEW006 BKN015 24/22 A2992 RMK FEW090 8KMS N=
201105061400 METAR MRLM 061400Z 25007KT 5000 RA FEW005 BKN020 24/23 A2993 RMK FEW090=
201105061500 METAR MRLM 061500Z 25005KT 9999 DZ VCSH FEW004 BKN015 24/23 A2994 RMK 8KMS N FEW090=
201105061600 METAR MRLM NIL=
201105061700 METAR MRLM 061700Z 22004KT 9999 DZ VCSH FEW008 SCT015 24/23 A2995 RMK VIS NW N 8KMS SCT090=
201105061800 METAR MRLM 061800Z 20005KT 9999 FEW010 SCT025 26/23 A2992 REDZ RMK SCT070 SCT100 CB RA N E HZ ARND=
201105061900 METAR MRLM 061900Z 23004KT 9999 SCT020 27/24 A2990 RMK FEW080 FEW100 RA DST HZ ARND=
201105062000 METAR MRLM 062000Z 06003KT 9999 BKN030 24/23 A2987 RMK RA HZ ARND FEW090=
201105062100 METAR MRLM 062100Z 30004KT 9999 FEW020 BKN070 27/23 A2986 RMK FEW090 CB RA DST N E DZ NW HZ ARND=
201105062200 METAR MRLM 062200Z 32003KT 8000 VCSH FEW008 BKN018 27/24 A2976=
201105062300 METAR MRLM 062300Z 32005KT 1000 +SHRA OVC010TCU 24/23 A2990=
201105070000 METAR MRLM 070000Z 24005KT 8000 RA FEW005 BKN020 24/22 A2991 RMK FEW090 CB N E=
201105070100 METAR MRLM NIL=
201105070200 METAR MRLM NIL=
201105070300 METAR MRLM NIL=
201105070400 METAR MRLM NIL=
201105070500 METAR MRLM NIL=
201105070600 METAR MRLM NIL=
201105070700 METAR MRLM NIL=
201105070800 METAR MRLM NIL=
201105070900 METAR MRLM NIL=
201105071000 METAR MRLM NIL=
201105071100 METAR MRLM NIL=
201105071200 METAR MRLM NIL=
201105071300 METAR MRLM 071300Z 21004KT 9999 FEW025 SCT080 24/22 A2987 RMK CB RA DST N HZ ARND LGT=
201105071400 METAR MRLM 071400Z 36003KT 9999 SCT025 SCT080 26/23 A2989 RMK RA DST NW N NE E HZ ARND=
201105071500 METAR MRLM NIL=
201105071600 METAR MRLM 071600Z 05004KT 9999 BKN030 SCT080 29/23 A2988 RMK RA DST N NE E CB DST NW HZ ARND LGT=
201105071700 METAR MRLM 071700Z 05003KT 9999 SCT030 SCT080 29/23 A2988 RMK DZ DST E SE HZ ARND=
201105071800 METAR MRLM 071800Z 04006KT 9999 FEW020 BKN090 29/24 A2988 RMK FEW028 RA DST E DZ NE HZ ARND=
201105071900 METAR MRLM 071900Z 09005KT 9999 FEW030 BKN130 30/23 A2984 RMK FEW270 CB DST N E HZ ARND LGT=
201105072000 METAR MRLM 072000Z 09006KT 9999 FEW025 BKN120 29/24 A2983 RMK FEW270 HZ ARND=
201105072100 METAR MRLM 072100Z 09003KT 9999 FEW025 SCT080 30/24 A2982 RMK SCT140 TCU RN SW LGHT HZ ARND=
201105072200 METAR MRLM 072200Z 07005KT 9999 SCT025 SCT080 29/24 A2982 RMK CB DST NW N LGHT HZ ARND=
201105072300 METAR MRLM 072300Z 07004KT 9999 FEW025 BKN080 28/24 A2981 RMK FEW300 CB NW N HZ ARND=
201105080000 METAR MRLM 080000Z 06003KT 9999 FEW025 BKN090 28/23 A2984 RMK RN DST N SE S HZ ARND=
201105080100 METAR MRLM NIL=
201105080200 METAR MRLM NIL=
201105080300 METAR MRLM NIL=
201105080400 METAR MRLM NIL=
201105080500 METAR MRLM NIL=
201105080600 METAR MRLM NIL=
201105080700 METAR MRLM NIL=
201105080800 METAR MRLM NIL=
201105080900 METAR MRLM NIL=
201105081000 METAR MRLM NIL=
201105081100 METAR MRLM NIL=
201105081200 METAR MRLM 081200Z 22004KT 5000 RA OVC006 24/23 A2986 RMK CB TS QUAD S=
201105081300 METAR MRLM 081300Z 17004KT 5000 RA BKN006 SCT015 24/23 A2988 RMK CB TS DST QUAD S=
201105081400 METAR MRLM 081400Z 24003KT 7000 -RA SCT006 SCT015 24/23 A2990 RMK FEW070 CB TS DST E SE=
201105081500 METAR MRLM 081500Z 00000KT 7000 -RA SCT006 SCT015 24/23 A2989 RMK FEW070 CB TS DST N NE=
201105081600 METAR MRLM 081600Z 00000KT 7000 +DZ FEW007 BKN015 24/23 A2989 RMKI CB TS DST QUAD N FEW070=
201105081700 METAR MRLM 081700Z 00000KT 9999 -DZ FEW007 BKN015 25/24 A2987 RMK FEW080 CB RA DST NW N=
201105081800 METAR MRLM 081800Z 17004KT 9999 FEW010 BKN020 27/25 A2987 RMK FEW090 CB RA DST S QUAD N HZ ARND=
201105081900 METAR MRLM 081900Z 04003KT 9999 DZ BKN015 27/24 A2984 RMK FEW090 RA DST NE HZ ARND=
201105082000 METAR MRLM 082000Z 31003KT 8000 +DZ BKN020 28/25 A2982 RMK FEW090 VIS 5KM QUAD N=
201105082100 METAR MRLM 082100Z 00000KT 9999 -DZ BKN015 27/25 A2981 RMK FEW090 RA DST NE HZ ARND=
201105082200 METAR MRLM 082200Z 00000KT 9999 -DZ FEW008 BKN015 27/24 A2981 RMK HZ ARND RA DST QUAD N E SE=
201105082300 METAR MRLM 082300Z 00000KT 5000 RA OVC010 26/24 A2982=
201105090000 METAR MRLM 090000Z 00000KT 7000 DZ OVC007 25/24 A2984 RERA RMK CB TS DST E HZY=
201105090100 METAR MRLM NIL=
201105090200 METAR MRLM NIL=
201105090300 METAR MRLM NIL=
201105090400 METAR MRLM NIL=
201105090500 METAR MRLM NIL=
201105090600 METAR MRLM NIL=
201105090700 METAR MRLM NIL=
201105090800 METAR MRLM NIL=
201105090900 METAR MRLM NIL=
201105091000 METAR MRLM NIL=
201105091100 METAR MRLM NIL=
201105091200 METAR MRLM 091200Z 00000KT 8000 +DZ VCSH OVC006 25/24 A2996=
201105091300 METAR MRLM 091300Z 23003KT 5000 RA BKN006 24/23 A2988 RMK FEW070=
201105091400 METAR MRLM 091400Z 26005KT 8000 -RA BKN007 24/23 A2986 RMK FEW070 CB TS DST NE RA DST SE=
201105091500 METAR MRLM 091500Z 31003KT 9999 DZ BKN007 25/24 A2983 RMK SCT080 RA DST NW N S HZ ARND=
201105091600 METAR MRLM 091600Z 00000KT 9999 BKN010 26/24 A2984 REDZ RMK SCT090 RA DST SW HZ ARND=
201105091700 METAR MRLM 091700Z 17003KT 9999 BKN010 26/25 A2986 RMK FEW090 RA DST W HZ ARND=
201105091800 METAR MRLM 091800Z 12005KT 9999 BKN015 28/25 A2985 RMK FEW100 RA DST W NW HZ ARND=
201105091900 METAR MRLM 091900Z 10004KT 9999 SCT020 SCT100 28/25 A2982 RMK RA DST E HZ ARND=
201105092000 METAR MRLM 092000Z 08005KT 9999 SCT020 SCT110 28/24 A2980 RMK FEW250 PCPN DST E HZ ARND=
201105092100 METAR MRLM 092100Z 09008KT 9999 FEW020 SCT110 28/24 A2979 RMK FEW250 CB RN DST SE S HZ ARND=
201105092200 METAR MRLM 092200Z 11008KT 9999 SCT030 SCT120 29/23 A2977 RMK FEW260 RA DST SE N HZ ARND=
201105092300 METAR MRLM 092300Z 15003KT 9999 SCT020 SCT110 27/23 A2977 RMK CB RA DST SE N HZ ARND=
201105100000 METAR MRLM 100000Z 00000KT 9999 SCT015 BKN100 26/23 A2978 RMK RA DST N HZ ARND=
201105100100 METAR MRLM NIL=
201105100200 METAR MRLM NIL=
201105100300 METAR MRLM NIL=
201105100400 METAR MRLM NIL=
201105100500 METAR MRLM NIL=
201105100600 METAR MRLM NIL=
201105100700 METAR MRLM NIL=
201105100800 METAR MRLM NIL=
201105100900 METAR MRLM NIL=
201105101000 METAR MRLM NIL=
201105101100 METAR MRLM NIL=
201105101200 METAR MRLM 101200Z 21003KT 6000 RA FEW006 OVC010 24/23 A2982=
201105101300 METAR MRLM 101300Z 17005KT 3000 +RA OVC007 24/23 A2986=
201105101400 METAR MRLM 101400Z 22004KT 7000 +DZ VCSH FEW007 BKN010 24/23 A2987 RERA=
201105101500 METAR MRLM 101500Z 22005KT 8000 DZ VCSH FEW006 BKN010 23/23 A2986=
201105101600 METAR MRLM 101600Z 25004KT 9999 DZ VCSH SCT010 SCT090 24/23 A2985 RMK VIS 7000 QUAD N=
201105101700 METAR MRLM 101700Z 00000KT 9999 SCT015 BKN100 25/24 A2984 REDZ RMK RA DST NW HZ ARND=
201105101800 METAR MRLM 101800Z 21004KT 9999 FEW020 BKN110 26/24 A2981 RMK HZ ARND=
201105101900 METAR MRLM 101900Z 09004KT 9999 FEW025 SCT120 28/24 A2978 RMK SCT250 HZ ARND=
201105102000 METAR MRLM 102000Z 02005KT 9999 FEW025 BKN250 28/23 A2977 RMK FEW130 HZ ARND=
201105102100 METAR MRLM 102100Z 34004KT 9999 FEW030 BKN250 30/24 A2975 RMK FEW140 HZ ARND=
201105102200 METAR MRLM 102200Z 34005KT 9999 FEW025 SCT130 28/24 A2974 RMK SCT250 HZ ARND=
201105102300 METAR MRLM 102300Z 30005KT 9999 FEW020 BKN120 27/24 A2975 RMK HZ ARND=
201105110000 METAR MRLM 110000Z 00000KT 9999 FEW020 BKN110 26/24 A2976 RMK HZ ARND=
201105110100 METAR MRLM NIL=
201105110200 METAR MRLM NIL=
201105110300 METAR MRLM NIL=
201105110400 METAR MRLM NIL=
201105110500 METAR MRLM NIL=
201105110600 METAR MRLM NIL=
201105110700 METAR MRLM NIL=
201105110800 METAR MRLM NIL=
201105110900 METAR MRLM NIL=
201105111000 METAR MRLM NIL=
201105111100 METAR MRLM NIL=
201105111200 METAR MRLM 111200Z 29004KT 5000 RA OVC007 23/22 A2985 RMK CB TS DST W NW=
201105111300 METAR MRLM 111300Z 24004KT 7000 +DZ BKN007 23/22 A2988 RERA RMK FEW080=
201105111400 METAR MRLM 111400Z 24004KT 9999 BKN007 24/23 A2990 REDZ RMK FEW090 RA NW NE E HZ ARND=
201105111500 METAR MRLM 111500Z 22003KT 9999 DZ VCSH BKN010 25/23 A2990 RMK FEW090 VIS NE E 8KMS HZ ARND=
201105111600 METAR MRLM 111600Z 23007KT 7000 -RA VCSH BKN010 24/23 A2991 RMK FEW090=
201105111700 METAR MRLM 111700Z 24005KT 9999 SCT015 SCT100 25/24 A2989 RMK RA N HZ ARND=
201105111800 METAR MRLM 111800Z 04003KT 9999 FEW020 BKN120 28/23 A2986 RMK HZ ARND=
201105111900 METAR MRLM 111900Z 05004KT CAVOK 28/23 A2982 RMK BKN120 HZ ARND=
201105112000 METAR MRLM 112000Z 04007KT CAVOK 28/23 A2981 RMK BKN130 FEW250 HZ ARND=
201105112100 METAR MRLM NIL=
201105112200 METAR MRLM 112200Z 00000KT 9999 FEW030 BKN110 28/23 A2982=
201105112300 METAR MRLM 112300Z 21004KT CAVOK 27/23 A2982 RMK BKN110 HZ ARND LGT=
201105120000 METAR MRLM 120000Z 19003KT 9999 SCT015 BKN100 26/23 A2983 RMK HZ LGT ARND=
201105120100 METAR MRLM NIL=
201105120200 METAR MRLM NIL=
201105120300 METAR MRLM NIL=
201105120400 METAR MRLM NIL=
201105120500 METAR MRLM NIL=
201105120600 METAR MRLM NIL=
201105120700 METAR MRLM NIL=
201105120800 METAR MRLM NIL=
201105120900 METAR MRLM NIL=
201105121000 METAR MRLM NIL=
201105121100 METAR MRLM NIL=
201105121200 METAR MRLM 121200Z 00000KT 9999 SCT010 BKN090 24/22 A2988 RMK RN DST QUAD N HZ ARND=
201105121300 METAR MRLM 121300Z 00000KT CAVOK 25/23 A2989 RMK BKN100 HZ LGT ARND=
201105121400 METAR MRLM 121400Z 00000KT CAVOK 27/23 A2990 RMK BKN110 HZ ARND=
201105121500 METAR MRLM 121500Z 03004KT 9999 SCT030 SCT120 29/24 A2991 RMK FEW250 HZ ARND=
201105121600 METAR MRLM 121600Z 01011KT 9999 SCT030 SCT250 28/24 A2991 RMK FEW130 HZ ARND=
201105121700 METAR MRLM 121700Z 03005KT 9999 FEW025 BKN130 28/24 A2991 RMK FEW250 RA DST NE E HZ ARND=
201105121800 METAR MRLM 121800Z 05006KT 9999 SCT020 BKN120 28/24 A2990 RMK RA DST S NE E HZ ARND=
201105121900 METAR MRLM 121900Z 08008KT 9999 SCT020 SCT120 28/24 A2988 RMK RA DST S SW NE E HZ ARND=
201105122000 METAR MRLM 122000Z 13004KT 9999 BKN015 27/24 A2985 RMK FEW110 RA DST S SW NE HZ ARND=
201105122100 METAR MRLM 122100Z 18003KT 9999 SCT015 BKN110 28/24 A2984 RMK HZ ARND=
201105122200 METAR MRLM 122200Z 00000KT CAVOK 28/24 A2984 RMK BKN110 SCT250 HZ ARND=
201105122300 METAR MRLM 122300Z 00000KT CAVOK 28/24 A2985 RMK BKN110 SCT250 HZ ARND=
201105130000 METAR MRLM 130000Z 00000KT CAVOK 27/24 A2986 RMK SCT110 SCT250 HZ ARND=
201105130100 METAR MRLM NIL=
201105130200 METAR MRLM NIL=
201105130300 METAR MRLM NIL=
201105130400 METAR MRLM NIL=
201105130500 METAR MRLM NIL=
201105130600 METAR MRLM NIL=
201105130700 METAR MRLM NIL=
201105130800 METAR MRLM NIL=
201105130900 METAR MRLM NIL=
201105131000 METAR MRLM NIL=
201105131100 METAR MRLM NIL=
201105131200 METAR MRLM 131200Z 24004KT 9999 SCT010 SCT100 24/22 A2987 RMK HZ ARND=
201105131300 METAR MRLM 131300Z 25003KT 9999 BKN015 SCT100 25/23 A2989 RMK LGHT HZ ARND=
201105131400 METAR MRLM 131400Z 23003KT CAVOK 26/24 A2990 RMK BKN120 FEW250 LGHT HZ ARND=
201105131500 METAR MRLM 131500Z 02005KT 9999 SCT030 BKN130 30/24 A2990 RMK LGHT HZ ARND=
201105131600 METAR MRLM 131600Z 02009KT 9999 SCT020 SCT120 29/24 A2989 RMK TCU DST S HZ ARND=
201105131700 METAR MRLM 131700Z 03005KT 9999 FEW020 BKN120 28/24 A2986 RMK HZ ARND TCU DST S=
201105131800 METAR MRLM 131800Z 04007KT 9999 FEW025 SCT130 29/25 A2984 RMK SCT260 HZ ARND=
201105131900 METAR MRLM 131900Z 03007KT 9999 FEW025 BKN130 29/24 A2981 RMK FEW260 HZ ARND=
201105132000 METAR MRLM 132000Z 05005KT 9999 FEW030 SCT130 29/22 A2979 RMK SCT250 HZ ARND=
201105132100 METAR MRLM 132100Z 03007KT 9999 SCT025 BKN120 29/23 A2979 RMK HZ ARND=
201105132200 METAR MRLM 132200Z 03007KT 9999 SCT025 BKN110 29/24 A2979 RMK HZ ARND=
201105132300 METAR MRLM 132300Z 05004KT 9999 BKN020 SCT110 28/24 A2981 RMK HZ ARND=
201105140000 METAR MRLM 140000Z 04004KT 9999 BKN015 27/24 A2983 RMK FEW100 CB RA DST S SW HZ ARND=
201105140100 METAR MRLM NIL=
201105140200 METAR MRLM NIL=
201105140300 METAR MRLM NIL=
201105140400 METAR MRLM NIL=
201105140500 METAR MRLM NIL=
201105140600 METAR MRLM NIL=
201105140700 METAR MRLM NIL=
201105140800 METAR MRLM NIL=
201105140900 METAR MRLM NIL=
201105141000 METAR MRLM NIL=
201105141100 METAR MRLM NIL=
201105141200 METAR MRLM 141200Z 21004KT 9999 FEW015 SCT110 23/22 A2986 RMK FEW250 DZ DST N NE HZ ARND=
201105141300 METAR MRLM 141300Z 22003KT 9999 FEW020 SCT120 26/23 A2987 RMK FEW250 HZ ARND=
201105141400 METAR MRLM 141400Z 00000KT 9999 SCT030 SCT250 30/24 A2989 RMK FEW130 TCU DST NE HZ ARND=
201105141500 METAR MRLM NIL=
201105141600 METAR MRLM 141600Z 08006KT 9999 SCT025 SCT250 29/24 A2987 RMK HZ ARND=
201105141700 METAR MRLM 141700Z 06006KT 9999 FEW025 BKN250 29/24 A2986 RMK HZ ARND=
201105141800 METAR MRLM 141800Z 03007KT 9999 FEW030 BKN260 30/24 A2985 RMK HZ LGT ARND=
201105141900 METAR MRLM 141900Z 05007KT 9999 SCT030 SCT260 30/24 A2982 RMK HZ LGT ARND=
201105142000 METAR MRLM 142000Z 04006KT 9999 SCT030 SCT260 29/24 A2979 RMK TCU DST SW HZ LEVE ARND=
201105142100 METAR MRLM 142100Z 04007KT 9999 BKN030 SCT260 30/24 A2978 RMK TCU DST S SW HZ LEVE ARND=
201105142200 METAR MRLM 142200Z 05007KT 9999 SCT030 29/23 A2978 RMK FEW250=
201105142300 METAR MRLM 142300Z 05007KT 9999 SCT025 29/24 A2980 RMK FEW250 HZ ARND=
201105150000 METAR MRLM 150000Z 06007KT 9999 BKN020 28/24 A2982 RMK FEW250 CB RA DST S SW HZ ARND=
201105150100 METAR MRLM NIL=
201105150200 METAR MRLM NIL=
201105150300 METAR MRLM NIL=
201105150400 METAR MRLM NIL=
201105150500 METAR MRLM NIL=
201105150600 METAR MRLM NIL=
201105150700 METAR MRLM NIL=
201105150800 METAR MRLM NIL=
201105150900 METAR MRLM NIL=
201105151000 METAR MRLM NIL=
201105151100 METAR MRLM NIL=
201105151200 METAR MRLM 151200Z 21004KT CAVOK 24/22 A2985 RMK BKN250 HZ ARND=
201105151300 METAR MRLM 151300Z 24003KT CAVOK 26/23 A2988 RMK BKN250 HZ ARND=
201105151400 METAR MRLM 151400Z 00000KT CAVOK 28/24 A2988 RMK BKN250 HZ ARND=
201105151500 METAR MRLM 151500Z 10003KT CAVOK 29/23 A2989 RMK BKN250 HZ ARND=
201105151600 METAR MRLM 151600Z 08003KT 9999 FEW030 BKN250 29/23 A2988 RMK HZ LEVE ARND=
201105151700 METAR MRLM 151700Z 04005KT 9999 FEW030 BKN250 30/23 A2988 RMK HZ LEVE ARND=
201105151800 METAR MRLM 151800Z 06005KT 9999 FEW030 OVC240 29/23 A2987 RMK HZ LEVE ARND=
201105151900 METAR MRLM 151900Z 06006KT 9999 SCT035 BKN240 30/24 A2985 RMK HZ LEVE ARND=
201105152000 METAR MRLM 152000Z 03006KT 9999 SCT030 BKN240 30/24 A2983 RMK HZ LEVE ARND=
201105152100 METAR MRLM 152100Z 06006KT 9999 SCT030 SCT240 30/24 A2980 RMK HZ ARND=
201105152200 METAR MRLM 152200Z 04006KT 9999 BKN025 SCT240 29/24 A2980 RMK HZ ARND=
201105152300 METAR MRLM 152300Z 03007KT 9999 BKN025 29/24 A2982 RMK FEW130 HZ ARND=
201105160000 METAR MRLM 160000Z 05007KT 9999 BKN020 28/24 A2983 RMK HZ ARND FEW130=
201105160100 METAR MRLM NIL=
201105160200 METAR MRLM NIL=
201105160300 METAR MRLM NIL=
201105160400 METAR MRLM NIL=
201105160500 METAR MRLM NIL=
201105160600 METAR MRLM NIL=
201105160700 METAR MRLM NIL=
201105160800 METAR MRLM NIL=
201105160900 METAR MRLM NIL=
201105161000 METAR MRLM NIL=
201105161100 METAR MRLM NIL=
201105161200 METAR MRLM 161200Z 23003KT CAVOK 25/23 A2987 RMK FEW130 SCT260 HZ ARND=
201105161300 METAR MRLM 161300Z 21004KT CAVOK 27/24 A2989 RMK SCT260 HZ ARND LGT=
201105161400 METAR MRLM 161400Z 00000KT 9999 FEW025 SCT260 29/24 A2991 RMK HZ ARND LGT=
201105161500 METAR MRLM 161500Z 07003KT 9999 FEW025 BKN260 29/24 A2992 RMK HZ ARND=
201105161600 METAR MRLM 161600Z 07005KT CAVOK 29/24 A2991 RMK BKN250 HZ ARND=
201105161700 METAR MRLM 161700Z 08006KT CAVOK 30/24 A2990 RMK BKN250 HAZ ARND=
201105161800 METAR MRLM 161800Z 07008KT CAVOK 30/24 A2989 RMK BKN260 HZ ARND=
201105161900 METAR MRLM 161900Z 07006KT CAVOK 30/24 A2986 RMK BKN260 HZ ARND=
201105162000 METAR MRLM 162000Z 09006KT CAVOK 30/24 A2985 RMK HZ ARND BKN250=
201105162100 METAR MRLM 162100Z 08006KT CAVOK 30/23 A2983 RMK BKN250 HZ ARND=
201105162200 METAR MRLM 162200Z 10008KT CAVOK 29/22 A2980 RMK FEW120 BKN250 HZ ARND=
201105162300 METAR MRLM 162300Z 10005KT CAVOK 29/23 A2982 RMK SCT120 BKN250 HZ ARND=
201105170000 METAR MRLM 170000Z 11005KT 999 FEW025 SCT120 28/23 A2985 RMK SCT250 HZY ARND=
201105170100 METAR MRLM NIL=
201105170200 METAR MRLM NIL=
201105170300 METAR MRLM NIL=
201105170400 METAR MRLM NIL=
201105170500 METAR MRLM NIL=
201105170600 METAR MRLM NIL=
201105170700 METAR MRLM NIL=
201105170800 METAR MRLM NIL=
201105170900 METAR MRLM NIL=
201105171000 METAR MRLM NIL=
201105171100 METAR MRLM NIL=
201105171200 METAR MRLM 171200Z 23004KT CAVOK 21/19 A2987 RMK FEW110 BKN250 HZ ARND=
201105171300 METAR MRLM 171300Z 23005KT CAVOK 22/19 A2989 RMK FEW120 BKN250 HZ ARND=
201105171400 METAR MRLM 171400Z 24003KT CAVOK 25/21 A2990 RMK BKN250 HZ ARND=
201105171500 METAR MRLM 171500Z 00000KT CAVOK 28/20 A2991 RMK BKN250 HZ ARND=
201105171600 METAR MRLM NIL=
201105171700 METAR MRLM 171700Z 09004KT 9999 FEW030 BKN250 29/23 A2989 RMK HZ ARND=
201105171800 METAR MRLM 171800Z 09006KT CAVOK 30/23 A2986 RMK OVC250 HZ ARND=
201105171900 METAR MRLM 171900Z 09007KT CAVOK 30/23 A2985 RMK BKN260 HZ ARND=
201105172000 METAR MRLM 172000Z 08006KT CAVOK 29/23 A2982 RMK BKN260 HZ LGT ARND=
201105172100 METAR MRLM 172100Z 08007KT 9999 FEW035 BKN260 29/23 A2980 RMK LGHT HZ ARND=
201105172200 METAR MRLM 172200Z 08005KT 9999 FEW030 BKN250 29/23 A2981 RMK LGHT HZ ARND=
201105172300 METAR MRLM 172300Z 09005KT 9999 SCT030 SCT250 29/23 A2981 RMK HZ ARND=
201105180000 METAR MRLM 180000Z 11004KT 9999 BKN025 28/23 A2982 RMK FEW120 FEW250 HZ ARND=
201105180100 METAR MRLM NIL=
201105180200 METAR MRLM NIL=
201105180300 METAR MRLM NIL=
201105180400 METAR MRLM NIL=
201105180500 METAR MRLM NIL=
201105180600 METAR MRLM NIL=
201105180700 METAR MRLM NIL=
201105180800 METAR MRLM NIL=
201105180900 METAR MRLM NIL=
201105181000 METAR MRLM NIL=
201105181100 METAR MRLM NIL=
201105181200 METAR MRLM NIL=
201105181224 METAR MRLM 181224Z 22004KT CAVOK 22/21 A2998 RMK OVC300 LGHT HZ ARND=
201105181300 METAR MRLM 181300Z 22005KT CAVOK 23/21 A2990 RMK OVC300 HZ ARND=
201105181400 METAR MRLM 181400Z 21003KT CAVOK 27/22 A2992 RMK OVC300 HZ ARND=
201105181500 METAR MRLM 181500Z 11007KT CAVOK 29/23 A2992 RMK OVC300 LGHT HZ ARND=
201105181600 METAR MRLM 181600Z 12009KT 9999 FEW035 BKN300 30/23 A2992 RMK HZ ARND=
201105181700 METAR MRLM 181700Z 10010KT 9999 FEW035 BKN300 30/23 A2991 RMK HZ ARND=
201105181800 METAR MRLM 181800Z 10011KT 9999 FEW030 BKN300 30/24 A2990 RMK HZ ARND=
201105181900 METAR MRLM 181900Z 10011KT 9999 FEW030 BKN300 30/24 A2987 RMK HZ ARND=
201105182000 METAR MRLM 182000Z 10010KT 9999 FEW030 BKN300 30/24 A2985 RMK HZ ARND=
201105182100 METAR MRLM 182100Z 12010KT 9999 FEW030 BKN300 30/24 A2982 RMK HZ ARND=
201105182200 METAR MRLM 182200Z 11008KT 9999 FEW035 BKN300 30/23 A2982 RMK HZ ARND CB DST SW=
201105182300 METAR MRLM 182300Z 12008KT 9999 FEW035 BKN300 29/22 A2982 RMK CB DST S SW HZ ARND=
201105190000 METAR MRLM 190000Z 12007KT CAVOK 27/22 A2984 RMK OVC300 CB DST S SW HZ ARND=
201105190100 METAR MRLM NIL=
201105190200 METAR MRLM NIL=
201105190300 METAR MRLM NIL=
201105190400 METAR MRLM NIL=
201105190500 METAR MRLM NIL=
201105190600 METAR MRLM NIL=
201105190700 METAR MRLM NIL=
201105190800 METAR MRLM NIL=
201105190900 METAR MRLM NIL=
201105191000 METAR MRLM NIL=
201105191100 METAR MRLM NIL=
201105191200 METAR MRLM 191200Z 23004KT 9999 FEW025 BKN300 23/21 A2992 RMK HZ ARND=
201105191300 METAR MRLM 191300Z 21005KT 9999 FEW025 BKN300 24/22 A2993 RMK HZ ARND=
201105191400 METAR MRLM 191400Z 20002KT 9999 FEW025 BKN300 29/23 A2995 RMK HZ ARND=
201105191500 METAR MRLM 191500Z 10004KT 9999 FEW030 BKN300 29/23 A2996 RMK HZ ARND=
201105191600 METAR MRLM 191600Z 08004KT 9999 FEW035 SCT300 30/23 A2996 RMK HZ ARND=
201105191700 METAR MRLM 191700Z 08006KT 9999 FEW030 BKN300 30/23 A2995 RMK HZ LGT ARND=
201105191800 METAR MRLM 191800Z 07006KT 9999 FEW035 29/23 A2993 RMK FEW300 HZ ARND=
201105191900 METAR MRLM 191900Z 06008KT 9999 FEW035 SCT300 30/24 A2991 RMK HZ ARND=
201105192000 METAR MRLM 192000Z 07007KT 9999 FEW030 30/24 A2989 RMK FEW300 HZ ARND=
201105192100 METAR MRLM 192100Z 09006KT 9999 BKN030 30/24 A2987 RMK FEW300 HZ ARND=
201105192200 METAR MRLM 192200Z 09008KT 9999 BKN035 30/23 A2986 RMK HZ ARND FEW300=
201105192300 METAR MRLM 192300Z 10009KT 9999 BKN030 29/23 A2987 RMK FEW300 HZ ARND=
201105200000 METAR MRLM 200000Z 09008KT 9999 FEW028 BKN300 29/23 A2989 RMK HZ ARND=
201105200100 METAR MRLM NIL=
201105200200 METAR MRLM NIL=
201105200300 METAR MRLM NIL=
201105200400 METAR MRLM NIL=
201105200500 METAR MRLM NIL=
201105200600 METAR MRLM NIL=
201105200700 METAR MRLM NIL=
201105200800 METAR MRLM NIL=
201105200900 METAR MRLM NIL=
201105201000 METAR MRLM NIL=
201105201100 METAR MRLM NIL=
201105201200 METAR MRLM 201200Z 22004KT CAVOK 23/21 A2989 RMK BKN260 HZ ARND=
201105201300 METAR MRLM 201300Z 00000KT CAVOK 26/22 A2992 RMK BKN260 HZ ARND=
201105201400 METAR MRLM 201400Z 00000KT CAVOK 29/22 A2993 RMK FEW140 BKN270 HZ ARND=
201105201500 METAR MRLM 201500Z 09003KT 9999 FEW035 SCT270 30/23 A2993 RMK FEW140 TCU DST NE HZ ARND=
201105201600 METAR MRLM 201600Z 07006KT 9999 FEW030 SCT270 29/23 A2993 RMK HZ LGT ARND=
201105201700 METAR MRLM 201700Z 07006KT 9999 FEW030 30/24 A2992 RMK FEW270 HZ ARND=
201105201800 METAR MRLM 201800Z 08007KT 9999 FEW035 30/24 A2990 RMK FEW270 HZ LGT ARND=
201105201900 METAR MRLM 201900Z 09009KT 9999 FEW035 30/24 A2988 RMK HZ ARND=
201105202000 METAR MRLM 202000Z 08009KT 9999 SCT030 30/24 A2986 RMK HZ ARND=
201105202100 METAR MRLM 202100Z 08009KT 9999 SCT030 30/23 A2984 RMK HZ ARND=
201105202200 METAR MRLM 202200Z 08008KT 9999 BKN030 29/23 A2983 RMK HZ ARND=
201105202300 METAR MRLM 202300Z 07009KT 9999 BKN025 29/23 A2983 RMK HZ ARND=
201105210000 METAR MRLM 210000Z 07008KT 9999 BKN020 28/23 A2984 RMK FEW100 HZ ARND=
201105210100 METAR MRLM NIL=
201105210200 METAR MRLM NIL=
201105210300 METAR MRLM NIL=
201105210400 METAR MRLM NIL=
201105210500 METAR MRLM NIL=
201105210600 METAR MRLM NIL=
201105210700 METAR MRLM NIL=
201105210800 METAR MRLM NIL=
201105210900 METAR MRLM NIL=
201105211000 METAR MRLM NIL=
201105211100 METAR MRLM NIL=
201105211200 METAR MRLM 211200Z 22004KT 9999 SCT015 BKN250 23/22 A2989 RMK HZ ARND=
201105211300 METAR MRLM 211300Z 22004KT 9999 SCT015 SCT250 25723 A2990 RMK HZY ARND=
201105211400 METAR MRLM 211400Z 12005KT 9999 FEW025 SCT260 29/24 A2991 RMK HZ ARND=
201105211500 METAR MRLM 211500Z 10005KT 9999 FEW030 BKN260 30/24 A2992 RMK HZY ARND=
201105211600 METAR MRLM 211600Z 08006KT 9999 FEW030 BKN260 30/24 A2992 RMK HZY ARND=
201105211700 METAR MRLM 211700Z 06006KT 9999 FEW030 BKN260 30/24 A2991 RMK HZY ARND=
201105211800 METAR MRLM 211800Z 07007KT 9999 FEW035 BKN270 30/23 A2989 RMK HZY ARND=
201105211900 METAR MRLM 211900Z 06008KT 9999 FEW035 BKN270 30723 A2986 RMK HZY ARND=
201105212000 METAR MRLM NIL=
201105212100 METAR MRLM 212100Z 06009KT 9999 SCT030 SCT250 29/23 A2983 RMK HZ ARND=
201105212200 METAR MRLM 212200Z 07007KT 9999 SCT030 29/23 A2982 RMK FEW110 FEW250 HZ ARND=
201105212300 METAR MRLM 212300Z 08007KT 9999 BKN030 SCT250 29/23 A2983 RMK HZ ARND=
201105220000 METAR MRLM 220000Z 10006KT 9999 BKN025 SCT250 28/23 A2984 RMK HZ ARND=
201105220100 METAR MRLM NIL=
201105220200 METAR MRLM NIL=
201105220300 METAR MRLM NIL=
201105220400 METAR MRLM NIL=
201105220500 METAR MRLM NIL=
201105220600 METAR MRLM NIL=
201105220700 METAR MRLM NIL=
201105220800 METAR MRLM NIL=
201105220900 METAR MRLM NIL=
201105221000 METAR MRLM NIL=
201105221100 METAR MRLM NIL=
201105221200 METAR MRLM NIL=
201105221300 METAR MRLM 221300Z 27002KT CAVOK 25/23 A2992 RMK BKN130 FEW280 HZ ARND=
201105221400 METAR MRLM 221400Z 20003KT 9999 FEW020 BKN090 28/24 A2993 RMK FEW280 HZ ARND=
201105221500 METAR MRLM 221500Z 09003KT 9999 SCT030 BKN300 29/23 A2992 RMK HZ ARND=
201105221600 METAR MRLM 221600Z 06005KT 9999 FEW030 BKN300 29/23 A2992 RMK FEW130 HZ ARND LGT=
201105221700 METAR MRLM NIL=
201105221800 METAR MRLM NIL=
201105221900 METAR MRLM NIL=
201105222000 METAR MRLM NIL=
201105222100 METAR MRLM NIL=
201105222200 METAR MRLM NIL=
201105222300 METAR MRLM NIL=
201105230000 METAR MRLM NIL=
201105230100 METAR MRLM NIL=
201105230200 METAR MRLM NIL=
201105230300 METAR MRLM NIL=
201105230400 METAR MRLM NIL=
201105230500 METAR MRLM NIL=
201105230600 METAR MRLM NIL=
201105230700 METAR MRLM NIL=
201105230800 METAR MRLM NIL=
201105230900 METAR MRLM NIL=
201105231000 METAR MRLM NIL=
201105231100 METAR MRLM NIL=
201105231200 METAR MRLM 231200Z 22005KT CAVOK 24/22 A2991 RMK SCT140 HZ ARND=
201105231300 METAR MRLM 231300Z 22004KT CAVOK 26/22 A2992 RMK SCT140 HZ ARND=
201105231400 METAR MRLM 231400Z 17003KT CAVOK 29/23 A2993 RMK BKN140 HZ ARND=
201105231500 METAR MRLM 231500Z 11005KT 9999 FEW028 BKN140 29/23 A2993 RMK HZ ARND=
201105231600 METAR MRLM 231600Z 07005KT 9999 FEW030 SCT140 29/23 A2992 RMK HZ ARND=
201105231700 METAR MRLM 231700Z 06005KT 9999 FEW030 SCT140 29/23 A2991 RMK HZ ARND=
201105231800 METAR MRLM 231800Z 06007KT 9999 FEW030 30/23 A2990 RMK FEW130 LGHT HZ ARND=
201105231900 METAR MRLM 231900Z 06006KT 9999 FEW030 30/23 A2988 RMK FEW280 CB DST SE S HZ ARND=
201105232000 METAR MRLM 232000Z 02007KT 9999 FEW035 SCT280 30/23 A2985 RMK CB DST SE S HZ ARND=
201105232100 METAR MRLM 232100Z 03007KT 9999 FEW030 BKN280 30/23 A2984 RMK HZ ARND=
201105232200 METAR MRLM 232200Z 01006KT 9999 SCT030 SCT280 29/23 A2984 RMK CB DST S SW W FEW140 HZ ARND=
201105232300 METAR MRLM 232300Z 36004KT 9999 FEW028 BKN140 28/23 A2985 RMK CB DST S SW W FEW280 LGHT HZ ARND=
201105240000 METAR MRLM 240000Z 02005KT 9999 SCT028 SCT280 28/22 A2988 RMK FEW140 CB DST S E SW W HZ ARND=
201105240100 METAR MRLM NIL=
201105240200 METAR MRLM NIL=
201105240300 METAR MRLM NIL=
201105240400 METAR MRLM NIL=
201105240500 METAR MRLM NIL=
201105240600 METAR MRLM NIL=
201105240700 METAR MRLM NIL=
201105240800 METAR MRLM NIL=
201105240900 METAR MRLM NIL=
201105241000 METAR MRLM NIL=
201105241100 METAR MRLM NIL=
201105241200 METAR MRLM 241200Z 00000KT CAVOK 25/23 A2987 RMK FEW120 SCT250 HZ ARND LGT=
201105241300 METAR MRLM 241300Z 21003KT CAVOK 27/24 A2990 FEW250 HZ LGT ARND=
201105241400 METAR MRLM 241400Z 00000KT 9999 FEW030 30/23 A2990 RMK FEW250 HZ LGT ARND=
201105241500 METAR MRLM 241500Z 04004KT 9999 SCT030 29/23 A2991 RMK FEW260 HZ LGT ARND=
201105241600 METAR MRLM 241600Z 06005KY 9999 FEW030 29/24 A2991 FEW260 HZ LGT ARND=
201105241700 METAR MRLM 241700Z 05006KT 9999 FEW030 SCT270 30/24 A2990 RMK FEW130 HZ LGT ARND=
201105241800 METAR MRLM 241800Z 07006KT 9999 FEW030 30/24 A2989 RMK FEW130 FEW260 HA LGT ARND=
201105241900 METAR MRLM 241900Z 04008KT 9999 SCT030 30/24 A2987 FEW250 TCU DST SW HZ ARND=
201105242000 METAR MRLM 242000Z 03006KT 9999 SCT025 29/24 A2985 RMK FEW130 FEW250 CB DST SW HZ ARND=
201105242100 METAR MRLM 242100Z 02005KT 9999 BKN025 29/23 A2983 RMK FEW230 CB DST SW HZ ARND=
201105242200 METAR MRLM 242200Z 06003KT 9999 BKN025 29/23 A2984 RMK FEW250 HZ ARND=
201105242300 METAR MRLM 242300Z 21006KT 9999 SCT020 SCT250 26/22 A2985 RMK FEW120 RA DST S HZ ARND=
201105250000 METAR MRLM 250000Z 23003KT 9999 SCT015 SCT110 26/23 A2985 RMK FEW250 HZY=
201105250100 METAR MRLM NIL=
201105250200 METAR MRLM NIL=
201105250300 METAR MRLM NIL=
201105250400 METAR MRLM NIL=
201105250500 METAR MRLM NIL=
201105250600 METAR MRLM NIL=
201105250700 METAR MRLM NIL=
201105250800 METAR MRLM NIL=
201105250900 METAR MRLM NIL=
201105251000 METAR MRLM NIL=
201105251100 METAR MRLM NIL=
201105251200 METAR MRLM 251200Z 24003KT 9999 NSC 23/21 A2988=
201105251300 METAR MRLM 251300Z 24005KT CAVOK 25/22 A2991 RMK FEW140 FEW260 HZ ARND=
201105251400 METAR MRLM 251400Z 00000KT CAVOK 28/23 A2991 RMK BKN140 FEW260 CB DST N HZY=
201105251500 METAR MRLM 251500Z 05003KT 9999 SCT030 SCT260 29/23 A2991 RMK HZ ARND=
201105251600 METAR MRLM 251600Z 01006KT 9999 FEW030 SCT260 30/24 A2990 RMK HZ ARND=
201105251700 METAR MRLM 251700Z 04007KT CAVOK 30/24 A2990 RMK SCT260 HZ ARND=
201105251800 METAR MRLM 251800Z 06006KT CAVOK 30/24 A2988 RMK BKN260 HZ ARND=
201105251900 METAR MRLM 251900Z 08006KT CAVOK 30/24 A2986 RMK BKN250 HZ ARND=
201105252000 METAR MRLM 252000Z 27006KT CAVOK 31/23 A2984 RMK BKN250 HZ ARND=
201105252100 METAR MRLM 252100Z 03006KT CAVOK 30/23 A2983 RMK BKN250 CB DST SW HZ ARND=
201105252200 METAR MRLM 252200Z 00000KT 9999 FEW030 BKN250 29/23 A2984 RMK HZ ARND=
201105252300 METAR MRLM 252300Z 07003KT 9999 BKN025 SCT250 29/23 A2985 RMK HZ ARND=
201105260000 METAR MRLM 260000Z 00000KT 9999 SCT020 SCT250 28/24 A2986 RMK FEW120 HZ ARND=
201105260100 METAR MRLM NIL=
201105260200 METAR MRLM NIL=
201105260300 METAR MRLM NIL=
201105260400 METAR MRLM NIL=
201105260500 METAR MRLM NIL=
201105260600 METAR MRLM NIL=
201105260700 METAR MRLM NIL=
201105260800 METAR MRLM NIL=
201105260900 METAR MRLM NIL=
201105261000 METAR MRLM NIL=
201105261100 METAR MRLM NIL=
201105261200 METAR MRLM 261200Z 22004KT CAVOK 25/23 A2986 RMK FEW280 HZ ARND=
201105261300 METAR MRLM 261300Z 23005KT CAVOK 26/23 A2991 RMK FEW280 TCU NE HZ ARND=
201105261400 METAR MRLM 261400Z 09003KT CAVOK 31/23 A2991 RMK FEW180 FEW280 HZ ARND=
201105261500 METAR MRLM 261500Z 06004KT 9999 FEW040 30/22 A2992 RMK FEW160 FEW280 HZ ARND=
201105261600 METAR MRLM NIL=
201105261700 METAR MRLM 261700Z 04006KT 9999 FEW035 SCT280 30/23 A2991 RMK CB DST SE HZ ARND=
201105261800 METAR MRLM 261800Z 04007KT 9999 FEW030 SCT280 30/24 A2989 RMK CB DST E SE S TCU SW HZ ARND=
201105261900 METAR MRLM 261900Z 05007KT 9999 FEW030 SCT280 30/24 A2986 RMK FEW150 CBN DST SE S SW=
201105262000 METAR MRLM 262000Z 04006KT 9999 FEW030 SCT280 30/24 A2984 RMK FEW140 CB DST SE S SW HZY ARND=
201105262100 METAR MRLM 262100Z 03007KT 9999 FEW030 SCT280 30/24 A2982 RMK FEW140 CB RA SDT NW W=
201105262200 METAR MRLM 262200Z 04004KT 9999 FEW030 SCT140 29/23 A2983 RMK SCT280 CB RA DST SW W HZ ARND=
201105262300 METAR MRLM 262300Z 04003KT 9999 FEW035 SCT140 29/22 A2985 RMK SCT280 CB DST RA SW W HZ ARND=
201105270000 METAR MRLM 270000Z 29002KT 9999 FEW025 BKN090 28/23 A2986 RMK FEW270 RA DSY SW W HZ ARND=
201105270100 METAR MRLM NIL=
201105270200 METAR MRLM NIL=
201105270300 METAR MRLM NIL=
201105270400 METAR MRLM NIL=
201105270500 METAR MRLM NIL=
201105270600 METAR MRLM NIL=
201105270700 METAR MRLM NIL=
201105270800 METAR MRLM NIL=
201105270900 METAR MRLM NIL=
201105271000 METAR MRLM NIL=
201105271100 METAR MRLM NIL=
201105271200 METAR MRLM 271200Z 23004KT CAVOK 24/22 A2988 RMK BKN100 FEW130 HZ ARND=
201105271300 METAR MRLM 271300Z 22004KT CAVOK 25/22 A2989 RMK SCT100 SCT130 HZ ARND=
201105271400 METAR MRLM 271400Z 20003KT CAVOK 30/23 A2990 RMK SCT140 HZ ARND=
201105271500 METAR MRLM 271500Z 07004KT 9999 FEW040 30/23 A2990 RMK FEW150 HZ ARND=
201105271600 METAR MRLM 271600Z 04007KT 9999 FEW035 30/24 A2989=
201105271700 METAR MRLM 271700Z 03007KT 9999 FEW030 30/24 Q2987 RMK FEW180 CB DST N NE HZ ARND=
201105271800 METAR MRLM 271800Z 02008KT 9999 FEW030 30/24 A2986 RMK FEW110 FEW280 CB DST N NE HZ ARND=
201105271900 METAR MRLM NIL=
201105272000 METAR MRLM 272000Z 04006KT 9999 FEW035 30/23 A2980 RMK FEW280 CB DST N NE SE S SW HZ ARND=
201105272100 METAR MRLM 272100Z 04006KT 9999 FEW040 SCT080 31/23 A2979 RMK CB DST QUAD S N HZ ARND=
201105272200 METAR MRLM 272200Z 04005KT 9999 FEW040 BKN280 30/22 A2979 RMK CB DST QUAD N S HZ ARND=
201105272300 METAR MRLM 272300Z 07003KT CAVOK 30/22 A2981 RMK SCT140 BKN270 CB RN DST QUAD S CB DST QUAD N HZ ARND=
201105280000 METAR MRLM 280000Z 06004KT CAVOK 29/23 A2983 RMK FEW140 SCT160 SCT270 CB RN DST QUAD S CB DST E=
201105280100 METAR MRLM NIL=
201105280200 METAR MRLM NIL=
201105280300 METAR MRLM NIL=
201105280400 METAR MRLM NIL=
201105280500 METAR MRLM NIL=
201105280600 METAR MRLM NIL=
201105280700 METAR MRLM NIL=
201105280800 METAR MRLM NIL=
201105280900 METAR MRLM NIL=
201105281000 METAR MRLM NIL=
201105281100 METAR MRLM NIL=
201105281200 METAR MRLM 281200Z 00000KT 9999 BKN010 SCT110 24/23 A2983 RMK RA N HZ ARND=
201105281300 METAR MRLM 281300Z 26003KT 9999 DZ VCSH BKN010 SCT110 24/23 A2985 RMK VIS 8KM QUAD N HZ ARND=
201105281400 METAR MRLM 281400Z 23003KT 9999 SCT015 SCT110 25/23 A2986 REDZ RMK RA DST QUAD N HZ ARND=
201105281500 METAR MRLM 281500Z 00000KT 9999 SCT015 SCT110 26/24 A2989 RMK FEW250 RA DST N HZ ARND=
201105281600 METAR MRLM 281600Z 28003KT 9999 FEW020 BKN120 28/24 A2988 RMK FEW250 HZ ARND=
201105281700 METAR MRLM 281700Z 34007KT 9999 FEW030 BKN130 30/23 A2986 RMK HZ ARND=
201105281800 METAR MRLM 281800Z 32007KT 9999 FEW040 SCT260 31/23 A2983 RMK FEW140 CB DST SW LGHT HZ ARND=
201105281900 METAR MRLM 281900Z 02010KT 9999 FEW030 SCT140 30/24 A2980 RMK SCT260 CB DST S LGHT HZ ARND=
201105282000 METAR MRLM 282000Z 02007KT 9999 FEW030 BKN130 29/23 A2978 RMK LGHT HZ ARND=
201105282100 METAR MRLM 282100Z 03005KT 9999 FEW030 BKN130 29/24 A2987 RMK HZ LGT ARND=
201105282200 METAR MRLM 282200Z 06005KT 9999 FEW030 BKN120 29/23 A2976 RMK TCU DST S W HZ LGT ARND=
201105282300 METAR MRLM 282300Z 07006KT 9999 SCT025 BKN110 28/24 A2978 RMK TCU DST S HZ LGT ARND=
201105290000 METAR MRLM 290000Z 09006KT 9999 SCT020 BKN110 28/24 A2979 RMK RA DST S SE HZ ARND=
201105290100 METAR MRLM NIL=
201105290200 METAR MRLM NIL=
201105290300 METAR MRLM NIL=
201105290400 METAR MRLM NIL=
201105290500 METAR MRLM NIL=
201105290600 METAR MRLM NIL=
201105290700 METAR MRLM NIL=
201105290800 METAR MRLM NIL=
201105290900 METAR MRLM NIL=
201105291000 METAR MRLM NIL=
201105291100 METAR MRLM NIL=
201105291200 METAR MRLM 291200Z 13005KT 9999 FEW010 SCT110 24/22 A2979 RMK SCT250 HZ ARND=
201105291300 METAR MRLM 291300Z 24005KT 9999 SCT010 SCT110 25/23 A2981 RMK FEW250 HZ LGT ARND=
201105291400 METAR MRLM 291400Z 25004KT 9999 SCT020 SCT120 21/23 A2984 RMK HZ LGT ARND=
201105291500 METAR MRLM 291500Z 03003KT 9999 FEW035 SCT250 30/23 A2985 RMK FEW130 TCU DST N HZ LGT ARND=
201105291600 METAR MRLM 291600Z 08004KT 9999 FEW035 SCT260 31/23 A2985 RMK FEW140 TCU DST N HZ LGT ARND=
201105291700 METAR MRLM 291700Z 05006KT 9999 FEW035 30/24 A2983 RMK FEW140 FEW250 CBN DST NW N HZ LGT ARND=
201105291800 METAR MRLM 291800Z 06006KT 9999 FEW030 SCT260 30/24 A2982 RMK FEW140 CB DST S SW HZ LGT ARND=
201105291900 METAR MRLM 291900Z 06007KT 9999 FEW030 SCT250 30/23 A2979 RMK FEW130 CB DST S SW HZ LGT ARND=
201105292000 METAR MRLM 292000Z 07007KT 9999 FEW035 BKN250 31/23 A2978 RMK FEW130 CB RA DST SW=
201105292100 METAR MRLM 292100Z 08004KT 9999 FEW030 BKN120 30/22 A2976 RMK FEW025 HZ ARND=
201105292200 METAR MRLM 292200Z 09004KT 9999 SCT025 SCT120 29/23 A2975 RMK FEW250 HZ LGT ARND=
201105292300 METAR MRLM 292300Z 09003KT 9999 SCT020 SCT110 29/23 A2976 RMK HZ LGT ARND=
201105300000 METAR MRLM 300000Z 00000KT 9999 SCT020 SCT110 28/23 A2978 RMK RA DST SW HZ ARND=
201105300100 METAR MRLM NIL=
201105300200 METAR MRLM NIL=
201105300300 METAR MRLM NIL=
201105300400 METAR MRLM NIL=
201105300500 METAR MRLM NIL=
201105300600 METAR MRLM NIL=
201105300700 METAR MRLM NIL=
201105300800 METAR MRLM NIL=
201105300900 METAR MRLM NIL=
201105301000 METAR MRLM NIL=
201105301100 METAR MRLM NIL=
201105301200 METAR MRLM NIL=
201105301220 METAR MRLM 301220Z 23003KT 7000 +DZ VCSH FEW020 BKN080 23/22 A2984 RMK VIS E UNL=
201105301300 METAR MRLM 301300Z 25004KT 9999 +DZ VCSH SCT025 SCT090 24/23 A2984 RMK VIS 8KM NW/N=
201105301400 METAR MRLM 301400Z 21003KT 9999 FEW035 BKN110 26/24 A2985 REDZ RMK CB RN DST QUAD N LGT HZ ARND=
201105301500 METAR MRLM 301500Z 09004KT 9999 SCT025 SCT110 28/23 A2985 RMK SCT280 CB/RN DST SE=
201105301600 METAR MRLM NIL=
201105301700 METAR MRLM 301700Z 05005KT 9999 FEW030 SCT140 29/24 A2981 RMK FEW280 CB DST NE/S LGT HZ ARND=
201105301800 METAR MRLM 301800Z 05007KT 9999 FEW035 SCT090 30/23 A2980 RMK SCT270 CB DST SE/S LGT HZ ARND=
201105301900 METAR MRLM 301900Z 01009KT 9999 FEW030 BKN090 31/25 A2977 RMK FEW270 CB DST SE/E LGT HZ ARND=
201105302000 METAR MRLM 302000Z 01010KT 9999 FEW030 SCT140 30/24 A2976 RMK SCT270 CB DST QUAD S/W RA NDST SW=
201105302100 METAR MRLM 302100Z 34009KT 9999 SCT030 SCT140 29/23 A2974 RMK FEW270 CB DST S W RA SW W=
201105302200 METAR MRLM NIL=
201105302300 METAR MRLM 302300Z 32006KT 9999 FEW030 SCT140 29/23 A2976 RMK SCT160 FEW270 CB W RA W=
201105310000 METAR MRLM 310000Z 32005KT 9999 BKN020 28/24 A2979 RMK FEW140 FEW160 FEW270 CB S W RA SE=
201105310100 METAR MRLM NIL=
201105310200 METAR MRLM NIL=
201105310300 METAR MRLM NIL=
201105310400 METAR MRLM NIL=
201105310500 METAR MRLM NIL=
201105310600 METAR MRLM NIL=
201105310700 METAR MRLM NIL=
201105310800 METAR MRLM NIL=
201105310900 METAR MRLM NIL=
201105311000 METAR MRLM NIL=
201105311100 METAR MRLM NIL=
201105311200 METAR MRLM NIL=
201105311300 METAR MRLM 311300Z 28006KT 9999 SCT015 25/23 A2985 RMK FEW080 FEW150 CB RA DST NW N NE E DZ W=
201105311400 METAR MRLM 311400Z 29006KT 9999 SCT015 SCT080 26/24 A2986 RMK FEW160 CB RA NW N NE E=
201105311500 METAR MRLM 311500Z 30007KT 9999 SCT018 SCT080 27/24 A2987 RMK CB RA NW N NE E SE FEW160=
201105311600 METAR MRLM 311600Z 31007KT 9999 SCT020 SCT270 29/23 A2986 RMK FEW080 RN DST NE E=
201105311700 METAR MRLM 311700Z 21006KT 9999 SCT025 29/24 A2985 RMK FEW080 FEW270 CB RA NW N NE E=
201105311800 METAR MRLM 311800Z 36009KT 9999 FEW025 SCT080 30/25 A2984 RMK SCT270 RA NE E=
201105311900 METAR MRLM 311900Z 36009KT 9999 FEW025 SCT080 30/24 A2979 RMK SCT270 RN DST S SW HZY ARND=
201105312000 METAR MRLM 312000Z 35010KT 9999 SCT025 SCT100 30/24 A2978 RMK SCT270 CB RN DST S SW HZY ARND=
201105312100 METAR MRLM 312100Z 35007KT 9999 FEW025 SCT150 29/24 A2976 RMK FEW090 FEW260 CB RA DST ARND=
201105312200 METAR MRLM 312200Z 02007KT 9999 FEW025 BKN100 28/23 A2979 RMK CB DST E SE W FEW260=
201105312300 METAR MRLM 312300Z 04007KT 9999 BKN025 28/23 A2980 RMK FEW080 CB RA DST S W=
201106010000 METAR MRLM 010000Z 06008KT 9999 VCSH BKN020 28/24 A2982 RMK FEW100 CN RA DST ARND VIS 8000 SW=
201106010100 METAR MRLM NIL=
201106010200 METAR MRLM NIL=
201106010300 METAR MRLM NIL=
201106010400 METAR MRLM NIL=
201106010500 METAR MRLM NIL=
201106010600 METAR MRLM NIL=
201106010700 METAR MRLM NIL=
201106010800 METAR MRLM NIL=
201106010900 METAR MRLM NIL=
201106011000 METAR MRLM NIL=
201106011100 METAR MRLM NIL=
201106011200 METAR MRLM NIL=
201106011300 METAR MRLM 011300Z 28006KT 9999 OVC010 25/23 A2986 RMK RA DST E SW W HZ ARND=
201106011400 METAR MRLM 011400Z 27007KT 9999 DZ VCSH BKN010 25/24 A2988 RMK FEW100 VIS 8000 N HZ ARND=
201106011500 METAR MRLM 011500Z 28008KT 9999 SCT020 28/24 A2987 REDZ RMK FEW120 CB DST NE HZ ARND=
201106011600 METAR MRLM 011600Z 31010KT 9999 BKN030 SCT130 30/23 A2987 RMK CB DST NE HZ ARND=
201106011700 METAR MRLM NIL=
201106011800 METAR MRLM 011800Z 30006KT 9999 BKN030 29/23 A2985 RMK FEW120 RA DST SW HZ ARND=
201106011900 METAR MRLM 011900Z 29006KT 9999 DZ BKN020 27/24 A2984 RMK FEW110 HZ ARND=
201106012000 METAR MRLM 012000Z 30003KT 9999 BKN015 SCT110 27/25 A2982 REDZ RMK RA DST W=
201106012100 METAR MRLM 012100Z 34007KT 9999 BKN020 28/23 A2981 RMK FEW110 RA DST SW HZ ARND=
201106012200 METAR MRLM 012200Z 25003KT 9999 DZ VCSH BKN010 26/24 A2981 RMK FEW100 VIS 8KM QUAD N=
201106012300 METAR MRLM 012300Z 25005KT 9999 -DZ BKN010 25/24 A2981 RMK FEW090 RA DST SW W HZ ARND=
201106020000 METAR MRLM 020000Z 23005KT 5000 +RA OVC007 24/23 A2983=
201106020100 METAR MRLM NIL=
201106020200 METAR MRLM NIL=
201106020300 METAR MRLM NIL=
201106020400 METAR MRLM NIL=
201106020500 METAR MRLM NIL=
201106020600 METAR MRLM NIL=
201106020700 METAR MRLM NIL=
201106020800 METAR MRLM NIL=
201106020900 METAR MRLM NIL=
201106021000 METAR MRLM NIL=
201106021100 METAR MRLM NIL=
201106021200 METAR MRLM 021200Z 29004KT 9999 FEW015 26/22 A2983 RMK FEW120 FEW250 HZ ARND=
201106021300 METAR MRLM 021300Z 29007KT 9999 FEW020 SCT250 26/23 A2985 RMK FEW120=
201106021400 METAR MRLM 021400Z 30009KT 9999 FEW030 SCT130 28/23 A2987 RMK SCT260=
201106021500 METAR MRLM 021500Z 32010KT 9999 SCT030 29/23 A2988 RMK FEW140 FEW260 LGHT HZ ARND=
201106021600 METAR MRLM 021600Z 31009KT 9999 BKN015 30/23 A2987 RMK FEW260 LGHT HZ ARND=
201106021700 METAR MRLM 021700Z 33010KT 9999 BKN040 31/23 A2987 RMK FEW130 FEW260=
201106021800 METAR MRLM 021800Z 35011KT 9999 BKN030 SCT120 30/23 A2986 RMK LGHT HZ ARND=
201106021900 METAR MRLM 021900Z 34010KT 9999 -DZ BKN030 SCT120 29/23 A2984 RMK RA DST SW HZ ARND=
201106022000 METAR MRLM 022000Z 33010KT 9999 SCT035 SCT120 30/22 A2983 RMK RA DST SW LGHT HZ ARND=
201106022100 METAR MRLM 022100Z 34006KT 9999 SCT030 SCT110 29/23 A2982 RMK RA DST S SW HZ ARND=
201106022200 METAR MRLM 022200Z 36007KT 9999 -DZ BKN020 28/24 A2982 RMK RA DST W HZ ARND=
201106022300 METAR MRLM 022300Z 20006KT 9999 -DZ BKN010 26/25 A2983 RMK FEW100 CB RA DST SW N HZ ARND=
201106030000 METAR MRLM 030000Z 23003KT 9999 DZ BKN007 25/23 A2986 RMK FEW100 CB RA DST S SE HZ ARND=
201106030100 METAR MRLM NIL=
201106030200 METAR MRLM NIL=
201106030300 METAR MRLM NIL=
201106030400 METAR MRLM NIL=
201106030500 METAR MRLM NIL=
201106030600 METAR MRLM NIL=
201106030700 METAR MRLM NIL=
201106030800 METAR MRLM NIL=
201106030900 METAR MRLM NIL=
201106031000 METAR MRLM NIL=
201106031100 METAR MRLM NIL=
201106031200 METAR MRLM 031200Z 29007KT 9999 FEW015 SCT025 24/21 A2990 RMK SCT150 CB RA DST N NE=
201106031300 METAR MRLM 031300Z 29007KT 9999 FEW015 BKN120 24/22 A2990 RMK FEW025 RA DST NE=
201106031400 METAR MRLM 031400Z 27007KT 9999 FEW020 BKN110 26/22 A2991 RMK FEW025 DZ N NE=
201106031500 METAR MRLM 031500Z 30009KT 9999 FEW030 SCT090 28/23 2991 RMK FEW035 FEW260 RA DST NE=
201106031600 METAR MRLM 031600Z 30009KT 9999 SCT030 SCT140 29/23 A2990 RMK FEW280 HZ LGT ARND=
201106031700 METAR MRLM 031700Z 30007KT 9999 BKN035 29/22 A2989 RMK FEW120 FEW280 HZ LGT ARND=
201106031800 METAR MRLM 031800Z 34009KT 9999 SCT045 SCT280 30/22 A2986 RMK FEW140 HZ LGT ARND=
201106031900 METAR MRLM 031900Z 35011KT 9999 FEW045 BKN280 31/22 A2985 RMK FEW130 HZ ARND=
201106032000 METAR MRLM 032000Z 36011KT 9999 FEW040 SCT100 31/23 A2982 RMK SCT280 RA DST SW HZ LGT ARND=
201106032100 METAR MRLM 032100Z 36008KT 9999 FEW045 BKN080 30/22 A2981 RMK RN DST S SW HZ ARND=
201106032200 METAR MRLM 032200Z 34010KT 9999 SCT035 SCT090 29/22 A2982 RMK RN DST S SW HZ ARND=
201106032300 METAR MRLM 032300Z 36007KT 9999 SCT030 SCT080 29/23 A2983 RMK RN DST SE/S/SW/W=
201106040000 METAR MRLM 040000Z 36007KT 9999 BKN025 SCT090 28/23 A2985 RMK RN DST SE S SW W=
201106040100 METAR MRLM NIL=
201106040200 METAR MRLM NIL=
201106040300 METAR MRLM NIL=
201106040400 METAR MRLM NIL=
201106040500 METAR MRLM NIL=
201106040600 METAR MRLM NIL=
201106040700 METAR MRLM NIL=
201106040800 METAR MRLM NIL=
201106040900 METAR MRLM NIL=
201106041000 METAR MRLM NIL=
201106041100 METAR MRLM NIL=
201106041200 METAR MRLM 041200Z NIL=
201106041225 METAR MRLM 041225Z 27005KT 9999 FEW008 BKN110 24/23 A2989 RMK FEW280 CB RN DST NE E=
201106041300 METAR MRLM 041300Z 25004KT CAVOK 26/23 A2990 RMK BKN110 SCT280 CB/RA DST E HZ LGT ARND=
201106041400 METAR MRLM 041400Z 29003KT CAVOK 28/23 A2990 RMK SCT140 BKN280 CB DST E LGT HZ ARND=
201106041500 METAR MRLM 041500Z 32007KT CAVOK 29/22 A2989 RMK SCT280 CB DST N LGT HZ ARND=
201106041600 METAR MRLM 041600Z 36009KT 9999 FEW045 SCT140 31/22 A2989 RMK SCT280 LGT HZ ARND=
201106041700 METAR MRLM 041700Z 36011KT 9999 FEW038 SCT140 30/23 A2987 RMK SCT280 TCU DST S/SW LGT HZ ARND=
201106041800 METAR MRLM 041800Z 01011KT 9999 FEW035 BKN130 30/23 A2986 RMK CB DST SE S TCU DST SW LGT HZ ARND=
201106041900 METAR MRLM 041900Z 01011 KT 9999 FEW038 BKN140 30/23 A2984 RMK CB DST SE/S/SW FEW280 LGT HZ ARND=
201106042000 METAR MRLM 042000Z 36011KT 9999 FEW035 SCT140 30/23 A2982 RMK SCT280 CB DST SE S SW LGT HZ ARND=
201106042100 METAR MRLM 042100Z 36009KT 9999 FEW030 BKN090 28/23 A2983 RMK FEW130 FEW280 RA SW S HZ ARND=
201106042200 METAR MRLM 042200Z 01006KT 9999 FEW015 SCT030 29/23 A2984 RMK SCT090 RA SE S SW=
201106042300 METAR MRLM 042300Z 04003KT 9999 SCT025 BKN100 29/23 A2985 RMK CB RA SE S HZ ARND=
201106050000 METAR MRLM 050000Z 11003KT 9999 SCT020 BKN100 28/24 A2987 RMK CB RA DST SW S HZ ARND=
201106050100 METAR MRLM NIL=
201106050200 METAR MRLM NIL=
201106050300 METAR MRLM NIL=
201106050400 METAR MRLM NIL=
201106050500 METAR MRLM NIL=
201106050600 METAR MRLM NIL=
201106050700 METAR MRLM NIL=
201106050800 METAR MRLM NIL=
201106050900 METAR MRLM NIL=
201106051000 METAR MRLM NIL=
201106051100 METAR MRLM NIL=
201106051200 METAR MRLM 051200Z 24003KT CAVOK 24/22 A2986 RMK BKN110 HZ LGT ARND=
201106051300 METAR MRLM 051300Z 25003KT CAVOK 25/22 A2987 RMK BKN120 HZY ARND=
201106051400 METAR MRLM 051400Z 28004KT CAVOK 27/22 A2988 RMK BKN120 HZY ARND=
201106051500 METAR MRLM 051500Z 28003KT CAVOK 28/22 A2990 RMK BKN120 HZ ARND=
201106051600 METAR MRLM 051600Z 29003KT CAVOK 30/22 A2990 RMK BKN130 HZ ARND=
201106051700 METAR MRLM 051700Z 32004KT 9999 FEW040 BKN130 32/21 A2988 RMK HZ ARND=
201106051800 METAR MRLM 051800Z 02008KT 9999 FEW035 BKN130 31/24 A2986 HZ ARND=
201106051900 METAR MRLM 051900Z 01009KT 9999 FEW040 SCT140 31/23 A2984 RMK SCT250 HZ ARND=
201106052000 METAR MRLM 052000Z 02008KT 9999 FEW035 BKN250 30/23 A2982 RMK FEW140 CB DST S SW HZ ARND LGT=
201106052100 METAR MRLM 052100Z 04004KT 9999 FEW030 BKN250 30/24 A2981 RMK FEW130 CB DST S SW HZ ARND LGT=
201106052200 METAR MRLM 052200Z 11006KT 9999 FEW025 SCT120 29/24 A2982 RMK SCT250 CB RA DST SW HZ ARND LGT=
201106052300 METAR MRLM 052300Z 14006KT 9999 SCT025 SCT120 29/23 A2983 RMK FEW250 HZ ARND LGT=
201106060000 METAR MRLM 060000Z 16004KT 9999 FEW025 BKN110 28/22 A2984 RMK RA DST SE HZ ARND=
201106060100 METAR MRLM NIL=
201106060200 METAR MRLM NIL=
201106060300 METAR MRLM NIL=
201106060400 METAR MRLM NIL=
201106060500 METAR MRLM NIL=
201106060600 METAR MRLM NIL=
201106060700 METAR MRLM NIL=
201106060800 METAR MRLM NIL=
201106060900 METAR MRLM NIL=
201106061000 METAR MRLM NIL=
201106061100 METAR MRLM NIL=
201106061200 METAR MRLM NIL=
201106061300 METAR MRLM 061300Z 21004KT CAVOK 26/23 A2986 RMK BKN120 HZ ARND LGT=
201106061400 METAR MRLM 061400Z 04003KT CAVOK 29/22 A2987 RMK SCT130 SCT250 HZ ARNG LGT=
201106061500 METAR MRLM 061500Z 06003KT CAVOK 29/23 A2989 RMK BKN130 FEW250 HZ LGT ARND=
201106061600 METAR MRLM 061600Z 07004KT 9999 FEW035 SCT140 30/23 A2989 RMK SCT250 HZ ARND LGT=
201106061700 METAR MRLM 061700Z 07005KT 9999 FEW035 BKN130 30/23 A2989 RMK FEW250 HZ ARND LGT=
201106061800 METAR MRLM 061800Z 07006KT 9999 FEW030 BKN120 30/23 A2986 RMK CB RA DST S HZ ARND LGT=
201106061900 METAR MRLM NIL=
201106062000 METAR MRLM 062000Z 00000KT SCT020 BKN110 28/25 A2982 REDZ RMK RA DST W HZ LGT ARND=
201106062100 METAR MRLM 062100Z 00000KT 9999 FEW025 BKN110 29/24 A2980 RMK RA DST W LGHT HZ ARND=
201106062200 METAR MRLM 062200Z 23003KT 9999 FEW025 BKN110 29/24 A2980 RMK CB RA DST SW LGHT HZ ARND=
201106062300 METAR MRLM 062300Z 00000KT 9999 FEW025 BKN100 29/24 A2981 RMK CB RA DST S LGHT HZ ARND=
201106070000 METAR MRLM 070000Z 00000KT 9999 FEW020 BKN100 28/24 A2984 RMK RA DST S LGHT HZ ARND=
201106070100 METAR MRLM NIL=
201106070200 METAR MRLM NIL=
201106070300 METAR MRLM NIL=
201106070400 METAR MRLM NIL=
201106070500 METAR MRLM NIL=
201106070600 METAR MRLM NIL=
201106070700 METAR MRLM NIL=
201106070800 METAR MRLM NIL=
201106070900 METAR MRLM NIL=
201106071000 METAR MRLM NIL=
201106071100 METAR MRLM NIL=
201106071200 METAR MRLM NIL=
201106071300 METAR MRLM NIL=
201106071400 METAR MRLM NIL=
201106071500 METAR MRLM NIL=
201106071600 METAR MRLM 071600Z 10011KT CAVOK 31/22 A2989 RMK BKN270 LGHT HZ ARND=
201106071700 METAR MRLM 071700Z 08010KT 9999 FEW035 BKN270 31/24 A2986 RMK LGHT HZ ARND=
201106071800 METAR MRLM 071800Z 08010KT 9999 FEW035 BKN270 31/24 A2985 RMK TCU DST SW CB DST W LGHT HZ ARND=
201106071900 METAR MRLM 071900Z 07007KT 9999 FEW035 BKN270 30/23 A2983 RMK CB DST S LGHT HZ ARND=
201106072000 METAR MRLM 072000Z 06005KT 9999 FEW035 SCT270 30/24 A2981 RMK FEW080 CB DST S TCU DST SW LGHT HZ ARND=
201106072100 METAR MRLM 072100Z 05005KT 9999 FEW030 SCT270 30/24 A2980 RMK FEW080 CB RA DST SW HZ LGT ARND=
201106072200 METAR MRLM 072200Z 08005KT 9999 FEW025 SCT080 29/24 A2976 RMK FEW270 CB RA DST SW HZ LGT ARND=
201106072300 METAR MRLM 072300Z 09004KT 9999 FEW020 BKN080 29/24 A2980 RMK FEW270 CB RA DST SW HZ LGT ARND=
201106080000 METAR MRLM 080000Z 00000KT 9999 FEW020 BKN080 28/25 A2981 RMK FEW270 CB RA DST SW TCU DST S HZ LGT ARND=
201106080100 METAR MRLM NIL=
201106080200 METAR MRLM NIL=
201106080300 METAR MRLM NIL=
201106080400 METAR MRLM NIL=
201106080500 METAR MRLM NIL=
201106080600 METAR MRLM NIL=
201106080700 METAR MRLM NIL=
201106080800 METAR MRLM NIL=
201106080900 METAR MRLM NIL=
201106081000 METAR MRLM NIL=
201106081100 METAR MRLM NIL=
201106081200 METAR MRLM 081200Z 00000KT CAVOK 26/23 A2988 RMK OVC080 HZ ARND=
201106081300 METAR MRLM 081300Z 00000KT CAVOK 27/23 A2990 RMK BKN080 FEW300 RA DST NE HZ LGT ARND=
201106081400 METAR MRLM 081400Z 19003KT CAVOK 29/24 A2990 RMK FEW100 FEW300 HZ ARND=
201106081500 METAR MRLM 081500Z 04005KT 9999 FEW030 30/24 A2991 RMK FEW280 HZ LGT ARND=
201106081600 METAR MRLM NIL=
201106081700 METAR MRLM NIL=
201106081800 METAR MRLM 081800Z 07008KT 9999 FEW035 SCT280 31/24 A2988 RMK TCU DST SE/S/S W/W HZ LGT ARND=
201106081900 METAR MRLM 081900Z 07010KT 9999 FEW035 SCT280 31/24 A2985 RMK CB DST NE/SE/W TCU DST S/SW HZ LGT ARND=
201106082000 METAR MRLM 082000Z 07009KT 9999 FEW035 BKN280 31/24 A2983 RMK CB DST SE S W HZ LGT ARND=
201106082100 METAR MRLM 082100Z 07006KT 9999 FEW030 BKN280 31/25 A2983 RMK CB DST SE/S/SW LGT HZ ARND=
201106082200 METAR MRLM 082200Z 09007KT 9999 BKN030 31/24 A2982 RMK FEW280 CB DST S/SW LGT HZ ARND=
201106082300 METAR MRLM 082300Z 10006KT 9999 BKN028 30/24 A2983 RMK FEW280 CB DST S SW W LGT HZ ARND=
201106090000 METAR MRLM 090000Z 11007KT 9999 FEW025 BKN280 29/24 A2984 RMK CB DST S SW W LGT HZ ARND=
201106090100 METAR MRLM NIL=
201106090200 METAR MRLM NIL=
201106090300 METAR MRLM NIL=
201106090400 METAR MRLM NIL=
201106090500 METAR MRLM NIL=
201106090600 METAR MRLM NIL=
201106090700 METAR MRLM NIL=
201106090800 METAR MRLM NIL=
201106090900 METAR MRLM NIL=
201106091000 METAR MRLM NIL=
201106091100 METAR MRLM NIL=
201106091200 METAR MRLM NIL=
201106091300 METAR MRLM 091300Z 00000KT CAVOK 28/25 A2989 RMK BKN120 RA DST NW HZ LGT ARND=
201106091400 METAR MRLM 091400Z 13011KT 9999 FEW025 BKN120 29/24 A2991 RMK HZ ARND=
201106091500 METAR MRLM 091500Z 12011KT 9999 FE030 BKN130 30/24 A2991 RMK HZ LGT ARND=
201106091600 METAR MRLM 091600Z 11011KT 9999 FEW035 SCT140 31/24 A2990 RMK FEW260 HZ LGT ARND=
201106091700 METAR MRLM 091700Z 10010KT 9999 FEW040 32/24 A2989 RMK HZ LGT ARND=
201106091800 METAR MRLM 091800Z 09011KT CAVOK 31/24 A2986 RMK FEW260 HZ LGT ARND=
201106091900 METAR MRLM 091900Z 08011KT CAVOK 31/25 A2983 RMK FEW260 HZ LGT ARND=
201106092000 METAR MRLM 092000Z 08011KT CAVOK 31/25 A2982 RMK FEW250 CB DST S HZ LGT ARND=
201106092100 METAR MRLM 092100Z 08012KT CAVOK 31/25 A2980 RMK SCT250 TCU DST SW HZ ARND=
201106092200 METAR MRLM 092200Z 08009KT CAVOK 31/25 A2979 RMK SCT250 HZ ARND=
201106092300 METAR MRLM 092300Z 10007KT CAVOOK 30/25 A2979 RMK BKN250 CB SW HZ ARND=
201106100000 METAR MRLM 100000Z 09006KT 9999 FEW020 BKN250 29/25 A2981 RMK HZ ARND=
201106100100 METAR MRLM NIL=
201106100200 METAR MRLM NIL=
201106100300 METAR MRLM NIL=
201106100400 METAR MRLM NIL=
201106100500 METAR MRLM NIL=
201106100600 METAR MRLM NIL=
201106100700 METAR MRLM NIL=
201106100800 METAR MRLM NIL=
201106100900 METAR MRLM NIL=
201106101000 METAR MRLM NIL=
201106101100 METAR MRLM NIL=
201106101200 METAR MRLM NIL=
201106101300 METAR MRLM 101300Z 00000KT CAVOK 27/24 A2987 RMK FEW260 HZ ARND=
201106101400 METAR MRLM 101400Z 12005KT 9999 SCT020 30/25 A2989 RMK HZ ARND=
201106101500 METAR MRLM 101500Z 09006KT 9999 SCT030 30/25 A2990 RMK HZ ARND=
201106101600 METAR MRLM 101600Z 09007KT 9999 SCT030 SCT140 31/25 A2990 RMK HZ ARND=
201106101700 METAR MRLM NIL=
201106101800 METAR MRLM NIL=
201106101900 METAR MRLM NIL=
201106102000 METAR MRLM 102000Z 08008KT 9999 FEW035 31/24 A2983 RMK HZ ARND LGT=
201106102100 METAR MRLM 102100Z 09007KT 9999 FEW030 31/24 A2981 RMK HZ ARND LGT=
201106102200 METAR MRLM 102200Z 10006KT CAVOK 31/23 A2978 RMK FEW250 HZ ARND LGT=
201106102300 METAR MRLM 102300Z 10005KT CAVOK 430/24 A2978 RMK SCT250 HZ ARND LGT=
201106110000 METAR MRLM 110000Z 09005KT CAVOK 29/24 A2980 RMK BKN250 HZ ARND=
201106110100 METAR MRLM NIL=
201106110200 METAR MRLM NIL=
201106110300 METAR MRLM NIL=
201106110400 METAR MRLM NIL=
201106110500 METAR MRLM NIL=
201106110600 METAR MRLM NIL=
201106110700 METAR MRLM NIL=
201106110800 METAR MRLM NIL=
201106110900 METAR MRLM NIL=
201106111000 METAR MRLM NIL=
201106111100 METAR MRLM NIL=
201106111200 METAR MRLM NIL=
201106111300 METAR MRLM 111300Z 25004KT CAVOK 26/24 A2982 RMK OVC280 HZ ARND=
201106111400 METAR MRLM 111400Z 00000KT 9999 FEW028 BKN280 30/24 A2984 RMK HZ ARND=
201106111500 METAR MRLM NIL=
201106111600 METAR MRLM 111600Z 09005KT 9999 FEW030 BKN280 30/24 A2985 RMK HZ ARND=
201106111700 METAR MRLM 111700Z 06005KT 9999 FEW028 BKN270 30/25 A2984 RMK TCU DST NW HZ ARND=
201106111800 METAR MRLM 111800Z 05005KT 9999 FEW030 BKN270 30/25 A2982 RMK HZ ARND LGT=
201106111900 METAR MRLM 111900Z 04006KT 9999 SCT028 BKN280 30/25 A2979 RMK TCU DST SW HZ ARND=
201106112000 METAR MRLM 112000Z 04008KT 9999 FEW035 SCT280 31/24 A2979 RMK FEW140 TCU DST SW HZ ARND=
201106112100 METAR MRLM 112100Z 04004KT 9999 BKN030 30/24 A2977 RMK FEW270 CB DST S LGHT HZ ARND=
201106112200 METAR MRLM 112200Z 00000KT 9999 FEW035 BKN270 31/24 A2974 RMK CB DST SW HZ ARND=
201106112300 METAR MRLM NIL=
201106120000 METAR MRLM NIL=
201106120100 METAR MRLM NIL=
201106120200 METAR MRLM NIL=
201106120300 METAR MRLM NIL=
201106120400 METAR MRLM NIL=
201106120500 METAR MRLM NIL=
201106120600 METAR MRLM NIL=
201106120700 METAR MRLM NIL=
201106120800 METAR MRLM NIL=
201106120900 METAR MRLM NIL=
201106121000 METAR MRLM NIL=
201106121100 METAR MRLM NIL=
201106121200 METAR MRLM NIL=
201106121300 METAR MRLM 121300Z 30007KT 9999 FEW015 BKN080 25/23 A2984 RMK FEW140 CB RN DST QUAD N=
201106121400 METAR MRLM 121400Z 29005KT 9999 FEW010 BKN080 25/23 A2985 RMK CB RN DST QUAD N FEW140=
201106121500 METAR MRLM 121500Z 26004KT 9999 SCT012 SCT140 26/23 A2985 RMK FEW090 CB RN DST QUAD N=
201106121600 METAR MRLM 121600Z 28009KT 9999 SCT015 SCT140 26/23 A2985 RMK FEW080 CB DST RN QUAD N=
201106121700 METAR MRLM 121700Z 28005KT 9999 SCT020 SCT150 28/24 A2984 RMK FEW100 RN DST NW N HZ ARND=
201106121800 METAR MRLM 121800Z 30006KT 9999 BKN025 29/24 A2983 RMK FEW270 HZ ARND=
201106121900 METAR MRLM 121900Z 35010KT 9999 BKN025 29/24 A2980 RMK FEW100 FEW270 RN DST SW W HZ ARND=
201106122000 METAR MRLM 122000Z 36007KT 9999 FEW023 SCT100 29/24 A2978 RMK SCT270 HZ ARND=
201106122100 METAR MRLM 122100Z 35007KT 9999 FEW020 BKN270 29/24 A2976 RMK FEW080 FEW150 CB DST SE HZ ARND=
201106122200 METAR MRLM 122200Z 36007KT 9999 FEW025 BKN270 29/24 A2978 RMK FEW130 HZ ARND=
201106122300 METAR MRLM 122300Z 32006KT 9999 FEW025 SCT130 28/24 A2979 RMK FEW150 SCT270 CB DST SE HZ ARND=
201106130000 METAR MRLM 130000Z 31004KT 9999 FEW020 BKN080 28/24 A2981 RMK FEW150 CB DST W HZ ARND=
201106130100 METAR MRLM NIL=
201106130200 METAR MRLM NIL=
201106130300 METAR MRLM NIL=
201106130400 METAR MRLM NIL=
201106130500 METAR MRLM NIL=
201106130600 METAR MRLM NIL=
201106130700 METAR MRLM NIL=
201106130800 METAR MRLM NIL=
201106130900 METAR MRLM NIL=
201106131000 METAR MRLM NIL=
201106131100 METAR MRLM NIL=
201106131200 METAR MRLM NIL=
201106131300 METAR MRLM 131300Z 00000KT 9999 -RA SCT007 BKN100 24/23 A2983 RMK HZ ARND=
201106131400 METAR MRLM 131400Z 22004KT 9999 SCT010 BKN100 25/24 A2986 RMK RA DST QUAD N HZ ARND=
201106131500 METAR MRLM 131500Z 00000KT 9999 +DZ VCTS FEW010CB BKN015 26/24 A2987 RMK FEW100 VIS 8KM SE S=
201106131600 METAR MRLM 131600Z 24004KT 9999 +DZ BKN010 25/23 A2988 RMK FEW100 CB TS DST N NE E=
201106131700 METAR MRLM 131700Z 33004KT 9999 DZ BKN010 26/24 A2988 RMK FEW090 CB TS DST QUAD N HZ ARND=
201106131800 METAR MRLM 131800Z 30003KT 9999 BKN015 26/24 A2988 REDZ RMK FEW100 CB TS QUAD N HZ ARND=
201106131900 METAR MRLM 131900Z 32004KT 8000 DZ BKN015 27/24 A2985 RMK FEW100 HZ ARND CB TS DST N NE E SE VIS UNL SW W=
201106132000 METAR MRLM 132000Z 00000KT 9999 SCT015 BKN110 27/24 A2981 REDZ RMK RA DST N NE E HZ ARND=
201106132100 METAR MRLM 132100Z 00000KT 9999 DZ SCT020 BKN110 27/24 A2980 RMK CB/RA DST N NE HZY=
201106132200 METAR MRLM 132200Z 00000KT 9999 FEW020 BKN120 28/24 A2980 REDZ RMK FEW250 CB RA DST N HZ ARND=
201106132300 METAR MRLM 132300Z 04003KT 9999 SCT020 BKN110 27/23 A2985 RMK CB/RA DST N/NW HZ ARND=
201106140000 METAR MRLM 140000Z 22004KT 9999 SCT015 SCT110 26/24 A2984 RMK FEW130 CB RA DST NE HZ ARND=
201106140100 METAR MRLM NIL=
201106140200 METAR MRLM NIL=
201106140300 METAR MRLM NIL=
201106140400 METAR MRLM NIL=
201106140500 METAR MRLM NIL=
201106140600 METAR MRLM NIL=
201106140700 METAR MRLM NIL=
201106140800 METAR MRLM NIL=
201106140900 METAR MRLM NIL=
201106141000 METAR MRLM NIL=
201106141100 METAR MRLM NIL=
201106141200 METAR MRLM 141200Z 22005KT 9999 SCT010 SCT100 23/22 A2985 RMK TCU DST NW HZ ARND=
201106141300 METAR MRLM 141300Z 23004KT CAVOK 26/22 A2986 RMK BKN120 HZ ARND=
201106141400 METAR MRLM 141400Z 00000KT CAVOK 28/23 A2989 RMK BKN130 HZ ARND=
201106141500 METAR MRLM 141500Z 04004KT CAVOK 29/23 A2988 RMK BKN130 HZ ARND=
201106141600 METAR MRLM 141600Z 03006KT CAVOK 30/24 A2986 RMK FEW140 BKN260 HZ ARND=
201106141700 METAR MRLM 141700Z 02011KT 9999 FEW030 BKN260 31/24 A2985 RMK FEW140 HZ ARND=
201106141800 METAR MRLM 141800Z 03009KT 9999 FEW030 BKN250 30/24 A2986 RMK FEW140 TCU DST SW HZ ARND=
201106141900 METAR MRLM 141900Z 04009KT 9999 SCT025 SCT130 30/24 A2985 RMK FEW250 HZ ARND=
201106142000 METAR MRLM 142000Z 07008KT 9999 -DZ SCT025 SCT120 29/24 A2984 RMK RA DST N HZ ARND=
201106142100 METAR MRLM 142100Z 10008KT 9999 FEW025 SCT250 29/24 A2981 RMK FEW120 CB RA NE S HZ ARND=
201106142200 METAR MRLM 142200Z 13009KT 9999 FEW020 SCT110 29/23 A2977 RMK SCT250 CB RA S HZ ARND=
201106142300 METAR MRLM 142300Z 06004KT 9999 FEW020 BKN110 29/23 A2979 RMK FEW250 RASH N HZ ARND=
201106150000 METAR MRLM 150000Z 07008KT 9999 FEW020 BKN110 28/23 A2983 RMK CB RA DST N S HZ ARND=
201106150100 METAR MRLM NIL=
201106150200 METAR MRLM NIL=
201106150300 METAR MRLM NIL=
201106150400 METAR MRLM NIL=
201106150500 METAR MRLM NIL=
201106150600 METAR MRLM NIL=
201106150700 METAR MRLM NIL=
201106150800 METAR MRLM NIL=
201106150900 METAR MRLM NIL=
201106151000 METAR MRLM NIL=
201106151100 METAR MRLM NIL=
201106151200 METAR MRLM NIL=
201106151300 METAR MRLM 151300Z 29006KT 9999 FEW015 SCT090 25/23 A2983 RMK FEW150 FEW260 CB RA N HZ ARND=
201106151400 METAR MRLM 151400Z 30006KT 9999 FEW025 SCT090 27/23 A2985 RMK SCT260 CB RA NE E HZ ARND=
201106151500 METAR MRLM NIL=
201106151600 METAR MRLM 151600Z 29005KT 9999 FEW020 BKN090 28/23 A2989 RMK FEW150 CB RA NW N NE E HZ ARND=
201106151700 METAR MRLM 151700Z 28005KT 9999 FEW025 SCT090 28/23 A2887 RMK SCT150 DZ NW W CB RA N NE=
201106151800 METAR MRLM 151800Z 28005KT 9999 FEW025 BKN090 28/23 A2985 RMK SCT150 CB RA N DZ NW=
201106151900 METAR MRLM 151900Z 31008KT 9999 FEW025 SCT090 28/23 A2985 RMK SCT150 RN DST NW=
201106152000 METAR MRLM 152000Z 32011KT 9999 SCT025 SCT090 28/24 A2984 RMK FEW150 RN DST NE HZY LGT ARND=
201106152100 METAR MRLM 152100Z 32008KT 9999 SCT020 SCT090 28/24 A2983 RMK FEW150 RN DST NW W SW N NE E=
201106152200 METAR MRLM 152200Z 32007KT 9999 SCT020 SCT080 27/23 A2982 RMK FEW140 RN DST ARND CB DST W=
201106152300 METAR MRLM 152300Z 35006KT 9999 VCSH OVC025 29/23 A2983 RMK VIS NW SE 8KMS=
201106160000 METAR MRLM 160000Z 28004KT 9999 DZ OVC015 26/23 A2984 RMK RN ARND CB DST E S=
201106160100 METAR MRLM NIL=
201106160200 METAR MRLM NIL=
201106160300 METAR MRLM NIL=
201106160400 METAR MRLM NIL=
201106160500 METAR MRLM NIL=
201106160600 METAR MRLM NIL=
201106160700 METAR MRLM NIL=
201106160800 METAR MRLM NIL=
201106160900 METAR MRLM NIL=
201106161000 METAR MRLM NIL=
201106161100 METAR MRLM NIL=
201106161200 METAR MRLM NIL=
201106161300 METAR MRLM 161300Z 00000KT 9999 SCT020 SCT080 24/23 A2988 RMK FEW150 CBS RN DST NW E=
201106161400 METAR MRLM 161400Z 23003KT 9999 FEW020 BKN090 27/23 A2990 RMK FEW270 CBS RN DST NW NE E=
201106161500 METAR MRLM NIL=
201106161600 METAR MRLM NIL=
201106161700 METAR MRLM 161700Z 01007KT 9999 FEW035 BKN080 30/23 A2989 RMK FEW270 CB N NE DZ NE=
201106161800 METAR MRLM 161800Z 02009KT 9999 FEW035 SCT080 29/23 A2989 RMK SCT270 CB DST NE E LGT HZ ARND=
201106161900 METAR MRLM 161900Z 01009KT 9999 FEW028 BKN120 30/24 A2986 RMK FEW270 TCU DST S SW W RN DST E DZ NE=
201106162000 METAR MRLM 162000Z 01010KT 9999 FEW035 BKN090 29/24 A2985 RMK RN DST E S=
201106162100 METAR MRLM 162100Z 05016KT 8000 VCSH BKN012 27/24 A2983 RERA RMK VIS 9999 N NW NE E FEW080 FEW130=
201106162200 METAR MRLM 162200Z 22004KT 9999 FEW015 BKN090 26/24 A2982 RMK CB RN DST ARND FEW140=
201106162300 METAR MRLM 162300Z 26004KT 9999 SCT010 BKN090 25/23 A2982 RMK FEW025 FEW120 CB RN DST ARND=
201106170000 METAR MRLM 170000Z 30003KT 9999 FEW015 BKN090 26/23 A2985 RMK FEW025 CB RN DST E/SE/S/SW/W=
201106170100 METAR MRLM NIL=
201106170200 METAR MRLM NIL=
201106170300 METAR MRLM NIL=
201106170400 METAR MRLM NIL=
201106170500 METAR MRLM NIL=
201106170600 METAR MRLM NIL=
201106170700 METAR MRLM NIL=
201106170800 METAR MRLM NIL=
201106170900 METAR MRLM NIL=
201106171000 METAR MRLM NIL=
201106171100 METAR MRLM NIL=
201106171200 METAR MRLM 171200Z 23005KT 9999 FEW010 BKN100 23/22 A2986 RMK HZ ARND=
201106171300 METAR MRLM 171300Z 22004KT 9999 FEW010 BKN100 24/23 A2988 RMK HZ ARND=
201106171400 METAR MRLM 171400Z 00000KT CAVOK 25/23 A2991 RMK BKN110 HZ ARND=
201106171500 METAR MRLM 171500Z 00000KT CAVOK 28/23 A2992 RMK BKN110 HZ ARND=
201106171600 METAR MRLM 171600Z 30004KT 9999 FEW035 BKN120 29/22 A2991 RMK HZ ARND=
201106171700 METAR MRLM 171700Z 01004KT 9999 FEW035 BKN120 30/22 A2991 RMK HZ LEVE ARND=
201106171800 METAR MRLM 171800Z 04006KT 9999 FEW040 BKN120 30/22 A2989 RMK HZ LEVE ARND=
201106171900 METAR MRLM 171900Z 02005KT 9999 FEW040 BKN130 29/22 A2988 RMK TCU DST SW HZ LEVE ARND=
201106172000 METAR MRLM 172000Z 02005KT CAVOK 29/22 A2985 RMK SCT130 SCT250 TCU DST S SW HZ LEVE ARND=
201106172100 METAR MRLM 172100Z 05004KT 9999 FEW030 BKN120 29/23 A2983 RMK FEW250 CB DST S SW HZ LGT ARND=
201106172200 METAR MRLM 172200Z 06003KT 9999 FEW030 BKN120 29/22 A2982 RMK HZ LGT ARND=
201106172300 METAR MRLM 172300Z 00000KT CAVOK 28/22 A2982 RMK BKN110 HZ LGT ARND=
201106180000 METAR MRLM 180000Z 10006KT CAVOK 28/23 A2983 RMK BKN110 HZ LGT ARND=
201106180100 METAR MRLM NIL=
201106180200 METAR MRLM NIL=
201106180300 METAR MRLM NIL=
201106180400 METAR MRLM NIL=
201106180500 METAR MRLM NIL=
201106180600 METAR MRLM NIL=
201106180700 METAR MRLM NIL=
201106180800 METAR MRLM NIL=
201106180900 METAR MRLM NIL=
201106181000 METAR MRLM NIL=
201106181100 METAR MRLM NIL=
201106181200 METAR MRLM 181200Z 23004KT CAVOK 23/22 A2992 RMK SCT120 CB DST NW HZ LGT ARND=
201106181300 METAR MRLM 181300Z 200004KT CAVOK 26/23 A2992 RMK SCT120 HZ LIGT ARND=
201106181400 METAR MRLM 181400Z 06003KT CAVOK 29/23 A2993 RMK SCT130 TCU DST N HZ LGT ARND=
201106181500 METAR MRLM 181500Z 05006KT 9999 FEW025 SCT140 29/23 A2994 RMK FEW260 TCU DST N=
201106181600 METAR MRLM 181600Z 03004KT 9999 FEW030 SCT140 30/23 A2992 RMK FEW260=
201106181700 METAR MRLM 181700Z 05006KT 9999 FEW030 BKN140 30/23 A2992 RMK HZ LGT ARND=
201106181800 METAR MRLM 181800Z 04008KT 9999 FEW035 SCT130 30/23 A2990 RMK CB TS DST S SW HZ LGT ARND=
201106181900 METAR MRLM 181900Z 06007KT 9999 FEW030 SCT130 30/23 A2990 RMK CB TS DST S SW=
201106182000 METAR MRLM 182000Z 07004KT 9999 FEW030 30/23 A2987 RMK FEW260 CB DST S SW=
201106182100 METAR MRLM 182100Z 04005KT 9999 SCT030 SCT250 30/24 A2986 RMK CB DST S SW=
201106182200 METAR MRLM 182200Z 05005KT 9999 SCT030 SCT250 30/23 A2985 RMK FEW130 CB DST S/SW=
201106182300 METAR MRLM 182300Z 06004KT 9999 FEW030 BKN250 29/23 A2986 RMK FEW130 CB DST S/SW/W=
201106190000 METAR MRLM 190000Z 04006KT 9999 SCT025 BKN250 29/24 A2987 RMK CB DST S/SW/W HZ LGT ARND=
201106190100 METAR MRLM NIL=
201106190200 METAR MRLM NIL=
201106190300 METAR MRLM NIL=
201106190400 METAR MRLM NIL=
201106190500 METAR MRLM NIL=
201106190600 METAR MRLM NIL=
201106190700 METAR MRLM NIL=
201106190800 METAR MRLM NIL=
201106190900 METAR MRLM NIL=
201106191000 METAR MRLM NIL=
201106191100 METAR MRLM NIL=
201106191200 METAR MRLM NIL=
201106191300 METAR MRLM 191300Z 24004KT CAVOK 25/23 A2990 RMK FEW080 BKN280 CB DST NW/N/E JGT HZ ARND=
201106191400 METAR MRLM 191400Z 00000KT CAVOK 29/23 A2992 RMK BKN090 FEW280 CB DST NW/N/NE/E HZ E NOSIG=
201106191500 METAR MRLM 191500Z 00000KT 9999 FEW030 BKN080 29/23 A2992 RMK FEW280 CB DST NW/N/NE/E RN DST N/NE/E=
201106191600 METAR MRLM 191600Z 07004KT 9999 SCT030 SCT140 29/23 A2993 RMK FEW080 CB/RN DST NW/N/NE/E=
201106191700 METAR MRLM 191700Z 01004KT 9999 FEW030 SCT080 29/22 A2992 RMK SCT140 FEW260 CB/RN DST NW/N/NE/E=
201106191710 METAR MRLM 171900Z 01004KT 9999 FEW030 SCT080 29/22 A2992 RMK SCT140 FEW260 CB/RN DST NW/N/NE/E=
201106191721 METAR MRLM 171900Z 01004KT 9999 FEW030 SCT080 29/22 A2992 RMK SCT140 FEW260 CB/RN DST NW/N/NE/E=
201106191800 METAR MRLM 191800Z 34004KT 9999 DZ FEW080 BKN130 28/23 A2990 RMK FEW260 CB/RN DST NW/N/NE=
201106191900 METAR MRLM 191900Z 00000KT 9999 FEW035 SCT260 29/22 A2987 REDZ RMK CB DST NW/N/NE FEW130 FEW150 LGT HZ ARND=
201106192000 METAR MRLM 192000Z 05004KT 9999 FEW035 SCT130 30/23 A2985 RMK SCT270 CB DST NW/N/NE LGT HZ ARND=
201106192100 METAR MRLM 192100Z 06007KT 9999 FEW030 BKN090 29/23 A2984 RMK FEW270 CB NW S HZ ARND=
201106192200 METAR MRLM 192200Z 02007KT 9999 FEW028 SCT100 29/24 A2982 RMK SCT270 CB E SW NW HZ ARND=
201106192300 METAR MRLM 192300Z 06006KT 9999 FEW030 BKN270 29/23 A2983 RMK FEW140 CB NW HZ ARND=
201106200000 METAR MRLM NIL=
201106200100 METAR MRLM NIL=
201106200200 METAR MRLM NIL=
201106200300 METAR MRLM NIL=
201106200400 METAR MRLM NIL=
201106200500 METAR MRLM NIL=
201106200600 METAR MRLM NIL=
201106200700 METAR MRLM NIL=
201106200800 METAR MRLM NIL=
201106200900 METAR MRLM NIL=
201106201000 METAR MRLM NIL=
201106201100 METAR MRLM NIL=
201106201200 METAR MRLM 201200Z 23004KT 9999 TS FEW015 BKN090 24/23 A2986 RMK FEW250 TCU RA DST N CB RA E SE TSTM E HZ LGT ARND=
201106201300 METAR MRLM 201300Z 22005KT 9999 FEW015 BKN090 25/23 A2987 RMK TCU RA N NE CB RA E SE FEW140 HZ ARND=
201106201400 METAR MRLM 201400Z 20003KT 9999 +DZ FEW015 SCT090 26/24 A2989 RERA RMK TCU RA NE SCT130 HZ ARND=
201106201500 METAR MRLM 201500Z 00000KT 9999 FEW025 BKN130 29/23 A2989 REDZ RMK CB RA DST E HZ ARND FEW280=
201106201600 METAR MRLM 201600Z 04004KT 9999 FEW030 SCT140 30/24 A2988 RMK SCT280 CB DST SE HZ ARND=
201106201700 METAR MRLM 201700Z 06004KT 9999 FEW030 SCT140 30/23 A2988 RMK SCT280 CB SE TCU N NE HZ ARND=
201106201800 METAR MRLM 201800Z 05005KT 9999 FEW035 BKN280 30/23 A2984 RMK CB S E NW HZ ARND=
201106201900 METAR MRLM 201900Z 04006KT 9999 FEW035 BKN280 31/23 A2981 RMK CB NW HZ ARND=
201106202000 METAR MRLM 202000Z 04009KT 9999 FEW035 BKN280 31/24 A2979 RMK CB NE E SE HZ ARND=
201106202100 METAR MRLM 202100Z 03010KT 9999 FEW030 SCT280 30/24 A2978 RMK CB DST N SE S SW LGT HZ ARND=
201106202200 METAR MRLM 202200Z 04009KT 9999 FEW0130 SCT280 30/25 A2978 RMK CB DST S LGT HZ ARND=
201106202300 METAR MRLM 202300Z 04009KT 9999 SCT028 BKN280 30/24 A2979 RMK CB DST S LGT HZ ARND=
201106210000 METAR MRLM 210000Z 00000KT 9999 FEW020 SCT140 28/25 A2982 RMK SCT280 CB DST S W QDS RN DST SW W=
201106210100 METAR MRLM NIL=
201106210200 METAR MRLM NIL=
201106210300 METAR MRLM NIL=
201106210400 METAR MRLM NIL=
201106210500 METAR MRLM NIL=
201106210600 METAR MRLM NIL=
201106210700 METAR MRLM NIL=
201106210800 METAR MRLM NIL=
201106210900 METAR MRLM NIL=
201106211000 METAR MRLM NIL=
201106211100 METAR MRLM NIL=
201106211200 METAR MRLM 211200Z 00000KT 9999 SCT010 SCT250 24/23 A2986 RMK FEW100 CB DST N/NE HZ ARND=
201106211300 METAR MRLM 211300Z 00000KT 9999 SCT010 SCT100 24/23 A2987 RMK FEW250 CB DST NW NE HZ ARND=
201106211400 METAR MRLM NIL=
201106211500 METAR MRLM 211500Z 06003KT CAVOK 30/24 A2987 RMK FEW130 BKN260 CB DST NE E HZ ARND=
201106211600 METAR MRLM 211600Z 06006KT CAVOK 30/24 A2986 RMK FEW130 BKN260 CB DST E HZ ARND=
201106211700 METAR MRLM 211700Z 05010KT 9999 FEW025 BKN120 29/24 A2986 RMK TCU DST SW HZ ARND=
201106211800 METAR MRLM 211800Z 06008KT 9999 FEW025 BKN120 29/24 A2985 RMK TCU DST SW HZ ARND=
201106211900 METAR MRLM 211900Z 06005KT CAVOK 30/24 A2983 RMK SCT120 SCT250 HZ ARND=
201106212000 METAR MRLM 212000Z 06004KT CAVOK 30/24 A2982 SCT130 BKN250 HZ ARND=
201106212100 METAR MRLM 212100Z 06004KT 9999 FEW030 BKN250 30/24 A2979 RMK HZ ARND=
201106212200 METAR MRLM 212200Z 04005KT 9999 FEW030 BKN250 30/24 A2978 RMK TCU DST DE HZ LEVE ARND=
201106212300 METAR MRLM 212300Z 05007KT 9999 SCT025 BKN250 29/24 A2981 RMK TCU DST S SW HZ LEVE ARND=
201106220000 METAR MRLM 220000Z 06006KT 9999 SCT020 BKN250 28/24 A2982 RMK CB DST S SW W HZ LEVE ARND=
201106220100 METAR MRLM NIL=
201106220200 METAR MRLM NIL=
201106220300 METAR MRLM NIL=
201106220400 METAR MRLM NIL=
201106220500 METAR MRLM NIL=
201106220600 METAR MRLM NIL=
201106220700 METAR MRLM NIL=
201106220800 METAR MRLM NIL=
201106220900 METAR MRLM NIL=
201106221000 METAR MRLM NIL=
201106221100 METAR MRLM NIL=
201106221200 METAR MRLM 221200Z 00000KT CAVOK 24/22 A2987 RMK FEW120 BKN250 TCU N HZ ARND=
201106221300 METAR MRLM 221300Z 23004KT CAVOK 25/23 A2988 RMK HZ LEVE ARND=
201106221400 METAR MRLM 221400Z 00000KT CAVOK 28/23 A2990 RMK BKN250 HZ LEVE ARND=
201106221500 METAR MRLM 221500Z 07003KT CAVOK 30/23 A2990 RMK FEW130 BKN260 TCU DST N HZ LEVE ARND=
201106221600 METAR MRLM 221600Z 01010KT CAVOK 30/24 A2990 SCT130 BKN260 TCU DST N NE HZ LGT ARND=
201106221700 METAR MRLM 221700Z 01010KT 9999 FEW030 SCT260 30/25 A2990 RMK FEW120 TCU DST SW HZ LEVE ARND=
201106221800 METAR MRLM 221800Z 01006KT 9999 FEW030 SCT270 31/25 A2987 RMK FEW120 TCU DST SW W CB DST N NE HZ LEVE ARND=
201106221900 METAR MRLM 221900Z 02009KT 9999 SCT025 SCT120 30/25 A2985 RMK FEW250 CB DST SW W HZ LEVE ARND=
201106222000 METAR MRLM 222000Z 01008KT 9999 FEW025 BKN250 30/24 A2983 RMK FEW130 CB DST SW HZ LEVE ARND=
201106222100 METAR MRLM 222100Z 36006KT 9999 FEW035 BKN250 30/23 A2983 RMK CB DST S SW W HZ LGT ARND=
201106222200 METAR MRLM 222200Z 36007KT 9999 FEW040 BKN260 31/23 A2983 RMK FEW140 CB DST SW W HZ LGT ARND=
201106222300 METAR MRLM 222300Z 30005KT CAVOK 30/23 A2982 RMK FEW140 BKN260 RMK CB DST S SW W HZ ARND=
201106230000 METAR MRLM 230000Z 00000KT CAVOK 29/24 A2983 RMK FEW130 BKN250 CB DST S HZ ARND=
201106230100 METAR MRLM NIL=
201106230200 METAR MRLM NIL=
201106230300 METAR MRLM NIL=
201106230400 METAR MRLM NIL=
201106230500 METAR MRLM NIL=
201106230600 METAR MRLM NIL=
201106230700 METAR MRLM NIL=
201106230800 METAR MRLM NIL=
201106230900 METAR MRLM NIL=
201106231000 METAR MRLM NIL=
201106231100 METAR MRLM NIL=
201106231200 METAR MRLM NIL=
201106231230 METAR MRLM 231230Z 28004KT 9999 FEW025 BKN080 24/23 A2985 RMK CB RA DST NW N NE HZ LGT ARND=
201106231300 METAR MRLM 231300Z 00000KT 9999 FEW025 BKN080 25/23 A2986 RMK CB RA DST QUAD N HZ ARND=
201106231400 METAR MRLM 231400Z 30005KT CAVOK 29/22 A2985 RMK SCT120 BKN280 CB DST NE TCU DST N HZ ARND=
201106231500 METAR MRLM 231500Z 31006KT 9999 FEW035 BKN080 30/22 A2987 RMK CB RA DST NE HZ ARND=
201106231600 METAR MRLM 231600Z 32005KT 9999 SCT035 SCT080 30/23 A2987 RMK CB RA DST NE E HZ ARND=
201106231700 METAR MRLM 231700Z 35009KT 9999 DZ SCT028 SCT080 30/24 A2987 RMK RA DST NE E=
201106231800 METAR MRLM 231800Z 35010KT 9999 DZ VCTS VCSH FEW015TCU BKN090 28/25 A2985 RMK TCU QUAD S W CB QUAD N E VIS 8KM NE E TS E=
201106231900 METAR MRLM 231900Z 04012KT 8000 RA FEW010 BKN090 25/23 A2983 RMK FEW140 VIS SW S W NW UNL=
201106232000 METAR MRLM 232000Z 22004KT 9999 +DZ SCT090 SCT130 26/24 A2979 RMK CB RA ARND=
201106232100 METAR MRLM 232100Z 34007KT 9999 DZ FEW010 SCT090 27/25 A2978 RMK CB/RN/HZ ARND SCT120=
201106232200 METAR MRLM 232200Z 24004KT 9999 +DZ SCT090 BKN120 27/24 A2975 RMK HZ ARND=
201106232300 METAR MRLM 232300Z 33004KT CAVOK 27/25 A2976 REDZ RMK SCT090 BKN130 RN DST SW HZ ARND=
201106240000 METAR MRLM 240000Z 32007KT CAVOK 27/24 A2980 RMK SCT100 SCT130 CB RN DST E SW W HZ ARND=
201106240100 METAR MRLM NIL=
201106240200 METAR MRLM NIL=
201106240300 METAR MRLM NIL=
201106240400 METAR MRLM NIL=
201106240500 METAR MRLM NIL=
201106240600 METAR MRLM NIL=
201106240700 METAR MRLM NIL=
201106240800 METAR MRLM NIL=
201106240900 METAR MRLM NIL=
201106241000 METAR MRLM NIL=
201106241100 METAR MRLM NIL=
201106241200 METAR MRLM NIL=
201106241300 METAR MRLM 241300Z 21004KT CAVOK 24/23 A2983 RMK BKN090 FEW120 CB/RN DST N/NE/E HZY=
201106241400 METAR MRLM 241400Z 00000KT CAVOK 27/23 A2983 RMK CB/RN DST NE/E BKN120 FEW250 HZ ARND=
201106241500 METAR MRLM 241500Z 04003KT CAVOK 29/23 A2984 RMK CB/RN DST NE N BKN130 FEW260=
201106241600 METAR MRLM 241600Z 29005KT 9999 FEW045 BKN130 31/22 A2982 RMK FEW090 FEW270 HZ ARND=
201106241700 METAR MRLM 241700Z 34007KT 9999 FEW035 BKN130 31/23 A2981 RMK FEW260 LGT HZ ARND CB DST N=
201106241800 METAR MRLM 241800Z 01011KT 9999 FEW025 BKN130 30/25 A2980 RMK FEW090 CB DST NE LHT HZ ARND=
201106241900 METAR MRLM 241900Z 01012KT 9999 FEW025TCU SCT080 29/25 A2979 RMK SCT130 RN DST S/SW/W CB/HZ ARND=
201106242000 METAR MRLM 242000Z 01011KT 9999 DZ VCTS VCSH SCT010CB FEW015 SCT080 29/25 A2977 RMK FE120 TS DST S/SW/W=
201106242100 METAR MRLM 242100Z 35007KT 9999 VCSH OVC020 29/25 A2977 RETS RMK VIS S SW W 8KMS=
201106242200 METAR MRLM 242200Z 22006KT 5000 RA BKN010 SCT090 24/23 A2978 RMK VIS NE E UNL=
201106242300 METAR MRLM 242300Z 23006KT 5000 RA SCT010 SCT090 24/23 A2979=
201106250000 METAR MRLM 250000Z 24005KT 8000 +DZ VCSH SCT012 SCT080 23/22 A2981 RERA RMK CB E SE S VIS S SW W NW UNL FEW100=
201106250100 METAR MRLM NIL=
201106250200 METAR MRLM NIL=
201106250300 METAR MRLM NIL=
201106250400 METAR MRLM NIL=
201106250500 METAR MRLM NIL=
201106250600 METAR MRLM NIL=
201106250700 METAR MRLM NIL=
201106250800 METAR MRLM NIL=
201106250900 METAR MRLM NIL=
201106251000 METAR MRLM NIL=
201106251100 METAR MRLM NIL=
201106251200 METAR MRLM 251200Z 21004KT 9999 SCT007 SCT090 23/22 A2984 RMK RA DST N HZ ARND=
201106251300 METAR MRLM 251300Z 22004KT 9999 SCT010 BKN090 23/22 A2985 RMK HZ ARND=
201106251400 METAR MRLM 251400Z 21004KT 9999 BKN010 24/23 A2986 RMK FEW090 HZ ARND=
201106251500 METAR MRLM 251500Z 19003KT 9999 SCT015 SCT100 26/24 A2987 RMK HZ ARND=
201106251600 METAR MRLM 251600Z 00000KT 9999 SCT025 BKN110 28/23 A2989 RMK RA N HZ ARND=
201106251700 METAR MRLM 251700Z 07003KT 9999 SCT025 BKN120 29/23 A2989 RMK HZ ARND=
201106251800 METAR MRLM 251800Z 11005KT 9999 SCT030 BKN120 29/23 A2988 RMK HZ ARND=
201106251900 METAR MRLM 251900Z 12009KT 9999 FEW035 BKN120 29/23 A2985 RMK FEW250 HZ ARND=
201106252000 METAR MRLM 252000Z 11009KT 9999 FEW035 BKN130 29/23 A2983 RMK FEW250 HZ ARND=
201106252100 METAR MRLM 252100Z 11008KT 9999 FEW035 BKN130 30/23 A2981 RMK FEW250 LGT HZ ARND=
201106252200 METAR MRLM 252200Z 09008KT 9999 FEW030 BKN130 29/23 A2980 RMK HZ LGT ARND=
201106252300 METAR MRLM 252300Z 10007KT CAVOK 28/23 A2981 RMK BKN120 LGT HZ ARND=
201106260000 METAR MRLM 260000Z 11008KT 9999 SCT020 BKN110 27/24 A2982 RMK RN DST N HZ LGT ARND=
201106260100 METAR MRLM NIL=
201106260200 METAR MRLM NIL=
201106260300 METAR MRLM NIL=
201106260400 METAR MRLM NIL=
201106260500 METAR MRLM NIL=
201106260600 METAR MRLM NIL=
201106260700 METAR MRLM NIL=
201106260800 METAR MRLM NIL=
201106260900 METAR MRLM NIL=
201106261000 METAR MRLM NIL=
201106261100 METAR MRLM NIL=
201106261200 METAR MRLM 261200Z 29005KT 8000 DZ VCSH BKN007 25/24 A2989 RMK FEW090 TCU DST NE=
201106261300 METAR MRLM 261300Z 30004KT 9999 DZ VCSH BKN007 25/24 A2990 RMK FEW080 CB TS DST NE E=
201106261400 METAR MRLM 261400Z 00000KT 9999 -RA OVC007 25/24 A2993 RMK CB DST N=
201106261500 METAR MRLM 261500Z 00000KT 9999 DZ BKN007 SCT090 25/24 A2994 RMK RN DST N NE=
201106261600 METAR MRLM 261600Z 00000KT 9999 DZ SCT010 BKN090 25/24 A2993 RMK RN DST NW HZ ARND=
201106261700 METAR MRLM 261700Z 21003KT 9999 DZ SCT010 BKN090 25/24 A2993 RMK HZ ARND=
201106261800 METAR MRLM 261800Z 00000KT 9999 FEW010 BKN100 26/25 A2990 REDZ RMK CB RN DST N HZ ARND=
201106261900 METAR MRLM 261900Z 02003KT 9999 FEW015 BKN110 27/24 A2987 RMK HZ ARND=
201106262000 METAR MRLM 262000Z 01003KT 9999 FEW020 SCT120 27/23 A2985 RMK SCT250 HZ ARND=
201106262100 METAR MRLM 262100Z 31003KT CAVOK 28/24 A2982 RMK BKN250 HZ ARND=
201106262200 METAR MRLM 262200Z 00000KT CAVOK 30/23 A2981 RMK FEW140 BKN260 HZ ARND=
201106262300 METAR MRLM 262300Z 36008KT CAVOK 28/24 A2981 RMK FEW130 BKN250 HZ ARND=
201106270000 METAR MRLM 270000Z 33005KT CAVOK 27/23 A2983 RMK SCT130 SCT250 HZ ARND=
201106270100 METAR MRLM NIL=
201106270200 METAR MRLM NIL=
201106270300 METAR MRLM NIL=
201106270400 METAR MRLM NIL=
201106270500 METAR MRLM NIL=
201106270600 METAR MRLM NIL=
201106270700 METAR MRLM NIL=
201106270800 METAR MRLM NIL=
201106270900 METAR MRLM NIL=
201106271000 METAR MRLM NIL=
201106271100 METAR MRLM NIL=
201106271200 METAR MRLM NIL=
201106271300 METAR MRLM 271300Z 00000KT CAVOK 24/23 A2988 RMK FEW140 FEW160 BKN270 CB RN DST NE E SE=
201106271400 METAR MRLM 271400Z 00000KT CAVOK 25/23 A2990 RMK FEW110 FEW160 BKN270 CB RN DST NE E SE=
201106271500 METAR MRLM 271500Z 12004KT CAVOK 27/23 A2991 RMK SCT120 SCT270 CB RN DST NE E SE=
201106271600 METAR MRLM 271600Z 09004KT CAVOK 27/24 A2990 RMK FEW120 SCT140 SCT270 CB RN DST NE E SE HZ LEVE ARND CB DST NW=
201106271700 METAR MRLM 271700Z 12009KT 9999 FEW020 SCT140 28/24 A2990 RMK FEW090 FEW270 CB RN DST E HZ LEVE ARND=
201106271800 METAR MRLM 271800Z 12009KT 9999 FEW020 BKN140 28/24 A2988 RMK FEW270 CB RN DST E=
201106271900 METAR MRLM 271900Z 12011KT CAVOK 28/23 A2986 RMK SCT120 SCT140 FEW270 CB DST E HZ LEVE ARND=
201106272000 METAR MRLM 272000Z 13008KT 9999 FEW035 BKN250 29/22 A2982 RMK FEW110 CB RN DST E CB DST SW W HZ LEVE ARND=
201106272100 METAR MRLM 272100Z 09007KT 9999 FEW025 SCT130 29/24 A2981 RMK SCT260 CB DST QUAD S W HZ LGT ARND=
201106272200 METAR MRLM 272200Z 10007KT CAVOK 29/24 A2981 RMK FEW080 SCT110 SCT260 CB QUAD S W=
201106272300 METAR MRLM 272300Z 07009KT CAVOK 28/24 A2981 RMK FEW100 SCT140 FEW260 CB DST SE W HZ LGT ARND=
201106280000 METAR MRLM 280000Z 05008KT CAVOK 28/23 A2981 RMK SCT090 SCT140 FEW260 CB DST N NE SW W HZ LGT ARND=
201106280100 METAR MRLM NIL=
201106280200 METAR MRLM NIL=
201106280300 METAR MRLM NIL=
201106280400 METAR MRLM NIL=
201106280500 METAR MRLM NIL=
201106280600 METAR MRLM NIL=
201106280700 METAR MRLM NIL=
201106280800 METAR MRLM NIL=
201106280900 METAR MRLM NIL=
201106281000 METAR MRLM NIL=
201106281100 METAR MRLM NIL=
201106281200 METAR MRLM 281200Z NIL=
201106281300 METAR MRLM 281300Z 20003KT 9999 BKN020 25/23 A2986 RMK FEW090 CB RA DST HZ ARND=
201106281400 METAR MRLM 281400Z 04003KT 9999 FEW035 SCT080 29/23 A2988 RMK SCT270 HZ ARND CB RA DST W TO E=
201106281500 METAR MRLM 281500Z 00000KT CAVOK 29/22 A2986 RMK FEW090 FEW140 BKN260 HZ ARND CB DST NW/N/NE/E=
201106281600 METAR MRLM 281600Z 05007KT CAVOK 29/23 A2987 RMK FEW140 BKN270 CB DST NE HZ ARND=
201106281700 METAR MRLM 281700Z 06006KT 9999 FEW025 BKN260 29/24 A2986 RMK CB DST NW NE E HZ ARND=
201106281800 METAR MRLM 281800Z 04006KT 9999 FEW025 SCT140 30/24 A2985 RMK FEW160 FEW260 CB DST NW N RA DST NE HZ LGT ARND=
201106281900 METAR MRLM 281900Z 03008KT 9999 FEW020 BKN140 29/25 A2984 RMK FEW260 CB DST NW HZ ARND=
201106282000 METAR MRLM 282000Z 03004KT 9999 SCT025 SCT140 29/24 A2982 RMK FEW270 HZ ARND=
201106282100 METAR MRLM 282100Z 03004KT 9999 FEW025 SCT140 30/25 A2981 RMK FEW090 FEW270 LGT HZ ARND=
201106282200 METAR MRLM 282200Z 05004KT 9999 FEW025 30/24 A2980 RMK FEW140 FEW270 CB DST W/E LGT HZ ARND=
201106282300 METAR MRLM 282300Z 00000KT 9999 FEW025 30/24 A2981 RMK FEW280 CB DST NE LGT HZ ARND=
201106290000 METAR MRLM 290000Z 00000KT 9999 FEW020 BKN280 28/25 A2981 RMK CB DST NE/S/W LGT HZ ARND=
201106290100 METAR MRLM NIL=
201106290200 METAR MRLM NIL=
201106290300 METAR MRLM NIL=
201106290400 METAR MRLM NIL=
201106290500 METAR MRLM NIL=
201106290600 METAR MRLM NIL=
201106290700 METAR MRLM NIL=
201106290800 METAR MRLM NIL=
201106290900 METAR MRLM NIL=
201106291000 METAR MRLM NIL=
201106291100 METAR MRLM NIL=
201106291200 METAR MRLM 291200Z 00000KT 9999 FEW010 SCT100 25/23 A2984 RMK SCT250 CB TS DST QUAD N HZ ARND=
201106291300 METAR MRLM 291300Z 24003KT 9999 FEW015 SCT110 26/24 A2986 RMK SCT250 CB/TS DST N/NE HZ ARND=
201106291400 METAR MRLM 291400Z 31004KT 9999 FEW020 SCT120 28/24 A2986 RMK SCT250 CB DST NE/E HZ ARND=
201106291500 METAR MRLM 291500Z 24003KT CAVOK 29/24 A2988 RMK SCT120 SCT250 CB DST NE/E/SE HZ ARND=
201106291600 METAR MRLM 291600Z 05005KT 9999 FEW020 BKN120 30/25 A2989 RMK FEW250 CB DST SE HZ ARND=
201106291700 METAR MRLM 291700Z 02007KT 9999 SCT030 SCT260 31/24 A2985 RMK HZ ARND=
201106291800 METAR MRLM 291800Z 35007KT 9999 FEW035 SCT260 31/24 A2984 RMK TCU SW HZ ARND=
201106291900 METAR MRLM 291900Z 02008KT CAVOK 31/24 A2982 RMK SCT260 CB DST SW HZ ARND=
201106292000 METAR MRLM 292000Z 01007KT 9999 FEW030 BKN250 30/24 A2980 RMK FEW130 CB DST S/SW HZ ARND=
201106292100 METAR MRLM 292100Z 02008KT 9999 SCT025 SCT250 30/25 A2978 RMK CB DST S HZ ARND=
201106292200 METAR MRLM 292200Z 04005KT 9999 SCT025 SCT250 30/24 A2979 RMK CB S SW HZ ARND=
201106292300 METAR MRLM 292300Z 00000KT 9999 BKN025 SCT250 30/24 A2980 RMK CB S SW N HZ ARND=
201106300000 METAR MRLM 300000Z 00000KT 9999 BKN020 SCT250 28/25 A2981 RMK CB S SW N NE TCU W HZ ARND=
201106300100 METAR MRLM NIL=
201106300200 METAR MRLM NIL=
201106300300 METAR MRLM NIL=
201106300400 METAR MRLM NIL=
201106300500 METAR MRLM NIL=
201106300600 METAR MRLM NIL=
201106300700 METAR MRLM NIL=
201106300800 METAR MRLM NIL=
201106300900 METAR MRLM NIL=
201106301000 METAR MRLM NIL=
201106301100 METAR MRLM NIL=
201106301200 METAR MRLM 301200Z 25002KT 9999 SCT010 SCT100 23/22 A2983 RMK FEW250 CB RA DST N HZ ARND=
201106301300 METAR MRLM 301300Z 00000KT 9999 FEW010 SCT110 24/23 A2985 RMK SCT250 CB RA DST N HZ ARND=
201106301400 METAR MRLM 301400Z 00000KT 9999 FEW010 BKN250 25/23 A2985 RMK FEW110 CB NW HZY=
201106301500 METAR MRLM 301500Z 30003KT CAVOK 26/23 A2987 RMK SCT120 SCT250 HZ ARND=
201106301600 METAR MRLM 301600Z 27006KT CAVOK 28/23 A2988 RMK SCT120 BKN250 HZ ARND=
201106301700 METAR MRLM 301700Z 30003KT CAVOK 30/23 A2986 RMK FEW120 BKN250 HZ ARND=
201106301800 METAR MRLM 301800Z 06006KT 9999 FEW030 BKN250 30/24 A2984 RMK HZ ARND=
201106301900 METAR MRLM 301900Z 01009KT 9999 FEW025 BKN250 29/25 A2981 RMK HZ ARND=
201106302000 METAR MRLM 302000Z 02007KT 9999 FEW025 BKN250 29/24 A2979 RMK HZ ARND=
201106302100 METAR MRLM 302100Z 02007KT 9999 SCT020 BKN250 29/25 A2978 RMK CB DST S SW HZ ARND=
201106302200 METAR MRLM 302200Z 03006KT 9999 BKN020 SCT250 29/25 A2977 RMK CB DST SW HZ ARND=
201106302300 METAR MRLM 302300Z 06006KT 9999 BKN020 SCT250 29/24 A2978 RMK RN DST S SW HZ ARND=
201107010000 METAR MRLM 010000Z 00000KT 9999 BKN020 28/24 A2979 RMK FEW250 CB RN DST S SW HZ ARND=
201107010100 METAR MRLM NIL=
201107010200 METAR MRLM NIL=
201107010300 METAR MRLM NIL=
201107010400 METAR MRLM NIL=
201107010500 METAR MRLM NIL=
201107010600 METAR MRLM NIL=
201107010700 METAR MRLM NIL=
201107010800 METAR MRLM NIL=
201107010900 METAR MRLM NIL=
201107011000 METAR MRLM NIL=
201107011100 METAR MRLM NIL=
201107011200 METAR MRLM NIL=
201107011215 METAR MRLM 011215Z 00000KT 9999 BKN015 24/22 A2983 RMK FEW080 FEW120 CB DST QUAD N RN/HZ ANRD=
201107011300 METAR MRLM 011300Z 23004KT 9999 FEW015 BKN140 24/22 A2983 RMK FEW080 FEW250 CB RN DST N QD LGT HZ ARND=
201107011400 METAR MRLM 011400Z 24004KT CAVOK 25/23 A2984 RMK FEW080 BKN140 FEW260 CBS RN DST NW N NE E LGT HZ ARND=
201107011500 METAR MRLM 011500Z 22003KT CAVOK 27/23 A2985 RMK SCT140 SCT260 HZ ARND=
201107011600 METAR MRLM 011600Z 00000KT 9999 FEW030 SCT140 28/23 A2985 RMK SCT260 HZ ARND=
201107011700 METAR MRLM 011700Z 09004KT 9999 FEW030 SCT140 29/23 A2985 RMK SCT260 RN SW CB DST NW LGT HZ ARND=
201107011800 METAR MRLM 011800Z 04004KT 9999 FEW025 BKN130 28/23 A2983 RMK FEW260 HZ ARND RN DST S CB DST W NW NE=
201107011900 METAR MRLM 011900Z 04007KT 9999 FEW025 BKN130 29/23 A2982 RMK FEW140 FEW260 RN DST SW S CB DST N NW NE SE=
201107012000 METAR MRLM 012000Z 03006KT 9999 FEW025 SCT130 29/24 A2979 RMK SCT260 CBS RN DST W N E QDS LGT HZ ARND=
201107012100 METAR MRLM 012100Z 02005KT 9999 FEW025 SCT090 29/24 A2979 RMK SCT260 CB HZ DST ARND RN DST QUAD S W=
201107012200 METAR MRLM 012200Z 00000KT 9999 FEW025 BKN110 29/23 A2979 RMK FEW260 CB HZ DST ARND RN DST QUAD S W=
201107012300 METAR MRLM 012300Z 25005KT 9999 BKN018 27/24 A2981 RMK FEW110 CB RN DST QUAD S W HZ LEVE ARND=
201107020000 METAR MRLM 020000Z 22003KT 9999 DZ VCSH FEW010 BKN090 26/24 A2983 RMK FEW140 VIS 8000 QUAD S CB DST SE W=
201107020100 METAR MRLM NIL=
201107020200 METAR MRLM NIL=
201107020300 METAR MRLM NIL=
201107020400 METAR MRLM NIL=
201107020500 METAR MRLM NIL=
201107020600 METAR MRLM NIL=
201107020700 METAR MRLM NIL=
201107020800 METAR MRLM NIL=
201107020900 METAR MRLM NIL=
201107021000 METAR MRLM NIL=
201107021100 METAR MRLM NIL=
201107021200 METAR MRLM NIL=
201107021300 METAR MRLM 021300Z 24003KT 9999 FEW015 BKN110 23/22 A2988 RMK FEW260 CB RN DST QUAD N E HZ ARND=
201107021400 METAR MRLM 021400Z 22002KT 9999 FEW015 BKN140 25/22 A2990 RMK FEW260 CB RN DST N NE E HZ LEVE ARND=
201107021500 METAR MRLM 021500Z 29006KT CAVOK 27/21 A2989 RMK FEW150 BKN260 HZ LEVE ARND CB RN DST NE E=
201107021600 METAR MRLM 021600Z 36004KT 9999 FEW035 BKN260 29/22 A2989 RMK FEW140 CB RN DST NE HZ LEVE ARND=
201107021700 METAR MRLM 021700Z 36010KT 9999 FEW028 BKN270 29/23 A2988 RMK FEW140 CB RN DST NE CB DST NW HZ LEVE ARND=
201107021800 METAR MRLM 021800Z 01010KT 9999 FEW025 BKN140 29/24 A2988 RMK FEW270 CB RN DST N NE TCU DST S HZ LEVE ARND=
201107021900 METAR MRLM 021900Z 01009KT 9999 FEW030 SCT140 29/23 A2985 RMK SCT270 CB RN DST N NE SE S SW=
201107022000 METAR MRLM 022000Z 33006KT 9999 +DZ FEW020 BKN140 28/23 A2983 RMK FEW270 CB RN DST QUAD S W=
201107022100 METAR MRLM 022100Z 24004KT 9999 +DZ FEW010 SCT100 26/24 A2982 RERA RMK SCT14 0 CB RA DST QUAD S/W=
201107022200 METAR MRLM 022200Z 22004KT 9999 SCT010 SCT080 26/24 A2980 REDZ RMK FEW140 FEW270 CB RA QUAD S/W=
201107022300 METAR MRLM 022300Z 22004KT 9999 SCT012 BKN080 26/24 A2981 RMK CB RA DST QUA E/S/W=
201107030000 METAR MRLM 030000Z 23003KT 9999 VCSH SCT010TCU BKN090 25/24 A2984 RMK CB RA QUAD E S VIS QUAD N 5KM=
201107030100 METAR MRLM NIL=
201107030200 METAR MRLM NIL=
201107030300 METAR MRLM NIL=
201107030400 METAR MRLM NIL=
201107030500 METAR MRLM NIL=
201107030600 METAR MRLM NIL=
201107030700 METAR MRLM NIL=
201107030800 METAR MRLM NIL=
201107030900 METAR MRLM NIL=
201107031000 METAR MRLM NIL=
201107031100 METAR MRLM NIL=
201107031200 METAR MRLM 031200Z NIL=
201107031300 METAR MRLM 031300Z 24004KT 9999 FEW015 BKN280 25/22 A2984 RMK HZ LGT ARND CB TCU DST E=
201107031400 METAR MRLM 031400Z 00000KT 9999 FEW025 BKN280 28/22 A2985 RMK CB RA DST E HZ LGT ARND=
201107031500 METAR MRLM 031500Z 27003KT 9999 VCTS FEW010CB FEW025 BKN280 27/22 A2985 RMK FEW090 FEW140 CB TS DST E=
201107031600 METAR MRLM 031600Z 00000KT 9999 FEW025 SCT260 29/22 A2986 RMK FEW120 FEW150 CB RA DST NE E=
201107031700 METAR MRLM 031700Z 04004KT 9999 FEW030 SCT140 28/22 A2986 RMK SCT250 CB RA DST N NE E CB DST S W=
201107031800 METAR MRLM 031800Z 02008KT 9999 FEW030 BKN250 28/23 A2985 RMK FEW140 CB DST ARND RA DST N NE=
201107031900 METAR MRLM 031900Z 01008KT 9999 FEW035 BKN250 29/22 A2982 RMK FEW150 RA DST NE S SW CB DST ARND=
201107032000 METAR MRLM 032000Z 01007KT 9999 FEW025 BKN250 29/23 A2980 RMK FEW150 CB DST ARND RA DST QUAD S W=
201107032100 METAR MRLM 032100Z 02007KT 9999 FEW035 BKN250 29/22 A2978 RMK FEW120 CB/RN DST QUAD S/W LGT HZ ARND=
201107032200 METAR MRLM 032200Z 03004KT 9999 FEW030 SCT250 28/23 A2978 RMK FEW120 FEW150 CB/RN DST QUAD S/W=
201107032300 METAR MRLM 032300Z 03003KT 9999 FEW030 SCT100 28/22 A2978 RMK SCT260 CB/RN DST QUAD S/W LGT HZ ARND=
201107040000 METAR MRLM 040000Z 00000KT 9999 FEW018 SCT110 27/23 A2981 RMK SCT250 CB DST QUAD S/W RN DST SE/S/W=
201107040100 METAR MRLM NIL=
201107040200 METAR MRLM NIL=
201107040300 METAR MRLM NIL=
201107040400 METAR MRLM NIL=
201107040500 METAR MRLM NIL=
201107040600 METAR MRLM NIL=
201107040700 METAR MRLM NIL=
201107040800 METAR MRLM NIL=
201107040900 METAR MRLM NIL=
201107041000 METAR MRLM NIL=
201107041100 METAR MRLM NIL=
201107041200 METAR MRLM NIL=
201107041300 METAR MRLM 041300Z 24004KT CAVOK 26/23 A2987 RMK FEW100 FEW140 BKN270 CB RA N E HZ ARND=
201107041400 METAR MRLM 041400Z 25004KT CAVOK 29/23 A2988 RMK SCT110 FEW140 BKN270 CB RA N NE E HZ ARND=
201107041500 METAR MRLM 041500Z 24004KT 9999 FEW012 SCT250 28/23 A2985=
201107041600 METAR MRLM 041600Z 12005KT 9999 FEW030 BKN270 29/23 A2986 RMK FEW120 CB E HZ ARND=
201107041700 METAR MRLM 041700Z 01009KT 9999 FEW030 BKN270 29/24 A2984 RMK CB NW FEW120 HZ ARND=
201107041800 METAR MRLM 041800Z 01009KT 9999 FEW028 BKN270 29/24 A2983 RMK CB DST W HZ ARND=
201107041900 METAR MRLM 041900Z 01009KT 9999 FEW028 BKKN270 30/24 A2981 RMK CB SE S SW W HZ ARND=
201107042000 METAR MRLM 042000Z 03007KT 9999 FEW020 BKN270 29/24 A2980 RMK CB S W HZ ARND=
201107042100 METAR MRLM 042100Z 03007KT 9999 FEW025 BKN270 29/24 A2978 RMK CB SE S W HZ ARND=
201107042200 METAR MRLM 042200Z 02006KT 9999 FEW028 BKN280 29/24 A9277 RMK CB S W HZ ARND=
201107042300 METAR MRLM 042300Z 02005KT 9999 FEW028 BKN280 29/24 A2979 RMK CB QUAD S W HZ ARND=
201107050000 METAR MRLM 050000Z 35004KT 9999 FEW025 BKN280 28/23 A2980 RMK CB DST QUAD S W HZ ARND CB DST N=
201107050100 METAR MRLM NIL=
201107050200 METAR MRLM NIL=
201107050300 METAR MRLM NIL=
201107050400 METAR MRLM NIL=
201107050500 METAR MRLM NIL=
201107050600 METAR MRLM NIL=
201107050700 METAR MRLM NIL=
201107050800 METAR MRLM NIL=
201107050900 METAR MRLM NIL=
201107051000 METAR MRLM NIL=
201107051100 METAR MRLM NIL=
201107051200 METAR MRLM NIL=
201107051300 METAR MRLM 051300Z 23004KT CAVOK 26/24 25/24 A2986 RMK FEW140 BKN280 CB NW N HZY ARND=
201107051400 METAR MRLM NIL=
201107051500 METAR MRLM 051500Z 30006KT 9999 FEW040 SCT280 31/22 A2989 RMK TCU N HZ ARND=
201107051600 METAR MRLM 051600Z 02010KT 9999 FEW030 SCT280 30/24 A2989 RMK HZ ARND=
201107051700 METAR MRLM 051700Z 02008KT 9999 FEW035 BKN280 30/24 A2987 RMK CB E HZ W=
201107051800 METAR MRLM 051800Z 03009KT 9999 FEW035 BKN280 30/23 A2985 RMK CB NE E HZ ARND=
201107051900 METAR MRLM 051900Z 03007KT 9999 FEW035 BKN280 30/23 A2984 RMK CB N NE E SE HZ ARND=
201107052000 METAR MRLM 052000Z 04006KT 9999 FEW030 BKN280 30/24 A2982 RMK FEW150 CB HZ ARND=
201107052100 METAR MRLM 052100Z 02005KT 9999 FEW030 BKN280 30/24 A2980 RMK FEW150 CB HZ DST ARND=
201107052200 METAR MRLM 052200Z 05004KT 9999 FEW030 SCT120 29/24 A2980 RMK CB HZ DST ARND SCT270=
201107052300 METAR MRLM 052300Z 06003KT 9999 SCT025 SCT270 29/24 A2981 RMK CBS DST S W QDS LGT HZ ARND=
201107060000 METAR MRLM 060000Z 08005KT 9999 BKN025 29/24 A2983 RMK FEW120 FEW270 CBS DST S W LGT HZ ARND=
201107060100 METAR MRLM NIL=
201107060200 METAR MRLM NIL=
201107060300 METAR MRLM NIL=
201107060400 METAR MRLM NIL=
201107060500 METAR MRLM NIL=
201107060600 METAR MRLM NIL=
201107060700 METAR MRLM NIL=
201107060800 METAR MRLM NIL=
201107060900 METAR MRLM NIL=
201107061000 METAR MRLM NIL=
201107061100 METAR MRLM NIL=
201107061200 METAR MRLM NIL=
201107061300 METAR MRLM 061300Z 24004KT CAVOK 24/22 A2987 RMK FEW140 BKN280 CB RN DST N LGT HZ ARND=
201107061400 METAR MRLM 061400Z 25003KT CAVOK 28/23 A2988 RMK BKN270 CBS RN DST NE LGT HZ ARND=
201107061500 METAR MRLM 061500Z 29006KT CAVOK 30/21 A2987 RMK FEW140 BKN260 CBS RN DST NE E LGT HZ ARND=
201107061600 METAR MRLM 061600Z 32005KT 9999 FEW035 BKN260 30/22 A2987 RMK FEW140 CBS RN DST NE E LGT HZ ARND=
201107061700 METAR MRLM 061700Z 36006KT 9999 FEW038 SCT130 30/22 A2988 RMK SCT150 SCT260 CBS RN DST NW N NE E HZY=
201107061800 METAR MRLM 061800Z 01003KT 9999 FEW035 BKN140 29/23 A2986 RMK FEW260 CBS RN DST N NE E HZ ARND=
201107061900 METAR MRLM 061900Z 01004KT 9999 FEW028 SCT110 30/22 A2987 RMK SCT150 FEW260 CB DST NW N NE E RN DST NE E=
201107062000 METAR MRLM 062000Z 04004KT 9999 FEW025 BKN090 29/24 A2989 RMK CBS RN DST NE E FEW260 LGT HZ ARND=
201107062100 METAR MRLM 062100Z 00000KT CAVOK 29/24 A2980 RMK CB DST E SCT090 SCT150 FEW260 HZ LEVE ARND=
201107062200 METAR MRLM 062200Z 02006KT 9999 FEW025 BKN090 29/23 A2980 RMK FEW150 FEW260 RN DST S HZ LEVE ARND=
201107062300 METAR MRLM 062300Z 00000KT 9999 FEW028 BKN080 29/23 A2983 RMK RN DST E HZ LEVE ARND=
201107070000 METAR MRLM 070000Z 00000KT 9999 FEW020 BKN080 28/24 A2984 RMK CB DST W RN DST E SE HZ LEVE ARND=
201107070100 METAR MRLM NIL=
201107070200 METAR MRLM NIL=
201107070300 METAR MRLM NIL=
201107070400 METAR MRLM NIL=
201107070500 METAR MRLM NIL=
201107070600 METAR MRLM NIL=
201107070700 METAR MRLM NIL=
201107070800 METAR MRLM NIL=
201107070900 METAR MRLM NIL=
201107071000 METAR MRLM NIL=
201107071100 METAR MRLM NIL=
201107071200 METAR MRLM NIL=
201107071300 METAR MRLM 071300Z 23003KT CAVOK 26/23 A2985 RMK FEW110 BKN270 CB RN DST NW N HZ LEVE ARND=
201107071400 METAR MRLM 071400Z 33003KT CAVOK 30/23 A2986 RMK FEW120 BKN270 CB RN DST QUAD N HZ LEVE ARND=
201107071500 METAR MRLM 071500Z 03006KT 9999 FEW030 BKN260 30/24 A2987 RMK CB DST QUAD N HZ ARND=
201107071600 METAR MRLM 071600Z 04007KT 9999 FEW030 BKN260 29/24 A2985 RMK CB DST QUAD N HZ LEVE ARND=
201107071700 METAR MRLM 071700Z 02007KT 9999 FEW030 BKN270 30/24 A2984 RMK CB DST QUAD N HZ LEVE ARND=
201107071800 METAR MRLM 071800Z 02010KT 9999 FEW030 BKN260 30/24 A2982 RMK CB DST QUAD N HZ LEVE ARND=
201107071900 METAR MRLM 071900Z 36009KT 9999 FEW030 BKN260 30/24 A2980 RMK CB DST N FEW150=
201107072000 METAR MRLM 072000Z 36009KT 9999 FEW030 BKN260 30/24 A2977 RMK FEW150 HZ LEVE ARND=
201107072100 METAR MRLM 072100Z 01010KT 9999 FEW020 SCT150 29/25 A2976 RMK SCT0260 CB DST NW HZ LGT ARND=
201107072200 METAR MRLM 072200Z 01010KT 9999 FEW020 BKN150 29/24 A2978 RMK FEW260 CB DST NW HZ LGT ARND=
201107072300 METAR MRLM 072300Z 02006KT 9999 FEW020 BKN130 29/24 A2979 RMK FEW260 CB DST NW N SE RA DST SW HZ LGT ARND=
201107080000 METAR MRLM 080000Z 03006KT 9999 FEW020 BKN130 29/24 A2980 RMK FEW120 FEW260 CB DST SE S SW HZ LGT ARND=
201107080100 METAR MRLM NIL=
201107080200 METAR MRLM NIL=
201107080300 METAR MRLM NIL=
201107080400 METAR MRLM NIL=
201107080500 METAR MRLM NIL=
201107080600 METAR MRLM NIL=
201107080700 METAR MRLM NIL=
201107080800 METAR MRLM NIL=
201107080900 METAR MRLM NIL=
201107081000 METAR MRLM NIL=
201107081100 METAR MRLM NIL=
201107081200 METAR MRLM 081200Z NIL=
201107081300 METAR MRLM 081300Z 22004KT CAVOK 28/23 A2982 RMK OVC270 CB DST NW HZ ARND=
201107081400 METAR MRLM 081400Z 05003KT CAVOK 30/23 A2983 RMK SCT270 CB DST NW HZ ARND=
201107081500 METAR MRLM 081500Z 04005KT CAVOK 30/23 A2984 RMK SCT280 CB DST NW HZ ARND=
201107081600 METAR MRLM 081600Z 01008KT 9999 FEW035 SCT280 30/23 A2985 RMK TCU DST N HZ LGT ARND=
201107081700 METAR MRLM 081700Z 02008KT 9999 FEW028 30/25 A2984 RMK TCU DST NE HZ LGT ARND=
201107081800 METAR MRLM 081800Z 03008KT 9999 FEW030 30/24 A2982 RMK TCU DST SW/S FEW280 HZ ARND=
201107081900 METAR MRLM 081900Z 03005KT 9999 FEW030 SCT280 30/24 A2979 RMK CB DST SW HZ LGT ARND=
201107082000 METAR MRLM 082000Z 04004KT 9999 FEW030 BKN280 30/24 A2977 CB DST W HZ ARND=
201107082100 METAR MRLM 082100Z 04007KT 9999 FEW028 BKN270 30/26 A2977 RMK CB DST NW HZ ARND=
201107082200 METAR MRLM 082200Z 05007KT 9999 FEW028 BKN270 30/25 A2977 CB DST W HZ ARND=
201107082300 METAR MRLM 082300Z 04004KT 9999 BKN025 29/24 A2978 RMK FEW280 CB DST SW HZ ARND=
201107090000 METAR MRLM 090000Z 04003KT 9999 BKN025 29/24 A2979 RMK CB DST SW W FEW280 HZ ARND=
201107090100 METAR MRLM NIL=
201107090200 METAR MRLM NIL=
201107090300 METAR MRLM NIL=
201107090400 METAR MRLM NIL=
201107090500 METAR MRLM NIL=
201107090600 METAR MRLM NIL=
201107090700 METAR MRLM NIL=
201107090800 METAR MRLM NIL=
201107090900 METAR MRLM NIL=
201107091000 METAR MRLM NIL=
201107091100 METAR MRLM NIL=
201107091200 METAR MRLM 091200Z NIL=
201107091230 METAR MRLM 091230Z 24004KT 9999 TS SCT010CB FEW015 SCT130 24/22 A2983 RMK FEW250 TS TM DST QUAD N=
201107091300 METAR MRLM 091300Z 28003KT 9999 VCSH FEW015 SCT130 24/22 A2985 RETS RMK FEW080 FEW250 CB QUAD N VIS 8KM N NE=
201107091400 METAR MRLM 091400Z 25004KT 9999 DZ FEW010 BKN080 24/23 A2986 RMK FEW250 CB RN NW N NE E HZ ARND=
201107091500 METAR MRLM 091500Z 29004KT CAVOK 28/24 A2986 REDZ RMK FEW080 SCT130 FEW270 CB DST RN NW HZ ARND=
201107091600 METAR MRLM 091600Z 31006KT CAVOK 30/24 A2984 RMK BKN130 SCT270 TSTM DST NE CB N NE E HZ ARND=
201107091700 METAR MRLM 091700Z 30003KT 9999 FEW020 SCT130 29/24 A2984 RMK CB RN DST N NE E FEW100 FEW250=
201107091800 METAR MRLM 091800Z 25006KT 9999 FEW025 SCT110 29/24 A2985 RMK SCT140 FEW250 HZ ARND CB RN DST N NE E=
201107091900 METAR MRLM 091900Z 35008KT 9999 FEW028 SCT080 29/24 A2983 RMK SCT140 CB DST HZ ARND RN DST N NE E=
201107092000 METAR MRLM 092000Z 32003KT 9999 +DZ BKN130 28/24 A2981 RMK CB DST HZ ARND FEW250=
201107092100 METAR MRLM 092100Z 31003KT 9999 +DZ FEW015 BKN130 28/24 A2978 RMK FEW080 CB DST N/SE/W HZ ARND=
201107092200 METAR MRLM 092200Z 02006KT 9999 BKN015 28/25 A2978 REDZ RMK HZ ARND FEW120=
201107092300 METAR MRLM 092300Z 26002KT 9999 FEW015 SCT080 28/25 A2981 RMK SCT260 RN DST E/SE HZ ARND=
201107100000 METAR MRLM 100000Z 30003KT 9999 FEW010 SCT090 27/25 A2992 RMK SCT250 CB DST N/NE/W HZ ARND=
201107100100 METAR MRLM NIL=
201107100200 METAR MRLM NIL=
201107100300 METAR MRLM NIL=
201107100400 METAR MRLM NIL=
201107100500 METAR MRLM NIL=
201107100600 METAR MRLM NIL=
201107100700 METAR MRLM NIL=
201107100800 METAR MRLM NIL=
201107100900 METAR MRLM NIL=
201107101000 METAR MRLM NIL=
201107101100 METAR MRLM NIL=
201107101200 METAR MRLM 101200Z NIL=
201107101300 METAR MRLM 101300Z 24003KT 9999 FEW025 BKN140 25/24 A2983 RMK CB RN HZ ARND=
201107101400 METAR MRLM 101400Z 24003KT 9999 FEW020 SCT100 26/24 A2984 RMK SCT250 CB RA NE E TSTM DST NE=
201107101500 METAR MRLM 101500Z 18003KT 9999 RA VCTS FEW010CB SCT015 SCT090 2724 A2987 RMK 7KMS N NE HZ ARND=
201107101600 METAR MRLM 101600Z 05003KT 8000 RA FEW012 SCT120 27/24 A2987 RETS RMK SCT120 CB QUAD N E VIS QUAD S UNL=
201107101700 METAR MRLM 101700Z 32004KT 9999 FEW010 SCT025 28/24 A2986 RERA CB RA HZ ARND=
201107101800 METAR MRLM 101800Z 30003KT 9999 BKN015 26/24 A2986 REDZ RMK CB RA HZ ARND FEW090 FEW130=
201107101900 METAR MRLM 101900Z 00000KT 9999 FEW015 BKN140 28/25 A2983 RMK FEW250 CB RA HZ ARND=
201107102000 METAR MRLM 102000Z 33007KT CAVOK 29/24 A2978 RMK SCT080 SCT150 CB QUAD N RA E W HZ ARND=
201107102100 METAR MRLM 102100Z 29003KT CAVOK 28/24 A2978 RMK BKN080 FEW130 RMK CB DST N NW HZ ARND=
201107102200 METAR MRLM 202200Z 29003KT CAVOK 28/24 A2978 RMK FEW090 BKN130 HZ ARD=
201107102300 METAR MRLM 102300Z 26003KT CAVOK 27/24 A2980 RMK FEW080 FEW150 SCT250 HZ ARND=
201107110000 METAR MRLM 110000Z 25003KT CAVOK 27/24 A2981 RMK SCT090 FEW250 HZY=
201107110100 METAR MRLM NIL=
201107110200 METAR MRLM NIL=
201107110300 METAR MRLM NIL=
201107110400 METAR MRLM NIL=
201107110500 METAR MRLM NIL=
201107110600 METAR MRLM NIL=
201107110700 METAR MRLM NIL=
201107110800 METAR MRLM NIL=
201107110900 METAR MRLM NIL=
201107111000 METAR MRLM NIL=
201107111100 METAR MRLM NIL=
201107111200 METAR MRLM 111200Z 26003KT 9999 FEW010 BKN100 24/23 A2983 RMK CB RA DST NW N HZ ARND=
201107111300 METAR MRLM 111300Z 00000KT 9999 FEW015 SCT250 25/23 A2985 RMK FEW110 RN DST N HZ ARND=
201107111400 METAR MRLM 111400Z 31005KT CAVOK 28/23 A2986 RMK FEW120 BKN260 RN DST N NE HZ ARND=
201107111500 METAR MRLM 111500Z 00000KT CAVOK 29/23 A2988 RMK FEW120 BKN260 CB RN DST N NE HZ ARND=
201107111600 METAR MRLM 111600Z 26003KT 9999 FEW025 SCT250 29/24 A2988 SCT120 CB RN DST N HZ ARND=
201107111700 METAR MRLM 111700Z 28004KT 9999 FEW025 SCT250 29/24 A2987 RMK SCT110 CB RN DST N HZ ARND=
201107111800 METAR MRLM 111800Z 30006KT CAVOK 30/24 A2983 RMK SCT120 BKN250 RN DST N HZ ARND=
201107111900 METAR MRLM 111900Z 33009KT 9999 FEW030 BKN250 29/24 A2982 RMK FEW120 RN DST NW N HZ ARND=
201107112000 METAR MRLM 112000Z 34009KT 9999 SCT025 BKN250 29/24 A2980 RMK RN DST N HZ ARND=
201107112100 METAR MRLM 112100Z 34009KT 9999 BKN020 29/24 A2978 RMK FEW250 HZ ARND=
201107112200 METAR MRLM 112200Z 35008KT 9999 SCT025 SCT250 29/24 A2997 RMK FEW120 RA DST S SW HZ ARND=
201107112300 METAR MRLM 112300Z 35007KT 9999 BKN020 28/24 A2984 RMK FEW120 CB RA DST SW HZ ARND=
201107120000 METAR MRLM 120000Z 36008KT 9999 BKN015 27/24 A2986 RMK FEW100 CB RA DST QUAD S HZ ARND=
201107120100 METAR MRLM NIL=
201107120200 METAR MRLM NIL=
201107120300 METAR MRLM NIL=
201107120400 METAR MRLM NIL=
201107120500 METAR MRLM NIL=
201107120600 METAR MRLM NIL=
201107120700 METAR MRLM NIL=
201107120800 METAR MRLM NIL=
201107120900 METAR MRLM NIL=
201107121000 METAR MRLM NIL=
201107121100 METAR MRLM NIL=
201107121200 METAR MRLM 121200Z 21004KT 9999 FEW010 BKN110 23/22 A2990 RMK CB RA DST N HZ ARND=
201107121300 METAR MRLM 121300Z 23003KT 9999 FEW010 BKN110 25/23 A2992 RMK FEW250 RA DST NW HZ ARND=
201107121400 METAR MRLM 121400Z 00000KT 9999 FEW020 BKN120 27/23 A2994 RMK HZ ARND=
201107121500 METAR MRLM 121500Z 10003KT CAVOK 27/22 A2994 RMK BKN120 HZ ARND=
201107121600 METAR MRLM 121600Z 00000KT CAVOK 29/22 A2995 RMK SCT130 SCT250 HZ ARND=
201107121700 METAR MRLM 121700Z 03004KT CAVOK 28/22 A2994 RMK SCT130 BKN250 HZ LEVE ARND=
201107121800 METAR MRLM 121800Z 36008KT 9999 FEW030 SCT130 29/23 RMK SCT250 HZ LEVE ARND=
201107121900 METAR MRLM 121900Z 33008KT 9999 FEW035 SCT140 30/22 A2991 RMK SCT250 HZ LEVE ARND=
201107122000 METAR MRLM 122000Z 33008KT 9999 FEW035 BKN250 29/23 A2990 RMK FEW130 HZ LEVE ARND=
201107122100 METAR MRLM 122100Z 33007KT 9999 FEW040 BKN260 30/22 A2988 RMK FEW140 CB RA DST S HZ LGT ARND=
201107122200 METAR MRLM 122200Z 33009KT 9999 FEW035 SCT140 30/22 A2988 RMK SCT260 CB RA DST S HZ ARND=
201107122300 METAR MRLM 122300Z 33006KT 9999 FEW030 BKN130 29/23 A2990 RMK FEW250 CB RA DST SW HZ ARND=
201107130000 METAR MRLM 130000Z 32003KT 9999 FEW020 BKN110 28/29 A2991 RMK CB RA DST SW HAZ ARND=
201107130100 METAR MRLM NIL=
201107130200 METAR MRLM NIL=
201107130300 METAR MRLM NIL=
201107130400 METAR MRLM NIL=
201107130500 METAR MRLM NIL=
201107130600 METAR MRLM NIL=
201107130700 METAR MRLM NIL=
201107130800 METAR MRLM NIL=
201107130900 METAR MRLM NIL=
201107131000 METAR MRLM NIL=
201107131100 METAR MRLM NIL=
201107131200 METAR MRLM NIL=
201107131300 METAR MRLM 131300Z 24005KT 9999 FEW015 BKN090 25/22 A2993 RMK FEW140 HZ ARND CB RA DST QUAD E N=
201107131400 METAR MRLM 131400Z 28005KT 9999 FEW015 BKN100 26/22 A2994 RMK CB RA DST QUAD N=
201107131500 METAR MRLM 131500Z 31006KT 9999 FEW020 BKN090 27/22 A2995 RMK FEW150 HZ ARND=
201107131600 METAR MRLM 131600Z 31006KT 9999 FEW025 SCT090 27/22 A2996 RMK FEW140 CB RA DST W NW N NE E=
201107131700 METAR MRLM 131700Z 35006KT 9999 FEW025 BKN100 28/22 A2995 RMK FEW150 HZ LGT ARND CB RA DST NW N NE E=
201107131800 METAR MRLM 131800Z 01009KT 9999 SCT025 SCT090 27/23 A2993 RMK FEW140 HZ ARND CB RA DST QUAD N E=
201107131900 METAR MRLM 131900Z 36006KT 9999 BKN025 27/22 A2993 RMK FEW090 FEW140 CB RA HZ DST ARND=
201107132000 METAR MRLM 132000Z 35007KT 9999 FEW025 SCT080 27/22 A2989 RMK SCT120 HZ ARND CB RA DST=
201107132100 METAR MRLM 132100Z 32006KT 9999 BKN025 27/22 A2988 RMK FEW110 CB RN DST QUAD W N S HZ ARND=
201107132200 METAR MRLM 132200Z 32007KT 9999 BKN025 27/22 A2987 RMK FEW110 CB RA DST HZ ARND=
201107132300 METAR MRLM 132300Z 34005KT 9999 SCT015 SCT025 27/22 A2988 RMK FEW110 CB RN DST QUAD S W=
201107140000 METAR MRLM 140000Z 31004KT 9999 FEW010 SCT020 26/22 A2989 RMK SCT100 CB RN DST QUAD S W HZ ARND DZ N E=
201107140100 METAR MRLM NIL=
201107140200 METAR MRLM NIL=
201107140300 METAR MRLM NIL=
201107140400 METAR MRLM NIL=
201107140500 METAR MRLM NIL=
201107140600 METAR MRLM NIL=
201107140700 METAR MRLM NIL=
201107140800 METAR MRLM NIL=
201107140900 METAR MRLM NIL=
201107141000 METAR MRLM NIL=
201107141100 METAR MRLM NIL=
201107141200 METAR MRLM NIL=
201107141300 METAR MRLM 141300Z 24004KT 9999 +DZ VCSH BKN015 23/22 A2989 RMK FEW120 VIS 8KM NE E HZ ARND=
201107141400 METAR MRLM 141400Z 22003KT 9999 +DZ VCSH BKN010 24/22 A2991 RMK FEW100 VIS 8KM NE E=
201107141500 METAR MRLM 141500Z 00000KT 9999 FEW012 SCT025 25/23 A2992 REDZ RMK SCT090 FEW250 CB RN DST QUAD N E=
201107141600 METAR MRLM 141600Z 29004KT 9999 FEW025 SCT080 27/22 A2991 RMK FEW150 FEW250 CB RN DST QUAD N E HZ ARND=
201107141700 METAR MRLM 141700Z 32005KT 9999 FEW025 SCT035 28/22 A2990 RMK FEW090 FEW250 CB RN DST N E SE HZ ARND=
201107141800 METAR MRLM 141800Z 35007KT 9999 FEW028 SCT090 28/22 A2988 RMK SCT250 CB RN QUAD N E HZ ARND=
201107141900 METAR MRLM 141900Z 36009KT 9999 FEW025 SCT100 28/22 A2985 RMK CB RN DST QUAD S W FEW150 FEW250 HZ ARND=
201107142000 METAR MRLM 142000Z 36008KT 9999 BKN025 28/22 A2983 RMK CB RN DST QUAD S W FEW100 FEW250=
201107142100 METAR MRLM 142100Z 01006KT 9999 BKN023 27/22 A2982 RMK CB RA DST QUAD N S FEW140 HZ SE=
201107142200 METAR MRLM 142200Z 36005KT 9999 BKN020 27/22 A2981 RMK FEW100 CB RA S W HZ SE=
201107142300 METAR MRLM 142300Z 21003KT 9999 FEW005 BKN010 25/23 A2981 RMK RA W FEW090 HZ SE=
201107150000 METAR MRLM 150000Z 27004KT 9999 VCSH BKN012 25/23 A2983 RMK FEW090 VIS W N 8KMS RA SE DZ SW=
201107150100 METAR MRLM NIL=
201107150200 METAR MRLM NIL=
201107150300 METAR MRLM NIL=
201107150400 METAR MRLM NIL=
201107150500 METAR MRLM NIL=
201107150600 METAR MRLM NIL=
201107150700 METAR MRLM NIL=
201107150800 METAR MRLM NIL=
201107150900 METAR MRLM NIL=
201107151000 METAR MRLM NIL=
201107151100 METAR MRLM NIL=
201107151200 METAR MRLM 151200Z 29007KT 9999 SCT010 SCT100 24/21 A2981 RMK RA DST N HZ ARND=
201107151300 METAR MRLM 151300Z 29007KT 9999 SCT020 SCT100 24/21 A2983 RMK RA DST NW W HZ ARND=
201107151400 METAR MRLM NIL=
201107151500 METAR MRLM 151500Z 30007KT 9999 BKN020 26/22 A2986 RMK FEW110 RA N HZ ARND=
201107151600 METAR MRLM 151600Z 30008KT 9999 BKN020 27/23 A2986 RMK FEW110 FEW250 RA NW N HZ ARND=
201107151700 METAR MRLM 151700Z 30009KT 9999 BKN025 28/23 A2985 RMK FEW120 FEW250 HZ ARND=
201107151800 METAR MRLM 151800Z 33009KT 9999 BKN030 SCT120 28/23 A2984 RMK RA DST N NE HZ ARND=
201107151900 METAR MRLM 151900Z 33009KT 9999 BKN025 SCT110 28/23 A2981 RMK RA N/NE HZ LGT ARND=
201107152000 METAR MRLM 152000Z 33011KT 9999 SCT025 27/23 A2980 RMK FEW100 RA DST N HZ ARND=
201107152100 METAR MRLM 152100Z 31008KT 9999 SCT020 BKN100 27/23 A2978 RMK TCU DST W RA DST NW/S HZ ARND=
201107152200 METAR MRLM 152200Z 29005KT 9999 BKN020 SCT100 26/23 A2978 RMK HZ ARND=
201107152300 METAR MRLM 152300Z 25003KT 9999 SCT015 BKN100 26/23 A2978 RMK RN DST SE HZ ARND=
201107160000 METAR MRLM 160000Z 00000KT 9999 FEW010 SCT100 25/23 A2979 RMK SCT250 RA DST SE HA ARND=
201107160100 METAR MRLM NIL=
201107160200 METAR MRLM NIL=
201107160300 METAR MRLM NIL=
201107160400 METAR MRLM NIL=
201107160500 METAR MRLM NIL=
201107160600 METAR MRLM NIL=
201107160700 METAR MRLM NIL=
201107160800 METAR MRLM NIL=
201107160900 METAR MRLM NIL=
201107161000 METAR MRLM NIL=
201107161100 METAR MRLM NIL=
201107161200 METAR MRLM 161200Z 21003KT 9999 FEW010 SCT100 23/22 A2981 RMK SCT250 HZ ARND=
201107161300 METAR MRLM 161300Z 00000KT CAVOK 24/23 A2982 RMK SCT110 SCT250 HZ ARND=
201107161400 METAR MRLM 161400Z 11003KT CAVOK 26/22 A2984 RMK BKN110 SCT250 RMK LGT HZ ARND=
201107161500 METAR MRLM 161500Z 10007KT 9999 FEW030 SCT120 28/22 A2986 RMK SCT260 LGT HZ ARND=
201107161600 METAR MRLM 161600Z 07006KT 9999 FEW030 BKN260 29/22 A2986 RMK FEW130=
201107161700 METAR MRLM 161700Z 07007KT 9999 FEW030 BKN130 28/23 A2986 RMK FEW260=
201107161800 METAR MRLM 161800Z 07006KT 9999 FEW025 BKN120 28/23 A2985 RMK TCU DST S LGT HZ ARND=
201107161900 METAR MRLM 161900Z 05005KT 9999 SCT025 BKN120 28/23 A2982 RMK TCU RN DST S SW CB DST N LGT HZ ARND=
201107162000 METAR MRLM 162000Z 09006KT 9999 SCT030 SCT120 29/23 A2981 RMK FEW250 CB RN DST S SW LGT HZ ARND=
201107162100 METAR MRLM 162100Z 09005KT 9999 SCT030 SCT110 28/23 A2980 RMK FEW250 CB RN DST S SW W HZ LEVE ARND=
201107162200 METAR MRLM 162200Z 00000KT 9999 FEW025 SCT110 28/23 A2978 RMK SCT250 RA DST S HZ LEVE ARND=
201107162300 METAR MRLM 162300Z 08004KT 9999 FEW020 SCT110 28/23 A2980 RMK SCT250 HZ LEVE ARND=
201107170000 METAR MRLM 170000Z 06006KT 9999 SCT020 BKN110 27/23 A2982 RMK RA DST SW HZ LEVE ARND=
201107170100 METAR MRLM NIL=
201107170200 METAR MRLM NIL=
201107170300 METAR MRLM NIL=
201107170400 METAR MRLM NIL=
201107170500 METAR MRLM NIL=
201107170600 METAR MRLM NIL=
201107170700 METAR MRLM NIL=
201107170800 METAR MRLM NIL=
201107170900 METAR MRLM NIL=
201107171000 METAR MRLM NIL=
201107171100 METAR MRLM NIL=
201107171200 METAR MRLM 171200Z 22003KT 9999 DZ FEW010 BKN025 24/23 A2989 RMK FEW140 CB RA DST W=
201107171300 METAR MRLM 171300Z 24004KT 9999 FEW010 BKN025 24/23 A2990 REDZ RMK CB RN DST QUAD W FEW140=
201107171400 METAR MRLM 171400Z 24003KT 9999 VCSH FEW006 BKN140 25/24 A2991 RMK CB RN VIS 8000 QUAD N DZ DST E SE FEW140 FEW260=
201107171500 METAR MRLM 171500Z 34004KT 9999 VCSH FEW007 SCT025 25/24 A2992 RMK SCT140 FEW270 VIS 8000NE CB RN DST NW N DZ DST E=
201107171600 METAR MRLM 171600Z 00000KT 9999 DZ FEW015 SCT150 27/24 A2991 RMK FEW260 FEW120 CB RN DST NW=
201107171700 METAR MRLM 171700Z NIL=
201107171800 METAR MRLM 171800Z 12007KT 9999 FEW030 BKN270 29/23 A2983 RMK FEW110 CB DST NE SE RN DST NE HZ LEVE ARND=
201107171900 METAR MRLM 171900Z 11008KT 9999 FEW030 BKN270 30/22 A2987 RMK FEW130 CB DST N NE SE S RN DST N NE HZ LEVE ARND=
201107172000 METAR MRLM 172000Z 11009KT 9999 FEW030 BKN250 30/23 A2986 RMK CB DST NW N NE SE S RN DST N NE TCU RN DST SW=
201107172100 METAR MRLM 172100Z 11007KT 9999 FEW035 BKN250 29/23 A2985 RMK FEW140 CB RA DST QUAD N S=
201107172200 METAR MRLM 172200Z 11006KT 9999 SCT025 SCT250 29/24 A2986 RMK FEW140 CB RA DST QUAD N S=
201107172300 METAR MRLM 172300Z 13007KT 9999 BKN025 29/24 A2987 RMK FEW110 FEW250 CB RA DST ARND=
201107180000 METAR MRLM 180000Z 15003KT 9999 FEW020 BKN140 28/23 A2986 RMK FEW090 FEW150 CB RA DST QUAD S W=
201107180100 METAR MRLM NIL=
201107180200 METAR MRLM NIL=
201107180300 METAR MRLM NIL=
201107180400 METAR MRLM NIL=
201107180500 METAR MRLM NIL=
201107180600 METAR MRLM NIL=
201107180700 METAR MRLM NIL=
201107180800 METAR MRLM NIL=
201107180900 METAR MRLM NIL=
201107181000 METAR MRLM NIL=
201107181100 METAR MRLM NIL=
201107181200 METAR MRLM 181200Z NIL=
201107181300 METAR MRLM NIL=
201107181400 METAR MRLM 181400Z 34004KT 8000 RA SCT006 SCT010 24/23 A2997 RMK VIS SW E UNL=
201107181500 METAR MRLM 181500Z 26004KT 8000 RA SCT005 SCT010 24/23 A2998 RMK VIS N NE E UNL=
201107181600 METAR MRLM 181600Z 25004KT 9999 FEW006 SCT020 23/22 A2997 RETS RMK SCT140 CB RA DST ARND=
201107181700 METAR MRLM 181700Z 24004KT CAVOK 26/24 A2995 RMK FEW100 SCT150 SCT260 CB RA QUAD N=
201107181800 METAR MRLM 181800Z 31003KT 9999 FEW025 BKN250 28/23 A2992 RMK FEW150 CB RA DST NW N CB DST S HZ ARND=
201107181900 METAR MRLM 181900Z 28005KT 9999 FEW020 BKN260 29/23 A2987 RMK FEW150 CB DST S HZ ARND=
201107182000 METAR MRLM 182000Z 01011KT 9999 FEW030 BKN260 29/24 A2985 RMK CB DST SW SE HZ ARND=
201107182100 METAR MRLM 182100Z 02009KT 9999 FEW030 BKN250 28/22 A2984 RMK FEW080 CB DST SW W HZY ARND=
201107182200 METAR MRLM 182200Z 01006KT 9999 FEW025 BKN250 28/23 A2984 RMK CB DST S SW HZY ARND=
201107182300 METAR MRLM 182300Z 36003KT 9999 FEW025 BKN260 27/22 A2984 RMK CB DST S SW HZ ARND=
201107190000 METAR MRLM 190000Z 00000KT 9999 FEW025 BKN260 27/23 A2986 RMK CB DST SE W FEW150 HZ ARND=
201107190100 METAR MRLM NIL=
201107190200 METAR MRLM NIL=
201107190300 METAR MRLM NIL=
201107190400 METAR MRLM NIL=
201107190500 METAR MRLM NIL=
201107190600 METAR MRLM NIL=
201107190700 METAR MRLM NIL=
201107190800 METAR MRLM NIL=
201107190900 METAR MRLM NIL=
201107191000 METAR MRLM NIL=
201107191100 METAR MRLM NIL=
201107191200 METAR MRLM 191200Z 23004KT 9999 NSC 22/21 A2990 RMK HZ ARND=
201107191300 METAR MRLM 191300Z 22004KT CAVOK 25/22 A2991 RMK FEW050 HZ ARND=
201107191400 METAR MRLM 191400Z 00000KT CAVOK 30/23 A2993 RMK FEW260 HZ ARND=
201107191500 METAR MRLM 191500Z 09004KT CAVOK 29/22 A2993 RMK FEW270 HZ ARND=
201107191600 METAR MRLM 191600Z 06003KT CAVOK 29/23 A2991 RMK FEW270 HZY ARND=
201107191700 METAR MRLM 191700Z 01009KT CAVOK 29/23 A2991 RMK FEW270 HZY ARND=
201107191800 METAR MRLM 191800Z 36008KT CAVOK 29/23 A2990 RMK FEW260 HZY ARND=
201107191900 METAR MRLM 191900Z 01008KT 9999 FEW030 29/24 A2988 RMK FEW260 HZY ARND=
201107192000 METAR MRLM 192000Z 02007KT 9999 FEW030 SCT260 30/24 A2986 RMK HZY ARND=
201107192100 METAR MRLM NIL=
201107192200 METAR MRLM 192200Z 03007KT 9999 SCT025 BKN250 29/24 A2985 RMK HZ ARND=
201107192300 METAR MRLM 192300Z 02004KT 9999 SCT020 BKN250 29/24 A2985 RMK TCU SW HZ ARND=
201107200000 METAR MRLM 200000Z 00000KT 9999 SCT020 SCT250 28/24 A2984 RMK TCU DST W HZ ARND=
201107200100 METAR MRLM NIL=
201107200200 METAR MRLM NIL=
201107200300 METAR MRLM NIL=
201107200400 METAR MRLM NIL=
201107200500 METAR MRLM NIL=
201107200600 METAR MRLM NIL=
201107200700 METAR MRLM NIL=
201107200800 METAR MRLM NIL=
201107200900 METAR MRLM NIL=
201107201000 METAR MRLM NIL=
201107201100 METAR MRLM NIL=
201107201200 METAR MRLM 201200Z 24004KT CAVOK 23/22 A2987 RMK BKN110 CB DST N HZ ARND=
201107201300 METAR MRLM 201300Z 22004KT 9999 FEW010 BKN110 24/22 A2999 RMK CB TS DST N HZ ARND=
201107201400 METAR MRLM 201400Z 09008KT 9999 FEW030 24/17 A3001 RMK VEL MAX WIND 14 KTS NOSIG=
201107201500 METAR MRLM NIL=
201107201600 METAR MRLM 201600Z 02007KT 9999 SCT020 BKN110 28/23 A2994 RMK HZ ARND=
201107201700 METAR MRLM 201700Z 01005KT 9999 FEW030 BKN120 29/23 A2993 RMK HZ ARND=
201107201800 METAR MRLM 201800Z 04005KT 9999 SCT030 SCT120 30/23 A2991 RMK FEW140 TCU DST SW HZ ARND=
201107201900 METAR MRLM 201900Z 04005KT 999 FEW030 BKN250 29/23 A2988 RMK FEW130 HZ ARND=
201107202000 METAR MRLM 202000Z 05005KT CAVOK 29/23 A2986 RMK BKN250 TCU DST SW N HZ ARND=
201107202100 METAR MRLM 202100Z 08004KT CAVOK 29/23 A2986 RMK BKN250 TCU DST S HZ ARND=
201107202200 METAR MRLM 202200Z 00000KT CAVOK 29/23 A2984 RMK BKN250 HZ ARND=
201107202300 METAR MRLM 202300Z 00000KT CAVOK 29/24 A2984 RMK BKN250 HZ ARND=
201107210000 METAR MRLM 210000Z 02005KT CAVOK 28/24 A2985 RMK FEW130 BKN250 HZ ARND=
201107210100 METAR MRLM NIL=
201107210200 METAR MRLM NIL=
201107210300 METAR MRLM NIL=
201107210400 METAR MRLM NIL=
201107210500 METAR MRLM NIL=
201107210600 METAR MRLM NIL=
201107210700 METAR MRLM NIL=
201107210800 METAR MRLM NIL=
201107210900 METAR MRLM NIL=
201107211000 METAR MRLM NIL=
201107211100 METAR MRLM NIL=
201107211200 METAR MRLM 211200Z NIL=
201107211225 METAR MRLM 211225Z 25003KT 9999 BKN015 24/23 A2987 RMK FEW250 CB RN QUAD N E HZ ARND=
201107211300 METAR MRLM 211300Z 23004KT 9999 BKN025 25/24 A2998 RN N NE FEW140 FEW250 HZ ARND=
201107211400 METAR MRLM 211400Z NIL=
201107211500 METAR MRLM 211500Z 03004KT 9999 SCT015 SCT100 26/24 A2990 RMK CB RN DST NE E S HZ ARND=
201107211600 METAR MRLM 211600Z 00000KT 9999 FEW008 BKN020 26/24 A2990 RMK FEW120 CB RN DST N/E/SW HZ ARND=
201107211700 METAR MRLM 211700Z 00000KT 9999 DZ FEW009 BKN025 26/25 A2990 CB RN DST N/E FEW120 HZ ARND=
201107211800 METAR MRLM 211800Z 01004KT 9999 FEW013 BKN020 26/24 A2988 REDZ RMK CB DST HZ ARND RN NE E=
201107211900 METAR MRLM 211900Z 31005KT 9999 -DZ BKN020 27/24 A2986 RMK RN HZ ARND FEW090=
201107212000 METAR MRLM 212000Z 21003KT 9999 BKN015 28/25 A2984 REDZ FEW150 FEW250 HZ LGT ARND=
201107212100 METAR MRLM 212100Z 00000KT 9999 FEW020 BKN250 29/25 A2983 RMK FEW150 TCU RN DST NE CB DST E HZ ARND=
201107212200 METAR MRLM 212200Z 02003KT 9999 FEW030 BKN250 30/24 A2982 RMK FEW120 CB RN DST N NE HZ ARND=
201107212300 METAR MRLM 212300Z 02003KT 9999 FEW030 BKN080 29/25 A2983 RMK CB RN DST N NE E FEW250 HZ ARND=
201107220000 METAR MRLM 220000Z 01006KT 9999 SCT020 SCT080 28/24 A2984 RMK FEW260 CB RN VIS 7000 NE HZ ARND=
201107220100 METAR MRLM NIL=
201107220200 METAR MRLM NIL=
201107220300 METAR MRLM NIL=
201107220400 METAR MRLM NIL=
201107220500 METAR MRLM NIL=
201107220600 METAR MRLM NIL=
201107220700 METAR MRLM NIL=
201107220800 METAR MRLM NIL=
201107220900 METAR MRLM NIL=
201107221000 METAR MRLM NIL=
201107221100 METAR MRLM NIL=
201107221200 METAR MRLM 221200Z 24003KT 9999 FEW025 BKN080 24/23 A2985 RMK FEW150 FEW260 CB RN DST QUAD N E HZ ARND=
201107221300 METAR MRLM 221300Z 22005KT 9999 FEW025 SCT080 24/23 A2985 RMK SCT130 FEW260 CB RN DST QUAD N E HZ ARND=
201107221400 METAR MRLM 221400Z 32002KT 8000 TS RA BKN015 25/23 A2989 RMK FEW090 CB QUAD N E TS NE=
201107221500 METAR MRLM 221500Z 29003KT 8000 +DZ VCSH SCT006 SCT015 25/24 A2992 RETSRA RMK FEW080 HZ ARND VIS 9999 S SW W=
201107221600 METAR MRLM 221600Z 34007KT 6000 TSRA SCT007 FEW010CB SCT015 25/24 A2994 RMK TS NE E HZ ARND=
201107221700 METAR MRLM 221700Z 14003KT 8000 RA FEW005 SCT020 BKN090 24/23 A2990 RETSRA RMK VIS 9999 S SW=
201107221800 METAR MRLM 221800Z 24005KT 9999 +DZ OVC100 24/23 A2983 RERA RMK CB DST N NE HZ ARND=
201107221900 METAR MRLM 221900Z 07008KT 9999 SCT010 SCT150 26/24 A2981 REDZ RMK CB RN DST W NW N NE HZ ARND FEW090=
201107222000 METAR MRLM NIL=
201107222100 METAR MRLM NIL=
201107222200 METAR MRLM NIL=
201107222300 METAR MRLM 222300Z 23005KT CAVOK 27/23 A2984 RMK SCT120 SCT250 HZ ARND=
201107230000 METAR MRLM 230000Z 35005KT 9999 FEW025 SCT070 27/24 A2986 RMK FEW250 HZ ARND=
201107230100 METAR MRLM NIL=
201107230200 METAR MRLM NIL=
201107230300 METAR MRLM NIL=
201107230400 METAR MRLM NIL=
201107230500 METAR MRLM NIL=
201107230600 METAR MRLM NIL=
201107230700 METAR MRLM NIL=
201107230800 METAR MRLM NIL=
201107230900 METAR MRLM NIL=
201107231000 METAR MRLM NIL=
201107231100 METAR MRLM NIL=
201107231200 METAR MRLM 231200Z 00000KT 4000 TSRA FEW007CB SCT010 SCT080 24/23 A2993=
201107231300 METAR MRLM 231300Z 24005KT 5000 TSRA FEW007CB SCT010 SCT080 24/23 A2994=
201107231400 METAR MRLM 231400Z 23005KT 8000 -RA VCTS BKN007 SCT080 23/23 A2994=
201107231500 METAR MRLM 231500Z 20005KT 8000 RA VCTS BKN007 24/23 A2997 RMK FEW080 VIS 4000 N=
201107231600 METAR MRLM 231600Z 23004KT 8000 -RA VCTS BKN007 23/22 A2997 RMK FEW080 VIS 4000 N=
201107231700 METAR MRLM 231700Z 00000KT 9999 DZ BKN010 SCT090 23/22 A2993 RMK CB TS DAT NE E RA DST W NW N=
201107231800 METAR MRLM 231800Z 00000KT 9999 -DZ SCT015 SCT100 26/24 A2992 RMK RA DST W NW E HZ ARND=
201107231900 METAR MRLM 231900Z 20005KT 9999 FEW020 SCT110 26/23 A2991 RMK SCT250 RA DST E HZ ARND=
201107232000 METAR MRLM 232000Z 00000KT 9999 -DZ FEW020 SCT110 26/24 A2989 RMK FEW250 RA DST E HZ ARND=
201107232100 METAR MRLM 232100Z 00000KT CAVOK 26/23 A2987 RMK SCT120 SCT250 HZ ARND=
201107232200 METAR MRLM 232200Z 00000KT CAVOK 26/23 A2987 RMK SCT120 BKN250 HZ ARND=
201107232300 METAR MRLM 232300Z 00000KT CAVOK 27/24 A2989 RMK BKN120 FEW250 RA DST E HZ ARND=
201107240000 METAR MRLM 240000Z 00000KT 9999 FEW015 BKN110 26/24 A2990 RMK RA DST NE E HZ ARND=
201107240100 METAR MRLM 240100Z NIL=
201107240200 METAR MRLM NIL=
201107240300 METAR MRLM NIL=
201107240400 METAR MRLM NIL=
201107240500 METAR MRLM NIL=
201107240600 METAR MRLM NIL=
201107240700 METAR MRLM NIL=
201107240800 METAR MRLM NIL=
201107240900 METAR MRLM NIL=
201107241000 METAR MRLM NIL=
201107241100 METAR MRLM NIL=
201107241200 METAR MRLM 241200Z 00000KT 9999 BKN010 23/21 A2989 RMK FEW090 RN DST N NE E HZ ARND=
201107241300 METAR MRLM 241300Z 00000KT 8000 3000N +RA BKN010 24/22 A2991 RMK FEW090=
201107241400 METAR MRLM 241400Z 22003KT 9999 -DZ VCSH SCT010 SCT090 24/23 A2992 RERA RMK VIS 8KM N NE HZ ARND=
201107241500 METAR MRLM 241500Z 25004KT 9999 BKN010 SCT100 25/24 A2994 RMK CB RA DST N NE E HZ ARND=
201107241600 METAR MRLM 241600Z 00000KT 9999 DZ VCSH BKN008 25/24 A2995 RERA RMK VIS 8KM QUAD N FEW090 HZ ARND=
201107241700 METAR MRLM 241700Z 00000KT 9999 DZ SCT010 BKN100 26/23 A2995 RMK RA DST NE E HZ ARND=
201107241800 METAR MRLM 241800Z 30004KT 9999 SCT015 BKN110 27/24 A2990 REDZ RMK RA DST E HZ ARND=
201107241900 METAR MRLM 241900Z 30005KT 9999 FEW020 BKN120 28/24 A2987 RMK HZ ARND=
201107242000 METAR MRLM 242000Z 34006KT CAVOK 28/24 A2984 BKN120 HZ ARND=
201107242100 METAR MRLM 242100Z 02005KT CAVOK 28/24 A2983 RMK BKN130 SCT250 HZ ARND=
201107242200 METAR MRLM 242200Z 36007KT CAVOK 29/24 A2983 RMK SCT130 SCT260 HZ ARND=
201107242300 METAR MRLM 242300Z 33005KT CAVOK 29/23 A2984 RMK SCT140 SCT260 HZ ARND=
201107250000 METAR MRLM 250000Z 32004KT CAVOK 27/24 A2986 RMK BKN130 FEW250 HZ ARND=
201107250100 METAR MRLM NIL=
201107250200 METAR MRLM NIL=
201107250300 METAR MRLM NIL=
201107250400 METAR MRLM NIL=
201107250500 METAR MRLM NIL=
201107250600 METAR MRLM NIL=
201107250700 METAR MRLM NIL=
201107250800 METAR MRLM NIL=
201107250900 METAR MRLM NIL=
201107251000 METAR MRLM NIL=
201107251100 METAR MRLM NIL=
201107251200 METAR MRLM NIL=
201107251300 METAR MRLM 251300Z 25006KT 9999 BKN020 24/23 A2988 RMK CB RN HZ ARND FEW080=
201107251400 METAR MRLM 251400Z 00000KT 9999 FEW020 26/23 A2989 RMK FEW090 CB RN DST N E HZ ARND=
201107251500 METAR MRLM 251500Z 00000KT 9999 FEW025 BKN090 27/22 A2990 RMK FEW120 CB RND DST N NE E SE HZ ARND=
201107251600 METAR MRLM 251600Z 09004KT 9999 FEW020 SCT090 27/23 A2992 RMK SCT130 CB RA HZ ARND CB QUAD N E=
201107251700 METAR MRLM 251700Z 10005KT 9999 +DZ SCT025 BKN090 27/24 A2992 RMK FEW130 CB RA HZ ARND=
201107251800 METAR MRLM 251800Z 10010KT 9999 SCT015 SCT080 27/24 A2991 REDZ RMK FEW100 CB RA DST N E HZ ARND=
201107251900 METAR MRLM 251900Z 13010KT 9999 FEW020 SCT080 27/24 A2986 RMK SCT100 CB RA ARND=
201107252000 METAR MRLM 252000Z 24004KT CAVOK 28/23 A2980 RMK FEW080 BKN100 CB RA DST SW W HZ ARND=
201107252100 METAR MRLM 252100Z 06007KT CAVOK 28/23 A2980 RMK FEW080 BKN100 CB DST NW HZ ARND=
201107252200 METAR MRLM 252200Z 06007KT 9999 DZ FEW020 SCT080 BKN100 28/24 A2981 RMK HZ ARND=
201107252300 METAR MRLM 252300Z 00000KT CAVOK 28/25 A2981 RMK FEW080 BKN100 FEW250 CBS RN DST S HZ ARND=
201107260000 METAR MRLM 260000Z 00000KT CAVOK 27/24 A2982 RMK FEW090 SCT100 SCT250 RN HZ ARND=
201107260100 METAR MRLM NIL=
201107260200 METAR MRLM NIL=
201107260300 METAR MRLM NIL=
201107260400 METAR MRLM NIL=
201107260500 METAR MRLM NIL=
201107260600 METAR MRLM NIL=
201107260700 METAR MRLM NIL=
201107260800 METAR MRLM NIL=
201107260900 METAR MRLM NIL=
201107261000 METAR MRLM NIL=
201107261100 METAR MRLM NIL=
201107261200 METAR MRLM NIL=
201107261220 METAR MRLM 261220Z 00000KT 9999 TS FEW025 SCT090 22/21 A2983 RMK SCT260 CB RN DST NW N NE E TSTRM NE=
201107261300 METAR MRLM 261300Z 24004KT 9999 RA VCTS FEW010CB FEW025 BKN080 23/21 A2985 RMK FEW260 VIS 8KMS N NE CBS N E QDS=
201107261400 METAR MRLM 261400Z 02013KT 5000 RA SCT005 SCT015 24/22 A2989 RETS=
201107261500 METAR MRLM 261500Z 24008KT 8000 RA VCTS FEW008 FEW010CB BKN015 23/22 A2989 RMK FEW090 VIS E SE UNLTD CBS N NE TS NE=
201107261600 METAR MRLM 261600Z 27006KT 6000 RA FEW008 BKN015 23/22 A2989 RETS RMK FEW090=
201107261700 METAR MRLM 261700Z 28004KT 9999 FEW015 BKN080 25/24 A2988 RERA RMK FEW250 RN DST W N NE E LGT HZ ARND=
201107261800 METAR MRLM 261800Z 00000KT 9999 FEW020 BKN080 28/24 A2985 RMK FEW250 CBS RN DST N E QDS RN SW W HZ ARND=
201107261900 METAR MRLM 261900Z 00000KT 9999 FEW020 BKN080 28/24 A2983 RMK CB RN DST N E HZ ARND=
201107262000 METAR MRLM 262000Z 23003KT 9999 FEW030 SCT130 29/23 A2979 RMK SCT250 CB RN DST N E RN S HZ ARND=
201107262100 METAR MRLM 262100Z 33003KT CAVOK 29/23 A2974 RMK BKN090 SCT250 CB DST HZ ARND RN DST N=
201107262200 METAR MRLM 262200Z 03009KT CAVOK 28/23 A2975 BKN080 FEW150 FEW250 CB DST HZ LGT ARMD=
201107262300 METAR MRLM 262300Z 03007KT CAVOK 28/23 A2978 BKN090 FEW140 FEW250 CB DST HZ ARND=
201107270000 METAR MRLM 270000Z 00000KT 9999 DZ FEW015 BKN120 26/23 A2980 FEW090 CB/RN DST SE S HZ ARND=
201107270100 METAR MRLM NIL=
201107270200 METAR MRLM NIL=
201107270300 METAR MRLM NIL=
201107270400 METAR MRLM NIL=
201107270500 METAR MRLM NIL=
201107270600 METAR MRLM NIL=
201107270700 METAR MRLM NIL=
201107270800 METAR MRLM NIL=
201107270900 METAR MRLM NIL=
201107271000 METAR MRLM NIL=
201107271100 METAR MRLM NIL=
201107271200 METAR MRLM 271200Z 24003KT 9999 SCT010 SCT110 23/22 A2984 RMK FEW250 TCU N HZ ARND=
201107271300 METAR MRLM 271300Z 24004KT 9999 FEW010 SCT110 24/23 A2986 RMK SCT250 TCU DST NW N HZ ARND=
201107271400 METAR MRLM 271400Z 24004KT CAVOK 26/24 A2987 RMK BKN250 CB DST N HZ ARND=
201107271500 METAR MRLM 271500Z 00000KT CAVOK 29/24 A2988 RMK BKN250 CB DST N HZ LEVE ARND=
201107271600 METAR MRLM NIL=
201107271700 METAR MRLM 271700Z 02009KT 9999 FEW030 BKN250 29/23 A2986 RMK FEW130 HZ ARND=
201107271800 METAR MRLM 271800Z 36007KT CAVOK 29/23 A2986 RMK FEW130 BKN250 TCU DST SW HZ ARND=
201107271900 METAR MRLM 271900Z 01007KT CAVOK 29/23 A2987 RMK FEW130 BKN250 HZ ARND=
201107272000 METAR MRLM 272000Z 01005KT CAVOK 28/24 A2981 RMK SCT120 SCT250 HZ ARND=
201107272100 METAR MRLM 272100Z 05006KT CAVOK 28/24 A2978 RMK BKN120 FEW250 HZ ARND=
201107272200 METAR MRLM 272200Z 01005KT 9999 FEW020 SCT120 28/24 A2977 RMK SCT250 HZ ARND=
201107272300 METAR MRLM 272300Z 36004KT 9999 SCT015 28/25 A2978 RMK FEW110 FEW250 HZ ARND=
201107280000 METAR MRLM 280000Z 00000KT 9999 BKN015 27/24 A2980=
201107280100 METAR MRLM NIL=
201107280200 METAR MRLM NIL=
201107280300 METAR MRLM NIL=
201107280400 METAR MRLM NIL=
201107280500 METAR MRLM NIL=
201107280600 METAR MRLM NIL=
201107280700 METAR MRLM NIL=
201107280800 METAR MRLM NIL=
201107280900 METAR MRLM NIL=
201107281000 METAR MRLM NIL=
201107281100 METAR MRLM NIL=
201107281200 METAR MRLM 281200Z 00000KT CAVOK 23/22 A2984 RMK BKN130 SCT250 CB RN DST N QD HZ ARND=
201107281300 METAR MRLM 281300Z 23003KT 9999 DZ VCTS FEW007CB FEW015 BKN120 23/22 A2988 RMK FEW250 HZ ARND=
201107281400 METAR MRLM 281400Z 25004KT 9999 DZ SCT010 SCT120 24/23 A2990 RETS RMK FEW250 CB TS DST N HZ ARND=
201107281500 METAR MRLM 281500Z 00000KT 9999 DZ BKN010 SCT110 24/23 A2990 RMK CB TS DST E SE HZ ARND=
201107281600 METAR MRLM 281600Z 20004KT 9999 -DZ FEW010 BKN110 25/24 A2989 RMK FEW250 RA DST N SE HZ ARND=
201107281700 METAR MRLM 281700Z 00000KT 9999 FEW2020 BKN120 27/24 A2988 RMK FEW250 CB RA DST N HZ ARND=
201107281800 METAR MRLM NIL=
201107281900 METAR MRLM NIL=
201107282000 METAR MRLM 282000Z 02004KT 9999 FEW025 SCT130 29/24 A2982 RMK SCT250 HZ ARND=
201107282100 METAR MRLM 282100Z 30006KT CAVOK 30/24 A2978 RMK SCT130 BKN260 HZ ARND=
201107282200 METAR MRLM 282200Z 35011KT CAVOK 29/24 A2978 RMK SCT140 BKN260 HZY ARND=
201107282300 METAR MRLM 282300Z 01009KT CAVOK 29/24 A2982 RMK SCT140 BKN250 TCU SW HZY ARND=
201107290000 METAR MRLM 290000Z 35006KT CAVOK 28/24 A2984 RMK BKN120 SCT250 TCU DST SW CB DST N HZY ARND=
201107290100 METAR MRLM NIL=
201107290200 METAR MRLM NIL=
201107290300 METAR MRLM NIL=
201107290400 METAR MRLM NIL=
201107290500 METAR MRLM NIL=
201107290600 METAR MRLM NIL=
201107290700 METAR MRLM NIL=
201107290800 METAR MRLM NIL=
201107290900 METAR MRLM NIL=
201107291000 METAR MRLM NIL=
201107291100 METAR MRLM NIL=
201107291200 METAR MRLM NIL=
201107291300 METAR MRLM 291300Z 28005KT 1000 +DZ SCT015 BKN100 23/22 A2989 RMK VIS UNL S SW W=
201107291400 METAR MRLM 291400Z 29004KT 8000 RA SCT015 BKN100 24/22 A2991 RMK HZ ARND=
201107291500 METAR MRLM 291500Z 23003KT 8000 RA SCT020 BKN100 24/23 A2993 RMK VIS UNL S SW W HZ ARND=
201107291600 METAR MRLM 291600Z 00000KT 8000 RA FEW006 OVC100 24/23 A2994 RMK HZ ARND=
201107291700 METAR MRLM 291700Z 00000KT 8000 RA FEW006 OVC100 25/23 A2994 RMK HZ ARND=
201107291800 METAR MRLM 291800Z 20003KT 9999 +DZ FEW008 BKN110 25/24 A2992 RERA RMK FEW150 CB RN S W=
201107291900 METAR MRLM 291900Z 22004KT 9999 DZ FEW010 BKN110 26/24 A2986 RMK FEW100 HZ ARND=
201107292000 METAR MRLM 292000Z 33003KT CAVOK 26/24 A2981 REDZ RMK FEW100 BKN120 HZ ARND=
201107292100 METAR MRLM 292100Z 02005KT CAVOK 27/24 A2978 RMK FEW090 BKN120 CB DST N E=
201107292200 METAR MRLM 292200Z 36005KT CAVOK 27/23 A2977 RMK FEW090 BKN120=
201107292300 METAR MRLM 292300Z 00000KT 9999 FEW015 SCT080 26/23 A2979 RMK SCT130 CB RA NW N HZ SE=
201107300000 METAR MRLM 300000Z 25003KT 9999 SCT010 SCT080 26/24 A2981 RMK FEW120 CB RA N NE HZ SE=
201107300100 METAR MRLM NIL=
201107300200 METAR MRLM NIL=
201107300300 METAR MRLM NIL=
201107300400 METAR MRLM NIL=
201107300500 METAR MRLM NIL=
201107300600 METAR MRLM NIL=
201107300700 METAR MRLM NIL=
201107300800 METAR MRLM NIL=
201107300900 METAR MRLM NIL=
201107301000 METAR MRLM NIL=
201107301100 METAR MRLM NIL=
201107301200 METAR MRLM NIL=
201107301300 METAR MRLM 301300Z 00000KT 9999 FEW025 25/23 A2986 RMK FEW260 CB RND DST N HZ SE=
201107301400 METAR MRLM 301400Z 31005KT 9999 FEW030 28/22 A2987 RMK FEW260 CB RN DST N HZ SE=
201107301500 METAR MRLM 301500Z 30005KT CAVOK 29721 A2988 RMK FEW260 CB RND DST N HZ ARND=
201107301600 METAR MRLM 301600Z 35009KT 9999 FEW040 BKN140 29722 A2988 RMK FEW260 CB RN DST N NE HZ SE=
201107301700 METAR MRLM 301700Z 35009KT 9999 FEW030 BKN110 29/23 A2988 RMK CB RA N SE HZ SE=
201107301800 METAR MRLM 301800Z 35012KT 9999 FEW025 BKN080 29/23 A2985 RMK CB RA DST N NE HZ SE=
201107301900 METAR MRLM 301900Z 35014KT 9999 SCT030 SCT080 29/23 A2983 RMK CB RA N NE TCU RA S SW W HZ SE=
201107302000 METAR MRLM 302000Z 35012KT 9999 OVC025 28/23 A2983 RMK CB RA S W N=
201107302100 METAR MRLM 302100Z 35013KT 9999 +DZ VCSH OVC015 28/24 A2980 RETS CB RA DST S W N VIS S SW 8KMS=
201107302200 METAR MRLM 302200Z 36012KT 9999 DZ VCSH OVC020 27/23 A2980 RMK VIS SW S 8KMS=
201107302300 METAR MRLM 302300Z 33008KT 9999 RA FEW005 BKN015 26/23 A2982 RMK VIS 8KMS S W CB RA DST SW N FEW100=
201107310000 METAR MRLM 310000Z 25005KT 8000 3000SW -RA VCSH FEW005 BKN015 24/23 A2983 RMK FEW090 CB ARND=
201107310100 METAR MRLM NIL=
201107310200 METAR MRLM NIL=
201107310300 METAR MRLM NIL=
201107310400 METAR MRLM NIL=
201107310500 METAR MRLM NIL=
201107310600 METAR MRLM NIL=
201107310700 METAR MRLM NIL=
201107310800 METAR MRLM NIL=
201107310900 METAR MRLM NIL=
201107311000 METAR MRLM NIL=
201107311100 METAR MRLM NIL=
201107311200 METAR MRLM 311200Z NIL=
201107311300 METAR MRLM 311300Z 23003KT 9999 FEW010 SCT110 23/22 A2990 RMK SCT250 RA NE HZ ARND=
201107311400 METAR MRLM 311400Z 22004KT 9999 FEW010 SCT120 29/23 A2991 RMK SCT250 HZ ARND=
201107311500 METAR MRLM 311500Z 23004KT 9999 -DZ FEW015 BKN120 25/23 A2992 RMK FEW250 HZ ARND=
201107311600 METAR MRLM 311600Z 00000KT CAVOK 28/24 A2991 RMK SCT130 SCT260 HZ ARND=
201107311700 METAR MRLM 311700Z 03004KT CAVOK 28/23 A2989 BKN130 SCT260=
201107311800 METAR MRLM 311800Z 03007KT CAVOK 28/23 A2988 RMK BKN120 FEW250=
201107311900 METAR MRLM 311900Z 05006KT 9999 FEW020 SCT130 28/24 A2985 RMK SCT250 TCU SW=
201107312000 METAR MRLM 312000Z 07005KT 9999 SCT025 SCT250 28/23 A2983 RMK FEW130 CB S SW=
201107312100 METAR MRLM 312100Z 08004KT 9999 SCT025 SCT130 28/23 A2982 RMK FEW250 CB DST SW=
201107312200 METAR MRLM 312200Z 17005KT 9999 SCT020 BKN100 24/22 A2979=
201107312300 METAR MRLM 312300Z 10004KT 9999 SCT020 BKN120 28/23 A2983 RMK CB DST S SW=
201108010000 METAR MRLM 010000Z 11005KT 9999 SCT020 BKN110 27/23 A2985 RMK CB DST QUAD S HZ LEVE ARND=
201108010100 METAR MRLM NIL=
201108010200 METAR MRLM NIL=
201108010300 METAR MRLM NIL=
201108010400 METAR MRLM NIL=
201108010500 METAR MRLM NIL=
201108010600 METAR MRLM NIL=
201108010700 METAR MRLM NIL=
201108010800 METAR MRLM NIL=
201108010900 METAR MRLM NIL=
201108011000 METAR MRLM NIL=
201108011100 METAR MRLM NIL=
201108011200 METAR MRLM 011200Z 22005KT CAVOK 24/22 A2989 RMK SCT250 TCU DST N HZ ARND=
201108011300 METAR MRLM 011300Z 22003KT CAVOK 26/23 A2989 RMK SCT250 TCU DST N HZ LEVE ARND=
201108011400 METAR MRLM 011400Z 00000KT CAVOK 29/23 A2990 RMK FEW140 SCT260 HZ LEVE ARND=
201108011500 METAR MRLM 011500Z 10003KT CAVOK 29/23 A2991 RMK FEW140 SCT260 HZ LEVE ARND=
201108011600 METAR MRLM 011600Z 07005KT 9999 FEW030 29/23 A2991 RMK FEW130 FEW260 TCU DST SW=
201108011700 METAR MRLM 011700Z 06005KT 9999 FEW030 29/23 A2991 RMK FEW130 TCU DST SW=
201108011800 METAR MRLM 011800Z 04005KT 9999 FEW030 29/24 A2989 RMK FEW130 CB DST W=
201108011900 METAR MRLM 011900Z 05007KT 9999 SCT030 30/24 A2987 RMK FEW130 FEW250 CB DST S SW HZ LEVE ARND=
201108012000 METAR MRLM 012000Z 04005KT 9999 BKN025 29/24 A2985 RMK FEW250 CB DST S HZ LGT ARND=
201108012100 METAR MRLM 012100Z 05004KT 9999 BKN025 29/24 A2984 RMK FEW250 TCU DST SW HZ LGT ARND=
201108012200 METAR MRLM 012200Z 09006KT 9999 SCT025 SCT250 30/24 A2983 RMK TCU DST S HZ ARND LGT=
201108012300 METAR MRLM 012300Z 08006KT 9999 SCT025 SCT250 29/23 A2983 RMK RA DST N TCU DST SW HZ LGT ARND=
201108020000 METAR MRLM 020000Z 07006KT 9999 SCT020 BKN250 28/23 A2984 RMK TCU RA DST S HZ ARND LGT=
201108020100 METAR MRLM NIL=
201108020200 METAR MRLM NIL=
201108020300 METAR MRLM NIL=
201108020400 METAR MRLM NIL=
201108020500 METAR MRLM NIL=
201108020600 METAR MRLM NIL=
201108020700 METAR MRLM NIL=
201108020800 METAR MRLM NIL=
201108020900 METAR MRLM NIL=
201108021000 METAR MRLM NIL=
201108021100 METAR MRLM NIL=
201108021200 METAR MRLM 021200Z NIL=
201108021300 METAR MRLM 021300Z 00000KT CAVOK 26/22 A2987 RMK FEW090 FEW150 BKN280 CB RA DST NW N E SE HZ ARND=
201108021400 METAR MRLM NIL=
201108021500 METAR MRLM 021500Z 09003KT CAVOK 29/23 A298 RMK FEW150 BKN260 CB DST NW E SE RA DST E HZ ARND=
201108021600 METAR MRLM 021600Z 05005KT 9999 FEW030 BKN270 29/23 A2988 RMK FEW110 FEW150 CB DST NW N NE E RA DST NE E HZ ARND=
201108021700 METAR MRLM 021700Z 04005KT 9999 FEW025 SCT090 28/23 A2987 RMK FEW150 SCT260 CB RA DST NW N NE=
201108021800 METAR MRLM NIL=
201108021900 METAR MRLM 021900Z 05005KT 9999 SCT025 SCT090 29/24 A2985 RMK FEW150 CB RA DST NW NE E HZ ARND=
201108022000 METAR MRLM 022000Z 07010KT 9999 BKN020 28/24 A2983 RMK RN DST E SE S SW W HZ NE=
201108022100 METAR MRLM 022100Z 13009KT 9999 FEW020 BKN080 28/23 A2982 RMK FEW150 TCU RN DST SE S SW W HZ ARND=
201108022200 METAR MRLM 022200Z 21005KT 9999 FEW015 SCT090 27/23 A2981 RMK SCT100 TCU DST SE S DZ SW=
201108022300 METAR MRLM 022300Z 22003KT 9999 FEW020 BKN090 27/23 A2981 RMK FEW260 CB DST S DZ SW=
201108030000 METAR MRLM 030000Z 22003KT CAVOK 26/23 A2983 RMK BKN090 SCT260 CB DST ARND=
201108030100 METAR MRLM NIL=
201108030200 METAR MRLM NIL=
201108030300 METAR MRLM NIL=
201108030400 METAR MRLM NIL=
201108030500 METAR MRLM NIL=
201108030600 METAR MRLM NIL=
201108030700 METAR MRLM NIL=
201108030800 METAR MRLM NIL=
201108031000 METAR MRLM NIL=
201108031100 METAR MRLM NIL=
201108031200 METAR MRLM NIL=
201108031300 METAR MRLM 031300Z 25003KT 9999 SCT025 SCT090 24/22 A2987 RMK CB RN DST QUAD N E DZ SE=
201108031400 METAR MRLM 031400Z 28003KT 9999 VCTS VCSH SCT025 SCT080 25/22 A2990 RMK CB RN QUAD N E VIS 8KM NE=
201108031500 METAR MRLM 031500Z 28004KT 9999 BKN025 25/22 A2980 RETS RMK FEW080 FEW120 CB RN QUAD N E=
201108031600 METAR MRLM 031600Z 30004KT 9999 RA FEW010 SCT015 25/23 A2990 RMK SCT090 FEW120 VIS 8KM NW=
201108031700 METAR MRLM 031700Z 23004KT 9999 BKN025 25/23 A2990 RERA RMK FEW110 DZ NE E SE W HZ ARND=
201108031800 METAR MRLM 031800Z 23004KT 9999 SCT015 SCT100 26/23 A2988 RMK FEW120 CB RN DST QUAD N DZ SE S SW=
201108031900 METAR MRLM 031900Z 08003KT 9999 SCT025 SCT080 28/23 A2986 RMK DZ NW N SE=
201108032000 METAR MRLM 032000Z 00000KT 9999 SCT025 SCT090 28/23 A2982 RMK CB RN DST NW N HZ ARND=
201108032100 METAR MRLM 032100Z 05004KT 9999 SCT025 SCT080 28/23 A2980 RMK FEW270 HZ ARND=
201108032200 METAR MRLM 032200Z 08005KT 9999 SCT025 SCT080 28/23 A2979 RMK FEW270=
201108032300 METAR MRLM 032300Z 00000KT 9999 FEW025 SCT120 BKN270 29/23 A2980 RMK CB RA SE HZ ARND=
201108040000 METAR MRLM 040000Z 00000KT CAVOK 26/24 A2981 RMK HZ ARND OVC260=
201108040100 METAR MRLM NIL=
201108040200 METAR MRLM NIL=
201108040300 METAR MRLM NIL=
201108040400 METAR MRLM NIL=
201108040500 METAR MRLM NIL=
201108040600 METAR MRLM NIL=
201108040700 METAR MRLM NIL=
201108040800 METAR MRLM NIL=
201108040900 METAR MRLM NIL=
201108041000 METAR MRLM NIL=
201108041100 METAR MRLM NIL=
201108041200 METAR MRLM 041200Z 23004KT CAVOK 24/22 A2987 RMK BKN100 HZ ARND=
201108041300 METAR MRLM 041300Z 22004KT CAVOK 23/16 A2988 RMK FEW110 FEW250 HZ ARND=
201108041400 METAR MRLM 041400Z 00000KT CAVOK 30/ 24 A2989 FEW120 FEW260 HZ LGT ARND=
201108041500 METAR MRLM 041500Z 05005KT 9999 FEW030 29/24 A2989 RMK FEW260 LGT HZ ARND=
201108041600 METAR MRLM 041600Z 04005KT 9999 FEW030 29/23 A2989 RMK FEW260 HZ ARND=
201108041700 METAR MRLM 041700Z 05006KT CAVOK 30/24 A2988 RMK SCT260 LGT HZ ARND=
201108041800 METAR MRLM 041800Z 07005KT CAVOK 30/23 A2986 RMK FEW120 SCT250 LGT HZ ARND=
201108041900 METAR MRLM 041900Z 05006KT CAVOK 30/23 A2984 RMK BKN250 HZ ARND=
201108042000 METAR MRLM 042000Z 05008KT CAVOK 29/23 A2983 RMK FEW120 BKN250 HZ ARND=
201108042100 METAR MRLM 042100Z 05005KT CAVOK 30/23 A2987 RMK FEW130 BKN250 LGT HZ ARND=
201108042200 METAR MRLM 042200Z 07004KT 9999 FEW030 30/23 A2982 RMK FEW140 SCT250 LGT HZ ARND=
201108042300 METAR MRLM 042300Z 10004KT 9999 FEW030 30/23 A2983 SCT250 LGT HZ ARND=
201108050000 METAR MRLM 050000Z 00000KT 9999 FEW025 SCT130 28/23 A2985 RMK SCT250 LGT HZ ARND=
201108050100 METAR MRLM NIL=
201108050200 METAR MRLM NIL=
201108050300 METAR MRLM NIL=
201108050400 METAR MRLM NIL=
201108050500 METAR MRLM NIL=
201108050600 METAR MRLM NIL=
201108050700 METAR MRLM NIL=
201108050800 METAR MRLM NIL=
201108050900 METAR MRLM NIL=
201108051000 METAR MRLM NIL=
201108051100 METAR MRLM NIL=
201108051200 METAR MRLM 051200Z 21004KT CAVOK 24/22 A2988 RMK SCT120 HZ ARND=
201108051300 METAR MRLM 051300Z 21005KT CAVOK 26/22 A2990 RMK FEW130 HZ ARND=
201108051400 METAR MRLM 051400Z 00000KT 9999 NSC 30/22 A2992=
201108051500 METAR MRLM 051500Z 00000KT 9999 FEW040 31/23 A2992 HZ ARND=
201108051600 METAR MRLM 051600Z 09004KT 9999 FEW030 30/24 A2992 RMK FEW140 HZ ARND=
201108051700 METAR MRLM 051700Z 08006KT 9999 FEW030 30/24 A2992 RMK HZ ARND=
201108051800 METAR MRLM 051800Z 07007KT CAVOK 30/24 A2990 RMK FEW250 TCU DST SW HZ ARND=
201108051900 METAR MRLM 051900Z 06007KT CAVOK 31/24 A2989 RMK FEW250 TCU DST SW W HZ ARND=
201108052000 METAR MRLM 052000Z 06006KT CAVOK 30/24 A2985 RMK FEW250 TCU DST S SW HZ LEVE ARND=
201108052100 METAR MRLM 052100Z 05007KT 9999 FEW030 31/24 A2984 RMK FEW250 TCU DST S HZ LEVE ARND=
201108052200 METAR MRLM 052200Z 05006KT 9999 FEW030 30/24 A2983 RMK FEW250 TCU DST S HZ LEVE ARND=
201108052300 METAR MRLM 052300Z 04006KT 9999 FEW030 SCT250 30/24 A2986 HZ ARND=
201108060000 METAR MRLM 060000Z 03005KT 9999 SCT025 SCT250 29/24 A2986 TCU DST S HZ ARND=
201108060100 METAR MRLM NIL=
201108060200 METAR MRLM NIL=
201108060300 METAR MRLM NIL=
201108060400 METAR MRLM NIL=
201108060500 METAR MRLM NIL=
201108060600 METAR MRLM NIL=
201108060700 METAR MRLM NIL=
201108060800 METAR MRLM NIL=
201108060900 METAR MRLM NIL=
201108061000 METAR MRLM NIL=
201108061100 METAR MRLM NIL=
201108061200 METAR MRLM 061200Z 23004KT 9999 SCT020 SCT090 24/23 A2990 RMK CB RN HZ ARND=
201108061300 METAR MRLM 061300Z 25003KT 9999 SCT020 SCT090 25/23 A2990 RMK CB RN DST QUAD S W FEW260 HZ ARND=
201108061400 METAR MRLM 061400Z 22003KT 9999 FEW025 BKN090 28/24 A2992 RMK CB RN DST SE NW FEW260 HZ LEVE ARND=
201108061500 METAR MRLM 061500Z 07002KT 9999 SCT025 SCT080 29/24 A2992 RMK CB RN DST S W HZ ARND=
201108061600 METAR MRLM 061600Z 32003KT 9999 FEW035 SCT080 31/24 A2990 RMK SCT270 CB DST N NE E HZ ARND=
201108061700 METAR MRLM 061700Z 03009KT 9999 FEW035 SCT270 30/23 A2991 RMK FEW110 FEW150 CB DST QUAD N E RN DST QUAD E HZ ARND=
201108061800 METAR MRLM 061800Z 04007KT 9999 FEW035 SCT070 29/24 A2991 RMK SCT140 FEW270 CB DST TSTM NE CB RN DST QUAD N E S=
201108061900 METAR MRLM 061900Z 04005KT 9999 +DZ FEW025 BKN130 28/24 A2988 RMK FEW270 CB DST ARND HZ ARND=
201108062000 METAR MRLM 062000Z 23003KT 9999 RA BKN120 SCT270 27/25 A2982 RMK CB DST NW=
201108062100 METAR MRLM 062100Z 07003KT 9999 FEW015 SCT260 28/25 A2982 RERA RMK CB RA DST SW W FEW090 FEW140=
201108062200 METAR MRLM 062200Z NIL=
201108062300 METAR MRLM 062300Z 00000KT CAVOK 28/24 A2985 RMK FEW080 BKN270 HZ ARND=
201108070000 METAR MRLM 070000Z 00000KT CAVOK 27/25 A2987 RMK CB DST NW NE FEW080 BKN270 HZ LGT ARND=
201108070100 METAR MRLM NIL=
201108070200 METAR MRLM NIL=
201108070300 METAR MRLM NIL=
201108070400 METAR MRLM NIL=
201108070500 METAR MRLM NIL=
201108070600 METAR MRLM NIL=
201108070700 METAR MRLM NIL=
201108070800 METAR MRLM NIL=
201108070900 METAR MRLM NIL=
201108071000 METAR MRLM NIL=
201108071100 METAR MRLM NIL=
201108071200 METAR MRLM 071200Z NIL=
201108071300 METAR MRLM 071300Z 24004KT CAVOK 24/22 A2989 RMK FEW140 BKN270 CB DST NW NE E RA DST NE E HZ ARND=
201108071400 METAR MRLM 071400Z 21003KT CAVOK 27/24 A2992 RMK BKN080 FEW140 CB RA DST NE E TSTM DST E=
201108071500 METAR MRLM 071500Z 00000KT 9999 FEW020 BKN150 28/25 A2993 RMK FEW070 FEW270 CB RA DST N E HZ ARND=
201108071600 METAR MRLM 071600Z 07004KT 9999 TS FEW020CB BKN025 28/24 A2993 RMK RA DST ARND DZ NE E=
201108071700 METAR MRLM 071700Z 18003KT 9999 FEW020 SCT070 28/25 A2992 RETSDZ RMK CB RA DST S W SCT270 HZ ARND=
201108071800 METAR MRLM 071800Z 22005KT CAVOK 30/24 A2986 RMK FEW150 BKN260 CB RA DST SW HZ ARND=
201108071900 METAR MRLM 071900Z 01011KT 9999 FEW025 BKN270 30/24 A2983 RMK FEW150 HZ ARND=
201108072000 METAR MRLM 072000Z 03005KT 9999 FEW030 BKN260 30/24 A2984 RMK FEW150 HZ ARND=
201108072100 METAR MRLM 072100Z 02004KT 9999 FEW030 BKN260 30/24 A2984 RMK CB RN DST NE FEW070 HZ ARND=
201108072200 METAR MRLM 072200Z 00000KT 9999 FEW030 SCT070 30/24 A2982 RMK FEW270 CB RN DST N NE HZ ARND=
201108072300 METAR MRLM 072300Z 10007KT 9999 VCSH SCT020TCU SCT100 29/25 A2986 RMK CB RN HZ ARND VIS 8KM QUAD N FEW260=
201108080000 METAR MRLM 080000Z 01008KT 8000 DZ VCTS VCSH FEW010CB SCT015 SCT120 27/25 A2988 RMK CB RN HZ ARND TS QUAD N=
201108080100 METAR MRLM NIL=
201108080200 METAR MRLM NIL=
201108080300 METAR MRLM NIL=
201108080400 METAR MRLM NIL=
201108080500 METAR MRLM NIL=
201108080600 METAR MRLM NIL=
201108080700 METAR MRLM NIL=
201108080800 METAR MRLM NIL=
201108080900 METAR MRLM NIL=
201108081000 METAR MRLM NIL=
201108081100 METAR MRLM NIL=
201108081200 METAR MRLM 081200Z 00000KT 9999 FEW010 BKN110 24/23 A2989 RMK FEW250 HZ ARND=
201108081300 METAR MRLM 081300Z 24003KT 9999 SCT010 BKN110 25/23 A2990 RMK HZ ARND=
201108081400 METAR MRLM 081400Z 24004KT 9999 SCT020 BKN110 27/23 A2992 RMK HZ ARND=
201108081500 METAR MRLM 081500Z 00000KT CAVOK 29/24 A2992 RMK BKN110 FEW250 CB DST NE HZ ARND=
201108081600 METAR MRLM 081600Z 04006KT 9999 FEW030 SCT260 30/23 A2992 RMK FEW130 CB DST N NE HZ ARND=
201108081700 METAR MRLM 081700Z 02007KT 9999 FEW030 SCT130 30/24 A2993 RMK FEW260 CB DST N TCU S HZ ARND=
201108081800 METAR MRLM 081800Z 01009KT 9999 FEW030 SCT260 30/25 A2991 RMK CB DST SW N HZ ARND=
201108081900 METAR MRLM 081900Z 01008KT 9999 FEW025 BKN250 30/25 A2988 RMK CB RA DST S SW HZ ARND=
201108082000 METAR MRLM 082000Z 01008KT CAVOK 30/24 A2983 RMK BKN250 CB DST SW HZ ARND=
201108082100 METAR MRLM 082100Z 32005KT CAVOK 31/24 A2982 RMK BKN250 HZ ARND=
201108082200 METAR MRLM 082200Z 31005KT CAVOK 30/24 A2982 RMK FEW140 BKN250 HZ ARND=
201108082300 METAR MRLM 082300Z 32003KT CAVOK 30/24 A2984 RMK FEW140 BKN250 HZ ARND=
201108090000 METAR MRLM 090000Z 00000KT CAVOK 28/25 A2985 RMK FEW130 BKN250 CB DST S HZ ARND=
201108090100 METAR MRLM NIL=
201108090200 METAR MRLM NIL=
201108090300 METAR MRLM NIL=
201108090400 METAR MRLM NIL=
201108090500 METAR MRLM NIL=
201108090600 METAR MRLM NIL=
201108090700 METAR MRLM NIL=
201108090800 METAR MRLM NIL=
201108090900 METAR MRLM NIL=
201108091000 METAR MRLM NIL=
201108091100 METAR MRLM NIL=
201108091200 METAR MRLM 091200Z 24005KT 9999 NSC 23/22 A2988 RMK HZ ARND=
201108091300 METAR MRLM 091300Z 21004KT 9999 NSC 26722 A2989 RMK HZ ARND=
201108091400 METAR MRLM NIL=
201108091500 METAR MRLM 091500Z 06004KT CAVOK 29/24 A2992 RMK SCT250 TCU N HZ ARND=
201108091600 METAR MRLM 091600Z 03004KT CAVOK 30/23 A2993 RMK BKN260 TCU N HZ ARND=
201108091700 METAR MRLM 091700Z 04006KT CAVOK 30/24 A2992 RMK BKN260 HZ ARND=
201108091800 METAR MRLM 091800Z 03006KT CAVOK 30/25 A2989 RMK BKN250 HZ ARND=
201108091900 METAR MRLM 091900Z 05005KT CAVOK 30/24 A2987 RMK BKN250 HZ ARND=
201108092000 METAR MRLM 092000Z 07004KT CAVOK 30/25 A2985 RMK BKN250 TCU SW HZ ARND=
201108092100 METAR MRLM 092100Z 09003KT 9999 FEW030 BKN250 30/25 A2984 RMK TCU DST SW HZ ARND=
201108092200 METAR MRLM 092200Z 00000KT 9999 FEW025 SCT140 30/25 A2983 RMK SCT250 HZ ARND=
201108092300 METAR MRLM 092300Z 03004KT CAVOK 29/25 A2982 SCT140 SCT250 HZ ARND=
201108100000 METAR MRLM 100000Z 00000KT CAVOK 29/25 A2984 RMK BKN130 SCT250 TCU DST W HZ ARND=
201108100100 METAR MRLM NIL=
201108100200 METAR MRLM NIL=
201108100300 METAR MRLM NIL=
201108100400 METAR MRLM NIL=
201108100500 METAR MRLM NIL=
201108100600 METAR MRLM NIL=
201108100700 METAR MRLM NIL=
201108100800 METAR MRLM NIL=
201108100900 METAR MRLM NIL=
201108101000 METAR MRLM NIL=
201108101100 METAR MRLM NIL=
201108101200 METAR MRLM 101200Z NIL=
201108101300 METAR MRLM 101300Z 03004KT 9999 VCTS FEW010CB SCT080 SCT140 26/25 A2987 RMK TS NE CB RN N HZ ARND=
201108101400 METAR MRLM 101400Z 00000KT 9999 FEW015 BKN090 29/25 A2989 RETS CB RN N QD FEW260 HZ ARND=
201108101500 METAR MRLM 101500Z 28004KT 9999 BKN025 28/24 A2990 RMK CBS RN N E QDS FEW080 FEW150 HZ ARND=
201108101600 METAR MRLM 101600Z 00000KT 9999 VCTS VCSH FEW015CB FEW025 BKN080 29/24 A2992 RMK FEW140 CBS RN N E QDS VIS 8KMS N NE=
201108101700 METAR MRLM 101700Z 36012KT 5000 TSRA FEW008 FEW010CB BKN020 26/24 A2994 RMK FEW120 VIS 8KMS SW 8KMS=
201108101800 METAR MRLM 101800Z 01009KT 7000 RA SCT005 SCT100 26/25 A2988 RETS RMK FEW120 VIS SW W NW 8KMS=
201108101900 METAR MRLM 101900Z 30003KT 9999 BKN020 26/25 A2988 RERA RMK FEW080 CBS RN DST SW W HZ ARND=
201108102000 METAR MRLM 102000Z 00000KT 9999 FEW010 SCT025 27/25 A2985 RMK FEW140 SCT260 HZ ARND=
201108102100 METAR MRLM 102100Z 22004KT CAVOK 30/25 A2983 RMK SCT140 BKN270 CB RN DST W HZ ARND=
201108102200 METAR MRLM 102200Z 07005KT 9999 FEW020 SCT140 28/25 A2983 RMK SCT270 CB RN DST NE E HZ ARND=
201108102300 METAR MRLM 102300Z 00000KT CAVOK 28/25 A2980 RMK FEW130 SCT150 SCT260 CB RN DST NE E S SE CB DSR W=
201108110000 METAR MRLM 110000Z 00000KT CAVOK 27/25 A2980 RMK FEW120 SCT150 SCT260 CB RN DST E SE HZ ARND=
201108110100 METAR MRLM NIL=
201108110200 METAR MRLM NIL=
201108110300 METAR MRLM NIL=
201108110400 METAR MRLM NIL=
201108110500 METAR MRLM NIL=
201108110600 METAR MRLM NIL=
201108110700 METAR MRLM NIL=
201108110800 METAR MRLM NIL=
201108110900 METAR MRLM NIL=
201108111000 METAR MRLM NIL=
201108111100 METAR MRLM NIL=
201108111200 METAR MRLM 111200Z 26003KT CAVOK 23/22 A2986 RMK SCT080 SCT260 CB RN DST QUAD N E RN ARND=
201108111300 METAR MRLM 111300Z 26003KT CAVOK 25/23 A2987 RMK SCT080 FEW150 SCT260 CB RN DST QUAD N E HZ ARND=
201108111400 METAR MRLM 111400Z 28003KT 9999 FEW015 BKN025 26/23 A2988 RMK FEW080 CB RN DST QUAD N HZ ARND=
201108111500 METAR MRLM 111500Z 29004KT 9999 DZ FEW020 SCT080 27/23 A2988 RMK FEW150 FEW270 CB RN DST N NE E HZ ARND=
201108111600 METAR MRLM 111600Z 34007KT 9999 SCT020 SCT030 28/24 A2990 REDZ RMK CB RN DST QUAD N FEW080 HZ ARND=
201108111700 METAR MRLM 111700Z 32008KT 9999 FEW025 BKN080 29/24 A2989 RMK CB RN DST QUAD N HZ ARND=
201108111800 METAR MRLM 111800Z 31004KT 9999 FEW025 BKN080 29/24 A2989 RMK FEW120 CB RN DST QUAD N E HZ ARND=
201108111900 METAR MRLM 111900Z 02006KT 9999 FEW020 BKN030 29/23 A2988 RMK CB RN DST QUAD N E HZ ARND=
201108112000 METAR MRLM 112000Z 06005KT 8000 RA OVC015 27/24 A2986 RMK VIS 9999 QUAD W S=
201108112100 METAR MRLM 112100Z 20004KT 9999 DZ FEW010 BKN150 27/25 A2979 RERA RMK CB RN QUAD S FEW080 HZ ARND=
201108112200 METAR MRLM 112200Z 08005KT 9999 FEW015 SCT080 27/24 A2978 REDZ RMK CB RN DST QUAD S SCT150 HZ ARND=
201108112300 METAR MRLM 112300Z 13008KT CAVOK 27/25 A2977 RMK SCT140 SCT260 CB RA DST S HZ ARND=
201108120000 METAR MRLM 120000Z 00000KT CAVOK 26/24 A2979 RMK SCT120 SCT150 FEW270 CB RA DST S HZ ARND=
201108120100 METAR MRLM NIL=
201108120200 METAR MRLM NIL=
201108120300 METAR MRLM NIL=
201108120400 METAR MRLM NIL=
201108120500 METAR MRLM NIL=
201108120600 METAR MRLM NIL=
201108120700 METAR MRLM NIL=
201108120800 METAR MRLM NIL=
201108120900 METAR MRLM NIL=
201108121000 METAR MRLM NIL=
201108121100 METAR MRLM NIL=
201108121200 METAR MRLM 121200Z 25003KT CAVOK 22/22 A2987 RMK BKN100 TCU DST N HZ ARND=
201108121300 METAR MRLM 121300Z 00000KT CAVOK 24/22 A2989 RMK BKN110 HZ ARND=
201108121400 METAR MRLM 121400Z 00000KT CAVOK 25/23 A2987 RMK BKN110 FEW250 CB DST NE HZ ARND=
201108121500 METAR MRLM 121500Z 00000KT CAVOK 28/23 A2987 RMK SCT120 SCT250 CB DST N NE HZ ARND=
201108121600 METAR MRLM 121600Z 31004KT CAVOK 30/21 A2989 RMK BKN120 FEW250 CB/RA DST N NE HZ LGT ARND=
201108121700 METAR MRLM 121700Z 32004KT CAVOK 29/22 A2990 BKN120 FEW250 HZ LGT ARND=
201108121800 METAR MRLM NIL=
201108121900 METAR MRLM NIL=
201108122000 METAR MRLM 122000Z 03004KT 9999 SCT020 SCT110 28/23 A2986 RMK FEW250 CB RA DST NE HZ ARND=
201108122100 METAR MRLM 122100Z 00000KT 9999 FEW020 SCT100 28/23 A2984 RMK SCT250 CB RA DST W HZ ARND=
201108122200 METAR MRLM 122200Z 32005KT 9999 FEW020 BKN100 27/23 A2983 RMK CB DST W HZ ARND=
201108122300 METAR MRLM 122300Z 33004KT 9999 FEW020 BKN110 28/23 A2983 RMK HZ ARND=
201108130000 METAR MRLM 130000Z 00000KT 9999 FEW015 BKN110 26/24 A2986 RMK HZ ARND=
201108130057 METAR MRLM 13100Z NIL=
201108130100 METAR MRLM 130100Z NIL=
201108130200 METAR MRLM 130200Z NIL=
201108130300 METAR MRLM NIL=
201108130400 METAR MRLM NIL=
201108130500 METAR MRLM NIL=
201108130600 METAR MRLM NIL=
201108130700 METAR MRLM NIL=
201108130800 METAR MRLM NIL=
201108130900 METAR MRLM NIL=
201108131000 METAR MRLM NIL=
201108131100 METAR MRLM NIL=
201108131200 METAR MRLM 131200Z 24005KT CAVOK 23/22 A2985 RMK BKN110 CB DST N NE E HZ ARND=
201108131300 METAR MRLM 131300Z 22005KT CAVOK 25/23 A2986 RMK SCT120 SCT250 CB TS DST N NE E HZY ARND=
201108131400 METAR MRLM 131400Z 27003KT CAVOK 29/23 A2988 RMK SCT130 SCT260 CB TS DST N NE E HZY ARND=
201108131500 METAR MRLM 131500Z 31005KT CAVOK 24/22 A2989 RMK SCT130 BKN250 CB RA DST NE E HZY ARND=
201108131600 METAR MRLM 131600Z 33005KT 9999 FEW030 SCT130 29/23 A2990 RMK SCT250 CB RA DST N NE E HZY ARND=
201108131700 METAR MRLM 131700Z 03003KT 9999 FEW035 SCT140 30/23 A2989 RMK SCT260 CB RA DST N E HZY ARND=
201108131800 METAR MRLM 131800Z 04006KT 9999 SCT030 SCT130 29/24 A2987 RMK FEW260 CB RA E TCU DST W HZY ARND=
201108131900 METAR MRLM 131900Z 04008KT 9999 SCT025 SCT120 29/23 A2984 RMK FEW250 TCU DST S SW CB RA DST N NE HZY ARND=
201108132000 METAR MRLM 132000Z 06006KT 9999 FEW025 SCT120 28/23 A2983 RK FEW250 CB RA DST S SW N NE=
201108132100 METAR MRLM 132100Z 07005KT CAVOK 28722 A2982 RMK SCT130 BKN250 CB RA DST S SW N HZ ARND=
201108132200 METAR MRLM 132200Z 08004KT CAVOK 27/23 A2981 RMK SCT120 BKN250 CB RA DST W N HZ ARND=
201108132300 METAR MRLM 132300Z 000000KT CAVOK 27/23 A2982 RMK BKN120 FEW250 RMK RA N HZ ARND=
201108140000 METAR MRLM 140000Z 00000KT CAVOK 26723 A2984 RMK BKN110 RA DST N HZ ARND=
201108140100 METAR MRLM NIL=
201108140200 METAR MRLM NIL=
201108140300 METAR MRLM NIL=
201108140400 METAR MRLM NIL=
201108140500 METAR MRLM NIL=
201108140600 METAR MRLM NIL=
201108140700 METAR MRLM NIL=
201108140800 METAR MRLM NIL=
201108140900 METAR MRLM NIL=
201108141000 METAR MRLM NIL=
201108141100 METAR MRLM NIL=
201108141200 METAR MRLM NIL=
201108141300 METAR MRLM 141300Z 25003KT 9999 FEW015 SCT120 26/22 A2986 RMK SCT270 CB DST N HZ ARND=
201108141400 METAR MRLM 141400Z 30005KT 9999 FEW020 BKN270 27/21 A2988 RK FEW130 CB DST N HZ ARND=
201108141500 METAR MRLM 141500Z 31005KT 9999 FEW035 SCT150 29/22 A2989 RMK SCT270 CB N HZ ARND=
201108141555 METAR MRLM 141555Z 35007KT 9999 FEW045 SCT130 31/21 A2989 RMK SCT270 CB DST NW HZ ARND=
201108141600 METAR MRLM 35007KT 9999 FEW045 SCT130 31/21 A2989 RMK SCT270 CB DST NW HZ ARND=
201108141700 METAR MRLM 141700Z 34006KT 9999 FEW030 SCT270 32/22 A2988 RK FEW090 CB DST N E HZ ARND=
201108141800 METAR MRLM 141800Z 01010KT 9999 FEW035 BKN270 31/23 A2986 RMK CB DST ARND RA N FEW110 HZ ARND=
201108141900 METAR MRLM 141900Z 01014KT 9999 FEW030TCU SCT110 30/24 A2984 RMK CB DST HZ ARND SCT270 RA S SW W NW=
201108142000 METAR MRLM 142000Z 01008KT 9999 FEW035 BKN080 29/22 A2983 RMK FEW270 RA S W=
201108142100 METAR MRLM 142100Z 03003KT 9999 FEW040 SCT080 30/22 A2981 RMK SCT270 CB HZ ARND RN DST W S NE E=
201108142200 METAR MRLM 142200Z 01005KT 9999 FEW015 SCT035 29/22 A2981 RMK FEW150 FEW270 CB HZ ARND RN DST S W=
201108142300 METAR MRLM 142300Z 35004KT 9999 SCT015 28/23 A2982 RMK FEW025 SCT110 FEW270 CBS RN HZ ARND=
201108150000 METAR MRLM NIL=
201108150100 METAR MRLM NIL=
201108150200 METAR MRLM NIL=
201108150300 METAR MRLM NIL=
201108150400 METAR MRLM NIL=
201108150500 METAR MRLM NIL=
201108150600 METAR MRLM NIL=
201108150700 METAR MRLM NIL=
201108150800 METAR MRLM NIL=
201108150900 METAR MRLM NIL=
201108151000 METAR MRLM NIL=
201108151100 METAR MRLM NIL=
201108151200 METAR MRLM 151200Z NIL=
201108151300 METAR MRLM 151300Z 32002KT CAVOK 26/22 A2986 RMK FEW130 BKN270 CBS RN DST NW N HZ ARND=
201108151400 METAR MRLM 151400Z 25003KT 9999 SCT015 SCT270 28/22 A2987 RMK CBS RN DST N NE FEW100 HZ ARND=
201108151500 METAR MRLM 1500Z 00000KT 9999 FEW025 BKN150 29/22 A2988 RMK CBS RN DST N QD FEW 130 LGT HZ ARND=
201108151600 METAR MRLM 151600Z 31005KT 9999 FEW035 BKN220 30/23 A2988 RMK FEW080 FEW150 CBS RN DST LGT HZ ARND=
201108151700 METAR MRLM 151700Z 36013KT 9999 FEW035 BKN250 30/23 A2987 RMK FEW120 CB DST E HZ ARND=
201108151800 METAR MRLM 151800Z 34012KT 9999 FEW040 SCT120 30/22 A2987 RMK CBS RN DST S SW N E FEW260 HZ ARND=
201108151900 METAR MRLM 151900Z 36010KT 9999 FEW035 SCT130 30/23 A2985 RMK CB HZ ARND FEW150 FEW260 RN DST S SW=
201108152000 METAR MRLM 152000Z 34006KT 9999 FEW038 SCT140 30/23 A2983 RMK CB DST HZ ARND RN DST SW W E FEW150 FEW260=
201108152100 METAR MRLM 152100Z 01007KT 9999 SCT030 29/23 A2981 RMK FEW090 FEW150 FEW260 CB HZ DST ARND RN DST S SW W NE E=
201108152200 METAR MRLM 152200Z 32005KT 9999 BKN025 29/24 A2981 RMK CB HZ DST ARND FEW090 FEW260=
201108152300 METAR MRLM 152300Z 30003KT 9999 BKN025 28/23 A2983 RMK FEW090 CB RN DST QUAD S W=
201108160000 METAR MRLM 160000Z 28003KT 9999 BKN018 27/23 A2984 RMK FEW140 FEW260 CB RN DST QUAD S W HZ ARND=
201108160100 METAR MRLM NIL=
201108160200 METAR MRLM NIL=
201108160300 METAR MRLM NIL=
201108160400 METAR MRLM NIL=
201108160500 METAR MRLM NIL=
201108160600 METAR MRLM NIL=
201108160700 METAR MRLM NIL=
201108160800 METAR MRLM NIL=
201108160900 METAR MRLM NIL=
201108161000 METAR MRLM NIL=
201108161100 METAR MRLM NIL=
201108161200 METAR MRLM 161200Z 27003KT CAVOK 22/21 A2987 FEW110 BKN250 CB TS N HZ ARND=
201108161300 METAR MRLM 161300Z 00000KT 9999 SCT010 BKN110 23/21 A2991 RMK CB TS DST N NE HZ ARND=
201108161400 METAR MRLM 161400Z 00000KT 9999 FEW010 BKN110 24/22 A2991 RMK FEW250 CB TS DST N HZ ARND=
201108161500 METAR MRLM 161500Z 00000KT 9999 -DZ SCT010 BKN110 25/22 A2994 RMK HZ ARND=
201108161600 METAR MRLM 161600Z 02005KT 9999 SCT020 BKN110 27/23 A2995 RMK RA DST NE HZ LEVE ARND=
201108161700 METAR MRLM 161700Z 32009KT 9999 FEW030 BKN120 30/22 A2995 RMK FEW250 RA DST N NE HZ LEVE ARND=
201108161800 METAR MRLM 161800Z 31007KT 9999 FEW030 BKN120 29/23 A2993 RMK RA DST N HZ ARND=
201108161900 METAR MRLM 161900Z 33008KT 9999 SCT030 BKN110 29/23 A2990 RMK TCU DST S HZ LEVE ARND=
201108162000 METAR MRLM 162000Z 32008KT 9999 SCT030 SCT250 29/23 A2988 RMK FEW130 HZ LEVE ARND=
201108162025 METAR MRLM 162025Z 06007KT 9999 -RA FEW010 SCT030 30/22 A3002 PRUEBA=
201108162100 METAR MRLM 162100Z 31004KT 9999 SCT035 SCT250 30/23 A2986 RMK CB RA DST SW HZ LGT ARND=
201108162200 METAR MRLM 162200Z 34009KT 9999 SCT030 29/23 A2986 RMK FEW130 FEW250 CB RA DST S SW HZY=
201108162300 METAR MRLM 162300Z 30005KT 9999 FEW030 BKN120 28/23 A2985 RMK FEW100 CB DST SW HZ ARND=
201108162351 METAR MRLM 170000Z 00000KT 9999 FEW020 BKN110 27/23 A2985 RMK FEW250 HZ ARND=
201108170000 METAR MRLM 170000Z 00000KT 9999 FEW020 BKN110 27/23 A2985 RMK FEW250 HZ ARND=
201108170100 METAR MRLM NIL=
201108170200 METAR MRLM NIL=
201108170300 METAR MRLM NIL=
201108170400 METAR MRLM NIL=
201108170500 METAR MRLM NIL=
201108170600 METAR MRLM NIL=
201108170700 METAR MRLM NIL=
201108170800 METAR MRLM NIL=
201108170900 METAR MRLM NIL=
201108171000 METAR MRLM NIL=
201108171100 METAR MRLM NIL=
201108171200 METAR MRLM 171200Z 00000KT CAVOK 23/22 A2991 RMK BKN110 CB DST N HZ ARND=
201108171300 METAR MRLM 171300Z 22004KT CAVOK 25/22 A2992 RMK SCT120 FEW250 CB DST N HZY=
201108171400 METAR MRLM 171400Z 00000KT CAVOK 28/23 A2992 RMK FEW130 SCT260 CB DST N NW HZ ARND=
201108171500 METAR MRLM 171500Z 05004KT CAVOK 29/22 A2994 RMK BKN130 FEW260 CB DST NW N HZ LGT ARND=
201108171600 METAR MRLM 171600Z 02004KT CAVOK 29/23 A2994 RMK BKN130 CB DST N HZ LGT ARND=
201108171700 METAR MRLM 171700Z 04004KT 9999 FEW030 BKN130 30/23 A2993 RMK FEW250 HZ LGT ARND=
201108171800 METAR MRLM 171800Z 03008KT 9999 FEW030 BKN120 29/23 A2993 RMK FEW250 TCU DST SW HZ LGT ARND=
201108171900 METAR MRLM 171900Z 03005KT CAVOK 30/23 A2991 RMK BKN120 FEW250 CB DST S SW HZ LGT ARND=
201108172000 METAR MRLM 172000Z 05003KT CAVOK 30/23 A2986 RMK SCT130 SCT250 HZ LGT ARND=
201108172100 METAR MRLM 172100Z 02006KT 9999 FEW030 SCT130 30/24 A2985 RMK SCT250 CB DST S HZY ARND=
201108172200 METAR MRLM 172200Z 04007KT CAVOK 30/24 A2984 RMK SCT120 SCT250 HZY ARND=
201108172300 METAR MRLM 172300Z 03005KT CAVOK 29/23 A2985 RMK SCT120 SCT250 CB DST SW HZY ARND=
201108172356 METAR MRLM 180000Z 32004KT CAVOK 28/22 A2986 RMK SCT130 FEW250 CB RN DST SW HZY ARND=
201108180000 METAR MRLM 180000Z 32004KT CAVOK 28/22 A2986 RMK SCT130 FEW250 CB RN DST SW HZY ARND=
201108180100 METAR MRLM NIL=
201108180200 METAR MRLM NIL=
201108180300 METAR MRLM NIL=
201108180400 METAR MRLM NIL=
201108180500 METAR MRLM NIL=
201108180600 METAR MRLM NIL=
201108180700 METAR MRLM NIL=
201108180800 METAR MRLM NIL=
201108180900 METAR MRLM NIL=
201108181000 METAR MRLM NIL=
201108181100 METAR MRLM NIL=
201108181200 METAR MRLM NIL=
201108181300 METAR MRLM 181300Z 23003KT CAVOK 26/22 A2990 RMK CB DST SE BKN280 HZ ARND=
201108181400 METAR MRLM 181400Z 26003KT CAVOK 29/24 A2991 RMK BKN280 HZY ARND=
201108181500 METAR MRLM 181500Z 03006KT 9999 FEW030 BKN280 30/24 A2990 RMK HZY ARND=
201108181600 METAR MRLM 181600Z 03006KT 9999 FEW035 BKN270 30/24 A2990 RMK HZY ARND=
201108181700 METAR MRLM 181700Z 03006KT 9999 FEW035 SCT280 30/24 A2988 RMK CB DST SE HZY ARND=
201108181800 METAR MRLM 181800Z 03007KT 9999 FEW035 SCT280 31/23 A2987 RMK CB DST S HZY ARND=
201108181900 METAR MRLM 181900Z 03010KT 9999 FEW035 SCT280 30/23 A2984 RMK CB DST S SW HZY ARND=
201108182000 METAR MRLM 182000Z 01008KT 9999 FEW035 SCT280 31/24 A2982 RMK CB DST SE S SW W HZY ARND=
201108182100 METAR MRLM 182100Z 03008KT 9999 BKN032 30/24 A2979 RMK FEW280 CB S SW HZ ARND=
201108182200 METAR MRLM 182200Z 10008KT 9999 BKN030 30/24 A2979 RMK CB RN DST QUAD S FEW2 80 HZ ARND=
201108182300 METAR MRLM 182300Z 03006KT 9999 SCT030 29/23 A2981 RMK CB RA S FEW280 HZ ARND=
201108190000 METAR MRLM 190000Z 01003KT 9999 FEW030 SCT280 29/23 A2983 RMK CB RA DST SW W HZ ARND=
201108190100 METAR MRLM NIL=
201108190200 METAR MRLM NIL=
201108190300 METAR MRLM NIL=
201108190400 METAR MRLM NIL=
201108190500 METAR MRLM NIL=
201108190600 METAR MRLM NIL=
201108190700 METAR MRLM NIL=
201108190800 METAR MRLM NIL=
201108190900 METAR MRLM NIL=
201108191000 METAR MRLM NIL=
201108191100 METAR MRLM NIL=
201108191200 METAR MRLM NIL=
201108191300 METAR MRLM 191300Z 23004KT 9999 FEW030 SCT080 24/21 A2984 RMK SCT280 CB RN DST N NE E HZ ARND=
201108191400 METAR MRLM 191400Z 25003KT CAVOK 27/22 A2986 RMK FEW090 BKN280 CB RN DST N NE E HZ ARND=
201108191500 METAR MRLM 191500Z 18003KT CAVOK 30/21 A2987 RMK FEW140 BKN270 CB RA NE E HZ ARND=
201108191600 METAR MRLM 191600Z 090004KT CAVOK 30/21 A2987 RMK FEW140 BKN270 CB RA NE E HZ ARND=
201108191700 METAR MRLM 191700Z 09007KT 9999 FEW040 BKN260 30/22 A2986 RMK CB DST NE HZ ARND=
201108191800 METAR MRLM 191800Z 07006KT 9999 FEW045 BKN260 31/21 A2984 RMK CB SDT SW NE HZ ARND=
201108191900 METAR MRLM 191900Z 09006KT 9999 FEW035 BKN260 31/23 A2981 RMK CB S SW W HZ ARND=
201108192000 METAR MRLM 192000Z 07007KT 9999 FEW030 BKN260 30/24 A2978 RMK CB SE S SW W HZ ARND=
201108192100 METAR MRLM 192100Z 08005KT 9999 FEW030 BKN270 30/24 A2977 RMK CB DST SE SW S W LGT HZ ARND=
201108192200 METAR MRLM 192200Z 05003KT 9999 FEW030 BKN270 30/23 A2977 RMK FEW150 CBS DST S SW W LGT HZ ARND=
201108192300 METAR MRLM 192300Z 11003KT 9999 FEW030 BKN270 29/23 A2978 RMK FEW149 CBS DST SE S SW W FEW140 LGT HZ ARND=
201108200000 METAR MRLM 200000Z 12003KT CAVOK 28/24 A2979 FEW130 BKN250=
201108200100 METAR MRLM NIL=
201108200200 METAR MRLM NIL=
201108200300 METAR MRLM NIL=
201108200400 METAR MRLM NIL=
201108200500 METAR MRLM NIL=
201108200600 METAR MRLM NIL=
201108200700 METAR MRLM NIL=
201108200800 METAR MRLM NIL=
201108200900 METAR MRLM NIL=
201108201000 METAR MRLM NIL=
201108201100 METAR MRLM NIL=
201108201200 METAR MRLM 201200Z 23005KT 9999 FEW010 SCT250 24/22 A2984 RMK TCU DST N HZY ARND=
201108201300 METAR MRLM 201300Z 27004KT 9999 FEW020 27/23 A2986 RMK FEW250 HZ ARND=
201108201400 METAR MRLM 201400Z 00000KT 9999 FEW030 30/24 A2986 RMK HZ ARND=
201108201500 METAR MRLM 201500Z 03006KT 9999 BKN030 30/24 A2987 RMK TCU DST N LGT HZ ARND=
201108201600 METAR MRLM 201600Z 02006KT 9999 SCT030 30/24 A2988 RMK FEW250 TCU DST N HZ LGT ARND=
201108201700 METAR MRLM 201700Z 04006KT 9999 SCT030 30/24 A2987 RMK FEW140 FEW260 CB DST S/SW/N HZ LGT ARND=
201108201800 METAR MRLM 201800Z 02007KT 9999 FEW035 SCT260 30/23 A2985 RMK FEW140 CB DST SW/NW HZ LGT ARND=
201108201900 METAR MRLM 201900Z 02008KT 9999 FEW035 SCT260 31/24 A2992 RMK TCU DST S/SW HZ LGT ARND=
201108202000 METAR MRLM 202000Z 03008KT 9999 FEW035 BKN260 30/23 A2980 RMK TCU DST S/SW HZ LGT ARND=
201108202100 METAR MRLM 202100Z 02008KT 9999 FEW035 BKN260 31/24 A2980 RMK CB DST QUAD S HZ LGT ARND=
201108202200 METAR MRLM 202200Z 05004KT CAVOK 30/24 A2979 RMK BKN250 CB DST S/SW HZ LGT ARND=
201108202300 METAR MRLM 202300Z 11004KT 9999 FEW030 BKN250 30/23 A2982 RMK CB DST SSW HZ LGT ARND=
201108210000 METAR MRLM 210000Z 15003KT 9999 FEW025 BKN250 28/23 A2984 RMK CB DST QUAD S HZ ARND=
201108210100 METAR MRLM NIL=
201108210200 METAR MRLM NIL=
201108210300 METAR MRLM NIL=
201108210400 METAR MRLM NIL=
201108210500 METAR MRLM NIL=
201108210600 METAR MRLM NIL=
201108210700 METAR MRLM NIL=
201108210800 METAR MRLM NIL=
201108210900 METAR MRLM NIL=
201108211000 METAR MRLM NIL=
201108211100 METAR MRLM NIL=
201108211200 METAR MRLM 211200Z 22005KT CAVOK 24/22 A2987 RMK FEW120 SCT250 HZ ARND=
201108211300 METAR MRLM 211300Z 23003KT CAVOK 27/22 A2989 RMK BKN260 HZ LEVE ARND=
201108211400 METAR MRLM 211400Z 00000KT CAVOK 30/24 A2990 RMK BKN260 KZ LGT ARND=
201108211500 METAR MRLM 211500Z 07004KT 9999 FEW030 BKN260 29/24 A2992 RMK FEW130 HZ LEVE ARND=
201108211600 METAR MRLM NIL=
201108211700 METAR MRLM 211700Z 06006KT 9999 FEW030 SCT270 30/24 A2991 RMK HZ LEVE ARND=
201108211800 METAR MRLM 211800Z 06008KT 9999 FEW030 SCT260 30/24 A2990 RMK FEW140 CB DST SW HZ LEVE ARND=
201108211900 METAR MRLM 211900Z 05007KT 9999 FEW030 SCT140 31/24 A2988 RMK SCT270 CB DST S SW HZ LGT ARND=
201108212000 METAR MRLM 212000Z 06006KT 9999 FEW035 BKN260 31/24 A2984 RMK CB DST SW N HZ LGT ARND=
201108212100 METAR MRLM 212100Z 10005KT 9999 SCT035 BKN250 31/24 A2984 RMK CB DST SW HZ LGT ARND=
201108212200 METAR MRLM 212200Z 10007KT 9999 SCT035 SCT250 31/24 A2982 RMK FEW140 HZ LGT ARND=
201108212300 METAR MRLM 212300Z 13009KT 9999 FEW030 SCT130 30/24 A2982 RMK SCT250 HZ LGT ARND=
201108212353 METAR MRLM 220000Z 00000KT 9999 FEW025 SCT120 28/23 A2983 RMK SCT250 HZ LGT ARND=
201108220000 METAR MRLM 220000Z 00000KT 9999 FEW025 SCT120 28/23 A2983 RMK SCT250 HZ LGT ARND=
201108220100 METAR MRLM NIL=
201108220200 METAR MRLM NIL=
201108220300 METAR MRLM NIL=
201108220400 METAR MRLM NIL=
201108220500 METAR MRLM NIL=
201108220600 METAR MRLM NIL=
201108220700 METAR MRLM NIL=
201108220800 METAR MRLM NIL=
201108220900 METAR MRLM NIL=
201108221000 METAR MRLM NIL=
201108221100 METAR MRLM NIL=
201108221200 METAR MRLM 221200Z 22005KT 9999 SCT010 SCT120 23/22 A2990 CB RN DST NE HZ LGT ARND=
201108221300 METAR MRLM 221300Z 22004KT 9999 DZ SCT010 BKN120 24/23 A2991 RMK CB DST E HZ LGT ARND=
201108221400 METAR MRLM 221400Z 00000KT 9999 FEW020 BKN120 29/24 A2993 REDZ RMK FEW250 CB RA DST N NE HZ LGT ARND=
201108221500 METAR MRLM 221500Z 08003KT 9999 FEW025 BKN130 30/24 A2992 RMK FEW250 CB DST NE HZ LGT ARND=
201108221600 METAR MRLM 221600Z 06005KT 9999 FEW030 BKN130 30/24 A2990 RMK FEW250 HZ LGT ARND=
201108221700 METAR MRLM 221700Z 03007KT 9999 FEW030 SCT140 30/24 A2991 RMK SCT250 HZ LGT ARND=
201108221800 METAR MRLM 221800Z 05010KT 9999 FEW030 SCT140 30/24 A2990 RMK SCT250 CB DST SW HZ LGT ARND=
201108221900 METAR MRLM 221900Z 07008KT 9999 FEW030 BKN250 30/24 A2986 RMK FEW140 CB DST SW HZ LGT ARND=
201108222000 METAR MRLM 222000Z 05004KT CAVOK 30/23 A2985 RMK BKN130 FEW250 CB DST S SW HZ LGT ARND=
201108222100 METAR MRLM 222100Z 07003KT CAVOK 30/22 A2982 RMK SCT130 SCT250 CB DST S HZY ARND=
201108222200 METAR MRLM 222200Z 04004KT CAVOK 29/23 A2982 RMK BKN130 SCT250 CB DST S HZY ARND=
201108222300 METAR MRLM 222300Z 04003KT CAVOK 29/22 A2984 RMK BKN130 FEW250 CB DST SE HZ ARND=
201108222359 METAR MRLM 230000Z 00000KT CAVOK 28/24 A2985 RMK BKN120 CB DST SE HZ ARND=
201108230000 METAR MRLM 230000Z 00000KT CAVOK 28/24 A2985 RMK BKN120 CB DST SE HZ ARND=
201108230100 METAR MRLM NIL=
201108230200 METAR MRLM NIL=
201108230300 METAR MRLM NIL=
201108230400 METAR MRLM NIL=
201108230500 METAR MRLM NIL=
201108230600 METAR MRLM NIL=
201108230700 METAR MRLM NIL=
201108230800 METAR MRLM NIL=
201108230900 METAR MRLM NIL=
201108231000 METAR MRLM NIL=
201108231100 METAR MRLM NIL=
201108231200 METAR MRLM NIL=
201108231300 METAR MRLM 231300Z 24004KT CAVOK 26/22 A2986 RMK FEW120 FEW250 CB DST NE HZY ARND=
201108231400 METAR MRLM 231400Z 00000KT CAVOK 28/23 A2988 RMK BKN120 HZY ARND=
201108231500 METAR MRLM 231500Z 00000KT 9999 FEW035 BKN130 30/23 A2988 RMK FEW250 CB DST E SE HZY ARND=
201108231600 METAR MRLM 231600Z 01005KT 9999 FEW030 BKN120 29/23 A2988 RMK CB RA DST N NE HZY ARND=
201108231700 METAR MRLM 231700Z 03007KT 9999 SCT020 BKN110 27/23 A2988 RMK RA DST N HZ ARND=
201108231800 METAR MRLM 231800Z 00000KT 9999 FEW030 BKN120 29/23 A2986 RMK HZ ARND=
201108231900 METAR MRLM 231900Z 07005KT 9999 FEW030 SCT130 30/24 A2982 RMK SCT250 HZY ARND=
201108232000 METAR MRLM 232000Z 09004KT 9999 FEW035 SCT130 29/23 A2981 RMK SCT250 HZY ARND=
201108232100 METAR MRLM 232100Z 12005KT CAVOK 30/23 A2978 RMK BKN130 SCT250 CB DST SE HZ ARND=
201108232200 METAR MRLM 232200Z 11003KT CAVOK 29/23 A2978 RMK BKN120 SCT250 HZ ARND=
201108232300 METAR MRLM 232300Z 00000KT CAVOK 29/23 A2980 RMK BKN120 FEW250 HZ ARND=
201108240000 METAR MRLM 240000Z 00000KT CAVOK 28/22 RMK BKN110 FEW130 RA DST E HZ ARND=
201108240100 METAR MRLM NIL=
201108240200 METAR MRLM NIL=
201108240300 METAR MRLM NIL=
201108240400 METAR MRLM NIL=
201108240500 METAR MRLM NIL=
201108240600 METAR MRLM NIL=
201108240700 METAR MRLM NIL=
201108240800 METAR MRLM NIL=
201108240900 METAR MRLM NIL=
201108241000 METAR MRLM NIL=
201108241100 METAR MRLM NIL=
201108241200 METAR MRLM 241200Z 00000KT CAVOK 24/21 A2984 RMK BKN100 HZ ARND=
201108241300 METAR MRLM 241300Z 00000KT CAVOK 25722 A2986 RMK BKN100 CB RA DST N NE HZ ARND=
201108241400 METAR MRLM NIL=
201108241500 METAR MRLM 241500Z 20003KT 9999 SCT020 BKN110 27/22 A2990 RMK HZ ARND=
201108241600 METAR MRLM 241600Z 11006KT 9999 BKN020 SCT100 28/24 A2990 RMK HZ ARND=
201108241700 METAR MRLM 241700Z 07005KT 9999 BKN020 SCT110 28/24 A2989 RMK HZ ARND=
201108241800 METAR MRLM 241800Z 09004KT 9999 FEW030 BKN120 29/23 A2987 RMK YCU DST S HZ ARND=
201108241900 METAR MRLM 241900Z 09004KT 9999 FEW030 SCT120 29/23 A2983 RMK SCT250 CB DST SE S HZ ARND=
201108242000 METAR MRLM 242000Z 08003KT 9999 FEW030 SCT120 29/23 A2980 RMK SCT250 CB DST S SW HZ ARND=
201108242100 METAR MRLM 242100Z 05004KT CAVOK 29/23 A2979 RMK SCT130 SCT250 CB DST SW HZ ARND=
201108242200 METAR MRLM 242200Z 09005KT 9999 FEW030 SCT130 29/22 A2978 RMK SCT250 CB DST SW HZ ARND=
201108242300 METAR MRLM 242300Z 06003KT 9999 FEW030 BKN120 29/23 A2979 RMK FEW250 HZ ARND=
201108250000 METAR MRLM 250000Z 11003KT 9999 SCT030 SCT110 28/22 A2981 RMK FEW250=
201108250100 METAR MRLM 250100Z NIL=
201108250200 METAR MRLM 250200Z NIL=
201108250300 METAR MRLM NIL=
201108250400 METAR MRLM NIL=
201108250500 METAR MRLM NIL=
201108250600 METAR MRLM NIL=
201108250700 METAR MRLM NIL=
201108250800 METAR MRLM NIL=
201108250900 METAR MRLM NIL=
201108251000 METAR MRLM NIL=
201108251100 METAR MRLM NIL=
201108251200 METAR MRLM 251200Z 21004KT CAVOK 23/22 A2984 RMK BKN100 HZ ARND=
201108251300 METAR MRLM 251300Z 23004KT CAVOK 25/22 A2988 RMK BKN110 HZ ARND=
201108251400 METAR MRLM 251400Z 00000KT 9999 FEW030 SCT120 29/23 A2991 RMK SCT260 HZ LGT ARND=
201108251500 METAR MRLM 251500Z 09004KT CAVOK 30/23 A2991 RMK FEW130 SCT260 CB DST NE LGT HZ ARND=
201108251600 METAR MRLM 251600Z 08005KT CAVOK 29/22 A2992 RMK BKN250 CB DST DST NE LGT HZ ARND=
201108251700 METAR MRLM 251700Z 26007KT 8000 VCFG SCT005 BKN020 22/22 A3001=
201108251716 METAR MRLM 251716Z ESTO ES UNA PRUEBA=
201108251734 METAR MRLM 251734Z PRUEBA=
201108251755 METAR MRLM 251755Z PRUEBA=
201108251800 METAR MRLM 251800Z 10004KT CAVOK 30/22 A2988 RMK BKN250 CB DST NE LGT HZ ARND=
201108251900 METAR MRLM 251900Z 09004KT CAVOK 30/23 A2986 RMK BKN250 HZ ARND=
201108252000 METAR MRLM 252000Z 07003KT CAVOK 29/24 A2985 RMK SCT140 SCT250 HZ ARND=
201108252100 METAR MRLM 252100Z 09003KT CAVOK 29/24 A2994 RMK BKN130 SCT250 CB RN DST SW HZ ARND=
201108252200 METAR MRLM 252200Z 14003KT 9999 -DZ FEW030 BKN130 29/23 A2983 RMK FEW250 RA DST SW HZ ARND=
201108252300 METAR MRLM 252300Z 20003KT 9999 FEW020 BKN120 28/23 A2985 RMK FEW250 RA DST S SW HZ ARND=
201108260000 METAR MRLM 260000Z 22003KT 9999 FEW015 BKN120 26/23 A2987 RMK RA DST S HZ ARND=
201108260100 METAR MRLM NIL=
201108260200 METAR MRLM NIL=
201108260300 METAR MRLM NIL=
201108260400 METAR MRLM NIL=
201108260500 METAR MRLM NIL=
201108260600 METAR MRLM NIL=
201108260700 METAR MRLM NIL=
201108260800 METAR MRLM NIL=
201108260900 METAR MRLM NIL=
201108261000 METAR MRLM NIL=
201108261100 METAR MRLM NIL=
201108261200 METAR MRLM 261200Z 00000KT 999 FEW010 BKN120 123/22 A2993 RMK RA DST NW N=
201108261300 METAR MRLM 261300Z 23005KT CAVOK 24/22 A2995 RMK BKN120 FEW250 HZ LGT ARND=
201108261400 METAR MRLM 261400Z 22003KT CAVOK 28/23 A2996 RMK SCT130 SCT250 HZ LGT ARND=
201108261500 METAR MRLM 261500Z 27004KT CAVOK 30/22 A2996 RMK BKN260 HZ LGT ARND=
201108261600 METAR MRLM NIL=
201108261656 METAR MRLM 261656Z PRUEBA 7=
201108261700 METAR MRLM 261700Z 02009KT CAVOK 31/23 A2995 RMK BKN260 HZ LGT ARND=
201108261705 METAR MRLM 261705Z PRUEBA 8=
201108261800 METAR MRLM 261800Z 02009KT CAVOK 31/23 A2994 RMK SCT260 HZ LGT ARND=
201108261900 METAR MRLM 261900Z 01009KT CAVOK 30/23 A2991 RMK SCT260 CB DST SW HZ LGT ARND=
201108262000 METAR MRLM 262000Z 03010KT CAVOK 31/24 A2989 RMK BKN260 HZ LGT ARND CB DST SW=
201108262100 METAR MRLM 262100Z 03007KT CAVOK 31/23 A2988 RMK BKN260 CB DST S SW HZ LGT ARND=
201108262200 METAR MRLM 262200Z 01006KT 9999 FEW030 BKN250 30/24 A2987 RMK CB DST S HZ LGT ARND=
201108262300 METAR MRLM 262300Z 03005KT 9999 FEW030 BKN250 29/24 A2988 RMK HZ ARND=
201108262351 METAR MRLM 270000Z 00000KT CAVOK 29/23 A2990 RMK SCT130 SCT250 HZ ARND=
201108270000 METAR MRLM 270000Z 00000KT CAVOK 29/23 A2990 RMK SCT130 SCT250 HZ ARND=
201108270100 METAR MRLM NIL=
201108270200 METAR MRLM NIL=
201108270300 METAR MRLM NIL=
201108270400 METAR MRLM NIL=
201108270500 METAR MRLM NIL=
201108270600 METAR MRLM NIL=
201108270700 METAR MRLM NIL=
201108270800 METAR MRLM NIL=
201108270900 METAR MRLM NIL=
201108271000 METAR MRLM NIL=
201108271100 METAR MRLM NIL=
201108271200 METAR MRLM 271200Z 23005KT 9999 FEW010 BKN250 24/22 A2990 RMK HZ ARND=
201108271300 METAR MRLM 271300Z 24004KT 9999 FEW015 BKN250 25/23 A2992 RMK TCU DST N E HZ ARND=
201108271400 METAR MRLM 271400Z 21003KT 9999 FEW020 SCT120 27/23 A2993 RMK FEW250 CB DST E HZ ARND=
201108271500 METAR MRLM 271500Z 00000KT 9999 FEW020 SCT130 28/24 A2994 RMK FEW250 TCU DST N HZ ARND=
201108271600 METAR MRLM 271600Z 28003KT CAVOK 28/24 A2993 RMK SCT140 SCT250 HZ ARND=
201108271700 METAR MRLM 271700Z 33005KT 9999 FEW040 BKN260 31/23 A2991 RMK HZ LGT ARND=
201108271800 METAR MRLM 271800Z 02008KT 9999 FEW040 SCT260 31/23 A2990 RMK HZ LGT ARND=
201108271900 METAR MRLM 271900Z 02009KT 9999 FEW040 SCT260 31/24 A2986 RMK HZ ARND=
201108272000 METAR MRLM 272000Z 01010KT CAVOK 31/23 A2983 RMK BKN250 HZ LGT ARND=
201108272100 METAR MRLM 272100Z 01009KT CAVOK 31/23 A2982 RMK SCT250 TCU DST S HZY ARND=
201108272200 METAR MRLM 272200Z 02008KT CAVOK 21/23 A2981 RMK SCT250 HZY ARND=
201108272300 METAR MRLM 272300Z 03005KT 9999 FEW030 BKN250 29/24 A2982 RMK HZY ARND=
201108272357 METAR MRLM 280000Z 00000KT 9999 FEW020 BKN250 29/24 A2985 RMK TCU DST W HZY ARND=
201108280000 METAR MRLM 280000Z 00000KT 9999 FEW020 BKN250 29/24 A2985 RMK TCU DST W HZY ARND=
201108280100 METAR MRLM NIL=
201108280200 METAR MRLM NIL=
201108280300 METAR MRLM NIL=
201108280400 METAR MRLM NIL=
201108280500 METAR MRLM NIL=
201108280600 METAR MRLM NIL=
201108280700 METAR MRLM NIL=
201108280800 METAR MRLM NIL=
201108280900 METAR MRLM NIL=
201108281000 METAR MRLM NIL=
201108281100 METAR MRLM NIL=
201108281200 METAR MRLM 281200Z 20005KT CAVOK 24/22 A2983 RMK FEW120 BKN250 CB TS DST E=
201108281300 METAR MRLM 281300Z 23004KT CAVOK 24/23 A2985 RMK FEW120 BKN250 CB TS DST NE E=
201108281400 METAR MRLM 281400Z 00000KT 9999 FEW015 BKN110 26/23 A2987 RMK FEW250 RA DST N NE E HZY ARND=
201108281500 METAR MRLM 281500Z 22003KT 9999 FEW015 BKN120 26/23 A2989 RMK FEW250 HZ ARND=
201108281600 METAR MRLM 281600Z 00000KT 9999 SCT025 BKN120 29/23 A2988 RMK HZY ARND=
201108281700 METAR MRLM 281700Z 11008KT CAVOK 30/23 A2988 RMK BKN130 HZY ARND=
201108281800 METAR MRLM 281800Z 10010KT CAVOK 30/24 A2985 RMK BKN130 HZY ARND=
201108281900 METAR MRLM 281900Z 10010KT CAVOK 31/24 A2982 RMK BKN130 HZY ARND=
201108282000 METAR MRLM 282000Z 09011KT CAVOK 31/24 A2979 RMK SCT140 CB DST S W HZY ARND=
201108282100 METAR MRLM 282100Z 08011KT 9999 FEW030 31/25 A2978 RMK FEW140 CB DST SW HZ ARND=
201108282200 METAR MRLM 292200Z 10010KT 9999 FEW030 SCT140 30/24 A2979 RMK FEW250 CB RA DST S SW HZ ARND=
201108282300 METAR MRLM 282300Z 11007KT 9999 SCT030 SCT130 30/23 A2980 RMK FEW250 CB DST S HZ ARND=
201108290000 METAR MRLM 290000Z 00000KT 9999 FEW020 BKN130 27/23 A2982 RMK FEW250 CB DST S W HZ ARND=
201108290100 METAR MRLM NIL=
201108290200 METAR MRLM NIL=
201108290300 METAR MRLM NIL=
201108290400 METAR MRLM NIL=
201108290500 METAR MRLM NIL=
201108290600 METAR MRLM NIL=
201108290700 METAR MRLM NIL=
201108290800 METAR MRLM NIL=
201108290900 METAR MRLM NIL=
201108291000 METAR MRLM NIL=
201108291100 METAR MRLM NIL=
201108291200 METAR MRLM NIL=
201108291300 METAR MRLM 291300Z 00000KT 9999 FEW015 BKN110 25/22 A2986 RMK CB RA DST NE=
201108291400 METAR MRLM 291400Z 28003KT 9999 FEW025 BKN120 28/22 A2988 RMK FEW250 RA DST N NE=
201108291500 METAR MRLM 291500Z 31003KT 9999 FEW030 BKN120 27/22 A2990 RMK FEW250 RA N=
201108291600 METAR MRLM 291600Z 33005KT CAVOK 28/21 A2991 RMK BKN130 FEW250 RA DST N=
201108291700 METAR MRLM 291700Z 31006KT CAVOK 30/22 A2989 RMK SCT130 SCT250 HZ ARND=
201108291800 METAR MRLM 291800Z 30010KT CAVOK 31/21 A2988 RMK BKN140 SCT260 HZ ARND=
201108291900 METAR MRLM 291900Z 32008KT CAVOK 31/22 A2983 RMK BKN140 SCT250 HZ ARND=
201108292000 METAR MRLM 292000Z 33009KT CAVOK 30/23 A2981 RMK BKN120 FEW250 RK CB DST SE HZ ARND=
201108292100 METAR MRLM 292100Z 32007KT CAVOK 29/23 A2978 RMK BKN120 FEW250 CB DST SE HZ LGT ARND=
201108292200 METAR MRLM 292200Z 35008KT CAVOK 30/24 A2978 RMK SCT120 SCT250 CB DST S HZ LGT ARND=
201108292300 METAR MRLM 292300Z 34008KT CAVOK 29/23 A2981 RMK BKN120 CB DST S HZ LGT ARND=
201108300000 METAR MRLM 300000Z 02004KT 9999 FEW020 BKN110 28/23 A2982 RMK FEW130 CB TS DST S SW HZ LGT ARND=
201108300100 METAR MRLM NIL=
201108300200 METAR MRLM NIL=
201108300300 METAR MRLM NIL=
201108300400 METAR MRLM NIL=
201108300500 METAR MRLM NIL=
201108300600 METAR MRLM NIL=
201108300700 METAR MRLM NIL=
201108300800 METAR MRLM NIL=
201108300900 METAR MRLM NIL=
201108301000 METAR MRLM NIL=
201108301100 METAR MRLM NIL=
201108301200 METAR MRLM 301200Z NIL=
201108301300 METAR MRLM 301300Z 21006KT 9999 FEW035 BKN130 25/21 A2985 RMK CB S RN DST NW N NE E SE FEW150 FEW250=
201108301400 METAR MRLM 301400Z 23006KT 9999 FEW040 SCT120 25/22 A2987 RMK FEW150 SCT250 CBS RN DST N NE E=
201108301500 METAR MRLM 301500Z 21003KT CAVOK 27/23 A2988 RMK FEW120 FEW150 BKN250 CB DST N NE E RN DST N=
201108301600 METAR MRLM 301600Z 09005KT CAVOK 29/22 A2987 RMK SCT140 BKN260=
201108301700 METAR MRLM NIL=
201108301800 METAR MRLM 301800Z 09006KT 9999 FEW045 SCT150 30/21 A2985 RMK SCT260 CBS RN DST N NE TCU SW W=
201108301900 METAR MRLM 301900Z 07007KT 9999 FEW040 SCT150 30/22 A2982 RMK SCT260 CB DST ARND=
201108302000 METAR MRLM 302000Z 07007KT 9999 FEW040 SCT150 30/23 A2979 RMK CB DST ARND SCT270=
201108302100 METAR MRLM 302100Z 08007KT 9999 FEW035 BKN270 30/23 A2977 RMK CB DST ARND LGT HZ SE=
201108302200 METAR MRLM 302200Z 07008KT 9999 FEW035 BKN270 30/23 A2978 RMK CB RN DST SE S SW=
201108302300 METAR MRLM 302300Z 09006KT 9999 FEW030 BKN270 29/23 A2979 CBS RN DST S W FEW150=
201108310000 METAR MRLM 310000Z 14004KT 9999 SCT015CB BKN120 25/21 A2976 CB RN DST SE=
201108310100 METAR MRLM NIL=
201108310200 METAR MRLM NIL=
201108310300 METAR MRLM NIL=
201108310400 METAR MRLM NIL=
201108310500 METAR MRLM NIL=
201108310600 METAR MRLM NIL=
201108310700 METAR MRLM NIL=
201108310800 METAR MRLM NIL=
201108310900 METAR MRLM NIL=
201108311000 METAR MRLM NIL=
201108311100 METAR MRLM NIL=
201108311200 METAR MRLM NIL=
201108311230 METAR MRLM 311230Z 240 05KT CAVOK 24 / 22 A29/85 BKN280 HZ LGT ARUND/=
201108311300 METAR MRLM 311300Z 23005KT CAVOK 26/23 A2987 RMK BKN280 HZ LGT ARND CB DST N NE E=
201108311400 METAR MRLM 311400Z 25003KT CAVOK 30/24 A2989 RMK BKN280 CB DST N NE E HZ LGT ARND=
201108311500 METAR MRLM 311500Z 04004KT 9999 FEW035 BKN270 30/23 A2987 RMK CB DST N NE E HZ LGT ARND=
201108311600 METAR MRLM 311600Z 04006KT 9999 FEW035 BKN270 30/24 A2988 RMK CB RN DST NE=
201108311700 METAR MRLM 311700Z 02007KT 9999 FEW030 BKN260 30/24 A2986 RMK FEW150 CB RN DST N NE=
201108311800 METAR MRLM 311800Z 36009KT 9999 FEW030 BKN260 30/24 A2987 RMK FEW150 CB DST N NE HZ LGT ARND=
201108311900 METAR MRLM 311900Z 36008KT 9999 FEW030 BKN260 30/24 A2987 RMK FEW150 CB DST N NE E HZ LGT ARND=
201108312000 METAR MRLM 312000Z 36008KT 9999 SCT030 BKN270 30/24 A2984 RMK CB DST N NE E HZ LGT ARND=
201108312100 METAR MRLM 33009KT 9999 SCT030 BKN270 30/24 A2981 RMK CB DST NE SE HZ LGT ARND=
201108312102 METAR MRLM 312102Z 33009KT 9999 SCT030 BKN270 30/24 A2981 RMK CB DST NE SE HZ LGT ARND=
201108312200 METAR MRLM 312200Z 33007KT 9999 FEW028 BKN270 30/24 A2979 RMK HZ ARND FEW150=
201108312300 METAR MRLM 312300Z 36009KT 9999 FEW025 SCT150 29/25 A2981 RMK SCT270 CB DST NW HZ ARND LGT=
201108312358 METAR MRLM 010000Z 30003KT 9999 FEW018 SCT150 28/24 A2983 RMK SCT270 CB DST NE HZ LGT ARND=
201109010000 METAR MRLM 010000Z 30003KT 9999 FEW018 SCT150 28/24 A2983 RMK SCT270 CB DST NE HZ LGT ARND=
201109010100 METAR MRLM 010100Z NIL=
201109010200 METAR MRLM NIL=
201109010300 METAR MRLM NIL=
201109010400 METAR MRLM NIL=
201109010500 METAR MRLM NIL=
201109010600 METAR MRLM NIL=
201109010700 METAR MRLM NIL=
201109010800 METAR MRLM NIL=
201109010900 METAR MRLM NIL=
201109011000 METAR MRLM NIL=
201109011100 METAR MRLM NIL=
201109011200 METAR MRLM 011200Z NIL=
201109011300 METAR MRLM 011300Z 24004KT CAVOK 25/23 A2987 RMK BKN250 CB DST N HZ ARND LGT=
201109011400 METAR MRLM 011400Z 30006KT CAVOK 28/23 A2990 RMK FEW130 BKN250 CB DST N HZ LGT ARND=
201109011500 METAR MRLM 011500Z 28005KT CAVOK 29/24 A2992 RMK BKN130 SCT250 TCU DST NE HZ ARND=
201109011600 METAR MRLM 011600Z 04007KT 9999 FEW040 SCT120 31/24 A2992 RMK SCT250 TCU RA DST NE HZ ARND=
201109011700 METAR MRLM 011700Z 03007KT 9999 BKN020 29/25 A2992 RMK FEW110 CB TS DST NE E HZ ARND=
201109011710 METAR MRLM 011710Z 04006KT 9999 BKN020 29/25 A2993 RMK FEW110 CBS TS DST NE E HZ ARND ESTO ES UNA PRUEBA=
201109011800 METAR MRLM 011800Z 18023G35KT 1000 +TSRA SCT007 BKN010 23/22 A2994=
201109011900 METAR MRLM 011900Z 19008KT 9999 VCTS -RA FEW007CB BKN010 22/21 A2990 RMK VIS 8KM E SE=
201109012000 METAR MRLM 012000Z 17009KT 9999 DZ BKN015 23/19 A2992 RETS RMK FEW100 RA DST E SE HZ ARND=
201109012100 METAR MRLM 012100Z 18003KT 9999 SCT025 BKN100 25/19 A2980 REDZ RMK HZ ARND=
201109012200 METAR MRLM 012200Z 28004KT CAVOK 25/21 A2974 RMK BKN110 HZ ARND=
201109012300 METAR MRLM 012300Z 20003KT CAVOK 25/22 A2982 RMK BKN110 HZ ARND=
201109020000 METAR MRLM 020000Z 20004KT CAVOK 24/22 A2984 RMK BKN100 FEW130 RA DST W SE=
201109020100 METAR MRLM NIL=
201109020200 METAR MRLM NIL=
201109020300 METAR MRLM NIL=
201109020400 METAR MRLM NIL=
201109020500 METAR MRLM NIL=
201109020600 METAR MRLM NIL=
201109020700 METAR MRLM NIL=
201109020800 METAR MRLM NIL=
201109020900 METAR MRLM NIL=
201109021000 METAR MRLM NIL=
201109021100 METAR MRLM NIL=
201109021200 METAR MRLM NIL=
201109021300 METAR MRLM 021300Z 23004KT CAVOK 24/21 A2989 RMK SCT110 FEW250 TCU DST N HZ ARND=
201109021400 METAR MRLM 021400Z 25004KT CAVOK 29/22 A2991 RMK FEW130 FEW260 HZ ARND=
201109021500 METAR MRLM 021500Z 31004KT 9999 FEW035 BKN120 30/22 A2993 RMK FEW250 HZ ARND=
201109021600 METAR MRLM 021600Z 34007KT CAVOK 31/20 A2993 RMK SCT130 SCT250 HZ ARND=
201109021700 METAR MRLM 021700Z 36009KT CAVOK 31/24 A2992 RMK FEW130 SCT250 CB DST NE HZ ARND=
201109021800 METAR MRLM 021800Z 02009KT CAVOK 31/23 A2989 RMK SCT130 SCT250 CB RA DST NE HZ ARND=
201109021900 METAR MRLM 021900Z 02011KT 9999 FEW030 BKN240 30/24 A2988 RMK FEW130 CB RA DST NE E HZ ARND=
201109022000 METAR MRLM 022000Z 04011KT 9999 FEW025 SCT120 29/24 A2987 RMK SCT240 CB RN DST NE E=
201109022100 METAR MRLM 022100Z 06017KT 9999 BKN015 28/25 A2988 RMK FEW100 HZ ARND=
201109022200 METAR MRLM 022200Z 08020KT 9999 BKN020 SCT110 27/23 A2986 RMK CB TS S SW RA DST NE HZ ARND=
201109022300 METAR MRLM 022300Z 12012KT 9999 BKN020 27/23 A2989 RMK FEW110 CB RA S SW W HZ ARND=
201109030000 METAR MRLM 030000Z 20007KT 9999 SCT025 BKN110 26723 A2988 RMK CB RA DST SE SE W HZ ARND=
201109030100 METAR MRLM NIL=
201109030200 METAR MRLM NIL=
201109030300 METAR MRLM NIL=
201109030400 METAR MRLM NIL=
201109030500 METAR MRLM NIL=
201109030600 METAR MRLM NIL=
201109030700 METAR MRLM NIL=
201109030800 METAR MRLM NIL=
201109030900 METAR MRLM NIL=
201109031000 METAR MRLM NIL=
201109031100 METAR MRLM NIL=
201109031200 METAR MRLM NIL=
201109031300 METAR MRLM 031300Z 22003KT CAVOK 24/22 A2990 RMK FEW090 BKN140 FEW270 HZ ARND=
201109031400 METAR MRLM 031400Z 21004KT CAVOK 26/2 A2992 RMK FEW090 FEW150 BKN270 CB RN DST N NE HZ ARND LGT SE=
201109031500 METAR MRLM 031500Z 17003KT CAVOK 28/22 A2992 RMK FEW090 FEW140 BKN270 CB RN DST N E HZ LGT SE=
201109031600 METAR MRLM 031600Z 00000KT 9999 FEW040 BKN270 30/22 A2922 RMK FEW110 CB RA DST N E HZ SE=
201109031700 METAR MRLM 031700Z 0504KT 9999 FEW040 BKN270 30/22 A2991 RMK FEW040 CB DST N W E=
201109031800 METAR MRLM 031800Z 03007KT 9999 FEW045 SCT140 30/22 A2989 RMK SCT270 CB DST N/NE HZ LGT SE=
201109031900 METAR MRLM 031900Z 02009KT 9999 FEW040 BKN130 30/22 A2987 RMK CB DST N NE E FEW270 HZ SE=
201109032000 METAR MRLM 032000Z 02007KT 9999 FEW035 SCT130 30/22 A2984 RMK SCT270 CB DST NE/SE/S/SW/W RN DST SW/W=
201109032100 METAR MRLM 032100Z 01005KT 9999 FEW035 SCT140 29/22 A2983 RMK SCT270 CB DST NE SE S SW W RN DST S SW W=
201109032200 METAR MRLM 032200Z 06003KT 9999 FEW035 BKN120 29/22 A2984 RMK CB DST ARND RN DST SW W FEW270=
201109032300 METAR MRLM 032300Z 06003KT 9999 DZ FEW035 BKN110 28/22 A2986 RMK FEW270 CB DST ARND RN DST SW=
201109040000 METAR MRLM NIL=
201109040100 METAR MRLM 040100Z NIL=
201109040200 METAR MRLM 040200Z NIL=
201109040300 METAR MRLM NIL=
201109040400 METAR MRLM NIL=
201109040500 METAR MRLM NIL=
201109040600 METAR MRLM NIL=
201109040700 METAR MRLM NIL=
201109040800 METAR MRLM NIL=
201109040900 METAR MRLM NIL=
201109041000 METAR MRLM NIL=
201109041100 METAR MRLM NIL=
201109041200 METAR MRLM 041200Z NIL=
201109041300 METAR MRLM 041300Z 21004KT CAVOK 26/22 A2992 RMK FEW150 SCT280 LGT HZ ARND=
201109041400 METAR MRLM 041400Z 10004KT CAVOK 29/23 A2994 RMK FEW090 BKN280 LGT HZ ARND=
201109041500 METAR MRLM 041500Z 11004KT CAVOK 29/22 A2994 RMK FEW150 BKN280 CB DST NE E LGT HZ ARND=
201109041600 METAR MRLM 041600Z 09006KT 9999 FEW045 SCT140 30/21 A2995 RMK SCT280 CB DST NE LGT HZ ARND=
201109041700 METAR MRLM 041700Z 09007KT 9999 FEW040 SCT150 30/22 A2992 RMK SCT280 CB DST E W LGT HZ ARND=
201109041800 METAR MRLM 041800Z 08006KT 9999 FEW040 SCT250 30/22 A2989 RMK CB DST N SE S SW SCT280 LGT HZ ARND=
201109041900 METAR MRLM 041900Z 08011KT 9999 FEW040 BKN280 30/23 A2985 RMK CB DST S SW W LGT HZ ARND=
201109042000 METAR MRLM 042000Z 07009KT 9999 FEW030 BKN280 30/22 A2982 RMK CB DST QUAD S W HZ LGT ARND=
201109042100 METAR MRLM 042100Z 07010KT 9999 FEW030 BKN280 30/24 A2983 RMK FEW150 CB DST QUAD S W RN DST W=
201109042200 METAR MRLM 042200Z 28005KT 9999 -RA FEW005 SCT040 BKN100 20/19 A2994 NOSIG=
201109042300 METAR MRLM 042300Z 12010KT 9999 SCT028 29/23 A2984 RMK FEW150 FEW270 CB RN DST QUAD S W=
201109050000 METAR MRLM 050000Z 17004KT 9999 FEW020 BKN140 27/23 A2984 RMK FEW270 CB RN DST QUAD S W=
201109050100 METAR MRLM NIL=
201109050200 METAR MRLM NIL=
201109050300 METAR MRLM NIL=
201109050400 METAR MRLM NIL=
201109050500 METAR MRLM NIL=
201109050600 METAR MRLM NIL=
201109050700 METAR MRLM NIL=
201109050800 METAR MRLM NIL=
201109050900 METAR MRLM NIL=
201109051000 METAR MRLM NIL=
201109051100 METAR MRLM NIL=
201109051200 METAR MRLM 051200Z 21005KT CAVOK 24/21 A2988 RMK BKN110 FEW250 TCU DST N NE HZ ARND=
201109051300 METAR MRLM 051300Z 21005KT CAVOK 27/22 A2989 RMK SCT120 SCT260 TCU DST NE HZ LGT ARND=
201109051400 METAR MRLM 051400Z 18003KT CAVOK 28/23 A2991 RMK BKN260 HZ LGT ARND=
201109051500 METAR MRLM 051500Z 11006KT CAVOK 30/22 A2990 RMK SCT260 HZ LGT ARND=
201109051600 METAR MRLM 051600Z 10008KT 9999 FEW040 BKN250 30/21 A2991 RMK HZ LGT ARND=
201109051700 METAR MRLM 051700Z 10010KT 9999 FEW040 SCT250 30/23 A2990 RMK TCU DST NE HZ LGT ARND=
201109051800 METAR MRLM 051800Z 09010KT CAVOK 30/23 A2988 RMK SCT250 TCU DST N NE HZ LGT ARND=
201109051900 METAR MRLM 051900Z 08010KT CAVOK 31/23 A2985 RMK SCT250 TCU DST NE HZ LGT ARND=
201109052000 METAR MRLM 052000Z 08013KT CAVOK 31/23 A2981 RMK SCT260 TCU DST N=
201109052100 METAR MRLM 052100Z 08012KT CAVOK 30/24 A2980 RMK FEW260 HZ LGT ARND=
201109052200 METAR MRLM 052200Z 08008KT CAVOK 30/24 A2980 RMK SCT250=
201109052300 METAR MRLM 052300Z 09008KT 9999 SCT030 SCT250 29/23 A2982 RMK CB DST SW W=
201109060000 METAR MRLM 060000Z 08007KT 9999 FEW020 BKN250 28/24 A2983 RMK CB DST SW W NW HZ LGT ARND=
201109060100 METAR MRLM NIL=
201109060200 METAR MRLM NIL=
201109060300 METAR MRLM NIL=
201109060400 METAR MRLM NIL=
201109060500 METAR MRLM NIL=
201109060600 METAR MRLM NIL=
201109060700 METAR MRLM NIL=
201109060800 METAR MRLM NIL=
201109060900 METAR MRLM NIL=
201109061000 METAR MRLM NIL=
201109061100 METAR MRLM NIL=
201109061200 METAR MRLM 061200Z 24005KT CAVOK 23/21 A2989 RMK BKN250 HZ ARND=
201109061300 METAR MRLM 061300Z 24003KT CAVOK 26/21 A2991 RMK SCT250 CB RA DFST NE HZ ARND LGT=
201109061400 METAR MRLM 061400Z 25003KT CAVOK 30/21 A2993 RMK FEW130 FEW260 CB DST NE HZ LGT ARND=
201109061500 METAR MRLM 061500Z 03004KT CAVOK 30/21 A2991 RMK SCT260 HZ LGT ARND=
201109061600 METAR MRLM 061600Z 06006KT CAVOK 30/22 A2991 RMK FEW280=
201109061700 METAR MRLM 061700Z 07005KT CAVOK 30/23 A2990 RMK FEW260=
201109061800 METAR MRLM 061800Z 05006KT CAVOK 30/23 A2988 RMK FEW140 FEW260 HZ LGT ARND=
201109061900 METAR MRLM 061900Z 06007KT CAVOK 30/23 A2985 RMK FEW140 FEW250 CB DST S=
201109062000 METAR MRLM 062000Z 05007KT 9999 FEW030 BKN250 30/24 A2984 RMK CB DST S=
201109062100 METAR MRLM 062100Z 03006KT 9999 FEW030 BKN250 30/24 A2981 RMK CB DST SE HZY ARND=
201109062200 METAR MRLM 062200Z 04005KT 9999 SCT030 BKN250 30/24 A2981 RMK HZY ARND=
201109062300 METAR MRLM 062300Z 04004KT 9999 SCT025 BKN250 29/24 A2983 RMK HZY ARND=
201109062356 METAR MRLM 070000Z 04003KT 9999 BKN025 SCT250 29/24 A2984 RMK HZY ARND=
201109070000 METAR MRLM 070000Z 04003KT 9999 BKN025 SCT250 29/24 A2984 RMK HZY ARND=
201109070100 METAR MRLM NIL=
201109070200 METAR MRLM NIL=
201109070300 METAR MRLM NIL=
201109070400 METAR MRLM NIL=
201109070500 METAR MRLM NIL=
201109070600 METAR MRLM NIL=
201109070700 METAR MRLM NIL=
201109070800 METAR MRLM NIL=
201109070900 METAR MRLM NIL=
201109071000 METAR MRLM NIL=
201109071100 METAR MRLM NIL=
201109071200 METAR MRLM 071200Z 25005KT 9999 FEW015TCU BKN280 23/22 A2988 RMK FEW150 CB RN DST N HZ LGT ARND=
201109071300 METAR MRLM 071300Z 24004KT CAVOK 25/22 A2990 RMK BKN270 CB DST NW N HZY ARND=
201109071400 METAR MRLM 071400Z 36004KT CAVOK 29/23 A2992 RMK OVC270 CB DST NW HZY ARND=
201109071500 METAR MRLM 071500Z 07003KT 9999 FEW035 BKN280 30/24 A2994 RMK CB DST NW E HZY ARND=
201109071600 METAR MRLM 071600Z 03006KT 9999 FEW035 BKN270 31/24 A2993 RMK CB DST NW E HZY ARND=
201109071700 METAR MRLM 071700Z 03007KT 9999 FEW040 SCT140 31/23 A2993 RMK SCT270 CB RN QUAD N E=
201109071800 METAR MRLM 071800Z 03006KT 9999 FEW040 SCT270 31/23 A2990 RMK FEW090 FEW140 CB RN DST QUAD N E HZY ARND=
201109071900 METAR MRLM 071900Z 03007KT 9999 FEW035 SCT140 31/23 A2987 RMK SCT260 CB DST QUAD N RN DST NE HZY ARND=
201109072000 METAR MRLM 072000Z 03005KT 9999 FEW030 SCT150 30/24 A2985 RMK SCT270 CB DST N NE HZY ARND=
201109072100 METAR MRLM 072100Z 04006KT 9999 SCT025 SCT270 30/25 A2985 RMK CB DST N HZ ARND=
201109072200 METAR MRLM 072200Z 01005KT 9999 BKN025 SCT270 30/25 A2986 RMK CB DST N HZ ARND=
201109072300 METAR MRLM 072300Z 02004KT 9999 FEW025 SCT150 29/24 A2986 RMK FEW110 SCT270 CB/RA DST SE SW S W HZ ARND=
201109080000 METAR MRLM 080000Z 00000KT 9999 FEW018 SCT150 28/24 A2986 RMK CB DST S HZ ARND=
201109080100 METAR MRLM NIL=
201109080200 METAR MRLM NIL=
201109080300 METAR MRLM NIL=
201109080400 METAR MRLM NIL=
201109080500 METAR MRLM NIL=
201109080600 METAR MRLM NIL=
201109080700 METAR MRLM NIL=
201109080800 METAR MRLM NIL=
201109080900 METAR MRLM NIL=
201109081000 METAR MRLM NIL=
201109081100 METAR MRLM NIL=
201109081200 METAR MRLM 081200Z 23004KT 9999 +DZ FEW015 SCT020 24/22 A2992 RMK SCT150 FEW260 CB RA DST N E=
201109081300 METAR MRLM 081300Z 24004KT 9999 FEW015 SCT090 24/22 A2993 RMK SCT140 FEW260 CB RA N E HZ ARND=
201109081400 METAR MRLM 081400Z 29002KT 9999 FEW015 SCT150 27/23 A2997 RMK FEW090 FEW270 CB RA DST N E HZ ARND=
201109081500 METAR MRLM 081500Z 00000KT 9999 BKNK030 29/23 A2998 RMK FEW080 FEW270 CB RA DST N NE E HZ ARND=
201109081600 METAR MRLM 081600Z 25002KT 9999 DZ OVC025 28/24 A2999 RMK CB/RN DST QUAD N/E=
201109081700 METAR MRLM 081700Z 30004KT 9999 TSRA FEW010CB BKN015 SCT100 26/23 A2987 RMK VIS 6KM E SE=
201109081800 METAR MRLM 081800Z 03002KT 9999 DZ FEW015 BKN130 26/24 A2995 RETSRA RMK CB RN DST W NW N NE FEW080 HZ ARND=
201109081900 METAR MRLM 081900Z 32003KT 9999 SCT020 BKN130 28/24 A2993 REDZ FEW035 CB RN DST NW N NE S SW=
201109081947 METAR MRLM 081947Z PRUEBA 2=
201109081950 METAR MRLM 081950Z 09010KT 9999 SCT020 32/25 A3001 PRUEBA 3=
201109082000 METAR MRLM 082000Z 24004KT 9999 DZ SCT020 28 / 24 A2992 FEW035 FEW080 FEW140 CBS RN DST QUANDS W N/=
201109082100 METAR MRLM 082100Z METAR 00000KT 9999 DZ VCSH SCT020 28/24 A2090 CBS RN DST N NE E SE S SW VISIBY 8KM E HZ LGT ARUND/=
201109082200 METAR MRLM 082200Z METAR 14015KT 9999 SCT012 SCT130 25/22 A2990 REDZ RN HZ ARUND/=
201109082300 METAR MRLM 082300Z 20007KT 9999 +DZ OVC130 23/21 A2988 RN HZ ARUND/=
201109090000 METAR MRLM 090000Z 16004KT 9999 +DZ OVC120 24/21 A2985 CBS DST SE S.=
201109090100 METAR MRLM NIL=
201109090200 METAR MRLM NIL=
201109090300 METAR MRLM NIL=
201109090400 METAR MRLM NIL=
201109090500 METAR MRLM NIL=
201109090600 METAR MRLM NIL=
201109090700 METAR MRLM NIL=
201109090800 METAR MRLM NIL=
201109090900 METAR MRLM NIL=
201109091000 METAR MRLM NIL=
201109091100 METAR MRLM NIL=
201109091200 METAR MRLM 091200Z 23005KT CAVOK 23/21 A2990 RMK BKN100 TCU DST N HZY ARND=
201109091300 METAR MRLM 091300Z 22005KT CAVOK 25/21 A2992 RMK BKN110 TCU N HZY=
201109091400 METAR MRLM 091400Z 04005KT CAVOK 30/22 A2992 RMK BKN140 HZ LGT ARND=
201109091500 METAR MRLM 091500Z 06004KT CAVOK 29/23 A2995 RMK BKN130 HZ LGT ARND=
201109091600 METAR MRLM 091600Z 06004KT CAVOK 30/22 A2993 RMK BKN130 HZ LGT ARND=
201109091700 METAR MRLM 091700Z 04005KT CAVOK 30/22 A2992 BKN140 HZLGT ARND=
201109091800 METAR MRLM 091800Z 06005KT CAVOK 30/22 A2990 RMK BKN140 HZ LGT ARND=
201109091900 METAR MRLM 091900Z 04006KT CAVOK 31/22 A2987 RMK BKN140 FEW260 HZ LGT ARND=
201109092000 METAR MRLM 092000Z 04007KT CAVOK 30/22 A2984 RMK BKN150 FEW 260 HZ LGT ARND=
201109092100 METAR MRLM 092100Z 03006KT CAVOK 30/22 A2982 RMK FEW150 BKN250 HZ LGT ARND=
201109092200 METAR MRLM 092200Z 05006KT CAVOK 30/23 A2981 RMK SCT140 SCT250 HZ LGT ARND=
201109092300 METAR MRLM 092300Z 03006KT CAVOK 30/23 A2982 RMK BKN140 SCT250 HZ ARND=
201109100000 METAR MRLM 100000Z 01003KT CAVOK 28/23 A2983 RMK BKN140 FEW250 HZ ARND=
201109100100 METAR MRLM NIL=
201109100200 METAR MRLM NIL=
201109100300 METAR MRLM NIL=
201109100400 METAR MRLM NIL=
201109100500 METAR MRLM NIL=
201109100600 METAR MRLM NIL=
201109100700 METAR MRLM NIL=
201109100800 METAR MRLM NIL=
201109100900 METAR MRLM NIL=
201109101000 METAR MRLM NIL=
201109101100 METAR MRLM NIL=
201109101200 METAR MRLM 101200Z 23004KT 9999 BKN010 SCT100 24/22 A2988 RMK CB DST NE HZ ARND=
201109101300 METAR MRLM 101300Z 00000KT 9999 BKN010 SCT100 24/23 A2991 RMK CB TS DST N NE HZ ARND=
201109101400 METAR MRLM 101400Z 00000KT 9999 DZ BKN010 SCT100 24/23 A2996 RMK CB TS DST N NE HZ ARND=
201109101500 METAR MRLM 101500Z 25003KT 9999 DZ SCT007 BKN100 24/23 A2995 RMK RA DST N HZ ARND=
201109101600 METAR MRLM 101600Z 24003KT DZ SCT070 BKN110 24/23 A2994 RA DST W HZ ARND=
201109101700 METAR MRLM 101700Z 00000KT CAVOK 26/23 REDZ RMK BKN110 RA DST SW TCU DST N HZ ARND=
201109101800 METAR MRLM 101800Z 28005KT CAVOK 28/23 A2989 BKN130 RA DST SW HZ LGT ARND=
201109101900 METAR MRLM 101900Z 25003KT CAVOK 31/22 A2983 RMK SCT140 SCT250=
201109102000 METAR MRLM 102000Z 36009KT CAVOK 31/22 A2981 RMK FEW140 BKN250=
201109102100 METAR MRLM 102100Z 35010KT CAVOK 30/23 A2980 RMK SCT140 SCT250 TCU DST W N HZ LGT ARND=
201109102200 METAR MRLM 102200Z 33007KT CAVOK 29/23 A2980 RMK BKN130 FEW250 HZ LGT ARND=
201109102300 METAR MRLM 102300Z 32006KT CAVOK 29/23 A2981 RMK BKN250 SCT130 HZ LGT ARND=
201109110000 METAR MRLM 110000Z 28003KT CAVOK 27/23 A2982 RMK BKN250 HZ ARND=
201109110100 METAR MRLM NIL=
201109110200 METAR MRLM NIL=
201109110300 METAR MRLM NIL=
201109110400 METAR MRLM NIL=
201109110500 METAR MRLM NIL=
201109110600 METAR MRLM NIL=
201109110700 METAR MRLM NIL=
201109110800 METAR MRLM NIL=
201109110900 METAR MRLM NIL=
201109111000 METAR MRLM NIL=
201109111100 METAR MRLM NIL=
201109111200 METAR MRLM 111200Z 23004KT 9999 FEW015 BKN140 23/22 A2986 CBS RN DST QUANDS / N / E CBS DST QUND / S/=
201109111300 METAR MRLM 111200 23003KT 9999 FEW015 BKN140 24/22 A2988 CBS RN DST/N/E/ FEW100 FEW270.=
201109111400 METAR MRLM 111400Z 29003KT 9999 FEW015 BKN140 25/22 A2990 CBS RN DSTN/ NE/E/ FEW100 HZ/SE/=
201109111500 METAR MRLM 111500Z METAR 26003KT 9999 +DZ FEW015 BKN130 27/22 A2993 CBS RN DST QUANDS /N/ E// FEW090/=
201109111600 METAR MRLM 111600Z METAR 27003KT 9999 DZ FEW010 BKN120 25/23 A2995 FEW090 CBS RN / NE / E / SE HZ LGT ARUND/=
201109111700 METAR MRLM 111700Z METAR 24003KT 9999 RA FEW010 BKN120 25/23 A2994 VISIBY 8KM /NE HZ ARUND/=
201109111800 METAR MRLM NIL=
201109111900 METAR MRLM 111900Z METAR 33005KT 9999 DZ BKN010 26/24 A2988RERA FEW120 HZ ARUND/=
201109112000 METAR MRLM 112000Z 30005KT 9999 +DZ FEW010SCT090 26/24 A2983CBS RN DST / W / NW / N / SCT110/=
201109112100 METAR MRLM 112100Z 30005KT 9999 BKN015 27/24 A2983REDZ CBS RN DST/ W / NW / FEW090 HZ / ARUND/=
201109112200 METAR MRLM 112200Z 30003KT 9999 BKN015 27/24 2983 FEW100 RN DST W SW W HZ LGT ARUND/=
201109112300 METAR MRLM 112300Z 00000KT 9999 SCT012 SCT090 27/24 A2985 HZ LGT ARUN D/=
201109120000 METAR MRLM 120000Z 00000KT 9999 FEW010 BKN090 26/24 2986 CB RN DST/ SE / HZ LGT ARUND/=
201109120100 METAR MRLM NIL=
201109120200 METAR MRLM NIL=
201109120300 METAR MRLM NIL=
201109120400 METAR MRLM NIL=
201109120500 METAR MRLM NIL=
201109120600 METAR MRLM NIL=
201109120700 METAR MRLM NIL=
201109120800 METAR MRLM NIL=
201109120900 METAR MRLM NIL=
201109121000 METAR MRLM NIL=
201109121100 METAR MRLM NIL=
201109121200 METAR MRLM 121200Z 23004KT CAVOK 23/22 A2994 BKN130 FEW280 CBS RN DST QUAND / N / HZ LGT ARUND/=
201109121300 METAR MRLM 121300Z 24004KT 9999 FEW015 BKN130 27/23 A2995 CB RN DST/ N SCT280 HZ LGT ARUND/=
201109121400 METAR MRLM 121400Z 06002KT 9999 FEW015 SCT130 29/23 A2997 SCT270 CB DST/N HZ LGT ARUND/=
201109121500 METAR MRLM 121500Z 01002KT 9999 FEW035 SCT130 29/22 A2998 SCT270 CB DST /N/ HZ LGT ARUND/=
201109121600 METAR MRLM 121600Z 01006KT 9999 FEW035 30/22 A2997 CBS DST / NW / N / FEW130 FEW270/=
201109121700 METAR MRLM 121700Z METAR 01007KT 9999 FEW035 29/23 A2996 FEW140 FEW270 CB DST / NW /=
201109121800 METAR MRLM 121800Z 01009KT 9999 FEW035 30/23 A2992 CB DST / NW / HZ LGT /SE FEW270/=
201109121900 METAR MRLM 121900Z 01008KT 9999 FEW035 30/23 A2989 CBS DST/SE/ S FEW28 0 HZ LGT/SE/=
201109122000 METAR MRLM 122000Z METAR 36009KT 9999 FEW035 30/23 A2987 FEW280 CBS DST/ SE / S / TCU RN DST / SW/=
201109122100 METAR MRLM 122100Z 02008KT 9999 FEW035 30/24 A2987 CBS DST QUANDS/ S/ W/ RN DST/ S SW W FEW130 FEW280/=
201109122200 METAR MRLM NIL=
201109122300 METAR MRLM NIL=
201109130000 METAR MRLM 130000Z 02003KT 9999 SCT025 SCT090 29/23 A2992 CBS RN DST QUNDS S W DST LTNG SW/=
201109130100 METAR MRLM NIL=
201109130200 METAR MRLM NIL=
201109130300 METAR MRLM NIL=
201109130400 METAR MRLM NIL=
201109130500 METAR MRLM NIL=
201109130600 METAR MRLM NIL=
201109130700 METAR MRLM NIL=
201109130800 METAR MRLM NIL=
201109130900 METAR MRLM NIL=
201109131000 METAR MRLM NIL=
201109131100 METAR MRLM NIL=
201109131200 METAR MRLM 131200Z 23003KT CAVOK 24/22 A2991 RMK BKN 120 HZ ARND=
201109131300 METAR MRLM 131300Z 00000Z CAVOK 25/22 A2993 BKN130 FEW250 HZ ARND=
201109131400 METAR MRLM 131400Z 30003KT CAVOK 28/23 A2994 RMK FEW140 BKN250 HZ ARND=
201109131500 METAR MRLM 131500Z 28003KT CAVOK 28/23 A2993 RMK BKN250 HZ ARND=
201109131600 METAR MRLM 131600Z 04004KT CAVOK 29/21 A2993 RMK FEW140 BKN250 HZ LGT ARND=
201109131700 METAR MRLM 131700Z 05005KT 9999 FEW035 SCT140 29/22 A2992 RMK SCT250 HZ LGT ARND=
201109131800 METAR MRLM 131800Z 06005KT 9999 FEW040 SCT130 30/23 A2991 RMK SCT250 HZ LGT ARND=
201109131900 METAR MRLM 131900Z 05006KT 9999 FEW030 30/24 A2988 RMK FEW250 HZ LGT ARND=
201109132000 METAR MRLM 132000Z 05007KT 9999 FEW030 30/24 A2985 RMK FEW250 HZ LGT ARND=
201109132100 METAR MRLM 132100Z 05005KT 9999 FEW030 30/24 A2984 RMK HZ LGT ARND=
201109132200 METAR MRLM 132200Z 08005KT 9999 FEW030 30/24 A2984 RMK FEW260=
201109132300 METAR MRLM 132300Z 10004KT 9999 FEW030 30/24 A2985 RMK FEW260 CB DST S=
201109140000 METAR MRLM 140000Z 00000KT 9999 FEW020 28/24 A2985 RMK HZ LGT ARND=
201109140100 METAR MRLM NIL=
201109140200 METAR MRLM NIL=
201109140300 METAR MRLM NIL=
201109140400 METAR MRLM NIL=
201109140500 METAR MRLM NIL=
201109140600 METAR MRLM NIL=
201109140700 METAR MRLM NIL=
201109140800 METAR MRLM NIL=
201109140900 METAR MRLM NIL=
201109141000 METAR MRLM NIL=
201109141100 METAR MRLM NIL=
201109141200 METAR MRLM 141200Z 24003KT CAVOK 23/21 A2988 RMK BKN250 CB TS DST E HZ ARND=
201109141300 METAR MRLM 141300Z 00000KT CAVOK 24/21 A2990 RMK FEW130 BKN250 CB DST E HZ ARND=
201109141400 METAR MRLM 141400Z 22004KT CAVOK 25/22 A2991 RMK FEW130 BKN250 CB TS DST E N HZ ARND=
201109141500 METAR MRLM 141500Z 00000KT CAVOK 31/22 A2991 RMK SCT130 BKN250 CB TS DST E HZ ARND=
201109141600 METAR MRLM 141600Z 07004KT CAVOK 30/22 A2992 RMK SCT140 SCT250 HZ ARND=
201109141700 METAR MRLM 141700Z 09007KT 9999 FEW030 BKN130 30/23 A2993 RMK FEW250 RA DST E HZ ARND=
201109141800 METAR MRLM 141800Z 13008KT 9999 FEW040 BKN250 30/22 A2989 RMK FEW140 RA DST NE E HZ ARND=
201109141900 METAR MRLM 141900Z 10008KT CAVOK 30/23 A2984 RMK SCT140 SCT250 HZ LGT ARND=
201109142000 METAR MRLM 142000Z 09010KT CAVOK 30/23 A2981 RMK BKN140 SCT250 HZ LGT ARND=
201109142100 METAR MRLM 142100Z 09006KT CAVOK 29/23 A2981 RMK SCT140 BKN250 HZ LGT ARND=
201109142200 METAR MRLM 142200Z 10005KT CAVOK 30/24 A2981 RMK SCT140 BKN250 HZ LGT ARND=
201109142300 METAR MRLM 142300Z 11005KT CAVOK 29/23 A2982 RMK SCT130 SCT250 HZ LGT ARND=
201109150000 METAR MRLM 150000Z 13006KT CAVOK 28/23 A2983 RMK BKN120 SCT250 HZ LGT ARND=
201109150100 METAR MRLM NIL=
201109150200 METAR MRLM NIL=
201109150300 METAR MRLM NIL=
201109150400 METAR MRLM NIL=
201109150500 METAR MRLM NIL=
201109150600 METAR MRLM NIL=
201109150700 METAR MRLM NIL=
201109150800 METAR MRLM NIL=
201109150900 METAR MRLM NIL=
201109151000 METAR MRLM NIL=
201109151100 METAR MRLM NIL=
201109151200 METAR MRLM NIL=
201109151300 METAR MRLM NIL=
201109151400 METAR MRLM 151400Z 22003KT CAVOK 28/23 A2990 FEW090 BKN270 CBS DST QUAND N RN DST NE E=
201109151500 METAR MRLM NIL=
201109151600 METAR MRLM 151600Z 08008KT 9999 FEW025 SCT280 29/23 A2993 RMK RN DST QUAD N E SCT260=
201109151700 METAR MRLM 151700Z 08008KT 9999 FEW030 SCT090 30/23 A2993 RMK CB DST QUAD N E RN DST NE E=
201109151800 METAR MRLM 151800Z 09011KT 9999 FEW030 SCT140 30/23 A2992 RMK FEW090 FEW260 CB RN DST N NE E=
201109151900 METAR MRLM 151900Z 05016KT 9999 VCHS BKN015 27/24 A2992 VISIBY 8KM/N/ NE/ FEW130/=
201109152000 METAR MRLM 152000Z 10016KT 9999 DZ VCSH BKN015 SCT110 28/24 A2989 RMK VIS 8000 S SW=
201109152100 METAR MRLM 152100Z 14008KT 9999 FEW015 BKN140 28/24 A2984 RDZ CBS DST HZ ARUND RN DST/ NW/ N/ SE/=
201109152200 METAR MRLM 15200Z 08003KT 9999 FEW025 BKN150 28/23 A2984 CBS RN DST. NW . N. HZ LGT. SE.=
201109152300 METAR MRLM NIL=
201109160000 METAR MRLM 160000Z 23004KT CAVOK 26/23 A2986 BKN140 FEW270 CB RN DST/ SE/ HZ/SE/=
201109160100 METAR MRLM NIL=
201109160200 METAR MRLM NIL=
201109160300 METAR MRLM NIL=
201109160400 METAR MRLM NIL=
201109160500 METAR MRLM NIL=
201109160600 METAR MRLM NIL=
201109160700 METAR MRLM NIL=
201109160800 METAR MRLM NIL=
201109160900 METAR MRLM NIL=
201109161000 METAR MRLM NIL=
201109161100 METAR MRLM NIL=
201109161200 METAR MRLM 161200Z 23005KT CAVOK 22/21 A2989 TCU DST NW N NE E S SCT280 HZ LGT ARUND/ DUPE=
201109161300 METAR MRLM 1300Z 16 21003KT CAVOK 29/22 A2993 BKN280 CBS DST N NE E HZ LGT ARUND/=
201109161400 METAR MRLM 16 1300Z 21003KT CAVOK 29/22 A2993 BKN280 CBS DST N NE E HZ LGT ARUND.=
201109161500 METAR MRLM NIL=
201109161600 METAR MRLM 161600Z 09004KT 9999 FEW040 BKN270 30/22 A2992 CB RA DST N=
201109161700 METAR MRLM 161700Z 06007KT 9999 FEW040 BKN260 30/22 A2992 FEW140 CBS RN DST NW N NE E/=
201109161800 METAR MRLM 161800Z 05009KT 9999 FEW035 SCT260 30/23 A2991 RMK CB DST HZ ARND RA DST SW NW NW E FEW120 FEW150=
201109161900 METAR MRLM 161900Z 05006KT 9999 FEW028 SCT260 19/14 A2987 RMK CB DST HZ LGT ARND RA DST N NE SW FEW120 FEW150=
201109162000 METAR MRLM 162000Z 05005KT 9999 FEW025 SCT120 29/23 A2984 RMK SCT260 CB RA DST N NE NW HZ ARND=
201109162100 METAR MRLM 162100Z 04005KT 9999 FEW025 SCT260 28/23 A2984 RMK FEW110 FEW150 CB RN DST N NE TCU RN S W=
201109162200 METAR MRLM 162200Z 06009KT 9999 FEW030 SCT260 29/23 A2984 RMK FEW120 FEW150 CB RN DST W SW N NE=
201109162300 METAR MRLM 162300Z 07007KT 9999 BKN025 28/23 A2985 RMK FEW090 FEW050 CB RN DST QUAD N W=
201109162358 METAR MRLM 170000Z 09005KT 9999 SCT025 SCT100 28/22 A2986 RMK FEW140 CB RN DST NE E SE S SW=
201109170000 METAR MRLM 170000Z 09005KT 9999 SCT025 SCT100 28/22 A2986 RMK FEW140 CB RN DST NE E SE S SW=
201109170100 METAR MRLM NIL=
201109170200 METAR MRLM NIL=
201109170300 METAR MRLM NIL=
201109170400 METAR MRLM NIL=
201109170500 METAR MRLM NIL=
201109170600 METAR MRLM NIL=
201109170700 METAR MRLM NIL=
201109170800 METAR MRLM NIL=
201109170900 METAR MRLM NIL=
201109171000 METAR MRLM NIL=
201109171100 METAR MRLM NIL=
201109171200 METAR MRLM NIL=
201109171220 METAR MRLM 171220Z 21005KT 9999 FEW010 SCT110 23/21 A2987 RMK SCT250 RA DST NE E HZ LGT ARND=
201109171300 METAR MRLM 171300Z 23003KT 9999 FEW010 SCT110 23/21 A2989 RMK SCT250 CB TS DST NE E HZ LGT ARND=
201109171400 METAR MRLM 171400Z 20004KT 9999 DZ SCT010 SCT100 23/21 A2992 RMK FEW25 0 CB TS DST NE E HZ ARND=
201109171500 METAR MRLM 171500Z 23004KT 9999 DZ SCT010 BKN100 24/22 A2993 RMK RA DST N NE HZ ARND=
201109171600 METAR MRLM 171600Z 00000KT 9999 -DZ SCT010 BKN110 24/22 A2995 RMK RA DST NW N HZ ARND=
201109171700 METAR MRLM 171700Z 26004KT 9999 -DZ FEW007 SCT110 24/23 A2992 RMK SCT2 50 HZ ARND=
201109171800 METAR MRLM 171800Z 30004KT 9999 FEW010 BKN120 26/23 A2989 RMK FEW250 RA DST N NW HZ ARND=
201109171900 METAR MRLM 171900Z 30005KT 9999 FEW020 SCT130 27/23 A2985 RMK SCT250 TCU DST SE RA DST N HZ ARND=
201109172000 METAR MRLM 172000Z 31006KT 9999 FEW020 SCT130 27/23 A2983 RMK SCT250 TCU DST SE HZ ARND=
201109172100 METAR MRLM 172100Z 31008KT 9999 SCT020 SCT260 28/23 A2981 RMK CB DST S HZ ARND=
201109172200 METAR MRLM 172200Z 33006KT CAVOK 28/23 A2981 RMK SCT140 SCT260 CB DST S HZ ARND=
201109172300 METAR MRLM 172300Z 32004KT CAVOK 27/23 A2983 RMK FEW120 SCT140 SCT250 CB RA DST S N HZ ARND=
201109180000 METAR MRLM 180000Z 31003KT 9999 FEW015 BKN130 23/23 A2987 RMK RA DST N HZ ARND=
201109180100 METAR MRLM NIL=
201109180200 METAR MRLM NIL=
201109180300 METAR MRLM NIL=
201109180400 METAR MRLM NIL=
201109180500 METAR MRLM NIL=
201109180600 METAR MRLM NIL=
201109180700 METAR MRLM NIL=
201109180800 METAR MRLM NIL=
201109180900 METAR MRLM NIL=
201109181000 METAR MRLM NIL=
201109181100 METAR MRLM NIL=
201109181200 METAR MRLM 181200Z 21004KT CAVOK 23/22 A2990 RMK BKN100 HZ ARND=
201109181300 METAR MRLM 181300Z 22004KT CAVOK 23/22 A2993 RMK BKN100 HZ LGT ARND=
201109181400 METAR MRLM 181400Z 22004KT CAVOK 25/22 A2993 RMK BKN110 CB TS DST NE E HZ LGT ARND=
201109181500 METAR MRLM 181500Z 22003KT CAVOK 28/22 A2993 BKN120 CB TS DST NE HZ LGT ARND=
201109181600 METAR MRLM 181600Z 07005KT 9999 FEW035 BKN120 29/22 A2994 RMK CB RA DST N HZ LGT ARND=
201109181700 METAR MRLM 181700Z 01008KT 9999 FEW030 BKN110 29/23 A2995 RMK FEW250 CB RA DST NW N HZ LGT ARND=
201109181800 METAR MRLM 181800Z 36007KT 9999 FEW030 SCT110 29/23 A2992 RMK SCT250 CB TS DST N NE HZ ARND=
201109181900 METAR MRLM 181900Z 36006KT 9999 FEW030 SCT250 28/23 A2990 RMK FEW110 CB RA DST SW N NE HZ ARND=
201109182000 METAR MRLM 182000Z 01006KT 9999 SCT025 SCT120 28/23 A2986 RMK FEW250 CB RA DST SW NE HZ ARND=
201109182100 METAR MRLM 182100Z 01006KT 9999 SCT020 SCT250 28/23 A2986 RMK FEW120 CB RA DST NE HZ ARND=
201109182200 METAR MRLM 182200Z 04007KT 9999 OVC020 27/23 A2985 RMK RA DST NE HZ ARND=
201109182300 METAR MRLM 182300Z 07004KT 9999 BKN020 27/23 A2986 RMK FEW120 CB DST S HZ ARND=
201109190000 METAR MRLM 190000Z 12004KT 9999 SCT015 SCT110 26/23 A2989 RMK FEW250 CB DST S RA DST NE HZ ARND=
201109190100 METAR MRLM NIL=
201109190200 METAR MRLM NIL=
201109190300 METAR MRLM NIL=
201109190400 METAR MRLM NIL=
201109190500 METAR MRLM NIL=
201109190600 METAR MRLM NIL=
201109190700 METAR MRLM NIL=
201109190800 METAR MRLM NIL=
201109190900 METAR MRLM NIL=
201109191000 METAR MRLM NIL=
201109191100 METAR MRLM NIL=
201109191200 METAR MRLM 191200Z 20003KT 5000 RA BKN020 23/22 A2992 RMK FEW100 VIS UNLTD SW=
201109191300 METAR MRLM NIL=
201109191400 METAR MRLM 191400Z 26003KT 8000 RA SCT005 SCT020 23/22 A2998 RMK FEW0 90.=
201109191500 METAR MRLM 191500Z 22004KT 8000 RA SCT020 SCT100 23/22 A2998 RMK VISIB Y UNL / N /NE /E.=
201109191600 METAR MRLM 191600Z METAR 23005KT 9999 DZ FEW015 BKN140 24/23 A2997 RERA RMK CBS RN DST/NW/ N /NE.=
201109191700 METAR MRLM 191700Z METAR 19002KT 9999 FEW020 BKN260 27/23 A2994 CBS RN DST QUAND/N=
201109191800 METAR MRLM 191800Z 040 05KT 9999 FEW025 SCT140 28/22 A2992 CBS DST QUAND/ N FEW260 HZ LGT ARUND/=
201109191900 METAR MRLM 191900Z METAR 04005KT 9999 FEW025 SCT120 27/22 A2990 CBS DST QUAND/N FEW150/ HZ LGT ARUND/=
201109192000 METAR MRLM 19200Z 03005KT 9999 FEW025 BKN260 28/23 A2986 CBS DST HZ LGT ARUND.=
201109192100 METAR MRLM 192100Z 02005KT 9999 FEW030 SCT130 28/22 A2985 CBS DST QUND S S W RN DST SW W/=
201109192200 METAR MRLM 192200Z 04003KT 9999 FEW028 SCT130 28/22 A2984 RN DST/ SW W SCT260/=
201109192300 METAR MRLM 192300Z 04004KT 9999 FEW025 SCT090 27/22 A2986 CBS RN DST/ SE S/ SCT120/=
201109200000 METAR MRLM 200000Z 00000KT CAVOK 26/23 A2987 CB/RN DST SE/S BKN130 FEW260=
201109200100 METAR MRLM NIL=
201109200200 METAR MRLM NIL=
201109200300 METAR MRLM NIL=
201109200400 METAR MRLM NIL=
201109200500 METAR MRLM NIL=
201109200600 METAR MRLM NIL=
201109200700 METAR MRLM NIL=
201109200800 METAR MRLM NIL=
201109200900 METAR MRLM NIL=
201109201000 METAR MRLM NIL=
201109201100 METAR MRLM NIL=
201109201200 METAR MRLM 201200Z 24005KT CAVOK 22/21 A2989 FEW090 SCT280 CB RN DST/SE HZ ARUND/=
201109201300 METAR MRLM 201300Z 22004KT CAVOK 25/22 A2991 FEW090 FEW280 CB RN DST/ E HZ LGT ARUND/=
201109201400 METAR MRLM 201400Z 230 03KT CAVOK 29/23 A2993 FEW090 SCT280 CB RN DST/ E/=
201109201500 METAR MRLM 201500Z 07003KT 9999 FEW038 29/22 A2993 FEW140 FEW280 CBS DST/N E RN/E/=
201109201600 METAR MRLM 201600Z FEW035 SCT110 29/23 A2994 CB CU DST/ NW HZ LGT ARUND/=
201109201620 METAR MRLM 201620Z 07007KT 9999 FEW035 SCT110 29/23 A2994 CB TCU DST/ NW HZ LGT ARUND/=
201109201700 METAR MRLM NIL=
201109201800 METAR MRLM 201800Z 08007KT 9999 FEW030 SCT140 30/23 A2988 CB DST/ NE HZ LGT ARUND/=
201109201900 METAR MRLM 201900Z 08010KT 9999 FEW023 SCT270 30/23 A2986 CBS DST/ NE E S SW/=
201109202000 METAR MRLM 202000Z 09008KT 9999 FEW038 BKN270 30/22 A2983 CB RN DST/SW FEW120/=
201109202100 METAR MRLM 202100Z 08006KT 9999 FEW035 SCT280 30/23 A2982 CB DST/SW FEW140 HZ LGT ARUND/=
201109202200 METAR MRLM 202200Z 21004KT 9999 +DZ FEW015 BKN120 27/24 A2977=
201109202300 METAR MRLM 202300Z 10004KT CAVOK 28/23 A2983 FEW140 BKN280 CB DST/ SE S SW W/=
201109210000 METAR MRLM 210000Z 11005KT CAVOK 28/23 2985 CBS DST/S SW W FEW140 BKN2 80/0=
201109210100 METAR MRLM NIL=
201109210200 METAR MRLM NIL=
201109210300 METAR MRLM NIL=
201109210400 METAR MRLM NIL=
201109210500 METAR MRLM NIL=
201109210600 METAR MRLM NIL=
201109210700 METAR MRLM NIL=
201109210800 METAR MRLM NIL=
201109210900 METAR MRLM NIL=
201109211000 METAR MRLM NIL=
201109211100 METAR MRLM NIL=
201109211200 METAR MRLM 211200Z 24005KT CAVOK 22/21 A2990 RMK BKN110 CB RA DST NE HZ ARND=
201109211300 METAR MRLM 211300Z 25004KT 9999 FEW010 BKN110 23/21 A2992 RMK CB RA DST NE HZ ARND=
201109211400 METAR MRLM 211400Z 05008KT 9999 SCT015 SCT120 26/23 A2995 RMK CB RA DST NE HZ ARND=
201109211500 METAR MRLM 211500Z 01004KT 9999 FEW020 BKN120 28/23 A2995 CBS RA DST NE HZ ARND=
201109211600 METAR MRLM 211600Z 08002KT 9999 FEW030 BKN120 28/21 A2996 RMK RA DST NE HZ ARND=
201109211700 METAR MRLM 211700Z 11004KT CAVOK 28/21 A2995 RMK BKN110 HZ ARND=
201109211800 METAR MRLM 211800Z 09013KT 9999 SCT030 BKN110 29/23 A2992 RMK HZ ARND=
201109211900 METAR MRLM 211900Z 09008KT 9999 FEW030 BKN120 28/22 A2990 RMK CB DST SW HZ ARND=
201109212000 METAR MRLM 212000Z 10005KT CAVOK 29/21 A2985 RMK BKN120 HZ LGT ARND=
201109212100 METAR MRLM NIL=
201109212200 METAR MRLM 212200Z 09005KT CAVOK 28/22 A2983 RMK BKN110 CB DST SE HZ LGT ARND=
201109212300 METAR MRLM 212300Z 09005KT CAVOK 28/21 A2984 RMK BKN110 CB DST S HZ LGT ARND=
201109220000 METAR MRLM 220000Z 09008KT CAVOK 27/21 A2986 RMK BKN110 TCU DST N HZ ARND=
201109220100 METAR MRLM NIL=
201109220200 METAR MRLM NIL=
201109220300 METAR MRLM NIL=
201109220400 METAR MRLM NIL=
201109220500 METAR MRLM NIL=
201109220600 METAR MRLM NIL=
201109220700 METAR MRLM NIL=
201109220800 METAR MRLM NIL=
201109220900 METAR MRLM NIL=
201109221000 METAR MRLM NIL=
201109221100 METAR MRLM NIL=
201109221200 METAR MRLM 221200Z 22004KT 9999 SCT020 SCT110 25/21 A2993 RMK TCU DST NW HZ ARND=
201109221300 METAR MRLM 221300Z 21004KT CAVOK 28/22 A2994 RMK FEW100 BKN120 HZ ARND=
201109221400 METAR MRLM 221400Z 00000KT CAVOK 30/22 A2996 RMK SCT130 SCT250 HZ LGT ARND=
201109221500 METAR MRLM 221500Z 07003KT 9999 FEW035 30/23 A2996 RMK FEW260 HZ LGT ARND=
201109221600 METAR MRLM 221600Z 05005KT 9999 FEW030 30/23 A2996 RMK FEW260 HZ LGT ARND=
201109221700 METAR MRLM 221700Z 02007KT 9999 FEW030 30/23 A2993 RMK HZ LGT ARND=
201109221800 METAR MRLM 221800Z 02007KT 9999 FEW035 30/24 A2991 RMK HZ LGT ARND=
201109221900 METAR MRLM 221900Z 03007KT 9999 FEW035 30/24 A2988 RMK HZ LGT ARND=
201109222000 METAR MRLM 222000Z 04007KT 9999 NSC 30/24 A2987 RMK HZ LGT ARND=
201109222100 METAR MRLM 222100Z 04006KT 9999 FEW035 30/24 A2986 RMK FEW250 HZ LGT ARND=
201109222200 METAR MRLM 222200Z 06008KT CAVOK 30/23 A2986 RMK FEW130 FEW250 HZ LGT ARND=
201109222300 METAR MRLM 222300Z 05006KT 9999 SCT030 SCT120 30/23 A2990 RMK TCU DST SW HZ LGT ARND=
201109230000 METAR MRLM 230000Z 05009KT 9999 BKN020 28/24 A2991 RMK FEW250 CB DST N NE E HZ ARND=
201109230100 METAR MRLM NIL=
201109230200 METAR MRLM NIL=
201109230300 METAR MRLM NIL=
201109230400 METAR MRLM NIL=
201109230500 METAR MRLM NIL=
201109230600 METAR MRLM NIL=
201109230700 METAR MRLM NIL=
201109230800 METAR MRLM NIL=
201109230900 METAR MRLM NIL=
201109231000 METAR MRLM NIL=
201109231100 METAR MRLM NIL=
201109231200 METAR MRLM 231200Z 23004KT CAVOK 24/22 A2991 SCT090 FEW140 FEW280 HZ ARND=
201109231300 METAR MRLM 231300Z 24004KT 9999 BKN025 25/22 A2992 FEW140 HZ LGT ARUND/ DUPE=
201109231400 METAR MRLM 231400Z 23004KT FEW025 BKN080 26/23 A2994 HZ LGT ARUND/=
201109231500 METAR MRLM 231500Z 26004KT 9999 SCT038 SCT140 30/23 A2995 FEW270 TCU DST /NW/=
201109231600 METAR MRLM 231600Z 36009KT 9999 FEW045 BKN260 32/23 A2993 CBS DST QUAN D/N/=
201109231700 METAR MRLM 231700Z 36007KT 9999 FEW045 SCT130 BKN260 33/22 A2990 CBS DST QUANDS/ S/ E/=
201109231800 METAR MRLM 231800Z 01008KT 9999 SCT040 SCT090 31/23 A2988 CBS DST QUAN DS/N/ E/=
201109231900 METAR MRLM 231900Z METAR 36013KT 9999 FEW038 SCT140 31/24 A2985 DZ DST/NE FEW080 SCT270/=
201109232000 METAR MRLM 232000Z 01008KT 9999 SCT025 SCT080 30/25 A2983 CB RN DST/E / TCURN DST/ SW/=
201109232100 METAR MRLM 232100Z 02007KT 9999 FEW025 SCT120 30/25 A2983 SCT270 CBS RN DST/NE RN DST/SW W/=
201109232200 METAR MRLM 23200Z 02007KT 999 FEW025 BKN260 30/25 2982 FEW090 CBS RN DST/ E SE S SW W=
201109232300 METAR MRLM 232300Z METAR 03004KT 9999 SCT025 SCT260 29/24 A2984 CBS RN DST QUANDS/ S/ W FEW120/=
201109240000 METAR MRLM 240000Z 32004KT 9999 SCT020 SCT260 28/24 A2984 CBS RN DST QUNDS/ S. W.=
201109240100 METAR MRLM NIL=
201109240200 METAR MRLM NIL=
201109240300 METAR MRLM NIL=
201109240400 METAR MRLM NIL=
201109240500 METAR MRLM NIL=
201109240600 METAR MRLM NIL=
201109240700 METAR MRLM NIL=
201109240800 METAR MRLM NIL=
201109240900 METAR MRLM NIL=
201109241000 METAR MRLM NIL=
201109241100 METAR MRLM NIL=
201109241200 METAR MRLM 241200Z 9999 DZ BKN015 24/23 A2992 RN QUANDS/S/W/N=
201109241300 METAR MRLM 241300Z 25005KT 9999 FEW015 BKN280 27/24 A2986 REDZ CBS RN DST/ NW/ NE/ E/=
201109241400 METAR MRLM 241400Z METAR 28002KT 9999 FEW025 SCT080 28/24 A2989 CBS RN DST/ NW/N/NE/ E/=
201109241500 METAR MRLM NIL=
201109241600 METAR MRLM 241600Z FEW030 BKN270 31/24 A2989 CBS RN DST/NW/N/NE/ E/ FEW080/=
201109241700 METAR MRLM 241700Z 02010KT 9999 FEW040 BKN110 31/24 A2989 CBS RN DST7 NW/N/NE/E FEW270/=
201109241800 METAR MRLM 241800Z 01008KT 9999 FEW030 BKN080 30/25 A2986 CBS DST HZ ARUND RN DST QUNDS/N/E/=
201109241900 METAR MRLM 241900Z 02006KT 9999 FEW030 SCT080 30/24 A2982 CBS HZ DST ARUND RN DST QUANDS/W/N=
201109242000 METAR MRLM 242000Z 01008KT 9999 FEW028 SCT140 30/24 A2977 CBS DST ARUN D RN DST QUAND/W/=
201109242100 METAR MRLM 242100Z 03011KT 9999 FEW020 SCT150 29/24 A2975 CBS DST ARUNS RN DST QUAND/W/=
201109242200 METAR MRLM 242200Z 04008KT 9999 FEW025 BKN140 29/24 A2977 CBS DST ARUN D RN DST QUAND/W/=
201109242300 METAR MRLM 242300Z 04003KT 9999 FEW025 SCT150 29/24 A2980 SCT260 CBS RN DST QUAND/W/=
201109250000 METAR MRLM 250000Z 340 02KT 9999 SCT015 SCT150 28/25 A2982 CBS DST QUANDS/S/W/N/ DST LTNG/S/W/N/=
201109250100 METAR MRLM NIL=
201109250200 METAR MRLM NIL=
201109250300 METAR MRLM NIL=
201109250400 METAR MRLM NIL=
201109250500 METAR MRLM NIL=
201109250600 METAR MRLM NIL=
201109250700 METAR MRLM NIL=
201109250800 METAR MRLM NIL=
201109250900 METAR MRLM NIL=
201109251000 METAR MRLM NIL=
201109251100 METAR MRLM NIL=
201109251200 METAR MRLM 251200Z 28003KT 9999 SCT015 SCT110 24/23 A2986 RMK CBS RA DST W NW HZ ARND=
201109251300 METAR MRLM NIL=
201109251400 METAR MRLM NIL=
201109251500 METAR MRLM 251500Z 30004KT CAVOK 28/24 A2989 RMK BKN250 HZ ARND=
201109251600 METAR MRLM 251600Z 31007KT CAVOK 29/24 A2989 RMK BKN250 HZ ARND=
201109251700 METAR MRLM 251700Z 32006KT CAVOK 30/24 A2987 RMK BKN250 HZ ARND=
201109251800 METAR MRLM 251800Z 36012KT 9999 FEW030 BKN260 30/25 A2983 RMK HZ ARND=
201109251900 METAR MRLM 251900Z 36015KT 9999 FEW030 BKN260 31/24 A2982 RMK HZ LGT ARND=
201109252000 METAR MRLM 252000Z 35014KT 9999 FEW030 BKN260 30/24 A2979 RMK CB DST S SW HZ LGT ARND=
201109252100 METAR MRLM 252100Z 35011KT 9999 FEW025 BKN250 30/24 A2978 RMK CB DST SE S SW HZ ARND=
201109252200 METAR MRLM 252200Z 33006KT 9999 SCT025 BKN250 29/24 A2978 RMK CB RA DST SE S SW HZ ARND=
201109252300 METAR MRLM 252300Z 00000KT 9999 BKN020 28/24 A2981 RMK FEW130 CB RA DST SE SW HZ ARND=
201109260000 METAR MRLM 260000Z 35003KT 9999 SCT015 SCT130 27/24 A2983 RMK FEW250 CB RA DST S W NE HZ ARND=
201109260100 METAR MRLM NIL=
201109260200 METAR MRLM NIL=
201109260300 METAR MRLM NIL=
201109260400 METAR MRLM NIL=
201109260500 METAR MRLM NIL=
201109260600 METAR MRLM NIL=
201109260700 METAR MRLM NIL=
201109260800 METAR MRLM NIL=
201109260900 METAR MRLM NIL=
201109261000 METAR MRLM NIL=
201109261100 METAR MRLM NIL=
201109261200 METAR MRLM 261200Z 21004KT 9999 BKN010 SCT100 24/23 A2988 RMK RA DST NE E HZ ARND=
201109261300 METAR MRLM 261300Z 21003KT 9999 BKN010 SCT110 24/23 A2990 RMK RA DST N NE HZ ARND=
201109261400 METAR MRLM 261400Z 23003KT 9999 SCT015 BKN120 26/24 A2992 RMK RA DST N NE HZ ARND=
201109261500 METAR MRLM 261500Z 26003KT CAVOK 30/23 A2992 RMK BKN130 RA DST N HZ ARND=
201109261600 METAR MRLM 261600Z 03008KT 9999 FEW030 BKN130 30/24 A2992 RMK CB RA DST N HZ ARND=
201109261700 METAR MRLM 261700Z 01007KT 9999 FEW030 BKN130 30/24 A2990 RMK FEW110 CB RA DST N HZ ARND=
201109261800 METAR MRLM 261800Z 01007KT 9999 -DZ FEW025 BKN120 29/24 A2988 RMK CB RA DST NW N=
201109261900 METAR MRLM 261900Z 02008KT 9999 SCT025 BKN120 29/24 A2986 RMK TCU RA DST SW HZ LGT ARND=
201109262000 METAR MRLM 262000Z 36006KT 9999 SCT025 BKN110 29/24 A2984 RMK CB RA DST S SW HZ ARND=
201109262030 METAR MRLM 262030Z 24005KT 9999 RA BKN015 26/24 A2984 RMK FEW100 CB RA DST SW HZ ARND=
201109262100 METAR MRLM 262100Z 24004KT 9999 DZ BKN015 25/24 A2983 RE RA RMK FEW100 CBS RA DST S SW HZ ARND=
201109262200 METAR MRLM 262200Z 24005KT 9999 DZ BKN010 25/23 A2985 RMK FEW100 CB RA DST S SE HZ ARND=
201109262300 METAR MRLM 262300Z 22005KT 9999 +DZ BKN010 24/22 A2986 RMK FEW090 CB RA DST SW HZ ARND=
201109270000 METAR MRLM 270000Z 25005KT 9999 DZ BKN007 SCT090 23/22 A2988 RMK CB RA DST SW NE HZ ARND=
201109270100 METAR MRLM NIL=
201109270200 METAR MRLM NIL=
201109270300 METAR MRLM NIL=
201109270400 METAR MRLM NIL=
201109270500 METAR MRLM NIL=
201109270600 METAR MRLM NIL=
201109270700 METAR MRLM NIL=
201109270800 METAR MRLM NIL=
201109270900 METAR MRLM NIL=
201109271000 METAR MRLM NIL=
201109271100 METAR MRLM NIL=
201109271200 METAR MRLM NIL=
201109271300 METAR MRLM 271300Z 24004KT CAVOK 23/22 A2993 CBS TS RN DST/NE. E. BKN110 FEW140 FEW260.=
201109271400 METAR MRLM 271400Z METAR 21003KT CAVOK 25/22 A2994 CBS RN DST/NW/NE/ E/ BKN110 FEW150 FEW260/=
201109271500 METAR MRLM 271500Z 00000KT CAVOK 27/23 A2994 RMK SCT090 SCT150 FEW260 CB DST NW NE E RN DST NE E=
201109271600 METAR MRLM 271600Z METAR 03003KT 9999 FEW030 BKN120 28/22 A2996 CBS RN DST/ NE/E/ FEW270/=
201109271700 METAR MRLM 271700Z METAR 09003KT 9999 FEW035 SCT140 29/22 A2995 CBS DST/N/E /S/SW/W SCT260/=
201109271800 METAR MRLM 271800Z METAR 06003KT 9999 FEW035 BKN270 29/23 A2992 CBS DST/S/S W/W FEW140 HZ LGT ARUND/=
201109271900 METAR MRLM 271900Z METAR 02006KT 9999 FEW035 BKN270 30/23 A2988 CBS DST/SE /S/SW/W FEW140 HZ LGT ARUND/=
201109272000 METAR MRLM 272000Z METAR 02006KT 9999 FEW035 BKN270 30/23 A2988 CBS DST QUND/S RN DST/S/W/=
201109272100 METAR MRLM 272100Z METAR 01007KT 9999 FEW035 BKN270 30/24 A2982 CBS DST QUANDS/S/W/ RN DST/S/W/=
201109272200 METAR MRLM 272200Z 040005KT 9999 FEW025 BKN270 29/24 A2982 CBS RN DST SW W HZ LGT ARUND/=
201109272300 METAR MRLM 272300Z 03007KT 9999 FEW020 SCT070 28/24 A2983 CBS DST RN QUANDS S W FEW140 FEW270=
201109280000 METAR MRLM 280000Z 04005KT 9999 SCT070 28/24 A2985 CBS RN DSTQUANDS S W FEW14 0 FEW270/=
201109280100 METAR MRLM NIL=
201109280200 METAR MRLM NIL=
201109280300 METAR MRLM NIL=
201109280400 METAR MRLM NIL=
201109280500 METAR MRLM NIL=
201109280600 METAR MRLM NIL=
201109280700 METAR MRLM NIL=
201109280800 METAR MRLM NIL=
201109280900 METAR MRLM NIL=
201109281000 METAR MRLM NIL=
201109281100 METAR MRLM NIL=
201109281200 METAR MRLM 281200Z 21004KT CAVOK 25/23 A2988 TCU DST NW FEW270/ HZ LGT ARUN D=
201109281300 METAR MRLM 281300Z 22004KT CAVOK 27/23 A2989 CB DST N FEW270 HZ LGT ARUND=
201109281400 METAR MRLM 281400Z 10003KT CAVOK 29/23 A2990 FEW280 CBS DST NW N FEW280 HZ LGT ARUND=
201109281500 METAR MRLM 281500Z 08005KT CAVOK 30/23 A2991 FEW280 CB DST NW HZ LGT ARUND=
201109281600 METAR MRLM 281600Z 10007KT 9999 FEW035 30/23 A2990 FEW280 CBS DST NW N HZ LGT ARUND=
201109281700 METAR MRLM 281700Z 070 08KT 9999 FEW035 31/24 A2988 CBS DST NW N FEW280=
201109281800 METAR MRLM 281800Z 07008KT 9999 FEW035 31/23 A2986 FEW280 CBS DST S NW TCU DST SW HZ LGT ARUND/=
201109281900 METAR MRLM 281900Z 06009KT 9999 FEW030 31/25 A2983 CBS DST QUANDS S W FEW28 0 HZ LGT ARUND=
201109282000 METAR MRLM NIL=
201109282100 METAR MRLM 282100Z 07007KT 9999 FEW030 30/24 A2979 CBS DST QUANDS S W FEW28 0 HZ LGT ARUND=
201109282200 METAR MRLM 282200Z 07003KT 9999 FEW035 30/24 A2979 CBS DST QUANDS S W RN DST S SW FEW280=
201109282300 METAR MRLM 282300Z 08005KT 9999 FEW028 SCT270 29/24 A2980 CBS DST QUANDS S W RN DST S W=
201109290000 METAR MRLM 290000Z 06005KT 9999 FEW025 SCT260 29/24 29/24 A2980 CBS DST QUANDS S W RN DST S SW W=
201109290100 METAR MRLM NIL=
201109290200 METAR MRLM NIL=
201109290300 METAR MRLM NIL=
201109290400 METAR MRLM NIL=
201109290500 METAR MRLM NIL=
201109290600 METAR MRLM NIL=
201109290700 METAR MRLM NIL=
201109290800 METAR MRLM NIL=
201109291000 METAR MRLM NIL=
201109291100 METAR MRLM NIL=
201109291200 METAR MRLM 291200Z 00000KT CAVOK 25/23 A2984 RMK BKN250 TCU DST NE N=
201109291300 METAR MRLM 291300Z 22004KT CAVOK 26/23 A2985 RMK BKN260 TCU DST N NE HZ LGT ARND=
201109291400 METAR MRLM 291400Z 00000KT CAVOK 30/23 A2987 RMK BKN260 TCU DST N E HZ LGT ARND=
201109291500 METAR MRLM 291500Z 08003KT 9999 FEW035 BKN260 30/23 A2988 RMK CB DST E HZ LGT ARND=
201109291600 METAR MRLM 291600Z 07005KT 9999 FEW035 BKN260 30/23 A2989 RMK CBS DST N E HZ LGT ARND=
201109291700 METAR MRLM 291700Z 07006KT CAVOK 30/24 A2987 RMK BKN260 TCU DST NE HZ LGT ARND=
201109291800 METAR MRLM 291800Z 06007KT 9999 FEW040 BKN260 31/24 A2984 RMK TCU DST NE S SW HZ LGT ARND=
201109291900 METAR MRLM 291900Z 08007KT 9999 FEW040 BKN260 31/24 A2981 RMK CB DST QUAD S HZ LGT ARND=
201109292000 METAR MRLM 292000Z 10006KT 9999 FEW035 BKN250 31/24 A2977 RMK CB DST QUAD S HZ LGT ARND=
201109292100 METAR MRLM 292100Z 09006KT 9999 FEW030 BKN250 31/24 A2974 CB DST SW HZ LGT ARND=
201109292200 METAR MRLM 292200Z 09006KT 9999 FEW030 BKN250 30/24 A2973 RMK CB DST S SE HZ LGT ARND=
201109292300 METAR MRLM 292300Z 08005KT 9999 SCT030 BKN250 30/24 A2974 RMK CB DST S HZ LGT ARND=
201109300000 METAR MRLM 300000Z 08004KT 9999 FEW020 BKN250 28/24 A2977 RMK CB DST SW W HZ ARND=
201109300100 METAR MRLM NIL=
201109300200 METAR MRLM NIL=
201109300300 METAR MRLM NIL=
201109300400 METAR MRLM NIL=
201109300500 METAR MRLM NIL=
201109300600 METAR MRLM NIL=
201109300700 METAR MRLM NIL=
201109300800 METAR MRLM NIL=
201109300900 METAR MRLM NIL=
201109301000 METAR MRLM NIL=
201109301100 METAR MRLM NIL=
201109301200 METAR MRLM 301200Z 23005KT CAVOK 23/22 A2982 RMK BKN250 CB DST NW HZ LGT ARND=
201109301300 METAR MRLM 301300Z 09008KT 9999 FEW035 BKN260 31/25 A2981 RMK CB DST S SE SW NW N HZ LGT ARND=
201109301400 METAR MRLM 301400Z 23003KT CAVOK 29/24 A2987 RMK BKN260 HZ LGT ARND=
201109301500 METAR MRLM 301500Z 00000KT 9999 FEW030 BKN250 30/24 A2989 RMK TCU DST NE HZ LGT ARND=
201109301600 METAR MRLM 301600Z 08004KT 9999 FEW030 BKN250 30/24 A2988 RMK TCU DST N NE HZ LGT ARND=
201109301700 METAR MRLM 301700Z 08006KT 9999 FEW030 BKN250 30/24 A2986 RMK CB DST N NE E TCU DST S SW HZ LGT ARND=
201109301800 METAR MRLM 301800Z 08009KT 9999 FEW035 BKN250 31/25 A2984 RMK CB DST S SE SW N NE HZ LGT ARND=
201109301900 METAR MRLM 301900Z 09008KT 9999 FEW035 BKN260 31/25 A2981 RMK CB DST S SE SW NW N HZ LGT ARND=
201109302000 METAR MRLM 302000Z 10009KT 9999 FEW035 BKN260 31/23 A2978 RMK CB DST QUAD S HZ LGT ARND=
201109302100 METAR MRLM 302100Z 11008KT 9999 FEW035 BKN250 31/24 A2977 RMK CB DST S SE HZ LGT ARND=
201109302200 METAR MRLM 302200Z 10009KT 9999 SCT035 BKN250 31/24 A2977 RMK CB RA DST QUAD S HZ LGT ARND=
201109302300 METAR MRLM 302300Z 13008KT 9999 FEW030 BKN250 30/23 A2980 RMK CB RA DST S SW HZ ARND=
201110010000 METAR MRLM 010000Z 25003KT CAVOK 27/24 A2982 RMK FEW130 BKN250 CB RA DST S HZ ARND=
201110010100 METAR MRLM NIL=
201110010200 METAR MRLM NIL=
201110010300 METAR MRLM NIL=
201110010400 METAR MRLM NIL=
201110010500 METAR MRLM NIL=
201110010600 METAR MRLM NIL=
201110010700 METAR MRLM NIL=
201110010800 METAR MRLM NIL=
201110010900 METAR MRLM NIL=
201110011000 METAR MRLM NIL=
201110011100 METAR MRLM NIL=
201110011200 METAR MRLM 011200Z 21005KT CAVOK 24/23 A2986 FEW070 BKN120 FEW280 CBS RN DST NW N NE E=
201110011300 METAR MRLM 011300Z 23004KT 9999 FEW025 BKN110 25/23 A2987 FEW270 CBS RN DST NW N NE E=
201110011400 METAR MRLM 011400Z 2702KT 9999 FEW035 BKN110 30/23 A2989 FEW270 CBS RN DST NW N NE E=
201110011500 METAR MRLM 011500Z 03005KT 9999 FEW035 SCT080 30/23 A2990 SCT270 CBS DST QUAND N RN DST NE E=
201110011600 METAR MRLM 011600Z 04007KT 9999 FEW030 SCT090 30/24 A2990 CBS DST QUAND N RN DST E SCT270=
201110011700 METAR MRLM 011700Z 04007KT 9999 FEW030 BKN110 30/24 A2988 CBS DST N NE E SE RN DST NE=
201110011800 METAR MRLM 011800Z 05006KT 9999 FEW025 SCT080 29/24 A2985 SCT250 CBS DST HZ ARUND=
201110011900 METAR MRLM 011900Z 080 07KT 9999 FEW030 SCT080 30/24 A2982 SCT260 CBS DST HZ AROUND=
201110012000 METAR MRLM 012000Z 9999 FEW030 SCT080 30/24 A2982 SCT270 CBS DST HZ AROUND RN DST SW=
201110012100 METAR MRLM 012100Z 04005KT 9999 FEW035 SCT260 30/23 A2978 FEW120 CBS DST HZ AROUND RN DST SW=
201110012200 METAR MRLM 012200Z 05005KT 9999 FEW035 SCT100 30/22 A2979 SCT270 CBS RN DST QDT S W HZ LGT AROUND=
201110012300 METAR MRLM 012300Z 05005KT 9999 FEW035 BKN090 29/22 A2982 CBS RN DST QDT S W=
201110020000 METAR MRLM 020000Z 15002KT 9999 FEW030 BKN090 28/23 A2985 CBS DST QDT S W DST LTNG W NE=
201110020100 METAR MRLM NIL=
201110020200 METAR MRLM NIL=
201110020300 METAR MRLM NIL=
201110020400 METAR MRLM NIL=
201110020500 METAR MRLM NIL=
201110020600 METAR MRLM NIL=
201110020700 METAR MRLM NIL=
201110020800 METAR MRLM NIL=
201110020900 METAR MRLM NIL=
201110021000 METAR MRLM NIL=
201110021100 METAR MRLM NIL=
201110021200 METAR MRLM 021200Z 23004KT 9999 FEW015 BKN130 23/22 A2988 FEW100 CBS RN DST E SE HZ LGT ARUND=
201110021300 METAR MRLM 021300Z 22005KT 9999 FEW015 BKN100 24/23 A2990 CBS RN DST SE S FEW130 HZ LGT AROUND=
201110021400 METAR MRLM 021400Z 24003KT 9999 FEW015 SCT030 26/23 A2992 SCT120 HZ LGT AROUND=
201110021500 METAR MRLM 021500Z 27003KT 9999 FEW025 BKN110 28/23 A2992 FEW070 CBS DST N NE HZ LGT AROUND=
201110021600 METAR MRLM 021600Z 04005KT 9999 FEW025 BKN090 29/23 A2991 FEW130 CB DST NW HZ LGT AROUND=
201110021700 METAR MRLM 021700Z 07003KT 9999 FEW030 BKN090 29/23 A2989 FEW270 CBS DST S SW HZ LGT AROUND=
201110021800 METAR MRLM 021800Z 05004KT 9999 FEW035 BKN110 30/23 A2986 CB RN DST S FEW27 0 HZ LGT AROUND=
201110021900 METAR MRLM 021900Z 03006KT 9999 FEW035 SCT270 30/23 A2983 CBS DST AROUND FEW110 RN DST S SW=
201110022000 METAR MRLM 022000Z 04005KT 9999 FEW035 SCT270 30/23 A2970 CBS DST CDTES S W N FEW140=
201110022100 METAR MRLM 022100Z 03007KT 9999 FE035 SCT270 30/24 A2979 CBS DST CDTES S W RN DST S SW FEW140=
201110022200 METAR MRLM 022200Z 02007KT 9999 SCT025 BKN270 29/24 A2980 CBS DST CDTES S W RN DST SW W=
201110022300 METAR MRLM 022300Z 02003KT 9999 SCT025 SCT140 29/24 A2983 FEW270 CBS DST CDTES S W RN DST S SW W=
201110030000 MRLM 030000Z 24004KT 9999 FEW015 SCT270 27/24 A2985 FEW140 CBS DST CDTES S W RN DST S SW W=
201110030100 METAR MRLM NIL=
201110030200 METAR MRLM NIL=
201110030300 METAR MRLM NIL=
201110030400 METAR MRLM NIL=
201110030500 METAR MRLM NIL=
201110030600 METAR MRLM NIL=
201110030700 METAR MRLM NIL=
201110030800 METAR MRLM NIL=
201110030900 METAR MRLM NIL=
201110031000 METAR MRLM NIL=
201110031100 METAR MRLM NIL=
201110031200 METAR MRLM 031200Z 23003KT 9999 -DZ VCTS FEW007CB BKN015 24/22 A2990 RMK FEW100 HZ ARND=
201110031300 METAR MRLM 031300Z 36005KT 9999 RA VCTS FEW007CB BKN010 24/22 A2992 RMK FEW100 HZ ARND=
201110031400 METAR MRLM 031400Z 23003KT 9999 DZ BKN010 24/23 A2994 RE RA RMK FEW100 CB RA DST W NW N HZ ARND=
201110031500 METAR MRLM 031500Z 23004KT 9999 SCT015 SCT110 26/23 A2995 RE DZ RMK FEW250 CB RA DST SE S SW W HZ ARND=
201110031600 METAR MRLM 031600Z 00000KT 9999 FEW030 BKN250 29/24 A2993 RMK FEW120 RA DST S HZ LGT ARND=
201110031700 METAR MRLM 031700Z 05005KT 9999 FEW025 SCT120 29/24 A2990 RMK SCT250 HZ LGT ARND=
201110031800 METAR MRLM 031800Z 01008KT 9999 FEW030 SCT130 30/24 A2986 RMK SCT250 HZ LGT ARND=
201110031900 METAR MRLM 031900Z 01011KT CAVOK 30/24 A2986 RMK SCT120 SCT250 HZ LGT AROUND=
201110032000 METAR MRLM 032000Z 36009KT CAVOK 29/24 A2983 RMK BKN120 SCT250 HZ LGT AROUND=
201110032100 METAR MRLM 032100Z 36008KT CAVOK 30/24 A2981 RMK SCT120 BKN250 TCU DST S SW HZ LGT AROUND=
201110032200 METAR MRLM 032200Z 36007KT CAVOK 29/23 A2982 RMK SCT120 SCT250 CB DST SW W HZ LGT AROUND=
201110032300 METAR MRLM 032300Z 00000KT CAVOK 28/24 A2984 RMK BKN110 FEW250 CB DST SW HZ LGT AROUND=
201110040000 METAR MRLM 040000Z 000000KT CAVOK 26/24 A2985 RMK BKN110 FEW250 HZ ARND=
201110040100 METAR MRLM NIL=
201110040200 METAR MRLM NIL=
201110040300 METAR MRLM NIL=
201110040400 METAR MRLM NIL=
201110040500 METAR MRLM NIL=
201110040600 METAR MRLM NIL=
201110040700 METAR MRLM NIL=
201110040800 METAR MRLM NIL=
201110040900 METAR MRLM NIL=
201110041000 METAR MRLM NIL=
201110041100 METAR MRLM NIL=
201110041200 METAR MRLM 041200Z 2305KT 9999 DZ BKN007 23/22 A2991 RMK FEW100 RA DST NE SW W=
201110041300 METAR MRLM 041300Z 22005KT 9999 DZ BKN007 SCT100 23/22 A2993 RMK CB RA DST NE HZ AROUND=
201110041400 METAR MRLM 041400Z 20005KT 9999 DZ BKN010 SCT100 23/22 A2994=
201110041500 METAR MRLM 041500Z 00000KT 9999 DZ FEW010 BKN100 24/22 A2997=
201110041600 METAR MRLM 041600Z 22003KT 9999 DZ SCT007 BKN090 23/22 A2996=
201110041700 METAR MRLM 041700Z 00000KT 9999 -DZ FEW010 BKN090 24/23 A2992=
201110041800 METAR MRLM 041800Z 30003KT 9999 -DZ SCT110 SCT240 26/24 A2989=
201110041900 METAR MRLM 041900Z 25004KT CAVOK 27/24 A2984=
201110042000 METAR MRLM 042000Z 30003KT CAVOK 28/24 A2982=
201110042100 METAR MRLM 042100Z 31003KT CAVOK 29/24 A2980=
201110042200 METAR MRLM 042200Z 28003KT CAVOK 29/23/ A2980=
201110042300 METAR MRLM 042300Z 00000KT CAVOK 27/23 A2983=
201110050000 METAR MRLM 050000Z 00000KT CAVOK 25/24 A2985=
201110050100 METAR MRLM NIL=
201110050200 METAR MRLM NIL=
201110050300 METAR MRLM NIL=
201110050400 METAR MRLM NIL=
201110050500 METAR MRLM NIL=
201110050600 METAR MRLM NIL=
201110050700 METAR MRLM NIL=
201110050800 METAR MRLM NIL=
201110050900 METAR MRLM NIL=
201110051000 METAR MRLM NIL=
201110051100 METAR MRLM NIL=
201110051200 METAR MRLM 051200Z 23006KT FEW025 BKN090 23/21 A2987 CBS RN DSTCDTES N E HZ LGT AROUND=
201110051300 METAR MRLM 051300Z 24005KT 9999 FEW025 BKN090 23/21 A2989 CBS RN DST CDTES N E FEW250=
201110051400 METAR MRLM 051400Z 24004KT 9999 FEW025 BKN090 24/21 A2982 RN DST N DZ NE E HZ LGT ARND=
201110051500 METAR MRLM 051500Z 24004KT 9999 SCT025 SCT080 25/22 A2991 CB RN DST CDTE N HZ LGT ARND FEW250=
201110051600 METAR MRLM 051600Z 00000KT 9999 FEW025 SCT080 27/22 A2992=
201110051700 METAR MRLM 051700Z 30003KT 9999 FEW025 BKN080 28/23 A2989 RMK RN DST NW=
201110051800 METAR MRLM 051800Z 30006KT 9999 FEW025 BKNT250 29/24 A2986=
201110051900 METAR MRLM 051900Z 36006KT 9999 FEW030 BKN260 30/24 A2984=
201110052000 METAR MRLM 052000Z 36011KT 9999 FEW025 BKN260 30/24 A2981=
201110052100 METAR MRLM 052100Z 36010KT 9999 FEW260 29/24 A2978=
201110052200 METAR MRLM NIL=
201110052300 METAR MRLM 052300Z 33006KT 9999 FEW025 SCT110 28/23 A2981=
201110060000 METAR MRLM 060000Z 23003KT CAVOK 26/24 A2983=
201110060100 METAR MRLM NIL=
201110060200 METAR MRLM NIL=
201110060300 METAR MRLM NIL=
201110060400 METAR MRLM NIL=
201110060500 METAR MRLM NIL=
201110060600 METAR MRLM NIL=
201110060700 METAR MRLM NIL=
201110060800 METAR MRLM NIL=
201110060900 METAR MRLM NIL=
201110061000 METAR MRLM NIL=
201110061100 METAR MRLM NIL=
201110061200 METAR MRLM 061200Z 00000KT 9999 OVC025 24/22 A2985=
201110061300 METAR MRLM 061300Z 20003KT 9999 BKN025 25/23 A2986=
201110061400 METAR MRLM 061400Z 30004KT 9999 BKN020 26/23 A2988=
201110061500 METAR MRLM 061500Z 29005KT 9999 FEW015 SCT025 26/23 A2991=
201110061600 METAR MRLM 061600Z 31006KT 9999 FEW015 SCT025 27/22 A2991=
201110061700 METAR MRLM 061700Z 31006KT FEW020 BKN090 27/24 A2988=
201110061800 METAR MRLM 061800Z 35006KT 9999 FEW025 BKN080 28/23 A2985=
201110061900 METAR MRLM 061900Z 35007KT 9999 FEW025 SCT080 29/23 A2983=
201110062000 METAR MRLM 062000Z 36008KT 9999 FEW025 BKN090 29/23 A2980=
201110062100 METAR MRLM 062100Z 34006KT 9999 FEW030 SCT110 29/23 A2978=
201110062200 METAR MRLM 062200Z 31004KT 9999 FEW025 SCT080 28/23 A2978=
201110062300 METAR MRLM 062300Z 31007KT 9999 FEW020 SCT110 27/23 A2979=
201110070000 METAR MRLM 070000Z 00000KT 9999 FEW015 BKN140 26/23 A2981=
201110070100 METAR MRLM NIL=
201110070200 METAR MRLM NIL=
201110070300 METAR MRLM NIL=
201110070400 METAR MRLM NIL=
201110070500 METAR MRLM NIL=
201110070600 METAR MRLM NIL=
201110070700 METAR MRLM NIL=
201110070800 METAR MRLM NIL=
201110070900 METAR MRLM NIL=
201110071000 METAR MRLM NIL=
201110071100 METAR MRLM NIL=
201110071200 METAR MRLM 071200Z 24004KT CAVOK 23/22 A2986=
201110071300 METAR MRLM 071300Z 25003KT CAVOK 25/22 A2986=
201110071400 METAR MRLM 071400Z 30006KT CAVOK 26/22 A2988=
201110071500 METAR MRLM 071500Z 29004KT CAVOK 27/23 A2989=
201110071600 METAR MRLM 071600Z 35007KT CAVOK 30/22 A2989=
201110071700 METAR MRLM 071700Z 32006KT 9999 FEW040 BKN130 31/23 A2986 RMK HZ LGT AROUND=
201110071800 METAR MRLM 071800Z 34008KT 9999 FEW035 BKN130 31/23 A2982=
201110071900 METAR MRLM 071900Z 36011KT 9999 FEW030 BKN130 29/24 A2980=
201110072000 METAR MRLM 072000Z 01012KT 9999 FEW030 SCT140 30/24 A2978=
201110072100 METAR MRLM 072100Z 36009KT 9999 FEW030 BKN250 29/23 A2976=
201110072200 METAR MRLM 072200Z 35009KT 9999 FEW025 BKN250 29/23 A2975=
201110072300 METAR MRLM 072300Z 34005KT 9999 SCT025 29/23 A2976=
201110080000 METAR MRLM 080000Z 32003KT 9999 OVC020 27/24 A2979=
201110080100 METAR MRLM NIL=
201110080200 METAR MRLM NIL=
201110080300 METAR MRLM NIL=
201110080400 METAR MRLM NIL=
201110080500 METAR MRLM NIL=
201110080600 METAR MRLM NIL=
201110080700 METAR MRLM NIL=
201110080800 METAR MRLM NIL=
201110080900 METAR MRLM NIL=
201110081000 METAR MRLM NIL=
201110081100 METAR MRLM NIL=
201110081200 METAR MRLM 081200Z 23004KT 9999 SCT010 BKN100 24/22 A2983=
201110081300 METAR MRLM 081300Z 20003KT 9999 FEW015 BKN110 26/23 A2985=
201110081400 METAR MRLM 081400Z 00000KT CAVOK 29/24 A2986=
201110081500 METAR MRLM 081500Z 01003KT 9999 FEW030 BKN250 30/23 A2987=
201110081600 METAR MRLM 081600Z 31005KT 9999 FEW035 BKN250 30/23 A2985=
201110081700 METAR MRLM 081700Z 01008KT 9999 FEW035 BKN260 30/24 A2981=
201110081800 METAR MRLM 081800Z 36014KT 9999 FEW030 BKN260 30/24 A2979=
201110081900 METAR MRLM 081900Z 01013KT 9999 FEW030 BKN250 30/24 A2976=
201110082000 METAR MRLM 082000Z 34008KT 9999 FEW030 SCT130 29/24 A2975=
201110082100 METAR MRLM 082100Z 36007KT 9999 SCT030 BKN250 29/24 A2975=
201110082200 METAR MRLM 082200Z 00000KT 9999 BKN025 29/24 A2977=
201110082300 METAR MRLM 082300Z 00000KT 9999 BKN020 28/25 A2978=
201110090000 METAR MRLM 090000Z 00000KT 9999 BKN015 28/25 A2978=
201110090100 METAR MRLM NIL=
201110090200 METAR MRLM NIL=
201110090300 METAR MRLM NIL=
201110090400 METAR MRLM NIL=
201110090500 METAR MRLM NIL=
201110090600 METAR MRLM NIL=
201110090700 METAR MRLM NIL=
201110090800 METAR MRLM NIL=
201110090900 METAR MRLM NIL=
201110091000 METAR MRLM NIL=
201110091100 METAR MRLM NIL=
201110091200 METAR MRLM NIL=
201110091300 METAR MRLM NIL=
201110091400 METAR MRLM 091400Z 27004KT CAVOK 28/23 A2986/=
201110091500 METAR MRLM 091500Z 29005KT 9999 CAVOK 31/23 A2986=
201110091600 METAR MRLM 091600Z 32003KT 9999 FEW045 SCT270 32/22 A2986=
201110091700 METAR MRLM NIL=
201110091800 METAR MRLM 091800Z 01011KT 9999 SCT035 SCT130 31/24 A2980=
201110091900 METAR MRLM 091900Z 36013KT 9999 RA SCT030 SCT140 29/24 A2978=
201110092000 METAR MRLM 092000Z 02006KT 9999 FEW020 BKN110 29/24 A2977=
201110092100 METAR MRLM 092100Z 22004KT 9999 DZ BKN015 28/25 A2976=
201110092200 METAR MRLM 092200Z 24004KT 9999 DZ VCSH OVC010 26/24 A2976=
201110092300 METAR MRLM 092300Z 16003KT 9999 DZ SCT015 SCT090 26/24 A2976=
201110100000 METAR MRLM 100000Z 23003KT 9999 DZ VCSH SCT012 SCT090 26/23 A2977/=
201110100100 METAR MRLM NIL=
201110100200 METAR MRLM NIL=
201110100300 METAR MRLM NIL=
201110100400 METAR MRLM NIL=
201110100500 METAR MRLM NIL=
201110100600 METAR MRLM NIL=
201110100700 METAR MRLM NIL=
201110100800 METAR MRLM NIL=
201110100900 METAR MRLM NIL=
201110101000 METAR MRLM NIL=
201110101100 METAR MRLM NIL=
201110101200 METAR MRLM 101200Z 23003KT 9999 FEW015 BKN100 23/22 A2983=
201110101300 METAR MRLM 101300Z 23004KT 9999 FEW015 SCT090 24/23 A2985=
201110101400 METAR MRLM 101400Z 25003KT CAVOK 28/23 A2987=
201110101500 METAR MRLM 101500Z 22003KT 9999 FEW035 BKN270 30/23 A2988=
201110101600 METAR MRLM 101600Z 03007KT 9999 FEW035 BKN270 30/23 A2988=
201110101700 METAR MRLM 101700Z 02008KT 9999 FEW030 BKN270 29/23 A2986=
201110101800 METAR MRLM 101800Z 02006KT 9999 FEW030 SCT140 29/24 A2983=
201110101900 METAR MRLM 101900Z 03005KT 9999 FEW035 BKN270 30/23 A2979=
201110102000 METAR MRLM 102000Z 09006KT 9999 FEW035 SCT140 29/23 A2978=
201110102020 METAR MRLM 102020Z 09005KT 9999 VCTS FEW015CB FEW030 BKN090 29/23 A2977=
201110102100 METAR MRLM 102100Z 9999 FEW025 BKN120 29/23 A2977 RETS=
201110102200 METAR MRLM NIL=
201110102300 METAR MRLM 102300Z METAR 9999 DZ VCTS VCSH FEW010CB FEW015 BKN025 26/24 A2981=
201110110000 METAR MRLM 110000Z 29008KT 9999 VCTS VCSH FEW010CB SCT015 SCT025 25/23 A2984 REDZ=
201110110100 METAR MRLM NIL=
201110110200 METAR MRLM NIL=
201110110300 METAR MRLM NIL=
201110110400 METAR MRLM NIL=
201110110500 METAR MRLM NIL=
201110110600 METAR MRLM NIL=
201110110700 METAR MRLM NIL=
201110110800 METAR MRLM NIL=
201110110900 METAR MRLM NIL=
201110111000 METAR MRLM NIL=
201110111100 METAR MRLM NIL=
201110111200 METAR MRLM 111200Z 22004KT CAVOK 22/21 A2982=
201110111300 METAR MRLM 111300Z 21004KT CAVOK 23/22 A2985=
201110111400 METAR MRLM 111400Z 12005KT CAVOK 27/23 A2987=
201110111500 METAR MRLM 111500Z 12010KT CAVOK 29/22 A2989=
201110111600 METAR MRLM 111600Z 12011KT CAVOK 30/23 A2990=
201110111700 METAR MRLM 111700Z 10008KT CAVOK 30/23 A2988=
201110111800 METAR MRLM 111800Z 09007KT CAVOK 30/23 A2985=
201110111900 METAR MRLM 111900Z 07006KT CAVOK 30/23 A2982=
201110112000 METAR MRLM 112000Z 07007KT 9999 FEW030 SCT120 29/24 A2981=
201110112100 METAR MRLM 112100Z 10006KT 9999 BKN030 29/23 A2981=
201110112200 METAR MRLM 112200Z 14005KT 9999 BKN030 29/23 A2981=
201110112217 METAR MRLM 112217Z 14005KT 9999 DZ BKN020 27/24 A2982=
201110112300 METAR MRLM 112300Z 21007KT 9999 -DZ BKN015 25/23 2983=
201110120000 METAR MRLM 120000Z 23004KT 9999 BKN010 24/23 A2985=
201110120100 METAR MRLM NIL=
201110120200 METAR MRLM NIL=
201110120300 METAR MRLM NIL=
201110120400 METAR MRLM NIL=
201110120500 METAR MRLM NIL=
201110120600 METAR MRLM NIL=
201110120700 METAR MRLM NIL=
201110120800 METAR MRLM NIL=
201110120900 METAR MRLM NIL=
201110121000 METAR MRLM NIL=
201110121100 METAR MRLM NIL=
201110121200 METAR MRLM 121200Z 21004KT CAVOK 22/21 A2988=
201110121300 METAR MRLM 121300Z 00000KT CAVOK 26/23 A2989=
201110121400 METAR MRLM 121400Z 00000KT CAVOK 27/23 A2990=
201110121500 METAR MRLM 121500Z 10007KT CAVOK 30/22 2991=
201110121600 METAR MRLM 121600Z 07008KT CAVOK 29/22 A2991=
201110121700 METAR MRLM 121700Z 08010KT CAVOK 30/22 A2989=
201110121800 METAR MRLM 121800Z 08011KT CAVOK 30/23 A2985=
201110121900 METAR MRLM 181900Z 09010KT CAVOK 30/23 A2983=
201110122000 METAR MRLM 122000Z 09009KT CAVOK 30/23 A2981 FEW140 BKN260 HZ LGT AROUND=
201110122100 METAR MRLM 122100Z 07010KT 9999 FEW030 BKN250 30/24 A2980=
201110122200 METAR MRLM 122200Z 08007KT 9999 SCT030 29/24 A2981=
201110122300 METAR MRLM 122300Z 11010KT 9999 BKN025 29/24 A2983 RMK FEW110 RA DST NW W HZ ARND=
201110130000 METAR MRLM 130000Z 14008KT 9999 BKN020 28/23 A2984 RMK FEW110 RA NW HZ ARND=
201110130100 METAR MRLM NIL=
201110130200 METAR MRLM NIL=
201110130300 METAR MRLM NIL=
201110130400 METAR MRLM NIL=
201110130500 METAR MRLM NIL=
201110130600 METAR MRLM NIL=
201110130700 METAR MRLM NIL=
201110130800 METAR MRLM NIL=
201110130900 METAR MRLM NIL=
201110131000 METAR MRLM NIL=
201110131100 METAR MRLM NIL=
201110131200 METAR MRLM 131200Z 18006KT 9999 FEW010 BKN090 23/21 A2984 CB RN DST NW E FEW150=
201110131300 METAR MRLM 131300Z 16006KT 9999 FEW010 BKN090 25/21 A2985=
201110131400 METAR MRLM 131400Z 18005KT 9999 FEW020 BKN090 26/22 A2986=
201110131500 METAR MRLM 131500Z 14006KT 9999 FEW020 BKN080 28/22 A2986=
201110131600 METAR MRLM 131600Z 12009KT CAVOK 30/21 A2984=
201110131700 METAR MRLM 131700Z 09009KT CAVOK 30/22 A2982=
201110131800 METAR MRLM 131800Z 09011KT 9999 FEW035 BKN270 30/23 A2980=
201110131900 METAR MRLM 131900Z 10011KT 9999 FEW035 BKN080 29/23 A2979=
201110132000 METAR MRLM 132000Z METAR 09008KT 9999 SCT030 BKN080 29/23 A2976=
201110132100 METAR MRLM 132100Z METAR 10006KT 9999 FEW015 SCT035 29/23 A2977=
201110132200 METAR MRLM 132200Z 11004KT 9999 VCSH SCT015 SCT030 29/23 A2977=
201110132215 METAR MRLM 132215Z 25009KT 9999 3000SW +TSRA FEW010CB SCT012 SCT020 26/23 A2978=
201110132300 METAR MRLM 132300Z 22008KT 9999 4000S TSRA FEW008 FEW01CB SCT020 23/22 A2978=
201110140000 METAR MRLM 140000Z 8000 TSRA FEW010CB SCT020 SCT090 23/21 A2979 DUPE MEX1/SENEAM/GOB/80 XTB004 OCT 140018=
201110140100 METAR MRLM NIL=
201110140200 METAR MRLM NIL=
201110140300 METAR MRLM NIL=
201110140400 METAR MRLM NIL=
201110140500 METAR MRLM NIL=
201110140600 METAR MRLM NIL=
201110140700 METAR MRLM NIL=
201110140800 METAR MRLM NIL=
201110140900 METAR MRLM NIL=
201110141000 METAR MRLM NIL=
201110141100 METAR MRLM NIL=
201110141200 METAR MRLM 141200Z 24004KT CAVOK 22/21 A2978=
201110141300 METAR MRLM 141300Z METAR 23004KT CAVOK 24/22 A2979=
201110141400 METAR MRLM 141400Z 27002KT CAVOK 27/23 A2982=
201110141500 METAR MRLM 141500Z 05003KT CAVOK 28/21 29/85=
201110141600 METAR MRLM 141600Z 03003KT 9999 FEW030 BKN120 29/23 A2985=
201110141700 METAR MRLM 141700Z 06004KT 9999 FEW035 BKN270 29/23 A2983=
201110141800 METAR MRLM 141800Z 10005KT 9999 FEW030 BKN270 29/23 A2980=
201110141900 METAR MRLM 141900Z 11007KT 9999 FEW0235 BKN270 30/23 A2978=
201110142000 METAR MRLM 142000Z 11007KT 9999 FEW035 SCT120 30/23 A2975=
201110142100 METAR MRLM 142100Z 10005KT 9999 FEW035 SCT090 30/23 A2975=
201110142200 METAR MRLM 142200Z 08003KT 9999 FEW030 BKN080 29/23 A2977=
201110142300 METAR MRLM 142300Z 25004KT 9999 SCT025 SCT080 28/24 A2979=
201110150000 METAR MRLM 150000Z 28004KT 9999 OVC020 27/23 A2979=
201110150100 METAR MRLM NIL=
201110150200 METAR MRLM NIL=
201110150300 METAR MRLM NIL=
201110150400 METAR MRLM NIL=
201110150500 METAR MRLM NIL=
201110150600 METAR MRLM NIL=
201110150700 METAR MRLM NIL=
201110150800 METAR MRLM NIL=
201110150900 METAR MRLM NIL=
201110151000 METAR MRLM NIL=
201110151100 METAR MRLM NIL=
201110151200 METAR MRLM 151200Z 23003KT CAVOK 22/21 A2984=
201110151300 METAR MRLM NIL=
201110151400 METAR MRLM 151400Z 00000KT CAVOK 27/23 A2988=
201110151500 METAR MRLM 151500Z 11005KT CAVOK 27/22 A2988=
201110151600 METAR MRLM 151600Z 08005KT CAVOK 28/22 A2988=
201110151700 METAR MRLM 151700Z 08007KT CAVOK 29/23 A2986=
201110151800 METAR MRLM 151800Z 10009KT CAVOK 29/23 A2984=
201110151900 METAR MRLM 151900Z 11010KT CAVOK 30/23 A2981=
201110152000 METAR MRLM 152000Z 11006KT 9999 DZ FEW030 BKN130 28/22 A2980=
201110152100 METAR MRLM 152100Z 11005KT 9999 -DZ FEW025 BKN120 28/23 A2978=
201110152200 METAR MRLM 152200Z 12006KT 9999 -DZ FEW025 BKN120 28/23 A2979=
201110152300 METAR MRLM 152300Z 11007KT 9999 SCT025 SCT120 28/23 A2982=
201110160000 METAR MRLM 160000Z 24004KT 9999 BKN015 26/24 A2985=
201110160100 METAR MRLM NIL=
201110160200 METAR MRLM NIL=
201110160300 METAR MRLM NIL=
201110160400 METAR MRLM NIL=
201110160500 METAR MRLM NIL=
201110160600 METAR MRLM NIL=
201110160700 METAR MRLM NIL=
201110160800 METAR MRLM NIL=
201110160900 METAR MRLM NIL=
201110161000 METAR MRLM NIL=
201110161100 METAR MRLM NIL=
201110161200 METAR MRLM 161200Z 24004KT CAVOK 20/19 A2989=
201110161300 METAR MRLM 161300Z 21004KT CAVOK 21/20 A2990=
201110161400 METAR MRLM 161400Z 22003KT CAVOK 23/22 A2992=
201110161500 METAR MRLM 161500Z 00000KT CAVOK 27/22 A2995=
201110161600 METAR MRLM 161600Z 00000KT CAVOK 27/22 A2994=
201110161700 METAR MRLM NIL=
201110161800 METAR MRLM 161800Z 09003KT CAVOK 28/22 A2989=
201110161900 METAR MRLM 161900Z 09005KT 9999 FEW030 SCT130 28/22 A2987=
201110162000 METAR MRLM 162000Z 10006KT 9999 FEW025 SCT120 28/23 A2985=
201110162100 METAR MRLM 162100Z 08010KT 8000 +RA BKN015 26/24 A2984=
201110162200 METAR MRLM 162200Z 19003KT 9999 -RA BKN010 24/22 A2985=
201110162300 METAR MRLM 162300Z 24004KT 9999 BKN010 23/22 A2987=
201110170000 METAR MRLM 170000Z 23003KT 9999 DZ BKN010 23/22 A2989=
201110170100 METAR MRLM NIL=
201110170200 METAR MRLM NIL=
201110170300 METAR MRLM NIL=
201110170400 METAR MRLM NIL=
201110170500 METAR MRLM NIL=
201110170600 METAR MRLM NIL=
201110170700 METAR MRLM NIL=
201110170800 METAR MRLM NIL=
201110170900 METAR MRLM NIL=
201110171000 METAR MRLM NIL=
201110171100 METAR MRLM NIL=
201110171200 METAR MRLM 171200Z 25004KT CAVOK 21/20 A2988=
201110171300 METAR MRLM 171300Z 21004KT CAVOK 22/21 A2990=
201110171400 METAR MRLM 171400Z 20004KT CAVOK 25/22 A2992=
201110171500 METAR MRLM 171500Z 22002KT CAVOK 26/22 A2994=
201110171600 METAR MRLM 171600Z 11004KT CAVOK 27/22 A2993=
201110171700 METAR MRLM 171700Z 11005KT 9999 FEW030 BKN080 28/22 A2991=
201110171800 METAR MRLM 171800Z 07004KT 9999 FEW035 SCT090 BKN270 28/21 A2988=
201110171900 METAR MRLM 171900Z 07008KT 9999 FEW035 SCT100 29/22 A2985=
201110172000 METAR MRLM 172000Z 08004KT 9999 FEW035 BKN090 29/22 A2983=
201110172100 METAR MRLM 172100Z 09007KT 9999 FEW030 BKN080 28/22 A2982=
201110172200 METAR MRLM 172200Z 11008KT 9999 FEW025 BKN080 28/23 A2983 CB RN DST SW W FEW090=
201110172300 METAR MRLM 172300Z 17002KT 9999 FEW020 SCT080 27/23 A2984 RMK SCT110 CB RA S=
201110180000 METAR MRLM 180000Z 24003KT 9999 FEW010 BKN080 25/23 A2985=
201110180100 METAR MRLM NIL=
201110180200 METAR MRLM NIL=
201110180300 METAR MRLM NIL=
201110180400 METAR MRLM NIL=
201110180500 METAR MRLM NIL=
201110180600 METAR MRLM NIL=
201110180700 METAR MRLM NIL=
201110180800 METAR MRLM NIL=
201110180900 METAR MRLM NIL=
201110181000 METAR MRLM NIL=
201110181100 METAR MRLM NIL=
201110181200 METAR MRLM NIL=
201110181300 METAR MRLM 181300Z 23004KT 9999 FEW015 BKN080 24/22 A2989=
201110181400 METAR MRLM 181400Z 23004KT 9999 FEW015 BKN080 24/22 A2989 RMK FEW130 CB RN DST E HZ LGT ARND=
201110181500 METAR MRLM 181500Z 09004KT 9999 FEW035 BKN130 29/22 A2993 RMK FEW270 CB RA E HZ ARND=
201110181600 METAR MRLM 181600Z 09004KT 9999 FEW035 BKN130 29/22 A2993=
201110181700 METAR MRLM 181700Z 06007KT 9999 FEW035 BKN140 29/23 A2990=
201110181800 METAR MRLM 181800Z 06007KT 9999 FEW030 SCT140 29/24 A2987=
201110181900 METAR MRLM 181900Z 07007KT 9999 BKN030 30/24 A2984=
201110182000 METAR MRLM 182000Z 05005KT 9999 BKN035 30/23 A2984=
201110182100 METAR MRLM 182100Z 01005KT 9999 BKN035TCU 29/23 A2984=
201110182125 METAR MRLM 182125Z 31006KT 9999 VCTS VCSH SCT015CB SCT015TCU 29/23 A2985=
201110182200 METAR MRLM 182200Z 22005KT 9999 VCSH BKN020TCU 27/23 A2986 RETS=
201110182300 METAR MRLM 182300Z 21005KT 9999 FEW015 SCT110 25/22 A2986=
201110190000 METAR MRLM NIL=
201110190100 METAR MRLM NIL=
201110190200 METAR MRLM NIL=
201110190300 METAR MRLM NIL=
201110190400 METAR MRLM NIL=
201110190500 METAR MRLM NIL=
201110190600 METAR MRLM NIL=
201110190700 METAR MRLM NIL=
201110190800 METAR MRLM NIL=
201110190900 METAR MRLM NIL=
201110191000 METAR MRLM NIL=
201110191100 METAR MRLM NIL=
201110191200 METAR MRLM 191200Z 00000KT 9999 SCT015 BKN100 23/21 A2993=
201110191300 METAR MRLM 191300Z 00000KT 9999 -DZ FEW015 BKN100 24/21 A2995=
201110191400 METAR MRLM 191400Z 22003KT 9999 -DZ FEW015 BKN110 24/22 A2996=
201110191500 METAR MRLM 191500Z 21003KT 9999 FEW025 BKN110 28/23 A2997=
201110191600 METAR MRLM 191600Z 00000KT 9999 -DZ SCT025 BKN110 28/23 A2997=
201110191700 METAR MRLM 191700Z 01004KT CAVOK 29/23 A2994=
201110191800 METAR MRLM 191800Z 01004KT 9999 SCT025 SCT120 29/24 A2993=
201110191900 METAR MRLM 191900Z 02004KT 9999 FEW030 BKN120 29/23 A2991=
201110192000 METAR MRLM NIL=
201110192100 METAR MRLM NIL=
201110192200 METAR MRLM 192200Z 02004KT 9999 SCT020 BKN120 28/24 A2990=
201110192300 METAR MRLM 192300Z 01004KT 9999 SCT020 BKN120 28/23 A2991=
201110200000 METAR MRLM 200000Z 25003KT 9999 SCT015 SCT110 26/24 A2993=
201110200100 METAR MRLM NIL=
201110200200 METAR MRLM NIL=
201110200300 METAR MRLM NIL=
201110200400 METAR MRLM NIL=
201110200500 METAR MRLM NIL=
201110200600 METAR MRLM NIL=
201110200700 METAR MRLM NIL=
201110200800 METAR MRLM NIL=
201110200900 METAR MRLM NIL=
201110201000 METAR MRLM NIL=
201110201100 METAR MRLM NIL=
201110201200 METAR MRLM 201200Z 00000KT 9999 +DZ SCT010 BKN100 22/21 A2999=
201110201300 METAR MRLM 201300Z 21003KT 9999 DZ FEW010 BKN100 22/21 A3001=
201110201400 METAR MRLM 201400Z 00000KT 9999 DZ FEW010 BKN100 23/22 A3002=
201110201500 METAR MRLM 201500Z 05003KT 9999 -DZ FEW015 SCT110 25/23 A3004=
201110201600 METAR MRLM 201600Z 08005KT 9999 -DZ FEW020 SCT110 26/23 A3004=
201110201700 METAR MRLM 201700Z 04005KT 9999 SCT020 SCT110 27/22 A3001=
201110201800 METAR MRLM 201800Z 04005KT 9999 SCT025 27/22 A2999=
201110201900 METAR MRLM 201900Z 02006KT 9999 SCT030 27/21 A2996=
201110202000 METAR MRLM 202000Z 03003KT 9999 BKN030 SCT120 27/21 A2994=
201110202100 METAR MRLM 202100Z 00000KT 9999 BKN030 27/21 A2993=
201110202135 METAR MRLM 202135Z 21005KT 8000 OVC015 24/22 A2993=
201110202200 METAR MRLM 202200Z 26006KT 8000 RA OVC010 23/22 A2993=
201110202300 METAR MRLM 202300Z 23004KT 9999 DZ VCSH FEW007 BKN100 22/21 A2994=
201110210000 METAR MRLM 210000Z 24003KT 9999 DZ BKN010 SCT090 22/21 A2995=
201110210100 METAR MRLM NIL=
201110210200 METAR MRLM NIL=
201110210300 METAR MRLM NIL=
201110210400 METAR MRLM NIL=
201110210500 METAR MRLM NIL=
201110210600 METAR MRLM NIL=
201110210700 METAR MRLM NIL=
201110210800 METAR MRLM NIL=
201110210900 METAR MRLM NIL=
201110211000 METAR MRLM NIL=
201110211100 METAR MRLM NIL=
201110211200 METAR MRLM NIL=
201110211300 METAR MRLM 211300Z 27005KT 5000 RA SCT020 BKN090 21/20 A2998=
201110211400 METAR MRLM 211400Z 24005KT 9999 +DZ BKN020 23/21 A3000=
201110211500 METAR MRLM 211500Z 21002KT 9999 DZ FEW015 BKN025 24/22 A3000 REDZ=
201110211600 METAR MRLM 211600Z 29003KT 9999 OVC020 26/22 A2999 REDZ=
201110211700 METAR MRLM 211700Z 28004KT 9999 OVC025 26/22 A2997=
201110211800 METAR MRLM 211800Z 28006KT 9999 DZ FEW010 BKN020 26/21 A2994=
201110211900 METAR MRLM NIL=
201110212000 METAR MRLM 212000Z 27005KT 9999 +DZ BKN020 25/21 A2988=
201110212100 METAR MRLM NIL=
201110212200 METAR MRLM 212200Z 26004KT 9999 DZ BKN020 25/21 A2988=
201110212300 METAR MRLM 212300Z 24005KT 9999 BKN020 25/21 A2988REDZ=
201110220000 METAR MRLM 220000Z 23003KT 9999 BKN020 24/21 A2988=
201110220100 METAR MRLM NIL=
201110220200 METAR MRLM NIL=
201110220300 METAR MRLM NIL=
201110220400 METAR MRLM NIL=
201110220500 METAR MRLM NIL=
201110220600 METAR MRLM NIL=
201110220700 METAR MRLM NIL=
201110220800 METAR MRLM NIL=
201110220900 METAR MRLM NIL=
201110221000 METAR MRLM NIL=
201110221100 METAR MRLM NIL=
201110221200 METAR MRLM 221200Z 29007KT 9999 FEW035 BKN080 24/20 A2987=
201110221300 METAR MRLM 221300Z 29007KT 9999 SCT035 SCT080 24/21 A2989=
201110221400 METAR MRLM 221400Z 29007KT 9999 FEW035 BKN080 26/21 A2990=
201110221500 METAR MRLM 221500Z 28005KT 9999 FEW025 BKN080 27/22 A2990=
201110221600 METAR MRLM 221600Z 30006KT 9999 FEW030 BKN110 28/21 A2989=
201110221700 METAR MRLM 221700Z 32008KT 9999 SCT035 SCT120 29/22 A2987=
201110221800 METAR MRLM 221800Z 36012KT 9999 BKN025 SCT120 28/22 A2983=
201110221900 METAR MRLM 221900Z 35012KT 9999 RA BKN030 SCT120 28/22 A2983=
201110221935 METAR MRLM 221935Z 35004KT 4000 +RA BKN012 25/23 A2981=
201110222000 METAR MRLM 222000Z 18003KT 4000TSRA FEW010CB BKN015 25/23 A2981=
201110222100 METAR MRLM 222100Z 34009KT 1000 +TS SHRA FEW005 SCT010CB SCT015 23/22 A2983=
201110222200 METAR MRLM 222200Z 18005KT 6000 RA FEW003 BKN015 21/20 A2984 RETSSH=
201110222300 METAR MRLM 222300Z 19003KT 5000 RA FEW003 BKN010 20/20 A2985=
201110230000 METAR MRLM 230000Z 22003KT 5000 RA FEW004 OVC012 20/20 A2986=
201110230100 METAR MRLM NIL=
201110230200 METAR MRLM NIL=
201110230300 METAR MRLM NIL=
201110230400 METAR MRLM NIL=
201110230500 METAR MRLM NIL=
201110230600 METAR MRLM NIL=
201110230700 METAR MRLM NIL=
201110230800 METAR MRLM NIL=
201110230900 METAR MRLM NIL=
201110231000 METAR MRLM NIL=
201110231100 METAR MRLM NIL=
201110231200 METAR MRLM 231200Z 24003KT 9999 BKN030 21/20 A2988=
201110231300 METAR MRLM 231300Z 00000KT 9999 BKN030 22/21 A2989=
201110231400 METAR MRLM 231400Z 23003KT 9999 SCT035 SCT110 25/22 A2992=
201110231500 METAR MRLM 231500Z 09003KT 9999 FEW025 BKN140 28/22 A2992=
201110231600 METAR MRLM 231600Z 07004KT 9999 FEW035 BKN140 28/22 A2991=
201110231700 METAR MRLM 231700Z 05007KT 9999 FEW040 SCT140 29/21 A2989=
201110231800 METAR MRLM 231800Z 05006KT 9999 FEW025 SCT040 29/21 A2986=
201110231900 METAR MRLM 231900Z 05005KT 9999 FEW025 SCT040 28/21 A2985=
201110232000 METAR MRLM 232000Z 07003KT 9999 SCT035 SCT090 28/21 A2983=
201110232100 METAR MRLM 232100Z 17002KT 9999 SCT030 SCT090 28/22 A2982=
201110232200 METAR MRLM 232200Z 20003KT 9999 SCT030 SCT090 27/22 A2983=
201110232300 METAR MRLM 232300Z 24003KT 9999 SCT025 SCT090 26/23 A2985=
201110240000 METAR MRLM 240000Z 21004KT 9999 SCT025 SCT090 25/23 A2987=
201110240100 METAR MRLM NIL=
201110240200 METAR MRLM NIL=
201110240300 METAR MRLM NIL=
201110240400 METAR MRLM NIL=
201110240500 METAR MRLM NIL=
201110240600 METAR MRLM NIL=
201110240700 METAR MRLM NIL=
201110240800 METAR MRLM NIL=
201110240900 METAR MRLM NIL=
201110241000 METAR MRLM NIL=
201110241100 METAR MRLM NIL=
201110241200 METAR MRLM 241200Z 22007KT 9999 DZ FEW005 BKN025 21/20 A2997=
201110241300 METAR MRLM 241300Z 23006KT 9999 DZ SCT015 SCT025 22/21 A2998=
201110241400 METAR MRLM 241400Z 22005KT 9999 FEW010 BKN025 23/21 A2999 REDZ=
201110241500 METAR MRLM 241500Z 24006KT 9999 FEW015 BKN025 24/21 A3000=
201110241600 METAR MRLM 241600Z 24005KT 9999 FEW015 BKN025 25/22 A2999=
201110241700 METAR MRLM 241700Z 241700Z23005KT 9999 SCT022 SCT030 26/22 A2996=
201110241800 METAR MRLM 241800Z 25004KT 9999 FE015 BKN030 28/22 A2994=
201110241900 METAR MRLM 241900Z 06003KT 9999 FEW025 BKN040 29/21 A2991=
201110242000 METAR MRLM 242000Z 32003KT 9999 FEW025 SCT045 29/21 A2991 SCT080 RN DST S SW DZ SE=
201110242100 METAR MRLM 242100Z 03005KT 9999 SCT045 SCT090 28/20 A2988=
201110242200 METAR MRLM 242200Z 02006KT 9999 SCT040 SCT080 28/20 A2988=
201110242300 METAR MRLM 242300Z 25002KT 9999 SCT020 SCT070 26/23 A2989=
201110250000 METAR MRLM NIL=
201110250100 METAR MRLM NIL=
201110250200 METAR MRLM NIL=
201110250300 METAR MRLM NIL=
201110250400 METAR MRLM NIL=
201110250500 METAR MRLM NIL=
201110250600 METAR MRLM NIL=
201110250700 METAR MRLM NIL=
201110250800 METAR MRLM NIL=
201110250900 METAR MRLM NIL=
201110251000 METAR MRLM NIL=
201110251100 METAR MRLM NIL=
201110251200 METAR MRLM 251200Z 22005KT 9999 FEW045 BKN070 22/20 A2993=
201110251300 METAR MRLM 251300Z 22005KT CAVOK 23/20 A2993=
201110251400 METAR MRLM 251400Z 22004KT CAVOK 26/21 A2995=
201110251500 METAR MRLM 251500Z 21005KT CAVOK 28/21 A2996=
201110251600 METAR MRLM 251600Z 05002KT 9999 FEW040 BKN070 30/22 A2986=
201110251700 METAR MRLM NIL=
201110251800 METAR MRLM 251800Z 10005KT 9999 FEW040 SCT080 30/21 A2991=
201110251900 METAR MRLM 251900Z 09005KT 9999 FEW040 BKN260 29/21 A2988=
201110252000 METAR MRLM 252000Z 08002KT 9999 FEW045 SCT260 29/21 A2984=
201110252100 METAR MRLM 252100Z 04002KT 9999 FEW040 SCT140 29/21 A2983=
201110252200 METAR MRLM 252200Z 06002KT 9999 FEW040 SCT070 29/21 A2984=
201110252300 METAR MRLM 252300Z 05003KT 9999 FEW035 SCT140 28/21 A2985=
201110260000 METAR MRLM 260000Z 9999 DZ FEW020 BKN140 26/22 A2987=
201110260100 METAR MRLM NIL=
201110260200 METAR MRLM NIL=
201110260300 METAR MRLM NIL=
201110260400 METAR MRLM NIL=
201110260500 METAR MRLM NIL=
201110260600 METAR MRLM NIL=
201110260700 METAR MRLM NIL=
201110260800 METAR MRLM NIL=
201110260900 METAR MRLM NIL=
201110261000 METAR MRLM NIL=
201110261100 METAR MRLM NIL=
201110261200 METAR MRLM 261200Z 24006KT 9999 FEW015 SCT080 22/20 A2985=
201110261300 METAR MRLM 261300Z 24005KT 9999 FEW015 SCT080 24/21 A2987=
201110261400 METAR MRLM 261400Z 21004KT 9999 FEW025 SCT080 27/22 A2988=
201110261500 METAR MRLM 261500Z 06002KT 9999 FEW030 SCT090 28/22 A2989=
201110261600 METAR MRLM 261600Z 04004KT 9999 FEW038 SCT110 29/22 A2989=
201110261700 METAR MRLM 261700Z 02005KT 9999 FEW035 SCT140 29/22 A2985=
201110261800 METAR MRLM 261800Z 03007KT 9999 FEW035 BKN090 29/22 A2983=
201110261900 METAR MRLM 261900Z 03006KT 9999 FEW030 SCT070 29/23 A2980=
201110262000 METAR MRLM 262000Z 01006KT9999 FEW025 SCT040 29/23 A2977=
201110262100 METAR MRLM 262100Z 36006KT 9999 SCT030 SCT070 29/23 A2975=
201110262200 METAR MRLM 262200Z 34006KT 9999 SCT030 SCT090 28/23 A2974=
201110262300 METAR MRLM NIL=
201110270000 METAR MRLM 270000Z 26003KT 9999 OVC 26/23 A2977=
201110270100 METAR MRLM NIL=
201110270200 METAR MRLM NIL=
201110270300 METAR MRLM NIL=
201110270400 METAR MRLM NIL=
201110270500 METAR MRLM NIL=
201110270600 METAR MRLM NIL=
201110270700 METAR MRLM NIL=
201110270800 METAR MRLM NIL=
201110270900 METAR MRLM NIL=
201110271000 METAR MRLM NIL=
201110271100 METAR MRLM NIL=
201110271200 METAR MRLM 271200Z 24002KT 9999 BKN010 SCT090 22/21 A2980=
201110271300 METAR MRLM 271300Z 32003KT 9999 DZ SCT010 SCT090 23/22 A2981=
201110271400 METAR MRLM 271400Z 25003KT 9999 SCT020 SCT100 26/23 A2983=
201110271500 METAR MRLM 271500Z 23005KT 9999 FEW025 BKN110 28/23 A2982=
201110271600 METAR MRLM 271600Z 31007KT CAVOK 29/23 A2981=
201110271700 METAR MRLM 271700Z 31005KT CAVOK 30/23 A2978=
201110271800 METAR MRLM 271800Z 01010KT CAVOK 29/24 A2976=
201110271900 METAR MRLM 271900Z 36010KT CAVOK 30/23 A2973=
201110272000 METAR MRLM 272000Z 36012KT CAVOK 30/23 A2971=
201110272100 METAR MRLM 272100Z 34010KT CAVOK 29/23 A2971=
201110272200 METAR MRLM 272200Z 32007KT 9999 FEW025 BKN250 28/23 A2972=
201110272300 METAR MRLM 272300Z 30004KT 9999 SCT015 SCT250 27/24 A2974=
201110280000 METAR MRLM 280000Z 29003KT 9999 BKN010 26/24 A2976=
201110280100 METAR MRLM NIL=
201110280200 METAR MRLM NIL=
201110280300 METAR MRLM NIL=
201110280400 METAR MRLM NIL=
201110280500 METAR MRLM NIL=
201110280600 METAR MRLM NIL=
201110280700 METAR MRLM NIL=
201110280800 METAR MRLM NIL=
201110280900 METAR MRLM NIL=
201110281000 METAR MRLM NIL=
201110281100 METAR MRLM NIL=
201110281200 METAR MRLM 281200Z 26003KT CAVOK 22/21 A2980=
201110281300 METAR MRLM 281300Z 28003KT CAVOK 26/23 A2982=
201110281400 METAR MRLM 281400Z 3009KT CAVOK 28/22 A2985=
201110281500 METAR MRLM 281500Z 30010KT CAVOK 28/23 A2986=
201110281600 METAR MRLM 281600Z 31011KT 9999 SCT030 SCT250 30/23 A2985=
201110281700 METAR MRLM 281700Z 33011KT 9999 SCT030 SCT250 30/23 A2983=
201110281800 METAR MRLM 281800Z 33010KT 9999 FEW030 SCT120 29/24 A2980=
201110281900 METAR MRLM 281900Z 32012KT 9999 FEW030 SCT120 30/24 A2976=
201110282000 METAR MRLM 282000Z 32010KT 9999 SCT025 29/24 A2976=
201110282100 METAR MRLM 282100Z 34012KT 9999 SCT025 29/24 A2974=
201110282200 METAR MRLM 282200Z 32009KT 9999 SCT020 SCT110 28/24 A2975=
201110282300 METAR MRLM 282300Z 31006KT 9999 BKN015 27/24 A2978=
201110290000 METAR MRLM 290000Z 30006KT 9999 DZ VCSH BKN010 26/24 A2981=
201110290100 METAR MRLM NIL=
201110290200 METAR MRLM NIL=
201110290300 METAR MRLM NIL=
201110290400 METAR MRLM NIL=
201110290500 METAR MRLM NIL=
201110290600 METAR MRLM NIL=
201110290700 METAR MRLM NIL=
201110290800 METAR MRLM NIL=
201110290900 METAR MRLM NIL=
201110291000 METAR MRLM NIL=
201110291100 METAR MRLM NIL=
201110291200 METAR MRLM 291200Z 30004KT 9999 FEW015 SCT140 24/22 A2984=
201110291300 METAR MRLM 291300Z 27004KT 9999 FEW008 BKN015 24/22 A2987=
201110291400 METAR MRLM 291400Z 30007KT 9999 DZ VCSH FEW008 BKN015 24/22 A2989=
201110291500 METAR MRLM 291500Z 30004KT 8000 RA FEW007 BKN015 24/22 A2991 REDZ=
201110291600 METAR MRLM 291600Z 29005KT 7000 RA FEW007 SCT015 23/22 A2991=
201110291700 METAR MRLM 291700Z 28008KT 7000 RA BKN006 23/22 A2990=
201110291800 METAR MRLM NIL=
201110291900 METAR MRLM 291900Z 28007KT 9999 DZ SCT007 BKN100 23/22 A2983 RERA=
201110292000 METAR MRLM 292000Z 27005KT 9999 FEW010 BKN100 24/22 A2978 REDZ=
201110292100 METAR MRLM 292100Z 27005KT9999 FEW010 BKN100 24/22 A2978=
201110292200 METAR MRLM 292200Z 33009KT 9999 +DZ SCT012 BKN130 25/23 A2979=
201110292300 METAR MRLM NIL=
201110300000 METAR MRLM NIL=
201110300100 METAR MRLM NIL=
201110300200 METAR MRLM NIL=
201110300300 METAR MRLM NIL=
201110300400 METAR MRLM NIL=
201110300500 METAR MRLM NIL=
201110300600 METAR MRLM NIL=
201110300700 METAR MRLM NIL=
201110300800 METAR MRLM NIL=
201110300900 METAR MRLM NIL=
201110301000 METAR MRLM NIL=
201110301100 METAR MRLM NIL=
201110301200 METAR MRLM 301200Z 28006KT 9999 FEW015 BKN100 24/21 A2987=
201110301300 METAR MRLM NIL=
201110301400 METAR MRLM 301400Z 30009KT 9999 FEW015 BKN110 26/22 A2990=
201110301500 METAR MRLM 301500Z 28009KT 9999 FEW018 BKN090 26/22 A2992=
201110301600 METAR MRLM 301600Z 2910KT 9999 SCT018 BKN090 26/22 A2991=
201110301700 METAR MRLM 301700Z 28010KT 9999 SCT022 SCT110 27/22 A2989=
201110301800 METAR MRLM 301800Z 30008KT 9999 BKN025 SCT090 28/23 A2986=
201110301900 METAR MRLM NIL=
201110302000 METAR MRLM 302000Z 35015KT 8000 3000NW +DZ VCSH OVC010 25/23 A2983=
201110302100 METAR MRLM 302100Z 30004KT 9999 SCT010 BKN070 24/22 A2981 REDZ=
201110302200 METAR MRLM 302200Z 28005KT 9999 FEW012 SCT070 25/22 A2981=
201110302300 METAR MRLM 302300Z 29004KT 9999 +DZ FEW010 BKN090 24/22 A2983=
201110310000 METAR MRLM 310000Z 25002KT 9999 DZ VCSH FEW010 BKN090 24/22 A2985=
201110310100 METAR MRLM NIL=
201110310200 METAR MRLM NIL=
201110310300 METAR MRLM NIL=
201110310400 METAR MRLM NIL=
201110310500 METAR MRLM NIL=
201110310600 METAR MRLM NIL=
201110310700 METAR MRLM NIL=
201110310800 METAR MRLM NIL=
201110310900 METAR MRLM NIL=
201110311000 METAR MRLM NIL=
201110311100 METAR MRLM NIL=
201110311200 METAR MRLM 311200Z 00000KT 9999 FEW010 BKN090 21/20 A2984=
201110311300 METAR MRLM 311300Z 00000KT 9999 FEW015 SCT100 22/21 A2985=
201110311400 METAR MRLM 311400Z 29005KT 9999 FEW020 SCT110 25/23 A2989=
201110311500 METAR MRLM 311500Z 30006KT 9999 OVC020 26/22 A2989=
201110311600 METAR MRLM 311600Z 31006KT 9999 BKN020 27/22 A2989=
201110311700 METAR MRLM 311700Z 30004KT 9999 BKN030 28/23 A2987=
201110311800 METAR MRLM 311800Z 01009KT 9999 BKN025 SCT120 29/23 A2984=
201110311900 METAR MRLM 311900Z 36010KT 9999 BKN025 SCT110 28/23 A2981=
201110312000 METAR MRLM 312000Z 34009KT 9999 BKN020 27/23 A2980=
201110312030 METAR MRLM 312030Z 31006KT 9999 DZ BKN015 26/23 A2980=
201110312100 METAR MRLM 312100Z 27003KT 9999 DZ VCSH BKN010 25/23 A2980=
201110312200 METAR MRLM 312200Z 22005KT 9999 DZ BKN010 24/23 A2980=
201110312300 METAR MRLM 312300Z 23004KT 9999 DZ BKN010 23/22 A2982=
201111010000 METAR MRLM 010000Z 25005KT 9999 -DZ BKN007 23/22 A2983=
201111010100 METAR MRLM NIL=
201111010200 METAR MRLM NIL=
201111010300 METAR MRLM NIL=
201111010400 METAR MRLM NIL=
201111010500 METAR MRLM NIL=
201111010600 METAR MRLM NIL=
201111010700 METAR MRLM NIL=
201111010800 METAR MRLM NIL=
201111010900 METAR MRLM NIL=
201111011000 METAR MRLM NIL=
201111011100 METAR MRLM NIL=
201111011200 METAR MRLM 011200Z 00000KT 9999 BKN010 SCT090 22/21 A2987=
201111011300 METAR MRLM 011300Z 00000KT 9999 SCT010 BKN090 23/21 A2989=
201111011400 METAR MRLM 011400Z 28003KT 9999 SCT015 BKN100 25/23 A2990=
201111011500 METAR MRLM 011500Z 00000KT FEW020 BKN110 27/23 A2991=
201111011600 METAR MRLM 011600Z 26003KT 9999 FEW020 BKN110 27/22 A2990=
201111011700 METAR MRLM 011700Z 05003KT 9999 -DZ FEW030 BKN110 28/22 A2988=
201111011800 METAR MRLM 011800Z 01006KT CAVOK 29/23 A2985=
201111011900 METAR MRLM 011900Z 36008KT CAVOK 29/22 A2983=
201111012000 METAR MRLM 012000Z 35009KT 9999 FEW030 SCT120 28/23 A2981=
201111012100 METAR MRLM 012100Z 34007KT 9999 SCT025 SCT120 28/23 A2980=
201111012200 METAR MRLM 012200Z 32004KT 9999 BKN020 27/23 A2981=
201111012300 METAR MRLM 012300Z 28002KT 9999 BKN015 26/23 A2983=
201111020000 METAR MRLM 020000Z 24003KT 9999 DZ BKN010 25/23 A2985=
201111020100 METAR MRLM NIL=
201111020200 METAR MRLM NIL=
201111020300 METAR MRLM NIL=
201111020400 METAR MRLM NIL=
201111020500 METAR MRLM NIL=
201111020600 METAR MRLM NIL=
201111020700 METAR MRLM NIL=
201111020800 METAR MRLM NIL=
201111020900 METAR MRLM NIL=
201111021000 METAR MRLM NIL=
201111021100 METAR MRLM NIL=
201111021200 METAR MRLM 021200Z 00000KT 9999 +DZ FEW015 BKN070 22/21 A2992=
201111021300 METAR MRLM NIL=
201111021400 METAR MRLM 021400Z 30003KT 9999 FEW015 BKN100 25/23 A2993=
201111021500 METAR MRLM NIL=
201111021600 METAR MRLM 021600Z 34005KT 9999 FEW028 BKN260 29/23 A2993=
201111021700 METAR MRLM 021700Z 36007KT 9999 FEW025 BKN260 28/23 A2990=
201111021800 METAR MRLM 021800Z 01011KT 9999 FEW025 BKN270 28/24 A2987=
201111021900 METAR MRLM 021900Z 36009KT 9999 FEW025 BKN270 28/24 A2986=
201111022000 METAR MRLM 022000Z 35010KT 9999 FEW028 BKN270 29/24 A2983=
201111022100 METAR MRLM 022100Z 01007KT 9999 BKN025 SCT270 29/24 A2983=
201111022200 METAR MRLM 022200Z 01005KT 9999 SCT025 SCT270 29/23 A2983=
201111022300 METAR MRLM 022300Z 33003KT 9999 SCT018 27/23 A2985=
201111030000 METAR MRLM 030000Z 26003KT 9999 SCT010 25/23 A2987=
201111030100 METAR MRLM NIL=
201111030200 METAR MRLM NIL=
201111030300 METAR MRLM NIL=
201111030400 METAR MRLM NIL=
201111030500 METAR MRLM NIL=
201111030600 METAR MRLM NIL=
201111030700 METAR MRLM NIL=
201111030800 METAR MRLM NIL=
201111030900 METAR MRLM NIL=
201111031000 METAR MRLM NIL=
201111031100 METAR MRLM NIL=
201111031200 METAR MRLM 031200Z 031200Z26004KT 9999 DZ FEW008 BKN090 23/22 A2991=
201111031300 METAR MRLM 031300Z 27005KT 9999 BKN030 25/22 A2992 REDZ=
201111031400 METAR MRLM NIL=
201111031500 METAR MRLM 031500Z 02003KT 9999 FEW020 SCT030 28/23 A2993=
201111031600 METAR MRLM 031600Z 01008KT 9999 FEW020 SCT035 29/ 23 A2993=
201111031700 METAR MRLM 031700Z 35010KT 9999 FEW035 SCT070 29/23 A2991=
201111031800 METAR MRLM 031800Z 36011KT 9999 FEW030 SCT140 30/24 A2988=
201111031900 METAR MRLM 031900Z 01010KT 9999 FEW028 SCT270 29/24 A2985=
201111032000 METAR MRLM 032000Z 35009KT 9999 FEW032 SCT270 29/23 A2984=
201111032100 METAR MRLM 032100Z 31006KT 9999 FEW020 BKN270 28/23 A2984=
201111032200 METAR MRLM 032200Z 31005KT 9999 FEW020 SCT260 27/23 A2984=
201111032300 METAR MRLM 032300Z 30004KT 9999 SCT015 SCT260 26/23 A2986=
201111040000 METAR MRLM 040000Z 29004KT 9999 FEW015 BKN260 26/22 A2987=
201111040100 METAR MRLM NIL=
201111040200 METAR MRLM NIL=
201111040300 METAR MRLM NIL=
201111040400 METAR MRLM NIL=
201111040500 METAR MRLM NIL=
201111040600 METAR MRLM NIL=
201111040700 METAR MRLM NIL=
201111040800 METAR MRLM NIL=
201111040900 METAR MRLM NIL=
201111041000 METAR MRLM NIL=
201111041100 METAR MRLM NIL=
201111041200 METAR MRLM 041200Z 22003KT CAVOK 23/21 A2989=
201111041300 METAR MRLM 041300Z 24004KT CAVOK 25/22 A2989=
201111041400 METAR MRLM 041400Z 30005KT CAVOK 27/22 A2992=
201111041500 METAR MRLM 041500Z 30005KT CAVOK 28/23 A2992=
201111041600 METAR MRLM 041600Z 34006KT 9999 FEW0025 BKN120 29/23 A2992=
201111041700 METAR MRLM 041700Z 01010KT 9999 SCT020 BKN110 27/23 A2992=
201111041800 METAR MRLM 041800Z 05009KT 9999 DZ BKN010 26/23 A2989=
201111041900 METAR MRLM 041900Z 09005KT 9999 SCT015 SCT100 26/22 A2986=
201111042000 METAR MRLM 042000Z 10004KT 9999 SCT020 BKN110 27/22 A2983=
201111042100 METAR MRLM 042100Z 10002KT 9999 SCT020 SCT100 27/21 A2983=
201111042200 METAR MRLM 042200Z 00000KT 9999 SCT020 SCT100 26/23 A2984=
201111042300 METAR MRLM 042300Z 00000KT 9999 FEW015 BKN100 25/23 A2985=
201111050000 METAR MRLM 050000Z 20002KT 9999 SCT010 BKN100 25/23 A2986=
201111050100 METAR MRLM NIL=
201111050200 METAR MRLM NIL=
201111050300 METAR MRLM NIL=
201111050400 METAR MRLM NIL=
201111050500 METAR MRLM NIL=
201111050600 METAR MRLM NIL=
201111050700 METAR MRLM NIL=
201111050800 METAR MRLM NIL=
201111050900 METAR MRLM NIL=
201111051000 METAR MRLM NIL=
201111051100 METAR MRLM NIL=
201111051200 METAR MRLM 051200Z 23004KT CAVOK 22/21 A2988=
201111051300 METAR MRLM 051300Z 25004KT CAVOK 25/22 A2990=
201111051400 METAR MRLM 051400Z 30004KT CAVOK 29/21 A2992=
201111051500 METAR MRLM 051500Z 32007KT CAVOK 29/22 A2992=
201111051600 METAR MRLM 051600Z 35006KT 9999 FEW040 BKN130 30/22 A2991=
201111051700 METAR MRLM 051700Z 36008KT 9999 FEW035 BKN130 29/22 A2989=
201111051800 METAR MRLM 051800Z 36010KT 9999 FEW020 BKN120 28/24 A2986=
201111051900 METAR MRLM 051900Z 36010KT 9999 FEW025 BKN120 29/22 A2984=
201111052000 METAR MRLM 052000Z 36005KT CAVOK 30/21 A2981=
201111052100 METAR MRLM 052100Z 01005KT CAVOK 30/22 A2981=
201111052200 METAR MRLM 052200Z 35007KT CAVOK 29/22 A2981=
201111052300 METAR MRLM 052300Z 31004KT CAVOK 28/22 A2983=
201111060000 METAR MRLM 060000Z 32004KT 9999 FEW020 BKN100 27/23 A2985=
201111060100 METAR MRLM NIL=
201111060200 METAR MRLM NIL=
201111060300 METAR MRLM NIL=
201111060400 METAR MRLM NIL=
201111060500 METAR MRLM NIL=
201111060600 METAR MRLM NIL=
201111060700 METAR MRLM NIL=
201111060800 METAR MRLM NIL=
201111060900 METAR MRLM NIL=
201111061000 METAR MRLM NIL=
201111061100 METAR MRLM NIL=
201111061200 METAR MRLM 061200Z 36010KT 8000 RA BKN015 SCT035 25/22 A2991=
201111061300 METAR MRLM 061300Z 03008KT 7000 +DZ VCSH SCT020 BKN090 24/21 A2992 RERA=
201111061400 METAR MRLM 061400Z 01008KT 8000 DZVCSH BKN012 SCT090 24/22 A2996=
201111061500 METAR MRLM 061500Z 35004KT 9999 FEW012 BKN090 25/23 A2996=
201111061600 METAR MRLM 061600Z 24006KT 9999 FEW015 BKN090 26/23 A2994=
201111061700 METAR MRLM 061700Z 24003KT 9999 SCT035 SCT090 28/22 A2991=
201111061800 METAR MRLM 061800Z 23004KT 9999 SCT030 SCT090 28/23 A2989=
201111061900 METAR MRLM 061900Z 21002KT CAVOK 31/21 A2987=
201111062000 METAR MRLM 062000Z 03007KT 9999 FEW035 BKN070 29/22 A2985=
201111062100 METAR MRLM 062100Z 02005KT 9999 FEW040 SCT070 29/22 A2984=
201111062200 METAR MRLM 062200Z 32006KT 9999 FEW020 SCT070 28/23 A2985=
201111062300 METAR MRLM 062300Z 29003KT 9999 FEW020 SCT080 27/23 A2986=
201111070000 METAR MRLM 070000Z 28002KT 9999 FEW020 SCT080 26/23 A2987=
201111070100 METAR MRLM NIL=
201111070200 METAR MRLM NIL=
201111070300 METAR MRLM NIL=
201111070400 METAR MRLM NIL=
201111070500 METAR MRLM NIL=
201111070600 METAR MRLM NIL=
201111070700 METAR MRLM NIL=
201111070800 METAR MRLM NIL=
201111070900 METAR MRLM NIL=
201111071000 METAR MRLM NIL=
201111071100 METAR MRLM NIL=
201111071200 METAR MRLM 071200Z 23005KT CAVOK 22/20 A2990=
201111071300 METAR MRLM 071300Z 26003KT CAVOK 25/22 A2990=
201111071400 METAR MRLM 071400Z 31009KT CAVOK 28/21 A2993=
201111071500 METAR MRLM 071500Z 32008KT 9999 FEW035 SCT110 29/22 A2994=
201111071600 METAR MRLM 071600Z 32008KT 9999 FEW040 SCT110 31/22 A2993=
201111071700 METAR MRLM 071700Z 36009KT 9999 FEW035 SCT100 31/24 A2991=
201111071800 METAR MRLM 071800Z 01008KT 9999 DZ FEW030 SCT100 30/24 A2989=
201111071900 METAR MRLM 071900Z 36012KT 9999 FEW035 BKN080 29/23 A2986REDZ=
201111072000 METAR MRLM 072000Z 34010KT 9999 FEW035 BKN080 29/22 A2983=
201111072100 METAR MRLM 072100Z 33007KT 9999 FEW030 BKN090 29/22 A2982=
201111072200 METAR MRLM 072200Z 32006KT 9999 FEW030 BKN090 29/23 A2984=
201111072300 METAR MRLM 072300Z 30003KT 9999 FEW020 SCT110 27/23 A2985=
201111080000 METAR MRLM 080000Z 28002KT 9999 FEW032 BKN090 25/23 A2986=
201111080100 METAR MRLM NIL=
201111080200 METAR MRLM NIL=
201111080300 METAR MRLM NIL=
201111080400 METAR MRLM NIL=
201111080500 METAR MRLM NIL=
201111080600 METAR MRLM NIL=
201111080700 METAR MRLM NIL=
201111080800 METAR MRLM NIL=
201111080900 METAR MRLM NIL=
201111081000 METAR MRLM NIL=
201111081100 METAR MRLM NIL=
201111081200 METAR MRLM 081200Z 24004KT 9999 FEW010 BKN090 22/20 A2990=
201111081300 METAR MRLM 081300Z 25004KT 9999 FEW015 BKN100 21/21 A2991=
201111081400 METAR MRLM 081400Z 25003KT CAVOK 26/22 A2993=
201111081500 METAR MRLM 081500Z 29004KT CAVOK 29/21 A2993=
201111081600 METAR MRLM 081600Z 31005KT CAVOK 30/21 A2992=
201111081700 METAR MRLM 081700Z 30006KT CAVOK 30/21 A2991=
201111081800 METAR MRLM 081800Z 33008KT CAVOK 29/21 A2988=
201111081900 METAR MRLM 081900Z 33010KT CAVOK 29/23 A2986=
201111082000 METAR MRLM 082000Z 33010KT 9999 FEW035 BKN110 29/22 A2983=
201111082100 METAR MRLM NIL=
201111082200 METAR MRLM 082200Z 36010KT 9999 FEW030 BKN100 28/21 A2983=
201111082300 METAR MRLM 082300Z 25004KT 9999 DZ FEW020 BKN100 25/23 A2985=
201111090000 METAR MRLM 090000Z 26003KT 9999 DZ FEW010 BKN100 25/22 A2985=
201111090100 METAR MRLM NIL=
201111090200 METAR MRLM NIL=
201111090300 METAR MRLM NIL=
201111090400 METAR MRLM NIL=
201111090500 METAR MRLM NIL=
201111090600 METAR MRLM NIL=
201111090700 METAR MRLM NIL=
201111090800 METAR MRLM NIL=
201111090900 METAR MRLM NIL=
201111091000 METAR MRLM NIL=
201111091100 METAR MRLM NIL=
201111091200 METAR MRLM 091200Z 26003KT CAVOK 23/20 A2987=
201111091300 METAR MRLM 091300Z 00000KT CAVOK 27/21 A2990=
201111091400 METAR MRLM 091400Z 30007KT 9999 FEW040 BKN120 29/21 A2991=
201111091500 METAR MRLM 091500Z 30007KT CAVOK 29/21 A2992=
201111091600 METAR MRLM 091600Z 29010KT CAVOK 30/22 A2989=
201111091700 METAR MRLM 091700Z 33013KT 9999 FEW030 BKN120 29/23 A2987=
201111091800 METAR MRLM 091800Z 33013KT 9999 FEW030 BKN120 29/23 A2986=
201111091900 METAR MRLM 091900Z 33012KT 9999 FEW030 BKN130 29/23 A2984=
201111092000 METAR MRLM 092000Z 33010KT 9999 FEW035 BKN130 30/23 A2982=
201111092100 METAR MRLM 092100Z 33011KT 9999 FEW025 SCT130 29/24 A2981=
201111092200 METAR MRLM 092200Z 33010KT 9999 FEW025 SCT250 28/23 A2982=
201111092300 METAR MRLM 092300Z 31005KT 9999 SCT015 27/24 A2983 RMK FEW110 FEW250 CB DST S SW HZ AROUND=
201111100000 METAR MRLM 100000Z 28004KT 9999 FEW010 BKN110 26/23 A2984=
201111100100 METAR MRLM NIL=
201111100200 METAR MRLM NIL=
201111100300 METAR MRLM NIL=
201111100400 METAR MRLM NIL=
201111100500 METAR MRLM NIL=
201111100600 METAR MRLM NIL=
201111100700 METAR MRLM NIL=
201111100800 METAR MRLM NIL=
201111100900 METAR MRLM NIL=
201111101000 METAR MRLM NIL=
201111101100 METAR MRLM NIL=
201111101200 METAR MRLM 101200Z 26007KT 9999 FE005 BKN020 22/20 A2993=
201111101300 METAR MRLM 101300Z 27006KT 9999 FEW008 BKN020 22/21 A2995=
201111101400 METAR MRLM 101400Z 28008KT 9999 DZ FEW008 BKN015 24/21 A2997=
201111101500 METAR MRLM 1525Z 27005KT 6000 RA FEW010 SCT090 24/22 A2998 SCT100 HZ ARND=
201111101600 METAR MRLM 101600Z 30007KT 8000 DZ VCSH SCT008 SCT015 23/21 A2998=
201111101700 METAR MRLM 101700Z 27008KT 9999 FEW010 SCT025 24/22 A2993 REDZ=
201111101800 METAR MRLM 101800Z 28007KT CAVOK 26/22 A2990=
201111101900 METAR MRLM 101900Z 26007KT CAVOK 27/22 A2988=
201111102000 METAR MRLM 102000Z 27007KT 9999FEW025 BKN080 27/22 A2987=
201111102100 METAR MRLM 102100Z 24005KT 9999 FEW020 SCT100 26/22 A2986=
201111102200 METAR MRLM 102200Z 25005KT CAVOK 26/22 A2985=
201111102300 METAR MRLM 102300Z 23003KT 9999 FEW020 SCT080 25/22 A2987=
201111110000 METAR MRLM 110000Z 22003KT 9999 FEW020 BKN090 25/21 A2988=
201111110100 METAR MRLM NIL=
201111110200 METAR MRLM NIL=
201111110300 METAR MRLM NIL=
201111110400 METAR MRLM NIL=
201111110500 METAR MRLM NIL=
201111110600 METAR MRLM NIL=
201111110700 METAR MRLM NIL=
201111110800 METAR MRLM NIL=
201111110900 METAR MRLM NIL=
201111111000 METAR MRLM NIL=
201111111100 METAR MRLM NIL=
201111111200 METAR MRLM 111200Z 28004KT CAVOK 22/20 A2995=
201111111300 METAR MRLM 111300Z 32005KT CAVOK 24/20 A2996=
201111111400 METAR MRLM 111400Z 30004KT 9999 FEW018 BKN090 25/21 A2998=
201111111500 METAR MRLM 111500Z 30007KT 9999 SCT028 SCT090 27/21 A3000=
201111111600 METAR MRLM 111600Z 29008KT 9999 FEW035 BKN090 28/22 A2999=
201111111700 METAR MRLM 111700Z 26006KT 9999 FEW045 BKN130 30/20 A2997=
201111111800 METAR MRLM 111800Z 31004KT 9999 FEW045 BKN140 30/20 A2995=
201111111900 METAR MRLM 111900Z 25003KT CAVOK 31/18 A2992=
201111112000 METAR MRLM 112000Z 29003KT 9999 FEW040 SCT140 30/21 A2989=
201111112100 METAR MRLM 112100Z 27002KT 9999 FEW035 BKN130 29/22 A2989=
201111112200 METAR MRLM 112200Z 33006KT CAVOK 29/21 A2991=
201111112300 METAR MRLM 112300Z 34015KT 9999 FEW020 BKN110 26/22 A2993=
201111120000 METAR MRLM 120000Z 25005KT 9999 FEW015 BKN100 25/22 A2994=
201111120100 METAR MRLM NIL=
201111120200 METAR MRLM NIL=
201111120300 METAR MRLM NIL=
201111120400 METAR MRLM NIL=
201111120500 METAR MRLM NIL=
201111120600 METAR MRLM NIL=
201111120700 METAR MRLM NIL=
201111120800 METAR MRLM NIL=
201111120900 METAR MRLM NIL=
201111121000 METAR MRLM NIL=
201111121100 METAR MRLM NIL=
201111121200 METAR MRLM 121200Z 28004KT 8000 +DZ VCSH BKN010 22/20 A2996=
201111121300 METAR MRLM 121300Z 27006KT 9999 DZ BKN010 22/20 A2998=
201111121400 METAR MRLM 121400Z 28004KT 9999 DZ BKN010 22/20 A3001=
201111121500 METAR MRLM 121500Z 25006KT 9999 BKN015 SCT100 23/21 A3000=
201111121600 METAR MRLM 121600Z 27004KT 8000 3000N RA BKN015 24/21 A3000=
201111121625 METAR MRLM 121625Z 00000KT 3000 +RA OVC010 23/21 A3001=
201111121700 METAR MRLM 121700Z 26006KT 9999 DZ BKN007 22/21 A3000=
201111121800 METAR MRLM 121800Z 25008KT 9999 -DZ BKN010 SCT090 23/21 A2996=
201111121900 METAR MRLM 121900Z 27007KT 9999 SCT020 SCT100 25/21 A2993=
201111122000 METAR MRLM 122000Z 26006KT 9999 SCT020 SCT100 25/21 A2991=
201111122100 METAR MRLM 122100Z 31003KT 4000 +RA BKN015 25/22 A2992=
201111122200 METAR MRLM 122200Z 24005KT 9999 -DZ BKN010 SCT090 23/22 A2990=
201111122300 METAR MRLM 122300Z 24004KT 9999 BKN010 SCT090 23/21 A2990=
201111130000 METAR MRLM 130000Z 24003KT 9999 BKN007 22/21 A2992=
201111130100 METAR MRLM NIL=
201111130200 METAR MRLM NIL=
201111130300 METAR MRLM NIL=
201111130400 METAR MRLM NIL=
201111130500 METAR MRLM NIL=
201111130600 METAR MRLM NIL=
201111130700 METAR MRLM NIL=
201111130800 METAR MRLM NIL=
201111130900 METAR MRLM NIL=
201111131000 METAR MRLM NIL=
201111131100 METAR MRLM NIL=
201111131200 METAR MRLM 131200Z 29008KT 9999 -DZ BKN010 SCT090 22/21 A2993=
201111131300 METAR MRLM 131300Z 29008KT 9999 SCT010 BKN090 22/21 A2995=
201111131400 METAR MRLM 131400Z 30009KT 9999 SCT015 BKN100 24/21 A2994=
201111131500 METAR MRLM 131500Z 30008KT 9999 FEW015 BKN110 25/22 A2995=
201111131600 METAR MRLM 131600Z 30007KT 9999 FEW020 SCT120 27/22 A2995=
201111131700 METAR MRLM 131700Z 30006KT 9999 FEW025 BKN120 27/22 A2994=
201111131800 METAR MRLM 131800Z 32010KT 9999 SCT030 BKN130 28/22 A2992=
201111131900 METAR MRLM 131900Z 33011KT 9999 SCT025 SCT120 28/22 A2992=
201111132000 METAR MRLM 132000Z 31009KT 9999 BKN020 SCT110 27/22 A2987=
201111132100 METAR MRLM 132100Z 31007KT 9999 -DZ SCT020 BKN110 26/22 A2987=
201111132200 METAR MRLM 132200Z 29004KT 8000 -RA BKN010 SCT100 25/22 A2987=
201111132300 METAR MRLM 132300Z 28005KT 9999 -DZ SCT010 BKN100 24/22 A2987=
201111140000 METAR MRLM 140000Z 27004KT 9999 -DZ SCT010 BKN090 23/22 A2988=
201111140100 METAR MRLM NIL=
201111140200 METAR MRLM NIL=
201111140300 METAR MRLM NIL=
201111140400 METAR MRLM NIL=
201111140500 METAR MRLM NIL=
201111140600 METAR MRLM NIL=
201111140700 METAR MRLM NIL=
201111140800 METAR MRLM NIL=
201111140900 METAR MRLM NIL=
201111141000 METAR MRLM NIL=
201111141100 METAR MRLM NIL=
201111141200 METAR MRLM 141200Z 24005KT 8000 RA SCT025 SCT090 21/20 A2990=
201111141300 METAR MRLM 141300Z 23005KT 8000 RA BKN020 SCT090 21/20 A2992=
201111141400 METAR MRLM 141400Z 24003KT 8000 RA FEW006 SCT025 21/20 A2995=
201111141500 METAR MRLM 141500Z 29003KT 8000 RA FEW006 BKN090 21/20 A2995=
201111141600 METAR MRLM NIL=
201111141700 METAR MRLM 141700Z 27003KT 9999 DZ FEW025 BKN090 23/21 A2993REDZ=
201111141800 METAR MRLM 141800Z 27005KT 9999 DZ SCT020 BKN110 24/22 A2989=
201111141900 METAR MRLM 141900Z 30005KT 9999 DZ BKN020 SCT110 25/22 A2986=
201111142000 METAR MRLM 142000Z 26005KT 9999 FEW020 SCT090 26/22 A2983 REDZ=
201111142100 METAR MRLM 142100Z 28005KT 9999 SCT020 26/22 A2982=
201111142200 METAR MRLM 142200Z 29004KT 9999 FEW010 BKN020 26/22 A2983=
201111142300 METAR MRLM 142300Z 29003KT 9999 BKN020 25/23 A2985=
201111150000 METAR MRLM 150000Z 29003KT 9999 BKN020 25/23 A2987=
201111150100 METAR MRLM NIL=
201111150200 METAR MRLM NIL=
201111150300 METAR MRLM NIL=
201111150400 METAR MRLM NIL=
201111150500 METAR MRLM NIL=
201111150600 METAR MRLM NIL=
201111150700 METAR MRLM NIL=
201111150800 METAR MRLM NIL=
201111150900 METAR MRLM NIL=
201111151000 METAR MRLM NIL=
201111151100 METAR MRLM NIL=
201111151200 METAR MRLM 151200Z 26004KT 9999 SCT020 SCT080 23/21 A2986=
201111151300 METAR MRLM 151300Z 24003KT 9999 FEW025 BKN080 23/21 A2987=
201111151400 METAR MRLM NIL=
201111151500 METAR MRLM 151500Z 30005KT 9999 FEW030 BKN090 28/22 A2990=
201111151600 METAR MRLM NIL=
201111151700 METAR MRLM 151700Z 33008KT 9999 FEW035 SCT090 30/23 A2988=
201111151800 METAR MRLM 151800Z 33009KT 9999 FEW030 BKN080 29/23 A2986=
201111151900 METAR MRLM 151900Z 34007KT 9999 FEW028 SCT120 29/23 A2981=
201111152000 METAR MRLM 152000Z 35009KT 9999 FEW020 BKN080 29/24 2979=
201111152100 METAR MRLM 152100Z 33008KT 9999 FEW025 BKN090 28/24 A2979=
201111152200 METAR MRLM 152200Z 32009KT 9999 SCT020 SCT090 28/24 A2978=
201111152300 METAR MRLM 152300Z 31004KT 9999 SCT015 SCT080 27/24 A2980=
201111160000 METAR MRLM 160000Z 32006KT 9999 SCT013 SCT080 26/24 A2981=
201111160100 METAR MRLM NIL=
201111160200 METAR MRLM NIL=
201111160300 METAR MRLM NIL=
201111160400 METAR MRLM NIL=
201111160500 METAR MRLM NIL=
201111160600 METAR MRLM NIL=
201111160700 METAR MRLM NIL=
201111160800 METAR MRLM NIL=
201111160900 METAR MRLM NIL=
201111161000 METAR MRLM NIL=
201111161100 METAR MRLM NIL=
201111161200 METAR MRLM 161200Z 27005KT 9999 FEW015 BKN100 25/23 A2985=
201111161300 METAR MRLM 161300Z 28005KT 9999 SCT020 BKN100 26/23 A2987=
201111161400 METAR MRLM 161400Z 29005KT 9999 BKN020 SCT100 27/23 A2989=
201111161500 METAR MRLM 161500Z 30006KT 9999 SCT030 SCT110 29/23 A2989=
201111161600 METAR MRLM 161600Z 31007KT 9999 FEW030 BKN120 30/24 A2989=
201111161700 METAR MRLM 161700Z 33009KT 9999 FEW030 BKN130 30/24 A2987=
201111161714 METAR MRLM 161714Z PRUEBA=
201111161720 METAR MRLM 161720Z PRUEBA=
201111161730 METAR MRLM 161730Z PRUEBA=
201111161800 METAR MRLM 161800Z 35012KT 9999 FEW030 SCT130 30/25 A2984=
201111161900 METAR MRLM 161900Z 36011KT CAVOK 30/24 A2981=
201111162000 METAR MRLM 162000Z 35010KT 9999 FEW020TCU SCT130 30/24 A2979=
201111162100 METAR MRLM 162100Z 30004KT 9999 FEW015TCU FEW020 SCT120 30/24 A2979=
201111162200 METAR MRLM 162200Z 31004KT 9999 BKN015 27/24 A2981=
201111162300 METAR MRLM 162300Z 00000KT 9999 SCT015 SCT250 27/24 A2981=
201111170000 METAR MRLM 170000Z 00000KT 9999 SCT010 SCT250 25/23 A2984=
201111170100 METAR MRLM NIL=
201111170200 METAR MRLM NIL=
201111170300 METAR MRLM NIL=
201111170400 METAR MRLM NIL=
201111170500 METAR MRLM NIL=
201111170600 METAR MRLM NIL=
201111170700 METAR MRLM NIL=
201111170800 METAR MRLM NIL=
201111170900 METAR MRLM NIL=
201111171000 METAR MRLM NIL=
201111171100 METAR MRLM NIL=
201111171200 METAR MRLM 171200Z 23005KT 9999 FEW015 BKN100 23/21 A2989=
201111171300 METAR MRLM 171300Z 24004KT CAVOK 25/22 A2990=
201111171400 METAR MRLM 171400Z 29003KT CAVOK 28/23 A2992=
201111171500 METAR MRLM 171500Z 31006KT 9999 FEW035 BKN120 30/23 A2994=
201111171600 METAR MRLM 171600Z 01009KT 9999 SCT030 SCT250 29/24 A2993=
201111171700 METAR MRLM 171700Z 01009KT 9999 SCT025 SCT250 30/25 A2990=
201111171800 METAR MRLM 171800Z 01008KT CAVOK 30/24 A2987=
201111171900 METAR MRLM 171900Z 36009KT CAVOK 30/24 A2985=
201111172000 METAR MRLM 172000Z 35010KT 9999 FEW030 BKN250 30/24 A2982=
201111172100 METAR MRLM 172100Z 01008KT CAVOK 30/24 A2981=
201111172200 METAR MRLM 172200Z 02005KT CAVOK 29/23 A2982=
201111172300 METAR MRLM 172300Z 35004KT CAVOK 28/23 A2985=
201111180000 METAR MRLM 180000Z 00000KT CAVOK 26/23 A2986=
201111180100 METAR MRLM NIL=
201111180200 METAR MRLM NIL=
201111180300 METAR MRLM NIL=
201111180400 METAR MRLM NIL=
201111180500 METAR MRLM NIL=
201111180600 METAR MRLM NIL=
201111180700 METAR MRLM NIL=
201111180800 METAR MRLM NIL=
201111180900 METAR MRLM NIL=
201111181000 METAR MRLM NIL=
201111181100 METAR MRLM NIL=
201111181200 METAR MRLM 181200Z 22003KT CAVOK 22 /21 A2991=
201111181300 METAR MRLM 181300Z 26002KT CAVOK 23/21 A2993=
201111181400 METAR MRLM 181400Z 29007KT 9999 BKN025 27/22 A2995=
201111181500 METAR MRLM 181500Z 31008KT 9999 BKN020 27/22 A2996=
201111181600 METAR MRLM 181600Z 33009KT 9999 +DZ BKN018 26/23 A2995=
201111181700 METAR MRLM 181700Z 32008KT 9999 SCT025 SCT090 27/23 A2993REDZ=
201111181800 METAR MRLM 181800Z 35012KT 9999 BKN025 28/23 A2991=
201111181900 METAR MRLM 181900Z 36008KT 9999 FEW020 SCT03028 28/23 A2988=
201111182000 METAR MRLM 182000Z 02005KT 9999 SCT025 SCT080 28/23 A2986=
201111182100 METAR MRLM 182100Z 25004KT 9999 FEW025 SCT040 30/23 A2984=
201111182200 METAR MRLM 182200Z 34009KT 9999 FEW020 BKN030 28/22 A2986=
201111182300 METAR MRLM 182300Z 27003KT 9999 FEW020 SCT030 26/22 A2987=
201111190000 METAR MRLM 190000Z 26004KT 9999 FEW015 BKN100 25/22 A2988=
201111190100 METAR MRLM NIL=
201111190200 METAR MRLM NIL=
201111190300 METAR MRLM NIL=
201111190400 METAR MRLM NIL=
201111190500 METAR MRLM NIL=
201111190600 METAR MRLM NIL=
201111190700 METAR MRLM NIL=
201111190800 METAR MRLM NIL=
201111190900 METAR MRLM NIL=
201111191000 METAR MRLM NIL=
201111191100 METAR MRLM NIL=
201111191200 METAR MRLM 191200Z 24003KT 9999 BKN025 22/20 A2993=
201111191300 METAR MRLM 191300Z 19002KT 9999 SCT025 SCT080 23/21 A2994=
201111191400 METAR MRLM 191400Z 00000KT 9999 FEW025 BKN090 27/22 A2996=
201111191500 METAR MRLM 191500Z 31006KT 9999 FEW040 BKN090 29/21 A2996=
201111191600 METAR MRLM 191600Z 30007KT 9999 FEW025 BKN090 30/22 A2995=
201111191700 METAR MRLM 191700Z 35008KT 9999 FEW040 BKN100 31/23 A2995=
201111191800 METAR MRLM 191800Z 36009KT 9999 FEW035 SCT080 30/23 A2992=
201111191900 METAR MRLM 191900Z 31008KT 9999 FEW032 SCT090 29/23 A2986=
201111192000 METAR MRLM NIL=
201111192100 METAR MRLM 192100Z 34011KT 9999 FEW015 BKN100 28/23 A2984=
201111192200 METAR MRLM 192200Z 36010KT 9999 FEW020 BKN090 28/24 A2985=
201111192300 METAR MRLM 192300Z 9999 SCT018 SCT090 27/23 A2987=
201111200000 METAR MRLM 200000Z 25003KT 9999 BKN 015TCU 26/23 A2989=
201111200100 METAR MRLM NIL=
201111200200 METAR MRLM NIL=
201111200300 METAR MRLM NIL=
201111200400 METAR MRLM NIL=
201111200500 METAR MRLM NIL=
201111200600 METAR MRLM NIL=
201111200700 METAR MRLM NIL=
201111200800 METAR MRLM NIL=
201111200900 METAR MRLM NIL=
201111201000 METAR MRLM NIL=
201111201100 METAR MRLM NIL=
201111201200 METAR MRLM 201200Z 23004KT CAVOK 22/20 A2992=
201111201300 METAR MRLM 201300Z 22003KT CAVOK 22/21 A2993=
201111201400 METAR MRLM 201400Z 29003KT CAVOK 25/21 A2995=
201111201500 METAR MRLM 201500Z 31004KT CAVOK 27/22 A2996=
201111201600 METAR MRLM 201600Z 32005KT 9999 DZ FEW030 BKN120 28/22 A2996=
201111201700 METAR MRLM 201700Z 32002KT 9999 DZ SCT025 BKN110 27/22 A2996=
201111201800 METAR MRLM 201800Z /////KT 9999 SCT020 BKN110 26/23 A2995=
201111201900 METAR MRLM 201900Z /////KT 9999 SCT020 SCT110 28/25 A2992=
201111202000 METAR MRLM 202000Z 00000KT 9999 FEW020 SCT120 27/24 A2988=
201111202100 METAR MRLM 202100Z 32006KT 9999 FEW025 SCT130 28/23 A2985=
201111202200 METAR MRLM 202200Z 36007KT 9999 FEW025 SCT130 28/23 A2985=
201111202300 METAR MRLM 202300Z 32004KT 9999 FEW020 BKN120 27/23 A2988=
201111210000 METAR MRLM 210000Z 25003KT 9999 SCT010 SCT120 25/23 A2990=
201111210100 METAR MRLM NIL=
201111210200 METAR MRLM NIL=
201111210300 METAR MRLM NIL=
201111210400 METAR MRLM NIL=
201111210500 METAR MRLM NIL=
201111210600 METAR MRLM NIL=
201111210700 METAR MRLM NIL=
201111210800 METAR MRLM NIL=
201111210900 METAR MRLM NIL=
201111211000 METAR MRLM NIL=
201111211100 METAR MRLM NIL=
201111211200 METAR MRLM 211200Z 00000KT 9999 BKN010 SCT090 23/21 A2993=
201111211300 METAR MRLM 211300Z 28005KT 9999 DZ BKN010 24/21 A2995=
201111211400 METAR MRLM 211400Z 24003KT 9999 BKN010 SCT090 24/22 2997=
201111211500 METAR MRLM 211500Z 14003KT 6000 +RA OVC007 24/22 A3000=
201111211600 METAR MRLM 211600Z 23004KT 8000 +DZ VCSH BKN007 23/22 A2999=
201111211625 METAR MRLM 211625Z 00000KT 5000 +RA BKN007 23/22 A2999=
201111211700 METAR MRLM 211700Z 26003KT 9999 DZ BKN010 23/22 A2997=
201111211800 METAR MRLM 211800Z 31003KT 9999 DZ BKN010 SCT090 23/22 A2994=
201111211900 METAR MRLM 211900Z 27004KT 9999 -DZ FEW015 BKN100 24/22 A2991=
201111212000 METAR MRLM 212000Z 30005KT 9999 FEW015 BKN110 24/23 A2988=
201111212100 METAR MRLM 212100Z 30004KT 9999 DZ SCT010 BKN100 24/22 A2988=
201111212200 METAR MRLM 212200Z 30006KT 9999 BKN010 SCT100 24/22 A2987=
201111212300 METAR MRLM 212300Z 28004KT 9999 -DZ BKN010 SCT090 24/22 A2989=
201111220000 METAR MRLM 220000Z 30002KT 9999 DZ BKN007 24/22 A2992=
201111220100 METAR MRLM NIL=
201111220200 METAR MRLM NIL=
201111220300 METAR MRLM NIL=
201111220400 METAR MRLM NIL=
201111220500 METAR MRLM NIL=
201111220600 METAR MRLM NIL=
201111220700 METAR MRLM NIL=
201111220800 METAR MRLM NIL=
201111220900 METAR MRLM NIL=
201111221000 METAR MRLM NIL=
201111221100 METAR MRLM NIL=
201111221200 METAR MRLM 221200Z 21003KT 9999 SCT025 SCT080 22/21 A2994=
201111221300 METAR MRLM NIL=
201111221400 METAR MRLM 221400Z 29002KT 9999 FEW020 BKN080 27/22 A2998=
201111221500 METAR MRLM 221500Z 01006KT 9999 FEW025 BKN140 28/23 A2998=
201111221600 METAR MRLM 221600Z 3610KT 9999 FEW025 BKN140 28/22 A2998=
201111221700 METAR MRLM 221700Z 35012KT 9999 FEW030 BKN140 28/22 A2996=
201111221800 METAR MRLM 221800Z 36010KT 9999 FEW025 SCT090 28/23 A2992=
201111221900 METAR MRLM 221900Z 35013KT 9999 SCT028 SCT090 29/23 A2990=
201111222000 METAR MRLM 22200Z 36013KT 9999 OVC025 28/23 A2989=
201111222100 METAR MRLM 222100Z 33009KT 9999 BKN025 27/22 A2990=
201111222200 METAR MRLM 222200Z 29006KT 9999 BKN018 26/23 A29890=
201111222300 METAR MRLM 222300Z 35005KT 9999 RA BKN018TCU 26/22 A2991=
201111230000 METAR MRLM 230000Z 00000KT 9999 FEW010 SCT080 24/23 A2992 RERA=
201111230100 METAR MRLM NIL=
201111230200 METAR MRLM NIL=
201111230300 METAR MRLM NIL=
201111230400 METAR MRLM NIL=
201111230500 METAR MRLM NIL=
201111230600 METAR MRLM NIL=
201111230700 METAR MRLM NIL=
201111230800 METAR MRLM NIL=
201111230900 METAR MRLM NIL=
201111231000 METAR MRLM NIL=
201111231100 METAR MRLM NIL=
201111231200 METAR MRLM 231200Z 25003KT 9999 FEW025 SCT070 22/21 A2996=
201111231300 METAR MRLM 231300Z 28005KT 9999 FEW020 BKN070 23/21 A2997=
201111231400 METAR MRLM NIL=
201111231500 METAR MRLM 231500Z 27004KT 9999 7000SE DZ VCSH BKN025 SCT090 25/22 A3001=
201111231600 METAR MRLM 231600Z 27006KT 9999 FEW015 SCT030 26/22 A3000 REDZ=
201111231700 METAR MRLM 231700Z 33011KT 9999 SCT025 SCT080 28/23 A2999=
201111231800 METAR MRLM 231800Z 34013KT 9999 OVC020 27/23 A2996=
201111231900 METAR MRLM 231900Z 36014KT 9999 OVC020 27/23 A2994=
201111231915 METAR MRLM 231915Z 02015KT 6000 RA OVC010 25/23 A2993=
201111232000 METAR MRLM 232000Z 36009KT 8000 RA BKN008 25/23 A2992=
201111232100 METAR MRLM 232100Z 34006KT 9999 DZ VCSH BKN015 25/23 A2992 RERA=
201111232200 METAR MRLM 232200Z 29003KT 9999 BKN015 25/22 A2993 REDZ=
201111232300 METAR MRLM 232300Z 26003KT 9999 FEW010 BKN025 25/23 A2993=
201111240000 METAR MRLM 240000Z 25004KT 9999 BKN025 24/22 A2994=
201111240100 METAR MRLM NIL=
201111240200 METAR MRLM NIL=
201111240300 METAR MRLM NIL=
201111240400 METAR MRLM NIL=
201111240500 METAR MRLM NIL=
201111240600 METAR MRLM NIL=
201111240700 METAR MRLM NIL=
201111240800 METAR MRLM NIL=
201111240900 METAR MRLM NIL=
201111241000 METAR MRLM NIL=
201111241100 METAR MRLM NIL=
201111241200 METAR MRLM 241200Z 28006KT 8000 RA BKN007 22/21 A2994=
201111241300 METAR MRLM 241300Z 28007KT 8000 -RA VCSH BKN007 23/21 A2996=
201111241400 METAR MRLM 241400Z 29006KT 9999 DZ VCSH BKN010 23/21 A2999=
201111241500 METAR MRLM 241500Z 28010KT 9999 DZ BKN010 SCT090 23/22 A3000=
201111241600 METAR MRLM 241600Z 28009KT 9999 DZ SCT010 BKN090 23/21 A2999=
201111241700 METAR MRLM 241700Z 30009KT 9999 DZ BKN010 SCT090 23/21 A2999=
201111241800 METAR MRLM 241800Z 28009KT 9999 SCT010 BKN100 23/21 A2996=
201111241900 METAR MRLM 241900Z 28010KT 9999 -DZ FEW015 BKN110 24/21 A2993=
201111242000 METAR MRLM 242000Z 30009KT 9999 FEW015 BKN110 24/21 A2991=
201111242100 METAR MRLM 242100Z 29009KT 9999 -DZ FEW015 SCT120 23/21 A2991=
201111242200 METAR MRLM 242200Z 28009KT 9999 FEW015 SCT120 24/21 A2991=
201111242300 METAR MRLM 242300Z 29006KT 9999 SCT015 BKN110 24/21 A2993=
201111250000 METAR MRLM 250000Z 29007KT 9999 SCT010 BKN110 23/21 A2994=
201111250100 METAR MRLM NIL=
201111250200 METAR MRLM NIL=
201111250300 METAR MRLM NIL=
201111250400 METAR MRLM NIL=
201111250500 METAR MRLM NIL=
201111250600 METAR MRLM NIL=
201111250700 METAR MRLM NIL=
201111250800 METAR MRLM NIL=
201111250900 METAR MRLM NIL=
201111251000 METAR MRLM NIL=
201111251100 METAR MRLM NIL=
201111251200 METAR MRLM 251200Z 29003KT 9999 FEW010 BKN100 23/21 A2992=
201111251300 METAR MRLM 251300Z 28007KT 9999 SCT015 BKN100 24/21 A2993=
201111251400 METAR MRLM 251400Z 28007KT 9999 DZ VCSH BKN010 SCT100 24/21 A2995=
201111251500 METAR MRLM 251500Z 28006KT 9999 SCT015 SCT100 25/22 A2996 RE DZ=
201111251600 METAR MRLM 251600Z 28009KT 9999 FEW020 BKN110 25/22 A2994=
201111251700 METAR MRLM 251700Z 30011KT 9999 -DZ SCT020 SCT110 26/22 A2993=
201111251730 METAR MRLM 251730Z 29012KT 9999 +DZ BKN015 SCT110 25/22 A2992=
201111251800 METAR MRLM 251800Z 27010KT 9999 DZ BKN010 SCT100 23/22 A2990=
201111251900 METAR MRLM 251900Z 29008KT 9999 -DZ BKN010 SCT100 24/22 A2986=
201111252000 METAR MRLM 252000Z 29010KT 9999 SCT015 BKN110 25/22 A2984=
201111252100 METAR MRLM 252100Z 28008KT 9999 FEW015 BKN110 25/22 A2981=
201111252200 METAR MRLM 252200Z 29007KT 9999 FEW020 BKN120 26/22 A2982=
201111252300 METAR MRLM 252300Z 31006KT 9999 -DZ BKN010 SCT100 24/23 A2983=
201111260000 METAR MRLM 260000Z 31006KT 9999 -DZ BKN007 24/22 A2985=
201111260100 METAR MRLM NIL=
201111260200 METAR MRLM NIL=
201111260300 METAR MRLM NIL=
201111260400 METAR MRLM NIL=
201111260500 METAR MRLM NIL=
201111260600 METAR MRLM NIL=
201111260700 METAR MRLM NIL=
201111260800 METAR MRLM NIL=
201111260900 METAR MRLM NIL=
201111261000 METAR MRLM NIL=
201111261100 METAR MRLM NIL=
201111261200 METAR MRLM 261200Z 27004KT 9999 SCT015 SCT025 23/21 A2989=
201111261300 METAR MRLM 261300Z 35004KT 9999 DZ SCT012 SCT025 24/21 A2990=
201111261400 METAR MRLM 261400Z 26007KT 9999 FEW013 BKN025 24/22 A2992 REDZ=
201111261500 METAR MRLM 261500Z 29010KT 9999 DZ VCSH FEW015 SCT030 25/22 A2992=
201111261600 METAR MRLM 261600Z 28008KT 9999 SCT018 SCT030 26/22 A2992=
201111261700 METAR MRLM 261700Z 30006KT 9999 BKN020 27/22 A2990=
201111261800 METAR MRLM 261800Z 30007KT 9999 SCT018 BKN090 26/23 A2987=
201111261900 METAR MRLM 261900Z 29008KT 9999 FEW020 SCT080 26/22 A2984=
201111262000 METAR MRLM 262000Z 29007KT 9999 FEW020 BKN110 27/23 A2982=
201111262100 METAR MRLM 262100Z 31006KT 9999 FEW025 SCT080 27/22 A2980=
201111262200 METAR MRLM 262200Z 29005KT 9999 FEW010 BKN020 27/23 A2980=
201111262300 METAR MRLM 262300Z 29005KT 9999 FEW010 SCT020 26/23 A2991=
201111270000 METAR MRLM 27000Z 29006KT 9999 FEW010 BKN020 25/22 A2983=
201111270100 METAR MRLM NIL=
201111270200 METAR MRLM NIL=
201111270300 METAR MRLM NIL=
201111270400 METAR MRLM NIL=
201111270500 METAR MRLM NIL=
201111270600 METAR MRLM NIL=
201111270700 METAR MRLM NIL=
201111270800 METAR MRLM NIL=
201111270900 METAR MRLM NIL=
201111271000 METAR MRLM NIL=
201111271100 METAR MRLM NIL=
201111271200 METAR MRLM 271200Z 29005KT 9999 FEW012 SCT025 24/22 A2983=
201111271300 METAR MRLM 271300Z 31005KT 9999 DZ VCSH SCT025 SCT090 24/22 A2985=
201111271400 METAR MRLM 271400Z 28004KT 9999 VCSH SCT025 SCT080 25/22 A2988 REDZ VISIBY 8KM NE E FEW100=
201111271500 METAR MRLM 271500Z 30008KT 9999 FEW015 BKN025 26/22 A2987=
201111271600 METAR MRLM 271600Z 28008KT 9999 DZ VCSH FEW010 BKN020 27/23 A2989=
201111271700 METAR MRLM NIL=
201111271735 METAR MRLM 271735Z 30005KT 9999 SCT035 SCT080 30/23 A2983=
201111271800 METAR MRLM NIL=
201111271900 METAR MRLM 271900Z 35010KT 9999 SCT010TCU SCT090 30/23 A2980=
201111272000 METAR MRLM 272000Z 34011KT 9999 FEW040 BKN080 30/23 A2977=
201111272100 METAR MRLM 272100Z 34011KT 9999 FEW035 SCT090 30/22 A2976=
201111272200 METAR MRLM 27220Z 34011KT 9999 FEW035 SCT090 30/22 A2976=
201111272300 METAR MRLM 272300Z 32008KT 9999 BKN020 27/23 A2979=
201111280000 METAR MRLM 280000Z 30006KT 9999 FEW018 BKN025 26/23 A2981=
201111280100 METAR MRLM NIL=
201111280200 METAR MRLM NIL=
201111280300 METAR MRLM NIL=
201111280400 METAR MRLM NIL=
201111280500 METAR MRLM NIL=
201111280600 METAR MRLM NIL=
201111280700 METAR MRLM NIL=
201111280800 METAR MRLM NIL=
201111280900 METAR MRLM NIL=
201111281000 METAR MRLM NIL=
201111281100 METAR MRLM NIL=
201111281200 METAR MRLM 281200Z 28003KT 9999 DZ SCT010 BKN100 24/22 A2986=
201111281300 METAR MRLM 281300Z 25004KT 9999 FEW020 BKN110 26/23 A2988 RE DZ=
201111281400 METAR MRLM 281400Z 29005KT 9999 FEW020 SCT110 27/23 A2990=
201111281500 METAR MRLM 281500Z 27007KT 9999 FEW030 SCT120 28/22 A2991=
201111281600 METAR MRLM 281600Z 31008KT 9999 SCT035 SCT120 29/22 A2991=
201111281700 METAR MRLM 281700Z 01016KT 9999 RA BKN010 25/23 A2990=
201111281800 METAR MRLM 281800Z 27004KT 9999 +DZ VCSH BKN007 24/22 A2989 RE RA=
201111281900 METAR MRLM 281900Z 29005KT 9999 DZ BKN010 SCT100 25/23 A2987=
201111282000 METAR MRLM 282000Z 28008KT 9999 -DZ SCT015 SCT100 25/22 A2985=
201111282100 METAR MRLM 282100Z 28008KT 9999 SCT020 BKN100 26/22 A2984=
201111282200 METAR MRLM 282200Z 28009KT 9999 RA VCSH BKN010 SCT090 24/22 A2985=
201111282225 METAR MRLM 282225Z 23004KT 5000 +RA BKN010 23/21 A2987=
201111282300 METAR MRLM 282300Z 20004KT 4000 +RA OVC007 22/21 A2988=
201111290000 METAR MRLM 290000Z 25004KT 9999 DZ BKN007 22/21 A2988 RE RA=
201111290100 METAR MRLM NIL=
201111290200 METAR MRLM NIL=
201111290300 METAR MRLM NIL=
201111290400 METAR MRLM NIL=
201111290500 METAR MRLM NIL=
201111290600 METAR MRLM NIL=
201111290700 METAR MRLM NIL=
201111290800 METAR MRLM NIL=
201111290900 METAR MRLM NIL=
201111291000 METAR MRLM NIL=
201111291100 METAR MRLM NIL=
201111291200 METAR MRLM 291200Z 26007KT 7000 RA OVC007 19/18 A2995=
201111291300 METAR MRLM 291300Z 27009KT 6000 RA BKN007 20/18 A2996=
201111291400 METAR MRLM 291400Z 27009KT 8000 DZ VCSH BKN007 21/20 A2999=
201111291500 METAR MRLM 291500Z 28013KT 5000 SHRA OVC007 21/20 A3000=
201111291600 METAR MRLM 291600Z 27008KT 9999 -RA BKN008 22/20 A3000=
201111291700 METAR MRLM 291700Z 27008KT 9999 -DZ BKN010 22/20 A2999=
201111291800 METAR MRLM 291800Z 27009KT 9999 -DZ BKN010 23/20 A2996=
201111291900 METAR MRLM 291900Z 27007KT 9999 -DZ BKN010 23/20 A2994=
201111292000 METAR MRLM 292000Z 29007KT 8000 RA FEW007 BKN010 23/21 A2992=
201111292100 METAR MRLM 292100Z 27009KT 9999 -DZ BKN015 23/20 A2991 RE RA=
201111292200 METAR MRLM 292200Z 27006KT 9999 SCT010 BKN015 23/20 A2991=
201111292300 METAR MRLM 292300Z 28004KT 9999 BKN010 23/20 A2992=
201111300000 METAR MRLM 300000Z 27006KT 9999 BKN015 23/20 A2993=
201111300100 METAR MRLM NIL=
201111300200 METAR MRLM NIL=
201111300300 METAR MRLM NIL=
201111300400 METAR MRLM NIL=
201111300500 METAR MRLM NIL=
201111300600 METAR MRLM NIL=
201111300700 METAR MRLM NIL=
201111300800 METAR MRLM NIL=
201111300900 METAR MRLM NIL=
201111301000 METAR MRLM NIL=
201111301100 METAR MRLM NIL=
201111301200 METAR MRLM 301200Z 26007KT 8000 DZ VCSH BKN020 21/19 A2997=
201111301300 METAR MRLM 301300Z 27008KT 8000 DZ VCSH BKN020 21/19 A2998=
201111301400 METAR MRLM 301400Z 28008KT 4000 RA OVC015 22/20 A3001=
201111301500 METAR MRLM 301500Z 27009KT 8000 DZ VCSH BKN015 22/20 A3001 RERA=
201111301600 METAR MRLM NIL=
201111301700 METAR MRLM 301700Z 27010KT 9999 +DZ VCSH BKN0015 22/20 A2999=
201111301800 METAR MRLM 301800Z 27010KT 9999 DZ VCSH BKN012 22/20 A2996=
201111301900 METAR MRLM 301900Z 28010KT 9999 DZ VCSH BKN020 24/20 A2993=
201111302000 METAR MRLM 302000Z 27009KT 9999 BKN025 25/20 A2992 REDZ=
201111302100 METAR MRLM 302100Z 27009KT 9999 BKN025 25/20 A2990=
201111302200 METAR MRLM NIL=
201111302300 METAR MRLM 302300Z 28005KT 9999 BKN020 24//20 A2991=
201112010000 METAR MRLM 010000Z 30005KT 9999 BKN020 24/20 A2992=
201112010100 METAR MRLM NIL=
201112010200 METAR MRLM NIL=
201112010300 METAR MRLM NIL=
201112010400 METAR MRLM NIL=
201112010500 METAR MRLM NIL=
201112010600 METAR MRLM NIL=
201112010700 METAR MRLM NIL=
201112010800 METAR MRLM NIL=
201112010900 METAR MRLM NIL=
201112011000 METAR MRLM NIL=
201112011100 METAR MRLM NIL=
201112011200 METAR MRLM 011200Z 27011KT 5000 /DZVCSH BKN010 21/19 A2997=
201112011300 METAR MRLM 011300Z 27011KT 5000 /DZVCSH BKN015 21/19 A2999=
201112011315 METAR MRLM 011315Z 27010KT 5000 RA BKN015 21/19 A3000=
201112011400 METAR MRLM 011400Z 26010KT 6000 /DZVCSH FEW005 BKN015 21/19 A3001 RERA=
201112011500 METAR MRLM 011500Z 28010KT 9999 DZVCSH SCT012 SCT025 21/19 3002=
201112011520 METAR MRLM 011520Z 27009KT 4000 RA SCT010 BKN020 21/19 A3002=
201112011600 METAR MRLM 011600Z 28010KT 6000 /DZVCSH SCT010 SCT015 21/19 A3002 RERA=
201112011700 METAR MRLM 011700Z 28008KT 9999 +DZ VCSH FEW008 BKN020 21/20 A3001=
201112011800 METAR MRLM 011800Z 27009KT 9999 DZ VCSH OVC015 23/20 A2998=
201112011900 METAR MRLM 011900Z 28008KT 9999 DZ VCSH FEW005 OVC012 22/20 A2996=
201112012000 METAR MRLM NIL=
201112012100 METAR MRLM 012100Z 28008KT 5000 +DZ VCSH FEW008 OVC015 21/20 A2994=
201112012200 METAR MRLM 012200Z 27007KT 4000 +DZ VCSH FEW008 OVC015 21/20 A2994=
201112012300 METAR MRLM 012300Z 26006KT 7000 DZ VCSH OVC010 21/20 A2995=
201112020000 METAR MRLM 020000Z 30006KT 5000 +DZ VCSH 5000 OVC010 21/20=
201112020100 METAR MRLM NIL=
201112020200 METAR MRLM NIL=
201112020300 METAR MRLM NIL=
201112020400 METAR MRLM NIL=
201112020500 METAR MRLM NIL=
201112020600 METAR MRLM NIL=
201112020700 METAR MRLM NIL=
201112020800 METAR MRLM NIL=
201112020900 METAR MRLM NIL=
201112021000 METAR MRLM NIL=
201112021100 METAR MRLM NIL=
201112021200 METAR MRLM 021200Z 25007KT 9999 SCT010 BKN090 20/19 A3000=
201112021300 METAR MRLM 021300Z 25005KT 9999 SCT010 BKN090 21/19 A3000=
201112021400 METAR MRLM 021400Z 27004KT 9999 SCT015 SCT090 22/19 A3002=
201112021500 METAR MRLM 021500Z 26004KT 9999 SCT020 BKN100 23/19 A3002=
201112021600 METAR MRLM 021600Z 00000KT 9999 DZ SCT020 BKN100 24/20 A3003=
201112021620 METAR MRLM 021620Z 31002KT 6000 +DZ VCSH BKN015 24/20 A3004=
201112021700 METAR MRLM 021700Z 27007KT 6000 +DZ VCSH BKN010 SCT080 22/20 A3002=
201112021800 METAR MRLM 021800Z 29005KT 9999 DZ VCSH BKN010 SCT080 23/21 A2999=
201112021900 METAR MRLM 021900Z 26004KT 9999 DZ FEW007 BKN010 22/21 A2997=
201112022000 METAR MRLM NIL=
201112022100 METAR MRLM 022100Z 27005KT 9999 BKN020 SCT100 25/21 A2993=
201112022115 METAR MRLM 022115Z 29005KT 8000 RA BKN010 24/21 A2993=
201112022200 METAR MRLM 022200Z 27007KT 9999 BKN010 SCT090 23/21 A2993 RE RA=
201112022300 METAR MRLM 022300Z 27007KT 9999 RA FEW007 BKN010 22/20 A2995=
201112030000 METAR MRLM 030000Z 28007KT 8000 RA BKN010 21/20 A2996=
201112030100 METAR MRLM NIL=
201112030200 METAR MRLM NIL=
201112030300 METAR MRLM NIL=
201112030400 METAR MRLM NIL=
201112030500 METAR MRLM NIL=
201112030600 METAR MRLM NIL=
201112030700 METAR MRLM NIL=
201112030800 METAR MRLM NIL=
201112030900 METAR MRLM NIL=
201112031000 METAR MRLM NIL=
201112031100 METAR MRLM NIL=
201112031200 METAR MRLM 031200Z 25003KT CAVOK 21/19 A2998=
201112031300 METAR MRLM 031300Z 25003KT CAVOK 22/19 A2999=
201112031400 METAR MRLM 031400Z 30007KT 9999 FEW020 BKN100 23/19 A3001=
201112031500 METAR MRLM 031500Z 29010KT CAVOK 25/19 A3000=
201112031600 METAR MRLM 031600Z 30010KT CAVOK 26/20 A2999=
201112031700 METAR MRLM 031700Z 31010KT CAVOK 27/21 A2996=
201112031800 METAR MRLM 031800Z 31011KT 9999 FEW030 SCT130 27/21 A2993=
201112031900 METAR MRLM 031900Z 33014KT 9999 FEW030 27/21 A2991=
201112032000 METAR MRLM 032000Z 32013KT 9999 FEW030 SCT120 27/21 A2988=
201112032100 METAR MRLM 032100Z 31009KT 9999 SCT025 SCT120 26/22 A2987=
201112032200 METAR MRLM 032200Z 32011KT 9999 SCT020 SCT110 25/22 A2988=
201112032300 METAR MRLM 032300Z 31008KT 9999 -DZ SCT015 BKN100 24/21 A2989=
201112040000 METAR MRLM 040000Z 28007KT 9999 FEW010 BKN100 23/21 A2990=
201112040100 METAR MRLM NIL=
201112040200 METAR MRLM NIL=
201112040300 METAR MRLM NIL=
201112040400 METAR MRLM NIL=
201112040500 METAR MRLM NIL=
201112040600 METAR MRLM NIL=
201112040700 METAR MRLM NIL=
201112040800 METAR MRLM NIL=
201112040900 METAR MRLM NIL=
201112041000 METAR MRLM NIL=
201112041100 METAR MRLM NIL=
201112041200 METAR MRLM 041200Z 00000KT CAVOK 23/21 A2990=
201112041300 METAR MRLM 041300Z 25003KT CAVOK 24/20 A2991=
201112041400 METAR MRLM 041400Z 32003KT CAVOK 27/20 A2992=
201112041500 METAR MRLM NIL=
201112041600 METAR MRLM NIL=
201112041700 METAR MRLM NIL=
201112041800 METAR MRLM 041800Z 36010KT 9999 FEW032 SCT080 29/23 A2986=
201112041900 METAR MRLM 041900Z 01011KT 9999 FEW025 BKN080 28/23 A2984=
201112042000 METAR MRLM NIL=
201112042100 METAR MRLM 042100Z 01008KT 9999 FEW020 BKN080 27/23 A2981=
201112042200 METAR MRLM 042200Z 35006KT 9999 FEW030 SCT090 28/22 A2981=
201112042300 METAR MRLM 042300Z 31003KT 9999 FEW025 BKN080 27/22 A2982=
201112050000 METAR MRLM 050000Z 30002KT CAVOK 25/23 A2983=
201112050100 METAR MRLM NIL=
201112050200 METAR MRLM NIL=
201112050300 METAR MRLM NIL=
201112050400 METAR MRLM NIL=
201112050500 METAR MRLM NIL=
201112050600 METAR MRLM NIL=
201112050700 METAR MRLM NIL=
201112050800 METAR MRLM NIL=
201112050900 METAR MRLM NIL=
201112051000 METAR MRLM NIL=
201112051100 METAR MRLM NIL=
201112051200 METAR MRLM 051200Z 32002KT 9999 DZ BKN015 23/21 A2988=
201112051300 METAR MRLM 051300Z 29002KT 9999 DZ VCSH BKN025 23/21 A2989 RERA=
201112051400 METAR MRLM 051400Z 25005KT 9999 SCT020 SCT080 23/22 A2991 REDZ=
201112051500 METAR MRLM 051500Z 25004KT 9999 FEW015 SCT030 25/22 A2992=
201112051600 METAR MRLM 051600Z 25005KT 9999 FEW015 SCT030 27/22 A2991=
201112051700 METAR MRLM 051700Z 05004KT 9999 BKN035TCU 27/22 A2988=
201112051800 METAR MRLM 051800Z 05004KT 9999 BKN030TCU 28/22 A2986=
201112051900 METAR MRLM NIL=
201112052000 METAR MRLM 052000Z 04006KT 9999 FEW025 SCT040 26/21 A2983=
201112052100 METAR MRLM 052100Z 19002KT 9999 FEW025 SCT035 27/21 A2982=
201112052200 METAR MRLM NIL=
201112052300 METAR MRLM 052300Z 19002KT CAVOK 26/22 A2983=
201112060000 METAR MRLM 060000Z 20003KT CAVOK 24/22 A2985=
201112060100 METAR MRLM NIL=
201112060200 METAR MRLM NIL=
201112060300 METAR MRLM NIL=
201112060400 METAR MRLM NIL=
201112060500 METAR MRLM NIL=
201112060600 METAR MRLM NIL=
201112060700 METAR MRLM NIL=
201112060800 METAR MRLM NIL=
201112060900 METAR MRLM NIL=
201112061000 METAR MRLM NIL=
201112061100 METAR MRLM NIL=
201112061200 METAR MRLM 061200Z 00000KT CAVOK 22/20 A2989=
201112061300 METAR MRLM 061300Z 24002KT CAVOK 22/20 A2991=
201112061400 METAR MRLM 061400Z 29005KT CAVOK 25/20 A2994=
201112061500 METAR MRLM 061500Z 30004KT CAVOK 26/20 A2994=
201112061600 METAR MRLM 061600Z 31005KT CAVOK 28/21 A2993=
201112061700 METAR MRLM 061700Z 35009KT CAVOK 28/22 A2991=
201112061800 METAR MRLM 061800Z 36010KT 9999 FEW030 BKN130 29/22 A2988=
201112061900 METAR MRLM 061900Z MRLM 26010 9999 FEW030 BKN120 28/22 A2986=
201112062000 METAR MRLM 062000Z 36008KT 9999 FEW030 BKN120 28/23 A2984=
201112062100 METAR MRLM 062100Z 35008KT CAVOK 28/23 A2983=
201112062200 METAR MRLM 062200Z 36011KT 9999 SCT020 SCT110 27/23 A2984=
201112062300 METAR MRLM 062300Z 01009KT 9999 SCT020 BKN110 26/22 A2985=
201112070000 METAR MRLM 070000Z 24003KT 9999 FEW020 BKN100 26/22 A2986=
201112070100 METAR MRLM NIL=
201112070200 METAR MRLM NIL=
201112070300 METAR MRLM NIL=
201112070400 METAR MRLM NIL=
201112070500 METAR MRLM NIL=
201112070600 METAR MRLM NIL=
201112070700 METAR MRLM NIL=
201112070800 METAR MRLM NIL=
201112070900 METAR MRLM NIL=
201112071000 METAR MRLM NIL=
201112071100 METAR MRLM NIL=
201112071200 METAR MRLM 071200Z 24004KT CAVOK 21/19 A2992=
201112071300 METAR MRLM 071300Z 28003KT CAVOK 23/20 A2994=
201112071400 METAR MRLM 071400Z 29003KT 9999 FEW020 BKN100 24/20 A2997=
201112071500 METAR MRLM 071500Z 32007KT 9999 SCT035 BKN110 27/20 A2998=
201112071600 METAR MRLM 071600Z 32012KT 9999 FEW025 BKN100 26/21 A2998=
201112071700 METAR MRLM 071700Z 31009KT 9999 -DZ SCT020 SCT100 25/21 A2997=
201112071800 METAR MRLM 071800Z 30008KT 9999 SCT030 BKN100 26/20 A2994=
201112071900 METAR MRLM 071900Z 28006KT 9999 BKN030 SCT110 26/20 A2992=
201112072000 METAR MRLM 072000Z 29006KT 9999 SCT025 SCT110 26/21 A2990=
201112072100 METAR MRLM 072100Z 27005KT 9999 SCT020 BKN100 24/21 A2989=
201112072200 METAR MRLM 072200Z 28006KT 9999 FEW020 BKN100 24/20 A2988=
201112072300 METAR MRLM 072300Z 29005KT 9999 FEW020 BKN100 24/20 A2989=
201112080000 METAR MRLM 080000Z 29006KT 9999 SCT015 BKN090 23/21 A2990=
201112080100 METAR MRLM NIL=
201112080200 METAR MRLM NIL=
201112080300 METAR MRLM NIL=
201112080400 METAR MRLM NIL=
201112080500 METAR MRLM NIL=
201112080600 METAR MRLM NIL=
201112080700 METAR MRLM NIL=
201112080800 METAR MRLM NIL=
201112080900 METAR MRLM NIL=
201112081000 METAR MRLM NIL=
201112081100 METAR MRLM NIL=
201112081200 METAR MRLM 081200Z 27004KT 9999 FEW025 BKN120 24/19 A2993=
201112081300 METAR MRLM 081300Z 25002KT 9999 FEW025 SCT080 26/20 A2995=
201112081400 METAR MRLM 081400Z 11012KT 9999 DZ VCSH BKN020 25/21 A2998=
201112081500 METAR MRLM 081500Z 06014KT 8000 DZ VCSH FEW010 BKN025 23/21 A3000=
201112081600 METAR MRLM 081600Z 0611KT 9999 DZ VCSH SCT020 BKN100 23/21 A3000=
201112081700 METAR MRLM 081700Z 29007KT 9999 SCT020 SCT100 24/21 A2997 REDZ=
201112081800 METAR MRLM 081800Z 28005KT 9999 BKN030 26/20 A2994=
201112081900 METAR MRLM 081900Z 26004KT 9999 BKN035 SCT100 27/21 A2991=
201112082000 METAR MRLM 082000Z 29007KT 9999 FEW025 BKN040 27/19 A2987=
201112082100 METAR MRLM 082100Z 31005KT 9999 BKN030 27/21 A2985=
201112082200 METAR MRLM 082200Z 31006KT 9999 BKN020 26/21 A2986=
201112082300 METAR MRLM 082300Z 29008KT 9999 BKN020 25/21 A287=
201112090000 METAR MRLM 090000Z 29005KT 9999 BKN020 24/21 A2989=
201112090100 METAR MRLM NIL=
201112090200 METAR MRLM NIL=
201112090300 METAR MRLM NIL=
201112090400 METAR MRLM NIL=
201112090500 METAR MRLM NIL=
201112090600 METAR MRLM NIL=
201112090700 METAR MRLM NIL=
201112090800 METAR MRLM NIL=
201112090900 METAR MRLM NIL=
201112091000 METAR MRLM NIL=
201112091100 METAR MRLM NIL=
201112091200 METAR MRLM NIL=
201112091300 METAR MRLM 091300Z 28005KT CAVOK 23/20 A2993=
201112091400 METAR MRLM 091400Z 30005KT CAVOK 24/20 A2995=
201112091500 METAR MRLM 091500Z 29005KT CAVOK 26/20 A2996=
201112091600 METAR MRLM 091600Z 31005KT 9999 FEW035 BKN100 27/20 A2996=
201112091700 METAR MRLM 091700Z 30008KT 9999 FEW040 SCT120 29/21 A2994=
201112091800 METAR MRLM 091800Z 30008KT 9999 FEW040 SCT120 29/21 A2994=
201112091900 METAR MRLM 091900Z 33010KT 9999 FEW040 28/21 A2989=
201112092000 METAR MRLM 092000Z 33010KT 9999 FEW035 28/22 A2986=
201112092100 METAR MRLM 092100Z 35014KT 9999 FEW030 28/22 A2985=
201112092200 METAR MRLM 092200Z 334011KT 9999 FEW025 28/22 A2986=
201112092300 METAR MRLM 092300Z 31006KT 9999 FEW020 26/22 A2987=
201112100000 METAR MRLM 100000Z 30004KT 9999 FEW015 25/22 A2989=
201112100100 METAR MRLM NIL=
201112100200 METAR MRLM NIL=
201112100300 METAR MRLM NIL=
201112100400 METAR MRLM NIL=
201112100500 METAR MRLM NIL=
201112100600 METAR MRLM NIL=
201112100700 METAR MRLM NIL=
201112100800 METAR MRLM NIL=
201112100900 METAR MRLM NIL=
201112101000 METAR MRLM NIL=
201112101100 METAR MRLM NIL=
201112101200 METAR MRLM 101200Z 25003KT 9999 FEW015 BKN100 22/19 A2991=
201112101300 METAR MRLM 101300Z 00000KT 9999 SCT020 BKN100 23/19 A2992=
201112101400 METAR MRLM 101400Z 28003KT 9999 FEW020 BKN110 24/20 A2995=
201112101500 METAR MRLM 101500Z 33005KT CAVOK 26/20 A2995=
201112101600 METAR MRLM 101600Z 31007KT CAVOK 26/20 A2994=
201112101700 METAR MRLM 101700Z 30006KT 9999 FEW030 BKN110 27/21 A2992=
201112101800 METAR MRLM 101800Z 33011KT 9999 FEW025 BKN100 27/21 A2990=
201112101900 METAR MRLM 101900Z 34012KT 9999 -DZ FEW020 BKN110 26/22 A2989=
201112102000 METAR MRLM 102000Z 34008KT 9999 FEW015 OVC100 25/22 A2986=
201112102100 METAR MRLM 102100Z 26004KT 9999 -DZ FEW020 BKN100 26/22 A2985=
201112102200 METAR MRLM 102200Z 30003KT CAVOK 26/22 A2984=
201112102300 METAR MRLM 102300Z 29003KT 9999 SCT015 BKN100 25/22 A2986=
201112110000 METAR MRLM 110000Z 29003KT 9999 BKN010 SCT100 25/22 A2986=
201112110100 METAR MRLM NIL=
201112110200 METAR MRLM NIL=
201112110300 METAR MRLM NIL=
201112110400 METAR MRLM NIL=
201112110500 METAR MRLM NIL=
201112110600 METAR MRLM NIL=
201112110700 METAR MRLM NIL=
201112110800 METAR MRLM NIL=
201112110900 METAR MRLM NIL=
201112111000 METAR MRLM NIL=
201112111100 METAR MRLM NIL=
201112111200 METAR MRLM 111200Z 29007KT 9999 SCT015 BKN100 24/21 A2988=
201112111300 METAR MRLM 111300Z 25004KT 9999 FEW020 BKN100 24/21 A2988=
201112111400 METAR MRLM 111400Z 29006KT CAVOK 27/21 A2990=
201112111500 METAR MRLM 111500Z 32010KT 9999 SCT020 BKN120 26/22 A2991=
201112111515 METAR MRLM 111515Z 31011KT 9999 DZ VCSH SCT015 BKN110 25/22 A2992=
201112111600 METAR MRLM 111600Z 29006KT 9999 -DZ SCT010 SCT090 24/23 A2992=
201112111700 METAR MRLM 111700Z 30006KT 9999 DZ VCSH BKN010 SCT090 24/22 A2992=
201112111800 METAR MRLM 111800Z 28005KT 7000 RA BKN007 SCT090 23/22 A2989=
201112111900 METAR MRLM 111900Z 28006KT 9999 DZ VCSH SCT010 SCT100 23/22 A2987 RE RA=
201112112000 METAR MRLM 112000Z 31003KT 8000 DZ VCSH FEW010 SCT015 24/22 A2986=
201112112100 METAR MRLM 112100Z 28004KT 9999 DZ SCT010 BKN090 23/22 A2984=
201112112200 METAR MRLM 112200Z 27004KT 9999 -DZ SCT010 SCT090 23/21 A2983 RMK FEW100 RA DST N NW HZ AROUND=
201112112300 METAR MRLM 112300Z 00000KT 9999 DZ SCT008 SCT090 23/21 A2983=
201112120000 METAR MRLM 120000Z 00000KT 9999 DZ SCT008 BKN080 22/21 A2985=
201112120100 METAR MRLM NIL=
201112120200 METAR MRLM NIL=
201112120300 METAR MRLM NIL=
201112120400 METAR MRLM NIL=
201112120500 METAR MRLM NIL=
201112120600 METAR MRLM NIL=
201112120700 METAR MRLM NIL=
201112120800 METAR MRLM NIL=
201112120900 METAR MRLM NIL=
201112121000 METAR MRLM NIL=
201112121100 METAR MRLM NIL=
201112121200 METAR MRLM NIL=
201112121300 METAR MRLM NIL=
201112121400 METAR MRLM 121400Z 25007KT 9999 DZ VCSH FEW010 BKN020 22/20 A2994=
201112121500 METAR MRLM 121500Z 24004KT 9999 BKN015 24/21 A2995 REDZ=
201112121600 METAR MRLM 121600Z 32008KT 9999 VCSH FEW008 BKN015 2421 A2996=
201112121700 METAR MRLM 121700Z 29005KT 9999 DZ VCSH SCT015 SCT025 24/21 A2994=
201112121800 METAR MRLM 121800Z 30005KT 9999 DZ VCSH SCT010 SCT025 24/22 A2982=
201112121900 METAR MRLM NIL=
201112122000 METAR MRLM 122000Z 32006KT 6000 RA BKN008 23/21 A29/88=
201112122100 METAR MRLM 122100Z 28005KT 5000 +DZ VCSH HZ BKN007 22/21 A2988 RERA=
201112122200 METAR MRLM 122200Z 25005KT 4000 RA HZ BKN006 22/20 A2987 REDZ=
201112122300 METAR MRLM 122300Z 26004KT 3000 RA HZ SCT006 SCT015 21/20 A2989=
201112130000 METAR MRLM 130000Z 24004KT 4000 RA SCT005 SCT015 21/20 A2990=
201112130100 METAR MRLM NIL=
201112130200 METAR MRLM NIL=
201112130300 METAR MRLM NIL=
201112130400 METAR MRLM NIL=
201112130500 METAR MRLM NIL=
201112130600 METAR MRLM NIL=
201112130700 METAR MRLM NIL=
201112130800 METAR MRLM NIL=
201112130900 METAR MRLM NIL=
201112131000 METAR MRLM NIL=
201112131100 METAR MRLM NIL=
201112131200 METAR MRLM 131200Z 22003KT 9999 BKN025 21/20 A2989=
201112131300 METAR MRLM 131300Z 24002KT 9999 BKN015 SCT090 22/20 A2982=
201112131400 METAR MRLM 131400Z 27004KT 9999 DZ VCSH HZ SCT015 SCT090 23/21 A2994=
201112131500 METAR MRLM 131500Z 27004KT 9999 DZ VCSH BKN025 SCT090 23/21 A2994=
201112131600 METAR MRLM NIL=
201112131700 METAR MRLM 131700Z 01003KT 8000 DZ VCSH HZ SCT018 SCT090 24/21 A2994=
201112131800 METAR MRLM 131800Z 29002KT 9999 BKN015 SCT100 25/22 A2990 REDZ=
201112131900 METAR MRLM 131900Z 01008KT 9999 FEW015 BKN090 25/22 A2988=
201112132000 METAR MRLM 132000Z 35007KT 9999 FEW010 SCT030 26/22 A2986=
201112132100 METAR MRLM 132100Z 35012KT 9999 BKN015 25/22 A2986=
201112132135 METAR MRLM 132135Z 36013KT 1000 +RA OVC010 24/22 A2987=
201112132200 METAR MRLM 132200Z 34006KT 7000 RA BKN008 SCT090 23/22 A2986=
201112132300 METAR MRLM 132300Z 28003KT 6000 RA SCT007 SCT015 23/21 2988=
201112140000 METAR MRLM 140000Z 27002KT 6000 +DZ BKN007 SCT015 23/21 A2990 RERA=
201112140100 METAR MRLM NIL=
201112140200 METAR MRLM NIL=
201112140300 METAR MRLM NIL=
201112140400 METAR MRLM NIL=
201112140500 METAR MRLM NIL=
201112140600 METAR MRLM NIL=
201112140700 METAR MRLM NIL=
201112140800 METAR MRLM NIL=
201112140900 METAR MRLM NIL=
201112141000 METAR MRLM NIL=
201112141100 METAR MRLM NIL=
201112141200 METAR MRLM 141200Z 36008KT 8000 DZ VCSH BKN010 22/20 A2992=
201112141300 METAR MRLM 141300Z 20003KT 9999 DZ VCSH BKN010 22/20 A2993=
201112141400 METAR MRLM 141400Z 21004KT 9999 DZ VCSH FEW007 BKN010 21/20 A2996=
201112141420 METAR MRLM 141420Z 18003KT 7000 RA BKN007 21/20 A2997=
201112141500 METAR MRLM 141500Z 19004KT 9999 -DZ BKN010 22/20 A2996 RE RA=
201112141600 METAR MRLM 141600Z 21004KT 9999 -DZ BKN015 SCT090 23/21 A2995=
201112141700 METAR MRLM 141700Z 21005KT 9999 SCT020 SCT100 25/21 A2993=
201112141800 METAR MRLM 141800Z 18005KT 9999 SCT025 BKN110 26/20 A2991=
201112141900 METAR MRLM 141900Z 13007KT 9999 BKN020 25/21 A2989=
201112142000 METAR MRLM 142000Z 14007KT 9999 SCT025 BKN110 26/21 A2986=
201112142100 METAR MRLM 142100Z 15006KT 9999 FEW020 BKN100 26/21 A2985=
201112142200 METAR MRLM 142200Z 19004KT 9999 FEW020 BKN110 26/21 A2985=
201112142300 METAR MRLM 142300Z 00000KT 9999 FEW020 BKN100 25/22 A2985=
201112150000 METAR MRLM 150000Z 00000KT 9999 SCT015 BKN100 24/21 A2987=
201112150100 METAR MRLM NIL=
201112150200 METAR MRLM NIL=
201112150300 METAR MRLM NIL=
201112150400 METAR MRLM NIL=
201112150500 METAR MRLM NIL=
201112150600 METAR MRLM NIL=
201112150700 METAR MRLM NIL=
201112150800 METAR MRLM NIL=
201112150900 METAR MRLM NIL=
201112151000 METAR MRLM NIL=
201112151100 METAR MRLM NIL=
201112151200 METAR MRLM 151200Z 25003KT 9999 BKN010 21/19 A2991=
201112151300 METAR MRLM 151300Z 27004KT 9999 BKN010 21/20 A2992=
201112151400 METAR MRLM 151400Z 26004KT 9999 BKN010 SCT100 22/20 A2994=
201112151500 METAR MRLM 151500Z 25003KT 9999 SCT010 BKN100 22/20 A2995=
201112151600 METAR MRLM 151600Z 22003KT 9999 FEW015 BKN110 24/20 A2995=
201112151700 METAR MRLM 151700Z 12011KT 9999 SCT010 BKN100 23/21 A2994=
201112151800 METAR MRLM 151800Z 14004KT 9999 DZ VCSH SCT010 BKN100 23/21 A2992=
201112151900 METAR MRLM 151900Z 01010KT 8000 +DZ VCSH BKN008 21/20 A2990=
201112152000 METAR MRLM 152000Z 01004KT 8000 DZ VCSH BKN008 21/20 A2988=
201112152100 METAR MRLM 152100Z 36003KT 9999 DZ BKN010 SCT090 22/20 A2987=
201112152200 METAR MRLM 152200Z 24003KT 9999 -DZ SCT010 SCT100 23/21 A2986=
201112152300 METAR MRLM 152300Z 26003KT 9999 SCT010 BKN090 22/20 A2987=
201112160000 METAR MRLM 160000Z 00000KT 9999 DZ BKN007 SCT090 22/20 A2989=
201112160100 METAR MRLM NIL=
201112160200 METAR MRLM NIL=
201112160300 METAR MRLM NIL=
201112160400 METAR MRLM NIL=
201112160500 METAR MRLM NIL=
201112160600 METAR MRLM NIL=
201112160700 METAR MRLM NIL=
201112160800 METAR MRLM NIL=
201112160900 METAR MRLM NIL=
201112161000 METAR MRLM NIL=
201112161100 METAR MRLM NIL=
201112161200 METAR MRLM 161200Z 21002KT 9999 DZ VCSH FEW915 SCT090 21/20 A2995=
201112161300 METAR MRLM 161300Z 21002KT 9999 DZ VCSH FEW015 SCT090 21/20 A2995=
201112161400 METAR MRLM 161400Z 25003KT 9999 FEW015 SCT110 23/20 A2996 REDZ=
201112161500 METAR MRLM 161500Z 36008KT 9999 DZ VCSH FEW010 SCT015 23/21 A2997=
201112161600 METAR MRLM 161600Z 26003KT 9999 BKN015 23/20 A2997 REDZ=
201112161700 METAR MRLM 161700Z 24004KT 9999 DZ SCT015 SCT080 24/21 A2996=
201112161800 METAR MRLM 161800Z 22002KT 9999 +DZ VCSH FEW015 BKN030 24/21 A2994=
201112161900 METAR MRLM 161900Z 00000KT 9999 +DZ VCSH BKN020 24/21 A2993=
201112162000 METAR MRLM NIL=
201112162100 METAR MRLM 162100Z 11003KT 9999 +DZ VCSH BKN015 24/21 A2990=
201112162200 METAR MRLM 162200Z 00000KT 8000 +DZ CVSH FEW012 BKN020 23/21 A2991=
201112162300 METAR MRLM NIL=
201112170000 METAR MRLM 170000Z 17002KT 8000 +DZ VCSH BKN080 SCT100 23/21 A2994=
201112170100 METAR MRLM NIL=
201112170200 METAR MRLM NIL=
201112170300 METAR MRLM NIL=
201112170400 METAR MRLM NIL=
201112170500 METAR MRLM NIL=
201112170600 METAR MRLM NIL=
201112170700 METAR MRLM NIL=
201112170800 METAR MRLM NIL=
201112170900 METAR MRLM NIL=
201112171000 METAR MRLM NIL=
201112171100 METAR MRLM NIL=
201112171200 METAR MRLM NIL=
201112171300 METAR MRLM 171300Z 24004KT 9999 DZ VCSH BKN020 21/19 A2994=
201112171315 METAR MRLM 171315Z 22003KT 2000 RA BKN015 21/19 A2996 REDZ=
201112171400 METAR MRLM 171400Z 24006KT 9999 VCSH BKN020 21/19 A2997 RERA=
201112171415 METAR MRLM 171415Z 24006KT 9999 VCSH BKN020 21/19 RERA VISIBY 8KM W FEW080=
201112171455 METAR MRLM 171455Z 25004KT 5000 RA BKN010 21/20 A2997=
201112171500 METAR MRLM 25004KT 5000 RA BKN010 21/20 A2997=
201112171600 METAR MRLM 171600Z 19002KT 8000 RA SCT008 BKN015 22/20 A2997=
201112171700 METAR MRLM 171700Z 31005KT 5000 RA HZ FEW009 BKN025 22/20 A2997=
201112171757 METAR MRLM 1717800Z 30006KT 6000 RA BKN008 SCT015 22/20 A2994=
201112171800 METAR MRLM 1717800Z 30006KT 6000 RA BKN008 SCT015 22/20 A2994=
201112171900 METAR MRLM 171900Z 27009KT 8000 2000NW RA HZ OVC010 21/20 A2991=
201112171914 METAR MRLM 171914Z 27023KT 3000 +RA OVC010 22/20 A2991=
201112172000 METAR MRLM 172000Z 36027KT 3000 1000SE SCT005 SCT010 21/20 A2990=
201112172100 METAR MRLM 172100Z 36024KT 2000 +RA BKN007 SCT012 20/19 A2989=
201112172200 METAR MRLM 172200Z 33011KT 1000 +RA BKN006 SCT010 20/19 A2991=
201112172300 METAR MRLM 172300Z 28012KT 1000 +RA BKN006 SCT010 19/18 A2993=
201112172355 METAR MRLM 180000Z 24003KT 3000 +RA BKN006 SCT010 17/16 A2998=
201112180000 METAR MRLM 180000Z 24003KT 3000 +RA BKN006 SCT010 17/16 A2998=
201112180100 METAR MRLM NIL=
201112180200 METAR MRLM NIL=
201112180300 METAR MRLM NIL=
201112180400 METAR MRLM NIL=
201112180500 METAR MRLM NIL=
201112180600 METAR MRLM NIL=
201112180700 METAR MRLM NIL=
201112180800 METAR MRLM NIL=
201112180900 METAR MRLM NIL=
201112181000 METAR MRLM NIL=
201112181100 METAR MRLM NIL=
201112181200 METAR MRLM 181200Z 23004KT 9999 -DZ VCSH OVC008 19/17 A2999 RMK VIS 8KM NE E RA QDT S HZ AROUND=
201112181300 METAR MRLM 181300Z 10010KT 8000 RA BKN008 19/18 A3002=
201112181400 METAR MRLM 181400Z 21005KT 9999 -DZ SCT010 SCT090 19/17 A3004 RE RA=
201112181500 METAR MRLM 181500Z 22006KT 9999 SCT010 BKN100 20/18 A3003=
201112181600 METAR MRLM 181600Z 22006KT 9999 FEW020 BKN110 22/18 A3002=
201112181700 METAR MRLM 181700Z 21005KT CAVOK 24/18 A3000=
201112181800 METAR MRLM 181800Z 09003KT CAVOK 26/18 A2998=
201112181900 METAR MRLM 181900Z 04005KT CAVOK 26/20 A2995=
201112182000 METAR MRLM 182000Z 02004KT 9999 FEW025 SCT130 27/21 A2992=
201112182100 METAR MRLM 182100Z 02005KT CAVOK 28/20 A2990=
201112182200 METAR MRLM 182200Z 36006KT 9999 SCT030 BKN120 27/20 A2990=
201112182300 METAR MRLM 182300Z 35005KT 9999 SCT030 SCT110 27/20 A2992=
201112190000 METAR MRLM 190000Z 00000KT 9999 SCT015 SCT100 24/21 A2994=
201112190100 METAR MRLM NIL=
201112190200 METAR MRLM NIL=
201112190300 METAR MRLM NIL=
201112190400 METAR MRLM NIL=
201112190500 METAR MRLM NIL=
201112190600 METAR MRLM NIL=
201112190700 METAR MRLM NIL=
201112190800 METAR MRLM NIL=
201112190900 METAR MRLM NIL=
201112191000 METAR MRLM NIL=
201112191100 METAR MRLM NIL=
201112191200 METAR MRLM 191200Z 25005KT 9999 SCT015 SCT100 22/19 A2996=
201112191300 METAR MRLM 191300Z 25006KT 9999 SCT020 BKN100 22/19 A2996=
201112191400 METAR MRLM 191400Z 26003KT 9999 SCT020 BKN100 24/20 A2999=
201112191500 METAR MRLM 191500Z 24004KT 9999 FEW020 BKN110 24/20 A3000=
201112191600 METAR MRLM 191600Z 08011KT 8000 RA BKN010 23/21 A3002=
201112191700 METAR MRLM 191700Z 06016KT RA BKN007 20/19 A3003=
201112191800 METAR MRLM 191800Z 09010KT 9999 DZ VCSH BKN015 21/17 A3000 RE RA=
201112191900 METAR MRLM 191900Z 22004KT 8000 4000N RA HZ SCT010 BKN020 20/18 A2998=
201112192000 METAR MRLM 192000Z 22005KT 8000 DZ VCSH OVC015 20/18 A2995=
201112192100 METAR MRLM 192100Z 21003KT 9999 SCT015 SCT100 19/17 A2992 RE DZ=
201112192200 METAR MRLM 192200Z 23006KT 9999 FEW015 BKN100 20/17 A2989=
201112192300 METAR MRLM 192300Z 21005KT 9999 FEW015 BKN110 20/18 A2990=
201112200000 METAR MRLM 200000Z 22003KT 9999 FEW010 BKN110 19/17 A2990=
201112200100 METAR MRLM NIL=
201112200200 METAR MRLM NIL=
201112200300 METAR MRLM NIL=
201112200400 METAR MRLM NIL=
201112200500 METAR MRLM NIL=
201112200600 METAR MRLM NIL=
201112200700 METAR MRLM NIL=
201112200800 METAR MRLM NIL=
201112200900 METAR MRLM NIL=
201112201000 METAR MRLM NIL=
201112201100 METAR MRLM NIL=
201112201200 METAR MRLM 201200Z 27005KT 9999 FEW015 SCT090 19/17 A2993=
201112201300 METAR MRLM 201300Z 26003KT 9999 SCT015 SCT090 20/17 A2994=
201112201400 METAR MRLM 201400Z 32005KT 9999 DZ VCSH SCT015 SCT090 21/18 A2998=
201112201500 METAR MRLM 201500Z 29007KT 9999 BKN015 21/18 A2998 REDZ=
201112201600 METAR MRLM NIL=
201112201700 METAR MRLM 201700Z 26002KT 9999 BKN028 25/19 A2993 REDZ=
201112201800 METAR MRLM 201800Z 04007KT 9999 DZ OVC020 24/20 A2989=
201112201900 METAR MRLM 201900Z 04005KT 9999 FEW028 25/20 A2983 REDZ=
201112201958 METAR MRLM 20200Z 04005KT 9999 FEW028 26/20 A2982=
201112202000 METAR MRLM 20200Z 04005KT 9999 FEW028 26/20 A2982=
201112202100 METAR MRLM 202100Z 04009KT 9999 FEW025 26/21 A2981=
201112202200 METAR MRLM 202200Z 03010KT 9999 FEW028 BKN090 26/21 A2981=
201112202300 METAR MRLM 202300Z 04011KT 9999 FEW018 BKN035 25/22 A2983=
201112210000 METAR MRLM 210000Z 08007KT 9999 FEW020 BKN035 25/21 A2984=
201112210100 METAR MRLM NIL=
201112210200 METAR MRLM NIL=
201112210300 METAR MRLM NIL=
201112210400 METAR MRLM NIL=
201112210500 METAR MRLM NIL=
201112210600 METAR MRLM NIL=
201112210700 METAR MRLM NIL=
201112210800 METAR MRLM NIL=
201112210900 METAR MRLM NIL=
201112211000 METAR MRLM NIL=
201112211100 METAR MRLM NIL=
201112211200 METAR MRLM 211200Z 20004KT 9999 SCT015 SCT070 21/19 A2989=
201112211233 METAR MRLM 211200 20004KT 9999 SCT015 SCT070 21/19 A2989=
201112211300 METAR MRLM 211300Z 23004KT 9999 SCT015 BKN080 22/20 A2990=
201112211400 METAR MRLM 211400Z 20005KT 9999 FEW015 BKN080 24/19 A2992=
201112211500 METAR MRLM 211500Z 20005KT CAVOK 26/19 A2992=
201112211600 METAR MRLM 211600Z 16005KT 9999 NSC 28/19 A2990=
201112211700 METAR MRLM NIL=
201112211800 METAR MRLM 211800Z 07008KT 9999 FEW040 SCT090 28/22 A2985=
201112211900 METAR MRLM 211900Z 05010KT 9999 FEW035 SCT090 28/22 A2983=
201112212000 METAR MRLM 21200Z 01009KT 9999 FEW025 BKN080 27/22 A2980=
201112212047 METAR MRLM 21200Z 01009KT 9999 FEW025 BKN080 27/22 A2980=
201112212100 METAR MRLM 212100Z 03009KT 9999 FEW020 BKN070 26/22 A2980=
201112212200 METAR MRLM 212200Z 07008KT 9999 DZ VCSH FEW020 BKN070 25/21 A2980=
201112212300 METAR MRLM 212300Z 28004KT 9999 FEW018 BKN070 25/21 A2981 REDZ=
201112212351 METAR MRLM 220000Z 23003KT 9999 SCT020 SCT070 24/21 A2981=
201112220000 METAR MRLM 220000Z 23003KT 9999 SCT020 SCT070 24/21 A2981=
201112220100 METAR MRLM NIL=
201112220200 METAR MRLM NIL=
201112220300 METAR MRLM NIL=
201112220400 METAR MRLM NIL=
201112220500 METAR MRLM NIL=
201112220600 METAR MRLM NIL=
201112220700 METAR MRLM NIL=
201112220800 METAR MRLM NIL=
201112220900 METAR MRLM NIL=
201112221000 METAR MRLM NIL=
201112221100 METAR MRLM NIL=
201112221200 METAR MRLM 221200Z 27005KT 9999 -DZ BKN007 20/19 A2986=
201112221300 METAR MRLM 221300Z 24003KT 9999 -DZ VCSH BKN007 21/19 A2988=
201112221400 METAR MRLM 221400Z 28004KT 9999 RA BKN010 21/20 A2991=
201112221500 METAR MRLM 221500Z 25004KT 6000 RA BKN010 21/20 A2992=
201112221600 METAR MRLM 221600Z 24004KT 8000 -RA BKN010 20/19 2993=
201112221700 METAR MRLM 221700Z 27004KT 8000 +DZ VCSH OVC007 20/19 A2991=
201112221800 METAR MRLM 221800Z 24005KT 9999 -DZ BKN008 21/19 A2989=
201112221900 METAR MRLM 221900Z 25004KT 9999 -DZ BKN008 21/20 A2986=
201112222000 METAR MRLM 222000Z 21004KT 9999 SCT010 BKN100 22/20 A2983=
201112222100 METAR MRLM 222100Z 19004KT CAVOK 23/20 A2979=
201112222200 METAR MRLM 222200Z 23003KT 9999 FEW020 BKN110 24/21 A2980=
201112222300 METAR MRLM 222300Z 03003KT 9999 FEW015 BKN250 21/21 A2982=
201112230000 METAR MRLM 230000Z 00000KT 9999 5000N -DZ HZ FEW010 BKN100 23/21 A2984=
201112230100 METAR MRLM NIL=
201112230200 METAR MRLM NIL=
201112230300 METAR MRLM NIL=
201112230400 METAR MRLM NIL=
201112230500 METAR MRLM NIL=
201112230600 METAR MRLM NIL=
201112230700 METAR MRLM NIL=
201112230800 METAR MRLM NIL=
201112230900 METAR MRLM NIL=
201112231000 METAR MRLM NIL=
201112231100 METAR MRLM NIL=
201112231200 METAR MRLM 231200Z 23004KT 9999 SCT007 SCT100 20/18 A2989=
201112231300 METAR MRLM 231300Z 22004KT 9999 BKN007 SCT100 20/19 A2992=
201112231400 METAR MRLM 231400Z 25004KT 9999 SCT015 24/21 A2994=
201112231500 METAR MRLM 231500Z 00000KT 9999 SCT030 26/20 A2995=
201112231600 METAR MRLM 231600Z 06004KT 9999 SCT025 25/21 A2993=
201112231700 METAR MRLM 231700Z 05004KT 9999 SCT025 26/21 A2991=
201112231800 METAR MRLM 231800Z 02007KT 9999 FEW020 SCT120 26/22 A2988=
201112231900 METAR MRLM 231900Z 03008KT 9999 FEW020 SCT120 27/22 A2986=
201112231930 METAR MRLM 231930Z 02010KT 8000 DZ HZ VCSH SCT010 SCT100 25/23 A2983=
201112232000 METAR MRLM 232000Z 05009KT 9999 -DZ VCSH BKN010 24/22 A2984=
201112232100 METAR MRLM 232100Z 03012KT 9999 DZ SCT015 SCT100 24/22 A2983=
201112232130 METAR MRLM 232130Z 03012KT 8000 RA BKN010 23/21 A2984=
201112232200 METAR MRLM 232200Z 01007KT 8000 RA BKN010 24/22 A2985=
201112232300 METAR MRLM 232300Z 22004KT 9999 -DZ BKN008 23/21 A2986 RE RA=
201112240000 METAR MRLM 240000Z 23005KT 9999 BKN007 22/21 A2988=
201112240100 METAR MRLM NIL=
201112240200 METAR MRLM NIL=
201112240300 METAR MRLM NIL=
201112240400 METAR MRLM NIL=
201112240500 METAR MRLM NIL=
201112240600 METAR MRLM NIL=
201112240700 METAR MRLM NIL=
201112240800 METAR MRLM NIL=
201112240900 METAR MRLM NIL=
201112241000 METAR MRLM 1000Z 07017KT RASH OVC015TCU 24/21 2992=
201112241100 METAR MRLM NIL=
201112241200 METAR MRLM NIL=
201112241235 METAR MRLM 241235Z 04005KT 9999 FEW025 BKN080 24/22 A2993=
201112241300 METAR MRLM 241300Z 04007KT 9999 SCT025 SCT080 25/22 A2994=
201112241400 METAR MRLM 241400Z 23003KT 9999 VCSH OVC015 25/22 A2997=
201112241410 METAR MRLM 241410Z 01003KT 3000 RASH OVC015 25/22 A2997=
201112241500 METAR MRLM 241500Z 33002KT 9999 VCSH BKN015TCU 26/22 A2998 RESH=
201112241600 METAR MRLM 241600Z 07002KT 9999 SCT020 SCT080 26/22 A2997=
201112241700 METAR MRLM 241700Z 08003KT 8000 VCSH HZ BKN025 27/22 A2995=
201112241800 METAR MRLM 241800Z 09003KT 8000 VCSH HZ SCT010 SCT070 24/22 A2991 RERASH VISIBY UNL NW N NE E=
201112241830 METAR MRLM 241830Z 07017KT 1000 RASH OVC015TCU 24/21 A2992=
201112241900 METAR MRLM NIL=
201112242000 METAR MRLM NIL=
201112242100 METAR MRLM 242100Z 20003KT 9999 FEW030 BKN070 26/20 A2987=
201112242200 METAR MRLM 242200Z 22003KT 9999 FEW035 26/20 A2987=
201112242300 METAR MRLM 242300Z 14002KT CAVOK 26/21 A2989=
201112242353 METAR MRLM 250000Z 21003KT CAVOK 23/21 A29890=
201112242359 METAR MRLM 250000Z 21003KT CAVOK 23/21 A2989=
201112250000 METAR MRLM 250000Z 21003KT CAVOK 23/21 A29890=
201112250100 METAR MRLM NIL=
201112250200 METAR MRLM NIL=
201112250300 METAR MRLM NIL=
201112250400 METAR MRLM NIL=
201112250500 METAR MRLM NIL=
201112250600 METAR MRLM NIL=
201112250700 METAR MRLM NIL=
201112250800 METAR MRLM NIL=
201112250900 METAR MRLM NIL=
201112251000 METAR MRLM NIL=
201112251100 METAR MRLM NIL=
201112251200 METAR MRLM NIL=
201112251230 METAR MRLM 251230Z 24004KT 9999 SCT015 SCT270 20/19 A2995=
201112251300 METAR MRLM 251300Z 27004KT 9999 SCT015 SCT080 21/19 A2996=
201112251400 METAR MRLM 251400Z 21006KT 9999 FEW025 SCT280 24/19 A2997=
201112251500 METAR MRLM 251500Z 23003KT 9999 BKN025 24/20 A2997=
201112251600 METAR MRLM 251600Z 12007KT 8000 DZVCSH HZ BKN020 SCT070 25/20 A2997=
201112251700 METAR MRLM 251700Z 09006KT 9999 BKN025 SCT080 25/21 A2995 REDZ=
201112251800 METAR MRLM 251800Z 05011KT 8000 +DZ VCSH HZ BKN018 SCT080 24/21 A2994=
201112251900 METAR MRLM 251900Z 05007KT 9999 BKN015 24/21 A2992 REDZ=
201112252000 METAR MRLM 252000Z 22005KT 9999 FEW013 SCT030 23/20 A2987=
201112252100 METAR MRLM 252100Z 13007KT 8000 DZ VCSH HZ BKN015 24/21 A2989=
201112252200 METAR MRLM 252200Z 19006KT 9999 SCT010 SCT025 22/20 A2989 REDZ=
201112252300 METAR MRLM 252300Z 21005KT 9999 BKN015 22/20 A2989=
201112260000 METAR MRLM 260000Z 23002KT 9999 BKN015 22/20 A2990=
201112260100 METAR MRLM NIL=
201112260200 METAR MRLM NIL=
201112260300 METAR MRLM NIL=
201112260400 METAR MRLM NIL=
201112260500 METAR MRLM NIL=
201112260600 METAR MRLM NIL=
201112260700 METAR MRLM NIL=
201112260800 METAR MRLM NIL=
201112260900 METAR MRLM NIL=
201112261000 METAR MRLM NIL=
201112261100 METAR MRLM NIL=
201112261200 METAR MRLM 261200Z 23005KT 9999 BKN010 SCT100 19/18 A2995=
201112261300 METAR MRLM 261300Z 19005KT 9999 SCT010 20/19 A2997=
201112261400 METAR MRLM 261400Z 22005KT 9999 SCT020 23/19 A2999=
201112261500 METAR MRLM 261500Z 22003KT 9999 SCT020 SCT110 24/20 A2999=
201112261600 METAR MRLM 261600Z 09003KT 9999 SCT030 26/19 A2998=
201112261700 METAR MRLM 261700Z 02008KT 9999 SCT030 SCT100 26/20 A2997=
201112261800 METAR MRLM 261800Z 02005KT 9999 FEW030 BKN100 26/19 A2995=
201112261900 METAR MRLM 261900Z 02003KT CAVOK 27/20 A2992=
201112262000 METAR MRLM 262000Z 01003KT CAVOK 28/20 A2991=
201112262100 METAR MRLM 262100Z 03003KT CAVOK 28/21 A2990=
201112262200 METAR MRLM 262200Z 01003KT CAVOK 27/21 A2990=
201112262300 METAR MRLM 262300Z 02003KT CAVOK 27/22 A2992=
201112270000 METAR MRLM 270000Z 00000KT CAVOK 24/22 A2993=
201112270100 METAR MRLM NIL=
201112270200 METAR MRLM NIL=
201112270300 METAR MRLM NIL=
201112270400 METAR MRLM NIL=
201112270500 METAR MRLM NIL=
201112270600 METAR MRLM NIL=
201112270700 METAR MRLM NIL=
201112270800 METAR MRLM NIL=
201112270900 METAR MRLM NIL=
201112271000 METAR MRLM NIL=
201112271100 METAR MRLM NIL=
201112271200 METAR MRLM 271200Z 00000KT CAVOK 20/19 A2998=
201112271300 METAR MRLM 271300Z 00000KT 9999 NSC 22/19 A2999=
201112271400 METAR MRLM 271400Z 21002KT 9999 NSC 25/20 A3001=
201112271500 METAR MRLM 271500Z 07003KT 9999 NSC 26/20 A3001=
201112271600 METAR MRLM 271600Z 07004KT CAVOK 27/21 A3001=
201112271700 METAR MRLM 271700Z 09005KT CAVOK 28/20 A2999=
201112271800 METAR MRLM 271800Z 06006KT CAVOK 28/21 A2996=
201112271900 METAR MRLM 271900Z 05005KT 9999 NSC 28/21 A2995=
201112272000 METAR MRLM 272000Z 05006KT CAVOK 28/22 2993=
201112272100 METAR MRLM 272100Z 05009KT CAVOK 27/22 A2992=
201112272200 METAR MRLM NIL=
201112272300 METAR MRLM 272300Z 08003KT 9999 FEW025 BKN110 27/22 A2993=
201112280000 METAR MRLM 280000Z 00000KT 9999 SCT020 BKN100 26/22 A2994=
201112280100 METAR MRLM NIL=
201112280200 METAR MRLM NIL=
201112280300 METAR MRLM NIL=
201112280400 METAR MRLM NIL=
201112280500 METAR MRLM NIL=
201112280600 METAR MRLM NIL=
201112280700 METAR MRLM NIL=
201112280800 METAR MRLM NIL=
201112280900 METAR MRLM NIL=
201112281000 METAR MRLM NIL=
201112281100 METAR MRLM NIL=
201112281200 METAR MRLM 281200Z 23004KT CAVOK 20/18 A3000=
201112281300 METAR MRLM 281300Z 24003KT CAVOK 22/19 A3001=
201112281400 METAR MRLM 281400Z 25002KT CAVOK 25/19 A3003=
201112281500 METAR MRLM 281500Z 04002KT 9999 FEW035 BKN090 26/19 A3003=
201112281600 METAR MRLM 281600Z 05002KT 9999 FEW028 BKN080 26/20 A3002=
201112281700 METAR MRLM NIL=
201112281715 METAR MRLM 281715Z 05015KT 9999 DZ VCSH OVC015 24/21 A3001=
201112281800 METAR MRLM 281800Z 06017KT 9999 DZ VCSH BKN018 SCT080 24/20 A2999 REDZRA=
201112281900 METAR MRLM NIL=
201112282000 METAR MRLM NIL=
201112282100 METAR MRLM 282100Z 17005KT 9999 SCT025 SCT080 24/20 A2994=
201112282200 METAR MRLM 282200Z 21005KT 9999 FEW020 BKN090 24/20 A2994=
201112282300 METAR MRLM 282300Z 23003KT 9999 FEW022 BKN090 24/20 A2995=
201112290000 METAR MRLM 290000Z 22004KT CAVOK 24/20 A2996=
201112290100 METAR MRLM NIL=
201112290200 METAR MRLM NIL=
201112290300 METAR MRLM NIL=
201112290400 METAR MRLM NIL=
201112290500 METAR MRLM NIL=
201112290600 METAR MRLM NIL=
201112290700 METAR MRLM NIL=
201112290800 METAR MRLM NIL=
201112290900 METAR MRLM NIL=
201112291000 METAR MRLM NIL=
201112291100 METAR MRLM NIL=
201112291200 METAR MRLM 291200Z 21004KT CAVOK 21/19 A2997=
201112291300 METAR MRLM 291300Z 22003KT CAVOK 22/19 A2998=
201112291400 METAR MRLM 291400Z 22004KT CAVOK 25/19 A3000=
201112291500 METAR MRLM NIL=
201112291600 METAR MRLM 291600Z 03006KT 9999 FEW035 27/20 A3000=
201112291700 METAR MRLM 291700Z 02005KT 9999 FEW035 BKN140 28/21 A2998=
201112291800 METAR MRLM 291800Z 02005KT 9999 FEW030 BKN110 27/21 A2996=
201112291900 METAR MRLM 291900Z 02004KT 9999 FEW030 SCT090 28/22 A2993=
201112292000 METAR MRLM 292000Z 02006KT 9999 FEW035 SCT090 28/22 A2991=
201112292100 METAR MRLM 292100Z 02006KT 9999 FEW030 SCT090 28/22 A2990=
201112292200 METAR MRLM 292200Z 03004KT 9999 FEW025 BKN080 27/22 A2991=
201112292300 METAR MRLM 292300Z 36003KT 9999 FEW023 BKN070 27/23 A2992=
201112292353 METAR MRLM 300000Z 00000KT CAVOK 26/22 A2993=
201112300000 METAR MRLM 300000Z 00000KT CAVOK 26/22 A2993=
201112300100 METAR MRLM NIL=
201112300200 METAR MRLM NIL=
201112300300 METAR MRLM NIL=
201112300400 METAR MRLM NIL=
201112300500 METAR MRLM NIL=
201112300600 METAR MRLM NIL=
201112300700 METAR MRLM NIL=
201112300800 METAR MRLM NIL=
201112300900 METAR MRLM NIL=
201112301000 METAR MRLM NIL=
201112301100 METAR MRLM NIL=
201112301200 METAR MRLM 301200Z 00000KT 9999 BKN010 SCT100 21/19 A2996=
201112301300 METAR MRLM 301300Z 00000KT 9999 -DZ VCSH BKN010 22/19 A2999=
201112301400 METAR MRLM 301400Z 24003KT 9999 -DZ BKN010 SCT100 22/20 A3001=
201112301500 METAR MRLM 301500Z 23003KT 9999 FEW015 BKN110 23/21 A3001=
201112301600 METAR MRLM 301600Z 0000KT CAVOK 25/21 A3000=
201112301700 METAR MRLM 301700Z 11004KT CAVOK 25/21 A2998=
201112301800 METAR MRLM 301800Z 06004KT CAVOK 26/21 A2995=
201112301900 METAR MRLM 301900Z 05004KT CAVOK 27/21 A2992=
201112302000 METAR MRLM 302000Z 06005KT CAVOK 27/21 A2989=
201112302100 METAR MRLM 302100Z 05006KT CAVOK 27/21 A2989=
201112302200 METAR MRLM 302200Z 03004KT CAVOK 28/22 A2989=
201112302300 METAR MRLM 302300Z 01003KT CAVOK 27/22 A2990=
201112310000 METAR MRLM 310000Z 00000KT CAVOK 26/22 A2992=
201112310100 METAR MRLM NIL=
201112310200 METAR MRLM NIL=
201112310300 METAR MRLM NIL=
201112310400 METAR MRLM NIL=
201112310500 METAR MRLM NIL=
201112310600 METAR MRLM NIL=
201112310700 METAR MRLM NIL=
201112310800 METAR MRLM NIL=
201112310900 METAR MRLM NIL=
201112311000 METAR MRLM NIL=
201112311100 METAR MRLM NIL=
201112311200 METAR MRLM 311200Z 00000KT 9999 BKN010 SCT090 21/19 A2995=
201112311300 METAR MRLM 311300Z 17002KT 9999 BKN015 SCT090 21/19 A2998=
201112311400 METAR MRLM 311400Z 24004KT 9999 BKN015 21/20 A3000=
201112311500 METAR MRLM 311500Z 25003KT 9999 DZ BKN015 SCT100 22/20 A3001=
201112311600 METAR MRLM 311600Z 20004KT 9999 SCT020 SCT100 24/20 A3000 RE DZ=
201112311700 METAR MRLM 311700Z 12005KT 9999 SCT030 SCT110 26/20 A2998=
201112311800 METAR MRLM 311800Z 11004KT 9999 SCT030 27/20 A2994=
201112311900 METAR MRLM 311900Z 09006KT 9999 BKN030 SCT110 26/19 A2992=
201112312000 METAR MRLM 312000Z 05004KT 9999 SCT020 SCT100 26/21 A2990=
201112312100 METAR MRLM 312100Z 00000KT CAVOK 26/21 A2989=
201112312200 METAR MRLM 312200Z 00000KT CAVOK 27/21 A2990=
201112312300 METAR MRLM 312300Z 11003KT CAVOK 27/22 A2991=
