201201010000 METAR MRLM 010000Z 00000KT CAVOK 24/22 A2991=
201201010100 METAR MRLM NIL=
201201010200 METAR MRLM NIL=
201201010300 METAR MRLM NIL=
201201010400 METAR MRLM NIL=
201201010500 METAR MRLM NIL=
201201010600 METAR MRLM NIL=
201201010700 METAR MRLM NIL=
201201010800 METAR MRLM NIL=
201201010900 METAR MRLM NIL=
201201011000 METAR MRLM NIL=
201201011100 METAR MRLM NIL=
201201011200 METAR MRLM NIL=
201201011300 METAR MRLM 011300Z 28002KT 9999 SCT025 SCT080 22/19 A2997=
201201011400 METAR MRLM 011400Z 22004KT 9999 SCT020 SCT090 24/20 A2998=
201201011500 METAR MRLM 011500Z 21003KT 9999 SCT025 SCT090 25/20 A2999=
201201011600 METAR MRLM 011600Z 08002KT 9999 SCT025 SCT090 25/21 A2998=
201201011700 METAR MRLM 011700Z 05005KT 9999 SCT028 SCT080 26/20 A2996=
201201011800 METAR MRLM 011800Z 04007KT 9999 SCT025 SCT080 26/22 A2994=
201201011900 METAR MRLM NIL=
201201012000 METAR MRLM 012000Z 10003KT 9999 SCT028 SCT080 27/21 A2989=
201201012100 METAR MRLM 012100Z 05016KT 9999 VCSH OVC020 26/22 A2989=
201201012200 METAR MRLM NIL=
201201012300 METAR MRLM NIL=
201201020000 METAR MRLM 020000Z 23003KT 9999 BKN015 24/21 2994=
201201020100 METAR MRLM NIL=
201201020200 METAR MRLM NIL=
201201020300 METAR MRLM NIL=
201201020400 METAR MRLM NIL=
201201020500 METAR MRLM NIL=
201201020600 METAR MRLM NIL=
201201020700 METAR MRLM NIL=
201201020800 METAR MRLM NIL=
201201020900 METAR MRLM NIL=
201201021000 METAR MRLM NIL=
201201021100 METAR MRLM NIL=
201201021200 METAR MRLM 021200Z 22005KT 9999 SCT025 BKN080 23/20 A2998=
201201021300 METAR MRLM 021300Z 20003KT 9999 FEW015 SCT030 22/20 A3000=
201201021400 METAR MRLM 021400Z 17002KT 9999 DZ VCSH SCT020 SCT080 23/21 A3002=
201201021500 METAR MRLM 021500Z 23004KT 9999 SCT025 SCT120 25/21 A3003 REDZ RN DST QDT S HZ ARND=
201201021600 METAR MRLM 021600Z 11005KT 9999 BKN035 27/20 A3002=
201201021700 METAR MRLM 09004KT 9999 FEW038 BKN110 28/21 A2999 HZ ARND DENSA SE=
201201021735 METAR MRLM 021735Z 09004KT 9999 FEW038 BKN110 28/21 A2999 HZ ARND DENSA SE=
201201021800 METAR MRLM 021800Z 10005KT 9999 FEW040 BKN090 29/20 A2998=
201201021900 METAR MRLM 021900Z 08005KT 9999 FEW035 BKN100 28/21 A2995=
201201022000 METAR MRLM 022000Z 05006KT 9999 FEW035 28/22 A2993=
201201022100 METAR MRLM 022100Z 03006KT 9999 FEW030 28/22 A2993=
201201022200 METAR MRLM NIL=
201201022300 METAR MRLM 022300Z 03005KT CAVOK 27/22 A2996=
201201030000 METAR MRLM 030000Z 00000KT CAVOK 25/22 A2998=
201201030100 METAR MRLM NIL=
201201030200 METAR MRLM NIL=
201201030300 METAR MRLM NIL=
201201030400 METAR MRLM NIL=
201201030500 METAR MRLM NIL=
201201030600 METAR MRLM NIL=
201201030700 METAR MRLM NIL=
201201030800 METAR MRLM NIL=
201201030900 METAR MRLM NIL=
201201031000 METAR MRLM NIL=
201201031100 METAR MRLM NIL=
201201031200 METAR MRLM 031200Z 00000KT 9999 FEW010 SCT110 20/19 A3005=
201201031300 METAR MRLM 031300Z 25003KT 9999 SCT010 BKN110 21/19 A3007=
201201031400 METAR MRLM 031400Z 21004KT 9999 SCT010 SCT100 22/20 A3009=
201201031500 METAR MRLM 031500Z 00000KT 9999 SCT020 BKN100 25/20 A3010=
201201031600 METAR MRLM 031600Z 29005KT 9999 FEW020 BKN110 25/21 A3010=
201201031700 METAR MRLM 031700Z 27004KT 9999 FEW030 BKN120 26/20 A3007=
201201031800 METAR MRLM 031800Z 31004KT 9999 FEW035 BKN120 27/19 A3005=
201201031900 METAR MRLM 031900Z 02005KT CAVOK 27/20 A3001=
201201032000 METAR MRLM 032000Z 35007KT 9999 SCT030 BKN110 27/20 A3000=
201201032100 METAR MRLM 032100Z 02010KT 9999 DZ VCSH BKN020 25/21 A3001=
201201032200 METAR MRLM 032200Z 16005KT 9999 SCT015 BKN100 23/20 A3002 RE DZ=
201201032300 METAR MRLM 032300Z 23004KT 9999 FEW015 SCT100 23/20 A3003=
201201040000 METAR MRLM 040000Z 24003KT 9999 FEW010 SCT100 22/20 A3004=
201201040100 METAR MRLM NIL=
201201040200 METAR MRLM NIL=
201201040300 METAR MRLM NIL=
201201040400 METAR MRLM NIL=
201201040500 METAR MRLM NIL=
201201040600 METAR MRLM NIL=
201201040700 METAR MRLM NIL=
201201040800 METAR MRLM NIL=
201201040900 METAR MRLM NIL=
201201041000 METAR MRLM NIL=
201201041100 METAR MRLM NIL=
201201041200 METAR MRLM 041200Z 25003KT 9999 FEW010 SCT250 20/18 A3005=
201201041300 METAR MRLM 041300Z 23005KT 9999 SCT010 SCT100 20/18 A3007=
201201041400 METAR MRLM 041400Z 31005KT 9999 RA BKN007 21/18 A3011=
201201041500 METAR MRLM 041500Z 23004KT 9999 DZ BKN007 20/19 A3012 RERA=
201201041600 METAR MRLM 041600Z 24005KT 9999 -DZ BKN010 22/20 A3010 RE DZ=
201201041700 METAR MRLM NIL=
201201041800 METAR MRLM NIL=
201201041900 METAR MRLM NIL=
201201042000 METAR MRLM NIL=
201201042100 METAR MRLM 042100Z 28006KT 9999 BKN015 22/20 A2999=
201201042200 METAR MRLM 042200Z 30005KT 9999 DZ BKN010 21/20 A2999=
201201042300 METAR MRLM 042300Z 25004KT 9999 -DZ FEW007 BKN010 21/20 A2999=
201201050000 METAR MRLM 050000Z 01005KT 6000 RA BKN007 21/20 A3002=
201201050100 METAR MRLM NIL=
201201050200 METAR MRLM NIL=
201201050300 METAR MRLM NIL=
201201050400 METAR MRLM NIL=
201201050500 METAR MRLM NIL=
201201050600 METAR MRLM NIL=
201201050700 METAR MRLM NIL=
201201050800 METAR MRLM NIL=
201201050900 METAR MRLM NIL=
201201051000 METAR MRLM NIL=
201201051100 METAR MRLM NIL=
201201051200 METAR MRLM 051200Z 29010KT 3000 RA BKN015 18/16 A3005=
201201051300 METAR MRLM 051300Z 27010KT 8000 +DZ VCSH BKN015 17/16 A3006 RERA=
201201051400 METAR MRLM 051400Z 27010KT 8000 DZ VCSH FEW007 BKN015 17/16 A3008=
201201051500 METAR MRLM 051500Z 28010KT 8000 +DZ VCSH FEW007 BKN015 17/16 A3008=
201201051600 METAR MRLM 051600Z 28010KT 6000 +DZ VCSH FEW006 BKN015 18/16 A3009=
201201051700 METAR MRLM 051700Z 28009KT 3000 RA FEW008 BKN015 18/16 A3007 REDZ=
201201051800 METAR MRLM NIL=
201201051838 METAR MRLM 051838Z 270 12KT 5000 RAHZ BKN015 18/17 A3003=
201201051900 METAR MRLM NIL=
201201052000 METAR MRLM NIL=
201201052020 METAR MRLM 052020Z 27010KT 8000 DZ VCSH HZ BKN015 SCT090 21/20 A2998 RERA VISIBY UNL QDT E=
201201052100 METAR MRLM 052100Z 27008KT 5000 RA BKN015 21/19 A2998 REDZ=
201201052200 METAR MRLM 052200Z 27008KT 7000 RA BKN015 SCT090 21/20 A2998=
201201052300 METAR MRLM 052300Z 27010KT 5000 RA BKN015 SCT090 21/20 A2999=
201201060000 METAR MRLM 060000Z 27008KT 5000 RA BKN015 SCT090 21/20 A3000=
201201060100 METAR MRLM NIL=
201201060200 METAR MRLM NIL=
201201060300 METAR MRLM NIL=
201201060400 METAR MRLM NIL=
201201060500 METAR MRLM NIL=
201201060600 METAR MRLM NIL=
201201060700 METAR MRLM NIL=
201201060800 METAR MRLM NIL=
201201060900 METAR MRLM NIL=
201201061000 METAR MRLM NIL=
201201061100 METAR MRLM NIL=
201201061200 METAR MRLM NIL=
201201061300 METAR MRLM NIL=
201201061400 METAR MRLM 061400Z 28009KT 9999 DZ VCSH FEW009 BKN015 21/20 A3002 RERA=
201201061500 METAR MRLM 061500Z 28009KT 9999 RA FEW008 BKN015 22/20 A3003 REDZ=
201201061600 METAR MRLM 061600Z 27007KT 9999 FEW009 BKN020 22/21 A3003RERA=
201201061700 METAR MRLM 061700Z 28006KT 9999 DZ VCSH FEW010 BKN015 23/20 A3000=
201201061800 METAR MRLM 061800Z 29007KT 8000 +DZ VCSH HZ BKN015 23/21 A2999=
201201061900 METAR MRLM 061900Z 28010KT 9999 DZ VCSH FEW010 BKN020 23/21 A2995=
201201062000 METAR MRLM NIL=
201201062100 METAR MRLM 062100Z 29007KT 9999 FEW010 BKN020 24/21 A2993=
201201062125 METAR MRLM 062125Z 32004KT 5000 +DZ VCSH HZ FEW010 BKN015 23/22 A2994=
201201062200 METAR MRLM 31004KT 4000 +DZ VCHS HZ BKN015 23/22 A2994=
201201062224 METAR MRLM 062224Z 31004KT 4000 +DZ VCHS HZ BKN015 23/22 A2994=
201201062300 METAR MRLM 062300Z 28005KT 9999 DZ VCSH FEW005 SCT020 BKN090 22/21 A2994=
201201070000 METAR MRLM 070000Z 25004KT 9999 BKN020 22/21 A2994 REDZ=
201201070100 METAR MRLM NIL=
201201070200 METAR MRLM NIL=
201201070300 METAR MRLM NIL=
201201070400 METAR MRLM NIL=
201201070500 METAR MRLM NIL=
201201070600 METAR MRLM NIL=
201201070700 METAR MRLM NIL=
201201070800 METAR MRLM NIL=
201201070900 METAR MRLM NIL=
201201071000 METAR MRLM NIL=
201201071100 METAR MRLM NIL=
201201071200 METAR MRLM 071200Z 21005KT 9999 FEW010 BKN100 22/21 A2997=
201201071300 METAR MRLM 071300Z 27005KT 9999 FEW010 BKN100 22/21 A2998=
201201071400 METAR MRLM 071400Z 26003KT 9999 FEW015 BKN110 24/22 A3000=
201201071500 METAR MRLM 071500Z 31005KT CAVOK 27/22 A3002=
201201071600 METAR MRLM 071600Z 27003KT CAVOK 28/22 A3000=
201201071700 METAR MRLM 071700Z 06004KT CAVOK 28/23 A2998=
201201071800 METAR MRLM 071800Z 01008KT CAVOK 28/23 A2996=
201201071900 METAR MRLM 071900Z 02008KT 9999 FEW025 28/23 A2993=
201201072000 METAR MRLM 072000Z 02008KT CAVOK 29/23 A2991=
201201072100 METAR MRLM 072100Z 02008KT CAVOK 28/23 A2991=
201201072200 METAR MRLM 072200Z 04005KT 9999 SCT020 BKN120 27/23 A2992=
201201072300 METAR MRLM 072300Z 00000KT 9999 SCT020 SCT120 27/23 A2993=
201201080000 METAR MRLM 080000Z 00000KT 9999 FEW010 SCT110 25/23 A2994=
201201080100 METAR MRLM NIL=
201201080200 METAR MRLM NIL=
201201080300 METAR MRLM NIL=
201201080400 METAR MRLM NIL=
201201080500 METAR MRLM NIL=
201201080600 METAR MRLM NIL=
201201080700 METAR MRLM NIL=
201201080800 METAR MRLM NIL=
201201080900 METAR MRLM NIL=
201201081000 METAR MRLM NIL=
201201081100 METAR MRLM NIL=
201201081200 METAR MRLM 081200Z 21004KT CAVOK 21/20 A2998=
201201081300 METAR MRLM 081300Z 21004KT CAVOK 21/21 A2999=
201201081400 METAR MRLM 081400Z 00000KT CAVOK 26/21 A3001=
201201081500 METAR MRLM 081500Z 10004KT 9999 NSC 27/21 A3002=
201201081600 METAR MRLM 081600Z 10006KT CAVOK 28/22 A3003=
201201081700 METAR MRLM 081700Z 10006KT CAVOK 28/22 3001=
201201081800 METAR MRLM 081800Z 11007KT CAVOK 29/21 A2999=
201201081900 METAR MRLM 081900Z 12007KT 9999 FEW035 BKN120 28/21 A2997=
201201082000 METAR MRLM 082000Z 12008KT 9999 FEW030 BKN120 28/22 A2994=
201201082100 METAR MRLM 082100Z 13007KT CAVOK 28/22 A2993=
201201082200 METAR MRLM 082200Z 12007KT CAVOK 28/22 A2993=
201201082300 METAR MRLM 082300Z 14004KT CAVOK 28/22 A2993=
201201090000 METAR MRLM 090000Z 16003KT CAVOK 25/21 A2994=
201201090100 METAR MRLM NIL=
201201090200 METAR MRLM NIL=
201201090300 METAR MRLM NIL=
201201090400 METAR MRLM NIL=
201201090500 METAR MRLM NIL=
201201090600 METAR MRLM NIL=
201201090700 METAR MRLM NIL=
201201090800 METAR MRLM NIL=
201201090900 METAR MRLM NIL=
201201091000 METAR MRLM NIL=
201201091100 METAR MRLM NIL=
201201091200 METAR MRLM 091200Z 24002KT CAVOK 20/19 A2997=
201201091300 METAR MRLM 091300Z 23002KT CAVOK 21/19 A2998=
201201091400 METAR MRLM 091400Z 21005KT CAVOK 22/20 A3000=
201201091500 METAR MRLM 091500Z 21004KT 9999 BKN025 24/21 A3001=
201201091600 METAR MRLM NIL=
201201091700 METAR MRLM 091700Z 12006KT 9999 BKN030 27/21 A3000=
201201091800 METAR MRLM 091800Z 10005KT 9999 FEW035 BKN080 28/21 A2997=
201201091900 METAR MRLM 091900Z 05004KT 9999 FEW025 BKN070 27/22 A2993=
201201092000 METAR MRLM 092000Z 10003KT 9999 FEW028 BKN070 28/22 A2990=
201201092100 METAR MRLM 092100Z 07003KT 9999 FEW030 BKN280 28/22 A2989=
201201092200 METAR MRLM 092200Z 07003KT CAVOK 28/22 A2989=
201201092300 METAR MRLM 092300Z 09004KT 9999 FEW025 SCT070 27/22 A2990=
201201100000 METAR MRLM 100000Z 19003KT 9999 FEW020 BKN070 25/22 A2992=
201201100100 METAR MRLM NIL=
201201100200 METAR MRLM NIL=
201201100300 METAR MRLM NIL=
201201100400 METAR MRLM NIL=
201201100500 METAR MRLM NIL=
201201100600 METAR MRLM NIL=
201201100700 METAR MRLM NIL=
201201100800 METAR MRLM NIL=
201201100900 METAR MRLM NIL=
201201101000 METAR MRLM NIL=
201201101100 METAR MRLM NIL=
201201101200 METAR MRLM 101200Z 24002KT CAVOK 20/19 A2995=
201201101300 METAR MRLM 101300Z METAR 25002KT CAVOK 22/19 A29960=
201201101400 METAR MRLM 101400Z 24003KT CAVOK 25/20 A2998=
201201101500 METAR MRLM 101500Z 07002KT CAVOK 27/21 A3000=
201201101600 METAR MRLM 101600Z 04003KT CAVOK 27/21 A2999=
201201101700 METAR MRLM NIL=
201201101800 METAR MRLM 101800Z 06005KT 9999 FEW025 BKN270 28/21 A2995=
201201101900 METAR MRLM 101900Z 06006KT 9999 FEW035 BKN270 28/21 A2995=
201201102000 METAR MRLM 102000Z 08004KT 9999 FEW030 BKN270 28/22 A2988=
201201102100 METAR MRLM 102100Z 06005KT 9999 FEW035 BKN270 28/21 A2987=
201201102200 METAR MRLM 102200Z 02003KT 9999 FEW025 BKN270 27/22 A2987=
201201102300 METAR MRLM 102300Z 01003KT 9999 FEW028 SCT140 28/22 A2988=
201201110000 METAR MRLM 110000Z 29002KT 9999 FEW015 BKN270 24/22 A2989=
201201110006 METAR MRLM 1100Z 29002KT 9999 FEW015 BKN270 24/22 A2989=
201201110100 METAR MRLM NIL=
201201110200 METAR MRLM NIL=
201201110300 METAR MRLM NIL=
201201110400 METAR MRLM NIL=
201201110500 METAR MRLM NIL=
201201110600 METAR MRLM NIL=
201201110700 METAR MRLM NIL=
201201110800 METAR MRLM NIL=
201201110900 METAR MRLM NIL=
201201111000 METAR MRLM NIL=
201201111100 METAR MRLM NIL=
201201111200 METAR MRLM 111200Z 23003KT 9999 SCT015 BKN100 21/19 A2990=
201201111300 METAR MRLM 111300Z 23004KT CAVOK 21/19 A2992=
201201111400 METAR MRLM 111400Z 22005KT CAVOK 23/20 A2995=
201201111500 METAR MRLM 111500Z 24003KT CAVOK 26/22 A2995=
201201111600 METAR MRLM 111600Z 08003KT 9999 FEW030 SCT130 28/22 A2996=
201201111700 METAR MRLM 111700Z 06003KT 9999 FEW030 SCT130 28/22 A2994=
201201111800 METAR MRLM 111800Z 06005KT 9999 FEW030 28/22 A2991=
201201111900 METAR MRLM 111900Z 06005KT 9999 NSC 28/22 A2987=
201201112000 METAR MRLM 112000Z 05006KT 9999 NSC 28/23 A2985=
201201112100 METAR MRLM 112100Z 05006KT 9999 NSC 28/22 A2983=
201201112200 METAR MRLM 112200Z 05005KT 9999 NSC 28/22 A2983=
201201112300 METAR MRLM 112300Z 04003KT CAVOK 27/22 A2985=
201201120000 METAR MRLM NIL=
201201120100 METAR MRLM NIL=
201201120200 METAR MRLM NIL=
201201120300 METAR MRLM NIL=
201201120400 METAR MRLM NIL=
201201120500 METAR MRLM NIL=
201201120600 METAR MRLM NIL=
201201120700 METAR MRLM NIL=
201201120800 METAR MRLM NIL=
201201120900 METAR MRLM NIL=
201201121000 METAR MRLM NIL=
201201121100 METAR MRLM NIL=
201201121200 METAR MRLM 121200Z 00000KT CAVOK 21/19 A2989=
201201121300 METAR MRLM 121300Z 00000KT CAVOK 24/20 A2991=
201201121400 METAR MRLM 121400Z 00000KT CAVOK 26/19 A2993=
201201121500 METAR MRLM 121500Z 06004KT 9999 NSC 27/20 A2993=
201201121600 METAR MRLM 121600Z 07004KT 9999 NSC 27/21 A2992=
201201121700 METAR MRLM 121700Z 08005KT 9999 NSC 29/21 A2991=
201201121800 METAR MRLM 121800Z 09007KT 9999 NSC 29/21 A2988=
201201121900 METAR MRLM 121900Z 10007KT 9999 NSC 29/21 A2986=
201201122000 METAR MRLM NIL=
201201122100 METAR MRLM 122100Z 08008KT CAVOK 29/23 A2983=
201201122200 METAR MRLM 122200Z 08008KT CAVOK 29/23 A2983=
201201122300 METAR MRLM NIL=
201201130000 METAR MRLM 130000Z 10005KT CAVOK 25/23 A2986=
201201130100 METAR MRLM NIL=
201201130200 METAR MRLM NIL=
201201130300 METAR MRLM NIL=
201201130400 METAR MRLM NIL=
201201130500 METAR MRLM NIL=
201201130600 METAR MRLM NIL=
201201130700 METAR MRLM NIL=
201201130800 METAR MRLM NIL=
201201130900 METAR MRLM NIL=
201201131000 METAR MRLM NIL=
201201131100 METAR MRLM NIL=
201201131200 METAR MRLM 131200Z 24004KT 9999 DZ VCSH BKN015 21/20 A2994=
201201131300 METAR MRLM 131300Z 22004KT 9999 VCSH FEW020 SCT080 23/21 A2995=
201201131400 METAR MRLM 131400Z 9999 FEW015 BKN070 25/22 A2998=
201201131500 METAR MRLM 131500Z 003003KT 9999 FEW035 BKN070 29/23 A2998=
201201131516 METAR MRLM 131500 003003KT 9999 FEW035 BKN070 29/23 A2998=
201201131600 METAR MRLM 131600Z 08003KT 9999 FEW025 SCT090 28/23 A2997=
201201131700 METAR MRLM 131700Z 03004KT 9999 FEW025 29/23 A2996=
201201131800 METAR MRLM 131800Z 03003KT 9999 FEW025 BKN080 28/23 A2993=
201201131900 METAR MRLM 131900Z 06010KT 9999 FEW025 BKN080 28/23 A2992=
201201132000 METAR MRLM NIL=
201201132017 METAR MRLM 132017Z 9999 FEW025 BKN080 29/21 A2989=
201201132100 METAR MRLM 132100Z 05007KT 9999 FEW035TCU SCT070 28/22 A2989=
201201132200 METAR MRLM 132200Z 02003KT9999 FEW040TCU 30/22 A2990=
201201132300 METAR MRLM 132300Z 05016KT 9999 BKN020 27/23 A2993=
201201140000 METAR MRLM 140000Z 03006KT 9999 BKN020TCU 26/22 A2983=
201201140100 METAR MRLM NIL=
201201140200 METAR MRLM NIL=
201201140300 METAR MRLM NIL=
201201140400 METAR MRLM NIL=
201201140500 METAR MRLM NIL=
201201140600 METAR MRLM NIL=
201201140700 METAR MRLM NIL=
201201140800 METAR MRLM NIL=
201201140900 METAR MRLM NIL=
201201141000 METAR MRLM NIL=
201201141100 METAR MRLM NIL=
201201141200 METAR MRLM NIL=
201201141230 METAR MRLM 141230Z 23003KT CAVOK 20/19 A2999=
201201141300 METAR MRLM 141300Z 00000KT CAVOK 22/19 3000=
201201141400 METAR MRLM 141400Z 29002KT CAVOK 25/20 A3003=
201201141500 METAR MRLM 141500Z 02002KT CAVOK 26/20 A3003=
201201141600 METAR MRLM 141600Z 01008KT 9999 FEW020 BKN090 27/23 A3003=
201201141700 METAR MRLM 141700Z 01006KT 9999 FEW020 BKN090 27/23 A3001=
201201141800 METAR MRLM 141800Z 02010KT 9999 BKN020 SCT090 27/23 A3000=
201201141900 METAR MRLM NIL=
201201142000 METAR MRLM 142000Z 05009KT 9999 FEW020 BKN090 26/21 A2997=
201201142100 METAR MRLM 142100Z 23002KT 9999 SCT025 SCT090 26/22 A2996=
201201142200 METAR MRLM 142200Z 23004KT CAVOK 26/22 A2996=
201201142300 METAR MRLM 142300Z 26003KT CAVOK 25/22 A2997=
201201150000 METAR MRLM 150000Z 25003KT CAVOK 24/22 A2998=
201201150100 METAR MRLM NIL=
201201150200 METAR MRLM NIL=
201201150300 METAR MRLM NIL=
201201150400 METAR MRLM NIL=
201201150500 METAR MRLM NIL=
201201150600 METAR MRLM NIL=
201201150700 METAR MRLM NIL=
201201150800 METAR MRLM NIL=
201201150900 METAR MRLM NIL=
201201151000 METAR MRLM NIL=
201201151100 METAR MRLM NIL=
201201151200 METAR MRLM 151200Z 22006KT 9999 SCT010 BKN100 22/21 A3002=
201201151300 METAR MRLM 151300Z 21006KT 9999 FEW010 BKN110 23/21 A30020=
201201151400 METAR MRLM 151400Z 25003KT 9999 RA SCT010 SCT110 24/22 A3007=
201201151500 METAR MRLM 151500Z 31004KT 9999 DZ VCSH BKN007 SCT110 24/23 A3009=
201201151600 METAR MRLM 151600Z 23006KT 9999 DZ FEW007 BKN010 25/23 A3010=
201201151700 METAR MRLM 151700Z 21005KT 9999 BKN015 28/24 A3008 REDZ=
201201151800 METAR MRLM 151800Z 09004KT 9999 DZ BKN015 28/24 A3006=
201201151825 METAR MRLM 151825Z 13014KT 6000 3000N +RA BKN007 25/23 A3005=
201201151900 METAR MRLM 151900Z 26003KT 9999 -DZ BKN010 26/24 A3003 RE RA=
201201152000 METAR MRLM 152000Z 01008KT 9999 RA BKN010 26/23 A3002=
201201152100 METAR MRLM 152100Z 00000KT 9999 FEW020 BKN120 27/22 A3000 RE RA=
201201152200 METAR MRLM NIL=
201201152300 METAR MRLM NIL=
201201160000 METAR MRLM NIL=
201201160100 METAR MRLM NIL=
201201160200 METAR MRLM NIL=
201201160300 METAR MRLM NIL=
201201160400 METAR MRLM NIL=
201201160500 METAR MRLM NIL=
201201160600 METAR MRLM NIL=
201201160700 METAR MRLM NIL=
201201160800 METAR MRLM NIL=
201201160900 METAR MRLM NIL=
201201161000 METAR MRLM NIL=
201201161100 METAR MRLM NIL=
201201161200 METAR MRLM NIL=
201201161300 METAR MRLM 161300Z 21005KT 9999 RA BKN007 23/21 A3004=
201201161400 METAR MRLM 161400Z 27003KT 9999 -DZ VCSH BKN007 SCT100 25/23 A3007 RE RA=
201201161500 METAR MRLM 161500Z 20005KT 9999 SCT015 SCT100 26/23 A3007=
201201161520 METAR MRLM 161520Z 04011KT 6000 +RA BKN010 25/23 A3010=
201201161600 METAR MRLM 161600Z 00000KT 9999 SCT015 26/23 A3009 RE RA=
201201161700 METAR MRLM 161700Z 10004KT 9999 FEW020 28/24 A3007=
201201161800 METAR MRLM 161800Z 11006KT 9999 FEW030 29/23 A3005=
201201161900 METAR MRLM 161900Z 12007KT 9999 FEW035 30/23 A3001=
201201162000 METAR MRLM 162000Z 10007KT 9999 FEW040 SCT130 30/22 A2998=
201201162100 METAR MRLM 162100Z 10007KT 9999 FEW035 BKN130 29/22 A2997=
201201162200 METAR MRLM NIL=
201201162300 METAR MRLM NIL=
201201170000 METAR MRLM NIL=
201201170100 METAR MRLM NIL=
201201170200 METAR MRLM NIL=
201201170300 METAR MRLM NIL=
201201170400 METAR MRLM NIL=
201201170500 METAR MRLM NIL=
201201170600 METAR MRLM NIL=
201201170700 METAR MRLM NIL=
201201170800 METAR MRLM NIL=
201201170900 METAR MRLM NIL=
201201171000 METAR MRLM NIL=
201201171100 METAR MRLM NIL=
201201171200 METAR MRLM 171200Z 00000KT 9999 FEW010 SCT110 23/21 A3003=
201201171300 METAR MRLM 171300Z 00000KT 9999 FEW010 SCT110 23/21 A3003=
201201171400 METAR MRLM 171400Z 24003KT 9999 SCT015 SCT110 24/21 A3006=
201201171500 METAR MRLM 171500Z 20008KT 9999 FEW020 BKN250 26/21 A3006=
201201171600 METAR MRLM 171600Z 18004KT CAVOK 29/21 A3005=
201201171700 METAR MRLM 171700Z 10007KT CAVOK 29/21 A3003=
201201171800 METAR MRLM 171800Z 10009KT CAVOK 29/22 A2998=
201201171900 METAR MRLM 171900Z 05010KT 9999 SCT035 BKN120 29/22 A2995=
201201172000 METAR MRLM 172000Z 05018KT 9999 BKN020 SCT100 26/22 A2995=
201201172100 METAR MRLM 172100Z 03016KT 9999 DZ BKN015 25/22 A2994=
201201172200 METAR MRLM NIL=
201201172300 METAR MRLM NIL=
201201180000 METAR MRLM NIL=
201201180100 METAR MRLM NIL=
201201180200 METAR MRLM NIL=
201201180300 METAR MRLM NIL=
201201180400 METAR MRLM NIL=
201201180500 METAR MRLM NIL=
201201180600 METAR MRLM NIL=
201201180700 METAR MRLM NIL=
201201180800 METAR MRLM NIL=
201201180900 METAR MRLM NIL=
201201181000 METAR MRLM NIL=
201201181100 METAR MRLM NIL=
201201181200 METAR MRLM NIL=
201201181300 METAR MRLM 181300Z 00000KT CAVOK 21/20 A2998=
201201181400 METAR MRLM 181400Z 00000KT CAVOK 22/21 A3000=
201201181500 METAR MRLM 181500Z 12005KT CAVOK 28/22 A3000=
201201181600 METAR MRLM 181600Z 12008KT 9999 NSC 29/22 A3001=
201201181700 METAR MRLM 181700Z 10008KT 9999 NSC 29/22 A2999=
201201181800 METAR MRLM 181800Z 09007KT 9999 NSC 29/22 A2997=
201201181900 METAR MRLM 181900Z 08008KT 9999 NSC 29/22 A2994=
201201182000 METAR MRLM 182000Z 07009KT 9999 NSC 29/23 A2992=
201201182100 METAR MRLM 182100Z 06010KT 9999 NSC 29/23 A2991=
201201182200 METAR MRLM NIL=
201201182300 METAR MRLM NIL=
201201190000 METAR MRLM NIL=
201201190100 METAR MRLM NIL=
201201190200 METAR MRLM NIL=
201201190300 METAR MRLM NIL=
201201190400 METAR MRLM NIL=
201201190500 METAR MRLM NIL=
201201190600 METAR MRLM NIL=
201201190700 METAR MRLM NIL=
201201190800 METAR MRLM NIL=
201201190900 METAR MRLM NIL=
201201191000 METAR MRLM NIL=
201201191100 METAR MRLM NIL=
201201191200 METAR MRLM NIL=
201201191300 METAR MRLM 191300Z 25004KT 9999 SCT010 BKN100 21/19 A2997=
201201191400 METAR MRLM 191400Z 24004KT 9999 SCT015 BKN100 23/20 A3000=
201201191500 METAR MRLM 191500Z 21004KT 9999 DZ VCSH SCT015 SCT100 24/20 A3000=
201201191600 METAR MRLM 191600Z 16005KT 9999 RA BKN007 SCT090 22/21 A3004=
201201191700 METAR MRLM NIL=
201201191800 METAR MRLM 191800Z 25004KT 9999 SCT025 SCT110 25/20 A2998=
201201191900 METAR MRLM NIL=
201201192000 METAR MRLM 192000Z 19003KT 9999 SCT020 SCT110 25/21 A2995=
201201192100 METAR MRLM 192100Z 18004KT 9999 BKN015 SCT100 24/21 A2993=
201201192200 METAR MRLM NIL=
201201192300 METAR MRLM NIL=
201201200000 METAR MRLM NIL=
201201200100 METAR MRLM NIL=
201201200200 METAR MRLM NIL=
201201200300 METAR MRLM NIL=
201201200400 METAR MRLM NIL=
201201200500 METAR MRLM NIL=
201201200600 METAR MRLM NIL=
201201200700 METAR MRLM NIL=
201201200800 METAR MRLM NIL=
201201200900 METAR MRLM NIL=
201201201000 METAR MRLM NIL=
201201201100 METAR MRLM NIL=
201201201200 METAR MRLM NIL=
201201201300 METAR MRLM 201300Z 23005KT CAVOK 20/19 A2995=
201201201400 METAR MRLM 201400Z 23004KT CAVOK 23/20 A2997=
201201201500 METAR MRLM 201500Z 00000KT CAVOK 26/20 A2997=
201201201600 METAR MRLM 201600Z 04003KT CAVOK 27/20 A2997=
201201201700 METAR MRLM 201700Z 05005KT CAVOK 28/20 A2995=
201201201800 METAR MRLM 201800Z 03007KT CAVOK 28/21 A2993=
201201201900 METAR MRLM 201900Z 02007KT 9999 FEW025 BKN110 28/23 A2992=
201201202000 METAR MRLM 202000Z 04006KT 9999 SCT020 BKN110 27/23 A2990=
201201202100 METAR MRLM 202100Z 07003KT 9999 SCT020 SCT110 27/22 A2989=
201201202200 METAR MRLM NIL=
201201202300 METAR MRLM NIL=
201201210000 METAR MRLM NIL=
201201210100 METAR MRLM NIL=
201201210200 METAR MRLM NIL=
201201210300 METAR MRLM NIL=
201201210400 METAR MRLM NIL=
201201210500 METAR MRLM NIL=
201201210600 METAR MRLM NIL=
201201210700 METAR MRLM NIL=
201201210800 METAR MRLM NIL=
201201210900 METAR MRLM NIL=
201201211000 METAR MRLM NIL=
201201211100 METAR MRLM NIL=
201201211200 METAR MRLM NIL=
201201211300 METAR MRLM 211300Z 21004 9999 NSC 20/19 A2996=
201201211400 METAR MRLM 211400Z 22004KT CAVOK 24/20 A2997=
201201211500 METAR MRLM 211500Z 07003KT CAVOK 26/21 A2998=
201201211600 METAR MRLM 211600Z 10004KT CAVOK 27/21 A2998=
201201211700 METAR MRLM 211700Z 10006KT CAVOK 29/19 A2997=
201201211800 METAR MRLM 211800Z 10006KT 9999 NSC 28/20 A2995=
201201211900 METAR MRLM 211900Z 08005KT 9999 NSC 28/22 A2992=
201201212000 METAR MRLM 212000Z 09004KT 9999 NSC 28/23 A2989=
201201212100 METAR MRLM 212100Z 07007KT 9999 NSC 29/21 A2988=
201201212200 METAR MRLM NIL=
201201212300 METAR MRLM NIL=
201201220000 METAR MRLM NIL=
201201220100 METAR MRLM NIL=
201201220200 METAR MRLM NIL=
201201220300 METAR MRLM NIL=
201201220400 METAR MRLM NIL=
201201220500 METAR MRLM NIL=
201201220600 METAR MRLM NIL=
201201220700 METAR MRLM NIL=
201201220800 METAR MRLM NIL=
201201220900 METAR MRLM NIL=
201201221000 METAR MRLM NIL=
201201221100 METAR MRLM NIL=
201201221200 METAR MRLM NIL=
201201221300 METAR MRLM 221300Z 00000KT 9999 FEW015 21/18 A2995=
201201221400 METAR MRLM 221400Z 24006KT 9999 FEW020 BKN100 22/19 A2997=
201201221500 METAR MRLM 221500Z 22003KT CAVOK 26/20 A2997=
201201221600 METAR MRLM 221600Z 02003KT CAVOK 27/21 A2997=
201201221700 METAR MRLM 221700Z 08003KT 9999 FEW030 BKN120 28/21 A2996=
201201221800 METAR MRLM 221800Z 08003KT CAVOK 28/21 A2993=
201201221900 METAR MRLM 221900Z 06005KT 9999 NSC 28/21 A2990=
201201222000 METAR MRLM 222000Z 06005KT 9999 NSC 28/21 A2988=
201201222100 METAR MRLM 222100Z 08004KT 9999 NSC 29/22 A2986=
201201222200 METAR MRLM NIL=
201201222300 METAR MRLM NIL=
201201230000 METAR MRLM NIL=
201201230100 METAR MRLM NIL=
201201230200 METAR MRLM NIL=
201201230300 METAR MRLM NIL=
201201230400 METAR MRLM NIL=
201201230500 METAR MRLM NIL=
201201230600 METAR MRLM NIL=
201201230700 METAR MRLM NIL=
201201230800 METAR MRLM NIL=
201201230900 METAR MRLM NIL=
201201231000 METAR MRLM NIL=
201201231100 METAR MRLM NIL=
201201231200 METAR MRLM NIL=
201201231300 METAR MRLM 231300Z 23005KT CAVOK 23/19 A2993=
201201231400 METAR MRLM 231400Z 00000KT CAVOK 26/20 A2995=
201201231500 METAR MRLM 231500Z 00000KT CAVOK 27/21 A2996=
201201231600 METAR MRLM 231600Z 04004KT CAVOK 28/21 A2996=
201201231700 METAR MRLM 231700Z 03004KT CAVOK 28/22 A2994=
201201231800 METAR MRLM 231800Z 04006KT 9999 NSC 28/23 A2992=
201201231900 METAR MRLM 231900Z 05004KT 9999 NSC 28/22 A2990=
201201232000 METAR MRLM NIL=
201201232100 METAR MRLM 232100Z 09003KT 9999 FEW030 28/23 A2986=
201201232200 METAR MRLM 232200Z 07004KT 9999 FEW025 28/23 A2987=
201201232300 METAR MRLM NIL=
201201240000 METAR MRLM NIL=
201201240100 METAR MRLM NIL=
201201240200 METAR MRLM NIL=
201201240300 METAR MRLM NIL=
201201240400 METAR MRLM NIL=
201201240500 METAR MRLM NIL=
201201240600 METAR MRLM NIL=
201201240700 METAR MRLM NIL=
201201240800 METAR MRLM NIL=
201201240900 METAR MRLM NIL=
201201241000 METAR MRLM NIL=
201201241100 METAR MRLM NIL=
201201241200 METAR MRLM NIL=
201201241300 METAR MRLM 241300Z 24005KT CAVOK 22/20 A2996=
201201241400 METAR MRLM 241400Z 24004KT CAVOK 25/21 A2998=
201201241500 METAR MRLM 241500Z 24004KT CAVOK 26/22 A2998=
201201241600 METAR MRLM 241600Z 30003KT CAVOK 29/22 A2999=
201201241700 METAR MRLM 241700Z 01008KT 9999 FEW035 29/22 A2997=
201201241800 METAR MRLM 241800Z 02007KT 9999 FEW030 BKN130 29/22 A2995=
201201241900 METAR MRLM 241900Z 03005KT 9999 FEW030 SCT130 28/22 A2992=
201201242000 METAR MRLM 242000Z 02006KT 9999 FEW030 28/23 A2990=
201201242100 METAR MRLM 242100Z 03004KT 9999 FEW030 28/23 A2989=
201201242200 METAR MRLM NIL=
201201242300 METAR MRLM NIL=
201201250000 METAR MRLM NIL=
201201250100 METAR MRLM NIL=
201201250200 METAR MRLM NIL=
201201250300 METAR MRLM NIL=
201201250400 METAR MRLM NIL=
201201250500 METAR MRLM NIL=
201201250600 METAR MRLM NIL=
201201250700 METAR MRLM NIL=
201201250800 METAR MRLM NIL=
201201250900 METAR MRLM NIL=
201201251000 METAR MRLM NIL=
201201251100 METAR MRLM NIL=
201201251200 METAR MRLM NIL=
201201251225 METAR MRLM 251225Z 23005KT 9999 FEW015 BKN070 21/20 A2995=
201201251300 METAR MRLM 251300Z 24004KT 9999 OVC015 21/21 A2997=
201201251400 METAR MRLM 251400Z 05010KT 9999 DZ VCSH SCT015 SCT080 23/21 A3001RERA=
201201251500 METAR MRLM 251500Z 11002KT 9999 SCT020 SCT080 24/20 A3001REDZ=
201201251600 METAR MRLM 251600Z 21003KT 9999 FEW010 BKN080 25/22 A3000=
201201251700 METAR MRLM 251700Z 12010KT 9999 FEW015 BKN080 25/22 A2999=
201201251800 METAR MRLM 251800Z 14006KT 9999 BKN020 25/22 A2995=
201201251900 METAR MRLM 251900Z 23004KT 9999 SCT030 SCT090 27/21 A2992=
201201252000 METAR MRLM 252000Z 23004KT 9999 SCT030 SCT090 27/21 A2992=
201201252100 METAR MRLM 252100Z 07003KT 9999 SCT035 BKN090 27/21 A2988=
201201252200 METAR MRLM NIL=
201201252300 METAR MRLM 252300Z 05006KT CAVOK 27/21 A2987=
201201260000 METAR MRLM 260000Z 06006KT CAVOK 27/21 A2989=
201201260100 METAR MRLM NIL=
201201260200 METAR MRLM NIL=
201201260300 METAR MRLM NIL=
201201260400 METAR MRLM NIL=
201201260500 METAR MRLM NIL=
201201260600 METAR MRLM NIL=
201201260700 METAR MRLM NIL=
201201260800 METAR MRLM NIL=
201201260900 METAR MRLM NIL=
201201261000 METAR MRLM NIL=
201201261100 METAR MRLM NIL=
201201261200 METAR MRLM 261200Z 22005KT 9999 FEW025 BKN090 21/20 A2992=
201201261300 METAR MRLM 261300Z 24004KT 9999 FEW025 BKN090 22/21 A2994=
201201261400 METAR MRLM 261400Z 28002KT 9999 SCT025 SCT080 25/22 A2996=
201201261500 METAR MRLM 261500Z 01002KT 9999 SCT022 SCT080 26/22 A2997=
201201261600 METAR MRLM 261600Z 07008KT 9999 SCT015 SCT090 25/23 A2997=
201201261700 METAR MRLM 261700Z 07003KT 9999 DZ VCSH SCT025 SCT090 25/22 A2995=
201201261800 METAR MRLM 261800Z 05004KT 9999 SCT020 SCT090 26/22 A2993REDZ=
201201261900 METAR MRLM 261900Z 13008KT 9999 BKN020 26/23 A2990=
201201262000 METAR MRLM 262000Z 17005KT 9999 BKN025 27/22 A2988=
201201262100 METAR MRLM 262100Z 17005KT 9999 BKN025 26/21 A2987=
201201262200 METAR MRLM 262200Z 21006KT 9999 SCT018 SCT080 25/21 A2982=
201201262300 METAR MRLM 262300Z 23003KT 9999 FEW018 BKN080 25/21 A2988=
201201270000 METAR MRLM 270000Z 00000KT 9999 SCT015 SCT080 24/22 A2991=
201201270100 METAR MRLM NIL=
201201270200 METAR MRLM NIL=
201201270300 METAR MRLM NIL=
201201270400 METAR MRLM NIL=
201201270500 METAR MRLM NIL=
201201270600 METAR MRLM NIL=
201201270700 METAR MRLM NIL=
201201270800 METAR MRLM NIL=
201201270900 METAR MRLM NIL=
201201271000 METAR MRLM NIL=
201201271100 METAR MRLM NIL=
201201271200 METAR MRLM 271200Z 00000KT 9999 -DZ BKN007 22/21 A2996=
201201271300 METAR MRLM 271300Z 22005KT 9999 BKN007 22/21 A2997=
201201271400 METAR MRLM 271400Z 25005KT 9999 BKN010 SCT100 23/21 A3000=
201201271500 METAR MRLM 271500Z 23004KT 9999 FEW020 BKN110 25/21 A3000=
201201271600 METAR MRLM 271600Z 23003KT CAVOK 28/22 A2999=
201201271700 METAR MRLM 271700Z 17005KT CAVOK 29/20 A2997=
201201271800 METAR MRLM 271800Z 06005KT 9999 NSC 28/21 A2998=
201201271900 METAR MRLM 271900Z 08008KT 9999 FEW040 29/20 A2992=
201201272000 METAR MRLM 272000Z 05009KT 9999 FEW040 SCT130 29/20 A2990=
201201272010 METAR MRLM 272010Z 05017KT 9999 FEW030 26/23 A2990=
201201272100 METAR MRLM 272100Z 06015KT CAVOK 26/23 A2990=
201201272200 METAR MRLM 272200Z 07009KT 9999 FEW025 SCT140 27/22 A2990=
201201272300 METAR MRLM 272300Z 09008KT 9999 FEW025 BKN130 26/21 A2991=
201201280000 METAR MRLM 280000Z 12004KT CAVOK 25/21 A2992=
201201280100 METAR MRLM NIL=
201201280200 METAR MRLM NIL=
201201280300 METAR MRLM NIL=
201201280400 METAR MRLM NIL=
201201280500 METAR MRLM NIL=
201201280600 METAR MRLM NIL=
201201280700 METAR MRLM NIL=
201201280800 METAR MRLM NIL=
201201280900 METAR MRLM NIL=
201201281000 METAR MRLM NIL=
201201281100 METAR MRLM NIL=
201201281200 METAR MRLM 281200Z 23003KT 9999 NSC 19/18 A2996=
201201281300 METAR MRLM 281300Z 22004KT 9999 NSC 21/19 A2997=
201201281400 METAR MRLM 281400Z 21003KT 9999 NSC 25/21 A2999=
201201281500 METAR MRLM 281500Z 00000KT CAVOK 28/22 A3000=
201201281600 METAR MRLM 281600Z 05003KT 9999 NSC 27/21 A2999=
201201281700 METAR MRLM 281700Z 06005KT 9999 NSC 28/21 A2998=
201201281800 METAR MRLM 281800Z 06006KT 9999 NSC 28/21 A2996=
201201281900 METAR MRLM 281900Z 04007KT 9999 NSC 28/23 A2994=
201201282000 METAR MRLM 282000Z 03005KT 9999 FEW030 28/22 A2991=
201201282100 METAR MRLM 282100Z 02005KT 9999 FEW030 28/22 A2990=
201201282200 METAR MRLM 282200Z 02005KT 9999 NSC 28/22 A2991=
201201282300 METAR MRLM 282300Z 03005KT 9999 NSC 27/21 A2992=
201201290000 METAR MRLM 290000Z 06004KT CAVOK 25/21 A2993=
201201290100 METAR MRLM NIL=
201201290200 METAR MRLM NIL=
201201290300 METAR MRLM NIL=
201201290400 METAR MRLM NIL=
201201290500 METAR MRLM NIL=
201201290600 METAR MRLM NIL=
201201290700 METAR MRLM NIL=
201201290800 METAR MRLM NIL=
201201290900 METAR MRLM NIL=
201201291000 METAR MRLM NIL=
201201291100 METAR MRLM NIL=
201201291200 METAR MRLM 291200Z 23004KT CAVOK 20/18 A2995=
201201291300 METAR MRLM 26002KT 9999 FEW015 BKN090 21/19 A2997=
201201291313 METAR MRLM 291313Z 26002KT 9999 FEW015 BKN090 21/19 A2997=
201201291400 METAR MRLM 291400Z 20002KT 9999 SCT015 SCT070 23/20 A3000=
201201291500 METAR MRLM 291500Z 02009KT 9999 BKN018 25/21 A3003=
201201291600 METAR MRLM 291600Z 32006KT 9999 DZ VCSH SCT025 SCT090 25/20 A3001=
201201291700 METAR MRLM 291700Z 27005KT 8000 +DZ VCSH BKN015 23/21 A3002=
201201291800 METAR MRLM 291800Z 24004KT 9999 DZ VCSH FEW010 BKN025 23/21 A3002=
201201291900 METAR MRLM 291900Z 21005KT 9999 DZ VCSH OVC025 24/22 A2996=
201201292000 METAR MRLM 292000Z 22006KT 9999 BKN025 25/22 A2993 REDZ=
201201292100 METAR MRLM 292100Z 24004KT 9999 OVC020 25/22 A2992=
201201292200 METAR MRLM 292200Z 24003KT 9999 BKN020 26/22 A2992=
201201292300 METAR MRLM 292300Z 28003KT 9999 SCT015 SCT080 25/23 A2993=
201201292355 METAR MRLM 300000Z 23004KT 9999 SCT010 SCT080 24/23 A2994=
201201300000 METAR MRLM 300000Z 23004KT 9999 SCT010 SCT080 24/23 A2994=
201201300100 METAR MRLM NIL=
201201300200 METAR MRLM NIL=
201201300300 METAR MRLM NIL=
201201300400 METAR MRLM NIL=
201201300500 METAR MRLM NIL=
201201300600 METAR MRLM NIL=
201201300700 METAR MRLM NIL=
201201300800 METAR MRLM NIL=
201201300900 METAR MRLM NIL=
201201301000 METAR MRLM NIL=
201201301100 METAR MRLM NIL=
201201301200 METAR MRLM NIL=
201201301230 METAR MRLM 301230Z 17003KT 8000 DZ VCSH BKN015 22/21 A2998=
201201301300 METAR MRLM 301300Z 00000KT 4000 RA BKN015 22/21 A3000=
201201301315 METAR MRLM 301315Z 10013KT 1000 +RA OVC010 22/21 A3002=
201201301400 METAR MRLM 301400Z 17005KT 2000 RA BKN010 21/21 A3004=
201201301500 METAR MRLM 301500Z 23008KT 9999 BKN010 22/21 A3002 RERA=
201201301600 METAR MRLM 301600Z 23007KT 9999 SCT015 SCT090 22/21 A3002=
201201301700 METAR MRLM 301700Z 23007KT 9999 BKN015 24/21 A3000=
201201301800 METAR MRLM 301800Z 32005KT 4000 RA BKN020 25/21 A3000=
201201301900 METAR MRLM 301900Z 28006KT 9999 DZ VCSH SCT020 SCT090 23/21 A2997=
201201302000 METAR MRLM 302000Z 22007KT CAVOK 25/21 A2992REDZ=
201201302100 METAR MRLM 302100Z 21005KT 9999 FEW020 BKN080 26/22 A2991=
201201302200 METAR MRLM 302200Z 23003KT 9999 FEW025 BKN080 27/22 A2990=
201201302300 METAR MRLM 302300Z 19003KT CAVOK 26/23 A2990=
201201302356 METAR MRLM 310000Z 20002KT CAVOK 25/22 A2991=
201201310000 METAR MRLM 310000Z 20002KT CAVOK 25/22 A2991=
201201310100 METAR MRLM NIL=
201201310200 METAR MRLM NIL=
201201310300 METAR MRLM NIL=
201201310400 METAR MRLM NIL=
201201310500 METAR MRLM NIL=
201201310600 METAR MRLM NIL=
201201310700 METAR MRLM NIL=
201201310800 METAR MRLM NIL=
201201310900 METAR MRLM NIL=
201201311000 METAR MRLM NIL=
201201311100 METAR MRLM NIL=
201201311200 METAR MRLM 311200Z 22003KT 9999 BKN007 21/20 A2998=
201201311300 METAR MRLM 311300Z 00000KT 9999 BKN007 22/20 A2999=
201201311400 METAR MRLM 311400Z 17006KT 9999 DZ BKN007 22/20 A3001=
201201311500 METAR MRLM 311500Z 26004KT 9999 DZ BKN007 23/21 A3002=
201201311600 METAR MRLM 311600Z 20007KT 9999 DZ VCSH SCT010 SCT090 23/22 A3002=
201201311700 METAR MRLM 311700Z 21006KT 9999 SCT020 SCT100 25/21 A3001 RE DZ=
201201311800 METAR MRLM 311800Z 21004KT 9999 SCT030 BKN110 28/22 A2998=
201201311900 METAR MRLM 311900Z 11003KT 9999 SCT035 BKN110 29/20 A2995=
201201312000 METAR MRLM 312000Z 18003KT 9999 FEW035 BKN120 28/21 A2992=
201201312100 METAR MRLM 312100Z 00000KT 9999 FEW030 BKN120 28/22 A2990=
201201312200 METAR MRLM 312200Z 00000KT 9999 FEW030 SCT130 28/22 A2990=
201201312300 METAR MRLM 312300Z 00000KT 9999 FEW030 SCT130 28/22 A2991=
201202010000 METAR MRLM 010000Z 00000KT CAVOK 24/22 A2992=
201202010100 METAR MRLM NIL=
201202010200 METAR MRLM NIL=
201202010300 METAR MRLM NIL=
201202010400 METAR MRLM NIL=
201202010500 METAR MRLM NIL=
201202010600 METAR MRLM NIL=
201202010700 METAR MRLM NIL=
201202010800 METAR MRLM NIL=
201202010900 METAR MRLM NIL=
201202011000 METAR MRLM NIL=
201202011100 METAR MRLM NIL=
201202011200 METAR MRLM 011200Z 00000KT 9999 FEW010 SCT100 20/18 A2994=
201202011300 METAR MRLM 011300Z 23003KT 9999 FEW010 BKN100 20/19 A2996=
201202011400 METAR MRLM 011400Z 03005KT 9999 BKN010 22/20 A2999=
201202011500 METAR MRLM 011500Z 08011KT 9999 DZ BKN010 SCT100 24/22 A3000=
201202011600 METAR MRLM 011600Z 33003KT 9999 DZ BKN010 SCT090 23/22 A3000=
201202011700 METAR MRLM 011700Z 23006KT 9999 SCT020 BKN110 26/22 A2997 RE DZ=
201202011800 METAR MRLM 011800Z 19003KT 9999 FEW040 BKN120 29/20 A2994=
201202011900 METAR MRLM 011900Z 08004KT 9999 FEW040 SCT120 29/21 A2992=
201202012000 METAR MRLM NIL=
201202012100 METAR MRLM 012100Z 11009KT 9999 FEW025 BKN110 27/23 A2987=
201202012200 METAR MRLM 012200Z 11005KT 9999 NSC 27/21 A2986=
201202012300 METAR MRLM 012300Z 10005KT 9999 NSC 27/22 A2986=
201202020000 METAR MRLM 020000Z 10004KT 9999 NSC 27/22 A2986=
201202020100 METAR MRLM NIL=
201202020200 METAR MRLM NIL=
201202020300 METAR MRLM NIL=
201202020400 METAR MRLM NIL=
201202020500 METAR MRLM NIL=
201202020600 METAR MRLM NIL=
201202020700 METAR MRLM NIL=
201202020800 METAR MRLM NIL=
201202020900 METAR MRLM NIL=
201202021000 METAR MRLM NIL=
201202021100 METAR MRLM NIL=
201202021200 METAR MRLM 021230 23003KT 9999 SCT040 SCT090 21/19 A2990=
201202021230 METAR MRLM 021230Z 23003KT 9999 SCT040 SCT090 21/19 A2990=
201202021231 METAR MRLM 021230 23003KT 9999 SCT040 SCT090 21/19 A2990=
201202021300 METAR MRLM 021300Z 24004 9999 FEW040 BKN080 23/20 A2992=
201202021400 METAR MRLM 021400Z 23004KT CAVOK 25/21 A2994=
201202021500 METAR MRLM 021500Z 21002KT 9999 SCT025 SCT270 27/22 A2994=
201202021600 METAR MRLM 021600Z 05014KT 9999 DZ VCSH OVC015 25/23 A2995=
201202021700 METAR MRLM 021700Z 09010KT 9999 BKN025 SCT090 25/20 A2994 REDZ=
201202021723 SPECI MRLM 021723 08014KT 9999 +DZ VCSH SCT025 SCT090 26/20 A2993=
201202021800 METAR MRLM 021800Z 9999 BKN025 SCT090 26/21 A2991 REDZ=
201202021900 METAR MRLM 021900Z 23005KT 9999 SCT030 SCT090 26/21 A2988=
201202022000 METAR MRLM 02200Z 21003KT CAVOK 28/21 A2983=
201202022003 METAR MRLM 02200Z 21003KT CAVOK 28/21 A2983=
201202022100 METAR MRLM 022100Z 03004KT CAVOK 29/21 A2982=
201202022200 METAR MRLM 022200Z 0505KT 9999 FEW040 BKN090 28/19 A2982=
201202022300 METAR MRLM 022300Z 06006KT 9999 SCT030 SCT080 27/21 A2984=
201202022353 METAR MRLM 030000Z 060005KT 9999 SCT025 SCT090 27/22 A2985=
201202030000 METAR MRLM 030000Z 060005KT 9999 SCT025 SCT090 27/22 A2985=
201202030100 METAR MRLM NIL=
201202030200 METAR MRLM NIL=
201202030300 METAR MRLM NIL=
201202030400 METAR MRLM NIL=
201202030500 METAR MRLM NIL=
201202030600 METAR MRLM NIL=
201202030700 METAR MRLM NIL=
201202030800 METAR MRLM NIL=
201202030900 METAR MRLM NIL=
201202031000 METAR MRLM NIL=
201202031100 METAR MRLM NIL=
201202031200 METAR MRLM NIL=
201202031230 METAR MRLM 031230Z 22004KT 9999 FEW030 SCT080 21/20 A2989=
201202031300 METAR MRLM 031300Z 22005KT 9999 FEW025 SCT140 21/20 A2989=
201202031400 METAR MRLM 031400Z 25002KT 9999 FEW025 BKN140 23/21 A2991=
201202031500 METAR MRLM 031500Z 21005KT 9999 FEW025 SCT080 23/21 A2982=
201202031600 METAR MRLM 031600Z 05003KT CAVOK 29/21 A2991=
201202031700 METAR MRLM 031700Z 09005KT CAVOK 29/22 A2989=
201202031800 METAR MRLM 031800Z 08007KT 9999 FEW040 BKN110 29/21 A2986=
201202031900 METAR MRLM 031900Z 09006KT 9999 FEW035 BKN080 29/21 A2983=
201202032000 METAR MRLM 032000Z 07017KT 9999 FEW020 BKN080 27/23 A2981 0=
201202032100 METAR MRLM 032100Z 05006KT 9999 FEW025 BKN080 27/22 A2980=
201202032200 METAR MRLM 032200Z 11006KT 9999 SCT030 SCT080 28/22 A2980=
201202032300 METAR MRLM 032300Z 11009KT 9999 FEW025 BKN090 28/22 A2981=
201202032356 METAR MRLM 040000Z 15006KT 9999 FEW020 SCT110 26/22 A2983=
201202040000 METAR MRLM 040000Z 15006KT 9999 FEW020 SCT110 26/22 A2983=
201202040100 METAR MRLM NIL=
201202040200 METAR MRLM NIL=
201202040300 METAR MRLM NIL=
201202040400 METAR MRLM NIL=
201202040500 METAR MRLM NIL=
201202040600 METAR MRLM NIL=
201202040700 METAR MRLM NIL=
201202040800 METAR MRLM NIL=
201202040900 METAR MRLM NIL=
201202041000 METAR MRLM NIL=
201202041100 METAR MRLM NIL=
201202041200 METAR MRLM 041200Z 23004KT 9999 SCT010 SCT100 21/20 A2988=
201202041300 METAR MRLM 041300Z 22004KT 9999 BKN010 SCT100 21/20 A2988=
201202041400 METAR MRLM 041400Z 23003KT 9999 SCT015 SCT110 24/22 A2990=
201202041500 METAR MRLM 041500Z 22004KT 9999 SCT015 SCT110 26/23 A2989=
201202041600 METAR MRLM 041600Z 06003KT 9999 FEW025 BKN120 28/22 A2989=
201202041700 METAR MRLM 041700Z 04004KT 9999 FEW030 BKN120 28/22 A2988=
201202041800 METAR MRLM 041800Z 04004KT 9999 FEW025 BKN120 28/23 A2986=
201202041900 METAR MRLM 041900Z 02004KT 9999 SCT025 SCT110 28/23 A2984=
201202042000 METAR MRLM 042000Z 35005KT 9999 SCT025 SCT110 28/23 A2984=
201202042100 METAR MRLM 042100Z 36006KT 9999 SCT025 BKN110 28/22 A2981=
201202042200 METAR MRLM 042200Z 36004KT 9999 SCT025 BKN100 28/22 A2981=
201202042300 METAR MRLM 042300Z 24002KT 9999 SCT020 SCT100 28/23 A2983=
201202050000 METAR MRLM 050000Z 00000KT 9999 FEW015 BKN100 26/23 A2983=
201202050100 METAR MRLM NIL=
201202050200 METAR MRLM NIL=
201202050300 METAR MRLM NIL=
201202050400 METAR MRLM NIL=
201202050500 METAR MRLM NIL=
201202050600 METAR MRLM NIL=
201202050700 METAR MRLM NIL=
201202050800 METAR MRLM NIL=
201202050900 METAR MRLM NIL=
201202051000 METAR MRLM NIL=
201202051100 METAR MRLM NIL=
201202051200 METAR MRLM 051200Z 25004 CAVOK 24/22 A2999=
201202051300 METAR MRLM 051300Z 25004KT CAVOK 25/22 2999=
201202051400 METAR MRLM 051400Z 25004KT CAVOK 25/22 2999=
201202051500 METAR MRLM 051500Z 00000KT CAVOK 29/22 A2991=
201202051600 METAR MRLM 051600Z 05005KT 9999 FEW030 SCT130 29/23 A2991=
201202051700 METAR MRLM NIL=
201202051800 METAR MRLM 051800Z 01006KT 9999 FEW030 BKN120 29/23 A2987=
201202051900 METAR MRLM 051900Z 01008KT 9999 FEW025 BKN120 29/24 A2985=
201202052000 METAR MRLM 052000Z 01007KT 9999 FEW030 29/24 A2983=
201202052100 METAR MRLM 052100Z 01007KT 9999 FEW030 29/24 A2981=
201202052200 METAR MRLM 052200Z 03007KT 9999 FEW025 28/23 A2981=
201202052300 METAR MRLM 052300Z 04005KT 9999 FEW020 SCT120 27/23 A2982=
201202060000 METAR MRLM 060000Z 04004KT 9999 SCT020 SCT110 27/24 A2984=
201202060100 METAR MRLM NIL=
201202060200 METAR MRLM NIL=
201202060300 METAR MRLM NIL=
201202060400 METAR MRLM NIL=
201202060500 METAR MRLM NIL=
201202060600 METAR MRLM NIL=
201202060700 METAR MRLM NIL=
201202060800 METAR MRLM NIL=
201202060900 METAR MRLM NIL=
201202061000 METAR MRLM NIL=
201202061100 METAR MRLM NIL=
201202061200 METAR MRLM NIL=
201202061230 METAR MRLM 061230Z 24004KT CAVOK 22/21 A2992=
201202061300 METAR MRLM 061300Z 23003KT CAVOK 23/21 A2993=
201202061400 METAR MRLM 061400Z 22002KT CAVOK 24/22 A2994=
201202061500 METAR MRLM 061500Z 08004KT 9999 FEW018 BKN070 27/23 A2996=
201202061600 METAR MRLM 061600Z 01009KT 9999 SCT020 SCT090 27/23 A2986=
201202061700 METAR MRLM 061700Z 36011KT 9999 SCT025 SCT090 28/23 A2994=
201202061800 METAR MRLM 061800Z 03006KT 9999 FEW020 BKN090 28/24 A2992=
201202061900 METAR MRLM 061900Z 02009KT 9999 FEW030 SCT100 29/23 A2989=
201202062000 METAR MRLM 062000Z 01007KT 9999 FEW030 SCT100 29/23 A2986=
201202062100 METAR MRLM 062100Z 02008KT 9999 SCT030 SCT090 29/23 A2985=
201202062200 METAR MRLM 062200Z 35008KT 9999 FEW015 SCT025 28/23 A2984=
201202062300 METAR MRLM 062300Z 30004KT 9999 FEW020 BKN080 27/23 A2984=
201202062351 METAR MRLM 070000Z 24002KT 9999 SCT020 SCT090 27/23 A2985=
201202070000 METAR MRLM 070000Z 24002KT 9999 SCT020 SCT090 27/23 A2985=
201202070100 METAR MRLM NIL=
201202070200 METAR MRLM NIL=
201202070300 METAR MRLM NIL=
201202070400 METAR MRLM NIL=
201202070500 METAR MRLM NIL=
201202070600 METAR MRLM NIL=
201202070700 METAR MRLM NIL=
201202070800 METAR MRLM NIL=
201202070900 METAR MRLM NIL=
201202071000 METAR MRLM NIL=
201202071100 METAR MRLM NIL=
201202071200 METAR MRLM 071200Z 23004KT CAVOK 22/21 A2993=
201202071300 METAR MRLM 071300Z 24004KT CAVOK 23/22 A2993=
201202071400 METAR MRLM 071400Z 22004KT CAVOK 26/23 A2995=
201202071500 METAR MRLM 07003KT 9999 FEW020 SCT140 28/24 A2996=
201202071502 METAR MRLM 071502Z 07003KT 9999 FEW020 SCT140 28/24 A2996=
201202071600 METAR MRLM 071600Z 06004KT 9999 FEW025 SCT070 28/23 A2996=
201202071700 METAR MRLM 071700Z 09005KT 9999 FEW025 BKN080 28/23 A2994=
201202071800 METAR MRLM 071800Z 09005KT 9999 FEW025 BKN080 28/23 A2992=
201202071900 METAR MRLM 071900Z 10004KT 9999 FEW025 BKN080 29/23 A2989=
201202072000 METAR MRLM 072000Z 08004KT 9999 FEW025 BKN080 29/23 A2986=
201202072100 METAR MRLM 072100Z 10003KT 9999 FEW030 BKN090 29/23 A2995=
201202072200 METAR MRLM 072200Z 080 04KT 9999 FEW030 BKN090 29/23 A2982=
201202072300 METAR MRLM 072300Z 08003KT 9999 FEW025 BKN090 28/23 A2985=
201202072352 METAR MRLM 080000Z 04003KT 9999 FEW020 BKN090 27/24 A2987=
201202080000 METAR MRLM 080000Z 04003KT 9999 FEW020 BKN090 27/24 A2987=
201202080100 METAR MRLM NIL=
201202080200 METAR MRLM NIL=
201202080300 METAR MRLM NIL=
201202080400 METAR MRLM NIL=
201202080500 METAR MRLM NIL=
201202080600 METAR MRLM NIL=
201202080700 METAR MRLM NIL=
201202080800 METAR MRLM NIL=
201202080900 METAR MRLM NIL=
201202081000 METAR MRLM NIL=
201202081100 METAR MRLM NIL=
201202081200 METAR MRLM NIL=
201202081300 METAR MRLM 081300Z 22004KT 9999 DZ VCSH OVC015TCU 24/23 A2995=
201202081400 METAR MRLM 081400Z 22005KT 8000 RA OVC010 25/21 A2997=
201202081500 METAR MRLM 081500Z 22004KT 9999 VCSH OVC010 25/24 A2998 RERA=
201202081600 METAR MRLM 081600Z 09003KT 9999 DZ VCSH OVC015TCU 27/24 A2998=
201202081610 METAR MRLM 081610Z 10003KT 8000 RA OVC015TCU 28/25 A2998=
201202081700 METAR MRLM 081700Z 04007KT 9999 BKN015TCU 28/25 A2996 RERA=
201202081728 METAR MRLM 081728Z 04008KT 6000 RA OVC015TCU 27/24 A2995=
201202081800 METAR MRLM 081800Z 06010KT 8000 VCSH BKN010TCU 26/24 A2994 RERA=
201202081900 METAR MRLM 081900Z 03013KT 9999 VCSH OVC015TCU 28/25 A2992=
201202082000 METAR MRLM 082000Z 04009KT 9999 BKN015 27/24 A2990=
201202082100 METAR MRLM 082100Z 05013KT 9999 VCSH SCT015TCU 28/24 A2989=
201202082200 METAR MRLM NIL=
201202082300 METAR MRLM NIL=
201202090000 METAR MRLM NIL=
201202090100 METAR MRLM NIL=
201202090200 METAR MRLM NIL=
201202090300 METAR MRLM NIL=
201202090400 METAR MRLM NIL=
201202090500 METAR MRLM NIL=
201202090600 METAR MRLM NIL=
201202090700 METAR MRLM NIL=
201202090800 METAR MRLM NIL=
201202090900 METAR MRLM NIL=
201202091000 METAR MRLM NIL=
201202091100 METAR MRLM NIL=
201202091200 METAR MRLM NIL=
201202091300 METAR MRLM 091300Z 24004KT 9999 SCT020 BKN270 23/22 A2998=
201202091400 METAR MRLM 091400Z 21006KT CAVOK 24/22 A3000=
201202091500 METAR MRLM 091500Z 22005KT CAVOK 25/22 A3000=
201202091600 METAR MRLM 091600Z 08003KT CAVOK 27/23 A3000=
201202091700 METAR MRLM 091700Z 07005KT 9999 FEW030 BKN090 28/22 A2998=
201202091800 METAR MRLM 091800Z 03011KT 9999 FEW020 BKN080 26/23 A2997=
201202091900 METAR MRLM 091900Z 05004KT 9999 FEW020 BKN080 27/23 A2995=
201202092000 METAR MRLM 092000Z 00000KT 9999 FEW025 BKN080 28/23 A2992=
201202092100 METAR MRLM 092100Z 11003KT 9999 FEW035 BKN270 29/22 A2991=
201202092200 METAR MRLM NIL=
201202092300 METAR MRLM NIL=
201202100000 METAR MRLM NIL=
201202100100 METAR MRLM NIL=
201202100200 METAR MRLM NIL=
201202100300 METAR MRLM NIL=
201202100400 METAR MRLM NIL=
201202100500 METAR MRLM NIL=
201202100600 METAR MRLM NIL=
201202100700 METAR MRLM NIL=
201202100800 METAR MRLM NIL=
201202100900 METAR MRLM NIL=
201202101000 METAR MRLM NIL=
201202101100 METAR MRLM NIL=
201202101200 METAR MRLM NIL=
201202101300 METAR MRLM 101300Z 23004KT 9999 SCT035 SCT090 21/20 A2999=
201202101400 METAR MRLM 101400Z 22005KT 9999 BKN035 22/20 A3000=
201202101500 METAR MRLM 101500Z 22003KT 9999 FEW035 BKN080 25/22 A3002=
201202101600 METAR MRLM 101600Z 04002KT 9999 FEW030 SCT080 29/22 A3002=
201202101700 METAR MRLM 101700Z 06005KT 9999 FEW025 SCT270 28/23 A3000=
201202101800 METAR MRLM 101800Z 06006KT 9999 FEW025 SCT270 28/23 A2998=
201202101900 METAR MRLM 101900Z 06008KT 9999 FEW025 SCT270 28/23 A2995=
201202102000 METAR MRLM 102000Z 06008KT 9999 FEW025 SCT270 28/23 A2993=
201202102100 METAR MRLM 102100Z 06007KT 9999 FEW025 28/23 A2991=
201202102200 METAR MRLM NIL=
201202102300 METAR MRLM NIL=
201202110000 METAR MRLM NIL=
201202110100 METAR MRLM NIL=
201202110200 METAR MRLM NIL=
201202110300 METAR MRLM NIL=
201202110400 METAR MRLM NIL=
201202110500 METAR MRLM NIL=
201202110600 METAR MRLM NIL=
201202110700 METAR MRLM NIL=
201202110800 METAR MRLM NIL=
201202110900 METAR MRLM NIL=
201202111000 METAR MRLM NIL=
201202111100 METAR MRLM NIL=
201202111200 METAR MRLM NIL=
201202111300 METAR MRLM NIL=
201202111400 METAR MRLM 111400Z 24003KT CAVOK 26/21 A3002=
201202111500 METAR MRLM 111500Z 04003KT CAVOK 28/22 A3002=
201202111600 METAR MRLM 111600Z 02005KT 9999 FEW020 BKN035 28/21 A3002=
201202111700 METAR MRLM 111700Z 02005KT 9999 FEW025 BKN035 28/22 A3000=
201202111800 METAR MRLM 111800Z 02005KT 9999 FEW020 SCT035 28/22 A2998=
201202111900 METAR MRLM 111900Z 01007KT 9999 FEW020 SCT030 28/22 A2995=
201202112000 MRLM 112000Z 04009KT 9999 FEW025 SCT035 28/22 A2992=
201202112100 METAR MRLM 112100Z 36010KT 9999 FEW020 SCT030 28/23 A2991=
201202112200 METAR MRLM NIL=
201202112300 METAR MRLM NIL=
201202120000 METAR MRLM NIL=
201202120100 METAR MRLM NIL=
201202120200 METAR MRLM NIL=
201202120300 METAR MRLM NIL=
201202120400 METAR MRLM NIL=
201202120500 METAR MRLM NIL=
201202120600 METAR MRLM NIL=
201202120700 METAR MRLM NIL=
201202120800 METAR MRLM NIL=
201202120900 METAR MRLM NIL=
201202121000 METAR MRLM NIL=
201202121100 METAR MRLM NIL=
201202121200 METAR MRLM NIL=
201202121300 METAR MRLM 121300Z 24004KT CAVOK 23/21 A2999=
201202121400 METAR MRLM 121400Z 22004KT 9999 FEW015 BKN080 24/22 A3002=
201202121500 METAR MRLM 121500Z 21003KT 9999 FEW025 BKN070 27/22 A3004=
201202121600 METAR MRLM 121600Z 08003KT 9999 FEW035 28/21 A3004=
201202121700 METAR MRLM 121700Z 06004KT 9999 FEW0030 28/22 A3003=
201202121800 METAR MRLM 121800Z 06006KT 9999 FEW030 28/22 A2999=
201202121900 METAR MRLM 121900Z 05007KT 9999 FEW028 29/23 A2997=
201202122000 METAR MRLM 122000Z 07008KT 9999 FEW030 29/23 A2994=
201202122100 METAR MRLM 122100Z 06007KT 9999 FEW030 29/22 A2992=
201202122200 METAR MRLM NIL=
201202122300 METAR MRLM NIL=
201202130000 METAR MRLM NIL=
201202130100 METAR MRLM NIL=
201202130200 METAR MRLM NIL=
201202130300 METAR MRLM NIL=
201202130400 METAR MRLM NIL=
201202130500 METAR MRLM NIL=
201202130600 METAR MRLM NIL=
201202130700 METAR MRLM NIL=
201202130800 METAR MRLM NIL=
201202130900 METAR MRLM NIL=
201202131000 METAR MRLM NIL=
201202131100 METAR MRLM NIL=
201202131200 METAR MRLM NIL=
201202131300 METAR MRLM 131300Z 09004KT 9999 FEW030 28/22 A3002=
201202131400 METAR MRLM 131400Z 09003KT CAVOK 27/22 A3001=
201202131500 METAR MRLM 131500Z 09004KT 9999 FEW030 28/22 A3002=
201202131600 METAR MRLM 131600Z 08002KT 9999 FEW035 28/22 A3001=
201202131700 METAR MRLM 131700Z 10006KT 9999 FEW040 29/21 A3000=
201202131800 METAR MRLM 131800Z 08009KT 9999 FEW035 29/22 A2997=
201202131900 METAR MRLM 131900Z 08008KT 9999 FEW030 29/23 A2994=
201202132000 METAR MRLM 132000Z 08009KT 9999 FEW038 29/22 A2990=
201202132100 METAR MRLM 132100Z 07009KT 9999 FEW030 29/23 A2989=
201202132200 METAR MRLM NIL=
201202132300 METAR MRLM NIL=
201202140000 METAR MRLM NIL=
201202140100 METAR MRLM NIL=
201202140200 METAR MRLM NIL=
201202140300 METAR MRLM NIL=
201202140400 METAR MRLM NIL=
201202140500 METAR MRLM NIL=
201202140600 METAR MRLM NIL=
201202140700 METAR MRLM NIL=
201202140800 METAR MRLM NIL=
201202140900 METAR MRLM NIL=
201202141000 METAR MRLM NIL=
201202141100 METAR MRLM NIL=
201202141200 METAR MRLM NIL=
201202141300 METAR MRLM 141300Z 23004KT CAVOK 22/20 A2999=
201202141400 METAR MRLM 141400Z 22004KT CAVOK 26/21 A3001=
201202141500 METAR MRLM 141500Z 09003KT 9999 FEW030 27/21 A3002=
201202141600 METAR MRLM 141600Z 09004KT 9999 FEW040 28/21 A3001=
201202141700 METAR MRLM 141700Z 09007KT 9999 FEW040 29/21 A3000=
201202141800 METAR MRLM 141800Z 09007KT 9999 FEW035 29/22 A2997=
201202141900 METAR MRLM 141900Z 08010KT 9999 FEW030 29/22 A2905=
201202142000 METAR MRLM 142000Z 10011KT 9999 FEW040 29/22 A2993=
201202142100 METAR MRLM 142100Z 09010KT 9999 FEW035 SCT100 29/22 A2992=
201202142200 METAR MRLM NIL=
201202142300 METAR MRLM NIL=
201202150000 METAR MRLM NIL=
201202150100 METAR MRLM NIL=
201202150200 METAR MRLM NIL=
201202150300 METAR MRLM NIL=
201202150400 METAR MRLM NIL=
201202150500 METAR MRLM NIL=
201202150600 METAR MRLM NIL=
201202150700 METAR MRLM NIL=
201202150800 METAR MRLM NIL=
201202150900 METAR MRLM NIL=
201202151000 METAR MRLM NIL=
201202151100 METAR MRLM NIL=
201202151200 METAR MRLM NIL=
201202151300 METAR MRLM 151300Z 22005KT CAVOK 21/18 A3001=
201202151400 METAR MRLM 151400Z 20002KT CAVOK 26/19 A3003=
201202151500 METAR MRLM 151500Z 12005KT CAVOK 27/20 A3004=
201202151600 METAR MRLM 151600Z 09004KT 9999 FEW040 28/20 A3004=
201202151700 METAR MRLM 151700Z 06006KT 9999 FEW045 29/20 A3002=
201202151800 METAR MRLM 151800Z 08007KT 9999 FEW040 29/21 A2999=
201202151900 METAR MRLM 151900Z 06006KT 9999 FEW030 29/21 A2999=
201202152000 METAR MRLM 152000Z 07007KT 9999 FEW035 29/22 A2994=
201202152100 METAR MRLM 152100Z 06007KT 9999 FEW035 29/22 A2993=
201202152200 METAR MRLM NIL=
201202152300 METAR MRLM NIL=
201202160000 METAR MRLM NIL=
201202160100 METAR MRLM NIL=
201202160200 METAR MRLM NIL=
201202160300 METAR MRLM NIL=
201202160400 METAR MRLM NIL=
201202160500 METAR MRLM NIL=
201202160600 METAR MRLM NIL=
201202160700 METAR MRLM NIL=
201202160800 METAR MRLM NIL=
201202160900 METAR MRLM NIL=
201202161000 METAR MRLM NIL=
201202161100 METAR MRLM NIL=
201202161200 METAR MRLM NIL=
201202161300 METAR MRLM 161300Z 24002KT 9999 FEW015 BKN120 21/20 A3003=
201202161400 METAR MRLM 161400Z 21004KT 9999 FEW015 BKN080 23/21 A3004=
201202161500 METAR MRLM 161500Z 21004KT 9999 FEW015 BKN030 25/22 A3005=
201202161600 METAR MRLM 161600Z 09012KT 9999 DZ VCSH SCT015 SCT025 25/22 A3007=
201202161700 METAR MRLM 161700Z 16004KT 9999 SCT015 SCT025 26/21 A3005 REDZ=
201202161800 METAR MRLM 161800Z 23005KT 9999 FEW025 BKN280 26/21 A3002=
201202161900 METAR MRLM 161900Z 08004KT 9999 FEW040 SCT280 29/21 A2999=
201202162000 METAR MRLM 162000Z 07008KT 9999 FEW035 BKN070 28/21 A2997=
201202162100 METAR MRLM 162100Z 05010KT 9999 FEW020 SCT035 27/23 A2994=
201202162200 METAR MRLM NIL=
201202162300 METAR MRLM NIL=
201202170000 METAR MRLM NIL=
201202170100 METAR MRLM NIL=
201202170200 METAR MRLM NIL=
201202170300 METAR MRLM NIL=
201202170400 METAR MRLM NIL=
201202170500 METAR MRLM NIL=
201202170600 METAR MRLM NIL=
201202170700 METAR MRLM NIL=
201202170800 METAR MRLM NIL=
201202170900 METAR MRLM NIL=
201202171000 METAR MRLM NIL=
201202171100 METAR MRLM NIL=
201202171200 METAR MRLM NIL=
201202171300 METAR MRLM 171300Z 9999 FEW015 SCT025 22/20 A2998=
201202171400 METAR MRLM 171400Z 25003KT 9999 SCT025 SCT090 24/22 A3000=
201202171500 METAR MRLM 171500Z 03004KT 9999 FEW030 BKN090 27/21 A3001=
201202171600 METAR MRLM 171600Z 05005KT 9999 FEW030 SCT090 27/22 A3001=
201202171700 METAR MRLM 171700Z 06006KT 9999 FEW030 28/22 A2999=
201202171800 METAR MRLM 171800Z 06008KT 9999 SCT030 28/23 A2996=
201202171900 METAR MRLM 171900Z 06009KT 9999 FEW030 28/23 A2995=
201202172000 METAR MRLM 172000Z 09008KT 9999 FEW030 29/22 A2991=
201202172100 METAR MRLM 172100Z 09007KT 9999 SCT030 29/22 A2990=
201202172200 METAR MRLM NIL=
201202172300 METAR MRLM NIL=
201202180000 METAR MRLM NIL=
201202180100 METAR MRLM NIL=
201202180200 METAR MRLM NIL=
201202180300 METAR MRLM NIL=
201202180400 METAR MRLM NIL=
201202180500 METAR MRLM NIL=
201202180600 METAR MRLM NIL=
201202180700 METAR MRLM NIL=
201202180800 METAR MRLM NIL=
201202180900 METAR MRLM NIL=
201202181000 METAR MRLM NIL=
201202181100 METAR MRLM NIL=
201202181200 METAR MRLM NIL=
201202181300 METAR MRLM 181300Z 24004KT CAVOK 21/20 A2996=
201202181400 METAR MRLM 181400Z 24003KT CAVOK 25/21 A2998=
201202181500 METAR MRLM 181500Z 10004KT CAVOK 27/21 A3000=
201202181600 METAR MRLM 181600Z 09004KT 9999 FEW035 28/21 A2999=
201202181700 METAR MRLM 181700Z 11007KT 9999 FEW045 29/20 A2990=
201202181708 METAR MRLM 18170Z 11007 9999 FEW045 29/20 A2990=
201202181800 METAR MRLM 181800Z 10007KT 9999 FEW045 29/20 A2995=
201202181900 METAR MRLM 181900Z 08009KT 9999 FEW038 29/21 A2991=
201202182000 METAR MRLM 182000Z 08008KT 9999 FEW035 29/21 A2987=
201202182100 METAR MRLM 182100Z 09009KT 9999 FEW035 SCT130 29/21 A2987=
201202182200 METAR MRLM NIL=
201202182300 METAR MRLM NIL=
201202190000 METAR MRLM NIL=
201202190100 METAR MRLM NIL=
201202190200 METAR MRLM NIL=
201202190300 METAR MRLM NIL=
201202190400 METAR MRLM NIL=
201202190500 METAR MRLM NIL=
201202190600 METAR MRLM NIL=
201202190700 METAR MRLM NIL=
201202190800 METAR MRLM NIL=
201202190900 METAR MRLM NIL=
201202191000 METAR MRLM NIL=
201202191100 METAR MRLM NIL=
201202191200 METAR MRLM NIL=
201202191300 METAR MRLM 191300Z 22005KT 9999 FEW015 SCT040 22/20 A2995=
201202191400 METAR MRLM 191400Z 22005KT 9999 SCT040 SCT090 24/21 A2997=
201202191500 METAR MRLM 191500Z 22002KT 9999 FEW015 SCT035 27/21 A2998=
201202191600 METAR MRLM 191600Z 04004KT 9999 FEW020 SCT100 27/21 A2998=
201202191700 METAR MRLM 191700Z 07005KT 9999 FEW035 BKN090 28721 A2996=
201202191800 METAR MRLM 191800Z 06010KT 9999 FEW035 SCT110 28/22 A2995=
201202191900 METAR MRLM 191900Z 07008KT 9999 FEW035 BKN080 28/22 A2992=
201202192000 METAR MRLM 192000Z 10006KT 9999 FEW030 BKN080 28/22 A2990=
201202192100 METAR MRLM 192100Z 07004KT 9999 FEW015 SCT030 27/21 A2988=
201202192200 METAR MRLM NIL=
201202192300 METAR MRLM NIL=
201202200000 METAR MRLM NIL=
201202200100 METAR MRLM NIL=
201202200200 METAR MRLM NIL=
201202200300 METAR MRLM NIL=
201202200400 METAR MRLM NIL=
201202200500 METAR MRLM NIL=
201202200600 METAR MRLM NIL=
201202200700 METAR MRLM NIL=
201202200800 METAR MRLM NIL=
201202200900 METAR MRLM NIL=
201202201000 METAR MRLM NIL=
201202201100 METAR MRLM NIL=
201202201200 METAR MRLM NIL=
201202201300 METAR MRLM 201300Z 21005KT 9999 BKN015 22/21 A2997=
201202201400 METAR MRLM 201400Z 22006KT 9999 BKN015 SCT090 22/21 A3000=
201202201500 METAR MRLM 201500Z 22006KT 9999 SCT035 SCT090 25/22 A3002=
201202201600 METAR MRLM 201600Z 21005KT 9999 BKN025 26/22 A3001=
201202201700 METAR MRLM 201700Z 13009KT +DZ VCSH SCT025 SCT090 27/22 A3000=
201202201735 METAR MRLM 201735Z 13008KT 4000 RA BKN020 25/22 A3001=
201202201800 METAR MRLM 201800Z 11012KT 7000 RA BKN010 SCT090 24/22 A3002=
201202201900 METAR MRLM 201900Z 24006KT 9999 SCT030 SCT090 25/22 A2998 RERA=
201202202000 METAR MRLM 202000Z 21006KT 9999 SCT030 SCT090 26/21 A2995=
201202202100 METAR MRLM 202100Z 22005KT 9999 SCT040 SCT080 27/20 A2993=
201202202200 METAR MRLM NIL=
201202202300 METAR MRLM NIL=
201202210000 METAR MRLM NIL=
201202210100 METAR MRLM NIL=
201202210200 METAR MRLM NIL=
201202210300 METAR MRLM NIL=
201202210400 METAR MRLM NIL=
201202210500 METAR MRLM NIL=
201202210600 METAR MRLM NIL=
201202210700 METAR MRLM NIL=
201202210800 METAR MRLM NIL=
201202210900 METAR MRLM NIL=
201202211000 METAR MRLM NIL=
201202211100 METAR MRLM NIL=
201202211200 METAR MRLM NIL=
201202211300 METAR MRLM 211300Z 22004KT CAVOK 22/20 A3002=
201202211400 METAR MRLM 211400Z 22004KT CAVOK 25/21 A3003=
201202211500 METAR MRLM 211500Z 12003KT CAVOK 27/21 A3004=
201202211600 METAR MRLM 211600Z 05004KT 9999 FEW035 BKN080 28/22 A3004=
201202211700 METAR MRLM 211700Z 06005KT 9999 FEW015 BKN080 28/21 A3003=
201202211800 METAR MRLM 211800Z 03006KT 9999 FEW030 BKN080 28/22 A3001=
201202211900 METAR MRLM 211900Z 03008KT 9999 FEW030 SCT080 28/22 A2998=
201202212000 METAR MRLM 212000Z 04006KT 9999 FEW035 29/22 A29/22 A2995=
201202212100 METAR MRLM 212100Z 02006KT 9999 FEW035 29/22 A2994=
201202212200 METAR MRLM NIL=
201202212300 METAR MRLM NIL=
201202220000 METAR MRLM NIL=
201202220100 METAR MRLM NIL=
201202220200 METAR MRLM NIL=
201202220300 METAR MRLM NIL=
201202220400 METAR MRLM NIL=
201202220500 METAR MRLM NIL=
201202220600 METAR MRLM NIL=
201202220700 METAR MRLM NIL=
201202220800 METAR MRLM NIL=
201202220900 METAR MRLM NIL=
201202221000 METAR MRLM NIL=
201202221100 METAR MRLM NIL=
201202221200 METAR MRLM NIL=
201202221300 METAR MRLM NIL=
201202221400 METAR MRLM 221400Z 22004KT 9999 FEW012 BKN030 23/22 A3001=
201202221500 METAR MRLM 221500Z 22004KT 9999 FEW020 BKN080 26/22 A3001=
201202221600 METAR MRLM 221600Z 25003KT 9999 FEW015 BKN070 28/19 A3000=
201202221700 METAR MRLM 221700Z 02008KT 9999 FEW025 SCT070 29/21 A2999=
201202221800 METAR MRLM 221800Z 02009KT 9999 FEW025 29/20 A2996=
201202221900 METAR MRLM 221900Z 02009KT 9999 FEW040 29/21 A2993=
201202222000 METAR MRLM 222000Z 02010KT 9999 FEW040 28/20 A2990=
201202222100 METAR MRLM 222100Z 03005KT 9999 FEW035 28/21 A2988=
201202222200 METAR MRLM NIL=
201202222300 METAR MRLM NIL=
201202230000 METAR MRLM NIL=
201202230100 METAR MRLM NIL=
201202230200 METAR MRLM NIL=
201202230300 METAR MRLM NIL=
201202230400 METAR MRLM NIL=
201202230500 METAR MRLM NIL=
201202230600 METAR MRLM NIL=
201202230700 METAR MRLM NIL=
201202230800 METAR MRLM NIL=
201202230900 METAR MRLM NIL=
201202231000 METAR MRLM NIL=
201202231100 METAR MRLM NIL=
201202231200 METAR MRLM NIL=
201202231300 METAR MRLM 231300Z 21005KT 9999 SCT015 SCT070 21/20 A2994=
201202231400 METAR MRLM NIL=
201202231500 METAR MRLM 231500Z 12003KT 9999 BKN030 28/22 A2998=
201202231600 METAR MRLM 231600Z 12008KT 9999 SCT040 29/22 A2998=
201202231700 METAR MRLM 231700Z 11007KT 9999 SCT040 29/21 A2996=
201202231800 METAR MRLM 231800Z 09009KT 9999 FEW040 29/21 A2994=
201202231900 METAR MRLM 231900Z 09009KT 9999 FEW035 29/22 A2991=
201202232000 METAR MRLM 232000Z 06008KT 9999 SCT030 28/23 A2988=
201202232100 METAR MRLM 232100Z 08012KT 9999 SCT035 29/22 A2986=
201202232200 METAR MRLM NIL=
201202232300 METAR MRLM NIL=
201202240000 METAR MRLM 240000Z 06014KT 9999 FEW040 28/17 A2975=
201202240100 METAR MRLM NIL=
201202240200 METAR MRLM NIL=
201202240300 METAR MRLM NIL=
201202240400 METAR MRLM NIL=
201202240500 METAR MRLM NIL=
201202240600 METAR MRLM NIL=
201202240700 METAR MRLM NIL=
201202240800 METAR MRLM NIL=
201202240900 METAR MRLM NIL=
201202241000 METAR MRLM NIL=
201202241100 METAR MRLM NIL=
201202241200 METAR MRLM 241200Z 25002KT CAVOK 20/19 A2992=
201202241300 METAR MRLM 241300Z 23005KT CAVOK 20/19 A2993=
201202241400 METAR MRLM 241400Z 00000KT CAVOK 23/21 A2995=
201202241500 METAR MRLM NIL=
201202241600 METAR MRLM 241600Z 07004KT 9999 FEW035 BKN130 28/21 A2997=
201202241700 METAR MRLM 241700Z 05003KT 9999 FEW030 BKN120 28/22 A2996=
201202241800 METAR MRLM 241800Z 07003KT 9999 FEW035 BKN120 28/21 A2994=
201202241900 METAR MRLM 241900Z 07003KT 9999 FEW035 BKN130 29/22 A2991=
201202242000 METAR MRLM 242000Z 05004KT 9999 FEW030 SCT130 28/22 A2988=
201202242100 METAR MRLM 242100Z 05004KT 9999 FEW030 SCT140 29/23 A2987=
201202242200 METAR MRLM 242200Z 06003KT 9999 SCT030 SCT250 28/23 A2987=
201202242300 METAR MRLM 242300Z 07005KT 9999 BKN025 28/23 A2988=
201202250000 METAR MRLM 250000Z 05007KT 9999 BKN020 27/22 A2988=
201202250100 METAR MRLM NIL=
201202250200 METAR MRLM NIL=
201202250300 METAR MRLM NIL=
201202250400 METAR MRLM NIL=
201202250500 METAR MRLM NIL=
201202250600 METAR MRLM NIL=
201202250700 METAR MRLM NIL=
201202250800 METAR MRLM NIL=
201202250900 METAR MRLM NIL=
201202251000 METAR MRLM NIL=
201202251100 METAR MRLM NIL=
201202251200 METAR MRLM 251200Z 15005KT 9999 DZ BKN007 22/21 A2995=
201202251300 METAR MRLM 251300Z 22005KT 9999 BKN010 23/22 A2995 RE DZ=
201202251400 METAR MRLM 251400Z 22006KT 9999 FEW020 SCT120 25/23 A2997=
201202251500 METAR MRLM 251500Z 23004KT 9999 FEW030 SCT130 28/22 A2998=
201202251600 METAR MRLM 251600Z 06003KT 9999 SCT030 28/22 A2998=
201202251700 METAR MRLM 251700Z 04006KT 9999 SCT030 SCT120 28/23 A2996=
201202251800 METAR MRLM 251800Z 04013KT 9999 SCT020 BKN110 27/23 A2995=
201202251900 METAR MRLM 251900Z 04014KT 9999 -DZ BKN020 SCT110 26/22 A2992=
201202252000 METAR MRLM 252000Z 00000KT 9999 SCT030 BKN110 27/21 A2989=
201202252100 METAR MRLM 252100Z 00000KT 9999 BKN025 28/22 A2989=
201202252200 METAR MRLM 252200Z 00000KT 9999 SCT030 SCT110 28/21 A2988=
201202252300 METAR MRLM 252300Z 06003KT 9999 BKN020 SCT100 27/23 A2990=
201202260000 METAR MRLM 260000Z 24003KT 9999 SCT015 SCT100 26/23 A2990=
201202260100 METAR MRLM NIL=
201202260200 METAR MRLM NIL=
201202260300 METAR MRLM NIL=
201202260400 METAR MRLM NIL=
201202260500 METAR MRLM NIL=
201202260600 METAR MRLM NIL=
201202260700 METAR MRLM NIL=
201202260800 METAR MRLM NIL=
201202260900 METAR MRLM NIL=
201202261000 METAR MRLM NIL=
201202261100 METAR MRLM NIL=
201202261200 METAR MRLM NIL=
201202261300 METAR MRLM NIL=
201202261400 METAR MRLM 261400Z 05013KT 9999 BKN020 27/23 A3000=
201202261500 METAR MRLM 261500Z 05011KT 9999 OVC025 28/23 A3003=
201202261557 METAR MRLM 261557Z 261600KT 9999 BKN025 28/23 A3002=
201202261600 METAR MRLM 261600KT 9999 BKN025 28/23 A3002=
201202261700 METAR MRLM 261700Z 06012KT 9999 BKN030 29/23 A3001=
201202261800 METAR MRLM 261800Z 08010KT 9999 SCT030 SCT280 29/22 A2999=
201202261900 METAR MRLM 261900Z 08008KT 9999 BKN035 29/22 A2997=
201202262000 METAR MRLM 262000Z 10005KT 9999 SCT035 SCT280 29/22 A2994=
201202262100 METAR MRLM 262100Z 05007KT 9999 BKN025 28/23 A2992=
201202262200 METAR MRLM 262200Z 10005KT 9999 SCT030 28/22 A2991=
201202262300 METAR MRLM 262300Z 08005KT 9999 FEW030 28/22 A2902=
201202262354 METAR MRLM 270000Z 08004KT 9999 FEW025 27/22 A2992=
201202270000 METAR MRLM 270000Z 08004KT 9999 FEW025 27/22 A2992=
201202270100 METAR MRLM NIL=
201202270200 METAR MRLM NIL=
201202270300 METAR MRLM NIL=
201202270400 METAR MRLM NIL=
201202270500 METAR MRLM NIL=
201202270600 METAR MRLM NIL=
201202270700 METAR MRLM NIL=
201202270800 METAR MRLM NIL=
201202270900 METAR MRLM NIL=
201202271000 METAR MRLM NIL=
201202271100 METAR MRLM NIL=
201202271200 METAR MRLM 271200Z 21006KT 9999 FEW015 BKN270 21/20 A2999=
201202271300 METAR MRLM 271300Z 22006KT 9999 FEW015 BKN270 22/20 A3000=
201202271400 METAR MRLM 271400Z 22006KT 9999 FEW015 BKN270 25/22 A3002=
201202271500 METAR MRLM 271500Z 18003KT 9999 SCT015 SCT030 27/22 A3003=
201202271600 METAR MRLM 271600Z 03003KT 9999 BKN030 28/22 A3003=
201202271700 METAR MRLM 271700Z 03005KT 9999 FEW035 BKN280 28/22 A3001=
201202271800 METAR MRLM 271800Z 06005KT 9999 FEW040 BKN280 29/21 A2999=
201202271900 METAR MRLM 271900Z 08005KT 9999 FEW040 29/21 A2998=
201202272000 METAR MRLM 272000Z 05007KT 9999 FEW035 29/22 A2995=
201202272100 METAR MRLM 272100Z 05007KT 9999 FEW035 29/22 A2995=
201202272200 METAR MRLM 272200Z 07008KT 9999 FEW035 29/22 A2993=
201202272300 METAR MRLM 272300Z 08006KT 9999 FEW035 28/21 A2993=
201202272349 METAR MRLM 280000Z 09006KT 9999 SCT030 27/22 A2994=
201202280000 METAR MRLM 280000Z 09006KT 9999 SCT030 27/22 A2994=
201202280100 METAR MRLM NIL=
201202280200 METAR MRLM NIL=
201202280300 METAR MRLM NIL=
201202280400 METAR MRLM NIL=
201202280500 METAR MRLM NIL=
201202280600 METAR MRLM NIL=
201202280700 METAR MRLM NIL=
201202280800 METAR MRLM NIL=
201202280900 METAR MRLM NIL=
201202281000 METAR MRLM NIL=
201202281100 METAR MRLM NIL=
201202281200 METAR MRLM 281200Z 08008KT 9999 DZ BKN010 22/20 A2997=
201202281300 METAR MRLM 281300Z 20004KT 9999 BKN010 22/20 A2999=
201202281400 METAR MRLM 281400Z 24005KT 9999 BKN010 22/21 A3001=
201202281500 METAR MRLM 281500Z 22006KT 9999 SCT020 SCT100 23/20 A3002=
201202281510 METAR MRLM 281510Z 22006KT 9999 DZ SCT020 BKN100 24/20 A3002=
201202281600 METAR MRLM 281600Z 21005KT 9999 FEW035 BKN110 27/20 A3000 RE DZ=
201202281700 METAR MRLM 281700Z 10011KT 9999 DZ SCT030 BKN110 26/20 A3000=
201202281800 METAR MRLM 281800Z 22004KT 9999 SCT020 BKN100 25/21 A3000 RE DZ=
201202281900 METAR MRLM NIL=
201202282000 METAR MRLM NIL=
201202282100 METAR MRLM 282100Z 23003KT 9999 SCT035 SCT120 28/21 A2992=
201202282200 METAR MRLM 282200Z 22003KT 9999 BKN025 SCT110 27/21 A2992=
201202282300 METAR MRLM 282300Z 22003KT 9999 SCT025 SCT110 26/21 A2993=
201202282320 METAR MRLM 282320Z 20003KT 9999 BKN020 SCT100 26/21 A2995=
201202290000 METAR MRLM 290000Z 27004KT 9999 RA BKN007 24/22 A2996=
201202290100 METAR MRLM NIL=
201202290200 METAR MRLM NIL=
201202290300 METAR MRLM NIL=
201202290400 METAR MRLM NIL=
201202290500 METAR MRLM NIL=
201202290600 METAR MRLM NIL=
201202290700 METAR MRLM NIL=
201202290800 METAR MRLM NIL=
201202290900 METAR MRLM NIL=
201202291000 METAR MRLM NIL=
201202291100 METAR MRLM NIL=
201202291200 METAR MRLM 291200Z 23003KT 9999 SCT010 SCT100 21/20 A3000=
201202291300 METAR MRLM 291300Z 18004KT 9999 SCT010 BKN100 22/21 A3001=
201202291400 METAR MRLM 291400Z 22005KT 9999 FEW015 BKN110 23/21 A3001=
201202291500 METAR MRLM 291500Z 20005KT 9999 FEW030 BKN120 26/20 A3003=
201202291600 METAR MRLM 291600Z 18003KT 9999 FEW035 SCT130 29/21 A3003=
201202291700 METAR MRLM 291700Z 36010KT 9999 SCT030 SCT120 27/21 A3002=
201202291800 METAR MRLM 291800Z 01012KT 9999 FEW025 BKN120 26/22 A3001=
201202291900 METAR MRLM 291900Z 03004KT 9999 FEW030 BKN130 28/21 A2996=
201202292000 METAR MRLM 292000Z 03003KT 9999 FEW035 BKN130 28/21 A2994=
201202292100 METAR MRLM 292100Z 03003KT 9999 FEW035 BKN130 28/21 A2991=
201202292200 METAR MRLM 292200Z 03005KT CAVOK 28/21 A2991=
201202292300 METAR MRLM 292300Z 06004KT 9999 FEW030 BKN120 28/21 A2992=
201203010000 METAR MRLM 010000Z 07005KT 9999 FEW020 BKN120 27/23 A2992=
201203010100 METAR MRLM NIL=
201203010200 METAR MRLM NIL=
201203010300 METAR MRLM NIL=
201203010400 METAR MRLM NIL=
201203010500 METAR MRLM NIL=
201203010600 METAR MRLM NIL=
201203010700 METAR MRLM NIL=
201203010800 METAR MRLM NIL=
201203010900 METAR MRLM NIL=
201203011000 METAR MRLM NIL=
201203011100 METAR MRLM NIL=
201203011200 METAR MRLM 011200Z 21005KT 9999 FEW020 BKN090 20/19 A2997=
201203011300 METAR MRLM 011300Z 29002KT 9999 BKN015 21/20 A2999=
201203011400 METAR MRLM 011400Z 16005KT 9999 FEW015 BKN090 25/21 A3000=
201203011500 METAR MRLM 011500Z 07012KT 9999 FEW015 SCT025 26/21 A3002=
201203011600 METAR MRLM 011600Z 10009KT 9999 BKN025 26/21 A3002=
201203011700 METAR MRLM 011700Z 11001KT 9999 FEW020 BKN045 28/20 A2999=
201203011800 METAR MRLM 011800Z 23004KT 9999 FEW025 BKN040 28/20 A2997=
201203011900 METAR MRLM 011900Z 09004KT 9999 FEW025 BKN090 29/20 A2994=
201203012000 METAR MRLM 012000Z 10006KT 9999 FEW025 SCT040 28/20 A2993=
201203012100 METAR MRLM 012100Z 09004KT 9999 FEW020 SCT040 28/20 A2990=
201203012200 METAR MRLM 012200Z 08004KT 9999 FEW035 BKN090 28/21 A2988=
201203012300 METAR MRLM 012300Z 09007KT 9999 FEW035 BKN090 28/21 A2989=
201203012354 METAR MRLM 020000Z 15004KT 9999 FEW035 BKN090 26/20 A2990=
201203020000 METAR MRLM 020000Z 15004KT 9999 FEW035 BKN090 26/20 A2990=
201203020100 METAR MRLM NIL=
201203020200 METAR MRLM NIL=
201203020300 METAR MRLM NIL=
201203020400 METAR MRLM NIL=
201203020500 METAR MRLM NIL=
201203020600 METAR MRLM NIL=
201203020700 METAR MRLM NIL=
201203020800 METAR MRLM NIL=
201203020900 METAR MRLM NIL=
201203021000 METAR MRLM NIL=
201203021100 METAR MRLM NIL=
201203021200 METAR MRLM 021200Z 21005KT 9999 FEW015 SCT090 19/18 A2992=
201203021300 METAR MRLM 021300Z 26002KT 9999 FEW015 SCT025 20/18 A2994=
201203021400 METAR MRLM 021400Z 23003KT 9999 SCT035 SCT090 22/19 A2996=
201203021500 METAR MRLM 021500Z 23005KT CAVOK 26/21 A2996=
201203021600 METAR MRLM 021600Z 18004KT CAVOK 29/19 A2995=
201203021700 METAR MRLM 021700Z 08006KT 9999 FEW040 29/21 A2993=
201203021800 METAR MRLM 021800Z 09006KT 9999 FEW045 29/19 A2991=
201203021900 METAR MRLM 021900Z 08006KT 9999 FEW045 29/20 A2988=
201203022000 METAR MRLM 022000Z 09007KT 9999 FEW040 29/21 A2985=
201203022100 METAR MRLM 022100Z 08010KT 9999 FEW035 29/22 A2984=
201203022200 METAR MRLM 022200Z 09008KT 9999 FEW035 28/22 A2983=
201203022300 METAR MRLM 022300Z 09004KT CAVOK 27/22 A2984=
201203022352 METAR MRLM 030000Z 08003KT CAVOK 27/22 A2986=
201203030000 METAR MRLM 030000Z 08003KT CAVOK 27/22 A2986=
201203030100 METAR MRLM NIL=
201203030200 METAR MRLM NIL=
201203030300 METAR MRLM NIL=
201203030400 METAR MRLM NIL=
201203030500 METAR MRLM NIL=
201203030600 METAR MRLM NIL=
201203030700 METAR MRLM NIL=
201203030800 METAR MRLM NIL=
201203030900 METAR MRLM NIL=
201203031000 METAR MRLM NIL=
201203031100 METAR MRLM NIL=
201203031200 METAR MRLM 031200Z 22004KT 9999 SCT010 BKN100 20/19 A2987=
201203031300 METAR MRLM 031300Z 21003KT 9999 SCT010 SCT100 21/20 A2990=
201203031400 METAR MRLM 031400Z 23002KT 9999 SCT015 SCT110 23/20 A2991=
201203031500 METAR MRLM 031500Z 27002KT CAVOK 26/21 A2993=
201203031600 METAR MRLM 031600Z 02006KT CAVOK 28/21 A2991=
201203031700 METAR MRLM 031700Z 03007KT 9999 FEW030 28/22 A2989=
201203031800 METAR MRLM 031800Z 02007KT 9999 FEW030 SCT130 28/22 A2987=
201203031900 METAR MRLM 031900Z 04006KT 9999 FEW030 BKN250 29/22 A2985=
201203032000 METAR MRLM 032000Z 04004KT CAVOK 28/22 A2981=
201203032100 METAR MRLM 032100Z 04003KT CAVOK 29/23 A2980=
201203032200 METAR MRLM 032200Z 03003KT CAVOK 29/23 A2978=
201203032300 METAR MRLM 032300Z 02005KT CAVOK 28/23 A2980=
201203040000 METAR MRLM 040000Z 02006KT CAVOK 27/23 A2981=
201203040100 METAR MRLM NIL=
201203040200 METAR MRLM NIL=
201203040300 METAR MRLM NIL=
201203040400 METAR MRLM NIL=
201203040500 METAR MRLM NIL=
201203040600 METAR MRLM NIL=
201203040700 METAR MRLM NIL=
201203040800 METAR MRLM NIL=
201203040900 METAR MRLM NIL=
201203041000 METAR MRLM NIL=
201203041100 METAR MRLM NIL=
201203041200 METAR MRLM 041200Z 23005KT CAVOK 22/22 A2989=
201203041300 METAR MRLM 041300Z 23004KT CAVOK 23/22 A2991=
201203041400 METAR MRLM 041400Z 27003KT 9999 FEW020 SCT250 27/23 A2993=
201203041500 METAR MRLM 041500Z 30006KT 9999 FEW030 29/24 A2994=
201203041600 METAR MRLM 041600Z 32007KT 9999 FEW035 30/23 A2995=
201203041700 METAR MRLM 041700Z 33007KT 9999 FEW025 BKN130 30/24 A2994=
201203041800 METAR MRLM 041800Z 25007KT 9999 FEW035 BKN130 30/23 A2991=
201203041900 METAR MRLM 041900Z 35009KT 9999 FEW040 SCT140 30/23 A2998=
201203042000 METAR MRLM 042000Z 36010KT 9999 FEW035 30/23 A2986=
201203042100 METAR MRLM 042100Z 36008KT 9999 FEW030 SCT130 30/24 A2983=
201203042200 METAR MRLM 042200Z 33010KT 9999 FEW025 SCT130 29/24 A2984=
201203042300 METAR MRLM 042300Z 34008KT 9999 SCT020 BKN120 28/24 A2986=
201203050000 METAR MRLM 050000Z 32003KT 9999 -DZ VCSH BKN010 27/25 A2986=
201203050100 METAR MRLM NIL=
201203050200 METAR MRLM NIL=
201203050300 METAR MRLM NIL=
201203050400 METAR MRLM NIL=
201203050500 METAR MRLM NIL=
201203050600 METAR MRLM NIL=
201203050700 METAR MRLM NIL=
201203050800 METAR MRLM NIL=
201203050900 METAR MRLM NIL=
201203051000 METAR MRLM NIL=
201203051100 METAR MRLM NIL=
201203051200 METAR MRLM NIL=
201203051300 METAR MRLM NIL=
201203051400 METAR MRLM NIL=
201203051500 METAR MRLM 051500Z 05013KT 9999 BKN015 SCT100 28/24 A3001=
201203051600 METAR MRLM 051600Z 05012KT 9999 BKN018 28/24 A3002=
201203051700 METAR MRLM 051700Z 06013KT 9999 BKN020 28/24 A3000=
201203051800 METAR MRLM 051800Z 06009KT 9999 OVC023 29/25 A2998=
201203051900 METAR MRLM 051900Z 06010KT 9999 OVC020 29/25 A2995=
201203052000 METAR MRLM 052000Z 05010KT 9999 OVC020 28/24 A2993=
201203052100 METAR MRLM 052100Z 04008KT 9999 OVC020 29/24 A2991=
201203052200 METAR MRLM 052200Z 05009KT 9999 OVC020 28/24 A2991=
201203052300 METAR MRLM 052300Z 04007KT 9999 OVC020 28/24 A2991=
201203052352 METAR MRLM 060000Z 01005KT 9999 BKN015 28/24 A2992=
201203060000 METAR MRLM 060000Z 01005KT 9999 BKN015 28/24 A2992=
201203060100 METAR MRLM NIL=
201203060200 METAR MRLM NIL=
201203060300 METAR MRLM NIL=
201203060400 METAR MRLM NIL=
201203060500 METAR MRLM NIL=
201203060600 METAR MRLM NIL=
201203060700 METAR MRLM NIL=
201203060800 METAR MRLM NIL=
201203060900 METAR MRLM NIL=
201203061000 METAR MRLM NIL=
201203061100 METAR MRLM NIL=
201203061200 METAR MRLM 061200Z 23006KT 1000 +RA OVC010 22/21 A2996=
201203061300 METAR MRLM 061300Z 28005KT 7000 +DZ VCSH FEW003 BKN015 22/22 A2996=
201203061400 METAR MRLM 061400Z 23006KT 7000 +DZ VCSH FEW001 BKN008 22/22 A2998=
201203061500 METAR MRLM 061500Z 24004KT 9999 SCT003 SCT010 23/22 A3000 REDZ=
201203061600 METAR MRLM 061600Z 05013KT 9999 BKN025 27/22 A3001=
201203061630 METAR MRLM 061630Z 05012KT 8000 RA OVC010 27/23 A3000 VISIBY UNL QDT N=
201203061700 METAR MRLM 061700Z 02013KT 8000 VCSH BKN020 SCT090 27/23 A2999 RERA=
201203061800 METAR MRLM 061800Z 04013KT 8000 VCSH BKN020 SCT090 28/23 A2997=
201203061900 METAR MRLM 061900Z 04011KT 9999 OVC025 28/23 A2995=
201203062000 METAR MRLM 062000Z 02007KT 8000 VCSH OVC023 28/23 A2992=
201203062100 METAR MRLM 062100Z 04017KT 8000 DZ VCSH BKN015 26/22 A2990=
201203062200 METAR MRLM 062200Z 24004KT 9999 BKN015 25/22 A2990=
201203062300 METAR MRLM 062300Z 22005KT 9999 OVC012 24/22 A2991=
201203062355 METAR MRLM 070000Z 21006KT 9999 OVC010 23/22 A2992=
201203070000 METAR MRLM 070000Z 21006KT 9999 OVC010 23/22 A2992=
201203070100 METAR MRLM NIL=
201203070200 METAR MRLM NIL=
201203070300 METAR MRLM NIL=
201203070400 METAR MRLM NIL=
201203070500 METAR MRLM NIL=
201203070600 METAR MRLM NIL=
201203070700 METAR MRLM NIL=
201203070800 METAR MRLM NIL=
201203070900 METAR MRLM NIL=
201203071000 METAR MRLM NIL=
201203071100 METAR MRLM NIL=
201203071200 METAR MRLM 071200Z 00000KT 9999 SCT010 SCT100 22/20 A2994=
201203071300 METAR MRLM 071300Z 23003KT 9999 SCT010 SCT110 22/20 A2996=
201203071400 METAR MRLM 071400Z 21004KT CAVOK 25/21 A2996=
201203071500 METAR MRLM 071500Z 05004KT CAVOK 26/21 A2997=
201203071600 METAR MRLM 071600Z 07004KT 9999 SCT030 BKN120 27/21 A2997=
201203071700 METAR MRLM 071700Z 10007KT 9999 FEW030 BKN110 28/22 A2996=
201203071800 METAR MRLM 071800Z 09004KT 9999 FEW035 SCT120 28/21 A2993=
201203071900 METAR MRLM 071900Z 06005KT 9999 FEW040 BKN130 29/21 A2992=
201203072000 METAR MRLM 072000Z 02010KT 9999 SCT025 SCT110 27/22 A2989=
201203072100 METAR MRLM 072100Z 03005KT 9999 SCT030 SCT120 28/22 A2987=
201203072115 METAR MRLM 072115Z 06010KT 6000 +RA BKN010 25/23 A2989=
201203072200 METAR MRLM 072200Z 22003KT 9999 DZ BKN010 23/22 A2988 RE RA=
201203072300 METAR MRLM 072300Z 22005KT 9999 FEW007 BKN010 23/22 A2989 RE DZ=
201203080000 METAR MRLM 080000Z 23004KT 9999 DZ VCSH BKN007 23/22 A2990=
201203080100 METAR MRLM NIL=
201203080200 METAR MRLM NIL=
201203080300 METAR MRLM NIL=
201203080400 METAR MRLM NIL=
201203080500 METAR MRLM NIL=
201203080600 METAR MRLM NIL=
201203080700 METAR MRLM NIL=
201203080800 METAR MRLM NIL=
201203080900 METAR MRLM NIL=
201203081000 METAR MRLM NIL=
201203081100 METAR MRLM NIL=
201203081200 METAR MRLM 081200Z 18006KT 9999 -DZ BKN010 22/20 A2993=
201203081300 METAR MRLM 081300Z 21005KT 9999 SCT010 BKN100 22/21 A2995=
201203081400 METAR MRLM 081400Z 22004KT 9999 FEW015 BKN110 24/21 A2997=
201203081500 METAR MRLM 081500Z 00000KT 9999 SCT025 SCT110 27/21 A2998=
201203081600 METAR MRLM 081600Z 03003KT 9999 BKN030 28/21 A2998=
201203081700 METAR MRLM 081700Z 09003KT 9999 FEW030 BKN120 28/21 A2996=
201203081800 METAR MRLM 081800Z 04003KT 9999 FEW040 28/20 A2994=
201203081900 METAR MRLM 081900Z 04006KT 9999 FEW035 28/22 A2991=
201203082000 METAR MRLM 082000Z 04008KT 9999 FEW030 SCT130 28/22 A2989=
201203082100 METAR MRLM 082100Z 06006KT 9999 SCT030 29/22 A2986=
201203082200 METAR MRLM 082200Z 06008KT 9999 FEW035 28/21 A2986=
201203082300 METAR MRLM 082300Z 06009KT 9999 SCT030 28/22 A2987=
201203090000 METAR MRLM 090000Z 06008KT 9999 BKN025 27/21 A2989=
201203090100 METAR MRLM NIL=
201203090200 METAR MRLM NIL=
201203090300 METAR MRLM NIL=
201203090400 METAR MRLM NIL=
201203090500 METAR MRLM NIL=
201203090600 METAR MRLM NIL=
201203090700 METAR MRLM NIL=
201203090800 METAR MRLM NIL=
201203090900 METAR MRLM NIL=
201203091000 METAR MRLM NIL=
201203091100 METAR MRLM NIL=
201203091200 METAR MRLM 091200Z 25002KT CAVOK 21/20 A2993=
201203091300 METAR MRLM 091300Z 22004KT CAVOK 22/20 A2994=
201203091358 METAR MRLM 0914000Z 24001KT 9999 SCT040 SCT080 25/21 A2996=
201203091400 METAR MRLM 0914000Z 24001KT 9999 SCT040 SCT080 25/21 A2996=
201203091500 METAR MRLM 091500Z 04009KT 9999 FEW015 BKN030 26/22 A2998=
201203091600 METAR MRLM 091600Z 01002KT 9999 FEW020 SCT035 26/20 A2999=
201203091700 METAR MRLM 091700Z 18005KT 9999 BKN025 26/21 A2997=
201203091725 METAR MRLM 091725Z 18005KT 8000 RA BKN025 26/21 A2996=
201203091800 METAR MRLM 091800Z 21003KT 9999 FEW015 BKN025 26/21 A2995 RERA=
201203091900 METAR MRLM 091900Z 13001KT 9999 BKN045 29/20 A29993=
201203092000 METAR MRLM 092000Z 08002KT 9999 BKN040 28/20 A2990=
201203092100 METAR MRLM 092100Z 02004KT 9999 FEW015 SCT035 28/21 A2989=
201203092200 METAR MRLM 092200Z 03004KT 9999 FEW015 SCT030 27/22 A2989=
201203092300 METAR MRLM 092300Z 36004KT CAVOK 28/21 A2990=
201203092351 METAR MRLM 100000Z 36003KT 9999 FEW025 BKN090 27/22 A2991=
201203100000 METAR MRLM 100000Z 36003KT 9999 FEW025 BKN090 27/22 A2991=
201203100100 METAR MRLM NIL=
201203100200 METAR MRLM NIL=
201203100300 METAR MRLM NIL=
201203100400 METAR MRLM NIL=
201203100500 METAR MRLM NIL=
201203100600 METAR MRLM NIL=
201203100700 METAR MRLM NIL=
201203100800 METAR MRLM NIL=
201203100900 METAR MRLM NIL=
201203101000 METAR MRLM NIL=
201203101100 METAR MRLM NIL=
201203101200 METAR MRLM 101200Z 19002KT 9999 BKN020 22/21 A2998=
201203101300 METAR MRLM 101300Z 25002KT 9999 BKN015 24/21 A2999=
201203101359 METAR MRLM 1014000Z 20004KT 9999 FEW025 BKN080 26/21 A3000=
201203101400 METAR MRLM 1014000Z 20004KT 9999 FEW025 BKN080 26/21 A3000=
201203101500 METAR MRLM 101500Z 09004KT 9999 SCT035 SCT080 28/21 A3001=
201203101600 METAR MRLM 101600Z 05004KT 9999 SCT040 SCT080 28/21 A3001=
201203101700 METAR MRLM 101700Z 04004KT 9999 FEW040 BKN090 29/22 A2999=
201203101800 METAR MRLM 101800Z 05022KT 9999 SCT018 BKN080 26/23 A2999=
201203101826 SPECI MRLM 05019KT 9999 +DZ VCSH SCT020 BKN080 26/22 A2997=
201203101900 METAR MRLM 101900Z 02011KT 9999 SCT025 BKN090 27/22 A2995 REDZ=
201203102000 METAR MRLM 102000Z 08006KT 9999 SCT030 BKN090 28/22 A2993=
201203102100 METAR MRLM 102100Z 08004KT 9999 FEW025 BKN090 28/23 A2991=
201203102200 METAR MRLM 102200Z 07006KT 9999 SCT025TCU SCT080 28/23 A2990=
201203102300 METAR MRLM 102300Z 09009KT 9999 SCT020TCU SCT080 27/22 A2991=
201203102355 METAR MRLM 110000Z 17004KT 9999 FEW015 BKN090 25/22 A2992=
201203110000 METAR MRLM 110000Z 17004KT 9999 FEW015 BKN090 25/22 A2992=
201203110100 METAR MRLM NIL=
201203110200 METAR MRLM NIL=
201203110300 METAR MRLM NIL=
201203110400 METAR MRLM NIL=
201203110500 METAR MRLM NIL=
201203110600 METAR MRLM NIL=
201203110700 METAR MRLM NIL=
201203110800 METAR MRLM NIL=
201203110900 METAR MRLM NIL=
201203111000 METAR MRLM NIL=
201203111100 METAR MRLM NIL=
201203111200 METAR MRLM 111200Z 22005KT 9999 SCT010 SCT100 22/21 A2997=
201203111300 METAR MRLM 111300Z 24004KT 9999 FEW010 BKN100 22/21 A2998=
201203111400 METAR MRLM 111400Z 22005KT 9999 SCT010 SCT100 24/22 A3000=
201203111500 METAR MRLM 111500Z 01003KT 9999 SCT020 BKN110 25/21 A3001=
201203111600 METAR MRLM 111600Z 02006KT 9999 SCT025 BKN110 26/21 A3001=
201203111700 METAR MRLM 111700Z 17004KT 9999 BKN020 SCT110 27/22 A3000=
201203111800 METAR MRLM 111800Z 18004KT 9999 SCT025 BKN110 26/21 A2998=
201203111900 METAR MRLM 111900Z 12004KT 9999 FEW035 SCT130 29/21 A2995=
201203112000 METAR MRLM 112000Z 12007KT 9999 FEW040 SCT140 30/21 A2992=
201203112100 METAR MRLM 112100Z 11007KT 9999 FEW040 BKN130 30/21 A2991=
201203112200 METAR MRLM 112200Z 10007KT 9999 SCT035 BKN120 29/21 A2991=
201203112300 METAR MRLM 112300Z 09006KT 9999 FEW035 BKN120 28/21 A2991=
201203120000 METAR MRLM 120000Z 08004KT 9999 FEW030 BKN110 27/21 A2992=
201203120100 METAR MRLM NIL=
201203120200 METAR MRLM NIL=
201203120300 METAR MRLM NIL=
201203120400 METAR MRLM NIL=
201203120500 METAR MRLM NIL=
201203120600 METAR MRLM NIL=
201203120700 METAR MRLM NIL=
201203120800 METAR MRLM NIL=
201203120900 METAR MRLM NIL=
201203121000 METAR MRLM NIL=
201203121100 METAR MRLM NIL=
201203121200 METAR MRLM 121200Z 20004KT 9999 BKN007 22/21 A2995=
201203121300 METAR MRLM 121300Z 22005KT 9999 SCT010 SCT100 23/22 A2996=
201203121400 METAR MRLM 121400Z 22005KT 9999 SCT015 SCT100 24/22 A2998=
201203121500 METAR MRLM 121500Z 00000KT 9999 SCT030 SCT110 28/21 A2999=
201203121600 METAR MRLM 121600Z 21005KT 9999 SCT040 29/21 A2999=
201203121700 METAR MRLM 121700Z 11005KT 9999 FEW040 29/22 A2998=
201203121800 METAR MRLM 121800Z 10005KT 9999 FEW040 29/22 A2996=
201203121900 METAR MRLM 121900Z 10006KT 9999 FEW040 29/21 A2994=
201203122000 METAR MRLM 122000Z 10006KT 9999 FEW035 29/22 A2991=
201203122100 METAR MRLM 122100Z 07007KT 9999 FEW035 29/22 A2989=
201203122200 METAR MRLM 122200Z 08006KT 9999 FEW030 29/22 A2989=
201203122300 METAR MRLM 122300Z 09006KT 9999 SCT030 28/22 A2990=
201203130000 METAR MRLM 130000Z 10004KT 9999 BKN020 27/22 A2991=
201203130100 METAR MRLM NIL=
201203130200 METAR MRLM NIL=
201203130300 METAR MRLM NIL=
201203130400 METAR MRLM NIL=
201203130500 METAR MRLM NIL=
201203130600 METAR MRLM NIL=
201203130700 METAR MRLM NIL=
201203130800 METAR MRLM NIL=
201203130900 METAR MRLM NIL=
201203131000 METAR MRLM NIL=
201203131100 METAR MRLM NIL=
201203131200 METAR MRLM 131200Z 23004KT 8000 DZ VCSH BKN020 22/21 A2995=
201203131300 METAR MRLM 131300Z 26005KT 9999 BKN020 22/22 A2997=
201203131400 METAR MRLM 131400Z 23005KT 9999 BKN015 24/23 A2997=
201203131500 METAR MRLM 131500Z 21004KT 9999 OVC015 26/24 A2997=
201203131600 METAR MRLM 131600Z 09005KT 9999 DZ VCSH OVC015 26/23 A2999=
201203131700 METAR MRLM 131700Z 30002KT 9999 OVC020 26/23 A2997 REDZ=
201203131800 METAR MRLM 131800Z 01011KT 9999 +DZ VCSH BKN015 27/23 A2995=
201203131900 METAR MRLM 131900Z 22003KT 9999 OVC015 26/23 A2994 REDZ=
201203132000 METAR MRLM 132000Z 21005KT 8000 VCSH FEW008 BKN025 24/23 A2992=
201203132100 METAR MRLM 132100Z 23005KT 9999 SCT015 SCT030 25/22 A2991=
201203132200 METAR MRLM 132200Z 23005KT 9999 DZ VCSH SCT015 SCT030 25/22 A2990=
201203132300 METAR MRLM 132300Z 26003KT 9999 FEW013 BKN025 25/22 A2991=
201203132355 METAR MRLM 140000Z 24001KT 9999 SCT010 SCT025 25/23 A2993=
201203140000 METAR MRLM 140000Z 24001KT 9999 SCT010 SCT025 25/23 A2993=
201203140100 METAR MRLM NIL=
201203140200 METAR MRLM NIL=
201203140300 METAR MRLM NIL=
201203140400 METAR MRLM NIL=
201203140500 METAR MRLM NIL=
201203140600 METAR MRLM NIL=
201203140700 METAR MRLM NIL=
201203140800 METAR MRLM NIL=
201203140900 METAR MRLM NIL=
201203141000 METAR MRLM NIL=
201203141100 METAR MRLM NIL=
201203141200 METAR MRLM NIL=
201203141300 METAR MRLM 141300Z 25005KT 5000 RA BKN015 SCT090 22/22 A2997=
201203141400 METAR MRLM 141400Z 21004KT 9999 DZ VCSH FEW004 SCT015 23/22 A2998 RERA=
201203141500 METAR MRLM 141500Z 22007KT 9999 FEW015 BKN030 24/22 A2998 RDDZ=
201203141600 METAR MRLM 141600Z 22006KT 9999 BKN015 26/23 A2999=
201203141700 METAR MRLM 141700Z 20002KT 9999 SCT022 SCT070 27/23 A2998=
201203141800 METAR MRLM 141800Z 23003KT 9999 DZ VCSH BKN023 27/23 A2996=
201203141900 METAR MRLM 141900Z 22005KT 9999 SCT020 SCT090 26/22 A2994 REDZ=
201203142000 METAR MRLM 142000Z 23006KT 9999 SCT025 SCT080 28/23 A2991=
201203142100 METAR MRLM 142100Z 31005KT 9999 OVC025 27/22 A2990=
201203142200 METAR MRLM 142200Z 28004KT 8000 +DZ VCSH BKN015 26/23 A2990=
201203142300 METAR MRLM 142300Z 25004KT 9999 DZ VCSH OVC012 24/22 A2990=
201203142350 METAR MRLM 150000Z 22003KT 9999 DZ VCSH OVC010 24/22 A2991=
201203150000 METAR MRLM 150000Z 22003KT 9999 DZ VCSH OVC010 24/22 A2991=
201203150100 METAR MRLM NIL=
201203150200 METAR MRLM NIL=
201203150300 METAR MRLM NIL=
201203150400 METAR MRLM NIL=
201203150500 METAR MRLM NIL=
201203150600 METAR MRLM NIL=
201203150700 METAR MRLM NIL=
201203150800 METAR MRLM NIL=
201203150900 METAR MRLM NIL=
201203151000 METAR MRLM NIL=
201203151100 METAR MRLM NIL=
201203151200 METAR MRLM 151200Z 26003KT 7000 RA FEW006 BKN010 22/21 A2998=
201203151300 METAR MRLM 151300Z 32003KT 9999 -DZ BKN010 22/21 A3000 RE RA=
201203151400 METAR MRLM 151400Z 25003KT 9999 SCT010 BKN100 24/22 A3001=
201203151500 METAR MRLM 151500Z 21004KT 9999 FEW020 SCT110 26/22 A3000=
201203151600 METAR MRLM 151600Z 04007KT 9999 SCT020 SCT110 27/23 A3001=
201203151700 METAR MRLM 151700Z 36004KT 9999 SCT025 SCT110 27/22 A2999=
201203151800 METAR MRLM 151800Z 04005KT 9999 FEW030 SCT120 28/22 A2997=
201203151900 METAR MRLM 151900Z 05005KT 9999 FEW035 BKN130 29/22 A2995=
201203152000 METAR MRLM 152000Z 06004KT 9999 FEW035 SCT130 29/22 A2992=
201203152100 METAR MRLM 152100Z 06010KT 9999 FEW025 BKN110 27/23 A2991=
201203152200 METAR MRLM 152200Z 04005KT 9999 SCT025 BKN110 27/22 A2990=
201203152300 METAR MRLM 152300Z 04003KT 9999 SCT025 BKN100 27/22 A2991=
201203160000 METAR MRLM 160000Z 03008KT 9999 BKN015 26/23 A2992=
201203160100 METAR MRLM NIL=
201203160200 METAR MRLM NIL=
201203160300 METAR MRLM NIL=
201203160400 METAR MRLM NIL=
201203160500 METAR MRLM NIL=
201203160600 METAR MRLM NIL=
201203160700 METAR MRLM NIL=
201203160800 METAR MRLM NIL=
201203160900 METAR MRLM NIL=
201203161000 METAR MRLM NIL=
201203161100 METAR MRLM NIL=
201203161200 METAR MRLM 161200Z 23004KT 9999 BKN007 22/22 A2997=
201203161300 METAR MRLM 161300Z 25004KT 9999 -DZ BKN007 23/22 A2999=
201203161400 METAR MRLM 161400Z 25003KT 9999 -DZ BKN010 23/23 A3002=
201203161500 METAR MRLM 161500Z 20003KT 9999 RA BKN010 SCT090 24/23 A3003=
201203161600 METAR MRLM 161600Z 22003KT 9999 BKN010 25/23 A3003 RE RA=
201203161700 METAR MRLM 161700Z 23004KT 9999 DZ FEW007 BKN010 25/23 A3003=
201203161800 METAR MRLM 161800Z 21004KT 9999 DZ BKN015 27/24 A3000=
201203161900 METAR MRLM 161900Z 23003KT 9999 SCT020 SCT110 28/24 A2997 RE DZ=
201203162000 METAR MRLM 162000Z 09004KT 9999 BKN030 SCT120 29/23 A2995=
201203162100 METAR MRLM 162100Z 08004KT 9999 SCT030 SCT120 28/23 A2993=
201203162200 METAR MRLM 162200Z 33004KT 9999 SCT020 SCT110 27/23 A2993=
201203162300 METAR MRLM 162300Z 24002KT 9999 SCT015 26/24 A2993=
201203170000 METAR MRLM 170000Z 24003KT 9999 BKN010 SCT110 24/22 A2994 RMK TCU DST QDT N HZ AROUND=
201203170100 METAR MRLM NIL=
201203170200 METAR MRLM NIL=
201203170300 METAR MRLM NIL=
201203170400 METAR MRLM NIL=
201203170500 METAR MRLM NIL=
201203170600 METAR MRLM NIL=
201203170700 METAR MRLM NIL=
201203170800 METAR MRLM NIL=
201203170900 METAR MRLM NIL=
201203171000 METAR MRLM NIL=
201203171100 METAR MRLM NIL=
201203171200 METAR MRLM NIL=
201203171300 METAR MRLM 171300Z 23003KT 9999 -DZ BKN007 23/22 A3001=
201203171400 METAR MRLM 171400Z 21003KT 9999 RA BKN007 23/22 A3003=
201203171500 METAR MRLM 171500Z 19003KT 9999 SCT010 SCT100 24/22 A3004 RE RA=
201203171600 METAR MRLM 171600Z 22004KT 9999 SCT015 SCT100 25/22 A3004=
201203171700 METAR MRLM 171700Z 22006KT 9999 FEW020 BKN110 27/22 A3003=
201203171800 METAR MRLM 171800Z 21005KT 9999 SCT030 BKN120 28/22 A3001=
201203171900 METAR MRLM 171900Z 18003KT 9999 SCT035 SCT120 29/22 A2998=
201203172000 METAR MRLM 172000Z 06003KT 9999 FEW030 BKN120 28/22 A2995=
201203172100 METAR MRLM 172100Z 08003KT 9999 FEW030 BKN130 29/22 A2993=
201203172200 METAR MRLM NIL=
201203172300 METAR MRLM NIL=
201203180000 METAR MRLM NIL=
201203180100 METAR MRLM NIL=
201203180200 METAR MRLM NIL=
201203180300 METAR MRLM NIL=
201203180400 METAR MRLM NIL=
201203180500 METAR MRLM NIL=
201203180600 METAR MRLM NIL=
201203180700 METAR MRLM NIL=
201203180800 METAR MRLM NIL=
201203180900 METAR MRLM NIL=
201203181000 METAR MRLM NIL=
201203181100 METAR MRLM NIL=
201203181200 METAR MRLM NIL=
201203181300 METAR MRLM 181300Z 23004KT 6000 RA BKN007 22/22 A3002=
201203181400 METAR MRLM 181400Z 22006KT 9999 DZ VCSH BKN007 22/22 A3003=
201203181500 METAR MRLM 181500Z 22006KT 9999 RA BKN007 22/21 A3005=
201203181600 METAR MRLM 181600Z 22005KT 9999 DZ FEW005 BKN010 23/22 A3005 RE RA=
201203181700 METAR MRLM 181700Z 21006KT 9999 DZ FEW005 BKN010 23/22 A3004=
201203181800 METAR MRLM 181800Z 19004KT 9999 DZ BKN007 23/23 A3003=
201203181900 METAR MRLM 181900Z 20006KT 9999 -RA BKN007 23/22 A3000=
201203182000 METAR MRLM 182000Z 21006KT 9999 SCT010 SCT100 23/22 A2997=
201203182100 METAR MRLM 182100Z 21005KT 9999 SCT015 BKN100 25/22 A2995=
201203182200 METAR MRLM NIL=
201203182300 METAR MRLM NIL=
201203190000 METAR MRLM NIL=
201203190100 METAR MRLM NIL=
201203190200 METAR MRLM NIL=
201203190300 METAR MRLM NIL=
201203190400 METAR MRLM NIL=
201203190500 METAR MRLM NIL=
201203190600 METAR MRLM NIL=
201203190700 METAR MRLM NIL=
201203190800 METAR MRLM NIL=
201203190900 METAR MRLM NIL=
201203191000 METAR MRLM NIL=
201203191100 METAR MRLM NIL=
201203191200 METAR MRLM NIL=
201203191300 METAR MRLM 191300Z 23004KT 9999 FEW010 BKN100 21/20 A2997=
201203191400 METAR MRLM 191400Z 24003KT 9999 FEW015 BKN100 24/22 A2999=
201203191500 METAR MRLM 191500Z 21003KT 9999 FEW020 BKN110 26/22 A3001=
201203191600 METAR MRLM 191600Z 06003KT 9999 FEW030 BKN120 28/22 A3000 RMK HZ AROUND=
201203191700 METAR MRLM 191700Z 04005KT 9999 FEW030 SCT250 28/22 A2998=
201203191800 METAR MRLM 191800Z 04004KT 9999 FEW030 BKN130 28/22 A2995=
201203191900 METAR MRLM 191900Z 05006KT 9999 FEW030 SCT130 2/22 A2993=
201203192000 METAR MRLM 192000Z 07007KT 9999 FEW030 29/23 A2991=
201203192100 METAR MRLM 192100Z 06007KT 9999 FEW030 28/22 A2989 RMK HZ LGT AROUND=
201203192200 METAR MRLM NIL=
201203192300 METAR MRLM NIL=
201203200000 METAR MRLM NIL=
201203200100 METAR MRLM NIL=
201203200200 METAR MRLM NIL=
201203200300 METAR MRLM NIL=
201203200400 METAR MRLM NIL=
201203200500 METAR MRLM NIL=
201203200600 METAR MRLM NIL=
201203200700 METAR MRLM NIL=
201203200800 METAR MRLM NIL=
201203200900 METAR MRLM NIL=
201203201000 METAR MRLM NIL=
201203201100 METAR MRLM NIL=
201203201200 METAR MRLM NIL=
201203201300 METAR MRLM 201300Z 22004KT CAVOK 22/20 A2992=
201203201400 METAR MRLM 201400Z 21004KT CAVOK 26/21 A2994=
201203201500 METAR MRLM 201500Z 09004KT CAVOK 27/21 A2995=
201203201600 METAR MRLM 201600Z 11009KT 9999 FEW035 29/21 A2995=
201203201700 METAR MRLM 201700Z 10010KT 9999 FEW035 29/22 A2993=
201203201800 METAR MRLM 201800Z 10009KT 9999 FEW035 SCT140 29/22 A2990=
201203201900 METAR MRLM 201900Z 09010KT 9999 FEW030 SCT140 29/22 A2988=
201203202000 METAR MRLM 202000Z 08011KT 9999 FEW030 29/23 A2984=
201203202100 METAR MRLM 202100Z 10010KT 9999 FEW030 SCT120 28/22 A2983=
201203202200 METAR MRLM NIL=
201203202300 METAR MRLM NIL=
201203210000 METAR MRLM NIL=
201203210100 METAR MRLM NIL=
201203210200 METAR MRLM NIL=
201203210300 METAR MRLM NIL=
201203210400 METAR MRLM NIL=
201203210500 METAR MRLM NIL=
201203210600 METAR MRLM NIL=
201203210700 METAR MRLM NIL=
201203210800 METAR MRLM NIL=
201203210900 METAR MRLM NIL=
201203211000 METAR MRLM NIL=
201203211100 METAR MRLM NIL=
201203211200 METAR MRLM NIL=
201203211300 METAR MRLM 211300Z 21007KT 9999 SCT015 BKN100 24/21 A2992=
201203211400 METAR MRLM 211400Z 22005KT CAVOK 25/21 A2994=
201203211500 METAR MRLM 211500Z 15003KT CAVOK 28/20 A2994=
201203211600 METAR MRLM 211600Z 10006KT 9999 FEW035 SCT140 28/21 A2995=
201203211700 METAR MRLM 211700Z 09007KT 9999 FEW040 BKN140 29/20 A2994=
201203211800 METAR MRLM 211800Z 10008KT 9999 FEW040 BKN130 30/21 A2992=
201203211900 METAR MRLM 211900Z 10009KT 9999 FEW030 BKN130 28/22 A2989=
201203212000 METAR MRLM 212000Z 09008KT 9999 SCT030 BKN120 28/22 A2988=
201203212100 METAR MRLM 212100Z 09007KT 9999 FEW030 BKN120 28/22 A2987=
201203212200 METAR MRLM NIL=
201203212300 METAR MRLM NIL=
201203220000 METAR MRLM NIL=
201203220100 METAR MRLM NIL=
201203220200 METAR MRLM NIL=
201203220300 METAR MRLM NIL=
201203220400 METAR MRLM NIL=
201203220500 METAR MRLM NIL=
201203220600 METAR MRLM NIL=
201203220700 METAR MRLM NIL=
201203220800 METAR MRLM NIL=
201203220900 METAR MRLM NIL=
201203221000 METAR MRLM NIL=
201203221100 METAR MRLM NIL=
201203221200 METAR MRLM NIL=
201203221300 METAR MRLM 221300Z 20006KT 9999 SCT020 SCT110 25/22 A2996=
201203221400 METAR MRLM 221400Z 36003KT 8000 RA BKN007 23/22 A2998=
201203221500 METAR MRLM 221500Z 25005KT 8000 RA BKN007 23/22 A2999=
201203221600 METAR MRLM 221600Z 21003KT 9999 -DZ SCT010 SCT090 23/23 A3000 RE RA=
201203221700 METAR MRLM 221700Z 18005KT 9999 SCT010 SCT100 25/23 A2999=
201203221800 METAR MRLM 221800Z 21002KT 9999 -DZ BKN020 SCT100 25/22 A2996=
201203221900 METAR MRLM 221900Z 22006KT 9999 SCT020 SCT110 25/22 A2993=
201203222000 METAR MRLM 222000Z 24005KT 9999 FEW030 BKN120 27/23 A2990=
201203222100 METAR MRLM 222100Z 22003KT 9999 SCT025 SCT110 27/22 A2988=
201203222200 METAR MRLM NIL=
201203222300 METAR MRLM NIL=
201203230000 METAR MRLM NIL=
201203230100 METAR MRLM NIL=
201203230200 METAR MRLM NIL=
201203230300 METAR MRLM NIL=
201203230400 METAR MRLM NIL=
201203230500 METAR MRLM NIL=
201203230600 METAR MRLM NIL=
201203230700 METAR MRLM NIL=
201203230800 METAR MRLM NIL=
201203230900 METAR MRLM NIL=
201203231000 METAR MRLM NIL=
201203231100 METAR MRLM NIL=
201203231200 METAR MRLM NIL=
201203231300 METAR MRLM 231300Z 21005KT 9999 BKN007 22/21 A2995=
201203231400 METAR MRLM 231400Z 07007KT 9999 DZ BKN010 24/23 A2997=
201203231500 METAR MRLM 231500Z 05007KT 9999 BKN015 25/22 A2999 RE DZ=
201203231600 METAR MRLM 231600Z 12011KT 9999 BKN020 SCT110 26/23 A2999=
201203231700 METAR MRLM 231700Z 13010KT 9999 SCT020 SCT110 26/22 A2998=
201203231800 METAR MRLM 231800Z 12008KT 9999 SCT030 BKN120 27/22 A2995=
201203231900 METAR MRLM 231900Z 12007KT 9999 SCT030 BKN120 28/21 A2993=
201203232000 METAR MRLM 232000Z 03007KT 9999 SCT025 BKN110 27/22 A2991=
201203232100 METAR MRLM 232100Z 04003KT 9999 FEW030 BKN110 27/21 A2990=
201203232200 METAR MRLM NIL=
201203232300 METAR MRLM NIL=
201203240000 METAR MRLM NIL=
201203240100 METAR MRLM NIL=
201203240200 METAR MRLM NIL=
201203240300 METAR MRLM NIL=
201203240400 METAR MRLM NIL=
201203240500 METAR MRLM NIL=
201203240600 METAR MRLM NIL=
201203240700 METAR MRLM NIL=
201203240800 METAR MRLM NIL=
201203240900 METAR MRLM NIL=
201203241000 METAR MRLM NIL=
201203241100 METAR MRLM NIL=
201203241200 METAR MRLM 241200Z 00000KT 9999 FEW010 BKN100 22/21 A2996=
201203241300 METAR MRLM 241300Z 00000KT 9999 FEW010 BKN100 22/21 A2996=
201203241400 METAR MRLM 241400Z 23003KT CAVOK 24/22 A2998=
201203241500 METAR MRLM 241500Z 08003KT CAVOK 26/22 A2998=
201203241600 METAR MRLM 241600Z 08004KT 9999 FEW030 27/21 A2999=
201203241700 METAR MRLM 241700Z 05006KT 9999 FEW030 28/22 A2998=
201203241800 METAR MRLM 241800Z 04008KT 9999 FEW030 28/22 A2995=
201203241900 METAR MRLM 241900Z 03008KT 9999 FEW030 28/23 A2993=
201203242000 METAR MRLM 242000Z 04007KT 9999 FEW025 BKN120 27/22 A2991=
201203242100 METAR MRLM 242100Z 05005KT 9999 SCT030 SCT120 28/22 A2990=
201203242200 METAR MRLM NIL=
201203242300 METAR MRLM NIL=
201203250000 METAR MRLM NIL=
201203250100 METAR MRLM NIL=
201203250200 METAR MRLM NIL=
201203250300 METAR MRLM NIL=
201203250400 METAR MRLM NIL=
201203250500 METAR MRLM NIL=
201203250600 METAR MRLM NIL=
201203250700 METAR MRLM NIL=
201203250800 METAR MRLM NIL=
201203250900 METAR MRLM NIL=
201203251000 METAR MRLM NIL=
201203251100 METAR MRLM NIL=
201203251200 METAR MRLM NIL=
201203251300 METAR MRLM 251300Z 22004KT CAVOK 22/21 A2996=
201203251400 METAR MRLM 251400Z 20003KT 9999 FEW020 BKN250 26/22 A2998=
201203251500 METAR MRLM 251500Z 09004KT 9999 FEW030 BKN250 27/21 A2999=
201203251600 METAR MRLM 251600Z 09004KT 9999 FEW035 SCT260 28/21 A2999=
201203251700 METAR MRLM 251700Z 07005KT 9999 FEW035 28/21 A2996=
201203251800 METAR MRLM 251800Z 05008KT 9999 FEW080 28/22 A2994=
201203251900 METAR MRLM 251900Z 06008KT 9999 FEW030 28/22 A2992=
201203252000 METAR MRLM NIL=
201203252100 METAR MRLM NIL=
201203252200 METAR MRLM NIL=
201203252300 METAR MRLM NIL=
201203260000 METAR MRLM NIL=
201203260100 METAR MRLM NIL=
201203260200 METAR MRLM NIL=
201203260300 METAR MRLM NIL=
201203260400 METAR MRLM NIL=
201203260500 METAR MRLM NIL=
201203260600 METAR MRLM NIL=
201203260700 METAR MRLM NIL=
201203260800 METAR MRLM NIL=
201203260900 METAR MRLM NIL=
201203261000 METAR MRLM NIL=
201203261100 METAR MRLM NIL=
201203261200 METAR MRLM NIL=
201203261300 METAR MRLM 261300Z 22005KT 9999 FEW015 BKN250 22/20 A2996=
201203261400 METAR MRLM 261400Z 10002KT 9999 FEW030 BKN250 27/20 A2998=
201203261500 METAR MRLM 261500Z 11003KT 9999 FEW030 BKN250 27/21 A2999=
201203261600 METAR MRLM 261600Z 09005KT 9999 FEW030 BKN260 28/21 A3000=
201203261700 METAR MRLM 261700Z 08006KT 9999 FEW030 BKN260 28/22 A2998=
201203261800 METAR MRLM 261800Z 07007KT 9999 FEW030 BKN250 28/21 A2996=
201203261900 METAR MRLM 261900Z 06007KT 9999 FEW040 SCT250 28/20 A2993=
201203262000 METAR MRLM 262000Z 06007KT 9999 FEW040 SCT250 28/21 A2990=
201203262100 METAR MRLM 262100Z 05006KT 9999 FEW035 SCT250 28/22 A2989=
201203262200 METAR MRLM NIL=
201203262300 METAR MRLM NIL=
201203270000 METAR MRLM NIL=
201203270100 METAR MRLM NIL=
201203270200 METAR MRLM NIL=
201203270300 METAR MRLM NIL=
201203270400 METAR MRLM NIL=
201203270500 METAR MRLM NIL=
201203270600 METAR MRLM NIL=
201203270700 METAR MRLM NIL=
201203270800 METAR MRLM NIL=
201203270900 METAR MRLM NIL=
201203271000 METAR MRLM NIL=
201203271100 METAR MRLM NIL=
201203271200 METAR MRLM NIL=
201203271300 METAR MRLM 271300Z 21005KT 9999 FEW020 23/19 A2996=
201203271400 METAR MRLM 271400Z 22003KT 9999 FEW030 27/22 A2998=
201203271500 METAR MRLM 271500Z 04003KT 9999 FEW030 28/22 A2999=
201203271600 METAR MRLM 271600Z 05005KT 9999 FEW030 28/22 A3000=
201203271700 METAR MRLM 271700Z 04007KT 9999 FEW030 28/22 A2998=
201203271800 METAR MRLM 271800Z 06007KT 9999 FEW035 29/22 A2996=
201203271900 METAR MRLM 271900Z 04005KT 9999 FEW035 SCT140 29/22 A2994=
201203272000 METAR MRLM 272000Z 03004KT 9999 FEW030 BKN130 28/22 A2992=
201203272100 METAR MRLM 272100Z 01005KT 9999 FEW025 BKN120 28/23 A2990=
201203272200 METAR MRLM NIL=
201203272300 METAR MRLM NIL=
201203280000 METAR MRLM NIL=
201203280100 METAR MRLM NIL=
201203280200 METAR MRLM NIL=
201203280300 METAR MRLM NIL=
201203280400 METAR MRLM NIL=
201203280500 METAR MRLM NIL=
201203280600 METAR MRLM NIL=
201203280700 METAR MRLM NIL=
201203280800 METAR MRLM NIL=
201203280900 METAR MRLM NIL=
201203281000 METAR MRLM NIL=
201203281100 METAR MRLM NIL=
201203281200 METAR MRLM NIL=
201203281300 METAR MRLM 281300Z 21006KT 7000 RA FEW006 BKN010 23/22 A2994=
201203281400 METAR MRLM 281400Z 21005KT 7000 RA FEW006 BKN010 23/23 A2997=
201203281500 METAR MRLM 281500Z 21005KT 9999 BKN010 24/23 A2997 RE RZ=
201203281600 METAR MRLM 281600Z 22003KT 9999 BKN007 26/25 A2997=
201203281700 METAR MRLM 281700Z 10002KT 9999 BKN015 SCT100 28/23 A2996=
201203281800 METAR MRLM 281800Z 09003KT 9999 BKN025 SCT100 28/23 A2993=
201203281835 METAR MRLM 281835Z 10005KT 9999 RA BKN015 25/23 A2992=
201203281900 METAR MRLM 281900Z 12013KT 7000 RA BKN010 25/23 A2992=
201203282000 METAR MRLM 282000Z 22006KT 9999 SCT015 SCT090 24/22 A2989 RE RA=
201203282100 METAR MRLM 282100Z 18003KT 9999 BKN015 25/22 A2987=
201203282200 METAR MRLM NIL=
201203282300 METAR MRLM NIL=
201203290000 METAR MRLM NIL=
201203290100 METAR MRLM NIL=
201203290200 METAR MRLM NIL=
201203290300 METAR MRLM NIL=
201203290400 METAR MRLM NIL=
201203290500 METAR MRLM NIL=
201203290600 METAR MRLM NIL=
201203290700 METAR MRLM NIL=
201203290800 METAR MRLM NIL=
201203290900 METAR MRLM NIL=
201203291000 METAR MRLM NIL=
201203291100 METAR MRLM NIL=
201203291200 METAR MRLM 291200Z 22005KT 9999 FEW015 BKN300 22/21 A2990=
201203291300 METAR MRLM 291300Z 22005KT 9999 FEW015 BKN300 24/21 A2991=
201203291400 METAR MRLM 291400Z 30003KT 9999 FEW015 BKN300 28/23 A2992=
201203291500 METAR MRLM 291500Z 08002KT 9999 FEW015 BKN300 29/23 A2992=
201203291600 METAR MRLM 291600Z 07004KT 9999 FEW028 SCT300 28/23 A2992=
201203291700 METAR MRLM 291700Z 07005KT 9999 FEW025 28/23 A2991=
201203291800 METAR MRLM 291800Z 04007KT 9999 SCT025 SCT090 28/23 A2989=
201203291900 METAR MRLM 291900Z 03007KT 9999 BKN025 SCT090 29/24 A2987=
201203292000 METAR MRLM 292000Z 03008KT 9999 BKN030 SCT090 29/23 A2985=
201203292100 METAR MRLM 292100Z 02007KT 9999 BKN028 29/23 A2985=
201203292200 METAR MRLM 292200Z 36009KT 9999 OVC025 28/23 A2984=
201203292300 METAR MRLM 292300Z 01010KT 9999 BKN020 28/24 A2986=
201203292356 METAR MRLM 3000Z 02011KT 9999 BKN020 28/23 A2988=
201203300000 METAR MRLM NIL=
201203300100 METAR MRLM NIL=
201203300200 METAR MRLM NIL=
201203300300 METAR MRLM NIL=
201203300400 METAR MRLM NIL=
201203300500 METAR MRLM NIL=
201203300600 METAR MRLM NIL=
201203300700 METAR MRLM NIL=
201203300800 METAR MRLM NIL=
201203300900 METAR MRLM NIL=
201203301000 METAR MRLM NIL=
201203301100 METAR MRLM NIL=
201203301200 METAR MRLM 301200Z 06016KT 5000 RA BKN015 SCT090 24/23 A2993=
201203301300 METAR MRLM 301300Z 04009KT 6000 RA SCT015 SCT090 23/22 A2994=
201203301400 METAR MRLM 301400Z 23004KT 9999 SCT020 SCT090 24/23 A2995 RERA=
201203301500 METAR MRLM 301500Z 26002KT 9999 FEW035 BKN090 26/23 A2995=
201203301600 METAR MRLM 301600Z 08003KT 9999 SCT025 BKN100 28/23 A2995=
201203301700 METAR MRLM 301700Z 09004KT 9999 FEW025 SCT040 28/23 A2994=
201203301800 METAR MRLM 301800Z 10005KT 9999 FEW030 BKN090 29/23 A2991=
201203301900 METAR MRLM 301900Z 09005KT 9999 FEW030 BKN090 29/23 A2989=
201203302000 METAR MRLM 302000Z 07006KT 9999 FEW030 BKN280 29/23 A2989=
201203302100 METAR MRLM 302100Z 04005KT 9999 FEW028 BKN280 29/24 A2986=
201203302200 METAR MRLM 302200Z 05007KT 9999 FEW025 BKN270 28/23 A2985=
201203302300 METAR MRLM 302300Z 02006KT 9999 BKN020 28/24 A2986=
201203302358 METAR MRLM 3100Z 04003KT 9999 OVC022 28/23 A2989=
201203310000 METAR MRLM NIL=
201203310100 METAR MRLM NIL=
201203310200 METAR MRLM NIL=
201203310300 METAR MRLM NIL=
201203310400 METAR MRLM NIL=
201203310500 METAR MRLM NIL=
201203310600 METAR MRLM NIL=
201203310700 METAR MRLM NIL=
201203310800 METAR MRLM NIL=
201203310900 METAR MRLM NIL=
201203311000 METAR MRLM NIL=
201203311100 METAR MRLM NIL=
201203311200 METAR MRLM 311200Z 22003KT 9999 BKN007 23/22 A2993=
201203311300 METAR MRLM 311300Z 23003KT 9999 DZ VCSH BKN007 23/21 A2996=
201203311400 METAR MRLM 311400Z 25004KT 9999 SCT010 SCT090 24/22 A2997=
201203311500 METAR MRLM 311500Z 24004KT 9999 BKN020 SCT100 26/22 A2997=
201203311600 METAR MRLM 311600Z 14002KT 9999 FEW025 BKN110 28/23 A2996=
201203311700 METAR MRLM 311700Z 09009KT 9999 SCT020 BKN110 27/24 A2996=
201203311800 METAR MRLM 311800Z 10003KT 9999 FEW030 BKN110 28/22 A2992=
201203311900 METAR MRLM 311900Z 06003KT 9999 FEW030 BKN120 29/23 A2988=
201203312000 METAR MRLM 312000Z 04004KT 9999 FEW035 BKN120 29/22 A2986=
201203312100 METAR MRLM 312100Z 03004KT 9999 SCT030 BKN120 29/23 A2985=
201203312200 METAR MRLM 312200Z 03003KT 9999 FEW025 BKN110 28/24 A2984=
201203312300 METAR MRLM 312300Z 24002KT 9999 SCT020 BKN110 27/23 A2985=
201204010000 METAR MRLM 010000Z 24003KT 9999 SCT020 BKN100 26/23 A2986=
201204010100 METAR MRLM NIL=
201204010200 METAR MRLM NIL=
201204010300 METAR MRLM NIL=
201204010400 METAR MRLM NIL=
201204010500 METAR MRLM NIL=
201204010600 METAR MRLM NIL=
201204010700 METAR MRLM NIL=
201204010800 METAR MRLM NIL=
201204010900 METAR MRLM NIL=
201204011000 METAR MRLM NIL=
201204011100 METAR MRLM NIL=
201204011200 METAR MRLM 011200Z 24006KT CAVOK 22/21 A2987=
201204011300 METAR MRLM 011300Z 23004KT CAVOK 23/21 A2988=
201204011400 METAR MRLM 011400Z 26002KT CAVOK 28/23 A2989=
201204011500 METAR MRLM 011500Z 04003KT CAVOK 29/23 A2990=
201204011600 METAR MRLM 011600Z 02006KT 9999 FEW030 BKN240 29/23 A2991=
201204011700 METAR MRLM 011700Z 03005KT 9999 FEW30 BKN250 29/24 A2989=
201204011800 METAR MRLM 011800Z 04006KT 9999 FEW025 BKN250 29/24 A2987=
201204011900 METAR MRLM 011900Z 04005KT 9999 FEW030 SCT140 29/24 2984=
201204012000 METAR MRLM 012000Z 05004KT 9999 FEW025 BKN130 29/24 A2982=
201204012100 METAR MRLM 012100Z 05004KT 9999 FEW025 SCT130 29/24 A2980=
201204012200 METAR MRLM 012200Z 04004KT 9999 FEW025 BKN130 29/24 A2980=
201204012300 METAR MRLM 012300Z 01004KT 9999 SCT020 BKN120 28/24 A2981=
201204020000 METAR MRLM 020000Z 02003KT 9999 SCT020 BKN120 28/24 A2982=
201204020100 METAR MRLM NIL=
201204020200 METAR MRLM NIL=
201204020300 METAR MRLM NIL=
201204020400 METAR MRLM NIL=
201204020500 METAR MRLM NIL=
201204020600 METAR MRLM NIL=
201204020700 METAR MRLM NIL=
201204020800 METAR MRLM NIL=
201204020900 METAR MRLM NIL=
201204021000 METAR MRLM NIL=
201204021100 METAR MRLM NIL=
201204021200 METAR MRLM 021200Z 27004KT 9999 DZ BKN025 25/23 A2983=
201204021300 METAR MRLM 021300Z 23006KT 9999 BKN030 24/23 A2986=
201204021400 METAR MRLM 021400Z 25002KT 9999 SCT025 SCT090 26/23 A2988=
201204021500 METAR MRLM 021500Z 24002KT CAVOK 28/24 A2988=
201204021600 METAR MRLM 021600Z 05004KT 9999 FEW025 BKN280 29/24 A2987=
201204021700 METAR MRLM 021700Z 05006KT 9999 FEW028 BKN280 29/24 A2986=
201204021800 METAR MRLM 021800Z 02007KT 9999 FEW025 BKN270 30/24 A2984=
201204021900 METAR MRLM 021900Z 02004KT 9999 FEW025 SCT090 29/24 A2981=
201204022000 METAR MRLM 022000Z 03006KT 9999 FEW025 SCT100 29/24 A2979=
201204022100 METAR MRLM 022100Z 05005KT 9999 FEW025 BKN270 29/24 A2978=
201204022200 METAR MRLM 022200Z 03003KT 9999 FEW025 SCT140 29/24 A2977=
201204022300 METAR MRLM 022300Z 03003KT 9999 FEW020 SCT140 28/24 A2978=
201204022352 METAR MRLM 030000Z 03002KT 9999 FEW020 SCT130 28/24 A2980=
201204030000 METAR MRLM 030000Z 03002KT 9999 FEW020 SCT130 28/24 A2980=
201204030100 METAR MRLM NIL=
201204030200 METAR MRLM NIL=
201204030300 METAR MRLM NIL=
201204030400 METAR MRLM NIL=
201204030500 METAR MRLM NIL=
201204030600 METAR MRLM NIL=
201204030700 METAR MRLM NIL=
201204030800 METAR MRLM NIL=
201204030900 METAR MRLM NIL=
201204031000 METAR MRLM NIL=
201204031100 METAR MRLM NIL=
201204031200 METAR MRLM 031200Z 22004KT 9999 BKN030 24/23 A2986=
201204031300 METAR MRLM 031300Z 25002KT 9999 BKN030 25/23 A2987=
201204031400 METAR MRLM 031400Z 23003KT 9999 BKN030 26/24 A2990=
201204031500 METAR MRLM 031500Z 21003KT 9999 FEW020 SCT035 28/24 A2991=
201204031600 METAR MRLM 031600Z 21003KT 9999 FEW025 SCT040 29/25 A2990=
201204031700 METAR MRLM 031700Z 07006KT 9999 FEW025 BKN100 30/25 A2990=
201204031800 METAR MRLM 031800Z 01010KT 9999 FEW025 SCT120 30/25 A2988=
201204031900 METAR MRLM 031900Z 35008KT 9999 DZ VCTS SCT010CB SCT010 28/25 A2983=
201204032000 METAR MRLM 032000Z 35005KT 9999 SCT020 SCT130 28/25 A2981 RETS=
201204032100 METAR MRLM 032100Z 29003KT 9999 FEW015 BKN025 29/24 A2981=
201204032200 METAR MRLM 032200Z 28004KT 9999 FEW018 SCT025 28/24 A2980=
201204032300 METAR MRLM 032300Z 24003KT 9999 +DZ SCT010 SCT025 27/25 A2982=
201204032354 METAR MRLM 040000Z 22003KT 9999 VCTS FEW010CB SCT015 SCT120 26/24 A2983=
201204040000 METAR MRLM 040000Z 22003KT 9999 VCTS FEW010CB SCT015 SCT120 26/24 A2983=
201204040100 METAR MRLM NIL=
201204040200 METAR MRLM NIL=
201204040300 METAR MRLM NIL=
201204040400 METAR MRLM NIL=
201204040500 METAR MRLM NIL=
201204040600 METAR MRLM NIL=
201204040700 METAR MRLM NIL=
201204040800 METAR MRLM NIL=
201204040900 METAR MRLM NIL=
201204041000 METAR MRLM NIL=
201204041100 METAR MRLM NIL=
201204041200 METAR MRLM 041200Z 25004KT 9999 BKN015 24/23 A2987=
201204041300 METAR MRLM 041300Z 22003KT 9999 BKN015 SCT100 24/23 A2988=
201204041400 METAR MRLM 041400Z 29006KT 9999 SCT020 SCT110 26/23 A2990=
201204041500 METAR MRLM NIL=
201204041600 METAR MRLM 041600Z 32006KT 9999 SCT030 SCT120 30/24 A2989=
201204041700 METAR MRLM 041700Z 32007KT 9999 SCT030 SCT120 29/24 A2988=
201204041800 METAR MRLM 041800Z 36006KT 9999 SCT030 SCT130 30/24 A2986=
201204041900 METAR MRLM 041900Z 03005KT 9999 BKN025 SCT120 29/24 A2984=
201204042000 METAR MRLM 042000Z 02007KT 9999 SCT025 SCT120 29/25 A2981=
201204042100 METAR MRLM 042100Z 03007KT 9999 SCT020 BKN110 28/24 A2980=
201204042200 METAR MRLM 042200Z 08005KT 9999 BKN020 SCT110 28/25 A2979=
201204042300 METAR MRLM 042300Z 08004KT 9999 BKN020 SCT110 28/25 A2981=
201204050000 METAR MRLM 050000Z 23002KT 9999 BKN015 27/25 A2982=
201204050100 METAR MRLM NIL=
201204050200 METAR MRLM NIL=
201204050300 METAR MRLM NIL=
201204050400 METAR MRLM NIL=
201204050500 METAR MRLM NIL=
201204050600 METAR MRLM NIL=
201204050700 METAR MRLM NIL=
201204050800 METAR MRLM NIL=
201204050900 METAR MRLM NIL=
201204051000 METAR MRLM NIL=
201204051100 METAR MRLM NIL=
201204051200 METAR MRLM 051200Z 24003KT CAVOK 23/22 A2986=
201204051300 METAR MRLM 051300Z 29002KT CAVOK 24/23 A2988=
201204051400 METAR MRLM 051400Z 25003KT CAVOK 29/24 A2990=
201204051500 METAR MRLM 051500Z 30005KT CAVOK 29/24 A2990=
201204051600 METAR MRLM 051600Z 30004KT 99999 SCT020 SCT120 29/24 A2991=
201204051700 METAR MRLM 051700Z 02006KT 9999 SCT020 BKN120 29/25 A2989=
201204051800 METAR MRLM 051800Z 36010KT 9999 SCT025 BKN120 29/25 A2988=
201204051900 METAR MRLM 051900Z 03005KT 9999 SCT025 SCT130 29/25 A2985=
201204052000 METAR MRLM 052000Z 34007KT 9999 FEW020 SCT120 29/24 A2983=
201204052100 METAR MRLM 052100Z 35006KT 9999 FEW020 SCT120 28/24 A2982=
201204052200 METAR MRLM 052200Z 34005KT 9999 SCT020 28/25 A2981=
201204052300 METAR MRLM 052300Z 00000KT 9999 SCT015 SCT110 28/25 A2983=
201204060000 METAR MRLM 060000Z 35003KT 9999 -DZ VCTS FEW010 CB BKN015 26/24 A2985=
201204060100 METAR MRLM NIL=
201204060200 METAR MRLM NIL=
201204060300 METAR MRLM NIL=
201204060400 METAR MRLM NIL=
201204060500 METAR MRLM NIL=
201204060600 METAR MRLM NIL=
201204060700 METAR MRLM NIL=
201204060800 METAR MRLM NIL=
201204060900 METAR MRLM NIL=
201204061000 METAR MRLM NIL=
201204061100 METAR MRLM NIL=
201204061200 METAR MRLM 061200Z 25002KT 9999 FEW015 BKN025 24/23 A2990=
201204061300 METAR MRLM 061300Z 00000KT 9999 BKN015 25/24 A2991=
201204061400 METAR MRLM 061400Z 19004KT 9999 BKN015 25/24 A2993=
201204061500 METAR MRLM 061500Z 22003KT 9999 SCT015 SCT025 27/24 A2993=
201204061600 METAR MRLM 061600Z 08003KT 9999 BKN025 29/24 A2994=
201204061700 METAR MRLM 061700Z 01006KT 9999 SCT025 SCT070 29/25 A2992=
201204061800 METAR MRLM 061800Z 01006KT 9999 SCT025 SCT280 30/24 A2990=
201204061900 METAR MRLM 061900Z 01007KT 9999 BKN025 30/25 A2988=
201204062000 METAR MRLM 062000Z 02009KT 9999 BKN025 SCT280 30/25 A2984=
201204062100 METAR MRLM 062100Z 02009KT 9999 BKN025 SCT280 29/25 A2983=
201204062200 METAR MRLM 062200Z 02007KT 9999 BKN020 29/24 A2984=
201204062204 METAR MRLM 062200 02007KT 9999 BKN020 29/24 A2984=
201204062300 METAR MRLM 062300Z 02005KT 9999 BKN020 SCT280 28/24 A2984=
201204062350 METAR MRLM 070000Z 03004KT 9999 BKN020 28/24 A2986=
201204070000 METAR MRLM 070000Z 03004KT 9999 BKN020 28/24 A2986=
201204070100 METAR MRLM NIL=
201204070200 METAR MRLM NIL=
201204070300 METAR MRLM NIL=
201204070400 METAR MRLM NIL=
201204070500 METAR MRLM NIL=
201204070600 METAR MRLM NIL=
201204070700 METAR MRLM NIL=
201204070800 METAR MRLM NIL=
201204070900 METAR MRLM NIL=
201204071000 METAR MRLM NIL=
201204071100 METAR MRLM NIL=
201204071200 METAR MRLM 071200Z 23004KT 9999 SCT025 SCT080 23/22 A2994=
201204071300 METAR MRLM 071300Z 24004KT 9999 BKN025 SCT080 24/22 A2995=
201204071400 METAR MRLM 071400Z 25005KT 9999 BKN025 26/23 A2996=
201204071500 METAR MRLM 071500Z 07002KT 9999 FEW030 SCT280 30/23 A2997=
201204071600 METAR MRLM 071600Z 06003KT 9999 FEW030 BKN280 29/24 A2996=
201204071657 METAR MRLM 071657Z 04006KT 9999 FEW025 BKN280 29/24 A2995=
201204071700 METAR MRLM 04006KT 9999 FEW025 BKN280 29/24 A2995=
201204071800 METAR MRLM 071800Z 04007KT 9999 FEW025 BKN280 30/25 A2993=
201204071900 METAR MRLM 071900Z 04007KT 9999 OVC025 30/25 A2991=
201204072000 METAR MRLM 072000Z 04008KT 9999 BKN025 30/24 A2988=
201204072100 METAR MRLM 072100Z 04007KT 9999 BKN025 29/24 A2987=
201204072200 METAR MRLM 072200Z 04005KT 9999 SCT025 SCT140 29/23 A2987=
201204072300 METAR MRLM 072300Z 04006KT 9999 SCT025 SCT140 28/24 A2989=
201204072352 METAR MRLM 080000Z 05005KT 9999 BKN020 28/24 A2990=
201204080000 METAR MRLM 080000Z 05005KT 9999 BKN020 28/24 A2990=
201204080100 METAR MRLM NIL=
201204080200 METAR MRLM NIL=
201204080300 METAR MRLM NIL=
201204080400 METAR MRLM NIL=
201204080500 METAR MRLM NIL=
201204080600 METAR MRLM NIL=
201204080700 METAR MRLM NIL=
201204080800 METAR MRLM NIL=
201204080900 METAR MRLM NIL=
201204081000 METAR MRLM NIL=
201204081100 METAR MRLM NIL=
201204081200 METAR MRLM 081200Z 29004KT 9999 -DZ BKN006 24/23 A2995=
201204081300 METAR MRLM 081300Z 23003KT 9999 DZ BKN006 24/23 A2996=
201204081400 METAR MRLM 081400Z 25003KT 9999 BKN007 25/24 A2999 RE DZ=
201204081500 METAR MRLM 081500Z 27004KT 9999 BKN010 26/24 A3001=
201204081600 METAR MRLM 081600Z 31004KT 9999 BKN020 28/24 A3001=
201204081700 METAR MRLM 081700Z 01008KT 9999 BKN025 SCT110 29/24 A3000=
201204081800 METAR MRLM 081800Z 03008KT 9999 BKN030 29/24 A2998=
201204081900 METAR MRLM 081900Z 07006KT 9999 BKN030 29/23 A2996=
201204082000 METAR MRLM 082000Z 19004KT 9999 BKN025 29/24 A2994=
201204082100 METAR MRLM 082100Z 08003KT 9999 BKN030 29/23 A2993=
201204082200 METAR MRLM 082200Z 05004KT 9999 RA BKN025 28/22 A2992=
201204082300 METAR MRLM 082300Z 24002KT 9999 SCT010 25/24 A2993 RE RA=
201204090000 METAR MRLM 090000Z 25003KT 9999 SCT010 SCT240 25/24 A2994=
201204090100 METAR MRLM NIL=
201204090200 METAR MRLM NIL=
201204090300 METAR MRLM NIL=
201204090400 METAR MRLM NIL=
201204090500 METAR MRLM NIL=
201204090600 METAR MRLM NIL=
201204090700 METAR MRLM NIL=
201204090800 METAR MRLM NIL=
201204090900 METAR MRLM NIL=
201204091000 METAR MRLM NIL=
201204091100 METAR MRLM NIL=
201204091200 METAR MRLM 091200Z 23005KT 9999 FEW010 21/20 A2994=
201204091300 METAR MRLM 091300Z 24008KT 9999 FEW015 23/21 A2995=
201204091400 METAR MRLM 091400Z 25003KT 9999 FEW025 27/23 A2997=
201204091500 METAR MRLM 091500Z 03005KT 9999 SCT025 SCT130 28/23 A2997=
201204091600 METAR MRLM 091600Z 03006KT 9999 FEW030 SCT130 28/23 A2997=
201204091700 METAR MRLM 091700Z 01007KT FEW030 29/23 A2996=
201204091800 METAR MRLM 091800Z 03007KT 9999 FEW030 29/23 A2993=
201204091900 METAR MRLM 091900Z 04007KT 9999 FEW030 29/23 A2990=
201204092000 METAR MRLM 092000Z 03006KT 9999 SCT030 29/23 A2989=
201204092100 METAR MRLM 092100Z 03006KT 9999 SCT030 29/23 A2988=
201204092200 METAR MRLM 092200Z 02004KT 9999 BKN030 28/23 A2986=
201204092300 METAR MRLM 092300Z 02004KT 9999 BKN025 28/22 A2987=
201204100000 METAR MRLM 100000Z 23005KT 9999 BKN015 25/23 A2989=
201204100100 METAR MRLM NIL=
201204100200 METAR MRLM NIL=
201204100300 METAR MRLM NIL=
201204100400 METAR MRLM NIL=
201204100500 METAR MRLM NIL=
201204100600 METAR MRLM NIL=
201204100700 METAR MRLM NIL=
201204100800 METAR MRLM NIL=
201204100900 METAR MRLM NIL=
201204101000 METAR MRLM NIL=
201204101100 METAR MRLM NIL=
201204101200 METAR MRLM 101200Z 23004KT 9999 FEW015 BKN280 21/21 A2995=
201204101300 METAR MRLM 101300Z 21004KT CAVOK 24/22 A2996=
201204101400 METAR MRLM 101400Z 21004KT CAVOK 27/22 A2997=
201204101500 METAR MRLM 101500Z 09005KT 9999 FEW030 BKN280 29/22 A2997=
201204101600 METAR MRLM 101600Z 06004KT 9999 FEW040 BKN280 29/21 A2995=
201204101700 METAR MRLM 101700Z 05007KT 9999 FEW040 BKN280 29/21 A2995=
201204101800 METAR MRLM 101800Z 04009KT 9999 FEW038 SCT270 29/22 A2993=
201204101900 METAR MRLM 101900Z 03010KT 9999 FEW038 29/22 A2993=
201204102000 METAR MRLM 102000Z 03008KT 9999 FEW035 29/23 A2988=
201204102100 METAR MRLM 102100Z 03008KT 9999 FEW035 29/22 A2988=
201204102200 METAR MRLM 102200Z 03006KT 9999 FEW035 SCT270 29/22 A2988=
201204102300 METAR MRLM 102300Z 05005KT 9999 BKN025 28/23 A2989=
201204102354 METAR MRLM 110000Z 05008KT 9999 BKN030 28/22 A2990=
201204110000 METAR MRLM 110000Z 05008KT 9999 BKN030 28/22 A2990=
201204110100 METAR MRLM NIL=
201204110200 METAR MRLM NIL=
201204110300 METAR MRLM NIL=
201204110400 METAR MRLM NIL=
201204110500 METAR MRLM NIL=
201204110600 METAR MRLM NIL=
201204110700 METAR MRLM NIL=
201204110800 METAR MRLM NIL=
201204110900 METAR MRLM NIL=
201204111000 METAR MRLM NIL=
201204111100 METAR MRLM NIL=
201204111200 METAR MRLM 111200Z 24004KT 9999 FEW015 BKN025 23/22 A2998=
201204111300 METAR MRLM 111300Z 25004KT 9999 FEW015 BKN030 23/22 A3000=
201204111400 METAR MRLM 111400Z 23003KT 9999 FEW020 BKN080 27/23 A3002=
201204111500 METAR MRLM 111500Z 07004KT 9999 FEW020 BKN120 27/23 A3002=
201204111600 METAR MRLM 111600Z 07004KT 9999 FEW030 SCT140 28/22 A3001=
201204111700 METAR MRLM 111700Z 06005KT 9999 FEW030 BKN130 28/22 A3001=
201204111800 METAR MRLM 111800Z 05005KT 9999 FEW035 BKN140 29/22 A2999=
201204111900 METAR MRLM 111900Z 06005KT 9999 FEW035 BKN120 29/21 A2997=
201204112000 METAR MRLM 112000Z 04006KT 9999 FEW035 BKN120 29/22 A2994=
201204112100 METAR MRLM 112100Z 04005KT 9999 FEW035 SCT110 29/22 A2993=
201204112200 METAR MRLM 112200Z 06004KT 9999 FEW035 BKN120 28/22 A2992=
201204112300 METAR MRLM 112300Z 04004KT 9999 FEW030 SCT130 28/22 A2993=
201204112356 METAR MRLM 120000Z 00000KT CAVOK 26/22 A2994=
201204120000 METAR MRLM 120000Z 00000KT CAVOK 26/22 A2994=
201204120100 METAR MRLM NIL=
201204120200 METAR MRLM NIL=
201204120300 METAR MRLM NIL=
201204120400 METAR MRLM NIL=
201204120500 METAR MRLM NIL=
201204120600 METAR MRLM NIL=
201204120700 METAR MRLM NIL=
201204120800 METAR MRLM NIL=
201204120900 METAR MRLM NIL=
201204121000 METAR MRLM NIL=
201204121100 METAR MRLM NIL=
201204121200 METAR MRLM 121200Z 24004KT 9999 FEW015 SCT120 22/21 A2998=
201204121300 METAR MRLM 121300Z 23004KT 9999 FEW020 25/22 A3000=
201204121400 METAR MRLM 121400Z 00000KT 9999 FEW030 28/23 A3000=
201204121500 METAR MRLM 121500Z 07005KT 9999 FEW030 28/23 A3000=
201204121600 METAR MRLM 121600Z 09006KT 9999 FEW030 SCT140 28/23 A3000=
201204121700 METAR MRLM 121700Z 06006KT 9999 FEW030 29/23 A3000=
201204121800 METAR MRLM 121800Z 06007KT 9999 FEW030 29/23 A2998=
201204121900 METAR MRLM 121900Z 06007KT 9999 FEW030 29/23 A2995=
201204122000 METAR MRLM 122000Z 06007KT 9999 FEW040 29/21 A2994=
201204122100 METAR MRLM 122100Z 06006KT CAVOK 29/21 A2992=
201204122200 METAR MRLM 122200Z 05005KT CAVOK 29/21 A2991=
201204122300 METAR MRLM 122300Z 07005KT 9999 FEW035 BKN250 28/21 A2993=
201204130000 METAR MRLM 130000Z 09004KT 9999 FEW025 BKN250 27/21 A2994=
201204130100 METAR MRLM NIL=
201204130200 METAR MRLM NIL=
201204130300 METAR MRLM NIL=
201204130400 METAR MRLM NIL=
201204130500 METAR MRLM NIL=
201204130600 METAR MRLM NIL=
201204130700 METAR MRLM NIL=
201204130800 METAR MRLM NIL=
201204130900 METAR MRLM NIL=
201204131000 METAR MRLM NIL=
201204131100 METAR MRLM NIL=
201204131200 METAR MRLM 131200Z 23005KT CAVOK 22/19 A2997=
201204131300 METAR MRLM 131300Z 23004KT CAVOK 24/20 A2998=
201204131400 METAR MRLM 131400Z 23003KT CAVOK 27/21 A3000=
201204131500 METAR MRLM 131500Z 09003KT 9999 FEW040 29/20 A3001=
201204131600 METAR MRLM 131600Z 08004KT 9999 FEW040 29/22 A3001=
201204131700 METAR MRLM 131700Z 07006KT 9999 FEW040 29/22 A2999=
201204131800 METAR MRLM 131800Z 05008KT 9999 FEW035 29/22 A2998=
201204131900 METAR MRLM 131900Z 05006KT 9999 FEW035 29/22 A2995=
201204132000 METAR MRLM 132000Z 05005KT 9999 FEW035 29/22 A2993=
201204132100 METAR MRLM 132100Z 05005KT 9999 FEW030 SCT130 28/22 A2992=
201204132200 METAR MRLM 132200Z 06003KT 9999 FEW030 BKN120 28/22 A2991=
201204132300 METAR MRLM 132300Z 06003KT 9999 FEW030 BKN120 28/22 A2992=
201204140000 METAR MRLM 140000Z 09003KT 9999 SCT025 BKN110 27/22 A2993 RMK HZ LGT AROUND=
201204140100 METAR MRLM NIL=
201204140200 METAR MRLM NIL=
201204140300 METAR MRLM NIL=
201204140400 METAR MRLM NIL=
201204140500 METAR MRLM NIL=
201204140600 METAR MRLM NIL=
201204140700 METAR MRLM NIL=
201204140800 METAR MRLM NIL=
201204140900 METAR MRLM NIL=
201204141000 METAR MRLM NIL=
201204141100 METAR MRLM NIL=
201204141200 METAR MRLM 141200Z 24004KT 9999 FEW015 BKN280 22/20 A2998=
201204141256 METAR MRLM 151300Z 22005KT 9999 SCT015 SCT280 23/21 A3000=
201204141300 METAR MRLM NIL=
201204141400 METAR MRLM 141400Z 23002KT 9999 FEW015 SCT080 26/23 A3002=
201204141500 METAR MRLM 141500Z 09004KT 9999 FEW035 BKN280 29/23 A3001=
201204141600 METAR MRLM 141600Z 08005KT 9999 FEW030 BKN280 29/23 A3001=
201204141700 METAR MRLM 141700Z 07008KT 9999 FEW030 BKN280 29/23 A2999=
201204141800 METAR MRLM 141800Z 06010KT 9999 FEW030 BKN280 29/23 A2997=
201204141900 METAR MRLM 141900Z 05007KT 9999 FEW030 SCT080 29/23 A2994=
201204142000 METAR MRLM 142000Z 07006KT 9999 FEW035 SCT080 29/22 A2991=
201204142100 METAR MRLM 142100Z 06005KT 9999 FEW030 SCT140 29/23 A2989=
201204142200 METAR MRLM 142200Z 05004KT 9999 FEW030 BKN280 29/23 A2988=
201204142300 METAR MRLM 142300Z 07002KT 9999 FEW030 BKN280 29/23 A2989=
201204142357 METAR MRLM 150000Z 12003KT 9999 FEW025 BKN280 27/22 A2990=
201204150000 METAR MRLM 150000Z 12003KT 9999 FEW025 BKN280 27/22 A2990=
201204150100 METAR MRLM NIL=
201204150200 METAR MRLM NIL=
201204150300 METAR MRLM NIL=
201204150400 METAR MRLM NIL=
201204150500 METAR MRLM NIL=
201204150600 METAR MRLM NIL=
201204150700 METAR MRLM NIL=
201204150800 METAR MRLM NIL=
201204150900 METAR MRLM NIL=
201204151000 METAR MRLM NIL=
201204151100 METAR MRLM NIL=
201204151200 METAR MRLM 151200Z 24004KT 9999 FEW015 BKN025 22/20 A2996=
201204151300 METAR MRLM 151300Z 23003KT 9999 FEW015 BKN030 23/21 A2997=
201204151400 METAR MRLM 151400Z 23003KT 9999 BKN030 24/22 A2990=
201204151500 METAR MRLM 151500Z 10005KT 9999 FEW015 BKN025 27/22 A3000=
201204151600 METAR MRLM 151600Z 11008KT 9999 FEW020 BKN030 27/23 A2999=
201204151700 METAR MRLM 151700Z 09005KT 9999 FEW025 BKN080 27/23 A2997=
201204151800 METAR MRLM 151800Z 11008KT 9999 FEW025 BKN080 28/24 A2994=
201204151900 METAR MRLM 151900Z 09006KT 9999 FEW030 BKN110 29/23 A2991=
201204152000 METAR MRLM 152000Z 07007KT 9999 FEW030 SCT110 29/23 A2988=
201204152100 METAR MRLM 152100Z 08005KT 9999 FEW025 BKN100 29/23 A2987=
201204152200 METAR MRLM 152200Z 08004KT 9999 FEW035 BKN130 29/22 A2986=
201204152300 METAR MRLM 152300Z 08006KT 9999 FEW030 SCT100 29/22 A2986=
201204152352 METAR MRLM 160000Z 08005KT CAVOK 28/22 A2988=
201204160000 METAR MRLM 160000Z 08005KT CAVOK 28/22 A2988=
201204160100 METAR MRLM NIL=
201204160200 METAR MRLM NIL=
201204160300 METAR MRLM NIL=
201204160400 METAR MRLM NIL=
201204160500 METAR MRLM NIL=
201204160600 METAR MRLM NIL=
201204160700 METAR MRLM NIL=
201204160800 METAR MRLM NIL=
201204160900 METAR MRLM NIL=
201204161000 METAR MRLM NIL=
201204161100 METAR MRLM NIL=
201204161200 METAR MRLM 161200Z 23003KT 9999 BKN007 22/21 A2993=
201204161300 METAR MRLM 161300Z 21004KT 9999 BKN007 23/22 A2995=
201204161400 METAR MRLM 161400Z 11010KT 9999 BKN020 26/23 A2996=
201204161500 METAR MRLM 161500Z 09002KT 9999 SCT030 SCT120 29/23 A2996=
201204161600 METAR MRLM 161600Z 17003KT 9999 FEW030 SCT130 30/23 A2993=
201204161700 METAR MRLM 161700Z 07007KT 9999 FEW030 BKN260 29/24 A2992=
201204161800 METAR MRLM 161800Z 07010KT FEW030 BKN260 30/24 A2991=
201204161900 METAR MRLM 161900Z 06009KT 9999 FEW035 SCT140 30/23 A2987=
201204162000 METAR MRLM 162000Z 05009KT 9999 FEW035 BKN140 30/22 A2985=
201204162100 METAR MRLM 162100Z 04010KT 9999 FEW030 SCT130 30/24 A2984=
201204162200 METAR MRLM 162200Z 04006KT 9999 FEW030 SCT130 29/23 A2984=
201204162300 METAR MRLM 162300Z 03005KT 9999 SCT025 SCT250 29/24 A2985=
201204170000 METAR MRLM 170000Z 02002KT 9999 SCT020 SCT250 26/24 A2987=
201204170100 METAR MRLM NIL=
201204170200 METAR MRLM NIL=
201204170300 METAR MRLM NIL=
201204170400 METAR MRLM NIL=
201204170500 METAR MRLM NIL=
201204170600 METAR MRLM NIL=
201204170700 METAR MRLM NIL=
201204170800 METAR MRLM NIL=
201204170900 METAR MRLM NIL=
201204171000 METAR MRLM NIL=
201204171100 METAR MRLM NIL=
201204171200 METAR MRLM 171200Z 2402KT 9999 BKN010 SCT100 24/23 A2990=
201204171300 METAR MRLM 171300Z 25003KT 9999 SCT010 BKN100 24/24 A2993=
201204171400 METAR MRLM 171400Z 25003KT 9999 SCT015 BKN110 25/24 A2994=
201204171500 METAR MRLM 171500Z 31002KT 9999 DZ BKN015 SCT110 25/24 A2996=
201204171600 METAR MRLM 171600Z 28003KT 9999 RA BKN015 SCT110 25/23 A2995=
201204171700 METAR MRLM 171700Z 03005KT 9999 SCT015 SCT120 26/24 A2993 RE RA=
201204171800 METAR MRLM 171800Z 02007KT 9999 FEW020 BKN120 27/24 A2991=
201204171900 METAR MRLM 171900Z 01007KT 9999 FEW020 BKN120 28/24 A2988=
201204172000 METAR MRLM 172000Z 01005KT 9999 SCT020 BKN110 28/25 A2985=
201204172100 METAR MRLM 172100Z 02005KT 9999 FEW020 BKN110 28/24 A2985=
201204172200 METAR MRLM 172200Z 01006KT 9999 FEW020 BKN120 28/23 A2986=
201204172300 METAR MRLM 172300Z 36005KT 9999 FEW020 BKN120 27/24 A2986=
201204180000 METAR MRLM 180000Z 01002KT 9999 FEW015 BKN110 27/24 A2989=
201204180100 METAR MRLM NIL=
201204180200 METAR MRLM NIL=
201204180300 METAR MRLM NIL=
201204180400 METAR MRLM NIL=
201204180500 METAR MRLM NIL=
201204180600 METAR MRLM NIL=
201204180700 METAR MRLM NIL=
201204180800 METAR MRLM NIL=
201204180900 METAR MRLM NIL=
201204181000 METAR MRLM NIL=
201204181100 METAR MRLM NIL=
201204181200 METAR MRLM 181200Z 2302KT 9999 BKN030 24/23 A2991=
201204181300 METAR MRLM 181300Z 26003KT 9999 FEW015 BKN025 24/23 A2992=
201204181400 METAR MRLM 181400Z 00000KT 9999 BKN030 27/24 A2994 REDZ=
201204181500 METAR MRLM 181500Z 08003KT 9999 FEW022 BKN090 28/24 A2993=
201204181600 METAR MRLM 181600Z 04007KT 9999 FEW025 BKN130 29/24 A2994=
201204181700 METAR MRLM 181700Z 04005KT 9999 FEW028 BKN090 29/23 A2994=
201204181800 METAR MRLM 181800Z 06007KT 9999 FEW030 BKN120 29/24 A2991=
201204181900 METAR MRLM 181900Z 02006KT 9999 BKN028 SCT110 29/24 A2988=
201204182000 METAR MRLM 182000Z 35012KT 9999 DZ VCSH OVC015 28/25 A2985=
201204182100 METAR MRLM 182100Z 29006KT 9999 DZ OVC012 26/25 A2984=
201204182200 METAR MRLM 182200Z 25004KT 9999 FEW006 BKN015 26/25 A2984=
201204182300 METAR MRLM 182300Z 27003KT 9999 SCT012 SCT140 25/24 A2985=
201204182353 METAR MRLM 190000Z 27002KT 9999 FEW010 SCT090 25/24 A2986=
201204190000 METAR MRLM 190000Z 27002KT 9999 FEW010 SCT090 25/24 A2986=
201204190100 METAR MRLM NIL=
201204190200 METAR MRLM NIL=
201204190300 METAR MRLM NIL=
201204190400 METAR MRLM NIL=
201204190500 METAR MRLM NIL=
201204190600 METAR MRLM NIL=
201204190700 METAR MRLM NIL=
201204190800 METAR MRLM NIL=
201204190900 METAR MRLM NIL=
201204191000 METAR MRLM NIL=
201204191100 METAR MRLM NIL=
201204191200 METAR MRLM NIL=
201204191300 METAR MRLM 191300Z 24002KT 9999 FEW015 BKN090 24/23 A2991=
201204191400 METAR MRLM 191400Z 25006KT 9999 FEW015CB SCT080 27/23 A2991=
201204191500 METAR MRLM 191500Z 30007KT 9999 FEW025 BKN150 28/23 A2993=
201204191600 METAR MRLM 191600Z 34011KT 9999 SCT035 SCT140 30/23 A2993=
201204191700 METAR MRLM 191700Z 36011KT 9999 SCT022 SCT140 29/24 A2991=
201204191800 METAR MRLM 191800Z 01008KT 9999 FEW025 SCT140 29/24 A2988=
201204191900 METAR MRLM 191900Z 02010KT 9999 FEW028 SCT090 30/24 A2985=
201204192000 METAR MRLM 192000Z 02012KT 9999 SCT025 SCT090 29/24 A2983=
201204192100 METAR MRLM 192100Z 02010KT 9999 BKN018 28/24 A2982=
201204192200 METAR MRLM 192200Z 36008KT 9999 DZ VCSH BKN015 27/24 A2981=
201204192300 METAR MRLM 192300Z 24006KT 9999 VCTS FEW010CB BKN015 27/24 A2982=
201204192350 METAR MRLM 200000Z 05008KT 9999 DZ VCSH BKN015 27/24 A2984 RETS=
201204200000 METAR MRLM 200000Z 05008KT 9999 DZ VCSH BKN015 27/24 A2984 RETS=
201204200100 METAR MRLM NIL=
201204200200 METAR MRLM NIL=
201204200300 METAR MRLM NIL=
201204200400 METAR MRLM NIL=
201204200500 METAR MRLM NIL=
201204200600 METAR MRLM NIL=
201204200700 METAR MRLM NIL=
201204200800 METAR MRLM NIL=
201204200900 METAR MRLM NIL=
201204201000 METAR MRLM NIL=
201204201100 METAR MRLM NIL=
201204201200 METAR MRLM 201200Z 22004KT 9999 FEW010 BKN110 23/22 A2984=
201204201300 METAR MRLM 201300Z 24004KT 9999 FEW010 BKN110 23/22 A2986=
201204201400 METAR MRLM 201400Z 05003KT 9999 FEW015 BKN120 27/24 A2989=
201204201500 METAR MRLM 201500Z 06005KT 9999 SCT020 BKN120 27/23 A2990=
201204201600 METAR MRLM NIL=
201204201700 METAR MRLM 201700Z 03007KT 9999 SCT020 BKN130 28/24 A2991=
201204201800 METAR MRLM 201800Z 06004KT 9999 SCT020 BKN120 28/24 A2988=
201204201900 METAR MRLM 201900Z 06006KT 9999 SCT020 SCT130 29/24 A2984=
201204202000 METAR MRLM 202000Z 06008KT 9999 SCT020 29/24 A2981=
201204202100 METAR MRLM 202100Z 08005KT 9999 SCT025 28/24 A2979=
201204202200 METAR MRLM 202200Z 07003KT 9999 BKN020 SCT110 27/24 A2978=
201204202300 METAR MRLM 202300Z 19002KT 9999 SCT015 BKN110 27/24 A2980=
201204210000 METAR MRLM 210000Z 20003KT 9999 SCT010 SCT100 26/24 A2981=
201204210100 METAR MRLM NIL=
201204210200 METAR MRLM NIL=
201204210300 METAR MRLM NIL=
201204210400 METAR MRLM NIL=
201204210500 METAR MRLM NIL=
201204210600 METAR MRLM NIL=
201204210700 METAR MRLM NIL=
201204210800 METAR MRLM NIL=
201204210900 METAR MRLM NIL=
201204211000 METAR MRLM NIL=
201204211100 METAR MRLM NIL=
201204211200 METAR MRLM 211200Z 23004KT CAVOK 24/23 A2986=
201204211300 METAR MRLM 211300Z 23003KT CAVOK 26/23 A2987=
201204211400 METAR MRLM 211400Z 04003KT 9999 FEW025 29/24 A2988=
201204211500 METAR MRLM 211500Z 05004KT 9999 FEW025 29/24 A2989=
201204211600 METAR MRLM 211600Z 01008KT 9999 SCT020 29/25 A2989=
201204211700 METAR MRLM 211700Z 02008KT 9999 FEW020 29/25 A2988=
201204211800 METAR MRLM 211800Z 04007KT 9999 SCT020 29/25 A2986=
201204211900 METAR MRLM 211900Z 04004KT 9999 SCT020 SCT250 28/24 A2982=
201204212000 METAR MRLM 212000Z 05005KT 9999 SCT020 SCT250 29/25 A2979=
201204212100 METAR MRLM 212100Z 07005KT 9999 FEW020 SCT250 29/24 2979=
201204212200 METAR MRLM 212200Z 08005KT 9999 FEW020 SCT110 28/24 A2978=
201204212300 METAR MRLM 212300Z 10005KT 9999 FEW015 SCT110 28/24 A2979=
201204220000 METAR MRLM 220000Z 15003KT 9999 FEW015 BKN110 27/24 A2981=
201204220100 METAR MRLM NIL=
201204220200 METAR MRLM NIL=
201204220300 METAR MRLM NIL=
201204220400 METAR MRLM NIL=
201204220500 METAR MRLM NIL=
201204220600 METAR MRLM NIL=
201204220700 METAR MRLM NIL=
201204220800 METAR MRLM NIL=
201204220900 METAR MRLM NIL=
201204221000 METAR MRLM NIL=
201204221100 METAR MRLM NIL=
201204221200 METAR MRLM 221200Z 24004KT 9999 FEW020 SCT280 24/23 A2988=
201204221300 METAR MRLM 221300Z 23004KT 9999 FEW020 SCT280 27/24 A2990=
201204221400 METAR MRLM NIL=
201204221500 METAR MRLM 221500Z 09005KT 9999 FEW030 SCT150 29/24 A2992=
201204221600 METAR MRLM 221600Z 10007KT 9999 FEW028 30/24 A2991=
201204221700 METAR MRLM 221700Z 08007KT 9999 FEW025 30/25 A2991=
201204221800 METAR MRLM 221800Z 09006KT 9999 FEW030 30/24 A2988=
201204221900 METAR MRLM 221900Z 06008KT 9999 FEW028 30/25 A2984=
201204222000 METAR MRLM 222000Z 06005KT 9999 FEW028 30/25 A2981=
201204222100 METAR MRLM 222100Z 02006KT 9999 FEW028 SCT270 30/24 A2980=
201204222200 METAR MRLM 222200Z 06003KT CAVOK 29/24 A2981=
201204222300 METAR MRLM 222300Z 04002KT 9999 FEW025 SCT150 29/24 A2984=
201204230000 METAR MRLM 230000Z 00000KT 9999 FEW018 SCT150 28/24 A2987=
201204230100 METAR MRLM NIL=
201204230200 METAR MRLM NIL=
201204230300 METAR MRLM NIL=
201204230400 METAR MRLM NIL=
201204230500 METAR MRLM NIL=
201204230600 METAR MRLM NIL=
201204230700 METAR MRLM NIL=
201204230800 METAR MRLM NIL=
201204230900 METAR MRLM NIL=
201204231000 METAR MRLM NIL=
201204231100 METAR MRLM NIL=
201204231200 METAR MRLM 231200Z 17003KT 3000 RA SCT005 SCT015 23/23 A2994=
201204231300 METAR MRLM 231300Z 26003KT 5000 RA BKN010 23/23 A2996=
201204231400 METAR MRLM 231400Z 23006KT 8000 DZ VCSH BKN015 23/23 A2999 RERA=
201204231500 METAR MRLM 231500Z 22004KT 3000 RA OVC010 24/23 A3001 REDZ=
201204231600 METAR MRLM 231600Z 26005KT 9999 DZ VCSH SCT010 SCT030 24/23 A3002 RERA=
201204231700 METAR MRLM 231700Z 23006KT 9999 DZ VCSH SCT010 SCT030 25/23 A3002=
201204231800 METAR MRLM 231800Z 26006KT 9999 BKN015 25/22 A2999 REDZ=
201204231900 METAR MRLM 231900Z 23007KT 9999 DZ VCSH SCT015 SCT030 24/22 A2997=
201204232000 METAR MRLM 232000Z 23006KT 9999 SCT015 SCT030 24/22 A2994=
201204232100 METAR MRLM 232100Z 22007KT 9999 FEW015 SCT025 24/22 A2994=
201204232200 METAR MRLM 232200Z 25005KT 9999 SCT015 SCT025 24/21 A2993=
201204232300 METAR MRLM 232300Z 22004KT 9999 DZ VCSH FEW013 SCT030 23/21 A2994=
201204232357 METAR MRLM 240000Z 24007KT 9999 DZ VCSH SCT015 SCT025 24/20 A2996=
201204240000 METAR MRLM 240000Z 24007KT 9999 DZ VCSH SCT015 SCT025 24/20 A2996=
201204240100 METAR MRLM NIL=
201204240200 METAR MRLM NIL=
201204240300 METAR MRLM NIL=
201204240400 METAR MRLM NIL=
201204240500 METAR MRLM NIL=
201204240600 METAR MRLM NIL=
201204240700 METAR MRLM NIL=
201204240800 METAR MRLM NIL=
201204240900 METAR MRLM NIL=
201204241000 METAR MRLM NIL=
201204241100 METAR MRLM NIL=
201204241200 METAR MRLM 241200Z 26002KT 9999 SCT007 BKN100 23/21 A2995=
201204241300 METAR MRLM 241300Z 26003KT 9999 FEW07 BKN100 23/22 A2996=
201204241400 METAR MRLM 241400Z 27003KT 9999 SCT010 BKN110 24/22 A2999=
201204241500 METAR MRLM 241500Z 36005KT 8000 3000N +RA BKN007 23/22 A3001=
201204241600 METAR MRLM 241600Z 28007KT 9999 -RA BKN007 23/22 A3001=
201204241700 METAR MRLM 241700Z 26004KT 9999 -RA FEW006 BKN010 23/22 A3002=
201204241800 METAR MRLM 241800Z 25005KT 9999 DZ BKN010 23/22 A3000=
201204241900 METAR MRLM 241900Z 25006KT 9999 DZ BKN010 23/22 A2997=
201204242000 METAR MRLM 242000Z 28004KT 9999 -DZ BKN010 23/22 A2995=
201204242100 METAR MRLM 242100Z 25008KT 9999 SCT015 BKN100 23/22 A2992=
201204242200 METAR MRLM 242200Z 26004KT 9999 SCT010 BKN100 24/21 A2993=
201204242300 METAR MRLM 242300Z 24005KT 9999 FEW010 BKN100 23/21 A2994=
201204250000 METAR MRLM 250000Z 26003KT 9999 SCT010 BKN100 23/20 A2995=
201204250100 METAR MRLM NIL=
201204250200 METAR MRLM NIL=
201204250300 METAR MRLM NIL=
201204250700 METAR MRLM NIL=
201204250800 METAR MRLM NIL=
201204250900 METAR MRLM NIL=
201204251000 METAR MRLM NIL=
201204251100 METAR MRLM NIL=
201204251200 METAR MRLM 251200Z 25005KT 9999 FEW015 BKN090 22/20 A2995=
201204251300 METAR MRLM 251300Z 25008KT 9999 FEW015 BKN090 23/20 A2996=
201204251400 METAR MRLM 251400Z 22004KT 9999 FEW015 BKN090 23/21 A2998=
201204251500 METAR MRLM 251500Z 23005KT CAVOK 26/21 A2997=
201204251600 METAR MRLM 251600Z 27003KT 9999 FEW030 BKN110 27/21 A2996=
201204251700 METAR MRLM 251700Z 35005KT 9999 SCT035 BKN110 27/19 A2996=
201204251800 METAR MRLM 251800Z 25004KT 9999 SCT035 BKN120 27/20 A2995=
201204251900 METAR MRLM 251900Z 26003KT 9999 FEW030 BKN110 27/21 A2992=
201204252000 METAR MRLM 252000Z 29003KT CAVOK 28/20 A2989=
201204252100 METAR MRLM 252100Z 32004KT 9999 SCT030 BKN110 28/21 A2989=
201204252200 METAR MRLM 252200Z 30004KT 9999 FEW030 BKN110 27/21 A2989=
201204252300 METAR MRLM 252300Z 29003KT 9999 FEW025 BKN100 27/22 A2989=
201204260000 METAR MRLM 260000Z 27003KT 9999 FEW020 BKN100 26/22 A2991=
201204260100 METAR MRLM NIL=
201204260200 METAR MRLM NIL=
201204260300 METAR MRLM NIL=
201204260400 METAR MRLM NIL=
201204260500 METAR MRLM NIL=
201204260600 METAR MRLM NIL=
201204260700 METAR MRLM NIL=
201204260800 METAR MRLM NIL=
201204260900 METAR MRLM NIL=
201204261000 METAR MRLM NIL=
201204261100 METAR MRLM NIL=
201204261200 METAR MRLM 261200Z 24003KT CAVOK 23/20 A2992=
201204261300 METAR MRLM 261300Z 23004KT CAVOK 24/20 A2993=
201204261400 METAR MRLM 261400Z 28004KT CAVOK 28/21 A2994=
201204261500 METAR MRLM 261500Z 31006KT CAVOK 29/21 A2994=
201204261600 METAR MRLM 261600Z 33010KT CAVOK 29/21 A2993=
201204261700 METAR MRLM 261700Z 36012KT CAVOK 30/21 A2993=
201204261800 METAR MRLM 261800Z 35012KT CAVOK 30/21 A2991=
201204261900 METAR MRLM 261900Z 35013KT 9999 FEW038 SCT140 30/23 A2988=
201204262000 METAR MRLM 262000Z 33014KT 9999 FEW040 BKN130 29/21 A2987=
201204262100 METAR MRLM 262100Z 32011KT 9999 FEW030 BKN120 28/22 A2986=
201204262200 METAR MRLM 262200Z 32009KT 9999 FEW028 BKN080 28/22 A2986=
201204262300 METAR MRLM 262300Z 23008KT 9999 FEW028 BKN080 28/22 A2987=
201204262352 METAR MRLM 270000Z 32007KT 9999 FEW025 BKN090 27/23 A2988=
201204270000 METAR MRLM 270000Z 32007KT 9999 FEW025 BKN090 27/23 A2988=
201204270100 METAR MRLM NIL=
201204270200 METAR MRLM NIL=
201204270300 METAR MRLM NIL=
201204270400 METAR MRLM NIL=
201204270500 METAR MRLM NIL=
201204270600 METAR MRLM NIL=
201204270700 METAR MRLM NIL=
201204270800 METAR MRLM NIL=
201204270900 METAR MRLM NIL=
201204271000 METAR MRLM NIL=
201204271100 METAR MRLM NIL=
201204271200 METAR MRLM 271200Z 31007KT 9999 FEW035 BKN120 26/21 A2988=
201204271300 METAR MRLM 271300Z 30008KT CAVOK 27/21 A2991=
201204271400 METAR MRLM 271400Z 30007KT CAVOK 27/22 A2991=
201204271500 METAR MRLM 271500Z 30008KT CAVOK 27/22 A2991=
201204271600 METAR MRLM 271600Z 30007KT 9999 FEW035 SCT090 28/23 A2993=
201204271700 METAR MRLM 271700Z 30009KT 9999 FEW015 BKN090 28/23 A2991=
201204271800 METAR MRLM 271800Z 33010KT 9999 FEW020 BKN100 29/23 A2989=
201204271900 METAR MRLM 271900Z 33009KT 9999 SCT020 SCT030 28/24 A2989=
201204272000 METAR MRLM 272000Z 29009KT 9999 SCT015 SCT025 27/23 A2987=
201204272100 METAR MRLM 272100Z 29008KT 9999 OVC018 26/23 A2986=
201204272200 METAR MRLM 272200Z 28005KT 9999 OVC015 26/22 A2987=
201204272300 METAR MRLM 272300Z 29008KT 9999 DZ VCSH BKN018 26/22 A2987=
201204272356 METAR MRLM 280000Z 30006KT 9999 DZ VCSH BKN018 25/23 A2990=
201204280000 METAR MRLM 280000Z 30006KT 9999 DZ VCSH BKN018 25/23 A2990=
201204280100 METAR MRLM NIL=
201204280200 METAR MRLM NIL=
201204280300 METAR MRLM NIL=
201204280400 METAR MRLM NIL=
201204280500 METAR MRLM NIL=
201204280600 METAR MRLM NIL=
201204280700 METAR MRLM NIL=
201204280800 METAR MRLM NIL=
201204280900 METAR MRLM NIL=
201204281000 METAR MRLM NIL=
201204281100 METAR MRLM NIL=
201204281200 METAR MRLM 281200Z 33003KT 9999 FEW015 BKN100 23/22 A2988=
201204281300 METAR MRLM 281300Z 31006KT 9999 FEW015 BKN110 24/22 A2990=
201204281400 METAR MRLM 281400Z 28005KT CAVOK 26/23 A2992=
201204281500 METAR MRLM 281500Z 31004KT 9999 FEW020 SCT120 28/23 A2993=
201204281600 METAR MRLM 281600Z 27004KT 9999 FEW020 BKN120 27/23 A2993=
201204281700 METAR MRLM 281700Z 31005KT 9999 SCT030 SCT130 29/22 A2991=
201204281800 METAR MRLM 281800Z 01008KT 9999 SCT030 SCT130 28/24 A2990=
201204281900 METAR MRLM 281900Z 01007KT 9999 FEW025 BKN130 28/24 A2987=
201204282000 METAR MRLM 282000Z 36010KT 9999 FEW025 SCT140 29/24 A2985=
201204282100 METAR MRLM 282100Z 36008KT 9999 SCT020 SCT130 27/24 A2984=
201204282200 METAR MRLM 282200Z 31003KT 9999 FEW020 BKN120 27/23 A2984=
201204282300 METAR MRLM 282300Z 00000KT 9999 FEW015 BKN120 27/24 A2985=
201204290000 METAR MRLM 290000Z 23002KT 9999 FEW015 BKN110 26/24 A2986=
201204290100 METAR MRLM NIL=
201204290200 METAR MRLM NIL=
201204290300 METAR MRLM NIL=
201204290400 METAR MRLM NIL=
201204290500 METAR MRLM NIL=
201204290600 METAR MRLM NIL=
201204290700 METAR MRLM NIL=
201204290800 METAR MRLM NIL=
201204290900 METAR MRLM NIL=
201204291000 METAR MRLM NIL=
201204291100 METAR MRLM NIL=
201204291200 METAR MRLM 291200Z 24004KT CAVOK 24/22 A2989=
201204291300 METAR MRLM 291300Z 26002KT CAVOK 26/23 A2991=
201204291400 METAR MRLM 291400Z 05004KT CAVOK 28/23 A2992=
201204291500 METAR MRLM 291500Z 02006KT 9999 FEW025 29/24 A2993=
201204291600 METAR MRLM 291600Z 01007KT 9999 FEW025 29/24 A2992=
201204291700 METAR MRLM 291700Z 02008KT 9999 FEW025 29/24 A2991=
201204291800 METAR MRLM 291800Z 02008KT 9999 FEW025 29/25 A2990=
201204291900 METAR MRLM 291900Z 01008KT 9999 SCT025 30/24 A2987=
201204292000 METAR MRLM 292000Z 01007KT 9999 SCT025 30/25 A2984=
201204292100 METAR MRLM 292100Z 01006KT 9999 SCT025 SCT250 30/25 A2983=
201204292200 METAR MRLM 292200Z 03006KT 9999 SCT020 SCT240 29/24 A2982=
201204292300 METAR MRLM 292300Z 06005KT 9999 FEW020 BKN240 28/24 A2983=
201204300000 METAR MRLM 300000Z 08004KT 9999 FEW020 SCT110 28/23 A2984=
201204300100 METAR MRLM NIL=
201204300200 METAR MRLM NIL=
201204300300 METAR MRLM NIL=
201204300400 METAR MRLM NIL=
201204300500 METAR MRLM NIL=
201204300600 METAR MRLM NIL=
201204300700 METAR MRLM NIL=
201204300800 METAR MRLM NIL=
201204300900 METAR MRLM NIL=
201204301000 METAR MRLM NIL=
201204301100 METAR MRLM NIL=
201204301200 METAR MRLM 301200Z 22004KT FEW010TCU SCT280 23/22 A2990=
201204301300 METAR MRLM 301300Z 24004KT 9999 FEW015 25/23 A2991=
201204301400 METAR MRLM 301400Z 23002KT 9999 FEW020 BKN280 29/24 A29991=
201204301500 METAR MRLM 301500Z 06003KT 9999 FEW025 BKN280 29/24 A2991=
201204301600 METAR MRLM 301600Z 02007KT 9999 FEW025 BKN280 29/25 A29990=
201204301700 METAR MRLM 301700Z 02008KT 9999 FEW025 30/25 A2989=
201204301800 METAR MRLM 301800Z 03010KT 9999 FEW028 30/24 A2988=
201204301900 METAR MRLM 301900Z 03009KT 9999 FEW028 30/25 A2985=
201204302000 METAR MRLM 302000Z 03006KT 9999 FEW025 SCT270 29/24 A2983=
201204302100 METAR MRLM 302100Z 01005KT 9999 FEW025 BKN270 29/24 A2981=
201204302200 METAR MRLM 302200Z 03004KT 9999 FEW028 SCT150 29/24 A2982=
201204302300 METAR MRLM 302300Z 04004KT CAVOK 28/24 A2983=
201204302354 METAR MRLM 010000Z 05004KT 9999 FEW023 SCT140 28/24 A2984=
201205010000 METAR MRLM 010000Z 05004KT 9999 FEW023 SCT140 28/24 A2984=
201205010100 METAR MRLM NIL=
201205010200 METAR MRLM NIL=
201205010300 METAR MRLM NIL=
201205010400 METAR MRLM NIL=
201205010500 METAR MRLM NIL=
201205010600 METAR MRLM NIL=
201205010700 METAR MRLM NIL=
201205010800 METAR MRLM NIL=
201205010900 METAR MRLM NIL=
201205011000 METAR MRLM NIL=
201205011100 METAR MRLM NIL=
201205011200 METAR MRLM 011200Z 23004KT 9999 SCT025 SCT270 24/22 A2986=
201205011300 METAR MRLM 011300Z 27003KT 9999 BKN025 25/23 A2988=
201205011400 METAR MRLM 011400Z 30003KT 9999 BKN020 27/23 A2989=
201205011500 METAR MRLM 011500Z 31005KT 9999 FEW018 BKN025 28/24 A2991=
201205011600 METAR MRLM 011600Z 29003KT 9999 FEW025 BKN080 28/24 A2990 REDZ=
201205011700 METAR MRLM 011700Z 05004KT 9999 FEW025 BKN280 29/24 A2989=
201205011800 METAR MRLM 011800Z 04005KT 9999 FEW025 SCT280 29/24 A2987=
201205011900 METAR MRLM 011900Z 02005KT 9999 FEW025 BKN280 30/25 A2985=
201205012000 METAR MRLM 012000Z 04007KT 9999 FEW025 BKN280 30/25 A2983=
201205012100 METAR MRLM 012100Z 03006KT 9999 BKN025 29/24 A2981=
201205012200 METAR MRLM 012200Z 05005KT 9999 SCT023 SCT270 29/24 A2980=
201205012300 METAR MRLM 012300Z 05004KT 9999 BKN025 29/24 A2982=
201205012356 METAR MRLM 020000Z 06003KT 9999 BKN025 SCT270 28/24 A2984=
201205020000 METAR MRLM 020000Z 06003KT 9999 BKN025 SCT270 28/24 A2984=
201205020100 METAR MRLM NIL=
201205020200 METAR MRLM NIL=
201205020300 METAR MRLM NIL=
201205020400 METAR MRLM NIL=
201205020500 METAR MRLM NIL=
201205020600 METAR MRLM NIL=
201205020700 METAR MRLM NIL=
201205020800 METAR MRLM NIL=
201205020900 METAR MRLM NIL=
201205021000 METAR MRLM NIL=
201205021100 METAR MRLM NIL=
201205021200 METAR MRLM 021200Z 22005KT 9999 BKN010 SCT100 24/23 A2988=
201205021300 METAR MRLM 021300Z 24003KT 9999 BKN010 SCT100 26/24 A2989=
201205021400 METAR MRLM 021400Z 21004KT 9999 SCT020 28/24 A2990=
201205021500 METAR MRLM 021500Z 16003KT 9999 -DZ BKN020 SCT110 28/25 A2991=
201205021600 METAR MRLM 021600Z 10005KT 9999 SCT025 SCT120 29/24 A2992=
201205021700 METAR MRLM 021700Z 10004KT 9999 SCT030 SCT250 30/24 A2991=
201205021800 METAR MRLM 021800Z 06004KT 9999 FEW030 BKN250 30/24 A2990=
201205021900 METAR MRLM 021900Z 04005KT 9999 FEW030 SCT140 30/25 A2988=
201205022000 METAR MRLM 022000Z 04007KT 9999 SCT025 SCT140 30/24 A2985=
201205022100 METAR MRLM 022100Z 04007KT 9999 BKN025 29/24 A2985=
201205022200 METAR MRLM 022200Z 04007KT 9999 BKN025 29/24 A2984=
201205022300 METAR MRLM 022300Z 05007KT 9999 BKN025 29/24 A2986=
201205030000 METAR MRLM 030000Z 05006KT 9999 BKN020 28/24 A2988=
201205030100 METAR MRLM NIL=
201205030200 METAR MRLM NIL=
201205030300 METAR MRLM NIL=
201205030400 METAR MRLM NIL=
201205030500 METAR MRLM NIL=
201205030600 METAR MRLM NIL=
201205030700 METAR MRLM NIL=
201205030800 METAR MRLM NIL=
201205030900 METAR MRLM NIL=
201205031000 METAR MRLM NIL=
201205031100 METAR MRLM NIL=
201205031200 METAR MRLM 031200Z 24004KT 9999 SCT010 BKN100 23/22 A2989=
201205031300 METAR MRLM 031300Z 24003KT 9999 SCT015 BKN100 25/22 A2991=
201205031400 METAR MRLM 031400Z 24004KT 9999 FEW015 BKN110 26/23 A2992=
201205031500 METAR MRLM 031500Z 28003KT 9999 FEW025 BKN120 28/23 A2992=
201205031600 METAR MRLM 031600Z 03005KT 9999 FEW025 BKN130 29/24 A2991=
201205031700 METAR MRLM 031700Z 01008KT 9999 FEW025 BKN130 30/25 A2990=
201205031800 METAR MRLM 031800Z 02009KT 9999 FEW030 SCT140 30/24 A2988=
201205031900 METAR MRLM 031900Z 02010KT 9999 FEW025 SCT140 29/25 A2986=
201205032000 METAR MRLM 032000Z 04004KT 9999 FEW030 SCT140 29/23 A2984=
201205032100 METAR MRLM 032100Z 04009KT 9999 SCT020 SCT130 29/25 A2984=
201205032200 METAR MRLM 032200Z 02005KT 9999 BKN020 28/24 A2984=
201205032300 METAR MRLM 032300Z 04011KT 9999 BKN015 28/24 A2986=
201205040000 METAR MRLM 040000Z 06005KT 9999 BKN015 SCT110 27/24 A2985=
201205040100 METAR MRLM NIL=
201205040200 METAR MRLM NIL=
201205040300 METAR MRLM NIL=
201205040400 METAR MRLM NIL=
201205040500 METAR MRLM NIL=
201205040600 METAR MRLM NIL=
201205040700 METAR MRLM NIL=
201205040800 METAR MRLM NIL=
201205040900 METAR MRLM NIL=
201205041000 METAR MRLM NIL=
201205041100 METAR MRLM NIL=
201205041200 METAR MRLM 041200Z 22004KT 9999 BKN015 24/23 A2990=
201205041300 METAR MRLM 041300Z 24004KT 9999 FEW015 BKN015 2992=
201205041400 METAR MRLM 041400Z 24004KT 9999 BKN025 24/24 A2992=
201205041500 METAR MRLM 041500Z 33004KT 8000 RA FEW008 BKN020 26/24 A2996=
201205041600 METAR MRLM 041600Z 29006KT 9999 DZ VCSH FEW008 SCT030 26/24 A2995 RERA=
201205041700 METAR MRLM 041700Z 33002KT 9999 FEW015 BKN025 29/24 A2994=
201205041800 METAR MRLM 041800Z 05005KT 9999 DZ VCSH FEW020 SCT028 29/23 A2992=
201205041900 METAR MRLM 041900Z 05003KT 9999 FEW020 SCT090 29/24 A2989 REDZ=
201205042000 METAR MRLM 042000Z 03004KT 9999 FEW020 BKN028 28/23 A2988=
201205042100 METAR MRLM 042100Z 03006KT 9999 BKN025 28/23 A2987=
201205042200 METAR MRLM 042200Z 07006KT 9999 BKN022 28/24 A2987=
201205042300 METAR MRLM 042300Z 09003KT 9999 BKN020 SCT090 28/24 A2989=
201205042357 METAR MRLM 050000Z 10003KT 9999 DZ VCSH SCT018 SCT090 27/24 A2990=
201205050000 METAR MRLM 050000Z 10003KT 9999 DZ VCSH SCT018 SCT090 27/24 A2990=
201205050100 METAR MRLM NIL=
201205050200 METAR MRLM NIL=
201205050300 METAR MRLM NIL=
201205050400 METAR MRLM NIL=
201205050500 METAR MRLM NIL=
201205050600 METAR MRLM NIL=
201205050700 METAR MRLM NIL=
201205050800 METAR MRLM NIL=
201205050900 METAR MRLM NIL=
201205051000 METAR MRLM NIL=
201205051100 METAR MRLM NIL=
201205051200 METAR MRLM 051200Z 05002KT CAVOK 23/22 A2990=
201205051300 METAR MRLM 051300Z 22004KT CAVOK 26/23 A2992=
201205051400 METAR MRLM 051400Z 00000KT CAVOK 29/22 A2993=
201205051500 METAR MRLM 051500Z 06004KT 9999 FEW030 BKN270 29/23 A2993=
201205051600 METAR MRLM 051600Z 04006KT 9999 FEW025 SCT270 29/24 A2992=
201205051700 METAR MRLM 051700Z 03008KT 9999 FEW025 SCT270 29/25 A2992=
201205051800 METAR MRLM 051800Z 02008KT 9999 FEW025 SCT270 30/25 A2990=
201205051900 METAR MRLM 051900Z 02007KT 9999 FEW023 SCT270 29/25 A2988=
201205052000 METAR MRLM 052000Z 02008KT 9999 BKN025 30/24 A2986=
201205052100 METAR MRLM 052100Z 36010KT 9999 BKN025 30/25 A2985=
201205052200 METAR MRLM 052200Z 01009KT 9999 SCT023 29/24 A2985=
201205052300 METAR MRLM 052300Z 05007KT 9999 SCT020 SCT270 28/24 A2987=
201205052358 METAR MRLM 060000Z 03006KT 9999 SCT020 SCT270 28/24 A29880=
201205060000 METAR MRLM 060000Z 03006KT 9999 SCT020 SCT270 28/24 A29880=
201205060100 METAR MRLM NIL=
201205060200 METAR MRLM NIL=
201205060300 METAR MRLM NIL=
201205060400 METAR MRLM NIL=
201205060500 METAR MRLM NIL=
201205060600 METAR MRLM NIL=
201205060700 METAR MRLM NIL=
201205060800 METAR MRLM NIL=
201205060900 METAR MRLM NIL=
201205061000 METAR MRLM NIL=
201205061100 METAR MRLM NIL=
201205061200 METAR MRLM 061200Z 21004KT CAVOK 24/23 A2992=
201205061300 METAR MRLM 061300Z 22004KT CAVOK 26/24 A2992=
201205061400 METAR MRLM 061400Z 00000KT 9999 FEW030 BKN250 30/24 A2993=
201205061500 METAR MRLM 061500Z 06004KT 9999 FEW025 BKN250 29/24 A2993=
201205061600 METAR MRLM 061600Z 06005KT 9999 FEW030 BKN250 29/23 A2993=
201205061700 METAR MRLM 061700Z 05007KT 9999 FEW030 SCT250 30/24 A2992=
201205061800 METAR MRLM 061800Z 05008KT 9999 FEW030 SCT260 30/24 A2990=
201205061900 METAR MRLM 061900Z 05008KT 9999 FEW030 SCT260 30/24 A2988=
201205062000 METAR MRLM 062000Z 04006KT 9999 FEW030 SCT260 29/24 A2986=
201205062100 METAR MRLM 062100Z 03006KT 9999 FEW030 BKN250 29/24 A2986=
201205062200 METAR MRLM 062200Z 04005KT 9999 FEW025 BKN250 29/24 A2985=
201205062300 METAR MRLM 062300Z 08004KT 9999 FEW025 BKN250 29/24 A2988=
201205070000 METAR MRLM 070000Z 10003KT 9999 SCT020 SCT250 28/24 A2989=
201205070100 METAR MRLM NIL=
201205070200 METAR MRLM NIL=
201205070300 METAR MRLM NIL=
201205070400 METAR MRLM NIL=
201205070500 METAR MRLM NIL=
201205070600 METAR MRLM NIL=
201205070700 METAR MRLM NIL=
201205070800 METAR MRLM NIL=
201205070900 METAR MRLM NIL=
201205071000 METAR MRLM NIL=
201205071100 METAR MRLM NIL=
201205071200 METAR MRLM 071200Z 23003KT CAVOK 23/22 A2988=
201205071300 METAR MRLM 071300Z 22003KT CAVOK 26/23 A2990=
201205071400 METAR MRLM 071400Z 07003KT CAVOK 28/23 A2991=
201205071500 METAR MRLM 071500Z 09004KT CAVOK 28/23 A2992=
201205071600 METAR MRLM 071600Z 09007KT 9999 FEW030 BKN250 30/23 A2992=
201205071700 METAR MRLM 071700Z 10009KT 9999 FEW035 BKN250 30/23 A2990=
201205071800 METAR MRLM 071800Z 10008KT 9999 FEW035 BKN250 31/24 A2989=
201205071900 METAR MRLM 071900Z 08008KT 9999 FEW035 BKN250 31/24 A2987=
201205072000 METAR MRLM 072000Z 07008KT 9999 FEW030 BKN250 30/24 A2985=
201205072100 METAR MRLM 072100Z 07008KT 9999 SCT025 BKN250 30/25 A2983=
201205072200 METAR MRLM 072200Z 07006KT 9999 SCT025 SCT250 29/24 A2984=
201205072300 METAR MRLM 072300Z 09008KT 9999 BKN025 BKN240 29/24 A2985=
201205080000 METAR MRLM 080000Z 11009KT 9999 BKN020 28/25 A2986=
201205080100 METAR MRLM NIL=
201205080200 METAR MRLM NIL=
201205080300 METAR MRLM NIL=
201205080400 METAR MRLM NIL=
201205080500 METAR MRLM NIL=
201205080600 METAR MRLM NIL=
201205080700 METAR MRLM NIL=
201205080800 METAR MRLM NIL=
201205080900 METAR MRLM NIL=
201205081000 METAR MRLM NIL=
201205081100 METAR MRLM NIL=
201205081200 METAR MRLM 081200Z 00000KT 9999 FEW015 SCT280 25/22 A2987=
201205081300 METAR MRLM NIL=
201205081400 METAR MRLM 081400Z 08003KT 9999 FEW015 28/21 A2990=
201205081500 METAR MRLM 081500Z 07003KT 9999 FEW040 SCT270 29/22 A2991=
201205081600 METAR MRLM 081600Z 10005KT 9999 FEW038 SCT270 30/22 A2990=
201205081700 METAR MRLM 081700Z 09007KT 9999 FEW032 BKN270 30/23 A2989=
201205081800 METAR MRLM 081800Z 08009KT 9999 FEW035 BKN270 31/24 A2989=
201205081900 METAR MRLM 081900Z 07011KT 9999 FEW030 BKN270 30/25 A2985=
201205082000 METAR MRLM 082000Z 06008KT 9999 FEW020 BKN270 30/24 A2986=
201205082100 METAR MRLM 082100Z 05006KT 9999 BKN025 29/24 A2984=
201205082200 METAR MRLM 082200Z 07004KT 9999 BKN025 29/24 A2984=
201205082300 METAR MRLM 082300Z 10006KT 9999 BKN025 29/24 A2984=
201205082358 METAR MRLM 090000Z 08007KT 9999 BKN023 29/24 A2986=
201205090000 METAR MRLM 090000Z 08007KT 9999 BKN023 29/24 A2986=
201205090100 METAR MRLM NIL=
201205090200 METAR MRLM NIL=
201205090300 METAR MRLM NIL=
201205090400 METAR MRLM NIL=
201205090500 METAR MRLM NIL=
201205090600 METAR MRLM NIL=
201205090700 METAR MRLM NIL=
201205090800 METAR MRLM NIL=
201205090900 METAR MRLM NIL=
201205091000 METAR MRLM NIL=
201205091100 METAR MRLM NIL=
201205091200 METAR MRLM 091200Z 24003KT 9999 FEW015 BKN130 23/22 A2987=
201205091300 METAR MRLM 091300Z 26003KT 9999 FEW015 BKN140 25/22 A2989=
201205091400 METAR MRLM 091400Z 22003KT 9999 FEW020 29/23 A2990=
201205091500 METAR MRLM 091500Z 09005KT 9999 BKN030 30/24 A2991=
201205091600 METAR MRLM 091600Z 08006KT 9999 FEW030 30/23 A2991=
201205091700 METAR MRLM 091700Z 09006KT 9999 FEW050 30/24 A2990=
201205091800 METAR MRLM 091800Z 06007KT 9999 SCT030 30/24 A2998=
201205091900 METAR MRLM 091900Z 06007KT 9999 FEW030 BKN270 30/24 A2985=
201205092000 METAR MRLM 092000Z 06007KT 9999 FEW030 SCT140 30/24 A2983=
201205092100 METAR MRLM 092100Z 06006KT 9999 BKN030 30/24 A2981=
201205092200 METAR MRLM 092200Z 06008KT 9999 OVC028 30/24 A2981=
201205092300 METAR MRLM 092300Z 09006KT 9999 OVC025 29/24 A2982=
201205092356 METAR MRLM 100000Z 05008KT 9999 SCT025 SCT270 29/23 A2983=
201205100000 METAR MRLM 100000Z 05008KT 9999 SCT025 SCT270 29/23 A2983=
201205100100 METAR MRLM NIL=
201205100200 METAR MRLM NIL=
201205100300 METAR MRLM NIL=
201205100400 METAR MRLM NIL=
201205100500 METAR MRLM NIL=
201205100600 METAR MRLM NIL=
201205100700 METAR MRLM NIL=
201205100800 METAR MRLM NIL=
201205100900 METAR MRLM NIL=
201205101000 METAR MRLM NIL=
201205101100 METAR MRLM NIL=
201205101200 METAR MRLM 101200Z 22004KT 9999 FEW010 BKN250 23/22 A2985=
201205101300 METAR MRLM 101300Z 23004KT 9999 FEW015 BKN250 25/23 A2986=
201205101400 METAR MRLM 101400Z 21003KT 9999 FEW030 BKN260 29/23 A2988=
201205101500 METAR MRLM 101500Z 04003KT 9999 FEW030 BKN260 30/23 A2988=
201205101600 METAR MRLM 101600Z 06005KT 9999 FEW30 BKN270 30/24 A2989=
201205101700 METAR MRLM 101700Z 07005KT 9999 FEW030 BKN260 30/24 A2988=
201205101800 METAR MRLM 101800Z 07007KT 9999 FEW030 BKN250 30/24 A2987=
201205101900 METAR MRLM 101900Z 06008KT 9999 FEW030 BKN250 30/24 A2984=
201205102000 METAR MRLM 102000Z 04007KT 9999 FEW030 BKN240 30/24 A2983=
201205102100 METAR MRLM 102100Z 03008KT 9999 SCT025 SCT240 30/24 A2981=
201205102200 METAR MRLM 102200Z 04004KT 9999 SCT030 BKN240 30/24 A2981=
201205102300 METAR MRLM 102300Z 08006KT 9999 SCT025 SCT240 29/24 A2981=
201205110000 METAR MRLM 110000Z 06004KT 9999 SCT020 SCT240 28/24 A2983=
201205110100 METAR MRLM NIL=
201205110200 METAR MRLM NIL=
201205110300 METAR MRLM NIL=
201205110400 METAR MRLM NIL=
201205110500 METAR MRLM NIL=
201205110600 METAR MRLM NIL=
201205110700 METAR MRLM NIL=
201205110800 METAR MRLM NIL=
201205110900 METAR MRLM NIL=
201205111000 METAR MRLM NIL=
201205111100 METAR MRLM NIL=
201205111200 METAR MRLM 111200Z 25006KT 9999 DZ BKN010 23/23 A2990=
201205111300 METAR MRLM 111300Z 23006KT 9999 SCT010 BKN100 24/23 A2990 RE DZ=
201205111400 METAR MRLM 111400Z 22006KT 9999 FEW010 BKN110 24/23 A2991=
201205111500 METAR MRLM 111500Z 24004KT CAVOK 28/23 A2992=
201205111600 METAR MRLM 111600Z 07003KT 9999 FEW035 BKN130 30/23 A2991=
201205111700 METAR MRLM 111700Z 06005KT 9999 FEW035 SCT250 30/23 A2990=
201205111800 METAR MRLM 111800Z 03006KT 9999 FEW035 SCT250 30/24 A2988=
201205111900 METAR MRLM 111900Z 02009KT 9999 FEW030 SCT250 31/24 A2986=
201205112000 METAR MRLM 112000Z 02009KT 9999 FEW030 BKN260 30/24 A2983=
201205112100 METAR MRLM 112100Z 01007KT 9999 FEW030 SCT260 30/24 A2982=
201205112200 METAR MRLM 112200Z 01008KT 9999 FEW030 SCT130 30/24 A2983=
201205112300 METAR MRLM 112300Z 03007KT 9999 FEW025 SCT130 29/24 A2984=
201205120000 METAR MRLM 120000Z 01005KT 9999 FEW020 BKN110 28/25 A2988=
201205120100 METAR MRLM NIL=
201205120200 METAR MRLM NIL=
201205120300 METAR MRLM NIL=
201205120400 METAR MRLM NIL=
201205120500 METAR MRLM NIL=
201205120600 METAR MRLM NIL=
201205120700 METAR MRLM NIL=
201205120800 METAR MRLM NIL=
201205120900 METAR MRLM NIL=
201205121000 METAR MRLM NIL=
201205121100 METAR MRLM NIL=
201205121200 METAR MRLM 121200Z 25004KT 9999 DZ SCT015 SCT025 24/22 A2993=
201205121300 METAR MRLM 121300Z 23006KT 9999 +DZ BKN015 24/22 A2994=
201205121400 METAR MRLM 121400Z 00000KT 9999 BKN020 28/24 A2994 REDZ=
201205121500 METAR MRLM 121500Z 04003KT 9999 BKN020 29/24 A2994=
201205121600 METAR MRLM 1216000Z 02007KT 9999 FEW025 BKN280 30/25 A2993=
201205121700 METAR MRLM 121700Z 01006KT 9999 FEW035 SCT270 31/24 A2991=
201205121800 METAR MRLM 121800Z 02007KT 9999 FEW032 BKN270 30/24 A2990=
201205121900 METAR MRLM 121900Z 01007KT 9999 FEW028 SCT090 30/25 A2987=
201205122000 METAR MRLM 122000Z 03006KT 9999 FEW030 BKN090 31/24 A2985=
201205122100 METAR MRLM 122100Z 04007KT 9999 FEW028 BKN100 30/25 A2983=
201205122200 METAR MRLM 122200Z 04004KT 9999 FEW025 BKN090 30/25 A2983=
201205122300 METAR MRLM 122300Z 03003KT 9999 FEW023 SCT090 29/25 A2984=
201205122353 METAR MRLM 130000Z 33003KT 9999 FEW020 BKN270 29/25 A2985=
201205130000 METAR MRLM 130000Z 33003KT 9999 FEW020 BKN270 29/25 A2985=
201205130100 METAR MRLM NIL=
201205130200 METAR MRLM NIL=
201205130300 METAR MRLM NIL=
201205130400 METAR MRLM NIL=
201205130500 METAR MRLM NIL=
201205130600 METAR MRLM NIL=
201205130700 METAR MRLM NIL=
201205130800 METAR MRLM NIL=
201205130900 METAR MRLM NIL=
201205131000 METAR MRLM NIL=
201205131100 METAR MRLM NIL=
201205131200 METAR MRLM 131200Z 20004KT 9999 FEW015 BKN090 24/24 A2986=
201205131300 METAR MRLM 131300Z 27002KT 9999 FEW015 SCT090 25/24 A2987=
201205131400 METAR MRLM 131400Z 00000KT 9999 BKN025 26/25 A2987=
201205131500 METAR MRLM 131500Z 35004KT 9999 FEW015 BKN025 27/24 A2990=
201205131600 METAR MRLM 131600Z 34006KT 9999 FEW015 SCT130 28/24 A2989=
201205131700 METAR MRLM NIL=
201205131800 METAR MRLM 131800Z 01003KT 9999 FEW035 SCT090 31/24 A29983=
201205131900 METAR MRLM 131900Z 01007KT 9999 FEW035 BKN080 30/24 A2982=
201205132000 METAR MRLM 132000Z 02006KT 9999 FEW035 BKN090 31/24 A2979=
201205132100 METAR MRLM 132100Z 36007KT 9999 FEW025 SCT035 30/24 A2977=
201205132200 METAR MRLM 132200Z 36006KT 9999 FEW035 BKN080 31/24 A2976=
201205132300 METAR MRLM 132300Z 32006KT 9999 DZ FEW025 BKN070 29/24 A2979=
201205132355 METAR MRLM 140000Z 29002KT 9999 FEW015 SCT025 28/24 A2980 REDZ=
201205140000 METAR MRLM 140000Z 29002KT 9999 FEW015 SCT025 28/24 A2980 REDZ=
201205140100 METAR MRLM NIL=
201205140200 METAR MRLM NIL=
201205140300 METAR MRLM NIL=
201205140400 METAR MRLM NIL=
201205140500 METAR MRLM NIL=
201205140600 METAR MRLM NIL=
201205140700 METAR MRLM NIL=
201205140800 METAR MRLM NIL=
201205140900 METAR MRLM NIL=
201205141000 METAR MRLM NIL=
201205141100 METAR MRLM NIL=
201205141200 METAR MRLM 141200Z 24003KT 9999 FEW015 BKN110 24/23 A2983=
201205141300 METAR MRLM 141300Z 25003KT 9999 SCT015 SCT110 25/24 A2985 RMK RA DST NE E HZ AROUND=
201205141400 METAR MRLM 141400Z 24002KT 9999 SCT015 BKN110 25/24 A2988=
201205141500 METAR MRLM 141500Z 00000KT 9999 FEW015 SCT120 26/24 A2988=
201205141600 METAR MRLM 141600Z 141600Z0 24002KT 9999 FEW020 BKN120 28/27 A2986=
201205141700 METAR MRLM 141700Z 08004KT 9999 FEW025 SCT130 29/24 A2985=
201205141800 METAR MRLM 141800Z 03004KT 9999 FEW025 BKN250 29/24 A2982=
201205141900 METAR MRLM 141900Z 07004KT 9999 FEW025 BKN250 30/25 A2979=
201205142000 METAR MRLM 142000Z 08006KT 9999 FEW030 BKN250 30/24 A2976=
201205142100 METAR MRLM 142100Z 06006KT 9999 FEW030 BKN250 30/24 A2976=
201205142200 METAR MRLM 142200Z 06006KT 9999 FEW025 BKN250 30/25 A2975=
201205142300 METAR MRLM 142300Z 04005KT 9999 SCT020 SCT240 29/25 A2978=
201205150000 METAR MRLM 150000Z 08003KT 9999 BKN020 SCT240 28/25 A2980=
201205150100 METAR MRLM NIL=
201205150200 METAR MRLM NIL=
201205150300 METAR MRLM NIL=
201205150400 METAR MRLM NIL=
201205150500 METAR MRLM NIL=
201205150600 METAR MRLM NIL=
201205150700 METAR MRLM NIL=
201205150800 METAR MRLM NIL=
201205150900 METAR MRLM NIL=
201205151000 METAR MRLM NIL=
201205151100 METAR MRLM NIL=
201205151200 METAR MRLM 151200Z 00000KT 9999 -RA BKN007 24/23 A2987=
201205151300 METAR MRLM 151300Z 22003KT 9999 DZ BKN007 SCT090 24/23 A2987=
201205151400 METAR MRLM 151400Z 17002KT 9999 DZ BKN007 SCT100 24/23 A2989=
201205151500 METAR MRLM 151500Z 25004KT 9999 SCT010 BKN110 25/24 A2987 RE DZ=
201205151600 METAR MRLM 151600Z 17002KT 9999 FEW020 SCT120 28/24 A2987=
201205151700 METAR MRLM 151700Z 06004KT 9999 FEW025 BKN250 29/24 A2987 RMK FEW130 HZ AROUND=
201205151800 METAR MRLM 151800Z 06005KT 9999 FEW030 BKN250 29/24 A2985=
201205151900 METAR MRLM 151900Z 05005KT 9999 FEW030 SCT130 29/24 A2982=
201205152000 METAR MRLM 152000Z 05005KT 9999 FEW025 BKN250 30/25 A2979=
201205152100 METAR MRLM 152100Z 05009KT 999 FEW250 BKN250 30/25 A2979=
201205152200 METAR MRLM 152200Z 07006KT 9999 FEW020 SCT130 29/24 A2980=
201205152300 METAR MRLM 152300Z 10004KT 9999 SCT020 SCT250 29/25 A2981=
201205160000 METAR MRLM 160000Z 24002KT 9999 BKN015 27/25 A2985=
201205160100 METAR MRLM NIL=
201205160200 METAR MRLM NIL=
201205160300 METAR MRLM NIL=
201205160400 METAR MRLM NIL=
201205160500 METAR MRLM NIL=
201205160600 METAR MRLM NIL=
201205160700 METAR MRLM NIL=
201205160800 METAR MRLM NIL=
201205160900 METAR MRLM NIL=
201205161000 METAR MRLM NIL=
201205161100 METAR MRLM NIL=
201205161200 METAR MRLM 161200Z 24003KT CAVOK 25/23 A2989=
201205161300 METAR MRLM NIL=
201205161400 METAR MRLM 161400Z 25002KT CAVOK 29/24 A2991=
201205161500 METAR MRLM 161500Z 02006KT 9999 FEW028 BKN270 30/24 A2992=
201205161600 METAR MRLM 161600Z 36008KT 9999 FEW032 BKN270 30/23 A2992=
201205161700 METAR MRLM 161700Z 36007KT 9999 FEW030 BKN260 30/23 A2991=
201205161800 METAR MRLM 161800Z 01011KT 9999 FEW025 SCT260 29/24 A2988=
201205161900 METAR MRLM 161900Z 36008KT 9999 FEW020 BKN260 29/25 A2987=
201205162000 METAR MRLM 162000Z 02006KT 9999 FEW025 BKN260 29/24 A2984=
201205162100 METAR MRLM 162100Z 02005KT 9999 FEW023 BKN260 29/24 A2982=
201205162200 METAR MRLM 162200Z 02005KT 9999 FEW023 BKN260 29/25 A2981=
201205162300 METAR MRLM 162300Z 04004KT 9999 FEW022 BKN260 28/24 A2982=
201205162355 METAR MRLM 170000Z 02004KT 9999 FEW018 BKN260 28/25 A2983=
201205170000 METAR MRLM 170000Z 02004KT 9999 FEW018 BKN260 28/25 A2983=
201205170100 METAR MRLM NIL=
201205170200 METAR MRLM NIL=
201205170300 METAR MRLM NIL=
201205170400 METAR MRLM NIL=
201205170500 METAR MRLM NIL=
201205170600 METAR MRLM NIL=
201205170700 METAR MRLM NIL=
201205170800 METAR MRLM NIL=
201205170900 METAR MRLM NIL=
201205171000 METAR MRLM NIL=
201205171100 METAR MRLM NIL=
201205171200 METAR MRLM 25002KT 9999 VCTS VCSH FEW010CB SCT090 SCT270 23/22 A2987=
201205171222 METAR MRLM 171222Z 25002KT 9999 VCTS VCSH FEW010CB SCT090 SCT270 23/22 A2987=
201205171300 METAR MRLM 171300Z 24004KT CAVOK 24/22 A2987 RETS=
201205171400 METAR MRLM 171400Z 29002KT CAVOK 25/23 A2990=
201205171500 METAR MRLM 171500Z 23003KT CAVOK 26/24 A2991=
201205171600 METAR MRLM 171600Z 25002KT 9999 FEW025 BKN070 29/24 A2990=
201205171700 METAR MRLM 03004KT 9999 FEW035 BKN070 30/23 A2988=
201205171705 METAR MRLM 171705Z 03004KT 9999 FEW035 BKN070 30/23 A2988=
201205171800 METAR MRLM 171800Z 05005KT 9999 FEW025 BKN090 30/24 A2986=
201205171900 METAR MRLM 171900Z 03004KT 9999 FEW035 BKN130 30/23 A2982=
201205172000 METAR MRLM 172000Z 05005KT 9999 FEW030 BKN280 31/24 A2980=
201205172100 METAR MRLM 172100Z 04005KT 9999 FEW028 BKN280 30/25 A2978=
201205172200 METAR MRLM NIL=
201205172300 METAR MRLM 172300Z 09005KT 9999 FEW023 BKN280 29/25 A2979=
201205172353 METAR MRLM 180000Z 09003KT 9999 FEW020 BKN280 29/25 A2980=
201205180000 METAR MRLM 180000Z 09003KT 9999 FEW020 BKN280 29/25 A2980=
201205180100 METAR MRLM NIL=
201205180200 METAR MRLM NIL=
201205180300 METAR MRLM NIL=
201205180400 METAR MRLM NIL=
201205180500 METAR MRLM NIL=
201205180600 METAR MRLM NIL=
201205180700 METAR MRLM NIL=
201205180800 METAR MRLM NIL=
201205180900 METAR MRLM NIL=
201205181000 METAR MRLM NIL=
201205181100 METAR MRLM NIL=
201205181200 METAR MRLM NIL=
201205181300 METAR MRLM 181300Z 24002KT 9999 BKN030 25/23 A2985=
201205181400 METAR MRLM 181400Z 23003KT 9999 BKN030 26/24 A2987=
201205181500 METAR MRLM 181500Z 26005KT 9999 FEW020 BKN090 29/24 A2987=
201205181600 METAR MRLM 181600Z 05003KT 9999 FEW025 SCT120 30/25 A2987=
201205181700 METAR MRLM 181700Z 01008KT 9999 FEW015 BKN110 30/25 A2985=
201205181800 METAR MRLM 181800Z 02009KT 9999 FEW028 BKN270 30/25 A2984=
201205181900 METAR MRLM 181900Z 01010KT 9999 FEW025 BKN270 30/25 A2982=
201205182000 METAR MRLM 182000Z 02007KT 9999 FEW028 BKN270 30/25 A2979=
201205182100 METAR MRLM 182100Z 03005KT 9999 FEW028 BKN270 30/24 A2977=
201205182200 METAR MRLM NIL=
201205182300 METAR MRLM NIL=
201205190000 METAR MRLM NIL=
201205190100 METAR MRLM NIL=
201205190200 METAR MRLM NIL=
201205190300 METAR MRLM NIL=
201205190400 METAR MRLM NIL=
201205190500 METAR MRLM NIL=
201205190600 METAR MRLM NIL=
201205190700 METAR MRLM NIL=
201205190800 METAR MRLM NIL=
201205190900 METAR MRLM NIL=
201205191000 METAR MRLM NIL=
201205191100 METAR MRLM NIL=
201205191200 METAR MRLM NIL=
201205191300 METAR MRLM 191300Z 21005KT CAVOK 25/22 A2983=
201205191400 METAR MRLM 191400Z 27002KT CAVOK 28/24 A2985=
201205191500 METAR MRLM 191500Z 26002KT 9999 FEW035 SCT140 31/24 A2985=
201205191600 METAR MRLM 191600Z 08004KT 9999 FEW035 BKN270 31/24 A2985=
201205191700 METAR MRLM 191700Z 05007KT 9999 FEW025 BKN270 30/25 A2984=
201205191800 METAR MRLM 191800Z 05007KT 9999 FEW030 BKN270 30/25 A2982=
201205191900 METAR MRLM 191900Z 04007KT 9999 FEW028 BKN270 30/25 A2978=
201205192000 METAR MRLM 192000Z 05006KT 9999 FEW025 BKN270 30/25 A2976=
201205192100 METAR MRLM 192100Z 04006KT 9999 FEW022 SCT140 29/25 A2975=
201205192200 METAR MRLM NIL=
201205192300 METAR MRLM NIL=
201205200000 METAR MRLM NIL=
201205200100 METAR MRLM NIL=
201205200200 METAR MRLM NIL=
201205200300 METAR MRLM NIL=
201205200400 METAR MRLM NIL=
201205200500 METAR MRLM NIL=
201205200600 METAR MRLM NIL=
201205200700 METAR MRLM NIL=
201205200800 METAR MRLM NIL=
201205200900 METAR MRLM NIL=
201205201000 METAR MRLM NIL=
201205201100 METAR MRLM NIL=
201205201200 METAR MRLM NIL=
201205201300 METAR MRLM 201300Z 23003KT CAVOK 25/24 A2982=
201205201400 METAR MRLM 201400Z 23003KT CAVOK 28/25 A2984=
201205201500 METAR MRLM NIL=
201205201600 METAR MRLM 201600Z 32003KT 9999 FEW032 BKN260 31/25 A2985=
201205201700 METAR MRLM 201700Z 02009KT 9999 FEW028 BKN260 31/25 A2984=
201205201755 METAR MRLM 201755Z 02009KT 9999 FEW030 BKN270 31/25 A2982=
201205201800 METAR MRLM 02009KT 9999 FEW030 BKN270 31/25 A2982=
201205201900 METAR MRLM 201900Z 01006KT 9999 FEW025 SCT080 30/25 A2981 RETS=
201205202000 METAR MRLM 202000Z 23005KT 9999 DZ SCT015 SCT025 27/24 A2980=
201205202100 METAR MRLM 202100Z 23004KT 9999 FEW020 SCT090 27/23 A2977 REDZ=
201205202200 METAR MRLM NIL=
201205202300 METAR MRLM NIL=
201205210000 METAR MRLM NIL=
201205210100 METAR MRLM NIL=
201205210200 METAR MRLM NIL=
201205210300 METAR MRLM NIL=
201205210400 METAR MRLM NIL=
201205210500 METAR MRLM NIL=
201205210600 METAR MRLM NIL=
201205210700 METAR MRLM NIL=
201205210800 METAR MRLM NIL=
201205210900 METAR MRLM NIL=
201205211000 METAR MRLM NIL=
201205211100 METAR MRLM NIL=
201205211200 METAR MRLM NIL=
201205211300 METAR MRLM 211300Z 20003KT 9999 DZ BKN130 FEW250 25/24 A2989=
201205211400 METAR MRLM 211400Z 21004KT CAVOK 27/24 A2990REDZ=
201205211500 METAR MRLM 211500Z 11005KT 9999 FEW030 BKN130 29/23 A2991=
201205211600 METAR MRLM 211600Z 07003KT 9999 FEW035 BKN140 29/23 A2990=
201205211700 METAR MRLM 211700Z 07004KT 9999 FEW035 BKN140 30/23 A2990=
201205211800 METAR MRLM 211800Z 04005KT 9999 FEW030 BKN090 30/23 A2989=
201205211900 METAR MRLM 211900Z 04005KT 9999 FEW030 BKN140 30/24 A2987=
201205212000 METAR MRLM 212000Z 06005KT 9999 FEW025 SCT035 29/24 A2985=
201205212100 METAR MRLM 212100Z 06004KT 9999 FEW025 SCT140 29/24 A2983=
201205212200 METAR MRLM NIL=
201205212300 METAR MRLM NIL=
201205220000 METAR MRLM NIL=
201205220100 METAR MRLM NIL=
201205220200 METAR MRLM NIL=
201205220300 METAR MRLM NIL=
201205220400 METAR MRLM NIL=
201205220500 METAR MRLM NIL=
201205220600 METAR MRLM NIL=
201205220700 METAR MRLM NIL=
201205220800 METAR MRLM NIL=
201205220900 METAR MRLM NIL=
201205221000 METAR MRLM NIL=
201205221100 METAR MRLM NIL=
201205221200 METAR MRLM NIL=
201205221300 METAR MRLM 221300Z 24003KT CAVOK 25/23 A2990=
201205221400 METAR MRLM 221400Z 05003KT CAVOK 29/24 A2991=
201205221500 METAR MRLM 221500Z 09004KT 9999 FEW030 SCT140 30/24 A2992=
201205221600 METAR MRLM 221600Z 09006KT 9999 FEW030 SCT140 30/24 A2993=
201205221700 METAR MRLM 221700Z 08006KT 9999 FEW028 SCT140 30/24 A2992=
201205221800 METAR MRLM 221800Z 08006KT 9999 FEW028 SCT140 30/25 A2990=
201205221900 METAR MRLM 221900Z 07006KT 9999 FEW028 BKN270 30/24 A2987=
201205221958 METAR MRLM 221958Z 06005KT 9999 FEW025 BKN270 30/24 A2983=
201205222000 METAR MRLM 06005KT 9999 FEW025 BKN270 30/24 A2983=
201205222100 METAR MRLM 222100Z 06006KT 9999 FEW028 SCT270 30/24 A2982=
201205222200 METAR MRLM NIL=
201205222300 METAR MRLM NIL=
201205230000 METAR MRLM NIL=
201205230100 METAR MRLM NIL=
201205230200 METAR MRLM NIL=
201205230300 METAR MRLM NIL=
201205230400 METAR MRLM NIL=
201205230500 METAR MRLM NIL=
201205230600 METAR MRLM NIL=
201205230700 METAR MRLM NIL=
201205230800 METAR MRLM NIL=
201205230900 METAR MRLM NIL=
201205231000 METAR MRLM NIL=
201205231100 METAR MRLM NIL=
201205231200 METAR MRLM NIL=
201205231300 METAR MRLM 231300Z 23004KT CAVOK 24/23 A2988=
201205231400 METAR MRLM 231400Z 23003KT CAVOK 27/24 A2990=
201205231500 METAR MRLM 231500Z 0303KT CAVOK 29/24 A2991=
201205231600 METAR MRLM 231600Z 09004KT 9999 FEW030 BKN080 29/24 A2989 NOSIG=
201205231700 METAR MRLM 231700Z 07004KT 9999 FEW028 BKN140 30/24 A2988=
201205231800 METAR MRLM 231800Z 07006KT 9999 FEW025 BKN270 30/25 A2985=
201205231900 METAR MRLM 231900Z 07006KT 9999 FEW025 BKN270 30/25 A2981=
201205232000 METAR MRLM 232000Z 06006KT 9999 FEW025 BKN270 30/25 A2979=
201205232100 METAR MRLM 232100Z 07007KT 9999 FEW028 BKN280 31/25 A2977=
201205232200 METAR MRLM NIL=
201205232300 METAR MRLM NIL=
201205240000 METAR MRLM NIL=
201205240100 METAR MRLM NIL=
201205240200 METAR MRLM NIL=
201205240300 METAR MRLM NIL=
201205240400 METAR MRLM NIL=
201205240500 METAR MRLM NIL=
201205240600 METAR MRLM NIL=
201205240700 METAR MRLM NIL=
201205240800 METAR MRLM NIL=
201205240900 METAR MRLM NIL=
201205241000 METAR MRLM NIL=
201205241100 METAR MRLM NIL=
201205241200 METAR MRLM NIL=
201205241300 METAR MRLM 241300Z 26004KT 9999 FEW015 BKN270 28/24 A2986=
201205241400 METAR MRLM 241400Z 26002KT 9999 FEW020 SCT270 29/25 A2988=
201205241500 METAR MRLM 241500Z 07004KT 9999 FEW025 SCT130 29/25 A2990=
201205241600 METAR MRLM 241600Z 10005KT 9999 FEW028 SCT150 30/24 A2990=
201205241700 METAR MRLM 241700Z 08006KT 9999 FEW028 BKN140 30/24 A2989=
201205241800 METAR MRLM 241800Z 09007KT 9999 FEW028 BKN270 30/25 A2985=
201205241900 METAR MRLM 241900Z 06006KT 9999 FEW030 SCT260 30/25 A2985=
201205242000 METAR MRLM 242000Z 05006KT 9999 FEW025 SCT150 30/24 A2982=
201205242100 METAR MRLM 242100Z 08007KT 9999 FEW025 SCT150 30/25 A2981=
201205242200 METAR MRLM NIL=
201205242300 METAR MRLM NIL=
201205250000 METAR MRLM NIL=
201205250100 METAR MRLM NIL=
201205250200 METAR MRLM NIL=
201205250300 METAR MRLM NIL=
201205250400 METAR MRLM NIL=
201205250500 METAR MRLM NIL=
201205250600 METAR MRLM NIL=
201205250700 METAR MRLM NIL=
201205250800 METAR MRLM NIL=
201205250900 METAR MRLM NIL=
201205251000 METAR MRLM NIL=
201205251100 METAR MRLM NIL=
201205251200 METAR MRLM NIL=
201205251300 METAR MRLM 251300Z 23003KT CAVOK 27/24 A2990=
201205251400 METAR MRLM 251400Z 23002KT CAVOK 30/24 A2990=
201205251500 METAR MRLM 251500Z 04004KT CAVOK 30/24 A2989=
201205251600 METAR MRLM 251600Z 01007KT 9999 FEW025 BKN280 30/25 A2989=
201205251700 METAR MRLM 251700Z 03006KT 9999 FEW025 BKN280 30/26 A2991=
201205251800 METAR MRLM 251800Z 05006KT 9999 FEW025 BKN280 30/25 A2989=
201205251900 METAR MRLM 251900Z 03007KT 9999 SCT025 BKN280 31/26 A2987=
201205252000 METAR MRLM 252000Z 02008KT 9999 SCT025 SCT270 31/25 A2986=
201205252100 METAR MRLM 252100Z 03006KT 9999 BKN030 31/25 A2984=
201205252200 METAR MRLM NIL=
201205252300 METAR MRLM NIL=
201205260000 METAR MRLM NIL=
201205260100 METAR MRLM NIL=
201205260200 METAR MRLM NIL=
201205260300 METAR MRLM NIL=
201205260400 METAR MRLM NIL=
201205260500 METAR MRLM NIL=
201205260600 METAR MRLM NIL=
201205260700 METAR MRLM NIL=
201205260800 METAR MRLM NIL=
201205260900 METAR MRLM NIL=
201205261000 METAR MRLM NIL=
201205261100 METAR MRLM NIL=
201205261200 METAR MRLM NIL=
201205261300 METAR MRLM 261300Z 22004KT CAVOK 25/23 A2989=
201205261400 METAR MRLM 261400Z 26002KT CAVOK 30/24 A2989=
201205261500 METAR MRLM 261500Z 04005KT 9999 FEW030 30/24 A2990=
201205261600 METAR MRLM 261600Z 05006KT 9999 FEW030 BKN150 30/24 A2989=
201205261700 METAR MRLM 261700Z 04009KT 9999 FEW025 SCT130 30/25 A2990=
201205261800 METAR MRLM 261800Z 04011KT 9999 OVC020 30/25 A2989=
201205261900 METAR MRLM 261900Z 05015KT 9999 BKN025 28/24 A2987=
201205262000 METAR MRLM NIL=
201205262100 METAR MRLM 262100Z 17003KT 9999 RA FEW012 BKN120 26/24 A2986=
201205262200 METAR MRLM NIL=
201205262300 METAR MRLM NIL=
201205270000 METAR MRLM NIL=
201205270100 METAR MRLM NIL=
201205270200 METAR MRLM NIL=
201205270300 METAR MRLM NIL=
201205270400 METAR MRLM NIL=
201205270500 METAR MRLM NIL=
201205270600 METAR MRLM NIL=
201205270700 METAR MRLM NIL=
201205270800 METAR MRLM NIL=
201205270900 METAR MRLM NIL=
201205271000 METAR MRLM NIL=
201205271100 METAR MRLM NIL=
201205271200 METAR MRLM NIL=
201205271300 METAR MRLM 271300Z 23005KT 9999 FEW015 BKN270 25/22 A985=
201205271400 METAR MRLM 271400Z 31002KT CAVOK 27/24 A2985=
201205271500 METAR MRLM 271500Z 31003KT CAVOK 29/22 A2985=
201205271600 METAR MRLM 271600Z 21002KT 9999 FEW025 BKN250 27/17 A2996 NOSIG=
201205271700 METAR MRLM 271700Z 31004KT 9999 FEW040 BKN270 31/22 A2984 HZ LGT ARND=
201205271758 METAR MRLM 271758Z 34007KT 9999 FEW040 BKN270 31/23 A2982=
201205271800 METAR MRLM 34007KT 9999 FEW040 BKN270 31/23 A2982=
201205271900 METAR MRLM 271900Z 01011KT 9999 FEW040 BKN270 31/24 A2979=
201205272000 METAR MRLM 272000Z 35011KT 9999 FEW035 BKN270 31/24 A2979=
201205272100 METAR MRLM 272100Z 26011KT 9999 FEW030 BKN270 30/24 A2978=
201205272200 METAR MRLM NIL=
201205272300 METAR MRLM NIL=
201205280000 METAR MRLM NIL=
201205280100 METAR MRLM NIL=
201205280200 METAR MRLM NIL=
201205280300 METAR MRLM NIL=
201205280400 METAR MRLM NIL=
201205280500 METAR MRLM NIL=
201205280600 METAR MRLM NIL=
201205280700 METAR MRLM NIL=
201205280800 METAR MRLM NIL=
201205280900 METAR MRLM NIL=
201205281000 METAR MRLM NIL=
201205281100 METAR MRLM NIL=
201205281200 METAR MRLM NIL=
201205281300 METAR MRLM 281300Z 00000KT CAVOK 28/24 A2984=
201205281400 METAR MRLM 281400Z 30003KT CAVOK 29/24 A2985=
201205281500 METAR MRLM 281500Z 31006KT CAVOK 30/23 A2985=
201205281600 METAR MRLM 281600Z 36006KT 9999 FEW030 BKN270 30/24 A2984=
201205281700 METAR MRLM 281700Z 01008KT 9999 FEW030 BKN270 30/24 A2984=
201205281800 METAR MRLM 281800Z 01007KT 9999 FEW030 BKN270 30/24 A2982=
201205281900 METAR MRLM 281900Z 01008KT 9999 FEW025 SCT270 30/25 A2981=
201205282000 METAR MRLM 282000Z 01008KT 9999 FEW025 BKN270 30/26 A2979=
201205282100 METAR MRLM 282100Z 02007KT 9999 FEW025 BKN270 30/25 A2978=
201205282200 METAR MRLM NIL=
201205282300 METAR MRLM NIL=
201205290000 METAR MRLM NIL=
201205290100 METAR MRLM NIL=
201205290200 METAR MRLM NIL=
201205290300 METAR MRLM NIL=
201205290400 METAR MRLM NIL=
201205290500 METAR MRLM NIL=
201205290600 METAR MRLM NIL=
201205290700 METAR MRLM NIL=
201205290800 METAR MRLM NIL=
201205290900 METAR MRLM NIL=
201205291000 METAR MRLM NIL=
201205291100 METAR MRLM NIL=
201205291200 METAR MRLM NIL=
201205291300 METAR MRLM 291300Z 21003KT CAVOK 26/24 A2984=
201205291400 METAR MRLM 291400Z 18002KT CAVOK 28/24 A2986=
201205291500 METAR MRLM 291500Z 33003KT 9999 FEW025 BKN270 30/25 A2985=
201205291600 METAR MRLM 291600Z 04007KT 9999 FEW025 BKN270 30/25 A2986=
201205291700 METAR MRLM 291700Z 02005KT 9999 FEW025 SCT140 30/25 A2985=
201205291800 METAR MRLM 291800Z 04006KT 9999 FEW025 SCT120 31/25 A2982=
201205291900 METAR MRLM 291900Z 04011KT 9999 SCT025 SCT090 30/25 A2979=
201205292000 METAR MRLM 292000Z 02012KT 9999 BKN020 30/26 A2979=
201205292100 METAR MRLM 292100Z 06010KT 9999 SCT018 SCT030 29/25 A2978=
201205292200 METAR MRLM NIL=
201205292300 METAR MRLM NIL=
201205300000 METAR MRLM NIL=
201205300100 METAR MRLM NIL=
201205300200 METAR MRLM NIL=
201205300300 METAR MRLM NIL=
201205300400 METAR MRLM NIL=
201205300500 METAR MRLM NIL=
201205300600 METAR MRLM NIL=
201205300700 METAR MRLM NIL=
201205300800 METAR MRLM NIL=
201205300900 METAR MRLM NIL=
201205301000 METAR MRLM NIL=
201205301100 METAR MRLM NIL=
201205301200 METAR MRLM NIL=
201205301300 METAR MRLM 301300Z 27004KT 8000 RA FEW005 SCT015 24/24 A2988=
201205301400 METAR MRLM 301400Z 24004KT 8000 TSRA FEW005 SCT010CB SCT015 24/24 A2989=
201205301500 METAR MRLM 301500Z 07003KT CAVOK 25/19 A2996 NOSIG=
201205301600 METAR MRLM 301600Z 18005KT 9999 RA SCT003 SCT030 25/24 A2989=
201205301700 METAR MRLM 301700Z 19003KT 9999 +DZ FEW003 SCT030 25/25 A2986 RERA=
201205301800 METAR MRLM 301800Z 12003KT 9999 SCT030 SCT150 27/25 A2981 REDZ=
201205301900 METAR MRLM 301900Z 35008KT 9999 SCT015 SCT140 28/25 A2978=
201205302000 METAR MRLM 302000Z 36007KT 9999 SCT015 SCT260 28/25 A2978=
201205302100 METAR MRLM 302100Z 05002KT 9999 FEW020 BKN260 28/25 A2978=
201205302200 METAR MRLM NIL=
201205302300 METAR MRLM NIL=
201205310000 METAR MRLM NIL=
201205310100 METAR MRLM NIL=
201205310200 METAR MRLM NIL=
201205310300 METAR MRLM NIL=
201205310400 METAR MRLM NIL=
201205310500 METAR MRLM NIL=
201205310600 METAR MRLM NIL=
201205310700 METAR MRLM NIL=
201205310800 METAR MRLM NIL=
201205310900 METAR MRLM NIL=
201205311000 METAR MRLM NIL=
201205311100 METAR MRLM NIL=
201205311200 METAR MRLM NIL=
201205311300 METAR MRLM 311300Z 23004KT CAVOK 25/22 A2986=
201205311400 METAR MRLM 311400Z 21003KT CAVOK 27/23 A2988=
201205311500 METAR MRLM 311500Z 07002KT 9999 FEW030 BKM150 30/23 A2989=
201205311600 METAR MRLM 311600Z 05003KT 9999 FEW030 SCT150 30/24 A2988=
201205311700 METAR MRLM 311700Z 04006KT 9999 FEW030 SCT150 30/24 A2986=
201205311800 METAR MRLM 311800Z 05006KT 9999 FEW035 SCT140 30/24 A2985=
201205311900 METAR MRLM 311900Z 06008KT 9999 FEW030 SCT280 30/24 A2983=
201205312000 METAR MRLM 312000Z 06005KT 9999 FEW028 SCT280 30/24 A2981=
201205312100 METAR MRLM 312100Z 09005KT 9999 FEW025 SCT140 30/24 A2980 NOSIG=
201205312200 METAR MRLM NIL=
201205312300 METAR MRLM NIL=
201206010000 METAR MRLM NIL=
201206010100 METAR MRLM NIL=
201206010200 METAR MRLM NIL=
201206010300 METAR MRLM NIL=
201206010400 METAR MRLM NIL=
201206010500 METAR MRLM NIL=
201206010600 METAR MRLM NIL=
201206010700 METAR MRLM NIL=
201206010800 METAR MRLM NIL=
201206010900 METAR MRLM NIL=
201206011000 METAR MRLM NIL=
201206011100 METAR MRLM NIL=
201206011200 METAR MRLM NIL=
201206011300 METAR MRLM 011300Z 23004KT CAVOK 27/23 A2991=
201206011400 METAR MRLM 011400Z 00000KT CAVOK 30/25 A2992 NOSIG=
201206011500 METAR MRLM 011500Z 05004KT 9999 FEW028 BKN280 30/24 A2993=
201206011600 METAR MRLM 011600Z 06005KT 9999 FEW028 BKN280 30/24 A2994=
201206011700 METAR MRLM 011700Z 06005KT 9999 FEW025 BKN270 30/25 A2993=
201206011800 METAR MRLM 011800Z 05006KT 9999 FEW025 BKN260 30/25 A2990=
201206011900 METAR MRLM 011900Z 05006KT 9999 FEW025 BKN270 30/25 A2987=
201206012000 METAR MRLM 012000Z 07007KT 9999 FEW025 BKN270 30/25 A2986=
201206012100 METAR MRLM 012100Z 07006KT 9999 SCT020 SCT270 30/25 A2984=
201206012200 METAR MRLM NIL=
201206012300 METAR MRLM NIL=
201206020000 METAR MRLM NIL=
201206020100 METAR MRLM NIL=
201206020200 METAR MRLM NIL=
201206020300 METAR MRLM NIL=
201206020400 METAR MRLM NIL=
201206020500 METAR MRLM NIL=
201206020600 METAR MRLM NIL=
201206020700 METAR MRLM NIL=
201206020800 METAR MRLM NIL=
201206020900 METAR MRLM NIL=
201206021000 METAR MRLM NIL=
201206021100 METAR MRLM NIL=
201206021200 METAR MRLM NIL=
201206021300 METAR MRLM 021300Z 00000KT 9999 BKN035 25/24 A2994=
201206021400 METAR MRLM 021400Z 27003KT CAVOK 27/25 A2994=
201206021500 METAR MRLM 021500Z 05004KT 9999 FEW018 SCT270 28/25 A2995=
201206021600 METAR MRLM 021600Z 02004KT 9999 FEW020 BKN090 29/25 A2996=
201206021700 METAR MRLM 021700Z 01006KT 9999 FEW025 SCT130 29/24 A2994=
201206021800 METAR MRLM 021800Z 03006KT 9999 FEW025 SCT130 29/25 A2991=
201206021900 METAR MRLM 021900Z 03007KT 9999 DZ FEW020 SCT130 29/25 A2990=
201206022000 METAR MRLM 022000Z 02004KT 9999 FEW025 SCT270 30/25 A2987 REDZ=
201206022100 METAR MRLM 022100Z 07004KT 9999 FEW020 BKN270 29/25 A2986=
201206022200 METAR MRLM NIL=
201206022300 METAR MRLM NIL=
201206030000 METAR MRLM NIL=
201206030100 METAR MRLM NIL=
201206030200 METAR MRLM NIL=
201206030300 METAR MRLM NIL=
201206030400 METAR MRLM NIL=
201206030500 METAR MRLM NIL=
201206030600 METAR MRLM NIL=
201206030700 METAR MRLM NIL=
201206030800 METAR MRLM NIL=
201206030900 METAR MRLM NIL=
201206031000 METAR MRLM NIL=
201206031100 METAR MRLM NIL=
201206031200 METAR MRLM 031200Z 24003KT CAVOK 24/23 A2991=
201206031300 METAR MRLM 031300Z 23003KT CAVOK 26/24 A2992=
201206031400 METAR MRLM 031400Z 20003KT 9999 FEW020 BKN250 28/24 A2993=
201206031500 METAR MRLM 031500Z 08003KT 9999 FEW025 BKN250 29/24 A2994=
201206031600 METAR MRLM 031600Z 08004KT 9999 FEW030 SCT130 30/24 A2993=
201206031700 METAR MRLM 031700Z 08004KT 9999 FEW030 BKN250 30/24 A2992=
201206031800 METAR MRLM 031800Z 04006KT 9999 FEW030 BKN260 30/24 A2988=
201206031900 METAR MRLM 031900Z 02007KT 9999 FEW030 BKN260 31/25 A2985=
201206032000 METAR MRLM 032000Z 02007KT 9999 FEW030 BKN260 31/25 A2984=
201206032100 METAR MRLM 032100Z 03007KT 9999 FEW030 BKN250 31/25 A2982=
201206032200 METAR MRLM 032200Z 03005KT 9999 SCT025 BKN250 31/25 A2982=
201206032300 METAR MRLM 032300Z 02005KT 9999 SCT025 SCT250 30/25 A2983=
201206040000 METAR MRLM 040000Z 01003KT 9999 BKN020 29/25 A2987=
201206040100 METAR MRLM NIL=
201206040200 METAR MRLM NIL=
201206040300 METAR MRLM NIL=
201206040400 METAR MRLM NIL=
201206040500 METAR MRLM NIL=
201206040600 METAR MRLM NIL=
201206040700 METAR MRLM NIL=
201206040800 METAR MRLM NIL=
201206040900 METAR MRLM NIL=
201206041000 METAR MRLM NIL=
201206041100 METAR MRLM NIL=
201206041200 METAR MRLM 041200Z 00000KT CAVOK 24/23 A2987=
201206041300 METAR MRLM 041300Z 22004KT CAVOK 26/24 A2988=
201206041400 METAR MRLM 041400Z 00000KT CAVOK 27/25 A2988=
201206041500 METAR MRLM 041500Z 04005KT 9999 FEW020 BKN250 30/25 A2990=
201206041600 METAR MRLM 041600Z 35008KT 9999 SCT020 SCT250 30/24 A2991=
201206041700 METAR MRLM 041700Z 32005KT 9999 SCT020 SCT120 29/25 A2990=
201206041800 METAR MRLM 041800Z 34007KT 9999 FEW020 BKN250 30/26 A2988=
201206041900 METAR MRLM 041900Z 36008KT 9999 FEW020 SCT120 30/25 A2985=
201206042000 METAR MRLM 042000Z 01008KT 9999 FEW025 BKN250 30/25 A2983=
201206042100 METAR MRLM 042100Z 01007KT 9999 FEW025 BKN250 30/24 A2980=
201206042200 METAR MRLM 042200Z 01007KT 9999 FEW025 BKN240 30/24 A2980=
201206042300 METAR MRLM 042300Z 05003KT 9999 FEW020 BKN240 29/25 A2985=
201206050000 METAR MRLM 050000Z 08004KT 9999 FEW020 BKN250 29/25 A2983=
201206050100 METAR MRLM NIL=
201206050200 METAR MRLM NIL=
201206050300 METAR MRLM NIL=
201206050400 METAR MRLM NIL=
201206050500 METAR MRLM NIL=
201206050600 METAR MRLM NIL=
201206050700 METAR MRLM NIL=
201206050800 METAR MRLM NIL=
201206050900 METAR MRLM NIL=
201206051000 METAR MRLM NIL=
201206051100 METAR MRLM NIL=
201206051200 METAR MRLM 051200Z 23002KT 9999 FEW007 BKN025 24/23 A2986=
201206051300 METAR MRLM 051300Z 24003KT 9999 BKN015 25/24 A2987=
201206051400 METAR MRLM 051400Z 00000KT 9999 DZ VCTS VCSH FEW010CB BKN015 26/24 A2988=
201206051500 METAR MRLM 051500Z 36003KT 9999 DZ VCTS FEW005 FEW010 BKN020 28/23 A2987=
201206051600 METAR MRLM 051600Z 26005KT 9999 BKN015 FEW100 30/25 A2986 RETS=
201206051700 METAR MRLM 051700Z 04005KT 9999 BKN028 30/25 A2985=
201206051800 METAR MRLM 051800Z 06006KT 9999 SCT025 BKN120 30/25 A2984=
201206051900 METAR MRLM 051900Z 04005KT 9999 FEW025 BKN110 29/24 A2980=
201206052000 METAR MRLM 052000Z 07008KT 9999 FEW025 SCT100 29/25 A2978=
201206052100 METAR MRLM 052100Z 06009KT 9999 FEW015 SCT025 29/25 A2978=
201206052200 METAR MRLM 052200Z 07006KT 9999 SCT018 SCT150 29/25 A2979=
201206052300 METAR MRLM 052300Z 11003KT 9999 FEW023 BKN260 29/24 A2979=
201206060000 METAR MRLM 060000Z 19002KT 9999 FEW013 BKN260 28/23 A2980=
201206060100 METAR MRLM NIL=
201206060200 METAR MRLM NIL=
201206060300 METAR MRLM NIL=
201206060400 METAR MRLM NIL=
201206060500 METAR MRLM NIL=
201206060600 METAR MRLM NIL=
201206060700 METAR MRLM NIL=
201206060800 METAR MRLM NIL=
201206060900 METAR MRLM NIL=
201206061000 METAR MRLM NIL=
201206061100 METAR MRLM NIL=
201206061200 METAR MRLM 061200Z 22003KT 9999 DZ BKN020 24/23 A2986=
201206061300 METAR MRLM 061300Z 24004KT 9999 FEW020 SCT090 26/24 A2986 REDZ=
201206061400 METAR MRLM 061400Z 20002KT 9999 FEW015 BKN025 28/25 A2989=
201206061500 METAR MRLM 061500Z 00000KT 9999 FEW020 BKN080 29/25 A2989=
201206061600 METAR MRLM 061600Z 04004KT 9999 FEW028 BKN270 30/24 A2989=
201206061700 METAR MRLM 061700Z 05005KT 9999 FEW025 BKN270 30/25 A2987=
201206061800 METAR MRLM 061800Z 05007KT 9999 FEW025 BKN270 30/25 A2985=
201206061900 METAR MRLM 061900Z 04005KT 9999 FEW025 BKN270 30/25 A2984=
201206062000 METAR MRLM 062000Z 06005KT 9999 FEW025 BKN270 30/25 A2982=
201206062100 METAR MRLM 062100Z 05004KT 9999 FEW028 BKN280 30/25 A2981=
201206062200 METAR MRLM 062200Z 05004KT 9999 FEW028 BKN280 30/24 A2980=
201206062300 METAR MRLM 062300Z 05005KT 9999 FEW025 BKN270 30/24 A2981=
201206062356 METAR MRLM 070000Z 05004KT 9999 SCT023 SCT270 29/24 A2984=
201206070000 METAR MRLM 070000Z 05004KT 9999 SCT023 SCT270 29/24 A2984=
201206070100 METAR MRLM NIL=
201206070200 METAR MRLM NIL=
201206070300 METAR MRLM NIL=
201206070400 METAR MRLM NIL=
201206070500 METAR MRLM NIL=
201206070600 METAR MRLM NIL=
201206070700 METAR MRLM NIL=
201206070800 METAR MRLM NIL=
201206070900 METAR MRLM NIL=
201206071000 METAR MRLM NIL=
201206071100 METAR MRLM NIL=
201206071200 METAR MRLM 071200Z 00000KT 9999 SCT015 SCT100 24/23 A2986=
201206071300 METAR MRLM 071300Z 26003KT 9999 FEW015 BKN100 25/23 A2987=
201206071400 METAR MRLM 071400Z 25002KT 9999 SCT020 SCT110 27/24 A2990=
201206071500 METAR MRLM 071500Z 22005KT 9999 SCT020 SCT110 29/24 A2989=
201206071600 METAR MRLM 071600Z 19004KT 9999 FEW030 SCT120 30/25 A2987=
201206071700 METAR MRLM 071700Z 04005KT 9999 FEW030 30/25 A2985=
201206071800 METAR MRLM 071800Z 02007KT 9999 FEW030 BKN260 31/25 A2984=
201206071900 METAR MRLM 071900Z 02008KT 9999 FEW030 SCT260 31/25 A2983=
201206072000 METAR MRLM 072000Z 02008KT 9999 FEW025 31/26 A2982=
201206072100 METAR MRLM 072100Z 02007KT 9999 FEW030 31/26 A2981=
201206072200 METAR MRLM 072200Z 04009KT 9999 FEW025 30/26 A2981=
201206072300 METAR MRLM 072300Z 04006KT 9999 FEW025 BKN250 30/25 A2981=
201206080000 METAR MRLM 080000Z 06005KT 9999 FEW020 BKN120 26/25 A2982=
201206080100 METAR MRLM NIL=
201206080200 METAR MRLM NIL=
201206080300 METAR MRLM NIL=
201206080400 METAR MRLM NIL=
201206080500 METAR MRLM NIL=
201206080600 METAR MRLM NIL=
201206080700 METAR MRLM NIL=
201206080800 METAR MRLM NIL=
201206080900 METAR MRLM NIL=
201206081000 METAR MRLM NIL=
201206081100 METAR MRLM NIL=
201206081200 METAR MRLM 081200Z 24003KT CAVOK 24/23 A2983=
201206081300 METAR MRLM 081300Z 24005KT CAVOK 25/23 A2983=
201206081400 METAR MRLM 081400Z 24004KT CAVOK 28/24 A2984=
201206081500 METAR MRLM 081500Z 31004KT 9999 FEW030 BKN130 31/24 A2985=
201206081600 METAR MRLM 081600Z 35007KT 9999 FEW035 BKN130 31/24 A2984=
201206081700 METAR MRLM 081700Z 01007KT 9999 SCT025 BKN120 30/25 A2985=
201206081800 METAR MRLM 081800Z 02006KT 9999 SCT020 BKN110 29/25 A2984=
201206081900 METAR MRLM 081900Z 02004KT 9999 FEW025 BKN120 30/25 A2982=
201206082000 METAR MRLM 082000Z 02005KT 9999 FEW025 31/26 A2980=
201206082100 METAR MRLM 082100Z 03005KT 9999 SCT025 31/26 A2977=
201206082200 METAR MRLM 082200Z 04007KT 9999 SCT025 SCT250 30/25 A2976=
201206082300 METAR MRLM 082300Z 02005KT 9999 SCT020 SCT250 30/25 A2979=
201206090000 METAR MRLM 090000Z 31002KT 9999 BKN020 28/25 A2981=
201206090100 METAR MRLM NIL=
201206090200 METAR MRLM NIL=
201206090300 METAR MRLM NIL=
201206090400 METAR MRLM NIL=
201206090500 METAR MRLM NIL=
201206090600 METAR MRLM NIL=
201206090700 METAR MRLM NIL=
201206090800 METAR MRLM NIL=
201206090900 METAR MRLM NIL=
201206091000 METAR MRLM NIL=
201206091100 METAR MRLM NIL=
201206091200 METAR MRLM 091200Z 21004KT 9999 BKN025 24/24 A2982=
201206091228 METAR MRLM 31565 82104 10244 20235 30086 40088 53003 715// 86570 333 06000 10318 202421 30/// 59011 86625=
201206091300 METAR MRLM 091300Z 22004KT 9999 SCT025 SCT080 25/24 A2981=
201206091400 METAR MRLM 091400Z 22004KT 9999 SCT025 SCT090 29/24 A2983=
201206091500 METAR MRLM 091500Z 05004KT 9999 FEW020 SCT030 29/24 A2985=
201206091600 METAR MRLM 091600Z 03013KT 9999 +DZ VCSH OVC020 29/24 A2987=
201206091700 METAR MRLM 091700Z 10014KT 5000 TSRA SCT01CB SCT015 25/23 A2989 FEW090=
201206091800 METAR MRLM 091800Z 23006KT 9999 FEW008 BKN030 25/23 A2986 RETSRA=
201206091900 METAR MRLM 091900Z 16002KT 9999 FEW010 BKN030 26/24 A2984=
201206092000 METAR MRLM 092000Z 00000KT 9999 FEW013 BKN130 26/24 A2982=
201206092100 METAR MRLM 092100Z 00000KT 9999 FEW018 BKN270 28/24 A2978=
201206092200 METAR MRLM 092200Z 02002KT 9999 FEW020 BKN110 28/23 A2977=
201206092300 METAR MRLM 092300Z 31003KT 9999 FEW018 BKN110 28/25 A2978=
201206092356 METAR MRLM 10000Z 27002KT CAVOK 27/24 A2979=
201206100000 METAR MRLM 10000Z 27002KT CAVOK 27/24 A2979=
201206100100 METAR MRLM NIL=
201206100200 METAR MRLM NIL=
201206100300 METAR MRLM NIL=
201206100400 METAR MRLM NIL=
201206100500 METAR MRLM NIL=
201206100600 METAR MRLM NIL=
201206100700 METAR MRLM NIL=
201206100800 METAR MRLM NIL=
201206100900 METAR MRLM NIL=
201206101000 METAR MRLM NIL=
201206101100 METAR MRLM NIL=
201206101200 METAR MRLM 101200Z 25002KT CAVOK 23/22 A2983=
201206101300 METAR MRLM 101300Z 25004KT CAVOK 24/22 A2984=
201206101400 METAR MRLM 101400Z 31002KT 9999 FEW015 SCT150 26/23 A2986=
201206101500 METAR MRLM 101500Z 26004KT CAVOK 27/23 A2985=
201206101600 METAR MRLM 101600Z 06003KT 9999 SCT028 SCT080 28/23 A2986=
201206101700 METAR MRLM 101700Z 01006KT 9999 BKN028 28/24 A2985=
201206101800 METAR MRLM 24002KT 9999 FEW020 SCT028 29/24 A2982=
201206101810 METAR MRLM 101810Z 24002KT 9999 FEW020 SCT028 29/24 A2982=
201206101900 METAR MRLM 101900Z 07004KT 9999 SCT030 SCT270 30/25 A2982=
201206102000 METAR MRLM 102000Z 05006KT 9999 FEW028 BKN080 30/25 A2982=
201206102100 METAR MRLM 102100Z 03004KT 9999 FEW028 SCT110 30/24 A2980=
201206102200 METAR MRLM 102200Z 05004KT 9999 FEW025 SCT090 30/24 A2980=
201206102300 METAR MRLM 102300Z 03004KT 9999 FEW025 SCT120 29/24 A2980=
201206110000 METAR MRLM 110000Z 04003KT 9999 SCT023 SCT080 29/24 A2983=
201206110100 METAR MRLM NIL=
201206110200 METAR MRLM NIL=
201206110300 METAR MRLM NIL=
201206110400 METAR MRLM NIL=
201206110500 METAR MRLM NIL=
201206110600 METAR MRLM NIL=
201206110700 METAR MRLM NIL=
201206110800 METAR MRLM NIL=
201206110900 METAR MRLM NIL=
201206111000 METAR MRLM NIL=
201206111100 METAR MRLM NIL=
201206111200 METAR MRLM 111200Z 29006KT 6000 TSRA FEW006CB BKN010 24/23 A2985=
201206111300 METAR MRLM 111300Z 29004KT 9999 -TSRA FEW006CB BKN010 23/23 A2985=
201206111400 METAR MRLM 111400Z 00000KT 9999 DZ BKN010 SCT080 24/23 A2988 RE TS=
201206111500 METAR MRLM 111500Z 28004KT 9999 -DZ BKN010 SCT090 23/24 A2988=
201206111600 METAR MRLM 111600Z 29004KT 9999 DZ FEW007 BKN015 24/23 A2990=
201206111700 METAR MRLM 111700Z 27004KT 8000 4000 N RA FEW007 BKN015 24/23 A2992=
201206111735 METAR MRLM 111735Z 23005KT 4000 +RA BKN010 24/23 A2991=
201206111800 METAR MRLM 111800Z 25006KT 7000 RA FEW006 BKN015 24/23 A2990=
201206111900 METAR MRLM 111900Z 26003KT 7000 +DZ FEW007 BKN015 25/24 A2988 RE RA=
201206112000 METAR MRLM 112000Z 25004KT 9999 -DZ BKN020 SCT090 25/24 A2985=
201206112100 METAR MRLM 112100Z 23004KT 9999 SCT020 SCT090 26/25 A2983=
201206112200 METAR MRLM 112200Z 28005KT 9999 SCT020 SCT100 27/25 A2980=
201206112300 METAR MRLM 112300Z 00000KT 9999 BKN010 SCT090 26/24 A2982=
201206120000 METAR MRLM 120000Z 00000KT 9999 DZ VCSH FEW006 BKN010 25/24 A2984=
201206120100 METAR MRLM NIL=
201206120200 METAR MRLM NIL=
201206120300 METAR MRLM NIL=
201206120400 METAR MRLM NIL=
201206120500 METAR MRLM NIL=
201206120600 METAR MRLM NIL=
201206120700 METAR MRLM NIL=
201206120800 METAR MRLM NIL=
201206120900 METAR MRLM NIL=
201206121000 METAR MRLM NIL=
201206121100 METAR MRLM NIL=
201206121200 METAR MRLM 121200Z 00000KT 9999 BKN007 24/23 A2987=
201206121300 METAR MRLM NIL=
201206121400 METAR MRLM 121400Z 26003KT 9999 DZ SCT015 SCT100 25/23 A2986=
201206121500 METAR MRLM 121500Z 23003KT 9999 FEW015 BKN100 25/23 A2987 REDZ=
201206121600 METAR MRLM 121600Z 00000KT 9999 DZ SCT015 SCT100 25/24 A2989=
201206121700 METAR MRLM 121700Z 34009KT 7000 3000N +RA BKN010 25/23 A2990=
201206121800 METAR MRLM 121800Z 24005KT 9999 DZ BKN010 SCT080 24/23 A2988 RERA=
201206121900 METAR MRLM 121900Z 25004KT 9999 DZ SCT010 SCT090 24/23 A2985=
201206122000 METAR MRLM 122000Z 03002KT 9999 -DZ FEW010 SCT100 25/23 A2985=
201206122100 METAR MRLM 122100Z 24004KT 9999 FEW007 BKN110 25/24 A2981=
201206122200 METAR MRLM 122200Z 00000KT 9999 FEW010 BKN110 25/24 A2979=
201206122300 METAR MRLM 122300Z 02004KT 9999 FEW015 BKN110 26/23 A2980=
201206130000 METAR MRLM 130000Z 23005KT 9999 FEW010 BKN100 24/23 A2982=
201206130100 METAR MRLM NIL=
201206130200 METAR MRLM NIL=
201206130300 METAR MRLM NIL=
201206130400 METAR MRLM NIL=
201206130500 METAR MRLM NIL=
201206130600 METAR MRLM NIL=
201206130700 METAR MRLM NIL=
201206130800 METAR MRLM NIL=
201206130900 METAR MRLM NIL=
201206131000 METAR MRLM NIL=
201206131100 METAR MRLM NIL=
201206131200 METAR MRLM 131200Z 26002KT 9999 FEW035 BKN090 22/21 A2986=
201206131300 METAR MRLM 131300Z 29003KT 9999 FEW035 BKN090 23/22 A2987=
201206131400 METAR MRLM 131400Z 29002KT 9999 SCT030 SCT090 25/22 A2989=
201206131500 METAR MRLM 131500Z 28004KT 9999 SCT025 SCT090 25/22 A2991=
201206131600 METAR MRLM 131600Z 29007KT 9999 DZ FEW020 BKN090 26/22 A2990=
201206131700 METAR MRLM 131700Z 30009KT 9999 FEW030 SCT140 28/22 A2989 REDZ=
201206131800 METAR MRLM 131800Z 30007KT 9999 FEW035 BKN280 29/22 A2988=
201206131900 METAR MRLM 131900Z 32007KT 9999 FEW035 BKN090 30/23 A2986=
201206131907 METAR MRLM 131900 32007KT 9999 FEW035 BKN090 30/23 A2986=
201206132000 METAR MRLM 132000Z 36009KT 9999 SCT025 SCT080 29/24 A2983=
201206132100 METAR MRLM 132100Z 36007KT 9999 FEW025 SCT070 29/24 A2983=
201206132200 METAR MRLM 132200Z 35005KT VCTS FEW010CB SCT022 28/24 A2984=
201206132300 METAR MRLM 132300Z 27003KT 9999 DZ VCSH BKN015 27/24 A2985 RETS=
201206132357 METAR MRLM 140000Z 26004KT 9999 +DZ SCT010 SCT090 25/23 A2987=
201206140000 METAR MRLM 140000Z 26004KT 9999 +DZ SCT010 SCT090 25/23 A2987=
201206140100 METAR MRLM NIL=
201206140200 METAR MRLM NIL=
201206140300 METAR MRLM NIL=
201206140400 METAR MRLM NIL=
201206140500 METAR MRLM NIL=
201206140600 METAR MRLM NIL=
201206140700 METAR MRLM NIL=
201206140800 METAR MRLM NIL=
201206140900 METAR MRLM NIL=
201206141000 METAR MRLM NIL=
201206141100 METAR MRLM NIL=
201206141200 METAR MRLM 141200Z 23004KT CAVOK 22/21 A2991=
201206141300 METAR MRLM 141300Z 26002KT CAVOK 24/22 A2992=
201206141400 METAR MRLM 141400Z 23002KT CAVOK 28/23 A2994=
201206141500 METAR MRLM 141500Z 05003KT 9999 FEW035 SCT140 29/23 A299=
201206141600 METAR MRLM 141600Z 06005KT 9999 FEW030 SCT270 29/23 A2994=
201206141700 METAR MRLM 141700Z 05004KT 9999 FEW028 SCT270 29/24 A2993=
201206141800 METAR MRLM 141800Z 06005KT 9999 FEW028 BKN270 29/24=
201206141900 METAR MRLM 141900Z 06006KT 9999 FEW025 BKN270 29/24 A2989=
201206142000 METAR MRLM 142000Z 07007KT 9999 SCT025 SCT270 29/24 A2986=
201206142100 METAR MRLM 142100Z 06006KT 9999 SCT025 SCT270 29/24 A2985=
201206142200 METAR MRLM 142200Z 04004KT 9999 SCT025 SCT270 29/24 A2983=
201206142300 METAR MRLM 142300Z 06003KT 9999 SCT025 SCT270 29/24 A2984=
201206142356 METAR MRLM 15000Z 03003KT 9999 BKN022 29/24 A2986=
201206150000 METAR MRLM 15000Z 03003KT 9999 BKN022 29/24 A2986=
201206150100 METAR MRLM NIL=
201206150200 METAR MRLM NIL=
201206150300 METAR MRLM NIL=
201206150400 METAR MRLM NIL=
201206150500 METAR MRLM NIL=
201206150600 METAR MRLM NIL=
201206150700 METAR MRLM NIL=
201206150800 METAR MRLM NIL=
201206150900 METAR MRLM NIL=
201206151000 METAR MRLM NIL=
201206151100 METAR MRLM NIL=
201206151200 METAR MRLM NIL=
201206151230 METAR MRLM 151230Z 26003Z 9999 FEW007 BKN100 24/23 A2991=
201206151300 METAR MRLM 151300Z 25003KT 9999 FEW010 BKN110 24/23 A2991=
201206151400 METAR MRLM 151400Z 28003KT 9999 FEW015 BKN240 26/24 A2992=
201206151500 METAR MRLM 151500Z 28006KT 9999 FEW020 BKN240 27/23 A2992=
201206151600 METAR MRLM 151600Z 28007KT 9999 FEW030 BKN250 29/23 A2992=
201206151700 METAR MRLM 151700Z 32008KT 9999 FEW035 SCT250 31/23 A2989=
201206151800 METAR MRLM 151800Z 33008KT 9999 FEW035 SCT250 31/23 A2987=
201206151900 METAR MRLM 151900Z 36010KT 9999 FEW035 SCT260 31/24 A2986=
201206152000 METAR MRLM 152000Z 34013KT 9999 FEW030 SCT130 30/24 A2985=
201206152100 METAR MRLM 152100Z 33007KT 9999 FEW030 30/24 A2984=
201206152200 METAR MRLM 152200Z 34012KT 9999 FEW030 SCT130 30/24 A2984=
201206152300 METAR MRLM 152300Z 32007KT 9999 FEW025 29/24 A2985=
201206160000 METAR MRLM NIL=
201206160100 METAR MRLM NIL=
201206160200 METAR MRLM NIL=
201206160300 METAR MRLM NIL=
201206160400 METAR MRLM NIL=
201206160500 METAR MRLM NIL=
201206160600 METAR MRLM NIL=
201206160700 METAR MRLM NIL=
201206160800 METAR MRLM NIL=
201206160900 METAR MRLM NIL=
201206161000 METAR MRLM NIL=
201206161100 METAR MRLM NIL=
201206161200 METAR MRLM 161200Z 24002KT 9999 FEW010 BKN250 23/22 A2986=
201206161300 METAR MRLM 161300Z 00000KT CAVOK 24/22 A2988=
201206161400 METAR MRLM 161400Z 00000KT CAVOK 25/23 A2991=
201206161500 METAR MRLM 161500Z 32006KT 9999 FEW020 SCT120 27/22 A2993=
201206161600 METAR MRLM 161600Z 02013KT 9999 RA BKN010 25/24 A2997=
201206161700 METAR MRLM 161700Z 24005KT 9999 -RA BKN010 23/22 A2996=
201206161800 METAR MRLM 161800Z 22006KT 9999 +DZ SCT010 BKN090 23/22 A2990=
201206161900 METAR MRLM 161900Z 00000KT 9999 -DZ FEW015 SCT110 24/23 A2986=
201206162000 METAR MRLM 162000Z 34003KT CAVOK 26/22 A2985=
201206162100 METAR MRLM 162100Z 25003KT CAVOK 26/23 A2981=
201206162200 METAR MRLM 162200Z 22003KT CAVOK 27/24 A2982=
201206162300 METAR MRLM 162300Z 21002KT 9999 FEW015 SCT120 26/23 A2983=
201206170000 METAR MRLM 170000Z 00000KT CAVOK 25/23 A2984=
201206170100 METAR MRLM NIL=
201206170200 METAR MRLM NIL=
201206170300 METAR MRLM NIL=
201206170400 METAR MRLM NIL=
201206170500 METAR MRLM NIL=
201206170600 METAR MRLM NIL=
201206170700 METAR MRLM NIL=
201206170800 METAR MRLM NIL=
201206170900 METAR MRLM NIL=
201206171000 METAR MRLM NIL=
201206171100 METAR MRLM NIL=
201206171200 METAR MRLM NIL=
201206171300 METAR MRLM 171300Z 20004KT 9999 FEW015 BKN250 25/23 A2990=
201206171400 METAR MRLM 171400Z 24003KT CAVOK 27/24 A2991=
201206171500 METAR MRLM 171500Z 32005KT 9999 SCT020 29/24 A2991=
201206171600 METAR MRLM 171600Z 35005KT 9999 SCT030 SCT250 30/24 A2991=
201206171700 METAR MRLM 171700Z 31006KT 9999 SCT030 SCT260 31/24 A2988=
201206171800 METAR MRLM 171800Z 01011KT 9999 FEW030 BKN260 30/25 A2984=
201206171900 METAR MRLM 171900Z 02009KT 9999 FEW030 BKN250 30/25 A2982=
201206172000 METAR MRLM 172000Z 01009KT 9999 FEW025 SCT140 29/25 A2981=
201206172100 METAR MRLM 172100Z 02006KT 9999 FEW020 SCT130 29/25 A2979=
201206172200 METAR MRLM NIL=
201206172300 METAR MRLM NIL=
201206180000 METAR MRLM NIL=
201206180100 METAR MRLM NIL=
201206180200 METAR MRLM NIL=
201206180300 METAR MRLM NIL=
201206180400 METAR MRLM NIL=
201206180500 METAR MRLM NIL=
201206180600 METAR MRLM NIL=
201206180700 METAR MRLM NIL=
201206180800 METAR MRLM NIL=
201206180900 METAR MRLM NIL=
201206181000 METAR MRLM NIL=
201206181100 METAR MRLM NIL=
201206181200 METAR MRLM NIL=
201206181300 METAR MRLM 181300Z 23003KT CAVOK 26/23 A2985=
201206181400 METAR MRLM 181400Z 09003KT CAVOK 28/23 A2986=
201206181500 METAR MRLM 181500Z 06003KT 9999 FEW025 BKN250 28/23 A2987=
201206181600 METAR MRLM 181600Z 06004KT 9999 FEW025 BKN250 29/23 A2988=
201206181700 METAR MRLM 181700Z 03005KT 9999 FEW025 BKN240 29/24 A2988=
201206181800 METAR MRLM 181800Z 06005KT 9999 FEW025 BKN240 29/23 A2987=
201206181900 METAR MRLM 181900Z 08006KT 9999 FEW030 BKN240 29/23 A2985=
201206182000 METAR MRLM 182000Z 09003KT 9999 FEW030 BKN240 29/23 A2983=
201206182100 METAR MRLM 182100Z 10005KT 9999 FEW025 BKN240 29/24 A2980=
201206182200 METAR MRLM NIL=
201206182300 METAR MRLM NIL=
201206190000 METAR MRLM NIL=
201206190100 METAR MRLM NIL=
201206190200 METAR MRLM NIL=
201206190300 METAR MRLM NIL=
201206190400 METAR MRLM NIL=
201206190500 METAR MRLM NIL=
201206190600 METAR MRLM NIL=
201206190700 METAR MRLM NIL=
201206190800 METAR MRLM NIL=
201206190900 METAR MRLM NIL=
201206191000 METAR MRLM NIL=
201206191100 METAR MRLM NIL=
201206191200 METAR MRLM NIL=
201206191300 METAR MRLM 191300Z 23004KT CAVOK 25/23 A2989=
201206191400 METAR MRLM 191400Z 00000KT 9999 FEW030 BKN270 31/25 A2990=
201206191500 METAR MRLM 191500Z 07003KT 9999 FEW030 30/24 A2991=
201206191600 METAR MRLM 191600Z 08007KT 9999 FEW025 SCT270 30/25 A2991=
201206191700 METAR MRLM 191700Z 07007KT 9999 FEW030 BKN270 31/25 A2991=
201206191800 METAR MRLM 191800Z 07007KT 9999 FEW030 BKN250 31/25 A2989=
201206191900 METAR MRLM 191900Z 06006KT 9999 FEW030 BKN250 30/25 A2988=
201206192000 METAR MRLM 192000Z 05007KT 9999 SCT030 SCT250 30/25 A2985=
201206192100 METAR MRLM 192100Z 05003KT 9999 SCT030 30/25 A2984=
201206192200 METAR MRLM NIL=
201206192300 METAR MRLM NIL=
201206200000 METAR MRLM NIL=
201206200100 METAR MRLM NIL=
201206200200 METAR MRLM NIL=
201206200300 METAR MRLM NIL=
201206200400 METAR MRLM NIL=
201206200500 METAR MRLM NIL=
201206200600 METAR MRLM NIL=
201206200700 METAR MRLM NIL=
201206200800 METAR MRLM NIL=
201206200900 METAR MRLM NIL=
201206201000 METAR MRLM NIL=
201206201100 METAR MRLM NIL=
201206201200 METAR MRLM NIL=
201206201300 METAR MRLM 201300Z 23004KT 9999 BKN010 SCT110 25/24 A2990=
201206201400 METAR MRLM 201400Z 17002KT 9999 BKN010 SCT110 27/25 A2991=
201206201500 METAR MRLM NIL=
201206201600 METAR MRLM 201600Z 02006KT 9999 SCT020 SCT120 30/26 A2991=
201206201700 METAR MRLM 201700Z 02007KT 9999 SCT025 31/25 A2990=
201206201800 METAR MRLM 201800Z 04006KT 9999 SCT030 31/25 A2989=
201206201900 METAR MRLM 201900Z 04008KT 9999 SCT030 31/25 A2987=
201206202000 METAR MRLM 202000Z 05007KT 9999 BKN030 31/25 A2986=
201206202100 METAR MRLM 202100Z 06008KT 9999 BKN020 30/25 A2985=
201206202200 METAR MRLM NIL=
201206202300 METAR MRLM NIL=
201206210000 METAR MRLM NIL=
201206210100 METAR MRLM NIL=
201206210200 METAR MRLM NIL=
201206210300 METAR MRLM NIL=
201206210400 METAR MRLM NIL=
201206210500 METAR MRLM NIL=
201206210600 METAR MRLM NIL=
201206210700 METAR MRLM NIL=
201206210800 METAR MRLM NIL=
201206210900 METAR MRLM NIL=
201206211000 METAR MRLM NIL=
201206211100 METAR MRLM NIL=
201206211200 METAR MRLM NIL=
201206211300 METAR MRLM 211300Z 22004KT 9999 FEW015 27/25 A2988=
201206211400 METAR MRLM 211400Z 12002KT 9999 FEW020 30/25 A2989=
201206211500 METAR MRLM 211500Z 09005KT 9999 FEW025 30/25 A2990=
201206211600 METAR MRLM 211600Z 08006KT 9999 FEW025 30/25 A2989=
201206211700 METAR MRLM 211700Z 08007KT 9999 FEW030 31/25 A2989=
201206211800 METAR MRLM 211800Z 07007KT 9999 FEW030 31/26 A2986=
201206211900 METAR MRLM 211900Z 06007KT 9999 SCT030 30/25 A2984=
201206212000 METAR MRLM 212000Z 06007KT 9999 FEW030 31/25 A2982=
201206212100 METAR MRLM 212100Z 06008KT 9999 SCT030 31/25 A2982=
201206212200 METAR MRLM NIL=
201206212300 METAR MRLM NIL=
201206220000 METAR MRLM NIL=
201206220100 METAR MRLM NIL=
201206220200 METAR MRLM NIL=
201206220300 METAR MRLM NIL=
201206220400 METAR MRLM NIL=
201206220500 METAR MRLM NIL=
201206220600 METAR MRLM NIL=
201206220700 METAR MRLM NIL=
201206220800 METAR MRLM NIL=
201206220900 METAR MRLM NIL=
201206221000 METAR MRLM NIL=
201206221100 METAR MRLM NIL=
201206221200 METAR MRLM NIL=
201206221300 METAR MRLM 221300Z 24003KT 9999 FEW015 26/23 A2983=
201206221400 METAR MRLM 221400Z 01002KT 9999 FEW030 30/23 A2985=
201206221500 METAR MRLM 221500Z 05003KT 9999 FEW030 30/23 A2987=
201206221600 METAR MRLM 221600Z 07003KT 9999 FEW030 30/25 A2986=
201206221700 METAR MRLM 221700Z 07006KT 9999 FEW030 31/25 A2986=
201206221800 METAR MRLM 221800Z 07007KT 9999 FEW030 31/25 A2986=
201206221900 METAR MRLM 221900Z 03008KT 9999 SCT025 31/26 A2985=
201206222000 METAR MRLM 222000Z 07006KT 9999 SCT030 31/25 A2983=
201206222100 METAR MRLM 222100Z 07006KT 9999 BKN025 30/25 A2982=
201206222200 METAR MRLM NIL=
201206222300 METAR MRLM NIL=
201206230000 METAR MRLM NIL=
201206230100 METAR MRLM NIL=
201206230200 METAR MRLM NIL=
201206230300 METAR MRLM NIL=
201206230400 METAR MRLM NIL=
201206230500 METAR MRLM NIL=
201206230600 METAR MRLM NIL=
201206230700 METAR MRLM NIL=
201206230800 METAR MRLM NIL=
201206230900 METAR MRLM NIL=
201206231000 METAR MRLM NIL=
201206231100 METAR MRLM NIL=
201206231200 METAR MRLM NIL=
201206231300 METAR MRLM 231300Z 23004KT CAVOK 25/22 A2900=
201206231400 METAR MRLM 231400Z 22002KT CAVOK 29/24 A2992=
201206231500 METAR MRLM 231500Z 06003KT 9999 FEW035 BKN260 30/23 A2992=
201206231600 METAR MRLM 231600Z 06005KT 9999 FEW030 BKN260 30/23 A2993=
201206231700 METAR MRLM 231700Z 06006KT 9999 FEW030 SCT260 30/23 A2992=
201206231800 METAR MRLM 231800Z 06007KT FEW030 30/24 A2991=
201206231900 METAR MRLM 231900Z 07006KT 9999 FEW035 30/23 A2990=
201206232000 METAR MRLM 232000Z 06006KT 9999 FEW035 31/24 A2987=
201206232100 METAR MRLM 232100Z 05006KT 9999 FEW035 SCT260 31/24 A2986=
201206232200 METAR MRLM NIL=
201206232300 METAR MRLM NIL=
201206240000 METAR MRLM NIL=
201206240100 METAR MRLM NIL=
201206240200 METAR MRLM NIL=
201206240300 METAR MRLM NIL=
201206240400 METAR MRLM NIL=
201206240500 METAR MRLM NIL=
201206240600 METAR MRLM NIL=
201206240700 METAR MRLM NIL=
201206240800 METAR MRLM NIL=
201206240900 METAR MRLM NIL=
201206241000 METAR MRLM NIL=
201206241100 METAR MRLM NIL=
201206241200 METAR MRLM NIL=
201206241300 METAR MRLM 241300Z 24004KT 9999 FEW010 SCT250 26/24 A2996=
201206241400 METAR MRLM 241400Z 24003KT 9999 FEW020 SCT250 29/25 A2997=
201206241500 METAR MRLM 241500Z 06004KT 9999 FEW030 SCT250 30/24 A2997=
201206241600 METAR MRLM 241600Z 02006KT 9999 FEW035 SCT260 31/24 A2996=
201206241700 METAR MRLM 241700Z 01008KT 9999 FEW030 SCT260 31/24 A2996=
201206241800 METAR MRLM 241800Z 01008KT 9999 FEW030 BKN250 31/24 A2994=
201206241900 METAR MRLM 241900Z 01008KT 9999 FEW035 BKN250 31/24 A2991=
201206242000 METAR MRLM 242000Z 01008KT 9999 FEW040 BKN250 31/24 A2990=
201206242100 METAR MRLM 242100Z 01009KT 9999 FEW030 BKN250 31/25 A2989=
201206242200 METAR MRLM NIL=
201206242300 METAR MRLM NIL=
201206250000 METAR MRLM NIL=
201206250100 METAR MRLM NIL=
201206250200 METAR MRLM NIL=
201206250300 METAR MRLM NIL=
201206250400 METAR MRLM NIL=
201206250500 METAR MRLM NIL=
201206250600 METAR MRLM NIL=
201206250700 METAR MRLM NIL=
201206250800 METAR MRLM NIL=
201206250900 METAR MRLM NIL=
201206251000 METAR MRLM NIL=
201206251100 METAR MRLM NIL=
201206251200 METAR MRLM 251200Z 23005KT CAVOK 23/21 A2990=
201206251300 METAR MRLM 251300Z 24004KT CAVOK 26/22 A2991=
201206251400 METAR MRLM 251400Z 22003KT CAVOK 29/24 A2991=
201206251500 METAR MRLM 251500Z 09004KT 9999 FEW028 BKN300 30/25 A2991=
201206251600 METAR MRLM NIL=
201206251700 METAR MRLM NIL=
201206251714 METAR MRLM 261700Z 06005KT 9999 FEW030 BKN300 30/24 A2989=
201206251800 METAR MRLM 251800Z 08007KT 9999 FEW030 30/24 A2988=
201206251900 METAR MRLM 251900Z 08006KT 9999 FEW028 31/25 A2985=
201206252000 METAR MRLM 252000Z 05006KT 9999 SCT028 SCT280 30/25 A2983=
201206252100 METAR MRLM 252100Z 06007KT 9999 BKN028 31/25 A2982=
201206252200 METAR MRLM 252200Z 07006KT 9999 OVC025 30/25 A2981=
201206252300 METAR MRLM 252300Z 07008KT 9999 OVC025 30/25 A2981=
201206252350 METAR MRLM 260000Z 07007KT 9999 DZ BKN022 29/25 A2983=
201206260000 METAR MRLM 260000Z 07007KT 9999 DZ BKN022 29/25 A2983=
201206260100 METAR MRLM NIL=
201206260200 METAR MRLM NIL=
201206260300 METAR MRLM NIL=
201206260400 METAR MRLM NIL=
201206260500 METAR MRLM NIL=
201206260600 METAR MRLM NIL=
201206260700 METAR MRLM NIL=
201206260800 METAR MRLM NIL=
201206260900 METAR MRLM NIL=
201206261000 METAR MRLM NIL=
201206261100 METAR MRLM NIL=
201206261200 METAR MRLM 261200Z 22003KT CAVOK 26/24 A2988=
201206261300 METAR MRLM 261300Z 21003KT CAVOK 27/25 A2989=
201206261400 METAR MRLM 261400Z 11004KT 9999 FEW020 SCT130 29/25 A2990=
201206261500 METAR MRLM 261500Z 11007KT 9999 FEW035TCU SCT140 30/24 A2991=
201206261600 METAR MRLM 261600Z 10009KT 9999 FEW035 SCT140 31/24 A2990=
201206261700 METAR MRLM 261700Z 11012KT 9999 FEW035 SCT260 31/24 A2990=
201206261800 METAR MRLM 261800Z 11009KT 9999 FEW030 BKN270 31/25 A2988=
201206261900 METAR MRLM 261900Z 10008KT 9999 FEW035 BKN270 31/24 A2985=
201206262000 METAR MRLM 262000Z 09007KT 9999 FEW028 BKN280 31/25 2983=
201206262100 METAR MRLM 262100Z 08007KT 9999 FEW030 BKN280 31/24 A2982=
201206262200 METAR MRLM 262200Z 08005KT CAVOK 30/23 A2981=
201206262300 METAR MRLM 262300Z 10003KT CAVOK 30/23 A2983=
201206262357 METAR MRLM 270000Z 21003KT CAVOK 27/24 A2986=
201206270000 METAR MRLM 270000Z 21003KT CAVOK 27/24 A2986=
201206270100 METAR MRLM NIL=
201206270200 METAR MRLM NIL=
201206270300 METAR MRLM NIL=
201206270400 METAR MRLM NIL=
201206270500 METAR MRLM NIL=
201206270600 METAR MRLM NIL=
201206270700 METAR MRLM NIL=
201206270800 METAR MRLM NIL=
201206270900 METAR MRLM NIL=
201206271000 METAR MRLM NIL=
201206271100 METAR MRLM NIL=
201206271200 METAR MRLM 2711200Z 23004KT 9999 FEW010 BKN250 23/22 A2992=
201206271300 METAR MRLM 271300Z 22005KT 9999 FEW015 BKN250 25/22 A2993=
201206271400 METAR MRLM 271400Z 21003KT CAVOK 26/23 A2995=
201206271500 METAR MRLM 271500Z 07003KT 9999 FEW030 BKN250 30/23 A2996=
201206271600 METAR MRLM 271600Z 07004KT 9999 FEW030 SCT250 30/23 A2996=
201206271700 METAR MRLM 271700Z 06004KT 9999 FEW030 SCT120 29/23 A2995=
201206271800 METAR MRLM 271800Z 07006KT 9999 FEW030 SCT120 30/24 A2994=
201206271900 METAR MRLM 271900Z 07005KT 9999 FEW030 BKN130 30/24 A2993=
201206272000 METAR MRLM 272000Z 08006KT 9999 FEW030 BKN130 29/24 A2990=
201206272100 METAR MRLM 272100Z 09005KT 9999 FEW030 SCT140 29/24 A2989=
201206272200 METAR MRLM 272200Z 09004KT 9999 FEW030 SCT140 30/24 A2989=
201206272300 METAR MRLM 272300Z 09005KT 9999 FEW030 30/24 A2991=
201206280000 METAR MRLM 280000Z 07003KT 9999 FEW020 SCT130 29/24 A2992=
201206280100 METAR MRLM NIL=
201206280200 METAR MRLM NIL=
201206280300 METAR MRLM NIL=
201206280400 METAR MRLM NIL=
201206280500 METAR MRLM NIL=
201206280600 METAR MRLM NIL=
201206280700 METAR MRLM NIL=
201206280800 METAR MRLM NIL=
201206280900 METAR MRLM NIL=
201206281000 METAR MRLM NIL=
201206281100 METAR MRLM NIL=
201206281200 METAR MRLM 281200Z 23003KT CAVOK 23/22 A2997=
201206281300 METAR MRLM 281300Z 23004KT 9999 FEW020 SCT250 26/22 A2999=
201206281400 METAR MRLM 281400Z 21003KT 9999 FEW020 SCT250 27/23 A3000=
201206281500 METAR MRLM 281500Z 20003KT 9999 FEW025 SCT250 29/24 A2998=
201206281600 METAR MRLM 281600Z 07004KT 9999 FEW030 BKN250 30/24 A2998=
201206281700 METAR MRLM 281700Z 06004KT 9999 FEW030 BKN250 30/25 A2997=
201206281800 METAR MRLM 281800Z 05006KT 9999 FEW030 BKN260 30/24 A2995=
201206281900 METAR MRLM 281900Z 04009KT 9999 FEW030 SCT260 31/24 A2993=
201206282000 METAR MRLM 282000Z 02006KT 9999 FEW030 SCT140 30/24 A2991=
201206282100 METAR MRLM 282100Z 02006KT 9999 FEW030 SCT140 30/24 A2992=
201206282200 METAR MRLM 282200Z 03008KT 9999 FEW030 BKN250 30/24 A2991=
201206282300 METAR MRLM 282300Z 01004KT 9999 FEW030 BKN120 30/24 A2991=
201206290000 METAR MRLM 290000Z 00000KT 9999 FEW020 BKN120 28/24 A2990=
201206290100 METAR MRLM NIL=
201206290200 METAR MRLM NIL=
201206290300 METAR MRLM NIL=
201206290400 METAR MRLM NIL=
201206290500 METAR MRLM NIL=
201206290600 METAR MRLM NIL=
201206290700 METAR MRLM NIL=
201206290800 METAR MRLM NIL=
201206290900 METAR MRLM NIL=
201206291000 METAR MRLM NIL=
201206291100 METAR MRLM NIL=
201206291200 METAR MRLM 291200Z 21006KT CAVOK 22/21 A2992=
201206291300 METAR MRLM 291300Z 21004KT CAVOK 22/21 A2993=
201206291400 METAR MRLM 291400Z 22004KT 9999 FEW015 BKN045 25/23 A2997=
201206291500 METAR MRLM 291500Z 21004KT 9999 SCT023 SCT090 28/23 A2998=
201206291600 METAR MRLM 291600Z 06003KT 9999 SCT2025 SCT035 29/23 A2996=
201206291700 METAR MRLM 291700Z 06004KT 9999 FEW035 SCT090 30/23 A2994=
201206291800 METAR MRLM 291800Z 06006KT 9999 FEW020 BKN035 29/23 A2994=
201206291900 METAR MRLM 291900Z 12013KT 9999 DZ VCSH FEW015 BKN030 28/22 A2992=
201206292000 METAR MRLM 292000Z 13009KT 9999 DZ FEW015 BKN090 27/24 A2988 NOSIG=
201206292100 METAR MRLM 292100Z 14005KT 9999 BKN025 27/22 A2990 REDZ=
201206292200 METAR MRLM 292200Z 08002KT 9999 BKN030 28/22 A2988=
201206292300 METAR MRLM 292300Z 04002KT 9999 BKN026 28/22 A2987=
201206292348 METAR MRLM 300000Z 04010KT 9999 SCT025 SCT090 27/24 A2988=
201206300000 METAR MRLM 300000Z 04010KT 9999 SCT025 SCT090 27/24 A2988=
201206300100 METAR MRLM NIL=
201206300200 METAR MRLM NIL=
201206300300 METAR MRLM NIL=
201206300400 METAR MRLM NIL=
201206300500 METAR MRLM NIL=
201206300600 METAR MRLM NIL=
201206300700 METAR MRLM NIL=
201206300800 METAR MRLM NIL=
201206300900 METAR MRLM NIL=
201206301000 METAR MRLM NIL=
201206301100 METAR MRLM NIL=
201206301200 METAR MRLM 301200Z 23004KT 9999 FEW015 SCT025 23/21 A2991=
201206301300 METAR MRLM 301300Z 26003KT 9999 SCT020 SCT030 24/22 A2993=
201206301400 METAR MRLM 301400Z 23004KT 9999 SCT030 SCT090 26/22 A2993=
201206301500 METAR MRLM 301500Z 26003KT 9999 SCT030 SCT150 28/23 A2993=
201206301600 METAR MRLM 301600Z 00000KT 9999 FEW030 BKN090 29/22 A2992=
201206301700 METAR MRLM 301700Z 03004KT 9999 FEW030 BKN260 29/23 A2992=
201206301800 METAR MRLM 301800Z 04005KT 9999 FEW030 BKN260 29/23 A2990=
201206301900 METAR MRLM 301900Z 01008KT 9999 FEW030 SCT270 30/24 A2987=
201206302000 METAR MRLM 302000Z 01007KT 9999 FEW030 SCT150 30/24 A2985=
201206302100 METAR MRLM 302100Z 01008KT 9999 FEW028 BKN090 29/24 A2986=
201206302200 METAR MRLM 302200Z 02006KT 9999 SCT025 SCT090 29/24 A2985=
201206302300 METAR MRLM 302300Z 04009KT 9999 SCT022 SCT270 28/23 A2986=
201206302345 METAR MRLM 010000 05006KT 9999 FEW028 SCT090 28/22 A2987=
201207010000 METAR MRLM 010000Z 05006KT 9999 FEW028 SCT090 28/22 A2987=
201207010100 METAR MRLM NIL=
201207010200 METAR MRLM NIL=
201207010300 METAR MRLM NIL=
201207010400 METAR MRLM NIL=
201207010500 METAR MRLM NIL=
201207010600 METAR MRLM NIL=
201207010700 METAR MRLM NIL=
201207010800 METAR MRLM NIL=
201207010900 METAR MRLM NIL=
201207011000 METAR MRLM NIL=
201207011100 METAR MRLM NIL=
201207011200 METAR MRLM 011200Z 23003KT 9999 FEW015 SCT120 23/22 A2990=
201207011300 METAR MRLM 011300Z 00000KT 9999 FEW015 SCT120 24/22 A2991=
201207011400 METAR MRLM 011400Z 06015KT 9999 SCT020 BKN020 26/23 A2996=
201207011500 METAR MRLM 011500Z 12004KT 9999 -DZ SCT020 SCT120 26/23 A2996=
201207011600 METAR MRLM 011600Z 11003KT 9999 FEW020 SCT130 27/23 A2995=
201207011700 METAR MRLM 011700Z 06003KT 9999 FEW025 BKN250 28/24 A2994=
201207011800 METAR MRLM 011800Z 04005 9999 FEW030 SCT140 29/23 A2992=
201207011900 METAR MRLM 011900Z 01009KT 9999 FEW030 SCT140 29/24 A2990=
201207012000 METAR MRLM 012000Z 35007KT 9999 FEW035 BKN250 30/23 A2988=
201207012100 METAR MRLM 012100Z 36007KT 9999 FEW030 BKN240 29/23 A2986=
201207012200 METAR MRLM 012200Z 01007KT 9999 FEW020 BKN240 28/24 A2987=
201207012300 METAR MRLM 012300Z 33005KT 9999 SCT020 28/24 A2989=
201207020000 METAR MRLM 020000Z 26004KT 9999 -DZ BKN010 27/24 A2991=
201207020100 METAR MRLM NIL=
201207020200 METAR MRLM NIL=
201207020300 METAR MRLM NIL=
201207020400 METAR MRLM NIL=
201207020500 METAR MRLM NIL=
201207020600 METAR MRLM NIL=
201207020700 METAR MRLM NIL=
201207020800 METAR MRLM NIL=
201207020900 METAR MRLM NIL=
201207021000 METAR MRLM NIL=
201207021100 METAR MRLM NIL=
201207021200 METAR MRLM 021200Z 00000KT 9999 FEW010 SCT110 23/23 A2990=
201207021300 METAR MRLM 021300Z 00000KT 9999 FEW010 SCT110 24/23 A2991=
201207021400 METAR MRLM 021400Z 22003KT 9999 SCT010 SCT110 24/23 A2993=
201207021500 METAR MRLM 021500Z 26002KT 9999 FEW015 SCT120 26/23 A2992=
201207021600 METAR MRLM 021600Z 01002KT 9999 FEW020 BKN250 27/23 A2992=
201207021700 METAR MRLM 021700Z 05002KT 9999 FEW020 BKN250 28/24 A2990=
201207021800 METAR MRLM 021800Z 05002KT 9999 FEW020 BKN250 28/24 A2989=
201207021900 METAR MRLM 021900Z 07002KT 9999 FEW025 BKN250 28/23 A2987=
201207022000 METAR MRLM 022000Z 06003KT 9999 FEW020 SCT130 28/24 A2985=
201207022100 METAR MRLM 022100Z 05003KT 9999 FEW020 BKN250 28/24 A2983=
201207022200 METAR MRLM 022200Z 00000KT 9999 FEW020 BKN240 29/24 A2984=
201207022300 METAR MRLM 022300Z 01005KT CAVOK 28/24 A2984=
201207030000 METAR MRLM 030000Z 00000KT CAVOK 27/24 A2984=
201207030100 METAR MRLM NIL=
201207030200 METAR MRLM NIL=
201207030300 METAR MRLM NIL=
201207030400 METAR MRLM NIL=
201207030500 METAR MRLM NIL=
201207030600 METAR MRLM NIL=
201207030700 METAR MRLM NIL=
201207030800 METAR MRLM NIL=
201207030900 METAR MRLM NIL=
201207031000 METAR MRLM NIL=
201207031100 METAR MRLM NIL=
201207031200 METAR MRLM 031200Z 35006KT 7000 RA FEW005 BKN020 24/23 A2989=
201207031300 METAR MRLM 031300Z 29007KT 7000 TSRA FEW005 SCTCB010 SCT015 23/23 A2992=
201207031400 METAR MRLM 031400Z 21007KT 7000 TSRA FEW005 SCT015CB SCT020 23/22 A2994=
201207031500 METAR MRLM 031500Z 21011KT 1000 +TSRA OVC010CB 22/21 A2998=
201207031600 METAR MRLM 031600Z 24005KT 9999 +DZTS SCT010CB SCT120 21/21 A2994=
201207031700 METAR MRLM 031700Z 16003KT 9999 FEW015 SCT090 22/21 A2991 REDZTS=
201207031800 METAR MRLM 031800Z 24003KT CAVOK 24/22 A2990=
201207031900 METAR MRLM 031900Z 22004KT CAVOK 27/22 A2986=
201207032000 METAR MRLM 032000Z 07002KT CAVOK 29/24 A2984=
201207032100 METAR MRLM 032100Z 02006KT 9999 SCT025 SCT110 29/24 A2984=
201207032200 METAR MRLM 032200Z 32002KT 9999 FEW035 BKN110 31/23 A2984=
201207032300 METAR MRLM 032300Z 02004KT 9999 FEW025 BKN090 29/24 A2985=
201207032358 METAR MRLM 040000Z 00000KT 9999 SCT015 SCT090 27/25 A2986=
201207040000 METAR MRLM 040000Z 00000KT 9999 SCT015 SCT090 27/25 A2986=
201207040100 METAR MRLM NIL=
201207040200 METAR MRLM NIL=
201207040300 METAR MRLM NIL=
201207040400 METAR MRLM NIL=
201207040500 METAR MRLM NIL=
201207040600 METAR MRLM NIL=
201207040700 METAR MRLM NIL=
201207040800 METAR MRLM NIL=
201207040900 METAR MRLM NIL=
201207041000 METAR MRLM NIL=
201207041100 METAR MRLM NIL=
201207041200 METAR MRLM 041200Z 25006KT 9999 FEW025 SCT260 24/23 A2984=
201207041300 METAR MRLM 041300Z 27004KT 9999 FEW025 SCT150 24/23 A2986=
201207041400 METAR MRLM 041400Z 30004KT 9999 FEW025 BKN130 25/23 A2987=
201207041500 METAR MRLM 041500Z 29005KT 9999 FEW013 BKN130 24/22 A2988=
201207041600 METAR MRLM 041600Z 29004KT 9999 FEW013 BKN130 26/23 A2988=
201207041700 METAR MRLM 041700Z 25005KT 9999 FEW015 BKN110 27/24 A2989=
201207041800 METAR MRLM 041800Z 25005KT 9999 FEW015 BKN110 27/24 A2989=
201207041900 METAR MRLM 041900Z 02010KT 9999 OVC015 27/25 A2987=
201207042000 METAR MRLM 042000Z 08008KT 9999 OVC015 27/24 A2985=
201207042100 METAR MRLM 042100Z 10006KT 9999 OVC015 27/24 A2980=
201207042200 METAR MRLM 042200Z 20004KT CAVOK 27/24 A2975=
201207042300 METAR MRLM 042300Z 28002KT 9999 FEW015 SCT080 27/24 A2977=
201207042355 METAR MRLM 050000Z 05018KT 9999 SCT013 SCT150 27/25 A2984=
201207050000 METAR MRLM 050000Z 05018KT 9999 SCT013 SCT150 27/25 A2984=
201207050100 METAR MRLM NIL=
201207050200 METAR MRLM NIL=
201207050300 METAR MRLM NIL=
201207050400 METAR MRLM NIL=
201207050500 METAR MRLM NIL=
201207050600 METAR MRLM NIL=
201207050700 METAR MRLM NIL=
201207050800 METAR MRLM NIL=
201207050900 METAR MRLM NIL=
201207051000 METAR MRLM NIL=
201207051100 METAR MRLM NIL=
201207051200 METAR MRLM 051200Z 27007KT 9999 DZ BKN007 23/22 A2985=
201207051300 METAR MRLM 051300Z 27006KT 9999 -DZ BKN007 23/22 A2986=
201207051400 METAR MRLM 051400Z 28009KT 9999 FEW007 SCT015 24/22 A2987=
201207051500 METAR MRLM 051500Z 28009KT 9999 -DZ FEW007 SCT015 23/22 A2987=
201207051600 METAR MRLM 051600Z 28008KT 9999 SCT015 SCT100 24/22 A2987=
201207051700 METAR MRLM 051700Z 29008KT 9999 DZ SCT015 SCT100 24/23 A2987=
201207051800 METAR MRLM 051800Z 28005KT 9999 FEW015 BKN100 25/23 A2986 RERA=
201207051900 METAR MRLM 051900Z 30005KT 9999 FEW020 SCT240 26/23 A2985=
201207052000 METAR MRLM 052000Z 28006KT 9999 FEW020 SCT120 26/23 A2984=
201207052100 METAR MRLM 052100Z 31005KT 9999 FEW020 BKN120 27/23 A2984=
201207052130 METAR MRLM 052130Z 31005KT 8000 3000N RA VCSH OVC010 24/23 A2987=
201207052200 METAR MRLM 052200Z 05011KT 8000 4000N +RA BKN007 24/23 A2987=
201207052300 METAR MRLM 052300Z 25004KT 9999 BKN007 SCT090 23/22 A2987 RERA=
201207060000 METAR MRLM 060000Z 21005KT 9999 DZ FEW005 BKN010 23/22 A2988=
201207060100 METAR MRLM NIL=
201207060200 METAR MRLM NIL=
201207060300 METAR MRLM NIL=
201207060400 METAR MRLM NIL=
201207060500 METAR MRLM NIL=
201207060600 METAR MRLM NIL=
201207060700 METAR MRLM NIL=
201207060800 METAR MRLM NIL=
201207060900 METAR MRLM NIL=
201207061000 METAR MRLM NIL=
201207061100 METAR MRLM NIL=
201207061200 METAR MRLM 061200Z 23002KT 9999 FEW005 SCT010 22/21 A2984=
201207061300 METAR MRLM 061300Z 24004KT 9999 SCT010 SCT090 23/21 A2986=
201207061400 METAR MRLM 061400Z 24003KT 9999 SCT010 SCT100 25/23 A2988=
201207061500 METAR MRLM 061500Z 08005KT 9999 DZ BKN010 26/23 A2990=
201207061600 METAR MRLM 061600Z 29003KT 9999 -DZ BKN010 SCT090 25/23 A2991=
201207061700 METAR MRLM 061700Z 28003KT 9999 SCT015 SCT100 27/24 A2990=
201207061800 METAR MRLM 061800Z 26003KT 9999 SCT020 BKN110 27/23 A2987=
201207061900 METAR MRLM 061900Z 30004KT 9999 SCT020 BKN110 28/23 A2985=
201207062000 METAR MRLM 062000Z 01008KT 9999 FEW020 BKN120 28/23 A2984=
201207062100 METAR MRLM 062100Z 01005KT 9999 FEW020 BKN120 28/24 A2982=
201207062200 METAR MRLM 062200Z 03004KT 9999 FEW020 BKN110 27/23 A2981=
201207062300 METAR MRLM 062300Z 02007KT 9999 FEW020 BKN110 27/24 A2982=
201207070000 METAR MRLM 070000Z 01005KT 9999 SCT015 BKN100 26/23 A2983=
201207070100 METAR MRLM NIL=
201207070200 METAR MRLM NIL=
201207070300 METAR MRLM NIL=
201207070400 METAR MRLM NIL=
201207070500 METAR MRLM NIL=
201207070600 METAR MRLM NIL=
201207070700 METAR MRLM NIL=
201207070800 METAR MRLM NIL=
201207070900 METAR MRLM NIL=
201207071000 METAR MRLM NIL=
201207071100 METAR MRLM NIL=
201207071200 METAR MRLM 071200Z 23002KT CAVOK 23/23 A2986=
201207071300 METAR MRLM 071300Z 25004KT CAVOK 24/23 A2986=
201207071400 METAR MRLM 071400Z 29003KT CAVOK 26/24 A2988=
201207071500 METAR MRLM 071500Z 36005KT 9999 FEW028 SCT270 29/23 A2987=
201207071600 METAR MRLM 071600Z 02005KT 9999 FEW028 BKN270 29/23 A2985=
201207071700 METAR MRLM 071700Z 801007KT 9999 FEW030 BKN270 30/23 A2986=
201207071800 METAR MRLM 071800Z 01010KT 9999 FEW028 SCT270 29/24 A2986=
201207071900 METAR MRLM 071900Z 01010KT 9999 BKN025 29/24 A2986=
201207072000 METAR MRLM 072000Z 36010KT 9999 BKN025 29/24 A2984=
201207072100 METAR MRLM 072100Z 33007KT 9999 BKN025 29/24 A2983=
201207072200 METAR MRLM 072200ZS 29004KT 9999 SCT022 SCT110 28/24 A2983=
201207072223 METAR MRLM 072200ZS 29004KT 9999 SCT022 SCT110 28/24 A2983=
201207072300 METAR MRLM 072300Z 32004KT 9999 FEW020 BKN110 28/24 A2983=
201207072350 METAR MRLM 080000Z 28003KT 9999 FEW015 BKN110 27/24 A2985=
201207080000 METAR MRLM 080000Z 28003KT 9999 FEW015 BKN110 27/24 A2985=
201207080100 METAR MRLM NIL=
201207080200 METAR MRLM NIL=
201207080300 METAR MRLM NIL=
201207080400 METAR MRLM NIL=
201207080500 METAR MRLM NIL=
201207080600 METAR MRLM NIL=
201207080700 METAR MRLM NIL=
201207080800 METAR MRLM NIL=
201207080900 METAR MRLM NIL=
201207081000 METAR MRLM NIL=
201207081100 METAR MRLM NIL=
201207081200 METAR MRLM 081200Z 23003KT CAVOK 23/22 A2983=
201207081300 METAR MRLM 081300Z 00000KT CAVOK 24/23 A2983=
201207081400 METAR MRLM 081400Z 32002KT CAVOK 25/23 A2983=
201207081500 METAR MRLM 081500Z 25004KT 9999 FEW025 BKN090 27/24 A2985=
201207081600 METAR MRLM 081600Z 27003KT 9999 OVC022 28/24 A2987=
201207081700 METAR MRLM 081700Z 36005KT 9999 OVC025 29/24 A2987=
201207081800 METAR MRLM 081800Z 10016KT 9999 TSRA FEW010CB SCT015 SCT025 27/24 A2987=
201207081900 METAR MRLM 081900Z 10017KT 9999 FEW015 BKN025 26/23 A2986RETSRA=
201207082000 METAR MRLM 082000Z 14006KT 8000 RA SCT020 SCT130 25/23 A2987=
201207082100 METAR MRLM 082100Z 20004KT 9999 DZ FEW015 SCT080 25/24 A2984 RERA=
201207082200 METAR MRLM 082200Z 17002KT 9999 FEW025 SCT090 25/24 A2983 REDZ=
201207082300 METAR MRLM 082300Z 15003KT 9999 FEW025 SCT100 25/23 A2984 SCT140=
201207082353 METAR MRLM 09000Z 19002KT CAVOK 25/24 A2985=
201207090000 METAR MRLM 09000Z 19002KT CAVOK 25/24 A2985=
201207090100 METAR MRLM NIL=
201207090200 METAR MRLM NIL=
201207090300 METAR MRLM NIL=
201207090400 METAR MRLM NIL=
201207090500 METAR MRLM NIL=
201207090600 METAR MRLM NIL=
201207090700 METAR MRLM NIL=
201207090800 METAR MRLM NIL=
201207090900 METAR MRLM NIL=
201207091000 METAR MRLM NIL=
201207091100 METAR MRLM NIL=
201207091200 METAR MRLM 091200Z 24003KT 9999 FEW006 SCT015 24/23 A2987=
201207091300 METAR MRLM 091300Z 29003KT 9999 BKN010 SCT100 24/24 A2987=
201207091400 METAR MRLM 091400Z 26005KT 9999 BKN010 SCT100 25/24 A2987=
201207091500 METAR MRLM 091500Z 28005KT 9999 BKN015 26/24 A2990=
201207091600 METAR MRLM 091600Z 24004KT -DZ SCT015 SCT100 28/24 A2990=
201207091700 METAR MRLM 091700Z 11003KT 9999 SCT015 SCT110 29/24 A2990=
201207091800 METAR MRLM 091800Z 07003KT 9999 FEW025 BKN120 30/25 A2988=
201207091900 METAR MRLM 091900Z 08004KT 9999 FEW030 SCT130 30/24 A2986=
201207092000 METAR MRLM 092000Z 05003KT 9999 FEW030 SCT130 30/24 A2984=
201207092100 METAR MRLM 092100Z 05003KT 9999 FEW030 SCT140 30/24 A2982=
201207092200 METAR MRLM 092200Z 04003KT 9999 FEW025 SCT260 30/24 A2981=
201207092300 METAR MRLM 092300Z 08003KT 9999 FEW025 SCT130 29/24 A2983=
201207100000 METAR MRLM 100000Z 03005KT CAVOK 28/24 A2984=
201207100100 METAR MRLM NIL=
201207100200 METAR MRLM NIL=
201207100300 METAR MRLM NIL=
201207100400 METAR MRLM NIL=
201207100500 METAR MRLM NIL=
201207100600 METAR MRLM NIL=
201207100700 METAR MRLM NIL=
201207100800 METAR MRLM NIL=
201207100900 METAR MRLM NIL=
201207101000 METAR MRLM NIL=
201207101100 METAR MRLM NIL=
201207101200 METAR MRLM 101200Z 00000KT 9999 FEW010 BKN100 24/23 A2985=
201207101300 METAR MRLM 101300Z 27003KT 9999 FEW015 BKN100 25/23 A2985=
201207101400 METAR MRLM 101400Z 00000KT 9999 SCT015 BKN100 27/24 A2989=
201207101500 METAR MRLM 101500Z 30003KT 9999 FEW025 SCT120 29/24 A2988=
201207101600 METAR MRLM 101600Z 02008KT 9999 FEW025 BKN110 29/24 A2989=
201207101700 METAR MRLM 101700Z 01011KT 9999 SCT020 BKN100 27/24 A2989=
201207101800 METAR MRLM 101800Z 34002KT 9999 DZ BKN020 SCT100 26/23 A2988=
201207101900 METAR MRLM 101900Z 24003KT 9999 FEW020 SCT120 27/24 A2984 REDZ=
201207102000 METAR MRLM 102000Z 00000KT CAVOK 30/24 A2981=
201207102100 METAR MRLM 102100Z 07003KT 9999 FEW020 BKN250 29/24 A2981=
201207102200 METAR MRLM 102200Z 05003KT 9999 FEW020 BKN250 29/24 A2981=
201207102300 METAR MRLM 102300Z 05002KT 9999 FEW020 BKN250 28/24 A2981=
201207110000 METAR MRLM 110000Z 01003KT CAVOK 28/24 A2982=
201207110100 METAR MRLM NIL=
201207110200 METAR MRLM NIL=
201207110300 METAR MRLM NIL=
201207110400 METAR MRLM NIL=
201207110500 METAR MRLM NIL=
201207110600 METAR MRLM NIL=
201207110700 METAR MRLM NIL=
201207110800 METAR MRLM NIL=
201207110900 METAR MRLM NIL=
201207111000 METAR MRLM NIL=
201207111100 METAR MRLM NIL=
201207111200 METAR MRLM 111200Z 23005KT CAVOK 23/22 A2984=
201207111300 METAR MRLM 111300Z 22005KT 9999 SCT020 SCT090 23/22 A2988=
201207111400 METAR MRLM 111400Z 04002KT 9999 DZ VCSH SCT012 SCT025 24/23 A2991 NOSIG=
201207111500 METAR MRLM 111500Z 25005KT 9999 VCSH OVC018 24/23 A2991 RERA=
201207111600 METAR MRLM 111600Z 22006KT 9999 TSRA FEW010CB BKN012 24/23 A2991=
201207111700 METAR MRLM 111700Z 34002KT 9999 TSVCSH FEW010CB BKN020 25/24 A2990=
201207111759 METAR MRLM 111759Z 26003KT 9999 +DZ TS VCSH FEW010CB SCT015 SCT090 24/23 A2992=
201207111800 METAR MRLM 26003KT 9999 +DZ TS VCSH FEW010CB SCT015 SCT090 24/23 A2992=
201207111900 METAR MRLM 111900Z 24004KT 9999 RA SCT025 SCT090 24/24 A2989 RETS=
201207112000 METAR MRLM 112000Z 00000KT SCT025 SCT090 25/24 A2985 RERA=
201207112100 METAR MRLM 112100Z 22002KT 9999 FEW025 BKN090 25/24 A2983=
201207112200 METAR MRLM 112200Z 29005KT 9999 SCT025 SCT080 26/24 A2982=
201207112300 METAR MRLM 112300Z 28003KT 9999 OVC025 26/24 A2984=
201207112355 METAR MRLM 120000Z 16004KT 9999 RA OVC015 26/25 A2985=
201207120000 METAR MRLM 120000Z 16004KT 9999 RA OVC015 26/25 A2985=
201207120100 METAR MRLM NIL=
201207120200 METAR MRLM NIL=
201207120300 METAR MRLM NIL=
201207120400 METAR MRLM NIL=
201207120500 METAR MRLM NIL=
201207120600 METAR MRLM NIL=
201207120700 METAR MRLM NIL=
201207120800 METAR MRLM NIL=
201207120900 METAR MRLM NIL=
201207121000 METAR MRLM NIL=
201207121100 METAR MRLM NIL=
201207121200 METAR MRLM 121200Z 24002KT 9999 FEW015 BKN140 23/22 A2988=
201207121300 METAR MRLM 121300Z 23004KT CAVOK 24/23 A2989=
201207121400 METAR MRLM 121400Z 23004KT CAVOK 27/24 A2989=
201207121500 METAR MRLM 121500Z 26002KT CAVOK 29/24 A2988=
201207121600 METAR MRLM 121600Z 04005KT CAVOK 28/25 A2989=
201207121700 METAR MRLM 121700Z 03004KT CAVOK 29/24 A2989=
201207121800 METAR MRLM 121800Z 04005KT 9999 FEW028 BKN080 29/24 A2987=
201207121900 METAR MRLM 121900Z 05005KT 9999 FEW028 BKN090 30/24 A2985=
201207122000 METAR MRLM 122000Z 03005KT 9999 FEW030 BKN090 30/24 A2980=
201207122100 METAR MRLM 122100Z 02007KT 9999 FEW028 SCT090 30/24 A2978=
201207122200 METAR MRLM 122200Z 04007KT 9999 FEW025 SCT100 29/25 A2979=
201207122300 METAR MRLM 122300Z 28003KT 9999 FEW020 BKN120 29/24 A2981=
201207122349 METAR MRLM 130000Z 02005KT 9999 FEW015 BKN120 28/25 A2983=
201207130000 METAR MRLM 130000Z 02005KT 9999 FEW015 BKN120 28/25 A2983=
201207130100 METAR MRLM NIL=
201207130200 METAR MRLM NIL=
201207130300 METAR MRLM NIL=
201207130400 METAR MRLM NIL=
201207130500 METAR MRLM NIL=
201207130600 METAR MRLM NIL=
201207130700 METAR MRLM NIL=
201207130800 METAR MRLM NIL=
201207130900 METAR MRLM NIL=
201207131200 METAR MRLM 131200Z 00000KT 9999 FEW010 BKN120 24/23 A2989 RMK FEW250 CB RA DST NW N HZ AROUND=
201207131300 METAR MRLM 131300Z 00000KT 9999 FEW010 BKN120 25/24 A2991=
201207131400 METAR MRLM 131400Z 24003KT 9999 FEW010 SCT120 26/24 A2993=
201207131500 METAR MRLM 131500Z 06009KT 9999 -RA BKN010 25/23 A2993=
201207131600 METAR MRLM 131600Z 00000KT 9999 FEW015 BKN120 26/23 A2993=
201207131700 METAR MRLM 131700Z 11005KT 9999 FEW020 BKN130 27/23 A2993=
201207131800 METAR MRLM 131800Z 21004KT 9999 FEW030 BKN250 29/23 A2990=
201207131900 METAR MRLM 131900Z 09007KT 9999 FEW030 SCT140 29/23 A2990=
201207132000 METAR MRLM 132000Z 09007KT 9999 FEW030 SCT140 29/23 A2988=
201207132100 METAR MRLM 132100Z 09008KT 9999 FEW030 BKN250 29/24 A2987=
201207132200 METAR MRLM 132200Z 08007KT 9999 FEW030 BKN250 29/24 A2985=
201207132300 METAR MRLM 132300Z 10005KT 9999 FEW020 BKN250 28/24 A2986=
201207140000 METAR MRLM 140000Z 15003KT 9999 FEW020 SCT130 27/24 A2986=
201207140100 METAR MRLM NIL=
201207140200 METAR MRLM NIL=
201207140300 METAR MRLM NIL=
201207140400 METAR MRLM NIL=
201207140500 METAR MRLM NIL=
201207140600 METAR MRLM NIL=
201207140700 METAR MRLM NIL=
201207140800 METAR MRLM NIL=
201207140900 METAR MRLM NIL=
201207141000 METAR MRLM NIL=
201207141100 METAR MRLM NIL=
201207141200 METAR MRLM 141200Z 22005KT CAVOK 22/21 A2994=
201207141300 METAR MRLM 141300Z 23002KT CAVOK 25/21 A2994=
201207141400 METAR MRLM 141400Z 00000KT CAVOK 30/22 A2994=
201207141500 METAR MRLM 141500Z 070003KT CAVOK 29/22 A2993=
201207141600 METAR MRLM 141600Z 07005KT CAVOK 30/23 A2992=
201207141700 METAR MRLM 141700Z 07007KT 9999 FEW030 30/23 A2993=
201207141800 METAR MRLM 141800Z 08005KT 9999 FEW035 31/24 A2991=
201207141900 METAR MRLM 141900Z 05008KT 9999 FEW035 30/23 A2990=
201207142000 METAR MRLM 142000Z 05006KT 9999 FEW035 30/23 A2989=
201207142100 METAR MRLM 142100Z 06007KT 9999 FEW030 30/24 A2988=
201207142200 METAR MRLM 142200Z 03005KT 9999 FEW030 SCT260 29/23 A2987=
201207142300 METAR MRLM 142300Z 02004KT 9999 SCT030 SCT260 29/23 A2988=
201207150000 METAR MRLM NIL=
201207150100 METAR MRLM NIL=
201207150200 METAR MRLM NIL=
201207150300 METAR MRLM NIL=
201207150400 METAR MRLM NIL=
201207150500 METAR MRLM NIL=
201207150600 METAR MRLM NIL=
201207150700 METAR MRLM NIL=
201207150800 METAR MRLM NIL=
201207150900 METAR MRLM NIL=
201207151000 METAR MRLM NIL=
201207151100 METAR MRLM NIL=
201207151200 METAR MRLM 151200Z 25006KT 8000 TSRA FEW005 SCT010CB SCT020 23/23 A2994=
201207151300 METAR MRLM 151300Z 25007KT 9999 SCT010 SCT020 23/23 A2995 RETSRA=
201207151400 METAR MRLM 151400Z 28005KT 9999 BKN025 24/23 A2996=
201207151500 METAR MRLM 151500Z 27004KT 9999 BKN020 26/23 A2996=
201207151600 METAR MRLM 151600Z 27004KT 9999 BKN025 27/23 A2995=
201207151700 METAR MRLM 151700Z 30006KT 9999 FEW028 BKN250 29/23 A2994=
201207151800 METAR MRLM 151800Z 33007KT 9999 FEW030 SCT090 29/23 A2992=
201207151900 METAR MRLM 151900Z 32005KT CAVOK 29/23 A2990=
201207152000 METAR MRLM 152000Z 36008KT CAVOK 29/24 A2989=
201207152100 METAR MRLM 152100Z 35007KT CAVOK 29/24 A2988=
201207152200 METAR MRLM 152200Z 33006KT CAVOK 28/24 A2987=
201207152300 METAR MRLM 152300Z 31004KT CAVOK 28/24 A2988=
201207152355 METAR MRLM 160000Z 32006KT CAVOK 27/24 A2991=
201207160000 METAR MRLM 160000Z 32006KT CAVOK 27/24 A2991=
201207160100 METAR MRLM NIL=
201207160200 METAR MRLM NIL=
201207160300 METAR MRLM NIL=
201207160400 METAR MRLM NIL=
201207160500 METAR MRLM NIL=
201207160600 METAR MRLM NIL=
201207160700 METAR MRLM NIL=
201207160800 METAR MRLM NIL=
201207160900 METAR MRLM NIL=
201207161000 METAR MRLM NIL=
201207161100 METAR MRLM NIL=
201207161200 METAR MRLM 161200Z 21004KT 9999 FEW015 BKN080 24/23 A2990=
201207161300 METAR MRLM 161300Z 23004KT 9999 FEW015 BKN090 25/23 A2989=
201207161400 METAR MRLM 161400Z 03002KT 9999 FEW018 SCT080 28/24 A2991=
201207161500 METAR MRLM 161500Z 01008KT 9999 FEW018 SCT025 28/24 A2992=
201207161600 METAR MRLM 020 07KT 9999 SCT020 SCT080 30/25 A2994=
201207161605 METAR MRLM 020 07KT 9999 SCT020 SCT080 30/25 A2994=
201207161700 METAR MRLM 161700Z 02006KT 9999 BKN022TCU 29/25 A2993=
201207161800 METAR MRLM 161800Z 04005KT 9999 FEW025 BKN270 30/25 A2991=
201207161900 METAR MRLM 161900Z 09003KT 9999 FEW025 BKN270 30/25 A2989=
201207162000 METAR MRLM 162000Z 10005KT 9999 SCT025 BKN270 30/25 A2986=
201207162100 METAR MRLM 162100Z 09005KT 9999 BKN022 SCT270 30/25 A2985=
201207162200 METAR MRLM 162200Z 08004KT 9999 BKN022 30/25 A2985=
201207162300 METAR MRLM 162300Z 06008KT 9999 SCT018TCU SCT280 29/25 A2986 REDZ=
201207170000 METAR MRLM 17000Z 04006KT 9999 BKN018 29/25 A2988=
201207170100 METAR MRLM NIL=
201207170200 METAR MRLM NIL=
201207170300 METAR MRLM NIL=
201207170400 METAR MRLM NIL=
201207170500 METAR MRLM NIL=
201207170600 METAR MRLM NIL=
201207170700 METAR MRLM NIL=
201207170800 METAR MRLM NIL=
201207170900 METAR MRLM NIL=
201207171000 METAR MRLM NIL=
201207171100 METAR MRLM NIL=
201207171200 METAR MRLM 171200Z 23004KT 9999 FEW010 SCT250 24/23 A2987=
201207171300 METAR MRLM 171300Z 23004KT 9999 FEW010 BKN250 25/23 A2988=
201207171400 METAR MRLM 171400Z 26004KT 9999 FEW020 SCT250 29/24 A2989=
201207171500 METAR MRLM 171500Z 00000KT 9999 SCT030 SCT260 30/24 A2990=
201207171600 METAR MRLM 171600Z 04005KT 9999 SCT030 30/24 A2989=
201207171700 METAR MRLM 171700Z 02008KT 9999 FEW030 31/24 A2987=
201207171800 METAR MRLM 171800Z 03016KT 9999 FEW020 BKN130 29/24 A2990=
201207171900 METAR MRLM 171900Z 03010KT 9999 FEW020 BKN120 28/24 A2986=
201207172000 METAR MRLM 172000Z 02007KT 9999 SCT020 SCT120 28/24 A2986=
201207172100 METAR MRLM 172100Z 36007KT 9999 FEW030 BKN120 30/24 A2983=
201207172200 METAR MRLM 172200Z 30004KT 9999 FEW025 BKN110 29/23 A2983=
201207172300 METAR MRLM 172300Z 30003KT 9999 FEW025 SCT120 29/24 A2984=
201207180000 METAR MRLM 180000Z 20002KT 9999 FEW015 BKN120 27/25 A2987=
201207180100 METAR MRLM NIL=
201207180200 METAR MRLM NIL=
201207180300 METAR MRLM NIL=
201207180400 METAR MRLM NIL=
201207180500 METAR MRLM NIL=
201207180600 METAR MRLM NIL=
201207180700 METAR MRLM NIL=
201207180800 METAR MRLM NIL=
201207180900 METAR MRLM NIL=
201207181000 METAR MRLM NIL=
201207181100 METAR MRLM NIL=
201207181200 METAR MRLM 181200Z 23003KT 9999 FEW010 SCT120 23/22 A2986=
201207181300 METAR MRLM 181300Z 00000KT 9999 SCT010 SCT110 24/23 A2990=
201207181400 METAR MRLM 181400Z 21004KT 9999 DZ SCT010 SCT240 24/23 A2989=
201207181500 METAR MRLM 181500Z 24002KT 9999 BKN010 SCT110 26/24 A2991=
201207181600 METAR MRLM 181600Z 18003KT 9999 BKN020 SCT110 28/24 A2992=
201207181700 METAR MRLM 181700Z 12015KT 9999 FEW015 SCT020 28/24 A2993=
201207181800 METAR MRLM 181800Z 14007KT 9999 DZ SCT020 SCT110 27/24 A2990=
201207181900 METAR MRLM 181900Z 19005KT 9999 -DZ FEW010 BKN120 26/24 A2989=
201207182000 METAR MRLM 182000Z 24006KT 9999 FEW020 SCT120 27/23 A2977=
201207182100 METAR MRLM 182100Z 08016KT 9999 FEW020 SCT120 28/24 A2981=
201207182200 METAR MRLM 182200Z 27003KT 9999 FEW015 SCT110 28/23 A2983=
201207182300 METAR MRLM 182300Z 00000KT 9999 FEW020 BKN230 28/24 A2988=
201207190000 METAR MRLM 190000Z 19003KT CAVOK 26/23 A2988=
201207190100 METAR MRLM NIL=
201207190200 METAR MRLM NIL=
201207190300 METAR MRLM NIL=
201207190400 METAR MRLM NIL=
201207190500 METAR MRLM NIL=
201207190600 METAR MRLM NIL=
201207190700 METAR MRLM NIL=
201207190800 METAR MRLM NIL=
201207190900 METAR MRLM NIL=
201207191000 METAR MRLM NIL=
201207191100 METAR MRLM NIL=
201207191200 METAR MRLM 191200Z 24004KT 4000 TSRA OVC01CB 23/22 A2994=
201207191300 METAR MRLM 191300Z 23004KT 4000 TSRA OVC010CB 23/22 A2993=
201207191400 METAR MRLM 191400Z 22004KT 9999 RA SCT015 BKN090 23/22 A2994 RETS=
201207191500 METAR MRLM 191500Z 23004KT 9999 +DZ FEW015 BKN140 23/23 A2993 RERA=
201207191600 METAR MRLM 191600Z 29002KT 9999 DZ FEW015 BKN025 24/24 A2994=
201207191700 METAR MRLM 191700Z 28005KT 9999 SCT015 SCT025 27/24 A2993 REDZ=
201207191800 METAR MRLM 191800Z 32010KT 9999 DZ VCSH OVC020 27/23 A2993=
201207191900 METAR MRLM 191900Z 29008KT 9999 +DZ FEW008 BKN015 25/24 A2992=
201207192000 METAR MRLM 192000Z 31006KT 9999 DZ VCSH SCT013 SCT025 26/24 A2991=
201207192100 METAR MRLM 192100Z 29006KT 9999 SCT008 SCT025 26/24 A2989 REDZ=
201207192200 METAR MRLM 192200Z 27004KT 9999 BKN025 26/24 A2988=
201207192300 METAR MRLM 192300Z 25003KT 9999 BKN025 26/24 A2987=
201207192354 METAR MRLM 200000Z 23003KT 9999 SCT025 SCT090 26/24 A26/24 A2987=
201207200000 METAR MRLM 200000Z 23003KT 9999 SCT025 SCT090 26/24 A26/24 A2987=
201207200100 METAR MRLM NIL=
201207200200 METAR MRLM NIL=
201207200300 METAR MRLM NIL=
201207200400 METAR MRLM NIL=
201207200500 METAR MRLM NIL=
201207200600 METAR MRLM NIL=
201207200700 METAR MRLM NIL=
201207200800 METAR MRLM NIL=
201207200900 METAR MRLM NIL=
201207201000 METAR MRLM NIL=
201207201100 METAR MRLM NIL=
201207201200 METAR MRLM 201200Z 00000KT 9999 DZ TS VCSH FEW010CB BKN015 24/23 A2988=
201207201258 METAR MRLM 201258Z 35008KT 5000 TSRA FEWCB010 SCT005 SCT015 24/23 A2991=
201207201300 METAR MRLM 35008KT 5000 TSRA FEWCB010 SCT005 SCT015 24/23 A2991=
201207201400 METAR MRLM 201400Z 22006KT 8000 3000NW RA FEW003 BKN015 23/23 A2993=
201207201500 METAR MRLM 201500Z 24002KT 9999 +DZ BKN015 24/23 A2992 RERA=
201207201600 METAR MRLM 201600Z 24004KT 9999 +DZ FEW015 SCT025 SCT120 24/23 A2991=
201207201700 METAR MRLM 201700Z 30003KT 9999 FEW025 BKN090 25/24 A2989 REDZ=
201207201800 METAR MRLM 201800Z 27002KT 9999 FEW025 BKN090 26/24 A2988=
201207201900 METAR MRLM 201900Z 29003KT 9999 FEW018 BKN090 28/25 A2986=
201207202000 METAR MRLM 202000Z 03004KT 9999 BKN025 29/24 A2985=
201207202100 METAR MRLM 202100Z 02005KT 9999 FEW020 BKN090 29/25 A2983=
201207202200 METAR MRLM 202200Z 36007KT 9999 FEW020 BKN090 29/25 A2982=
201207202300 METAR MRLM 202300Z 35010KT 9999 FEW015 BKN090 27/24 A2984=
201207202351 METAR MRLM 210000Z 02006KT 9999 BKN015 SCT080 27/24 A2986=
201207210000 METAR MRLM 210000Z 02006KT 9999 BKN015 SCT080 27/24 A2986=
201207210100 METAR MRLM NIL=
201207210200 METAR MRLM NIL=
201207210300 METAR MRLM NIL=
201207210400 METAR MRLM NIL=
201207210500 METAR MRLM NIL=
201207210600 METAR MRLM NIL=
201207210700 METAR MRLM NIL=
201207210800 METAR MRLM NIL=
201207210900 METAR MRLM NIL=
201207211000 METAR MRLM NIL=
201207211100 METAR MRLM NIL=
201207211200 METAR MRLM 211200Z 26005KT 9999 -DZ BKN007 25/23 A2987=
201207211300 METAR MRLM 211300Z 27002KT 9999 BKN007 SCT080 25/23 A2989=
201207211400 METAR MRLM 211400Z 25004KT 9999 FEW010 SCT090 25/24 A2989=
201207211500 METAR MRLM 211500Z 29003KT 9999 FEW015 SCT240 27/24 A2989=
201207211600 METAR MRLM 21600Z 35004KT 9999 FEW020 BKN240 28/24 A2990=
201207211700 METAR MRLM 211700Z 31007KT 9999 SCT020 SCT250 29/24 A2991=
201207211800 METAR MRLM 211800Z 32010KT 9999 FEW025 BKN250 29/24 A2989=
201207211900 METAR MRLM 211900Z 34010KT 9999 FEW030 BKN130 30/24 A2987=
201207212000 METAR MRLM 212000Z 35010KT 9999 FEW025 BKN120 29/23 A2984=
201207212100 METAR MRLM 212100Z 32007KT 9999 FEW025 BKN120 29/23 A2983=
201207212200 METAR MRLM 212200Z 32008KT 9999 FEW030 BKN120 28/22 A2983=
201207212300 METAR MRLM 212300Z 32006KT 9999 FEW025 BKN120 28/23 A2984=
201207220000 METAR MRLM 220000Z 30002KT 9999 FEW020 BKN120 26/23 A2985=
201207220100 METAR MRLM NIL=
201207220200 METAR MRLM NIL=
201207220300 METAR MRLM NIL=
201207220400 METAR MRLM NIL=
201207220500 METAR MRLM NIL=
201207220600 METAR MRLM NIL=
201207220700 METAR MRLM NIL=
201207220800 METAR MRLM NIL=
201207220900 METAR MRLM NIL=
201207221000 METAR MRLM NIL=
201207221100 METAR MRLM NIL=
201207221200 METAR MRLM 221200Z 00000KT 9999 FEW010 BKN110 24/23 A2987=
201207221300 METAR MRLM 221300Z 28002KT 9999 BKN010 SCT110 25/23 A2990=
201207221400 METAR MRLM 221400Z 27004KT 9999 BKN010 25/23 A2993=
201207221500 METAR MRLM 221500Z 25005KT 9999 SCT015 SCT110 26/24 A2993=
201207221600 METAR MRLM 221600Z 28004KT 9999 FEW015 BKN120 27/24 A2992=
201207221700 METAR MRLM 221700Z 30006KT CAVOK 27/24 A2992=
201207221800 METAR MRLM 221800Z 30008KT 9999 FEW020 BKN250 28/24 A2989=
201207221900 METAR MRLM 221900Z 33008KT 9999 FEW020 BKN250 28/24 A2988=
201207222000 METAR MRLM 222000Z 34008KT 9999 FEW020 BKN250 29/24 A2986=
201207222100 METAR MRLM 222100Z 35011KT 9999 FEW020 BKN250 28/24 A2986=
201207222200 METAR MRLM 222200Z 35010KT 9999 FEW020 BKN260 28/24 A2987=
201207222300 METAR MRLM 222300Z 32006KT 999 FEW020 SCT260 28/24 A2987=
201207230000 METAR MRLM 230000Z 29003KT 9999 FEW015 BKN130 26/24 A2991=
201207230100 METAR MRLM NIL=
201207230200 METAR MRLM NIL=
201207230300 METAR MRLM NIL=
201207230400 METAR MRLM NIL=
201207230500 METAR MRLM NIL=
201207230600 METAR MRLM NIL=
201207230700 METAR MRLM NIL=
201207230800 METAR MRLM NIL=
201207230900 METAR MRLM NIL=
201207231000 METAR MRLM NIL=
201207231100 METAR MRLM NIL=
201207231200 METAR MRLM 23125Z 29003 9999 TSDZVCSH FEW010 SCT008 SCT020 24/23 2997=
201207231225 METAR MRLM 23125Z 29003 9999 TSDZVCSH FEW010 SCT008 SCT020 24/23 2997=
201207231300 METAR MRLM 231300Z 27006KT 9999 +DZ VCSH FEW015 BKN100 24/23 A2995 RETS=
201207231400 METAR MRLM 231400Z 21003KT 9999 OVC020 24/23 A2997REDZ=
201207231500 METAR MRLM 231500Z 18004KT 8000 TSRA FEW010CB SCT020 SCT090 25/24 A3000=
201207231600 METAR MRLM 231600Z 20004KT 9999 FEW025 SCT140 25/24 A2995 RETSRA=
201207231700 METAR MRLM 231700Z 21003KT CAVOK 25/24 A2992=
201207231800 METAR MRLM 231800Z 05004KT CAVOK 28/24 A2991=
201207231900 METAR MRLM 231900Z 03005KT 9999 FEW015 SCT090 28/24 A2990=
201207232000 METAR MRLM 232000Z 04004KT 9999 FEW020 BKN260 28/24 A29989=
201207232100 METAR MRLM 232100Z 06004KT 9999 FEW020 BKN260 28/24 A2988=
201207232200 METAR MRLM 232200Z 01006KT 9999 FEW022 BKN260 29/24 A2987=
201207232300 METAR MRLM 232300Z 34006KT 9999 FEW025 BKN260 29/24 A2989=
201207240000 METAR MRLM 240000Z 31004KT CAVOK 27/24 A2991=
201207240100 METAR MRLM NIL=
201207240200 METAR MRLM NIL=
201207240300 METAR MRLM NIL=
201207240400 METAR MRLM NIL=
201207240500 METAR MRLM NIL=
201207240600 METAR MRLM NIL=
201207240700 METAR MRLM NIL=
201207240800 METAR MRLM NIL=
201207240900 METAR MRLM NIL=
201207241000 METAR MRLM NIL=
201207241100 METAR MRLM NIL=
201207241200 METAR MRLM 241200Z 23004KT 4000 +DZ VCSH OVC010 24/23 A2996=
201207241300 METAR MRLM 241300Z 20005KT 5000 +DZ VCSH OVC008 24/23 A2996=
201207241400 METAR MRLM 241400Z 22005KT 3000 +DZ VCSH FEW003 BKN010 24/24 A2997=
201207241500 METAR MRLM 241500Z 21005KT 6000 +DZ VCSH FEW002 BKN010 25/24 A2997=
201207241600 METAR MRLM 241600Z 21005KT 4000 TSRA FEW003 FEW010CB BKN012 24/24 A2998=
201207241700 METAR MRLM NIL=
201207241800 METAR MRLM 241800Z 23005KT 9999 +DZ VCSH FEW003 SCT020 SCT090 24/24A2998=
201207241900 METAR MRLM 241900Z 27003KT 9999 +DZ VCSH FEW003 BKN020 25/24 A2991=
201207242000 METAR MRLM 242000Z 29003KT 9999 +DZ VCSH FEW003 BKN090 25/24 A2988=
201207242100 METAR MRLM 242100Z 30005KT 9999 SCT004 SCT100 26/25 A2986 RERA=
201207242200 METAR MRLM 242200Z 29005KT 9999 FEW007 SCT035 SCT150 25/24 A2986=
201207242300 METAR MRLM NIL=
201207242358 METAR MRLM 250000Z 32005KT CAVOK 25/24 A2987=
201207250000 METAR MRLM 250000Z 32005KT CAVOK 25/24 A2987=
201207250100 METAR MRLM NIL=
201207250200 METAR MRLM NIL=
201207250300 METAR MRLM NIL=
201207250400 METAR MRLM NIL=
201207250500 METAR MRLM NIL=
201207250600 METAR MRLM NIL=
201207250700 METAR MRLM NIL=
201207250800 METAR MRLM NIL=
201207250900 METAR MRLM NIL=
201207251000 METAR MRLM NIL=
201207251100 METAR MRLM NIL=
201207251200 METAR MRLM 251200Z 24004KT 9999 FEW010 BKN100 23/23 A2986=
201207251300 METAR MRLM 251300Z 00000KT 9999 SCT010 SCT100 24/23 A2988=
201207251400 METAR MRLM 251400Z 26002KT 9999 SCT010 BKN100 25/23 A2990=
201207251500 METAR MRLM 251500Z 30003KT 9999 SCT015 BKN110 26/24 A2991=
201207251600 METAR MRLM 251600Z 31008KT 9999 SCT015 BKN110 27/24 A2992=
201207251700 METAR MRLM 251700Z 320008KT 9999 BKN015 27/24 A2991=
201207251800 METAR MRLM 251800Z 29007KT 9999 BKN020 28/24 A2989=
201207251900 METAR MRLM 251900Z 30007KT 9999 FEW020 SCT250 29/25 A2987=
201207252000 METAR MRLM 252000Z 33010KT 9999 FEW020 SCT120 29/25 A2985=
201207252100 METAR MRLM 252100Z 33010KT 9999 FEW030 BKN260 30/24 A2983=
201207252200 METAR MRLM 252200Z 34008KT 9999 FEW030 SCT120 29/23 A2983=
201207252300 METAR MRLM 252300Z 33004KT 9999 FEW025 BKN110 28/23 A2984=
201207260000 METAR MRLM 260000Z 28003KT 9999 FEW020 BKN110 27/23 A2985=
201207260100 METAR MRLM NIL=
201207260200 METAR MRLM NIL=
201207260300 METAR MRLM NIL=
201207260400 METAR MRLM NIL=
201207260500 METAR MRLM NIL=
201207260600 METAR MRLM NIL=
201207260700 METAR MRLM NIL=
201207260800 METAR MRLM NIL=
201207260900 METAR MRLM NIL=
201207261000 METAR MRLM NIL=
201207261100 METAR MRLM NIL=
201207261200 METAR MRLM 261200Z 23008KT CAVOK 24/23 A2985=
201207261300 METAR MRLM 261300Z 24002KT CAVOK 26/24 A2985=
201207261400 METAR MRLM 261400Z 21003KT CAVOK 29/24 A2986=
201207261500 METAR MRLM 261500Z 02004KT 9999 FEW020 BKN120 29/24 A2988=
201207261600 METAR MRLM 261600Z 03005KT 9999 FEW025 BKN120 30/24 A2988=
201207261700 METAR MRLM 261700Z 05006KT 9999 DZ SCT020 BKN110 28/24 A2987=
201207261800 METAR MRLM 261800Z 10003KT 9999 FEW015 BKN110 28/25 A2985 REDZ=
201207261900 METAR MRLM 261900Z 07003KT 9999 FEW020 30/25 A2983=
201207262000 METAR MRLM 262000Z 04004KT 9999 FEW020 SCT260 30/25 A2981=
201207262100 METAR MRLM 262100Z 04004KT 9999 FEW025 30/25 A2980=
201207262200 METAR MRLM 262200Z 04003KT 9999 FEW020 SCT130 30/25 A2980=
201207262300 METAR MRLM 262300Z 06003KT 9999 SCT020 29/25 A2982=
201207270000 METAR MRLM 270000Z 06005KT 9999 BKN015 SCT250 29/25 A2983=
201207270100 METAR MRLM NIL=
201207270200 METAR MRLM NIL=
201207270300 METAR MRLM NIL=
201207270400 METAR MRLM NIL=
201207270500 METAR MRLM NIL=
201207270600 METAR MRLM NIL=
201207270700 METAR MRLM NIL=
201207270800 METAR MRLM NIL=
201207270900 METAR MRLM NIL=
201207271000 METAR MRLM NIL=
201207271100 METAR MRLM NIL=
201207271200 METAR MRLM 271200Z 20004KT 9999 BKN020 24/24 A2984=
201207271300 METAR MRLM 271300Z 24004KT 9999 VCSH OVC015 26/24 A2985=
201207271400 METAR MRLM 271400Z 18005KT 9999 DZ VCSH OVC015 25/24 A2987=
201207271500 METAR MRLM 271500Z 24005KT 9999 DZ VCSH OVC015 27/25 A2987=
201207271600 METAR MRLM 271600Z 34004KT 2000 +TSRA SCT010CB SCT015 26/25 A2987=
201207271700 METAR MRLM 271700Z 25008KT 2000 +RA FEW005 BKN010TCU 25/24 A2988 RETS=
201207271800 METAR MRLM 271800Z 28003KT 1000 +RA OVC010 25/24 A2986=
201207271855 METAR MRLM 271855Z 20004KT 8000 3000N TSRA FEW002 FEW010CB BKN015 24/24 A2984=
201207271900 METAR MRLM 271900Z 20004KT 8000 3000N TSRA FEW010CB BKN015 24/24 A2984=
201207272000 METAR MRLM 272000Z 23006KT 1000 +RA OVC010TCU 24/24 A2982 RETS=
201207272100 METAR MRLM 272100Z 25005KT 4000 RA SCT003 SCT012 24/23 A2982=
201207272200 METAR MRLM 272200Z 26006KT 8000 DZ VCSH OVC012TCU 24/24 A2981 RERA=
201207272300 METAR MRLM 272300Z 25007KT 8000 DZ VCSH FEW003 OVC012 24/24 A2983=
201207272353 METAR MRLM 280000Z 28006KT 6000 VCSH FEW002 OVC012TCU 24/24 A2984=
201207280000 METAR MRLM 280000Z 28006KT 6000 VCSH FEW002 OVC012TCU 24/24 A2984=
201207280100 METAR MRLM NIL=
201207280200 METAR MRLM NIL=
201207280300 METAR MRLM NIL=
201207280400 METAR MRLM NIL=
201207280500 METAR MRLM NIL=
201207280600 METAR MRLM NIL=
201207280700 METAR MRLM NIL=
201207280800 METAR MRLM NIL=
201207280900 METAR MRLM NIL=
201207281000 METAR MRLM NIL=
201207281100 METAR MRLM NIL=
201207281200 METAR MRLM 281200Z 01014KT 8000 VCSH OVC012TCU 28/24 A2987=
201207281300 METAR MRLM 281300Z 36011KT 8000 VCSH BKNTCU015 24/24 A2988 RERA=
201207281400 METAR MRLM 281400Z 01016KT 8000 VCSH OVC015TCU 28/24 A2988=
201207281500 METAR MRLM 281500Z 04018KT 8000 VCSH BKN015TCU 28/24 A2990=
201207281600 METAR MRLM 281600Z 04022KT 1000 +RA OVC013TCU 27/24 A2990=
201207281700 METAR MRLM 281700Z 36010KT 5000 VCSH OVCTCU010 26/24 A2989 RERA=
201207281800 METAR MRLM 281800Z 04012KT 2000 RA OVC010 26/24 A2989=
201207281900 METAR MRLM 281900Z 01012KT 3000 RA OVC010 26/24 A2986=
201207282000 METAR MRLM 282000Z 03018KT 8000 VCSH BKN015TCU 28/24 A2983 RERA=
201207282100 METAR MRLM 282100Z 04015KT 8000 VCSH BKNTCU018 28/25 A2982=
201207282200 METAR MRLM 282200Z 0313KT 8000 DZ VCSH SCTTCU018 SCT090 28/25 A2982=
201207282300 METAR MRLM 282300Z 04014KT 9999 FEW018 BKN090 28/24 A2985 REDZ=
201207282357 METAR MRLM 290000Z 03013KT 8000 VCSH SCT015 SCT090 28/24 A2986=
201207290000 METAR MRLM 290000Z 03013KT 8000 VCSH SCT015 SCT090 28/24 A2986=
201207290100 METAR MRLM NIL=
201207290200 METAR MRLM NIL=
201207290300 METAR MRLM NIL=
201207290400 METAR MRLM NIL=
201207290500 METAR MRLM NIL=
201207290600 METAR MRLM NIL=
201207290700 METAR MRLM NIL=
201207290800 METAR MRLM NIL=
201207290900 METAR MRLM NIL=
201207291000 METAR MRLM NIL=
201207291100 METAR MRLM NIL=
201207291200 METAR MRLM 291200Z 22004KT 9999 SCT015 SCT090 22/22 A2987=
201207291300 METAR MRLM 291300Z 28004KT 9999 SCT015 BKN090 23/22 A2989=
201207291400 METAR MRLM 291400Z 23004KT 9999 FEW015 BKN090 23/22 A2991=
201207291500 METAR MRLM 291500Z 29008KT 9999 FEW015 BKN100 24/22 A2991=
201207291600 METAR MRLM 291600Z 30009KT 9999 FEW020 BKN110 25/22 A2990=
201207291700 METAR MRLM 291700Z 30006KT 9999 FEW020 BKN110 25/22 A2992=
201207291800 METAR MRLM 291800Z 30006KT 9999 DZ FEW015 BKN110 26/23 A2993=
201207291900 METAR MRLM 291900Z 30006KT 9999 DZ FEW010 BKN100 25/23 A2991=
201207292000 METAR MRLM 292000Z 30005KT 9999 DZ SCT010 BKN100 24/23 A2989=
201207292100 METAR MRLM 292100Z 31004KT 9999 -DZ FEW010 SCT110 24/23 A2988=
201207292200 METAR MRLM 292200Z 32004KT 9999 DZ SCT010 BKN100 24/23 A2990=
201207292300 METAR MRLM 292300Z 26008KT 9999 DZ BKN010 24/23 A2989=
201207300000 METAR MRLM 300000Z 29013KT 9999 -RA FEW006 BKN010 23/22 A2990=
201207300100 METAR MRLM NIL=
201207300200 METAR MRLM NIL=
201207300300 METAR MRLM NIL=
201207300400 METAR MRLM NIL=
201207300500 METAR MRLM NIL=
201207300600 METAR MRLM NIL=
201207300700 METAR MRLM NIL=
201207300800 METAR MRLM NIL=
201207300900 METAR MRLM NIL=
201207301000 METAR MRLM NIL=
201207301100 METAR MRLM NIL=
201207301200 METAR MRLM 301200Z 29007KT 9999 -DZ SCT010 SCT090 24/22 A2989=
201207301300 METAR MRLM 301300Z 25004KT 9999 SCT010 BKN100 24/22 A2992=
201207301400 METAR MRLM 301400Z 25003KT 9999 FEW015 BKN110 26/23 A2994=
201207301500 METAR MRLM 301500Z 24004KT 9999 FEW020 BKN110 27/22 A2997=
201207301600 METAR MRLM 301600Z 29004KT 9999 SCT020 BKN110 27/23 A2998=
201207301700 METAR MRLM 301700Z 27008KT 9999 FEW025 BKN110 28/23 A2993=
201207301800 METAR MRLM 301800Z 01003KT 9999 FEW030 BKN120 29/22 A2985=
201207301900 METAR MRLM 301900Z 34006KT 9999 FEW030 BKN120 29/23 A2983=
201207302000 METAR MRLM 302000Z 32005KT 9999 FEW030 BKN120 28/23 A2992=
201207302100 METAR MRLM 302100Z 05004KT 9999 -DZ SCT020 SCT110 27/23 A2994=
201207302200 METAR MRLM 302200Z 10007KT 9999 -DZ SCT010 SCT100 26/24 A2994=
201207302300 METAR MRLM 302300Z 21005KT 9999 -DZ SCT010 BKN100 25/23 A2993=
201207310000 METAR MRLM 310000Z 13007KT 9999 -DZ FEW010 BKN100 25/22 A2995=
201207310100 METAR MRLM NIL=
201207310200 METAR MRLM NIL=
201207310300 METAR MRLM NIL=
201207310400 METAR MRLM NIL=
201207310500 METAR MRLM NIL=
201207310600 METAR MRLM NIL=
201207310700 METAR MRLM NIL=
201207310800 METAR MRLM NIL=
201207310900 METAR MRLM NIL=
201207311000 METAR MRLM NIL=
201207311100 METAR MRLM NIL=
201207311200 METAR MRLM 311200Z 22004KT 9999 BKN025 22/20 A2991=
201207311300 METAR MRLM 311300Z 23004KT 9999 OVC020 23/20 A2992=
201207311400 METAR MRLM 311400Z 23002KT 9999 OVC025 25/21 A2992=
201207311500 METAR MRLM 311500Z 36014KT 3000 RA OVC015 24/23 A2996=
201207311600 METAR MRLM 311600Z 26008KT 9999 DZ FEW008 SCT020 SCT090 24/23 A2994 RERA=
201207311700 METAR MRLM 311700Z 27008KT CAVOK 27/23 A2992 REDZ=
201207311800 METAR MRLM 311800Z 29006KT CAVOK 30/23 A2990=
201207311900 METAR MRLM 311900Z 33008KT 9999 SCT035 SCT080 30/22 A2989=
201207312000 METAR MRLM 312000Z 36016KT 5000 RA BKN020 28/24 A2989=
201207312100 METAR MRLM 312100Z 04013KT 3000 RA SCT005 SCT015 25/24 A2989=
201207312200 METAR MRLM 312200Z 03011KT 3000 RA OVC010 25/23 A2990=
201207312300 METAR MRLM 312300Z 23004KT 7000 DZ VCSH006 24/23 A2991=
201207312356 METAR MRLM 010000Z 26004KT 9999 SCT010 SCT090 24/23 A2991 REDZ=
201208010000 METAR MRLM 010000Z 26004KT 9999 SCT010 SCT090 24/23 A2991 REDZ=
201208010100 METAR MRLM NIL=
201208010200 METAR MRLM NIL=
201208010300 METAR MRLM NIL=
201208010400 METAR MRLM NIL=
201208010500 METAR MRLM NIL=
201208010600 METAR MRLM NIL=
201208010700 METAR MRLM NIL=
201208010800 METAR MRLM NIL=
201208010900 METAR MRLM NIL=
201208011000 METAR MRLM NIL=
201208011100 METAR MRLM NIL=
201208011200 METAR MRLM 011200Z 24005KT CAVOK 23/22 A2992=
201208011300 METAR MRLM 011300Z 34003KT CAVOK 25/22 A2993=
201208011400 METAR MRLM 011400Z 27003KT CAVOK 28/23 A2994=
201208011500 METAR MRLM 011500Z 04005KT CAVOK 29/23 A2995=
201208011600 METAR MRLM 011600Z 08003KT 9999 FEW030 BKN260 29/23 A2992=
201208011700 METAR MRLM 011700Z 02009KT 9999 FEW025 BKN260 29/24 A2992=
201208011800 METAR MRLM 011800Z 36008KT 9999 FEW030 BKN260 30/24 A2990=
201208011900 METAR MRLM 011900Z 01009KT 9999 FEW030 BKN260 30/24 A2988=
201208012000 METAR MRLM 012000Z 36009 KT 9999 FEW030 SCT140 30/23 A2986=
201208012100 METAR MRLM 012100Z 36010KT 9999 FEW025 SCT140 29/24 A2985=
201208012200 METAR MRLM 012200Z 36008KT 9999 FEW030 BKN260 30/24 A2984=
201208012300 METAR MRLM 012300Z 30004KT 9999 FEW025 BKN260 29/24 A2986=
201208012357 METAR MRLM 020000Z 35005KT 9999 FEW020 BKN260 28/24 A29880=
201208020000 METAR MRLM 020000Z 35005KT 9999 FEW020 BKN260 28/24 A29880=
201208020100 METAR MRLM NIL=
201208020200 METAR MRLM NIL=
201208020300 METAR MRLM NIL=
201208020400 METAR MRLM NIL=
201208020500 METAR MRLM NIL=
201208020600 METAR MRLM NIL=
201208020700 METAR MRLM NIL=
201208020800 METAR MRLM NIL=
201208020900 METAR MRLM NIL=
201208021000 METAR MRLM NIL=
201208021100 METAR MRLM NIL=
201208021200 METAR MRLM 021200Z 29008KT 9999 FEW006 SCT010 24/23 A2991=
201208021300 METAR MRLM 021300Z 29007KT 9999 FEW006 SCT010 24/23 A2992=
201208021400 METAR MRLM 021400Z 30004KT 9999 BKN010 SCT100 25/23 A2996=
201208021500 METAR MRLM 021500Z 30002KT 9999 -DZ BKN015 25/23 A2996=
201208021600 METAR MRLM 021600Z 00000KT 9999 FEW020 SCT110 26/23 A2996=
201208021700 METAR MRLM 021700Z 00000KT 9999 FEW020 BKN120 26/23 A2994=
201208021800 METAR MRLM 021800Z 15004KT 9999 -DZ FEW020 SCT120 26/24 A2990=
201208021900 METAR MRLM 021900Z 09003KT 9999 FEW020 SCT130 28/23 A2987=
201208022000 METAR MRLM 022000Z 09005KT 9999 FEW020 BKN130 28/23 A2987=
201208022100 METAR MRLM 022100Z 14004KT 9999 FEW015 SCT120 27/24 A2986=
201208022200 METAR MRLM 022200Z 16003KT CAVOK 27/24 A2984=
201208022300 METAR MRLM 022300Z 00000KT CAVOK 27/24 A2981=
201208030000 METAR MRLM 030000Z 31004KT CAVOK 27/25 A2982=
201208030100 METAR MRLM NIL=
201208030200 METAR MRLM NIL=
201208030300 METAR MRLM NIL=
201208030400 METAR MRLM NIL=
201208030500 METAR MRLM NIL=
201208030600 METAR MRLM NIL=
201208030700 METAR MRLM NIL=
201208030800 METAR MRLM NIL=
201208030900 METAR MRLM NIL=
201208031000 METAR MRLM NIL=
201208031100 METAR MRLM NIL=
201208031200 METAR MRLM 031200Z 24003KT 9999 FEW010 SCT100 23/22 A2989=
201208031300 METAR MRLM 031300Z 23004KT CAVOK 25/22 A2990=
201208031400 METAR MRLM 031400Z 00000KT 9999 FEW025 SCT260 28/23 A2991=
201208031500 METAR MRLM 031500Z 07004KT 9999 FEW030 BKN260 29/23 A2991=
201208031600 METAR MRLM 031600Z 01006KT 9999 FEW030 BKN260 30/24 A2992=
201208031700 METAR MRLM 031700Z 06005KT 9999 FEW025 BKN130 29/24 A2992=
201208031800 METAR MRLM 031800Z 06012KT 9999 FEW020 BKN120 28/25 A2992=
201208031900 METAR MRLM 031900Z 04012KT 9999 SCT020 BKN120 27/22 A2990=
201208032000 METAR MRLM 032000Z 19003KT 9999 FEW025 BKN130 27/22 A2987=
201208032100 METAR MRLM 032100Z 17003KT CAVOK 28/22 A2984=
201208032200 METAR MRLM 032200Z 12005KT CAVOK 27/23 A2980=
201208032300 METAR MRLM 032300Z 14003KT CAVOK 28/23 A2980=
201208040000 METAR MRLM 040000Z 28002KT CAVOK 27/23 A2980=
201208040100 METAR MRLM NIL=
201208040200 METAR MRLM NIL=
201208040300 METAR MRLM NIL=
201208040400 METAR MRLM NIL=
201208040500 METAR MRLM NIL=
201208040600 METAR MRLM NIL=
201208040700 METAR MRLM NIL=
201208040800 METAR MRLM NIL=
201208040900 METAR MRLM NIL=
201208041000 METAR MRLM NIL=
201208041100 METAR MRLM NIL=
201208041200 METAR MRLM 041200Z 23005KT CAVOK 22/21 A2985=
201208041300 METAR MRLM 041300Z 24004KT CAVOK 23/21 A2986=
201208041400 METAR MRLM 041400Z 00000KT 9999 BKN025 26/22 A2989=
201208041500 METAR MRLM 041500Z 27003KT 9999 FEW020 BKN090 27/23 A29980=
201208041600 METAR MRLM 041600Z 28004KT 9999 FEW035 BKN090 29/22 A2989=
201208041700 METAR MRLM 041700Z 02008KT 9999 FEW020 BKN140 30/24 A2989=
201208041800 METAR MRLM 041800Z 03004KT 9999 FEW025 SCT130 SCT270 30/24 A2987=
201208041900 METAR MRLM 041900Z 02007KT 9999 FEW025 BKN270 29/24 A2984=
201208042000 METAR MRLM 042000Z 03005KT 9999 FEW020 BKN270 29/24 A2982=
201208042100 METAR MRLM 042100Z 02004KT CAVOK 29/24 A2979=
201208042200 METAR MRLM 042200Z 01009KT CAVOK 29/24 A2979=
201208042300 METAR MRLM 042300Z 01008KT 9999 FEW022 SCT140 SCT270 29/24 A2981=
201208042354 MRLM 050000Z 36007KT 9999 FEW020 SCT090 SCT270 28/25 A2983=
201208050000 METAR MRLM 050000Z 36007KT 9999 FEW020 SCT090 SCT270 28/25 A2983=
201208050100 METAR MRLM NIL=
201208050200 METAR MRLM NIL=
201208050300 METAR MRLM NIL=
201208050400 METAR MRLM NIL=
201208050500 METAR MRLM NIL=
201208050600 METAR MRLM NIL=
201208050700 METAR MRLM NIL=
201208050800 METAR MRLM NIL=
201208050900 METAR MRLM NIL=
201208051000 METAR MRLM NIL=
201208051100 METAR MRLM NIL=
201208051200 METAR MRLM 051200Z 24005KT CAVOK 23/22 A2988=
201208051300 METAR MRLM 051300Z 22005KT 9999 FEW020 BKN280 25/23 A2989=
201208051400 METAR MRLM 051400Z 00000KT 9999 FEW025 BKN280 29/24 A2990=
201208051500 METAR MRLM 051500Z 06003KT 9999 FEW030 BKN280 29/24 A2990=
201208051600 METAR MRLM 051600Z 04006KT 9999 FEW035 BKN280 30/24 A2990=
201208051700 METAR MRLM 051700Z 03007KT 9999 FEW030 BKN280 30/24 A2990=
201208051800 METAR MRLM 051800Z 05006KT 9999 FEW030 BKN280 30/24 A2989=
201208051900 METAR MRLM 051900Z 04008KT 9999 FEW025 BKN280 30/25 A2987=
201208052000 METAR MRLM 052000Z 03005KT 9999 FEW030 BKN280 30/24 A2983=
201208052100 METAR MRLM 052100Z 02006KT 9999 FEW030 BKN280 30/24 A2981=
201208052200 METAR MRLM 052200Z 01007KT 9999 FEW030 BKN280 30/24 A2981=
201208052300 METAR MRLM 052300Z 36004KT 9999 FEW028 SCT280 29/24 A2983=
201208052354 METAR MRLM 060000Z 34003KT 9999 SCT025 SCT280 28/24 A2984=
201208060000 METAR MRLM 060000Z 34003KT 9999 SCT025 SCT280 28/24 A2984=
201208060100 METAR MRLM NIL=
201208060200 METAR MRLM NIL=
201208060300 METAR MRLM NIL=
201208060400 METAR MRLM NIL=
201208060500 METAR MRLM NIL=
201208060600 METAR MRLM NIL=
201208060700 METAR MRLM NIL=
201208060800 METAR MRLM NIL=
201208060900 METAR MRLM NIL=
201208061000 METAR MRLM NIL=
201208061100 METAR MRLM NIL=
201208061200 METAR MRLM 061200Z 22004KT CAVOK 23/21 A2986=
201208061300 METAR MRLM 061300Z 23004KT CAVOK 25/22 A2987=
201208061400 METAR MRLM 061400Z 21002KT CAVOK 28/22 A2987=
201208061500 METAR MRLM 061500Z 02005KT CAVOK 29/22 A2988=
201208061600 METAR MRLM 061600Z 03007KT 9999 FEW025 SCT260 29/24 A2989=
201208061700 METAR MRLM 061700Z 34008KT 9999 FEW035 SCT260 31/22 A2987=
201208061800 METAR MRLM 061800Z 01009KT 9999 FEW035 BKN260 31/23 A2986=
201208061900 METAR MRLM 061900Z 01009KT 9999 FEW035 BKN260 31/24 2982=
201208062000 METAR MRLM 062000Z 02008KT 9999 FEW035 BKN260 30/23 A2979=
201208062100 METAR MRLM 062100Z 02008KT 9999 FEW030 BKN260 31/24 A2978=
201208062200 METAR MRLM 062200Z 03007KT 9999 SCT025 SCT250 29/25 A2977=
201208062300 METAR MRLM 062300Z 07005KT 9999 SCT020 SCT250 29/25 A2979=
201208070000 METAR MRLM 070000Z 10003KT 9999 FEW020 SCT130 28/24 A2981=
201208070100 METAR MRLM NIL=
201208070200 METAR MRLM NIL=
201208070300 METAR MRLM NIL=
201208070400 METAR MRLM NIL=
201208070500 METAR MRLM NIL=
201208070600 METAR MRLM NIL=
201208070700 METAR MRLM NIL=
201208070800 METAR MRLM NIL=
201208070900 METAR MRLM NIL=
201208071000 METAR MRLM NIL=
201208071100 METAR MRLM NIL=
201208071200 METAR MRLM 071200Z 24005KT CAVOK 23/22 A2983=
201208071300 METAR MRLM 071300Z 22003KT CAVOK 25/23 A2984=
201208071400 METAR MRLM 071400Z 00000KT 9999 FEW030 BKN260 30/23 A2985=
201208071500 METAR MRLM 071500Z 06005KT 9999 FEW030 BKN260 29/23 A2986=
201208071600 METAR MRLM 071600Z 09005KT 9999 FEW030 SCT260 29/24 A2986=
201208071700 METAR MRLM 071700Z 11009KT 9999 FEW030 SCT270 30/24 A2985=
201208071800 METAR MRLM 071800Z 10009KT FEW030 31/25 A2983=
201208071900 METAR MRLM 071900Z 09007KT 9999 FEW025 SCT260 30/25 A2981=
201208072000 METAR MRLM 072000Z 09009KT 9999 FEW030 SCT260 31/25 A2978=
201208072100 METAR MRLM 072100Z 10010KT 9999 FEW030 SCT260 30/25 A2976=
201208072200 METAR MRLM 072200Z 11009KT 9999 SCT030 30/24 A2977=
201208072300 METAR MRLM 072300Z 11007KT 9999 FEW030 30/24 A2979=
201208080000 METAR MRLM 080000Z 10007KT 9999 FEW025 SCT250 29/24 A2979=
201208080100 METAR MRLM NIL=
201208080200 METAR MRLM NIL=
201208080300 METAR MRLM NIL=
201208080400 METAR MRLM NIL=
201208080500 METAR MRLM NIL=
201208080600 METAR MRLM NIL=
201208080700 METAR MRLM NIL=
201208080800 METAR MRLM NIL=
201208080900 METAR MRLM NIL=
201208081000 METAR MRLM NIL=
201208081100 METAR MRLM NIL=
201208081200 METAR MRLM 081200Z 24003KT CAVOK 24/22 A2982=
201208081300 METAR MRLM 081300Z 00000KT 9999 FEW025 BKN280 26/23 A2984=
201208081400 METAR MRLM 081400Z 28003KT 9999 BKN020 28/24 A2985=
201208081500 METAR MRLM 03005KT 9999 SCT030TCU SCT270 30/24 A2986=
201208081506 METAR MRLM 081506Z 03005KT 9999 SCT030TCU SCT270 30/24 A2986=
201208081600 METAR MRLM 081600Z 34004KT 9999 SCTTCU028 BKN260 30/24 A2986=
201208081700 METAR MRLM 02009KT 9999 FEW028TCU BKN270 30/25 A2985=
201208081711 METAR MRLM 081711Z 02009KT 9999 FEW028TCU BKN270 30/25 A2985=
201208081800 METAR MRLM 02007KT 9999 FEW028TCU BKN270 30/25 A2983=
201208081806 METAR MRLM 081806Z 02007KT 9999 FEW028TCU BKN270 30/25 A2983=
201208081900 METAR MRLM 081900Z 01008KT 9999 FEW025 SCT260 30/25 A2982=
201208082000 METAR MRLM 082000Z 01010KT 9999 FEW028 SCT150 30/24 A2980=
201208082100 METAR MRLM 082100Z 32007KT 9999 BKN030 30/23 A2976=
201208082200 METAR MRLM 082200Z 02009KT 9999 FEW020 SCT150 SCT260 29/24 A2978=
201208082300 METAR MRLM 082300Z 01006KT 9999 FEW025 SCT150 29/24 A2979=
201208082354 METAR MRLM 090000Z 03004KT 9999 FEW025 BKN150 28/23 A2982=
201208090000 METAR MRLM 090000Z 03004KT 9999 FEW025 BKN150 28/23 A2982=
201208090100 METAR MRLM NIL=
201208090200 METAR MRLM NIL=
201208090300 METAR MRLM NIL=
201208090400 METAR MRLM NIL=
201208090500 METAR MRLM NIL=
201208090600 METAR MRLM NIL=
201208090700 METAR MRLM NIL=
201208090800 METAR MRLM NIL=
201208090900 METAR MRLM NIL=
201208091000 METAR MRLM NIL=
201208091100 METAR MRLM NIL=
201208091200 METAR MRLM 091200Z 26002KT 9999 FEW015 SCT120 SCT150 23/22 A2983=
201208091300 METAR MRLM 091300Z 24003KT 9999 FEW015 SCT120 SCT140 24/22 A2985=
201208091400 METAR MRLM 091400Z 22004KT 9999 FEW020 SCT110 SCT150 25/23 A2985=
201208091500 METAR MRLM 091500Z 05002KT 9999 FEW040 BKN140 31/23 A2985=
201208091600 METAR MRLM 091600Z 04005KT 9999 FEW035 BKN270 30/23 A2984=
201208091700 METAR MRLM 091700Z 03006KT 9999 FEW035 BKN270 30/23 A2983=
201208091800 METAR MRLM 091800Z 03009KT 9999 FEW030 BKN270 30/24 A2981=
201208091900 METAR MRLM 091900Z 03009KT 9999 FEW030 BKN270 30/24 A2979=
201208092000 METAR MRLM 092000Z 03009KT 9999 FEW025 BKN270 30/24 A29760=
201208092100 METAR MRLM 092100Z 02007KT 9999 FEW025 BKN270 30/24 A2975 RETS=
201208092200 METAR MRLM 092200Z 03005KT 9999 FEW025 SCT270 29/24 A2975=
201208092300 METAR MRLM 092300Z 09002KT CAVOK 29/24 A2977=
201208092353 METAR MRLM 100000Z 20003KT CAVOK 27/24 A2978=
201208100000 METAR MRLM 100000Z 20003KT CAVOK 27/24 A2978=
201208100100 METAR MRLM NIL=
201208100200 METAR MRLM NIL=
201208100300 METAR MRLM NIL=
201208100400 METAR MRLM NIL=
201208100500 METAR MRLM NIL=
201208100600 METAR MRLM NIL=
201208100700 METAR MRLM NIL=
201208100800 METAR MRLM NIL=
201208100900 METAR MRLM NIL=
201208101000 METAR MRLM NIL=
201208101100 METAR MRLM NIL=
201208101200 METAR MRLM 101200Z 25002KT 9999 BKN010 25/23 A2987=
201208101300 METAR MRLM 101300Z 24003KT 9999 DZ BKN010 24/23 A2989=
201208101400 METAR MRLM 101400Z 26004KT 9999 DZ FEW006 BKN010 24/24 A2989=
201208101500 METAR MRLM 101500Z 25003KT 9999 DZ SCT010 SCT100 24/24 A2988=
201208101600 METAR MRLM 101600Z 28004KT 9999 FEW010 BKN240 25/24 A2987=
201208101700 METAR MRLM 101700Z 31004KT 9999 FEW020 SCT120 28/24 A2986=
201208101800 METAR MRLM 101800Z 34005KT 9999 FEW030 SCT130 29/23 A2987=
201208101900 METAR MRLM 101900Z 35005KT 9999 FEW030 BKN130 29/23 A2985=
201208102000 METAR MRLM 102000Z 03007KT 9999 FEW030 SCT130 29/24 A2983=
201208102100 METAR MRLM 102100Z 03004KT 9999 FEW030 BKN250 29/23 A2982=
201208102200 METAR MRLM 102200Z 05005KT 9999 FEW025 SCT120 28/23 A2983=
201208102300 METAR MRLM 102300Z 06004KT 9999 FEW020 BKN120 28/24 A2983=
201208110000 METAR MRLM 110000Z 10004KT 9999 FEW020 BKN120 27/24 A2986=
201208110100 METAR MRLM NIL=
201208110200 METAR MRLM NIL=
201208110300 METAR MRLM NIL=
201208110400 METAR MRLM NIL=
201208110500 METAR MRLM NIL=
201208110600 METAR MRLM NIL=
201208110700 METAR MRLM NIL=
201208110800 METAR MRLM NIL=
201208110900 METAR MRLM NIL=
201208111000 METAR MRLM NIL=
201208111100 METAR MRLM NIL=
201208111200 METAR MRLM 111200Z 00000KT 9999 FEW010 24/23 A2988=
201208111300 METAR MRLM 111300Z 23004KT 9999 FEW015 25/23 A2989=
201208111400 METAR MRLM 111400Z 24002KT 9999 FEW025 28/23 A2990=
201208111500 METAR MRLM 111500Z 07004KT 9999 FEW030 29/23 A2991=
201208111600 METAR MRLM 111600Z 06005KT 9999 FEW030 29/23 A2991=
201208111700 METAR MRLM 111700Z 04005KT 9999 FEW030 29/23 A2991=
201208111800 METAR MRLM 111800Z 05006KT 9999 FEW030 SCT270 30/24 A2988=
201208111900 METAR MRLM 111900Z 04008KT 9999 FEW030 BKN270 30/24 A2986=
201208112000 METAR MRLM 112000Z 04009KT 9999 FEW025 BKN260 30/25 A2984=
201208112100 METAR MRLM 112100Z 02006KT 9999 SCT025 SCT260 30/25 A2983=
201208112200 METAR MRLM 112200Z 05002KT 9999 SCT025 SCT260 29/24 A2981=
201208112300 METAR MRLM 112300Z 05003KT 9999 FEW025 SCT130 29/24 A2982=
201208120000 METAR MRLM 120000Z 01007KT 9999 FEW020 SCT130 28/24 A2985=
201208120100 METAR MRLM NIL=
201208120200 METAR MRLM NIL=
201208120300 METAR MRLM NIL=
201208120400 METAR MRLM NIL=
201208120500 METAR MRLM NIL=
201208120600 METAR MRLM NIL=
201208120700 METAR MRLM NIL=
201208120800 METAR MRLM NIL=
201208120900 METAR MRLM NIL=
201208121000 METAR MRLM NIL=
201208121100 METAR MRLM NIL=
201208121200 METAR MRLM 121200Z 28003KT 9999 DZ SCT015 SCT025 24/23 A2987=
201208121300 METAR MRLM 121300Z 29004KT 8000 RA OVC015 24/23 A2988=
201208121400 METAR MRLM 121400Z 29004KT 8000 TSRA SCT006 FEW010CB SCT025 24/23 A2989=
201208121500 METAR MRLM 121500Z 27004KT 9999 /DZVCSH FEW005 BKN130 24/23 A2990RETSRA=
201208121600 METAR MRLM 121600Z 25004KT 9999 FEW010 SCT025 SCT250 26/24 A2988 REDZ=
201208121700 METAR MRLM 121700Z 29004KT 9999 FEW012 BKN140 26/24 A2989=
201208121800 METAR MRLM 121800Z 31005KT 9999 FEW012 BKN140 26/24 A2989=
201208121900 METAR MRLM 121900Z 29007KT 9999 DZ FEW015 SCT025 SCT150 27/24 A2986=
201208122000 METAR MRLM 122000Z 32006KT 9999 FEW015 BKN150 28/23 A2982 REDZ=
201208122100 METAR MRLM 122100Z 34010KT 9999 BKN025 28/24 A2982=
201208122200 METAR MRLM 122200Z 35009KT 9999 BKN020 28/24 A2982=
201208122300 METAR MRLM 122300Z 30003KT 9999 FEW020 BKN090 28/23 A2983=
201208122353 METAR MRLM 130000Z 30003KT 9999 SCT020 SCT090 27/24 A2983=
201208130000 METAR MRLM 130000Z 30003KT 9999 SCT020 SCT090 27/24 A2983=
201208130100 METAR MRLM NIL=
201208130200 METAR MRLM NIL=
201208130300 METAR MRLM NIL=
201208130400 METAR MRLM NIL=
201208130500 METAR MRLM NIL=
201208130600 METAR MRLM NIL=
201208130700 METAR MRLM NIL=
201208130800 METAR MRLM NIL=
201208130900 METAR MRLM NIL=
201208131000 METAR MRLM NIL=
201208131100 METAR MRLM NIL=
201208131200 METAR MRLM 131200Z 24004KT 9999 FEW035 23/22 A2989=
201208131300 METAR MRLM 131300Z 23004KT 9999 FEW030 26/23 A2990=
201208131400 METAR MRLM 131400Z 24003KT 9999 FEW025 29/24 A2991=
201208131500 METAR MRLM 131500Z 06003KT 9999 FEW030 30/24 A2991=
201208131600 METAR MRLM 131600Z 04005KT 9999 FEW030 30/24 A2990=
201208131700 METAR MRLM 131700Z 02013KT 9999 FEW030 SCT130 30/24 A2991=
201208131800 METAR MRLM 131800Z 02006KT 9999 FEW028 BKN130 29/23 A2989=
201208131900 METAR MRLM 131900Z 05006KT 9999 FEW035 BKN100 29/22 A2986=
201208132000 METAR MRLM 132000Z 03009KT 9999 FEW030 BKN130 30/24 A2984=
201208132100 METAR MRLM 132100Z 01015KT 9999 FEW030 FEW140 30/24 A2993=
201208132200 METAR MRLM NIL=
201208132300 METAR MRLM 132300Z 04006KT 9999 BKN023 28/24 A2984=
201208132354 METAR MRLM 140000Z 07003KT 9999 DZ BKN018 27/24 A2986 RERA=
201208140000 METAR MRLM 140000Z 07003KT 9999 DZ BKN018 27/24 A2986 RERA=
201208140100 METAR MRLM NIL=
201208140200 METAR MRLM NIL=
201208140300 METAR MRLM NIL=
201208140400 METAR MRLM NIL=
201208140500 METAR MRLM NIL=
201208140600 METAR MRLM NIL=
201208140700 METAR MRLM NIL=
201208140800 METAR MRLM NIL=
201208140900 METAR MRLM NIL=
201208141000 METAR MRLM NIL=
201208141100 METAR MRLM NIL=
201208141200 METAR MRLM 141200Z 23002KT CAVOK 23/22 A2986=
201208141300 METAR MRLM 141300Z 29002KT CAVOK 24/23 A2989=
201208141400 METAR MRLM 141400Z 24002KT CAVOK 25/23 A2990=
201208141500 METAR MRLM 141500Z 29003KT CAVOK 28/23 A2991=
201208141600 METAR MRLM 141600Z 31011KT 9999 BKN020 28/23 A2992=
201208141700 METAR MRLM 141700Z 32011KT 9999 BKN020 28/24 A2990=
201208141800 METAR MRLM 141800Z 32010KT 9999 BKN030 29/23 A2986=
201208141900 METAR MRLM 141900Z 33013KT 9999 SCT030 SCT260 29/24 A2984=
201208142000 METAR MRLM 142000Z 32008KT 9999 SCT035 BKN270 30/23 A2981=
201208142100 METAR MRLM 142100Z 34009KT 9999 FEW030 BKN270 30/23 A2979=
201208142200 METAR MRLM 142200Z 01007KT 9999 FEW020 SCT140 28/24 A2980=
201208142300 METAR MRLM 142300Z 36004KT 9999 FEW020 SCT130 28/23 A2982=
201208150000 METAR MRLM 150000Z 17003KT 9999 -DZ SCT015 SCT120 26/24 A2984=
201208150100 METAR MRLM NIL=
201208150200 METAR MRLM NIL=
201208150300 METAR MRLM NIL=
201208150400 METAR MRLM NIL=
201208150500 METAR MRLM NIL=
201208150600 METAR MRLM NIL=
201208150700 METAR MRLM NIL=
201208150800 METAR MRLM NIL=
201208150900 METAR MRLM NIL=
201208151000 METAR MRLM NIL=
201208151100 METAR MRLM NIL=
201208151200 METAR MRLM 151200Z 21005KT CAVOK 23/22 A2985=
201208151300 METAR MRLM 151300Z 24004KT CAVOK 26/23 A2988=
201208151400 METAR MRLM 151400Z 22004KT 9999 FEW025 SCT260 28/23 A2990=
201208151500 METAR MRLM 151500Z 10004KT 9999 FEW030 29/22 A2990=
201208151600 METAR MRLM 151600Z 09005KT 9999 FEW030 29/23 A2990=
201208151700 METAR MRLM 151700Z 08007KT 9999 FEW040 30/23 A2989=
201208151800 METAR MRLM 151800Z 06007KT 9999 FEW035 30/23 A2988=
201208151900 METAR MRLM 151900Z 05008KT 9999 FEW035 SCT260 30/23 A2986=
201208152000 METAR MRLM 152000Z 06008KT 9999 FEW030 SCT260 30/24 A2983=
201208152100 METAR MRLM 152100Z 05006KT 9999 FEW030 SCT250 29/24 A2980=
201208152200 METAR MRLM 152200Z 05007KT 9999 SCT025 29/24 A2982=
201208152300 METAR MRLM 152300Z 06006KT 9999 BKN020 29/24 A2984=
201208160000 METAR MRLM 160000Z 08007KT 9999 BKN020 28/24 A2987=
201208160100 METAR MRLM NIL=
201208160200 METAR MRLM NIL=
201208160300 METAR MRLM NIL=
201208160400 METAR MRLM NIL=
201208160500 METAR MRLM NIL=
201208160600 METAR MRLM NIL=
201208160700 METAR MRLM NIL=
201208160800 METAR MRLM NIL=
201208160900 METAR MRLM NIL=
201208161000 METAR MRLM NIL=
201208161100 METAR MRLM NIL=
201208161200 METAR MRLM 161200Z 2303KT 9999 FEW025 SCT100 SCT270 23/22 A2992=
201208161300 METAR MRLM 161300Z 21003KT 9999 FEW025 SCT100 SCT270 24/23 A2995=
201208161400 METAR MRLM 161400Z 21003KT CAVOK 28/24 A2993=
201208161500 METAR MRLM 161500Z 05004KT 9999 FEW030 SCT130 SCT270 29/23 A2995=
201208161600 METAR MRLM 161600Z 02005KT 9999 FEW028 SCT140 SCT270 29/24 A2994=
201208161700 METAR MRLM 161700Z 02005KT 9999 FEW028 SCT270 30/24 A2994=
201208161800 METAR MRLM 161800Z 07009KT 9999 FEW025 SCT130 29/24 A2993=
201208161900 METAR MRLM 161900Z 05008KT 9999 FEW028 BKN150 29/21 2991=
201208162000 METAR MRLM 162000Z 09008KT 9999 DZ FEW020 SCT120 SCT150 29/25 A2991=
201208162100 METAR MRLM 162100Z 12010KT 9999 SCT020 29/25 A2990 RREDZ=
201208162200 METAR MRLM 162200Z 16005KT CAVOK 28/25 A2986=
201208162300 METAR MRLM 162300Z 26003KT CAVOK 28/24 A2985=
201208162348 METAR MRLM 170000Z 04009KT CAVOK 29/24 A2986=
201208170000 METAR MRLM 170000Z 04009KT CAVOK 29/24 A2986=
201208170100 METAR MRLM NIL=
201208170200 METAR MRLM NIL=
201208170300 METAR MRLM NIL=
201208170400 METAR MRLM NIL=
201208170500 METAR MRLM NIL=
201208170600 METAR MRLM NIL=
201208170700 METAR MRLM NIL=
201208170800 METAR MRLM NIL=
201208170900 METAR MRLM NIL=
201208171000 METAR MRLM NIL=
201208171100 METAR MRLM NIL=
201208171200 METAR MRLM 171200Z 00000KT 9999 FEW015 BKN025 24/23 A2990=
201208171300 METAR MRLM 171300Z 24002KT 9999 FEW015 BKN025 24/23 A2990=
201208171400 METAR MRLM 171400Z 29003KT 9999 FEW012 BKN025 26/24 A2994=
201208171500 METAR MRLM 171500Z 27002KT 9999 DZ FEW025 BKN025 26/23 A2996=
201208171600 METAR MRLM 171600Z 29005KT 9999 FEW015 SCT030 27/23 A2996 REDZ=
201208171700 METAR MRLM 171700Z 30003KT 9999 FEW020 BKN030 28/24 A2996=
201208171800 METAR MRLM 171800Z 29006KT 9999 FEW020 SCT030 28/24 A2993=
201208171900 METAR MRLM 171900Z 33005KT 9999 FEW020 SCT030 29/23 A2990=
201208172000 METAR MRLM 172000Z 06006KT 9999 FEW015 BKN025 28/23 A2991=
201208172100 METAR MRLM 172100Z 19002KT 9999 FEW015 BKN030 28/23 A2987=
201208172200 METAR MRLM 172200Z 18003KT 9999 DZ SCT025 SCT090 26/23 A2987=
201208172300 METAR MRLM 172300Z 00000KT 9999 DZ FEW015 BKN140 26/23 A2986=
201208172355 METAR MRLM 180000Z 32002KT CAVOK 26/23 A2989 REDZ=
201208180000 METAR MRLM 180000Z 32002KT CAVOK 26/23 A2989 REDZ=
201208180100 METAR MRLM NIL=
201208180200 METAR MRLM NIL=
201208180300 METAR MRLM NIL=
201208180400 METAR MRLM NIL=
201208180500 METAR MRLM NIL=
201208180600 METAR MRLM NIL=
201208180700 METAR MRLM NIL=
201208180800 METAR MRLM NIL=
201208180900 METAR MRLM NIL=
201208181000 METAR MRLM NIL=
201208181100 METAR MRLM NIL=
201208181200 METAR MRLM 181200Z 23003KT CAVOK 23/22 A2993=
201208181300 METAR MRLM 181300Z 23004KT CAVOK 25/22 A2993=
201208181400 METAR MRLM 181400Z 20002KT 9999 FEW030 BKN140 29/23 A2994=
201208181500 METAR MRLM 181500Z 07004KT 9999 FEW030 SCT140 29/23 A2994=
201208181600 METAR MRLM 181600Z 05005KT 9999 FEW030 SCT140 29/23 A2994=
201208181700 METAR MRLM 181700Z 04007KT 9999 FEW030 BKN140 29/23 A2994=
201208181800 METAR MRLM 181800Z 05010KT 9999 FEW030 BKN130 29/24 A2993=
201208181900 METAR MRLM 181900Z 05008KT 9999 FEW030 BKN130 29/24 A2990=
201208182000 METAR MRLM 182000Z 07007KT 9999 FEW030 BKN120 29/24 A2989=
201208182100 METAR MRLM 182100Z 04020KT 9999 SCT015 BKN110 27/24 A2988=
201208182200 METAR MRLM 182200Z 08004KT 9999 SCT015 BKN110 27/24 A2985=
201208182300 METAR MRLM 182300Z 16002KT 9999 FEW015 SCT110 27/24 A2984=
201208190000 METAR MRLM 190000Z 00000KT CAVOK 26/24 A2983=
201208190100 METAR MRLM NIL=
201208190200 METAR MRLM NIL=
201208190300 METAR MRLM NIL=
201208190400 METAR MRLM NIL=
201208190500 METAR MRLM NIL=
201208190600 METAR MRLM NIL=
201208190700 METAR MRLM NIL=
201208190800 METAR MRLM NIL=
201208190900 METAR MRLM NIL=
201208191000 METAR MRLM NIL=
201208191100 METAR MRLM NIL=
201208191200 METAR MRLM 191200Z 26004KT CAVOK 23/22 A2995=
201208191300 METAR MRLM 191300Z 29002KT CAVOK 26/23 A2996=
201208191400 METAR MRLM 191400Z 24004KT CAVOK 28/24 A2997=
201208191500 METAR MRLM 191500Z 07005KT CAVOK 29/23 A2997=
201208191600 METAR MRLM 191600Z 05005KT 9999 FEW030 29/24 A2997=
201208191700 METAR MRLM 191700Z 03007KT 9999 FEW030 29/24 A2996=
201208191800 METAR MRLM 191800Z 01011KT 9999 FEW030 30/24 A2995=
201208191900 METAR MRLM 191900Z 02012KT 9999 FEW030 30/24 A2994=
201208192000 METAR MRLM 192000Z 01009KT 9999 BKN025 30/25 A2992=
201208192100 METAR MRLM 192100Z 02011KT 9999 SCT020 SCT250 29/25 A2984=
201208192200 METAR MRLM 192200Z 03007KT 9999 FEW020 BKN250 29/25 A2984=
201208192300 METAR MRLM 192300Z 31003KT 9999 SCT020 28/24 A2990=
201208200000 METAR MRLM 200000Z 29003KT CAVOK 27/24 A2991=
201208200100 METAR MRLM NIL=
201208200200 METAR MRLM NIL=
201208200300 METAR MRLM NIL=
201208200400 METAR MRLM NIL=
201208200500 METAR MRLM NIL=
201208200600 METAR MRLM NIL=
201208200700 METAR MRLM NIL=
201208200800 METAR MRLM NIL=
201208200900 METAR MRLM NIL=
201208201000 METAR MRLM NIL=
201208201100 METAR MRLM NIL=
201208201200 METAR MRLM 201200Z 22005KT CAVOK 25/23 A2994=
201208201300 METAR MRLM 201300Z COR 22005KT CAVOK 25/23 A2994=
201208201400 METAR MRLM 201400Z 23003KT CAVOK 28/23 A2994=
201208201500 METAR MRLM 201500Z 23002KT 9999 FEW035 BKN250 31/23 A2994=
201208201600 METAR MRLM 201600Z 36011KT 9999 SCT030 SCT250 30/24 A2994=
201208201700 METAR MRLM 201700Z 01009KT 9999 FEW030 SCT130 30/24 A2993=
201208201800 METAR MRLM 201800Z 02008KT 9999 FEW030 SCT140 30/24 A2992=
201208201900 METAR MRLM 201900Z 02009KT 9999 FEW030 BKN130 30/24 A2989=
201208202000 METAR MRLM 202000Z 01010KT 9999 FEW025 BKN120 29/24 A2988=
201208202100 METAR MRLM 202100Z 01009KT 9999 SCT020 SCT250 29/25 A2987=
201208202200 METAR MRLM NIL=
201208202300 METAR MRLM NIL=
201208210000 METAR MRLM NIL=
201208210100 METAR MRLM NIL=
201208210200 METAR MRLM NIL=
201208210300 METAR MRLM NIL=
201208210400 METAR MRLM NIL=
201208210500 METAR MRLM NIL=
201208210600 METAR MRLM NIL=
201208210700 METAR MRLM NIL=
201208210800 METAR MRLM NIL=
201208210900 METAR MRLM NIL=
201208211000 METAR MRLM NIL=
201208211100 METAR MRLM NIL=
201208211200 METAR MRLM NIL=
201208211300 METAR MRLM 211300Z 26003KT 9999 FEW015 BKN100 26/23 A2988=
201208211400 METAR MRLM 211400Z 29004KT 9999 FEW025 SCT110 28/23 A2990=
201208211500 METAR MRLM 211500Z 32006KT 9999 SCT030 SCT120 29/24 A2992=
201208211600 METAR MRLM 211600Z 36006KT 9999 SCT030 BKN110 29/23 A2993=
201208211700 METAR MRLM 211700Z 05004KT 9999 SCT020 BKN110 28/24 A2993 REDZ=
201208211800 METAR MRLM 211800Z 06003KT 9999 FEW020 BKN110 28/24 A2990=
201208211900 METAR MRLM 211900Z 06003KT 9999 FEW020 BKN120 29/24 A2987=
201208212000 METAR MRLM 212000Z 08003KT 9999 FEW020 BKN250 29/24 A2984=
201208212100 METAR MRLM 212100Z 05006KT 9999 FEW025 BKN250 29/24 2982=
201208212200 METAR MRLM NIL=
201208212300 METAR MRLM NIL=
201208220000 METAR MRLM NIL=
201208220100 METAR MRLM NIL=
201208220200 METAR MRLM NIL=
201208220300 METAR MRLM NIL=
201208220400 METAR MRLM NIL=
201208220500 METAR MRLM NIL=
201208220600 METAR MRLM NIL=
201208220700 METAR MRLM NIL=
201208220800 METAR MRLM NIL=
201208220900 METAR MRLM NIL=
201208221000 METAR MRLM NIL=
201208221100 METAR MRLM NIL=
201208221200 METAR MRLM NIL=
201208221300 METAR MRLM 221300Z 28003KT 9999 DZ BKN007 SCT100 25/24 A2990=
201208221400 METAR MRLM 221400Z 23004KT 9999 SCT010 SCT110 26/24 A2993 REDZ=
201208221500 METAR MRLM 221500Z 22004KT 9999 SCT015 BKN110 27/25 A2993=
201208221600 METAR MRLM 221600Z 22003KT 9999 SCT020 SCT120 29/25 A29930=
201208221700 METAR MRLM 221700Z 03003KT 9999 SCT025 SCT120 30/25 A2992=
201208221800 METAR MRLM 221800Z 06003KT 9999 SCT030 SCT130 30/24 A2989=
201208221900 METAR MRLM 221900Z 04006KT 9999 FEW030 SCT130 30/25 A2988=
201208222000 METAR MRLM NIL=
201208222100 METAR MRLM 222100Z 36010KT 9999 FEW035 SCT140 30/24 A2982=
201208222200 METAR MRLM NIL=
201208222300 METAR MRLM NIL=
201208230000 METAR MRLM NIL=
201208230100 METAR MRLM NIL=
201208230200 METAR MRLM NIL=
201208230300 METAR MRLM NIL=
201208230400 METAR MRLM NIL=
201208230500 METAR MRLM NIL=
201208230600 METAR MRLM NIL=
201208230700 METAR MRLM NIL=
201208230800 METAR MRLM NIL=
201208230900 METAR MRLM NIL=
201208231000 METAR MRLM NIL=
201208231100 METAR MRLM NIL=
201208231200 METAR MRLM NIL=
201208231300 METAR MRLM 231300Z 00000KT 9999 FEW010 BKN100 25/23 A2987=
201208231400 METAR MRLM 231400Z 00000KT 9999 FEW015 BKN110 27/24 A2990=
201208231500 METAR MRLM 231500Z 30005KT 9999 FEW025 BKN110 28/23 A2990=
201208231600 METAR MRLM 231600Z 31005KT 9999 FEW025 SCT120 28/23 A2991=
201208231700 METAR MRLM 231700Z 02007KT 9999 SCT020 SCT120 28/24 A2990=
201208231800 METAR MRLM 231800Z 12004KT 9999 FEW015 BKN120 28/24 A2988=
201208231900 METAR MRLM 231900Z 12007KT 9999 FEW020 SCT130 28/24 A2986=
201208232000 METAR MRLM 232000Z 06004KT 9999 FEW030 BKN260 29/23 A2983=
201208232100 METAR MRLM 232100Z 05005KT 9999 FEW030 BKN260 28/23 A2981=
201208232200 METAR MRLM NIL=
201208232300 METAR MRLM NIL=
201208240000 METAR MRLM NIL=
201208240100 METAR MRLM NIL=
201208240200 METAR MRLM NIL=
201208240300 METAR MRLM NIL=
201208240400 METAR MRLM NIL=
201208240500 METAR MRLM NIL=
201208240600 METAR MRLM NIL=
201208240700 METAR MRLM NIL=
201208240800 METAR MRLM NIL=
201208240900 METAR MRLM NIL=
201208241000 METAR MRLM NIL=
201208241100 METAR MRLM NIL=
201208241200 METAR MRLM NIL=
201208241300 METAR MRLM 241300Z 25003KT 9999 FEW015 SCT250 25/23 A2985=
201208241400 METAR MRLM 241400Z 26004KT 9999 FEW020 BKN250 29/24 A2985=
201208241500 METAR MRLM 241500Z 30004KT 9999 FEW030 BKN250 30/23 A2984=
201208241600 METAR MRLM 241600Z 33005KT 9999 FEW040 BKN260 31/22 A2984=
201208241700 METAR MRLM 241700Z 01010KT 9999 FEW030 BKN260 30/24 A2982=
201208241800 METAR MRLM 241800Z 01010KT 9999 FEW030 OVC260 30/24 A2979=
201208241900 METAR MRLM 241900Z 01013KT 9999 FEW030 OVC260 31/24 A2977=
201208242000 METAR MRLM 242000Z 01011KT 9999 FEW030 OVC260 30/24 A2975=
201208242100 METAR MRLM 242100Z 36012KT 9999 FEW025 OVC260 30/24 A2975=
201208242200 METAR MRLM NIL=
201208242300 METAR MRLM NIL=
201208250000 METAR MRLM NIL=
201208250100 METAR MRLM NIL=
201208250200 METAR MRLM NIL=
201208250300 METAR MRLM NIL=
201208250400 METAR MRLM NIL=
201208250500 METAR MRLM NIL=
201208250600 METAR MRLM NIL=
201208250700 METAR MRLM NIL=
201208250800 METAR MRLM NIL=
201208250900 METAR MRLM NIL=
201208251000 METAR MRLM NIL=
201208251100 METAR MRLM NIL=
201208251200 METAR MRLM NIL=
201208251300 METAR MRLM 251300Z 22003KT CAVOK 26/23 A2980=
201208251400 METAR MRLM 251400Z 21003KT 9999 FEW020 BKN130 28/24 A2981=
201208251500 METAR MRLM 251500Z 00000KT 9999 FEW035 BKN130 30/23 A2981=
201208251600 METAR MRLM 251600Z 06006KT 9999 FEW030 SCT250 30/23 A2981=
201208251700 METAR MRLM 251700Z 05006KT 9999 FEW030 SCT250 30/24 A2979=
201208251800 METAR MRLM 251800Z 04007KT 9999 FEW030 BKN260 30/24 A2977=
201208251900 METAR MRLM 251900Z 04007KT 9999 FEW030 BKN260 30/25 A2974=
201208252000 METAR MRLM 252000Z 05004KT 9999 FEW025 BKN260 30/25 A2972=
201208252100 METAR MRLM 252100Z 07007KT 9999 SCT025 SCT250 30/25 A2971=
201208252200 METAR MRLM NIL=
201208252300 METAR MRLM NIL=
201208260000 METAR MRLM NIL=
201208260100 METAR MRLM NIL=
201208260200 METAR MRLM NIL=
201208260300 METAR MRLM NIL=
201208260400 METAR MRLM NIL=
201208260500 METAR MRLM NIL=
201208260600 METAR MRLM NIL=
201208260700 METAR MRLM NIL=
201208260800 METAR MRLM NIL=
201208260900 METAR MRLM NIL=
201208261000 METAR MRLM NIL=
201208261100 METAR MRLM NIL=
201208261200 METAR MRLM NIL=
201208261300 METAR MRLM 261300Z 23004KT CAVOK 26/22 A2983=
201208261400 METAR MRLM 261400Z 25002KT CAVOK 29/23 A2984=
201208261500 METAR MRLM 261500Z 05004KT CAVOK 29/22 A2984=
201208261600 METAR MRLM 261600Z 03005KT 9999 FEW040 30/23 A2984=
201208261700 METAR MRLM 261700Z 04006KT 9999 FEW035 30/23 A2983=
201208261800 METAR MRLM 291800Z 04006KT 9999 FEW035 31/24 A2981=
201208261900 METAR MRLM 261900Z 04006KT 9999 FEW030 30/24 A2978=
201208262000 METAR MRLM 262000Z 04005KT 9999 FEW0305 SCT270 31/24 A2976=
201208262100 METAR MRLM 262100Z 03006KT 9999 FEW030 31/25 A2976=
201208262200 METAR MRLM NIL=
201208262300 METAR MRLM NIL=
201208270000 METAR MRLM NIL=
201208270100 METAR MRLM NIL=
201208270200 METAR MRLM NIL=
201208270300 METAR MRLM NIL=
201208270400 METAR MRLM NIL=
201208270500 METAR MRLM NIL=
201208270600 METAR MRLM NIL=
201208270700 METAR MRLM NIL=
201208270800 METAR MRLM NIL=
201208270900 METAR MRLM NIL=
201208271000 METAR MRLM NIL=
201208271100 METAR MRLM NIL=
201208271200 METAR MRLM NIL=
201208271300 METAR MRLM 271300Z 22004KT CAVOK 26/23 A2986=
201208271400 METAR MRLM 271400Z 00000KT CAVOK 31/24 A2987=
201208271500 METAR MRLM 271500Z 05005KT 9999 FEW020 BKN250 29/24 A2988=
201208271600 METAR MRLM 271600Z 03004KT 9999 FEW025 BKN250 29/24 A2987=
201208271700 METAR MRLM 271700Z 05005KT 9999 FEW030 BKN250 30/24 A2986=
201208271800 METAR MRLM 271800Z 06006KT 9999 FEW030 BKN260 30/25 A2985=
201208271900 METAR MRLM 271900Z 05006KT 9999 FEW030 BKN260 30/25 A2983=
201208272000 METAR MRLM NIL=
201208272100 METAR MRLM 272100Z 06005KT 9999 SCT030 SCT250 30/25 A2978=
201208272200 METAR MRLM NIL=
201208272300 METAR MRLM NIL=
201208280000 METAR MRLM NIL=
201208280100 METAR MRLM NIL=
201208280200 METAR MRLM NIL=
201208280300 METAR MRLM NIL=
201208280400 METAR MRLM NIL=
201208280500 METAR MRLM NIL=
201208280600 METAR MRLM NIL=
201208280700 METAR MRLM NIL=
201208280800 METAR MRLM NIL=
201208280900 METAR MRLM NIL=
201208281000 METAR MRLM NIL=
201208281100 METAR MRLM NIL=
201208281200 METAR MRLM 281200Z 22002KT 9999 FEW025 BKN110 24/23 A2984=
201208281300 METAR MRLM 281300Z 21004KT CAVOK 24/23 A2985=
201208281400 METAR MRLM 281400Z 23004KT CAVOK 24/23 A2987=
201208281500 METAR MRLM 281500Z 28002KT 9999 FEW025 BKN090 26/24 A2987=
201208281600 METAR MRLM 281600Z 000000KT 9999 DZ FEW020 BKN130 28/24 A2987=
201208281700 METAR MRLM 281700Z 28005KT 9999 FEW028 SCT150 29/23 A2986 REDZ=
201208281800 METAR MRLM 281800Z 28007KT 9999 SCT030 SCT260 31/24 A2983=
201208281900 METAR MRLM 281900Z 30006KT 9999 SCT035 SCT260 31/24 A2980=
201208282000 METAR MRLM 282000Z 31007KT 9999 FEW035 BKN260 31/24 A2979=
201208282100 METAR MRLM 282100Z 31007KT 9999 FEW025 BKN140 30/25 A2979=
201208282200 METAR MRLM 282200Z 32006KT 9999 FEW025 BKN140 29/24 A2978=
201208282300 METAR MRLM 282300Z 31003KT CAVOK 29/25 A2980=
201208282355 METAR MRLM 290000Z 21003KT CAVOK 28/25 A2981=
201208290000 METAR MRLM 290000Z 21003KT CAVOK 28/25 A2981=
201208290100 METAR MRLM NIL=
201208290200 METAR MRLM NIL=
201208290300 METAR MRLM NIL=
201208290400 METAR MRLM NIL=
201208290500 METAR MRLM NIL=
201208290600 METAR MRLM NIL=
201208290700 METAR MRLM NIL=
201208290800 METAR MRLM NIL=
201208290900 METAR MRLM NIL=
201208291000 METAR MRLM NIL=
201208291100 METAR MRLM NIL=
201208291200 METAR MRLM 291200Z 23003KT CAVOK 23/22 A2984=
201208291300 METAR MRLM 291300Z 23003KT CAVOK 25/23 A2984=
201208291400 METAR MRLM 291400Z 26002KT CAVOK 29/24 A2986=
201208291500 METAR MRLM 291500Z 06002KT CAVOK 29/24 A2985=
201208291600 METAR MRLM 291600Z 31003KT CAVOK 29/24 A2986=
201208291700 METAR MRLM 291700Z 35005KT CAVOK 29/25 A2985=
201208291800 METAR MRLM 291800Z 30005KT 9999 FEW025 BKN250 30/25 A2983=
201208291900 METAR MRLM 291900Z 03005KT 9999 SCT025 SCT250 30/25 A2979=
201208292000 METAR MRLM 292000Z 36009KT 9999 BKN022 29/25 A2977=
201208292100 METAR MRLM 292100Z 36009KT 9999 BKN020 29/26 A2977=
201208292200 METAR MRLM 292200Z 36006KT 9999 FEW020 BKN270 29/25 A2976=
201208292300 METAR MRLM 292300Z 02005KT 9999 FEW020 SCT130 29/25 A2977=
201208292354 METAR MRLM 300000Z 00000KT 9999 FEW018 BKN110 28/25 A2979=
201208300000 METAR MRLM 300000Z 00000KT 9999 FEW018 BKN110 28/25 A2979=
201208300100 METAR MRLM NIL=
201208300200 METAR MRLM NIL=
201208300300 METAR MRLM NIL=
201208300400 METAR MRLM NIL=
201208300500 METAR MRLM NIL=
201208300600 METAR MRLM NIL=
201208300700 METAR MRLM NIL=
201208300800 METAR MRLM NIL=
201208300900 METAR MRLM NIL=
201208301000 METAR MRLM NIL=
201208301100 METAR MRLM NIL=
201208301200 METAR MRLM 301200Z 24004KT 9999 FEW010 BKN100 24/22 A2980=
201208301300 METAR MRLM 301300Z 00000KT 9999 SCT010 BKN100 24/23 A2985=
201208301400 METAR MRLM 301400Z 22002KT 9999 -DZ BKN010 SCT100 25/23 A2988=
201208301420 METAR MRLM 301420Z 01005G20KT 8000 +RA BKN007 25/23 A2990=
201208301500 METAR MRLM 301500Z 08014KT 9999 4000N DZ BKN010 24/23 A2989 RERA=
201208301600 METAR MRLM 301600Z 26004KT 9999 FEW015 SCT110 24/23 A2989 REDZ=
201208301700 METAR MRLM 301700Z 25005KT 9999 FEW015 SCT120 25/23 A29850=
201208301800 METAR MRLM 301800Z 29004KT CAVOK 27/24 A2983=
201208301900 METAR MRLM 301900Z 33006KT CAVOK 28/22 A2983=
201208302000 METAR MRLM 302000Z 32007KT 9999 FEW025 SCT130 28/23 A2981=
201208302100 METAR MRLM 302100Z 29003KT 9999 FEW025 BKN250 28/23 A2980=
201208302200 METAR MRLM 302200Z 32004KT 9999 FEW030 BKN250 28/22 A2981=
201208302300 METAR MRLM 302300Z 31003KT CAVOK 28/23 A2981=
201208310000 METAR MRLM 310000Z 30002KT 9999 FEW020 SCT140 27/23 A2985=
201208310100 METAR MRLM NIL=
201208310200 METAR MRLM NIL=
201208310300 METAR MRLM NIL=
201208310400 METAR MRLM NIL=
201208310500 METAR MRLM NIL=
201208310600 METAR MRLM NIL=
201208310700 METAR MRLM NIL=
201208310800 METAR MRLM NIL=
201208310900 METAR MRLM NIL=
201208311000 METAR MRLM NIL=
201208311100 METAR MRLM NIL=
201208311200 METAR MRLM 311200Z 24003KT 9999 FEW010 SCT110 24/22 A2987=
201208311300 METAR MRLM 311300Z 00000KT 9999 FEW010 SCT110 24/23 A2990=
201208311400 METAR MRLM 311400Z 23003KT CAVOK 26/23 A2991=
201208311500 METAR MRLM 311500Z 00000KT CAVOK 29/24 A2993=
201208311600 METAR MRLM 311600Z 33005KT 9999 FEW030 SCT140 30/23 A2992=
201208311700 METAR MRLM 311700Z 01008KT 9999 FEW030 BKN250 30/24 A2992=
201208311800 METAR MRLM 311800Z 35009KT 9999 FEW025 SCT130 29/24 A2991=
201208311900 METAR MRLM 311900Z 36009KT 9999 SCT025 SCT130 29/25 A2988=
201208312000 METAR MRLM 312000Z 32007KT 9999 BKN025 29/24 A2986=
201208312100 METAR MRLM 312100Z 31005KT 9999 FEW030 BKN250 30/24 A2985=
201208312200 METAR MRLM 312200Z 34009KT 9999 BKN020 29/25 A2986=
201208312300 METAR MRLM 312300Z 34008KT 9999 BKN020 28/25 A2986=
201209010000 METAR MRLM 010000Z 28005KT 9999 BKN015 27/24 A2985=
201209010100 METAR MRLM NIL=
201209010200 METAR MRLM NIL=
201209010300 METAR MRLM NIL=
201209010400 METAR MRLM NIL=
201209010500 METAR MRLM NIL=
201209010600 METAR MRLM NIL=
201209010700 METAR MRLM NIL=
201209010800 METAR MRLM NIL=
201209010900 METAR MRLM NIL=
201209011000 METAR MRLM NIL=
201209011100 METAR MRLM NIL=
201209011200 METAR MRLM 011200Z 22004KT CAVOK 23/22 A2989=
201209011300 METAR MRLM 011300Z 22003KT CAVOK 26/23 A2991=
201209011400 METAR MRLM 011400Z 28002KT 9999 FEW028 SCT150 29/23 A2993=
201209011500 METAR MRLM 011500Z 28004KT 9999 FEW025 BKN270 29/24 A2992=
201209011600 METAR MRLM 011600Z 04007KT 9999 FEW028 BKN260 29/24 A2992=
201209011700 METAR MRLM 011700Z 02006KT 9999 FEW028 BKN270 30/25 A2990=
201209011800 METAR MRLM 011800Z 02008KT 9999 FEW028 BKN090 30/24 A2989=
201209011900 METAR MRLM 011900Z 01008KT 9999 FEW030 BKN270 30/24 A2987=
201209012000 METAR MRLM 012000Z 01008KT 9999 FEW028 BKN270 30/24 A2984=
201209012100 METAR MRLM 012100Z 01010KT 9999 FEW030 BKN270 30/24 A2994=
201209012200 METAR MRLM 012200Z 01008KT 9999 FEW035 BKN270 30/23 A2994=
201209012300 METAR MRLM 012300Z 36008KT 9999 FEW025 SCT140 29/24 A2986=
201209012353 METAR MRLM 012353Z 35006KT 9999 FEW025 SCT080 SCT270 29/24 A2988=
201209020000 METAR MRLM 35006KT 9999 FEW025 SCT080 SCT270 29/24 A2988=
201209020100 METAR MRLM NIL=
201209020200 METAR MRLM NIL=
201209020300 METAR MRLM NIL=
201209020400 METAR MRLM NIL=
201209020500 METAR MRLM NIL=
201209020600 METAR MRLM NIL=
201209020700 METAR MRLM NIL=
201209020800 METAR MRLM NIL=
201209020900 METAR MRLM NIL=
201209021000 METAR MRLM NIL=
201209021100 METAR MRLM NIL=
201209021200 METAR MRLM 021200Z 26003KT 9999 FEW005 SCT020 24/23 A2990=
201209021300 METAR MRLM 021300Z 21005KT 9999 DZ FEW005 BKN025 24/23 A2992=
201209021400 METAR MRLM 021400Z 27002KT 9999 FEW008 BKN020 25/23 A2994 REDZ=
201209021500 METAR MRLM 021500Z 29005KT 6000 RA BKN015 26/23 A2996=
201209021600 METAR MRLM 021600Z 29005KT 9999 FEW010 BKN080 26/24 A2996 RERA=
201209021700 METAR MRLM 021700Z 27004KT 9999 FEW018 BKN080 28/24 A2995=
201209021800 METAR MRLM 021800Z 05003KT 9999 FEW025 BKN090 28/24 A2992=
201209021900 METAR MRLM 021900Z 03004KT 9999 FEW028 BKN090 29/23 A2988=
201209022000 METAR MRLM 022000Z 03005KT 9999 FEW025 SCT090 SCT260 29/24 A2986=
201209022100 METAR MRLM 022100Z 06008KT 9999 FEW025 SCT030 29/24 A2985=
201209022200 METAR MRLM 022200Z 05007KT 9999 FEW025 BKN090 28/24 A2985=
201209022300 METAR MRLM 022300Z 06005KT 9999 FEW023 SCT090 28/24 A2987=
201209022352 METAR MRLM 030000Z 28002KT 9999 FEW015 BKN025 27/24 A2988=
201209030000 METAR MRLM 030000Z 28002KT 9999 FEW015 BKN025 27/24 A2988=
201209030100 METAR MRLM NIL=
201209030200 METAR MRLM NIL=
201209030300 METAR MRLM NIL=
201209030400 METAR MRLM NIL=
201209030500 METAR MRLM NIL=
201209030600 METAR MRLM NIL=
201209030700 METAR MRLM NIL=
201209030800 METAR MRLM NIL=
201209030900 METAR MRLM NIL=
201209031000 METAR MRLM NIL=
201209031100 METAR MRLM NIL=
201209031200 METAR MRLM 031200Z 29003KT 9999 -DZ SCT010 SCT090 23/21 A2994=
201209031300 METAR MRLM 031300Z 22004KT 9999 DZ SCT010 BKN100 22/22 A2995=
201209031400 METAR MRLM 031400Z 31002KT 9999 SCT010 BKN110 24/23 A2997 REDZ=
201209031500 METAR MRLM 031500Z 28003KT 9999 SCT010 BKN110 25/23 A2997=
201209031600 METAR MRLM 031600Z 29005KT 9999 SCT015 BKN100 26/23 A2998=
201209031626 METAR MRLM 031626Z 34004KT 8000 3000N +RA BKN010 26/24 A2999=
201209031700 METAR MRLM 031700Z 25005KT 8000 RA BKN010 SCT090 24/23 A2998=
201209031800 METAR MRLM 031800Z 25006KT 9999 SCT015 BKN110 26/24 A2995 RERA=
201209031900 METAR MRLM 031900Z 26004KT 9999 FEW020 SCT120 28/24 A29910=
201209032000 METAR MRLM 032000Z 04004KT 9999 FEW030 SCT120 31/24 A2990=
201209032100 METAR MRLM 032100Z 36009KT 9999 FEW030 SCT120 29/22 A2989=
201209032200 METAR MRLM 032200Z 36008KT 9999 DZ SCT020 SCT110 28/24 A2989=
201209032235 METAR MRLM 032235Z 36008KT 6000 3000N SHRA BKN010 25/24 A2992=
201209032300 METAR MRLM 032300Z 04008KT 9999 DZ VCSH BKN010 SCT100 25/24 A2991=
201209040000 METAR MRLM 040000Z 22003KT 9999 -DZ SCT010 BKN100 24/23 A2993=
201209040100 METAR MRLM NIL=
201209040200 METAR MRLM NIL=
201209040300 METAR MRLM NIL=
201209040400 METAR MRLM NIL=
201209040500 METAR MRLM NIL=
201209040600 METAR MRLM NIL=
201209040700 METAR MRLM NIL=
201209040800 METAR MRLM NIL=
201209040900 METAR MRLM NIL=
201209041000 METAR MRLM NIL=
201209041100 METAR MRLM NIL=
201209041200 METAR MRLM 041200Z 22004KT CAVOK 23/22 A2991=
201209041300 METAR MRLM 041300Z 00000KT CAVOK 23/22 A2991=
201209041400 METAR MRLM 041400Z 00000KT 9999 SCT010 SCT110 24/23 A2995=
201209041500 METAR MRLM 041500Z 24002KT 9999 -DZ SCT010 BKN110 25/23 A2996=
201209041600 METAR MRLM 041600Z 03003KT 9999 SCT020 BKN110 27/24 A2995=
201209041700 METAR MRLM 041700Z 36006KT 9999 SCT020 SCT110 28/24 A2995=
201209041800 METAR MRLM 041800Z 30006KT 9999 FEW030 BKN120 30/23 A2991=
201209041900 METAR MRLM 041900Z 33008KT 9999 FEW035 BKN260 30/23 A2989=
201209042000 METAR MRLM 042000Z 35010KT 9999 FEW035 BKN360 30/24 A2986=
201209042100 METAR MRLM 042100Z 33009KT 9999 FEW030 BKN260 30/23 A2984=
201209042200 METAR MRLM 042200Z 34009KT 9999 FEW030 BKN260 30/24 A2984=
201209042300 METAR MRLM 042300Z 34009KT 9999 SCT025 SCT260 29/24 A2986=
201209050000 METAR MRLM 050000Z 31007KT 9999 SCT020 SCT250 27/24 A2988=
201209050100 METAR MRLM NIL=
201209050200 METAR MRLM NIL=
201209050300 METAR MRLM NIL=
201209050400 METAR MRLM NIL=
201209050500 METAR MRLM NIL=
201209050600 METAR MRLM NIL=
201209050700 METAR MRLM NIL=
201209050800 METAR MRLM NIL=
201209050900 METAR MRLM NIL=
201209051000 METAR MRLM NIL=
201209051100 METAR MRLM NIL=
201209051200 METAR MRLM 051200Z 23003KT CAVOK 23/22 A2990=
201209051300 METAR MRLM 051300Z 20002KT CAVOK 26/23 A2991=
201209051400 METAR MRLM 051400Z 20002KT CAVOK 26/23 A2991=
201209051500 METAR MRLM 051500Z 06005KT 9999 FEW028 SCT140 SCT270 28/23 A2993=
201209051600 METAR MRLM 051600Z 02008KT 9999 FEW030 SCT140 SCT270 29/23 A2993=
201209051700 METAR MRLM 051700Z 01008KT 9999 FEW030 SCT270 30/24 A2991=
201209051800 METAR MRLM 051800Z 03008KT 9999 FEW025 SCT280 30/24 A2989=
201209051900 METAR MRLM 051900ZS 02007KT 9999 SCT025 SCT280 30/25 A2987=
201209051908 METAR MRLM 051900ZS 02007KT 9999 SCT025 SCT280 30/25 A2987=
201209052000 METAR MRLM 052000Z 01008KT 9999 BKN025 30/25 A2985=
201209052100 METAR MRLM 052100Z 02006KT 9999 BKN025 29/25 A2983=
201209052200 METAR MRLM 052200Z 05004KT 9999 BKN025 29/25 A2983=
201209052300 METAR MRLM 052300Z 0504KT 9999 BKN023 29/24 A2985=
201209052357 METAR MRLM 060000Z 06004KT 9999 FEW022 SCT270 29/24 A2986=
201209060000 METAR MRLM 060000Z 06004KT 9999 FEW022 SCT270 29/24 A2986=
201209060100 METAR MRLM NIL=
201209060200 METAR MRLM NIL=
201209060300 METAR MRLM NIL=
201209060400 METAR MRLM NIL=
201209060500 METAR MRLM NIL=
201209060600 METAR MRLM NIL=
201209060700 METAR MRLM NIL=
201209060800 METAR MRLM NIL=
201209060900 METAR MRLM NIL=
201209061000 METAR MRLM NIL=
201209061100 METAR MRLM NIL=
201209061200 METAR MRLM 061200Z 25002KT 9999 SCT020 SCT100 24/24 A2989=
201209061300 METAR MRLM 061300Z 22003KT 9999 SCT025 SCT080 25/24 A2991=
201209061400 METAR MRLM 061400Z 24002KT 9999 FEW020 SCT260 28/24 A2993=
201209061500 METAR MRLM 061500Z 31002KT 9999 FEW025 BKN260 29/23 2993=
201209061600 METAR MRLM 061600Z 03006KT 9999 FEW025 BKN260 29/24 A2991=
201209061700 METAR MRLM 061700Z 02007KT 9999 FEW030 BKN270 30/24 A2991=
201209061800 METAR MRLM 061800Z 04007KT 9999 VCTS FEW015CB FEW025 SCT140 29/24 A2989=
201209061900 METAR MRLM 061900Z 04005KT 9999 FEW025 BKN140 29/24 A2985 RETS=
201209062000 METAR MRLM 062000Z 07005KT 9999 FEW025 BKN140 29/24 A2983=
201209062100 METAR MRLM 062100Z 03006KT 9999 FEW025 SCT140 29/25 A2981=
201209062200 METAR MRLM 062200Z 06006KT 9999 FEW025 BKN140 29/24 A2981=
201209062300 METAR MRLM 05006KT 9999 SCT023 SCT140 29/25 A2982=
201209062307 METAR MRLM 062307Z 05006KT 9999 SCT023 SCT140 29/25 A2982=
201209062353 METAR MRLM 070000Z 08005KT 9999 SCT020 29/24 A2983=
201209070000 METAR MRLM 070000Z 08005KT 9999 SCT020 29/24 A2983=
201209070100 METAR MRLM NIL=
201209070200 METAR MRLM NIL=
201209070300 METAR MRLM NIL=
201209070400 METAR MRLM NIL=
201209070500 METAR MRLM NIL=
201209070600 METAR MRLM NIL=
201209070700 METAR MRLM NIL=
201209070800 METAR MRLM NIL=
201209070900 METAR MRLM NIL=
201209071000 METAR MRLM NIL=
201209071100 METAR MRLM NIL=
201209071200 METAR MRLM 071200Z 24005KT CAVOK 24/23 A2985=
201209071300 METAR MRLM 071300Z 22004KT CAVOK 26/23 A2987=
201209071400 METAR MRLM 071400Z 22004KT CAVOK 27/24 A2991=
201209071500 METAR MRLM 071500Z 02004KT 9999 SCT020 BKN130 29/24 A2993=
201209071600 METAR MRLM 071600Z 36005KT 9999 FEW025 SCT140 29/23 A2992=
201209071700 METAR MRLM 071700Z 06005KT 9999 FEW025 SCT140 28/23 A2992=
201209071800 METAR MRLM 071800Z 02008KT 9999 FEW025 BKN260 29/24 A2991=
201209071900 METAR MRLM 071900Z 01006KT 9999 FEW030 BKN260 28/22 A2987=
201209072000 METAR MRLM 072000Z 06003KT 9999 FEW030 BKN250 28/23 A2982=
201209072100 METAR MRLM 072100Z 10005KT 9999 FEW030 BKN250 29/23 A2976=
201209072200 METAR MRLM 072200Z 05005KT CAVOK 29/23 A2974=
201209072300 METAR MRLM 072300Z 05006KT 9999 FEW025 SCT130 29/24 A2975=
201209080000 METAR MRLM 080000Z 05006KT 9999 FEW020 SCT120 28/24 A2982=
201209080100 METAR MRLM NIL=
201209080200 METAR MRLM NIL=
201209080300 METAR MRLM NIL=
201209080400 METAR MRLM NIL=
201209080500 METAR MRLM NIL=
201209080600 METAR MRLM NIL=
201209080700 METAR MRLM NIL=
201209080800 METAR MRLM NIL=
201209080900 METAR MRLM NIL=
201209081000 METAR MRLM NIL=
201209081100 METAR MRLM NIL=
201209081200 METAR MRLM 081200Z 23002KT CAVOK 25/24 A2984=
201209081300 METAR MRLM 081300Z 27002KT CAVOK 27/24 A2988=
201209081400 METAR MRLM 081400Z 25004KT 9999 FEW020 BKN130 27/24 A2990=
201209081500 METAR MRLM 081500Z 30002KT 9999 SCT030 BKN260 30/24 A2990=
201209081600 METAR MRLM 081600Z 02007KT 9999 SCT030 SCT260 30/24 A2989=
201209081700 METAR MRLM 081700Z 02009KT 9999 FEW030 SCT140 30/25 A2989=
201209081800 METAR MRLM 081800Z 02008KT 9999 FEW030 SCT250 30/24 A2985=
201209081900 METAR MRLM 081900Z 06005KT 9999 FEW030 SCT260 30/24 A2983=
201209082000 METAR MRLM 082000Z 08006KT 9999 FEW030 BKN260 29/24 A2982=
201209082100 METAR MRLM 082100Z 08004KT 9999 FEW025 BKN260 29/24 A2982=
201209082200 METAR MRLM 082200Z 10006KT 9999 SCT025 SCT130 29/24 A2982=
201209082300 METAR MRLM 082300Z 11008KT 9999 BKN020 SCT250 29/25 A2982=
201209090000 METAR MRLM 090000Z 20006KT 9999 BKN015 26/22 A2984=
201209090100 METAR MRLM NIL=
201209090200 METAR MRLM NIL=
201209090300 METAR MRLM NIL=
201209090400 METAR MRLM NIL=
201209090500 METAR MRLM NIL=
201209090600 METAR MRLM NIL=
201209090700 METAR MRLM NIL=
201209090800 METAR MRLM NIL=
201209090900 METAR MRLM NIL=
201209091000 METAR MRLM NIL=
201209091100 METAR MRLM NIL=
201209091200 METAR MRLM 091200Z 25004KT CAVOK 24/22 A2989=
201209091300 METAR MRLM 091300Z 25004KT CAVOK 25/22 A2989=
201209091400 METAR MRLM 091400Z 24005KT CAVOK 28/24 A2991=
201209091500 METAR MRLM 091500Z 31005KT CAVOK 29/23 A2990=
201209091600 METAR MRLM 091600Z 32008KT 9999 FEW032 BKN260 29/22 A2992=
201209091700 METAR MRLM 091700Z 28006KT 9999 FEW032 BKN270 30/24 A2991=
201209091800 METAR MRLM 36007KT 9999 FEW032 BKN270 30/24 A2989=
201209091815 METAR MRLM 091815Z 36007KT 9999 FEW032 BKN270 30/24 A2989=
201209091900 METAR MRLM 091900Z 01009KT 9999 FEW028 BKN280 30/24 A2986=
201209092000 METAR MRLM 092000Z 02008KT 9999 FEW028 BKN280 30/24 A2985=
201209092100 METAR MRLM 092100Z 01009KT 9999 FEW025 BKN280 30/24 A2984=
201209092200 METAR MRLM 092200Z 01006KT 9999 FEW025 SCT280 30/24 A2985=
201209092300 METAR MRLM 092300Z 35004KT 9999 FEW022 BKN280 29/25 A2987=
201209092351 METAR MRLM 100000Z 28002KT 9999 FEW015 BKN270 28/25 A2989=
201209100000 METAR MRLM 100000Z 28002KT 9999 FEW015 BKN270 28/25 A2989=
201209100100 METAR MRLM NIL=
201209100200 METAR MRLM NIL=
201209100300 METAR MRLM NIL=
201209100400 METAR MRLM NIL=
201209100500 METAR MRLM NIL=
201209100600 METAR MRLM NIL=
201209100700 METAR MRLM NIL=
201209100800 METAR MRLM NIL=
201209100900 METAR MRLM NIL=
201209101000 METAR MRLM NIL=
201209101100 METAR MRLM NIL=
201209101200 METAR MRLM 101200Z 21002KT CAVOK 24/22 A2992=
201209101300 METAR MRLM 101300Z 24005KT CAVOK 26/22 A2993=
201209101400 METAR MRLM 101400Z 28004KT CAVOK 30/23 A2994=
201209101500 METAR MRLM 101500Z 07005KT 9999 FEW032 BKN270 30/24 A2994=
201209101600 METAR MRLM 101600Z 05008KT 9999 FEW020 BKN030 29/23 A2996=
201209101700 METAR MRLM 101700Z 08004KT 9999 FEW025 BKN140 29/23 A2993=
201209101800 METAR MRLM 101800Z 07003KT 9999 SCT028 BKN260 29/24 A2989=
201209101900 METAR MRLM 101900Z 07006KT 9999 FEW025 BKN260 29/24 A2986=
201209102000 METAR MRLM 102000Z 03007KT 9999 FEW015 BKN025 29/25 A2988=
201209102100 METAR MRLM 102100Z 04008KT 9999 BKN015 29/25 A2989=
201209102200 METAR MRLM 102200Z 02011KT 6000 TS DZ VCSH SCT010CB SCT015 29/25 A2989=
201209102300 METAR MRLM 17004KT 9999 FEW015 SCT080 SCT140 23/20 A2987 RETSDZ=
201209102303 METAR MRLM 102303Z 17004KT 9999 FEW015 SCT080 SCT140 23/20 A2987 RETSDZ=
201209110000 METAR MRLM 110000Z 00000KT CAVOK 23/21 A2989=
201209110100 METAR MRLM NIL=
201209110200 METAR MRLM NIL=
201209110300 METAR MRLM NIL=
201209110400 METAR MRLM NIL=
201209110500 METAR MRLM NIL=
201209110600 METAR MRLM NIL=
201209110700 METAR MRLM NIL=
201209110800 METAR MRLM NIL=
201209110900 METAR MRLM NIL=
201209111000 METAR MRLM NIL=
201209111100 METAR MRLM NIL=
201209111200 METAR MRLM 111200Z 24004KT 9999 SCT010 SCT100 22/21 A2988=
201209111300 METAR MRLM 111300Z 23005KT 9999 SCT010 BKN100 23/22 A2990=
201209111400 METAR MRLM 111400Z 22004KT 9999 FEW020 SCT120 27/23 A2991=
201209111500 METAR MRLM 111500Z 10008KT 9999 RA VCTS FEW010CB SCT015 SCT110 26/23 A2994=
201209111520 METAR MRLM 111520Z 02016KT 6000 3000N TS +RA SCT008CB BKN015 24/23 A2998=
201209111600 METAR MRLM 111600Z 23006KT 9999 DZ SCT007 SCT090 23/22 A2996 RETSRA=
201209111700 METAR MRLM 111700Z 24004KT 9999 DZ SCT010 BKN090 23/22 A2996=
201209111800 METAR MRLM 111800Z 29003KT 9999 DZ SCT008 SCT090 23/23 A2993=
201209111900 METAR MRLM 111900Z 28004KT 9999 SCT015 BKN100 25/23 A2989=
201209112000 METAR MRLM 112000Z 27004KT 9999 SCT020 SCT110 26/23 A2986=
201209112100 METAR MRLM 112100Z 28004KT 9999 FEW020 SCT120 27/23 A2984=
201209112200 METAR MRLM 112200Z 29004KT 9999 FEW020 BKN200 27/24 A2985=
201209112300 METAR MRLM 112300Z 28004KT 9999 FEW015 SCT200 26/23 A2986=
201209120000 METAR MRLM 120000Z 25004KT 9999 FEW010 SCT100 25/23 A2988=
201209120100 METAR MRLM NIL=
201209120200 METAR MRLM NIL=
201209120300 METAR MRLM NIL=
201209120400 METAR MRLM NIL=
201209120500 METAR MRLM NIL=
201209120600 METAR MRLM NIL=
201209120700 METAR MRLM NIL=
201209120800 METAR MRLM NIL=
201209120900 METAR MRLM NIL=
201209121000 METAR MRLM NIL=
201209121100 METAR MRLM NIL=
201209121200 METAR MRLM 121200Z 25005KT 9999 FEW010 SCT250 23/21 A2988=
201209121300 METAR MRLM 121300Z 00000KT CAVOK 25/22 A2990=
201209121400 METAR MRLM 121400Z 27003KT CAVOK 28/23 A2990=
201209121500 METAR MRLM 121500Z 03005KT 9999 FEW030 SCT260 30/23 A2990=
201209121600 METAR MRLM 121600Z 35006KT 9999 FEW035 BKN270 31/23 A2990=
201209121700 METAR MRLM 121700Z 01008KT 9999 FEW035 BKN270 31/24 A2988=
201209121800 METAR MRLM 121800Z 01008KT 9999 FEW035 SCT270 31/24 A2985=
201209121900 METAR MRLM 121900Z 36011KT 9999 FEW030 SCT130 30/25 A2983=
201209122000 METAR MRLM 122000Z 01011KT 9999 FEW030 BKN130 30/25 A2982=
201209122100 METAR MRLM 122100Z 03010KT 9999 FEW025 BKN120 30/24 A2981=
201209122200 METAR MRLM 122200Z 07010KT 9999 -DZ SCT025 BKN110 27/21 A2981=
201209122300 METAR MRLM 122300Z 05005KT 9999 FEW025 BKN110 27/22 A2982=
201209130000 METAR MRLM 130000Z 00000KT 9999 SCT020 BKN110 26/22 A2983=
201209130100 METAR MRLM NIL=
201209130200 METAR MRLM NIL=
201209130300 METAR MRLM NIL=
201209130400 METAR MRLM NIL=
201209130500 METAR MRLM NIL=
201209130600 METAR MRLM NIL=
201209130700 METAR MRLM NIL=
201209130800 METAR MRLM NIL=
201209130900 METAR MRLM NIL=
201209131000 METAR MRLM NIL=
201209131100 METAR MRLM NIL=
201209131200 METAR MRLM 131200Z 23005KT CAVOK 24/21 A2983=
201209131300 METAR MRLM 131300Z 26003KT CAVOK 27/22 A2985=
201209131400 METAR MRLM 131400Z 3202KT CAVOK 29/23 A2988=
201209131500 METAR MRLM 131500Z 02009KT 9999 FEW015 SCT025 SCT080 28/23 A2989=
201209131600 METAR MRLM 131600Z 01006KT 9999 BKN030 30/24 A2989=
201209131700 METAR MRLM 131700Z 06009KT 9999 SCT025 SCT110 29/24 A2987=
201209131800 METAR MRLM 131800Z 07007KT 9999 FEW025 BKN120 29/24 A2986=
201209131900 METAR MRLM 131900Z 07006KT 9999 FEW025 SCT080 29/24 A2983=
201209132000 METAR MRLM 132000Z 10006KT 9999 SCT025 SCT090 29/24 A2981=
201209132100 METAR MRLM 132100Z 12009KT 9999 SCT025 SCT090 29/24 A2980=
201209132200 METAR MRLM 132200Z 21004KT 9999 FEW022 BKN090 28/24 A2978=
201209132300 METAR MRLM 132300Z 01004KT CAVOK 28/24 A2979=
201209132352 METAR MRLM 140000Z 36003KT CAVOK 28/24 A2981=
201209140000 METAR MRLM 140000Z 36003KT CAVOK 28/24 A2981=
201209140100 METAR MRLM NIL=
201209140200 METAR MRLM NIL=
201209140300 METAR MRLM NIL=
201209140400 METAR MRLM NIL=
201209140500 METAR MRLM NIL=
201209140600 METAR MRLM NIL=
201209140700 METAR MRLM NIL=
201209140800 METAR MRLM NIL=
201209140900 METAR MRLM NIL=
201209141000 METAR MRLM NIL=
201209141100 METAR MRLM NIL=
201209141200 METAR MRLM 141200Z 26003KT 8000 RA BKN025 SCT120 23/22 A2988=
201209141300 METAR MRLM 141300Z 24003KT 9999 RA BKN030 SCT120 23/23 A2987=
201209141400 METAR MRLM 141400Z 24003KT 9999 +DZ SCT030 SCT090 24/23 A2988=
201209141500 METAR MRLM 141500Z 21004KT 9999 BKN030 24/24 A2988 REDZ=
201209141600 METAR MRLM 141600Z 31004KT 9999 FEW010 BKN090 26/25 A2989=
201209141700 METAR MRLM 141700Z 34011KT 9999 BKN015 27/24 A2989=
201209141800 METAR MRLM 141800Z 32008KT 9999 FEW015 SCT090 27/24 A2987=
201209141900 METAR MRLM 141900Z 31006KT 9999 FEW020 BKN080 27/23 A2983=
201209142000 METAR MRLM 142000Z 32007KT 9999 FEW028 BKN120 29/23 A2982=
201209142100 METAR MRLM 142100Z 34010KT 9999 SCT025 SCT270 28/23 A2981=
201209142200 METAR MRLM 142200Z 32007KT 9999 BKN015 27/24 A2982=
201209142300 METAR MRLM 142300Z 30004KT 9999 BKN015 SCT090 27/24 A2984=
201209142352 METAR MRLM 150000Z 26003KT 9999 OVC015 26/24 A2986=
201209150000 METAR MRLM 150000Z 26003KT 9999 OVC015 26/24 A2986=
201209150100 METAR MRLM NIL=
201209150200 METAR MRLM NIL=
201209150300 METAR MRLM NIL=
201209150400 METAR MRLM NIL=
201209150500 METAR MRLM NIL=
201209150600 METAR MRLM NIL=
201209150700 METAR MRLM NIL=
201209150800 METAR MRLM NIL=
201209150900 METAR MRLM NIL=
201209151000 METAR MRLM NIL=
201209151100 METAR MRLM NIL=
201209151200 METAR MRLM 151200Z 26004KT CAVOK 24/22 A2988=
201209151300 METAR MRLM 151300Z 28003KT CAVOK 25/23 A2990=
201209151400 METAR MRLM 151400Z 29008KT CAVOK 28/23 A2993=
201209151500 METAR MRLM 151500Z 31006KT 9999 FEW030 SCT130 29/23 A2991=
201209151600 METAR MRLM 151600Z 03003KT 9999 FEW035 31/24 A2991=
201209151700 METAR MRLM 151700Z 01012KT 9999 FEW025 29/25 A2989=
201209151800 METAR MRLM 151800Z 01009KT 9999 FEW025 SCT130 30/25 A2987=
201209151900 METAR MRLM 151900Z 01009KT 9999 FEW025 BKN250 30/25 A2984=
201209152000 METAR MRLM 152000Z 36009KT 9999 FEW030 BKN250 30/24 A2983=
201209152100 METAR MRLM 152100Z 35008KT 9999 SCT025 SCT250 30/25 A2981=
201209152200 METAR MRLM 152200Z 36008KT 9999 SCT020 SCT250 29/25 A2982=
201209152300 METAR MRLM 152300Z 30003KT 9999 SCT015 SCT250 28/25 A2983=
201209160000 METAR MRLM 160000Z 31004KT 9999 BKN010 26/25 A2987=
201209160100 METAR MRLM NIL=
201209160200 METAR MRLM NIL=
201209160300 METAR MRLM NIL=
201209160400 METAR MRLM NIL=
201209160500 METAR MRLM NIL=
201209160600 METAR MRLM NIL=
201209160700 METAR MRLM NIL=
201209160800 METAR MRLM NIL=
201209160900 METAR MRLM NIL=
201209161000 METAR MRLM NIL=
201209161100 METAR MRLM NIL=
201209161200 METAR MRLM 161200Z 27004KT 9999 FEW010 BKN110 25/23 A2988=
201209161300 METAR MRLM 161300Z 28005KT 9999 FEW015 SCT250 27/24 A2990=
201209161400 METAR MRLM 161400Z 27004KT 9999 FEW020 SCT250 28/24 A2992=
201209161500 METAR MRLM 161500Z 32007KT 9999 FEW030 SCT260 31/24 A2993=
201209161600 METAR MRLM 161600Z 35009KT 9999 FEW030 SCT260 31/24 A2993=
201209161700 METAR MRLM 161700Z 01009KT 9999 FEW030 SCT260 31/25 A2991=
201209161800 METAR MRLM 161800Z 01008KT 9999 FEW030 31/25 A2989=
201209161900 METAR MRLM 161900Z 01010KT 9999 FEW025 30/26 A2985=
201209162000 METAR MRLM 162000Z 36011KT 9999 FEW030 31/25 A2982=
201209162100 METAR MRLM 162100Z 01010KT 9999 FEW030 SCT260 30/25 A2982=
201209162200 METAR MRLM 162200Z 34007KT 9999 FEW030 BKN260 31/25 A2981=
201209162300 METAR MRLM 162300Z 36006KT 9999 SCT020 SCT250 29/25 A2986=
201209170000 METAR MRLM 170000Z 32003KT 9999 SCT015 SCT120 27/25 A2986=
201209170100 METAR MRLM NIL=
201209170200 METAR MRLM NIL=
201209170300 METAR MRLM NIL=
201209170400 METAR MRLM NIL=
201209170500 METAR MRLM NIL=
201209170600 METAR MRLM NIL=
201209170700 METAR MRLM NIL=
201209170800 METAR MRLM NIL=
201209170900 METAR MRLM NIL=
201209171000 METAR MRLM NIL=
201209171100 METAR MRLM NIL=
201209171200 METAR MRLM 171200Z 24005KT CAVOK 24/22 A2990=
201209171300 METAR MRLM 171300Z 23004KT CAVOK 25/23 A2991=
201209171400 METAR MRLM 171400Z 24003KT CAVOK 26/24 A2993=
201209171500 METAR MRLM 171500Z 11003KT CAVOK 29/24 A2993=
201209171600 METAR MRLM 171600Z 06005KT 9999 FEW023 SCT140 SCT090 28/24 A2995=
201209171700 METAR MRLM 171700Z 35009KT9999 VCTSVCSH FEW010CB SCT020 SCT13028/24A2995=
201209171800 METAR MRLM 171800Z 20003KT 9999 RA SCT010 SCT120 27/25 A2992 RETS=
201209171900 METAR MRLM 171900Z 13011KT 9999 DZ SCT010 SCT090 27/25 A2992 RERA=
201209172000 METAR MRLM 172000Z 11007KT 9999 DZ FEW015 BKN090 27/24 A2989=
201209172100 METAR MRLM 172100Z 07002KT 9999 +DZ FEW030 BKN120 27/24 A2986=
201209172200 METAR MRLM 172200Z 24003KT 9999 +DZ FEW090 BKN120 27/25 A2981=
201209172300 METAR MRLM 172300Z 01008KT 9999 DZ FEW110 BKN140 27/24 A2983=
201209172356 METAR MRLM 180000Z 20002KT CAVOK 26/21 A2985 REDZ=
201209180000 METAR MRLM 180000Z 20002KT CAVOK 26/21 A2985 REDZ=
201209180100 METAR MRLM NIL=
201209180200 METAR MRLM NIL=
201209180300 METAR MRLM NIL=
201209180400 METAR MRLM NIL=
201209180500 METAR MRLM NIL=
201209180600 METAR MRLM NIL=
201209180700 METAR MRLM NIL=
201209180800 METAR MRLM NIL=
201209180900 METAR MRLM NIL=
201209181000 METAR MRLM NIL=
201209181100 METAR MRLM NIL=
201209181200 METAR MRLM 181200Z 22005KT CAVOK 22/21 A2994=
201209181300 METAR MRLM 181300Z 24004KT CAVOK 24/22 A2994=
201209181400 METAR MRLM 181400Z 00000KT CAVOK 28/23 A2986=
201209181500 METAR MRLM 181500Z 09004KT CAVOK 28/23 A2997=
201209181600 METAR MRLM 181600Z 04006KT 9999 FEW025 BKN110 29/23 A2999=
201209181700 METAR MRLM 181700Z 03007KT 9999 FEW025 BKN100 29/24 A2997=
201209181800 METAR MRLM 181800Z 03006KT 9999 BKN020 29/24 A2995=
201209181900 METAR MRLM 181900Z 06009KT 9999 BKN023 28/24 A2994=
201209182000 METAR MRLM 182000Z 09015KT 9999 OVC020 28/24 A2992=
201209182100 METAR MRLM 182100Z 11010KT 9999 SCT020 SCT130 27/24 A2990=
201209182200 METAR MRLM 182200Z 17005KT CAVOK 27/24 A2986=
201209182300 METAR MRLM 182300Z 18005KT CAVOK 26/22 A2980=
201209182351 METAR MRLM 190000Z 27002KT CAVOK 25/22 A2977=
201209190000 METAR MRLM 190000Z 27002KT CAVOK 25/22 A2977=
201209190100 METAR MRLM NIL=
201209190200 METAR MRLM NIL=
201209190300 METAR MRLM NIL=
201209190400 METAR MRLM NIL=
201209190500 METAR MRLM NIL=
201209190600 METAR MRLM NIL=
201209190700 METAR MRLM NIL=
201209190800 METAR MRLM NIL=
201209190900 METAR MRLM NIL=
201209191000 METAR MRLM NIL=
201209191100 METAR MRLM NIL=
201209191200 METAR MRLM NIL=
201209191300 METAR MRLM 191300Z 23004KT 9999 SCT020 SCT100 23/21 A2994=
201209191400 METAR MRLM 191400Z 20004KT 9999 FEW025 BKN120 28/23 A2996=
201209191500 METAR MRLM 191500Z 09004KT 9999 FEW025 SCT120 29/24 A2996=
201209191600 METAR MRLM 191600Z 04004KT 9999 FEW025 29/24 A2994=
201209191700 METAR MRLM 191700Z 05007KT 9999 FEW025 29/24 A2991=
201209191800 METAR MRLM 191800Z 05010KT 9999 FEW030 29/23 A2988=
201209191900 METAR MRLM 191900Z 04010KT 9999 FEW030 30/24 A2985=
201209192000 METAR MRLM 192000Z 04009KT 9999 FEW028 30/24 A2982=
201209192100 METAR MRLM 192100Z 05007KT 9999 FEW030 30/24 A2982=
201209192200 METAR MRLM NIL=
201209192300 METAR MRLM NIL=
201209200000 METAR MRLM NIL=
201209200100 METAR MRLM NIL=
201209200200 METAR MRLM NIL=
201209200300 METAR MRLM NIL=
201209200400 METAR MRLM NIL=
201209200500 METAR MRLM NIL=
201209200600 METAR MRLM NIL=
201209200700 METAR MRLM NIL=
201209200800 METAR MRLM NIL=
201209200900 METAR MRLM NIL=
201209201000 METAR MRLM NIL=
201209201100 METAR MRLM NIL=
201209201200 METAR MRLM NIL=
201209201300 METAR MRLM 201300Z 24004KT CAVOK 27/23 A2987=
201209201400 METAR MRLM 201400Z 06002KT CAVOK 30/23 A2988=
201209201500 METAR MRLM 201500Z 05003KT CAVOK 29/23 A2987=
201209201600 METAR MRLM 201600Z 02007KT 9999 FEW030 30/24 A2987=
201209201700 METAR MRLM 201700Z 03007KT 9999 FEW030 30/24 A2985=
201209201800 METAR MRLM 201800Z 03006KT 9999 FEW035 30/23 A2980=
201209201900 METAR MRLM 201900Z 02009KT 9999 FEW030 SCT280 30/24 A2977=
201209202000 METAR MRLM 202000Z 01008KT 9999 FEW030 BKN280 30/24 A2976=
201209202100 METAR MRLM 202100Z 02007KT 9999 FEW030 BKN280 30/24 A2976=
201209202200 METAR MRLM NIL=
201209202300 METAR MRLM NIL=
201209210000 METAR MRLM NIL=
201209210100 METAR MRLM NIL=
201209210200 METAR MRLM NIL=
201209210300 METAR MRLM NIL=
201209210400 METAR MRLM NIL=
201209210500 METAR MRLM NIL=
201209210600 METAR MRLM NIL=
201209210700 METAR MRLM NIL=
201209210800 METAR MRLM NIL=
201209210900 METAR MRLM NIL=
201209211000 METAR MRLM NIL=
201209211100 METAR MRLM NIL=
201209211200 METAR MRLM NIL=
201209211300 METAR MRLM 211300Z 22005KT CAVOK 26/22 A2982=
201209211400 METAR MRLM 211400Z 00000KT CAVOK 30/23 A2983=
201209211500 METAR MRLM 211500Z 29003KT 9999 FEW035 SCT130 SCT270 31/23 A2982=
201209211600 METAR MRLM 211600Z 03004KT 9999 FEW040 BKN270 32/24 A2982=
201209211700 METAR MRLM 211700Z 01010KT 9999 FEW035 BKN270 31/24 A2981 TSTM DST E=
201209211800 METAR MRLM 211800Z 02013KT 9999 FEW025 SCT140 SCT270 30/25 A2980=
201209211900 METAR MRLM 211900Z 04016KT 9999 BKN020 28/24 A2979=
201209212000 METAR MRLM 212000Z 08010KT 9999 SCT027 SCT100 28/23 A2975=
201209212100 METAR MRLM 212100Z 12010KT 9999 BKN020 SCT150 27/23 A2976=
201209212200 METAR MRLM NIL=
201209212300 METAR MRLM NIL=
201209220000 METAR MRLM NIL=
201209220100 METAR MRLM NIL=
201209220200 METAR MRLM NIL=
201209220300 METAR MRLM NIL=
201209220400 METAR MRLM NIL=
201209220500 METAR MRLM NIL=
201209220600 METAR MRLM NIL=
201209220700 METAR MRLM NIL=
201209220800 METAR MRLM NIL=
201209220900 METAR MRLM NIL=
201209221000 METAR MRLM NIL=
201209221100 METAR MRLM NIL=
201209221200 METAR MRLM NIL=
201209221300 METAR MRLM 221300Z 32002KT CAVOK 25/21 A2985=
201209221400 METAR MRLM 221400Z 23002KT CAVOK 27/22 2987=
201209221500 METAR MRLM 221500Z 08003KT CAVOK 28/22 A2988=
201209221600 METAR MRLM 221600Z 04004KT 9999 BKN025 SCT080 28/23 A2988=
201209221700 METAR MRLM 221700Z 08003KT 9999 FEW035 SCT090 SCT270 29/22 A2984=
201209221800 METAR MRLM 221800Z 02005KT 9999 FEW035 BKN150 29/22 A2983=
201209221900 METAR MRLM 221900Z 01005KT 9999 FEW030 SCT090 SCT250 29/22 A2982=
201209222000 METAR MRLM 222000Z 05003KT CAVOK 29/23 A2980=
201209222100 METAR MRLM 222100Z 04005KT 9999 FEW028 SCT120 SCT260 29/23 A2979=
201209222200 METAR MRLM NIL=
201209222300 METAR MRLM NIL=
201209230000 METAR MRLM NIL=
201209230100 METAR MRLM NIL=
201209230200 METAR MRLM NIL=
201209230300 METAR MRLM NIL=
201209230400 METAR MRLM NIL=
201209230500 METAR MRLM NIL=
201209230600 METAR MRLM NIL=
201209230700 METAR MRLM NIL=
201209230800 METAR MRLM NIL=
201209230900 METAR MRLM NIL=
201209231000 METAR MRLM NIL=
201209231100 METAR MRLM NIL=
201209231200 METAR MRLM NIL=
201209231300 METAR MRLM NIL=
201209231400 METAR MRLM 231400Z 28005KT 9999 FEW025 BKN080 28/25 A2991=
201209231500 METAR MRLM 231500Z 26004KT 9999 FEW025 SCT140 SCT270 29/24 A2990=
201209231600 METAR MRLM 231600Z 07005KT 9999 FEW030 SCT140 SCT270 30/24 A2989=
201209231700 METAR MRLM 231700Z 03008KT 9999 FEW030 SCT270 30/24 A2989=
201209231800 METAR MRLM 231800Z 03006KT 9999 FEW025 BKN270 30/24 A2987=
201209231900 METAR MRLM 231900Z 02009KT 9999 FEW025 BKN270 30/25 A2984=
201209232000 METAR MRLM 232000Z 01008KT 9999 FEW025 BKN270 30/25 A2982=
201209232100 METAR MRLM 232100Z 36007KT 9999 BKN025 30/24 A2982=
201209232200 METAR MRLM NIL=
201209232300 METAR MRLM NIL=
201209240000 METAR MRLM NIL=
201209240100 METAR MRLM NIL=
201209240200 METAR MRLM NIL=
201209240300 METAR MRLM NIL=
201209240400 METAR MRLM NIL=
201209240500 METAR MRLM NIL=
201209240600 METAR MRLM NIL=
201209240700 METAR MRLM NIL=
201209240800 METAR MRLM NIL=
201209240900 METAR MRLM NIL=
201209241000 METAR MRLM NIL=
201209241100 METAR MRLM NIL=
201209241200 METAR MRLM NIL=
201209241300 METAR MRLM 22003KT 9999 FEW035 SCT140 SCT250 24/22 A2988=
201209241302 METAR MRLM 241302Z 22003KT 9999 FEW035 SCT140 SCT250 24/22 A2988=
201209241400 METAR MRLM 241400Z 24003KT 9999 DZ FEW035 SCT140 SCT250 25/23 A2988=
201209241500 METAR MRLM 241500Z 30002KT 9999 SCT025 SCT090 27/23 A2991 REDZ=
201209241600 METAR MRLM 241600Z 31009KT 9999 FEW030 SCT260 30/24 A2990=
201209241700 METAR MRLM 241700Z 32006KT 9999 VCSH FEW025 SCT035 31/24 A2988=
201209241800 METAR MRLM 241800Z 02016KT 9999 RA BKN015 SCT090 25/22 A2987 REDZ=
201209241900 METAR MRLM 241900Z 07012KT 9999 +DZ SCT010 SCT090 26/24 A2986 RERA=
201209242000 METAR MRLM 242000Z 26003KT 9999 +DZ VCSH OVC008 25/23 A2985=
201209242100 METAR MRLM NIL=
201209242200 METAR MRLM NIL=
201209242300 METAR MRLM NIL=
201209250000 METAR MRLM NIL=
201209250100 METAR MRLM NIL=
201209250200 METAR MRLM NIL=
201209250300 METAR MRLM NIL=
201209250400 METAR MRLM NIL=
201209250500 METAR MRLM NIL=
201209250600 METAR MRLM NIL=
201209250700 METAR MRLM NIL=
201209250800 METAR MRLM NIL=
201209250900 METAR MRLM NIL=
201209251000 METAR MRLM NIL=
201209251100 METAR MRLM NIL=
201209251200 METAR MRLM NIL=
201209251300 METAR MRLM 251300Z 31002KT CAVOK 25/23 A2988=
201209251400 METAR MRLM 251400Z 27003KT CAVOK 26/23 A2989=
201209251500 METAR MRLM 251500Z 04004KT 9999 FEW025 BKN270 28/23 A2990=
201209251600 METAR MRLM 251600Z 35010KT 9999 FEW025 SCT270 30/22 A////=
201209251700 METAR MRLM 251700Z 02012KT 9999 FEW035 BKN090 28/25 A2989=
201209251800 METAR MRLM 251800Z 36007KT 9999 FEW030 BKN090 28/22 A2988=
201209251900 METAR MRLM 251900Z 02008KT 9999 FEW020 BKN270 28/24 A2983=
201209252000 METAR MRLM 252000Z 01006KT 9999 FEW028 BKN260 29/24 A2980=
201209252100 METAR MRLM 252100Z 36007KT 9999 FEW025 SCT260 28/23 A2979=
201209252200 METAR MRLM NIL=
201209252300 METAR MRLM NIL=
201209260000 METAR MRLM NIL=
201209260100 METAR MRLM NIL=
201209260200 METAR MRLM NIL=
201209260300 METAR MRLM NIL=
201209260400 METAR MRLM NIL=
201209260500 METAR MRLM NIL=
201209260600 METAR MRLM NIL=
201209260700 METAR MRLM NIL=
201209260800 METAR MRLM NIL=
201209260900 METAR MRLM NIL=
201209261000 METAR MRLM NIL=
201209261100 METAR MRLM NIL=
201209261200 METAR MRLM NIL=
201209261300 METAR MRLM 261300Z 25002KT 9999 FEW015 SCT080 SCT150 23/22 A2989=
201209261400 METAR MRLM 261400Z 24004KT 9999 FEW010 BKN090 24/23 A2991=
201209261500 METAR MRLM 261500Z 30004KT CAVOK 27/23 A2990=
201209261600 METAR MRLM 261600Z 31005KT 9999 FEW025 BKN270 29/24 A2988=
201209261700 METAR MRLM 261700Z 26009KT 9999 FEW035 BKN270 30/23 A2987=
201209261800 METAR MRLM 261800Z 03005KT 9999 FEW028 BKN270 29/24 A2985=
201209261900 METAR MRLM 261900Z 02008KT 9999 FEW030 BKN270 30/24 A2981=
201209262000 METAR MRLM 262000Z 01008KT 9999 FEW030 BKN270 30/24 A2979=
201209262100 METAR MRLM 262100Z 36006KT 9999 FEW030 SCT270 30/24 A2978=
201209262200 METAR MRLM NIL=
201209262300 METAR MRLM NIL=
201209270000 METAR MRLM NIL=
201209270100 METAR MRLM NIL=
201209270200 METAR MRLM NIL=
201209270300 METAR MRLM NIL=
201209270400 METAR MRLM NIL=
201209270500 METAR MRLM NIL=
201209270600 METAR MRLM NIL=
201209270700 METAR MRLM NIL=
201209270800 METAR MRLM NIL=
201209270900 METAR MRLM NIL=
201209271000 METAR MRLM NIL=
201209271100 METAR MRLM NIL=
201209271200 METAR MRLM 271200Z 26002KT CAVOK 24/22 A2986=
201209271300 METAR MRLM 271300Z 22004KT CAVOK 26/23 A2988=
201209271400 METAR MRLM 271400Z 23003KT 9999 FEW030 29/24 A2987=
201209271500 METAR MRLM 271500Z 05006KT 9999 FEW025 29/24 A2988=
201209271600 METAR MRLM 271600Z 04007KT 9999 FEW030 SCT260 30/24 A2990=
201209271700 METAR MRLM 271700Z 04006KT 9999 FEW030 30/24 A2987=
201209271800 METAR MRLM 271800Z 02008KT 9999 FEW030 30/25 A2985=
201209271900 METAR MRLM 271900Z 03008KT 9999 FEW030 SCT260 31/25 A2982=
201209272000 METAR MRLM 272000Z 02005KT 9999 FEW025 SCT250 29/24 A2978=
201209272100 METAR MRLM 272100Z 01005KT 9999 SCT025 SCT250 29/24 A2978=
201209272200 METAR MRLM 272200Z 36005KT 9999 SCT020 SCT250 29/24 A2980=
201209272300 METAR MRLM 272300Z 36005KT 9999 BKN020 29/25 A2982=
201209280000 METAR MRLM 280000Z 01004KT 9999 SCT020 28/24 A2984=
201209280100 METAR MRLM NIL=
201209280200 METAR MRLM NIL=
201209280300 METAR MRLM NIL=
201209280400 METAR MRLM NIL=
201209280500 METAR MRLM NIL=
201209280600 METAR MRLM NIL=
201209280700 METAR MRLM NIL=
201209280800 METAR MRLM NIL=
201209280900 METAR MRLM NIL=
201209281000 METAR MRLM NIL=
201209281100 METAR MRLM NIL=
201209281200 METAR MRLM 281200Z 25003KT 9999 SCT010 SCT110 23/22 A2984=
201209281300 METAR MRLM 281300Z 27004KT 9999 SCT015 BKN120 26/23 A2987=
201209281400 METAR MRLM 281400Z 30007KT 9999 FEW025 SCT130 28/22 A2987=
201209281500 METAR MRLM 281500Z 30006KT 9999 FEW025 SCT130 28/23 A2987=
201209281600 METAR MRLM 281600Z 35007KT 9999 FEW030 SCT130 30/24 A2988=
201209281700 METAR MRLM 281700Z 36009KT 9999 SCT030 SCT130 30/24 A2986=
201209281800 METAR MRLM 281800Z 01009KT 9999 FEW025 SCT130 29/24 A2984=
201209281900 METAR MRLM 281900Z 01011KT 9999 FEW025 BKN140 30/24 A2981=
201209282000 METAR MRLM 282000Z 01008KT 9999 FEW025 SCT140 29/24 A2979=
201209282100 METAR MRLM 282100Z 36007KT 9999 BKN020 29/24 A2978=
201209282200 METAR MRLM 282200Z 34007KT 9999 BKN020 28/24 A2978=
201209282300 METAR MRLM 282300Z 26005KT 9999 BKN015 26/24 A2980=
201209290000 METAR MRLM 290000Z 24004KT 9999 SCT010 BKN110 25/24 A2982=
201209290100 METAR MRLM NIL=
201209290200 METAR MRLM NIL=
201209290300 METAR MRLM NIL=
201209290400 METAR MRLM NIL=
201209290500 METAR MRLM NIL=
201209290600 METAR MRLM NIL=
201209290700 METAR MRLM NIL=
201209290800 METAR MRLM NIL=
201209290900 METAR MRLM NIL=
201209291000 METAR MRLM NIL=
201209291100 METAR MRLM NIL=
201209291200 METAR MRLM NIL=
201209291300 METAR MRLM 291300Z 26002KT 9999 FEW015 BKN270 26/23 A2985=
201209291400 METAR MRLM NIL=
201209291500 METAR MRLM 291500Z 29005KT 9999 SCT025 SCT280 29/24 A2988=
201209291600 METAR MRLM 291600Z 35006KT 9999 SCT032 SCT270 30/24 A2988=
201209291700 METAR COR MRLM 291700Z 01008KT 9999 SCT035 SCT240 31/24 A2985=
201209291800 METAR MRLM 291800Z 02011KT 9999 SCT028 SCT140 30/25 A2983=
201209291900 METAR MRLM 291900Z 02008KT 9999 VCTS VCSH FEWO15CB SCT025 SCT140 29/24 A2979=
201209292000 METAR MRLM 292000Z 03003KT 9999 BKN023 28/24 A2977 RETS=
201209292100 METAR MRLM 292100Z 20004KT 9999 DZ SCT015 SCT140 27/24 A2976=
201209292200 METAR MRLM 292200Z 22003KT 9999 SCGT015 SCT090 27/24 A2976 REDZ=
201209292300 METAR MRLM 292300Z 22003KT 9999 FEW015 SCT090 27/24 A2976=
201209300000 METAR MRLM 300000Z 32002KT 9999 DZ OVC140 26/24 A2977=
201209300100 METAR MRLM NIL=
201209300200 METAR MRLM NIL=
201209300300 METAR MRLM NIL=
201209300400 METAR MRLM NIL=
201209300500 METAR MRLM NIL=
201209300600 METAR MRLM NIL=
201209300700 METAR MRLM NIL=
201209300800 METAR MRLM NIL=
201209300900 METAR MRLM NIL=
201209301000 METAR MRLM NIL=
201209301100 METAR MRLM NIL=
201209301200 METAR MRLM 301200Z 25002KT CAVOK 24/22 A2981 BKN140 TCU DST NE HZ ARND=
201209301300 METAR MRLM NIL=
201209301400 METAR MRLM 301400Z 10002KT CAVOK 30/23 A2984=
201209301500 METAR MRLM 301500Z 10003KT CAVOK 29/23 A2985=
201209301600 METAR MRLM 301600Z 07003KT 9999 FEW035 BKN090 29/22 A2985=
201209301700 METAR MRLM 301700Z 08005KT 9999 FEW035 BKN090 30/23 A2982=
201209301800 METAR MRLM 301800Z 11007KT 9999 FEW035 BKN090 30/23 A2980=
201209301900 METAR MRLM 301900Z 10007KT 9999 FEW038 BKN120 31/23 A2977 FEW270 TCU DST SE SW W RN DST SW HZ LGT ARND=
201209302000 METAR MRLM NIL=
201209302100 METAR MRLM 302100Z 10006KT 9999 FEW030 BKN080 29/23 A2974=
201209302200 METAR MRLM 30220Z 08005KT 9999 FEW025 BKN080 29/24 A2975=
201209302300 METAR MRLM 302300Z 09005KT 9999 FEW035 BKN080 29/23 A2976=
201210010000 METAR MRLM 010000Z 20004KT 9999 RA SCT012 BKN080 27/24 A2979=
201210010100 METAR MRLM NIL=
201210010200 METAR MRLM NIL=
201210010300 METAR MRLM NIL=
201210010400 METAR MRLM NIL=
201210010500 METAR MRLM NIL=
201210010600 METAR MRLM NIL=
201210010700 METAR MRLM NIL=
201210010800 METAR MRLM NIL=
201210010900 METAR MRLM NIL=
201210011000 METAR MRLM NIL=
201210011100 METAR MRLM NIL=
201210011200 METAR MRLM 011200Z 21004KT 9999 FEW010 SCT110 23/22 A2982=
201210011300 METAR MRLM 011300Z 20002KT 9999 FEW020 SCT130 26/23 A2983=
201210011400 METAR MRLM 011400Z 07004KT CAVOK 28/23 A2985=
201210011500 METAR MRLM 011500Z 11008KT CAVOK 30/23 A2987=
201210011600 METAR MRLM 011600Z 11008KT 9999 FEW035 BKN140 30/23 A2987=
201210011700 METAR MRLM 011700Z 09007KT 9999 FEW035 BKN130 30/23 A2985=
201210011800 METAR MRLM 011800Z 08008KT 9999 FEW035 SCT130 31/24 A2981=
201210011900 METAR MRLM 011900Z 07010KT 9999 FEW030 BKN120 30/24 A2980=
201210012000 METAR MRLM 012000Z 08008KT 9999 FEW030 BKN120 30/23 A2978=
201210012100 METAR MRLM 012100Z 13005KT 9999 FEW030 BKN120 29/23 A2977=
201210012200 METAR MRLM 012200Z 19002KT 9999 FEW025 BKN110 28/24 A2975=
201210012300 METAR MRLM 012300Z 17003KT 9999 -DZ FEW015 BKN110 27/24 A2975=
201210020000 METAR MRLM 020000Z 00000KT 9999 -DZ FEW010 SCT120 26/24 A2975=
201210020100 METAR MRLM NIL=
201210020200 METAR MRLM NIL=
201210020300 METAR MRLM NIL=
201210020400 METAR MRLM NIL=
201210020500 METAR MRLM NIL=
201210020600 METAR MRLM NIL=
201210020700 METAR MRLM NIL=
201210020800 METAR MRLM NIL=
201210020900 METAR MRLM NIL=
201210021000 METAR MRLM NIL=
201210021100 METAR MRLM NIL=
201210021200 METAR MRLM 021200Z 24003KT 9999 FEW010 SCT110 24/22 A2986=
201210021300 METAR MRLM 021300Z 24005KT 9999 FEW020 BKN250 26/23 A2988=
201210021400 METAR MRLM 021400Z 00000KT 9999 FEW030 BKN120 30/24 A2991=
201210021500 METAR MRLM 021500Z 08004KT 9999 SCT025 BKN120 28/24 A2992=
201210021600 METAR MRLM 021600Z 09004KT 9999 FEW030 BKN260 30/25 A2991=
201210021700 METAR MRLM 021700Z 09007KT 9999 FEW030 BKN260 30/25 A2989=
201210021800 METAR MRLM 021800Z 11009KT 9999 SCT020 BKN120 29/25 A2988=
201210021900 METAR MRLM 021900Z 11011KT 9999 FEW025 SCT130 30/25 A2985=
201210022000 METAR MRLM 022000Z 12014KT 9999 FEW030 SCT130 30/23 A2984=
201210022100 METAR MRLM 022100Z 16004KT 9999 FEW035 SCT130 30/23 A2980=
201210022200 METAR MRLM 022200Z 00000KT CAVOK 30/23 A2976=
201210022300 METAR MRLM 022300Z 06009KT CAVOK 29/24 A2978=
201210030000 METAR MRLM 030000Z 06011KT 9999 FEW025 SCT120 28/24 A2981=
201210030100 METAR MRLM NIL=
201210030200 METAR MRLM NIL=
201210030300 METAR MRLM NIL=
201210030400 METAR MRLM NIL=
201210030500 METAR MRLM NIL=
201210030600 METAR MRLM NIL=
201210030700 METAR MRLM NIL=
201210030800 METAR MRLM NIL=
201210030900 METAR MRLM NIL=
201210031000 METAR MRLM NIL=
201210031100 METAR MRLM NIL=
201210031200 METAR MRLM 031200Z 25005KT CAVOK 24/22 A2987=
201210031300 METAR MRLM 031300Z 23004KT CAVOK 26/23 A2987=
201210031400 METAR MRLM 031400Z 29003KT CAVOK 30/23 A2988=
201210031500 METAR MRLM 031500Z 03006KT CAVOK 31/23 A2991=
201210031600 METAR MRLM 031600Z 04004KT 9999 FEW025 BKN035 29/23 A2991=
201210031700 METAR MRLM 031700Z 07007KT 9999 FEW015 BKN025 29/23 A2990=
201210031800 METAR MRLM 031800Z 05012KT 9999 RA BKN020 SCT140 26/22 A2991=
201210031900 METAR MRLM 031900Z 25003KT 9999 DZ SCT020 SCT130 26/24 A2987 RERA=
201210032000 METAR MRLM 032000Z 24004KT CAVOK 26/24 A2980 REDZ=
201210032100 METAR MRLM 032100Z 03010KT 9999 SCT020 BKN150 28/24 A28/24 A2982=
201210032200 METAR COR MRLM 032200Z 07008KT 9999 FEW018 BKN150 27/24 A2984=
201210032300 METAR MRLM 032300Z 28002KT 9999 FEW015 SCT025 SCT150 27/24 A2985=
201210040000 METAR MRLM 040000Z 23003KT 9999 FEW010 SCT025 SCT150 26/24 A2986=
201210040100 METAR MRLM NIL=
201210040200 METAR MRLM NIL=
201210040300 METAR MRLM NIL=
201210040400 METAR MRLM NIL=
201210040500 METAR MRLM NIL=
201210040600 METAR MRLM NIL=
201210040700 METAR MRLM NIL=
201210040800 METAR MRLM NIL=
201210040900 METAR MRLM NIL=
201210041000 METAR MRLM NIL=
201210041100 METAR MRLM NIL=
201210041200 METAR MRLM 041200Z 00000KT 9999 TS BKN015 SCT025 23/22 A2992=
201210041300 METAR MRLM 041300Z 06012KT 9999 DZ VCSH BKN015 26/23 A2997=
201210041400 METAR MRLM 041400Z 08011KT 9999 RA SCT008 SCT020 25/23 A3000=
201210041500 METAR MRLM 041500Z 17006KT 9999 DZ VCSH FEW006 SCT015 SCT100 23/21 A3003 RERA=
201210041600 METAR MRLM 041600Z 22006KT 9999 DZ SCT035 SCT090 23/21 A3003=
201210041700 METAR MRLM 041700Z 10004KT 9999 FEW030 BKN090 25/22 A2996=
201210041800 METAR MRLM 041800Z 00000KT 9999 FEW030 BKN090 28/22 A2989=
201210041900 METAR MRLM 041900Z 03006KT 9999 FEW025 BKN090 27/23 A2985=
201210042000 METAR MRLM 042000Z 13007KT 9999 FEW035 BKN090 29/22 A2982=
201210042100 METAR MRLM 042100Z 22003KT 9999 FEW030 BKN020 29/23 A2982=
201210042200 METAR MRLM 042200Z 17003KT 9999 FEW025 BKN090 28/24 A2984=
201210042300 METAR MRLM 042300Z 18003KT 9999 FEW020 BKN080 27/23 A2985=
201210050000 METAR MRLM 050000Z 00000KT 9999 FEW025 BKN080 25/24 A2998=
201210050100 METAR MRLM NIL=
201210050200 METAR MRLM NIL=
201210050300 METAR MRLM NIL=
201210050400 METAR MRLM NIL=
201210050500 METAR MRLM NIL=
201210050600 METAR MRLM NIL=
201210050700 METAR MRLM NIL=
201210050800 METAR MRLM NIL=
201210050900 METAR MRLM NIL=
201210051000 METAR MRLM NIL=
201210051100 METAR MRLM NIL=
201210051200 METAR MRLM 051200Z 00000KT 9999 SCT010 SCT100 23/21 A2987=
201210051300 METAR MRLM 051300Z 24005KT 9999 DZ SCT010 SCT100 24/22 A2989=
201210051400 METAR MRLM 051400Z 29003KT 9999 SCT015 SCT110 25/22 A2990 REDZ=
201210051500 METAR MRLM 051500Z 22003KT 9999 SCT025 SCT120 28/23 A2990=
201210051600 METAR MRLM 051600Z 12008KT 9999 3000N +RA BKN015 SCT110 26/23 A2992=
201210051700 METAR MRLM 051700Z 09006KT 6000 3000N +RA BKN007 24/23 A2995=
201210051800 METAR MRLM 051800Z 14005KT 8000 RA VCSH FEW007 BKN010 24/23 A2993=
201210051900 METAR MRLM 051900Z 22006KT 9999 -DZ FEW007 SCT015 SCT100 24/23 A2988 RERA=
201210052000 METAR MRLM 052000Z 22007KT 9999 FEW020 BKN120 26/22 A2984=
201210052100 METAR MRLM 052100Z 00000KT CAVOK 27/23 A2982=
201210052200 METAR MRLM 052200Z 30002KT CAVOK 26/23 A2982=
201210052300 METAR MRLM 052300Z 00000KT CAVOK 26/23 A2983=
201210060000 METAR MRLM 060000Z 00000KT CAVOK 24/23 A2983=
201210060100 METAR MRLM NIL=
201210060200 METAR MRLM NIL=
201210060300 METAR MRLM NIL=
201210060400 METAR MRLM NIL=
201210060500 METAR MRLM NIL=
201210060600 METAR MRLM NIL=
201210060700 METAR MRLM NIL=
201210060800 METAR MRLM NIL=
201210060900 METAR MRLM NIL=
201210061000 METAR MRLM NIL=
201210061100 METAR MRLM NIL=
201210061200 METAR MRLM 061200Z 24005KT CAVOK 21/19 A2985=
201210061300 METAR MRLM 061300Z 23004KT CAVOK 24/21 A2986=
201210061400 METAR MRLM 061400Z 26005KT CAVOK 28/21 A2985=
201210061500 METAR MRLM 061500Z 01004KT 9999 FEW035 SCT130 29/21 A2986=
201210061600 METAR MRLM 061600Z 31005KT 9999 FEW040 BKN260 31/21 A2986=
201210061700 METAR MRLM 061700Z 36010KT 9999 FEW040 SCT130 30/23 A2984=
201210061800 METAR MRLM 061800Z 35012KT 9999 FEW030 BKN130 30/23 A2982=
201210061900 METAR MRLM 061900Z 35011KT 9999 FEW030 SCT140 30/23 A2979=
201210062000 METAR MRLM 062000Z 36010KT 9999 SCT025 SCT140 A2977=
201210062100 METAR MRLM 062100Z 36009KT 9999 FEW025 BKN130 29/24 A2977=
201210062200 METAR MRLM 062200Z 36007KT 9999 SCT025 SCT120 28/23 A2977=
201210062300 METAR MRLM 062300Z 27003KT 9999 SCT020 SCT120 27/23 A2978=
201210070000 METAR MRLM 070000Z 00000KT 9999 FEW015 SCT120 25/23 A2979=
201210070100 METAR MRLM NIL=
201210070200 METAR MRLM NIL=
201210070300 METAR MRLM NIL=
201210070400 METAR MRLM NIL=
201210070500 METAR MRLM NIL=
201210070600 METAR MRLM NIL=
201210070700 METAR MRLM NIL=
201210070800 METAR MRLM NIL=
201210070900 METAR MRLM NIL=
201210071000 METAR MRLM NIL=
201210071100 METAR MRLM NIL=
201210071200 METAR MRLM NIL=
201210071220 METAR MRLM 071220Z 25005KT 9999 FEW025 BKN090 22/21 A2981=
201210071300 METAR MRLM 071300Z 22005KT 9999 FEW025 BKN080 23/21 A2984=
201210071400 METAR MRLM 071400Z 25004KT 9999 FEW028 BKN080 28/23 A2986=
201210071500 METAR MRLM 071500Z 02003KT 9999 FEW035 SCT090 30/23 A2987=
201210071600 METAR MRLM 071600Z 03006KT 9999 FEW035 SCT270 30/23 A2985=
201210071700 METAR MRLM 071700Z 01011KT 9999 FEW030 SCT100 BKN270 30/24 A2984=
201210071800 METAR MRLM 071800Z 04019KT 9999 VCSH FEW020 BKN090 27/24 A2985=
201210071900 METAR MRLM 071900Z 35006KT 9999 FEW025 BKN080 28/23 A2981=
201210072000 METAR MRLM NIL=
201210072100 METAR MRLM 072100Z 31004KT 9999 FEW035 SCT130 SCT20 30/23 A2976=
201210072200 METAR MRLM 072200Z 32003KT 9999 FEW035 SCT130 SCT270 29/22 A2977=
201210072300 METAR MRLM 072300Z 34003KT CAVOK 28/22 A2978=
201210080000 METAR MRLM 080000Z 31003KT CAVOK 26/23 A2980=
201210080100 METAR MRLM NIL=
201210080200 METAR MRLM NIL=
201210080300 METAR MRLM NIL=
201210080400 METAR MRLM NIL=
201210080500 METAR MRLM NIL=
201210080600 METAR MRLM NIL=
201210080700 METAR MRLM NIL=
201210080800 METAR MRLM NIL=
201210080900 METAR MRLM NIL=
201210081000 METAR MRLM NIL=
201210081100 METAR MRLM NIL=
201210081200 METAR MRLM NIL=
201210081300 METAR MRLM 081300Z 32002KT 9999 BKN015 24/22 A2987=
201210081400 METAR MRLM 081400Z 24003KT 9999 OVC015 26/23 A2990=
201210081500 METAR MRLM 081500Z 32010KT 9999 OVC020 27/23 A2990=
201210081600 METAR MRLM 081600Z 32009KT 9999 BKN020 27/23 A2989=
201210081700 METAR MRLM 081700Z 32011KT 9999 BKN020 27/23 A2987=
201210081800 METAR MRLM 081800Z 32012KT 9999 BKN020 27/23 A2985=
201210081900 METAR MRLM 081900Z 32013KT 9999 OVC022 28/23 A2983=
201210082000 METAR MRLM 082000Z 32012KT 9999 BKN028 29/23 A2981=
201210082100 METAR MRLM 082100Z 32011KT 9999 SCT020 SCT090 27/23 A29979=
201210082200 METAR MRLM 082200Z 29007KT 9999 /DZVCSH SCT015 BKN090 26/23 A2982=
201210082300 METAR MRLM 082300Z 29004KT 8000 RA FEW010 SCT020 BKN090 25/23 A2984=
201210082359 METAR MRLM 090000Z 24003KT 8000 +DZ SCT010 SCT090 24/23 A2986 RERA=
201210090000 METAR MRLM 090000Z 24003KT 8000 +DZ SCT010 SCT090 24/23 A2986 RERA=
201210090100 METAR MRLM NIL=
201210090200 METAR MRLM NIL=
201210090300 METAR MRLM NIL=
201210090400 METAR MRLM NIL=
201210090500 METAR MRLM NIL=
201210090600 METAR MRLM NIL=
201210090700 METAR MRLM NIL=
201210090800 METAR MRLM NIL=
201210090900 METAR MRLM NIL=
201210091000 METAR MRLM NIL=
201210091100 METAR MRLM NIL=
201210091200 METAR MRLM 091200Z 23002KT CAVOK 23/22 A2989=
201210091300 METAR MRLM 091300Z 21003KT CAVOK 24/22 A2991=
201210091400 METAR MRLM 091400Z 26003KT 9999 FEW015 BKN110 26/23 A2993=
201210091500 METAR MRLM 091500Z 00000KT 9999 FEW025 BKN120 28/23 A2992=
201210091600 METAR MRLM 091600Z 00000KT 9999 FEW030 BKN120 29/23 A2991=
201210091700 METAR MRLM 091700Z 03005KT 9999 FEW030 BKN130 30/23 A2987=
201210091800 METAR MRLM 091800Z 36011KT 9999 FEW030 BKN130 30/24 A2986=
201210091900 METAR MRLM 091900Z 35012KT 9999 FEW030 BKN140 30/24 A2984=
201210092000 METAR MRLM 092000Z 35011KT 9999 SCT025 SCT140 29/24 A2983=
201210092100 METAR MRLM 092100Z 36009KT 9999 SCT020 28/24 A2982=
201210092200 METAR MRLM 092200Z 34005KT 9999 SCT020 28/24 A2982=
201210092300 METAR MRLM 092300Z 24003KT 9999 BKN015 27/24 A2984=
201210100000 METAR MRLM 100000Z 23004KT 9999 SCT010 SCT120 25/23 A2987=
201210100100 METAR MRLM NIL=
201210100200 METAR MRLM NIL=
201210100300 METAR MRLM NIL=
201210100400 METAR MRLM NIL=
201210100500 METAR MRLM NIL=
201210100600 METAR MRLM NIL=
201210100700 METAR MRLM NIL=
201210100800 METAR MRLM NIL=
201210100900 METAR MRLM NIL=
201210101000 METAR MRLM NIL=
201210101100 METAR MRLM NIL=
201210101200 METAR MRLM 101200Z 23004KT 9999 -DZ SCT010 BKN110 23/22 A2988=
201210101300 METAR MRLM 101300Z 00000KT 9999 SCT010 BKN120 24/22 A2991=
201210101400 METAR MRLM 101400Z 21003KT 9999 SCT010 BKN120 25/23 A2994=
201210101500 METAR MRLM 101500Z 00000KT 9999 DZ SCT010 BKN110 26/24 A2994=
201210101600 METAR MRLM 101600Z 00000KT 9999 DZ FEW007 BKN110 25/24 A2995=
201210101700 METAR MRLM 101700Z 29003KT 9999 FEW010 SCT120 26/24 A2992 REDZ=
201210101800 METAR MRLM 101800Z 30005KT 9999 FEW020 BKN130 27/24 A2989=
201210101900 METAR MRLM 101900Z 31004KT 9999 FEW025 BKN130 29/23 A2986=
201210102000 METAR MRLM 102000Z 36006KT 9999 FEW020 SCT140 28/24 A2983=
201210102100 METAR MRLM 102100Z 30006KT 9999 FEW025 BKN260 29/24 A2982=
201210102200 METAR MRLM 102200Z 32005KT 9999 FEW020 SCT130 28/24 A2982=
201210102300 METAR MRLM 102300Z 34007KT 9999 FEW020 BKN120 27/24 A2984=
201210110000 METAR MRLM 110000Z 00000KT 9999 FEW010 BKN120 26/24 A2986=
201210110100 METAR MRLM NIL=
201210110200 METAR MRLM NIL=
201210110300 METAR MRLM NIL=
201210110400 METAR MRLM NIL=
201210110500 METAR MRLM NIL=
201210110600 METAR MRLM NIL=
201210110700 METAR MRLM NIL=
201210110800 METAR MRLM NIL=
201210110900 METAR MRLM NIL=
201210111000 METAR MRLM NIL=
201210111100 METAR MRLM NIL=
201210111200 METAR MRLM 111200Z 24003KT 9999 VCTS BKN025 23/22 A2990=
201210111300 METAR MRLM 111300Z 23004KT 9999 SCT025 SCT150 24/22 A2991 RETS=
201210111400 METAR MRLM 111400Z 28002KT 9999 OVC025 26/22 A2993=
201210111500 METAR MRLM 111500Z 21003KT 9999 +DZ SCT015 BKN100 26/23 A2996=
201210111600 METAR MRLM 111600Z 20002KT 9999 DZ FEW090 BKN150 26/24 A2982 RERA=
201210111700 METAR MRLM 111700Z 25002KT 9999 VCTS FEW010CB FEW025 BKN140 26/24 A2991 REDZ=
201210111800 METAR MRLM 111800Z 00000KT 9999 +DZ VCTS FEW010CB FEW020 BKN120 27/24 2991=
201210111900 METAR MRLM 111900Z 26002KT 9999 DZ FEW090 BKN130 27/25 A2987RETS=
201210112000 METAR MRLM 112000Z 01004KT 9999 FEW018 SCT090 SCT250 29/24 A2985 REDZ=
201210112100 METAR MRLM 112100Z 07003KT 9999 FEW022 BKN090 28/24 A2982=
201210112200 METAR MRLM 112200Z 02006KT 9999 FEW023 BKN090 28/23 A2984=
201210112300 METAR MRLM 112300Z 35004KT 9999 FEW020 BKN090 28/24 A2986=
201210112358 METAR MRLM 120000Z 28002KT 9999 SCT025 BKN090 26/24 A2988=
201210120000 METAR MRLM 120000Z 28002KT 9999 SCT025 BKN090 26/24 A2988=
201210120100 METAR MRLM NIL=
201210120200 METAR MRLM NIL=
201210120300 METAR MRLM NIL=
201210120400 METAR MRLM NIL=
201210120500 METAR MRLM NIL=
201210120600 METAR MRLM NIL=
201210120700 METAR MRLM NIL=
201210120800 METAR MRLM NIL=
201210120900 METAR MRLM NIL=
201210121000 METAR MRLM NIL=
201210121100 METAR MRLM NIL=
201210121200 METAR MRLM 121200Z 25004KT CAVOK 23/22 A2988=
201210121300 METAR MRLM 121300Z 23005KT CAVOK 24/22 A2989=
201210121400 METAR MRLM 121400Z 23003KT CAVOK 27/24 A2990=
201210121500 METAR MRLM 121500Z 05003KT 9999 FEW030 BKN140 29/23 A2992=
201210121600 METAR MRLM 121600Z 04004KT 9999 FEW030 BKN090 30/24 A2991=
201210121700 METAR MRLM 121700Z 05005KT 9999 FEW030 BKN270 30/24 A2989=
201210121800 METAR MRLM 121800Z 05006KT 9999 FEW030 SCT270 30/24 A2986=
201210121900 METAR MRLM 121900Z 05005KT 9999 FEW030 BKN270 30/24 A2983=
201210122000 METAR MRLM 122000Z 02006KT 9999 SCT028 BKN270 30/25 A2981=
201210122100 METAR MRLM 122100Z 02009KT 9999 SCT020 SCT270 29/25 A2980=
201210122200 METAR MRLM 122200Z 04006KT 9999 FEW022 BKN270 29/24 A2981=
201210122300 METAR MRLM 122300Z 00000KT 9999 FEW020 BKN270 28/24 A2982=
201210122353 METAR MRLM 130000Z 23003KT 9999 FEW015 BKN270 27/24 A2983=
201210130000 METAR MRLM 130000Z 23003KT 9999 FEW015 BKN270 27/24 A2983=
201210130100 METAR MRLM NIL=
201210130200 METAR MRLM NIL=
201210130300 METAR MRLM NIL=
201210130400 METAR MRLM NIL=
201210130500 METAR MRLM NIL=
201210130600 METAR MRLM NIL=
201210130700 METAR MRLM NIL=
201210130800 METAR MRLM NIL=
201210130900 METAR MRLM NIL=
201210131000 METAR MRLM NIL=
201210131100 METAR MRLM NIL=
201210131200 METAR MRLM NIL=
201210131300 METAR MRLM 131300Z 22004KT CAVOK 26/22 A2989=
201210131400 METAR MRLM 131400Z 30002KT CAVOK 30/22 A2988=
201210131500 METAR MRLM 131500Z 31006KT 9999 FEW035 BKN280 30/23 A2989=
201210131600 METAR MRLM 131600Z 33008KT 9999 FEW040 BKN280 31/23 A2987=
201210131700 METAR MRLM 131700Z 35010KT 9999 FEW035 BKN280 31/24 A2983=
201210131800 METAR MRLM 131800Z 36012KT 9999 FEW030 BKN280 30/25 A2981=
201210131900 METAR MRLM 131900Z 01012KT 9999 FEW028 BKN280 30/24 A2979=
201210132000 METAR MRLM 132000Z 36014KT 9999 FEW028 BKN280 30/24 A2976=
201210132100 METAR MRLM 132100Z 35011KT 9999 FEW025 SCT150 SCT280 29/24 A2976=
201210132200 METAR MRLM NIL=
201210132300 METAR MRLM NIL=
201210140000 METAR MRLM NIL=
201210140100 METAR MRLM NIL=
201210140200 METAR MRLM NIL=
201210140300 METAR MRLM NIL=
201210140400 METAR MRLM NIL=
201210140500 METAR MRLM NIL=
201210140600 METAR MRLM NIL=
201210140700 METAR MRLM NIL=
201210140800 METAR MRLM NIL=
201210140900 METAR MRLM NIL=
201210141000 METAR MRLM NIL=
201210141100 METAR MRLM NIL=
201210141200 METAR MRLM NIL=
201210141300 METAR MRLM 141300Z 29007KT 9999 BKN020 26/22 A2987=
201210141400 METAR MRLM 141400Z 29006KT 9999 OVC020 27/23 A2989=
201210141500 METAR MRLM 141500Z 29007KT 9999 OVC028 28/23 A2989=
201210141600 METAR MRLM 141600Z 29007KT 9999 OVC025 28/23 A2989=
201210141700 METAR MRLM 141700Z 31006KT 9999 BKN030 29/23 A2986=
201210141800 METAR MRLM 141800Z 31010KT 9999 BKN030 29/23 A2984=
201210141900 METAR MRLM 141900Z 33010KT 9999 SCT030 SCT090 30/24 A2980=
201210142000 METAR MRLM 142000Z 34012KT 9999 BKN028 30/24 A2978=
201210142100 METAR MRLM 142100Z 32008KT 9999 BKN020 28/24 A2978=
201210142200 METAR MRLM NIL=
201210142300 METAR MRLM NIL=
201210150000 METAR MRLM NIL=
201210150100 METAR MRLM NIL=
201210150200 METAR MRLM NIL=
201210150300 METAR MRLM NIL=
201210150400 METAR MRLM NIL=
201210150500 METAR MRLM NIL=
201210150600 METAR MRLM NIL=
201210150700 METAR MRLM NIL=
201210150800 METAR MRLM NIL=
201210150900 METAR MRLM NIL=
201210151000 METAR MRLM NIL=
201210151100 METAR MRLM NIL=
201210151200 METAR MRLM NIL=
201210151300 METAR MRLM 151300Z 27003KT CAVOK 24/22 A2985=
201210151400 METAR MRLM 151400Z 30006KT 9999 FEW030 BKN130 29/22 A2987=
201210151500 METAR MRLM 151500Z 30007KT 9999 FEW032 BKN140 29/22 A2988=
201210151600 METAR MRLM 151600Z 30011KT 9999 SCT035 SCT140 30/23 A2987=
201210151700 METAR MRLM 151700Z 33013KT 9999 DZ BKN030 29/23 A2985=
201210151800 METAR MRLM 151800Z 34014KT 9999 SCT035 SCT270 30/23 A2982 REDZ=
201210151900 METAR MRLM 151900Z 33014KT 9999 SCT030 SCT270 29/23 A2979=
201210152000 METAR MRLM 152000Z 33014KT 9999 BKN030 29/23 A2977=
201210152100 METAR MRLM 152100Z 33012KT 9999 FEW015 SCT025 29/23 A2977=
201210152200 METAR MRLM NIL=
201210152300 METAR MRLM NIL=
201210160000 METAR MRLM NIL=
201210160100 METAR MRLM NIL=
201210160200 METAR MRLM NIL=
201210160300 METAR MRLM NIL=
201210160400 METAR MRLM NIL=
201210160500 METAR MRLM NIL=
201210160600 METAR MRLM NIL=
201210160700 METAR MRLM NIL=
201210160800 METAR MRLM NIL=
201210160900 METAR MRLM NIL=
201210161000 METAR MRLM NIL=
201210161100 METAR MRLM NIL=
201210161200 METAR MRLM NIL=
201210161300 METAR MRLM 161300Z 25004KT CAVOK 25/22 A2985=
201210161400 METAR MRLM 161400Z 29007KT CAVOK 28/23 A2986=
201210161500 METAR MRLM 161500Z 29008KT 9999 FEW025 BKN090 29/23 A2987=
201210161600 METAR MRLM 161600Z 31011KT 9999 FEW025 SCT038 SCT110 30/23 A2987=
201210161700 METAR MRLM 161700Z 33010KT 9999 SCT015 SCT035 30/23 A2985=
201210161800 METAR MRLM 161800Z 35013KT 9999 SCT025 BKN090 29/24 A2983=
201210161900 METAR MRLM 161900Z 35010KT 9999 FEW025 SCT035 29/23 A2980=
201210162000 METAR MRLM 162000Z 36008KT 9999 FEW025 SCT040 SCT080 30/22 A2997=
201210162100 METAR MRLM 162100Z 32005KT 9999 FEW015 SCT030 SCT080 29/22 A2976=
201210162200 METAR MRLM NIL=
201210162300 METAR MRLM NIL=
201210170000 METAR MRLM NIL=
201210170100 METAR MRLM NIL=
201210170200 METAR MRLM NIL=
201210170300 METAR MRLM NIL=
201210170400 METAR MRLM NIL=
201210170500 METAR MRLM NIL=
201210170600 METAR MRLM NIL=
201210170700 METAR MRLM NIL=
201210170800 METAR MRLM NIL=
201210170900 METAR MRLM NIL=
201210171000 METAR MRLM NIL=
201210171100 METAR MRLM NIL=
201210171200 METAR MRLM NIL=
201210171300 METAR MRLM 171300Z 25002KT CAVOK 25/21 A2988=
201210171400 METAR MRLM 171400Z 07002KT CAVOK 29/22 A2988=
201210171500 METAR MRLM 171500Z 08004KT CAVOK 29/22 A2989=
201210171600 METAR MRLM 171600Z 02009KT CAVOK 31/22 A2988=
201210171700 METAR MRLM 171700Z 01010KT 9999 FEW045 31/21 A2986=
201210171800 METAR MRLM 171800Z 01010KT 9999 FEW045 SCT280 31/24 A2983=
201210171900 METAR MRLM 171900Z 02009KT 9999 FEW045 BKN280 31/22 A2981=
201210172000 METAR MRLM 172000Z 04007KT 9999 FEW040 SCT140 BKN280 30/22 A2979=
201210172100 METAR MRLM 172100Z 04006KT 9999 FEW035 SCT100 BKN280 29/22 A2978=
201210172200 METAR MRLM NIL=
201210172300 METAR MRLM NIL=
201210180000 METAR MRLM NIL=
201210180100 METAR MRLM NIL=
201210180200 METAR MRLM NIL=
201210180300 METAR MRLM NIL=
201210180400 METAR MRLM NIL=
201210180500 METAR MRLM NIL=
201210180600 METAR MRLM NIL=
201210180700 METAR MRLM NIL=
201210180800 METAR MRLM NIL=
201210180900 METAR MRLM NIL=
201210181000 METAR MRLM NIL=
201210181100 METAR MRLM NIL=
201210181200 METAR MRLM NIL=
201210181300 METAR MRLM 181300Z 23005KT 9999 FEW040 BKN090 24/22 A2986=
201210181400 METAR MRLM 181400Z 22004KT 9999 FEW040 BKN090 26/22 A2987=
201210181500 METAR MRLM 181500Z 28002KT CAVOK 29/22 A2988=
201210181600 METAR MRLM 05006KT 9999 FEW038 BKN100 31/23 A2987=
201210181607 METAR MRLM 181607Z 05006KT 9999 FEW038 BKN100 31/23 A2987=
201210181700 METAR MRLM 181700Z 03007KT 9999 FEW045 BKN100 31/22 A2985=
201210181800 METAR MRLM 181800Z 03007KT 9999 FEW040 BKN120 31/22 A2983=
201210181900 METAR MRLM 181900Z 04008KT 9999 FEW035 BKN110 30/24 A2979=
201210182000 METAR MRLM 182000Z 04007KT 9999 FEW030 BKN090 30/24 A2977=
201210182100 METAR MRLM 182100Z 06005KT 9999 FEW028 SCT140 SCT270 29/24 A2976=
201210182200 METAR MRLM NIL=
201210182300 METAR MRLM NIL=
201210190000 METAR MRLM NIL=
201210190100 METAR MRLM NIL=
201210190200 METAR MRLM NIL=
201210190300 METAR MRLM NIL=
201210190400 METAR MRLM NIL=
201210190500 METAR MRLM NIL=
201210190600 METAR MRLM NIL=
201210190700 METAR MRLM NIL=
201210190800 METAR MRLM NIL=
201210190900 METAR MRLM NIL=
201210191000 METAR MRLM NIL=
201210191100 METAR MRLM NIL=
201210191200 METAR MRLM NIL=
201210191300 METAR MRLM 191300Z 22004KT CAVOK 24/23 A2984=
201210191400 METAR MRLM 191400Z 21003KT CAVOK 26/23 A2985=
201210191500 METAR MRLM 191500Z 22002KT CAVOK 28/23 A2986=
201210191600 METAR MRLM 191600Z 09003KT 9999 FEW035 BKN110 29/23 A2986=
201210191700 METAR MRLM NIL=
201210191800 METAR MRLM 191800Z 07005KT 9999 FEW030 BKN140 29/23 A2981=
201210191900 METAR MRLM NIL=
201210192000 METAR MRLM 192000Z 06003KT 9999 FEW025 SCT120 SCT250 29/23 A2976=
201210192100 METAR MRLM 192100Z 05003KT 9999 BKN025 29/24 A2974=
201210192200 METAR MRLM NIL=
201210192300 METAR MRLM NIL=
201210200000 METAR MRLM NIL=
201210200100 METAR MRLM NIL=
201210200200 METAR MRLM NIL=
201210200300 METAR MRLM NIL=
201210200400 METAR MRLM NIL=
201210200500 METAR MRLM NIL=
201210200600 METAR MRLM NIL=
201210200700 METAR MRLM NIL=
201210200800 METAR MRLM NIL=
201210200900 METAR MRLM NIL=
201210201000 METAR MRLM NIL=
201210201100 METAR MRLM NIL=
201210201200 METAR MRLM NIL=
201210201300 METAR MRLM 201300Z 23004KT CAVOK 27/23 A2983=
201210201400 METAR MRLM NIL=
201210201500 METAR MRLM 201500Z 04006KT 9999 SCT030 SCT280 29/23 A2985=
201210201600 METAR MRLM 201600Z 04006KT 9999 FEW030 SCT280 29/23 A2984=
201210201700 METAR MRLM 201700Z 02009KT 9999 FEW035 SCT270 30/23 A2982=
201210201800 METAR MRLM 201800Z 03009KT 9999 SCT035 SCT270 30/23 A2979=
201210201900 METAR MRLM 201900Z 06004KT 9999 SCT030 SCT270 30/24 A2974=
201210202000 METAR MRLM 202000Z 06004KT 9999 SCT028 SCT270 29/24 A2972=
201210202100 METAR MRLM 202100Z 06005KT 9999 SCT028 SCT270 30/24 A2970=
201210202200 METAR MRLM NIL=
201210202300 METAR MRLM NIL=
201210210000 METAR MRLM NIL=
201210210100 METAR MRLM NIL=
201210210200 METAR MRLM NIL=
201210210300 METAR MRLM NIL=
201210210400 METAR MRLM NIL=
201210210500 METAR MRLM NIL=
201210210600 METAR MRLM NIL=
201210210700 METAR MRLM NIL=
201210210800 METAR MRLM NIL=
201210210900 METAR MRLM NIL=
201210211000 METAR MRLM NIL=
201210211100 METAR MRLM NIL=
201210211200 METAR MRLM NIL=
201210211300 METAR MRLM 211300Z 23004KT 9999 FEW035 27/24 A2982=
201210211400 METAR MRLM 211400Z 31004KT CAVOK 29/24 A2983=
201210211500 METAR MRLM 211500Z 31007KT 9999 SCT035 30/23 A2983=
201210211600 METAR MRLM 211600Z 34011KT 9999 SCT035 31/24 A2982=
201210211700 METAR MRLM 211700Z 34010KT 9999 FEW035 31/24 A2979=
201210211800 METAR MRLM 211800Z 36014KT 9999 FEW030 31/21 A2979=
201210211900 METAR MRLM 211900Z 36016KT 9999 FEW030 SCT270 31/24 A2975=
201210212000 METAR MRLM 212000Z 36013KT 9999 FEW035 SCT270 30/24 A2971=
201210212100 METAR MRLM 212100Z 35011KT 9999 FEW035 SCT270 31/24 A2971=
201210212200 METAR MRLM NIL=
201210212300 METAR MRLM NIL=
201210220000 METAR MRLM NIL=
201210220100 METAR MRLM NIL=
201210220200 METAR MRLM NIL=
201210220300 METAR MRLM NIL=
201210220400 METAR MRLM NIL=
201210220500 METAR MRLM NIL=
201210220600 METAR MRLM NIL=
201210220700 METAR MRLM NIL=
201210220800 METAR MRLM NIL=
201210220900 METAR MRLM NIL=
201210221000 METAR MRLM NIL=
201210221100 METAR MRLM NIL=
201210221200 METAR MRLM NIL=
201210221300 METAR MRLM 221300Z 25003KT CAVOK 26/23 A2976=
201210221400 METAR MRLM 221400Z 30007KT CAVOK 28/22 A2977=
201210221458 METAR MRLM 221458Z 30008KT 9999 FEW030 BKN080 29/23 A2979=
201210221500 METAR MRLM 30008KT 9999 FEW030 BKN080 29/23 A2979=
201210221600 METAR MRLM 221600Z 31009KT 9999 FEW040 BKN270 31/24 A2977=
201210221700 METAR MRLM 221700Z 33014KT 9999 FEW035 BKN270 31/24 A2975=
201210221800 METAR MRLM 221800Z 33016KT 9999 FEW038 BKN270 32/25 A2971=
201210221900 METAR MRLM 221900Z 35013KT 9999 FEW040 BKN270 32/24 A2968=
201210222000 METAR MRLM 222000Z 33011KT 9999 FEW040 BKN270 32/24 A2964=
201210222100 METAR MRLM 222100Z 34015KT 9999 FEW030 SCT080 SCT260 31/25 A2965=
201210222200 METAR MRLM NIL=
201210222300 METAR MRLM NIL=
201210230000 METAR MRLM NIL=
201210230100 METAR MRLM NIL=
201210230200 METAR MRLM NIL=
201210230300 METAR MRLM NIL=
201210230400 METAR MRLM NIL=
201210230500 METAR MRLM NIL=
201210230600 METAR MRLM NIL=
201210230700 METAR MRLM NIL=
201210230800 METAR MRLM NIL=
201210230900 METAR MRLM NIL=
201210231000 METAR MRLM NIL=
201210231100 METAR MRLM NIL=
201210231200 METAR MRLM NIL=
201210231300 METAR MRLM 231300Z 29007KT CAVOK 26/22 A2970=
201210231400 METAR MRLM 231400Z 29006KT CAVOK 27/22 A2972=
201210231500 METAR MRLM 231500Z 29009KT CAVOK 29/22 A2974=
201210231600 METAR MRLM 231600Z 30011KT 9999 FEW040 SCT270 31/23 A2973=
201210231700 METAR MRLM 231700Z 35014KT 9999 FEW040 BKN260 31/23 A2969=
201210231800 METAR MRLM 231800Z 33012KT 9999 FEW040 SCT270 32/24 A2967=
201210231900 METAR MRLM 231900Z 35015KT 9999 FEW035 SCT260 32/24 A2964=
201210232000 METAR MRLM 232000Z 34015KT 9999 FEW038 BKN270 31/24 A2961=
201210232100 METAR MRLM 232100Z 33012KT 9999 FEW038 SCT260 31/24 A2961=
201210232200 METAR MRLM NIL=
201210232300 METAR MRLM NIL=
201210240000 METAR MRLM NIL=
201210240100 METAR MRLM NIL=
201210240200 METAR MRLM NIL=
201210240300 METAR MRLM NIL=
201210240400 METAR MRLM NIL=
201210240500 METAR MRLM NIL=
201210240600 METAR MRLM NIL=
201210240700 METAR MRLM NIL=
201210240800 METAR MRLM NIL=
201210240900 METAR MRLM NIL=
201210241000 METAR MRLM NIL=
201210241100 METAR MRLM NIL=
201210241200 METAR MRLM NIL=
201210241300 METAR MRLM 241300Z 28004KT CAVOK 26/24 A2975=
201210241400 METAR MRLM 241400Z 05002KT CAVOK 30/24 A2977=
201210241500 METAR MRLM 241500Z 04005KT CAVOK 29/23 A2976=
201210241600 METAR MRLM 241600Z 06005KT 9999 FEW030 BKN090 30/23 A2996=
201210241700 METAR MRLM 241700Z 05004KT 9999 FEW030 BKN090 29/23 A2973=
201210241800 METAR MRLM 241800Z 12004KT 9999 FEW032 BKN090 29/23 A2971=
201210241900 METAR MRLM 241900Z 19006KT 9999 FEW025 BKN110 29/24 A2968=
201210242000 METAR MRLM 242000Z 17004KT 9999 BKN020 29/25 A2965=
201210242100 METAR MRLM 242100Z 20003KT 9999 FEW022 BKN080 28/24 A2966=
201210242200 METAR MRLM NIL=
201210242300 METAR MRLM NIL=
201210250000 METAR MRLM NIL=
201210250100 METAR MRLM NIL=
201210250200 METAR MRLM NIL=
201210250300 METAR MRLM NIL=
201210250400 METAR MRLM NIL=
201210250500 METAR MRLM NIL=
201210250600 METAR MRLM NIL=
201210250700 METAR MRLM NIL=
201210250800 METAR MRLM NIL=
201210250900 METAR MRLM NIL=
201210251000 METAR MRLM NIL=
201210251100 METAR MRLM NIL=
201210251200 METAR MRLM 251200Z 24003KT 9999 FEW010 BKN100 23/22 A2978=
201210251300 METAR MRLM 251300Z 24004KT CAVOK 24/23 A2979=
201210251400 METAR MRLM 251400Z 00000KT CAVOK 28/23 A2979=
201210251500 METAR MRLM 251500Z 10004KT CAVOK 29/23 A2979=
201210251600 METAR MRLM 251600Z 10005KT 9999 FEW030 BKN120 29/23 A2977=
201210251700 METAR MRLM 251700Z 05008KT 9999 FEW025 BKN110 29/24 A2977=
201210251800 METAR MRLM 251800Z 05006KT 9999 FEW030 BKN110 30/23 A2975=
201210251900 METAR MRLM 251900Z 05005KT 9999 FEW030 BKN110 29/24 A2973=
201210252000 METAR MRLM 252000Z 04005KT 9999 SCT025 BKN120 29/24 A2972=
201210252100 METAR MRLM 252100Z 32006KT 9999 DZ SCT020 SCT110 28/24 A2973=
201210252200 METAR MRLM 252200Z 26007KT 7000 TSRA FEW007CB BKN010 25/23 A2976=
201210252300 METAR MRLM 252300Z 18004KT 9999 DZ SCT010 BKN090 24/23 A2979 RETSRA=
201210260000 METAR MRLM 260000Z 20004KT 9999 -DZ SCT007 SCT090 23/22 A2979=
201210260100 METAR MRLM NIL=
201210260200 METAR MRLM NIL=
201210260300 METAR MRLM NIL=
201210260400 METAR MRLM NIL=
201210260500 METAR MRLM NIL=
201210260600 METAR MRLM NIL=
201210260700 METAR MRLM NIL=
201210260800 METAR MRLM NIL=
201210260900 METAR MRLM NIL=
201210261000 METAR MRLM NIL=
201210261100 METAR MRLM NIL=
201210261200 METAR MRLM 261200Z 23003KT CAVOK 21/22 A2982=
201210261300 METAR MRLM 261300Z 24004KT CAVOK 24/22 A2983=
201210261400 METAR MRLM 261400Z 08002KT CAVOK 28/23 A2984=
201210261500 METAR MRLM 261500Z 06003KT CAVOK 28/22 A2987=
201210261600 METAR MRLM 261600Z 02005KT 9999 FEW030 BKN110 28/22 A2987=
201210261700 METAR MRLM 261700Z 02004KT 9999 FEW030 BKN110 28/22 A2985=
201210261800 METAR MRLM 261800Z 04005KT 9999 FEW030 29/22 A2981=
201210261900 METAR MRLM 261900Z 04007KT 9999 FEW030 30/23 A2979=
201210262000 METAR MRLM 262000Z 07005KT 9999 SCT030 SCT120 29/22 A2976=
201210262100 METAR MRLM 262100Z 00000KT 9999 SCT030 BKN120 29/23 A2976=
201210262200 METAR MRLM 262200Z 00000KT 9999 FEW020 BKN110 28/24 A2976=
201210262300 METAR MRLM 262300Z 20004KT 9999 FEW020 SCT110 27/24 A2977=
201210270000 METAR MRLM 270000Z 20003KT 9999 FEW015 BKN100 26/24 A2978=
201210270100 METAR MRLM NIL=
201210270200 METAR MRLM NIL=
201210270300 METAR MRLM NIL=
201210270400 METAR MRLM NIL=
201210270500 METAR MRLM NIL=
201210270600 METAR MRLM NIL=
201210270700 METAR MRLM NIL=
201210270800 METAR MRLM NIL=
201210270900 METAR MRLM NIL=
201210271000 METAR MRLM NIL=
201210271100 METAR MRLM NIL=
201210271200 METAR MRLM 26008KT 9999 FEW015 BKN100 24/23 A2982=
201210271228 METAR MRLM 271228Z 26008KT 9999 FEW015 BKN100 24/23 A2982=
201210271300 METAR MRLM 271300Z 23004KT 9999 FEW015 BKN110 25/23 A2984=
201210271400 METAR MRLM 271400Z 23002KT 9999 FEW020 BKN110 28/23 A2987=
201210271500 METAR MRLM 271500Z 09003KT 9999 FEW035 BKN140 30/23 A2987=
201210271600 METAR MRLM 271600Z 09005KT 9999 FEW030 BKN090 29/23 A2986=
201210271700 METAR MRLM 271700Z 07005KT 9999 SCT030 BKN130 29/23=
201210271800 METAR MRLM 271800Z 05005KT 9999 SCT030 SCT140 30/24 A2982=
201210271900 METAR MRLM 271900Z 09006KT 9999 BKN025 29/24 A2979=
201210272000 METAR MRLM 272000Z 06006KT 9999 SCT030 BKN130 30/24 A2977=
201210272100 METAR MRLM 272100Z 03005KT 9999 SCT035 SCT130 30/23 A2976=
201210272200 METAR MRLM 272200Z 05003KT 9999 SCT032 30/23 A2976=
201210272300 METAR MRLM 272300Z 05002KT 9999 VCSH FEW025TCU BKN030 29/23 A2978=
201210280000 METAR MRLM 280000Z 32007KT 3000 +RA BKN020TCU 27/22 A2981=
201210280100 METAR MRLM NIL=
201210280200 METAR MRLM NIL=
201210280300 METAR MRLM NIL=
201210280400 METAR MRLM NIL=
201210280500 METAR MRLM NIL=
201210280600 METAR MRLM NIL=
201210280700 METAR MRLM NIL=
201210280800 METAR MRLM NIL=
201210280900 METAR MRLM NIL=
201210281000 METAR MRLM NIL=
201210281100 METAR MRLM NIL=
201210281200 METAR MRLM 281200Z 24004KT CAVOK 24/22 A2986=
201210281300 METAR MRLM 281300Z 00000KT 9999 FEW040 BKN090 28/23 A2987=
201210281400 METAR MRLM 281400Z 23003KT CAVOK 27/24 A2990=
201210281500 METAR MRLM 281500Z 29005KT CAVOK 28/23 A2991=
201210281600 METAR MRLM 281600Z 30004KT 9999 FEW032 SCT080 SCT120 29/23 A2989=
201210281700 METAR MRLM 281700Z 29004KT 9999 FEW035 BKN110 29/23 A2987=
201210281800 METAR MRLM 281800Z 36008KT 9999 FEW045 BKN130 31/22 A2984=
201210281900 METAR MRLM 281900Z 35009KT 9999 FEW045 BKN090 31/22 A2983=
201210282000 METAR MRLM 282000Z 36008KT CAVOK 31/22 A2981=
201210282100 METAR MRLM 282100Z 36007KT CAVOK 30/22 A2981=
201210282200 METAR MRLM 282200Z 01005KT 9999 FEW025 BKN080 30/21 A2981=
201210282300 METAR MRLM 282300Z 32004KT 9999 FEW020 SCT035 SCT090 29/22 A2983=
201210282352 METAR MRLM 290000Z 28002KT 9999 FEW020 SCT120 26/22 A2984=
201210290000 METAR MRLM 290000Z 28002KT 9999 FEW020 SCT120 26/22 A2984=
201210290100 METAR MRLM NIL=
201210290200 METAR MRLM NIL=
201210290300 METAR MRLM NIL=
201210290400 METAR MRLM NIL=
201210290500 METAR MRLM NIL=
201210290600 METAR MRLM NIL=
201210290700 METAR MRLM NIL=
201210290800 METAR MRLM NIL=
201210290900 METAR MRLM NIL=
201210291000 METAR MRLM NIL=
201210291100 METAR MRLM NIL=
201210291200 METAR MRLM 291200Z 29004KT 9999 FEW015 BKN100 24/21 A2990=
201210291300 METAR MRLM 291300Z 25004KT 9999 FEW015 BKN100 24/21 A2991=
201210291400 METAR MRLM 291400Z 27004KT 9999 SCT015 SCT110 25/22 A2994=
201210291500 METAR MRLM 291500Z 30008KT 9999 DZ BKN015 SCT100 24/21 A2997=
201210291600 METAR MRLM 291600Z 29007KT 9999 -DZ BKN015 SCT100 24/22 A2996=
201210291700 METAR MRLM 291700Z COR 30008KT 9999 +DZ BKN010 SCT100 25/22 A2996=
201210291800 METAR MRLM 291800Z 31006KT 8000 +DZ BKN010 SCT090 24/22 A2994=
201210291900 METAR MRLM 291900Z 25005KT 9999 DZ SCT010 BKN090 23/22 A2992=
201210292000 METAR MRLM 292000Z 25005KT 9999 DZ FEW010 BKN100 24/23 A2987=
201210292100 METAR MRLM 292100Z 22003KT 9999 FEW015 BKN110 26/23 A2985 REDZ=
201210292200 METAR MRLM 292200Z 00000KT 9999 FEW020 BKN120 27/23 A2984=
201210292300 METAR MRLM 292300Z 00000KT CAVOK 26/24 A2986=
201210300000 METAR MRLM 300000Z 00000KT 9999 FEW015 BKN110 24/23 A2987=
201210300100 METAR MRLM NIL=
201210300200 METAR MRLM NIL=
201210300300 METAR MRLM NIL=
201210300400 METAR MRLM NIL=
201210300500 METAR MRLM NIL=
201210300600 METAR MRLM NIL=
201210300700 METAR MRLM NIL=
201210300800 METAR MRLM NIL=
201210300900 METAR MRLM NIL=
201210301000 METAR MRLM NIL=
201210301100 METAR MRLM NIL=
201210301200 METAR MRLM 301200Z 24004KT CAVOK 22/20 A2992=
201210301300 METAR MRLM 301300Z 27003KT CAVOK 24/21 A2994=
201210301400 METAR MRLM 301400Z 00000KT 9999 FEW020 BKN120 26/22 A2995=
201210301500 METAR MRLM 301500Z 29005KT 9999 FEW025 BKN120 27/21 A2998=
201210301600 METAR MRLM 301600Z 20006KT 9999 FEW030 BKN130 29/21 A2996=
201210301700 METAR MRLM 301700Z 31008KT 9999 FEW035 SCT130 29/22 A2995=
201210301800 METAR MRLM 301800Z 35011KT 9999 SCT030 29/24 A2992=
201210301900 METAR MRLM 301900Z 33010KT 9999 SCT030 SCT260 30/23 A2990=
201210302000 METAR MRLM 302000Z 340012KT 9999 FEW025 SCT260 29/23 A2988=
201210302100 METAR MRLM 302100Z 33009KT 9999 FEW025 SCT130 28/23 A2988=
201210302200 METAR MRLM 302200Z 30004KT 9999 FEW025 BKN250 28/23 A2987=
201210302300 METAR MRLM 302300Z 32007KT 9999 FEW020 SCT130 27/23 A2989=
201210310000 METAR MRLM 310000Z 30003KT 9999 FEW015 SCT120 25/23 A2990=
201210310100 METAR MRLM NIL=
201210310200 METAR MRLM NIL=
201210310300 METAR MRLM NIL=
201210310400 METAR MRLM NIL=
201210310500 METAR MRLM NIL=
201210310600 METAR MRLM NIL=
201210310700 METAR MRLM NIL=
201210310800 METAR MRLM NIL=
201210310900 METAR MRLM NIL=
201210311000 METAR MRLM NIL=
201210311100 METAR MRLM NIL=
201210311200 METAR MRLM 26006KT 9999 FEW015 BKN025 23/21 A2995=
201210311232 METAR MRLM 311232Z 26006KT 9999 FEW015 BKN025 23/21 A2995=
201210311300 METAR MRLM NIL=
201210311400 METAR MRLM NIL=
201210311500 METAR MRLM 311500Z 29009KT 9999 BKN020 26/22 A2998 REDZ=
201210311600 METAR MRLM 311600Z 29008KT 9999 FEW025 SCT035 SCT080 27/22 A2996=
201210311700 METAR MRLM 311700Z 30007KT 9999 FEW035 BKN080 29/22 A2994=
201210311800 METAR MRLM NIL=
201210311900 METAR MRLM 311900Z ///// 9999 FEW038 BKN090 30/22 A2986=
201210312000 METAR MRLM 312000Z ///// 9999 SCT035 SCT100 29/24 A2984=
201210312100 METAR MRLM 312100Z ///// 9999 FEW038 SCT110 29/24 A2984=
201210312200 METAR MRLM 312200Z 34007KT 9999 FEW028 SCT090 28/22 A2987=
201210312300 METAR MRLM 312300Z 30003KT 9999 FEW018 BKN110 26/23 A2989=
201210312355 METAR MRLM 010000Z 31004KT 9999 FEW015 BKN110 25/22 A2991=
201211010000 METAR MRLM 010000Z 31004KT 9999 FEW015 BKN110 25/22 A2991=
201211010100 METAR MRLM NIL=
201211010200 METAR MRLM NIL=
201211010300 METAR MRLM NIL=
201211010400 METAR MRLM NIL=
201211010500 METAR MRLM NIL=
201211010600 METAR MRLM NIL=
201211010700 METAR MRLM NIL=
201211010800 METAR MRLM NIL=
201211010900 METAR MRLM NIL=
201211011000 METAR MRLM NIL=
201211011100 METAR MRLM NIL=
201211011200 METAR MRLM 011200Z 32003KT 9999 FEW006 BKN025 23/22 A2992=
201211011300 METAR MRLM 011300Z 30007KT 9999 DZ FEW008 BKN025 24/22 A2991=
201211011400 METAR MRLM 011400Z 29007KT CAVOK 25/22 A2992 REDZ=
201211011500 METAR MRLM 011500Z 31006KT 9999 FWEW028 BKN090 28/22 A2993=
201211011600 METAR MRLM 011600Z 33007KT 9999 FEW040 SCT110 30/22 A2992=
201211011700 METAR MRLM 011700Z 35008KT 9999 FEW045 BKN100 31/22 A2990=
201211011800 METAR MRLM 011800Z 01013KT 9999 FEW040 BKN090 31/24 A2987=
201211011900 METAR MRLM 011900Z 01013KT 9999 FEW035 BKN090 30/24 A2985=
201211012000 METAR MRLM 012000Z 36015KT 9999 FEW028 BKN110 29/24 A2983=
201211012100 METAR MRLM 012100Z 34010KT 9999 FEW028 SCT120 29/23 A2982=
201211012200 METAR MRLM 012200Z 35009KT 9999 SCT025 SCT120 28/22 A2984=
201211012300 METAR MRLM 012300Z 35008KT 9999 SCT022 SCT260 27/23 A2985=
201211012358 METAR MRLM 020000Z 30005KT 9999 BKN015 26/23 A2986=
201211020000 METAR MRLM 020000Z 30005KT 9999 BKN015 26/23 A2986=
201211020100 METAR MRLM NIL=
201211020200 METAR MRLM NIL=
201211020300 METAR MRLM NIL=
201211020400 METAR MRLM NIL=
201211020500 METAR MRLM NIL=
201211020600 METAR MRLM NIL=
201211020700 METAR MRLM NIL=
201211020800 METAR MRLM NIL=
201211020900 METAR MRLM NIL=
201211021000 METAR MRLM NIL=
201211021100 METAR MRLM NIL=
201211021200 METAR MRLM 021200Z 28005KT 9999 FEW010 BKN110 23/21 A2986=
201211021300 METAR MRLM 021300Z 30004KT 9999 FEW015 BKN110 24/22 A2989=
201211021400 METAR MRLM 021400Z 32005KT 9999 FEW020 BKN120 26/22 A2990=
201211021500 METAR MRLM 021500Z 33006KT 9999 FEW020 BKN120 27/23 A2992=
201211021600 METAR MRLM 021600Z 32007KT 9999 FEW020 SCT120 27/23 A2991=
201211021700 METAR MRLM 021700Z 00000KT 9999 -DZ SCT020 SCT110 28/23 A2990=
201211021800 METAR MRLM 021800Z 23004KT 9999 DZ BKN015 26/24 A2987=
201211021900 METAR MRLM 021900Z 32004KT 9999 DZ SCT010 SCT090 25/24 A2985=
201211022000 METAR MRLM 022000Z 29004KT 9999 DZ FEW007 SCT015 SCT100 25/23 A2983=
201211022100 METAR MRLM 022100Z 24005KT 9999 FEW010 BKN100 25/23 A2981=
201211022200 METAR MRLM 022200Z 00000KT 9999 FEW020 SCT120 27/24 A2981=
201211022300 METAR MRLM 022300Z 00000KT 9999 FEW015 SCT120 26/23 A2983=
201211030000 METAR MRLM 030000Z 36003KT 9999 FEW015 BKN110 25/24 A2984=
201211030100 METAR MRLM NIL=
201211030200 METAR MRLM NIL=
201211030300 METAR MRLM NIL=
201211030400 METAR MRLM NIL=
201211030500 METAR MRLM NIL=
201211030700 METAR MRLM NIL=
201211030800 METAR MRLM NIL=
201211030900 METAR MRLM NIL=
201211031000 METAR MRLM NIL=
201211031100 METAR MRLM NIL=
201211031200 METAR MRLM 031200Z 27004KT 9999 FEW010 BKN100 22/21 A2988=
201211031300 METAR MRLM 031300Z 30002KT 9999 FEW010 BKN110 23/22 A2989=
201211031400 METAR MRLM 031400Z 29006KT 9999 FEW015 BKN110 25/22 A2992=
201211031500 METAR MRLM 031500Z 31005KT 9999 SCT020 BKN110 26/23 A2993=
201211031600 METAR MRLM 031600Z 31005KT 9999 SCT015 BKN110 26/23 A2993=
201211031700 METAR MRLM 031700Z COR 32005KT 9999 -DZ SCT020 SCT120 27/24 A2991=
201211031800 METAR MRLM 031800Z 33007KT 9999 BKN020 28/24 A2989=
201211031900 METAR MRLM 031900Z 34008KT 9999 SCT020 BKN120 27/23 A2985=
201211032000 METAR MRLM 032000Z 33008KT 9999 BKN015 26/23 A2983=
201211032100 METAR MRLM 032100Z 34007KT 9999 DZ BKN015 26/23 A2983=
201211032200 METAR MRLM 032200Z 32003KT 9999 DZ BKN010 25/23 A2986=
201211032300 METAR MRLM 032300Z 28002KT 9999 -DZ SCT010 BKN100 25/24 A2986=
201211040000 METAR MRLM 040000Z 27003KT 9999 -DZ FEW070 BKN090 24/23 A2983=
201211040100 METAR MRLM NIL=
201211040200 METAR MRLM NIL=
201211040300 METAR MRLM NIL=
201211040400 METAR MRLM NIL=
201211040500 METAR MRLM NIL=
201211040600 METAR MRLM NIL=
201211040700 METAR MRLM NIL=
201211040800 METAR MRLM NIL=
201211040900 METAR MRLM NIL=
201211041000 METAR MRLM NIL=
201211041100 METAR MRLM NIL=
201211041200 METAR MRLM 041200Z 25003KT 9999 DZ VCSH SCT020 SCT080 23/23 A2989=
201211041300 METAR MRLM 041300Z 26002KT 9999 DZ VCSH SCT020 SCT080 24/23 A2990=
201211041400 METAR MRLM 041400Z 35002KT 9999 BKN020 25/24 A2993 REDZ=
201211041500 METAR MRLM 041500Z 20002KT 9999 SCT020 SCT080 27/24 A2993=
201211041600 METAR MRLM 041600Z 29002KT 9999 FEW025 BKN140 29/25 A2992=
201211041700 METAR MRLM 041700Z 07003KT 9999 VCTS FEWCB015 FEW028 SCT140 29/23 A2991=
201211041800 METAR MRLM 041800Z 13006KT 9999 FEW025 SCT090 2824 A2989 RETS=
201211041900 METAR MRLM 041900Z 10006KT 9999 +DZ FEW015 BKN140 26/23 A2984=
201211042000 METAR MRLM 042000Z 23002KT 9999 FEW015 SCT150 SCT250 26/23 A2981 REDZ=
201211042100 METAR MRLM 042100Z 00000KT CAVOK 28/24 A2979=
201211042200 METAR MRLM 042200Z 00000KT CAVOK 28/24 A2980=
201211042300 METAR MRLM 042300Z 21002KT CAVOK 27/24 A2982=
201211042359 METAR MRLM 050000Z 21003KT CAVOK 25/24 A2984=
201211050000 METAR MRLM 050000Z 21003KT CAVOK 25/24 A2984=
201211050100 METAR MRLM NIL=
201211050200 METAR MRLM NIL=
201211050300 METAR MRLM NIL=
201211050400 METAR MRLM NIL=
201211050500 METAR MRLM NIL=
201211050600 METAR MRLM NIL=
201211050700 METAR MRLM NIL=
201211050800 METAR MRLM NIL=
201211050900 METAR MRLM NIL=
201211051000 METAR MRLM NIL=
201211051100 METAR MRLM NIL=
201211051200 METAR MRLM 051200Z 26003KT CAVOK 23/21 A2985=
201211051300 METAR MRLM 051300Z 26004KT CAVOK 25/22 A2986=
201211051400 METAR MRLM 051400Z 27004KT CAVOK 28/23 A2988=
201211051500 METAR MRLM 051500Z 36002KT CAVOK 30/23 A2989=
201211051600 METAR MRLM 051600Z 06005KT 9999 FEW030 BKN280 30/24 A2989=
201211051700 METAR MRLM 051700Z 05006KT 9999 FEW033 BKN280 30/23 A2987=
201211051800 METAR MRLM 051800Z 05006KT 9999 FEW038 BKN280 30/23 A2983=
201211051900 METAR MRLM 051900Z 03008KT 9999 FEW035 SCT110 SCT280 30/24 A2981=
201211052000 METAR MRLM 052000Z 05007KT 9999 FEW030 SCT090 31/24 A2982=
201211052100 METAR MRLM 052100Z 03007KT 9999 SCT025 SCT090 29/24 A2979=
201211052200 METAR MRLM 052200Z 02005KT 9999 FEW020 BKN090 29/24 A2980=
201211052300 METAR MRLM 052300Z 26003KT CAVOK 27/25 A2981=
201211052356 METAR MRLM 060000Z 29002KT 9999 SCT012 SCT080 26/24 A2984=
201211060000 METAR MRLM 060000Z 29002KT 9999 SCT012 SCT080 26/24 A2984=
201211060100 METAR MRLM NIL=
201211060200 METAR MRLM NIL=
201211060300 METAR MRLM NIL=
201211060400 METAR MRLM NIL=
201211060500 METAR MRLM NIL=
201211060600 METAR MRLM NIL=
201211060700 METAR MRLM NIL=
201211060800 METAR MRLM NIL=
201211060900 METAR MRLM NIL=
201211061000 METAR MRLM NIL=
201211061100 METAR MRLM NIL=
201211061200 METAR MRLM 061200Z 23004KT 9999 FEW015 BKN100 22/21 A2985=
201211061300 METAR MRLM 061300Z 26006KT 9999 FEW015 BKN110 23/21 A2986=
201211061400 METAR MRLM 061400Z 26003KT 9999 FEW020 SCT130 28/23 A2988=
201211061500 METAR MRLM 061500Z 03006KT 9999 SCT030 SCT130 29/23 A2989=
201211061600 METAR MRLM 061600Z 04005KT 9999 FEW030 SCT130 30/23 A2987=
201211061700 METAR MRLM 061700Z 02008KT 9999 FEW035 SCT140 30/23 A2985=
201211061800 METAR MRLM 061800Z 03009KT 9999 FEW035 SCT140 30/23 2984=
201211061900 METAR MRLM 061900Z 03010KT 9999 FEW030 SCT130 30/24 A2981=
201211062000 METAR MRLM 062000Z 03009KT 9999 FEW030 BKN130 30/24 A2980=
201211062100 METAR MRLM 062100Z 02008KT 9999 SCT025 SCT120 29/24 A2979=
201211062200 METAR MRLM 062200Z 05013KT 9999 -DZ BKN020 28/25 A2981=
201211062300 METAR MRLM 062300Z 06010KT 9999 -DZ BKN020 28/24 A2982=
201211070000 METAR MRLM 070000Z 03008KT 9999 SCT020 BKN110 27/24 A2982=
201211070100 METAR MRLM NIL=
201211070200 METAR MRLM NIL=
201211070300 METAR MRLM NIL=
201211070400 METAR MRLM NIL=
201211070500 METAR MRLM NIL=
201211070600 METAR MRLM NIL=
201211070700 METAR MRLM NIL=
201211070800 METAR MRLM NIL=
201211070900 METAR MRLM NIL=
201211071000 METAR MRLM NIL=
201211071100 METAR MRLM NIL=
201211071200 METAR MRLM 071200Z 28002KT 9999 BKN010 SCT100 23/22 A2988=
201211071300 METAR MRLM 071300Z 26004KT 9999 SCT015 BKN100 24/23 A2989=
201211071400 METAR MRLM 071400Z 24005KT 9999 FEW015 BKN110 25/23 A2989=
201211071500 METAR MRLM 071500Z 00000KT 9999 FEW025 BKN120 29/24 A2990=
201211071600 METAR MRLM 071600Z 06006KT 9999 FEW025 BKN120 29/24 A2990=
201211071700 METAR MRLM 071700Z 06006KT 9999 SCT035 SCT130 30/23 A2988=
201211071800 METAR MRLM 071800Z 04007KT 9999 FEW040 SCT130 31/22 A2986=
201211071900 METAR MRLM 071900Z 04006KT 9999 FEW040 30/23 A2983=
201211072000 METAR MRLM 072000Z 02010KT 9999 FEW030 SCT130 30/23 A2981=
201211072100 METAR MRLM 072100Z 36011KT 9999 FEW030 SCT130 29/23 A2982=
201211072200 METAR MRLM 072200Z 34006KT 9999 FEW030 BKN120 27/23 A2983=
201211072300 METAR MRLM 072300Z 29003KT 9999 SCT015 SCT120 26/24 A2985=
201211080000 METAR MRLM 080000Z 29005KT 9999 BKN010 26/23 A2986=
201211080100 METAR MRLM NIL=
201211080200 METAR MRLM NIL=
201211080300 METAR MRLM NIL=
201211080400 METAR MRLM NIL=
201211080500 METAR MRLM NIL=
201211080600 METAR MRLM NIL=
201211080700 METAR MRLM NIL=
201211080800 METAR MRLM NIL=
201211080900 METAR MRLM NIL=
201211081000 METAR MRLM NIL=
201211081100 METAR MRLM NIL=
201211081200 METAR MRLM 081200Z 32004KT 9999 FEW010 BKN025 24/23 A2992=
201211081300 METAR MRLM 081300Z 30004KT 9999 FEW010 BKN025 24/23 A2993=
201211081400 METAR MRLM 081400Z 31003KT 9999 SCT025 BKN080 25/23 A2994=
201211081500 METAR MRLM 081500Z 33007KT 9999 +DZ VCSH BKN020 26/23 A2995=
201211081600 METAR MRLM 081600Z 30005KT 9999 +DZ VCSH FEW015 BKN090 26/23 A2994=
201211081700 METAR MRLM 081700Z 29005KT 9999 BKN023 27/23 A2992 REDZ=
201211081800 METAR MRLM 081800Z 31004KT 9999 SCT038 SCT140 30/22 A2988=
201211081900 METAR MRLM 081900Z 07003KT 9999 BKN035 29/22 A2986=
201211082000 METAR MRLM 082000Z 34007KT 9999 SCT020 SCT030 29/23 A2984=
201211082100 METAR MRLM 082100Z 02010KT 8000 DZ VCSH BKN015 27/24 A2984=
201211082200 METAR MRLM 082200Z 06011KT 4000 RA BKN010 25/24 A2985=
201211082300 METAR MRLM 082300Z 23004KT 9999 DZVCSH FEW004 BKN015 24/23 A2986 RERA=
201211082357 METAR MRLM 090000Z 00000KT 9999 RA FEW005 BKN010 24/23 A2989=
201211090000 METAR MRLM 090000Z 00000KT 9999 RA FEW005 BKN010 24/23 A2989=
201211090100 METAR MRLM NIL=
201211090200 METAR MRLM NIL=
201211090300 METAR MRLM NIL=
201211090400 METAR MRLM NIL=
201211090500 METAR MRLM NIL=
201211090600 METAR MRLM NIL=
201211090700 METAR MRLM NIL=
201211090800 METAR MRLM NIL=
201211091200 METAR MRLM 091200Z 28005KT 7000 RA FEW003 BKN015 23/22 A2989=
201211091300 METAR MRLM 091300Z 30004KT 5000 RA FEW004 BKN015 23/22 A2990=
201211091400 METAR MRLM 091400Z 28005KT 9999 +DZ VCSH FEW005 BKN020 23/22 A2993=
201211091500 METAR MRLM 091500Z 28003KT 9999 +DZ VCSH FEW005 BKN020 24/23 A2993=
201211091600 METAR MRLM 091600Z 33005KT 9999 +DZ SCT007 BKN020 24/23 A2992=
201211091700 METAR MRLM 091700Z 32009KT 9999 +DZ VCSH SCT007 BKN020 23/22 A2992=
201211091800 METAR MRLM 091800Z 30008KT 9999 DZ VCSH FEW012 BKN150 24/22 A2987=
201211091900 METAR MRLM 091900Z 32007KT 9999 DZ FEW010 BKN025 24/22 A2984=
201211092000 METAR MRLM 092000Z 30010KT 9999 DZ SCT015 SCT140 24/22 A2981=
201211092100 METAR MRLM 092100Z 31006KT 9999 BKN025 24/22 A2980 REDZ=
201211092200 METAR MRLM 092200Z 24008KT 9999 FEW035 BKN150 24/22 A2981=
201211092300 METAR MRLM 092300Z 31007KT CAVOK 24/22 A2982=
201211092353 METAR MRLM 100000Z 31007KT CAVOK 24/22 A2983=
201211100000 METAR MRLM 100000Z 31007KT CAVOK 24/22 A2983=
201211100100 METAR MRLM NIL=
201211100200 METAR MRLM NIL=
201211100300 METAR MRLM NIL=
201211100400 METAR MRLM NIL=
201211100500 METAR MRLM NIL=
201211100600 METAR MRLM NIL=
201211100700 METAR MRLM NIL=
201211100800 METAR MRLM NIL=
201211100900 METAR MRLM NIL=
201211101000 METAR MRLM NIL=
201211101100 METAR MRLM NIL=
201211101200 METAR MRLM 101200Z 27004KT 9999 DZ SCT010 SCT090 22/21 A2989=
201211101300 METAR MRLM 101300Z 26003KT 9999 SCT010 BKN100 22/21 A2990=
201211101400 METAR MRLM 101400Z 24002KT 9999 FEW020 SCT110 26/22 A2991=
201211101500 METAR MRLM 101500Z 32004KT 9999 FEW020 SCT250 27/23 A2991=
201211101600 METAR MRLM 101600Z 30006KT 9999 FEW020 SCT130 29/22 A2989=
201211101700 METAR MRLM 101700Z 01008KT 9999 FEW030 SCT130 29/24 A2988=
201211101800 METAR MRLM 101800Z 02016KT 9999 FEW025 SCT120 28/24 A2986=
201211101900 METAR MRLM 101900Z 03007KT 9999 FEW030 BKN120 30/21 A2983=
201211102000 METAR MRLM 102000Z 01006KT 9999 SCT035 BKN120 30/22 A2981=
201211102100 METAR MRLM 102100Z 33005KT 9999 FEW030 BKN120 29/23 A2981=
201211102200 METAR MRLM 102200Z 30004KT 9999 FEW025 29/23 A2982=
201211102300 METAR MRLM 102300Z 31002KT 9999 SCT020 BKN120 28/24 A2984=
201211110000 METAR MRLM 110000Z 04015KT 9999 DZ VCSH BKN015 25/22 A2986=
201211110100 METAR MRLM NIL=
201211110200 METAR MRLM NIL=
201211110300 METAR MRLM NIL=
201211110400 METAR MRLM NIL=
201211110500 METAR MRLM NIL=
201211110600 METAR MRLM NIL=
201211110700 METAR MRLM NIL=
201211110800 METAR MRLM NIL=
201211110900 METAR MRLM NIL=
201211111000 METAR MRLM NIL=
201211111100 METAR MRLM NIL=
201211111200 METAR MRLM 111200Z 00000KT 9999 BKN015 SCT100 22/22 A2986=
201211111300 METAR MRLM 111300Z 30002KT 9999 SCT015 BKN100 24/22 A2988=
201211111400 METAR MRLM 111400Z 28003KT 9999 SCT015 BKN100 24/22 A2991=
201211111500 METAR MRLM 111500Z 26002KT 9999 SCT015 BKN110 25/23 A2993=
201211111510 METAR MRLM 111510Z 00000KT 6000 +RA BKN010 25/22 A2994=
201211111600 METAR MRLM 111600Z 25004KT 9999 SCT015 BKN110 25/24 A2992 RERA=
201211111700 METAR MRLM 111700Z 22007KT CAVOK 27/24 A2989=
201211111800 METAR MRLM 111800Z 13010KT 9999 SCT120 BKN120 28/25 A2986=
201211111900 METAR MRLM 111900Z 15013KT 9999 DZ VCSH SCT015 BKN120 26/23 A2986=
201211112000 METAR MRLM 112000Z 18004KT 9999 DZ VCSH SCT010 BKN100 24/22 A2985=
201211112100 METAR MRLM 112100Z 25004KT 9999 FEW010 BKN110 25/23 A2981 REDZ=
201211112200 METAR MRLM 112200Z 00000KT CAVOK 25/22 A2979=
201211112300 METAR MRLM 112300Z 27004KT 9999 FEW015 BKN120 25/23 A2981=
201211120000 METAR MRLM 120000Z 00000KT 9999 FEW010 BKN110 24/23 A2982=
201211120100 METAR MRLM NIL=
201211120200 METAR MRLM NIL=
201211120300 METAR MRLM NIL=
201211120400 METAR MRLM NIL=
201211120500 METAR MRLM NIL=
201211120600 METAR MRLM NIL=
201211120700 METAR MRLM NIL=
201211120800 METAR MRLM NIL=
201211120900 METAR MRLM NIL=
201211121000 METAR MRLM NIL=
201211121100 METAR MRLM NIL=
201211121200 METAR MRLM 30005KT 9999 DZ VCSH SCT008 SCT140 24/22 A2987=
201211121237 METAR MRLM 121237Z 30005KT 9999 DZ VCSH SCT008 SCT140 24/22 A2987=
201211121300 METAR MRLM 121300Z 33006KT 9999 VCSH FEW010 BKN100 24/22 A2988 REDZ=
201211121400 METAR MRLM 121400Z 34007KT 9999 FEW015 BKN140 25/22 A2990=
201211121500 METAR MRLM 121500Z 02006KT 9999 BKN015 26/23 A2992=
201211121600 METAR MRLM 121600Z 03002KT 9999 FEW025 BKN090 28/23 A2992=
201211121700 METAR MRLM 121700Z 06004KT 9999 SCT025 SCT090 28/23 A2989=
201211121800 METAR MRLM 121800Z 06006KT 9999 SCT025 SCT090 28/23 A2987=
201211121900 METAR MRLM 121900Z 04007KT 9999 FEW023 SCT140 28/24 A2983=
201211122000 METAR MRLM 122000Z 04009KT 9999 FEW022TCU SCT140 28/24 A2981=
201211122100 METAR MRLM 122100Z 05008KT 9999 FEW025 SCT140 28/24 2980=
201211122200 METAR MRLM 122200Z 06006KT 9999 SCT023 SCT080 28/23 A2981=
201211122300 METAR MRLM 122300Z 05003KT 9999 FEW020 BKN080 27/23 A2982=
201211122359 METAR MRLM 130000Z 00000KT 9999 FEW012 SCT035 SCT090 26/24 A2984=
201211130000 METAR MRLM 130000Z 00000KT 9999 FEW012 SCT035 SCT090 26/24 A2984=
201211130100 METAR MRLM NIL=
201211130200 METAR MRLM NIL=
201211130300 METAR MRLM NIL=
201211130400 METAR MRLM NIL=
201211130500 METAR MRLM NIL=
201211130600 METAR MRLM NIL=
201211130700 METAR MRLM NIL=
201211130800 METAR MRLM NIL=
201211130900 METAR MRLM NIL=
201211131000 METAR MRLM NIL=
201211131100 METAR MRLM NIL=
201211131200 METAR MRLM 131200Z 29004KT CAVOK 24/22 A2988=
201211131300 METAR MRLM 131300Z 31004KT CAVOK 26/23 A2989=
201211131400 METAR MRLM 131400Z 33004KT CAVOK 27/23 A2991=
201211131500 METAR MRLM 131500Z 02013KT 5000 RA BKN015 27/24 A2994=
201211131600 METAR MRLM 131600Z 27003KT 8000 +DZ FEW007 BKN020 25/24 A2994 RERA=
201211131700 METAR MRLM 131700Z 26003KT 9999 DZ FEW010 BKN080 26/24 A2990=
201211131800 METAR MRLM 131800Z 34006KT 9999 FEW015 BKN025 27/24 A2987 REDZ=
201211131900 METAR MRLM 131900Z 34005KT 9999 DZ FEW015 BKN025 27/23 A2984=
201211132000 METAR MRLM 132000Z 31005KT 9999 FEW020 BKN035 29/24 A2981 REDZ=
201211132100 METAR MRLM 132100Z 34005KT 9999 FEW020 SCT035 28/24 A2980=
201211132200 METAR MRLM 132200Z 35004KT 9999 DZ FEW025 SCT035 SCT110 28/23 A29890=
201211132300 METAR MRLM 132300Z 32003KT 9999 FEW015 BKN070 27/23 A2982 REDZ=
201211132357 METAR MRLM 14000Z 30004KT 9999 FEW015 BKN070 25/23 A2984=
201211140000 METAR MRLM 14000Z 30004KT 9999 FEW015 BKN070 25/23 A2984=
201211140100 METAR MRLM NIL=
201211140200 METAR MRLM NIL=
201211140300 METAR MRLM NIL=
201211140400 METAR MRLM NIL=
201211140500 METAR MRLM NIL=
201211140600 METAR MRLM NIL=
201211140700 METAR MRLM NIL=
201211140800 METAR MRLM NIL=
201211140900 METAR MRLM NIL=
201211141000 METAR MRLM NIL=
201211141100 METAR MRLM NIL=
201211141200 METAR MRLM 141200Z 04013KT 9999 -DZ BKN015 25/22 A2989=
201211141300 METAR MRLM 141300Z 02015KT 9999 BKN020 26/23 A2990=
201211141400 METAR MRLM 141400Z 26006KT 9999 BKN015 24/23 A2994=
201211141500 METAR MRLM 141500Z 30004KT 9999 DZ VCSH BKN015 25/23 A2995=
201211141600 METAR MRLM 141600Z 27007KT 9999 DZ VCSH FEW007 BKN015 24/23 A2994=
201211141630 METAR MRLM 141630Z 30005KT 2000 +RA SH OVC010 25/23 A2994=
201211141700 METAR MRLM 141700Z 06011KT 9999 DZ VCSH BKN010 24/23 A2993=
201211141800 METAR MRLM 141800Z 23003KT 9999 5000N RA BKN007 24/23 A2991=
201211141900 METAR MRLM 141900Z 10006KT 8000 3000N +RA BKN007 25/24 A2989=
201211142000 METAR MRLM 142000Z 26005KT 9999 DZ VCSH BKN010 23/23 A2986=
201211142100 METAR MRLM 142100Z 29006KT 9999 +DZ BKN007 23/22 A2987=
201211142200 METAR MRLM 142200Z 26003KT 9999 DZ OVC007 23/23 A2987=
201211142300 METAR MRLM 142300Z 26004KT 9999 FEW007 BKN010 23/23 A2987 REDZ=
201211150000 METAR MRLM 150000Z 25004KT 9999 FEW007 BKN010 23/23 A2988=
201211150100 METAR MRLM NIL=
201211150200 METAR MRLM NIL=
201211150300 METAR MRLM NIL=
201211150400 METAR MRLM NIL=
201211150500 METAR MRLM NIL=
201211150600 METAR MRLM NIL=
201211150700 METAR MRLM NIL=
201211150800 METAR MRLM NIL=
201211150900 METAR MRLM NIL=
201211151000 METAR MRLM NIL=
201211151100 METAR MRLM NIL=
201211151200 METAR MRLM 151200Z 26006KT 9999 FEW010 BKN110 23/24 A2991=
201211151300 METAR MRLM 151300Z 32005KT 9999 FEW015 BKN120 23/21 A2992=
201211151400 METAR MRLM 151400Z 31008KT 9999 FEW020 BKN250 25/21 A2995=
201211151500 METAR MRLM 151500Z 30008KT 9999 FEW025 SCT130 27/22 A2995=
201211151600 METAR MRLM 151600Z 29010KT 9999 FEW030 BKN260 28/22 A2994=
201211151700 METAR MRLM 151700Z 29008KT 9999 FEW030 BKN260 28/22 A2993=
201211151800 METAR MRLM 151800Z 31009KT 9999 FEW030 BKN270 29/22 A2989=
201211151900 METAR MRLM 151900Z 33009KT 9999 FEW040 SCT150 30/22 A2987=
201211152000 METAR MRLM 152000Z 35010KT 9999 FEW030 BKN130 28/22 A2985=
201211152100 METAR MRLM 152100Z 35009KT 9999 FEW030 BKN120 28/22 A2985=
201211152200 METAR MRLM 152200Z 35009KT 9999 FEW025 BKN120 27/22 A2985=
201211152300 METAR MRLM 152300Z 35007KT 9999 FEW020 BKN120 27/22 A2987=
201211160000 METAR MRLM 160000Z 33004KT 9999 FEW015 BKN110 26/22 A2989=
201211160100 METAR MRLM NIL=
201211160200 METAR MRLM NIL=
201211160300 METAR MRLM NIL=
201211160400 METAR MRLM NIL=
201211160500 METAR MRLM NIL=
201211160600 METAR MRLM NIL=
201211160700 METAR MRLM NIL=
201211160800 METAR MRLM NIL=
201211160900 METAR MRLM NIL=
201211161000 METAR MRLM NIL=
201211161100 METAR MRLM NIL=
201211161200 METAR MRLM 161200Z 28004KT 28004KT CAVOK 24/18 A2988=
201211161300 METAR MRLM 161300Z 29006KT CAVOK 24/18 A2990=
201211161400 METAR MRLM 161400Z 31007KT CAVOK 26/18 2991=
201211161500 METAR MRLM 161500Z 30008KT CAVOK 28/20 A29991=
201211161600 METAR MRLM 161600Z 29008KT CAVOK 28/21 A2991=
201211161700 METAR MRLM 161700Z 34010KT CAVOK 28/21 A2990=
201211161800 METAR MRLM 161800Z 33010KT 9000 RA FEW015 BKN028 27/22 A2987=
201211161900 METAR MRLM 161900Z 33011KT 9999 BKN035 28/21 A2986 RERA=
201211162000 METAR MRLM 162000Z 32008KT 9000 DZ BKN028 SCT090 26/20 A2986=
201211162100 METAR MRLM 162100Z 31007KT 9999 BKN015 26/23 A2983 REDZ=
201211162200 METAR MRLM 162200Z 31008KT 9999 FEW015 SCT025 SCT080 25/22 A2982=
201211162300 METAR MRLM 162300Z 32008KT 9999 SCT015 SCT080 25/22 A2983=
201211162355 METAR MRLM 170000Z 31009KT 9999 SCT015 SCT080 24/22 A2986=
201211170000 METAR MRLM 170000Z 31009KT 9999 SCT015 SCT080 24/22 A2986=
201211170100 METAR MRLM NIL=
201211170200 METAR MRLM NIL=
201211170300 METAR MRLM NIL=
201211170400 METAR MRLM NIL=
201211170500 METAR MRLM NIL=
201211170600 METAR MRLM NIL=
201211170700 METAR MRLM NIL=
201211170800 METAR MRLM NIL=
201211170900 METAR MRLM NIL=
201211171000 METAR MRLM NIL=
201211171100 METAR MRLM NIL=
201211171200 METAR MRLM 171200Z 32007KT 9999 FEW015 SCT090 25/22 A2992=
201211171300 METAR MRLM 171300Z 30008KT 9999 BKN015 25/23 A2992=
201211171400 METAR MRLM 171400Z 31008KT 9999 OVC015 26/23 A2993=
201211171500 METAR MRLM 171500Z 31012KT 9999 OVC015 26/23 A2994=
201211171600 METAR MRLM 171600Z 33012KT 9999 DZ VCSH OVC015 27/23 A2995=
201211171700 METAR MRLM 171700Z 29007KT 9999 DZ VCSH OVC012 26/24 A2993=
201211171800 METAR MRLM 171800Z 30010KT 9999 DZ VCSH OVC012 26/24 A2990=
201211171900 METAR MRLM 171900Z 32009KT 2000 +RA OVC014 26/23 A2991 REDZ=
201211172000 METAR MRLM 172000Z 29007KT 6000 +DZ VCSH SCT005 SCT015 24/23 A2991 RERA=
201211172100 METAR MRLM 172100Z 34008KT 9999 VCSH BKN012 25/23 A2988 REDZ=
201211172156 METAR MRLM 17200Z 31006KT 9999 DZ BKN010 25/23 A2989=
201211172200 METAR MRLM 17200Z 31006KT 9999 DZ BKN010 25/23 A2989=
201211172300 METAR MRLM 172300Z 32006KT 9999 SCT010 SCT090 24/22 A2991 REDZ=
201211172353 METAR MRLM 180000Z 32006KT 9999 DZ FEW010 BKN080 24/22 A2993=
201211180000 METAR MRLM 180000Z 32006KT 9999 DZ FEW010 BKN080 24/22 A2993=
201211180100 METAR MRLM NIL=
201211180200 METAR MRLM NIL=
201211180300 METAR MRLM NIL=
201211180400 METAR MRLM NIL=
201211180500 METAR MRLM NIL=
201211180600 METAR MRLM NIL=
201211180700 METAR MRLM NIL=
201211180800 METAR MRLM NIL=
201211180900 METAR MRLM NIL=
201211181000 METAR MRLM NIL=
201211181100 METAR MRLM NIL=
201211181200 METAR MRLM 181200Z 30009KT 8000 DZ VCSH BKN015 23/20 A2994=
201211181300 METAR MRLM 181300Z 31003KT 9999 DZ BKN015 23/20 A2996=
201211181400 METAR MRLM 181400Z 30007KT 8000 +DZ FEW007 BKN015 22/20 A2999=
201211181500 METAR MRLM 181500Z 28009KT 6000 RA FEW007 BKN010 21/20 A3001=
201211181600 METAR MRLM 181600Z 29008KT 3000 +RA OVC010 21/20 A3002=
201211181700 METAR MRLM 181700Z 28010KT 6000 RA BKN015 22/20 A2998=
201211181800 METAR MRLM 181800Z 28008KT 8000 +DZ BKN015 23/21 A2997 RERA=
201211181900 METAR MRLM 181900Z 28007KT 9999 DZ SCT015 SCT090 24/22 A2995=
201211182000 METAR MRLM 182000Z 28006KT 8000 DZ VCSH SCT015 SCT090 23/22 A2993=
201211182100 METAR MRLM 182100Z 28006KT 9999 DZ BKN010 23/21 A2992=
201211182200 METAR MRLM 182200Z 28007KT 9999 DZ VCSH BKN010 SCT080 23/21 A2992=
201211182300 METAR MRLM NIL=
201211190000 METAR MRLM 190000Z 28007KT 9999 -DZ BKN010 SCT090 22/21 A2993=
201211190100 METAR MRLM NIL=
201211190200 METAR MRLM NIL=
201211190300 METAR MRLM NIL=
201211190400 METAR MRLM NIL=
201211190500 METAR MRLM NIL=
201211190600 METAR MRLM NIL=
201211190700 METAR MRLM NIL=
201211190800 METAR MRLM NIL=
201211190900 METAR MRLM NIL=
201211191000 METAR MRLM NIL=
201211191100 METAR MRLM NIL=
201211191200 METAR MRLM 191200Z 29007KT 6000 DZ BKN010 22/21 A2994=
201211191300 METAR MRLM 191300Z 28007KT 9999 -DZ FEW006 BKN015 22/21 A2994=
201211191400 METAR MRLM 191400Z 28008KT 8000 DZ VCSH FEW006 BKN015 22/21 A2996=
201211191500 METAR MRLM 191500Z 29009KT 8000 DZ VCSH BKN015 23/21 A2996=
201211191600 METAR MRLM 191600Z 29010KT 9999 SCT015 SCT100 24/22 A2996=
201211191700 METAR MRLM 191700Z 29011KT 9999 SCT020 SCT100 24/20 A2993=
201211191800 METAR MRLM NIL=
201211191900 METAR MRLM 191900Z 30009KT 9999 -DZ SCT020 SCT110 25/21 A2987=
201211192000 METAR MRLM 192000Z 31008KT 9999 DZ BKN020 SCT110 24/21 A2986=
201211192100 METAR MRLM 192100Z 29008KT 8000 DZ BKN015 23/21 A2985=
201211192200 METAR MRLM 192200Z 29006KT 9999 DZ FEW007 BKN015 23/22 A2985=
201211192300 METAR MRLM 192300Z 29007KT 9000 4000N +DZ BKN010 SCT100 23/22 A2985=
201211200000 METAR MRLM 200000Z 28006KT 6000 DZ OVC010 22/22 2986=
201211200100 METAR MRLM NIL=
201211200200 METAR MRLM NIL=
201211200300 METAR MRLM NIL=
201211200400 METAR MRLM NIL=
201211200500 METAR MRLM NIL=
201211200600 METAR MRLM NIL=
201211200700 METAR MRLM NIL=
201211200800 METAR MRLM NIL=
201211200900 METAR MRLM NIL=
201211201000 METAR MRLM NIL=
201211201100 METAR MRLM NIL=
201211201200 METAR MRLM NIL=
201211201300 METAR MRLM NIL=
201211201400 METAR MRLM NIL=
201211201410 METAR MRLM 201410Z 31006KT 9999 DZ FEW007 BKN020 23/22 A2998=
201211201500 METAR MRLM 201500Z 30008KT 9999 -DZ FEW010 SCT020 24/22 A2991=
201211201600 METAR MRLM 201600Z 31010KT 9999 SCT020 BKN110 26/22 A2990=
201211201625 METAR MRLM 201625Z 32010KT 8000 3000N +DZ FEW007 BKN015 24/22 A2990=
201211201700 METAR MRLM 201700Z 30010KT 9999 -DZ VCSH SCT010 SCT090 24/22 A2989=
201211201800 METAR MRLM 201800Z 30010KT 9999 SCT015 SCT100 25/22 A2986=
201211201900 METAR MRLM 201900Z 31008KT 9999 SCT020 SCT110 26/22 A2983=
201211202000 METAR MRLM 202000Z 31009KT 9999 SCT020 SCT110 26/22 A2981=
201211202100 METAR MRLM 202100Z 30008KT 9999 SCT020 BKN110 26/23 A2980=
201211202200 METAR MRLM NIL=
201211202300 METAR MRLM NIL=
201211210000 METAR MRLM NIL=
201211210100 METAR MRLM NIL=
201211210200 METAR MRLM NIL=
201211210300 METAR MRLM NIL=
201211210400 METAR MRLM NIL=
201211210500 METAR MRLM NIL=
201211210600 METAR MRLM NIL=
201211210700 METAR MRLM NIL=
201211210800 METAR MRLM NIL=
201211210900 METAR MRLM NIL=
201211211000 METAR MRLM NIL=
201211211100 METAR MRLM NIL=
201211211200 METAR MRLM NIL=
201211211300 METAR MRLM 211300Z 28006KT 9999 SCT010 BKN100 24/22 A2990=
201211211400 METAR MRLM 211400Z 30007KT 9999 FEW015 BKN110 24/23 A2992=
201211211500 METAR MRLM 211500Z 30007KT 9999 SCT015 BKN110 25/23 A2993=
201211211600 METAR MRLM 211600Z 32008KT 9999 BKN020 SCT110 27/23 A2992=
201211211700 METAR MRLM 211700Z 34006KT 9999 DZ VCSH BKN015 26/28 A2992=
201211211800 METAR MRLM 211800Z 02008KT 9999 -DZ BKN015 SCT110 26/23 A2990=
201211211900 METAR MRLM 211900Z 35006KT 9999 DZ VCSH BKN015 SCT100 26/24 A2987=
201211212000 METAR MRLM 212000Z 35008KT 9999 SCT020 SCT110 26/23 A2986 REDZ=
201211212100 METAR MRLM 212100Z 33004KT 9999 SCT015 SCT110 26/23 A2986=
201211212200 METAR MRLM NIL=
201211212300 METAR MRLM NIL=
201211220000 METAR MRLM NIL=
201211220100 METAR MRLM NIL=
201211220200 METAR MRLM NIL=
201211220300 METAR MRLM NIL=
201211220400 METAR MRLM NIL=
201211220500 METAR MRLM NIL=
201211220600 METAR MRLM NIL=
201211220700 METAR MRLM NIL=
201211220800 METAR MRLM NIL=
201211220900 METAR MRLM NIL=
201211221000 METAR MRLM NIL=
201211221100 METAR MRLM NIL=
201211221200 METAR MRLM NIL=
201211221300 METAR MRLM 221300Z 28002KT 9999 SCT010 BKN100 23/21 A2994=
201211221400 METAR MRLM 221400Z 29005KT 9999 SCT010 BKN110 23/21 A2996=
201211221500 METAR MRLM 221500Z 30006KT 9999 FEW020 BKN110 24/21 A2997=
201211221600 METAR MRLM 221600Z 30012KT 9999 FEW025 BKN120 26/21 A2986=
201211221700 METAR MRLM 221700Z 31010KT 9999 FEW025 BKN120 26/21 A2995=
201211221800 METAR MRLM 221800Z 32010KT 9999 SCT020 BKN110 25/21 A2993=
201211221820 METAR MRLM 221820Z 32010KT 8000 3000N +DZ SCT015 SCT100 24/22 A2992=
201211221900 METAR MRLM 221900Z 32008KT 9999 DZ VCSH SCT015 BKN100 24/22 A2991=
201211222000 METAR MRLM 222000Z 32007KT 9999 DZ VCSH FEW008 SCT015 24/22 A2991=
201211222100 METAR MRLM 222100Z 31008KT 9999 4000N DZ BKN010 23/22 A2990=
201211222200 METAR MRLM NIL=
201211222300 METAR MRLM NIL=
201211230000 METAR MRLM NIL=
201211230100 METAR MRLM NIL=
201211230200 METAR MRLM NIL=
201211230300 METAR MRLM NIL=
201211230400 METAR MRLM NIL=
201211230500 METAR MRLM NIL=
201211230600 METAR MRLM NIL=
201211230700 METAR MRLM NIL=
201211230800 METAR MRLM NIL=
201211230900 METAR MRLM NIL=
201211231000 METAR MRLM NIL=
201211231100 METAR MRLM NIL=
201211231200 METAR MRLM NIL=
201211231300 METAR MRLM 231300Z 33006KT 8000 -DZ VCSH FEW007 BKN010 22/21 A2999=
201211231400 METAR MRLM 231400Z 27007KT 9999 DZ SCT010 SCT080 23/21 A2999=
201211231500 METAR MRLM 231500Z 26006KT 9999 -DZ BKN015 SCT090 24/21 A2998=
201211231600 METAR MRLM 231600Z 29002KT 9999 SCT015 BKN100 24/21 A2999=
201211231700 METAR MRLM 231700Z 27005KT 8000 DZ VCSH BKN015 SCT090 23/21 A2997=
201211231800 METAR MRLM 231800Z 24005KT 9999 FEW007 SCT015 23/22 A2994=
201211231900 METAR MRLM 231900Z 24004KT 9999 SCT015 SCT100 24/22 A2992=
201211232000 METAR MRLM 232000Z 21002KT 9999 SCT015 SCT100 25/22 A2990=
201211232100 METAR MRLM 232100Z 30007KT 7000 3000N DZ BKN010 23/22 A2990=
201211232200 METAR MRLM NIL=
201211232300 METAR MRLM NIL=
201211240000 METAR MRLM NIL=
201211240100 METAR MRLM NIL=
201211240200 METAR MRLM NIL=
201211240300 METAR MRLM NIL=
201211240400 METAR MRLM NIL=
201211240500 METAR MRLM NIL=
201211240600 METAR MRLM NIL=
201211240700 METAR MRLM NIL=
201211240800 METAR MRLM NIL=
201211240900 METAR MRLM NIL=
201211241000 METAR MRLM NIL=
201211241100 METAR MRLM NIL=
201211241200 METAR MRLM NIL=
201211241300 METAR MRLM 241300Z 31010KT 9999 FEW025 BKN110 23/17 A2997=
201211241400 METAR MRLM 241400Z 31011KT CAVOK 23/17 A2999=
201211241500 METAR MRLM 241500Z 31010KT 9999 SCT030 BKN120 24/17 A3000=
201211241600 METAR MRLM 241600Z 31011KT 9999 FEW030 BKN130 24/18 A3000=
201211241700 METAR MRLM 241700Z 31011KT CAVOK 25/18 A2998=
201211241800 METAR MRLM 241800Z 32012KT 9999 -DZ FEW025 BKN120 23/18 A2996=
201211241900 METAR MRLM 241900Z 30012KT 9999 -DZ FEW025 BKN120 23/18 A2993=
201211242000 METAR MRLM 242000Z 30007KT 9999 SCT020 BKN120 22/18 A2992=
201211242100 METAR MRLM 242100Z 28009KT 9999 FEW020 BKN120 23/19 A2990=
201211242200 METAR MRLM NIL=
201211242300 METAR MRLM NIL=
201211250000 METAR MRLM NIL=
201211250100 METAR MRLM NIL=
201211250200 METAR MRLM NIL=
201211250300 METAR MRLM NIL=
201211250400 METAR MRLM NIL=
201211250500 METAR MRLM NIL=
201211250600 METAR MRLM NIL=
201211250700 METAR MRLM NIL=
201211250800 METAR MRLM NIL=
201211250900 METAR MRLM NIL=
201211251000 METAR MRLM NIL=
201211251100 METAR MRLM NIL=
201211251200 METAR MRLM NIL=
201211251300 METAR MRLM 251300Z 30009KT 9999 BKN010 21/20 A2995=
201211251400 METAR MRLM 251400Z 30008KT 9999 DZ FEW007 BKN010 22/20 A29970=
201211251500 METAR MRLM 251500Z 29008KT 9999 DZ VCSH FEW007 BKN015 22/20 A2999=
201211251600 METAR MRLM 251600Z 28005KT 9999 DZ BKN015 23/21 A2998=
201211251700 METAR MRLM 251700Z 29006KT 9999 DZ BKN015 SCT090 23/21 A2996=
201211251800 METAR MRLM 251800Z 28007KT 9999 SCT015 SCT100 24/21 A2993 REDZ=
201211251900 METAR MRLM 251900Z 28005KT 9999 DZ BKN015 SCT100 24/21 A2990=
201211252000 METAR MRLM 252000Z 28006KT 9999 -DZ SCT020 BKN110 24/21 A29870=
201211252100 METAR MRLM 252100Z 29006KT 9999 DZ VCSH BKN015 SCT100 23/21 A2986=
201211252200 METAR MRLM NIL=
201211252300 METAR MRLM NIL=
201211260000 METAR MRLM NIL=
201211260100 METAR MRLM NIL=
201211260200 METAR MRLM NIL=
201211260300 METAR MRLM NIL=
201211260400 METAR MRLM NIL=
201211260500 METAR MRLM NIL=
201211260600 METAR MRLM NIL=
201211260700 METAR MRLM NIL=
201211260800 METAR MRLM NIL=
201211260900 METAR MRLM NIL=
201211261000 METAR MRLM NIL=
201211261100 METAR MRLM NIL=
201211261200 METAR MRLM NIL=
201211261300 METAR MRLM 261300Z 30004KT 9999 BKN010 SCT110 25/23 A2992=
201211261400 METAR MRLM 261400Z 27005KT 9999 SCT020 SCT130 28/24 A2994=
201211261500 METAR MRLM 261500Z 31004KT 9999 BKN020 SCT120 29/24 A2994=
201211261600 METAR MRLM 261600Z 33004KT 9999 SCT020 SCT120 29/24 A2993=
201211261700 METAR MRLM 261700Z 33004KT 9999 BKN025 29/24 A2991=
201211261800 METAR MRLM 261800Z 33005KT 9999 FEW030 SCT120 29/24 A2988=
201211261900 METAR MRLM 261900Z 31004KT 9999 SCT025 SCT130 29/24 A2985=
201211262000 METAR MRLM 262000Z 32004KT 9999 SCT030 SCT130 29/24 A2984=
201211262100 METAR MRLM 262100Z 33006KT 9999 -DZ SCT025 SCT120 28/24 A2983=
201211262200 METAR MRLM NIL=
201211262300 METAR MRLM NIL=
201211270000 METAR MRLM NIL=
201211270100 METAR MRLM NIL=
201211270200 METAR MRLM NIL=
201211270300 METAR MRLM NIL=
201211270400 METAR MRLM NIL=
201211270500 METAR MRLM NIL=
201211270600 METAR MRLM NIL=
201211270700 METAR MRLM NIL=
201211270800 METAR MRLM NIL=
201211270900 METAR MRLM NIL=
201211271000 METAR MRLM NIL=
201211271100 METAR MRLM NIL=
201211271200 METAR MRLM NIL=
201211271300 METAR MRLM 271300Z 00000KT CAVOK 25/22 A2989=
201211271400 METAR MRLM 271400Z 30003KT 9999 FEW025 BKN140 27/23 A2992=
201211271500 METAR MRLM 271500Z 32004KT 9999 SCT020 BKN130 28/23 A2994=
201211271600 METAR MRLM 271600Z 33005KT 9999 SCT030 BKN120 28/23 A2994=
201211271700 METAR MRLM 271700Z 33004KT 9999 SCT025 BKN120 29/24 A2991=
201211271800 METAR MRLM 271800Z 01009KT 9999 SCT020 BKN120 28/24 A2989=
201211271900 METAR MRLM 271900Z 01010KT 9999 FEW020 BKN130 29/25 A2986=
201211272000 METAR MRLM 272000Z 03011KT 9999 SCT015 SCT120 27/25 A2985=
201211272100 METAR MRLM 272100Z 07009KT 9999 SCT015 SCT110 27/25 A2985=
201211272200 METAR MRLM NIL=
201211272300 METAR MRLM NIL=
201211280100 METAR MRLM NIL=
201211280200 METAR MRLM NIL=
201211280300 METAR MRLM NIL=
201211280400 METAR MRLM NIL=
201211280500 METAR MRLM NIL=
201211280600 METAR MRLM NIL=
201211280700 METAR MRLM NIL=
201211280800 METAR MRLM NIL=
201211280900 METAR MRLM NIL=
201211281000 METAR MRLM NIL=
201211281100 METAR MRLM NIL=
201211281200 METAR MRLM 281200Z 29003KT 4000 TSRA FEW003 SCTCB010 SCT015 24/24 A2993=
201211281300 METAR MRLM 281300Z 30005KT 8000 DZ VCSH BKN015 24/23 A2995 RETSRA=
201211281400 METAR MRLM 26004KT 9999 VCTSRA FEWCB010 BKN015 25/24 A2996 REDZ=
201211281406 METAR MRLM 281406Z 26004KT 9999 VCTSRA FEWCB010 BKN015 25/24 A2996 REDZ=
201211281500 METAR MRLM 281500Z 21004KT 9999 BKN015 25/24 A2998=
201211281600 METAR MRLM 281600Z 22004KT 9999 BKN012 25/24 A2997=
201211281700 METAR MRLM 281700Z 24005KT 9999 FEW015 BKN100 27/24 A2994=
201211281800 METAR MRLM 281800Z 20002KT 9999 FEW025 BKN250 29/25 A2992=
201211281900 METAR MRLM 281900Z 17004KT 9999 SCT022 SCT250 29/25 A2988=
201211282000 METAR MRLM 282000Z 18003KT 9999 BKN025 SCT260 30/25 A2987=
201211282100 METAR MRLM 282100Z 13006KT 9999 FEW015 BKN150 29/25 A2987=
201211282200 METAR MRLM NIL=
201211282211 METAR MRLM 282211Z 17003KT CAVOK 28/25 A2986=
201211282300 METAR MRLM 282300Z 15005KT CAVOK 27/25 A2987=
201211282356 METAR MRLM 290000Z 05010KT CAVOK 27/26 A2990=
201211290000 METAR MRLM 290000Z 05010KT CAVOK 27/26 A2990=
201211290100 METAR MRLM NIL=
201211290200 METAR MRLM NIL=
201211290300 METAR MRLM NIL=
201211290400 METAR MRLM NIL=
201211290500 METAR MRLM NIL=
201211290600 METAR MRLM NIL=
201211290700 METAR MRLM NIL=
201211290800 METAR MRLM NIL=
201211290900 METAR MRLM NIL=
201211291000 METAR MRLM NIL=
201211291100 METAR MRLM NIL=
201211291200 METAR MRLM 29121Z 26002KT 9999 DZ VCSH FEW020 SCT090 SCT140 23/22 A2995=
201211291221 METAR MRLM 29121Z 26002KT 9999 DZ VCSH FEW020 SCT090 SCT140 23/22 A2995=
201211291300 METAR MRLM 291300Z 16004KT 8000 RA SCT020 SCT140 23/22 A2997 REDZ=
201211291400 METAR MRLM 291400Z 15003KT 9999 +DZ SCT015 SCT140 23/22 A2998 RERA=
201211291500 METAR MRLM 291500Z 25002KT 9999 +DZ SCT015 BKN090 24/23 A2999=
201211291600 METAR MRLM 291600Z 26002KT 9999 RA BKN015 24/23 A2999=
201211291700 METAR MRLM 291700Z 29004KT 9999 +DZ FEW006 OVC020 25/23 A2996 RERA=
201211291800 METAR MRLM 291800Z 27004KT 8000 RA FEW008 BKN015 25/23 A2995 REDZ=
201211291900 METAR MRLM 291900Z 24006KT 9999 FEW008 SCT025 25/23 A2992 RERA=
201211292000 METAR MRLM 292000Z 24006KT 9999 FEW010 BKN023 26/23 A2990=
201211292100 METAR MRLM 292100Z 29004KT 9999 OVC025 26/23 A2989=
201211292200 METAR MRLM 292200Z 27003KT 8000 +DZ VCSH BKN020 25/24 A2990=
201211292300 METAR MRLM 292300Z 29003KT 9999 DZ VCSH FEW010 BKN020 25/23 A2991=
201211300000 METAR MRLM NIL=
201211300100 METAR MRLM NIL=
201211300200 METAR MRLM NIL=
201211300300 METAR MRLM NIL=
201211300400 METAR MRLM NIL=
201211300500 METAR MRLM NIL=
201211300600 METAR MRLM NIL=
201211300700 METAR MRLM NIL=
201211300800 METAR MRLM NIL=
201211300900 METAR MRLM NIL=
201211301000 METAR MRLM NIL=
201211301100 METAR MRLM NIL=
201211301200 METAR MRLM 301200Z 24006KT 9999 FEW010 BKN120 23/22 A2993=
201211301300 METAR MRLM 301300Z 27003KT 9999 FEW010 BKN120 24/23 A2994=
201211301400 METAR MRLM 301400Z 00000KT 9999 FEW015 BKN130 26/23 A2996=
201211301500 METAR MRLM 301500Z 00000KT CAVOK 28/24 A2996=
201211301600 METAR MRLM 301600Z 03004KT CAVOK 27/24 A2997=
201211301700 METAR MRLM 301700Z 36003KT 9999 FEW020 BKN120 28/24 A2995=
201211301800 METAR MRLM 301800Z 33004KT 9999 FEW020 BKN130 28/24 A2993=
201211301900 METAR MRLM 301900Z 33004KT 9999 FEW020 BKN130 28/24 A2990=
201211302000 METAR MRLM 302000Z 02005KT 9999 FEW015 BKN140 27/24 A2988=
201211302100 METAR MRLM 302100Z 33004KT 9999 FEW015 BKN140 27/24 A2986=
201211302200 METAR MRLM 302200Z 34004KT 9999 FEW015 BKN140 27/24 A2987=
201211302300 METAR MRLM 302300Z 33002KT CAVOK 26/24 A2988=
201212010100 METAR MRLM NIL=
201212010200 METAR MRLM NIL=
201212010300 METAR MRLM NIL=
201212010400 METAR MRLM NIL=
201212010500 METAR MRLM NIL=
201212010600 METAR MRLM NIL=
201212010700 METAR MRLM NIL=
201212010800 METAR MRLM NIL=
201212010900 METAR MRLM NIL=
201212011000 METAR MRLM NIL=
201212011100 METAR MRLM NIL=
201212011200 METAR MRLM 011200Z 25005KT CAVOK 22/20 A2993=
201212011300 METAR MRLM 011300Z 26004KT CAVOK 22/20 A2994=
201212011400 METAR MRLM 011400Z 00000KT CAVOK 26/22 A2997=
201212011500 METAR MRLM 011500Z 27003KT CAVOK 27/21 A2997=
201212011600 METAR MRLM 011600Z 33003KT CAVOK 29/22 A2997=
201212011700 METAR MRLM 011700Z 34007KT 9999 FEW035 SCT130 29/22 A2995=
201212011800 METAR MRLM 011800Z 36007KT 9999 SCT030 SCT130 29/24 A2992=
201212011900 METAR MRLM 011900Z 01011KT 9999 FEW030 SCT140 29/24 A2990=
201212012000 METAR MRLM 012000Z 01012KT 9999 FEW025 SCT130 28/23 A2988=
201212012100 METAR MRLM 012100Z 01008KT 9999 FEW025 BKN130 28/23 A2988=
201212012200 METAR MRLM 012200Z 02007KT 9999 FEW025 BKN120 27/22 A2989=
201212012300 METAR MRLM 012300Z 34005KT 9999 BKN015 SCT110 26/23 A2991=
201212020000 METAR MRLM 020000Z 30003KT 9999 SCT015 BKN110 25/23 A2992=
201212020100 METAR MRLM NIL=
201212020200 METAR MRLM NIL=
201212020300 METAR MRLM NIL=
201212020400 METAR MRLM NIL=
201212020500 METAR MRLM NIL=
201212020600 METAR MRLM NIL=
201212020700 METAR MRLM NIL=
201212020800 METAR MRLM NIL=
201212020900 METAR MRLM NIL=
201212021000 METAR MRLM NIL=
201212021100 METAR MRLM NIL=
201212021200 METAR MRLM 021200Z 30005 9999 FEW035 BKN080 23/21 A2994=
201212021300 METAR MRLM 021300Z 29004KT 9999 BKN025 23/21 A2996=
201212021400 METAR MRLM 021400Z 32006KT 9999 DZ BKN020 24/22 A2998=
201212021500 METAR MRLM 02154 78767 021500Z 32007KT 9999 SCT010 SCT020 25/23 A2989 REDZ=
201212021600 METAR MRLM 021600Z 31005KT 9999 SCT013 SCT025 25/23 A2999=
201212021700 METAR MRLM 021700Z 31005KT 8000 +DZ VCSH SCT012 SCT080 25/23 A2997=
201212021800 METAR MRLM 021800Z 31005KT 9999 FEW010 SCT030 27/23 A2994 REDZ=
201212021900 METAR MRLM 021900Z 02008KT 9999 SCT018 SCT025 27/24 A2991=
201212022000 METAR MRLM 022000Z 35007KT 9999 SCT018 SCT070 26/23 A2989=
201212022100 METAR MRLM 022100Z 01010KT 9999 FEW025 BKN080 27/22 A2989=
201212022200 METAR MRLM 022200Z 04008KT 9999 FEW020 SCT070 SCT090 26/22 A2989=
201212022300 METAR MRLM 022300Z 29004KT 9999 FEW015 SCT070 SCT090 25/22 A2989=
201212022357 METAR MRLM 030000Z 29004KT 9999 FEW025 BKN070 25/22 A2990=
201212030000 METAR MRLM 030000Z 29004KT 9999 FEW025 BKN070 25/22 A2990=
201212030100 METAR MRLM NIL=
201212030200 METAR MRLM NIL=
201212030300 METAR MRLM NIL=
201212030400 METAR MRLM NIL=
201212030500 METAR MRLM NIL=
201212030600 METAR MRLM NIL=
201212030700 METAR MRLM NIL=
201212030800 METAR MRLM NIL=
201212030900 METAR MRLM NIL=
201212031000 METAR MRLM NIL=
201212031100 METAR MRLM NIL=
201212031200 METAR MRLM NIL=
201212031217 METAR MRLM 031217Z 25005KT CAVOK 22/21 A2992=
201212031300 METAR MRLM 031300Z 29002KT CAVOK 23/21 A2994=
201212031400 METAR MRLM 031400Z 33002KT CAVOK 25/22 A2996=
201212031500 METAR MRLM 031500Z 00000KT CAVOK 27/22 A2997=
201212031600 METAR MRLM 031600Z 01007KT 9999 FEW032 BKN090 29/22 A2997=
201212031700 METAR MRLM 031700Z 03009KT 9999 FEW025 SCT110 28/23 A2995=
201212031800 METAR MRLM 031800Z 03008KT 9999 FEW025 BKN120 28/23 A2992=
201212031900 METAR MRLM 031900Z 02010KT 9999 FEW025 SCT130 28/24 A2989=
201212032000 METAR MRLM 032000Z 02008KT 9999 FEW025 SCT130 29/23 A2988=
201212032100 METAR MRLM 032100Z 03007KT 9999 FEW025 SCT280 28/23 A2986=
201212032200 METAR MRLM 032200Z 02008KT 9999 FEW025 BKN270 28/23 A2986=
201212032300 METAR MRLM 032300Z 36006KT 9999 FEW022 BKN270 27/23 A2987=
201212032356 METAR MRLM 040000Z 29002KT 9999 FEW012 BKN270 25/23 A2989=
201212040000 METAR MRLM 040000Z 29002KT 9999 FEW012 BKN270 25/23 A2989=
201212040100 METAR MRLM NIL=
201212040200 METAR MRLM NIL=
201212040300 METAR MRLM NIL=
201212040400 METAR MRLM NIL=
201212040500 METAR MRLM NIL=
201212040600 METAR MRLM NIL=
201212040700 METAR MRLM NIL=
201212040800 METAR MRLM NIL=
201212040900 METAR MRLM NIL=
201212041000 METAR MRLM NIL=
201212041100 METAR MRLM NIL=
201212041200 METAR MRLM 041200Z 25004KT CAVOK 22/20 A2992=
201212041300 METAR MRLM 041300Z 25003KT CAVOK 23/21 A2994=
201212041400 METAR MRLM 041400Z 25003KT CAVOK 26/22 A2996=
201212041500 METAR MRLM 041500Z 30004KT 9999 FEW040 29/21 A2996=
201212041600 METAR MRLM 041600Z 03007KT 9999 FEW040 SCT140 29/22 A2996=
201212041700 METAR MRLM 041700Z 03007KT 9999 FEW030 SCT140 29/23 A2994=
201212041800 METAR MRLM 041800Z 03008KT 9999 FEW030 SCT130 29/23 A2992=
201212041900 METAR MRLM 041900Z 02009KT 9999 FEW025 SCT130 28/23 A2990=
201212042000 METAR MRLM 042000Z 02010KT 9999 FEW025 SCT130 29/24 A2988=
201212042100 METAR MRLM 042100Z 01008KT 9999 FEW025 SCT120 28/23 A2987=
201212042200 METAR MRLM 042200Z 02010KT 9999 SCT020 SCT120 27/23 A2988=
201212042300 METAR MRLM 042300Z 03013KT 9999 SCT015 SCT110 26/23 A2988=
201212050000 METAR MRLM 050000Z 02008KT 9999 SCT015 BKN110 25/23 A2990=
201212050100 METAR MRLM NIL=
201212050200 METAR MRLM NIL=
201212050300 METAR MRLM NIL=
201212050400 METAR MRLM NIL=
201212050500 METAR MRLM NIL=
201212050600 METAR MRLM NIL=
201212050700 METAR MRLM NIL=
201212050800 METAR MRLM NIL=
201212050900 METAR MRLM NIL=
201212051000 METAR MRLM NIL=
201212051100 METAR MRLM NIL=
201212051200 METAR MRLM 051200Z 00000KT 9999 SCT015 BKN110 23/22 A2992=
201212051300 METAR MRLM 051300Z 24004KT 9999 FEW015 BKN110 23/22 A2994=
201212051400 METAR MRLM 051400Z 00000KT 9999 SCT015 SCT110 25/22 A2997=
201212051500 METAR MRLM 051500Z 00000KT 9999 FEW020 SCT120 27/22 A2998=
201212051600 METAR MRLM 051600Z 09004KT 9999 FEW030 SCT130 28/22 A2996=
201212051700 METAR MRLM 051700Z 08005KT 9999 FEW025 SCT250 28/23 A2994=
201212051800 METAR MRLM 051800Z 06006KT 9999 FEW030 BKN250 29/23 A2990=
201212051900 METAR MRLM 051900Z 04010KT 9999 FEW030 BKN260 29/23 A2987=
201212052000 METAR MRLM 052000Z 02010KT 9999 FEW030 BKN260 29/22 A2986=
201212052100 METAR MRLM 052100Z 01011KT 9999 FEW030 BKN250 28/23 A2985=
201212052200 METAR MRLM 052200Z 35005KT 9999 FEW025 BKN250 27/22 A2985=
201212052300 METAR MRLM 052300Z 34004KT 9999 SCT020 SCT140 27/23 A2986=
201212060000 METAR MRLM 060000Z 00000KT 9999 FEW015 BKN130 25/23 A2988=
201212060100 METAR MRLM NIL=
201212060200 METAR MRLM NIL=
201212060300 METAR MRLM NIL=
201212060400 METAR MRLM NIL=
201212060500 METAR MRLM NIL=
201212060600 METAR MRLM NIL=
201212060700 METAR MRLM NIL=
201212060800 METAR MRLM NIL=
201212060900 METAR MRLM NIL=
201212061000 METAR MRLM NIL=
201212061100 METAR MRLM NIL=
201212061200 METAR MRLM NIL=
201212061220 METAR MRLM 061220Z 26005KT CAVOK 22/21 A2987=
201212061300 METAR MRLM 061300Z 25003KT CAVOK 24/22 A2989=
201212061400 METAR MRLM 061400Z 33008KT CAVOK 28/22 A2990=
201212061500 METAR MRLM 061500Z 34008KT 9999 SCT028 SCT120 28/23=
201212061600 METAR MRLM 061600Z 34010KT 9999 FEW028 BKN090 29/23 A2989=
201212061700 METAR MRLM 061700Z 35014KT 9999 FEW025 BKN080 28/22 A2988=
201212061800 METAR MRLM 061800Z 35012KT 9999 FEW028 BKN090 28/23 A2985=
201212061900 METAR MRLM 061900Z 33013KT 9999 FEW028 BKN080 28/23 A2983=
201212062000 METAR MRLM 062000Z 34013KT 9999 FEW020 BKN100 27/22 A2981=
201212062100 METAR MRLM 062100Z 33011KT 9999 FEW022 SCT110 SCT130 26/22 A2980=
201212062200 METAR MRLM 062200Z 32006KT CAVOK 26/21 A2980=
201212062300 METAR MRLM NIL=
201212062307 METAR MRLM 062307Z 34006KT 9999 FEW023 BKN090 26/21 A2992=
201212062356 METAR MRLM 070000Z 31004KT 9999 FEW018 BKN090 25/22 A2984=
201212070000 METAR MRLM 070000Z 31004KT 9999 FEW018 BKN090 25/22 A2984=
201212070100 METAR MRLM NIL=
201212070200 METAR MRLM NIL=
201212070300 METAR MRLM NIL=
201212070400 METAR MRLM NIL=
201212070500 METAR MRLM NIL=
201212070600 METAR MRLM NIL=
201212070700 METAR MRLM NIL=
201212070800 METAR MRLM NIL=
201212070900 METAR MRLM NIL=
201212071000 METAR MRLM NIL=
201212071100 METAR MRLM NIL=
201212071200 METAR MRLM NIL=
201212071226 METAR MRLM 071226Z 32005KT 9999 FEW010 SCT025 SCT090 23/21 A2987=
201212071300 METAR MRLM 071300Z 31007KT 9999 DZ FEW010 SCT020 23/21 A2988=
201212071400 METAR MRLM 071400Z 32007KT 9999 FEW015 BKN090 25/22 A2990 REDZ=
201212071500 METAR MRLM 071500Z 31007KT 9999 FEW018 SCT025 SCT080 26/22 A2990=
201212071600 METAR MRLM 071600Z 30007KT 9999 FEW028 BKN070 27/22 A2988=
201212071700 METAR MRLM 071700Z 32006KT 9999 FEW035 BKN070 29/22 A29/22 A2985=
201212071800 METAR MRLM 071800Z 36007KT 9999 FEW035 BKN090 29/22 A2983=
201212071900 METAR MRLM 071900Z 36007KT 9999 FEW030 BKN080 28/22 A2980=
201212072000 METAR MRLM 072000Z 35009KT 9999 FEW028 BKN090 29/22 A2976=
201212072100 METAR MRLM 072100Z 34006KT 9999 FEW035 SCT140 29/22 A2977=
201212072200 METAR MRLM 072200Z 36009KT 9999 FEW025 28/23 A2976=
201212072300 METAR MRLM 072300Z 33004KT 9999 FEW015 BKN120 26/22 A2980=
201212072357 METAR MRLM 080000Z 32004KT 9999 FEW013 BKN090 25/23 A2982=
201212080000 METAR MRLM 080000Z 32004KT 9999 FEW013 BKN090 25/23 A2982=
201212080100 METAR MRLM NIL=
201212080200 METAR MRLM NIL=
201212080300 METAR MRLM NIL=
201212080400 METAR MRLM NIL=
201212080500 METAR MRLM NIL=
201212080600 METAR MRLM NIL=
201212080700 METAR MRLM NIL=
201212080800 METAR MRLM NIL=
201212080900 METAR MRLM NIL=
201212081000 METAR MRLM NIL=
201212081100 METAR MRLM NIL=
201212081200 METAR MRLM 081200Z 25003KT 8000 3000N +DZ BKN007 22/22 A2988=
201212081300 METAR MRLM 081300Z 00000KT 8000 DZ BKN010 23/22 A2989=
201212081400 METAR MRLM 081400Z 28006KT 9999 -DZ BKN010 SCT100 23/22 A2990=
201212081500 METAR MRLM 081500Z 30007KT 9999 SCT015 BKN110 25/22 A2990=
201212081600 METAR MRLM 081600Z 31009KT 9999 FEW020 BKN110 26/23 A2989=
201212081700 METAR MRLM 081700Z 32008KT 9999 FEW025 BKN120 28/23 A2987=
201212081800 METAR MRLM 081800Z 33010KT 9999 FEW030 29/23 A2984=
201212081900 METAR MRLM 081900Z 34010KT 9999 FEW030 29/23 A2982=
201212082000 METAR MRLM 082000Z 35009KT 9999 FEW030 29/23 A2980=
201212082100 METAR MRLM 082100Z 35008KT 9999 FEW030 29/23 A2979=
201212082200 METAR MRLM 082200Z 35008KT 9999 FEW030 29/23 A2980=
201212082300 METAR MRLM 082300Z 36007KT 9999 FEW025 27/23 A2982=
201212090000 METAR MRLM 090000Z 35005KT 9999 FEW020 25/23 A2986=
201212090100 METAR MRLM NIL=
201212090200 METAR MRLM NIL=
201212090300 METAR MRLM NIL=
201212090400 METAR MRLM NIL=
201212090500 METAR MRLM NIL=
201212090600 METAR MRLM NIL=
201212090700 METAR MRLM NIL=
201212090800 METAR MRLM NIL=
201212090900 METAR MRLM NIL=
201212091000 METAR MRLM NIL=
201212091100 METAR MRLM NIL=
201212091200 METAR MRLM 091200Z 26004KT CAVOK 21/20 A2988=
201212091300 METAR MRLM 091300Z 27002KT CAVOK 22/21 A2990=
201212091400 METAR MRLM 091400Z 00000KT CAVOK 24/22 A2992=
201212091500 METAR MRLM 091500Z 28002KT CAVOK 26/22 A2992=
201212091600 METAR MRLM 091600Z 00000KT 9999 FEW020 BKN130 27/22 A2992=
201212091700 METAR MRLM 091700Z 32003KT 9999 FEW025 BKN120 28/21 A2991=
201212091800 METAR MRLM 091800Z 00000KT 9999 FEW030 BKN120 29/20 A2988=
201212091900 METAR MRLM 091900Z 00000KT 9999 FEW030 BKN120 29/21 A2984=
201212092000 METAR MRLM 092000Z 11003KT 9999 SCT030 BKN110 28/22 A2981=
201212092100 METAR MRLM 092100Z 02004KT 9999 SCT030 BKN110 28/22 A2982=
201212092200 METAR MRLM 092200Z 33003KT CAVOK 29/22 A2982=
201212092300 METAR MRLM 092300Z 33005KT CAVOK 26/23 A2981=
201212100000 METAR MRLM 100000Z 00000KT CAVOK 25/23 A2982=
201212100100 METAR MRLM NIL=
201212100200 METAR MRLM NIL=
201212100300 METAR MRLM NIL=
201212100400 METAR MRLM NIL=
201212100500 METAR MRLM NIL=
201212100600 METAR MRLM NIL=
201212100700 METAR MRLM NIL=
201212100800 METAR MRLM NIL=
201212100900 METAR MRLM NIL=
201212101000 METAR MRLM NIL=
201212101100 METAR MRLM NIL=
201212101200 METAR MRLM NIL=
201212101224 METAR MRLM 101224Z 27004KT 9999 DZ VCSH SCT020 BKN090 23/23 A2984=
201212101300 METAR MRLM 101300Z 25003KT 9999 FEW020 BKN090 25/23 A2985 REDZ=
201212101400 METAR MRLM 101400Z 25003KT 9999 FEW035 BKN080 27/24 A2986=
201212101500 METAR MRLM 101500Z 10003KT CAVOK 28/24 A2987=
201212101600 METAR MRLM 101600Z 07003KT 9999 FEW020 BKN110 29/24 A2986=
201212101700 METAR MRLM 101700Z 05006KT 9999 FEW022 SCT110 29/24 A2985=
201212101800 METAR MRLM 101800Z 04007KT 9999 FEW022 SCT090 29/24 A2981=
201212101900 METAR MRLM 101900Z 03011KT 9999 FEW020 29/25 A2978=
201212102000 METAR MRLM 102000Z 03008KT 9999 FEW022 29/25 A2976=
201212102100 METAR MRLM 102100Z 04008KT 9999 FEW020 29/25 A2975=
201212102200 METAR MRLM 102200Z 03005KT 9999 FEW030 29/25 A2975=
201212102300 METAR MRLM 102300Z 05004KT 9999 FEW018 SCT090 SCT280 28/24 A2977=
201212102356 METAR MRLM 110000Z 00000KT CAVOK 26/24 A2979=
201212110000 METAR MRLM 110000Z 00000KT CAVOK 26/24 A2979=
201212110100 METAR MRLM NIL=
201212110200 METAR MRLM NIL=
201212110300 METAR MRLM NIL=
201212110400 METAR MRLM NIL=
201212110500 METAR MRLM NIL=
201212110600 METAR MRLM NIL=
201212110700 METAR MRLM NIL=
201212110800 METAR MRLM NIL=
201212110900 METAR MRLM NIL=
201212111000 METAR MRLM NIL=
201212111100 METAR MRLM NIL=
201212111200 METAR MRLM NIL=
201212111228 METAR MRLM 111228Z 24005KT CAVOK 24/23 A2983=
201212111300 METAR MRLM 111300Z 24004KT CAVOK 24/23 A2984=
201212111400 METAR MRLM 111400Z 24003KT CAVOK 28/24 A2986=
201212111500 METAR MRLM 111500Z 09003KT 9999 FEW022 BKN280 29/25 A2986=
201212111600 METAR MRLM 111600Z 10004KT 9999 FEW020 BKN280 29/25 A2987=
201212111700 METAR MRLM 111700Z 09004KT 9999 FEW022 BKN270 29/25 A2985=
201212111800 METAR MRLM 111800Z 07005KT 9999 FEW020 SCT080 SCT270 29/25 A2983=
201212120200 METAR MRLM NIL=
201212120300 METAR MRLM NIL=
201212120400 METAR MRLM NIL=
201212120500 METAR MRLM NIL=
201212120600 METAR MRLM NIL=
201212120700 METAR MRLM NIL=
201212120800 METAR MRLM NIL=
201212120900 METAR MRLM NIL=
201212121000 METAR MRLM NIL=
201212121100 METAR MRLM NIL=
201212121200 METAR MRLM 121200Z 00000KT 9999 DZ BKN010 SCT100 24/23 A2989=
201212121300 METAR MRLM 121300Z 35006KT 9999 -DZ SCT015 SCT100 25/23 A2989=
201212121400 METAR MRLM 121400Z 07009KT 9999 SCT015 SCT100 25/23 A2993=
201212121500 METAR MRLM 121500Z 04011KT 9999 DZ FEW010 SCT015 SCT100 25/21 A2995=
201212121600 METAR MRLM 121600Z 25007KT 9999 -DZ SCT015 SCT090 23/21 A2995=
201212121700 METAR MRLM 121700Z 20004KT 9999 SCT015 BKN100 25/22 A2993=
201212121800 METAR MRLM 121800Z 18004KT 9999 FEW020 BKN110 26/22 A2991=
201212121900 METAR MRLM 121900Z 23006KT 9999 FEW030 BKN110 28/22 A2988=
201212122000 METAR MRLM 122000Z 19004KT 9999 FEW030 BKN120 28/23 A2985=
201212122100 METAR MRLM 122100Z 21003KT 9999 FEW030 BKN130 29/23 A2984=
201212122200 METAR MRLM 122200Z 20003KT 9999 FEW030 BKN130 29/23 A2984=
201212122300 METAR MRLM 122300Z 18002KT CAVOK 27/24 A2985=
201212130000 METAR MRLM 130000Z 00000KT CAVOK 25/23 A2986=
201212130100 METAR MRLM NIL=
201212130200 METAR MRLM NIL=
201212130300 METAR MRLM NIL=
201212130400 METAR MRLM NIL=
201212130500 METAR MRLM NIL=
201212130600 METAR MRLM NIL=
201212130700 METAR MRLM NIL=
201212130800 METAR MRLM NIL=
201212130900 METAR MRLM NIL=
201212131000 METAR MRLM NIL=
201212131100 METAR MRLM NIL=
201212131200 METAR MRLM 131200Z 16004KT 9999 BKN010 23/22 A2992=
201212131300 METAR MRLM 131300Z 16010KT 9999 -DZ BKN010 SCT100 24/22 A2994=
201212131400 METAR MRLM 131400Z 30004KT 9999 SCT015 BKN100 24/22 A2996=
201212131500 METAR MRLM 131500Z 29004KT 9999 DZ BKN015 SCT090 25/22 A2997=
201212131600 METAR MRLM 131600Z 25006KT 9999 SCT015 SCT100 24/23 A2997 REDZ=
201212131700 METAR MRLM 131700Z 23005KT 9999 SCT015 SCT100 25/22 A2996=
201212131800 METAR MRLM 131800Z 26005KT 9999 SCT015 BKN110 26/23 A2994=
201212131900 METAR MRLM 131900Z 24004KT 9999 FEW025 BKN120 28/23 A2991=
201212132000 METAR MRLM 132000Z 00000KT 9999 FEW030 BKN120 29/23 A2988=
201212132100 METAR MRLM 132100Z 210030KT 9999 FEW030 BKN130 30/24 A2986=
201212132200 METAR MRLM 132200Z 09003KT 9999 FEW020 SCT130 28/24 A2987=
201212132300 METAR MRLM 132300Z 00000KT 9999 FEW015 26/24 A2987=
201212140000 METAR MRLM 140000Z 00000KT CAVOK 25/23 A2989=
201212140100 METAR MRLM NIL=
201212140200 METAR MRLM NIL=
201212140300 METAR MRLM NIL=
201212140400 METAR MRLM NIL=
201212140500 METAR MRLM NIL=
201212140600 METAR MRLM NIL=
201212140700 METAR MRLM NIL=
201212140800 METAR MRLM NIL=
201212140900 METAR MRLM NIL=
201212141000 METAR MRLM NIL=
201212141100 METAR MRLM NIL=
201212141200 METAR MRLM NIL=
201212141235 METAR MRLM 141235Z 29002KT CAVOK 21/20 A2992=
201212141300 METAR MRLM 141300Z 00000KT CAVOK 21/20 A2993=
201212141400 METAR MRLM 141400Z 25002KT 9999 DZ FEW025 BKN100 23/21 A2996=
201212141500 METAR MRLM 141500Z 12002KT 9999 +DZ VCSH FEW020 BKN090 24/21 A2997=
201212141600 METAR MRLM 141600Z 03005KT 5000 +DZ VCSH SCT020 SCT090 24/20 A2998=
201212141700 METAR MRLM NIL=
201212141800 METAR MRLM 141800Z 27005KT 9999 FEW007 SCT025 SCT100 24/22 A2994 EDZ=
201212141900 METAR MRLM NIL=
201212142000 METAR MRLM 142000Z 30003KT CAVOK 27/23 A2987=
201212142100 METAR MRLM 142100Z 34004KT 8000 DZ VCSH BKN070 SCT100 27/24 A2986=
201212142200 METAR MRLM 142200Z 34005KT 4000 RA BKN012 SCT090 24/22 A2988=
201212142300 METAR MRLM 142300Z 27004KT 7000 +DZ VCSH FEW006 SCT015 SCT090 23/22 A2989 RERA=
201212142356 METAR MRLM 150000Z 23004KT 6000 +DZ VCSH FEW005 SCT015 SCT090 23/22 A2990=
201212150000 METAR MRLM 150000Z 23004KT 6000 +DZ VCSH FEW005 SCT015 SCT090 23/22 A2990=
201212150100 METAR MRLM NIL=
201212150200 METAR MRLM NIL=
201212150300 METAR MRLM NIL=
201212150400 METAR MRLM NIL=
201212150500 METAR MRLM NIL=
201212150600 METAR MRLM NIL=
201212150700 METAR MRLM NIL=
201212150800 METAR MRLM NIL=
201212150900 METAR MRLM NIL=
201212151000 METAR MRLM NIL=
201212151100 METAR MRLM NIL=
201212151200 METAR MRLM 151200Z 23004KT 9999 SCT025 SCT090 22/22 A2990=
201212151300 METAR MRLM 151300Z 31004KT 9999 DZ FEW005 SCT070 SCT090 23/22 A2991=
201212151400 METAR MRLM 151400Z 34006KT 9999 DZ VCSH OVC010 25/23 A2994=
201212151500 METAR MRLM 151500Z 29005KT 9999 OVC010 24/22 A2995=
201212151600 METAR MRLM 151600Z 32005KT 9999 FEW015 BKN070 26/22 A2994=
201212151700 METAR MRLM 151700Z 32005KT 9999 FEW025 BKN070 28/23 A2992=
201212151800 METAR MRLM 151800Z 33006KT 9999 FEW025 BKN080 28/22 A2990=
201212151900 METAR MRLM 151900Z 35007KT 9999 BKN028 SCT090 28/23 A2989=
201212152000 METAR MRLM 152000Z 36009KT 9999 FEW023 BKN070 28/23 A2985=
201212152100 METAR MRLM 152100Z 02005KT 9999 FEW032 BKN080 28/22 A2984=
201212152200 METAR MRLM 152200Z 02005KT 9999 FEW023 BKN090 27/22 A2984=
201212152300 METAR MRLM 152300Z 31003KT 9999 FEW018 BKN070 26/22 A2985=
201212152355 METAR MRLM 160000Z 28003KT CAVOK 25/23 A2986=
201212160000 METAR MRLM 160000Z 28003KT CAVOK 25/23 A2986=
201212160100 METAR MRLM NIL=
201212160200 METAR MRLM NIL=
201212160300 METAR MRLM NIL=
201212160400 METAR MRLM NIL=
201212160500 METAR MRLM NIL=
201212160600 METAR MRLM NIL=
201212160700 METAR MRLM NIL=
201212160800 METAR MRLM NIL=
201212160900 METAR MRLM NIL=
201212161000 METAR MRLM NIL=
201212161100 METAR MRLM NIL=
201212161200 METAR MRLM 161200Z 26002KT 9999 FEW010 SCT100 22/21 A2989=
201212161300 METAR MRLM 161300Z 25002KT 9999 FEW010 SCT100 22/21 A2990=
201212161400 METAR MRLM 161400Z 00000KT 9999 FEW015 BKN110 24/21 A2991=
201212161500 METAR MRLM 161500Z 00000KT CAVOK 29/22 A2992=
201212161600 METAR MRLM 161600Z 04008KT 9999 FEW020 27/23 A2991=
201212161700 METAR MRLM 161700Z 01011KT 9999 FEW025 28/23 A2990=
201212161800 METAR MRLM 161800Z 02010KT 9999 FEW030 29/23 A2987=
201212161900 METAR MRLM 161900Z 03009KT 9999 FEW030 29/23 A2985=
201212162000 METAR MRLM 162000Z 05005KT 9999 FEW030 28/22 A2983=
201212162100 METAR MRLM 162100Z 09005KT 9999 FEW025 SCT130 28/23 A2981=
201212162200 METAR MRLM 162200Z 13005KT 9999 FEW020 SCT130 28/23 A2981=
201212162300 METAR MRLM 162300Z 00000KT CAVOK 28/23 A2981=
201212170000 METAR MRLM 170000Z 00000KT CAVOK 24/23 A2982=
201212170100 METAR MRLM NIL=
201212170200 METAR MRLM NIL=
201212170300 METAR MRLM NIL=
201212170400 METAR MRLM NIL=
201212170500 METAR MRLM NIL=
201212170600 METAR MRLM NIL=
201212170700 METAR MRLM NIL=
201212170800 METAR MRLM NIL=
201212170900 METAR MRLM NIL=
201212171000 METAR MRLM NIL=
201212171100 METAR MRLM NIL=
201212171200 METAR MRLM 171200Z 25005KT CAVOK 21/20 A2988=
201212171300 METAR MRLM 171300Z 25003KT CAVOK 23/21 2989=
201212171400 METAR MRLM 171400Z 26003KT CAVOK 27/22 A2991=
201212171500 METAR MRLM 171500Z 00000KT 9999 FEW040 30/22 A2991=
201212171600 METAR MRLM 171600Z 04006KT 9999 FEW030TCU 29/23=
201212171700 METAR MRLM 171700Z 03008KT 9999 FEW032 29/23 A2988=
201212171800 METAR MRLM 171800Z 04006KT 9999 FEW030 29/23 A2987=
201212171900 METAR MRLM 171900Z 03007KT 9999 FEW030 29/23 A2984=
201212172000 METAR MRLM 172000Z 9999 FEW025 29/24 A2982=
201212172100 METAR MRLM 172100Z 05005KT 9999 FEW025 SCT130 29/24 A2981=
201212172200 METAR MRLM 172200Z 07003KT 9999 FEW025 SCT130 29/24 A2981=
201212172300 METAR MRLM 172300Z 00000KT 9999 FEW020 SCT130 28/23 A2982=
201212180000 METAR MRLM 180000Z 00000KT CAVOK 26/23 A2982=
201212180100 METAR MRLM NIL=
201212180200 METAR MRLM NIL=
201212180300 METAR MRLM NIL=
201212180400 METAR MRLM NIL=
201212180500 METAR MRLM NIL=
201212180600 METAR MRLM NIL=
201212180700 METAR MRLM NIL=
201212180800 METAR MRLM NIL=
201212180900 METAR MRLM NIL=
201212181000 METAR MRLM NIL=
201212181100 METAR MRLM NIL=
201212181200 METAR MRLM NIL=
201212181231 METAR MRLM 181231Z 25004KT CAVOK 22/20 A2989=
201212181300 METAR MRLM 181300Z 23004KT CAVOK 24/21 A2990=
201212181400 METAR MRLM 181400Z 25004KT CAVOK 26/22 A2991=
201212181500 METAR MRLM 181500Z 09003KT CAVOK 29/23 A2992=
201212181600 METAR MRLM 181600Z 08004KT 9999 FEW030 29/23 A2992=
201212181700 METAR MRLM 181700Z 07010KT 9999 FEW032 SCT070 29/23 A2991=
201212181800 METAR MRLM 181800Z 08008KT 9999 FEW045 BKN080 29/21 A2988=
201212181900 METAR MRLM 181900Z 11006KT 9999 FEW035 BKN090 28/22 A2985=
201212182000 METAR MRLM 182000Z 09008KT 9999 FEW030 BKN090 28/23 A2982=
201212182100 METAR MRLM 182100Z 09007KT 9999 FEW025 BKN130 28/23 A2982=
201212182200 METAR MRLM 182200Z 11005KT 9999 FEW030 SCT130 28/23 A2981=
201212182300 METAR MRLM 182300Z 12003KT 9999 FEW020 27/23 A2983=
201212182353 METAR MRLM 190000Z 26002KT CAVOK 24/23 A2984=
201212190000 METAR MRLM 190000Z 26002KT CAVOK 24/23 A2984=
201212190100 METAR MRLM NIL=
201212190200 METAR MRLM NIL=
201212190300 METAR MRLM NIL=
201212190400 METAR MRLM NIL=
201212190500 METAR MRLM NIL=
201212190600 METAR MRLM NIL=
201212190700 METAR MRLM NIL=
201212190800 METAR MRLM NIL=
201212190900 METAR MRLM NIL=
201212191000 METAR MRLM NIL=
201212191100 METAR MRLM NIL=
201212191200 METAR MRLM NIL=
201212191221 METAR MRLM 191221Z 25004KT 9999 FEW040 SCT090 21/19 A2988=
201212191300 METAR MRLM 191300Z 24004KT CAVOK 21/20 A2989=
201212191400 METAR MRLM 191400Z 00000KT CAVOK 28/21 A2992=
201212191500 METAR MRLM 191500Z 06003KT CAVOK 28/22 A2991=
201212191600 METAR MRLM 191600Z 06004KT 9999 FEW028 28/22 A2990=
201212191700 METAR MRLM 191700Z 06006KT 9999 FEW028 29/23 A2989=
201212191800 METAR MRLM 191800Z 06006KT 9999 FEW030 29/23 A2986=
201212191900 METAR MRLM 191900Z 05006KT 9999 FEW025 29/24 A2984=
201212192000 METAR MRLM 192000Z 06007KT 9999 FEW028 29/23 A2982=
201212192100 METAR MRLM 192100Z 04003KT 9999 SCT030 29/23 A2982=
201212192200 METAR MRLM 192200Z 05004KT 9999 SCT035 29/22 A2982=
201212192300 METAR MRLM 192300Z 00000KT 9999 FEW030 28/22 A2983=
201212192352 METAR MRLM 200000Z 26002KT CAVOK 24/22 A2984=
201212200000 METAR MRLM 200000Z 26002KT CAVOK 24/22 A2984=
201212200100 METAR MRLM NIL=
201212200200 METAR MRLM NIL=
201212200300 METAR MRLM NIL=
201212200400 METAR MRLM NIL=
201212200500 METAR MRLM NIL=
201212200600 METAR MRLM NIL=
201212200700 METAR MRLM NIL=
201212200800 METAR MRLM NIL=
201212200900 METAR MRLM NIL=
201212201000 METAR MRLM NIL=
201212201100 METAR MRLM NIL=
201212201200 METAR MRLM 201200Z 25003KT 9999 FEW010 BKN100 21/20 A2986=
201212201300 METAR MRLM 201300Z 26004KT 9999 FEW015 SCT120 23/20 A2987=
201212201400 METAR MRLM 201400Z 32004KT 9999 FEW030 SCT130 27/21 A2989=
201212201500 METAR MRLM 201500Z 32006KT 9999 FEW035 BKN130 28/21 A2990=
201212201600 METAR MRLM 201600Z 35009KT 9999 FEW035 BKN130 29/21 A2991=
201212201700 METAR MRLM 201700Z 34006KT 9999 SCT030 BKN120 28/22 A2990=
201212201800 METAR MRLM 201800Z 34008KT 9999 BKN030 SCT120 29/22 A2988=
201212201900 METAR MRLM 201900Z 03008KT 9999 -DZ BKN020 SCT110 26/22 A2687=
201212202000 METAR MRLM 202000Z 05004KT 9999 DZ BKN010 24/22 A2985=
201212202100 METAR MRLM 202100Z 00000KT 9999 -DZ FEW010 SCT015 SCT110 25/23 A2984=
201212202200 METAR MRLM 202200Z 00000KT 9999 FEW010 BKN110 25/23 A2983=
201212202300 METAR MRLM 202300Z 00000KT 9999 FEW010 BKN110 25/23 A2984=
201212210000 METAR MRLM 210000Z 00000KT 9999 FEW010 BKN110 24/22 A2985=
201212210100 METAR MRLM NIL=
201212210200 METAR MRLM NIL=
201212210300 METAR MRLM NIL=
201212210400 METAR MRLM NIL=
201212210500 METAR MRLM NIL=
201212210600 METAR MRLM NIL=
201212210700 METAR MRLM NIL=
201212210800 METAR MRLM NIL=
201212210900 METAR MRLM NIL=
201212211000 METAR MRLM NIL=
201212211100 METAR MRLM NIL=
201212211200 METAR MRLM 211200Z 24003KT 9999 BKN010 23/22 A2989=
201212211300 METAR MRLM 211300Z 00000KT 9999 BKN010 23/22 A2992=
201212211400 METAR MRLM 211400Z 23005KT 9999 -DZ SCT010 SCT100 24/23 A2994=
201212211500 METAR MRLM 211500Z 28004KT 9999 SCT015 BKN100 25/23 A2995=
201212211600 METAR MRLM 211600Z 36009KT 9999 FEW010 SCT015 SCT100 26/23 A2996=
201212211700 METAR MRLM 211700Z 36006KT 9999 -DZ BKN015 25/23 A2995=
201212211800 METAR MRLM 211800Z 32004KT 9999 -DZ BKN010 25/22 A2994=
201212211900 METAR MRLM 211900Z 30004KT 9999 BKN020 SCT110 26/22 A2991=
201212212000 METAR MRLM 212000Z 01004KT 9999 BKN020 SCT110 26/22 A2989=
201212212100 METAR MRLM 212100Z 06003KT 9999 SCT020 BKN110 26/22 A2987=
201212212200 METAR MRLM 212200Z 11003KT 9999 SCT020 BKN120 26/22 A2987=
201212212300 METAR MRLM 212300Z 00000KT 9999 FEW015 BKN110 25/22 A2987=
201212220000 METAR MRLM 220000Z 00000KT 9999 FEW010 BKN100 24/23 A2990=
201212220100 METAR MRLM NIL=
201212220200 METAR MRLM NIL=
201212220300 METAR MRLM NIL=
201212220400 METAR MRLM NIL=
201212220500 METAR MRLM NIL=
201212220600 METAR MRLM NIL=
201212220700 METAR MRLM NIL=
201212220800 METAR MRLM NIL=
201212220900 METAR MRLM NIL=
201212221000 METAR MRLM NIL=
201212221100 METAR MRLM NIL=
201212221200 METAR MRLM 221200Z 24005KT 9999 BKN012 22/20 A2993=
201212221300 METAR MRLM 221300Z 28003KT 9999 BKN0013 24/21 A2996=
201212221400 METAR MRLM 221400Z 26003KT 9999 FEW025 SCT110 26/22 A2997=
201212221500 METAR MRLM 221500Z 27003KT 9999 BKN030 28/22 A2999=
201212221600 METAR MRLM 221600Z 13009KT 9999 FEW028 BKN140 28/22 A2998=
201212221700 METAR MRLM 221700Z 06005KT 9999 FEW030 SCT080 28/22 A2997=
201212221800 METAR MRLM 221800Z 02011KT 9999 FEW030 BKN080 28/22 A2994=
201212221900 METAR MRLM 221900Z 05006KT 9999 FEW028 SCT140 28/23 A2990=
201212222000 METAR MRLM 222000Z 09009KT 9999 FEW028 28/23 A2989=
201212222100 METAR MRLM 222100Z 05005KT 9999 FEW030 28/22 A2988=
201212222200 METAR MRLM 222200Z 03008KT 9999 FEW025 28/23 A2988=
201212222300 METAR MRLM 222300Z 04006KT CAVOK 28/23 A2989=
201212222352 METAR MRLM 230000Z 04009KT CAVOK 27/22 A2991=
201212230000 METAR MRLM 230000Z 04009KT CAVOK 27/22 A2991=
201212230100 METAR MRLM NIL=
201212230200 METAR MRLM NIL=
201212230300 METAR MRLM NIL=
201212230400 METAR MRLM NIL=
201212230500 METAR MRLM NIL=
201212230600 METAR MRLM NIL=
201212230700 METAR MRLM NIL=
201212230800 METAR MRLM NIL=
201212230900 METAR MRLM NIL=
201212231000 METAR MRLM NIL=
201212231100 METAR MRLM NIL=
201212231200 METAR MRLM 231200Z 25006KT 6000 RA BKN007 SCT090 21/21 A2991=
201212231300 METAR MRLM 231300Z 23004KT 7000 RA BKN010 22/21 A2992=
201212231400 METAR MRLM 231400Z 24005KT 9999 BKN012 22/21 A2995 RERA=
201212231500 METAR MRLM 231500Z 36005KT 5000 RA BKN010 SCT090 23/21 A2997=
201212231600 METAR MRLM 231600Z 25005KT 8000 DZ VCSH BKN015 23/22 A2995 RERA=
201212231700 METAR MRLM 231700Z 24005KT 9999 DZ VCSH FEW006 BKN015 24/23 A2993=
201212231800 METAR MRLM 231800Z 23005KT 8000 /DZVCSH FEW006 BKN020 24/22 A2991=
201212231900 METAR MRLM 231900Z 24006KT 9999 DZ BKN020 24/22 A2987=
201212232000 METAR MRLM 232000Z 26005KT 9999 DZ VCSH BKN015 25/22 A2986=
201212232100 METAR MRLM 232100Z 25005KT 9999 DZ VCSH BKN015 24/22 A2985=
201212232200 METAR MRLM 232200Z 25003KT 8000 DZ VCSH BKN015 SCT090 24/22 A2985=
201212232300 METAR MRLM 232300Z 25005KT 8000 DZ VCSH BKN012 SCT090 23/22 A2987 RERA=
201212232355 METAR MRLM 240000Z 26003KT 9999 5000NE VCSH BKN012 23/22 A2988 REDZ=
201212240000 METAR MRLM 240000Z 26003KT 9999 5000NE VCSH BKN012 23/22 A2988 REDZ=
201212240100 METAR MRLM NIL=
201212240200 METAR MRLM NIL=
201212240300 METAR MRLM NIL=
201212240400 METAR MRLM NIL=
201212240500 METAR MRLM NIL=
201212240600 METAR MRLM NIL=
201212240700 METAR MRLM NIL=
201212240800 METAR MRLM NIL=
201212240900 METAR MRLM NIL=
201212241000 METAR MRLM NIL=
201212241100 METAR MRLM NIL=
201212241200 METAR MRLM 241200Z 00000KT 9999 -DZ BKN007 22/21 A2989=
201212241300 METAR MRLM 241300Z 31005KT 9999 -DZ BKN010 SCT100 23/21 A2991=
201212241400 METAR MRLM 241400Z 29006KT 9999 SCT010 BKN110 23/21 A2992=
201212241500 METAR MRLM 241500Z 30004KT 9999 SCT020 SCT110 25/22 A2993=
201212241600 METAR MRLM 241600Z 31007KT 9999 BKN010 23/22 A2992=
201212241700 METAR MRLM 241700Z 28004KT 9999 -DZ BKN010 SCT100 25/23 A2991=
201212241800 METAR MRLM 241800Z 28004KT 9999 SCT015 BKN110 26/23 A2988=
201212241900 METAR MRLM 241900Z 25004KT 9999 -DZ SCT015 BKN120 27/24 A2984=
201212242000 METAR MRLM 242000Z 24003KT 9999 -DZ SCT015 BKN120 27/24 A2983=
201212242025 METAR MRLM 242025Z 11003KT 8000 3000N RA VCSH BKN010 26/24 A2983=
201212242100 METAR MRLM 242100Z 34002KT 8000 DZ -VCSH BKN010 25/23 A2982 RERA=
201212242200 METAR MRLM 242200Z 00000KT 8000 DZ VCSH BKN010 24/23 A2982=
201212242300 METAR MRLM 242300Z 24002KT 9999 DZ BKN007 SCT090 24/23 A2984=
201212250000 METAR MRLM 250000Z 26004KT 8000 DZ VCSH BKN007 23/22 A2983=
201212250100 METAR MRLM NIL=
201212250200 METAR MRLM NIL=
201212250300 METAR MRLM NIL=
201212250400 METAR MRLM NIL=
201212250500 METAR MRLM NIL=
201212250600 METAR MRLM NIL=
201212250700 METAR MRLM NIL=
201212250800 METAR MRLM NIL=
201212250900 METAR MRLM NIL=
201212251000 METAR MRLM NIL=
201212251100 METAR MRLM NIL=
201212251200 METAR MRLM 251200Z 28003KT 9999 OVC007 23/22 A2984=
201212251300 METAR MRLM 251300Z 26004KT 9999 BKN007 23/23 A2985=
201212251400 METAR MRLM 251400Z 00000KT 9999 DZ BKN010 24/23 A2987=
201212251500 METAR MRLM 251500Z 30007KT 9999 -DZ FEW006 BKN010 24/23 A2989=
201212251600 METAR MRLM 251600Z 31005KT 8000 RA FEW006 BKN010 24/23 A2990=
201212251700 METAR MRLM 251700Z 30004KT 9999 DZ FEW006 BKN010 24/23 A2989 RERA=
201212251800 METAR MRLM 251800Z 31004KT 9999 BKN010 SCT100 24/23 A2987 REDZ=
201212251900 METAR MRLM 251900Z 31006KT 9999 DZ BKN015 SCT110 26/23 A2983=
201212252000 METAR MRLM 252000Z 31007KT 9999 SCT020 BKN120 27/23 A2980=
201212252100 METAR MRLM 252100Z 31008KT 9999 SCT020 SCT120 27/23 A2977=
201212252200 METAR MRLM 252200Z 31007KT 9999 FEW015 BKN130 26/23 A2977=
201212252300 METAR MRLM 252300Z 31007KT 9999 FEW015 SCT120 25/23 A2979=
201212260000 METAR MRLM 260000Z 32004KT 9999 FEW010 BKN120 24/22 A2980=
201212260100 METAR MRLM NIL=
201212260200 METAR MRLM NIL=
201212260300 METAR MRLM NIL=
201212260400 METAR MRLM NIL=
201212260500 METAR MRLM NIL=
201212260600 METAR MRLM NIL=
201212260700 METAR MRLM NIL=
201212260800 METAR MRLM NIL=
201212260900 METAR MRLM NIL=
201212261000 METAR MRLM NIL=
201212261100 METAR MRLM NIL=
201212261200 METAR MRLM 261200Z 25004KT CAVOK 22/21 A2984=
201212261300 METAR MRLM 261300Z 26003KT CAVOK 24/22 A2984=
201212261400 METAR MRLM 261400Z 24003KT CAVOK 27/23 A2987=
201212261500 METAR MRLM 261500Z 10003KT CAVOK 28/23 A29/23 A2987=
201212261600 METAR MRLM 261600Z 07004KT CAVOK 28/24 A2986=
201212261700 METAR MRLM 261700Z 04006KT 9999 FEW022 29/24 A2995=
201212261800 METAR MRLM 261800Z 04006KT 9999 FEW025 29/24 A2983=
201212261900 METAR MRLM 261900Z 05006KT 9999 FEW025 29/24 A2981=
201212262000 METAR MRLM 262000Z 06003KT 9999 FEW025 29/24 A2978=
201212262100 METAR MRLM 262100Z 04005KT 9999 FEW025 29/24 A2976=
201212262200 METAR MRLM 262200Z 04006KT 9999 FEW020 BKN100 29/24 A2977=
201212262300 METAR MRLM 262300Z 06005KT 9999 FEW020 BKN080 28/24 A2977=
201212262358 METAR MRLM 270000Z 00000KT 9999 FEW015 BKN090 27/24 A2978=
201212270000 METAR MRLM 270000Z 00000KT 9999 FEW015 BKN090 27/24 A2978=
201212270100 METAR MRLM NIL=
201212270200 METAR MRLM NIL=
201212270300 METAR MRLM NIL=
201212270400 METAR MRLM NIL=
201212270500 METAR MRLM NIL=
201212270600 METAR MRLM NIL=
201212270700 METAR MRLM NIL=
201212270800 METAR MRLM NIL=
201212270900 METAR MRLM NIL=
201212271000 METAR MRLM NIL=
201212271100 METAR MRLM NIL=
201212271200 METAR MRLM 271200Z 24005KT 9999 DZ VCSH OVC015 24/23 A2984=
201212271300 METAR MRLM 271300Z 26005KT 9999 BKN015 24/23 A2985 REDZ=
201212271400 METAR MRLM 271400Z 24004KT 8000 DZ VCSH OVC015 25/24 A2988=
201212271500 METAR MRLM 271500Z 23005KT 9999 OVC012 27/24 A2988 REDZ=
201212271600 METAR MRLM 271600Z 31003KT 9999 VCSH OVCTCU030 30/25 A2988=
201212271700 METAR MRLM 271700Z 14005KT 9999 BKN028TCU 30/25 A2986=
201212271800 METAR MRLM 271800Z 06002KT 9999 OVCTCU032 31/24 A2984=
201212271900 METAR MRLM 271900Z 05003KT 3000 +RA OVCTCU025 29/24 A2980=
201212272000 METAR MRLM 272000Z 19004KT 6000 RA OVC010TCU 25/24 A2978 RETS=
201212272100 METAR MRLM 272100Z 17006KT 3000 RA FEW005 BKN015 24/23 A2980=
201212272200 METAR MRLM 272200Z 28002KT 9999 DZ VCSH BKN015 24/23 A2978 RERA=
201212272300 METAR MRLM 272300Z 24002KT 9999 DZ 9999 BKN015 25/24 A2978=
201212272359 METAR MRLM 280000Z 24004KT 9999 BKN015 25/24 A2980=
201212280000 METAR MRLM 280000Z 24004KT 9999 BKN015 25/24 A2980=
201212280100 METAR MRLM NIL=
201212280200 METAR MRLM NIL=
201212280300 METAR MRLM NIL=
201212280400 METAR MRLM NIL=
201212280500 METAR MRLM NIL=
201212280600 METAR MRLM NIL=
201212280700 METAR MRLM NIL=
201212280800 METAR MRLM NIL=
201212280900 METAR MRLM NIL=
201212281000 METAR MRLM NIL=
201212281100 METAR MRLM NIL=
201212281200 METAR MRLM 281200Z 26004KT 9999 FEW010 BKN110 23/22 A2981=
201212281300 METAR MRLM 281300Z 00000KT 9999 FEW010 BKN110 24/23 A2984=
201212281400 METAR MRLM 281400Z 27004KT 9999 SCT015 BKN110 25/23 A2985=
201212281430 METAR MRLM 281430Z 03002KT 6000 2000N +RA BKN010 25/23 A2987=
201212281500 METAR MRLM 281500Z 05008KT 6000 RA BKN007 25/24 A2988=
201212281600 METAR MRLM 281600Z 24004KT 9999 DZ BKN007 SCT090 25/24 A2986 RERA=
201212281700 METAR MRLM 281700Z 25003KT 9999 -DZ VCSH BKN010 SCT100 26/25 A2984=
201212281800 METAR MRLM 281800Z 04002KT 4000 +RA OVC008 25/24 A2983=
201212281900 METAR MRLM 281900Z 21005KT 8000 DZ VCSH BKN007 25/24 A2981 RERA=
201212282000 METAR MRLM 282000Z 24003KT 9999 -DZ BKN010 SCT090 25/23 A2977=
201212282100 METAR MRLM 282100Z 31006KT 9999 BKN010 SCT100 26/24 A2977=
201212282200 METAR MRLM 282200Z 00000KT 5000 RA BKN010 25/24 A2979=
201212282300 METAR MRLM 282300Z 28004KT 9999 DZ BKN007 25/24 A2980 RERA=
201212290000 METAR MRLM 290000Z 25004KT 9999 DZ FEW006 BKN010 24/23 A2981=
201212290100 METAR MRLM NIL=
201212290200 METAR MRLM NIL=
201212290300 METAR MRLM NIL=
201212290400 METAR MRLM NIL=
201212290500 METAR MRLM NIL=
201212290600 METAR MRLM NIL=
201212290700 METAR MRLM NIL=
201212290800 METAR MRLM NIL=
201212290900 METAR MRLM NIL=
201212291000 METAR MRLM NIL=
201212291100 METAR MRLM NIL=
201212291200 METAR MRLM 291200Z 14005KT 8000 +DZ BKN007 25/24 A2987=
201212291300 METAR MRLM 291300Z 23002KT 9999 -DZ BKN010 25/24 A2988=
201212291400 METAR MRLM 291400Z 24003KT 9999 SCT010 SCT110 27/25 A2991=
201212291500 METAR MRLM 291500Z 23003KT 9999 SCT015 SCT020 28/25 A2991=
201212291600 METAR MRLM 291600Z 07006KT 9999 DZ BKN015 28/25 A2990=
201212291700 METAR MRLM 291700Z 25005KT 9999 SCT015 SCT110 27/24 A2989=
201212291800 METAR MRLM 291800Z 00000KT 9999 FEW025 SCT260 30/24 A2986=
201212291900 METAR MRLM 291900Z 09003KT 9999 FEW030 SCT130 30/24 A2984=
201212292000 METAR MRLM 292000Z 07002KT 9999 FEW030 SCT270 30/24 A2982=
201212292100 METAR MRLM 292100Z 07002KT 9999 FEW030 SCT270 31/24 A2982=
201212292200 METAR MRLM 292200Z 03004KT 9999 FEW025 BKN270 29/24 A2983=
201212292300 METAR MRLM 292300Z 03003KT 9999 FEW020 BKN270 28/24 A2985=
201212300000 METAR MRLM 300000Z 00000KT 9999 FEW010 BKN260 25/24 A2986=
201212300100 METAR MRLM NIL=
201212300200 METAR MRLM NIL=
201212300300 METAR MRLM NIL=
201212300400 METAR MRLM NIL=
201212300500 METAR MRLM NIL=
201212300600 METAR MRLM NIL=
201212300700 METAR MRLM NIL=
201212300800 METAR MRLM NIL=
201212300900 METAR MRLM NIL=
201212301000 METAR MRLM NIL=
201212301100 METAR MRLM NIL=
201212301200 METAR MRLM 301200Z 24004KT 9999 BKN015TCU 22/22 A2994=
201212301300 METAR MRLM 301300Z 24005KT 9999 BKN015 23/22 A2995=
201212301400 METAR MRLM 301400Z 22004KT 9999 BKN013 25/23 A2998=
201212301500 METAR MRLM 301500Z 30003KT 9999 DZ VCSH OVC025 29/24 A2998=
201212301600 METAR MRLM 301600Z 13002KT 9999 VCSH OVC025TCU 29/24 A2995 RERA=
201212301700 METAR MRLM NIL=
201212301800 METAR MRLM 301800Z 04013KT 9999 RA OVCTCU020 28/24 A2993=
201212301900 METAR MRLM 301900Z 13015KT 9999 DZ VCSH BKN020 27/23 A2992 RERA=
201212302000 METAR MRLM 302000Z 18004KT 9999 BKNTCU020 27/23 A2990 REDZ=
201212302100 METAR MRLM 302100Z 14010KT 8000 DZ VCSH FEW012 BKNTCU012 23/21 A2990=
201212302200 METAR MRLM 302200Z 25006KT 9999 FEW010 BKN080 23/22 A2989 REDZ=
201212302300 METAR MRLM 302300Z 26005KT 9999 SCT015 SCT100 24/22 A2990=
201212302353 METAR MRLM 310000Z 24004KT 9999 BKNTCU012 24/22 A2991=
201212310000 METAR MRLM 310000Z 24004KT 9999 BKNTCU012 24/22 A2991=
201212310100 METAR MRLM NIL=
201212310200 METAR MRLM NIL=
201212310300 METAR MRLM NIL=
201212310400 METAR MRLM NIL=
201212310500 METAR MRLM NIL=
201212310600 METAR MRLM NIL=
201212310700 METAR MRLM NIL=
201212310800 METAR MRLM NIL=
201212310900 METAR MRLM NIL=
201212311000 METAR MRLM NIL=
201212311100 METAR MRLM NIL=
201212311200 METAR MRLM 311200Z 22004KT 9999 BKN012 22/21 A2994=
201212311300 METAR MRLM 311300Z 24004KT 9999 BKN015 23/22 A2995=
201212311400 METAR MRLM 311400Z 23005KT 9999 SCT018 26/22 A2996=
201212311500 METAR MRLM 311500Z 18003KT 9999 BKN033 29/23 A2997=
201212311600 METAR MRLM 311600Z 16006KT 9999 SCT035 30/23 A2996=
201212311700 METAR MRLM 311700Z 08004KT 9999 FEW025 SCT040 31/23 A2994=
201212311800 METAR MRLM 311800Z 13011KT 9999 /DZVCSH SCT025 SCT080 28/23 A2992=
201212311900 METAR MRLM 311900Z 07003KT 9999 FEW035 SCT090 30/22 A2989 REDZ=
201212312000 METAR MRLM 312000Z 06007KT 9999 FEW025 BKN070 29/23 A2987=
201212312100 METAR MRLM 312100Z 15012KT 9999 FEW022 BKN120 27/23 A2986=
201212312200 METAR MRLM 312200Z 23003KT CAVOK 28/22 A2985=
201212312300 METAR MRLM 312300Z 11023KT 9999 +DZ VCSH BKN015 26/22 A2988=
201212312355 METAR MRLM 010000Z 17009KT 9999 +DZ VCSH FEW010 BKN090 23/21 A2989=
