201301010000 METAR MRLM 010000Z 17009KT 9999 +DZ VCSH FEW010 BKN090 23/21 A2989=
201301010100 METAR MRLM NIL=
201301010200 METAR MRLM NIL=
201301010300 METAR MRLM NIL=
201301010400 METAR MRLM NIL=
201301010500 METAR MRLM NIL=
201301010600 METAR MRLM NIL=
201301010700 METAR MRLM NIL=
201301010800 METAR MRLM NIL=
201301010900 METAR MRLM NIL=
201301011000 METAR MRLM NIL=
201301011100 METAR MRLM NIL=
201301011200 METAR MRLM 011200Z 29003KT 9999 SCT010 BKN090 23/22 A2990=
201301011300 METAR MRLM 011300Z 25003KT 9999 SCT010 BKN100 23/23 A2991=
201301011400 METAR MRLM 011400Z 29002KT 9999 FEW015 BKN110 25/23 A2993=
201301011500 METAR MRLM 011500Z 01008KT 9999 FEW020 BKN120 27/24 A2994=
201301011600 METAR MRLM 011600Z 04007KT 9999 SCT015 SCT120 27/24 A2995=
201301011620 METAR MRLM 011620Z 06007KT 8000 DZ VCSH BKN010 26/23 A2994=
201301011700 METAR MRLM 011700Z 34003KT 9999 -DZ BKN010 26/24 A2993=
201301011800 METAR MRLM 011800Z 02007KT 9999 SCT015 SCT120 27/24 A2989=
201301011900 METAR MRLM 011900Z 05008KT 9999 BKN015 ST120 27/24 A2987=
201301012000 METAR MRLM 012000Z 05013KT 9999 DZ BKN010 SCT110 25/23 A2985=
201301012100 METAR MRLM 012100Z 17010KT 9999 -DZ BKN010 SCT100 25/23 A2984=
201301012200 METAR MRLM 012200Z 23006KT 9999 SCT010 BKN100 24/22 A2984=
201301012300 METAR MRLM 012300Z 25003KT 9999 FEW010 BKN110 25/22 A2985=
201301020000 METAR MRLM 020000Z 22005KT 9999 FEW010 BKN110 24/21 A2985=
201301020100 METAR MRLM NIL=
201301020200 METAR MRLM NIL=
201301020300 METAR MRLM NIL=
201301020400 METAR MRLM NIL=
201301020500 METAR MRLM NIL=
201301020600 METAR MRLM NIL=
201301020700 METAR MRLM NIL=
201301020800 METAR MRLM NIL=
201301020900 METAR MRLM NIL=
201301021000 METAR MRLM NIL=
201301021100 METAR MRLM NIL=
201301021200 METAR MRLM 021200Z 25002KT CAVOK 21/20 A2987=
201301021300 METAR MRLM 021300Z 24003KT CAVOK 24/21 A2989=
201301021400 METAR MRLM 021400Z 23004KT CAVOK 26/21 A2991=
201301021500 METAR MRLM 021500Z 24002KT 9999 FEW030 SCT260 28/21 A2991=
201301021600 METAR MRLM 021600Z 10004KT 9999 FEW035 BKN260 29/22 A2990=
201301021700 METAR MRLM 021700Z 11003KT 9999 FEW035 SCT260 29/22 A2989=
201301021800 METAR MRLM 021800Z 12005KT 9999 FEW040 30/22 A2987=
201301021900 METAR MRLM 021900Z 10007KT 9999 FEW040 30/22 A2987=
201301022000 METAR MRLM 022000Z 09006KT 9999 FEW040 30/23 A2982=
201301022100 METAR MRLM 022100Z 11005KT CAVOK 29/23 A2980=
201301022200 METAR MRLM 022200Z 10005KT CAVOK 29/23 A2981=
201301022300 METAR MRLM 022300Z 09004KT 9999 FEW025 28/23 A2982=
201301030000 METAR MRLM 030000Z 10004KT CAVOK 26/23 A2984=
201301030100 METAR MRLM NIL=
201301030200 METAR MRLM NIL=
201301030300 METAR MRLM NIL=
201301030400 METAR MRLM NIL=
201301030500 METAR MRLM NIL=
201301030600 METAR MRLM NIL=
201301030700 METAR MRLM NIL=
201301030800 METAR MRLM NIL=
201301030900 METAR MRLM NIL=
201301031000 METAR MRLM NIL=
201301031100 METAR MRLM NIL=
201301031200 METAR MRLM 031200Z 26006KT 9999 DZ BKN015 23/22 A2991=
201301031300 METAR MRLM 031300Z 28004KT 9999 DZ VCSH BKN012 SCT090 23/22 A2993=
201301031400 METAR MRLM 031400Z 24005KT 9999 SCT015 SCT090 23/22 A2995 REDZ=
201301031500 METAR MRLM 031500Z 25004KT 9999 SCT015 SCT090 24/22 A2996=
201301031600 METAR MRLM 031600Z 25004KT 9999 VCSH BKN020 26/22 A2994=
201301031700 METAR MRLM 031700Z 14006KT 3000 RA BKN012 SCT090 24/23 A2995=
201301031800 METAR MRLM 031800Z 25006KT 9999 DZ VCSH SCT012 SCT090 24/23 RERA=
201301031900 METAR MRLM 031900Z 29005KT 9999 SCT012 SCT025 25/23 A2988 REDZ=
201301032000 METAR MRLM 032000Z 27004KT 9999 FEW015 BKN025 26/23 A2986=
201301032100 METAR MRLM 032100Z 27004KT 9999 DZ BKN012 25/23 A2986=
201301032200 METAR MRLM 032200Z 29002KT 9999 SCT010 SCT025 25/24 A2987 RERA=
201301032300 METAR MRLM 032300Z 23003KT 9999 FEW015 BKN030 25/23 A2989=
201301032358 METAR MRLM 040000Z 22003KT 9999 BKN012 24/23 A2991=
201301040000 METAR MRLM 040000Z 22003KT 9999 BKN012 24/23 A2991=
201301040100 METAR MRLM NIL=
201301040200 METAR MRLM NIL=
201301040300 METAR MRLM NIL=
201301040400 METAR MRLM NIL=
201301040500 METAR MRLM NIL=
201301040600 METAR MRLM NIL=
201301040700 METAR MRLM NIL=
201301040800 METAR MRLM NIL=
201301040900 METAR MRLM NIL=
201301041000 METAR MRLM NIL=
201301041100 METAR MRLM NIL=
201301041200 METAR MRLM 041200Z 26003KT CAVOK 21/20 A2994=
201301041300 METAR MRLM 041300Z 25004KT CAVOK 22/20 A2994=
201301041400 METAR MRLM 041400Z 27002KT CAVOK 26/21 A2996=
201301041500 METAR MRLM 041500Z 23002KT CAVOK 27/22 A2996=
201301041600 METAR MRLM 041600Z 06005KT 9999 FEW030 BKN110 27/22 A2996=
201301041700 METAR MRLM 041700Z 05009KT 9999 DZ BKN015 26/23 A2996=
201301041800 METAR MRLM 041800Z 08014KT 9999 DZ VCSH FEW020 BKN090 26/22 A2994=
201301041900 METAR MRLM 041900Z 09003KT 8000 +DZ BKN018 SCT090 25/21 A2993=
201301042000 METAR MRLM 042000Z 11006KT 9999 DZ SCT015 SCT100 25/22 A2990=
201301042100 METAR MRLM 042100Z 34003KT 9999 BKN018 25/22 A2988=
201301042200 METAR MRLM 042200Z 22003KT 9999 FEW018 SCT070 SCT090 25/22 A2989=
201301042300 METAR MRLM 042300Z 20002KT CAVOK 25/22 A2989=
201301042352 METAR MRLM 050000Z 00000KT CAVOK 25/23 A2990=
201301050000 METAR MRLM 050000Z 00000KT CAVOK 25/23 A2990=
201301050100 METAR MRLM NIL=
201301050200 METAR MRLM NIL=
201301050300 METAR MRLM NIL=
201301050400 METAR MRLM NIL=
201301050500 METAR MRLM NIL=
201301050600 METAR MRLM NIL=
201301050700 METAR MRLM NIL=
201301050800 METAR MRLM NIL=
201301050900 METAR MRLM NIL=
201301051000 METAR MRLM NIL=
201301051100 METAR MRLM NIL=
201301051200 METAR MRLM 051200Z 25004KT 9999 BKN010 22/20 A2996=
201301051300 METAR MRLM 051300Z 24004KT 9999 BKN010 23/21 A2998=
201301051400 METAR MRLM 051400Z 24005KT 9999 BKN020 25/22 A3000=
201301051500 METAR MRLM 051500Z 23004KT 9999 BKN025 28/22 A2999=
201301051600 METAR MRLM 051600Z 08002KT 9999 BKN035 30/23 A2999=
201301051700 METAR MRLM 051700Z 06004KT 9999 BKN030 SCT120 29/23 A2997=
201301051800 METAR MRLM 051800Z 07006KT 9999 BKN030 SCT120 28/23 A2995=
201301051900 METAR MRLM 051900Z 10005KT 9999 FEW035 BKN130 30/23 A2991=
201301052000 METAR MRLM 052000Z 07004KT 9999 FEW035 BKN130 30/22 A2988=
201301052100 METAR MRLM 052100Z 08005KT 9999 FEW035 SCT130 30/23 A2987=
201301052200 METAR MRLM 052200Z 12005KT 9999 FEW035 30/22 A2987=
201301052300 METAR MRLM 052300Z 17003KT CAVOK 29/22 A2987=
201301060000 METAR MRLM 060000Z 17002KT 9999 FEW020 SCT120 26/22 A2989=
201301060100 METAR MRLM NIL=
201301060200 METAR MRLM NIL=
201301060300 METAR MRLM NIL=
201301060400 METAR MRLM NIL=
201301060500 METAR MRLM NIL=
201301060600 METAR MRLM NIL=
201301060700 METAR MRLM NIL=
201301060800 METAR MRLM NIL=
201301060900 METAR MRLM NIL=
201301061000 METAR MRLM NIL=
201301061100 METAR MRLM NIL=
201301061200 METAR MRLM 061200Z 24005KT 9999 FEW010 BKN100 21/20 A2992=
201301061300 METAR MRLM 061300Z 25005KT 9999 FEW010 BKN100 21/20 A2993=
201301061400 METAR MRLM 061400Z 26004KT 9999 FEW015 BKN110 23/21 A2995=
201301061500 METAR MRLM 061500Z 25003KT CAVOK 28/23 A2995=
201301061600 METAR MRLM 061600Z 10003KT 9999 FEW035 30/23 A2994=
201301061700 METAR MRLM 061700Z 11003KT 9999 FEW035 29/22 A2993=
201301061800 METAR MRLM 061800Z 08003KT 9999 FEW035 30/23 A2990=
201301061900 METAR MRLM 061900Z 09004KT 9999 FEW030 SCT140 29/23 A2987=
201301062000 METAR MRLM 062000Z 08005KT 9999 FEW030 SCT130 30/24 A2985=
201301062100 METAR MRLM 062100Z 08004KT 9999 FEW030 SCT130 30/24 A2983=
201301062200 METAR MRLM 062200Z 08004KT 9999 FEW030 29/23 A2983=
201301062300 METAR MRLM 062300Z 07004KT 9999 FEW025 28/23 A2983=
201301070000 METAR MRLM 070000Z 00000KT 9999 FEW020 26/23 A2984=
201301070100 METAR MRLM NIL=
201301070200 METAR MRLM NIL=
201301070300 METAR MRLM NIL=
201301070400 METAR MRLM NIL=
201301070500 METAR MRLM NIL=
201301070600 METAR MRLM NIL=
201301070700 METAR MRLM NIL=
201301070800 METAR MRLM NIL=
201301070900 METAR MRLM NIL=
201301071000 METAR MRLM NIL=
201301071100 METAR MRLM NIL=
201301071200 METAR MRLM 071200Z 26004KT CAVOK 22/20 A2988=
201301071300 METAR MRLM 071300Z 24003KT CAVOK 23/21 A2990=
201301071400 METAR MRLM 071400Z 25002KT CAVOK 27/21 A2992=
201301071500 METAR MRLM 071500Z 09004KT CAVOK 29/23 A2991=
201301071600 METAR MRLM 071600Z 07005KT CAVOK 29/22 A2991=
201301071700 METAR MRLM 071700Z 06009KT 9999 FEW025 SCT070 SCT080 28/23 A2989=
201301071800 METAR MRLM 071800Z 03006KT 9999 FEW028 BKN090 29/23 A2986=
201301071900 METAR MRLM 071900Z 07006KT 9999 FEW035 SCT100 30/23 A2984=
201301072000 METAR MRLM 072000Z 06004KT 9999 FEW035 BKN090 30/23 A2981=
201301072100 METAR MRLM 072100Z 06008KT 9999 FEW035 BKN140 30/23 A2980=
201301072200 METAR MRLM 072200Z 04005KT 9999 FEW035 BKN120 30/23 A2981=
201301072300 METAR MRLM 072300Z 06007KT 9999 FEW025 BKN090 28/23 A2982=
201301072353 METAR MRLM 080000Z 06004KT 9999 FEW022 BKN090 28/23 A2984=
201301080000 METAR MRLM 080000Z 06004KT 9999 FEW022 BKN090 28/23 A2984=
201301080100 METAR MRLM NIL=
201301080200 METAR MRLM NIL=
201301080300 METAR MRLM NIL=
201301080400 METAR MRLM NIL=
201301080500 METAR MRLM NIL=
201301080600 METAR MRLM NIL=
201301080700 METAR MRLM NIL=
201301080800 METAR MRLM NIL=
201301080900 METAR MRLM NIL=
201301081000 METAR MRLM NIL=
201301081100 METAR MRLM NIL=
201301081200 METAR MRLM 081244 18003KT 99999 SCT025 BKN080 22/21 A2985=
201301081244 METAR MRLM 081244Z 18003KT 99999 SCT025 BKN080 22/21 A2985=
201301081300 METAR MRLM 081300Z 20003KT 9999 FEW025 BKN080 22/21 A2985=
201301081400 METAR MRLM 081400Z 26003KT CAVOK 25/22 A2988=
201301081500 METAR MRLM 081500Z 12003KT CAVOK 28/22 A2987=
201301081600 METAR MRLM 081600Z 13006KT 9999 FEW033 30/23 A2987=
201301081700 METAR MRLM 081700Z 10004KT 9999 FEW032 30/24 A2986=
201301081800 METAR MRLM 081800Z 09005KT 9999 FEW035 SCT090 30/23 A2983=
201301081900 METAR MRLM 081900Z 08005KT 9999 FEW035 BKN110 30/23 A2980=
201301082000 METAR MRLM 082000Z 08006KT 9999 FEW030 BKN080 30/24 A2978=
201301082100 METAR MRLM 082100Z 08006KT 9999 FEW030 30/24 A2977=
201301082200 METAR MRLM 082200Z 05005KT 9999 FEW030 29/23 A2977=
201301082300 METAR MRLM 082300Z 03003KT 9999 FEW025 28/23 A2979=
201301082351 METAR MRLM 082351Z 04005KT 9999 FEW020 28/24 A2980=
201301090000 METAR MRLM 04005KT 9999 FEW020 28/24 A2980=
201301090100 METAR MRLM NIL=
201301090200 METAR MRLM NIL=
201301090300 METAR MRLM NIL=
201301090400 METAR MRLM NIL=
201301090500 METAR MRLM NIL=
201301090600 METAR MRLM NIL=
201301090700 METAR MRLM NIL=
201301090800 METAR MRLM NIL=
201301090900 METAR MRLM NIL=
201301091000 METAR MRLM NIL=
201301091100 METAR MRLM NIL=
201301091200 METAR MRLM 091200Z 26004KT CAVOK 21/20 A2988=
201301091300 METAR MRLM 091300Z 00000KT CAVOK 23/21 A2989=
201301091400 METAR MRLM 091400Z 24004KT CAVOK 26/21 A2991=
201301091500 METAR MRLM 091500Z 22002KT 9999 FEW040 30/22 A2991=
201301091600 METAR MRLM 091600Z 10004KT 9999 FEW030 SCT130 29/24 A2991=
201301091700 METAR MRLM 091700Z 10004KT 9999 FEW030 BKN130 29/23 A2989=
201301091800 METAR MRLM 091800Z 10004KT 9999 FEW030 BKN130 30/23 A2986=
201301091900 METAR MRLM 091900Z 10004KT 9999 FEW030 SCT140 30/24 A2985=
201301092000 METAR MRLM 092000Z 08004KT 9999 FEW030 SCT140 30/23 A2982=
201301092100 METAR MRLM 092100Z 07005KT 9999 FEW030 SCT130 30/24 A2982=
201301092200 METAR MRLM 092200Z 08004KT 9999 FEW025 29/24 A2982=
201301092300 METAR MRLM 092300Z 07006KT 9999 FEW020 28/24 A2984=
201301100000 METAR MRLM 100000Z 06004KT 9999 FEW015 SCT120 27/24 A2985=
201301100100 METAR MRLM NIL=
201301100200 METAR MRLM NIL=
201301100300 METAR MRLM NIL=
201301100400 METAR MRLM NIL=
201301100500 METAR MRLM NIL=
201301100600 METAR MRLM NIL=
201301100700 METAR MRLM NIL=
201301100800 METAR MRLM NIL=
201301100900 METAR MRLM NIL=
201301101000 METAR MRLM NIL=
201301101100 METAR MRLM NIL=
201301101200 METAR MRLM 101200Z 23004KT 9999 BKN010 23/22 A2992=
201301101300 METAR MRLM 101300Z 30003KT 9999 BKN010 SCT100 24/23 A2992=
201301101400 METAR MRLM 101400Z 24003KT 9999 -DZ VCSH BKN010 25/23 A2995=
201301101500 METAR MRLM 101500Z 33003KT 9999 BKN020 SCT120 28/23 A2996=
201301101600 METAR MRLM 101600Z 03006KT 9999 -DZ BKN015 26/23 A2995=
201301101700 METAR MRLM 101700Z 21004KT 9999 -DZ BKN010 SCT100 25/23 A2994=
201301101800 METAR MRLM 101800Z 00000KT 9999 -DZ BKN020 SCT110 28/23 A2992=
201301101900 METAR MRLM 101900Z 24004KT 9999 SCT020 SCT120 27/23 A2990=
201301102000 METAR MRLM 102000Z 24003KT 9999 FEW030 SCT120 29/23 A2988=
201301102100 METAR MRLM 102100Z 00000KT 9999 FEW035 30/23 A2986=
201301102200 METAR MRLM 102200Z 11003KT 999 FEW030 29/23 A2986=
201301102300 METAR MRLM 102300Z 08002KT 9999 FEW030 28/23 A2987=
201301110000 METAR MRLM 110000Z 00000KT CAVOK 25/23 A2989=
201301110100 METAR MRLM NIL=
201301110200 METAR MRLM NIL=
201301110300 METAR MRLM NIL=
201301110400 METAR MRLM NIL=
201301110500 METAR MRLM NIL=
201301110600 METAR MRLM NIL=
201301110700 METAR MRLM NIL=
201301110800 METAR MRLM NIL=
201301110900 METAR MRLM NIL=
201301111000 METAR MRLM NIL=
201301111100 METAR MRLM NIL=
201301111200 METAR MRLM 36003KT 9999 DZ VCSH SCT010 SCT070 22/21 A2992=
201301111235 METAR MRLM 111235Z 36003KT 9999 DZ VCSH SCT010 SCT070 22/21 A2992=
201301111300 METAR MRLM 111300Z 05012KT 9999 +DZ VCSH SCT010 SCT070 24/23 A2993=
201301111358 METAR MRLM 111358Z 23006KT CAVOK 25/23 A2994 REDZ=
201301111400 METAR MRLM 23006KT CAVOK 25/23 A2994 REDZ=
201301111500 METAR MRLM 111500Z 24002KT CAVOK 28/23 A2994=
201301111600 METAR MRLM 111600Z 06003KT 9999 BKN025 28/24 A2993=
201301111700 METAR MRLM 111700Z 12004KT 9999 BKN025 28/23 A2992=
201301111800 METAR MRLM NIL=
201301111900 METAR MRLM 111900Z 12005KT 9999 FEW025 BKN070 29/24 A2987=
201301112000 METAR MRLM 112000Z 14006KT 9999 FEW025 BKN080 28/23 A2984=
201301112100 METAR MRLM 112100Z 13007KT 9999 FEW030 BKN090 29/23 A2984=
201301112200 METAR MRLM 112200Z 13007KT 9999 FEW028 BKN090 29/23 A2983=
201301112300 METAR MRLM 112300Z 14008KT CAVOK 28/24 A2984=
201301112353 METAR MRLM 120000Z 17003KT CAVOK 27/24 A2985=
201301120000 METAR MRLM 120000Z 17003KT CAVOK 27/24 A2985=
201301120100 METAR MRLM NIL=
201301120200 METAR MRLM NIL=
201301120300 METAR MRLM NIL=
201301120400 METAR MRLM NIL=
201301120500 METAR MRLM NIL=
201301120600 METAR MRLM NIL=
201301120700 METAR MRLM NIL=
201301120800 METAR MRLM NIL=
201301120900 METAR MRLM NIL=
201301121000 METAR MRLM NIL=
201301121100 METAR MRLM NIL=
201301121200 METAR MRLM 121200Z 25002KT CAVOK 22 /21 A2989=
201301121300 METAR MRLM 121300Z 00000KT CAVOK 24/22 A2990=
201301121400 METAR MRLM 121400Z 05005KT CAVOK 25/21 A2992=
201301121500 METAR MRLM 121500Z 14004KT CAVOK 28/22 A2993=
201301121600 METAR MRLM 121600Z 15010KT 9999 FEW028 SCT080 SCT090 28/22 A2992=
201301121700 METAR MRLM 121700Z 13006KT 9999 FEW035 SCT140 29/22 A2990=
201301121800 METAR MRLM 121800Z 13006KT 9999 FEW030 30/21 A2986=
201301121900 METAR MRLM 121900Z 11008KT 9999 FEW035 30/23 A2984=
201301122000 METAR MRLM 122000Z 11007KT 9999 FEW035 30/23 A2983=
201301122056 METAR MRLM 122056Z 10008KT 9999 FEW30 SCT140 29/23 A2982=
201301122100 METAR MRLM 10008KT 9999 FEW30 SCT140 29/23 A2982=
201301122200 METAR MRLM 122200Z 11008KT 9999 FEW030 SCT120 29/23 A2984=
201301122300 METAR MRLM 122300Z 12008KT 9999 FEW025 BKN080 28/23 A2985=
201301122355 METAR MRLM 130000Z 12008KT 9999 FEW025 BKN090 27/23 A2986=
201301130000 METAR MRLM 130000Z 12008KT 9999 FEW025 BKN090 27/23 A2986=
201301130100 METAR MRLM NIL=
201301130200 METAR MRLM NIL=
201301130300 METAR MRLM NIL=
201301130400 METAR MRLM NIL=
201301130500 METAR MRLM NIL=
201301130600 METAR MRLM NIL=
201301130700 METAR MRLM NIL=
201301130800 METAR MRLM NIL=
201301130900 METAR MRLM NIL=
201301131000 METAR MRLM NIL=
201301131100 METAR MRLM NIL=
201301131200 METAR MRLM 131200Z 24004KT CAVOK 20/20 A2990=
201301131300 METAR MRLM 131300Z 25004KT CAVOK 22/20 A2991=
201301131400 METAR MRLM 131400Z 00000KT CAVOK 26/21 A2992=
201301131500 METAR MRLM 131500Z 10003KT 9999 FEW030 27/21 A2991=
201301131600 METAR MRLM 131600Z 08007KT 9999 FEW035 29/22 A2990=
201301131700 METAR MRLM 131700Z 09011KT 9999 FEW035 BKN130 29/21 A2989=
201301131800 METAR MRLM 131800Z 09010KT 9999 FEW025 BKN120 28/23 A2986=
201301131900 METAR MRLM 131900Z COR 08009KT 9999 FEW035 BKN130 29/22 A2985=
201301132000 METAR MRLM 132000Z 09009KT 9999 FEW030 BKN130 29/22 A2985=
201301132100 METAR MRLM 132100Z 13006KT 9999 FEW030 BKN120 28/21 A2985=
201301132200 METAR MRLM 132200Z 19003KT 9999 FEW035 BKN120 28/21 A2985=
201301132300 METAR MRLM 132300Z 14005KT CAVOK 28/21 A2987=
201301140000 METAR MRLM 140000Z 00000KT CAVOK 25/22 A2989=
201301140100 METAR MRLM NIL=
201301140200 METAR MRLM NIL=
201301140300 METAR MRLM NIL=
201301140400 METAR MRLM NIL=
201301140500 METAR MRLM NIL=
201301140600 METAR MRLM NIL=
201301140700 METAR MRLM NIL=
201301140800 METAR MRLM NIL=
201301140900 METAR MRLM NIL=
201301141000 METAR MRLM NIL=
201301141100 METAR MRLM NIL=
201301141200 METAR MRLM 141200Z 00000KT 9999 FEW010 BKN100 21/20 A2992=
201301141300 METAR MRLM 141300Z 24004KT 9999 FEW010 BKN100 22/21 A2992=
201301141400 METAR MRLM 141400Z 00000KT CAVOK 24/21 A2994=
201301141500 METAR MRLM 141500Z 00000KT CAVOK 27/22 A2994=
201301141600 METAR MRLM 141600Z 11005KT 9999 FEW030 BKN120 28/22 A2994=
201301141700 METAR MRLM 141700Z 11011KT 9999 SCT020 SCT110 27/23 A2993=
201301141800 METAR MRLM 141800Z 00000KT 9999 SCT035 BKN120 28/21 A2990=
201301141900 METAR MRLM 141900Z 14002KT 9999 FEW035 BKN120 29/22 A2987=
201301142000 METAR MRLM 142000Z 10006KT 9999 SCT030 BKN120 29/22 A2986=
201301142100 METAR MRLM 142100Z 08011KT 9999 FEW020 BKN110 27/22 A2987=
201301142200 METAR MRLM 142200Z 07007KT 9999 SCT020 BKN110 27/21 A2988=
201301142300 METAR MRLM 142300Z 16003KT 9999 SCT020 BKN110 26/21 A2990=
201301150000 METAR MRLM 150000Z 25004KT 9999 FEW015 BKN100 25/21 A2991=
201301150100 METAR MRLM NIL=
201301150200 METAR MRLM NIL=
201301150300 METAR MRLM NIL=
201301150400 METAR MRLM NIL=
201301150500 METAR MRLM NIL=
201301150600 METAR MRLM NIL=
201301150700 METAR MRLM NIL=
201301150800 METAR MRLM NIL=
201301150900 METAR MRLM NIL=
201301151000 METAR MRLM NIL=
201301151100 METAR MRLM NIL=
201301151200 METAR MRLM 151200Z 24004KT 9999 FEW015 BKN080 20/19 A2992=
201301151300 METAR MRLM 151300Z 24005KT 9999 VCSH FEW015 BKN080 21/19 A2993=
201301151400 METAR MRLM 151400Z 9999 SCT025 BKN080 26/21 A2995=
201301151500 METAR MRLM 151500Z 06007KT 9999 FEW020 BKN070 26/21 A2995=
201301151600 METAR MRLM 151600Z 14004KT 9999 FEW030 BKN080 28/21 A2992=
201301151700 METAR MRLM 151700Z 19004KT 9999 FEW035 SCT110 29/22 Z2989=
201301151800 METAR MRLM 151800Z 09008KT 9999 FEW035 29/22 A2986=
201301151900 METAR MRLM 151900Z 09009KT 9999 FEW035 29/22 A2983=
201301152000 METAR MRLM 152000Z 09008KT 9999 FEW038 29/21 A2982=
201301152100 METAR MRLM 152100Z 09009KT 9999 FEW038 29/21 A2982=
201301152200 METAR MRLM 152200Z 08008KT 9999 FEW035 29/22 A2983=
201301152300 METAR MRLM 152300Z 08005KT CAVOK 28/21 A2984=
201301152352 METAR MRLM 160000Z 11004KT CAVOK 27/21 A2985=
201301160000 METAR MRLM 160000Z 11004KT CAVOK 27/21 A2985=
201301160100 METAR MRLM NIL=
201301160200 METAR MRLM NIL=
201301160300 METAR MRLM NIL=
201301160400 METAR MRLM NIL=
201301160500 METAR MRLM NIL=
201301160600 METAR MRLM NIL=
201301160700 METAR MRLM NIL=
201301160800 METAR MRLM NIL=
201301160900 METAR MRLM NIL=
201301161000 METAR MRLM NIL=
201301161100 METAR MRLM NIL=
201301161200 METAR MRLM 161200Z 24003KT CAVOK 21/19 A2986=
201301161300 METAR MRLM 161300Z 00000KT CAVOK 24/20 A2990=
201301161400 METAR MRLM 161400Z 00000KT CAVOK 27/20 A2992=
201301161500 METAR MRLM 161500Z 05004KT 9999 FEW035 27/20 A2992=
201301161600 METAR MRLM 161600Z 03005KT 9999 FEW035 28/21 A29/21 A2991=
201301161700 METAR MRLM 161700Z 04006KT 9999 SCT035 BKN100 29/22 A2989=
201301161800 METAR MRLM 161800Z 05006KT 9999 FEW030 BKN070 28/22 A2987=
201301161900 METAR MRLM 161900Z 09004KT 9999 FEW030 BKN070 28/22 A2985=
201301162000 METAR MRLM 162000Z 10005KT 9999 FEW028 SCT070 BKN080 2984=
201301162100 METAR MRLM 162100Z 09008KT 9999 FEW025 BKN080 28/23 A2983=
201301162200 METAR MRLM 162200Z 12006KT 9999 FEW028 BKN080 28/22 A2984=
201301162300 METAR MRLM 162300Z 10004KT CAVOK 27/23 A2986=
201301162355 METAR MRLM 170000Z 10003KT CAVOK 27/23 A2988=
201301170000 METAR MRLM 170000Z 10003KT CAVOK 27/23 A2988=
201301170100 METAR MRLM NIL=
201301170200 METAR MRLM NIL=
201301170300 METAR MRLM NIL=
201301170400 METAR MRLM NIL=
201301170500 METAR MRLM NIL=
201301170600 METAR MRLM NIL=
201301170700 METAR MRLM NIL=
201301170800 METAR MRLM NIL=
201301170900 METAR MRLM NIL=
201301171000 METAR MRLM NIL=
201301171100 METAR MRLM NIL=
201301171200 METAR MRLM 171200Z 34004KT 9999 -DZ BKN010 SCT100 22/21 A2994=
201301171300 METAR MRLM 171300Z 03008KT 9999 SCT015 BKN100 23/22 A2997=
201301171400 METAR MRLM 171400Z 29006KT 9999 SCT010 BKN100 23/22 A2999=
201301171500 METAR MRLM 171500Z 27005KT 9999 FEW010 BKN110 23/21 A2999=
201301171600 METAR MRLM 171600Z 25005KT 9999 FEW020 BKN110 25/22 A2998=
201301171700 METAR MRLM 171700Z 11004KT CAVOK 27/22 A2996=
201301171800 METAR MRLM 171800Z 06007KT 9999 FEW025 BKN120 27/22 A2994=
201301171900 METAR MRLM 171900Z 04005KT 9999 SCT030 BKN120 27/21 A2992=
201301172000 METAR MRLM 172000Z 07003KT 9999 FEW030 BKN120 27/21 A2989=
201301172100 METAR MRLM 172100Z 04004KT 9999 FEW030 BKN120 28/22 A2989=
201301172200 METAR MRLM 172200Z 00000KT 9999 FEW030 BKN130 27/22 A2990=
201301172300 METAR MRLM 172300Z 09002KT 9999 FEW030 BKN130 27/22 A2992=
201301180000 METAR MRLM 180000Z 07003KT 9999 SCT020 BKN110 26/21 A2993=
201301180100 METAR MRLM NIL=
201301180200 METAR MRLM NIL=
201301180300 METAR MRLM NIL=
201301180400 METAR MRLM NIL=
201301180500 METAR MRLM NIL=
201301180600 METAR MRLM NIL=
201301180700 METAR MRLM NIL=
201301180800 METAR MRLM NIL=
201301180900 METAR MRLM NIL=
201301181000 METAR MRLM NIL=
201301181100 METAR MRLM NIL=
201301181200 METAR MRLM 181200Z 29005KT 9999 SCT010 BKN100 22/22 A2998=
201301181300 METAR MRLM 181300Z 31006KT 9999 SCT010 BKN100 23/21 A3002=
201301181400 METAR MRLM 181400Z 29005 9999 SCT015 BKN120 23/22 3003=
201301181500 METAR MRLM 181500Z 26004KT 9999 SCT020 BKN120 25/22 A3003=
201301181600 METAR MRLM 181600Z 25006KT 9999 FEW025 SCT130 27/22 A3002=
201301181700 METAR MRLM 181700Z 32004KT 9999 FEW035 29/21 A2999=
201301181800 METAR MRLM 181800Z 05007KT 9999 FEW030 SCT140 28/22 A2996=
201301181900 METAR MRLM 181900Z 04013KT -DZ 9999 SCT025 BKN120 26/21 A2995=
201301182000 METAR MRLM 182000Z 06020KT 9999 SCT010 BKN110 25/22 A2995=
201301182100 METAR MRLM 182100Z 27005KT 9999 FEW030 BKN120 27/20 A2992=
201301182200 METAR MRLM 182200Z 22005KT 9999 FEW020 BKN110 25/21 A2994=
201301182300 METAR MRLM 182300Z 23004KT 9999 FEW020 BKN110 25/21 A2995=
201301190000 METAR MRLM 190000Z 23003KT 9999 FEW010 BKN110 24/21 A2996=
201301190100 METAR MRLM NIL=
201301190200 METAR MRLM NIL=
201301190300 METAR MRLM NIL=
201301190400 METAR MRLM NIL=
201301190500 METAR MRLM NIL=
201301190600 METAR MRLM NIL=
201301190700 METAR MRLM NIL=
201301190800 METAR MRLM NIL=
201301190900 METAR MRLM NIL=
201301191000 METAR MRLM NIL=
201301191100 METAR MRLM NIL=
201301191200 METAR MRLM 191200Z 32005KT 9999 SCT015 BKN080 22/20 A2998=
201301191300 METAR MRLM 25005KT 9999 FEW015 SCT025 SCT080 23/20 A2999=
201301191303 METAR MRLM 191303Z 25005KT 9999 FEW015 SCT025 SCT080 23/20 A2999=
201301191400 METAR MRLM 191400Z 28003KT 9999 SCT015 SCT070 24/21 A3002=
201301191500 METAR MRLM 191500Z 11007KT 5000 +DZ VCSH BKN010 SCT080 23/21 A3005 RERA=
201301191600 METAR MRLM 191600Z 25005KT CAVOK 24/22 A3003 REDZ=
201301191700 METAR MRLM 191700Z 26006KT 9999 FEW020 BKN070 25/21 A3000=
201301191800 METAR MRLM 191800Z 07007KT 5000 RA BKN015 SCT090 24/22 A3000=
201301191900 METAR MRLM 191900Z 23005KT CAVOK 26/22 A2994 RERA=
201301192000 METAR MRLM 192000Z 24004KT 9999 FEW028 SCT070 SCT090 28/22 A2991=
201301192100 METAR MRLM 192100Z 28002KT CAVOK 28/21 A2990=
201301192200 METAR MRLM 192200Z 23002KT CAVOK 28/22 A2990=
201301192300 METAR MRLM 192300Z 21002KT CAVOK 27/23 A2990=
201301192355 METAR MRLM 200000Z 23002KT CAVOK 25/23 A2991=
201301200000 METAR MRLM 200000Z 23002KT CAVOK 25/23 A2991=
201301200100 METAR MRLM NIL=
201301200200 METAR MRLM NIL=
201301200300 METAR MRLM NIL=
201301200400 METAR MRLM NIL=
201301200500 METAR MRLM NIL=
201301200600 METAR MRLM NIL=
201301200700 METAR MRLM NIL=
201301200800 METAR MRLM NIL=
201301200900 METAR MRLM NIL=
201301201000 METAR MRLM NIL=
201301201100 METAR MRLM NIL=
201301201200 METAR MRLM 201200Z 22005KT CAVOK 22/20 A2995=
201301201300 METAR MRLM 201300Z 25003KT CAVOK 23/20 A2996=
201301201400 METAR MRLM 201400Z 24005KT CAVOK 24/21 A2998=
201301201500 METAR MRLM 201500Z 23002KT CAVOK 28/21 A2999=
201301201600 METAR MRLM 201600Z 06002KT CAVOK 28/21 A2998=
201301201700 METAR MRLM 201700Z 05004KT 9999 FEW030 BKN070 27/21 A2997=
201301201800 METAR MRLM 201800Z 06005KT 9999 FEW035 BKN090 28/21 A2994=
201301201900 METAR MRLM 201900Z 05005KT 9999 FEW035 BKN090 28/21 A2991=
201301202000 METAR MRLM 202000Z 04003KT 9999 FEW035 SCT140 28/21 A2988=
201301202100 METAR MRLM 202100Z 05004KT 9999 FEW032 BKN150 28/22 A2986=
201301202200 METAR MRLM 202200Z 12004KT 9999 FEW032 SCT140 28/22 A2986=
201301202300 METAR MRLM 202300Z 12004KT CAVOK 28/22 A2987=
201301202354 METAR MRLM 210000Z 12004KT CAVOK 27/22 A2989=
201301210000 METAR MRLM NIL=
201301210100 METAR MRLM NIL=
201301210200 METAR MRLM NIL=
201301210300 METAR MRLM NIL=
201301210400 METAR MRLM NIL=
201301210500 METAR MRLM NIL=
201301210600 METAR MRLM NIL=
201301210700 METAR MRLM NIL=
201301210800 METAR MRLM NIL=
201301210900 METAR MRLM NIL=
201301211000 METAR MRLM NIL=
201301211100 METAR MRLM NIL=
201301211200 METAR MRLM NIL=
201301211300 METAR MRLM 211300Z 24005KT CAVOK 22/19 A2994=
201301211400 METAR MRLM 211400Z 24004KT CAVOK 25/21 A2987=
201301211500 METAR MRLM 211500Z 12003KT 9999 FEW030 BKN090 28/22 A2997=
201301211600 METAR MRLM 211600Z 11004KT 9999 FEW030 SCT120 28/22 A2997=
201301211700 METAR MRLM 211700Z 11006KT 9999 FEW032 BKN140 29/22 A2995=
201301211800 METAR MRLM 211800Z 10005KT 9999 FEW032 29/23 A2993=
201301211900 METAR MRLM 211900Z 09007KT 9999 FEW035 29/22 A2990=
201301212000 METAR MRLM 212000Z 10007KT 9999 FEW035 SCT090 29/22 A2987=
201301212100 METAR MRLM 212100Z 09006KT 9999 FEW035 29/22 A2986=
201301212200 METAR MRLM NIL=
201301212300 METAR MRLM NIL=
201301220000 METAR MRLM NIL=
201301220100 METAR MRLM NIL=
201301220200 METAR MRLM NIL=
201301220300 METAR MRLM NIL=
201301220400 METAR MRLM NIL=
201301220500 METAR MRLM NIL=
201301220600 METAR MRLM NIL=
201301220700 METAR MRLM NIL=
201301220800 METAR MRLM NIL=
201301220900 METAR MRLM NIL=
201301221000 METAR MRLM NIL=
201301221100 METAR MRLM NIL=
201301221200 METAR MRLM NIL=
201301221300 METAR MRLM 221300Z 27002KT CAVOK 22/20 A2997=
201301221400 METAR MRLM 221400Z 24002KT CAVOK 24/21 A2999=
201301221500 METAR MRLM 221500Z 22003KT CAVOK 26/21 A3000=
201301221600 METAR MRLM 221600Z 10005KT CAVOK 28/22 A2999=
201301221700 METAR MRLM 221700Z 08004KT CAVOK 29/22 A2997=
201301221800 METAR MRLM 221800Z 09007KT 9999 FEW035 30/22 A2995=
201301221900 METAR MRLM 221900Z 10007KT 9999 FEW035 30/22 A2992=
201301222000 METAR MRLM 222000Z 08008KT 9999 FEW040 30/22 A2990=
201301222100 METAR MRLM 222100Z 08012KT CAVOK 29/23 A2991=
201301222200 METAR MRLM NIL=
201301222300 METAR MRLM NIL=
201301230000 METAR MRLM NIL=
201301230100 METAR MRLM NIL=
201301230200 METAR MRLM NIL=
201301230300 METAR MRLM NIL=
201301230400 METAR MRLM NIL=
201301230500 METAR MRLM NIL=
201301230600 METAR MRLM NIL=
201301230700 METAR MRLM NIL=
201301230800 METAR MRLM NIL=
201301230900 METAR MRLM NIL=
201301231000 METAR MRLM NIL=
201301231100 METAR MRLM NIL=
201301231200 METAR MRLM NIL=
201301231300 METAR MRLM 231300Z 26004KT CAVOK 23/21 A3003=
201301231359 METAR MRLM 2314000Z 27005KT CAVOK 25/21 A3005=
201301231400 METAR MRLM 2314000Z 27005KT CAVOK 25/21 A3005=
201301231500 METAR MRLM 231500Z 27003KT CAVOK 28/22 A3005=
201301231600 METAR MRLM 231600Z 09003KT 9999 FEW038 29/22 A3003=
201301231700 METAR MRLM 231700Z 05006KT 9999 FEW035 29/22 A3003=
201301231800 METAR MRLM 231800Z 05006KT 9999 FEW035 30/22 A3001=
201301231900 METAR MRLM 231900Z 04009KT 9999 FEW035 29/23 A2999=
201301232000 METAR MRLM 232000Z 05009KT 9999 FEW030 29/23 A2995=
201301232100 METAR MRLM 232100Z 05011KT 9999 FEW030 29/23 A2995=
201301232200 METAR MRLM NIL=
201301232300 METAR MRLM NIL=
201301240000 METAR MRLM NIL=
201301240100 METAR MRLM NIL=
201301240200 METAR MRLM NIL=
201301240300 METAR MRLM NIL=
201301240400 METAR MRLM NIL=
201301240500 METAR MRLM NIL=
201301240600 METAR MRLM NIL=
201301240700 METAR MRLM NIL=
201301240800 METAR MRLM NIL=
201301240900 METAR MRLM NIL=
201301241000 METAR MRLM NIL=
201301241100 METAR MRLM NIL=
201301241200 METAR MRLM NIL=
201301241300 METAR MRLM 241300Z 25005KT CAVOK 23/20 A3002=
201301241400 METAR MRLM 241400Z 23004KT CAVOK 26/21 A3004=
201301241500 METAR MRLM 241500Z 06002KT 9999 FEW035 BKN080 29/22 A3005=
201301241600 METAR MRLM 05004KT 9999 SCT030 SCT110 29/23 A3004=
201301241607 METAR MRLM 241607Z 05004KT 9999 SCT030 SCT110 29/23 A3004=
201301241700 METAR MRLM 241700Z 04006KT 9999 FEW035 BKN110 29/22 A3003=
201301241800 METAR MRLM 241800Z 04006KT 9999 FEW030 BKN090 29/23 A3001=
201301241900 METAR MRLM 241900Z 23005KT 9999 FEW030 BKN040 29/22 A2988=
201301241956 METAR MRLM 04006KT 9999 FEW030 SCT140 29/23 A2995=
201301242000 METAR MRLM 242000Z 04006KT 9999 FEW030 SCT140 29/23 A2995=
201301242100 METAR MRLM 242100Z 03006KT 9999 FEW030 29/23 A2994=
201301242200 METAR MRLM NIL=
201301242300 METAR MRLM NIL=
201301250000 METAR MRLM NIL=
201301250100 METAR MRLM NIL=
201301250200 METAR MRLM NIL=
201301250300 METAR MRLM NIL=
201301250400 METAR MRLM NIL=
201301250500 METAR MRLM NIL=
201301250600 METAR MRLM NIL=
201301250700 METAR MRLM NIL=
201301250800 METAR MRLM NIL=
201301250900 METAR MRLM NIL=
201301251000 METAR MRLM NIL=
201301251100 METAR MRLM NIL=
201301251200 METAR MRLM NIL=
201301251300 METAR MRLM 23004KT 9999 FEW015 SCT030 SCT090 22/21 A2999=
201301251301 METAR MRLM 251301Z 23004KT 9999 FEW015 SCT030 SCT090 22/21 A2999=
201301251400 METAR MRLM 251400Z 25003KT 9999 DZ VCSH BKN020 23/22 A3002=
201301251500 METAR MRLM 251500Z 26004KT 9999 BKN025 SCT090 23/22 A3004 REDZ=
201301251600 METAR MRLM 25005KT 9999 DZ FEW025 BKN090 24/21 A3003=
201301251603 METAR MRLM 251603Z 25005KT 9999 DZ FEW025 BKN090 24/21 A3003=
201301251700 METAR MRLM 251700Z 26004KT 9999 BKN025 SCT100 27/22 A3003 REDZ=
201301251800 METAR MRLM 251800Z 04005KT 9999 SCT035 SCT090 28/22 A2998=
201301251900 METAR MRLM 251900Z 02008KT 9999 FEW020 BKN030 27/21 A2996=
201301252000 METAR MRLM 252000Z 06006KT 9999 FEW030 BKN090 28/21 A2993=
201301252055 METAR MRLM 252055Z 08005KT 9999 FEW035 BKN130 28/21 A2990=
201301252100 METAR MRLM 08005KT 9999 FEW035 BKN130 28/21 A2990=
201301252200 METAR MRLM NIL=
201301252300 METAR MRLM NIL=
201301260000 METAR MRLM NIL=
201301260100 METAR MRLM NIL=
201301260200 METAR MRLM NIL=
201301260300 METAR MRLM NIL=
201301260400 METAR MRLM NIL=
201301260500 METAR MRLM NIL=
201301260600 METAR MRLM NIL=
201301260700 METAR MRLM NIL=
201301260800 METAR MRLM NIL=
201301260900 METAR MRLM NIL=
201301261000 METAR MRLM NIL=
201301261100 METAR MRLM NIL=
201301261200 METAR MRLM NIL=
201301261259 METAR MRLM 261259Z 26004KT 9999 DZ VCSH SCT015 SCT080 22/21 A3000=
201301261300 METAR MRLM 26004KT 9999 DZ VCSH SCT015 SCT080 22/21 A3000=
201301261400 METAR MRLM 261400Z 34005KT 9999 FEW025 SCT070 SCT090 23/22 A3001=
201301261500 METAR MRLM 261500Z 27004KT 9999 BKN015 SCT110 24/22 A3002=
201301261600 METAR MRLM 261600Z 26004KT 9999 FEW025 BKN070 27/22 A3001=
201301261700 METAR MRLM 261700Z 11003KT 9999 FEW035 SCT090 29/23 A2989=
201301261800 METAR MRLM 261800Z 10004KT 9999 FEW035 SCT130 29/22 A2997=
201301261900 METAR MRLM 261900Z 08006KT 9999 FEW035 BKN120 29/22 A2994=
201301262000 METAR MRLM 262000Z 09006KT 9999 FEW040 SCT140 30/22 A2992=
201301262100 METAR MRLM 262100Z 09005KT 9999 FEW040 29/21 A2991=
201301262200 METAR MRLM NIL=
201301262300 METAR MRLM NIL=
201301270000 METAR MRLM NIL=
201301270100 METAR MRLM NIL=
201301270200 METAR MRLM NIL=
201301270300 METAR MRLM NIL=
201301270400 METAR MRLM NIL=
201301270500 METAR MRLM NIL=
201301270600 METAR MRLM NIL=
201301270700 METAR MRLM NIL=
201301270800 METAR MRLM NIL=
201301270900 METAR MRLM NIL=
201301271000 METAR MRLM NIL=
201301271100 METAR MRLM NIL=
201301271200 METAR MRLM NIL=
201301271300 METAR MRLM 271300Z 24003KT CAVOK 22/21 A3000=
201301271400 METAR MRLM 271400Z 23003KT CAVOK 26/21 A3002=
201301271500 METAR MRLM 271500Z 11003KT CAVOK 29/22 A3002=
201301271600 METAR MRLM 271600Z 09004KT 9999 FEW035 SCT080 SCT090 29/22 A3002=
201301271700 METAR MRLM 271700Z 05006KT 9999 FEW030 BKN090 28/22 A3000=
201301271800 METAR MRLM 271800Z 06005KT 9999 FEW028 BKN090 28/22 A3000=
201301271900 METAR MRLM 271900Z 07005KT 9999 FEW035 SCT080 SCT090 28/21 A2996=
201301272000 METAR MRLM 272000Z 06007KT 9999 FEW035 SCT080 SCT090 28/22 A2994=
201301272100 METAR MRLM 272100Z 07008KT 9999 FEW035 SCT080 SCT090 28/22 A2993=
201301272200 METAR MRLM NIL=
201301272300 METAR MRLM NIL=
201301280000 METAR MRLM NIL=
201301280100 METAR MRLM NIL=
201301280200 METAR MRLM NIL=
201301280300 METAR MRLM NIL=
201301280400 METAR MRLM NIL=
201301280500 METAR MRLM NIL=
201301280600 METAR MRLM NIL=
201301280700 METAR MRLM NIL=
201301280800 METAR MRLM NIL=
201301280900 METAR MRLM NIL=
201301281000 METAR MRLM NIL=
201301281100 METAR MRLM NIL=
201301281200 METAR MRLM NIL=
201301281300 METAR MRLM 281300Z 25005KT CAVOK 21/19 A3002=
201301281400 METAR MRLM 281400Z 24004KT CAVOK 25/20 A30002=
201301281500 METAR MRLM 281500Z 08004KT CAVOK 29/21 A3003=
201301281600 METAR MRLM 281600Z 09004KT CAVOK 29/21 A3003=
201301281700 METAR MRLM 281700Z 06006KT 9999 FEW030 BKN080 28/22 A3001=
201301281800 METAR MRLM 281800Z 08006KT 9999 FEW035 29/22 A2999=
201301281900 METAR MRLM 281900Z 06007KT 9999 FEW035 SCT120 29/23 A2997=
201301281957 METAR MRLM 28200Z 07008KT 9999 FEW030 SCT090 30/23 A2994=
201301282000 METAR MRLM 28200Z 07008KT 9999 FEW030 SCT090 30/23 A2994=
201301282100 METAR MRLM 282100Z 09009KT 9999 FEW030 BKN090 29/23 A2993=
201301282200 METAR MRLM NIL=
201301282300 METAR MRLM NIL=
201301290000 METAR MRLM NIL=
201301290100 METAR MRLM NIL=
201301290200 METAR MRLM NIL=
201301290300 METAR MRLM NIL=
201301290400 METAR MRLM NIL=
201301290500 METAR MRLM NIL=
201301290600 METAR MRLM NIL=
201301290700 METAR MRLM NIL=
201301290800 METAR MRLM NIL=
201301290900 METAR MRLM NIL=
201301291000 METAR MRLM NIL=
201301291100 METAR MRLM NIL=
201301291200 METAR MRLM NIL=
201301291300 METAR MRLM 291300Z 11006KT 4000 +DZ VCSH BKN015 24/22 A3000=
201301291400 METAR MRLM 291400Z 24004KT 3000 RA BKN015 SCT090 23/22 A3001=
201301291500 METAR MRLM 291500Z 25006KT 9999 FEW004 BKN015 23/22 A3002 RERA=
201301291600 METAR MRLM 291600Z 25005KT 9999 FEW012 SCT035 SCT090 24/23 A3001=
201301291700 METAR MRLM 291700Z 25005KT 9999 SCT015 SCT090 28/23 A2997=
201301291800 METAR MRLM 291800Z 22005KT 9999 FEW028 BKN090 28/23 A2996=
201301291900 METAR MRLM 291900Z 13005KT 9999 SCT030 29/23 A2993=
201301292000 METAR MRLM 292000Z 10006KT 9999 SCTTCU035 29/22 A2990=
201301292100 METAR MRLM NIL=
201301292200 METAR MRLM NIL=
201301292300 METAR MRLM NIL=
201301300000 METAR MRLM NIL=
201301300100 METAR MRLM NIL=
201301300200 METAR MRLM NIL=
201301300300 METAR MRLM NIL=
201301300400 METAR MRLM NIL=
201301300500 METAR MRLM NIL=
201301300600 METAR MRLM NIL=
201301300700 METAR MRLM NIL=
201301300800 METAR MRLM NIL=
201301300900 METAR MRLM NIL=
201301301000 METAR MRLM NIL=
201301301100 METAR MRLM NIL=
201301301200 METAR MRLM NIL=
201301301300 METAR MRLM 301300Z 23004KT 9999 FEW015 BKN080 22/21 A2994=
201301301400 METAR MRLM 301400Z 25002KT 9999 FEW015 BKN080 24/21 A2995=
201301301500 METAR MRLM 301500Z 24003KT CAVOK 25/22 A2995=
201301301600 METAR MRLM 301600Z 11002KT CAVOK 27/22 A2994=
201301301700 METAR MRLM 301700Z 13007KT 9999 FEW028 BKN080 28/22 A2993=
201301301800 METAR MRLM 301800Z 13007KT 9999 FEW025 SCT080 SCT090 28/23 A2991=
201301301900 METAR MRLM 301900Z 12011KT CAVOK 28/22 A2988=
201301302000 METAR MRLM 302000Z 11006KT CAVOK 29/22 A2986=
201301302100 METAR MRLM 302100Z 10006KT CAVOK 28/23 A2985=
201301302200 METAR MRLM NIL=
201301302300 METAR MRLM NIL=
201301310000 METAR MRLM NIL=
201301310100 METAR MRLM NIL=
201301310200 METAR MRLM NIL=
201301310300 METAR MRLM NIL=
201301310400 METAR MRLM NIL=
201301310500 METAR MRLM NIL=
201301310600 METAR MRLM NIL=
201301310700 METAR MRLM NIL=
201301310800 METAR MRLM NIL=
201301310900 METAR MRLM NIL=
201301311000 METAR MRLM NIL=
201301311100 METAR MRLM NIL=
201301311200 METAR MRLM NIL=
201301311300 METAR MRLM 311300Z 24004KT 9999 FEW015 SCT070 26/23 A2993=
201301311400 METAR MRLM 311400Z 24003KT CAVOK 27/23 A2995=
201301311500 METAR MRLM 311500Z 13003KT 9999 SCT030 29/23 A2996=
201301311600 METAR MRLM 311600Z 07004KT 9999 SCT032 SCT080 29/23 A2997=
201301311700 METAR MRLM 311700Z 05010KT 9999 FEW025 SCT090 28/23 A2996=
201301311800 METAR MRLM 311800Z 0808KT 9999 FEW020 BKN070 27/23 A2994=
201301311900 METAR MRLM 311900Z 07006KT 9999 FEW025 SCT070 SCT080 28/23 A2992=
201301312000 METAR MRLM 312000Z 12004KT 9999 FEW025 BKN090 28/23 A2990=
201301312100 METAR MRLM 312100Z 10003KT 9999 FEW040 BKN080 30/22 A2988=
201301312200 METAR MRLM NIL=
201301312300 METAR MRLM NIL=
201302010000 METAR MRLM NIL=
201302010100 METAR MRLM NIL=
201302010200 METAR MRLM NIL=
201302010300 METAR MRLM NIL=
201302010400 METAR MRLM NIL=
201302010500 METAR MRLM NIL=
201302010600 METAR MRLM NIL=
201302010700 METAR MRLM NIL=
201302010800 METAR MRLM NIL=
201302010900 METAR MRLM NIL=
201302011000 METAR MRLM NIL=
201302011100 METAR MRLM NIL=
201302011200 METAR MRLM NIL=
201302011300 METAR MRLM 011300Z 24005KT 9999 FEW015 SCT025 22/21 A2997=
201302011400 METAR MRLM 011400Z 22003KT 8000 +DZ VCSH FEW015 BKN025 24/21 A3000=
201302011500 METAR MRLM 011500Z 24004KT 9999 BKN015 25/22 A3001 RERA=
201302011600 METAR MRLM 011600Z 20003KT 8000 +DZ VCSH BKN015 SCT090 25/22 A3002=
201302011700 METAR MRLM 011700Z 24005KT 9999 FEW015 SCT070 SCT090 25/23 A3000 REDZ=
201302011800 METAR MRLM 011800Z 25005KT 9999 BKN035 29/22 A2997=
201302011900 METAR MRLM 011900Z 01005KT 9999 BKN030 SCT080 28/22 A2996=
201302012000 METAR MRLM 012000Z 35003KT 9999 FEW015 BKN035 28/22 A2993=
201302012100 METAR MRLM 012100Z 25002KT 9999 FEW035 BKN080 29/21 A2993=
201302012200 METAR MRLM NIL=
201302012300 METAR MRLM NIL=
201302020000 METAR MRLM NIL=
201302020100 METAR MRLM NIL=
201302020200 METAR MRLM NIL=
201302020300 METAR MRLM NIL=
201302020400 METAR MRLM NIL=
201302020500 METAR MRLM NIL=
201302020600 METAR MRLM NIL=
201302020700 METAR MRLM NIL=
201302020800 METAR MRLM NIL=
201302020900 METAR MRLM NIL=
201302021000 METAR MRLM NIL=
201302021100 METAR MRLM NIL=
201302021200 METAR MRLM 021200Z 26005KT 9999 FEW010 BKN090 20/18 A2988=
201302021300 METAR MRLM 021300Z 21004KT 9999 DZ BKN010 SCT090 20/18 A3001=
201302021400 METAR MRLM 021400Z 12007KT 9999 RA SCT010 BKN090 22/20 A3003=
201302021500 METAR MRLM 021500Z 36005KT 9999 -DZ BKN015 SCT090 23/20 A3004 RERA=
201302021600 METAR MRLM 021600Z 26005KT 9999 SCT015 SCT100 23/21 A3004=
201302021700 METAR MRLM 021700Z 26005KT 9999 FEW020 BKN110 26/21 A3001=
201302021800 METAR MRLM 021800Z 23003KT 9999 FEW035 BKN130 28/20 A2998=
201302021900 METAR MRLM 021900Z 06007KT 9999 SCT025 SCT110 27/21 A2996=
201302022000 METAR MRLM 022000Z 02006KT 9999 SCT030 BKN120 27/21 A2993=
201302022100 METAR MRLM 022100Z 00000KT 9999 SCT030 BKN120 27/20 A2992=
201302022200 METAR MRLM 022200Z 34005KT 9999 -DZ SCT015 SCT110 24/21 A2993=
201302022300 METAR MRLM 022300Z 25005KT 9999 FEW015 BKN100 23/20 A2993=
201302030000 METAR MRLM 030000Z 25004KT 9999 FEW010 BKN100 23/20 A2993=
201302030100 METAR MRLM NIL=
201302030200 METAR MRLM NIL=
201302030300 METAR MRLM NIL=
201302030400 METAR MRLM NIL=
201302030500 METAR MRLM NIL=
201302030600 METAR MRLM NIL=
201302030700 METAR MRLM NIL=
201302030800 METAR MRLM NIL=
201302030900 METAR MRLM NIL=
201302031000 METAR MRLM NIL=
201302031100 METAR MRLM NIL=
201302031200 METAR MRLM 031200Z 25003KT CAVOK 20/19 A2994=
201302031300 METAR MRLM 031300Z 25005KT CAVOK 21/19 A2995=
201302031400 METAR MRLM 031400Z 26003KT CAVOK 23/20 A2998=
201302031500 METAR MRLM 031500Z 26004KT CAVOK 26/20 A2998=
201302031600 METAR MRLM 031600Z 10003KT CAVOK 28/21 A2999=
201302031700 METAR MRLM 031700Z 07004KT 9999 FEW030 BKN140 28/21 A2997=
201302031800 METAR MRLM 031800Z 05003KT 9999 FEW040 BKN140 29/21 A2995=
201302031900 METAR MRLM 031900Z 04004KT 9999 FEW040 BKN140 29/21 A2993=
201302032000 METAR MRLM 032000Z 04005KT 9999 FEW035 BKN130 28/21 A2991=
201302032100 METAR MRLM 032100Z 05003KT 9999 FEW030 BKN130 28/21 A2990=
201302032200 METAR MRLM 032200Z 06004KT 9999 FEW030 BKN130 28/22 A2990=
201302032300 METAR MRLM 032300Z 00000KT 9999 -DZ FEW030 BKN130 27/21 A2991=
201302040000 METAR MRLM 040000Z 23002KT 9999 FEW015 BKN120 25/22 A2992=
201302040100 METAR MRLM NIL=
201302040200 METAR MRLM NIL=
201302040300 METAR MRLM NIL=
201302040400 METAR MRLM NIL=
201302040500 METAR MRLM NIL=
201302040600 METAR MRLM NIL=
201302040700 METAR MRLM NIL=
201302040800 METAR MRLM NIL=
201302040900 METAR MRLM NIL=
201302041000 METAR MRLM NIL=
201302041100 METAR MRLM NIL=
201302041200 METAR MRLM NIL=
201302041300 METAR MRLM 041300Z 24004KT CAVOK 23/20 A2993=
201302041400 METAR MRLM 041400Z 23005KT CAVOK 24/20 A2994=
201302041500 METAR MRLM 041500Z 24004KT CAVOK 26/21 A2996=
201302041600 METAR MRLM 041600Z 11008KT CAVOK 29/21 A2995=
201302041700 METAR MRLM 041700Z 13006KT CAVOK 29/21 A2993=
201302041800 METAR MRLM 041800Z 12005KT 9999 FEW040 SCT150 29/22 A2991=
201302041900 METAR MRLM 041900Z 11006KT 9999 FEW040 SCT150 29/22 A2989=
201302042000 METAR MRLM 042000Z 11007KT 9999 FEW035 29/22 A2986=
201302042100 METAR MRLM 042100Z 09007KT 9999 FEW035 29/22 A2984=
201302042200 METAR MRLM NIL=
201302042300 METAR MRLM NIL=
201302050000 METAR MRLM NIL=
201302050100 METAR MRLM NIL=
201302050200 METAR MRLM NIL=
201302050300 METAR MRLM NIL=
201302050400 METAR MRLM NIL=
201302050500 METAR MRLM NIL=
201302050600 METAR MRLM NIL=
201302050700 METAR MRLM NIL=
201302050800 METAR MRLM NIL=
201302050900 METAR MRLM NIL=
201302051000 METAR MRLM NIL=
201302051100 METAR MRLM NIL=
201302051200 METAR MRLM NIL=
201302051300 METAR MRLM 051300Z 25004KT 9999 FEW010 21/19 A2994=
201302051400 METAR MRLM 051400Z 23004KT 9999 FEW025 SCT120 26/21 A2996=
201302051500 METAR MRLM 051500Z 21002KT 9999 FEW025 SCT120 26/21 A2997=
201302051600 METAR MRLM 051600Z 12003KT 9999 FEW035 29/21 A2996=
201302051700 METAR MRLM 051700Z 09006KT 9999 FEW035 29/22 A2995=
201302051800 METAR MRLM 051800Z 10007KT 9999 FEW030 29/22 A2993=
201302051900 METAR MRLM 051900Z 10008KT 9999 FEW030 SCT250 29/22 A2990=
201302052000 METAR MRLM 052000Z 09007KT 9999 FEW035 BKN250 29/22 A2988=
201302052100 METAR MRLM 052100Z 09005KT 9999 FEW040 BKN250 29/20 A2987=
201302052200 METAR MRLM NIL=
201302052300 METAR MRLM NIL=
201302060000 METAR MRLM NIL=
201302060100 METAR MRLM NIL=
201302060200 METAR MRLM NIL=
201302060300 METAR MRLM NIL=
201302060400 METAR MRLM NIL=
201302060500 METAR MRLM NIL=
201302060600 METAR MRLM NIL=
201302060700 METAR MRLM NIL=
201302060800 METAR MRLM NIL=
201302060900 METAR MRLM NIL=
201302061000 METAR MRLM NIL=
201302061100 METAR MRLM NIL=
201302061200 METAR MRLM NIL=
201302061300 METAR MRLM 061300Z 26004KT 9999 FEW010 BKN100 20/19 A2995=
201302061400 METAR MRLM 061400Z 24005KT 9999 FEW015 BKN110 22/20 A2996=
201302061500 METAR MRLM 061500Z 24004KT 9999 FEW020 BKN120 24/21 A2998=
201302061600 METAR MRLM 061600Z 07003KT CAVOK 29/20 A2997=
201302061700 METAR MRLM 061700Z 10002KT 9999 SCT035 BKN120 28/19 A2996=
201302061800 METAR MRLM 061800Z 06005KT 9999 BKN030 SCT120 28/21 A2994=
201302061900 METAR MRLM 061900Z 09005KT 9999 SCT030 BKN120 28/22 A2992=
201302062000 METAR MRLM 062000Z 14005KT 9999 SCT025 BKN130 28/22 A2990=
201302062100 METAR MRLM 062100Z 12002KT 9999 FEW025 BKN250 28/22 A2989=
201302062200 METAR MRLM NIL=
201302062300 METAR MRLM NIL=
201302070000 METAR MRLM NIL=
201302070100 METAR MRLM NIL=
201302070200 METAR MRLM NIL=
201302070300 METAR MRLM NIL=
201302070400 METAR MRLM NIL=
201302070500 METAR MRLM NIL=
201302070600 METAR MRLM NIL=
201302070700 METAR MRLM NIL=
201302070800 METAR MRLM NIL=
201302070900 METAR MRLM NIL=
201302071000 METAR MRLM NIL=
201302071100 METAR MRLM NIL=
201302071200 METAR MRLM NIL=
201302071300 METAR MRLM 071300Z 23005KT CAVOK 21/20 A2994=
201302071400 METAR MRLM 071400Z 24004KT CAVOK 25/21 A2996=
201302071500 METAR MRLM 071500Z 11003KT 9999 FEW035 29/22 A2996=
201302071600 METAR MRLM 071600Z 11003KT 9999 FEW035 29/22 A2997=
201302071700 METAR MRLM 071700Z 10004KT 9999 FEW040 29/22 A2995=
201302071800 METAR MRLM 071800Z 09006KT 9999 FEW035 29/22 A2993=
201302071900 METAR MRLM 071900Z 09006KT 9999 FEW035 29/22 A2990=
201302072000 METAR MRLM 072000Z 08005KT 9999 FEW035 29/22 A2987=
201302072100 METAR MRLM 072100Z 08004KT 9999 FEW030 29/22 A2986=
201302072200 METAR MRLM NIL=
201302072300 METAR MRLM NIL=
201302080000 METAR MRLM NIL=
201302080100 METAR MRLM NIL=
201302080200 METAR MRLM NIL=
201302080300 METAR MRLM NIL=
201302080400 METAR MRLM NIL=
201302080500 METAR MRLM NIL=
201302080600 METAR MRLM NIL=
201302080700 METAR MRLM NIL=
201302080800 METAR MRLM NIL=
201302080900 METAR MRLM NIL=
201302081000 METAR MRLM NIL=
201302081100 METAR MRLM NIL=
201302081200 METAR MRLM NIL=
201302081300 METAR MRLM 081300Z 26005KT CAVOK 21/19 A2994=
201302081400 METAR MRLM 081400Z 24004KT CAVOK 25/20 A2995=
201302081500 METAR MRLM 081500Z 10003KT 9999 FEW040 28/21 A2997=
201302081600 METAR MRLM 081600Z 11003KT 9999 FEW040 29/21 A2998=
201302081700 METAR MRLM 081700Z 12004KT 9999 FEW040 29/21 A2997=
201302081800 METAR MRLM 081800Z 11005KT 9999 FEW040 29/21 A2994=
201302081900 METAR MRLM 081900Z 09006KT 9999 FEW040 29/21 A2992=
201302082000 METAR MRLM 082000Z 07007KT 9999 FEW040 29/22 A2990=
201302082100 METAR MRLM 082100Z 08007KT 9999 FEW035 29/22 A2989=
201302082200 METAR MRLM NIL=
201302082300 METAR MRLM NIL=
201302090000 METAR MRLM NIL=
201302090100 METAR MRLM NIL=
201302090200 METAR MRLM NIL=
201302090300 METAR MRLM NIL=
201302090400 METAR MRLM NIL=
201302090500 METAR MRLM NIL=
201302090600 METAR MRLM NIL=
201302090700 METAR MRLM NIL=
201302090800 METAR MRLM NIL=
201302090900 METAR MRLM NIL=
201302091000 METAR MRLM NIL=
201302091100 METAR MRLM NIL=
201302091200 METAR MRLM NIL=
201302091300 METAR MRLM 091300Z 00000KT CAVOK 22/20 A2997=
201302091400 METAR MRLM 091400Z 25003KT CAVOK 24/21 A2998=
201302091500 METAR MRLM 091500Z 00000KT CAVOK 28/22 A2999=
201302091600 METAR MRLM 091600Z 08003KT 9999 FEW035 29/21 A3000=
201302091700 METAR MRLM 091700Z 06005KT 9999 FEW035 28/22 A2998=
201302091800 METAR MRLM 091800Z 07006KT 9999 FEW030 SCT140 29/22 A2997=
201302091900 METAR MRLM 091900Z 07006KT 9999 FEW030 SCT130 29/22 A2994=
201302092000 METAR MRLM 092000Z 07008KT 9999 FEW030 BKN120 29/22 A2992=
201302092100 METAR MRLM 092100Z 08007KT 9999 FEW030 BKN120 28/22 A2991=
201302092200 METAR MRLM NIL=
201302092300 METAR MRLM NIL=
201302100000 METAR MRLM NIL=
201302100100 METAR MRLM NIL=
201302100200 METAR MRLM NIL=
201302100300 METAR MRLM NIL=
201302100400 METAR MRLM NIL=
201302100500 METAR MRLM NIL=
201302100600 METAR MRLM NIL=
201302100700 METAR MRLM NIL=
201302100800 METAR MRLM NIL=
201302100900 METAR MRLM NIL=
201302101000 METAR MRLM NIL=
201302101100 METAR MRLM NIL=
201302101200 METAR MRLM NIL=
201302101300 METAR MRLM 101300Z 25004KT 9999 FEW015 22/20 A2998=
201302101400 METAR MRLM 101400Z 24004KT 9999 FEW020 25/21 A3000=
201302101500 METAR MRLM 101500Z 12004KT 9999 FEW035 29/22 A3002=
201302101600 METAR MRLM 101600Z 12006KT 9999 FEW040 29/21 A3002=
201302101700 METAR MRLM 101700Z 10006KT 9999 FEW040 29/21 A3000=
201302101800 METAR MRLM 101800Z 10006KT 9999 FEW040 29/21 A2998=
201302101900 METAR MRLM 101900Z 08010KT 9999 FEW040 30/21 A2996=
201302102000 METAR MRLM 102000Z 09008KT 9999 FEW040 29/21 A2993=
201302102100 METAR MRLM 102100Z 07009KT 9999 FEW035 29/22 A2992=
201302102200 METAR MRLM NIL=
201302102300 METAR MRLM NIL=
201302110000 METAR MRLM NIL=
201302110100 METAR MRLM NIL=
201302110200 METAR MRLM NIL=
201302110300 METAR MRLM NIL=
201302110400 METAR MRLM NIL=
201302110500 METAR MRLM NIL=
201302110600 METAR MRLM NIL=
201302110700 METAR MRLM NIL=
201302110800 METAR MRLM NIL=
201302110900 METAR MRLM NIL=
201302111000 METAR MRLM NIL=
201302111100 METAR MRLM NIL=
201302111200 METAR MRLM NIL=
201302111300 METAR MRLM 111300Z 25004KT CAVOK 21/18 A2998=
201302111400 METAR MRLM 111400Z 25005KT CAVOK 25/19 A2999=
201302111500 METAR MRLM 111500Z 00000KT CAVOK 28/20 A3000=
201302111600 METAR MRLM 111600Z 12004KT CAVOK 29/21 A2999=
201302111700 METAR MRLM 111700Z 08005KT 9999 FEW030 SCT140 28/22 A2997=
201302111800 METAR MRLM 111800Z 08007KT 9999 FEW030 BKN130 28/22 A2995=
201302111900 METAR MRLM 111900Z 07006KT 9999 FEW030 BKN130 28/22 A2993=
201302112000 METAR MRLM 112000Z 06007KT 9999 FEW035 BKN140 29/21 A2990=
201302112100 METAR MRLM 112100Z 04004KT 9999 FEW040 SCT140 29/22 A2989=
201302112200 METAR MRLM NIL=
201302112300 METAR MRLM NIL=
201302120000 METAR MRLM NIL=
201302120100 METAR MRLM NIL=
201302120200 METAR MRLM NIL=
201302120300 METAR MRLM NIL=
201302120400 METAR MRLM NIL=
201302120500 METAR MRLM NIL=
201302120600 METAR MRLM NIL=
201302120700 METAR MRLM NIL=
201302120800 METAR MRLM NIL=
201302120900 METAR MRLM NIL=
201302121000 METAR MRLM NIL=
201302121100 METAR MRLM NIL=
201302121200 METAR MRLM 121200Z 24006KT 9999 SCT025 BKN080 21/18 A2992=
201302121300 METAR MRLM 121300Z 25002KT 9999 FEW020 BKN080 21/19 A2994=
201302121400 METAR MRLM 121400Z 13011KT 9999 BKN020 25/22 A2997=
201302121500 METAR MRLM NIL=
201302121600 METAR MRLM 121600Z 05003KT 9999 DZ FEW025 BKN090 25/20 A3001=
201302121700 METAR MRLM 121700Z 21005KT 9999 FEW028 BKN080 26/21 A2998 REDZ=
201302121800 METAR MRLM 121800Z 22005KT 9999 FEW045 BKN100 29/21 A2995=
201302121900 METAR MRLM 121900Z 18005KT CAVOK 30/20 A2991=
201302122000 METAR MRLM 122000Z 11007KT CAVOK 30/21 A2988=
201302122100 METAR MRLM 122100Z 07005KT 9999 SCT045 SCT080 29/21 A2987=
201302122200 METAR MRLM 122200Z 10012KT 9999 FEW030 BKN080 28/21 A2987=
201302122300 METAR MRLM 122300Z 08009KT 9999 SCT040 SCT080 28/20 A2987=
201302122356 METAR MRLM 130000Z 13010KT 9999 BKN030 SCT090 27/21 A2988=
201302130000 METAR MRLM 130000Z 13010KT 9999 BKN030 SCT090 27/21 A2988=
201302130100 METAR MRLM NIL=
201302130200 METAR MRLM NIL=
201302130300 METAR MRLM NIL=
201302130400 METAR MRLM NIL=
201302130500 METAR MRLM NIL=
201302130600 METAR MRLM NIL=
201302130700 METAR MRLM NIL=
201302130800 METAR MRLM NIL=
201302130900 METAR MRLM NIL=
201302131000 METAR MRLM NIL=
201302131100 METAR MRLM NIL=
201302131200 METAR MRLM 131200Z 24004KT 9999 BKN015 21/20 A2990=
201302131300 METAR MRLM 131300Z 24006KT 9999 BKN015 SCT090 21/20 A2991=
201302131400 METAR MRLM 131400Z 25004KT 9999 SCT025 SCT090 23/21 A2993=
201302131500 METAR MRLM 131500Z 24003KT 9999 SCT025 BKN090 27/23 A2995=
201302131600 METAR MRLM 131600Z 08009KT 9999 SCT028 SCT080 26/21 A2995=
201302131700 METAR MRLM 131700Z 13004KT 9999 FEW032 BKN070 27/21 A2993=
201302131800 METAR MRLM 131800Z 10004KT 9999 FEW035 BKN090 29/21 A2991=
201302131900 METAR MRLM 131900Z 09004KT 9999 FEW035 BKN080 29/22 A2989=
201302132000 METAR MRLM 132000Z 07006KT 9999 FEW035 SCT080 29/22 A2985=
201302132100 METAR MRLM 132100Z 08005KT 9999 FEW030 29/22 A2984=
201302132200 METAR MRLM 132200Z 07005KT 9999 BKN030 28/22 A2984=
201302132300 METAR MRLM 132300Z 07007KT 9999 OVC015 28/22 A2984=
201302132354 METAR MRLM 140000Z 07008KT 9999 OVC025 28/22 A2984=
201302140000 METAR MRLM 140000Z 07008KT 9999 OVC025 28/22 A2984=
201302140100 METAR MRLM NIL=
201302140200 METAR MRLM NIL=
201302140300 METAR MRLM NIL=
201302140400 METAR MRLM NIL=
201302140500 METAR MRLM NIL=
201302140600 METAR MRLM NIL=
201302140700 METAR MRLM NIL=
201302140800 METAR MRLM NIL=
201302140900 METAR MRLM NIL=
201302141000 METAR MRLM NIL=
201302141100 METAR MRLM NIL=
201302141200 METAR MRLM 141200Z 20004KT 9999 DZ VCSH BKN007 22/22 A2991=
201302141300 METAR MRLM 141300Z 25003KT 9999 DZ VCSH BKN007 22/21 A2993=
201302141400 METAR MRLM 141400Z 24006KT 9999 BKN010 SCT100 23/22 A2994 REDZ=
201302141500 METAR MRLM 141500Z 21003KT 9999 BKN015 SCT100 24/22 A2996=
201302141600 METAR MRLM 141600Z 06007KT 9999 +DZ BKN015 24/21 A2998=
201302141700 METAR MRLM 141700Z 27007KT 9999 -DZ SCT015 SCT100 23/21 A2996=
201302141800 METAR MRLM 141800Z 22005KT 9999 FEW020 BKN110 25/22 A2994=
201302141900 METAR MRLM 141900Z 00000KT 9999 FEW030 BKN120 28/22 A2991=
201302142000 METAR MRLM 142000Z 06003KT 9999 FEW030 BKN120 28/22 A2988=
201302142100 METAR MRLM 142100Z 00000KT 9999 FEW030 BKN130 28/21 A2987=
201302142200 METAR MRLM 142200Z 26003KT 9999 FEW025 BKN130 26/21 A2985=
201302142300 METAR MRLM 142300Z 26003KT 9999 FEW020 SCT120 25/21 A2987=
201302150000 METAR MRLM 150000Z 25003KT 9999 FEW015 SCT120 24/21 A2988=
201302150100 METAR MRLM NIL=
201302150200 METAR MRLM NIL=
201302150300 METAR MRLM NIL=
201302150400 METAR MRLM NIL=
201302150500 METAR MRLM NIL=
201302150600 METAR MRLM NIL=
201302150700 METAR MRLM NIL=
201302150800 METAR MRLM NIL=
201302150900 METAR MRLM NIL=
201302151000 METAR MRLM NIL=
201302151100 METAR MRLM NIL=
201302151200 METAR MRLM 151200Z 24005KT CAVOK 20/18 A2990=
201302151300 METAR MRLM 151300Z 25003KT CAVOK 21/18 A2992=
201302151400 METAR MRLM 151400Z 23003KT CAVOK 25/20 A2993=
201302151500 METAR MRLM 151500Z 11003KT CAVOK 28/20 A2994=
201302151600 METAR MRLM 151600Z 10004KT 9999 FEW040 28/20 A2994=
201302151700 METAR MRLM 151700Z 11006KT 9999 FEW040 29/21 A2993=
201302151800 METAR MRLM 151800Z 11006KT 9999 FEW040 29/21 A2990=
201302151900 METAR MRLM 151900Z 10008KT 9999 FEW030 29/22 A2987=
201302152000 METAR MRLM 152000Z 06008KT 9999 FEW030 28/23 A2985=
201302152100 METAR MRLM 152100Z 09005KT 9999 FEW030 28/23 A2983=
201302152200 METAR MRLM 152200Z 09005KT 9999 FEW025 27/22 A2983=
201302152300 METAR MRLM 152300Z 08005KT 9999 SCT025 SCT130 27/22 A2985=
201302160000 METAR MRLM 160000Z 07004KT 9999 BKN020 27/22 A2986=
201302160100 METAR MRLM NIL=
201302160200 METAR MRLM NIL=
201302160300 METAR MRLM NIL=
201302160400 METAR MRLM NIL=
201302160500 METAR MRLM NIL=
201302160600 METAR MRLM NIL=
201302160700 METAR MRLM NIL=
201302160800 METAR MRLM NIL=
201302160900 METAR MRLM NIL=
201302161000 METAR MRLM NIL=
201302161100 METAR MRLM NIL=
201302161200 METAR MRLM 161200Z 23005KT CAVOK 23/21 A2989=
201302161300 METAR MRLM 161300Z 24005KT CAVOK 23/21 A2990=
201302161400 METAR MRLM 161400Z 25003KT CAVOK 25/22 A2992=
201302161500 METAR MRLM 161500Z 04002KT CAVOK 27/22 A2995=
201302161600 METAR MRLM 161600Z 06005KT 9999 FEW030 BKN120 28/23 A2995=
201302161700 METAR MRLM 161700Z 03009KT 9999 FEW030 29/23 A2994=
201302161800 METAR MRLM 161800Z 03009KT 9999 FEW032 29/23 A2992=
201302161900 METAR MRLM 161900Z 03009KT 9999 FEW030 29/23 A2989=
201302162000 METAR MRLM NIL=
201302162004 METAR MRLM 182000Z 02009KT 9999 FEW032 29/22 A2987=
201302162100 METAR MRLM 162100Z 02013KT 9999 SCT028 SCT090 28/23 A2986=
201302162200 METAR MRLM 162200Z 04012KT 9999 BKN018 26/23 A2987=
201302162300 METAR MRLM 162300Z 04011KT 9999 FEW020 SCT090 26/22 A2989=
201302162358 METAR MRLM 170000Z 06006KT 9999 FEW030 SCT080 SCT140 27/21 A2990=
201302170000 METAR MRLM 170000Z 06006KT 9999 FEW030 SCT080 SCT140 27/21 A2990=
201302170100 METAR MRLM NIL=
201302170200 METAR MRLM NIL=
201302170300 METAR MRLM NIL=
201302170400 METAR MRLM NIL=
201302170500 METAR MRLM NIL=
201302170600 METAR MRLM NIL=
201302170700 METAR MRLM NIL=
201302170800 METAR MRLM NIL=
201302170900 METAR MRLM NIL=
201302171000 METAR MRLM NIL=
201302171100 METAR MRLM NIL=
201302171200 METAR MRLM 171200Z 26003KT 9999 FEW015 BKN080 22/19 A2997=
201302171300 METAR MRLM 171300Z 26003KT 9999 FEW015 BKN080 23/20 A2998=
201302171400 METAR MRLM 171400Z 26004KT CAVOK 26/20 A3000=
201302171500 METAR MRLM 171500Z 30004KT 9999 FEW040 BKN080 27/20 A3001=
201302171600 METAR MRLM 171600Z 36007KT 9999 FEW045 SCT080 29/19 A3000=
201302171700 METAR MRLM 171700Z 01013KT 9999 FEW030 SCT080 30/20 A2998=
201302171800 METAR MRLM 171800Z 01010KT 9999 FEW030 SCT080 30/20 A2995=
201302171900 METAR MRLM 171900Z 01012KT 9999 FEW030 SCT080 29/21 A2993=
201302172000 METAR MRLM 172000Z 01013KT 9999 FEW030 SCT100 30/21 A2990=
201302172100 METAR MRLM 172100Z 01012KT 9999 FEW030 SCT090 29/18 A2989=
201302172200 METAR MRLM 172200Z 02014KT 9999 FEW030 SCT045 28/21 A2989=
201302172300 METAR MRLM 172300Z 02011KT 9999 FEW030 SCT070 SCT090 28/21 A2990=
201302172356 METAR MRLM 180000Z 02011KT 9999 BKN030 27/21 A2992=
201302180000 METAR MRLM 180000Z 02011KT 9999 BKN030 27/21 A2992=
201302180100 METAR MRLM NIL=
201302180200 METAR MRLM NIL=
201302180300 METAR MRLM NIL=
201302180400 METAR MRLM NIL=
201302180500 METAR MRLM NIL=
201302180600 METAR MRLM NIL=
201302180700 METAR MRLM NIL=
201302180800 METAR MRLM NIL=
201302180900 METAR MRLM NIL=
201302181000 METAR MRLM NIL=
201302181100 METAR MRLM NIL=
201302181200 METAR MRLM 181200Z 21005KT 9999 BKN010 21/20 A2994=
201302181300 METAR MRLM 181300Z 24005KT 9999 BKN010 SCT100 22/20 A2997=
201302181400 METAR MRLM 181400Z 24005KT 9999 SCT015 BKN110 23/20 A2997=
201302181500 METAR MRLM 181500Z 22005KT 9999 FEW020 BKN120 26/21 A2999=
201302181600 METAR MRLM 181600Z 26003KT 9999 FEW020 BKN120 27/22 A3000=
201302181700 METAR MRLM 181700Z 07003KT 9999 FEW035 SCT130 29/21 A2997=
201302181800 METAR MRLM 181800Z 11005KT 9999 FEW040 29/21 A2994=
201302181900 METAR MRLM 181900Z 12007KT 9999 FEW040 29/20 A2991=
201302182000 METAR MRLM 182000Z 14010KT 9999 FEW045 30/20 A2988=
201302182100 METAR MRLM 182100Z 12009KT 9999 FEW040 SCT140 29/21 A2987=
201302182200 METAR MRLM 182200Z 13007KT 9999 FEW030 BKN130 28/21 A2986=
201302182300 METAR MRLM 182300Z 08007KT 9999 FEW030 BKN120 28/21 A2986=
201302190000 METAR MRLM 190000Z 07006KT 9999 FEW025 BKN120 27/22 A2988=
201302190100 METAR MRLM NIL=
201302190200 METAR MRLM NIL=
201302190300 METAR MRLM NIL=
201302190400 METAR MRLM NIL=
201302190500 METAR MRLM NIL=
201302190600 METAR MRLM NIL=
201302190700 METAR MRLM NIL=
201302190800 METAR MRLM NIL=
201302190900 METAR MRLM NIL=
201302191000 METAR MRLM NIL=
201302191100 METAR MRLM NIL=
201302191200 METAR MRLM 191200Z 25006KT 9999 FEW015 21/19 A2992=
201302191300 METAR MRLM 191300Z 26005KT 9999 FEW015 SCT120 21/20 A2994=
201302191400 METAR MRLM 191400Z 26003KT 9999 FEW015 SCT120 23/21 A2994=
201302191500 METAR MRLM 191500Z 00000KT 9999 BKN020 26/22 A2996=
201302191600 METAR MRLM 191600Z 30002KT 9999 BKN020 SCT110 26/21 A2996=
201302191700 METAR MRLM 191700Z 08002KT 9999 SCT030 BKN120 28/21 A2994=
201302191800 METAR MRLM 191800Z 08003KT 9999 FEW035 SCT130 28/21 A2992=
201302191900 METAR MRLM 191900Z 07005KT 9999 FEW035 29/22 A2990=
201302192000 METAR MRLM 192000Z 07007KT 9999 FEW035 29/22 A2987=
201302192100 METAR MRLM 192100Z 07010KT 9999 SCT030 28/21 A2985=
201302192200 METAR MRLM 192200Z 08008KT 9999 FEW030 28/21 A2985=
201302192300 METAR MRLM 192300Z 08007KT 9999 BKN030 SCT120 27/21 A2986=
201302200000 METAR MRLM 200000Z 07007KT 9999 BKN020 27/21 A2986=
201302200100 METAR MRLM NIL=
201302200200 METAR MRLM NIL=
201302200300 METAR MRLM NIL=
201302200400 METAR MRLM NIL=
201302200500 METAR MRLM NIL=
201302200600 METAR MRLM NIL=
201302200700 METAR MRLM NIL=
201302200800 METAR MRLM NIL=
201302200900 METAR MRLM NIL=
201302201000 METAR MRLM NIL=
201302201100 METAR MRLM NIL=
201302201200 METAR MRLM 201200Z 24004KT 9999 BKN020 21/19 A2989=
201302201300 METAR MRLM 201300Z 24006KT 9999 BKN020 21/19 A2990=
201302201400 METAR MRLM 201400Z 24006KT 9999 FEW020 BKN070 21/19 A2992=
201302201500 METAR MRLM 201500Z 24006KT 9999 +DZ BKN015 23/20 A2992=
201302201600 METAR MRLM 201600Z 21003KT 9999 SCT025SCT080 26/21 A2991 REDZ0=
201302201700 METAR MRLM 201700Z 09004KT 9999 FEW040 SCT130 29/21 A2988=
201302201800 METAR MRLM 201800Z 04006KT 9999 FEW040 BKN080 29/21 A2995=
201302201900 METAR MRLM 201900Z 04007KT 9999 FEW030 BKN080 28/22 A2984 FEW090=
201302202000 METAR MRLM 202000Z 08006KT 9999 FEW032 BKN080 28/22 A2981=
201302202100 METAR MRLM 202100Z 04005KT 9999 FEW032 SCT050 SCT080 28/22 A2980=
201302202200 METAR MRLM 202200Z 04008KT 9999 SCT025 SCT090 28/23 A2980=
201302202300 METAR MRLM 202300Z 09012KT 9999 +DZ VCSH SCT025 SCT090 28/23 A2982=
201302202358 METAR MRLM 210000Z 24004KT 9999 SCT015 SCT090 25/22 A2984 REDZ=
201302210000 METAR MRLM 210000Z 24004KT 9999 SCT015 SCT090 25/22 A2984 REDZ=
201302210100 METAR MRLM NIL=
201302210200 METAR MRLM NIL=
201302210300 METAR MRLM NIL=
201302210400 METAR MRLM NIL=
201302210700 METAR MRLM NIL=
201302210800 METAR MRLM NIL=
201302210900 METAR MRLM NIL=
201302211200 METAR MRLM 211200Z 07012KT 4000 RA SCT010 SCT015 24/22 A2989=
201302211300 METAR MRLM 211300Z 28003KT 8000 RA FEW008 SCT015 SCT090 23/22 A2990=
201302211400 METAR MRLM 211400Z 24006KT 9999 FEW007 SCT030 SCT090 23/22 A2992 RERA=
201302211500 METAR MRLM 211500Z 24006KT 9999 FEW015 SCT080 SCT120 27/24 A2994=
201302211600 METAR MRLM 211600Z 24005KT 9999 FEW025 BKN090 28/23 A2993=
201302211700 METAR MRLM 211700Z 10003KT 9999 FEW035 SCT080 SCT120 28/22 A2992=
201302211800 METAR MRLM 211800Z 05003KT 9999 FEW025 SCT070 SCT090 29/22 A2989=
201302211900 METAR MRLM 211900Z 09003KT 9999 FEW030 SCT090 29/22 A2986=
201302212000 METAR MRLM 212000Z 09005KT 9999 FEW030 BKN080 29/22 A2984=
201302212100 METAR MRLM 212100Z 06006KT 9999 FEW030 BKN080 29/22 A2982=
201302212200 METAR MRLM 212200Z 07005KT 9999 FEW025 BKN080 28/22 A2981=
201302212300 METAR MRLM 212300Z 08005KT 9999 FEW025 BKN070 28/22 A2983=
201302212356 METAR MRLM 220000Z 25002KT CAVOK 25/22 A2985=
201302220000 METAR MRLM 220000Z 25002KT CAVOK 25/22 A2985=
201302220100 METAR MRLM NIL=
201302220200 METAR MRLM NIL=
201302220300 METAR MRLM NIL=
201302220400 METAR MRLM NIL=
201302220500 METAR MRLM NIL=
201302220600 METAR MRLM NIL=
201302220700 METAR MRLM NIL=
201302220800 METAR MRLM NIL=
201302220900 METAR MRLM NIL=
201302221000 METAR MRLM NIL=
201302221100 METAR MRLM NIL=
201302221200 METAR MRLM 221200Z 00000KT 9999 SCT010 SCT100 21/19 A2989=
201302221300 METAR MRLM 221300Z 23003KT 9999 SCT010 SCT100 22/20 A2991=
201302221400 METAR MRLM 221400Z 25003KT 9999 SCT020 BKN110 25/21 A2994=
201302221500 METAR MRLM 221500Z 23003KT 9999 FEW020 BKN120 27/22 A2995=
201302221600 METAR MRLM 221600Z 07008KT 9999 SCT020 SCT110 26/22 A2996=
201302221700 METAR MRLM 221700Z 09007KT 9999 SCT020 BKN110 26/23 A2994=
201302221800 METAR MRLM 221800Z 04004KT 9999 SCT025 BKN120 28/23 A2992=
201302221900 METAR MRLM 221900Z 05008KT 9999 FEW030 BKN130 29/23 A2989=
201302222000 METAR MRLM 222000Z 05008KT 9999 FEW030 BKN130 29/23 A2987=
201302222100 METAR MRLM 222100Z 08006KT 9999 SCT025 BKN110 28/23 A2985=
201302222200 METAR MRLM 222200Z 09003KT 9999 SCT020 BKN110 28/23 A2985=
201302222300 METAR MRLM 222300Z 00000KT 9999 SCT020 BKN110 27/23 A2986=
201302230000 METAR MRLM 230000Z 21002KT 9999 BKN015 SCT100 26/23 A2987=
201302230100 METAR MRLM NIL=
201302230200 METAR MRLM NIL=
201302230300 METAR MRLM NIL=
201302230400 METAR MRLM NIL=
201302230500 METAR MRLM NIL=
201302230600 METAR MRLM NIL=
201302230700 METAR MRLM NIL=
201302230800 METAR MRLM NIL=
201302230900 METAR MRLM NIL=
201302231000 METAR MRLM NIL=
201302231100 METAR MRLM NIL=
201302231200 METAR MRLM 231200Z 24005KT 9999 BKN007 22/21 A2988=
201302231300 METAR MRLM 231300Z 28003KT 9999 BKN007 SCT100 23/22 A2990=
201302231400 METAR MRLM 231400Z 00000KT 9999 BKN010 SCT090 23/22 A2992=
201302231420 METAR MRLM 231420Z 17002KT 5000 RA BKN007 24/22 A2993=
201302231500 METAR MRLM 231500Z 22002KT 9999 -DZ VCSH BKN010 24/22 A2993 RERA=
201302231600 METAR MRLM 231600Z 25005KT 9999 -DZ BKN010 SCT090 24/23 A2994=
201302231700 METAR MRLM 231700Z 25003KT 9999 BKN015 SCT100 25/23 A2993=
201302231800 METAR MRLM 231800Z 16002KT 9999 FEW020 BKN110 27/23 A2990=
201302231900 METAR MRLM 231900Z 20004KT 9999 FEW020 BKN120 27/22 A2988=
201302232000 METAR MRLM 232000Z 22002KT 9999 FEW030 BKN130 29/22 A2984=
201302232100 METAR MRLM 232100Z 12003KT 9999 FEW030 SCT130 29/23 A2982=
201302232200 METAR MRLM 232200Z 11002KT 9999 FEW030 SCT130 28/22 A2982=
201302232300 METAR MRLM 232300Z 00000KT 9999 FEW030 SCT130 28/23 A2982=
201302240000 METAR MRLM 240000Z 00000KT 9999 FEW015 SCT120 25/23 A2984=
201302240100 METAR MRLM NIL=
201302240200 METAR MRLM NIL=
201302240300 METAR MRLM NIL=
201302240400 METAR MRLM NIL=
201302240500 METAR MRLM NIL=
201302240600 METAR MRLM NIL=
201302240700 METAR MRLM NIL=
201302240800 METAR MRLM NIL=
201302240900 METAR MRLM NIL=
201302241000 METAR MRLM NIL=
201302241100 METAR MRLM NIL=
201302241200 METAR MRLM 241200Z 23003KT 8000 DZ VCSH FEW004 BKN015 23/23 A2989=
201302241300 METAR MRLM 241300Z 10004KT 4000 +DZ VCSH FEW004 BKN015 24/22 A2991 RERA=
201302241400 METAR MRLM 241400Z 11007KT 4000 +DZ VCSH FEW006 BKN015 24/23 A2993 RERA=
201302241500 METAR MRLM 241500Z 16004KT 6000 DZ VCSH FEW007 BKN015 24/23 REDZ=
201302241600 METAR MRLM 241600Z 21005KT 9999 DZ FEW025 BKN090 25/23 A2983=
201302241700 METAR MRLM 241700Z 22003KT 9999 SCT020 BKN090 27/23 A2991 REDZ=
201302241800 METAR MRLM 241800Z 10003KT 9999 SCT025 SCT090 28/23 A2988=
201302241900 METAR MRLM 241900Z 07002KT 9999 FEW032 SCT090 29/23 A2985=
201302242000 METAR MRLM 242000Z 05006KT 9999 FEW028 29/23 A2981=
201302242100 METAR MRLM 242100Z 06006KT 9999 FEW028 29/23 A2980=
201302242200 METAR MRLM 242200Z 05006KT 9999 FEW025 SCT090 SCT140 28/23 A2980=
201302242300 METAR MRLM 242300Z 04006KT 9999 BKN020 SCT140 27/23 A2981=
201302250000 METAR MRLM 250000Z 04003KT 9999 FEW018 BKN090 27/23 A2982=
201302250100 METAR MRLM NIL=
201302250200 METAR MRLM NIL=
201302250300 METAR MRLM NIL=
201302250400 METAR MRLM NIL=
201302250500 METAR MRLM NIL=
201302250600 METAR MRLM NIL=
201302250700 METAR MRLM NIL=
201302250800 METAR MRLM NIL=
201302250900 METAR MRLM NIL=
201302251000 METAR MRLM NIL=
201302251100 METAR MRLM NIL=
201302251200 METAR MRLM 251200Z 24005KT 9999 DZ VCSH BKN015 SCT090 23/22 A2986=
201302251300 METAR MRLM 251300Z 24005KT 9999 BKN020 SCT090 23/22 A2986=
201302251400 METAR MRLM 251400Z 23003KT 9999 FEW008 BKN030 24/23 A2987=
201302251500 METAR MRLM 251500Z 21004KT 9999 FEW012 BKN020 25/23 A2988=
201302251600 METAR MRLM 251600Z 21005KT 9999 FEW015 BKN030 26/22 A2987=
201302251700 METAR MRLM 251700Z 22005KT 9999 BKN030 26/23 A2983=
201302251800 METAR MRLM 251800Z 21005KT 9999 DZ SCT020 BKN100 26/23 A2982=
201302251900 METAR MRLM 251900Z 20003KT 9999 FEW030 BKN080 28/22 2979 REDZ=
201302252000 METAR MRLM 252000Z 14006KT 9999 FEW030 BKN090 28/22 A2977=
201302252100 METAR MRLM 252100Z 14005KT 9999 FEW030 BKN080 28/22 A2975=
201302252200 METAR MRLM 252200Z 12005KT 9999 FEW032 BKN080 28/22 A2975=
201302252300 METAR MRLM 252300Z 13005KT CAVOK 27/22 A2976=
201302252355 METAR MRLM 260000Z 12003KT CAVOK 27/22 A2978=
201302260000 METAR MRLM 260000Z 12003KT CAVOK 27/22 A2978=
201302260100 METAR MRLM NIL=
201302260200 METAR MRLM NIL=
201302260300 METAR MRLM NIL=
201302260400 METAR MRLM NIL=
201302260500 METAR MRLM NIL=
201302260600 METAR MRLM NIL=
201302260700 METAR MRLM NIL=
201302260800 METAR MRLM NIL=
201302260900 METAR MRLM NIL=
201302261000 METAR MRLM NIL=
201302261100 METAR MRLM NIL=
201302261200 METAR MRLM 261200Z 00000KT CAVOK 21/20 A2983=
201302261300 METAR MRLM 261300Z 25003KT CAVOK 23/21 A2984=
201302261400 METAR MRLM 261400Z 24003KT CAVOK 26/22 A2986=
201302261500 METAR MRLM 261500Z 10003KT 9999 FEW030 28/22 A2988=
201302261600 METAR MRLM 261600Z 08003KT 9999 FEW030 SCT270 28/22 A2989=
201302261700 METAR MRLM 261700Z 10005KT 9999 FEW030 SCT270 29/23 A2989=
201302261800 METAR MRLM 261800Z 09007KT 9999 FEW030 29/24 A2986=
201302261900 METAR MRLM 261900Z 08008KT 9999 FEW030 SCT260 29/23 A2984=
201302262000 METAR MRLM 262000Z 09007KT 9999 FEW030 SCT140 29/24 A2982=
201302262100 METAR MRLM 262100Z 10007KT 9999 BKN020 29/24 A2980=
201302262200 METAR MRLM 262200Z 10008KT BKN020 29/24 A2979=
201302262300 METAR MRLM 262300Z 12006KT 9999 SCT020 SCT130 28/24 A2979=
201302270000 METAR MRLM 270000Z 11006KT 9999 SCT015 BKN110 27/24 A2981=
201302270100 METAR MRLM NIL=
201302270200 METAR MRLM NIL=
201302270300 METAR MRLM NIL=
201302270400 METAR MRLM NIL=
201302270500 METAR MRLM NIL=
201302270600 METAR MRLM NIL=
201302270700 METAR MRLM NIL=
201302270800 METAR MRLM NIL=
201302270900 METAR MRLM NIL=
201302271000 METAR MRLM NIL=
201302271100 METAR MRLM NIL=
201302271200 METAR MRLM 271200Z 08007KT 7000 +RA BKN010 24/23 A2988=
201302271300 METAR MRLM 271300Z 00000KT 9999 -DZ BKN010 24/23 A2990 RERA=
201302271400 METAR MRLM 271400Z 25003KT 9999 SCT010 BKN100 24/23 A2992=
201302271500 METAR MRLM 271500Z 25004KT 9999 SCT010 SCT110 25/23 A2994=
201302271600 METAR MRLM 271600Z 19003KT 9999 +DZ BKN015 26/23 A2994=
201302271700 METAR MRLM 271700Z 28002KT 9999 SCT020 BKN120 28/23 A2993=
201302271800 METAR MRLM 271800Z 09003KT 9999 SCT030 29/23 A2990=
201302271900 METAR MRLM 271900Z 06005KT 9999 SCT030 29/23 A2988=
201302272000 METAR MRLM 272000Z 09006KT 9999 FEW020 SCT120 27/23 A2985=
201302272100 METAR MRLM 272100Z 07005KT 9999 SCT025 BKN120 28/23 A2983=
201302272200 METAR MRLM 272200Z 09007KT 9999 BKN025 28/23 A2983=
201302272300 METAR MRLM 272300Z 09006KT 9999 BKN025 SCT110 28/22 A2984=
201302280000 METAR MRLM 280000Z 00000KT 9999 BKN020 SCT110 27/23 A2985=
201302280100 METAR MRLM NIL=
201302280200 METAR MRLM NIL=
201302280300 METAR MRLM NIL=
201302280400 METAR MRLM NIL=
201302280500 METAR MRLM NIL=
201302280600 METAR MRLM NIL=
201302280700 METAR MRLM NIL=
201302280800 METAR MRLM NIL=
201302280900 METAR MRLM NIL=
201302281000 METAR MRLM NIL=
201302281100 METAR MRLM NIL=
201302281200 METAR MRLM 281200Z 25006KT 9999 FEW020 BKN080 22/21 A2987=
201302281300 METAR MRLM 281300Z 24004KT 9999 FEW020 BKN080 23/21 A2988=
201302281400 METAR MRLM 281400Z 24004KT 9999 FEW020 BKN080 23/21 A2988=
201302281500 METAR MRLM 281500Z 04009KT 9999 DZ VCSH BKN015 26/23 A2993=
201302281600 METAR MRLM 281600Z 02006KT 9999 BKN015 26/22 A2994 REDZ=
201302281700 METAR MRLM 281700Z 01008KT 9999 DZ VCSH SCT010 SCT020 26/22 A2993=
201302281800 METAR MRLM 281800Z 10004KT 9999 BKN025 26/21 A2992 REDZ=
201302281900 METAR MRLM 281900Z 27006KT CAVOK 27/22 A2986=
201302282000 METAR MRLM 282000Z 26005KT 9999 DZ FEW020 BKN080 26/22 A2985=
201302282100 METAR MRLM 282100Z 27005KT CAVOK 26/22 A2983 REDZ=
201302282200 METAR MRLM 282200Z 25003KT CAVOK 27/22 A2982=
201302282300 METAR MRLM 282300Z 26002KT 9999 FEW025 BKN070 26/22 A2993=
201302282356 METAR MRLM 010000Z 30002KT 9999 SCT018 SCT080 26/22 A2984=
201303010000 METAR MRLM 010000Z 30002KT 9999 SCT018 SCT080 26/22 A2984=
201303010100 METAR MRLM NIL=
201303010200 METAR MRLM NIL=
201303010300 METAR MRLM NIL=
201303010400 METAR MRLM NIL=
201303010500 METAR MRLM NIL=
201303010600 METAR MRLM NIL=
201303010700 METAR MRLM NIL=
201303010800 METAR MRLM NIL=
201303010900 METAR MRLM NIL=
201303011000 METAR MRLM NIL=
201303011100 METAR MRLM NIL=
201303011200 METAR MRLM 011226 25004KT 9999 BKN020 23/22 A2986=
201303011226 METAR MRLM 011226Z 25004KT 9999 BKN020 23/22 A2986=
201303011300 METAR MRLM 011300Z 31004KT 9999 DZ VCSH FEW005 BKN015 23/22 A2987=
201303011400 METAR MRLM 011400Z 25005KT 9999 FEW006 BKN020 23/22 A2989 REDZ=
201303011500 METAR MRLM 011500Z 24004KT 9999 DZ VCSH FEW007 SCT015 SCT070 24/23 A2991=
201303011600 METAR MRLM 011600Z 24006KT 9999 FEW012 SCT070 SCT090 25/23 A2991 REDZ=
201303011700 METAR MRLM 011700Z 23005KT 9999 BKN018 26/23 A2989=
201303011800 METAR MRLM 011800Z 24004KT 9999 BKN018 26/23 A2987=
201303011900 METAR MRLM 011900Z 19003KT 9999 DZ VCSH OVC015 26/23 2984=
201303012000 METAR MRLM 012000Z 21003K 9999 SCT015 SCT090 26/23 A2981 REDZ=
201303012100 METAR MRLM 012100Z 22004KT 9999 DZ VCSH BKN015 26/23 A2979=
201303012200 METAR MRLM 012200Z 25004KT 9999 SCT013 SCT025 25/23 A2970 REDZ=
201303012300 METAR MRLM 012300Z 20004KT 9999 BKN012 25/22 A2981=
201303012357 METAR MRLM 020000Z 23006KT 9999 DZ VCSH BKN025 23/21 A2981=
201303020000 METAR MRLM 020000Z 23006KT 9999 DZ VCSH BKN025 23/21 A2981=
201303020100 METAR MRLM NIL=
201303020200 METAR MRLM NIL=
201303020300 METAR MRLM NIL=
201303020400 METAR MRLM NIL=
201303020500 METAR MRLM NIL=
201303020600 METAR MRLM NIL=
201303020700 METAR MRLM NIL=
201303020800 METAR MRLM NIL=
201303020900 METAR MRLM NIL=
201303021000 METAR MRLM NIL=
201303021100 METAR MRLM NIL=
201303021200 METAR MRLM 021200Z 26003KT 9999 SCT010 BKN110 22/21 A2986=
201303021300 METAR MRLM 021300Z 25003KT 9999 SCT010 BKN120 23/21 A2988=
201303021400 METAR MRLM 021400Z 26004KT 9999 FEW015 BKN120 25/22 A2990=
201303021500 METAR MRLM 021500Z 00000KT CAVOK 26/22 A2993=
201303021600 METAR MRLM 021600Z 00000KT 9999 SCT020 BKN120 27/23 A2995=
201303021700 METAR MRLM 021700Z 11002KT 9999 FEW020 BKN130 28/23 A2994=
201303021800 METAR MRLM 021800Z 06007KT 9999 -DZ BKN020 SCT120 27/22 A2992=
201303021900 METAR MRLM 021900Z 01017KT 9999 4000N RA BKN010 24/22 A2992=
201303022000 METAR MRLM 022000Z 23003KT 9999 SCT010 BKN110 23/21 A2988 RERA=
201303022100 METAR MRLM 022100Z 25004KT 9999 DZ SCT010 BKN110 23/22 A2987=
201303022200 METAR MRLM 022200Z 23004KT 9999 -DZ SCT010 BKN110 23/22 A2987=
201303022300 METAR MRLM 022300Z 23005KT 9999 -DZ SCT010 BKN110 23/22 A2989=
201303030000 METAR MRLM 030000Z 22005KT 9999 DZ SCT007 SCT100 23/22 A2991=
201303030100 METAR MRLM NIL=
201303030200 METAR MRLM NIL=
201303030300 METAR MRLM NIL=
201303030400 METAR MRLM NIL=
201303030500 METAR MRLM NIL=
201303030600 METAR MRLM NIL=
201303030700 METAR MRLM NIL=
201303030800 METAR MRLM NIL=
201303030900 METAR MRLM NIL=
201303031000 METAR MRLM NIL=
201303031100 METAR MRLM NIL=
201303031200 METAR MRLM 031200Z 30008KT 9999 DZ SCT010 BKN100 20/18 A3005=
201303031300 METAR MRLM 031300Z 30009KT 9999 +DZ VCSH BKN010 SCT100 20/18 A3006=
201303031400 METAR MRLM 031400Z 29006KT 9999 DZ SCT020 SCT100 20/17 A3006=
201303031500 METAR MRLM 031500Z 30010KT 9999 -DZ SCT025 SCT110 22/17 A3008=
201303031600 METAR MRLM 031600Z 30013KT 9999 SCT025 BKN110 22/17 A3008=
201303031700 METAR MRLM 031700Z 29013KT 9999 BKN025 SCT120 23/17 A3007=
201303031800 METAR MRLM 031800Z 30010KT 9999 SCT020 SCT120 24/17 A3005=
201303031900 METAR MRLM 031900Z 31009KT 9999 BKN020 SCT120 24/17 A3004=
201303032000 METAR MRLM 032000Z 30009KT 9999 BKN020 SCT110 23/17 A3002=
201303032100 METAR MRLM 032100Z 33006KT 9999 DZ BKN015 23/17 A3002=
201303032200 METAR MRLM 032200Z 30007KT 9999 SCT015 SCT100 22/18 A3002 REDZ=
201303032300 METAR MRLM 032300Z 28004KT 9999 BKN015 SCT090 21/19 A3005=
201303040000 METAR MRLM 040000Z 00000KT 9999 BKN010 21/19 A3006=
201303040100 METAR MRLM NIL=
201303040200 METAR MRLM NIL=
201303040300 METAR MRLM NIL=
201303040400 METAR MRLM NIL=
201303040500 METAR MRLM NIL=
201303040600 METAR MRLM NIL=
201303040700 METAR MRLM NIL=
201303040800 METAR MRLM NIL=
201303040900 METAR MRLM NIL=
201303041000 METAR MRLM NIL=
201303041100 METAR MRLM NIL=
201303041200 METAR MRLM NIL=
201303041225 METAR MRLM 041225Z 30010KT 5000 DZ VCSH SCT003 SCT015 20/18 A3008=
201303041300 METAR MRLM 041300Z NIL=
201303041400 METAR MRLM 041400Z ///// 5000 +DZ VCSH FEW005 BKN015 20/18 A////=
201303041458 METAR MRLM 04154 30008KT 8000 DZ VCSH FEW005 SCT090 20/19 A23011=
201303041500 METAR MRLM NIL=
201303041600 METAR MRLM 041600Z 31007KT 9999 DZ VCSH SCT010 SCT100 22/20 A3010=
201303041700 METAR MRLM 041700Z 29007KT 9999 FEW010 SCT020 SCT090 24/20 A3006 REDZ=
201303041800 METAR MRLM 041800Z 34008KT 9999 FEW020 BKN035 24/20 A3001=
201303041900 METAR MRLM 041900Z 32007KT 9999 FEW015 BKN025 26/20 A3001=
201303042000 METAR MRLM 042000Z 36009KT 9999 FEW015 BKN030 25/20 A2997=
201303042100 METAR MRLM 042100Z 31008KT 9999 FEW020 SCT035 SCT090 24/20 A2994=
201303042200 METAR MRLM NIL=
201303042300 METAR MRLM 042300Z 30006KT 9999 SCT040 SCT070 24/21 A2996=
201303042358 METAR MRLM 050000Z 33005KT 9999 FEW020 BKN070 23/21 A2997=
201303050000 METAR MRLM 050000Z 33005KT 9999 FEW020 BKN070 23/21 A2997=
201303050100 METAR MRLM NIL=
201303050200 METAR MRLM NIL=
201303050300 METAR MRLM NIL=
201303050400 METAR MRLM NIL=
201303050500 METAR MRLM NIL=
201303050600 METAR MRLM NIL=
201303050700 METAR MRLM NIL=
201303050800 METAR MRLM NIL=
201303050900 METAR MRLM NIL=
201303051000 METAR MRLM NIL=
201303051100 METAR MRLM NIL=
201303051200 METAR MRLM 051200Z 24005KT 9999 FEW004 BKN090 22/21 A2999=
201303051300 METAR MRLM 051300Z 24005KT 9999 FEW004 BKN025 22/21 A2999=
201303051400 METAR MRLM 051400Z 25006KT 9999 DZ FEW007 BKN035 23/22 A3001=
201303051500 METAR MRLM 051500Z 30002KT 5000 DZ VCSH BKN020 24/22 A3002=
201303051600 METAR MRLM 051600Z 23003KT 9999 DZ VCSH FEW010 SCT020 BKN090 25/22 A3002=
201303051700 METAR MRLM 051700Z 27003KT 9999 DZ FEW012 BKN025 25/23 A3000=
201303051800 METAR MRLM NIL=
201303051900 METAR MRLM 051900Z 12003KT 9999 FEW020 SCT040 SCT080 27/22 A2994=
201303052000 METAR MRLM 052000Z 12002KT 9999 FEW025 BKN040 27/22 A2992=
201303052100 METAR MRLM 052100Z 28002KT 9999 FEW025 SCT045 SCT080 27/22 A2990=
201303052200 METAR MRLM 052200Z 05002KT 9999 SCT025 BKN080 27/22 A2991=
201303052300 METAR MRLM 052300Z 16002KT 9999 FEW022 SCT035 SCT090 27/22 A2991=
201303052358 METAR MRLM 060000Z 23003KT 9999 SCT035 SCT080 25/23 A2993=
201303060000 METAR MRLM 060000Z 23003KT 9999 SCT035 SCT080 25/23 A2993=
201303060100 METAR MRLM NIL=
201303060200 METAR MRLM NIL=
201303060300 METAR MRLM NIL=
201303060400 METAR MRLM NIL=
201303060500 METAR MRLM NIL=
201303060600 METAR MRLM NIL=
201303060700 METAR MRLM NIL=
201303060800 METAR MRLM NIL=
201303060900 METAR MRLM NIL=
201303061000 METAR MRLM NIL=
201303061100 METAR MRLM NIL=
201303061200 METAR MRLM 061200Z 26004KT 9999 -DZ BKN010 SCT100 22/21 A2996=
201303061300 METAR MRLM 061300Z 24003KT 9999 BKN010 SCT100 23/22 A2997=
201303061400 METAR MRLM 061400Z 24005KT 9999 BKN015 SCT100 24/22 A2999=
201303061500 METAR MRLM 061500Z 24004KT 9999 BKN015 SCT110 25/23 A3000=
201303061600 METAR MRLM 061600Z 32003KT 9999 DZ BKN015 SCT110 26/23 A3001=
201303061700 METAR MRLM 061700Z 31004KT 9999 SCT020 BKN120 28/24 A2999=
201303061800 METAR MRLM 061800Z 04003KT 9999 SCT030 SCT130 29/23 A2996=
201303061900 METAR MRLM 061900Z 03005KT 9999 SCT025 BKN130 28/23 A2994=
201303062000 METAR MRLM 062000Z 02004KT 9999 SCT025 BKN120 28/23 A2994=
201303062100 METAR MRLM 062100Z 01007KT 9999 SCT020 BKN120 28/23 A2991=
201303062200 METAR MRLM 062200Z 36010KT 9999 SCT020 SCT110 27/23 A2991=
201303062300 METAR MRLM 062300Z 00000KT 9999 BKN015 SCT110 27/24 A2992=
201303070000 METAR MRLM 070000Z 26002KT 9999 SCT015 SCT110 26/24 A2994=
201303070100 METAR MRLM NIL=
201303070200 METAR MRLM NIL=
201303070300 METAR MRLM NIL=
201303070400 METAR MRLM NIL=
201303070500 METAR MRLM NIL=
201303070600 METAR MRLM NIL=
201303070700 METAR MRLM NIL=
201303070800 METAR MRLM NIL=
201303070900 METAR MRLM NIL=
201303071000 METAR MRLM NIL=
201303071100 METAR MRLM NIL=
201303071200 METAR MRLM 071200Z 24004KT 9999 SCT010 SCT110 23/22 A2998=
201303071300 METAR MRLM 071300Z 24004KT 9999 SCT010 BKN110 23/22 A3000=
201303071318 METAR MRLM 071318Z 24004KT 9999 +DZ BKN010 SCT100 23/22 A3001=
201303071400 METAR MRLM 071400Z 31005KT 9999 DZ BKN007 23/22 A3001=
201303071500 METAR MRLM 071500Z 27004KT 9999 SCT015 SCT110 26/24 A3003 REDZ=
201303071600 METAR MRLM 071600Z 36009KT 9999 4000 N RA BKN010 25/23 A3004=
201303071700 METAR MRLM 071700Z 00000KT 9999 DZ VCSH BKN010 SCT100 24/22 A3003 RERA=
201303071800 METAR MRLM 071800Z 23005KT 9999 SCT015 27/24 A2999=
201303071900 METAR MRLM 071900Z 23004KT 9999 FEW025 SCT120 28/22 A2996=
201303072000 METAR MRLM 072000Z 10004KT 9999 FEW035 29/21 A2993=
201303072100 METAR MRLM 072100Z 10004KT 9999 SCT035 28/21 A2992=
201303072200 METAR MRLM 072200Z 01005KT 9999 SCT020 BKN110 27/23 A2992=
201303072300 METAR MRLM 072300Z 33002KT 9999 FEW020 BKN110 27/23 A2993=
201303080000 METAR MRLM 080000Z 34005KT 9999 SCT015 SCT110 26/23 A2994=
201303080100 METAR MRLM NIL=
201303080200 METAR MRLM NIL=
201303080300 METAR MRLM NIL=
201303080400 METAR MRLM NIL=
201303080500 METAR MRLM NIL=
201303080600 METAR MRLM NIL=
201303080700 METAR MRLM NIL=
201303080800 METAR MRLM NIL=
201303080900 METAR MRLM NIL=
201303081000 METAR MRLM NIL=
201303081100 METAR MRLM NIL=
201303081200 METAR MRLM 081200Z 04016KT 5000 DZ VSSH SCT010 SCT020 25/23 A2996=
201303081300 METAR MRLM 081300Z 05013Z 8000 DZ VCSH OVC013 26/24 A2997=
201303081400 METAR MRLM 081400Z 05015KT 9999 DZ BKN015 26/23 A2999=
201303081500 METAR MRLM 081500Z 05013KT 9999 BKN015 SCT090 27/24 A3000=
201303081600 METAR MRLM 081600Z 04012KT 9999 BKN018 28/24 A2999=
201303081700 METAR MRLM 081700Z 05010KT 9999 FEW018 BKN080 27/24 A2998=
201303081800 METAR MRLM 081800Z 07012KT 9999 BKN022TCU 28/24 A2995=
201303081900 METAR MRLM 081900Z 06012KT 9999 BKN018 27/24 A2993=
201303082000 METAR MRLM 082000Z 05012KT 9999 OVC022 28/24 A2990=
201303082100 METAR MRLM 082100Z 05012KT 9999 BKN020 28/24 A2988=
201303082200 METAR MRLM 082200Z 05008KT 9999 OVCTCU020 27/24 A2989=
201303082300 METAR MRLM 082300Z 05008KT 9999 BKN018 27/24 A2989=
201303082355 METAR MRLM 090000Z 04008KT 9999 BKN018 SCT090 27/23 A2990=
201303090000 METAR MRLM 090000Z 04008KT 9999 BKN018 SCT090 27/23 A2990=
201303090100 METAR MRLM NIL=
201303090200 METAR MRLM NIL=
201303090300 METAR MRLM NIL=
201303090400 METAR MRLM NIL=
201303090500 METAR MRLM NIL=
201303090600 METAR MRLM NIL=
201303090700 METAR MRLM NIL=
201303090800 METAR MRLM NIL=
201303090900 METAR MRLM NIL=
201303091000 METAR MRLM NIL=
201303091100 METAR MRLM NIL=
201303091200 METAR MRLM 091200Z 25005KT 9999 DZ VCSH BKN020 SCT080 22/22 A2994=
201303091300 METAR MRLM 091300Z 26004KT 9999 FEW015 SCT035 SCT080 23/22 A2995 REDZ=
201303091400 METAR MRLM 091400Z 27004KT 9999 BKN015 SCT090 24/23 A2998=
201303091500 METAR MRLM 091500Z 27004KT 9999 BKN012 SCT080 26/24 A2999=
201303091600 METAR MRLM 091600Z 23006KT 9999 SCT022 SCT090 28/24 A2999=
201303091700 METAR MRLM 091700Z 12005KT 9999 SCT030 SCT110 29/23 A2997=
201303091800 METAR MRLM 091800Z 09006KT 9999 FEW030 SCT280 29/23 A2993=
201303091900 METAR MRLM 091900Z 07007KT 9999 FEW028 BKN280 29/23 A2991=
201303092000 METAR MRLM 092000Z 06006KT 9999 FEW025 SCT280 29/23 A2988=
201303092100 METAR MRLM 092100Z 06007KT 9999 FEW025 SCT280 28/23 A2987=
201303092200 METAR MRLM 092200Z 05010KT 9999 BKN020 28/24 A2987=
201303092300 METAR MRLM 092300Z 06008KT 9999 BKN020 27/23 A2988=
201303092354 METAR MRLM 100000Z 06010KT 9999 FEW018 BKN080 27/23 A2989=
201303100000 METAR MRLM 100000Z 06010KT 9999 FEW018 BKN080 27/23 A2989=
201303100100 METAR MRLM NIL=
201303100200 METAR MRLM NIL=
201303100300 METAR MRLM NIL=
201303100400 METAR MRLM NIL=
201303100500 METAR MRLM NIL=
201303100600 METAR MRLM NIL=
201303100700 METAR MRLM NIL=
201303100800 METAR MRLM NIL=
201303100900 METAR MRLM NIL=
201303101000 METAR MRLM NIL=
201303101100 METAR MRLM NIL=
201303101200 METAR MRLM 101200Z 25003KT 9999 SCT010 SCT110 23/22 A2990=
201303101300 METAR MRLM 101300Z 01003KT 9999 BKN010 24/22 A2991=
201303101400 METAR MRLM 101400Z 03005KT 9999 DZ VCSH FEW007 BKN010 24/22 A2993=
201303101500 METAR MRLM 101500Z 13002KT 9999 -DZ BKN010 24/22 A2995=
201303101600 METAR MRLM 101600Z 17004KT 9999 BKN010 24/22 A2995=
201303101700 METAR MRLM 101700Z 24004KT 9999 BKN015 SCT100 25/23 A2993=
201303101800 METAR MRLM 101800Z 20006KT 9999 BKN015 SCT110 25/22 A2991=
201303101900 METAR MRLM 101900Z 20004KT 9999 SCT020 BKN120 27/22 A2988=
201303102000 METAR MRLM 102000Z 17003KT 9999 FEW020 BKN120 27/22 A2985=
201303102100 METAR MRLM 102100Z 14005KT 9999 FEW025 BKN130 28/23 A2982=
201303102200 METAR MRLM 102200Z 19003KT 9999 FEW025 BKN120 27/23 A2983=
201303102300 METAR MRLM 102300Z 14003KT 9999 FEW025 BKN120 27/22 A2983=
201303110000 METAR MRLM 110000Z 00000KT 9999 FEW020 BKN120 25/23 A2984=
201303110100 METAR MRLM NIL=
201303110200 METAR MRLM NIL=
201303110300 METAR MRLM NIL=
201303110400 METAR MRLM NIL=
201303110500 METAR MRLM NIL=
201303110600 METAR MRLM NIL=
201303110700 METAR MRLM NIL=
201303110800 METAR MRLM NIL=
201303110900 METAR MRLM NIL=
201303111000 METAR MRLM NIL=
201303111100 METAR MRLM NIL=
201303111200 METAR MRLM 111200Z 24002KT CAVOK 23/22 A2987=
201303111300 METAR MRLM 111300Z 00000KT CAVOK 26/23 A2989=
201303111400 METAR MRLM 111400Z 23003KT 9999 FEW020 BKN130 27/22 A2991=
201303111500 METAR MRLM 111500Z 09003KT 9999 FEW030 28/23 A2993=
201303111600 METAR MRLM 111600Z 11004KT 9999 FEW030 SCT140 28/23 A2992=
201303111700 METAR MRLM 111700Z 11005KT 9999 FEW030 29/23 A2990=
201303111800 METAR MRLM 111800Z 08007KT 9999 FEW030 29/23 A2988=
201303111900 METAR MRLM 111900Z 10004KT 9999 FEW030 29/23 A2985=
201303112000 METAR MRLM 112000Z 07006KT 9999 FEW030 29/23 A2982=
201303112100 METAR MRLM 112100Z 06008KT 9999 FEW030 29/23 A2981=
201303112200 METAR MRLM 112200Z 05007KT 9999 FEW020 28/24 A2980=
201303112300 METAR MRLM 112300Z 06005KT 9999 FEW020 28/23 A2981=
201303120000 METAR MRLM 120000Z 04004KT 9999 SCT020 27/24 A2982=
201303120100 METAR MRLM NIL=
201303120200 METAR MRLM NIL=
201303120300 METAR MRLM NIL=
201303120400 METAR MRLM NIL=
201303120500 METAR MRLM NIL=
201303120600 METAR MRLM NIL=
201303120700 METAR MRLM NIL=
201303120800 METAR MRLM NIL=
201303120900 METAR MRLM NIL=
201303121000 METAR MRLM NIL=
201303121100 METAR MRLM NIL=
201303121200 METAR MRLM NIL=
201303121300 METAR MRLM 121300Z 24003KT 9999 SCT010 SCT100 24/23 A2991=
201303121400 METAR MRLM 121400Z 24003KT 9999 SCT010 BKN100 25/24 A2994=
201303121500 METAR MRLM 121500Z 14003KT 9999 SCT020 BKN110 28/24 A2995=
201303121600 METAR MRLM 121600Z 13004KT 9999 SCT020 BKN110 28/24 A2996=
201303121700 METAR MRLM 121700Z 13006KT 9999 SCT025 BKN110 29/23 A2995=
201303121800 METAR MRLM 121800Z 14006KT 9999 SCT030 SCT120 29/23 A2992=
201303121900 METAR MRLM 121900Z 13006KT 9999 SCT030 SCT120 29/23 A2989=
201303122000 METAR MRLM 122000Z 12005KT 9999 SCT030 30/23 A2987=
201303122100 METAR MRLM 122100Z 10005KT 9999 FEW030 30/23 A2986=
201303122200 METAR MRLM NIL=
201303122300 METAR MRLM NIL=
201303130000 METAR MRLM NIL=
201303130100 METAR MRLM NIL=
201303130200 METAR MRLM NIL=
201303130300 METAR MRLM NIL=
201303130400 METAR MRLM NIL=
201303130500 METAR MRLM NIL=
201303130600 METAR MRLM NIL=
201303130700 METAR MRLM NIL=
201303130800 METAR MRLM NIL=
201303130900 METAR MRLM NIL=
201303131000 METAR MRLM NIL=
201303131100 METAR MRLM NIL=
201303131200 METAR MRLM NIL=
201303131300 METAR MRLM 131300Z 24004KT 9999 SCT010 SCT110 24/23 A2995=
201303131400 METAR MRLM 131400Z 24004KT 9999 FEW020 SCT130 27/23 A2998=
201303131500 METAR MRLM 131500Z 22003KT 9999 BKN025 SCT120 29/23 A2999=
201303131600 METAR MRLM 131600Z 12004KT 9999 SCT030 29/23 A2999=
201303131700 METAR MRLM 131700Z 11006KT 9999 BKN025 28/23 A2998=
201303131800 METAR MRLM 131800Z 01009KT 9999 -DZ BKN020 26/22 A2997=
201303131900 METAR MRLM 131900Z 22003KT 9999 SCT030 BKN110 28/22 A2994=
201303132000 METAR MRLM 132000Z 26005KT 9999 SCT025 BKN110 27/22 A2991=
201303132100 METAR MRLM 132100Z 25003KT 9999 BKN030 SCT120 27/22 A2989=
201303132200 METAR MRLM NIL=
201303132300 METAR MRLM NIL=
201303140000 METAR MRLM NIL=
201303140100 METAR MRLM NIL=
201303140200 METAR MRLM NIL=
201303140300 METAR MRLM NIL=
201303140400 METAR MRLM NIL=
201303140500 METAR MRLM NIL=
201303140600 METAR MRLM NIL=
201303140700 METAR MRLM NIL=
201303140800 METAR MRLM NIL=
201303140900 METAR MRLM NIL=
201303141000 METAR MRLM NIL=
201303141100 METAR MRLM NIL=
201303141200 METAR MRLM NIL=
201303141300 METAR MRLM 141300Z 26005KT 9999 DZ BKN007 22/21 A2998=
201303141400 METAR MRLM 141400Z 23005KT 9999 -DZ BKN007 23/22 A2999=
201303141500 METAR MRLM 141500Z 28004KT 9999 DZ BKN010 23/22 A3000=
201303141600 METAR MRLM 141600Z 25005KT 9999 SCT020 BKN120 25/23 A2998 REDZ=
201303141700 METAR MRLM 141700Z 23004KT 9999 BKN020 26/22 A2998=
201303141800 METAR MRLM 141800Z 34005KT 8000 +RA OVC010 23/21 A2998=
201303141900 METAR MRLM 141900Z 26005KT 9999 BKN010 24/22 A2995=
201303142000 METAR MRLM 142000Z 24005KT 9999 SCT015 BKN110 24/21 A2993=
201303142100 METAR MRLM 142100Z 18005KT 9999 DZ SCT010 SCT110 24/21 A2992=
201303142200 METAR MRLM NIL=
201303142300 METAR MRLM NIL=
201303150000 METAR MRLM NIL=
201303150100 METAR MRLM NIL=
201303150200 METAR MRLM NIL=
201303150300 METAR MRLM NIL=
201303150400 METAR MRLM NIL=
201303150500 METAR MRLM NIL=
201303150600 METAR MRLM NIL=
201303150700 METAR MRLM NIL=
201303150800 METAR MRLM NIL=
201303150900 METAR MRLM NIL=
201303151000 METAR MRLM NIL=
201303151100 METAR MRLM NIL=
201303151200 METAR MRLM NIL=
201303151300 METAR MRLM 151300Z 26003KT CAVOK 23/20 A2996=
201303151400 METAR MRLM 151400Z 24003KT 9999 FEW020 BKN120 25/21 A2998=
201303151500 METAR MRLM 151500Z 24004KT 9999 FEW020 BKN120 25/21 A2998=
201303151600 METAR MRLM 151600Z 00000KT 9999 SCT030 BKN130 28/21 A2999=
201303151700 METAR MRLM 151700Z 26003KT 9999 -DZ SCT025 BKN120 26/21 A2998=
201303151800 METAR MRLM 151800Z 26005KT 9999 FEW020 BKN120 26/21 A2996=
201303151900 METAR MRLM 151900Z 29005KT CAVOK 26/21 A2993=
201303152000 METAR MRLM 152000Z 28003KT CAVOK 27/21 A2991=
201303152100 METAR MRLM 152100Z 31002KT CAVOK 27/22 A2989=
201303152200 METAR MRLM NIL=
201303152300 METAR MRLM NIL=
201303160000 METAR MRLM NIL=
201303160100 METAR MRLM NIL=
201303160200 METAR MRLM NIL=
201303160300 METAR MRLM NIL=
201303160400 METAR MRLM NIL=
201303160500 METAR MRLM NIL=
201303160600 METAR MRLM NIL=
201303160700 METAR MRLM NIL=
201303160800 METAR MRLM NIL=
201303160900 METAR MRLM NIL=
201303161000 METAR MRLM NIL=
201303161100 METAR MRLM NIL=
201303161200 METAR MRLM NIL=
201303161300 METAR MRLM 161300Z 26004KT CAVOK 21/19 A2993=
201303161400 METAR MRLM 161400Z 24004KT CAVOK 25/20 A2996=
201303161500 METAR MRLM 161500Z 00000KT CAVOK 29/21 A2997=
201303161600 METAR MRLM 161600Z 11003KT 9999 FEW030 28/22 A2996=
201303161700 METAR MRLM 161700Z 11004KT 9999 FEW030 28/22 A2995=
201303161800 METAR MRLM 161800Z 08005KT 9999 FEW030 28/22 A2991=
201303161900 METAR MRLM 161900Z 09005KT 9999 FEW025 28/22 A2989=
201303162000 METAR MRLM 162000Z 09004KT 9999 FEW025 28/23 A2988=
201303162100 METAR MRLM 162100Z 07004KT 9999 FEW025 28/23 A2986=
201303162200 METAR MRLM NIL=
201303162300 METAR MRLM NIL=
201303170000 METAR MRLM NIL=
201303170100 METAR MRLM NIL=
201303170200 METAR MRLM NIL=
201303170300 METAR MRLM NIL=
201303170400 METAR MRLM NIL=
201303170500 METAR MRLM NIL=
201303170600 METAR MRLM NIL=
201303170700 METAR MRLM NIL=
201303170800 METAR MRLM NIL=
201303170900 METAR MRLM NIL=
201303171000 METAR MRLM NIL=
201303171100 METAR MRLM NIL=
201303171200 METAR MRLM NIL=
201303171300 METAR MRLM 171300Z 24003KT 9999 FEW010 BKN120 23/22 A2996=
201303171400 METAR MRLM 171400Z 00000KT 9999 FEW015 BKN120 26/23 A2998=
201303171500 METAR MRLM 171500Z 12003KT 9999 FEW025 BKN130 28/23 A2999=
201303171600 METAR MRLM 171600Z 10003KT 9999 FEW030 SCT130 28/22 A2998=
201303171700 METAR MRLM 171700Z 10005KT 9999 FEW030 SCT130 28/22 A2997=
201303171800 METAR MRLM 171800Z 09006KT 9999 FEW030 29/23 A2994=
201303171900 METAR MRLM 171900Z 09006KT 9999 FEW030 29/23 A2991=
201303172000 METAR MRLM 172000Z 08007KT 9999 FEW030 29/23 A2989=
201303172100 METAR MRLM 172100Z 08007KT 9999 FEW030 29/23 A2987=
201303172200 METAR MRLM NIL=
201303172300 METAR MRLM NIL=
201303180000 METAR MRLM NIL=
201303180100 METAR MRLM NIL=
201303180200 METAR MRLM NIL=
201303180300 METAR MRLM NIL=
201303180400 METAR MRLM NIL=
201303180500 METAR MRLM NIL=
201303180600 METAR MRLM NIL=
201303180700 METAR MRLM NIL=
201303180800 METAR MRLM NIL=
201303180900 METAR MRLM NIL=
201303181000 METAR MRLM NIL=
201303181100 METAR MRLM NIL=
201303181200 METAR MRLM NIL=
201303181300 METAR MRLM 181300Z 25003KT 9999 FEW015 SCT110 22/21 A2996=
201303181400 METAR MRLM 181400Z 24006KT 9999 SCT010 SCT110 24/22 A2997=
201303181500 METAR MRLM 181500Z 00000KT 9999 FEW020 BKN120 26/22 A2998=
201303181600 METAR MRLM 181600Z 09003KT 9999 FEW020 BKN120 28/23 A2997=
201303181700 METAR MRLM 181700Z 08005KT 9999 FEW030 SCT250 29/23 A2997=
201303181800 METAR MRLM 181800Z 08005KT 9999 FEW030 SCT140 29/23 A2994=
201303181900 METAR MRLM 181900Z 10006KT 9999 FEW030 SCT140 29/23 A2992=
201303182000 METAR MRLM 182000Z 08005KT 9999 FEW030 SCT250 29/23 A2989=
201303182100 METAR MRLM 182100Z 07005KT 9999 FEW030 SCT250 29/23 A2988=
201303182200 METAR MRLM NIL=
201303182300 METAR MRLM NIL=
201303190000 METAR MRLM NIL=
201303190100 METAR MRLM NIL=
201303190200 METAR MRLM NIL=
201303190300 METAR MRLM NIL=
201303190400 METAR MRLM NIL=
201303190500 METAR MRLM NIL=
201303190600 METAR MRLM NIL=
201303190700 METAR MRLM NIL=
201303190800 METAR MRLM NIL=
201303190900 METAR MRLM NIL=
201303191000 METAR MRLM NIL=
201303191100 METAR MRLM NIL=
201303191200 METAR MRLM NIL=
201303191300 METAR MRLM 191300Z 00000KT 9999 BKN010 SCT100 24/22 A2992=
201303191400 METAR MRLM 191400Z 24004KT 9999 SCT010 SCT110 25/23 A2994=
201303191500 METAR MRLM 191500Z 23002KT 9999 FEW020 BKN120 27/24 A2995=
201303191600 METAR MRLM 191600Z 14005KT 9999 SCT025 29/24 A2994=
201303191700 METAR MRLM 191700Z 11006KT 9999 FEW025 29/24 A2993=
201303191800 METAR MRLM 191800Z 10007KT 9999 FEW025 29/24 A2991=
201303191900 METAR MRLM 191900Z 08007KT 9999 FEW025 29/24 A2989=
201303192000 METAR MRLM 192000Z 08007KT 9999 SCT025 29/24 A2986=
201303192100 METAR MRLM 192100Z 08007KT 9999 SCT025 29/24 A2985=
201303192200 METAR MRLM NIL=
201303192300 METAR MRLM NIL=
201303200000 METAR MRLM NIL=
201303200100 METAR MRLM NIL=
201303200200 METAR MRLM NIL=
201303200300 METAR MRLM NIL=
201303200400 METAR MRLM NIL=
201303200500 METAR MRLM NIL=
201303200600 METAR MRLM NIL=
201303200700 METAR MRLM NIL=
201303200800 METAR MRLM NIL=
201303200900 METAR MRLM NIL=
201303201000 METAR MRLM NIL=
201303201100 METAR MRLM NIL=
201303201200 METAR MRLM 201200Z 26004KT 8000 RA OVC015 23/22 A2990=
201303201300 METAR MRLM 201300Z 24005KT 9999 DZ VCSH BKN015 23/22 A2990 RERA=
201303201400 METAR MRLM 201400Z 25004KT 9999 BKN025 24/23 A2992REDZ=
201303201500 METAR MRLM 201500Z 25002KT 9999 BKN025 26/24 A2993=
201303201600 METAR MRLM 201600Z 08003KT 9999 FEW025 BKN080 28/24 A2991=
201303201700 METAR MRLM 201700Z 11005KT 9999 FEW025 BKN090 29/23 A2989=
201303201800 METAR MRLM 201800Z 09005KT 9999 FEW025 SCT090 29/234 A2987=
201303201900 METAR MRLM 201900Z 08006KT 9999 FEW025 29/24 A2984=
201303202000 METAR MRLM 202000Z 09007KT 9999 FEW028 29/24 A2982=
201303202100 METAR MRLM 202100Z 10007KT 9999 FEW030 29/23 A2981=
201303202200 METAR MRLM 202200Z 11006KT 9999 FEW025 29/24 A2980=
201303202300 METAR MRLM 202300Z 10005KT 9999 BKN023 28/24 A2981=
201303202358 METAR MRLM 210000Z 10006KT 9999 SCT020 28/24 A2982=
201303210000 METAR MRLM 210000Z 10006KT 9999 SCT020 28/24 A2982=
201303210100 METAR MRLM NIL=
201303210200 METAR MRLM NIL=
201303210300 METAR MRLM NIL=
201303210400 METAR MRLM NIL=
201303210500 METAR MRLM NIL=
201303210600 METAR MRLM NIL=
201303210700 METAR MRLM NIL=
201303210800 METAR MRLM NIL=
201303210900 METAR MRLM NIL=
201303211000 METAR MRLM NIL=
201303211100 METAR MRLM NIL=
201303211200 METAR MRLM 211200Z 23004KT 9999 FEW015 BKN0140 22/21 A2987=
201303211300 METAR MRLM 211300Z 24004KT 9999 FEW015 BKN140 23/22 A2987=
201303211400 METAR MRLM 211400Z 23004KT CAVOK 26/23 A2990=
201303211500 METAR MRLM 211500Z 13005KT CAVOK 28/23 A2990=
201303211600 METAR MRLM 211600Z 14009KT CAVOK 28/23 A2980=
201303211700 METAR MRLM 211700Z 11007KT 9999 FEW028 BKN260 29/23 A2987=
201303211800 METAR MRLM 211800Z 11008KT 9999 FEW025 BKN270 29/24 A2984=
201303211900 METAR MRLM 211900Z 10009KT 9999 SCT025 BKN270 29/24 A2982=
201303212000 METAR MRLM 212000Z 12009KT 9999 BKN025 29/24 A2980=
201303212100 METAR MRLM 212100Z 09008KT 9999 BKN025 29/24 A2970=
201303212200 METAR MRLM 212200Z 10007KT 9999 BKN030 BKN030 29/23 A2981=
201303212300 METAR MRLM 212300Z 09006KT 9999 BKN028 28/23 A2981=
201303212357 METAR MRLM 220000Z 11004KT 9999 BKN023 27/23 A2984=
201303220000 METAR MRLM 220000Z 11004KT 9999 BKN023 27/23 A2984=
201303220100 METAR MRLM NIL=
201303220200 METAR MRLM NIL=
201303220300 METAR MRLM NIL=
201303220400 METAR MRLM NIL=
201303220500 METAR MRLM NIL=
201303220600 METAR MRLM NIL=
201303220700 METAR MRLM NIL=
201303220800 METAR MRLM NIL=
201303220900 METAR MRLM NIL=
201303221000 METAR MRLM NIL=
201303221100 METAR MRLM NIL=
201303221200 METAR MRLM 221200Z 24004KT CAVOK 23/22 A2988=
201303221300 METAR MRLM 221300Z 24004KT CAVOK 24/22 A2989=
201303221400 METAR MRLM 221400Z 00000KT CAVOK 28/23 A2991=
201303221500 METAR MRLM 221500Z 08002KT 9999 FEW030 BKN250 28/22 A2993=
201303221600 METAR MRLM 221600Z 13007KT 9999 FEW030 BKN250 29/23 A2993=
201303221700 METAR MRLM 221700Z 11007KT 9999 FEW025 BKN240 29/24 A2992=
201303221800 METAR MRLM 221800Z 08008KT 9999 FEW025 BKN240 29/24 A2989=
201303221900 METAR MRLM 221900Z 07007KT 9999 FEW030 SCT240 29/24 A2989=
201303222000 METAR MRLM 222000Z 09007KT 9999 BKN030 29/23 A2985=
201303222100 METAR MRLM 222100Z 08008KT 9999 SCT030 29/23 A2984=
201303222200 METAR MRLM 222200Z 08007KT 9999 BKN025 28/23 A2985=
201303222300 METAR MRLM 222300Z 07007KT 9999 BKN025 27/22 A2986=
201303230000 METAR MRLM 230000Z 07007KT 9999 BKN020 27/22 A2987=
201303230100 METAR MRLM NIL=
201303230200 METAR MRLM NIL=
201303230300 METAR MRLM NIL=
201303230400 METAR MRLM NIL=
201303230500 METAR MRLM NIL=
201303230600 METAR MRLM NIL=
201303230700 METAR MRLM NIL=
201303230800 METAR MRLM NIL=
201303230900 METAR MRLM NIL=
201303231000 METAR MRLM NIL=
201303231100 METAR MRLM NIL=
201303231200 METAR MRLM 231200Z 25003KT 9999 FEW010 BKN250 23/22 A2991=
201303231300 METAR MRLM 231300Z 26003KT 9999 FEW010 SCT250 25/23 A2992=
201303231400 METAR MRLM 231400Z 16003KT 9999 FEW025 SCT250 28/23 A2994=
201303231500 METAR MRLM 231500Z 10005KT 9999 FEW025 BKN250 29/24 A2995=
201303231600 METAR MRLM 231600Z 11003KT 9999 FEW030 SCT260 29/23 A2994=
201303231700 METAR MRLM 231700Z 10009KT 9999 FEW030 SCT260 29/23 A2992=
201303231800 METAR MRLM 231800Z 09010KT 9999 FEW030 SCT260 29/24 A2989=
201303231900 METAR MRLM 231900Z 08009KT 9999 FEW030 BKN250 29/23 A2987=
201303232000 METAR MRLM 232000Z 07008KT 9999 SCT030 29/23 A2985=
201303232100 METAR MRLM 232100Z 08007KT 9999 BKN030 29/23 A2982=
201303232200 METAR MRLM 232200Z 09007KT 9999 SCT030 29/23 A2982=
201303232300 METAR MRLM 232300Z 09007KT 9999 SCT025 SCT250 28/23 A2983=
201303240000 METAR MRLM 240000Z 09008KT 9999 BKN020 27/23 A2984=
201303240100 METAR MRLM NIL=
201303240200 METAR MRLM NIL=
201303240300 METAR MRLM NIL=
201303240400 METAR MRLM NIL=
201303240500 METAR MRLM NIL=
201303240600 METAR MRLM NIL=
201303240700 METAR MRLM NIL=
201303240800 METAR MRLM NIL=
201303240900 METAR MRLM NIL=
201303241000 METAR MRLM NIL=
201303241100 METAR MRLM NIL=
201303241200 METAR MRLM 241200Z 25003KT CAVOK 24/22 A2985=
201303241300 METAR MRLM 241300Z 26002KT CAVOK 27/23 A2987=
201303241400 METAR MRLM 241400Z 11002KT 9999 FEW030 BKN280 29/23 A2989=
201303241500 METAR MRLM NIL=
201303241600 METAR MRLM 241600Z 11006KT 9999 FEW030 SCT280 29/23 A2989=
201303241700 METAR MRLM 241700Z 10007KT 9999 FEW030 SCT280 29/23 A2987=
201303241800 METAR MRLM 241800Z 08007KT 9999 FEW030 SCT280 29/23 A2983=
201303241900 METAR MRLM 241900Z 06006KT 9999 FEW028 SCT280 29/24 A2981=
201303242000 METAR MRLM 242000Z 06006KT 9999 FEW028 SCT280 29/24 A2978=
201303242100 METAR MRLM 242100Z 08006KT 9999 FEW028 SCT280 29/23 A2976=
201303242200 METAR MRLM 242200Z 08006KT 9999 FEW030 29/23 A2975=
201303242300 METAR MRLM 242300Z 10005KT 9999 FEW025 28/23 A2976=
201303242356 METAR MRLM 250000Z 12005KT CAVOK 28/23 A2977=
201303250000 METAR MRLM 250000Z 12005KT CAVOK 28/23 A2977=
201303250100 METAR MRLM NIL=
201303250200 METAR MRLM NIL=
201303250300 METAR MRLM NIL=
201303250400 METAR MRLM NIL=
201303250500 METAR MRLM NIL=
201303250600 METAR MRLM NIL=
201303250700 METAR MRLM NIL=
201303250800 METAR MRLM NIL=
201303250900 METAR MRLM NIL=
201303251000 METAR MRLM NIL=
201303251100 METAR MRLM NIL=
201303251200 METAR MRLM 251200Z 24004KT CAVOK 23/22 A2980=
201303251300 METAR MRLM 251300Z 23004KT CAVOK 24/23 A2982=
201303251400 METAR MRLM 251400Z 09002KT CAVOK 27/23 A2985=
201303251500 METAR MRLM 251500Z 12005KT CAVOK 29/23 A2986=
201303251600 METAR MRLM 251600Z 12007KT CAVOK 29/23 A2985=
201303251700 METAR MRLM NIL=
201303251800 METAR MRLM 251800Z 09006KT 9999 FEW030 SCT300 29/24 A2982=
201303251900 METAR MRLM 251900Z 09006KT 9999 FEW028 BKN300 30/24 A2979=
201303252000 METAR MRLM 252000Z 06005KT 9999 FEW025 BKN300 30/24 A2977=
201303252100 METAR MRLM 252100Z 06007KT 9999 BKN025 30/24 A2977=
201303252200 METAR MRLM 252200Z 06005KT 9999 BKN025 29/24 A2978=
201303252300 METAR MRLM 252300Z 06004KT 9999 SCT025 29/24 A2979=
201303252358 METAR MRLM 260000Z 09004KT 9999 FEW022 SCT090 SCT300 28/24 A2980=
201303260000 METAR MRLM 260000Z 09004KT 9999 FEW022 SCT090 SCT300 28/24 A2980=
201303260100 METAR MRLM NIL=
201303260200 METAR MRLM NIL=
201303260300 METAR MRLM NIL=
201303260400 METAR MRLM NIL=
201303260500 METAR MRLM NIL=
201303260600 METAR MRLM NIL=
201303260700 METAR MRLM NIL=
201303260800 METAR MRLM NIL=
201303260900 METAR MRLM NIL=
201303261000 METAR MRLM NIL=
201303261100 METAR MRLM NIL=
201303261200 METAR MRLM NIL=
201303261300 METAR MRLM 261300Z 24004KT CAVOK 26/23 A2991=
201303261400 METAR MRLM 261400Z 26003KT 9999 FEW025 BKN300 29/24 A2992=
201303261500 METAR MRLM 261500Z 08004KT 9999 SCT030 BKN300 29/24 A2993=
201303261600 METAR MRLM 261600Z 06005KT 9999 SCT028 BKN300 29/24 A2994=
201303261700 METAR MRLM 261700Z 04006KT 9999 FEW028 BKN300 30/24 A2993=
201303261800 METAR MRLM 261800Z 04008KT 9999 FEW030 BKN300 30/24 A2991=
201303261900 METAR MRLM 261900Z 04007KT 9999 FEW032 BKN300 31/24 A2989=
201303262000 METAR MRLM 262000Z 03008KT 9999 SCT032 SCT300 30/24 A2987=
201303262100 METAR MRLM 262100Z 02008KT 9999 BKN028 29/24 A2986=
201303262200 METAR MRLM NIL=
201303262300 METAR MRLM NIL=
201303270000 METAR MRLM NIL=
201303270100 METAR MRLM NIL=
201303270200 METAR MRLM NIL=
201303270300 METAR MRLM NIL=
201303270400 METAR MRLM NIL=
201303270500 METAR MRLM NIL=
201303270600 METAR MRLM NIL=
201303270700 METAR MRLM NIL=
201303270800 METAR MRLM NIL=
201303270900 METAR MRLM NIL=
201303271000 METAR MRLM NIL=
201303271100 METAR MRLM NIL=
201303271200 METAR MRLM 271200Z 25005KT 9999 BKN010 22/21 A2997=
201303271300 METAR MRLM 271300Z 26005KT 9999 BKN010 24/22 A2998=
201303271400 METAR MRLM 271400Z 26003KT 9999 BKN015 26/24 A3000=
201303271500 METAR MRLM 271500Z 12007KT 9999 RA BKN020 27/23 A3003=
201303271600 METAR MRLM 271600Z 02002KT 9999 BKN025 29/23 A3002 RERA=
201303271700 METAR MRLM 271700Z 03007KT 9999 SCT030 29/23 A3001=
201303271800 METAR MRLM 271800Z 03007KT 9999 SCT030 29/23 A2999=
201303271900 METAR MRLM 271900Z 03009KT 9999 SCT035 SCT130 30/23 A2996=
201303272000 METAR MRLM 272000Z 02008KT 9999 SCT035 29/23 A2994=
201303272100 METAR MRLM 272100Z 03008KT 9999 FEW030 BKN250 29/23 A2993=
201303272200 METAR MRLM 272200Z 03006KT 9999 FEW030 BKN250 29/22 A2992=
201303272300 METAR MRLM 272300Z 01006KT 9999 SCT030 SCT250 28/22 A2993=
201303280000 METAR MRLM 280000Z 35005KT 9999 BKN025 27/22 A2996=
201303280100 METAR MRLM NIL=
201303280200 METAR MRLM NIL=
201303280300 METAR MRLM NIL=
201303280400 METAR MRLM NIL=
201303280500 METAR MRLM NIL=
201303280600 METAR MRLM NIL=
201303280700 METAR MRLM NIL=
201303280800 METAR MRLM NIL=
201303280900 METAR MRLM NIL=
201303281000 METAR MRLM NIL=
201303281100 METAR MRLM NIL=
201303281200 METAR MRLM 281200Z 27005KT 4000 +DZ VCSH FEW004 BKN025 22/21 A2997=
201303281300 METAR MRLM 281300Z 26003KT 7000 +DZ VCSH FEW005 BKN020 23/22 A3000 RERA=
201303281400 METAR MRLM 281400Z 12007KT 2000 RA BKN015 23/22 A3000 REDZ=
201303281500 METAR MRLM 281500Z 27005KT 5000 +DZ VCSH FEW015 SCT025 SCT090 30/22 A3004 RARA=
201303281600 METAR MRLM 281600Z 24006KT 5000 RA BKN020 SCT090 23/22 A3004=
201303281700 METAR MRLM 281700Z 26007KT 9999 SCT015 SCT025 23/22 A3003 RERA=
201303281800 METAR MRLM 281800Z 25005KT 8000 DZ VCSH SCT015 SCT090 24/22 A3001=
201303281900 METAR MRLM 281900Z 25007KT 9999 SCT015 SCT090 25/22 A2997 REDZ0=
201303282000 METAR MRLM 282000Z 28006KT 9999 SCT023 SCT090 26/22 A2994=
201303282100 METAR MRLM 282100Z 28005KT 9999 BKN025 SCT090 27/22 A2993=
201303282200 METAR MRLM 282200Z 26004KT 9999 BKN025 27/22 A2992=
201303282300 METAR MRLM 282300Z 16007KT 8000 DZ VCSH FEW008 BKN015 23/22 A2974 RERA=
201303290000 METAR MRLM 23005KT 8000 DZ VCSH SCT015 SCT025 22/21 A2995=
201303290001 METAR MRLM 290001Z 23005KT 8000 DZ VCSH SCT015 SCT025 22/21 A2995=
201303290100 METAR MRLM NIL=
201303290200 METAR MRLM NIL=
201303290300 METAR MRLM NIL=
201303290400 METAR MRLM NIL=
201303290500 METAR MRLM NIL=
201303290600 METAR MRLM NIL=
201303290700 METAR MRLM NIL=
201303290800 METAR MRLM NIL=
201303290900 METAR MRLM NIL=
201303291000 METAR MRLM NIL=
201303291100 METAR MRLM NIL=
201303291200 METAR MRLM 291200Z 19005KT 5000 RA BKN004 SCT015 22/21 A3000=
201303291300 METAR MRLM 291300Z 23004KT 3000 RA BKN004 SCT015 22/21 A3001=
201303291400 METAR MRLM 291400Z 27005KT 9999 FEW005 BKN015 22/21 A3004 RERA=
201303291500 METAR MRLM 291500Z 27006KT 9999 FEW015 BKN090 24/22 A3005=
201303291600 METAR MRLM 291600Z 24005KT 9999 SCT015 SCT090 25/23 A3004=
201303291700 METAR MRLM 291700Z 21005KT 9999 FEW025 BKN080 27/22 A3002=
201303291800 METAR MRLM 291800Z 25003KT 9999 FEW015 BKN090 28/22 A3000=
201303291900 METAR MRLM 291900Z 07014KT 9999 DZ VCSH BKN015 SCT090 26/22 A2998=
201303292000 METAR MRLM 292000Z 29004KT 9999 FEW022 BKN090 26/22 A2995 REDZ=
201303292100 METAR MRLM 292100Z 25003KT CAVOK 27/22 A2993=
201303292200 METAR MRLM 292200Z 27002KT CAVOK 28/22 A2993=
201303292300 METAR MRLM 292300Z 31002KT CAVOK 27/23 A2994=
201303300000 METAR MRLM 30000Z 27003KT CAVOK 24/22 A2994=
201303300100 METAR MRLM NIL=
201303300200 METAR MRLM NIL=
201303300300 METAR MRLM NIL=
201303300400 METAR MRLM NIL=
201303300500 METAR MRLM NIL=
201303300600 METAR MRLM NIL=
201303300700 METAR MRLM NIL=
201303300800 METAR MRLM NIL=
201303300900 METAR MRLM NIL=
201303301000 METAR MRLM NIL=
201303301100 METAR MRLM NIL=
201303301200 METAR MRLM 301200Z 26002KT CAVOK 22/19 A2996=
201303301300 METAR MRLM 301300Z 00000KT CAVOK 22/20 A2997=
201303301400 METAR MRLM 301400Z 00000KT CAVOK 28/20 A2999=
201303301500 METAR MRLM 301500Z 09004KT CAVOK 28/21 A2998=
201303301600 METAR MRLM 301600Z 06004KT 9999 FEW030 28/21 A2997=
201303301700 METAR MRLM 301700Z 07006KT 9999 FEW030 28/22 A2995=
201303301800 METAR MRLM 301800Z 06007KT 9999 FEW030 28/23 A2993=
201303301900 METAR MRLM 301900Z 05007KT 9999 FEW030 29/22 A2991=
201303302000 METAR MRLM 302000Z 06006KT 9999 FEW030 29/23 A2989=
201303302100 METAR MRLM 302100Z 05007KT 9999 FEW030 30/23 A2989=
201303302200 METAR MRLM 302200Z 03007KT 9999 FEW030 SCT130 29/23 A2989=
201303302300 METAR MRLM 302300Z 04005KT 9999 FEW025 BKN130 29/23 A2990=
201303310000 METAR MRLM 310000Z 10016KT 9999 -DZ BKN010 26/23 A2992=
201303310100 METAR MRLM NIL=
201303310200 METAR MRLM NIL=
201303310300 METAR MRLM NIL=
201303310400 METAR MRLM NIL=
201303310500 METAR MRLM NIL=
201303310600 METAR MRLM NIL=
201303310700 METAR MRLM NIL=
201303310800 METAR MRLM NIL=
201303310900 METAR MRLM NIL=
201303311000 METAR MRLM NIL=
201303311100 METAR MRLM NIL=
201303311200 METAR MRLM 311200Z 25003KT 9999 BKN010 SCT100 23/22 A2991=
201303311300 METAR MRLM 311300Z 24003KT 9999 BKN010 SCT100 23/23 A2993=
201303311400 METAR MRLM 311400Z 24004KT 9999 SCT010 BKN100 24/22 A2994=
201303311500 METAR MRLM 311500Z 27003KT 9999 SCT015 BKN110 26/23 A2993=
201303311600 METAR MRLM 311600Z 00000KT 9999 BKN020 SCT110 27/23 A2993=
201303311700 METAR MRLM 311700Z 01003KT 9999 FEW025 BKN120 28/23 A2992=
201303311800 METAR MRLM 311800Z 36006KT 9999 DZ BKN020 SCT110 27/23 A2990=
201303311815 METAR MRLM 311815Z 03008KT 3000 +RA OVC010 26/24 A2991=
201303311900 METAR MRLM 311900Z 03004KT 8000 3000N +DZ VCSH FEW007 BKN010 25/24 A2989 RERA=
201303312000 METAR MRLM 312000Z 30002KT 8000 DZ VCSH BKN010 25/23 A2988=
201303312100 METAR MRLM 312100Z 29002KT 9999 DZ FEW007 SCT010 SCT100 25/24 A2985=
201303312200 METAR MRLM 312200Z 23002KT 9999 -DZ FEW010 BKN110 26/24 A2984=
201303312300 METAR MRLM 312300Z 29002KT 9999 DZ BKN010 SCT100 26/24 A2984=
201304010000 METAR MRLM 010000Z 00000KT 9999 BKN010 SCT100 26/24 A2984 REDZ=
201304010100 METAR MRLM NIL=
201304010200 METAR MRLM NIL=
201304010300 METAR MRLM NIL=
201304010400 METAR MRLM NIL=
201304010500 METAR MRLM NIL=
201304010600 METAR MRLM NIL=
201304010700 METAR MRLM NIL=
201304010800 METAR MRLM NIL=
201304010900 METAR MRLM NIL=
201304011000 METAR MRLM NIL=
201304011100 METAR MRLM NIL=
201304011200 METAR MRLM 011200Z 21003KT 8000 +DZ VCSH BKN015 SCT025 24/23 A2989=
201304011300 METAR MRLM 011300Z 32002KT 4000 RA BKN015 SCT025 24/23 A2990=
201304011400 METAR MRLM 011400Z 16004KT 8000 +DZ VCSH BKN020 SCT090 25/24 A2992=
201304011500 METAR MRLM 011500Z 25003KT 9999 BKN020 26/24 A2992 RERA=
201304011600 METAR MRLM 011600Z 31003KT 9999 SCT025 SCT090 28/25 A2991=
201304011700 METAR MRLM 011700Z 34003KT 9999 FEW025 SCT070 SCT080 30/25 A2990=
201304011800 METAR MRLM 011800Z 03006KT 9999 FEW028 BKN090 30/24 A2988=
201304011900 METAR MRLM 011900Z 03007KT 9999 FEW028 BKN120 30/25 A2986=
201304012000 METAR MRLM 012000Z 02009KT 9999 SCT025 SCT080 30/25 A2984=
201304012100 METAR MRLM 012100Z 07015KT 8000 DZ VCSH BKN025 27/24 A2984 RERA=
201304012200 METAR MRLM 012200Z 05007KT 9999 FEW010 BKN025 27/25 A2983 REDZ=
201304012300 METAR MRLM 012300Z 09004KT 5000 RA OVC012 26/24 A2984=
201304012357 METAR MRLM 020000Z 06012KT 8000 TS VCSH SCT010CB SCT015 27/24 A2986 REDZ=
201304020000 METAR MRLM 020000Z 06012KT 8000 TS VCSH SCT010CB SCT015 27/24 A2986 REDZ=
201304020100 METAR MRLM NIL=
201304020200 METAR MRLM NIL=
201304020300 METAR MRLM NIL=
201304020400 METAR MRLM NIL=
201304020500 METAR MRLM NIL=
201304020600 METAR MRLM NIL=
201304020700 METAR MRLM NIL=
201304020800 METAR MRLM NIL=
201304020900 METAR MRLM NIL=
201304021000 METAR MRLM NIL=
201304021100 METAR MRLM NIL=
201304021200 METAR MRLM NIL=
201304021300 METAR MRLM 021300Z 25005KT 9999 DZ SCT015 SCT025 25/24 A2992=
201304021400 METAR MRLM 021400Z 27003KT 9999 OVC015 27/24 A2994 REDZ=
201304021500 METAR MRLM 021500Z 02006KT 9999 BKN020 29/24 A2995=
201304021600 METAR MRLM 021600Z 03005KT 9999 SCT025 29/24 A2996=
201304021700 METAR MRLM 021700Z 01006KT 9999 BKN025 29/24 A2995=
201304021800 METAR MRLM 021800Z 04005KT 9999 BKN025 29/25 A2994=
201304021900 METAR MRLM 021900Z 04008KT 9999 BKN025 30/24 A2990=
201304022000 METAR MRLM 022000Z 03007KT 9999 BKN025 30/25 A2989=
201304022100 METAR MRLM 022100Z 03007KT 9999 BKN025 SCT280 29/24 A2989=
201304022200 METAR MRLM 022200Z 03007KT 9999 BKN025 29/24 A2986=
201304022300 METAR MRLM 022300Z 03005KT 9999 BKN020 28/24 A2988=
201304022357 METAR MRLM 030000Z 06003KT 9999 BKN022 28/24 A2989=
201304030000 METAR MRLM 030000Z 06003KT 9999 BKN022 28/24 A2989=
201304030100 METAR MRLM NIL=
201304030200 METAR MRLM NIL=
201304030300 METAR MRLM NIL=
201304030400 METAR MRLM NIL=
201304030500 METAR MRLM NIL=
201304030600 METAR MRLM NIL=
201304030700 METAR MRLM NIL=
201304030800 METAR MRLM NIL=
201304030900 METAR MRLM NIL=
201304031000 METAR MRLM NIL=
201304031100 METAR MRLM NIL=
201304031200 METAR MRLM 031200Z 25005KT 9999 BKN010 24/23 A2991=
201304031300 METAR MRLM 031300Z 26005KT 9999 BKN010 24/23 A2993=
201304031400 METAR MRLM 031400Z 26005KT 9999 DZ BKN010 24/23 2995=
201304031500 METAR MRLM 031500Z 24004KT 9999 DZ VCSH BKN010 24/23 A2997=
201304031600 METAR MRLM 031600Z 26004KT 9999 DZ FEW007 BKN010 24/23 A2996=
201304031700 METAR MRLM 031700Z 25005KT 9999 DZ FEW007 BKN015 24/23 A2995=
201304031800 METAR MRLM 031800Z 24007KT 9999 DZ BKN010 SCT090 24/23 A2993=
201304031900 METAR MRLM 031900Z 22005KT 9999 -DZ BKN010 SCT090 24/23 A2991=
201304032000 METAR MRLM 032000Z 24006KT 9999 SCT015 BKN110 26/24 A2987=
201304032100 METAR MRLM 032100Z 25005KT 9999 SCT020 BKN110 27/23 A2984=
201304032200 METAR MRLM 032200Z 24003KT 9999 SCT020 BKN110 26/23 A2984=
201304032300 METAR MRLM 032300Z 25002KT 9999 FEW015 BKN110 26/23 A2985=
201304040000 METAR MRLM 040000Z 00000KT 9999 FEW015 BKN100 25/23 A2987=
201304040100 METAR MRLM NIL=
201304040200 METAR MRLM NIL=
201304040300 METAR MRLM NIL=
201304040400 METAR MRLM NIL=
201304040500 METAR MRLM NIL=
201304040600 METAR MRLM NIL=
201304040700 METAR MRLM NIL=
201304040800 METAR MRLM NIL=
201304040900 METAR MRLM NIL=
201304041000 METAR MRLM NIL=
201304041100 METAR MRLM NIL=
201304041200 METAR MRLM 041200Z 26002KT CAVOK 22/21 A2989=
201304041300 METAR MRLM 041300Z 24005KT CAVOK 24/21 A2991=
201304041400 METAR MRLM 041400Z 25002KT CAVOK 28/23 A2993=
201304041500 METAR MRLM 041500Z 07003KT 9999 FEW030 29/23 A2994=
201304041600 METAR MRLM 041600Z 07004KT 9999 FEW030 29/23 A2995=
201304041700 METAR MRLM 041700Z 05006KT 9999 FEW030 29/24 A2993=
201304041800 METAR MRLM 041800Z 06007KT 9999 FEW030 SCT140 30/24 A2992=
201304041900 METAR MRLM 041900Z 06009KT 9999 FEW025 SCT140 29/25 A2988=
201304042000 METAR MRLM 042000Z 07007KT 9999 SCT020 SCT130 29/25 A2986=
201304042100 METAR MRLM 042100Z 10006KT 9999 FEW020 BKN120 28/24 A2985=
201304042200 METAR MRLM 042200Z 09003KT 9999 FEW020 BKN120 28/23 A2985=
201304042235 METAR MRLM 042235Z 10003KT 9999 DZ SCT010 SCT110 27/24 A2986=
201304042300 METAR MRLM 042300Z 03005KT 9999 DZ SCT015 BKN110 26/24 A2986=
201304050000 METAR MRLM 050000Z 00000KT 9999 SCT010 BKN110 26/24 A2987=
201304050100 METAR MRLM NIL=
201304050200 METAR MRLM NIL=
201304050300 METAR MRLM NIL=
201304050400 METAR MRLM NIL=
201304050500 METAR MRLM NIL=
201304050600 METAR MRLM NIL=
201304050700 METAR MRLM NIL=
201304050800 METAR MRLM NIL=
201304050900 METAR MRLM NIL=
201304051000 METAR MRLM NIL=
201304051100 METAR MRLM NIL=
201304051200 METAR MRLM 051200Z 26003KT CAVOK 25/23 A2990=
201304051300 METAR MRLM 051300Z 24003KT CAVOK 26/23 A2991=
201304051400 METAR MRLM 051400Z 26002KT CAVOK 30/24 A2993=
201304051500 METAR MRLM 051500Z 05007KT 9999 FEW025 29/24 A2995=
201304051600 METAR MRLM 051600Z 04009KT 9999 FEW025 BKN140 29/24 A2996=
201304051700 METAR MRLM 051700Z 05007KT 9999 OVC023 30/25 A2994=
201304051800 METAR MRLM 051800Z 06014KT 4000 +DZ VCSH OVC015 27/24 A2993=
201304051900 METAR MRLM 051900Z 05013KT 9999 SCT012 SCT090 27/24 A2989 REDZ=
201304052000 METAR MRLM 052000Z 09005KT 9999 FEW018 BKN030 27/24 A2988=
201304052100 METAR MRLM 052100Z 31003KT 9999 FEW015 BKN035 27/24 A2986=
201304052200 METAR MRLM 052200Z 32003KT 9999 BKN022 28/24 A2986=
201304052300 METAR MRLM 052300Z 26003KT 9999 FEW015 SCT090 SCT270 27/24 A2985=
201304052358 METAR MRLM 060000Z 21003KT CAVOK 26/23 A2987=
201304060000 METAR MRLM 060000Z 21003KT CAVOK 26/23 A2987=
201304060100 METAR MRLM NIL=
201304060200 METAR MRLM NIL=
201304060300 METAR MRLM NIL=
201304060400 METAR MRLM NIL=
201304060500 METAR MRLM NIL=
201304060600 METAR MRLM NIL=
201304060700 METAR MRLM NIL=
201304060800 METAR MRLM NIL=
201304060900 METAR MRLM NIL=
201304061000 METAR MRLM NIL=
201304061100 METAR MRLM NIL=
201304061200 METAR MRLM 061200Z 25004KT CAVOK 22/21 A2994=
201304061300 METAR MRLM 061300Z 25004KT CAVOK 24/22 A2995=
201304061400 METAR MRLM 061400Z 00000KT CAVOK 28/23 A2997=
201304061500 METAR MRLM NIL=
201304061600 METAR MRLM 061600Z 09004KT 9999 FEW025 SCT280 29/24 A2997=
201304061700 METAR MRLM 061700Z 09006KT 9999 FEW030 29/24 A2996=
201304061800 METAR MRLM 061800Z 07007KT 9999 BKN025 29/24 A2994=
201304061900 METAR MRLM 061900Z 06008KT 9999 FEW025 30/242 A2991=
201304062000 METAR MRLM 062000Z 08008KT 9999 BKN028 29/24 A2989=
201304062100 METAR MRLM 062100Z 06008KT 9999 BKN028 30/24 A2987=
201304062200 METAR MRLM 062200Z 06008KT 9999 BKN025 29/24 A2986=
201304062300 METAR MRLM 062300Z 07006KT 9999 OVC025 28/23 A2987=
201304062354 METAR MRLM 070000Z 07006KT 9999 SCT025 SCT280 28/23 A2988=
201304070000 METAR MRLM 070000Z 07006KT 9999 SCT025 SCT280 28/23 A2988=
201304070100 METAR MRLM NIL=
201304070200 METAR MRLM NIL=
201304070300 METAR MRLM NIL=
201304070400 METAR MRLM NIL=
201304070500 METAR MRLM NIL=
201304070600 METAR MRLM NIL=
201304070700 METAR MRLM NIL=
201304070800 METAR MRLM NIL=
201304070900 METAR MRLM NIL=
201304071000 METAR MRLM NIL=
201304071100 METAR MRLM NIL=
201304071200 METAR MRLM 071200Z 23004KT 9999 FEW010 SCT110 23/22 A2993=
201304071300 METAR MRLM 071300Z 23005KT CAVOK 26/22 A2995=
201304071400 METAR MRLM 071400Z 00000KT 9999 FEW030 SCT130 28/22 A2997=
201304071500 METAR MRLM 071500Z 12003KT 9999 FEW030 BKN250 28/22 A2998=
201304071600 METAR MRLM 071600Z 09003KT 9999 FEW035 BKN250 29/22 A2998=
201304071700 METAR MRLM 071700Z 08005KT 9999 FEW035 BKN260 29/22 A2996=
201304071800 METAR MRLM 071800Z 08005KT 9999 FEW030 BKN260 29/23 A2994=
201304071900 METAR MRLM 071900Z 07007KT 9999 FEW030 BKN260 29/23 A2991=
201304072000 METAR MRLM 072000Z 07008KT 9999 FEW030 BKN250 29/22 A2988=
201304072100 METAR MRLM 072100Z 09004KT 9999 FEW035 BKN250 29/22 A2986=
201304072200 METAR MRLM 072200Z 07003KT 9999 FEW030 BKN240 29/22 A2985=
201304072300 METAR MRLM 072300Z 10003KT 9999 FEW030 BKN240 28/21 A2987=
201304080000 METAR MRLM 080000Z 08003KT 9999 FEW030 SCT130 27/21 A2988=
201304080100 METAR MRLM NIL=
201304080200 METAR MRLM NIL=
201304080300 METAR MRLM NIL=
201304080400 METAR MRLM NIL=
201304080500 METAR MRLM NIL=
201304080600 METAR MRLM NIL=
201304080700 METAR MRLM NIL=
201304080800 METAR MRLM NIL=
201304080900 METAR MRLM NIL=
201304081000 METAR MRLM NIL=
201304081100 METAR MRLM NIL=
201304081200 METAR MRLM 081200Z 25003KT CAVOK 22/21 A2990=
201304081300 METAR MRLM 081300Z 25004KT CAVOK 24/21 A2991=
201304081400 METAR MRLM 081400Z 24004KT CAVOK 27/22 A2993=
201304081500 METAR MRLM 081500Z 09004KT 9999 FEW040 29/21 A2993=
201304081600 METAR MRLM 081600Z 08007KT 9999 FEW040 SCT140 29/21 A2992=
201304081700 METAR MRLM 081700Z 08005KT 9999 FEW040 29/22 A2992=
201304081800 METAR MRLM 081800Z 06006KT 9999 FEW040 29/22 A2988=
201304081900 METAR MRLM 081900Z 07008KT 9999 FEW030 29/23 A2985=
201304082000 METAR MRLM 082000Z 06008KT 9999 FEW030 30/23 A2982=
201304082100 METAR MRLM 082100Z 06007KT 9999 FEW035 29/22 A2982=
201304082200 METAR MRLM 082200Z 06006KT 9999 FEW030 SCT140 29/23 A2982=
201304082300 METAR MRLM NIL=
201304090000 METAR MRLM 090000Z 07004KT 9999 FEW025 BKN120 28/23 A2985=
201304090100 METAR MRLM NIL=
201304090200 METAR MRLM NIL=
201304090300 METAR MRLM NIL=
201304090400 METAR MRLM NIL=
201304090500 METAR MRLM NIL=
201304090600 METAR MRLM NIL=
201304090700 METAR MRLM NIL=
201304090800 METAR MRLM NIL=
201304090900 METAR MRLM NIL=
201304091000 METAR MRLM NIL=
201304091100 METAR MRLM NIL=
201304091200 METAR MRLM 091200Z 28002KT CAVOK 23/22 A2989=
201304091300 METAR MRLM 091300Z 24003KT CAVOK 25/23 A2991=
201304091400 METAR MRLM 091400Z 06004KT CAVOK 28/23 A2992=
201304091500 METAR MRLM 091500Z 10003KT 9999 FEW028 SCT140 SCT280 29/23 A2992=
201304091600 METAR MRLM 091600Z 10006KT 9999 FEW025 SCT090 29/24 A2992=
201304091700 METAR MRLM 091700Z 12009KT 9999 FEW025 BKN110 29/24 A2991=
201304091800 METAR MRLM 091800Z 13009KT 9999 FEW030 SCT070 SCT090 29/23 A2988=
201304091900 METAR MRLM 091900Z 10014KT 9999 SCT022 SCT080 28/24 A2986=
201304092000 METAR MRLM 092000Z 12010KT 9999 FEW022 BKN080 28/23 A2984=
201304092100 METAR MRLM 092100Z 14007KT 9999 FEW020 BKN080 27/23 A2983=
201304092200 METAR MRLM 092200Z 10006KT 9999 FEW025 BKN080 28/24 A2983=
201304092300 METAR MRLM 092300Z 08004KT CAVOK 28/23 A2984=
201304092358 METAR MRLM 100000Z 13005KT CAVOK 28/22 A2985=
201304100000 METAR MRLM 100000Z 13005KT CAVOK 28/22 A2985=
201304100100 METAR MRLM NIL=
201304100200 METAR MRLM NIL=
201304100300 METAR MRLM NIL=
201304100400 METAR MRLM NIL=
201304100500 METAR MRLM NIL=
201304100600 METAR MRLM NIL=
201304100700 METAR MRLM NIL=
201304100800 METAR MRLM NIL=
201304100900 METAR MRLM NIL=
201304101000 METAR MRLM NIL=
201304101100 METAR MRLM NIL=
201304101200 METAR MRLM 101200Z 26003KT CAVOK 23/22 A2987=
201304101300 METAR MRLM 101300Z 240903KT 9999 SCT015 SCT090 24/22 A2988=
201304101400 METAR MRLM 101400Z 23003KT 9999 BKN015 26/23 A2991=
201304101500 METAR MRLM 101500Z 09007KT 9999 DZ VCSH BKN014 SCT090 26/23 A2992=
201304101600 METAR MRLM 101600Z 24003KT 9999 FEW018 BKN035 27/24 A2992 REDZ=
201304101700 METAR MRLM 101700Z 16006KT 9999 FEW020 SCT080 SCT090 27/23 A2991=
201304101800 METAR MRLM 101800Z 00000KT 9999 FEW035 BKN070 29/22 A2989=
201304101900 METAR MRLM 101900Z 04003KT 9999 FEW035 BKN080 30/23 A2987=
201304102000 METAR MRLM 102000Z 16003KT 9999 FEW035 BKN110 30/23 A2993=
201304102100 METAR MRLM 102100Z 11004KT 9999 FEW035 SCT090 SCT120 29/23 A2981=
201304102200 METAR MRLM 102200Z 05004KT CAVOK 29/23 A2981=
201304102300 METAR MRLM 102300Z 04005KT CAVOK 28/23 A2982=
201304102356 METAR MRLM 110000Z 07003KT CAVOK 27/23 A2982=
201304110000 METAR MRLM 110000Z 07003KT CAVOK 27/23 A2982=
201304110100 METAR MRLM NIL=
201304110200 METAR MRLM NIL=
201304110300 METAR MRLM NIL=
201304110400 METAR MRLM NIL=
201304110500 METAR MRLM NIL=
201304110600 METAR MRLM NIL=
201304110700 METAR MRLM NIL=
201304110800 METAR MRLM NIL=
201304110900 METAR MRLM NIL=
201304111000 METAR MRLM NIL=
201304111100 METAR MRLM NIL=
201304111200 METAR MRLM 111200Z 26005KT 9999 CAVOK 23/21 A2983=
201304111300 METAR MRLM 111300Z 26004KT CAVOK 25/22 A2985=
201304111400 METAR MRLM 111400Z 00000KT CAVOK 29/23 A2987=
201304111500 METAR MRLM 111500Z 07003KT 9999 FEW030 BKN250 29/22 A2998=
201304111600 METAR MRLM 111600Z 06006KT 9999 FEW030 BKN260 29/23 A2987=
201304111700 METAR MRLM 111700Z 06009KT 9999 FEW025 SCT140 SCT250 29/25 A2986=
201304111800 METAR MRLM 111800Z 06007KT 9999 FEW025 SCT140 SCT250 29/24 A2985=
201304111900 METAR MRLM 111900Z 08007KT 9999 FEW030 BKN250 30/24 A2983=
201304112000 METAR MRLM 112000Z 10006KT 9999 FEW030 SCT250 30/24 A2980=
201304112100 METAR MRLM 112100Z 09007KT 9999 SCT030 30/24 A2979=
201304112200 METAR MRLM 112200Z 11006KT 9999 SCT025 SCT250 29/24 2977=
201304112300 METAR MRLM 112300Z 11006KT 9999 SCT020 BKN250 29/24 A2978=
201304120000 METAR MRLM 120000Z 12005KT 9999 SCT020 BKN240 28/24 A2979=
201304120100 METAR MRLM NIL=
201304120200 METAR MRLM NIL=
201304120300 METAR MRLM NIL=
201304120400 METAR MRLM NIL=
201304120500 METAR MRLM NIL=
201304120600 METAR MRLM NIL=
201304120700 METAR MRLM NIL=
201304120800 METAR MRLM NIL=
201304120900 METAR MRLM NIL=
201304121000 METAR MRLM NIL=
201304121100 METAR MRLM NIL=
201304121200 METAR MRLM 121200Z 26002KT 9999 FEW010 BKN240 23/22 A2983=
201304121300 METAR MRLM 121300Z 25003KT 9999 FEW010 BKN240 24/22 A2985=
201304121400 METAR MRLM 121400Z 18002KT 9999 FEW030 BKN250 30/23 A2986=
201304121500 METAR MRLM 121500Z 11004KT 9999 FEW030 BKN250 29/23 A2987=
201304121600 METAR MRLM 121600Z 09005KT 9999 FEW030 BKN250 30/24 A2986=
201304121700 METAR MRLM 121700Z 07007KT 9999 FEW030 SCT260 30/25 A2986=
201304121800 METAR MRLM 121800Z 06008KT 9999 SCT030 30/25 A2985=
201304121900 METAR MRLM 121900Z 07009KT 9999 SCT030 30/24 A2982=
201304122000 METAR MRLM 122000Z 07006KT 9999 FEW030 30/24 A2980=
201304122100 METAR MRLM 122100Z 06006KT 9999 SCT030 30/24 A2978=
201304122200 METAR MRLM 122200Z 10004KT 9999 FEW030 30/24 A2977=
201304122300 METAR MRLM 122300Z 07004KT 9999 FEW030 SCT250 29/24 A2978=
201304130000 METAR MRLM 130000Z 08003KT 9999 FEW025 SCT250 28/23 A2979=
201304130100 METAR MRLM NIL=
201304130200 METAR MRLM NIL=
201304130300 METAR MRLM NIL=
201304130400 METAR MRLM NIL=
201304130500 METAR MRLM NIL=
201304130600 METAR MRLM NIL=
201304130700 METAR MRLM NIL=
201304130800 METAR MRLM NIL=
201304130900 METAR MRLM NIL=
201304131000 METAR MRLM NIL=
201304131100 METAR MRLM NIL=
201304131200 METAR MRLM 131200Z 03005KT 6000 RA FEW005 BKN015 24/22 A2986=
201304131300 METAR MRLM 131300Z 19003KT 7000 RA OVC015 24/22 A2986=
201304131400 METAR MRLM 131400Z 22004KT 8000 DZ VCSH FEW006 BKN015 24/23 A2989 RERA=
201304131500 METAR MRLM 131500Z 24003KT 9999 BKN012 27/25 A2989 REDZ=
201304131600 METAR MRLM 131600Z 10002KT 9999 OVC025 29/24 A2988=
201304131700 METAR MRLM 131700Z 11006KT 9999 OVC025 29/24 A2987=
201304131800 METAR MRLM 131800Z 15007KT 9999 DZ VCSH BKN020 SCT090 27/24 A2986=
201304131900 METAR MRLM 131900Z 14008KT 9999 FEW018 SCT035 SCT100 28/24 A2983 REDZ=
201304132000 METAR MRLM 132000Z 14007KT 9999 BKN025 SCT120 28/24 A2980=
201304132100 METAR MRLM 132100Z 100 08KT 9999 FEW023 BKN090 28/24 A2979=
201304132200 METAR MRLM 132200Z 13007KT 9999 FEW022 BKN090 28/24 A2978=
201304132300 METAR MRLM 132300Z 14005KT 9999 FEW018 BKN080 27/24 A2979=
201304132355 METAR MRLM 140000Z 21002KT 9999 BKN015 27/24 A2980=
201304140000 METAR MRLM 140000Z 21002KT 9999 BKN015 27/24 A2980=
201304140100 METAR MRLM NIL=
201304140200 METAR MRLM NIL=
201304140300 METAR MRLM NIL=
201304140400 METAR MRLM NIL=
201304140500 METAR MRLM NIL=
201304140600 METAR MRLM NIL=
201304140700 METAR MRLM NIL=
201304140800 METAR MRLM NIL=
201304140900 METAR MRLM NIL=
201304141000 METAR MRLM NIL=
201304141100 METAR MRLM NIL=
201304141200 METAR MRLM 141200Z 26004KT 5000 DZ VCSH SCT005 SCT015 23/22 A2986=
201304141300 METAR MRLM 141300Z 24003KT 5000 DZ VCSH SCT003 SCT015 23/23 A2988=
201304141400 METAR MRLM 141400Z 24004KT 6000 DZ VCSH SCT005 SCT015 24/23 A2991=
201304141500 METAR MRLM 141500Z 23008KT 9999 FEW025 BKN070 24/23 A2991 REDZ=
201304141600 METAR MRLM 141600Z 24006KT CAVOK 26/23 A2990=
201304141700 METAR MRLM 141700Z 18004KT CAVOK 29/22 A2988=
201304141800 METAR MRLM 141800Z 12006KT 9999 FEW035 BKN090 30/23 A2986=
201304141900 METAR MRLM 141900Z 12005KT 9999 FEW032 BKN100 30/23 A2982=
201304142000 METAR MRLM 142000Z 11005KT CAVOK 29/23 A2980=
201304142100 METAR MRLM 142100Z 11004KT CAVOK 29/23 A2980=
201304142200 METAR MRLM 142200Z 09003KT CAVOK 29/23 A2981=
201304142300 METAR MRLM 142300Z 00000KT CAVOK 28/23 A2981=
201304142357 METAR MRLM 150000Z 00000KT CAVOK 27/24 A2984=
201304150000 METAR MRLM 150000Z 00000KT CAVOK 27/24 A2984=
201304150100 METAR MRLM NIL=
201304150200 METAR MRLM NIL=
201304150300 METAR MRLM NIL=
201304150400 METAR MRLM NIL=
201304150500 METAR MRLM NIL=
201304150600 METAR MRLM NIL=
201304150700 METAR MRLM NIL=
201304150800 METAR MRLM NIL=
201304150900 METAR MRLM NIL=
201304151000 METAR MRLM NIL=
201304151100 METAR MRLM NIL=
201304151200 METAR MRLM 151200Z 24003KT CAVOK 23/22 A2985=
201304151300 METAR MRLM 151300Z 26003KT CAVOK 25/22 A2987=
201304151400 METAR MRLM 151400Z 26003KT CAVOK 27/23 A2990=
201304151500 METAR MRLM 151500Z 07002KT 9999 FEW030 BKN130 29/23 A2991=
201304151600 METAR MRLM 151600Z 07003KT 9999 FEW030 BKN140 29/23 A2991=
201304151700 METAR MRLM 151700Z 09005KT 9999 FEW030 BKN140 30/23 A2991=
201304151800 METAR MRLM 151800Z 09005KT 9999 FEW030 30/24 A2987=
201304151900 METAR MRLM 151900Z 09006KT 9999 FEW030 BKN140 30/24 A2985=
201304152000 METAR MRLM 152000Z 09005KT 9999 FEW030 BKN140 30/25 A2984=
201304152100 METAR MRLM 152100Z 08005KT 9999 FEW030 BKN150 30/24 A2982=
201304152200 METAR MRLM 152200Z 07005KT 9999 FEW025 BKN140 29/24 A2982=
201304152300 METAR MRLM 152300Z 07004KT 9999 FEW020 BKN140 29/25 A2982=
201304160000 METAR MRLM 160000Z 08002KT 9999 FEW020 SCT130 SCT250 28/24 A2983=
201304160100 METAR MRLM NIL=
201304160200 METAR MRLM NIL=
201304160300 METAR MRLM NIL=
201304160400 METAR MRLM NIL=
201304160500 METAR MRLM NIL=
201304160600 METAR MRLM NIL=
201304160700 METAR MRLM NIL=
201304160800 METAR MRLM NIL=
201304160900 METAR MRLM NIL=
201304161000 METAR MRLM NIL=
201304161100 METAR MRLM NIL=
201304161200 METAR MRLM 161200Z 26003KT 9999 FEW015 BKN120 25/24 A2990=
201304161300 METAR MRLM 161300Z 26004KT 9999 FEW015 BKN120 26/24 A2991=
201304161400 METAR MRLM 161400Z 00000KT 9999 FEW030 SCT130 30/24 A2993=
201304161500 METAR MRLM 161500Z 09003KT 9999 FEW030 31/25 A2992=
201304161600 METAR MRLM 161600Z 06004KT 9999 FEW030 30/24 A2992=
201304161700 METAR MRLM 161700Z 06005KT 9999 FEW030 30/25 A2991=
201304161800 METAR MRLM 161800Z 07005KT 9999 FEW030 30/25 A2988=
201304161900 METAR MRLM 161900Z 08005KT 9999 FEW030 31/25 A2986=
201304162000 METAR MRLM 162000Z 08006KT 9999 SCT030 31/25 A2984=
201304162100 METAR MRLM 162100Z 08007KT 9999 SCT030 30/25 A2983=
201304162200 METAR MRLM 162200Z 06008KT 9999 -DZ BKN025 30/25 A2983=
201304162300 METAR MRLM 162300Z 09007KT 9999 SCT025 29/25 A2984=
201304170000 METAR MRLM 170000Z 08007KT 9999 BKN020 29/25 A2986=
201304170100 METAR MRLM NIL=
201304170200 METAR MRLM NIL=
201304170300 METAR MRLM NIL=
201304170400 METAR MRLM NIL=
201304170500 METAR MRLM NIL=
201304170600 METAR MRLM NIL=
201304170700 METAR MRLM NIL=
201304170800 METAR MRLM NIL=
201304170900 METAR MRLM NIL=
201304171000 METAR MRLM NIL=
201304171100 METAR MRLM NIL=
201304171200 METAR MRLM 171200Z 31003KT 9999 DZ VCSH OVC015 25/24 A2989=
201304171300 METAR MRLM 171300Z 25004KT 9999 DZ VCSH OVC015 25/23 A2991=
201304171400 METAR MRLM 171400Z 26003KT 9999 SCT018 SCT110 28/25 A2992 REDZ=
201304171500 METAR MRLM 171500Z 12003KT 9999 BKN030 30/24 A2992=
201304171600 METAR MRLM 171600Z 11005KT 9999 SCT030 SCT280 30/24 A2990=
201304171700 METAR MRLM 171700Z 12008KT 9999 SCT028 BKN280 30/25 A2990=
201304171800 METAR MRLM 171800Z 11008KT 9999 SCT030 BKN280 30/24 A2988=
201304171900 METAR MRLM 171900Z 10006KT 9999 FEW038 BKN280 31/24 2986=
201304172000 METAR MRLM 172000Z 09007KT 9999 FEW038 BKN280 31/23 A2984=
201304172100 METAR MRLM 172100Z 11007KT 9999 FEW035 BKN280 31/24 A2982=
201304172200 METAR MRLM 172200Z 09006KT 9999 FEW030 SCT080 SCT280 30/24 A2981=
201304172300 METAR MRLM 172300Z 10005KT 9999 BKN025 29/24 A2983=
201304172354 METAR MRLM 180000Z 11006KT 9999 BKN025 29/23 A2984=
201304180000 METAR MRLM 180000Z 11006KT 9999 BKN025 29/23 A2984=
201304180100 METAR MRLM NIL=
201304180200 METAR MRLM NIL=
201304180300 METAR MRLM NIL=
201304180400 METAR MRLM NIL=
201304180500 METAR MRLM NIL=
201304180600 METAR MRLM NIL=
201304180700 METAR MRLM NIL=
201304180800 METAR MRLM NIL=
201304180900 METAR MRLM NIL=
201304181000 METAR MRLM NIL=
201304181100 METAR MRLM NIL=
201304181200 METAR MRLM 181200Z 23003KT 6000 DZ VCSH SCT003 BKN015 24/23 A2986=
201304181300 METAR MRLM 181300Z 27002KT 4000 RA SCT003 SCT015 23/23 A2989=
201304181400 METAR MRLM 181400Z 24005KT 8000 +DZ VCSH FEW003 SCT015 SCT090 24/23 A2989=
201304181500 METAR MRLM 181500Z 22005KT 9999 BKN020 25/25 A2989 REDZ0=
201304181600 METAR MRLM 181600Z 21007KT 9999 BKN015 SCT090 25/24 A2990=
201304181700 METAR MRLM 181700Z 23006KT 9999 SCT030 BKN090 25/24 A2989=
201304181800 METAR MRLM 181800Z 23006KT 9999 SCT030 SCT090 26/23 A2987=
201304181900 METAR MRLM 181900Z 14006KT 9999 +DZ SCT025 SCT090 29/23 A2983=
201304182000 METAR MRLM 182000Z 10005KT 9999 FEW015 BKN030 28/23 A2982 REDZ=
201304182100 METAR MRLM 182100Z 10012KT 9999 FEW015 BKN030 27/23 A2981=
201304182200 METAR MRLM 182200Z 20004KT 9999 SCT025 SCT070 27/23 A2981=
201304182300 METAR MRLM 182300Z 25002KT CAVOK 26/24 A2982=
201304182357 METAR MRLM 190000Z 00000KT CAVOK 26/24 A2984=
201304190000 METAR MRLM 190000Z 00000KT CAVOK 26/24 A2984=
201304190100 METAR MRLM NIL=
201304190200 METAR MRLM NIL=
201304190300 METAR MRLM NIL=
201304190400 METAR MRLM NIL=
201304190500 METAR MRLM NIL=
201304190600 METAR MRLM NIL=
201304190700 METAR MRLM NIL=
201304190800 METAR MRLM NIL=
201304190900 METAR MRLM NIL=
201304191000 METAR MRLM NIL=
201304191100 METAR MRLM NIL=
201304191200 METAR MRLM 191200Z 27006KT 9999 DZ SCT010 BKN100 23/22 A2987=
201304191300 METAR MRLM 191300Z 24004KT 9999 SCT010 BKN100 24/22 A2988 REDZ=
201304191400 METAR MRLM 191400Z 21004KT 9999 FEW015 BKN110 25/23 A2991=
201304191500 METAR MRLM 191500Z 20003KT 9999 FEW015 BKN110 26/24 A2992=
201304191600 METAR MRLM 191600Z 22006KT 9999 FEW025 BKN120 29/23 A2991=
201304191700 METAR MRLM 191700Z 12005KT 9999 FEW035 BKN130 30/23 A2990=
201304191800 METAR MRLM 191800Z 14004KT 9999 FEW030 BKN130 29/24 A2988=
201304191900 METAR MRLM 191900Z 00000KT FEW020 BKN110 27/24 A2998=
201304192000 METAR MRLM 192000Z 14011KT 9999 FEW030 BKN130 29/23 A2984=
201304192100 METAR MRLM 192100Z 13007KT 9999 FEW030 BKN140 29/23 A2983=
201304192200 METAR MRLM 192200Z 11008KT 9999 FEW030 BKN140 29/23 A2983=
201304192300 METAR MRLM 192300Z 11005KT 9999 FEW030 BKN130 28/23 A2984=
201304200000 METAR MRLM 200000Z 00000KT CAVOK 27/24 A2985=
201304200100 METAR MRLM NIL=
201304200200 METAR MRLM NIL=
201304200300 METAR MRLM NIL=
201304200400 METAR MRLM NIL=
201304200500 METAR MRLM NIL=
201304200600 METAR MRLM NIL=
201304200700 METAR MRLM NIL=
201304200800 METAR MRLM NIL=
201304200900 METAR MRLM NIL=
201304201000 METAR MRLM NIL=
201304201100 METAR MRLM NIL=
201304201200 METAR MRLM 201200Z 29002KT 9999 DZ OVC007 24/22 A2991=
201304201300 METAR MRLM 201300Z 27002KT 9999 FEW007 BKN010 24/23 A2993 REDZ=
201304201320 METAR MRLM 201320Z 30002KT 7000 RA SCT007 SCT010 24/23 A2995=
201304201400 METAR MRLM 201400Z 30003KT 9999 DZ SCT007 BKN010 23/22 A2996 RERA=
201304201500 METAR MRLM 201500Z 26004KT 7000 DZ FEW007 SCT010 SCT080 24/23 A2997=
201304201600 METAR MRLM 201600Z 26004KT 9999 SCT015 SCT080 24/23 A2995 REDZ=
201304201700 METAR MRLM 201700Z 23004KT 9999 SCT015 BKN100 27/24 A2994=
201304201800 METAR MRLM 201800Z 11006KT 9999 DZ SCT015 BKN090 26/23 A2993=
201304201900 METAR MRLM NIL=
201304202000 METAR MRLM 202000Z 09003KT CAVOK 29/23 A2985=
201304202100 METAR MRLM 202100Z 06002KT 9999 FEW025 BKN120 28/23 A2982=
201304202200 METAR MRLM 202200Z 33003KT 9999 FEW025 BKN120 29/22 A2983=
201304202300 METAR MRLM 202300Z 33002KT 9999 FEW025 BKN120 28/23 A2985=
201304210000 METAR MRLM 210000Z 00000KT 9999 FEW020 BKN120 27/23 A2986=
201304210100 METAR MRLM NIL=
201304210200 METAR MRLM NIL=
201304210300 METAR MRLM NIL=
201304210400 METAR MRLM NIL=
201304210500 METAR MRLM NIL=
201304210600 METAR MRLM NIL=
201304210700 METAR MRLM NIL=
201304210800 METAR MRLM NIL=
201304210900 METAR MRLM NIL=
201304211000 METAR MRLM NIL=
201304211100 METAR MRLM NIL=
201304211200 METAR MRLM 211200Z 31005KT 8000 DZ VCSH FEW004 BKN015 24/23 A2994=
201304211300 METAR MRLM 211300Z 26005KT 9999 BKN020 24/23 A2995 REDZ=
201304211400 METAR MRLM 211400Z 02006KT 2000 +RA SCT005 SCT012 24/23 A2999=
201304211500 METAR MRLM 211500Z 28005KT 2000 +RA BKN012 SCT090 23/22 A2999=
201304211600 METAR MRLM 211600Z 25005KT 6000 +DZ VCSH BKN012 SCT090 23/23 A2999 RERA=
201304211700 METAR MRLM 211700Z 25003KT 6000 +DZ VCSH BKN005 25/24 A3000=
201304211800 METAR MRLM 211800Z 27005KT 8000 +DZ VCSH SCT007 SCT025 25/24 A2998=
201304211900 METAR MRLM 211900Z 28004KT 9999 FEW010 BKN040 26/24 A2995 REDZ=
201304212000 METAR MRLM 212000Z 24004KT CAVOK 28/23 A2990=
201304212100 METAR MRLM 212100Z 21003KT CAVOK 29/23 A2988=
201304212200 METAR MRLM 212200Z 10003KT CAVOK 29/22 A2988=
201304212300 METAR MRLM 212300Z 06002KT 9999 FEW035 BKN090 28/22 A2989=
201304212357 METAR MRLM 220000Z 00000KT CAVOK 28/22 A2989=
201304220000 METAR MRLM 220000Z 00000KT CAVOK 28/22 A2989=
201304220100 METAR MRLM NIL=
201304220200 METAR MRLM NIL=
201304220300 METAR MRLM NIL=
201304220400 METAR MRLM NIL=
201304220500 METAR MRLM NIL=
201304220600 METAR MRLM NIL=
201304220700 METAR MRLM NIL=
201304220800 METAR MRLM NIL=
201304220900 METAR MRLM NIL=
201304221000 METAR MRLM NIL=
201304221100 METAR MRLM NIL=
201304221200 METAR MRLM 221200Z 25003KT CAVOK 22/21 A2992=
201304221300 METAR MRLM 221300Z 25003KT 9999 FEW015 BKN280 23/21 A2995=
201304221400 METAR MRLM 221400Z 02005KT 9999 BKN012 24/22 A2988=
201304221500 METAR MRLM 221500Z 11009KT 8000 DZ VCSH BKN010 25/23 A2999=
201304221600 METAR MRLM 221600Z 12009KT 4000 +DZ VCSH BKN008 24/23 A3000=
201304221700 METAR MRLM 221700Z 11006KT 5000 RA BKN008 SCT090 24/23 A2999 REDZ=
201304221800 METAR MRLM 221800Z 19005KT 8000 DZ VCSH SCT008 BKN090 24/22 A2997 RERA=
201304221900 METAR MRLM 221900Z 23006KT CAVOK 26/23 A2991 REDZ=
201304222000 METAR MRLM 222000Z 26006KT CAVOK 26/23 A2989=
201304222100 METAR MRLM 222100Z 22003KT CAVOK 29/23 A2987=
201304222200 METAR MRLM 222200Z 21002KT CAVOK 29/22 A2986=
201304222300 METAR MRLM 222300Z 17002KT CAVOK 28/23 A2989=
201304222355 METAR MRLM 230000Z 21002KT CAVOK 25/23 A2988=
201304230000 METAR MRLM 230000Z 21002KT CAVOK 25/23 A2988=
201304230100 METAR MRLM NIL=
201304230200 METAR MRLM NIL=
201304230300 METAR MRLM NIL=
201304230400 METAR MRLM NIL=
201304230500 METAR MRLM NIL=
201304230600 METAR MRLM NIL=
201304230700 METAR MRLM NIL=
201304230800 METAR MRLM NIL=
201304230900 METAR MRLM NIL=
201304231000 METAR MRLM NIL=
201304231100 METAR MRLM NIL=
201304231200 METAR MRLM 231200Z 23005KT CAVOK 22/20 A2992=
201304231300 METAR MRLM 231300Z 27003KT CAVOK 25/21 A2994=
201304231400 METAR MRLM 231400Z 22002KT 9999 FEW030 28/22 A2995=
201304231500 METAR MRLM 231500Z 12004KT 9999 FEW040 29/21 A2995=
201304231600 METAR MRLM 231600Z 11007KT 9999 FEW040 29/22 A2994=
201304231700 METAR MRLM 231700Z 10006KT 9999 FEW040 30/22 A2994=
201304231800 METAR MRLM 231800Z 09007KT 9999 FEW040 29/22 A2991=
201304231900 METAR MRLM 231900Z 07008KT 9999 FEW035 30/23 A2986=
201304232000 METAR MRLM 232000Z 08008KT 9999 FEW035 30/23 A2987=
201304232100 METAR MRLM 232100Z 10006KT 9999 FEW030 29/23 A2985=
201304232200 METAR MRLM 232200Z 10004KT 9999 FEW030 29/23 A2985=
201304232300 METAR MRLM 232300Z 11004KT 9999 FEW030 29/22 A2986=
201304240000 METAR MRLM 240000Z 11003KT 9999 FEW030 SCT250 28/22 A2987=
201304240100 METAR MRLM NIL=
201304240200 METAR MRLM NIL=
201304240300 METAR MRLM NIL=
201304240400 METAR MRLM NIL=
201304240500 METAR MRLM NIL=
201304240600 METAR MRLM NIL=
201304240700 METAR MRLM NIL=
201304240800 METAR MRLM NIL=
201304240900 METAR MRLM NIL=
201304241000 METAR MRLM NIL=
201304241100 METAR MRLM NIL=
201304241200 METAR MRLM 241200Z 26005KT CAVOK 22/20 A2991=
201304241300 METAR MRLM 241300Z 25005KT CAVOK 24/21 A2993=
201304241400 METAR MRLM 241400Z 27003KT CAVOK 28/22 A2995=
201304241500 METAR MRLM 241500Z 06003KT 9999 FEW040 SCT250 29/21 A2995=
201304241600 METAR MRLM 241600Z 07004KT 9999 FEW040 BKN250 29/22 A2996=
201304241700 METAR MRLM 241700Z 06005KT 9999 FEW035 SCT250 30/23 A2995=
201304241800 METAR MRLM 241800Z 03008KT 9999 FEW035 SCT260 30/24 A2992=
201304241900 METAR MRLM 241900Z 02007KT 9999 FEW030 30/24 A2990=
201304242000 METAR MRLM 242000Z 04007KT 9999 SCT030 30/24 A2987=
201304242100 METAR MRLM 242100Z 04007KT 9999 BKN030 30/24 A2986=
201304242200 METAR MRLM 242200Z 04007KT 9999 SCT030 29/23 A2985=
201304242300 METAR MRLM 242300Z 04007KT 9999 BKN025 29/24 A2987=
201304250000 METAR MRLM 250000Z 05007KT 9999 BKN020 28/24 A2988=
201304250100 METAR MRLM NIL=
201304250200 METAR MRLM NIL=
201304250300 METAR MRLM NIL=
201304250400 METAR MRLM NIL=
201304250500 METAR MRLM NIL=
201304250600 METAR MRLM NIL=
201304250700 METAR MRLM NIL=
201304250800 METAR MRLM NIL=
201304250900 METAR MRLM NIL=
201304251000 METAR MRLM NIL=
201304251100 METAR MRLM NIL=
201304251200 METAR MRLM 251200Z 24004KT 9999 FEW015 SCT120 25/22 A2995=
201304251300 METAR MRLM 251300Z 24004KT 9999 FEW015 SCT130 27/23 A2996=
201304251400 METAR MRLM 251400Z 11002KT 9999 FEW035 30/23 A2997=
201304251500 METAR MRLM 251500Z 08005KT 9999 FEW035 30/23 A2988=
201304251600 METAR MRLM 251600Z 07015KT 9999 SCT020 SCT035 28/24 A2999=
201304251700 METAR MRLM 251700Z 07010KT 9999 FEW028 BKN090 28/23 A2997=
201304251800 METAR MRLM 251800Z 08009KT 9999 FEW035 BKN090 30/23 A2905=
201304251900 METAR MRLM 251900Z 06008KT 9999 FEW040 BKN090 30/22 A2992=
201304252000 METAR MRLM 252000Z 08006KT 9999 FEW040 BKN110 30/22 A2990=
201304252100 METAR MRLM 252100Z 08006KT 9999 FEW035 BKN100 30/23 A2988=
201304252200 METAR MRLM 252200Z 08009KT 9999 FEW032 BKN090 30/23 A2989=
201304252300 METAR MRLM 252300Z 06008KT 9999 FEW032 BKN080 29/22 A2991=
201304252352 METAR MRLM 260000Z 07006KT CAVOK 28/22 A2992=
201304260000 METAR MRLM 260000Z 07006KT CAVOK 28/22 A2992=
201304260100 METAR MRLM NIL=
201304260200 METAR MRLM NIL=
201304260300 METAR MRLM NIL=
201304260400 METAR MRLM NIL=
201304260500 METAR MRLM NIL=
201304260600 METAR MRLM NIL=
201304260700 METAR MRLM NIL=
201304260800 METAR MRLM NIL=
201304260900 METAR MRLM NIL=
201304261000 METAR MRLM NIL=
201304261100 METAR MRLM NIL=
201304261200 METAR MRLM 261200Z 24004KT 8000 +DZ BKN015 23/22 A2997=
201304261300 METAR MRLM 261300Z 23004KT 9999 FEW008 BKN015 24/22 A2998 REDZ=
201304261400 METAR MRLM 261400Z 22004KT 9999 SCT015 SCT070 25/23 A3001=
201304261500 METAR MRLM 261500Z 22003KT 9999 FEW023 BKN090 28/24 A3001=
201304261600 METAR MRLM 261600Z 07003KT 9999 FEW035 BKN090 30/23 A3002=
201304261700 METAR MRLM 261700Z 03006KT 9999 FEW030 BKN090 30/23 A3002=
201304261800 METAR MRLM 261800Z 06002KT 9999 FEW035 BKN100 30/22 A3000=
201304261900 METAR MRLM 261900Z 04005KT 9999 FEW035 BKN090 30/22 A2997=
201304262000 METAR MRLM 262000Z 06007KT 9999 FEW040 BKN090 30/22 A2994=
201304262100 METAR MRLM 262100Z 05007KT 9999 FEW035 BKN090 30/23 A2993=
201304262200 METAR MRLM 262200Z 04008KT 9999 FEW035 BKN110 29/23 A2992=
201304262300 METAR MRLM 262300Z 06006KT 9999 FEW030 BKN110 29/22 A2994=
201304262355 METAR MRLM 270000Z 06007KT 9999 FEW028 SCT140 BKN280 28/23 A2995=
201304270000 METAR MRLM 270000Z 06007KT 9999 FEW028 SCT140 BKN280 28/23 A2995=
201304270100 METAR MRLM NIL=
201304270200 METAR MRLM NIL=
201304270300 METAR MRLM NIL=
201304270400 METAR MRLM NIL=
201304270500 METAR MRLM NIL=
201304270600 METAR MRLM NIL=
201304270700 METAR MRLM NIL=
201304270800 METAR MRLM NIL=
201304270900 METAR MRLM NIL=
201304271000 METAR MRLM NIL=
201304271100 METAR MRLM NIL=
201304271200 METAR MRLM 271200Z 23004KT 9999 FEW010 BKN250 22/20 A2994=
201304271300 METAR MRLM 271300Z 24003KT 9999 FEW015 BKN250 24/21 A2996=
201304271400 METAR MRLM 271400Z 27004KT 9999 SCT020 SCT120 26/22 A2997=
201304271500 METAR MRLM 271500Z 03003KT 9999 FEW030 BKN130 28/23 A2999=
201304271600 METAR MRLM 271600Z 04005KT 9999 FEW030 BKN130 29/23 A2999=
201304271700 METAR MRLM 271700Z 09003KT 9999 FEW035 BKN130 30/22 A2996=
201304271800 METAR MRLM 271800Z 10006KT 9999 FEW035 BKN140 30/23 A2995=
201304271900 METAR MRLM 271900Z 07007KT 9999 SCT030 BKN130 29/23 A2993=
201304272000 METAR MRLM 272000Z 06003KT 9999 FEW035 BKN140 29/22 A2990=
201304272100 METAR MRLM 272100Z 05003KT 9999 FEW035 BKN130 29/22 A2989=
201304272200 METAR MRLM 272200Z 00000KT 9999 FEW030 BKN130 29/22 A2988=
201304272300 METAR MRLM 272300Z 14002KT 9999 BKN030 SCT250 29/23 A2988=
201304280000 METAR MRLM 280000Z 00000KT 9999 BKN020 27/23 A2990=
201304280100 METAR MRLM NIL=
201304280200 METAR MRLM NIL=
201304280300 METAR MRLM NIL=
201304280400 METAR MRLM NIL=
201304280500 METAR MRLM NIL=
201304280600 METAR MRLM NIL=
201304280700 METAR MRLM NIL=
201304280800 METAR MRLM NIL=
201304280900 METAR MRLM NIL=
201304281000 METAR MRLM NIL=
201304281100 METAR MRLM NIL=
201304281200 METAR MRLM 281200Z 24005KT 9999 FEW015 BKN250 22/20 A2990=
201304281300 METAR MRLM 281300Z 24004KT 9999 FEW020 BKN250 24/20 A2992=
201304281400 METAR MRLM 281400Z 21002KT 9999 FEW030 SCT140 SCT260 27/22 A2993=
201304281500 METAR MRLM 281500Z 14005KT 9999 FEW030 BKN260 29/22 A2994=
201304281600 METAR MRLM 281600Z 12009KT 9999 FEW030 BKN260 29/22 A2993=
201304281700 METAR MRLM 281700Z 12008KT 9999 FEW030 BKN250 29/22 A2992=
201304281800 METAR MRLM 281800Z 12009KT 9999 FEW030 BKN250 29/23 A2990=
201304281900 METAR MRLM 281900Z 12009KT 9999 FEW035 BKN250 30/23 A2987=
201304282000 METAR MRLM 282000Z 11008KT 9999 FEW030 BKN130 29/22 A2985=
201304282100 METAR MRLM 282100Z 14006KT 9999 FEW025 BKN120 28/23 A2983=
201304282200 METAR MRLM 282200Z 13006KT 9999 SCT030 BKN120 29/21 A2982=
201304282300 METAR MRLM 282300Z 15005KT 9999 SCT030 SCT120 28/22 A2984=
201304290000 METAR MRLM 290000Z 20002KT 9999 SCT025 SCT120 27/22 A2985=
201304290100 METAR MRLM NIL=
201304290200 METAR MRLM NIL=
201304290300 METAR MRLM NIL=
201304290400 METAR MRLM NIL=
201304290500 METAR MRLM NIL=
201304290600 METAR MRLM NIL=
201304290700 METAR MRLM NIL=
201304290800 METAR MRLM NIL=
201304290900 METAR MRLM NIL=
201304291000 METAR MRLM NIL=
201304291100 METAR MRLM NIL=
201304291200 METAR MRLM 291200Z 24004KT 9999 FEW015 BKN090 22/21 A2986=
201304291300 METAR MRLM 291300Z 24004KT 9999 FEW015 BKN100 24/21 A2988=
201304291400 METAR MRLM 291400Z 00000KT 9999 FEW015 BKN090 29/22 A2990=
201304291500 METAR MRLM 291500Z 10003KT 9999 SCT035 29/22 A2991=
201304291600 METAR MRLM 291600Z 11006KT 9999 SCT015 29/22 A2991=
201304291700 METAR MRLM 291700Z 11008KT 9999 SCT015 30/23 A2990=
201304291800 METAR MRLM 291800Z 09008KT 9999 FEW020 30/23 A2988=
201304291900 METAR MRLM 291900Z 09009KT 9999 FEW020 30/22 A2985=
201304292000 METAR MRLM 292000Z 10010KT 9999 FEW020 30/23 A2983=
201304292100 METAR MRLM 292100Z 100 08KT 9999 SCT020 29/23 A2981=
201304292159 METAR MRLM 292200 11007KT 9999 BKN020 29/22 A2981=
201304292200 METAR MRLM 292200Z 11007KT 9999 BKN020 29/22 A2981=
201304292300 METAR MRLM 292300Z 09007KT 9999 FEW020 BKN280 29/22 A2981=
201304300000 METAR MRLM 300000Z 10006KT 9999 FEW015 SCT070 SCT280 28/22 A2983=
201304300100 METAR MRLM NIL=
201304300200 METAR MRLM NIL=
201304300300 METAR MRLM NIL=
201304300400 METAR MRLM NIL=
201304300500 METAR MRLM NIL=
201304300600 METAR MRLM NIL=
201304300700 METAR MRLM NIL=
201304300800 METAR MRLM NIL=
201304300900 METAR MRLM NIL=
201304301000 METAR MRLM NIL=
201304301100 METAR MRLM NIL=
201304301200 METAR MRLM 301200Z 25003KT 9999 FEW015 BKN090 24/22 A2986=
201304301300 METAR MRLM 301300Z 21003KT 9999 FEW015 BKN090 28/22 A2987=
201304301400 METAR MRLM 301400Z 13006KT 9999 FEW015 BKN280 28/22 A2989=
201304301500 METAR MRLM 301500Z 12007KT 9999 FEW020 BKN280 29/22 A2990=
201304301600 METAR MRLM 301600Z 09006KT 9999 FEW020 BKN280 29/23 2989=
201304301700 METAR MRLM 301700Z 08008KT 9999 FEW020 BKN280 30/23 A2988=
201304301800 METAR MRLM 301800Z 07008KT 9999 FEW025 BKN280 30/23 A2987=
201304301900 METAR MRLM 301900Z 07006KT 9999 FEW025 SCT090 SCT280 30/22 A2984=
201304302000 METAR MRLM 302000Z 07007KT 9999 FEW025 SCT080 SCT280 30/22 A2982=
201304302100 METAR MRLM 302100Z 09005KT 9999 FEW025 SCT120 SCT280 30/22 A2981=
201304302200 METAR MRLM 302200Z 07004KT 9999 FEW025 BKN080 29/22 A2981=
201304302300 METAR MRLM 302300Z 11003KT CAVOK 28/22 A2982=
201304302356 METAR MRLM 010000Z 23003KT CAVOK 28/22 A2983=
201305010000 METAR MRLM 010000Z 23003KT CAVOK 28/22 A2983=
201305010100 METAR MRLM NIL=
201305010200 METAR MRLM NIL=
201305010300 METAR MRLM NIL=
201305010400 METAR MRLM NIL=
201305010500 METAR MRLM NIL=
201305010600 METAR MRLM NIL=
201305010700 METAR MRLM NIL=
201305010800 METAR MRLM NIL=
201305010900 METAR MRLM NIL=
201305011000 METAR MRLM NIL=
201305011100 METAR MRLM NIL=
201305011200 METAR MRLM 011200Z 25004KT 9999 FEW010 BKN120 23/21 A2987=
201305011300 METAR MRLM 011300Z 23004KT 9999 FEW020 25/21 A2988=
201305011400 METAR MRLM 011400Z 21003KT 9999 FEW040 29/21 A2989=
201305011500 METAR MRLM 011500Z 12005KT 9999 FEW040 SCT260 30/22 A2990=
201305011600 METAR MRLM 011600Z 10004KT 9999 FEW040 BKN140 30/21 A2990=
201305011700 METAR MRLM 011700Z 08004KT 9999 FEW040 BKN140 30/22 A2990=
201305011800 METAR MRLM 011800Z 10005KT 9999 FEW040 BKN260 31/22 A2988=
201305011900 METAR MRLM 011900Z 10006KT 9999 FEW040 BKN260 30/23 A2985=
201305012000 METAR MRLM 012000Z 09007KT CAVOK 31/22 A2983=
201305012100 METAR MRLM 012100Z 12008KT CAVOK 30/23 A2982=
201305012200 METAR MRLM 012200Z 11007KT CAVOK 30/23 A2981=
201305012300 METAR MRLM 012300Z 13006KT 9999 FEW030 BKN250 29/23 A2983=
201305020000 METAR MRLM 020000Z 13004KT CAVOK 28/23 A2984=
201305020100 METAR MRLM NIL=
201305020200 METAR MRLM NIL=
201305020300 METAR MRLM NIL=
201305020400 METAR MRLM NIL=
201305020500 METAR MRLM NIL=
201305020600 METAR MRLM NIL=
201305020700 METAR MRLM NIL=
201305020800 METAR MRLM NIL=
201305020900 METAR MRLM NIL=
201305021000 METAR MRLM NIL=
201305021100 METAR MRLM NIL=
201305021200 METAR MRLM 021200Z 00000KT CAVOK 25/23 A2986=
201305021300 METAR MRLM 021300Z 27002KT CAVOK 26/23 A2988=
201305021400 METAR MRLM 021400Z 18002KT CAVOK 30/23 A2989=
201305021500 METAR MRLM 021500Z 14007KT CAVOK 30/23 A2988=
201305021600 METAR MRLM 021600Z 12007KT 9999 FEW035 OVC260 30/23 A2988=
201305021700 METAR MRLM 021700Z 10005KT 9999 FEW040 OVC260 31/22 A2988=
201305021800 METAR MRLM 021800Z 11006KT 9999 FEW040 OVC260 31/23 A2987=
201305021900 METAR MRLM 021900Z 08005KT 9999 FEW040 SCT150 SCT260 31/23 A2985=
201305022000 METAR MRLM 022000Z 08007KT 9999 FEW030 SCT140 SCT250 30/24 A2983=
201305022100 METAR MRLM 022100Z 08003KT 9999 FEW025 BKN130 29/24 A2983=
201305022200 METAR MRLM 022200Z 13004KT 9999 FEW020 BKN130 29/24 A2982=
201305022300 METAR MRLM 022300Z 16003KT 9999 FEW020 BKN120 29/24 A2982=
201305030000 METAR MRLM 030000Z 17003KT 9999 FEW020 SCT120 SCT250 28/24 A2982=
201305030100 METAR MRLM NIL=
201305030200 METAR MRLM NIL=
201305030300 METAR MRLM NIL=
201305030400 METAR MRLM NIL=
201305030500 METAR MRLM NIL=
201305030600 METAR MRLM NIL=
201305030700 METAR MRLM NIL=
201305030800 METAR MRLM NIL=
201305030900 METAR MRLM NIL=
201305031000 METAR MRLM NIL=
201305031100 METAR MRLM NIL=
201305031200 METAR MRLM 031200Z 26004KT 9999 SCT035 SCT080 25/23 A2987=
201305031258 METAR MRLM 051300Z 27004KT CAVOK 26/23 A2988=
201305031300 METAR MRLM NIL=
201305031400 METAR MRLM 031400Z 28002KT 9999 FEW035 SCT070 SCT280 29/24 A2989=
201305031500 METAR MRLM 031500Z 25003KT CAVOK 30/24 A2990=
201305031600 METAR MRLM 031600Z 04006KT CAVOK 30/24 A2990=
201305031700 METAR MRLM 031700Z 07004KT CAVOK 30/23 A2988=
201305031800 METAR MRLM 031800Z 10006KT CAVOK 30/24 A2983=
201305031900 METAR MRLM 031900Z 10006KT 9999 FEW035 BKN260 31/24 A2981=
201305032000 METAR MRLM 032000Z 11007KT 9999 FEW035 BKN260 31/24 A2978=
201305032100 METAR MRLM 032100Z 06006KT 9999 FEW 032TCU BKN260 31/24 A2978=
201305032200 METAR MRLM 032200Z 08005KT CAVOK 30/24 A2977=
201305032300 METAR MRLM 032300Z 00000KT CAVOK 30/24 A2980=
201305032358 METAR MRLM 040000Z 00000KT CAVOK 28/24 A2983=
201305040000 METAR MRLM 040000Z 00000KT CAVOK 28/24 A2983=
201305040100 METAR MRLM NIL=
201305040200 METAR MRLM NIL=
201305040300 METAR MRLM NIL=
201305040400 METAR MRLM NIL=
201305040500 METAR MRLM NIL=
201305040600 METAR MRLM NIL=
201305040700 METAR MRLM NIL=
201305040800 METAR MRLM NIL=
201305040900 METAR MRLM NIL=
201305041000 METAR MRLM NIL=
201305041100 METAR MRLM NIL=
201305041200 METAR MRLM 041200Z 29005 9999 TSRA FEWCB010 BKN015 SCT030 25/22 A2989=
201305041300 METAR MRLM 041300Z 31004KT 9999 BKN015 SCT070 25/22 A2991 RETS=
201305041400 METAR MRLM 041400Z 31006KT 9999 SCT015 SCT090 28/23 A2994=
201305041500 METAR MRLM 041500Z 30005 9999 FEW025 BKN040 28/23 A2994=
201305041600 METAR MRLM 041600Z 29007KT CAVOK 28/22 A2993=
201305041700 METAR MRLM 041700Z 29004KT CAVOK 28/23 A2993=
201305041800 METAR MRLM 041800Z 29006KT CAVOK 29/22 A2991=
201305041900 METAR MRLM 041900Z 29004KT CAVOK 29/22 A2989=
201305042000 METAR MRLM 042000Z 27004KT CAVOK 30/22 A2987=
201305042100 METAR MRLM 042100Z 10007KT CAVOK 31/21 A2985=
201305042200 METAR MRLM 042200Z 31007KT CAVOK 29/21 A2985=
201305042300 METAR MRLM 042300Z 30003KT CAVOK 29/20 A2987=
201305042356 METAR MRLM 050000Z 04013KT 9999 FEW015 BKN025 28/21 A2989=
201305050000 METAR MRLM 050000Z 04013KT 9999 FEW015 BKN025 28/21 A2989=
201305050100 METAR MRLM NIL=
201305050200 METAR MRLM NIL=
201305050300 METAR MRLM NIL=
201305050400 METAR MRLM NIL=
201305050500 METAR MRLM NIL=
201305050600 METAR MRLM NIL=
201305050700 METAR MRLM NIL=
201305050800 METAR MRLM NIL=
201305050900 METAR MRLM NIL=
201305051000 METAR MRLM NIL=
201305051100 METAR MRLM NIL=
201305051200 METAR MRLM 051200Z 24005KT CAVOK 23/22 A2995=
201305051300 METAR MRLM 051300Z 24005KT CAVOK 25/22 A2996=
201305051400 METAR MRLM 051400Z 23004KT CAVOK 28/21 A2997=
201305051500 METAR MRLM 051500Z 11003KT 9999 FEW040 OVC270 30/21 A2998=
201305051600 METAR MRLM 051600Z 11004KT 9999 FEW040 BKN270 31/// 2997=
201305051700 METAR MRLM 051700Z 08004KT 9999 FEW040 SCT150 SCT260 31/// A2996=
201305051800 METAR MRLM 051800Z 13012KT 9999 FEW035 BKN140 30/// A2995=
201305051900 METAR MRLM 051900Z 03007KT 9999 FEW035 BKN140 30/// A2992=
201305052000 METAR MRLM 052000Z 07004KT 9999 FEW035 BKN140 30/23 A2991=
201305052100 METAR MRLM 052100Z 08004KT 9999 FEW035 BKN130 30/23 A2989=
201305052200 METAR MRLM 052200Z 09003KT 9999 FEW035 SCT130 SCT250 29/22 A2989=
201305052300 METAR MRLM 052300Z 09003KT 9999 FEW030 BKN240 29/23 A2991=
201305060000 METAR MRLM 060000Z 10004KT 9999 FEW020 BKN240 28/24 A2992=
201305060100 METAR MRLM NIL=
201305060200 METAR MRLM NIL=
201305060300 METAR MRLM NIL=
201305060400 METAR MRLM NIL=
201305060500 METAR MRLM NIL=
201305060600 METAR MRLM NIL=
201305060700 METAR MRLM NIL=
201305060800 METAR MRLM NIL=
201305060900 METAR MRLM NIL=
201305061000 METAR MRLM NIL=
201305061100 METAR MRLM NIL=
201305061200 METAR MRLM 061200Z 26004KT 9999 FEW010 SCT250 23/21 A2998=
201305061300 METAR MRLM 061300Z 24004KT 9999 FEW020 26/22 A3000=
201305061400 METAR MRLM 061400Z 13002KT 9999 FEW030 30/23 A3001=
201305061500 METAR MRLM 061500Z 07003KT 9999 FEW030 30/23 A3000=
201305061600 METAR MRLM 061600Z 07006KT 9999 FEW030 29/23 A3000=
201305061700 METAR MRLM 061700Z 06007KT 9999 SCT030 30/24 A2999=
201305061800 METAR MRLM 061800Z 07007KT 9999 FEW030 30/23 A2998=
201305061900 METAR MRLM 061900Z 07006KT 9999 FEW035 30/23 A2994=
201305062000 METAR MRLM 062000Z 06006KT 9999 FEW035 30/23 A2992=
201305062100 METAR MRLM 062100Z 05007KT 9999 SCT030 29/23 A2991=
201305062200 METAR MRLM 062200Z 08004KT 9999 BKN030 29/22 A2990=
201305062300 METAR MRLM 062300Z 10005KT 9999 BKN030 29/22 A2992=
201305070000 METAR MRLM 070000Z 09004KT 9999 SCT025 28/22 A2993=
201305070100 METAR MRLM NIL=
201305070200 METAR MRLM NIL=
201305070300 METAR MRLM NIL=
201305070400 METAR MRLM NIL=
201305070500 METAR MRLM NIL=
201305070600 METAR MRLM NIL=
201305070700 METAR MRLM NIL=
201305070800 METAR MRLM NIL=
201305070900 METAR MRLM NIL=
201305071000 METAR MRLM NIL=
201305071100 METAR MRLM NIL=
201305071200 METAR MRLM 071200Z 25004KT CAVOK 22/19 A2998=
201305071300 METAR MRLM 071300Z 25004KT CAVOK 25/21 A3000=
201305071400 METAR MRLM 071400Z 24004KT CAVOK 28/22 A3001=
201305071500 METAR MRLM 071500Z 11004KT CAVOK 29/22 A3002=
201305071600 METAR MRLM 071600Z 10006KT CAVOK 29/22 A3001=
201305071700 METAR MRLM 071700Z 10007KT CAVOK 30/22 A3000=
201305071800 METAR MRLM NIL=
201305071900 METAR MRLM 071900Z ///08KT CAVOK 30/22 A2995=
201305072000 METAR MRLM 072000Z ///08KT CAVOK 29/22 A2994=
201305072100 METAR MRLM 072100Z ///06KT 9999 SCT020 SCT300 29/22 A2993=
201305072200 METAR MRLM 072200Z ///04KT 9999 BKN020 29/22 A2992=
201305072300 METAR MRLM 072300Z ///05KT 9999 FEW020 SCT070 29/22 A2992=
201305072358 METAR MRLM 080000Z ///06KT 9999 FEW020 SCT070 28/21 A2994=
201305080000 METAR MRLM 080000Z ///06KT 9999 FEW020 SCT070 28/21 A2994=
201305080100 METAR MRLM NIL=
201305080200 METAR MRLM NIL=
201305080300 METAR MRLM NIL=
201305080400 METAR MRLM NIL=
201305080500 METAR MRLM NIL=
201305080600 METAR MRLM NIL=
201305080700 METAR MRLM NIL=
201305080800 METAR MRLM NIL=
201305080900 METAR MRLM NIL=
201305081000 METAR MRLM NIL=
201305081100 METAR MRLM NIL=
201305081200 METAR MRLM 081200Z ///05KT 9999 FEW015 SCT280 23/21 A2999=
201305081300 METAR MRLM 081300Z ///05KT CAVOK 25/21 A3001=
201305081400 METAR MRLM 081400Z ///04KT CAVOK 28/21 A3001=
201305081500 METAR MRLM 081500Z ///00KT CAVOK 29/20 A3002=
201305081600 METAR MRLM 081600Z ///04KT CAVOK 29/22 A3001=
201305081700 METAR MRLM 081700Z ///07KT CAVOK 30/22 A3001=
201305081800 METAR MRLM 081800Z 05008KT CAVOK 30/21 A2998=
201305081900 METAR MRLM 081900Z 02011KT 9999 FEW040 BKN280 31/21 A2996=
201305082000 METAR MRLM 082000Z 03011KT 9999 FEW045 SCT090 SCT280 30/21 A2994=
201305082100 METAR MRLM 082100Z 03008KT CAVOK 30/22 A2993=
201305082200 METAR MRLM 082200Z 03007KT 9999 FEW020 BKN280 29/22 A2993=
201305082300 METAR MRLM 082300Z 03006KT 9999 SCT020 SCT280 29/22 A2994=
201305082355 METAR MRLM 090000Z 03005KT CAVOK 28/22 A2995=
201305090000 METAR MRLM 090000Z 03005KT CAVOK 28/22 A2995=
201305090100 METAR MRLM NIL=
201305090200 METAR MRLM NIL=
201305090300 METAR MRLM NIL=
201305090400 METAR MRLM NIL=
201305090500 METAR MRLM NIL=
201305090600 METAR MRLM NIL=
201305090700 METAR MRLM NIL=
201305090800 METAR MRLM NIL=
201305090900 METAR MRLM NIL=
201305091000 METAR MRLM NIL=
201305091100 METAR MRLM NIL=
201305091200 METAR MRLM 091200Z 26003KT CAVOK 24/21 A2994=
201305091300 METAR MRLM 091300Z 25003KT CAVOK 26/21 A2995=
201305091400 METAR MRLM 091400Z 31004KT CAVOK 30/20 A2997=
201305091500 METAR MRLM 091500Z 34006KT 9999 FEW045 31/21 A2997=
201305091600 METAR MRLM 091600Z 02009KT 9999 FEW040 31/22 A2997=
201305091700 METAR MRLM 091700Z 03009KT 9999 FEW040 SCT140 31/23 A2997=
201305091800 METAR MRLM 091800Z 03011KT 9999 FEW035 SCT140 31/24 A2997=
201305091900 METAR MRLM 091900Z 02010KT 9999 FEW035 BKN140 31/24 A2995=
201305092000 METAR MRLM 092000Z 02009KT 9999 FEW030 BKN130 30/24 A2993=
201305092100 METAR MRLM 092100Z 02008KT 9999 FEW030 BKN130 30/22 A2991=
201305092200 METAR MRLM 092200Z 02006KT 9999 FEW030 BKN130 30/22 A2991=
201305092300 METAR MRLM 092300Z 02008KT 9999 FEW030 BKN120 29/23 A2993=
201305100000 METAR MRLM 100000Z 31003KT 9999 FEW025 BKN120 28/23 A2994=
201305100100 METAR MRLM NIL=
201305100200 METAR MRLM NIL=
201305100300 METAR MRLM NIL=
201305100400 METAR MRLM NIL=
201305100500 METAR MRLM NIL=
201305100600 METAR MRLM NIL=
201305100700 METAR MRLM NIL=
201305100800 METAR MRLM NIL=
201305100900 METAR MRLM NIL=
201305101000 METAR MRLM NIL=
201305101100 METAR MRLM NIL=
201305101200 METAR MRLM 101200Z 25002KT 9999 BKN010 24/23 A2992=
201305101300 METAR MRLM 101300Z 28002KT 9999 BKN015 26/23 A2994=
201305101400 METAR MRLM 101400Z 23002KT 9999 -DZ BKN010 26/23 A2996=
201305101500 METAR MRLM 101500Z 26005KT 9999 SCT020 SCT120 29/24 A2996=
201305101600 METAR MRLM 101600Z 28003KT 9999 SCT030 SCT120 29/24 A2996=
201305101700 METAR MRLM 101700Z 33005KT 9999 SCT025 BKN110 29/24 A2994=
201305101800 METAR MRLM 101800Z 01008KT 9999 -DZ VCSH BKN020 28/24 A2994=
201305101900 METAR MRLM 101900Z 35006KT 9999 FEW010 SCT020 SCT110 27/24 A2992=
201305102000 METAR MRLM 102000Z 32003KT 9999 DZ BKN015 SCT100 26/24 A2988=
201305102100 METAR MRLM 102100Z 32004KT 9999 DZ FEW007 SCT015 SCT100 25/24 A2985=
201305102200 METAR MRLM 102200Z 39004KT 9999 SCT015 BKN110 25/24 A2983 REDZ=
201305102300 METAR MRLM 102300Z 30005KT CAVOK 25/23 A2985=
201305110000 METAR MRLM 110000Z 32004KT CAVOK 25/23 A2986=
201305110100 METAR MRLM NIL=
201305110200 METAR MRLM NIL=
201305110300 METAR MRLM NIL=
201305110400 METAR MRLM NIL=
201305110500 METAR MRLM NIL=
201305110600 METAR MRLM NIL=
201305110700 METAR MRLM NIL=
201305110800 METAR MRLM NIL=
201305110900 METAR MRLM NIL=
201305111000 METAR MRLM NIL=
201305111100 METAR MRLM NIL=
201305111200 METAR MRLM 111200Z 26004KT 9999 FEW015 SCT100 SCT230 24/22 A2990=
201305111300 METAR MRLM 111300Z 29003KT 9999 FEW015 SCT090 SCT270 26/23 A2991=
201305111400 METAR MRLM NIL=
201305111500 METAR MRLM 111500Z 33005KT CAVOK 28/24 A2993=
201305111600 METAR MRLM 111600Z 32004KT 9999 FEW020 BKN030 28/24 A2993=
201305111700 METAR MRLM 111700Z 06003KT 9999 FEW020 SCT110 29/25 A2991=
201305111800 METAR MRLM 111800Z 05008KT 9999 SCT020 SCT090 29/25 A2989=
201305111900 METAR MRLM 111900Z 04012KT 9999 FEW020 BKN030 28/24 A2986=
201305112000 METAR MRLM 112000Z 03008KT 9999 FEW015 BKN090 28/25 A2983=
201305112100 METAR MRLM 112100Z 06003KT 9999 FEW020 BKN090 29/24 A2982=
201305112200 METAR MRLM 112200Z 05005KT 9999 FEW023 BKN090 29/24 A2982=
201305112300 METAR MRLM 112300Z 09002KT CAVOK 28/24 A2983=
201305112357 METAR MRLM 120000Z 00000KT CAVOK 27/25 A2984=
201305120000 METAR MRLM 120000Z 00000KT CAVOK 27/25 A2984=
201305120100 METAR MRLM NIL=
201305120200 METAR MRLM NIL=
201305120300 METAR MRLM NIL=
201305120400 METAR MRLM NIL=
201305120500 METAR MRLM NIL=
201305120600 METAR MRLM NIL=
201305120700 METAR MRLM NIL=
201305120800 METAR MRLM NIL=
201305120900 METAR MRLM NIL=
201305121000 METAR MRLM NIL=
201305121100 METAR MRLM NIL=
201305121200 METAR MRLM 121200Z 35002KT 4000 TSRA SCT006 SCTCB010 24/23 A2996=
201305121300 METAR MRLM 121300Z 09012KT 1000 500S +RASH SCT004 SCTTCU015 25/24 A2989 RETS=
201305121400 METAR MRLM 121400Z 10002KT 4000 RA SCT002 SCT008 23/22 A29930=
201305121500 METAR MRLM 121500Z 23004KT 9999 DZ VCSH FEW003 BKN080 24/23 A2993 RERA0=
201305121600 METAR MRLM 121600Z 23002KT 4000 RA SCT003 SCT010 24/23 A2995 RERA=
201305121700 METAR MRLM 121700Z 26006KT 9999 FEW005 BKN090 25/24 A2993 RERA=
201305121800 METAR MRLM 121800Z 24008KT CAVOK 27/24 A2990=
201305121859 METAR MRLM 12900Z 26004KT 9999 FEW015 BKN110 30/23 A2986=
201305121900 METAR MRLM 12900Z 26004KT 9999 FEW015 BKN110 30/23 A2986=
201305122000 METAR MRLM 122000Z 05003KT 9999 DZ FEW020 SCT070 SCT110 30/23 A2984=
201305122100 METAR MRLM 122100Z 05005KT 9999 FEW020 BKN070 30/23 A2982 REDZ=
201305122200 METAR MRLM 122200Z 04006KT 9999 FEW020 BKN070 29723 A29810=
201305122300 METAR MRLM 122300Z 03012KT 9999 BKN015 28/25 A2982=
201305122353 METAR MRLM 130000Z 34005KT 9999 FEW015 SCT035 SCT080 27/23 A2985=
201305130000 METAR MRLM 130000Z 34005KT 9999 FEW015 SCT035 SCT080 27/23 A2985=
201305130100 METAR MRLM NIL=
201305130200 METAR MRLM NIL=
201305130300 METAR MRLM NIL=
201305130400 METAR MRLM NIL=
201305130500 METAR MRLM NIL=
201305130600 METAR MRLM NIL=
201305130700 METAR MRLM NIL=
201305130800 METAR MRLM NIL=
201305130900 METAR MRLM NIL=
201305131000 METAR MRLM NIL=
201305131100 METAR MRLM NIL=
201305131200 METAR MRLM NIL=
201305131300 METAR MRLM 131300Z 28003KT 9999 VCSH BKN015 26/24 A2991=
201305131400 METAR MRLM 131400Z 09013KT 4000 RA BKN015 SCT090 24/23 A2993=
201305131500 METAR MRLM 131500Z 25003KT 9999 OVC018 26/23 A2994 RERA=
201305131600 METAR MRLM 131600Z 20005KT 8000 RA FEW003 OVC015 24/23 A2996=
201305131700 METAR MRLM 131700Z 23004KT 8000 DZ VCSH SCT004 SCT015 25/24 A2996 RERA=
201305131800 METAR MRLM 131800Z 28006KT 9999 OVC012 27/24 A2994 REDZ0=
201305131900 METAR MRLM 131900Z 33007KT 4000 RA FEW006 BKN012 24/23 A2993=
201305132000 METAR MRLM 132000Z 29006KT 9999 FEW006 BKN020 26/23 A2990 RERA=
201305132100 METAR MRLM 132100Z 27003KT 9999 DZ VCSH BKN015 26/24 A2988=
201305132200 METAR MRLM NIL=
201305132300 METAR MRLM NIL=
201305140000 METAR MRLM NIL=
201305140100 METAR MRLM NIL=
201305140200 METAR MRLM NIL=
201305140300 METAR MRLM NIL=
201305140400 METAR MRLM NIL=
201305140500 METAR MRLM NIL=
201305140600 METAR MRLM NIL=
201305140700 METAR MRLM NIL=
201305140800 METAR MRLM NIL=
201305140900 METAR MRLM NIL=
201305141000 METAR MRLM NIL=
201305141100 METAR MRLM NIL=
201305141200 METAR MRLM NIL=
201305141300 METAR MRLM 141300Z 27006KT 8000 +DZ VCSH FEW005 BKN012 24/22 2994=
201305141400 METAR MRLM 141400Z 22007KT 8000 +DZ VCSH BKN012 23/22 A2998 RERA=
201305141500 METAR MRLM 141500Z 26005KT 9999 BKN015 26/23 A2999 REDZ=
201305141600 METAR MRLM 141600Z 36002KT 9999 +DZ VCSH BKN015 27/23 A2999=
201305141700 METAR MRLM 141700Z 01005KT 9999 DZ VCSH BKN015 26/23 A2997 REDZ=
201305141800 METAR MRLM 141800Z 30004KT 9999 FEW008 BKN015 25/23 A2996 REDZ=
201305141900 METAR MRLM 141900Z 25005KT 9999 BKN020 28/24 A2993=
201305142000 METAR MRLM 142000Z 26003KT 9999 BKN025 29/24 A2991=
201305142100 METAR MRLM 142100Z 03003KT 9999 BKN025 29/23 A2990=
201305142200 METAR MRLM NIL=
201305142300 METAR MRLM NIL=
201305150000 METAR MRLM NIL=
201305150100 METAR MRLM NIL=
201305150200 METAR MRLM NIL=
201305150300 METAR MRLM NIL=
201305150400 METAR MRLM NIL=
201305150500 METAR MRLM NIL=
201305150600 METAR MRLM NIL=
201305150700 METAR MRLM NIL=
201305150800 METAR MRLM NIL=
201305150900 METAR MRLM NIL=
201305151000 METAR MRLM NIL=
201305151100 METAR MRLM NIL=
201305151200 METAR MRLM NIL=
201305151300 METAR MRLM 151300Z 24004KT CAVOK 25/22 A2997=
201305151400 METAR MRLM 151400Z 25004KT CAVOK 28/22 A2996=
201305151500 METAR MRLM 151500Z 32002KT CAVOK 31/21 A2995=
201305151600 METAR MRLM 151600Z 02008KT 9999 FEW035 BKN090 30/23 A2995=
201305151700 METAR MRLM 151700Z 03019KT 9999 DZ VCSH FEW020 BKN090 27/23 A2997=
201305151800 METAR MRLM 151800Z 04016KT 5000 RA FEW012 BKN090 25/22 A2998 REDZ=
201305151900 METAR MRLM 151900Z 28005KT 7000 +DZ VCSH FEW010 OVC090 25/23 A2995 RERA=
201305152000 METAR MRLM 152000Z 27007KT CAVOK 26/23 A2992 REDZ=
201305152100 METAR MRLM 152100Z 28005KT CAVOK 28/22 A2990=
201305152200 METAR MRLM NIL=
201305152300 METAR MRLM NIL=
201305160000 METAR MRLM NIL=
201305160100 METAR MRLM NIL=
201305160200 METAR MRLM NIL=
201305160300 METAR MRLM NIL=
201305160400 METAR MRLM NIL=
201305160500 METAR MRLM NIL=
201305160600 METAR MRLM NIL=
201305160700 METAR MRLM NIL=
201305160800 METAR MRLM NIL=
201305160900 METAR MRLM NIL=
201305161000 METAR MRLM NIL=
201305161100 METAR MRLM NIL=
201305161200 METAR MRLM NIL=
201305161300 METAR MRLM 161300Z 22004KT 9999 FEW020 SCT030 SCT090 24/21 A2993=
201305161400 METAR MRLM 161400Z 00000KT 9999 SCT015 SCT035 25/21 A2995=
201305161500 METAR MRLM 161500Z 23003KT 8000 +DZ VCSH BKN015 SCT090 25/23 A2995=
201305161600 METAR MRLM 161600Z 23003KT 9999 DZ VCSH FEW012 BKN100 26/23 A2995=
201305161700 METAR MRLM 25004KT 9999 FEW025 BKN080 27/23 A2995 REDZ=
201305161702 METAR MRLM 161702Z 25004KT 9999 FEW025 BKN080 27/23 A2995 REDZ=
201305161800 METAR MRLM 161800Z 27004KT CAVOK 29/22 A2993=
201305161900 METAR MRLM 161900Z 07005KT 9999 FEW035 BKN080 30/23 A2990=
201305162000 METAR MRLM 162000Z 13007KT 9999 FEW025 BKN080 29/24 2989=
201305162100 METAR MRLM 162100Z 10005KT 9999 FEW025 BKN070 29/24 A2988=
201305162200 METAR MRLM NIL=
201305162300 METAR MRLM NIL=
201305170000 METAR MRLM NIL=
201305170100 METAR MRLM NIL=
201305170200 METAR MRLM NIL=
201305170300 METAR MRLM NIL=
201305170400 METAR MRLM NIL=
201305170500 METAR MRLM NIL=
201305170600 METAR MRLM NIL=
201305170700 METAR MRLM NIL=
201305170800 METAR MRLM NIL=
201305170900 METAR MRLM NIL=
201305171000 METAR MRLM NIL=
201305171100 METAR MRLM NIL=
201305171200 METAR MRLM NIL=
201305171300 METAR MRLM 171300Z 25002KT 9999 DZ VCSH FEW008 SCT015 SCT030 24/22 A2994=
201305171400 METAR MRLM 171400Z 08008KT 9999 SCT008 SCT015 26/23 A2995=
201305171500 METAR MRLM 04008KT 9999 DZ VCSH FEW008 BKN030 25/23 A2997=
201305171504 METAR MRLM 171504Z 04008KT 9999 DZ VCSH FEW008 BKN030 25/23 A2997=
201305171600 METAR MRLM 171600Z 04003KT 9999 DZ VCSH FEW008 OVC030 26/24 A2997=
201305171700 METAR MRLM 171700Z 09003KT 5000 +DZ VCSH SCT008 BKN015 24/22 A2999 RERA=
201305171800 METAR MRLM 171800Z 23003KT 8000 RA FEW007 BKN035 24/23 A2997 REDZ=
201305171900 METAR MRLM 171900Z 24006KT 5000 RA SCT005 SCT012 23/22 A2995=
201305172000 METAR MRLM 172000Z 24005KT 9999 +DZ BKN012 24/23 A29992 RERA=
201305172100 METAR MRLM 172100Z 26004KT 9999 SCT035 SCT090 25/23 A2990 REDZ0=
201305172200 METAR MRLM NIL=
201305172300 METAR MRLM NIL=
201305180000 METAR MRLM NIL=
201305180100 METAR MRLM NIL=
201305180200 METAR MRLM NIL=
201305180300 METAR MRLM NIL=
201305180400 METAR MRLM NIL=
201305180500 METAR MRLM NIL=
201305180600 METAR MRLM NIL=
201305180700 METAR MRLM NIL=
201305180800 METAR MRLM NIL=
201305180900 METAR MRLM NIL=
201305181000 METAR MRLM NIL=
201305181100 METAR MRLM NIL=
201305181200 METAR MRLM NIL=
201305181300 METAR MRLM 181300Z 00000KT 7000 DZ VCSH BKN020 24/22 A2992=
201305181400 METAR MRLM 181400Z 24002KT 5000 +DZ VCSH BKN015 25/23 A2995=
201305181500 METAR MRLM 29004KT 9999 DZ VCSH FEW015 SCT080 SCT090 24/23 A2995=
201305181506 METAR MRLM 181506Z 29004KT 9999 DZ VCSH FEW015 SCT080 SCT090 24/23 A2995=
201305181600 METAR MRLM 181600Z 25004KT 9999 FEW015 SCT030 SCT080 25/23 A2995 REDZ=
201305181700 METAR MRLM 181700Z 32003KT 9999 SCT035 SCT080 27/23 A2994=
201305181800 METAR MRLM 181800Z 32004KT 9999 FEW025 BKN080 29/23 A2991=
201305181900 METAR MRLM 181900Z 08004KT 9999 FEW025 BKN070 28/24 A2989=
201305182000 METAR MRLM 182000Z 12004KT 9999 FEW025 BKN070 28/23 A2987=
201305182100 METAR MRLM 182100Z 09003KT 9999 FEW030 SCT070 SCT090 29/23 A2985=
201305182200 METAR MRLM NIL=
201305182300 METAR MRLM NIL=
201305190000 METAR MRLM NIL=
201305190100 METAR MRLM NIL=
201305190200 METAR MRLM NIL=
201305190300 METAR MRLM NIL=
201305190400 METAR MRLM NIL=
201305190500 METAR MRLM NIL=
201305190600 METAR MRLM NIL=
201305190700 METAR MRLM NIL=
201305190800 METAR MRLM NIL=
201305190900 METAR MRLM NIL=
201305191000 METAR MRLM NIL=
201305191100 METAR MRLM NIL=
201305191200 METAR MRLM NIL=
201305191300 METAR MRLM 191300Z 23004KT 8000 +DZ VCSH FEW005 BKN015 24/23 A2992=
201305191400 METAR MRLM 191400Z 25005KT 9999 FEW015 BKN080 27/24 A2993 REDZ=
201305191500 METAR MRLM 191500Z 00000KT 9999 FEW022 BKN070 29/25 A2993=
201305191600 METAR MRLM 191600Z 08003KT 9999 SCT025 BKN280 30/25 A2991=
201305191700 METAR MRLM 191700Z 09004KT 9999 FEW025 BKN280 30/25 A2990=
201305191758 METAR MRLM 191758Z 07004KT 9999 FEW025 BKN280 30/25 A2988=
201305191800 METAR MRLM 07004KT 9999 FEW025 BKN280 30/25 A2988=
201305191900 METAR MRLM 191900Z 08005KT 9999 FEW025 BKN280 30/25 A2986=
201305192000 METAR MRLM 192000Z 05006KT 9999 BKN025 SCT280 30/25 A2983=
201305192100 METAR MRLM 192100Z 07007KT 9999 BKN025 30/25 A2982=
201305192200 METAR MRLM NIL=
201305192300 METAR MRLM NIL=
201305200000 METAR MRLM NIL=
201305200100 METAR MRLM NIL=
201305200200 METAR MRLM NIL=
201305200300 METAR MRLM NIL=
201305200400 METAR MRLM NIL=
201305200500 METAR MRLM NIL=
201305200600 METAR MRLM NIL=
201305200700 METAR MRLM NIL=
201305200800 METAR MRLM NIL=
201305200900 METAR MRLM NIL=
201305201000 METAR MRLM NIL=
201305201100 METAR MRLM NIL=
201305201200 METAR MRLM NIL=
201305201300 METAR MRLM 201300Z 23003KT 9999 DZ OVC015 25/24 A2991=
201305201400 METAR MRLM 201400Z 26004KT 9999 BKN015 27/24 A2992 REDZ=
201305201500 METAR MRLM 201500Z 26005KT 9999 BKN015 28/25 A2992=
201305201600 METAR MRLM 201600Z 27003KT 4000 RA OVC015 27/24 A2993=
201305201700 METAR MRLM 201700Z 25005KT 9999 BKN015 SCT090 27/25 A2991 RERA=
201305201800 METAR MRLM 201800Z 01003KT 9999 SCT035 SCT090 30/24 A2988=
201305201900 METAR MRLM 201900Z 01008KT 9999 FEW025 SCT100 28/24 A2986=
201305202000 METAR MRLM 202000Z 03007KT 9999 FEW025 BKN090 29/24 A2984=
201305202100 METAR MRLM 202100Z 04004KT 9999 FEW030 BKN080 29/23 A2982=
201305202200 METAR MRLM NIL=
201305202300 METAR MRLM NIL=
201305210000 METAR MRLM NIL=
201305210100 METAR MRLM NIL=
201305210200 METAR MRLM NIL=
201305210300 METAR MRLM NIL=
201305210400 METAR MRLM NIL=
201305210500 METAR MRLM NIL=
201305210600 METAR MRLM NIL=
201305210700 METAR MRLM NIL=
201305210800 METAR MRLM NIL=
201305210900 METAR MRLM NIL=
201305211000 METAR MRLM NIL=
201305211100 METAR MRLM NIL=
201305211200 METAR MRLM 211200Z 25004KT 9999 FEW010 SCT100 24/22 A2983=
201305211300 METAR MRLM 211300Z 35003KT 9999 SCT010 SCT110 25/23 A2986=
201305211400 METAR MRLM 211400Z 22002KT 9999 DZ SCT015 BKN110 26/24 A2988=
201305211500 METAR MRLM 211500Z 24006KT 9999 FEW020 SCT120 SCT250 28/24 A2987=
201305211600 METAR MRLM 211600Z 29003KT 9999 FEW030 SCT130 SCT260 31/24 A2987=
201305211700 METAR MRLM 211700Z 05007KT 9999 FEW020 SCT250 29/24 A2984=
201305211800 METAR MRLM 211800Z 04008KT 9999 FEW025 BKN250 30/24 A2981=
201305211900 METAR MRLM 211900Z 04006KT 9999 FEW030 SCT140 SCT260 31/24 A2979=
201305212000 METAR MRLM 212000Z 05007KT 9999 FEW030 SCT140 SCT260 30/25 A2977=
201305212100 METAR MRLM 212100Z 04008KT 9999 FEW030 30/25 A2975=
201305212200 METAR MRLM 212200Z 03007KT 9999 FEW020 SCT140 30/25 A2976=
201305212300 METAR MRLM 212300Z 01006KT 9999 SCT020 SCT250 29/25 A2978=
201305220000 METAR MRLM 220000Z 30002KT 9999 SCT015 SCT250 28/24 A2982=
201305220100 METAR MRLM NIL=
201305220200 METAR MRLM NIL=
201305220300 METAR MRLM NIL=
201305220400 METAR MRLM NIL=
201305220500 METAR MRLM NIL=
201305220600 METAR MRLM NIL=
201305220700 METAR MRLM NIL=
201305220800 METAR MRLM NIL=
201305220900 METAR MRLM NIL=
201305221000 METAR MRLM NIL=
201305221100 METAR MRLM NIL=
201305221200 METAR MRLM 221200Z 26004KT CAVOK 24/23 A2983=
201305221300 METAR MRLM 221300Z 25002KT 9999 FEW015 BKN120 25/24 A2984=
201305221400 METAR MRLM 221400Z 00000KT 9999 FEW015 BKN120 27/24 A2985=
201305221500 METAR MRLM 221500Z 29003KT 9999 FEW020 BKN130 29/25 A2986=
201305221600 METAR MRLM 221600Z 36003KT 9999 FEW030 BKN140 31/24 A2986=
201305221700 METAR MRLM 221700Z 03010KT 9999 FEW025 BKN130 30/25 A2986=
201305221800 METAR MRLM 221800Z 04009KT 9999 FEW020 SCT130 SCT250 30/25 A2984=
201305221900 METAR MRLM 221900Z 03007KT 9999 SCT020 BKN250 30/25 A2982=
201305222000 METAR MRLM 222000Z 04006KT 9999 SCT020 BKN250 29/25 A2979=
201305222100 METAR MRLM 222100Z 08004KT 9999 FEW020 SCT250 29/24 A2978=
201305222200 METAR MRLM 222200Z 28003KT 9999 FEW020 SCT250 28/25 A2978=
201305222300 METAR MRLM 222300Z 00000KT 9999 FEW020 BKN130 28/25 A2979=
201305230000 METAR MRLM 230000Z 00000KT 9999 FEW015 BKN130 A2982=
201305230100 METAR MRLM NIL=
201305230200 METAR MRLM NIL=
201305230300 METAR MRLM NIL=
201305230400 METAR MRLM NIL=
201305230500 METAR MRLM NIL=
201305230600 METAR MRLM NIL=
201305230700 METAR MRLM NIL=
201305230800 METAR MRLM NIL=
201305230900 METAR MRLM NIL=
201305231000 METAR MRLM NIL=
201305231100 METAR MRLM NIL=
201305231200 METAR MRLM 231200Z 25004KT 9999 BKN030 24/22 A2986=
201305231300 METAR MRLM 231300Z 24004KT 9999 BKN030 25/23 A2986=
201305231400 METAR MRLM 231400Z 25003KT 9999 FEW035 SCT120 SCT260 27/23 A2988=
201305231500 METAR MRLM 231500Z 00000KT 9999 FEW025 SCT035 SCT090 28/23 A2989=
201305231600 METAR MRLM 231600Z 00000KT 6000 +DZ VCSH BKN015 SCT090 28/23 A2990=
201305231700 METAR MRLM 231700Z 36006KT 5000 RA BKN008 26/25 A2990=
201305231800 METAR MRLM 231800Z 35006KT 9999 +DZ VCSH SCT008 SCT090 26/25 A2988 RERA=
201305231900 METAR MRLM 231900Z 30002KT 9999 FEW015 BKN090 28/25 A2985 REDZ=
201305232000 METAR MRLM 232000Z 07003KT 9999 FEW015 SCT130 SCT260 28/25 A2981=
201305232100 METAR MRLM 232100Z 05005KT 9999 FEW015 SCT130 SCT260 28/25 A2980=
201305232200 METAR MRLM 232200Z 01007KT 9999 FEW015 SCT140 28/25 A2980=
201305232300 METAR MRLM 232300Z 36004KT 9999 FEW018 BKN100 27/24 A2980=
201305232355 METAR MRLM 240000Z 06003KT CAVOK 27/23 A2982=
201305240000 METAR MRLM 240000Z 06003KT CAVOK 27/23 A2982=
201305240100 METAR MRLM NIL=
201305240200 METAR MRLM NIL=
201305240300 METAR MRLM NIL=
201305240400 METAR MRLM NIL=
201305240500 METAR MRLM NIL=
201305240600 METAR MRLM NIL=
201305240700 METAR MRLM NIL=
201305240800 METAR MRLM NIL=
201305240900 METAR MRLM NIL=
201305241000 METAR MRLM NIL=
201305241100 METAR MRLM NIL=
201305241200 METAR MRLM 241200Z 20003KT 5000 RA FEW005 BKN025 23/22 A2990=
201305241300 METAR MRLM 241300Z 21003KT 9999 +DZ VCSH FEW005 BKN025 23/23 A2990=
201305241400 METAR MRLM 241400Z 23003KT 9999 FEW035 BKN090 25/23 A2989 REDZ=
201305241500 METAR MRLM 241500Z 00000KT 9999 FEW035 BKN090 26/23 A2992=
201305241600 METAR MRLM 241600Z 00000KT 9999 DZ SCT040 SCT090 27/24 A2993=
201305241700 METAR MRLM 241700Z 13006KT 9999 FEW025 BKN080 28/23 A2991 REDZ=
201305241800 METAR MRLM 241800Z 12007KT 9999 FEW025 BKN090 28/23 A2989=
201305241900 METAR MRLM 241900Z 10005KT 9999 FEW025 BKN090 28/24 A2985=
201305242000 METAR MRLM 242000Z 13006KT 9999 FEW025 SCT120 SCT260 28/23 A2983=
201305242100 METAR MRLM 242100Z 13007KT 9999 FEW025 SCT070 SCT260 28723 A2982=
201305242200 METAR MRLM 242200Z 11005KT 9999 FEW025 SCT140 SCT260 28/23 A2983=
201305242300 METAR MRLM 242300Z 12003KT 9999 FEW025 BKN130 28/23 A2984=
201305242357 METAR MRLM 250000Z 00000KT CAVOK 26/24 A2986=
201305250000 METAR MRLM 250000Z 00000KT CAVOK 26/24 A2986=
201305250100 METAR MRLM NIL=
201305250200 METAR MRLM NIL=
201305250300 METAR MRLM NIL=
201305250400 METAR MRLM NIL=
201305250500 METAR MRLM NIL=
201305250600 METAR MRLM NIL=
201305250700 METAR MRLM NIL=
201305250800 METAR MRLM NIL=
201305250900 METAR MRLM NIL=
201305251000 METAR MRLM NIL=
201305251100 METAR MRLM NIL=
201305251200 METAR MRLM 251200Z 00000KT 9999 FEW010 BKN120 24/23 A2989=
201305251300 METAR MRLM 251300Z 28002KT 9999 FEW010 BKN120 25/24 A2991=
201305251400 METAR MRLM 251400Z 31002KT 9999 FEW015 BKN120 26/24 A2993=
201305251500 METAR MRLM 251500Z 33005KT 9999 SCT015 BKN120 26/23 A2996=
201305251600 METAR MRLM 251600Z 32004KT 9999 DZ SCT010 BKN110 27/24 A2997=
201305251700 METAR MRLM 251700Z 31004KT 9999 SCT010 SCT110 26/24 A2995 REDZ=
201305251800 METAR MRLM 251800Z 33004KT 9999 BKN015 27/24 A2991=
201305251900 METAR MRLM 251900Z 02007KT 9999 BKN015 27/24 A2990=
201305252000 METAR MRLM 252000Z 35005KT 9999 BKN020 28/24 A2989=
201305252100 METAR MRLM 252100Z 35006KT 9999 BKN020 SCT130 27/23 A2987=
201305252200 METAR MRLM 252200Z 35005KT 9999 BKN020 27/24 A2987=
201305252300 METAR MRLM 252300Z 29002KT 9999 DZ BKN015 SCT120 26/24 A2988=
201305260000 METAR MRLM 260000Z 27004KT 9999 DZ BKN010 SCT110 25/24 A2989=
201305260100 METAR MRLM NIL=
201305260200 METAR MRLM NIL=
201305260300 METAR MRLM NIL=
201305260400 METAR MRLM NIL=
201305260500 METAR MRLM NIL=
201305260600 METAR MRLM NIL=
201305260700 METAR MRLM NIL=
201305260800 METAR MRLM NIL=
201305260900 METAR MRLM NIL=
201305261000 METAR MRLM NIL=
201305261100 METAR MRLM NIL=
201305261200 METAR MRLM 261200Z 26005KT 9999 FEW010 BKN110 23/22 2990=
201305261300 METAR MRLM 261300Z 25005KT 9999 FEW010 BKN120 24/22 A2991=
201305261400 METAR MRLM 261400Z 28004KT 9999 FEW010 BKN130 25/23 A2993=
201305261500 METAR MRLM 261500Z 27003KT 9999 BKN020 SCT120 28/24 A2994=
201305261600 METAR MRLM 261600Z 03003KT 9999 -DZ BKN020 SCT120 28/24 A2994=
201305261700 METAR MRLM 261700Z 00000KT 9999 SCT020 SCT130 28/24 A2993=
201305261800 METAR MRLM 261800Z 04006KT 9999 FEW020 BKN250 29/25 A2991=
201305261900 METAR MRLM 261900Z 05007KT 9999 FEW025 BKN250 29/24 A2989=
201305262000 METAR MRLM 262000Z 05006KT 9999 FEW025 BKN250 30/24 A2987=
201305262100 METAR MRLM 262100Z 06004KT 9999 FEW020 BKN250 29/24 A2985=
201305262200 METAR MRLM 262200Z 06003KT 9999 FEW020 SCT250 29/24 A2985=
201305262300 METAR MRLM 262300Z 02003KT 9999 SCT020 SCT250 29/24 A2985=
201305270000 METAR MRLM 270000Z 00000KT 9999 SCT015 SCT250 27/25 A2987=
201305270100 METAR MRLM NIL=
201305270200 METAR MRLM NIL=
201305270300 METAR MRLM NIL=
201305270400 METAR MRLM NIL=
201305270500 METAR MRLM NIL=
201305270600 METAR MRLM NIL=
201305270700 METAR MRLM NIL=
201305270800 METAR MRLM NIL=
201305270900 METAR MRLM NIL=
201305271000 METAR MRLM NIL=
201305271100 METAR MRLM NIL=
201305271200 METAR MRLM 271200Z 25006KT 9999 +DZ FEW005 SCT045 BKN090 24/23 A2989=
201305271300 METAR MRLM 271300Z 24004KT 9999 +DZ FEW006 SCT030 SCT090 24/23 A2989=
201305271400 METAR MRLM 271400Z 26004KT 9999 SCT025 SCT090 25/23 A2991 REDZ=
201305271500 METAR MRLM 271500Z 29006KT 9999 BKN015 SCT090 26/24 A2993=
201305271600 METAR MRLM 271600Z 28005KT 9999 BKN030 28/24 A2993=
201305271700 METAR MRLM 271700Z 30003KT 9999 BKN025 28/24 A2992=
201305271800 METAR MRLM 271800Z 28003KT 9999 SCT030 SCT150 30/24 A2991=
201305271900 METAR MRLM 271900Z 06007KT 9999 SCT030TCU SCT140 30/24 A2987=
201305272000 METAR MRLM 272000Z 04004KT 9999 FEW025 SCT140 SCT270 30/24 A2985=
201305272100 METAR MRLM 272100Z 04006KT 9999 FEW025 BKN140 29/24 A2982=
201305272200 METAR MRLM 272200Z 01006KT 9999 FEW025 BKN110 29/24 A2980=
201305272300 METAR MRLM 272300Z 03006KT 9999 FEW025 SCT130 SCT270 29/24 A2979=
201305272352 METAR MRLM 280000Z 33002KT CAVOK 28/24 A2981=
201305280000 METAR MRLM 280000Z 33002KT CAVOK 28/24 A2981=
201305280100 METAR MRLM NIL=
201305280200 METAR MRLM NIL=
201305280300 METAR MRLM NIL=
201305280400 METAR MRLM NIL=
201305280500 METAR MRLM NIL=
201305280600 METAR MRLM NIL=
201305280700 METAR MRLM NIL=
201305280800 METAR MRLM NIL=
201305280900 METAR MRLM NIL=
201305281000 METAR MRLM NIL=
201305281100 METAR MRLM NIL=
201305281200 METAR MRLM 281200Z 24002KT 9999 FEW007 SCT140 24/23 A2988=
201305281300 METAR MRLM 281300Z 29002KT 9999 SCT012 SCT140 25/24 A2989=
201305281400 METAR MRLM 281400Z 33004KT CAVOK 29/23 A2989=
201305281500 METAR MRLM 281500Z 05006KT 9999 FEW025 SCT140 SCT260 29/24 A2990=
201305281600 METAR MRLM 281600Z 04008KT 9999 FEW025 BKN140 29/24 A2990=
201305281700 METAR MRLM 281700Z 03006KT 9999 FEW025 SCT140 29/24 A2989=
201305281800 METAR MRLM 281800Z 04005KT 9999 FEW025 SCT140 SCT270 29/24 A2986=
201305281900 METAR MRLM 281900Z 07005KT 9999 FEW025 BKN150 28/24 A2983=
201305282000 METAR MRLM 282000Z 09006KT 9999 FEW025 BKN140 29/24 A2981=
201305282100 METAR MRLM 282100Z 09004KT 9999 FEW025 BKN270 29/24 A2979=
201305282200 METAR MRLM 282200Z 09007KT 9999 SCT025 SCT270 29/24 A2979=
201305282300 METAR MRLM 282300Z 07006KT 9999 OVC025 29/24 A2981=
201305282357 METAR MRLM 290000Z 07005KT 9999 OVC015 28/24 A2983=
201305290000 METAR MRLM 290000Z 07005KT 9999 OVC015 28/24 A2983=
201305290100 METAR MRLM NIL=
201305290200 METAR MRLM NIL=
201305290300 METAR MRLM NIL=
201305290400 METAR MRLM NIL=
201305290500 METAR MRLM NIL=
201305290600 METAR MRLM NIL=
201305290700 METAR MRLM NIL=
201305290800 METAR MRLM NIL=
201305290900 METAR MRLM NIL=
201305291000 METAR MRLM NIL=
201305291100 METAR MRLM NIL=
201305291200 METAR MRLM 291200Z 27002KT CAVOK 25/24 A2984=
201305291300 METAR MRLM 291300Z 27003KT CAVOK 26/24 A2985=
201305291400 METAR MRLM 291400Z 31004KT 9999 FEW020 BKN250 28/24 A2986=
201305291500 METAR MRLM 291500Z 30003KT 9999 FEW030 SCT140 SCT250 30/23 A2987=
201305291600 METAR MRLM 291600Z 03005KT 9999 FEW035 SCT250 31/23 A2987=
201305291700 METAR MRLM 291700Z 03011KT 9999 FEW030 BKN240 30/23 A2987=
201305291800 METAR MRLM 291800Z 03007KT 9999 FEW030 BKN240 30/24 A2985=
201305291900 METAR MRLM 291900Z 04007KT 9999 FEW030 SCT140 SCT240 29/24 A2983=
201305292000 METAR MRLM 292000Z 06005KT 9999 FEW030 SCT130 SCT240 29/23 A2984=
201305292100 METAR MRLM 292100Z 09007KT 9999 BKN020 SCT130 29/24 A2982=
201305292200 METAR MRLM 292200Z 09007KT 9999 BKN015 28/25 A2982=
201305292300 METAR MRLM 292300Z 00000KT 9999 BKN015 28/25 A2982=
201305300000 METAR MRLM 300000Z 25003KT 9999 FEW010 SCT120 SCT240 27/25 A2980=
201305300100 METAR MRLM NIL=
201305300200 METAR MRLM NIL=
201305300300 METAR MRLM NIL=
201305300400 METAR MRLM NIL=
201305300500 METAR MRLM NIL=
201305300600 METAR MRLM NIL=
201305300700 METAR MRLM NIL=
201305300800 METAR MRLM NIL=
201305300900 METAR MRLM NIL=
201305301000 METAR MRLM NIL=
201305301100 METAR MRLM NIL=
201305301200 METAR MRLM 301200Z 27003KT CAVOK 24/23 A2985=
201305301300 METAR MRLM 301300Z 21003KT CAVOK 27/23 A2987=
201305301400 METAR MRLM 301400Z 30003KT 9999 FEW030 SCT140 SCT270 29/23 A2987=
201305301500 METAR MRLM 301500Z 32005KT 9999 FEW040 BKN270 30/22 A2987=
201305301600 METAR MRLM 301600Z 02009KT 9999 FEW030 SCT150 SCT270 30/24 A2988=
201305301700 METAR MRLM 301700Z 35007KT 9999 FEW035 BKN270 31/23 A2986=
201305301800 METAR MRLM 301800Z 02011KT 9999 SCT035 SCT260 31/24 A2985=
201305301900 METAR MRLM 301900Z 02012KT 9999 FEW030 SCT260 30/24 A2982=
201305302000 METAR MRLM 302000Z 02010KT 9999 SCT025 29/24 A2981=
201305302100 METAR MRLM 302100Z 04006KT 9999 BKN020 29/24 A2981=
201305302130 METAR MRLM 302130Z 23004KT 9999 DZ BKN015 26/24 A2980=
201305302200 METAR MRLM 302200Z 22005KT 9999 DZ BKN010 25/24 A2981=
201305302300 METAR MRLM 302300Z 22005KT 9999 DZ SCT010 BKN110 25/23 A2981=
201305310000 METAR MRLM 310000Z 25004KT 9999 -DZ FEW007 BKN100 24/23 A2983=
201305310100 METAR MRLM NIL=
201305310200 METAR MRLM NIL=
201305310300 METAR MRLM NIL=
201305310400 METAR MRLM NIL=
201305310500 METAR MRLM NIL=
201305310600 METAR MRLM NIL=
201305310700 METAR MRLM NIL=
201305310800 METAR MRLM NIL=
201305310900 METAR MRLM NIL=
201305311000 METAR MRLM NIL=
201305311100 METAR MRLM NIL=
201305311200 METAR MRLM NIL=
201305311300 METAR MRLM 311300Z 26004KT CAVOK 24/22 A2988=
201305311400 METAR MRLM 311400Z 27002KT CAVOK 26/23 A2989=
201305311500 METAR MRLM 311500Z 34002KT CAVOK 24/23 A2988=
201305311600 METAR MRLM 311600Z 07006KT CAVOK 28/23 A2989=
201305311700 METAR MRLM 311700Z 02005KT 9999 DZ FEW025 BKN140 28/23 A2988=
201305311800 METAR MRLM 311800Z 04006KT 9999 FEW030 BKN140 29/23 A2986 REDZ=
201305311900 METAR MRLM 311900Z 07005KT 9999 FEW025 BKN110 29/24 A2984=
201305312000 METAR MRLM 312000Z 07005KT 9999 FEW030 BKN090 29/23 A2982=
201305312100 METAR MRLM 312100Z 09005KT 9999 FEW030 BKN090 29/23 A2980=
201305312200 METAR MRLM 312200Z 11004KT 9999 FEW025 BKN080 29/24 A2980=
201305312300 METAR MRLM 312300Z 13004KT CAVOK 28/23 A2981=
201305312354 METAR MRLM 010000Z 15005KT CAVOK 28/24 A2983=
201306010000 METAR MRLM 010000Z 15005KT CAVOK 28/24 A2983=
201306010100 METAR MRLM NIL=
201306010200 METAR MRLM NIL=
201306010300 METAR MRLM NIL=
201306010400 METAR MRLM NIL=
201306010500 METAR MRLM NIL=
201306010600 METAR MRLM NIL=
201306010700 METAR MRLM NIL=
201306010800 METAR MRLM NIL=
201306010900 METAR MRLM NIL=
201306011000 METAR MRLM NIL=
201306011100 METAR MRLM NIL=
201306011200 METAR MRLM 011200Z 25004KT 9999 FEW015 SCT030 SCT070 25/23 A2987=
201306011300 METAR MRLM 011300Z 00000KT 9999 FEW015 SCT030 SCT070 26/23 A2988=
201306011400 METAR MRLM 011400Z 33004KT 9999 FEW020 BKN150 28/23 A2989=
201306011500 METAR MRLM 011500Z 33005KT 9999 SCT020 SCT150 29/24 2991=
201306011600 METAR MRLM 011600Z 03007KT 9999 SCT022 SCT120 29/25 A2991=
201306011700 METAR MRLM 011700Z 02008KT 9999 FEW020TCU BKN080 29/25 A2990=
201306011800 METAR MRLM 011800Z 03006KT 9999 FEW025 BKN130 29/25 A2988=
201306011900 METAR MRLM 011900Z 03007KT 9999 FEW025 BKN140 30/24 A2985=
201306012000 METAR MRLM 012000Z 03010KT 9999 FEW028 BKN140 30/24 A2983=
201306012100 METAR MRLM 012100Z 02005KT 9999 TS SCTCB015 FEW025 SCT100 31/24 A2982=
201306012200 METAR MRLM 012200Z 00000KT 9999 FEW010 SCT120 SCT140 29/24 A2980 RETS=
201306012300 METAR MRLM 012300Z 06004KT 9999 BKN025 SCT140 29/24 A2981=
201306012355 METAR MRLM 020000Z 19003KT 9999 FEW020 SCT140 SCT150 27/24 A2982=
201306020000 METAR MRLM 020000Z 19003KT 9999 FEW020 SCT140 SCT150 27/24 A2982=
201306020100 METAR MRLM NIL=
201306020200 METAR MRLM NIL=
201306020300 METAR MRLM NIL=
201306020400 METAR MRLM NIL=
201306020500 METAR MRLM NIL=
201306020600 METAR MRLM NIL=
201306020700 METAR MRLM NIL=
201306020800 METAR MRLM NIL=
201306020900 METAR MRLM NIL=
201306021000 METAR MRLM NIL=
201306021100 METAR MRLM NIL=
201306021200 METAR MRLM 021200Z 25004KT CAVOK 23/22 A2988=
201306021300 METAR MRLM 021300Z 23003KT CAVOK 26/22 A2988=
201306021400 METAR MRLM 021400Z 22002KT 9999 FEW020 BKN130 27/23 A2990=
201306021500 METAR MRLM 021500Z 06002KT 9999 FEW020 BKN250 28/24 A2990=
201306021600 METAR MRLM 021600Z 06004KT 9999 FEW030 BKN250 29/24 A2988=
201306021700 METAR MRLM 021700Z 06007KT 9999 FEW030 SCT260 30/24 A2987=
201306021800 METAR MRLM 021800Z 06005KT 9999 FEW030 SCT260 29/24 A2986=
201306021900 METAR MRLM 021900Z 05007KT 9999 FEW030 30/24 A2983=
201306022000 METAR MRLM 022000Z 05007KT 9999 FEW030 BKN270 30/25 A2981=
201306022100 METAR MRLM 022100Z 05005KT 9999 FEW030 BKN260 30/24 A2978=
201306022200 METAR MRLM 022200Z 09005KT 9999 FEW025 SCT130 SCT250 29/25 A2979=
201306022300 METAR MRLM 022300Z 08005KT 9999 SCT025 SCT130 29/24 A2980=
201306030000 METAR MRLM 030000Z 08002KT 9999 SCT020 SCT120 28/24 A2982=
201306030100 METAR MRLM NIL=
201306030200 METAR MRLM NIL=
201306030300 METAR MRLM NIL=
201306030400 METAR MRLM NIL=
201306030500 METAR MRLM NIL=
201306030600 METAR MRLM NIL=
201306030700 METAR MRLM NIL=
201306030800 METAR MRLM NIL=
201306030900 METAR MRLM NIL=
201306031000 METAR MRLM NIL=
201306031100 METAR MRLM NIL=
201306031200 METAR MRLM 031200Z 25003KT CAVOK 24/22 A2983=
201306031300 METAR MRLM 031300Z 25003KT 9999 FEW015 BKN260 26/23 A2984=
201306031400 METAR MRLM 031400Z 00000KT 9999 FEW030 BKN270 30/24 A2985=
201306031500 METAR MRLM 031500Z 12005KT 9999 FEW030 BKN270 30/24 A2986=
201306031600 METAR MRLM 031600Z 11006KT 9999 FEW030 BKN270 30/24 A2985=
201306031700 METAR MRLM 031700Z 09005KT 9999 FEW030 BKN260 30/24 A2985=
201306031800 METAR MRLM 031800Z 08005KT 9999 FEW030 BKN250 30/25 A2982=
201306031900 METAR MRLM 031900Z 06005KT 9999 FEW030 BKN250 30/25 A2980=
201306032000 METAR MRLM 032000Z 05005KT 9999 FEW030 OVC250 30/25 A2979=
201306032100 METAR MRLM 032100Z 05002KT 9999 FEW030 BKN250 30/24 A2977=
201306032200 METAR MRLM 032200Z 07002KT 9999 FEW025 BKN240 29/24 A2976=
201306032300 METAR MRLM 032300Z 08003KT 9999 FEW025 BKN240 29/24 A2976=
201306040000 METAR MRLM 040000Z 00000KT 9999 FEW025 BKN240 29/24 A2978=
201306040100 METAR MRLM NIL=
201306040200 METAR MRLM NIL=
201306040300 METAR MRLM NIL=
201306040400 METAR MRLM NIL=
201306040500 METAR MRLM NIL=
201306040600 METAR MRLM NIL=
201306040700 METAR MRLM NIL=
201306040800 METAR MRLM NIL=
201306040900 METAR MRLM NIL=
201306041000 METAR MRLM NIL=
201306041100 METAR MRLM NIL=
201306041200 METAR MRLM 041200Z 29002KT CAVOK 24/23 A2985=
201306041300 METAR MRLM 041300Z 28002KT CAVOK 26/24 A2984=
201306041400 METAR MRLM 041400Z 30004KT CAVOK 27/25 A2984=
201306041500 METAR MRLM 041500Z 06006KT 9999 FEW023 OVC270 29/25 A2985=
201306041600 METAR MRLM 041600Z 08005KT 9999 SCT023 SCT270 30/25 A2986=
201306041700 METAR MRLM 041700Z 10005KT 9999 SCT025 SCT270 31/25 A2985=
201306041754 METAR MRLM 041754Z 09006KT 9999 FEW025 BKN270 30/25 A2983=
201306041800 METAR MRLM 09006KT 9999 FEW025 BKN270 30/25 A2983=
201306041900 METAR MRLM 041900Z 10008KT 9999 FEW025 BKN270 31/25 A2981=
201306042000 METAR MRLM 042000Z 09007KT 9999 FEW025 BKN270 31/25 A2979=
201306042100 METAR MRLM 042100Z 08009KT 9999 FEW028 BKN270 30/25 A2977=
201306042200 METAR MRLM 042200Z 08005KT 9999 FEW030 BKN280 30/24 A2977 RETS=
201306042300 METAR MRLM 042300Z 08003KT 9999 FEW035 BKN280 30/23 A2981=
201306042358 METAR MRLM 050000Z 11003KT CAVOK 29/24 A2983=
201306050000 METAR MRLM 050000Z 11003KT CAVOK 29/24 A2983=
201306050100 METAR MRLM NIL=
201306050200 METAR MRLM NIL=
201306050300 METAR MRLM NIL=
201306050400 METAR MRLM NIL=
201306050500 METAR MRLM NIL=
201306050600 METAR MRLM NIL=
201306050700 METAR MRLM NIL=
201306050800 METAR MRLM NIL=
201306050900 METAR MRLM NIL=
201306051000 METAR MRLM NIL=
201306051100 METAR MRLM NIL=
201306051200 METAR MRLM 051200Z 23006KT CAVOK 23/21 A2984=
201306051300 METAR MRLM 051300Z 24005KT CAVOK 25/22 A2985=
201306051400 METAR MRLM 051400Z 24004KT CAVOK 27/23 A2987=
201306051500 METAR MRLM 051500Z 22004KT CAVOK 30/23 A2987=
201306051600 METAR MRLM 051600Z 08005KT 9999 FEW025 BKN270 31/25 A2985=
201306051700 METAR MRLM 051700Z 10005KT 9999 FEW025 BKN260 30/25 A2983=
201306051800 METAR MRLM 051800Z 09008KT 9999 FEW025 BKN260 31/25 A2982=
201306051900 METAR MRLM 051900Z 08007KT 9999 FEW025 BKN260 30/25 A2980=
201306052000 METAR MRLM 052000Z 11006KT 9999 FEW025 BKN260 31/25 A2977=
201306052100 METAR MRLM 052100Z 10006KT 9999 BKN025 SCT280 31/25 A2975=
201306052200 METAR MRLM 052200Z 11006KT 9999 BKN020 30/25 A2975=
201306052300 METAR MRLM 052300Z 12004KT 9999 FEW020 SCT280 30/25 A2975=
201306052357 METAR MRLM 06000Z 15004KT 9999 FEW020 SCT140 SCT280 29/25 A2977=
201306060000 METAR MRLM 06000Z 15004KT 9999 FEW020 SCT140 SCT280 29/25 A2977=
201306060100 METAR MRLM NIL=
201306060200 METAR MRLM NIL=
201306060300 METAR MRLM NIL=
201306060400 METAR MRLM NIL=
201306060500 METAR MRLM NIL=
201306060600 METAR MRLM NIL=
201306060700 METAR MRLM NIL=
201306060800 METAR MRLM NIL=
201306060900 METAR MRLM NIL=
201306061100 METAR MRLM NIL=
201306061200 METAR MRLM 061200Z 00000KT 9999 FEW015 BKN110 25/24 A2983=
201306061300 METAR MRLM 061300Z 25003KT 9999 FEW010 BKN110 27/25 A2984=
201306061400 METAR MRLM 061400Z 29004KT 9999 FEW025 BKN130 29/24 A2985=
201306061500 METAR MRLM 061500Z 06005KT 9999 FEW030 BKN130 30/24 A2985=
201306061600 METAR MRLM 061600Z 05006KT 9999 FEW030 SCT130 30/25 A2985=
201306061700 METAR MRLM 061700Z 04009KT 9999 FEW030 31/24 A2983=
201306061800 METAR MRLM 061800Z 03011KT 9999 FEW030 SCT150 SCT260 30/25 A2983=
201306061900 METAR MRLM 061900Z 03009KT 9999 FEW030 SCT140 SCT250 30/24 A2981=
201306062000 METAR MRLM 062000Z 05008KT 9999 FEW030 SCT130 SCT250 30/24 A2980=
201306062100 METAR MRLM 062100Z 07005KT 9999 BKN020 SCT250 29/25 A2978=
201306062200 METAR MRLM 062200Z 15002KT 9999 BKN020 SCT250 29/25 A2977=
201306062300 METAR MRLM 062300Z 16002KT 9999 SCT020 SCT250 29/25 A2978=
201306070000 METAR MRLM 070000Z 18002KT 9999 FEW015 SCT250 28/25 A2980=
201306070100 METAR MRLM NIL=
201306070200 METAR MRLM NIL=
201306070300 METAR MRLM NIL=
201306070400 METAR MRLM NIL=
201306070500 METAR MRLM NIL=
201306070600 METAR MRLM NIL=
201306070700 METAR MRLM NIL=
201306070800 METAR MRLM NIL=
201306070900 METAR MRLM NIL=
201306071000 METAR MRLM NIL=
201306071100 METAR MRLM NIL=
201306071200 METAR MRLM 071200Z 25003KT CAVOK 24/22 A2982=
201306071300 METAR MRLM 071300Z 26004KT CAVOK 26/23 A2984=
201306071400 METAR MRLM 071400Z 00000KT CAVOK 31/23 A2986=
201306071500 METAR MRLM 071500Z 09002KT 9999 FEW030 BKN270 30/23 A2987=
201306071600 METAR MRLM 071600Z 12003KT 9999 FEW030 BKN270 30/24 A2987=
201306071700 METAR MRLM 071700Z 11005KT 9999 FEW030 SCT270 30/25 A2987=
201306071800 METAR MRLM NIL=
201306071900 METAR MRLM 071900Z 08007KT 9999 FEW030 BKN260 30/25 A2981=
201306072000 METAR MRLM 072000Z 08007KT 9999 FEW030 BKN260 31/25 A2979=
201306072100 METAR MRLM 072100Z 08008KT 9999 FEW0205 BKN250 30/25 A2978=
201306072200 METAR MRLM 072200Z 05004KT 9999 FEW025 BKN250 30/24 A2977=
201306072300 METAR MRLM 072300Z 00000KT 9999 FEW030 BKN250 30/24 A2978=
201306080000 METAR MRLM 080000Z 00000KT 9999 FEW025 SCT250 29/24 A2980=
201306080100 METAR MRLM NIL=
201306080200 METAR MRLM NIL=
201306080300 METAR MRLM NIL=
201306080400 METAR MRLM NIL=
201306080500 METAR MRLM NIL=
201306080600 METAR MRLM NIL=
201306080700 METAR MRLM NIL=
201306080800 METAR MRLM NIL=
201306080900 METAR MRLM NIL=
201306081000 METAR MRLM NIL=
201306081100 METAR MRLM NIL=
201306081200 METAR MRLM 081200Z 00000KT 9999 DZ BKN012 25/23 A2984=
201306081300 METAR MRLM 081300Z 31003KT 9999 SCT012 SCT025 26/24 A2986 REDZ=
201306081400 METAR MRLM 081400Z 32005KT 9999 SCT015 SCT025 27/23 A29/23 A2987=
201306081500 METAR MRLM 081500Z 30010KT 99999 4000NW DZ VCSH FEW006 BKN020 26/23 A2989=
201306081600 METAR MRLM 081600Z 30009KT 9999 DZ VCSH FEW009 OVC015 25/23 A2988 RETS=
201306081700 METAR MRLM 081700Z 34008KT 8000 TS +DZ VCSH FEW010CB BKN015 24/23 A2989 RERA=
201306081800 METAR MRLM 21006KT 6000 TSRA FEW005 SCT CB010 SCT015 23/22 A29990=
201306081802 METAR MRLM 081802Z 21006KT 6000 TSRA FEW005 SCT CB010 SCT015 23/22 A29990=
201306081900 METAR MRLM 081900Z 21004KT 6000 TSRA SCT CB010 SCT025 23/22 A2986=
201306082000 METAR MRLM 082000Z 20003KT 9999 DZ FEW005 BKN020 23/22 A2984 RETS=
201306082100 METAR MRLM 082100Z 00000KT 9999 +DZ FEW005 SCT025 SCT140 24/22 A2981=
201306082200 METAR MRLM 082200Z 26002KT CAVOK 25/23 A2978=
201306082300 METAR MRLM 082300Z 00000KT CAVOK 25/24 A2981=
201306082355 METAR MRLM 090000Z 24004KT CAVOK 24 23 A2982=
201306090000 METAR MRLM 090000Z 24004KT CAVOK 24 23 A2982=
201306090100 METAR MRLM NIL=
201306090200 METAR MRLM NIL=
201306090300 METAR MRLM NIL=
201306090400 METAR MRLM NIL=
201306090500 METAR MRLM NIL=
201306090600 METAR MRLM NIL=
201306090700 METAR MRLM NIL=
201306090800 METAR MRLM NIL=
201306090900 METAR MRLM NIL=
201306091000 METAR MRLM NIL=
201306091100 METAR MRLM NIL=
201306091200 METAR MRLM 091200Z 26002KT CAVOK 23/21 A2985=
201306091300 METAR MRLM 091300Z 26005KT CAVOK 23/22 A2985=
201306091400 METAR MRLM 091400Z 27002KT CAVOK 25/22 A2986=
201306091500 METAR MRLM 091500Z 27004KT 9999 SCT030 SCT090 28/23 A2988=
201306091600 METAR MRLM 091600Z 31004KT 9999 DZ BKN030 28/23 A2990=
201306091700 METAR MRLM 091700Z 33003KT 9999 FEW020 BKN030 30/24 A2987 REDZ=
201306091800 METAR MRLM 091800Z 04007KT 9999 SCT020 BKN090 29/25 A2985=
201306091900 METAR MRLM 091900Z 02005KT 9999 FEW020 SCT090 30/24 A2984=
201306092000 METAR MRLM 092000Z 04006KT 9999 FEW028 BKN270 30/25 A2979=
201306092100 METAR MRLM 092100Z 03009KT 9999 FEW030 BKN270 30/24 A2976=
201306092200 METAR MRLM 092200Z 04007KT 9999 FEW028 SCT080 30/25 A2978=
201306092300 METAR MRLM 092300Z 03008KT 9999 FEW020TCU SCT140 SCT270 29/25 A2980=
201306092359 METAR MRLM 100000Z 04003KT 9999 FEW018TCU BKN140 29/25 A2983=
201306100000 METAR MRLM 100000Z 04003KT 9999 FEW018TCU BKN140 29/25 A2983=
201306100100 METAR MRLM NIL=
201306100200 METAR MRLM NIL=
201306100300 METAR MRLM NIL=
201306100400 METAR MRLM NIL=
201306100500 METAR MRLM NIL=
201306100600 METAR MRLM NIL=
201306100700 METAR MRLM NIL=
201306100800 METAR MRLM NIL=
201306100900 METAR MRLM NIL=
201306101000 METAR MRLM NIL=
201306101100 METAR MRLM NIL=
201306101200 METAR MRLM 101200Z 26004KT 9999 BKN010 24/23 A2985=
201306101300 METAR MRLM 101300Z 00000KT 9999 DZ BKN010 24/23 A2986=
201306101400 METAR MRLM 101400Z 23004KT 9999 DZ BKN010 25/23 A2988=
201306101500 METAR MRLM 101500Z 24004KT 9999 SCT015 SCT110 26/24 A2988 REDZ=
201306101600 METAR MRLM 101600Z 17003KT 9999 SCT020 SCT110 28/24 A2989=
201306101700 METAR MRLM 101700Z 00000KT 9999 SCT025 BKN120 29/24 A2987=
201306101800 METAR MRLM 101800Z 06003KT 9999 SCT025 BKN120 29/24 A2988=
201306101835 METAR MRLM 101835Z 04006KT 9999 DZ VCTS FEW010CB SCT020 SCT120 28/24 A2987=
201306101900 METAR MRLM 101900Z 11014KT 8000 TSRA FEW007 SCT010CB SCT100 26/24 2987=
201306102000 METAR MRLM 102000Z 23005KT 9999 -RA VCTS FEW007 FEW010CB SCT100 24/22 A2984=
201306102100 METAR MRLM 102100Z 19006KT 9999 DZ SCT010 BKN110 24/22 A2983 RETS=
201306102200 METAR MRLM 102200Z 00000KT CAVOK 25/22 A2978=
201306102300 METAR MRLM 102300Z 33004KT CAVOK 25/23 A2981=
201306110000 METAR MRLM 110000Z 30003KT CAVOK 25/23 A2982=
201306110100 METAR MRLM NIL=
201306110200 METAR MRLM NIL=
201306110300 METAR MRLM NIL=
201306110400 METAR MRLM NIL=
201306110500 METAR MRLM NIL=
201306110600 METAR MRLM NIL=
201306110700 METAR MRLM NIL=
201306110800 METAR MRLM NIL=
201306110900 METAR MRLM NIL=
201306111000 METAR MRLM NIL=
201306111100 METAR MRLM NIL=
201306111200 METAR MRLM 111200Z 26005KT CAVOK 22/21 A2989=
201306111300 METAR MRLM 111300Z 23003KT CAVOK 25/22 A2990=
201306111400 METAR MRLM 111400Z 30003KT CAVOK 28/22 A2991=
201306111500 METAR MRLM 111500Z 32004KT 9999 FEW035 SCT140 30/21 A2992=
201306111600 METAR MRLM 111600Z 34005KT 9999 FEW030 BKN120 29/22 A2993=
201306111700 METAR MRLM 111700Z 34004KT 9999 FEW035 SCT260 31/20 A2991=
201306111800 METAR MRLM 111800Z 03008KT 9999 FEW035 SCT130 31/24 A2989=
201306111900 METAR MRLM 111900Z 01010KT 9999 FEW030 SCT140 SCT260 31/25 A2987=
201306112000 METAR MRLM 112000Z 01011KT 9999 FEW030 BKN260 31/24 A2985=
201306112100 METAR MRLM 112100Z 01011KT 9999 FEW030 BKN250 30/25 A2984=
201306112200 METAR MRLM 112200Z 01010KT 9999 SCT025 SCT250 29/24 A2984=
201306112300 METAR MRLM 112300Z 34007KT 9999 SCT020 BKN250 29/24 A2985=
201306120000 METAR MRLM 120000Z 32004KT 9999 FEW020 BKN250 28/24 A2987=
201306120100 METAR MRLM NIL=
201306120200 METAR MRLM NIL=
201306120300 METAR MRLM NIL=
201306120400 METAR MRLM NIL=
201306120500 METAR MRLM NIL=
201306120600 METAR MRLM NIL=
201306120700 METAR MRLM NIL=
201306120800 METAR MRLM NIL=
201306120900 METAR MRLM NIL=
201306121000 METAR MRLM NIL=
201306121100 METAR MRLM NIL=
201306121200 METAR MRLM 121200Z 30003KT 9999 DZ VCSH FEW010 BKN025 26/22 A2991=
201306121300 METAR MRLM 121300Z 28004KT 7000 RA FEW005 BKN015 25/22 A2992=
201306121400 METAR MRLM 121400Z 33005KT 9999 +DZ VCSH SCT010 SCT020 25/24 A2993 RERA=
201306121500 METAR MRLM 121500Z 27004KT 9999 DZ VCSH SCT010 SCT020 26/24 A2994=
201306121600 METAR MRLM 121600Z 29005KT 9999 BKN015 28/24 A2994 REDZ=
201306121700 METAR MRLM 121700Z 28004KT 9999 OVC020 29/24 A2994=
201306121800 METAR MRLM 121800Z 36002KT 9999 DZ BKN025 30/24 A2993=
201306121900 METAR MRLM 121900Z 10003KT 9999 BKN025 29/24 A2990 REDZ=
201306122000 METAR MRLM 12200Z 13004KT 9999 FEW025 SCT150 29/24 A2987=
201306122001 METAR MRLM 12200Z 13004KT 9999 FEW025 SCT150 29/24 A2987=
201306122100 METAR MRLM 122100Z 00000KT 9999 FEW025 BKN080 29/24 A2986=
201306122200 METAR MRLM 12000Z 13006KT 9999 FEW025 SCT090 BKN140 28/23 A2986=
201306122300 METAR MRLM 20002KT 9999 FEW015 SCT090 BKN140 27/24 A2987=
201306122311 METAR MRLM 122311Z 20002KT 9999 FEW015 SCT090 BKN140 27/24 A2987=
201306122359 METAR MRLM 130000Z 20003KT 9999 FEW012 SCT140 SCT160 26/23 A2987=
201306130000 METAR MRLM 130000Z 20003KT 9999 FEW012 SCT140 SCT160 26/23 A2987=
201306130100 METAR MRLM NIL=
201306130200 METAR MRLM NIL=
201306130300 METAR MRLM NIL=
201306130400 METAR MRLM NIL=
201306130500 METAR MRLM NIL=
201306130600 METAR MRLM NIL=
201306130700 METAR MRLM NIL=
201306130800 METAR MRLM NIL=
201306130900 METAR MRLM NIL=
201306131000 METAR MRLM NIL=
201306131100 METAR MRLM NIL=
201306131200 METAR MRLM 131200Z 20003KT CAVOK 24/23 A2985=
201306131300 METAR MRLM 131300Z 29004KT CAVOK 26/23 A2985=
201306131400 METAR MRLM 131400Z 32004KT CAVOK 29/23 A2987=
201306131500 METAR MRLM 131500Z 03004KT CAVOK 32/26 A2988=
201306131600 METAR MRLM 131600Z 02005KT 9999 FEW025 BKN130 30/25 A2987=
201306131700 METAR MRLM 131700Z 03008KT 9999 FEW025 BKN140 30/25 A2988=
201306131800 METAR MRLM 131800Z 02008KT 9999 FEW025 BKN140 30/25 A2985=
201306131900 METAR MRLM 131900Z 36012KT 9999 BKN025 30/25 A2983=
201306132000 METAR MRLM 132000Z 03014KT 9999 DZ VCSH SCT015 SCT090 28/25 A2983=
201306132100 METAR MRLM 132100Z 02011KT 9999 FEW018 SCT120 28/24 A2981 REDZ=
201306132200 METAR MRLM 132200Z 36011KT 9999 BKN018 28/24 A2982=
201306132300 METAR MRLM 132300Z 33005KT 9999 DZ BKN015 SCT090 27/24 A2984=
201306132359 METAR MRLM 140000Z 30005KT +DZ VCSH BKN012 26/24 A2985=
201306140000 METAR MRLM 140000Z 30005KT +DZ VCSH BKN012 26/24 A2985=
201306140100 METAR MRLM NIL=
201306140200 METAR MRLM NIL=
201306140300 METAR MRLM NIL=
201306140400 METAR MRLM NIL=
201306140500 METAR MRLM NIL=
201306140600 METAR MRLM NIL=
201306140700 METAR MRLM NIL=
201306140800 METAR MRLM NIL=
201306140900 METAR MRLM NIL=
201306141000 METAR MRLM NIL=
201306141100 METAR MRLM NIL=
201306141200 METAR MRLM 141200Z 28002KT CAVOK 23/22 A2982=
201306141300 METAR MRLM 141300Z 30002KT CAVOK 25/23 A2984=
201306141400 METAR MRLM 141400Z 32006KT 9999 FEW020 BKN250 26/23 A2986=
201306141500 METAR MRLM 141500Z 32006KT 9999 SCT015 BKN120 27/24 A2988=
201306141600 METAR MRLM 141600Z 33006KT 9999 FEW025 SCT130 SCT250 30/24 A2986=
201306141700 METAR MRLM 141700Z 33007KT 9999 FEW030 BKN250 30/24 A2984=
201306141800 METAR MRLM 141800Z 03010KT 9999 FEW020 BKN130 29/25 A2984=
201306141900 METAR MRLM 141900Z 03008KT 9999 FEW020 BKN120 29/25 A2982=
201306142000 METAR MRLM 142000Z 05007KT 9999 FEW020 BKN120 29/25 A2982=
201306142100 METAR MRLM 142100Z 04004KT 99999 FEW020 SCT130 SCT250 29/25 A2979=
201306142200 METAR MRLM 142200Z 08005KT 9999 SCT020 SCT130 A2979=
201306142300 METAR MRLM 142300Z 09002KT 9999 SCT020 SCT120 28/24 A2981=
201306150000 METAR MRLM 150000Z 03010KT 9999 BKN010 SCT110 27/24 A2982=
201306150100 METAR MRLM NIL=
201306150200 METAR MRLM NIL=
201306150300 METAR MRLM NIL=
201306150400 METAR MRLM NIL=
201306150500 METAR MRLM NIL=
201306150600 METAR MRLM NIL=
201306150700 METAR MRLM NIL=
201306150800 METAR MRLM NIL=
201306150900 METAR MRLM NIL=
201306151000 METAR MRLM NIL=
201306151100 METAR MRLM NIL=
201306151200 METAR MRLM 151200Z 25003KT CAVOK 24/23 A2982=
201306151300 METAR MRLM 151300Z 27003KT CAVOK 24/23 A2983=
201306151400 METAR MRLM 151400Z 00000KT CAVOK 25/24 A2987=
201306151500 METAR MRLM 151500Z 00000KT 9999 FEW015 BKN110 26/24 A2990=
201306151600 METAR MRLM 151600Z 00000KT 9999 -DZ SCT015 BKN110 27/24 A2991=
201306151615 METAR MRLM 151615Z 09015KT 8000 RA VCTS FEW006 BKN010 26/24 A2991=
201306151700 METAR MRLM 151700Z 06002KT 9999 DZ BKN007 SCT100 24/23 A2989 RERA=
201306151800 METAR MRLM 151800Z 16005KT 9999 DZ SCT015 BKN100 25/22 A2988=
201306151900 METAR MRLM 151900Z 17004KT 9999 -DZ FEW015 SCT110 SCT240 26/23 A2986=
201306152000 METAR MRLM 152000Z 17003KT CAVOK 28/24 A2981=
201306152100 METAR MRLM 152100Z 12006KT 9999 FEW025 BKN250 28/23 A2978=
201306152200 METAR MRLM 152200Z 07009KT 9999 FEW025 BKN240 28/23 A2979=
201306152300 METAR MRLM 152300Z 00000KT CAVOK 27/24 A2980=
201306160000 METAR MRLM 160000Z 00000KT CAVOK 26/24 A2981=
201306160100 METAR MRLM NIL=
201306160200 METAR MRLM NIL=
201306160300 METAR MRLM NIL=
201306160400 METAR MRLM NIL=
201306160500 METAR MRLM NIL=
201306160600 METAR MRLM NIL=
201306160700 METAR MRLM NIL=
201306160800 METAR MRLM NIL=
201306160900 METAR MRLM NIL=
201306161000 METAR MRLM NIL=
201306161100 METAR MRLM NIL=
201306161200 METAR MRLM 161200Z 26004KT CAVOK 23/22 A2984=
201306161300 METAR MRLM 161300Z 00000KT CAVOK 27/23 A2994=
201306161400 METAR MRLM 161400Z 34005KT CAVOK 28/23 A2984=
201306161500 METAR MRLM 161500Z 02005KT 9999 SCT025 SCT280 30/23 A2985=
201306161600 METAR MRLM 161600Z 01007KT 9999 FEW025 BKN140 29/24 A2980=
201306161700 METAR MRLM 161700Z 02010KT 9999 FEW025 BKN140 30/25 A2985=
201306161800 METAR MRLM 161800Z 02010KT 9999 FEW025 SCT080 SCT130 30/25 A2985=
201306161900 METAR MRLM 161900Z 01007KT 9999 FEW015 SCT030 SCT080 29/25 A2982=
201306162000 METAR MRLM 162000Z 03006KT 9999 FEW020 BKN035 29/24 A2980=
201306162100 METAR MRLM 162100Z 03003KT 9999 FEW020 BKN035 29/24 A2992=
201306162200 METAR MRLM 162200Z 03005KT 9999 SCT025 SCT110 29/24 2979=
201306162300 METAR MRLM 162300Z 01006KT 9999 FEW020 SCT035 SCT090 29/25 A2980=
201306162358 METAR MRLM 170000Z 34003KT 9999 SCT015 SCT080 28/24 A2982=
201306170000 METAR MRLM 170000Z 34003KT 9999 SCT015 SCT080 28/24 A2982=
201306170100 METAR MRLM NIL=
201306170200 METAR MRLM NIL=
201306170300 METAR MRLM NIL=
201306170400 METAR MRLM NIL=
201306170500 METAR MRLM NIL=
201306170600 METAR MRLM NIL=
201306170700 METAR MRLM NIL=
201306170800 METAR MRLM NIL=
201306170900 METAR MRLM NIL=
201306171000 METAR MRLM NIL=
201306171100 METAR MRLM NIL=
201306171200 METAR MRLM 171200Z 25003KT CAVOK 24/23 A2983=
201306171300 METAR MRLM 171300Z 22003KT CAVOK 27/24 A2984=
201306171400 METAR MRLM 171400Z 10003KT 9999 FEW025 30/24 A2983=
201306171500 METAR MRLM 171500Z 07005KT 9999 FEW028 SCT280 30/24 A2982=
201306171600 METAR MRLM 171600Z 07005KT 9999 FEW025 SCT280 30/24 A2982=
201306171700 METAR MRLM 171700Z 05006KT 9999 FEW028 SCT280 30/25 A2981=
201306171800 METAR MRLM 171800Z 06006KT 9999 FEW030 BKN280 30/24 A2981=
201306171900 METAR MRLM 171900Z 05007KT 9999 FEW035 BKN270 31/24 A2981=
201306172000 METAR MRLM 172000Z 03008KT 9999 FEW030 BKN270 31/25 A2979=
201306172100 METAR MRLM 172100Z 03008KT 9999 SCT028 BKN270 30/25 A2978=
201306172200 METAR MRLM 172200Z 03008KT 9999 SCT028 BKN270 30/25 A2978=
201306172300 METAR MRLM 172300Z 02008KT 9999 SCT020 SCT270 29/25 A2980=
201306172354 METAR MRLM 180000Z 05005KT 9999 FEW020 SCT090 SCT270 29/24 A2981=
201306180000 METAR MRLM 180000Z 05005KT 9999 FEW020 SCT090 SCT270 29/24 A2981=
201306180100 METAR MRLM NIL=
201306180200 METAR MRLM NIL=
201306180300 METAR MRLM NIL=
201306180400 METAR MRLM NIL=
201306180500 METAR MRLM NIL=
201306180600 METAR MRLM NIL=
201306180700 METAR MRLM NIL=
201306180800 METAR MRLM NIL=
201306180900 METAR MRLM NIL=
201306181000 METAR MRLM NIL=
201306181100 METAR MRLM NIL=
201306181200 METAR MRLM 181200Z 20003KT 9999 +DZ BKN010 SCT100 25/24 A2984=
201306181300 METAR MRLM 181300Z 00000KT 9999 DZ BKN010 25/24 A2985=
201306181400 METAR MRLM 181400Z 22003KT 9999 DZ SCT010 SCT090 25/24 A2984=
201306181500 METAR MRLM 181500Z 00000KT 9999 -DZ FEW010 SCT100 SCT240 26/25 A2984=
201306181600 METAR MRLM 181600Z 31003KT 9999 FEW020 SCT110 SCT240 28/24 A2984=
201306181700 METAR MRLM 181700Z 07003KT 9999 FEW020 BKN250 30/25 A2985=
201306181800 METAR MRLM 181800Z 28002KT 9999 SCT030 BKN260 31/25 A2985=
201306181900 METAR MRLM 181900Z 05004KT 9999 SCT030 BKN260 31/25 A2978=
201306182000 METAR MRLM 182000Z 01008KT 9999 FEW030 BKN260 31/25 A2976=
201306182100 METAR MRLM 182100Z 04011KT 9999 FEW030 BKN260 31/25 A2976=
201306182200 METAR MRLM 182200Z 03010KT 9999 FEW020 BKN250 29/25 A2977=
201306182300 METAR MRLM 182300Z 32002KT 9999 SCT015 SCT120 28/24 A2978=
201306182320 METAR MRLM 182320Z 26003KT 9999 +DZ BKN010 SCT110 27/25 A2979=
201306190000 METAR MRLM 190000Z 07008KT 8000 -RA BKN007 27/25 A2979=
201306190100 METAR MRLM NIL=
201306190200 METAR MRLM NIL=
201306190300 METAR MRLM NIL=
201306190400 METAR MRLM NIL=
201306190500 METAR MRLM NIL=
201306190600 METAR MRLM NIL=
201306190700 METAR MRLM NIL=
201306190800 METAR MRLM NIL=
201306190900 METAR MRLM NIL=
201306191000 METAR MRLM NIL=
201306191100 METAR MRLM NIL=
201306191200 METAR MRLM 191200Z 24005KT CAVOK 23/22 A2981=
201306191300 METAR MRLM 191300Z 27004KT 99999 FEW010 SCT250 24/23 A2981=
201306191400 METAR MRLM 191400Z 00000KT 9999 FEW015 SCT250 27/24 A2982=
201306191500 METAR MRLM 191500Z 10002KT 9999 FEW025 BKN130 29/24 A2984=
201306191600 METAR MRLM 191600Z 12002KT 9999 SCT030 SCT260 30/24 A2984=
201306191700 METAR MRLM 191700Z 12005KT 9999 FEW030 SCT130 SCT260 31/24 A2982=
201306191800 METAR MRLM 191800Z 12006KT 9999 FEW030 SCT140 SCT260 31/25 A2981=
201306191900 METAR MRLM 191900Z 13006KT 9999 FEW030 SCT270 31/25 A2977=
201306192000 METAR MRLM 192000Z 09005KT 9999 FEW030 BKN270 31/25 A2976=
201306192100 METAR MRLM 192100Z 07006KT 9999 FEW030 BKN260 30/24 A2973=
201306192200 METAR MRLM 192200Z 08004KT 9999 FEW030 SCT130 SCT260 30/24 A2973=
201306192300 METAR MRLM 192300Z 10005KT 9999 FEW025 BKN120 29/25 A2976=
201306200000 METAR MRLM 200000Z 00000KT CAVOK 29/25 A2977=
201306200100 METAR MRLM NIL=
201306200200 METAR MRLM NIL=
201306200300 METAR MRLM NIL=
201306200400 METAR MRLM NIL=
201306200500 METAR MRLM NIL=
201306200600 METAR MRLM NIL=
201306200700 METAR MRLM NIL=
201306200800 METAR MRLM NIL=
201306200900 METAR MRLM NIL=
201306201000 METAR MRLM NIL=
201306201100 METAR MRLM NIL=
201306201200 METAR MRLM 26004KT 9999 DZ VCSH FEW003 BKN020 24/24 A2982=
201306201230 METAR MRLM 201230Z 26004KT 9999 DZ VCSH FEW003 BKN020 24/24 A2982=
201306201300 METAR MRLM 201300Z 26003KT 9999 DZ BKN020 24/23 A2982=
201306201400 METAR MRLM 201400Z 28003KT 9999 SCT020 SCT080 25/24 A2984 REDZ=
201306201500 METAR MRLM 201500Z 32002KT 9999 +DZ VCSH FEW008 BKN020 25/24 A2987=
201306201600 METAR MRLM 201600Z 28006KT 9999 BKN020 26/24 A2987 REDZ=
201306201700 METAR MRLM 201700Z 27005KT 9999 SCT015 SCT140 27/24 A2985=
201306201800 METAR MRLM 201800Z 33002KT 9999 +DZ SCT015 SCT080 27/24 A2985=
201306201900 METAR MRLM 201900Z 13004KT 9999 DZ FEW015 BKN080 27/24 A2984=
201306202000 METAR MRLM 20200Z 21003KT 9999 DZ SCT015 SCT090 27/24 A2980=
201306202001 METAR MRLM 20200Z 21003KT 9999 DZ SCT015 SCT090 27/24 A2980=
201306202100 METAR MRLM 202100Z 22005KT CAVOK 28/25 A2974 REDZ=
201306202200 METAR MRLM 202200Z 07005KT CAVOK 28/25 A2973=
201306202300 METAR MRLM 202300Z 34003KT CAVOK 28/24 A2974=
201306202353 METAR MRLM 210000Z 30002KT CAVOK 27/24 A2977=
201306210000 METAR MRLM 210000Z 30002KT CAVOK 27/24 A2977=
201306210100 METAR MRLM NIL=
201306210200 METAR MRLM NIL=
201306210300 METAR MRLM NIL=
201306210400 METAR MRLM NIL=
201306210500 METAR MRLM NIL=
201306210600 METAR MRLM NIL=
201306210700 METAR MRLM NIL=
201306210800 METAR MRLM NIL=
201306210900 METAR MRLM NIL=
201306211000 METAR MRLM NIL=
201306211100 METAR MRLM NIL=
201306211200 METAR MRLM 211200Z 16014KT 8000 DZ VCSH SCT005 SCT015 24/23 A2986=
201306211300 METAR MRLM 211300Z 21006KT 8000 DZ VCSH BKN007 23/22 A2990=
201306211400 METAR MRLM 211400Z 22006KT 9999 DZ BKN025 23/21 A2990=
201306211500 METAR MRLM 211500Z 21003KT 9999 DZ BKN025 24/22 A2989=
201306211600 METAR MRLM 211600Z 25005KT 9999 DZ FEW080 SCT140 SCT250 26/22 A2986=
201306211700 METAR MRLM 211700Z 00000KT CAVOK 30/24 A2986 REDZ=
201306211800 METAR MRLM 211800Z 07003KT CAVOK 29/24 A2984=
201306211900 METAR MRLM 211900Z 08008KT CAVOK 29/23 A2985=
201306211958 METAR MRLM 21200Z 09006KT 9999 FEW028 BKN150 29/24 A2986=
201306212000 METAR MRLM 21200Z 09006KT 9999 FEW028 BKN150 29/24 A2986=
201306212100 METAR MRLM 212100Z 13004KT CAVOK 30/23 A2982=
201306212200 METAR MRLM 212200Z 11004KT CAVOK 29/23 A2981=
201306212300 METAR MRLM 212300Z 09005KT CAVOK 29/22 A2983=
201306212353 METAR MRLM 220000Z 09006KT CAVOK 28/22 A2984=
201306220000 METAR MRLM 220000Z 09006KT CAVOK 28/22 A2984=
201306220100 METAR MRLM NIL=
201306220200 METAR MRLM NIL=
201306220300 METAR MRLM NIL=
201306220400 METAR MRLM NIL=
201306220500 METAR MRLM NIL=
201306220600 METAR MRLM NIL=
201306220700 METAR MRLM NIL=
201306220800 METAR MRLM NIL=
201306220900 METAR MRLM NIL=
201306221000 METAR MRLM NIL=
201306221100 METAR MRLM NIL=
201306221200 METAR MRLM 221200Z 35004KT 9999 -DZ BKN015 SCT100 24/22 A2988=
201306221300 METAR MRLM 221300Z 30004KT 9999 FEW015 SCT110 SCT250 24/22 A2987=
201306221400 METAR MRLM 221400Z 31003KT 9999 FEW020 SCT120 SCT250 26/22 A2989=
201306221500 METAR MRLM 221500Z 30004KT 9999 FEW025 SCT130 28/23 A2991=
201306221600 METAR MRLM 221600Z 30003KT 9999 FEW030 SCT130 SCT260 29/23 A2990=
201306221700 METAR MRLM 221700Z 31002KT 9999 FEW035 BKN260 30/23 A2989=
201306221800 METAR MRLM 221800Z 31003KT 9999 FEW035 BKN260 30/23 A2987=
201306221900 METAR MRLM 221900Z 35008KT 9999 FEW030 BKN250 30/23 A2986=
201306222000 METAR MRLM 222000Z 35009KT 9999 FEW030 BKN250 29/23 A2984=
201306222100 METAR MRLM 222100Z 36009KT 9999 FEW020 BKN250 28/24 A2984=
201306222200 METAR MRLM 222200Z 01007KT 9999 FEW020 SCT120 SCT240 28/24 A2985=
201306222300 METAR MRLM 222300Z 01004KT 9999 FEW020 BKN120 28/24 A2985=
201306230000 METAR MRLM 230000Z 03013KT 7000 TS RA SCTCB007 BKN010 25/23 A2987=
201306230100 METAR MRLM NIL=
201306230200 METAR MRLM NIL=
201306230300 METAR MRLM NIL=
201306230400 METAR MRLM NIL=
201306230500 METAR MRLM NIL=
201306230600 METAR MRLM NIL=
201306230700 METAR MRLM NIL=
201306230800 METAR MRLM NIL=
201306230900 METAR MRLM NIL=
201306231000 METAR MRLM NIL=
201306231100 METAR MRLM NIL=
201306231200 METAR MRLM 231200Z 25004KT 9999 BKN007 23/22 A2987=
201306231300 METAR MRLM 231300Z 23003KT 9999 -DZ BKN007 SCT090 23/22 A2988=
201306231400 METAR MRLM 231400Z 23005KT 9999 DZ BKN007 24/23 A2989=
201306231415 METAR MRLM 231415Z 07010KT 5000 +RA OVC007 24/23 A2993=
201306231500 METAR MRLM 231500Z 23004KT 7000 -RA FEW005 BKN010 24/23 A2992=
201306231600 METAR MRLM 231600Z 25006KT 8000 DZ VCSH FEW005 BKN010 23/23 A2994=
201306231700 METAR MRLM 231700Z 26005KT 9999 DZ BKN015 SCT090 24/23 A2992=
201306231800 METAR MRLM 231800Z 27005KT 99999 FEW020 BKN110 26/24 A2990 REDZ=
201306231825 METAR MRLM 231825Z 31004KT 6000 RA BKN010 26/24 A2991=
201306231900 METAR MRLM 231900Z 23004KT 9999 DZ BKN010 SCT100 25/24 A2989 RERA=
201306232000 METAR MRLM 232000Z 25005KT 9999 FEW015 BKN110 27/24 A2987 REDZ=
201306232100 METAR MRLM 232100Z 26003KT CAVOK 28/23 A2984=
201306232200 METAR MRLM 232200Z 00000KT CAVOK 29/24 A2983=
201306232300 METAR MRLM 232300Z 21002KT 9999 FEW015 BKN110 27/24 A2985=
201306240000 METAR MRLM 240000Z 31003KT 9999 FEW010 BKN110 26/24 A2986=
201306240100 METAR MRLM NIL=
201306240200 METAR MRLM NIL=
201306240300 METAR MRLM NIL=
201306240400 METAR MRLM NIL=
201306240500 METAR MRLM NIL=
201306240600 METAR MRLM NIL=
201306240700 METAR MRLM NIL=
201306240800 METAR MRLM NIL=
201306240900 METAR MRLM NIL=
201306241000 METAR MRLM NIL=
201306241100 METAR MRLM NIL=
201306241200 METAR MRLM 241200Z 26003KT 9999 FEW015 SCT080 SCT140 23/22 A2989=
201306241300 METAR MRLM 241300Z 26004KT 9999 SCT015 SCT090 24/22 A2991=
201306241400 METAR MRLM 241400Z 35005KT 9999 BKN015 25/23 A2983=
201306241500 METAR MRLM 241500Z 30005KT 9999 +DZ SCT015 SCT025 28/23 A2995=
201306241553 METAR MRLM 2421600Z 33006KT 9999 FEW018 BKN025 28/24 A2994 REDZ=
201306241600 METAR MRLM 2421600Z 33006KT 9999 FEW018 BKN025 28/24 A2994 REDZ=
201306241700 METAR MRLM 241700Z 35010KT 9999 DZ VCSH SCT018 SCT025 27/24 A2995=
201306241800 METAR MRLM 241800Z 32005KT 9999 FEW025 SCT035 28/23 A2992 REDZ=
201306241859 METAR MRLM 241859Z 29005KT 9999 FEW025 BKN035 29/24 A29900=
201306241900 METAR MRLM 29005KT 9999 FEW025 BKN035 29/24 A29900=
201306242000 METAR MRLM 242000Z 00000KT 9999 VCSH BKN025 30/24 A2990=
201306242100 METAR MRLM 242100Z 00000KT 9999 SCT018 SCT035 27/24 A2989 RERA=
201306242200 METAR MRLM 242200Z 00000KT 9999 SCT015 SCT025 29/24 A2987=
201306242300 METAR MRLM 242300Z 00000KT 9999 +DZ BKN015 27/25 A2988=
201306250000 METAR MRLM 250000Z 00000KT 9999 BKN015 27/25 A2988 REDZ=
201306250100 METAR MRLM NIL=
201306250200 METAR MRLM NIL=
201306250300 METAR MRLM NIL=
201306250400 METAR MRLM NIL=
201306250500 METAR MRLM NIL=
201306250600 METAR MRLM NIL=
201306250700 METAR MRLM NIL=
201306250800 METAR MRLM NIL=
201306250900 METAR MRLM NIL=
201306251000 METAR MRLM NIL=
201306251100 METAR MRLM NIL=
201306251200 METAR MRLM 251200Z 280001KT 9999 SCT015 SCT080 24/22 A2990=
201306251300 METAR MRLM 251300Z 23006KT 9999 SCT020 SCT080 24/23 A2989=
201306251400 METAR MRLM 251400Z 24004KT 9999 SCT030 SCT090 26/23 A2991=
201306251500 METAR MRLM 251500Z 00000KT CAVOK 29/24 A2990=
201306251600 METAR MRLM 251600Z 03008KT 9999 FEW025 BKN080 29/24 A2993=
201306251700 METAR MRLM 251700Z 02006KT 9999 FEW020 SCT035 28/24 A2993=
201306251800 METAR MRLM 251800Z 07006KT 9999 FEW010 BKN020 27/24 A2994=
201306251900 METAR MRLM 251900Z 06020KT 4000 RA SCT005 SCT013 26/24 A2992 RETS=
201306252000 METAR MRLM 252000Z 03012KT 5000 TSRA SCT005 FEW CB010 SCT015 25/23 A2992=
201306252100 METAR MRLM 252100Z 30006KT 4000 RA BKN005 SCT010 23/23 A2993 RETS=
201306252200 METAR MRLM 252200Z 30006KT 5000 RA SCT005 SCT015 23/22 A2993=
201306252300 METAR MRLM 252300Z 31006KT 9999 FEW007 BKN020 23/22 A2995 RERA=
201306252354 METAR MRLM 260000Z 29006KT 9999 +DZ VCSH SCT020 SCT025 23/22 A2996=
201306260000 METAR MRLM 260000Z 29006KT 9999 +DZ VCSH SCT020 SCT025 23/22 A2996=
201306260100 METAR MRLM NIL=
201306260200 METAR MRLM NIL=
201306260300 METAR MRLM NIL=
201306260400 METAR MRLM NIL=
201306260500 METAR MRLM NIL=
201306260600 METAR MRLM NIL=
201306260700 METAR MRLM NIL=
201306260800 METAR MRLM NIL=
201306260900 METAR MRLM NIL=
201306261000 METAR MRLM NIL=
201306261100 METAR MRLM NIL=
201306261200 METAR MRLM 261200Z 26003KT 9999 BKN010 SCT100 23/22 A2989=
201306261300 METAR MRLM 261300Z 25004KT 9999 BKN015 SCT100 24/22 A2989=
201306261400 METAR MRLM 261400Z 28003KT 9999 FEW025 SCT120 SCT250 28/23 A2989=
201306261500 METAR MRLM 261500Z 06005KT 9999 FEW025 BKN130 29/24 A2991=
201306261600 METAR MRLM NIL=
201306261700 METAR MRLM NIL=
201306261800 METAR MRLM NIL=
201306261900 METAR MRLM NIL=
201306262000 METAR MRLM 262000Z 34005KT 9999 FEW030 BKN120 29/24 A2986=
201306262100 METAR MRLM 262100Z 32006KT 9999 FEW030 BKN120 29/24 A2986=
201306262200 METAR MRLM 262200Z 30004KT 9999 FEW020 SCT120 SCT250 28/24 A2984=
201306262300 METAR MRLM 262300Z 32002KT 9999 SCT020 SCT250 28/24 A2985=
201306270000 METAR MRLM 270000Z 30002KT 9999 SCT015 SCT250 27/24 A2986=
201306270100 METAR MRLM NIL=
201306270200 METAR MRLM NIL=
201306270300 METAR MRLM NIL=
201306270400 METAR MRLM NIL=
201306270500 METAR MRLM NIL=
201306270600 METAR MRLM NIL=
201306270700 METAR MRLM NIL=
201306270800 METAR MRLM NIL=
201306270900 METAR MRLM NIL=
201306271000 METAR MRLM NIL=
201306271100 METAR MRLM NIL=
201306271200 METAR MRLM 271200Z 28005KT 9999 FEW006 BKN010 24/23 A2989=
201306271300 METAR MRLM 271300Z 32004KT 9999 FEW006 BKN010 24/23 A2990=
201306271400 METAR MRLM 271400Z 31005KT 9999 BKN010 SCT100 25/23 A2991=
201306271500 METAR MRLM 271500Z 00000KT 9999 DZ BKN010 SCT100 26/24 A2993=
201306271600 METAR MRLM 271600Z 00000KT 9999 FEW007 SCT015 SCT100 26/24 A2994 REDZ=
201306271700 METAR MRLM 271700Z 27004KT 9999 DZ FEW007 BKN010 26/24 A2994=
201306271800 METAR MRLM 271800Z 23004KT 7000 -RA FEW006 BKN010 25/23 A2991=
201306271900 METAR MRLM 271900Z 32006KT 9999 DZ SCT007 SCT090 25/23 A2987=
201306272000 METAR MRLM 272000Z 30003KT 9999 BKN010 25/23 A2986 REDZ=
201306272100 METAR MRLM 272100Z 27006KT 9999 DZ SCT010 SCT090 24/23 A2987=
201306272200 METAR MRLM 272200Z 26005KT 9999 -DZ BKN010 24/23 A2987=
201306272300 METAR MRLM 272300Z 26005KT 9999 BKN010 SCT100 25/23 A2986=
201306280000 METAR MRLM 280000Z 26003KT 9999 SCT010 BKN100 24/23 A2988=
201306280100 METAR MRLM NIL=
201306280200 METAR MRLM NIL=
201306280300 METAR MRLM NIL=
201306280400 METAR MRLM NIL=
201306280500 METAR MRLM NIL=
201306280600 METAR MRLM NIL=
201306280700 METAR MRLM NIL=
201306280800 METAR MRLM NIL=
201306280900 METAR MRLM NIL=
201306281000 METAR MRLM NIL=
201306281100 METAR MRLM NIL=
201306281200 METAR MRLM 281200Z 25004KT 9999 FEW035 BKN080 24/22 A2988=
201306281253 METAR MRLM 281253Z 23003KT 9999 FEW035 BKN080 24/23 A2990=
201306281400 METAR MRLM 281400Z 26005KT 9999 SCT040 SCT080 26/23 A2990=
201306281500 METAR MRLM 281500Z 19003KT CAVOK 28/24 A2991=
201306281600 METAR MRLM 281600Z 26003KT CAVOK 30/23 A2990=
201306281700 METAR MRLM 281700Z 05005KT 9999 FEW025 SCT140 SCT270 30/24 A2988=
201306281800 METAR MRLM 281800Z 08005KT 9999 FEW025 SCT140 SCT270 30/24 A2986=
201306281900 METAR MRLM 281900Z 07006KT 9999 FEW030 SCT140 SCT270 30/24 A2984=
201306282000 METAR MRLM 282000Z 06005KT 9999 FEW030 SCT140 SCT270 30/24 A2983=
201306282100 METAR MRLM 282100Z 05003KT 9999 FEW035 SCT140 SCT270 30/23 A2981=
201306282200 METAR MRLM 282200Z 08004KT CAVOK 29/23 A2981=
201306282300 METAR MRLM 282300Z 11003KT CAVOK 29/22 A2981=
201306282356 METAR MRLM 29000Z 28004KT CAVOK 27/24 A2979=
201306290000 METAR MRLM 29000Z 28004KT CAVOK 27/24 A2979=
201306290100 METAR MRLM NIL=
201306290200 METAR MRLM NIL=
201306290300 METAR MRLM NIL=
201306290400 METAR MRLM NIL=
201306290500 METAR MRLM NIL=
201306290600 METAR MRLM NIL=
201306290700 METAR MRLM NIL=
201306290800 METAR MRLM NIL=
201306290900 METAR MRLM NIL=
201306291000 METAR MRLM NIL=
201306291100 METAR MRLM NIL=
201306291200 METAR MRLM 291200Z 25004KT CAVOK 23/22 A29860=
201306291300 METAR MRLM 291300Z 25003KT CAVOK 24/23 A2986=
201306291400 METAR MRLM 291400Z CAVOK 26/23 A2987=
201306291500 METAR MRLM 291500Z 18003KT CAVOK 27/23 A2989=
201306291600 METAR MRLM 291600Z 21001KT 9999 DZ FEW110 BKN140 29/24 A2989=
201306291700 METAR MRLM 291700Z 13010KT 9999 +DZ SCT015 SCT020 27/24 A2989=
201306291800 METAR MRLM 291800Z 16003KT 9999 FEW020 BKN090 27/24 A2987 REDZ=
201306291900 METAR MRLM 291900Z 22003KT 9999 FEW020 SCT080 SCT250 28/24 A2985=
201306292000 METAR MRLM 292000Z 12004KT CAVOK 28/24 A2982=
201306292100 METAR MRLM 292100Z 09004KT 9999 FEW030 SCT140 SCT260 29/23 A2981=
201306292200 METAR MRLM 292200Z 11002KT 9999 FEW028 SCT140 SCT260 29/24 A2980=
201306292300 METAR MRLM 292300Z 07002KT CAVOK 28/23 A2981=
201306292359 METAR MRLM 300000Z 00000KT CAVOK 27/24 A2984=
201306300000 METAR MRLM 300000Z 00000KT CAVOK 27/24 A2984=
201306300100 METAR MRLM NIL=
201306300200 METAR MRLM NIL=
201306300300 METAR MRLM NIL=
201306300400 METAR MRLM NIL=
201306300500 METAR MRLM NIL=
201306300600 METAR MRLM NIL=
201306300700 METAR MRLM NIL=
201306300800 METAR MRLM NIL=
201306300900 METAR MRLM NIL=
201306301000 METAR MRLM NIL=
201306301100 METAR MRLM NIL=
201306301200 METAR MRLM NIL=
201306301300 METAR MRLM 301300Z 18004KT CAVOK 27/23 A2985=
201306301400 METAR MRLM 301400Z 13005KT CAVOK 28/22 A2987=
201306301500 METAR MRLM 301500Z 13006KT CAVOK 29/22 A2988=
201306301600 METAR MRLM 301600Z 10003KT 9999 FEW035 BKN140 29/22 A2988=
201306301700 METAR MRLM 301700Z 10006KT 9999 FEW030 BKN130 29/23 A2986=
201306301800 METAR MRLM 301800Z 12006KT 9999 FEW030 SCT140 30/24 A2986=
201306301900 METAR MRLM 301900Z 11006KT 9999 FEW030 30/24 A2984=
201306302000 METAR MRLM 302000Z 10007KT 9999 FEW030 30/24 A2982=
201306302100 METAR MRLM 302100Z 12009KT 9999 SCT025 30/25 A2981=
201306302200 METAR MRLM NIL=
201306302300 METAR MRLM NIL=
201307010000 METAR MRLM NIL=
201307010100 METAR MRLM NIL=
201307010200 METAR MRLM NIL=
201307010300 METAR MRLM NIL=
201307010400 METAR MRLM NIL=
201307010500 METAR MRLM NIL=
201307010600 METAR MRLM NIL=
201307010700 METAR MRLM NIL=
201307010800 METAR MRLM NIL=
201307010900 METAR MRLM NIL=
201307011000 METAR MRLM NIL=
201307011100 METAR MRLM NIL=
201307011200 METAR MRLM NIL=
201307011300 METAR MRLM 011300Z 26004KT 9999 TS FEW010CB BKN025 SCT090 24/23 A2991=
201307011400 METAR MRLM 011400Z 25004KT 9999 SCT015 SCT020 24/23 A2991 RETS=
201307011500 METAR MRLM 011500Z 16003KT 9999 FEW012 BKN080 26/24 A2992=
201307011600 METAR MRLM 011600Z 19002KT 9999 FEW020 SCT090 SCT140 27/23 A2993 RETS=
201307011700 METAR MRLM 011700Z 11004KT 9999 FEW020 SCT090 SCT130 29/24 A2992=
201307011800 METAR MRLM 011800Z 09003KT 9999 SCT025 SCT230 29/24 A2990=
201307011900 METAR MRLM 011900Z 09004KT 9999 DZ FEW030 SCT090 SCT230 30/24 A2987=
201307012000 METAR MRLM 012000Z 06004KT 9999 FEW025 SCT130 SCT260 29/24 A2984 REDZ=
201307012100 METAR MRLM 012100Z 04004KT 9999 FEW025 BKN260 29/24 A2982=
201307012200 METAR MRLM NIL=
201307012300 METAR MRLM NIL=
201307020000 METAR MRLM NIL=
201307020100 METAR MRLM NIL=
201307020200 METAR MRLM NIL=
201307020300 METAR MRLM NIL=
201307020400 METAR MRLM NIL=
201307020500 METAR MRLM NIL=
201307020600 METAR MRLM NIL=
201307020700 METAR MRLM NIL=
201307020800 METAR MRLM NIL=
201307020900 METAR MRLM NIL=
201307021000 METAR MRLM NIL=
201307021100 METAR MRLM NIL=
201307021200 METAR MRLM NIL=
201307021300 METAR MRLM 021300Z 26003KT CAVOK 27/23 A2989=
201307021400 METAR MRLM 021400Z 07002KT CAVOK 29/23 A2991=
201307021500 METAR MRLM 021500Z 11004KT 9999 FEW030 BKN280 29/23 A2992=
201307021600 METAR MRLM 021600Z 10006KT 9999 FEW030 BKN280 30/24 A2992=
201307021700 METAR MRLM 021700Z 12007KT 9999 FEW030 BKN280 30/24 A2991=
201307021800 METAR MRLM 021800Z 11008KT 9999 FEW028 SCT140 SCT280 30/25 A2990=
201307021900 METAR MRLM 021900Z 11007KT 9999 FEW028 SCT140 SCT270 30/24 A2987=
201307022000 METAR MRLM 022000Z 10008KT 9999 FEW030 BKN250 30/24 A2984=
201307022100 METAR MRLM 022100Z 09006KT 9999 FEW025 BKN250 30/24 A2982=
201307022200 METAR MRLM NIL=
201307022300 METAR MRLM NIL=
201307030000 METAR MRLM NIL=
201307030100 METAR MRLM NIL=
201307030200 METAR MRLM NIL=
201307030300 METAR MRLM NIL=
201307030400 METAR MRLM NIL=
201307030500 METAR MRLM NIL=
201307030600 METAR MRLM NIL=
201307030700 METAR MRLM NIL=
201307030800 METAR MRLM NIL=
201307030900 METAR MRLM NIL=
201307031000 METAR MRLM NIL=
201307031100 METAR MRLM NIL=
201307031200 METAR MRLM NIL=
201307031300 METAR MRLM 031300Z 25004KT CAVOK 26/22 A2990=
201307031400 METAR MRLM 031400Z 20003KT CAVOK 29/24 A2991=
201307031500 METAR MRLM 031500Z 11005KT CAVOK 29/24 A2992=
201307031600 METAR MRLM 031600Z 09005KT CAVOK 29/22 A2993=
201307031700 METAR MRLM 031700Z 08006KT CAVOK 29/24 A2993=
201307031800 METAR MRLM NIL=
201307031900 METAR MRLM 031900Z 08006KT 9999 SCT025 BKN260 30/25 A2989=
201307032000 METAR MRLM 032000Z 07005KT 9999 FEW025 SCT270 30/24 A2987=
201307032100 METAR MRLM 032100Z 05003KT 9999 FEW023 BKN270 29/25 A2984=
201307032200 METAR MRLM NIL=
201307032300 METAR MRLM NIL=
201307040000 METAR MRLM NIL=
201307040100 METAR MRLM NIL=
201307040200 METAR MRLM NIL=
201307040300 METAR MRLM NIL=
201307040400 METAR MRLM NIL=
201307040500 METAR MRLM NIL=
201307040600 METAR MRLM NIL=
201307040700 METAR MRLM NIL=
201307040800 METAR MRLM NIL=
201307040900 METAR MRLM NIL=
201307041000 METAR MRLM NIL=
201307041100 METAR MRLM NIL=
201307041200 METAR MRLM NIL=
201307041300 METAR MRLM 041300Z 27003KT CAVOK 24/22 A2992=
201307041400 METAR MRLM 041400Z 29003KT 9999 FEW025 SCT080 SCT260 27/24 A2993=
201307041500 METAR MRLM 041500Z 34004KT 9999 FEW025 BKN080 29/24 A2993=
201307041600 METAR MRLM 041600Z 36009KT 9999 FEW035 SCT090 31/24 A2993=
201307041700 METAR MRLM 02011KT 9999 FEW030 SCT090 31/24 A2993=
201307041704 METAR MRLM 041704Z 02011KT 9999 FEW030 SCT090 31/24 A2993=
201307041800 METAR MRLM 041800Z 03009KT 9999 FEW025 SCT140 31/25 A2993=
201307041900 METAR MRLM 041900Z 03008KT 9999 FEW025 30/25 A2991=
201307042000 METAR MRLM 042000Z 05007KT 9999 FEW025 31/25 A2988=
201307042100 METAR MRLM 042100Z 07008KT 9999 SCT025 30/25 A2986=
201307042200 METAR MRLM NIL=
201307042300 METAR MRLM NIL=
201307050000 METAR MRLM NIL=
201307050100 METAR MRLM NIL=
201307050200 METAR MRLM NIL=
201307050300 METAR MRLM NIL=
201307050400 METAR MRLM NIL=
201307050500 METAR MRLM NIL=
201307050600 METAR MRLM NIL=
201307050700 METAR MRLM NIL=
201307050800 METAR MRLM NIL=
201307050900 METAR MRLM NIL=
201307051000 METAR MRLM NIL=
201307051100 METAR MRLM NIL=
201307051200 METAR MRLM NIL=
201307051300 METAR MRLM 051300Z 29003KT CAVOK 26/23 A2991=
201307051400 METAR MRLM 051400Z 26002KT 9999 FEW030 SCT090 SCT250 29/24 A2991=
201307051500 METAR MRLM 051500Z 07005KT 9999 FEW032 SCT110 30/23 A2992=
201307051600 METAR MRLM 051600Z 06006KT 9999 FEW030 SCT090 30/24 A2992=
201307051654 METAR MRLM 051654Z 06006KT 9999 FEW030 SCT110 30/24 A2991=
201307051700 METAR MRLM 06006KT 9999 FEW030 SCT110 30/24 A2991=
201307051800 METAR MRLM 051800Z 06007KT 9999 FEW025 SCT140 30/25 A2990=
201307051900 METAR MRLM 051900Z 05005KT 9999 FEW025 SCT230 30/25 A2989=
201307052000 METAR MRLM 052000Z 06005KT 9999 FEW028 BKN230 29/24 A2986=
201307052100 METAR MRLM 052100Z 04004KT 9999 FEW032 BKN250 31/24 A2984=
201307052200 METAR MRLM NIL=
201307052300 METAR MRLM NIL=
201307060000 METAR MRLM NIL=
201307060100 METAR MRLM NIL=
201307060200 METAR MRLM NIL=
201307060300 METAR MRLM NIL=
201307060400 METAR MRLM NIL=
201307060500 METAR MRLM NIL=
201307060600 METAR MRLM NIL=
201307060700 METAR MRLM NIL=
201307060800 METAR MRLM NIL=
201307060900 METAR MRLM NIL=
201307061000 METAR MRLM NIL=
201307061100 METAR MRLM NIL=
201307061200 METAR MRLM NIL=
201307061300 METAR MRLM 061300Z 27005KT CAVOK 26/23 A2987=
201307061400 METAR MRLM 061400Z 26004KT CAVOK 27/23 A2986=
201307061500 METAR MRLM NIL=
201307061600 METAR MRLM 061600Z 06005KT 9999 FEW030 BKN260 30/24 A2988=
201307061700 METAR MRLM 061700Z 05004KT 9999 FEW030 BKN270 30/24 A2987=
201307061800 METAR MRLM 061800Z 08005KT 9999 FEW030 BKN270 30/24 A2985=
201307061900 METAR MRLM 061900Z 07005KT 9999 FEW030 BKN270 31/24 A2983=
201307062000 METAR MRLM 062000Z 04006KT 9999 FEW030 SCT270 31/25 A2980=
201307062100 METAR MRLM 062100Z 03007KT 9999 FEW028 SCT270 30/24 A2979=
201307062200 METAR MRLM NIL=
201307062300 METAR MRLM NIL=
201307070000 METAR MRLM NIL=
201307070100 METAR MRLM NIL=
201307070200 METAR MRLM NIL=
201307070300 METAR MRLM NIL=
201307070400 METAR MRLM NIL=
201307070500 METAR MRLM NIL=
201307070600 METAR MRLM NIL=
201307070700 METAR MRLM NIL=
201307070800 METAR MRLM NIL=
201307070900 METAR MRLM NIL=
201307071000 METAR MRLM NIL=
201307071100 METAR MRLM NIL=
201307071200 METAR MRLM NIL=
201307071300 METAR MRLM 071300Z 21003KT 5000 TSRA BKN005 SCT010CB 23/22 A2988=
201307071400 METAR MRLM 071400Z 17003KT 6000 TSRA SCT010CB SCT015 23/22 A2992=
201307071500 METAR MRLM 071500Z 28003KT 6000 TSRA FEW010CB BKN015 23/23 A2992=
201307071600 METAR MRLM 071600Z 18003KT 8000 TSRA FEW010CB BKN020 23/23 A2990=
201307071700 METAR MRLM 071700Z 32004KT 9999 RA BKN020 24/23 A2988 RETS=
201307071800 METAR MRLM 071800Z 25004KT 8000 RA BKN015 24/23 A2989=
201307071900 METAR MRLM 071900Z 35002KT 9999 RA FEW007 BKN015 25/24 A2986=
201307072000 METAR MRLM 072000Z 26003KT 9999 SCT015 SCT090 25/23 A2982 RERA=
201307072100 METAR MRLM 072100Z 33003KT 9999 FEW025 SCT090 SCT140 26/23 A2982=
201307072200 METAR MRLM NIL=
201307072300 METAR MRLM NIL=
201307080000 METAR MRLM NIL=
201307080100 METAR MRLM NIL=
201307080200 METAR MRLM NIL=
201307080300 METAR MRLM NIL=
201307080400 METAR MRLM NIL=
201307080500 METAR MRLM NIL=
201307080600 METAR MRLM NIL=
201307080700 METAR MRLM NIL=
201307080800 METAR MRLM NIL=
201307080900 METAR MRLM NIL=
201307081000 METAR MRLM NIL=
201307081100 METAR MRLM NIL=
201307081200 METAR MRLM NIL=
201307081300 METAR MRLM 081300Z 00000KT 9999 SCT020 BKN080 24/22 A2991=
201307081400 METAR MRLM 081400Z 26004KT 9999 SCT020 SCT080 26/23 A2994=
201307081500 METAR MRLM 081500Z 24003KT 9999 DZ BKN080 SCT090 26/23 A2994 TS E=
201307081600 METAR MRLM 081600Z 21004KT 9999 DZ VCTS FEW010CB BKN090 26/24 A2994=
201307081700 METAR MRLM 081700Z 17005KT 9999 RA BKN070 26/23 2994 RETS=
201307081800 METAR MRLM 081800Z 05003KT 9999 +DZ VCSH SCT040 SCT080 26/23 A2990 RERA=
201307081900 METAR MRLM 081900Z 11009KT 9999 FEW015 BKN030 27/24 A2991 REDZ=
201307082000 METAR MRLM 08200Z 07003KT 8000 RA FEW015 BKN090 25/23 A2996=
201307082002 METAR MRLM 08200Z 07003KT 8000 RA FEW015 BKN090 25/23 A2996=
201307082100 METAR MRLM 082100Z 03005KT 8000 RA FEW006 BKN030 24/23 A2986=
201307082200 METAR MRLM NIL=
201307082300 METAR MRLM NIL=
201307090000 METAR MRLM NIL=
201307090100 METAR MRLM NIL=
201307090200 METAR MRLM NIL=
201307090300 METAR MRLM NIL=
201307090400 METAR MRLM NIL=
201307090500 METAR MRLM NIL=
201307090600 METAR MRLM NIL=
201307090700 METAR MRLM NIL=
201307090800 METAR MRLM NIL=
201307090900 METAR MRLM NIL=
201307091000 METAR MRLM NIL=
201307091100 METAR MRLM NIL=
201307091200 METAR MRLM NIL=
201307091300 METAR MRLM 091300Z 25004KT CAVOK 24/22 A2990=
201307091400 METAR MRLM 091400Z 25004KT 9999 SCT040 SCT080 26/23 A2991=
201307091500 METAR MRLM 091500Z 00000KT CAVOK 28/24 A2993=
201307091600 METAR MRLM 091600Z 24006KR CAVOK 30/24 A2994=
201307091700 METAR MRLM 091700Z 34009KT 9999 FEW035 BKN270 30/23 A2993=
201307091800 METAR MRLM 091800Z 36007KT 9999 FEW030 BKN270 30/24 A2993=
201307091900 METAR MRLM 091900Z 02008KT 9999 FEW032 BKN270 31/24 A2990=
201307092000 METAR MRLM 092000Z 02008KT 9999 FEW025 BKN270 30/25 A2988=
201307092100 METAR MRLM 092100Z 05004KT 9999 FEW025 BKN270 30/25 A2986=
201307092200 METAR MRLM NIL=
201307092300 METAR MRLM NIL=
201307100000 METAR MRLM NIL=
201307100100 METAR MRLM NIL=
201307100200 METAR MRLM NIL=
201307100300 METAR MRLM NIL=
201307100400 METAR MRLM NIL=
201307100500 METAR MRLM NIL=
201307100600 METAR MRLM NIL=
201307100700 METAR MRLM NIL=
201307100800 METAR MRLM NIL=
201307100900 METAR MRLM NIL=
201307101000 METAR MRLM NIL=
201307101100 METAR MRLM NIL=
201307101200 METAR MRLM NIL=
201307101300 METAR MRLM 101300Z 25004KT 9999 FEW015 SCT030 SCT100 25/24 A2989=
201307101400 METAR MRLM 101400Z 24003KT 9999 VCSH FEW015 BKN030 26/24 A2990=
201307101425 METAR MRLM 101425Z 36003KT 2000 RA FEW015 BKN025 26/24 A2992=
201307101500 METAR MRLM 101500Z 21002KT 9999 FEW008 BKN015 26/25 A2992 RERA=
201307101600 METAR MRLM 101600Z 21003KT 9999 BKN015 28/25 A2990=
201307101700 METAR MRLM 101700Z 31003KT 9999 FEW025 BKN270 30/25 A2988=
201307101800 METAR MRLM 101800Z 06004KT 9999 FEW025 BKN270 30/25 A2987=
201307101900 METAR MRLM 101900Z 04006KT 9999 FEW025 BKN270 30/25 A2985=
201307102000 METAR MRLM 102000Z 04008KT 9999 FEW025 SCT140 SCT270 31/25 A2984=
201307102100 METAR MRLM 102100Z 04013KT 9999 DZ FEW015 SCT080 SCT140 27/25 A2983=
201307102200 METAR MRLM NIL=
201307102300 METAR MRLM NIL=
201307110000 METAR MRLM NIL=
201307110100 METAR MRLM NIL=
201307110200 METAR MRLM NIL=
201307110300 METAR MRLM NIL=
201307110400 METAR MRLM NIL=
201307110500 METAR MRLM NIL=
201307110600 METAR MRLM NIL=
201307110700 METAR MRLM NIL=
201307110800 METAR MRLM NIL=
201307110900 METAR MRLM NIL=
201307111000 METAR MRLM NIL=
201307111100 METAR MRLM NIL=
201307111200 METAR MRLM NIL=
201307111300 METAR MRLM 111300Z 30001KT 9999 VCTSRA FEWCB010 SCT015 SCT080 24/23 A2986=
201307111400 METAR MRLM 111400Z 36008KT 8000 3000NW RA BKN015 25/23 A2990 RETS=
201307111500 METAR MRLM 111500Z 32002KT 9999 +DZ BKN015 25/23 A2992=
201307111600 METAR MRLM 111600Z 28003KT 9999 RA FEW007 OVC015 25/23 A2993 REDZ=
201307111700 METAR MRLM 111700Z 29004KT 9999 FEW010 OVC020 25/24 A2991 RERA=
201307111800 METAR MRLM 111800Z 25002KT 9999 DZ SCT012 SCT025 26/23 A2990=
201307111900 METAR MRLM 111900Z 21093KT 9999 +DZ FEW010 BKN025 26/24 A2987=
201307112000 METAR MRLM 112000Z 17004KT 9999 FEW012 BKN100 26/24 A2986 REDZ=
201307112100 METAR MRLM 112100Z 17002KT 9999 FEW015 SCT090 SCT140 26/24 A2984=
201307112200 METAR MRLM NIL=
201307112300 METAR MRLM NIL=
201307120000 METAR MRLM NIL=
201307120100 METAR MRLM NIL=
201307120200 METAR MRLM NIL=
201307120300 METAR MRLM NIL=
201307120400 METAR MRLM NIL=
201307120500 METAR MRLM NIL=
201307120600 METAR MRLM NIL=
201307120700 METAR MRLM NIL=
201307120800 METAR MRLM NIL=
201307120900 METAR MRLM NIL=
201307121000 METAR MRLM NIL=
201307121100 METAR MRLM NIL=
201307121200 METAR MRLM NIL=
201307121300 METAR MRLM 121300Z 24005KT CAVOK 26/23 A2989=
201307121400 METAR MRLM 121400Z 29002KT CAVOK 30/23 A2990=
201307121500 METAR MRLM 121500Z 08004KT 9999 FEW030 SCT140 SCT280 30/23 A2990=
201307121600 METAR MRLM NIL=
201307121700 METAR MRLM 121700Z 04004KT 9999 FEW030 SCT140 SCT270 30/23 A2990=
201307121800 METAR MRLM 121800Z 06006KT 9999 FEW030 SCT140 SCT270 30/23 A2988=
201307121900 METAR MRLM 121900Z 08005KT 9999 FEW030 SCT140 SCT270 30/23 A2986=
201307122000 METAR MRLM 122000Z 09005KT 9999 FEW035 BKN270 30/23 A2984=
201307122100 METAR MRLM 122100Z 08005KT 9999 FEW035 SCT140 SCT270 30/24 A2982=
201307122200 METAR MRLM NIL=
201307122300 METAR MRLM NIL=
201307130000 METAR MRLM NIL=
201307130100 METAR MRLM NIL=
201307130200 METAR MRLM NIL=
201307130300 METAR MRLM NIL=
201307130400 METAR MRLM NIL=
201307130500 METAR MRLM NIL=
201307130600 METAR MRLM NIL=
201307130700 METAR MRLM NIL=
201307130800 METAR MRLM NIL=
201307130900 METAR MRLM NIL=
201307131000 METAR MRLM NIL=
201307131100 METAR MRLM NIL=
201307131200 METAR MRLM NIL=
201307131300 METAR MRLM 131300Z 24003KT 9999 FEW020 27/23 A2990=
201307131400 METAR MRLM 131400Z 10003KT 9999 FEW020 30/24 A2992=
201307131500 METAR MRLM 131500Z 11005KT 9999 SCT028 30/24 A2992=
201307131600 METAR MRLM 131600Z 09007KT 9999 SCT028 30/24 A2992=
201307131700 METAR MRLM 131700Z 09006KT 9999 FEW030 30/24 A2991=
201307131800 METAR MRLM 131800Z 08006KT 9999 FEW030 SCT280 30/24 A2988=
201307131900 METAR MRLM 131900Z 07010KT 9999 FEW035 SCT280 31/24 A2985=
201307132000 METAR MRLM 132000Z 07008KT 9999 FEW030 SCT270 30/24 A2984=
201307132100 METAR MRLM 132100Z 07007KT 9999 FEW035 BKN270 30/24 A2982=
201307132200 METAR MRLM NIL=
201307132300 METAR MRLM NIL=
201307140000 METAR MRLM NIL=
201307140100 METAR MRLM NIL=
201307140200 METAR MRLM NIL=
201307140300 METAR MRLM NIL=
201307140400 METAR MRLM NIL=
201307140500 METAR MRLM NIL=
201307140600 METAR MRLM NIL=
201307140700 METAR MRLM NIL=
201307140800 METAR MRLM NIL=
201307140900 METAR MRLM NIL=
201307141000 METAR MRLM NIL=
201307141100 METAR MRLM NIL=
201307141200 METAR MRLM NIL=
201307141300 METAR MRLM 141300Z 23004KT 9999 FEW015 SCT070 SCT080 25/22 A2988=
201307141400 METAR MRLM 141400Z 25004KT 9999 FEW030 BKN080 27/22 A2988=
201307141500 METAR MRLM 1141500Z 27003KT 9999 FEW030 BKN080 28/22 A2990=
201307141505 METAR MRLM 1141500Z 27003KT 9999 FEW030 BKN080 28/22 A2990=
201307141600 METAR MRLM 141600Z 23003KT 9999 FEW033 BKN080 29/23 A2989=
201307141658 METAR MRLM 1417000Z 10004KT 9999 FEW040 SCT080 31/23 A2987 RETS=
201307141700 METAR MRLM 1417000Z 10004KT 9999 FEW040 SCT080 31/23 A2987 RETS=
201307141800 METAR MRLM 141800Z 12006KT 9999 SCT035 SCT080 31/23 A2987=
201307141900 METAR MRLM 141900Z 13006KT 9999 FEW028 BKN080 29/23 A2985 REDZ=
201307142000 METAR MRLM 142000Z 12005KT 9999 FEW030 SCT090 SCT280 30/24 A2983=
201307142100 METAR MRLM 142100Z 10005KT 9999 FEW030 BKN080 30/24 A2981=
201307142200 METAR MRLM NIL=
201307142300 METAR MRLM NIL=
201307150000 METAR MRLM NIL=
201307150100 METAR MRLM NIL=
201307150200 METAR MRLM NIL=
201307150300 METAR MRLM NIL=
201307150400 METAR MRLM NIL=
201307150500 METAR MRLM NIL=
201307150600 METAR MRLM NIL=
201307150700 METAR MRLM NIL=
201307150800 METAR MRLM NIL=
201307150900 METAR MRLM NIL=
201307151000 METAR MRLM NIL=
201307151100 METAR MRLM NIL=
201307151200 METAR MRLM NIL=
201307151300 METAR MRLM 151300Z 24004KT 9999 BKN015 25/24 A2986=
201307151400 METAR MRLM 151400Z 27003KT 9999 DZ OVC015 26/24 A2983=
201307151500 METAR MRLM 151500Z 36003KT 9999 DZ VCSH BKN015 28/25 A2988=
201307151600 METAR MRLM 151600Z 01005KT 9999 BKN020TCU 28/24 A2988 REDZ=
201307151700 METAR MRLM 151700Z 09003KT 9999 SCTTCU030 SCT280 30/24 A2986=
201307151800 METAR MRLM 151800Z 09006KT 9999 SCT030 SCT080 30/24 A2985=
201307151900 METAR MRLM 151900Z 11006KT 9999 SCT035 SCT080 30/23 A2983=
201307152000 METAR MRLM 152000Z 09009KT 9999 OVC030 31/24 A2981=
201307152100 METAR MRLM 152100Z 08009KT 9999 OVC030 30/24 A2980=
201307152200 METAR MRLM NIL=
201307152300 METAR MRLM NIL=
201307160000 METAR MRLM NIL=
201307160100 METAR MRLM NIL=
201307160200 METAR MRLM NIL=
201307160300 METAR MRLM NIL=
201307160400 METAR MRLM NIL=
201307160500 METAR MRLM NIL=
201307160600 METAR MRLM NIL=
201307160700 METAR MRLM NIL=
201307160800 METAR MRLM NIL=
201307160900 METAR MRLM NIL=
201307161000 METAR MRLM NIL=
201307161100 METAR MRLM NIL=
201307161200 METAR MRLM 161200Z 24004KT 9999 SCT010 SCT250 23/22 A2985=
201307161300 METAR MRLM 161300Z 24004KT 9999 SCT015 SCT250 24/22 A2987=
201307161400 METAR MRLM 161400Z 32006KT 9999 DZ SCT015 BKN110 25/22 A2989=
201307161500 METAR MRLM 161500Z 24003KT 9999 SCT015 SCT120 26/23 A2992=
201307161600 METAR MRLM 161600Z 00000KT 9999 DZ BKN015 SCT110 26/23 A2991=
201307161700 METAR MRLM 161700Z 10003KT 9999 +DZ SCT010 SCTT110 26/23 A2990=
201307161800 METAR MRLM 161800Z 01003KT 9999 FEW010 SCT120 SCT250 26/23 A2986 REDZ=
201307161900 METAR MRLM 161900Z 31002KT 9999 -DZ SCT015 SCT120 27/23 A2985=
201307162000 METAR MRLM 162000Z 00000KT 9999 FEW020 SCT130 SCT250 27/24 A2981=
201307162100 METAR MRLM 162100Z 32005KT 9999 -DZ FEW020 SCT130 SCT250 27/23 A2978=
201307162200 METAR MRLM 162200Z 20003KT CAVOK 27/24 A2979=
201307162300 METAR MRLM 162300Z 30003KT 9999 FEW020 BKN240 27/24 A2980=
201307170000 METAR MRLM 170000Z 00000KT 9999 FEW015 BKN120 27/24 A2984=
201307170100 METAR MRLM NIL=
201307170200 METAR MRLM NIL=
201307170300 METAR MRLM NIL=
201307170400 METAR MRLM NIL=
201307170500 METAR MRLM NIL=
201307170600 METAR MRLM NIL=
201307170700 METAR MRLM NIL=
201307170800 METAR MRLM NIL=
201307170900 METAR MRLM NIL=
201307171000 METAR MRLM NIL=
201307171100 METAR MRLM NIL=
201307171200 METAR MRLM 171200Z 26005KT 9999 SCT010 SCT100 23/22 A2985=
201307171300 METAR MRLM 171300Z 27003KT 9999 FEW010 SCT110 SCT240 24/22 A2986=
201307171400 METAR MRLM 171400Z 25003KT 9999 SCT015 SCT110 25/23 A2988=
201307171500 METAR MRLM 171500Z 26004KT 9999 SCT020 SCT110 27/23 A2989=
201307171600 METAR MRLM 171600Z 26004KT 9999 -DZ FEW020 BKN120 28/24 A2989=
201307171700 METAR MRLM 171700Z 30003KT 9999 FEW035 SCT130 31/23 A2987=
201307171800 METAR MRLM 171800Z 05004KT 9999 FEW030 SCT250 31/24 A2984=
201307171900 METAR MRLM 171900Z 06006KT 9999 FEW030 SCT140 31/24 A2984=
201307172000 METAR MRLM 172000Z 03006KT 9999 FEW030 BKN130 30/24 A2981=
201307172100 METAR MRLM 172100Z 01009KT 9999 FEW030 BKN130 30/25 A2976=
201307172200 METAR MRLM 172200Z 36009KT 9999 FEW025 BKN120 30/25 A2978=
201307172300 METAR MRLM 172300Z 03014KT 9999 BKN015 28/26 A2982=
201307180000 METAR MRLM 180000Z 02011KT 9999 SCT015 SCT120 28/25 A2982=
201307180100 METAR MRLM NIL=
201307180200 METAR MRLM NIL=
201307180300 METAR MRLM NIL=
201307180400 METAR MRLM NIL=
201307180500 METAR MRLM NIL=
201307180600 METAR MRLM NIL=
201307180700 METAR MRLM NIL=
201307180800 METAR MRLM NIL=
201307180900 METAR MRLM NIL=
201307181000 METAR MRLM NIL=
201307181100 METAR MRLM NIL=
201307181200 METAR MRLM 181200Z 28002KT 9999 SCT025 SCT090 24/23 A2989=
201307181300 METAR MRLM 181300Z 30005KT 9999 BKN020 24/23 A2989=
201307181400 METAR MRLM 181400Z 30005KT 9999 FEW015 SCT090 SCT260 25/23 A2991=
201307181500 METAR MRLM 181500Z 30006KT CAVOK 28/23 A2990=
201307181600 METAR MRLM 181600Z 32007KT CAVOK 30/23 A2988=
201307181700 METAR MRLM 181700Z 35005KT 9999 FEW040 BKN070 30/22 A2989=
201307181800 METAR MRLM 181800Z 03006KT 9999 FEW035 BKN080 30/23 A2988=
201307181900 METAR MRLM 181900Z 03008KT 9999 FEW030 BKN080 30/24 A2987=
201307182000 METAR MRLM 182000Z 02005KT 9999 FEW030 SCT140 SCT260 30/24 A2983=
201307182100 METAR MRLM 182100Z 33007KT 9999 FEW030 BKN090 30/24 A2982=
201307182200 METAR MRLM 182200Z 04009KT 9999 FEW030 BKN080 30/24 A2982=
201307182300 METAR MRLM NIL=
201307182355 METAR MRLM 19000Z 04006KT 9999 FEW020 BKN080 28/24 A2986=
201307190000 METAR MRLM 19000Z 04006KT 9999 FEW020 BKN080 28/24 A2986=
201307190100 METAR MRLM NIL=
201307190200 METAR MRLM NIL=
201307190300 METAR MRLM NIL=
201307190400 METAR MRLM NIL=
201307190500 METAR MRLM NIL=
201307190600 METAR MRLM NIL=
201307190700 METAR MRLM NIL=
201307190800 METAR MRLM NIL=
201307190900 METAR MRLM NIL=
201307191000 METAR MRLM NIL=
201307191100 METAR MRLM NIL=
201307191200 METAR MRLM 191200Z 24005KT 9999 RA SCT030 SCT090 24/23 A2987=
201307191300 METAR MRLM 191300Z 28003KT 9999 FEW025 SCT090 SCT140 24/23 A2988 RERA=
201307191400 METAR MRLM 191400Z 27002KT 9999 FEW025 SCT090 SCT250 26/25 A2991=
201307191500 METAR MRLM 191500Z 30004KT 9999 FEW015 BKN080 27/25 A2993=
201307191600 METAR MRLM 191600Z 32004KT 9999 SCT025 SCT080 27/24 A2993=
201307191700 METAR MRLM 191700Z 30004KT 9999 FEW015 SCT030 SCT140 28/25 A2992=
201307191800 METAR MRLM 191800Z 33009KT 9999 SCT020 SCT150 28/24 A2992=
201307191900 METAR MRLM 191900Z 34008KT 9999 BKN023 28/24 A2990=
201307192000 METAR MRLM 192000Z 32007KT 9999 SCT022 SCT140 28/23 A2987=
201307192100 METAR MRLM 192100Z 32003KT 9999 FEW020 BKN140 27/23 A2983=
201307192200 METAR MRLM 192200Z 29004KT CAVOK 27/24 A2981=
201307192300 METAR MRLM 192300Z 34008KT CAVOK 27/23 A2983=
201307192358 METAR MRLM 20000Z 27005KT 9999 FEW015 BKN140 26/23 A2982=
201307200000 METAR MRLM 20000Z 27005KT 9999 FEW015 BKN140 26/23 A2982=
201307200100 METAR MRLM NIL=
201307200200 METAR MRLM NIL=
201307200300 METAR MRLM NIL=
201307200400 METAR MRLM NIL=
201307200500 METAR MRLM NIL=
201307200600 METAR MRLM NIL=
201307200700 METAR MRLM NIL=
201307200800 METAR MRLM NIL=
201307200900 METAR MRLM NIL=
201307201000 METAR MRLM NIL=
201307201100 METAR MRLM NIL=
201307201200 METAR MRLM 201200Z 25004KT 9999 FEW010 BKN100 23/22 A2985=
201307201300 METAR MRLM 201300Z 25003KT CAVOK 25/23 A2984=
201307201400 METAR MRLM 201400Z 25002KT 9999 SCT020 BKN110 27/23 A2988=
201307201500 METAR MRLM 201500Z 00000KT 9999 FEW020 BKN110 28/23 A2990=
201307201600 METAR MRLM 201600Z 03003KT 9999 FEW025 BKN120 29/23 A2991=
201307201700 METAR MRLM 201700Z 33002KT 9999 FEW020 SCT120 SCT240 28/23 A2989=
201307201800 METAR MRLM 201800Z 33004KT CAVOK 28/23 A2986=
201307201900 METAR MRLM 201900Z 30002KT CAVOK 29/24 A2982=
201307202000 METAR MRLM 202000Z 04007KT 9999 FEW020 BKN250 28/24 A2982=
201307202100 METAR MRLM 202100Z 02006KT 9999 SCT020 BKN250 28/24 A2978=
201307202200 METAR MRLM 202200Z 03003KT 9999 FEW020 BKN130 28/24 A2981=
201307202300 METAR MRLM 202300Z 00000KT 9999 FEW020 BKN120 28/25 A2982=
201307210000 METAR MRLM 210000Z 32003KT 9999 FEW015 BKN110 27/24 A2983=
201307210100 METAR MRLM NIL=
201307210200 METAR MRLM NIL=
201307210300 METAR MRLM NIL=
201307210400 METAR MRLM NIL=
201307210500 METAR MRLM NIL=
201307210600 METAR MRLM NIL=
201307210700 METAR MRLM NIL=
201307210800 METAR MRLM NIL=
201307210900 METAR MRLM NIL=
201307211000 METAR MRLM NIL=
201307211100 METAR MRLM NIL=
201307211200 METAR MRLM 211200Z 00000KT 9999 DZ SCT010 BKN100 23/22 A2985=
201307211300 METAR MRLM 211300Z 00000KT 9999 DZ FEW010 SCT100 SCT240 24/23 A2985=
201307211400 METAR MRLM 211400Z 19002KT 9999 -DZ FEW010 SCT120 SCT250 25/24 A2986=
201307211500 METAR MRLM 211500Z 20002KT 9999 -DZ FEW010 SCT120 SCT250 26/24 A2988=
201307211600 METAR MRLM 211600Z 23002KT 9999 -DZ FEW015 SCT130 SCT250 26/24 A2988=
201307211700 METAR MRLM 211700Z 34003KT 9999 -DZ SCT020 SCT130 27/24 A2989=
201307211800 METAR MRLM 211800Z 33003KT 9999 DZ SCT015 BKN130 27/24 A2989=
201307211900 METAR MRLM 211900Z 34004KT 9999 SCT015 BKN130 27/24 A2986=
201307212000 METAR MRLM 212000Z 32004KT 9999 BKN020 28/24 A2984=
201307212100 METAR MRLM 212100Z 35006KT 9999 SCT020 SCT140 28/24 A2982=
201307212200 METAR MRLM 212200Z 01006KT 9999 SCT020 SCT130 28/24 A2982=
201307212300 METAR MRLM 212300Z 04009KT 9999 BKN015 27/24 A2983=
201307220000 METAR MRLM 220000Z 03007KT 9999 FEW010 SCT130 SCT250 27/24 A2984=
201307220100 METAR MRLM NIL=
201307220200 METAR MRLM NIL=
201307220300 METAR MRLM NIL=
201307220400 METAR MRLM NIL=
201307220500 METAR MRLM NIL=
201307220600 METAR MRLM NIL=
201307220700 METAR MRLM NIL=
201307220800 METAR MRLM NIL=
201307220900 METAR MRLM NIL=
201307221000 METAR MRLM NIL=
201307221100 METAR MRLM NIL=
201307221200 METAR MRLM NIL=
201307221300 METAR MRLM NIL=
201307221400 METAR MRLM 221400Z 29003KT 9999 FEW015 BKN120 26/23 A2992=
201307221500 METAR MRLM 221500Z 26003KT 9999 FEW015 SCT120 SCT250 27/24 A2992=
201307221600 METAR MRLM 221600Z 32002KT 9999 SCT020 SCT120 28/24 A2994=
201307221700 METAR MRLM 221700Z 01005KT 9999 DZ BKN015 27/24 A2994=
201307221800 METAR MRLM 221800Z 33003KT 8000 3000N +RA BKN010 26/24 A2992=
201307221900 METAR MRLM 221900Z 05005KT 8000 RA BKN010 25/24 A2991=
201307222000 METAR MRLM 222000Z 15007KT 9999 RA BKN010 25/23 A2990=
201307222100 METAR MRLM 222100Z 25002KT 9999 RA SCT010 BKN090 24/23 A2989=
201307222200 METAR MRLM NIL=
201307222300 METAR MRLM NIL=
201307230000 METAR MRLM NIL=
201307230100 METAR MRLM NIL=
201307230200 METAR MRLM NIL=
201307230300 METAR MRLM NIL=
201307230400 METAR MRLM NIL=
201307230500 METAR MRLM NIL=
201307230600 METAR MRLM NIL=
201307230700 METAR MRLM NIL=
201307230800 METAR MRLM NIL=
201307230900 METAR MRLM NIL=
201307231000 METAR MRLM NIL=
201307231100 METAR MRLM NIL=
201307231200 METAR MRLM NIL=
201307231300 METAR MRLM 231300Z 27004KT 9999 SCT010 BKN110 23/22 A2992=
201307231400 METAR MRLM 231400Z 26003KT 9999 FEW010 BKN110 24/22 A2992=
201307231500 METAR MRLM 231500Z 27005KT CAVOK 26/23 A2989=
201307231600 METAR MRLM 231600Z 33006KT CAVOK 29/22 A2988=
201307231700 METAR MRLM 231700Z 36007KT 9999 FEW030 BKN130 30/24 A2991=
201307231800 METAR MRLM 231800Z 35010KT 9999 FEW030 BKN130 29/23 A2988=
201307231900 METAR MRLM 231900Z 34008KT 9999 SCT030 BKN130 29/23 A2987=
201307232000 METAR MRLM 232000Z 36007KT 9999 VCTS SCT020 SCT120 27/24 A2986=
201307232100 METAR MRLM 232100Z 00000KT 9999 DZ SCT015 BKN110 26/24 A2986=
201307232200 METAR MRLM NIL=
201307232300 METAR MRLM NIL=
201307240000 METAR MRLM NIL=
201307240100 METAR MRLM NIL=
201307240200 METAR MRLM NIL=
201307240300 METAR MRLM NIL=
201307240400 METAR MRLM NIL=
201307240500 METAR MRLM NIL=
201307240600 METAR MRLM NIL=
201307240700 METAR MRLM NIL=
201307240800 METAR MRLM NIL=
201307240900 METAR MRLM NIL=
201307241000 METAR MRLM NIL=
201307241100 METAR MRLM NIL=
201307241200 METAR MRLM NIL=
201307241300 METAR MRLM 241300Z 31006KT 9999 SCT010 SCT110 24/23 A2985=
201307241400 METAR MRLM 241400Z 30003KT 9999 DZ SCT010 SCT120 26/24 A2985=
201307241500 METAR MRLM 241500Z 00000KT 9999 FEW020 BKN130 29/24 A2984 REDZ=
201307241600 METAR MRLM 241600Z 31002KT 9999 SCT020 SCT120 29/24 2985=
201307241700 METAR MRLM 241700Z 02010KT 9999 DZ BKN015 27/25 A2985=
201307241800 METAR MRLM 241800Z 00000KT 9999 SCT020 30/25 A2983 REDZ=
201307241900 METAR MRLM 241900Z 10002KT 7000 3000N RA BKN015 28/25 A2983=
201307242000 METAR MRLM 242000Z 22004KT 9999 DZ SCT010 SCT100 25/24 A2981 RERA=
201307242100 METAR MRLM 242100Z 25002KT 9999 BKN010 SCT110 26/24 A2980 REDZ=
201307242200 METAR MRLM NIL=
201307242300 METAR MRLM NIL=
201307250000 METAR MRLM NIL=
201307250100 METAR MRLM NIL=
201307250200 METAR MRLM NIL=
201307250300 METAR MRLM NIL=
201307250400 METAR MRLM NIL=
201307250500 METAR MRLM NIL=
201307250600 METAR MRLM NIL=
201307250700 METAR MRLM NIL=
201307250800 METAR MRLM NIL=
201307250900 METAR MRLM NIL=
201307251000 METAR MRLM NIL=
201307251100 METAR MRLM NIL=
201307251200 METAR MRLM NIL=
201307251300 METAR MRLM 251300Z 25004KT 9999 -DZ SCT010 SCT100 24/23 A2985=
201307251400 METAR MRLM 251400Z 30004KT 9999 SCT010 SCT110 25/24 A2987=
201307251500 METAR MRLM 251500Z 28002KT 9999 DZ SCT010 BKN120 27/25 A2987=
201307251600 METAR MRLM 251600Z 00000KT 9999 FEW020 BKN250 29/25 A2985 REDZ=
201307251700 METAR MRLM 251700Z 08004KT 9999 FEW020 SCT140 SCT260 29/25 A2986=
201307251800 METAR MRLM 251800Z 06007KT 9999 FEW020 SCT140 SCT260 30/25 A2986=
201307251900 METAR MRLM 251900Z 04004KT CAVOK 30/25 A2982=
201307252000 METAR MRLM 252000Z 05006KT 9999 FEW030 SCT260 30/25 A2982=
201307252100 METAR MRLM 252100Z 05008KT 9999 FEW025 SCT260 30/25 A2981=
201307252200 METAR MRLM NIL=
201307252300 METAR MRLM NIL=
201307260000 METAR MRLM NIL=
201307260100 METAR MRLM NIL=
201307260200 METAR MRLM NIL=
201307260300 METAR MRLM NIL=
201307260400 METAR MRLM NIL=
201307260500 METAR MRLM NIL=
201307260600 METAR MRLM NIL=
201307260700 METAR MRLM NIL=
201307260800 METAR MRLM NIL=
201307260900 METAR MRLM NIL=
201307261000 METAR MRLM NIL=
201307261100 METAR MRLM NIL=
201307261200 METAR MRLM NIL=
201307261300 METAR MRLM 261300Z 26006KT 4000 +RA FEW006 OVC010 23/22 A2998=
201307261400 METAR MRLM 261400Z 28006KT 4000 +RA FEW006 OVC010 23/22 A2998=
201307261500 METAR MRLM 261500Z 24004KT 8000 RA SCT010 BKN080 23/22 A2999=
201307261600 METAR MRLM 261600Z 26003KT 8000 DZ VCSH FEW006 BKN015 24/23 A3000 RERA=
201307261700 METAR MRLM 261700Z 24003KT 8000 DZ OVC007 24/23 A3000=
201307261800 METAR MRLM 261800Z 25003KT 9999 DZ BKN010 SCT090 24/23 A2996=
201307261900 METAR MRLM 261900Z 19004KT 9999 FEW015 BKN100 26/23 A2991 REDZ=
201307262000 METAR MRLM 262000Z 00000KT 9999 FEW020 BKN110 27/23 A2991=
201307262100 METAR MRLM 262100Z 25003KT 9999 FEW015 BKN120 26/24 A2989=
201307262200 METAR MRLM NIL=
201307262300 METAR MRLM NIL=
201307270000 METAR MRLM NIL=
201307270100 METAR MRLM NIL=
201307270200 METAR MRLM NIL=
201307270300 METAR MRLM NIL=
201307270400 METAR MRLM NIL=
201307270500 METAR MRLM NIL=
201307270600 METAR MRLM NIL=
201307270700 METAR MRLM NIL=
201307270800 METAR MRLM NIL=
201307270900 METAR MRLM NIL=
201307271000 METAR MRLM NIL=
201307271100 METAR MRLM NIL=
201307271200 METAR MRLM NIL=
201307271300 METAR MRLM 271300Z 26004KT 9999 DZ SCT007 SCT090 24/23 A2993=
201307271400 METAR MRLM 271400Z 24006KT 9999 -DZ SCT010 SCT100 25/24 A2993=
201307271500 METAR MRLM 271500Z 21004KT 5000 +RA BKN007 25/23 A2995=
201307271600 METAR MRLM 271600Z 00000KT 5000 RA BKN007 25/23 A2994=
201307271700 METAR MRLM 271700Z COR 11013G23KT 2000 SHRA OVC006 23/22 A2997=
201307271800 METAR MRLM 271800Z 19003KT 6000 RA OVC007 23/22 A2996=
201307271900 METAR MRLM 271900Z 24004KT 9999 DZ BKN010 23/22 A2990 RERA=
201307272000 METAR MRLM 272000Z 32005KT 9999 DZ SCT010 BKN110 23/22 A2987=
201307272100 METAR MRLM 272100Z 32003KT 9999 FEW015 BKN120 24/23 A2985 REDZ=
201307272200 METAR MRLM NIL=
201307272300 METAR MRLM NIL=
201307280000 METAR MRLM NIL=
201307280100 METAR MRLM NIL=
201307280200 METAR MRLM NIL=
201307280300 METAR MRLM NIL=
201307280400 METAR MRLM NIL=
201307280500 METAR MRLM NIL=
201307280600 METAR MRLM NIL=
201307280700 METAR MRLM NIL=
201307280800 METAR MRLM NIL=
201307280900 METAR MRLM NIL=
201307281000 METAR MRLM NIL=
201307281100 METAR MRLM NIL=
201307281200 METAR MRLM NIL=
201307281300 METAR MRLM 281300Z 25003KT 9999 SCT010 BKN100 23/22 A2990=
201307281400 METAR MRLM 281400Z 30006KT 9999 FEW015 SCT120 SCT240 25/22 A2991=
201307281500 METAR MRLM 281500Z 30006KT 9999 FEW015 SCT120 SCT240 26/23 A2991=
201307281600 METAR MRLM 281600Z 00000KT 9999 FEW025 BKN130 29/23 A2990=
201307281700 METAR MRLM 281700Z 09003KT 9999 FEW025 BKN130 29/23 A2990=
201307281800 METAR MRLM 281800Z 07004KT 9999 FEW030 SCT130 29/24 A2987=
201307281900 METAR MRLM 281900Z 07004KT 9999 FEW030 SCT260 30/24 A2984=
201307282000 METAR MRLM 282000Z 06006KT 9999 FEW030 SCT150 SCT260 30/24 A2984=
201307282100 METAR MRLM 282100Z 06007KT 9999 FEW030 BKN250 30/23 A2982=
201307282200 METAR MRLM NIL=
201307282300 METAR MRLM NIL=
201307290000 METAR MRLM NIL=
201307290100 METAR MRLM NIL=
201307290200 METAR MRLM NIL=
201307290300 METAR MRLM NIL=
201307290400 METAR MRLM NIL=
201307290500 METAR MRLM NIL=
201307290600 METAR MRLM NIL=
201307290700 METAR MRLM NIL=
201307290800 METAR MRLM NIL=
201307290900 METAR MRLM NIL=
201307291000 METAR MRLM NIL=
201307291100 METAR MRLM NIL=
201307291200 METAR MRLM NIL=
201307291300 METAR MRLM 291300Z 30005KT 9999 DZ BKN006 24/23 A2994=
201307291400 METAR MRLM 291400Z 26002KT 8000 +DZ BKN007 24/23 A2997=
201307291500 METAR MRLM 291500Z 32003KT 9999 DZ FEW007 BKN010 24/23 A2997=
201307291600 METAR MRLM 291600Z 31004KT 9999 DZ BKN007 SCT080 25/23 A2996=
201307291700 METAR MRLM 291700Z 30004KT 9999 -DZ SCT010 SCT110 25/23 A2998=
201307291800 METAR MRLM 291800Z 28002KT 9999 SCT010 BKN120 26/24 A2998=
201307291900 METAR MRLM 291900Z 24003KT 9999 DZ SCT010 BKN110 25/24 A2996=
201307292000 METAR MRLM 292000Z 27002KT CAVOK 26/24 A2989 REDZ=
201307292100 METAR MRLM 292100Z 00000KT 9999 FEW015 BKN240 27/24 A2988=
201307292200 METAR MRLM NIL=
201307292300 METAR MRLM NIL=
201307300000 METAR MRLM NIL=
201307300100 METAR MRLM NIL=
201307300200 METAR MRLM NIL=
201307300300 METAR MRLM NIL=
201307300400 METAR MRLM NIL=
201307300500 METAR MRLM NIL=
201307300600 METAR MRLM NIL=
201307300700 METAR MRLM NIL=
201307300800 METAR MRLM NIL=
201307300900 METAR MRLM NIL=
201307301000 METAR MRLM NIL=
201307301100 METAR MRLM NIL=
201307301200 METAR MRLM 301200Z 25003KT 9999 SCT35 SCT080 22/21 A2996=
201307301300 METAR MRLM 301300Z 24004KT 9999 FEW035 BKN090 23/21 A2997=
201307301400 METAR MRLM 301400Z 35002KT 8000 VCSH SCT025 SCT090 25/22 A3000=
201307301500 METAR MRLM 301500Z 27002KT 5000 RA BKN010 24/22 A3002=
201307301600 METAR MRLM 301600Z 29006KT 9999 TS SCT010 SCT020 24/23 A3002 RERA TS/E=
201307301700 METAR MRLM 301700Z 24002KT 7000 RA BKN015 25/23 A3002=
201307301800 METAR MRLM 301800Z 25003KT 9999 +DZ BKN030 25/23 A2999 RERA=
201307301858 METAR MRLM 301858Z 13005KT 9999 DZ FEW025 BKN100 26/23 A2998=
201307301900 METAR MRLM 13005KT 9999 DZ FEW025 BKN100 26/23 A2998=
201307302000 METAR MRLM 302000Z 27004KT 9999 DZ FEW025 SCT090 SCT140 26/24 A2993=
201307302100 METAR MRLM 302100Z 24002KT CAVOK 26/23 A2989=
201307302200 METAR MRLM 302200Z 00000KT CAVOK 26/24 A2989=
201307302300 METAR MRLM 302300Z 24004KT CAVOK 26/24 A2989=
201307302354 METAR MRLM 310000Z 25003KT CAVOK 26/24 A2993=
201307310000 METAR MRLM 310000Z 25003KT CAVOK 26/24 A2993=
201307310100 METAR MRLM NIL=
201307310200 METAR MRLM NIL=
201307310300 METAR MRLM NIL=
201307310400 METAR MRLM NIL=
201307310500 METAR MRLM NIL=
201307310600 METAR MRLM NIL=
201307310700 METAR MRLM NIL=
201307310800 METAR MRLM NIL=
201307310900 METAR MRLM NIL=
201307311000 METAR MRLM NIL=
201307311100 METAR MRLM NIL=
201307311200 METAR MRLM 311200Z 29003KT 9999 SCT005 SCT090 23/22 A2994=
201307311300 METAR MRLM 311300Z 32005KT 9999 FEW005 BKN080 24/23 A2996=
201307311400 METAR MRLM 311400Z 31009KT 9999 BKN009 25/23 A2998=
201307311500 METAR MRLM 311500Z 32007KT 9999 FEW012 BKN020 26/23 A2999=
201307311600 METAR MRLM 311600Z 32009KT 9999 DZ BKN012 26/23 A2999 RERA=
201307311700 METAR MRLM 311700Z 31008KT 9999 SCT018 SCT080 27/23 A2997 REDZ=
201307311800 METAR MRLM 311800Z 36008KT 9999 SCT025 BKN140 27/22 A2995=
201307311900 METAR MRLM 311900Z 33007KT 9999 FEW022 SCT120 SCT140 27/23 A2990=
201307312000 METAR MRLM 312000Z 31004KT 9999 FEW020 SCT090 SCT150 27/23 A2988=
201307312100 METAR MRLM 312100Z 29005KT 9999 FEW028 SCT130 SCT270 28/22 A2987=
201307312200 METAR MRLM NIL=
201307312300 METAR MRLM 312300Z 31004KT 9999 FEW025 SCT140 SCT270 27/22 A2987=
201307312357 METAR MRLM 010000Z 34005KT 9999 FEW020 BKN270 26/22 A2989=
201308010000 METAR MRLM 010000Z 34005KT 9999 FEW020 BKN270 26/22 A2989=
201308010100 METAR MRLM NIL=
201308010200 METAR MRLM NIL=
201308010300 METAR MRLM NIL=
201308010400 METAR MRLM NIL=
201308010500 METAR MRLM NIL=
201308010600 METAR MRLM NIL=
201308010700 METAR MRLM NIL=
201308010800 METAR MRLM NIL=
201308010900 METAR MRLM NIL=
201308011000 METAR MRLM NIL=
201308011100 METAR MRLM NIL=
201308011200 METAR MRLM 011200Z 33004KT 9999 SCT007 SCT110 24/23 A2992=
201308011300 METAR MRLM 011300Z 31005KT 9999 SCT010 BKN120 25/23 A2994=
201308011400 METAR MRLM 011400Z 31004KT 9999 SCT015 BKN120 25/23 A2995=
201308011500 METAR MRLM 011500Z 29004KT 9999 RA BKN010 SCT110 25/23 A2997=
201308011600 METAR MRLM 011600Z 27002KT 9999 -DZ SCT010 BKN110 25/23 A2997 RERA=
201308011700 METAR MRLM 011700Z 24002KT 9999 DZ FEW020 BKN120 26/23 A2995=
201308011800 METAR MRLM 011800Z 00000KT 9999 DZ FEW020 SCT130 SCT240 27/23 A2994=
201308011900 METAR MRLM 011900Z 13005KT 9999 -DZ FEW015 BKN120 27/24 A2992=
201308012000 METAR MRLM 012000Z 14008KT 9999 SCT020 BKN120 27/23 A2991=
201308012100 METAR MRLM 012100Z 11003KT 9999 FEW020 SCT130 SCT240 27/23 A2987=
201308012200 METAR MRLM 012200Z 04002KT CAVOK 27/23 A2986=
201308012300 METAR MRLM 012300Z 03006KT CAVOK 26/23 A2988=
201308020000 METAR MRLM 020000Z 05005KT CAVOK 26/21 A2991=
201308020100 METAR MRLM NIL=
201308020200 METAR MRLM NIL=
201308020300 METAR MRLM NIL=
201308020400 METAR MRLM NIL=
201308020500 METAR MRLM NIL=
201308020600 METAR MRLM NIL=
201308020700 METAR MRLM NIL=
201308020800 METAR MRLM NIL=
201308020900 METAR MRLM NIL=
201308021000 METAR MRLM NIL=
201308021100 METAR MRLM NIL=
201308021200 METAR MRLM 021200Z 24004KT CAVOK 23/21 A2989=
201308021300 METAR MRLM 021300Z 00000KT CAVOK 25/22 A2991=
201308021400 METAR MRLM 021400Z 32003KT 9999 FEW020 BKN120 26/22 A2992=
201308021500 METAR MRLM 021500Z 33009KT 9999 VCSH SCT015 BKN110 27/22 A2995=
201308021525 METAR MRLM 021525Z 01008KT 6000 RA BKN007 25/23 A2995=
201308021600 METAR MRLM 021600Z 01007KT 8000 -RA BKN010 25/23 A2996=
201308021700 METAR MRLM 021700Z 31005KT 9999 SCT010 BKN110 25/223 A2994=
201308021800 METAR MRLM 021800Z 26003KT 9999 BKN010 SCT110 25/23 A2993=
201308021900 METAR MRLM 021900Z 32006KT 9999 BKN015 SCT120 26/23 A2990=
201308022000 METAR MRLM 022000Z 31006KT 9999 SCT020 SCT120 27/23 A2987=
201308022100 METAR MRLM 022100Z 31004KT 9999 SCT025 SCT120 28/23 A2985=
201308022200 METAR MRLM 022200Z 02005KT 9999 BKN020 27/23 A2985=
201308022300 METAR MRLM 022300Z 32005KT 9999 SCT015 SCT110 26/23 A2986=
201308030000 METAR MRLM 030000Z 30005KT 9999 SCT010 BKN100 25/23 A2988=
201308030100 METAR MRLM NIL=
201308030200 METAR MRLM NIL=
201308030300 METAR MRLM NIL=
201308030400 METAR MRLM NIL=
201308030500 METAR MRLM NIL=
201308030600 METAR MRLM NIL=
201308030700 METAR MRLM NIL=
201308030800 METAR MRLM NIL=
201308030900 METAR MRLM NIL=
201308031000 METAR MRLM NIL=
201308031200 METAR MRLM 031200Z 29002KT 9999 BKN025 SCT090 24/22 A2991=
201308031300 METAR MRLM 031300Z 28002KT 9999 BKN025 25/23 A2992=
201308031400 METAR MRLM 031400Z 30004KT 9999 BKN020 SCT070 26/23 A2993=
201308031500 METAR MRLM NIL=
201308031600 METAR MRLM 031600Z 33004KT 9999 BKN025 29/24 A2992=
201308031700 METAR MRLM 031700Z 36003KT 9999 FEW030 SCT090 30/24 A2989=
201308031800 METAR MRLM 031800Z 02011KT 9999 FEW028 BKN080 30/25 A2988=
201308031900 METAR MRLM 031900Z 02012KT 9999 FEW025 SCT080 SCT270 30/25 A2987=
201308032000 METAR MRLM 032000Z 05012KT 9999 FEW020 BKN270 29/25 A2985=
201308032100 METAR MRLM 032100Z 07005KT 9999 FEW020 BKN090 28/25 A2984=
201308032200 METAR MRLM 032200Z 08004KT 9999 OVC020 28/24 A2983=
201308032300 METAR MRLM 032300Z 07004KT 9999 OVC015 28/24 A2985=
201308040000 METAR MRLM 040000Z 21003KT 8000 DZ BKN010 27/25 A2987 RERA0=
201308040100 METAR MRLM NIL=
201308040200 METAR MRLM NIL=
201308040300 METAR MRLM NIL=
201308040400 METAR MRLM NIL=
201308040500 METAR MRLM NIL=
201308040600 METAR MRLM NIL=
201308040700 METAR MRLM NIL=
201308040800 METAR MRLM NIL=
201308040900 METAR MRLM NIL=
201308041000 METAR MRLM NIL=
201308041100 METAR MRLM NIL=
201308041200 METAR MRLM 041200Z 29004KT 7000 TSRA BKN CB015 FEW020 23/22 A2990=
201308041300 METAR MRLM 041300Z 00000KT 6000 RA FEW007 BKN015 24/22 A2992 RETS=
201308041400 METAR MRLM 041400Z 31003KT 9999 RA FEW006 BKN015 24/22 A2992=
201308041500 METAR MRLM 041500Z 33006KT 9999 DZ FEW007 BKN130 24/23 A2989 RERA=
201308041600 METAR MRLM 041600Z 27005KT 9999 BKN015 26/23 A2992 REDZ=
201308041700 METAR MRLM 041700Z 31004KT 9999 DZ SCT130 SCT150 26/23 A2988=
201308041800 METAR MRLM 041800Z 01002KT CAVOK 27/23 A2986 REDZ=
201308041900 METAR MRLM 041900Z 08006KT 9999 FEW015 SCT090 SCT140 27/24 A2985=
201308042000 METAR MRLM 042000Z 08005KT 9999 FEW015 BKN090 27/23 A2984=
201308042100 METAR MRLM 042100Z 03007KT 9999 SCT015 BKN120 26/23 A2993=
201308042200 METAR MRLM 042200Z 31002KT 9999 DZ BKN015 SCT120 26/23 2993=
201308042300 METAR MRLM 042300Z 29002KT CAVOK 26/23 A2981 REDZ=
201308042354 METAR MRLM 050000Z 35004KT CAVOK 26/23 A2983=
201308050000 METAR MRLM 050000Z 35004KT CAVOK 26/23 A2983=
201308050100 METAR MRLM NIL=
201308050200 METAR MRLM NIL=
201308050300 METAR MRLM NIL=
201308050400 METAR MRLM NIL=
201308050500 METAR MRLM NIL=
201308050600 METAR MRLM NIL=
201308050700 METAR MRLM NIL=
201308050800 METAR MRLM NIL=
201308050900 METAR MRLM NIL=
201308051000 METAR MRLM NIL=
201308051100 METAR MRLM NIL=
201308051200 METAR MRLM 051200Z 24002KT 9999 FEW010 BKN100 23/22 A2989=
201308051300 METAR MRLM 051300Z 00000KT 9999 FEW010 BKN110 24/22 A2991=
201308051400 METAR MRLM 051400Z 25003KT CAVOK 25/23 A2991=
201308051500 METAR MRLM 051500Z 00000KT CAVOK 29/22 A2991=
201308051600 METAR MRLM 051600Z 07006KT 9999 FEW030 BKN130 28/23 A2992=
201308051700 METAR MRLM 051700Z 03006KT 9999 FEW030 BKN130 28/23 A2991=
201308051800 METAR MRLM 051800Z 02009KT 9999 FEW030 BKN120 29/23 A2989=
201308051900 METAR MRLM 051900Z 02007KT 9999 FEW030 SCT130 SCT250 29/24 A2986=
201308052000 METAR MRLM 052000Z 35007KT 9999 FEW030 BKN240 29/23 A2985=
201308052100 METAR MRLM 052100Z 01007KT 9999 FEW020 SCT140 SCT250 28/24 A2984=
201308052200 METAR MRLM 052200Z 36008KT 9999 SCT020 BKN130 28/24 A2985=
201308052300 METAR MRLM 052300Z 36005KT 9999 SCT020 BKN130 27/23 A2987=
201308060000 METAR MRLM 060000Z 28004KT 9999 FEW015 BKN120 26/24 A2989=
201308060100 METAR MRLM NIL=
201308060200 METAR MRLM NIL=
201308060300 METAR MRLM NIL=
201308060400 METAR MRLM NIL=
201308060500 METAR MRLM NIL=
201308060600 METAR MRLM NIL=
201308060700 METAR MRLM NIL=
201308060800 METAR MRLM NIL=
201308060900 METAR MRLM NIL=
201308061000 METAR MRLM NIL=
201308061100 METAR MRLM NIL=
201308061200 METAR MRLM 061200Z 29004KT 9999 BKN007 SCT110 24/23 A2990=
201308061300 METAR MRLM 061300Z 27002KT 9999 BKN010 25/24 A2991=
201308061400 METAR MRLM 061400Z 25003KT 9999 -DZ BKN010 26/24 A2994=
201308061410 METAR MRLM 061410Z 26003KT 8000 RA BKN010 26/24 A2995=
201308061500 METAR MRLM 061500Z 25004KT 9999 DZ BKN008 26/24 A2996 RERA=
201308061600 METAR MRLM 061600Z 21003KT 9999 DZ VCSH FEW007 BKN010 25/23 A2997=
201308061700 METAR MRLM 061700Z 22006KT 9999 FEW020 SCT120 SCT250 29/24 A2994=
201308061800 METAR MRLM 061800Z 21004KT CAVOK 29/23 A2991=
201308061900 METAR MRLM 061900Z 12004KT 9999 FEW025 BKN240 30/25 A2989=
201308062000 METAR MRLM 062000Z 07004KT 9999 FEW030 BKN240 30/24 A2988=
201308062100 METAR MRLM 062100Z 05004KT 9999 FEW030 BKN240 29/24 A2987=
201308062200 METAR MRLM 062200Z 04005KT 9999 FEW025 SCT140 SCT240 29/24 A2986=
201308062300 METAR MRLM 062300Z 02004KT 9999 FEW025 SCT140 SCT240 29/24 A2987=
201308070000 METAR MRLM 070000Z 00000KT 9999 CAVOK 27/24 A2988=
201308070100 METAR MRLM NIL=
201308070200 METAR MRLM NIL=
201308070300 METAR MRLM NIL=
201308070400 METAR MRLM NIL=
201308070500 METAR MRLM NIL=
201308070600 METAR MRLM NIL=
201308070700 METAR MRLM NIL=
201308070800 METAR MRLM NIL=
201308070900 METAR MRLM NIL=
201308071000 METAR MRLM NIL=
201308071100 METAR MRLM NIL=
201308071200 METAR MRLM 071200Z 24005KT CAVOK 23/21 A2991=
201308071300 METAR MRLM 071300Z 24004KT CAVOK 26/23 A2992=
201308071400 METAR MRLM 071400Z 28004KT CAVOK 28/23 A2992=
201308071500 METAR MRLM 071500Z 08004KT 9999 FEW020 SCT090 30/24 A2992=
201308071600 METAR MRLM 071600Z 06006KT 9999 FEW025 BKN080 29/24 A2993=
201308071700 METAR MRLM 04005KT 9999 FEW030 BKN080 30/24 A2991=
201308071704 METAR MRLM 071704Z 04005KT 9999 FEW030 BKN080 30/24 A2991=
201308071800 METAR MRLM 071800Z 06004KT 9999 FEW030 SCT300 30/24 A2989=
201308071900 METAR MRLM 071900Z 04004KT 9999 FEW030 BKN300 30/23 A2988=
201308072000 METAR MRLM 072000Z 04007KT 9999 FEW030 BKN280 30/24 A2987=
201308072100 METAR MRLM 072100Z 04005KT 9999 FEW035 BKN280 30/24 A2986=
201308072200 METAR MRLM 072200Z 04005KT 9999 FEW030 BKN270 30/24 A2985=
201308072300 METAR MRLM 072300Z 03005KT 9999 BKN030 SCT270 29/23 A2980=
201308072351 METAR MRLM 080000Z 06005KT 9999 BKN025 29/24 A2988=
201308080000 METAR MRLM 080000Z 06005KT 9999 BKN025 29/24 A2988=
201308080100 METAR MRLM NIL=
201308080200 METAR MRLM NIL=
201308080300 METAR MRLM NIL=
201308080400 METAR MRLM NIL=
201308080500 METAR MRLM NIL=
201308080600 METAR MRLM NIL=
201308080700 METAR MRLM NIL=
201308080800 METAR MRLM NIL=
201308080900 METAR MRLM NIL=
201308081000 METAR MRLM NIL=
201308081100 METAR MRLM NIL=
201308081200 METAR MRLM 081200Z 26005KT CAVOK 23/21 A2988=
201308081300 METAR MRLM 081300Z 24003KT CAVOK 26/22 A2986=
201308081400 METAR MRLM 081400Z 25002KT 9999 FEW025 BKN080 29/23 A2988=
201308081500 METAR MRLM 081500Z 07004KT 9999 BKN030 29/23 A2989=
201308081600 METAR MRLM 081600Z 08005KT 9999 SCT030 SCT080 29/23 A2989=
201308081700 METAR MRLM 081700Z 04008KT 9999 FEW030 BKN080 29/22 A2990=
201308081800 METAR MRLM 081800Z 04013KT 9999 FEW025 BKN090 29/24 A2988=
201308081900 METAR MRLM 081900Z 08003KT 9999 FEW035 BKN110 29/22 A2986=
201308082000 METAR MRLM 082000Z 10003KT 9999 FEW035 BKN090 30/23 A2983=
201308082100 METAR MRLM 082100Z 11003KT 9999 FEW040 BKN110 30/22 A2981=
201308082200 METAR MRLM 082200Z 11005KT 9999 FEW030 BKN110 30/23 A2982=
201308082300 METAR MRLM 082300Z 08003KT 9999 FEW030 BKN110 29/23 A2982=
201308082354 METAR MRLM 090000Z 00000KT CAVOK 28/23 A2984=
201308090000 METAR MRLM 090000Z 00000KT CAVOK 28/23 A2984=
201308090100 METAR MRLM NIL=
201308090200 METAR MRLM NIL=
201308090300 METAR MRLM NIL=
201308090400 METAR MRLM NIL=
201308090500 METAR MRLM NIL=
201308090600 METAR MRLM NIL=
201308090700 METAR MRLM NIL=
201308090800 METAR MRLM NIL=
201308090900 METAR MRLM NIL=
201308091000 METAR MRLM NIL=
201308091100 METAR MRLM NIL=
201308091200 METAR MRLM 091200Z 26004KT CAVOK 23/22 A2985=
201308091300 METAR MRLM 091300Z 24004KT CAVOK 25/22 A2987=
201308091400 METAR MRLM 091400Z 26002KT 9999 FEW020 BKN130 26/23 A2989=
201308091500 METAR MRLM 091500Z 00000KT 9999 FEW020 BKN130 27/24 A2991=
201308091600 METAR MRLM 091600Z 12004KT 9999 FEW025 BKN130 28/23 A2991=
201308091700 METAR MRLM 091700Z 11005KT 9999 FEW025 BKN140 29/23 A2991=
201308091800 METAR MRLM 091800Z 13006KT 9999 FEW030 BKN140 29/23 A2990=
201308091900 METAR MRLM 091900Z 11007KT 9999 FEW030 BKN130 29/23 A2988=
201308092000 METAR MRLM 092000Z 10009KT CAVOK 28/24 A2986=
201308092100 METAR MRLM 092100Z 11008KT 9999 FEW020 BKN130 28/24 A2984=
201308092200 METAR MRLM 092200Z 13011KT 9999 FEW020 BKN120 28/23 A2984=
201308092300 METAR MRLM 092300Z 13013KT 9999 SCT020 SCT120 28/24 A2983=
201308100000 METAR MRLM 100000Z 13011KT 9999 SCT015 BKN120 27/24 A2983=
201308100100 METAR MRLM NIL=
201308100200 METAR MRLM NIL=
201308100300 METAR MRLM NIL=
201308100400 METAR MRLM NIL=
201308100500 METAR MRLM NIL=
201308100600 METAR MRLM NIL=
201308100700 METAR MRLM NIL=
201308100800 METAR MRLM NIL=
201308100900 METAR MRLM NIL=
201308101000 METAR MRLM NIL=
201308101100 METAR MRLM NIL=
201308101200 METAR MRLM 101200Z 00000KT CAVOK 23/22 A2988=
201308101300 METAR MRLM 101300Z 25003KT CAVOK 25/22 A2988=
201308101400 METAR MRLM 101400Z 29003KT 9999 FEW020 BKN130 27/22 A2991=
201308101500 METAR MRLM 101500Z 34007KT 9999 FEW030 BKN120 28/23 A2994=
201308101600 METAR MRLM 101600Z 01013KT 9999 BKN020 SCT120 27/24 A2995=
201308101700 METAR MRLM 101700Z 36012KT 9999 DZ BKN020 SCT120 27/23 A2995=
201308101800 METAR MRLM 101800Z 32002KT 9999 BKN015 SCT130 26/23 A2993 REDZ=
201308101900 METAR MRLM 101900Z 35006KT 9999 BKN030 SCT130 29/23 A2989=
201308102000 METAR MRLM 102000Z 36007KT 9999 SCT030 SCT140 29/22 A2987=
201308102100 METAR MRLM 102100Z 01008KT 9999 FEW030 SCT250 29/23 A2985=
201308102200 METAR MRLM 102200Z 02005KT 9999 FEW030 SCT250 29/23 A2983=
201308102300 METAR MRLM 102300Z 02006KT 9999 FEW030 SCT250 28/22 A2984=
201308110000 METAR MRLM 110000Z 01005KT CAVOK 27/22 A2985=
201308110100 METAR MRLM NIL=
201308110200 METAR MRLM NIL=
201308110300 METAR MRLM NIL=
201308110400 METAR MRLM NIL=
201308110500 METAR MRLM NIL=
201308110600 METAR MRLM NIL=
201308110700 METAR MRLM NIL=
201308110800 METAR MRLM NIL=
201308110900 METAR MRLM NIL=
201308111000 METAR MRLM NIL=
201308111100 METAR MRLM NIL=
201308111200 METAR MRLM 111200Z 25005KT CAVOK 22/21 A2987=
201308111300 METAR MRLM 111300Z 25004KT CAVOK 23/22 A2988=
201308111400 METAR MRLM 111400Z 21002KT CAVOK 28/23 A2990=
201308111500 METAR MRLM 111500Z 07004KT CAVOK 29/23 A2992=
201308111600 METAR MRLM 111600Z 03008KT 9999 FEW035 BKN090 29/22 A2993 TS DST NE=
201308111700 METAR MRLM 111700Z 36007KT 9999 FEW038 BKN080 30/22 A2992=
201308111800 METAR MRLM 111800Z 03008KT 9999 +DZ SCT025 SCT130 29/23 A2991=
201308111900 METAR MRLM 111900Z 01006KT 9999 DZ SCT010 SCT140 27/25 A2985 RERA=
201308111958 METAR MRLM 11200Z 02006KT 9999 FEW020 SCT140 SCT250 28/24 A2981 REDZ=
201308112000 METAR MRLM 11200Z 02006KT 9999 FEW020 SCT140 SCT250 28/24 A2981 REDZ=
201308112100 METAR MRLM 112100Z 01009KT 9999 BKN020 28/24 A2980=
201308112200 METAR MRLM 112200Z 36008KT 9999 OVC022 28/24 A2980=
201308112300 METAR MRLM 112300Z 36006KT 9999 SCT022 SCT270 28/23 A2982=
201308112358 METAR MRLM 120000Z 36005KT 9999 SCT018 SCT270 27/23 A2984=
201308120000 METAR MRLM 120000Z 36005KT 9999 SCT018 SCT270 27/23 A2984=
201308120100 METAR MRLM NIL=
201308120200 METAR MRLM NIL=
201308120300 METAR MRLM NIL=
201308120400 METAR MRLM NIL=
201308120500 METAR MRLM NIL=
201308120600 METAR MRLM NIL=
201308120700 METAR MRLM NIL=
201308120800 METAR MRLM NIL=
201308120900 METAR MRLM NIL=
201308121000 METAR MRLM NIL=
201308121100 METAR MRLM NIL=
201308121200 METAR MRLM 121200Z 24002KT CAVOK 23/22 A2984=
201308121300 METAR MRLM 121300Z 23003KT 9999 FEW015 SCT280 25/23 A2985=
201308121400 METAR MRLM 121400Z 33006KT 9999 FEW025 SCT280 28/23 A2986=
201308121500 METAR MRLM 121500Z 34005KT 9999 SCT035 SCT270 29/23 A2987=
201308121600 METAR MRLM 121600Z 02009KT 9999 SCT030 SCT280 29/24 A2987=
201308121700 METAR MRLM 121700Z 03011KT 9999 SCT030 SCT270 30/24 A2986=
201308121800 METAR MRLM 121800Z 03011KT 9999 FEW030 SCT270 29/24 A2983=
201308121900 METAR MRLM 121900Z 02013KT 9999 FEW025 BKN270 30/24 A2981=
201308122000 METAR MRLM 122000Z 02010KT 9999 FEW025 BKN270 29/24 A2979 RETS=
201308122100 METAR MRLM 122100Z 01006KT 9999 FEW025 BKN270 29/23 A2978=
201308122200 METAR MRLM 122200Z 04005KT 9999 FEW025 BKN270 28/23 A2978=
201308122300 METAR MRLM 122300Z 08002KT 9999 FEW025 SCT270 28/22 A2980=
201308122354 METAR MRLM 130000Z 00000KT 9999 FEW015 BKN270 26/23 A2981=
201308130000 METAR MRLM 130000Z 00000KT 9999 FEW015 BKN270 26/23 A2981=
201308130100 METAR MRLM NIL=
201308130200 METAR MRLM NIL=
201308130300 METAR MRLM NIL=
201308130400 METAR MRLM NIL=
201308130500 METAR MRLM NIL=
201308130600 METAR MRLM NIL=
201308130700 METAR MRLM NIL=
201308130800 METAR MRLM NIL=
201308130900 METAR MRLM NIL=
201308131000 METAR MRLM NIL=
201308131100 METAR MRLM NIL=
201308131200 METAR MRLM 131200Z 31006KT 9999 FEW010 SCT120 SCT250 25/22 A2983=
201308131300 METAR MRLM 131300Z 31005KT 9999 FEW010 BKN250 25/22 A2985=
201308131400 METAR MRLM 131400Z 30006KT 9999 FEW015 SCT130 SCT250 26/23 A2987=
201308131500 METAR MRLM 131500Z 30006KT 9999 FEW020 BKN250 28/23 A2984=
201308131600 METAR MRLM 131600Z 34007KT 9999 FEW030 BKN250 29/23 A2985=
201308131700 METAR MRLM 131700Z 35010KT 9999 SCT030 BKN250 29/23 A2984=
201308131800 METAR MRLM 131800Z 32006KT 9999 FEW030 BKN260 30/23 A2983=
201308131900 METAR MRLM 131900Z 36008KT 9999 SCT030 BKN260 31/24 A2981=
201308132000 METAR MRLM 132000Z 01011KT 9999 FEW030 BKN260 31/24 A2977=
201308132100 METAR MRLM 132100Z 36009KT 9999 FEW030 BKN260 31/24 A2975=
201308132200 METAR MRLM 132200Z 01013KT 9999 FEW030 SCT260 29/24 A2975=
201308132300 METAR MRLM 132300Z 36009KT 9999 FEW020 SCT130 29/24 A2976=
201308140000 METAR MRLM 140000Z 32003KT 9999 FEW020 SCT130 27/23 A2976=
201308140100 METAR MRLM NIL=
201308140200 METAR MRLM NIL=
201308140300 METAR MRLM NIL=
201308140400 METAR MRLM NIL=
201308140500 METAR MRLM NIL=
201308140600 METAR MRLM NIL=
201308140700 METAR MRLM NIL=
201308140800 METAR MRLM NIL=
201308140900 METAR MRLM NIL=
201308141000 METAR MRLM NIL=
201308141100 METAR MRLM NIL=
201308141200 METAR MRLM 141200Z 24003KT CAVOK 24/23 A2981=
201308141300 METAR MRLM 141300Z 27002KT 9999 FEW015 26/24 A2984=
201308141400 METAR MRLM 141400Z 04002KT 9999 FEW025 SCT260 29/24 A2985=
201308141500 METAR MRLM 141500Z 06004KT 9999 SCT030 SCT260 29/24 A2985=
201308141600 METAR MRLM 141600Z 07006KT 9999 FEW025 BKN260 29/24 A2984=
201308141700 METAR MRLM 141700Z 05006KT 9999 FEW025 BKN260 29/24 A2983=
201308141800 METAR MRLM 141800Z 05007KT 9999 SCT020 BKN260 29/24 A2982=
201308141900 METAR MRLM 141900Z 07004KT 9999 FEW020 BKN260 29/24 A2979=
201308142000 METAR MRLM 142000Z 05004KT 9999 FEW030 SCT260 30/25 A2977=
201308142100 METAR MRLM 142100Z 04006KT 9999 FEW030 SCT260 30/25 A2975=
201308142200 METAR MRLM 142200Z 04007KT 9999 FEW030 SCT260 30/25 A2975=
201308142300 METAR MRLM 142300Z 04005KT 9999 FEW025 SCT130 SCT250 29/24 A2975=
201308150000 METAR MRLM 150000Z 03005KT 9999 FEW020 SCT130 SCT250 28/24 A2977=
201308150100 METAR MRLM NIL=
201308150200 METAR MRLM NIL=
201308150300 METAR MRLM NIL=
201308150400 METAR MRLM NIL=
201308150500 METAR MRLM NIL=
201308150600 METAR MRLM NIL=
201308150700 METAR MRLM NIL=
201308150800 METAR MRLM NIL=
201308150900 METAR MRLM NIL=
201308151000 METAR MRLM NIL=
201308151100 METAR MRLM NIL=
201308151200 METAR MRLM 151200Z 24004KT CAVOK 24/23 A2984=
201308151300 METAR MRLM 151300Z 26004KT CAVOK 25/23 A2984=
201308151400 METAR MRLM 151400Z 27004KT CAVOK 29/24 A2984=
201308151500 METAR MRLM 151500Z 08004KT 9999 FEW030 BKN280 29/24 A2984=
201308151600 METAR MRLM 151600Z 09005KT 9999 FEW030 BKN280 30/24 A2984=
201308151700 METAR MRLM 151700Z 09005KT 9999 FEW030 BKN280 30/24 A2984=
201308151800 METAR MRLM 151800Z 08003KT 9999 FEW028 BKN280 30/24 A2981=
201308151900 METAR MRLM 151900Z 07004KT 9999 FEW035 BKN280 31/24 A2979=
201308152000 METAR MRLM 152000Z 07003KT 9999 FEW030 BKN270 30/24 A2977=
201308152100 METAR MRLM 152100Z 04005KT 9999 FEW030 BKN270 30/24 A2975=
201308152200 METAR MRLM 152200Z 05004KT 9999 SCT030 BKN270 30/24 A2976=
201308152300 METAR MRLM 152300Z 03005KT 9999 FEW025 BKN280 30/24 A2977=
201308152358 METAR MRLM 160000Z 02005KT 9999 FEW025 BKN280 29/24 A2980=
201308160000 METAR MRLM 160000Z 02005KT 9999 FEW025 BKN280 29/24 A2980=
201308160100 METAR MRLM NIL=
201308160200 METAR MRLM NIL=
201308160300 METAR MRLM NIL=
201308160400 METAR MRLM NIL=
201308160500 METAR MRLM NIL=
201308160600 METAR MRLM NIL=
201308160700 METAR MRLM NIL=
201308160800 METAR MRLM NIL=
201308160900 METAR MRLM NIL=
201308161000 METAR MRLM NIL=
201308161100 METAR MRLM NIL=
201308161200 METAR MRLM 161200Z 26007KT CAVOK 24/22 A2984=
201308161257 METAR MRLM 161257Z 22003KT CAVOK 26/24 A2985=
201308161300 METAR MRLM 22003KT CAVOK 26/24 A2985=
201308161400 METAR MRLM 161400Z 26002KT CAVOK 27/24 A2987=
201308161500 METAR MRLM 161500Z 14003KT CAVOK 28/24 A2987=
201308161600 METAR MRLM 161600Z 13006KT CAVOK 28/24 A2988=
201308161700 METAR MRLM 161700Z 00000KT 9999 DZ FEW015 BKN140 28/25 A2984=
201308161800 METAR MRLM 161800Z 07007KT CAVOK 28/25 A2982 REDZ=
201308161900 METAR MRLM 161900Z 08003KT 9999 FEW025 SCT270 29/24 A2979=
201308162000 METAR MRLM 162000Z 06005KT 9999 FEW023 SCT140 30/25 A2980=
201308162100 METAR MRLM 162100Z 09004KT 9999 FEW TCU020 BKN110 29/25 A2980=
201308162200 METAR MRLM 162200Z 13005KT 9999 FEW020 SCT120 SCT260 29/24 A2980=
201308162300 METAR MRLM 162300Z 14009KT CAVOK 29/24 A2982=
201308162355 METAR MRLM 170000Z 20003KT CAVOK 28/24 A2983=
201308170000 METAR MRLM 170000Z 20003KT CAVOK 28/24 A2983=
201308170100 METAR MRLM NIL=
201308170200 METAR MRLM NIL=
201308170300 METAR MRLM NIL=
201308170400 METAR MRLM NIL=
201308170500 METAR MRLM NIL=
201308170600 METAR MRLM NIL=
201308170700 METAR MRLM NIL=
201308170800 METAR MRLM NIL=
201308170900 METAR MRLM NIL=
201308171000 METAR MRLM NIL=
201308171100 METAR MRLM NIL=
201308171200 METAR MRLM 171200Z 26003KT 9999 DZ VCSH SCT010 BKN120 24/23 A2986=
201308171300 METAR MRLM 171300Z 28005KT 9999 FEW010 BKN120 24/23 A2988 REDZ=
201308171400 METAR MRLM 171400Z 33003KT 9999 FEW010 BKN130 25/24 A2989=
201308171500 METAR MRLM 171500Z 00000KT 9999 FEW015 SCT130 SCT240 27/24 A2991=
201308171600 METAR MRLM 171600Z 32005KT 9999 FEW020 BKN140 29/24 A2991=
201308171700 METAR MRLM 171700Z 31008KT 9999 FEW030 SCT250 30/24 A2989=
201308171800 METAR MRLM 171800Z 35010KT 9999 SCT030 SCT260 30/24 A2987=
201308171900 METAR MRLM 171900Z 34011KT 9999 FEW030 BKN250 30/24 A2985=
201308172000 METAR MRLM 172000Z 35012KT 9999 FEW030 BKN250 29/23 A2984=
201308172100 METAR MRLM 172100Z 32008KT 9999 SCT020 SCT250 29/24 A2982=
201308172200 METAR MRLM 172200Z 32005KT 9999 BKN020 28/24 A2983=
201308172300 METAR MRLM 172300Z 30004KT 9999 BKN020 27/24 A2985=
201308180000 METAR MRLM 180000Z 29005KT 9999 FEW015 BKN120 26/23 A2986=
201308180100 METAR MRLM NIL=
201308180200 METAR MRLM NIL=
201308180300 METAR MRLM NIL=
201308180400 METAR MRLM NIL=
201308180500 METAR MRLM NIL=
201308180600 METAR MRLM NIL=
201308180700 METAR MRLM NIL=
201308180800 METAR MRLM NIL=
201308180900 METAR MRLM NIL=
201308181000 METAR MRLM NIL=
201308181100 METAR MRLM NIL=
201308181200 METAR MRLM 181200Z 30003KT 9999 SCT010 SCT110 24/22 A2990=
201308181300 METAR MRLM 181300Z 00000KT 9999 BKN010 25/23 A2992=
201308181400 METAR MRLM 181400Z 31005KT 9999 BKN020 26/23 A2995=
201308181500 METAR MRLM 181500Z 30005KT 9999 BKN020 SCT120 27/23 A2995=
201308181600 METAR MRLM 181600Z 36003KT 9999 SCT030 SCT130 29/23 A2995=
201308181700 METAR MRLM 181700Z 10003KT 9999 FEW030 SCT130 SCT250 30/24 A2993=
201308181800 METAR MRLM 181800Z 09004KT 9999 FEW030 SCT140 SCT260 30/23 A2990=
201308181900 METAR MRLM 181900Z 03007KT 9999 FEW030 BKN250 30/24 A2987=
201308182000 METAR MRLM NIL=
201308182100 METAR MRLM 182100Z 09005KT 9999 FEW025 BKN250 29/24 A2984=
201308182200 METAR MRLM 182200Z 10003KT 9999 SCT025 SCT250 29/24 A2983=
201308182300 METAR MRLM 182300Z 08002KT 9999 FEW020 SCT130 SCT250 28/24 A2983=
201308190000 METAR MRLM 190000Z 06002KT 9999 FEW020 SCT130 SCT250 28/24 A2984=
201308190100 METAR MRLM NIL=
201308190200 METAR MRLM NIL=
201308190300 METAR MRLM NIL=
201308190400 METAR MRLM NIL=
201308190500 METAR MRLM NIL=
201308190600 METAR MRLM NIL=
201308190700 METAR MRLM NIL=
201308190800 METAR MRLM NIL=
201308190900 METAR MRLM NIL=
201308191000 METAR MRLM NIL=
201308191100 METAR MRLM NIL=
201308191200 METAR MRLM 191200Z 25003KT CAVOK 23/22 A2987=
201308191300 METAR MRLM 191300Z 26003KT CAVOK 24/23 A2988=
201308191400 METAR MRLM 191400Z 26003KT CAVOK 29/23 A2989=
201308191500 METAR MRLM 191500Z 07003KT 9999 FEW025 BKN270 29/23 A2989=
201308191600 METAR MRLM 191600Z 05006KT 9999 FEW030 BKN270 30/24 A2988=
201308191700 METAR MRLM 191700Z 04007KT 9999 FEW030 SCT140 SCT270 30/24 A2988=
201308191800 METAR MRLM 191800Z 06007KT 9999 FEW028 BKN090 30/24 A2987=
201308191900 METAR MRLM 191900Z 05006KT 9999 FEW028 BKN090 29/24 A2984=
201308192000 METAR MRLM 192000Z 05005KT 9999 FEW025 BKN090 29/24 A2982=
201308192100 METAR MRLM 192100Z 05004KT 9999 FEW028 BKN110 30/24 A2979=
201308192200 METAR MRLM 192200Z 06004KT 9999 FEW025 BKN110 29/24 A2980=
201308192300 METAR MRLM 192300Z 06004KT 9999 FEW030 SCT140 SCT270 29/23 A2981=
201308192356 METAR MRLM 200000Z 00000KT 9999 FEW025 BKN270 28/24 A2982=
201308200000 METAR MRLM 200000Z 00000KT 9999 FEW025 BKN270 28/24 A2982=
201308200100 METAR MRLM NIL=
201308200200 METAR MRLM NIL=
201308200300 METAR MRLM NIL=
201308200400 METAR MRLM NIL=
201308200500 METAR MRLM NIL=
201308200600 METAR MRLM NIL=
201308200700 METAR MRLM NIL=
201308200800 METAR MRLM NIL=
201308200900 METAR MRLM NIL=
201308201000 METAR MRLM NIL=
201308201100 METAR MRLM NIL=
201308201200 METAR MRLM 201200Z 25004KT CAVOK 24/21 A2983=
201308201300 METAR MRLM 201300Z 24004KT CAVOK 26/22 A2984=
201308201400 METAR MRLM 201400Z 20002KT 9999 FEW030 SCT110 30/24 A2986=
201308201500 METAR MRLM 201500Z 10003KT 9999 SCT030 SCT070 31/25 A2987=
201308201600 METAR MRLM 201600Z 09008KT 9999 SCT TCU30 SCT090 31/25 A2987=
201308201700 METAR MRLM 201700Z 09007KT 9999 FEW030 BKN140 31/25 A2988=
201308201800 METAR MRLM 201800Z 08014KT 9999 +DZ FEW TCU015 BKN090 28/25 A2986=
201308201900 METAR MRLM 201900Z 02006KT 9999 BKN020 28/24 A2984 REDZ=
201308202000 METAR MRLM 202000Z 03006KT 9999 FEW020 SCT140 SCT270 29/24 A2982=
201308202100 METAR MRLM 202100Z 01004KT 9999 FEW030 BKN140 29/23 A2981=
201308202200 METAR MRLM 202200Z 01005KT 9999 FEW030 SCT140 SCT270 29/23 A2981=
201308202300 METAR MRLM 202300Z 28002KT CAVOK 29/23 A2981=
201308202353 METAR MRLM 210000Z 29002KT CAVOK 28/23 A2982=
201308210000 METAR MRLM 210000Z 29002KT CAVOK 28/23 A2982=
201308210100 METAR MRLM NIL=
201308210200 METAR MRLM NIL=
201308210300 METAR MRLM NIL=
201308210400 METAR MRLM NIL=
201308210500 METAR MRLM NIL=
201308210600 METAR MRLM NIL=
201308210700 METAR MRLM NIL=
201308210800 METAR MRLM NIL=
201308210900 METAR MRLM NIL=
201308211000 METAR MRLM NIL=
201308211100 METAR MRLM NIL=
201308211200 METAR MRLM 211200Z 25004KT 9999 FEW010 BKN110 23/22 A2983=
201308211300 METAR MRLM 211300Z 25004KT 9999 SCT010 BKN110 24/22 A2988=
201308211400 METAR MRLM 211400Z 31004KT 9999 BKN015 SCT110 25/22 A2991=
201308211500 METAR MRLM 211500Z 32003KT 9999 BKN020 SCT110 27/23 A2992=
201308211600 METAR MRLM 211600Z 29006KT 9999 FEW025 BKN120 28/23 A2990=
201308211700 METAR MRLM 211700Z 32008KT 9999 FEW030 BKN130 30/23 A2988=
201308211800 METAR MRLM 211800Z 34011KT 9999 -DZ SCT020 BKN120 27/23 A2988=
201308211900 METAR MRLM 211900Z 34008KT 9999 FEW030 BKN130 28/23 A2986=
201308212000 METAR MRLM 212000Z 33008KT 9999 FEW030 BKN130 30/23 A2982=
201308212100 METAR MRLM 212100Z 33006KT 9999 FEW030 NKN120 30/23 A2981=
201308212200 METAR MRLM 212200Z 35007KT 9999 FEW025 BKN120 28/23 A2980=
201308212300 METAR MRLM 212300Z 36009KT 9999 FEW025 BKN120 28/23 A2981=
201308220000 METAR MRLM 220000Z 36011KT 9999 SCT020 BKN120 27/24 A2983=
201308220100 METAR MRLM NIL=
201308220200 METAR MRLM NIL=
201308220300 METAR MRLM NIL=
201308220400 METAR MRLM NIL=
201308220500 METAR MRLM NIL=
201308220600 METAR MRLM NIL=
201308220700 METAR MRLM NIL=
201308220800 METAR MRLM NIL=
201308220900 METAR MRLM NIL=
201308221000 METAR MRLM NIL=
201308221100 METAR MRLM NIL=
201308221200 METAR MRLM 221200Z 00000KT 9999 SCT010 BKN100 24/22 A2982=
201308221300 METAR MRLM 221300Z 28004KT 9999 FEW010 BKN110 25/23 A2984=
201308221400 METAR MRLM 221400Z 00000KT 9999 FEW010 SCT110 25/23 A2985=
201308221500 METAR MRLM 221500Z 22002KT CAVOK 27/24 A2986=
201308221600 METAR MRLM 221600Z 33004KT 9999 SCT035 SCT130 31/23 A2986=
201308221700 METAR MRLM 221700Z 20003KT 9999 FEW030 SCT130 SCT250 30/24 A2983=
201308221800 METAR MRLM 221800Z 04009KT 9999 FEW030 BKN130 30/25 A2981=
201308221900 METAR MRLM 221900Z 02009KT 9999 FEW030 SCT140 SCT250 30/24 A2978=
201308222000 METAR MRLM 222000Z 03009KT 9999 FEW030 BKN250 30/24 A2976=
201308222100 METAR MRLM 222100Z 01009KT 9999 FEW020 BKN250 29/24 A2974=
201308222200 METAR MRLM 222200Z 02005KT 9999 FEW025 SCT140 SCT250 29/24 A2973=
201308222300 METAR MRLM 222300Z 33004KT 9999 SCT020 SCT130 28/24 A2975=
201308230000 METAR MRLM 230000Z 34004KT 9999 FEW015 BKN130 28/24 A2977=
201308230100 METAR MRLM NIL=
201308230200 METAR MRLM NIL=
201308230300 METAR MRLM NIL=
201308230400 METAR MRLM NIL=
201308230500 METAR MRLM NIL=
201308230600 METAR MRLM NIL=
201308230700 METAR MRLM NIL=
201308230800 METAR MRLM NIL=
201308230900 METAR MRLM NIL=
201308231000 METAR MRLM NIL=
201308231100 METAR MRLM NIL=
201308231200 METAR MRLM 231200Z 26003KT CAVOK 24/22 A2979=
201308231300 METAR MRLM 231300Z 27003KT CAVOK 24/23 A2980=
201308231400 METAR MRLM 231400Z 31002KT CAVOK 28/23 A2982=
201308231500 METAR MRLM 231500Z 33007KT 9999 FEW030 BKN090 29/23 A2982=
201308231600 METAR MRLM 231600Z 32004KT 9999 FEW030 SCT090 SCT260 30/24 A2983=
201308231700 METAR MRLM 231700Z 33005KT 9999 FEW035 SCT090 SCT260 30/24 A2982=
201308231800 METAR MRLM 231800Z 02011KT 9999 FEW030 BKN270 30/24 A2980=
201308231900 METAR MRLM 231900Z 03011KT 9999 FEW028 BKN270 30/25 A2976=
201308232000 METAR MRLM 232000Z 03008KT 9999 FEW030 BKN270 30/24 A2974=
201308232100 METAR MRLM 232100Z 01006KT 9999 FEW028 SCT140 SCT270 30/24 A2975=
201308232158 METAR MRLM 23200Z 02004KT 9999 FEW025 SCT140 SCT270 29/24 A2977=
201308232200 METAR MRLM 23200Z 02004KT 9999 FEW025 SCT140 SCT270 29/24 A2977=
201308232300 METAR MRLM 232300Z 33003KT 9999 SCT020 SCT140 29/24 A2979=
201308232359 METAR MRLM 24000Z 27003KT 9999 BKN015 28/24 A2981=
201308240000 METAR MRLM 24000Z 27003KT 9999 BKN015 28/24 A2981=
201308240100 METAR MRLM NIL=
201308240200 METAR MRLM NIL=
201308240300 METAR MRLM NIL=
201308240400 METAR MRLM NIL=
201308240500 METAR MRLM NIL=
201308240600 METAR MRLM NIL=
201308240700 METAR MRLM NIL=
201308240800 METAR MRLM NIL=
201308240900 METAR MRLM NIL=
201308241000 METAR MRLM NIL=
201308241100 METAR MRLM NIL=
201308241200 METAR MRLM 241200Z 24004KT CAVOK 23/22 A2985=
201308241300 METAR MRLM 241300Z 25004KT CAVOK 24/22 A2987=
201308241400 METAR MRLM 241400Z 26004KT CAVOK 28/24 A2988=
201308241500 METAR MRLM 241500Z 03003KT 9999 FEW040 SCT120 SCT270 32/24 A2989=
201308241600 METAR MRLM 241600Z 04008KT 9999 FEW032 SCT130 SCT270 30/24 A2989=
201308241700 METAR MRLM 241700Z 04006KT 9999 FEW023 BKN120 30/24 A2989=
201308241800 METAR MRLM 241800Z 08005KT 9999 FEW030 BKN120 30/24 A2988=
201308241900 METAR MRLM 241900Z 11005KT 9999 FEW028 SCT140 30/24 A2985=
201308242000 METAR MRLM 242000Z 11006KT 9999 FEW025 BKN140 30/24 A2984=
201308242100 METAR MRLM 242100Z 17003KT CAVOK 29/24 A2982=
201308242200 METAR MRLM 242200Z 11003KT CAVOK 29/24 A2981=
201308242300 METAR MRLM 242300Z 09003KT CAVOK 29/24 A2983=
201308242356 METAR MRLM 250000Z 10001KT 9999 FEW025 BKN150 29/24 A2984=
201308250000 METAR MRLM 250000Z 10001KT 9999 FEW025 BKN150 29/24 A2984=
201308250100 METAR MRLM NIL=
201308250200 METAR MRLM NIL=
201308250300 METAR MRLM NIL=
201308250400 METAR MRLM NIL=
201308250500 METAR MRLM NIL=
201308250600 METAR MRLM NIL=
201308250700 METAR MRLM NIL=
201308250800 METAR MRLM NIL=
201308250900 METAR MRLM NIL=
201308251000 METAR MRLM NIL=
201308251100 METAR MRLM NIL=
201308251200 METAR MRLM 251200Z 26003KT 9999 FEW010 BKN110 23/22 A2990=
201308251300 METAR MRLM 251300Z 00000KT 9999 FEW010 BKN110 24/23 A2992=
201308251400 METAR MRLM 251400Z 00000KT 9999 FEW015 BKN120 26/23 A2993=
201308251500 METAR MRLM 251500Z 32003KT 9999 FEW020 BKN130 27/23 A2993=
201308251600 METAR MRLM 251600Z 33003KT 9999 SCT020 BKN130 27/23 A2995=
201308251700 METAR MRLM 251700Z 00000KT 9999 DZ SCT020 BKN120 28/23 A2995=
201308251800 METAR MRLM 251800Z 01004KT 9999 DZ BKN020 27/24 A2994=
201308251900 METAR MRLM 251900Z 34005KT 9999 BKN015 27/24 A2990 REDZ=
201308252000 METAR MRLM 252000Z 33004KT 9999 DZ BKN015 27/24 A2988=
201308252100 METAR MRLM 252100Z 31004KT 9999 DZ BKN010 27/24 A2988=
201308252200 METAR MRLM 252200Z 01006KT 9999 SCT015 BKN120 27/24 A2987 REDZ=
201308252300 METAR MRLM 252300Z 00000KT 9999 FEW015 BKN120 27/24 A2988=
201308260000 METAR MRLM 260000Z 25002KT 9999 FEW015 BKN120 26/24 A2989=
201308260100 METAR MRLM NIL=
201308260200 METAR MRLM NIL=
201308260300 METAR MRLM NIL=
201308260400 METAR MRLM NIL=
201308260500 METAR MRLM NIL=
201308260600 METAR MRLM NIL=
201308260700 METAR MRLM NIL=
201308260800 METAR MRLM NIL=
201308260900 METAR MRLM NIL=
201308261000 METAR MRLM NIL=
201308261100 METAR MRLM NIL=
201308261200 METAR MRLM 261200Z 24004KT CAVOK 22/21 A2990=
201308261300 METAR MRLM 261300Z 25003KT CAVOK 25/22 A2989=
201308261400 METAR MRLM 261400Z 28004KT CAVOK 28/22 A2989=
201308261500 METAR MRLM 261500Z 33007KT CAVOK 30/22 A2990=
201308261600 METAR MRLM 261600Z 02009KT CAVOK 31/22 A2991=
201308261700 METAR MRLM 261700Z 03009KT 9999 FEW035 31/23 A2990=
201308261800 METAR MRLM 261800Z 03008KT 9999 FEW035 31/24 A2989=
201308261900 METAR MRLM 261900Z 03008KT 9999 FEW030 31/24 A2986=
201308262000 METAR MRLM 262000Z 03009KT 9999 FEW030 31/24 A2984=
201308262100 METAR MRLM 262100Z 02011KT 9999 FEW030 SCT260 30/24 A2983=
201308262200 METAR MRLM 262200Z 02008KT 9999 FEW030 SCT260 30/24 A2981=
201308262300 METAR MRLM 262300Z 34006KT 9999 FEW030 SCT260 30/24 A2983=
201308270000 METAR MRLM 270000Z 36007KT 9999 SCT025 SCT130 29/24 A2985=
201308270100 METAR MRLM NIL=
201308270200 METAR MRLM NIL=
201308270300 METAR MRLM NIL=
201308270400 METAR MRLM NIL=
201308270500 METAR MRLM NIL=
201308270600 METAR MRLM NIL=
201308270700 METAR MRLM NIL=
201308270800 METAR MRLM NIL=
201308270900 METAR MRLM NIL=
201308271000 METAR MRLM NIL=
201308271100 METAR MRLM NIL=
201308271200 METAR MRLM 271200Z 22001KT 9999 FEW025 SCT140 SCT260 24/23 A2985=
201308271300 METAR MRLM 271300Z 28002KT 9999 SCT025 SCT120 26/23 A2987=
201308271355 METAR MRLM 271355Z 31003KT 9999 SCT025 SCT130 28/23 A2989=
201308271400 METAR MRLM 31003KT 9999 SCT025 SCT130 28/23 A2989=
201308271500 METAR MRLM 271500Z 33003KT CAVOK 29/23 A2989=
201308271600 METAR MRLM 271600Z 05007KT 9999 FEW020 BKN110 29/24 A2988=
201308271700 METAR MRLM 271700Z 04006KT 9999 FEW030 BKN110 30/23 A2988=
201308271800 METAR MRLM 271800Z 05005KT 9999 FEW030 SCT090 SCT270 30/23 A2985=
201308271900 METAR MRLM 271900Z 08006KT 9999 FEW030 BKN090 30/24 A2984=
201308272000 METAR MRLM 272000Z 08006KT 9999 FEW025 BKN140 30/24 A2982=
201308272100 METAR MRLM 272100Z 11004KT 9999 BKN025 29/24 A2982=
201308272200 METAR MRLM 272200Z 03019KT 1000 +TSRA SCT010CB SCT015 26/23 A2982=
201308272300 METAR MRLM 272300Z 22001KT 1000 +TSRA SCT010CB SCT012 24/23 A2985=
201308280000 METAR MRLM NIL=
201308280001 METAR MRLM 290000Z 16006KT 4000 TSRA SCT010CB BKN015 24/23 A2988=
201308280100 METAR MRLM NIL=
201308280200 METAR MRLM NIL=
201308280300 METAR MRLM NIL=
201308280400 METAR MRLM NIL=
201308280500 METAR MRLM NIL=
201308280600 METAR MRLM NIL=
201308280700 METAR MRLM NIL=
201308280800 METAR MRLM NIL=
201308280900 METAR MRLM NIL=
201308281000 METAR MRLM NIL=
201308281100 METAR MRLM NIL=
201308281200 METAR MRLM 281200Z 30003KT 9999 DZ VCSH FEW005 BKN015 23/22 A2988 VISIBY 7KM QDT N DUE RN=
201308281256 METAR MRLM 281256Z 31001KT 9999 +DZ VCSH FEW005 BKN015 24/23 A2990=
201308281300 METAR MRLM 31001KT 9999 +DZ VCSH FEW005 BKN015 24/23 A2990=
201308281400 METAR MRLM 281400Z 32006KT 9999 DZ VCSH SCT008 SCT015 24/22 A2992=
201308281459 METAR MRLM 281459Z 30005KT 9999 DZ VCSH SCT007 SCT020 24/23 A2993=
201308281500 METAR MRLM 30005KT 9999 DZ VCSH SCT007 SCT020 24/23 A2993=
201308281600 METAR MRLM 281600Z 32005KT 9999 FEW020 BKN080 27/23 A2992 REDZ=
201308281700 METAR MRLM 281700Z 04005KT 9999 SCT028 BKN080 29/23 A2992=
201308281800 METAR MRLM 281800Z 04004KT 9999 FEW030 BKN080 29/23 A2990=
201308281900 METAR MRLM 281900Z 06005KT 9999 FEW025 BKN090 28/23 A2988=
201308282000 METAR MRLM 282000Z 05003KT 9999 FEW025 SCT140 SCT260 28/23 A2985=
201308282100 METAR MRLM 282100Z 05002KT 9999 FEW025 SCT270 28/23 A2983=
201308282200 METAR MRLM 282200Z 04003KT 9999 FEW025 29/23 A2982=
201308282300 METAR MRLM 282300Z 03003KT 9999 FEW025 SCT270 28/23 A2984=
201308282352 METAR MRLM 290000Z 28002KT CAVOK 26/23 A2986=
201308290000 METAR MRLM 290000Z 28002KT CAVOK 26/23 A2986=
201308290100 METAR MRLM NIL=
201308290200 METAR MRLM NIL=
201308290300 METAR MRLM NIL=
201308290400 METAR MRLM NIL=
201308290500 METAR MRLM NIL=
201308290600 METAR MRLM NIL=
201308290700 METAR MRLM NIL=
201308290800 METAR MRLM NIL=
201308290900 METAR MRLM NIL=
201308291000 METAR MRLM NIL=
201308291100 METAR MRLM NIL=
201308291200 METAR MRLM 291200Z 00000KT CAVOK 23/22 A2989=
201308291300 METAR MRLM 291300Z 25003KT 9999 FEW010 BKN120 24/22 A2990=
201308291400 METAR MRLM 291400Z 25003KT 9999 FEW015 BKN130 26/23 A2993=
201308291500 METAR MRLM 291500Z 25002KT 9999 FEW020 BKN130 28/23 A2994=
201308291600 METAR MRLM 291600Z 05004KT 9999 SCT030 BKN130 28/23 A2994=
201308291700 METAR MRLM 291700Z 03006KT 9999 BKN020 SCT120 28/23 A2994=
201308291800 METAR MRLM 291800Z 02005KT 9999 SCT030 BKN130 28/21 A2993=
201308291900 METAR MRLM 291900Z 02005KT 9999 FEW030 BKN130 28/22 A2989=
201308292000 METAR MRLM 292000Z 05003KT 9999 FEW035 SCT140 SCT250 29/22 A2982=
201308292100 METAR MRLM 292100Z 07007KT 9999 FEW030 SCT130 SCT250 28/23 A2981=
201308292200 METAR MRLM 292200Z 08008KT CAVOK 28/23 A2983=
201308292300 METAR MRLM 292300Z 00000KT 9999 FEW020 SCT130 SCT250 28/23 A2985=
201308300000 METAR MRLM 300000Z 25003KT 9999 SCT015 SCT130 26/23 A2985=
201308300100 METAR MRLM NIL=
201308300200 METAR MRLM NIL=
201308300300 METAR MRLM NIL=
201308300400 METAR MRLM NIL=
201308300500 METAR MRLM NIL=
201308300600 METAR MRLM NIL=
201308300700 METAR MRLM NIL=
201308300800 METAR MRLM NIL=
201308300900 METAR MRLM NIL=
201308301000 METAR MRLM NIL=
201308301100 METAR MRLM NIL=
201308301200 METAR MRLM 301200Z 25004KT 9999 FEW010 BKN120 23/21 A2988=
201308301300 METAR MRLM 301300Z 00000KT 9999 FEW010 BKN120 23/22 A2990=
201308301400 METAR MRLM 301400Z 00000KT 9999 FEW010 SCT130 SCT250 23/22 A2991=
201308301500 METAR MRLM 301500Z 29002KT 9999 FEW010 SCT130 SCT250 24/22 A2993=
201308301600 METAR MRLM 301600Z 32003KT 9999 SCT020 BKN130 27/23 A2993=
201308301700 METAR MRLM 301700Z 35004KT 9999 DZ SCT020 BKN120 27/22 A2995=
201308301725 METAR MRLM 301725Z 04006KT 8000 4000N RA BKN015 26/22 A2996=
201308301800 METAR MRLM 301800Z 28002KT 9999 DZ BKN010 SCT110 25/23 A2992 RERA=
201308301900 METAR MRLM 301900Z 00000KT 9999 -DZ FEW015 SCT120 SCT240 26/23 A2987=
201308302000 METAR MRLM 302000Z 00000KT 9999 -DZ FEW015 SCT130 SCT240 26/24 A2983=
201308302100 METAR MRLM 302100Z 00000KT 9999 FEW015 SCT130 SCT250 27/24 A2983=
201308302200 METAR MRLM 302200Z 01004KT 9999 FEW020 BKN130 27/23 A2982=
201308302300 METAR MRLM 302300Z 31003KT CAVOK 26/23 A2983=
201308310000 METAR MRLM 310000Z 00000KT CAVOK 26/23 A2984=
201308310100 METAR MRLM NIL=
201308310200 METAR MRLM NIL=
201308310300 METAR MRLM NIL=
201308310400 METAR MRLM NIL=
201308310500 METAR MRLM NIL=
201308310600 METAR MRLM NIL=
201308310700 METAR MRLM NIL=
201308310800 METAR MRLM NIL=
201308310900 METAR MRLM NIL=
201308311000 METAR MRLM NIL=
201308311100 METAR MRLM NIL=
201308311200 METAR MRLM 311200Z 07012KT 9999 4000N DZ VCSH BKN020 23/22 A2989=
201308311300 METAR MRLM 311300Z 02014KT 1000 +RA BKN015 25/23 A2989 REDZ=
201308311400 METAR MRLM 311400Z 27011KT 9999 +DZ SCT020 BKN080 23/22 A2989 RERA=
201308311500 METAR MRLM 311500Z 28005KT 9999 FEW015 BKN080 27/24 A2988 REDZ=
201308311600 METAR MRLM 311600Z 32003KT 9999 FEW025 SCT070 SCT090 28/23 A2981=
201308311700 METAR MRLM 311700Z 06004KT 9999 FEW025 BKN090 29/24 A2990=
201308311800 METAR MRLM 311800Z 02013KT 9999 BKN020 28/24 A2987=
201308311900 METAR MRLM 311900Z 03009KT 9999 BKN015 27/24 A2986=
201308312000 METAR MRLM 312000Z 03005KT 9999 FEW025 BKN260 28/22 A2984=
201308312100 METAR MRLM 312100Z 04005KT 9999 FEW025 BKN260 28/23 A2983=
201308312103 METAR MRLM 312103Z 04005KT 9999 FEW025 BKN260 28/23 A2983=
201308312200 METAR MRLM NIL=
201308312300 METAR MRLM 312300Z 32003KT 9999 FEW025 SCT120 27/22 A2986=
201308312357 METAR MRLM 010000Z 25002KT CAVOK 26/25 A2988=
201309010000 METAR MRLM 010000Z 25002KT CAVOK 26/25 A2988=
201309010100 METAR MRLM NIL=
201309010200 METAR MRLM NIL=
201309010300 METAR MRLM NIL=
201309010400 METAR MRLM NIL=
201309010500 METAR MRLM NIL=
201309010600 METAR MRLM NIL=
201309010700 METAR MRLM NIL=
201309010800 METAR MRLM NIL=
201309010900 METAR MRLM NIL=
201309011000 METAR MRLM NIL=
201309011100 METAR MRLM NIL=
201309011200 METAR MRLM 011200Z 25003KT CAVOK 23/21 A2987=
201309011300 METAR MRLM 011300Z 25004KT CAVOK 25/22 A2988=
201309011400 METAR MRLM 011400Z 25004KT CAVOK 29/22 A2989=
201309011500 METAR MRLM 011500Z 07005KT 9999 FEW035 SCT140 29/22 A2990=
201309011600 METAR MRLM 011600Z 07005KT 9999 FEW032 SCT270 29/23 A2991=
201309011700 METAR MRLM 011700Z 07006KT 9999 FEW035 BKN150 29/23 A2991=
201309011800 METAR MRLM 011800Z 09008KT 9999 FEW030 BKN130 29/23 A2989=
201309011900 METAR MRLM 011900Z 10008KT 9999 FEW030 SCT140 SCT270 30/24 A2988=
201309012000 METAR MRLM 012000Z 10009KT 9999 OVC025 30/24 A2986=
201309012100 METAR MRLM 012100Z 13010KT 9999 FEW023 SCT120 SCT270 28/23 A2985=
201309012155 METAR MRLM 012155Z 14007KT 9999 FEW020 SCT140 SCT270 28/24 A2984=
201309012200 METAR MRLM 14007KT 9999 FEW020 SCT140 SCT270 28/24 A2984=
201309012300 METAR MRLM 012300Z 15006KT 9999 FEW020 SCT140 SCT270 28/23 A2983=
201309012356 METAR MRLM 020000Z 31002KT 9999 FEW015 BKN150 27/23 A2984=
201309020000 METAR MRLM 020000Z 31002KT 9999 FEW015 BKN150 27/23 A2984=
201309020100 METAR MRLM NIL=
201309020200 METAR MRLM NIL=
201309020300 METAR MRLM NIL=
201309020400 METAR MRLM NIL=
201309020500 METAR MRLM NIL=
201309020600 METAR MRLM NIL=
201309020700 METAR MRLM NIL=
201309020800 METAR MRLM NIL=
201309020900 METAR MRLM NIL=
201309021000 METAR MRLM NIL=
201309021100 METAR MRLM NIL=
201309021200 METAR MRLM 021200Z 24005KT 9999 FEW010 23/22 A2990=
201309021300 METAR MRLM 021300Z 24004KT 9999 FEW015 25/22 A2993=
201309021400 METAR MRLM 021400Z 23003KT 9999 FEW030 BKN140 29/23 A2994=
201309021500 METAR MRLM 021500Z 09005KT 9999 FEW030 BKN140 30/24 A2994=
201309021600 METAR MRLM 021600Z 07004KT 9999 FEW030 BKN140 30/24 A2995=
201309021700 METAR MRLM 021700Z 07005KT 9999 FEW030 BKN140 30/23 A2993=
201309021800 METAR MRLM 021800Z 05008KT 9999 FEW030 SCT140 SCT250 30/24 A2991=
201309021900 METAR MRLM NIL=
201309022000 METAR MRLM 022000Z 04006KT 9999 FEW030 SCT260 30/23 A2985=
201309022100 METAR MRLM 022100Z 05007KT 9999 FEW030 SCT260 30/24 A2985=
201309022200 METAR MRLM 022200Z 05005KT 9999 FEW025 BKN130 29/24 A2985=
201309022300 METAR MRLM 022300Z 02003KT 9999 FEW025 SCT130 SCT250 29/23 A2986=
201309030000 METAR MRLM 030000Z 23002KT 9999 FEW015 BKN120 26/24 A2987=
201309030100 METAR MRLM NIL=
201309030200 METAR MRLM NIL=
201309030300 METAR MRLM NIL=
201309030400 METAR MRLM NIL=
201309030500 METAR MRLM NIL=
201309030600 METAR MRLM NIL=
201309030700 METAR MRLM NIL=
201309030800 METAR MRLM NIL=
201309030900 METAR MRLM NIL=
201309031000 METAR MRLM NIL=
201309031100 METAR MRLM NIL=
201309031200 METAR MRLM 031200Z 25005KT 9999 -DZ FEW010 SCT110 SCT240 23/22 A2990=
201309031300 METAR MRLM 031300Z 26004KT CAVOK 24/23 A2991=
201309031400 METAR MRLM 031400Z 28003KT CAVOK 28/23 A2993=
201309031500 METAR MRLM 031500Z 22003KT 9999 FEW035 SCT140 SCT260 30/23 A2992=
201309031600 METAR MRLM 031600Z 07005KT 9999 FEW030 SCT260 29/23 A2992=
201309031700 METAR MRLM 031700Z 05006KT 9999 FEW030 BKN260 29/23 A2991=
201309031800 METAR MRLM 031800Z 03010KT 9999 FEW030 BKN260 30/24 A2988=
201309031900 METAR MRLM 031900Z 04008KT 9999 FEW030 BKN250 30/24 A2986=
201309032000 METAR MRLM 032000Z 05007KT 9999 FEW030 BKN250 30/23 A2983=
201309032100 METAR MRLM 032100Z 06006KT 9999 FEW035 BKN250 30/23 A2981=
201309032200 METAR MRLM 032200Z 07003KT 9999 FEW030 BKN250 30/24 A2980=
201309032300 METAR MRLM 032300Z 07003KT 9999 FEW030 BKN250 29/23 A2981=
201309040000 METAR MRLM 040000Z 10005KT 9999 FEW020 BKN250 28/24 A2982=
201309040100 METAR MRLM NIL=
201309040200 METAR MRLM NIL=
201309040300 METAR MRLM NIL=
201309040400 METAR MRLM NIL=
201309040500 METAR MRLM NIL=
201309040600 METAR MRLM NIL=
201309040700 METAR MRLM NIL=
201309040800 METAR MRLM NIL=
201309040900 METAR MRLM NIL=
201309041000 METAR MRLM NIL=
201309041100 METAR MRLM NIL=
201309041200 METAR MRLM 041200Z 24005KT CAVOK 23/21 A2987=
201309041300 METAR MRLM 041300Z 23005KT CAVOK 26/22 A2988=
201309041400 METAR MRLM 041400Z 20002KT CAVOK 30/23 A2990=
201309041500 METAR MRLM 041500Z 10004KT FEW032 30/24 A2991=
201309041600 METAR MRLM 041600Z 08007KT 9999 FEW032 30/24 A2991=
201309041700 METAR MRLM 041700Z 09007KT 9999 FEW030 SCT080 30/24 A2990=
201309041800 METAR MRLM 041800Z 09009KT 9999 FEW935 SCT270 31/24 A2987=
201309041900 METAR MRLM 041900Z 10008KT 9999 FEW035 BKN270 31/24 A2984=
201309042000 METAR MRLM 042000Z 09008KT 9999 FEW035 SCT090 SCT270 31/24 A2983=
201309042100 METAR MRLM 042100Z 08007KT 9999 SCT030 SCT270 30/24 A2981=
201309042200 METAR MRLM 042200Z 09007KT 9999 BKN025 29/24 A2981=
201309042300 METAR MRLM 042300Z 09005KT 9999 SCT020 SCT280 29/25 A2983=
201309042354 METAR MRLM 050000Z 10001KT 9999 FEW020 BKN280 28/24 A2984=
201309050000 METAR MRLM 050000Z 10001KT 9999 FEW020 BKN280 28/24 A2984=
201309050100 METAR MRLM NIL=
201309050200 METAR MRLM NIL=
201309050300 METAR MRLM NIL=
201309050400 METAR MRLM NIL=
201309050500 METAR MRLM NIL=
201309050600 METAR MRLM NIL=
201309050700 METAR MRLM NIL=
201309050800 METAR MRLM NIL=
201309050900 METAR MRLM NIL=
201309051000 METAR MRLM NIL=
201309051100 METAR MRLM NIL=
201309051200 METAR MRLM 051200Z 23006KT CAVOK 24/22 A2984=
201309051300 METAR MRLM 051300Z 24003KT CAVOK 26/23 A2990=
201309051400 METAR MRLM 051400Z 07002KT 9999 FEW035 SCT280 31/23 A2991=
201309051500 METAR MRLM 051500Z 09002KT 9999 FEW035 SCT280 30/23 A2991=
201309051600 METAR MRLM 051600Z 07006KT 9999 FEW030 BKN280 30/24 A2990=
201309051700 METAR MRLM 051700Z 07007KT 9999 FEW028 BKN280 30/24 A2990=
201309051800 METAR MRLM 051800Z 06009KT 9999 FEW030 BKN280 30/24 A2987=
201309051900 METAR MRLM 051900Z 05005KT 9999 FEW030 BKN280 30/24 A2986=
201309052000 METAR MRLM 052000Z 03006KT 9999 FEW030 BKN280 31/24 A2983=
201309052100 METAR MRLM 052100Z 03006KT 9999 SCT032 BKN280 31/24 A2981=
201309052200 METAR MRLM 052200Z 04006KT 9999 FEW032 BKN280 30/24 A2981=
201309052300 METAR MRLM 052300Z 07004KT 9999 FEW030 BKN280 30/24 A2983=
201309052355 METAR MRLM 060000Z 05004KT 9999 BKN025 29/23 A2985=
201309060000 METAR MRLM 060000Z 05004KT 9999 BKN025 29/23 A2985=
201309060100 METAR MRLM NIL=
201309060200 METAR MRLM NIL=
201309060300 METAR MRLM NIL=
201309060400 METAR MRLM NIL=
201309060500 METAR MRLM NIL=
201309060600 METAR MRLM NIL=
201309060700 METAR MRLM NIL=
201309060800 METAR MRLM NIL=
201309060900 METAR MRLM NIL=
201309061000 METAR MRLM NIL=
201309061100 METAR MRLM NIL=
201309061200 METAR MRLM 061200Z 27004KT CAVOK 23/22 A2987=
201309061300 METAR MRLM 061300Z 25003KT 9999 FEW015 BKN260 26/23 A2988=
201309061400 METAR MRLM 061400Z 31003KT 9999 FEW030 SCT260 29/24 A2990=
201309061500 METAR MRLM 061500Z 33004KT 9999 FEW040 31/23 A2992=
201309061600 METAR MRLM 061600Z 36006KT 9999 FEW040 32/23 A2991=
201309061700 METAR MRLM 061700Z 03008KT 9999 FEW035 SCT250 31/24 A2991=
201309061800 METAR MRLM 061800Z 04008KT 9999 FEW030 SCT250 30/24 A2986=
201309061900 METAR MRLM 061900Z 05009KT 9999 FEW030 SCT250 30/24 A2984=
201309062000 METAR MRLM 062000Z 05006KT 9999 FEW030 BKN250 30/24 A2981=
201309062100 METAR MRLM 062100Z 06005KT 9999 FEW030 BKN250 30/24 A2980=
201309062200 METAR MRLM 062200Z 10003KT 9999 SCT025 BKN250 29/24 A2980=
201309062300 METAR MRLM 062300Z 12003KT 9999 FEW020 BKN250 29/24 A2982=
201309070000 METAR MRLM 070000Z 00000KT 9999 FEW020 BKN250 28/24 A2984=
201309070100 METAR MRLM NIL=
201309070200 METAR MRLM NIL=
201309070300 METAR MRLM NIL=
201309070400 METAR MRLM NIL=
201309070500 METAR MRLM NIL=
201309070600 METAR MRLM NIL=
201309070700 METAR MRLM NIL=
201309070800 METAR MRLM NIL=
201309070900 METAR MRLM NIL=
201309071000 METAR MRLM NIL=
201309071100 METAR MRLM NIL=
201309071200 METAR MRLM 071200Z 28005KT 9999 FEW015 BKN120 25/22 A2985=
201309071300 METAR MRLM 071300Z 27004KT 9999 FEW010CB FEW020 24/22 A2986=
201309071400 METAR MRLM 071400Z 28003KT 9999 FEW015 BKN200 25/22 A2988=
201309071500 METAR MRLM 071500Z 29003KT 9999 FEW015 BKN200 26/22 A2991=
201309071600 METAR MRLM 071600Z 00000KT 9999 -DZ FEW015 SCT130 SCT230 26/23 A2992=
201309071700 METAR MRLM 071700Z 00000KT 9999 +DZ FEW010 SCT130 SCT230 26/24 A2992=
201309071800 METAR MRLM 071800Z 00000KT 9999 DZ SCT010 SCT120 26/24 A2990=
201309071900 METAR MRLM 071900Z 07010KT 9999 SCT015 SCT130 26/23 A2988 REDZ=
201309072000 METAR MRLM 072000Z 10006KT 9999 FEW020 SCT130 27/24 A2985=
201309072100 METAR MRLM 072100Z 13005KT 9999 FEW020 SCT130 SCT240 27/23 A2982=
201309072200 METAR MRLM 072200Z 13006KT 9999 FEW030 SCT130 SCT240 27/22 A2982=
201309072300 METAR MRLM 072300Z 19003KT 9999 FEW020 BKN240 27/23 A2981=
201309080000 METAR MRLM 080000Z 00000KT CAVOK 26/23 A2982=
201309080100 METAR MRLM NIL=
201309080200 METAR MRLM NIL=
201309080300 METAR MRLM NIL=
201309080400 METAR MRLM NIL=
201309080500 METAR MRLM NIL=
201309080600 METAR MRLM NIL=
201309080700 METAR MRLM NIL=
201309080800 METAR MRLM NIL=
201309080900 METAR MRLM NIL=
201309081000 METAR MRLM NIL=
201309081100 METAR MRLM NIL=
201309081200 METAR MRLM 081227 27004KT CAVOK 24/22 A2995=
201309081227 METAR MRLM 081227Z 27004KT CAVOK 24/22 A2995=
201309081300 METAR MRLM 081300Z 27004KT CAVOK 26/23 A2987=
201309081400 METAR MRLM 081400Z 09002KT CAVOK 29/23 2988=
201309081500 METAR MRLM 081500Z 06006KT 9999 FEW030 SCT280 29/23 A2989=
201309081600 METAR MRLM 081600Z 05008KT 9999 FEW038 SCT270 30/23 A2989=
201309081700 METAR MRLM 081700Z 06007KT 9999 FEW035 30/23 A2988=
201309081800 METAR MRLM 081800Z 07006KT 9999 FEW030 SCT280 30/24 A2985=
201309081900 METAR MRLM 081900Z 08006KT 9999 FEW032 SCT280 30/23 A2981=
201309082000 METAR MRLM 082000Z 09005KT 9999 FEW035 SCT280 30/23 A2978=
201309082100 METAR MRLM 082100Z 09006KT 9999 FEW035 BKN280 30/23 A2976=
201309082200 METAR MRLM 082200Z 10005KT 9999 FEW035 SCT280 30/23 A2976=
201309082300 METAR MRLM 082300Z 15002KT 9999 FEW030 BKN280 29/23 A2978=
201309082356 METAR MRLM 090000Z 24002KT CAVOK 27/24 A2970=
201309090000 METAR MRLM 090000Z 24002KT CAVOK 27/24 A2970=
201309090100 METAR MRLM NIL=
201309090200 METAR MRLM NIL=
201309090300 METAR MRLM NIL=
201309090400 METAR MRLM NIL=
201309090500 METAR MRLM NIL=
201309090600 METAR MRLM NIL=
201309090700 METAR MRLM NIL=
201309090800 METAR MRLM NIL=
201309090900 METAR MRLM NIL=
201309091000 METAR MRLM NIL=
201309091100 METAR MRLM NIL=
201309091200 METAR MRLM 091200Z 26004KT CAVOK 25/23 A2985=
201309091300 METAR MRLM 091300Z 26004KT CAVOK 26/24 A2886=
201309091400 METAR MRLM 091400Z 20003KT 9999 FEW030 BKN300 30/24 A2988=
201309091500 METAR MRLM 091500Z 12004KT 9999 SCT032 BKN300 30/24 A2990=
201309091600 METAR MRLM 091600Z 11006KT 9999 SCT030 SCT280 30/24 A2990=
201309091700 METAR MRLM 091700Z 10006KT 9999 FEW035 BKN280 31/24 A2988=
201309091800 METAR MRLM 091800Z 10007KT 9999 FEW032 BKN280 31/24 A2986=
201309091900 METAR MRLM 091900Z 10009KT 9999 FEW035 BKN280 31/24 A2983=
201309092000 METAR MRLM 092000Z 10008KT 9999 BKN035 SCT280 31/24 A2980=
201309092100 METAR MRLM 092100Z 10007KT 9999 BKN030 SCT280 31/25 A2979=
201309092200 METAR MRLM 092200Z 11006KT 9999 FEW035 BKN280 31/24 A2980=
201309092300 METAR MRLM 092300Z 14006KT 9999 FEW030 SCT150 SCT280 30/24 A2982=
201309092355 METAR MRLM 100000Z 18003KT 9999 FEW025 SCT150 SCT280 29/24 A2983=
201309100000 METAR MRLM 100000Z 18003KT 9999 FEW025 SCT150 SCT280 29/24 A2983=
201309100100 METAR MRLM NIL=
201309100200 METAR MRLM NIL=
201309100300 METAR MRLM NIL=
201309100400 METAR MRLM NIL=
201309100500 METAR MRLM NIL=
201309100600 METAR MRLM NIL=
201309100700 METAR MRLM NIL=
201309100800 METAR MRLM NIL=
201309100900 METAR MRLM NIL=
201309101000 METAR MRLM NIL=
201309101100 METAR MRLM NIL=
201309101200 METAR MRLM 101200Z 28002KT 9999 FEW015 BKN260 26/23 A2988=
201309101300 METAR MRLM 101300Z 28002KT 9999 FEW015 BKN260 26/23 A2988=
201309101400 METAR MRLM 101400Z 26003KT 9999 FEW030 BKN260 30/24 A2989=
201309101500 METAR MRLM 101500Z 09004KT 9999 SCT030 SCT140 30/24 A2990=
201309101600 METAR MRLM 101600Z 04006KT 9999 FEW030 BKN260 29/24 A2990=
201309101700 METAR MRLM 101700Z 03005KT 9999 FEW030 BKN250 30/24 A2990=
201309101800 METAR MRLM 101800Z 04006KT 9999 FEW030 BKN250 30/24 A2987=
201309101900 METAR MRLM 101900Z 04006KT 9999 FEW030 BKN250 30/24 A2983=
201309102000 METAR MRLM 102000Z 04008KT 9999 FEW030 BKN250 30/24 A2981=
201309102100 METAR MRLM 102100Z 05006KT 9999 FEW030 BKN250 30/24 A2980=
201309102200 METAR MRLM 102200Z 06006KT 9999 SCT030 BKN250 30/24 A2980=
201309102300 METAR MRLM NIL=
201309110000 METAR MRLM 110000Z 12005KT 9999 SCT020 SCT250 28/25 A2982=
201309110100 METAR MRLM NIL=
201309110200 METAR MRLM NIL=
201309110300 METAR MRLM NIL=
201309110400 METAR MRLM NIL=
201309110500 METAR MRLM NIL=
201309110600 METAR MRLM NIL=
201309110700 METAR MRLM NIL=
201309110800 METAR MRLM NIL=
201309110900 METAR MRLM NIL=
201309111000 METAR MRLM NIL=
201309111100 METAR MRLM NIL=
201309111200 METAR MRLM 111200Z 23005KT 9999 FEW010 BKN250 23/22 A2986=
201309111300 METAR MRLM 111300Z 25003KT 9999 FEW010 BKN250 23/22 A2987=
201309111400 METAR MRLM 111400Z 00000KT 9999 SCT010 BKN250 24/22 A2988=
201309111500 METAR MRLM 111500Z 00000KT 9999 FEW020 BKN250 27/23 A2989=
201309111600 METAR MRLM 111600Z 06005KT 9999 FEW030 SCT140 30/23 A2988=
201309111700 METAR MRLM 111700Z 05007KT 9999 FEW030 SCT140 30/24 A2987=
201309111800 METAR MRLM 111800Z 03007KT 9999 FEW030 30/24 A2984=
201309111900 METAR MRLM 111900Z 03005KT 9999 FEW030 30/24 A2982=
201309112000 METAR MRLM 112000Z 00000KT 9999 FEW030 SCT140 SCT250 30/24 A2980=
201309112100 METAR MRLM 112100Z 23003KT 9999 SCT030 SCT130 30/24 A2977=
201309112200 METAR MRLM 112200Z 09004KT 9999 SCT030 BKN130 29/24 A2979=
201309112300 METAR MRLM 112300Z 07004KT 9999 SCT030 BKN120 29/24 A2981=
201309120000 METAR MRLM 120000Z 00000KT 9999 BKN020 SCT120 28/24 A2983=
201309120100 METAR MRLM NIL=
201309120200 METAR MRLM NIL=
201309120300 METAR MRLM NIL=
201309120400 METAR MRLM NIL=
201309120500 METAR MRLM NIL=
201309120600 METAR MRLM NIL=
201309120700 METAR MRLM NIL=
201309120800 METAR MRLM NIL=
201309120900 METAR MRLM NIL=
201309121000 METAR MRLM NIL=
201309121100 METAR MRLM NIL=
201309121200 METAR MRLM 121200Z 25003KT CAVOK 23/22 A2984=
201309121300 METAR MRLM 121300Z 23004KT CAVOK 25/23 A2985=
201309121400 METAR MRLM 121400Z 32005KT CAVOK 29/23 A2986=
201309121500 METAR MRLM 121500Z 01006KT 9999 FEW035 SCT140 SCT270 29/22 A2988=
201309121600 METAR MRLM 121600Z 02008KT 9999 FEW035 SCT140 SCT270 30/23 A2987=
201309121700 METAR MRLM 121700Z 01007KT 9999 FEW040 SCT140 30/21 A2986=
201309121800 METAR MRLM 121800Z 01009KT 9999 FEW035 SCT090 30/23 A2983=
201309121900 METAR MRLM 121900Z 36007KT 9999 VCTS FEW010CB FEW030 SCT090 29/23 A2981=
201309122000 METAR MRLM 122000Z 01003KT 9999 DZ FEW030 BKN090 29/23 A2979 RETS=
201309122100 METAR MRLM 122100Z 22004KT 9999 FEW018 BKN090 27/24 A2978 REDZ=
201309122200 METAR MRLM 122200Z 24004KT 9999 FEW015 SCT090 SCT150 27/24 A2977=
201309122300 METAR MRLM 122300Z 26004KT 9999 FEW015 SCT090 SCT150 26/24 A2978=
201309122354 METAR MRLM 130000Z 23003KT 9999 FEW010 BKN090 26/23 A2979=
201309130000 METAR MRLM 130000Z 23003KT 9999 FEW010 BKN090 26/23 A2979=
201309130100 METAR MRLM NIL=
201309130200 METAR MRLM NIL=
201309130300 METAR MRLM NIL=
201309130400 METAR MRLM NIL=
201309130500 METAR MRLM NIL=
201309130600 METAR MRLM NIL=
201309130700 METAR MRLM NIL=
201309130800 METAR MRLM NIL=
201309130900 METAR MRLM NIL=
201309131000 METAR MRLM NIL=
201309131100 METAR MRLM NIL=
201309131200 METAR MRLM 131200Z 25004KT CAVOK 23/21 A2978=
201309131300 METAR MRLM 131300Z 27003KT CAVOK 26/23 A2979=
201309131400 METAR MRLM 131400Z 02002KT CAVOK 30/22 A2980=
201309131500 METAR MRLM 131500Z 07005KT CAVOK 29/22 A2980=
201309131600 METAR MRLM 131600Z 08007KT 9999 FEW035 SCT270 30/23 A2979=
201309131700 METAR MRLM 131700Z 08005KT 9999 FEW035 30/23 A2978=
201309131800 METAR MRLM 131800Z 09006KT 9999 FEW035 30/23 A2975=
201309131900 METAR MRLM 131900Z 10006KT 9999 FEW040 30/23 A2972=
201309132000 METAR MRLM 132000Z 09005KT 9999 FEW035 30/24 A2970=
201309132100 METAR MRLM 132100Z 06005KT 9999 SCT032 30/24 A2969=
201309132200 METAR MRLM 132200Z 06004KT 9999 SCT030 SCT080 30/24 A2969=
201309132300 METAR MRLM 132300Z 11004KT CAVOK 30/23 A2969=
201309132354 METAR MRLM 140000Z 11005KT CAVOK 29/23 A2971=
201309140000 METAR MRLM 140000Z 11005KT CAVOK 29/23 A2971=
201309140100 METAR MRLM NIL=
201309140200 METAR MRLM NIL=
201309140300 METAR MRLM NIL=
201309140400 METAR MRLM NIL=
201309140500 METAR MRLM NIL=
201309140600 METAR MRLM NIL=
201309140700 METAR MRLM NIL=
201309140800 METAR MRLM NIL=
201309140900 METAR MRLM NIL=
201309141000 METAR MRLM NIL=
201309141100 METAR MRLM NIL=
201309141200 METAR MRLM 141200Z 25003KT 9999 FEW010 SCT120 SCT250 24/23 A2979=
201309141300 METAR MRLM 141300Z 25004KT 9999 FEW010 BKN250 25/23 A2980=
201309141400 METAR MRLM 141400Z 23004KT 9999 FEW015 BKN250 26/24 A2982=
201309141500 METAR MRLM 141500Z 13003KT 9999 FEW025 BKN250 29/24 A2982=
201309141600 METAR MRLM 141600Z 11004KT 9999 FEW035 SCT140 SCT260 31/24 A2982=
201309141700 METAR MRLM 141700Z 11007KT 9999 FEW040 SCT140 SCT260 31/23 A2981=
201309141800 METAR MRLM 141800Z 10007KT 9999 FEW035 SCT260 31/24 A2978=
201309141900 METAR MRLM 141900Z 09006KT 9999 FEW030 BKN260 31/24 A2975=
201309142000 METAR MRLM 142000Z 09007KT 9999 FEW030 BKN260 31/24 A2973=
201309142100 METAR MRLM 142100Z 10007KT 9999 FEW030 BKN260 31/24 A2972=
201309142200 METAR MRLM 142200Z 11005KT 9999 FEW030 BKN260 31/24 A2973=
201309142300 METAR MRLM 142300Z 13007KT 9999 FEW030 BKN260 30/24 A2974=
201309150000 METAR MRLM 150000Z 13005KT 9999 FEW020 BKN250 29/24 A2976=
201309150100 METAR MRLM NIL=
201309150200 METAR MRLM NIL=
201309150300 METAR MRLM NIL=
201309150400 METAR MRLM NIL=
201309150500 METAR MRLM NIL=
201309150600 METAR MRLM NIL=
201309150700 METAR MRLM NIL=
201309150800 METAR MRLM NIL=
201309150900 METAR MRLM NIL=
201309151000 METAR MRLM NIL=
201309151100 METAR MRLM NIL=
201309151200 METAR MRLM 151200Z 23004KT 9999 FEW010 SCT250 25/23 A2982=
201309151300 METAR MRLM 151300Z 26002KT 9999 FEW020 SCT260 27/23 A2983=
201309151400 METAR MRLM 151400Z 10002KT 999 FEW030 29/23 A2987=
201309151500 METAR MRLM 151500Z 08002KT 9999 FEW030 30/23 A2988=
201309151600 METAR MRLM 151600Z 11005KT 9999 FEW035 SCT270 31/24 A2987=
201309151700 METAR MRLM 151700Z 11007KT 9999 FEW035 SCT270 31/24 A2985=
201309151800 METAR MRLM 151800Z 09008KT 9999 FEW035 SCT270 32/24 A2982=
201309151900 METAR MRLM 151900Z 09009KT 9999 FEW035 BKN270 32/24 A2978=
201309152000 METAR MRLM 152000Z 09008KT 9999 FEW030 SCT130 SCT260 31/24 A2977=
201309152100 METAR MRLM 152100Z 10009KT 9999 FEW035 BKN260 32/24 A2975=
201309152200 METAR MRLM 152200Z 09007KT 9999 FEW030 BKN260 31/24 A2976=
201309152300 METAR MRLM 152300Z 09008KT 9999 FEW030 BKN260 30/24 A2978=
201309160000 METAR MRLM 160000Z 09005KT 9999 SCT025 BKN260 29/24 A2980=
201309160100 METAR MRLM NIL=
201309160200 METAR MRLM NIL=
201309160300 METAR MRLM NIL=
201309160400 METAR MRLM NIL=
201309160500 METAR MRLM NIL=
201309160600 METAR MRLM NIL=
201309160700 METAR MRLM NIL=
201309160800 METAR MRLM NIL=
201309160900 METAR MRLM NIL=
201309161000 METAR MRLM NIL=
201309161100 METAR MRLM NIL=
201309161200 METAR MRLM 161200Z 25005KT CAVOK 25/23 A2980=
201309161300 METAR MRLM 161300Z 25004KT CAVOK 27/23 A2981=
201309161400 METAR MRLM 161400Z 26002KT CAVOK 29/24 A2984=
201309161500 METAR MRLM 161500Z 32004KT CAVOK 31/23 A2985=
201309161600 METAR MRLM 161600Z 02008KT 9999 FEW045 BKN280 32/24 A2985=
201309161700 METAR MRLM 161700Z 35011KT 9999 FEW040 BKN270 31/23 A2983=
201309161800 METAR MRLM 161800Z 36012KT 9999 FEW030 SCT150 SCT270 30/24 A2981=
201309161900 METAR MRLM 161900Z 36012KT 9999 BKN028 30/25 A2978=
201309162000 METAR MRLM 162000Z 02010KT 9999 OVC020 29/25 A2978=
201309162100 METAR MRLM 162100Z 36005KT 9999 BKN025 29/24 A2976=
201309162200 METAR MRLM 162200Z 33005KT 9999 BKN022 29/24 A2976=
201309162300 METAR MRLM 162300Z 31006KT 9999 BKN015 28/25 A2976=
201309162355 METAR MRLM 170000Z 31007KT 9999 SCT014 BKN150 27/24 A2977=
201309170000 METAR MRLM 170000Z 31007KT 9999 SCT014 BKN150 27/24 A2977=
201309170100 METAR MRLM NIL=
201309170200 METAR MRLM NIL=
201309170300 METAR MRLM NIL=
201309170400 METAR MRLM NIL=
201309170500 METAR MRLM NIL=
201309170600 METAR MRLM NIL=
201309170700 METAR MRLM NIL=
201309170800 METAR MRLM NIL=
201309170900 METAR MRLM NIL=
201309171000 METAR MRLM NIL=
201309171100 METAR MRLM NIL=
201309171200 METAR MRLM 171200Z 20002KT CAVOK 25/23 A2980=
201309171300 METAR MRLM 171300Z 25003KT CAVOK 27/23 A2982=
201309171400 METAR MRLM 171400Z 30003KT CAVOK 30/23 A2984=
201309171500 METAR MRLM 171500Z 02007KT 9999 FEW035 BKN140 30/24 A2986=
201309171600 METAR MRLM 171600Z 04007KT 9999 FEW035 BKN110 31/24 A2986=
201309171700 METAR MRLM 171700Z 03009KT 9999 FEW030 SCT110 SCT270 31/24 A2984=
201309171800 METAR MRLM 171800Z 04007KT 9999 FEW028 SCT110 30/24 A2982=
201309171900 METAR MRLM 171900Z 02007KT 9999 FEW025 BKN080 30/25 A2979=
201309172000 METAR MRLM 172000Z 03009KT 9999 SCT025 SCT120 30/25 A2975=
201309172100 METAR MRLM 172100Z 02008KT 9999 BKN025 30/25 A2974=
201309172200 METAR MRLM 172200Z 01007KT 9999 BKN025 30/25 A2974=
201309172300 METAR MRLM 172300Z 02005KT 9999 FEW020 BKN140 29/25 A2976=
201309172354 METAR MRLM 190000Z 30003KT CAVOK 27/24 A2977=
201309180000 METAR MRLM NIL=
201309180100 METAR MRLM NIL=
201309180200 METAR MRLM NIL=
201309180300 METAR MRLM NIL=
201309180400 METAR MRLM NIL=
201309180500 METAR MRLM NIL=
201309180600 METAR MRLM NIL=
201309180700 METAR MRLM NIL=
201309180800 METAR MRLM NIL=
201309180900 METAR MRLM NIL=
201309181000 METAR MRLM NIL=
201309181100 METAR MRLM NIL=
201309181200 METAR MRLM 181200Z 25004KT CAVOK 24/23 A2981=
201309181300 METAR MRLM 181300Z 26004KT CAVOK 25/24 A2981=
201309181400 METAR MRLM 181400Z 00000KT 9999 FEW025 BKN260 29/24 A2983=
201309181500 METAR MRLM 181500Z 02003KT 9999 FEW035 SCT140 SCT260 31/23 A2984=
201309181600 METAR MRLM 181600Z 04006KT 9999 FEW030 BKN140 31/24 A2984=
201309181700 METAR MRLM 181700Z 02008KT 9999 FEW030 BKN260 31/24 A2983=
201309181800 METAR MRLM 181800Z 03009KT 9999 FEW030 BKN260 31/24 A2980=
201309181900 METAR MRLM 181900Z 04010KT 9999 FEW030 BKN260 32/25 A2978=
201309182000 METAR MRLM 182000Z 05010KT 9999 FEW030 BKN250 31/25 A2975=
201309182100 METAR MRLM 182100Z 04007KT 9999 FEW025 BKN250 30/25 A2974=
201309182200 METAR MRLM 182200Z 04003KT 9999 SCT025 SCT250 30/25 A2976=
201309182300 METAR MRLM 182300Z 00000KT 9999 BKN020 29/25 A2977=
201309190000 METAR MRLM 190000Z 00000KT 9999 FEW020 SCT130 SCT250 28/25 A2979=
201309190100 METAR MRLM NIL=
201309190200 METAR MRLM NIL=
201309190300 METAR MRLM NIL=
201309190400 METAR MRLM NIL=
201309190500 METAR MRLM NIL=
201309190600 METAR MRLM NIL=
201309190700 METAR MRLM NIL=
201309190800 METAR MRLM NIL=
201309190900 METAR MRLM NIL=
201309191000 METAR MRLM NIL=
201309191100 METAR MRLM NIL=
201309191200 METAR MRLM 191200Z 23004KT 9999 DZ FEW007 BKN120 24/23 A2986=
201309191300 METAR MRLM 191300Z 00000KT 9999 DZ FEW007 BKN120 24/23 A2987=
201309191400 METAR MRLM 191400Z 22002KT CAVOK 25/24 A2990 REDZ=
201309191500 METAR MRLM 191500Z 28003KT 9999 FEW025 BKN250 29/24 A2990=
201309191600 METAR MRLM 191600Z 07005KT 9999 FEW025 SCT130 SCT250 29/24 A2991=
201309191700 METAR MRLM 191700Z 05004KT 9999 FEW030 BKN130 29/23 A2990=
201309191800 METAR MRLM 191800Z 05005KT 9999 FEW030 SCT140 SCT250 30/23 A2988=
201309191900 METAR MRLM 191900Z 03008KT 9999 FEW030 BKN260 30/24 A2986=
201309192000 METAR MRLM 192000Z 04008KT 9999 FEW030 BKN260 31/24 A2982=
201309192100 METAR MRLM 192100Z 04006KT 9999 FEW030 BKN260 29/24 A2982=
201309192200 METAR MRLM 192200Z 06005KT 9999 FEW030 SCT130 SCT260 29/23 A2981=
201309192300 METAR MRLM 192300Z 13005KT CAVOK 29/23 A2982=
201309200000 METAR MRLM 200000Z 17002KT CAVOK 27/24 A2984=
201309200100 METAR MRLM NIL=
201309200200 METAR MRLM NIL=
201309200300 METAR MRLM NIL=
201309200400 METAR MRLM NIL=
201309200500 METAR MRLM NIL=
201309200600 METAR MRLM NIL=
201309200700 METAR MRLM NIL=
201309200800 METAR MRLM NIL=
201309200900 METAR MRLM NIL=
201309201000 METAR MRLM NIL=
201309201100 METAR MRLM NIL=
201309201200 METAR MRLM 201200Z 27002KT 9999 TS FEW CB010 BKN020 25/23 A2988=
201309201242 METAR MRLM 201242Z 27002KT 9999 TS FEW CB010 BKN020 25/23 A2988=
201309201300 METAR MRLM 201300Z 23003KT 9999 FEW015 BKN020 25/23 A2990 RETS=
201309201400 METAR MRLM 201400Z 24001KT 9999 SCT025 SCT120 26/24 A2992=
201309201500 METAR MRLM 201500Z 26002KT CAVOK 28/24 A2991=
201309201600 METAR MRLM 201600Z 35007KT 9999 FEW035 BKN270 30/24 A2990=
201309201700 METAR MRLM 201700Z 01009KT 9999 FEW040 BKN270 32/23 A2980=
201309201758 METAR MRLM 201758Z 04011KT 9999 FEW032 BKN270 31/24 A2986=
201309201800 METAR MRLM 04011KT 9999 FEW032 BKN270 31/24 A2986=
201309201900 METAR MRLM 201900Z 02009KT 9999 FEW035 BKN270 31/24 A2983=
201309202000 METAR MRLM 202000Z 03009KT 9999 FEW030 BKN270 30/24 A2980=
201309202100 METAR MRLM 202100Z 03007KT 9999 FEW028 BKN270 30/24 A2980=
201309202200 METAR MRLM 202200Z 03004KT 9999 BKN025 29/24 A2979=
201309202300 METAR MRLM 202300Z 07003KT 9999 BKN023 29/24 A2979=
201309202355 METAR MRLM 210000Z 12006KT 9999 BKN020 29/25 A2982=
201309210000 METAR MRLM 210000Z 12006KT 9999 BKN020 29/25 A2982=
201309210100 METAR MRLM NIL=
201309210200 METAR MRLM NIL=
201309210300 METAR MRLM NIL=
201309210400 METAR MRLM NIL=
201309210500 METAR MRLM NIL=
201309210600 METAR MRLM NIL=
201309210700 METAR MRLM NIL=
201309210800 METAR MRLM NIL=
201309210900 METAR MRLM NIL=
201309211000 METAR MRLM NIL=
201309211100 METAR MRLM NIL=
201309211200 METAR MRLM 211200Z 23004KT CAVOK 25/23 A2983=
201309211300 METAR MRLM 211300Z 26003KT CAVOK 27/23 A2984=
201309211400 METAR MRLM 211400Z 13004KT 9999 FEW035 BKN280 31/24 A2986=
201309211500 METAR MRLM 211500Z 12004KT 9999 FEW032 BKN270 30/24 A2985=
201309211600 METAR MRLM 211600Z 10006KT 9999 FEW038 BKN280 31/24 A2985=
201309211700 METAR MRLM 211700Z 10007KT 9999 FEW038 BKN280 32/24 2981=
201309211800 METAR MRLM 211800Z 09009KT 9999 FEW038 BKN270 32/24 A2978=
201309211900 METAR MRLM 211900Z 10008KT 9999 FEW038 BKN270 32/25 A2974=
201309212000 METAR MRLM 212000Z 08011KT 9999 FEW035 BKN270 32/25 A2972=
201309212100 METAR MRLM 212100Z 08009KT 9999 FEW030 BKN270 31/25 A2971=
201309212200 METAR MRLM 212200Z 08005KT 9999 FEW028 BKN270 30/25 A2971=
201309212300 METAR MRLM 212300Z 06005KT 9999 BKN025 30/25 A2974=
201309212354 METAR MRLM 220000Z 05005KT 9999 BKN023 30/25 A2975=
201309220000 METAR MRLM 220000Z 05005KT 9999 BKN023 30/25 A2975=
201309220100 METAR MRLM NIL=
201309220200 METAR MRLM NIL=
201309220300 METAR MRLM NIL=
201309220400 METAR MRLM NIL=
201309220500 METAR MRLM NIL=
201309220600 METAR MRLM NIL=
201309220700 METAR MRLM NIL=
201309220800 METAR MRLM NIL=
201309220900 METAR MRLM NIL=
201309221000 METAR MRLM NIL=
201309221100 METAR MRLM NIL=
201309221200 METAR MRLM 221200Z 28003KT 9999 FEW010 BKN250 25/24 A2980=
201309221300 METAR MRLM 221300Z 28003KT 9999 FEW010 SCT130 SCT250 26/25 A2982=
201309221400 METAR MRLM 221400Z 26003KT 9999 FEW020 BKN250 29/25 A2984=
201309221500 METAR MRLM 221500Z 00000KT 9999 FEW020 BKN250 30/25 A2986=
201309221600 METAR MRLM 221600Z 08004KT 9999 SCT030 SCT250 30/24 A2986=
201309221700 METAR MRLM 221700Z 03007KT 9999 FEW030 SCT140 SCT260 30/25 A2985=
201309221800 METAR MRLM 221800Z 03006KT 9999 FEW030 BKN260 31/24 A2983=
201309221900 METAR MRLM 221900Z 02007KT 9999 SCT035 BKN260 32/24 A2980=
201309222000 METAR MRLM 222000Z 34004KT 9999 FEW030 BKN260 30/24 A2978=
201309222100 METAR MRLM 222100Z 25004KT 9999 FEW025 BKN250 28/24 A2977=
201309222200 METAR MRLM 222200Z 00000KT 9999 FEW030 SCT130 SCT250 30/24 A2976=
201309222300 METAR MRLM 222300Z 19003KT 9999 FEW020 BKN130 29/24 A2977=
201309230000 METAR MRLM 230000Z 00000KT 9999 FEW020 BKN130 27/24 A2979=
201309230100 METAR MRLM NIL=
201309230200 METAR MRLM NIL=
201309230300 METAR MRLM NIL=
201309230400 METAR MRLM NIL=
201309230500 METAR MRLM NIL=
201309230600 METAR MRLM NIL=
201309230700 METAR MRLM NIL=
201309230800 METAR MRLM NIL=
201309230900 METAR MRLM NIL=
201309231000 METAR MRLM NIL=
201309231100 METAR MRLM NIL=
201309231200 METAR MRLM 231200Z 29005KT 9999 FEW015 BKN120 26/23 A2983=
201309231300 METAR MRLM 231300Z 26003KT CAVOK 27/23 A2984=
201309231400 METAR MRLM 231400Z 33003KT CAVOK 28/23 A2987=
201309231500 METAR MRLM 231500Z 31007KT 9999 FEW030 BKN130 29/23 A2988=
201309231600 METAR MRLM 231600Z 32006KT 9999 FEW030 BKN260 30/24 A2987=
201309231700 METAR MRLM 231700Z 35010KT 9999 FEW030 BKN260 31/24 A2988=
201309231800 METAR MRLM 231800Z 36011KT 9999 SCT030 SCT260 31/25 A2986=
201309231900 METAR MRLM 231900Z 35013KT 9999 BKN030 SCT260 30/24 A2984=
201309232000 METAR MRLM 232000Z 36010KT 9999 BKN030 SCT260 30/24 A2980=
201309232100 METAR MRLM 232100Z 01011KT 9999 BKN025 30/25 A2979=
201309232200 METAR MRLM 232200Z 36009KT 9999 BKN025 29/24 A2978=
201309232300 METAR MRLM 232300Z 35007KT 9999 BKN025 SCT250 29/24 A2980=
201309240000 METAR MRLM 240000Z 36007KT 9999 SCT020 SCT130 27/24 A2981=
201309240100 METAR MRLM NIL=
201309240200 METAR MRLM NIL=
201309240300 METAR MRLM NIL=
201309240400 METAR MRLM NIL=
201309240500 METAR MRLM NIL=
201309240600 METAR MRLM NIL=
201309240700 METAR MRLM NIL=
201309240800 METAR MRLM NIL=
201309240900 METAR MRLM NIL=
201309241000 METAR MRLM NIL=
201309241100 METAR MRLM NIL=
201309241200 METAR MRLM NIL=
201309241300 METAR MRLM 241300Z 23005KT CAVOK 27/24 A2988=
201309241400 METAR MRLM 241400Z 00000KT 9999 FEW030 30/25 A2989=
201309241500 METAR MRLM 241500Z 05006KT 9999 FEW030 SCT140 30/25 A2989=
201309241600 METAR MRLM 241600Z 03010KT 9999 FEW030 SCT260 31/25 A2986=
201309241700 METAR MRLM 241700Z 02010KT 9999 FEW040 SCT260 32/24 A2983=
201309241800 METAR MRLM 241800Z 03009KT 9999 FEW035 BKN260 32/25 A2981=
201309241900 METAR MRLM 241900Z 03008KT 9999 FEW035 SCT140 SCT260 32/25 A2979=
201309242000 METAR MRLM 242000Z 03009KT 9999 FEW030 BKN140 32/25 A2978=
201309242100 METAR MRLM 242100Z 03008KT 9999 FEW030 BKN140 31/26 A2977=
201309242200 METAR MRLM NIL=
201309242300 METAR MRLM NIL=
201309250000 METAR MRLM NIL=
201309250100 METAR MRLM NIL=
201309250200 METAR MRLM NIL=
201309250300 METAR MRLM NIL=
201309250400 METAR MRLM NIL=
201309250500 METAR MRLM NIL=
201309250600 METAR MRLM NIL=
201309250700 METAR MRLM NIL=
201309250800 METAR MRLM NIL=
201309250900 METAR MRLM NIL=
201309251000 METAR MRLM NIL=
201309251100 METAR MRLM NIL=
201309251200 METAR MRLM NIL=
201309251300 METAR MRLM 251300Z 32003KT 9999 SCT010 BKN120 26/25 A2984=
201309251400 METAR MRLM 251400Z 31006KT 9999 SCT010 SCT120 26/24 A2985=
201309251500 METAR MRLM 251500Z 08019G31KT 3000 TSRA FEW006CB BKN010 24/22 A2995=
201309251600 METAR MRLM 251600Z 24007KT 8000 TSRA FEW005CB OVC007 22/21 A2991=
201309251700 METAR MRLM 251700Z 25004KT 8000 RA FEW007 OVC010 22/21 A2986 RETS=
201309251800 METAR MRLM 251800Z 00000KT 9999 -RA BKN010 SCT080 23/22 A2982=
201309251900 METAR MRLM 251900Z 36008KT 9999 SCT010 BKN090 24/22 A2979=
201309252000 METAR MRLM 252000Z 25005KT 9999 FEW020 SCT110 SCT250 27/23 A2974=
201309252100 METAR MRLM 252100Z 27003KT CAVOK 27/22 A2973=
201309252200 METAR MRLM NIL=
201309252300 METAR MRLM NIL=
201309260000 METAR MRLM NIL=
201309260100 METAR MRLM NIL=
201309260200 METAR MRLM NIL=
201309260300 METAR MRLM NIL=
201309260400 METAR MRLM NIL=
201309260500 METAR MRLM NIL=
201309260600 METAR MRLM NIL=
201309260700 METAR MRLM NIL=
201309260800 METAR MRLM NIL=
201309260900 METAR MRLM NIL=
201309261000 METAR MRLM NIL=
201309261100 METAR MRLM NIL=
201309261200 METAR MRLM NIL=
201309261300 METAR MRLM 261300Z 25005KT 9999 FEW010 BKN110 25/23 A2983=
201309261400 METAR MRLM 261400Z 25005KT 9999 FEW025 BKN120 29/23 A2985=
201309261500 METAR MRLM 261500Z 31003KT 9999 SCT035 SCT130 31/23 A2985=
201309261600 METAR MRLM 261600Z 03008KT 9999 SCT030 SCT130 31/24 A2985=
201309261700 METAR MRLM 261700Z 01011KT 9999 FEW035 SCT140 31/24 A2984=
201309261800 METAR MRLM 261800Z 36012KT 9999 FEW030 SCT150 SCT260 30/24 A2982=
201309261900 METAR MRLM 261900Z 02009KT 9999 SCT030 BKN130 30/24 A2983=
201309261920 METAR MRLM 261920Z 04020KT 9999 VCSH OVC015 28/24 A2983=
201309261935 METAR MRLM 261935Z 07024KT 4000 SHRA OVC010 26/24 A2983=
201309262000 METAR MRLM 262000Z 07024KT 9999 -RA BKN010 26/24 A2982=
201309262100 METAR MRLM 262100Z 09027KT 8000 RA VCSH OVC007 25/23 A2984=
201309262200 METAR MRLM NIL=
201309262300 METAR MRLM NIL=
201309270000 METAR MRLM NIL=
201309270100 METAR MRLM NIL=
201309270200 METAR MRLM NIL=
201309270300 METAR MRLM NIL=
201309270400 METAR MRLM NIL=
201309270500 METAR MRLM NIL=
201309270600 METAR MRLM NIL=
201309270700 METAR MRLM NIL=
201309270800 METAR MRLM NIL=
201309270900 METAR MRLM NIL=
201309271000 METAR MRLM NIL=
201309271100 METAR MRLM NIL=
201309271200 METAR MRLM NIL=
201309271300 METAR MRLM 271300Z 25005KT CAVOK 25/22 A2988=
201309271400 METAR MRLM 271400Z 28004KT 9999 FEW030 SCT260 29/23 A2989=
201309271500 METAR MRLM 271500Z 07005KT 9999 FEW035 SCT260 30/23 A2989=
201309271600 METAR MRLM 271600Z 04007KT 9999 FEW035 SCT260 30/23 A2989=
201309271700 METAR MRLM 271700Z 03009KT 9999 FEW040 SCT260 31/23 A2988=
201309271800 METAR MRLM 271800Z 03011KT 9999 FEW030 SCT270 30/24 A2985=
201309271900 METAR MRLM 271900Z 02010KT 9999 FEW020 SCT260 30/24 A2985=
201309272000 METAR MRLM 272000Z 02010KT 9999 FEW030 SCT140 31/24 A2980=
201309272100 METAR MRLM 272100Z 02011KT 9999 FEW030 SCT130 SCT260 29/24 A2980=
201309272200 METAR MRLM NIL=
201309272300 METAR MRLM NIL=
201309280000 METAR MRLM NIL=
201309280100 METAR MRLM NIL=
201309280200 METAR MRLM NIL=
201309280300 METAR MRLM NIL=
201309280400 METAR MRLM NIL=
201309280500 METAR MRLM NIL=
201309280600 METAR MRLM NIL=
201309280700 METAR MRLM NIL=
201309280800 METAR MRLM NIL=
201309280900 METAR MRLM NIL=
201309281000 METAR MRLM NIL=
201309281100 METAR MRLM NIL=
201309281200 METAR MRLM 281200Z 26004KT CAVOK 23/22 A2988=
201309281300 METAR MRLM 281300Z 24003KT CAVOK 25/23 A2988=
201309281400 METAR MRLM 281400Z 22002KT CAVOK 28/23 A2992=
201309281500 METAR MRLM 281500Z 03004KT CAVOK 30/23 A2991=
201309281600 METAR MRLM 281600Z 02007KT 9999 FEW045 BKN270 32/23 A2990=
201309281700 METAR MRLM 281700Z 03009KT 9999 FEW038 BKN280 32/24 A2990=
201309281800 METAR MRLM 281800Z 02011KT 9999 FEW035 BKN280 31/24 A2987=
201309281900 METAR MRLM 281900Z 04011KT 9999 TS FEW010CB FEW022 SCT140 29/25 A2985=
201309282000 METAR MRLM 282000Z 03005KT 9999 FEW022 SCT150 SCT270 30/24 A2983 RETS=
201309282100 METAR MRLM 282100Z 09003KT 9999 SCT025 SCT150 29/24 A2981=
201309282200 METAR MRLM 282200Z 23003KT 9999 FEW020 SCT100 SCT260 29/24 A2982=
201309282300 METAR MRLM 282300Z 21002KT CAVOK 28/25 A2984=
201309282351 METAR MRLM 290000Z 25002KT 9999 FEW010 SCT140 SCT260 26/24 A2986=
201309290000 METAR MRLM 290000Z 25002KT 9999 FEW010 SCT140 SCT260 26/24 A2986=
201309290100 METAR MRLM NIL=
201309290200 METAR MRLM NIL=
201309290300 METAR MRLM NIL=
201309290400 METAR MRLM NIL=
201309290500 METAR MRLM NIL=
201309290600 METAR MRLM NIL=
201309290700 METAR MRLM NIL=
201309290800 METAR MRLM NIL=
201309290900 METAR MRLM NIL=
201309291000 METAR MRLM NIL=
201309291100 METAR MRLM NIL=
201309291200 METAR MRLM NIL=
201309291300 METAR MRLM 291300Z 23003KT CAVOK 26/24 A2988=
201309291400 METAR MRLM 291400Z 22003KT CAVOK 28/23 A2988=
201309291500 METAR MRLM 291500Z 22003KT 9999 FEW025 SCT280 28/23 A2988=
201309291600 METAR MRLM 291600Z 35011KT 9999 FEW038 SCT270 31/23 A2989=
201309291700 METAR MRLM 291700Z 02013KT 9999 FEW035 SCT280 31/24 A2988=
201309291800 METAR MRLM 291800Z 02012KT 9999 FEW030 BKN280 31/25 A2984=
201309291900 METAR MRLM 291900Z 02014KT 9999 FEW035 BKN280 31/24 A2981=
201309292000 METAR MRLM 292000Z 03013KT 9999 FEW030 SCT280 30/25 A2979=
201309292100 METAR MRLM 292100Z 03011KT 9999 TS FEW015CB SCT100 SCT270 30/25 A2977=
201309292200 METAR MRLM 292200Z 05012KT 9999 BKN025 29/24 A2980 RETS=
201309292300 METAR MRLM 292300Z 08005KT 9999 BKN020 28/24 A2983 RETS=
201309292356 METAR MRLM 300000ZZ 23007KT 9999 TSRA SCT010CB BKN013 25/23 A2986=
201309300000 METAR MRLM 300000ZZ 23007KT 9999 TSRA SCT010CB BKN013 25/23 A2986=
201309300100 METAR MRLM NIL=
201309300200 METAR MRLM NIL=
201309300300 METAR MRLM NIL=
201309300400 METAR MRLM NIL=
201309300500 METAR MRLM NIL=
201309300600 METAR MRLM NIL=
201309300700 METAR MRLM NIL=
201309300800 METAR MRLM NIL=
201309300900 METAR MRLM NIL=
201309301000 METAR MRLM NIL=
201309301100 METAR MRLM NIL=
201309301200 METAR MRLM 301200Z 22003KT 9999 FEW010 23/21 A2986=
201309301300 METAR MRLM 301300Z 30002KT 9999 FEW020 SCT120 25/22 A2988=
201309301400 METAR MRLM 301400Z 24004KT 9999 FEW025 BKN130 28/23 A2988=
201309301500 METAR MRLM 301500Z 30005KT 9999 FEW030 BKN250 29/23 A2989=
201309301600 METAR MRLM 301600Z 33005KT 9999 FEW035 BKN250 30/23 A2988=
201309301700 METAR MRLM 301700Z 01008KT 9999 FEW035 BKN250 30/23 A2986=
201309301800 METAR MRLM 301800Z 01013KT 9999 SCT030 BKN250 30/24 A2985=
201309301900 METAR MRLM 301900Z 01014KT 9999 SCT020 SCT130 29/24 A2983=
201309302000 METAR MRLM 302000Z 01008KT 9999 BKN020 SCT250 29/24 A2983=
201309302100 METAR MRLM 302100Z 35005KT 9999 BKN025 28/23 A2980=
201309302200 METAR MRLM 302200Z 27003KT 9999 SCT020 SCT130 27/23 A2980=
201309302300 METAR MRLM 302300Z 22003KT 9999 FEW015 BKN120 26/24 A2984=
201310010000 METAR MRLM 010000Z 22004KT 9999 SCT010 BKN110 25/23 A2985=
201310010100 METAR MRLM NIL=
201310010200 METAR MRLM NIL=
201310010300 METAR MRLM NIL=
201310010400 METAR MRLM NIL=
201310010500 METAR MRLM NIL=
201310010600 METAR MRLM NIL=
201310010700 METAR MRLM NIL=
201310010800 METAR MRLM NIL=
201310010900 METAR MRLM NIL=
201310011000 METAR MRLM NIL=
201310011100 METAR MRLM NIL=
201310011200 METAR MRLM 011200Z 24004KT 9999 FEW010 22/21 A2988=
201310011300 METAR MRLM 011300Z 24004KT 9999 FEW010 23/21 A2988=
201310011400 METAR MRLM 011400Z 25004KT 9999 FEW010 SCT250 24/22 A2989=
201310011500 METAR MRLM 011500Z 24003KT 9999 FEW020 BKN250 26/22 A2991=
201310011600 METAR MRLM 011600Z 22002KT 9999 FEW020 BKN250 27/23 A2990=
201310011700 METAR MRLM 011700Z 04003KT 9999 FEW025 BKN250 29/23 A2988=
201310011800 METAR MRLM 011800Z 07004KT 9999 FEW030 BKN260 29/23 A2984=
201310011900 METAR MRLM 011900Z 04007KT 9999 FEW025 BKN260 29/24 A2981=
201310012000 METAR MRLM 012000Z 05007KT 9999 FEW025 BKN260 29/24 A2979=
201310012100 METAR MRLM 012100Z 06008KT 9999 FEW025 SCT260 29/24 A2978=
201310012200 METAR MRLM 012200Z 07004KT 9999 FEW025 SCT250 28/23 A2979=
201310012300 METAR MRLM 012300Z 00000KT 9999 FEW020 SCT250 27/23 A2979=
201310020000 METAR MRLM 020000Z 27002KT 9999 FEW010 SCT120 SCT250 25/23 A2982=
201310020100 METAR MRLM NIL=
201310020200 METAR MRLM NIL=
201310020300 METAR MRLM NIL=
201310020400 METAR MRLM NIL=
201310020500 METAR MRLM NIL=
201310020600 METAR MRLM NIL=
201310020700 METAR MRLM NIL=
201310020800 METAR MRLM NIL=
201310020900 METAR MRLM NIL=
201310021000 METAR MRLM NIL=
201310021100 METAR MRLM NIL=
201310021200 METAR MRLM 021200Z 26004KT CAVOK 24/22 A2984=
201310021300 METAR MRLM 021300Z 23004KT CAVOK 25/22 A2985=
201310021400 METAR MRLM 021400Z 24002KT CAVOK 29/23 A2986=
201310021500 METAR MRLM 021500Z 09003KT 9999 SCT030 30/23 A2986=
201310021600 METAR MRLM 021600Z 06006KT 9999 SCT028 30/24 A2985=
201310021700 METAR MRLM 021700Z 04008KT 9999 FEW028 30/24 2983=
201310021800 METAR MRLM 021800Z 04007KT 9999 FEW030 30/24 A2981=
201310021900 METAR MRLM 021900Z 05008KT 9999 FEW035 30/24 A2978=
201310022000 METAR MRLM 022000Z 05008KT 9999 BKN028 30/24 A2975=
201310022100 METAR MRLM 022100Z 05007KT 9999 BKN028 30/26 A2994=
201310022200 METAR MRLM 022200Z 05007KT 9999 BKN025 30/25 A2975=
201310022300 METAR MRLM 022300Z 07008KT 9999 BKN025 29/24 A2977=
201310022356 METAR MRLM 030000Z 080 06KT 9999 SCT025 SCT280 29/24 A2978 DST LTNG/SE-=
201310030000 METAR MRLM 030000Z 080 06KT 9999 SCT025 SCT280 29/24 A2978 DST LTNG/SE-=
201310030100 METAR MRLM NIL=
201310030200 METAR MRLM NIL=
201310030300 METAR MRLM NIL=
201310030400 METAR MRLM NIL=
201310030500 METAR MRLM NIL=
201310030600 METAR MRLM NIL=
201310030700 METAR MRLM NIL=
201310030800 METAR MRLM NIL=
201310030900 METAR MRLM NIL=
201310031000 METAR MRLM NIL=
201310031100 METAR MRLM NIL=
201310031200 METAR MRLM 031200Z 26003KT 9999 FEW025 BKN090 24/23 A2983=
201310031300 METAR MRLM 031300Z 25005KT 9999 BKN025 24/23 A2984=
201310031400 METAR MRLM 031400Z 22002KT 9999 SCT025 SCT080 26/23 A2988=
201310031500 METAR MRLM 031500Z 35007KT 9999 RA FEW010 SCT090 SCT130 26/24 A2989=
201310031600 METAR MRLM 031600Z 33004KT 9999 VCTS RA FEW010 FEW CB015 SCT025 26/23 A2991 TS N=
201310031700 METAR MRLM 031700Z 30006KT 9999 DZ FEW030 SCT090 SCT150 26/24 A2987 RETSRA=
201310031800 METAR MRLM 031800Z 27004KT 9999 SCT018 SCT025 27/24 A2986 REDZ=
201310031900 METAR MRLM 031900Z 30005KT 9999 FEW035 SCT130 SCT250 30/23 A2981=
201310032000 METAR MRLM 032000Z 31004KT 9999 FEW035 BKN270 31/24 A2978=
201310032100 METAR MRLM 032100Z 36004KT 9999 FEW038 BKN280 31/23 2976=
201310032200 METAR MRLM 032200Z 33004KT 9999 FEW030 BKN280 30/24 A2977=
201310032300 METAR MRLM 032300Z 33004KT 9999 FEW020 BKN280 28/24 A2979=
201310032354 METAR MRLM 040000Z 34002KT CAVOK 27/24 A2981=
201310040000 METAR MRLM 040000Z 34002KT CAVOK 27/24 A2981=
201310040100 METAR MRLM NIL=
201310040200 METAR MRLM NIL=
201310040300 METAR MRLM NIL=
201310040400 METAR MRLM NIL=
201310040500 METAR MRLM NIL=
201310040600 METAR MRLM NIL=
201310040700 METAR MRLM NIL=
201310040800 METAR MRLM NIL=
201310040900 METAR MRLM NIL=
201310041000 METAR MRLM NIL=
201310041100 METAR MRLM NIL=
201310041200 METAR MRLM 041200Z 00000KT 9999 DZ BKN007 SCT080 24/22 A2985=
201310041300 METAR MRLM 041300Z 00000KT 9999 DZ BKN007 24/23 A2988=
201310041400 METAR MRLM 041400Z 24004KT 9999 -DZ SCT010 SCT100 24/23 A2989=
201310041500 METAR MRLM 041500Z 27002KT 9999 SCT015 BKN110 27/24 A2989=
201310041600 METAR MRLM 041600Z 29003KT 9999 FEW025 BKN120 29/23 A2989=
201310041700 METAR MRLM 041700Z 01008KT 9999 FEW030 BKN130 30/24 A2988=
201310041800 METAR MRLM 041800Z 01012KT 9999 BKN020 SCT120 29/24 A2985=
201310041900 METAR MRLM 041900Z 02010KT 9999 SCT030 BKN130 29/24 A2985=
201310042000 METAR MRLM 042000Z 35007KT 9999 FEW030 SCT130 SCT250 29/23 A2981=
201310042100 METAR MRLM 042100Z 32005KT 9999 FEW030 BKN140 29/23 A2981=
201310042200 METAR MRLM 042200Z 31003KT CAVOK 29/24 A2981=
201310042300 METAR MRLM 042300Z 00000 CAVOK 28/24 A2981=
201310050000 METAR MRLM 050000Z 29003KT 9999 FEW015 BKN120 26/23 A2981=
201310050100 METAR MRLM NIL=
201310050200 METAR MRLM NIL=
201310050300 METAR MRLM NIL=
201310050400 METAR MRLM NIL=
201310050500 METAR MRLM NIL=
201310050600 METAR MRLM NIL=
201310050700 METAR MRLM NIL=
201310050800 METAR MRLM NIL=
201310050900 METAR MRLM NIL=
201310051000 METAR MRLM NIL=
201310051100 METAR MRLM NIL=
201310051200 METAR MRLM 051200Z 23004KT CAVOK 24/22 A2987=
201310051300 METAR MRLM 051300Z 26003KT CAVOK 25/23 A2988=
201310051400 METAR MRLM 051400Z 00000KT 9999 FEW020 BKN130 27/23 A2989=
201310051500 METAR MRLM 051500Z 06003KT 9999 FEW030 SCT140 30/23 A2989=
201310051600 METAR MRLM 051600Z 06008KT 9999 FEW035 30/23 A2989=
201310051700 METAR MRLM 051700Z 03009KT 9999 FEW040 31/23 A2985=
201310051800 METAR MRLM 051800Z 02010KT 9999 FEW035 30/24 A2983=
201310051900 METAR MRLM 051900Z 03009KT 9999 FEW035 31/24 A2980=
201310052000 METAR MRLM 052000Z 05008KT 9999 FEW030 30/24 A2978=
201310052100 METAR MRLM 052100Z 04008KT 9999 FEW030 30/25 A2977=
201310052200 METAR MRLM 052200Z 04006KT 9999 SCT020 29/25 A2977=
201310052300 METAR MRLM 052300Z 08005KT 9999 SCT020 SCT250 29/25 A2979=
201310060000 METAR MRLM 060000Z 00000KT 9999 SCT020 28/24 A2981=
201310060100 METAR MRLM NIL=
201310060200 METAR MRLM NIL=
201310060300 METAR MRLM NIL=
201310060400 METAR MRLM NIL=
201310060500 METAR MRLM NIL=
201310060600 METAR MRLM NIL=
201310060700 METAR MRLM NIL=
201310060800 METAR MRLM NIL=
201310060900 METAR MRLM NIL=
201310061000 METAR MRLM NIL=
201310061100 METAR MRLM NIL=
201310061200 METAR MRLM 061200Z 30003KT CAVOK 24/22 A2987=
201310061300 METAR MRLM 061300Z 24004KT CAVOK 26/23 2988 TS DST E=
201310061400 METAR MRLM 061400Z 25001KT CAVOK 29/23 A2989=
201310061500 METAR MRLM 061500Z 10004KT CAVOK 30/23 A2990=
201310061600 METAR MRLM 061600Z 09004KT 9999 FEW040 BKN280 30/22 A2989=
201310061700 METAR MRLM 061700Z 10006KT 9999 FEW035 BKN280 30/24 A2983=
201310061800 METAR MRLM 061800Z 10007KT 9999 FEW035 BKN280 31/24 A2984=
201310061900 METAR MRLM 061900Z 09009KT 9999 FEW028 BKN280 31/25 A2982=
201310062000 METAR MRLM 062000Z 08008KT 9999 FEW035 BKN280 31/25 A2979=
201310062100 METAR MRLM 062100Z 09007KT 9999 FEW035 BKN280 31/24 A2979=
201310062200 METAR MRLM 062200Z 08006KT 9999 FEW030 BKN280 30/24 A2980=
201310062300 METAR MRLM 062300Z 09003KT 9999 FEW028 BKN280 30/25 A2982=
201310062355 METAR MRLM 070000Z 10004KT 9999 BKN025 29/24 A2982=
201310070000 METAR MRLM 070000Z 10004KT 9999 BKN025 29/24 A2982=
201310070100 METAR MRLM NIL=
201310070200 METAR MRLM NIL=
201310070300 METAR MRLM NIL=
201310070400 METAR MRLM NIL=
201310070500 METAR MRLM NIL=
201310070600 METAR MRLM NIL=
201310070700 METAR MRLM NIL=
201310070800 METAR MRLM NIL=
201310070900 METAR MRLM NIL=
201310071000 METAR MRLM NIL=
201310071100 METAR MRLM NIL=
201310071200 METAR MRLM 071200Z 26004KT CAVOK 24/22 A2989=
201310071300 METAR MRLM 071300Z 25005KT CAVOK 25/22 A2990=
201310071400 METAR MRLM 071400Z 23003KT 9999 FEW025 SCT140 SCT300 29/24 A2991=
201310071457 METAR MRLM 071457Z 10003KT 9999 FEW030 SCT280 31/24 A2991=
201310071500 METAR MRLM 071500Z 1003KT 9999 FEW030 SCT280 31/24 A2991=
201310071600 METAR MRLM 071600Z 04006KT 9999 FEW030 SCT270 31/24 A2989=
201310071700 METAR MRLM 071700Z 04007KT 9999 FEW030 SCT270 31/25 A2988=
201310071800 METAR MRLM 071800Z 04009KT 9999 FEW032 BKN270 31/25 A2985=
201310071900 METAR MRLM 071900Z 05009KT 9999 FEW035 BKN270 31/24 A2983=
201310072000 METAR MRLM 07200Z 03006KT 9999 FEW035 BKN270 31/24 A2979=
201310072100 METAR MRLM 072100Z 02005KT 9999 SCT030 SCT270 31/24 A2979=
201310072200 METAR MRLM 072200Z 04004KT 9999 SCT025 BKN280 30/24 A2980=
201310072300 METAR MRLM 072300Z 03005KT 9999 FEW025 BKN280 29/24 A2982=
201310072357 METAR MRLM 072357Z 04003KT 9999 SCT010 SCT280 29/25 A2984=
201310080000 METAR MRLM 04003KT 9999 SCT010 SCT280 29/25 A2984=
201310080100 METAR MRLM NIL=
201310080200 METAR MRLM NIL=
201310080300 METAR MRLM NIL=
201310080400 METAR MRLM NIL=
201310080500 METAR MRLM NIL=
201310080600 METAR MRLM NIL=
201310080700 METAR MRLM NIL=
201310080800 METAR MRLM NIL=
201310080900 METAR MRLM NIL=
201310081000 METAR MRLM NIL=
201310081100 METAR MRLM NIL=
201310081200 METAR MRLM 081200Z 26003KT 9999 SCT010 SCT100 24/23 A2991=
201310081300 METAR MRLM 081300Z 25004KT 9999 SCT010 BKN100 25/23 A2992=
201310081400 METAR MRLM 081400Z 25002KT 9999 FEW015 BKN120 27/24 A2991=
201310081500 METAR MRLM 081500Z 00000KT 9999 VCSH SCT015 BKN120 28/23 A2993=
201310081600 METAR MRLM 081600Z 04003KT 9999 FEW020 SCT130 SCT240 28/23 A2993=
201310081700 METAR MRLM 081700Z 06003KT 9999 FEW025 SCT130 SCT250 28/23 A2992=
201310081800 METAR MRLM 081800Z 13005KT 9999 FEW035 SCT140 SCT260 30/22 A2989=
201310081900 METAR MRLM 081900Z 13006KT 9999 FEW040 BKN150 30/22 A2987=
201310082000 METAR MRLM 082000Z 08006KT 9999 FEW035 BKN150 30/23 A2984=
201310082100 METAR MRLM 082100Z 08008KT 9999 FEW030 SCT150 SCT260 30/23 A2981=
201310082200 METAR MRLM 082200Z 10004KT 9999 FEW030 SCT140 SCT260 29/24 A2979=
201310082300 METAR MRLM 082300Z 00000KT CAVOK 29/24 A2979=
201310090000 METAR MRLM 090000Z 00000KT CAVOK 27/24 A2980=
201310090100 METAR MRLM NIL=
201310090200 METAR MRLM NIL=
201310090300 METAR MRLM NIL=
201310090400 METAR MRLM NIL=
201310090500 METAR MRLM NIL=
201310090600 METAR MRLM NIL=
201310090700 METAR MRLM NIL=
201310090800 METAR MRLM NIL=
201310090900 METAR MRLM NIL=
201310091000 METAR MRLM NIL=
201310091100 METAR MRLM NIL=
201310091200 METAR MRLM 091200Z 25005KT CAVOK 24/22 A2986=
201310091300 METAR MRLM 091300Z 26004KT CAVOK 26/23 A2988=
201310091400 METAR MRLM 091400Z 31003KT 9999 FEW030 SCT270 30/24 A2990=
201310091500 METAR MRLM 091500Z 04004KT 9999 FEW040 SCT270 31/23 A2991=
201310091600 METAR MRLM 091600Z 04006KT 9999 FEW040 SCT270 32/23 A2990=
201310091700 METAR MRLM 091700Z 03008KT 9999 FEW040 SCT140 SCT270 31/23 A2988=
201310091800 METAR MRLM 091800Z 04006KT 9999 FEW040 BKN270 31/23 A2986=
201310091900 METAR MRLM 091900Z 05006KT 9999 FEW040 SCT140 SCT260 31/23 A2985=
201310092000 METAR MRLM 092000Z 10007KT 9999 FEW035 SCT130 SCT260 31/24 A2983=
201310092100 METAR MRLM 092100Z 16008KT 9999 DZ SCT020 SCT130 29/24 A2981=
201310092200 METAR MRLM 092200Z 07004KT 9999 FEW020 BKN130 28/25 A2981 REDZ=
201310092300 METAR MRLM 092300Z 00000KT 9999 FEW020 BKN250 28/24 A2982=
201310100000 METAR MRLM 100000Z 00000KT 9999 FEW010 SCT120 SCT250 27/25 A2983=
201310100100 METAR MRLM NIL=
201310100200 METAR MRLM NIL=
201310100300 METAR MRLM NIL=
201310100400 METAR MRLM NIL=
201310100500 METAR MRLM NIL=
201310100600 METAR MRLM NIL=
201310100700 METAR MRLM NIL=
201310100800 METAR MRLM NIL=
201310100900 METAR MRLM NIL=
201310101000 METAR MRLM NIL=
201310101100 METAR MRLM NIL=
201310101200 METAR MRLM 101200Z 26002KT CAVOK 24/22 A2985=
201310101300 METAR MRLM 101300Z 25005KT CAVOK 24/22 A2986=
201310101400 METAR MRLM 101400Z 30002KT CAVOK 25/23 A2987=
201310101500 METAR MRLM 101500Z 23003KT CAVOK 27/23 A2990=
201310101600 METAR MRLM 101600Z 09004KT 9999 FEW025 BKN090 29/24 A2991=
201310101700 METAR MRLM 101700Z 11003KT 9999 FEW035 BKN110 30/23 A2988=
201310101800 METAR MRLM 101800Z 05005KT 9999 FEW030 BKN090 31/24 A2985=
201310101900 METAR MRLM 101900Z 04007KT 9999 FEW030 BKN090 30/24 A2983=
201310102000 METAR MRLM 102000Z 03006KT 9999 FEW035 BKN090 31/23 A2980=
201310102100 METAR MRLM 102100Z 03006KT 9999 FEW030 BKN090 30/24 A2979=
201310102200 METAR MRLM 102200Z 03006KT 9999 FEW028 BKN090 30/24 A2980=
201310102300 METAR MRLM 102300Z 03005KT 9999 SCT025 SCT080 29/24 A2982=
201310102356 METAR MRLM 110000Z 03006KT 9999 SCT020 BKN140 29/25 A2983=
201310110000 METAR MRLM 110000Z 03006KT 9999 SCT020 BKN140 29/25 A2983=
201310110100 METAR MRLM NIL=
201310110200 METAR MRLM NIL=
201310110300 METAR MRLM NIL=
201310110400 METAR MRLM NIL=
201310110500 METAR MRLM NIL=
201310110600 METAR MRLM NIL=
201310110700 METAR MRLM NIL=
201310110800 METAR MRLM NIL=
201310110900 METAR MRLM NIL=
201310111000 METAR MRLM NIL=
201310111100 METAR MRLM NIL=
201310111200 METAR MRLM 111200Z 26004KT 9999 BKN035 24/23 A2984=
201310111300 METAR MRLM 111300Z 27003KT CAVOK 24/23 A2984=
201310111400 METAR MRLM 111400Z 22003KT CAVOK 25/23 A2986 TS DST E=
201310111500 METAR MRLM 111500Z 24003KT CAVOK 26/23 A2987=
201310111600 METAR MRLM 111600Z 23003KT 9999 FEW020 SCT090 SCT150 28/24 A2986=
201310111700 METAR MRLM 111700Z 11005KT 9999 FEW030 BKN090 30/24 A2986=
201310111800 METAR MRLM 111800Z 10005KT 9999 BKN025 SCT110 29/24 A2984 VIS 8KM/NE=
201310111900 METAR MRLM 111900Z 02016KT 8000 TSRA FEW005 SCT012CB SCT015 26/24 A2984 VISIBY UNL SE/=
201310112000 METAR MRLM 112000Z 27003KT 8000 RA OVC012 25/23 A2983 RETS=
201310112100 METAR MRLM NIL=
201310112200 METAR MRLM 112200Z 00000KT 9999 DZ FEW008 BKN090 25/24 A2982 RERA=
201310112300 METAR MRLM 112300Z 23003KT 9999 DZ OVC100 25/23 A2984=
201310112355 METAR MRLM 12004Z 20002KT 9999 DZ FEW090 BKN100 24/23 A2984=
201310120000 METAR MRLM 12000Z 20002 9999 DZ FEW090 BKN100 24/23 A2984=
201310120013 METAR MRLM 12000Z 20002 9999 DZ FEW090 BKN100 24/23 A2984=
201310120100 METAR MRLM NIL=
201310120200 METAR MRLM NIL=
201310120300 METAR MRLM NIL=
201310120400 METAR MRLM NIL=
201310120500 METAR MRLM NIL=
201310120600 METAR MRLM NIL=
201310120700 METAR MRLM NIL=
201310120800 METAR MRLM NIL=
201310120900 METAR MRLM NIL=
201310121000 METAR MRLM NIL=
201310121100 METAR MRLM NIL=
201310121200 METAR MRLM 121200Z 29003KT 9999 SCT010 BKN110 22/20 A2987=
201310121300 METAR MRLM 121300Z 31002KT 9999 FEW010 BKN120 23/21 A2990=
201310121400 METAR MRLM 121400Z 26004KT 9999 DZ SCT100 SCT110 24/22 A2991=
201310121500 METAR MRLM 121500Z 30004KT 9999 SCT010 SCT120 25/23 A2990=
201310121600 METAR MRLM 121600Z 31007KT 9999 FEW025 SCT130 SCT250 28/22 A2988=
201310121700 METAR MRLM 121700Z 36009KT 9999 FEW035 SCT130 SCT260 30/22 A2987=
201310121800 METAR MRLM 121800Z 01009KT 9999 FEW035 30/23 A2984=
201310121900 METAR MRLM 121900Z 01010KT 9999 FEW040 SCT270 31/23 A2981=
201310122000 METAR MRLM 122000Z 02010KT 9999 FEW035 SCT270 30/23 A2979=
201310122100 METAR MRLM 122100Z 02011KT 9999 FEW030 SCT270 30/24 A2978=
201310122200 METAR MRLM 122200Z 02007KT 9999 FEW030 BKN260 30/23 A2979=
201310122300 METAR MRLM 122300Z 36004KT 9999 FEW030 SCT130 SCT260 29/23 A2982=
201310130000 METAR MRLM 130000Z 30005KT 9999 SCT020 SCT120 27/23 A2983=
201310130100 METAR MRLM NIL=
201310130200 METAR MRLM NIL=
201310130300 METAR MRLM NIL=
201310130400 METAR MRLM NIL=
201310130500 METAR MRLM NIL=
201310130600 METAR MRLM NIL=
201310130700 METAR MRLM NIL=
201310130800 METAR MRLM NIL=
201310130900 METAR MRLM NIL=
201310131000 METAR MRLM NIL=
201310131100 METAR MRLM NIL=
201310131200 METAR MRLM 131200Z 27003KT 9999 DZ SCT010 BKN100 23/21 A2988=
201310131300 METAR MRLM 131300Z 25004KT 9999 DZ SCT010 BKN110 24/22 A2990=
201310131400 METAR MRLM 131400Z 26002KT 9999 SCT020 BKN120 27/23 A2990 REDZ=
201310131500 METAR MRLM 131500Z 36005KT 9999 DZ BKN020 26/23 A2992=
201310131600 METAR MRLM 131600Z 30005KT 9999 BKN020 SCT110 26/22 A2992 REDZ=
201310131700 METAR MRLM 131700Z 31003KT 9999 BKN020 SCT110 27/23 A2990=
201310131800 METAR MRLM 131800Z 02005KT 9999 BKN020 28/22 A2988=
201310131900 METAR MRLM 131900Z 01004KT 9999 FEW030 BKN130 29/23 A2983=
201310132000 METAR MRLM 132000Z 04007KT 9999 FEW030 BKN130 29/23 A2979=
201310132100 METAR MRLM 132100Z 35006KT 9999 FEW030 BKN140 30/23 A2977=
201310132200 METAR MRLM 132200Z 04009KT 9999 FEW030 SCT140 30/23 A2978=
201310132300 METAR MRLM 132300Z 05007KT 9999 FEW030 BKN250 28/21 A2980=
201310140000 METAR MRLM 140000Z 02004KT 9999 FEW030 BKN250 27/21 A2981=
201310140100 METAR MRLM NIL=
201310140200 METAR MRLM NIL=
201310140300 METAR MRLM NIL=
201310140400 METAR MRLM NIL=
201310140500 METAR MRLM NIL=
201310140600 METAR MRLM NIL=
201310140700 METAR MRLM NIL=
201310140800 METAR MRLM NIL=
201310140900 METAR MRLM NIL=
201310141000 METAR MRLM NIL=
201310141100 METAR MRLM NIL=
201310141200 METAR MRLM 141200Z 25004KT CAVOK 22 /20 A2984=
201310141300 METAR MRLM 141300Z 25004KT CAVOK 23/21 A2986=
201310141400 METAR MRLM 141400Z 28002KT CAVOK 27/21 A2987=
201310141500 METAR MRLM 141500Z 32006KT CAVOK 30/20 A2987=
201310141600 METAR MRLM 141600Z 36008KT 9999 FEW045 BKN270 30/22 A2987=
201310141700 METAR MRLM 141700Z 01009KT 9999 FWEW040 BKN270 30/22 2984=
201310141800 METAR MRLM 141800Z 03011KT 9999 FEW035 SCT270 30/23 A2981=
201310141900 METAR MRLM 141900Z 03010KT 9999 FEW030 30/24 A2979=
201310142000 METAR MRLM 142000Z 03011KT 9999 FEW030 30/24 A2977=
201310142100 METAR MRLM 142100Z 03008KT 9999 FEW035 SCT280 30/23 A2976=
201310142200 METAR MRLM 142200Z 01009KT 9999 FEW030 BKN280 29/23 A2977=
201310142300 METAR MRLM 142300Z 36006KT 9999 BKN025 SCT280 28/23 A2979=
201310142350 METAR MRLM 150000Z 28002KT 9999 SCT018 SCT070 27/23 A2981=
201310150000 METAR MRLM 150000Z 28002KT 9999 SCT018 SCT070 27/23 A2981=
201310150100 METAR MRLM NIL=
201310150200 METAR MRLM NIL=
201310150300 METAR MRLM NIL=
201310150400 METAR MRLM NIL=
201310150500 METAR MRLM NIL=
201310150600 METAR MRLM NIL=
201310150700 METAR MRLM NIL=
201310150800 METAR MRLM NIL=
201310150900 METAR MRLM NIL=
201310151000 METAR MRLM NIL=
201310151100 METAR MRLM NIL=
201310151200 METAR MRLM 151200Z 26005KT CAVOK 24/22 A2985=
201310151300 METAR MRLM 151300Z 26002KT CAVOK 25/23 A2986=
201310151400 METAR MRLM 151400Z 28004KT CAVOK 29/23 A2988=
201310151500 METAR MRLM 151500Z 34003KT 9999 FEW038 BKN280 30/23 A2988=
201310151558 METAR MRLM 16000Z 03008KT 9999 FEW038 BKN280 31/23 A2987=
201310151600 METAR MRLM 16000Z 03008KT 9999 FEW038 BKN280 31/23 A2987=
201310151700 METAR MRLM 151700Z 02009KT 9999 FEW038 SCT270 31/23 A2986=
201310151800 METAR MRLM 151800Z 03010KT 9999 FEW030 SCT270 30/24 A2983=
201310151900 METAR MRLM 151900Z 02009KT 9999 FEW032 BKN270 30/24 A2980=
201310152000 METAR MRLM 152000Z 02009KT 9999 TSRA FEW CB015 SCT032 SCT270 30/24 A2978=
201310152100 METAR MRLM 152100Z 02004KT 9999 BKN030 30/24 A2979 RETS=
201310152200 METAR MRLM 152200Z 33005KT 9999 BKN025 29/24 A2981=
201310152300 METAR MRLM 152300Z 19004KT 9999 DZ OVC015 27/24 A2982=
201310160000 METAR MRLM 160000Z 21001KT 9999 DZ OVC012 26/24 A2983 RERA=
201310160100 METAR MRLM NIL=
201310160200 METAR MRLM NIL=
201310160300 METAR MRLM NIL=
201310160400 METAR MRLM NIL=
201310160500 METAR MRLM NIL=
201310160600 METAR MRLM NIL=
201310160700 METAR MRLM NIL=
201310160800 METAR MRLM NIL=
201310160900 METAR MRLM NIL=
201310161000 METAR MRLM NIL=
201310161100 METAR MRLM NIL=
201310161200 METAR MRLM 161200Z 27002KT 9999 FEW010 BKN120 24/22 A2988=
201310161300 METAR MRLM 161300Z 24004KT 9999 FEW010 BKN120 24/23 A2990=
201310161400 METAR MRLM 161400Z 22003KT 9999 FEW020 BKN130 27/23 A2991=
201310161500 METAR MRLM 161500Z 00000KT 9999 FEW025 BKN130 28/23 A2992=
201310161600 METAR MRLM 161600Z 00000KT 9999 FEW030 BKN140 29/23 A2991=
201310161700 METAR MRLM 161700Z 07005KT 9999 FEW030 BKN130 29/23 A2989=
201310161800 METAR MRLM 161800Z 05004KT 9999 FEW030 BKN140 29/23 A2987=
201310161900 METAR MRLM 161900Z 03011KT 9999 FEW025 SCT140 SCT250 29/24 A2984=
201310162000 METAR MRLM 162000Z 05005KT 9999 SCT030 SCT250 29/23 A2980=
201310162100 METAR MRLM 162100Z 03005KT 9999 SCT020 SCT250 29/24 A2979=
201310162200 METAR MRLM 162200Z 33005KT 9999 FEW020 BKN250 29/24 A2980=
201310162300 METAR MRLM 162300Z 31002KT 9999 FEW020 BKN250 27/24 A2980=
201310170000 METAR MRLM 170000Z 00000KT 9999 FEW010 BKN250 26/23 A2983=
201310170100 METAR MRLM NIL=
201310170200 METAR MRLM NIL=
201310170300 METAR MRLM NIL=
201310170400 METAR MRLM NIL=
201310170500 METAR MRLM NIL=
201310170600 METAR MRLM NIL=
201310170700 METAR MRLM NIL=
201310170800 METAR MRLM NIL=
201310170900 METAR MRLM NIL=
201310171000 METAR MRLM NIL=
201310171100 METAR MRLM NIL=
201310171200 METAR MRLM 171200Z 00000KT 9999 SCT010 BKN100 23/22 A2989=
201310171300 METAR MRLM 171300Z 00000KT 9999 FEW010 BKN110 24/22 A2990=
201310171400 METAR MRLM 171400Z 25003KT 9999 FEW015 BKN130 27/23 A2991=
201310171500 METAR MRLM 171500Z 31003KT 9999 FEW025 BKN140 29/23 A2992=
201310171600 METAR MRLM 171600Z 32004KT 9999 FEW035 SCT140 30/22 A2990=
201310171700 METAR MRLM 171700Z 02011KT 9999 FEW040 SCT150 31/22 A2988=
201310171800 METAR MRLM 171800Z 03009KT 9999 FEW040 SCT260 30/23 A2986=
201310171900 METAR MRLM 171900Z 02010KT 9999 FEW030 SCT260 30/24 A2983=
201310172000 METAR MRLM 172000Z 02010KT 9999 FEW030 SCT260 30/23 A2980=
201310172100 METAR MRLM 172100Z 02008KT 9999 FEW030 SCT260 30/23 A2978=
201310172200 METAR MRLM 172200Z 06005KT 9999 FEW030 BKN260 29/23 A2980=
201310172300 METAR MRLM 172300Z 13005KT 9999 SCT025 SCT250 29/23 A2983=
201310180000 METAR MRLM 180000Z 19003KT 9999 FEW020 BKN250 27/23 A2983=
201310180100 METAR MRLM NIL=
201310180200 METAR MRLM NIL=
201310180300 METAR MRLM NIL=
201310180400 METAR MRLM NIL=
201310180500 METAR MRLM NIL=
201310180600 METAR MRLM NIL=
201310180700 METAR MRLM NIL=
201310180800 METAR MRLM NIL=
201310180900 METAR MRLM NIL=
201310181000 METAR MRLM NIL=
201310181100 METAR MRLM NIL=
201310181200 METAR MRLM 181200Z 28002KT 9999 FEW015 BKN080 24/22 A2987=
201310181300 METAR MRLM 181300Z 24004KT 9999 FEW006 SCT025 SCT090 24/23 A2988=
201310181400 METAR MRLM 181400Z 26003KT 9999 SCT010 BKN080 26/24 A2991=
201310181500 METAR MRLM 181500Z 26003KT 9999 FEW020 SCT130 SCT260 28/24 A2991=
201310181600 METAR MRLM 181600Z 06005KT 9999 SCT025 SCT140 29/24 A2989=
201310181700 METAR MRLM 181700Z 04008KT 9999 FEW028 BKN130 30/24 A2986=
201310181800 METAR MRLM 181800Z 03009KT 9999 FEW030 BKN140 30/24 A2984=
201310181900 METAR MRLM 181900Z 04008KT 9999 FEW028 BKN130 30/24 A2981=
201310182000 METAR MRLM 182000Z 03006KT 9999 SCT025 SCT140 29/24 A2980=
201310182100 METAR MRLM 182100Z 05005KT 9999 FEW025 SCT090 28/23 A2980=
201310182200 METAR MRLM 182200Z 00000KT 9999 FEW025 BKN090 29/23 A2982=
201310182300 METAR MRLM 182300Z 24003KT 9999 FEW015 SCT090 SCT140 27/24 A2983=
201310182356 METAR MRLM 190000Z 24002KT 9999 DZ SCT100 SCT140 26/24 A2984=
201310190000 METAR MRLM 190000Z 24002KT 9999 DZ SCT100 SCT140 26/24 A2984=
201310190100 METAR MRLM NIL=
201310190200 METAR MRLM NIL=
201310190300 METAR MRLM NIL=
201310190400 METAR MRLM NIL=
201310190500 METAR MRLM NIL=
201310190600 METAR MRLM NIL=
201310190700 METAR MRLM NIL=
201310190800 METAR MRLM NIL=
201310190900 METAR MRLM NIL=
201310191000 METAR MRLM NIL=
201310191100 METAR MRLM NIL=
201310191200 METAR MRLM 191200Z 25005KT CAVOK 23/21 A2985=
201310191300 METAR MRLM 191300Z 23005KT CAVOK 26/22 A2987=
201310191400 METAR MRLM 191400Z 26001KT CAVOK 30/23 A2989=
201310191500 METAR MRLM 191500Z 07004KT 9999 FEW030 BKN280 29/23 A2989=
201310191600 METAR MRLM 191600Z 06006KT 9999 FEW032 BKN270 30/23 A2990=
201310191700 METAR MRLM 191700Z 05008KT 9999 FEW032 BKN280 30/24 A2988=
201310191800 METAR MRLM 191800Z 05007KT 9999 FEW032 BKN280 30/24 A2986=
201310191900 METAR MRLM 191900Z 04008KT 9999 SCT032 SCT270 30/24 A2982=
201310192000 METAR MRLM 192000Z 02005KT 9999 BKN025 29/24 A2980=
201310192100 METAR MRLM 192100Z 01003KT 9999 BKN028 30/24 A2979=
201310192200 METAR MRLM 192200Z 07003KT 9999 SCT025 SCT140 29/24 A2980=
201310192300 METAR MRLM 192300Z 07006KT 9999 VCSH FEW TCU015 BKN020 29/24 A2982=
201310192356 METAR MRLM 20000Z 03008KT 9999 4500W TSRA FEW CB010 BKN020 28/24 A2985=
201310200000 METAR MRLM 20000Z 03008KT 9999 4500W TSRA FEW CB010 BKN020 28/24 A2985=
201310200100 METAR MRLM NIL=
201310200200 METAR MRLM NIL=
201310200300 METAR MRLM NIL=
201310200400 METAR MRLM NIL=
201310200500 METAR MRLM NIL=
201310200600 METAR MRLM NIL=
201310200700 METAR MRLM NIL=
201310200800 METAR MRLM NIL=
201310200900 METAR MRLM NIL=
201310201000 METAR MRLM NIL=
201310201100 METAR MRLM NIL=
201310201200 METAR MRLM NIL=
201310201300 METAR MRLM 201300Z 24003KT OVC025 24/22 A2990=
201310201400 METAR MRLM 201400Z 24003KT 9999 SCT025 SCT080 26/23 A2991=
201310201500 METAR MRLM 201500Z 01002KT 9999 FEW030 BKN080 29/23 A2991=
201310201600 METAR MRLM 201600Z 04006KT 9999 FEW030 BKN270 29/23 A2990=
201310201700 METAR MRLM 201700Z 02010KT 9999 FEW030 BKN270 30/24 A2987=
201310201800 METAR MRLM 201800Z 03009KT 9999 FEW030 BKN270 30/24 A2984=
201310201900 METAR MRLM 201900Z 02008KT 9999 FEW030 BKN270 30/24 A2981=
201310202000 METAR MRLM 202000Z 03006KT 9999 FEW030 BKN270 30/24 A2979=
201310202100 METAR MRLM 202100Z 04006KT 9999 FEW032 BKN270 30/23 A2977=
201310202200 METAR MRLM NIL=
201310202300 METAR MRLM NIL=
201310210000 METAR MRLM NIL=
201310210100 METAR MRLM NIL=
201310210200 METAR MRLM NIL=
201310210300 METAR MRLM NIL=
201310210400 METAR MRLM NIL=
201310210500 METAR MRLM NIL=
201310210600 METAR MRLM NIL=
201310210700 METAR MRLM NIL=
201310210800 METAR MRLM NIL=
201310210900 METAR MRLM NIL=
201310211000 METAR MRLM NIL=
201310211100 METAR MRLM NIL=
201310211200 METAR MRLM NIL=
201310211300 METAR MRLM 211300Z 24003KT CAVOK 25/23 A2988=
201310211400 METAR MRLM NIL=
201310211500 METAR MRLM 211500Z 31005KT CAVOK 27/23 A2992=
201310211600 METAR MRLM 211600Z 34005KT CAVOK 30/23 A2992=
201310211700 METAR MRLM 211700Z 04004KT 9999 FEW035 BKN120 30/23 A2990=
201310211800 METAR MRLM 211800Z 06007KT 9999 FEW025 BKN100 29/25 A2988=
201310211900 METAR MRLM 211900Z 04007KT 9999 DZ FEW025 BKN140 29/24 A2986=
201310212000 METAR MRLM 212000Z 05004KT 9999 SCT028 SCT140 29/24 A2982 REDZ=
201310212100 METAR MRLM 212100Z 03002KT 9999 BKN030 30/24 A2982=
201310212200 METAR MRLM NIL=
201310212300 METAR MRLM NIL=
201310220000 METAR MRLM NIL=
201310220100 METAR MRLM NIL=
201310220200 METAR MRLM NIL=
201310220300 METAR MRLM NIL=
201310220400 METAR MRLM NIL=
201310220500 METAR MRLM NIL=
201310220600 METAR MRLM NIL=
201310220700 METAR MRLM NIL=
201310220800 METAR MRLM NIL=
201310220900 METAR MRLM NIL=
201310221000 METAR MRLM NIL=
201310221100 METAR MRLM NIL=
201310221200 METAR MRLM NIL=
201310221300 METAR MRLM 221300Z 25004KT 9999 FEW025 BKN12024/23 A2986=
201310221400 METAR MRLM 221400Z 24003KT 9999 VCTS VCSH FEW CB015 FEW035 SCT120 26/24 A2986=
201310221403 METAR MRLM 221403Z 24003KT 9999 VCTS VCSH FEW CB015 FEW035 SCT120 26/24 A2986=
201310221500 METAR MRLM 221500Z 28002KT 9999 VCTS FEW CB015 SCT035 SCT090 26/24 A2988=
201310221600 METAR MRLM 221600Z 36005KT 9999 BKN025 SCT090 28/24 A2989 RETS=
201310221700 METAR MRLM 221700Z 34005KT 9999 FEW015 BKN030 27/24 A2988 RERA=
201310221800 METAR MRLM 221800Z 32004KT 9999 FEW023 SCT090 SCT260 29/24 A2983=
201310221900 METAR MRLM 221900Z 36008KT 9999 FEW025 BKN110 29/24 A2981=
201310222000 METAR MRLM 222000Z 02008KT 9999 FEW030 BKN080 29/23 A2978=
201310222100 METAR MRLM 222100Z 03012KT 9999 SCT015 SCT030 29/23 A2079=
201310222200 METAR MRLM NIL=
201310222300 METAR MRLM NIL=
201310230000 METAR MRLM NIL=
201310230100 METAR MRLM NIL=
201310230200 METAR MRLM NIL=
201310230300 METAR MRLM NIL=
201310230400 METAR MRLM NIL=
201310230500 METAR MRLM NIL=
201310230600 METAR MRLM NIL=
201310230700 METAR MRLM NIL=
201310230800 METAR MRLM NIL=
201310230900 METAR MRLM NIL=
201310231000 METAR MRLM NIL=
201310231100 METAR MRLM NIL=
201310231200 METAR MRLM NIL=
201310231300 METAR MRLM 231300Z 24003KT 9999 SCT030 SCT090 23/22 A2985=
201310231400 METAR MRLM 231400Z 23004KT 9999 SCT030 SCT080 24/23 A2987=
201310231500 METAR MRLM 231500Z 25003KT 9999 FEW025 SCT080 SCT150 25/23 A2987=
201310231600 METAR MRLM 231600Z 19001KT 9999 FEW025 BKN080 27/23 A2987=
201310231700 METAR MRLM 231700Z 09002KT CAVOK 28/23 A2983=
201310231800 METAR MRLM 231800Z 05003KT CAVOK 28/23 A2982=
201310231900 METAR MRLM 231900Z 34004KT 9999 FEW030 SCT090 BKN150 28/22 A2980=
201310232000 METAR MRLM 232000Z 36005KT 9999 FEW030 BKN150 28/22 A2978=
201310232100 METAR MRLM 232100Z 30003KT 9999 SCT025 SCT150 28/23 A2975=
201310232200 METAR MRLM NIL=
201310232300 METAR MRLM NIL=
201310240000 METAR MRLM NIL=
201310240100 METAR MRLM NIL=
201310240200 METAR MRLM NIL=
201310240300 METAR MRLM NIL=
201310240400 METAR MRLM NIL=
201310240500 METAR MRLM NIL=
201310240600 METAR MRLM NIL=
201310240700 METAR MRLM NIL=
201310240800 METAR MRLM NIL=
201310240900 METAR MRLM NIL=
201310241000 METAR MRLM NIL=
201310241100 METAR MRLM NIL=
201310241200 METAR MRLM NIL=
201310241300 METAR MRLM 241300Z 26002KT 9999 SCT030 SCT090 24/23 A2986=
201310241400 METAR MRLM 28002KT 9999 FEW030 SCT080 SCT140 26/24 A2987=
201310241406 METAR MRLM 241406Z 28002KT 9999 FEW030 SCT080 SCT140 26/24 A2987=
201310241500 METAR MRLM 241500Z 01003KT 9999 FEW030 BKN090 27/22 A2991=
201310241600 METAR MRLM 241600Z 36003KT 9999 FEW015 BKN025 27/23 A2991=
201310241700 METAR MRLM 241700Z 32003KT 9999 SCT015 SCT025 27/23 A2988=
201310241800 METAR MRLM 241800Z 32004KT 9999 BKN020 28/24 A2984=
201310241900 METAR MRLM 241900Z 32004KT 9999 FEW025 BKN150 28/24 A2981=
201310242000 METAR MRLM 242000Z 01009KT 9999 SCT022 SCT260 28/24 A2978=
201310242100 METAR MRLM 242100Z 01009KT 9999 OVC020 28/24 A2977=
201310242200 METAR MRLM NIL=
201310242300 METAR MRLM NIL=
201310250000 METAR MRLM NIL=
201310250100 METAR MRLM NIL=
201310250200 METAR MRLM NIL=
201310250300 METAR MRLM NIL=
201310250400 METAR MRLM NIL=
201310250500 METAR MRLM NIL=
201310250600 METAR MRLM NIL=
201310250700 METAR MRLM NIL=
201310250800 METAR MRLM NIL=
201310250900 METAR MRLM NIL=
201310251000 METAR MRLM NIL=
201310251100 METAR MRLM NIL=
201310251200 METAR MRLM NIL=
201310251300 METAR MRLM 251300Z 27002KT 9999 SCT030 BKN080 25/23 A2988=
201310251400 METAR MRLM 251400Z 31002KT 9999 FEW015 SCT025 SCT080 28/23 A2991=
201310251500 METAR MRLM NIL=
201310251600 METAR MRLM 251600Z 05003KT CAVOK 29/23 A2990=
201310251700 METAR MRLM 251700Z 04008KT 9999 FEW035 BKN120 30/23 A2988=
201310251800 METAR MRLM 251800Z 03007KT 9999 FEW030 SCT120 SCT270 30/23 A2988=
201310251900 METAR MRLM 251900Z 04006KT 9999 FEW025 SCT140 SCT260 29/24 A2981=
201310252000 METAR MRLM NIL=
201310252100 METAR MRLM 252100Z 02006KT 9999 BKN020 28/24 A2978=
201310252200 METAR MRLM NIL=
201310252300 METAR MRLM NIL=
201310260000 METAR MRLM NIL=
201310260100 METAR MRLM NIL=
201310260200 METAR MRLM NIL=
201310260300 METAR MRLM NIL=
201310260400 METAR MRLM NIL=
201310260500 METAR MRLM NIL=
201310260600 METAR MRLM NIL=
201310260700 METAR MRLM NIL=
201310260800 METAR MRLM NIL=
201310260900 METAR MRLM NIL=
201310261000 METAR MRLM NIL=
201310261100 METAR MRLM NIL=
201310261200 METAR MRLM NIL=
201310261300 METAR MRLM 261300Z 27002KT 9999 BKN025 25/23 A2988=
201310261400 METAR MRLM 261400Z 27004KT 9999 SCT030 SCT090 27/23 A2988=
201310261500 METAR MRLM 261500Z 31004KT 9999 FEW025 SCT080 28/24 A2989=
201310261600 METAR MRLM 261600Z 35007KT 9999 FEW032 SCT080 29/22 A2990=
201310261700 METAR MRLM 261700Z 03007KT 9999 FEW030 BKN090 30/24 A2987=
201310261800 METAR MRLM 261800Z 03009KT 9999 FEW030 SCT090 30/24 A2985=
201310261900 METAR MRLM 261900Z 01011KT 9999 FEW035 BKN270 30/23 A2980=
201310262000 METAR MRLM 262000Z 01008KT 9999 SCT035 BKN270 30/23 A2978=
201310262100 METAR MRLM 262100Z 34006KT 9999 FEW035 BKN260 30/23 A2977=
201310262200 METAR MRLM NIL=
201310262300 METAR MRLM NIL=
201310270000 METAR MRLM NIL=
201310270100 METAR MRLM NIL=
201310270200 METAR MRLM NIL=
201310270300 METAR MRLM NIL=
201310270400 METAR MRLM NIL=
201310270500 METAR MRLM NIL=
201310270600 METAR MRLM NIL=
201310270700 METAR MRLM NIL=
201310270800 METAR MRLM NIL=
201310270900 METAR MRLM NIL=
201310271000 METAR MRLM NIL=
201310271100 METAR MRLM NIL=
201310271200 METAR MRLM NIL=
201310271300 METAR MRLM 271300Z 26002KT 9999 DZ FEW120 BKN150 24/23 A2987=
201310271400 METAR MRLM 271400Z 29004KT 9999 FEW030 BKN100 29/23 A2988=
201310271500 METAR MRLM NIL=
201310271600 METAR MRLM 271600Z 32002KT 9999 FEW035 BKN090 29/22 2989=
201310271700 METAR MRLM 271700Z 02005KT 9999 FEW030 BKN090 29/23 A2987=
201310271800 METAR MRLM 271800Z 03007KT 9999 FEW030 BKN110 30/23 A2985=
201310271900 METAR MRLM 271900Z 07004KT 9999 FEW025 SCT120 29/24 A2982=
201310272000 METAR MRLM 272000Z 06004KT 9999 DZ FEW025 BKN110 29/24 A2979=
201310272100 METAR MRLM 272100Z 06004KT 9999 FEW025 BKN120 2924 A2977 REDZ=
201310272200 METAR MRLM NIL=
201310272300 METAR MRLM NIL=
201310280000 METAR MRLM NIL=
201310280100 METAR MRLM NIL=
201310280200 METAR MRLM NIL=
201310280300 METAR MRLM NIL=
201310280400 METAR MRLM NIL=
201310280500 METAR MRLM NIL=
201310280600 METAR MRLM NIL=
201310280700 METAR MRLM NIL=
201310280800 METAR MRLM NIL=
201310280900 METAR MRLM NIL=
201310281000 METAR MRLM NIL=
201310281100 METAR MRLM NIL=
201310281200 METAR MRLM 281200Z 27003KT 9999 FEW010 SCT120 25/24 2986=
201310281300 METAR MRLM 281300Z 23003KT 9999 FEW020 SCT130 28/24 A2988=
201310281400 METAR MRLM 281400Z 00000KT 9999 SCT030 30/24 A2989=
201310281500 METAR MRLM 281500Z 07006KT 9999 SCT030 29/24 A2991=
201310281600 METAR MRLM 281600Z 04007KT 9999 SCT030 30/24 A2990=
201310281700 METAR MRLM 281700Z 05006KT 9999 FEW030 30/24 A2988=
201310281800 METAR MRLM 281800Z 06008KT 9999 FEW030 30/24 A2985=
201310281900 METAR MRLM 281900Z 06008KT 9999 FEW030 30/25 A2982=
201310282000 METAR MRLM 282000Z 05006KT 9999 FEW030 30/25 A2978=
201310282100 METAR MRLM 282100Z 07005KT 9999 FEW030 30/24 A2978=
201310282200 METAR MRLM 282200Z 07005KT 9999 SCT025 30/24 A2980=
201310282300 METAR MRLM 282300Z 06004KT 9999 SCT020 29/24 A2981=
201310290000 METAR MRLM 290000Z 05003KT 9999 SCT020 28/24 A2982=
201310290100 METAR MRLM NIL=
201310290200 METAR MRLM NIL=
201310290300 METAR MRLM NIL=
201310290400 METAR MRLM NIL=
201310290500 METAR MRLM NIL=
201310290600 METAR MRLM NIL=
201310290700 METAR MRLM NIL=
201310290800 METAR MRLM NIL=
201310290900 METAR MRLM NIL=
201310291000 METAR MRLM NIL=
201310291100 METAR MRLM NIL=
201310291200 METAR MRLM 291200Z 00000KT 9999 DZ BKN010 SCT110 24/22 A2990=
201310291300 METAR MRLM 291300Z 26005KT 9999 SCT015 BKN110 25/23 A2990 REDZ=
201310291400 METAR MRLM 291400Z 24003KT CAVOK 27/23 A2991=
201310291500 METAR MRLM 291500Z 00000KT 9999 FEW030 BKN120 29/23 A2993=
201310291600 METAR MRLM 291600Z 11003KT 9999 FEW030 BKN120 29/24 A2992=
201310291700 METAR MRLM 291700Z 09003KT 9999 FEW030 BKN130 30/24 A2989=
201310291800 METAR MRLM 291800Z 10005KT 9999 FEW035 SCT130 30/23 A2985=
201310291900 METAR MRLM 291900Z 06005KT 9999 FEW030 31/24 A2981=
201310292000 METAR MRLM 292000Z 06009KT 9999 FEW030 SCT260 30/24 A2979=
201310292100 METAR MRLM 292100Z 07008KT 9999 FEW030 SCT270 31/24 A2978=
201310292200 METAR MRLM 292200Z 07006KT 9999 FEW030 SCT260 30/24 A2980=
201310292300 METAR MRLM 292300Z 05007KT 9999 FEW030 SCT250 30/24 A2982=
201310300000 METAR MRLM 300000Z 00000KT CAVOK 29/24 A2984=
201310300100 METAR MRLM NIL=
201310300200 METAR MRLM NIL=
201310300300 METAR MRLM NIL=
201310300400 METAR MRLM NIL=
201310300500 METAR MRLM NIL=
201310300600 METAR MRLM NIL=
201310300700 METAR MRLM NIL=
201310300800 METAR MRLM NIL=
201310300900 METAR MRLM NIL=
201310301000 METAR MRLM NIL=
201310301100 METAR MRLM NIL=
201310301200 METAR MRLM 301200Z 26004KT 9999 SCT030 SCT080 23/22 A2989=
201310301300 METAR MRLM 301300Z 26005KT 9999 DZ FEW025 BKN080 23/22 A2989=
201310301400 METAR MRLM 301400Z 26001KT 9999 FEW030 BKN080 26/24 A2991=
201310301500 METAR MRLM 301500Z 22002KT 9999 FEW035 BKN140 29/23 A2992=
201310301600 METAR MRLM 301600Z 09003KT 9999 FEW032 BKN130 30/23 A2991=
201310301700 METAR MRLM 301700Z 07006KT 9999 FEW035 SCT140 30/23 A2988=
201310301800 METAR MRLM 301800Z 06005KT 9999 FEW035 SCT280 30/23 A2985=
201310301900 METAR MRLM 301900Z 05008KT 9999 FEW035 BKN280 30/24 A2982=
201310302000 METAR MRLM 302000Z 03008KT 9999 FEW030 BKN280 30/2979=
201310302100 METAR MRLM 302100Z 03007KT 9999 FEW030 BKN270 31/25 A2979=
201310302200 METAR MRLM 302200Z 03004KT 9999 FEW032 BKN270 30/24 2980=
201310302300 METAR MRLM 302300Z 03005KT 9999 BKN028 29/24 A2981=
201310302353 METAR MRLM 310000Z 27001KT 9999 SCT015 SCT270 27/24 A2983=
201310310000 METAR MRLM 310000Z 27001KT 9999 SCT015 SCT270 27/24 A2983=
201310310100 METAR MRLM NIL=
201310310200 METAR MRLM NIL=
201310310300 METAR MRLM NIL=
201310310400 METAR MRLM NIL=
201310310500 METAR MRLM NIL=
201310310600 METAR MRLM NIL=
201310310700 METAR MRLM NIL=
201310310800 METAR MRLM NIL=
201310310900 METAR MRLM NIL=
201310311000 METAR MRLM NIL=
201310311100 METAR MRLM NIL=
201310311200 METAR MRLM 311200Z 24003KT CAVOK 25/24 A2987=
201310311300 METAR MRLM 311300Z 00000KT CAVOK 27/25 A2988=
201310311400 METAR MRLM 311400Z 31003KT CAVOK 29/24 A2990=
201310311500 METAR MRLM 311500Z 34007KT 9999 SCT028 SCT080 29/24 A2992=
201310311600 METAR MRLM 311600Z 36009KT 9999 FEW025 SCT280 29/24 2992=
201310311700 METAR MRLM 311700Z 02008KT 9999 FEW030 BKN280 31/24 A2989=
201310311800 METAR MRLM 311800Z 04007KT 9999 FEW035 BKN280 31/24 A2985=
201310311900 METAR MRLM 311900Z 03009KT 9999 FEW035 BKN280 31/24 A2982=
201310312000 METAR MRLM 312000Z 04006KT 9999 FEW035 BKN270 31/23 A2980=
201310312100 METAR MRLM 312100Z 03006KT 9999 FEW035 BKN270 30/23 A2980=
201310312200 METAR MRLM 312200Z 04005KT 9999 BKN030 SCT270 30/24 A2980=
201310312300 METAR MRLM 312300Z 03001KT 9999 SCT025 SCT270 29/24 A2982=
201310312353 METAR MRLM 010000Z 22003KT 9999 SCT015 SCT270 27/24 A2983=
201311010000 METAR MRLM 010000Z 22003KT 9999 SCT015 SCT270 27/24 A2983=
201311010100 METAR MRLM NIL=
201311010200 METAR MRLM NIL=
201311010300 METAR MRLM NIL=
201311010400 METAR MRLM NIL=
201311010500 METAR MRLM NIL=
201311010600 METAR MRLM NIL=
201311010700 METAR MRLM NIL=
201311010800 METAR MRLM NIL=
201311010900 METAR MRLM NIL=
201311011000 METAR MRLM NIL=
201311011100 METAR MRLM NIL=
201311011200 METAR MRLM 011200Z 25005KT 9999 FEW010 23/21 A2987=
201311011300 METAR MRLM 011300Z 24004KT 9999 FEW015 25/22 A2988=
201311011400 METAR MRLM 011400Z 27004KT 9999 FEW025 29/23 A2989=
201311011500 METAR MRLM 011500Z 08005KT 9999 SCT030 30/24 A2990=
201311011600 METAR MRLM 011600Z 02004KT 9999 FEW030 SCT260 29/23 A2990=
201311011700 METAR MRLM 011700Z 04006KT 9999 FEW030 30/24 A2987=
201311011800 METAR MRLM 011800Z 04007KT 9999 FEW030 30/24 A2984=
201311011900 METAR MRLM 011900Z 04007KT 9999 FEW030 30/25 A2981=
201311012000 METAR MRLM 012000Z 02007KT 9999 FEW030 30/23 A2979=
201311012100 METAR MRLM 012100Z 04006KT 9999 FEW030 30/24 A2979=
201311012200 METAR MRLM 012200Z 01004KT 9999 SCT030 30/24 A2979=
201311012300 METAR MRLM 012300Z 00000KT 9999 SCT025 29/24 A2981=
201311020000 METAR MRLM 020000Z 22003KT 9999 BKN015 26/24 A2982=
201311020100 METAR MRLM NIL=
201311020200 METAR MRLM NIL=
201311020300 METAR MRLM NIL=
201311020400 METAR MRLM NIL=
201311020500 METAR MRLM NIL=
201311020600 METAR MRLM NIL=
201311020700 METAR MRLM NIL=
201311020800 METAR MRLM NIL=
201311020900 METAR MRLM NIL=
201311021000 METAR MRLM NIL=
201311021100 METAR MRLM NIL=
201311021200 METAR MRLM 021200Z 25004KT CAVOK 22/20 A2990=
201311021300 METAR MRLM 021300Z 25005KT CAVOK 23/21 A2990=
201311021400 METAR MRLM 021400Z 26003KT CAVOK 26/23 A2992=
201311021500 METAR MRLM 021500Z 00000KT CAVOK 28/23 A2994=
201311021600 METAR MRLM 021600Z 04002KT 9999 FEW030 BKN250 29/23 A2993=
201311021700 METAR MRLM 021700Z 06004KT 9999 FEW030 BKN260 29/23 A2990=
201311021800 METAR MRLM 021800Z 07002KT 9999 FEW030 BKN260 29/23 A2988=
201311021900 METAR MRLM 021900Z 10005KT 9999 FEW030 BKN260 30/23 A2985=
201311022000 METAR MRLM 022000Z 09004KT 9999 FEW030 BKN250 29/23 A2982=
201311022100 METAR MRLM 022100Z 07003KT 9999 FEW030 BKN250 29/23 A2981=
201311022200 METAR MRLM 022200Z 00000KT 9999 FEW030 BKN250 28/23 A2981=
201311022300 METAR MRLM 022300Z 09002KT 9999 SCT030 SCT250 28/23 A2982=
201311030000 METAR MRLM 030000Z 00000KT 9999 BKN015 27/24 A2984=
201311030100 METAR MRLM NIL=
201311030200 METAR MRLM NIL=
201311030300 METAR MRLM NIL=
201311030400 METAR MRLM NIL=
201311030500 METAR MRLM NIL=
201311030600 METAR MRLM NIL=
201311030700 METAR MRLM NIL=
201311030800 METAR MRLM NIL=
201311030900 METAR MRLM NIL=
201311031000 METAR MRLM NIL=
201311031100 METAR MRLM NIL=
201311031200 METAR MRLM 031200Z 25005KT CAVOK 24/22 A2989=
201311031300 METAR MRLM 031300Z 26003KT CAVOK 26/22 A2990=
201311031400 METAR MRLM 031400Z 23002KT 9999 FEW025 BKN280 29/24 A2991=
201311031500 METAR MRLM 031500Z 10004KT 9999 BKN028 SCT280 29/24 A2993=
201311031600 METAR MRLM 031600Z 07005KT 9999 SCT025 SCT280 29/24 2992=
201311031700 METAR MRLM 031700Z 03006KT 9999 FEW035 SCT280 29/23 A2990=
201311031800 METAR MRLM 031800Z 03008KT 9999 FEW030 BKN270 30/24 A2987=
201311031900 METAR MRLM 031900Z 04009KT 9999 FEW032 SCT140 30/24 A2984=
201311032000 METAR MRLM 032000Z 03007KT 9999 FEW032 BKN110 30/23 A2982=
201311032100 METAR MRLM 032100Z 02007KT 9999 FEW030 BKN100 29/23 A2981=
201311032200 METAR MRLM 032200Z 06003KT 9999 SCT030 SCT110 29/23 A2981=
201311032300 METAR MRLM 032300Z 11002KT 9999 BKN025 28/23 A2982=
201311032355 METAR MRLM 040000Z 25002KT 9999 SCT013 SCT120 26/23 A2984=
201311040000 METAR MRLM 040000Z 25002KT 9999 SCT013 SCT120 26/23 A2984=
201311040100 METAR MRLM NIL=
201311040200 METAR MRLM NIL=
201311040300 METAR MRLM NIL=
201311040400 METAR MRLM NIL=
201311040500 METAR MRLM NIL=
201311040600 METAR MRLM NIL=
201311040700 METAR MRLM NIL=
201311040800 METAR MRLM NIL=
201311040900 METAR MRLM NIL=
201311041000 METAR MRLM NIL=
201311041100 METAR MRLM NIL=
201311041200 METAR MRLM NIL=
201311041300 METAR MRLM 041300Z 25005KT CAVOK 24/21 A2989=
201311041400 METAR MRLM 041400Z 30004KT CAVOK 28/22 A2990=
201311041500 METAR MRLM 041500Z 31005KT CAVOK 29/22 A2991=
201311041600 METAR MRLM 041600Z 32004KT 9999 FEW040 BKN280 30/22 A2990=
201311041700 METAR MRLM 041700Z 03010KT 9999 FEW035 BKN280 30/23 A2988=
201311041800 METAR MRLM 041800Z 02010KT 9999 FEW030 BKN280 30/23 A2987=
201311041900 METAR MRLM 041900Z 02009KT 9999 FEW035 BKN280 30/23 A2984=
201311042000 METAR MRLM 042000Z 02010KT 9999 FEW035 BKN280 30/23 A2981=
201311042100 METAR MRLM 042100Z 02010KT 9999 FEW030 BKN270 30/23 A2980=
201311042200 METAR MRLM 042200Z 01009KT 9999 BKN025 29/23 A2980=
201311042300 METAR MRLM 042300Z 36005KT 9999 BKN025 28/23 A2982=
201311042355 METAR MRLM 050000Z 25002KT 9999 BKN015 SCT270 28/23 A2982=
201311050000 METAR MRLM 050000Z 25002KT 9999 BKN015 SCT270 28/23 A2982=
201311050100 METAR MRLM NIL=
201311050200 METAR MRLM NIL=
201311050300 METAR MRLM NIL=
201311050400 METAR MRLM NIL=
201311050500 METAR MRLM NIL=
201311050600 METAR MRLM NIL=
201311050700 METAR MRLM NIL=
201311050800 METAR MRLM NIL=
201311050900 METAR MRLM NIL=
201311051000 METAR MRLM NIL=
201311051100 METAR MRLM NIL=
201311051200 METAR MRLM 051200Z 26004KT 9999 FEW010 SCT250 22/20 A2986=
201311051300 METAR MRLM 051300Z 25003KT 9999 FEW020 SCT260 25/20 A2987=
201311051400 METAR MRLM 051400Z 00000KT 9999 FEW035 30/21 A2989=
201311051500 METAR MRLM 051500Z 34005KT 9999 FEW040 31/20 A2990=
201311051600 METAR MRLM 051600Z 36008KT 9999 FEW040 31/21 A2988=
201311051700 METAR MRLM 051700Z 02011KT 9999 FEW040 31/22 A2986=
201311051800 METAR MRLM 051800Z 02011KT 9999 FEW035 30/23 A2983=
201311051900 METAR MRLM 051900Z 02011KT 9999 FEW035 30/23 A2980=
201311052000 METAR MRLM 052000Z 02010KT 9999 FEW035 30/23 A2979=
201311052100 METAR MRLM 052100Z 02010KT 9999 FEW030 30/24 A2977=
201311052200 METAR MRLM 052200Z 01007KT 9999 SCT030 29/22 A2977=
201311052300 METAR MRLM 052300Z 30002KT 9999 SCT020 27/23 A2978=
201311060000 METAR MRLM 060000Z 25003KT 9999 BKN010 25/23 A2979=
201311060100 METAR MRLM NIL=
201311060200 METAR MRLM NIL=
201311060300 METAR MRLM NIL=
201311060400 METAR MRLM NIL=
201311060500 METAR MRLM NIL=
201311060600 METAR MRLM NIL=
201311060700 METAR MRLM NIL=
201311060800 METAR MRLM NIL=
201311060900 METAR MRLM NIL=
201311061000 METAR MRLM NIL=
201311061100 METAR MRLM NIL=
201311061200 METAR MRLM 061200Z 25002KT 9999 FEW010 23/22 A2985=
201311061300 METAR MRLM 061300Z 25003KT CAVOK 25/22 A2986=
201311061400 METAR MRLM 061400Z 00000KT 9999 FEW030 30/23 A2987=
201311061500 METAR MRLM 061500Z 08005KT 9999 FEW030 29/22 A2986=
201311061600 METAR MRLM 061600Z 01010KT 9999 FEW040 31/22 A2986=
201311061700 METAR MRLM 061700Z 01011KT 9999 FEW035 30/24 A2986=
201311061800 METAR MRLM 061800Z 02010KT 9999 FEW030 30/24 A2984=
201311061900 METAR MRLM 061900Z 03009KT 9999 FEW030 30/24 A2981=
201311062000 METAR MRLM 062000Z 04009KT 9999 FEW030 30/24 A2979=
201311062100 METAR MRLM 062100Z 04007KT 9999 FEW030 30/24 A2978=
201311062200 METAR MRLM 062200Z 03005KT 9999 SCT025 29/24 A2980=
201311062300 METAR MRLM 062300Z 04003KT 9999 BKN020 29/24 A2981=
201311070000 METAR MRLM 070000Z 25002KT 9999 BKN015 27/24 A2982=
201311070100 METAR MRLM NIL=
201311070200 METAR MRLM NIL=
201311070300 METAR MRLM NIL=
201311070400 METAR MRLM NIL=
201311070500 METAR MRLM NIL=
201311070600 METAR MRLM NIL=
201311070700 METAR MRLM NIL=
201311070800 METAR MRLM NIL=
201311070900 METAR MRLM NIL=
201311071000 METAR MRLM NIL=
201311071100 METAR MRLM NIL=
201311071200 METAR MRLM 26003KT CAVOK 24/23 A2985=
201311071225 METAR MRLM 071225Z 26003KT CAVOK 24/23 A2985=
201311071300 METAR MRLM 071300Z 21001KT CAVOK 27/23 A2983=
201311071400 METAR MRLM 071400Z 31004KT CAVOK 29/24 A2990=
201311071500 METAR MRLM NIL=
201311071600 METAR MRLM 071600Z 35006KT 9999 SCT040 31/23 A2990=
201311071700 METAR MRLM 071700Z 02010KT 9999 SCT035 31/24 A2988=
201311071800 METAR MRLM 071800Z 04010KT 9999 FEW035TCU 31/24 A2984=
201311071900 METAR MRLM 071900Z 03010KT 9999 FEW035TCU 31/24 A2981=
201311072000 METAR MRLM 072000Z 02008KT 9999 FEW030 30/24 A2980=
201311072100 METAR MRLM 072100Z 02009KT 9999 SCT032 30/24 A2979=
201311072200 METAR MRLM 072200Z 02007KT 9999 SCT030 30/23 A2980=
201311072300 METAR MRLM 072300Z 34006KT 9999 BKN025 29/24 A2981=
201311072353 METAR MRLM 080000Z 30002KT 9999 SCT015 27/24 A2984=
201311080000 METAR MRLM 080000Z 30002KT 9999 SCT015 27/24 A2984=
201311080100 METAR MRLM NIL=
201311080200 METAR MRLM NIL=
201311080300 METAR MRLM NIL=
201311080400 METAR MRLM NIL=
201311080500 METAR MRLM NIL=
201311080600 METAR MRLM NIL=
201311080700 METAR MRLM NIL=
201311080800 METAR MRLM NIL=
201311080900 METAR MRLM NIL=
201311081000 METAR MRLM NIL=
201311081100 METAR MRLM NIL=
201311081200 METAR MRLM 081200Z 25003KT CAVOK 24/23 A2984=
201311081300 METAR MRLM 081300Z 25003KT CAVOK 26/23 A2985=
201311081400 METAR MRLM 081400Z 28002KT CAVOK 29/23 A2987=
201311081500 METAR MRLM 33007KT 99999 FEW035 SCT110 30/23 A2988=
201311081501 METAR MRLM 081501Z 33007KT 99999 FEW035 SCT110 30/23 A2988=
201311081600 METAR MRLM 081600Z 02006KT 9999 SCT040 30/23 A2986=
201311081700 METAR MRLM 081700Z 03010KT 9999 FEW035 SCT270 30/23 A2984=
201311081800 METAR MRLM 081800Z 04012KT 9999 FEW030 SCT270 30/24 A2980=
201311081900 METAR MRLM 081900Z 02010KT 9999 SCT030 SCT270 30/24 A2976=
201311082000 METAR MRLM 082000Z 03010KT 9999 SCT028 SCT270 30/24 A2974=
201311082100 METAR MRLM 082100Z 03008KT 9999 BKN025 29/24 A2974=
201311082200 METAR MRLM 082200Z 02008KT 9999 OVC020 29/24 A2996=
201311082300 METAR MRLM 082300Z 04006KT 9999 VCRA BKN020 28/24 A2977=
201311082355 METAR MRLM 09000Z 02004KT 9999 OVC015 27/24 A2979=
201311090000 METAR MRLM 09000Z 02004KT 9999 OVC015 27/24 A2979=
201311090100 METAR MRLM NIL=
201311090200 METAR MRLM NIL=
201311090300 METAR MRLM NIL=
201311090400 METAR MRLM NIL=
201311090500 METAR MRLM NIL=
201311090600 METAR MRLM NIL=
201311090700 METAR MRLM NIL=
201311090800 METAR MRLM NIL=
201311090900 METAR MRLM NIL=
201311091000 METAR MRLM NIL=
201311091100 METAR MRLM NIL=
201311091200 METAR MRLM 091200Z 26004KT 9999 FEW007 SCT250 23/22 A2984=
201311091300 METAR MRLM 091300Z 25004KT 9999 FEW010 BKN250 25/23 A2986=
201311091400 METAR MRLM 091400Z 00000KT 9999 FEW025 SCT130 SCT260 28/23 A2989=
201311091500 METAR MRLM 091500Z 09004KT 9999 FEW030 SCT260 29/23 A2989=
201311091600 METAR MRLM 091600Z 11006KT 9999 FEW030 SCT260 29/23 A2988=
201311091700 METAR MRLM 091700Z 09007KT 9999 FEW030 SCT260 30/24 A2985=
201311091800 METAR MRLM 091800Z 09009KT 9999 FEW030 SCT260 30/24 A2983=
201311091900 METAR MRLM 091900Z 09008KT 9999 FEW030 BKN260 30/24 A2980=
201311092000 METAR MRLM 092000Z 10007KT 9999 FEW030 SCT260 30/24 A2978=
201311092100 METAR MRLM 092100Z 12007KT 9999 FEW030 SCT260 29/23 A2978=
201311092200 METAR MRLM 092200Z 12008KT 9999 FEW030 SCT250 29/23 A2979=
201311092300 METAR MRLM 092300Z 14006KT 9999 SCT025 SCT130 28/23 A2980=
201311100000 METAR MRLM 100000Z 19002KT 9999 SCT015 SCT120 26/23 A2982=
201311100100 METAR MRLM NIL=
201311100200 METAR MRLM NIL=
201311100300 METAR MRLM NIL=
201311100400 METAR MRLM NIL=
201311100500 METAR MRLM NIL=
201311100600 METAR MRLM NIL=
201311100700 METAR MRLM NIL=
201311100800 METAR MRLM NIL=
201311100900 METAR MRLM NIL=
201311101000 METAR MRLM NIL=
201311101100 METAR MRLM NIL=
201311101200 METAR MRLM 101200Z 28003KT 8000 DZ BKN007 23/22 A2987=
201311101300 METAR MRLM 101300Z 26004KT 9999 -DZ SCT007 SCT100 24/23 A2988=
201311101400 METAR MRLM 101400Z 26002KT 9999 SCT010 SCT110 26/24 A2991=
201311101500 METAR MRLM 101500Z 34006KT 9999 SCT015 BKN110 26/23 A2991=
201311101600 METAR MRLM 101600Z 34004KT 9999 FEW020 SCT120 28/23 A2990=
201311101700 METAR MRLM 101700Z 36004KT 9999 FEW020 BKN120 28/23 A2988=
201311101800 METAR MRLM 101800Z 02007KT 9999 SCT020 SCT240 28/24 A2985=
201311101900 METAR MRLM 101900Z 02009KT 9999 BKN020 SCT240 28/24 2984=
201311102000 METAR MRLM 102000Z 04011KT 9999 VCRA OVC015 27/24 A2981=
201311102011 METAR MRLM 102011Z 04014KT 5000 RA OVC010 26/24 A2981=
201311102030 METAR MRLM 102030Z 02003KT 8000 DZ BKN010 26/24 A2979 RERA=
201311102100 METAR MRLM 102100Z 28003KT 9999 -DZ SCT010 BKN100 25/24 A2979=
201311102200 METAR MRLM 102200Z 21003KT 9999 DZ BKN007 25/23 A2980=
201311102300 METAR MRLM 102300Z 00000KT 9999 -DZ SCT008 SCT090 26/24 A2981=
201311110000 METAR MRLM 110000Z 36005KT 9999 -DZ BKN008 26/24 A2981=
201311110100 METAR MRLM NIL=
201311110200 METAR MRLM NIL=
201311110300 METAR MRLM NIL=
201311110400 METAR MRLM NIL=
201311110500 METAR MRLM NIL=
201311110600 METAR MRLM NIL=
201311110700 METAR MRLM NIL=
201311110800 METAR MRLM NIL=
201311110900 METAR MRLM NIL=
201311111000 METAR MRLM NIL=
201311111100 METAR MRLM NIL=
201311111200 METAR MRLM 111200Z 29006KT 9999 FEW007 BKN020 23/22 A2986=
201311111300 METAR MRLM 111300Z 32005KT 9999 FEW007 BKN015 24/22 A2989=
201311111400 METAR MRLM 111400Z 29006KT 9999 DZ FEW005 BKN012 24/22 A2990=
201311111500 METAR MRLM 111500Z 29006KT 9999 FEW007 BKN020 25/23 A2990 REDZ=
201311111600 METAR MRLM 111600Z 31002KT 6000 RA FEW005 BKN015 26/23 A2991=
201311111700 METAR MRLM 111700Z 28004KT 9999 BKN015 26/23 A2988 RERA=
201311111800 METAR MRLM 111800Z 31004KT 9999 BKN020 27/23 A2986=
201311111900 METAR MRLM 111900Z 32005KT 9999 SCT032 SCT090 27/23 A2982=
201311112000 METAR MRLM 112000Z 30006KT 9999 FEW022 BKN120 28/24 A2979=
201311112100 METAR MRLM 112100Z 30004KT CAVOK 28/23 A2978=
201311112200 METAR MRLM 112200Z 31003KT CAVOK 27/24 A2978=
201311112300 METAR MRLM 112300Z 33002KT 9999 +DZ FEW008 BKN015 27/24 A2981=
201311112356 METAR MRLM 120000Z 10004KT 9999 +DZ BKN015 27/23 A2983=
201311120000 METAR MRLM 120000Z 10004KT 9999 +DZ BKN015 27/23 A2983=
201311120100 METAR MRLM NIL=
201311120200 METAR MRLM NIL=
201311120300 METAR MRLM NIL=
201311120400 METAR MRLM NIL=
201311120500 METAR MRLM NIL=
201311120600 METAR MRLM NIL=
201311120700 METAR MRLM NIL=
201311120800 METAR MRLM NIL=
201311120900 METAR MRLM NIL=
201311121000 METAR MRLM NIL=
201311121100 METAR MRLM NIL=
201311121200 METAR MRLM 121200Z 30004KT 5000 RA OVC005 24/23 A2985=
201311121300 METAR MRLM 121300Z 28002KT 4000 RA SCT005 SCT015 24/23 A2986=
201311121400 METAR MRLM 121400Z 27004KT 9999 BKN020 25/24 A2987 RERA=
201311121500 METAR MRLM 121500Z 33004KT 9999 +DZ FEW007 BKN015 25/24 A2989=
201311121600 METAR MRLM 121600Z 02003KT 9999 BKN025 SCT090 28/23 A2988 REDZ=
201311121700 METAR MRLM NIL=
201311121800 METAR MRLM 121800Z 29002KT 9999 +DZ SCT015 SCT025 28/25 A2983=
201311121900 METAR MRLM 121900Z 24004KT 9999 FEW018 BKN130 28/25 A2979 REDZ=
201311122000 METAR MRLM 122000Z 25002KT 9999 BKN030 SCT130 30/23 A2977=
201311122100 METAR MRLM 122100Z 34003KT 9999 +DZ FEW035 BKN150 30/23 A2974=
201311122200 METAR MRLM 122200Z 34003KT 9999 DZ VCSH FEW018 BKN035 28/25 A2975=
201311122300 METAR MRLM 122300Z 29002KT 9999 SCT015 SCT080 27/24 A2996=
201311122354 METAR MRLM 130000Z 25002KT 8000 RA SCT010 SCT080 26/24 A2979=
201311130000 METAR MRLM 130000Z 25002KT 8000 RA SCT010 SCT080 26/24 A2979=
201311130100 METAR MRLM NIL=
201311130200 METAR MRLM NIL=
201311130300 METAR MRLM NIL=
201311130400 METAR MRLM NIL=
201311130500 METAR MRLM NIL=
201311130600 METAR MRLM NIL=
201311130700 METAR MRLM NIL=
201311130800 METAR MRLM NIL=
201311130900 METAR MRLM NIL=
201311131000 METAR MRLM NIL=
201311131100 METAR MRLM NIL=
201311131200 METAR MRLM 131200Z COR 17005KT 9999 VCSH BKN010 SCT090 24/23 A2982=
201311131300 METAR MRLM 131300Z 00000KT 9999 SCT010 SCT090 25/23 A2983=
201311131400 METAR MRLM 131400Z 08002KT 9999 SCT015 BKN110 27/23 A2985=
201311131500 METAR MRLM 131500Z 05004KT 9999 BKN020 SCT110 28/24 A2986=
201311131600 METAR MRLM 131600Z 05010KT 6000 2000N RA BKN010 25/23 A2988=
201311131620 METAR MRLM 131620Z 04010KT 9999 DZ VCSH BKN010 25/23 A2987=
201311131700 METAR MRLM 131700Z 02007KT 8000 SHRA SCT010 BKN090 25/23 A2987=
201311131800 METAR MRLM 131800Z COR 03004KT 8000 -SHRA OVC008 24/23 A2985=
201311131900 METAR MRLM 131900Z 23004KT 9999 DZ SCT008 BKN090 24/23 A2981=
201311132000 METAR MRLM 132000Z 18002KT 9999 -DZ FEW010 BKN100 24/23 A2979=
201311132100 METAR MRLM 132100Z 00000KT 9999 DZ FEW010 BKN110 25/23 A2978=
201311132200 METAR MRLM 132200Z 29002KT CAVOK 25/23 A2976 REDZ=
201311132300 METAR MRLM 132300Z 25004KT 9999 FEW010 BKN120 24/23 A2978=
201311140000 METAR MRLM 140000Z 25003KT CAVOK 24/23 A2979=
201311140100 METAR MRLM NIL=
201311140200 METAR MRLM NIL=
201311140300 METAR MRLM NIL=
201311140400 METAR MRLM NIL=
201311140500 METAR MRLM NIL=
201311140600 METAR MRLM NIL=
201311140700 METAR MRLM NIL=
201311140800 METAR MRLM NIL=
201311140900 METAR MRLM NIL=
201311141000 METAR MRLM NIL=
201311141100 METAR MRLM NIL=
201311141200 METAR MRLM 141200Z 29002KT CAVOK 24/22 A2983=
201311141300 METAR MRLM 141300Z 29002KT CAVOK 26/22 A2984=
201311141400 METAR MRLM 141400Z 33004KT CAVOK 27/22 A2987=
201311141500 METAR MRLM 141500Z 32006KT CAVOK 29/21 A2988=
201311141600 METAR MRLM 141600Z 33006KT 9999 FEW030 SCT140 30/22 A2988=
201311141700 METAR MRLM 141700Z 34005KT 9999 FEW040 SCT140 31/23 A2984=
201311141800 METAR MRLM 141800Z 02011KT 9999 FEW035 SCT140 30/23 A2982=
201311141900 METAR MRLM 141900Z 02011KT 9999 FEW030 30/24 A2980=
201311142000 METAR MRLM 142000Z 36013KT 9999 SCT025 SCT250 29/24 A2979=
201311142100 METAR MRLM 142100Z 34006KT 9999 FEW020 SCT250 28/24 A2978=
201311142200 METAR MRLM 142200Z 34005KT 9999 SCT020 SCT250 28/24 A2979=
201311142300 METAR MRLM 142300Z 28003KT 9999 BKN015 27/24 A2980=
201311150000 METAR MRLM 150000Z 26002KT 9999 BKN010 26/24 A2981=
201311150100 METAR MRLM NIL=
201311150200 METAR MRLM NIL=
201311150300 METAR MRLM NIL=
201311150400 METAR MRLM NIL=
201311150500 METAR MRLM NIL=
201311150600 METAR MRLM NIL=
201311150700 METAR MRLM NIL=
201311150800 METAR MRLM NIL=
201311150900 METAR MRLM NIL=
201311151000 METAR MRLM NIL=
201311151100 METAR MRLM NIL=
201311151200 METAR MRLM 151200Z 25003KT CAVOK 25/23 2984=
201311151300 METAR MRLM 151300Z 27001KT CAVOK 28/23 A2985=
201311151400 METAR MRLM 151400Z 09002KT CAVOK 29/23 2983=
201311151500 METAR MRLM 151500Z 08005KT CAVOK 29/23 2987=
201311151600 METAR MRLM 151600Z 04009KT 9999 FEW030 SCT270 29/86=
201311151700 METAR MRLM 151700Z 03008KT 9999 FEW030 SCT150 30/24 A2985=
201311151800 METAR MRLM 151800Z 03008KT 9999 FEW028 SCT150 30/24 A2981=
201311151900 METAR MRLM 151900Z 03008KT 9999 FEW028 SCT270 30/25 A2979=
201311152000 METAR MRLM 152000Z 03008KT 9999 FEW028 SCT270 30/25 A2978=
201311152100 METAR MRLM 152100Z 02009KT 9999 FEW025 SCRT270 30/24 A2977=
201311152200 METAR MRLM 152200Z 02009KT 9999 BKN020 29/25 A2978=
201311152300 METAR MRLM 152300Z 01008KT 9999 FEWTCU020 BKN270 28/24 A2979=
201311152353 METAR MRLM 160000Z 32003KT CAVOK 27/24 A2980=
201311160000 METAR MRLM 160000Z 32003KT CAVOK 27/24 A2980=
201311160100 METAR MRLM NIL=
201311160200 METAR MRLM NIL=
201311160300 METAR MRLM NIL=
201311160400 METAR MRLM NIL=
201311160500 METAR MRLM NIL=
201311160600 METAR MRLM NIL=
201311160700 METAR MRLM NIL=
201311160800 METAR MRLM NIL=
201311160900 METAR MRLM NIL=
201311161000 METAR MRLM NIL=
201311161100 METAR MRLM NIL=
201311161200 METAR MRLM 161200Z 27005KT 9999 DZ VCSH SCT015 SCT025 24/22 A2986=
201311161300 METAR MRLM 161300Z 26004KT 8000 +DZ VCSH BKN015 SCT025 24/23 A2988 RERA=
201311161400 METAR MRLM 161400Z 26004KT 2000 RA FEW006 BKN015 24/23 A2991=
201311161500 METAR MRLM 161500Z 27001KT 2000 RA FEW006 BKN015 24/23 A2992=
201311161600 METAR MRLM 161600Z 27005KT 8000 +DZ 8000 BKN020 24723 A2991 RERA=
201311161700 METAR MRLM 161700Z 25003KT 8000 RA BKN015 24/23 A2989=
201311161800 METAR MRLM 161800Z 24003KT 9999 +DZ BKN022 25/24 A2985=
201311161900 METAR MRLM 161900Z 27004KT 9999 BKN025 26/25 A2982 REDZ=
201311162000 METAR MRLM 162000Z 26004KT 9999 DZ BKN025 SCT140 27/25 A2980 TS NE E=
201311162100 METAR MRLM 162100SZ 28002KT 9999 FEW025 SCT090 28/25 A2977 REDZ=
201311162101 METAR MRLM 162100SZ 28002KT 9999 FEW025 SCT090 28/25 A2977 REDZ=
201311162200 METAR MRLM 162200Z 31001KT 9999 BKN025 SCT090 28/25 A2978=
201311162300 METAR MRLM 162300Z 16003KT 4000 RA OVC010 27/25 A2979=
201311162357 METAR MRLM 170000Z 35005KT 6000 DZ VCTS VCSH FEW008 SCT CB010 BKN015 26/24 A2982=
201311170000 METAR MRLM 170000Z 35005KT 6000 DZ VCTS VCSH FEW008 SCT CB010 BKN015 26/24 A2982=
201311170100 METAR MRLM NIL=
201311170200 METAR MRLM NIL=
201311170300 METAR MRLM NIL=
201311170400 METAR MRLM NIL=
201311170500 METAR MRLM NIL=
201311170600 METAR MRLM NIL=
201311170700 METAR MRLM NIL=
201311170800 METAR MRLM NIL=
201311170900 METAR MRLM NIL=
201311171000 METAR MRLM NIL=
201311171100 METAR MRLM NIL=
201311171200 METAR MRLM 171200Z 00000KT 9999 FEW007 SCT110 SCT250 23/22 A2985=
201311171300 METAR MRLM 171300Z 00000KT 9999 FEW007 SCT250 24/23 A2986=
201311171400 METAR MRLM 171400Z 27002KT CAVOK 25/24 A2987=
201311171500 METAR MRLM 171500Z 23003KT CAVOK 29/24 A2989=
201311171600 METAR MRLM 171600Z 11003KT 9999 FEW030 SCT260 30/25 A2989=
201311171700 METAR MRLM 171700Z 08003KT 9999 FEW030 SCT260 30/24 A2986=
201311171800 METAR MRLM 171800Z 07007KT 9999 FEW030 BKN140 31/24 A2984=
201311171900 METAR MRLM 171900Z 08006KT 9999 FEW030 BKN140 31/24 A2980=
201311172000 METAR MRLM 172000Z 09006KT CAVOK 31/24 A2978=
201311172100 METAR MRLM 172100Z 09005KT 9999 FEW030 31/24 A2978=
201311172200 METAR MRLM NIL=
201311172300 METAR MRLM 172300Z 07003KT CAVOK 29/24 A2980=
201311180000 METAR MRLM 180000Z 08005KT 9999 FEW020 SCT250 28/24 A2983=
201311180100 METAR MRLM NIL=
201311180200 METAR MRLM NIL=
201311180300 METAR MRLM NIL=
201311180400 METAR MRLM NIL=
201311180500 METAR MRLM NIL=
201311180600 METAR MRLM NIL=
201311180700 METAR MRLM NIL=
201311180800 METAR MRLM NIL=
201311180900 METAR MRLM NIL=
201311181000 METAR MRLM NIL=
201311181100 METAR MRLM NIL=
201311181200 METAR MRLM 181200Z 00000KT 7000 3000N +RA BKN007 24/23 A2984=
201311181300 METAR MRLM 181300Z 24004KT 9999 BKN007 25/24 A2986 RERA=
201311181400 METAR MRLM 181400Z 26006KT 9999 SCT020 SCT120 27/24 A2987=
201311181500 METAR MRLM 181500Z 25004KT 9999 BKN020 SCT110 27/24 A2987=
201311181600 METAR MRLM 181600Z 26003KT 9999 BKN025 SCT120 29/24 A2989=
201311181615 METAR MRLM 181615Z 13009KT 8000 RA BKN020 28/23 A2988=
201311181700 METAR MRLM 181700Z 13005KT 9999 BKN015 28/25 A2987 RERA=
201311181800 METAR MRLM 181800Z 12008KT 9999 BKN015 28/24 A2986=
201311181900 METAR MRLM 181900Z 14010KT 9999 BKN010 26/24 A2982=
201311182000 METAR MRLM 182000Z 18005KT 9999 SCT020 SCT110 27/24 A2980=
201311182100 METAR MRLM 182100Z 15004KT 9999 SCT020 BKN120 29/24 A2978=
201311182200 METAR MRLM 182200Z 18003KT CAVOK 29/23 A2979=
201311182300 METAR MRLM 182300Z 18003KT CAVOK 27/23 A2980=
201311190000 METAR MRLM 190000Z 18002KT CAVOK 26/23 A2982=
201311190100 METAR MRLM NIL=
201311190200 METAR MRLM NIL=
201311190300 METAR MRLM NIL=
201311190400 METAR MRLM NIL=
201311190500 METAR MRLM NIL=
201311190600 METAR MRLM NIL=
201311190700 METAR MRLM NIL=
201311190800 METAR MRLM NIL=
201311190900 METAR MRLM NIL=
201311191000 METAR MRLM NIL=
201311191100 METAR MRLM NIL=
201311191200 METAR MRLM 191200Z 26003KT CAVOK 22/21 A2983=
201311191300 METAR MRLM 191300Z 26003KT CAVOK 23/21 A2987=
201311191400 METAR MRLM 191400Z 25004KT CAVOK 26/23 A2988=
201311191500 METAR MRLM 191500Z 26003KT CAVOK 29/23 A2989=
201311191600 METAR MRLM 191600Z 36002KT 9999 FEW035 BKN270 31/23 A2986=
201311191700 METAR MRLM 191700Z 05005KT 9999 FEW035 BKN270 30/23 A2984=
201311191800 METAR MRLM 191800Z 03007KT 9999 FEW035 BKN270 30/23 A2982=
201311191900 METAR MRLM 191900Z 03006KT 9999 FEW035 BKN270 30/23 A2979=
201311192000 METAR MRLM NIL=
201311192100 METAR MRLM 192100Z 04005KT 9999 FEW035 BKN270 30/23 A2976=
201311192200 METAR MRLM 192200Z 05005KT 9999 FEW035 BKN270 29/23 A2977=
201311192300 METAR MRLM 192300Z 0504KT 9999 FEW028 BKN270 28/23 A2978=
201311192356 METAR MRLM 200000Z 24001KT 9999 FEW015 BKN270 25/23 A2980=
201311200000 METAR MRLM 200000Z 24001KT 9999 FEW015 BKN270 25/23 A2980=
201311200100 METAR MRLM NIL=
201311200200 METAR MRLM NIL=
201311200300 METAR MRLM NIL=
201311200400 METAR MRLM NIL=
201311200500 METAR MRLM NIL=
201311200600 METAR MRLM NIL=
201311200700 METAR MRLM NIL=
201311200800 METAR MRLM NIL=
201311200900 METAR MRLM NIL=
201311201000 METAR MRLM NIL=
201311201100 METAR MRLM NIL=
201311201200 METAR MRLM 201200Z 25005KT CAVOK 21/20 A2988=
201311201300 METAR MRLM 201300Z 25005KT CAVOK 22/21 A2990=
201311201400 METAR MRLM 201400Z 25004KT CAVOK 25/22 A2990=
201311201500 METAR MRLM 201500Z 13001KT CAVOK 31/23 A2989=
201311201600 METAR MRLM 201600Z 07004KT CAVOK 30/22 A2990=
201311201700 METAR MRLM 201700Z 06005KT CAVOK 30/22 A2989=
201311201800 METAR MRLM 201800Z 06005KT 9999 FEW040 30/22 A2987=
201311201900 METAR MRLM 201900Z 06005KT 9999 FEW035 30/23 A2984=
201311202000 METAR MRLM 202000Z 05006KT 9999 FEW030 30/24 A2982=
201311202100 METAR MRLM 202100Z 07005KT 9999 FEW030 30/23 A2981=
201311202200 METAR MRLM 202200Z 09004KT 9999 FEW030 30/23 A2982=
201311202300 METAR MRLM 202300Z 06003KT 9999 FEW025 SCT270 28/23 A2983=
201311202358 METAR MRLM 210000Z 21002KT 9999 FEW012 BKN300 25/23 A2984=
201311210000 METAR MRLM 210000Z 21002KT 9999 FEW012 BKN300 25/23 A2984=
201311210100 METAR MRLM NIL=
201311210200 METAR MRLM NIL=
201311210300 METAR MRLM NIL=
201311210400 METAR MRLM NIL=
201311210500 METAR MRLM NIL=
201311210600 METAR MRLM NIL=
201311210700 METAR MRLM NIL=
201311210800 METAR MRLM NIL=
201311210900 METAR MRLM NIL=
201311211000 METAR MRLM NIL=
201311211100 METAR MRLM NIL=
201311211200 METAR MRLM 211200Z 25005KT CAVOK 22/20 A2990=
201311211300 METAR MRLM 211300Z 25004KT CAVOK 25/22 A2992=
201311211400 METAR MRLM 211400Z 26002KT 9999 FEW030 SCT260 29/23 A2993=
201311211500 METAR MRLM 211500Z 09002KT 9999 FEW030 30/23 A2995=
201311211600 METAR MRLM 211600Z 06004KT 9999 FEW030 29/24 A2994=
201311211700 METAR MRLM 211700Z 04006KT 9999 FEW030 30/24 A2993=
201311211800 METAR MRLM 211800Z 04007KT 9999 FEW030 30/24 A2990=
201311211900 METAR MRLM 211900Z 04008KT 9999 FEW030 30/24 A2987=
201311212000 METAR MRLM 212000Z 04007KT 9999 FEW030 30/24 A2985=
201311212100 METAR MRLM 212100Z 03006KT 9999 FEW030 30/24 A2985=
201311212200 METAR MRLM 212200Z 02006KT 9999 SCT030 30/24 A2985=
201311212300 METAR MRLM 212300Z 01008KT 9999 BKN030 29/23 A2986=
201311220000 METAR MRLM 220000Z 00000KT 9999 BKN015 26/23 A2987=
201311220100 METAR MRLM NIL=
201311220200 METAR MRLM NIL=
201311220300 METAR MRLM NIL=
201311220400 METAR MRLM NIL=
201311220500 METAR MRLM NIL=
201311220600 METAR MRLM NIL=
201311220700 METAR MRLM NIL=
201311220800 METAR MRLM NIL=
201311220900 METAR MRLM NIL=
201311221000 METAR MRLM NIL=
201311221100 METAR MRLM NIL=
201311221200 METAR MRLM 221200Z 26004KT CAVOK 22/21 A2989=
201311221300 METAR MRLM 221300Z 24004KT CAVOK 25/22 A2989=
201311221400 METAR MRLM 221400Z 22002KT 9999 FEW030 29/23 A2991=
201311221500 METAR MRLM 221500Z 07003KT 9999 SCT030 SCT130 30/23 A2992=
201311221600 METAR MRLM 221600Z 03006KT 9999 FEW020 BKN120 28/24 A2992=
201311221700 METAR MRLM 221700Z 04005KT 9999 FEW030 BKN130 29/23 A2990=
201311221800 METAR MRLM 221800Z 04006KT 9999 FEW030 SCT260 30/24 A2986=
201311221900 METAR MRLM 221900Z 04006KT 9999 FEW030 SCT260 30/23 A2984=
201311222000 METAR MRLM 222000Z 07005KT 9999 SCT030 29/24 A2981=
201311222100 METAR MRLM 222100Z 06005KT 9999 SCT030 30/24 A2980=
201311222200 METAR MRLM 222200Z 08004KT 9999 SCT030 29/24 A2980=
201311222300 METAR MRLM 222300Z 08003KT 9999 SCT025 29/23 A2981=
201311230000 METAR MRLM 230000Z 23003KT 9999 BKN010 25/24 A2982=
201311230100 METAR MRLM NIL=
201311230200 METAR MRLM NIL=
201311230300 METAR MRLM NIL=
201311230400 METAR MRLM NIL=
201311230500 METAR MRLM NIL=
201311230600 METAR MRLM NIL=
201311230700 METAR MRLM NIL=
201311230800 METAR MRLM NIL=
201311230900 METAR MRLM NIL=
201311231000 METAR MRLM NIL=
201311231100 METAR MRLM NIL=
201311231200 METAR MRLM 231200Z 34001KT 9999 FEW025 BKN090 23/22 A2986=
201311231300 METAR MRLM 231300Z 25003KT 9999 SCT030 SCT090 24/22 A2987=
201311231400 METAR MRLM 231400Z 32002KT 9999 DZ SCT025 SCT080 26/23 A2989=
201311231500 METAR MRLM 231500Z 33002KT 9999 FEW030 BKN080 29/23 A2988 REDZ=
201311231600 METAR MRLM 231600Z 02008KT 9999 BKN028 29/23 A2988=
201311231700 METAR MRLM 231700Z 12009KT 9999 DZ BKN020 26/23 A2987 RERA=
201311231800 METAR MRLM 231800Z 22003KT 9999 FEW028 BKN070 29/24 A2983 REDZ=
201311231900 METAR MRLM 231900Z 090 04KT 9999 FEW025 BKN080 29/24 A2981=
201311232000 METAR MRLM 232000Z 08010KT 9999 FEW025 SCT030 29/24 A2979=
201311232100 METAR MRLM 232100Z 01007KT 9999 FEW025 SCT030 28/22 A2978=
201311232200 METAR MRLM 232200Z 27003KT 9999 FEW025 BKN080 28/23 A2979=
201311232300 METAR MRLM 232300Z 29001KT 9999 SCT020 SCT080 27/23 A2981=
201311232355 METAR MRLM 240000Z 32002KT 9999 DZ FEW015 SCT030 26/23 A2982=
201311240000 METAR MRLM 240000Z 32002KT 9999 DZ FEW015 SCT030 26/23 A2982=
201311240100 METAR MRLM NIL=
201311240200 METAR MRLM NIL=
201311240300 METAR MRLM NIL=
201311240400 METAR MRLM NIL=
201311240500 METAR MRLM NIL=
201311240600 METAR MRLM NIL=
201311240700 METAR MRLM NIL=
201311240800 METAR MRLM NIL=
201311240900 METAR MRLM NIL=
201311241000 METAR MRLM NIL=
201311241100 METAR MRLM NIL=
201311241200 METAR MRLM 241200Z 23003KT 9999 BKN025 23/22 A2988=
201311241300 METAR MRLM 241300Z 28002KT 9999 SCT025 SCT080 24/22 A2989=
201311241400 METAR MRLM 241400Z 28003KT CAVOK 26/22 2991=
201311241500 METAR MRLM 241500Z 20002KT CAVOK 30/23 A2991=
201311241600 METAR MRLM 241600Z 03008KT CAVOK 29/23 A2990=
201311241700 METAR MRLM 241700Z 03006KT 9999 FEW035 SCT120 29/22 A2987=
201311241800 METAR MRLM 241800Z 01009KT 9999 FEW030 BKN090 29/23 A2986=
201311241900 METAR MRLM 241900Z 36010KT 9999 FEW025 BKN080 29/23 A2983=
201311242000 METAR MRLM 242000Z 02008KT 9999 SCT030 SCT140 30/24 A2982=
201311242100 METAR MRLM 242100Z 01009KT 9999 BKN030 30/24 A2982=
201311242200 METAR MRLM 242200Z 32003KT 9999 FEW TCU030 SCT130 30/24 A2982=
201311242300 METAR MRLM 242300Z 30003KT 9999 FEW018 SCT130 27/23 A2983=
201311242355 METAR MRLM 250000Z 31002KT 9999 SCT014 26/23 A2986=
201311250000 METAR MRLM 250000Z 31002KT 9999 SCT014 26/23 A2986=
201311250100 METAR MRLM NIL=
201311250200 METAR MRLM NIL=
201311250300 METAR MRLM NIL=
201311250400 METAR MRLM NIL=
201311250500 METAR MRLM NIL=
201311250600 METAR MRLM NIL=
201311250700 METAR MRLM NIL=
201311250800 METAR MRLM NIL=
201311250900 METAR MRLM NIL=
201311251000 METAR MRLM NIL=
201311251100 METAR MRLM NIL=
201311251200 METAR MRLM 251200Z 26004KT CAVOK 23/21 A2987=
201311251300 METAR MRLM 251300Z 28002KT CAVOK 24/22 A2989=
201311251400 METAR MRLM 251400Z 00000KT CAVOK 27/23 A2991=
201311251500 METAR MRLM 251500Z 30003KT CAVOK 28/23 A2991=
201311251600 METAR MRLM 251600Z 31004KT CAVOK 29/23 A2990=
201311251700 METAR MRLM 251700Z 04004KT 9999 FEW035 SCT140 SCT260 30/23 A2989=
201311251800 METAR MRLM 251800Z 03008KT 9999 FEW030 SCT140 30/24 A2986=
201311251900 METAR MRLM 251900Z 02009KT 9999 FEW030 SCT140 30/24 A2985=
201311252000 METAR MRLM 252000Z 02008KT 9999 FEW030 30/23 A2982=
201311252100 METAR MRLM 252100Z 04006KT 9999 SCT030 30/24 A2981=
201311252200 METAR MRLM 252200Z 02003KT 9999 FEW030 SCT260 29/24 A2981=
201311252300 METAR MRLM 252300Z 05003KT 9999 FEW020 BKN250 28/23 A2982=
201311260000 METAR MRLM 260000Z 04005KT 9999 FEW020 SCT250 27/24 A2983=
201311260100 METAR MRLM NIL=
201311260200 METAR MRLM NIL=
201311260300 METAR MRLM NIL=
201311260400 METAR MRLM NIL=
201311260500 METAR MRLM NIL=
201311260600 METAR MRLM NIL=
201311260700 METAR MRLM NIL=
201311260800 METAR MRLM NIL=
201311260900 METAR MRLM NIL=
201311261000 METAR MRLM NIL=
201311261100 METAR MRLM NIL=
201311261200 METAR MRLM 261200Z 25004KT CAVOK 22/21 A2987=
201311261300 METAR MRLM 261300Z 24005KT CAVOK 24/22 A2988=
201311261400 METAR MRLM 261400Z 23003KT CAVOK 28/23 A2990=
201311261500 METAR MRLM 261500Z 06005KT 9999 FEW030 29/22 A2989=
201311261600 METAR MRLM 261600Z 05005KT 9999 FEW030 30/23 A2990=
201311261700 METAR MRLM 261700Z 06005KT 9999 FEW030 SCT140 30/23 A2988=
201311261800 METAR MRLM 261800Z 09004KT 9999 FEW030 SCT140 30/23 A2985=
201311261900 METAR MRLM 261900Z 08004KT 9999 FEW030 BKN140 30/23 A2982=
201311262000 METAR MRLM 262000Z 05006KT 9999 FEW030 BKN130 29/23 A2978=
201311262100 METAR MRLM 262100Z 03006KT 9999 FEW025 BKN130 29/24 A2978=
201311262200 METAR MRLM 262200Z 06006KT 9999 FEW030 SCT130 29/23 A2979=
201311262300 METAR MRLM 262300Z 02005KT 9999 FEW020 SCT130 28/24 A2981=
201311270000 METAR MRLM 270000Z 26003KT 9999 FEW015 SCT120 25/23 A2982=
201311270100 METAR MRLM NIL=
201311270200 METAR MRLM NIL=
201311270300 METAR MRLM NIL=
201311270400 METAR MRLM NIL=
201311270500 METAR MRLM NIL=
201311270600 METAR MRLM NIL=
201311270700 METAR MRLM NIL=
201311270800 METAR MRLM NIL=
201311270900 METAR MRLM NIL=
201311271000 METAR MRLM NIL=
201311271100 METAR MRLM NIL=
201311271200 METAR MRLM 271200Z 26004KT 9999 RA BKN020 23/21 A2986=
201311271300 METAR MRLM 271300Z 13003KT 4000 RA BKN015 24/22 A2989=
201311271400 METAR MRLM 271400Z 25006KT 9999 DZ BKN015 23/22 A2990 RERA=
201311271500 METAR MRLM 271500Z 27003KT 9999 BKN015 25/23 A2992 REDZ=
201311271600 METAR MRLM 271600Z 33005KT 9999 FEW025 BKN080 28/23 A2988=
201311271700 METAR MRLM 271700Z 33004KT 9999 BKN035 29/22 2986=
201311271800 METAR MRLM 271800Z 34005KT 9999 FEW025 BKN035 30/23 A2984=
201311271900 METAR MRLM 271900Z 02004KT 9999 FEW035 BKN090 30/23 A2981=
201311272000 METAR MRLM 272000Z 01011KT 9999 FEW035 BKN090 30/23 A2979=
201311272100 METAR MRLM 272100Z 01011KT 9999 FEW028 BKN090 30/23 A2979=
201311272200 METAR MRLM 272200Z 33006KT 9999 FEW030 SCT110 29/23 A2978=
201311272300 METAR MRLM 272300Z 32005KT 9999 FEW020 BKN080 27/23 A2981=
201311272357 METAR MRLM 280000Z 31006KT 9999 FEW015 BKN080 27/23 A2984=
201311280000 METAR MRLM 280000Z 31006KT 9999 FEW015 BKN080 27/23 A2984=
201311280100 METAR MRLM NIL=
201311280200 METAR MRLM NIL=
201311280300 METAR MRLM NIL=
201311280400 METAR MRLM NIL=
201311280500 METAR MRLM NIL=
201311280600 METAR MRLM NIL=
201311280700 METAR MRLM NIL=
201311280800 METAR MRLM NIL=
201311280900 METAR MRLM NIL=
201311281000 METAR MRLM NIL=
201311281100 METAR MRLM NIL=
201311281200 METAR MRLM NIL=
201311281300 METAR MRLM 281300Z 33004KT 3000 +DZ VCSH SCT003 SCT012 23/23 A2992 RERA=
201311281400 METAR MRLM 281400Z 27004KT 2000 RA SCT004 SCT012 23/22 A2995=
201311281500 METAR MRLM 281500Z 33004KT 5000 RA SCT004 SCT012 23/22 A2997=
201311281600 METAR MRLM 281600Z 28006KT 5000 RA SCT004 SCT012 23/22 A2997=
201311281700 METAR MRLM 281700Z 27005KT 6000 RA SCT004 SCT013 22/22 A2996=
201311281800 METAR MRLM 281800Z 26002KT 3000 RA SCT004 SCT012 23/22 A2996=
201311281900 METAR MRLM 281900Z 26004KT 5000 RA SCT004 SCT012 22/22 A2991=
201311282000 METAR MRLM 282000Z 30005KT 5000 RA SCT004 SCT012 23/22 A2990=
201311282100 METAR MRLM 282100Z 25004KT 8000 +DZ SCT015 BKN090 23/22 A2988=
201311282200 METAR MRLM 282200Z 24004KT 9999 SCT015 BKN090 23/22 2985 REDZ=
201311282300 METAR MRLM 282300Z 21003KT 9999 DZ FEW025 BKN090 23/22 A2987=
201311282355 METAR MRLM 290000Z 33002KT CAVOK 23/22 A2988 REDZ0=
201311290000 METAR MRLM 290000Z 33002KT CAVOK 23/22 A2988 REDZ0=
201311290100 METAR MRLM NIL=
201311290200 METAR MRLM NIL=
201311290300 METAR MRLM NIL=
201311290400 METAR MRLM NIL=
201311290500 METAR MRLM NIL=
201311290600 METAR MRLM NIL=
201311290700 METAR MRLM NIL=
201311290800 METAR MRLM NIL=
201311290900 METAR MRLM NIL=
201311291000 METAR MRLM NIL=
201311291100 METAR MRLM NIL=
201311291200 METAR MRLM 291200Z 25004KT CAVOK 22/21 A2992=
201311291300 METAR MRLM 291300Z 29004KT CAVOK 24/22 A2993=
201311291400 METAR MRLM 291400Z 00000KT 9999 FEW015 BKN120 25/22 A2995=
201311291500 METAR MRLM 291500Z 14002KT 9999 -DZ SCT015 SCT120 26/23 A2997=
201311291523 METAR MRLM 291523Z 05009KT 4000 +RA OVC010 25/22 A2999=
201311291600 METAR MRLM 291600Z 30004KT 8000 DZ VCSH BKN010 25/23 A2997 RERA=
201311291700 METAR MRLM 291700Z 27005KT 9999 DZ SCT020 BKN110 26/23 A2995=
201311291800 METAR MRLM 291800Z 28007KT 9999 BKN025 SCT120 27/22 A2991 REDZ=
201311291820 METAR MRLM 291820Z 24003KT 4000 RA OVC015 27/23 A2990=
201311291900 METAR MRLM 291900Z 00000KT 9999 SCT015 BKN120 26/23 A2989 RERA=
201311292000 METAR MRLM 292000Z 26005KT CAVOK 28/23 A2985=
201311292100 METAR MRLM 292100Z 31004KT 9999 FEW030 BKN140 30/23 A2983=
201311292200 METAR MRLM 292200Z 00000KT 9999 FEW030 BKN130 29/22 A2984=
201311292300 METAR MRLM 292300Z 31002KT 9999 DZ SCT020 SCT120 28/23 A2985=
201311300000 METAR MRLM 300000Z 07005KT 5000 DZ BKN010 26/22 A2987=
201311300100 METAR MRLM NIL=
201311300200 METAR MRLM NIL=
201311300300 METAR MRLM NIL=
201311300400 METAR MRLM NIL=
201311300500 METAR MRLM NIL=
201311300600 METAR MRLM NIL=
201311300700 METAR MRLM NIL=
201311300800 METAR MRLM NIL=
201311300900 METAR MRLM NIL=
201311301000 METAR MRLM NIL=
201311301100 METAR MRLM NIL=
201311301200 METAR MRLM 301200Z 30003KT 9999 FEW007 BKN100 22/21 A2991=
201311301300 METAR MRLM 301300Z 00000KT 8000 3000N BKN007 SCT100 23/22 A2994=
201311301400 METAR MRLM 301400Z 26004KT 9999 SCT010 SCT100 25/23 A2999 RERA=
201311301500 METAR MRLM 301500Z 25005KT 9999 SCT015 SCT110 26/23 A2997=
201311301600 METAR MRLM 301600Z 16007KT 3000 +RA OVC007 24/22 A2997=
201311301700 METAR MRLM 301700Z 26005KT 8000 3000N DZ BKN007 SCT100 24/23 A2994 RERA=
201311301800 METAR MRLM 301800Z 19003KT 8000 DZ BKN010 25/23 A2992=
201311301900 METAR MRLM 301900Z 27003KT 9999 SCT020 SCT120 27/23 A2988 REDZ=
201311302000 METAR MRLM 302000Z 27003KT 9999 FEW030 SCT260 29/23 A2985=
201311302100 METAR MRLM 302100Z 25004KT 9999 FEW035 SCT260 31/23 A2983=
201311302200 METAR MRLM 302200Z 24002KT 9999 FEW040 SCT260 31/22 A2982=
201311302300 METAR MRLM 302300Z 00000KT 9999 FEW025 BKN120 28/24 A2984=
201312010000 METAR MRLM 010000Z 11008KT 3000 DZ OVC010 25/23 A2987=
201312010100 METAR MRLM NIL=
201312010200 METAR MRLM NIL=
201312010300 METAR MRLM NIL=
201312010400 METAR MRLM NIL=
201312010500 METAR MRLM NIL=
201312010600 METAR MRLM NIL=
201312010700 METAR MRLM NIL=
201312010800 METAR MRLM NIL=
201312010900 METAR MRLM NIL=
201312011000 METAR MRLM NIL=
201312011100 METAR MRLM NIL=
201312011200 METAR MRLM 011200Z 25004KT 9999 FEW025 23/21 2990=
201312011300 METAR MRLM 011300Z 26003KT 9999 SCT035 24/22 A2990=
201312011400 METAR MRLM 011400Z 24004KT 9999 SCT025 SCT110 28/23 A2993=
201312011500 METAR MRLM 011500Z 21001KT 9999 DZ VCSH BKN028 29/23 A2985=
201312011600 METAR MRLM 011600Z 04004KT 9999 BKN040 29/21 A2994 REDZ=
201312011700 METAR MRLM 011700Z 11005KT 9999 FEW035 29/22 A2992=
201312011800 METAR MRLM 011800Z 09004KT 9999 FEW030 BKN080 29/23 A2990=
201312011900 METAR MRLM 011900Z 09015KT 9999 FEW025 SCT035 27/22 A2987=
201312012000 METAR MRLM 012000Z 11005KT 9999 FEW040 SCT110 30/22 A2984=
201312012100 METAR MRLM 012100Z 12004KT CAVOK 30/21 A2989=
201312012200 METAR MRLM 012200Z 08004KT CAVOK 30/21 A2984=
201312012300 METAR MRLM 012300Z 08007KT CAVOK 29/22 A2985=
201312012357 METAR MRLM 02000Z 07005 CAVOK 28/22 A2987=
201312020000 METAR MRLM 02000Z 07005 CAVOK 28/22 A2987=
201312020100 METAR MRLM NIL=
201312020200 METAR MRLM NIL=
201312020300 METAR MRLM NIL=
201312020400 METAR MRLM NIL=
201312020500 METAR MRLM NIL=
201312020600 METAR MRLM NIL=
201312020700 METAR MRLM NIL=
201312020800 METAR MRLM NIL=
201312020900 METAR MRLM NIL=
201312021000 METAR MRLM NIL=
201312021100 METAR MRLM NIL=
201312021200 METAR MRLM 021200Z 26005KT 9999 FEW025 21/19 A2988=
201312021300 METAR MRLM 021300Z 26004KT 9999 FEW015 23/20 A2989=
201312021400 METAR MRLM 021400Z 25002KT CAVOK 27/21 2991=
201312021500 METAR MRLM 021500Z 09003KT CAVOK 28/22 A2991=
201312021600 METAR MRLM 021600Z 04006 9999 FEW038 30/22 A2990=
201312021700 METAR MRLM 021700Z 03009KT 9999 FEW035 30/22 A2988=
201312021800 METAR MRLM 021800Z 03008KT 9999 FEW035 30/23 A2986=
201312021900 METAR MRLM 021900Z 9999 FEW035 30/23 A2984=
201312022000 METAR MRLM 022000Z 03009KT 9999 FEW030 SCT100 29/23 A2982=
201312022100 METAR MRLM 022100Z 02008KT 9999 FEW028 BKN120 29/23 A2981=
201312022200 METAR MRLM 022200Z 02007KT 9999 FEW025 BKN090 28/23 A2982=
201312022300 METAR MRLM 022300Z 32003KT 9999 FEW020 BKN080 27/23 A2983=
201312022353 METAR MRLM 030000Z 25003KT CAVOK 25/23 A2985=
201312030000 METAR MRLM 030000Z 25003KT CAVOK 25/23 A2985=
201312030100 METAR MRLM NIL=
201312030200 METAR MRLM NIL=
201312030300 METAR MRLM NIL=
201312030400 METAR MRLM NIL=
201312030500 METAR MRLM NIL=
201312030600 METAR MRLM NIL=
201312030700 METAR MRLM NIL=
201312030800 METAR MRLM NIL=
201312030900 METAR MRLM NIL=
201312031000 METAR MRLM NIL=
201312031100 METAR MRLM NIL=
201312031200 METAR MRLM 031200Z 25005KT CAVOK 21/20 A2990=
201312031300 METAR MRLM 031300Z 25003KT CAVOK 24/21 A2992=
201312031400 METAR MRLM 031400Z 00000KT CAVOK 28/22 A2995=
201312031500 METAR MRLM 031500Z 09003KT CAVOK 29/22 A2997=
201312031600 METAR MRLM 031600Z 08003KT 9999 FEW030 BKN260 29/22 A2995=
201312031700 METAR MRLM 031700Z 06005KT 9999 FEW030 BKN260 29/23 A2993=
201312031800 METAR MRLM NIL=
201312031900 METAR MRLM 031900Z 06006KT 9999 FEW030 BKN260 29/23 A2989=
201312032000 METAR MRLM 032000Z 05007KT 9999 SCT030 BKN260 30/23 A2987=
201312032100 METAR MRLM 032100Z 04006KT 9999 BKN025 SCT250 28/23 A2986=
201312032200 METAR MRLM 032200Z 05003KT 9999 BKN020 28/23 A2986=
201312032300 METAR MRLM 032300Z 13002KT 9999 FEW020 SCT130 SCT250 27/24 A2986=
201312040000 METAR MRLM 040000Z 20002KT 9999 FEW010 SCT120 25/23 A2987=
201312040100 METAR MRLM NIL=
201312040200 METAR MRLM NIL=
201312040300 METAR MRLM NIL=
201312040400 METAR MRLM NIL=
201312040500 METAR MRLM NIL=
201312040600 METAR MRLM NIL=
201312040700 METAR MRLM NIL=
201312040800 METAR MRLM NIL=
201312040900 METAR MRLM NIL=
201312041000 METAR MRLM NIL=
201312041100 METAR MRLM NIL=
201312041200 METAR MRLM 041200Z 28002KT CAVOK 21/20 A2992=
201312041300 METAR MRLM 041300Z 27002KT CAVOK 24/21 A2994=
201312041400 METAR MRLM 041400Z 24002KT CAVOK 28/21 A2996=
201312041500 METAR MRLM 041500Z 07004KT CAVOK 28/22 A2997=
201312041600 METAR MRLM 041600Z 10004KT 9999 FEW035 29/22 A2997=
201312041700 METAR MRLM 041700Z 12004KT 9999 FEW035 29/22 A2995=
201312041800 METAR MRLM 041800Z 09005KT 9999 FEW035 30/23 A2992=
201312041900 METAR MRLM 041900Z 09005KT CAVOK 30/23 A2990=
201312042000 METAR MRLM 042000Z 09005KT 9999 FEW040 30/22 A2987=
201312042100 METAR MRLM 042100Z 07007KT 9999 FEW030 29/23 A2986=
201312042200 METAR MRLM 042200Z 08003KT 9999 FEW030 29/23 A2986=
201312042300 METAR MRLM 042300Z 00000KT 9999 FEW025 SCT250 29/23 A2986=
201312050000 METAR MRLM 050000Z 21003KT 9999 SCT015 25/23 A2987=
201312050100 METAR MRLM NIL=
201312050200 METAR MRLM NIL=
201312050300 METAR MRLM NIL=
201312050400 METAR MRLM NIL=
201312050500 METAR MRLM NIL=
201312050600 METAR MRLM NIL=
201312050700 METAR MRLM NIL=
201312050800 METAR MRLM NIL=
201312050900 METAR MRLM NIL=
201312051000 METAR MRLM NIL=
201312051100 METAR MRLM NIL=
201312051200 METAR MRLM 25005KT CVAOK 21/19 2992=
201312051225 METAR MRLM 051225Z 25005KT CVAOK 21/19 2992=
201312051300 METAR MRLM 051300Z 25005KT CAVOK 22/20 A2994=
201312051400 METAR MRLM 051400Z 25004KT CAVOK 26/21 A2996=
201312051500 METAR MRLM 051500Z 24003KT CAVOK 29/23 A2996=
201312051600 METAR MRLM 051600Z 08002KT 9999 FEW035 BKN120 30/23 A2995=
201312051700 METAR MRLM 051700Z 08003KT 9999 FEW035 BKN090 30/23 A2993=
201312051800 METAR MRLM 051800Z 08003KT 9999 FEW035 SCT130 30/23 A2990=
201312051900 METAR MRLM 051900Z 06006KT 9999 FEW030 BKN080 29/23 A2988=
201312052000 METAR MRLM 052000Z 06007KT 9999 FEW035 BKN080 30/23 A2986=
201312052100 METAR MRLM 052100Z 03007KT 9999 FEW020 SCT035 28/24 A2984=
201312052200 METAR MRLM 052200Z 04003KT CAVOK 29/23 A2983=
201312052300 METAR MRLM 052300Z 04002KT 9999 SCT030 SCT070 28/22 A2985=
201312052356 METAR MRLM 060000Z 25002KT 9999 BKN015 26/23 A2986=
201312060000 METAR MRLM 060000Z 25002KT 9999 BKN015 26/23 A2986=
201312060100 METAR MRLM NIL=
201312060200 METAR MRLM NIL=
201312060300 METAR MRLM NIL=
201312060400 METAR MRLM NIL=
201312060500 METAR MRLM NIL=
201312060600 METAR MRLM NIL=
201312060700 METAR MRLM NIL=
201312060800 METAR MRLM NIL=
201312060900 METAR MRLM NIL=
201312061000 METAR MRLM NIL=
201312061100 METAR MRLM NIL=
201312061200 METAR MRLM 061200Z 30002KT 9999 SCT025 SCT080 23/22 A2989=
201312061300 METAR MRLM 061300Z 25004KT 9999 SCT025 SCT080 25/23 A2991=
201312061400 METAR MRLM 061400Z 30003KT CAVOK 27/23 A2992=
201312061500 METAR MRLM 061500Z 06003KT 9999 SCT035 SCT080 29/23 A2992=
201312061600 METAR MRLM 061600Z 06004KT 9999 FEW025 BKN080 28/24 A2992=
201312061700 METAR MRLM 07004KT 9999 FEW025 SCT130 29/24 A2990=
201312061707 METAR MRLM 061707Z 07004KT 9999 FEW025 SCT130 29/24 A2990=
201312061800 METAR MRLM 061800Z 05005KT 9999 FEW025 29/24 A2988=
201312061900 METAR MRLM 061900Z 05007KT 9999 FEW030 BKN280 30/24 A2985=
201312062000 METAR MRLM 062000Z 12006KT 9999 FEW035 BKN280 30/23 A2983=
201312062100 METAR MRLM 062100Z 08008KT 9999 FEW030 BKN280 30/24 A2983=
201312062200 METAR MRLM 062200Z 08007KT 9999 FEW028 BKN280 29/24 A2983=
201312062300 METAR MRLM 062300Z 08005KT CAVOK 29/24 A2984=
201312062355 METAR MRLM 070000Z 10006KT CAVOK 29/24 A2987=
201312070000 METAR MRLM 070000Z 10006KT CAVOK 29/24 A2987=
201312070100 METAR MRLM NIL=
201312070200 METAR MRLM NIL=
201312070300 METAR MRLM NIL=
201312070400 METAR MRLM NIL=
201312070500 METAR MRLM NIL=
201312070600 METAR MRLM NIL=
201312070700 METAR MRLM NIL=
201312070800 METAR MRLM NIL=
201312070900 METAR MRLM NIL=
201312071000 METAR MRLM NIL=
201312071100 METAR MRLM NIL=
201312071200 METAR MRLM 071200Z 26003KT CAVOK 23/21 A2990=
201312071300 METAR MRLM 071300Z 25004KT CAVOK 24/22 A2992=
201312071400 METAR MRLM 071400Z 25002KT CAVOK 27/23 A2993=
201312071500 METAR MRLM 071500Z 21002KT 9999 FEW025 BKN130 29/24 A2994=
201312071600 METAR MRLM 071600Z 09003KT 9999 FEW030 BKN130 30/23 A2995=
201312071700 METAR MRLM 071700Z 07003KT 9999 FEW030 SCT140 A2993=
201312071800 METAR MRLM 071800Z 08003KT 9999 FEW030 SCT140 30/24 A2990=
201312071900 METAR MRLM 071900Z 09003KT 9999 FEW030 SCT140 30/24 A2987=
201312072000 METAR MRLM 072000Z 11005KT 9999 FEW030 BKN130 30/24 A2985=
201312072100 METAR MRLM 072100Z 08011KT 9999 FEW020 BKN130 28/25 A2983=
201312072200 METAR MRLM 072200Z 13005KT CAVOK 28/24 A2983=
201312072300 METAR MRLM 072300Z 13005KT 9999 FEW030 SCT130 SCT250 28/24 A2985=
201312080000 METAR MRLM 080000Z 21003KT CAVOK 26/24 A2986=
201312080100 METAR MRLM NIL=
201312080200 METAR MRLM NIL=
201312080300 METAR MRLM NIL=
201312080400 METAR MRLM NIL=
201312080500 METAR MRLM NIL=
201312080600 METAR MRLM NIL=
201312080700 METAR MRLM NIL=
201312080800 METAR MRLM NIL=
201312080900 METAR MRLM NIL=
201312081000 METAR MRLM NIL=
201312081100 METAR MRLM NIL=
201312081200 METAR MRLM 081200Z 24003KT 9999 FEW010 SCT120 SCT250 22/21 A2991=
201312081300 METAR MRLM 081300Z 00000KT 9999 DZ SCT010 SCT120 23/22 A2993=
201312081310 METAR MRLM 081310Z 10010KT 6000 +RA BKN010 24/22 A2995=
201312081400 METAR MRLM 081400Z 26004KT 9999 -DZ VCSH SCT010 SCT110 26/24 A2995 RERA=
201312081500 METAR MRLM 081500Z 23004KT 9999 BKN015 SCT120 26/23 A2997=
201312081540 METAR MRLM 081540Z 06006KT 3000 +RA OVC010 26/23 A2998=
201312081600 METAR MRLM 081600Z 30002KT 9999 DZ BKN008 25/23 A2997 RERA=
201312081700 METAR MRLM 081700Z 34006KT 3000 +RA OVC008 25/22 A2997=
201312081800 METAR MRLM 081800Z 27005KT 9999 SCT015 BKN110 26/23 A2992 RERA=
201312081900 METAR MRLM 081900Z 25003KT 9999 FEW030 SCT130 28/23 A2989=
201312082000 METAR MRLM 082000Z 11016G26KT 9999 BKN020 SCT120 27/22 A2987=
201312082100 METAR MRLM 082100Z 14004KT 9999 FEW030 BKN130 28/21 A2987=
201312082200 METAR MRLM 082200Z 23005KT 9999 FEW030 BKN130 29/22 A2987=
201312082240 METAR MRLM 082240Z 15013G26KT 3000 +RA BKN015 24/21 A2990=
201312082300 METAR MRLM 082300Z 25004KT 9999 -DZ SCT010 SCT110 23/21 A2989 RERA=
201312090000 METAR MRLM 090000Z 20002KT 9999 FEW007 SCT110 23/21 A2989=
201312090100 METAR MRLM NIL=
201312090200 METAR MRLM NIL=
201312090300 METAR MRLM NIL=
201312090400 METAR MRLM NIL=
201312090500 METAR MRLM NIL=
201312090600 METAR MRLM NIL=
201312090700 METAR MRLM NIL=
201312090800 METAR MRLM NIL=
201312090900 METAR MRLM NIL=
201312091000 METAR MRLM NIL=
201312091100 METAR MRLM NIL=
201312091200 METAR MRLM 091200Z 25004KT 9999 FEW030 BKN080 22/20 A2992=
201312091255 METAR MRLM 091255Z 25004KT 9999 FEW030 BKN090 23/21 A2994=
201312091300 METAR MRLM 25004KT 9999 FEW030 BKN090 23/21 A2994=
201312091400 METAR MRLM 091400Z 24004KT CAVOK 27/22 A2995=
201312091500 METAR MRLM 091500Z 08004KT CAVOK 29/23 A2995=
201312091600 METAR MRLM 091600Z 09005KT CAVOK 29/23 A2995=
201312091700 METAR MRLM 091700Z 08005KT 9999 FEW028 BKN270 29/23 A2993=
201312091800 METAR MRLM 091800Z 08004KT 9999 FEW030 BKN270 29/23 A2989=
201312091900 METAR MRLM 091900Z 11005KT 9999 FEW038 BKN270 30/22 A2986=
201312092000 METAR MRLM 092000Z 10007KT 9999 FEW038 BKN270 30/22 A2984=
201312092100 METAR MRLM 092100Z 08007KT 9999 FEW030 BKN270 30/22 A2984=
201312092200 METAR MRLM 092200Z 06004KT 9999 FEW030 BKN270 29/23 A2984=
201312092300 METAR MRLM 092300Z 13001KT 9999 FEW025 SCT270 29/24 A2985=
201312092358 METAR MRLM 100000Z 22002KT 9999 FEW015 SCT270 25/23 A2987=
201312100000 METAR MRLM 100000Z 22002KT 9999 FEW015 SCT270 25/23 A2987=
201312100100 METAR MRLM NIL=
201312100200 METAR MRLM NIL=
201312100300 METAR MRLM NIL=
201312100400 METAR MRLM NIL=
201312100500 METAR MRLM NIL=
201312100600 METAR MRLM NIL=
201312100700 METAR MRLM NIL=
201312100800 METAR MRLM NIL=
201312100900 METAR MRLM NIL=
201312101000 METAR MRLM NIL=
201312101100 METAR MRLM NIL=
201312101200 METAR MRLM 101200Z 25005KT CAVOK 21/19 2992=
201312101300 METAR MRLM 101300Z 24005KT CAVOK 22 /19 A2994=
201312101400 METAR MRLM 101400Z 25003KT CAVOK 27/21 A2996=
201312101500 METAR MRLM 101500Z 20002KT CAVOK 30/22 A2996=
201312101600 METAR MRLM 101600Z 08004KT CAVOK 29/22 A2995=
201312101700 METAR MRLM 101700Z 06006KT 9999 FEW035 BKN270 29/22 A2973=
201312101800 METAR MRLM 101800Z 05006KT 9999 FEW035 BKN270 30/23 A2992=
201312101900 METAR MRLM 101900Z 05007KT 9999 FEW030 BKN270 29/23 A2990=
201312102000 METAR MRLM 102000Z 04006KT 9999 FEW030 BKN270 29/23 A2987=
201312102100 METAR MRLM 102100Z 03006KT 9999 FEW028 BKN250 29/23 A2986=
201312102200 METAR MRLM 102200Z 36005KT 9999 FEW030 BKN250 29/22 A2986=
201312102300 METAR MRLM 102300Z 33002KT 9999 SCT025 SCT260 28/23 A2987=
201312102355 METAR MRLM 110000Z 28002KT 9999 SCT013 SCT090 26/23 A2989=
201312110000 METAR MRLM 110000Z 28002KT 9999 SCT013 SCT090 26/23 A2989=
201312110100 METAR MRLM NIL=
201312110200 METAR MRLM NIL=
201312110300 METAR MRLM NIL=
201312110400 METAR MRLM NIL=
201312110500 METAR MRLM NIL=
201312110600 METAR MRLM NIL=
201312110700 METAR MRLM NIL=
201312110800 METAR MRLM NIL=
201312110900 METAR MRLM NIL=
201312111000 METAR MRLM NIL=
201312111100 METAR MRLM NIL=
201312111200 METAR MRLM 111200Z 25005KT CAVOK 22/20 A2992=
201312111300 METAR MRLM 111300Z 27003KT CAVOK 23/20 A2993=
201312111400 METAR MRLM 111400Z 25005KT CAVOK 24/21 A2995=
201312111500 METAR MRLM 111500Z 26002KT 9999 FEW020 BKN120 26/22 A2996=
201312111600 METAR MRLM 111600Z 31004KT CAVOK 29/23 A2995=
201312111700 METAR MRLM 111700Z 32006KT CAVOK 29/22 A2993=
201312111800 METAR MRLM 111800Z 31003KT 9999 FEW040 SCT140 31/22 A2990=
201312111900 METAR MRLM 111900Z 01008KT 9999 FEW030 BKN130 30/23 A2986=
201312112000 METAR MRLM 112000Z 02009KT 9999 FEW030 SCT140 30/24 A2984=
201312112100 METAR MRLM 112100Z 03008KT 9999 FEW030 BKN140 29/24 A2984=
201312112200 METAR MRLM 112200Z 01007KT 9999 FEW025 BKN130 29/23 A2985=
201312112300 METAR MRLM 112300Z 36005KT 9999 FEW020 BKN130 28/24 A2987=
201312120000 METAR MRLM 120000Z 26002KT 9999 SCT015 SCT120 26/24 A2988=
201312120100 METAR MRLM NIL=
201312120200 METAR MRLM NIL=
201312120300 METAR MRLM NIL=
201312120400 METAR MRLM NIL=
201312120500 METAR MRLM NIL=
201312120600 METAR MRLM NIL=
201312120700 METAR MRLM NIL=
201312120800 METAR MRLM NIL=
201312120900 METAR MRLM NIL=
201312121000 METAR MRLM NIL=
201312121100 METAR MRLM NIL=
201312121200 METAR MRLM 121200Z 27004KT 9999 SCT010 SCT100 23/22 A2991=
201312121300 METAR MRLM 121300Z 25005KT 9999 SCT010 SCT110 24/22 A2992=
201312121400 METAR MRLM 121400Z 27003KT 9999 SCT010 BKN110 25/23 A2994=
201312121500 METAR MRLM 121500Z 00000KT 9999 SCT015 BKN110 28/24 A2995=
201312121600 METAR MRLM 121600Z 00000KT 9999 SCT020 BKN120 28/24 A2995=
201312121700 METAR MRLM 121700Z 06004KT 9999 DZ BKN020 28/24 A2994=
201312121800 METAR MRLM 121800Z 03006KT 9999 DZ BKN015 28/24 A2990=
201312121900 METAR MRLM 121900Z 27003KT 9999 SCT020 SCT110 28/24 A2987 REDZ=
201312122000 METAR MRLM 122000Z 32006KT 9999 -DZ BKN015 28/24 A2986=
201312122030 METAR MRLM 122030Z 34010KT 5000 RA OVC010 26/23 A2986=
201312122100 METAR MRLM 122100Z 31004KT 9999 -DZ BKN010 26/24 A2985 RERA=
201312122200 METAR MRLM 122200Z 30003KT 9999=
201312122300 METAR MRLM 122300Z 28005KT 9999 DZ BKN010 SCT100 25/23 A2985=
201312130000 METAR MRLM 130000Z 30004KT 9999=
201312130100 METAR MRLM NIL=
201312130200 METAR MRLM NIL=
201312130300 METAR MRLM NIL=
201312130400 METAR MRLM NIL=
201312130500 METAR MRLM NIL=
201312130600 METAR MRLM NIL=
201312130700 METAR MRLM NIL=
201312130800 METAR MRLM NIL=
201312130900 METAR MRLM NIL=
201312131000 METAR MRLM NIL=
201312131100 METAR MRLM NIL=
201312131200 METAR MRLM 131200Z 25004KT 9999 FEW015 SCT090 23/22 A2986=
201312131300 METAR MRLM 131300Z 24003KT 9999 FEW015 BKN280 25/22 A2988=
201312131400 METAR MRLM 131400Z 26003KT CAVOK 28/24 A2989=
201312131500 METAR MRLM 131500Z 09002KT CAVOK 30/23 A2989=
201312131600 METAR MRLM 131600Z 09003KT CAVOK 30/22 A2988=
201312131700 METAR MRLM 131700Z 10003KT CAVOK 30/22 A2987=
201312131800 METAR MRLM 131800Z 10004KT 9999 FEW038 SCT280 30/23 A2984=
201312131900 METAR MRLM 131900Z 07006KT 9999 FEW035 BKN280 30/23 A2982=
201312132000 METAR MRLM NIL=
201312132012 METAR MRLM 132012Z 06007KT 9999 FEW035 SCT280 30/23 A2978=
201312132100 METAR MRLM 132100Z 07006KT 9999 FEW030 SCT280 30/24 A2989=
201312132200 METAR MRLM 132200Z 07005KT 9999 FEW030 SCT280 29/23 A2970=
201312132300 METAR MRLM 132300Z 07003KT 9999 BKN030 SCT280 29/23 2980=
201312132352 METAR MRLM 140000Z 23003KT 9999 SCT013 BKN280 26/23 A2982=
201312140000 METAR MRLM 140000Z 23003KT 9999 SCT013 BKN280 26/23 A2982=
201312140100 METAR MRLM NIL=
201312140200 METAR MRLM NIL=
201312140300 METAR MRLM NIL=
201312140400 METAR MRLM NIL=
201312140500 METAR MRLM NIL=
201312140600 METAR MRLM NIL=
201312140700 METAR MRLM NIL=
201312140800 METAR MRLM NIL=
201312140900 METAR MRLM NIL=
201312141000 METAR MRLM NIL=
201312141100 METAR MRLM NIL=
201312141200 METAR MRLM 141200Z 31004KT 9999 BKN025 22/21 A2982=
201312141300 METAR MRLM 141300Z 24002KT 9999 BKN025 23/22 A2983=
201312141400 METAR MRLM 141400Z 33006KT 9999 DZ VCSH BKN015 23/21 A2987=
201312141500 METAR MRLM 141500Z 31005KT 6000 RA BKN015 24/21 A2989=
201312141600 METAR MRLM 141600Z 28002KT 7000 +DZ VCSH BKN012 24/22 A2991=
201312141700 METAR MRLM 141700Z 24004KT 9999 +DZ SCT015 SCT090 24/23 A2986=
201312141800 METAR MRLM 141800Z 30001KT 9999 DZ SCT020 SCT090 27/23 A2985=
201312141900 METAR MRLM 141900Z 04006KT 9999 DZ FEW015 BKN025 27/24 A2983=
201312142000 METAR MRLM 142000Z 23005KT 9999 +DZ BKN012 24/23 A2980=
201312142100 METAR MRLM 142100Z 21002KT 9999 FEW020 BKN090 25/24 A2977=
201312142200 METAR MRLM 142200Z 24002KT CAVOK 26/24 A2979=
201312142300 METAR MRLM 142300Z 31002KT CAVOK 26/24 A2980=
201312142351 METAR MRLM 15000Z 00000KT CAVOK 25/24 A2981=
201312150000 METAR MRLM 15000Z 00000KT CAVOK 25/24 A2981=
201312150100 METAR MRLM NIL=
201312150200 METAR MRLM NIL=
201312150300 METAR MRLM NIL=
201312150400 METAR MRLM NIL=
201312150500 METAR MRLM NIL=
201312150600 METAR MRLM NIL=
201312150700 METAR MRLM NIL=
201312150800 METAR MRLM NIL=
201312150900 METAR MRLM NIL=
201312151000 METAR MRLM NIL=
201312151100 METAR MRLM NIL=
201312151200 METAR MRLM 151200Z 25002KT CAVOK 22/21 A2983=
201312151300 METAR MRLM 151300Z 25002KT CAVOK 23/22 A2986=
201312151400 METAR MRLM 151400Z 31003KT 9999 SCT010 BKN120 24/22 A2989=
201312151500 METAR MRLM 151500Z 33005KT 9999 BKN010 25/22 A2990=
201312151517 METAR MRLM 151517Z 34007KT 3000 +RA OVC007 24/23 A2990=
201312151600 METAR MRLM 151600Z 04003KT 2000 SHRA OVC007 24/23 A2991=
201312151700 METAR MRLM 151700Z COR 16002KT 3000 +RA FEW005 OVC007 24/22 A2991=
201312151800 METAR MRLM 151800Z COR 28005KT 8000 DZ FEW005 OVC007 24/23 A2988 RERA=
201312151900 METAR MRLM 151900Z 26003KT 9999 DZ BKN010 SCT090 24/22 A2986=
201312152000 METAR MRLM 152000Z COR 26004KT 9999 -DZ SCT010 BKN090 24/23 A2983=
201312152100 METAR MRLM 152100Z 25004KT 9999 DZ FEW010 BKN100 25/23 A2982=
201312152200 METAR MRLM 152200Z 26003KT 9999 DZ FEW010 BKN100 24/23 A2981=
201312152300 METAR MRLM 152300Z 00000KT CAVOK 24/23 A2982 REDZ=
201312160000 METAR MRLM 160000Z 23002KT CAVOK 23/22 A2984=
201312160100 METAR MRLM NIL=
201312160200 METAR MRLM NIL=
201312160300 METAR MRLM NIL=
201312160400 METAR MRLM NIL=
201312160500 METAR MRLM NIL=
201312160600 METAR MRLM NIL=
201312160700 METAR MRLM NIL=
201312160800 METAR MRLM NIL=
201312160900 METAR MRLM NIL=
201312161000 METAR MRLM NIL=
201312161100 METAR MRLM NIL=
201312161200 METAR MRLM 161200Z 23004KT 9999 FEW010 BKN120 23/21 A2986=
201312161300 METAR MRLM 161300Z 31005KT CAVOK 24/22 A2987=
201312161400 METAR MRLM 161400Z 30007KT CAVOK 25/22 A2989=
201312161500 METAR MRLM 161500Z 30006KT 9999 SCT020 BKN130 26/23 A2990=
201312161600 METAR MRLM 161600Z 31005KT 9999 DZ SCT015 SCT120 26/23 A2990=
201312161700 METAR MRLM 161700Z 33008KT 9999 FEW020 BKN130 28/24 A2988=
201312161800 METAR MRLM 161800Z 33010KT 9999 BKN020 27/24 A2987=
201312161900 METAR MRLM 161900Z 33009KT 9999 SCT020 28/24 A2985=
201312162000 METAR MRLM 162000Z 35012KT 9999 OVC020 27/23 A2983=
201312162020 METAR MRLM 162020Z 34006KT 6000 +DZ OVC010 27/24 A2982=
201312162100 METAR MRLM 162100Z 03013KT 8000 DZ OVC010 25/23 A2982=
201312162200 METAR MRLM 162200Z 07015KT 9999 BKN015 26/23 A2982 REDZ=
201312162300 METAR MRLM 162300Z 09004KT 9999 SCT020 SCT110 27/22 A2985=
201312170000 METAR MRLM 170000Z 27003KT 9999 BKN010 SCT100 25/23 A2986=
201312170100 METAR MRLM NIL=
201312170200 METAR MRLM NIL=
201312170300 METAR MRLM NIL=
201312170400 METAR MRLM NIL=
201312170500 METAR MRLM NIL=
201312170600 METAR MRLM NIL=
201312170700 METAR MRLM NIL=
201312170800 METAR MRLM NIL=
201312170900 METAR MRLM NIL=
201312171000 METAR MRLM NIL=
201312171100 METAR MRLM NIL=
201312171200 METAR MRLM 171200Z 28002KT 7000 RA BKN010 22/21 A2991=
201312171300 METAR MRLM 171300Z 24003KT 8000 +DZ VCSH BKN012 22/21 A2993=
201312171400 METAR MRLM 171400Z 21002KT 4000 RA BKN010 23/22 A2997=
201312171500 METAR MRLM 171500Z 27004KT 5000 RA SCT005 BKN012 23/22 A2998=
201312171600 METAR MRLM 171600Z 28002KT 5000 RA FEW005 BKN010 23/22 A2998=
201312171700 METAR MRLM 171700Z 22003KT 7000 RA SCT012 SCT090 23/22 A2995=
201312171800 METAR MRLM 171800Z 20001KT 9999 +DZ BKN015 24/23 A2993=
201312171900 METAR MRLM 171900Z 26004KT 9999 DZ BKN015 25/23 A2988=
201312172000 METAR MRLM 172000Z 25005KT 9999 BKN015 25/23 A2985=
201312172100 METAR MRLM 172100Z 27004KT 9999 BKN025 26/23 A2984=
201312172200 METAR MRLM 172200Z 24003KT 9999 BKN025 25/22 QA2984=
201312172300 METAR MRLM 172300Z 23004KT FEW025 SCT120 24/22 A2985=
201312172355 METAR MRLM 180000Z 24004KT CAVOK 23/21 A2987=
201312180000 METAR MRLM 180000Z 24004KT CAVOK 23/21 A2987=
201312180100 METAR MRLM NIL=
201312180200 METAR MRLM NIL=
201312180300 METAR MRLM NIL=
201312180400 METAR MRLM NIL=
201312180500 METAR MRLM NIL=
201312180600 METAR MRLM NIL=
201312180700 METAR MRLM NIL=
201312180800 METAR MRLM NIL=
201312180900 METAR MRLM NIL=
201312181000 METAR MRLM NIL=
201312181100 METAR MRLM NIL=
201312181200 METAR MRLM 181200Z 30003KT 6000 +DZ VCSH BKN015 22/21 A2993=
201312181300 METAR MRLM 181300Z 26002KT 9999 DZ OVC015 22/211 A2996=
201312181400 METAR MRLM 181400Z 28002KT 8000 DZ VCSH OVC015 23/22 A2998=
201312181500 METAR MRLM 181500Z 11009KT 8000 VCSH OVC010 23/22 A3000=
201312181600 METAR MRLM NIL=
201312181700 METAR MRLM 181700Z 27004KT 9999 BKN025 27/23 A2995=
201312181800 METAR MRLM 181800Z 28004KT 9999 BKN035 29/22 A2993=
201312181900 METAR MRLM 181900Z 02012KT 5000 RA BKN010 24/22 A2993=
201312182000 METAR MRLM 182000Z 24005KT 9999 FEW015 SCT025 25/22 A2990 RERA=
201312182100 METAR MRLM 182100Z 23005KT 9999 FEW015 SCT070 26/23 A2988=
201312182200 METAR MRLM 182200Z 22004KT 4000 DZ VCSH BKN015 27/23 A2986=
201312182300 METAR MRLM 182300Z 28006KT 9999 DZ FEW010 BKN025 23/21 A2989=
201312182356 METAR MRLM 190000Z 25004KT 9999 FEW015 BKN110 23/21 A2989 REDZ=
201312190000 METAR MRLM 190000Z 25004KT 9999 FEW015 BKN110 23/21 A2989 REDZ=
201312190100 METAR MRLM NIL=
201312190200 METAR MRLM NIL=
201312190300 METAR MRLM NIL=
201312190400 METAR MRLM NIL=
201312190500 METAR MRLM NIL=
201312190600 METAR MRLM NIL=
201312190700 METAR MRLM NIL=
201312190800 METAR MRLM NIL=
201312190900 METAR MRLM NIL=
201312191000 METAR MRLM NIL=
201312191100 METAR MRLM NIL=
201312191200 METAR MRLM 191200Z 28003KT CAVOK 22/21 A2993=
201312191300 METAR MRLM 191300Z 27002KT 9999 FEW010 BKN110 23/21 A2993=
201312191400 METAR MRLM 191400Z 25002KT 9999 FEW015 BKN110 25/21 A2995=
201312191500 METAR MRLM 191500Z 29003KT 9999 SCT020 BKN120 27/21 A2996=
201312191600 METAR MRLM 191600Z 36005KT 9999 FEW025 BKN130 28/22 A2994=
201312191700 METAR MRLM 191700Z 35005KT 9999 FEW020 BKN130 29/22 A2992=
201312191800 METAR MRLM 191800Z 04004KT CAVOK 29/21 A2990=
201312191900 METAR MRLM 191900Z 04006KT CAVOK 29/21 2987=
201312192000 METAR MRLM 192000Z 06005KT 9999 FEW030 BKN130 29/21 A2985=
201312192100 METAR MRLM 192100Z 07005KT CAVOK 29/22 A2984=
201312192200 METAR MRLM 192200Z 07003KT CAVOK 29/22 A2984=
201312192300 METAR MRLM 192300Z 11002KT CAVOK 28/22 A2985=
201312200000 METAR MRLM 200000Z 20002KT CAVOK 24/22 A2986=
201312200100 METAR MRLM NIL=
201312200200 METAR MRLM NIL=
201312200300 METAR MRLM NIL=
201312200400 METAR MRLM NIL=
201312200500 METAR MRLM NIL=
201312200600 METAR MRLM NIL=
201312200700 METAR MRLM NIL=
201312200800 METAR MRLM NIL=
201312200900 METAR MRLM NIL=
201312201000 METAR MRLM NIL=
201312201100 METAR MRLM NIL=
201312201200 METAR MRLM 201200Z 23006KT 9999 FEW010 BKN100 22/20 A2990=
201312201300 METAR MRLM 201300Z 25005KT 9999 SCT010 BKN100 23/20 A2991=
201312201400 METAR MRLM 201400Z 23004KT 9999 FEW020 SCT120 26/21 A2993=
201312201500 METAR MRLM 201500Z 22005KT CAVOK 28/22 A2993=
201312201600 METAR MRLM 201600Z 20005KT CAVOK 30/21 A2992=
201312201700 METAR MRLM 201700Z 13007KT 9999 FEW040 30/22 A2990=
201312201800 METAR MRLM 201800Z 10007KT 9999 FEW040 SCT140 31/22 A2987=
201312201900 METAR MRLM 201900Z 09005KT 9999 FEW040 BKN130 30/21 A2984=
201312202000 METAR MRLM 202000Z 06009KT CAVOK 30/22 A2982=
201312202100 METAR MRLM 202100Z 06007KT CAVOK 30/23 A2981=
201312202200 METAR MRLM 202200Z 05009KT CAVOK 29/23 A2981=
201312202300 METAR MRLM 202300Z 06008KT 9999 FEW020 BKN130 28/23 A2983=
201312210000 METAR MRLM 210000Z 06003KT 9999 SCT020 BKN120 27/22 A2985=
201312210100 METAR MRLM NIL=
201312210200 METAR MRLM NIL=
201312210300 METAR MRLM NIL=
201312210400 METAR MRLM NIL=
201312210500 METAR MRLM NIL=
201312210600 METAR MRLM NIL=
201312210700 METAR MRLM NIL=
201312210800 METAR MRLM NIL=
201312210900 METAR MRLM NIL=
201312211000 METAR MRLM NIL=
201312211100 METAR MRLM NIL=
201312211200 METAR MRLM 211200Z 28003KT SCT035 SCT080 22/21 2986=
201312211300 METAR MRLM 211300Z 23003KT 9999 SCT035 SCT080 23/21 A2987=
201312211400 METAR MRLM 211400Z 23003KT 9999 SCT035 SCT080 27/22 A2988=
201312211500 METAR MRLM 211500Z 24004KT CAVOK 28/22 A2989=
201312211600 METAR MRLM 211600Z 07004KT CAVOK 29/23 A2989=
201312211700 METAR MRLM 211700Z 08005KT 9999 FEW035 SCT090 29/23 A2986=
201312211800 METAR MRLM 211800Z 05007KT 9999 FEW030 SCT080 29/23 A2984=
201312211900 METAR MRLM 211900Z 03010KT 9999 FEW030 SCT110 29/23 A2982=
201312212000 METAR MRLM 212000Z 04010KT 9999 FEW025 SCT035 28/23 A2981=
201312212100 METAR MRLM 212100Z 07007KT 9999 FEW025 BKN090 27/22 A2982=
201312212200 METAR MRLM 212200Z 18003KT 9999 FEW020 BKN070 26/22 A2982=
201312212300 METAR MRLM 212300Z 26003KT CAVOK 25/22 A2983=
201312212356 METAR MRLM 220000Z 25003KT CAVOK 24/22 A2984=
201312220000 METAR MRLM 220000Z 25003KT CAVOK 24/22 A2984=
201312220100 METAR MRLM NIL=
201312220200 METAR MRLM NIL=
201312220300 METAR MRLM NIL=
201312220400 METAR MRLM NIL=
201312220500 METAR MRLM NIL=
201312220600 METAR MRLM NIL=
201312220700 METAR MRLM NIL=
201312220800 METAR MRLM NIL=
201312220900 METAR MRLM NIL=
201312221000 METAR MRLM NIL=
201312221100 METAR MRLM NIL=
201312221200 METAR MRLM 221200Z 25005KT CAVOK 22/21 A2987=
201312221300 METAR MRLM 221300Z 28003KT CAVOK 24/22 A2989=
201312221400 METAR MRLM 221400Z 22002KT 9999 BKN015 25/22 A2992=
201312221500 METAR MRLM 221500Z 27002KT 9999 FEW025 BKN080 28/23 A2993=
201312221600 METAR MRLM 221600Z 26002KT 9999 FEW038 30/23 A2992=
201312221700 METAR MRLM 221700Z 06005KT 9999 FEW040 30/22 A2990=
201312221800 METAR MRLM 221800Z 05004KT 9999 FEW035 30/22 A2988=
201312221900 METAR MRLM 221900Z 06005KT 9999 FEW035 29/23 A2985=
201312222000 METAR MRLM 222000Z 08005KT 9999 FEW035 29/23 A2983=
201312222100 METAR MRLM 222100Z 10004KT 9999 FEW030 30/23 A2982=
201312222200 METAR MRLM 222200Z 10004KT 9999 FEW030 29/23 A2983=
201312222300 METAR MRLM 222300Z 10002KT 9999 FEW028 28/23 A2984=
201312222354 METAR MRLM 230000Z 20001KT 9999 FEW015 25/23 A2985=
201312230000 METAR MRLM 230000Z 20001KT 9999 FEW015 25/23 A2985=
201312230100 METAR MRLM NIL=
201312230200 METAR MRLM NIL=
201312230300 METAR MRLM NIL=
201312230400 METAR MRLM NIL=
201312230500 METAR MRLM NIL=
201312230600 METAR MRLM NIL=
201312230700 METAR MRLM NIL=
201312230800 METAR MRLM NIL=
201312230900 METAR MRLM NIL=
201312231000 METAR MRLM NIL=
201312231100 METAR MRLM NIL=
201312231200 METAR MRLM 231200Z 28002KT 9999 FEW010 22/20 A2992=
201312231300 METAR MRLM 231300Z 26006KT 9999 FEW010 23/21 A2994=
201312231400 METAR MRLM 231400Z 25003KT 9999 FEW020 27/22 A2996=
201312231500 METAR MRLM 231500Z 08002KT 9999 FEW030 29/22 A2997=
201312231600 METAR MRLM 231600Z 28003KT 9999 FEW030 29/23 A2997=
201312231700 METAR MRLM 231700Z 10005KT 9999 FEW035 30/23 A2996=
201312231800 METAR MRLM 231800Z 09004KT 9999 FEW035 30/23 A2993=
201312231900 METAR MRLM 231900Z 09005KT FEW035 30/23 A2990=
201312232000 METAR MRLM 232000Z 07006KT 9999 FEW030 30/23 A2987=
201312232100 METAR MRLM 232100Z 06008KT 9999 FEW030 30/23 A2985=
201312232200 METAR MRLM 232200Z 06008KT 9999 FEW030 29/23 A2986=
201312232300 METAR MRLM 232300Z 05004KT CAVOK 28/23 A2988=
201312240000 METAR MRLM 240000Z 26002KT CAVOK 25/22 A2990=
201312240100 METAR MRLM NIL=
201312240200 METAR MRLM NIL=
201312240300 METAR MRLM NIL=
201312240400 METAR MRLM NIL=
201312240500 METAR MRLM NIL=
201312240600 METAR MRLM NIL=
201312240700 METAR MRLM NIL=
201312240800 METAR MRLM NIL=
201312240900 METAR MRLM NIL=
201312241000 METAR MRLM NIL=
201312241100 METAR MRLM NIL=
201312241200 METAR MRLM 241200Z 24005KT CAVOK 21/19 A2996=
201312241300 METAR MRLM 241300Z 24004KT CAVOK 23/20 A2998=
201312241400 METAR MRLM 241400Z 24004KT CAVOK 27/22 A3000=
201312241500 METAR MRLM 241500Z 00000KT 9999 FEW040 30/23 A3001=
201312241600 METAR MRLM 241600Z 07003KT 9999 FEW030 29/22 A3000=
201312241700 METAR MRLM 241700Z 05004KT 9999 FEW030 29/23 A2999=
201312241800 METAR MRLM 241800Z 04006KT 9999 FEW020 SCT130 28/24 A2996=
201312241900 METAR MRLM 241900Z 07006KT 9999 FEW025 SCT140 29/23 A2993=
201312242000 METAR MRLM 242000Z 07005KT CAVOK 30/22 A2990=
201312242100 METAR MRLM 242100Z 07003KT CAVOK 29/22 A2989=
201312242200 METAR MRLM 242200Z 06005KT CAVOK 29/21 A2989=
201312242300 METAR MRLM 242300Z 04003KT CAVOK 28/22 A2990=
201312250000 METAR MRLM 250000Z 00000KT 9999 FEW015 25/22 A2992=
201312250100 METAR MRLM NIL=
201312250200 METAR MRLM NIL=
201312250300 METAR MRLM NIL=
201312250400 METAR MRLM NIL=
201312250500 METAR MRLM NIL=
201312250600 METAR MRLM NIL=
201312250700 METAR MRLM NIL=
201312250800 METAR MRLM NIL=
201312250900 METAR MRLM NIL=
201312251000 METAR MRLM NIL=
201312251100 METAR MRLM NIL=
201312251200 METAR MRLM 251200Z 25005KT CAVOK 20/19 A2993=
201312251300 METAR MRLM 251300Z 25005KT CAVOK 22/19 A2994=
201312251400 METAR MRLM 251400Z 26005KT CAVOK 26/20 A2996=
201312251500 METAR MRLM 251500Z 22002KT CAVOK 29/21 A2996=
201312251600 METAR MRLM 251600Z 08003KT CAVOK 29/21 A2996=
201312251700 METAR MRLM 251700Z 07005KT CAVOK 29/22 A2994=
201312251800 METAR MRLM 251800Z 06005KT 9999 FEW035 BKN110 29/22 A2991=
201312251900 METAR MRLM 251900Z 06005KT 9999 FEW035 SCT140 29/22 A2989=
201312252000 METAR MRLM 252000Z 06006KT 9999 FEW035 SCT140 29/21 A2986=
201312252100 METAR MRLM 252100Z 06003KT 9999 FEW035 SCT110 29/22 A2986=
201312252200 METAR MRLM 252200Z 06004KT 9999 FEW030 29/22 A2986=
201312252300 METAR MRLM 252300Z 06004KT 9999 FEW025 28/22 A2988=
201312252356 METAR MRLM 260000Z 07004KT 9999 FEW025 BKN300 27/22 A2990=
201312260000 METAR MRLM 260000Z 07004KT 9999 FEW025 BKN300 27/22 A2990=
201312260100 METAR MRLM NIL=
201312260200 METAR MRLM NIL=
201312260300 METAR MRLM NIL=
201312260400 METAR MRLM NIL=
201312260500 METAR MRLM NIL=
201312260600 METAR MRLM NIL=
201312260700 METAR MRLM NIL=
201312260800 METAR MRLM NIL=
201312260900 METAR MRLM NIL=
201312261000 METAR MRLM NIL=
201312261100 METAR MRLM NIL=
201312261200 METAR MRLM 261200Z 26003KT 9999 SCT035 SCT080 22/20 A2995=
201312261300 METAR MRLM 261300Z 23004KT 9999 SCT035 SCT080 23/20 A2996=
201312261400 METAR MRLM 261400Z 24002KT CAVOK 27/21 A2999=
201312261500 METAR MRLM 261500Z 08003KT CAVOK 28/21 A2999=
201312261600 METAR MRLM NIL=
201312261700 METAR MRLM NIL=
201312261800 METAR MRLM NIL=
201312261900 METAR MRLM 261900Z 06005KT 9999 FEW025 29/// A////=
201312262000 METAR MRLM 262000Z /////KT 9999 FEW025 29/// A////=
201312262100 METAR MRLM 262100Z /////KT 9999 FEW025 28/22 A////=
201312262200 METAR MRLM 262200Z /////KT 9999 SCT025 28/23 A////=
201312262300 METAR MRLM 262300Z /////KT 9999 FEW025 SCT300 27/23 A////=
201312262359 METAR MRLM 270000Z /////KT 9999 FEW025 SCT300 25/23 A////=
201312270000 METAR MRLM 270000Z /////KT 9999 FEW025 SCT300 25/23 A////=
201312270100 METAR MRLM NIL=
201312270200 METAR MRLM NIL=
201312270300 METAR MRLM NIL=
201312270400 METAR MRLM NIL=
201312270500 METAR MRLM NIL=
201312270600 METAR MRLM NIL=
201312270700 METAR MRLM NIL=
201312270800 METAR MRLM NIL=
201312270900 METAR MRLM NIL=
201312271000 METAR MRLM NIL=
201312271100 METAR MRLM NIL=
201312271200 METAR MRLM 271200Z /////KT CAVOK 20/19 A////=
201312271300 METAR MRLM 271300Z /////KT CAVOK 21/20 A////=
201312271400 METAR MRLM 271400Z /////KT CAVOK 25/21 A////=
201312271500 METAR MRLM 271500Z /////KT CAVOK 28/20 A////=
201312271600 METAR MRLM 271600Z /////KT 9999 FEW020 BKN130 28/20 A////=
201312271700 METAR MRLM 271700Z /////KT 9999 FEW030 BKN130 28/22 A////=
201312271800 METAR MRLM 271800Z /////KT 9999 FEW030 BKN130 28/22 A////=
201312271900 METAR MRLM 271900Z /////KT 9999 FEW030 BKN140 28/23 A////=
201312272000 METAR MRLM 272000Z 06005KT CAVOK 29/22 A2988=
201312272100 METAR MRLM 272100Z 08005KT 9999 FEW035 29/22 A2987=
201312272200 METAR MRLM 272200Z 10003KT CAVOK 28/21 A2987=
201312272300 METAR MRLM 272300Z 10004KT CAVOK 28/21 A2988=
201312280000 METAR MRLM 280000Z 00000KT CAVOK 26/22 A2990=
201312280100 METAR MRLM NIL=
201312280200 METAR MRLM NIL=
201312280300 METAR MRLM NIL=
201312280400 METAR MRLM NIL=
201312280500 METAR MRLM NIL=
201312280600 METAR MRLM NIL=
201312280700 METAR MRLM NIL=
201312280800 METAR MRLM NIL=
201312280900 METAR MRLM NIL=
201312281000 METAR MRLM NIL=
201312281100 METAR MRLM NIL=
201312281200 METAR MRLM 281200Z 25004KT 9999 FEW010 BKN100 21/19 A2989=
201312281300 METAR MRLM 281300Z 26005KT CAVOK 21/19 A2991=
201312281400 METAR MRLM 281400Z 28003KT CAVOK 23/20 A2994=
201312281500 METAR MRLM 281500Z 29003KT 9999 FEW020 BKN110 26/21 A2995=
201312281600 METAR MRLM 281600Z 11003KT CAVOK 27/21 A2994=
201312281700 METAR MRLM 281700Z 07003KT 9999 FEW030 BKN130 27/20 A2993=
201312281800 METAR MRLM 281800Z 04003KT 9999 FEW030 BKN130 28/20 A2990=
201312281900 METAR MRLM 281900Z 22004KT CAVOK 30/22 A2985=
201312282000 METAR MRLM 282000Z 05006KT CAVOK 29/21 A2983=
201312282100 METAR MRLM 282100Z 06004KT CAVOK 29/20 A2981=
201312282200 METAR MRLM 282200Z 06002KT CAVOK 28/22 A2982=
201312282300 METAR MRLM 282300Z 09002KT CAVOK 28/23 A2982=
201312290000 METAR MRLM 290000Z 00000KT 9999 FEW015 BKN120 26/23 A2984=
201312290100 METAR MRLM NIL=
201312290200 METAR MRLM NIL=
201312290300 METAR MRLM NIL=
201312290400 METAR MRLM NIL=
201312290500 METAR MRLM NIL=
201312290600 METAR MRLM NIL=
201312290700 METAR MRLM NIL=
201312290800 METAR MRLM NIL=
201312290900 METAR MRLM NIL=
201312291000 METAR MRLM NIL=
201312291100 METAR MRLM NIL=
201312291200 METAR MRLM 291200Z 26006KT 8000 DZ VCSH OVC TCU015 23/22 A2987=
201312291300 METAR MRLM 291300Z 27005KT 8000 VCSH OVC TCU015 23/22 A2989 REDZ=
201312291400 METAR MRLM 291400Z 25004KT 9999 OVC015TCU 27/24 A2990=
201312291500 METAR MRLM 291500Z 28001KT 9999 BKN015TCU 29/24 A2991=
201312291600 METAR MRLM 291600Z 06003KT 9999 OVC015TCU 29/24 A2991=
201312291700 METAR MRLM 291700Z 02004KT 9999 BKN025TCU 30/24 A2989=
201312291800 METAR MRLM 291800Z 03006KT 9999 SCT025TCU SCT080 30/24 A2987=
201312291900 METAR MRLM 291900Z 02005KT 9999 BKN025TCU 29/24 A2985=
201312292000 METAR MRLM 292000Z 03008KT 9999 OVC025TCU 30/25 A2982=
201312292100 METAR MRLM 292100Z 04011KT 9999 OVC025TCU 29/24 A2982=
201312292200 METAR MRLM 292200Z 05011KT 9999 BKN020TCU 28/24 A2982=
201312292300 METAR MRLM 292300Z 05011KT 9999 BKN020TCU 28/24 A2983=
201312300000 METAR MRLM NIL=
201312300100 METAR MRLM NIL=
201312300200 METAR MRLM NIL=
201312300300 METAR MRLM NIL=
201312300400 METAR MRLM NIL=
201312300500 METAR MRLM NIL=
201312300600 METAR MRLM NIL=
201312300700 METAR MRLM NIL=
201312300800 METAR MRLM NIL=
201312300900 METAR MRLM NIL=
201312301000 METAR MRLM NIL=
201312301100 METAR MRLM NIL=
201312301200 METAR MRLM 301200Z 26003KT 9999 OVC015TCU 23/22 A2990=
201312301300 METAR MRLM 301300Z 25003KT 9999 OVC015TCU 23/22 A2992=
201312301400 METAR MRLM 301400Z 24004KT 9999 BKN015TCU 27/24 A2994=
201312301500 METAR MRLM 301500Z 20003KT 9999 OVC015TCU 27/24 A2995=
201312301600 METAR MRLM 301600Z 12004KT 9999 OVC025TCU 30/42 A2994=
201312301700 METAR MRLM 301700Z 10011KT 4000 RA OVC015TCU 27/24 A2994=
201312301800 METAR MRLM 301800Z 25005KT 9999 VCSH BKN020 28/24 A2992 RERA=
201312301900 METAR MRLM 301900Z 13003KT 8000 VCSH OVC030TCU 30/24 A2989=
201312302000 METAR MRLM 302000Z 01002KT 9999 BKN028TCU 30/24 A2987=
201312302100 METAR MRLM 302100Z 08008KT 9999 BKN025TCU 29/24 A2986=
201312302200 METAR MRLM 302200Z 07007KT 9999 BKN025 29/24 A2986=
201312302300 METAR MRLM 302300Z 07004KT 9999 BKN020TCU 28/23 A2987=
201312302353 METAR MRLM 310000Z 21001KT 9999 BKN015TCU 27/23 A2989=
201312310000 METAR MRLM 310000Z 21001KT 9999 BKN015TCU 27/23 A2989=
201312310100 METAR MRLM NIL=
201312310200 METAR MRLM NIL=
201312310300 METAR MRLM NIL=
201312310400 METAR MRLM NIL=
201312310500 METAR MRLM NIL=
201312310600 METAR MRLM NIL=
201312310700 METAR MRLM NIL=
201312310800 METAR MRLM NIL=
201312310900 METAR MRLM NIL=
201312311000 METAR MRLM NIL=
201312311100 METAR MRLM NIL=
201312311200 METAR MRLM 311200Z 24004KT 9999 SCT010 SCT100 22/20 A2994=
201312311300 METAR MRLM 311300Z 34005KT 9999 SCT010 BKN100 24/21 A2996=
201312311400 METAR MRLM 311400Z 26005KT 9999 FEW020 BKN120 26/22 A2998=
201312311500 METAR MRLM 311500Z 25004KT 9999 FEW030 SCT130 29/22 A2998=
201312311600 METAR MRLM 311600Z 22003KT 9999 FEW040 SCT140 31/23 A2997=
201312311700 METAR MRLM 311700Z 10005KT 9999 SCT030 SCT130 30/24 A2996=
201312311800 METAR MRLM 311800Z 07008KT 9999 DZ BKN020 27/23 A2994=
201312311900 METAR MRLM 311900Z 15012KT 9999 DZ BKN010 24/22 A2993=
201312312000 METAR MRLM 312000Z 25005KT 9999 SCT020 BKN120 27/23 A2990 REDZ=
201312312100 METAR MRLM 312100Z 00000KT CAVOK 29/23 A2988=
201312312200 METAR MRLM 312200Z 08002KT 9999 FEW030 BKN130 29/23 A2987=
201312312300 METAR MRLM 312300Z 03008KT 9999 FEW020 BKN120 28/23 A2988=
