201401010000 METAR MRLM 010000Z 32003KT 9999 FEW015 BKN120 25/22 A2989=
201401010100 METAR MRLM NIL=
201401010200 METAR MRLM NIL=
201401010300 METAR MRLM NIL=
201401010400 METAR MRLM NIL=
201401010500 METAR MRLM NIL=
201401010600 METAR MRLM NIL=
201401010700 METAR MRLM NIL=
201401010800 METAR MRLM NIL=
201401010900 METAR MRLM NIL=
201401011000 METAR MRLM NIL=
201401011100 METAR MRLM NIL=
201401011200 METAR MRLM 011200Z 24005KT 9999 SCT010 BKN100 23/22 A2990=
201401011300 METAR MRLM 011300Z 26003KT 9999 SCT010 BKN110 23/22 A2992=
201401011400 METAR MRLM 011400Z COR 31003KT 9999 DZ SCT010 SCT110 24/23 A2994=
201401011500 METAR MRLM 011500Z 24003KT 9999 BKN010 SCT100 24/23 A2995 REDZ=
201401011600 METAR MRLM 011600Z 28004KT 9999 -DZ SCT010 SCT110 25/23 A2994=
201401011620 METAR MRLM 011620Z 33004KT 6000 RA BKN010 25/23 A2994=
201401011700 METAR MRLM 011700Z 25004KT 9999 DZ BKN010 SCT110 26/24 A2992 RERA=
201401011800 METAR MRLM 011800Z 20002KT 5000 RA BKN010 25/23 A2992=
201401011900 METAR MRLM 011900Z 24004KT 9999 DZ BKN010 24/23 A2988 RERA=
201401012000 METAR MRLM 012000Z 26002KT 9999 DZ BKN010 SCT100 25/23 A2986=
201401012100 METAR MRLM 012100Z 00000KT 9999 +DZ BKN010 25/23 A2986=
201401012200 METAR MRLM 012200Z 23004KT 9999 DZ BKN008 24/22 A2985=
201401012300 METAR MRLM 012300Z 22003KT 9999 BKN008 SCT100 24/22 A2985 REDZ=
201401020000 METAR MRLM 020000Z 25002KT 9999 DZ BKN008 23/22 A2986=
201401020100 METAR MRLM NIL=
201401020200 METAR MRLM NIL=
201401020300 METAR MRLM NIL=
201401020400 METAR MRLM NIL=
201401020500 METAR MRLM NIL=
201401020600 METAR MRLM NIL=
201401020700 METAR MRLM NIL=
201401020800 METAR MRLM NIL=
201401020900 METAR MRLM NIL=
201401021000 METAR MRLM NIL=
201401021100 METAR MRLM NIL=
201401021200 METAR MRLM 021200Z 27005KT BKN015 22/21 A2987=
201401021300 METAR MRLM 26005KT 9999 OVC015 23/22 A2989=
201401021307 METAR MRLM 021307Z 26005KT 9999 OVC015 23/22 A2989=
201401021400 METAR MRLM 021400Z 27003KT 9999 SCT015 SCT090 24/23 A2991=
201401021500 METAR MRLM 021500Z 23003KT 9999 BKN015 26/23 A2991=
201401021600 METAR MRLM 021600Z 27002KT 9999 SCT020 SCT090 28/23 A2991=
201401021700 METAR MRLM 021700Z 30003KT 9999 SCT030 SCT090 28/23 A2988=
201401021800 METAR MRLM 021800Z 06005KT 9999 BKN025TCU 28/23 A2986=
201401021900 METAR MRLM 021900Z 02005KT 9999 SCT030TCU SCT080 29/23 A2983=
201401022000 METAR MRLM 022000Z 02006KT 9999 SCT025TCU BKN080 28/23 A2981=
201401022100 METAR MRLM 022100Z 01006KT 9999 FEW030 BKN080 28/22 A2980=
201401022200 METAR MRLM 022200Z 30004KT 9999 FEW030 BKN080 28/22 A2981=
201401022300 METAR MRLM 022300Z 31004KT 9999 +DZ BKN020 26/22 A2982=
201401022354 METAR MRLM 030000Z 31005KT 9999 +DZ VCSH OVC015 24/22 A2984=
201401030000 METAR MRLM 030000Z 31005KT 9999 +DZ VCSH OVC015 24/22 A2984=
201401030100 METAR MRLM NIL=
201401030200 METAR MRLM NIL=
201401030300 METAR MRLM NIL=
201401030400 METAR MRLM NIL=
201401030500 METAR MRLM NIL=
201401030600 METAR MRLM NIL=
201401030700 METAR MRLM NIL=
201401030800 METAR MRLM NIL=
201401030900 METAR MRLM NIL=
201401031000 METAR MRLM NIL=
201401031100 METAR MRLM NIL=
201401031200 METAR MRLM 031200Z 25005KT CAVOK 21/20 A2986=
201401031300 METAR MRLM 031300Z 24004KT CAVOK 23/21 A2988=
201401031400 METAR MRLM 031400Z 25003KT CAVOK 24/22 A2990=
201401031500 METAR MRLM 031500Z 25004KT CAVOK 27/21 A2990=
201401031600 METAR MRLM 031600Z 07002KT CAVOK 29/22 A2989=
201401031700 METAR MRLM 031700Z 06005KT 9999 FEW035 29/22 A2986=
201401031800 METAR MRLM 031800Z 06005KT 9999 FEW035 SCT270 29/22 A2984=
201401031900 METAR MRLM 031900Z 06006KT 9999 FEW035 SCT270 30/23 A2981=
201401032000 METAR MRLM 032000Z 05006KT 9999 FEW035 SCT260 30/23 A2979=
201401032100 METAR MRLM 032100Z 05005KT 9999 FEW030 29/23 A2079=
201401032200 METAR MRLM 032200Z 04005KT 9999 FEW035 29/23 A2980=
201401032300 METAR MRLM 032300Z 05005KT 9999 FEW025 28/23 A2981=
201401032355 METAR MRLM 040000Z 05002KT 9999 FEW020 27723 A2982=
201401040000 METAR MRLM 040000Z 05002KT 9999 FEW020 27723 A2982=
201401040100 METAR MRLM NIL=
201401040200 METAR MRLM NIL=
201401040300 METAR MRLM NIL=
201401040400 METAR MRLM NIL=
201401040500 METAR MRLM NIL=
201401040600 METAR MRLM NIL=
201401040700 METAR MRLM NIL=
201401040800 METAR MRLM NIL=
201401040900 METAR MRLM NIL=
201401041000 METAR MRLM NIL=
201401041100 METAR MRLM NIL=
201401041200 METAR MRLM 041200Z 24004KT CAVOK 20/19 A2987=
201401041300 METAR MRLM 041300Z 23004KT CAVOK 22/20 A2989=
201401041400 METAR MRLM 041400Z 24004KT CAVOK 26/22 A2991=
201401041500 METAR MRLM 041500Z 00000KT CAVOK 29/22 A2990=
201401041600 METAR MRLM 041600Z 07004KT CAVOK 29/21 A2989=
201401041700 METAR MRLM 041700Z 07004KT 9999 FEW035 29/22 A2986=
201401041800 METAR MRLM 041800Z 06005KT CAVOK 30/22 A2984=
201401041900 METAR MRLM NIL=
201401042000 METAR MRLM 042000Z 06008KT 9999 FEW030 BKN120 29/23 A2980=
201401042100 METAR MRLM 042100Z 07015KT 9999 SCT020 BKN120 27/23 A2980=
201401042200 METAR MRLM 042200Z 07014KT 9999 FEW015 BKN120 26/22 A2980=
201401042300 METAR MRLM 042300Z 07004KT 9999 SCT020 BKN120 26/22 A2981=
201401050000 METAR MRLM 050000Z 25005KT 9999 SCT010 SCT100 24/22 A2982=
201401050100 METAR MRLM NIL=
201401050200 METAR MRLM NIL=
201401050300 METAR MRLM NIL=
201401050400 METAR MRLM NIL=
201401050500 METAR MRLM NIL=
201401050600 METAR MRLM NIL=
201401050700 METAR MRLM NIL=
201401050800 METAR MRLM NIL=
201401050900 METAR MRLM NIL=
201401051000 METAR MRLM NIL=
201401051100 METAR MRLM NIL=
201401051200 METAR MRLM 051200Z 25003KT 5000KT RA OVC008 23/22 A2988=
201401051300 METAR MRLM 051300Z 24005KT 8000 DZ FEW008 BKN010 23/22 A2990 RERA=
201401051400 METAR MRLM 051400Z 24005KT 8000 DZ FEW008 BKN010 23/22 A2993=
201401051500 METAR MRLM 051500Z 24004KT 9999 -DZ SCT010 SCT100 24/22 A2993=
201401051600 METAR MRLM 051600Z 25005KT 9999 BKN010 SCT100 25/23 A2993=
201401051700 METAR MRLM 051700Z 25006KT 9999 SCT020 BKN110 26/23 A2991=
201401051800 METAR MRLM 051800Z 27004KT 9999 SCT020 SCT120 27/23 A2988=
201401051900 METAR MRLM 051900Z 27004KT 9999 -DZ BKN015 26/23 A2986=
201401052000 METAR MRLM 052000Z 30004KT 9999 BKN020 SCT110 27/23 A2984=
201401052100 METAR MRLM 052100Z 30005KT 9999 DZ BKN020 26/23 A2985=
201401052200 METAR MRLM 052200Z 29004KT 9999 BKN015 SCT100 25/22 A2986=
201401052300 METAR MRLM 052300Z 26003KT 9999 -DZ SCT010 BKN090 24/22 A2987=
201401060000 METAR MRLM 060000Z 25003KT 9999 -DZ OVC008 24/22 A2987=
201401060100 METAR MRLM NIL=
201401060200 METAR MRLM NIL=
201401060300 METAR MRLM NIL=
201401060400 METAR MRLM NIL=
201401060500 METAR MRLM NIL=
201401060600 METAR MRLM NIL=
201401060700 METAR MRLM NIL=
201401060800 METAR MRLM NIL=
201401060900 METAR MRLM NIL=
201401061000 METAR MRLM NIL=
201401061100 METAR MRLM NIL=
201401061200 METAR MRLM 061200Z 26005KT 9999 FEW015 SCT090 23/21 A2991=
201401061300 METAR MRLM 061300Z 26005KT 9999 FEW015 SCT110 23/22 A2992=
201401061400 METAR MRLM 061400Z 26003KT 9999 BKN015 26/24 A2996=
201401061500 METAR MRLM 061500Z 33003KT 9999 BKN025 29/23 A2995=
201401061600 METAR MRLM 061600Z 05005KT 9999 SCT030 SCT280 29/23 A2995=
201401061700 METAR MRLM 061700Z 06004KT 9999 FEW030 BKN280 29/23 A2993=
201401061800 METAR MRLM 061800Z 04005KT 9999 FEW030 BKN270 29/23 A2991=
201401061900 METAR MRLM 061900Z 03004KT 9999 FEW030 BKN270 30/23 A2987=
201401062000 METAR MRLM 062000Z 04006KT 9999 FEW030 BKN270 29/23 A2986=
201401062100 METAR MRLM 062100Z 04007KT 9999 FEW030 BKN260 29/23 A2986=
201401062200 METAR MRLM 062200Z 0307KT 9999 FEW020 BKN250 28/24 A2986=
201401062300 METAR MRLM 062300Z 02006KT 9999 FEW025 SCT150 28/23 A2987=
201401062354 METAR MRLM 070000Z 32002KT 9999 FEW018 BKN250 26/22 A2990=
201401070000 METAR MRLM 070000Z 32002KT 9999 FEW018 BKN250 26/22 A2990=
201401070100 METAR MRLM NIL=
201401070200 METAR MRLM NIL=
201401070300 METAR MRLM NIL=
201401070400 METAR MRLM NIL=
201401070500 METAR MRLM NIL=
201401070600 METAR MRLM NIL=
201401070700 METAR MRLM NIL=
201401070800 METAR MRLM NIL=
201401070900 METAR MRLM NIL=
201401071000 METAR MRLM NIL=
201401071100 METAR MRLM NIL=
201401071200 METAR MRLM 071200Z 27002KT CAVOK 22/20 A2993=
201401071300 METAR MRLM 071300Z 25004KT CAVOK 23/21 A2994=
201401071400 METAR MRLM 071400Z 26004KT 9999 BKN020 25/21 A2997=
201401071500 METAR MRLM 071500Z 31004KT 9999 SCT030 SCT080 28/21 A2997=
201401071600 METAR MRLM 071600Z 36004KT 9999 BKN025 SCT090 28/22 A2997=
201401071700 METAR MRLM 071700Z 04012KT 3000 +RA OVC012 24/21 A2998=
201401071800 METAR MRLM 071800Z 30005KT 9999 FEW015 BKN120 25/22 A2993 RERA=
201401071900 METAR MRLM 071900Z 24005KT 9999 FEW020 SCT080 28/23 A2990=
201401072000 METAR MRLM 072000Z 23001KT CAVOK 29/22 A2987=
201401072100 METAR MRLM 072100Z 09002KT 9999 FEW035 BKN080 29/21 A2986=
201401072200 METAR MRLM 072200Z 02002KT 9999 FEW035 SCT080 28/21 A2986=
201401072300 METAR MRLM 072300Z 05003KT 9999 FEW030 BKN070 27/21 A2987=
201401072353 METAR MRLM 080000Z 25002KT 9999 FEW020 SCT080 25/22 A2989=
201401080000 METAR MRLM 080000Z 25002KT 9999 FEW020 SCT080 25/22 A2989=
201401080100 METAR MRLM NIL=
201401080200 METAR MRLM NIL=
201401080300 METAR MRLM NIL=
201401080400 METAR MRLM NIL=
201401080500 METAR MRLM NIL=
201401080600 METAR MRLM NIL=
201401080700 METAR MRLM NIL=
201401080800 METAR MRLM NIL=
201401080900 METAR MRLM NIL=
201401081000 METAR MRLM NIL=
201401081100 METAR MRLM NIL=
201401081200 METAR MRLM NIL=
201401081300 METAR MRLM 081300Z 26003KT CAVOK 22/20 A2994=
201401081400 METAR MRLM 081400Z 24004KT CAVOK 25/20 A2996=
201401081500 METAR MRLM 081500Z 21001KT CAVOK 29/21 A2997=
201401081600 METAR MRLM 081600Z 06003KT CAVOK 29/22 A2996=
201401081700 METAR MRLM 081700Z 05005KT 9999 FEW035 BKN120 29/22 A2994=
201401081800 METAR MRLM 081800Z 04005KT 9999 FEW035 BKN110 29/22 A2992=
201401081900 METAR MRLM 081900Z 03007KT 9999 FEW030 SCT110 29/23 A2989=
201401082000 METAR MRLM 082000Z 02007KT 9999 FEW025 SCT140 29/23 A2986=
201401082100 METAR MRLM 082100Z 03007KT 9999 FEW035 BKN120 29/22 A2986=
201401082200 METAR MRLM NIL=
201401082300 METAR MRLM NIL=
201401090000 METAR MRLM NIL=
201401090100 METAR MRLM NIL=
201401090200 METAR MRLM NIL=
201401090300 METAR MRLM NIL=
201401090400 METAR MRLM NIL=
201401090500 METAR MRLM NIL=
201401090600 METAR MRLM NIL=
201401090700 METAR MRLM NIL=
201401090800 METAR MRLM NIL=
201401090900 METAR MRLM NIL=
201401091000 METAR MRLM NIL=
201401091100 METAR MRLM NIL=
201401091200 METAR MRLM NIL=
201401091300 METAR MRLM 091300Z 16001KT 5000 DZ VCSH FEW010 SCT022 22/21 A2993=
201401091400 METAR MRLM 091400Z 25006KT 9999 FEW010 BKN020 23/22 A2996 RERA=
201401091500 METAR MRLM 091500Z 27005KT 9999 BKN012 25/23 A2997=
201401091600 METAR MRLM 091600Z 27005KT 9999 FEW030 BKN140 29/23 A2996=
201401091700 METAR MRLM 091700Z 10003KT 9999 BKN035 SCT100 30/23 A2994=
201401091800 METAR MRLM 091800Z 01009KT 3000 +RA OVC015 24/22 A2993=
201401091900 METAR MRLM 091900Z 27002KT 9999 OVC010 26/23 A2989 RERA=
201401092000 METAR MRLM 092000Z 26005KT 9999 OVC025 28/23 A2986=
201401092100 METAR MRLM 092100Z 13013KT 3000 +RA OVC0015 27/23 A2986=
201401092200 METAR MRLM NIL=
201401092300 METAR MRLM NIL=
201401100000 METAR MRLM NIL=
201401100100 METAR MRLM NIL=
201401100200 METAR MRLM NIL=
201401100300 METAR MRLM NIL=
201401100400 METAR MRLM NIL=
201401100500 METAR MRLM NIL=
201401100600 METAR MRLM NIL=
201401100700 METAR MRLM NIL=
201401100800 METAR MRLM NIL=
201401100900 METAR MRLM NIL=
201401101000 METAR MRLM NIL=
201401101100 METAR MRLM NIL=
201401101200 METAR MRLM NIL=
201401101300 METAR MRLM 101300Z 26003KT 7000 DZ VCSH BKN015TCU 24/22 A2993=
201401101400 METAR MRLM 101400Z 22007KT 7000 RA BKN015 22/21 A2996=
201401101454 METAR MRLM 101454Z 25007KT 9999 SCT020 SCT090 24/22 A2997 RERA=
201401101500 METAR MRLM 25007KT 9999 SCT020 SCT090 24/22 A2997 RERA=
201401101600 METAR MRLM 101600Z 24005KT 9999 SCT025 28/22 A2996=
201401101700 METAR MRLM 101700Z 08004KT 9999 SCT040 30/22 A2994=
201401101800 METAR MRLM 101800Z 09003KT 9999 SCT045 30/21 A2991=
201401101900 METAR MRLM 101900Z 07004KT 9999 FEW040 30/21 A2987=
201401102000 METAR MRLM 102000Z 08005KT 9999 FEW035 30/22 A2985=
201401102100 METAR MRLM 102100Z 06004KT 9999 FEW035 29/22 A2984=
201401102200 METAR MRLM NIL=
201401102300 METAR MRLM NIL=
201401110000 METAR MRLM NIL=
201401110100 METAR MRLM NIL=
201401110200 METAR MRLM NIL=
201401110300 METAR MRLM NIL=
201401110400 METAR MRLM NIL=
201401110500 METAR MRLM NIL=
201401110600 METAR MRLM NIL=
201401110700 METAR MRLM NIL=
201401110800 METAR MRLM NIL=
201401110900 METAR MRLM NIL=
201401111000 METAR MRLM NIL=
201401111100 METAR MRLM NIL=
201401111200 METAR MRLM NIL=
201401111300 METAR MRLM 111300Z 30004KT 5000 DZ VCSH FEW003 BKN015 22/21 A2996=
201401111400 METAR MRLM 111400Z 25005KT 8000 DZ VCSH FEW005 BKN015 23/21 A2998=
201401111500 METAR MRLM 111500Z 26004KT 9999 DZ SCT007 SCT090 23/22 A2999=
201401111600 METAR MRLM 111600Z 25006KT 9999 OVC020 26/22 A2998 REDZ=
201401111700 METAR MRLM 111700Z 22006KT 9999 FEW030 BKN090 28/22 A2995=
201401111800 METAR MRLM 111800Z 19006KT 9999 FEW030 BKN090 28/22 A2992=
201401111900 METAR MRLM 111900Z 23003KT 9999 FEW035 SCT070 28/22 A2989=
201401112000 METAR MRLM 112000Z 10002KT 9999 FEW035 SCT070 28/21 A2986=
201401112100 METAR MRLM 112100Z 06003KT 9999 FEW035 SCT080 29/22 A2985=
201401112200 METAR MRLM NIL=
201401112300 METAR MRLM NIL=
201401120000 METAR MRLM NIL=
201401120100 METAR MRLM NIL=
201401120200 METAR MRLM NIL=
201401120300 METAR MRLM NIL=
201401120400 METAR MRLM NIL=
201401120500 METAR MRLM NIL=
201401120600 METAR MRLM NIL=
201401120700 METAR MRLM NIL=
201401120800 METAR MRLM NIL=
201401120900 METAR MRLM NIL=
201401121000 METAR MRLM NIL=
201401121100 METAR MRLM NIL=
201401121200 METAR MRLM NIL=
201401121300 METAR MRLM 121300Z 23003KT 9999 FEW015 BKN090 24/22 A2998=
201401121400 METAR MRLM 121400Z 27002KT 9999 BKN015 24/22 A3000=
201401121500 METAR MRLM 121500Z 33001KT 9999 FEW015 BKN030 25/23 A3002=
201401121600 METAR MRLM 121600Z 24003KT 9999 FEW020 BKN080 27/23 A3001=
201401121700 METAR MRLM 121700Z 22003KT 9999 SCT025 BKN080 28/23 A3000=
201401121800 METAR MRLM 121800Z 30002KT 9999 BKN035 29/23 A2997=
201401121900 METAR MRLM 121900Z 07003KT 9999 BKN015 26/23 A2995 RERA=
201401122000 METAR MRLM 122000Z 25005KT 9999 BKN018 26/22 A2994=
201401122100 METAR MRLM 122100Z 25007KT 9999 DZ VCSH OVC012 24/22 A2992 RERA=
201401122200 METAR MRLM NIL=
201401122300 METAR MRLM NIL=
201401130000 METAR MRLM NIL=
201401130100 METAR MRLM NIL=
201401130200 METAR MRLM NIL=
201401130300 METAR MRLM NIL=
201401130400 METAR MRLM NIL=
201401130500 METAR MRLM NIL=
201401130600 METAR MRLM NIL=
201401130700 METAR MRLM NIL=
201401130800 METAR MRLM NIL=
201401130900 METAR MRLM NIL=
201401131000 METAR MRLM NIL=
201401131100 METAR MRLM NIL=
201401131200 METAR MRLM NIL=
201401131300 METAR MRLM 131300Z 24004KT 9999 FEW020 BKN080 23/22 A2997=
201401131400 METAR MRLM 131400Z 24004KT 9999 BKN040 26/22 A2999=
201401131500 METAR MRLM 131500Z 24004KT CAVOK 28/23 A2999=
201401131600 METAR MRLM 131600Z 12007KT 9999 FEW040 29/22 A2997=
201401131700 METAR MRLM 131700Z 12006KT FEW035 30/22 A2994=
201401131800 METAR MRLM 131800Z 12009KT 9999 FEW040 30/21 A2992=
201401131900 METAR MRLM 131900Z 12006KT 9999 FEW040 SCT100 30/22 A2989=
201401132000 METAR MRLM 132000Z 06008KT 9999 FEW038 BKN100 30/22 A2987=
201401132100 METAR MRLM 132100Z 05005KT 9999 FEW030 BKN090 28/22 A2986=
201401132200 METAR MRLM NIL=
201401132300 METAR MRLM NIL=
201401140000 METAR MRLM NIL=
201401140100 METAR MRLM NIL=
201401140200 METAR MRLM NIL=
201401140300 METAR MRLM NIL=
201401140400 METAR MRLM NIL=
201401140500 METAR MRLM NIL=
201401140600 METAR MRLM NIL=
201401140700 METAR MRLM NIL=
201401140800 METAR MRLM NIL=
201401140900 METAR MRLM NIL=
201401141000 METAR MRLM NIL=
201401141100 METAR MRLM NIL=
201401141200 METAR MRLM NIL=
201401141300 METAR MRLM 141300Z 31003KT 2000 +DZ VCSH BKN010 23/22 A2997=
201401141400 METAR MRLM 141400Z 29003KT 9999 DZ SCT006 BKN015 23/22 A2999 RERA=
201401141500 METAR MRLM 141500Z 27005KT 9999 DZ FEW006 BKN015 23/22 A2999=
201401141600 METAR MRLM 141600Z 27005KT 9999 DZ FEW007 BKN020 24/22 A2999=
201401141700 METAR MRLM 141700Z 25005KT 9999 SCT015 SCT090 25/22 A2996=
201401141800 METAR MRLM 141800Z 25004KT 9999 DZ BKN015 SCT090 25/22 A2994=
201401141900 METAR MRLM 141900Z 26003KT 3000 RA BKN015 25/21 A2993=
201401142000 METAR MRLM 142000Z 26006KT 9999 BKN025 24/22 A2989 RERA=
201401142100 METAR MRLM 142100Z 22005KT BKN025 26/21 A2987=
201401142200 METAR MRLM NIL=
201401142300 METAR MRLM NIL=
201401150000 METAR MRLM NIL=
201401150100 METAR MRLM NIL=
201401150200 METAR MRLM NIL=
201401150300 METAR MRLM NIL=
201401150400 METAR MRLM NIL=
201401150500 METAR MRLM NIL=
201401150600 METAR MRLM NIL=
201401150700 METAR MRLM NIL=
201401150800 METAR MRLM NIL=
201401150900 METAR MRLM NIL=
201401151000 METAR MRLM NIL=
201401151100 METAR MRLM NIL=
201401151200 METAR MRLM NIL=
201401151300 METAR MRLM 151300Z 25005KT CAVOK 21/19 A2993=
201401151400 METAR MRLM 151400Z 24004KT CAVOK 25/21 A2995=
201401151500 METAR MRLM 151500Z 28002KT CAVOK 29/22 A2996=
201401151600 METAR MRLM 151600Z 32003KT CAVOK 28/21 A2995=
201401151700 METAR MRLM 151700Z 15004KT 9999 FEW040 29/22 A2992=
201401151800 METAR MRLM 151800Z 03009KT 9999 FEW035 29/22 A2989=
201401151900 METAR MRLM 151900Z 04009KT 9999 FEW035 29/22 A2986=
201401152000 METAR MRLM 152000Z 04008KT 9999 FEW035 29/22 A2984=
201401152100 METAR MRLM 152100Z 03007KT 9999 FEW035 29/22 A2983=
201401152200 METAR MRLM NIL=
201401152300 METAR MRLM NIL=
201401160000 METAR MRLM NIL=
201401160100 METAR MRLM NIL=
201401160200 METAR MRLM NIL=
201401160300 METAR MRLM NIL=
201401160400 METAR MRLM NIL=
201401160500 METAR MRLM NIL=
201401160600 METAR MRLM NIL=
201401160700 METAR MRLM NIL=
201401160800 METAR MRLM NIL=
201401160900 METAR MRLM NIL=
201401161000 METAR MRLM NIL=
201401161100 METAR MRLM NIL=
201401161200 METAR MRLM NIL=
201401161300 METAR MRLM 161300Z 27002KT CAVOK 24/21 A2994=
201401161400 METAR MRLM 161400Z 28003KT 9999 SKY 27/22 A2995=
201401161500 METAR MRLM 161500Z 33005KT 9999 SKC 29/21 A2996=
201401161600 METAR MRLM 161600Z 36007KT 9999 FEW040 30/20 A2995=
201401161700 METAR MRLM 161700Z 35008KT 9999 FEW045 SCT140 30/20 A2993=
201401161800 METAR MRLM 161800Z 01012KT 9999 FEW035 29/22 A2991=
201401161900 METAR MRLM 161900Z 34012KT 9999 FEW030 SCT070 29/22 A2988=
201401161958 METAR MRLM 161958Z 35014KT 9999 DZ SCT025 BKN070 28/22 A2987=
201401162000 METAR MRLM 35014KT 9999 DZ SCT025 BKN070 28/22 A2987=
201401162100 METAR MRLM 162100Z 03007KT 9999 FEW020 BKN080 25/21 A2987=
201401162200 METAR MRLM NIL=
201401162300 METAR MRLM NIL=
201401170000 METAR MRLM NIL=
201401170100 METAR MRLM NIL=
201401170200 METAR MRLM NIL=
201401170300 METAR MRLM NIL=
201401170400 METAR MRLM NIL=
201401170500 METAR MRLM NIL=
201401170600 METAR MRLM NIL=
201401170700 METAR MRLM NIL=
201401170800 METAR MRLM NIL=
201401170900 METAR MRLM NIL=
201401171000 METAR MRLM NIL=
201401171100 METAR MRLM NIL=
201401171200 METAR MRLM NIL=
201401171300 METAR MRLM 171300Z 29005KT 9999 DZ BKN020 22/21 A2993=
201401171400 METAR MRLM 171400Z 28006KT 6000 RA FEW006 BKN020 22/21 A2995=
201401171500 METAR MRLM 171500Z 29007KT 5000 RA BKN015 22/21 A2996=
201401171600 METAR MRLM 171600Z 31008KT 2000 RA FEW007 BKN015 22/21 A2997=
201401171700 METAR MRLM 171700Z 31008KT 4000 RA FEW007 BKN015 23/22 A2995=
201401171800 METAR MRLM 171800Z 30008KT 7000 +DZ SCT007 SCT015 23/21 A2993=
201401171900 METAR MRLM 171900Z 30007KT 9999 BKN012 23/21 A2991 REDZ=
201401172000 METAR MRLM 172000Z 29007KT 9999 OVC020 24/21 A2988=
201401172100 METAR MRLM 172100Z 29005KT 9999 FEW010 BKN020 24/22 A2987=
201401172200 METAR MRLM NIL=
201401172300 METAR MRLM NIL=
201401180000 METAR MRLM NIL=
201401180100 METAR MRLM NIL=
201401180200 METAR MRLM NIL=
201401180300 METAR MRLM NIL=
201401180400 METAR MRLM NIL=
201401180500 METAR MRLM NIL=
201401180600 METAR MRLM NIL=
201401180700 METAR MRLM NIL=
201401180800 METAR MRLM NIL=
201401180900 METAR MRLM NIL=
201401181000 METAR MRLM NIL=
201401181100 METAR MRLM NIL=
201401181200 METAR MRLM NIL=
201401181300 METAR MRLM 181300Z 29006KT 9999 FEW025 SCT080 23/21 A2993=
201401181400 METAR MRLM 181400Z 30006KT CAVOK 25/21 A3001=
201401181500 METAR MRLM 181500Z 32004KT CAVOK 28/22 A3001=
201401181600 METAR MRLM 181600Z 07004KT 9999 FEW035 29/22 A3000=
201401181700 METAR MRLM 181700Z 05005KT 9999 FEW035 29/22 A2998=
201401181800 METAR MRLM 181800Z 04006KT 9999 FEW035 29/22 A2996=
201401181900 METAR MRLM 181900Z 03006KT 9999 FEW030 29/22 A2992=
201401182000 METAR MRLM 182000Z 03007KT 9999 FEW030 29/23 A2991=
201401182100 METAR MRLM 182100Z 03007KT 9999 FEW035 BKN140 29/22 A2989=
201401182200 METAR MRLM NIL=
201401182300 METAR MRLM NIL=
201401190000 METAR MRLM NIL=
201401190100 METAR MRLM NIL=
201401190200 METAR MRLM NIL=
201401190300 METAR MRLM NIL=
201401190400 METAR MRLM NIL=
201401190500 METAR MRLM NIL=
201401190600 METAR MRLM NIL=
201401190700 METAR MRLM NIL=
201401190800 METAR MRLM NIL=
201401190900 METAR MRLM NIL=
201401191000 METAR MRLM NIL=
201401191100 METAR MRLM NIL=
201401191200 METAR MRLM NIL=
201401191300 METAR MRLM 191300Z 25005KT 9999 FEW030 BKN080 23/22 A2999=
201401191400 METAR MRLM 191400Z 23004KT 9999 SCT035 SCT080 26/22 A3001=
201401191500 METAR MRLM 191500Z 28002KT 9999 BKN025 27/22 A3002=
201401191600 METAR MRLM 191600Z 32006KT 9999 SCT035 SCT080 29/22 A3001=
201401191700 METAR MRLM 191700Z 33008KT 9999 FEW025 BKN035 27/22 A3000=
201401191800 METAR MRLM 191800Z 33007KT 9999 FEW025 BKN035 27/22 A2998=
201401191900 METAR MRLM 191900Z 32009KT 9999 FEW030 BKN070 28/22 A2997=
201401192000 METAR MRLM 192000Z 32008KT 9999 FEW025 BKN070 27/22 A2994=
201401192100 METAR MRLM 192100Z 31008KT 9999 FEW025 SCT040 27/22 A2992=
201401192200 METAR MRLM NIL=
201401192300 METAR MRLM NIL=
201401200000 METAR MRLM NIL=
201401200100 METAR MRLM NIL=
201401200200 METAR MRLM NIL=
201401200300 METAR MRLM NIL=
201401200400 METAR MRLM NIL=
201401200500 METAR MRLM NIL=
201401200600 METAR MRLM NIL=
201401200700 METAR MRLM NIL=
201401200800 METAR MRLM NIL=
201401200900 METAR MRLM NIL=
201401201000 METAR MRLM NIL=
201401201100 METAR MRLM NIL=
201401201200 METAR MRLM 201200Z 27002KT 9999 FEW007 BKN100 23/22 A2993=
201401201300 METAR MRLM 201300Z 30002KT 9999 FEW007 BKN100 24/23 A2994=
201401201400 METAR MRLM 201400Z 30006KT 9999 FEW015 BKN110 25/23 A2995=
201401201500 METAR MRLM 201500Z 28004KT 9999 FEW025 BKN130 28/23 A2997=
201401201600 METAR MRLM 201600Z 02005KT 9999 FEW025 BKN130 28/23 A2997=
201401201700 METAR MRLM 201700Z 03008KT 9999 FEW025 SCT140 29/24 A2996=
201401201800 METAR MRLM 201800Z 01011KT 9999 FEW020 BKN130 28/23 A2993=
201401201900 METAR MRLM 201900Z 03005KT 9999 FEW020 BKN130 28/23 A2989=
201401202000 METAR MRLM 202000Z 04008KT 9999 FEW025 BKN130 29/24 A2985=
201401202100 METAR MRLM 202100Z 03006KT CAVOK 29/23 A2985=
201401202200 METAR MRLM 202200Z 01007KT CAVOK 28/23 A2986=
201401202300 METAR MRLM NIL=
201401210000 METAR MRLM 210000Z 32003KT 9999 FEW015 BKN130 26/23 A2988=
201401210100 METAR MRLM NIL=
201401210200 METAR MRLM NIL=
201401210300 METAR MRLM NIL=
201401210400 METAR MRLM NIL=
201401210500 METAR MRLM NIL=
201401210600 METAR MRLM NIL=
201401210700 METAR MRLM NIL=
201401210800 METAR MRLM NIL=
201401210900 METAR MRLM NIL=
201401211000 METAR MRLM NIL=
201401211100 METAR MRLM NIL=
201401211200 METAR MRLM 211200Z 32005KT 9999 DZ BKN010 23/21 A2990=
201401211300 METAR MRLM 211300Z 30005KT 9999 DZ FEW007 BKN010 23/21 A2992=
201401211400 METAR MRLM 211400Z 26003KT 6000 RA BKN007 23/21 A2996=
201401211500 METAR MRLM 211500Z 27006KT 5000 +DZ OVC007 23/22 A2997=
201401211600 METAR MRLM 211600Z 26007KT 9999 DZ BKN010 23/22 A2996=
201401211700 METAR MRLM 211700Z 25005KT 9999 BKN015 25/23 A2994 REDZ=
201401211800 METAR MRLM 211800Z 24003KT 9999 -DZ BKN015 25/23 A2992=
201401211900 METAR MRLM 211900Z 26004KT 9999 SCT020 BKN110 26/23 A2989=
201401212000 METAR MRLM 212000Z 24004KT 9999 BKN020 SCT110 27/23 A2987=
201401212100 METAR MRLM 212100Z 33002KT 9999 BKN020 SCT110 27/23 A2986=
201401212200 METAR MRLM 212200Z 28002KT 9999 BKN020 SCT110 27/23 A2986=
201401212300 METAR MRLM 212300Z 33002KT 9999 FEW020 BKN110 27/23 A2986=
201401220000 METAR MRLM 220000Z 28002KT CAVOK 26/23 A2987=
201401220100 METAR MRLM NIL=
201401220200 METAR MRLM NIL=
201401220300 METAR MRLM NIL=
201401220400 METAR MRLM NIL=
201401220500 METAR MRLM NIL=
201401220600 METAR MRLM NIL=
201401220700 METAR MRLM NIL=
201401220800 METAR MRLM NIL=
201401220900 METAR MRLM NIL=
201401221000 METAR MRLM NIL=
201401221100 METAR MRLM NIL=
201401221200 METAR MRLM 221200Z 26006KT 9999 FEW015 BKN035 21/20 A2996=
201401221300 METAR MRLM 221300Z 26004KT 9999 BKN035 22/21 A2997=
201401221400 METAR MRLM 221400Z 25004KT 9999 FEW035 BNK090 26/22 A2999=
201401221500 METAR MRLM 221500Z 26003KT CAVOK 28/22 A3000=
201401221600 METAR MRLM 221600Z 26002KT 9999 FEW045 BKN090 30/22 A2999=
201401221700 METAR MRLM 221700Z 03007KT 9999 FEW035 BKN045 29/21 A2998=
201401221800 METAR MRLM 221800Z 03007KT 9999 FEW030 SCT045 28/22 A2995=
201401221900 METAR MRLM 221900Z 04006KT 9999 FEW035 BKN080 29/22 A2993=
201401222000 METAR MRLM 222000Z 36010KT 9999 SCT025 SCT035 27/22 A2992=
201401222100 METAR MRLM 222100Z 33006KT 9999 FEW025 SCT070 27/22 A2991=
201401222200 METAR MRLM 222200Z 32005KT 9999 FEW020 BKN080 25/22 A2991=
201401222300 METAR MRLM 222300Z 32003KT CAVOK 25/22 A2992=
201401222353 METAR MRLM 230000Z 270/03KT CAVOK 24/22 A2993=
201401230000 METAR MRLM 230000Z 270/03KT CAVOK 24/22 A2993=
201401230100 METAR MRLM NIL=
201401230200 METAR MRLM NIL=
201401230300 METAR MRLM NIL=
201401230400 METAR MRLM NIL=
201401230500 METAR MRLM NIL=
201401230600 METAR MRLM NIL=
201401230700 METAR MRLM NIL=
201401230800 METAR MRLM NIL=
201401230900 METAR MRLM NIL=
201401231000 METAR MRLM NIL=
201401231100 METAR MRLM NIL=
201401231200 METAR MRLM 231200Z 24005KT CAVOK 21/19 A30000=
201401231300 METAR MRLM 231300Z 26003KT CAVOK 22/20 A3001=
201401231400 METAR MRLM 231400Z 25004KT CAVOK 24/21 A3001=
201401231500 METAR MRLM 231500Z 35003KT CAVOK 28/22 A3002=
201401231600 METAR MRLM 231600Z 01001KT 9999 FEW025 SCT040 28/20 A3002=
201401231700 METAR MRLM 231700Z 04005KT 9999 FEW025 SCT040 28/22 A3001=
201401231800 METAR MRLM 231800Z 06006KT 9999 SCT035 SCT080 28/22 A2999=
201401231900 METAR MRLM 231900Z 06006KT 9999 FEW025 SCT040 27/21 A2996=
201401232000 METAR MRLM 232000Z 07004KT 9999 BKN045 28/21 A2993=
201401232100 METAR MRLM 232100Z 08004KT CAVOK 28/21 A2992=
201401232200 METAR MRLM 232200Z 13001KT CAVOK 28/20 A2992=
201401232300 METAR MRLM NIL=
201401232355 METAR MRLM 240000Z 00000KT CAVOK 24/21 A2994=
201401240000 METAR MRLM 240000Z 00000KT CAVOK 24/21 A2994=
201401240100 METAR MRLM NIL=
201401240200 METAR MRLM NIL=
201401240300 METAR MRLM NIL=
201401240400 METAR MRLM NIL=
201401240500 METAR MRLM NIL=
201401240600 METAR MRLM NIL=
201401240700 METAR MRLM NIL=
201401240800 METAR MRLM NIL=
201401240900 METAR MRLM NIL=
201401241000 METAR MRLM NIL=
201401241100 METAR MRLM NIL=
201401241200 METAR MRLM 241200Z 26005KT 9999 FEW010 BKN100 20/18 A2999=
201401241300 METAR MRLM 241300Z 26005KT 9999 SCT010 BKN100 21/19 A3001=
201401241400 METAR MRLM 241400Z 28003KT 9999 -DZ SCT015 BKN100 22/20 A3004=
201401241500 METAR MRLM 241500Z 26003KT CAVOK 26/21 A3006=
201401241600 METAR MRLM 241600Z 29004KT 9999 FEW035 28/21 A3005=
201401241700 METAR MRLM 241700Z 06005KT 9999 FEW040 BKN140 28/20 A3003=
201401241800 METAR MRLM 241800Z 04007KT 9999 FEW040 BKN140 29/20 A2999=
201401241900 METAR MRLM 241900Z 07016KT 9999 FEW030 BKN130 27/21 A2997=
201401242000 METAR MRLM 242000Z 04006KT 9999 FEW030 BKN130 27/21 A2993=
201401242100 METAR MRLM 242100Z 01005KT 9999 FEW030 BKN140 28/21 A2992=
201401242200 METAR MRLM 242200Z 01005KT CAVOK 28/21 A2991=
201401242300 METAR MRLM 242300Z 03005KT CAVOK 27/21 A2993=
201401250000 METAR MRLM 250000Z 00000KT CAVOK 24/21 A2995=
201401250100 METAR MRLM NIL=
201401250200 METAR MRLM NIL=
201401250300 METAR MRLM NIL=
201401250400 METAR MRLM NIL=
201401250500 METAR MRLM NIL=
201401250600 METAR MRLM NIL=
201401250700 METAR MRLM NIL=
201401250800 METAR MRLM NIL=
201401250900 METAR MRLM NIL=
201401251000 METAR MRLM NIL=
201401251100 METAR MRLM NIL=
201401251200 METAR MRLM 251200Z 29003KT 9999 SCT010 SCT110 21/19 A2998=
201401251300 METAR MRLM 251300Z 25004KT 9999 SCT010 BKN110 21/20 A2999=
201401251400 METAR MRLM 251400Z 27004KT 9999 SCT010 BKN110 22/20 A3003=
201401251500 METAR MRLM 251500Z 28006KT 9999 -DZ BKN015 SCT110 24/21 A3002=
201401251600 METAR MRLM 251600Z 27003KT 9999 BKN020 26/21 A3002=
201401251700 METAR MRLM 251700Z 17003KT 7000 DZ BKN015 25/21 A3001=
201401251800 METAR MRLM 251800Z 27004KT 9999 FEW020 BKN120 27/22 A2998 REDZ=
201401251900 METAR MRLM 251900Z 26002KT CAVOK 28/21 A2994=
201401252000 METAR MRLM 252000Z 24002KT CAVOK 30/21 A2991=
201401252100 METAR MRLM 252100Z 06005KT 9999 FEW040 SCT260 29/21 A2990=
201401252200 METAR MRLM 252200Z 06005KT CAVOK 29/21 A2989=
201401252300 METAR MRLM NIL=
201401260000 METAR MRLM 260000Z 06006KT CAVOK 26/21 A2994=
201401260100 METAR MRLM NIL=
201401260200 METAR MRLM NIL=
201401260300 METAR MRLM NIL=
201401260400 METAR MRLM NIL=
201401260500 METAR MRLM NIL=
201401260600 METAR MRLM NIL=
201401260700 METAR MRLM NIL=
201401260800 METAR MRLM NIL=
201401260900 METAR MRLM NIL=
201401261000 METAR MRLM NIL=
201401261100 METAR MRLM NIL=
201401261200 METAR MRLM 261200Z 24004KT CAVOK 20/18 A2995=
201401261300 METAR MRLM NIL=
201401261400 METAR MRLM 261400Z 27002KT CAVOK 26/21 A2997=
201401261500 METAR MRLM 261500Z 00000KT CAVOK 27/21 A2998=
201401261600 METAR MRLM 261600Z 24003KT CAVOK 27/21 A2998=
201401261700 METAR MRLM 261700Z 06003KT CAVOK 28/21 A2996=
201401261800 METAR MRLM 261800Z 07002KT 9999 FEW025 SCT035 28/21 A2993=
201401261900 METAR MRLM 261900Z 04004KT 9999 FEW025 BKN080 28722 A2991=
201401261956 METAR MRLM 2620000Z 05004KT 9999 FEW025 SCT090 28/23 A2988=
201401262000 METAR MRLM 2620000Z 05004KT 9999 FEW025 SCT090 28/23 A2988=
201401262100 METAR MRLM 262100Z 05003KT 9999 FEW030 28/23 A2998=
201401262200 METAR MRLM 262200Z 08002KT 9999 FEW025 28/23 A2985=
201401262300 METAR MRLM 262300Z 14003KT 9999 FEW020 27/23 A2986=
201401262354 METAR MRLM 270000Z 21002KT 9999 FEW012 24/22 A2988=
201401270000 METAR MRLM 270000Z 21002KT 9999 FEW012 24/22 A2988=
201401270100 METAR MRLM NIL=
201401270200 METAR MRLM NIL=
201401270300 METAR MRLM NIL=
201401270400 METAR MRLM NIL=
201401270500 METAR MRLM NIL=
201401270600 METAR MRLM NIL=
201401270700 METAR MRLM NIL=
201401270800 METAR MRLM NIL=
201401270900 METAR MRLM NIL=
201401271000 METAR MRLM NIL=
201401271100 METAR MRLM NIL=
201401271200 METAR MRLM 271200Z 24005KT CAVOK 20/19 A2991=
201401271300 METAR MRLM NIL=
201401271400 METAR MRLM 271400Z 23004KT CAVOK 25/21 A2995=
201401271500 METAR MRLM 271500Z 14005KT CAVOK 28/21 A2996=
201401271600 METAR MRLM 271600Z 13006KT 9999 FEW035 28/21 A2995=
201401271700 METAR MRLM 271700Z 10006KT 9999 FEW035 28/21 A2993=
201401271800 METAR MRLM 271800Z 10005KT 9999 FEW035 28/22 A2990=
201401271900 METAR MRLM 271900Z 08010KT 9999 FEW035 28/22 A2987=
201401272000 METAR MRLM 272000Z 10009KT 9999 FEW030 28/22 A2984=
201401272100 METAR MRLM 272100Z 10007KT 9999 SCT025 28/22 A2983=
201401272200 METAR MRLM 272200Z 10005KT 9999 SCT3000 28/22 A2983=
201401272300 METAR MRLM 272300Z 12006KT 9999 SCT025 27/21 A2983=
201401272357 METAR MRLM 280000Z 13006KT 9999 BKN025 27/21 A2985=
201401280000 METAR MRLM 280000Z 13006KT 9999 BKN025 27/21 A2985=
201401280100 METAR MRLM NIL=
201401280200 METAR MRLM NIL=
201401280300 METAR MRLM NIL=
201401280400 METAR MRLM NIL=
201401280500 METAR MRLM NIL=
201401280600 METAR MRLM NIL=
201401280700 METAR MRLM NIL=
201401280800 METAR MRLM NIL=
201401280900 METAR MRLM NIL=
201401281000 METAR MRLM NIL=
201401281100 METAR MRLM NIL=
201401281200 METAR MRLM 281200Z 25002KT CAVOK 20/19 A2991=
201401281300 METAR MRLM 281300Z 24004KT CAVOK 22/20 A2992=
201401281400 METAR MRLM 281400Z 24005KT CAVOK 25/20 A2993=
201401281500 METAR MRLM 281500Z 10004KT 9999 FEW040 28/21 A2994=
201401281600 METAR MRLM 281600Z 09004KT 9999 FEW040 28/21 A2994=
201401281700 METAR MRLM 281700Z 06008KT 9999 FEW040 29/21 A2992=
201401281800 METAR MRLM 281800Z 06009KT 9999 FEW035 29/22 A2991=
201401281900 METAR MRLM 281900Z 06009KT 9999 FEW040 29/21 A2988=
201401282000 METAR MRLM 282000Z 07008KT CAVOK 29/21 A2986=
201401282100 METAR MRLM 282100Z 08006KT CAVOK 29/21 A2985=
201401282200 METAR MRLM 282200Z 08005KT CAVOK 29/21 A2984=
201401282300 METAR MRLM 282300Z 08002KT CAVOK 27/21 A2985=
201401290000 METAR MRLM 290000Z 00000KT CAVOK 25/21 A2987=
201401290100 METAR MRLM NIL=
201401290200 METAR MRLM NIL=
201401290300 METAR MRLM NIL=
201401290400 METAR MRLM NIL=
201401290500 METAR MRLM NIL=
201401290600 METAR MRLM NIL=
201401290700 METAR MRLM NIL=
201401290800 METAR MRLM NIL=
201401290900 METAR MRLM NIL=
201401291000 METAR MRLM NIL=
201401291100 METAR MRLM NIL=
201401291200 METAR MRLM 291200Z 24005KT 9999 SCT010 BKN090 23/20 A2990=
201401291300 METAR MRLM 291300Z 22004KT 9999 BKN010 SCT090 23/20 A2992=
201401291400 METAR MRLM 291400Z 23005KT 9999 FEW020 BKN100 24/21 A2994=
201401291500 METAR MRLM 291500Z 23005KT CAVOK 26/21 A2994=
201401291600 METAR MRLM 291600Z 23004KT CAVOK 29/21 A2994=
201401291700 METAR MRLM 291700Z 07003KT 9999 FEW040 BKN140 30/20 A2993=
201401291800 METAR MRLM 291800Z 06005KT 9999 FEW040 29/21 A2990=
201401291900 METAR MRLM 291900Z 06006KT 9999 FEW035 SCT140 29/22 A2988=
201401292000 METAR MRLM 292000Z 05006KT 9999 FEW035 BKN130 29/22 A2985=
201401292100 METAR MRLM 292100Z 06006KT CAVOK 29/22 A2982=
201401292200 METAR MRLM 292200Z 05004KT CAVOK 29/21 A2982=
201401292300 METAR MRLM 292300Z 04004KT CAVOK 28/22 A2983=
201401300000 METAR MRLM 300000Z 00000KT CAVOK 27/22 A2985=
201401300100 METAR MRLM NIL=
201401300200 METAR MRLM NIL=
201401300300 METAR MRLM NIL=
201401300400 METAR MRLM NIL=
201401300500 METAR MRLM NIL=
201401300600 METAR MRLM NIL=
201401300700 METAR MRLM NIL=
201401300800 METAR MRLM NIL=
201401300900 METAR MRLM NIL=
201401301000 METAR MRLM NIL=
201401301100 METAR MRLM NIL=
201401301200 METAR MRLM 301200Z 22003KT 9999 BKN035 22/21 A2992=
201401301300 METAR MRLM 301300Z 24003KT 9999 SCT035 SCT080 23/21 A2993=
201401301400 METAR MRLM 301400Z 23002KT 9999 FEW015 BKN080 25/22 A2996=
201401301500 METAR MRLM 301500Z 25001KT 9999 FEW035 BKN080 28/23 A2996=
201401301600 METAR MRLM 301600Z 08003KT 9999 SCT025 SCT080 27/22 A2997=
201401301700 METAR MRLM 301700Z 01007KT 9999 SCT035 BKN080 27/20 A2995=
201401301800 METAR MRLM 301800Z 04005KT 9999 FEW035 BKN080 29/21 A2993=
201401301900 METAR MRLM 301900Z 02008KT 9999 FEW030 BKN080 28/22 A2991=
201401302000 METAR MRLM 302000Z 02011KT 9999 SCT045 BKN080 28/19 A2990=
201401302100 METAR MRLM 302100Z 05007KT 9999 FEW030 BKN080 28/22 A2988=
201401302200 METAR MRLM 302200Z 05004KT 9999 FEW030 BKN070 28/22 A2988=
201401302300 METAR MRLM 302300Z 03005KT 9999 FEW030 BKN080 28/21 A2988=
201401302354 METAR MRLM 310000Z 27002KT CAVOK 25/22 A2989=
201401310000 METAR MRLM 310000Z 27002KT CAVOK 25/22 A2989=
201401310100 METAR MRLM NIL=
201401310200 METAR MRLM NIL=
201401310300 METAR MRLM NIL=
201401310400 METAR MRLM NIL=
201401310500 METAR MRLM NIL=
201401310600 METAR MRLM NIL=
201401310700 METAR MRLM NIL=
201401310800 METAR MRLM NIL=
201401310900 METAR MRLM NIL=
201401311000 METAR MRLM NIL=
201401311100 METAR MRLM NIL=
201401311200 METAR MRLM 311200Z 23005KT 9999 OVC010 22/20 A2989=
201401311300 METAR MRLM 311300Z 26004KT 9999 BKN012 22/20 A2991=
201401311400 METAR MRLM 311400Z 05015KT 2000 +RA OVCV012 24/22 A2994=
201401311500 METAR MRLM 311500Z 25004KT 9999 DZ BKN020 SCT080 22/21 A2995 RERA=
201401311600 METAR MRLM 311600Z 25006KT 9999 FEW020 BKN090 24/22 A2995=
201401311700 METAR MRLM 311700Z 24006KT 9999 FEW025 BKN090 26/21 A2993=
201401311800 METAR MRLM 311800Z 24003KT 9999 SCT030 SCT080 28/21 A2991=
201401311900 METAR MRLM 311900Z 31007KT 9999 DZ SCT015 SCT080 24/21 A2989=
201401312000 METAR MRLM 312000Z 27004KT 9999 FEW025 SCT070 26/21 A2986 REDZ=
201401312100 METAR MRLM 312100Z 24005KT CAVOK 26/21 A2985=
201401312200 METAR MRLM 312200Z 25002KT CAVOK 27/22 A2985=
201401312300 METAR MRLM 312300Z 22004KT 9999 FEW020 SCT070 25/21 A2985=
201401312356 METAR MRLM 010000Z 24004KT 9999 FEW012 BKN080 23/21 A2986=
201402010000 METAR MRLM 010000Z 24004KT 9999 FEW012 BKN080 23/21 A2986=
201402010100 METAR MRLM NIL=
201402010200 METAR MRLM NIL=
201402010300 METAR MRLM NIL=
201402010400 METAR MRLM NIL=
201402010500 METAR MRLM NIL=
201402010600 METAR MRLM NIL=
201402010700 METAR MRLM NIL=
201402010800 METAR MRLM NIL=
201402010900 METAR MRLM NIL=
201402011000 METAR MRLM NIL=
201402011100 METAR MRLM NIL=
201402011200 METAR MRLM 011200Z 23003KT 9999 SCT010 BKN090 19/18 A2991=
201402011300 METAR MRLM 011300Z 00000KT 9999 SCT010 BKN100 20/17 A2993=
201402011400 METAR MRLM 011400Z 26004KT 9999 FEW020 BKN110 21/18 A2994=
201402011500 METAR MRLM 011500Z 26005KT 9999 FEW020 BKN110 23/19 A2994=
201402011600 METAR MRLM 011600Z 28003KT 9999 FEW030 BKN120 26/19 A2994=
201402011700 METAR MRLM 011700Z 07004KT 9999 FEW030 BKN120 26/20 A2993=
201402011800 METAR MRLM 011800Z 31002KT 9999 SCT040 SCT130 28/20 A2989=
201402011900 METAR MRLM 011900Z 05002KT 9999 FEW040 BKN130 28/20 A2987=
201402012000 METAR MRLM 012000Z 07004KT 9999 FEW040 BKN130 29/21 A2985=
201402012100 METAR MRLM 012100Z 08008KT CAVOK 27/22 A2984=
201402012200 METAR MRLM 012200Z 10003KT 9999 FEW030 BKN130 27/21 A2984=
201402012300 METAR MRLM 012300Z 10002KT 9999 FEW030 BKN120 27/21 A2985=
201402020000 METAR MRLM 020000Z 11006KT 9999 BKN015 26/21 A2986=
201402020100 METAR MRLM NIL=
201402020200 METAR MRLM NIL=
201402020300 METAR MRLM NIL=
201402020400 METAR MRLM NIL=
201402020500 METAR MRLM NIL=
201402020600 METAR MRLM NIL=
201402020700 METAR MRLM NIL=
201402020800 METAR MRLM NIL=
201402020900 METAR MRLM NIL=
201402021000 METAR MRLM NIL=
201402021100 METAR MRLM NIL=
201402021200 METAR MRLM 021200Z 21001KT 9999 OVC015 23/20 A2990=
201402021300 METAR MRLM 021300Z 00000KT 9999 SCT015 SCT090 23/20 A2990=
201402021400 METAR MRLM 021400Z 21002KT 9999 BKN015 SCT100 25/21 A2994=
201402021500 METAR MRLM 021500Z 25003KT 9999 DZ BKN020 SCT100 25/21 A2994=
201402021600 METAR MRLM 021600Z 26004KT 9999 SCT025 SCT110 27/21 A2994 REDZ=
201402021700 METAR MRLM 021700Z 06003KT 9999 BKN030 SCT120 28/21 A2992=
201402021800 METAR MRLM 021800Z 02014KT 9999 BKN020 26/22 A2990=
201402021900 METAR MRLM 021900Z 05010KT 9999 SCT020 BKN120 25/22 A2989=
201402022000 METAR MRLM 022000Z 03005KT 9999 SCT020 BKN120 26/22 A2987=
201402022100 METAR MRLM 022100Z 02008KT 9999 BKN020 SCT110 25/22 A2986=
201402022200 METAR MRLM 022200Z 01009KT 9999 SCT020 SCT110 25/22 A2985=
201402022300 METAR MRLM 022300Z 24003KT 9999 SCT020 BKN110 25/21 A2986=
201402030000 METAR MRLM 030000Z 24004KT 9999 BKN010 24/21 A2986=
201402030100 METAR MRLM NIL=
201402030200 METAR MRLM NIL=
201402030300 METAR MRLM NIL=
201402030400 METAR MRLM NIL=
201402030500 METAR MRLM NIL=
201402030600 METAR MRLM NIL=
201402030700 METAR MRLM NIL=
201402030800 METAR MRLM NIL=
201402030900 METAR MRLM NIL=
201402031000 METAR MRLM NIL=
201402031100 METAR MRLM NIL=
201402031200 METAR MRLM NIL=
201402031300 METAR MRLM 031300Z 24004KT 9999 BKN040 23/20 A2990=
201402031400 METAR MRLM 031400Z 24002KT 9999 BKN045 25/21 A2992=
201402031500 METAR MRLM 031500Z 10010KT 9999 FEW025 BKN080 27/22 A2993=
201402031600 METAR MRLM 031600Z 12003KT 9999 FEW035 SCT280 28/22 A2993=
201402031700 METAR MRLM 031700Z 08004KT 9999 FEW030 28/22 A2992=
201402031800 METAR MRLM 031800Z 08006KT 9999 FEW030 28/22 A2989=
201402031900 METAR MRLM 031900Z 07006KT 9999 FEW030 SCT110 29/22 A2987=
201402032000 METAR MRLM 032000Z 06005KT 9999 FEW035 29/22 A2985=
201402032100 METAR MRLM 032100Z 05008KT 9999 FEW030 BKN080 28/22 A2984=
201402032200 METAR MRLM 032200Z 05007KT 9999 FEW030 BKN080 28/22 A2985=
201402032300 METAR MRLM 032300Z 05006KT 9999 FEW030 BKN070 28/22 A2986=
201402032357 METAR MRLM 04000Z 07002KT CAVOK 27/21 A2987=
201402040000 METAR MRLM 04000Z 07002KT CAVOK 27/21 A2987=
201402040100 METAR MRLM NIL=
201402040200 METAR MRLM NIL=
201402040300 METAR MRLM NIL=
201402040400 METAR MRLM NIL=
201402040500 METAR MRLM NIL=
201402040600 METAR MRLM NIL=
201402040700 METAR MRLM NIL=
201402040800 METAR MRLM NIL=
201402040900 METAR MRLM NIL=
201402041000 METAR MRLM NIL=
201402041100 METAR MRLM NIL=
201402041200 METAR MRLM 041200Z 25004KT CAVOK 20/19 A2991=
201402041300 METAR MRLM 041300Z 25005KT CAVOK 21/20 A2992=
201402041400 METAR MRLM 041400Z 25003KT CAVOK 26/21 A2994=
201402041500 METAR MRLM 041500Z 07003KT CAVOK 28/21 A2994=
201402041600 METAR MRLM 041600Z 07004KT 9999 FEW035 SCT280 28/21 A2993=
201402041700 METAR MRLM 041700Z 06006KT 9999 FEW030 28/22 A2991=
201402041800 METAR MRLM 041800Z 06006KT 9999 FEW035 SCT110 29/22 A2989=
201402041900 METAR MRLM 041900Z 06010KT 9999 FEW030 BKN080 29/23 A2987=
201402042000 METAR MRLM 042000Z 09007KT 9999 FEW030 SCT070 29/22 A2985=
201402042100 METAR MRLM 042100Z 14009KT 9999 FEW025 BKN090 28/23 A2984=
201402042200 METAR MRLM 042200Z 12004KT 9999 FEW030 BKN090 28/22 A2984=
201402042300 METAR MRLM 042300Z 11004KT CAVOK 28/22 A2986=
201402042356 METAR MRLM 050000Z 11004KT CAVOK 27/22 A2987=
201402050000 METAR MRLM 050000Z 11004KT CAVOK 27/22 A2987=
201402050100 METAR MRLM NIL=
201402050200 METAR MRLM NIL=
201402050300 METAR MRLM NIL=
201402050400 METAR MRLM NIL=
201402050500 METAR MRLM NIL=
201402050600 METAR MRLM NIL=
201402050700 METAR MRLM NIL=
201402050800 METAR MRLM NIL=
201402050900 METAR MRLM NIL=
201402051000 METAR MRLM NIL=
201402051100 METAR MRLM NIL=
201402051200 METAR MRLM 051200Z 27002KT 9999 BKN010 SCT100 22/20 A2993=
201402051300 METAR MRLM 051300Z 25003KT 9999 SCT100 BKN100 23/21 A2994=
201402051400 METAR MRLM 051400Z 23003KT 9999 FEW015 BKN110 25/22 A2996=
201402051500 METAR MRLM 051500Z 23002KT 9999 BKN030 SCT120 29/22 A2997=
201402051600 METAR MRLM 051600Z 09009KT 9999 BKN020 26/21 A2997=
201402051700 METAR MRLM 051700Z 13011KT 9999 BKN020 26/22 A2995=
201402051800 METAR MRLM 051800Z 15007KT 9999 FEW030 BKN120 27/21 A2993=
201402051900 METAR MRLM 051900Z 14004KT 9999 FEW030 BKN130 27/22 A2991=
201402052000 METAR MRLM 052000Z 14003KT 9999 FEW030 BKN130 27/22 A2988=
201402052100 METAR MRLM 052100Z 17002KT 9999 FEW030 BKN130 28/21 A2987=
201402052200 METAR MRLM 052200Z 23003KT 9999 SCT025 BKN130 27/22 A2987=
201402052300 METAR MRLM 052300Z 23002KT 9999 BKN025 SCT120 26/21 A2988=
201402060000 METAR MRLM 060000Z 00000KT 9999 DZ BKN015 25/22 A2989=
201402060100 METAR MRLM NIL=
201402060200 METAR MRLM NIL=
201402060300 METAR MRLM NIL=
201402060400 METAR MRLM NIL=
201402060500 METAR MRLM NIL=
201402060600 METAR MRLM NIL=
201402060700 METAR MRLM NIL=
201402060800 METAR MRLM NIL=
201402060900 METAR MRLM NIL=
201402061000 METAR MRLM NIL=
201402061100 METAR MRLM NIL=
201402061200 METAR MRLM 061200Z 00000KT CAVOK 20/18 A2994=
201402061300 METAR MRLM 061300Z 00000KT CAVOK 22/20 A2995=
201402061400 METAR MRLM 061400Z 23002KT CAVOK 26/21 A2997=
201402061500 METAR MRLM 061500Z 09003KT CAVOK 27/21 A2998=
201402061600 METAR MRLM 061600Z 10006KT 9999 FEW040 BKN260 29/21 A2997=
201402061700 METAR MRLM 061700Z 12007KT 9999 FEW040 BKN260 29/20 A2995=
201402061800 METAR MRLM 061800Z 09007KT 9999 FEW040 BKN260 29/22 A2993=
201402061900 METAR MRLM 061900Z 08008KT 9999 FEW040 BKN260 29/21 A2989=
201402062000 METAR MRLM 062000Z 08009KT CAVOK 29/22 A2988=
201402062100 METAR MRLM 062100Z 08008KT 9999 FEW030 SCT250 29/22 A2986=
201402062200 METAR MRLM 062200Z 08005KT 9999 FEW030 SCT250 28/22 A2987=
201402062300 METAR MRLM 062300Z 07004KT 9999 SCT030 SCT250 27/21 A2989=
201402070000 METAR MRLM 070000Z 09005KT 9999 BKN025 27/22 A2989=
201402070100 METAR MRLM NIL=
201402070200 METAR MRLM NIL=
201402070300 METAR MRLM NIL=
201402070400 METAR MRLM NIL=
201402070500 METAR MRLM NIL=
201402070600 METAR MRLM NIL=
201402070700 METAR MRLM NIL=
201402070800 METAR MRLM NIL=
201402070900 METAR MRLM NIL=
201402071000 METAR MRLM NIL=
201402071100 METAR MRLM NIL=
201402071200 METAR MRLM 071200Z 2702KT 9999 FEW015 SCT035 21/19 A2994=
201402071256 METAR MRLM 071256Z 29004KT 9999 FEW015 BKN090 22/19 A2995=
201402071300 METAR MRLM 29004KT 9999 FEW015 BKN090 22/19 A2995=
201402071400 METAR MRLM 071400Z 26002KT CAVOK 26/21 A2997=
201402071500 METAR MRLM 071500Z 08002KT SKC 27/21 A2998=
201402071600 METAR MRLM 071600Z 09005KT 9999 FEW030 28/22 A2998=
201402071700 METAR MRLM 071700Z 09006KT 9999 FEW040 28/20 A2996=
201402071800 METAR MRLM 071800Z 08005KT 9999 FEW040 29/21 A2993=
201402071900 METAR MRLM 071900Z 07006KT 9999 FEW045 29/20 A2990=
201402072000 METAR MRLM 072000Z 06006KT 9999 FEW045 29/21 A2989=
201402072100 METAR MRLM 072100Z 04005KT 9999 FEW040 29/20 A2987=
201402072200 METAR MRLM 072200Z 05005KT 9999 FEW040 29/21 A2987=
201402072300 METAR MRLM 072300Z 05004KT 9999 REW035 SCT090 28/21 A2988=
201402072356 METAR MRLM 080000Z 05003KT 9999 SCT030 27/21 A2990=
201402080000 METAR MRLM 080000Z 05003KT 9999 SCT030 27/21 A2990=
201402080100 METAR MRLM NIL=
201402080200 METAR MRLM NIL=
201402080300 METAR MRLM NIL=
201402080400 METAR MRLM NIL=
201402080500 METAR MRLM NIL=
201402080600 METAR MRLM NIL=
201402080700 METAR MRLM NIL=
201402080800 METAR MRLM NIL=
201402080900 METAR MRLM NIL=
201402081000 METAR MRLM NIL=
201402081100 METAR MRLM NIL=
201402081200 METAR MRLM 081200Z 27005KT 9999 BKN015 SCT090 21/19 A2991=
201402081300 METAR MRLM 081300Z 27005KT 9999 BKN015 22/20 A2992=
201402081400 METAR MRLM 081400Z 30003KT 9999 BKN015 23/21 A2994=
201402081500 METAR MRLM 081500Z 07001KT 6000 +DZ VCSH BKN015 24/21 A2998=
201402081600 METAR MRLM 081600Z 24004KT 9999 BKN015 24/21 A2997 RERDZ=
201402081700 METAR MRLM 081700Z 26004KT 9999 DZ BKN015 SCT090 25/21 2996=
201402081800 METAR MRLM 081800Z 29007KT 8000 DZ VCSH BKN012 SCT090 24/22 A2994=
201402081900 METAR MRLM 081900Z 21003KT 4000 RA BKN013 SCT090 24/21 A2992=
201402082000 METAR MRLM 082000Z 27005KT 9999 DZ BKN012 SCT090 24/22 A2989 RERA=
201402082100 METAR MRLM 082100Z 21002KT 4000 RA BKN013 SCT090 24/21 A2989 REDZ=
201402082200 METAR MRLM 082200Z 26008KT 9999 BKN030 SCT090 23/21 A2986 RERA=
201402082300 METAR MRLM 082300Z 25004KT 9999 BKN030 23/21 A2987=
201402082356 METAR MRLM 090000Z 30003KT 9999 BKN015 23/21 A2989=
201402090000 METAR MRLM 090000Z 30003KT 9999 BKN015 23/21 A2989=
201402090100 METAR MRLM NIL=
201402090200 METAR MRLM NIL=
201402090300 METAR MRLM NIL=
201402090400 METAR MRLM NIL=
201402090500 METAR MRLM NIL=
201402090600 METAR MRLM NIL=
201402090700 METAR MRLM NIL=
201402090800 METAR MRLM NIL=
201402090900 METAR MRLM NIL=
201402091000 METAR MRLM NIL=
201402091100 METAR MRLM NIL=
201402091200 METAR MRLM 091200Z 20003KT 3000 +RA OVC007 22/21 A2990=
201402091300 METAR MRLM 091300Z 24006KT 9999 -DZ BKN010 22/20 A2991 RERA=
201402091400 METAR MRLM 091400Z 23003KT 9999 BKN010 SCT090 23/21 A2993=
201402091500 METAR MRLM 091500Z 24003KT 9999 BKN015 SCT100 24/21 A2994=
201402091600 METAR MRLM 091600Z 23005KT 9999 SCT015 SCT100 25/22 A2993=
201402091700 METAR MRLM 091700Z 23004KT 9999 SCT020 SCT110 26/21 A2993=
201402091800 METAR MRLM 091800Z 23005KT 9999 FEW030 BKN120 27/21 A2990=
201402091900 METAR MRLM 091900Z 21002KT CAVOK 28/21 A2988=
201402092000 METAR MRLM 092000Z 09002KT 9999 FEW040 BKN130 29/21 A2986=
201402092100 METAR MRLM 092100Z 07003KT CAVOK 28/22 A2985=
201402092200 METAR MRLM 092200Z 06003KT CAVOK 29/22 A2984=
201402092300 METAR MRLM 092300Z 06006KT 9999 FEW030 BKN130 28/22 A2985=
201402100000 METAR MRLM 100000Z 06005KT 9999 FEW020 BKN120 27/22 A2985=
201402100100 METAR MRLM NIL=
201402100200 METAR MRLM NIL=
201402100300 METAR MRLM NIL=
201402100400 METAR MRLM NIL=
201402100500 METAR MRLM NIL=
201402100600 METAR MRLM NIL=
201402100700 METAR MRLM NIL=
201402100800 METAR MRLM NIL=
201402100900 METAR MRLM NIL=
201402101000 METAR MRLM NIL=
201402101100 METAR MRLM NIL=
201402101200 METAR MRLM 101200Z 30002KT 9999 FEW010 BKN100 22/21 A2990=
201402101300 METAR MRLM 101300Z 00000KT CAVOK 22/21 A2991=
201402101400 METAR MRLM 101400Z 00000KT CAVOK 25/22 A2992=
201402101500 METAR MRLM 101500Z 00000KT CAVOK 29/22 A2992=
201402101600 METAR MRLM 101600Z 06006KT CAVOK 28/21 A2992=
201402101700 METAR MRLM 101700Z 04007KT CAVOK 29/22 A2991=
201402101800 METAR MRLM 101800Z 03008KT 9999 FEW030 BKN130 29/22 A2989=
201402101900 METAR MRLM 101900Z 07018KT 9999 FEW030 BKN130 27/22 A2989=
201402102000 METAR MRLM 102000Z 08011KT 9999 FEW030 BKN130 29/22 A2986=
201402102100 METAR MRLM 102100Z 10003KT 9999 FEW030 BKN130 28/22 A2984=
201402102200 METAR MRLM 102200Z 08003KT 9999 FEW025 BKN130 27/22 A2984=
201402102300 METAR MRLM 102300Z 00000KT 9999 SCT020 SCT120 27/22 A2985=
201402110000 METAR MRLM 110000Z 00000KT 9999 BKN020 26/23 A2987=
201402110100 METAR MRLM NIL=
201402110200 METAR MRLM NIL=
201402110300 METAR MRLM NIL=
201402110400 METAR MRLM NIL=
201402110500 METAR MRLM NIL=
201402110600 METAR MRLM NIL=
201402110700 METAR MRLM NIL=
201402110800 METAR MRLM NIL=
201402110900 METAR MRLM NIL=
201402111000 METAR MRLM NIL=
201402111100 METAR MRLM NIL=
201402111200 METAR MRLM 25004KT 8000 DZ VCSH BKN015 22/21 A2990=
201402111225 METAR MRLM 111225Z 25004KT 8000 DZ VCSH BKN015 22/21 A2990=
201402111300 METAR MRLM 111300Z 25004KT 9999 DZ BKN015 23/21 A2991=
201402111400 METAR MRLM 111400Z 26005KT 9999 SCT025 SCT080 25/23 A2993=
201402111500 METAR MRLM 111500Z 23005KT 9999 SCT025 SCT110 27/22 A2993=
201402111600 METAR MRLM 111600Z 22002KT 9999 BKN025 28/22 A2993=
201402111700 METAR MRLM 111700Z 09004KT 9999 BKN032 28/21 A2991=
201402111800 METAR MRLM 111800Z 05010KT 9999 SCT020 SCT080 28/23 A2990=
201402111900 METAR MRLM 111900Z 03006KT 9999 FEW025 BKN032 27/22 A2987=
201402112000 METAR MRLM 112000Z 02007KT 9999 FEW020 BKN030 27/21 A2986=
201402112100 METAR MRLM 112100Z 01008KT 9999 FEW025 SCT035 27/23 A2985=
201402112200 METAR MRLM 112200Z 31004KT 9999 FEW025 BKN080 28/22 A2984=
201402112300 METAR MRLM 112300Z 34004KT 9999 BKN025 27/22 A2985=
201402120000 METAR MRLM NIL=
201402120100 METAR MRLM NIL=
201402120200 METAR MRLM NIL=
201402120300 METAR MRLM NIL=
201402120400 METAR MRLM NIL=
201402120500 METAR MRLM NIL=
201402120600 METAR MRLM NIL=
201402120700 METAR MRLM NIL=
201402120800 METAR MRLM NIL=
201402120900 METAR MRLM NIL=
201402121000 METAR MRLM NIL=
201402121100 METAR MRLM NIL=
201402121200 METAR MRLM 121200Z 25004KT CAVOK 22/21 A2989=
201402121300 METAR MRLM 121300Z 23004KT CAVOK 23/22 A2991=
201402121400 METAR MRLM 121400Z 23004KT CAVOK 27/23 A2993=
201402121500 METAR MRLM 121500Z 08002KT 9999 FEW025 28/23 A2994=
201402121600 METAR MRLM 121600Z 09003KT 9999 FEW030 29/23 A2993=
201402121700 METAR MRLM 121700Z 08004KT 9999 FEW035 SCT300 29/22 A2991=
201402121800 METAR MRLM 121800Z 07005KT 9999 FEW035 SCT300 29/22 A2988=
201402121900 METAR MRLM 121900Z 05009KT 9999 FEW035 BKN280 29/23 A2985=
201402122000 METAR MRLM 122000Z 05007KT 9999 FEW035 BKN280 29/23 A2982=
201402122100 METAR MRLM 122100Z 05006KT 9999 FEW030 BKN280 29/23 A2981=
201402122200 METAR MRLM 122200Z 04005KT 9999 FEW025 BKN280 29/23 A2981=
201402122300 METAR MRLM 122300Z 04004KT 9999 FEW025 BKN280 28/23 A2982=
201402122355 METAR MRLM 130000Z 05005KT 9999 BKN023 28/23 A2984=
201402130000 METAR MRLM 130000Z 05005KT 9999 BKN023 28/23 A2984=
201402130100 METAR MRLM NIL=
201402130200 METAR MRLM NIL=
201402130300 METAR MRLM NIL=
201402130400 METAR MRLM NIL=
201402130500 METAR MRLM NIL=
201402130600 METAR MRLM NIL=
201402130700 METAR MRLM NIL=
201402130800 METAR MRLM NIL=
201402130900 METAR MRLM NIL=
201402131000 METAR MRLM NIL=
201402131100 METAR MRLM NIL=
201402131200 METAR MRLM 131200Z 00000KT CAVOK 22/21 A2988=
201402131300 METAR MRLM 131300Z 26004KT CAVOK 23/22 A2990=
201402131400 METAR MRLM 131400Z 24004KT CAVOK 26/23 A2991=
201402131500 METAR MRLM 131500Z COR 07003KT 9999 FEW025 BKN260 28/23 A2993=
201402131600 METAR MRLM 131600Z 05006KT 9999 FEW030 BKN260 28/23 A2993=
201402131700 METAR MRLM 131700Z 06005KT 9999 FEW030 BKN260 29/23 A2991=
201402131800 METAR MRLM 131800Z 05007KT 9999 FEW030 BKN260 30/24 A2989=
201402131900 METAR MRLM 131900Z 05008KT CAVOK 29/23 A2986=
201402132000 METAR MRLM 132000Z 04006KT CAVOK 29/21 A2983=
201402132100 METAR MRLM 132100Z 03008KT CAVOK 29/23 A2981=
201402132200 METAR MRLM 132200Z 02007KT CAVOK 29/23 A2982=
201402132300 METAR MRLM 132300Z 01007KT 9999 SCT025 29/23 A2983=
201402140000 METAR MRLM 140000Z 01006KT 9999 BKN020 28/23 A2985=
201402140100 METAR MRLM NIL=
201402140200 METAR MRLM NIL=
201402140300 METAR MRLM NIL=
201402140400 METAR MRLM NIL=
201402140500 METAR MRLM NIL=
201402140600 METAR MRLM NIL=
201402140700 METAR MRLM NIL=
201402140800 METAR MRLM NIL=
201402140900 METAR MRLM NIL=
201402141000 METAR MRLM NIL=
201402141100 METAR MRLM NIL=
201402141200 METAR MRLM 141200Z 25005KT 9999 -DZ BKN007 22/21 A2993=
201402141300 METAR MRLM 141300Z 25005KT 9999 BKN007 23/22 A2994=
201402141400 METAR MRLM 141400Z 27004KT 9999 SCT015 BKN250 26/23 A2996=
201402141500 METAR MRLM 141500Z 29002KT 9999 BKN020 SCT120 27/22 A2998=
201402141600 METAR MRLM 141600Z 27002KT 9999 FEW030 BKN120 29/23 A2998=
201402141700 METAR MRLM 141700Z 07005KT 9999 FEW035 SCT130 30/23 A2996=
201402141800 METAR MRLM 141800Z 04005KT 9999 SCT035 SCT130 30/23 A2994=
201402141900 METAR MRLM 141900Z 06006KT 9999 FEW030 SCT130 29/23 A2992=
201402142000 METAR MRLM 142000Z 11013KT 9999 FEW030 SCT130 28/23 A2990=
201402142100 METAR MRLM 142100Z 09002KT CAVOK 29/22 A2988=
201402142200 METAR MRLM 142200Z 09002KT 9999 FEW030 BKN130 29/22 A2987=
201402142300 METAR MRLM 142300Z 03001KT 9999 FEW030 BKN130 28/22 A2988=
201402150000 METAR MRLM 150000Z 00000KT 9999 FEW020 BKN120 27/23 A2989=
201402150100 METAR MRLM NIL=
201402150200 METAR MRLM NIL=
201402150300 METAR MRLM NIL=
201402150400 METAR MRLM NIL=
201402150500 METAR MRLM NIL=
201402150600 METAR MRLM NIL=
201402150700 METAR MRLM NIL=
201402150800 METAR MRLM NIL=
201402150900 METAR MRLM NIL=
201402151000 METAR MRLM NIL=
201402151100 METAR MRLM NIL=
201402151200 METAR MRLM 24004KT 9999 FEW020 BKN280 23/21 A2997=
201402151224 METAR MRLM 24004KT 9999 FEW020 BKN280 23/21 A2997=
201402151251 METAR MRLM 151251Z 24004KT 9999 FEW020 BKN280 23/22 A2998=
201402151300 METAR MRLM 24004KT 9999 FEW020 BKN280 23/22 A2998=
201402151400 METAR MRLM 151400Z 25004KT 9999 FEW015 BKN280 26/22 A3000=
201402151500 METAR MRLM 151500Z 22003KT 9999 FEW030 BKN280 29/22 A3001=
201402151600 METAR MRLM 151600Z 11003KT 9999 FEW035 BKN280 29/22 A3001=
201402151700 METAR MRLM 151700Z 08004KT 9999 FEW035 BKN280 29/23 A2999=
201402151800 METAR MRLM 151800Z 05006KT 9999 SCT035 BKN280 29/23 A2997=
201402151900 METAR MRLM 151900Z 05005KT 9999 SCT030 SCT110 30/23 A2996=
201402152000 METAR MRLM 152000Z 05009KT 9999 BKN025 SCT090 29/23 A2992=
201402152100 METAR MRLM 152100Z 04008KT 9999 SCT025 SCT090 29/23 A2992=
201402152200 METAR MRLM 152200Z 0407KT 9999 SCT030 SCT090 29/23 A2992=
201402152300 METAR MRLM NIL=
201402160000 METAR MRLM 160000Z 26001KT 9999 BKN020 26/23 A2996=
201402160100 METAR MRLM NIL=
201402160200 METAR MRLM NIL=
201402160300 METAR MRLM NIL=
201402160400 METAR MRLM NIL=
201402160500 METAR MRLM NIL=
201402160600 METAR MRLM NIL=
201402160700 METAR MRLM NIL=
201402160800 METAR MRLM NIL=
201402160900 METAR MRLM NIL=
201402161000 METAR MRLM NIL=
201402161100 METAR MRLM NIL=
201402161200 METAR MRLM 161200Z 23006KT CAVOK 22/21 A2997=
201402161300 METAR MRLM 161300Z 23006KT CAVOK 22/21 A2997=
201402161400 METAR MRLM 161400Z 23004KT CAVOK 26/22 A2999=
201402161500 METAR MRLM 161500Z 14002KT CAVOK 29/22 A3000=
201402161600 METAR MRLM 161600Z 10003KT 9999 FEW030 29/22 A3000=
201402161700 METAR MRLM 161700Z 08004KT 9999 FEW040 BKN090 29/21 A2999=
201402161800 METAR MRLM 161800Z 06006KT 9999 FEW030 BKN090 29/23 A2998=
201402161900 METAR MRLM 161900Z 07004KT 9999 FEW034 BKN090 29/22 A2995=
201402162000 METAR MRLM 162000Z 07005KT 9999 FEW035 BKN090 29/22 A2993=
201402162100 METAR MRLM 162100Z 06006KT 9999 FEW030 BKN090 29/22 A2991=
201402162200 METAR MRLM 162200Z 06005KT 9999 FEW035 BKN090 29/22 A2992=
201402162300 METAR MRLM 162300Z 06004KT 9999 BKN025 28/22 A2993=
201402170000 METAR MRLM 170000Z 14002KT 9999 BKN020 26/23 A2994=
201402170100 METAR MRLM NIL=
201402170200 METAR MRLM NIL=
201402170300 METAR MRLM NIL=
201402170400 METAR MRLM NIL=
201402170500 METAR MRLM NIL=
201402170600 METAR MRLM NIL=
201402170700 METAR MRLM NIL=
201402170800 METAR MRLM NIL=
201402170900 METAR MRLM NIL=
201402171000 METAR MRLM NIL=
201402171100 METAR MRLM NIL=
201402171200 METAR MRLM 171200Z 29005KT 9999 BKN007 22/21 A2997=
201402171300 METAR MRLM COR 171300Z 28006KT 9999 BKN007 22/21 A2998=
201402171400 METAR MRLM 171400Z 23005KT 9999 SCT015 24/21 A3000=
201402171500 METAR MRLM 171500Z 22005KT 9999 SCT020 26/21 A3001=
201402171600 METAR MRLM 171600Z 09003KT 9999 SCT040 29/21 A3001=
201402171700 METAR MRLM 171700Z 09003KT 9999 SCT040 29/21 A2999=
201402171800 METAR MRLM 171800Z 06005KT 9999 FEW040 SCT130 29/21 A2996=
201402171900 METAR MRLM 171900Z 07006KT 9999 FEW040 29/21 A2994=
201402172000 METAR MRLM 172000Z 05008KT 9999 FEW040 29/22 A2991=
201402172100 METAR MRLM 172100Z 07007KT 9999 FEW035 29/21 A2989=
201402172200 METAR MRLM 172200Z 07005KT 9999 FEW035 29/22 A2988=
201402172300 METAR MRLM 172300Z 07007KT 9999 BKN025 28/22 A2989=
201402180000 METAR MRLM 180000Z 10009KT 9999 BKN020 26/22 A2990=
201402180100 METAR MRLM NIL=
201402180200 METAR MRLM NIL=
201402180300 METAR MRLM NIL=
201402180400 METAR MRLM NIL=
201402180500 METAR MRLM NIL=
201402180600 METAR MRLM NIL=
201402180700 METAR MRLM NIL=
201402180800 METAR MRLM NIL=
201402180900 METAR MRLM NIL=
201402181000 METAR MRLM NIL=
201402181100 METAR MRLM NIL=
201402181200 METAR MRLM 181200Z 06016KT 4000 RA OVC007 23/22 A2996=
201402181300 METAR MRLM 181300Z 31005KT 9999 -DZ BKN010 23/21 A2997 RERA=
201402181400 METAR MRLM 181400Z 35007KT 9999 DZ BKN010 23/21 A2999=
201402181500 METAR MRLM 181500Z 23002KT 9999 SCT020 SCT110 26/21 A2998 REDZ=
201402181600 METAR MRLM 181600Z 21004KT 9999 SCT035 SCT130 28/21 A2998=
201402181700 METAR MRLM 181700Z 05006KT 9999 SCT035 SCT130 28/21 A2997=
201402181800 METAR MRLM 181800Z 04008KT 9999 SCT030 SCT130 28/22 A2995=
201402181900 METAR MRLM 181900Z 08020KT 9999 DZ BKN020 26/22 A2994=
201402182000 METAR MRLM 182000Z 32002KT 9999 SCT020 BKN120 25/22 A2991=
201402182100 METAR MRLM 182100Z 17005KT 9999 BKN020 SCT120 25/21 A2991=
201402182200 METAR MRLM 182200Z 22005KT 9999 FEW030 BKN130 27/21 A2989=
201402182300 METAR MRLM 182300Z 22003KT 9999 FEW025 BKN130 26/21 A2990=
201402190000 METAR MRLM 190000Z 23003KT 9999 DZ SCT015 BKN120 24/21 A2991=
201402190100 METAR MRLM NIL=
201402190200 METAR MRLM NIL=
201402190300 METAR MRLM NIL=
201402190400 METAR MRLM NIL=
201402190500 METAR MRLM NIL=
201402190600 METAR MRLM NIL=
201402190700 METAR MRLM NIL=
201402190800 METAR MRLM NIL=
201402190900 METAR MRLM NIL=
201402191000 METAR MRLM NIL=
201402191100 METAR MRLM NIL=
201402191200 METAR MRLM 191200Z 25004KT CAVOK 20/18 A2992=
201402191300 METAR MRLM 191300Z 25005KT CAVOK 21/19 A2992 NOSIG=
201402191400 METAR MRLM NIL=
201402191500 METAR MRLM 191500Z 27002KT 9999 BKN025 27/21 A2996=
201402191600 METAR MRLM 191600Z 08009KT 9999 FEW025 BKN090 26/20 A2997=
201402191700 METAR MRLM 191700Z 05007KT 9999 FEW040 BKN08028/20 A2994=
201402191800 METAR MRLM 191800Z 09003KT FEW040 BKN080 28/20 A2991=
201402191900 METAR MRLM 191900Z 11004KT 9999 FEW045 BKN080 29/20 A2989=
201402192000 METAR MRLM 192000Z 11005KT 9999 FEW045 29/19 A2986=
201402192100 METAR MRLM 192100Z 10005KT 9999 FEW040 29/21 A2984=
201402192200 METAR MRLM 192200Z 08007KT 9999 CAVOK 29/20 A2985=
201402192300 METAR MRLM 192300Z 08005KT CAVOK 28/20 A2986=
201402192353 METAR MRLM 200000Z 09004KT CAVOK 27/20 A2988=
201402200000 METAR MRLM 200000Z 09004KT CAVOK 27/20 A2988=
201402200100 METAR MRLM NIL=
201402200200 METAR MRLM NIL=
201402200300 METAR MRLM NIL=
201402200400 METAR MRLM NIL=
201402200500 METAR MRLM NIL=
201402200600 METAR MRLM NIL=
201402200700 METAR MRLM NIL=
201402200800 METAR MRLM NIL=
201402200900 METAR MRLM NIL=
201402201000 METAR MRLM NIL=
201402201100 METAR MRLM NIL=
201402201200 METAR MRLM 201200Z 29002KT 9999 FEW015 BKN080 20/17 A2992=
201402201300 METAR MRLM 201300Z 28002KT 9999 FEW015 SCT070 21/18 A2994=
201402201400 METAR MRLM 201400Z 2506KT CAVOK 23/19 A2994=
201402201500 METAR MRLM 201500Z 31002KT CAVOK 28/21 A2994=
201402201600 METAR MRLM 201600Z 11004KT CAVOK 28/21 A2993=
201402201700 METAR MRLM 201700Z 09006KT CAVOK 29/21 A2992=
201402201800 METAR MRLM 201800Z 07006KT 9999 FEW035 28/21 A2990=
201402201900 METAR MRLM 201900Z 08006KT 9999 FEW040 29/21 A2987=
201402202000 METAR MRLM 202000Z 07007KT 9999 FEW045 29/20 A2984=
201402202100 METAR MRLM 202100Z 06007KT 9999 FEW045 29/20 A2983=
201402202200 METAR MRLM 202200Z 08005KT CAVOK 29/21 A2984=
201402202300 METAR MRLM 202300Z 11003KT CAVOK 28/21 A2984=
201402210000 METAR MRLM 210000Z 12002KT CAVOK 26/21 A2986=
201402210100 METAR MRLM NIL=
201402210200 METAR MRLM NIL=
201402210300 METAR MRLM NIL=
201402210400 METAR MRLM NIL=
201402210500 METAR MRLM NIL=
201402210600 METAR MRLM NIL=
201402210700 METAR MRLM NIL=
201402210800 METAR MRLM NIL=
201402210900 METAR MRLM NIL=
201402211000 METAR MRLM NIL=
201402211100 METAR MRLM NIL=
201402211200 METAR MRLM 211200Z 24005KT CAVOK 20/18 A2989=
201402211300 METAR MRLM 211300Z 25004KT CAVOK 21/19 A2991=
201402211400 METAR MRLM 211400Z 24004KT CAVOK 24/20 A2992=
201402211500 METAR MRLM 211500Z 23004KT CAVOK 28/20 A2993=
201402211600 METAR MRLM 211600Z 14005KT 9999 FEW040 29/20 A2993=
201402211700 METAR MRLM 211700Z 10006KT 9999 FEW040 29/21 A2991=
201402211800 METAR MRLM 211800Z 09008KT 9999 FEW040 29/21 A2989=
201402211900 METAR MRLM 211900Z 09006KT 9999 FEW035 29/22 A2986=
201402212000 METAR MRLM 212000Z 07007KT 9999 FEW035 29/22 A2983=
201402212100 METAR MRLM 212100Z 07007KT 9999 FEW030 29/22 A2982=
201402212200 METAR MRLM 212200Z 05004KT 9999 SCT030 29/22 A2983=
201402212300 METAR MRLM 212300Z 09004KT 9999 BKN030 28/22 A2983=
201402220000 METAR MRLM 220000Z 10004KT 9999 BKN025 27/22 A2985=
201402220100 METAR MRLM NIL=
201402220200 METAR MRLM NIL=
201402220300 METAR MRLM NIL=
201402220400 METAR MRLM NIL=
201402220500 METAR MRLM NIL=
201402220600 METAR MRLM NIL=
201402220700 METAR MRLM NIL=
201402220800 METAR MRLM NIL=
201402220900 METAR MRLM NIL=
201402221000 METAR MRLM NIL=
201402221100 METAR MRLM NIL=
201402221200 METAR MRLM 221200Z 29001KT CAVOK 21/19 A2990=
201402221300 METAR MRLM 221300Z 28003KT CAVOK 23/20 A2992=
201402221400 METAR MRLM 221400Z 23004KT CAVOK 26/20 A2994=
201402221500 METAR MRLM 221500Z COR 09002KT 9999 FEW040 29/22 A2995=
201402221600 METAR MRLM 221600Z 09004KT 9999 FEW030 BKN130 29/22 A2995=
201402221700 METAR MRLM 221700Z 06010KT 9999 FEW020 BKN120 27/23 A2994=
201402221800 METAR MRLM 221800Z 07004KT 9999 FEW030 BKN130 29/22 A2991=
201402221900 METAR MRLM 221900Z 05005KT 9999 FEW035 SCT140 29/22 A2988=
201402222000 METAR MRLM 222000Z 07005KT 9999 SCT030 BKN130 28/22 A2986=
201402222100 METAR MRLM 222100Z 09007KT 9999 FEW030 BKN130 28/23 A2984=
201402222200 METAR MRLM 222200Z 09005KT 9999 FEW030 SCT130 28/22 A2985=
201402222300 METAR MRLM 222300Z 11005KT 9999 FEW030 28/23 A2985=
201402230000 METAR MRLM 230000Z 09007KT 9999 SCT020 27/23 A2986=
201402230100 METAR MRLM NIL=
201402230200 METAR MRLM NIL=
201402230300 METAR MRLM NIL=
201402230400 METAR MRLM NIL=
201402230500 METAR MRLM NIL=
201402230600 METAR MRLM NIL=
201402230700 METAR MRLM NIL=
201402230800 METAR MRLM NIL=
201402230900 METAR MRLM NIL=
201402231000 METAR MRLM NIL=
201402231100 METAR MRLM NIL=
201402231200 METAR MRLM 231200Z 24007KT 7000 +DZ VCSH OVC015 22/21 A2993=
201402231300 METAR MRLM 231300Z 27005KT 9999 DZ BKN015 22/21 A2994=
201402231400 METAR MRLM 231400Z 24006KT 9999 OVC012 24/22 A2996=
201402231451 METAR MRLM 231500 24006KT 9999 OVC018 25/22 A2997=
201402231500 METAR MRLM 231500Z 24006KT 9999 OVC018 25/22 A2997=
201402231600 METAR MRLM 231600Z 25007KT 9999 OVC025 27/22 A2998=
201402231700 METAR MRLM 231700Z 16004KT 9999 BKN035 28/21 A2996=
201402231800 METAR MRLM 231800Z 06003KT 9999 BKN040TCU 29/21 A2994=
201402231900 METAR MRLM 231900Z 05004KT 9999 SCT035 SCT080 29/22 A29910=
201402232000 METAR MRLM 232000Z 05004KT 9999 BKN032 29/22 A2988=
201402232100 METAR MRLM 232100Z 12005KT 9999 SCT028 SCT080 28/23 A2987=
201402232200 METAR MRLM 232200Z 13003KT 9999 SCT030 SCT080 28/22 A2987=
201402232300 METAR MRLM 232300Z 10001KT 9999 FEW030 BKN080 28/22 A2988=
201402232353 METAR MRLM 240000Z 24002KT 9999 SCT015 SCT080 26/23 A2989=
201402240000 METAR MRLM 240000Z 24002KT 9999 SCT015 SCT080 26/23 A2989=
201402240100 METAR MRLM NIL=
201402240200 METAR MRLM NIL=
201402240300 METAR MRLM NIL=
201402240400 METAR MRLM NIL=
201402240500 METAR MRLM NIL=
201402240600 METAR MRLM NIL=
201402240700 METAR MRLM NIL=
201402240800 METAR MRLM NIL=
201402240900 METAR MRLM NIL=
201402241000 METAR MRLM NIL=
201402241100 METAR MRLM NIL=
201402241200 METAR MRLM 241200Z 26004KT 9999 FEW015 21/20 A2991=
201402241300 METAR MRLM 241300Z 26003KT CAVOK 22/20 A2992=
201402241400 METAR MRLM 241400Z 23004KT CAVOK 26/21 A2994=
201402241500 METAR MRLM 241500Z 13003KT CAVOK 28/22 A2995=
201402241600 METAR MRLM 241600Z 11005KT CAVOK 29/21 A2995=
201402241700 METAR MRLM 241700Z 12006KT 9999 FEW040 BKN080 29/21 A2994=
201402241800 METAR MRLM 241800Z 12007KT 9999 FEW040 BKN080 29/21 ZA2992=
201402241900 METAR MRLM 241900Z 09007KT 9999 FEW038 BKN080 29/21 A2989=
201402242000 METAR MRLM 242000Z 08006KT 9999 FEW035 SCT090 29/22 A2987=
201402242100 METAR MRLM 242100Z 08006KT 9999 FEW035 29/22 A2986=
201402242200 METAR MRLM 242200Z 07008KT 9999 SCT032 28/22 A2986=
201402242300 METAR MRLM 242300Z 08005KT 9999 OVC030 28/22 A2988=
201402242352 METAR MRLM 250000Z 08008KT 9999 4000N DZ VCSH SCT015 SCT025 27/22 A2988=
201402250000 METAR MRLM 250000Z 08008KT 9999 4000N DZ VCSH SCT015 SCT025 27/22 A2988=
201402250100 METAR MRLM NIL=
201402250200 METAR MRLM NIL=
201402250300 METAR MRLM NIL=
201402250400 METAR MRLM NIL=
201402250500 METAR MRLM NIL=
201402250600 METAR MRLM NIL=
201402251000 METAR MRLM NIL=
201402251100 METAR MRLM NIL=
201402251200 METAR MRLM 251200Z 25004KT 9999 FEW007 21/20 A2992=
201402251300 METAR MRLM 251300Z 24004KT 9999 FEW010 22/21 A2993=
201402251400 METAR MRLM 251400Z 25003KT CAVOK 26/22 A2995=
201402251500 METAR MRLM 251500Z 22003KT 9999 FEW035 28/21 A2996=
201402251600 METAR MRLM 251600Z 10004KT 9999 FEW035 29/22 A2996=
201402251700 METAR MRLM 251700Z 08004KT 9999 FEW040 29/21 A2994=
201402251800 METAR MRLM 251800Z 07008KT CAVOK 28/22 A2991=
201402251900 METAR MRLM 251900Z 06009KT 9999 FEW040 29/22 A2988=
201402252000 METAR MRLM 252000Z 06008KT 9999 FEW040 29/21 A2986=
201402252100 METAR MRLM 252100Z 05007KT 9999 SCT035 29/21 A2985=
201402252200 METAR MRLM 252200Z 06009KT 9999 BKN030 28/21 A2985=
201402252300 METAR MRLM 252300Z 06009KT 9999 BKN030 27/21 A2986=
201402260000 METAR MRLM 260000Z 07008KT 9999 FEW030 SCT130 27/21 A2986=
201402260100 METAR MRLM NIL=
201402260200 METAR MRLM NIL=
201402260300 METAR MRLM NIL=
201402260400 METAR MRLM NIL=
201402260500 METAR MRLM NIL=
201402260600 METAR MRLM NIL=
201402260700 METAR MRLM NIL=
201402260800 METAR MRLM NIL=
201402260900 METAR MRLM NIL=
201402261000 METAR MRLM NIL=
201402261100 METAR MRLM NIL=
201402261200 METAR MRLM 261200Z 23004KT 9999 FEW010 SCT110 20/19 A2990=
201402261300 METAR MRLM 261300Z 25004KT 9999 FEW010 SCT130 22/19 A2991=
201402261400 METAR MRLM 261400Z 24004KT CAVOK 25/21 A2993=
201402261500 METAR MRLM 261500Z 25003KT 9999 FEW040 SCT140 28/21 A2994=
201402261600 METAR MRLM 261600Z 10004KT 9999 FEW030 28/21 A2994=
201402261700 METAR MRLM 261700Z 08005KT 9999 FEW030 28/21 A2992=
201402261800 METAR MRLM 261800Z 09005KT 9999 FEW040 28/21 A2989=
201402261900 METAR MRLM 261900Z 06006KT 9999 FEW040 28/21 A2987=
201402262000 METAR MRLM 262000Z 06008KT 9999 FEW040 28/21 A2983=
201402262100 METAR MRLM 262100Z 06006KT 9999 FEW035 SCT130 28/20 A2981=
201402262200 METAR MRLM 262200Z 08005KT 9999 FEW035 BKN130 28/20 A2981=
201402262300 METAR MRLM 262300Z 07004KT 9999 FEW035 BKN130 27/20 A2981=
201402270000 METAR MRLM 270000Z 10003KT 9999 FEW030 BKN120 27/20 A2983=
201402270100 METAR MRLM NIL=
201402270200 METAR MRLM NIL=
201402270300 METAR MRLM NIL=
201402270400 METAR MRLM NIL=
201402270500 METAR MRLM NIL=
201402270600 METAR MRLM NIL=
201402270700 METAR MRLM NIL=
201402270800 METAR MRLM NIL=
201402270900 METAR MRLM NIL=
201402271000 METAR MRLM NIL=
201402271100 METAR MRLM NIL=
201402271200 METAR MRLM 271200Z 27002KT 9999 BKN025 22/21 A2990=
201402271300 METAR MRLM 271300Z 26004KT 9999 SCT025 SCT080 23/21 A2992=
201402271400 METAR MRLM 271400Z 27003KT 9999 FEW025 BKN080 25/22 A2994=
201402271500 METAR MRLM 271500Z 04003KT 9999 FEW025 BKN080 28/22 A2996=
201402271600 METAR MRLM 271600Z 04003KT 9999 FEW030 BKN080 28/21 A2995=
201402271700 METAR MRLM 271700Z 05004KT 9999 SCT035 SCT090 29/22 A2993=
201402271800 METAR MRLM 271800Z 07006KT 9999 FEW030 28/22 A2991=
201402271900 METAR MRLM 271900Z 08007KT 9999 SCT032 28/22 A2987=
201402272000 METAR MRLM 272000Z 08006KT 9999 SCT030 29/22 A2984=
201402272100 METAR MRLM 272100Z 08007KT 9999 SCT028 28/22 A2983=
201402272200 METAR MRLM 272200Z 08006KT 9999 FEW020 28/22 A2983=
201402272300 METAR MRLM 272300Z 09007KT 9999 BKN030 27/22 A2984=
201402272353 METAR MRLM 280000Z 10006KT 9999 BKN025 27/22 A2986=
201402280000 METAR MRLM 280000Z 10006KT 9999 BKN025 27/22 A2986=
201402280100 METAR MRLM NIL=
201402280200 METAR MRLM NIL=
201402280300 METAR MRLM NIL=
201402280400 METAR MRLM NIL=
201402280500 METAR MRLM NIL=
201402280600 METAR MRLM NIL=
201402280700 METAR MRLM NIL=
201402280800 METAR MRLM NIL=
201402280900 METAR MRLM NIL=
201402281000 METAR MRLM NIL=
201402281100 METAR MRLM NIL=
201402281200 METAR MRLM 281200Z 25004KT 9999 FEW015 BKN080 23/22 A2992=
201402281300 METAR MRLM 281300Z 24003KT 9999 FEW015 SCT080 24/22 A2992=
201402281400 METAR MRLM 281400Z 26002KT 9999 FEW020 SCT080 27/23 A2994=
201402281500 METAR MRLM 281500Z 04004KT 9999 FEW025 BKN080 27/23 A2997=
201402281600 METAR MRLM 281600Z 06007KT 9999 SCT020 BKN070 27/23 A2998=
201402281700 METAR MRLM 281700Z 05007KT 9999 FEW025 BKN080 28/23 A2997=
201402281800 METAR MRLM 281800Z 09009KT 9999 OVC025 28/24 A2995=
201402281900 METAR MRLM 281900Z 08007KT 9999 FEW025 BKN090 28/23 A2993=
201402282000 METAR MRLM 282000Z 06007KT 9999 SCT025 BKN090 27/23 A2991=
201402282100 METAR MRLM 282100Z 06008KT 9999 OVC020 27/23 A2989=
201402282200 METAR MRLM 282200Z 08012KT 9999 OVC015 26/23 A2989=
201402282300 METAR MRLM 282300Z 08012KT 9999 OVC013 26/23 A2990=
201402282351 METAR MRLM 010000Z 10010KT 9999 SCT015 SCT035 26/23 A2992=
201403010000 METAR MRLM 010000Z 10010KT 9999 SCT015 SCT035 26/23 A2992=
201403010100 METAR MRLM NIL=
201403010200 METAR MRLM NIL=
201403010300 METAR MRLM NIL=
201403010400 METAR MRLM NIL=
201403010500 METAR MRLM NIL=
201403010600 METAR MRLM NIL=
201403010700 METAR MRLM NIL=
201403010800 METAR MRLM NIL=
201403010900 METAR MRLM NIL=
201403011000 METAR MRLM NIL=
201403011100 METAR MRLM NIL=
201403011200 METAR MRLM 011200Z 26004KT CAVOK 22/20 A2996=
201403011300 METAR MRLM 011300Z 26004KT CAVOK 22/20 A2997=
201403011400 METAR MRLM 011400Z 00000KT CAVOK 28/22 A3000=
201403011500 METAR MRLM 011500Z 09003KT 9999 FEW030 BKN260 28/22 A3001=
201403011600 METAR MRLM 011600Z 04008KT 9999 SCT035 SCT140 29/22 A3002=
201403011700 METAR MRLM 011700Z 05009KT 9999 FEW030 BKN140 28/22 A3001=
201403011800 METAR MRLM 011800Z 07011KT 9999 FEW020 BKN130 27/23 A2999=
201403011900 METAR MRLM 011900Z 07007KT 9999 FEW020 BKN120 27/21 A2997=
201403012000 METAR MRLM 012000Z 10003KT 9999 FEW020 BKN120 27/20 A2995=
201403012100 METAR MRLM 012100Z 13003KT 9999 SCT020 BKN120 27/20 A2993=
201403012200 METAR MRLM 012200Z 23003KT 9999 FEW020 BKN120 27/21 A2993=
201403012300 METAR MRLM 012300Z 24004KT 9999 FEW020 BKN110 26/21 A2994=
201403020000 METAR MRLM 020000Z 24002KT 9999 SCT015 BKN100 25/21 A2994=
201403020100 METAR MRLM NIL=
201403020200 METAR MRLM NIL=
201403020300 METAR MRLM NIL=
201403020400 METAR MRLM NIL=
201403020500 METAR MRLM NIL=
201403020600 METAR MRLM NIL=
201403020700 METAR MRLM NIL=
201403020800 METAR MRLM NIL=
201403020900 METAR MRLM NIL=
201403021000 METAR MRLM NIL=
201403021100 METAR MRLM NIL=
201403021200 METAR MRLM 021200Z 27002KT 9999 BKN025 22/20 A2990=
201403021300 METAR MRLM 021300Z 28004KT 9999 SCT025 SCT080 22/21 A2992=
201403021400 METAR MRLM 021400Z 27004KT 9999 SCT015 SCT080 24/21 A2994=
201403021500 METAR MRLM NIL=
201403021600 METAR MRLM NIL=
201403021700 METAR MRLM NIL=
201403021800 METAR MRLM NIL=
201403021900 METAR MRLM NIL=
201403022000 METAR MRLM NIL=
201403022100 METAR MRLM NIL=
201403022200 METAR MRLM NIL=
201403022300 METAR MRLM NIL=
201403030000 METAR MRLM NIL=
201403030100 METAR MRLM NIL=
201403030200 METAR MRLM NIL=
201403030300 METAR MRLM NIL=
201403030400 METAR MRLM NIL=
201403030500 METAR MRLM NIL=
201403030600 METAR MRLM NIL=
201403030700 METAR MRLM NIL=
201403030800 METAR MRLM NIL=
201403030900 METAR MRLM NIL=
201403031000 METAR MRLM NIL=
201403031100 METAR MRLM NIL=
201403031200 METAR MRLM NIL=
201403031300 METAR MRLM NIL=
201403031400 METAR MRLM NIL=
201403031500 METAR MRLM 031500Z 27005KT 9999 SCT018 SCT110 25/22 A2995=
201403031600 METAR MRLM 031600Z 27002KT 9999 FEW032 SCT090 29/22 A2994=
201403031700 METAR MRLM 031700Z 12007KT 9999 FEW030 BKN100 28/22 A2993=
201403031800 METAR MRLM 031800Z 12007KT 9999 FEW030 BKN110 28/21 A2992=
201403031900 METAR MRLM 031900Z 13007KT 9999 FEW030 SCT100 28/22 A2989=
201403032000 METAR MRLM 032000Z 12007KT 9999 FEW030 SCT130 28/22 A2987=
201403032100 METAR MRLM 032100Z 14009KT 9999 FEW045 SCT110 29/20 A2984=
201403032200 METAR MRLM 032200Z 13006KT 9999 FEW045 BKN080 28/19 A2985=
201403032300 METAR MRLM 032300Z 12007KT CAVOK 29/19 A2985=
201403032352 METAR MRLM 040000Z 13006KT CAVOK 28/20 A2986=
201403040000 METAR MRLM 040000Z 13006KT CAVOK 28/20 A2986=
201403040100 METAR MRLM NIL=
201403040200 METAR MRLM NIL=
201403040300 METAR MRLM NIL=
201403040400 METAR MRLM NIL=
201403040500 METAR MRLM NIL=
201403040600 METAR MRLM NIL=
201403040700 METAR MRLM NIL=
201403040800 METAR MRLM NIL=
201403040900 METAR MRLM NIL=
201403041000 METAR MRLM NIL=
201403041100 METAR MRLM NIL=
201403041200 METAR MRLM 041200Z 24004KT 9999 FEW015 SCT300 20/19 A2992=
201403041300 METAR MRLM 041300Z 25004KT 9999 FEW015 SCT300 23/20 A2994=
201403041400 METAR MRLM 041400Z 23004KT 9999 BKN020 26/21 A2995=
201403041500 METAR MRLM 041500Z 07002KT 9999 BKN025 27/22 A2996=
201403041600 METAR MRLM 041600Z 12006KT 9999 SCT035 SCT130 27/21 A2996=
201403041700 METAR MRLM 041700Z 12005KT 9999 FEW040 SCT140 28/20 A2995=
201403041800 METAR MRLM 041800Z 08005KT 9999 FEW035 SCT140 29/21 A2992=
201403041900 METAR MRLM 041900Z 06004KT 9999 FEW035 SCT140 28/21 A2989=
201403042000 METAR MRLM 042000Z 05004KT 9999 FEW035 SCT140 29/22 A2986=
201403042100 METAR MRLM 042100Z 04005KT 9999 FEW035 BKN270 28/21 A2985=
201403042200 METAR MRLM 042200Z 06006KT 9999 FEW035 BKN270 28/22 A2985=
201403042300 METAR MRLM 042300Z 03004KT 9999 FEW030 BKN140 28/21 A2986=
201403042354 METAR MRLM 050000Z 06005KT 9999 BKN025 27/22 A2987=
201403050000 METAR MRLM 050000Z 06005KT 9999 BKN025 27/22 A2987=
201403050100 METAR MRLM NIL=
201403050200 METAR MRLM NIL=
201403050300 METAR MRLM NIL=
201403050400 METAR MRLM NIL=
201403050500 METAR MRLM NIL=
201403050600 METAR MRLM NIL=
201403050700 METAR MRLM NIL=
201403050800 METAR MRLM NIL=
201403050900 METAR MRLM NIL=
201403051000 METAR MRLM NIL=
201403051100 METAR MRLM NIL=
201403051200 METAR MRLM 051200Z 25005KT CAVOK 21/19 A2993=
201403051300 METAR MRLM 051300Z 25004KT CAVOK 23/20 A2994=
201403051400 METAR MRLM 051400Z 24003KT 9999 FEW030 SCT130 28/22 A2996=
201403051500 METAR MRLM 051500Z 09002KT 9999 SCT030 SCT260 28/22 A2998=
201403051600 METAR MRLM 051600Z 08004KT 9999 SCT030 SCT260 29/22 A2997=
201403051700 METAR MRLM 051700Z 09004KT 999 FEW035 SCT260 29/22 A2996=
201403051800 METAR MRLM 051800Z 06007KT 9999 FEW030 SCT260 29/22 A2994=
201403051900 METAR MRLM 051900Z 05003KT 9999 FEW030 BKN260 29/22 A2991=
201403052000 METAR MRLM 052000Z 08006KT 9999 FEW030 BKN260 29/23 A2989=
201403052100 METAR MRLM 052100Z 08007KT 9999 FEW030 BKN250 29/22 A2987=
201403052200 METAR MRLM 052200Z 09004KT 9999 SCT030 BKN250 28/22 A2987=
201403052300 METAR MRLM 052300Z 08004KT 9999 BKN030 SCT130 28/22 A2988=
201403060000 METAR MRLM 060000Z 10003KT 9999 SCT025 SCT120 27/22 A2989=
201403060100 METAR MRLM NIL=
201403060200 METAR MRLM NIL=
201403060300 METAR MRLM NIL=
201403060400 METAR MRLM NIL=
201403060500 METAR MRLM NIL=
201403060600 METAR MRLM NIL=
201403060700 METAR MRLM NIL=
201403060800 METAR MRLM NIL=
201403060900 METAR MRLM NIL=
201403061000 METAR MRLM NIL=
201403061100 METAR MRLM NIL=
201403061200 METAR MRLM 061200Z 25004KT CAVOK 21/19 A2991=
201403061300 METAR MRLM 061300Z 26004KT CAVOK 22/19 A2994=
201403061400 METAR MRLM 061400Z 27004KT CAVOK 27/21 A2995=
201403061500 METAR MRLM 061500Z 09003KT CAVOK 28/22 A2996=
201403061600 METAR MRLM 061600Z 06004KT 9999 FEW030 BKN250 29/22 A2996=
201403061700 METAR MRLM 061700Z 07006KT 9999 FEW030 SCT260 29/22 A2995=
201403061800 METAR MRLM 061800Z 06007KT 9999 SCT030 SCT260 29/23 A2993=
201403061900 METAR MRLM 061900Z 07009KT 9999 FEW030 BKN260 29/23 A2990=
201403062000 METAR MRLM 062000Z 06008KT 9999 FEW030 BKN250 28/22 A2988=
201403062100 METAR MRLM 062100Z 06007KT 9999 FEW030 BKN250 29/23 A2986=
201403062200 METAR MRLM 062200Z 09005KT 9999 FEW030 SCT130 SCT250 28/23 A2986=
201403062300 METAR MRLM 062300Z 09005KT 9999 BKN020 28/23 A2986=
201403070000 METAR MRLM 070000Z 10003KT 9999 BKN020 27/22 A2986=
201403070100 METAR MRLM NIL=
201403070200 METAR MRLM NIL=
201403070300 METAR MRLM NIL=
201403070400 METAR MRLM NIL=
201403070500 METAR MRLM NIL=
201403070600 METAR MRLM NIL=
201403070700 METAR MRLM NIL=
201403070800 METAR MRLM NIL=
201403070900 METAR MRLM NIL=
201403071000 METAR MRLM NIL=
201403071100 METAR MRLM NIL=
201403071200 METAR MRLM 071200Z 25004KT 9999 FEW035 BKNN080 23/21 A2995=
201403071300 METAR MRLM 071300Z 25004KT CAVOK 24/22 A2996=
201403071400 METAR MRLM 071400Z 26003KT 9999 SCT025 28/23 A2997=
201403071500 METAR MRLM 071500Z 06005KT 9999 BKN030 28/22 A2998=
201403071600 METAR MRLM 071600Z 06005KT 9999 FEW028 SCT280 29/23 A2997=
201403071700 METAR MRLM 071700Z 08006KT 9999 FEW030 SCT280 29/22 A2995=
201403071800 METAR MRLM 071800Z 08007KT 9999 FEW030 SCT280 29/23 A2993=
201403071900 METAR MRLM 071900Z 09008KT 9999 FEW035 BKN280 29/23 A2990=
201403072000 METAR MRLM 072000Z 09007KT 9999 FEW035 BKN280 29/22 A2988=
201403072100 METAR MRLM 072100Z 09006KT 9999 FEW035 BKN280 29/22 A2986=
201403072200 METAR MRLM 072200Z 09005KT 9999 FEW035 BKN270 29/22 A2986=
201403072300 METAR MRLM 072300Z 09005KT 9999 FEW030 BKN270 28/22 A2988=
201403072354 METAR MRLM 080000Z 10004KT 9999 SCT025 BKN260 28/22 A2989=
201403080000 METAR MRLM 080000Z 10004KT 9999 SCT025 BKN260 28/22 A2989=
201403080100 METAR MRLM NIL=
201403080200 METAR MRLM NIL=
201403080300 METAR MRLM NIL=
201403080400 METAR MRLM NIL=
201403080500 METAR MRLM NIL=
201403080600 METAR MRLM NIL=
201403080700 METAR MRLM NIL=
201403080800 METAR MRLM NIL=
201403080900 METAR MRLM NIL=
201403081000 METAR MRLM NIL=
201403081100 METAR MRLM NIL=
201403081200 METAR MRLM 081200Z 26005KT CAVOK 21/19 A2996=
201403081300 METAR MRLM 081300Z 26002KT CAVOK 23/20 A2998=
201403081400 METAR MRLM 081400Z 24003KT CAVOK 27/21 A2999=
201403081500 METAR MRLM 081500Z 0505KT CAVOK 28/21 A3001=
201403081600 METAR MRLM 0081600Z 07004KT CAVOK 28/21 A3000=
201403081700 METAR MRLM 081700Z 09005KT 9999 FEW035 BKN280 29/22 A2999=
201403081800 METAR MRLM 081800Z 07005KT 9999 FEW030 BKN280 29/23 A2997=
201403081900 METAR MRLM 081900Z 05008KT 9999 FEW028 BKN280 29/23 A2995=
201403082000 METAR MRLM 082000Z 05006KT 9999 FEW030 BKN280 29/23 A2992=
201403082100 METAR MRLM 082100Z 05007KT 9999 FEW035 BKN270 29/22 A2991=
201403082200 METAR MRLM 082200Z 03007KT 9999 FEW030 BKN270 28/22 A2991=
201403082300 METAR MRLM 082300Z 03005KT 9999 FEW028 BKN270 28/22 A2992=
201403082356 METAR MRLM 090000Z 03003KT 9999 BKN028 SCT270 27/22 A2994=
201403090000 METAR MRLM 090000Z 03003KT 9999 BKN028 SCT270 27/22 A2994=
201403090100 METAR MRLM NIL=
201403090200 METAR MRLM NIL=
201403090300 METAR MRLM NIL=
201403090400 METAR MRLM NIL=
201403090500 METAR MRLM NIL=
201403090600 METAR MRLM NIL=
201403090700 METAR MRLM NIL=
201403090800 METAR MRLM NIL=
201403090900 METAR MRLM NIL=
201403091000 METAR MRLM NIL=
201403091100 METAR MRLM NIL=
201403091200 METAR MRLM 091200Z 25005KT CAVOK 21/20 A2998=
201403091300 METAR MRLM 091300Z 25004KT CAVOK 24/20 A3000=
201403091400 METAR MRLM 091400Z 00000KT CAVOK 28/21 A3002=
201403091500 METAR MRLM 091500Z 07005KT 9999 FEW030 BKN140 28/22 A3003=
201403091600 METAR MRLM 091600Z 05005KT 9999 SCT030 SCT130 29/21 A3004=
201403091700 METAR MRLM 091700Z 06008KT 9999 FEW020 BKN120 27/23 A3003=
201403091800 METAR MRLM 091800Z 07006KT 9999 FEW030 BKN120 28/22 A3000=
201403091900 METAR MRLM 091900Z 13004KT 9999 FEW030 BKN130 29/22 A2997=
201403092000 METAR MRLM 092000Z 14006KT 9999 FEW030 BKN130 A2995=
201403092100 METAR MRLM 092100Z 08007KT 9999 SCT025 SCT120 28/23 A2994=
201403092200 METAR MRLM 092200Z 06008KT 9999 BKN025 SCT120 28/23 A2994=
201403092300 METAR MRLM 092300Z 10005KT 9999 SCT025 BKN120 27/21 A2994=
201403100000 METAR MRLM NIL=
201403100100 METAR MRLM NIL=
201403100200 METAR MRLM NIL=
201403100300 METAR MRLM NIL=
201403100400 METAR MRLM NIL=
201403100500 METAR MRLM NIL=
201403100600 METAR MRLM NIL=
201403100700 METAR MRLM NIL=
201403100800 METAR MRLM NIL=
201403100900 METAR MRLM NIL=
201403101000 METAR MRLM NIL=
201403101100 METAR MRLM NIL=
201403101200 METAR MRLM 101200Z 29002KT 9999 FEW007 SCT110 SCT250 22/21 A2997=
201403101300 METAR MRLM 101300Z 00000KT 9999 SCT008 BKN110 23/21 A2999=
201403101400 METAR MRLM 101400Z 27003KT 9999 FEW020 BKN120 26/22 A3001=
201403101500 METAR MRLM 101500Z 26003KT CAVOK 29/21 A3002=
201403101600 METAR MRLM 101600Z 05003KT 9999 FEW030 BKN130 28/21 A3003=
201403101700 METAR MRLM 101700Z 07004KT 9999 FEW030 BKN130 29/22 A3000=
201403101800 METAR MRLM 101800Z 07004KT 9999 FEW035 SCT140 29/22 A2997=
201403101900 METAR MRLM 101900Z 07007KT 9999 FEW035 SCT250 29/23 A2995=
201403102000 METAR MRLM 102000Z 07008KT CAVOK 29/23 A2991=
201403102100 METAR MRLM 102100Z 06007KT CAVOK 29/22 A2989=
201403102200 METAR MRLM 102200Z 06007KT CAVOK 28/22 A2989=
201403102300 METAR MRLM 102300Z 07005KT 9999 FEW030 BKN240 28/23 A2990=
201403110000 METAR MRLM 110000Z 07005KT 9999 FEW030 BKN240 27/22 A2992=
201403110100 METAR MRLM NIL=
201403110200 METAR MRLM NIL=
201403110300 METAR MRLM NIL=
201403110400 METAR MRLM NIL=
201403110500 METAR MRLM NIL=
201403110600 METAR MRLM NIL=
201403110700 METAR MRLM NIL=
201403110800 METAR MRLM NIL=
201403110900 METAR MRLM NIL=
201403111000 METAR MRLM NIL=
201403111100 METAR MRLM NIL=
201403111200 METAR MRLM 111200Z 24005KT 9999 FEW015 BKN270 21/19 A2990=
201403111300 METAR MRLM 111300Z 25004KT 9999 FEWTCU015 BKN280 23/20 A2992=
201403111400 METAR MRLM 111400Z 22002KT 9999 FEW015 BKN280 27/21 A2993=
201403111500 METAR MRLM 111500Z 13005KT 9999 FEW035 BKN280 28/22 A2994=
201403111600 METAR MRLM 111600Z 12005KT 9999 FEW035 BKN280 29/22 A2994=
201403111700 METAR MRLM 111700Z 10006KT 9999 SCT030 SCT280 29/22 A2992=
201403111800 METAR MRLM 111800Z 10007KT 9999 SCT035 SCT280 29/22 A2991=
201403111900 METAR MRLM 111900Z 09009KT 9999 BKN032 29/23 A2987=
201403112000 METAR MRLM 112000Z 09006KT 9999 BKN032 29/23 A2984=
201403112100 METAR MRLM 112100Z 08007KT 9999 BKN035 29/22 A2983=
201403112200 METAR MRLM 112200Z 10007KT 9999 BKN035 29/22 A2982=
201403112300 METAR MRLM 112300Z 11005KT 9999 SCT110 28/22 A2983=
201403112353 METAR MRLM 120000Z 14005KT 9999 SCT035 27/21 A2984=
201403120000 METAR MRLM 120000Z 14005KT 9999 SCT035 27/21 A2984=
201403120100 METAR MRLM NIL=
201403120200 METAR MRLM NIL=
201403120300 METAR MRLM NIL=
201403120400 METAR MRLM NIL=
201403120500 METAR MRLM NIL=
201403120600 METAR MRLM NIL=
201403120700 METAR MRLM NIL=
201403120800 METAR MRLM NIL=
201403120900 METAR MRLM NIL=
201403121000 METAR MRLM NIL=
201403121100 METAR MRLM NIL=
201403121200 METAR MRLM 121200Z 25004KT CAVOK 22/20 A2989=
201403121300 METAR MRLM 121300Z 24004KT CAVOK 24/20 A2990=
201403121400 METAR MRLM 121400Z 23002KT 9999 FEW025 28/21 A2992=
201403121500 METAR MRLM 121500Z 10002KT 9999 FEW035 29/22 A2993=
201403121600 METAR MRLM 121600Z 10006KT 9999 FEW035 29/22 A2993=
201403121700 METAR MRLM 121700Z 10008KT 999 FEW035 29/22 A2991=
201403121800 METAR MRLM 121800Z 11008KT 9999 FEW035 29/22 A2988=
201403121900 METAR MRLM 121900Z 09008KT 9999 FEW035 29/22 A2985=
201403122000 METAR MRLM 122000Z 08007KT 9999 FEW035 29/22 A2983=
201403122100 METAR MRLM 122100Z 08006KT CAVOK 29/21 A2982=
201403122200 METAR MRLM 122200Z 08006KT CAVOK 29/21 A2982=
201403122300 METAR MRLM 122300Z 07005KT 9999 BKN035 28/21 A2984=
201403122356 METAR MRLM 130000Z 08003KT 9999 BKN035 28/21 A2986=
201403130000 METAR MRLM 130000Z 08003KT 9999 BKN035 28/21 A2986=
201403130100 METAR MRLM NIL=
201403130200 METAR MRLM NIL=
201403130300 METAR MRLM NIL=
201403130400 METAR MRLM NIL=
201403130500 METAR MRLM NIL=
201403130600 METAR MRLM NIL=
201403130700 METAR MRLM NIL=
201403130800 METAR MRLM NIL=
201403130900 METAR MRLM NIL=
201403131000 METAR MRLM NIL=
201403131100 METAR MRLM NIL=
201403131200 METAR MRLM 131200Z 25005KT CAVOK 21/19 A2991=
201403131300 METAR MRLM 131300Z 24004KT 9999 FEW020 23/20 A2993=
201403131400 METAR MRLM 131400Z 24004KT 9999 FEW030 27/21 A2995=
201403131500 METAR MRLM 131500Z 07003KT 9999 SCT035 29/22 A2997=
201403131600 METAR MRLM 131600Z 06005KT 9999 FEW035 29/22 A2998=
201403131700 METAR MRLM 131700Z 06006KT 9999 FEW035 29/23 A2996=
201403131800 METAR MRLM 131800Z 04006KT 9999 FEW030 29/23 A2993=
201403131900 METAR MRLM 131900Z 07006KT 9999 FEW030 29/23 A2990=
201403132000 METAR MRLM 132000Z 07006KT 9999 FEW035 29/22 A2989=
201403132100 METAR MRLM 132100Z 07005KT 9999 FEW035 29/22 A2987 NOSIG=
201403132200 METAR MRLM 132200Z 06006KT 9999 FEW035 29/22 A2988 NOSIG=
201403132300 METAR MRLM 132300Z 05007KT 9999 FEW030 28/22 A2989 NOSIG=
201403140000 METAR MRLM 140000Z 05005KT 9999 SCT025 28/22 A2990=
201403140100 METAR MRLM NIL=
201403140200 METAR MRLM NIL=
201403140300 METAR MRLM NIL=
201403140400 METAR MRLM NIL=
201403140500 METAR MRLM NIL=
201403140600 METAR MRLM NIL=
201403140700 METAR MRLM NIL=
201403140800 METAR MRLM NIL=
201403140900 METAR MRLM NIL=
201403141000 METAR MRLM NIL=
201403141100 METAR MRLM NIL=
201403141200 METAR MRLM 141200Z 25007KT 9999 BKN010 SCT090 22/21 A2999=
201403141300 METAR MRLM 141300Z 25005KT 9999 BKN010 SCT100 23/21 A2998=
201403141400 METAR MRLM 141400Z 24005KT 9999 SCT020 BKN110 24/21 A3000=
201403141500 METAR MRLM 141500Z 25006KT CAVOK 27/20 A3001=
201403141600 METAR MRLM 141600Z 31002KT 9999 SCT040 SCT140 30/20 A3001=
201403141700 METAR MRLM 141700Z 03005KT 9999 SCT035 BKN140 29/21 A3000=
201403141800 METAR MRLM 141800Z 05007KT 9999 FEW035 SCT140 29/21 A2997=
201403141900 METAR MRLM 141900Z 03007KT 9999 FEW040 29/21 A2993=
201403142000 METAR MRLM 142000Z 04008KT 9999 FEW020 29/22 A2990=
201403142100 METAR MRLM 142100Z 07007KT 9999 FEW035 29/22 A2989=
201403142200 METAR MRLM 142200Z 06008KT 9999 FEW030 28/22 A2989=
201403142300 METAR MRLM 142300Z 07007KT 9999 SCT030 28/21 A2989=
201403150000 METAR MRLM 150000Z 07006KT 9999 FEW030 27/20 A2990=
201403150100 METAR MRLM NIL=
201403150200 METAR MRLM NIL=
201403150300 METAR MRLM NIL=
201403150400 METAR MRLM NIL=
201403150500 METAR MRLM NIL=
201403150600 METAR MRLM NIL=
201403150700 METAR MRLM NIL=
201403150800 METAR MRLM NIL=
201403150900 METAR MRLM NIL=
201403151000 METAR MRLM NIL=
201403151100 METAR MRLM NIL=
201403151200 METAR MRLM 151200Z 24005KT CAVOK 22/20 2992=
201403151300 METAR MRLM 151300Z 24004KT CAVOK 24/21 A2994=
201403151400 METAR MRLM 151400Z 23003KT CAVOK 27/21 A2995=
201403151500 METAR MRLM 151500Z 07004KT 9999 FEW035 28/21 A2996=
201403151600 METAR MRLM 151600Z 07003KT 9999 FEW040 29/21 A2996=
201403151700 METAR MRLM 151700Z 08006KT 9999 FEW045 29/20 S2994=
201403151800 METAR MRLM 151800Z 07008KT 9999 FEW040 29/21 A2992=
201403151900 METAR MRLM 151900Z 07009KT 9999 FEW038 29/21 A2989=
201403152000 METAR MRLM 152000Z 08007KT CAVOK 29/21 A2986=
201403152100 METAR MRLM 152100Z 07007KT CAVOK 29/21 A2984=
201403152200 METAR MRLM 152200Z 06006KT CAVOK 29/22 A2983=
201403152300 METAR MRLM 152300Z 05003KT CAVOK 29/22 A2984=
201403152355 METAR MRLM 160000Z 05004KT CAVOK 28/22 A2986=
201403160000 METAR MRLM 160000Z 05004KT CAVOK 28/22 A2986=
201403160100 METAR MRLM NIL=
201403160200 METAR MRLM NIL=
201403160300 METAR MRLM NIL=
201403160400 METAR MRLM NIL=
201403160500 METAR MRLM NIL=
201403160600 METAR MRLM NIL=
201403160700 METAR MRLM NIL=
201403160800 METAR MRLM NIL=
201403160900 METAR MRLM NIL=
201403161000 METAR MRLM NIL=
201403161100 METAR MRLM NIL=
201403161200 METAR MRLM 161200Z 27002KT CAVOK 21/20 A2986=
201403161300 METAR MRLM 161300Z 26005KT CAVOK 21/20 A2986=
201403161400 METAR MRLM 161400Z 23003KT CAVOK 26/21 A2988=
201403161500 METAR MRLM 161500Z 12004KT 9999 SCT032 28/22 A2990=
201403161600 METAR MRLM 161600Z 12005KT 9999 SCT032 SCT120 29/22 A2990=
201403161700 METAR MRLM 161700Z 09005KT 9999 SCT032 SCT130 29/22 A2989=
201403161800 METAR MRLM 161800Z 09009KT 9999 BKN030 SCT080 29/23 A2987=
201403161900 METAR MRLM 161900Z 08008KT 9999 SCT035 BKN080 29/22 A2986=
201403162000 METAR MRLM 162000Z 09007KT 9999 SCT030 SCT080 29/23 A2982=
201403162100 METAR MRLM 162100Z 09007KT 9999 BKN032 28/22 A2981=
201403162200 METAR MRLM 162200Z 10008KT 9999 FEW020 SCT030 28/21 A2980=
201403162300 METAR MRLM 162300Z 08007KT 9999 FEW020 SCT080 28/21 A2980=
201403162358 METAR MRLM 170000Z 11006KT 9999 SCT025 SCT080 28/20 A2980=
201403170000 METAR MRLM 170000Z 11006KT 9999 SCT025 SCT080 28/20 A2980=
201403170100 METAR MRLM NIL=
201403170200 METAR MRLM NIL=
201403170300 METAR MRLM NIL=
201403170400 METAR MRLM NIL=
201403170500 METAR MRLM NIL=
201403170600 METAR MRLM NIL=
201403170700 METAR MRLM NIL=
201403170800 METAR MRLM NIL=
201403170900 METAR MRLM NIL=
201403171000 METAR MRLM NIL=
201403171100 METAR MRLM NIL=
201403171200 METAR MRLM 171200Z 25004KT CAVOK 21/20 A2981=
201403171300 METAR MRLM 171300Z 25004KT CAVOK 23/21 A2983=
201403171400 METAR MRLM 171400Z 23002KT CAVOK 27/22 A2985=
201403171500 METAR MRLM 171500Z 11003KT 9999 FEW035 29/21 A2986=
201403171600 METAR MRLM 171600Z 12005KT 9999 FEW035 29/22 A2986=
201403171700 METAR MRLM 171700Z 09005KT 9999 FEW040 29/22 A2985=
201403171800 METAR MRLM 171800Z 08005KT 9999 FEW035 29/22 A2982=
201403171900 METAR MRLM 171900Z 06009KT 9999 FEW035 SCT140 29/22 A2980=
201403172000 METAR MRLM 172000Z 06008KT CAVOK 29/22 A2978=
201403172100 METAR MRLM 172100Z 06006KT 9999 FEW035 SCT140 29/22 A2976=
201403172200 METAR MRLM 172200Z 07005KT 9999 SCT030 SCT130 29/22 A2976=
201403172300 METAR MRLM 172300Z 09004KT 9999 SCT030 SCT130 28/22 A2977=
201403180000 METAR MRLM 180000Z 11003KT 9999 FEW025 BKN120 27/22 A2979=
201403180100 METAR MRLM NIL=
201403180200 METAR MRLM NIL=
201403180300 METAR MRLM NIL=
201403180400 METAR MRLM NIL=
201403180500 METAR MRLM NIL=
201403180600 METAR MRLM NIL=
201403180700 METAR MRLM NIL=
201403180800 METAR MRLM NIL=
201403180900 METAR MRLM NIL=
201403181000 METAR MRLM NIL=
201403181100 METAR MRLM NIL=
201403181200 METAR MRLM 181200Z 26004KT 9999 FEW010 BKN120 23/22 A2987=
201403181300 METAR MRLM 181300Z 26003KT CAVOK 25/22 A2989=
201403181400 METAR MRLM 181400Z 00000KT 9999 FEW030 29/23 A2991=
201403181500 METAR MRLM 181500Z 08003KT 9999 FEW030 29/23 A2993=
201403181600 METAR MRLM 181600Z 08006KT 9999 FEW030 29/23 A2993=
201403181700 METAR MRLM 181700Z 08006KT 9999 FEW035 30/23 A2992=
201403181800 METAR MRLM 181800Z 09006KT 9999 FEW035 30/22 A2989=
201403181900 METAR MRLM 181900Z 07007KT 9999 FEW035 SCT140 30/23 A2987=
201403182000 METAR MRLM 182000Z 09007KT 9999 FEW035 30/23 A2984=
201403182100 METAR MRLM 182100Z 10006KT 9999 FEW030 30/24 A2983=
201403182200 METAR MRLM 182200Z 10004KT 9999 FEW030 29/23 A2982=
201403182300 METAR MRLM 182300Z 12006KT 9999 FEW030 29/23 A2982=
201403190000 METAR MRLM 190000Z 11006KT 9999 SCT020 28/23 A2983=
201403190100 METAR MRLM NIL=
201403190200 METAR MRLM NIL=
201403190300 METAR MRLM NIL=
201403190400 METAR MRLM NIL=
201403190500 METAR MRLM NIL=
201403190600 METAR MRLM NIL=
201403190700 METAR MRLM NIL=
201403190800 METAR MRLM NIL=
201403190900 METAR MRLM NIL=
201403191000 METAR MRLM NIL=
201403191100 METAR MRLM NIL=
201403191200 METAR MRLM 191200Z 25004KT CAVOK 23/22 A2989=
201403191300 METAR MRLM 191300Z 25004KT CAVOK 24/23 A2990=
201403191400 METAR MRLM 191400Z 27002KT CAVOK 29/23 A2992=
201403191500 METAR MRLM 191500Z 08004KT CAVOK 29/23 A2992=
201403191600 METAR MRLM 191600Z 06007KT 9999 FEW030 BKN090 29/23 A2993=
201403191700 METAR MRLM 191700Z 06009KT 9999 SCT023 BKN090 28/23 A2992=
201403191800 METAR MRLM 191800Z 12015KT 9999 FEW025 BKN090 28/23 A2991=
201403191900 METAR MRLM 191900Z 08007KT 9999 FEW028 SCT070 27/21 A2988=
201403192000 METAR MRLM 192000Z 27004KT CAVOK 28/21 A2986=
201403192100 METAR MRLM 192100Z 27003KT CAVOK 28/21 A2984=
201403192200 METAR MRLM 192200Z 25003KT CAVOK 28/22 A2984=
201403192300 METAR MRLM 192300Z 24010KT 9999 FEW025 SCT080 28/23 A2985=
201403192355 METAR MRLM 200000Z 21003KT 9999 FEW020 BKN080 26/22 A2986=
201403200000 METAR MRLM 200000Z 21003KT 9999 FEW020 BKN080 26/22 A2986=
201403200100 METAR MRLM NIL=
201403200200 METAR MRLM NIL=
201403200300 METAR MRLM NIL=
201403200400 METAR MRLM NIL=
201403200500 METAR MRLM NIL=
201403200600 METAR MRLM NIL=
201403200700 METAR MRLM NIL=
201403200800 METAR MRLM NIL=
201403200900 METAR MRLM NIL=
201403201000 METAR MRLM NIL=
201403201100 METAR MRLM NIL=
201403201200 METAR MRLM 201200Z 24006KT 9999 BKN020 22/21 A2989=
201403201300 METAR MRLM 201300Z 24008KT 9999 SCT020 SCT090 23/21 A2990=
201403201400 METAR MRLM 201400Z 24004KT 9999 OVC015 24/22 A2991=
201403201500 METAR MRLM 201500Z 24004KT 9999 FEW018 BKN140 26/22 A2991=
201403201600 METAR MRLM 201600Z 06005KT 9999 OVC025 28/24 A2993=
201403201700 METAR MRLM 201700Z 02008KT 9999 DZ VCSH SCT012 SCT090 24/22 A2994=
201403201800 METAR MRLM 201800Z 25004KT 9999 BKN025 SCT090 26/24 A2991=
201403201900 METAR MRLM 201900Z 23004KT 9999 +DZ SCT013 SCT090 25/23 A2990=
201403202000 METAR MRLM 202000Z 24004KT CAVOK 26/23 A2986=
201403202100 METAR MRLM 202100Z 24002KT CAVOK 27/23 A2985=
201403202200 METAR MRLM 202200Z 24003KT CAVOK 28/23 A2985=
201403202300 METAR MRLM 202300Z 26002KT CAVOK 27/23 A2986=
201403202358 METAR MRLM 210000Z 25003KT 9999 FEW030 SCT080 26/23 A2987=
201403210000 METAR MRLM 210000Z 25003KT 9999 FEW030 SCT080 26/23 A2987=
201403210100 METAR MRLM NIL=
201403210200 METAR MRLM NIL=
201403210300 METAR MRLM NIL=
201403210400 METAR MRLM NIL=
201403210500 METAR MRLM NIL=
201403210600 METAR MRLM NIL=
201403210700 METAR MRLM NIL=
201403210800 METAR MRLM NIL=
201403210900 METAR MRLM NIL=
201403211000 METAR MRLM NIL=
201403211100 METAR MRLM NIL=
201403211200 METAR MRLM 211200Z 25003KT CAVOK 22/21 A2991=
201403211300 METAR MRLM 211300Z 25004KT CAVOK 24/22 A2993=
201403211400 METAR MRLM 211400Z 28002KT 9999 FEW025 BKN130 27/22 A2994=
201403211500 METAR MRLM 211500Z 04003KT 9999 FEW030 BKN130 28/23 A2996=
201403211600 METAR MRLM 211600Z 03010KT 9999 DZ BKN015 26/24 A2998=
201403211700 METAR MRLM 211700Z 35004KT 9999 DZ BKN010 24/23 A2998=
201403211710 METAR MRLM 211710Z 13004KT 4000 RA OVC010 24/22 A3000=
201403211800 METAR MRLM 211800Z 23006KT 9999 SCT010 SCT100 24/22 A2997 RERA=
201403211900 METAR MRLM 211900Z 24006KT 9999 FEW020 BKN120 26/23 A2994=
201403212000 METAR MRLM 212000Z 23005KT 9999 FEW025 BKN130 27/22 A2991=
201403212100 METAR MRLM 212100Z 22004KT 9999 FEW030 BKN130 28/22 A2990=
201403212200 METAR MRLM 212200Z 18003KT 9999 FEW030 BKN140 28/22 A2991=
201403212300 METAR MRLM 212300Z 00000KT CAVOK 28/22 A2990=
201403220000 METAR MRLM 220000Z 00000KT CAVOK 26/24 A2991=
201403220100 METAR MRLM NIL=
201403220200 METAR MRLM NIL=
201403220300 METAR MRLM NIL=
201403220400 METAR MRLM NIL=
201403220500 METAR MRLM NIL=
201403220600 METAR MRLM NIL=
201403220700 METAR MRLM NIL=
201403220800 METAR MRLM NIL=
201403220900 METAR MRLM NIL=
201403221000 METAR MRLM NIL=
201403221100 METAR MRLM NIL=
201403221200 METAR MRLM 221200Z 25004KT CAVOK 21/19 A2994=
201403221300 METAR MRLM 221300Z 23005KT 9999 FEW020 BKN130 23/20 A2996=
201403221400 METAR MRLM 221400Z 24005KT CAVOK 26/21 A2998=
201403221500 METAR MRLM 221500Z 09002KT 9999 FEW030 BKN140 28/22 A2999=
201403221600 METAR MRLM 221600Z 14004KT 9999 FEW030 BKN130 28/22 A3000=
201403221700 METAR MRLM 221700Z 12006KT 9999 FEW030 BKN130 29/23 A2998=
201403221800 METAR MRLM 221800Z 11007KT 9999 FEW030 BKN130 29/23 A2996=
201403221900 METAR MRLM 221900Z 10006KT 9999 FEW030 BKN140 29/23 A2993=
201403222000 METAR MRLM 222000Z 07006KT 9999 FEW030 BKN150 29/23 A2991=
201403222100 METAR MRLM 222100Z 05005KT 9999 FEW035 SCT150 29/23 A2990=
201403222200 METAR MRLM 222200Z 04004KT 9999 FEW030 29/23 A2989=
201403222300 METAR MRLM 222300Z 07002KT 9999 FEW030 28/23 A2990=
201403230000 METAR MRLM 230000Z 07003KT 9999 FEW030 BKN260 27/21 A2993=
201403230100 METAR MRLM NIL=
201403230200 METAR MRLM NIL=
201403230300 METAR MRLM NIL=
201403230400 METAR MRLM NIL=
201403230500 METAR MRLM NIL=
201403230600 METAR MRLM NIL=
201403230700 METAR MRLM NIL=
201403230800 METAR MRLM NIL=
201403230900 METAR MRLM NIL=
201403231000 METAR MRLM NIL=
201403231100 METAR MRLM NIL=
201403231200 METAR MRLM 231200Z 2405KT 8000 DZ VCSH SCT010 SCT025 22/21 A2996=
201403231300 METAR MRLM 231300Z 21004KT 4000 RA BKN005 22/21 A2999=
201403231400 METAR MRLM 25006KT 9999 FEW004 BKN3035 23/22 A3000 RERA=
201403231402 METAR MRLM 231402Z 25006KT 9999 FEW004 BKN3035 23/22 A3000 RERA=
201403231500 METAR MRLM 231500Z 25006KT CAVOK 24/22 A3001=
201403231600 METAR MRLM 231600Z 24006KT CAVOK 25/22 A3001=
201403231700 METAR MRLM 231700Z 24004KT CAVOK 27/22 A2998=
201403231800 METAR MRLM 231800Z 29002KT CAVOK 30/21 A2996=
201403231900 METAR MRLM 231900Z 06005KT 9999 FEW035 BKN080 30/23 A2993=
201403232000 METAR MRLM 232000Z 03007KT 9999 FEW035 BKN090 30/23 A2991=
201403232100 METAR MRLM 232100Z 03006KT FEW040 BKN070 30/22 A2989=
201403232200 METAR MRLM 232200Z 01006KT 9999 FEW035 SCT070 29/22 A2989=
201403232300 METAR MRLM 232300Z 33005KT 9999 FEW032 29/23 A2990=
201403232354 METAR MRLM 240000Z 34003KT CAVOK 27/22 A2992=
201403240000 METAR MRLM 240000Z 34003KT CAVOK 27/22 A2992=
201403240100 METAR MRLM NIL=
201403240200 METAR MRLM NIL=
201403240300 METAR MRLM NIL=
201403240400 METAR MRLM NIL=
201403240500 METAR MRLM NIL=
201403240600 METAR MRLM NIL=
201403240700 METAR MRLM NIL=
201403240800 METAR MRLM NIL=
201403240900 METAR MRLM NIL=
201403241000 METAR MRLM NIL=
201403241100 METAR MRLM NIL=
201403241200 METAR MRLM 241200Z 26004KT 9999 FEW005 BKN020 23/22 A2993=
201403241300 METAR MRLM 241300Z 33006KT 6000 DZ VCSH BKN015 24/23 A2995=
201403241400 METAR MRLM 241400Z 31004KT 4000 RA BKN004 SCT090 24/23 A2997=
201403241454 METAR MRLM 2421500Z 33004KT 4000 RA BKN005 SCT090 24/24 A2999=
201403241500 METAR MRLM 2421500Z 33004KT 4000 RA BKN005 SCT090 24/24 A2999=
201403241600 METAR MRLM 241600Z 27006KT 9999 FEW005 BKN012 25/24 A2998=
201403241700 METAR MRLM 241700Z 26006KT 9999 BKN025 SCT090 25/24 A2995=
201403241800 METAR MRLM NIL=
201403241900 METAR MRLM 241900Z 11004KT 9999 FEW035 BKN080 30/22 A2989=
201403242000 METAR MRLM 242000Z 06004KT 9999 FEW040 BKN090 30/22 A2987=
201403242054 METAR MRLM 2421000Z 05006KT 9999 FEW035 BKN080 29/22 A2986=
201403242100 METAR MRLM 2421000Z 05006KT 9999 FEW035 BKN080 29/22 A2986=
201403242200 METAR MRLM NIL=
201403242300 METAR MRLM 242300Z 06004KT 9999 FEW030 SCT300 29/23 A2987=
201403242357 METAR MRLM 250000Z 06004KT CAVOK 28/23 A2988=
201403250000 METAR MRLM 250000Z 06004KT CAVOK 28/23 A2988=
201403250100 METAR MRLM NIL=
201403250200 METAR MRLM NIL=
201403250300 METAR MRLM NIL=
201403250400 METAR MRLM NIL=
201403250500 METAR MRLM NIL=
201403250600 METAR MRLM NIL=
201403250700 METAR MRLM NIL=
201403250800 METAR MRLM NIL=
201403250900 METAR MRLM NIL=
201403251000 METAR MRLM NIL=
201403251100 METAR MRLM NIL=
201403251200 METAR MRLM 251200Z 25005KT 9999 BKN010 SCT100 22/21 A2993=
201403251300 METAR MRLM 251300Z 00000KT 9999 DZ SCT010 SCT100 23/21 A2995=
201403251400 METAR MRLM 251400Z 23002KT 9999 SCT010 BKN110 24/23 A2996=
201403251500 METAR MRLM 251500Z 12003KT 9999 FEW020 BKN120 28/24 A2997=
201403251600 METAR MRLM 251600Z 13006KT 9999 FEW030 BKN130 28/23 A2997=
201403251700 METAR MRLM 251700Z 12006KT 9999 FEW030 SCT140 29/23 A2995=
201403251800 METAR MRLM 251800Z 10006KT 9999 FEW030 29/23 A2992=
201403251900 METAR MRLM 251900Z 08006KT 9999 FEW030 30/23 A2989=
201403252000 METAR MRLM 252000Z 07006KT 9999 FEW030 30/23 A2988=
201403252100 METAR MRLM 252100Z 05006KT 9999 FEW030 30/23 A2987=
201403252200 METAR MRLM 252200Z 05002KT 9999 FEW030 BKN130 30/23 A2987=
201403252300 METAR MRLM 252300Z 06004KT 9999 FEW030 BKN130 29/23 A2988=
201403260000 METAR MRLM 260000Z 00000KT 9999 FEW025 BKN120 27/23 A2989=
201403260100 METAR MRLM NIL=
201403260200 METAR MRLM NIL=
201403260300 METAR MRLM NIL=
201403260400 METAR MRLM NIL=
201403260500 METAR MRLM NIL=
201403260600 METAR MRLM NIL=
201403260700 METAR MRLM NIL=
201403260800 METAR MRLM NIL=
201403260900 METAR MRLM NIL=
201403261000 METAR MRLM NIL=
201403261100 METAR MRLM NIL=
201403261200 METAR MRLM 261200Z 26006KT CAVOK 21/19 A2995=
201403261300 METAR MRLM 261300Z 00000KT CAVOK 22/19 A2998=
201403261400 METAR MRLM 261400Z 23003KT 9999 SCT015 BKN120 24/21 A3001=
201403261430 METAR MRLM 261430Z 13006KT 8000 +DZ BKN015 25/22 A3004=
201403261500 METAR MRLM 261500Z 17003KT 8000 3000N +DZ BKN007 24/23 A3004=
201403261600 METAR MRLM 261600Z 21002KT 9999 DZ BKN010 25/22 A3004=
201403261700 METAR MRLM 261700Z 23005KT 9999 -DZ BKN010 26/24 A3002=
201403261800 METAR MRLM 261800Z 00000KT 9999 SCT020 SCT120 28/23 A3000=
201403261900 METAR MRLM 261900Z 25005KT 9999 FEW035 SCT260 30/22 A2996=
201403262000 METAR MRLM 262000Z 17002KT 9999 FEW040 SCT140 SCT260 31/21 A2993=
201403262100 METAR MRLM 262100Z 04009KT 9999 FEW030 BKN250 30/24 A2991=
201403262200 METAR MRLM 262200Z 05009KT 9999 SCT030 SCT130 29/23 A2991=
201403262300 METAR MRLM 262300Z 02010KT 9999 SCT020 BKN130 28/24 A2992=
201403270000 METAR MRLM 270000Z 01005KT 9999 FEW020 SCT120 SCT250 27/24 A2993=
201403270100 METAR MRLM NIL=
201403270200 METAR MRLM NIL=
201403270300 METAR MRLM NIL=
201403270400 METAR MRLM NIL=
201403270500 METAR MRLM NIL=
201403270600 METAR MRLM NIL=
201403270700 METAR MRLM NIL=
201403270800 METAR MRLM NIL=
201403270900 METAR MRLM NIL=
201403271000 METAR MRLM NIL=
201403271100 METAR MRLM NIL=
201403271200 METAR MRLM 271200Z 24005KT 9999 FEW025 BKN280 23/22 A2998=
201403271252 METAR MRLM 281300Z 271300Z CAVOK 24/23 A2999=
201403271300 METAR MRLM NIL=
201403271400 METAR MRLM 271400Z 22003KT CAVOK 27/24 A3002=
201403271500 METAR MRLM 271500Z 14005KT CAVOK OVC070 29/23 A3003=
201403271600 METAR MRLM 271600Z 10007KT 9999 FEW028 BKN080 29/23 A3002=
201403271700 METAR MRLM 271700Z 09007KT 9999 FEW030 29/23 A3001=
201403271800 METAR MRLM 271800Z 09005KT 9999 FEW030 SCT300 29/23 A29970=
201403271900 METAR MRLM 271900Z 06011KT 9999 FEW035 BKN280 30/23 A2994=
201403272000 METAR MRLM 272000Z 07009KT 9999 FEW038 SCT140 30/22 A2992=
201403272100 METAR MRLM 272100Z 07007KT CAVOK 30/23 A2991=
201403272200 METAR MRLM 272200Z 07007KT 9999 SCT025 29/23 A2991=
201403272300 METAR MRLM 272300Z 09006KT 9999 BKN025 28/23 A2992=
201403272356 METAR MRLM 280000Z 09007KT 9999 BKN025 28/22 A2993=
201403280000 METAR MRLM 280000Z 09007KT 9999 BKN025 28/22 A2993=
201403280100 METAR MRLM NIL=
201403280200 METAR MRLM NIL=
201403280300 METAR MRLM NIL=
201403280400 METAR MRLM NIL=
201403280500 METAR MRLM NIL=
201403280600 METAR MRLM NIL=
201403280700 METAR MRLM NIL=
201403280800 METAR MRLM NIL=
201403280900 METAR MRLM NIL=
201403281000 METAR MRLM NIL=
201403281100 METAR MRLM NIL=
201403281200 METAR MRLM 281200Z 24005KT 9999 SCT010 21/20 A2994=
201403281300 METAR MRLM 281300Z 25004KT 9999 SCT015TCU 23/21 A2995=
201403281400 METAR MRLM 281400Z 24003KT 9999 SCT025 28/22 A2997=
201403281500 METAR MRLM 281500Z 12003KT 9999 SCT025 SCT090 29/22 A2998=
201403281600 METAR MRLM 281600Z 08004KT 9999 FEW030 29/22 A2998=
201403281700 METAR MRLM 281700Z 07005KT 9999 FEW030 29/23 A2996=
201403281800 METAR MRLM 281800Z 08005KT 9999 FEW030 29/23 A2994=
201403281900 METAR MRLM 281900Z 09006KT 9999 FEW035 30/22 A2990=
201403282000 METAR MRLM 282000Z 07005KT 9999 FEW035 29/22 A2986=
201403282100 METAR MRLM 282100Z 05007KT 9999 FEW035 30/22 A2985=
201403282200 METAR MRLM 282200Z 07008KT 9999 SCT025 29/22 A2985=
201403282300 METAR MRLM 282300Z 05007KT 9999 BKN025 28/22 A2986=
201403290000 METAR MRLM 29000Z 078006KT 9999 BKN025 28/22 A2987=
201403290100 METAR MRLM NIL=
201403290200 METAR MRLM NIL=
201403290300 METAR MRLM NIL=
201403290400 METAR MRLM NIL=
201403290500 METAR MRLM NIL=
201403290600 METAR MRLM NIL=
201403290700 METAR MRLM NIL=
201403290800 METAR MRLM NIL=
201403290900 METAR MRLM NIL=
201403291000 METAR MRLM NIL=
201403291100 METAR MRLM NIL=
201403291200 METAR MRLM 291200Z 25004KT 9999 DZ FEW007 SCT100 22/21 A2991=
201403291300 METAR MRLM 291300Z 25004KT 9999 FEW007 SCT100 23/22 A2993 REDZ=
201403291400 METAR MRLM 291400Z 02003KT 9999 SCT015 SCT100 25/22 A2996=
201403291500 METAR MRLM 291500Z 02007KT 9999 DZ BKN015 26/24 A2997=
201403291600 METAR MRLM 291600Z 04002KT 9999 DZ BKN020 26/22 A2997=
201403291700 METAR MRLM 291700Z 06007KT 9999 DZ BKN010 25/23 A2997=
201403291800 METAR MRLM 291800Z 06003KT 9999 4000N DZ OVC010 26/23 A2995=
201403291900 METAR MRLM 291900Z 09007KT 9999 -DZ BKN015 25/23 A2993=
201403292000 METAR MRLM 292000Z 24003KT 9999 FEW020 BKN110 27/22 A2990=
201403292100 METAR MRLM 292100Z 25003KT 9999 FEW020 BKN120 27/23 A2988=
201403292200 METAR MRLM 292200Z 26004KT 9999 SCT020 SCT120 27/22 A2988=
201403292300 METAR MRLM 292300Z 25003KT 9999 SCT020 BKN120 26/22 A2988=
201403300000 METAR MRLM 300000Z 23003KT 9999 FEW010 BKN110 24/22 A2989=
201403300100 METAR MRLM NIL=
201403300200 METAR MRLM NIL=
201403300300 METAR MRLM NIL=
201403300400 METAR MRLM NIL=
201403300500 METAR MRLM NIL=
201403300600 METAR MRLM NIL=
201403300700 METAR MRLM NIL=
201403300800 METAR MRLM NIL=
201403300900 METAR MRLM NIL=
201403301000 METAR MRLM NIL=
201403301100 METAR MRLM NIL=
201403301200 METAR MRLM 301200Z 29002KT 9999 BKN007 23/22 A2993=
201403301300 METAR MRLM 301300Z 26003KT 9999 BKN007 24/22 A2994=
201403301400 METAR MRLM 301400Z 23003KT 9999 SCT015 BKN120 26/23 A2997=
201403301500 METAR MRLM 301500Z 13006KT 9999 FEW020 BKN130 28/23 A2997=
201403301600 METAR MRLM 301600Z 12006KT 9999 FEW030 SCT140 28/23 A2997=
201403301700 METAR MRLM 301700Z 09005KT 9999 FEW030 SCT140 29/23 A2996=
201403301800 METAR MRLM 301800Z 07006KT 9999 FEW030 SCT140 29/23 A2995=
201403301900 METAR MRLM 301900Z 07005KT 9999 FEW030 29/23 A2992=
201403302000 METAR MRLM 302000Z 06005KT 9999 FEW030 29/23 A2990=
201403302100 METAR MRLM 302100Z 06007KT 9999 SCT030 28/23 A2989=
201403302200 METAR MRLM 302200Z 05007KT 9999 FEW030 29/22 A2988=
201403302300 METAR MRLM 302300Z 06007KT 9999 SCT030 SCT130 28/22 A2989=
201403310000 METAR MRLM 310000Z 06005KT 9999 SCT020 BKN120 28/21 A2990=
201403310100 METAR MRLM NIL=
201403310200 METAR MRLM NIL=
201403310300 METAR MRLM NIL=
201403310400 METAR MRLM NIL=
201403310500 METAR MRLM NIL=
201403310600 METAR MRLM NIL=
201403310700 METAR MRLM NIL=
201403310800 METAR MRLM NIL=
201403310900 METAR MRLM NIL=
201403311000 METAR MRLM NIL=
201403311100 METAR MRLM NIL=
201403311200 METAR MRLM 311200Z 25005KT 9999 SCT015 21/20 A2996=
201403311300 METAR MRLM 311300Z 25004KT 9999 FEW015 BKN070 23/21 A2998=
201403311400 METAR MRLM 311400Z 23004KT 9999 FEW025 BKN070 27/22 A3001=
201403311500 METAR MRLM 311500Z 10003KT 9999 FEW025 SCT080 29/22 A3001=
201403311600 METAR MRLM 311600Z 11003KT 9999 FEW035 29/22 A3001=
201403311700 METAR MRLM 311700Z 08004KT 9999 FEW040 29/22 A2999=
201403311800 METAR MRLM 311800Z 09006KT 9999 FEW035 29/22 A2997=
201403311900 METAR MRLM 311900Z 07006KT 9999 FEW035 30/22 A2994=
201403312000 METAR MRLM 312000Z 06010KT 9999 FEW040 30/22 A2991=
201403312100 METAR MRLM 312100Z 07010KT 9999 FEW035 30/22 A2989=
201403312200 METAR MRLM 312200Z 07006KT CAVOK 29/22 A2988=
201403312300 METAR MRLM 312300Z 06006KT CAVOK 29/22 A2989=
201403312358 METAR MRLM 010000Z 09005KT CAVOK 28/21 A2990=
201404010000 METAR MRLM 010000Z 09005KT CAVOK 28/21 A2990=
201404010100 METAR MRLM NIL=
201404010200 METAR MRLM NIL=
201404010300 METAR MRLM NIL=
201404010400 METAR MRLM NIL=
201404010500 METAR MRLM NIL=
201404010600 METAR MRLM NIL=
201404010700 METAR MRLM NIL=
201404010800 METAR MRLM NIL=
201404010900 METAR MRLM NIL=
201404011000 METAR MRLM NIL=
201404011100 METAR MRLM NIL=
201404011200 METAR MRLM 011200Z 25004KT 9999 FEW015 SCT080 21/20 A2995=
201404011300 METAR MRLM 011300Z 24004KT 9999 FEW015 23/20 A2996=
201404011400 METAR MRLM 011400Z 22003KT 9999 FEW015 28/22 A2998=
201404011500 METAR MRLM 011500Z 11005KT CAVOK 29/22 A2998=
201404011600 METAR MRLM 011600Z 10007KT CAVOK 29/21 A2997=
201404011700 METAR MRLM 011700Z CAVOK 29/21 A2995=
201404011800 METAR MRLM 011800Z 09007KT 9999 FEW035 30/22 A2993=
201404011900 METAR MRLM 011900Z 09008KT CAVOK 29/22 A2989=
201404012000 METAR MRLM 012000Z 08008KT CAVOK 29/23 A2987=
201404012100 METAR MRLM 012100Z 06007KT 9999 FEW035 29/23 A2987=
201404012200 METAR MRLM 012200Z 06005KT 9999 FEW035 29/22 A2987=
201404012300 METAR MRLM 012300Z 08004KT 9999 FEW025 29/22 A2987=
201404012355 METAR MRLM 020000Z 08004KT 9999 SCT025 28/22 A2989=
201404020000 METAR MRLM 020000Z 08004KT 9999 SCT025 28/22 A2989=
201404020100 METAR MRLM NIL=
201404020200 METAR MRLM NIL=
201404020300 METAR MRLM NIL=
201404020400 METAR MRLM NIL=
201404020500 METAR MRLM NIL=
201404020600 METAR MRLM NIL=
201404020700 METAR MRLM NIL=
201404020800 METAR MRLM NIL=
201404020900 METAR MRLM NIL=
201404021000 METAR MRLM NIL=
201404021100 METAR MRLM NIL=
201404021200 METAR MRLM 021200Z 23005KT 9999 FEW010 BKN100 21/20 A2995=
201404021300 METAR MRLM 021300Z 23004KT 9999 FEW010 BKN110 23/21 A2996=
201404021400 METAR MRLM 021400Z 25003KT 9999 FEW030 SCT130 28/22 A2998=
201404021500 METAR MRLM 021500Z 12003KT 9999 FEW040 30/21 A2998=
201404021600 METAR MRLM 021600Z 10003KT 9999 FEW040 29/21 A2998=
201404021700 METAR MRLM 021700Z 07006KT FEW040 29/23 A2996=
201404021800 METAR MRLM 021800Z 08006KT 9999 FEW035 30/23 A2994=
201404021900 METAR MRLM 021900Z 08007KT 9999 FEW035 30/23 A2991=
201404022000 METAR MRLM 022000Z 08006KT 9999 FEW035 30/23 A2989=
201404022100 METAR MRLM 022100Z 08008KT 9999 SCT035 30/23 A2988=
201404022200 METAR MRLM 022200Z 09008KT 9999 SCT035 29/22 A2987=
201404022300 METAR MRLM 022300Z 08006KT 9999 SCT030 29/22 A2988=
201404030000 METAR MRLM 030000Z 06005KT 9999 BKN025 28/22 A2989=
201404030100 METAR MRLM NIL=
201404030200 METAR MRLM NIL=
201404030300 METAR MRLM NIL=
201404030400 METAR MRLM NIL=
201404030500 METAR MRLM NIL=
201404030600 METAR MRLM NIL=
201404030700 METAR MRLM NIL=
201404030800 METAR MRLM NIL=
201404030900 METAR MRLM NIL=
201404031000 METAR MRLM NIL=
201404031100 METAR MRLM NIL=
201404031200 METAR MRLM 031200Z 25005KT 9999 FEW010 BKN100 23/22 A2992=
201404031300 METAR MRLM 031300Z 25003KT 9999 FEW015 BKN250 25/22 A2993=
201404031400 METAR MRLM 031400Z 25003KT CAVOK 28/22 A2994=
201404031500 METAR MRLM 031500Z 07003KT CAVOK 29/21 A2995=
201404031600 METAR MRLM 031600Z COR 07003KT 9999 FEW040 BKN260 30/22 A2995=
201404031700 METAR MRLM 031700Z 06005KT 9999 FEW040 SCT150 SCT260 30/22 A2995=
201404031800 METAR MRLM 031800Z 05007KT 9999 FEW035 BKN150 30/23 A2993=
201404031900 METAR MRLM 031900Z 05007KT 9999 FEW030 BKN140 30/23 A2990=
201404032000 METAR MRLM 032000Z COR 04006KT 9999 FEW030 SCT130 SCT250 30/24 A2987=
201404032100 METAR MRLM 032100Z 04008KT 9999 SCT030 BKN130 30/24 A2986=
201404032200 METAR MRLM 032200Z 05008KT 9999 BKN030 29/24 A2986=
201404032300 METAR MRLM 032300Z 09008KT 9999 BKN020 SCT120 28/24 A2986=
201404040000 METAR MRLM 040000Z 09006KT 9999 BKN015 28/24 A2988=
201404040100 METAR MRLM NIL=
201404040200 METAR MRLM NIL=
201404040300 METAR MRLM NIL=
201404040400 METAR MRLM NIL=
201404040500 METAR MRLM NIL=
201404040600 METAR MRLM NIL=
201404040700 METAR MRLM NIL=
201404040800 METAR MRLM NIL=
201404040900 METAR MRLM NIL=
201404041000 METAR MRLM NIL=
201404041100 METAR MRLM NIL=
201404041200 METAR MRLM 041200Z 12008KT 7000 DZ VCSH FEW005 BKN015 24/23 A2991=
201404041300 METAR MRLM 041300Z 22003KT 3000 RA BKN010 23/22 A2993=
201404041400 METAR MRLM 041400Z 22006KT 9999 +DZ FEW005 BKN090 23/23 A2995=
201404041500 METAR MRLM 041500Z 23006KT 9999 FEW010 BKN090 25/23 A2995 REDZ=
201404041600 METAR MRLM 041600Z 22005KT 9999 FEW025 BKN090 28/23 A2994=
201404041700 METAR MRLM 041700Z 14004KT 9999 FEW028 BKN090 30/24 A2993=
201404041800 METAR MRLM 041800Z 13006KT 9999 FEW030 BKN080 30/23 A2991=
201404041900 METAR MRLM 041900Z 12006KT 9999 FEW035 SCT090 30/23 A2988=
201404042000 METAR MRLM 042000Z 09007KT 9999 FEW035 SCT120 30/23 A2986=
201404042100 METAR MRLM 042100Z 07007KT 9999 FEW030 BKN080 30/24 A2985=
201404042200 METAR MRLM 042200Z 08007KT 9999 FEW025 SCT140 29/24 A2984=
201404042300 METAR MRLM 042300Z 06006KT 9999 FEW020 SCT280 28/24 A2985=
201404042354 METAR MRLM 050000Z 08004KT 9999 FEW020 SCT280 28/24 A2987=
201404050000 METAR MRLM 050000Z 08004KT 9999 FEW020 SCT280 28/24 A2987=
201404050100 METAR MRLM NIL=
201404050200 METAR MRLM NIL=
201404050300 METAR MRLM NIL=
201404050400 METAR MRLM NIL=
201404050500 METAR MRLM NIL=
201404050600 METAR MRLM NIL=
201404050700 METAR MRLM NIL=
201404050800 METAR MRLM NIL=
201404050900 METAR MRLM NIL=
201404051000 METAR MRLM NIL=
201404051100 METAR MRLM NIL=
201404051200 METAR MRLM 051200Z 26001KT 9999 BKN015 24/23 A2988=
201404051300 METAR MRLM 051300Z 25001KT 7000 DZ VCSH BKN015 24/23 A2990=
201404051400 METAR MRLM 051400Z 18004KT 9999 +DZ VCSH FEW015 BKN080 24/23 A2993=
201404051500 METAR MRLM 051500Z 28001KT 9999 FEW010 BKN025 26/24 A2994 REDZ=
201404051600 METAR MRLM 051600Z 29003KT 9999 FEW015 SCT090 26/24 A2993=
201404051700 METAR MRLM 051700Z 10013KT 9999 BKN015 SCT090 27/24 A2993=
201404051800 METAR MRLM 051800Z 20003KT 9999 FEW020 SCT035 27/23 A2991=
201404051900 METAR MRLM 051900Z 11002KT 9999 FEW025 BKN090 28/22 A2988=
201404052000 METAR MRLM 052000Z 11003KT 9999 FEW030 SCT140 29/23 A2985=
201404052100 METAR MRLM 052100Z 13003KT 9999 SCT025 SCT120 29/24 A2983=
201404052200 METAR MRLM 052200Z 12004KT 9999 SCT025 29/24 A2982=
201404052300 METAR MRLM 052300Z 12005KT 9999 SCT020 SCT300 28/24 A2983=
201404052353 METAR MRLM 060000Z 10010KT 9999 DZ VCSH OVC020TCU 27/22 A2985=
201404060000 METAR MRLM 060000Z 10010KT 9999 DZ VCSH OVC020TCU 27/22 A2985=
201404060100 METAR MRLM NIL=
201404060200 METAR MRLM NIL=
201404060300 METAR MRLM NIL=
201404060400 METAR MRLM NIL=
201404060500 METAR MRLM NIL=
201404060600 METAR MRLM NIL=
201404060700 METAR MRLM NIL=
201404060800 METAR MRLM NIL=
201404060900 METAR MRLM NIL=
201404061000 METAR MRLM NIL=
201404061100 METAR MRLM NIL=
201404061200 METAR MRLM 061200Z 25003KT 9999 FEW010 BKN100 24/22 A2989=
201404061300 METAR MRLM 061300Z 24004KT 9999 FEW010 BKN100 24/22 A2990=
201404061400 METAR MRLM 061400Z 18002KT 9999 SCT020 BKN110 27/23 A2993=
201404061500 METAR MRLM 061500Z 11007KT 9999 FEW020 BKN120 28/23 A2993=
201404061600 METAR MRLM 061600Z 14006KT 9999 FEW030 BKN130 28/22 A2993=
201404061700 METAR MRLM 061700Z 12005KT 9999 FEW030 BKN130 29/23 A2992=
201404061800 METAR MRLM 061800Z 11004KT 9999 FEW030 BKN140 29/23 A2990=
201404061900 METAR MRLM 061900Z 10005KT 9999 FEW030 SCT140 SCT260 29/23 A2987=
201404062000 METAR MRLM 062000Z 08004KT 9999 FEW030 BKN260 30/23 A2985=
201404062100 METAR MRLM 062100Z 07005KT 9999 FEW030 BKN260 30/23 A2983=
201404062200 METAR MRLM 062200Z 10005KT 9999 FEW025 SCT140 SCT250 29/23 A2982=
201404062300 METAR MRLM NIL=
201404070000 METAR MRLM NIL=
201404070100 METAR MRLM NIL=
201404070200 METAR MRLM NIL=
201404070300 METAR MRLM NIL=
201404070400 METAR MRLM NIL=
201404070500 METAR MRLM NIL=
201404070600 METAR MRLM NIL=
201404070700 METAR MRLM NIL=
201404070800 METAR MRLM NIL=
201404070900 METAR MRLM NIL=
201404071000 METAR MRLM NIL=
201404071100 METAR MRLM NIL=
201404071200 METAR MRLM 071200Z 00000KT CAVOK 23/22 A2988=
201404071300 METAR MRLM 071300Z 00000KT CAVOK 25/22 A2989=
201404071400 METAR MRLM 071400Z 25003KT CAVOK 28/22 A2990=
201404071500 METAR MRLM 071500Z 11005KT CAVOK 29/23 A2992=
201404071600 METAR MRLM 071600Z 12007KT CAVOK 30/23 A2992=
201404071700 METAR MRLM 071700Z 11008KT CAVOK 30/23 A2991=
201404071800 METAR MRLM 071800Z 11007KT CAVOK 30/24 A2988=
201404071900 METAR MRLM 071900Z 09006KT CAVOK 31/24 A2985=
201404072000 METAR MRLM 072000Z 07007KT CAVOK 31/24 A2982=
201404072100 METAR MRLM 072100Z 060050KT CAVOK 30/24 2980=
201404072200 METAR MRLM 072200Z 04006KT CAVOK 30/24 A2979=
201404072300 METAR MRLM 072300Z 04005KT 9999 FEW025 SCT130 29/24 A2980=
201404080000 METAR MRLM 080000Z 03004KT 9999 FEW020 SCT130 28/24 A2981=
201404080100 METAR MRLM NIL=
201404080200 METAR MRLM NIL=
201404080300 METAR MRLM NIL=
201404080400 METAR MRLM NIL=
201404080500 METAR MRLM NIL=
201404080600 METAR MRLM NIL=
201404080700 METAR MRLM NIL=
201404080800 METAR MRLM NIL=
201404080900 METAR MRLM NIL=
201404081000 METAR MRLM NIL=
201404081100 METAR MRLM NIL=
201404081200 METAR MRLM 081200Z 26006KT 3000 TSRA BKN006 SCTCB010 24/24 A2989=
201404081300 METAR MRLM 081300Z 26002KT 9999 RA FEW002 BKN015 24/24 A2991 RETS=
201404081400 METAR MRLM 081400Z 25003KT 9999 FEW003 BKN015 24/24 A2994 RERA=
201404081500 METAR MRLM 081500Z 26004KT 9999 FEW006 SCT030 26/25 A2994=
201404081600 METAR MRLM 081600Z 26004KT 9999 FEW015 BKN140 28/25 A2994=
201404081700 METAR MRLM 081700Z 06002KT 9999 SCT025 SCT140 30/25 A2993=
201404081759 METAR MRLM 081200 07003KT 9999 SCT025 SCT140 30/24 A2991=
201404081800 METAR MRLM NIL=
201404081900 METAR MRLM 081900Z 07004KT 9999 SCT025 BKN280 30/25 A2988=
201404082000 METAR MRLM 082000Z 9999 FEW025 BKN280 30/25 A2986=
201404082100 METAR MRLM 082100Z 06004KT 9999 FEW025 BKN280 30/25 A2983=
201404082200 METAR MRLM 082200Z 07004KT 9999 FEW025 BKN280 30/25 A2983=
201404082300 METAR MRLM 082300Z 08004KT CAVOK 30/24 A2983=
201404082358 METAR MRLM 090004Z 06003KT CAVOK 29/24 A2984=
201404090004 METAR MRLM 090004Z 06003KT CAVOK 29/24 A2984=
201404090100 METAR MRLM NIL=
201404090200 METAR MRLM NIL=
201404090300 METAR MRLM NIL=
201404090400 METAR MRLM NIL=
201404090500 METAR MRLM NIL=
201404090600 METAR MRLM NIL=
201404090700 METAR MRLM NIL=
201404090800 METAR MRLM NIL=
201404090900 METAR MRLM NIL=
201404091000 METAR MRLM NIL=
201404091100 METAR MRLM NIL=
201404091200 METAR MRLM 091200Z 29002KT 9999 BKN020 24/24 A2995=
201404091300 METAR MRLM 091300Z 28005KT 9999 FEW015 SCT090 26/24 A2997=
201404091400 METAR MRLM 091400Z 31004KT 9999 FEW020 BKN070 29/24 A3000=
201404091500 METAR MRLM 091500Z 34004KT 9999 SCT035 31/24 A3001=
201404091600 METAR MRLM 091600Z 02006KT 9999 SCT030 31/25 A3001=
201404091700 METAR MRLM 091700Z 04009KT 9999 SCT030 31/25 A2999=
201404091800 METAR MRLM 091800Z 04008KT 9999 BKN030 31/25 A2997=
201404091900 METAR MRLM 091900Z 05008KT 9999 FEW030 SCT080 29/24 A2996=
201404092000 METAR MRLM 092000Z 05005KT 9999 FEW030 BKN080 31/24 A2993=
201404092100 METAR MRLM 092100Z 07002KT 9999 FEW040 SCT080 31/23 A2990=
201404092200 METAR MRLM 092200Z 02005KT CAVOK 31/23 A2989=
201404092300 METAR MRLM 092300Z 04005KT 9999 FEW040 30/22 A2991=
201404092353 METAR MRLM 100000Z 01004KT 9999 SCT025 SCT035 30/22 A2992=
201404100000 METAR MRLM 100000Z 01004KT 9999 SCT025 SCT035 30/22 A2992=
201404100100 METAR MRLM NIL=
201404100200 METAR MRLM NIL=
201404100300 METAR MRLM NIL=
201404100400 METAR MRLM NIL=
201404100500 METAR MRLM NIL=
201404100600 METAR MRLM NIL=
201404100700 METAR MRLM NIL=
201404100800 METAR MRLM NIL=
201404100900 METAR MRLM NIL=
201404101000 METAR MRLM NIL=
201404101100 METAR MRLM NIL=
201404101200 METAR MRLM 101200Z 01013KT 8000 RA OVC007 26/24 A2998=
201404101300 METAR MRLM 101300Z 32004KT 9999 -DZ BKN010 27/24 A2999 RERA=
201404101400 METAR MRLM 101400Z 36006KT 9999 SCT020 29/25 A3001=
201404101500 METAR MRLM 101500Z 02005KT 9999 SCT020 30/25 A3001=
201404101600 METAR MRLM 101600Z 04004KT 9999 SCT025 30/25 A3001=
201404101700 METAR MRLM 101700Z 21006KT 9999 BKN020 27/22 A3001=
201404101800 METAR MRLM 101800Z 21002KT 9999 DZ BKN015 28/24 A2998=
201404101900 METAR MRLM 101900Z 10003KT 9999 SCT030 30/23 A2995 REDZ=
201404102000 METAR MRLM 102000Z 06003KT 9999 SCT030 30/24 A2991=
201404102100 METAR MRLM 102100Z 04010KT 9999 SCT030 29/24 A2991=
201404102200 METAR MRLM 102200Z 04007KT 9999 SCT030 30/24 A2990=
201404102300 METAR MRLM 102300Z 06009KT 9999 SCT025 29/24 A2991=
201404110000 METAR MRLM 110000Z 06008KT 9999 BKN020 28/24 A2992=
201404110100 METAR MRLM NIL=
201404110200 METAR MRLM NIL=
201404110300 METAR MRLM NIL=
201404110400 METAR MRLM NIL=
201404110500 METAR MRLM NIL=
201404110600 METAR MRLM NIL=
201404110700 METAR MRLM NIL=
201404110800 METAR MRLM NIL=
201404110900 METAR MRLM NIL=
201404111000 METAR MRLM NIL=
201404111100 METAR MRLM NIL=
201404111200 METAR MRLM 111200Z 26005KT 9999 DZ OVC006 23/23 A2993=
201404111300 METAR MRLM 111300Z 23007KT 9999 -DZ FEW004 OVC007 24/23 A2995=
201404111400 METAR MRLM 111400Z 25008KT 9999 -DZ FEW004 OVC007 24/23 A2997=
201404111436 METAR MRLM 111436Z 22005KT 5000 +RA OVC006 24/23 A2998=
201404111500 METAR MRLM 111500Z 21006KT 5000 +RA FEW004 OVC007 24/23 A2997=
201404111600 METAR MRLM 111600Z 24005KT 8000 RA FEW004 BKN007 24/23 A2997=
201404111700 METAR MRLM 111700Z 22005KT 9999 DZ VCSH BKN007 24/24 A2996=
201404111800 METAR MRLM 111800Z 25005KT 9999 BKN010 25/23 A2994 REDZ=
201404111900 METAR MRLM 111900Z 24003KT 9999 -DZ BKN010 26/23 A2992=
201404112000 METAR MRLM 112000Z 23003KT 9999 SCT015 BKN110 27/24 A2989=
201404112100 METAR MRLM 112100Z 23004KT 9999 FEW020 BKN120 27/24 A2988=
201404112200 METAR MRLM 112200Z 14002KT 9999 -DZ BKN010 SCT090 23/22 A2989 RERA=
201404112300 METAR MRLM 112300Z 31003KT 9999 -DZ SCT010 SCT090 23/22 A2989=
201404120000 METAR MRLM 120000Z 25006KT 9999 -DZ VCSH BKN007 22/21 A2990=
201404120100 METAR MRLM NIL=
201404120200 METAR MRLM NIL=
201404120300 METAR MRLM NIL=
201404120400 METAR MRLM NIL=
201404120500 METAR MRLM NIL=
201404120600 METAR MRLM NIL=
201404120700 METAR MRLM NIL=
201404120800 METAR MRLM NIL=
201404120900 METAR MRLM NIL=
201404121000 METAR MRLM NIL=
201404121100 METAR MRLM NIL=
201404121200 METAR MRLM 121200Z 24003KT 9999 BKN025 23/22 A2993=
201404121300 METAR MRLM 121300Z 24003KT 9999 BKN020 23/22 A2994=
201404121400 METAR MRLM NIL=
201404121500 METAR MRLM 121500Z DZ VCSH 8000 SCT012 SCT090 24/22 A2997 RERA=
201404121600 METAR MRLM 121600Z 24006KT 9999 FEW020 BKN080 27/23 A2997 REDZ=
201404121700 METAR MRLM 121700Z 05003KT 9999 SCT032 SCT090 29/23 A2996=
201404121800 METAR MRLM 121800Z 08005KT 9999 SCT025 SCT090 29/23 A2992=
201404121900 METAR MRLM 121900Z 10006KT 9999 BKN028 29/23 A2990=
201404122000 METAR MRLM 122000Z 10010KT 9999 BKN030 30/23 A2988=
201404122100 METAR MRLM 122100Z 21003KT 9999 BKN025 28/24 A29860=
201404122200 METAR MRLM 122200Z 18002KT 9999 BKN020 27/23 A2985=
201404122300 METAR MRLM 122300Z 19002KT 9999 FEW020 SCT270 27/23 A2986=
201404122359 METAR MRLM 130000Z 20002KT 9999 FEW015 SCT270 26/22 A2986=
201404130000 METAR MRLM 130000Z 20002KT 9999 FEW015 SCT270 26/22 A2986=
201404130100 METAR MRLM NIL=
201404130200 METAR MRLM NIL=
201404130300 METAR MRLM NIL=
201404130400 METAR MRLM NIL=
201404130500 METAR MRLM NIL=
201404130600 METAR MRLM NIL=
201404130700 METAR MRLM NIL=
201404130800 METAR MRLM NIL=
201404130900 METAR MRLM NIL=
201404131000 METAR MRLM NIL=
201404131100 METAR MRLM NIL=
201404131200 METAR MRLM 131200Z 24007KT 9999 DZ FEW015 BKN030 23/19 A2989=
201404131300 METAR MRLM 131300Z 24005KT 9999 BKN030 FEW090 23/21 A2991 REDZ=
201404131400 METAR MRLM 131400Z 24006KT 9999 SCT035 SCT080 24/21 A2993=
201404131500 METAR MRLM 131500Z 24002KT CAVOK 29/21 A2993=
201404131600 METAR MRLM 131600Z 09003KT 9999 FEW040 SCT300 30/21 A2992=
201404131700 METAR MRLM 131700Z 06009KT 9999 FEW040 BKN300 30/21 A2990=
201404131800 METAR MRLM 131800Z 04008KT 9999 FEW035 BKN300 30/23 A2988=
201404131900 METAR MRLM 131900Z 04009KT 9999 FEW035 SCT080 30/22 A2985=
201404132000 METAR MRLM 132000Z 04010KT 9999 FEW035 BKN080 30/23 A2983=
201404132100 METAR MRLM 132100Z 05011KT 9999 FEW025 SCT070 28/24 A2983=
201404132200 METAR MRLM 132200Z 03007KT 9999 FEW025 SCT080 28/23 A2982=
201404132300 METAR MRLM 132300Z 04005KT 9999 FEW025 SCT070 27/22 A2984=
201404132356 METAR MRLM 140000Z 24001KT 9999 FEW015 SCT070 26/23 A2986=
201404140000 METAR MRLM 140000Z 24001KT 9999 FEW015 SCT070 26/23 A2986=
201404140100 METAR MRLM NIL=
201404140200 METAR MRLM NIL=
201404140300 METAR MRLM NIL=
201404140400 METAR MRLM NIL=
201404140500 METAR MRLM NIL=
201404140600 METAR MRLM NIL=
201404140700 METAR MRLM NIL=
201404140800 METAR MRLM NIL=
201404140900 METAR MRLM NIL=
201404141000 METAR MRLM NIL=
201404141100 METAR MRLM NIL=
201404141200 METAR MRLM 141200Z 23002KT 9999 DZ BKN007 24/23 A2987=
201404141300 METAR MRLM 141300Z 23004KT 9999 -DZ BKN007 SCT080 24/23 A2988=
201404141400 METAR MRLM 141400Z 23002KT 8000 DZ BKN007 24/23 A2992=
201404141500 METAR MRLM 141500Z 23004KT 9999 -DZ SCT010 BKN090 24/23 A2992=
201404141600 METAR MRLM 141600Z 23005KT 9999 SCT010 BKN100 25/23 A2990=
201404141700 METAR MRLM 141700Z 32004KT 9999 FEW020 BKN110 27/24 A2990=
201404141800 METAR MRLM 141800Z 36005KT 9999 FEW020 BKN120 28/24 A2988=
201404141900 METAR MRLM 141900Z 01007KT 9999 FEW020 BKN120 28/23 A2985=
201404142000 METAR MRLM 142000Z 31004KT 9999 FEW025 BKN130 29/23 A2981=
201404142100 METAR MRLM 142100Z 28003KT 9999 FEW030 BKN130 29/23 A2979=
201404142200 METAR MRLM 142200Z 04004KT 9999 FEW030 SCT130 SCT250 28/22 A2979=
201404142300 METAR MRLM 142300Z 29002KT 9999 FEW020 BKN250 27/23 A2980=
201404150000 METAR MRLM 150000Z 00000KT 9999 FEW015 BKN130 26/24 A2982=
201404150100 METAR MRLM NIL=
201404150200 METAR MRLM NIL=
201404150300 METAR MRLM NIL=
201404150400 METAR MRLM NIL=
201404150500 METAR MRLM NIL=
201404150600 METAR MRLM NIL=
201404150700 METAR MRLM NIL=
201404150800 METAR MRLM NIL=
201404150900 METAR MRLM NIL=
201404151100 METAR MRLM NIL=
201404151200 METAR MRLM 151200Z 25002KT CAVOK 23/23 A2984=
201404151300 METAR MRLM 151300Z 25003KT 9999 FEW007 BKN240 24/23 A2986=
201404151400 METAR MRLM 151400Z 00000KT 9999 SCT015 SCT240 26/23 A2988=
201404151500 METAR MRLM 151500Z 16002KT 9999 BKN020 27/24 A2990=
201404151600 METAR MRLM 151600Z 11007KT 9999 -DZ OVC010 27/24 A2990=
201404151700 METAR MRLM 151700Z 11008KT 9999 BKN020 28/24 A2988=
201404151800 METAR MRLM 151800Z 13006KT 9999 BKN020 28/24 A2987=
201404151900 METAR MRLM 151900Z 13006KT 9999 FEW020 BKN130 28/24 A2984=
201404152000 METAR MRLM 152000Z 13005KT 9999 FEW025 BKN130 28/24 A2981=
201404152100 METAR MRLM 152100Z 13005KT 9999 SCT025 BKN120 28/23 A2980=
201404152200 METAR MRLM 152200Z 13008KT 9999 BKN020 27/24 A2981=
201404152300 METAR MRLM 152300Z 13008KT 9999 DZ BKN015 27/24 A2983=
201404160000 METAR MRLM 160000Z 10008KT 8000 DZ BKN007 25/24 A2985=
201404160100 METAR MRLM NIL=
201404160200 METAR MRLM NIL=
201404160300 METAR MRLM NIL=
201404160400 METAR MRLM NIL=
201404160500 METAR MRLM NIL=
201404160600 METAR MRLM NIL=
201404160700 METAR MRLM NIL=
201404160800 METAR MRLM NIL=
201404160900 METAR MRLM NIL=
201404161000 METAR MRLM NIL=
201404161100 METAR MRLM NIL=
201404161200 METAR MRLM 161200Z 23004KT 9999 FEW015 BKN070 24/24 A2989=
201404161300 METAR MRLM 161300Z 24003KT 9999 FEW015 BKN070 26/24 A2991=
201404161400 METAR MRLM 161400Z 23003KT 9999 SCT023 SCT070 29/24 A2993=
201404161500 METAR MRLM 161500Z 12003KT 9999 BKN025 30/24 A2994=
201404161600 METAR MRLM 161600Z 06003KT 9999 SCT025 SCT280 29/24 A2995=
201404161700 METAR MRLM 161700Z 07005KT 9999 FEW028 BKN280 30/24 A2993=
201404161800 METAR MRLM 16100Z 08006KT 9999 FEW028 BKN280 30/24 A2989=
201404161801 METAR MRLM 16100Z 08006KT 9999 FEW028 BKN280 30/24 A2989=
201404161900 METAR MRLM 161900Z 09007KT 9999 FEW030 BKN280 30/24 A2989 NOSIG=
201404162000 METAR MRLM 162000Z 07008KT 9999 SCT025 BKN280 30/24 A2984=
201404162100 METAR MRLM 162100Z 23007KT 99999 BKN030 29/23 A2983=
201404162200 METAR MRLM 162200Z 06006KT 9999 BKN028 SCT280 29/23 A2982=
201404162258 METAR MRLM 162258Z 07006KT 9999 SCT025 SCT280 28/23 A2983=
201404162300 METAR MRLM 07006KT 9999 SCT025 SCT280 28/23 A2983=
201404162356 METAR MRLM 170000Z 09005KT 9999 SCT028 SCT270 28/23 A2984=
201404170000 METAR MRLM 170000Z 09005KT 9999 SCT028 SCT270 28/23 A2984=
201404170100 METAR MRLM NIL=
201404170200 METAR MRLM NIL=
201404170300 METAR MRLM NIL=
201404170400 METAR MRLM NIL=
201404170500 METAR MRLM NIL=
201404170600 METAR MRLM NIL=
201404170700 METAR MRLM NIL=
201404170800 METAR MRLM NIL=
201404170900 METAR MRLM NIL=
201404171000 METAR MRLM NIL=
201404171100 METAR MRLM NIL=
201404171200 METAR MRLM 171200Z 25003KT 9999 OVC015 23/23 A2990=
201404171300 METAR MRLM 171300Z 24004KT 9999 BKN015 24/23 A2991=
201404171400 METAR MRLM 171400Z 15002KT 9999 BKN025 29/23 A2993=
201404171500 METAR MRLM 171500Z 12004KT 9999 BKN025 29/23 A2994=
201404171600 METAR MRLM 171600Z 10010KT 9999 BKN030 30/23 A2994=
201404171700 METAR MRLM 171700Z 08010KT 9999 BKN035 30/23 A2993=
201404171800 METAR MRLM 171800Z 09010KT 9999 BKN035 30/23 A2992=
201404171900 METAR MRLM 171900Z 08008KT 9999 OVC030 29/23 A2990=
201404172000 METAR MRLM 172000Z 07009KT 9999 BKN035 29/22 A2987=
201404172100 METAR MRLM 172100Z 06007KT 9999 BKN035 SCT090 29/21 A2986=
201404172200 METAR MRLM 172200Z 08006KT 9999 BKN033 SCT090 28/22 A2985=
201404172300 METAR MRLM 172300Z 09005KT 9999 BKN035 28/21 A2986=
201404172355 METAR MRLM 180000Z 26004KT 9999 BKN015 26/23 A2986=
201404180000 METAR MRLM 180000Z 26004KT 9999 BKN015 26/23 A2986=
201404180100 METAR MRLM NIL=
201404180200 METAR MRLM NIL=
201404180300 METAR MRLM NIL=
201404180400 METAR MRLM NIL=
201404180500 METAR MRLM NIL=
201404180600 METAR MRLM NIL=
201404180700 METAR MRLM NIL=
201404180800 METAR MRLM NIL=
201404180900 METAR MRLM NIL=
201404181000 METAR MRLM NIL=
201404181100 METAR MRLM NIL=
201404181200 METAR MRLM 181200Z 25003KT 9999 SCT007 SCT090 23/22 A2986=
201404181300 METAR MRLM 181300Z 22003KT 9999 BKN007 SCT090 23/22 A2989=
201404181320 METAR MRLM 181320Z 16004KT 6000 +DZ OVC007 24/23 A2991=
201404181400 METAR MRLM 181400Z 12006KT 8000 DZ BKN007 24/23 A2991=
201404181500 METAR MRLM 181500Z 05005KT 8000 DZ BKN010 25/22 A2993=
201404181600 METAR MRLM 181600Z 17002KT 6000 +DZ BKN007 24/23 A2993=
201404181700 METAR MRLM 181700Z 29005KT 9999 -DZ BKN010 25/23 A2991=
201404181800 METAR MRLM 181800Z 16008KT 4000 +RA OVC007 24/23 A2991=
201404181900 METAR MRLM 181900Z 16005KT 4000 DZ OVC007 24/23 A2989 RERA=
201404182000 METAR MRLM 182000Z 23004KT 9999 DZ BKN010 25/24 A2987=
201404182100 METAR MRLM 182100Z 08002KT 9999 -DZ BKN015 25/22 A2986=
201404182200 METAR MRLM 182200Z 21003KT 9999 BKN015 SCT100 25/22 A2985=
201404182300 METAR MRLM 182300Z 21003KT 9999 BKN010 25/23 A2986=
201404190000 METAR MRLM 190000Z 20002KT 8000 DZ BKN007 24/23 A2987=
201404190100 METAR MRLM NIL=
201404190200 METAR MRLM NIL=
201404190300 METAR MRLM NIL=
201404190400 METAR MRLM NIL=
201404190500 METAR MRLM NIL=
201404190600 METAR MRLM NIL=
201404190700 METAR MRLM NIL=
201404190800 METAR MRLM NIL=
201404190900 METAR MRLM NIL=
201404191000 METAR MRLM NIL=
201404191100 METAR MRLM NIL=
201404191200 METAR MRLM 191200Z 25004KT CAVOK 23/22 A2991=
201404191300 METAR MRLM 191300Z 24004KT 9999 FEW015 SCT130 25/22 A2992=
201404191400 METAR MRLM 191400Z 21002KT 9999 FEW025 SCT130 29/23 A2994=
201404191500 METAR MRLM 191500Z 09002KT 9999 SCT030 29/22 A2994=
201404191600 METAR MRLM 191600Z 06006KT 9999 FEW035 30/22 A2993=
201404191700 METAR MRLM 191700Z 06012KT 9999 FEW030 SCT130 29/24 A2993=
201404191800 METAR MRLM 191800Z 08007KT 9999 FEW020 BKN130 28/24 A2991=
201404191900 METAR MRLM 191900Z 09005KT 9999 FEW030 BKN140 29/23 A2988=
201404192000 METAR MRLM 192000Z 05005KT 9999 FEW030 BKN140 30/23 A2986=
201404192100 METAR MRLM 192100Z 06006KT 9999 SCT030 SCT130 29/24 A2986=
201404192200 METAR MRLM 192200Z 07005KT 9999 BKN025 28/24 A2985=
201404192300 METAR MRLM 192300Z 06004KT 9999 SCT025 SCT120 28/23 A2986=
201404200000 METAR MRLM 200000Z 04003KT 9999 BKN020 28/24 A2988=
201404200100 METAR MRLM NIL=
201404200200 METAR MRLM NIL=
201404200300 METAR MRLM NIL=
201404200400 METAR MRLM NIL=
201404200500 METAR MRLM NIL=
201404200600 METAR MRLM NIL=
201404200700 METAR MRLM NIL=
201404200800 METAR MRLM NIL=
201404200900 METAR MRLM NIL=
201404201000 METAR MRLM NIL=
201404201100 METAR MRLM NIL=
201404201200 METAR MRLM 201200Z 24005KT 9999 BKN015 SCT08023/23 A2995=
201404201300 METAR MRLM 201300Z 23004KT 9999 SCT015 SCT080 24/23 A2996=
201404201400 METAR MRLM 201400Z 27006KT 9999 FEW020 BKN090 27/23 A2997=
201404201500 METAR MRLM 201500Z 28003KT 9999 FEW035 SCT150 30/23 A2997=
201404201600 METAR MRLM 201600Z 05004KT 9999 SCT032 BKN140 30/24 A2996=
201404201700 METAR MRLM 201700Z 05007KT 9999 SCT035 BKN080 30/23 A2995=
201404201800 METAR MRLM 201800Z 05006KT 9999 FEW030 BKN090 30/24 A2993=
201404201900 METAR MRLM 201900Z 07013KT 9999 FEW025 BKN070 28/23 A2991=
201404202000 METAR MRLM 20200Z 05010KT 9999 +DZ FEW022 BKN070 28/23 A2989=
201404202002 METAR MRLM 20200Z 05010KT 9999 +DZ FEW022 BKN070 28/23 A2989=
201404202100 METAR MRLM 202100Z 04010KT 9999 FEW025 BKN070 28/23 A2988 REDZ=
201404202200 METAR MRLM 202200Z 0908KT 9999 FEW015 BKN070 27/24 A2989=
201404202300 METAR MRLM 202300Z 30001KT 9999 SCT020 SCT070 27/23 A2989=
201404202357 METAR MRLM 210000Z 26001KT 9999 DZ FEW013 SCT025 26/24 A2991=
201404210000 METAR MRLM 210000Z 26001KT 9999 DZ FEW013 SCT025 26/24 A2991=
201404210100 METAR MRLM NIL=
201404210200 METAR MRLM NIL=
201404210300 METAR MRLM NIL=
201404210400 METAR MRLM NIL=
201404210500 METAR MRLM NIL=
201404210600 METAR MRLM NIL=
201404210700 METAR MRLM NIL=
201404210800 METAR MRLM NIL=
201404210900 METAR MRLM NIL=
201404211000 METAR MRLM NIL=
201404211100 METAR MRLM NIL=
201404211200 METAR MRLM 211200Z 23003KT 9999 SCT015 SCT025 23/23 A2993=
201404211300 METAR MRLM 211300Z 21002KT 9999 RA SCT015 SCT025 24/23 A2995=
201404211400 METAR MRLM NIL=
201404211500 METAR MRLM 211500Z 28005KT 9999 BKN015 27/23 A2996=
201404211600 METAR MRLM 211600Z 23005KT 8000 +DZ FEW006 BKN015 25/24 A2996=
201404211700 METAR MRLM 211700Z 24005KT 9999 SCT015 SCT090 27/24 A2994=
201404211800 METAR MRLM 211800Z 30003KT 9999 SCT025 SCT110 29/23 A2992=
201404211900 METAR MRLM 211900Z 33007KT 9999 SCT025TCU SCT100 30/24 A2989=
201404212000 METAR MRLM 212000Z 30004KT 9999 FEW035 BKN090 30/24 A2987=
201404212100 METAR MRLM 212100Z 01004KT 9999 FEW035 BKN090 30/23 A2987=
201404212200 METAR MRLM 212200Z 04012KT 9999 FEW015 BKN080 27/24 A2987=
201404212300 METAR MRLM 212300Z 30002KT 9999 FEW015 BKN080 27/23 A2986=
201404212353 METAR MRLM 220000Z 33002KT CAVOK 26/24 A2986=
201404220000 METAR MRLM 220000Z 33002KT CAVOK 26/24 A2986=
201404220100 METAR MRLM NIL=
201404220200 METAR MRLM NIL=
201404220300 METAR MRLM NIL=
201404220400 METAR MRLM NIL=
201404220500 METAR MRLM NIL=
201404220600 METAR MRLM NIL=
201404220700 METAR MRLM NIL=
201404220800 METAR MRLM NIL=
201404220900 METAR MRLM NIL=
201404221000 METAR MRLM NIL=
201404221100 METAR MRLM NIL=
201404221200 METAR MRLM 221200Z 29002KT 9999 SCT007 BKN080 24/23 A2988=
201404221300 METAR MRLM 221300Z 23002KT 9999 BKN007 SCT080 24/23 A2985=
201404221400 METAR MRLM 221400Z 26002KT 9999 -DZ BKN007 SCT080 24/23 A2991=
201404221500 METAR MRLM 221500Z 00000KT 4000 RA OVC006 25/24 A2993=
201404221600 METAR MRLM 221600Z 30002KT 9999 -DZ BKN007 SCT080 25/24 A2992 RERA=
201404221700 METAR MRLM 221700Z 29004KT 9999 DZ BKN007 26/24 A2991=
201404221800 METAR MRLM 221800Z 26004KT 9999 SCT015 SCT100 28/24 A2989 REDZ=
201404221900 METAR MRLM 221900Z 15006KT 9999 BKN020 SCT110 28/24 A2987=
201404222000 METAR MRLM 222000Z 14005KT 9999 SCT020 BKN120 28/23 A2984=
201404222100 METAR MRLM 222100Z 14004KT 9999 FEW025 BKN130 28/23 A2983=
201404222200 METAR MRLM 222200Z 08002KT 9999 SCT025 BKN130 28/23 A2982=
201404222300 METAR MRLM 222300Z 22002KT 9999 FEW0015 BKN120 27/24 A2983=
201404230000 METAR MRLM 230000Z 19002KT CAVOK 26/24 A2983=
201404230100 METAR MRLM NIL=
201404230200 METAR MRLM NIL=
201404230300 METAR MRLM NIL=
201404230400 METAR MRLM NIL=
201404230500 METAR MRLM NIL=
201404230600 METAR MRLM NIL=
201404230700 METAR MRLM NIL=
201404230800 METAR MRLM NIL=
201404230900 METAR MRLM NIL=
201404231000 METAR MRLM NIL=
201404231100 METAR MRLM NIL=
201404231200 METAR MRLM 231200Z 25005KT 9999 FEW010 SCT120 SCT250 23/21 A2989=
201404231300 METAR MRLM 231300Z 25004KT 9999 FEW010 BKN250 24/22 A2992=
201404231400 METAR MRLM 231400Z 25003KT 9999 FEW020 OVC250 27/23 A2994=
201404231500 METAR MRLM 231500Z 06002KT 9999 FEW030 BKN260 30/23 A2994=
201404231600 METAR MRLM 231600Z 08004KT 9999 FEW030 SCT140 SCT260 29/24 A2993=
201404231700 METAR MRLM 231700Z 09004KT 9999 FEW030 SCT150 29/24 A2992=
201404231800 METAR MRLM 231800Z 08005KT 9999 FEW030 SCT150 30/24 A2990=
201404231900 METAR MRLM 231900Z 07006KT 9999 FEW030 BKN150 30/25 A2987=
201404232000 METAR MRLM 232000Z 09007KT 9999 SCT030 SCT140 30/24 A2985=
201404232100 METAR MRLM 232100Z 10006KT 9999 SCT025 29/24 A2984=
201404232200 METAR MRLM 232200Z 07009KT 9999 SCT020 SCT130 29/24 A2983=
201404232300 METAR MRLM 232300Z 06010KT 9999 DZ BKN015 27/25 A2984=
201404240000 METAR MRLM 240000Z 06004KT 9999 SCT015 SCT120 27/24 A2985 REDZ=
201404240100 METAR MRLM NIL=
201404240200 METAR MRLM NIL=
201404240300 METAR MRLM NIL=
201404240400 METAR MRLM NIL=
201404240500 METAR MRLM NIL=
201404240600 METAR MRLM NIL=
201404240700 METAR MRLM NIL=
201404240800 METAR MRLM NIL=
201404240900 METAR MRLM NIL=
201404241000 METAR MRLM NIL=
201404241100 METAR MRLM NIL=
201404241200 METAR MRLM 241200Z 25004KT CAVOK 24/23 A2990=
201404241300 METAR MRLM 241300Z 22001KT CAVOK 26/24 A2992=
201404241400 METAR MRLM 241400Z 13003KT CAVOK 28/24 A2993=
201404241500 METAR MRLM 241500Z 11004KT CAVOK 28/23 A2994=
201404241600 METAR MRLM 241600Z 11008KT CAVOK 30/23 A2993=
201404241700 METAR MRLM 241700Z 10010KT 9999 FEW035 BKN0280 30/23 A2992=
201404241800 METAR MRLM 241800Z 10006KT 9999 FEW030 SCT280 30/24 A2989=
201404241900 METAR MRLM 241900Z 06007KT 9999 FEW030 BKN280 30/23 A2986=
201404242000 METAR MRLM 242000Z 05007KT 9999 FEW028 BKN280 30/24 A2984=
201404242059 METAR MRLM 242059Z 06007KT 9999 FEW025 BKN270 30/24 A2983=
201404242100 METAR MRLM 06007KT 9999 FEW025 BKN270 30/24 A2983=
201404242200 METAR MRLM 242200Z 05007KT 9999 BKN025 29/24 A2983=
201404242300 METAR MRLM 242300Z 03005KT 9999 BKN025 29/24 A2984=
201404242354 METAR MRLM 250000Z 04004KT 9999 BKN023 29/24 A2985=
201404250000 METAR MRLM 250000Z 04004KT 9999 BKN023 29/24 A2985=
201404250100 METAR MRLM NIL=
201404250200 METAR MRLM NIL=
201404250300 METAR MRLM NIL=
201404250400 METAR MRLM NIL=
201404250500 METAR MRLM NIL=
201404250600 METAR MRLM NIL=
201404250700 METAR MRLM NIL=
201404250800 METAR MRLM NIL=
201404250900 METAR MRLM NIL=
201404251000 METAR MRLM NIL=
201404251100 METAR MRLM NIL=
201404251200 METAR MRLM 251200Z 29005KT 9999 BKN010 23/22 A2990=
201404251300 METAR MRLM 251300Z 25004KT 9999 DZ BKN010 24/23 A2993=
201404251400 METAR MRLM 251400Z 25005KT 9999 BKN010 24/24 A2994 REDZ=
201404251500 METAR MRLM 251500Z 26005KT 9999 FEW035 BKN080 26/24 A2993=
201404251600 METAR MRLM 251600Z 2603KT 9999 FEW022 BKN260 29/25 A2992=
201404251700 METAR MRLM 251700Z 02011KT 9999 BKN020 29/25 2991=
201404251754 METAR MRLM 251754Z 02010KT 9999 DZ SCT020 SCT090 28/25 A2989=
201404251800 METAR MRLM 02010KT 9999 DZ SCT020 SCT090 28/25 A2989=
201404251855 METAR MRLM 251855Z 01007KT 9999 FEW025 BKN080 29/24 A2987 REDZ=
201404251900 METAR MRLM 01007KT 9999 FEW025 BKN080 29/24 A2987 REDZ=
201404252000 METAR MRLM 252000Z 02007KT 9999 FEW035 BKN090 30/23 A2984=
201404252100 METAR MRLM 252100Z 03005KT 9999 FEW035 BKN090 30/23 A2983=
201404252200 METAR MRLM 252200Z 02007KT 9999 FEW035 BKN270 30/23 A2981=
201404252300 METAR MRLM 252300Z 34004KT 9999 FEW035 BKN270 29/23 A2983=
201404252357 METAR MRLM 260000Z 24003KT CAVOK 28/23 A2985=
201404260000 METAR MRLM 260000Z 24003KT CAVOK 28/23 A2985=
201404260100 METAR MRLM NIL=
201404260200 METAR MRLM NIL=
201404260300 METAR MRLM NIL=
201404260400 METAR MRLM NIL=
201404260500 METAR MRLM NIL=
201404260600 METAR MRLM NIL=
201404260700 METAR MRLM NIL=
201404260800 METAR MRLM NIL=
201404260900 METAR MRLM NIL=
201404261000 METAR MRLM NIL=
201404261100 METAR MRLM NIL=
201404261200 METAR MRLM 261200Z 23004KT 9999 DZ OVC006 23/23 A2986=
201404261300 METAR MRLM 261300Z 25004KT 9999 SCT010 SCT090 24/23 A2987 REDZ=
201404261400 METAR MRLM 261400Z 25007KT 9999 FEW015 BKN120 26/24 A2989=
201404261500 METAR MRLM 261500Z 25003KT CAVOK 28/24 A2990=
201404261600 METAR MRLM 261600Z 07003KT 9999 SCT020 BKN130 28/24 A2991=
201404261700 METAR MRLM 261700Z 08005KT 9999 FEW030 SCT130 29/23 A2990=
201404261800 METAR MRLM 261800Z 09003KT 9999 FEW030 BKN260 30/24 A2985=
201404261900 METAR MRLM 261900Z 08006KT CAVOK 31/24 A2984=
201404262000 METAR MRLM 262000Z 05008KT CAVOK 31/25 A2983=
201404262100 METAR MRLM 262100Z 04008KT 9999 FEW030 BKN250 30/24 A2981=
201404262200 METAR MRLM 262200Z 05007KT 9999 BKN030 30/25 A2981=
201404262300 METAR MRLM 262300Z 04008KT 9999 SCT020 SCT240 29/25 A2982=
201404270000 METAR MRLM 270000Z 02004KT 9999 FEW015 BKN240 28/25 A2984=
201404270100 METAR MRLM NIL=
201404270200 METAR MRLM NIL=
201404270300 METAR MRLM NIL=
201404270400 METAR MRLM NIL=
201404270500 METAR MRLM NIL=
201404270600 METAR MRLM NIL=
201404270700 METAR MRLM NIL=
201404270800 METAR MRLM NIL=
201404270900 METAR MRLM NIL=
201404271000 METAR MRLM NIL=
201404271100 METAR MRLM NIL=
201404271200 METAR MRLM 271200Z 21002KT 9999 DZ BKN007 SCT080 24/24 A2986=
201404271300 METAR MRLM 271300Z 27004KT 9999 -DZ BKN007 24/24 A2986=
201404271400 METAR MRLM 271400Z 00000KT 9999 BKN007 25/24 A2988=
201404271500 METAR MRLM 271500Z 31003KT 9999 FEW006 SCT010 BKN100 26/24 A2987=
201404271600 METAR MRLM 271600Z 32004KT 9999 SCT010 BKN110 26/24 A2989=
201404271700 METAR MRLM 271700Z 30002KT 9999 DZ BKN007 25/24 A2989=
201404271800 METAR MRLM 271800Z 31004KT 9999 DZ BKN007 25/24 A2986=
201404271900 METAR MRLM 271900Z 31004KT 9999 SCT010 BKN110 26/25 A2982=
201404272000 METAR MRLM 272000Z 30004KT 9999 SCT015 BKN120 27/25 A2981=
201404272100 METAR MRLM 272100Z 29005KT CAVOK 28/25 A2978=
201404272200 METAR MRLM 272200Z 32004KT CAVOK 28/25 A2977=
201404272300 METAR MRLM 272300Z 33005KT 9999 FEW020 SCT130 SCT230 28/24 A2978=
201404280000 METAR MRLM 280000Z 00000KT 9999 SCT015 SCT120 27/24 A2981=
201404280100 METAR MRLM NIL=
201404280200 METAR MRLM NIL=
201404280300 METAR MRLM NIL=
201404280400 METAR MRLM NIL=
201404280500 METAR MRLM NIL=
201404280600 METAR MRLM NIL=
201404280700 METAR MRLM NIL=
201404280800 METAR MRLM NIL=
201404280900 METAR MRLM NIL=
201404281000 METAR MRLM NIL=
201404281100 METAR MRLM NIL=
201404281200 METAR MRLM 281200Z 25005KT 9999 TS FEW010CB BKN025 24/23 A2984=
201404281254 METAR MRLM 281254Z 28004KT 9999 FEW015 BKN025 24/24 A2986 RETS=
201404281300 METAR MRLM 28004KT 9999 FEW015 BKN025 24/24 A2986 RETS=
201404281400 METAR MRLM 281400Z 23005KT 9999 BKN040 26/24 A2987=
201404281500 METAR MRLM 281500Z 07002KT 9999 BKN035 27/24=
201404281600 METAR MRLM 281600Z 07006KT 9999 SCT020 SCT090 29/25 A2987=
201404281700 METAR MRLM 281700Z 03006KT 9999 SCT020 SCT110 29/25 A2985=
201404281800 METAR MRLM 281800Z 02008KT 9999 SCT020 SCT090 29/25 A2984=
201404281900 METAR MRLM 281900Z 04005KT 9999 SCT020 SCT270 29/25 A2980=
201404282000 METAR MRLM 282000Z 03006KT 9999 BKN023 30/25 A2977=
201404282100 METAR MRLM 282100Z 09007KT 9999 SCT018 SCT120 29/25 A2970=
201404282200 METAR MRLM 282200Z 09007KT 9999 SCT018 SCT110 29/25 A2979=
201404282300 METAR MRLM 282300Z 12006KT 9999 BKN015 28/25 A2976=
201404282353 METAR MRLM 290000Z 14009KT 9999 BKN015 28/25 A2977=
201404290000 METAR MRLM 290000Z 14009KT 9999 BKN015 28/25 A2977=
201404290100 METAR MRLM NIL=
201404290200 METAR MRLM NIL=
201404290300 METAR MRLM NIL=
201404290400 METAR MRLM NIL=
201404290500 METAR MRLM NIL=
201404290600 METAR MRLM NIL=
201404290700 METAR MRLM NIL=
201404290800 METAR MRLM NIL=
201404290900 METAR MRLM NIL=
201404291000 METAR MRLM NIL=
201404291100 METAR MRLM NIL=
201404291200 METAR MRLM 291200Z 30003KT 9999 +DZ FEW010 SCT090 SCT140 25/24 A2982=
201404291300 METAR MRLM 291300Z 31002KT CAVOK 25/25 A29823 REDZ=
201404291400 METAR MRLM 291400Z 29004KT 9999 FEW006 BKN140 26/25 A2983=
201404291500 METAR MRLM 291500Z 26001KT 9999 FEW025 BKN090 27/25 A2985=
201404291600 METAR MRLM 291600Z 27002KT 9999 BKN025 29/25 A2985=
201404291700 METAR MRLM 291700Z 04008KT 9999 BKN025 29/24 A2985=
201404291800 METAR MRLM 291800Z 05008KT 9999 OVC020 29/25 A2984=
201404291900 METAR MRLM 291900Z 07009KT 9999 FEW008 BKN020 27/24 A2983=
201404292000 METAR MRLM 292000Z 03004KT 9999 BKN020 28/24 A2981=
201404292100 METAR MRLM 292100Z 27003KT 9999 BKN020 27/25 A2978=
201404292200 METAR MRLM 292200Z 27003KT 9999 BKN020 28/25 A2978=
201404292300 METAR MRLM 292300Z 23002KT 9999 OVC020 28/25 A2979=
201404292354 METAR MRLM 300000Z 31002KT 9999 SCT025 SCT090 27/25 A2980=
201404300000 METAR MRLM 300000Z 31002KT 9999 SCT025 SCT090 27/25 A2980=
201404300100 METAR MRLM NIL=
201404300200 METAR MRLM NIL=
201404300300 METAR MRLM NIL=
201404300400 METAR MRLM NIL=
201404300500 METAR MRLM NIL=
201404300600 METAR MRLM NIL=
201404300700 METAR MRLM NIL=
201404300800 METAR MRLM NIL=
201404300900 METAR MRLM NIL=
201404301000 METAR MRLM NIL=
201404301100 METAR MRLM NIL=
201404301200 METAR MRLM 301200Z 29002KT CAVOK 24/23 A2985=
201404301300 METAR MRLM 301300Z 25005KT CAVOK 26/23 A2987=
201404301400 METAR MRLM 301400Z 30003KT 9999 FEW025 BKN130 29/25 A2989=
201404301500 METAR MRLM 301500Z 31003KT 9999 FEW030 BKN130 30/24 A2990=
201404301600 METAR MRLM 301600Z 03008KT 9999 SCT030 SCT140 30/24 A2988=
201404301700 METAR MRLM 301700Z 03009KT 9999 FEW030 SCT140 SCT250 30/25 A2988=
201404301800 METAR MRLM 301800Z 03009KT 9999 FEW020 BKN130 30/25 A2987=
201404301900 METAR MRLM 301900Z 04007KT 9999 FEW020 SCT130 SCT250 30/25 A2985=
201404302000 METAR MRLM 302000Z 05007KT 9999 FEW020 BKN250 30/25 A2982=
201404302100 METAR MRLM 302100Z 07005KT 9999 FEW020 BKN120 29/25 A2980=
201404302200 METAR MRLM 302200Z 09004KT 9999 FEW020 BKN130 29/24 A2979=
201404302300 METAR MRLM 302300Z 03002KT 9999 FEW020 BKN130 29/24 A2981=
201405010000 METAR MRLM 010000Z 05002KT CAVOK 28/24 A2982=
201405010100 METAR MRLM NIL=
201405010200 METAR MRLM NIL=
201405010300 METAR MRLM NIL=
201405010400 METAR MRLM NIL=
201405010500 METAR MRLM NIL=
201405010600 METAR MRLM NIL=
201405010700 METAR MRLM NIL=
201405010800 METAR MRLM NIL=
201405010900 METAR MRLM NIL=
201405011000 METAR MRLM NIL=
201405011100 METAR MRLM NIL=
201405011200 METAR MRLM 011200Z 00000KT 6000 DZ BKN006 25/24 A2986=
201405011300 METAR MRLM 011300Z 23002KT 9999 DZ SCT007 SCT100 25/24 A2987=
201405011400 METAR MRLM 011400Z 22002KT 9999 SCT010 BKN110 27/25 A2988 REDZ=
201405011500 METAR MRLM 011500Z 33002KT 9999 SCT025 BKN120 30/24 A2990=
201405011600 METAR MRLM 011600Z 05005KT 9999 SCT020 SCT120 29/25 A2990=
201405011700 METAR MRLM 011700Z 07003KT 9999 SCT020 BKN130 29/24 A2989=
201405011800 METAR MRLM 011800Z 07004KT 9999 FEW030 BKN130 30/24 A2987=
201405011900 METAR MRLM 011900Z 09004KT 9999 FEW030 SCT140 SCT250 30/24 A2984=
201405012000 METAR MRLM 012000Z 06006KT 9999 FEW030 BKN250 30/24 A2981=
201405012100 METAR MRLM 012100Z 05004KT 9999 FEW025 BKN250 29/25 A2980=
201405012200 METAR MRLM 012200Z 08003KT 9999 FEW020 SCT140 SCT250 29/25 A2980=
201405012300 METAR MRLM 012300Z 11002KT 9999 FEW020 SCT130 SCT250 29/24 A2980=
201405020000 METAR MRLM 020000Z 21002KT 9999 SCT015 SCT240 28/25 A2981=
201405020100 METAR MRLM NIL=
201405020200 METAR MRLM NIL=
201405020300 METAR MRLM NIL=
201405020400 METAR MRLM NIL=
201405020500 METAR MRLM NIL=
201405020600 METAR MRLM NIL=
201405020800 METAR MRLM NIL=
201405020900 METAR MRLM NIL=
201405021000 METAR MRLM NIL=
201405021100 METAR MRLM NIL=
201405021200 METAR MRLM 021200Z 29002KT 9999 BKN015 24/24 A2986=
201405021300 METAR MRLM 021300Z 09005KT 9999 OVC015 25/24 A2989=
201405021400 METAR MRLM 021400Z 12006KT 9999 BKN015 27/23 A2990=
201405021500 METAR MRLM 021500Z 15006KT 9999 FEW015 BKN025 27/24 A2992=
201405021600 METAR MRLM 021600Z 16007KT 9999 BKN020 SCT080 28/24 A2992=
201405021700 METAR MRLM 021700Z 23005KT 9999 BKN015 27/24 A2991=
201405021800 METAR MRLM 021800Z 22006KT 9999 SCT015 SCT090 27/23 A2990=
201405021900 METAR MRLM 021900Z 25006KT 9999 SCT015 SCT0090 27/23 A2987=
201405022000 METAR MRLM 022000Z 24004KT 9999 SCT020 SCT090 28/24 A2984=
201405022100 METAR MRLM 022100Z 14006KT 9999 FEW025 BKN080 29/23 A2983=
201405022200 METAR MRLM 022200Z 09002KT CAVOK 28/24 A2982=
201405022300 METAR MRLM 022300Z 12005KT CAVOK 28/24 A2982=
201405022357 METAR MRLM 030000Z 08002KT CAVOK 27/24 A2983=
201405030000 METAR MRLM 030000Z 08002KT CAVOK 27/24 A2983=
201405030100 METAR MRLM NIL=
201405030200 METAR MRLM NIL=
201405030300 METAR MRLM NIL=
201405030400 METAR MRLM NIL=
201405030500 METAR MRLM NIL=
201405030600 METAR MRLM NIL=
201405030700 METAR MRLM NIL=
201405030800 METAR MRLM NIL=
201405030900 METAR MRLM NIL=
201405031000 METAR MRLM NIL=
201405031100 METAR MRLM NIL=
201405031200 METAR MRLM 031200Z 26005KT 9999 +DZ BKN015 24/22 A2990=
201405031300 METAR MRLM 031300Z 25005KT CAVOK 26/24 A2992=
201405031400 METAR MRLM 031400Z 23004KT 9999 SCT020 29/24 A2994=
201405031500 METAR MRLM 031500Z 06004KT 9999 SCT025 29/24 A2995=
201405031600 METAR MRLM 031600Z 08004KT 9999 FEW025 30/23 A2995=
201405031700 METAR MRLM 031700Z 03008KT 9999 FEW030 SCT150 30/24 A2995=
201405031800 METAR MRLM 031800Z 04011KT 9999 FEW030 SCT140 30/24 A2992=
201405031900 METAR MRLM 031900Z 03009KT 9999 FEW025 SCT130 29/25 A2991=
201405032000 METAR MRLM 032000Z 03007KT 9999 FEW040 SCT140 30/23 A2988=
201405032100 METAR MRLM 032100Z 02006KT 9999 FEW035 SCT150 30/23 A2986=
201405032200 METAR MRLM 032200Z 03006KT 9999 FEW030 SCT280 30/23 A2987=
201405032300 METAR MRLM 032300Z 02004KT 9999 FEW030 SCT280 29/23 A2988=
201405032356 METAR MRLM 040000Z 28003KT 9999 FEW015 SCT280 28/24 A2990=
201405040000 METAR MRLM 040000Z 28003KT 9999 FEW015 SCT280 28/24 A2990=
201405040100 METAR MRLM NIL=
201405040200 METAR MRLM NIL=
201405040300 METAR MRLM NIL=
201405040400 METAR MRLM NIL=
201405040500 METAR MRLM NIL=
201405040600 METAR MRLM NIL=
201405040700 METAR MRLM NIL=
201405040800 METAR MRLM NIL=
201405040900 METAR MRLM NIL=
201405041000 METAR MRLM NIL=
201405041100 METAR MRLM NIL=
201405041200 METAR MRLM 041200Z 26005KT CAVOK 23/22 A2996=
201405041300 METAR MRLM 041300Z 25004KT CAVOK 25/22 A2997=
201405041400 METAR MRLM 041400Z 00000KT CAVOK 29/23 A2998=
201405041500 METAR MRLM 041500Z 09004KT CAVOK 29/22 A2998=
201405041600 METAR MRLM 041600Z 05005KT 9999 FEW040 BKN260 30/21 A2997=
201405041700 METAR MRLM 041700Z 06006KT 9999 FEW040 SCT260 30/22 A2996=
201405041800 METAR MRLM 041800Z 06006KT CAVOK 30/23 A2993=
201405041900 METAR MRLM 041900Z 06007KT CAVOK 30/23 A2990=
201405042000 METAR MRLM 042000Z 05007KT CAVOK 31/23 A2988=
201405042100 METAR MRLM 042100Z 03007KT 9999 FEW035 SCT250 31/24 A2986=
201405042200 METAR MRLM 042200Z 03007KT CAVOK 30/24 A2986=
201405042300 METAR MRLM 042300Z 04007KT 9999 FEW025 BKN250 29/24 A2987=
201405050000 METAR MRLM 050000Z 03005KT 9999 SCT020 SCT250 29/24 A2989=
201405050100 METAR MRLM NIL=
201405050200 METAR MRLM NIL=
201405050300 METAR MRLM NIL=
201405050400 METAR MRLM NIL=
201405050500 METAR MRLM NIL=
201405050600 METAR MRLM NIL=
201405050700 METAR MRLM NIL=
201405050800 METAR MRLM NIL=
201405050900 METAR MRLM NIL=
201405051000 METAR MRLM NIL=
201405051100 METAR MRLM NIL=
201405051200 METAR MRLM 051200Z 25004KT 9999 SCT007 BKN090 24/23 A2992=
201405051300 METAR MRLM 051300Z 27003KT 9999 SCT010 BKN100 25/24 A2993=
201405051400 METAR MRLM 051400Z 30006KT 9999 FEW020 BKN110 28/23 A2994=
201405051500 METAR MRLM 051500Z 27004KT 9999 BKN020 SCT110 29/24 A2995=
201405051600 METAR MRLM 051600Z 32005KT 9999 BKN015 27/24 A2996=
201405051700 METAR MRLM 051700Z 27005KT 9999 SCT010 SCT100 26/24 A2996=
201405051800 METAR MRLM 051800Z 24004KT 9999 BKN020 SCT100 27/23 A2993=
201405051900 METAR MRLM 051900Z 24003KT 9999 SCT020 BKN110 27/23 A2990=
201405052000 METAR MRLM 052000Z 27004KT 9999 FEW020 BKN120 28/24 A2987=
201405052100 METAR MRLM 052100Z 27003KT 9999 FEW020 BKN130 28/23 A2985=
201405052200 METAR MRLM 052200Z 27003KT 9999 FEW020 BKN130 28/24 A2985=
201405052300 METAR MRLM 052300Z 00000KT CAVOK 28/24 A2986=
201405060000 METAR MRLM 060000Z 00000KT CAVOK 27/25 A2987=
201405060100 METAR MRLM NIL=
201405060200 METAR MRLM NIL=
201405060300 METAR MRLM NIL=
201405060400 METAR MRLM NIL=
201405060500 METAR MRLM NIL=
201405060600 METAR MRLM NIL=
201405060700 METAR MRLM NIL=
201405060800 METAR MRLM NIL=
201405060900 METAR MRLM NIL=
201405061000 METAR MRLM NIL=
201405061100 METAR MRLM NIL=
201405061200 METAR MRLM 061200Z 25005KT CAVOK 24/22 A2989=
201405061300 METAR MRLM 061300Z 25004KT CAVOK 25/22 A2991=
201405061400 METAR MRLM 061400Z 28004KT CAVOK 29/24 A2991=
201405061500 METAR MRLM 061500Z 07005KT 9999 SCT030 29/23 A2993=
201405061600 METAR MRLM 061600Z 04007KT 9999 FEW035 30/23 A2991=
201405061700 METAR MRLM 061700Z 03009KT 9999 FEW030 30/24 A2990=
201405061800 METAR MRLM 061800Z 04007KT 9999 FEW030 30/24 A2988=
201405061900 METAR MRLM 061900Z 04010KT 9999 SCT030 30/24 A2985=
201405062000 METAR MRLM 06200Z 06009KT 9999 SCT020 29/25 A2983=
201405062001 METAR MRLM 06200Z 06009KT 9999 SCT020 29/25 A2983=
201405062100 METAR MRLM 062100Z 08007KT 9999 SCT030 30/24 A2982=
201405062200 METAR MRLM 062200Z 08007KT 9999 SCT025 29/24 A2982=
201405062300 METAR MRLM 062300Z 11008KT 9999 FEW020 BKN080 28/24 A2984=
201405062355 METAR MRLM 070000Z 13005KT 9999 FEW015 BKN040 28/24 A2985=
201405070000 METAR MRLM 070000Z 13005KT 9999 FEW015 BKN040 28/24 A2985=
201405070100 METAR MRLM NIL=
201405070200 METAR MRLM NIL=
201405070300 METAR MRLM NIL=
201405070400 METAR MRLM NIL=
201405070500 METAR MRLM NIL=
201405070600 METAR MRLM NIL=
201405070700 METAR MRLM NIL=
201405070800 METAR MRLM NIL=
201405070900 METAR MRLM NIL=
201405071000 METAR MRLM NIL=
201405071100 METAR MRLM NIL=
201405071200 METAR MRLM 071200Z 23005KT 9999 BKN035 24/23 A2990=
201405071300 METAR MRLM 071300Z 25004KT 9999 SCT035 SCT080 25/23 A2991=
201405071400 METAR MRLM 071400Z 24003KT 9999 SCT035 SCT090 27/24 A2993=
201405071500 METAR MRLM 071500Z 06003KT 9999 FEW025 BKN080 29/24 A2994=
201405071600 METAR MRLM 071600Z 06004KT 9999 SCT025 SCT090 30/24 A2994=
201405071700 METAR MRLM 071700Z 03010KT 9999 SCT025 30/25 A2994=
201405071800 METAR MRLM 071800Z 05011KT 9999 FEW025 30/25 A2992=
201405071900 METAR MRLM 071900Z 07008KT 9999 FEW028 SCT140 30/25 A2990=
201405072000 METAR MRLM 05007KT 9999 FEW025 BKN090 30/25 A2988=
201405072005 METAR MRLM 072005Z 05007KT 9999 FEW025 BKN090 30/25 A2988=
201405072100 METAR MRLM 072100Z 06006KT 9999 BKN020 SCT080 29/25 A2988=
201405072200 METAR MRLM 072200Z 09010KT 9999 BKN020 29/25 A2987=
201405072300 METAR MRLM 072300Z 08010KT 9999 SCT020 SCT080 29/25 A2987=
201405072356 METAR MRLM 080000Z 11005KT 9999 BKN020 28/24 A2990=
201405080000 METAR MRLM 080000Z 11005KT 9999 BKN020 28/24 A2990=
201405080100 METAR MRLM NIL=
201405080200 METAR MRLM NIL=
201405080300 METAR MRLM NIL=
201405080400 METAR MRLM NIL=
201405080500 METAR MRLM NIL=
201405080600 METAR MRLM NIL=
201405080700 METAR MRLM NIL=
201405080800 METAR MRLM NIL=
201405080900 METAR MRLM NIL=
201405081000 METAR MRLM NIL=
201405081100 METAR MRLM NIL=
201405081200 METAR MRLM NIL=
201405081300 METAR MRLM 081300Z 25005KT 9999 BKN015 SCT090 24/24 A2995=
201405081400 METAR MRLM 081400Z 16005KT 9999 BKN015 27/24 A2997=
201405081500 METAR MRLM 081500Z 12007KT 9999 FEW020 SCT070 27/23 A2997=
201405081600 METAR MRLM 081600Z 11003KT 9999 FEW025 BKN080 29/24 A2996=
201405081700 METAR MRLM 081700Z 09004KT 9999 FEW030 BKN090 29/24 A2995=
201405081800 METAR MRLM 081800Z 05005KT 9999 FEW025 BKN110 29/24 A2994=
201405081900 METAR MRLM 081900Z 06006KT 9999 FEW025 SCT270 30/25 A2992=
201405082000 METAR MRLM 082000Z 05007KT 9999 SCT025 SCT090 30/24 A2989=
201405082100 METAR MRLM 082100Z 06016KT 9999 4000N DZ VCSH BKN020 29/25 A2989=
201405082200 METAR MRLM NIL=
201405082300 METAR MRLM NIL=
201405090000 METAR MRLM NIL=
201405090100 METAR MRLM NIL=
201405090200 METAR MRLM NIL=
201405090300 METAR MRLM NIL=
201405090400 METAR MRLM NIL=
201405090500 METAR MRLM NIL=
201405090600 METAR MRLM NIL=
201405090700 METAR MRLM NIL=
201405090800 METAR MRLM NIL=
201405090900 METAR MRLM NIL=
201405091000 METAR MRLM NIL=
201405091100 METAR MRLM NIL=
201405091200 METAR MRLM NIL=
201405091300 METAR MRLM 091300Z 23004KT 9999 SCT015 SCT300 26/24 A2995=
201405091400 METAR MRLM 091400Z 091400Z 12003KT 9999 SCT015 BKN300 28/24 A2996=
201405091500 METAR MRLM 091500Z 12007KT 9999 BKN022 29/24 A2996=
201405091600 METAR MRLM 091600Z 13009KT 9999 BKN020 28/24 A2996=
201405091700 METAR MRLM 091700Z 13008KT 9999 FEW025 BKN080 29/25 A2994=
201405091800 METAR MRLM 091800Z 13006KT 9999 FEW025 BKN300 30/25 A2993=
201405091900 METAR MRLM 091900Z 10006KT 9999 FEW028 BKN300 30/24 A2989=
201405092000 METAR MRLM 092000Z 09008KT 9999 SCT028 SCT300 30/24 A2987=
201405092100 METAR MRLM 092100Z 08007KT 9999 BKN030 30/25 A2986=
201405092200 METAR MRLM NIL=
201405092300 METAR MRLM NIL=
201405100000 METAR MRLM NIL=
201405100100 METAR MRLM NIL=
201405100200 METAR MRLM NIL=
201405100300 METAR MRLM NIL=
201405100400 METAR MRLM NIL=
201405100500 METAR MRLM NIL=
201405100600 METAR MRLM NIL=
201405100700 METAR MRLM NIL=
201405100800 METAR MRLM NIL=
201405100900 METAR MRLM NIL=
201405101000 METAR MRLM NIL=
201405101100 METAR MRLM NIL=
201405101200 METAR MRLM NIL=
201405101300 METAR MRLM 101300Z 11002KT CAVOK 26/25 A2992=
201405101400 METAR MRLM NIL=
201405101404 METAR MRLM 111400Z 13005KT 9999 SCT018 SCT140 28/25 A2993=
201405101500 METAR MRLM 101500Z 12007KT 9999 SCT025 SCT300 29/24 A2994=
201405101600 METAR MRLM 101600Z 10006KT 9999 BKN020 29/25 A2993=
201405101700 METAR MRLM 101700Z 10007KT 9999 FEW028 SCT140 30/24 A2992=
201405101800 METAR MRLM 101800Z 09009KT 9999 FEW025 SCT110 30/25 A2991=
201405101900 METAR MRLM 101900Z 09009KT 9999 BKN022 30/25 A2988=
201405102000 METAR MRLM 102000Z 10009KT 9999 BKN020 29/25 A2985=
201405102100 METAR MRLM 102100Z 09009KT 9999 SCT022 29/24 A2982=
201405102200 METAR MRLM NIL=
201405102300 METAR MRLM NIL=
201405110000 METAR MRLM NIL=
201405110100 METAR MRLM NIL=
201405110200 METAR MRLM NIL=
201405110300 METAR MRLM NIL=
201405110400 METAR MRLM NIL=
201405110500 METAR MRLM NIL=
201405110600 METAR MRLM NIL=
201405110700 METAR MRLM NIL=
201405110800 METAR MRLM NIL=
201405110900 METAR MRLM NIL=
201405111000 METAR MRLM NIL=
201405111100 METAR MRLM NIL=
201405111200 METAR MRLM NIL=
201405111300 METAR MRLM 111300Z 25002KT CAVOK 26/23 A2989=
201405111400 METAR MRLM 111400Z 19003KT CAVOK 28/23 A2990=
201405111500 METAR MRLM 111500Z 11005KT CAVOK 28/23 A2991=
201405111600 METAR MRLM 111600Z 13009KT 9999 FEW035 SCT280 29/22 A2991=
201405111700 METAR MRLM 111700Z 13010KT 9999 FEW035 BKN280 30/23 A2990=
201405111800 METAR MRLM 111800Z 13009KT 9999 FEW030 BKN280 30/23 A2987=
201405111900 METAR MRLM 111900Z 10009KT 9999 FEW030 BKN280 30/23 A2984=
201405112000 METAR MRLM 112000Z 09009KT 9999 FEW030 BKN280 30/24 A2982=
201405112100 METAR MRLM 112100Z 10009KT 9999 OVC025 30/24 A2981=
201405112200 METAR MRLM NIL=
201405112300 METAR MRLM NIL=
201405120000 METAR MRLM NIL=
201405120100 METAR MRLM NIL=
201405120200 METAR MRLM NIL=
201405120300 METAR MRLM NIL=
201405120400 METAR MRLM NIL=
201405120500 METAR MRLM NIL=
201405120600 METAR MRLM NIL=
201405120700 METAR MRLM NIL=
201405120800 METAR MRLM NIL=
201405120900 METAR MRLM NIL=
201405121000 METAR MRLM NIL=
201405121100 METAR MRLM NIL=
201405121200 METAR MRLM NIL=
201405121300 METAR MRLM 121300Z 28004KT 9999 FEW015 SCT080 26/23 A2988=
201405121400 METAR MRLM 121400Z 10003KT 9999 FEW025 SCT080 28/23 A2990=
201405121500 METAR MRLM 121500Z 09004KT 9999 FEW025 BKN090 28/23 A2990=
201405121600 METAR MRLM 121600Z 10004KT 9999 FEW028 BKN090 29/23 A2989=
201405121700 METAR MRLM 121700Z 09006KT 9999 FEW025 BKN090 29/24 A2988=
201405121800 METAR MRLM 121800Z 06012KT 9999 SCT025 SCT090 29/24 A2987=
201405121900 METAR MRLM 121900Z 07008KT 9999 FEW025 SCT100 29/23 A2984=
201405122000 METAR MRLM 122000Z 11009KT 9999 SCT025 30/24 A2982=
201405122100 METAR MRLM 122100Z 11006KT 9999 FEW25 SCT080 29/23 A2980=
201405122200 METAR MRLM NIL=
201405122300 METAR MRLM NIL=
201405130000 METAR MRLM NIL=
201405130100 METAR MRLM NIL=
201405130200 METAR MRLM NIL=
201405130300 METAR MRLM NIL=
201405130400 METAR MRLM NIL=
201405130500 METAR MRLM NIL=
201405130600 METAR MRLM NIL=
201405130700 METAR MRLM NIL=
201405130800 METAR MRLM NIL=
201405130900 METAR MRLM NIL=
201405131000 METAR MRLM NIL=
201405131100 METAR MRLM NIL=
201405131200 METAR MRLM NIL=
201405131300 METAR MRLM 131300Z 31006KT 9999 DZ FEW003 BKN020 23/23 A2985=
201405131400 METAR MRLM 131400Z 23006KT 9999 FEW015 BKN025 24/23 A2987 REDZ=
201405131500 METAR MRLM 131500Z 19005KT 9999 FEW015 BKN090 26/23 A2988=
201405131600 METAR MRLM 131600Z 22004KT 9999 FEW025 BKN120 27/22 A2988=
201405131700 METAR MRLM 131700Z 17003KT 9999 FEW040 BKN090 30/21 A2987=
201405131800 METAR MRLM 131800Z 07003KT 9999 FEW040 BKN090 30/22 A2985=
201405131900 METAR MRLM 131900Z 04006KT 9999 FEW035 BKN090 29/23 A2981=
201405132000 METAR MRLM 132000Z 04006KT 9999 FEW030 BKN090 29/23 A2978=
201405132100 METAR MRLM 132100Z 04007KT 9999 FEW035 SCT090 30/23 A2977=
201405132200 METAR MRLM NIL=
201405132300 METAR MRLM NIL=
201405140000 METAR MRLM NIL=
201405140100 METAR MRLM NIL=
201405140200 METAR MRLM NIL=
201405140300 METAR MRLM NIL=
201405140400 METAR MRLM NIL=
201405140500 METAR MRLM NIL=
201405140600 METAR MRLM NIL=
201405140700 METAR MRLM NIL=
201405140800 METAR MRLM NIL=
201405140900 METAR MRLM NIL=
201405141000 METAR MRLM NIL=
201405141100 METAR MRLM NIL=
201405141200 METAR MRLM NIL=
201405141300 METAR MRLM 141300Z 25006KT 9999 FEW003 SCT025 24/23 A2989=
201405141400 METAR MRLM 141400Z 24006KT 9999 BKN015 25/24 A2989=
201405141500 METAR MRLM 141500Z 23005KT 9999 SCT025 SCT100 28/24 A2990=
201405141600 METAR MRLM 141600Z 23002KT 9999 BKN030 SCT090 30/23 A2990=
201405141700 METAR MRLM 141700Z 06005KT 9999 SCT035 BKN090 30/23 A2988=
201405141800 METAR MRLM 141800Z 08006KT 9999 SCT020 SCT080 28/24 A2988=
201405141900 METAR MRLM 141900Z 08003KT 9999 FEW025 BKN090 29/24 A2985=
201405142000 METAR MRLM 142000Z 10004KT 9999 FEW030 BKN080 29/23 A2983=
201405142100 METAR MRLM 142100Z 04006KT 9999 FEW030 BKN090 30/23 A2980=
201405142200 METAR MRLM NIL=
201405142300 METAR MRLM NIL=
201405150000 METAR MRLM NIL=
201405150100 METAR MRLM NIL=
201405150200 METAR MRLM NIL=
201405150300 METAR MRLM NIL=
201405150400 METAR MRLM NIL=
201405150500 METAR MRLM NIL=
201405150600 METAR MRLM NIL=
201405150700 METAR MRLM NIL=
201405150800 METAR MRLM NIL=
201405150900 METAR MRLM NIL=
201405151000 METAR MRLM NIL=
201405151100 METAR MRLM NIL=
201405151200 METAR MRLM NIL=
201405151300 METAR MRLM 151300Z 26003KT 9999 SCT015 BKN080 24/23 A2992=
201405151400 METAR MRLM 151400Z 24003KT 9999 DZ SCT012 SCT080 26/24 A2993=
201405151500 METAR MRLM 151500Z 25004KT 9999 BKN020 SCT080 27/24 A2994=
201405151600 METAR MRLM 151600Z 26004KT CAVOK 30/23 A2993=
201405151700 METAR MRLM 151700Z 04008KT 9999 FEW028 BKN080 30/25 A2992=
201405151800 METAR MRLM 151800Z 03007KT 9999 FEW032 BKN080 30/24 A2990=
201405151900 METAR MRLM 151900Z 02010KT 9999 FEW025 BKN080 29/25 A2988=
201405152000 METAR MRLM 152000Z 03011KT 9999 FEW020 BKN080 29/25 A2986=
201405152055 METAR MRLM 152055Z 02008KT 9999 FEW025 SCT080 29/25 A2985=
201405152100 METAR MRLM 02008KT 9999 FEW025 SCT080 29/25 A2985=
201405152200 METAR MRLM NIL=
201405152300 METAR MRLM NIL=
201405160000 METAR MRLM NIL=
201405160100 METAR MRLM NIL=
201405160200 METAR MRLM NIL=
201405160300 METAR MRLM NIL=
201405160400 METAR MRLM NIL=
201405160500 METAR MRLM NIL=
201405160600 METAR MRLM NIL=
201405160700 METAR MRLM NIL=
201405160800 METAR MRLM NIL=
201405160900 METAR MRLM NIL=
201405161000 METAR MRLM NIL=
201405161100 METAR MRLM NIL=
201405161200 METAR MRLM 161200Z 25005KT 9999 DZ BKN006 24/23 A2991=
201405161300 METAR MRLM 161300Z 26003KT 9999 DZ BKN007 SCT090 24/23 A2992=
201405161400 METAR MRLM 161400Z 28003KT 9999 SCT010 SCT090 24/24 A2994 REDZ=
201405161500 METAR MRLM 161500Z 00000KT 9999 SCT015 BKN100 26/24 A2995=
201405161600 METAR MRLM 161600Z 08002KT 9999 FEW015 BKN110 27/25 A2994=
201405161700 METAR MRLM 161700Z 04003KT 9999 SCT015 BKN110 28/25 A2992=
201405161800 METAR MRLM 161800Z 07003KT 9999 FEW020 SCT120 SCT250 29/25 A2990=
201405161900 METAR MRLM 161900Z 06004KT 9999 FEW030 SCT130 SCT250 29/24 A2988=
201405162000 METAR MRLM 162000Z 05004KT 9999 FEW030 BKN250 30/24 A2984=
201405162100 METAR MRLM 162100Z 03005KT 9999 FEW030 SCT250 30/23 A2982=
201405162200 METAR MRLM 162200Z 01006KT 9999 FEW030 SCT130 SCT250 29/24 A2983=
201405162300 METAR MRLM 162300Z 36007KT 9999 FEW025 BKN130 29/24 A2984=
201405170000 METAR MRLM 170000Z 36004KT 9999 SCT020 SCT130 28/24 A2987=
201405170100 METAR MRLM NIL=
201405170200 METAR MRLM NIL=
201405170300 METAR MRLM NIL=
201405170400 METAR MRLM NIL=
201405170500 METAR MRLM NIL=
201405170600 METAR MRLM NIL=
201405170700 METAR MRLM NIL=
201405170800 METAR MRLM NIL=
201405170900 METAR MRLM NIL=
201405171000 METAR MRLM NIL=
201405171100 METAR MRLM NIL=
201405171200 METAR MRLM 171200Z 25004KT 9999 FEW010 BKN100 23/23 A2987=
201405171300 METAR MRLM 171300Z ///// 9999 SCT015 SCT110 24/23 A2995=
201405171400 METAR MRLM 171400Z ///// 9999 FEW020 BKN250 25/24 A2993=
201405171500 METAR MRLM 171500Z //////KT CAVOK 28/25 A2993 NOSIG=
201405171600 METAR MRLM 171600Z 32003KT CAVOK 30/23 A2992=
201405171700 METAR MRLM 171700Z 03008KT 9999 FEW030 BKN260 30/23 A2991=
201405171800 METAR MRLM 171800Z 04006KT 9999 FEW030 SCT260 30/23 A2989=
201405171900 METAR MRLM 171900Z 04006KT 9999 FEW030 SCT260 30/24 A2986=
201405172000 METAR MRLM 172000Z 06005KT 9999 FEW030 SCT150 30/24 A2984=
201405172100 METAR MRLM 172100Z 08005KT 9999 SCT030 30/24 A2982=
201405172200 METAR MRLM 172200Z 06005KT 9999 SCT025 SCT130 29/24 A2982=
201405172300 METAR MRLM 172300Z 07005KT 9999 SCT025 SCT130 29/24 A2983=
201405180000 METAR MRLM 180000Z 05006KT 9999 SCT020 BKN130 28/24 A2985=
201405180100 METAR MRLM NIL=
201405180200 METAR MRLM NIL=
201405180300 METAR MRLM NIL=
201405180400 METAR MRLM NIL=
201405180500 METAR MRLM NIL=
201405180600 METAR MRLM NIL=
201405180700 METAR MRLM NIL=
201405180800 METAR MRLM NIL=
201405180900 METAR MRLM NIL=
201405181000 METAR MRLM NIL=
201405181100 METAR MRLM NIL=
201405181200 METAR MRLM 181200Z 26005KT 9999 FEW015 SCT080 23/22 A2989=
201405181300 METAR MRLM 181300Z 25004KT 9999 FEW015 26/23 A2990=
201405181400 METAR MRLM 181400Z 02003KT 9999 SCT025 29/24 A2991=
201405181500 METAR MRLM 181500Z 08004KT 9999 BKN025 29/24 A2991=
201405181600 METAR MRLM 181600Z 09006KT 9999 SCT025 SCT080 30/24 A2990=
201405181700 METAR MRLM 181700Z 07005KT 9999 FEW035 BKN080 30/23 A2989=
201405181800 METAR MRLM 181800Z 05005KT 9999 FEW035 BKN080 30/23 A2988=
201405181900 METAR MRLM 181900Z 08008KT 9999 FEW030 30/24 A2986=
201405182000 METAR MRLM 182000Z 06007KT 9999 SCT030 30/24 A2984=
201405182100 METAR MRLM 182100Z 07007KT 9999 BKN025 30/24 A2982=
201405182200 METAR MRLM 182200Z 09008KT 9999 BKN030 30/24 A2982=
201405182300 METAR MRLM 182300Z 07007KT 9999 BKN025 29/24 A2984=
201405182355 METAR MRLM 190000Z 08007KT 9999 BKN025 29/23 A2985=
201405190000 METAR MRLM 190000Z 08007KT 9999 BKN025 29/23 A2985=
201405190100 METAR MRLM NIL=
201405190200 METAR MRLM NIL=
201405190300 METAR MRLM NIL=
201405190400 METAR MRLM NIL=
201405190500 METAR MRLM NIL=
201405190600 METAR MRLM NIL=
201405190700 METAR MRLM NIL=
201405190800 METAR MRLM NIL=
201405190900 METAR MRLM NIL=
201405191000 METAR MRLM NIL=
201405191100 METAR MRLM NIL=
201405191200 METAR MRLM 191200Z 24005KT 9999 OVC015 24/23 A2990=
201405191300 METAR MRLM 191300Z 26005KT 9999 BKN015 25/24 A2991=
201405191400 METAR MRLM 191400Z 26006KT 9999 BKN015 26/23 A2992=
201405191500 METAR MRLM 191500Z 24004KT 9999 SCT025 SCT080 29/24 A2993=
201405191600 METAR MRLM 191600Z 07003KT 9999 BKN035 30/23 A2993=
201405191700 METAR MRLM 191700Z 06004KT 9999 SCT035 30/23 A2991=
201405191800 METAR MRLM 191800Z 05006KT 9999 SCT035 30/23 A2992=
201405191900 METAR MRLM 191900Z 05008KT 9999 FEW030 30/24 A2989=
201405192000 METAR MRLM 192000Z 06007KT 9999 FEW030 BKN300 30/24 A2987=
201405192100 METAR MRLM 192100Z 07006KT 9999 SCT030 SCT300 30/24 A2985=
201405192200 METAR MRLM 192200Z 05006KT 9999 OVC025 29/24 A2985=
201405192300 METAR MRLM 192300Z 07006KT 9999 BKN030 29/23 A2985=
201405192354 METAR MRLM 200000Z 07004KT 9999 BKN025 SCT280 28/23 A2986=
201405200000 METAR MRLM 200000Z 07004KT 9999 BKN025 SCT280 28/23 A2986=
201405200100 METAR MRLM NIL=
201405200200 METAR MRLM NIL=
201405200300 METAR MRLM NIL=
201405200400 METAR MRLM NIL=
201405200500 METAR MRLM NIL=
201405200600 METAR MRLM NIL=
201405200700 METAR MRLM NIL=
201405200800 METAR MRLM NIL=
201405200900 METAR MRLM NIL=
201405201000 METAR MRLM NIL=
201405201100 METAR MRLM NIL=
201405201200 METAR MRLM 201200Z 25005KT 9999 FEW010 BKN100 23/22 A2990=
201405201300 METAR MRLM 201300Z 24005KT CAVOK 25/23 A2992=
201405201400 METAR MRLM 201400Z 27003KT 9999 FEW030 SCT260 29/24 A2993=
201405201500 METAR MRLM 201500Z 06004KT 9999 SCT030 30/24 A2993=
201405201600 METAR MRLM 201600Z 04007KT 9999 FEW035 30/23 A2992=
201405201700 METAR MRLM 201700Z 02007KT 9999 FEW030 30/24 A2992=
201405201800 METAR MRLM 201800Z 04008KT 9999 FEW030 30/24 A2991=
201405201900 METAR MRLM 201900Z 03007KT 9999 FEW030 30/24 A2989=
201405202000 METAR MRLM 202000Z 04005KT 9999 FEW030 30/24 A2988=
201405202100 METAR MRLM 202100Z 04008KT 9999 SCT030 30/24 A2987=
201405202200 METAR MRLM 202200Z 04005KT 9999 BKN030 30/24 A2986=
201405202300 METAR MRLM 202300Z 04004KT 9999 SCT030 SCT025 29/24 A2987=
201405210000 METAR MRLM 210000Z 08003KT 9999 BKN030 29/23 A2989=
201405210100 METAR MRLM NIL=
201405210200 METAR MRLM NIL=
201405210300 METAR MRLM NIL=
201405210400 METAR MRLM NIL=
201405210500 METAR MRLM NIL=
201405210600 METAR MRLM NIL=
201405210700 METAR MRLM NIL=
201405210800 METAR MRLM NIL=
201405210900 METAR MRLM NIL=
201405211000 METAR MRLM NIL=
201405211100 METAR MRLM NIL=
201405211200 METAR MRLM 211200Z 26005KT 9999 FEW010 BKN110 23/21 A2990=
201405211300 METAR MRLM 211300Z 26003KT CAVOK 27/23 A2991=
201405211400 METAR MRLM 211400Z 24004KT 9999 FEW030 BKN250 29/24 A2992=
201405211500 METAR MRLM 211500Z 08004KT 9999 SCT030 SCT130 30/24 A2993=
201405211600 METAR MRLM 211600Z 06004KT 9999 SCT030 BKN130 29/24 A2993=
201405211700 METAR MRLM 211700Z 06004KT 9999 FEW030 SCT250 29/24 A2992=
201405211800 METAR MRLM 211800Z 08005KT 9999 FEW030 BKN250 30/24 A2990=
201405211900 METAR MRLM 211900Z 07008KT 9999 FEW030 BKN250 30/25 A2988=
201405212000 METAR MRLM 212000Z 08007KT 9999 FEW030 BKN250 30/24 A2985=
201405212100 METAR MRLM 212100Z 07008KT 9999 FEW030 BKN250 30/23 A2985=
201405212200 METAR MRLM 212200Z 06005KT 9999 FEW025 SCT130 29/24 A2985=
201405212300 METAR MRLM 212300Z 06003KT 9999 SCT030 SCT130 29/24 A2985=
201405220000 METAR MRLM 220000Z 00000KT 9999 BKN020 28/25 A2986=
201405220100 METAR MRLM NIL=
201405220200 METAR MRLM NIL=
201405220300 METAR MRLM NIL=
201405220400 METAR MRLM NIL=
201405220500 METAR MRLM NIL=
201405220600 METAR MRLM NIL=
201405220700 METAR MRLM NIL=
201405220800 METAR MRLM NIL=
201405220900 METAR MRLM NIL=
201405221000 METAR MRLM NIL=
201405221100 METAR MRLM NIL=
201405221200 METAR MRLM 221200Z 25004KT CAVOK 25/24 A2988=
201405221300 METAR MRLM 221300Z 26005KT CAVOK 27/24 A2989=
201405221400 METAR MRLM 221400Z 07003KT CAVOK 29/25 A2990=
201405221500 METAR MRLM 221500Z 04005KT 9999 FEW025 30/25 A2990=
201405221600 METAR MRLM 221600Z 06008KT 9999 FEW025 30/25 A2990=
201405221700 METAR MRLM 221700Z 06007KT 9999 FEW025 30/25 A2988=
201405221800 METAR MRLM 221800Z 06008KT 9999 FEW025 30/25 A2988=
201405221900 METAR MRLM 221900Z 05009KT 9999 BKN028 30/25 A2985=
201405222000 METAR MRLM 222000Z 06008KT 9999 OVC028 30/24 A2983=
201405222100 METAR MRLM 222100Z 05006KT 9999 BKN028 30/25 A2981=
201405222200 METAR MRLM 22220Z 0506KT 9999 FEW025 SCT140 30/25 A2981=
201405222204 METAR MRLM 22220Z 0506KT 9999 FEW025 SCT140 30/25 A2981=
201405222300 METAR MRLM 222300Z 05007KT 9999 BKN020 29/25 A2983=
201405222359 METAR MRLM 230000Z 07007KT 9999 BKN018 29/25 A2985=
201405230000 METAR MRLM 230000Z 07007KT 9999 BKN018 29/25 A2985=
201405230100 METAR MRLM NIL=
201405230200 METAR MRLM NIL=
201405230300 METAR MRLM NIL=
201405230400 METAR MRLM NIL=
201405230500 METAR MRLM NIL=
201405230600 METAR MRLM NIL=
201405230700 METAR MRLM NIL=
201405230800 METAR MRLM NIL=
201405230900 METAR MRLM NIL=
201405231000 METAR MRLM NIL=
201405231100 METAR MRLM NIL=
201405231200 METAR MRLM 231200Z 23003KT CAVOK 24/24 A2989=
201405231300 METAR MRLM 231300Z 33001KT 9999 TS FEW015CB FEW090 BKN140 25/24 A2990 TS/NE=
201405231400 METAR MRLM 231400Z 31005KT 9999 FEW015 BKN140 25/24 RETS=
201405231500 METAR MRLM 231500Z 30004KT 9999 FEW010 SCT025 25/24 A2993=
201405231600 METAR MRLM 231600Z 29006KT 9999 FEW015 SCT090 27/24 A2994=
201405231700 METAR MRLM 231700Z 35005KT 8000 VCSH FEW005 BKN018 28/24 A2994=
201405231759 METAR MRLM 231759Z 08011KT 8000 DZ TS VCSH FEWCB015 BKN008 26/24 A2994=
201405231800 METAR MRLM 08011KT 8000 DZ TS VCSH FEWCB015 BKN008 26/24 A2994=
201405231900 METAR MRLM 231900Z 08003KT 9999 DZ SCT015 SCT100 26/23 A2990 RETS=
201405232000 METAR MRLM 232000Z 24002KT 9999 DZ FEW010 SCT025 26/24 A2989=
201405232100 METAR MRLM 232100Z 23003KT 9999 SCT025 BKN100 26/24 A2986 REDZ=
201405232200 METAR MRLM 232200Z 26004KT 9999 SCT025 SCT120 27/25 A2986=
201405232300 METAR MRLM 232300Z 22003KT 9999 FEW020 SCT090 27/25 A2986=
201405232358 METAR MRLM 240000Z 24002KT CAVOK 26/25 A2986=
201405240000 METAR MRLM 240000Z 24002KT CAVOK 26/25 A2986=
201405240100 METAR MRLM NIL=
201405240200 METAR MRLM NIL=
201405240300 METAR MRLM NIL=
201405240400 METAR MRLM NIL=
201405240500 METAR MRLM NIL=
201405240600 METAR MRLM NIL=
201405240700 METAR MRLM NIL=
201405240800 METAR MRLM NIL=
201405240900 METAR MRLM NIL=
201405241000 METAR MRLM NIL=
201405241100 METAR MRLM NIL=
201405241200 METAR MRLM NIL=
201405241300 METAR MRLM 241300Z 26003KT 9999 BKN010 25/24 A2990=
201405241400 METAR MRLM 241400Z 21002KT 9999 DZ BKN010 26/24 A2993=
201405241500 METAR MRLM 241500Z 00000KT 9999 -DZ OVC007 25/25 A2994=
201405241600 METAR MRLM 241600Z 24004KT 9999 BKN010 26/25 A2994=
201405241700 METAR MRLM 241700Z 14010KT 9999 BKN010 26/24 A2993=
201405241800 METAR MRLM 241800Z 20005KT 9999 BKN010 SCT100 27/24 A2991 NOSIG=
201405241900 METAR MRLM 241900Z 21005KT 9999 FEW025 SCT120 SCT250 29/24 A2987=
201405242000 METAR MRLM 242000Z 17003KT CAVOK 30/23 A2983=
201405242100 METAR MRLM 242100Z 07003KT 9999 FEW030 BKN140 30/23 A2981=
201405242200 METAR MRLM 242200Z 03007KT CAVOK 30/24 A2982=
201405242300 METAR MRLM 242300Z 02006KT CAVOK 29/24 A2983=
201405250000 METAR MRLM 250000Z 33003KT CAVOK 28/24 A2984=
201405250100 METAR MRLM NIL=
201405250200 METAR MRLM NIL=
201405250300 METAR MRLM NIL=
201405250400 METAR MRLM NIL=
201405250500 METAR MRLM NIL=
201405250600 METAR MRLM NIL=
201405250700 METAR MRLM NIL=
201405250800 METAR MRLM NIL=
201405250900 METAR MRLM NIL=
201405251000 METAR MRLM NIL=
201405251100 METAR MRLM NIL=
201405251200 METAR MRLM 251200Z 24002KT 9999 SCT010 BKN100 24/23 A2988=
201405251300 METAR MRLM 251300Z 24004KT 9999 SCT010 SCT100 24/23 A2988=
201405251400 METAR MRLM 251400Z 00000KT 9999 SCT015 BKN110 26/24 A2989=
201405251500 METAR MRLM 251500Z 05004KT 9999 SCT025 BKN130 28/23 A2990=
201405251600 METAR MRLM 251600Z 02006KT 9999 BKN020 SCT110 27/24 A2992=
201405251700 METAR MRLM 251700Z 08007KT 9999 3000N DZ BKN010 26/24 A2992=
201405251800 METAR MRLM 251800Z 22003KT 9999 DZ BKN010 25/24 A2990=
201405251900 METAR MRLM 251900Z 23005KT 9999 FEW020 BKN110 27/25 A2985 REDZ=
201405252000 METAR MRLM 252000Z 21002KT CAVOK 29/24 A2982=
201405252100 METAR MRLM 252100Z 05005KT CAVOK 29/24 A2982=
201405252200 METAR MRLM 252200Z 04004KT CAVOK 28/24 A2983=
201405252300 METAR MRLM 252300Z 03007KT 9999 BKN020 28/24 A2985=
201405260000 METAR MRLM 260000Z 04006KT 9999 -DZ BKN015 SCT100 27/24 A2987=
201405260100 METAR MRLM NIL=
201405260200 METAR MRLM NIL=
201405260300 METAR MRLM NIL=
201405260400 METAR MRLM NIL=
201405260500 METAR MRLM NIL=
201405260600 METAR MRLM NIL=
201405260700 METAR MRLM NIL=
201405260800 METAR MRLM NIL=
201405260900 METAR MRLM NIL=
201405261000 METAR MRLM NIL=
201405261100 METAR MRLM NIL=
201405261200 METAR MRLM 261200Z 24004KT 9999 +DZ BKN020 SCT090 25/24 A2991=
201405261300 METAR MRLM 261300Z 25003KT 9999 DZ FEW015 BKN025 25/25 A2992=
201405261400 METAR MRLM 261400Z 03004KT 7000 RA BKN1000 27/25 A2995=
201405261500 METAR MRLM 261500Z 17005KT 9999 DZ SCT006 SCT025 26/24 A2996=
201405261600 METAR MRLM NIL=
201405261700 METAR MRLM 261700Z 26001KT 6000 RA SCT005 SCT015 24/23 A2997=
201405261800 METAR MRLM 261800Z 24003KT 5000 RA SCT005 SCT015 24/24 A2994=
201405261900 METAR MRLM 261900Z 29004KT 8000 RA FEW003 BKN015 24/24 A2993=
201405262000 METAR MRLM 262000Z 36002KT 8000 RA FEW003 BKN015 25/24 A2991=
201405262100 METAR MRLM 262100Z 31001KT 9999 SCT005 SCT030 26/25 A2988 RERA=
201405262200 METAR MRLM 262200Z 27003KT 9999 FEW008 SCT025 26/25 A2987=
201405262300 METAR MRLM 262300Z 28003KT 9999 FEW025 BKN120 26/25 A2988=
201405262354 METAR MRLM 27000Z 27002KT CAVOK 26/25 A2990=
201405270000 METAR MRLM 27000Z 27002KT CAVOK 26/25 A2990=
201405270100 METAR MRLM NIL=
201405270200 METAR MRLM NIL=
201405270300 METAR MRLM NIL=
201405270400 METAR MRLM NIL=
201405270500 METAR MRLM NIL=
201405270600 METAR MRLM NIL=
201405270700 METAR MRLM NIL=
201405270800 METAR MRLM NIL=
201405270900 METAR MRLM NIL=
201405271000 METAR MRLM NIL=
201405271100 METAR MRLM NIL=
201405271200 METAR MRLM 271200Z 27003KT 9999 FEW035 BKN080 25/24 A2992=
201405271300 METAR MRLM 271300Z 24003KT CAVOK 27/24 A2993=
201405271400 METAR MRLM 271400Z 23003KT CAVOK 29/24 A2993=
201405271500 METAR MRLM 271500Z 10003KT CAVOK 30/24 A2994=
201405271600 METAR MRLM 271600Z 08004KT 9999 FEW035 30/23 A2994=
201405271700 METAR MRLM 271700Z 05007KT 9999 FEW035 SCT140 31/24 A2992=
201405271800 METAR MRLM NIL=
201405271900 METAR MRLM 271900Z 03007KT 9999 FEW025 BKN270 30/25 A2987=
201405272000 METAR MRLM 272000Z 03008KT 9999 FEW025 SCT280 30/25 A2986=
201405272100 METAR MRLM 272100Z 03006KT 9999 FEW025 SCT280 30/25 A2984=
201405272200 METAR MRLM 272200Z 06005KT 9999 FEW025 SCT300 30/24 A2984=
201405272300 METAR MRLM 272300Z 06005KT 9999 FEW025 SCT300 29/25 A2984=
201405272356 METAR MRLM 280000Z 06004KT 9999 FEW020 BKN280 29/25 A2985=
201405280000 METAR MRLM 280000Z 06004KT 9999 FEW020 BKN280 29/25 A2985=
201405280100 METAR MRLM NIL=
201405280200 METAR MRLM NIL=
201405280300 METAR MRLM NIL=
201405280400 METAR MRLM NIL=
201405280500 METAR MRLM NIL=
201405280600 METAR MRLM NIL=
201405280700 METAR MRLM NIL=
201405280800 METAR MRLM NIL=
201405280900 METAR MRLM NIL=
201405281000 METAR MRLM NIL=
201405281100 METAR MRLM NIL=
201405281200 METAR MRLM 281200Z 29004KT 9999 BKN010 25/24 A2988=
201405281300 METAR MRLM 281300Z 27005KT 9999 SCT015 SCT110 26/25 A2988=
201405281400 METAR MRLM 281400Z 28004KT CAVOK 27/24 A2991=
201405281500 METAR MRLM 281500Z 00000KT 9999 FEW030 BKN120 29/24 A2992=
201405281600 METAR MRLM 281600Z 05004KT 9999 FEW030 30/24 A2993=
201405281700 METAR MRLM 281700Z 03005KT 9999 FEW030 30/24 A2991=
201405281800 METAR MRLM 281800Z 05004KT 9999 FEW030 30/25 A2989=
201405281900 METAR MRLM 281900Z 03006KT 9999 FEW030 30/25 A2987=
201405282000 METAR MRLM 282000Z 02007KT 9999 SCT030 30/25 A2984=
201405282100 METAR MRLM 282100Z 04007KT 9999 SCT030 30/25 A2983=
201405282200 METAR MRLM 282200Z 06005KT 9999 SCT025 30/25 A2983=
201405282300 METAR MRLM 282300Z 06006KT 9999 BKN020 29/25 A2984=
201405290000 METAR MRLM 290000Z 35003KT 9999 BKN020 28/24 A2986=
201405290100 METAR MRLM NIL=
201405290200 METAR MRLM NIL=
201405290300 METAR MRLM NIL=
201405290400 METAR MRLM NIL=
201405290500 METAR MRLM NIL=
201405290600 METAR MRLM NIL=
201405290700 METAR MRLM NIL=
201405290800 METAR MRLM NIL=
201405290900 METAR MRLM NIL=
201405291000 METAR MRLM NIL=
201405291100 METAR MRLM NIL=
201405291200 METAR MRLM 291200Z 25002KT CAVOK 24/23 A2987=
201405291300 METAR MRLM 291300Z 27003KT CAVOK 25/23 A2988=
201405291400 METAR MRLM 291400Z 00000KT CAVOK 28/24 A2989=
201405291500 METAR MRLM 291500Z 31002KT CAVOK 29/24 A2990=
201405291600 METAR MRLM 291600Z 09004KT 9999 FEW025 BKN130 29/24 A2990=
201405291700 METAR MRLM 291700Z 02006KT CAVOK 29/24 A2990=
201405291800 METAR MRLM 291800Z 05007KT 9999 SCT025 SCT270 30/25 A2984=
201405291900 METAR MRLM 291900Z 03008KT 9999 FEW030 BKN250 30/24 A2985=
201405292000 METAR MRLM 292000Z 04007KT 9999 FEW030 BKN250 30/25 A2981=
201405292100 METAR MRLM 292100Z 06006KT CAVOK 30/25 A2980=
201405292200 METAR MRLM 292200Z 05005KT 9999 FEW030 BKN250 30/25 A2980=
201405292300 METAR MRLM 292300Z 04004KT 9999 FEW025 BKN250 29/24 A2981=
201405300000 METAR MRLM 300000Z 03002KT 9999 FEW020 BKN250 28/24 A2983=
201405300100 METAR MRLM NIL=
201405300200 METAR MRLM NIL=
201405300300 METAR MRLM NIL=
201405300400 METAR MRLM NIL=
201405300500 METAR MRLM NIL=
201405300600 METAR MRLM NIL=
201405300700 METAR MRLM NIL=
201405300800 METAR MRLM NIL=
201405300900 METAR MRLM NIL=
201405301000 METAR MRLM NIL=
201405301100 METAR MRLM NIL=
201405301200 METAR MRLM 301200Z 25004KT CAVOK 25/23 A2983=
201405301300 METAR MRLM 301300Z 23004KT CAVOK 27/24 A2984=
201405301400 METAR MRLM 301400Z 23003KT CAVOK 29/24 A2985=
201405301500 METAR MRLM 301500Z 0704KT 9999 FEW025 BKN280 30/24 A2987=
201405301600 METAR MRLM 301600Z 03007KT 9999 FEW025 BKN280 30/25 A2986=
201405301700 METAR MRLM 301700Z 04007KT 9999 FEW025 BKN280 30/25 A2985=
201405301800 METAR MRLM NIL=
201405301900 METAR MRLM 301900Z 03006KT 9999 SCT025 BKN280 30/25 A2982=
201405302000 METAR MRLM 302000Z 06006KT 9999 SCT025 SCT270 30/25 A2980=
201405302100 METAR MRLM 302100Z 07006KT 9999 SCT028 BKN270 30/24 A2979=
201405302200 METAR MRLM 302200Z 08004KT 9999 FEW030 BKN270 30/24 A2978=
201405302300 METAR MRLM 302300Z 07003KT 99999 FEW025 BKN270 29/24 A2980=
201405302355 METAR MRLM 31000Z 0603KT CAVOK 29/24 A2982=
201405310000 METAR MRLM 31000Z 0603KT CAVOK 29/24 A2982=
201405310100 METAR MRLM NIL=
201405310200 METAR MRLM NIL=
201405310300 METAR MRLM NIL=
201405310400 METAR MRLM NIL=
201405310500 METAR MRLM NIL=
201405310600 METAR MRLM NIL=
201405310700 METAR MRLM NIL=
201405310800 METAR MRLM NIL=
201405310900 METAR MRLM NIL=
201405311000 METAR MRLM NIL=
201405311100 METAR MRLM NIL=
201405311200 METAR MRLM 311200Z 23005KT 9999 SCT035 SCT100 24/23 A2983=
201405311300 METAR MRLM 311300Z 22005KT 9999 FEW035 BKN100 25/23 A2985=
201405311400 METAR MRLM 311400Z 25004KT 9999 FEW035 BKN090 27/24 A2986=
201405311500 METAR MRLM 311500Z 05001KT 9999 FEW025 BKN100 30/24 A2986=
201405311600 METAR MRLM 311600Z 07005KT 9999 FEW025 BKN270 29/25 A2985=
201405311700 METAR MRLM 311700Z 06006KT 9999 FEW025 BKN270 30/25 A2983=
201405311800 METAR MRLM 311800Z 05007KT 9999 FEW022 SCT140 30/25 A2982=
201405311900 METAR MRLM 311900Z 04007KT 9999 BKN025 30/25 A2980=
201405312000 METAR MRLM 312000Z 05007KT 9999 BKN022 29/25 A2978=
201405312100 METAR MRLM 312100Z 07004KT 9999 BKN022 29/25 A2976=
201405312200 METAR MRLM 312200Z 04005KT 9999 FEW025 SCT150 29/25 A2975=
201405312300 METAR MRLM 312300Z 05004KT 9999 BKN020 29/25 A2977=
201405312358 METAR MRLM 010000Z 04004KT 9999 BKN020 29/24 A2978=
201406010000 METAR MRLM 010000Z 04004KT 9999 BKN020 29/24 A2978=
201406010100 METAR MRLM NIL=
201406010200 METAR MRLM NIL=
201406010300 METAR MRLM NIL=
201406010400 METAR MRLM NIL=
201406010500 METAR MRLM NIL=
201406010600 METAR MRLM NIL=
201406010700 METAR MRLM NIL=
201406010800 METAR MRLM NIL=
201406010900 METAR MRLM NIL=
201406011000 METAR MRLM NIL=
201406011100 METAR MRLM NIL=
201406011200 METAR MRLM 011200Z 27003KT CAVOK 24/24 A2980=
201406011300 METAR MRLM 011300Z 25004KT CAVOK 25/24 A2981=
201406011400 METAR MRLM 011400Z 28003KT CAVOK 25/24 A2982=
201406011500 METAR MRLM 011500Z 30005KT CAVOK 27/24 A2984=
201406011600 METAR MRLM 011600Z 33007KT 9999 FEW030 BKN250 29/23 A2986=
201406011700 METAR MRLM 011700Z 31007KT 9999 FEW030 BKN250 29/24 A2985=
201406011800 METAR MRLM 011800Z 31007KT 9999 FEW030 BKN250 30/24 A2982=
201406011900 METAR MRLM 011900Z 32007KT 9999 FEW030 BKN260 30/24 A2980=
201406012000 METAR MRLM 012000Z 35012KT 9999 FEW030 BKN260 30/25 A2979=
201406012100 METAR MRLM 012100Z 35010KT 9999 BKN020 29/25 A2977=
201406012200 METAR MRLM 012200Z 34011KT 9999 BKN020 SCT260 29/25 A2978=
201406012300 METAR MRLM 012300Z 35009KT 9999 SCT020 BKN250 28/24 A2976=
201406020000 METAR MRLM 020000Z 33005KT 9999 SCT015 BKN250 27/25 A2978=
201406020100 METAR MRLM NIL=
201406020200 METAR MRLM NIL=
201406020300 METAR MRLM NIL=
201406020400 METAR MRLM NIL=
201406020500 METAR MRLM NIL=
201406020600 METAR MRLM NIL=
201406020700 METAR MRLM NIL=
201406020800 METAR MRLM NIL=
201406020900 METAR MRLM NIL=
201406021000 METAR MRLM NIL=
201406021100 METAR MRLM NIL=
201406021200 METAR MRLM 021200Z 24004KT CAVOK 24/24 A2981=
201406021300 METAR MRLM 021300Z 24003KT CAVOK 26/25 A2982=
201406021400 METAR MRLM 021400Z 00000KT CAVOK 29/25 A2984=
201406021500 METAR MRLM 021500Z 08003KT 9999 FEW020 BKN250 29/25 A2984=
201406021600 METAR MRLM 021600Z 11005KT 9999 FEW020 BKN250 29/25 A2986=
201406021700 METAR MRLM 021700Z 12005KT 9999 FEW020 SCT130 BKN250 29/25 A2985=
201406021800 METAR MRLM 021800Z 14006KT 9999 FEW020 SCT130 SCT250 29/25 A2983=
201406021900 METAR MRLM 021900Z 14007KT 9999 FEW020 BKN240 29/25 A2979=
201406022000 METAR MRLM 022000Z 12011KT 9999 FEW020 BKN240 29/25 A2977=
201406022100 METAR MRLM 022100Z 12006KT 9999 FEW020 BKN240 29/25 A2974=
201406022200 METAR MRLM 022200Z 10005KT 9999 FEW020 BKN240 29/25 A2973=
201406022300 METAR MRLM 022300Z 09003KT 9999 BKN020 SCT240 29/25 A2974=
201406030000 METAR MRLM 030000Z 06003KT 9999 FEW015 BKN240 28/25 A2977=
201406030100 METAR MRLM NIL=
201406030200 METAR MRLM NIL=
201406030300 METAR MRLM NIL=
201406030400 METAR MRLM NIL=
201406030500 METAR MRLM NIL=
201406030600 METAR MRLM NIL=
201406030700 METAR MRLM NIL=
201406030800 METAR MRLM NIL=
201406030900 METAR MRLM NIL=
201406031000 METAR MRLM NIL=
201406031100 METAR MRLM NIL=
201406031200 METAR MRLM 031200Z 24003KT 9999 SCT035 SCT090 25/24 A2981=
201406031300 METAR MRLM 031300Z 26004KT CAVOK 25/24 A2983=
201406031400 METAR MRLM 031400Z 29003KT 9999 BKN020 28/25 A2984=
201406031500 METAR MRLM 031500Z 28004KT 9999 SCT020 SCT270 29/25 A2983=
201406031600 METAR MRLM 031600Z 03009KT 9999 BKN020 30/26 A2982=
201406031700 METAR MRLM 031700Z 04007KT 9999 SCT020 SCT270 30/26 A2982=
201406031800 METAR MRLM 031800Z 02005KT 9999 SCT020 SCT270 30/26 A2980=
201406031900 METAR MRLM 031900Z 07005KT 9999 FEW025 BKN270 30/25 A2978=
201406032000 METAR MRLM 032000Z 05006KT 9999 BKN020 30/25 A2976=
201406032100 METAR MRLM 032100Z 12003KT 9999 FEW020 BKN270 29/23 A2974=
201406032200 METAR MRLM 032200Z 07005KT 9999 SCT020 BKN270 30/25 A2973=
201406032300 METAR MRLM 032300Z 11003KT 9999 FEW020 BKN270 29/25 A2974=
201406032355 METAR MRLM 040000Z 11002KT CAVOK 29/25 A2979=
201406040000 METAR MRLM 040000Z 11002KT CAVOK 29/25 A2979=
201406040100 METAR MRLM NIL=
201406040200 METAR MRLM NIL=
201406040300 METAR MRLM NIL=
201406040400 METAR MRLM NIL=
201406040500 METAR MRLM NIL=
201406040600 METAR MRLM NIL=
201406040700 METAR MRLM NIL=
201406040800 METAR MRLM NIL=
201406040900 METAR MRLM NIL=
201406041000 METAR MRLM NIL=
201406041100 METAR MRLM NIL=
201406041200 METAR MRLM 041200Z 26004KT CAVOK 24/23 A2980=
201406041300 METAR MRLM 041300Z 28005KT CAVOK 26/24 A2980=
201406041400 METAR MRLM 041400Z 05002KT 9999 FEW025 BKN280 30/25 A2981=
201406041500 METAR MRLM 041500Z 04006KT 9999 SCT025 SCT270 30/25 A2981=
201406041600 METAR MRLM 041600Z 05003KT 9999 SCT025 SCT280 30/25 A2981=
201406041700 METAR MRLM 041700Z 08005KT 9999 SCT025 SCT270 30/25 A2979=
201406041800 METAR MRLM 041800Z 09006KT 9999 SCT020 SCT140 30/26 A2978=
201406041900 METAR MRLM 041900Z 06005KT 9999 FEW025 BKN110 30/25 A2976=
201406042000 METAR MRLM 042000Z 07008KT 9999 SCT025 SCT090 30/25 A2976=
201406042100 METAR MRLM 042100Z 08008KT 9999 BKN023 30/25 A2973=
201406042200 METAR MRLM 042200Z 07009KT 9999 BKN020 29/25 A2974=
201406042300 METAR MRLM 042300Z 07009KT 9999 BKN015 29/25 A2974=
201406042355 METAR MRLM 050000Z 08008KT 9999 FEW015 BKN030 29/25 A2975=
201406050000 METAR MRLM 050000Z 08008KT 9999 FEW015 BKN030 29/25 A2975=
201406050100 METAR MRLM NIL=
201406050200 METAR MRLM NIL=
201406050300 METAR MRLM NIL=
201406050400 METAR MRLM NIL=
201406050500 METAR MRLM NIL=
201406050600 METAR MRLM NIL=
201406050700 METAR MRLM NIL=
201406050800 METAR MRLM NIL=
201406050900 METAR MRLM NIL=
201406051000 METAR MRLM NIL=
201406051100 METAR MRLM NIL=
201406051200 METAR MRLM 051200Z 26004KT 9999 DZ OVC010 24/24 A2978=
201406051300 METAR MRLM 051300Z 29002KT 8000 3000N DZ VCSH FEW006 BKN010 25/24 A2981=
201406051400 METAR MRLM 051400Z 26005KT 9999 -DZ OVC007 25/24 A2981=
201406051500 METAR MRLM 051500Z 22003KT 9999 DZ BKN007 25/24 A2982=
201406051600 METAR MRLM 051600Z 24003KT 9999 -DZ BKN007 25/24 A2982=
201406051700 METAR MRLM 051700Z 26006KT 9999 FEW007 BKN010 26/24 A2982=
201406051800 METAR MRLM 051800Z 25006KT 9999 BKN010 26/24 A2981=
201406051900 METAR MRLM 051900Z 26005KT 9999 FEW010 SCT120 SCT240 26/24 A2979 REDZ=
201406052000 METAR MRLM 052000Z 25007KT 9999 FEW015 BKN130 27/24 A2977=
201406052100 METAR MRLM 052100Z 25003KT 9999 FEW020 BKN130 28/24 A2976=
201406052200 METAR MRLM 052200Z 28003KT CAVOK 28/24 A2976=
201406052300 METAR MRLM 052300Z 27003KT CAVOK 27/25 A2976=
201406060000 METAR MRLM 060000Z 00000KT CAVOK 27/25 A2978=
201406060100 METAR MRLM NIL=
201406060200 METAR MRLM NIL=
201406060300 METAR MRLM NIL=
201406060400 METAR MRLM NIL=
201406060500 METAR MRLM NIL=
201406060600 METAR MRLM NIL=
201406060700 METAR MRLM NIL=
201406060800 METAR MRLM NIL=
201406060900 METAR MRLM NIL=
201406061000 METAR MRLM NIL=
201406061100 METAR MRLM NIL=
201406061200 METAR MRLM 061200Z 00000KT CAVOK 24/23 A2981=
201406061300 METAR MRLM 061300Z 25003KT CAVOK 25/24 A2980=
201406061400 METAR MRLM 061400Z 31002KT 9999 FEW020 BKN250 27/24 A2982=
201406061500 METAR MRLM 061500Z 31004KT 9999 FEW020 SCT130 SCT240 28/24 A2983=
201406061600 METAR MRLM 061600Z 32006KT 9999 FEW020 SCT130 SCT250 28/25 A2984=
201406061700 METAR MRLM 061700Z 03008KT 9999 BKN015 SCT120 28/25 A2984=
201406061800 METAR MRLM 061800Z 04007KT 9999 FEW020 SCT140 SCT250 29/25 A2981=
201406061900 METAR MRLM 061900Z 02007KT 9999 FEW025 BKN140 30/25 A2979=
201406062000 METAR MRLM 062000Z 03010KT 9999 SCT025 SCT130 30/25 A2978=
201406062100 METAR MRLM 062100Z 04007KT 9999 SCT020 SCT130 30/25 A2977=
201406062200 METAR MRLM 062200Z 06006KT 9999 SCT020 SCT130 29/25 A2978=
201406062300 METAR MRLM 062300Z 04007KT 9999 DZ BKN010 28/25 A2979=
201406070000 METAR MRLM 070000Z 04008KT 9999 DZ BKN010 27/25 A2980=
201406070100 METAR MRLM NIL=
201406070200 METAR MRLM NIL=
201406070300 METAR MRLM NIL=
201406070400 METAR MRLM NIL=
201406070500 METAR MRLM NIL=
201406070600 METAR MRLM NIL=
201406070700 METAR MRLM NIL=
201406070800 METAR MRLM NIL=
201406070900 METAR MRLM NIL=
201406071000 METAR MRLM NIL=
201406071100 METAR MRLM NIL=
201406071200 METAR MRLM 071200Z 26004KT 8000 +DZ VCSH BKN015 24/24 A2987=
201406071300 METAR MRLM 071300Z 23004KT 6000 RA OVC015 25/24 A2988=
201406071400 METAR MRLM 071400Z /////KT 6000 DZ VCSH BKN015 ///// A////=
201406071500 METAR MRLM 071500Z /////KT DZ VCSH 8000 FEW003 BKN015 //// A////=
201406071600 METAR MRLM 071600Z 82405KT 9999 DZ VCSH FEW005 BKN015 26/24 A2993=
201406071700 METAR MRLM 071700Z 07004KT 8000 +DZ VCSH FEW006 BKN015 26/25 A2992=
201406071800 METAR MRLM 071800Z 29005KT 9999 FEW020 BKN270 28/24 A2989 REDZ=
201406071900 METAR MRLM 071900Z 32003KT 9999 FEW025 SCT080 29/25 A2986=
201406072000 METAR MRLM 072000Z 05005KT 9999 FEW028 BKN080 30/24 A2984=
201406072100 METAR MRLM 072100Z 03007KT 9999 FEW025 BKN080 30/24 A2983=
201406072200 METAR MRLM 072200Z 34003KT 9999 FEW030 BKN080 30/24 A2982=
201406072300 METAR MRLM 072300Z 01005KT 9999 FEW028 BKN280 29/24 A2983=
201406072359 METAR MRLM 080000Z 33004KT 9999 FEW015 BKN070 28/24 A2984=
201406080000 METAR MRLM 080000Z 33004KT 9999 FEW015 BKN070 28/24 A2984=
201406080100 METAR MRLM NIL=
201406080200 METAR MRLM NIL=
201406080300 METAR MRLM NIL=
201406080400 METAR MRLM NIL=
201406080500 METAR MRLM NIL=
201406080600 METAR MRLM NIL=
201406080700 METAR MRLM NIL=
201406080800 METAR MRLM NIL=
201406080900 METAR MRLM NIL=
201406081000 METAR MRLM NIL=
201406081100 METAR MRLM NIL=
201406081200 METAR MRLM 081200Z 27003KT 9999 BKN015 SCT090 24/23 A2991=
201406081300 METAR MRLM 081300Z 00000KT 9999 DZ SCT025 SCT090 24/23 A2992=
201406081400 METAR MRLM 081400Z 17002KT 8000 DZ VCSH BKN015 SCT090 25/24 A2992=
201406081500 METAR MRLM 081500Z 23006KT 9999 BKN015 25/24 A2993=
201406081600 METAR MRLM 081600Z 22006KT 9999 SCT025 SCT300 28/25 A2992=
201406081700 METAR MRLM 081700Z 28003KT CAVOK 30/24 A2990=
201406081800 METAR MRLM 081800Z 05005KT 9999 FEW030 BKN280 31/24 A2988=
201406081900 METAR MRLM 081900Z 04007KT 9999 FEW030 BKN270 31/25 A2986=
201406082000 METAR MRLM 082000Z 04007KT 9999 FEW025 SCT280 31/25 A2983=
201406082100 METAR MRLM 082100Z 05008KT 9999 FEW025 SCT110 31/25 A2982=
201406082200 METAR MRLM 082200Z 05005KT 9999 FEW025 BKN090 30/25 A2982=
201406082300 METAR MRLM 082300Z 05004KT 9999 BKN020 29/25 A2984=
201406082353 METAR MRLM 090000Z 04003KT 9999 OVC015 29/25 A2985=
201406090000 METAR MRLM 090000Z 04003KT 9999 OVC015 29/25 A2985=
201406090100 METAR MRLM NIL=
201406090200 METAR MRLM NIL=
201406090300 METAR MRLM NIL=
201406090400 METAR MRLM NIL=
201406090500 METAR MRLM NIL=
201406090600 METAR MRLM NIL=
201406090700 METAR MRLM NIL=
201406090800 METAR MRLM NIL=
201406090900 METAR MRLM NIL=
201406091000 METAR MRLM NIL=
201406091100 METAR MRLM NIL=
201406091200 METAR MRLM 091200Z 29004KT 9999 DZ BKN007 24/23 A2987=
201406091300 METAR MRLM 091300Z 29004KT 9999 DZ BKN007 24/23 A2987=
201406091400 METAR MRLM 091400Z 23003KT 9999 DZ BKN007 24/23 A2989=
201406091500 METAR MRLM 091500Z 27003KT 9999 DZ SCT010 BKN110 25/24 A2990=
201406091600 METAR MRLM 091600Z 33005KT 9999 SCT010 BKN120 27/25 A2990 REDZ=
201406091700 METAR MRLM 091700Z 35004KT 9999 SCT015 BKN120 27/24 A2991=
201406091715 METAR MRLM 091715Z 33003KT 8000 3000N RA SCT015 SCT110 27/24 A2991=
201406091800 METAR MRLM 091800Z 35006KT 9999 -DZ BKN015 SCT110 26/24 A2991 RERA=
201406091900 METAR MRLM 091900Z 34004KT 9999 DZ BKN010 26/25 A2987=
201406092000 METAR MRLM 092000Z 00000KT 9999 SCT025 BKN130 30/24 A2985 REDZ=
201406092100 METAR MRLM 092100Z 33003KT 9999 FEW020 SCT130 SCT250 29/25 A2983=
201406092200 METAR MRLM 092200Z 30004KT 9999 FEW020 SCT130 SCT250 28/24 A2982=
201406092300 METAR MRLM 092300Z 00000KT 9999 SCT020 BKN120 28/25 A2982=
201406100000 METAR MRLM 100000Z 26003KT CAVOK 26/25 A2983=
201406100100 METAR MRLM NIL=
201406100200 METAR MRLM NIL=
201406100300 METAR MRLM NIL=
201406100400 METAR MRLM NIL=
201406100500 METAR MRLM NIL=
201406100600 METAR MRLM NIL=
201406100700 METAR MRLM NIL=
201406100800 METAR MRLM NIL=
201406100900 METAR MRLM NIL=
201406101000 METAR MRLM NIL=
201406101100 METAR MRLM NIL=
201406101200 METAR MRLM 101200Z 25004KT CAVOK 24/23 A2988=
201406101300 METAR MRLM 101300Z 23004KT CAVOK 25/23 A2989=
201406101400 METAR MRLM 101400Z 00000KT CAVOK 30/24 A2989=
201406101500 METAR MRLM 101500Z 07003KT 9999 FEW025 BKN140 29/25 A2991=
201406101600 METAR MRLM 101600Z 07004KT 9999 FEW020 SCT260 29/25 A2991=
201406101700 METAR MRLM 101700Z 10005KT 9999 FEW020 SCT260 30/25 A2990=
201406101800 METAR MRLM 101800Z 09005KT 9999 FEW020 SCT260 30/25 A2988=
201406101900 METAR MRLM 101900Z 08004KT 9999 FEW020 SCT260 30/25 A2984=
201406102000 METAR MRLM 102000Z 07007KT CAVOK 30/25 A2983=
201406102100 METAR MRLM 102100Z 08003KT CAVOK 30/25 A2981=
201406102200 METAR MRLM 102200Z 06004KT 9999 FEW030 BKN260 30/24 A2980=
201406102300 METAR MRLM 102300Z 03003KT 9999 SCT020 SCT250 29/25 A2981=
201406110000 METAR MRLM 110000Z 00000KT 9999 BKN020 SCT250 29/25 A2984=
201406110100 METAR MRLM NIL=
201406110200 METAR MRLM NIL=
201406110300 METAR MRLM NIL=
201406110400 METAR MRLM NIL=
201406110500 METAR MRLM NIL=
201406110600 METAR MRLM NIL=
201406110700 METAR MRLM NIL=
201406110800 METAR MRLM NIL=
201406110900 METAR MRLM NIL=
201406111000 METAR MRLM NIL=
201406111100 METAR MRLM NIL=
201406111200 METAR MRLM NIL=
201406111300 METAR MRLM 111300Z 29004KT 9999 BKN010 SCT090 25/24 A2988=
201406111400 METAR MRLM 111400Z 30006KT 9999 BKN015 SCT100 26/24 A2989=
201406111415 METAR MRLM 111415Z 33004KT DZ 9999 4000N BKN010 26/24 A2991=
201406111500 METAR MRLM 111500Z 28003KT 9999 -DZ SCT010 SCT110 27/25 A2989=
201406111600 METAR MRLM 111600Z 36005KT 9999 BKN020 28/24 A2989=
201406111700 METAR MRLM 111700Z 03004KT 9999 FEW020 BKN240 29/25 A2988=
201406111800 METAR MRLM 111800Z 05005KT 9999 FEW025 BKN250 30/25 A2985=
201406111900 METAR MRLM 111900Z 05004KT 9999 FEW025 SCT140 SCT250 30/25 A2983=
201406112000 METAR MRLM 112000Z 09006KT 9999 FEW025 BKN250 31/26 A2982=
201406112100 METAR MRLM 112100Z 10005KT 9999 FEW020 BKN250 30/26 A2980=
201406112200 METAR MRLM NIL=
201406112300 METAR MRLM NIL=
201406120000 METAR MRLM NIL=
201406120100 METAR MRLM NIL=
201406120200 METAR MRLM NIL=
201406120300 METAR MRLM NIL=
201406120400 METAR MRLM NIL=
201406120500 METAR MRLM NIL=
201406120600 METAR MRLM NIL=
201406120700 METAR MRLM NIL=
201406120800 METAR MRLM NIL=
201406120900 METAR MRLM NIL=
201406121000 METAR MRLM NIL=
201406121100 METAR MRLM NIL=
201406121200 METAR MRLM NIL=
201406121300 METAR MRLM 121300Z 26002KT 9999 FEW010 BKN100 25/24 A2986=
201406121400 METAR MRLM 121400Z 24003KT CAVOK 29/25 A2986=
201406121500 METAR MRLM 121500Z 08002KT 9999 FEW020 BKN110 29/25 A2987=
201406121600 METAR MRLM 121600Z 07003KT 9999 BKN020 SCT100 29/25 A2988=
201406121700 METAR MRLM 121700Z 05003KT CAVOK 29/25 A2986=
201406121800 METAR MRLM 121800Z 00000KT CAVOK 30/25 A2984=
201406121900 METAR MRLM 121900Z 03006KT 9999 FEW025 BKN130 30/26 A2983=
201406122000 METAR MRLM 122000Z 01005KT CAVOK 30/25 A2981=
201406122100 METAR MRLM 122100Z 02010KT 9999 SCT020 BKN240 30/26 A2982=
201406122200 METAR MRLM NIL=
201406122300 METAR MRLM NIL=
201406130000 METAR MRLM NIL=
201406130100 METAR MRLM NIL=
201406130200 METAR MRLM NIL=
201406130300 METAR MRLM NIL=
201406130400 METAR MRLM NIL=
201406130500 METAR MRLM NIL=
201406130600 METAR MRLM NIL=
201406130700 METAR MRLM NIL=
201406130800 METAR MRLM NIL=
201406130900 METAR MRLM NIL=
201406131000 METAR MRLM NIL=
201406131100 METAR MRLM NIL=
201406131200 METAR MRLM NIL=
201406131300 METAR MRLM 131300Z 03003KT 3000 TS RA SCT006CB OVC010 25/25 A2985=
201406131400 METAR MRLM 131400Z 30005KT 8000 -TS DZ FEW005 FEW007CB BKN010 25/25 A2986=
201406131500 METAR MRLM 131500Z 26002KT 9999 DZ VCTS FEW007CB BKN010 25/25 A2989=
201406131600 METAR MRLM 131600Z 28003KT 9999 DZ FEW005 BKN007 25/25 A2989=
201406131700 METAR MRLM 131700Z 31002KT 9999 DZ FEW005 SCT010 SCT100 25/24 A2989=
201406131800 METAR MRLM 131800Z 28004KT 9999 -DZ FEW007 SCT110 SCT200 25/24 A2987=
201406131900 METAR MRLM 131900Z 33002KT 9999 DZ SCT007 SCT110 25/24 A2985=
201406132000 METAR MRLM 132000Z 27004KT 9999 -DZ FEW010 SCT120 SCT240 26/25 A2981=
201406132100 METAR MRLM 132100Z 27004KT CAVOK 27/25 A2978=
201406132200 METAR MRLM NIL=
201406132300 METAR MRLM NIL=
201406140000 METAR MRLM NIL=
201406140100 METAR MRLM NIL=
201406140200 METAR MRLM NIL=
201406140300 METAR MRLM NIL=
201406140400 METAR MRLM NIL=
201406140500 METAR MRLM NIL=
201406140600 METAR MRLM NIL=
201406140700 METAR MRLM NIL=
201406140800 METAR MRLM NIL=
201406140900 METAR MRLM NIL=
201406141000 METAR MRLM NIL=
201406141100 METAR MRLM NIL=
201406141200 METAR MRLM NIL=
201406141300 METAR MRLM 141300Z 00000KT 9999 FEW007 SCT120 SCT240 24/24 A2982=
201406141400 METAR MRLM 141400Z 00000KT 9999 FEW010 BKN120 26/24 A2987=
201406141420 METAR MRLM 141420Z 10020KT 9999 DZ OVC007 26/24 A2989=
201406141500 METAR MRLM 141500Z 09015KT 8000 DZ OVC007 24/23 A2990=
201406141600 METAR MRLM 141600Z 26005KT 9999 4000N DZ BKN007 SCT100 24/23 A2990=
201406141700 METAR MRLM 141700Z 25003KT 9999 -DZ BKN010 SCT100 25/24 A2989=
201406141800 METAR MRLM 141800Z 27003KT 9999 DZ SCT010 SCT110 26/24 A2989=
201406141900 METAR MRLM 141900Z 27003KT 9999 FEW015 BKN120 27/24 A2985=
201406142000 METAR MRLM 142000Z 00000KT CAVOK 28/24 A2983=
201406142100 METAR MRLM 142100Z 09005KT 9999 FEW015 BKN120 27/24 A2983=
201406142200 METAR MRLM NIL=
201406142300 METAR MRLM NIL=
201406150000 METAR MRLM NIL=
201406150100 METAR MRLM NIL=
201406150200 METAR MRLM NIL=
201406150300 METAR MRLM NIL=
201406150400 METAR MRLM NIL=
201406150500 METAR MRLM NIL=
201406150600 METAR MRLM NIL=
201406150700 METAR MRLM NIL=
201406150800 METAR MRLM NIL=
201406150900 METAR MRLM NIL=
201406151000 METAR MRLM NIL=
201406151100 METAR MRLM NIL=
201406151200 METAR MRLM NIL=
201406151300 METAR MRLM 151300Z 26004KT 9999 FEW010 BKN120 25/23 A2984=
201406151400 METAR MRLM 151400Z 27003KT CAVOK 27/23 A2983=
201406151500 METAR MRLM 151500Z 00000KT CAVOK 29/24 A2984=
201406151600 METAR MRLM 151600Z 04004KT CAVOK 30/24 A2986=
201406151700 METAR MRLM 151700Z 07004KT CAVOK 29/23 A2984=
201406151800 METAR MRLM 151800Z 06003KT 9999 FEW030 BKN260 29/23 A2983=
201406151900 METAR MRLM 151900Z 04007KT 9999 FEW030 BKN250 30/24 A2980=
201406152000 METAR MRLM 152000Z 03008KT 9999 FEW025 SCT140 SCT250 29/24 A2978=
201406152100 METAR MRLM 152100Z 02009KT 9999 FEW020 BKN240 29/25 A2979=
201406152200 METAR MRLM NIL=
201406152300 METAR MRLM NIL=
201406160000 METAR MRLM NIL=
201406160100 METAR MRLM NIL=
201406160200 METAR MRLM NIL=
201406160300 METAR MRLM NIL=
201406160400 METAR MRLM NIL=
201406160500 METAR MRLM NIL=
201406160600 METAR MRLM NIL=
201406160700 METAR MRLM NIL=
201406160800 METAR MRLM NIL=
201406160900 METAR MRLM NIL=
201406161000 METAR MRLM NIL=
201406161100 METAR MRLM NIL=
201406161200 METAR MRLM NIL=
201406161300 METAR MRLM 161300Z 28003KT 9999 SCT010 BKN100 25/24 A2989=
201406161400 METAR MRLM 161400Z 31004KT 9999 FEW015 BKN120 27/24 A2988=
201406161500 METAR MRLM 161500Z 33007KT CAVOK 30/24 A2990=
201406161600 METAR MRLM 161600Z 33007KT CAVOK 30/23 A2990=
201406161700 METAR MRLM 161700Z 33007KT CAVOK 29/23 A2989=
201406161800 METAR MRLM 161800Z 33007KT CAVOK 29/23 A2989=
201406161900 METAR MRLM 161900Z 35008KT 9999 FEW030 BKN130 29/24 A2987=
201406162000 METAR MRLM NIL=
201406162100 METAR MRLM 162100Z 02009KT 9999 SCT020 30/25 A2984=
201406162200 METAR MRLM NIL=
201406162300 METAR MRLM NIL=
201406170000 METAR MRLM NIL=
201406170100 METAR MRLM NIL=
201406170200 METAR MRLM NIL=
201406170300 METAR MRLM NIL=
201406170400 METAR MRLM NIL=
201406170500 METAR MRLM NIL=
201406170600 METAR MRLM NIL=
201406170700 METAR MRLM NIL=
201406170800 METAR MRLM NIL=
201406170900 METAR MRLM NIL=
201406171000 METAR MRLM NIL=
201406171100 METAR MRLM NIL=
201406171200 METAR MRLM NIL=
201406171300 METAR MRLM 171300Z 00000KT CAVOK 26/23 A2986=
201406171400 METAR MRLM 171400Z 00000KT CAVOK 30/24 A2986=
201406171500 METAR MRLM 171500Z 06006KT CAVOK 29/24 A2987=
201406171600 METAR MRLM 171600Z 35008KT 9999 FEW035 BKN140 30/23 A2988=
201406171700 METAR MRLM 171700Z 35009KT 9999 FEW030 BKN140 30/24 A2987=
201406171800 METAR MRLM 171800Z 35012KT CAVOK 30/25 A2985=
201406171900 METAR MRLM 171900Z 36011KT CAVOK 31/25 A2983=
201406172000 METAR MRLM 172000Z 35013KT 9999 FEW030 SCT140 SCT250 31/25 A2981=
201406172100 METAR MRLM 172100Z 36013KT 9999 BKN020 29/26 A2982=
201406172200 METAR MRLM NIL=
201406172300 METAR MRLM NIL=
201406180000 METAR MRLM NIL=
201406180100 METAR MRLM NIL=
201406180200 METAR MRLM NIL=
201406180300 METAR MRLM NIL=
201406180400 METAR MRLM NIL=
201406180500 METAR MRLM NIL=
201406180600 METAR MRLM NIL=
201406180700 METAR MRLM NIL=
201406180800 METAR MRLM NIL=
201406180900 METAR MRLM NIL=
201406181000 METAR MRLM NIL=
201406181100 METAR MRLM NIL=
201406181200 METAR MRLM NIL=
201406181300 METAR MRLM 181300Z 26002KT CAVOK 25/23 A2990=
201406181400 METAR MRLM 181400Z 00000KT CAVOK 28/23 A2990=
201406181500 METAR MRLM 181500Z 09004KT CAVOK 29/23 A2991=
201406181600 METAR MRLM 181600Z 05003KT CAVOK 29/24 A2990=
201406181700 METAR MRLM 181700Z 08004KT CAVOK 30/24 A2988=
201406181800 METAR MRLM 181800Z 03007KT CAVOK 30/24 A2987=
201406181900 METAR MRLM 181900Z 03009KT 9999 FEW030 SCT260 30/25 A2984=
201406182000 METAR MRLM 182000Z 03007KT 9999 FEW030 SCT260 30/25 A2983=
201406182100 METAR MRLM 182100Z 02010KT 9999 FEW030 30/25 A2981=
201406182200 METAR MRLM NIL=
201406182300 METAR MRLM NIL=
201406190000 METAR MRLM NIL=
201406190100 METAR MRLM NIL=
201406190200 METAR MRLM NIL=
201406190300 METAR MRLM NIL=
201406190400 METAR MRLM NIL=
201406190500 METAR MRLM NIL=
201406190600 METAR MRLM NIL=
201406190700 METAR MRLM NIL=
201406190800 METAR MRLM NIL=
201406190900 METAR MRLM NIL=
201406191000 METAR MRLM NIL=
201406191100 METAR MRLM NIL=
201406191200 METAR MRLM NIL=
201406191300 METAR MRLM 191300Z 07013KT 5000 RA BKN006 25/24 A2993=
201406191400 METAR MRLM 191400Z 28004KT 9999 DZ VCSH BKN007 SCT100 23/23 A2992 RERA=
201406191500 METAR MRLM 191500Z 23004KT 9999 FEW007 BKN120 25/24 A2989 REDZ=
201406191600 METAR MRLM 191600Z 08004KT CAVOK 27/24 A2989=
201406191700 METAR MRLM 191700Z 05003KT 9999 FEW025 SCT130 SCT250 28/24 A2989=
201406191800 METAR MRLM 191800Z 08004KT CAVOK 29/24 A2988=
201406191900 METAR MRLM 191900Z 04008KT CAVOK 30/25 A2986=
201406192000 METAR MRLM 192000Z 02008KT CAVOK 30/25 A2983=
201406192100 METAR MRLM 192100Z 03006KT 9999 FEW020 BKN240 29/25 A2984=
201406192200 METAR MRLM NIL=
201406192300 METAR MRLM NIL=
201406200000 METAR MRLM NIL=
201406200100 METAR MRLM NIL=
201406200200 METAR MRLM NIL=
201406200300 METAR MRLM NIL=
201406200400 METAR MRLM NIL=
201406200500 METAR MRLM NIL=
201406200600 METAR MRLM NIL=
201406200700 METAR MRLM NIL=
201406200800 METAR MRLM NIL=
201406200900 METAR MRLM NIL=
201406201000 METAR MRLM NIL=
201406201100 METAR MRLM NIL=
201406201200 METAR MRLM NIL=
201406201300 METAR MRLM 201300Z 00000KT 9999 DZ SCT010 BKN100 24/24 A2992=
201406201400 METAR MRLM 201400Z 23003KT 9999 FEW010 BKN110 25/25 A2992 REDZ=
201406201500 METAR MRLM 201500Z 28002KT CAVOK 29/25 A2992=
201406201600 METAR MRLM 201600Z 05003KT 9999 FEW025 SCT140 SCT250 30/25 A2991=
201406201700 METAR MRLM 201700Z 05005KT 9999 FEW030 BKN140 30/25 A2990=
201406201800 METAR MRLM 201800Z 04006KT 9999 FEW040 31/23 A2988=
201406201900 METAR MRLM 201900Z 02008KT CAVOK 31/24 A2987=
201406202000 METAR MRLM 202000Z 02009KT CAVOK 30/25 A2985=
201406202100 METAR MRLM 202100Z 03009KT 9999 FEW020 BKN130 29/25 A2985=
201406202200 METAR MRLM NIL=
201406202300 METAR MRLM NIL=
201406210000 METAR MRLM NIL=
201406210100 METAR MRLM NIL=
201406210200 METAR MRLM NIL=
201406210300 METAR MRLM NIL=
201406210400 METAR MRLM NIL=
201406210500 METAR MRLM NIL=
201406210600 METAR MRLM NIL=
201406210700 METAR MRLM NIL=
201406210800 METAR MRLM NIL=
201406210900 METAR MRLM NIL=
201406211000 METAR MRLM NIL=
201406211100 METAR MRLM NIL=
201406211200 METAR MRLM NIL=
201406211300 METAR MRLM 211300Z 26003KT 9999 SCT010 BKN100 25/24 A2989=
201406211400 METAR MRLM 211400Z 25003KT 9999 SCT015 BKN110 27/25 A2990=
201406211500 METAR MRLM 211500Z 11003KT CAVOK 29/25 A2991=
201406211600 METAR MRLM 211600Z 13006KT 9999 FEW020 BKN130 30/26 A2991=
201406211700 METAR MRLM 211700Z 12005KT 9999 FEW020 BKN130 30/25 A2989=
201406211800 METAR MRLM 211800Z 07004KT 9999 FEW030 BKN130 31/25 A2986=
201406211900 METAR MRLM 211900Z 04007KT 9999 FEW030 SCT140 SCT260 31/25 A2981=
201406212000 METAR MRLM 212000Z 05008KT 9999 FEW025 SCT140 SCT250 30/26 A2981=
201406212100 METAR MRLM 212100Z 05009KT 9999 FEW025 SCT260 31/26 A2981=
201406212200 METAR MRLM NIL=
201406212300 METAR MRLM NIL=
201406220000 METAR MRLM NIL=
201406220100 METAR MRLM NIL=
201406220200 METAR MRLM NIL=
201406220300 METAR MRLM NIL=
201406220400 METAR MRLM NIL=
201406220500 METAR MRLM NIL=
201406220600 METAR MRLM NIL=
201406220700 METAR MRLM NIL=
201406220800 METAR MRLM NIL=
201406220900 METAR MRLM NIL=
201406221000 METAR MRLM NIL=
201406221100 METAR MRLM NIL=
201406221200 METAR MRLM NIL=
201406221300 METAR MRLM 221300Z 27002KT 9999 BKN007 25/25 A2988=
201406221400 METAR MRLM 221400Z 28004KT 9999 DZ BKN007 26/25 A2988=
201406221500 METAR MRLM 221500Z 00000KT 9999 BKN010 27/26 A2989=
201406221600 METAR MRLM 221600Z 00000KT 9999 SCT020 SCT120 29/26 A2988=
201406221700 METAR MRLM 221700Z 05004KT 9999 FEW020 BKN250 30/25 A2987=
201406221800 METAR MRLM 221800Z 02007KT 9999 FEW020 BKN250 30/26 A2985=
201406221900 METAR MRLM 221900Z 35005KT 9999 FEW020 BKN250 30/25 A2982=
201406222000 METAR MRLM 222000Z CORR 04005KT 9999 FEW025 BKN250 30/25 A2979=
201406222100 METAR MRLM 222100Z 04005KT 9999 FEW025 BKN250 30/25 A2979=
201406222200 METAR MRLM NIL=
201406222300 METAR MRLM NIL=
201406230000 METAR MRLM NIL=
201406230100 METAR MRLM NIL=
201406230200 METAR MRLM NIL=
201406230300 METAR MRLM NIL=
201406230400 METAR MRLM NIL=
201406230500 METAR MRLM NIL=
201406230600 METAR MRLM NIL=
201406230700 METAR MRLM NIL=
201406230800 METAR MRLM NIL=
201406230900 METAR MRLM NIL=
201406231000 METAR MRLM NIL=
201406231100 METAR MRLM NIL=
201406231200 METAR MRLM 231200Z 25003KT 9999 TS FEW010CB SCT015 SCT025 25/24 A2987=
201406231300 METAR MRLM 231300Z 31003KT 9999 SCT015 SCT025 25/24 A2989 RETS=
201406231400 METAR MRLM 231400Z 31008KT 9999 DZ FEW005 SCT015 SCT025 25/24 A2991=
201406231500 METAR MRLM 231500Z 30007KT 9999 SCT010 SCT025 26/24 A2993=
201406231600 METAR MRLM 231600Z 32006KT 9999 BKN025 SCT090 27/24 A2992=
201406231700 METAR MRLM 231700Z 33005KT 9999 FEW015 BKN025 28/25 A2992=
201406231800 METAR MRLM 231800Z 33006KT 9999 FEW020 SCT035 29/25 A2991=
201406231900 METAR MRLM 231900Z 02007KT 9999 +DZ FEW015 BKN025 28/25 A2990=
201406232000 METAR MRLM 232000Z 34003KT 9999 +DZ FEW020 BKN080 29/25 A2986=
201406232100 METAR MRLM 232100Z 06006KT 9999 OVC025 28/24 A2987 REDZ=
201406232200 METAR MRLM 232200Z 12003KT 9999 BKN020 28/24 A2988=
201406232300 METAR MRLM 232300Z 18005KT 9999 DZ FEW010 BKN090 26/24 A2989 RERA=
201406232355 METAR MRLM 240000Z 26002KT 9999 +DZ SCT020 SCT090 26/25 A2989=
201406240000 METAR MRLM 240000Z 26002KT 9999 +DZ SCT020 SCT090 26/25 A2989=
201406240100 METAR MRLM NIL=
201406240200 METAR MRLM NIL=
201406240300 METAR MRLM NIL=
201406240400 METAR MRLM NIL=
201406240500 METAR MRLM NIL=
201406240600 METAR MRLM NIL=
201406240700 METAR MRLM NIL=
201406240800 METAR MRLM NIL=
201406240900 METAR MRLM NIL=
201406241000 METAR MRLM NIL=
201406241100 METAR MRLM NIL=
201406241200 METAR MRLM 241200Z 24003KT CAVOK 23/22 A2994=
201406241300 METAR MRLM 241300Z 27004KT CAVOK 26/23 A2995=
201406241400 METAR MRLM 241400Z 33004KT CAVOK 27/24 A2996=
201406241500 METAR MRLM 241500Z 34010KT 9999 SCT018 BKN100 28/24 A2998=
201406241600 METAR MRLM 241600Z 32007KT 9999 SCT025 SCT090 29/24 A2996=
201406241700 METAR MRLM 241700Z 01010KT 9999 SCT020 SCT150 29/25 A2995=
201406241800 METAR MRLM 241800Z 35010KT 9999 DZ BKN020 SCT140 29/25 A2996=
201406241900 METAR MRLM 241900Z 01014KT 9999 BKN025 SCT110 30/25 A2994=
201406242000 METAR MRLM 242000Z 01014KT 9999 OVC020 29/25 A2994=
201406242100 METAR MRLM 242100Z 01011KT 9999 BKN020 SCT090 28/24 A2995=
201406242200 METAR MRLM 242200Z 300/05KT 9999 FEW015 BKN080 27/24 A2995=
201406242300 METAR MRLM 242300Z 29003KT 9999 +DZ FEW012 SCT070 26/24 A2998=
201406242355 METAR MRLM 250000Z 32002KT 9999 DZ FEW010 SCT025 BKN090 26/24 A2999=
201406250000 METAR MRLM 250000Z 32002KT 9999 DZ FEW010 SCT025 BKN090 26/24 A2999=
201406250100 METAR MRLM NIL=
201406250200 METAR MRLM NIL=
201406250300 METAR MRLM NIL=
201406250400 METAR MRLM NIL=
201406250500 METAR MRLM NIL=
201406250600 METAR MRLM NIL=
201406250700 METAR MRLM NIL=
201406250800 METAR MRLM NIL=
201406250900 METAR MRLM NIL=
201406251000 METAR MRLM NIL=
201406251100 METAR MRLM NIL=
201406251200 METAR MRLM 251200Z 25004KT 9999 FEW007 BKN110 23/22 A2993=
201406251300 METAR MRLM 251300Z 26004KT 9999 FEW007 BKN110 24/23 A2993=
201406251400 METAR MRLM 251400Z 27003KT 9999 FEW010 BKN120 26/23 A2994=
201406251500 METAR MRLM 251500Z 31002KT 9999 SCT020 BKN120 29/24 A2995=
201406251540 METAR MRLM 251540Z 01008KT 6000 +DZ OVC010 27/25 A2996=
201406251600 METAR MRLM 251600Z 01010KT 9999 DZ BKN010 SCT110 25/23 A2995=
201406251700 METAR MRLM 251700Z 34005KT 9999 -DZ SCT010 BKN120 26/24 A2994=
201406251800 METAR MRLM 251800Z 33005KT 9999 BKN015 28/24 A2993=
201406251835 METAR MRLM 251835Z 36008KT 3000 +RA OVC007 25/24 A2995=
201406251900 METAR MRLM 251900Z 27004KT 2000 SHRA OVC006 24/23 A2995=
201406251915 METAR MRLM 251915Z 25004KT 2000 TSRA FEW006CB OVC007 24/23 A2993=
201406252000 METAR MRLM 252000Z 25005KT 5000 -TSRA FEW006CB BKN007 24/23 A2991=
201406252100 METAR MRLM 252100Z 25005KT 5000 VCTS RA FEW006CB BKN007 24/23 A2992=
201406252200 METAR MRLM 252200Z 27004KT 7000 RA BKN007 23/23 A2991 RETS=
201406252300 METAR MRLM 252300Z 24003KT 7000 -RA FEW003 BKN007 23/23 A2989=
201406260000 METAR MRLM 260000Z 28006KT 8000 +DZ BKN007 SCT080 23/23 A2990=
201406260100 METAR MRLM NIL=
201406260200 METAR MRLM NIL=
201406260300 METAR MRLM NIL=
201406260400 METAR MRLM NIL=
201406260500 METAR MRLM NIL=
201406260600 METAR MRLM NIL=
201406260700 METAR MRLM NIL=
201406260800 METAR MRLM NIL=
201406260900 METAR MRLM NIL=
201406261000 METAR MRLM NIL=
201406261100 METAR MRLM NIL=
201406261200 METAR MRLM 261200Z 00000KT 9999 BKN007 24/23 A2990=
201406261300 METAR MRLM 261300Z 36003KT 9999 DZ OVC007 24/23 A2992=
201406261400 METAR MRLM 261400Z 30003KT 9999 DZ VCTS FEW005CB OVC007 24/23 A2995=
201406261500 METAR MRLM 261500Z 26007KT 9999 DZ FEW005 BKN010 24/23 A2992 RETS=
201406261600 METAR MRLM 261600Z 31003KT 9999 SCT010 SCT200 25/24 A2991 REDZ=
201406261700 METAR MRLM 261700Z 36006KT 9999 DZ SCT010 SCT200 26/24 A2994=
201406261800 METAR MRLM 261800Z 27004KT 9999 DZ FEW010 BKN120 26/25 A2991=
201406261900 METAR MRLM 261900Z 33004KT 9999 FEW020 SCT130 SCT240 27/24 A2988 REDZ=
201406262000 METAR MRLM 262000Z 31003KT CAVOK 27/24 A2985=
201406262100 METAR MRLM 262100Z 35003KT CAVOK 29/25 A2981=
201406262200 METAR MRLM NIL=
201406262300 METAR MRLM 262300Z 02005KT 9999 SCT020 BKN130 27/24 A2985=
201406270000 METAR MRLM 270000Z 01005KT 9999 SCT010 BKN120 27/24 A2986=
201406270100 METAR MRLM NIL=
201406270200 METAR MRLM NIL=
201406270300 METAR MRLM NIL=
201406270400 METAR MRLM NIL=
201406270500 METAR MRLM NIL=
201406270600 METAR MRLM NIL=
201406270700 METAR MRLM NIL=
201406270800 METAR MRLM NIL=
201406270900 METAR MRLM NIL=
201406271000 METAR MRLM NIL=
201406271100 METAR MRLM NIL=
201406271200 METAR MRLM 271200Z 26003KT CAVOK 25/24 A2987=
201406271300 METAR MRLM 271300Z 28002KT CAVOK 26/25 A2989=
201406271400 METAR MRLM 271400Z 35004KT 9999 FEW013 BKN070 27/24 A2993=
201406271500 METAR MRLM 271500Z 01006KT 9999 FEW010 SCT020 27/25 A2996=
201406271600 METAR MRLM 271600Z 32003KT 9999 FEW012 SCT080 27/25 A29/95=
201406271700 METAR MRLM 271700Z 26004KT 9999 FEW015 BKN090 28/25 A2993=
201406271800 METAR MRLM 271800Z 31002KT 9999 FEW020 BKN090 29/24 A2990=
201406271900 METAR MRLM 271900Z 02010KT 9999 FEW015 BKN080 28/25 A2987=
201406272000 METAR MRLM 272000Z 01005KT 9999 FEW015 BKN090 28/24 A2987=
201406272100 METAR MRLM 272100Z 02006KT 9999 BKN015 28/25 A2987=
201406272159 METAR MRLM 27200Z 35005KT 9999 SCT015 SCT140 27/24 A2987=
201406272200 METAR MRLM 27200Z 35005KT 9999 SCT015 SCT140 27/24 A2987=
201406272300 METAR MRLM 272300Z 30003KT 9999 FEW013 SCT100 27/24 A2988=
201406272353 METAR MRLM 280000Z 32002KT 9999 FEW012 BKN090 26/24 A2991=
201406280000 METAR MRLM 280000Z 32002KT 9999 FEW012 BKN090 26/24 A2991=
201406280100 METAR MRLM NIL=
201406280200 METAR MRLM NIL=
201406280300 METAR MRLM NIL=
201406280400 METAR MRLM NIL=
201406280500 METAR MRLM NIL=
201406280600 METAR MRLM NIL=
201406280700 METAR MRLM NIL=
201406280800 METAR MRLM NIL=
201406280900 METAR MRLM NIL=
201406281000 METAR MRLM NIL=
201406281100 METAR MRLM NIL=
201406281200 METAR MRLM 281200Z 25004KT 9999 BKN015 SCT270 24/23 A2994=
201406281300 METAR MRLM 281300Z 25004KT 9999 SCT015 BKN270 26/24 A2995=
201406281400 METAR MRLM 281400Z 12002KT 9999 SCT025 BKN270 29/24 A2998=
201406281500 METAR MRLM 281500Z 07002KT 9999 SCTTCU025 SCT140 30/25 A2998=
201406281600 METAR MRLM 281600Z 11003KT 9999 BKN TCU030 SCT270 31/25 A2997=
201406281700 METAR MRLM 281700Z 26004KT 9999 SCT023 SCT140 29/24 A2996=
201406281800 METAR MRLM 281800Z 26002KT 9999 SCT025 SCT270 30/24 A2994=
201406281900 METAR MRLM 281900Z 03008KT 9999 SCT020 BKN270 30/26 A2992=
201406282000 METAR MRLM 282000Z 04007KT 9999 SCT025 BKN270 30/24 A2990=
201406282100 METAR MRLM 282100Z 04008KT 9999 VCTS FE010CB FEW025 BKN270 29/24 A2989=
201406282200 METAR MRLM 28200Z 03011KT 9999 SCT018 SCT090 29/25 A2991=
201406282202 METAR MRLM 28200Z 03011KT 9999 SCT018 SCT090 29/25 A2991=
201406282300 METAR MRLM 282300Z 09007KT 9999 FEW015 BKN090 28/25 A2991=
201406282354 METAR MRLM 290000Z 25003KT 9999 OVC015 28/25 A2993=
201406290000 METAR MRLM 290000Z 25003KT 9999 OVC015 28/25 A2993=
201406290100 METAR MRLM NIL=
201406290200 METAR MRLM NIL=
201406290300 METAR MRLM NIL=
201406290400 METAR MRLM NIL=
201406290500 METAR MRLM NIL=
201406290600 METAR MRLM NIL=
201406290700 METAR MRLM NIL=
201406290800 METAR MRLM NIL=
201406290900 METAR MRLM NIL=
201406291000 METAR MRLM NIL=
201406291100 METAR MRLM NIL=
201406291200 METAR MRLM 291200Z 00000KT CAVOK 24/23 A2993=
201406291300 METAR MRLM 291300Z 00000KT CAVOK 25/24 A2993=
201406291400 METAR MRLM 291400Z 00000KT 9999 SCT015 BKN120 26/24 A2995=
201406291500 METAR MRLM 291500Z 00000KT 9999 FEW020 BKN130 29/25 A2996=
201406291600 METAR MRLM 291600Z 08004KT 9999 FEW020 BKN130 29/24 A2996=
201406291700 METAR MRLM 291700Z 05007KT 9999 FEW020 SCT140 SCT240 29/25 A2995=
201406291800 METAR MRLM 291800Z 07003KT CAVOK 28/24 A2994=
201406291900 METAR MRLM 291900Z 06004KT CAVOK 29/23 A2992=
201406292000 METAR MRLM 292000Z 05003KT CAVOK 29/25 A2990=
201406292100 METAR MRLM 292100Z 04004KT CAVOK 30/24 A2988=
201406292200 METAR MRLM 292200Z 03005KT 9999 FEW030 BKN130 30/24 A2988=
201406292300 METAR MRLM 292300Z 03006KT 9999 FEW020 SCT130 SCT250 29/24 A2989=
201406300000 METAR MRLM 300000Z 05002KT 9999 FEW015 SCT120 SCT250 28/25 A2991=
201406300100 METAR MRLM NIL=
201406300200 METAR MRLM NIL=
201406300300 METAR MRLM NIL=
201406300400 METAR MRLM NIL=
201406300500 METAR MRLM NIL=
201406300600 METAR MRLM NIL=
201406300700 METAR MRLM NIL=
201406300800 METAR MRLM NIL=
201406300900 METAR MRLM NIL=
201406301000 METAR MRLM NIL=
201406301100 METAR MRLM NIL=
201406301200 METAR MRLM 301200Z 27004KT 9999 BKN007 24/24 A2990=
201406301300 METAR MRLM 301300Z 25003KT 9999 DZ OVC006 25/24 A2991=
201406301400 METAR MRLM 301400Z 00000KT 5000 +DZ OVC007 26/25 A2992=
201406301500 METAR MRLM 301500Z 21003KT 9999 DZ OVC007 26/25 A2992=
201406301600 METAR MRLM 301600Z 26003KT 9999 BKN010 28/25 A2992 REDZ=
201406301700 METAR MRLM 301700Z 23003KT 9999 BKN015 SCT100 29/25 A2990=
201406301800 METAR MRLM 301800Z 07002KT 9999 DZ BKN015 29/26 A2989=
201406301900 METAR MRLM 301900Z 27002KT 9999 SCT020 SCT240 29/25 A2986 REDZ=
201406302000 METAR MRLM 302000Z 06007KT 9999 DZ BKN010 27/26 A2985=
201406302035 METAR MRLM 302035Z 12008KT 3000 RA OVC007 26/25 A2985=
201406302100 METAR MRLM 302100Z 02007KT 5000 RA BKN007 26/25 A2984=
201406302200 METAR MRLM 302200Z 06002KT 9999 DZ BKN010 27/25 A2984 RERA=
201406302300 METAR MRLM 302300Z 04006KT 9999 BKN010 27/25 A2986=
201407010000 METAR MRLM 010000Z 03006KT 9999 DZ BKN007 SCT100 26/25 A2988=
201407010100 METAR MRLM NIL=
201407010200 METAR MRLM NIL=
201407010300 METAR MRLM NIL=
201407010400 METAR MRLM NIL=
201407010500 METAR MRLM NIL=
201407010600 METAR MRLM NIL=
201407010700 METAR MRLM NIL=
201407010800 METAR MRLM NIL=
201407010900 METAR MRLM NIL=
201407011000 METAR MRLM NIL=
201407011100 METAR MRLM NIL=
201407011200 METAR MRLM 011200Z 26005KT 9999 DZ VCTS FEW005 FEW010CB BKN015 24/24 A2987=
201407011300 METAR MRLM 011300Z 25006KT 9999 FEW003 BKN015 24/24 A2987 RETS=
201407011357 METAR MRLM 011357Z 34004KT 9999 5000N DZTS FEW004 FEW CB010 BKN015 25/24 A2990=
201407011400 METAR MRLM 011400Z 34004KT 9999 5000N DZTS FEW004 FEW CB010 BKN015 25/24 A2990=
201407011500 METAR MRLM 011500Z 3303KT 6000 TSRA FEW004 FEW CB010 SCT015 24/23 A2992=
201407011600 METAR MRLM 011600Z 29004KT 6000 TSRA FEW CB010 SCT015 SCT090 24/23 A2992=
201407011700 METAR MRLM 011700Z 34003KT 8000 RA SCT015 SCT090 24/24 A2993 RETS=
201407011800 METAR MRLM 011800Z 30006KT 9999 RA FEW003 SCT015 SCT100 24/24 A2992=
201407011900 METAR MRLM 011900Z 30005KT 9999 +DZ FEW003 SCT020 SCT100 24/24 A2989 RERA=
201407012000 METAR MRLM 012000Z 30004KT 9999 DZ FEW600 SCT080 25/24 A2987=
201407012100 METAR MRLM 012100Z 31005KT 9999 FEW008 SCT080 26/24 A2986 REDZ=
201407012200 METAR MRLM 012200Z 31003KT CAVOK 26/23 A2984=
201407012300 METAR MRLM 012300Z 34005KT CAVOK 25/23 A2985=
201407012352 METAR MRLM 020000Z 24004KT 9999 DZ FEW080 BKN100 25/24 A2986=
201407020000 METAR MRLM 020000Z 24004KT 9999 DZ FEW080 BKN100 25/24 A2986=
201407020100 METAR MRLM NIL=
201407020200 METAR MRLM NIL=
201407020300 METAR MRLM NIL=
201407020400 METAR MRLM NIL=
201407020500 METAR MRLM NIL=
201407020600 METAR MRLM NIL=
201407020700 METAR MRLM NIL=
201407020800 METAR MRLM NIL=
201407020900 METAR MRLM NIL=
201407021000 METAR MRLM NIL=
201407021100 METAR MRLM NIL=
201407021200 METAR MRLM 021200Z 29002KT CAVOK 23/22 A2987=
201407021300 METAR MRLM 021300Z 29004KT 9999 SCT035 SCT070 24/22 A2989=
201407021400 METAR MRLM 021400Z 26003KT 9999 DZ SCT035 BKN080 26/23 A2990=
201407021500 METAR MRLM NIL=
201407021600 METAR MRLM 021600Z 11004KT 9999 FEW020 28/24 A2991=
201407021700 METAR MRLM 021700Z 04009KT 9999 FEW025 30/25 A2988=
201407021800 METAR MRLM 021800Z 03010KT 9999 FEW025 SCT300 30/25 A2987=
201407021900 METAR MRLM 021900Z 02011KT 9999 FEW025 BKN300 30/25 A2986=
201407022000 METAR MRLM 022000Z 03010KT 9999 FEW025 BKN280 30/26 A2983=
201407022100 METAR MRLM 022100Z 03009KT 9999 FEW025 BKN280 30/25 A2981=
201407022200 METAR MRLM 022200Z 02007KT 9999 FEW025 BKN280 30/25 A2980=
201407022300 METAR MRLM 022300Z 35008KT 9999 FEW015 BKN270 29/25 A2982=
201407022354 METAR MRLM 030000Z 33004KT 9999 FEW015 SCT150 28/25 A2985=
201407030000 METAR MRLM 030000Z 33004KT 9999 FEW015 SCT150 28/25 A2985=
201407030100 METAR MRLM NIL=
201407030200 METAR MRLM NIL=
201407030300 METAR MRLM NIL=
201407030400 METAR MRLM NIL=
201407030500 METAR MRLM NIL=
201407030600 METAR MRLM NIL=
201407030700 METAR MRLM NIL=
201407030800 METAR MRLM NIL=
201407030900 METAR MRLM NIL=
201407031000 METAR MRLM NIL=
201407031100 METAR MRLM NIL=
201407031200 METAR MRLM 031200Z 27003KT CAVOK 24/23 A2989=
201407031300 METAR MRLM 031300Z 26004KT CAVOK 24/23 A2988=
201407031400 METAR MRLM 031400Z 26003KT 9999 SCT006 BKN120 25/24 A2992=
201407031500 METAR MRLM 031500Z 00000KT 9999 BKN007 25/24 A2996=
201407031600 METAR MRLM 031600Z 00000KT 9999 -DZ BKN010 SCT120 26/25 A2995=
201407031700 METAR MRLM 031700Z 17003KT 9999 -DZ SCT010 BKN110 26/25 A2996=
201407031800 METAR MRLM 031800Z 14004KT 9999 FEW010 SCT120 SCT240 27/25 A2994=
201407031900 METAR MRLM 031900Z 19003KT 9999 FEW010 SCT130 SCT250 28/25 A2990=
201407032000 METAR MRLM 032000Z 10004KT 9999 FEW015 BKN250 28/25 A2988=
201407032100 METAR MRLM 032100Z 14003KT CAVOK 28/25 A2990=
201407032200 METAR MRLM 032200Z 00000KT CAVOK 29/26 A2988=
201407032300 METAR MRLM 032300Z 10003KT CAVOK 28/26 A2989=
201407040000 METAR MRLM 040000Z 00000KT 9999 FEW015 BKN110 28/25 A2990=
201407040100 METAR MRLM NIL=
201407040200 METAR MRLM NIL=
201407040300 METAR MRLM NIL=
201407040400 METAR MRLM NIL=
201407040500 METAR MRLM NIL=
201407040600 METAR MRLM NIL=
201407040700 METAR MRLM NIL=
201407040800 METAR MRLM NIL=
201407040900 METAR MRLM NIL=
201407041000 METAR MRLM NIL=
201407041100 METAR MRLM NIL=
201407041200 METAR MRLM 041200Z 25003KT 9999 SCT006 24/24 A2997=
201407041300 METAR MRLM 041300Z 00000KT 9999 -DZ SCT007 26/25 A2998=
201407041400 METAR MRLM 041400Z 24003KT 9999 FEW010 28/25 A2997=
201407041500 METAR MRLM 041500Z 07003KT 9999 FEW030 30/24 A2998=
201407041600 METAR MRLM 041600Z 08005KT 9999 FEW030 SCT130 30/25 A2999=
201407041700 METAR MRLM 041700Z 03005KT CAVOK 29/24 A2997=
201407041800 METAR MRLM 041800Z 05005KT CAVOK 29/24 A2996=
201407041900 METAR MRLM 041900Z 07005KT CAVOK 30/23 A2994=
201407042000 METAR MRLM 042000Z 05005KT CAVOK 30/24 A2992=
201407042100 METAR MRLM 042100Z 04005KT 9999 FEW030 30/24 A2990=
201407042200 METAR MRLM 042200Z 03005KT 9999 FEW030 SCT250 29/24 A2991=
201407042300 METAR MRLM 042300Z 04005KT 9999 FEW030 BKN250 29/24 A2990=
201407050000 METAR MRLM 050000Z 03005KT 9999 FEW020 BKN250 28/24 A2990=
201407050100 METAR MRLM NIL=
201407050200 METAR MRLM NIL=
201407050300 METAR MRLM NIL=
201407050400 METAR MRLM NIL=
201407050500 METAR MRLM NIL=
201407050600 METAR MRLM NIL=
201407050700 METAR MRLM NIL=
201407050800 METAR MRLM NIL=
201407050900 METAR MRLM NIL=
201407051000 METAR MRLM NIL=
201407051100 METAR MRLM NIL=
201407051200 METAR MRLM 051200Z 28003KT 9999 BKN035 SCT080 22/21 A2993=
201407051300 METAR MRLM 051300Z 25002KT 9999 BKN035 23/22 A2994=
201407051400 METAR MRLM 051400Z 24004KT 9999 SCT035 SCT080 25/23 A2994=
201407051500 METAR MRLM 051500Z 30002KT 9999 FEW025 BKN035 28/23 A2994=
201407051600 METAR MRLM 051600Z 32005KT CAVOK 28/23 A2995=
201407051700 METAR MRLM 051700Z 33003KT CAVOK 30/24 A2993=
201407051800 METAR MRLM 051800Z 04006KT 9999 FEW025 BKN080 30/25 A2991=
201407051900 METAR MRLM 051900Z 04006KT 9999 FEW035 BKN080 31/24 A2988=
201407052000 METAR MRLM 052000Z 03010KT 9999 FEW030 SCT270 30/24 A2986=
201407052100 METAR MRLM 052100Z 03011KT 9999 FEW035 SCT270 30/23 A2985=
201407052200 METAR MRLM 052200Z 02007KT 9999 FEW030 BKN270 29/24 A2985=
201407052300 METAR MRLM 052300Z 02007KT 9999 FEW025 SCT090 29/24 A2986=
201407052358 METAR MRLM 060000Z 02005KT 9999 SCT035 SCT100 28/24 A2988=
201407060000 METAR MRLM 060000Z 02005KT 9999 SCT035 SCT100 28/24 A2988=
201407060100 METAR MRLM NIL=
201407060200 METAR MRLM NIL=
201407060300 METAR MRLM NIL=
201407060400 METAR MRLM NIL=
201407060500 METAR MRLM NIL=
201407060600 METAR MRLM NIL=
201407060700 METAR MRLM NIL=
201407060800 METAR MRLM NIL=
201407060900 METAR MRLM NIL=
201407061000 METAR MRLM NIL=
201407061100 METAR MRLM NIL=
201407061200 METAR MRLM 061200Z 12010KT 5000 DZ VCSH FEW003 BKN012 26/24 A2991=
201407061300 METAR MRLM 061300Z 08004KT 8000 DZ VCSH FEW005 BKN015 27/24 A2993=
201407061400 METAR MRLM 061400Z 22008KT 7000 RA FEW003 BKN015 24/24 A2995=
201407061500 METAR MRLM 061500Z 28005KT 7000 +DZ VCSH FEW003 BKN015 24/24 A2995 RERA=
201407061600 METAR MRLM 061600Z 31007KT 8000 DZ VCSH BKN015 25/24 A2994=
201407061700 METAR MRLM 061700Z 28004KT 9999 BKN015 27/25 A2994 REDZ=
201407061800 METAR MRLM 061800Z 32004KT 5000 TSRA FEWCB010 BKN015 28/24 A2991=
201407061900 METAR MRLM 061900Z 01007KT 6000 TSRA FEW 010CB BKN015 26/24 A2990=
201407062000 METAR MRLM 062000Z 03006KT 8000 TS FEW005 SCT CB010 SCT015 27/25 A2988 RERA=
201407062100 METAR MRLM 062100Z 25005KT 5000 TSRA FEW005 SCT010CB SCT015 25/24 A2987=
201407062200 METAR MRLM 062200Z 17010KT 4000 TSRA FEW004 SCT010CB SCT015 25/24 A2988=
201407062300 METAR MRLM 062300Z 26004KT 9999 DZ OVC015 24/24 A2988 RETS=
201407062358 METAR MRLM 070000Z 27003KT 7000 +DZ FEW003 BKN015 24/24 A2990=
201407070000 METAR MRLM 070000Z 27003KT 7000 +DZ FEW003 BKN015 24/24 A2990=
201407070100 METAR MRLM NIL=
201407070200 METAR MRLM NIL=
201407070300 METAR MRLM NIL=
201407070400 METAR MRLM NIL=
201407070500 METAR MRLM NIL=
201407070600 METAR MRLM NIL=
201407070700 METAR MRLM NIL=
201407070800 METAR MRLM NIL=
201407070900 METAR MRLM NIL=
201407071000 METAR MRLM NIL=
201407071100 METAR MRLM NIL=
201407071200 METAR MRLM 071200Z 31003KT 9999 DZ OVC007 24/23 A2996=
201407071300 METAR MRLM 071300Z 30003KT 9999 DZ BKN007 24/23 A2998=
201407071400 METAR MRLM 071400Z 28003KT +DZ FEW006 BKN010 24/23 A2999=
201407071500 METAR MRLM 071500Z 30003KT 9999 +DZ FEW006 BKN010 24/24 A2999=
201407071600 METAR MRLM 071600Z 28005KT 9999 BKN010 25/24 A2999 REDZ=
201407071700 METAR MRLM 071700Z 29005KT 9999 SCT015 SCT100 26/25 A2998=
201407071800 METAR MRLM 071800Z 30004KT 9999 FEW020 BKN120 28/25 A2996=
201407071900 METAR MRLM 071900Z 30004KT 9999 FEW030 BKN140 30/24 A2991=
201407072000 METAR MRLM 072000Z 02006KT 9999 FEW030 BKN140 30/23 A2991=
201407072100 METAR MRLM 072100Z 02005KT CAVOK 29/24 A2989=
201407072200 METAR MRLM 072200Z 03005KT CAVOK 29/24 A2990=
201407072300 METAR MRLM 072300Z 00000KT CAVOK 29/24 A2991=
201407080000 METAR MRLM 080000Z 30002KT CAVOK 28/24 A2991=
201407080100 METAR MRLM NIL=
201407080200 METAR MRLM NIL=
201407080300 METAR MRLM NIL=
201407080400 METAR MRLM NIL=
201407080500 METAR MRLM NIL=
201407080600 METAR MRLM NIL=
201407080700 METAR MRLM NIL=
201407080800 METAR MRLM NIL=
201407080900 METAR MRLM NIL=
201407081000 METAR MRLM NIL=
201407081100 METAR MRLM NIL=
201407081200 METAR MRLM 081200Z 26002KT 9999 FEW010 BKN100 24/23 A2995=
201407081300 METAR MRLM 081300Z 00000KT CAVOK 25/24 A2995=
201407081400 METAR MRLM 081400Z 23003KT 9999 FEW020 BKN110 29/24 A2996=
201407081500 METAR MRLM 081500Z 00000KT 9999 FEW030 SCT260 31/25 A2996=
201407081600 METAR MRLM 081600Z 07004KT 9999 SCT030 SCT260 31/24 A2996=
201407081700 METAR MRLM 081700Z 04005KT 9999 SCT030 SCT260 31/25 A2995=
201407081800 METAR MRLM 081800Z 04006KT 9999 FEW025 SCT250 31/26 A2992=
201407081900 METAR MRLM 081900Z 03007KT 9999 FEW020 SCT130 SCT250 30/26 A2991=
201407082000 METAR MRLM 082000Z 03008KT 9999 FEW020 BKN130 30/26 A2990=
201407082100 METAR MRLM 082100Z 08006KT 9999 FEW020 BKN120 29/25 A2988=
201407082200 METAR MRLM 082200Z 03006KT 9999 BKN020 29/26 A2988=
201407082300 METAR MRLM 082300Z 08009KT 9999 BKN020 28/25 A2988=
201407090000 METAR MRLM 090000Z 06012KT 9999 BKN015 28/25 A2991=
201407090100 METAR MRLM NIL=
201407090200 METAR MRLM NIL=
201407090300 METAR MRLM NIL=
201407090400 METAR MRLM NIL=
201407090500 METAR MRLM NIL=
201407090600 METAR MRLM NIL=
201407090700 METAR MRLM NIL=
201407090800 METAR MRLM NIL=
201407090900 METAR MRLM NIL=
201407091000 METAR MRLM NIL=
201407091100 METAR MRLM NIL=
201407091200 METAR MRLM 091200Z 27005KT 9999 OVC015 25/25 A2992=
201407091300 METAR MRLM 091300Z 19004KT 9999 +DZ FEW004 OVC015 25/25 A2993=
201407091400 METAR MRLM 091400Z 12008KT 8000 DZ VCSH FEW006 OVC015 26/25 A2994=
201407091500 METAR MRLM 091500Z 07016KT 9999 FEW005 BKN015 27/25 A2994 REDZ=
201407091600 METAR MRLM 091600Z 07014KT 9999 SCT012 SCT025 28/25 A2994=
201407091700 METAR MRLM 091700Z 100/11KT 9999 OVC010 27/25 A2993=
201407091800 METAR MRLM 091800Z 12007KT 3000 TSRA SCT010CB SCT013 25/24 A2992=
201407091900 METAR MRLM 091900Z 23003KT 5000 RA SCT003 BKN015 24/24 A2991 RETS=
201407092000 METAR MRLM 092000Z 23006KT 5000 RA SCT002 BKN013 24/24 A2990=
201407092100 METAR MRLM 092100Z 25005KT 6000 +DZ VCSH OVC015 24/24 A2988=
201407092200 METAR MRLM 092200Z 25004KT 5000 DZ VCSH BKN015 24/24 A2987=
201407092300 METAR MRLM 092300Z 23005KT 9999 FEW003 BKN015 25/24 A2989 RERA=
201407092357 METAR MRLM 100000Z 26005KT 9999 OVC015 25/24 A2990=
201407100000 METAR MRLM 100000Z 26005KT 9999 OVC015 25/24 A2990=
201407100100 METAR MRLM NIL=
201407100200 METAR MRLM NIL=
201407100300 METAR MRLM NIL=
201407100400 METAR MRLM NIL=
201407100500 METAR MRLM NIL=
201407100600 METAR MRLM NIL=
201407100700 METAR MRLM NIL=
201407100800 METAR MRLM NIL=
201407100900 METAR MRLM NIL=
201407101000 METAR MRLM NIL=
201407101100 METAR MRLM NIL=
201407101200 METAR MRLM 101200Z 05009KT 9999 BKN015 28/25 A2988=
201407101300 METAR MRLM 101300Z 05009KT BKN015TCU 28/25 A2988=
201407101400 METAR MRLM 101400Z 05010KT 9999 BKN015 28/25 A2990=
201407101500 METAR MRLM 101500Z 06013KT 8000 VCSH BKN015 29/25 A2991=
201407101600 METAR MRLM 101600Z 14010KT 7000 +DZ VCSH OVC010 25/24 A2992=
201407101700 METAR MRLM 101700Z 22003KT 9999 FEW005 BKN015 25/24 A2991 RERA=
201407101800 METAR MRLM NIL=
201407101900 METAR MRLM 101900Z 20002KT 5000 RA FEW007 BKN015 26/24 A2988=
201407102000 METAR MRLM 102000Z 26005KT 9999 FEW005 BKN015 26/25 A2985 RERA=
201407102058 METAR MRLM 1021000Z 25005KT 9999 DZ FEW004 BKN015 26/25 A2984=
201407102100 METAR MRLM 1021000Z 25005KT 9999 DZ FEW004 BKN015 26/25 A2984=
201407102200 METAR MRLM 102200Z 25003KT 9999 TSRA FEW015CB BKN018 26/25 A2984=
201407102300 METAR MRLM 102300Z 20003KT 5000 RA FEW003 BKN015 25/24 A2986 RETS=
201407102354 METAR MRLM 110000Z 28002KT 9999 OVC015 25/25 A2987 RERA=
201407110000 METAR MRLM 110000Z 28002KT 9999 OVC015 25/25 A2987 RERA=
201407110100 METAR MRLM NIL=
201407110200 METAR MRLM NIL=
201407110300 METAR MRLM NIL=
201407110400 METAR MRLM NIL=
201407110500 METAR MRLM NIL=
201407110600 METAR MRLM NIL=
201407110700 METAR MRLM NIL=
201407110800 METAR MRLM NIL=
201407110900 METAR MRLM NIL=
201407111000 METAR MRLM NIL=
201407111100 METAR MRLM NIL=
201407111200 METAR MRLM 111200Z 25003KT 8000 DZ BKN006 24/24 A2987=
201407111300 METAR MRLM 111300Z 35005KT 5000 TSRA SCT005CB BKN007 24/24 A2989=
201407111400 METAR MRLM 111400Z 25005KT 8000 3000N RA FEW005 BKN007 24/24 A2990 RETS=
201407111500 METAR MRLM 111500Z 26004KT 6000 -RA OVC006 24/24 A2991=
201407111600 METAR MRLM 111600Z 24004KT 3000 +RA OVC006 24/24 A2991=
201407111700 METAR MRLM 111700Z 19004KT 2000 +TSRA SCT005CB OVC006 24/24 A2992=
201407111800 METAR MRLM 111800Z 25004KT 8000 DZ BKN006 24/24 A2990 RETSRA=
201407111900 METAR MRLM 111900Z 30003KT 4000 RA VCTS FEW005CB OVC006 24/24 A2988=
201407112000 METAR MRLM 112000Z 29004KT 9999 -DZ SCT010 SCT100 25/24 A2985 RERA=
201407112100 METAR MRLM 112100Z 30004KT 9999 SCT010 SCT110 25/24 A2983=
201407112200 METAR MRLM 112200Z 32005KT 9999 BKN010 SCT110 25/24 A2982=
201407112300 METAR MRLM 112300Z 27004KT 9999 DZ SCT010 BKN100 25/24 A2983=
201407120000 METAR MRLM 120000Z 00000KT 9999 DZ SCT007 SCT100 24/24 A2983=
201407120100 METAR MRLM NIL=
201407120200 METAR MRLM NIL=
201407120300 METAR MRLM NIL=
201407120400 METAR MRLM NIL=
201407120500 METAR MRLM NIL=
201407120600 METAR MRLM NIL=
201407120700 METAR MRLM NIL=
201407120800 METAR MRLM NIL=
201407120900 METAR MRLM NIL=
201407121000 METAR MRLM NIL=
201407121100 METAR MRLM NIL=
201407121200 METAR MRLM 121200Z 24006KT 2000 +RA OVC006 23/23 A2986=
201407121300 METAR MRLM 121300Z 27004KT 4000 RA OVC006 23/23 A2988=
201407121400 METAR MRLM 121400Z 27003KT 4000 RA OVC006 23/23 A2991=
201407121500 METAR MRLM 121500Z 29003KT 9999 DZ BKN010 23/23 A2992=
201407121600 METAR MRLM 121600Z 23005KT 9999 DZ FEW010 SCT100 SCT200 24/24 A2991=
201407121700 METAR MRLM 121700Z 27004KT 9999 FEW010 BKN200 25/24 A2989 REDZ=
201407121800 METAR MRLM 121800Z 00000KT 9999 FEW020 BKN130 28/24 A2986=
201407121900 METAR MRLM 121900Z 28004KT 9999 FEW020 BKN130 27/24 A2986=
201407122000 METAR MRLM 122000Z 35008KT 9999 SCT020 BKN130 27/24 A2984=
201407122100 METAR MRLM 122100Z 35010KT 9999 FEW015 BKN120 27/24 A2983=
201407122200 METAR MRLM 122200Z 34009KT 9999 FEW015 BKN120 27/24 A2983=
201407122300 METAR MRLM NIL=
201407130000 METAR MRLM NIL=
201407130100 METAR MRLM NIL=
201407130200 METAR MRLM NIL=
201407130300 METAR MRLM NIL=
201407130400 METAR MRLM NIL=
201407130500 METAR MRLM NIL=
201407130600 METAR MRLM NIL=
201407130700 METAR MRLM NIL=
201407130800 METAR MRLM NIL=
201407130900 METAR MRLM NIL=
201407131000 METAR MRLM NIL=
201407131100 METAR MRLM NIL=
201407131200 METAR MRLM 131200Z 24001KT 9999 FEW035 SCT120 23/23 A2984 RAMPA CON AGUA=
201407131300 METAR MRLM 131300Z 23002KT 9999 FEW035 BKN150 24/23 A2987=
201407131400 METAR MRLM 131400Z 27003KT CAVOK 26/24 A2986=
201407131500 METAR MRLM 131500Z 04004KT 9999 FEW035 BKN090 29/24 A2989=
201407131600 METAR MRLM 131600Z 36004KT 9999 OVC030 28/24 2991=
201407131700 METAR MRLM 131700Z 01006KT 9999 FEW015 BKN260 29/24 A2989=
201407131753 METAR MRLM 131800 3500KT 9999 FEW025 BKN270 30/24 A2986=
201407131800 METAR MRLM 131800Z 3500KT 9999 FEW025 BKN270 30/24 A2986=
201407131900 METAR MRLM 131900Z 02008KT 9999 SCT030 SCT090 30/24 A2986=
201407132000 METAR MRLM 132000Z 03006KT 9999 TS FEW015CB FEW030 SCT080 30/24 A283=
201407132100 METAR MRLM 132100Z 35006KT 9999 FEW020 BKN070 28/24 A2984 RETS=
201407132200 METAR MRLM NIL=
201407132300 METAR MRLM 132300Z 34007 7000 +DZ VCRA OVC010 27/25 A2986=
201407132355 METAR MRLM 140000Z 28003KT 9999 OVC010 26/25 A2986 RERA=
201407140000 METAR MRLM 140000Z 28003KT 9999 OVC010 26/25 A2986 RERA=
201407140100 METAR MRLM NIL=
201407140200 METAR MRLM NIL=
201407140300 METAR MRLM NIL=
201407140400 METAR MRLM NIL=
201407140500 METAR MRLM NIL=
201407140600 METAR MRLM NIL=
201407140700 METAR MRLM NIL=
201407140800 METAR MRLM NIL=
201407140900 METAR MRLM NIL=
201407141000 METAR MRLM NIL=
201407141100 METAR MRLM NIL=
201407141200 METAR MRLM 141200Z 30002KT 9999 SCT030 SCT080 24/24 A2990=
201407141300 METAR MRLM 141300Z 29004KT 9999 SCT035 SCT080 25/24 A2989=
201407141400 METAR MRLM 141400Z 34001KT CAVOK 29/25 A2990=
201407141500 METAR MRLM 141500Z 08003KT 9999 FEW025 SCT070 30/25 A2991=
201407141600 METAR MRLM 141600Z 02012KT 9999 BKN015 28/25 A2992=
201407141700 METAR MRLM 141700Z 04010KT 9999 +DZ FEW015 SCT070 27/25 A2992=
201407141800 METAR MRLM 141800Z 04006KT 9999 FEW020 BKN070 29/25 A2991 RERDZ=
201407141900 METAR MRLM 141900Z 08003KT 9999 FEW022 BKN030 29/24 A2990=
201407142000 METAR MRLM 142000Z 05003KT 9999 FEW022 BKN090 29/25 A2990=
201407142100 METAR MRLM 142100Z 06001KT 9999 FEW025 SCT035 29/25 A2987=
201407142200 METAR MRLM 142200Z 09001KT 9999 SCT020 SCT090 29/25 A2987=
201407142300 METAR MRLM 142300Z 27001KT 9999 BKN015 28/25 A2989=
201407142356 METAR MRLM 150000Z 28002KT 9999 BKN015 27/26 A2990=
201407150000 METAR MRLM 150000Z 28002KT 9999 BKN015 27/26 A2990=
201407150100 METAR MRLM NIL=
201407150200 METAR MRLM NIL=
201407150300 METAR MRLM NIL=
201407150400 METAR MRLM NIL=
201407150500 METAR MRLM NIL=
201407150600 METAR MRLM NIL=
201407150700 METAR MRLM NIL=
201407150800 METAR MRLM NIL=
201407150900 METAR MRLM NIL=
201407151000 METAR MRLM NIL=
201407151100 METAR MRLM NIL=
201407151200 METAR MRLM 151200Z 31004KT 9999 DZ BKN006 25/24 A2991=
201407151300 METAR MRLM 151300Z 28004KT 9999 -DZ BKN010 SCT100 24/24 A2991=
201407151400 METAR MRLM 151400Z 26003KT 9999 BKN010 26/25 A2993=
201407151500 METAR MRLM 151500Z 00000KT 9999 BKN010 27/25 A2994=
201407151600 METAR MRLM 151600Z 03007KT 9999 DZ BKN010 27/25 A2993=
201407151700 METAR MRLM 151700Z 33002KT 9999 -DZ BKN015 28/25 A2992=
201407151800 METAR MRLM 151800Z 00000KT 9999 DZ BKN015 28/25 A2992=
201407151900 METAR MRLM 151900Z 08002KT 9999 BKN020 SCT110 29/25 A2990 REDZ=
201407152000 METAR MRLM 152000Z 12004KT 9999 VCTS FEW010CB BKN015 30/25 A2989=
201407152100 METAR MRLM 152100Z 08010KT 9999 DZ BKN010 26/24 A2988 RETS=
201407152200 METAR MRLM 152200Z 26002KT 9999 BKN010 SCT100 27/25 A2986 REDZ=
201407152300 METAR MRLM 152300Z 19003KT 9999 DZ BKN007 27/25 A2988=
201407160000 METAR MRLM 160000Z 00000KT 9999 BKN007 SCT100 26/25 A2990 REDZ=
201407160100 METAR MRLM NIL=
201407160200 METAR MRLM NIL=
201407160300 METAR MRLM NIL=
201407160400 METAR MRLM NIL=
201407160500 METAR MRLM NIL=
201407160600 METAR MRLM NIL=
201407160700 METAR MRLM NIL=
201407160800 METAR MRLM NIL=
201407160900 METAR MRLM NIL=
201407161000 METAR MRLM NIL=
201407161100 METAR MRLM NIL=
201407161200 METAR MRLM 161200Z 23003KT 9999 DZ OVC007 25/24 A2990=
201407161300 METAR MRLM 161300Z 24003KT 8000 DZ OVC007 25/24 A2991=
201407161325 METAR MRLM 161325Z 28003KT 3000 +RA OVC006 25/24 A2992=
201407161400 METAR MRLM 161400Z 35007KT 4000 RA VCTS FEW006CB BKN007 25/24 A2992=
201407161500 METAR MRLM 161500Z 26005KT 9999 -DZ BKN007 25/25 A2994 RERA=
201407161600 METAR MRLM 161600Z 23003KT 9999 DZ BKN010 27/26 A2995=
201407161700 METAR MRLM 161700Z 25003KT 9999 DZ FEW006 BKN010 26/25 A2996=
201407161800 METAR MRLM 161800Z 23005KT 9999 FEW015 SCT120 SCT240 29/26 A2993 REDZ=
201407161900 METAR MRLM 161900Z 20002KT 9999 FEW025 SCT130 SCT240 30/25 A2991=
201407162000 METAR MRLM 162000Z 07003KT 9999 SCT020 SCT130 30/26 A2989=
201407162100 METAR MRLM 162100Z 07004KT 9999 FEW020 BKN130 29/25 A2987=
201407162200 METAR MRLM 162200Z 00000KT 9999 FEW020 SCT130 SCT240 29/25 A2987=
201407162300 METAR MRLM 162300Z 00000KT 9999 FEW020 BKN120 29/25 A2987=
201407162320 METAR MRLM 162320Z 29003KT 9999 DZ VCTS FEW006CB SCT015 BKN120 28/25 A2988=
201407170000 METAR MRLM 170000Z 28003KT 9999 DZ SCT010 BKN12027/26 A2988 RETS=
201407170100 METAR MRLM NIL=
201407170200 METAR MRLM NIL=
201407170300 METAR MRLM NIL=
201407170400 METAR MRLM NIL=
201407170500 METAR MRLM NIL=
201407170600 METAR MRLM NIL=
201407170700 METAR MRLM NIL=
201407170800 METAR MRLM NIL=
201407170900 METAR MRLM NIL=
201407171000 METAR MRLM NIL=
201407171100 METAR MRLM NIL=
201407171200 METAR MRLM 171200Z 25006KT 6000 TSRA SCT005 FEW010CB SCT012 27/24 A2991=
201407171300 METAR MRLM 171300Z 31004KT 8000 DZ VCSH SCT002 SCT010 25/24 A2992 RETS=
201407171400 METAR MRLM 171400Z 23005KT 9999 SCT003 SCT010 25/25 A2995=
201407171500 METAR MRLM 171500Z 24006KT 9999 VCTS FEW010CB SCT003 SCT012 25/25 A2996=
201407171600 METAR MRLM 171600Z 05010KT 4000 TSRA SCT003 FEW010CB SCT012 25/24 A2996=
201407171700 METAR MRLM 171700Z 29003KT 8000 TSRA FEW003 FEW010CB BKN013 24/23 A2995=
201407171800 METAR MRLM 171800Z 25004KT 9999 DZ FEW004 BKN015 25/24 A2993 RETS=
201407171900 METAR MRLM 171900Z 24006KT 9999 OVC012 25/24 A2991=
201407172000 METAR MRLM 172000Z 26004KT 8000 DZ VCSH BKN010 26/24 A2988=
201407172100 METAR MRLM 172100Z 26003KT 9999 DZ BKN015 27/25 A2987=
201407172200 METAR MRLM 172200Z 25003KT 9999 DZ BKN010 SCT090 27/25 A2987=
201407172300 METAR MRLM 172300Z 26002KT 9999 BKN025 SCT090 27/25 A2986=
201407172355 METAR MRLM 180000Z 26001KT 9999 SCT025 SCT090 27/25 A2988=
201407180000 METAR MRLM 180000Z 26001KT 9999 SCT025 SCT090 27/25 A2988=
201407180100 METAR MRLM NIL=
201407180200 METAR MRLM NIL=
201407180300 METAR MRLM NIL=
201407180400 METAR MRLM NIL=
201407180500 METAR MRLM NIL=
201407180600 METAR MRLM NIL=
201407180700 METAR MRLM NIL=
201407180800 METAR MRLM NIL=
201407180900 METAR MRLM NIL=
201407181000 METAR MRLM NIL=
201407181100 METAR MRLM NIL=
201407181200 METAR MRLM 181200Z 25002KT 9999 SCT015 SCT035 24/24 A2992=
201407181300 METAR MRLM 181300Z 25003KT 9999 VCTSRA FEWCB010 BKN015 25/25 A2993=
201407181400 METAR MRLM 181400Z 26002KT 9999 VCTSRA FEW010CB BKN015 27/25 A2993=
201407181500 METAR MRLM 181500Z 02004KT 8000 DZ TSRA FEW005 FEWCB010 BKN015 27/26 A2995=
201407181600 METAR MRLM 181600Z 06004KT 7000 TSRA FEW005 SCT010CB SCT015 27/25 A2996=
201407181700 METAR MRLM 181700Z 15008KT 8000 RA FEW008 SCT015 BKN090 26/24 A2994 RETS=
201407181800 METAR MRLM 181800Z 01004KT 9999 DZ FEW003 SCT035 SCT100 26/25 A2992 RERA=
201407181900 METAR MRLM 181900Z 10002KT 9999 FEW006 SCT080 SCT120 27/26 A2988=
201407182000 METAR MRLM 182000Z 08002KT 9999 FEW008 SCT035 SCT100 27/25 A2987=
201407182100 METAR MRLM 182100Z 23003KT CAVOK 28/26 A2985=
201407182200 METAR MRLM 182200Z 07003KT CAVOK 28/25 A2984=
201407182300 METAR MRLM 182300Z 0305KT CAVOK 28/25 A2985=
201407182359 METAR MRLM 190000Z 01005KT CAVOK 27/25 A2985=
201407190000 METAR MRLM 190000Z 01005KT CAVOK 27/25 A2985=
201407190100 METAR MRLM NIL=
201407190200 METAR MRLM NIL=
201407190300 METAR MRLM NIL=
201407190400 METAR MRLM NIL=
201407190500 METAR MRLM NIL=
201407190600 METAR MRLM NIL=
201407190700 METAR MRLM NIL=
201407190800 METAR MRLM NIL=
201407190900 METAR MRLM NIL=
201407191000 METAR MRLM NIL=
201407191100 METAR MRLM NIL=
201407191200 METAR MRLM 191200Z 00000KT 9999 DZ SCT007 BKN080 23/23 A2989=
201407191300 METAR MRLM 191300Z 28005KT 9999 DZ BKN007 SCT080 24/23 A2990=
201407191400 METAR MRLM 191400Z 29002KT 9999 4000N RA BKN007 25/24 A2994=
201407191500 METAR MRLM 191500Z 31006KT 9999 SCT010 SCT100 26/25 A2994 RERA=
201407191600 METAR MRLM 191600Z 30006KT 9999 SCT020 SCT110 28/24 A2994=
201407191700 METAR MRLM 191700Z 31008KT 9999 BKN025 SCT120 29/24 A2993=
201407191800 METAR MRLM 191800Z 01013KT 9999 SCT020 SCT130 29/25 A2993=
201407191900 METAR MRLM 191900Z 33004KT 9999 FEW025 SCT250 29/24 A2989=
201407192000 METAR MRLM 192000Z 05004KT 9999 FEW025 BKN250 29/25 A2988=
201407192100 METAR MRLM 192100Z 02005KT 9999 FEW030 BKN250 30/24 A2986=
201407192200 METAR MRLM 192200Z 04004KT 9999 FEW030 BKN250 30/24 A2987=
201407192300 METAR MRLM 192300Z 02004KT CAVOK 29/25 A2987=
201407200000 METAR MRLM 200000Z 30002KT CAVOK 28/25 A2990=
201407200100 METAR MRLM NIL=
201407200200 METAR MRLM NIL=
201407200300 METAR MRLM NIL=
201407200400 METAR MRLM NIL=
201407200500 METAR MRLM NIL=
201407200600 METAR MRLM NIL=
201407200700 METAR MRLM NIL=
201407200800 METAR MRLM NIL=
201407200900 METAR MRLM NIL=
201407201000 METAR MRLM NIL=
201407201100 METAR MRLM NIL=
201407201200 METAR MRLM 201200Z 26003KT 9999 DZ BKN006 25/24 A2992=
201407201300 METAR MRLM 201300Z 29003KT 9999 DZ BKN007 25/24 A2992=
201407201400 METAR MRLM 201400Z 25004KT 9999 BKN010 27/25 A2993=
201407201500 METAR MRLM 201500Z 29004KT 9999 4000N DZ BKN010 27/25 A2993=
201407201600 METAR MRLM 201600Z 24006KT 4000 RAVCTS FEW005CB OVC006 25/24 A2994=
201407201700 METAR MRLM 201700Z 23003KT 8000 DZ OVC006 25/25 A2994 RERA=
201407201800 METAR MRLM 201800Z 26005KT 9999 BKN010 SCT110 26/25 A2991 REDZ=
201407201900 METAR MRLM 201900Z 27005KT 8000 DZ OVC010 27/24 A2989=
201407201930 METAR MRLM 201930Z 05009KT 3000 +RA OVC007 25/24 A2990=
201407202000 METAR MRLM 202000Z 24004KT 7000 DZ BKN007 24/24 A2988 RERA=
201407202100 METAR MRLM 202100Z 23004KT 9999 DZ BKN007 25/25 A2985=
201407202200 METAR MRLM 202200Z 00000KT 9999 3000N DZ OVC007 26/25 A2986=
201407202300 METAR MRLM 202300Z 30003KT 9999 -DZ BKN010 25/24 A2986=
201407210000 METAR MRLM 210000Z 00000KT 9999 DZ BKN010 SCT090 25/25 A2987=
201407210100 METAR MRLM NIL=
201407210200 METAR MRLM NIL=
201407210300 METAR MRLM NIL=
201407210400 METAR MRLM NIL=
201407210500 METAR MRLM NIL=
201407210600 METAR MRLM NIL=
201407210700 METAR MRLM NIL=
201407210800 METAR MRLM NIL=
201407210900 METAR MRLM NIL=
201407211000 METAR MRLM NIL=
201407211100 METAR MRLM NIL=
201407211200 METAR MRLM 24004KT 9999 DZ VCRA SCT012 SCT025 24/23 A2987=
201407211211 METAR MRLM 211211Z 24004KT 9999 DZ VCRA SCT012 SCT025 24/23 A2987=
201407211300 METAR MRLM 211300Z 26004KT 9999 SCT015 SCT025 24/24 A2989 REDZ=
201407211400 METAR MRLM 211400Z 28005KT 9999 SCT015 28/25 A2990=
201407211500 METAR MRLM 211500Z 06003KT 9999 FEW015 SCT080 29/26 A2990=
201407211600 METAR MRLM 211600Z 07003KT 9999 SCT025 BKN100 31/25 A2990=
201407211700 METAR MRLM 211700Z 06004KT 9999 FEW025 SCT090 30/25 A2988=
201407211800 METAR MRLM 211800Z 04004KT 9999 FEW025 SCT090 30/26 A2987=
201407211900 METAR MRLM 211900Z 06004KT 9999 FEW025 SCT090 31/25 A2985=
201407212000 METAR MRLM 212000Z 04004KT 9999 BKN025 SCT080 30/26 A2983=
201407212100 METAR MRLM 212100Z 04005KT 9999 SCT025 SCT270 30/25 A2983=
201407212200 METAR MRLM 212200Z 05010KT 9999 +DZ BKN015 29/26 A2983=
201407212300 METAR MRLM 212300Z 07011KT 8000 DZ VCSH OVC008 28/26 A2984 RERA=
201407212355 METAR MRLM 220000Z 08012KT 9999 FEW015 BKN270 28/25 A2986 REDZ=
201407220000 METAR MRLM 220000Z 08012KT 9999 FEW015 BKN270 28/25 A2986 REDZ=
201407220100 METAR MRLM NIL=
201407220200 METAR MRLM NIL=
201407220300 METAR MRLM NIL=
201407220400 METAR MRLM NIL=
201407220500 METAR MRLM NIL=
201407220600 METAR MRLM NIL=
201407220700 METAR MRLM NIL=
201407220800 METAR MRLM NIL=
201407220900 METAR MRLM NIL=
201407221000 METAR MRLM NIL=
201407221100 METAR MRLM NIL=
201407221200 METAR MRLM 221200Z 36005KT 9999 TS FEW010CB BKN020 25/24 A2987 NOSIG=
201407221300 METAR MRLM 221300Z 300/04KT 9999 OVC015 25/24 A2988 RETS=
201407221400 METAR MRLM 221400Z 30003KT 8000 TSRA FEW010CB BKN015 25/24 A2989=
201407221500 METAR MRLM 221500Z 31002KT 8000 TSRA FEW003 FEW010CB BKN015 25/24 A2991=
201407221600 METAR MRLM 221600Z 29007KT 9999 TSRA FEW003 FEWCB010 SCT020 SCT100 24/24 A2989=
201407221700 METAR MRLM 221700Z 31005KT 9999 SCT015 SCT140 25/24 A2988 RETS=
201407221800 METAR MRLM 221800Z 30004KT 9999 TS FEW010CB SCT015 SCT140 26/24 A2987=
201407221900 METAR MRLM 221900Z 32006KT 9999 SCT012 SCT140 26/24 A2986 RETS=
201407221957 METAR MRLM 22200Z 34005KT 9999 DZ SCT015 SCT140 26/24 A2985=
201407222000 METAR MRLM 22200Z 34005KT 9999 DZ SCT015 SCT140 26/24 A2985=
201407222100 METAR MRLM 222100Z 3405KT 9999 DZ FEW015 BKN140 27/24 A2982=
201407222200 METAR MRLM 222200Z 33004KT 9999 SCT020 SCT090 27/24 A2982 REDZ=
201407222300 METAR MRLM 222300Z 34004KT 9999 DZ BKN015 26/24 A2985 RERA=
201407222355 METAR MRLM 230000Z 28003KT 9999 BKN020 25/24 A2986 RERDZ0=
201407230000 METAR MRLM 230000Z 28003KT 9999 BKN020 25/24 A2986 RERDZ0=
201407230100 METAR MRLM NIL=
201407230200 METAR MRLM NIL=
201407230300 METAR MRLM NIL=
201407230400 METAR MRLM NIL=
201407230500 METAR MRLM NIL=
201407230600 METAR MRLM NIL=
201407230700 METAR MRLM NIL=
201407230800 METAR MRLM NIL=
201407230900 METAR MRLM NIL=
201407231000 METAR MRLM NIL=
201407231100 METAR MRLM NIL=
201407231200 METAR MRLM 231200Z 00000KT 3000 DZ OVC006 24/23 A2989=
201407231300 METAR MRLM 231300Z 20003KT 8000 3000N DZ OVC006 24/23 A2991=
201407231400 METAR MRLM 231400Z 20002KT 9999 -DZ BKN010 SCT090 24/24 A2992=
201407231500 METAR MRLM 231500Z 30004KT 9999 -DZ BKN010 SCT090 25/24 A2993=
201407231600 METAR MRLM 231600Z 29004KT 9999 SCT015 BKN100 28/26 A2992=
201407231700 METAR MRLM 231700Z 02007KT 2000 +RA BKN007 26/25 A2993=
201407231800 METAR MRLM 231800Z 23004KT 8000 DZ BKN007 25/25 A2990 RERA=
201407231900 METAR MRLM 231900Z 26005KT 9999 BKN010 27/25 A2987 REDZ=
201407232000 METAR MRLM 232000Z 21003KT 9999 -DZ BKN010 SCT100 27/25 A2985=
201407232100 METAR MRLM 232100Z 23004KT 9999 -DZ BKN020 29/25 A2983=
201407232120 METAR MRLM 232120Z 08005KT 7000 2000N RAVCTS FEW010CB BKN015 27/24 A2984=
201407232200 METAR MRLM 232200Z 06005KT 9999 DZ BKN010 25/24 A2984 RERA=
201407232300 METAR MRLM 232300Z 26002KT 9999 DZ BKN010 25/25 A2986=
201407240000 METAR MRLM 240000Z 27003KT 8000 DZ BKN007 25/25 A2988=
201407240100 METAR MRLM NIL=
201407240200 METAR MRLM NIL=
201407240300 METAR MRLM NIL=
201407240400 METAR MRLM NIL=
201407240500 METAR MRLM NIL=
201407240600 METAR MRLM NIL=
201407240700 METAR MRLM NIL=
201407240800 METAR MRLM NIL=
201407240900 METAR MRLM NIL=
201407241000 METAR MRLM NIL=
201407241100 METAR MRLM NIL=
201407241200 METAR MRLM 241200Z 27002KT 9999 DZ BKN007 24/24 A2986=
201407241300 METAR MRLM 241300Z 27003KT 9999 BKN010 25/24 A2987=
201407241400 METAR MRLM 241400Z 23005KT 9999 BKN015 27/24 A2989=
201407241500 METAR MRLM 241500Z 22004KT 9999 BKN020 28/24 A2990=
201407241600 METAR MRLM 241600Z 12003KT 9999 BKN025 30/25 A2989=
201407241700 METAR MRLM 241700Z 09004KT 9999 SCT030 31/25 A2986=
201407241800 METAR MRLM 241800Z 07004KT 9999 FEW030 SCT130 30/25 A2985=
201407241900 METAR MRLM 241900Z 06006KT 9999 FEW030 BKN130 30/25 A2983=
201407242000 METAR MRLM 242000Z 05004KT CAVOK 30/25 A2980=
201407242100 METAR MRLM 242100Z 03006KT 9999 FEW020 SCT130 30/25 A2979=
201407242200 METAR MRLM 242200Z 02008KT 9999 FEW020 SCT140 SCT250 29/26 A2979=
201407242300 METAR MRLM 242300Z 35006KT 9999 FEW020 SCT140 SCT250 29/24 A2979=
201407250000 METAR MRLM 250000Z 36006KT 9999 SCT010 SCT130 28/25 A2982=
201407250100 METAR MRLM NIL=
201407250200 METAR MRLM NIL=
201407250300 METAR MRLM NIL=
201407250400 METAR MRLM NIL=
201407250500 METAR MRLM NIL=
201407250600 METAR MRLM NIL=
201407250700 METAR MRLM NIL=
201407250800 METAR MRLM NIL=
201407250900 METAR MRLM NIL=
201407251000 METAR MRLM NIL=
201407251100 METAR MRLM NIL=
201407251200 METAR MRLM 251200Z 27004KT 9999 FEW015 BKN280 24/24 A2987=
201407251300 METAR MRLM 251300Z 27005KT 9999 BKN015 SCT280 25/24 A2989=
201407251400 METAR MRLM 251400Z 32005KT 9999 BKN018 29/26 A2988=
201407251500 METAR MRLM 251500Z 35006KT 8000 +DZ VCSH OVC020 30/25 A2990=
201407251600 METAR MRLM 251600Z 08004KT 9999 BKN020 30/26 A2990 REDZ=
201407251700 METAR MRLM 251700Z 08004KT 8000 DZ VCSH OVC012 28/26 A2989=
201407251800 METAR MRLM 251800Z 11003KT 8000 DZ VCSH BKN015 SCT140 29/26 A2986=
201407251900 METAR MRLM 251900Z 07007KT 9999 DZ SCT012 SCT090 28/26 A2985=
201407252000 METAR MRLM 252000Z 03005KT 9999 TS FEWCB010 SCT0115 SCT090 28/25 A2982=
201407252100 METAR MRLM 252100Z 05005KT 6000 TSRA SCT010CB BKN015 27/25 A2983=
201407252200 METAR MRLM 252200Z 02006KT 9999 TS FEW010CB BKN020 26/24 A2981=
201407252300 METAR MRLM 252300Z 03005KT 9999 SCT020 SCT080 25/24 A2984 RETS=
201407252356 METAR MRLM 260000Z 26004KT 9999 OVC015 25/24 A2986=
201407260000 METAR MRLM 260000Z 26004KT 9999 OVC015 25/24 A2986=
201407260100 METAR MRLM NIL=
201407260200 METAR MRLM NIL=
201407260300 METAR MRLM NIL=
201407260400 METAR MRLM NIL=
201407260500 METAR MRLM NIL=
201407260600 METAR MRLM NIL=
201407260700 METAR MRLM NIL=
201407260800 METAR MRLM NIL=
201407260900 METAR MRLM NIL=
201407261000 METAR MRLM NIL=
201407261100 METAR MRLM NIL=
201407261200 METAR MRLM 261200Z 25002KT 9999 FEW005 BKN015 25/24 A2987=
201407261300 METAR MRLM 261300Z 20004KT 9999 +DZ OVC015 25/24 A2989=
201407261400 METAR MRLM 261400Z 25003KT 9999 TS FEW010CB BKN015 25/24 A2989=
201407261500 METAR MRLM 261500Z 35002KT 3000 TSRA FEWCB010 BKN1500 25/25 A2990=
201407261600 METAR MRLM 261600Z 31004KT 8000 TSRA SCTCB010 BKN015 25/24 A2992=
201407261700 METAR MRLM 261700Z 31005KT 9999 RA SCT015 SCT025 25/24 A2994 RETS=
201407261800 METAR MRLM 261800Z 29006KT 9999 +DZ FEW004 BKN015 25/24 A2994 RERA=
201407261900 METAR MRLM 261900Z 31005KT 9999 FEW008 SCT140 27/25 A2990 REDZ=
201407262000 METAR MRLM 262000Z 31007KT 9999 SCT015 SCT260 28/25 A2987=
201407262100 METAR MRLM 262100Z 30007KT 9999 FEW020 SCT090 29/25 A2986=
201407262200 METAR MRLM 262200Z 32005KT 9999 FEW025 BKN270 29/24 A2987=
201407262300 METAR MRLM 262300Z 31006KT 9999 FEW015 BKN270 27/24 A2988=
201407262356 METAR MRLM 270000Z 32005KT 9999 FEW015 SCT090 26/24 A2990=
201407270000 METAR MRLM 270000Z 32005KT 9999 FEW015 SCT090 26/24 A2990=
201407270100 METAR MRLM NIL=
201407270200 METAR MRLM NIL=
201407270300 METAR MRLM NIL=
201407270400 METAR MRLM NIL=
201407270500 METAR MRLM NIL=
201407270600 METAR MRLM NIL=
201407270700 METAR MRLM NIL=
201407270800 METAR MRLM NIL=
201407270900 METAR MRLM NIL=
201407271000 METAR MRLM NIL=
201407271100 METAR MRLM NIL=
201407271200 METAR MRLM 271200Z 26004KT 9999 DZ BKN010 24/23 A2992=
201407271300 METAR MRLM 271300Z 25004KT 9999 DZ BKN010 24/23 A2993=
201407271400 METAR MRLM 271400Z 26003KT 9999 DZVCTS FEW007CB BKN010 SCT100 25/24 A2995=
201407271500 METAR MRLM 271500Z 01010KT 8000 DZVCTS FEW007CB BKN010 25/24 A2998=
201407271600 METAR MRLM 271600Z 30007KT 9999 DZ FEW006 BKN010 25/24 A2999 RETS=
201407271700 METAR MRLM 271700Z 30005KT 9999 SCT015 26/23 A2998 REDZ=
201407271800 METAR MRLM 271800Z 31004KT 9999 FEW020 SCT130 SCT250 28/24 A2994=
201407271900 METAR MRLM 271900Z 32005KT CAVOK 29/24 A2989=
201407272000 METAR MRLM 272000Z 34002KT CAVOK 31/24 A2986=
201407272100 METAR MRLM 272100Z 33004KT CAVOK 30/24 A2984=
201407272200 METAR MRLM 272200Z 02009KT CAVOK 28/24 A2985=
201407272300 METAR MRLM 272300Z 35004KT CAVOK 28/24 A2987=
201407280000 METAR MRLM 280000Z 00000KT CAVOK 27/25 A2990=
201407280100 METAR MRLM NIL=
201407280200 METAR MRLM NIL=
201407280300 METAR MRLM NIL=
201407280400 METAR MRLM NIL=
201407280500 METAR MRLM NIL=
201407280600 METAR MRLM NIL=
201407280700 METAR MRLM NIL=
201407280800 METAR MRLM NIL=
201407280900 METAR MRLM NIL=
201407281000 METAR MRLM NIL=
201407281100 METAR MRLM NIL=
201407281200 METAR MRLM 281200Z 00000KT CAVOK 24/23 A2990=
201407281300 METAR MRLM 281300Z 25003KT CAVOK 26/23 A2991=
201407281400 METAR MRLM 281400Z 30002KT CAVOK 27/24 A2993=
201407281500 METAR MRLM 281500Z 34008KT 9999 FEW020 BKN130 27/23 A2996=
201407281600 METAR MRLM 281600Z 01006KT 9999 3000N DZ BKN010 26/24 A2996=
201407281700 METAR MRLM 281700Z 35005KT 9999 -DZ BKN010 SCT110 27/25 A2994=
201407281800 METAR MRLM 281800Z 10002KT 9999 FEW025 SCT130 SCT250 29/23 A2991=
201407281900 METAR MRLM 281900Z 09004KT 9999 FEW030 BKN140 29/23 A2988=
201407282000 METAR MRLM 282000Z 12004KT 9999 FEW035 BKN260 30/23 A2986=
201407282100 METAR MRLM 282100Z 08004KT CAVOK 29/24 A2985=
201407282200 METAR MRLM 282200Z 07005KT CAVOK 29/24 A2984=
201407282300 METAR MRLM 282300Z 04003KT CAVOK 28/24 A2985=
201407290000 METAR MRLM 290000Z 02003KT CAVOK 28/24 A2989=
201407290100 METAR MRLM NIL=
201407290200 METAR MRLM NIL=
201407290300 METAR MRLM NIL=
201407290400 METAR MRLM NIL=
201407290500 METAR MRLM NIL=
201407290600 METAR MRLM NIL=
201407290700 METAR MRLM NIL=
201407290800 METAR MRLM NIL=
201407290900 METAR MRLM NIL=
201407291000 METAR MRLM NIL=
201407291100 METAR MRLM NIL=
201407291200 METAR MRLM 291200Z 23005KT 9999 DZ OVC015 24/24 A2989=
201407291300 METAR MRLM 291300Z 26005KT 9999 OVC015 25/24 A2992 REDZ=
201407291400 METAR MRLM 291400Z 25005KT 9999 SCT015 SCT090 26/25 A2994=
201407291500 METAR MRLM 291500Z 24004KT CAVOK 28/25 A2994=
201407291600 METAR MRLM 291600Z 10004KT 9999 FEW025 SCT090 30/25 A2992=
201407291700 METAR MRLM 291700Z 06006KT 9999 FEW030 BKN270 30/25 A2991=
201407291800 METAR MRLM 291800Z 05006KT 9999 FEW030 SCT090 30/24 A2990=
201407291900 METAR MRLM 291900Z 04007KT 9999 FEW020 BKN080 29/25 A2990=
201407291956 METAR MRLM 29200Z 07004KT 9999 FEW025 SCT070 29/24 A2988=
201407292000 METAR MRLM 29200Z 07004KT 9999 FEW025 SCT070 29/24 A2988=
201407292100 METAR MRLM 292100Z 08003KT 9999 FEW025 SCT080 30/25 A2987=
201407292200 METAR MRLM 292200Z 05005KT 9999 FEW020 BKN080 30/26 A2988=
201407292300 METAR MRLM 292300Z 05003KT 9999 BKN020 29/25 A2988=
201407292355 METAR MRLM 300000Z 07002KT 9999 OVC015 29/26 A2990=
201407300000 METAR MRLM 300000Z 07002KT 9999 OVC015 29/26 A2990=
201407300100 METAR MRLM NIL=
201407300200 METAR MRLM NIL=
201407300300 METAR MRLM NIL=
201407300400 METAR MRLM NIL=
201407300500 METAR MRLM NIL=
201407300600 METAR MRLM NIL=
201407300700 METAR MRLM NIL=
201407300800 METAR MRLM NIL=
201407300900 METAR MRLM NIL=
201407301000 METAR MRLM NIL=
201407301100 METAR MRLM NIL=
201407301200 METAR MRLM 301200Z 34006KT 8000 TSRA SCT002 SCT010CB SCT020 24/24 A2992=
201407301300 METAR MRLM 301300Z 34005KT 8000 TSRA FEW002 SCT015CB SCT020 24/24 A2995=
201407301400 METAR MRLM 301400Z 24004KT 8000 TSRA FEW002 SCT010CB SCT015 24/24 A2996=
201407301500 METAR MRLM 301500Z 22003KT 7000 TSRA FEW200 SCT010CB SCT015 24/24 A2997=
201407301600 METAR MRLM 301600Z 20002KT 8000 DZ VCSH FEW003 BKN015 24/24 A2999 RETS=
201407301700 METAR MRLM 301700Z 29002KT 9999 FEW025 SCT070 SCT120 25/24 A2996 REDZ0=
201407301800 METAR MRLM 301800Z 31007KT 9999 FEW008 SCT070 SCT150 26/25 A2989=
201407301900 METAR MRLM 301900Z 02004KT 9999 SCT020 SCT270 28/25 A2992=
201407302000 METAR MRLM 302000Z 06002KT 9999 OVC025 28/24 A2990=
201407302100 METAR MRLM NIL=
201407302200 METAR MRLM 302200Z 27004KT 9999 BKN015 28/25 A2987=
201407302300 METAR MRLM 302300Z 26002KT 9999 FEW015 BKN090 28/24 A2988=
201407302354 METAR MRLM 310000Z 22002KT 8000 VCTSRA FEW010CB BKN015 27/25 A2989=
201407310000 METAR MRLM 310000Z 22002KT 8000 VCTSRA FEW010CB BKN015 27/25 A2989=
201407310100 METAR MRLM NIL=
201407310200 METAR MRLM NIL=
201407310300 METAR MRLM NIL=
201407310400 METAR MRLM NIL=
201407310500 METAR MRLM NIL=
201407310600 METAR MRLM NIL=
201407310700 METAR MRLM NIL=
201407310800 METAR MRLM NIL=
201407310900 METAR MRLM NIL=
201407311000 METAR MRLM NIL=
201407311100 METAR MRLM NIL=
201407311200 METAR MRLM 311200Z 04009KT 2000 TSRA FEW006CB OVC007 24/24 A2993=
201407311300 METAR MRLM 311300Z 00000KT 7000 RA FEW004 OVC007 24/24 A2993 RETS=
201407311400 METAR MRLM 311400Z 25006KT 9999 -RA FEW005 BKN010 24/24 A2995=
201407311500 METAR MRLM 311500Z 29005KT 9999 FEW015 BKN110 26/25 A2993=
201407311600 METAR MRLM 311600Z 30002KT 9999 -DZ SCT020 BKN110 28/24 A2993=
201407311700 METAR MRLM 311700Z 31003KT 9999 SCT020 BKN110 28/24 A2992=
201407311800 METAR MRLM 311800Z 04013KT 8000 DZ BKN010 SCT100 26/25 A2992=
201407311900 METAR MRLM 311900Z 03009KT 9999 SCT015 BKN110 27/24 A2990 REDZ=
201407312000 METAR MRLM 312000Z 05004KT 9999 FEW020 BKN120 28/23 A2988=
201407312100 METAR MRLM 312100Z 02003KT 9999 DZ SCT020 BKN110 27/24 A2987=
201407312200 METAR MRLM 312200Z 03006KT 9999 SCT020 SCT110 27/24 A2986=
201407312300 METAR MRLM 312300Z 36008KT 9999 FEW010 BKN110 27/24 A2985=
201408010000 METAR MRLM 010000Z 00000KT 9999 BKN010 26/24 A2988=
201408010100 METAR MRLM NIL=
201408010200 METAR MRLM NIL=
201408010300 METAR MRLM NIL=
201408010400 METAR MRLM NIL=
201408010500 METAR MRLM NIL=
201408010600 METAR MRLM NIL=
201408010700 METAR MRLM NIL=
201408010800 METAR MRLM NIL=
201408010900 METAR MRLM NIL=
201408011000 METAR MRLM NIL=
201408011100 METAR MRLM NIL=
201408011200 METAR MRLM 011200Z 29003KT 2000 +RA OVC007 23/23 A2991=
201408011300 METAR MRLM 011300Z 26004KT 4000 -RA FEW005 OVC007 23/23 A2992=
201408011400 METAR MRLM 011400Z 26003KT 6000 DZ BKN007 24/23 A2991 RERA=
201408011500 METAR MRLM 011500Z 23002KT 9999 DZ BKN010 SCT090 25/24 A2990=
201408011600 METAR MRLM 011600Z 19003KT 9999 BKN010 SCT100 27/25 A2990 REDZ=
201408011700 METAR MRLM 011700Z 11003KT 9999 SCT015 SCT110 28/25 A2989=
201408011800 METAR MRLM 011800Z 11003KT 9999 BKN020 29/25 A2987=
201408011900 METAR MRLM 011900Z 19003KT 9999 FEW030 BKN240 29/23 A2985=
201408012000 METAR MRLM 012000Z 11003KT 9999 FEW030 SCT130 SCT250 30/25 A2984=
201408012100 METAR MRLM 012100Z 08002KT 9999 FEW030 BKN240 30/24 A2982=
201408012200 METAR MRLM 012200Z 04003KT CAVOK 29/24 A2981=
201408012300 METAR MRLM 012300Z 01007KT CAVOK 29/25 A2982=
201408020000 METAR MRLM 020000Z 05004KT CAVOK 28/24 A2983=
201408020100 METAR MRLM NIL=
201408020200 METAR MRLM NIL=
201408020300 METAR MRLM NIL=
201408020400 METAR MRLM NIL=
201408020500 METAR MRLM NIL=
201408020600 METAR MRLM NIL=
201408020700 METAR MRLM NIL=
201408020800 METAR MRLM NIL=
201408020900 METAR MRLM NIL=
201408021000 METAR MRLM NIL=
201408021100 METAR MRLM NIL=
201408021200 METAR MRLM 02124 78767 11565 82803 10241 20236 30111 40117 53003 60442 715// 87530 333 06000 10304 20236 32/// 59014 70493 87625=
201408021227 METAR MRLM 02124 78767 11565 82803 10241 20236 30111 40117 53003 60442 715// 87530 333 06000 10304 20236 32/// 59014 70493 87625=
201408021259 METAR MRLM 021259Z 27004KT 9999 FEW015 BKN025 24/24 A2988=
201408021300 METAR MRLM 27004KT 9999 FEW015 BKN025 24/24 A2988=
201408021400 METAR MRLM 021400Z 25003KT 9999 OVC020 26/25 A2990=
201408021500 METAR MRLM 021500Z 32004KT 9999 BKN015 26/25 A2991 RERA=
201408021600 METAR MRLM 021600Z 25004KT 9999 SCT025 SCT270 29/25 A2990=
201408021700 METAR MRLM 021700Z 06004KT 9999 BKN020 29/25 A2990=
201408021800 METAR MRLM 021800Z 06003KT 9999 BKN025 29/24 A2988=
201408021900 METAR MRLM 021900Z 05004KT 9999 SCT025 SCT270 29/24 A2987=
201408022000 METAR MRLM 022000Z 06004KT 9999 SCT025 BKN270 30/24 A2984=
201408022100 METAR MRLM 022100Z 02006KT 9999 FEW025 BKN270 30/25 A2984=
201408022200 METAR MRLM 022200Z 34004KT 9999 FEW025 BKN270 29/24 A2984=
201408022300 METAR MRLM 022300Z 3404KT 9999 FEW025 BKN270 29/24 A2984=
201408022352 METAR MRLM 030000Z 30002KT CAVOK 28/25 A2986=
201408030000 METAR MRLM 030000Z 30002KT CAVOK 28/25 A2986=
201408030100 METAR MRLM NIL=
201408030200 METAR MRLM NIL=
201408030300 METAR MRLM NIL=
201408030400 METAR MRLM NIL=
201408030500 METAR MRLM NIL=
201408030600 METAR MRLM NIL=
201408030700 METAR MRLM NIL=
201408030800 METAR MRLM NIL=
201408030900 METAR MRLM NIL=
201408031000 METAR MRLM NIL=
201408031100 METAR MRLM NIL=
201408031200 METAR MRLM 031200Z 26003KT 9999 FEW015 BKN080 24/24 A2990=
201408031300 METAR MRLM 031300Z 28002KT 9999 FEW015 SCT030 25/24 A2992=
201408031400 METAR MRLM 031400Z 26003KT 9999 FEW025 BKN080 26/24 A2992=
201408031500 METAR MRLM 031500Z 28003KT 9999 DZ FEW015 BKN090 27/24 A2994=
201408031600 METAR MRLM 031600Z 30002KT 9999 DZ FEW018 BKN080 28/25 A2995=
201408031700 METAR MRLM 031700Z 32003KT 9999 DZ BKN080 29/24 A2993=
201408031800 METAR MRLM 031800Z 07004KT 9999 FEW025 BKN090 29/24 A2991 RERDZ=
201408031900 METAR MRLM 031900Z 13007KT 9999 FEW015 BKN090 28/25 A2990=
201408032000 METAR MRLM 032000Z 13009KT 9999 +DZ SCT012 BKN100 27/25 A2988=
201408032100 METAR MRLM 032100Z 12007KT 9999 +DZ FEW015 BKN120 26/25 A2986=
201408032200 METAR MRLM 032200Z 13004KT 9999 DZ FEW008 BKN090 26/24 A2987=
201408032300 METAR MRLM 032300Z 24003KT 9999 DZ FEW005 SCT090 BKN120 26/25 A2988=
201408032355 METAR MRLM 040000Z 27002KT CAVOK 25/25 A2987 REDZ=
201408040000 METAR MRLM 040000Z 27002KT CAVOK 25/25 A2987 REDZ=
201408040100 METAR MRLM NIL=
201408040200 METAR MRLM NIL=
201408040300 METAR MRLM NIL=
201408040400 METAR MRLM NIL=
201408040500 METAR MRLM NIL=
201408040600 METAR MRLM NIL=
201408040700 METAR MRLM NIL=
201408040800 METAR MRLM NIL=
201408040900 METAR MRLM NIL=
201408041000 METAR MRLM NIL=
201408041100 METAR MRLM NIL=
201408041200 METAR MRLM 041200Z 25004KT CAVOK 23/22 A2992=
201408041300 METAR MRLM 041300Z 24004KT CAVOK 24/22 A2992=
201408041400 METAR MRLM 041400Z 25002KT CAVOK 28/23 A2993=
201408041500 METAR MRLM 041500Z 05005KT CAVOK 28/23 A2993=
201408041600 METAR MRLM 041600Z 36007KT 9999 FEW040 BKN260 31/22 A2993=
201408041700 METAR MRLM 041700Z 03011KT 9999 FEW040 BKN260 31/23 A2992=
201408041800 METAR MRLM 041800Z 03009KT CAVOK 30/24 A2991=
201408041900 METAR MRLM 041900Z 03009KT CAVOK 30/25 A2988=
201408042000 METAR MRLM 042000Z 04010KT CAVOK 30/24 A2987=
201408042100 METAR MRLM 042100Z 04007KT 9999 FEW040 BKN260 30/24 A2985=
201408042200 METAR MRLM 042200Z 04005KT 9999 FEW030 SCT260 30/24 A2986=
201408042300 METAR MRLM 042300Z 06004KT 9999 SCT020 SCT250 29/24 A2988=
201408050000 METAR MRLM 050000Z 04004KT 9999 SCT020 SCT250 28/24 A2990=
201408050100 METAR MRLM NIL=
201408050200 METAR MRLM NIL=
201408050300 METAR MRLM NIL=
201408050400 METAR MRLM NIL=
201408050500 METAR MRLM NIL=
201408050600 METAR MRLM NIL=
201408050700 METAR MRLM NIL=
201408050800 METAR MRLM NIL=
201408050900 METAR MRLM NIL=
201408051000 METAR MRLM NIL=
201408051100 METAR MRLM NIL=
201408051200 METAR MRLM 051200Z 26003KT CAVOK 24/23 A2995=
201408051300 METAR MRLM 051300Z 25003KT CAVOK 26/23 A2996=
201408051400 METAR MRLM 051400Z 00000KT CAVOK 29/24 A2998=
201408051500 METAR MRLM 051500Z 03003KT 9999 FEW020 SCT130 SCT250 29/24 A2999=
201408051600 METAR MRLM 051600Z 03007KT 9999 FEW025 BKN130 29/24 A2999=
201408051700 METAR MRLM 051700Z 03007KT 9999 FEW020 BKN120 29/24 A2999=
201408051800 METAR MRLM 051800Z 04005KT 9999 FEW030 BKN130 30/24 A2997=
201408051900 METAR MRLM 051900Z 06006KT 9999 SCT020 SCT130 29/25 A2996=
201408052000 METAR MRLM 052000Z 09003KT 9999 SCT030 SCT250 30/25 A2995=
201408052100 METAR MRLM 052100Z 13003KT 9999 FEW030 BKN250 31/24 A2994=
201408052200 METAR MRLM 052200Z 07002KT 9999 FEW030 BKN250 30/24 A2993=
201408052300 METAR MRLM 052300Z 06004KT 9999 FEW030 BKN250 29/24 A2992=
201408060000 METAR MRLM 060000Z 06005KT 9999 FEW020 BKN240 28/24 A2995=
201408060100 METAR MRLM NIL=
201408060200 METAR MRLM NIL=
201408060300 METAR MRLM NIL=
201408060400 METAR MRLM NIL=
201408060500 METAR MRLM NIL=
201408060600 METAR MRLM NIL=
201408060700 METAR MRLM NIL=
201408060800 METAR MRLM NIL=
201408060900 METAR MRLM NIL=
201408061000 METAR MRLM NIL=
201408061100 METAR MRLM NIL=
201408061200 METAR MRLM 061200Z 24006KT 9999 DZ BKN015 24/24 A2904=
201408061300 METAR MRLM 061300Z 23006KT 9999 BKN015 24/23 A2995 REDZ=
201408061400 METAR MRLM 061400Z 29003KT 9999 SCT015 SCT080 26/24 A2996=
201408061500 METAR MRLM 061500Z 27003KT 9999 FEW020 SCT090 28/24 A2995=
201408061600 METAR MRLM 061600Z 09004KT 9999 SCT020 SCT090 29/25 A2995=
201408061700 METAR MRLM 061700Z 05007KT 9999 SCT020 SCT090 29/25 A2995=
201408061800 METAR MRLM 061800Z 0113KT 8000 DZ VCSH FEW007 BKN020 26/24 A2995 RERA=
201408061900 METAR MRLM 061900Z 27004KT 9999 DZ FEW008 SCT020 26/24 A2992=
201408062000 METAR MRLM 062000Z 24005KT 9999 SCT025 SCT080 28/24 A2999 REDZ=
201408062100 METAR MRLM 062100Z 32005KT 9999 FEW020 BKN080 28/24 A2988=
201408062200 METAR MRLM 062200Z 32003KT 9999 FEW020 SCT080 BKN270 28/24 A2986=
201408062300 METAR MRLM 062300Z 30003KT CAVOK 28/24 A2986=
201408062354 METAR MRLM 070000Z 30001KT CAVOK 27/24 A2988=
201408070000 METAR MRLM 070000Z 30001KT CAVOK 27/24 A2988=
201408070100 METAR MRLM NIL=
201408070200 METAR MRLM NIL=
201408070300 METAR MRLM NIL=
201408070400 METAR MRLM NIL=
201408070500 METAR MRLM NIL=
201408070600 METAR MRLM NIL=
201408070700 METAR MRLM NIL=
201408070800 METAR MRLM NIL=
201408070900 METAR MRLM NIL=
201408071000 METAR MRLM NIL=
201408071100 METAR MRLM NIL=
201408071200 METAR MRLM 071200Z 26004KT 9999 BKN020 24/22 A2989=
201408071300 METAR MRLM 071300Z 26005KT 9999 SCT025 SCT090 25/23 A2991=
201408071400 METAR MRLM 071400Z 25002KT 7000 RA BKN015 26/24 A2994=
201408071500 METAR MRLM 071500Z 25003KT 9999 BKN018 28/25 A2995 RERA=
201408071600 METAR MRLM 071600Z 06003KT 9999 BKN018 28/24 A2995=
201408071700 METAR MRLM 071700Z 05005KT 9999 SCT025 SCT270 29/24 A2994=
201408071800 METAR MRLM 071800Z 11008KT 9999 FEW018 BKN270 28/25 A2992=
201408071900 METAR MRLM 071900Z 10003KT 9999 FEW025 BKN270 29/24 A2989=
201408072000 METAR MRLM 072000Z 05005KT 9999 FEW025 BKN270 30/25 A2986=
201408072100 METAR MRLM 072100Z 07004KT 9999 FEW025 BKN270 30/25 A2985=
201408072200 METAR MRLM 072200Z 08005KT 9999 FEW025 BKN260 29/24 A2984=
201408072300 METAR MRLM 072300Z 01003KT 9999 FEW025 BKN260 30/24 A2982=
201408072352 METAR MRLM 080000Z 03006KT 9999 FEW025 BKN260 29/24 A2985=
201408080000 METAR MRLM 080000Z 03006KT 9999 FEW025 BKN260 29/24 A2985=
201408080100 METAR MRLM NIL=
201408080200 METAR MRLM NIL=
201408080300 METAR MRLM NIL=
201408080400 METAR MRLM NIL=
201408080500 METAR MRLM NIL=
201408080600 METAR MRLM NIL=
201408080700 METAR MRLM NIL=
201408080800 METAR MRLM NIL=
201408080900 METAR MRLM NIL=
201408081000 METAR MRLM NIL=
201408081100 METAR MRLM NIL=
201408081200 METAR MRLM 081200Z 30003KT 7000 DZ SCT010 BKN080 24/24 A2990=
201408081300 METAR MRLM 081300Z 31003KT 8000 DZ BKN010 SCT080 24/23 A2992=
201408081400 METAR MRLM 081400Z 32003KT 9999 DZ BKN010 SCT090 24/23 A2995=
201408081500 METAR MRLM 081500Z 00000KT 9999 DZ SCT010 BKN090 24/23 A2995=
201408081600 METAR MRLM 081600Z 25004KT 9999 -DZ FEW006 BKN010 25/24 A2995=
201408081700 METAR MRLM 081700Z 28004KT 9999 SCT010 SCT100 25/23 A2994=
201408081800 METAR MRLM 081800Z 30003KT 9999 FEW015 BKN110 26/24 A2992=
201408081900 METAR MRLM 081900Z 31005KT 9999 FEW020 SCT130 SCT240 28/24 A2988=
201408082000 METAR MRLM NIL=
201408082100 METAR MRLM 082100Z 34008KT CAVOK 28/24 A2985=
201408082200 METAR MRLM 082200Z 34006KT 9999 FEW020 SCT140 SCT250 28/24 A2986=
201408082300 METAR MRLM 082300Z 32005KT 9999 FEW010 BKN130 27/24 A2988=
201408090000 METAR MRLM 090000Z 31004KT 9999 FEW010 BKN130 26/23 A2989=
201408090100 METAR MRLM NIL=
201408090200 METAR MRLM NIL=
201408090300 METAR MRLM NIL=
201408090400 METAR MRLM NIL=
201408090500 METAR MRLM NIL=
201408090600 METAR MRLM NIL=
201408090700 METAR MRLM NIL=
201408090800 METAR MRLM NIL=
201408090900 METAR MRLM NIL=
201408091000 METAR MRLM NIL=
201408091100 METAR MRLM NIL=
201408091200 METAR MRLM 091200Z 26007KT CAVOK 24/23 A2991=
201408091300 METAR MRLM 091300Z 24004KT CAVOK 25/23 A2991=
201408091400 METAR MRLM 091400Z 27003KT CAVOK 28/23 A2992=
201408091500 METAR MRLM 091500Z 01004KT 9999 FEW030 BKN260 29/23 A2994=
201408091600 METAR MRLM 091600Z 35006KT 9999 FEW040 BKN260 30/23 A2995=
201408091700 METAR MRLM 091700Z 04009KT 9999 FEW030 BKN260 30/24 A2994=
201408091800 METAR MRLM 091800Z 03009KT CAVOK 30/24 A2993=
201408091900 METAR MRLM 091900Z 03009KT CAVOK 30/24 A2991=
201408092000 METAR MRLM 092000Z 34005KT CAVOK 29/24 A2986=
201408092100 METAR MRLM 092100Z 36008KT 9999 FEW020 SCT130 SCT250 29/25 A2985=
201408092200 METAR MRLM 092200Z 32004KT 9999 FEW020 BKN130 28/24 A2984=
201408092300 METAR MRLM 092300Z 35007KT CAVOK 28/24 A2985=
201408100000 METAR MRLM 100000Z 00000KT CAVOK 27/24 A2985=
201408100100 METAR MRLM NIL=
201408100200 METAR MRLM NIL=
201408100300 METAR MRLM NIL=
201408100400 METAR MRLM NIL=
201408100500 METAR MRLM NIL=
201408100600 METAR MRLM NIL=
201408100700 METAR MRLM NIL=
201408100800 METAR MRLM NIL=
201408100900 METAR MRLM NIL=
201408101000 METAR MRLM NIL=
201408101100 METAR MRLM NIL=
201408101200 METAR MRLM 101200Z 26003KT 9999 BKN020 24/23 A2988=
201408101300 METAR MRLM 101300Z 27004KT 9999 FEW025 BKN080 25/23 A2989=
201408101400 METAR MRLM 101400Z 28003KT 9999 SCT025 SCT140 28/23 A2990=
201408101500 METAR MRLM 101500Z 34008KT CAVOK 28/23 A2992=
201408101600 METAR MRLM 101600Z 33006KT 9999 FEW025 BKN270 29/24 A2990=
201408101700 METAR MRLM 101700Z 30004KT 9999 FEW025 SCT270 31/24 A2989=
201408101800 METAR MRLM 101800Z 03009KT 9999 FEW025 SCT080 SCT270 30/25 A2988=
201408101900 METAR MRLM 101900Z 04010KT 9999 FEW030 SCT270 31/25 A2986=
201408102000 METAR MRLM 102000Z 01011KT 9999 FEW025 SCT150 SCT270 30/24 A2985=
201408102100 METAR MRLM 102100Z 01009KT 9999 OVC025 29/25 A2983=
201408102200 METAR MRLM 102200Z 03006KT 9999 SCT020 SCT140 29/25 A2984=
201408102300 METAR MRLM 102300Z 32003KT 9999 FEW020 BKN270 29/25 A2984=
201408102355 METAR MRLM 110000Z 31002KT 9999 FEW015 BKN150 27/25 A2985=
201408110000 METAR MRLM 110000Z 31002KT 9999 FEW015 BKN150 27/25 A2985=
201408110100 METAR MRLM NIL=
201408110200 METAR MRLM NIL=
201408110300 METAR MRLM NIL=
201408110400 METAR MRLM NIL=
201408110500 METAR MRLM NIL=
201408110600 METAR MRLM NIL=
201408110700 METAR MRLM NIL=
201408110800 METAR MRLM NIL=
201408110900 METAR MRLM NIL=
201408111000 METAR MRLM NIL=
201408111100 METAR MRLM NIL=
201408111200 METAR MRLM 111200Z 26004KT 9999 SCT025 SCT080 24/23 A2988=
201408111300 METAR MRLM 111300Z 25004KT 9999 VCTS FEW015CB BKN020 24/23 A2990=
201408111400 METAR MRLM 111400Z 26003KT 9999 BKN035 27/24 A2992 RETS=
201408111500 METAR MRLM 111500Z 30004KT CAVOK 29/24 A2993=
201408111600 METAR MRLM 111600Z 03007KT 9999 FEW025 BKN270 30/24 A2992=
201408111700 METAR MRLM 111700Z 04009KT 9999 FEW028 BKN270 30/25 A2989=
201408111800 METAR MRLM 111800Z 04009KT 9999 FEW035 BKN270 31/24 A2987=
201408111856 METAR MRLM 111856Z 02010KT 9999 FEW030 BKN270 30/25 A2986=
201408111900 METAR MRLM 02010KT 9999 FEW030 BKN270 30/25 A2986=
201408112000 METAR MRLM 112000Z 02009KT 9999 FEW025 BKN080 30/25 A2985=
201408112100 METAR MRLM 112100Z 02008KT 9999 FEW025 SCT150 SCT270 30/25 A2983=
201408112200 METAR MRLM 112200Z 03014KT 9999 SCT020 SCT150 28/24 A2984=
201408112300 METAR MRLM 112300Z 02009KT 9999 DZ FEW015 SCT090 SCT150 28/24 A2984=
201408120000 METAR MRLM 120000Z 27004KT 9999 SCT015 SCT090 27/23 A2987 REDZ=
201408120100 METAR MRLM NIL=
201408120200 METAR MRLM NIL=
201408120300 METAR MRLM NIL=
201408120400 METAR MRLM NIL=
201408120500 METAR MRLM NIL=
201408120600 METAR MRLM NIL=
201408120700 METAR MRLM NIL=
201408120800 METAR MRLM NIL=
201408120900 METAR MRLM NIL=
201408121000 METAR MRLM NIL=
201408121100 METAR MRLM NIL=
201408121200 METAR MRLM 121200Z 29003KT 9999 BKN010 SCT100 24/23 A2989=
201408121300 METAR MRLM 121300Z 30004KT 9999 BKN010 SCT100 25/24 A2992=
201408121400 METAR MRLM 121400Z 31003KT 9999 BKN010 SCT100 25/24 A2995=
201408121500 METAR MRLM 121500Z 28004KT 9999 SCT010 SCT110 26/24 A2996=
201408121600 METAR MRLM 121600Z 32004KT 9999 BKN010 SCT110 27/24 A2995=
201408121700 METAR MRLM 121700Z 33003KT 9999 SCT015 BKN120 28/24 A2995=
201408121800 METAR MRLM 121800Z 34006KT 9999 BKN020 28/24 A2993=
201408121900 METAR MRLM 121900Z 35008KT 9999 BKN015 SCT120 27/24 A2992=
201408122000 METAR MRLM 122000Z 35008KT 9999 BKN020 27/23 A2990=
201408122100 METAR MRLM 122100Z 34008KT 9999 BKN020 27/24 A2987=
201408122200 METAR MRLM 122200Z 32007KT 9999 BKN020 27/24 A2987=
201408122300 METAR MRLM 122300Z 32005KT 9999 SCT020 SCT250 27/24 A2989=
201408130000 METAR MRLM 130000Z 31003KT 9999 FEW015 BKN250 26/24 A2990=
201408130100 METAR MRLM NIL=
201408130200 METAR MRLM NIL=
201408130300 METAR MRLM NIL=
201408130400 METAR MRLM NIL=
201408130500 METAR MRLM NIL=
201408130600 METAR MRLM NIL=
201408130700 METAR MRLM NIL=
201408130800 METAR MRLM NIL=
201408130900 METAR MRLM NIL=
201408131000 METAR MRLM NIL=
201408131100 METAR MRLM NIL=
201408131200 METAR MRLM 131200Z 26004KT CAVOK 24/23 A2993=
201408131300 METAR MRLM 131300Z 24003KT CAVOK 24/23 A2995=
201408131400 METAR MRLM NIL=
201408131500 METAR MRLM NIL=
201408131600 METAR MRLM NIL=
201408131700 METAR MRLM NIL=
201408131800 METAR MRLM NIL=
201408131820 METAR MRLM 131820Z 03008KT CAVOK 31/24 A2991=
201408131900 METAR MRLM 131900Z 04008KT CAVOK 31/24 A2991=
201408132000 METAR MRLM 132000Z 05007KT 9999 FEW030 BKN260 30/25 A2990=
201408132100 METAR MRLM 132100Z 10003KT 9999 FEW030 SCT140 SCT260 31/25 A2989=
201408132200 METAR MRLM 132200Z 13010KT 9999 BKN025 30/25 A2988=
201408132230 METAR MRLM 132230Z 12009KT 9999 DZ BKN015 28/26 A2988=
201408132300 METAR MRLM 132300Z 15018KT 9999 -DZ BKN015 SCT130 27/25 A2987=
201408140000 METAR MRLM 140000Z 10004KT 9999 FEW015 SCT120 27/24 A2986=
201408140100 METAR MRLM NIL=
201408140200 METAR MRLM NIL=
201408140300 METAR MRLM NIL=
201408140400 METAR MRLM NIL=
201408140500 METAR MRLM NIL=
201408140600 METAR MRLM NIL=
201408140700 METAR MRLM NIL=
201408140800 METAR MRLM NIL=
201408140900 METAR MRLM NIL=
201408141000 METAR MRLM NIL=
201408141100 METAR MRLM NIL=
201408141200 METAR MRLM 141200Z 23005KT 9999 FEW015 BKN080 24/22 A2991=
201408141300 METAR MRLM 141300Z 23004KT 9999 SCT025 SCT080 25/23 A2991=
201408141400 METAR MRLM 141400Z 24006KT CAVOK 28/24 A2991=
201408141500 METAR MRLM 141500Z 06003KT CAVOK 30/22 A2992=
201408141600 METAR MRLM 141600Z 05003KT 9999 FEW025 BKN035 30/22 A2991=
201408141700 METAR MRLM 141700Z 04006KT 9999 FEW045 BKN080 31/22 A2990=
201408141800 METAR MRLM 141800Z 04008KT 9999 FEW025 SCT040 31/23 A2990=
201408141900 METAR MRLM 141900Z 03007KT 9999 FEW025 SCT080 29/24 A2986=
201408141956 METAR MRLM 14200Z 04006KT 9999 SCT030 SCT090 30/24 A2986=
201408142000 METAR MRLM 14200Z 04006KT 9999 SCT030 SCT090 30/24 A2986=
201408142100 METAR MRLM 142100Z 03005KT 9999 FEW030 BKN270 30/24 A2984=
201408142200 METAR MRLM 142200Z 31006KT CAVOK 30/24 A2981=
201408142300 METAR MRLM 142300Z 36010KT 9999 BKN025 SCT270 29/24 A2983=
201408142354 METAR MRLM 150000Z 01009KT 9999 FEW018 SCT140 28/25 A2986=
201408150000 METAR MRLM 150000Z 01009KT 9999 FEW018 SCT140 28/25 A2986=
201408150100 METAR MRLM NIL=
201408150200 METAR MRLM NIL=
201408150300 METAR MRLM NIL=
201408150400 METAR MRLM NIL=
201408150500 METAR MRLM NIL=
201408150600 METAR MRLM NIL=
201408150700 METAR MRLM NIL=
201408150800 METAR MRLM NIL=
201408150900 METAR MRLM NIL=
201408151000 METAR MRLM NIL=
201408151100 METAR MRLM NIL=
201408151200 METAR MRLM NIL=
201408151300 METAR MRLM NIL=
201408151400 METAR MRLM NIL=
201408151500 METAR MRLM 151500Z 24006KT 9999 RA SCT020 BKN130 23/23 A2994=
201408151600 METAR MRLM 151600Z 23005KT 9999 +DZ SCT015 SCT100 24/24 A2994 RERA=
201408151700 METAR MRLM 151700Z 24005KT 9999 DZ VCTS FEW015CB SCT020 SCT100 27/24 A2991=
201408151800 METAR MRLM 151800Z 14001KT 9999 FEW025 BKN090 29/24 A2990 REDZ=
201408151900 METAR MRLM 151900Z 22001KT 9999 +DZ SCT020 SCT090 28/24 A2990=
201408152000 METAR MRLM 152000Z 28002KT 9999 +DZ BKN012 SCT020 27/25 A2987=
201408152100 METAR MRLM 152100Z 36006KT 9999 RA SCT012 BKN100 26/24 A2985=
201408152200 METAR MRLM 152200Z 03009KT 9999 +DZ BKN010 SCT100 25/24 A2985 RERA=
201408152300 METAR MRLM 152300Z 03008KT 9999 +DZ FEW010 BKN100 25/23 A2987=
201408152356 METAR MRLM 160000Z 25004KT 9999 DZ SCT010 SCT090 24/23 A2987=
201408160000 METAR MRLM 160000Z 25004KT 9999 DZ SCT010 SCT090 24/23 A2987=
201408160100 METAR MRLM NIL=
201408160200 METAR MRLM NIL=
201408160300 METAR MRLM NIL=
201408160400 METAR MRLM NIL=
201408160500 METAR MRLM NIL=
201408160600 METAR MRLM NIL=
201408160700 METAR MRLM NIL=
201408160800 METAR MRLM NIL=
201408160900 METAR MRLM NIL=
201408161000 METAR MRLM NIL=
201408161100 METAR MRLM NIL=
201408161200 METAR MRLM 161200Z 27003KT CAVOK 23/23 A2988=
201408161300 METAR MRLM 161300Z 00000KT 9999 FEW010 BKN120 24/23 A2991=
201408161400 METAR MRLM 161400Z 25002KT CAVOK 26/24 A2992=
201408161500 METAR MRLM 161500Z 04003KT 9999 SCT015 BKN130 27/24 A2991=
201408161600 METAR MRLM 161600Z 06005KT 9999 FEW020 BKN130 29/24 A2993=
201408161700 METAR MRLM 161700Z 10004KT 9999 DZ SCT020 BKN130 28/24 A2993=
201408161800 METAR MRLM 161800Z 16005KT 9999 -DZ FEW020 BKN130 29/25 A2992=
201408161900 METAR MRLM 161900Z 12005KT CAVOK 30/24 A2988=
201408162000 METAR MRLM 162000Z 11003KT CAVOK 30/24 A2986=
201408162100 METAR MRLM 162100Z 10005KT CAVOK 30/25 A2986=
201408162200 METAR MRLM 162200Z 06004KT CAVOK 29/25 A2984=
201408162300 METAR MRLM 162300Z 03004KT CAVOK 29/24 A2986=
201408170000 METAR MRLM 170000Z 00000KT CAVOK 28/25 A2988=
201408170100 METAR MRLM NIL=
201408170200 METAR MRLM NIL=
201408170300 METAR MRLM NIL=
201408170400 METAR MRLM NIL=
201408170500 METAR MRLM NIL=
201408170600 METAR MRLM NIL=
201408170700 METAR MRLM NIL=
201408170800 METAR MRLM NIL=
201408170900 METAR MRLM NIL=
201408171000 METAR MRLM NIL=
201408171100 METAR MRLM NIL=
201408171200 METAR MRLM 171200Z 00000KT 9999 BKN007 SCT090 24/24 A2989=
201408171300 METAR MRLM 171300Z 34004KT 9999 DZVCTS FEW006CB BKN007 25/24 A2992=
201408171400 METAR MRLM 171400Z 23004KT 9999 DZ BKN007 25/24 A2992=
201408171500 METAR MRLM 171500Z 24003KT 9999 DZ BKN007 25/24 A2991=
201408171600 METAR MRLM 171600Z 26003KT 9999 -DZ BKN010 27/26 A2990=
201408171700 METAR MRLM 171700Z 25004KT 9999 BKN015 29/25 A2989=
201408171735 METAR MRLM 171735Z 01005KT 6000 RA BKN010 28/25 A2988=
201408171800 METAR MRLM 171800Z 02005KT 8000 RA BKN007 26/25 A2988=
201408171830 METAR MRLM 171830Z 06007KT 5000 TSRA SCT006CB OVC007 27/25 A2989=
201408171900 METAR MRLM 171900Z 07011KT 4000 TSRA FEW006CB OVC007 26/25 A2989=
201408172000 METAR MRLM 172000Z 00000KT 8000 3000N RA BKN007 25/25 A2986 RETS=
201408172100 METAR MRLM 172100Z 34006KT 2000 +RA OVC007 24/24 A2987=
201408172200 METAR MRLM 172200Z 26005KT 9999 DZ FEW005 OVC007 24/23 A2985 RERA=
201408172300 METAR MRLM 172300Z 27004KT 9999 BKN006 24/24 A2987 REDZ=
201408180000 METAR MRLM 180000Z 14020KT 005 +TSSHRA SCT010CB SCT015 24/24 A2992=
201408180100 METAR MRLM NIL=
201408180200 METAR MRLM NIL=
201408180300 METAR MRLM NIL=
201408180400 METAR MRLM NIL=
201408180500 METAR MRLM NIL=
201408180600 METAR MRLM NIL=
201408180700 METAR MRLM NIL=
201408180800 METAR MRLM NIL=
201408180900 METAR MRLM NIL=
201408181000 METAR MRLM NIL=
201408181100 METAR MRLM NIL=
201408181200 METAR MRLM 181200Z 29003KT 3000 TSRA SCT010CB BKN015 24/23 A2986=
201408181300 METAR MRLM 181300Z 23005KT 5000 TSRA SCT010CB BKN015 24/23 A2987=
201408181400 METAR MRLM 181400Z 14020KT 005 +TSSHRA SCT010CB SCT015 24/24 A2992=
201408181500 METAR MRLM 181500Z 26002KT 6000 TSRA SCT010CB SCT015 23/23 A2991=
201408181600 METAR MRLM 181600Z 25003KT 7000 TSRA FEW002 SCT010CB SCT015 23/23 A2990=
201408181700 METAR MRLM 181700Z 12001KT 6KM RA BKN015 24/23 A2991 RETS=
201408181800 METAR MRLM 181800Z 28004KT 9999 BKN003 24/24 A2986 RERA=
201408181900 METAR MRLM 181900Z 07003KT 9999 FEW004 SCT025 26/24 A2981=
201408182000 METAR MRLM 182000Z 12003KT CAVOK 27/24 A2979=
201408182100 METAR MRLM 182100Z 32003KT CAVOK 28/24 A2977=
201408182200 METAR MRLM 182200Z 08004KT CAVOK 27/24 A2977=
201408182300 METAR MRLM 182300Z 07005KT CAVOK 27/23 A2980=
201408182355 METAR MRLM 19000Z 31003KT CAVOK 26/24 A2982=
201408190000 METAR MRLM 19000Z 31003KT CAVOK 26/24 A2982=
201408190100 METAR MRLM NIL=
201408190200 METAR MRLM NIL=
201408190300 METAR MRLM NIL=
201408190400 METAR MRLM NIL=
201408190500 METAR MRLM NIL=
201408190600 METAR MRLM NIL=
201408190700 METAR MRLM NIL=
201408190800 METAR MRLM NIL=
201408190900 METAR MRLM NIL=
201408191000 METAR MRLM NIL=
201408191100 METAR MRLM NIL=
201408191200 METAR MRLM 191200Z 27001KT 9999 SCT025 SCT090 23/22 A2983=
201408191300 METAR MRLM 191300Z 30002KT 9999 FEW025 SCT090 SCT260 24/23 A2984=
201408191400 METAR MRLM 191400Z 29004KT CAVOK 26/23 A2986=
201408191500 METAR MRLM 191500Z 31004KT CAVOK 29/23 A2988=
201408191600 METAR MRLM 191600Z 35005KT CAVOK 30/23 A2987=
201408191700 METAR MRLM 191700Z 35006KT 9999 FEW035 SCT100 30/23 A2987=
201408191800 METAR MRLM 191800Z 36006KT 9999 FEW025 BKN090 29/24 A2984=
201408191900 METAR MRLM 191900Z 02009KT 9999 FEW018 BKN100 29/25 A2985=
201408192000 METAR MRLM 2000Z 25005KT 8000 TSRA FEW010CB BKN012 26/25 A2986=
201408192100 METAR MRLM 192100Z 35003KT 9999 RA FEW015 BKN090 28/25 A2981=
201408192200 METAR MRLM 192200Z 04006KT 9999 +DZ BKN015 SCT090 27/25 A2983 RERA=
201408192300 METAR MRLM 192300Z 02005KT 9999 DZ BKN010 SCT100 27/25 A2984=
201408192354 METAR MRLM 200000Z 25005KT 8000 TSRA FEW010CB BKN012 26/25 A2986=
201408200000 METAR MRLM 200000Z 25005KT 8000 TSRA FEW010CB BKN012 26/25 A2986=
201408200100 METAR MRLM NIL=
201408200200 METAR MRLM NIL=
201408200300 METAR MRLM NIL=
201408200400 METAR MRLM NIL=
201408200500 METAR MRLM NIL=
201408200600 METAR MRLM NIL=
201408200700 METAR MRLM NIL=
201408200800 METAR MRLM NIL=
201408200900 METAR MRLM NIL=
201408201000 METAR MRLM NIL=
201408201100 METAR MRLM NIL=
201408201200 METAR MRLM NIL=
201408201300 METAR MRLM 201300Z 26005KT 9999 OVC015 23/22 A2994 NOSIG=
201408201400 METAR MRLM 201400Z 25005KT 9999 FEW015 BKN080 24/22 A2995=
201408201500 METAR MRLM 201500Z 24002KT 9999 FEW020 BKN120 27/23 A2995=
201408201600 METAR MRLM 201600Z 24003KT 9999 FEW025 BKN100 29/23 A2995=
201408201700 METAR MRLM 201700Z 06005KT 9999 FEW025 BKN120 29/23 A2993=
201408201800 METAR MRLM 201800Z 06007KT 9999 FEW030 BKN090 29/23 A2993=
201408201900 METAR MRLM 201900Z 04006KT 9999 FEW030 SCT130 SCT270 29/23 A2990=
201408202000 METAR MRLM 202000Z 07007KT 9999 FEW032 SCT120 SCT270 30/23 A2989=
201408202100 METAR MRLM 202100Z 10018KT 9999 SCT025 SCT090 28/24 A2990=
201408202200 METAR MRLM NIL=
201408202300 METAR MRLM NIL=
201408210000 METAR MRLM NIL=
201408210100 METAR MRLM NIL=
201408210200 METAR MRLM NIL=
201408210300 METAR MRLM NIL=
201408210400 METAR MRLM NIL=
201408210500 METAR MRLM NIL=
201408210600 METAR MRLM NIL=
201408210700 METAR MRLM NIL=
201408210800 METAR MRLM NIL=
201408210900 METAR MRLM NIL=
201408211000 METAR MRLM NIL=
201408211100 METAR MRLM NIL=
201408211200 METAR MRLM NIL=
201408211300 METAR MRLM 211300Z 12004KT 9999 DZ VCSH BKN015 SCT030 24/21 A2998=
201408211400 METAR MRLM 211400Z 23007KT 9999 FEW013 BKN035 24/21 A3000 REDZ=
201408211500 METAR MRLM 211500Z 22005KT 9999 SCT035 BKN090 24/21 A3000=
201408211600 METAR MRLM 211600Z 23006KT 9999 FEW015 BKN090 25/21 A2998=
201408211700 METAR MRLM 211700Z 23004KT 9999 DZ FEW025 SCT090 SCT140 26/22 A2997=
201408211800 METAR MRLM 211800Z 22002KT CAVOK 29/22 A2994=
201408211900 METAR MRLM 211900Z 01009KT CAVOK 28/24 A2993=
201408212000 METAR MRLM 212000Z 34006KT 9999 FEW025 BKN090 28/23 A2990=
201408212100 METAR MRLM 212100Z 31004KT 9999 FEW025 SCT120 SCT270 29/24 A2989=
201408212200 METAR MRLM NIL=
201408212300 METAR MRLM NIL=
201408220000 METAR MRLM NIL=
201408220100 METAR MRLM NIL=
201408220200 METAR MRLM NIL=
201408220300 METAR MRLM NIL=
201408220400 METAR MRLM NIL=
201408220500 METAR MRLM NIL=
201408220600 METAR MRLM NIL=
201408220700 METAR MRLM NIL=
201408220800 METAR MRLM NIL=
201408220900 METAR MRLM NIL=
201408221000 METAR MRLM NIL=
201408221100 METAR MRLM NIL=
201408221200 METAR MRLM NIL=
201408221300 METAR MRLM 221300Z 09011KT 1000 +RA OVC015 24/23 A2997=
201408221400 METAR MRLM 221400Z 21004KT 6000 RA FEW004 BKN015 23/22 A2999=
201408221500 METAR MRLM 221500Z 27004KT 9999 +DZ SCT090 SCT120 23/23 A2998 RERA=
201408221600 METAR MRLM 221600Z 28004KT 9999 DZ BKN100 SCT120 26/24 A2995=
201408221700 METAR MRLM 221700Z 17002KT 9999 SCT SCT270 29/23 A2994 REDZ=
201408221800 METAR MRLM 221800Z 08004KT 9999 SCT025 SCT080 28/23 A2991=
201408221900 METAR MRLM 221900Z 05003KT 9999 FEW035 BKN080 30/22 A2988=
201408222000 METAR MRLM 222000Z 0407KT 999 FEW038 BKN080 30/23 A2984=
201408222100 METAR MRLM 222100Z 03007KT 9999 FEW035 BKN120 30/22 A2983=
201408222200 METAR MRLM NIL=
201408222300 METAR MRLM NIL=
201408230000 METAR MRLM NIL=
201408230100 METAR MRLM NIL=
201408230200 METAR MRLM NIL=
201408230300 METAR MRLM NIL=
201408230400 METAR MRLM NIL=
201408230500 METAR MRLM NIL=
201408230600 METAR MRLM NIL=
201408230700 METAR MRLM NIL=
201408230800 METAR MRLM NIL=
201408230900 METAR MRLM NIL=
201408231000 METAR MRLM NIL=
201408231100 METAR MRLM NIL=
201408231200 METAR MRLM NIL=
201408231300 METAR MRLM 231300Z 25003KT 9999 FEW015 BKN080 24/23 A2990=
201408231400 METAR MRLM 231400Z 29003KT 9999 FEW015 BKN070 26/23 A2991=
201408231500 METAR MRLM 231500Z 31005KT 9999 SCT025 SCT090 27/23 A2991=
201408231600 METAR MRLM 231600Z 34010KT 9999 FEW025 BKN090 29/23 A2992=
201408231700 METAR MRLM 231700Z 01014KT 9999 SCT020 SCT030 28/24 A2992=
201408231800 METAR MRLM 231800Z 36012KT 9999 SCT025 SCT090 27/22 A2990=
201408231900 METAR MRLM 231900Z 06005KT 9999 FEW025 SCT070 SCT090 27/22 A2989=
201408231955 METAR MRLM 202000Z 04003KT 9999 FEW015 BKN028 27/22 A2985=
201408232000 METAR MRLM NIL=
201408232100 METAR MRLM 232100Z 05003KT 9999 BKN030 28/21 A2983=
201408232200 METAR MRLM NIL=
201408232300 METAR MRLM NIL=
201408240000 METAR MRLM NIL=
201408240100 METAR MRLM NIL=
201408240200 METAR MRLM NIL=
201408240300 METAR MRLM NIL=
201408240400 METAR MRLM NIL=
201408240500 METAR MRLM NIL=
201408240600 METAR MRLM NIL=
201408240700 METAR MRLM NIL=
201408240800 METAR MRLM NIL=
201408240900 METAR MRLM NIL=
201408241000 METAR MRLM NIL=
201408241100 METAR MRLM NIL=
201408241200 METAR MRLM NIL=
201408241300 METAR MRLM 241300Z 21003KT CAVOK 24/22 A2986=
201408241400 METAR MRLM 241400Z 24003KT CAVOK 26/23 A2986=
201408241500 METAR MRLM 241500Z 00000KT CAVOK 28/23 A2987=
201408241600 METAR MRLM 241600Z 08002KT 9999 FEW030 BKN270 29/22 A2987=
201408241656 METAR MRLM 241656Z 08005KT 9999 FEW030 BKN270 29/23 A2986=
201408241700 METAR MRLM 08005KT 9999 FEW030 BKN270 29/23 A2986=
201408241800 METAR MRLM 241800Z 08005KT 9999 FEW025 BKN260 29/24 A2984=
201408241900 METAR MRLM 241900Z 08005KT 9999 FEW035 BKN260 30/23 A2981=
201408242000 METAR MRLM 242000Z 09005KT 9999 FEW030 BKN260 30/24 A2978=
201408242100 METAR MRLM 242100Z 10006KT 9999 FEW030 BKN260 30/23 A2977=
201408242200 METAR MRLM NIL=
201408242300 METAR MRLM NIL=
201408250000 METAR MRLM NIL=
201408250100 METAR MRLM NIL=
201408250200 METAR MRLM NIL=
201408250300 METAR MRLM NIL=
201408250400 METAR MRLM NIL=
201408250500 METAR MRLM NIL=
201408250600 METAR MRLM NIL=
201408250700 METAR MRLM NIL=
201408250800 METAR MRLM NIL=
201408250900 METAR MRLM NIL=
201408251000 METAR MRLM NIL=
201408251100 METAR MRLM NIL=
201408251200 METAR MRLM NIL=
201408251300 METAR MRLM 251300Z 26005KT CAVOK 25/22 A2983=
201408251400 METAR MRLM 251400Z 28002KT CAVOK 28/23 A2985=
201408251500 METAR MRLM 251500Z 06003KT CAVOK 28/23 A2986=
201408251600 METAR MRLM 251600Z 06003KT 9999 FEW030 BKN300 28/23 A2986=
201408251700 METAR MRLM 251700Z 10005KT 9999 FEW030 BKN280 29/23 A2984=
201408251800 METAR MRLM 251800Z 08006KT 9999 FEW030 BKN280 29/24 A2983=
201408251900 METAR MRLM 251900Z 08005KT 9999 FEW028 BKN270 29/24 A2980=
201408252000 METAR MRLM 252000Z 08006KT 9999 FEW028 BKN270 30/24 A2978=
201408252100 METAR MRLM 252100Z 10005KT 9999 FEW035 BKN270 30/24 A2976=
201408252200 METAR MRLM NIL=
201408252300 METAR MRLM NIL=
201408260000 METAR MRLM NIL=
201408260100 METAR MRLM NIL=
201408260200 METAR MRLM NIL=
201408260300 METAR MRLM NIL=
201408260400 METAR MRLM NIL=
201408260500 METAR MRLM NIL=
201408260600 METAR MRLM NIL=
201408260700 METAR MRLM NIL=
201408260800 METAR MRLM NIL=
201408260900 METAR MRLM NIL=
201408261000 METAR MRLM NIL=
201408261100 METAR MRLM NIL=
201408261200 METAR MRLM NIL=
201408261300 METAR MRLM 261300Z 24004KT CAVOK 25/22 A2988=
201408261400 METAR MRLM 261400Z 23004KT CAVOK 28/24 A2989=
201408261500 METAR MRLM 261500Z 12004KT 9999 FEW025 BKN260 29/24 A2989=
201408261600 METAR MRLM 261600Z 10005KT 9999 FEW030 BKN260 30/24 A2988=
201408261700 METAR MRLM 261700Z 10006KT 9999 FEW028 BKN270 30/24 A2987=
201408261800 METAR MRLM 261800Z 12006KT 9999 FEW030 BKN270 30/24 A2986=
201408261900 METAR MRLM 261900Z 09007KT 9999 FEW035 BKN270 30/23 A2983=
201408262000 METAR MRLM 262000Z 11008KT 9999 FEW030 BKN270 30/23 A2981=
201408262100 METAR MRLM NIL=
201408262200 METAR MRLM NIL=
201408262300 METAR MRLM NIL=
201408270000 METAR MRLM NIL=
201408270100 METAR MRLM NIL=
201408270200 METAR MRLM NIL=
201408270300 METAR MRLM NIL=
201408270400 METAR MRLM NIL=
201408270500 METAR MRLM NIL=
201408270600 METAR MRLM NIL=
201408270700 METAR MRLM NIL=
201408270800 METAR MRLM NIL=
201408270900 METAR MRLM NIL=
201408271000 METAR MRLM NIL=
201408271100 METAR MRLM NIL=
201408271200 METAR MRLM NIL=
201408271300 METAR MRLM 271300Z 25005KT CAVOK 25/22 A2989=
201408271400 METAR MRLM 271400Z 26003KT CAVOK 28/24 A2991=
201408271500 METAR MRLM 271500Z 06004KT 9999 FEW028 BKN300 29/24 A2991=
201408271600 METAR MRLM 271600Z 07006KT 9999 SCT028 SCT300 30/24 A2990=
201408271700 METAR MRLM 271700Z 06005KT 9999 FEW028 BKN280 30/24 A2988=
201408271800 METAR MRLM 271800Z 05008KT 9999 FEW028 BKN300 30/24 A2989=
201408271900 METAR MRLM 271900Z 05008KT 9999 FEW030 BKN280 30/25 A2985=
201408272000 METAR MRLM 272000Z 06007KT 9999 BKN025 SCT300 30/25 A2983=
201408272100 METAR MRLM 272100Z 06007KT 9999 BKN025 30/25 A2983=
201408272200 METAR MRLM NIL=
201408272300 METAR MRLM NIL=
201408280000 METAR MRLM NIL=
201408280100 METAR MRLM NIL=
201408280200 METAR MRLM NIL=
201408280300 METAR MRLM NIL=
201408280400 METAR MRLM NIL=
201408280500 METAR MRLM NIL=
201408280600 METAR MRLM NIL=
201408280700 METAR MRLM NIL=
201408280800 METAR MRLM NIL=
201408280900 METAR MRLM NIL=
201408281000 METAR MRLM NIL=
201408281100 METAR MRLM NIL=
201408281200 METAR MRLM 281200Z 24004KT 9999 FEW010 BKN120 24/23 A2987=
201408281300 METAR MRLM 281300Z 00000KT 9999 FEW010 BKN120 24/23 A2989=
201408281400 METAR MRLM 281400Z 00000KT 9999 BKN010 SCT120 25/24 A2991=
201408281500 METAR MRLM 281500Z 19003KT 9999 -DZ SCT010 SCT120 26/24 A2992=
201408281600 METAR MRLM 281600Z 05008KT 9999 DZ FEW006 BKN010 26/24 A2993=
201408281615 MRLM 281615Z SPECIAL 36010G21 3000 +RA OVC006 25/24 A2992=
201408281700 METAR MRLM 281700Z 02011KT 3000 +RA OVC006 23/23 A2992=
201408281800 METAR MRLM 281800Z 34006KT 8000 DZ BKN007 24/23 A2990 RERA=
201408281900 METAR MRLM 281900Z 31006KT 9999 -DZ BKN010 SCT110 25/24 A2987=
201408282000 METAR MRLM 282000Z 28004KT 9999 BKN010 SCT120 26/24 A2984=
201408282100 METAR MRLM 282100Z 28005KT 9999 FEW015 BKN130 26/23 A2980=
201408282200 METAR MRLM 282200Z 00000KT CAVOK 26/23 A2981=
201408282300 METAR MRLM 282300Z 18002KT 9999 FEW015 BKN120 26/23 A2983=
201408290000 METAR MRLM 290000Z 19004KT 9999 DZ BKN010 SCT100 25/23 A2986=
201408290100 METAR MRLM NIL=
201408290200 METAR MRLM NIL=
201408290300 METAR MRLM NIL=
201408290400 METAR MRLM NIL=
201408290500 METAR MRLM NIL=
201408290600 METAR MRLM NIL=
201408290700 METAR MRLM NIL=
201408290800 METAR MRLM NIL=
201408290900 METAR MRLM NIL=
201408291000 METAR MRLM NIL=
201408291100 METAR MRLM NIL=
201408291200 METAR MRLM 291200Z 00000KT CAVOK 23/22 A2986=
201408291300 METAR MRLM 291300Z 00000KT CAVOK 24/23 A2987=
201408291400 METAR MRLM 291400Z 14002KT CAVOK 26/23 A2990=
201408291500 METAR MRLM 291500Z 10003KT CAVOK 27/23 A2990=
201408291600 METAR MRLM 291600Z 05006KT 9999 FEW020 BKN140 28/23 A2991=
201408291700 METAR MRLM 291700Z 05006KT 9999 FEW020 BKN140 29/24 A2990=
201408291800 METAR MRLM 291800Z 03008KT 9999 FEW030 SCT140 29/23 A2987=
201408291900 METAR MRLM 291900Z 03008KT 9999 FEW030 SCT140 29/24 A2984=
201408292000 METAR MRLM 292000Z 33004KT 9999 DZ SCT015 SCT240 27/25 A2982=
201408292100 METAR MRLM 292100Z 00000KT 9999 BKN015 28/25 A2982 REDZ=
201408292200 METAR MRLM 292200Z 23004KT 9999 BKN010 25/23 A2983=
201408292300 METAR MRLM 292300Z 26005KT 9999 DZ SCT007 SCT110 24/23 A2983=
201408300000 METAR MRLM 300000Z 26004KT 9999 DZ SCT007 SCT100 23/23 A2982=
201408300100 METAR MRLM NIL=
201408300200 METAR MRLM NIL=
201408300300 METAR MRLM NIL=
201408300400 METAR MRLM NIL=
201408300500 METAR MRLM NIL=
201408300600 METAR MRLM NIL=
201408300700 METAR MRLM NIL=
201408300800 METAR MRLM NIL=
201408300900 METAR MRLM NIL=
201408301000 METAR MRLM NIL=
201408301100 METAR MRLM NIL=
201408301200 METAR MRLM 301200Z 2505KT CAVOK 22/21 A2988=
201408301300 METAR MRLM 301300Z 22005KT CAVOK 25/22 A2991=
201408301400 METAR MRLM 301400Z 23003KT CAVOK 28/23 A2992=
201408301500 METAR MRLM 301500Z 12004KT CAVOK 29/22 A2993=
201408301600 METAR MRLM 301600Z 10005KT 9999 FEW030 BKN270 29/23 A2991=
201408301700 METAR MRLM 301700Z 07007KT 9999 FEW028 SCT270 29/24 A2991=
201408301800 METAR MRLM 301800Z 08008KT 9999 FEW030 SCT270 30/24 A2989=
201408301900 METAR MRLM 301900Z 09009KT 9999 FEW028 SCT270 30/25 A2987=
201408302000 METAR MRLM 302000Z 08006KT 9999 FEW028 SCT270 30/24 A2985=
201408302100 METAR MRLM 302100Z 10006KT 9999 FEW025 SCT270 30/25 A2983=
201408302200 METAR MRLM 302200Z 11006KT 9999 SCT025 SCT270 30/25 A2983=
201408302300 METAR MRLM 302300Z 12008KT 9999 FEW025 SCT270 29/24 A2983=
201408302352 METAR MRLM 3100Z 13008KT 9999 SCT020 SCT270 29/25 A2985=
201408310000 METAR MRLM NIL=
201408310100 METAR MRLM NIL=
201408310200 METAR MRLM NIL=
201408310300 METAR MRLM NIL=
201408310400 METAR MRLM NIL=
201408310500 METAR MRLM NIL=
201408310600 METAR MRLM NIL=
201408310700 METAR MRLM NIL=
201408310800 METAR MRLM NIL=
201408310900 METAR MRLM NIL=
201408311000 METAR MRLM NIL=
201408311100 METAR MRLM NIL=
201408311200 METAR MRLM 311200Z 25003KT CAVOK 24/23 A2987=
201408311300 METAR MRLM 311300Z 26004KT CAVOK 26/23 A2988=
201408311400 METAR MRLM 311400Z 23002KT CAVOK 30/24 A2990=
201408311500 METAR MRLM 311500Z 08004KT CAVOK 30/23 A2992=
201408311600 METAR MRLM 311600Z 05006KT 9999 FEW025 SCT280 30/25 A2992=
201408311700 METAR MRLM 311700Z 04006KT 9999 SCT025 30/25 A2991=
201408311800 METAR MRLM 311800Z 04006KT 9999 FEW025 31/25 A2989=
201408311900 METAR MRLM 311900Z 03007KT 9999 FEW030 31/25 A2987=
201408312000 METAR MRLM 312000Z 05006KT 9999 SCT030 31/24 A2985=
201408312100 METAR MRLM 312100Z 05007KT 9999 SCT030 31/25 A2984=
201408312200 METAR MRLM 312200Z 03005KT 9999 BKN025 30/25 A2983=
201408312300 METAR MRLM 312300Z 05004KT 9999 OVC023 30/25 A2984=
201408312355 METAR MRLM 312355Z 03005KT 9999 OVC020 29/26 A2985=
201409010000 METAR MRLM 03005KT 9999 OVC020 29/26 A2985=
201409010100 METAR MRLM NIL=
201409010200 METAR MRLM NIL=
201409010300 METAR MRLM NIL=
201409010400 METAR MRLM NIL=
201409010500 METAR MRLM NIL=
201409010600 METAR MRLM NIL=
201409010700 METAR MRLM NIL=
201409010800 METAR MRLM NIL=
201409010900 METAR MRLM NIL=
201409011000 METAR MRLM NIL=
201409011100 METAR MRLM NIL=
201409011200 METAR MRLM 011200Z 00000KT 8000 2000N +DZ BKN007 24/23 A2988=
201409011300 METAR MRLM 011300Z 00000KT 9999 DZ BKN010 24/23 A2989=
201409011400 METAR MRLM 011400Z 27004KT 9999 BKN010 SCT100 25/24 A2990 REDZ=
201409011500 METAR MRLM 011500Z 28003KT 9999 DZ SCT015 SCT110 28/25 A2991=
201409011600 METAR MRLM 011600Z 29003KT 9999 -DZ FEW015 SCT120 29/26 A2991=
201409011700 METAR MRLM 011700Z 33007KT 9999 FEW020 SCT120 SCT250 29/24 A2991=
201409011800 METAR MRLM 011800Z 04006KT 9999 FEW030 BKN130 30/24 A2987=
201409011900 METAR MRLM 011900Z 28004KT 9999 FEW030 BKN260 31/25 A2984=
201409012000 METAR MRLM 012000Z 03006KT 9999 FEW030 BKN260 31/25 A2983=
201409012100 METAR MRLM 012100Z 03006KT CAVOK 31/25 A2982=
201409012200 METAR MRLM 012200Z 04005KT CAVOK 30/25 A2981=
201409012300 METAR MRLM 012300Z 04005KT 9999 FEW030 BKN130 30/25 A2983=
201409020000 METAR MRLM 020000Z 00000KT 9999 SCT020 SCT120 29/25 A2985=
201409020100 METAR MRLM NIL=
201409020200 METAR MRLM NIL=
201409020300 METAR MRLM NIL=
201409020400 METAR MRLM NIL=
201409020500 METAR MRLM NIL=
201409020600 METAR MRLM NIL=
201409020700 METAR MRLM NIL=
201409020800 METAR MRLM NIL=
201409020900 METAR MRLM NIL=
201409021000 METAR MRLM NIL=
201409021100 METAR MRLM NIL=
201409021200 METAR MRLM 021200Z 26004KT 9999 DZ SCT007 BKN090 24/24 A2989=
201409021300 METAR MRLM 021300Z 00000KT 9999 DZ FEW007 SCT100 SCT240 25/24 A2991=
201409021400 METAR MRLM 021400Z 23004KT 9999 DZ FEW007 SCT100 SCT240 24/24 A2990=
201409021500 METAR MRLM 021500Z 24005KT 9999 SCT010 BKN110 26/25 A2989 REDZ=
201409021600 METAR MRLM 021600Z 06002KT 9999 SCT015 BKN240 28/25 A2991=
201409021700 METAR MRLM 021700Z 09003KT 9999 FEW025 BKN250 30/25 A2989=
201409021800 METAR MRLM 021800Z 11007KT 8000 DZ BKN020 29/24 A2988=
201409021900 METAR MRLM 021900Z 09016G26KT 2000 SHRA OVC007 26/24 A2988=
201409022000 METAR MRLM 022000Z 25004KT 9999 DZ SCT007 SCT110 25/24 A2982 RESHRA=
201409022100 METAR MRLM 022100Z 13004KT 9999 -DZ FEW010 SCT120 SCT240 26/25 A2980=
201409022200 METAR MRLM 022200Z 18005KT 9999 FEW010 BKN110 26/24 A2980=
201409022300 METAR MRLM 022300Z 23004KT 9999 FEW010 BKN230 27/24 A2982=
201409030000 METAR MRLM 030000Z 00000KT 9999 FEW010 BKN240 26/24 A2982=
201409030100 METAR MRLM NIL=
201409030200 METAR MRLM NIL=
201409030300 METAR MRLM NIL=
201409030400 METAR MRLM NIL=
201409030500 METAR MRLM NIL=
201409030600 METAR MRLM NIL=
201409030700 METAR MRLM NIL=
201409030800 METAR MRLM NIL=
201409030900 METAR MRLM NIL=
201409031000 METAR MRLM NIL=
201409031100 METAR MRLM NIL=
201409031200 METAR MRLM 031200Z 22001KT 9999 OVC020 23/22 A2985=
201409031300 METAR MRLM 031300Z 24003KT 9999 VCTSRA FEW015CB SCT023 SCT080 24/22 A2985=
201409031400 METAR MRLM 031400Z 26002KT 9999 DZ SCT020 SCT090 25/23 RETS=
201409031500 METAR MRLM 031500Z 26001KT 9999 BKN015 27/24 A2984=
201409031600 METAR MRLM 031600Z 08005KT 9999 FEW025 SCT090 29/25 A2989=
201409031700 METAR MRLM 031700Z 05005KT 9999 SCT025 SCT270 29/25 A2987=
201409031800 METAR MRLM 031800Z 02011KT 9999 BKN025TCU 30/25 A2986=
201409031900 METAR MRLM 031900Z 03006KT 9999 VCTSRA FEW010CB SCT020 SCT140 28/24 A2982=
201409032000 METAR MRLM 032000Z 26006KT 9999 FEW015 BKN140 27/25 A2979=
201409032100 METAR MRLM 032100Z 36006KT 9999 SCT020 SCT140 28/24 A2979=
201409032200 METAR MRLM 032200Z 33005KT 9999 SCT018 SCT140 28/24 A2979=
201409032300 METAR MRLM 032300Z 31004KT 9999 SCT015 SCT140 27/24 A2982=
201409032354 METAR MRLM 040000Z 30004KT 9999 FEW015 SCT090 SCT140 26/24 A2985=
201409040000 METAR MRLM 040000Z 30004KT 9999 FEW015 SCT090 SCT140 26/24 A2985=
201409040100 METAR MRLM NIL=
201409040200 METAR MRLM NIL=
201409040300 METAR MRLM NIL=
201409040400 METAR MRLM NIL=
201409040500 METAR MRLM NIL=
201409040600 METAR MRLM NIL=
201409040700 METAR MRLM NIL=
201409040800 METAR MRLM NIL=
201409040900 METAR MRLM NIL=
201409041000 METAR MRLM NIL=
201409041100 METAR MRLM NIL=
201409041200 METAR MRLM 041200Z 26004KT 9999 SCT035 SCT270 22/21 A2983=
201409041300 METAR MRLM 041300Z 27001KT 9999 SCT035 SCT270 23/22 A2986=
201409041400 METAR MRLM 041400Z 25005KT CAVOK 24/22 A2989=
201409041500 METAR MRLM 041500Z 28004KT 9999 FEW010 BKN080 24/22 A2988=
201409041600 METAR MRLM 041600Z 31005KT 9999 FEW020 BKN080 25/22 A2991=
201409041700 METAR MRLM NIL=
201409041800 METAR MRLM 041800Z 33007KT 9999 FEW023 BKN080 27/22 A2989=
201409041900 METAR MRLM 041900Z 32009KT 9999 BKN018 27/24 A2986=
201409042000 METAR MRLM 042000Z 33007KT 9999 DZ OVC015 27/24 A2984=
201409042100 METAR MRLM 042100Z 33006KT 9999 OVC015 27/24 A2982 REDZ=
201409042200 METAR MRLM 042200Z 32006KT CAVOK 28/24 A2981=
201409042300 METAR MRLM 042300Z 31003KT CAVOK 27/24 A2980=
201409050000 METAR MRLM NIL=
201409050100 METAR MRLM NIL=
201409050200 METAR MRLM NIL=
201409050300 METAR MRLM NIL=
201409050400 METAR MRLM NIL=
201409050500 METAR MRLM NIL=
201409050600 METAR MRLM NIL=
201409050700 METAR MRLM NIL=
201409050800 METAR MRLM NIL=
201409050900 METAR MRLM NIL=
201409051000 METAR MRLM NIL=
201409051100 METAR MRLM NIL=
201409051200 METAR MRLM 051200Z 29005KT 9999 FEW007 BKN120 24/23 A2989=
201409051300 METAR MRLM 051300Z 30006KT 9999 FEW007 BKN120 25/23 A2991=
201409051400 METAR MRLM 051400Z 32004KT 9999 DZ SCT007 BKN110 25/23 A2993=
201409051500 METAR MRLM 051500Z 31005KT 9999 FEW010 BKN120 25/24 A2992 REDZ=
201409051600 METAR MRLM 051600Z 32005KT 9999 BKN015 SCT130 27/24 A2992=
201409051700 METAR MRLM 051700Z 32009KT 9999 SCT020 SCT130 28/247 A2990=
201409051800 METAR MRLM 051800Z 33009KT 9999 FEW025 SCT140 SCT260 29/24 A2988=
201409051900 METAR MRLM 051900Z 35005KT 9999 FEW030 BKN260 29/22 A2985=
201409052000 METAR MRLM 052000Z 03007KT 9999 FEW030 BKN260 29/24 A2982=
201409052100 METAR MRLM 052100Z 03008KT 9999 FEW030 BKN250 29/23 A2980=
201409052200 METAR MRLM 052200Z 02008KT CAVOK 29/23 A2980=
201409052300 METAR MRLM 052300Z 35008KT CAVOK 28/23 A2982=
201409060000 METAR MRLM 060000Z 35006KT CAVOK 27/23 A2984=
201409060100 METAR MRLM NIL=
201409060200 METAR MRLM NIL=
201409060300 METAR MRLM NIL=
201409060400 METAR MRLM NIL=
201409060500 METAR MRLM NIL=
201409060600 METAR MRLM NIL=
201409060700 METAR MRLM NIL=
201409060800 METAR MRLM NIL=
201409060900 METAR MRLM NIL=
201409061000 METAR MRLM NIL=
201409061100 METAR MRLM NIL=
201409061200 METAR MRLM 061200Z 25003KT CAVOK 24/23 A2985=
201409061300 METAR MRLM 061300Z 00000KT CAVOK 26/23 A2988=
201409061400 METAR MRLM 061400Z 33007KT CAVOK 28/23 A2989=
201409061500 METAR MRLM 061500Z 31009KT 9999 FEW030 BKN140 30/24 A2990=
201409061600 METAR MRLM 061600Z 35009KT 9999 FEW030 SCT140 SCT250 30/24 A2989=
201409061700 METAR MRLM 061700Z 01012KT 9999 FEW030 BKN140 30/25 A2988=
201409061800 METAR MRLM 061800Z 02009KT 9999 FEW030 BKN140 30/25 A2986=
201409061900 METAR MRLM 061900Z 02009KT CAVOK 29/25 A2983=
201409062000 METAR MRLM 062000Z 02005KT 9999 SCT020 SCT130 29/24 A2981=
201409062100 METAR MRLM 062100Z 07004KT 9999 BKN020 29/24 A2981=
201409062200 METAR MRLM 062200Z 00000KT 9999 BKN020 29/24 A2981=
201409062300 METAR MRLM 062300Z 26002KT 9999 FEW015 BKN120 28/25 A2981=
201409070000 METAR MRLM 070000Z 00000KT CAVOK 27/25 A2983=
201409070100 METAR MRLM NIL=
201409070200 METAR MRLM NIL=
201409070300 METAR MRLM NIL=
201409070400 METAR MRLM NIL=
201409070500 METAR MRLM NIL=
201409070600 METAR MRLM NIL=
201409070700 METAR MRLM NIL=
201409070800 METAR MRLM NIL=
201409070900 METAR MRLM NIL=
201409071000 METAR MRLM NIL=
201409071100 METAR MRLM NIL=
201409071200 METAR MRLM 071200Z 25004KT 9999 BKN025 SCT080 23/21 A2981=
201409071300 METAR MRLM 071300Z 23002KT 9999 BKN025 23/22 A2983=
201409071400 METAR MRLM 071400Z 10009KT 9999 DZ VCTSRA SCT010CB BKN015 25/22 A2988=
201409071500 METAR MRLM 071500Z 27003KT 8000 TSRA SCT010CB BKN015 24/23 A2990=
201409071600 METAR MRLM 071600Z 26003KT 9999 RA SCT015 BKN090 24/24 A2990 RETS=
201409071700 METAR MRLM 071700Z 25003KT 9999 +DZ FEW025 BKN100 25/24 A2988 RERA=
201409071800 METAR MRLM 071800Z 23002KT 9999 DZ FEW090 BKN140 26/25 A2985=
201409071900 METAR MRLM 071900Z 05002KT 9999 DZ FEW015 BKN090 27/24 A2983=
201409072000 METAR MRLM 072000Z 25001KT CAVOK 28/24 A2979 REDZ=
201409072100 METAR MRLM 072100Z 02003KT CAVOK 27/24 A2977=
201409072200 METAR MRLM 072200Z 26002KT CAVOK 28/24 A2977=
201409072300 METAR MRLM 072300Z 35003KT 9999 FEW015 BKN140 27/23 A2979=
201409072356 METAR MRLM 080000Z 26004KT CAVOK 26/24 A2980=
201409080000 METAR MRLM 080000Z 26004KT CAVOK 26/24 A2980=
201409080100 METAR MRLM NIL=
201409080200 METAR MRLM NIL=
201409080300 METAR MRLM NIL=
201409080400 METAR MRLM NIL=
201409080500 METAR MRLM NIL=
201409080600 METAR MRLM NIL=
201409080700 METAR MRLM NIL=
201409080800 METAR MRLM NIL=
201409080900 METAR MRLM 0900Z 17003KT CAVOK 26/23 A2976=
201409081000 METAR MRLM NIL=
201409081100 METAR MRLM NIL=
201409081200 METAR MRLM 081200Z 26004KT CAVOK 24/23 A2985=
201409081300 METAR MRLM 081300Z 26004KT CAVOK 25/23 A2988=
201409081400 METAR MRLM 081400Z 34005KT CAVOK 29/24 A2989=
201409081500 METAR MRLM 081500Z 30006KT 9999 FEW030 BKN270 30/23 A2989=
201409081600 METAR MRLM 081600Z 05007KT 9999 FEW025 BKN080 30/25 A2990=
201409081700 METAR MRLM 081700Z 05007KT 9999 FEW025 SCT120 SCT270 30/25 A2990=
201409081800 METAR MRLM 081800Z 06007KT 9999 FEW028 BKN090 30/24 A2988=
201409081900 METAR MRLM 081900Z 0907KT 9999 FEW025 BKN090 30/25 A2986=
201409082000 METAR MRLM 082000Z 12029KT 8000 RA OVC015 26/23 A2988=
201409082100 METAR MRLM 082100Z 15011KT 9999 BKN035 28/21 A2983 RERA=
201409082200 METAR MRLM 082200Z 24004KT 9999 FEW025 SCT080 SCT140 27/22 A2976=
201409082300 METAR MRLM 082300Z 23005KT CAVOK 26/23 A2976=
201409082353 METAR MRLM 0900Z 17003KT CAVOK 26/23 A2976=
201409090000 METAR MRLM NIL=
201409090100 METAR MRLM NIL=
201409090200 METAR MRLM NIL=
201409090300 METAR MRLM NIL=
201409090400 METAR MRLM NIL=
201409090500 METAR MRLM NIL=
201409090600 METAR MRLM NIL=
201409090700 METAR MRLM NIL=
201409090800 METAR MRLM NIL=
201409090900 METAR MRLM NIL=
201409091000 METAR MRLM NIL=
201409091100 METAR MRLM NIL=
201409091200 METAR MRLM 091200Z 24005KT CAVOK 23/21 A2989=
201409091300 METAR MRLM 091300Z 24004KT CAVOK 25/22 A2991=
201409091400 METAR MRLM 091400Z 25002KT CAVOK 29/23 A2991=
201409091500 METAR MRLM 091500Z 09003KT 9999 FEW030 BKN250 29/24 A2991=
201409091600 METAR MRLM 091600Z 07006KT 9999 FEW025 BKN250 29/24 A2991=
201409091700 METAR MRLM 091700Z 06006KT CAVOK 30/23 A2989=
201409091800 METAR MRLM 091800Z 05005KT CAVOK 30/23 A2987=
201409091900 METAR MRLM 091900Z 05008KT CAVOK 30/23 A2983=
201409092000 METAR MRLM 092000Z 05007KT CAVOK 30/23 A2981=
201409092100 METAR MRLM 092100Z 04009KT CAVOK 30/24 A2979=
201409092200 METAR MRLM 092200Z 04006KT CAVOK 29/24 A2979=
201409092300 METAR MRLM 092300Z 05003KT CAVOK 29/24 A2978=
201409100000 METAR MRLM 100000Z 00000KT CAVOK 27/24 A2980=
201409100100 METAR MRLM NIL=
201409100200 METAR MRLM NIL=
201409100300 METAR MRLM NIL=
201409100400 METAR MRLM NIL=
201409100500 METAR MRLM NIL=
201409100600 METAR MRLM NIL=
201409100700 METAR MRLM NIL=
201409100800 METAR MRLM NIL=
201409100900 METAR MRLM NIL=
201409101000 METAR MRLM NIL=
201409101100 METAR MRLM NIL=
201409101200 METAR MRLM 101200Z 25004KT CAVOK 23/22 A2982=
201409101300 METAR MRLM 101300Z 27003KT CAVOK 26/24 A2983=
201409101400 METAR MRLM 101400Z 26003KT CAVOK 29/25 A2985=
201409101500 METAR MRLM 101500Z 32003KT CAVOK 31/23 A2985=
201409101600 METAR MRLM 101600Z 03010KT 9999 FEW030 BKN250 31/25 A2985=
201409101700 METAR MRLM 101700Z 03011KT 9999 FEW030 BKN250 30/25 A2985=
201409101800 METAR MRLM 101800Z 02011KT CAVOK 31/25 A2982=
201409101900 METAR MRLM 101900Z 02012KT 9999 FEW020 BKN250 30/26 A2981=
201409102000 METAR MRLM 102000Z 03011KT 9999 FEW020 BKN250 30/25 A2977=
201409102100 METAR MRLM 102100Z 01006KT 9999 FEW025 BKN250 29/24 A2975=
201409102200 METAR MRLM 102200Z 01004KT 9999 SCT020 BKN250 29/25 A2976=
201409102300 METAR MRLM 102300Z 01007KT 9999 BKN020 29/25 A2978=
201409110000 METAR MRLM 110000Z 01009KT 9999 BKN015 28/25 A2979=
201409110100 METAR MRLM NIL=
201409110200 METAR MRLM NIL=
201409110300 METAR MRLM NIL=
201409110400 METAR MRLM NIL=
201409110500 METAR MRLM NIL=
201409110600 METAR MRLM NIL=
201409110700 METAR MRLM NIL=
201409110800 METAR MRLM NIL=
201409110900 METAR MRLM NIL=
201409111000 METAR MRLM NIL=
201409111100 METAR MRLM NIL=
201409111200 METAR MRLM 111200Z 27002KT CAVOK 24/23 A2980=
201409111300 METAR MRLM 111300Z 32003KT CAVOK 25/24 A2981=
201409111400 METAR MRLM 111400Z 32006KT CAVOK 27/23 A2983=
201409111500 METAR MRLM 111500Z 31008KT 9999 FEW025 BKN120 29/23 A2986=
201409111600 METAR MRLM 111600Z 03009KT 9999 SCT025 SCT120 30/24 A2987=
201409111700 METAR MRLM 111700Z 04007KT 9999 FEW025 SCT140 SCT270 30/25 A2984=
201409111800 METAR MRLM 111800Z 05008KT 9999 FEW025 SCT150 30/25 A2982=
201409111900 METAR MRLM 111900Z 05010KT 9999 FEW030 BKN140 30/24 A2978=
201409112000 METAR MRLM 112000Z 03011KT 9999 FEW035 SCT140 SCT270 30/23 A2977=
201409112100 METAR MRLM 112100Z 02009KT 9999 FEW030 BKN260 30/24 A2975=
201409112200 METAR MRLM 112200Z 04009KT 9999 OVC020 29/24 A2976=
201409112300 METAR MRLM 112300Z 04009KT 9999 FEW015 BKN080 28/24 A2978=
201409112351 METAR MRLM 120000Z 04004KT 9999 FEW015 BKN025 27/24 A2980=
201409120000 METAR MRLM 120000Z 04004KT 9999 FEW015 BKN025 27/24 A2980=
201409120100 METAR MRLM NIL=
201409120200 METAR MRLM NIL=
201409120300 METAR MRLM NIL=
201409120400 METAR MRLM NIL=
201409120500 METAR MRLM NIL=
201409120600 METAR MRLM NIL=
201409120700 METAR MRLM NIL=
201409120800 METAR MRLM NIL=
201409120900 METAR MRLM NIL=
201409121000 METAR MRLM NIL=
201409121100 METAR MRLM NIL=
201409121200 METAR MRLM 121200Z 26002KT 9999 FEW015 BKN090 24/23 A2984=
201409121300 METAR MRLM 121300Z 26003KT 9999 FEW015 BKN090 24/23 A2986=
201409121400 METAR MRLM 121400Z 28006KT CAVOK 26/23 A2986=
201409121500 METAR MRLM 121500Z 28001KT 9999 FEW025 SCT120 SCT270 29/24 A2986=
201409121600 METAR MRLM 121600Z 06004KT 9999 FEW020 SCT120 SCT270 28/24 A2986=
201409121700 METAR MRLM 121700Z 05006KT 9999 FEW025 SCT140 SCT250 30/25 A2985=
201409121800 METAR MRLM 121800Z 03007KT 9999 FEW025 SCT110 SCT260 29/25 A2983=
201409121900 METAR MRLM 121900Z 03008KT 9999 FEW025 SCT140 SCT260 30/25 A2981=
201409122000 METAR MRLM 122000Z 05007KT 9999 BKN025 30/24 A2979=
201409122100 METAR MRLM 122100Z 06006KT 9999 OVC025 29/25 A2978=
201409122200 METAR MRLM 122200Z 08008KT 9999 SCT018 SCT150 28/25 A2977=
201409122300 METAR MRLM 122300Z 06003KT 9999 SCT015 SCT090 28/24 A2977=
201409122354 METAR MRLM 130000Z 24001KT 9999 SCT010 SCT090 27/25 A2977=
201409130000 METAR MRLM 130000Z 24001KT 9999 SCT010 SCT090 27/25 A2977=
201409130100 METAR MRLM NIL=
201409130200 METAR MRLM NIL=
201409130300 METAR MRLM NIL=
201409130400 METAR MRLM NIL=
201409130500 METAR MRLM NIL=
201409130600 METAR MRLM NIL=
201409130700 METAR MRLM NIL=
201409130800 METAR MRLM NIL=
201409130900 METAR MRLM NIL=
201409131000 METAR MRLM NIL=
201409131100 METAR MRLM NIL=
201409131200 METAR MRLM 131200Z 26004KT 9999 -DZ SCT010 BKN100 23/23 A2985=
201409131300 METAR MRLM 131300Z 26004KT 9999 FEW010 BKN110 24/23 A2986=
201409131400 METAR MRLM 131400Z 26003KT CAVOK 25/24 A2987=
201409131500 METAR MRLM 131500Z 00000KT CAVOK 29/23 A2988=
201409131600 METAR MRLM 131600Z 10003KT 9999 FEW025 BKN130 28/23 A2988=
201409131700 METAR MRLM 131700Z 07005KT 9999 FEW030 BKN140 29/24 A2986=
201409131800 METAR MRLM 131800Z 06005KT 9999 FEW030 BKN260 29/24 A2984=
201409131900 METAR MRLM 131900Z 04007KT CAVOK 30/24 A2980=
201409132000 METAR MRLM 132000Z 05006KT CAVOK 30/24 A2978=
201409132100 METAR MRLM 132100Z 06006KT CAVOK 30/23 A2976=
201409132200 METAR MRLM 132200Z 09004KT CAVOK 29/24 A2977=
201409132300 METAR MRLM 132300Z 09005KT CAVOK 29/24 A2978=
201409140000 METAR MRLM 140000Z 11005KT CAVOK 28/24 A2980=
201409140100 METAR MRLM NIL=
201409140200 METAR MRLM NIL=
201409140300 METAR MRLM NIL=
201409140400 METAR MRLM NIL=
201409140500 METAR MRLM NIL=
201409140600 METAR MRLM NIL=
201409140700 METAR MRLM NIL=
201409140800 METAR MRLM NIL=
201409140900 METAR MRLM NIL=
201409141000 METAR MRLM NIL=
201409141100 METAR MRLM NIL=
201409141200 METAR MRLM 141200Z 28003KT 8000 DZ OVC007 24/23 A2988=
201409141300 METAR MRLM 141300Z 28003KT 9999 DZ BKN007 24/24 A2989=
201409141400 METAR MRLM 141400Z 26004KT 9999 -DZ FEW005 SCT010 SCT100 24/24 A2992=
201409141500 METAR MRLM 141500Z 22003KT 8000 DZ BKN010 25/24 A2993=
201409141600 METAR MRLM 141600Z 27004KT 9999 DZ SCT010 SCT100 25/24 A2993=
201409141700 METAR MRLM 141700Z 28005KT 9999 -DZ SCT010 BKN110 25/24 A2992=
201409141800 METAR MRLM 141800Z 00000KT 9999 FEW020 BKN130 28/25 A2988=
201409141900 METAR MRLM 141900Z 04005KT 9999 FEW020 BKN130 28/25 A2987=
201409142000 METAR MRLM 142000Z 02007KT CAVOK 29/25 A2986=
201409142100 METAR MRLM 142100Z 36009KT 9999 FEW020 BKN130 28/24 A2986=
201409142200 METAR MRLM 142200Z 32004KT 9999 SCT015 SCT120 27/24 A2986=
201409142300 METAR MRLM 142300Z 25004KT 9999 DZ BKN010 26/24 A2987=
201409150000 METAR MRLM 150000Z 23003KT 9999 DZ BKN010 25/24 A2990=
201409150100 METAR MRLM NIL=
201409150200 METAR MRLM NIL=
201409150300 METAR MRLM NIL=
201409150400 METAR MRLM NIL=
201409150500 METAR MRLM NIL=
201409150600 METAR MRLM NIL=
201409150700 METAR MRLM NIL=
201409150800 METAR MRLM NIL=
201409150900 METAR MRLM NIL=
201409151000 METAR MRLM NIL=
201409151100 METAR MRLM NIL=
201409151200 METAR MRLM 151200Z 27003KT 9999 BKN013 24/23 A2993=
201409151300 METAR MRLM 151300Z 22003KT 9999 BKN015 25/23 A2995=
201409151400 METAR MRLM 151400Z 24003KT 9999 DZ BKN015 25/23 A2997=
201409151500 METAR MRLM 151500Z 25002KT 9999 BKN015 FEW110 26/24 A2997 REDZ=
201409151600 METAR MRLM 151600Z 07003KT 9999 DZ FEW025 BKN090 28/23 A2998=
201409151700 METAR MRLM 151700Z 06006KT 9999 FEW025 BKN090 28/23 A2997 REDZ=
201409151800 METAR MRLM 151800Z 05006KT 9999 FEW020 BKN100 28/24 A2994=
201409151900 METAR MRLM 151900Z 05006KT 9999 FEW020 SCT080 SCT100 28/24 A2991=
201409151956 METAR MRLM 151956Z 05006KT 9999 SCT025 SCT260 29/24 A2988=
201409152000 METAR MRLM 05006KT 9999 SCT025 SCT260 29/24 A2988=
201409152100 METAR MRLM 152100Z 04006KT 9999 SCT018TCU SCT270 28/25 A2987=
201409152200 METAR MRLM 152200Z 06004KT 9999 SCT020 SCT270 28/24 A2988=
201409152300 METAR MRLM 152300Z 01002KT 9999 FEW015 BKN080 28/24 A2988=
201409152354 METAR MRLM 160000Z 28002KT CAVOK 27/25 A2988=
201409160000 METAR MRLM 160000Z 28002KT CAVOK 27/25 A2988=
201409160100 METAR MRLM NIL=
201409160200 METAR MRLM NIL=
201409160300 METAR MRLM NIL=
201409160400 METAR MRLM NIL=
201409160500 METAR MRLM NIL=
201409160600 METAR MRLM NIL=
201409160700 METAR MRLM NIL=
201409160800 METAR MRLM NIL=
201409160900 METAR MRLM NIL=
201409161000 METAR MRLM NIL=
201409161100 METAR MRLM NIL=
201409161200 METAR MRLM 161200Z 29002KT 9999 FEW015 SCT150 24/23 A2995=
201409161300 METAR MRLM 161300Z 29004KT 9999 BKN020 25/24 A2997=
201409161400 METAR MRLM 161400Z 25003KT 9999 FEW020 BKN090 25/24 A2999=
201409161500 METAR MRLM 161500Z 27004KT 9999 FEW015 SCT100 SCT270 27/24 A2998=
201409161600 METAR MRLM 161600Z 32004KT 9999 FEW030 BKN270 29/23 A2998=
201409161700 METAR MRLM 161700Z 01007KT 9999 FEW030 BKN260 29/24 A2995=
201409161755 METAR MRLM 161755Z 02011KT 9999 FEW023 BKN270 29724 A2993=
201409161800 METAR MRLM 161800Z 02011KT 9999 FEW023 BKN270 29724 A2993=
201409161900 METAR MRLM 161900Z 03008KT 9999 FEW025 BKN270 29/24 A2989=
201409162000 METAR MRLM 162000Z 05007KT 9999 SCT022 BKN270 28/24 A2987=
201409162100 METAR MRLM 162100Z 05007KT 9999 BKN018 28/24 A2986=
201409162200 METAR MRLM 162200Z 06006KT 9999 OVC018 28/24 A2986=
201409162300 METAR MRLM 162300Z 07008KT 9999 OVC015 28/24 A2988=
201409162351 METAR MRLM 170000Z 10009KT 9999 VCTS VCSH FEW010CB BKN015 28/24 A2989=
201409170000 METAR MRLM 170000Z 10009KT 9999 VCTS VCSH FEW010CB BKN015 28/24 A2989=
201409170100 METAR MRLM NIL=
201409170200 METAR MRLM NIL=
201409170300 METAR MRLM NIL=
201409170400 METAR MRLM NIL=
201409170500 METAR MRLM NIL=
201409170600 METAR MRLM NIL=
201409170700 METAR MRLM NIL=
201409170800 METAR MRLM NIL=
201409170900 METAR MRLM NIL=
201409171000 METAR MRLM NIL=
201409171100 METAR MRLM NIL=
201409171200 METAR MRLM 171200Z 30002KT 9999 FEW007 BKN120 24/23 A2993=
201409171300 METAR MRLM 171300Z 27004KT CAVOK 26/24 A2994=
201409171400 METAR MRLM 171400Z 34006KT 9999 FEW020 BKN120 26/23 A2996=
201409171500 METAR MRLM 171500Z 32005KT 9999 SCT020 BKN130 28/23 A2998=
201409171600 METAR MRLM 171600Z 29006KT 9999 SCT025 BKN250 29/24 A2996=
201409171700 METAR MRLM 171700Z 33006KT 9999 SCT030 SCT250 31/24 A2994=
201409171800 METAR MRLM 171800Z 02011KT 9999 FEW030 SCT140 SCT250 30/24 A2990=
201409171900 METAR MRLM 171900Z 02009KT 9999 SCT025 SCT250 29/24 A2988=
201409172000 METAR MRLM 172000Z 02009KT 9999 BKN020 28/24 A2985=
201409172100 METAR MRLM 172100Z 02009KT 9999 BKN020 28/24 A2985=
201409172200 METAR MRLM 172200Z 05011KT 9999 BKN015 28/24 A2983=
201409172300 METAR MRLM 172300Z 07008KT 9999 BKN015 28/24 A2985=
201409180000 METAR MRLM 180000Z 09005KT 9999 DZ BKN010 27/25 A2988=
201409180100 METAR MRLM NIL=
201409180200 METAR MRLM NIL=
201409180300 METAR MRLM NIL=
201409180400 METAR MRLM NIL=
201409180500 METAR MRLM NIL=
201409180600 METAR MRLM NIL=
201409180700 METAR MRLM NIL=
201409180800 METAR MRLM NIL=
201409180900 METAR MRLM NIL=
201409181000 METAR MRLM NIL=
201409181100 METAR MRLM NIL=
201409181200 METAR MRLM 181200Z 25003KT 9999 FEW010 BKN100 22/21 A2990=
201409181300 METAR MRLM 181300Z 24004KT CAVOK 25/22 A2990=
201409181400 METAR MRLM 181400Z 13003KT CAVOK 28/23 A2992=
201409181500 METAR MRLM 181500Z 07002KT CAVOK 29/23 A2992=
201409181600 METAR MRLM 181600Z 12004KT CAVOK 29/23 A2992=
201409181700 METAR MRLM 181700Z 10005KT CAVOK 30/23 A2991=
201409181800 METAR MRLM 181800Z 09005KT CAVOK 30/24 A2990=
201409181900 METAR MRLM 181900Z 08005KT CAVOK 30/23 A2986=
201409182000 METAR MRLM 182000Z 10005KT CAVOK 30/24 A2983=
201409182100 METAR MRLM 182100Z 09008KT 9999 FEW030 SCT250 30/24 A2981=
201409182200 METAR MRLM 182200Z 13007KT 9999 SCT025 SCT240 29/24 A2983=
201409182300 METAR MRLM 182300Z 12005KT 9999 BKN020 29/24 A2984=
201409190000 METAR MRLM 190000Z 19003KT 9999 BKN015 28/24 A2986=
201409190100 METAR MRLM NIL=
201409190200 METAR MRLM NIL=
201409190300 METAR MRLM NIL=
201409190400 METAR MRLM NIL=
201409190500 METAR MRLM NIL=
201409190600 METAR MRLM NIL=
201409190700 METAR MRLM NIL=
201409190800 METAR MRLM NIL=
201409190900 METAR MRLM NIL=
201409191000 METAR MRLM NIL=
201409191100 METAR MRLM NIL=
201409191200 METAR MRLM NIL=
201409191300 METAR MRLM 191300Z 24005KT CAVOK 27/24 A2991=
201409191400 METAR MRLM 191400Z 29002KT 9999 FEW030 SCT260 29/24 A2993=
201409191500 METAR MRLM 191500Z 07004KT 9999 FEW030 SCT260 30/24 A2993=
201409191600 METAR MRLM 191600Z 04009KT 9999 FEW030 SCT260 30/24 A2993=
201409191700 METAR MRLM 191700Z 03008KT 9999 FEW030 SCT260 30/25 A2992=
201409191800 METAR MRLM 191800Z 04008KT 9999 FEW025 BKN260 30/25 A2988=
201409191900 METAR MRLM 191900Z 04010KT 9999 SCT020 BKN260 30/25 A2986=
201409192000 METAR MRLM 192000Z 03007KT 9999 SCT020 SCT260 30/25 A2982=
201409192100 METAR MRLM 192100Z 03005KT 9999 SCT025 SCT250 30/25 A2982=
201409192200 METAR MRLM NIL=
201409192300 METAR MRLM NIL=
201409200000 METAR MRLM NIL=
201409200100 METAR MRLM NIL=
201409200200 METAR MRLM NIL=
201409200300 METAR MRLM NIL=
201409200400 METAR MRLM NIL=
201409200500 METAR MRLM NIL=
201409200600 METAR MRLM NIL=
201409200700 METAR MRLM NIL=
201409200800 METAR MRLM NIL=
201409200900 METAR MRLM NIL=
201409201000 METAR MRLM NIL=
201409201100 METAR MRLM NIL=
201409201200 METAR MRLM NIL=
201409201300 METAR MRLM 201300Z 24004KT CAVOK 24/23 A2990=
201409201400 METAR MRLM 201400Z 30002KT CAVOK 29/23 A2990=
201409201500 METAR MRLM 201500Z 09004KT CAVOK 29/24 A2991=
201409201600 METAR MRLM 201600Z 04007KT 9999 FEW030 BKN140 30/24 A2992=
201409201700 METAR MRLM 201700Z 05005KT 9999 FEW030 BKN140 30/24 A2991=
201409201800 METAR MRLM 201800Z 07006KT 9999 FEW030 SCT130 SCT250 29/24 A2990=
201409201900 METAR MRLM 201900Z 07009KT 9999 FEW030 BKN250 30/25 A2987=
201409202000 METAR MRLM 202000Z 12008KT 9999 BKN020 29/25 A2984=
201409202100 METAR MRLM 202100Z 16009KT 9999 SCT025 BKN250 29/23 A2982=
201409202200 METAR MRLM NIL=
201409202300 METAR MRLM NIL=
201409210000 METAR MRLM NIL=
201409210100 METAR MRLM NIL=
201409210200 METAR MRLM NIL=
201409210300 METAR MRLM NIL=
201409210400 METAR MRLM NIL=
201409210500 METAR MRLM NIL=
201409210600 METAR MRLM NIL=
201409210700 METAR MRLM NIL=
201409210800 METAR MRLM NIL=
201409210900 METAR MRLM NIL=
201409211000 METAR MRLM NIL=
201409211100 METAR MRLM NIL=
201409211200 METAR MRLM NIL=
201409211300 METAR MRLM 211300Z 25004KT CAVOK 26/23 A2993=
201409211400 METAR MRLM 211400Z 08004KT 9999 FEW030 SCT130 29/24 A2994=
201409211500 METAR MRLM 211500Z 10003KT 9999 FEW030 SCT130 29/24 A2995=
201409211600 METAR MRLM 211600Z 07005KT CAVOK 29/24 A2993=
201409211700 METAR MRLM 211700Z 08005KT 9999 FEW030 SCT250 30/25 A2992=
201409211800 METAR MRLM 211800Z 08006KT CAVOK 30/25 A2990=
201409211900 METAR MRLM 211900Z 09006KT CAVOK 30/25 A2987=
201409212000 METAR MRLM 212000Z 09005KT CAVOK 30/24 A2984=
201409212100 METAR MRLM 212100Z 10006KT CAVOK 30/24 A2982=
201409212200 METAR MRLM NIL=
201409212300 METAR MRLM NIL=
201409220000 METAR MRLM NIL=
201409220100 METAR MRLM NIL=
201409220200 METAR MRLM NIL=
201409220300 METAR MRLM NIL=
201409220400 METAR MRLM NIL=
201409220500 METAR MRLM NIL=
201409220600 METAR MRLM NIL=
201409220700 METAR MRLM NIL=
201409220800 METAR MRLM NIL=
201409220900 METAR MRLM NIL=
201409221000 METAR MRLM NIL=
201409221100 METAR MRLM NIL=
201409221200 METAR MRLM NIL=
201409221300 METAR MRLM 221300Z 00000KT CAVOK 24/23 A2990=
201409221400 METAR MRLM 221400Z 00000KT 9999 FEW030 SCT250 29/23 A2992=
201409221500 METAR MRLM 221500Z 09003KT 9999 FEW025 SCT130 SCT250 29/24 A2993=
201409221600 METAR MRLM 221600Z 02007KT 9999 SCT025 BKN130 29/24 A2993=
201409221700 METAR MRLM 221700Z 02008KT 9999 FEW020 BKN130 28/24 A2992=
201409221800 METAR MRLM 221800Z 03008KT 9999 FEW030 BKN130 29/24 A2988=
201409221900 METAR MRLM 221900Z 03004KT CAVOK 30/24 A2985=
201409222000 METAR MRLM 222000Z 33005KT CAVOK 30/24 A2982=
201409222100 METAR MRLM 222100Z 02009KT CAVOK 30/24 A2980=
201409222200 METAR MRLM NIL=
201409222300 METAR MRLM NIL=
201409230000 METAR MRLM NIL=
201409230100 METAR MRLM NIL=
201409230200 METAR MRLM NIL=
201409230300 METAR MRLM NIL=
201409230400 METAR MRLM NIL=
201409230500 METAR MRLM NIL=
201409230600 METAR MRLM NIL=
201409230700 METAR MRLM NIL=
201409230800 METAR MRLM NIL=
201409230900 METAR MRLM NIL=
201409231000 METAR MRLM NIL=
201409231100 METAR MRLM NIL=
201409231200 METAR MRLM NIL=
201409231300 METAR MRLM 231300Z 24005KT CAVOK 25/22 A2988=
201409231400 METAR MRLM 231400Z 00000KT CAVOK 29/23 A2989=
201409231500 METAR MRLM 231500Z 08004KT CAVOK 30/23 A2989=
201409231600 METAR MRLM 231600Z 02009KT 9999 FEW040 BKN260 31/23 A2989=
201409231700 METAR MRLM 231700Z 03010KT CAVOK 30/24 A2988=
201409231800 METAR MRLM 231800Z 02010KT CAVOK 30/24 A2984=
201409231900 METAR MRLM NIL=
201409232000 METAR MRLM 232000Z 03008KT 9999 FEW030 SCT130 SCT250 30/24 A2978=
201409232100 METAR MRLM 232100Z 03008KT 9999 FEW030 BKN250 30/24 A2977=
201409232200 METAR MRLM NIL=
201409232300 METAR MRLM NIL=
201409240000 METAR MRLM NIL=
201409240100 METAR MRLM NIL=
201409240200 METAR MRLM NIL=
201409240300 METAR MRLM NIL=
201409240400 METAR MRLM NIL=
201409240500 METAR MRLM NIL=
201409240600 METAR MRLM NIL=
201409240700 METAR MRLM NIL=
201409240800 METAR MRLM NIL=
201409240900 METAR MRLM NIL=
201409241000 METAR MRLM NIL=
201409241100 METAR MRLM NIL=
201409241200 METAR MRLM NIL=
201409241300 METAR MRLM 241300Z 22003KT 9999 FEW010 BKN120 24/23 A2987=
201409241400 METAR MRLM 241400Z 00000KT 9999 FEW010 BKN130 26/23 A2987=
201409241500 METAR MRLM 241500Z 27003KT 9999 FEW015 SCT130 SCT250 27/24 A2988=
201409241600 METAR MRLM 241600Z 05005KT CAVOK 28/24 A2989=
201409241700 METAR MRLM 241700Z 10007KT CAVOK 30/23 A2986=
201409241800 METAR MRLM 241800Z 10006KT 9999 FEW030 BKN260 30/24 A2984=
201409241900 METAR MRLM 241900Z 08005KT 9999 FEW030 SCT150 SCT260 30/25 A2981=
201409242000 METAR MRLM 242000Z 09005KT 9999 FEW030 BKN250 30/24 A2980=
201409242100 METAR MRLM 242100Z 10005KT 9999 FEW030 SCT140 SCT250 30/24 A2979=
201409242200 METAR MRLM NIL=
201409242300 METAR MRLM NIL=
201409250000 METAR MRLM NIL=
201409250100 METAR MRLM NIL=
201409250200 METAR MRLM NIL=
201409250300 METAR MRLM NIL=
201409250400 METAR MRLM NIL=
201409250500 METAR MRLM NIL=
201409250600 METAR MRLM NIL=
201409250700 METAR MRLM NIL=
201409250800 METAR MRLM NIL=
201409250900 METAR MRLM NIL=
201409251000 METAR MRLM NIL=
201409251100 METAR MRLM NIL=
201409251200 METAR MRLM NIL=
201409251300 METAR MRLM 251300Z 27003KT 9999 FEW010 BKN100 24/24 A2989=
201409251400 METAR MRLM 251400Z 00000KT CAVOK 25/24 A2992=
201409251500 METAR MRLM 251500Z 00000KT CAVOK 28/24 A2990=
201409251600 METAR MRLM 251600Z 07004KT CAVOK 29/25 A2989=
201409251700 METAR MRLM 251700Z 04007KT 9999 FEW020 SCT130 SCT250 29/24 A2987=
201409251800 METAR MRLM 251800Z 05005KT CAVOK 29/24 A2985=
201409251900 METAR MRLM 251900Z 04007KT CAVOK 30/25 A2983=
201409252000 METAR MRLM 252000Z 05007KT CAVOK 30/25 A2980=
201409252100 METAR MRLM 252100Z 06005KT CAVOK 30/24 A2978=
201409252200 METAR MRLM NIL=
201409252300 METAR MRLM NIL=
201409260000 METAR MRLM NIL=
201409260100 METAR MRLM NIL=
201409260200 METAR MRLM NIL=
201409260300 METAR MRLM NIL=
201409260400 METAR MRLM NIL=
201409260500 METAR MRLM NIL=
201409260600 METAR MRLM NIL=
201409260700 METAR MRLM NIL=
201409260800 METAR MRLM NIL=
201409260900 METAR MRLM NIL=
201409261000 METAR MRLM NIL=
201409261100 METAR MRLM NIL=
201409261200 METAR MRLM NIL=
201409261300 METAR MRLM 261300Z 15003KT CAVOK 26/24 A2983=
201409261400 METAR MRLM 261400Z 32003KT 9999 FEW030 28/23 A2986=
201409261500 METAR MRLM 261500Z 09003KT 9999 FEW030 29/23 A3004=
201409261600 METAR MRLM 261600Z 060005KT 9999 FEW030 30/23 A2989=
201409261700 METAR MRLM 261700Z 03007KT 9999 FEW030 30/23 A2987=
201409261800 METAR MRLM 261800Z 04008KT CAVOK 30/24 A2985=
201409261900 METAR MRLM 261900Z 06006KT CAVOK 30/23 A2982=
201409262000 METAR MRLM 262000Z 05005KT CAVOK 30/24 A2980=
201409262100 METAR MRLM 262100Z 06005KT CAVOK 30/23 A2978=
201409262200 METAR MRLM NIL=
201409262300 METAR MRLM NIL=
201409270000 METAR MRLM NIL=
201409270100 METAR MRLM NIL=
201409270200 METAR MRLM NIL=
201409270300 METAR MRLM NIL=
201409270400 METAR MRLM NIL=
201409270500 METAR MRLM NIL=
201409270600 METAR MRLM NIL=
201409270700 METAR MRLM NIL=
201409270800 METAR MRLM NIL=
201409270900 METAR MRLM NIL=
201409271000 METAR MRLM NIL=
201409271100 METAR MRLM NIL=
201409271200 METAR MRLM NIL=
201409271300 METAR MRLM 271300Z 23005KT CAVOK 25/22 A2984=
201409271400 METAR MRLM 271400Z 23002KT CAVOK 29/23 A2986=
201409271500 METAR MRLM 271500Z 13005KT CAVOK 29/22 A2986=
201409271600 METAR MRLM 271600Z 08004KT CAVOK 30/23 A2987=
201409271700 METAR MRLM 271700Z 06004KT CAVOK 30/23 A2984=
201409271800 METAR MRLM 271800Z 08007KT CAVOK 31/24 A2982=
201409271900 METAR MRLM 271900Z 07005KT CAVOK 30/24 A2978=
201409272000 METAR MRLM 272000Z 07005KT CAVOK 31/24 A2975=
201409272100 METAR MRLM 272100Z 07005KT 9999 FEW030 BKN250 31/24 A2973=
201409272200 METAR MRLM NIL=
201409272300 METAR MRLM NIL=
201409280000 METAR MRLM NIL=
201409280100 METAR MRLM NIL=
201409280200 METAR MRLM NIL=
201409280300 METAR MRLM NIL=
201409280400 METAR MRLM NIL=
201409280500 METAR MRLM NIL=
201409280600 METAR MRLM NIL=
201409280700 METAR MRLM NIL=
201409280800 METAR MRLM NIL=
201409280900 METAR MRLM NIL=
201409281000 METAR MRLM NIL=
201409281100 METAR MRLM NIL=
201409281200 METAR MRLM NIL=
201409281300 METAR MRLM 281300Z 25003KT CAVOK 26/25 A2986=
201409281400 METAR MRLM 281400Z 30004KT CAVOK 29/25 A2987=
201409281500 METAR MRLM 281500Z 36005KT 9999 FEW030 BKN260 31/25 A2987=
201409281600 METAR MRLM 281600Z 03008KT CAVOK 30/25 A2985=
201409281700 METAR MRLM 281700Z 03008KT CAVOK 30/25 A2985=
201409281800 METAR MRLM 281800Z 04007KT CAVOK 30/25 A2982=
201409281900 METAR MRLM 281900Z 02009KT 9999 FEW030 BKN260 31/25 A2980=
201409282000 METAR MRLM 282000Z 03007KT 9999 FEW030 BKN250 30/24 A2977=
201409282100 METAR MRLM 282100Z 03008KT 9999 FEW020 BKN250 29/25 A2976=
201409282200 METAR MRLM NIL=
201409282300 METAR MRLM NIL=
201409290000 METAR MRLM NIL=
201409290100 METAR MRLM NIL=
201409290200 METAR MRLM NIL=
201409290300 METAR MRLM NIL=
201409290400 METAR MRLM NIL=
201409290500 METAR MRLM NIL=
201409290600 METAR MRLM NIL=
201409290700 METAR MRLM NIL=
201409290800 METAR MRLM NIL=
201409290900 METAR MRLM NIL=
201409291000 METAR MRLM NIL=
201409291100 METAR MRLM NIL=
201409291200 METAR MRLM NIL=
201409291300 METAR MRLM 291300Z 26003KT CAVOK 26/24 A2984=
201409291400 METAR MRLM 291400Z 00000KT 9999 FEW030 BKN250 30/24 A2986=
201409291500 METAR MRLM 291500Z 06006KT 9999 FEW025 BKN250 29/25 A2986=
201409291600 METAR MRLM 291600Z 04006KT 9999 FEW030 BKN250 30/24 A2987=
201409291700 METAR MRLM 291700Z 04008KT 9999 FEW030 BKN250 30/24 A2985=
201409291800 METAR MRLM 291800Z 03008KT 9999 FEW030 BKN250 31/25 A2982=
201409291900 METAR MRLM 291900Z 05008KT CAVOK 31/25 A2979=
201409292000 METAR MRLM 292000Z 03007KT 9999 FEW025 BKN250 30/25 A2977=
201409292100 METAR MRLM 292100Z 04005KT 9999 FEW020 BKN250 29/25 A2977=
201409292200 METAR MRLM NIL=
201409292300 METAR MRLM NIL=
201409300000 METAR MRLM NIL=
201409300100 METAR MRLM NIL=
201409300200 METAR MRLM NIL=
201409300300 METAR MRLM NIL=
201409300400 METAR MRLM NIL=
201409300500 METAR MRLM NIL=
201409300600 METAR MRLM NIL=
201409300700 METAR MRLM NIL=
201409300800 METAR MRLM NIL=
201409300900 METAR MRLM NIL=
201409301000 METAR MRLM NIL=
201409301100 METAR MRLM NIL=
201409301200 METAR MRLM NIL=
201409301300 METAR MRLM 301300Z 24004KT CAVOK 25/23 A2987=
201409301400 METAR MRLM 301400Z 24003KT CAVOK 28/24 A2988=
201409301500 METAR MRLM 301500Z 10003KT 9999 FEW030 BKN250 30/24 A2987=
201409301600 METAR MRLM 301600Z 06005KT 9999 FEW030 BKN250 31/24 A2987=
201409301700 METAR MRLM 301700Z 03008KT CAVOK 31/24 A2986=
201409301800 METAR MRLM 301800Z 04007KT CAVOK 31/24 A2983=
201409301900 METAR MRLM 301900Z 03007KT CAVOK 30/25 A2981=
201409302000 METAR MRLM 302000Z 04007KT CAVOK 31/25 A2979=
201409302100 METAR MRLM 302100Z 03007KT CAVOK 31/25 A2978=
201409302200 METAR MRLM NIL=
201409302300 METAR MRLM NIL=
201410010000 METAR MRLM NIL=
201410010100 METAR MRLM NIL=
201410010200 METAR MRLM NIL=
201410010300 METAR MRLM NIL=
201410010400 METAR MRLM NIL=
201410010500 METAR MRLM NIL=
201410010600 METAR MRLM NIL=
201410010700 METAR MRLM NIL=
201410010800 METAR MRLM NIL=
201410010900 METAR MRLM NIL=
201410011000 METAR MRLM NIL=
201410011100 METAR MRLM NIL=
201410011200 METAR MRLM 011200Z 24004KT 9999 TS FEW010CB BKN280 24/23 A2984=
201410011300 METAR MRLM 011300Z 23005KT 9999 VCTS FEW010CB SCT280 26/24 A2987=
201410011356 METAR MRLM 011356Z 22002KT 9999 VCTS FEW010CB BKN070 28/24 A2990=
201410011400 METAR MRLM 22002KT 9999 VCTS FEW010CB BKN070 28/24 A2990=
201410011500 METAR MRLM 011500Z 12004KT CAVOK 29/24 A2990 RETS=
201410011600 METAR MRLM 011600Z 07007KT CAVOK 30/25 A2988=
201410011700 METAR MRLM 011700Z 07006KT 9999 FEW025 BKN270 31/25 A2986=
201410011800 METAR MRLM 011800Z 07007KT 9999 FEW028 SCT080 SCT280 31/25 A2983=
201410011900 METAR MRLM 011900Z 04009KT 9999 FEW030 BKN280 31/26 A2980=
201410012000 METAR MRLM 012000Z 09007KT 9999 FEW030 BKN280 31/25 A2978=
201410012100 METAR MRLM 012100Z 06006KT 9999 FEW025 BKN270 30/25 A2978=
201410012200 METAR MRLM 012200Z 05004KT CAVOK 30/25 A2978=
201410012300 METAR MRLM 012300Z 08003KT CAVOK 30/24 A2981=
201410012351 METAR MRLM 020000Z 24003KT CAVOK 27/25 A2989=
201410020000 METAR MRLM 020000Z 24003KT CAVOK 27/25 A2989=
201410020100 METAR MRLM NIL=
201410020200 METAR MRLM NIL=
201410020300 METAR MRLM NIL=
201410020400 METAR MRLM NIL=
201410020500 METAR MRLM NIL=
201410020600 METAR MRLM NIL=
201410020700 METAR MRLM NIL=
201410020800 METAR MRLM NIL=
201410020900 METAR MRLM NIL=
201410021000 METAR MRLM NIL=
201410021100 METAR MRLM NIL=
201410021200 METAR MRLM 021200Z 25006KT 9999 TSRA FEW005 SCT015 SCT090 24/24 A2987=
201410021300 METAR MRLM 021300Z 32002KT 9999 FEW005 BKN020 24/24 A2989 RETS=
201410021400 METAR MRLM 021400Z 25005KT 9999 DZ VCTS FEW015CB BKN020 25/24 A2991=
201410021500 METAR MRLM 021500Z 19005KT 3000 TSRA FEW004 SCT010CB SCT015 24/24 A2993=
201410021600 METAR MRLM 021600Z 18014KT 8000 RA SCT003 BKN015 22/21 A2998 RETS=
201410021700 METAR MRLM 021700Z 26007KT 9999 +DZ BKN015 22/21 A2993 RERA=
201410021800 METAR MRLM 021800Z 27005KT 9999 BKN015 22/21 A2993 REDZ=
201410021856 METAR MRLM 021856Z 0228007KT 9999 SCT015 SCT100 24/21 A2983=
201410021900 METAR MRLM 0228007KT 9999 SCT015 SCT100 24/21 A2983=
201410022000 METAR MRLM 022000Z 31003KT CAVOK 26/23 A2982=
201410022100 METAR MRLM 022100Z 04004KT CAVOK 27/23 A2981=
201410022200 METAR MRLM 022200Z 06002KT CAVOK 27/23 A2982=
201410022258 METAR MRLM 02300Z 24002KT CAVOK 27/24 A2984=
201410022300 METAR MRLM 02300Z 24002KT CAVOK 27/24 A2984=
201410022353 METAR MRLM 030000Z 27001KT 9999 SCT025 SCT090 25/24 A2986=
201410030000 METAR MRLM 030000Z 27001KT 9999 SCT025 SCT090 25/24 A2986=
201410030100 METAR MRLM NIL=
201410030200 METAR MRLM NIL=
201410030300 METAR MRLM NIL=
201410030400 METAR MRLM NIL=
201410030500 METAR MRLM NIL=
201410030600 METAR MRLM NIL=
201410030700 METAR MRLM NIL=
201410030800 METAR MRLM NIL=
201410030900 METAR MRLM NIL=
201410031000 METAR MRLM NIL=
201410031100 METAR MRLM NIL=
201410031200 METAR MRLM 031200Z 31003KT 9999 FEW007 BKN100 24/22 A2990=
201410031300 METAR MRLM 031300Z 24004KT CAVOK 25/23 A2991=
201410031400 METAR MRLM 031400Z 00000KT 9999 FEW020 BKN110 26/23 A2993=
201410031500 METAR MRLM 031500Z 09014G32KT 2000 +RA OVC010 24/23 A2999=
201410031530 METAR MRLM 031530Z 34005KT 8000 RA VCTS BKN007 23/22 A2998=
201410031600 METAR MRLM 031600Z 26006KT 9999 RA FEW005 BKN010 23/22 A2998 RETS=
201410031700 METAR MRLM 031700Z 25004KT 9999 -DZ FEW005 SCT010 SCT100 23/22 A2996=
201410031800 METAR MRLM 031800Z 30004KT 9999 DZ FEW007 BKN110 24/22 A2995=
201410031900 METAR MRLM NIL=
201410032000 METAR MRLM 032000Z 29007KT 9999 -DZ FEW010 SCT130 SCT200 24/21 A2987=
201410032100 METAR MRLM 032100Z 28006KT CAVOK 25/21 A2982=
201410032200 METAR MRLM 032200Z 11003KT CAVOK 27/22 A2983=
201410032300 METAR MRLM 032300Z 11008KT CAVOK 27/23 A2987=
201410040000 METAR MRLM 040000Z 08005KT CAVOK 28/22 A2989=
201410040100 METAR MRLM NIL=
201410040200 METAR MRLM NIL=
201410040300 METAR MRLM NIL=
201410040400 METAR MRLM NIL=
201410040500 METAR MRLM NIL=
201410040600 METAR MRLM NIL=
201410040700 METAR MRLM NIL=
201410040800 METAR MRLM NIL=
201410040900 METAR MRLM NIL=
201410041000 METAR MRLM NIL=
201410041100 METAR MRLM NIL=
201410041200 METAR MRLM 041200Z 25005KT CAVOK 23/21 A2986=
201410041300 METAR MRLM 041300Z 25003KT CAVOK 25/21 A2987=
201410041400 METAR MRLM 041400Z 00000KT CAVOK 28/22 A2990=
201410041500 METAR MRLM 041500Z 22003KT 9999 FEW030 BKN130 29/23 A2992=
201410041600 METAR MRLM 041600Z 12005KT 8000 DZ SCT020 SCT120 28/24 A2993=
201410041630 METAR MRLM 041630Z 14012KT 7000 RA OVC010 25/23 A2994=
201410041700 METAR MRLM 041700Z 20006KT 9999 -DZ BKN010 24/23 A2993=
201410041800 METAR MRLM 041800Z 21004KT 9999 SCT010 SCT240 26/23 A2989=
201410041900 METAR MRLM 041900Z 20006KT 9999 FEW020 BKN130 28/23 A2985=
201410042000 METAR MRLM 042000Z 26003KT 9999 FEW025 BKN130 29/23 A2982=
201410042100 METAR MRLM 042100Z 08003KT CAVOK 29/23 A2980=
201410042200 METAR MRLM 042200Z 10005KT CAVOK 28/23 A2980=
201410042300 METAR MRLM 042300Z 02003KT CAVOK 28/24 A2980=
201410050000 METAR MRLM 050000Z 00000KT CAVOK 25/24 A2982=
201410050100 METAR MRLM NIL=
201410050200 METAR MRLM NIL=
201410050300 METAR MRLM NIL=
201410050400 METAR MRLM NIL=
201410050500 METAR MRLM NIL=
201410050600 METAR MRLM NIL=
201410050700 METAR MRLM NIL=
201410050800 METAR MRLM NIL=
201410050900 METAR MRLM NIL=
201410051000 METAR MRLM NIL=
201410051100 METAR MRLM NIL=
201410051200 METAR MRLM 051200Z 28005KT CAVOK 23/21 A2982=
201410051300 METAR MRLM 051300Z 30002KT 9999 FEW015 BKN090 24/22 A2985=
201410051400 METAR MRLM 051400Z 01010KT 4000 RA OVC015 25/22 A2990=
201410051500 METAR MRLM 051500Z 04007KT 6000 RA FEW006 BKN010 24/23 A2991=
201410051600 METAR MRLM 051600Z 23005KT 9999 OVC010 26/24 A2991 RERA=
201410051700 METAR MRLM 051700Z 24003KT 9999 BKN090 SCT090 26/24 A2990=
201410051800 METAR MRLM 051800Z 16005KT 9999 BKN015 27/24 A2988=
201410051900 METAR MRLM 051900Z 14007KT 8000 DZ SCT022 SCT100 27/22 A2986=
201410052000 METAR MRLM 052000Z 24005KT 9999 FEW018 BKN090 27/23 A2981 REDZ=
201410052100 METAR MRLM 052100Z 26003KT 9999 SCT035 BKN080 28/23 A2977=
201410052200 METAR MRLM 052200Z 10003KT CAVOK 28/23 A2976=
201410052300 METAR MRLM 052300Z 01004KT CAVOK 27/23 A2978=
201410052354 METAR MRLM 060000Z 28003KT CAVOK 25/23 A2978=
201410060000 METAR MRLM 060000Z 28003KT CAVOK 25/23 A2978=
201410060100 METAR MRLM NIL=
201410060200 METAR MRLM NIL=
201410060300 METAR MRLM NIL=
201410060400 METAR MRLM NIL=
201410060500 METAR MRLM NIL=
201410060600 METAR MRLM NIL=
201410060700 METAR MRLM NIL=
201410060800 METAR MRLM NIL=
201410060900 METAR MRLM NIL=
201410061000 METAR MRLM NIL=
201410061100 METAR MRLM NIL=
201410061200 METAR MRLM 061200Z 26004KT 9999 FEW025 SCT080 SCT260 22/21 A2983=
201410061300 METAR MRLM 061300Z 25002KT CAVOK 23/22 A2985=
201410061400 METAR MRLM 061400Z 26003KT 9999 FEW015 BKN090 26/22 A2987=
201410061500 METAR MRLM 061500Z 05001KT 9999 SCT030 SCT090 28/22 A2988=
201410061600 METAR MRLM 061600Z 31005KT 9999 SCT032 SCT090 28/22 A2987=
201410061700 METAR MRLM 061700Z 03009KT 9999 OVC030 29/23 A2987=
201410061800 METAR MRLM 061800Z 33006KT 9999 DZ BKN025 28/24 A2985=
201410061900 METAR MRLM 061900Z 34005KT 9999 FEW025 BKN080 28/24 A2981 REDZ=
201410062000 METAR MRLM 062000Z 35005KT 9999 FEW025 BKN090 29/23 A2978=
201410062100 METAR MRLM 062100Z 31005KT CAVOK 28/24 A2973=
201410062200 METAR MRLM 062200Z 34006KT CAVOK 28/24 A2972=
201410062300 METAR MRLM NIL=
201410062353 METAR MRLM 070000Z 35006KT 9999 DZ FEW010 BKN080 27/25 A2979=
201410070000 METAR MRLM 070000Z 35006KT 9999 DZ FEW010 BKN080 27/25 A2979=
201410070100 METAR MRLM NIL=
201410070200 METAR MRLM NIL=
201410070300 METAR MRLM NIL=
201410070400 METAR MRLM NIL=
201410070500 METAR MRLM NIL=
201410070600 METAR MRLM NIL=
201410070700 METAR MRLM NIL=
201410070800 METAR MRLM NIL=
201410070900 METAR MRLM NIL=
201410071000 METAR MRLM NIL=
201410071100 METAR MRLM NIL=
201410071200 METAR MRLM 071200Z 23003KT CAVOK 23/22 A2983=
201410071300 METAR MRLM 071300Z 25002KT CAVOK 24/22 A2985=
201410071400 METAR MRLM 071400Z 00000KT CAVOK 26/23 A2988=
201410071500 METAR MRLM 071500Z 29004KT CAVOK 29/23 A2988=
201410071600 METAR MRLM 071600Z 33005KT 9999 FEW030 BKN250 30/23 A2987=
201410071700 METAR MRLM 071700Z 33003KT 9999 FEW030 BKN250 30/24 A2985=
201410071800 METAR MRLM 071800Z 03009KT CAVOK 29/25 A2982=
201410071900 METAR MRLM 071900Z 04010KT CAVOK 30/25 A2980=
201410072000 METAR MRLM 072000Z 02009KT 9999 FEW030 BKN250 30/25 A2977=
201410072100 METAR MRLM 072100Z 05008KT 9999 FEW020 BKN250 28/25 A2977=
201410072200 METAR MRLM 072200Z 07007KT 9999 BKN015 28/25 A2979=
201410072300 METAR MRLM 072300Z 10005KT 9999 BKN015 28/25 A2979=
201410080000 METAR MRLM 080000Z 12006KT 9999 BKN015 28/24 A2982=
201410080100 METAR MRLM NIL=
201410080200 METAR MRLM NIL=
201410080300 METAR MRLM NIL=
201410080400 METAR MRLM NIL=
201410080500 METAR MRLM NIL=
201410080600 METAR MRLM NIL=
201410080700 METAR MRLM NIL=
201410080800 METAR MRLM NIL=
201410080900 METAR MRLM NIL=
201410081000 METAR MRLM NIL=
201410081100 METAR MRLM NIL=
201410081200 METAR MRLM 081200Z 27003KT 9999 FEW007 BKN110 23/22 A2984=
201410081300 METAR MRLM 081300Z 26004KT 9999 FEW007 BKN110 24/23 A2985=
201410081400 METAR MRLM 081400Z 20003KT 9999 FEW010 BKN120 25/23 A2987=
201410081500 METAR MRLM 081500Z 35007KT CAVOK 29/22 A2988=
201410081600 METAR MRLM 081600Z 32006KT 9999 FEW030 BKN130 28/23 A2988=
201410081700 METAR MRLM 081700Z 30005KT 9999 FEW030 BKN130 29/24 A2984=
201410081800 METAR MRLM 081800Z 34008KT 9999 SCT030 BKN140 30/24 A2981=
201410081900 METAR MRLM 081900Z 02010KT 9999 SCT030 BKN130 29/24 A2979=
201410082000 METAR MRLM 082000Z 01009KT 9999 FEW030 BKN130 29/24 A2977=
201410082100 METAR MRLM 082100Z 35006KT 9999 FEW020 SCT130 SCT250 28/24 A2976=
201410082115 METAR MRLM 082115Z 36004KT 9999 DZ BKN015 28/24 A2976=
201410082200 METAR MRLM 082200Z 01006KT 9999 -DZ BKN015 28/24 A2976=
201410082300 METAR MRLM 082300Z 03004KT 9999 -DZ BKN015 SCT120 27/24 A2978=
201410090000 METAR MRLM 090000Z 00000KT 9999 BKN010 SCT120 26/25 A2980=
201410090100 METAR MRLM NIL=
201410090200 METAR MRLM NIL=
201410090300 METAR MRLM NIL=
201410090400 METAR MRLM NIL=
201410090500 METAR MRLM NIL=
201410090600 METAR MRLM NIL=
201410090700 METAR MRLM NIL=
201410090800 METAR MRLM NIL=
201410090900 METAR MRLM NIL=
201410091000 METAR MRLM NIL=
201410091100 METAR MRLM NIL=
201410091200 METAR MRLM 091200Z 23005KT CAVOK 23/23 A2981=
201410091300 METAR MRLM 091300Z 24004KT CAVOK 25/23 A2982=
201410091400 METAR MRLM 091400Z 06003KT CAVOK 28/24 A2983=
201410091500 METAR MRLM 091500Z 09003KT CAVOK 29/24 A2983=
201410091600 METAR MRLM 091600Z 07005KT 9999 FEW030 BKN140 29/24 A2984=
201410091700 METAR MRLM 091700Z 06005KT 9999 FEW030 BKN110 29/23 A2982=
201410091800 METAR MRLM 091800Z 08006KT 9999 FEW032 BKN110 30/24 A2980=
201410091900 METAR MRLM 091900Z 09006KT 9999 +DZ FEW018 SCT090 SCT120 28/24 A2977=
201410092000 METAR MRLM 092000Z 13006KT 9999 FEW025 BKN090 28/24 A2975 REDZ=
201410092100 METAR MRLM 092100Z 14006KT 9999 FEW025 BKN090 29/24 A2974=
201410092130 METAR MRLM 092130Z 11003KT 9999 +DZ FEW025 BKN090 28/23 A2974=
201410092200 METAR MRLM 092200Z 10003KT 9999 DZ FEW025 BKN090 28/24 A2975=
201410092300 METAR MRLM 092300Z 28003KT 9999 FEW010 BKN080 26/25 A2977 RERDZ0=
201410092354 METAR MRLM 100000Z 28004KT 9999 RA FEW010 BKN080 26/25 A2979 LTNG DST W=
201410100000 METAR MRLM 100000Z 28004KT 9999 RA FEW010 BKN080 26/25 A2979 LTNG DST W=
201410100100 METAR MRLM NIL=
201410100200 METAR MRLM NIL=
201410100300 METAR MRLM NIL=
201410100400 METAR MRLM NIL=
201410100500 METAR MRLM NIL=
201410100600 METAR MRLM NIL=
201410100700 METAR MRLM NIL=
201410100800 METAR MRLM NIL=
201410100900 METAR MRLM NIL=
201410101000 METAR MRLM NIL=
201410101100 METAR MRLM NIL=
201410101200 METAR MRLM 101200Z 27002KT CAVOK 24/23 A2982=
201410101300 METAR MRLM 101300Z 27002KT CAVOK 26/24 A2984=
201410101400 METAR MRLM 101400Z 33004KT CAVOK 29/24 A2985=
201410101500 METAR MRLM 101500Z 35004KT 9999 FEW030 BKN270 30/24 A2985=
201410101600 METAR MRLM 101600Z 04008KT 9999 FEW025 BKN270 30/25 A2985=
201410101700 METAR MRLM 101700Z 03009KT 9999 FEW025 BKN260 30/25 A2983=
201410101800 METAR MRLM 101800Z 02010KT 9999 BKN02025 30/25 A2981=
201410101900 METAR MRLM 101900Z 35008KT 9999 BKN025 29/24 A2977=
201410102000 METAR MRLM 102000Z 36009KT 9999 BKN025 29/24 A2977=
201410102100 METAR MRLM 102100Z 33005KT 9999 SCT020 SCT090 28/24 A2977=
201410102133 METAR MRLM 102133Z 33004KT 9999 RA OVC012 27/25 A2977 VIS 8KM QDT S=
201410102200 METAR MRLM 102200Z 27003KT 9999 +DZ BKN008 SCT090 27/25 A2977 RERA=
201410102300 METAR MRLM 102300Z 22004KT 9999 DZ SCT005 BKN090 25/24 A2978=
201410102355 METAR MRLM 110000Z 24003KT 9999 SCT010 BKN090 25/24 A2978 REDZ=
201410110000 METAR MRLM 110000Z 24003KT 9999 SCT010 BKN090 25/24 A2978 REDZ=
201410110100 METAR MRLM NIL=
201410110200 METAR MRLM NIL=
201410110300 METAR MRLM NIL=
201410110400 METAR MRLM NIL=
201410110500 METAR MRLM NIL=
201410110600 METAR MRLM NIL=
201410110700 METAR MRLM NIL=
201410110800 METAR MRLM NIL=
201410110900 METAR MRLM NIL=
201410111000 METAR MRLM NIL=
201410111100 METAR MRLM NIL=
201410111200 METAR MRLM 111200Z 25003KT 9999 FEW007 SCT110 SCT250 24/23 A2986=
201410111300 METAR MRLM 111300Z 00000KT 9999 FEW007 SCT120 SCT250 24/23 A2988=
201410111400 METAR MRLM 111400Z 22003KT 9999 FEW010 BKN250 26/24 A2989=
201410111500 METAR MRLM 111500Z 10003KT 9999 FEW020 BKN250 28/24 A2988=
201410111600 METAR MRLM 111600Z 09004KT 9999 FEW030 BKN250 29/24 A2987=
201410111700 METAR MRLM 111700Z 03007KT 9999 FEW020 BKN250 29/25 A2986=
201410111800 METAR MRLM 111800Z 03010KT 9999 SCT020 BKN250 30/25 A2983=
201410111900 METAR MRLM 111900Z 02009KT 9999 SCT020 SCT250 30/25 A2981=
201410112000 METAR MRLM 112000Z 02004KT 9999 SCT020 SCT250 28/24 A2980=
201410112100 METAR MRLM 112100Z 00000KT 9999 SCT020 BKN250 29/25 A2979=
201410112200 METAR MRLM 112200Z 08003KT 9999 SCT020 SCT250 28/24 A2977=
201410112300 METAR MRLM 112300Z 28003KT 9999 FEW015 BKN250 26/24 A2979=
201410120000 METAR MRLM 120000Z 28003KT 9999 FEW010 SCT120 SCT250 25/23 A2982=
201410120100 METAR MRLM NIL=
201410120200 METAR MRLM NIL=
201410120300 METAR MRLM NIL=
201410120400 METAR MRLM NIL=
201410120500 METAR MRLM NIL=
201410120600 METAR MRLM NIL=
201410120700 METAR MRLM NIL=
201410120800 METAR MRLM NIL=
201410120900 METAR MRLM NIL=
201410121000 METAR MRLM NIL=
201410121100 METAR MRLM NIL=
201410121200 METAR MRLM 121200Z 26004KT CAVOK 24/23 A2986=
201410121300 METAR MRLM 121300Z 27004KT CAVOK 26/23 A2986=
201410121400 METAR MRLM 121400Z 27003KT 9999 FEW025 SCT250 29/24 A2988=
201410121500 METAR MRLM 121500Z 33005KT 9999 FEW030 SCT250 30/23 A2987=
201410121600 METAR MRLM 121600Z 02008KT 9999 FEW030 SCT250 31/24 A2987=
201410121700 METAR MRLM 121700Z 03010KT 9999 FEW030 SCT250 30/25 A2986=
201410121800 METAR MRLM 121800Z 03010KT CAVOK 30/25 A2984=
201410121900 METAR MRLM 121900Z 02010KT 9999 FEW025 BKN250 30/25 A2980=
201410122000 METAR MRLM 122000Z 03006KT 9999 FEW020 BKN250 29/25 A2979=
201410122100 METAR MRLM 122100Z 03007KT 9999 FEW020 BKN250 29/25 A2977=
201410122200 METAR MRLM 122200Z 02006KT 9999 FEW020 BKN250 29/24 A2978=
201410122300 METAR MRLM 122300Z 04005KT 9999 SCT020 SCT250 28/24 A2981=
201410130000 METAR MRLM 130000Z 02005KT 9999 BKN015 28/25 A2982=
201410130100 METAR MRLM NIL=
201410130200 METAR MRLM NIL=
201410130300 METAR MRLM NIL=
201410130400 METAR MRLM NIL=
201410130500 METAR MRLM NIL=
201410130600 METAR MRLM NIL=
201410130700 METAR MRLM NIL=
201410130800 METAR MRLM NIL=
201410130900 METAR MRLM NIL=
201410131000 METAR MRLM NIL=
201410131100 METAR MRLM NIL=
201410131200 METAR MRLM 131200Z 26004KT CAVOK 24/23 A2983=
201410131300 METAR MRLM 131300Z 26003KT 9999 FEW035 BKN080 26/25 A2985=
201410131400 METAR MRLM 131400Z 32003KT 9999 FEW035 SCT080 27/24 A2986=
201410131500 METAR MRLM 131500Z 32009KT 9999 FEW030 SCT080 SCT140 30/24 A2986=
201410131600 METAR MRLM 131600Z 01009KT 9999 SCT025 SCT080 29/24 A2988=
201410131700 METAR MRLM NIL=
201410131800 METAR MRLM 131800Z 06012KT 8000 VCSH BKN015 27/24 A2985=
201410131900 METAR MRLM 131900Z 20003KT 9999 +DZ BKN010 26/24 A2984 RERA=
201410132000 METAR MRLM 132000Z 19003KT 9999 BKN020 28/24 A2981 REDZ=
201410132100 METAR MRLM 132100Z 23004KT 9999 SCT015 SCT090 27/24 A2979=
201410132200 METAR MRLM 132200Z 25003KT CAVOK 27/24 A2979=
201410132300 METAR MRLM 132300Z 27002KT CAVOK 26/24 A2981=
201410132355 METAR MRLM 140000Z 26001KT CAVOK 25/24 A2983=
201410140000 METAR MRLM 140000Z 26001KT CAVOK 25/24 A2983=
201410140100 METAR MRLM NIL=
201410140200 METAR MRLM NIL=
201410140300 METAR MRLM NIL=
201410140400 METAR MRLM NIL=
201410140500 METAR MRLM NIL=
201410140600 METAR MRLM NIL=
201410140700 METAR MRLM NIL=
201410140800 METAR MRLM NIL=
201410140900 METAR MRLM NIL=
201410141000 METAR MRLM NIL=
201410141100 METAR MRLM NIL=
201410141200 METAR MRLM 141200Z 30004KT 9999 DZ FEW005 BKN150 24/23 A2986=
201410141300 METAR MRLM 141300Z 31005KT 9999 DZ FEW010 SCT120 25/24 A2988=
201410141400 METAR MRLM 141400Z 32005KT 9999 FEW008 BKN140 25/23 A2989 REDZ=
201410141500 METAR MRLM 141500Z 21001KT 9999 +DZ BKN150 SCT260 26/24 A2989=
201410141600 METAR MRLM 141600Z 06006KT 9999 FEW020 BKN260 29/25 A2989 REDZ=
201410141700 METAR MRLM 141700Z 04008KT 9999 SCT028 SCT260 30/24 A2987=
201410141800 METAR MRLM 141800Z 04009KT 9999 FEW025 BKN260 30/25 A2984=
201410141900 METAR MRLM 141900Z 03008KT 9999 FEW020 BKN260 29/25 A2982=
201410142000 METAR MRLM 142000Z 03007KT 9999 SCT020 SCT140 28/24 A2980=
201410142100 METAR MRLM 142100Z 02006KT 9999 BKN018 28/24 A2980=
201410142200 METAR MRLM 142200Z 04003KT 9999 BKN018 28/24 A2981=
201410142300 METAR MRLM 142300Z 24003KT 9999 BKN015 SCT120 26/24 A2983=
201410142354 METAR MRLM 150000Z 24004KT 9999 FEW010 BKN110 25/23 A2984=
201410150000 METAR MRLM 150000Z 24004KT 9999 FEW010 BKN110 25/23 A2984=
201410150100 METAR MRLM NIL=
201410150200 METAR MRLM NIL=
201410150300 METAR MRLM NIL=
201410150400 METAR MRLM NIL=
201410150500 METAR MRLM NIL=
201410150600 METAR MRLM NIL=
201410150700 METAR MRLM NIL=
201410150800 METAR MRLM NIL=
201410150900 METAR MRLM NIL=
201410151000 METAR MRLM NIL=
201410151100 METAR MRLM NIL=
201410151200 METAR MRLM 151200Z 00000KT 9999 FEW007 BKN110 23/23 A2992=
201410151300 METAR MRLM 151300Z 00000KT 9999 FEW007 BKN110 24/23 A2994=
201410151400 METAR MRLM 151400Z 24002KT 9999 FEW007 BKN120 25/24 A2996=
201410151500 METAR MRLM 151500Z 00000KT 9999 FEW010 SCT130 SCT240 27/24 A2988=
201410151600 METAR MRLM 151600Z 08003KT 9999 FEW020 SCT140 SCT250 28/24 A2997=
201410151700 METAR MRLM 151700Z 06005KT 9999 SCT020 SCT140 29/24 A2994=
201410151800 METAR MRLM 151800Z 06005KT 9999 FEW020 SCT140 SCT250 29/24 A2991=
201410151900 METAR MRLM 151900Z 06006KT 9999 FEW030 BKN250 30/24 A2987=
201410152000 METAR MRLM 152000Z 02008KT 9999 FEW030 BKN250 30/24 A2983=
201410152100 METAR MRLM 152100Z 01008KT 9999 FEW030 BKN250 29/24 A2981=
201410152200 METAR MRLM 152200Z 36007KT CAVOK 28/24 A2983=
201410152300 METAR MRLM 152300Z 36007KT CAVOK 28/24 A2985=
201410160000 METAR MRLM 160000Z 01006KT CAVOK 27/24 A2988=
201410160100 METAR MRLM NIL=
201410160200 METAR MRLM NIL=
201410160300 METAR MRLM NIL=
201410160400 METAR MRLM NIL=
201410160500 METAR MRLM NIL=
201410160600 METAR MRLM NIL=
201410160700 METAR MRLM NIL=
201410160800 METAR MRLM NIL=
201410160900 METAR MRLM NIL=
201410161000 METAR MRLM NIL=
201410161100 METAR MRLM NIL=
201410161200 METAR MRLM 161200Z 24004KT CAVOK 24/23 A2993=
201410161300 METAR MRLM 161300Z 24003KT CAVOK 26/24 A2994=
201410161400 METAR MRLM 161400Z 00000KT 9999 FEW030 SCT140 30/24 A2995=
201410161500 METAR MRLM 161500Z 06005KT 9999 FEW030 BKN140 30/24 A2995=
201410161600 METAR MRLM 161600Z 08006KT 9999 FEW030 BKN140 29/24 A2995=
201410161700 METAR MRLM 161700Z 10006KT 9999 FEW030 SCT150 SCT260 30/24 A2992=
201410161800 METAR MRLM 161800Z 08007KT CAVOK 30/24 A2990=
201410161900 METAR MRLM 161900Z 09006KT CAVOK 30/24 A2986=
201410162000 METAR MRLM 162000Z 06006KT 9999 FEW030 BKN250 30/24 A2984=
201410162100 METAR MRLM 162100Z 06004KT 9999 FEW025 BKN250 29/24 A2983=
201410162200 METAR MRLM 162200Z 05004KT 9999 FEW020 BKN250 29/24 A2984=
201410162300 METAR MRLM 162300Z 00000KT 9999 FEW020 BKN130 28/24 A2986=
201410170000 METAR MRLM 170000Z 00000KT 9999 SCT010 BKN120 27/25 A2987=
201410170100 METAR MRLM NIL=
201410170200 METAR MRLM NIL=
201410170300 METAR MRLM NIL=
201410170400 METAR MRLM NIL=
201410170500 METAR MRLM NIL=
201410170600 METAR MRLM NIL=
201410170700 METAR MRLM NIL=
201410170800 METAR MRLM NIL=
201410170900 METAR MRLM NIL=
201410171000 METAR MRLM NIL=
201410171100 METAR MRLM NIL=
201410171200 METAR MRLM 171200Z 28003KT 9999 +DZ FEW005 BKN090 25/25 A2991=
201410171300 METAR MRLM 171300Z 30004KT 9999 FEW007 BKN090 26/24 A2993 REDZ=
201410171400 METAR MRLM 171400Z 29005KT CAVOK 27/24 A2993=
201410171500 METAR MRLM 171500Z 32003KT 9999 FEW018 SCT150 SCT260 28/25 A2994=
201410171600 METAR MRLM 171600Z 04004KT 9999 SCT030 BKN260 31/24 A2994=
201410171700 METAR MRLM 1700Z 05007KT 9999 FEW028 BKN260 30/24 A2991=
201410171708 METAR MRLM 1700Z 05007KT 9999 FEW028 BKN260 30/24 A2991=
201410171800 METAR MRLM 171800Z 04010KT 9999 FEW025 SCT150 SCT260 30/25 A2989=
201410171900 METAR MRLM 171900Z 02009KT 9999 VCTS FEW010CB FEW025 SCT150 30/24 A2985=
201410172000 METAR MRLM 172000Z 03007KT 9999 SCT025 SCT260 30/25 A2983 RETS=
201410172100 METAR MRLM 172100Z 01008KT 9999 BKN025 29/24 A2984=
201410172200 METAR MRLM 172200Z 04004KT 9999 SCT025 SCT270 28/24 A2984=
201410172300 METAR MRLM 172300Z 21002KT 9999 SCT025 SCT090 27/24 A2987=
201410172354 METAR MRLM 172354Z 22003KT 9999 FEW015 SCT090 26/24 A2987=
201410172356 METAR MRLM 180000Z 22003KT 9999 FEW015 SCT090 26/24 A2987=
201410180000 METAR MRLM 180000Z 22003KT 9999 FEW015 SCT090 26/24 A2987=
201410180100 METAR MRLM NIL=
201410180200 METAR MRLM NIL=
201410180300 METAR MRLM NIL=
201410180400 METAR MRLM NIL=
201410180500 METAR MRLM NIL=
201410180600 METAR MRLM NIL=
201410180700 METAR MRLM NIL=
201410180800 METAR MRLM NIL=
201410180900 METAR MRLM NIL=
201410181000 METAR MRLM NIL=
201410181100 METAR MRLM NIL=
201410181200 METAR MRLM 181200Z 26004KT 9999 BKN020 24/23 A2989=
201410181300 METAR MRLM 181300Z 26003KT 9999 BKN020 25/24 A2990=
201410181400 METAR MRLM 181400Z 32003KT CAVOK 29/24 A2992=
201410181500 METAR MRLM 181500Z 33006KT 9999 FEW030 SCT150 SCT270 30/24 A2993=
201410181600 METAR MRLM 181600Z 36007KT 9999 SCT030 SCT150 30/23 A2993=
201410181700 METAR MRLM 181700Z 02009KT 9999 DZ FEW020 BKN140 28/25 A2990=
201410181800 METAR MRLM 181800Z 03007KT 9999 FEW015 BKN140 28/25 A2987 REDZ=
201410181900 METAR MRLM 181900Z 04006KT 9999 SCT020 SCT250 29/25 A2984=
201410182000 METAR MRLM 182000Z 04006KT 9999 SCT020 SCT250 29/25 A2981=
201410182100 METAR MRLM 182100Z 03004KT 9999 BKN020 28/24 A2981=
201410182200 METAR MRLM 182200Z 30004KT 9999 DZ VCSH OVC015TCU 27/24 A2983=
201410182300 METAR MRLM 182300Z 26005KT 9999 OVC010 25/24 A2985=
201410182354 METAR MRLM 190000Z 23004KT 9999 BKN010 24/23 A2986=
201410190000 METAR MRLM 190000Z 23004KT 9999 BKN010 24/23 A2986=
201410190100 METAR MRLM NIL=
201410190200 METAR MRLM NIL=
201410190300 METAR MRLM NIL=
201410190400 METAR MRLM NIL=
201410190500 METAR MRLM NIL=
201410190600 METAR MRLM NIL=
201410190700 METAR MRLM NIL=
201410190800 METAR MRLM NIL=
201410190900 METAR MRLM NIL=
201410191000 METAR MRLM NIL=
201410191100 METAR MRLM NIL=
201410191200 METAR MRLM 191200Z 26004KT CAVOK 23/23 A2988=
201410191300 METAR MRLM 191300Z 26004KT CAVOK 25/23 A2989=
201410191400 METAR MRLM 191400Z 31004KT CAVOK 29/23 A2990=
201410191500 METAR MRLM 191500Z 34005KT 9999 FEW040 BKN260 31/23 A2991=
201410191600 METAR MRLM 191600Z 03009KT 9999 FEW030 BKN260 31/24 A2991=
201410191700 METAR MRLM 191700Z 03009KT 9999 SCT030 BKN250 31/24 A2988=
201410191800 METAR MRLM 191800Z 02011KT 9999 FEW020 BKN250 29/25 A2986=
201410191900 METAR MRLM 191900Z 04009KT 9999 FEW020 BKN250 29/25 A2982=
201410192000 METAR MRLM 192000Z 06009KT 9999 SCT020 BKN250 28/24 A2980=
201410192100 METAR MRLM 192100Z 06003KT 9999 BKN020 28/24 A2979=
201410192200 METAR MRLM 192200Z 06002KT 9999 BKN020 27/24 A2982=
201410192300 METAR MRLM 192300Z 00000KT 9999 BKN010 27/24 A2983=
201410200000 METAR MRLM 200000Z 21002KT 9999 BKN007 26/24 A2985=
201410200100 METAR MRLM NIL=
201410200200 METAR MRLM NIL=
201410200300 METAR MRLM NIL=
201410200600 METAR MRLM NIL=
201410200700 METAR MRLM NIL=
201410200800 METAR MRLM NIL=
201410200900 METAR MRLM NIL=
201410201000 METAR MRLM NIL=
201410201100 METAR MRLM NIL=
201410201200 METAR MRLM 201200Z 25003KT CAVOK 24/23 A2987=
201410201300 METAR MRLM 201300Z 26004KT CAVOK 24/23 A2988=
201410201400 METAR MRLM 201400Z 26003KT CAVOK 25/23 A2990=
201410201500 METAR MRLM 201500Z 00000KT CAVOK 26/23 A2991=
201410201600 METAR MRLM 201600Z 29003KT CAVOK 27/23 A2991=
201410201700 METAR MRLM 201700Z 30003KT CAVOK 28/23 A2988=
201410201800 METAR MRLM 201800Z 31003KT 9999 FEW030 BKN250 29/23 A2985=
201410201900 METAR MRLM 201900Z 36004KT CAVOK 28/24 A2981=
201410202000 METAR MRLM 202000Z 32004KT 9999 FEW025 BKN250 28/23 A2977=
201410202100 METAR MRLM 202100Z 02005KT 9999 FEW025 BKN250 29/24 A2976=
201410202200 METAR MRLM 202200Z 04004KT 9999 FEW020 SCT130 SCT250 28/24 A2977=
201410202300 METAR MRLM 202300Z 05004KT 9999 FEW020 BKN250 27/23 A2978=
201410210000 METAR MRLM 210000Z 07002KT 9999 FEW010 BKN120 26/24 A2981=
201410210100 METAR MRLM NIL=
201410210200 METAR MRLM NIL=
201410210300 METAR MRLM NIL=
201410210400 METAR MRLM NIL=
201410210500 METAR MRLM NIL=
201410210600 METAR MRLM NIL=
201410210700 METAR MRLM NIL=
201410210800 METAR MRLM NIL=
201410210900 METAR MRLM NIL=
201410211000 METAR MRLM NIL=
201410211100 METAR MRLM NIL=
201410211200 METAR MRLM 21124 23004KT CAVOK 24/23 A2984=
201410211222 METAR MRLM 211222Z 21124 23004KT CAVOK 24/23 A2984=
201410211300 METAR MRLM 211300Z 24003KT CAVOK 25/24 A2986=
201410211400 METAR MRLM 211400Z 30004KT CAVOK 28/24 A2987=
201410211500 METAR MRLM 211500Z 10005KT 9999 FEW025 SCT130 SCT270 29/24 A2988=
201410211600 METAR MRLM 211600Z 10004KT 9999 SCT032 SCT260 30/24 A2987=
201410211700 METAR MRLM 211700Z 06007KT 9999 FEW030 BKN260 30/24 A2984=
201410211800 METAR MRLM 211800Z 06007KT 9999 FEW032 BKN260 30/24 A2981=
201410211900 METAR MRLM 211900Z 07007KT 9999 FEW035 BKN260 30/24 A2979=
201410212000 METAR MRLM 212000Z 04005KT 9999 FEW035 BKN260 30/24 A2976=
201410212100 METAR MRLM 212100Z 06004KT 9999 FEW028 SCT080 SCT260 29/24 A2975=
201410212200 METAR MRLM 212200Z 06004KT 9999 SCT025 SCT080 28/24 A2976=
201410212300 METAR MRLM 212300Z 25002KT 9999 FEW015 BKN080 28/24 A2976=
201410212353 METAR MRLM 2200Z 26002KT 9999 FEW015 BKN080 27/25 A2976=
201410220000 METAR MRLM NIL=
201410220100 METAR MRLM NIL=
201410220200 METAR MRLM NIL=
201410220300 METAR MRLM NIL=
201410220400 METAR MRLM NIL=
201410220500 METAR MRLM NIL=
201410220600 METAR MRLM NIL=
201410220700 METAR MRLM NIL=
201410220800 METAR MRLM NIL=
201410220900 METAR MRLM NIL=
201410221000 METAR MRLM NIL=
201410221100 METAR MRLM NIL=
201410221200 METAR MRLM 221200Z 26004KT CAVOK 25/24 A2985=
201410221300 METAR MRLM 221300Z 27003KT CAVOK 27/24 A27/24 A2987=
201410221400 METAR MRLM 221400Z 08003KT 9999 FEW025 BKN270 30/25 A2989=
201410221500 METAR MRLM 221500Z 08004KT 9999 FEW025 BKN270 29/25 A2990=
201410221600 METAR MRLM 221600Z 09005KT 9999 FEW025 BKN270 29/24 A2988=
201410221700 METAR MRLM 221700Z 06006KT 9999 FEW025 BKN270 30/25 A2986=
201410221800 METAR MRLM 221800Z 05005KT 9999 FEW025 BKN270 30/25 A2984=
201410221900 METAR MRLM 221900Z 06006KT 9999 FEW025 BKN270 30/25 A2980=
201410222000 METAR MRLM 222000Z 05006KT 9999 FEW030 BKN270 30/24 A2978=
201410222100 METAR MRLM 222100Z 05005KT 9999 FEW025 BKN270 29/24 A2978=
201410222200 METAR MRLM 222200Z 04002KT 9999 FEW025 BKN270 29/24 A2978=
201410222300 METAR MRLM 222300Z 00000KT CAVOK 28/24 A2977=
201410222354 METAR MRLM 2300Z 27002KT CAVOK 26/24 A2979=
201410230000 METAR MRLM NIL=
201410230100 METAR MRLM NIL=
201410230200 METAR MRLM NIL=
201410230300 METAR MRLM NIL=
201410230400 METAR MRLM NIL=
201410230500 METAR MRLM NIL=
201410230600 METAR MRLM NIL=
201410230700 METAR MRLM NIL=
201410230800 METAR MRLM NIL=
201410230900 METAR MRLM NIL=
201410231000 METAR MRLM NIL=
201410231100 METAR MRLM NIL=
201410231200 METAR MRLM 231200Z 25004KT CAVOK 25/24 A2985=
201410231300 METAR MRLM 231300Z 23003KT CAVOK 27/25 A2986=
201410231400 METAR MRLM 231400Z 34007KT 9999 FEW025 30/25 A2988=
201410231500 METAR MRLM 231500Z 33005KT 9999 FEW035 SCT260 31/24 A2988=
201410231600 METAR MRLM 231600Z 02008KT 9999 FEW030 31/25 A2985=
201410231700 METAR MRLM 231700Z 03009KT 9999 FEW035 31/24 A2984=
201410231800 METAR MRLM 231800Z 05007KT CAVOK 31/25 A2982=
201410231900 METAR MRLM 231900Z 05008KT 9999 FEW030 31/25 A2980=
201410232000 METAR MRLM 232000Z 05007KT 9999 SCT030 31/25 A2978=
201410232100 METAR MRLM 232100Z 05006KT 9999 BKN025 30/26 A2976=
201410232200 METAR MRLM 232200Z 06004KT 9999 BKN025 30/25 A2977=
201410232300 METAR MRLM 232300Z 06004KT 9999 SCT020 29/25 A2978=
201410240000 METAR MRLM 240000Z 00000KT 9999 BKN015 28/24 A2982=
201410240100 METAR MRLM NIL=
201410240200 METAR MRLM NIL=
201410240300 METAR MRLM NIL=
201410240400 METAR MRLM NIL=
201410240500 METAR MRLM NIL=
201410240600 METAR MRLM NIL=
201410240700 METAR MRLM NIL=
201410240800 METAR MRLM NIL=
201410240900 METAR MRLM NIL=
201410241000 METAR MRLM NIL=
201410241100 METAR MRLM NIL=
201410241200 METAR MRLM 241200Z 24003KT 9999 FEW010 SCT130 BKN250 25/24 A2987=
201410241300 METAR MRLM 241300Z 26003KT CAVOK 25/24 A2987=
201410241400 METAR MRLM 241400Z 24003KT 9999 FEW010 BKN240 27/25 A2989=
201410241500 METAR MRLM 241500Z 00000KT 9999 FEW020 BKN240 30/25 A2990=
201410241600 METAR MRLM 241600Z 08003KT 9999 FEW030 BKN250 30/25 A2989=
201410241700 METAR MRLM 241700Z 10005KT 9999 FEW025 BKN260 31/26 A2986=
201410241800 METAR MRLM 241800Z 10005KT 9999 FEW025 BKN260 31/26 A2986=
201410241900 METAR MRLM 241900Z 11007KT 9999 FEW030 BKN260 31/26 A2981=
201410242000 METAR MRLM 242000Z 11007KT CAVOK 31/25 A2979=
201410242100 METAR MRLM 242100Z 13009KT 9999 FEW030 BKN260 31/26 A2978=
201410242200 METAR MRLM 242200Z 13009KT 9999 FEW030 BKN250 30/25 A2978=
201410242300 METAR MRLM NIL=
201410250000 METAR MRLM 250000Z 14008KT 9999 SCT020 BKN240 29/25 A2981=
201410250100 METAR MRLM NIL=
201410250200 METAR MRLM NIL=
201410250300 METAR MRLM NIL=
201410250400 METAR MRLM NIL=
201410250500 METAR MRLM NIL=
201410250600 METAR MRLM NIL=
201410250700 METAR MRLM NIL=
201410250800 METAR MRLM NIL=
201410250900 METAR MRLM NIL=
201410251000 METAR MRLM NIL=
201410251100 METAR MRLM NIL=
201410251200 METAR MRLM 251200Z 25003KT CAVOK 26/25 A2988=
201410251300 METAR MRLM 251300Z 26003KT CAVOK 26/24 A2989=
201410251400 METAR MRLM 251400Z 24002KT 9999 FEW015 SCT300 28/25 A2989=
201410251500 METAR MRLM 251500Z 36004KT 9999 FEW035 BKN300 32/24 A2990=
201410251600 METAR MRLM 251600Z 04008KT 9999 FEW035 SCT300 32/25 A2989=
201410251700 METAR MRLM 251700Z 06008KT 9999 FEW030 SCT300 31/25 A2988=
201410251800 METAR MRLM 251800Z 07006KT 9999 FEW028 SCT300 31/25 A2986=
201410251900 METAR MRLM 251900Z 06007KT 9999 SCT028 SCT280 31/25 A2983=
201410252000 METAR MRLM 252000Z 07008KT 9999 SCT028 SCT300 31/25 A2980=
201410252100 METAR MRLM 252100Z 10005KT 9999 SCT030 SCT280 31/25 A2979=
201410252200 METAR MRLM 252200Z 10004KT 9999 SCT030 SCT280 30/25 A2980=
201410252300 METAR MRLM NIL=
201410252355 METAR MRLM 260000Z 20003KT 9999 FEW015 BKN280 27/24 A2983=
201410260000 METAR MRLM 260000Z 20003KT 9999 FEW015 BKN280 27/24 A2983=
201410260100 METAR MRLM NIL=
201410260200 METAR MRLM NIL=
201410260300 METAR MRLM NIL=
201410260400 METAR MRLM NIL=
201410260500 METAR MRLM NIL=
201410260600 METAR MRLM NIL=
201410260700 METAR MRLM NIL=
201410260800 METAR MRLM NIL=
201410260900 METAR MRLM NIL=
201410261000 METAR MRLM NIL=
201410261100 METAR MRLM NIL=
201410261200 METAR MRLM 261200Z 26004KT 8000 RA BKN015 SCT090 24/23 A2987=
201410261300 METAR MRLM 261300Z 29005KT 9999 DZ SCT015 SCT090 24/23 A2988 RERA=
201410261400 METAR MRLM 261400Z 30007KT 9999 SCT015 SCT090 26/23 A2989 REDZ=
201410261500 METAR MRLM 261500Z 32007KT 9999 SCT025 SCT090 28/23 A2990=
201410261600 METAR MRLM 261600Z 33008KT 9999 SCT032 SCT270 29/23 A2989=
201410261700 METAR MRLM 261700Z 34015KT 9999 BKN035 30/23 A2987=
201410261800 METAR MRLM 261800Z 36015KT 9999 SCT015 SCT120 28/25 A2986 RERA=
201410261900 METAR MRLM 261900Z 35015KT 9999 SCT025 SCT100 30/23 A2984=
201410262000 METAR MRLM 262000Z 31010KT 9999 OVC015 26/22 A2983=
201410262100 METAR MRLM 262100Z 26008KT 8000 VCSH OVC010 25/23 A2983=
201410262200 METAR MRLM 262200Z 28006KT 8000 DZ VCSH OVC010 24/22 A2984=
201410262245 METAR MRLM 262245Z 30007KT 1000 +RA OVC006 24/23 A2986=
201410262300 METAR MRLM 262300Z 29008KT 4000 RA OVC005 23/23 A2986=
201410262356 METAR MRLM 2700Z 26007KT 9999 OVC010 23/22 A2987 RERA=
201410270000 METAR MRLM NIL=
201410270100 METAR MRLM NIL=
201410270200 METAR MRLM NIL=
201410270300 METAR MRLM NIL=
201410270400 METAR MRLM NIL=
201410270500 METAR MRLM NIL=
201410270600 METAR MRLM NIL=
201410270700 METAR MRLM NIL=
201410270800 METAR MRLM NIL=
201410270900 METAR MRLM NIL=
201410271000 METAR MRLM NIL=
201410271100 METAR MRLM NIL=
201410271200 METAR MRLM NIL=
201410271300 METAR MRLM 271300Z 27004KT CAVOK 27/23 A2988=
201410271400 METAR MRLM 271400Z 32005KT CAVOK 30/22 A2990=
201410271500 METAR MRLM 271500Z 32004KT CAVOK 30/22 A2991=
201410271600 METAR MRLM 271600Z 33007KT 9999 FEW035 BKN100 30/22 A2991=
201410271700 METAR MRLM 271700Z 34008KT 9999 FEW040 BKN080 30/22 A2990=
201410271800 METAR MRLM 271800Z 01008KT 9999 SCT035 BKN090 31/23 A2987=
201410271900 METAR MRLM 271900Z 01008KT 9999 BKN035 30/23 A2985=
201410272000 METAR MRLM 272000Z 03012KT 9999 BKN030 30/23 A2983=
201410272100 METAR MRLM 272100Z 02011KT 9999 FEW015 SCT030 SCT070 29/23 A2982=
201410272200 METAR MRLM NIL=
201410272300 METAR MRLM NIL=
201410280000 METAR MRLM NIL=
201410280100 METAR MRLM NIL=
201410280200 METAR MRLM NIL=
201410280300 METAR MRLM NIL=
201410280400 METAR MRLM NIL=
201410280600 METAR MRLM NIL=
201410280700 METAR MRLM NIL=
201410280800 METAR MRLM NIL=
201410280900 METAR MRLM NIL=
201410281000 METAR MRLM NIL=
201410281100 METAR MRLM NIL=
201410281200 METAR MRLM NIL=
201410281300 METAR MRLM 281300Z 23004KT CAVOK 25/24 A2992=
201410281400 METAR MRLM 281400Z 22004KT CAVOK 28/24 A2993=
201410281500 METAR MRLM 281500Z 27002KT 9999 DZ SCT070 BKN120 29/25 A2993=
201410281600 METAR MRLM 281600Z 08001KT 9999 FEW025 BKN110 30/24 A2992 REDZ=
201410281700 METAR MRLM 281700Z 10004KT 9999 FEW035 SCT130 SCT270 30/23 A2990=
201410281800 METAR MRLM 281800Z 08006KT 9999 FEW040 SCT270 30/22 A2988=
201410281900 METAR MRLM 281900Z 05006KT 9999 FEW035 SCT270 29/23 A2985=
201410282000 METAR MRLM 282000Z 06006KT 9999 FEW035 SCT270 30/23 A2983=
201410282100 METAR MRLM 282100Z 05006KT 9999 FEW030 SCT270 30/24 A2981=
201410282200 METAR MRLM NIL=
201410282300 METAR MRLM NIL=
201410290000 METAR MRLM NIL=
201410290100 METAR MRLM NIL=
201410290200 METAR MRLM NIL=
201410290300 METAR MRLM NIL=
201410290400 METAR MRLM NIL=
201410290500 METAR MRLM NIL=
201410290600 METAR MRLM NIL=
201410290700 METAR MRLM NIL=
201410290800 METAR MRLM NIL=
201410290900 METAR MRLM NIL=
201410291000 METAR MRLM NIL=
201410291100 METAR MRLM NIL=
201410291200 METAR MRLM NIL=
201410291300 METAR MRLM 291300Z 26003KT CAVOK 27/24 A2990=
201410291400 METAR MRLM 291400Z 26004KT CAVOK 28/24 A2991=
201410291500 METAR MRLM NIL=
201410291600 METAR MRLM 291600Z 09004KT 9999 FEW035 30/23 A2991=
201410291700 METAR MRLM 291700Z 06005KT 9999 FEW035 30/23 A2989=
201410291800 METAR MRLM 291800Z 08007KT 9999 FEW035 30/23 A2986=
201410291900 METAR MRLM 291900Z 08006KT 9999 FEW035 30/24 A2984=
201410292000 METAR MRLM 292000Z 09006KT 9999 FEW032 SCT110 30/24 A2981=
201410292100 METAR MRLM 292100Z 09005KT 9999 FEW035 SCT090 30/24 A2980=
201410292200 METAR MRLM NIL=
201410292300 METAR MRLM NIL=
201410300000 METAR MRLM NIL=
201410300100 METAR MRLM NIL=
201410300200 METAR MRLM NIL=
201410300300 METAR MRLM NIL=
201410300400 METAR MRLM NIL=
201410300500 METAR MRLM NIL=
201410300600 METAR MRLM NIL=
201410300700 METAR MRLM NIL=
201410300800 METAR MRLM NIL=
201410300900 METAR MRLM NIL=
201410301000 METAR MRLM NIL=
201410301100 METAR MRLM NIL=
201410301200 METAR MRLM NIL=
201410301300 METAR MRLM 301300Z 30004KT 8000 DZ VCSH OVC015 25/24 A2985=
201410301400 METAR MRLM 301400Z 28004KT 9999 DZ SCT015 SCT090 25/24 A2987 RERA=
201410301500 METAR MRLM 301500Z 32006KT 9999 BKN007 26/25 A2989 REDZ=
201410301600 METAR MRLM 301600Z 29006KT 9999 4000N +DZ VCSH SCT005 SCT020 26/24 A2988=
201410301700 METAR MRLM 301700Z 28003KT 9999 +DZ SCT006 BKN020 25/24 A2986=
201410301800 METAR MRLM 301800Z 31002KT 9999 DZ SCT010 SCT025 26/24 A2983=
201410301900 METAR MRLM 301900Z 11004KT 9999 +DZ SCT012 SCT025 26/24 A2981=
201410302000 METAR MRLM 302000Z 29002KT 9999 FEW015 BKN090 27/24 A2978 REDZ=
201410302100 METAR MRLM 302100Z 26002KT 9999 FEW015 SCT090 27/24 A2979=
201410302200 METAR MRLM NIL=
201410302300 METAR MRLM NIL=
201410310000 METAR MRLM NIL=
201410310100 METAR MRLM NIL=
201410310200 METAR MRLM NIL=
201410310300 METAR MRLM NIL=
201410310400 METAR MRLM NIL=
201410310500 METAR MRLM NIL=
201410310600 METAR MRLM NIL=
201410310700 METAR MRLM NIL=
201410310800 METAR MRLM NIL=
201410310900 METAR MRLM NIL=
201410311000 METAR MRLM NIL=
201410311100 METAR MRLM NIL=
201410311200 METAR MRLM 311200Z 26005KT CAVOK 23/23 A2985=
201410311300 METAR MRLM 311300Z 26004KT CAVOK 24/23 A2985=
201410311400 METAR MRLM 311400Z 00000KT CAVOK 26/24 A2987=
201410311500 METAR MRLM 311500Z 33005KT CAVOK 28/22 A2989=
201410311600 METAR MRLM 311600Z 34005KT 9999 FEW030 BKN250 29/23 A2988=
201410311700 METAR MRLM 311700Z 01008KT 9999 FEW030 BKN250 30/24 A2986=
201410311800 METAR MRLM 311800Z 02007KT 9999 FEW030 BKN250 30/23 A2983=
201410311900 METAR MRLM 311900Z 02008KT 9999 SCT025 BKN250 29/24 A2980=
201410312000 METAR MRLM 312000Z 03005KT 9999 SCT020 BKN250 29/24 A2978=
201410312100 METAR MRLM 312100Z 05003KT 9999 SCT020 BKN240 29/24 A2978=
201410312200 METAR MRLM 312200Z 06004KT 9999 SCT020 SCT240 28/24 A2979=
201410312300 METAR MRLM 312300Z 10005KT 9999 RA BKN015 28/25 A2981=
201411010000 METAR MRLM 010000Z 00000KT 9999 BKN010 26/24 A2984 RERA=
201411010100 METAR MRLM NIL=
201411010200 METAR MRLM NIL=
201411010300 METAR MRLM NIL=
201411010400 METAR MRLM NIL=
201411010500 METAR MRLM NIL=
201411010600 METAR MRLM NIL=
201411010700 METAR MRLM NIL=
201411010800 METAR MRLM NIL=
201411010900 METAR MRLM NIL=
201411011000 METAR MRLM NIL=
201411011100 METAR MRLM NIL=
201411011200 METAR MRLM 011200Z 28004KT 9999 FEW007 BKN130 23/22 A2991=
201411011300 METAR MRLM 011300Z 32006KT 9999 SCT010 BKN130 24/22 A2993=
201411011400 METAR MRLM 011400Z 32006KT 9999 FEW020 BKN130 27/22 A2995=
201411011500 METAR MRLM 011500Z 32006KT 9999 FEW025 SCT130 SCT250 28/23 A2995=
201411011600 METAR MRLM 011600Z 33006KT 9999 SCT030 SCT250 29/23 A2993=
201411011700 METAR MRLM 011700Z 36010KT 9999 FEW030 SCT140 SCT250 29/23 A2991=
201411011800 METAR MRLM 011800Z 36008KT 9999 FEW030 BKN250 29/23 A2988=
201411011900 METAR MRLM 011900Z 01009KT 9999 FEW030 BKN250 29/23 A2986=
201411012000 METAR MRLM 012000Z 35009KT 9999 SCT030 SCT250 29/23 A2984=
201411012100 METAR MRLM 012100Z 33008KT 9999 BKN020 28/24 A2984=
201411012200 METAR MRLM 012200Z 33006KT 8000 3000N RA FEW006 OVC010 28/24 A2984=
201411012220 METAR MRLM 012220Z 03018KT 2000 +RA OVC007 25/24 A2984=
201411012300 METAR MRLM 012300Z 32005KT 8000 RA OVC007 24/23 A2988=
201411020000 METAR MRLM 020000Z 27006KT 8000 DZVCSH OVC007 24/23 A2989=
201411020100 METAR MRLM NIL=
201411020200 METAR MRLM NIL=
201411020300 METAR MRLM NIL=
201411020400 METAR MRLM NIL=
201411020500 METAR MRLM NIL=
201411020600 METAR MRLM NIL=
201411020700 METAR MRLM NIL=
201411020800 METAR MRLM NIL=
201411020900 METAR MRLM NIL=
201411021000 METAR MRLM NIL=
201411021100 METAR MRLM NIL=
201411021200 METAR MRLM 021200Z 25003KT 9999 OVC020 24/23 A2992=
201411021300 METAR MRLM 021300Z 36002KT 9999 DZ FEW010 BKN020 24/23 A2994=
201411021400 METAR MRLM 021400Z 9999 +DZ FEW005 BKN020 24/23 A2995=
201411021500 METAR MRLM 021500Z 31007KT 9999 FEW007 BKN025 25/23 A2995=
201411021600 METAR MRLM 021600Z 31005KT 9999 +DZ FEW010 BKN070 26/24 A2994=
201411021700 METAR MRLM 021700Z 31004KT 9999 FEW013 SCT070 26/24 A2991 REDZ=
201411021800 METAR MRLM 021800Z 32006KT 9999 DZ SCT013 SCT070 27/24 A2989=
201411021900 METAR MRLM 021900Z 33006KT 9999 SCT018 SCT090 27/23 A2987 REDZ=
201411022000 METAR MRLM 022000Z 3508KT 9999 BKN015 27/24 A2986=
201411022100 METAR MRLM 022100Z 33007KT 9999 BKN015 27/23 A2985=
201411022200 METAR MRLM 022200Z 31005KT 9999 5000NW VCSH SCT012 SCT120 26/24 A2985=
201411022256 METAR MRLM 022256Z 33003KT 9999 6KM NW DZ VCSH SCT010 SCT020 25/23 A2986=
201411022300 METAR MRLM 33003KT 9999 6KM NW DZ VCSH SCT010 SCT020 25/23 A2986=
201411022353 METAR MRLM 040000Z 30004KT 9999 DZ FEW010 SCT023 25/23 A2987=
201411030000 METAR MRLM NIL=
201411030100 METAR MRLM NIL=
201411030200 METAR MRLM NIL=
201411030300 METAR MRLM NIL=
201411030400 METAR MRLM 0400Z 26005KT 9999 VCSH BKN010 25/24 A2985 RERA=
201411030500 METAR MRLM NIL=
201411030600 METAR MRLM NIL=
201411030700 METAR MRLM NIL=
201411030800 METAR MRLM NIL=
201411030900 METAR MRLM NIL=
201411031000 METAR MRLM NIL=
201411031100 METAR MRLM NIL=
201411031200 METAR MRLM 031200Z 24006KT 7000 TSRA FEW005 FEWCB010 SCT015 23/23 A2990=
201411031300 METAR MRLM 031300Z 24007KT 7000 RA SCT005 SCT015 23/23 A2991 RETS=
201411031400 METAR MRLM NIL=
201411031500 METAR MRLM 031500Z 16003KT 6000 TSRA FEWCB010 SCT015 SCT090 24/23 A2994=
201411031600 METAR MRLM 031600Z 28002KT 7000 RA SCT020 SCT100 24/23 A2993 RETS=
201411031700 METAR MRLM 031700Z 28004KT 8000 +DZ VCTS FEW010CB BKN020 24/24 A2991=
201411031800 METAR MRLM 031800Z 25004KT 9999 +DZ BKN015 SCT100 25/24 A2988 RETS=
201411031900 METAR MRLM 031900Z 21003KT 6000 RA BKN015 SCT090 24/24 A2987=
201411032000 METAR MRLM 032000Z 22005KT 9999 DZ FEW012 SCT020 24/24 A2984 RERA=
201411032100 METAR MRLM 032100Z 23005KT 9999 SCT012 SCT140 25/24 A2982 REDZ=
201411032200 METAR MRLM 032200Z 22003KT 9999 SCT012 SCT140 26/24 A2983=
201411032300 METAR MRLM 032300Z 24005KT 9999 SCT010 SCT140 25/24 A2984=
201411032357 METAR MRLM 0400Z 26005KT 9999 VCSH BKN010 25/24 A2985 RERA=
201411040000 METAR MRLM NIL=
201411040100 METAR MRLM NIL=
201411040200 METAR MRLM NIL=
201411040300 METAR MRLM NIL=
201411040400 METAR MRLM NIL=
201411040500 METAR MRLM NIL=
201411040600 METAR MRLM NIL=
201411040700 METAR MRLM NIL=
201411040800 METAR MRLM NIL=
201411040900 METAR MRLM NIL=
201411041000 METAR MRLM NIL=
201411041100 METAR MRLM NIL=
201411041200 METAR MRLM 041200Z 18006KT 8000 RA BKN007 24/23 A2986=
201411041300 METAR MRLM 041300Z 23006KT 9999 SCT010 SCT100 23/22 A2987=
201411041400 METAR MRLM 041400Z 25005KT 9999 FEW015 SCT120 26/23 A2988=
201411041500 METAR MRLM 041500Z 23002KT 9999 FEW020 BKN130 28/24 A2990=
201411041600 METAR MRLM 041600Z 11004KT 9999 FEW030 BKN130 30/25 A2988=
201411041700 METAR MRLM 041700Z 12005KT 9999 FEW020 BKN130 29/25 A2986=
201411041800 METAR MRLM 041800Z 07006KT 9999 SCT030 SCT130 31/24 A2983=
201411041900 METAR MRLM 041900Z 13003KT 9999 FEW030 SCT140 31/22 A2979=
201411042000 METAR MRLM 042000Z 07004KT 9999 FEW040 SCT140 32/23 A2977=
201411042100 METAR MRLM 042100Z 08007KT 9999 SCT035 BKN130 31/24 A2975=
201411042200 METAR MRLM 042200Z 06012KT 9999 VCSH SCT020 BKN110 29/25 A2977=
201411042300 METAR MRLM 042300Z 05013KT 9999 SCT010 BKN100 28/25 A2980=
201411050000 METAR MRLM 050000Z 04005KT 9999 DZ BKN007 26/25 A2982=
201411050100 METAR MRLM NIL=
201411050200 METAR MRLM NIL=
201411050300 METAR MRLM NIL=
201411050400 METAR MRLM NIL=
201411050500 METAR MRLM NIL=
201411050600 METAR MRLM NIL=
201411050700 METAR MRLM NIL=
201411050800 METAR MRLM NIL=
201411050900 METAR MRLM NIL=
201411051000 METAR MRLM NIL=
201411051100 METAR MRLM NIL=
201411051200 METAR MRLM 051200Z 30005KT 9999 FEW007 BKN120 24/23 A2987=
201411051300 METAR MRLM 051300Z 31008KT 9999 FEW007 BKN120 25/24 A2989=
201411051400 METAR MRLM 051400Z 30008KT 9999 FEW010 BKN130 26/24 A2991=
201411051500 METAR MRLM 051500Z 31010KT 9999 BKN015 27/24 A2992=
201411051600 METAR MRLM 051600Z 33010KT 9999 OVC015 27/24 A2991=
201411051700 METAR MRLM 051700Z 32007KT 9999 BKN020 27/24 A2990=
201411051800 METAR MRLM 051800Z 32010KT 9999 BKN020 28/24 A2988=
201411051900 METAR MRLM 051900Z 32008KT 9999 BKN020 28/24 A2985=
201411052000 METAR MRLM 052000Z 31007KT 9999 BKN025 SCT130 29/24 A2983=
201411052100 METAR MRLM 052100Z 33007KT 9999 3000N DZ OVC015 27/24 A2982=
201411052200 METAR MRLM 052200Z 33006KT 9999 BKN010 26/24 A2982=
201411052300 METAR MRLM 052300Z 29005KT 9999 SCT007 SCT110 25/24 A2984=
201411060000 METAR MRLM 060000Z 32003KT 9999 BKN007 25/24 A2986=
201411060100 METAR MRLM NIL=
201411060200 METAR MRLM NIL=
201411060300 METAR MRLM NIL=
201411060400 METAR MRLM NIL=
201411060500 METAR MRLM NIL=
201411060600 METAR MRLM NIL=
201411060700 METAR MRLM NIL=
201411060800 METAR MRLM NIL=
201411060900 METAR MRLM NIL=
201411061000 METAR MRLM NIL=
201411061100 METAR MRLM NIL=
201411061200 METAR MRLM 061200Z 30006KT 7000 +DZ FEW005 SCT025 SCT090 24/23 A2992=
201411061255 METAR MRLM 061255Z 31005KT 9999 DZ FEW004 SCT025 SCT090 24/23 A2993=
201411061300 METAR MRLM 31005KT 9999 DZ FEW004 SCT025 SCT090 24/23 A2993=
201411061400 METAR MRLM 061400Z 32004KT 1500MTS +RA FEW005 BKN015 24/23 A2995=
201411061457 METAR MRLM 061457Z 29003KT 3000 RA FEW003 BKN015 24/23 A2996=
201411061500 METAR MRLM 29003KT 3000 RA FEW003 BKN015 24/23 A2996=
201411061600 METAR MRLM 061600Z 29004KT 3000 RA SCT002 BKN015 24/23 A2995=
201411061700 METAR MRLM 061700Z 28007KT 7000 +DZ FEW003 SCT015 SCT090 24/24 A2993=
201411061800 METAR MRLM 061800Z 30007KT 8000 RA SCT004 SCT090 25/24 A2991=
201411061900 METAR MRLM 061900Z 29008KT 7000 +DZ SCT003 SCT012 25/24 A2989=
201411062000 METAR MRLM 062000Z 29007KT 7000 DZ BKN006 25/24 A2986=
201411062100 METAR MRLM NIL=
201411062200 METAR MRLM 062200Z 30005KT 9999 FEW005 BKN015 25/24 A2986=
201411062300 METAR MRLM 062300Z 28005KT 9999 FEW005 BKN025 24/24 A2985=
201411070000 METAR MRLM NIL=
201411070008 METAR MRLM 0700Z 29005KT 9999 FEW004 BKN025 24/23 A2988=
201411070100 METAR MRLM NIL=
201411070200 METAR MRLM NIL=
201411070300 METAR MRLM NIL=
201411070400 METAR MRLM NIL=
201411070500 METAR MRLM NIL=
201411070600 METAR MRLM NIL=
201411070700 METAR MRLM 0723Z 28003KT 9999 FEW015 BKN035 25/22 A2986=
201411070800 METAR MRLM NIL=
201411070900 METAR MRLM NIL=
201411071000 METAR MRLM NIL=
201411071100 METAR MRLM NIL=
201411071200 METAR MRLM 071200Z 29003KT 9999 DZ SCT015 BKN090 23/22 A2990=
201411071300 METAR MRLM 071300Z 31007KT 8000 +DZ SCT003 BKN020 24/23 A2994=
201411071400 METAR MRLM NIL=
201411071500 METAR MRLM 071500Z 30009KT 7000 +DZ BKN006 24/23 A2996=
201411071600 METAR MRLM 071600Z 28008KT 9999 DZ FEW006 SCT015 SCT080 24/23 A2994=
201411071700 METAR MRLM 071700Z 24007KT 9999 +DZ BKN010 SCT080 24/23 A2992=
201411071800 METAR MRLM 071800Z 22004KT 9999 SCT015 SCT090 25/23 A2991 REDZ=
201411071900 METAR MRLM 071900Z 23005KT 9999 FEW015 BKN025 26/23 A2988=
201411072000 METAR MRLM NIL=
201411072001 METAR MRLM 0720Z 28006KT 9999 SCT025 BKN080 28723 A2986=
201411072058 METAR MRLM 0721Z 27006KT 9999 BKN035 26/22 A2984=
201411072100 METAR MRLM NIL=
201411072158 METAR MRLM 0722Z 26003KT CAVOK 26/23 A2985=
201411072200 METAR MRLM NIL=
201411072259 METAR MRLM 0723Z 28003KT 9999 FEW015 BKN035 25/22 A2986=
201411072300 METAR MRLM NIL=
201411072354 METAR MRLM 080000Z 29002KT 9999 OVC035 25/22 A2987=
201411080000 METAR MRLM 080000Z 29002KT 9999 OVC035 25/22 A2987=
201411080100 METAR MRLM NIL=
201411080200 METAR MRLM NIL=
201411080300 METAR MRLM NIL=
201411080400 METAR MRLM NIL=
201411080500 METAR MRLM NIL=
201411080600 METAR MRLM NIL=
201411080700 METAR MRLM NIL=
201411080800 METAR MRLM NIL=
201411080900 METAR MRLM NIL=
201411081000 METAR MRLM NIL=
201411081100 METAR MRLM NIL=
201411081200 METAR MRLM 081200Z 00000KT CAVOK 23/21 A2988=
201411081300 METAR MRLM 081300Z 25005KT CAVOK 25/21 A2988=
201411081400 METAR MRLM 081400Z 24004KT CAVOK 28/22 A2990=
201411081500 METAR MRLM 081500Z 28003KT CAVOK 29/22 A2991=
201411081600 METAR MRLM 081600Z 08005KT 9999 FEW030 BKN150 29/22 A2990=
201411081700 METAR MRLM 081700Z 03008KT 9999 FEW030 BKN140 29/23 A2989=
201411081800 METAR MRLM 081800Z 03007KT 9999 FEW030 BKN140 30/22 A2986=
201411081900 METAR MRLM 081900Z 02008KT 9999 FEW030 BKN130 29/23 A2983=
201411082000 METAR MRLM 082000Z 02007KT 9999 FEW030 BKN130 29/23 A2981=
201411082100 METAR MRLM 082100Z 02007KT 9999 FEW040 BKN130 30/22 A2979=
201411082200 METAR MRLM 082200Z 36006KT 9999 FEW030 SCT130 28/23 A2980=
201411082300 METAR MRLM 082300Z 36007KT 9999 FEW025 SCT130 28/23 A2982=
201411090000 METAR MRLM 090000Z 00000KT 9999 FEW010 SCT120 25/23 A2984=
201411090100 METAR MRLM NIL=
201411090200 METAR MRLM NIL=
201411090300 METAR MRLM NIL=
201411090400 METAR MRLM NIL=
201411090500 METAR MRLM NIL=
201411090600 METAR MRLM NIL=
201411090700 METAR MRLM NIL=
201411090800 METAR MRLM NIL=
201411090900 METAR MRLM NIL=
201411091000 METAR MRLM NIL=
201411091100 METAR MRLM NIL=
201411091200 METAR MRLM 091200Z 28002KT CAVOK 23/22 A2989=
201411091300 METAR MRLM 091300Z 00000KT CAVOK 25/23 A2991=
201411091400 METAR MRLM 091400Z 25003KT 9999 FEW020 BKN120 26/22 A2993=
201411091500 METAR MRLM 091500Z 32002KT CAVOK 28/23 A2994=
201411091600 METAR MRLM 091600Z 34008KT 9999 FEW030 BKN130 29/23 A2993=
201411091700 METAR MRLM 091700Z 35011KT 9999 FEW030 BKN140 29/23 A2991=
201411091800 METAR MRLM 091800Z 36012KT 9999 SCT025 BKN130 28/23 A2990=
201411091900 METAR MRLM 091900Z 36009KT CAVOK 29/23 A2987=
201411092000 METAR MRLM 092000Z 33006KT 9999 FEW030 BKN130 28/22 A2985=
201411092100 METAR MRLM 092100Z 34007KT 9999 FEW030 BKN130 28/22 A2984=
201411092200 METAR MRLM 092200Z 26004KT 9999 SCT020 SCT120 26/22 A2985=
201411092300 METAR MRLM 092300Z 27003KT 9999 FEW015 BKN120 26/22 A2986=
201411100000 METAR MRLM 100000Z 00000KT 9999 FEW010 BKN110 25/22 A2988=
201411100100 METAR MRLM NIL=
201411100200 METAR MRLM NIL=
201411100300 METAR MRLM NIL=
201411100400 METAR MRLM NIL=
201411100500 METAR MRLM NIL=
201411100600 METAR MRLM NIL=
201411100700 METAR MRLM NIL=
201411100800 METAR MRLM NIL=
201411100900 METAR MRLM NIL=
201411101000 METAR MRLM NIL=
201411101100 METAR MRLM NIL=
201411101200 METAR MRLM 101200Z 24005KT 9999 BKN035 23/21 A2992=
201411101300 METAR MRLM 101300Z 25005KT 9999 FEW015 SCT035 SCT080 24/22 A2993=
201411101400 METAR MRLM 101400Z 24005KT 9999 BKN030 26/20 A2995=
201411101500 METAR MRLM 101500Z 07008KT 9999 SCT022 SCT080 27/23 A2997=
201411101600 METAR MRLM 101600Z 02012KT 9999 SCT020 BKN090 26/22 A2998=
201411101700 METAR MRLM 101700Z 02007KT 9999 FEW030 BKN090 27/21 A2996=
201411101800 METAR MRLM 101800Z 31003KT 9999 FEW035 BKN070 28/21 A2993=
201411101900 METAR MRLM 101900Z 26005KT 9999 SCT035 SCT070 28/21 A2990=
201411102000 METAR MRLM 102000Z 26005KT 9999 SCT030 BKN080 28/23 A2988=
201411102100 METAR MRLM 102100Z 26004KT 9999 SCT030 SCT080 28/22 A2988=
201411102200 METAR MRLM 102200Z 31003KT 9999 SCT025 SCT080 27/22 A2989=
201411102300 METAR MRLM 102300Z 30003KT 9999 SCT028 SCT080 27/21 A2989=
201411102357 METAR MRLM 110000Z 28002KT 9999 SCT025 SCT080 25/22 A2990=
201411110000 METAR MRLM 110000Z 28002KT 9999 SCT025 SCT080 25/22 A2990=
201411110100 METAR MRLM NIL=
201411110200 METAR MRLM NIL=
201411110300 METAR MRLM NIL=
201411110400 METAR MRLM NIL=
201411110500 METAR MRLM NIL=
201411110600 METAR MRLM NIL=
201411110700 METAR MRLM NIL=
201411110800 METAR MRLM NIL=
201411110900 METAR MRLM NIL=
201411111000 METAR MRLM NIL=
201411111100 METAR MRLM NIL=
201411111200 METAR MRLM 111200Z 25004KT CAVOK 21/19 A2992=
201411111300 METAR MRLM 111300Z 27005KT CAVOK 24/19 A2993=
201411111400 METAR MRLM 111400Z 26004KT CAVOK 27/20 A2994=
201411111500 METAR MRLM 111500Z 31005KT CAVOK 29/20 A2995=
201411111600 METAR MRLM 111600Z 02006KT 9999 FEW045 SCT270 30/21 A2994=
201411111700 METAR MRLM 111700Z 03009KT 9999 FEW045 SCT270 30/21 A2990=
201411111800 METAR MRLM 111800Z 03009KT 9999 FEW040 SCT270 30/22 A2989=
201411111900 METAR MRLM 111900Z 02009KT 9999 FEW038 BKN270 29/22 A2986=
201411112000 METAR MRLM 112000Z 02010KT 9999 FEW032 BKN270 29/23 A2984=
201411112100 METAR MRLM 112100Z 02008KT 9999 FEW035 BKN270 29/22 A2983=
201411112200 METAR MRLM 112200Z 03005KT 9999 FEW035 BKN270 29/22 A2984=
201411112300 METAR MRLM 112300Z 35005KT CAVOK 28/22 A2986=
201411112355 METAR MRLM 120000Z 30002KT CAVOK 25/22 A2987=
201411120000 METAR MRLM 120000Z 30002KT CAVOK 25/22 A2987=
201411120100 METAR MRLM NIL=
201411120200 METAR MRLM NIL=
201411120300 METAR MRLM NIL=
201411120400 METAR MRLM NIL=
201411120500 METAR MRLM NIL=
201411120600 METAR MRLM NIL=
201411120700 METAR MRLM NIL=
201411120800 METAR MRLM NIL=
201411120900 METAR MRLM NIL=
201411121000 METAR MRLM NIL=
201411121100 METAR MRLM NIL=
201411121200 METAR MRLM 121200Z 26004KT CAVOK 23/22 A2992=
201411121300 METAR MRLM 121300Z 27004KT CAVOK 24/22 A2993=
201411121400 METAR MRLM 121400Z 25003KT CAVOK 28/23 A2995=
201411121500 METAR MRLM 121500Z 33006KT 9999 FEW035 BKN130 30/22 A2995=
201411121600 METAR MRLM 121600Z 33005KT 9999 FEW035 BKN130 30/22 A2994=
201411121700 METAR MRLM 121700Z 35006KT 9999 FEW040 SCT140 31/23 A2991=
201411121800 METAR MRLM 121800Z 03011KT 9999 FEW030 BKN130 30/23 A2989=
201411121900 METAR MRLM 121900Z CORR 03009KT 9999 FEW030 BKN130 30/24 A2987=
201411122000 METAR MRLM 122000Z 02009KT CAVOK 30/24 A2986=
201411122100 METAR MRLM 122100Z 02007KT CAVOK 29/23 A2985=
201411122200 METAR MRLM 122200Z 03004KT 9999 FEW030 BKN130 28/23 A2985=
201411122300 METAR MRLM 122300Z 00000KT 9999 FEW020 BKN130 28/24 A2988=
201411130000 METAR MRLM 130000Z 26002KT CAVOK 26/24 A2990=
201411130100 METAR MRLM NIL=
201411130200 METAR MRLM NIL=
201411130300 METAR MRLM NIL=
201411130400 METAR MRLM NIL=
201411130500 METAR MRLM NIL=
201411130600 METAR MRLM NIL=
201411130700 METAR MRLM NIL=
201411130800 METAR MRLM NIL=
201411130900 METAR MRLM NIL=
201411131000 METAR MRLM NIL=
201411131100 METAR MRLM NIL=
201411131200 METAR MRLM 131200Z 24006KT CAVOK 22/20 A2991=
201411131300 METAR MRLM 131300Z 26004KT CAVOK 24/21 A2992=
201411131400 METAR MRLM 131400Z 28004KT CAVOK 29/21 A2993=
201411131500 METAR MRLM 131500Z 31007KT CAVOK 31/21 A2993=
201411131600 METAR MRLM 131600Z 32009KT CAVOK 30/22 A2993=
201411131700 METAR MRLM 131700Z 34010KT CAVOK 31/21 A2991=
201411131800 METAR MRLM 131800Z 36011KT CAVOK 29/23 A2989=
201411131900 METAR MRLM 131900Z 36010KT 9999 SCT025 BKN120 29/24 A2986=
201411132000 METAR MRLM 132000Z 35010KT 9999 FEW025 BKN120 28/24 A2984=
201411132100 METAR MRLM 132100Z 36013KT 9999 FEW030 BKN130 30/23 A2983=
201411132200 METAR MRLM 132200Z 34009KT 9999 BKN020 28/24 A2982=
201411132300 METAR MRLM 132300Z 36011KT 9999 SCT020 SCT130 27/23 A2984=
201411140000 METAR MRLM 140000Z 33005KT 9999 FEW015 BKN130 26/23 A2988=
201411140100 METAR MRLM NIL=
201411140200 METAR MRLM NIL=
201411140300 METAR MRLM NIL=
201411140400 METAR MRLM NIL=
201411140500 METAR MRLM NIL=
201411140600 METAR MRLM NIL=
201411140700 METAR MRLM NIL=
201411140800 METAR MRLM NIL=
201411140900 METAR MRLM NIL=
201411141000 METAR MRLM NIL=
201411141100 METAR MRLM NIL=
201411141200 METAR MRLM 141200Z 30007KT 9999 BKN032 24/21 A2987=
201411141300 METAR MRLM 141300Z 32008KT 1500 +RA OVC010 24/22 A2989=
201411141400 METAR MRLM 141400Z 26006KT 7000 +DZ VCSH SCT004 SCT020 23/23 A2992=
201411141500 METAR MRLM 141500Z 25006KT 9999 +DZ BKN020 24/23 A2993=
201411141600 METAR MRLM 141600Z 24004KT 9999 BKN020 24/24 A2993 RERA=
201411141700 METAR MRLM 141700Z 29003KT 9999 DZ SCT023 BKN900 25/24 A2992=
201411141800 METAR MRLM 141800Z 23002KT 9999 RA SCT020 SCT090 25/24 A2990 REDZ=
201411141900 METAR MRLM 141900Z 30006KT 9999 SCT008 SCT020 25/23 A2987 RERA=
201411142000 METAR MRLM 142000Z 30007KT 9999 SCT023 SCT130 25/23 A2984=
201411142100 METAR MRLM 142100Z 31006KT 9999 DZ SCT025 SCT140 25/23 A2983=
201411142200 METAR MRLM 142205 29007KT 9999 FEW025 SCT090 SCT140 25/23 A2985 REDZ=
201411142205 METAR MRLM 142205Z 29007KT 9999 FEW025 SCT090 SCT140 25/23 A2985 REDZ=
201411142208 METAR MRLM 142205 29007KT 9999 FEW025 SCT090 SCT140 25/23 A2985 REDZ=
201411142300 METAR MRLM 142300Z 31006KT 9999 FEW010 BKN090 25/23 A2987=
201411142355 METAR MRLM 150000Z 32008KT 9999 SCT020 SCT090 25/23 A2988=
201411150000 METAR MRLM 150000Z 32008KT 9999 SCT020 SCT090 25/23 A2988=
201411150100 METAR MRLM NIL=
201411150200 METAR MRLM NIL=
201411150300 METAR MRLM NIL=
201411150400 METAR MRLM NIL=
201411150500 METAR MRLM NIL=
201411150600 METAR MRLM NIL=
201411150700 METAR MRLM NIL=
201411150800 METAR MRLM NIL=
201411150900 METAR MRLM NIL=
201411151000 METAR MRLM NIL=
201411151100 METAR MRLM NIL=
201411151200 METAR MRLM 151200Z 30004KT 9999 FEW010TCU BKN015 SCT140 24/22 A2993=
201411151300 METAR MRLM 151300Z 26004KT 9999 FEW010 BKN015 24/23 A2995=
201411151358 METAR MRLM 1500Z 26004KT 9999 FEW010TCU SCT020 SCT070 27/23 A2998=
201411151400 METAR MRLM NIL=
201411151500 METAR MRLM 151500Z 30003KT 9999 SCT010CB SCT080 29/23 A2998=
201411151600 METAR MRLM 151600Z 03004KT 9999 FEW032 SCT080 SCT270 30/24 A2996=
201411151700 METAR MRLM 151700Z 03010KT 9999 FEW025 BKN080 29/24 A2994=
201411151800 METAR MRLM 151800Z 02011KT 9999 FEW025 SCT090 SCT270 29/24 A2991=
201411151900 METAR MRLM 151900Z 02007KT 9999 FEW025 BKN260 28/23 A2988=
201411151955 METAR MRLM 15200Z 03005KT 9999 FEW025 SCT035 SCT080 28/24 A2986=
201411152000 METAR MRLM 15200Z 03005KT 9999 FEW025 SCT035 SCT080 28/24 A2986=
201411152100 METAR MRLM 152100Z 07003KT 9999 FEW022 SCT070 SCT270 28/23 A2985=
201411152200 METAR MRLM 152200Z 10001KT 9999 FEW025 BKN270 29/24 A2985=
201411152300 METAR MRLM 152300Z 10001KT 9999 FEW018 SCT270 28/24 A2988=
201411152354 METAR MRLM 160000Z 24003KT 9999 FEW015 BKN090 25724 A2989=
201411160000 METAR MRLM 160000Z 24003KT 9999 FEW015 BKN090 25724 A2989=
201411160100 METAR MRLM NIL=
201411160200 METAR MRLM NIL=
201411160300 METAR MRLM NIL=
201411160400 METAR MRLM NIL=
201411160500 METAR MRLM NIL=
201411160600 METAR MRLM NIL=
201411160700 METAR MRLM NIL=
201411160800 METAR MRLM NIL=
201411160900 METAR MRLM NIL=
201411161000 METAR MRLM NIL=
201411161100 METAR MRLM NIL=
201411161200 METAR MRLM 161200Z 26003KT CAVOK 22/21 A2994=
201411161300 METAR MRLM 161300Z 25004KT CAVOK 24/22 A2995=
201411161400 METAR MRLM 161400Z 25002KT 9999 FEW025 28/23 A2996=
201411161500 METAR MRLM 161500Z 05005KT 9999 FEW020 BKN130 28/24 A2996=
201411161600 METAR MRLM 161600Z 04007KT 9999 FEW020 BKN120 28/23 A2996=
201411161615 METAR MRLM 161615Z 03007KT 9999 DZ BKN020 27/24 A2996=
201411161700 METAR MRLM 161700Z 07005KT 8000 BKN010 26/24 A2995=
201411161800 METAR MRLM 161800Z 28002KT 9999 -DZ BKN010 26/24 A2993=
201411161900 METAR MRLM 161900Z 26005KT 9999 FEW010 BKN120 25/23 A2988=
201411162000 METAR MRLM 162000Z 13003KT 9999 FEW025 BKN130 29/24 A2986=
201411162100 METAR MRLM 162100Z 11004KT 9999 SCT020 BKN130 28/23 A2985=
201411162200 METAR MRLM 162200Z 06004KT CAVOK 27/23 A2985=
201411162300 METAR MRLM 162300Z 04004KT CAVOK 27/23 A2985=
201411170000 METAR MRLM 170000Z 00000KT 9999 FEW010 BKN100 24/23 A2988=
201411170100 METAR MRLM NIL=
201411170200 METAR MRLM NIL=
201411170300 METAR MRLM NIL=
201411170400 METAR MRLM NIL=
201411170500 METAR MRLM NIL=
201411170600 METAR MRLM NIL=
201411170700 METAR MRLM NIL=
201411170800 METAR MRLM NIL=
201411170900 METAR MRLM NIL=
201411171000 METAR MRLM NIL=
201411171100 METAR MRLM NIL=
201411171200 METAR MRLM 171200Z 30006KT 9999 SCT007 BKN110 24/22 A2989=
201411171300 METAR MRLM 171300Z 32004KT 9999 SCT020 BKN120 24/23 A2990=
201411171400 METAR MRLM 171400Z 29005KT 9999 FEW020 BKN120 25/23 A2993=
201411171500 METAR MRLM 171500Z 33008KT 9999 SCT015 SCT130 27/24 A2994=
201411171600 METAR MRLM 171600Z 31007KT 9999 BKN020 SCT130 28/24 A2992=
201411171700 METAR MRLM 171700Z 30010KT 9999 SCT025 SCT250 29/24 A2990=
201411171800 METAR MRLM 171800Z 34011KT 9999 FEW020 BKN250 28/23 A2986=
201411171900 METAR MRLM 171900Z 35011KT 9999 FEW030 BKN250 30/24 A2983=
201411172000 METAR MRLM 172000Z 36012KT CAVOK 29/24 A2982=
201411172100 METAR MRLM 172100Z 35009KT CAVOK 29/23 A2981=
201411172200 METAR MRLM 172200Z 34006KT 9999 FEW025 BKN250 29/24 A2981=
201411172300 METAR MRLM 172300Z 34008KT 9999 FEW020 BKN250 27/23 A2984=
201411180000 METAR MRLM 180000Z 33006KT 9999 FEW010 BKN240 26/24 A2985=
201411180100 METAR MRLM NIL=
201411180200 METAR MRLM NIL=
201411180300 METAR MRLM NIL=
201411180400 METAR MRLM NIL=
201411180500 METAR MRLM NIL=
201411180600 METAR MRLM NIL=
201411180700 METAR MRLM NIL=
201411180800 METAR MRLM NIL=
201411180900 METAR MRLM NIL=
201411181000 METAR MRLM NIL=
201411181100 METAR MRLM NIL=
201411181200 METAR MRLM 181200Z 25002KT CAVOK 24/23 A2987=
201411181300 METAR MRLM NIL=
201411181400 METAR MRLM 181400Z 30006KT CAVOK 27/23 A2991=
201411181500 METAR MRLM NIL=
201411181600 METAR MRLM 181600Z 9999 FEW015 SCT080 29/24 A2991=
201411181700 METAR MRLM 181700Z 34009KT 9999 FEW030 BKN070 29/23 A2989=
201411181800 METAR MRLM 181800Z 36009KT 9999 FEW025 SCT0890 SCT260 29/24 A2988=
201411181900 METAR MRLM 181900Z 35007KT 9999 FEW025 SCT140 SCT260 29/24 A2983=
201411182000 METAR MRLM 182000Z 34011KT 9999 FEW022 BKN260 29/24 A29800=
201411182100 METAR MRLM 182100Z 36012KT 9999 FEW020 SCT150 SCT260 28/25 A2979=
201411182200 METAR MRLM 182200Z 36009KT 9999 FEW018 SCT140 28/24 A2981=
201411182300 METAR MRLM 182300Z 33004KT CAVOK 27/25 A2982=
201411182355 METAR MRLM 190000Z 27001KT CAVOK 26/24 A2985=
201411190000 METAR MRLM 190000Z 27001KT CAVOK 26/24 A2985=
201411190100 METAR MRLM NIL=
201411190200 METAR MRLM NIL=
201411190300 METAR MRLM NIL=
201411190400 METAR MRLM NIL=
201411190500 METAR MRLM NIL=
201411190600 METAR MRLM NIL=
201411190700 METAR MRLM NIL=
201411190800 METAR MRLM NIL=
201411190900 METAR MRLM NIL=
201411191000 METAR MRLM NIL=
201411191100 METAR MRLM NIL=
201411191200 METAR MRLM 24003KT 9999 +DZ OVC015 24/23 A2989=
201411191215 METAR MRLM 191215Z 24003KT 9999 +DZ OVC015 24/23 A2989=
201411191300 METAR MRLM 191300Z 25001KT 9999 DZ BKN018 24/23 A2990=
201411191400 METAR MRLM 191400Z 27003KT 9999 BKN025 26/24 A2992=
201411191420 METAR MRLM 191420Z 2903KT 9999 TSRA SCT CB010 SCT020 26/24 A2992 TS NE E=
201411191500 METAR MRLM 191500Z 30003KT 9999 SCT020 SCT140 26/24 A2993 RETS=
201411191600 METAR MRLM 191600Z 34003KT 9999 DZ BKN015 26/25 A2994=
201411191700 METAR MRLM 191700Z 27005KT 9999 +DZ FEW005 SCT020 SCT140 26/25 A2990 RERA=
201411191800 METAR MRLM 191800Z 25001KT 9999 FEW006 SCT020 SCT080 27/25 A2988 REDZ=
201411191900 METAR MRLM 191900Z 26003KT 9999 FEW015 BKN270 28/25 A2985=
201411192000 METAR MRLM 192000Z 12002KT 9999 SCT025 SCT080 29/25 A2983=
201411192100 METAR MRLM 192100Z 11003KT CAVOK 29/25 A2980=
201411192200 METAR MRLM 192200Z 05003KT CAVOK 28/25 A2981=
201411192300 METAR MRLM 192300Z 03004KT CAVOK 28/25 A2983=
201411192355 METAR MRLM 200000Z 30001KT CAVOK 26/25 A2983=
201411200000 METAR MRLM 200000Z 30001KT CAVOK 26/25 A2983=
201411200100 METAR MRLM NIL=
201411200200 METAR MRLM NIL=
201411200300 METAR MRLM NIL=
201411200400 METAR MRLM NIL=
201411200500 METAR MRLM NIL=
201411200600 METAR MRLM NIL=
201411200700 METAR MRLM NIL=
201411200800 METAR MRLM NIL=
201411200900 METAR MRLM NIL=
201411201000 METAR MRLM NIL=
201411201100 METAR MRLM NIL=
201411201200 METAR MRLM 201200Z 26003KT CAVOK 23/23 A2988=
201411201300 METAR MRLM 201300Z 25003KT CAVOK 24/23 A2989=
201411201400 METAR MRLM 201400Z 28002KT CAVOK 27/25 A2990=
201411201500 METAR MRLM 201500Z 02005KT 9999 FEW030 BKN120 29/24 A2992=
201411201600 METAR MRLM 201600Z 36006KT 9999 BKN025 29/24 A2991=
201411201700 METAR MRLM 201700Z 33004KT 9999 SCT020 BKN120 28/24 A2989=
201411201800 METAR MRLM 201800Z 34003KT 9999 BKN010 SCT120 27/24 A2987=
201411201900 METAR MRLM 201900Z 03008KT 9999 BKN015 28/25 A2983=
201411202000 METAR MRLM 202000Z 03005KT 9999 FEW020 SCT130 SCT250 28/24 A2980=
201411202100 METAR MRLM 202100Z 03006KT CAVOK 28/24 A2979=
201411202200 METAR MRLM 202200Z 36004KT 9999 FEW020 BKN120 27/24 A2980=
201411202300 METAR MRLM 202300Z 05003KT 9999 SCT020 BKN110 27/24 A2981=
201411210000 METAR MRLM 210000Z 00000KT 9999 FEW010 BKN110 26/24 A2984=
201411210100 METAR MRLM NIL=
201411210200 METAR MRLM NIL=
201411210300 METAR MRLM NIL=
201411210400 METAR MRLM NIL=
201411210500 METAR MRLM NIL=
201411210600 METAR MRLM NIL=
201411210700 METAR MRLM NIL=
201411210800 METAR MRLM NIL=
201411210900 METAR MRLM NIL=
201411211000 METAR MRLM NIL=
201411211100 METAR MRLM NIL=
201411211200 METAR MRLM 211200Z 04010KT 8000 DZ BKN006 24/23 A2993=
201411211300 METAR MRLM 211300Z 24004KT 8000 FEW006 BKN010 24/23 A2994=
201411211400 METAR MRLM 211400Z 25004KT 9999 FEW006 BKN010 23/23 A2996 REDZ=
201411211500 METAR MRLM 211500Z 34002KT 9999 DZ BKN010 24/23 A2998=
201411211600 METAR MRLM 211600Z 29004KT 9999 SCT010 BKN110 25/24 A2997 REDZ=
201411211700 METAR MRLM 211700Z 30004KT 9999 FEW020 BKN130 28/23 A2995=
201411211800 METAR MRLM 211800Z 19003KT 9999 FEW035 BKN140 31/23 A2991=
201411211900 METAR MRLM 211900Z 06005KT 9999 FEW025 SCT130 29/25 A2987=
201411212000 METAR MRLM 212000Z 08005KT 9999 FEW025 29/24 A2985=
201411212100 METAR MRLM 212100Z 05007KT CAVOK 30/24 A2983=
201411212200 METAR MRLM 212200Z 03007KT CAVOK 29/23 A2983=
201411212300 METAR MRLM 212300Z 03007KT CAVOK 28/23 A2984=
201411220000 METAR MRLM 220000Z 24002KT CAVOK 26/23 A2987=
201411220100 METAR MRLM NIL=
201411220300 METAR MRLM NIL=
201411220400 METAR MRLM NIL=
201411220500 METAR MRLM NIL=
201411220600 METAR MRLM NIL=
201411220700 METAR MRLM NIL=
201411220800 METAR MRLM NIL=
201411220900 METAR MRLM NIL=
201411221000 METAR MRLM NIL=
201411221100 METAR MRLM NIL=
201411221200 METAR MRLM 27003KT CAVOK 23/21 A2992=
201411221228 METAR MRLM 221228Z 27003KT CAVOK 23/21 A2992=
201411221300 METAR MRLM 221300Z 25003KT CAVOK 24/22 A2993=
201411221400 METAR MRLM 221400Z 25002KT CAVOK 28/23 A2994=
201411221500 METAR MRLM 221500Z 10004KT CAVOK 28/22 A2995=
201411221559 METAR MRLM 221559Z 06005KT 9999 FEW030 BKN090 29/22 A2994=
201411221600 METAR MRLM 06005KT 9999 FEW030 BKN090 29/22 A2994=
201411221700 METAR MRLM NIL=
201411221800 METAR MRLM 221800Z 03009KT 9999 FEW025 29/24 A2989=
201411221900 METAR MRLM 221900Z 02009KT 9999 FEW022 29/25 A2986=
201411222000 METAR MRLM 222000Z 03009KT 9999 FEW020 BKN120 29/25 A2984=
201411222100 METAR MRLM 222100Z 03007KT 9999 FEW025 SCT090 29/25 A2983=
201411222200 METAR MRLM 222200Z 04005KT 9999 FEW020 SCT110 29/24 A2982=
201411222300 METAR MRLM 222300Z 06004KT 9999 FEW020 SCT140 SCT270 28/24 A2983=
201411222354 METAR MRLM 230000Z 25002KT 9999 FEW020 BKN080 27/24 A2985=
201411230000 METAR MRLM 230000Z 25002KT 9999 FEW020 BKN080 27/24 A2985=
201411230100 METAR MRLM NIL=
201411230200 METAR MRLM NIL=
201411230300 METAR MRLM NIL=
201411230400 METAR MRLM NIL=
201411230500 METAR MRLM NIL=
201411230600 METAR MRLM NIL=
201411230700 METAR MRLM NIL=
201411230800 METAR MRLM NIL=
201411230900 METAR MRLM NIL=
201411231000 METAR MRLM NIL=
201411231100 METAR MRLM NIL=
201411231200 METAR MRLM 231200Z 25003KT CAVOK 23/22 A2984=
201411231300 METAR MRLM 231300Z 24003KT CAVOK 25/22 A2985=
201411231400 METAR MRLM 231400Z 22001KT CAVOK 28/23 A2987=
201411231500 METAR MRLM 231500Z 10003KT CAVOK 28/23 A2988=
201411231600 METAR MRLM 231600Z 05004KT 9999 FEW025 BKN090 29/23 A2987=
201411231700 METAR MRLM 231700Z 06004KT 9999 FEW028 29/24 A2984=
201411231800 METAR MRLM 231800Z 07005KT 9999 FEW025 29/24 A2982=
201411231900 METAR MRLM 231900Z 06006KT 9999 FEW025 29/24 A2978=
201411232000 METAR MRLM 232000Z 05006KT 9999 FEW025 29/25 A2976=
201411232100 METAR MRLM 232100Z 05005KT 9999 FEW025 29/24 A2975=
201411232200 METAR MRLM 232200Z 04004KT 9999 FEW025 29/24 A2975=
201411232300 METAR MRLM 232300Z 03002KT 9999 FEW020 28/24 A2975=
201411232357 METAR MRLM 240000Z 25002KT 9999 FEW012 26/24 A2977=
201411240000 METAR MRLM 240000Z 25002KT 9999 FEW012 26/24 A2977=
201411240100 METAR MRLM NIL=
201411240200 METAR MRLM NIL=
201411240300 METAR MRLM NIL=
201411240400 METAR MRLM NIL=
201411240500 METAR MRLM NIL=
201411240600 METAR MRLM NIL=
201411240700 METAR MRLM NIL=
201411240800 METAR MRLM NIL=
201411240900 METAR MRLM NIL=
201411241000 METAR MRLM NIL=
201411241100 METAR MRLM NIL=
201411241200 METAR MRLM 241200Z 31002KT CAVOK 23/21 A2985=
201411241300 METAR MRLM 241300Z 24004KT CAVOK 24/22 A2986=
201411241400 METAR MRLM 241400Z 23003KT CAVOK 28/23 A2988=
201411241500 METAR MRLM 241500Z 23003KT CAVOK 30/23 A2988=
201411241600 METAR MRLM 241600Z 06006KT 9999 FEW030 30/23 A2988=
201411241700 METAR MRLM 241700Z 04008KT 9999 FEW030 30/24 A2986=
201411241800 METAR MRLM 241800Z 04007KT CAVOK 30/24 A2984=
201411241900 METAR MRLM 241900Z 04006KT CAVOK 30/25 A2980=
201411242000 METAR MRLM 242000Z 06005KT CAVOK 30/24 A2978=
201411242100 METAR MRLM 242100Z 04005KT CAVOK 30/24 A2977=
201411242200 METAR MRLM 242200Z 03006KT CAVOK 30/24 A2978=
201411242300 METAR MRLM 242300Z 02005KT CAVOK 29/24 A2979=
201411250000 METAR MRLM 250000Z 00000KT CAVOK 27/24 A2982=
201411250100 METAR MRLM NIL=
201411250200 METAR MRLM NIL=
201411250300 METAR MRLM NIL=
201411250400 METAR MRLM NIL=
201411250500 METAR MRLM NIL=
201411250600 METAR MRLM NIL=
201411250700 METAR MRLM NIL=
201411250800 METAR MRLM NIL=
201411250900 METAR MRLM NIL=
201411251000 METAR MRLM NIL=
201411251100 METAR MRLM NIL=
201411251200 METAR MRLM 251200Z 25004KT CAVOK 23/22 A2985=
201411251300 METAR MRLM 251300Z 27002KT 9999 SCT007 BKN120 24/23 A2988=
201411251400 METAR MRLM 251400Z 26002KT 9999 SCT010 BKN120 26/24 A2989=
201411251500 METAR MRLM 251500Z 35012KT 9999 4000N DZ OVC010 27/24 A2992=
201411251600 METAR MRLM 251600Z 30005KT 9999 BKN015 SCT120 27/25 A2989 REDZ=
201411251700 METAR MRLM 251700Z 30006KT CAVOK 30/25 A2987=
201411251800 METAR MRLM 251800Z 32006KT 9999 FEW030 BKN130 31/25 A2985=
201411251900 METAR MRLM 251900Z 33006KT 9999 FEW030 BKN130 31/25 A2980=
201411252000 METAR MRLM 252000Z 03014KT 9999 FEW030 BKN130 29/25 A2978=
201411252100 METAR MRLM 252100Z 04009KT 9999 SCT020 BKN130 28/25 A2979=
201411252200 METAR MRLM 252200Z 05007KT 9999 FEW015 BKN130 28/25 A2981=
201411252300 METAR MRLM 252300Z 27003KT 9999 FEW010 BKN120 27/25 A2981=
201411260000 METAR MRLM 260000Z 35004KT CAVOK 26/24 A2980=
201411260100 METAR MRLM NIL=
201411260200 METAR MRLM NIL=
201411260300 METAR MRLM NIL=
201411260400 METAR MRLM NIL=
201411260500 METAR MRLM NIL=
201411260600 METAR MRLM NIL=
201411260700 METAR MRLM NIL=
201411260800 METAR MRLM NIL=
201411260900 METAR MRLM NIL=
201411261000 METAR MRLM NIL=
201411261100 METAR MRLM NIL=
201411261200 METAR MRLM 261200Z 29007KT 9999 DZ SCT130 SCT150 24/23 A2982=
201411261300 METAR MRLM 261300Z 33005KT 9999 DZ SCT080 SCT150 25/23 A2984=
201411261400 METAR MRLM 261400Z 34009KT 9999 SCT010 SCT080 26/24 A2989=
201411261500 METAR MRLM 261500Z 30010KT 9999 BKN015 27/25 A2992=
201411261600 METAR MRLM 261600Z 32008KT 9999 OVC020 28/24 A2993=
201411261700 METAR MRLM 261700Z 33007KT 9999 BKN022 29/24 A2991=
201411261800 METAR MRLM 261800Z 34009KT 9999 SCT030 SCT140 30/24 A2989=
201411261852 METAR MRLM 261852Z 36010KT 9999 SCT025 BKN130 30/25 A2986=
201411261900 METAR MRLM 36010KT 9999 SCT025 BKN130 30/25 A2986=
201411262000 METAR MRLM 262000Z 36013KT 9999 SCT025 SCT270 29/24 A2983=
201411262100 METAR MRLM 262100Z 35012KT 9999 FEW030 BKN090 29/23 A2997=
201411262200 METAR MRLM 262200Z 34013KT 9999 FEW015 BKN025 28/24 A2984=
201411262300 METAR MRLM 262300Z 33007KT 9999 BKN015 SCT025 27/24 A2985=
201411262356 METAR MRLM 270000Z 28004KT 9999 DZ BKN015 SCT025 26/24 A2987 RERA=
201411270000 METAR MRLM 270000Z 28004KT 9999 DZ BKN015 SCT025 26/24 A2987 RERA=
201411270100 METAR MRLM NIL=
201411270200 METAR MRLM NIL=
201411270300 METAR MRLM NIL=
201411270400 METAR MRLM NIL=
201411270500 METAR MRLM NIL=
201411270600 METAR MRLM NIL=
201411270700 METAR MRLM NIL=
201411270800 METAR MRLM NIL=
201411270900 METAR MRLM NIL=
201411271000 METAR MRLM NIL=
201411271100 METAR MRLM NIL=
201411271200 METAR MRLM 271200Z 23004KT 9999 FEW015TCU SCT120 SCT140 23/23 A2993=
201411271300 METAR MRLM 271300Z 23005KT 9999 FEW015TCU BKN150 24/23 A2994=
201411271400 METAR MRLM 271400Z 23005KT 9999 FEW015CB BKN270 26/24 A2996=
201411271500 METAR MRLM 271500Z 16001KT 9999 DZ BKN015 SCT140 29/24 A2995=
201411271600 METAR MRLM 271600Z 06003KT 9999 SCT018 SCT140 28/25 A2994=
201411271700 METAR MRLM 271700Z 06005KT 9999 FEW025 SCT080 28/23 A2990=
201411271800 METAR MRLM 271800Z 07007KT 9999 FEW025 BKN070 29/24 A2987=
201411271900 METAR MRLM 271900Z 06008KT 9999 FEW020 SCT035 28/25 A2985=
201411272000 METAR MRLM 272000Z 04006KT 9999 BKN035 29/24 A2982=
201411272100 METAR MRLM 272100Z 04005KT 9999 BKN030 28/24 A2982=
201411272200 METAR MRLM 272200Z 04007KT 9999 SCT030 SCT080 28/24 A2982=
201411272300 METAR MRLM 272300Z 03008KT CAVOK 28/24 A2984=
201411272351 METAR MRLM 280000Z 01007KT CAVOK 27/23 A2986=
201411280000 METAR MRLM 280000Z 01007KT CAVOK 27/23 A2986=
201411280100 METAR MRLM NIL=
201411280200 METAR MRLM NIL=
201411280300 METAR MRLM NIL=
201411280400 METAR MRLM NIL=
201411280500 METAR MRLM NIL=
201411280600 METAR MRLM NIL=
201411280700 METAR MRLM NIL=
201411280800 METAR MRLM NIL=
201411280900 METAR MRLM NIL=
201411281000 METAR MRLM NIL=
201411281100 METAR MRLM NIL=
201411281200 METAR MRLM 281200Z 20004KT 6000 DZ OVC007 23/22 A2991=
201411281300 METAR MRLM 281300Z 21004KT 8000 DZ BKN007 23/22 A2993=
201411281400 METAR MRLM 281400Z 24006KT 9999 -DZ BKN010 SCT100 23/22 A2995=
201411281500 METAR MRLM 281500Z 24005KT 9999 5000 NE DZ VCSH BKN010 25/23 A2995=
201411281600 METAR MRLM 281600Z 26002KT 9999 SCT015 SCT110 27/24 A2994 REDZ=
201411281700 METAR MRLM 281700Z 20002KT 9999 BKN020 SCT120 29/23 A2991=
201411281800 METAR MRLM 281800Z 03002KT 9999 FEW030 BKN130 30/24 A2989=
201411281900 METAR MRLM 281900Z 03005KT 9999 FEW030 BKN130 29/24 A2985=
201411282000 METAR MRLM 282000Z 04006KT 9999 FEW025 BKN130 29/24 A2982=
201411282100 METAR MRLM 282100Z 02008KT 9999 SCT020 BKN120 28/24 A2982=
201411282200 METAR MRLM 282200Z 01007KT 9999 FEW020 BKN120 28/23 A2982=
201411282300 METAR MRLM 282300Z 03006KT 9999 DZ BKN015 27/24 A2984=
201411290000 METAR MRLM 290000Z 26003KT 9999 SCT010 BKN100 25/24 A2986=
201411290100 METAR MRLM NIL=
201411290200 METAR MRLM NIL=
201411290300 METAR MRLM NIL=
201411290400 METAR MRLM NIL=
201411290500 METAR MRLM NIL=
201411290600 METAR MRLM NIL=
201411290700 METAR MRLM NIL=
201411290800 METAR MRLM NIL=
201411290900 METAR MRLM NIL=
201411291000 METAR MRLM NIL=
201411291100 METAR MRLM NIL=
201411291200 METAR MRLM 291200Z 25005KT 9999 SCT007 SCT110 23/22 A2988=
201411291300 METAR MRLM 291300Z 26004KT 9999 4000N RA SCT007 SCT110 24/23 A2990=
201411291400 METAR MRLM 291400Z 00000KT 9999 BKN010 SCT110 25/23 A2992=
201411291500 METAR MRLM 291500Z 22004KT 9999 SCT010 SCT120 26/23 A2992=
201411291600 METAR MRLM 291600Z 23004KT 9999 SCT030 29/23 A2992=
201411291700 METAR MRLM 291700Z 06006KT 9999 SCT020 SCT130 30/23 A2991=
201411291800 METAR MRLM 291800Z 07003KT 9999 SCT020 BKN120 28/23 A2988=
201411291900 METAR MRLM 291900Z 10004KT 9999 FEW030 BKN130 29/24 A2985=
201411292000 METAR MRLM 292000Z 15005KT 9999 SCT020 28/24 A2983=
201411292100 METAR MRLM 292100Z 03004KT 9999 BKN030 SCT130 29/23 A2982=
201411292200 METAR MRLM NIL=
201411292300 METAR MRLM 292300Z 00000KT CAVOK 26/23 A2984=
201411300000 METAR MRLM 300000Z 27002KT 9999 SCT010 BKN120 24/23 A2987=
201411300100 METAR MRLM NIL=
201411300200 METAR MRLM NIL=
201411300300 METAR MRLM NIL=
201411300400 METAR MRLM NIL=
201411300500 METAR MRLM NIL=
201411300600 METAR MRLM NIL=
201411300700 METAR MRLM NIL=
201411300800 METAR MRLM NIL=
201411300900 METAR MRLM NIL=
201411301000 METAR MRLM NIL=
201411301100 METAR MRLM NIL=
201411301200 METAR MRLM 301200Z 25003KT 9999 FEW010CB 22/21 A2988=
201411301300 METAR MRLM 301300Z CAVOK 24/22 A2991=
201411301400 METAR MRLM 301400Z 01008KT 9999 DZ FEW015 SCT025 26/23 A2994=
201411301500 METAR MRLM 301500Z 24003KT 9999 FEW015 BKN025 27/23 A2994 REDZ=
201411301600 METAR MRLM 301600Z 31004KT 9999 BKN025 26/22 A2992=
201411301700 METAR MRLM 301700Z 32004KT 9999 BKN015 SCT090 26/24 A2990 RERA=
201411301800 METAR MRLM 301800Z 07004KT 9999 BKN025 SCT090 27/23 A2987=
201411301900 METAR MRLM 301900Z 03006KT 9999 SCT025 SCT120 28/23 A2984=
201411302000 METAR MRLM 302000Z 02007KT 9999 FEW025 SCT038 29/22 A2982=
201411302100 METAR MRLM 302100Z 33005KT 9999 FEW032 SCT070 29/22 A2981=
201411302200 METAR MRLM 302200Z 01005KT 9999 FEW035 BKN110 29/22 A2982=
201411302300 METAR MRLM 302300Z 23002KT CAVOK 28/24 A2983=
201411302354 METAR MRLM 010000Z 25003KT 9999 SCT015 SCT090 26/24 A2985=
201412010000 METAR MRLM 010000Z 25003KT 9999 SCT015 SCT090 26/24 A2985=
201412010100 METAR MRLM NIL=
201412010200 METAR MRLM NIL=
201412010300 METAR MRLM NIL=
201412010400 METAR MRLM NIL=
201412010500 METAR MRLM NIL=
201412010600 METAR MRLM NIL=
201412010700 METAR MRLM NIL=
201412010800 METAR MRLM NIL=
201412010900 METAR MRLM NIL=
201412011000 METAR MRLM NIL=
201412011100 METAR MRLM NIL=
201412011200 METAR MRLM 011200Z 30001KT 9999 +DZ BKN015 SCT080 23/23 A2986=
201412011300 METAR MRLM 011300Z 24003KT 9999 BKN015 24/23 A2987 REDZ=
201412011400 METAR MRLM 011400Z 24004KT 9999 BKN020 25/24 A2989=
201412011500 METAR MRLM 011500Z 02007KT 6000 RA BKN015 SCT090 25/24 A2991=
201412011600 METAR MRLM 011600Z 31003KT 3000 RA BKN015 SCT090 24/23 A2991=
201412011700 METAR MRLM 011700Z 29005KT 9999 RA SCT015 SCT090 24/24 A2986=
201412011800 METAR MRLM 011800Z 29003KT 9999 SCT030 BKN120 26/25 A2983 RERA=
201412011900 METAR MRLM 011900Z 04004KT 9999 FEW020 BKN110 28/24 A2978=
201412012000 METAR MRLM 012000Z 04006KT 9999 FEW025 SCT035 29724 A29770=
201412012100 METAR MRLM 012100Z 35008KT 9999 FEW025 SCT035 28/24 A2978=
201412012200 METAR MRLM 012200Z 33008KT 9999 FEW025 SCT035 28/23 A2978=
201412012300 METAR MRLM 012300Z 36007KT 9999 FEW035 BKN080 27/24 A2980=
201412012352 METAR MRLM 020000Z 31002KT CAVOK 26724 A2981=
201412020000 METAR MRLM 020000Z 31002KT CAVOK 26724 A2981=
201412020100 METAR MRLM NIL=
201412020200 METAR MRLM NIL=
201412020300 METAR MRLM NIL=
201412020400 METAR MRLM NIL=
201412020500 METAR MRLM NIL=
201412020600 METAR MRLM NIL=
201412020700 METAR MRLM NIL=
201412020800 METAR MRLM NIL=
201412020900 METAR MRLM NIL=
201412021000 METAR MRLM NIL=
201412021100 METAR MRLM NIL=
201412021200 METAR MRLM 021200Z 24003KT 9999 -DZ SCT007 BKN090 24/23 A2981=
201412021300 METAR MRLM 021300Z 18004KT 9999 DZ SCT007 BKN090 24/23 A2982=
201412021400 METAR MRLM 021400Z 25003KT 9999 FEW010 BKN110 26/24 A2983=
201412021500 METAR MRLM 021500Z 02007KT 9999 SCT010 SCT110 27/25 A2983=
201412021600 METAR MRLM 021600Z 34010KT 9999 FEW025 BKN130 28/23 A2983=
201412021700 METAR MRLM 021700Z 34012KT 9999 SCT030 BKN130 28/23 A2982=
201412021800 METAR MRLM 021800Z 33015KT 9999 BKN020 27/23 A2980=
201412021900 METAR MRLM 021900Z 34013KT 9999 SCT020 BKN130 28/24 A2977=
201412022000 METAR MRLM 022000Z 34013KT 9999 BKN015 27/23 A2977=
201412022100 METAR MRLM 022100Z 34009KT 9999 OVC015 27/24 A2976=
201412022130 METAR MRLM 022130Z 32008KT 8000 3000N +DZ OVC010 26/24 A2976=
201412022200 METAR MRLM 022200Z 34007KT 8000 DZ BKN007 25/24 A2976=
201412022300 METAR MRLM 022300Z 29004KT 9999 -DZ OVC006 25/24 A2978=
201412030000 METAR MRLM 030000Z 30005KT 8000 -DZ FEW005 OVC007 25/24 A2981=
201412030100 METAR MRLM NIL=
201412030200 METAR MRLM NIL=
201412030300 METAR MRLM NIL=
201412030400 METAR MRLM NIL=
201412030500 METAR MRLM NIL=
201412030600 METAR MRLM NIL=
201412030700 METAR MRLM NIL=
201412030800 METAR MRLM NIL=
201412030900 METAR MRLM NIL=
201412031000 METAR MRLM NIL=
201412031100 METAR MRLM NIL=
201412031200 METAR MRLM 031200Z 25003KT 7000 DZ BKN007 23/22 A2984=
201412031300 METAR MRLM 031300Z 25004KT 8000 DZ BKN007 23/23 A2985=
201412031400 METAR MRLM 031400Z 27005KT 9999 -DZ BKN010 24/23 A2986=
201412031500 METAR MRLM 031500Z 29004KT 6000 2000N RA OVC010 25/24 A2987=
201412031600 METAR MRLM 031600Z 28005KT 9999 -DZ FEW006 BKN010 25/24 A2987 RERA=
201412031700 METAR MRLM 031700Z 26006KT 9999 DZ BKN010 26/24 A2984=
201412031800 METAR MRLM 031800Z 29006KT 8000 DZ BKN010 25/24 A2983 RERA=
201412031900 METAR MRLM 031900Z 32006KT 5000 2000N RA OVC007 25/23 A2981=
201412031910 METAR MRLM 031910Z 17003KT 2000 SHRA OVC007 24/23 A2980=
201412032000 METAR MRLM 032000Z 29005KT 8000 DZ FEW006 BKN010 24/23 A2979 RERA=
201412032100 METAR MRLM 032100Z 02003KT 2000 +RA OVC007 24/23 A2978=
201412032200 METAR MRLM 032200Z 25005KT 8000 2000N DZ BKN007 24/23 A2978=
201412032210 METAR MRLM 032210Z 27004KT 1000 +RA OVC006 24/23 A2979=
201412032300 METAR MRLM 032300Z 25005KT 7000 3000N RA FEW005 OVC007 23/23 A2979=
201412040000 METAR MRLM 040000Z 26005KT 7000 3000N DZ OVC007 23/23 A2980 RERA=
201412040100 METAR MRLM NIL=
201412040200 METAR MRLM NIL=
201412040300 METAR MRLM NIL=
201412040400 METAR MRLM NIL=
201412040500 METAR MRLM NIL=
201412040600 METAR MRLM NIL=
201412040700 METAR MRLM NIL=
201412040800 METAR MRLM NIL=
201412040900 METAR MRLM NIL=
201412041000 METAR MRLM NIL=
201412041100 METAR MRLM NIL=
201412041200 METAR MRLM 041200Z 25005KT 9999 SCT035 SCT090 23/22 A2985=
201412041300 METAR MRLM 041300Z 25005KT 9999 FEW035 BKN080 23/23 A2985=
201412041400 METAR MRLM 041400Z 03004KT 9999 SCT035 SCT090 25/23 A2988=
201412041500 METAR MRLM NIL=
201412041600 METAR MRLM 041600Z 34006KT 9999 BKN020 27/23 A2989=
201412041700 METAR MRLM 041700Z 35010KT 9999 FEW015 SCT025 27/23 A2982=
201412041800 METAR MRLM 041800Z 32004KT 9999 OVC020 27/23 A2984=
201412041900 METAR MRLM 041900Z 31005KT 9999 BKN025 28/23 A2982=
201412042000 METAR MRLM 042000Z 36012KT 9999 SCT015 SCT025 27/23 A2981=
201412042100 METAR MRLM 042100Z 33008KT 9999 DZ FEW015 BKN025 26/23 A2981=
201412042200 METAR MRLM 042200Z 29003KT 9999 BKN030 26/23 A2981 REDZ=
201412042300 METAR MRLM 042300Z 30003KT 9999 SCT020 SCT080 25/23 A2983=
201412042352 METAR MRLM 050000Z 33005KT 9999 BKN020 25/23 A2984=
201412050000 METAR MRLM 050000Z 33005KT 9999 BKN020 25/23 A2984=
201412050100 METAR MRLM NIL=
201412050200 METAR MRLM NIL=
201412050300 METAR MRLM NIL=
201412050400 METAR MRLM NIL=
201412050500 METAR MRLM NIL=
201412050600 METAR MRLM NIL=
201412050700 METAR MRLM NIL=
201412050800 METAR MRLM NIL=
201412050900 METAR MRLM NIL=
201412051000 METAR MRLM NIL=
201412051100 METAR MRLM NIL=
201412051200 METAR MRLM 051200Z 28006KT 2000 RA BKN015 24/23 A2989=
201412051300 METAR MRLM 051300Z 28007KT 8000 RA SCT005 SCT090 23/23 A2991=
201412051400 METAR MRLM 051400Z 27005KT 9999 RA SCT010 BKN090 23/23 A2991=
201412051500 METAR MRLM 051500Z 29002KT 9999 +DZ FEW015 BKN120 24/23 A2990=
201412051600 METAR MRLM 051600Z 01002KT 9999 SCT025 SCT090 26/24 A2991 REDZ=
201412051700 METAR MRLM 051700Z 31008KT 9999 FEW012 SCT025 27/24 A2990=
201412051800 METAR MRLM 051800Z 32010KT 9999 FEW010 BKN020 27/24 A2989=
201412051900 METAR MRLM 051900Z 32008KT 9999 FEW020 BKN070 27/24 A2985=
201412052000 METAR MRLM 052000Z 34008KT 9999 FEW020 BKN032 28/24 A2984=
201412052100 METAR MRLM 052100Z 33006KT 9999 FEW013 BKN025 27/24 A2983=
201412052200 METAR MRLM 052200Z 30006KT 9999 BKN030 27/24 A2983=
201412052300 METAR MRLM 052300Z 31008KT 9999 BKN025 26/23 A2985=
201412052353 METAR MRLM 060000Z 29004KT 9999 BKN025 25/23 A2986=
201412060000 METAR MRLM 060000Z 29004KT 9999 BKN025 25/23 A2986=
201412060100 METAR MRLM NIL=
201412060200 METAR MRLM NIL=
201412060300 METAR MRLM NIL=
201412060400 METAR MRLM NIL=
201412060500 METAR MRLM NIL=
201412060600 METAR MRLM NIL=
201412060700 METAR MRLM NIL=
201412060800 METAR MRLM NIL=
201412060900 METAR MRLM NIL=
201412061000 METAR MRLM NIL=
201412061100 METAR MRLM NIL=
201412061200 METAR MRLM 061200Z 25004KT 9999 SCT010 BKN090 24/23 A2990=
201412061300 METAR MRLM 061300Z 27003KT 9999 SCT010 BKN100 24/23 A2991=
201412061400 METAR MRLM 061400Z 26005KT 9999 SCT010 BKN110 25/24 A2992=
201412061500 METAR MRLM 061500Z 05003KT 8000 DZ OVC010 26/24 A2994=
201412061600 METAR MRLM 061600Z 31004KT 9999 BKN010 26/24 A2993 REDZ=
201412061700 METAR MRLM 061700Z 00000KT 9999 SCT020 SCT130 30/25 A2992=
201412061800 METAR MRLM 061800Z 17004KT 9999 SCT020 SCT250 29/24 A2989=
201412061900 METAR MRLM 061900Z 09003KT 9999 DZ BKN015 29/24 A2987=
201412061920 METAR MRLM 061920Z 04016KT 5000 RA OVC010 26/24 A2987=
201412062000 METAR MRLM 062000Z 06006KT 9999 -DZ BKN007 25/24 A2986=
201412062100 METAR MRLM 062100Z 24004KT 9999 BKN010 SCT120 25/24 A2986=
201412062200 METAR MRLM 062200Z 27003KT 9999 SCT010 SCT120 25/24 A2985=
201412062300 METAR MRLM 062300Z 22003KT 9999 BKN007 25/24 A2987=
201412070000 METAR MRLM 070000Z 30003KT 8000 DZ BKN007 25/24 A2987=
201412070100 METAR MRLM NIL=
201412070200 METAR MRLM NIL=
201412070300 METAR MRLM NIL=
201412070400 METAR MRLM NIL=
201412070500 METAR MRLM NIL=
201412070600 METAR MRLM NIL=
201412070700 METAR MRLM NIL=
201412070800 METAR MRLM NIL=
201412070900 METAR MRLM NIL=
201412071000 METAR MRLM NIL=
201412071100 METAR MRLM NIL=
201412071200 METAR MRLM 071200Z 31008KT 7000 DZ OVC007 23/23 A2991=
201412071300 METAR MRLM 071300Z 30006KT 7000 DZ BKN007 23/23 A2993=
201412071400 METAR MRLM 071400Z 25003KT 7000 3000N DZ FEW005 BKN007 24/23 A2995=
201412071500 METAR MRLM 071500Z 27004KT 9999 DZ BKN010 24/23 A2997=
201412071600 METAR MRLM 071600Z 27003KT 7000 DZ FEW005 BKN010 25/24 A2996=
201412071700 METAR MRLM 071700Z 33005KT 9999 DZ OVC007 24/23 A2995=
201412071800 METAR MRLM 071800Z 01002KT 9999 BKN010 25/23 A2992 REDZ=
201412071900 METAR MRLM 071900Z 03007KT 6000 2000SE RA FEW007 BKN010 25/23 A2989=
201412072000 METAR MRLM 072000Z 35006KT 9999 -DZ BKN010 SCT100 24/23 A2987 RERA=
201412072100 METAR MRLM 072100Z 28004KT 9999 -DZ VCSH BKN007 SCT100 25/23 A2986=
201412072200 METAR MRLM 072200Z 30004KT 8000 DZ FEW005 BKN007 24/23 A2986=
201412072300 METAR MRLM 072300Z 26004KT 5000 +DZ BKN007 23/22 A2987=
201412080000 METAR MRLM 080000Z 26004KT 5000 DZ BKN007 23/22 A2987=
201412080100 METAR MRLM NIL=
201412080200 METAR MRLM NIL=
201412080300 METAR MRLM NIL=
201412080400 METAR MRLM NIL=
201412080500 METAR MRLM NIL=
201412080600 METAR MRLM NIL=
201412080700 METAR MRLM NIL=
201412080800 METAR MRLM NIL=
201412080900 METAR MRLM NIL=
201412081000 METAR MRLM NIL=
201412081100 METAR MRLM NIL=
201412081200 METAR MRLM 081200Z 33004KT CAVOK 23/21 A2991=
201412081300 METAR MRLM 081300Z 32003KT CAVOK 24/21 A2993=
201412081400 METAR MRLM 081400Z 29004KT CAVOK 25/21 A2995=
201412081500 METAR MRLM 081500Z 33007KT 9999 FEW025 BKN080 26/22 A2995=
201412081600 METAR MRLM 081600Z 33010KT 9999 SCT018 SCT080 26/22 A2996=
201412081700 METAR MRLM 081700Z 34009KT 9999 BKN015 25/22 A2995=
201412081800 METAR MRLM 081800Z 33010KT 9999 BKN015 SCT100 25/22 A2993=
201412081900 METAR MRLM 081900Z 34007KT 9999 BKN015 SCT100 26/22 A2991=
201412082000 METAR MRLM 082000Z 35009KT 9999 DZ FEW015 BKN100 25/22 A2989=
201412082100 METAR MRLM 082100Z 33007KT CAVOK 25/22 A2987=
201412082200 METAR MRLM 08220Z 31008KT 9999 FEW015 BKN090 25722 A2986=
201412082202 METAR MRLM 08220Z 31008KT 9999 FEW015 BKN090 25722 A2986=
201412082300 METAR MRLM 082300Z 30006KT 9999 FEW010 BKN090 24/22 A2989=
201412082352 METAR MRLM 090000Z 34006KT 9999 DZ FEW015 BKN090 23/21 A2991=
201412090000 METAR MRLM 090000Z 34006KT 9999 DZ FEW015 BKN090 23/21 A2991=
201412090100 METAR MRLM NIL=
201412090200 METAR MRLM NIL=
201412090300 METAR MRLM NIL=
201412090400 METAR MRLM NIL=
201412090500 METAR MRLM NIL=
201412090600 METAR MRLM NIL=
201412090700 METAR MRLM NIL=
201412090800 METAR MRLM NIL=
201412090900 METAR MRLM NIL=
201412091000 METAR MRLM NIL=
201412091100 METAR MRLM NIL=
201412091200 METAR MRLM 091200Z 27008KT 9999 FEW005 SCT015 BKN100 22/21 A2993=
201412091300 METAR MRLM 091300Z 28006KT 9999 DZ FEW004 BKN100 22/21 A2994=
201412091400 METAR MRLM 091400Z 28006KT 9999 BKN015 SCT090 23/22 A2995 REDZ=
201412091500 METAR MRLM 091500Z 30006KT 9999 OVC015 24/21 A2996=
201412091600 METAR MRLM 091600Z 31007KT 9999 BKN020 SCT140 26/22 A2996=
201412091700 METAR MRLM 091700Z 30007KT 9999 FEW025 BKN090 27/22 A2994=
201412091800 METAR MRLM 091800Z 30007KT 9999 FEW030 SCT080 28/22 A2991=
201412091900 METAR MRLM 091900Z 34008KT 9999 BKN035TCU 29722 A2989=
201412092000 METAR MRLM 092000Z 34007KT 9999 SCT040 SCT090 30/22 A2987=
201412092100 METAR MRLM 092100Z 33008KT 9999 SCT025 SCT080 28/23 A2987=
201412092200 METAR MRLM 092200Z 33008KT 9999 SCT015 SCT022 25/22 A2988=
201412092300 METAR MRLM 092300Z 28006KT 9999 +DZ FEW010 BKN015 24/22 A2989=
201412092351 METAR MRLM 10000Z 26005KT 9999 OVC015 23/22 A2990 REDZ0=
201412100000 METAR MRLM 10000Z 26005KT 9999 OVC015 23/22 A2990 REDZ0=
201412100100 METAR MRLM NIL=
201412100200 METAR MRLM NIL=
201412100300 METAR MRLM NIL=
201412100400 METAR MRLM NIL=
201412100500 METAR MRLM NIL=
201412100600 METAR MRLM NIL=
201412100700 METAR MRLM NIL=
201412100800 METAR MRLM NIL=
201412100900 METAR MRLM NIL=
201412101000 METAR MRLM NIL=
201412101100 METAR MRLM NIL=
201412101200 METAR MRLM 101200Z 27004KT 9999 FEW010 BKN110 23/20 A2992=
201412101300 METAR MRLM 101300Z 29004KT 9999 FEW020 BKN120 25/21 A2994=
201412101400 METAR MRLM 101400Z 29007KT 9999 FEW030 BKN130 26/20 A2996=
201412101500 METAR MRLM 101500Z 32007KT 9999 FEW025 BKN120 26/21 A2998=
201412101600 METAR MRLM 101600Z 32007KT 9999 SCT020 BKN110 25/21 A2998=
201412101700 METAR MRLM 101700Z 29005KT 9999 SCT025 SCT120 27/22 A2996=
201412101800 METAR MRLM 101800Z 33008KT 9999 SCT030 SCT130 28/22 A2993=
201412101900 METAR MRLM 101900Z 36016KT 9999 BKN020 SCT120 27/23 A2991=
201412102000 METAR MRLM 102000Z 32005KT 9999 FEW030 BKN120 27/21 A2988=
201412102100 METAR MRLM 102100Z 33008KT 9999 FEW020 BKN120 26/22 A2987=
201412102200 METAR MRLM 102200Z 30004KT 9999 FEW015 BKN120 25/22 A2987=
201412102300 METAR MRLM 102300Z 31004KT 9999 FEW015 BKN110 24/21 A2988=
201412110000 METAR MRLM 110000Z 30006KT 9999 FEW010 BKN100 23/21 A2990=
201412110100 METAR MRLM NIL=
201412110200 METAR MRLM NIL=
201412110300 METAR MRLM NIL=
201412110400 METAR MRLM NIL=
201412110500 METAR MRLM NIL=
201412110600 METAR MRLM NIL=
201412110700 METAR MRLM NIL=
201412110800 METAR MRLM NIL=
201412110900 METAR MRLM NIL=
201412111000 METAR MRLM NIL=
201412111100 METAR MRLM NIL=
201412111200 METAR MRLM 111200Z 30006KT 9999 -DZ SCT010 BKN110 22/21 A2995=
201412111300 METAR MRLM 111300Z 28006KT 9999 FEW010 BKN110 23/21 A2996=
201412111400 METAR MRLM 111400Z 31006KT 9999 FEW015 BKN120 24/22 A2998=
201412111500 METAR MRLM 111500Z 30006KT CAVOK 26/22 A2999=
201412111600 METAR MRLM 111600Z 32006KT CAVOK 28/22 A2999=
201412111700 METAR MRLM 111700Z 32008KT CAVOK 29/22 A2997=
201412111800 METAR MRLM 111800Z 34008KT 9999 FEW040 BKN140 29/21 A2995=
201412111900 METAR MRLM 111900Z 33007KT 9999 FEW035 BKN130 30/22 A2992=
201412112000 METAR MRLM 112000Z 33006KT 9999 SCT030 SCT130 29/22 A2990=
201412112100 METAR MRLM 112100Z 32006KT 9999 SCT025 BKN130 29/22 A2988=
201412112200 METAR MRLM 112200Z 32007KT 9999 FEW020 BKN130 27/23 A2989=
201412112300 METAR MRLM 112300Z 23008KT 9999 BKN015 26/23 A2992=
201412112330 METAR MRLM 112330Z 30007KT 2000 +RA OVC010 25/23 A2993=
201412120000 METAR MRLM 120000Z 27005KT 4000 DZ OVC010 24/23 A2993 RERA=
201412120100 METAR MRLM NIL=
201412120200 METAR MRLM NIL=
201412120300 METAR MRLM NIL=
201412120400 METAR MRLM NIL=
201412120500 METAR MRLM NIL=
201412120600 METAR MRLM NIL=
201412120700 METAR MRLM NIL=
201412120800 METAR MRLM NIL=
201412120900 METAR MRLM NIL=
201412121000 METAR MRLM NIL=
201412121100 METAR MRLM NIL=
201412121200 METAR MRLM 121200Z 29010KT 8000 +DZ BKN004 SCT020 22/22 A2995=
201412121300 METAR MRLM 121300Z 30010KT 5000 RA SCT004 SCT015 22/21 A2998=
201412121400 METAR MRLM 121400Z 29010KT 5000 RA FEW004 BKN015 22/21 A3000=
201412121500 METAR MRLM 121500Z 29009KT 5000 RA FEW004 BKN012 22/21 A3001=
201412121600 METAR MRLM 121600Z 29009KT 8000 RA FEW004 BKN015 22/21 A3000=
201412121700 METAR MRLM 121700Z 30010KT 9999 DZ FEW007 BKN015 23/22 A2999 RERA=
201412121800 METAR MRLM 121800Z 30008KT 9999 BKN020 24/22 A2997=
201412121900 METAR MRLM 121900Z 30008KT 9999 BKN020 24/22 A2995=
201412122000 METAR MRLM 122000Z 31008KT 6000 RA BKN020 SCT090 23/22 A2991=
201412122100 METAR MRLM 122100Z 31009KT 8000 RA BKN020 SCT100 23/22 A2989=
201412122200 METAR MRLM 122200Z 29007KT 9999 DZ OVC015 23/22 A2991 RERA=
201412122300 METAR MRLM 122300Z 31007KT 8000 VCSH BKN010 23/22 A2992 REDZ=
201412122357 METAR MRLM 130000Z 29007KT 5000 RA OVC010 23/22 A2994=
201412130000 METAR MRLM 130000Z 29007KT 5000 RA OVC010 23/22 A2994=
201412130100 METAR MRLM NIL=
201412130200 METAR MRLM NIL=
201412130300 METAR MRLM NIL=
201412130400 METAR MRLM NIL=
201412130500 METAR MRLM NIL=
201412130600 METAR MRLM NIL=
201412130700 METAR MRLM NIL=
201412130800 METAR MRLM NIL=
201412130900 METAR MRLM NIL=
201412131000 METAR MRLM NIL=
201412131100 METAR MRLM NIL=
201412131200 METAR MRLM 131200Z 31009KT 5000 RA BKN015 22/21 A2995=
201412131300 METAR MRLM 131300Z 31008KT 6000 RA BKN015 22/21 A2997=
201412131400 METAR MRLM 131400Z 29007KT 7000 RA SCT025 SCT100 22/21 A2999=
201412131500 METAR MRLM 131500Z 29007KT 8000 RA SCT025 BKN100 22/21 A2999=
201412131600 METAR MRLM 131600Z 32006KT 9999 +DZ BKN015 SCT100 23/21 A2999 RERA=
201412131700 METAR MRLM 131700Z 30010KT 9999 +DZ SCT025 BKN100 23/21 A29960=
201412131800 METAR MRLM 131800Z 31006KT 9999 +DZ FEW025 BKN100 23/22 A2994=
201412131900 METAR MRLM 131900Z 31009KT 9999 FEW025 SCT090 25/22 A2988 REDZ=
201412132000 METAR MRLM 132000Z 32010KT 9999 DZ FEW015 SCT080 25/22 A2985=
201412132100 METAR MRLM 132100Z 32010KT 9999 SCT015 SCT090 25/22 A2986 REDZ=
201412132200 METAR MRLM 132200Z 31008KT 9999 +DZ FEW015 BKN090 24/22 A2986=
201412132300 METAR MRLM 132300Z 34005KT 9999 DZ FEW010 SCT020 24/22 A2988=
201412132352 METAR MRLM 140000Z 31007KT 9999 BKN015 24/22 A2989 REDZ=
201412140000 METAR MRLM 140000Z 31007KT 9999 BKN015 24/22 A2989 REDZ=
201412140100 METAR MRLM NIL=
201412140200 METAR MRLM NIL=
201412140300 METAR MRLM NIL=
201412140400 METAR MRLM NIL=
201412140500 METAR MRLM NIL=
201412140600 METAR MRLM NIL=
201412140700 METAR MRLM NIL=
201412140800 METAR MRLM NIL=
201412140900 METAR MRLM NIL=
201412141000 METAR MRLM NIL=
201412141100 METAR MRLM NIL=
201412141200 METAR MRLM 141200Z 30010KT 8000 DZ SCT015 BKN100 23/19 A2992=
201412141300 METAR MRLM 141300Z 31006KT 8000 DZ BKN015 SCT100 23/20 A2994=
201412141400 METAR MRLM 141400Z 30010KT 9999 SCT020 BKN120 23/19 A2996 REDZ=
201412141500 METAR MRLM 141500Z 30010KT 9999 DZ SCT020 BKN120 23/19 A2997=
201412141600 METAR MRLM 141600Z 29010KT 9999 FEW020 BKN120 24/19 A2996 REDZ=
201412141700 METAR MRLM 141700Z 31008KT 4000 +DZ OVC015 22/20 A2996=
201412141800 METAR MRLM 141800Z 28006KT 6000 DZ BKN010 22/21 A2993=
201412141900 METAR MRLM 141900Z 30005KT 6000 DZ BKN010 SCT100 22/20 A2990=
201412142000 METAR MRLM 142000Z 31006KT 9999 DZ SCT015 BKN110 22/21 A2987=
201412142100 METAR MRLM 142100Z 31007KT 9999 DZ SCT010 BKN110 23/21 A2984=
201412142200 METAR MRLM 142200Z 31009KT 9999 DZ FEW010 BKN120 23/21 A2984=
201412142300 METAR MRLM 142300Z 30009KT 9999 DZ FEW010 BKN120 23/21 A2985=
201412150000 METAR MRLM 150000Z 30007KT 9999 DZ SCT010 BKN110 23/21 A2987=
201412150100 METAR MRLM NIL=
201412150200 METAR MRLM NIL=
201412150300 METAR MRLM NIL=
201412150400 METAR MRLM NIL=
201412150500 METAR MRLM NIL=
201412150600 METAR MRLM NIL=
201412150700 METAR MRLM NIL=
201412150800 METAR MRLM NIL=
201412150900 METAR MRLM NIL=
201412151000 METAR MRLM NIL=
201412151100 METAR MRLM NIL=
201412151200 METAR MRLM 151200Z 30007KT 9999 FEW010 BKN100 23/19 A2992=
201412151300 METAR MRLM 151300Z 31008KT 9999 FEW020 BKN110 24/19 A2994=
201412151400 METAR MRLM 151400Z 31009KT 9999 FEW025 BKN130 25/19 A2996=
201412151500 METAR MRLM 151500Z 31010KT CAVOK 25/19 A2997=
201412151600 METAR MRLM 151600Z 30010KT CAVOK 26/20 A2996=
201412151700 METAR MRLM 151700Z 31010KT CAVOK 27/20 A2994=
201412151800 METAR MRLM 151800Z 30009KT 9999 FEW030 BKN130 27/20 A2991=
201412151900 METAR MRLM 151900Z 31009KT CAVOK 28/20 A2988=
201412152000 METAR MRLM 152000Z 32009KT 9999 FEW035 BKN130 28/20 A2986=
201412152100 METAR MRLM 152100Z 34011KT 9999 FEW030 BKN140 27/20 A2986=
201412152200 METAR MRLM 152200Z 34009KT 9999 SCT030 BKN130 27/21 A2987=
201412152300 METAR MRLM 152300Z 33008KT 9999 SCT020 BKN120 26/21 A2990=
201412160000 METAR MRLM 160000Z 31006KT 9999 SCT015 SCT100 25/21 A2992=
201412160100 METAR MRLM NIL=
201412160200 METAR MRLM NIL=
201412160300 METAR MRLM NIL=
201412160400 METAR MRLM NIL=
201412160500 METAR MRLM NIL=
201412160600 METAR MRLM NIL=
201412160700 METAR MRLM NIL=
201412160800 METAR MRLM NIL=
201412160900 METAR MRLM NIL=
201412161000 METAR MRLM NIL=
201412161100 METAR MRLM NIL=
201412161200 METAR MRLM 161200Z 32005KT 9999 BKN020 25/18 A2994=
201412161300 METAR MRLM 161300Z 32005KT 9999 BKN025 24/19 A2996=
201412161400 METAR MRLM 161400Z 32007KT 9999 BKN030 25/20 A3000=
201412161500 METAR MRLM 161500Z 31009KT 9999 DZ BKN035 SCT090 25/20 A3001=
201412161600 METAR MRLM 161600Z 31013KT 9999 BKN035 SCT080 26/20 A3000 REDZ=
201412161700 METAR MRLM 161700Z 32012KT 9999 BKN035 26/21 A2998=
201412161800 METAR MRLM 161800Z 31012KT 9999 BKN035 26/21 A2995=
201412161900 METAR MRLM 161900Z 31011KT 9999 BKN030 26/21 A2993=
201412162000 METAR MRLM 162000Z 31012KT 9999 BKN025 26/21 A2992=
201412162100 METAR MRLM 162100Z 30010KT 9999 DZ BKN020 25/21 A2992=
201412162200 METAR MRLM 162200Z 30007KT 9999 DZ SCT015 BKN090 25/22 A2992=
201412162300 METAR MRLM 162300Z 31007KT 8000 DZ VCSH SCT015 BKN090 24/21 A2994=
201412162359 METAR MRLM 170000Z 30008KT 4000 +RA BKN010 SCT080 22/22 A2995=
201412170000 METAR MRLM 170000Z 30008KT 4000 +RA BKN010 SCT080 22/22 A2995=
201412170100 METAR MRLM NIL=
201412170200 METAR MRLM NIL=
201412170300 METAR MRLM NIL=
201412170400 METAR MRLM NIL=
201412170500 METAR MRLM NIL=
201412170600 METAR MRLM NIL=
201412170700 METAR MRLM NIL=
201412170800 METAR MRLM NIL=
201412170900 METAR MRLM NIL=
201412171000 METAR MRLM NIL=
201412171100 METAR MRLM NIL=
201412171200 METAR MRLM 171200Z 30007KT 9999 +DZ BKN015 23/20 A2997=
201412171300 METAR MRLM 171300Z 31007KT 9999 DZ OVC015 23/20 A2999=
201412171400 METAR MRLM 171400Z 31010KT 9999 DZ OVC015 23/21 A3001=
201412171500 METAR MRLM 171500Z 29008KT 9999 DZ BKN015 23/21 A3002=
201412171600 METAR MRLM 171600Z 3107KT 9999 DZ OVC015 24/22 A3001=
201412171700 METAR MRLM 171700Z 31008KT 5000 RA SCT005 BKN010 24/22 A2999 REDZ=
201412171800 METAR MRLM 171800Z 28010KT 9999 DZ FEW005 BKN020 25/23 A2995 RERA=
201412171900 METAR MRLM 171900Z 30010KT 9999 FEW008 BKN015 25/22 A2993 REDZ=
201412172000 METAR MRLM 172000Z 31009KT 9999 FEW005 BKN015 24/22 A2999=
201412172100 METAR MRLM 172100Z 2907KT 9999 FEW010 BKN015 24/22 A2990=
201412172200 METAR MRLM 172200Z 31007KT 9999 SCT015 SCT070 25/22 A29900=
201412172300 METAR MRLM 172300Z 31006KT 9999 SCT1500 SCT080 25/22 A2991=
201412172351 METAR MRLM 180000Z 30005KT 9999 BKN025 24/22 A2992=
201412180000 METAR MRLM 180000Z 30005KT 9999 BKN025 24/22 A2992=
201412180100 METAR MRLM NIL=
201412180200 METAR MRLM NIL=
201412180300 METAR MRLM NIL=
201412180400 METAR MRLM NIL=
201412180500 METAR MRLM NIL=
201412180600 METAR MRLM NIL=
201412180700 METAR MRLM NIL=
201412180800 METAR MRLM NIL=
201412180900 METAR MRLM NIL=
201412181000 METAR MRLM NIL=
201412181100 METAR MRLM NIL=
201412181200 METAR MRLM 181200Z 30004KT CAVOK 23/22 A2994=
201412181300 METAR MRLM 181300Z 29008KT 9999 FEW010 BKN120 24/22 A2995=
201412181400 METAR MRLM 181400Z 30005KT 9999 FEW015 BKN130 25/23 A2998=
201412181500 METAR MRLM 181500Z 31008KT CAVOK 27/23 A2998=
201412181600 METAR MRLM 181600Z 31008KT CAVOK 28/23 A2997=
201412181700 METAR MRLM 181700Z 32006KT CAVOK 29/23 A2995=
201412181800 METAR MRLM 181800Z 35008KT CAVOK 30/23 A2992=
201412181900 METAR MRLM 181900Z 02007KT 9999 FEW025 SCT140 29/24 A2989=
201412182000 METAR MRLM 182000Z 36010KT CAVOK 29/23 A2987=
201412182100 METAR MRLM 182100Z 35009KT CAVOK 29/23 A2986=
201412182200 METAR MRLM 182200Z 34010KT CAVOK 28/23 A2985=
201412182300 METAR MRLM 182300Z 33007KT 9999 FEW015 BKN120 26/24 A2987=
201412190000 METAR MRLM 190000Z 31005KT CAVOK 25/24 A2988=
201412190100 METAR MRLM NIL=
201412190200 METAR MRLM NIL=
201412190300 METAR MRLM NIL=
201412190400 METAR MRLM NIL=
201412190500 METAR MRLM NIL=
201412190600 METAR MRLM NIL=
201412190700 METAR MRLM NIL=
201412190800 METAR MRLM NIL=
201412190900 METAR MRLM NIL=
201412191000 METAR MRLM NIL=
201412191100 METAR MRLM NIL=
201412191200 METAR MRLM 191200Z 26002KT CAVOK 21/21 A2989=
201412191300 METAR MRLM 191300Z 25004KT CAVOK 22/21 A2991=
201412191400 METAR MRLM 191400Z 27004KT CAVOK 25/23 A2993=
201412191500 METAR MRLM 191500Z 31002KT CAVOK 28/22 A2995=
201412191600 METAR MRLM 191600Z 32004KT 9999 FEW025 BKN120 27/22 A2996=
201412191700 METAR MRLM 191700Z 36006KT 9999 SCT025 BKN120 28/22 A2995=
201412191800 METAR MRLM 191800Z 01007KT 9999 SCT020 BKN110 27/23 A2993=
201412191835 METAR MRLM 191835Z 05011KT 4000 DZ BKN010 25/23 A2992=
201412191900 METAR MRLM 191900Z 06011KT 6000 DZ BKN010 SCT090 24/22 A2991=
201412192000 METAR MRLM 192000Z 03003KT 9999 FEW015 BKN110 26/23 A2987 REDZ=
201412192100 METAR MRLM 192100Z 08003KT 9999 FEW020 BKN130 28/24 A2985=
201412192200 METAR MRLM 192200Z 09003KT CAVOK 28/24 A2984=
201412192300 METAR MRLM 192300Z 00000KT 9999 FEW025 BKN120 28/23 A2986=
201412200000 METAR MRLM 200000Z 29002KT CAVOK 25/23 A2988=
201412200100 METAR MRLM NIL=
201412200200 METAR MRLM NIL=
201412200300 METAR MRLM NIL=
201412200400 METAR MRLM NIL=
201412200500 METAR MRLM NIL=
201412200600 METAR MRLM NIL=
201412200700 METAR MRLM NIL=
201412200800 METAR MRLM NIL=
201412200900 METAR MRLM NIL=
201412201000 METAR MRLM NIL=
201412201100 METAR MRLM NIL=
201412201200 METAR MRLM 201200Z 22004KT 9999 FEW015 SCT090 22/21 A2990=
201412201300 METAR MRLM 201300Z 24004KT 9999 FEW020 SCT140 24/22 A2992=
201412201400 METAR MRLM 201400Z 23003KT CAVOK 27/23 A2995=
201412201500 METAR MRLM 201500Z 08003KT 9999 FEW025 29/24 A2996=
201412201600 METAR MRLM 201600Z 10003KT 9999 FEW030 29/23 A2995=
201412201700 METAR MRLM 201700Z 08005KT 9999 FEW025 29/24 A2993=
201412201800 METAR MRLM 201800Z 06005KT 9999 FEW025 29/24 A2991=
201412201900 METAR MRLM 201900Z 03007KT 9999 FEW025 29/23 A2988=
201412202000 METAR MRLM 202000Z 02005KT 9999 SCT025 29/24 A2987=
201412202100 METAR MRLM 202100Z 02004KT 9999 SCT025 29/24 A2986=
201412202200 METAR MRLM 202200Z 02006KT 9999 BKN025 28/23 A2987=
201412202300 METAR MRLM 202300Z 03004KT 9999 BKN022 28/23 A2988=
201412202354 METAR MRLM 210000Z 28002KT 9999 SCT015 25/23 A2990=
201412210000 METAR MRLM 210000Z 28002KT 9999 SCT015 25/23 A2990=
201412210100 METAR MRLM NIL=
201412210200 METAR MRLM NIL=
201412210300 METAR MRLM NIL=
201412210400 METAR MRLM NIL=
201412210500 METAR MRLM NIL=
201412210600 METAR MRLM NIL=
201412210700 METAR MRLM NIL=
201412210800 METAR MRLM NIL=
201412210900 METAR MRLM NIL=
201412211000 METAR MRLM NIL=
201412211100 METAR MRLM NIL=
201412211200 METAR MRLM 211200Z 26002KT CAVOK 23/22 A2992=
201412211300 METAR MRLM 211300Z 27002KT CAVOK 24/23 A2993=
201412211400 METAR MRLM 211400Z 02002KT CAVOK 27/23 A2996=
201412211500 METAR MRLM 211500Z 33005KT CAVOK 28/22 A2997=
201412211600 METAR MRLM 211600Z 02005KT 9999 FEW030 BKN070 28/22 A2997=
201412211700 METAR MRLM 211700Z 01006KT 9999 FEW035 BKN080 29/22 A2995=
201412211800 METAR MRLM 211800Z 04006KT 9999 FEW030 BKN080 29/23 A2992=
201412211900 METAR MRLM 211900Z 05004KT 9999 FEW025 BKN090 29/24 A29890=
201412212000 METAR MRLM 212000Z 10004KT 9999 FEW030 BKN080 28/22 A2987=
201412212100 METAR MRLM 212100Z 07005KT 9999 SCT025 BKN080 28/22 A2987=
201412212200 METAR MRLM 212200Z 08006KT 9999 SCT025 SCT090 28/23 A2986=
201412212300 METAR MRLM 212300Z 08009KT 9999 SCT020 SCT090 27/22 A2987=
201412212353 METAR MRLM 220000Z 10003KT 9999 FEW020 SCT090 SCT280 26/22 A2988=
201412220000 METAR MRLM 220000Z 10003KT 9999 FEW020 SCT090 SCT280 26/22 A2988=
201412220100 METAR MRLM NIL=
201412220200 METAR MRLM NIL=
201412220300 METAR MRLM NIL=
201412220400 METAR MRLM NIL=
201412220500 METAR MRLM NIL=
201412220600 METAR MRLM NIL=
201412220700 METAR MRLM NIL=
201412220800 METAR MRLM NIL=
201412220900 METAR MRLM NIL=
201412221000 METAR MRLM NIL=
201412221100 METAR MRLM NIL=
201412221200 METAR MRLM 221200Z 25005KT CAVOK 20/19 A2988=
201412221300 METAR MRLM 221300Z 26003KT CAVOK 22/20 A2990=
201412221400 METAR MRLM 221400Z 24005KT CAVOK 25/21 A2991=
201412221500 METAR MRLM 221500Z 07003KT CAVOK 28/22 A2991=
201412221600 METAR MRLM 221600Z 05005KT 9999 FEW030 28/21 A2990=
201412221700 METAR MRLM 221700Z 06006KT CAVOK 28/22 A2988=
201412221800 METAR MRLM 221800Z 06005KT CAVOK 29/23 A2985=
201412221900 METAR MRLM 221900Z 04005KT CAVOK 29/23 A2982=
201412222000 METAR MRLM 222000Z 04008KT CAVOK 29/22 A2979=
201412222100 METAR MRLM 222100Z 04006KT CAVOK 29/22 A2978=
201412222200 METAR MRLM 222200Z 03006KT CAVOK 28/23 A2977=
201412222300 METAR MRLM 222300Z 02005KT CAVOK 27/23 A2978=
201412230000 METAR MRLM 230000Z 00000KT CAVOK 24/23 A2981=
201412230100 METAR MRLM NIL=
201412230200 METAR MRLM NIL=
201412230300 METAR MRLM NIL=
201412230400 METAR MRLM NIL=
201412230500 METAR MRLM NIL=
201412230600 METAR MRLM NIL=
201412230700 METAR MRLM NIL=
201412230800 METAR MRLM NIL=
201412230900 METAR MRLM NIL=
201412231000 METAR MRLM NIL=
201412231100 METAR MRLM NIL=
201412231200 METAR MRLM 231200Z 24002KT 9999 SCT010 BKN100 22/21 A2981=
201412231300 METAR MRLM 231300Z 00000KT 9999 FEW010 BKN110 23/21 A2982=
201412231400 METAR MRLM 231400Z 25002KT 9999 BKN015 SCT110 24/22 A2986=
201412231500 METAR MRLM 231500Z 18002KT 9999 -DZ BKN010 24/21 A2987=
201412231600 METAR MRLM 231600Z 00000KT CAVOK 27/23 A2985=
201412231700 METAR MRLM 231700Z 13003KT CAVOK 30/24 A2983=
201412231800 METAR MRLM 231800Z 06006KT 9999 FEW030 30/24 A2981=
201412231900 METAR MRLM 231900Z 02008KT CAVOK 29/24 A2978=
201412232000 METAR MRLM 232000Z 02007KT CAVOK 29/23 A2976=
201412232100 METAR MRLM 232100Z 03005KT CAVOK 29/23 A2975=
201412232200 METAR MRLM 232200Z 04005KT CAVOK 29/23 A2977=
201412232300 METAR MRLM 232300Z 03003KT CAVOK 28/23 A2977=
201412240000 METAR MRLM 240000Z 00000KT CAVOK 25/23 A2979=
201412240100 METAR MRLM NIL=
201412240200 METAR MRLM NIL=
201412240300 METAR MRLM NIL=
201412240400 METAR MRLM NIL=
201412240500 METAR MRLM NIL=
201412240600 METAR MRLM NIL=
201412240700 METAR MRLM NIL=
201412240800 METAR MRLM NIL=
201412240900 METAR MRLM NIL=
201412241000 METAR MRLM NIL=
201412241100 METAR MRLM NIL=
201412241200 METAR MRLM 241200Z 25005KT CAVOK 22/21 A2983=
201412241300 METAR MRLM 241300Z 26002KT CAVOK 23/22 A2985=
201412241400 METAR MRLM 241400Z 25001KT CAVOK 26/23 A2988=
201412241500 METAR MRLM 241500Z 070904KT CAVOK 28/24 A2988=
201412241600 METAR MRLM 241600Z 08004KT 9999 FEW030 BKN090 29/23 A2988=
201412241700 METAR MRLM 241700Z 04006KT 9999 FEW030 BKN090 30/23 A2987=
201412241800 METAR MRLM 241800Z 02007KT 9999 FEW030 BKN090 30/23 A2985=
201412241900 METAR MRLM 241900Z 03008KT 9999 FEW028 BKN090 30/24 A2983=
201412242000 METAR MRLM 242000Z 03008KT 9999 FEW025 SCT090 29/24 A2981=
201412242100 METAR MRLM 242100Z 03006KT 9999 FEW025 BKN280 29/25 A2981=
201412242200 METAR MRLM 242200Z 03006KT 9999 FEW020 BKN280 29/25 A2982=
201412242300 METAR MRLM 242300Z 32002KT CAVOK 28/25 A2983=
201412242354 METAR MRLM 250000Z 29002KT CAVOK 27/24 A2984=
201412250000 METAR MRLM 250000Z 29002KT CAVOK 27/24 A2984=
201412250100 METAR MRLM NIL=
201412250200 METAR MRLM NIL=
201412250300 METAR MRLM NIL=
201412250400 METAR MRLM NIL=
201412250500 METAR MRLM NIL=
201412250600 METAR MRLM NIL=
201412250700 METAR MRLM NIL=
201412250800 METAR MRLM NIL=
201412250900 METAR MRLM NIL=
201412251000 METAR MRLM NIL=
201412251100 METAR MRLM NIL=
201412251200 METAR MRLM 251200Z 25002KT 9999 SCT025 SCT090 22/21 A2991=
201412251300 METAR MRLM 251300Z 24004KT 9999 DZ BKN015 23/21 A2993=
201412251400 METAR MRLM 251400Z 25003KT 9999 BKN015 25/23 A2996 REDZ=
201412251500 METAR MRLM 251500Z 24005KT 9999 SCT020 SCT090 27/23 A2997=
201412251600 METAR MRLM 251600Z 07003KT 9999 BKN025 29/23 A2996=
201412251700 METAR MRLM 251700Z 17006KT 9999 OVC015 25/23 A2995 RERA=
201412251800 METAR MRLM 251800Z 10004KT 9999 BKN020 30/25 A2992=
201412251900 METAR MRLM 251900Z 17002KT 9999 BKN025 30/24 A2990=
201412252000 METAR MRLM 252000Z 10004KT 9999 BKN025 30/24 A2988=
201412252100 METAR MRLM 252100Z 11010KT 7000 RA BKN012 26/24 A2987=
201412252200 METAR MRLM 252200Z 24004KT 9999 +DZ BKN010 26/25 A2986=
201412252300 METAR MRLM 252300Z 24003KT 8000 DZ HZ OVC010 26/24 A2987=
201412252355 METAR MRLM 260000Z 23001KT 9999 OVC010 25/24 A2988 REDZ=
201412260000 METAR MRLM 260000Z 23001KT 9999 OVC010 25/24 A2988 REDZ=
201412260100 METAR MRLM NIL=
201412260200 METAR MRLM NIL=
201412260300 METAR MRLM NIL=
201412260400 METAR MRLM NIL=
201412260500 METAR MRLM NIL=
201412260600 METAR MRLM NIL=
201412260700 METAR MRLM NIL=
201412260800 METAR MRLM NIL=
201412260900 METAR MRLM NIL=
201412261000 METAR MRLM NIL=
201412261100 METAR MRLM NIL=
201412261200 METAR MRLM 261200Z 24004KT 9999 FEW010 BKN110 23/22 A2991=
201412261300 METAR MRLM 261300Z 00000KT 9999 DZ SCT010 SCT110 24/23 A2992=
201412261400 METAR MRLM 261400Z 26003KT 9999 DZ BKN010 SCT110 25/24 A2994=
201412261500 METAR MRLM 261500Z 00000KT 9999 FEW020 SCT130 28/23 A2995 REDZ=
201412261600 METAR MRLM 261600Z 07004KT 9999 SCT020 SCT120 27/23 A2995=
201412261700 METAR MRLM 261700Z 14002KT 9999 DZ BKN020 27/23 A2994=
201412261800 METAR MRLM 261800Z 27003KT 9999 FEW030 BKN130 28/22 A2991 REDZ=
201412261900 METAR MRLM 261900Z 06002KT 9999 FEW035 BKN130 30/22 A2989=
201412262000 METAR MRLM 262000Z 06005KT 9999 SCT030 BKN120 29/22 A2985=
201412262035 METAR MRLM 262035Z 03011G21KT 8000 3000N DZ BKN015 26/23 A2986=
201412262100 METAR MRLM 262100Z 03016KT 8000 DZ BKN015 25/22 A2987=
201412262200 METAR MRLM 262200Z 29002KT 9999 SCT020 BKN100 25/22 A2986 REDZ=
201412262300 METAR MRLM 262300Z 25004KT 9999 SCT015 BKN100 25/22 A2987=
201412270000 METAR MRLM 270000Z 27003KT 9999 FEW010 BKN100 24/22 A2989=
201412270100 METAR MRLM NIL=
201412270200 METAR MRLM NIL=
201412270300 METAR MRLM NIL=
201412270400 METAR MRLM NIL=
201412270500 METAR MRLM NIL=
201412270600 METAR MRLM NIL=
201412270700 METAR MRLM NIL=
201412270800 METAR MRLM NIL=
201412270900 METAR MRLM NIL=
201412271000 METAR MRLM NIL=
201412271100 METAR MRLM NIL=
201412271200 METAR MRLM 271200Z 25004KT 8000 DZ OVC007 23/22 A2993=
201412271300 METAR MRLM 271300Z 23004KT 5000 DZ OVC007 23/22 A2995=
201412271400 METAR MRLM 271400Z 25005KT 9999 -DZ BKN007 23/23 A2996=
201412271500 METAR MRLM 271500Z 26003KT 9999 DZ BKN010 25/23 A2997=
201412271600 METAR MRLM 271600Z 23004KT 9999 BKN010 25/23 A2996 REDZ=
201412271700 METAR MRLM 271700Z 02003KT 9999 BKN010 SCT100 26/24 A2995=
201412271800 METAR MRLM 271800Z 27003KT 9999 BKN020 27/24 A2993=
201412271900 METAR MRLM 271900Z 23004KT 9999 SCT025 BKN120 29/24 A2990=
201412272000 METAR MRLM 272000Z 22002KT 9999 SCT030 SCT130 29/24 A2988=
201412272100 METAR MRLM 272100Z 14003KT 9999 SCT030 SCT130 29/23 A2987=
201412272200 METAR MRLM 272200Z 16003KT 9999 FEW030 BKN130 29/23 A2987=
201412272300 METAR MRLM 272300Z 00000KT CAVOK 26/23 A2989=
201412280000 METAR MRLM 280000Z 25003KT 9999 FEW015 SCT120 24/23 A2990=
201412280100 METAR MRLM NIL=
201412280200 METAR MRLM NIL=
201412280300 METAR MRLM NIL=
201412280400 METAR MRLM NIL=
201412280500 METAR MRLM NIL=
201412280600 METAR MRLM NIL=
201412280700 METAR MRLM NIL=
201412280800 METAR MRLM NIL=
201412280900 METAR MRLM NIL=
201412281000 METAR MRLM NIL=
201412281100 METAR MRLM NIL=
201412281200 METAR MRLM NIL=
201412281300 METAR MRLM 281300Z 20001KT 3000 RA FEW005 BKN025 23/22 A2996 REDZ=
201412281400 METAR MRLM 281400Z 23006KT 5000 RA BKN015 23/22 A2997=
201412281500 METAR MRLM 281500Z 23007KT 9999 +DZ BKN015 23/23 A2997 RERA=
201412281600 METAR MRLM 281600Z 23007KT 9999 FEW020 SCT110 27/23 A2996=
201412281700 METAR MRLM 281700Z 23003KT CAVOK 30/24 A2994=
201412281800 METAR MRLM 281800Z 07005KT 9999 FEW025 BKN090 30/24 A2992=
201412281900 METAR MRLM 281900Z 05009KT 9999 FEW020 BKN090 28/24 A2989=
201412282000 METAR MRLM 282000Z 05008KT 9999 FEW020 BKN100 29/24 A2987=
201412282100 METAR MRLM 282100Z 06006KT 9999 FEW020 29/24 A2986=
201412282200 METAR MRLM 282200Z 06006KT 9999 FEW020 29/24 A2987=
201412282300 METAR MRLM 282300Z 06007KT 9999 FEW018 BKN080 28/24 A2989=
201412282352 METAR MRLM 290000Z 08005KT 9999 FEW015 BKN090 27/24 A2991=
201412290000 METAR MRLM 290000Z 08005KT 9999 FEW015 BKN090 27/24 A2991=
201412290100 METAR MRLM NIL=
201412290200 METAR MRLM NIL=
201412290300 METAR MRLM NIL=
201412290400 METAR MRLM NIL=
201412290500 METAR MRLM NIL=
201412290600 METAR MRLM NIL=
201412290700 METAR MRLM NIL=
201412290800 METAR MRLM NIL=
201412290900 METAR MRLM NIL=
201412291000 METAR MRLM NIL=
201412291100 METAR MRLM NIL=
201412291200 METAR MRLM 291200Z 25004KT 9999 BKNN015 22/22 A2994=
201412291300 METAR MRLM 291300Z 240/01KT 9999 BKN015 23/22 A2995=
201412291400 METAR MRLM 291400Z 23003KT 9999 SCT015 SCT080 26/23 A2997=
201412291500 METAR MRLM 291500Z 07003KT 9999 BKN020 27/23 A2998=
201412291600 METAR MRLM 291600Z 08004KT 9999 SCT020 SCT070 27/23 A2998=
201412291700 METAR MRLM 291700Z 13008KT 9999 SCT025 SCT070 28/23 A2996=
201412291800 METAR MRLM 291800Z 13006KT 9999 SCT028 SCT080 29/24 A2993=
201412291900 METAR MRLM 291900Z 13007KT 9999 FEW025 29/24 A2991=
201412292000 METAR MRLM 292000Z 13009KT 9999 SCT025 29/24 A2988=
201412292100 METAR MRLM 292100Z 11008KT 9999 FEW025 30/24 A2987=
201412292200 METAR MRLM 292200Z 11007KT 9999 FEW025 29/24 A2987=
201412292300 METAR MRLM 292300Z 13007KT 9999 FEW020 28/24 A2988=
201412292352 METAR MRLM 300000Z 13006KT 9999 SCT015 27/24 A2990=
201412300000 METAR MRLM 300000Z 13006KT 9999 SCT015 27/24 A2990=
201412300100 METAR MRLM NIL=
201412300200 METAR MRLM NIL=
201412300300 METAR MRLM NIL=
201412300400 METAR MRLM NIL=
201412300500 METAR MRLM NIL=
201412300600 METAR MRLM NIL=
201412300700 METAR MRLM NIL=
201412300800 METAR MRLM NIL=
201412300900 METAR MRLM NIL=
201412301000 METAR MRLM NIL=
201412301100 METAR MRLM NIL=
201412301200 METAR MRLM 301200Z 28004KT 8000 -DZ OVC007 23/22 A2996=
201412301300 METAR MRLM 301300Z 00000KT 9999 BKN007 23/23 A2998=
201412301400 METAR MRLM 301400Z 29005KT 8000 DZ BKN010 25/24 A3001=
201412301500 METAR MRLM 301500Z 26004KT 9999 -DZ BKN010 26/24 A3002=
201412301600 METAR MRLM 301600Z 24002KT 9999 BKN015 27/24 A3000=
201412301700 METAR MRLM 301700Z 33003KT 9999 DZ BKN015 26/23 A2998=
201412301735 METAR MRLM 301735Z 08016KT 3000 +RA OVC010 25/24 A2997=
201412301800 METAR MRLM 301800Z 14015KT 8000 DZ BKN007 24/23 A2997 RERA=
201412301900 METAR MRLM 301900Z 00000KT 9999 DZ BKN010 26/23 A2994=
201412302000 METAR MRLM 302000Z 32002KT 9999 -DZ BKN010 25/23 A2992=
201412302100 METAR MRLM 302100Z 24002KT 4000 +DZ FEW005 OVC007 24/23 A2991=
201412302200 METAR MRLM 302200Z 26003KT 8000 3000N DZ SCT010 BKN080 24/23 A2990=
201412302300 METAR MRLM 302300Z 24004KT 7000 RA BKN007 24/23 A2990=
201412310000 METAR MRLM 310000Z 24002KT 6000 DZ BKN007 23/23 A2992 RERA=
201412310100 METAR MRLM NIL=
201412310200 METAR MRLM NIL=
201412310300 METAR MRLM NIL=
201412310400 METAR MRLM NIL=
201412310500 METAR MRLM NIL=
201412310600 METAR MRLM NIL=
201412310700 METAR MRLM NIL=
201412310800 METAR MRLM NIL=
201412310900 METAR MRLM NIL=
201412311000 METAR MRLM NIL=
201412311100 METAR MRLM NIL=
201412311200 METAR MRLM 311200Z 00000KT 9999 -DZ BKN010 23/22 A2993=
201412311300 METAR MRLM 311300Z 25003KT 7000 3000N DZ BKN007 23/23 A2994=
201412311400 METAR MRLM 311400Z 00000KT 9999 -DZ FEW005 BKN010 24/23 A2998=
201412311500 METAR MRLM 311500Z 22004KT 9999 BKN010 25/23 A2999=
201412311600 METAR MRLM 311600Z 25003KT 9999 SCT020 SCT120 27/24 A2998=
201412311700 METAR MRLM 311700Z 06005KT 9999 BKN020 SCT120 28/25 A2996=
201412311725 METAR MRLM 311725Z 02009KT 7000 3000S DZ BKN010 26/24 A2996=
201412311800 METAR MRLM 311800Z 24002KT 8000 3000S DZ BKN010 26/24 A2995=
201412311900 METAR MRLM 311900Z 22003KT 7000 DZ BKN010 25/24 A2992=
201412312000 METAR MRLM 312000Z 25002KT 9999 BKN015 26/24 A2990 REDZ=
201412312100 METAR MRLM 312100Z 27004KT 9999 -DZ VCSH BKN010 SCT100 25/24 A2989=
201412312200 METAR MRLM 312200Z 23005KT 9999 BKN010 25/24 A2990=
201412312300 METAR MRLM 312300Z 26003KT 9999 DZ BKN007 24/24 A2991=
