201501010000 METAR MRLM 010000Z 27002KT 8000 DZ BKN007 24/23 A2992=
201501010100 METAR MRLM NIL=
201501010200 METAR MRLM NIL=
201501010300 METAR MRLM NIL=
201501010400 METAR MRLM NIL=
201501010500 METAR MRLM NIL=
201501010600 METAR MRLM NIL=
201501010700 METAR MRLM NIL=
201501010800 METAR MRLM NIL=
201501010900 METAR MRLM NIL=
201501011000 METAR MRLM NIL=
201501011100 METAR MRLM NIL=
201501011200 METAR MRLM 011200Z 27001KT 4000 RA BKN015 SCT070 23/23 A2995=
201501011300 METAR MRLM 011300Z 19004KT 4000 RA OVC012 23/23 A2997=
201501011400 METAR MRLM 011400Z 24005KT 9999 OVC015 24/23 A2999 RERA=
201501011500 METAR MRLM 011500Z 23007KT 9999 BKN015 25723 A2999=
201501011600 METAR MRLM 011600Z 23006KT 9999 BKN025 28/23 A2999=
201501011700 METAR MRLM 011700Z 13004KT 9999 SCT032 SCT280 29/23 A2998=
201501011800 METAR MRLM 011800Z 05003KT 9999 SCT035 SCT280 30/23 A2995=
201501011900 METAR MRLM 011900Z 12003KT 9999 FEW035 SCT280 30/23 A2991=
201501012000 METAR MRLM 012000Z 06002KT 9999 FEW025 SCT280 30/22 A29890=
201501012100 METAR MRLM 012100Z 06004KT 9999 FEW025 BKN100 29/23 A2988=
201501012200 METAR MRLM 012200Z 04003KT 9999 FEW025 BKN080 29/23 A2988=
201501012300 METAR MRLM 012300Z 03003KT CAVOK 28/23 A2988=
201501012355 METAR MRLM 020000Z 28002KT CAVOK 25/23 A2990=
201501020000 METAR MRLM 020000Z 28002KT CAVOK 25/23 A2990=
201501020100 METAR MRLM NIL=
201501020200 METAR MRLM NIL=
201501020300 METAR MRLM NIL=
201501020400 METAR MRLM NIL=
201501020500 METAR MRLM NIL=
201501020600 METAR MRLM NIL=
201501020700 METAR MRLM NIL=
201501020800 METAR MRLM NIL=
201501020900 METAR MRLM NIL=
201501021000 METAR MRLM NIL=
201501021100 METAR MRLM NIL=
201501021200 METAR MRLM 021200Z 24004KT 9999 OVC015 22/21 A2993=
201501021300 METAR MRLM 021300Z 25003KT 9999 SCT015 SCT090 23/22 A2993=
201501021400 METAR MRLM 021400Z 22005KT 8000 +DZ SCT015 SCT080 23/22 A2996=
201501021500 METAR MRLM 021500Z 13004KT 3000 RA BKN015 SCT080 24/22 A2998=
201501021600 METAR MRLM 021600Z 22004KT 4000 +DZ HZ SCT015 SCT080 23/22 A2997 RERA=
201501021700 METAR MRLM 021700Z 22005KT 9999 +DZ BKN015 24/23 A2993=
201501021800 METAR MRLM 021800Z 26005KT 9999 BKN015 26/23 A2989 REDZ=
201501021900 METAR MRLM 021900Z 22004KT 9999 BKN015 25/23 A2987=
201501022000 METAR MRLM 022000Z 16002KT 3000 +DZ VCSH BKN015 26/23 A2986=
201501022100 METAR MRLM 022100Z 26003KT 9999 BKN015 SCT090 25/23 A2984 RERA=
201501022200 METAR MRLM 022200Z 23002KT 9999 BKN015 SCT090 26/24 A2984=
201501022300 METAR MRLM 022300Z 26002KT 9999 BKN015 SCT080 26/24 A2985=
201501022353 METAR MRLM 030000Z 23002KT 9999 SCT015 SCT070 25/23 A2986=
201501030000 METAR MRLM 030000Z 23002KT 9999 SCT015 SCT070 25/23 A2986=
201501030100 METAR MRLM NIL=
201501030200 METAR MRLM NIL=
201501030300 METAR MRLM NIL=
201501030400 METAR MRLM NIL=
201501030500 METAR MRLM NIL=
201501030600 METAR MRLM NIL=
201501030700 METAR MRLM NIL=
201501030800 METAR MRLM NIL=
201501030900 METAR MRLM NIL=
201501031000 METAR MRLM NIL=
201501031100 METAR MRLM NIL=
201501031200 METAR MRLM 031200Z 32002KT CAVOK 22/22 A2988=
201501031300 METAR MRLM 031300Z 27003KT 9999 FEW010 SCT120 24/23 A2989=
201501031400 METAR MRLM 031400Z 00000KT CAVOK 26/24 A2991=
201501031500 METAR MRLM 031500Z 12002KT CAVOK 28/23 A2992=
201501031600 METAR MRLM 031600Z 09004KT 9999 FEW030 SCT130 SCT250 28/23 A2991=
201501031700 METAR MRLM 031700Z 09004KT CAVOK 29/24 A2990=
201501031800 METAR MRLM 031800Z 09004KT CAVOK 30/24 A2987=
201501031900 METAR MRLM 031900Z 08006KT CAVOK 29/24 A2985=
201501032000 METAR MRLM 032000Z 08005KT CAVOK 29/25 A2983=
201501032100 METAR MRLM 032100Z 08005KT CAVOK 28/24 A2983=
201501032200 METAR MRLM 032200Z 07005KT CAVOK 28/25 A2984=
201501032300 METAR MRLM 032300Z 07002KT CAVOK 28/24 A2985=
201501040000 METAR MRLM 040000Z 00000KT CAVOK 26/25 A2989=
201501040100 METAR MRLM NIL=
201501040200 METAR MRLM NIL=
201501040300 METAR MRLM NIL=
201501040400 METAR MRLM NIL=
201501040500 METAR MRLM NIL=
201501040600 METAR MRLM NIL=
201501040700 METAR MRLM NIL=
201501040800 METAR MRLM NIL=
201501040900 METAR MRLM NIL=
201501041000 METAR MRLM NIL=
201501041100 METAR MRLM NIL=
201501041200 METAR MRLM 041200Z 00000KT 9999 4000N DZ BKN010 23/23 A2993=
201501041300 METAR MRLM 041300Z 00000KT 7000 3000N DZ OVC007 24/22 A2994=
201501041400 METAR MRLM 041400Z 00000KT 9999 4000N DZ FEW006 BKN010 24/23 A2996=
201501041500 METAR MRLM 041500Z 00000KT 9999 4000N DZ BKN007 24/24 A2997=
201501041600 METAR MRLM 041600Z 08003KT 4000 DZHZ SCT015 BKN110 27/24 A2996=
201501041700 METAR MRLM 041700Z 08006KT 6000 DZHZ BKN010 SCT100 26/24 A2995=
201501041800 METAR MRLM 041800Z 04004KT 9999 SCT010 SCT110 27/25 A2992 REDZ=
201501041900 METAR MRLM 041900Z 04008KT 6000 2000N +DZ FEW006 BKN010 27/25 A2991=
201501041925 METAR MRLM 041925Z 08010KT 2000 +RA OVC007 25/24 A2991=
201501042000 METAR MRLM 042000Z 09007KT 1000 +RA OVC007 25/24 A2990=
201501042100 METAR MRLM 042100Z 24004KT 3000 +DZ BKN007 24/24 A2990 RERA=
201501042200 METAR MRLM 042200Z 24005KT 3000 +DZ BKN007 24/24 A2990=
201501042300 METAR MRLM 042300Z 23003KT 8000 DZ BKN007 25/24 A2991=
201501050000 METAR MRLM 050000Z 24005KT 6000 3000N DZ BKN005 24/23 A2994=
201501050100 METAR MRLM NIL=
201501050200 METAR MRLM NIL=
201501050300 METAR MRLM NIL=
201501050400 METAR MRLM NIL=
201501050500 METAR MRLM NIL=
201501050600 METAR MRLM NIL=
201501050700 METAR MRLM NIL=
201501050800 METAR MRLM NIL=
201501050900 METAR MRLM NIL=
201501051000 METAR MRLM NIL=
201501051100 METAR MRLM NIL=
201501051200 METAR MRLM 051200Z 15004KT 9999 OVC012 24/23 A3000=
201501051300 METAR MRLM 051300Z 25005KT 9999 OVC012 24/23 A3001=
201501051400 METAR MRLM 051400Z 23007KT 9999 OVC012 25/23 A3003=
201501051500 METAR MRLM 051500Z 22004KT 9999 DZ OVC012 26/24 A3004=
201501051600 METAR MRLM 051600Z 11004KT 9999 OVC018 29/25 A3003=
201501051700 METAR MRLM 051700Z 09012KT 9999 OVC025 29/25 A3001=
201501051800 METAR MRLM 051800Z 07006KT 9999 BKN025 29/24 A2999=
201501051900 METAR MRLM 051900Z 08004KT 9999 SCT025 30/24 A2996=
201501052000 METAR MRLM 052000Z 08008KT 9999 SCT025 30/24 A2994=
201501052100 METAR MRLM 052100Z 07004KT 9999 BKN025 30/24 A2993=
201501052110 METAR MRLM 052110Z 07004G25KT 2000 RA OVC015 24/22 A2995=
201501052200 METAR MRLM 052200Z 22005KT 9999 BKN015 23/22 A2994 RERA=
201501052300 METAR MRLM 052300Z 24005KT 9999 BKN015 23/22 A2994=
201501052358 METAR MRLM 060000Z 26005KT 9999 BKN015 23/22 A2995=
201501060000 METAR MRLM 060000Z 26005KT 9999 BKN015 23/22 A2995=
201501060100 METAR MRLM NIL=
201501060200 METAR MRLM NIL=
201501060300 METAR MRLM NIL=
201501060400 METAR MRLM NIL=
201501060500 METAR MRLM NIL=
201501060600 METAR MRLM NIL=
201501060700 METAR MRLM NIL=
201501060800 METAR MRLM NIL=
201501060900 METAR MRLM NIL=
201501061000 METAR MRLM NIL=
201501061100 METAR MRLM NIL=
201501061200 METAR MRLM 061200Z 23005KT 9999 3000NW DZ VCSH OVC013 23/22 A2996=
201501061300 METAR MRLM 061300Z 26005KT 9999 BKN012 23/22 A2997 REDZ=
201501061400 METAR MRLM 061400Z 29003KT 9999 +DZ OVC012 24/23 A3001=
201501061500 METAR MRLM 061500Z 27003KT 9999 BKN015 25/24 A3002 RERA=
201501061600 METAR MRLM 061600Z 26005KT 9999 BKN020 SCT080 27/24 A3000=
201501061700 METAR MRLM 061700Z 17003KT 4000 RA BKN015 27/24 A2997=
201501061800 METAR MRLM 061800Z 24003KT 9999 DZ FEW007 BKN015 25/24 A2995 RERA=
201501061900 METAR MRLM 061900Z 32003KT 8000 DZ VCSH BKN013 26/23 A2992=
201501062000 METAR MRLM 062000Z 24004KT 9999 BKN015 27/24 A2990=
201501062100 METAR MRLM 062100Z 22004KT 9999 SCT025 28/23 A2989=
201501062200 METAR MRLM 062200Z 23002KT 9999 BKN025 29/23 A2989=
201501062300 METAR MRLM 062300Z 09002KT 5000 RA OVC022 28723 A2991=
201501062355 METAR MRLM 070000Z 22004KT 8000 DZ VCSH BKN010TCU 24/23 A2992 RERA=
201501070000 METAR MRLM 070000Z 22004KT 8000 DZ VCSH BKN010TCU 24/23 A2992 RERA=
201501070100 METAR MRLM NIL=
201501070200 METAR MRLM NIL=
201501070300 METAR MRLM NIL=
201501070400 METAR MRLM NIL=
201501070500 METAR MRLM NIL=
201501070600 METAR MRLM NIL=
201501070700 METAR MRLM NIL=
201501070800 METAR MRLM NIL=
201501070900 METAR MRLM NIL=
201501071000 METAR MRLM NIL=
201501071100 METAR MRLM NIL=
201501071200 METAR MRLM 071200Z 26004KT 8000 3000N DZ SCT007 SCT100 22/21 A2992=
201501071230 METAR MRLM 071230Z 05011KT 3000 +RA BKN007 23/22 A2995=
201501071300 METAR MRLM 071300Z 07010KT 9999 DZ BKN010 SCT100 24/22 A2995 RERA=
201501071400 METAR MRLM 071400Z 24005KT 9999 4000 N DZ BKN010 SCT100 24/23 A2997=
201501071500 METAR MRLM 071500Z 26006KT 9999 -DZ SCT015 SCT110 25/23 A2997=
201501071600 METAR MRLM 071600Z 29005KT 9999 SCT025 28/22 A2996=
201501071700 METAR MRLM 071700Z 05004KT 9999 SCT030 29/24 A2994=
201501071800 METAR MRLM 071800Z 06005KT 9999 SCT030 29/23 A2991=
201501071825 METAR MRLM 071825Z 05010KT 9999 3000N DZ BKN015 28/23 A2991=
201501071900 METAR MRLM 071900Z 35004KT 9999 SCT025 28/22 A2989 REDZ=
201501072000 METAR MRLM 072000Z 07003KT 9999 SCT030 29/23 A2986=
201501072100 METAR MRLM 072100Z 03008KT 9999 4000SE DZ BKN015 27/24 A2986=
201501072200 METAR MRLM 072200Z 01006KT 9999 DZ BKN015 26/24 A2987=
201501072230 METAR MRLM 072230Z 02005KT 3000 RA OVC010 26/24 A2988=
201501072300 METAR MRLM 072300Z 34002KT 9999 DZ BKN010 24/23 A2988 RERA=
201501080000 METAR MRLM 080000Z 25005KT 5000 DZ BKN006 23/22 A2990=
201501080100 METAR MRLM NIL=
201501080200 METAR MRLM NIL=
201501080300 METAR MRLM NIL=
201501080400 METAR MRLM NIL=
201501080500 METAR MRLM NIL=
201501080600 METAR MRLM NIL=
201501080700 METAR MRLM NIL=
201501080800 METAR MRLM NIL=
201501080900 METAR MRLM NIL=
201501081000 METAR MRLM NIL=
201501081100 METAR MRLM NIL=
201501081200 METAR MRLM 081200Z 24007KT 3000 RA OVC006 22/21 A2998=
201501081300 METAR MRLM 081300Z 31005KT 6000 DZ SCT006 BKN010 22/21 A3001 RERA=
201501081400 METAR MRLM 081400Z 30005KT 7000 DZ SCT006 BKN010 22/21 A3002=
201501081500 METAR MRLM 081500Z 23005KT 9999 5000N DZ BKN007 22/22 A3001=
201501081600 METAR MRLM 081600Z 26005KT 9999 -DZ FEW006 BKN010 23/22 A3000=
201501081700 METAR MRLM 081700Z 27005KT 9999 BKN007 SCT100 24/23 A2998=
201501081800 METAR MRLM 081800Z 29004KT 4000 RA BKN007 23/22 A2998=
201501081900 METAR MRLM 081900Z 25007KT 9999 SCT010 BKN110 24/23 A2994 RERA=
201501082000 METAR MRLM 082000Z 24005KT 9999 SCT015 BKN110 25/22 A2991=
201501082030 METAR MRLM 082030Z 11006KT 5000 DZ BKN015 24/21 A2993=
201501082100 METAR MRLM 082100Z 23003KT 9999 -DZ SCT010 BKN100 24/22 A2991=
201501082200 METAR MRLM 082200Z 25004KT 9999 FEW010 BKN100 24/22 A2991=
201501082300 METAR MRLM 082300Z 27003KT 9999 SCT010 SCT100 24/21 A2992=
201501090000 METAR MRLM 090000Z 16014KT 5000 DZ OVC007 22/21 A2995=
201501090100 METAR MRLM NIL=
201501090200 METAR MRLM NIL=
201501090300 METAR MRLM NIL=
201501090400 METAR MRLM NIL=
201501090500 METAR MRLM NIL=
201501090600 METAR MRLM NIL=
201501090700 METAR MRLM NIL=
201501090800 METAR MRLM NIL=
201501090900 METAR MRLM NIL=
201501091000 METAR MRLM NIL=
201501091100 METAR MRLM NIL=
201501091200 METAR MRLM 091200Z 27005KT 9999 BKN020 23/20 A2997=
201501091300 METAR MRLM 091300Z 31005KT 8000 DZ VCSH BKN020 23/21 A2999=
201501091400 METAR MRLM 091400Z 35005KT 5000/DZ VCSH BKN015 SCT090 23/21 A3004=
201501091500 METAR MRLM 091500Z 25008KT 9999 DZ BKN015 SCT090 23/21 A3001=
201501091514 METAR MRLM 091514Z 25008KT 9999 DZ BKN015 SCT090 23/21 A3001=
201501091600 METAR MRLM 091600Z 22006KT 9999 BKN020 SCT090 24/21 A3001 REDZ=
201501091700 METAR MRLM 091700Z 22005KT 9999 BKN025 26/21 A2998=
201501091800 METAR MRLM 091800Z 23004KT 9999 BKN025 27/21 A2996=
201501091900 METAR MRLM 091900Z 24003KT 9999 BKN025 27/22 A2993=
201501092000 METAR MRLM 092000Z 22003KT 9999 FEW025 BKN035 27/22 A2991=
201501092100 METAR MRLM 092100Z 23002KT 9999 BKN025 27/22 A2991=
201501092200 METAR MRLM 092200Z 34001KT 9999 DZ OVC025 27/22 A2992=
201501092300 METAR MRLM 092300Z 20005KT 9999 FEW015 BKN040 24/22 A2994 REDZ=
201501092353 METAR MRLM 10000Z 23004KT 9999 SCT020 BKN035 23/22 A2995=
201501100000 METAR MRLM 10000Z 23004KT 9999 SCT020 BKN035 23/22 A2995=
201501100100 METAR MRLM NIL=
201501100200 METAR MRLM NIL=
201501100300 METAR MRLM NIL=
201501100400 METAR MRLM NIL=
201501100500 METAR MRLM NIL=
201501100600 METAR MRLM NIL=
201501100700 METAR MRLM NIL=
201501100800 METAR MRLM NIL=
201501100900 METAR MRLM NIL=
201501101000 METAR MRLM NIL=
201501101100 METAR MRLM NIL=
201501101200 METAR MRLM 101200Z 24003KT 4000 +DZ VCSH FEW003 BKN015 23/22 A2999=
201501101300 METAR MRLM 101300Z 16003KT 2000 RA FEW003 BKN015 23/22 A3001=
201501101400 METAR MRLM 101400Z 26002KT 4000 +DZ VCSH FEW003 BKN015 23/22 A3003=
201501101500 METAR MRLM 101500Z 23006KT 8000 +DZ VCSH FEW003 BKN015 23/22 A3003=
201501101600 METAR MRLM 101600Z 23008KT 9999 FEW015 BKN035 23/22 A3001 REDZ=
201501101700 METAR MRLM 101700Z 23007KT 9999 BKN012 25/22 A2999=
201501101800 METAR MRLM 101800Z 24005KT 9999 BKN015 25/22 A2997=
201501101900 METAR MRLM 101900Z 23005KT 9999 BKN020 27/23 A2993=
201501102000 METAR MRLM 102000Z 25003KT 9999 BKN025 27/23 A2992=
201501102100 METAR MRLM 102100Z 17002KT 9999 BKN025 28/23 A2991=
201501102200 METAR MRLM 102200Z 22004KT 9999 BKN015 26/23 A2991=
201501102300 METAR MRLM 102300Z 22002KT 9999 BKN015 25/22 A2992=
201501102352 METAR MRLM 110000Z 25004KT 9999 FEW015 BKN080 24/22 A2993=
201501110000 METAR MRLM 110000Z 25004KT 9999 FEW015 BKN080 24/22 A2993=
201501110100 METAR MRLM NIL=
201501110200 METAR MRLM NIL=
201501110300 METAR MRLM NIL=
201501110400 METAR MRLM NIL=
201501110500 METAR MRLM NIL=
201501110600 METAR MRLM NIL=
201501110700 METAR MRLM NIL=
201501110800 METAR MRLM NIL=
201501110900 METAR MRLM NIL=
201501111000 METAR MRLM NIL=
201501111100 METAR MRLM NIL=
201501111200 METAR MRLM NIL=
201501111300 METAR MRLM 111300Z 25005KT 9999 BKN020 23/22 A2997=
201501111400 METAR MRLM 111400Z 31004KT 9999 BKN025 24/23 A2998 RERA=
201501111500 METAR MRLM 111500Z 24004KT 9999 OVC025 26/23 A2998=
201501111600 METAR MRLM 111600Z 03006KT 9999 OVC015 27/24 A2998=
201501111700 METAR MRLM 111700Z 07004KT 9999 BKN015 28/25 A2995=
201501111800 METAR MRLM 111800Z 0404KT 9999 BKN015 27/24 A2993=
201501111900 METAR MRLM 111900Z 10003KT 9999 BKN020 29/25 A2990=
201501112000 METAR MRLM 112000Z 08003KT 9999 OVC022 28/24 A2988=
201501112100 METAR MRLM 112100Z 17003KT 9999 BKN025 29724 A2987=
201501112200 METAR MRLM NIL=
201501112300 METAR MRLM NIL=
201501120000 METAR MRLM NIL=
201501120100 METAR MRLM NIL=
201501120200 METAR MRLM NIL=
201501120300 METAR MRLM NIL=
201501120400 METAR MRLM NIL=
201501120500 METAR MRLM NIL=
201501120600 METAR MRLM NIL=
201501120700 METAR MRLM NIL=
201501120800 METAR MRLM NIL=
201501120900 METAR MRLM NIL=
201501121000 METAR MRLM NIL=
201501121100 METAR MRLM NIL=
201501121200 METAR MRLM NIL=
201501121300 METAR MRLM 121300Z 23002KT 9999 SCT015 24/24 A2997=
201501121400 METAR MRLM 121400Z 28002KT 9999 BKN015 28/24 A2998=
201501121500 METAR MRLM 121500Z 10003KT 9999 BKN025 29/24 A2997=
201501121600 METAR MRLM 121600Z 08004KT 9999 BKN025 29/25 A2996=
201501121700 METAR MRLM 121700Z 06007KT 9999 SCT025 29/25 A2993=
201501121800 METAR MRLM 121800Z 04009KT 9999 FEW028 30/24 A2990=
201501121900 METAR MRLM 121900Z 06008KT 9999 FEW025 30/24 A2987=
201501122000 METAR MRLM 122000Z 05007KT 9999 FEW025 30/24 A2985=
201501122100 METAR MRLM 122100Z 02006KT 9999 BKN020 29/25 A2985=
201501122200 METAR MRLM NIL=
201501122300 METAR MRLM NIL=
201501130000 METAR MRLM NIL=
201501130100 METAR MRLM NIL=
201501130200 METAR MRLM NIL=
201501130300 METAR MRLM NIL=
201501130400 METAR MRLM NIL=
201501130500 METAR MRLM NIL=
201501130600 METAR MRLM NIL=
201501130700 METAR MRLM NIL=
201501130800 METAR MRLM NIL=
201501130900 METAR MRLM NIL=
201501131000 METAR MRLM NIL=
201501131100 METAR MRLM NIL=
201501131200 METAR MRLM NIL=
201501131300 METAR MRLM 131300Z 02002KT 2000 RA OVC015 24/24 A2993=
201501131400 METAR MRLM 131400Z 33005KT 5000 DZ VCSH FEW004 BKN015 25/24 A2995 RERA=
201501131500 METAR MRLM 131500Z 27004KT 9999 +DZ FEW005 BKN015 25/24 A2996=
201501131600 METAR MRLM 131600Z 13004KT 8000 +DZ VCSH OVC015 27/24 A2994=
201501131700 METAR MRLM 131700Z 21001KT 9999 BKN015 27/24 A2993 REDZ=
201501131800 METAR MRLM 131800Z 80000 9999 BKN015 26/24 A2991=
201501131900 METAR MRLM 131900Z 23004KT 9999 OVC015 26/24 A2987 RERA=
201501132000 METAR MRLM 132000Z 24001KT 9999 BKN015 27/24 A2985=
201501132054 METAR MRLM 132100 23003KT 9999 BKN018 27/23 A2985=
201501132100 METAR MRLM 132100Z 23003KT 9999 BKN018 27/23 A2985=
201501132200 METAR MRLM NIL=
201501132300 METAR MRLM NIL=
201501140000 METAR MRLM NIL=
201501140100 METAR MRLM NIL=
201501140200 METAR MRLM NIL=
201501140300 METAR MRLM NIL=
201501140400 METAR MRLM NIL=
201501140500 METAR MRLM NIL=
201501140600 METAR MRLM NIL=
201501140700 METAR MRLM NIL=
201501140800 METAR MRLM NIL=
201501140900 METAR MRLM NIL=
201501141000 METAR MRLM NIL=
201501141100 METAR MRLM NIL=
201501141200 METAR MRLM NIL=
201501141300 METAR MRLM 141300Z 0503KT 500 RASH OVC012TCU 23/23 A2996=
201501141400 METAR MRLM 24006KT 9999 +DZ SCT015 SCT080 23/22 A2996 RERA=
201501141403 METAR MRLM 141403Z 24006KT 9999 +DZ SCT015 SCT080 23/22 A2996 RERA=
201501141500 METAR MRLM 141500Z 24006KT 9999 SCT020 SCT090 24/23 A2997 REDZ=
201501141600 METAR MRLM 141600Z 28004KT 9999 BKN025 SCT090 28/23 A2996=
201501141700 METAR MRLM 141700Z 09003KT 9999 FEW028 BKN110 29/24 A2994=
201501141800 METAR MRLM 141800Z 08004KT 9999 FEW025 BKN100 29/24 A2991=
201501141900 METAR MRLM 141900Z 08004KT 9999 FEW025 29/24 A2988=
201501142000 METAR MRLM 142000Z 06008KT 9999 FEW025 29/24 A2986=
201501142100 METAR MRLM 142100Z 05007KT 9999 FEW030 30/24 A2985=
201501142200 METAR MRLM NIL=
201501142300 METAR MRLM NIL=
201501150000 METAR MRLM NIL=
201501150100 METAR MRLM NIL=
201501150200 METAR MRLM NIL=
201501150300 METAR MRLM NIL=
201501150400 METAR MRLM NIL=
201501150500 METAR MRLM NIL=
201501150600 METAR MRLM NIL=
201501150700 METAR MRLM NIL=
201501150800 METAR MRLM NIL=
201501150900 METAR MRLM NIL=
201501151000 METAR MRLM NIL=
201501151100 METAR MRLM NIL=
201501151200 METAR MRLM NIL=
201501151300 METAR MRLM 151300Z 26003KT CAVOK 22/21 A2992=
201501151400 METAR MRLM 151400Z 24003KT CAVOK 25/23 A2995=
201501151500 METAR MRLM 151500Z 00000KT CAVOK 27/23 A2996=
201501151600 METAR MRLM 151600Z 09003KT CAVOK 28/23 A2995=
201501151700 METAR MRLM 151700Z 06005KT CAVOK 28/24 A2994=
201501151800 METAR MRLM 151800Z 0706KT 9999 FEW025 BKN280 29/24 A2992=
201501151900 METAR MRLM 151900Z 07004KT 9999 FEW028 BKN280 29/23 A2990=
201501152000 METAR MRLM 152000Z 08007KT 9999 SCT025 SCT280 29/24 A2988=
201501152100 METAR MRLM 152100Z 09003KT 9999 FEW025 BKN280 29/24 A2986=
201501152200 METAR MRLM NIL=
201501152300 METAR MRLM NIL=
201501160000 METAR MRLM NIL=
201501160100 METAR MRLM NIL=
201501160200 METAR MRLM NIL=
201501160300 METAR MRLM NIL=
201501160400 METAR MRLM NIL=
201501160500 METAR MRLM NIL=
201501160600 METAR MRLM NIL=
201501160700 METAR MRLM NIL=
201501160800 METAR MRLM NIL=
201501160900 METAR MRLM NIL=
201501161000 METAR MRLM NIL=
201501161100 METAR MRLM NIL=
201501161200 METAR MRLM NIL=
201501161300 METAR MRLM 161300Z 24003KT CAVOK 24/23 A2997=
201501161358 METAR MRLM 161358Z 33003KT 9999 FEW013 BKN080 25/23 A2999=
201501161400 METAR MRLM 33003KT 9999 FEW013 BKN080 25/23 A2999=
201501161500 METAR MRLM 161500Z 02002KT 9999 BKN020 SCT080 27/24 A3000=
201501161600 METAR MRLM 161600Z 05006KT 9999 BKN015 27/24 A3002=
201501161700 METAR MRLM 161700Z 02007KT 9999 BKN018 28/24 A3000=
201501161800 METAR MRLM 161800Z 08008KT 9999 BKN020 28/24 A2998=
201501161838 METAR MRLM 161838Z 08022KT 3000 RA OVC012 25/23 A2996=
201501161900 METAR MRLM 161900Z 06020KT 3000 RA SCT012 SCT090 24/22 A2996=
201501162000 METAR MRLM 162000Z 21005KT 9999 SCT025 SCT100 27/22 A2994 RERA=
201501162100 METAR MRLM 162100Z 27005KT 9999 SCT015 SCT070 25/22 A2993=
201501162200 METAR MRLM NIL=
201501162300 METAR MRLM NIL=
201501170000 METAR MRLM NIL=
201501170100 METAR MRLM NIL=
201501170200 METAR MRLM NIL=
201501170300 METAR MRLM NIL=
201501170400 METAR MRLM NIL=
201501170500 METAR MRLM NIL=
201501170600 METAR MRLM NIL=
201501170700 METAR MRLM NIL=
201501170800 METAR MRLM NIL=
201501170900 METAR MRLM NIL=
201501171000 METAR MRLM NIL=
201501171100 METAR MRLM NIL=
201501171200 METAR MRLM NIL=
201501171300 METAR MRLM 171300Z 08005KT 9999 RA SCT015 SCT080 23/22 A3003=
201501171400 METAR MRLM 171400Z 23005KT 9999 BKN025 23/21 A3004 RERA=
201501171500 METAR MRLM 171500Z 24004KT 9999 SCT020 SCT090 26/22 A3004=
201501171600 METAR MRLM 171600Z 36007KT 9999 FEW025 BKN080 27/22 A3006=
201501171700 METAR MRLM 171700Z 33003KT 9999 FEW025 BKN070 27/22 A3004=
201501171800 METAR MRLM 171800Z 07018KT 8000 DZ VCSH BKN015 SCT080 24/22 A3004=
201501171900 METAR MRLM 171900Z 16005KT 9999 DZ FEW015 BKN080 25/22 A2999=
201501172000 METAR MRLM 172000Z 26005KT 9999 BKN035 SCT090 27/22 A2996 REDZ=
201501172051 METAR MRLM 172100 31003KT 9999 FEW025 BKN090 28/22 A2996=
201501172100 METAR MRLM 172100Z 31003KT 9999 FEW025 BKN090 28/22 A2996=
201501172200 METAR MRLM NIL=
201501172300 METAR MRLM NIL=
201501180000 METAR MRLM NIL=
201501180100 METAR MRLM NIL=
201501180200 METAR MRLM NIL=
201501180300 METAR MRLM NIL=
201501180400 METAR MRLM NIL=
201501180500 METAR MRLM NIL=
201501180600 METAR MRLM NIL=
201501180700 METAR MRLM NIL=
201501180800 METAR MRLM NIL=
201501180900 METAR MRLM NIL=
201501181000 METAR MRLM NIL=
201501181100 METAR MRLM NIL=
201501181200 METAR MRLM NIL=
201501181300 METAR MRLM 181300Z 22004KT 9999 BKN025 22/22 A3003=
201501181400 METAR MRLM 181400Z 23004KT 9999 OVC015 23/22 A3004 RERA=
201501181500 METAR MRLM 181500Z 23005KT 9999 DZ FEW005 BKN015 23/22 A3006=
201501181600 METAR MRLM 181600Z 25002KT 9999 FEW007 BKN015 24/23 A3007 REDZ=
201501181700 METAR MRLM 181700Z 28004KT 9999 DZ OVC020 25/23 A3005=
201501181800 METAR MRLM 181800Z 25003KT 6000 RA HZ SCT007 SCT1500 24/23 A3003 REDZ=
201501181900 METAR MRLM 181900Z 22005KT 8000 +DZ HZ SCT005 SCT090 23/22 A3000 RERA=
201501182000 METAR MRLM 182000Z 26005KT 6000 +DZ HZ SCT005 SCT090 23/22 A2999=
201501182100 METAR MRLM 182100Z 27005KT 9999 DZ BKN025 SCT090 24/23 A2998=
201501182200 METAR MRLM NIL=
201501182300 METAR MRLM NIL=
201501190000 METAR MRLM NIL=
201501190100 METAR MRLM NIL=
201501190200 METAR MRLM NIL=
201501190300 METAR MRLM NIL=
201501190400 METAR MRLM NIL=
201501190500 METAR MRLM NIL=
201501190600 METAR MRLM NIL=
201501190700 METAR MRLM NIL=
201501190800 METAR MRLM NIL=
201501190900 METAR MRLM NIL=
201501191000 METAR MRLM NIL=
201501191100 METAR MRLM NIL=
201501191200 METAR MRLM NIL=
201501191300 METAR MRLM 191300Z 25005KT 9999 OVC015 23/22 A3000=
201501191400 METAR MRLM 191400Z 25004KT 9999 SCT015 SCT080 25/23 A3001=
201501191500 METAR MRLM 191500Z 28003KT 9999 FEW015 BKN030 26/23 A3001=
201501191600 METAR MRLM 191600Z 04007KT 5000 +DZ VCSH BKN010 24/22 A3003 RERA=
201501191700 METAR MRLM 191700Z 30004KT 9999 DZ BKN015 24/23 A3002=
201501191800 METAR MRLM 191800Z 26004KT 9999 DZ FEW005 BKN020 24/23 A2998 RERA=
201501191900 METAR MRLM 191900Z 25006KT 9999 SCT020 SCT080 26/23 A2994 REDZ=
201501192000 METAR MRLM 192000Z 28005KT 9999 FEW028 BKN090 29/23 A2990=
201501192100 METAR MRLM 192100Z 01013KT 7000 +DZ VCSH BKN015 26/23 A29900=
201501192200 METAR MRLM NIL=
201501192300 METAR MRLM NIL=
201501200000 METAR MRLM NIL=
201501200100 METAR MRLM NIL=
201501200200 METAR MRLM NIL=
201501200300 METAR MRLM NIL=
201501200400 METAR MRLM NIL=
201501200500 METAR MRLM NIL=
201501200600 METAR MRLM NIL=
201501200700 METAR MRLM NIL=
201501200800 METAR MRLM NIL=
201501200900 METAR MRLM NIL=
201501201000 METAR MRLM NIL=
201501201100 METAR MRLM NIL=
201501201200 METAR MRLM NIL=
201501201300 METAR MRLM 201300Z 23005KT 9999 SCT015 SCT090 23/22 A2993=
201501201400 METAR MRLM 201400Z 22004KT 9999 SCT015 SCT090 25/23 A2996=
201501201500 METAR MRLM 201500Z 21006KT 9999 FEW018 BKN090 26/22 A2997=
201501201600 METAR MRLM 201600Z 20007KT CAVOK 28/22 A2997=
201501201700 METAR MRLM 201700Z 16006KT CAVOK 30/21 A2995=
201501201800 METAR MRLM 201800Z 14008KT 9999 FEW025 BKN280 30/22 A2993=
201501201900 METAR MRLM 201900Z 13009KT 9999 FEW025 BKN280 30/22 A2990=
201501202000 METAR MRLM 202000Z 12009KT 9999 FEW025 BKN270 30/23 A2998=
201501202100 METAR MRLM 202100Z 12010KT 9999 FEW035 BKN270 30/23 A29860=
201501202200 METAR MRLM NIL=
201501202300 METAR MRLM NIL=
201501210000 METAR MRLM NIL=
201501210100 METAR MRLM NIL=
201501210200 METAR MRLM NIL=
201501210300 METAR MRLM NIL=
201501210400 METAR MRLM NIL=
201501210500 METAR MRLM NIL=
201501210600 METAR MRLM NIL=
201501210700 METAR MRLM NIL=
201501210800 METAR MRLM NIL=
201501210900 METAR MRLM NIL=
201501211000 METAR MRLM NIL=
201501211100 METAR MRLM NIL=
201501211200 METAR MRLM NIL=
201501211300 METAR MRLM 211300Z 26003KT CAVOK 22/21 A2995=
201501211400 METAR MRLM 211400Z 23005KT CAVOK 26/22 A2997=
201501211500 METAR MRLM 211500Z 11004KT CAVOK 28/23 A2998=
201501211600 METAR MRLM 211600Z 11005KT 9999 FEW025 BKN270 28/22 A2998=
201501211700 METAR MRLM 211700Z 12007KT 9999 FEW030 SCT130 28/22 A2997=
201501211800 METAR MRLM 211800Z 15008KT 9999 FEW035 SCT130 29/22 A2995=
201501211900 METAR MRLM 211900Z 14011KT 9999 FEW025 BKN090 29/24 A2991=
201501212000 METAR MRLM 212000Z 14009KT 9999 FEW025 BKN080 29/24 A2989=
201501212100 METAR MRLM 212100Z 12006KT 9999 FEW030 BKN080 29/23 A2987=
201501212200 METAR MRLM NIL=
201501212300 METAR MRLM NIL=
201501220000 METAR MRLM NIL=
201501220100 METAR MRLM NIL=
201501220200 METAR MRLM NIL=
201501220300 METAR MRLM NIL=
201501220400 METAR MRLM NIL=
201501220500 METAR MRLM NIL=
201501220600 METAR MRLM NIL=
201501220700 METAR MRLM NIL=
201501220800 METAR MRLM NIL=
201501220900 METAR MRLM NIL=
201501221000 METAR MRLM NIL=
201501221100 METAR MRLM NIL=
201501221200 METAR MRLM NIL=
201501221300 METAR MRLM 221300Z 25005KT CAVOK 22/20 A2998=
201501221400 METAR MRLM 221400Z 24003KT CAVOK 27/22 A3001=
201501221500 METAR MRLM 221500Z 09001KT CAVOK 29/21 A3001=
201501221600 METAR MRLM 221600Z 07005KT 9999 FEW025 BKN120 28/22 A3001=
201501221700 METAR MRLM NIL=
201501221800 METAR MRLM 221800Z 10007KT 9999 SCT025 SCT090 28/22 A2998=
201501221900 METAR MRLM 221900Z 14010KT 9999 SCT020 BKN100 27/22 A2996=
201501222000 METAR MRLM 222000Z 12009KT 9999 FEW025 BKN090 27/22 A2994=
201501222100 METAR MRLM 222100Z 10007KT 9999 BKN025 SCT100 27/22 A2993=
201501222200 METAR MRLM NIL=
201501222300 METAR MRLM NIL=
201501230000 METAR MRLM NIL=
201501230100 METAR MRLM NIL=
201501230200 METAR MRLM NIL=
201501230300 METAR MRLM NIL=
201501230400 METAR MRLM NIL=
201501230500 METAR MRLM NIL=
201501230600 METAR MRLM NIL=
201501230700 METAR MRLM NIL=
201501230800 METAR MRLM NIL=
201501230900 METAR MRLM NIL=
201501231000 METAR MRLM NIL=
201501231100 METAR MRLM NIL=
201501231200 METAR MRLM NIL=
201501231300 METAR MRLM 231300Z 23003KT CAVOK 22/21 A2997=
201501231400 METAR MRLM 231400Z 23001KT CAVOK 25/22 A2999=
201501231500 METAR MRLM 231500Z 07003KT CAVOK 27/23 A3000=
201501231600 METAR MRLM 231600Z 11005KT CAVOK 28/23 A2999=
201501231700 METAR MRLM 231700Z 11004KT 9999 FEW035 BKN260 29/22 A2997=
201501231800 METAR MRLM 231800Z 10006KT 9999 FEW035 BKN260 29/22 A2994=
201501231900 METAR MRLM 231900Z 09007KT 9999 FEW035 BKN260 28/22 A2991=
201501232000 METAR MRLM 232000Z 08005KT 9999 FEW035 BKN260 29/22 A2988=
201501232100 METAR MRLM 232100Z 06006KT 9999 FEW035 BKN260 29/22 A2988=
201501232200 METAR MRLM NIL=
201501232300 METAR MRLM NIL=
201501240000 METAR MRLM NIL=
201501240100 METAR MRLM NIL=
201501240200 METAR MRLM NIL=
201501240300 METAR MRLM NIL=
201501240400 METAR MRLM NIL=
201501240500 METAR MRLM NIL=
201501240600 METAR MRLM NIL=
201501240700 METAR MRLM NIL=
201501240800 METAR MRLM NIL=
201501240900 METAR MRLM NIL=
201501241000 METAR MRLM NIL=
201501241100 METAR MRLM NIL=
201501241200 METAR MRLM NIL=
201501241300 METAR MRLM 241300Z 19004KT 9999 BKN025 23/22 A2996=
201501241400 METAR MRLM 241400Z 25004KT 9999 SCT025 BKN080 25/23 A2998=
201501241500 METAR MRLM 241500Z 25004KT 9999 SCT020 SCT080 27/23 A2999=
201501241600 METAR MRLM 241600Z 21002KT 9999 FEW025 BKN080 29/23 A2998=
201501241700 METAR MRLM 241700Z 11002KT 9999 SCT025 29/23 A2996=
201501241800 METAR MRLM 241800Z 09004KT 9999 SCT035 SCT090 29/22 A2994=
201501241900 METAR MRLM 241900Z 06008KT 9999 BKN030 SCT080 29/23 A2993=
201501242000 METAR MRLM 242000Z 05014KT 9999 FEW015 SCT025 27/21 A2991=
201501242100 METAR MRLM 242100Z 07005KT 9999 SCT030 SCT080 27/20 A2989=
201501242200 METAR MRLM NIL=
201501242300 METAR MRLM NIL=
201501250000 METAR MRLM NIL=
201501250100 METAR MRLM NIL=
201501250200 METAR MRLM NIL=
201501250300 METAR MRLM NIL=
201501250400 METAR MRLM NIL=
201501250500 METAR MRLM NIL=
201501250600 METAR MRLM NIL=
201501250700 METAR MRLM NIL=
201501250800 METAR MRLM NIL=
201501250900 METAR MRLM NIL=
201501251000 METAR MRLM NIL=
201501251100 METAR MRLM NIL=
201501251200 METAR MRLM NIL=
201501251300 METAR MRLM 251300Z 25003KT CAVOK 22/21 A2992=
201501251400 METAR MRLM 251400Z 24003KT 9999 SCT020 SCT090 25/21 A2993=
201501251500 METAR MRLM 251500Z 03012KT 9999 FEW015 SCT035 26/23 A2995=
201501251600 METAR MRLM 251600Z 01007KT 9999 FEW015 SCT035 25/22 A2996=
201501251700 METAR MRLM 251700Z 28003KT 9999 BKN025 26/22 A2983=
201501251758 METAR MRLM 261800Z 12005KT 9999 BKN025 SCT080 27/22 A2992=
201501251800 METAR MRLM NIL=
201501251900 METAR MRLM 251900Z 01004KT 9999 FEW025 SCT035 28/22 A2990=
201501252000 METAR MRLM 252000Z 05003KT 9999 FEW030 BKN080 28/21 A2987=
201501252055 METAR MRLM 262100Z 04006KT 9999 FEW030 SCT130 29/22 A2986=
201501252100 METAR MRLM NIL=
201501252200 METAR MRLM NIL=
201501252300 METAR MRLM NIL=
201501260000 METAR MRLM NIL=
201501260100 METAR MRLM NIL=
201501260200 METAR MRLM NIL=
201501260300 METAR MRLM NIL=
201501260400 METAR MRLM NIL=
201501260500 METAR MRLM NIL=
201501260600 METAR MRLM NIL=
201501260700 METAR MRLM NIL=
201501260800 METAR MRLM NIL=
201501260900 METAR MRLM NIL=
201501261000 METAR MRLM NIL=
201501261100 METAR MRLM NIL=
201501261200 METAR MRLM NIL=
201501261300 METAR MRLM 271300Z 30007KT 9999 FEW010 SCT015 22/19 A2997=
201501261400 METAR MRLM 261400Z 05010KT 8000 DZ VCSH SCT008 SCT090 23/21 A3001=
201501261500 METAR MRLM 261500Z 06008KT 8000 DZ HZ BKN010 SCT090 23/21 A3003=
201501261600 METAR MRLM 261600Z 25004KT 7000 +DZ HZ BKN010 SCT090 23/21 A3003=
201501261700 METAR MRLM 261700Z 25005KT 9999 DZ FEW008 BKN025 23/22 A3001=
201501261800 METAR MRLM 261800Z 2405KT 9999 SCT015 SCT090 25/22 A2999 REDZ=
201501261900 METAR MRLM 261900Z 24005KT 9999 BKN025 26/22 A2996=
201501262000 METAR MRLM 262000Z 27005KT 9999 BKN025 27/22 A2993=
201501262100 METAR MRLM 262100Z 15010KT 9999 BKN015 26/22 A2992=
201501262200 METAR MRLM NIL=
201501262300 METAR MRLM NIL=
201501270000 METAR MRLM NIL=
201501270100 METAR MRLM NIL=
201501270200 METAR MRLM NIL=
201501270300 METAR MRLM NIL=
201501270400 METAR MRLM NIL=
201501270500 METAR MRLM NIL=
201501270600 METAR MRLM NIL=
201501270700 METAR MRLM NIL=
201501270800 METAR MRLM NIL=
201501270900 METAR MRLM NIL=
201501271000 METAR MRLM NIL=
201501271100 METAR MRLM NIL=
201501271200 METAR MRLM 271200Z 00000KT 9999 FEW007 BKN120 21/20 A2998=
201501271300 METAR MRLM 271300Z 33002KT 9999 BKN007 SCT110 21/20 A3000=
201501271400 METAR MRLM 271400Z 19002KT 9999 DZ BKN010 SCT110 23/21 A3002=
201501271500 METAR MRLM 271500Z 30002KT 9999 SCT015 SCT120 24/22 A3002 REDZ=
201501271600 METAR MRLM 271600Z 31005KT 9999 FEW030 SCT130 28/21 A3001=
201501271700 METAR MRLM 271700Z 29003KT 9999 SCT035 BKN130 29/20 A2999=
201501271800 METAR MRLM 271800Z 06004KT 9999 BKN030 SCT120 29/21 A2997=
201501271900 METAR MRLM 271900Z 36014KT 5000 +DZ BKN010 25/23 A2997=
201501272000 METAR MRLM 272000Z 23005KT 9999 SCT015 BKN120 25/22 A2993 REDZ=
201501272100 METAR MRLM 272100Z 29003KT 9999 SCT010 BKN120 26/23 A2992=
201501272140 METAR MRLM 272140Z 29005KT 7000 DZ BKN010 24/22 A2992=
201501272200 METAR MRLM 272200Z 27004KT 8000 DZ BKN010 SCT090 24/22 A2993=
201501272300 METAR MRLM 272300Z 26003KT 8000 3000N DZ BKN007 SCT090 24/22 A2993=
201501280000 METAR MRLM 280000Z 28005KT 3000 DZ BKN007 22/21 A2993=
201501280100 METAR MRLM NIL=
201501280200 METAR MRLM NIL=
201501280300 METAR MRLM NIL=
201501280400 METAR MRLM NIL=
201501280500 METAR MRLM NIL=
201501280600 METAR MRLM NIL=
201501280700 METAR MRLM NIL=
201501280800 METAR MRLM NIL=
201501280900 METAR MRLM NIL=
201501281000 METAR MRLM NIL=
201501281100 METAR MRLM NIL=
201501281200 METAR MRLM 281200Z 01011KT 4000 DZ OVC007 24/23 A2997=
201501281300 METAR MRLM 281300Z 05007KT 8000 DZ BKN007 24/23 A2998=
201501281400 METAR MRLM 281400Z 26004KT 9999 -DZ BKN007 23/22 A3000=
201501281500 METAR MRLM 281500Z 31005KT 5000 RA OVC007 23/22 A3002=
201501281600 METAR MRLM 281600Z 27006KT 9999 BKN010 24/23 A3000 RERA=
201501281700 METAR MRLM 281700Z 26002KT 9999 BKN010 26/24 A3000=
201501281730 METAR MRLM 281730Z 33006KT 5000 +DZ BKN010 25/23 A2999=
201501281800 METAR MRLM 281800Z 33006KT 9999 DZ BKN010 24/22 A2998=
201501281900 METAR MRLM 281900Z 29003KT 9999 BKN015 SCT110 25/23 A2995=
201501282000 METAR MRLM 282000Z 29002KT 9999 BKN020 SCT120 27/23 A2992=
201501282100 METAR MRLM 282100Z 34006KT 8000 DZ BKN015 26/23 A2990=
201501282200 METAR MRLM 282200Z 32004KT 8000 DZ BKN0007 24/23 A2991=
201501282230 METAR MRLM 282230Z 00000KT 2000 RA OVC007 23/22 A2991=
201501282300 METAR MRLM 282300Z 29006KT 7000 2000 +DZ BKN007 23/22 A2991 RERA=
201501290000 METAR MRLM 290000Z 27004KT 5000 DZ BKN007 22/21 A2992=
201501290100 METAR MRLM NIL=
201501290200 METAR MRLM NIL=
201501290300 METAR MRLM NIL=
201501290400 METAR MRLM NIL=
201501290500 METAR MRLM NIL=
201501290600 METAR MRLM NIL=
201501290700 METAR MRLM NIL=
201501290800 METAR MRLM NIL=
201501290900 METAR MRLM NIL=
201501291000 METAR MRLM NIL=
201501291100 METAR MRLM NIL=
201501291200 METAR MRLM 291200Z 03014KT 9999 FEW005 BKN025 25/22 A2993=
201501291300 METAR MRLM 291300Z 0311KT 9999 FEW010 BKN025 25/22 A2994=
201501291400 METAR MRLM 291400Z 25004KT 9999 DZ FEW008 BKN025 24/22 A2996=
201501291500 METAR MRLM 291500Z 03007KT 3000 RA BKN015 23/22 A2998=
201501291600 METAR MRLM 291600Z 30003KT 4000 +DZ SCT005 BKN015 23/22 A2998 RERA=
201501291700 METAR MRLM 291700Z 25003KT 8000 +DZ BKN005 23/22 A2995=
201501291800 METAR MRLM 291800Z 02016KT 5000 RA BKN006 24/23 A2994 REDZ=
201501291900 METAR MRLM 291900Z 34008KT 5000 +DZ HZ OVC006 23/22 A2992=
201501292000 METAR MRLM 292000Z 30008KT 5000 +DZ HZ SCT006 SCT015 23/22 A2989=
201501292100 METAR MRLM 292100Z 29005KT 9999 OVC015 24/22 A2988 REDZ=
201501292200 METAR MRLM 292200Z 33003KT 5000 RA OVC010 24/22 A2989=
201501292300 METAR MRLM 292300Z 31005KT 9999 DZ SCT005 SCT015 23/22 A2990 RERA=
201501292355 METAR MRLM 3000Z 27003KT 4000 RA OVC010 22/22 A2992 REDZ=
201501300000 METAR MRLM NIL=
201501300100 METAR MRLM NIL=
201501300200 METAR MRLM NIL=
201501300300 METAR MRLM NIL=
201501300400 METAR MRLM NIL=
201501300500 METAR MRLM NIL=
201501300600 METAR MRLM NIL=
201501300700 METAR MRLM NIL=
201501300800 METAR MRLM NIL=
201501300900 METAR MRLM NIL=
201501301000 METAR MRLM NIL=
201501301100 METAR MRLM NIL=
201501301200 METAR MRLM 301200Z 26003KT CAVOK 21/21 A2993=
201501301300 METAR MRLM 301300Z 26002KT CAVOK 22/21 A2994=
201501301400 METAR MRLM 301400Z 28004KT CAVOK 24/22 A2997=
201501301500 METAR MRLM 301500Z 01005KT CAVOK 27/22 A2998=
201501301600 METAR MRLM 301600Z 36010KT 9999 FEW022 BKN090 27/22 A2999=
201501301700 METAR MRLM 301700Z 35008KT 9999 FEW025 BKN080 26/22 A2997=
201501301800 METAR MRLM 301800Z 02005KT 9999 FEW032 BKN090 28/22 A2994=
201501301900 METAR MRLM 301900Z 02004KT 9999 FEW035 BKN080 28/21 A2992=
201501302000 METAR MRLM 302000Z 05005KT 9999 FEW030 BKN080 27/21 A2990=
201501302100 METAR MRLM 302100Z 10004KT 9999 SCT025 SCT080 27/22 A2989=
201501302200 METAR MRLM 302200Z 15002KT 9999 BKN015 26/23 A2989=
201501302238 METAR MRLM 302238Z 05021KT 8000 4KM N RASH OVC1012 24/22 A2990=
201501302300 METAR MRLM 302300Z 07016KT 8000 DZ VCSH SCT007 SCT015 23/22 A2991 RERA=
201501302358 METAR MRLM 310000Z 03006KT 8000 DZ BKN012 23/22 A2993=
201501310000 METAR MRLM 310000Z 03006KT 8000 DZ BKN012 23/22 A2993=
201501310100 METAR MRLM NIL=
201501310200 METAR MRLM NIL=
201501310300 METAR MRLM NIL=
201501310400 METAR MRLM NIL=
201501310500 METAR MRLM NIL=
201501310600 METAR MRLM NIL=
201501310700 METAR MRLM NIL=
201501310800 METAR MRLM NIL=
201501310900 METAR MRLM NIL=
201501311000 METAR MRLM NIL=
201501311100 METAR MRLM NIL=
201501311200 METAR MRLM 311200Z 28003KT CAVOK 20/19 A2996=
201501311300 METAR MRLM 311300Z 27003KT CAVOK 21/20 A2997=
201501311400 METAR MRLM 311400Z 27004KT CAVOK 24/20 A2999=
201501311500 METAR MRLM 311500Z 30004KT CAVOK 27/21 A3000=
201501311600 METAR MRLM 311600Z 36006KT CAVOK 29/22 A3000=
201501311700 METAR MRLM 311700Z 04007KT 9999 FEW030 28/23 A2997=
201501311800 METAR MRLM 311800Z 05007KT 9999 FEW030 29/23 A2995=
201501311900 METAR MRLM 311900Z 04007KT CAVOK 29/23 A2993=
201501312000 METAR MRLM 312000Z 02010KT CAVOK 28/23 A2991=
201501312100 METAR MRLM 312100Z 02010KT 9999 FEW020 BKN130 27/23 A2990=
201501312200 METAR MRLM 312200Z 04009KT 9999 FEW030 BKN130 28/22 A2990=
201501312300 METAR MRLM 312300Z 04008KT 9999 FEW025 BKN120 27/22 A2991=
201502010000 METAR MRLM 010000Z 04005KT CAVOK 26/21 A2992=
201502010100 METAR MRLM NIL=
201502010200 METAR MRLM NIL=
201502010300 METAR MRLM NIL=
201502010400 METAR MRLM NIL=
201502010500 METAR MRLM NIL=
201502010600 METAR MRLM NIL=
201502010700 METAR MRLM NIL=
201502010800 METAR MRLM NIL=
201502010900 METAR MRLM NIL=
201502011000 METAR MRLM NIL=
201502011100 METAR MRLM NIL=
201502011200 METAR MRLM 011200Z 23004KT 9999 SCT010 SCT100 22/20 A2995=
201502011300 METAR MRLM 011300Z 23004KT 9999 FEW010 BKN110 23/21 A2996=
201502011400 METAR MRLM 011400Z 00000KT 9999 SCT015 BKN110 24/21 A2999=
201502011500 METAR MRLM 011500Z 17004KT 9999 SCT020 BKN110 26/22 A3000=
201502011600 METAR MRLM 011600Z 20005KT 9999 SCT030 SCT120 27/21 A2999=
201502011700 METAR MRLM 011700Z 18004KT CAVOK 30/21 A2996=
201502011800 METAR MRLM 011800Z 12004KT CAVOK 29/22 A2994=
201502011900 METAR MRLM 011900Z 09007KT 9999 FEW040 30/22 A2991=
201502012000 METAR MRLM 012000Z 08007KT 9999 FEW040 30/22 A2989=
201502012100 METAR MRLM 012100Z 09009KT CAVOK 29/22 A2987=
201502012200 METAR MRLM 012200Z 09009KT 9999 FEW030 BKN130 28/23 A2987=
201502012300 METAR MRLM 012300Z 12006KT CAVOK 27/23 A2987=
201502020000 METAR MRLM 020000Z 00000KT CAVOK 26/23 A2989=
201502020100 METAR MRLM NIL=
201502020200 METAR MRLM NIL=
201502020300 METAR MRLM NIL=
201502020400 METAR MRLM NIL=
201502020500 METAR MRLM NIL=
201502020600 METAR MRLM NIL=
201502020700 METAR MRLM NIL=
201502020800 METAR MRLM NIL=
201502020900 METAR MRLM NIL=
201502021000 METAR MRLM NIL=
201502021100 METAR MRLM NIL=
201502021200 METAR MRLM 021200Z 25004KT CAVOK 21/20 A2991=
201502021300 METAR MRLM 021300Z 30002KT CAVOK 22/21 A2993=
201502021400 METAR MRLM 021400Z 23004KT CAVOK 26/22 A2994=
201502021500 METAR MRLM 021500Z 021500Z 07002KT CAVOK 28/23 A2995=
201502021600 METAR MRLM 021600Z 08007KT 9999 FEW035 BKN090 29/22 A2995=
201502021700 METAR MRLM 021700Z 04007KT 9999 FEW030 BKN080 29/23 A2994=
201502021800 METAR MRLM 021800Z 06004KT 9999 SCT025 SCT090 28/23 A2992=
201502021900 METAR MRLM 021900Z 11004KT 9999 FEW028 SCT110 29/23 A29/23 A2989=
201502022000 METAR MRLM 022000Z 12005KT 9999 FEW030 SCT090 30/24 A2987=
201502022100 METAR MRLM 022100Z 06007KT 9999 SCT030 SCT090 30/24 A2987=
201502022200 METAR MRLM 022200Z 07005KT 9999 SCT025 SCT090 29/24 A2987=
201502022300 METAR MRLM 022300Z 04006KT 9999 BKN022 28/24 A2988=
201502022354 METAR MRLM 030000Z 10004KT 9999 BKN TCU015 27/24 A2989=
201502030000 METAR MRLM 030000Z 10004KT 9999 BKN TCU015 27/24 A2989=
201502030100 METAR MRLM NIL=
201502030200 METAR MRLM NIL=
201502030300 METAR MRLM NIL=
201502030400 METAR MRLM NIL=
201502030500 METAR MRLM NIL=
201502030600 METAR MRLM NIL=
201502030700 METAR MRLM NIL=
201502030800 METAR MRLM NIL=
201502030900 METAR MRLM NIL=
201502031000 METAR MRLM NIL=
201502031100 METAR MRLM NIL=
201502031200 METAR MRLM 031200Z 19001KT 8000 DZ VCSH OVC010 23/22 A2992=
201502031300 METAR MRLM 031300Z 17003KT 9999 OVC012 23/22 A2994 REDZ=
201502031400 METAR MRLM 031400Z 29002KT 9999 OVC015 24/23 A2996=
201502031500 METAR MRLM NIL=
201502031600 METAR MRLM 031600Z 16003KT 9999 BKN030 29/23 A2998=
201502031700 METAR MRLM 031700Z 10002KT 9999 BKN030 29/23 A2997=
201502031800 METAR MRLM 031800Z 05004KT 9999 BKN030TCU 29/24 A2994=
201502031900 METAR MRLM 031900Z 08004KT 9999 SCT030TCU SCT300 29/23 A2991=
201502032000 METAR MRLM 032000Z 09004KT 9999 SCT030 SCT300 29/23 A2989=
201502032100 METAR MRLM 032100Z 08005KT 9999 SCT025TCU 29/24 A2988=
201502032200 METAR MRLM 032200Z 06008KT 9999 OVC025TCU 29/24 A2987=
201502032300 METAR MRLM 032300Z 06009KT 9999 BKN020 28/24 A2988=
201502032355 METAR MRLM 040000Z 06008KT 9999 BKN018 27/24 A2989=
201502040000 METAR MRLM 040000Z 06008KT 9999 BKN018 27/24 A2989=
201502040100 METAR MRLM NIL=
201502040200 METAR MRLM NIL=
201502040300 METAR MRLM NIL=
201502040400 METAR MRLM NIL=
201502040500 METAR MRLM NIL=
201502040600 METAR MRLM NIL=
201502040700 METAR MRLM NIL=
201502040800 METAR MRLM NIL=
201502040900 METAR MRLM NIL=
201502041000 METAR MRLM NIL=
201502041100 METAR MRLM NIL=
201502041200 METAR MRLM 041200Z 25003KT 9999 FEW010 BKN100 22/21 A2990=
201502041300 METAR MRLM 041300Z 27002KT 9999 SCT010 BKN100 22/22 A2991=
201502041400 METAR MRLM 041400Z 25004KT CAVOK 24/22 A2993=
201502041500 METAR MRLM 041500Z 00000KT 9999 BKN020 27/23 A2994=
201502041600 METAR MRLM 041600Z 18002KT 9999 SCT020 BKN110 27/23 A2994=
201502041700 METAR MRLM 041700Z 21003KT 9999 FEW020 BKN120 27/22 A2992=
201502041800 METAR MRLM 041800Z 06002KT 9999 BKN025 29/22 A2990=
201502041900 METAR MRLM 041900Z 06003KT 9999 FEW035 BKN130 29/22 A2987=
201502042000 METAR MRLM 042000Z 04005KT 9999 SCT035 BKN130 29/21 A2985=
201502042100 METAR MRLM 042100Z 04005KT 9999 BKN025 SCT110 27/22 A2983=
201502042200 METAR MRLM 042200Z 04004KT 9999 BKN020 SCT100 27/23 A2983=
201502042300 METAR MRLM 042300Z 09002KT 9999 SCT020 BKN100 27/23 A2984=
201502050000 METAR MRLM 050000Z 00000KT 9999 BKN015 SCT100 26/23 A2984=
201502050100 METAR MRLM NIL=
201502050200 METAR MRLM NIL=
201502050300 METAR MRLM NIL=
201502050400 METAR MRLM NIL=
201502050500 METAR MRLM NIL=
201502050600 METAR MRLM NIL=
201502050700 METAR MRLM NIL=
201502050800 METAR MRLM NIL=
201502050900 METAR MRLM NIL=
201502051000 METAR MRLM NIL=
201502051100 METAR MRLM NIL=
201502051200 METAR MRLM 051200Z 26004KT 9999 5000N DZ FEW007 BKN110 22/22 A2988=
201502051300 METAR MRLM 051300Z 25002KT 9999 FEW010 BKN120 23/22 A2989 REDZ=
201502051400 METAR MRLM 051400Z 00000KT 9999 SCT010 BKN120 24/23 A2992=
201502051500 METAR MRLM 051500Z 32007KT 9999 FEW010 BKN120 26/23 A2993=
201502051600 METAR MRLM 051600Z 29003KT 9999 FEW025 BKN130 28/23 A2993=
201502051700 METAR MRLM 051700Z 31004KT 9999 FEW020 BKN120 27/23 A2992=
201502051800 METAR MRLM 051800Z 32004KT 9999 SCT035 BKN130 29/22 A2991=
201502051900 METAR MRLM 051900Z 31004KT 9999 FEW035 BKN130 29/22 A2989=
201502052000 METAR MRLM 052000Z 01008KT 9999 FEW035 BKN140 30/23 A2985=
201502052100 METAR MRLM 052100Z 01006KT 9999 FEW030 BKN130 28/23 A2985=
201502052200 METAR MRLM 052200Z 36006KT 9999 FEW030 BKN130 28/22 A2985=
201502052300 METAR MRLM 052300Z 04004KT 9999 SCT020 BKN130 27/24 A2985=
201502060000 METAR MRLM 060000Z 00000KT 9999 FEW015 BKN120 26/24 A2987=
201502060100 METAR MRLM NIL=
201502060200 METAR MRLM NIL=
201502060300 METAR MRLM NIL=
201502060400 METAR MRLM NIL=
201502060500 METAR MRLM NIL=
201502060600 METAR MRLM NIL=
201502060700 METAR MRLM NIL=
201502060800 METAR MRLM NIL=
201502060900 METAR MRLM NIL=
201502061000 METAR MRLM NIL=
201502061100 METAR MRLM NIL=
201502061200 METAR MRLM 061200Z 26004KT 9999 FEW010 SCT030 23/22 A2995=
201502061300 METAR MRLM 061300Z 27005KT 9999 SCT010 SCT090 23/22 A2996=
201502061400 METAR MRLM 061400Z 24004KT 9999 DZ BKN015 24/23 A2999=
201502061500 METAR MRLM 061500Z 22005KT 9999 BKN015 25/23 A3000 REDZ=
201502061600 METAR MRLM 061600Z 36011KT 4000 RA SCT015 SCT090 24/22 A3001=
201502061700 METAR MRLM 061700Z 26004KT 9999 BKN015 24/23 A3000 RERA=
201502061800 METAR MRLM 061800Z 29003KT 2000 RA BKN010 24/23 A2999=
201502061900 METAR MRLM 061900Z 27007KT 8000 3KM SE RA BKN015 23/22 A2995=
201502061904 METAR MRLM 061904Z 27007KT 8000 3KM SE RA BKN015 23/22 A2995=
201502062000 METAR MRLM 062000Z 29006KT 5000 RA OVC010 24/22 A2993=
201502062100 METAR MRLM 062100Z 25005KT 7000 DZ BKN020 23/22 A2992 RERA=
201502062200 METAR MRLM 062200Z 27005KT 9999 DZ BKN015 23/22 A2992=
201502062300 METAR MRLM 062300Z 24006KT 9999 FEW010 BKN030 23/22 A2993 REDZ=
201502062355 METAR MRLM 070000Z 24005KT 9999 FEW014 BKN080 23/22 A2993=
201502070000 METAR MRLM 070000Z 24005KT 9999 FEW014 BKN080 23/22 A2993=
201502070100 METAR MRLM NIL=
201502070200 METAR MRLM NIL=
201502070300 METAR MRLM NIL=
201502070400 METAR MRLM NIL=
201502070500 METAR MRLM NIL=
201502070600 METAR MRLM NIL=
201502070700 METAR MRLM NIL=
201502070800 METAR MRLM NIL=
201502070900 METAR MRLM NIL=
201502071000 METAR MRLM NIL=
201502071100 METAR MRLM NIL=
201502071200 METAR MRLM 071200Z 30001KT CAVOK 21/21 A2994=
201502071300 METAR MRLM 071300Z 29002 CAVOK 22/21 A2996=
201502071400 METAR MRLM 071400Z 26003KT CAVOK 24/22 A2998=
201502071500 METAR MRLM 071500Z 24004KT CAVOK 26/23 A2999=
201502071600 METAR MRLM 071600Z 08003KT 9999 FEW028 BKN250 28/23 A2999=
201502071700 METAR MRLM 071700Z 05004KT 9999 FEW028 BKN250 28/22 A2997=
201502071800 METAR MRLM 071800Z 08005KT 9999 FEW2500 BKN250 28/23 A2995=
201502071900 METAR MRLM 071900Z 07004KT 9999 FEW025 SCT140 28/23 A2992=
201502072000 METAR MRLM 072000Z 05005KT 9999 FEW020 BKN090 28/23 Z2990=
201502072100 METAR MRLM 072100Z 06006KT 9999 FEW025 BKN080 28/23 A2989=
201502072200 METAR MRLM 072200Z 05006KT 9999 BKN020 28/23 A2990=
201502072300 METAR MRLM 072300Z 07010KT 9999 SCT020 SCT260 27/23 A2991=
201502072352 METAR MRLM 080000Z 0707KT 9999 FEW020 BKN260 27/22 A2991=
201502080000 METAR MRLM 080000Z 0707KT 9999 FEW020 BKN260 27/22 A2991=
201502080100 METAR MRLM NIL=
201502080200 METAR MRLM NIL=
201502080300 METAR MRLM NIL=
201502080400 METAR MRLM NIL=
201502080500 METAR MRLM NIL=
201502080600 METAR MRLM NIL=
201502080700 METAR MRLM NIL=
201502080800 METAR MRLM NIL=
201502080900 METAR MRLM NIL=
201502081000 METAR MRLM NIL=
201502081100 METAR MRLM NIL=
201502081200 METAR MRLM 081200Z 26002KT 9999 FEW010 BKN110 22/21 A2996=
201502081300 METAR MRLM 081300Z 25003KT CAVOK 22/21 A2998=
201502081400 METAR MRLM 081400Z 00000KT CAVOK 23/21 A3000=
201502081500 METAR MRLM 081500Z 00000KT CAVOK 25/22 A3001=
201502081600 METAR MRLM 081600Z 00000KT 9999 FEW030 BKN240 28/23 A3003=
201502081700 METAR MRLM 081700Z 05006KT 9999 FEW025 BKN240 27/22 A3000=
201502081800 METAR MRLM 081800Z 03010KT 9999 FEW030 BKN250 28/23 A2997=
201502081900 METAR MRLM 081900Z 03006KT CAVOK 27/23 A2994=
201502082000 METAR MRLM 082000Z 01007KT CAVOK 27/22 A2991=
201502082100 METAR MRLM 082100Z 02005KT CAVOK 27/22 A2989=
201502082200 METAR MRLM 082200Z 36007KT 9999 FEW020 BKN230 27/22 A2989=
201502082300 METAR MRLM 082300Z 36010KT 9999 SCT020 SCT200 26/22 A2990=
201502090000 METAR MRLM 090000Z 00000KT 9999 SCT010 SCT200 25/22 A2991=
201502090100 METAR MRLM NIL=
201502090200 METAR MRLM NIL=
201502090300 METAR MRLM NIL=
201502090400 METAR MRLM NIL=
201502090500 METAR MRLM NIL=
201502090600 METAR MRLM NIL=
201502090700 METAR MRLM NIL=
201502090800 METAR MRLM NIL=
201502090900 METAR MRLM NIL=
201502091000 METAR MRLM NIL=
201502091100 METAR MRLM NIL=
201502091200 METAR MRLM 091200Z 24004KT CAVOK 21/21 A2994=
201502091300 METAR MRLM 091300Z 27003KT CAVOK 23/22 A2994=
201502091400 METAR MRLM 091400Z 23003KT CAVOK 26/22 A2997=
201502091500 METAR MRLM 091500Z 07002KT 9999 FEW030 BKN140 28/22 A2997=
201502091600 METAR MRLM 091600Z 04005KT 9999 FEW030 BKN140 28/22 A2996=
201502091700 METAR MRLM 091700Z 04006KT CAVOK 28/22 A2995=
201502091800 METAR MRLM 091800Z 04006KT CAVOK 28/22 A2993=
201502091900 METAR MRLM 091900Z 05006KT CAVOK 29/22 A2991=
201502092000 METAR MRLM 092000Z 04006KT 9999 SCT030 BKN130 28/22 A2988=
201502092100 METAR MRLM 092100Z 04006KT 9999 SCT025 SCT120 28/22 A2986=
201502092200 METAR MRLM 092200Z 06004KT 9999 SCT025 SCT120 27/22 A2986=
201502092300 METAR MRLM 092300Z 08004KT 9999 FEW025 BKN120 A2987=
201502100000 METAR MRLM 100000Z 00000KT 9999 SCT020 BKN110 26/22 A2989=
201502100100 METAR MRLM NIL=
201502100200 METAR MRLM NIL=
201502100300 METAR MRLM NIL=
201502100400 METAR MRLM NIL=
201502100500 METAR MRLM NIL=
201502100600 METAR MRLM NIL=
201502100700 METAR MRLM NIL=
201502100800 METAR MRLM NIL=
201502100900 METAR MRLM NIL=
201502101000 METAR MRLM NIL=
201502101100 METAR MRLM NIL=
201502101200 METAR MRLM 101200Z 26004KT CAVOK 20/19 A2988 NOSIG=
201502101300 METAR MRLM 101300Z 25005KT CAVOK 22/20 A2989=
201502101400 METAR MRLM 101400Z 27002KT CAVOK 26/21 A2992=
201502101500 METAR MRLM 101500Z 05003KT CAVOK 28/21 A2993=
201502101600 METAR MRLM 101600Z 09004KT 9999 FEW030 28/21 A2993=
201502101700 METAR MRLM 101700Z 09006KT 9999 FEW025 29/21 A2992=
201502101800 METAR MRLM 101800Z 08006KT 9999 FEW025 29/21 A2990=
201502101900 METAR MRLM 101900Z 08008KT 9999 FEW025 29/22 A2987=
201502102000 METAR MRLM 102000Z 05008KT 9999 FEW025 29/23 A2985=
201502102100 METAR MRLM 102100Z 06007KT 9999 FEW025 29/22 A2984=
201502102200 METAR MRLM 102200Z 07005KT 9999 BKN025 28/22 A2984=
201502102300 METAR MRLM 102300Z 06003KT 9999 FEW020 BKN090 28/22 A2985=
201502102354 METAR MRLM 110000Z 25001KT 9999 FEW015 BKN8000 25/23 A2986=
201502110000 METAR MRLM 110000Z 25001KT 9999 FEW015 BKN8000 25/23 A2986=
201502110100 METAR MRLM NIL=
201502110200 METAR MRLM NIL=
201502110300 METAR MRLM NIL=
201502110400 METAR MRLM NIL=
201502110500 METAR MRLM NIL=
201502110600 METAR MRLM NIL=
201502110700 METAR MRLM NIL=
201502110800 METAR MRLM NIL=
201502110900 METAR MRLM NIL=
201502111000 METAR MRLM NIL=
201502111100 METAR MRLM NIL=
201502111200 METAR MRLM 111200Z 24005KT CAVOK 20/19 A2993=
201502111300 METAR MRLM 111300Z 24005KT CAVOK 21/19 A2994=
201502111400 METAR MRLM 111400Z 23004KT CAVOK 25/20 A2996=
201502111500 METAR MRLM 111500Z 23003KT CAVOK 29/21 A2997=
201502111600 METAR MRLM 111600Z 09004KT 9999 FEW025 29/22 A2996=
201502111700 METAR MRLM 111700Z 09006KT 9999 FEW025 29/22 A2994=
201502111800 METAR MRLM 111800Z 08006KT 9999 FEW025 SCT160 29/21 A2992=
201502111900 METAR MRLM 111900Z 07006KT 9999 FEW025 29/21 A2989=
201502112000 METAR MRLM 112000Z 07007KT 9999 SCT025 29/22 A2987=
201502112100 METAR MRLM 112100Z 02010KT 9999 SCT025 29/23 A2986=
201502112200 METAR MRLM 112200Z 03014KT 9999 BKN014 28/23 A2987=
201502112300 METAR MRLM 112300Z 05010KT 9999 SCT015 SCT100 26/23 A2988=
201502112355 METAR MRLM 120000Z 04010KT 9999 FEW015 BKN080 26/23 A2990=
201502120000 METAR MRLM 120000Z 04010KT 9999 FEW015 BKN080 26/23 A2990=
201502120100 METAR MRLM NIL=
201502120200 METAR MRLM NIL=
201502120300 METAR MRLM NIL=
201502120400 METAR MRLM NIL=
201502120500 METAR MRLM NIL=
201502120600 METAR MRLM NIL=
201502120700 METAR MRLM NIL=
201502120800 METAR MRLM NIL=
201502120900 METAR MRLM NIL=
201502121000 METAR MRLM NIL=
201502121100 METAR MRLM NIL=
201502121200 METAR MRLM 121200Z 27003KT CAVOK 23/22 A2994=
201502121300 METAR MRLM 121300Z 26003KT 9999 FEW010 BKN110 23/22 A2995=
201502121400 METAR MRLM 121400Z 00000KT 9999 SCT015 BKN100 24/23 A2997=
201502121500 METAR MRLM 121500Z 09002KT 9999 BKN015 25/23 A3000=
201502121600 METAR MRLM 121600Z 05003KT 9999 BKN020 26/22 A3000=
201502121700 METAR MRLM 121700Z 36007KT 9999 SCT020 BKN110 26/22 A2999=
201502121800 METAR MRLM 121800Z 36009KT 9999 BKN015 SCT120 26/23 A2997 REDZ=
201502121900 METAR MRLM 121900Z 01009KT 9999 SCT020 BKN130 27/23 A2994=
201502122000 METAR MRLM 122000Z 03003KT 9999 FEW030 BKN130 28/22 A2992=
201502122100 METAR MRLM 122100Z 05003KT 9999 FEW030 BKN130 28/21 A2990=
201502122200 METAR MRLM 122200Z 04007KT 9999 BKN025 SCT120 27/22 A2991=
201502122300 METAR MRLM 122300Z 04009KT 9999 BKN015 26/23 A2992=
201502130000 METAR MRLM 130000Z 05007KT 9999 BKN010 25/22 A2994=
201502130100 METAR MRLM NIL=
201502130200 METAR MRLM NIL=
201502130300 METAR MRLM NIL=
201502130400 METAR MRLM NIL=
201502130500 METAR MRLM NIL=
201502130600 METAR MRLM NIL=
201502130700 METAR MRLM NIL=
201502130800 METAR MRLM NIL=
201502130900 METAR MRLM NIL=
201502131000 METAR MRLM NIL=
201502131100 METAR MRLM NIL=
201502131200 METAR MRLM 131200Z 27004KT 6000 DZ OVC007 23/22 A2997=
201502131300 METAR MRLM 131300Z 33003KT 5000 RA OVC007 23/23 A3001=
201502131315 METAR MRLM 131315Z 05010KT 2000 +RA OVC007 23/22 A3002=
201502131400 METAR MRLM 131400Z 08006KT 2000 RA FEW005 OVC007 22/22 A3004=
201502131500 METAR MRLM 131500Z 22004KT 6000 DZ BKN007 22/22 A3006 RERA=
201502131600 METAR MRLM 131600Z 23006KT 8000 3000N DZ SCT006 BKN010 23/23 A3006=
201502131700 METAR MRLM 131700Z 26003KT 6000 2000N DZ OVC007 24/23 A3005=
201502131720 METAR MRLM 131720Z 30005KT 3000 +DZ OVC007 23/23 A3005=
201502131800 METAR MRLM 131800Z 31005KT 2000 RA BKN010 23/23 A3004=
201502131900 METAR MRLM 131900Z 25004KT 6000 DZ BKN006 23/22 A3002 RERA=
201502132000 METAR MRLM 132000Z 23007KT 7000 DZ FEW006 BKN010 23/22 A2999=
201502132100 METAR MRLM 132100Z 26005KT 8000 DZ BKN006 22/22 A2999=
201502132200 METAR MRLM 132200Z 24004KT 6000 DZ OVC007 22/21 A2999=
201502132300 METAR MRLM 132300Z 24004KT 9999 BKN007 22/21 A3000 REDZ=
201502140000 METAR MRLM 140000Z 25004KT 9999 BKN007 22/21 A3000=
201502140100 METAR MRLM NIL=
201502140200 METAR MRLM NIL=
201502140300 METAR MRLM NIL=
201502140400 METAR MRLM NIL=
201502140500 METAR MRLM NIL=
201502140600 METAR MRLM NIL=
201502140700 METAR MRLM NIL=
201502140800 METAR MRLM NIL=
201502140900 METAR MRLM NIL=
201502141000 METAR MRLM NIL=
201502141100 METAR MRLM NIL=
201502141200 METAR MRLM 141200Z 26005KT 9999 FEW015 BKN090 21/20 A3004=
201502141300 METAR MRLM 141300Z 26005KT 9999 FEW015 BKN090 22/20 A3005=
201502141400 METAR MRLM 141400Z 26004KT 9999 FEW015 SCT090 26/21 A3006=
201502141500 METAR MRLM 141500Z 26004KT 9999 FEW025 SCT140 27/20 A3007=
201502141600 METAR MRLM 141600Z 31006KT 9999 SCT025 SCT280 28/19 A3007=
201502141700 METAR MRLM 141700Z 36007KT 9999 SCT025 BKN120 29/19 A3005=
201502141800 METAR MRLM 141800Z 03007KT 9999 FEW025 BKN120 29/20 A3004=
201502141900 METAR MRLM 141900Z 01007KT 9999 FEW025 BKN120 28/29 A3001=
201502142000 METAR MRLM 142000Z 01008KT 9999 FEW025 BKN090 28/21 A2999=
201502142100 METAR MRLM 142100Z 34012KT 9999 SCT025 BKN090 27/21 A2998=
201502142200 METAR MRLM 142200Z 32005KT 9999 SCT035 BKN090 26/21 A2998=
201502142300 METAR MRLM 142300Z 26004KT 9999 SCT025 BKN080 26/21 A2998=
201502142353 METAR MRLM 150000Z 30003KT 9999 300NW RA OVC020 25/21 A2999=
201502150000 METAR MRLM 150000Z 30003KT 9999 300NW RA OVC020 25/21 A2999=
201502150100 METAR MRLM NIL=
201502150200 METAR MRLM NIL=
201502150300 METAR MRLM NIL=
201502150400 METAR MRLM NIL=
201502150500 METAR MRLM NIL=
201502150600 METAR MRLM NIL=
201502150700 METAR MRLM NIL=
201502150800 METAR MRLM NIL=
201502150900 METAR MRLM NIL=
201502151000 METAR MRLM NIL=
201502151100 METAR MRLM NIL=
201502151200 METAR MRLM 151200Z 28004KT 9999 OVC020 22/21 A2999=
201502151300 METAR MRLM 151300Z 30004KT 9999 OVC020 22/21 A3001=
201502151400 METAR MRLM 151400Z 26003KT 9999 OVC020 23/22 A3002=
201502151436 METAR MRLM 151436Z 36002KT 4000 RA OVC010 23722 A3004=
201502151500 METAR MRLM 151500Z 26003KT 3000 RA OVC010 23/22 A3004=
201502151600 METAR MRLM 151600Z 28002KT 9999 DZ OVC015 24/23 A3005 RERA=
201502151700 METAR MRLM 151700Z 30003KT 9999 DZ FEW007 BKN020 25/23 A3003=
201502151800 METAR MRLM 151800Z 29006KT 4000 RA FEW006 BKN010 24/23 A3000=
201502151900 METAR MRLM 151900Z 29005KT 3000 RA SCT004 SCT010 24/23 A2997=
201502152000 METAR MRLM 152000Z 27005KT 9999 +DZ FEW003 BKN015 23/23 A2995 RERA=
201502152100 METAR MRLM 152100Z 27005KT 9999 FEW004 BKN015 24/23 A2994=
201502152200 METAR MRLM 152200Z 04013KT 9999 BKN015 26/23 A2993=
201502152300 METAR MRLM 152300Z 03016KT 9999 BKN015 26/22 A2994=
201502152354 METAR MRLM 160000Z 03016KT 8000 +DZ OVC010 26/23 A2994=
201502160000 METAR MRLM 160000Z 03016KT 8000 +DZ OVC010 26/23 A2994=
201502160100 METAR MRLM NIL=
201502160200 METAR MRLM NIL=
201502160300 METAR MRLM NIL=
201502160400 METAR MRLM NIL=
201502160500 METAR MRLM NIL=
201502160600 METAR MRLM NIL=
201502160700 METAR MRLM NIL=
201502160800 METAR MRLM NIL=
201502160900 METAR MRLM NIL=
201502161000 METAR MRLM NIL=
201502161100 METAR MRLM NIL=
201502161200 METAR MRLM 161200Z 07011KT 9999 BKN010 26/24 A2993=
201502161300 METAR MRLM 161300Z 07010KT 9999 OVC010 27/24 A2994=
201502161400 METAR MRLM 161400Z 08013KT 9999 SCT020 SCT110 27/24 A2996=
201502161500 METAR MRLM 161500Z 09012KT 9999 SCT020 28/24 A2998=
201502161600 METAR MRLM 161600Z 09010KT 9999 BKN020 29/24 A2998=
201502161700 METAR MRLM 161700Z 10010KT 9999 BKN020 29/25 A2997=
201502161800 METAR MRLM 161800Z 15006KT 9999 BKN020 27/23 A2995=
201502161900 METAR MRLM 161900Z 16004KT 9999 BKN020 28/23 A2992=
201502162000 METAR MRLM 162000Z 13007KT 9999 BKN025 29/24 A2989=
201502162100 METAR MRLM 162100Z 13006KT 9999 BKN030 29/23 A2988=
201502162200 METAR MRLM 162200Z 14007KT 9999 SCT030 29/23 A2987=
201502162300 METAR MRLM 162300Z 19004KT 9999 FEW035 SCT130 28/21 A2987=
201502170000 METAR MRLM 170000Z 00000KT CAVOK 27/21 A2990=
201502170100 METAR MRLM NIL=
201502170200 METAR MRLM NIL=
201502170300 METAR MRLM NIL=
201502170400 METAR MRLM NIL=
201502170500 METAR MRLM NIL=
201502170600 METAR MRLM NIL=
201502170700 METAR MRLM NIL=
201502170800 METAR MRLM NIL=
201502170900 METAR MRLM NIL=
201502171000 METAR MRLM NIL=
201502171100 METAR MRLM NIL=
201502171200 METAR MRLM 171200Z 26003KT CAVOK 20/19 A2991=
201502171300 METAR MRLM 171300Z 00000KT CAVOK 21/20 A2993=
201502171400 METAR MRLM 171400Z 00000KT CAVOK 24/20 A2995=
201502171500 METAR MRLM 171500Z 09003KT CAVOK 27/21 A2996=
201502171600 METAR MRLM 171600Z 09004KT CAVOK 28/21 A2997=
201502171700 METAR MRLM 171700Z 08004KT 9999 FEW040 BKN260 29/21 A2995=
201502171800 METAR MRLM 171800Z 11003KT 9999 FEW040 BKN260 29/21 A2993=
201502171900 METAR MRLM 171900Z 11004KT CAVOK 29/21 A2991=
201502172000 METAR MRLM 172000Z 07005KT CAVOK 29/22 A2988=
201502172100 METAR MRLM 172100Z 07005KT CAVOK 29/23 A2987=
201502172200 METAR MRLM 172200Z 08005KT CAVOK 28/22 A2986=
201502172300 METAR MRLM 172300Z 07003KT 9999 FEW020 SCT250 27/23 A2987=
201502180000 METAR MRLM 180000Z 00000KT 9999 FEW015 BKN250 25/23 A2989=
201502180100 METAR MRLM NIL=
201502180200 METAR MRLM NIL=
201502180300 METAR MRLM NIL=
201502180400 METAR MRLM NIL=
201502180500 METAR MRLM NIL=
201502180600 METAR MRLM NIL=
201502180700 METAR MRLM NIL=
201502180800 METAR MRLM NIL=
201502180900 METAR MRLM NIL=
201502181000 METAR MRLM NIL=
201502181100 METAR MRLM NIL=
201502181200 METAR MRLM 181200Z 26004KT CAVOK 21/20 A2994=
201502181300 METAR MRLM 181300Z 25005KT CAVOK 22/20 A2996=
201502181400 METAR MRLM 181400SZ 27002KT CAVOK 26/22 A2999=
201502181403 METAR MRLM 181400SZ 27002KT CAVOK 26/22 A2999=
201502181500 METAR MRLM 181500Z 07004KT 9999 FEW025 BKN0280 28/23 A2999=
201502181600 METAR MRLM 181600Z 07004KT 9999 FEW025 BKN280 28/23 A2999=
201502181700 METAR MRLM 181700Z 05005KT 9999 FEW025 BKN280 28/23 A2998=
201502181800 METAR MRLM 181800Z 04006KT 9999 FEW025 BKN280 29/23 A2997=
201502181900 METAR MRLM 181900Z 04007KT 9999 FEW030 BKN280 29/23 A2993=
201502182000 METAR MRLM 182000Z 03007KT 9999 FEW030 BKN280 29/23 A2991=
201502182100 METAR MRLM 182100Z 04005KT 9999 FEW025 BKN280 29/23 A2990=
201502182200 METAR MRLM 182200Z 05005KT 9999 FEW025 BKN280 29/23 A2990=
201502182300 METAR MRLM 182300Z 02006KT 9999 SCT025 SCT080 28/23 A2991=
201502182355 METAR MRLM 190000Z 35004KT 9999 BKN015 27/23 A2992=
201502190000 METAR MRLM 190000Z 35004KT 9999 BKN015 27/23 A2992=
201502190100 METAR MRLM NIL=
201502190200 METAR MRLM NIL=
201502190300 METAR MRLM NIL=
201502190400 METAR MRLM NIL=
201502190500 METAR MRLM NIL=
201502190600 METAR MRLM NIL=
201502190700 METAR MRLM NIL=
201502190800 METAR MRLM NIL=
201502190900 METAR MRLM NIL=
201502191000 METAR MRLM NIL=
201502191100 METAR MRLM NIL=
201502191200 METAR MRLM 191200Z 26004KT CAVOK 21/21 A2998=
201502191300 METAR MRLM 191300Z 24005KT CAVOK 22/21 A2999=
201502191400 METAR MRLM 191400Z 27004KT CAVOK 26/22 A3001=
201502191500 METAR MRLM 191500Z 33007KT CAVOK 28/21 A3002=
201502191600 METAR MRLM 191600Z 36008KT CAVOK 30/21 A3002=
201502191700 METAR MRLM 191700Z 02011KT 9999 FEW025 SCT140 29/22 A3000=
201502191800 METAR MRLM 191800Z 03010KT 9999 FEW025 SCT130 29/23 A2998=
201502191900 METAR MRLM 191900Z 03012KT 9999 FEW025 SCT110 29/23 A2995=
201502192000 METAR MRLM 192000Z 03011KT 9999 FEW030 29/23 A2993=
201502192100 METAR MRLM 192100Z 03008KT 9999 SCT020 29/23 A2991=
201502192200 METAR MRLM 192200Z 02008KT 9999 BKN015 28/23 A2992=
201502192300 METAR MRLM 192300Z 02008KT 9999 BKN015 28/23 A2997=
201502192354 METAR MRLM 20000Z 02009KT 9999 SCT015 27/22 A2994=
201502200000 METAR MRLM 20000Z 02009KT 9999 SCT015 27/22 A2994=
201502200100 METAR MRLM NIL=
201502200200 METAR MRLM NIL=
201502200300 METAR MRLM NIL=
201502200400 METAR MRLM NIL=
201502200500 METAR MRLM NIL=
201502200600 METAR MRLM NIL=
201502200700 METAR MRLM NIL=
201502200800 METAR MRLM NIL=
201502200900 METAR MRLM NIL=
201502201000 METAR MRLM NIL=
201502201100 METAR MRLM NIL=
201502201200 METAR MRLM 201200Z 25006KT CAVOK 22/21 A2995=
201502201300 METAR MRLM 201300Z 25004KT CAVOK 22/22 A2996=
201502201400 METAR MRLM 201400Z 28006KT CAVOK 24/22 A2997=
201502201500 METAR MRLM 201500Z 32011KT 9999 FEW020 SCT120 SCT250 25/22 A2999=
201502201600 METAR MRLM 201600Z 31008KT 9999 SCT020 BKN120 25/22 A3000=
201502201700 METAR MRLM 201700Z 31012KT 9999 SCT030 BKN130 28/22 A2988=
201502201800 METAR MRLM 201800Z 31011KT 9999 SCT030 SCT130 28/22 A2995=
201502201900 METAR MRLM 201900Z 33011KT 9999 SCT030 BKN130 28/22 A2993=
201502202000 METAR MRLM 202000Z 32011KT 9999 BKN030 28/22 A2990=
201502202100 METAR MRLM 202100Z 32010KT 9999 SCT030 28/22 A2989=
201502202200 METAR MRLM NIL=
201502202300 METAR MRLM NIL=
201502210000 METAR MRLM NIL=
201502210100 METAR MRLM NIL=
201502210200 METAR MRLM NIL=
201502210300 METAR MRLM NIL=
201502210400 METAR MRLM NIL=
201502210500 METAR MRLM NIL=
201502210600 METAR MRLM NIL=
201502210700 METAR MRLM NIL=
201502210800 METAR MRLM NIL=
201502210900 METAR MRLM NIL=
201502211000 METAR MRLM NIL=
201502211100 METAR MRLM NIL=
201502211200 METAR MRLM NIL=
201502211300 METAR MRLM 211300Z 25007KT 9999 DZ FEW005 SCT010 SCT090 22/22 A2997=
201502211400 METAR MRLM 211400Z 24006KT 9999 SCT010 BKN110 23/22 A2998 REDZ=
201502211500 METAR MRLM 211500Z 25006KT 9999 FEW030 SCT130 27/21 A2998=
201502211600 METAR MRLM 211600Z 21003KT 9999 FEW035 SCT130 28/21 A2998=
201502211700 METAR MRLM 211700Z 04007KT 9999 FEW030 SCT130 28/23 A2997=
201502211800 METAR MRLM 211800Z 05014KT 9999 BKN020 SCT110 26/23 A2995=
201502211900 METAR MRLM 211900Z 02008KT 9999 FEW020 BKN120 27/22 A2992=
201502212000 METAR MRLM 212000Z 06008KT 9999 FEW020 BKN120 27/22 A2991=
201502212100 METAR MRLM 212100Z 04008KT 9999 FEW020 BKN130 27/23 A2989=
201502212200 METAR MRLM NIL=
201502212300 METAR MRLM NIL=
201502220000 METAR MRLM NIL=
201502220100 METAR MRLM NIL=
201502220200 METAR MRLM NIL=
201502220300 METAR MRLM NIL=
201502220400 METAR MRLM NIL=
201502220500 METAR MRLM NIL=
201502220600 METAR MRLM NIL=
201502220700 METAR MRLM NIL=
201502220800 METAR MRLM NIL=
201502220900 METAR MRLM NIL=
201502221000 METAR MRLM NIL=
201502221100 METAR MRLM NIL=
201502221200 METAR MRLM NIL=
201502221300 METAR MRLM 221300Z 25002KT CAVOK 22/21 A2993=
201502221400 METAR MRLM 221400Z 33002KT 9999 SCT015 BKN120 25/21 A2996=
201502221500 METAR MRLM 221500Z 08008KT 9999 4000N DZ BKN010 25/22 A2998=
201502221600 METAR MRLM 221600Z 21004KT 9999 SCT020 BKN130 26/22 A2997 REDZ=
201502221700 METAR MRLM 221700Z 12004KT 9999 SCT030 29/22 A2996=
201502221800 METAR MRLM 221800Z 10006KT 9999 FEW030 29/23 A2994=
201502221900 METAR MRLM 221900Z 10005KT CAVOK 29/22 A2990=
201502222000 METAR MRLM 222000Z 08007KT CAVOK 29/22 A2988=
201502222100 METAR MRLM 222100Z 06007KT CAVOK 29/22 A2987=
201502222200 METAR MRLM NIL=
201502222300 METAR MRLM NIL=
201502230000 METAR MRLM NIL=
201502230100 METAR MRLM NIL=
201502230200 METAR MRLM NIL=
201502230300 METAR MRLM NIL=
201502230400 METAR MRLM NIL=
201502230500 METAR MRLM NIL=
201502230600 METAR MRLM NIL=
201502230700 METAR MRLM NIL=
201502230800 METAR MRLM NIL=
201502230900 METAR MRLM NIL=
201502231000 METAR MRLM NIL=
201502231100 METAR MRLM NIL=
201502231200 METAR MRLM NIL=
201502231300 METAR MRLM 231300Z 26002KT 9999 FEW010 SCT110 22/21 A2997=
201502231400 METAR MRLM 231400Z 23003KT 9999 SCT015 26/23 A2999=
201502231500 METAR MRLM 231500Z 08002KT 9999 BKN030 29/23 A3000=
201502231600 METAR MRLM 231600Z 10003KT 9999 BKN020 28/24 A3001=
201502231700 METAR MRLM 231700Z 09002KT 9999 FEW025 29/23 A2999=
201502231800 METAR MRLM 231800Z 08004KT 9999 FEW030 29/23 A2995=
201502231900 METAR MRLM 231900Z 07006KT 9999 FEW030 29/23 A2993=
201502232000 METAR MRLM 232000Z 06007KT 9999 FEW030 29/24 A2990=
201502232100 METAR MRLM 232100Z 08007KT 9999 SCT030 29/24 A2989=
201502232200 METAR MRLM NIL=
201502232300 METAR MRLM NIL=
201502240000 METAR MRLM NIL=
201502240100 METAR MRLM NIL=
201502240200 METAR MRLM NIL=
201502240300 METAR MRLM NIL=
201502240400 METAR MRLM NIL=
201502240500 METAR MRLM NIL=
201502240600 METAR MRLM NIL=
201502240700 METAR MRLM NIL=
201502240800 METAR MRLM NIL=
201502240900 METAR MRLM NIL=
201502241000 METAR MRLM NIL=
201502241100 METAR MRLM NIL=
201502241200 METAR MRLM NIL=
201502241300 METAR MRLM 241300Z 23003KT CAVOK 22/21 A2995=
201502241400 METAR MRLM 241400Z 22002KT CAVOK 25/21 A2997=
201502241500 METAR MRLM 241500Z 10004KT 9999 FEW025 BKN130 28/23 A2998=
201502241600 METAR MRLM 241600Z 06008KT 9999 SCT020 BKN120 27/23 A2999=
201502241700 METAR MRLM 241700Z 10006KT 9999 FEW025 BKN130 28/23 A2997=
201502241800 METAR MRLM 241800Z 12004KT CAVOK 28/22 A2994=
201502241900 METAR MRLM 241900Z 12004KT CAVOK 29/22 A2992=
201502242000 METAR MRLM 242000Z 11007KT CAVOK 30/22 A2989=
201502242100 METAR MRLM 242100Z 11006KT CAVOK 29/22 A2988=
201502242200 METAR MRLM NIL=
201502242300 METAR MRLM NIL=
201502250000 METAR MRLM NIL=
201502250100 METAR MRLM NIL=
201502250200 METAR MRLM NIL=
201502250300 METAR MRLM NIL=
201502250400 METAR MRLM NIL=
201502250500 METAR MRLM NIL=
201502250600 METAR MRLM NIL=
201502250700 METAR MRLM NIL=
201502250800 METAR MRLM NIL=
201502250900 METAR MRLM NIL=
201502251000 METAR MRLM NIL=
201502251100 METAR MRLM NIL=
201502251200 METAR MRLM NIL=
201502251300 METAR MRLM 251300Z 25003KT CAVOK 20/19 A2993=
201502251400 METAR MRLM 251400Z 24004KT CAVOK 25/20 A2995=
201502251500 METAR MRLM 251500Z 22004KT CAVOK 27/19 A2995=
201502251600 METAR MRLM 251600Z 09004KT CAVOK 28/20 A2995=
201502251700 METAR MRLM 251700Z 08004KT CAVOK 29/20 A2993=
201502251800 METAR MRLM 251800Z 07005KT 9999 FEW040 29/20 A2991=
201502251900 METAR MRLM 251900Z 07005KT 9999 FEW040 29/22 A2988=
201502252000 METAR MRLM 252000Z 07005KT CAVOK 29/22 A2986=
201502252100 METAR MRLM 252100Z 07004KT CAVOK 29/22 A2984=
201502252200 METAR MRLM NIL=
201502252300 METAR MRLM NIL=
201502260000 METAR MRLM NIL=
201502260100 METAR MRLM NIL=
201502260200 METAR MRLM NIL=
201502260300 METAR MRLM NIL=
201502260400 METAR MRLM NIL=
201502260500 METAR MRLM NIL=
201502260600 METAR MRLM NIL=
201502260700 METAR MRLM NIL=
201502260800 METAR MRLM NIL=
201502260900 METAR MRLM NIL=
201502261000 METAR MRLM NIL=
201502261100 METAR MRLM NIL=
201502261200 METAR MRLM 261200Z 28002KT CAVOK 21/21 A2988=
201502261300 METAR MRLM 261300Z 26002KT CAVOK 23/22 A2990=
201502261400 METAR MRLM 261400Z 25001KT CAVOK 27/23 A2992=
201502261500 METAR MRLM 261500Z 11003KT 9999 SCT025 28/23 A2993=
201502261600 METAR MRLM 261600Z 10004KT 9999 FEW025 28/23 A2992=
201502261700 METAR MRLM 261700Z 07007KT 9999 FEW025 28/22 A2990=
201502261800 METAR MRLM 261800Z 07007KT 9999 FEW025 29/22 A2987=
201502261900 METAR MRLM 261900Z 07006KT 9999 FEW040 29/20 A2985=
201502262000 METAR MRLM 262000Z 05007KT 9999 FEW040 29/21 A2983=
201502262100 METAR MRLM 262100Z 07006KT 9999 FEW040 29/21 A2982=
201502262200 METAR MRLM 262200Z 06006KT 9999 FEW040 29/21 A2983=
201502262300 METAR MRLM 262300Z 05004KT CAVOK 28/21 A2984=
201502262356 METAR MRLM 270000Z 29001KT CAVOK 26/22 A2985=
201502270000 METAR MRLM 270000Z 29001KT CAVOK 26/22 A2985=
201502270100 METAR MRLM NIL=
201502270200 METAR MRLM NIL=
201502270300 METAR MRLM NIL=
201502270400 METAR MRLM NIL=
201502270500 METAR MRLM NIL=
201502270600 METAR MRLM NIL=
201502270700 METAR MRLM NIL=
201502270800 METAR MRLM NIL=
201502270900 METAR MRLM NIL=
201502271000 METAR MRLM NIL=
201502271100 METAR MRLM NIL=
201502271200 METAR MRLM 271200Z 25005KT CAVOK 21/20 A2991=
201502271300 METAR MRLM 271300Z 24005KT CAVOK 22/21 A2993=
201502271400 METAR MRLM 271400Z 24004KT CAVOK 26/22 A2995=
201502271500 METAR MRLM 271500Z 09002KT CAVOK 27/23 A2995=
201502271600 METAR MRLM 271600Z 07004KT 9999 FEW025 BKN110 28/23 A2996=
201502271700 METAR MRLM 271700Z 06005KT 9999 FEW025 BKN090 28/22 A2995=
201502271800 METAR MRLM 271800Z 06004KT 9999 FEW030 BKN110 29/22 A2993=
201502271900 METAR MRLM 271900Z 06006KT 9999 FEW030 29/23 A2990=
201502272000 METAR MRLM 272000Z 06006KT 9999 FEW025 29/23 A2987=
201502272100 METAR MRLM 272100Z 07006KT 9999 SCT025 29/23 A2985=
201502272200 METAR MRLM 272200Z 07005KT 9999 SCT025 29/23 A2985=
201502272300 METAR MRLM 272300Z 06005KT 9999 BKN025 28/23 A2985=
201502272354 METAR MRLM 280000Z 08004KT 9999 BKN025 28/22 A2986=
201502280000 METAR MRLM 280000Z 08004KT 9999 BKN025 28/22 A2986=
201502280100 METAR MRLM NIL=
201502280200 METAR MRLM NIL=
201502280300 METAR MRLM NIL=
201502280400 METAR MRLM NIL=
201502280500 METAR MRLM NIL=
201502280600 METAR MRLM NIL=
201502280700 METAR MRLM NIL=
201502280800 METAR MRLM NIL=
201502280900 METAR MRLM NIL=
201502281000 METAR MRLM NIL=
201502281100 METAR MRLM NIL=
201502281200 METAR MRLM 281200Z 31002KT 9999 BKN010 22/22 A2998=
201502281300 METAR MRLM 281300Z 28004KT 9999 FEW015 23/22 A2998=
201502281400 METAR MRLM 281400Z 28004KT 9999 BKN015 24/23 A3001=
201502281500 METAR MRLM 281500Z 26004KT 9999 BKN020 27/23 A3003=
201502281600 METAR MRLM 281600Z 00000KT 9999 BKN020 27/23 A3003=
201502281700 METAR MRLM 281700Z 22004KT 9999 SCT010 SCT110 25/24 A3002=
201502281740 METAR MRLM 281740Z 24006KT 5000 +DZ BKN010 26/24 A3001=
201502281800 METAR MRLM 281800Z 25004KT 9999 -DZ BKN010 26/24 A3000=
201502281900 METAR MRLM 281900Z 27004KT 9999 SCT025 BKN130 28/23 A2997=
201502282000 METAR MRLM 282000Z 00000KT 9999 SCT030 SCT130 29/23 A2995=
201502282100 METAR MRLM 282100Z 04003KT 9999 FEW030 SCT130 29/23 A2994=
201502282200 METAR MRLM 282200Z 05003KT 9999 FEW030 SCT130 29/23 A2993=
201502282300 METAR MRLM 282300Z 03004KT 9999 FEW030 SCT130 29/23 A2993=
201503010000 METAR MRLM 010000Z 00000KT CAVOK 26/23 A2993=
201503010100 METAR MRLM NIL=
201503010200 METAR MRLM NIL=
201503010300 METAR MRLM NIL=
201503010400 METAR MRLM NIL=
201503010500 METAR MRLM NIL=
201503010600 METAR MRLM NIL=
201503010700 METAR MRLM NIL=
201503010800 METAR MRLM NIL=
201503010900 METAR MRLM NIL=
201503011000 METAR MRLM NIL=
201503011100 METAR MRLM NIL=
201503011200 METAR MRLM 011200Z 21004KT 3000 RA OVC007 22/22 A2998=
201503011300 METAR MRLM 011300Z 25005KT 4000 +DZ OVC007 22/22 A2999 RERA=
201503011400 METAR MRLM 011400Z 26003KT 6000 DZ BKN007 23/22 A3001=
201503011500 METAR MRLM 011500Z 17004KT 2000 RA OVC007 23/23 A3003=
201503011600 METAR MRLM 011600Z 24004KT 2000 +RA OVC006 24/23 A3003=
201503011700 METAR MRLM 011700Z 33004KT 7000 DZ SCT006 OVC010 23/23 A3002 RERA=
201503011800 METAR MRLM 011800Z 25005KT 9999 DZ BKN010 25/24 A2999=
201503011900 METAR MRLM 011900Z 23003KT 8000 DZ SCT005 BKN010 26/24 A2997=
201503012000 METAR MRLM 012000Z 02002KT 8000 DZ OVC010 27/24 A2996=
201503012100 METAR MRLM 012100Z 01004KT 9999 BKN015 26/23 A2994 REDZ=
201503012200 METAR MRLM 012200Z 04002KT 9999 BKN015 27/24 A2993=
201503012240 METAR MRLM 012240Z 14010KT 7000 +RA BKN010 25/23 A2995=
201503012300 METAR MRLM 012300Z 18006KT 9999 SCT007 SCT110 24/23 A2995 RERA=
201503020000 METAR MRLM 020000Z 23002KT 9999 SCT007 23/23 A2997=
201503020100 METAR MRLM NIL=
201503020200 METAR MRLM NIL=
201503020300 METAR MRLM NIL=
201503020400 METAR MRLM NIL=
201503020500 METAR MRLM NIL=
201503020600 METAR MRLM NIL=
201503020700 METAR MRLM NIL=
201503020800 METAR MRLM NIL=
201503020900 METAR MRLM NIL=
201503021000 METAR MRLM NIL=
201503021100 METAR MRLM NIL=
201503021200 METAR MRLM 021200Z 27003KT 9999 FEW015 BKN025 21/21 A2998=
201503021300 METAR MRLM 021300Z 07013KT 9999 +DZ BKN015 24/23 A3002 RERA=
201503021400 METAR MRLM 021400Z 28005KT 9999 SCT025 SCT080 24/22 A3002 REDZ=
201503021500 METAR MRLM 021500Z 27005KT 9999 FEW015 BKN090 26/22 A3002=
201503021600 METAR MRLM 21600Z 07012KT 9999 DZ FEW015 BKN090 27/20 A3004=
201503021601 METAR MRLM 21600Z 07012KT 9999 DZ FEW015 BKN090 27/20 A3004=
201503021700 METAR MRLM 021700Z 12009KT 9999 SCT025 SCT090 27/22 A3002=
201503021800 METAR MRLM 021800Z 14016KT 8000 +DZ BKN020 26/22 A3000=
201503021900 METAR MRLM 021900Z 25006KT 9999 BKN015 25/22 A2998 REDZ=
201503022000 METAR MRLM 022000Z 26003KT 9999 SCT025 27/22 A2994=
201503022100 METAR MRLM 022100Z 12004KT 9999 FEW035 29/21 A2992=
201503022200 METAR MRLM 022200Z 12003KT CAVOK 28/21 A2991=
201503022300 METAR MRLM 022300Z 11002KT CAVOK 28/21 A2991=
201503022359 METAR MRLM 030000Z 00000KT CAVOK 24/22 A2992=
201503030000 METAR MRLM 030000Z 00000KT CAVOK 24/22 A2992=
201503030100 METAR MRLM NIL=
201503030200 METAR MRLM NIL=
201503030300 METAR MRLM NIL=
201503030400 METAR MRLM NIL=
201503030500 METAR MRLM NIL=
201503030600 METAR MRLM NIL=
201503030700 METAR MRLM NIL=
201503030800 METAR MRLM NIL=
201503030900 METAR MRLM NIL=
201503031000 METAR MRLM NIL=
201503031100 METAR MRLM NIL=
201503031200 METAR MRLM 031200Z 27004KT 9999 BKN015 21/19 A2995=
201503031300 METAR MRLM 031300Z 18005KT 9999 BKN015 22/19 A2998=
201503031400 METAR MRLM 031400Z 24005KT 9999 FEW025 25/20 A2999=
201503031500 METAR MRLM 031500Z 21004KT CAVOK 28/20 A3000=
201503031600 METAR MRLM 031600Z 10003KT 9999 FEW025 29/21 A3000=
201503031700 METAR MRLM 031700Z 09005KT 9999 FEW025 29/21 A2997=
201503031800 METAR MRLM 031800Z 12006KT 9999 FEW025 SCT120 29/21 A2994=
201503031900 METAR MRLM 031900Z 08007KT 9999 FEW025 BKN120 29/21 A2990=
201503032000 METAR MRLM 032000Z 07008KT 9999 FEW025 BKN090 29/22 A2986=
201503032100 METAR MRLM 032100Z 04011KT 9999 FEW025 BKN090 28/22 A2985=
201503032200 METAR MRLM 032200Z 07010KT 9999 FEW025 BKN090 28/20 A2985=
201503032300 METAR MRLM 032300Z 05007KT 9999 FEW025 BKN080 27/20 A2986=
201503032356 METAR MRLM 040000Z 10004KT 9999 FEW025 BKN080 27/20 A2987=
201503040000 METAR MRLM 040000Z 10004KT 9999 FEW025 BKN080 27/20 A2987=
201503040100 METAR MRLM NIL=
201503040200 METAR MRLM NIL=
201503040300 METAR MRLM NIL=
201503040400 METAR MRLM NIL=
201503040500 METAR MRLM NIL=
201503040600 METAR MRLM NIL=
201503040700 METAR MRLM NIL=
201503040800 METAR MRLM NIL=
201503040900 METAR MRLM NIL=
201503041000 METAR MRLM NIL=
201503041100 METAR MRLM NIL=
201503041200 METAR MRLM 041200Z 27002KT CAVOK 20/19 A2989=
201503041300 METAR MRLM 041300Z 00000KT CAVOK 23/20 A2991=
201503041400 METAR MRLM 041400Z 18003KT CAVOK 23/20 A2992=
201503041500 METAR MRLM 041500Z 18002KT CAVOK 27/21 A2994=
201503041600 METAR MRLM 041600Z 11007KT CAVOK 29/21 A2994=
201503041700 METAR MRLM 041700Z 09009KT 9999 FEW035 BKN130 29/21 A2993=
201503041800 METAR MRLM 041800Z 09009KT CAVOK 28/23 A2991=
201503041900 METAR MRLM 041900Z 08007KT CAVOK 28/21 A2989=
201503042000 METAR MRLM 042000Z 10006KT CAVOK 28/21 A2986=
201503042100 METAR MRLM 042100Z 20003KT CAVOK 28/20 A2984=
201503042200 METAR MRLM 042200Z 14005KT CAVOK 28/21 A2983=
201503042300 METAR MRLM 042300Z 13003KT CAVOK 28/21 A2984=
201503050000 METAR MRLM 050000Z 00000KT CAVOK 26/22 A2986=
201503050100 METAR MRLM NIL=
201503050200 METAR MRLM NIL=
201503050300 METAR MRLM NIL=
201503050400 METAR MRLM NIL=
201503050500 METAR MRLM NIL=
201503050600 METAR MRLM NIL=
201503050700 METAR MRLM NIL=
201503050800 METAR MRLM NIL=
201503050900 METAR MRLM NIL=
201503051000 METAR MRLM NIL=
201503051100 METAR MRLM NIL=
201503051200 METAR MRLM 051200Z 24003KT 9999 SCT007 BKN110 21/20 A2990=
201503051300 METAR MRLM 051300Z 13002KT 9999 SCT010 SCT120 23/21 A2992=
201503051400 METAR MRLM 051400Z 23005KT 9999 SCT0150 BKN120 23/21 A2994=
201503051500 METAR MRLM 051500Z 26004KT CAVOK 26/22 A2994=
201503051600 METAR MRLM 051600Z 24004KT CAVOK 29/21 A2994=
201503051700 METAR MRLM 051700Z 06005KT CAVOK 28/22 A2992=
201503051800 METAR MRLM 051800Z 08005KT CAVOK 29/22 A2990=
201503051900 METAR MRLM 051900Z 08006KT CAVOK 29/22 A2988=
201503052000 METAR MRLM 052000Z 08005KT CAVOK 29/23 A2985=
201503052100 METAR MRLM 052100Z 08005KT CAVOK 29/23 A2984=
201503052200 METAR MRLM 052200Z 07005KT CAVOK 28/23 A2984=
201503052300 METAR MRLM 052300Z 06003KT CAVOK 28/23 A2985=
201503060000 METAR MRLM 060000Z 00000KT CAVOK 26/23 A2987=
201503060100 METAR MRLM NIL=
201503060200 METAR MRLM NIL=
201503060300 METAR MRLM NIL=
201503060400 METAR MRLM NIL=
201503060500 METAR MRLM NIL=
201503060600 METAR MRLM NIL=
201503060700 METAR MRLM NIL=
201503060800 METAR MRLM NIL=
201503060900 METAR MRLM NIL=
201503061000 METAR MRLM NIL=
201503061100 METAR MRLM NIL=
201503061200 METAR MRLM 061200Z 22005KT 9999 BKN015 22/21 A2995=
201503061300 METAR MRLM 061300Z 23005KT 9999 SCT020 SCT100 23/21 A2996=
201503061400 METAR MRLM 061400Z 23003KT 9999 FEW018 SCT080 25/22 A2997=
201503061500 METAR MRLM 061500Z 09003KT 9999 FEW025 28/23 A2998=
201503061600 METAR MRLM 061600Z 08004KT 9999 FEW025 28/23 A2998=
201503061700 METAR MRLM 061700Z 08005KT 9999 FEW025 29/23 A2996=
201503061800 METAR MRLM 061800Z 09008KT 9999 FEW025 29/24 A2993=
201503061900 METAR MRLM 061900Z 08012KT 9999 FEW025 30/23 A2991=
201503062000 METAR MRLM 062000Z 08014KT 9999 FEW025 30/23 A2989=
201503062100 METAR MRLM 062100Z 08012KT 9999 FEW025 29/23 A2988=
201503062200 METAR MRLM 062200Z 10008KT 9999 FEW025 29/23 A2988=
201503062300 METAR MRLM 062300Z 10007KT 9999 FEW025 28/23 A2990=
201503062356 METAR MRLM 070000Z 11005KT 9999 FEW020 SCT110 28/24 A2991=
201503070000 METAR MRLM 070000Z 11005KT 9999 FEW020 SCT110 28/24 A2991=
201503070100 METAR MRLM NIL=
201503070200 METAR MRLM NIL=
201503070300 METAR MRLM NIL=
201503070400 METAR MRLM NIL=
201503070500 METAR MRLM NIL=
201503070600 METAR MRLM NIL=
201503070700 METAR MRLM NIL=
201503070800 METAR MRLM NIL=
201503070900 METAR MRLM NIL=
201503071000 METAR MRLM NIL=
201503071100 METAR MRLM NIL=
201503071200 METAR MRLM 071200Z 26005KT 9999 BKN015 22/21 A2999=
201503071300 METAR MRLM 071300Z 25003KT 9999 BKN015 22/21 A3000=
201503071400 METAR MRLM 071400Z 24006KT 9999 SCT015 SCT090 23/21 A3001=
201503071500 METAR MRLM 071500Z 24004KT 9999 +DZ BKN015 25/22 A3002=
201503071600 METAR MRLM 071600Z 30003KT 9999 DZ BKN015 SCT090 26/22 A3003=
201503071700 METAR MRLM 071700Z 24002KT 9999 BKN015 SCT090 27/23 A3000 REDZ=
201503071800 METAR MRLM 071800Z 25001KT 9999 DZ BKN025 28/22 A2998=
201503071900 METAR MRLM 071900Z 21004KT 9999 SCT025 SCT090 29/23 A2995 REDZ=
201503072000 METAR MRLM 072000Z 06015KT 9999 DZ BKN015 26/22 A2993=
201503072014 METAR MRLM 072014Z 06012KT 6000 RA BKN013 25/22 A2993=
201503072100 METAR MRLM 072100Z 23003KT 9999 SCT012 SCT090 25/23 A2992 RERA=
201503072200 METAR MRLM 072200Z 25006KT 9999 BNK015 25/22 A2999=
201503072300 METAR MRLM 072300Z 21005KT 9999 BKN015TCU 24/21 A2991=
201503072356 METAR MRLM 080000Z 25003KT 9999 OVC015 23/21 A2992=
201503080000 METAR MRLM 080000Z 25003KT 9999 OVC015 23/21 A2992=
201503080100 METAR MRLM NIL=
201503080200 METAR MRLM NIL=
201503080300 METAR MRLM NIL=
201503080400 METAR MRLM NIL=
201503080500 METAR MRLM NIL=
201503080600 METAR MRLM NIL=
201503080700 METAR MRLM NIL=
201503080800 METAR MRLM NIL=
201503080900 METAR MRLM NIL=
201503081000 METAR MRLM NIL=
201503081100 METAR MRLM NIL=
201503081200 METAR MRLM 081200Z 25005KT 8000 3000 N DZ OVC007 22/21 A2991=
201503081300 METAR MRLM 081300Z 29002KT 9999 -DZ BKN007 22/22 A2994=
201503081400 METAR MRLM 081400Z 18003KT 9999 BKN010 SCT110 23/22 A2995=
201503081500 METAR MRLM 081500Z 22003KT 9999 BKN010 25/22 A2997=
201503081600 METAR MRLM 081600Z 22006KT 9999 SCT020 BKN120 26/22 A2997=
201503081700 METAR MRLM 081700Z 23005KT 9999 FEW030 SCT130 28/22 A2995=
201503081800 METAR MRLM 081800Z 11004KT 9999 SCT035 29/21 A2993=
201503081900 METAR MRLM 081900Z 10003KT 9999 FEW040 30/22 A2990=
201503082000 METAR MRLM 082000Z 08003KT CAVOK 29/21 A2986=
201503082100 METAR MRLM 082100Z 05007KT 9999 SCT030 29/22 A2985=
201503082125 METAR MRLM 082125Z 06020KT 9999 5000 N DZ BKN020 25/22 A2986=
201503082200 METAR MRLM 082200Z 07011KT 9999 -DZ SCT020 BKN110 25/22 A2986=
201503082300 METAR MRLM 082300Z 03010KT 9999 SCT030 BKN120 27/20 A2985=
201503090000 METAR MRLM 090000Z 24004KT 9999 SCT015 BKN110 24/21 A2987=
201503090100 METAR MRLM NIL=
201503090200 METAR MRLM NIL=
201503090300 METAR MRLM NIL=
201503090400 METAR MRLM NIL=
201503090500 METAR MRLM NIL=
201503090600 METAR MRLM NIL=
201503090700 METAR MRLM NIL=
201503090800 METAR MRLM NIL=
201503090900 METAR MRLM NIL=
201503091000 METAR MRLM NIL=
201503091100 METAR MRLM NIL=
201503091200 METAR MRLM 091200Z 05011KT 6000 DZ OVC006 24/22 A2987=
201503091300 METAR MRLM 091300Z 25005KT 8000 DZ BKN007 22/21 A2989=
201503091400 METAR MRLM 091400Z 32002KT 8000 DZ FEW005 BKN007 22/22 A2991=
201503091500 METAR MRLM 091500Z 23006KT 9999 -DZ BKN010 SCT100 23/22 A2992=
201503091600 METAR MRLM 091600Z 23005KT 9999 DZ SCT010 SCT100 24/22 A2992=
201503091700 METAR MRLM 091700Z 24007KT 9999 BKN010 SCT110 24/22 A2991=
201503091800 METAR MRLM 091800Z 24007KT 9999 SCT020 BKN120 26/22 A2988=
201503091900 METAR MRLM 091900Z 22005KT 9999 SCT020 SCT130 27/23 A2985=
201503092000 METAR MRLM 092000Z 23006KT 9999 SCT030 29/22 A2982=
201503092100 METAR MRLM 092100Z 14004KT 9999 DZ BKN025 28/22 A2980=
201503092200 METAR MRLM 092200Z 00000KT 9999 BKN020 26/22 A2981 REDZ=
201503092300 METAR MRLM 092300Z 10005KT 9999 BKN015 26/22 A2982=
201503100000 METAR MRLM 100000Z 00000KT 9999 BKN010 SCT100 25/23 A2984=
201503100100 METAR MRLM NIL=
201503100200 METAR MRLM NIL=
201503100300 METAR MRLM NIL=
201503100400 METAR MRLM NIL=
201503100500 METAR MRLM NIL=
201503100600 METAR MRLM NIL=
201503100700 METAR MRLM NIL=
201503100800 METAR MRLM NIL=
201503100900 METAR MRLM NIL=
201503101000 METAR MRLM NIL=
201503101100 METAR MRLM NIL=
201503101200 METAR MRLM 101200Z 24005KT 9999 SCT015 BKN080 23/22 A2987=
201503101300 METAR MRLM 101300Z 24004KT 9999 FEW015 BKN080 24/22 A2987=
201503101400 METAR MRLM 101400Z 24004KT 9999 FEW015 BKN080 26/23 A2989=
201503101500 METAR MRLM 101500Z 12004KT 9999 FEW025 BKN090 28/23 A2989=
201503101600 METAR MRLM 101600Z 08004KT 9999 SCT025 SCT080 28/23 A2990=
201503101700 METAR MRLM 101700Z 07005KT 9999 FEW025 BKN090 29/23 A2987=
201503101800 METAR MRLM 101800Z 03009KT 9999 FEW025 BKN090 29/24 A2986=
201503101900 METAR MRLM 101900Z 07013KT 9999 FEW015 BKN090 27/23 A2984=
201503102000 METAR MRLM 102000Z 05015KT 9999 FEW025 BKN090 27/24 A2981=
201503102100 METAR MRLM 102100Z 07012KT 9999 FEW015 BKN090 26/23 A2981=
201503102200 METAR MRLM 102200Z 06010KT 9999 FEW015 BKN090 26/23 A2982=
201503102300 METAR MRLM 102300Z 13002KT 9999 FEW015 BKN080 26/23 A2983=
201503102354 METAR MRLM 110000Z 23003KT 9999 SCT015 SCT025 25/22 A2984=
201503110000 METAR MRLM 110000Z 23003KT 9999 SCT015 SCT025 25/22 A2984=
201503110100 METAR MRLM NIL=
201503110200 METAR MRLM NIL=
201503110300 METAR MRLM NIL=
201503110400 METAR MRLM NIL=
201503110500 METAR MRLM NIL=
201503110600 METAR MRLM NIL=
201503110700 METAR MRLM NIL=
201503110800 METAR MRLM NIL=
201503110900 METAR MRLM NIL=
201503111000 METAR MRLM NIL=
201503111100 METAR MRLM NIL=
201503111200 METAR MRLM 111200Z 25003KT CAVOK 23/22 A2986=
201503111300 METAR MRLM 111300Z 28002KT CAVOK 24/22 A2987=
201503111400 METAR MRLM 111400Z 00000KT 7000 HZ BKN025 SCT090 25/23 A2990=
201503111500 METAR MRLM 111500Z 10007KT 9999 DZ HZ SCT010 SCT025 25/24 A2992 RERA=
201503111600 METAR MRLM 111600Z 33002KT 3000 RA HZ BKN015 25/24 A2992 REDZ=
201503111700 METAR MRLM 111700Z 08002KT 4000 RA HZ BKN007 SCT090 25/24 A2991=
201503111800 METAR MRLM 111800Z 17003KT 8000 DZ HZ BKN006 25/24 A2989 RERA=
201503111900 METAR MRLM 111900Z 19003KT 6000 +DZ HZ BKN007 25/23 A2986 RERA=
201503112000 METAR MRLM 112000Z 23005KT 5000 +DZ HZ FEW006 BKN015 25/24 A2984=
201503112100 METAR MRLM 112100Z 22006KT 7000 DZ HZ BKN007 25/24 A2982=
201503112200 METAR MRLM 112200Z 24004KT 8000 DZ HZ BKN007 25/24 A2983=
201503112300 METAR MRLM 112300Z 26003KT 9999 BKN010 25/24 Q2983=
201503112354 METAR MRLM 120000Z 22003KT 9999 BKN010 24/23 A2985=
201503120000 METAR MRLM 120000Z 22003KT 9999 BKN010 24/23 A2985=
201503120100 METAR MRLM NIL=
201503120200 METAR MRLM NIL=
201503120300 METAR MRLM NIL=
201503120400 METAR MRLM NIL=
201503120500 METAR MRLM NIL=
201503120600 METAR MRLM NIL=
201503120700 METAR MRLM NIL=
201503120800 METAR MRLM NIL=
201503120900 METAR MRLM NIL=
201503121000 METAR MRLM NIL=
201503121100 METAR MRLM NIL=
201503121200 METAR MRLM 121200Z 24004KT 8000 DZ OVC006 23/23 A2989=
201503121300 METAR MRLM 121300Z 26003KT 9999 BKN007 24/23 A2990=
201503121400 METAR MRLM 121400Z 27004KT 9999 4000NE DZ BKN007 25/24 A2992=
201503121500 METAR MRLM 121500Z 28002KT 9999 -DZ BKN007 25/24 A2994=
201503121600 METAR MRLM 121600Z 11006KT 9999 BKN010 26/25 A2994=
201503121700 METAR MRLM 121700Z 20004KT 9999 BKN010 27/25 A2993=
201503121800 METAR MRLM 121800Z 16004KT 9999 BKN010 27/24 A2991=
201503121840 METAR MRLM 121840Z 20003KT 6000 +DZ BKN010 27/24 A2990=
201503121900 METAR MRLM 121900Z 03005KT 9999 DZ BKN010 26/24 A2989=
201503122000 METAR MRLM 122000Z 08010KT 9999 BKN020 28/24 A2987 REDZ=
201503122100 METAR MRLM 122100Z 07009KT 9999 BKN020 SCT110 28/24 A2985=
201503122200 METAR MRLM 122200Z 08008KT 8000 DZ BKN015 27/24 A2985=
201503122300 METAR MRLM 122300Z 07010KT 9999 SCT020 SCT100 27/24 A2987 REDZ=
201503130000 METAR MRLM NIL=
201503130100 METAR MRLM NIL=
201503130200 METAR MRLM NIL=
201503130300 METAR MRLM NIL=
201503130400 METAR MRLM NIL=
201503130500 METAR MRLM NIL=
201503130600 METAR MRLM NIL=
201503130700 METAR MRLM NIL=
201503130800 METAR MRLM NIL=
201503130900 METAR MRLM NIL=
201503131000 METAR MRLM NIL=
201503131100 METAR MRLM NIL=
201503131200 METAR MRLM 131200Z 21004KT 9999 BKN007 SCT100 22/21 A2991=
201503131300 METAR MRLM 131300Z 23007KT 9999 BKN010 23/22 A2992=
201503131400 METAR MRLM 131400Z 23005KT 9999 SCT015 BKN120 26/23 A2994=
201503131500 METAR MRLM 131500Z 22005KT 9999 BKN020 28/23 A2995=
201503131600 METAR MRLM 131600Z 16005KT 9999 BKN025 29/23 A2996=
201503131700 METAR MRLM 131700Z 10003KT 9999 FEW030 SCT130 29/23 A2994=
201503131800 METAR MRLM 131800Z 10004KT 9999 SCT030 29/23 A2991=
201503131900 METAR MRLM 131900Z 10004KT 9999 FEW030 29/23 A2988=
201503132000 METAR MRLM 132000Z 10004KT 9999 FEW030 SCT250 29/23 A2985=
201503132100 METAR MRLM 132100Z 09004KT 9999 FEW030 SCT250 29/22 A2984=
201503132200 METAR MRLM 132200Z 11005KT 9999 FEW030 BKN250 29/23 A2984=
201503132300 METAR MRLM 132300Z 09005KT 9999 BKN025 28/23 A2985=
201503140000 METAR MRLM 140000Z 10005KT 9999 BKN020 27/22 A2987=
201503140100 METAR MRLM NIL=
201503140200 METAR MRLM NIL=
201503140300 METAR MRLM NIL=
201503140400 METAR MRLM NIL=
201503140500 METAR MRLM NIL=
201503140600 METAR MRLM NIL=
201503140700 METAR MRLM NIL=
201503140800 METAR MRLM NIL=
201503140900 METAR MRLM NIL=
201503141000 METAR MRLM NIL=
201503141100 METAR MRLM NIL=
201503141200 METAR MRLM 141200Z 26002KT 9999 FEW015 BKN080 22/21 A2991=
201503141300 METAR MRLM 141300Z 26002KT 9999 FEW015 BKN090 23/22 A2993=
201503141400 METAR MRLM 141400Z 14005KT 9999 FEW015 BKN090 25/21 A2994=
201503141500 METAR MRLM 141500Z 23005KT CAVOK 26/22 A2995=
201503141600 METAR MRLM 141600Z 13004KT 9999 FEW025 BKN025 29/22 A2995=
201503141700 METAR MRLM 141700Z 13004KT 9999 FEW025 SCT280 29/22 A2991=
201503141800 METAR MRLM 141800Z 09005KT 9999 FEW025 SCT090 29/22 A2990=
201503141900 METAR MRLM 141900Z 09005KT 9999 FEW025 SCT090 29/22 A2987=
201503142000 METAR MRLM 142000Z 11013KT 9999 FEW025 SCT100 28/23 A2985=
201503142100 METAR MRLM 142100Z 09006KT 9999 FEW025 BKN100 28/21 A2982=
201503142200 METAR MRLM 142200Z 07004KT CAVOK 28/21 A2982=
201503142300 METAR MRLM 142300Z 09003KT CAVOK 28/22 A2983=
201503142353 METAR MRLM 150000Z 20003 CAVOK 25/22 A2984=
201503150000 METAR MRLM 150000Z 20003 CAVOK 25/22 A2984=
201503150100 METAR MRLM NIL=
201503150200 METAR MRLM NIL=
201503150300 METAR MRLM NIL=
201503150400 METAR MRLM NIL=
201503150500 METAR MRLM NIL=
201503150600 METAR MRLM NIL=
201503150700 METAR MRLM NIL=
201503150800 METAR MRLM NIL=
201503150900 METAR MRLM NIL=
201503151000 METAR MRLM NIL=
201503151100 METAR MRLM NIL=
201503151200 METAR MRLM 151200Z 24003KT 9999 FEW030 BKN090 23/21 A2992=
201503151300 METAR MRLM 151300Z 23003KT 9999 SCT030 SCT090 23/21 A2993=
201503151400 METAR MRLM 151400Z 23003KT CAVOK 25/21 A2995=
201503151500 METAR MRLM 151500Z 24004KT CAVOK 27/22 A2996=
201503151600 METAR MRLM 151600Z 11003KT 9999 FEW030 BKN100 29/23 A2995=
201503151700 METAR MRLM 151700Z 13006KT 9999 FEW025 BKN090 28/23 A2993=
201503151800 METAR MRLM 151800Z 12007KT 9999 FEW025 BKN090 29/23 A2992=
201503151900 METAR MRLM 151900Z 11008KT 9999 FEW025 BKN120 29/23 A2990=
201503152000 METAR MRLM 152000Z 10008KT 9999 FEW025 BKN120 29/23 A2988=
201503152100 METAR MRLM 152100Z 10013KT 9999 FEW025 BKN110 28/23 A2986=
201503152200 METAR MRLM 152200Z 10011KT 9999 FEW025 BKN090 28/23 A2986=
201503152300 METAR MRLM 152300Z 10010KT 9999 FEW020 BKN090 27/23 A2988=
201503152355 METAR MRLM 160000Z 11009KT 9999 FEW020 BKN090 27/23 A2990=
201503160000 METAR MRLM 160000Z 11009KT 9999 FEW020 BKN090 27/23 A2990=
201503160100 METAR MRLM NIL=
201503160200 METAR MRLM NIL=
201503160300 METAR MRLM NIL=
201503160400 METAR MRLM NIL=
201503160500 METAR MRLM NIL=
201503160600 METAR MRLM NIL=
201503160700 METAR MRLM NIL=
201503160800 METAR MRLM NIL=
201503160900 METAR MRLM NIL=
201503161000 METAR MRLM NIL=
201503161100 METAR MRLM NIL=
201503161200 METAR MRLM 161200Z 23005KT 9999 FEW010 BKN100 23/22 A2994=
201503161235 METAR MRLM 161235Z 29002KT 4000 DZ BKN010 23/22 A2996=
201503161300 METAR MRLM 161300Z 00000KT 3000 DZ BKN007 23/22 A2998=
201503161400 METAR MRLM 161400Z 24006KT 9999 BKN007 23/22 A2999=
201503161500 METAR MRLM 161500Z 23006KT 9999 DZ BKN010 24/22 A3001=
201503161600 METAR MRLM 161600Z 23002KT 2000 +DZ OVC007 23/22 A3002=
201503161700 METAR MRLM 161700Z 25005KT 9999 -DZ FEW006 BKN010 24/23 A3000=
201503161800 METAR MRLM 161800Z 27006KT 3000 RA OVC010 25/23 A2999=
201503161900 METAR MRLM 161900Z 16003KT 8000 DZ BKN010 SCT100 24/22 A2998 RERA=
201503162000 METAR MRLM 162000Z 23004KT 9999 -DZ BKN010 23/22 A2996=
201503162100 METAR MRLM 162100Z 23005KT 9999 BKN010 24/22 A2994=
201503162200 METAR MRLM 162200Z 25004KT 9999 SCT010 SCT110 23/22 A2992=
201503162300 METAR MRLM 162300Z 24004KT 9999 SCT010 SCT100 24/22 A2992=
201503170000 METAR MRLM 170000Z 24004KT 9999 SCT010 BKN100 23/21 A2994=
201503170100 METAR MRLM NIL=
201503170200 METAR MRLM NIL=
201503170300 METAR MRLM NIL=
201503170400 METAR MRLM NIL=
201503170500 METAR MRLM NIL=
201503170600 METAR MRLM NIL=
201503170700 METAR MRLM NIL=
201503170800 METAR MRLM NIL=
201503170900 METAR MRLM NIL=
201503171000 METAR MRLM NIL=
201503171100 METAR MRLM NIL=
201503171200 METAR MRLM 171200Z 25005KT CAVOK 21/20 A2998=
201503171300 METAR MRLM 171300Z 23005KT CAVOK 22/20 A2999=
201503171400 METAR MRLM 171400Z 24005KT CAVOK 25/21 A3001=
201503171500 METAR MRLM 171500Z 12004KT CAVOK 28/22 A3002=
201503171600 METAR MRLM 171600Z 13006KT CAVOK 28/22 A3002=
201503171700 METAR MRLM 171700Z 10006KT CAVOK 29/22 A3000=
201503171800 METAR MRLM 171800Z 09008KT CAVOK 29/21 A2997=
201503171900 METAR MRLM 171900Z 08008KT CAVOK 28/22 A2996=
201503172000 METAR MRLM 172000Z 08007KT CAVOK 29/22 A2994=
201503172100 METAR MRLM 172100Z 09005KT CAVOK 28/21 A2992=
201503172200 METAR MRLM 172200Z 07006KT CAVOK 28/21 A2991=
201503172300 METAR MRLM 172300Z 06007KT CAVOK 27/22 A2992=
201503180000 METAR MRLM 180000Z 06006KT CAVOK 26/21 A2995=
201503180100 METAR MRLM NIL=
201503180200 METAR MRLM NIL=
201503180300 METAR MRLM NIL=
201503180400 METAR MRLM NIL=
201503180500 METAR MRLM NIL=
201503180600 METAR MRLM NIL=
201503180700 METAR MRLM NIL=
201503180800 METAR MRLM NIL=
201503180900 METAR MRLM NIL=
201503181000 METAR MRLM NIL=
201503181100 METAR MRLM NIL=
201503181200 METAR MRLM 181200Z 24005KT CAVOK 20/18 A2996=
201503181300 METAR MRLM 181300Z 24005KT CAVOK 21/19 A2997=
201503181400 METAR MRLM 181400Z 23005KT CAVOK 25/20 A2999=
201503181500 METAR MRLM 181500Z 13003KT CAVOK 28/22 A3001=
201503181600 METAR MRLM 181600Z 11008KT CAVOK 28/20 A3001/=
201503181700 METAR MRLM 181700Z 11006KT CAVOK 28/20 A2999=
201503181800 METAR MRLM 181800Z 11007KT CAVOK 28/21 A2996=
201503181900 METAR MRLM 181900Z 10007KT CAVOK 28/21 A2993=
201503182000 METAR MRLM 182000Z 10006KT CAVOK 28/21 A2991=
201503182100 METAR MRLM 182100Z 10004KT CAVOK 28/21 A2989=
201503182200 METAR MRLM 182200Z 10006KT CAVOK 28/21 A2991=
201503182300 METAR MRLM 182300Z 09006KT CAVOK 27/21 A2989=
201503182354 METAR MRLM 19000Z 09006KT CAVOK 27/21 A2991=
201503190000 METAR MRLM 19000Z 09006KT CAVOK 27/21 A2991=
201503190100 METAR MRLM NIL=
201503190200 METAR MRLM NIL=
201503190300 METAR MRLM NIL=
201503190400 METAR MRLM NIL=
201503190500 METAR MRLM NIL=
201503190600 METAR MRLM NIL=
201503190700 METAR MRLM NIL=
201503190800 METAR MRLM NIL=
201503190900 METAR MRLM NIL=
201503191000 METAR MRLM NIL=
201503191100 METAR MRLM NIL=
201503191200 METAR MRLM 191200Z 26005KT 9999 FEW015 BKN280 // // A2997=
201503191300 METAR MRLM 191300Z 25005KT 9999 FEW015 BKN120 ///// A2999=
201503191400 METAR MRLM 191400Z 24004KT CAVOK 24/19 A3001=
201503191500 METAR MRLM 191500Z 24004KT CAVOK 26/19 A3002=
201503191600 METAR MRLM 191600Z 09004KT 9999 FEW025 BKN090 27/19 A3002=
201503191700 METAR MRLM NIL=
201503191800 METAR MRLM NIL=
201503191900 METAR MRLM 191900Z 09008KT 9999 FEW025 SCT090 28/20 A2996=
201503192000 METAR MRLM 192000Z 08007KT 9999 FEW025 BKN120 28/21 A2993=
201503192100 METAR MRLM 192100Z 07006KT 9999 FEW025 BKN300 28/20 A2991=
201503192200 METAR MRLM 192200Z 09005KT 9999 FEW025 BKN300 28/21 A2991=
201503192300 METAR MRLM 192300Z 10005KT 9999 FEW025 SCT130 27/21 A2991=
201503192356 METAR MRLM 200000Z 10005KT 9999 FEW015 SCT090 27/20 A2993=
201503200000 METAR MRLM 200000Z 10005KT 9999 FEW015 SCT090 27/20 A2993=
201503200100 METAR MRLM NIL=
201503200200 METAR MRLM NIL=
201503200300 METAR MRLM NIL=
201503200400 METAR MRLM NIL=
201503200500 METAR MRLM NIL=
201503200600 METAR MRLM NIL=
201503200700 METAR MRLM NIL=
201503200800 METAR MRLM NIL=
201503200900 METAR MRLM NIL=
201503201000 METAR MRLM NIL=
201503201100 METAR MRLM NIL=
201503201200 METAR MRLM 201200Z 26003KT CAVOK 20/19 A3000=
201503201300 METAR MRLM 201300Z 26002KT CAVOK 21/19 A3001=
201503201400 METAR MRLM 201400Z 28002KT CAVOK 26/20 A3003=
201503201500 METAR MRLM 201500Z 08002KT CAVOK 27/20 A3004=
201503201600 METAR MRLM 201600Z 30004KT 9999 FEW040 SCT260 28/19 A3004=
201503201700 METAR MRLM 201700Z 08005KT 9999 FEW040 BKN260 29/20 A3003=
201503201800 METAR MRLM 201800Z 08005KT 9999 FEW040 BKN260 30/21 A3001=
201503201900 METAR MRLM 201900Z 07007KT 9999 FEW040 SCT260 28/21 A2997=
201503202000 METAR MRLM 202000Z 07006KT 9999 FEW040 SCT130 29/20 A2994=
201503202100 METAR MRLM 202100Z 06005KT 9999 SCT035 SCT130 28/21 A2992=
201503202200 METAR MRLM 202200Z 05005KT 9999 BKN030 28/20 A2992=
201503202300 METAR MRLM 202300Z 06007KT 9999 BKN030 27/21 A2993=
201503210000 METAR MRLM 210000Z 07007KT 9999 BKN025 26/21 A2995=
201503210100 METAR MRLM NIL=
201503210200 METAR MRLM NIL=
201503210300 METAR MRLM NIL=
201503210400 METAR MRLM NIL=
201503210500 METAR MRLM NIL=
201503210600 METAR MRLM NIL=
201503210700 METAR MRLM NIL=
201503210800 METAR MRLM NIL=
201503210900 METAR MRLM NIL=
201503211000 METAR MRLM NIL=
201503211100 METAR MRLM NIL=
201503211200 METAR MRLM 211200Z 22004KT 9999 FEW010 BKN100 22/20 A2999=
201503211300 METAR MRLM 211300Z 23003KT CAVOK 23/21 A3001=
201503211400 METAR MRLM 211400Z 18003KT 9999 FEW030 BKN130 26/20 A3003=
201503211500 METAR MRLM 211500Z 24003KT CAVOK 28/20 A3004=
201503211600 METAR MRLM 211600Z 04006KT 9999 FEW040 BKN130 28/20 A3004=
201503211700 METAR MRLM 211700Z 07005KT 9999 FEW040 BKN140 28/20 A3002=
201503211800 METAR MRLM 211800Z 08004KT CAVOK 28/20 A3000=
201503211900 METAR MRLM 211900Z 08007KT CAVOK 28/20 A2996=
201503212000 METAR MRLM 212000Z 10006KT CAVOK 29/20 A2994=
201503212100 METAR MRLM 212100Z 09006KT CAVOK 28/20 A2992=
201503212200 METAR MRLM 212200Z 07004KT CAVOK 28/21 A2992=
201503212300 METAR MRLM 212300Z 08004KT CAVOK 27/20 A2993=
201503220000 METAR MRLM 220000Z 00000KT CAVOK 27/20 A2995=
201503220100 METAR MRLM NIL=
201503220200 METAR MRLM NIL=
201503220300 METAR MRLM NIL=
201503220400 METAR MRLM NIL=
201503220500 METAR MRLM NIL=
201503220600 METAR MRLM NIL=
201503220700 METAR MRLM NIL=
201503220800 METAR MRLM NIL=
201503220900 METAR MRLM NIL=
201503221000 METAR MRLM NIL=
201503221100 METAR MRLM NIL=
201503221200 METAR MRLM 221200Z 25004KT CAVOK 21/19 A2997=
201503221300 METAR MRLM 221300Z 25004KT 9999 FEW015 23/19 A2998=
201503221400 METAR MRLM 221400Z 09008KT CAVOK 25/09 A3010 NOSIG=
201503221500 METAR MRLM 221500Z 12003KT 9999 FEW025 29/20 A3001=
201503221600 METAR MRLM 221600Z 11004KT 9999 SCT025 28/20 A3001=
201503221700 METAR MRLM 221700Z 10006KT 9999 SCT025 28/21 A23000=
201503221800 METAR MRLM 221800Z 09007KT 9999 FEW025 29/21 A2997=
201503221900 METAR MRLM 221900Z 09004KT 9999 FEW025 29/21 A2994=
201503222000 METAR MRLM 222000Z 08007KT 9999 FEW025 SCT090 29/21 A2991=
201503222100 METAR MRLM 222100Z 08005KT 9999 SCT025 SCT090 28/20 A2991=
201503222200 METAR MRLM 222200Z 10005KT 9999 BKN025 28/20 A2990=
201503222300 METAR MRLM 222300Z 10007KT 9999 SCT020 BKN090 27/21 A2991=
201503222352 METAR MRLM 230000Z 12006KT 9999 SCT015 BKN090 27/20 A2992=
201503230000 METAR MRLM 230000Z 12006KT 9999 SCT015 BKN090 27/20 A2992=
201503230100 METAR MRLM NIL=
201503230200 METAR MRLM NIL=
201503230300 METAR MRLM NIL=
201503230400 METAR MRLM NIL=
201503230500 METAR MRLM NIL=
201503230600 METAR MRLM NIL=
201503230700 METAR MRLM NIL=
201503230800 METAR MRLM NIL=
201503230900 METAR MRLM NIL=
201503231000 METAR MRLM NIL=
201503231100 METAR MRLM NIL=
201503231200 METAR MRLM 231200Z 26002KT 9999 FEW015 SCT140 22/20 A2996=
201503231300 METAR MRLM 231300Z 25004KT 9999 FEW015 SCT140 23/20 A2998=
201503231400 METAR MRLM 231400Z 23002KT CAVOK 26/20 A3000=
201503231500 METAR MRLM 231500Z 12004KT CAVOK 28/21 A3001=
201503231600 METAR MRLM 231600Z 13008KT 9999 FEW025 29/21 A3000=
201503231700 METAR MRLM 231700Z 12009KT 9999 FEW025 SCT280 29/21 A2999=
201503231800 METAR MRLM 231800Z 10010KT 9999 FEW035 29/21 A2996=
201503231900 METAR MRLM 231900Z 10010KT 9999 FEW035 SCT300 29/21 A2994=
201503232000 METAR MRLM 232000Z 10009KT 9999 FEW035 29/22 A2991 CB DST S/=
201503232100 METAR MRLM 232100Z 10009KT 9999 FEW025 29/22 A2990=
201503232200 METAR MRLM 232200Z 12008KT 9999 BKN025 28/22 A2989=
201503232300 METAR MRLM 232300Z 13008KT 9999 BKN020 28/21 A2991=
201503232354 METAR MRLM 240000Z 12007KT 9999 FEW015 BKN090 27/21 A2991=
201503240000 METAR MRLM 240000Z 12007KT 9999 FEW015 BKN090 27/21 A2991=
201503240100 METAR MRLM NIL=
201503240200 METAR MRLM NIL=
201503240300 METAR MRLM NIL=
201503240400 METAR MRLM NIL=
201503240500 METAR MRLM NIL=
201503240600 METAR MRLM NIL=
201503240700 METAR MRLM NIL=
201503240800 METAR MRLM NIL=
201503240900 METAR MRLM NIL=
201503241000 METAR MRLM NIL=
201503241100 METAR MRLM NIL=
201503241200 METAR MRLM NIL=
201503241300 METAR MRLM 241300Z 23005KT CAVOK 25/20 A3000=
201503241400 METAR MRLM 241400Z 20004KT CAVOK 28/20 A3002=
201503241500 METAR MRLM 241500Z 10007KT 9999 FEW025 SCT150 28/21 A3003=
201503241600 METAR MRLM 241600Z 11006KT 9999 FEW025 SCT150 29/20 A3003=
201503241700 METAR MRLM 241700Z 11009KT 9999 FEW025 SCT150 29/21 A3002=
201503241800 METAR MRLM 241800Z 09011KT 9999 FEW025 SCT150 29/21 A3000=
201503241856 METAR MRLM 241856Z 10009KT 9999 FEW025 SCT150 29/21 A2997=
201503241900 METAR MRLM 10009KT 9999 FEW025 SCT150 29/21 A2997=
201503242000 METAR MRLM 242000Z 090/08KT 9999 FEW025 29/21 A2994=
201503242100 METAR MRLM 242100Z 09008KT 9999 FEW025 29/22 A2992=
201503242200 METAR MRLM NIL=
201503242300 METAR MRLM NIL=
201503250000 METAR MRLM NIL=
201503250100 METAR MRLM NIL=
201503250200 METAR MRLM NIL=
201503250300 METAR MRLM NIL=
201503250400 METAR MRLM NIL=
201503250500 METAR MRLM NIL=
201503250600 METAR MRLM NIL=
201503250700 METAR MRLM NIL=
201503250800 METAR MRLM NIL=
201503250900 METAR MRLM NIL=
201503251000 METAR MRLM NIL=
201503251100 METAR MRLM NIL=
201503251200 METAR MRLM NIL=
201503251300 METAR MRLM 251300Z 23005KT CAVOK 23/19 A2999=
201503251400 METAR MRLM 251400Z 20003KT 9999 FEW015 28/20 A3001=
201503251500 METAR MRLM 251500Z 12005KT 9999 FEW025 28/21 A3001 NOSIG=
201503251600 METAR MRLM 251600Z 12008KT 9999 FEW025 29/21 A30010=
201503251700 METAR MRLM 251700Z 12008KT 9999 FEW025 29/20 A2999=
201503251800 METAR MRLM 251800Z 09009KT 9999 FEW025 29/21 A2998=
201503251900 METAR MRLM 251900Z 09008KT 9999 FEW025 29/20 A2996=
201503252000 METAR MRLM 252000Z 08008KT 9999 FEW025 29/21 A2994=
201503252100 METAR MRLM 252100Z 08008KT 9999 FEW025 29/21 A2993=
201503252200 METAR MRLM NIL=
201503252300 METAR MRLM NIL=
201503260000 METAR MRLM NIL=
201503260100 METAR MRLM NIL=
201503260200 METAR MRLM NIL=
201503260300 METAR MRLM NIL=
201503260400 METAR MRLM NIL=
201503260500 METAR MRLM NIL=
201503260600 METAR MRLM NIL=
201503260700 METAR MRLM NIL=
201503260800 METAR MRLM NIL=
201503260900 METAR MRLM NIL=
201503261000 METAR MRLM NIL=
201503261100 METAR MRLM NIL=
201503261200 METAR MRLM NIL=
201503261300 METAR MRLM 261300Z 25005KT CAVOK 23/20 A2996=
201503261400 METAR MRLM 261400Z 26004KT CAVOK 27/20 A2998=
201503261500 METAR MRLM 261500Z 07007KT CAVOK 28/20 A2999=
201503261600 METAR MRLM 261600Z 08005KT CAVOK 29/20 A2999=
201503261700 METAR MRLM 261700Z 06007KT 9999 FEW025 SCT270 29/20 A2998=
201503261800 METAR MRLM 261800Z 06006KT 9999 FEW025 BKN280 29/21 A2995=
201503261900 METAR MRLM 261900Z 07007KT 9999 FEW025 BKN280 29/21 A2992=
201503262000 METAR MRLM 262000Z 08007KT 9999 FEW025 BKN280 29/21 A2990=
201503262100 METAR MRLM 262100Z 09007KT 9999 FEW025 BKN280=
201503262200 METAR MRLM NIL=
201503262300 METAR MRLM NIL=
201503270000 METAR MRLM NIL=
201503270100 METAR MRLM NIL=
201503270200 METAR MRLM NIL=
201503270300 METAR MRLM NIL=
201503270400 METAR MRLM NIL=
201503270500 METAR MRLM NIL=
201503270600 METAR MRLM NIL=
201503270700 METAR MRLM NIL=
201503270800 METAR MRLM NIL=
201503270900 METAR MRLM NIL=
201503271000 METAR MRLM NIL=
201503271100 METAR MRLM NIL=
201503271200 METAR MRLM NIL=
201503271300 METAR MRLM 271300Z 24004KT CAVOK 24/20 A2994=
201503271400 METAR MRLM 271400Z 15005KT CAVOK 27/19 A2995=
201503271500 METAR MRLM 271500Z 14007KT CAVOK 28/20 A2996=
201503271600 METAR MRLM 271600Z 13008KT CAVOK 29/21 A2996=
201503271700 METAR MRLM 271700Z 12011KT 9999 FEW025 29/22 A2994=
201503271800 METAR MRLM 271800Z 12011KT 9999 FEW025 29/22 A2992=
201503271900 METAR MRLM 271900Z 11011KT 9999 FEW025 29/22 A2988=
201503272000 METAR MRLM 272000Z 11011KT 9999 FEW025 30/22 A2987=
201503272100 METAR MRLM 272100Z 11009KT 9999 FEW025 29/22 A2986=
201503272200 METAR MRLM NIL=
201503272300 METAR MRLM NIL=
201503280000 METAR MRLM NIL=
201503280100 METAR MRLM NIL=
201503280200 METAR MRLM NIL=
201503280300 METAR MRLM NIL=
201503280400 METAR MRLM NIL=
201503280500 METAR MRLM NIL=
201503280600 METAR MRLM NIL=
201503280700 METAR MRLM NIL=
201503280800 METAR MRLM NIL=
201503280900 METAR MRLM NIL=
201503281000 METAR MRLM NIL=
201503281100 METAR MRLM NIL=
201503281200 METAR MRLM 281200Z 25005KT CAVOK 22/20 A2999=
201503281300 METAR MRLM 281300Z 26003KT CAVOK 24/20 A3001=
201503281400 METAR MRLM 281400Z 23002KT CAVOK 28/20 A3002=
201503281500 METAR MRLM 281500Z 09004KT CAVOK 28/21 A3003=
201503281600 METAR MRLM 281600Z 11005KT 9999 FEW040 29/21 A3002=
201503281700 METAR MRLM 281700Z 07004KT 9999 FEW040 29/22 A3001=
201503281800 METAR MRLM 281800Z 07006KT 9999 FEW035 29/22 A2998=
201503281900 METAR MRLM 281900Z 08006KT 9999 FEW035 29/22 A2994=
201503282000 METAR MRLM 282000Z 08006KT 9999 FEW035 BKN250 29/22 A2992=
201503282100 METAR MRLM 282100Z 08006KT 9999 FEW035 BKN250 29/21 A2991=
201503282200 METAR MRLM 282200Z 08006KT 9999 SCT035 SCT250 28/21 A2991=
201503282300 METAR MRLM 282300Z 06005KT 9999 BKN030 SCT240 28/21 A2993=
201503290000 METAR MRLM 290000Z 06004KT 9999 BKN025 27/22 A2995=
201503290100 METAR MRLM NIL=
201503290200 METAR MRLM NIL=
201503290300 METAR MRLM NIL=
201503290400 METAR MRLM NIL=
201503290500 METAR MRLM NIL=
201503290600 METAR MRLM NIL=
201503290700 METAR MRLM NIL=
201503290800 METAR MRLM NIL=
201503290900 METAR MRLM NIL=
201503291000 METAR MRLM NIL=
201503291100 METAR MRLM NIL=
201503291200 METAR MRLM 291200Z 36007KT 6000 RA BKN007 23/21 A3002=
201503291300 METAR MRLM 291300Z 24005KT 9999 DZ BKN007 SCT090 22/22 A3003 RERA=
201503291400 METAR MRLM 291400Z 24007KT 9999 SCT010 SCT100 24/22 A3004 REDZ=
201503291500 METAR MRLM 291500Z 24004KT CAVOK 26/21 A3004=
201503291600 METAR MRLM 291600Z 19002KT CAVOK 30/21 A3004=
201503291700 METAR MRLM 291700Z 09004KT 9999 FEW030 BKN130 29/23 A3003=
201503291800 METAR MRLM 291800Z 04009KT 9999 FEW030 BKN130 29/22 A3001=
201503291900 METAR MRLM 291900Z 04015KT 9999 SCT025 SCT120 27/22 A2999=
201503292000 METAR MRLM 292000Z 06015KT 6000 DZ BKN015 25/22 A2997=
201503292100 METAR MRLM 292100Z 22002KT 9999 SCT015 SCT1110 25/22 A2995 REDZ=
201503292200 METAR MRLM 292200Z 23004KT 9999 SCT020 BKN110 25/22 A2995=
201503292300 METAR MRLM 292300Z 24002KT 9999 SCT020 BKN110 26/22 A2995=
201503300000 METAR MRLM NIL=
201503300100 METAR MRLM NIL=
201503300200 METAR MRLM NIL=
201503300300 METAR MRLM NIL=
201503300400 METAR MRLM NIL=
201503300500 METAR MRLM NIL=
201503300600 METAR MRLM NIL=
201503300700 METAR MRLM NIL=
201503300800 METAR MRLM NIL=
201503300900 METAR MRLM NIL=
201503301000 METAR MRLM NIL=
201503301100 METAR MRLM NIL=
201503301200 METAR MRLM 301200Z 23005KT 9999 BKN025 22/20 A2998=
201503301300 METAR MRLM 301300Z 23004KT 9999 BKN030 23/21 A2999=
201503301400 METAR MRLM 301400Z 24005KT 9999 BKN030 24/21 A3000=
201503301500 METAR MRLM 301500Z 25003KT 9999 SCT030 SCT100 26/20 A3001=
201503301559 METAR MRLM 301600SZ 05004KT 9999 SCT035 SCT130 29/21 A3001=
201503301600 METAR MRLM 301600SZ 05004KT 9999 SCT035 SCT130 29/21 A3001=
201503301700 METAR MRLM 301700Z 06005KT 9999 FEW025 SCT130 29/21 A3000=
201503301800 METAR MRLM 301800Z 04008KT 9999 FEW025 SCT270 29/22 A2998=
201503301900 METAR MRLM 301900Z 03008KT 9999 FEW025 SCT270 29/22 A2996 CB DST NE/=
201503302000 METAR MRLM 302000Z 02013KT 9999 FEW025 SCT140 29/22 A2992=
201503302100 METAR MRLM 302100Z 04012KT 9999 SCT025 SCT140 29/22 A2991=
201503302200 METAR MRLM 302200Z 06017KT 9999 SCT015 SCT140 26/23 A2991=
201503302300 METAR MRLM 302300Z 05009KT 9999 FEW025 BKN090 26/21 A2992=
201503302355 METAR MRLM 310000Z 07005KT 9999 FEW020 BKN090 26/22 A2994=
201503310000 METAR MRLM 310000Z 07005KT 9999 FEW020 BKN090 26/22 A2994=
201503310100 METAR MRLM NIL=
201503310200 METAR MRLM NIL=
201503310300 METAR MRLM NIL=
201503310400 METAR MRLM NIL=
201503310500 METAR MRLM NIL=
201503310600 METAR MRLM NIL=
201503310700 METAR MRLM NIL=
201503310800 METAR MRLM NIL=
201503310900 METAR MRLM NIL=
201503311000 METAR MRLM NIL=
201503311100 METAR MRLM NIL=
201503311200 METAR MRLM 311200Z 31002KT 3000 RA OVC010 22/21 A2996=
201503311300 METAR MRLM 311300Z 26006KT 9999 DZ FEW010 SCT025 22/21 A2998 RERA=
201503311400 METAR MRLM 311400Z 25006KT 9999 FEW010 SCT100 23/21 A2999 REDZ=
201503311500 METAR MRLM 311500Z 22006KT 9999 FEW030 BKN090 25/21 A2999=
201503311600 METAR MRLM 311600Z 23003KT 9999 FEW030 BKN090 26/21 A3000=
201503311700 METAR MRLM 311700Z 17004KT 9999 FEW025 BKN110 29/21 A2998=
201503311800 METAR MRLM 311800Z 05006KT 9999 BKN025 SCT110 28/22 A2996=
201503311900 METAR MRLM 311900Z 03008KT 9999 SCT030 BKN100 28/21 A2992=
201503312000 METAR MRLM 312000Z 05005KT 9999 FEW030 BKN130 28/22 A2989=
201503312100 METAR MRLM 312100Z 12009KT 9999 FEW025 SCT140 28/23 A2987=
201503312200 METAR MRLM 312200Z 12007KT 9999 FEW025 SCT140 27/22 A2987=
201503312300 METAR MRLM 312300Z 12002KT 9999 FEW025 SCT140 27/21 A2987=
201503312355 METAR MRLM 010000Z 20002KT CAVOK 25/22 A2989=
201504010000 METAR MRLM 010000Z 20002KT CAVOK 25/22 A2989=
201504010100 METAR MRLM NIL=
201504010200 METAR MRLM NIL=
201504010300 METAR MRLM NIL=
201504010400 METAR MRLM NIL=
201504010500 METAR MRLM NIL=
201504010600 METAR MRLM NIL=
201504010700 METAR MRLM NIL=
201504010800 METAR MRLM NIL=
201504010900 METAR MRLM NIL=
201504011000 METAR MRLM NIL=
201504011100 METAR MRLM NIL=
201504011200 METAR MRLM 011200Z 26004KT CAVOK 20/19 A2994=
201504011300 METAR MRLM 011300Z 25002KT 9999 FEW010 BKN110 21/20 A2996=
201504011400 METAR MRLM 011400Z 19003KT CAVOK 24/21 A2998=
201504011500 METAR MRLM 011500Z 14008KT CAVOK 27/21 A2998=
201504011600 METAR MRLM 011600Z 14009KT 9999 FEW030 BKN130 28/21 A2998=
201504011700 METAR MRLM 011700Z 13008KT 9999 FEW040 BKN140 29/20 A2996=
201504011800 METAR MRLM 011800Z 11007KT 9999 FEW040 SCT140 29/21 A2994=
201504011900 METAR MRLM 011900Z 09010KT 9999 FEW040 BKN140 28/23 A2992=
201504012000 METAR MRLM 012000Z 09007KT CAVOK 29/22 A2988=
201504012100 METAR MRLM 012100Z 07006KT CAVOK 29/21 A2987=
201504012200 METAR MRLM 012200Z 07005KT CAVOK 28/21 A2986=
201504012300 METAR MRLM 012300Z 11004KT CAVOK 28/21 A2987=
201504020000 METAR MRLM 020000Z 10004KT CAVOK 27/20 A2988=
201504020100 METAR MRLM NIL=
201504020200 METAR MRLM NIL=
201504020300 METAR MRLM NIL=
201504020400 METAR MRLM NIL=
201504020500 METAR MRLM NIL=
201504020600 METAR MRLM NIL=
201504020700 METAR MRLM NIL=
201504020800 METAR MRLM NIL=
201504020900 METAR MRLM NIL=
201504021000 METAR MRLM NIL=
201504021100 METAR MRLM NIL=
201504021200 METAR MRLM 021200Z 25004KT CAVOK 22/20 A2995=
201504021300 METAR MRLM 021300Z 25004KT CAVOK 24/20 A2996=
201504021400 METAR MRLM 021400Z 23003KT CAVOK 27/21 A2997=
201504021500 METAR MRLM 021500Z 11005KT 9999 FEW035 29/21 A2998=
201504021600 METAR MRLM 021600Z 10008KT 9999 FEW040 29/20 A2997=
201504021700 METAR MRLM 021700Z 11011KT 9999 FEW040 30/20 A2996=
201504021800 METAR MRLM 021800Z 10009KT 9999 FEW045 30/20 A2994=
201504021900 METAR MRLM 021900Z 09011KT CAVOK 30/21 A2991=
201504022000 METAR MRLM 022000Z 09009KT CAVOK 29/21 A2989=
201504022100 METAR MRLM 022100Z 10011KT CAVOK 30/21 A2987=
201504022200 METAR MRLM 022200Z 10007KT CAVOK 29/21 A2986=
201504022300 METAR MRLM 022300Z 11006KT CAVOK 28/21 A2987=
201504030000 METAR MRLM 030000Z 11006KT 9999 FEW030 27/21 A2988=
201504030100 METAR MRLM NIL=
201504030200 METAR MRLM NIL=
201504030300 METAR MRLM NIL=
201504030400 METAR MRLM NIL=
201504030500 METAR MRLM NIL=
201504030600 METAR MRLM NIL=
201504030700 METAR MRLM NIL=
201504030800 METAR MRLM NIL=
201504030900 METAR MRLM NIL=
201504031000 METAR MRLM NIL=
201504031100 METAR MRLM NIL=
201504031200 METAR MRLM 031200Z 26004KT 9999 BKN025 23/21 A2991=
201504031300 METAR MRLM 031300Z 25004KT 9999 BKN030 24/21 A2993=
201504031400 METAR MRLM 031400Z 10003KT CAVOK 28/22 A2995=
201504031500 METAR MRLM 031500Z 08005KT CAVOK 28/21 A2996=
201504031600 METAR MRLM 031600Z 09006KT 9999 FEW035 BKN110 29/20 A2995=
201504031700 METAR MRLM 031700Z 06009KT 9999 FEW025 BKN090 28/23 A2995=
201504031800 METAR MRLM 031800Z 09005KT 9999 FEW030 BKN090 28/22 A2993=
201504031900 METAR MRLM 031900Z 09003KT 9999 FEW030 BKN090 29/21 A2990=
201504032000 METAR MRLM 032000Z 11004KT 9999 FEW035 BKN110 29/21 A2988=
201504032100 METAR MRLM 032100Z 07007KT 9999 FEW035 BKN120 30/21 A2986=
201504032200 METAR MRLM 032200Z 07005KT 9999 FEW035 BKN120 29/22 A2985=
201504032300 METAR MRLM 032300Z 07004KT CAVOK 28/21 A2986=
201504032357 METAR MRLM 040000Z 07002KT CAVOK 27/22 A2987=
201504040000 METAR MRLM 040000Z 07002KT CAVOK 27/22 A2987=
201504040100 METAR MRLM NIL=
201504040200 METAR MRLM NIL=
201504040300 METAR MRLM NIL=
201504040400 METAR MRLM NIL=
201504040500 METAR MRLM NIL=
201504040600 METAR MRLM NIL=
201504040700 METAR MRLM NIL=
201504040800 METAR MRLM NIL=
201504040900 METAR MRLM NIL=
201504041000 METAR MRLM NIL=
201504041100 METAR MRLM NIL=
201504041200 METAR MRLM 041200Z 27004KT CAVOK 21/19 A2988=
201504041300 METAR MRLM 041300Z 25003KT CAVOK 23/20 A2989=
201504041400 METAR MRLM 041400Z 30002KT CAVOK 25/20 A2992=
201504041500 METAR MRLM 041500Z 00000KT 9999 SCT030 BKN090 27/21 A2993=
201504041600 METAR MRLM 041600Z 16003KT 9999 FEW030 BKN090 27/21 A2994=
201504041700 METAR MRLM 041700Z 21005KT CAVOK 30/21 A2993=
201504041800 METAR MRLM 041800Z 05006KT CAVOK 29/21 A2991=
201504041900 METAR MRLM 041900Z 06005KT 9999 FEW035 BKN100 29/21 A2988=
201504042000 METAR MRLM 042000Z 07006KT 9999 FEW035 BKN090 29/21 A2986=
201504042100 METAR MRLM 042100Z 05008KT 9999 FEW035 BKN090 28/21 A2984=
201504042200 METAR MRLM 042200Z 08007KT 9999 FEW035 BKN090 29/21 A2984=
201504042300 METAR MRLM 042300Z 07004KT CAVOK 28/21 A2984=
201504042354 METAR MRLM 050000Z 02006KT CAVOK 27/22 A2986=
201504050000 METAR MRLM 050000Z 02006KT CAVOK 27/22 A2986=
201504050100 METAR MRLM NIL=
201504050200 METAR MRLM NIL=
201504050300 METAR MRLM NIL=
201504050400 METAR MRLM NIL=
201504050500 METAR MRLM NIL=
201504050600 METAR MRLM NIL=
201504050700 METAR MRLM NIL=
201504050800 METAR MRLM NIL=
201504050900 METAR MRLM NIL=
201504051000 METAR MRLM NIL=
201504051100 METAR MRLM NIL=
201504051200 METAR MRLM NIL=
201504051300 METAR MRLM 051300Z 22005KT 9999 FEW020 25/21 A2990=
201504051400 METAR MRLM 051400Z 25004KT 9999 FEW025 28/21 A2992=
201504051500 METAR MRLM 051500Z 20003KT 9999 FEW025 SCT090 29/21 A2993=
201504051600 METAR MRLM NIL=
201504051700 METAR MRLM 051700Z 07008KT 9999 SCT030 BKN090 29/22 A2992=
201504051800 METAR MRLM NIL=
201504051900 METAR MRLM 051900Z 08004KT 9999 FEW035 29/21 A2986=
201504052000 METAR MRLM 052000Z 09009KT 9999 FEW035 30/21 A2984=
201504052100 METAR MRLM 052100Z 9999 FEW035 30/22 A2982=
201504052200 METAR MRLM NIL=
201504052300 METAR MRLM NIL=
201504060000 METAR MRLM NIL=
201504060100 METAR MRLM NIL=
201504060200 METAR MRLM NIL=
201504060300 METAR MRLM NIL=
201504060400 METAR MRLM NIL=
201504060500 METAR MRLM NIL=
201504060600 METAR MRLM NIL=
201504060700 METAR MRLM NIL=
201504060800 METAR MRLM NIL=
201504060900 METAR MRLM NIL=
201504061000 METAR MRLM NIL=
201504061100 METAR MRLM NIL=
201504061200 METAR MRLM NIL=
201504061300 METAR MRLM 061300Z 23003KT CAVOK 26/22 A2991=
201504061400 METAR MRLM 061400Z 16003KT 9999 FEW025 28/21 A2993=
201504061500 METAR MRLM 061500Z 12003KT 9999 SCT025 SCT090 29/21 A2993=
201504061600 METAR MRLM 061600Z 10004KT 9999 SCT035 29/22 A2992=
201504061700 METAR MRLM 061700Z 08006KT 9999 SCT035 29/22 A2992=
201504061800 METAR MRLM 061800Z 07008KT 9999 SCT030 SCT110 29/22 A2989=
201504061900 METAR MRLM 061900Z 07006KT 9999 SCT035 SCT110 30/22 A2987=
201504062000 METAR MRLM 062000Z 07009KT 9999 BKN030 30/22 A2985=
201504062100 METAR MRLM 062100Z 06012KT 9999 BKN035TCU 30/23 A2983=
201504062200 METAR MRLM NIL=
201504062300 METAR MRLM NIL=
201504070000 METAR MRLM NIL=
201504070100 METAR MRLM NIL=
201504070200 METAR MRLM NIL=
201504070300 METAR MRLM NIL=
201504070400 METAR MRLM NIL=
201504070500 METAR MRLM NIL=
201504070600 METAR MRLM NIL=
201504070700 METAR MRLM NIL=
201504070800 METAR MRLM NIL=
201504070900 METAR MRLM NIL=
201504071000 METAR MRLM NIL=
201504071100 METAR MRLM NIL=
201504071200 METAR MRLM NIL=
201504071300 METAR MRLM 071300Z 21002KT 9999 BKN015 SCT090 23/21 A2991=
201504071400 METAR MRLM 071400Z 07010KT 9999 SCT015 SCT090 25/21 A2993=
201504071500 METAR MRLM 071500Z 21002KT 9999 BKN015 SCT090 26/21 A2994=
201504071600 METAR MRLM 071600Z 18003KT 9999 SCT030 SCT100 27/22 A2993=
201504071700 METAR MRLM 071700Z 14008KT 9999 SCT030 SCT100 27/21 A2992=
201504071800 METAR MRLM 071800Z 11003KT 9999 SCT030 SCT090 29/21 A2990=
201504071900 METAR MRLM 03008KT 9999 SCT030 SCT090 28/21 A2988=
201504071904 METAR MRLM 071904Z 03008KT 9999 SCT030 SCT090 28/21 A2988=
201504072000 METAR MRLM 072000Z 05005KT 9999 FEW025 SCT040 28/20 A2987=
201504072100 METAR MRLM 072100Z 09003KT 9999 FEW015 BKN090 28/20 A2986=
201504072200 METAR MRLM NIL=
201504072300 METAR MRLM NIL=
201504080000 METAR MRLM NIL=
201504080100 METAR MRLM NIL=
201504080200 METAR MRLM NIL=
201504080300 METAR MRLM NIL=
201504080400 METAR MRLM NIL=
201504080500 METAR MRLM NIL=
201504080600 METAR MRLM NIL=
201504080700 METAR MRLM NIL=
201504080800 METAR MRLM NIL=
201504080900 METAR MRLM NIL=
201504081000 METAR MRLM NIL=
201504081100 METAR MRLM NIL=
201504081200 METAR MRLM NIL=
201504081300 METAR MRLM NIL=
201504081400 METAR MRLM 081400Z 25003KT 9999 BKN025 25/21 A2993=
201504081500 METAR MRLM 081500Z 11003KT 9999 +DZ OVC025 26/21 A2904=
201504081556 METAR MRLM 08081600Z 28005KT 9999 DZ SCT025 SCT100 24/22 A2993=
201504081600 METAR MRLM 08081600Z 28005KT 9999 DZ SCT025 SCT100 24/22 A2993 RERA=
201504081700 METAR MRLM 081700Z 30004KT 9999 BKN020 SCT100 26/21 A2992 DZ=
201504081800 METAR MRLM 081800Z 28003KT 9999 BKN030 28/21 A2990=
201504081900 METAR MRLM 081900Z 32003KT 9999 BKN035 29/21 A2987=
201504082000 METAR MRLM 08200Z 06005KT 9999 FEW025 BKN090 29/22 A2984=
201504082100 METAR MRLM 082100Z 04006KT 9999 FEW030 BKN090 29/22 A2982=
201504082200 METAR MRLM NIL=
201504082300 METAR MRLM NIL=
201504090000 METAR MRLM NIL=
201504090100 METAR MRLM NIL=
201504090200 METAR MRLM NIL=
201504090300 METAR MRLM NIL=
201504090400 METAR MRLM NIL=
201504090500 METAR MRLM NIL=
201504090600 METAR MRLM NIL=
201504090700 METAR MRLM NIL=
201504090800 METAR MRLM NIL=
201504090900 METAR MRLM NIL=
201504091000 METAR MRLM NIL=
201504091100 METAR MRLM NIL=
201504091200 METAR MRLM 091200Z 24002KT 9999 BKN015 SCT100 23/21 A2988=
201504091300 METAR MRLM 091300Z 24004KT 9999 SCT015 BKN100 24/21 A2990=
201504091400 METAR MRLM 091400Z 23004KT 9999 FEW025 SCT120 28/22 A2992=
201504091500 METAR MRLM 091500Z 13004KT 9999 SCT035 SCT130 29/22 A2993=
201504091600 METAR MRLM 091600Z 10003KT 9999 FEW040 SCT130 30/22 A2992=
201504091700 METAR MRLM 091700Z 06004KT 9999 FEW040 SCT260 30/21 A2991=
201504091800 METAR MRLM 091800Z 05012KT 9999 FEW030 BKN130 28/22 A2989=
201504091900 METAR MRLM 091900Z 03011KT 9999 FEW035 BKN130 29/21 A2987=
201504092000 METAR MRLM 092000Z 05010KT 9999 FEW030 BKN130 29/21 A2984=
201504092100 METAR MRLM 092100Z 02007KT 9999 FEW030 BKN130 28/22 A2983=
201504092200 METAR MRLM 092200Z 04010KT 9999 SCT020 BKN120 27/23 A2983=
201504092300 METAR MRLM 092300Z 05010KT 9999 SCT025 BKN120 27/21 A2983=
201504100000 METAR MRLM 100000Z 27003KT 9999 SCT020 BKN120 26/20 A2985=
201504100100 METAR MRLM NIL=
201504100200 METAR MRLM NIL=
201504100300 METAR MRLM NIL=
201504100400 METAR MRLM NIL=
201504100500 METAR MRLM NIL=
201504100600 METAR MRLM NIL=
201504100700 METAR MRLM NIL=
201504100800 METAR MRLM NIL=
201504100900 METAR MRLM NIL=
201504101000 METAR MRLM NIL=
201504101100 METAR MRLM NIL=
201504101200 METAR MRLM 101200Z 24005KT 9999 BKN007 SCT100 23/22 A2989=
201504101300 METAR MRLM 101300Z 24003KT 9999 5000 N DZ BKN007 24/23 A2990=
201504101400 METAR MRLM 101400Z 21004KT 9999 BKN015 SCT110 26/23 A2992 REDZ=
201504101500 METAR MRLM 101500Z 24004KT 9999 FEW020 BKN120 26/23 A2992=
201504101600 METAR MRLM 101600Z 23004KT 9999 FEW030 BKN130 29/23 A2991=
201504101700 METAR MRLM 101700Z 12005KT 9999 FEW040 SCT130 30/22 A2989=
201504101800 METAR MRLM 101800Z 07003KT 9999 FEW040 30/22 A2987=
201504101900 METAR MRLM 101900Z 07005KT 9999 FEW040 30/22 A2986=
201504102000 METAR MRLM 102000Z 04007KT 9999 FEW040 SCT140 31/23 A2984=
201504102100 METAR MRLM 102100Z 03012KT 9999 FEW025 BKN130 29/24 A2984=
201504102200 METAR MRLM 102200Z 05013KT 9999 FEW020 BKN120 26/23 A2982=
201504102300 METAR MRLM 102300Z 02003KT 9999 SCT025 BKN120 27/22 A2984=
201504110000 METAR MRLM 110000Z 27003KT 9999 BKN015 SCT120 25/23 A2987=
201504110100 METAR MRLM NIL=
201504110200 METAR MRLM NIL=
201504110300 METAR MRLM NIL=
201504110400 METAR MRLM NIL=
201504110500 METAR MRLM NIL=
201504110600 METAR MRLM NIL=
201504110700 METAR MRLM NIL=
201504110800 METAR MRLM NIL=
201504110900 METAR MRLM NIL=
201504111000 METAR MRLM NIL=
201504111100 METAR MRLM NIL=
201504111200 METAR MRLM 111200Z 25004KT 9999 DZ SCT025 SCT100 23/21 A2989=
201504111255 METAR MRLM 111255Z 24005KT 9999 DZ BKN025 SCT100 23/22 A2991=
201504111300 METAR MRLM 24005KT 9999 DZ BKN025 SCT100 23/22 A2991=
201504111400 METAR MRLM 111400Z 21003KT 9999 FEW020 SCT090 24/22 A2993 REDZ=
201504111454 METAR MRLM 111454Z 24005KT 9999 DZ BKN025 SCT100 25/22 A2993=
201504111500 METAR MRLM 111500Z 24005KT 9999 DZ BKN025 SCT100 25/22 A2993=
201504111600 METAR MRLM 111600Z 29005KT 9999 +DZ BKN020 26/22 A2992=
201504111700 METAR MRLM 111700Z 29005KT 9999 FEW025 BKN110 29/23 A2991 REDZ=
201504111800 METAR MRLM 111800Z 31005KT 9999 BKN030 30/23 A2989=
201504111900 METAR MRLM 111900Z 35009KT 9999 +DZ BKN020 27/23 A2987=
201504112000 METAR MRLM 112000Z 36003KT 9999 +DZ BKN020 SCT090 27/23 A2987=
201504112100 METAR MRLM 112100Z 29002KT 9999 BKN020 27/23 A2986=
201504112200 METAR MRLM 112200Z 16009KT 8000 RA OVC008 25/23 A2986=
201504112300 METAR MRLM 112300Z 25002 9999 BKN010 24/22 A2986 RERA=
201504112355 METAR MRLM 120000Z 26003KT 9999 BKN012 24/22 A2987=
201504120000 METAR MRLM 120000Z 26003KT 9999 BKN012 24/22 A2987=
201504120100 METAR MRLM NIL=
201504120200 METAR MRLM NIL=
201504120300 METAR MRLM NIL=
201504120400 METAR MRLM NIL=
201504120500 METAR MRLM NIL=
201504120600 METAR MRLM NIL=
201504120700 METAR MRLM NIL=
201504120800 METAR MRLM NIL=
201504120900 METAR MRLM NIL=
201504121000 METAR MRLM NIL=
201504121100 METAR MRLM NIL=
201504121200 METAR MRLM 121200Z 26004KT 9999 BKN015 23/22 A2989=
201504121300 METAR MRLM 121300Z 27004KT 9999 DZ BKN015 24/22 A2991=
201504121400 METAR MRLM 121400Z 24004KT 9999 FEW015 BKN090 25/23 A2994 REDZ=
201504121500 METAR MRLM 121500Z 24004KT 9999 BKN020 SCT090 27/23 A2994=
201504121600 METAR MRLM 121600Z 28002KT 9999 FEW025 BKN090 28/23 A2993=
201504121700 METAR MRLM 121700Z 05005KT 9999 FEW025 BKN090 29/24 A2992=
201504121800 METAR MRLM 121800Z 31003KT 9999 FEW025 BKN120 31/23 A2989=
201504121900 METAR MRLM 121900Z 01012KT 9999 FEW025 BKN070 29/24 A2989=
201504122000 METAR MRLM 122000Z 02008KT 9999 FEW025 BKN090 30/23 A2983=
201504122100 METAR MRLM 122100Z 01007KT 9999 FEW025 BKN110 30/23 A2982=
201504122200 METAR MRLM 122200Z 33005KT 9999 FEW025 BKN270 29/22 A2982=
201504122300 METAR MRLM 122300Z 01008KT 9999 FEW025 BKN270 29/23 A2983=
201504122354 METAR MRLM 130000Z 34003KT 9999 FEW025 BKN270 27/24 A2984=
201504130000 METAR MRLM 130000Z 34003KT 9999 FEW025 BKN270 27/24 A2984=
201504130100 METAR MRLM NIL=
201504130200 METAR MRLM NIL=
201504130300 METAR MRLM NIL=
201504130400 METAR MRLM NIL=
201504130500 METAR MRLM NIL=
201504130600 METAR MRLM NIL=
201504130700 METAR MRLM NIL=
201504130800 METAR MRLM NIL=
201504130900 METAR MRLM NIL=
201504131000 METAR MRLM NIL=
201504131100 METAR MRLM NIL=
201504131200 METAR MRLM 131200Z 27004KT 5000 DZ BKN007 SCT080 23/22 A2994=
201504131300 METAR MRLM 131300Z 25002KT 6000 DZ BKN007 SCT090 23/22 A2996=
201504131400 METAR MRLM 131400Z 28006KT 6000 DZ BKN010 SCT090 23/23 A2998=
201504131500 METAR MRLM 131500Z 29003KT 9999 -DZ BKN010 25/24 A2998=
201504131600 METAR MRLM 131600Z 00000KT 9999 DZ BKN010 25/24 A2999=
201504131700 METAR MRLM 131700Z 17003KT 9999 -DZ BKN015 26/24 A2999=
201504131800 METAR MRLM 131800Z 19002KT 9999 BKN020 SCT110 27/23 A2996=
201504131900 METAR MRLM 131900Z 12007KT 9999 SCT020 BKN120 27/24 A2991=
201504132000 METAR MRLM 132000Z 07004KT 9999 FEW015 BKN120 27/24 A2990=
201504132100 METAR MRLM 132100Z 08004KT 9999 FEW020 BKN120 27/23 A2987=
201504132200 METAR MRLM 132200Z 35005KT CAVOK 27/23 A2986=
201504132300 METAR MRLM 132300Z 33003KT CAVOK 26/23 A2986=
201504140000 METAR MRLM 140000Z 00000KT 9999 SCT010 SCT240 25/23 A2989=
201504140100 METAR MRLM NIL=
201504140200 METAR MRLM NIL=
201504140300 METAR MRLM NIL=
201504140400 METAR MRLM NIL=
201504140500 METAR MRLM NIL=
201504140600 METAR MRLM NIL=
201504140700 METAR MRLM NIL=
201504140800 METAR MRLM NIL=
201504140900 METAR MRLM NIL=
201504141000 METAR MRLM NIL=
201504141100 METAR MRLM NIL=
201504141200 METAR MRLM 141200Z 22005KT 9999 -DZ FEW006 BKN010 24/23 A2996=
201504141300 METAR MRLM 141300Z 22005KT 9999 -DZ FEW006 BKN010 24/23 A2996=
201504141400 METAR MRLM 141400Z 27005KT 9999 BKN010 25/23 A2999=
201504141500 METAR MRLM 141500Z 24006KT 9999 BKN020 SCT120 27/23 A3000=
201504141600 METAR MRLM 141600Z 22003KT 9999 FEW025 BKN130 29/23 A2999=
201504141700 METAR MRLM 141700Z 10003KT 9999 FEW030 BKN130 30/23 A2998=
201504141800 METAR MRLM 141800Z 04007KT 9999 FEW030 BKN250 29/24 A2995=
201504141900 METAR MRLM 141900Z 03009KT 9999 FEW030 BKN130 30/24 A2991=
201504142000 METAR MRLM 142000Z 03007KT 9999 FEW030 BKN130 30/23 A2988=
201504142100 METAR MRLM 142100Z 04007KT CAVOK 29/24 A2986=
201504142200 METAR MRLM 142200Z 04006KT CAVOK 29/24 A2985=
201504142300 METAR MRLM 142300Z 01005KT CAVOK 28/23 A2985=
201504150000 METAR MRLM 150000Z 00000KT CAVOK 27/24 A2987=
201504150100 METAR MRLM NIL=
201504150200 METAR MRLM NIL=
201504150300 METAR MRLM NIL=
201504150400 METAR MRLM NIL=
201504150500 METAR MRLM NIL=
201504150600 METAR MRLM NIL=
201504150700 METAR MRLM NIL=
201504150800 METAR MRLM NIL=
201504150900 METAR MRLM NIL=
201504151000 METAR MRLM NIL=
201504151100 METAR MRLM NIL=
201504151200 METAR MRLM NIL=
201504151300 METAR MRLM 151300Z 24004KT 9999 DZ OVC015 24/23 A2991=
201504151400 METAR MRLM 151400Z 18005KT 3000 RA OVC008 24/23 A2994=
201504151500 METAR MRLM 151500Z 2405KT 9999 OVC015 25/23 A2995 RERA=
201504151600 METAR MRLM 151600Z 27007KT 9999 OVC015 27/24 A2995=
201504151700 METAR MRLM 151700Z 29004KT 9999 4KM NE DZ VCSH OVC020 28/24 A2993=
201504151800 METAR MRLM 151800Z 33003KT 8000 DZ VCSH OVC015 26/24 A2992 RERA=
201504151900 METAR MRLM 151900Z 26005KT 8000 DZ VCSH FEW003 BKN015 24/23 A2990 RERA=
201504152000 METAR MRLM 152000Z 26005KT 9999 +DZ FEW004 BKN015 24/23 A2986 RERA=
201504152055 METAR MRLM 152100 27004KT 5000 RA BKN010 25/24 A2985 REDZ=
201504152100 METAR MRLM 152100Z 27004KT 5000 RA BKN010 25/24 A2985 REDZ=
201504152200 METAR MRLM 152200Z 26006KT 4000 RA FEW004 OVC008 24/23 A2985=
201504152259 METAR MRLM 162300Z 27005KT 9999 BKN015 24/23 A2985 RERA=
201504152300 METAR MRLM NIL=
201504152355 METAR MRLM 160000Z 27004KT 5000 DZ VCSH BKN010 24/23 A2987=
201504160000 METAR MRLM 160000Z 27004KT 5000 DZ VCSH BKN010 24/23 A2987=
201504160100 METAR MRLM NIL=
201504160200 METAR MRLM NIL=
201504160300 METAR MRLM NIL=
201504160400 METAR MRLM NIL=
201504160500 METAR MRLM NIL=
201504160600 METAR MRLM NIL=
201504160700 METAR MRLM NIL=
201504160800 METAR MRLM NIL=
201504160900 METAR MRLM NIL=
201504161000 METAR MRLM NIL=
201504161100 METAR MRLM NIL=
201504161200 METAR MRLM 161200Z 21003KT 9999 BKN015 24/23 A2991 NOSIG=
201504161300 METAR MRLM 161300Z 26006KT 9999 BKN015 24/23 A2993=
201504161400 METAR MRLM 161400Z 22004KT 9999 OVC010 25/23 A2994=
201504161500 METAR MRLM 161500Z 23006KT 9999 4KM NW VCSH OVC015 27/23 A2995=
201504161600 METAR MRLM 161600Z 21006KT 9999 OVC020TCU 28/23 A2995=
201504161700 METAR MRLM 161700Z 30006KT 9999 OVC020 27/23 A2995=
201504161800 METAR MRLM 161800Z 27006KT 9999 OVC025 28/23 A2993=
201504161900 METAR MRLM 161900Z 30002KT 9999 SCT020 BKN090 27/23 A2990=
201504162000 METAR MRLM 1620000Z 07004KT 9999 FEW025 BKN110 29/24 A2998=
201504162003 METAR MRLM 1620000Z 07004KT 9999 FEW025 BKN110 29/24 A2998=
201504162100 METAR MRLM NIL=
201504162200 METAR MRLM 162200Z 02008KT 9999 FEW025 BKN080 28/23 A2985=
201504162300 METAR MRLM 162300Z 36004KT 9999 FEW020 BKN090 27/23 A2987=
201504162355 METAR MRLM 170000Z 26003KT CAVOK 26/24 A2988=
201504170000 METAR MRLM 170000Z 26003KT CAVOK 26/24 A2988=
201504170100 METAR MRLM NIL=
201504170200 METAR MRLM NIL=
201504170300 METAR MRLM NIL=
201504170400 METAR MRLM NIL=
201504170500 METAR MRLM NIL=
201504170600 METAR MRLM NIL=
201504170700 METAR MRLM NIL=
201504170800 METAR MRLM NIL=
201504170900 METAR MRLM NIL=
201504171000 METAR MRLM NIL=
201504171100 METAR MRLM NIL=
201504171200 METAR MRLM 171200Z 00000KT 9999 BKN010 24/23 A2991=
201504171300 METAR MRLM 171300Z 22002KT 9999 -DZ BKN010 24/22 A2994=
201504171400 METAR MRLM 171400Z 25005KT 9999 BKN010 SCT090 24/23 A2996=
201504171500 METAR MRLM 171500Z 24006KT 9999 5000N DZ BKN010 24/22 A2997=
201504171600 METAR MRLM 171600Z 23003KT 9999 BKN015 25/22 A2997=
201504171700 METAR MRLM 171700Z 28005KT FEW020 BKN110 26/23 A2995=
201504171800 METAR MRLM 171800Z 26004KT CAVOK 28/22 A2992=
201504171900 METAR MRLM 171900Z 24002KT 9999 FEW040 BKN130 29/20 A2989=
201504172000 METAR MRLM 172000Z 06003KT 9999 FEW030 BKNB130 28/23 A2987=
201504172100 METAR MRLM 172100Z 03003KT 9999 SCT030 BKN130 28/23 A2985=
201504172200 METAR MRLM 172200Z 03002KT CAVOK 28/23 A2985=
201504172300 METAR MRLM 172300Z 05003KT CAVOK 28/23 A2985=
201504180000 METAR MRLM 180000Z 04003KT CAVOK 27/23 A2987=
201504180100 METAR MRLM NIL=
201504180200 METAR MRLM NIL=
201504180300 METAR MRLM NIL=
201504180400 METAR MRLM NIL=
201504180500 METAR MRLM NIL=
201504180600 METAR MRLM NIL=
201504180700 METAR MRLM NIL=
201504180800 METAR MRLM NIL=
201504180900 METAR MRLM NIL=
201504181000 METAR MRLM NIL=
201504181100 METAR MRLM NIL=
201504181200 METAR MRLM 181200Z 34003KT 5000 DZ OVC007 23/22 A2991=
201504181300 METAR MRLM 181300Z 32003KT 3000 RA OVC007 23/22 A2994=
201504181400 METAR MRLM 181400Z 26004KT 9999 -DZ BKN007 23/23 A2995 RERA=
201504181500 METAR MRLM 181500Z 00000KT 6000 DZ BKN010 SCT090 23/22 A2996=
201504181600 METAR MRLM 181600Z 25005KT 9999 SCT015 BKN110 25/23 A2995=
201504181700 METAR MRLM 181700Z 26006KT 9999 FEW020 BKN120 27/23 A2993=
201504181800 METAR MRLM 181800Z 30004KT 9999 FEW030 BKN130 28/21 A2990=
201504181900 METAR MRLM 181900Z 05006KT CAVOK 29/23 A2986=
201504182000 METAR MRLM 182000Z 04006KT CAVOK 30/23 A2984=
201504182100 METAR MRLM 182100Z 04005KT CAVOK 30/23 A2981=
201504182200 METAR MRLM 182200Z 03007KT CAVOK 30/22 A2979=
201504182300 METAR MRLM 182300Z 02006KT CAVOK 28/23 A2980=
201504190000 METAR MRLM 190000Z 03005KT CAVOK 26/24 A2984=
201504190100 METAR MRLM NIL=
201504190200 METAR MRLM NIL=
201504190300 METAR MRLM NIL=
201504190400 METAR MRLM NIL=
201504190500 METAR MRLM NIL=
201504190600 METAR MRLM NIL=
201504190700 METAR MRLM NIL=
201504190800 METAR MRLM NIL=
201504190900 METAR MRLM NIL=
201504191000 METAR MRLM NIL=
201504191100 METAR MRLM NIL=
201504191200 METAR MRLM 191200Z 23004KT 9999 BKN015 24/23 A2988=
201504191300 METAR MRLM 191300Z 31003KT 6000 RA OVC012 24/23 A2990=
201504191400 METAR MRLM 191400Z 24003KT 9999 BKN012 26/24 A2991=
201504191456 METAR MRLM 191500 25004KT 9999 OVC020 28/24 A2992=
201504191500 METAR MRLM 191500Z 25004KT 9999 OVC020 28/24 A2992=
201504191600 METAR MRLM 191600Z 03005KT 5000 RA OVC020 28/24 A2991=
201504191700 METAR MRLM 191700Z 21005KT 8000 +DZ VCSH OVC012 26/24 A2991 RERA=
201504191800 METAR MRLM 191800Z 22005KT 9999 BKN020 28/24 A2988 REDZ=
201504191900 METAR MRLM 191900Z 07003KT 9999 SCT025 SCT280 29/24 A2985=
201504192000 METAR MRLM 192000Z 05004KT 9999 FEW030 BKN280 29/23 A2982=
201504192100 METAR MRLM 192100Z 07006KT 9999 FEW030 BKN280 29/23 A2980=
201504192200 METAR MRLM 192200Z 08006KT 9999 SCT025 SCT280 29/24 A2979=
201504192300 METAR MRLM 192300Z 08006KT 9999 OVC020 28/24 A2979=
201504192351 METAR MRLM 200000Z 08009KT 9999 BKN020 28/24 A2980=
201504200000 METAR MRLM 200000Z 08009KT 9999 BKN020 28/24 A2980=
201504200100 METAR MRLM NIL=
201504200200 METAR MRLM NIL=
201504200300 METAR MRLM NIL=
201504200400 METAR MRLM NIL=
201504200500 METAR MRLM NIL=
201504200600 METAR MRLM NIL=
201504200700 METAR MRLM NIL=
201504200800 METAR MRLM NIL=
201504200900 METAR MRLM NIL=
201504201000 METAR MRLM NIL=
201504201100 METAR MRLM NIL=
201504201200 METAR MRLM 201200Z 24005KT 9999 SCT015 SCT280 24/23 A2986=
201504201300 METAR MRLM 201300Z 23004KT CAVOK 26/23 A2988/=
201504201400 METAR MRLM 201400Z 09003KT CAVOK 30/23 A2990=
201504201500 METAR MRLM 201500Z 11003KT 9999 FEW035 BKN270 30/23 A2991=
201504201600 METAR MRLM 201600Z 07005KT 9999 FEW035 BKN270 30/23 A2989=
201504201700 METAR MRLM 201700Z 05007KT 9999 FEW030 BKN270 29/23 A2988=
201504201800 METAR MRLM 201800Z 04008KT 9999 FEW030 BKN260 30/24 A2986=
201504201900 METAR MRLM 201900Z 04008KT 9999 FEW030 BKN270 30/24 A2983=
201504202000 METAR MRLM NIL=
201504202100 METAR MRLM 202100Z 07006KT 9999 BKN025 SCT270 29/24 A29780=
201504202200 METAR MRLM 202200Z 06005KT 9999 SCT020 SCT270 28/24 A2977=
201504202300 METAR MRLM 202300Z 08004KT 9999 SCT025 SCT270 28/24 A2978=
201504202356 METAR MRLM 210000Z 11003KT CAVOK 28/23 A2980=
201504210000 METAR MRLM 210000Z 11003KT CAVOK 28/23 A2980=
201504210100 METAR MRLM NIL=
201504210200 METAR MRLM NIL=
201504210300 METAR MRLM NIL=
201504210400 METAR MRLM NIL=
201504210500 METAR MRLM NIL=
201504210600 METAR MRLM NIL=
201504210700 METAR MRLM NIL=
201504210800 METAR MRLM NIL=
201504210900 METAR MRLM NIL=
201504211000 METAR MRLM NIL=
201504211100 METAR MRLM NIL=
201504211200 METAR MRLM 211200Z 26004KT CAVOK 23/21 A2987=
201504211300 METAR MRLM 211300Z 25005KT CAVOK 25/21 A2989=
201504211400 METAR MRLM 211400Z 25003KT CAVOK 28/23 A2991=
201504211500 METAR MRLM 211500Z 05002KT CAVOK 30/23 A2993=
201504211600 METAR MRLM 211600Z 07004KT 9999 FEW030 BKN250 30/23 A2992=
201504211700 METAR MRLM 211700Z 06005KT 9999 FEW030 OVC250 30/24 A2989=
201504211800 METAR MRLM 211800Z 06007KT 9999 FEW030 OVC250 30/24 A2987=
201504211900 METAR MRLM 211900Z 04006KT CAVOK 30/24 A2984=
201504212000 METAR MRLM 212000Z 03008KT 9999 FEW030 BKN250 30/24 A2981=
201504212100 METAR MRLM 212100Z 03008KT 9999 SCT025 SCT250 29/24 A2980=
201504212200 METAR MRLM 212200Z 03008KT 9999 BKN025 SCT250 29/24 A2979=
201504212300 METAR MRLM 212300Z 03008KT 9999 FEW025 BKN250 28/24 A2979=
201504220000 METAR MRLM 220000Z 03006KT 9999 FEW020 OVC240 28/23 A2982=
201504220100 METAR MRLM NIL=
201504220200 METAR MRLM NIL=
201504220300 METAR MRLM NIL=
201504220400 METAR MRLM NIL=
201504220500 METAR MRLM NIL=
201504220600 METAR MRLM NIL=
201504220700 METAR MRLM NIL=
201504220800 METAR MRLM NIL=
201504220900 METAR MRLM NIL=
201504221000 METAR MRLM NIL=
201504221100 METAR MRLM NIL=
201504221200 METAR MRLM 221200Z 27004KT 9999 DZ BKN006 23/22 A2984=
201504221300 METAR MRLM 221300Z 26004KT 9999 -DZ BKN010 24/23 A2986=
201504221400 METAR MRLM 221400Z 00000KT 9999 DZ BKN010 24/23 A2990=
201504221500 METAR MRLM 221500Z 21004KT 9999 SCT010 BKN100 25/23 A2989 REDZ=
201504221600 METAR MRLM 221600Z 00000KT 9999 DZ VCTS SCT015 BKN110 27/23 A2989=
201504221700 METAR MRLM 221700Z 13008KT 9999 DZ BKN010 26/24 A2989 RETS=
201504221800 METAR MRLM 221800Z 12003KT 9999 DZ SCT020 BKN120 27/24 A2985=
201504221900 METAR MRLM 221900Z 11003KT 9999 FEW020 SCT130 SCT240 28/24 A2982 REDZ=
201504222000 METAR MRLM 222000Z 11005KT 9999 FEW020 BKN240 28/24 A2980=
201504222100 METAR MRLM 222100Z 06004KT CAVOK 28/24 A2980=
201504222200 METAR MRLM 222200Z 04006KT 9999 FEW020 BKN250 28/24 A2980=
201504222300 METAR MRLM 222300Z 04004KT 9999 FEW020 BKN250 28/24 A2980=
201504230000 METAR MRLM 230000Z 00000KT 9999 SCT010 26/24 A2983=
201504230100 METAR MRLM NIL=
201504230200 METAR MRLM NIL=
201504230300 METAR MRLM NIL=
201504230400 METAR MRLM NIL=
201504230500 METAR MRLM NIL=
201504230600 METAR MRLM NIL=
201504230700 METAR MRLM NIL=
201504230800 METAR MRLM NIL=
201504230900 METAR MRLM NIL=
201504231000 METAR MRLM NIL=
201504231100 METAR MRLM NIL=
201504231200 METAR MRLM 231200Z 24005KT 9999 OVC015 23/23 A2987=
201504231256 METAR MRLM 231300 24004KT 9999 OVC015 25/23 A2986=
201504231300 METAR MRLM 231300Z 24004KT 9999 OVC015 25/23 A2986=
201504231400 METAR MRLM 231400Z 23004KT 9999 OVC015 27/24 A2991=
201504231500 METAR MRLM 231500Z 08002KT 9999 OVC015 29/23 A2994=
201504231600 METAR MRLM 231600Z 08003KT 9999 BKN030 30/23 A2994=
201504231700 METAR MRLM 231700Z 10005KT 9999 BKN030 30/24 A2992=
201504231800 METAR MRLM 231800Z 08010KT 9999 OVC025 29/23 A2990=
201504231900 METAR MRLM 231900Z 08011KT 9999 SCT030 30/23 A2988=
201504232000 METAR MRLM 232000Z 08009KT 9999 BKN030 30/23 A2986=
201504232100 METAR MRLM 232100Z 07008KT 9999 SCT030 29/22 A2985=
201504232200 METAR MRLM 232200Z 07006KT 9999 BKN030 29/22 A2984=
201504232300 METAR MRLM 232300Z 06007KT 9999 OVC030 28/22 A2985=
201504240000 METAR MRLM 240000Z 08006KT 9999 BKN025 28/22 A2986=
201504240100 METAR MRLM NIL=
201504240200 METAR MRLM NIL=
201504240300 METAR MRLM NIL=
201504240400 METAR MRLM NIL=
201504240500 METAR MRLM NIL=
201504240600 METAR MRLM NIL=
201504240700 METAR MRLM NIL=
201504240800 METAR MRLM NIL=
201504240900 METAR MRLM NIL=
201504241000 METAR MRLM NIL=
201504241100 METAR MRLM NIL=
201504241200 METAR MRLM 241200Z 26004KT 9999 SCT015 BKN280 22/21 A2989=
201504241300 METAR MRLM 241300Z 25004KT 9999 BKN015 23/22 A2991=
201504241400 METAR MRLM 241400Z 03004KT 9999 4KM W DZ VCSH OVC015 25/23 A2994=
201504241500 METAR MRLM 241500Z 09002KT 9999 OVC015 29/23 A2994 REDZ=
201504241600 METAR MRLM 241600Z 08004KT 9999 SCT030 30/22 A2994=
201504241700 METAR MRLM 241700Z 08004KT 9999 FEW035 SCT280 29/22 A2992=
201504241800 METAR MRLM 241800Z 05006KT 9999 FEW035 SCT280 30/22 A2990=
201504241900 METAR MRLM 241900Z 03009KT 9999 FEW035 SCT280 30/23 A2988=
201504242000 METAR MRLM 242000Z 04008KT 9999 FEW035 BKN280 30/22 A2987=
201504242100 METAR MRLM 242100Z 05006KT 9999 BKN030 29/23 A2986=
201504242200 METAR MRLM 242200Z 05007KT 9999 BKN030 29/22 A2985=
201504242300 METAR MRLM 242300Z 06007KT 9999 BKN025 SCT280 29/22 A2986=
201504242356 METAR MRLM 250000Z 04005KT 9999 BKN025 28/22 A2988=
201504250000 METAR MRLM 250000Z 04005KT 9999 BKN025 28/22 A2988=
201504250100 METAR MRLM NIL=
201504250200 METAR MRLM NIL=
201504250300 METAR MRLM NIL=
201504250400 METAR MRLM NIL=
201504250500 METAR MRLM NIL=
201504250600 METAR MRLM NIL=
201504250700 METAR MRLM NIL=
201504250800 METAR MRLM NIL=
201504250900 METAR MRLM NIL=
201504251000 METAR MRLM NIL=
201504251100 METAR MRLM NIL=
201504251200 METAR MRLM 251200Z 25003KT 9999 BKN006 23/23 A2988=
201504251300 METAR MRLM 251300Z 21003KT 9999 DZ BKN007 24/23 A2990=
201504251400 METAR MRLM 251400Z 18003KT 9999 -DZ BKN007 24/23 A2992=
201504251500 METAR MRLM 251500Z 24005KT 9999 BKN010 SCT100 25/23 A2992=
201504251600 METAR MRLM 251600Z 24003KT 9999 FEW010 BKN020 SCT110 27/22 A2992=
201504251700 METAR MRLM 251700Z 01003KT 9999 FEW010 BKN030 SCT120 28/21 A2992=
201504251800 METAR MRLM 251800Z 06006KT 9999 SCT030 BKN120 29/21 A2991=
201504251900 METAR MRLM 251900Z 11008KT 9999 SCT020 SCT120 28/21 A2988=
201504252000 METAR MRLM 252000Z 09003KT 9999 SCT025 BKN120 28/21 A2986=
201504252100 METAR MRLM 252100Z 08002KT 9999 FEW030 BKN130 29/22 A2984=
201504252200 METAR MRLM 252200Z 23003KT 9999 FEW025 BKN120 27/22 A2983=
201504252300 METAR MRLM 252300Z 31002KT 9999 FEW025 BKN240 27/22 A2983=
201504260000 METAR MRLM 260000Z 23003KT 9999 SCT015 OVC240 25/23 A2984=
201504260100 METAR MRLM NIL=
201504260200 METAR MRLM NIL=
201504260300 METAR MRLM NIL=
201504260400 METAR MRLM NIL=
201504260500 METAR MRLM NIL=
201504260600 METAR MRLM NIL=
201504260700 METAR MRLM NIL=
201504260800 METAR MRLM NIL=
201504260900 METAR MRLM NIL=
201504261000 METAR MRLM NIL=
201504261100 METAR MRLM NIL=
201504261200 METAR MRLM 261200Z 25004KT CAVOK 23/21 A2986=
201504261300 METAR MRLM 261300Z 24003KT CAVOK 25/21 A2987=
201504261400 METAR MRLM 261400Z 00000KT CAVOK 28/22 A2990=
201504261500 METAR MRLM 261500Z 12006KT CAVOK 29/22 A2989=
201504261600 METAR MRLM 261600Z 09005KT CAVOK 29/22 A2988=
201504261700 METAR MRLM 261700Z 07008KT CAVOK 30/22 A2987=
201504261800 METAR MRLM 261800Z 05007KT CAVOK 30/21 A2985=
201504261900 METAR MRLM 261900Z 08008KT CAVOK 30/22 A2982=
201504262000 METAR MRLM 262000Z 09007KT CAVOK 30/22 A2980=
201504262100 METAR MRLM 262100Z 09005KT CAVOK 30/22 A2979=
201504262200 METAR MRLM 262200Z 08003KT CAVOK 30/22 A2978=
201504262300 METAR MRLM 262300Z 06003KT CAVOK 29/23 A2978=
201504270000 METAR MRLM 270000Z 01003KT 9999 SCT030 SCT130 28/23 A2979=
201504270100 METAR MRLM NIL=
201504270200 METAR MRLM NIL=
201504270300 METAR MRLM NIL=
201504270400 METAR MRLM NIL=
201504270500 METAR MRLM NIL=
201504270600 METAR MRLM NIL=
201504270700 METAR MRLM NIL=
201504270800 METAR MRLM NIL=
201504270900 METAR MRLM NIL=
201504271000 METAR MRLM NIL=
201504271100 METAR MRLM NIL=
201504271200 METAR MRLM 271200Z 26004KT CAVOK 24/22 A2979=
201504271300 METAR MRLM 271300Z 26004KT CAVOK 24/22 A2979=
201504271400 METAR MRLM 271400Z 11003KT CAVOK 29/23 A2982=
201504271500 METAR MRLM 271500Z 05004KT CAVOK 29/23 A2982=
201504271600 METAR MRLM 271600Z 06004KT 9999 FEW025 30/24 A2983=
201504271700 METAR MRLM 271700Z 07005KT 9999 FEW025 30/24 A2982=
201504271800 METAR MRLM 271800Z 07007KT 9999 FEW030 30/24 A2980=
201504271900 METAR MRLM 271900Z 08007KT 9999 BKN025 31/25 A2976=
201504272000 METAR MRLM 272000Z 08007KT 9999 BKN025 31/25 A2975=
201504272100 METAR MRLM 272100Z 08007KT 9999 BKN025 30/24 A2973=
201504272200 METAR MRLM 272200Z 08005KT 9999 SCT025 SCT070 30/24 A2972=
201504272300 METAR MRLM 272300Z 09006KT 9999 SCT025 SCT280 29/24 A2973=
201504272353 METAR MRLM 280000Z 12005KT 9999 FEW025 BKN280 29/24 A2975=
201504280000 METAR MRLM 280000Z 12005KT 9999 FEW025 BKN280 29/24 A2975=
201504280100 METAR MRLM NIL=
201504280200 METAR MRLM NIL=
201504280300 METAR MRLM NIL=
201504280400 METAR MRLM NIL=
201504280500 METAR MRLM NIL=
201504280600 METAR MRLM NIL=
201504280700 METAR MRLM NIL=
201504280800 METAR MRLM NIL=
201504280900 METAR MRLM NIL=
201504281000 METAR MRLM NIL=
201504281100 METAR MRLM NIL=
201504281200 METAR MRLM 281200Z 26003KT 9999 FEW015 BKN090 26/24 A2978=
201504281300 METAR MRLM 281300Z 24002KT 9999 FEW015 BKN090 27/25 A2980=
201504281400 METAR MRLM 281400Z 14003KT CAVOK 29/24 A2981=
201504281500 METAR MRLM 281500Z 12004KT 9999 BKN025 31/25 A2981=
201504281600 METAR MRLM 281600Z 09007KT 9999 FEW025 BKN300 30/25 A2980=
201504281700 METAR MRLM 281700Z 08007KT 9999 FEW025 BKN300 31/25 A2978=
201504281800 METAR MRLM 281800Z 10006KT 9999 FEW025 BKN300 31/25 A2977=
201504281900 METAR MRLM 281900Z 10007KT 9999 FEW030 BKN300 31/25 A2974=
201504282000 METAR MRLM 282000Z 10007KT 9999 FEW030 BKN300 31/24 A2971=
201504282100 METAR MRLM 282100Z 10010KT 9999 FEW030 BKN300 31/24 A2970=
201504282200 METAR MRLM 282200Z 11007KT 9999 FEW025 BKN3000 30/25 A2968=
201504282300 METAR MRLM 282300Z 12005KT CAVOK 30/23 A2968=
201504282355 METAR MRLM 290000Z 12006KT CAVOK 29/24 A2970=
201504290000 METAR MRLM 290000Z 12006KT CAVOK 29/24 A2970=
201504290100 METAR MRLM NIL=
201504290200 METAR MRLM NIL=
201504290300 METAR MRLM NIL=
201504290400 METAR MRLM NIL=
201504290500 METAR MRLM NIL=
201504290600 METAR MRLM NIL=
201504290700 METAR MRLM NIL=
201504290800 METAR MRLM NIL=
201504290900 METAR MRLM NIL=
201504291000 METAR MRLM NIL=
201504291100 METAR MRLM NIL=
201504291200 METAR MRLM 291200Z 26002KT CAVOK 24/23 A2976=
201504291300 METAR MRLM 291300Z 28003KT CAVOK 26/24 A2978=
201504291400 METAR MRLM 291400Z 23002KT 9999 BKN015 SCT120 28/25 A2982=
201504291500 METAR MRLM 291500Z 09004KT 9999 DZ BKN015 28/25 A2982=
201504291600 METAR MRLM 291600Z 07004KT 9999 SCT020 SCT130 29/25 A2981 REDZ=
201504291700 METAR MRLM 291700Z 09006KT 9999 BKN025 30/25 A2981=
201504291800 METAR MRLM 291800Z 10009KT 9999 FEW035 31/25 A2978=
201504291900 METAR MRLM 291900Z 08006KT 9999 BKN030 31/25 A2973=
201504292000 METAR MRLM 292000Z 10007KT 9999 SCT030 BKN260 31/25 A2979=
201504292100 METAR MRLM 292100Z 10007KT 9999 SCT030 BKN260 31/25 A2972=
201504292200 METAR MRLM 292200Z 11007KT 9999 BKN020 29/25 A2972=
201504292300 METAR MRLM 292300Z 13007KT 9999 SCT020 SCT120 29/25 A2973=
201504300000 METAR MRLM 300000Z 12005KT 9999 SCT020 SCT120 29/24 A2974=
201504300100 METAR MRLM NIL=
201504300200 METAR MRLM NIL=
201504300300 METAR MRLM NIL=
201504300400 METAR MRLM NIL=
201504300500 METAR MRLM NIL=
201504300600 METAR MRLM NIL=
201504300700 METAR MRLM NIL=
201504300800 METAR MRLM NIL=
201504300900 METAR MRLM NIL=
201504301000 METAR MRLM NIL=
201504301100 METAR MRLM NIL=
201504301200 METAR MRLM 301200Z 28002KT 9999 -DZ SCT010 25/24 A2979=
201504301300 METAR MRLM 301300Z 24004KT 9999 BKN010 25/24 A2981=
201504301400 METAR MRLM 301400Z 00000KT 9999 FEW010 SCT120 SCT250 26/24 A2983=
201504301500 METAR MRLM 301500Z 08003KT 9999 SCT030 SCT130 30/25 A2985=
201504301600 METAR MRLM 301600Z 04006KT 9999 FEW030 SCT140 31/25 A2986=
201504301700 METAR MRLM 301700Z 04008KT 9999 FEW030 BKN140 31/25 A2986=
201504301800 METAR MRLM 301800Z 03007KT 9999 BKN030 SCT140 31/26 A2984=
201504301900 METAR MRLM 301900Z 04010KT 9999 BKN025 30/25 A2980=
201504302000 METAR MRLM 302000Z 03011KT 9999 FEW030 SCT140 SCT250 30/25 A2978=
201504302100 METAR MRLM 302100Z 01008KT 9999 OVC015 30/24 A2978=
201504302200 METAR MRLM 302200Z 01011KT 9999 BKN025 SCT120 29/24 A2977=
201504302230 METAR MRLM 302230Z 27005KT 9999 DZ OVC015 27/23 A2978=
201504302300 METAR MRLM 302300Z 24003KT 9999 DZ OVC010 26/24 A2980=
201505010000 METAR MRLM 010000Z 23006KT 9999 TSDZ FEW006CB OVC010 24/23 A2984=
201505010100 METAR MRLM NIL=
201505010200 METAR MRLM NIL=
201505010300 METAR MRLM NIL=
201505010400 METAR MRLM NIL=
201505010500 METAR MRLM NIL=
201505010600 METAR MRLM NIL=
201505010700 METAR MRLM NIL=
201505010800 METAR MRLM NIL=
201505010900 METAR MRLM NIL=
201505011000 METAR MRLM NIL=
201505011100 METAR MRLM NIL=
201505011200 METAR MRLM 011200Z 27003KT 9999 SCT010 BKN110 23/21 A2986=
201505011300 METAR MRLM 011300Z 24005KT 9999 FEW010 BKN120 24/21 A2987=
201505011400 METAR MRLM 011400Z 23005KT 9999 SCT020 BKN130 26/21 A2989=
201505011500 METAR MRLM 011500Z 26004KT 9999 BKN020 SCT130 30/23 A2989=
201505011600 METAR MRLM 011600Z 32004KT 9999 BKN025 SCT120 28/22 A2989=
201505011700 METAR MRLM 011700Z 34005KT 9999 BKN030 SCT120 28/23 A2989=
201505011800 METAR MRLM 011800Z 31003KT 9999 FEW030 BKN130 29/24 A2987=
201505011900 MRLM 011900Z 03005KT 9999 SCT025 BKN130 30/24 A2985=
201505012000 METAR MRLM 012000Z 05008KT 9999 DZ SCT010 BKN110 25/24 A2982 RERA=
201505012100 METAR MRLM 012100Z 02003KT 9999 SCT015 BKN120 26/23 A2981 REDZ=
201505012200 METAR MRLM 012200Z 23003KT 9999 FEW015 BKN120 27/24 A2981=
201505012300 MRLM 012300Z 00000KT CAVOK 26/24 A2981=
201505012344 METAR MRLM 020000Z 00000KT CAVOK 26/24 A2982=
201505020000 METAR MRLM 020000Z 00000KT CAVOK 26/24 A2982=
201505020100 METAR MRLM NIL=
201505020200 METAR MRLM NIL=
201505020300 METAR MRLM NIL=
201505020400 METAR MRLM NIL=
201505020500 METAR MRLM NIL=
201505020600 METAR MRLM NIL=
201505020700 METAR MRLM NIL=
201505020800 METAR MRLM NIL=
201505020900 METAR MRLM NIL=
201505021000 METAR MRLM NIL=
201505021100 METAR MRLM NIL=
201505021200 METAR MRLM 021200Z 26003KT 9999 FEW010 BKN250 23/22 A2985=
201505021300 METAR MRLM 021300Z 01010KT 9999 SCT010 BKN110 25/23 A2987=
201505021400 METAR MRLM NIL=
201505021500 METAR MRLM NIL=
201505021600 METAR MRLM NIL=
201505021700 METAR MRLM NIL=
201505021800 METAR MRLM NIL=
201505021900 METAR MRLM NIL=
201505022000 METAR MRLM NIL=
201505022100 METAR MRLM NIL=
201505022200 METAR MRLM NIL=
201505022300 METAR MRLM NIL=
201505030000 METAR MRLM NIL=
201505030100 METAR MRLM NIL=
201505030200 METAR MRLM NIL=
201505030300 METAR MRLM NIL=
201505030400 METAR MRLM NIL=
201505030500 METAR MRLM NIL=
201505030600 METAR MRLM NIL=
201505030700 METAR MRLM NIL=
201505030800 METAR MRLM NIL=
201505030900 METAR MRLM NIL=
201505031000 METAR MRLM NIL=
201505031100 METAR MRLM NIL=
201505031200 METAR MRLM 031200Z 25003KT 9999 SCT010 SCT100 24/22 A2983=
201505031300 METAR MRLM 031300Z 26004KT 9999 FEW020 SCT120 26/23 A2986=
201505031400 METAR MRLM 031400Z 28004KT 9999 FEW030 29/23 A2988=
201505031500 METAR MRLM 031500Z 35005KT 9999 SCT030 30/23 A2989=
201505031600 METAR MRLM 031600Z 03006KT 9999 FEW040 SCT260 30/23 A2989=
201505031700 METAR MRLM 031700Z 04008KT 9999 SCT040 31/22 A2988=
201505031800 METAR MRLM 031800Z 03008KT CAVOK 31/23 A2986=
201505031900 METAR MRLM 031900Z 03009KT CAVOK 30/23 A2983=
201505032000 METAR MRLM 032000Z 04008KT 9999 FEW040 SCT260 31/23 A2982=
201505032100 METAR MRLM 032100Z 03007KT 9999 FEW040 SCT260 31/23 A2980=
201505032200 METAR MRLM 032200Z 02007KT 9999 SCT040 SCT260 30/22 A2979=
201505032300 METAR MRLM 032300Z 11006KT 9999 BKN025 29/24 A2981=
201505040000 METAR MRLM 040000Z 04007KT 9999 BKN025 28/23 A2982=
201505040100 METAR MRLM NIL=
201505040200 METAR MRLM NIL=
201505040300 METAR MRLM NIL=
201505040400 METAR MRLM NIL=
201505040500 METAR MRLM NIL=
201505040600 METAR MRLM NIL=
201505040700 METAR MRLM NIL=
201505040800 METAR MRLM NIL=
201505040900 METAR MRLM NIL=
201505041000 METAR MRLM NIL=
201505041100 METAR MRLM NIL=
201505041200 METAR MRLM 041200Z 26003KT 9999 -DZ BKN010 23/22 A2985=
201505041300 METAR MRLM 041300Z 26004KT 9999 SCT010 BKN100 24/22 A2987=
201505041400 METAR MRLM 041400Z 00000KT 9999 BKN020 SCT110 26/22 A2988=
201505041500 METAR MRLM 041500Z 07003KT 9999 SCT030 BKN130 29/23 A2989=
201505041600 METAR MRLM 041600Z 03008KT 9999 5000N DZ BKN015 28/24 A2990=
201505041700 METAR MRLM 041700Z 09007KT 9999 SCT020 BKN120 28/24 A2991 REDZ=
201505041800 METAR MRLM 041800Z 11010KT 9999 OVC020 28/23 A2990=
201505041900 METAR MRLM 041900Z 08010KT 9999 SCT030 SCT130 28/22 A2987=
201505042000 METAR MRLM 042000Z 06004KT CAVOK 30/22 A2985=
201505042100 METAR MRLM NIL=
201505042200 METAR MRLM NIL=
201505042300 METAR MRLM NIL=
201505050000 METAR MRLM NIL=
201505050100 METAR MRLM NIL=
201505050200 METAR MRLM NIL=
201505050300 METAR MRLM NIL=
201505050400 METAR MRLM NIL=
201505050500 METAR MRLM NIL=
201505050600 METAR MRLM NIL=
201505050700 METAR MRLM NIL=
201505050800 METAR MRLM NIL=
201505050900 METAR MRLM NIL=
201505051000 METAR MRLM NIL=
201505051100 METAR MRLM NIL=
201505051200 METAR MRLM 051200Z 00000KT 9999 SCT010 BKN110 24/22 A2990=
201505051300 METAR MRLM 051300Z 00000KT 9999 SCT010 BKN120 25/22 A2992=
201505051400 METAR MRLM 051400Z 04005KT 9999 BKN020 SCT120 27/22 A2994 REDZ=
201505051500 METAR MRLM 051500Z 04003KT 9999 SCT025 BKN130 27/22 A2994=
201505051600 METAR MRLM 051600Z 28003KT 9999 FEW035 BKN130 30/23 A2993=
201505051700 METAR MRLM 051700Z 04004KT 9999 FEW040 SCT140 30/21 A2991=
201505051800 METAR MRLM 051800Z 03007KT CAVOK 30/22 A2988=
201505051900 METAR MRLM 051900Z 04007KT 9999 FEW040 SCT150 31/22 A2985=
201505052000 METAR MRLM 052000Z 04007KT CAVOK 31/22 A2983=
201505052100 METAR MRLM NIL=
201505052200 METAR MRLM NIL=
201505052300 METAR MRLM NIL=
201505060000 METAR MRLM NIL=
201505060100 METAR MRLM NIL=
201505060200 METAR MRLM NIL=
201505060300 METAR MRLM NIL=
201505060400 METAR MRLM NIL=
201505060500 METAR MRLM NIL=
201505060600 METAR MRLM NIL=
201505060700 METAR MRLM NIL=
201505060800 METAR MRLM NIL=
201505060900 METAR MRLM NIL=
201505061000 METAR MRLM NIL=
201505061100 METAR MRLM NIL=
201505061200 METAR MRLM 061200Z 27003KT CAVOK 23/21 A2985=
201505061300 METAR MRLM 061300Z 24004KT CAVOK 26/22 A2986=
201505061400 METAR MRLM 061400Z 31006KT CAVOK 28/23 A2988=
201505061500 METAR MRLM 061500Z 34009KT 9999 SCT020 SCT130 28/24 A2990=
201505061600 METAR MRLM 061600Z 35009KT 9999 BKN030 30/23 A2989=
201505061700 METAR MRLM 061700Z 03009KT 9999 FEW035 SCT140 31/23 A2988=
201505061800 METAR MRLM 061800Z 02010KT 9999 FEW040 30/24 A2985=
201505061900 METAR MRLM 061900Z 02009KT 9999 FEW030 30/24 A2983=
201505062000 METAR MRLM 062000Z 03008KT 9999 FEW040 31/24 A2981=
201505062100 METAR MRLM NIL=
201505062200 METAR MRLM NIL=
201505062300 METAR MRLM NIL=
201505070000 METAR MRLM NIL=
201505070100 METAR MRLM NIL=
201505070200 METAR MRLM NIL=
201505070300 METAR MRLM NIL=
201505070400 METAR MRLM NIL=
201505070500 METAR MRLM NIL=
201505070600 METAR MRLM NIL=
201505070700 METAR MRLM NIL=
201505070800 METAR MRLM NIL=
201505070900 METAR MRLM NIL=
201505071000 METAR MRLM NIL=
201505071100 METAR MRLM NIL=
201505071200 METAR MRLM 071200Z 00000KT 9999 SCT010 SCT110 23/22 A2982=
201505071300 METAR MRLM 071300Z 23002KT 9999 SCT010 SCT110 24/22 A2985=
201505071400 METAR MRLM 071400Z 29004KT CAVOK 26/22 A2987=
201505071500 METAR MRLM 071500Z 31007KT CAVOK 29/23 A2987=
201505071600 METAR MRLM 071600Z 34003KT 9999 FEW040 SCT130 31/23 A2987=
201505071700 METAR MRLM 071700Z 04008KT 9999 SCT035 31/24 A2985=
201505071800 METAR MRLM 071800Z 04008KT CAVOK 31/24 A2984=
201505071900 METAR MRLM 071900Z 06009KT CAVOK 30/24 A2982=
201505072000 METAR MRLM 072000Z 04009KT 9999 SCT030 31/24 A2980=
201505072100 METAR MRLM NIL=
201505072200 METAR MRLM NIL=
201505072300 METAR MRLM NIL=
201505080000 METAR MRLM NIL=
201505080100 METAR MRLM NIL=
201505080200 METAR MRLM NIL=
201505080300 METAR MRLM NIL=
201505080400 METAR MRLM NIL=
201505080500 METAR MRLM NIL=
201505080600 METAR MRLM NIL=
201505080700 METAR MRLM NIL=
201505080800 METAR MRLM NIL=
201505080900 METAR MRLM NIL=
201505081000 METAR MRLM NIL=
201505081100 METAR MRLM NIL=
201505081200 METAR MRLM 081200Z 00000KT 9999 BKN007 SCT100 24/23 A2984=
201505081300 METAR MRLM 081300Z 24003KT 9999 BKN010 SCT110 24/23 A2985=
201505081400 METAR MRLM 081400Z 23004KT 9999 BKN010 25/23 A2986=
201505081500 METAR MRLM 081500Z 28003KT 9999 5000N DZ BKN010 26/23 A2987=
201505081600 METAR MRLM 081600Z 01008KT 8000 3000 +DZ BKN010 25/23 A2987=
201505081700 METAR MRLM 081700Z 30003KT 9999 DZ BKN010 26/24 A2986=
201505081800 METAR MRLM 081800Z 30003KT CAVOK 29/24 A2984=
201505081900 METAR MRLM 081900Z 04005KT 9999 FEW030 SCT130 30/24 A2981=
201505082000 METAR MRLM 082000Z 03005KT 9999 FEW040 SCT260 31/23 A2980=
201505082100 METAR MRLM 082100Z 03006KT 9999 FEW040 SCT260 30/23 A2978=
201505082200 METAR MRLM 082200Z 03005KT CAVOK 30/24 A2978=
201505082300 METAR MRLM 082300Z 03005KT 9999 FEW025 BKN250 30/24 A2978=
201505090000 METAR MRLM 090000Z 05003KT 9999 SCT020 BKN250 28/24 A2981=
201505090100 METAR MRLM NIL=
201505090200 METAR MRLM NIL=
201505090300 METAR MRLM NIL=
201505090400 METAR MRLM NIL=
201505090500 METAR MRLM NIL=
201505090600 METAR MRLM NIL=
201505090700 METAR MRLM NIL=
201505090800 METAR MRLM NIL=
201505090900 METAR MRLM NIL=
201505091000 METAR MRLM NIL=
201505091100 METAR MRLM NIL=
201505091200 METAR MRLM NIL=
201505091300 METAR MRLM NIL=
201505091400 METAR MRLM NIL=
201505091500 METAR MRLM NIL=
201505091600 METAR MRLM NIL=
201505091700 METAR MRLM NIL=
201505091800 METAR MRLM NIL=
201505091900 METAR MRLM NIL=
201505092000 METAR MRLM NIL=
201505092100 METAR MRLM NIL=
201505092200 METAR MRLM NIL=
201505092300 METAR MRLM NIL=
201505100000 METAR MRLM NIL=
201505100100 METAR MRLM NIL=
201505100200 METAR MRLM NIL=
201505100300 METAR MRLM NIL=
201505100400 METAR MRLM NIL=
201505100500 METAR MRLM NIL=
201505100600 METAR MRLM NIL=
201505100700 METAR MRLM NIL=
201505100800 METAR MRLM NIL=
201505100900 METAR MRLM NIL=
201505101000 METAR MRLM NIL=
201505101100 METAR MRLM NIL=
201505101200 METAR MRLM 101200Z 00000KT 9999 FEW010 SCT110 SCT250 24/23 A2982=
201505101300 METAR MRLM 101300Z 33002KT 9999 FEW010 BKN110 24/23 A2983=
201505101400 METAR MRLM 101400Z 26002KT 9999 DZ SCT0010 SCT110 25/23 A2984=
201505101500 METAR MRLM 101500Z 23003KT 9999 DZVCTS BKN010 SCT110 25/24 A2985=
201505101600 METAR MRLM 101600Z 07004KT 8000 4000N DZVCTS BKN010 SCT100 26/24 A2986=
201505101620 METAR MRLM 101620Z 03005KT 3000 /RAVCTS OVC008 25/24 A2986=
201505101700 METAR MRLM 101700Z 00000KT 8000 DZVCTS BKN007 25/24 A2985 RERA=
201505101800 METAR MRLM 101800Z 28002KT 9999 4000N DZ BKN007 SCT100 25/24 A2984 RETS=
201505101900 METAR MRLM 101900Z 25002KT 9999 BKN010 SCT100 25/24 A2981 REDZ=
201505102000 METAR MRLM 102000Z 32002KT 9999 SCT020 BKN110 27/23 A2978=
201505102100 METAR MRLM 102100Z 02007KT 9999 VCTS BKN020 SCT120 27/24 A2978=
201505102200 METAR MRLM 102200Z 01005KT 9999 OVC015 27/24 A2979=
201505102300 METAR MRLM 102300Z 02002KT 9999 OVC010 26/24 A2979=
201505110000 METAR MRLM 110000Z 31003KT 3000 TSRA FEW006CB OVC007 25/24 A2981=
201505110100 METAR MRLM NIL=
201505110200 METAR MRLM NIL=
201505110300 METAR MRLM NIL=
201505110400 METAR MRLM NIL=
201505110500 METAR MRLM NIL=
201505110600 METAR MRLM NIL=
201505110700 METAR MRLM NIL=
201505110800 METAR MRLM NIL=
201505110900 METAR MRLM NIL=
201505111000 METAR MRLM NIL=
201505111100 METAR MRLM NIL=
201505111200 METAR MRLM NIL=
201505111300 METAR MRLM NIL=
201505111400 METAR MRLM NIL=
201505111500 METAR MRLM NIL=
201505111600 METAR MRLM NIL=
201505111700 METAR MRLM 111700Z 05004KT 9999 SCT020 SCT120 28/24 A2987=
201505111800 METAR MRLM 111800Z 03006KT 9999 SCT020 SCT120 28/23 A2986=
201505111900 METAR MRLM 111900Z 02008KT 9999 DZ SCT015 BKN110 27/24 A2985=
201505112000 METAR MRLM 112000Z 04004KT 9999 FEW020 BKN130 28/24 A2980 REDZ=
201505112100 METAR MRLM NIL=
201505112200 METAR MRLM NIL=
201505112300 METAR MRLM NIL=
201505120000 METAR MRLM NIL=
201505120100 METAR MRLM NIL=
201505120200 METAR MRLM NIL=
201505120300 METAR MRLM NIL=
201505120400 METAR MRLM NIL=
201505120500 METAR MRLM NIL=
201505120600 METAR MRLM NIL=
201505120700 METAR MRLM NIL=
201505120800 METAR MRLM NIL=
201505120900 METAR MRLM NIL=
201505121000 METAR MRLM NIL=
201505121100 METAR MRLM NIL=
201505121200 METAR MRLM 121200Z 27003KT 9999 BKN007 25/24 A2986=
201505121300 METAR MRLM 121300Z 29002KT 4000 RA BKN007 25/24 A2987=
201505121313 METAR MRLM 121313Z 29002KT 4000 RA BKN007 25/24 A2987=
201505121400 METAR MRLM 121400Z 28003KT 8000 DZ OVC007 25/24 A2988 RERA=
201505121500 METAR MRLM 121500Z 23003KT 8000 DZ OVC007 25/24 A2987=
201505121600 METAR MRLM 121600Z 32003KT 8000 DZ OVC005 25/24 A2987=
201505121700 METAR MRLM 121700Z 24004KT 8000 DZ BKN007 25/24 A2985=
201505121800 METAR MRLM 121800Z 27004KT 9999 OVC006 25/23 A2985 REDZ=
201505121900 METAR MRLM 121900Z 26005KT 7000 +DZ OVC006 25/24 A2984=
201505122000 METAR MRLM 122000Z 26004KT 9999 DZ FEW005 BKN010 25/24 A2982=
201505122100 METAR MRLM NIL=
201505122200 METAR MRLM NIL=
201505122300 METAR MRLM NIL=
201505130000 METAR MRLM NIL=
201505130100 METAR MRLM NIL=
201505130200 METAR MRLM NIL=
201505130300 METAR MRLM NIL=
201505130400 METAR MRLM NIL=
201505130500 METAR MRLM NIL=
201505130600 METAR MRLM NIL=
201505130700 METAR MRLM NIL=
201505130800 METAR MRLM NIL=
201505130900 METAR MRLM NIL=
201505131000 METAR MRLM NIL=
201505131100 METAR MRLM NIL=
201505131200 METAR MRLM 131200Z 24002KT 9999 DZ BKN010 24/23 A2986=
201505131300 METAR MRLM 131300Z 25005KT 9999 4000N DZ BKN007 24/23 A2988=
201505131400 METAR MRLM 131400Z 27004KT 8000 3000N DZ BKN007 25/24 A2989=
201505131500 METAR MRLM 131500Z 25004KT 8000 3000N DZ OVC007 25/24 A2990=
201505131600 METAR MRLM 131600Z 27005KT 9999 3000S DZ BKN007 26/24 A2989=
201505131700 METAR MRLM 131700Z 06011KT 9999 SCT015 SCT120 29/25 A2987 REDZ=
201505131800 METAR MRLM 131800Z 07011KT 9999 BKN020 29/25 A2986=
201505131900 METAR MRLM 131900Z 06012KT 9999 BKN010 29/25 A2984=
201505132000 METAR MRLM 132000Z 09011KT 9999 DZ BKN010 28/25 A2982=
201505132100 METAR MRLM NIL=
201505132200 METAR MRLM NIL=
201505132300 METAR MRLM NIL=
201505140000 METAR MRLM NIL=
201505140100 METAR MRLM NIL=
201505140200 METAR MRLM NIL=
201505140300 METAR MRLM NIL=
201505140400 METAR MRLM NIL=
201505140500 METAR MRLM NIL=
201505140600 METAR MRLM NIL=
201505140700 METAR MRLM NIL=
201505140800 METAR MRLM NIL=
201505140900 METAR MRLM NIL=
201505141000 METAR MRLM NIL=
201505141100 METAR MRLM NIL=
201505141200 METAR MRLM 141200Z 26004KT 9999 DZ OVC006 24/23 A2984=
201505141300 METAR MRLM 141300Z 05014KT 9999 OVC010 27/24 A2986 REDZ=
201505141400 METAR MRLM 141400Z 06013KT 9999 BKN015 28/24 A2989=
201505141500 METAR MRLM 141500Z 05010KT 9999 BKN020 28/24 A2989=
201505141600 METAR MRLM 141600Z 05012KT 9999 BKN025 30/25 A2990=
201505141700 METAR MRLM 141700Z 04010KT 9999 DZ BKN015 28/25 A2989=
201505141800 METAR MRLM 141800Z 04010KT 9999 BKN020 SCT200 28/25 A2988 REDZ=
201505141900 METAR MRLM 141900Z 03009KT 9999 BKN020 SCT200 29/24 A2986=
201505142000 METAR MRLM 142000Z 03009KT 9999 SCT020 SCT200 29/24 A2984=
201505142100 METAR MRLM NIL=
201505142200 METAR MRLM NIL=
201505142300 METAR MRLM NIL=
201505150000 METAR MRLM NIL=
201505150100 METAR MRLM NIL=
201505150200 METAR MRLM NIL=
201505150300 METAR MRLM NIL=
201505150400 METAR MRLM NIL=
201505150500 METAR MRLM NIL=
201505150600 METAR MRLM NIL=
201505150700 METAR MRLM NIL=
201505150800 METAR MRLM NIL=
201505150900 METAR MRLM NIL=
201505151000 METAR MRLM NIL=
201505151100 METAR MRLM NIL=
201505151200 METAR MRLM 151200Z 23003KT 9999 3000N DZ SCT006 BKN090 23/22 A2985=
201505151300 METAR MRLM 151300Z 00000KT 9999 VCRA SCT010 BKN100 24/23 A2986=
201505151400 METAR MRLM 151400Z 02002KT 9999 SCT010 BKN110 26/23 A2988=
201505151500 METAR MRLM 151500Z 03005KT 8000 3000N DZ BKN010 26/24 A2992=
201505151600 METAR MRLM 151600Z 04009KT 5000 DZVCTS BKN010 25/24 A2993=
201505151700 METAR MRLM 151700Z 02007KT 5000 RAVCTS BKN010 24/23 A2993=
201505151800 METAR MRLM 151800Z 09004KT 5000 +DZ BKN010 SCT100 24/22 A2992 RERA=
201505151900 METAR MRLM 151900Z 30005KT 9999 DZ BKN007 SCT100 24/23 A2990=
201505152000 METAR MRLM 152000Z 27003KT 9999 DZ BKN010 SCT100 25/24 A2987=
201505152100 METAR MRLM 152100Z 24002KT 9999 -DZ BKN010 26/24 A2986=
201505152200 METAR MRLM 152200Z 26002KT 9999 -DZ SCT010 SCT110 26/24 A2985=
201505152300 METAR MRLM 152300Z 00000KT 9999 SCT010 BKN100 26/24 A2984=
201505160000 METAR MRLM 160000Z 00000KT 9999 5000N -DZVCSH SCT007 SCT090 25/24 A2986=
201505160100 METAR MRLM NIL=
201505160200 METAR MRLM NIL=
201505160300 METAR MRLM NIL=
201505160400 METAR MRLM NIL=
201505160500 METAR MRLM NIL=
201505160600 METAR MRLM NIL=
201505160700 METAR MRLM NIL=
201505160800 METAR MRLM NIL=
201505160900 METAR MRLM NIL=
201505161000 METAR MRLM NIL=
201505161100 METAR MRLM NIL=
201505161200 METAR MRLM NIL=
201505161300 METAR MRLM NIL=
201505161400 METAR MRLM NIL=
201505161500 METAR MRLM NIL=
201505161600 METAR MRLM NIL=
201505161700 METAR MRLM NIL=
201505161800 METAR MRLM NIL=
201505161900 METAR MRLM NIL=
201505162000 METAR MRLM NIL=
201505162100 METAR MRLM NIL=
201505162200 METAR MRLM NIL=
201505162300 METAR MRLM NIL=
201505170000 METAR MRLM NIL=
201505170100 METAR MRLM NIL=
201505170200 METAR MRLM NIL=
201505170300 METAR MRLM NIL=
201505170400 METAR MRLM NIL=
201505170500 METAR MRLM NIL=
201505170600 METAR MRLM NIL=
201505170700 METAR MRLM NIL=
201505170800 METAR MRLM NIL=
201505170900 METAR MRLM NIL=
201505171000 METAR MRLM NIL=
201505171100 METAR MRLM NIL=
201505171200 METAR MRLM 171200Z 25005KT 9999 FEW007 BKN100 21/20 A2990=
201505171300 METAR MRLM 171300Z 25003KT 9999 FEW010 BKN110 23/21 A2992=
201505171400 METAR MRLM 171400Z 24002KT 9999 FEW020 BKN130 25/21 A2994=
201505171500 METAR MRLM 171500Z 24003KT CAVOK 26/22 A2995=
201505171600 METAR MRLM 171600Z 08002KT CAVOK 28/21 A2995=
201505171700 METAR MRLM 171700Z 09004KT CAVOK 28/22 A2994=
201505171800 METAR MRLM 171800Z 04007KT CAVOK 29/21 A2993=
201505171900 METAR MRLM 171900Z 03007KT 9999 FEW030 BKN130 29/22 A2991=
201505172000 METAR MRLM 172000Z 01008KT 9999 SCT020 SCT130 28/23 A2988=
201505172100 METAR MRLM 172100Z 02007KT 9999 BKN020 SCT130 28/22 A2988=
201505172200 METAR MRLM 172200Z 04003KT 9999 FEW020 BKN130 27/23 A2987=
201505172300 METAR MRLM 172300Z 05004KT 9999 -DZ SCT020 BKN120 27/23 A2990=
201505180000 METAR MRLM 180000Z 03004KT 9999 BKN010 SCT100 27/23 A2991=
201505180100 METAR MRLM NIL=
201505180200 METAR MRLM NIL=
201505180300 METAR MRLM NIL=
201505180400 METAR MRLM NIL=
201505180500 METAR MRLM NIL=
201505180600 METAR MRLM NIL=
201505180700 METAR MRLM NIL=
201505180800 METAR MRLM NIL=
201505180900 METAR MRLM NIL=
201505181000 METAR MRLM NIL=
201505181100 METAR MRLM NIL=
201505181200 METAR MRLM 181200Z 26004KT 9999 SCT010 SCT120 24/23 A2992=
201505181300 METAR MRLM 181300Z 28003KT CAVOK 25/23 A2994=
201505181400 METAR MRLM 181400Z 28004KT 9999 FEW020 BKN130 27/24 A2996=
201505181500 METAR MRLM 181500Z 00000KT 9999 SCT030 SCT130 29/23 A2997=
201505181600 METAR MRLM 181600Z 01006KT 9999 BKN025 SCT130 28/23 A2997=
201505181700 METAR MRLM 181700Z 04004KT 9999 FEW030 BKN140 30/23 A2995=
201505181800 METAR MRLM 181800Z 04006KT 9999 FEW030 BKN140 30/24 A2994=
201505181900 METAR MRLM 181900Z 06007KT 9999 FEW020 SCT140 SCT250 29/24 A2992=
201505182000 METAR MRLM 182000Z 06007KT 9999 SCT025 SCT140 30/23 A2990=
201505182100 METAR MRLM NIL=
201505182200 METAR MRLM NIL=
201505182300 METAR MRLM NIL=
201505190000 METAR MRLM NIL=
201505190100 METAR MRLM NIL=
201505190200 METAR MRLM NIL=
201505190300 METAR MRLM NIL=
201505190400 METAR MRLM NIL=
201505190500 METAR MRLM NIL=
201505190600 METAR MRLM NIL=
201505190700 METAR MRLM NIL=
201505190800 METAR MRLM NIL=
201505190900 METAR MRLM NIL=
201505191000 METAR MRLM NIL=
201505191100 METAR MRLM NIL=
201505191200 METAR MRLM NIL=
201505191300 METAR MRLM NIL=
201505191400 METAR MRLM NIL=
201505191500 METAR MRLM NIL=
201505191600 METAR MRLM NIL=
201505191700 METAR MRLM NIL=
201505191800 METAR MRLM NIL=
201505191900 METAR MRLM 191900Z 03007KT CAVOK 29/23 A2987=
201505192000 METAR MRLM 192000Z 04005KT 9999 SCT020 SCT130 28/23 A2987=
201505192100 METAR MRLM NIL=
201505192200 METAR MRLM NIL=
201505192300 METAR MRLM NIL=
201505200000 METAR MRLM NIL=
201505200100 METAR MRLM NIL=
201505200200 METAR MRLM NIL=
201505200300 METAR MRLM NIL=
201505200400 METAR MRLM NIL=
201505200500 METAR MRLM NIL=
201505200600 METAR MRLM NIL=
201505200700 METAR MRLM NIL=
201505200800 METAR MRLM NIL=
201505200900 METAR MRLM NIL=
201505201000 METAR MRLM NIL=
201505201100 METAR MRLM NIL=
201505201200 METAR MRLM 201200Z 27005KT 9999 -DZ BKN010 24/23 A2987=
201505201300 METAR MRLM 201300Z 27003KT 9999 -DZ BKN010 24/23 A2988=
201505201400 METAR MRLM 201400Z 30004KT 9999 BKN010 25/23 A2990=
201505201500 METAR MRLM 201500Z 25004KT 9999 OVC010 25/23 A2991=
201505201535 METAR MRLM 201535Z 19003KT 5000 RA OVC007 25/23 A2992=
201505201600 METAR MRLM 201600Z 13004KT 5000 RA OVC007 25/24 A2992=
201505201700 METAR MRLM 201700Z 21004KT 8000 3000N +DZ BKN010 26/24 A2991 RERA=
201505201800 METAR MRLM 201800Z 22002KT 8000 DZ BKN010 25/24 A2990=
201505201900 METAR MRLM 201900Z 27005KT 9999 BKN010 25/24 A2987=
201505202000 METAR MRLM NIL=
201505202100 METAR MRLM NIL=
201505202200 METAR MRLM NIL=
201505202300 METAR MRLM NIL=
201505210000 METAR MRLM NIL=
201505210100 METAR MRLM NIL=
201505210200 METAR MRLM NIL=
201505210300 METAR MRLM NIL=
201505210400 METAR MRLM NIL=
201505210500 METAR MRLM NIL=
201505210600 METAR MRLM NIL=
201505210700 METAR MRLM NIL=
201505210800 METAR MRLM NIL=
201505210900 METAR MRLM NIL=
201505211000 METAR MRLM NIL=
201505211100 METAR MRLM NIL=
201505211200 METAR MRLM NIL=
201505211300 METAR MRLM NIL=
201505211400 METAR MRLM NIL=
201505211500 METAR MRLM NIL=
201505211600 METAR MRLM 211600Z 08003KT 9999 FEW030 BKN120 29/23 A2993=
201505211700 METAR MRLM 211700Z 09002KT 9999 FEW030 BKN130 29/23 A2991=
201505211800 METAR MRLM 211800Z 04005KT CAVOK 29/23 A2990=
201505211900 METAR MRLM 211900Z 04005KT 9999 FEW025 BKN140 29/24 A2988=
201505212000 METAR MRLM 212000Z 02006KT 9999 SCT020 SCT140 29/24 A2985=
201505212100 METAR MRLM 212100Z 05005KT 9999 FEW030 BKN140 29/247 A2984=
201505212200 METAR MRLM 212200Z 05004KT CAVOK 28/24 A2985=
201505212300 METAR MRLM 212300Z 10002KT CAVOK 28/24 A2986=
201505220000 METAR MRLM 220000Z 07004KT 9999 SCT020 BKN110 27/23 A2989=
201505220100 METAR MRLM NIL=
201505220200 METAR MRLM NIL=
201505220300 METAR MRLM NIL=
201505220400 METAR MRLM NIL=
201505220500 METAR MRLM NIL=
201505220600 METAR MRLM NIL=
201505220700 METAR MRLM NIL=
201505220800 METAR MRLM NIL=
201505220900 METAR MRLM NIL=
201505221000 METAR MRLM NIL=
201505221100 METAR MRLM NIL=
201505221200 METAR MRLM 221200Z 28003KT 6000 DZ BKN007 24/23 A2992=
201505221300 METAR MRLM 221300Z 27005KT 9999 BKN007 24/23 A2994=
201505221400 METAR MRLM 221400Z 27004KT 9999 BKN010 26/24 A2995 REDZ=
201505221500 METAR MRLM 221500Z 24004KT 9999 FEW025 BKN130 28/23 A2994=
201505221600 METAR MRLM 221600Z 11005KT 9999 SCT025 BKN130 28/24 A2992=
201505221700 METAR MRLM 221700Z 04006KT 9999 SCT025 BKN120 29/24 A2992=
201505221800 METAR MRLM 221800Z 05006KT CAVOK 28/24 A2990=
201505221900 METAR MRLM 221900Z 05007KT 9999 FEW030 BKN140 29/24 A2988=
201505222000 METAR MRLM 222000Z 03008KT CAVOK 29/24 A2986=
201505222100 METAR MRLM 222100Z 04007KT 9999 SCT020 BKN120 29/24 A2987=
201505222200 METAR MRLM 222200Z 02007KT 9999 -DZ BKN015 28/24 A2988=
201505222300 METAR MRLM 222300Z 07011KT 9999 BKN015 SCT120 27/24 A2990=
201505230000 METAR MRLM 230000Z 05007KT 9999 SCT015 BKN110 26/23 A2991=
201505230100 METAR MRLM NIL=
201505230200 METAR MRLM NIL=
201505230300 METAR MRLM NIL=
201505230400 METAR MRLM NIL=
201505230500 METAR MRLM NIL=
201505230600 METAR MRLM NIL=
201505230700 METAR MRLM NIL=
201505230800 METAR MRLM NIL=
201505230900 METAR MRLM NIL=
201505231000 METAR MRLM NIL=
201505231100 METAR MRLM NIL=
201505231200 METAR MRLM NIL=
201505231300 METAR MRLM NIL=
201505231400 METAR MRLM NIL=
201505231500 METAR MRLM NIL=
201505231600 METAR MRLM NIL=
201505231700 METAR MRLM NIL=
201505231800 METAR MRLM NIL=
201505231900 METAR MRLM NIL=
201505232000 METAR MRLM NIL=
201505232100 METAR MRLM NIL=
201505232200 METAR MRLM NIL=
201505232300 METAR MRLM NIL=
201505240000 METAR MRLM NIL=
201505240100 METAR MRLM NIL=
201505240200 METAR MRLM NIL=
201505240300 METAR MRLM NIL=
201505240400 METAR MRLM NIL=
201505240500 METAR MRLM NIL=
201505240600 METAR MRLM NIL=
201505240700 METAR MRLM NIL=
201505240800 METAR MRLM NIL=
201505240900 METAR MRLM NIL=
201505241000 METAR MRLM NIL=
201505241100 METAR MRLM NIL=
201505241200 METAR MRLM 241200Z 25007KT 3000 +RA OVC006 24/23 A2987=
201505241300 METAR MRLM 241300Z 30005KT 2000 +RA OVC006 24/23 A2989=
201505241400 METAR MRLM 241400Z 29007KT 4000 +RA OVC006 23/23 A2991=
201505241500 METAR MRLM 241500Z 23005KT 4000 +RA OVC006 23/23 A2993=
201505241600 METAR MRLM 241600Z 24006KT 5000 RA BKN007 23/23 A2993=
201505241700 METAR MRLM 241700Z 00000KT 7000 3000N RA BKN007 24/23 A2993=
201505241800 METAR MRLM 241800Z 26005KT 6000 3000N RA BKN010 24/23 A2991=
201505241900 METAR MRLM 241900Z 32005KT 8000 3000N DZ BKN010 SCT100 24/23 A2988 RERA=
201505242000 METAR MRLM 242000Z 29006KT 9999 -DZ BKN010 SCT110 24/23 A2986=
201505242100 METAR MRLM 242100Z 30004KT 9999 BKN110 SCT110 26/24 A2984=
201505242200 METAR MRLM 242200Z 30004KT 9999 SCT015 SCT120 26/24 A2983=
201505242300 METAR MRLM 242300Z 30004KT 9999 FEW007 BKN010 26/23 A2984=
201505242310 METAR MRLM 242310Z 02009KT 3000 /RAVCTS OVC007 25/24 A2986=
201505250000 METAR MRLM 250000Z 34007KT 3000 TSRA SCT006CB OVC007 24/23 A2987=
201505250100 METAR MRLM NIL=
201505250200 METAR MRLM NIL=
201505250300 METAR MRLM NIL=
201505250400 METAR MRLM NIL=
201505250500 METAR MRLM NIL=
201505250600 METAR MRLM NIL=
201505250700 METAR MRLM NIL=
201505250800 METAR MRLM NIL=
201505250900 METAR MRLM NIL=
201505251000 METAR MRLM NIL=
201505251100 METAR MRLM NIL=
201505251200 METAR MRLM NIL=
201505251300 METAR MRLM NIL=
201505251400 METAR MRLM NIL=
201505251500 METAR MRLM NIL=
201505251600 METAR MRLM NIL=
201505251700 METAR MRLM NIL=
201505251800 METAR MRLM NIL=
201505251900 METAR MRLM NIL=
201505252000 METAR MRLM NIL=
201505252100 METAR MRLM NIL=
201505252200 METAR MRLM NIL=
201505252300 METAR MRLM NIL=
201505260000 METAR MRLM NIL=
201505260100 METAR MRLM NIL=
201505260200 METAR MRLM NIL=
201505260300 METAR MRLM NIL=
201505260400 METAR MRLM NIL=
201505260500 METAR MRLM NIL=
201505260600 METAR MRLM NIL=
201505260700 METAR MRLM NIL=
201505260800 METAR MRLM NIL=
201505260900 METAR MRLM NIL=
201505261000 METAR MRLM NIL=
201505261100 METAR MRLM NIL=
201505261200 METAR MRLM NIL=
201505261300 METAR MRLM NIL=
201505261400 METAR MRLM NIL=
201505261500 METAR MRLM NIL=
201505261600 METAR MRLM NIL=
201505261700 METAR MRLM NIL=
201505261800 METAR MRLM NIL=
201505261900 METAR MRLM NIL=
201505262000 METAR MRLM NIL=
201505262100 METAR MRLM NIL=
201505262200 METAR MRLM NIL=
201505262300 METAR MRLM NIL=
201505270000 METAR MRLM NIL=
201505270100 METAR MRLM NIL=
201505270200 METAR MRLM NIL=
201505270300 METAR MRLM NIL=
201505270400 METAR MRLM NIL=
201505270500 METAR MRLM NIL=
201505270600 METAR MRLM NIL=
201505270700 METAR MRLM NIL=
201505270800 METAR MRLM NIL=
201505270900 METAR MRLM NIL=
201505271000 METAR MRLM NIL=
201505271100 METAR MRLM NIL=
201505271200 METAR MRLM NIL=
201505271300 METAR MRLM NIL=
201505271400 METAR MRLM NIL=
201505271500 METAR MRLM NIL=
201505271600 METAR MRLM NIL=
201505271700 METAR MRLM NIL=
201505271800 METAR MRLM NIL=
201505271900 METAR MRLM NIL=
201505272000 METAR MRLM NIL=
201505272100 METAR MRLM NIL=
201505272200 METAR MRLM NIL=
201505272300 METAR MRLM NIL=
201505280000 METAR MRLM NIL=
201505280100 METAR MRLM NIL=
201505280200 METAR MRLM NIL=
201505280300 METAR MRLM NIL=
201505280400 METAR MRLM NIL=
201505280500 METAR MRLM NIL=
201505280600 METAR MRLM NIL=
201505280700 METAR MRLM NIL=
201505280800 METAR MRLM NIL=
201505280900 METAR MRLM NIL=
201505281000 METAR MRLM NIL=
201505281100 METAR MRLM NIL=
201505281200 METAR MRLM NIL=
201505281300 METAR MRLM NIL=
201505281400 METAR MRLM 281400Z 27002KT CAVOK 27/22 A2992=
201505281500 METAR MRLM 281500Z 09002KT 9999 FEW040 BKN250 29/21 A2993=
201505281600 METAR MRLM 281600Z 04005KT 9999 FEW040 SCT250 29/21 A2992=
201505281700 METAR MRLM 281700Z 04009KT 9999 FEW040 SCT130 SCT250 30/22 A2991=
201505281800 METAR MRLM 281800Z 02008KT 9999 FEW040 SCT130 SCT250 29/22 A2990=
201505281900 METAR MRLM 281900Z 04008KT CAVOK 29/22 A2988=
201505282000 METAR MRLM 282000Z 04010KT CAVOK 29/22 A2987=
201505282100 METAR MRLM NIL=
201505282200 METAR MRLM NIL=
201505282300 METAR MRLM NIL=
201505290000 METAR MRLM NIL=
201505290100 METAR MRLM NIL=
201505290200 METAR MRLM NIL=
201505290300 METAR MRLM NIL=
201505290400 METAR MRLM NIL=
201505290500 METAR MRLM NIL=
201505290600 METAR MRLM NIL=
201505290700 METAR MRLM NIL=
201505290800 METAR MRLM NIL=
201505290900 METAR MRLM NIL=
201505291000 METAR MRLM NIL=
201505291100 METAR MRLM NIL=
201505291200 METAR MRLM 291200Z 26005KT CAVOK 21/19 A2989=
201505291300 METAR MRLM 291300Z 23005KT CAVOK 24/20 A2991=
201505291400 METAR MRLM 291400Z 23004KT CAVOK 27/21 A2992=
201505291500 METAR MRLM 291500Z 10003KT CAVOK 29/21 A2992=
201505291600 METAR MRLM 291600Z 08004KT 9999 FEW040 BKN260 29/21 A2992=
201505291700 METAR MRLM 291700Z 07006KT 9999 FEW040 BKN260 29/22 A2991=
201505291800 METAR MRLM 291800Z 06003KT CAVOK 29/21 A2989=
201505291900 METAR MRLM 291900Z 06005KT CAVOK 29/21 A2987=
201505292000 METAR MRLM 292000Z 04007KT CAVOK 30/21 A2984=
201505292100 METAR MRLM 292100Z 04006KT CAVOK 29/21 A2983=
201505292200 METAR MRLM 292200Z 04006KT CAVOK 29/22 A2982=
201505292300 METAR MRLM 292300Z 02007KT 9999 FEW030 SCT130 SCT250 29/22 A2984=
201505300000 METAR MRLM 300000Z 34003KT 9999 FEW025 SCT130 SCT250 27/22 A2985=
201505300100 METAR MRLM NIL=
201505300200 METAR MRLM NIL=
201505300300 METAR MRLM NIL=
201505300400 METAR MRLM NIL=
201505300500 METAR MRLM NIL=
201505300600 METAR MRLM NIL=
201505300700 METAR MRLM NIL=
201505300800 METAR MRLM NIL=
201505300900 METAR MRLM NIL=
201505301000 METAR MRLM NIL=
201505301100 METAR MRLM NIL=
201505301200 METAR MRLM NIL=
201505301300 METAR MRLM NIL=
201505301400 METAR MRLM NIL=
201505301500 METAR MRLM NIL=
201505301600 METAR MRLM NIL=
201505301700 METAR MRLM NIL=
201505301800 METAR MRLM NIL=
201505301900 METAR MRLM NIL=
201505302000 METAR MRLM NIL=
201505302100 METAR MRLM NIL=
201505302200 METAR MRLM NIL=
201505302300 METAR MRLM NIL=
201505310000 METAR MRLM NIL=
201505310100 METAR MRLM NIL=
201505310200 METAR MRLM NIL=
201505310300 METAR MRLM NIL=
201505310400 METAR MRLM NIL=
201505310500 METAR MRLM NIL=
201505310600 METAR MRLM NIL=
201505310700 METAR MRLM NIL=
201505310800 METAR MRLM NIL=
201505310900 METAR MRLM NIL=
201505311000 METAR MRLM NIL=
201505311100 METAR MRLM NIL=
201505311200 METAR MRLM 311200Z 24003KT CAVOK 24/22 A2984=
201505311300 METAR MRLM 311300Z 24004KT CAVOK 27/22 2985=
201505311400 METAR MRLM 311400Z 07003KT CAVOK 29/22 A2987=
201505311500 METAR MRLM 311500Z 05004KT 9999 FEW030 BKN250 29/23 A2988=
201505311600 METAR MRLM 311600Z 05005KT 9999 FEW030 BKN250 29/23 A2988=
201505311700 METAR MRLM 311700Z 04007KT 9999 FEW030 BKN260 30/23 A2987=
201505311800 METAR MRLM 311800Z 03008KT CAVOK 30/23 A2983=
201505311900 METAR MRLM 311900Z 03009KT CAVOK 30/23 A2981=
201505312000 METAR MRLM 312000Z 04008KT 9999 FEW030 BKN130 30/23 A2981=
201505312100 METAR MRLM 312100Z 04009KT CAVOK 29/24 A2979=
201505312200 METAR MRLM 312200Z 03007KT 9999 SCT025 SCT130 29/23 A2979=
201505312300 METAR MRLM 312300Z 03005KT 9999 BKN025 28/23 A2980=
201506010000 METAR MRLM 010000Z 05004KT 9999 BKN020 28/23 A2982=
201506010100 METAR MRLM NIL=
201506010200 METAR MRLM NIL=
201506010300 METAR MRLM NIL=
201506010400 METAR MRLM NIL=
201506010500 METAR MRLM NIL=
201506010600 METAR MRLM NIL=
201506010700 METAR MRLM NIL=
201506010800 METAR MRLM NIL=
201506010900 METAR MRLM NIL=
201506011000 METAR MRLM NIL=
201506011100 METAR MRLM NIL=
201506011200 METAR MRLM 011200Z 26005KT CAVOK 24/23 A2985=
201506011300 METAR MRLM 011300Z 28003KT CAVOK 26/23 A2988=
201506011400 METAR MRLM 011400Z 00000KT CAVOK 29/23 A2989=
201506011500 METAR MRLM 011500Z 08004KT 9999 FEW030 SCT260 29/24 A2989=
201506011600 METAR MRLM 011600Z 07004KT 9999 FEW030 SCT140 29/24 A2988=
201506011700 METAR MRLM 011700Z 09005KT 9999 FEW030 BKN140 29/24 A2987=
201506011800 METAR MRLM 011800Z 04006KT 9999 FEW030 BKN130 29/24 A2984=
201506011900 METAR MRLM 011900Z 08006KT 9999 FEW030 BKN130 30/24 A2982=
201506012000 METAR MRLM 012000Z 08005KT 9999 FEW030 SCT250 30/24 A2979=
201506012100 METAR MRLM NIL=
201506012200 METAR MRLM NIL=
201506012300 METAR MRLM NIL=
201506020000 METAR MRLM NIL=
201506020100 METAR MRLM NIL=
201506020200 METAR MRLM NIL=
201506020300 METAR MRLM NIL=
201506020400 METAR MRLM NIL=
201506020500 METAR MRLM NIL=
201506020600 METAR MRLM NIL=
201506020700 METAR MRLM NIL=
201506020800 METAR MRLM NIL=
201506020900 METAR MRLM NIL=
201506021000 METAR MRLM NIL=
201506021100 METAR MRLM NIL=
201506021200 METAR MRLM 021200Z 26002KT 9999 SCT010 SCT120 25/24 A2982=
201506021300 METAR MRLM 021300Z 28004KT 9999 BKN010 25/24 A2983=
201506021400 METAR MRLM 021400Z 30005KT 9999 BKN010 SCT120 26/24 A2985=
201506021500 METAR MRLM 021500Z 31006KT CAVOK 29/24 A2986=
201506021600 METAR MRLM 021600Z 06005KT 9999 SCT030 BKN250 30/24 A2985=
201506021700 METAR MRLM 021700Z 05008KT 9999 FEW030 BKN240 30/24 A2984=
201506021800 METAR MRLM 021800Z 05006KT CAVOK 30/24 A2982=
201506021900 METAR MRLM 021900Z 04007KT 9999 FEW030 SCT130 SCT240 30/25 A2980=
201506022000 METAR MRLM 022000Z 04005KT 9999 FEW030 BKN240 30/24 A2978=
201506022100 METAR MRLM NIL=
201506022200 METAR MRLM NIL=
201506022300 METAR MRLM NIL=
201506030000 METAR MRLM NIL=
201506030100 METAR MRLM NIL=
201506030200 METAR MRLM NIL=
201506030300 METAR MRLM NIL=
201506030400 METAR MRLM NIL=
201506030500 METAR MRLM NIL=
201506030600 METAR MRLM NIL=
201506030700 METAR MRLM NIL=
201506030800 METAR MRLM NIL=
201506030900 METAR MRLM NIL=
201506031000 METAR MRLM NIL=
201506031100 METAR MRLM NIL=
201506031200 METAR MRLM 031200Z 24003KT 9999 FEW010 SCT240 25/24 A2980=
201506031300 METAR MRLM 031300Z 27004KT CAVOK 26/24 A2980=
201506031400 METAR MRLM 031400Z 29002KT CAVOK 29/24 A2979=
201506031500 METAR MRLM 031500Z 05006KT 9999 FEW030 OVC240 29/24 A2980=
201506031600 METAR MRLM 031600Z 06005KT 9999 FEW030 OVC240 29/24 A2981=
201506031700 METAR MRLM 031700Z 05006KT 9999 FEW030 OVC250 30/24 A2979=
201506031800 METAR MRLM 031800Z 06006KT CAVOK 30/25 A2979=
201506031900 METAR MRLM 031900Z 05007KT CAVOK 30/25 A2976=
201506032000 METAR MRLM 032000Z 04008KT 9999 FEW030 BKN250 31/25 A2975=
201506032100 METAR MRLM NIL=
201506032200 METAR MRLM NIL=
201506032300 METAR MRLM NIL=
201506040000 METAR MRLM NIL=
201506040100 METAR MRLM NIL=
201506040200 METAR MRLM NIL=
201506040300 METAR MRLM NIL=
201506040400 METAR MRLM NIL=
201506040500 METAR MRLM NIL=
201506040600 METAR MRLM NIL=
201506040700 METAR MRLM NIL=
201506040800 METAR MRLM NIL=
201506040900 METAR MRLM NIL=
201506041000 METAR MRLM NIL=
201506041100 METAR MRLM NIL=
201506041200 METAR MRLM 041200Z 26003KT CAVOK 24/23 A2983=
201506041300 METAR MRLM 041300Z 27003KT CAVOK 26/23 A2984=
201506041400 METAR MRLM 041400Z 26002KT CAVOK 29/23 A2984=
201506041500 METAR MRLM 041500Z 06004KT 9999 FEW030 29/23 A2986=
201506041600 METAR MRLM 041600Z 04007KT 9999 SCT035 SCT130 30/23 A2987=
201506041700 METAR MRLM 041700Z 05006KT 9999 SCT030 SCT200 29/24 A2987=
201506041800 METAR MRLM 041800Z 06004KT 9999 SCT030 BKN120 29/23 A2987=
201506041900 METAR MRLM 041900Z 07006KT 9999 DZ SCT020 BKN120 28/24 A2985=
201506042000 METAR MRLM 042000Z 10002KT 9999 -DZ SCT020 BKN130 28/24 A2982=
201506042100 METAR MRLM NIL=
201506042200 METAR MRLM NIL=
201506042300 METAR MRLM NIL=
201506050000 METAR MRLM NIL=
201506050100 METAR MRLM NIL=
201506050200 METAR MRLM NIL=
201506050300 METAR MRLM NIL=
201506050400 METAR MRLM NIL=
201506050500 METAR MRLM NIL=
201506050600 METAR MRLM NIL=
201506050700 METAR MRLM NIL=
201506050800 METAR MRLM NIL=
201506050900 METAR MRLM NIL=
201506051000 METAR MRLM NIL=
201506051100 METAR MRLM NIL=
201506051200 METAR MRLM 051200Z 24004KT CAVOK 24/23 A2984=
201506051300 METAR MRLM 051300Z 25003KT CAVOK 25/23 A2984=
201506051400 METAR MRLM 051400Z 00000KT CAVOK 26/23 A2987=
201506051500 METAR MRLM 051500Z 08003KT CAVOK 29/23 A2988=
201506051600 METAR MRLM 051600Z 08004KT CAVOK 29/23 A2988=
201506051700 METAR MRLM 051700Z 06005KT CAVOK 30/24 A2987=
201506051800 METAR MRLM 051800Z 05007KT 9999 FEW030 BKN130 29/25 A2986=
201506051900 METAR MRLM 051900Z 09005KT 9999 FEW030 BKN130 30/24 A2984=
201506052000 METAR MRLM 052000Z 09005KT 9999 FEW030 BKN140 30/25 A2982=
201506052100 METAR MRLM 052100Z 11006KT 9999 SCT020 30/25 A2980=
201506052200 METAR MRLM 052200Z 13008KT 9999 SCT020 30/25 A2979=
201506052300 METAR MRLM 052300Z 17003KT 9999 FEW020 SCT130 SCT250 29/24 A2978=
201506060000 METAR MRLM 060000Z 00000KT CAVOK 28/25 A2979=
201506060100 METAR MRLM NIL=
201506060200 METAR MRLM NIL=
201506060300 METAR MRLM NIL=
201506060400 METAR MRLM NIL=
201506060500 METAR MRLM NIL=
201506060600 METAR MRLM NIL=
201506060700 METAR MRLM NIL=
201506060800 METAR MRLM NIL=
201506060900 METAR MRLM NIL=
201506061000 METAR MRLM NIL=
201506061100 METAR MRLM NIL=
201506061200 METAR MRLM NIL=
201506061300 METAR MRLM NIL=
201506061400 METAR MRLM NIL=
201506061500 METAR MRLM NIL=
201506061600 METAR MRLM NIL=
201506061700 METAR MRLM NIL=
201506061800 METAR MRLM NIL=
201506061900 METAR MRLM NIL=
201506062000 METAR MRLM NIL=
201506062100 METAR MRLM NIL=
201506062200 METAR MRLM NIL=
201506062300 METAR MRLM NIL=
201506070000 METAR MRLM NIL=
201506070100 METAR MRLM NIL=
201506070200 METAR MRLM NIL=
201506070300 METAR MRLM NIL=
201506070400 METAR MRLM NIL=
201506070500 METAR MRLM NIL=
201506070600 METAR MRLM NIL=
201506070700 METAR MRLM NIL=
201506070800 METAR MRLM NIL=
201506070900 METAR MRLM NIL=
201506071000 METAR MRLM NIL=
201506071100 METAR MRLM NIL=
201506071200 METAR MRLM 071200Z 00000KT CAVOK 24/23 A2985=
201506071300 METAR MRLM 071300Z 27003KT CAVOK 26/24 A2986=
201506071400 METAR MRLM 071400Z 00000KT CAVOK 30/23 A2987=
201506071500 METAR MRLM 071500Z 06005KT 9999 FEW030 SCT130 29/24 A2987=
201506071600 METAR MRLM 071600Z 03008KT 9999 DZ SCT030 BKN130 29/24 A2989=
201506071700 METAR MRLM 071700Z 01007KT 9999 FEW030 BKN130 29/23 A2987 REDZ=
201506071800 METAR MRLM 071800Z 03009KT 9999 SCT030 SCT130 30/25 A2985=
201506071900 METAR MRLM 071900Z 04007KT 9999 FEW025 30/25 A2982=
201506072000 METAR MRLM 072000Z 02007KT 9999 FEW025 SCT130 29/24 A2980=
201506072100 METAR MRLM 072100Z 03008KT 9999 FEW025 SCT140 30/25 A2979=
201506072200 METAR MRLM 072200Z 02009KT 9999 BKN020 29/24 A2979=
201506072300 METAR MRLM 072300Z 01007KT 9999 BKN020 28/24 A2982=
201506080000 METAR MRLM 080000Z 29002KT 9999 BKN020 27/24 A2985=
201506080100 METAR MRLM NIL=
201506080200 METAR MRLM NIL=
201506080300 METAR MRLM NIL=
201506080400 METAR MRLM NIL=
201506080500 METAR MRLM NIL=
201506080600 METAR MRLM NIL=
201506080700 METAR MRLM NIL=
201506080800 METAR MRLM NIL=
201506080900 METAR MRLM NIL=
201506081000 METAR MRLM NIL=
201506081100 METAR MRLM NIL=
201506081200 METAR MRLM 081200Z 26004KT CAVOK 23/22 A2985=
201506081300 METAR MRLM 081300Z 25004KT CAVOK 24/22 A2986=
201506081400 METAR MRLM 081400Z 30003KT CAVOK 27/23 A2987=
201506081500 METAR MRLM 081500Z 04003KT 9999 FEW030 BKN140 29/23 A2988=
201506081600 METAR MRLM 081600Z 03006KT 9999 FEW030 BKN140 28/23 A2989=
201506081700 METAR MRLM 081700Z 04007KT 9999 FEW030 BKN130 29/23 A2989=
201506081800 METAR MRLM 081800Z 04004KT CAVOK 29/22 A2987=
201506081900 METAR MRLM 081900Z 07003KT 9999 FEW030 BKN130 29/23 A2986=
201506082000 METAR MRLM 082000Z 06004KT 9999 FEW030 BKN130 29/23 A2983=
201506082100 METAR MRLM NIL=
201506082200 METAR MRLM NIL=
201506082300 METAR MRLM NIL=
201506090000 METAR MRLM NIL=
201506090100 METAR MRLM NIL=
201506090200 METAR MRLM NIL=
201506090300 METAR MRLM NIL=
201506090400 METAR MRLM NIL=
201506090500 METAR MRLM NIL=
201506090600 METAR MRLM NIL=
201506090700 METAR MRLM NIL=
201506090800 METAR MRLM NIL=
201506090900 METAR MRLM NIL=
201506091000 METAR MRLM NIL=
201506091100 METAR MRLM NIL=
201506091200 METAR MRLM 091200Z 00000KT 9999 BKN010 SCT100 24/23 A2987=
201506091300 METAR MRLM 091300Z 28004KT 9999 SCT010 SCT110 25/23 A2988=
201506091400 METAR MRLM 091400Z 30003KT 9999 SCT010 SCT110 26/23 A2988=
201506091500 METAR MRLM 091500Z 00000KT 9999 SCT015 SCT120 27/24 A2988=
201506091600 METAR MRLM 091600Z 08002KT 9999 BKN020 28/24 A2988=
201506091700 METAR MRLM 091700Z 06006KT 9999 BKN020 29/24 A2987=
201506091800 METAR MRLM 091800Z 07005KT 9999 SCT020 SCT130 28/23 A2985=
201506091900 METAR MRLM 091900Z 07003KT 9999 FEW020 SCT140 SCT240 28/23 A2984=
201506091910 METAR MRLM 091910Z 11003KT 9999 DZ SCT015 SCT140 28/24 A2984=
201506092000 METAR MRLM 092000Z 11003KT 9999 BKN015 28/23 A2982 REDZ=
201506092100 METAR MRLM NIL=
201506092200 METAR MRLM NIL=
201506092300 METAR MRLM NIL=
201506100000 METAR MRLM NIL=
201506100100 METAR MRLM NIL=
201506100200 METAR MRLM NIL=
201506100300 METAR MRLM NIL=
201506100400 METAR MRLM NIL=
201506100500 METAR MRLM NIL=
201506100600 METAR MRLM NIL=
201506100700 METAR MRLM NIL=
201506100800 METAR MRLM NIL=
201506100900 METAR MRLM NIL=
201506101000 METAR MRLM NIL=
201506101100 METAR MRLM NIL=
201506101200 METAR MRLM 101200Z 23003KT CAVOK 23/22 A2986=
201506101300 METAR MRLM 101300Z 24003KT CAVOK 23/22 A2986=
201506101400 METAR MRLM 101400Z 00000KT CAVOK 28/23 A2987=
201506101500 METAR MRLM 101500Z 09004KT 9999 FEW030 BKN140 29/23 A2988=
201506101600 METAR MRLM 101600Z 06004KT 9999 FEW030 29/22 A2987=
201506101700 METAR MRLM 101700Z 07004KT 9999 FEW030 BKN150 29/22 A2986=
201506101800 METAR MRLM 101800Z 08005KT CAVOK 29/23 A2984=
201506101900 METAR MRLM 101900Z 09006KT 9999 FEW030 BKN140 29/23 A2982=
201506102000 METAR MRLM 102000Z 09006KT 9999 FEW030 SCT140 30/23 A2980=
201506102100 METAR MRLM NIL=
201506102200 METAR MRLM NIL=
201506102300 METAR MRLM NIL=
201506110000 METAR MRLM NIL=
201506110100 METAR MRLM NIL=
201506110200 METAR MRLM NIL=
201506110300 METAR MRLM NIL=
201506110400 METAR MRLM NIL=
201506110500 METAR MRLM NIL=
201506110600 METAR MRLM NIL=
201506110700 METAR MRLM NIL=
201506110800 METAR MRLM NIL=
201506110900 METAR MRLM NIL=
201506111000 METAR MRLM NIL=
201506111100 METAR MRLM NIL=
201506111200 METAR MRLM 111200Z 23004KT CAVOK 23/22 A2984=
201506111300 METAR MRLM 111300Z 26004KT CAVOK 25/23 A2986=
201506111400 METAR MRLM 111400Z 00000KT CAVOK 27/23 A2988=
201506111500 METAR MRLM 111500Z 32003KT CAVOK 29/23 A2988=
201506111600 METAR MRLM 111600Z 02007KT 9999 FEW030 BKN250 29/22 A2988=
201506111700 METAR MRLM 111700Z 01009KT 9999 SCT030 BKN250 29/23 A2987=
201506111800 METAR MRLM 111800Z 02010KT 9999 BKN020 28/24 A2985=
201506111900 METAR MRLM 111900Z 02007KT 9999 BKN020 28/24 A2983=
201506112000 METAR MRLM 112000Z 04007KT 9999 BKN020 28/24 A2981=
201506112100 METAR MRLM NIL=
201506112200 METAR MRLM NIL=
201506112300 METAR MRLM NIL=
201506120000 METAR MRLM NIL=
201506120100 METAR MRLM NIL=
201506120200 METAR MRLM NIL=
201506120300 METAR MRLM NIL=
201506120400 METAR MRLM NIL=
201506120500 METAR MRLM NIL=
201506120600 METAR MRLM NIL=
201506120700 METAR MRLM NIL=
201506120800 METAR MRLM NIL=
201506120900 METAR MRLM NIL=
201506121000 METAR MRLM NIL=
201506121100 METAR MRLM NIL=
201506121200 METAR MRLM 121200Z 25004KT CAVOK 23/22 A2985=
201506121300 METAR MRLM 121300Z 27004KT CAVOK 25/23 A2986=
201506121400 METAR MRLM 121400Z 33005KT 9999 SCT030 BKN250 29/24 A2986=
201506121500 METAR MRLM 121500Z 34006KT 9999 SCT030 SCT260 29/24 A2987=
201506121600 METAR MRLM 121600Z 03009KT 9999 FEW025 SCT260 30/25 A2987=
201506121700 METAR MRLM 121700Z 05009KT 9999 FEW020 BKN250 29/24 A2986=
201506121800 METAR MRLM 121800Z 05009KT CAVOK 29/24 A2985=
201506121900 METAR MRLM 121900Z 06006KT 9999 FEW030 BKN250 29/24 A2983=
201506122000 METAR MRLM 122000Z 05006KT 9999 FEW030 BKN250 29/24 A2982=
201506122100 METAR MRLM 122100Z 04004KT 9999 FEW030 BKN250 29/23 A2981=
201506122200 METAR MRLM 122200Z 08003KT 9999 SCT020 BKN250 29/24 A2982=
201506122300 METAR MRLM 122300Z 00000KT 9999 FEW020 BKN230 28/23 A2983=
201506130000 METAR MRLM 130000Z 00000KT 9999 BKN010 27/25 A2985=
201506130100 METAR MRLM NIL=
201506130200 METAR MRLM NIL=
201506130300 METAR MRLM NIL=
201506130400 METAR MRLM NIL=
201506130500 METAR MRLM NIL=
201506130600 METAR MRLM NIL=
201506130700 METAR MRLM NIL=
201506130800 METAR MRLM NIL=
201506130900 METAR MRLM NIL=
201506131000 METAR MRLM NIL=
201506131100 METAR MRLM NIL=
201506131200 METAR MRLM NIL=
201506131300 METAR MRLM NIL=
201506131400 METAR MRLM NIL=
201506131500 METAR MRLM NIL=
201506131600 METAR MRLM NIL=
201506131700 METAR MRLM NIL=
201506131800 METAR MRLM NIL=
201506131900 METAR MRLM NIL=
201506132000 METAR MRLM NIL=
201506132100 METAR MRLM NIL=
201506132200 METAR MRLM NIL=
201506132300 METAR MRLM NIL=
201506140000 METAR MRLM NIL=
201506140100 METAR MRLM NIL=
201506140200 METAR MRLM NIL=
201506140300 METAR MRLM NIL=
201506140400 METAR MRLM NIL=
201506140500 METAR MRLM NIL=
201506140600 METAR MRLM NIL=
201506140700 METAR MRLM NIL=
201506140800 METAR MRLM NIL=
201506140900 METAR MRLM NIL=
201506141000 METAR MRLM NIL=
201506141100 METAR MRLM NIL=
201506141200 METAR MRLM 141200Z 00000KT 9999 BKN007 25/23 A2989=
201506141300 METAR MRLM 141300Z 00000KT 9999 SCT010 SCT100 25/23 A2986=
201506141400 METAR MRLM 141400Z 29002KT 9999 BKN020 27/24 A2988=
201506141500 METAR MRLM 141500Z 21003KT 9999 DZ OVC015 27/24 A2991=
201506141530 METAR MRLM 141530Z 21003KT 9999 DZ OVC015 27/24 A2991=
201506141600 METAR MRLM 141600Z 00000KT 9999 DZ VCTS OVC010 27/24 A2991=
201506141700 METAR MRLM 141700Z 29006KT 9999 FEW010 BKN110 26/24 A2987 REDZ=
201506141800 METAR MRLM 141800Z 33003KT 9999 FEW020 BKN130 27/24 A2985=
201506141900 METAR MRLM 141900Z 28005KT 9999 FEW020 BKN130 28/24 A2982=
201506142000 METAR MRLM 142000Z 31003KT 9999 FEW035 SCT140 SCT250 30/23 A2980=
201506142100 METAR MRLM 142100Z 04005KT 9999 FEW035 BKN250 30/23 A2979=
201506142200 METAR MRLM 142200Z 05003KT CAVOK 30/24 A2978=
201506142300 METAR MRLM 142300Z 03005KT CAVOK 29/23 A2980=
201506150000 METAR MRLM 150000Z 00000KT CAVOK 28/24 A2979=
201506150100 METAR MRLM NIL=
201506150200 METAR MRLM NIL=
201506150300 METAR MRLM NIL=
201506150400 METAR MRLM NIL=
201506150500 METAR MRLM NIL=
201506150600 METAR MRLM NIL=
201506150700 METAR MRLM NIL=
201506150800 METAR MRLM NIL=
201506150900 METAR MRLM NIL=
201506151000 METAR MRLM NIL=
201506151100 METAR MRLM NIL=
201506151200 METAR MRLM 151200Z 00000KT CAVOK 24/23 A2981=
201506151300 METAR MRLM 151300Z 00000KT CAVOK 27/24 A2983=
201506151400 METAR MRLM 151400Z 00000KT CAVOK 28/23 A2984=
201506151500 METAR MRLM 151500Z 08005KT 9999 SCT025 BKN130 28/23 A2985=
201506151600 METAR MRLM 151600Z 02004KT 9999 FEW030 BKN130 29/24 A2984=
201506151700 METAR MRLM 151700Z 04008KT 9999 SCT020 BKN120 28/24 A2985=
201506151800 METAR MRLM 151800Z 06008KT 9999 BKN015 27/24 A2984=
201506151900 METAR MRLM 151900Z 08002KT 9999 FEW020 BKN130 28/24 A2982=
201506152000 METAR MRLM 152000Z 08002KT CAVOK 28/24 A2980=
201506152100 METAR MRLM NIL=
201506152200 METAR MRLM NIL=
201506152300 METAR MRLM NIL=
201506160000 METAR MRLM NIL=
201506160100 METAR MRLM NIL=
201506160200 METAR MRLM NIL=
201506160300 METAR MRLM NIL=
201506160400 METAR MRLM NIL=
201506160500 METAR MRLM NIL=
201506160600 METAR MRLM NIL=
201506160700 METAR MRLM NIL=
201506160800 METAR MRLM NIL=
201506160900 METAR MRLM NIL=
201506161000 METAR MRLM NIL=
201506161100 METAR MRLM NIL=
201506161200 METAR MRLM 161200Z 00000KT 9999 DZ BKN010 25/24 A2980=
201506161300 METAR MRLM 161300Z 00000KT 9999 BKN010 25/24 A2982 REDZ=
201506161400 METAR MRLM 161400Z 16003KT 9999 5000N DZ VCTS OVC010 25/24 A2984=
201506161500 METAR MRLM 161500Z 00000KT 5000 DZ VCTS BKN010 25/24 A2985=
201506161600 METAR MRLM 161600Z 27002KT 9999 BKN010 26/24 A2985 REDZ=
201506161700 METAR MRLM 161700Z 00000KT 8000 DZ BKN0015 27/24 A2985=
201506161800 METAR MRLM 161800Z 00000KT 9999 BKN020 29/25 A2984=
201506161900 METAR MRLM 161900Z 09003KT 9999 BKN020 SCT110 29/25 A2982=
201506162000 METAR MRLM 162000Z 02006KT 8000 TSDZ FEW010CB BKN015 28/25 A2981=
201506162100 METAR MRLM NIL=
201506162200 METAR MRLM NIL=
201506162300 METAR MRLM NIL=
201506170000 METAR MRLM NIL=
201506170100 METAR MRLM NIL=
201506170200 METAR MRLM NIL=
201506170300 METAR MRLM NIL=
201506170400 METAR MRLM NIL=
201506170700 METAR MRLM NIL=
201506170800 METAR MRLM NIL=
201506171000 METAR MRLM NIL=
201506171100 METAR MRLM NIL=
201506171200 METAR MRLM 171200Z 11011KT 9999 BKN010 28/25 A2980=
201506171300 METAR MRLM 171300Z 06012KT 9999 BKN020 28/25 A2982=
201506171400 METAR MRLM 171400Z 06012KT 9999 BKN020 28/25 A2984=
201506171500 METAR MRLM 171500Z 04011KT 9999 DZ BKN020 28/25 A2985=
201506171600 METAR MRLM 171600Z 07009KT 9999 BKN020 28/25 A2986 REDZ=
201506171700 METAR MRLM 171700Z 09005KT 9999 BKN020 SCT130 29/26 A2985=
201506171800 METAR MRLM 171800Z 10005KT 9999 BKN020 30/25 A2984=
201506171815 METAR MRLM 171815Z 08007KT 7000 +DZ OVC010 28/25 A2982=
201506171900 METAR MRLM 171900Z 15005KT 9999 SCT020 SCT120 28/25 A2980 REDZ=
201506172000 METAR MRLM 172000Z 24005KT 9999 SCT020 SCT130 28/24 A2978=
201506172100 METAR MRLM NIL=
201506172200 METAR MRLM NIL=
201506172300 METAR MRLM NIL=
201506180000 METAR MRLM NIL=
201506180100 METAR MRLM NIL=
201506180200 METAR MRLM NIL=
201506180300 METAR MRLM NIL=
201506180400 METAR MRLM NIL=
201506180500 METAR MRLM NIL=
201506180600 METAR MRLM NIL=
201506180700 METAR MRLM NIL=
201506180800 METAR MRLM NIL=
201506180900 METAR MRLM NIL=
201506181000 METAR MRLM NIL=
201506181100 METAR MRLM NIL=
201506181200 METAR MRLM 181200Z 25003KT CAVOK 25/24 A2981=
201506181300 METAR MRLM 181300Z 26003KT CAVOK 26/24 A2981=
201506181400 METAR MRLM 181400Z 27002KT CAVOK 29/24 A2980=
201506181500 METAR MRLM 181500Z 07004KT 9999 FEW020 SCT140 30/25 A2982=
201506181600 METAR MRLM 181600Z 07004KT 9999 FEW030 SCT140 SCT260 30/25 A2981=
201506181700 METAR MRLM 181700Z 05006KT 9999 FEW030 BKN250 31/25 A2979=
201506181800 METAR MRLM 181800Z 03009KT 9999 SCT025 BKN130 30/25 A2980=
201506181900 METAR MRLM 181900Z 04010KT 9999 BKN010 28/25 A2980=
201506182000 METAR MRLM 182000Z 04010KT 9999 FEW020 BKN130 27/24 A2979=
201506182100 METAR MRLM NIL=
201506182200 METAR MRLM NIL=
201506182300 METAR MRLM NIL=
201506190000 METAR MRLM NIL=
201506190100 METAR MRLM NIL=
201506190200 METAR MRLM NIL=
201506190300 METAR MRLM NIL=
201506190400 METAR MRLM NIL=
201506190500 METAR MRLM NIL=
201506190600 METAR MRLM NIL=
201506190700 METAR MRLM NIL=
201506190800 METAR MRLM NIL=
201506190900 METAR MRLM NIL=
201506191000 METAR MRLM NIL=
201506191100 METAR MRLM NIL=
201506191200 METAR MRLM 191200Z 26005KT 9999 FEW010 SCT110 SCT200 24/23 A2983=
201506191300 METAR MRLM 191300Z 26004KT 9999 FEW010 SCT120 SCT200 24/23 A2983=
201506191400 METAR MRLM 191400Z 25004KT 9999 SCT010 SCT120 26/25 A2983=
201506191500 METAR MRLM 191500Z 24003KT 9999 SCT020 BKN130 28/24 A2985=
201506191600 METAR MRLM 191600Z 05008KT 9999 5000N DZ BKN010 28/25 A2984=
201506191700 METAR MRLM 191700Z 05005KT 9999 DZ BKN010 27/24 A2983=
201506191800 METAR MRLM 191800Z 05004KT 9999 BKN015 SCT130 29/25 A2982 REDZ=
201506191900 METAR MRLM 191900Z 05004KT 9999 FEW020 BKN130 29/24 A2980=
201506192000 METAR MRLM 192000Z 08005KT CAVOK 30/25 A2978=
201506192100 METAR MRLM 192100Z 07005KT 9999 FEW030 BKN250 30/25 A2977=
201506192200 METAR MRLM 192200Z 06005KT 9999 FEW030 SCT140 SCT250 29/25 A2977=
201506192300 METAR MRLM 192300Z 07008KT 9999 SCT020 SCT130 29/25 A2977=
201506200000 METAR MRLM 200000Z 04006KT 9999 BKN015 28/25 A2979=
201506200100 METAR MRLM NIL=
201506200200 METAR MRLM NIL=
201506200300 METAR MRLM NIL=
201506200400 METAR MRLM NIL=
201506200500 METAR MRLM NIL=
201506200600 METAR MRLM NIL=
201506200700 METAR MRLM NIL=
201506200800 METAR MRLM NIL=
201506200900 METAR MRLM NIL=
201506201000 METAR MRLM NIL=
201506201100 METAR MRLM NIL=
201506201200 METAR MRLM NIL=
201506201300 METAR MRLM NIL=
201506201400 METAR MRLM NIL=
201506201500 METAR MRLM NIL=
201506201600 METAR MRLM NIL=
201506201700 METAR MRLM NIL=
201506201800 METAR MRLM NIL=
201506201900 METAR MRLM NIL=
201506202000 METAR MRLM NIL=
201506202100 METAR MRLM NIL=
201506202200 METAR MRLM NIL=
201506202300 METAR MRLM NIL=
201506210000 METAR MRLM NIL=
201506210100 METAR MRLM NIL=
201506210200 METAR MRLM NIL=
201506210300 METAR MRLM NIL=
201506210400 METAR MRLM NIL=
201506210500 METAR MRLM NIL=
201506210600 METAR MRLM NIL=
201506210700 METAR MRLM NIL=
201506210800 METAR MRLM NIL=
201506210900 METAR MRLM NIL=
201506211000 METAR MRLM NIL=
201506211100 METAR MRLM NIL=
201506211200 METAR MRLM 211200Z 25006KT 9999 -DZ BKN010 23/22 A2986=
201506211300 METAR MRLM 211300Z 24007KT 9999 BKN007 24/23 A2986=
201506211400 METAR MRLM 211400Z 06007KT 3000 TSRA FEW007CB OVC010 24/23 A2989=
201506211500 METAR MRLM 211500Z 25004KT 8000 DZ VCTS BKN007 24/23 A2989 RERA=
201506211600 METAR MRLM 211600Z 00000KT 8000 DZ SCT007 SCT110 24/23 A2991=
201506211700 METAR MRLM 211700Z 24002KT 8000 3000 N DZ FEW006 BKN010 24/24 A2991=
201506211800 METAR MRLM 211800Z 32002KT 8000 DZ FEW006 BKN010 25/24 A2990=
201506211900 METAR MRLM 211900Z 01005KT 9999 -DZ BKN010 SCT100 25/24 A2988=
201506212000 METAR MRLM 212000Z 31004KT 9999 BKN010 SCT110 27/24 A2987=
201506212100 METAR MRLM 212100Z 34005KT 8000 +DZ BKN010 25/24 A2980=
201506212200 METAR MRLM 212200Z 32005KT 9999 BKN010 26/24 A2986 REDZ=
201506212300 METAR MRLM 212300Z 32005KT 9999 OVC008 25/23 A2987=
201506212320 METAR MRLM 212320Z 33006KT 4000 +DZ OVC008 25/23 A2988=
201506220000 METAR MRLM 220000Z 33006KT 4000 /DZVCTS OVC007 24/23 A2991=
201506220100 METAR MRLM NIL=
201506220200 METAR MRLM NIL=
201506220300 METAR MRLM NIL=
201506220400 METAR MRLM NIL=
201506220500 METAR MRLM NIL=
201506220600 METAR MRLM NIL=
201506220700 METAR MRLM NIL=
201506220800 METAR MRLM NIL=
201506220900 METAR MRLM NIL=
201506221000 METAR MRLM NIL=
201506221100 METAR MRLM NIL=
201506221200 METAR MRLM 221200Z 28005KT 9999 5000N DZ BKN007 24/23 A2986=
201506221300 METAR MRLM 221300Z 30004KT 3000 +RA OVC007 24/23 A2988=
201506221400 METAR MRLM 221400Z 27005KT 4000 RAVCTS BKN008 24/23 A2989=
201506221500 METAR MRLM 221500Z 27004KT 5000 RAVCTS BKN007 24/23 A2989=
201506221600 METAR MRLM 221600Z 00000KT 4000 RAVCTS OVC007 24/23 A2990=
201506221700 METAR MRLM 221700Z 29002KT 5000 /DZVCTS BKN010 24/23 A2991 RERA=
201506221800 METAR MRLM 221800Z 00000KT 7000 DZ BKN010 24/23 A2992 RETS=
201506221900 METAR MRLM 221900Z 00000KT 9999 DZ BKN010 24/23 A2991=
201506222000 METAR MRLM 222000Z 00000KT 9999 5000N DZ BKN010 SCT100 24/23 A2989=
201506222100 METAR MRLM NIL=
201506222200 METAR MRLM NIL=
201506222300 METAR MRLM NIL=
201506230000 METAR MRLM NIL=
201506230100 METAR MRLM NIL=
201506230200 METAR MRLM NIL=
201506230300 METAR MRLM NIL=
201506230400 METAR MRLM NIL=
201506230500 METAR MRLM NIL=
201506230600 METAR MRLM NIL=
201506230700 METAR MRLM NIL=
201506230800 METAR MRLM NIL=
201506230900 METAR MRLM NIL=
201506231000 METAR MRLM NIL=
201506231100 METAR MRLM NIL=
201506231200 METAR MRLM 231200Z 27004KT 9999 VCTS SCT010 SCT110 24/23 A2985=
201506231300 METAR MRLM 231300Z 27004KT 9999 VCTS BKN010 24/23 A2987=
201506231400 METAR MRLM 231400Z 33005KT 9999 VCTS BKN010 25/23 A2988=
201506231500 METAR MRLM 231500Z 31004KT 9999 5000N TSDZ FEW007CB BKN010 25/24 A2990=
201506231600 METAR MRLM 231600Z 00000KT 9999 -DZ BKN010 25/24 A2991 RETS=
201506231700 METAR MRLM 231700Z 30005KT 9999 DZ BKN015 26/24 A2990=
201506231800 METAR MRLM 231800Z 29004KT 9999 BKN015 26/24 A2989=
201506231900 METAR MRLM 231900Z 28005KT 9999 FEW020 BKN130 28/25 A2985=
201506232000 METAR MRLM 232000Z 06003KT 9999 SCT030 SCT250 30/24 A2983=
201506232100 METAR MRLM NIL=
201506232200 METAR MRLM NIL=
201506232300 METAR MRLM NIL=
201506240000 METAR MRLM NIL=
201506240100 METAR MRLM NIL=
201506240200 METAR MRLM NIL=
201506240300 METAR MRLM NIL=
201506240400 METAR MRLM NIL=
201506240500 METAR MRLM NIL=
201506240600 METAR MRLM NIL=
201506240700 METAR MRLM NIL=
201506240800 METAR MRLM NIL=
201506240900 METAR MRLM NIL=
201506241000 METAR MRLM NIL=
201506241100 METAR MRLM NIL=
201506241200 METAR MRLM 241200Z 00000KT CAVOK 24/23 A2985=
201506241300 METAR MRLM 241300Z 28002KT CAVOK 25/24 A2986=
201506241400 METAR MRLM 241400Z 00000KT CAVOK 27/24 A2986=
201506241500 METAR MRLM 241500Z 07003KT 9999 FEW020 29/25 A2986=
201506241600 METAR MRLM 241600Z 05006KT 9999 FEW025 SCT140 30/25 A2986=
201506241700 METAR MRLM 241700Z 07004KT CAVOK 29/25 A2985=
201506241800 METAR MRLM 241800Z 06005KT 9999 FEW030 SCT130 30/25 A2984=
201506241900 METAR MRLM 241900Z 05005KT 9999 FEW025 30/25 A2982=
201506242000 METAR MRLM 242000Z 05006KT 9999 FEW025 30/25 A2980=
201506242100 METAR MRLM NIL=
201506242200 METAR MRLM NIL=
201506242300 METAR MRLM NIL=
201506250000 METAR MRLM NIL=
201506250100 METAR MRLM NIL=
201506250200 METAR MRLM NIL=
201506250300 METAR MRLM NIL=
201506250400 METAR MRLM NIL=
201506250500 METAR MRLM NIL=
201506250600 METAR MRLM NIL=
201506250700 METAR MRLM NIL=
201506250800 METAR MRLM NIL=
201506250900 METAR MRLM NIL=
201506251000 METAR MRLM NIL=
201506251100 METAR MRLM NIL=
201506251200 METAR MRLM 251200Z 08008KT 9999 BKN015 28/25 A2985=
201506251300 METAR MRLM 251300Z 08008KT 9999 BKN020 29/25 A2986=
201506251400 METAR MRLM 251400Z 09008KT 9999 BKN020 29/25 A2988=
201506251500 METAR MRLM 251500Z 09005KT 9999 BKN020 30/25 A2988=
201506251600 METAR MRLM 251600Z 11005KT 9999 BKN020 29/25 A2988=
201506251620 METAR MRLM 251620Z 11010KT 8000 DZ OVC015 28/25 A2987=
201506251700 METAR MRLM 251700Z 14006KT 9999 BKN015 29/26 A2986 REDZ=
201506251800 METAR MRLM 251800Z 09006KT 9999 BKN015 29/26 A2985=
201506251900 METAR MRLM 251900Z 09006KT 9999 BKN020 SCT250 29/26 A2982=
201506252000 METAR MRLM 252000Z 07006KT 9999 SCT020 BKN250 30/25 A2980=
201506252100 METAR MRLM NIL=
201506252200 METAR MRLM NIL=
201506252300 METAR MRLM NIL=
201506260000 METAR MRLM NIL=
201506260100 METAR MRLM NIL=
201506260200 METAR MRLM NIL=
201506260300 METAR MRLM NIL=
201506260400 METAR MRLM NIL=
201506260500 METAR MRLM NIL=
201506260600 METAR MRLM NIL=
201506260700 METAR MRLM NIL=
201506260800 METAR MRLM NIL=
201506260900 METAR MRLM NIL=
201506261000 METAR MRLM NIL=
201506261100 METAR MRLM NIL=
201506261200 METAR MRLM 261200Z 34006KT 5000 DZ OVC007 25/23 A2987=
201506261300 METAR MRLM 261300Z 19004KT 9999 DZ BKN007 25/24 A2987=
201506261400 METAR MRLM 261400Z 25004KT 9999 BKN007 25/24 A2988 REDZ=
201506261500 METAR MRLM 261500Z 25004KT 9999 BKN010 28/26 A2988=
201506261600 METAR MRLM 261600Z 12002KT 9999 BKN020 29/25 A2988=
201506261700 METAR MRLM 261700Z 08004KT 9999 DZ BKN015 28/25 A2987=
201506261800 METAR MRLM 261800Z 11002KT 9999 BKN015 29/25 A2985=
201506261900 METAR MRLM 261900Z 06010KT 9999 DZ OVC015 29/26 A2983=
201506262000 METAR MRLM 262000Z 07014KT 9999 5000SE TSRA SCT010CB BKN020 29/25 A2981=
201506262100 METAR MRLM 262100Z 10011KT 9999 DZ BKN010 28/25 A2982 RETS=
201506262200 METAR MRLM 262200Z 09010KT 9999 DZ BKN010 28/25 A2983=
201506262300 METAR MRLM 262300Z 06007KT 9999 BKN010 28/25 A2984=
201506270000 METAR MRLM 270000Z 08007KT 8000 DZ OVC007 28/25 A2985=
201506270100 METAR MRLM NIL=
201506270200 METAR MRLM NIL=
201506270300 METAR MRLM NIL=
201506270400 METAR MRLM NIL=
201506270500 METAR MRLM NIL=
201506270600 METAR MRLM NIL=
201506270700 METAR MRLM NIL=
201506270800 METAR MRLM NIL=
201506270900 METAR MRLM NIL=
201506271000 METAR MRLM NIL=
201506271100 METAR MRLM NIL=
201506271200 METAR MRLM NIL=
201506271300 METAR MRLM NIL=
201506271400 METAR MRLM NIL=
201506271500 METAR MRLM NIL=
201506271600 METAR MRLM NIL=
201506271700 METAR MRLM NIL=
201506271800 METAR MRLM NIL=
201506271900 METAR MRLM NIL=
201506272000 METAR MRLM NIL=
201506272100 METAR MRLM NIL=
201506272200 METAR MRLM NIL=
201506272300 METAR MRLM NIL=
201506280000 METAR MRLM NIL=
201506280100 METAR MRLM NIL=
201506280200 METAR MRLM NIL=
201506280300 METAR MRLM NIL=
201506280400 METAR MRLM NIL=
201506280500 METAR MRLM NIL=
201506280600 METAR MRLM NIL=
201506280700 METAR MRLM NIL=
201506280800 METAR MRLM NIL=
201506280900 METAR MRLM NIL=
201506281000 METAR MRLM NIL=
201506281100 METAR MRLM NIL=
201506281200 METAR MRLM 281200Z 27002KT 9999 BKN010 25/24 A2987=
201506281300 METAR MRLM 281300Z 27003KT 9999 SCT010 BKN240 26/25 A2987=
201506281400 METAR MRLM 281400Z 27002KT 9999 FEW015 BKN250 28/25 A2989=
201506281500 METAR MRLM 281500Z 26002KT 9999 FEW020 SCT130 SCT250 29/25 A2990=
201506281600 METAR MRLM 281600Z 07007KT 9999 FEW020 SCT140 SCT250 29/25 A2990=
201506281700 METAR MRLM 281700Z 05002KT 9999 SCT015 BKN130 27/25 A2988=
201506281800 METAR MRLM 281800Z 07002KT CAVOK 28/24 A2985=
201506281900 METAR MRLM 281900Z 09002KT CAVOK 29/25 A2983=
201506282000 METAR MRLM 282000Z 06004KT CAVOK 29/24 A2982=
201506282100 METAR MRLM 282100Z 03006KT CAVOK 29/24 A2980=
201506282200 METAR MRLM 282200Z 05004KT 9999 FEW025 OVC250 29/24 A2981=
201506282300 METAR MRLM 282300Z 02004KT CAVOK 29/24 A2982=
201506290000 METAR MRLM 290000Z 00000KT CAVOK 28/25 A2984=
201506290100 METAR MRLM NIL=
201506290200 METAR MRLM NIL=
201506290300 METAR MRLM NIL=
201506290400 METAR MRLM NIL=
201506290500 METAR MRLM NIL=
201506290600 METAR MRLM NIL=
201506290700 METAR MRLM NIL=
201506290800 METAR MRLM NIL=
201506290900 METAR MRLM NIL=
201506291000 METAR MRLM NIL=
201506291100 METAR MRLM NIL=
201506291200 METAR MRLM 291200Z 28005KT 9999 -DZ OVC010 24/23 A2988=
201506291300 METAR MRLM 291300Z 25003KT 8000 DZ BKN010 24/23 A2989=
201506291400 METAR MRLM 291400Z 21004KT 9999 -DZ SCT015 SCT130 25/25 A2990=
201506291500 METAR MRLM 291500Z 21003KT CAVOK 28/25 A2990=
201506291600 METAR MRLM 291600Z 10002KT CAVOK 29/24 A2990=
201506291700 METAR MRLM 291700Z 13005KT CAVOK 29/25 A2989=
201506291800 METAR MRLM 291800Z 09004KT 9999 FEW030 BKN130 29/24 A2987=
201506291900 METAR MRLM 291900Z 07004KT CAVOK 29/24 A2986=
201506292000 METAR MRLM 292000Z 06003KT CAVOK 29/24 A2984=
201506292100 METAR MRLM NIL=
201506292200 METAR MRLM NIL=
201506292300 METAR MRLM NIL=
201506300000 METAR MRLM NIL=
201506300100 METAR MRLM NIL=
201506300200 METAR MRLM NIL=
201506300300 METAR MRLM NIL=
201506300400 METAR MRLM NIL=
201506300500 METAR MRLM NIL=
201506300600 METAR MRLM NIL=
201506300700 METAR MRLM NIL=
201506300800 METAR MRLM NIL=
201506300900 METAR MRLM NIL=
201506301000 METAR MRLM NIL=
201506301100 METAR MRLM NIL=
201506301200 METAR MRLM 301200Z 03009KT 7000 -RAVCTS FEW007CB BKN010 25/23 A2991=
201506301300 METAR MRLM 301300Z 35004KT 7000 -RA BKN010 24/22 A2992 RETS=
201506301400 METAR MRLM 301400Z 31004KT 8000 /DZVCTS SCT010 SCT080 24/23 A2995=
201506301500 METAR MRLM 301500Z 00000KT 7000 DZ BKN010 24/23 A2998 RETS=
201506301600 METAR MRLM 301600Z 27004KT 9999 DZ BKN010 SCT080 24/23 A2996=
201506301700 METAR MRLM 301700Z 24003KT 6000 RA BKN007 25/23 A2996=
201506301800 METAR MRLM NIL=
201506301900 METAR MRLM 301900Z 23004KT 9999 BKN010 27/24 A2991 REDZ=
201506301930 METAR MRLM 301930Z 00000KT 6000 DZ OVC010 26/23 A2989=
201506302000 METAR MRLM 302000Z 05005KT 7000 2000N RAVCTS BKN008 26/23 A2989=
201506302100 METAR MRLM NIL=
201506302200 METAR MRLM NIL=
201506302300 METAR MRLM NIL=
201507010000 METAR MRLM NIL=
201507010100 METAR MRLM NIL=
201507010200 METAR MRLM NIL=
201507010300 METAR MRLM NIL=
201507010400 METAR MRLM NIL=
201507010500 METAR MRLM NIL=
201507010600 METAR MRLM NIL=
201507010700 METAR MRLM NIL=
201507010800 METAR MRLM NIL=
201507010900 METAR MRLM NIL=
201507011000 METAR MRLM NIL=
201507011100 METAR MRLM NIL=
201507011200 METAR MRLM 011200Z 26003KT 9999 BKN007 23/22 A2989=
201507011300 METAR MRLM 011300Z 26004KT 9999 BKN010 24/23 A2989=
201507011400 METAR MRLM 011400Z 26004KT 9999 BKN010 25/23 A2990=
201507011500 METAR MRLM 011500Z 24003KT 9999 SCT025 SCT130 28/23 A2991=
201507011600 METAR MRLM 011600Z 08003KT 9999 BKN030 SCT130 29/23 A2990=
201507011700 METAR MRLM 011700Z 05006KT 9999 FEW030 SCT140 30/24 A2989=
201507011800 METAR MRLM 011800Z 06005KT 9999 FEW030 BKN130 29/23 A2987=
201507011900 METAR MRLM 011900Z 04006KT 9999 FEW030 BKN130 30/23 A2985=
201507012000 METAR MRLM 012000Z 08010KT 9999 SCT025 BKN120 28/24 A2984=
201507012100 METAR MRLM NIL=
201507012200 METAR MRLM NIL=
201507012300 METAR MRLM NIL=
201507020000 METAR MRLM NIL=
201507020100 METAR MRLM NIL=
201507020200 METAR MRLM NIL=
201507020300 METAR MRLM NIL=
201507020400 METAR MRLM NIL=
201507020500 METAR MRLM NIL=
201507020600 METAR MRLM NIL=
201507020700 METAR MRLM NIL=
201507020800 METAR MRLM NIL=
201507020900 METAR MRLM NIL=
201507021000 METAR MRLM NIL=
201507021100 METAR MRLM NIL=
201507021200 METAR MRLM 021200Z 27003KT 9999 FEW010 BKN120 23/22 A2985=
201507021300 METAR MRLM 021300Z 00000KT 9999 FEW010 BKN120 23/22 A2986=
201507021400 METAR MRLM 021400Z 04010KT 9999 BKN010 26/24 A2988=
201507021500 METAR MRLM 021500Z 06004KT 9999 DZ BKN010 25/23 A2989=
201507021600 METAR MRLM 021600Z 28004KT 9999 SCT020 SCT120 27/23 A2987 REDZ=
201507021700 METAR MRLM 021700Z 25005KT 9999 FEW025 BKN130 28/23 A2986=
201507021800 METAR MRLM 021800Z 07003KT 9999 SCT030 SCT130 30/23 A2984=
201507021900 METAR MRLM 021900Z 03006KT 9999 FEW030 BKN130 29/24 A2981=
201507022000 METAR MRLM 022000Z 04006KT 9999 FEW030 BKN130 30/24 A2979=
201507022100 METAR MRLM NIL=
201507022200 METAR MRLM NIL=
201507022300 METAR MRLM NIL=
201507030000 METAR MRLM NIL=
201507030100 METAR MRLM NIL=
201507030200 METAR MRLM NIL=
201507030300 METAR MRLM NIL=
201507030400 METAR MRLM NIL=
201507030500 METAR MRLM NIL=
201507030600 METAR MRLM NIL=
201507030700 METAR MRLM NIL=
201507030800 METAR MRLM NIL=
201507030900 METAR MRLM NIL=
201507031000 METAR MRLM NIL=
201507031100 METAR MRLM NIL=
201507031200 METAR MRLM 031200Z 07013KT 9999 SCT015 SCT120 28/25 A2982=
201507031300 METAR MRLM 031300Z 07010KT 9999 BKN010 27/25 A2982=
201507031400 METAR MRLM 031400Z 06006KT 9999 DZ BKN010 27/25 A2982=
201507031500 METAR MRLM 031500Z 08013KT 9999 BKN020 SCT130 28/25 A2983 REDZ=
201507031600 METAR MRLM 031600Z 08013KT 9999 SCT020 SCT140 29/25 A2982=
201507031700 METAR MRLM 031700Z 09011KT 9999 FEW020 SCT140 29/25 A2982=
201507031800 METAR MRLM 031800Z 09013KT 9999 BKN020 29/25 A2981=
201507031900 METAR MRLM 031900Z 08013KT 9999 BKN025 29/24 A2979=
201507032000 METAR MRLM 032000Z 09011KT 9999 BKN025 30/25 A2978=
201507032100 METAR MRLM 032100Z 08012KT 9999 SCT025 29/24 A2977=
201507032200 METAR MRLM 032200Z 07011KT 9999 SCT025 29/24 A2977=
201507032300 METAR MRLM 032300Z 07011KT 9999 SCT020 SCT130 29/24 A2978=
201507040000 METAR MRLM 040000Z 07008KT 9999 BKN015 28/25 A2980=
201507040100 METAR MRLM NIL=
201507040200 METAR MRLM NIL=
201507040300 METAR MRLM NIL=
201507040400 METAR MRLM NIL=
201507040500 METAR MRLM NIL=
201507040600 METAR MRLM NIL=
201507040700 METAR MRLM NIL=
201507040800 METAR MRLM NIL=
201507040900 METAR MRLM NIL=
201507041000 METAR MRLM NIL=
201507041100 METAR MRLM NIL=
201507041200 METAR MRLM NIL=
201507041300 METAR MRLM NIL=
201507041400 METAR MRLM NIL=
201507041500 METAR MRLM NIL=
201507041600 METAR MRLM NIL=
201507041700 METAR MRLM NIL=
201507041800 METAR MRLM NIL=
201507041900 METAR MRLM NIL=
201507042000 METAR MRLM NIL=
201507042100 METAR MRLM NIL=
201507042200 METAR MRLM NIL=
201507042300 METAR MRLM NIL=
201507050000 METAR MRLM NIL=
201507050100 METAR MRLM NIL=
201507050200 METAR MRLM NIL=
201507050300 METAR MRLM NIL=
201507050400 METAR MRLM NIL=
201507050500 METAR MRLM NIL=
201507050600 METAR MRLM NIL=
201507050700 METAR MRLM NIL=
201507050800 METAR MRLM NIL=
201507050900 METAR MRLM NIL=
201507051000 METAR MRLM NIL=
201507051100 METAR MRLM NIL=
201507051200 METAR MRLM 051200Z 25004KT 9999 BKN007 SCT110 24/23 A2987=
201507051300 METAR MRLM 051300Z 26003KT 9999 BKN010 SCT110 25/24 A2988=
201507051400 METAR MRLM 051400Z 01003KT 9999 SCT015 SCT120 26/24 A2989=
201507051500 METAR MRLM 051500Z 27003KT 9999 SCT020 BKN130 28/24 A2990=
201507051600 METAR MRLM 051600Z 00000KT 9999 BKN020 SCT130 29/24 A2990=
201507051700 METAR MRLM 051700Z 03007KT 9999 BKN020 29/25 A2989=
201507051800 METAR MRLM 051800Z 02008KT 9999 SCT020 SCT130 30/25 A2988=
201507051900 METAR MRLM 051900Z 05006KT 9999 FEW020 BKN130 29/24 A2986=
201507052000 METAR MRLM 052000Z 05006KT 9999 FEW020 BKN130 29/25 A2985=
201507052100 METAR MRLM 052100Z 06004KT 9999 SCT020 BKN130 28/25 A2984=
201507052200 METAR MRLM 052200Z 08007KT 9999 BKN015 29/25 A2984=
201507052300 METAR MRLM 052300Z 07008KT 9999 SCT020 SCT200 28/25 A2984=
201507060000 METAR MRLM 060000Z 07007KT 9999 BKN010 28/24 A2986=
201507060100 METAR MRLM NIL=
201507060200 METAR MRLM NIL=
201507060300 METAR MRLM NIL=
201507060400 METAR MRLM NIL=
201507060500 METAR MRLM NIL=
201507060600 METAR MRLM NIL=
201507060700 METAR MRLM NIL=
201507060800 METAR MRLM NIL=
201507060900 METAR MRLM NIL=
201507061000 METAR MRLM NIL=
201507061100 METAR MRLM NIL=
201507061200 METAR MRLM 061200Z 07014KT 9999 BKN015 28/24 A2987=
201507061300 METAR MRLM 061300Z 08014KT 9999 BKN015 28/24 A2987=
201507061400 METAR MRLM 061400Z 07013KT 9999 DZ BKN010 27/25 A2988=
201507061500 METAR MRLM 061500Z 07015KT 9999 BKN020 SCT130 28/25 A2989 REDZ=
201507061600 METAR MRLM 061600Z 07013KT 9999 BKN020 SCT120 28/25 A2990=
201507061700 METAR MRLM 061700Z 06010KT 9999 BKN020 SCT120 28/25 A2990=
201507061800 METAR MRLM 061800Z 07013KT 9999 SCT020 BKN130 29/25 A2988=
201507061900 METAR MRLM 061900Z 07013KT 9999 SCT020 BKN130 29/24 A2987=
201507062000 METAR MRLM 062000Z 06012KT 9999 SCT020 BKN130 29/24 A2987=
201507062100 METAR MRLM NIL=
201507062200 METAR MRLM NIL=
201507062300 METAR MRLM NIL=
201507070000 METAR MRLM NIL=
201507070100 METAR MRLM NIL=
201507070200 METAR MRLM NIL=
201507070300 METAR MRLM NIL=
201507070400 METAR MRLM NIL=
201507070500 METAR MRLM NIL=
201507070600 METAR MRLM NIL=
201507070700 METAR MRLM NIL=
201507070800 METAR MRLM NIL=
201507070900 METAR MRLM NIL=
201507071000 METAR MRLM NIL=
201507071100 METAR MRLM NIL=
201507071200 METAR MRLM 071200Z 23005KT 2000 RA VCTS OVC007 22/22 A2990=
201507071300 METAR MRLM 071300Z 28002KT 2000 DZ VCTS OVC007 22/22 A2992 RERA=
201507071400 METAR MRLM 071400Z 27004KT 5000 +DZ BKN010 22/22 A2991 RETS=
201507071500 METAR MRLM 071500Z 32005KT CAVOK 23/22 A2988 REDZ=
201507071600 METAR MRLM 071600Z 31005KT CAVOK 24/23 A2986=
201507071700 METAR MRLM 071700Z 36007KT CAVOK 28/24 A2989=
201507071800 METAR MRLM 071800Z 33007KT 9999 FEW030 BKN130 28/23 A2989=
201507071900 METAR MRLM 071900Z 34005KT 9999 FEW030 BKN130 29/22 A2987=
201507072000 METAR MRLM 072000Z 02008KT 9999 FEW030 BKN140 28/24 A2986=
201507072100 METAR MRLM NIL=
201507072200 METAR MRLM NIL=
201507072300 METAR MRLM NIL=
201507080000 METAR MRLM NIL=
201507080100 METAR MRLM NIL=
201507080200 METAR MRLM NIL=
201507080300 METAR MRLM NIL=
201507080400 METAR MRLM NIL=
201507080500 METAR MRLM NIL=
201507080600 METAR MRLM NIL=
201507080700 METAR MRLM NIL=
201507080800 METAR MRLM NIL=
201507080900 METAR MRLM NIL=
201507081000 METAR MRLM NIL=
201507081100 METAR MRLM NIL=
201507081200 METAR MRLM 081200Z 30005KT 9999 DZ BKN010 SCT110 23/22 A2988=
201507081300 METAR MRLM 081300Z 29005KT 9999 DZ SCT010 SCT120 23/22 A2989=
201507081400 METAR MRLM 081400Z 26002KT 9999 SCT010 BKN120 24/23 A2989 REDZ=
201507081500 METAR MRLM 081500Z 31002KT 9999 FEW010 BKN120 25/23 A2990=
201507081600 METAR MRLM 081600Z 32004KT CAVOK 26/22 A2988=
201507081700 METAR MRLM 081700Z 33004KT 9999 SCT020 SCT130 28/23 A2988=
201507081800 METAR MRLM 081800Z 03004KT 9999 FEW030 BKN130 28/22 A2986=
201507081900 METAR MRLM 081900Z 05008KT 9999 FEW030 BKN140 28/23 A2985=
201507082000 METAR MRLM 082000Z 03008KT 9999 FEW025 BKN140 28/23 A2984=
201507082100 METAR MRLM NIL=
201507082200 METAR MRLM NIL=
201507082300 METAR MRLM NIL=
201507090000 METAR MRLM NIL=
201507090100 METAR MRLM NIL=
201507090200 METAR MRLM NIL=
201507090300 METAR MRLM NIL=
201507090400 METAR MRLM NIL=
201507090500 METAR MRLM NIL=
201507090600 METAR MRLM NIL=
201507090700 METAR MRLM NIL=
201507090800 METAR MRLM NIL=
201507090900 METAR MRLM NIL=
201507091000 METAR MRLM NIL=
201507091100 METAR MRLM NIL=
201507091200 METAR MRLM 091200Z 25003KT CAVOK 23/22 A2984=
201507091300 METAR MRLM 091300Z 24004KT CAVOK 24/23 A2986=
201507091400 METAR MRLM 091400Z 00000KT 9999 FEW015 BKN120 25/23 A2988=
201507091500 METAR MRLM 091500Z 07014KT 9999 BKN010 25/23 A2990=
201507091515 METAR MRLM 091515Z 07013KT 7000 DZ OVC010 25/24 A2990=
201507091600 METAR MRLM 091600Z 08009KT 9999 BKN010 SCT120 26/24 A2989 REDZ=
201507091700 METAR MRLM 091700Z 09002KT 9999 BKN020 SCT130 28/24 A2988=
201507091800 METAR MRLM 091800Z 06005KT 9999 FEW030 BKN130 28/24 A2986=
201507091900 METAR MRLM 091900Z 07005KT 9999 FEW020 BKN130 28/24 A2984=
201507092000 METAR MRLM 092000Z 06004KT CAVOK 28/23 A2981=
201507092100 METAR MRLM NIL=
201507092200 METAR MRLM NIL=
201507092300 METAR MRLM NIL=
201507100000 METAR MRLM NIL=
201507100100 METAR MRLM NIL=
201507100200 METAR MRLM NIL=
201507100300 METAR MRLM NIL=
201507100400 METAR MRLM NIL=
201507100500 METAR MRLM NIL=
201507100600 METAR MRLM NIL=
201507100700 METAR MRLM NIL=
201507100800 METAR MRLM NIL=
201507100900 METAR MRLM NIL=
201507101000 METAR MRLM NIL=
201507101100 METAR MRLM NIL=
201507101200 METAR MRLM 101200Z 25003KT 9999 FEW007 BKN120 23/22 A2984=
201507101300 METAR MRLM 101300Z 27003KT 9999 FEW010 BKN120 23/23 A2985=
201507101400 METAR MRLM 101400Z 28004KT CAVOK 25/23 A2986=
201507101500 METAR MRLM 101500Z 30005KT CAVOK 29/22 A2987=
201507101600 METAR MRLM 101600Z 34006KT 9999 FEW030 BKN130 29/22 A2987=
201507101700 METAR MRLM 101700Z 04005KT 9999 FEW030 BKN140 30/23 A2986=
201507101800 METAR MRLM 101800Z 02008KT 9999 SCT020 BKN130 29/24 A2986=
201507101900 METAR MRLM 101900Z 05007KT 9999 SCT020 SCT120 28/24 A2983=
201507101915 METAR MRLM 101915Z 07010KT 9999 6000N DZ OVC010 28/24 A2983=
201507101930 METAR MRLM 101930Z 07011KT 3000 RA OVC010 25/23 A2984=
201507102000 METAR MRLM 102000Z 08012KT 9999 DZ SCT015 SCT120 25/22 A2980 RERA=
201507102100 METAR MRLM 102100Z 24006KT 9999 SCT020 BKN120 26/22 A2980=
201507102200 METAR MRLM 102200Z 21003KT 9999 FEW020 BKN120 25/22 A2981=
201507102300 METAR MRLM 102300Z 30002KT 9999 FEW015 BKN120 25/22 A2982=
201507110000 METAR MRLM 110000Z 26003KT CAVOK 24/22 A2981=
201507110100 METAR MRLM NIL=
201507110200 METAR MRLM NIL=
201507110300 METAR MRLM NIL=
201507110400 METAR MRLM NIL=
201507110500 METAR MRLM NIL=
201507110600 METAR MRLM NIL=
201507110700 METAR MRLM NIL=
201507110800 METAR MRLM NIL=
201507110900 METAR MRLM NIL=
201507111000 METAR MRLM NIL=
201507111100 METAR MRLM NIL=
201507111200 METAR MRLM NIL=
201507111300 METAR MRLM NIL=
201507111400 METAR MRLM NIL=
201507111500 METAR MRLM NIL=
201507111600 METAR MRLM NIL=
201507111700 METAR MRLM NIL=
201507111800 METAR MRLM NIL=
201507111900 METAR MRLM NIL=
201507112000 METAR MRLM NIL=
201507112100 METAR MRLM NIL=
201507112200 METAR MRLM NIL=
201507112300 METAR MRLM NIL=
201507120000 METAR MRLM NIL=
201507120100 METAR MRLM NIL=
201507120200 METAR MRLM NIL=
201507120300 METAR MRLM NIL=
201507120400 METAR MRLM NIL=
201507120500 METAR MRLM NIL=
201507120600 METAR MRLM NIL=
201507120700 METAR MRLM NIL=
201507120800 METAR MRLM NIL=
201507120900 METAR MRLM NIL=
201507121000 METAR MRLM NIL=
201507121100 METAR MRLM NIL=
201507121200 METAR MRLM 121200Z 31002KT 3000 +RA OVC007 23/22 A2996=
201507121300 METAR MRLM 121300Z 26006KT 5000 +DZ BKN007 SCT080 23/22 A2995=
201507121400 METAR MRLM 121400Z 27003KT 9999 DZ SCT010 SCT100 23/22 A2996=
201507121500 METAR MRLM 121500Z 29004KT 9999 -DZ BKN010 SCT100 25/23 A2997=
201507121600 METAR MRLM 121600Z 27003KT 9999 SCT015 BKN120 26/24 A2996=
201507121700 METAR MRLM 121700Z 23003KT 9999 SCT015 SCT120 27/24 A2995=
201507121800 METAR MRLM 121800Z 27003KT 9999 VCRA BKN020 SCT120 28/23 A2993=
201507121820 METAR MRLM 121820Z 34006G16KT 3000 +RA OVC015 26/23 A2993=
201507121900 METAR MRLM 121900Z 27003KT 9999 BKN010 24/23 A2991 RERA=
201507122000 METAR MRLM 122000Z 28004KT 9999 DZ BKN010 26/24 A2989=
201507122100 METAR MRLM 122100Z 28002KT 9999 BKN010 25/23 A2988 REDZ=
201507122200 METAR MRLM 122200Z 30004KT 9999 SCT010 BKN110 25/23 A2987=
201507122300 METAR MRLM 122300Z 31003KT 9999 BKN010 25/23 A2988=
201507130000 METAR MRLM 130000Z 34005KT 9999 OVC007 24/22 A2990=
201507130100 METAR MRLM NIL=
201507130200 METAR MRLM NIL=
201507130300 METAR MRLM NIL=
201507130400 METAR MRLM NIL=
201507130500 METAR MRLM NIL=
201507130600 METAR MRLM NIL=
201507130700 METAR MRLM NIL=
201507130800 METAR MRLM NIL=
201507130900 METAR MRLM NIL=
201507131000 METAR MRLM NIL=
201507131100 METAR MRLM NIL=
201507131200 METAR MRLM 131200Z 29003KT CAVOK 23/22 A2991=
201507131300 METAR MRLM 131300Z 30004KT 9999 FEW010 BKN110 23/22 A2993=
201507131400 METAR MRLM 131400Z 30003KT 9999 SCT010 BKN110 25/22 A2994=
201507131500 METAR MRLM 131500Z 29004KT 9999 FEW015 BKN110 26/23 A2994=
201507131600 METAR MRLM 131600Z 33003KT 9999 SCT030 SCT250 28/22 A2993=
201507131700 METAR MRLM 131700Z 03004KT 9999 FEW030 SCT140 SCT250 28/22 A2991=
201507131800 METAR MRLM 131800Z 07007KT CAVOK 28/22 A2989=
201507131900 METAR MRLM 131900Z 06008KT CAVOK 28/22 A2988=
201507132000 METAR MRLM 132000Z 06009KT CAVOK 28/23 A2980=
201507132100 METAR MRLM NIL=
201507132200 METAR MRLM NIL=
201507132300 METAR MRLM NIL=
201507140000 METAR MRLM NIL=
201507140100 METAR MRLM NIL=
201507140200 METAR MRLM NIL=
201507140300 METAR MRLM NIL=
201507140400 METAR MRLM NIL=
201507140500 METAR MRLM NIL=
201507140600 METAR MRLM NIL=
201507140700 METAR MRLM NIL=
201507140800 METAR MRLM NIL=
201507140900 METAR MRLM NIL=
201507141000 METAR MRLM NIL=
201507141100 METAR MRLM NIL=
201507141200 METAR MRLM 141200Z 27002KT 9999 BKN010 SCT100 24/23 A2990=
201507141300 METAR MRLM 141300Z 00000KT 9999 BKN010 SCT100 24/23 A2991=
201507141400 METAR MRLM 141400Z 26003KT CAVOK 25/23 A2991=
201507141500 METAR MRLM 141500Z 33003KT CAVOK 27/23 A2991=
201507141600 METAR MRLM 141600Z 05004KT CAVOK 29/23 A2991=
201507141700 METAR MRLM 141700Z 02010KT 9999 FEW035 SCT140 SCT260 30/22 A2991=
201507141800 METAR MRLM 141800Z 02011KT 9999 FEW040 BKN260 30/24 A2990=
201507141900 METAR MRLM 141900Z 02010KT CAVOK 30/23 A2987=
201507142000 METAR MRLM 142000Z 02011KT CAVOK 30/23 A2986=
201507142100 METAR MRLM NIL=
201507142200 METAR MRLM NIL=
201507142300 METAR MRLM NIL=
201507150000 METAR MRLM NIL=
201507150100 METAR MRLM NIL=
201507150200 METAR MRLM NIL=
201507150300 METAR MRLM NIL=
201507150400 METAR MRLM NIL=
201507150500 METAR MRLM NIL=
201507150600 METAR MRLM NIL=
201507150700 METAR MRLM NIL=
201507150800 METAR MRLM NIL=
201507150900 METAR MRLM NIL=
201507151000 METAR MRLM NIL=
201507151100 METAR MRLM NIL=
201507151200 METAR MRLM 151200Z 27004KT 9999 SCT010 SCT110 23/23 A2988=
201507151300 METAR MRLM 151300Z 24004KT 9999 FEW015 BKN110 24/23 A2990=
201507151400 METAR MRLM 151400Z 24002KT 9999 SCT015 SCT110 25/24 A2991=
201507151500 METAR MRLM 151500Z 23003KT 9999 SCT015 BKN120 26/24 A2994=
201507151600 METAR MRLM 151600Z 30003KT 9999 SCT020 SCT130 27/23 A2995=
201507151700 METAR MRLM 151700Z 31003KT 9999 BKN020 29/24 A2993=
201507151800 METAR MRLM 151800Z 05003KT 9999 SCT025 BKN130 29/23 A2992=
201507151900 METAR MRLM 151900Z 05007KT 9999 DZ BKN020 27/23 A2989=
201507152000 METAR MRLM 152000Z 07005KT 9999 -DZ FEW015 BKN120 26/24 A2987=
201507152100 METAR MRLM NIL=
201507152200 METAR MRLM NIL=
201507152300 METAR MRLM NIL=
201507160000 METAR MRLM NIL=
201507160100 METAR MRLM NIL=
201507160200 METAR MRLM NIL=
201507160300 METAR MRLM NIL=
201507160400 METAR MRLM NIL=
201507160500 METAR MRLM NIL=
201507160600 METAR MRLM NIL=
201507160700 METAR MRLM NIL=
201507160800 METAR MRLM NIL=
201507160900 METAR MRLM NIL=
201507161000 METAR MRLM NIL=
201507161100 METAR MRLM NIL=
201507161200 METAR MRLM 161200Z 25004KT CAVOK 22/21 A2987=
201507161300 METAR MRLM 161300Z 00000KT CAVOK 24/23 A2989=
201507161400 METAR MRLM 161400Z 27003KT CAVOK 26/23 A2989=
201507161500 METAR MRLM 161500Z 33003KT CAVOK 29/23 A2989=
201507161600 METAR MRLM 161600Z 36005KT CAVOK 29/22 A2990=
201507161700 METAR MRLM 161700Z 06006KT 9999 FEW030 OVC250 29/23 A2989=
201507161800 METAR MRLM 161800Z 04004KT 9999 FEW030 BKN130 29/23 A2988=
201507161900 METAR MRLM 161900Z 04006KT CAVOK 30/23 A2987=
201507162000 METAR MRLM 162000Z 04005KT 9999 FEW030 BKN250 30/23 A2984=
201507162100 METAR MRLM NIL=
201507162200 METAR MRLM NIL=
201507162300 METAR MRLM NIL=
201507170000 METAR MRLM NIL=
201507170100 METAR MRLM NIL=
201507170200 METAR MRLM NIL=
201507170300 METAR MRLM NIL=
201507170400 METAR MRLM NIL=
201507170500 METAR MRLM NIL=
201507170600 METAR MRLM NIL=
201507170700 METAR MRLM NIL=
201507170800 METAR MRLM NIL=
201507170900 METAR MRLM NIL=
201507171000 METAR MRLM NIL=
201507171100 METAR MRLM NIL=
201507171200 METAR MRLM 171200Z 08012KT 3000 TSRA FEW005CB OVC007 24/23 A2988=
201507171300 METAR MRLM 171300Z 22004KT 6000 DZ VCRA BKN007 24/23 A2990 RETS=
201507171400 METAR MRLM 171400Z 27003KT 9999 -DZ BKN007 24/23 A2992=
201507171500 METAR MRLM 171500Z 27004KT 9999 -DZ OVC007 24/23 A2993=
201507171600 METAR MRLM 171600Z 24005KT 9999 BKN010 25/24 A2993=
201507171700 METAR MRLM 171700Z 24008KT 9999 BKN010 26/23 A2991=
201507171800 METAR MRLM 171800Z 28003KT 9999 BKN020 28/23 A2989=
201507171900 METAR MRLM 171900Z 35005KT 9999 SCT030 SCT130 30/23 A2985=
201507172000 METAR MRLM 172000Z 02009KT 9999 FEW030 BKN240 29/23 A2983=
201507172100 METAR MRLM 172100Z 03008KT CAVOK 29/24 A2983=
201507172200 METAR MRLM 172200Z 03006KT CAVOK 28/23 A2983=
201507172300 METAR MRLM 172300Z 03004KT 9999 FEW020 SCT130 SCT240 28/23 A2984=
201507180000 METAR MRLM 180000Z 04005KT 9999 SCT015 SCT130 27/23 A2985=
201507180100 METAR MRLM NIL=
201507180200 METAR MRLM NIL=
201507180300 METAR MRLM NIL=
201507180400 METAR MRLM NIL=
201507180500 METAR MRLM NIL=
201507180600 METAR MRLM NIL=
201507180700 METAR MRLM NIL=
201507180800 METAR MRLM NIL=
201507180900 METAR MRLM NIL=
201507181000 METAR MRLM NIL=
201507181100 METAR MRLM NIL=
201507181200 METAR MRLM NIL=
201507181300 METAR MRLM NIL=
201507181400 METAR MRLM NIL=
201507181500 METAR MRLM NIL=
201507181600 METAR MRLM NIL=
201507181700 METAR MRLM NIL=
201507181800 METAR MRLM NIL=
201507181900 METAR MRLM NIL=
201507182000 METAR MRLM NIL=
201507182100 METAR MRLM NIL=
201507182200 METAR MRLM NIL=
201507182300 METAR MRLM NIL=
201507190000 METAR MRLM NIL=
201507190100 METAR MRLM NIL=
201507190200 METAR MRLM NIL=
201507190300 METAR MRLM NIL=
201507190400 METAR MRLM NIL=
201507190500 METAR MRLM NIL=
201507190600 METAR MRLM NIL=
201507190700 METAR MRLM NIL=
201507190800 METAR MRLM NIL=
201507190900 METAR MRLM NIL=
201507191000 METAR MRLM NIL=
201507191100 METAR MRLM NIL=
201507191200 METAR MRLM 191200Z 24003KT CAVOK 23/22 A2991=
201507191300 METAR MRLM 191300Z 00000KT CAVOK 25/23 A2991=
201507191400 METAR MRLM 191400Z 16003KT 9999 FEW015 BKN130 25/22 A2992=
201507191500 METAR MRLM 191500Z 05008KT 9999 BKN020 26/23 A2995=
201507191600 METAR MRLM 191600Z 00000KT 9999 SCT020 BKN130 27/23 A2995=
201507191700 METAR MRLM 191700Z 05004KT 9999 SCT025 BKN130 27/23 A2994=
201507191800 METAR MRLM 191800Z 03003KT 9999 FEW030 BKN140 30/22 A2993=
201507191900 METAR MRLM 191900Z 05004KT 9999 FEW030 BKN250 29/23 A2991=
201507192000 METAR MRLM 192000Z 06007KT 9999 SCT025 SCT250 29/24 A2990=
201507192100 METAR MRLM 192100Z 05007KT 9999 BKN020 SCT250 29/24 A2988=
201507192200 METAR MRLM 192200Z 02003KT 9999 SCT020 BKN130 27/23 A2987=
201507192300 METAR MRLM 192300Z 00000KT 9999 BKN015 27/23 A2990=
201507200000 METAR MRLM 200000Z 30002KT 9999 OVC0010 26/23 A2991=
201507200100 METAR MRLM NIL=
201507200200 METAR MRLM NIL=
201507200300 METAR MRLM NIL=
201507200400 METAR MRLM NIL=
201507200500 METAR MRLM NIL=
201507200600 METAR MRLM NIL=
201507200700 METAR MRLM NIL=
201507200800 METAR MRLM NIL=
201507200900 METAR MRLM NIL=
201507201000 METAR MRLM NIL=
201507201100 METAR MRLM NIL=
201507201200 METAR MRLM 201200Z 00000KT 9999 DZ BKN010 SCT100 23/23 A2994=
201507201300 METAR MRLM 201300Z 23005KT 9999 BKN010 24/23 A2994=
201507201400 METAR MRLM 201400Z 00000KT 9999 BKN007 24/23 A2997=
201507201410 METAR MRLM 201410Z 00000KT 5000 RA OVC007 24/23 A2997=
201507201500 METAR MRLM 201500Z 00000KT 5000 RA OVC007 24/23 A2997=
201507201600 METAR MRLM 201600Z 26003KT 9999 BKN0015 SCT110 25/22 A2997 REDZ=
201507201700 METAR MRLM 201700Z 26005KT 9999 BKN020 SCT120 26/22 A2996=
201507201800 METAR MRLM 201800Z 25005KT 9999 SCT030 BKN130 27/21 A2996=
201507201900 METAR MRLM 201900Z 09002KT 9999 SCT035 BKN240 29/22 A2993=
201507202000 METAR MRLM 202000Z 04003KT 9999 FEW040 SCT240 29/21 A2990=
201507202100 METAR MRLM NIL=
201507202200 METAR MRLM NIL=
201507202300 METAR MRLM NIL=
201507210000 METAR MRLM NIL=
201507210100 METAR MRLM NIL=
201507210200 METAR MRLM NIL=
201507210300 METAR MRLM NIL=
201507210400 METAR MRLM NIL=
201507210500 METAR MRLM NIL=
201507210600 METAR MRLM NIL=
201507210700 METAR MRLM NIL=
201507210800 METAR MRLM NIL=
201507210900 METAR MRLM NIL=
201507211000 METAR MRLM NIL=
201507211100 METAR MRLM NIL=
201507211200 METAR MRLM 211200Z 23005KT CAVOK 20/18 A2991=
201507211300 METAR MRLM 211300Z 25005KT CAVOK 23/19 A2992=
201507211400 METAR MRLM 211400Z 24004KT CAVOK 26/20 A2992=
201507211500 METAR MRLM 211500Z 06003KT CAVOK 29/21 A2993=
201507211600 METAR MRLM 211600Z 09003KT 9999 FEW035 29/21 A2994=
201507211700 METAR MRLM 211700Z 08005KT 9999 FEW030 29/22 A2993=
201507211800 METAR MRLM 211800Z 07005KT CAVOK 29/22 A2990=
201507211900 METAR MRLM 211900Z 06008KT CAVOK 30/22 A2988=
201507212000 METAR MRLM 212000Z 05010KT CAVOK 29/22 A2986=
201507212100 METAR MRLM NIL=
201507212200 METAR MRLM NIL=
201507212300 METAR MRLM NIL=
201507220000 METAR MRLM NIL=
201507220100 METAR MRLM NIL=
201507220200 METAR MRLM NIL=
201507220300 METAR MRLM NIL=
201507220400 METAR MRLM NIL=
201507220500 METAR MRLM NIL=
201507220600 METAR MRLM NIL=
201507220700 METAR MRLM NIL=
201507220800 METAR MRLM NIL=
201507220900 METAR MRLM NIL=
201507221000 METAR MRLM NIL=
201507221100 METAR MRLM NIL=
201507221200 METAR MRLM 221200Z 26004KT 9999 SCT010 SCT100 23/22 A2988=
201507221300 METAR MRLM 221300Z 28003KT 9999 BKN010 SCT100 24/22 A2989=
201507221400 METAR MRLM 221400Z 28003KT CAVOK 25/23 A2989=
201507221500 METAR MRLM 221500Z 00000KT CAVOK 28/22 A2991=
201507221600 METAR MRLM 221600Z 06003KT CAVOK 28/23 A2990=
201507221700 METAR MRLM 221700Z 03008KT CAVOK 29/23 A2989=
201507221800 METAR MRLM 221800Z 02010KT 9999 FEW030 BKN130 29/23 A2989=
201507221900 METAR MRLM 221900Z 02008KT 9999 FEW030 BKN130 29/22 A2987=
201507222000 METAR MRLM 222000Z 03008KT CAVOK 29/23 A2985=
201507222100 METAR MRLM NIL=
201507222200 METAR MRLM NIL=
201507222300 METAR MRLM NIL=
201507230000 METAR MRLM NIL=
201507230100 METAR MRLM NIL=
201507230200 METAR MRLM NIL=
201507230300 METAR MRLM NIL=
201507230400 METAR MRLM NIL=
201507230500 METAR MRLM NIL=
201507230600 METAR MRLM NIL=
201507230700 METAR MRLM NIL=
201507230800 METAR MRLM NIL=
201507230900 METAR MRLM NIL=
201507231000 METAR MRLM NIL=
201507231100 METAR MRLM NIL=
201507231200 METAR MRLM 231200Z 24002KT 7000 DZ BKN010 23/22 A2989=
201507231300 METAR MRLM 231300Z 23004KT 9999 -DZ BKN010 SCT100 23/22 A2990=
201507231400 METAR MRLM 231400Z 19002KT 9999 DZ FEW005 BKN010 SCT100 24/23 A2993=
201507231415 METAR MRLM 231415Z 15009KT 3000 /RAVCTS OVC007 24/23 A2996=
201507231500 METAR MRLM 231500Z 28003KT 5000 -RA OVC010 24/23 A2996 RETS=
201507231600 METAR MRLM 231600Z 28003KT 7000 DZ BKN010 24/23 A2995=
201507231700 METAR MRLM 231700Z 32002KT 9999 DZ SCT010 BKN110 24/23 A2994=
201507231800 METAR MRLM 231800Z 30003KT 9999 DZ FEW010 BKN120 25/24 A2992=
201507231900 METAR MRLM 231900Z 00000KT 9999 DZ SCT0015 SCT120 27/24 A2989=
201507232000 METAR MRLM 232000Z 13006KT 9999 DZ SCT010 BKN120 26/24 A2987=
201507232100 METAR MRLM NIL=
201507232200 METAR MRLM NIL=
201507232300 METAR MRLM NIL=
201507240000 METAR MRLM NIL=
201507240100 METAR MRLM NIL=
201507240200 METAR MRLM NIL=
201507240300 METAR MRLM NIL=
201507240400 METAR MRLM NIL=
201507240500 METAR MRLM NIL=
201507240600 METAR MRLM NIL=
201507240700 METAR MRLM NIL=
201507240800 METAR MRLM NIL=
201507240900 METAR MRLM NIL=
201507241000 METAR MRLM NIL=
201507241100 METAR MRLM NIL=
201507241200 METAR MRLM 241200Z 20005KT 7000 -RA VCTS OVC007 23/22 A2991=
201507241300 METAR MRLM 241300Z 24006KT 9999 DZ VCTS BKN007 23/22 A2993 RERA=
201507241400 METAR MRLM 241400Z 22003KT 9999 DZ BKN010 SCT100 24/23 A2996 REVCTS=
201507241500 METAR MRLM 241500Z 24005KT 9999 DZ BKN010 SCT100 24/23 A2996=
201507241600 METAR MRLM 241600Z 23004KT 9999 SCT015 BKN120 25/23 A2995 REDZ=
201507241700 METAR MRLM 241700Z 03004KT CAVOK 28/24 A2994=
201507241800 METAR MRLM 241800Z 03004KT 9999 SCT020 BKN130 28/24 A2993=
201507241900 METAR MRLM 241900Z 01004KT CAVOK 29/24 A2989=
201507242000 METAR MRLM 242000Z 05005KT CAVOK 29/24 A2987=
201507242100 METAR MRLM 242100Z 03006KT CAVOK 29/23 A2986=
201507242200 METAR MRLM 242200Z 02005KT CAVOK 28/23 A2986=
201507242300 METAR MRLM 242300Z 03003KT CAVOK 28/23 A2986=
201507250000 METAR MRLM 250000Z 00000KT CAVOK 27/24 A2987=
201507250100 METAR MRLM NIL=
201507250200 METAR MRLM NIL=
201507250300 METAR MRLM NIL=
201507250400 METAR MRLM NIL=
201507250500 METAR MRLM NIL=
201507250600 METAR MRLM NIL=
201507250700 METAR MRLM NIL=
201507250800 METAR MRLM NIL=
201507250900 METAR MRLM NIL=
201507251000 METAR MRLM NIL=
201507251100 METAR MRLM NIL=
201507251200 METAR MRLM NIL=
201507251300 METAR MRLM NIL=
201507251400 METAR MRLM NIL=
201507251500 METAR MRLM NIL=
201507251600 METAR MRLM NIL=
201507251700 METAR MRLM NIL=
201507251800 METAR MRLM NIL=
201507251900 METAR MRLM NIL=
201507252000 METAR MRLM NIL=
201507252100 METAR MRLM NIL=
201507252200 METAR MRLM NIL=
201507252300 METAR MRLM NIL=
201507260000 METAR MRLM NIL=
201507260100 METAR MRLM NIL=
201507260200 METAR MRLM NIL=
201507260300 METAR MRLM NIL=
201507260400 METAR MRLM NIL=
201507260500 METAR MRLM NIL=
201507260600 METAR MRLM NIL=
201507260700 METAR MRLM NIL=
201507260800 METAR MRLM NIL=
201507260900 METAR MRLM NIL=
201507261000 METAR MRLM NIL=
201507261100 METAR MRLM NIL=
201507261200 METAR MRLM 261200Z 24003KT 9999 OVC007 24/23 A2985=
201507261300 METAR MRLM 261300Z 26004KT 9999 BKN010 24/23 A2986=
201507261400 METAR MRLM 261400Z 29003KT 9999 BKN010 26/24 A2987=
201507261500 METAR MRLM 261500Z 26003KT 9999 BKN020 29/24 A2989=
201507261600 METAR MRLM 261600Z 06002KT 9999 BKN025 29/24 A2989=
201507261700 METAR MRLM 261700Z 08003KT 9999 SCT025 29/24 A2988=
201507261800 METAR MRLM 261800Z 04004KT 9999 FEW030 BKN130 29/22 A2986=
201507261900 METAR MRLM 261900Z 04005KT 9999 FEW025 BKN130 28/23 A2984=
201507262000 METAR MRLM 262000Z 07003KT 9999 FEW030 BKN250 29/23 A2982=
201507262100 METAR MRLM 262100Z 05003KT 9999 SCT030 BKN250 29/24 A2981=
201507262200 METAR MRLM 262200Z 04007KT 9999 SCT025 BKN250 29/24 A2980=
201507262300 METAR MRLM 262300Z 04009KT CAVOK 28/24 A2982=
201507270000 METAR MRLM 270000Z 04007KT CAVOK 27/23 A2983=
201507270100 METAR MRLM NIL=
201507270200 METAR MRLM NIL=
201507270300 METAR MRLM NIL=
201507270400 METAR MRLM NIL=
201507270500 METAR MRLM NIL=
201507270600 METAR MRLM NIL=
201507270700 METAR MRLM NIL=
201507270800 METAR MRLM NIL=
201507270900 METAR MRLM NIL=
201507271000 METAR MRLM NIL=
201507271100 METAR MRLM NIL=
201507271200 METAR MRLM NIL=
201507271300 METAR MRLM NIL=
201507271400 METAR MRLM NIL=
201507271500 METAR MRLM NIL=
201507271600 METAR MRLM NIL=
201507271700 METAR MRLM NIL=
201507271800 METAR MRLM NIL=
201507271900 METAR MRLM NIL=
201507272000 METAR MRLM NIL=
201507272100 METAR MRLM NIL=
201507272200 METAR MRLM NIL=
201507272300 METAR MRLM NIL=
201507280000 METAR MRLM NIL=
201507280100 METAR MRLM NIL=
201507280200 METAR MRLM NIL=
201507280300 METAR MRLM NIL=
201507280400 METAR MRLM NIL=
201507280500 METAR MRLM NIL=
201507280600 METAR MRLM NIL=
201507280700 METAR MRLM NIL=
201507280800 METAR MRLM NIL=
201507280900 METAR MRLM NIL=
201507281000 METAR MRLM NIL=
201507281100 METAR MRLM NIL=
201507281200 METAR MRLM 281200Z 25004KT 9999 OVC007 23/22 A2982=
201507281300 METAR MRLM 281300Z 23003KT 9999 -DZ BKN007 24/23 A2984=
201507281400 METAR MRLM 281400Z 25005KT 9999 -DZ BKN010 25/23 A2984=
201507281500 METAR MRLM 281500Z 24004KT 9999 -DZ BKN010 25/24 A2985=
201507281600 METAR MRLM 281600Z 29003KT 9999 5000 N +DZ BKN010 26/24 A2986=
201507281612 METAR MRLM 281612Z 00000KT 3000 +RA OVC010 26/24 A2986=
201507281700 METAR MRLM 281700Z 23004KT 5000 RA OVC007 25/24 A2985=
201507281800 METAR MRLM 281800Z 21006KT 7000 3000N RA BKN006 25/24 A2984=
201507281900 METAR MRLM NIL=
201507282000 METAR MRLM 282000Z 26005KT 6000 RA OVC006 25/24 A2981=
201507282100 METAR MRLM NIL=
201507282200 METAR MRLM NIL=
201507282300 METAR MRLM NIL=
201507290000 METAR MRLM NIL=
201507290100 METAR MRLM NIL=
201507290200 METAR MRLM NIL=
201507290300 METAR MRLM NIL=
201507290400 METAR MRLM NIL=
201507290500 METAR MRLM NIL=
201507290600 METAR MRLM NIL=
201507290700 METAR MRLM NIL=
201507290800 METAR MRLM NIL=
201507290900 METAR MRLM NIL=
201507291000 METAR MRLM NIL=
201507291100 METAR MRLM NIL=
201507291200 METAR MRLM 291200Z 20003KT 9999 DZ SCT007 BKN080 24/23 A2984=
201507291300 METAR MRLM 291300Z 24002KT 9999 DZ SCT007 BKN090 24/23 A2985=
201507291400 METAR MRLM 291400Z 00000KT 9999 SCT010 BKN100 25/24 A2985 REDZ=
201507291500 METAR MRLM 291500Z 04003KT 9999 FEW015 BKN130 27/24 A2987=
201507291600 METAR MRLM 291600Z 04008KT 9999 FEW015 BKN130 27/24 A2987=
201507291700 METAR MRLM 291700Z 04005KT 9999 DZ BKN010 27/24 A2988=
201507291800 METAR MRLM 291800Z 04002KT 9999 -DZ BKN015 27/24 A2986=
201507291900 METAR MRLM 291900Z 07003KT 9999 BKN020 28/24 A2985=
201507292000 METAR MRLM 292000Z 00000KT CAVOK 28/23 A2982=
201507292100 METAR MRLM NIL=
201507292200 METAR MRLM NIL=
201507292300 METAR MRLM NIL=
201507300000 METAR MRLM NIL=
201507300100 METAR MRLM NIL=
201507300200 METAR MRLM NIL=
201507300300 METAR MRLM NIL=
201507300400 METAR MRLM NIL=
201507300500 METAR MRLM NIL=
201507300600 METAR MRLM NIL=
201507300700 METAR MRLM NIL=
201507300800 METAR MRLM NIL=
201507300900 METAR MRLM NIL=
201507301000 METAR MRLM NIL=
201507301100 METAR MRLM NIL=
201507301200 METAR MRLM 301200Z 31006KT 9999 SCT010 BKN110 24/23 A2986=
201507301300 METAR MRLM 3013000Z 32004KT 9999 FEW010 BKN120 25/24 A2988=
201507301400 METAR MRLM 301400Z 32004KT CAVOK 26/23 A2990=
201507301500 METAR MRLM 301500Z 34004KT 9999 FEW020 BKN130 28/23 A2991=
201507301600 METAR MRLM 301600Z 36005KT 9999 DZ BKN020 28/23 A2993=
201507301620 METAR MRLM 301620Z 04010G21KT 4000 +RA OVC010 27/23 A2994=
201507301700 METAR MRLM 301700Z 08004KT 5000 RAVCTS BKN010 25/24 A2994=
201507301800 METAR MRLM 301800Z 02007KT 9999 -DZ BKN010 25/24 A2994 RERA=
201507301820 METAR MRLM 301820Z 03005KT 4000 +RA OVC010 25/23 A2993=
201507301900 METAR MRLM 301900Z 28003KT 7000 DZ OVC006 25/24 A2993=
201507302000 METAR MRLM 302000Z 23005KT 5000 +DZ OVC007 22/21 A2993=
201507302100 METAR MRLM NIL=
201507302200 METAR MRLM NIL=
201507302300 METAR MRLM NIL=
201507310000 METAR MRLM NIL=
201507310100 METAR MRLM NIL=
201507310200 METAR MRLM NIL=
201507310300 METAR MRLM NIL=
201507310400 METAR MRLM NIL=
201507310500 METAR MRLM NIL=
201507310600 METAR MRLM NIL=
201507310700 METAR MRLM NIL=
201507310800 METAR MRLM NIL=
201507310900 METAR MRLM NIL=
201507311000 METAR MRLM NIL=
201507311100 METAR MRLM NIL=
201507311200 METAR MRLM 311200Z 00000KT 9999 SCT010 BKN110 23/21 A2990=
201507311215 METAR MRLM 311215Z 00000KT 4000 +DZ BKN010 23/21 A2990=
201507311300 METAR MRLM 311300Z 03010KT 5000 +DZ BKN010 SCT100 24/21 A2993=
201507311400 METAR MRLM 311400Z 24005KT 9999 -DZ SCT010 BKN100 23/22 A2994=
201507311425 METAR MRLM 311425Z 25005KT 3000 +RA BKN010 24/21 A2997=
201507311500 METAR MRLM 311500Z 28004KT 9999 DZ SCT010 BKN100 23/21 A2997 RERA=
201507311600 METAR MRLM 311600Z 23008KT CAVOK 24/22 A2996=
201507311700 METAR MRLM 311700Z 22005KT CAVOK 26/21 A2995=
201507311800 METAR MRLM 311800Z 24006KT CAVOK 24/21 A2992=
201507311900 METAR MRLM 311900Z 22003KT CAVOK 28/21 A2988=
201507312000 METAR MRLM 312000Z 00000KT CAVOK 29/22 A2987=
201507312100 METAR MRLM 312100Z 08003KT CAVOK 29/21 A2983=
201507312200 METAR MRLM 312200Z 05004KT CAVOK 29/21 A2983=
201507312300 METAR MRLM 312300Z 02003KT CAVOK 28/22 A2983=
201508010000 METAR MRLM 010000Z 00000KT CAVOK 26/23 A2985=
201508010100 METAR MRLM NIL=
201508010200 METAR MRLM NIL=
201508010300 METAR MRLM NIL=
201508010400 METAR MRLM NIL=
201508010500 METAR MRLM NIL=
201508010600 METAR MRLM NIL=
201508010700 METAR MRLM NIL=
201508010800 METAR MRLM NIL=
201508010900 METAR MRLM NIL=
201508011000 METAR MRLM NIL=
201508011100 METAR MRLM NIL=
201508011200 METAR MRLM NIL=
201508011300 METAR MRLM NIL=
201508011400 METAR MRLM NIL=
201508011500 METAR MRLM NIL=
201508011600 METAR MRLM NIL=
201508011700 METAR MRLM NIL=
201508011800 METAR MRLM NIL=
201508011900 METAR MRLM NIL=
201508012000 METAR MRLM NIL=
201508012100 METAR MRLM NIL=
201508012200 METAR MRLM NIL=
201508012300 METAR MRLM NIL=
201508020000 METAR MRLM NIL=
201508020100 METAR MRLM NIL=
201508020200 METAR MRLM NIL=
201508020300 METAR MRLM NIL=
201508020400 METAR MRLM NIL=
201508020500 METAR MRLM NIL=
201508020600 METAR MRLM NIL=
201508020700 METAR MRLM NIL=
201508020800 METAR MRLM NIL=
201508020900 METAR MRLM NIL=
201508021000 METAR MRLM NIL=
201508021100 METAR MRLM NIL=
201508021200 METAR MRLM 021200Z 00000KT 9999 DZ SCT010 BKN110 24/22 A2981=
201508021220 METAR MRLM 021220Z 00000KT 4000 RA OVC010 24/22 A2991=
201508021300 METAR MRLM 021300Z 23003KT 4000 RAVCTS BKN007 23/23 A2984=
201508021400 METAR MRLM 021400Z 16004KT 4000 RAVCTS BKN007 24/23 A2986=
201508021500 METAR MRLM 021500Z 24005KT 9999 DZ BKN010 SCT120 24/23 A2987 RERA=
201508021600 METAR MRLM 021600Z 23004KT 9999 -DZ BKN010 25/24 A2986=
201508021700 METAR MRLM 021700Z 22004KT 9999 SCT015 SCT130 26/25 A2984=
201508021800 METAR MRLM 021800Z 12002KT 9999 SCT020 BKN130 28/24 A2983=
201508021900 METAR MRLM 021900Z 12004KT 9999 FEW020 BKN140 29/24 A2981=
201508022000 METAR MRLM 022000Z 12002KT CAVOK 29/24 A2978=
201508022100 METAR MRLM 022100Z 07003KT CAVOK 29/24 A2977=
201508022200 METAR MRLM 022200Z 05006KT 9999 SCT020 SCT250 29/24 A2977=
201508022300 METAR MRLM 022300Z 03005KT 9999 FEW020 28/24 A2977=
201508030000 METAR MRLM 030000Z 08004KT 9999 SCT015 27/24 A2978=
201508030100 METAR MRLM NIL=
201508030200 METAR MRLM NIL=
201508030300 METAR MRLM NIL=
201508030400 METAR MRLM NIL=
201508030500 METAR MRLM NIL=
201508030600 METAR MRLM NIL=
201508030700 METAR MRLM NIL=
201508030800 METAR MRLM NIL=
201508030900 METAR MRLM NIL=
201508031000 METAR MRLM NIL=
201508031100 METAR MRLM NIL=
201508031200 METAR MRLM 031200Z 01003KT 3000 TSRA FEW007CB BKN010 25/24 A2981=
201508031300 METAR MRLM 031300Z 21006KT 4000 +RA BKN007 24/23 A2982 RETS=
201508031400 METAR MRLM 031400Z 32003KT 9999 -DZ BKN007 24/23 A2984 RERA=
201508031500 METAR MRLM 031500Z 25004KT 9999 -DZ BKN010 SCT110 25/24 A2985=
201508031600 METAR MRLM 031600Z 23003KT 9999 FEW010 SCT130 SCT250 27/25 A2984=
201508031700 METAR MRLM 031700Z 15003KT 9999 SCT020 SCT130 28/24 A2984=
201508031800 METAR MRLM 031800Z 13004KT 9999 BKN020 SCT120 28/24 A2983=
201508031900 METAR MRLM 031900Z 08004KT 9999 BKN020 28/24 A2981=
201508032000 METAR MRLM 032000Z 07010KT 9999 FEW020 BKN240 29/24 A2980=
201508032100 METAR MRLM NIL=
201508032200 METAR MRLM NIL=
201508032300 METAR MRLM NIL=
201508040000 METAR MRLM NIL=
201508040100 METAR MRLM NIL=
201508040200 METAR MRLM NIL=
201508040300 METAR MRLM NIL=
201508040400 METAR MRLM NIL=
201508040500 METAR MRLM NIL=
201508040600 METAR MRLM NIL=
201508040700 METAR MRLM NIL=
201508040800 METAR MRLM NIL=
201508040900 METAR MRLM NIL=
201508041000 METAR MRLM NIL=
201508041100 METAR MRLM NIL=
201508041200 METAR MRLM 041200Z 25005KT 9999 5000N DZ BKN007 24/23 A2984=
201508041300 METAR MRLM 041300Z 19002KT 3000 +RA OVC006 24/23 A2986=
201508041400 METAR MRLM 041400Z 24006KT 7000 DZ OVC007 24/23 A2987 RERA=
201508041500 METAR MRLM 041500Z 24005KT 9999 DZ OVC010 24/23 A2989=
201508041600 METAR MRLM 041600Z 23004KT 9999 -DZ BKN010 25/23 A2989=
201508041700 METAR MRLM 041700Z 20006KT 9999 BKN010 25/24 A2988=
201508041800 METAR MRLM 041800Z 23005KT 9999 OVC010 24/23 A2987=
201508041900 METAR MRLM 041900Z 24006KT 9999 BKN015 SCT120 26/24 A2984=
201508042000 METAR MRLM 042000Z 20003KT 9999 DZ BKN010 26/24 A2983=
201508042100 METAR MRLM NIL=
201508042200 METAR MRLM NIL=
201508042300 METAR MRLM NIL=
201508050000 METAR MRLM NIL=
201508050100 METAR MRLM NIL=
201508050200 METAR MRLM NIL=
201508050300 METAR MRLM NIL=
201508050400 METAR MRLM NIL=
201508050500 METAR MRLM NIL=
201508050600 METAR MRLM NIL=
201508050700 METAR MRLM NIL=
201508050800 METAR MRLM NIL=
201508050900 METAR MRLM NIL=
201508051000 METAR MRLM NIL=
201508051100 METAR MRLM NIL=
201508051200 METAR MRLM 051200Z 00000KT 9999 BKN010 24/23 A2985=
201508051300 METAR MRLM 051300Z 27003KT 9999 SCT015 SCT120 26/24 A2985=
201508051400 METAR MRLM 051400Z 27003KT 9999 SCT015 SCT120 27/24 A2985=
201508051500 METAR MRLM 051500Z 00000KT 5000 RA BKN015 27/24 A2988=
201508051600 METAR MRLM 051600Z 25002KT 7000 +DZ BKN010 26/25 A2987 RERA=
201508051700 METAR MRLM 051700Z 00000KT 9999 BKN010 27/25 A2986 REDZ=
201508051715 METAR MRLM 051715Z 30002KT 6000 RA BKN010 27/25 A2986=
201508051800 METAR MRLM 051800Z 21002KT 9999 SCT015 SCT120 27/25 A2985 RERA=
201508051900 METAR MRLM 051900Z 07002KT 9999 FEW020 SCT130 29/25 A2982=
201508052000 METAR MRLM 052000Z 07004KT 9999 SCT020 29/25 A2980=
201508052100 METAR MRLM NIL=
201508052200 METAR MRLM NIL=
201508052300 METAR MRLM NIL=
201508060000 METAR MRLM NIL=
201508060100 METAR MRLM NIL=
201508060200 METAR MRLM NIL=
201508060300 METAR MRLM NIL=
201508060400 METAR MRLM NIL=
201508060500 METAR MRLM NIL=
201508060600 METAR MRLM NIL=
201508060700 METAR MRLM NIL=
201508060800 METAR MRLM NIL=
201508060900 METAR MRLM NIL=
201508061000 METAR MRLM NIL=
201508061100 METAR MRLM NIL=
201508061200 METAR MRLM 061200Z 26005KT 9999 DZ OVC007 25/24 A2982=
201508061300 METAR MRLM 061300Z 30004KT 9999 DZ OVC007 25/24 A2984=
201508061400 METAR MRLM 061400Z 21003KT 9999 DZ BKN007 25/24 A2985=
201508061500 METAR MRLM 061500Z 25004KT 9999 BKN010 25/24 A2986 REDZ=
201508061600 METAR MRLM 061600Z 23004KT 9999 BKN010 26/25 A2985=
201508061640 METAR MRLM 061640Z 28004KT 3000 +RA BKN010 26/25 A2985=
201508061700 METAR MRLM 061700Z 34004KT 5000 DZ BKN007 26/24 A2984 RERA=
201508061800 METAR MRLM 061800Z 31004KT 5000 DZ OVC007 25/24 A2983=
201508061900 METAR MRLM 061900Z 26006KT 8000 DZ OVC007 24/23 A2981=
201508062000 METAR MRLM 062000Z 26007KT 8000 DZ OVC006 24/23 A2979=
201508062100 METAR MRLM NIL=
201508062200 METAR MRLM NIL=
201508062300 METAR MRLM NIL=
201508070000 METAR MRLM NIL=
201508070100 METAR MRLM NIL=
201508070200 METAR MRLM NIL=
201508070300 METAR MRLM NIL=
201508070400 METAR MRLM NIL=
201508070500 METAR MRLM NIL=
201508070600 METAR MRLM NIL=
201508070700 METAR MRLM NIL=
201508070800 METAR MRLM NIL=
201508070900 METAR MRLM NIL=
201508071000 METAR MRLM NIL=
201508071100 METAR MRLM NIL=
201508071200 METAR MRLM 071200Z 24005KT 9999 SCT010 SCT100 24/23 A2982=
201508071300 METAR MRLM 071300Z 28003KT 9999 SCT010 SCT110 24/23 A2983=
201508071400 METAR MRLM 071400Z 00000KT 9999 SCT010 BKN120 27/25 A2983=
201508071500 METAR MRLM 071500Z 33006KT 9999 SCT020 SCT120 28/25 A2985=
201508071600 METAR MRLM 071600Z 02009KT 7000 3000N +DZ BKN010 26/24 A2987=
201508071700 METAR MRLM 071700Z 01005KT 9999 -DZ BKN010 SCT110 26/24 A2985=
201508071800 METAR MRLM 071800Z 32005KT 9999 BKN020 SCT120 28/25 A2984=
201508071900 METAR MRLM 071900Z 05004KT 9999 SCT020 SCT130 29/25 A2981=
201508072000 METAR MRLM 072000Z 05004KT 9999 FEW030 SCT130 SCT240 30/23 A2980=
201508072100 METAR MRLM 072100Z 04002KT 9999 FEW030 BKN240 29/23 A2979=
201508072200 METAR MRLM 072200Z 06002KT 9999 FEW030 BKN240 30/24 A2978=
201508072300 METAR MRLM 072300Z 06004KT 9999 SCT025 SCT130 28/23 A2979=
201508080000 METAR MRLM 080000Z 04003KT CAVOK 28/23 A2980=
201508080100 METAR MRLM NIL=
201508080200 METAR MRLM NIL=
201508080300 METAR MRLM NIL=
201508080400 METAR MRLM NIL=
201508080500 METAR MRLM NIL=
201508080600 METAR MRLM NIL=
201508080700 METAR MRLM NIL=
201508080800 METAR MRLM NIL=
201508080900 METAR MRLM NIL=
201508081000 METAR MRLM NIL=
201508081100 METAR MRLM NIL=
201508081200 METAR MRLM NIL=
201508081300 METAR MRLM NIL=
201508081400 METAR MRLM NIL=
201508081500 METAR MRLM NIL=
201508081600 METAR MRLM NIL=
201508081700 METAR MRLM NIL=
201508081800 METAR MRLM NIL=
201508081900 METAR MRLM NIL=
201508082000 METAR MRLM NIL=
201508082100 METAR MRLM NIL=
201508082200 METAR MRLM NIL=
201508082300 METAR MRLM NIL=
201508090000 METAR MRLM NIL=
201508090100 METAR MRLM NIL=
201508090200 METAR MRLM NIL=
201508090300 METAR MRLM NIL=
201508090400 METAR MRLM NIL=
201508090500 METAR MRLM NIL=
201508090600 METAR MRLM NIL=
201508090700 METAR MRLM NIL=
201508090800 METAR MRLM NIL=
201508090900 METAR MRLM NIL=
201508091000 METAR MRLM NIL=
201508091100 METAR MRLM NIL=
201508091200 METAR MRLM 091200Z 29003KT 8000 DZ BKN007 24/23 A2988=
201508091300 METAR MRLM 091300Z 31003KT 8000 DZ BKN007 25/24 A2988=
201508091400 METAR MRLM 091400Z 28004KT 9999 DZ SCT010 SCT110 24/23 A2989=
201508091500 METAR MRLM 091500Z 34002KT 9999 SCT010 BKN120 26/25 A2990=
201508091600 METAR MRLM 091600Z 31005KT 9999 -DZ SCT020 BKN130 28/24 A2990=
201508091700 METAR MRLM 091700Z 32004KT 9999 FEW020 BKN130 28/24 A2990=
201508091800 METAR MRLM 091800Z 04004KT 9999 FEW030 SCT130 SCT240 29/23 A2987=
201508091900 METAR MRLM 091900Z 06004KT 9999 FEW030 BKN250 29/23 A2984=
201508092000 METAR MRLM 092000Z 05004KT CAVOK 30/23 A2982=
201508092100 METAR MRLM 092100Z 06004KT CAVOK 30/23 A2980=
201508092200 METAR MRLM 092200Z 05003KT CAVOK 30/23 A2980=
201508092300 METAR MRLM 092300Z 05003KT 9999 FEW030 BKN260 29/23 A2981=
201508100000 METAR MRLM 100000Z 03004KT CAVOK 28/24 A2982=
201508100100 METAR MRLM NIL=
201508100200 METAR MRLM NIL=
201508100300 METAR MRLM NIL=
201508100400 METAR MRLM NIL=
201508100500 METAR MRLM NIL=
201508100600 METAR MRLM NIL=
201508100700 METAR MRLM NIL=
201508100800 METAR MRLM NIL=
201508100900 METAR MRLM NIL=
201508101000 METAR MRLM NIL=
201508101100 METAR MRLM NIL=
201508101200 METAR MRLM 101200Z 33006KT 9999 DZ VCTS BKN007 24/23 A2983=
201508101300 METAR MRLM 101300Z 29004KT 9999 DZ VCTS BKN007 24/23 A2984=
201508101400 METAR MRLM 101400Z 27003KT 9999 DZ SCT010 SCT110 24/23 A2987=
201508101500 METAR MRLM 101500Z 00000KT 9999 -DZ SCT010 SCT110 25/23 A2988=
201508101600 METAR MRLM 101600Z 30002KT 9999 DZ SCT010 BKN120 25/24 A2987=
201508101700 METAR MRLM 101700Z 25004KT 9999 FEW010 SCT130 SCT200 26/24 A2984 REDZ=
201508101800 METAR MRLM 101800Z 00000KT CAVOK 27/24 A2982=
201508101900 METAR MRLM 101900Z 12005KT CAVOK 27/23 A2979=
201508102000 METAR MRLM 102000Z 10004KT CAVOK 28/24 A2977=
201508102100 METAR MRLM NIL=
201508102200 METAR MRLM NIL=
201508102300 METAR MRLM NIL=
201508110000 METAR MRLM NIL=
201508110100 METAR MRLM NIL=
201508110200 METAR MRLM NIL=
201508110300 METAR MRLM NIL=
201508110400 METAR MRLM NIL=
201508110500 METAR MRLM NIL=
201508110600 METAR MRLM NIL=
201508110700 METAR MRLM NIL=
201508110800 METAR MRLM NIL=
201508110900 METAR MRLM NIL=
201508111000 METAR MRLM NIL=
201508111100 METAR MRLM NIL=
201508111200 METAR MRLM 111200Z 06005KT 9999 BKN015 SCT100 25/22 A2986=
201508111300 METAR MRLM 111300Z 27005KT 9999 FEW015 BKN110 24/22 A2988=
201508111400 METAR MRLM 111400Z 28004KT 9999 FEW010 BKN110 24/22 A2989=
201508111500 METAR MRLM 111500Z 28003KT CAVOK 27/23 A2988=
201508111600 METAR MRLM 111600Z 06003KT 9999 FEW025 SCT250 27/22 A2987=
201508111700 METAR MRLM 111700Z 05005KT 9999 FEW025 SCT250 28/23 A2986=
201508111800 METAR MRLM 111800Z 05005KT 9999 FEW030 BKN140 28/23 A2984=
201508111900 METAR MRLM 111900Z 02011KT CAVOK 28/23 A2983=
201508112000 METAR MRLM 112000Z 01010KT 9999 FEW025 BKN140 29/23 A2980=
201508112100 METAR MRLM NIL=
201508112200 METAR MRLM NIL=
201508112300 METAR MRLM NIL=
201508120000 METAR MRLM NIL=
201508120100 METAR MRLM NIL=
201508120200 METAR MRLM NIL=
201508120300 METAR MRLM NIL=
201508120400 METAR MRLM NIL=
201508120500 METAR MRLM NIL=
201508120600 METAR MRLM NIL=
201508120700 METAR MRLM NIL=
201508120800 METAR MRLM NIL=
201508120900 METAR MRLM NIL=
201508121000 METAR MRLM NIL=
201508121100 METAR MRLM NIL=
201508121200 METAR MRLM 121200Z 24003KT 9999 SCT010 BKN110 24/23 A2986=
201508121300 METAR MRLM 121300Z 31003KT 9999 SCT010 SCT110 24/23 A2988=
201508121400 METAR MRLM 121400Z 30004KT 8000 +DZ BKN010 25/23 A2991=
201508121500 METAR MRLM 121500Z 28004KT 8000 DZ BKN007 24/23 A2992=
201508121600 METAR MRLM 121600Z 25004KT 9999 DZ BKN007 24/23 A2992=
201508121700 METAR MRLM 121700Z 26005KT 9999 -DZ SCT010 SCT130 25/23 A2991=
201508121800 METAR MRLM 121800Z 27004KT CAVOK 27/25 A2987=
201508121900 METAR MRLM 121900Z 03004KT 9999 FEW030 BKN140 29/24 A2986=
201508122000 METAR MRLM 122000Z 04005KT 9999 FEW025 BKN140 29/24 A2985=
201508122100 METAR MRLM NIL=
201508122200 METAR MRLM NIL=
201508130000 METAR MRLM NIL=
201508130100 METAR MRLM NIL=
201508130200 METAR MRLM NIL=
201508130300 METAR MRLM NIL=
201508130400 METAR MRLM NIL=
201508130500 METAR MRLM NIL=
201508130600 METAR MRLM NIL=
201508130700 METAR MRLM NIL=
201508130800 METAR MRLM NIL=
201508130900 METAR MRLM NIL=
201508131000 METAR MRLM NIL=
201508131100 METAR MRLM NIL=
201508131200 METAR MRLM 131200Z 25003KT CAVOK 24/23 A2987=
201508131300 METAR MRLM 131300Z 25003KT CAVOK 24/23 A2988=
201508131400 METAR MRLM 131400Z 25002KT 9999 FEW030 28/24 A2989=
201508131500 METAR MRLM 131500Z 11003KT 9999 FEW030 29/23 A2990=
201508131600 METAR MRLM 131600Z 06005KT 9999 FEW030 29/23 A2989=
201508131700 METAR MRLM 131700Z 05006KT 9999 FEW030 29/22 A2988=
201508131800 METAR MRLM 131800Z 06008KT CAVOK 29/22 A2985=
201508131900 METAR MRLM 131900Z 04009KT CAVOK 30/23 A2983=
201508132000 METAR MRLM 132000Z 03008KT CAVOK 30/23 A2982=
201508132100 METAR MRLM NIL=
201508132200 METAR MRLM NIL=
201508132300 METAR MRLM NIL=
201508140000 METAR MRLM NIL=
201508140100 METAR MRLM NIL=
201508140200 METAR MRLM NIL=
201508140300 METAR MRLM NIL=
201508140400 METAR MRLM NIL=
201508140500 METAR MRLM NIL=
201508140600 METAR MRLM NIL=
201508140700 METAR MRLM NIL=
201508140800 METAR MRLM NIL=
201508140900 METAR MRLM NIL=
201508141000 METAR MRLM NIL=
201508141100 METAR MRLM NIL=
201508141200 METAR MRLM 141200Z 29003KT 9999 BKN010 23/22 A2986=
201508141300 METAR MRLM 141300Z 31005KT 9999 BKN010 24/22 A2988=
201508141400 METAR MRLM 141400Z 28003KT 9999 DZ BKN007 25/22 A2990=
201508141500 METAR MRLM 141500Z 30008KT 8000 RA BKN007 23/21 A2993=
201508141600 METAR MRLM 141600Z 25006KT 9999 DZ SCT010 SCT110 23/22 A2993 RERA=
201508141700 METAR MRLM 141700Z 23003KT 8000 DZ BKN010 SCT100 24/22 A2992=
201508141800 METAR MRLM 141800Z 25003KT 9999 DZ SCT0010 SCT110 24/22 A2991=
201508141900 METAR MRLM 141900Z 28002KT 9999 -DZ FEW010 SCT130 SCT200 25/23 A2987=
201508142000 METAR MRLM 142000Z 03003KT 9999 -DZ FEW015 BKN130 27/24 A2984=
201508142100 METAR MRLM 142100Z 02005KT CAVOK 27/23 A2985=
201508142200 METAR MRLM 142200Z 36005KT 9999 -DZ SCT015 SCT120 26/23 A2984=
201508142300 METAR MRLM 142300Z 32004KT 9999 DZ BKN010 SCT110 26/23 A2984=
201508150000 METAR MRLM 150000Z 33003KT 9999 DZ OVC007 25/23 A2987=
201508150100 METAR MRLM NIL=
201508150200 METAR MRLM NIL=
201508150300 METAR MRLM NIL=
201508150400 METAR MRLM NIL=
201508150500 METAR MRLM NIL=
201508150600 METAR MRLM NIL=
201508150700 METAR MRLM NIL=
201508150800 METAR MRLM NIL=
201508150900 METAR MRLM NIL=
201508151000 METAR MRLM NIL=
201508151100 METAR MRLM NIL=
201508151200 METAR MRLM NIL=
201508151300 METAR MRLM NIL=
201508151400 METAR MRLM NIL=
201508151600 METAR MRLM NIL=
201508151700 METAR MRLM NIL=
201508151800 METAR MRLM NIL=
201508151900 METAR MRLM NIL=
201508152000 METAR MRLM NIL=
201508152100 METAR MRLM NIL=
201508152200 METAR MRLM NIL=
201508152300 METAR MRLM NIL=
201508160000 METAR MRLM NIL=
201508160100 METAR MRLM NIL=
201508160200 METAR MRLM NIL=
201508160300 METAR MRLM NIL=
201508160400 METAR MRLM NIL=
201508160500 METAR MRLM NIL=
201508160600 METAR MRLM NIL=
201508160700 METAR MRLM NIL=
201508160800 METAR MRLM NIL=
201508160900 METAR MRLM NIL=
201508161000 METAR MRLM NIL=
201508161100 METAR MRLM NIL=
201508161200 METAR MRLM 161200Z 34004KT 8000 DZ OVC007 25/24 A2985=
201508161300 METAR MRLM 161300Z 26004KT 9999 DZ OVC007 24/23 A2988=
201508161400 METAR MRLM 161400Z 28003KT 8000 DZ BKN007 25/23 A2990=
201508161500 METAR MRLM 161500Z 25003KT 8000 DZ OVC006 24/23 A2993=
201508161600 METAR MRLM 161600Z 25005KT 9999 DZ BKN010 24/23 A2992=
201508161700 METAR MRLM 161700Z 23003KT 9999 DZ BKN010 24/23 A2993=
201508161800 METAR MRLM 161800Z 23003KT 9999 DZ SCT010 BKN120 25/24 A2991=
201508161900 METAR MRLM 161900Z 00000KT 9999 DZ FEW010 OVC120 25/23 A2989=
201508162000 METAR MRLM 162000Z 00000KT 9999 -DZ FEW010 OVC120 25/24 A2986=
201508162100 METAR MRLM 162100Z 29004KT CAVOK 26/24 A2980=
201508162200 METAR MRLM 162200Z 29005KT CAVOK 25/24 A2977=
201508162300 METAR MRLM 162300Z 01014KT 9999 -DZ FEW015 BKN120 26/24 A2981=
201508170000 METAR MRLM 170000Z 32004KT 9999 -DZ BKN010 26/23 A2986=
201508170100 METAR MRLM NIL=
201508170200 METAR MRLM NIL=
201508170300 METAR MRLM NIL=
201508170400 METAR MRLM NIL=
201508170500 METAR MRLM NIL=
201508170600 METAR MRLM NIL=
201508170700 METAR MRLM NIL=
201508170800 METAR MRLM NIL=
201508170900 METAR MRLM NIL=
201508171000 METAR MRLM NIL=
201508171100 METAR MRLM NIL=
201508171200 METAR MRLM 171200Z 27002KT 9999 FEW015 BKN090 23/21 A2988=
201508171300 METAR MRLM 171300Z 24004KT 9999 SCT015 BKN100 23/22 A2989=
201508171400 METAR MRLM 171400Z 27002KT 9999 SCT015 BKN100 24/22 A2991=
201508171425 METAR MRLM 171425Z 24005KT 9999 VCTS OVC010 25/23 A2994=
201508171500 METAR MRLM 171500Z 26002KT 5000 RA OVC010 24/23 A2994=
201508171600 METAR MRLM 171600Z 25004KT 9999 DZ VCTS SCT010 SCT100 24/22 A2994 RERA=
201508171700 METAR MRLM 171700Z 24005KT 9999 -DZ FEW010 SCT120 SCT230 26/24 A2993 REVCTS=
201508171800 METAR MRLM 171800Z 18002KT 9999 DZ SCT015 27/23 A2991=
201508171900 METAR MRLM 171900Z 12003KT 9999 SCT020 SCT130 27/24 A2989 REDZ=
201508172000 METAR MRLM 172000Z 00000KT 9999 DZ SCT020 SCT130 27/23 A2988=
201508172100 METAR MRLM NIL=
201508172200 METAR MRLM NIL=
201508172300 METAR MRLM NIL=
201508180000 METAR MRLM NIL=
201508180100 METAR MRLM NIL=
201508180200 METAR MRLM NIL=
201508180300 METAR MRLM NIL=
201508180400 METAR MRLM NIL=
201508180500 METAR MRLM NIL=
201508180600 METAR MRLM NIL=
201508180700 METAR MRLM NIL=
201508180800 METAR MRLM NIL=
201508180900 METAR MRLM NIL=
201508181000 METAR MRLM NIL=
201508181100 METAR MRLM NIL=
201508181200 METAR MRLM 181200Z 24004KT 9999 TS DZ FEW007CB BKN010 24/23 2989=
201508181300 METAR MRLM 181300Z 24005KT 9999 -DZ BKN010 25/24 A2991 RETS=
201508181400 METAR MRLM 181400Z 23006KT 9999 FEW015 SCT130 SCT240 27/24 A2992=
201508181500 METAR MRLM 181500Z 19002KT 9999 BKN025 29/23 A2991=
201508181535 METAR MRLM 181535Z 09003KT 5000 +RA BKN020 27/24 A2991=
201508181600 METAR MRLM 181600Z 00000KT 9999 DZ BKN010 26/24 A2991 RERA=
201508181700 METAR MRLM 181700Z 00000KT 9999 OVC020 28/24 A2991=
201508181800 METAR MRLM 181800Z 25003KT 9999 BKN020 28/24 A2988=
201508181900 METAR MRLM 181900Z 33004KT 9999 SCT030 BKN130 30/24 A2985=
201508182000 METAR MRLM 182000Z 05003KT 9999 SCT030 SCT130 30/24 A2983=
201508182100 METAR MRLM NIL=
201508182200 METAR MRLM NIL=
201508182300 METAR MRLM NIL=
201508190000 METAR MRLM NIL=
201508190100 METAR MRLM NIL=
201508190200 METAR MRLM NIL=
201508190300 METAR MRLM NIL=
201508190400 METAR MRLM NIL=
201508190500 METAR MRLM NIL=
201508190600 METAR MRLM NIL=
201508190700 METAR MRLM NIL=
201508190800 METAR MRLM NIL=
201508190900 METAR MRLM NIL=
201508191000 METAR MRLM NIL=
201508191100 METAR MRLM NIL=
201508191200 METAR MRLM 191200Z 24003KT 4000 +DZ VCTS BKN007 24/23 A2987=
201508191300 METAR MRLM 191300Z 22002KT 7000 DZ BKN007 24/24 A2990=
201508191400 METAR MRLM 191400Z 00000KT 9999 DZ BKN007 25/24 A2992=
201508191500 METAR MRLM 191500Z 24002KT 9999 -DZ BKN010 SCT120 26/24 A2991=
201508191600 METAR MRLM 191600Z 11002KT 9999 SCT015 26/25 A2991=
201508191700 METAR MRLM 191700Z 12004KT CAVOK 28/24 A2990=
201508191800 METAR MRLM 191800Z 12004KT CAVOK 28/24 A2988=
201508191900 METAR MRLM 191900Z 10004KT CAVOK 29/24 A2985=
201508192000 METAR MRLM 192000Z 09004KT CAVOK 28/24 A2983=
201508192100 METAR MRLM NIL=
201508192200 METAR MRLM NIL=
201508192300 METAR MRLM NIL=
201508200000 METAR MRLM NIL=
201508200100 METAR MRLM NIL=
201508200200 METAR MRLM NIL=
201508200300 METAR MRLM NIL=
201508200400 METAR MRLM NIL=
201508200500 METAR MRLM NIL=
201508200600 METAR MRLM NIL=
201508200700 METAR MRLM NIL=
201508200800 METAR MRLM NIL=
201508200900 METAR MRLM NIL=
201508201000 METAR MRLM NIL=
201508201100 METAR MRLM NIL=
201508201200 METAR MRLM 201200Z 24004KT CAVOK 24/23 A2985=
201508201300 METAR MRLM 201300Z 24003KT CAVOK 25/24 A2985=
201508201400 METAR MRLM 201400Z 00000KT CAVOK 27/24 A2986=
201508201500 METAR MRLM 201500Z 05003KT 9999 FEW030 BKN130 29/23 A2987=
201508201600 METAR MRLM 201600Z 01007KT 9999 -DZ BKN020 28/24 A2990=
201508201700 METAR MRLM 201700Z 31003KT 9999 BKN025 SCT130 28/23 A2988=
201508201800 METAR MRLM 201800Z 03004KT 9999 VCTS FEW015CB FEW030 SCT130 30/23 A2986=
201508201900 METAR MRLM 201900Z 05016KT 9999 FEW020 SCT130 28/24 A2985 REVCTS=
201508202000 METAR MRLM 202000Z 02006KT 9999 SCT030 SCT130 29/24 A2983=
201508202100 METAR MRLM NIL=
201508202200 METAR MRLM NIL=
201508202300 METAR MRLM NIL=
201508210000 METAR MRLM NIL=
201508210100 METAR MRLM NIL=
201508210200 METAR MRLM NIL=
201508210300 METAR MRLM NIL=
201508210400 METAR MRLM NIL=
201508210500 METAR MRLM NIL=
201508210600 METAR MRLM NIL=
201508210700 METAR MRLM NIL=
201508210800 METAR MRLM NIL=
201508210900 METAR MRLM NIL=
201508211000 METAR MRLM NIL=
201508211100 METAR MRLM NIL=
201508211200 METAR MRLM 211200Z 26004KT 9999 BKN010 24/23 A2985=
201508211240 METAR MRLM 211240Z 05004KT 4000 RA OVC007 24/23 A2987=
201508211300 METAR MRLM 211300Z 04008KT 3000 +RA OVC007 24/23 A2988=
201508211400 METAR MRLM 211400Z 24002KT 9999 -DZ BKN010 24/23 A2988 RERA=
201508211500 METAR MRLM 211500Z 23004KT 9999 DZ BKN010 24/24 A2989=
201508211600 METAR MRLM 211600Z 27005KT 9999 BKN010 26/25 A2989 REDZ=
201508211700 METAR MRLM 211700Z 26004KT 9999 DZ BKN010 28/25 A2988=
201508211715 METAR MRLM 211715Z 34008KT 4000 +RA OVC007 26/24 A2988=
201508211800 METAR MRLM 211800Z 25004KT 8000 DZ OVC007 26/24 A2986 RERA=
201508211900 METAR MRLM 211900Z 24003KT 9999 DZ BKN010 SCT120 28/25 A2984=
201508212000 METAR MRLM 212000Z 13002KT 9999 BKN020 SCT130 29/25 A2982=
201508212100 METAR MRLM 212100Z 04006KT 9999 DZ BKN015 28/25 A2980=
201508212200 METAR MRLM 212200Z 10008KT 9999 DZ BKN015 27/24 A2981=
201508212300 METAR MRLM 212300Z 28006KT 9999 VCSH BKN010 26/24 A2981=
201508212320 METAR MRLM 212320Z 26004KT 4000 +RA OVC010 25/24 A2982=
201508220000 METAR MRLM 220000Z 19007KT 5000 RA OVC006 24/23 A2983=
201508220100 METAR MRLM NIL=
201508220200 METAR MRLM NIL=
201508220300 METAR MRLM NIL=
201508220400 METAR MRLM NIL=
201508220500 METAR MRLM NIL=
201508220600 METAR MRLM NIL=
201508220700 METAR MRLM NIL=
201508220800 METAR MRLM NIL=
201508220900 METAR MRLM NIL=
201508221000 METAR MRLM NIL=
201508221100 METAR MRLM NIL=
201508221200 METAR MRLM NIL=
201508221300 METAR MRLM NIL=
201508221400 METAR MRLM NIL=
201508221500 METAR MRLM NIL=
201508221600 METAR MRLM NIL=
201508221700 METAR MRLM NIL=
201508221800 METAR MRLM NIL=
201508221900 METAR MRLM NIL=
201508222000 METAR MRLM NIL=
201508222100 METAR MRLM NIL=
201508222200 METAR MRLM NIL=
201508222300 METAR MRLM NIL=
201508230000 METAR MRLM NIL=
201508230100 METAR MRLM NIL=
201508230200 METAR MRLM NIL=
201508230300 METAR MRLM NIL=
201508230400 METAR MRLM NIL=
201508230500 METAR MRLM NIL=
201508230600 METAR MRLM NIL=
201508230700 METAR MRLM NIL=
201508230800 METAR MRLM NIL=
201508230900 METAR MRLM NIL=
201508231000 METAR MRLM NIL=
201508231100 METAR MRLM NIL=
201508231200 METAR MRLM 231200Z 25003KT 9999 SCT010 SCT100 24/23 A2982=
201508231300 METAR MRLM 231300Z 29003KT 9999 SCT010 BKN100 24/23 A2983=
201508231400 METAR MRLM 231400Z 30002KT 9999 BKN010 26/24 A2986=
201508231425 METAR MRLM 231425Z 36017KT 5000 RA BKN010 25/23 A2987=
201508231500 METAR MRLM 231500Z 30005KT 9999 -DZ BKN010 SCT120 25/23 A2986 RERA=
201508231600 METAR MRLM 231600Z 32005KT 9999 DZ BKN010 SCT120 25/24 A2986=
201508231700 METAR MRLM 231700Z 29004KT 9999 FEW020 BKN130 29/24 A2984 REDZ=
201508231800 METAR MRLM 231800Z 06006KT 9999 FEW020 BKN130 28/24 A2982=
201508231900 METAR MRLM 231900Z 04008KT 9999 FEW030 BKN130 30/24 A2980=
201508232000 METAR MRLM 232000Z 03008KT CAVOK 30/23 A2978=
201508232100 METAR MRLM 232100Z 02007KT CAVOK 30/24 A2978=
201508232200 METAR MRLM 232200Z 02004KT 9999 FEW030 BKN260 30/24 A2978=
201508232300 METAR MRLM 232300Z 03003KT 9999 FEW030 SCT130 SCT250 28/24 A2979=
201508240000 METAR MRLM 240000Z 00000KT 9999 BKN020 28/24 A2989=
201508240100 METAR MRLM NIL=
201508240200 METAR MRLM NIL=
201508240300 METAR MRLM NIL=
201508240400 METAR MRLM NIL=
201508240500 METAR MRLM NIL=
201508240600 METAR MRLM NIL=
201508240700 METAR MRLM NIL=
201508240800 METAR MRLM NIL=
201508240900 METAR MRLM NIL=
201508241000 METAR MRLM NIL=
201508241100 METAR MRLM NIL=
201508241200 METAR MRLM 241200Z 25004KT 9999 SCT010 24/23 A2983=
201508241300 METAR MRLM 241300Z 24004KT 9999 SCT010 SCT130 25/24 A2983=
201508241305 METAR MRLM 241305Z 00000KT 5000 RA FEW006 BKN010 25/24 A2984=
201508241400 METAR MRLM 241400Z 32003KT 9999 DZ SCT010 SCT120 25/24 A2986 RERA=
201508241435 METAR MRLM 241435Z 25005KT 3000 RA BKN008 25/24 A2987=
201508241500 METAR MRLM 241500Z 36004KT 6000 +DZ BKN007 25/24 A2987 RERA=
201508241600 METAR MRLM 241600Z 25005KT 8000 DZ OVC007 25/24 A2988=
201508241700 METAR MRLM 241700Z 26005KT 9999 -DZ BKN010 27/25 A2988=
201508241800 METAR MRLM 241800Z 28004KT 9999 BKN020 SCT130 28/24 A2986=
201508241900 METAR MRLM 241900Z 03004KT 9999 BKN020 SCT130 29/24 A2984=
201508242000 METAR MRLM 242000Z 03007KT 9999 BKN020 SCT130 29/24 A2982=
201508242100 METAR MRLM NIL=
201508242200 METAR MRLM NIL=
201508242300 METAR MRLM NIL=
201508250000 METAR MRLM NIL=
201508250100 METAR MRLM NIL=
201508250200 METAR MRLM NIL=
201508250300 METAR MRLM NIL=
201508250400 METAR MRLM NIL=
201508250500 METAR MRLM NIL=
201508250600 METAR MRLM NIL=
201508250700 METAR MRLM NIL=
201508250800 METAR MRLM NIL=
201508250900 METAR MRLM NIL=
201508251000 METAR MRLM NIL=
201508251100 METAR MRLM NIL=
201508251200 METAR MRLM 251200Z 24004KT CAVOK 22/20 A2986=
201508251300 METAR MRLM 251300Z 26003KT CAVOK 23/21 A2988=
201508251400 METAR MRLM 251400Z 25004KT CAVOK 24/21 A2990=
201508251500 METAR MRLM 251500Z 26003KT CAVOK 27/21 A2990=
201508251600 METAR MRLM 251600Z 00000KT CAVOK 29/22 A2990=
201508251700 METAR MRLM 251700Z 10003KT 9999 FEW030 BKN140 29/22 A2989=
201508251800 METAR MRLM 251800Z 08003KT 9999 FEW030 BKN130 29/23 A2987=
201508251900 METAR MRLM 251900Z 11004KT 9999 FEW030 BKN130 29/23 A2985=
201508252000 METAR MRLM 252000Z 12005KT CAVOK 29/23 A2983=
201508252100 METAR MRLM NIL=
201508252200 METAR MRLM NIL=
201508252300 METAR MRLM NIL=
201508260000 METAR MRLM NIL=
201508260100 METAR MRLM NIL=
201508260200 METAR MRLM NIL=
201508260300 METAR MRLM NIL=
201508260400 METAR MRLM NIL=
201508260500 METAR MRLM NIL=
201508260600 METAR MRLM NIL=
201508260700 METAR MRLM NIL=
201508260800 METAR MRLM NIL=
201508260900 METAR MRLM NIL=
201508261000 METAR MRLM NIL=
201508261100 METAR MRLM NIL=
201508261200 METAR MRLM 261200Z 00000KT CAVOK 23/21 A2989=
201508261300 METAR MRLM 261300Z 26003KT 9999 FEW010 BKN120 23/21 A2991=
201508261400 METAR MRLM 261400Z 27004KT 9999 FEW010 BKN130 25/22 A2993=
201508261500 METAR MRLM 261500Z 00000KT CAVOK 28/21 A2994=
201508261600 METAR MRLM 261600Z 11002KT CAVOK 30/23 A2991=
201508261700 METAR MRLM 261700Z 05007KT 9999 FEW030 SCT140 SCT260 30/24 A2990=
201508261800 METAR MRLM 261800Z 05008KT CAVOK 30/24 A2989=
201508261900 METAR MRLM 261900Z 05008KT CAVOK 30/24 A2987=
201508262000 METAR MRLM 262000Z 04007KT CAVOK 30/23 A2985=
201508262100 METAR MRLM NIL=
201508262200 METAR MRLM NIL=
201508262300 METAR MRLM NIL=
201508270000 METAR MRLM NIL=
201508270100 METAR MRLM NIL=
201508270200 METAR MRLM NIL=
201508270300 METAR MRLM NIL=
201508270400 METAR MRLM NIL=
201508270500 METAR MRLM NIL=
201508270600 METAR MRLM NIL=
201508270700 METAR MRLM NIL=
201508270800 METAR MRLM NIL=
201508270900 METAR MRLM NIL=
201508271000 METAR MRLM NIL=
201508271100 METAR MRLM NIL=
201508271200 METAR MRLM 271200Z 12005KT 4000 RA BKN007 24/23 A2990=
201508271300 METAR MRLM 271300Z 21004KT 6000 DZ BKN007 23/22 A2991 RERA=
201508271400 METAR MRLM 271400Z 23004KT 9999 DZ SCT007 SCT080 23/22 A2991=
201508271500 METAR MRLM 271500Z 21003KT 9999 DZ SCT010 BKN090 24/23 A2991=
201508271600 METAR MRLM 271600Z 28002KT 9999 SCT010 BKN100 25/23 A2992=
201508271700 METAR MRLM 271700Z 00000KT 9999 DZ SCT010 BKN120 26/24 A2992 NOSIG=
201508271800 METAR MRLM 271800Z 33003KT 9999 FEW025 SCT130 SCT250 29/23 A2991 REDZ=
201508271900 METAR MRLM 271900Z 04006KT CAVOK 29/23 A2986=
201508272000 METAR MRLM 272000Z 04007KT CAVOK 29/24 A2983=
201508272100 METAR MRLM NIL=
201508272200 METAR MRLM NIL=
201508272300 METAR MRLM NIL=
201508280000 METAR MRLM NIL=
201508280100 METAR MRLM NIL=
201508280200 METAR MRLM NIL=
201508280300 METAR MRLM NIL=
201508280400 METAR MRLM NIL=
201508280500 METAR MRLM NIL=
201508280600 METAR MRLM NIL=
201508280700 METAR MRLM NIL=
201508280800 METAR MRLM NIL=
201508280900 METAR MRLM NIL=
201508281000 METAR MRLM NIL=
201508281100 METAR MRLM NIL=
201508281200 METAR MRLM 281200Z 25004KT CAVOK 23/22 A2985=
201508281300 METAR MRLM 281300Z 25004KT CAVOK 23/22 A2986=
201508281400 METAR MRLM 281400Z 23004KT CAVOK 27/23 A2987=
201508281500 METAR MRLM 281500Z 10005KT CAVOK 30/24 A2987=
201508281600 METAR MRLM 281600Z 10004KT 9999 FEW030 BKN260 30/23 A2987=
201508281700 METAR MRLM 281700Z 10005KT 9999 FEW040 30/23 A2987=
201508281800 METAR MRLM 281800Z 09007KT CAVOK 30/23 A2984=
201508281900 METAR MRLM 281900Z 09007KT CAVOK 30/23 A2982=
201508282000 METAR MRLM 282000Z 07007KT CAVOK 30/23 A2978=
201508282100 METAR MRLM 282100Z 08007KT CAVOK 30/24 A2976=
201508282200 METAR MRLM 282200Z 07004KT 9999 FEW030 BKN250 30/24 A2976=
201508282300 METAR MRLM 282300Z 05004KT 9999 FEW030 BKN250 29/24 A2976=
201508290000 METAR MRLM 290000Z 00000KT 9999 SCT020 BKN250 28/24 A2977=
201508290100 METAR MRLM NIL=
201508290200 METAR MRLM NIL=
201508290300 METAR MRLM NIL=
201508290400 METAR MRLM NIL=
201508290500 METAR MRLM NIL=
201508290600 METAR MRLM NIL=
201508290700 METAR MRLM NIL=
201508290800 METAR MRLM NIL=
201508290900 METAR MRLM NIL=
201508291000 METAR MRLM NIL=
201508291100 METAR MRLM NIL=
201508291200 METAR MRLM NIL=
201508291300 METAR MRLM NIL=
201508291400 METAR MRLM NIL=
201508291500 METAR MRLM NIL=
201508291600 METAR MRLM NIL=
201508291700 METAR MRLM NIL=
201508291800 METAR MRLM NIL=
201508291900 METAR MRLM NIL=
201508292000 METAR MRLM NIL=
201508292100 METAR MRLM NIL=
201508292200 METAR MRLM NIL=
201508292300 METAR MRLM NIL=
201508300000 METAR MRLM NIL=
201508300100 METAR MRLM NIL=
201508300200 METAR MRLM NIL=
201508300300 METAR MRLM NIL=
201508300400 METAR MRLM NIL=
201508300500 METAR MRLM NIL=
201508300600 METAR MRLM NIL=
201508300700 METAR MRLM NIL=
201508300800 METAR MRLM NIL=
201508300900 METAR MRLM NIL=
201508301000 METAR MRLM NIL=
201508301100 METAR MRLM NIL=
201508301200 METAR MRLM 301200Z 24004KT CAVOK 24/23 A2982=
201508301300 METAR MRLM 301300Z 00000KT CAVOK 25/23 A2982=
201508301400 METAR MRLM 301400Z 28003KT CAVOK 28/24 A2984=
201508301500 METAR MRLM 301500Z 34002KT CAVOK 30/24 A2985=
201508301600 METAR MRLM 301600Z 02008KT 9999 FEW030 BKN250 30/24 A2986=
201508301700 METAR MRLM 301700Z 04008KT CAVOK 30/25 A2985=
201508301800 METAR MRLM 301800Z 05007KT CAVOK 30/24 A2983=
201508301900 METAR MRLM 301900Z 05008KT CAVOK 30/24 A2983=
201508302000 METAR MRLM 302000Z 06005KT CAVOK 30/25 A2980=
201508302100 METAR MRLM 302100Z 03007KT 9999 FEW030 BKN250 30/25 A2978=
201508302200 METAR MRLM 302200Z 04005KT 9999 FEW030 BKN250 30/25 A2978=
201508302300 METAR MRLM 302300Z 04005KT 9999 SCT020 SCT250 29/25 A2979=
201508310000 METAR MRLM 310000Z 00000KT 9999 FEW020 SCT250 28/24 A2981=
201508310100 METAR MRLM NIL=
201508310200 METAR MRLM NIL=
201508310300 METAR MRLM NIL=
201508310400 METAR MRLM NIL=
201508310500 METAR MRLM NIL=
201508310600 METAR MRLM NIL=
201508310700 METAR MRLM NIL=
201508310800 METAR MRLM NIL=
201508310900 METAR MRLM NIL=
201508311000 METAR MRLM NIL=
201508311100 METAR MRLM NIL=
201508311200 METAR MRLM 311200Z 25004KT CAVOK 24/22 A2984=
201508311300 METAR MRLM 311300Z 27004KT CAVOK 26/23 A2985=
201508311400 METAR MRLM 311400Z 33003KT CAVOK 30/23 A2987=
201508311500 METAR MRLM 311500Z 05006KT 9999 FEW030 30/24 A2989=
201508311600 METAR MRLM 311600Z 05007KT 9999 FEW030 BKN130 31/25 A2988=
201508311700 METAR MRLM 311700Z 04007KT CAVOK 30/24 A2988=
201508311800 METAR MRLM 311800Z 05007KT CAVOK 30/25 A2987=
201508311900 METAR MRLM 311900Z 05007KT 9999 FEW030 BKN250 30/25 A2984=
201508312000 METAR MRLM 312000Z 07005KT 9999 FEW030 BKN250 31/25 A2982=
201508312100 METAR MRLM NIL=
201508312200 METAR MRLM NIL=
201508312300 METAR MRLM NIL=
201509010000 METAR MRLM NIL=
201509010100 METAR MRLM NIL=
201509010200 METAR MRLM NIL=
201509010300 METAR MRLM NIL=
201509010400 METAR MRLM NIL=
201509010500 METAR MRLM NIL=
201509010600 METAR MRLM NIL=
201509010700 METAR MRLM NIL=
201509010800 METAR MRLM NIL=
201509010900 METAR MRLM NIL=
201509011000 METAR MRLM NIL=
201509011100 METAR MRLM NIL=
201509011200 METAR MRLM 011200Z 24004KT CAVOK 24/23 A2986=
201509011300 METAR MRLM 011300Z 27002KT CAVOK 26/24 A2987=
201509011400 METAR MRLM 011400Z 32002KT 9999 BKN015 27/23 A2992=
201509011410 METAR MRLM 011410Z 01012KT 9999 RA OVC010 26/23 A2992=
201509011500 METAR MRLM 011500Z 01004KT 9999 5000N DZ VCTS OVC010 25/23 A2994=
201509011600 METAR MRLM 011600Z 11007KT 5000 RA VCTS OVC010 24/22 A2997=
201509011700 METAR MRLM 011700Z 19005KT 5000 RA VCTS BKN010 23/22 A3000=
201509011800 METAR MRLM 011800Z 23005KT 9999 DZ SCT010 OVC090 23/22 A2995 RERA=
201509011900 METAR MRLM 011900Z 28005KT 9999 DZ FEW010 OVC090 24/22 A2989=
201509012000 METAR MRLM 012000Z 32004KT 9999 FEW010 BKN110 24/22 A2985=
201509012100 METAR MRLM NIL=
201509012200 METAR MRLM NIL=
201509012300 METAR MRLM NIL=
201509020000 METAR MRLM NIL=
201509020100 METAR MRLM NIL=
201509020200 METAR MRLM NIL=
201509020300 METAR MRLM NIL=
201509020400 METAR MRLM NIL=
201509020500 METAR MRLM NIL=
201509020600 METAR MRLM NIL=
201509020700 METAR MRLM NIL=
201509020800 METAR MRLM NIL=
201509020900 METAR MRLM NIL=
201509021000 METAR MRLM NIL=
201509021100 METAR MRLM NIL=
201509021200 METAR MRLM 021200Z 29004KT 9999 FEW010 BKN110 23/21 A2987=
201509021300 METAR MRLM 021300Z 27004KT CAVOK 23/20 A2990=
201509021400 METAR MRLM 021400Z 00000KT CAVOK 26/21 A2994=
201509021500 METAR MRLM 021500Z 32003KT 9999 SCT020 BKN120 28/21 A2996=
201509021520 METAR MRLM 021520Z 09020KT 4000 +RA OVC006 25/21 A2999=
201509021600 METAR MRLM 021600Z 24008KT 5000 RA BKN010 SCT090 22/21 A2998=
201509021700 METAR MRLM 021700Z 23005KT 9999 -DZ BKN010 SCT100 23/22 A2996 RERA=
201509021800 METAR MRLM 021800Z 24004KT CAVOK 27/23 A2992=
201509021900 METAR MRLM 021900Z 20004KT CAVOK 28/22 A2988=
201509022000 METAR MRLM 022000Z 21003KT CAVOK 30/21 A2985=
201509022100 METAR MRLM NIL=
201509022200 METAR MRLM NIL=
201509022300 METAR MRLM NIL=
201509030000 METAR MRLM NIL=
201509030100 METAR MRLM NIL=
201509030200 METAR MRLM NIL=
201509030300 METAR MRLM NIL=
201509030400 METAR MRLM NIL=
201509030500 METAR MRLM NIL=
201509030600 METAR MRLM NIL=
201509030700 METAR MRLM NIL=
201509030800 METAR MRLM NIL=
201509030900 METAR MRLM NIL=
201509031000 METAR MRLM NIL=
201509031100 METAR MRLM NIL=
201509031200 METAR MRLM 031200Z 24002KT CAVOK 24/23 A2985=
201509031300 METAR MRLM 031300Z 00000KT CAVOK 25/23 A2986=
201509031400 METAR MRLM 031400Z 33006KT 9999 SCT030 SCT130 27/22 A2989=
201509031500 METAR MRLM 031500Z 32007KT 9999 SCT030 BKN130 29/23 A2991=
201509031600 METAR MRLM 031600Z 33006KT 9999 SCT030 SCT140 29/23 A2992=
201509031700 METAR MRLM 031700Z 01008KT 9999 SCT025 SCT130 28/23 A2992=
201509031800 METAR MRLM 031800Z 03008KT 9999 BKN025 SCT130 28/23 A2990=
201509031830 METAR MRLM 031830Z 05010G31KT 6000 +RA OVC006 26/22 A2991=
201509031900 METAR MRLM 031900Z 10025KT 6000 RA BKN007 24/22 A2991=
201509032000 METAR MRLM 032000Z 21003KT 9999 -DZ SCT010 BKN110 25/21 A2988=
201509032100 METAR MRLM NIL=
201509032200 METAR MRLM NIL=
201509032300 METAR MRLM NIL=
201509040000 METAR MRLM NIL=
201509040100 METAR MRLM NIL=
201509040200 METAR MRLM NIL=
201509040300 METAR MRLM NIL=
201509040400 METAR MRLM NIL=
201509040500 METAR MRLM NIL=
201509040600 METAR MRLM NIL=
201509040700 METAR MRLM NIL=
201509040800 METAR MRLM NIL=
201509040900 METAR MRLM NIL=
201509041000 METAR MRLM NIL=
201509041100 METAR MRLM NIL=
201509041200 METAR MRLM 041200Z 00000KT CAVOK 23/21 A2984=
201509041300 METAR MRLM 041300Z 27002KT CAVOK 24/22 A2986=
201509041400 METAR MRLM 041400Z 29003KT CAVOK 26/22 A2988=
201509041500 METAR MRLM 041500Z 29002KT 9999 FEW030 BKN140 29/22 A2989=
201509041600 METAR MRLM 041600Z 06005KT 9999 FEW035 BKN140 29/22 A2990=
201509041700 METAR MRLM 041700Z 11010KT CAVOK 29/22 A2987=
201509041800 METAR MRLM 041800Z 35010KT 9999 FEW035 BKN130 29/22 A2986=
201509041900 METAR MRLM 041900Z 35007KT CAVOK 29/23 A2983=
201509042000 METAR MRLM 042000Z 32004KT CAVOK 30/23 A2981=
201509042100 METAR MRLM 042100Z 36010KT 9999 FEW030 BKN130 29/24 A2981=
201509042200 METAR MRLM 042200Z 01010KT 9999 SCT020 SCT130 28/24 A2980=
201509042300 METAR MRLM 042300Z 32003KT 9999 SCT020 SCT250 27/24 A2980=
201509050000 METAR MRLM 050000Z 00000KT 9999 SCT010 SCT250 26/24 A2982=
201509050100 METAR MRLM NIL=
201509050200 METAR MRLM NIL=
201509050300 METAR MRLM NIL=
201509050400 METAR MRLM NIL=
201509050500 METAR MRLM NIL=
201509050600 METAR MRLM NIL=
201509050700 METAR MRLM NIL=
201509050800 METAR MRLM NIL=
201509050900 METAR MRLM NIL=
201509051000 METAR MRLM NIL=
201509051100 METAR MRLM NIL=
201509051200 METAR MRLM NIL=
201509051300 METAR MRLM NIL=
201509051400 METAR MRLM NIL=
201509051500 METAR MRLM NIL=
201509051600 METAR MRLM NIL=
201509051700 METAR MRLM NIL=
201509051800 METAR MRLM NIL=
201509051900 METAR MRLM NIL=
201509052000 METAR MRLM NIL=
201509052100 METAR MRLM NIL=
201509052200 METAR MRLM NIL=
201509052300 METAR MRLM NIL=
201509060000 METAR MRLM NIL=
201509060100 METAR MRLM NIL=
201509060200 METAR MRLM NIL=
201509060300 METAR MRLM NIL=
201509060400 METAR MRLM NIL=
201509060500 METAR MRLM NIL=
201509060600 METAR MRLM NIL=
201509060700 METAR MRLM NIL=
201509060800 METAR MRLM NIL=
201509060900 METAR MRLM NIL=
201509061000 METAR MRLM NIL=
201509061100 METAR MRLM NIL=
201509061200 METAR MRLM 061200Z 28003KT 9999 -DZ SCT010 SCT110 23/22 A2987=
201509061300 METAR MRLM 061300Z 23003KT 9999 SCT010 BKN110 24/23 A2988=
201509061400 METAR MRLM 061400Z 00000KT 9999 SCT010 SCT120 26/24 A2991=
201509061500 METAR MRLM 061500Z 08015KT 5000 RA OVC010 25/23 A2996=
201509061600 METAR MRLM 061600Z 06005KT 7000 +DZ BKN010 SCT100 24/22 A2996 RERA=
201509061700 METAR MRLM 061700Z 26005KT 9999 DZ BKN007 SCT100 24/23 A2996=
201509061800 METAR MRLM 061800Z 26004KT 9999 DZ SCT010 BKN110 24/23 A2991=
201509061900 METAR MRLM 061900Z 30002KT CAVOK 25/23 A2987=
201509062000 METAR MRLM 062000Z 30002KT CAVOK 26/21 A2985=
201509062100 METAR MRLM 062100Z 36005KT CAVOK 27/21 A2983=
201509062200 METAR MRLM 062200Z 27003KT CAVOK 27/22 A2984=
201509062300 METAR MRLM 062300Z 24003KT CAVOK 26/23 A2986=
201509070000 METAR MRLM 070000Z 23003KT CAVOK 25/23 A2987=
201509070100 METAR MRLM NIL=
201509070200 METAR MRLM NIL=
201509070300 METAR MRLM NIL=
201509070400 METAR MRLM NIL=
201509070500 METAR MRLM NIL=
201509070600 METAR MRLM NIL=
201509070700 METAR MRLM NIL=
201509070800 METAR MRLM NIL=
201509070900 METAR MRLM NIL=
201509071000 METAR MRLM NIL=
201509071100 METAR MRLM NIL=
201509071200 METAR MRLM 071200Z 26005KT CAVOK 22/20 A2984=
201509071300 METAR MRLM 071300Z 26004KT 9999 FEW040 SCT100 24/21 A2986=
201509071400 METAR MRLM 071400Z 24004KT CAVOK 26/23 A2989=
201509071500 METAR MRLM 071500Z 29004KT CAVOK 30/23 A2989=
201509071600 METAR MRLM 071600Z 08004KT 9999 FEW040 SCT100 29/23 A2990=
201509071700 METAR MRLM 071700Z 03005KT CAVOK 29/23 A2989=
201509071800 METAR MRLM 071800Z 03006KT 9999 FEW030 BKN100 30/23 A2989=
201509071900 METAR MRLM 071900Z 03004KT 9999 FEW030 BKN100 28/23 A2985=
201509072000 METAR MRLM 072000Z 10005KT 9999 VCSH SCT030 BKN100 28/23 A2981=
201509072100 METAR MRLM NIL=
201509072200 METAR MRLM NIL=
201509072300 METAR MRLM NIL=
201509080000 METAR MRLM NIL=
201509080100 METAR MRLM NIL=
201509080200 METAR MRLM NIL=
201509080300 METAR MRLM NIL=
201509080400 METAR MRLM NIL=
201509080500 METAR MRLM NIL=
201509080600 METAR MRLM NIL=
201509080700 METAR MRLM NIL=
201509080800 METAR MRLM NIL=
201509080900 METAR MRLM NIL=
201509081000 METAR MRLM NIL=
201509081100 METAR MRLM NIL=
201509081200 METAR MRLM 081200Z 20003KT 9999 SCT025 BKN080 23/22 A2984=
201509081230 METAR MRLM 081230Z SPECI 33004KT 3000 -RA SCT015 BKN070 23/22 A2984=
201509081300 METAR MRLM 081300Z 27004KT 7000 DZ SCT020 BKN080 23/22 A2983=
201509081400 METAR MRLM 081400Z 26004KT 9999 SCT020CB BKN090 24/23 A2984 REDZ=
201509081500 METAR MRLM 081500Z 28004KT 9000 -RA SCT020 BKN090 24/23 A2986 RERA=
201509081600 METAR MRLM 081600Z 26004KT 3000 -RA SCT018CB BKN060 24/23 A2987=
201509081700 METAR MRLM 081700Z 17004KT 2000 -TSRA SCT012CB BKN030 23/23 A2990=
201509081800 METAR MRLM 081800Z 21003KT 4000 -RA SCT015CB OVC050 24/23 A2988 RETS=
201509081900 METAR MRLM 081900Z 22003KT 7000 -RA SCT020 BKN070 23/23 A2982=
201509082000 METAR MRLM 082000Z 23005KT 9999 FEW025 BKN100 24/23 A2978=
201509082100 METAR MRLM NIL=
201509082200 METAR MRLM NIL=
201509082300 METAR MRLM NIL=
201509090000 METAR MRLM NIL=
201509090100 METAR MRLM NIL=
201509090200 METAR MRLM NIL=
201509090300 METAR MRLM NIL=
201509090400 METAR MRLM NIL=
201509090500 METAR MRLM NIL=
201509090600 METAR MRLM NIL=
201509090700 METAR MRLM NIL=
201509090800 METAR MRLM NIL=
201509090900 METAR MRLM NIL=
201509091000 METAR MRLM NIL=
201509091100 METAR MRLM NIL=
201509091200 METAR MRLM 091200Z 26004KT 9999 FEW040 SCT130 23/22 A2980=
201509091300 METAR MRLM 091300Z 26005KT 9999 SCT035 SCT120 24/23 A2981=
201509091400 METAR MRLM 091400Z 28004KT 9999 FEW040 SCT120 26/24 A2981=
201509091500 METAR MRLM 091500Z 08003KT CAVOK 29/24 A2982=
201509091600 METAR MRLM 091600Z 34007KT CAVOK 29/23 A2982=
201509091700 METAR MRLM 091700Z 02006KT 9999 SCT035 BKN100 28/24 A2982=
201509091800 METAR MRLM 091800Z 02010KT 9999 SCT025 BKN100 28/24 A2982=
201509091900 METAR MRLM 091900Z 01008KT 6000 DZ SCT018 OVC100 26/25 A2979=
201509092000 METAR MRLM 092000Z 01010KT 9999 SCT015 BKN100 26/25 A2976 REDZ=
201509092100 METAR MRLM NIL=
201509092200 METAR MRLM NIL=
201509092300 METAR MRLM NIL=
201509100000 METAR MRLM NIL=
201509100100 METAR MRLM NIL=
201509100200 METAR MRLM NIL=
201509100300 METAR MRLM NIL=
201509100400 METAR MRLM NIL=
201509100500 METAR MRLM NIL=
201509100600 METAR MRLM NIL=
201509100700 METAR MRLM NIL=
201509100800 METAR MRLM NIL=
201509100900 METAR MRLM NIL=
201509101000 METAR MRLM NIL=
201509101100 METAR MRLM NIL=
201509101200 METAR MRLM 101200Z 30008KT 9000 -RA FEW020 BKN090 23/21 A2985=
201509101300 METAR MRLM 101300Z 29008KT 9000 -RA FEW018 BKN090 22/21 A2983=
201509101400 METAR MRLM 101400Z 33006KT 9999 -DZ FEW020 BKN100 23/21 A2985=
201509101500 METAR MRLM 101500Z 30003KT 9999 FEW025 BKN120 26/23 A2988=
201509101600 METAR MRLM 101600Z 33006KT 9999 FEW035 SCT090 BKN140 27/22 A2988=
201509101700 METAR MRLM 101700Z 34009KT CAVOK 27/22 A2989=
201509101800 METAR MRLM 101800Z 32005KT CAVOK 27/22 A2989=
201509101900 METAR MRLM 101900Z 34007KT CAVOK 27/22 A2985=
201509102000 METAR MRLM 102000Z 33007KT CAVOK 26/22 A2982=
201509102100 METAR MRLM NIL=
201509102200 METAR MRLM NIL=
201509102300 METAR MRLM NIL=
201509110000 METAR MRLM NIL=
201509110100 METAR MRLM NIL=
201509110200 METAR MRLM NIL=
201509110300 METAR MRLM NIL=
201509110400 METAR MRLM NIL=
201509110500 METAR MRLM NIL=
201509110600 METAR MRLM NIL=
201509110700 METAR MRLM NIL=
201509110800 METAR MRLM NIL=
201509110900 METAR MRLM NIL=
201509111000 METAR MRLM NIL=
201509111100 METAR MRLM NIL=
201509111200 METAR MRLM 111200Z 26003KT CAVOK 24/22 A2987=
201509111300 METAR MRLM 111300Z 24003KT CAVOK 25/23 A2989=
201509111400 METAR MRLM 111400Z 20003KT CAVOK 27/23 A2992=
201509111500 METAR MRLM 111500Z 32002KT CAVOK 28/22 A2992=
201509111600 METAR MRLM 111600Z 35003KT 9999 FEW040 BKN100 28/23 A2994=
201509111700 METAR MRLM 111700Z 03007KT 9999 FEW035 BKN100 27/23 A2994=
201509111800 METAR MRLM 111800Z 04007KT 9999 -DZ SCT025 BKN100 27/24 A2991=
201509111900 METAR MRLM 111900Z 07009KT 9999 DZ SCT020 BKN100 26/24 A299=
201509112000 METAR MRLM 11004KT 9999 SCT018 BKN100 26/24 A2986 REDZ=
201509112100 METAR MRLM 112100Z 20004KT 9999 FEW012 BKN100 26/23 A2985=
201509112200 METAR MRLM 112200Z 28002KT CAVOK 26/23 A2984=
201509112300 METAR MRLM 112300Z 24002KT CAVOK 26/23 A2985=
201509120000 METAR MRLM 120000Z 27003KT 9999 FEW030 BKN100 25/23 A2985=
201509120100 METAR MRLM NIL=
201509120200 METAR MRLM NIL=
201509120300 METAR MRLM NIL=
201509120400 METAR MRLM NIL=
201509120500 METAR MRLM NIL=
201509120600 METAR MRLM NIL=
201509120700 METAR MRLM NIL=
201509120800 METAR MRLM NIL=
201509120900 METAR MRLM NIL=
201509121000 METAR MRLM NIL=
201509121100 METAR MRLM NIL=
201509121200 METAR MRLM NIL=
201509121300 METAR MRLM 121300Z 27002KT CAVOK 25/23 A2986=
201509121400 METAR MRLM NIL=
201509121500 METAR MRLM NIL=
201509121600 METAR MRLM NIL=
201509121700 METAR MRLM NIL=
201509121800 METAR MRLM NIL=
201509121900 METAR MRLM NIL=
201509122000 METAR MRLM NIL=
201509122100 METAR MRLM NIL=
201509122200 METAR MRLM NIL=
201509122300 METAR MRLM NIL=
201509130000 METAR MRLM NIL=
201509130100 METAR MRLM NIL=
201509130200 METAR MRLM NIL=
201509130300 METAR MRLM NIL=
201509130400 METAR MRLM NIL=
201509130500 METAR MRLM NIL=
201509130600 METAR MRLM NIL=
201509130700 METAR MRLM NIL=
201509130800 METAR MRLM NIL=
201509130900 METAR MRLM NIL=
201509131000 METAR MRLM NIL=
201509131100 METAR MRLM NIL=
201509131200 METAR MRLM 131200Z 24004KT CAVOK 24/22 A2984=
201509131300 METAR MRLM NIL=
201509131400 METAR MRLM 131400Z 23003KT CAVOK 29/22 A2989=
201509131500 METAR MRLM 131500Z 09002KT CAVOK 29/22 A2990=
201509131600 METAR MRLM NIL=
201509131700 METAR MRLM 131700Z 09003KT CAVOK 30/23 A2988=
201509131800 METAR MRLM 131800Z 10006KT CAVOK 30/23 A2986=
201509131900 METAR MRLM 131900Z 08006KT CAVOK 30/24 A2983=
201509132000 METAR MRLM 132000Z 08007KT 9999 FEW040 SCT250 30/24 A2981=
201509132100 METAR MRLM 132100Z 06005KT 9999 FEW030 SCT250 29/24 A2979=
201509132200 METAR MRLM 04002KT 9999 FEW018 SCT250 29/23 A2978=
201509132300 METAR MRLM 132300Z 08006KT CAVOK 28/24 A2979=
201509140000 METAR MRLM NIL=
201509140100 METAR MRLM NIL=
201509140200 METAR MRLM NIL=
201509140300 METAR MRLM NIL=
201509140400 METAR MRLM NIL=
201509140500 METAR MRLM NIL=
201509140600 METAR MRLM NIL=
201509140700 METAR MRLM NIL=
201509140800 METAR MRLM NIL=
201509140900 METAR MRLM NIL=
201509141000 METAR MRLM NIL=
201509141100 METAR MRLM NIL=
201509141200 METAR MRLM 141200Z 29002KT CAVOK 23/22 A2984 REDZ=
201509141300 METAR MRLM 141300Z 00000KT CAVOK 24/23 A2987=
201509141400 METAR MRLM NIL=
201509141500 METAR MRLM 141500Z 09003KT 9000 DZ SCT018 BKN090 25/23 A2992=
201509141600 METAR MRLM 141600Z 29003KT 9999 SCT020 BKN100 26/24 A2992 REDZ=
201509141700 METAR MRLM 141700Z 33002KT 9999 SCT018 BKN100 27/24 A2992=
201509141800 METAR MRLM 141800Z 04002KT 9999 SCT020 BKN100 27/24 A2989=
201509141900 METAR MRLM 141900Z 07003KT CAVOK 28/24 A2986=
201509142000 METAR MRLM 142000Z 09002KT CAVOK 28/24 A2984=
201509142100 METAR MRLM NIL=
201509142200 METAR MRLM NIL=
201509142300 METAR MRLM NIL=
201509150000 METAR MRLM NIL=
201509150100 METAR MRLM NIL=
201509150200 METAR MRLM NIL=
201509150300 METAR MRLM NIL=
201509150400 METAR MRLM NIL=
201509150500 METAR MRLM NIL=
201509150600 METAR MRLM NIL=
201509150700 METAR MRLM NIL=
201509150800 METAR MRLM NIL=
201509150900 METAR MRLM NIL=
201509151000 METAR MRLM NIL=
201509151100 METAR MRLM NIL=
201509151200 METAR MRLM 151200Z 24003KT 9999 FEW025 BKN080 24/22 A2988 RERA=
201509151300 METAR MRLM 151300Z 26004KT 9999 FEW025 BKN100 24/23 A2989=
201509151400 METAR MRLM 151400Z 26003KT 9999 FEW035 BKN100 26/24 A2991=
201509151500 METAR MRLM 151500Z 31003KT 9999 FEW030 BKN100 27/24 A2993=
201509151600 METAR MRLM 151600Z 06003KT 9999 FEW030 BKN100 28/24 A2995=
201509151700 METAR MRLM NIL=
201509151800 METAR MRLM 151800Z 07002KT CAVOK 29/24 A2991=
201509151900 METAR MRLM 151900Z 08004KT CAVOK 29/24 A2988=
201509152000 METAR MRLM 152000Z 04006KT CAVOK 30/24 A2985=
201509152100 METAR MRLM NIL=
201509152200 METAR MRLM NIL=
201509152300 METAR MRLM NIL=
201509160000 METAR MRLM NIL=
201509160100 METAR MRLM NIL=
201509160200 METAR MRLM NIL=
201509160300 METAR MRLM NIL=
201509160400 METAR MRLM NIL=
201509160500 METAR MRLM NIL=
201509160600 METAR MRLM NIL=
201509160700 METAR MRLM NIL=
201509160800 METAR MRLM NIL=
201509160900 METAR MRLM NIL=
201509161000 METAR MRLM NIL=
201509161100 METAR MRLM NIL=
201509161200 METAR MRLM 161200Z 24005KT 9000 SCT018TCU BKN090 24/23 A2990=
201509161300 METAR MRLM 161300Z 24005KT 9999 SCT018 SCT100 24/23 A2990=
201509161400 METAR MRLM 161400Z 25004KT 9000 SCT020 BKN100 25/24 A2992=
201509161500 METAR MRLM 161500Z 22003KT 9999 DZ SCT020 BKN100 25/24 A2994=
201509161600 METAR MRLM 161600Z 18003KT 9000 DZ SCT018CB BKN100 25/24 A2996=
201509161611 METAR MRLM=
201509161615 METAR MRLM 161615Z SPECI 12020G30KT 4000 RA SCT012CB OVC040 24/22 A2999=
201509161700 METAR MRLM 161700Z 17007KT 5000 -TSRA SCT012CB OVC050 22/21 A2998=
201509161800 METAR MRLM 161800Z 30002KT 8000 -TSRA SCT020CB BKN100 22/21 A2995=
201509161900 METAR MRLM 161900Z 20003KT 9000 -RA SCT020 OVC100 23/21 A2990 RETS=
201509162000 METAR MRLM 162000Z 34003KT 9000 DZ SCT025 BKN100 23/22 A2986=
201509162100 METAR MRLM NIL=
201509162200 METAR MRLM NIL=
201509162300 METAR MRLM NIL=
201509170000 METAR MRLM NIL=
201509170100 METAR MRLM NIL=
201509170200 METAR MRLM NIL=
201509170300 METAR MRLM NIL=
201509170400 METAR MRLM NIL=
201509170500 METAR MRLM NIL=
201509170600 METAR MRLM NIL=
201509170700 METAR MRLM NIL=
201509170800 METAR MRLM NIL=
201509170900 METAR MRLM NIL=
201509171000 METAR MRLM NIL=
201509171100 METAR MRLM NIL=
201509171200 METAR MRLM 171200Z 25003KT CAVOK 22/20 A2983=
201509171300 METAR MRLM 171300Z 25003KT 9999 FEW035 SCT120 24/21 A2986=
201509171400 METAR MRLM 171400Z 31006KT 9999 FEW035 SCT120 26/21 A2988=
201509171500 METAR MRLM 171500Z 28004KT CAVOK 28/21 A2987=
201509171600 METAR MRLM 171600Z 09003KT CAVOK 29/22 A2988=
201509171700 METAR MRLM 171700Z 02009KT CAVOK 30/21 A2987=
201509171800 METAR MRLM 171800Z 01006KT CAVOK 31/23 A2984=
201509171900 METAR MRLM 171900Z 03012KT CAVOK 29/24 A2982=
201509172000 METAR MRLM 172000Z 03008KT CAVOK 30/23 A2979=
201509172100 METAR MRLM NIL=
201509172200 METAR MRLM NIL=
201509172300 METAR MRLM NIL=
201509180000 METAR MRLM NIL=
201509180100 METAR MRLM NIL=
201509180200 METAR MRLM NIL=
201509180300 METAR MRLM NIL=
201509180400 METAR MRLM NIL=
201509180500 METAR MRLM NIL=
201509180600 METAR MRLM NIL=
201509180700 METAR MRLM NIL=
201509180800 METAR MRLM NIL=
201509180900 METAR MRLM NIL=
201509181000 METAR MRLM NIL=
201509181100 METAR MRLM NIL=
201509181200 METAR MRLM 26004KT CAVOK 24/22 A2980=
201509181202 METAR MRLM 181202Z 26004KT CAVOK 24/22 A2980=
201509181300 METAR MRLM 181300Z 24004KT CAVOK 25/23 A2981=
201509181400 METAR MRLM 181400Z 29002KT CAVOK 26/23 A2984=
201509181500 METAR MRLM 181500Z 30005KT CAVOK 29/22 A2984=
201509181600 METAR MRLM NIL=
201509181700 METAR MRLM 181700Z 03010KT CAVOK 29/24 A2982=
201509181800 METAR MRLM 181800Z 03009KT CAVOK 29/24 A2981=
201509181900 METAR MRLM 181900Z 04008KT CAVOK 30/24 A2977=
201509182000 METAR MRLM 182000Z 06007KT CAVOK 30/24 A2974=
201509182100 METAR MRLM 182100Z 06004KT CAVOK 30/24 A2972=
201509182200 METAR MRLM 182200Z 09004KT CAVOK 30/23 A2970=
201509182300 METAR MRLM 182300Z 08006KT CAVOK 29/24 A2972=
201509182343 METAR MRLM 190000Z 10005KT CAVOK 28/23 A2974=
201509190000 METAR MRLM 190000Z 10005KT CAVOK 28/23 A2974=
201509190100 METAR MRLM NIL=
201509190200 METAR MRLM NIL=
201509190300 METAR MRLM NIL=
201509190400 METAR MRLM NIL=
201509190500 METAR MRLM NIL=
201509190600 METAR MRLM NIL=
201509190700 METAR MRLM NIL=
201509190800 METAR MRLM NIL=
201509190900 METAR MRLM NIL=
201509191000 METAR MRLM NIL=
201509191100 METAR MRLM NIL=
201509191200 METAR MRLM NIL=
201509191300 METAR MRLM NIL=
201509191400 METAR MRLM NIL=
201509191500 METAR MRLM NIL=
201509191600 METAR MRLM NIL=
201509191700 METAR MRLM NIL=
201509191800 METAR MRLM NIL=
201509191900 METAR MRLM NIL=
201509192000 METAR MRLM NIL=
201509192100 METAR MRLM NIL=
201509192200 METAR MRLM NIL=
201509192300 METAR MRLM NIL=
201509200000 METAR MRLM NIL=
201509200100 METAR MRLM NIL=
201509200200 METAR MRLM NIL=
201509200300 METAR MRLM NIL=
201509200400 METAR MRLM NIL=
201509200500 METAR MRLM NIL=
201509200600 METAR MRLM NIL=
201509200700 METAR MRLM NIL=
201509200800 METAR MRLM NIL=
201509200900 METAR MRLM NIL=
201509201000 METAR MRLM NIL=
201509201100 METAR MRLM NIL=
201509201200 METAR MRLM 201200Z 24002KT CAVOK 24/23 A2984=
201509201300 METAR MRLM 201300Z 27003KT CAVOK 27/24 A2986=
201509201400 METAR MRLM 201400Z 06003KT CAVOK 29/23 A2987=
201509201500 METAR MRLM 201500Z 07003KT CAVOK 30/23 A2988=
201509201600 METAR MRLM 201600Z 09004KT CAVOK 30/24 A2988=
201509201700 METAR MRLM 201700Z 09005KT CAVOK 30/25 A2986=
201509201800 METAR MRLM 201800Z 09007KT CAVOK 31/24 A2983=
201509201900 METAR MRLM NIL=
201509202000 METAR MRLM 202000Z 09007KT CAVOK 31/23 A2977=
201509202100 METAR MRLM 202100Z 07006KT CAVOK 31/24 A2975=
201509202200 METAR MRLM 202200Z 07005KT CAVOK 30/24 A2975=
201509202300 METAR MRLM 202300Z 07004KT CAVOK 30/23 A2977=
201509202341 METAR MRLM 210000Z 05003KT CAVOK 29/23 A2978=
201509210000 METAR MRLM 210000Z 05003KT CAVOK 29/23 A2978=
201509210100 METAR MRLM NIL=
201509210200 METAR MRLM NIL=
201509210300 METAR MRLM NIL=
201509210400 METAR MRLM NIL=
201509210500 METAR MRLM NIL=
201509210600 METAR MRLM NIL=
201509210700 METAR MRLM NIL=
201509210800 METAR MRLM NIL=
201509210900 METAR MRLM NIL=
201509211000 METAR MRLM NIL=
201509211100 METAR MRLM NIL=
201509211200 METAR MRLM 211200Z 26005KT 9999 FEW035 SCT130 24/23 A2979=
201509211300 METAR MRLM 211300Z 25004KT CAVOK 25/23 A2982=
201509211400 METAR MRLM 211400Z 25004KT CAVOK 26/24 A2984=
201509211500 METAR MRLM 211500Z 25003KT CAVOK 28/25 A2983=
201509211600 METAR MRLM 211600Z 09004KT CAVOK 30/25 A2983=
201509211700 METAR MRLM 211700Z 07004KT CAVOK 30/25 A2981=
201509211800 METAR MRLM 211800Z 06005KT CAVOK 31/25 A2978=
201509211900 METAR MRLM 211900Z 04007KT CAVOK 31/25 A2979=
201509212000 METAR MRLM 212000Z 07009KT CAVOK 31/24 A2973=
201509212100 METAR MRLM NIL=
201509212200 METAR MRLM NIL=
201509212300 METAR MRLM NIL=
201509220000 METAR MRLM NIL=
201509220100 METAR MRLM NIL=
201509220200 METAR MRLM NIL=
201509220300 METAR MRLM NIL=
201509220400 METAR MRLM NIL=
201509220500 METAR MRLM NIL=
201509220600 METAR MRLM NIL=
201509220700 METAR MRLM NIL=
201509220800 METAR MRLM NIL=
201509220900 METAR MRLM NIL=
201509221000 METAR MRLM NIL=
201509221100 METAR MRLM NIL=
201509221200 METAR MRLM 221200Z 25004KT CAVOK 23/22 A2979=
201509221300 METAR MRLM 221300Z 25004KT CAVOK 25/23 A2979=
201509221400 METAR MRLM 221400Z 25003KT CAVOK 29/23 A2982=
201509221500 METAR MRLM 221500Z 04004KT 9999 FEW030 SCT130 SCT240 30/24 A2983=
201509221600 METAR MRLM 221600Z 01010KT 9999 BKN020 29/24 A2984=
201509221700 METAR MRLM 221700Z 03008KT 9999 FEW020 BKN240 28/24 A2982=
201509221800 METAR MRLM 221800Z 29003KT 9999 FEW030 SCT130 SCT240 29/24 A2977=
201509221900 METAR MRLM 221900Z 01013KT 9999 FEW030 SCT140 SCT240 30/24 A2976=
201509222000 METAR MRLM 222000Z 02011KT 9999 SCT030 SCT250 30/24 A2977=
201509222100 METAR MRLM NIL=
201509222200 METAR MRLM NIL=
201509222300 METAR MRLM NIL=
201509230000 METAR MRLM NIL=
201509230100 METAR MRLM NIL=
201509230200 METAR MRLM NIL=
201509230300 METAR MRLM NIL=
201509230400 METAR MRLM NIL=
201509230500 METAR MRLM NIL=
201509230600 METAR MRLM NIL=
201509230700 METAR MRLM NIL=
201509230800 METAR MRLM NIL=
201509230900 METAR MRLM NIL=
201509231000 METAR MRLM NIL=
201509231100 METAR MRLM NIL=
201509231200 METAR MRLM 231200Z 17004KT 7000 RA BKN010 24/23 A2981=
201509231300 METAR MRLM 231300Z 30004KT 9999 DZ BKN010 24/23 A2981 RERA=
201509231400 METAR MRLM 231400Z 28004KT 9999 FEW015 SCT120 SCT250 27/25 A2982=
201509231500 METAR MRLM 231500Z 31002KT CAVOK 29/24 A2982=
201509231600 METAR MRLM 231600Z 33005KT 9999 FEW030 BKN140 29/23 A2983=
201509231700 METAR MRLM 231700Z 01009KT CAVOK 29/24 A2983=
201509231800 METAR MRLM 231800Z 36009KT 9999 FEW025 BKN130 29/24 A2979=
201509231900 METAR MRLM 231900Z 01011KT 9999 BKN020 SCT130 28/24 A2977=
201509232000 METAR MRLM 232000Z 34006KT 7000 +DZ BKN010 27/24 A2974=
201509232100 METAR MRLM NIL=
201509232200 METAR MRLM NIL=
201509232300 METAR MRLM NIL=
201509240000 METAR MRLM NIL=
201509240100 METAR MRLM NIL=
201509240200 METAR MRLM NIL=
201509240300 METAR MRLM NIL=
201509240400 METAR MRLM NIL=
201509240500 METAR MRLM NIL=
201509240600 METAR MRLM NIL=
201509240700 METAR MRLM NIL=
201509240800 METAR MRLM NIL=
201509240900 METAR MRLM NIL=
201509241000 METAR MRLM NIL=
201509241100 METAR MRLM NIL=
201509241200 METAR MRLM 241200Z 26004KT CAVOK 23/23 A2981=
201509241300 METAR MRLM 241300Z 27004KT CAVOK 24/23 A2982=
201509241400 METAR MRLM 241400Z 32003KT CAVOK 27/23 A2983=
201509241500 METAR MRLM 241500Z 33004KT CAVOK 28/22 A2984=
201509241600 METAR MRLM 241600Z 01007KT CAVOK 29/22 A2986=
201509241700 METAR MRLM 241700Z 03007KT 9999 FEW030 BKN130 29/22 A2985=
201509241800 METAR MRLM 241800Z 02007KT CAVOK 29/23 A2982=
201509241900 METAR MRLM 241900Z 01009KT 9999 FEW030 SCT140 SCT250 29/23 A2980=
201509242000 METAR MRLM 242000Z 35007KT 9999 FEW030 BKN250 29/22 A2976=
201509242100 METAR MRLM NIL=
201509242200 METAR MRLM NIL=
201509242300 METAR MRLM NIL=
201509250000 METAR MRLM NIL=
201509250100 METAR MRLM NIL=
201509250200 METAR MRLM NIL=
201509250300 METAR MRLM NIL=
201509250400 METAR MRLM NIL=
201509250500 METAR MRLM NIL=
201509250600 METAR MRLM NIL=
201509250700 METAR MRLM NIL=
201509250800 METAR MRLM NIL=
201509250900 METAR MRLM NIL=
201509251000 METAR MRLM NIL=
201509251100 METAR MRLM NIL=
201509251200 METAR MRLM 251200Z 25004KT 9999 TS FEW007CB SCT015 23/22 A2983=
201509251300 METAR MRLM 251300Z 25004KT 9999 VCTS FEW007CB SCT015 23/22 A2984=
201509251400 METAR MRLM 251400Z 26003KT 9999 SCT015 24/23 A2986 REVCTS=
201509251500 METAR MRLM 251500Z 00000KT 9999 FEW015 BKN130 26/24 A2986=
201509251600 METAR MRLM 251600Z 05002KT 9999 FEW020 BKN130 27/24 A2987=
201509251700 METAR MRLM 251700Z 02006KT 9999 FEW020 SCT130 SCT250 28/24 A2985=
201509251800 METAR MRLM 251800Z 02005KT 9999 FEW020 SCT130 BKN250 28/24 A2982=
201509251900 METAR MRLM 251900Z 05005KT 9999 FEW020 BKN250 28/24 A2979=
201509252000 METAR MRLM 252000Z 09005KT CAVOK 29/24 A2976=
201509252100 METAR MRLM 252100Z 09005KT CAVOK 29/24 A2975=
201509252200 METAR MRLM 252200Z 11004KT CAVOK 28/24 A2975=
201509252300 METAR MRLM 252300Z 00000KT CAVOK 27/24 A2977=
201509260000 METAR MRLM 260000Z 00000KT CAVOK 26/24 A2979=
201509260100 METAR MRLM NIL=
201509260200 METAR MRLM NIL=
201509260300 METAR MRLM NIL=
201509260400 METAR MRLM NIL=
201509260500 METAR MRLM NIL=
201509260600 METAR MRLM NIL=
201509260700 METAR MRLM NIL=
201509260800 METAR MRLM NIL=
201509260900 METAR MRLM NIL=
201509261000 METAR MRLM NIL=
201509261100 METAR MRLM NIL=
201509261200 METAR MRLM NIL=
201509261300 METAR MRLM NIL=
201509261400 METAR MRLM NIL=
201509261500 METAR MRLM NIL=
201509261600 METAR MRLM NIL=
201509261700 METAR MRLM NIL=
201509261800 METAR MRLM NIL=
201509261900 METAR MRLM NIL=
201509262000 METAR MRLM NIL=
201509262100 METAR MRLM NIL=
201509262200 METAR MRLM NIL=
201509262300 METAR MRLM NIL=
201509270000 METAR MRLM NIL=
201509270100 METAR MRLM NIL=
201509270200 METAR MRLM NIL=
201509270300 METAR MRLM NIL=
201509270400 METAR MRLM NIL=
201509270500 METAR MRLM NIL=
201509270600 METAR MRLM NIL=
201509270700 METAR MRLM NIL=
201509270800 METAR MRLM NIL=
201509270900 METAR MRLM NIL=
201509271000 METAR MRLM NIL=
201509271100 METAR MRLM NIL=
201509271200 METAR MRLM 271200Z 28003KT CAVOK 26/25 A2982=
201509271300 METAR MRLM 271300Z 24004KT CAVOK 27/25 A2984=
201509271400 METAR MRLM 271400Z 00000KT CAVOK 28/25 A2986=
201509271500 METAR MRLM 271500Z 28002KT CAVOK 30/24 A2986=
201509271600 METAR MRLM 271600Z 04005KT 9999 FEW030 BKN250 30/24 A2986=
201509271700 METAR MRLM 271700Z 05007KT CAVOK 30/25 A2984=
201509271800 METAR MRLM 271800Z 05006KT CAVOK 30/25 A2982=
201509271900 METAR MRLM 271900Z 05007KT 9999 FEW030 BKN250 30/25 A2978=
201509272000 METAR MRLM 272000Z 05007KT 9999 SCT030 SCT250 31/25 A2976=
201509272100 METAR MRLM 272100Z 07006KT 9999 SCT030 BKN250 30/25 A2973=
201509272200 METAR MRLM 272200Z 08006KT 9999 SCT030 BKN250 A2973=
201509272300 METAR MRLM 272300Z 09005KT 9999 SCT020 SCT250 29/24 A2975=
201509280000 METAR MRLM 280000Z 10005KT 9999 SCT020 BKN250 28/24 A2977=
201509280100 METAR MRLM NIL=
201509280200 METAR MRLM NIL=
201509280300 METAR MRLM NIL=
201509280400 METAR MRLM NIL=
201509280500 METAR MRLM NIL=
201509280600 METAR MRLM NIL=
201509280700 METAR MRLM NIL=
201509280800 METAR MRLM NIL=
201509280900 METAR MRLM NIL=
201509281000 METAR MRLM NIL=
201509281100 METAR MRLM NIL=
201509281200 METAR MRLM 281200Z 25004KT CAVOK 24/23 A2982=
201509281300 METAR MRLM 281300Z 24004KT CAVOK 24/23 A2982=
201509281400 METAR MRLM 281400Z 00000KT CAVOK 30/25 A2984=
201509281500 METAR MRLM 281500Z 00000KT 9999 FEW030 BKN130 30/25 A2984=
201509281600 METAR MRLM 281600Z 07003KT 9999 SCT030 BKN130 30/25 A2985=
201509281700 METAR MRLM 281700Z 06005KT 9999 FEW030 SCT130 BKN250 30/25 A2983=
201509281800 METAR MRLM 281800Z 04006KT CAVOK 30/25 A2979=
201509281900 METAR MRLM 281900Z 06007KT CAVOK 31/25 A2978=
201509282000 METAR MRLM 282000Z 08007KT 9999 FEW030 BKN250 31/25 A2975=
201509282100 METAR MRLM NIL=
201509282200 METAR MRLM NIL=
201509282300 METAR MRLM NIL=
201509290000 METAR MRLM NIL=
201509290100 METAR MRLM NIL=
201509290200 METAR MRLM NIL=
201509290300 METAR MRLM NIL=
201509290400 METAR MRLM NIL=
201509290500 METAR MRLM NIL=
201509290600 METAR MRLM NIL=
201509290700 METAR MRLM NIL=
201509290800 METAR MRLM NIL=
201509290900 METAR MRLM NIL=
201509291000 METAR MRLM NIL=
201509291100 METAR MRLM NIL=
201509291200 METAR MRLM NIL=
201509291300 METAR MRLM 291300Z 25005KT CAVOK 26/23 A2981=
201509291400 METAR MRLM 291400Z 03006KT CAVOK 31/25 A2981=
201509291500 METAR MRLM 291500Z 08005KT CAVOK 31/24 A2984=
201509291600 METAR MRLM 291600Z 03007KT 9999 FEW030 BKN250 31/24 A2981=
201509291700 METAR MRLM 291700Z 03006KT 9999 FEW030 31/25 A2981=
201509291800 METAR MRLM 291800Z 03008KT CAVOK 31/25 A2978=
201509291900 METAR MRLM 291900Z 05008KT 9999 FEW030 SCT250 31/25 A2978=
201509292000 METAR MRLM 292000Z 03005KT 9999 BKN030 31/25 A2975=
201509292100 METAR MRLM NIL=
201509292200 METAR MRLM NIL=
201509292300 METAR MRLM NIL=
201509300000 METAR MRLM NIL=
201509300100 METAR MRLM NIL=
201509300200 METAR MRLM NIL=
201509300300 METAR MRLM NIL=
201509300400 METAR MRLM NIL=
201509300500 METAR MRLM NIL=
201509300600 METAR MRLM NIL=
201509300700 METAR MRLM NIL=
201509300800 METAR MRLM NIL=
201509300900 METAR MRLM NIL=
201509301000 METAR MRLM NIL=
201509301100 METAR MRLM NIL=
201509301200 METAR MRLM 301200Z 00000KT CAVOK 24/23 A2980=
201509301300 METAR MRLM 301300Z 25003KT CAVOK 25/23 A2981=
201509301400 METAR MRLM 301400Z 26005KT CAVOK 28/24 A2982=
201509301500 METAR MRLM NIL=
201509301600 METAR MRLM 301600Z 03006KT 9999 SCT030 BKN130 31/24 A2983=
201509301700 METAR MRLM 301700Z 03004KT 9999 FEW030 BKN250 30/25 A2981=
201509301800 METAR MRLM 301800Z 03003KT 9999 FEW030 BKN250 30/24 A2979=
201509301900 METAR MRLM 301900Z 04007KT 9999 FEW030 BKN260 31/25 A2977=
201509302000 METAR MRLM 302000Z 03008KT CAVOK 31/25 A2973=
201509302100 METAR MRLM NIL=
201509302200 METAR MRLM NIL=
201509302300 METAR MRLM NIL=
201510010000 METAR MRLM NIL=
201510010100 METAR MRLM NIL=
201510010200 METAR MRLM NIL=
201510010300 METAR MRLM NIL=
201510010400 METAR MRLM NIL=
201510010500 METAR MRLM NIL=
201510010600 METAR MRLM NIL=
201510010700 METAR MRLM NIL=
201510010800 METAR MRLM NIL=
201510010900 METAR MRLM NIL=
201510011000 METAR MRLM NIL=
201510011100 METAR MRLM NIL=
201510011200 METAR MRLM 011200Z 24004KT CAVOK 24/23 A2979=
201510011300 METAR MRLM 011300Z 26004KT CAVOK 25/23 A2980=
201510011400 METAR MRLM 011400Z 25002KT CAVOK 29/24 A2981=
201510011500 METAR MRLM 011500Z 05006KT 9999 FEW030 BKN260 30/23 A2982=
201510011600 METAR MRLM 011600Z 05007KT 9999 FEW030 SCT260 30/24 A2982=
201510011700 METAR MRLM 011700Z 04008KT CAVOK 31/24 A2980=
201510011800 METAR MRLM 011800Z 04008KT CAVOK 30/24 A2977=
201510011900 METAR MRLM 011900Z 04007KT 9999 FEW030 SCT260 31/24 A2974=
201510012000 METAR MRLM 012000Z 03008KT 9999 FEW030 BKN260 31/24 A2972=
201510012100 METAR MRLM NIL=
201510012200 METAR MRLM NIL=
201510012300 METAR MRLM NIL=
201510020000 METAR MRLM NIL=
201510020100 METAR MRLM NIL=
201510020200 METAR MRLM NIL=
201510020300 METAR MRLM NIL=
201510020400 METAR MRLM NIL=
201510020500 METAR MRLM NIL=
201510020600 METAR MRLM NIL=
201510020700 METAR MRLM NIL=
201510020800 METAR MRLM NIL=
201510020900 METAR MRLM NIL=
201510021000 METAR MRLM NIL=
201510021100 METAR MRLM NIL=
201510021200 METAR MRLM 021200Z 25004KT CAVOK 24/22 A2975=
201510021300 METAR MRLM 021300Z 26003KT CAVOK 25/23 A2977=
201510021400 METAR MRLM 021400Z 26002KT CAVOK 27/23 A2978=
201510021500 METAR MRLM 021500Z 05003KT 9999 FEW030 30/22 A2978=
201510021600 METAR MRLM 021600Z 06004KT 9999 FEW030 30/22 A2978=
201510021700 METAR MRLM 021700Z 05006KT 9999 FEW030 SCT250 30/24 A2977=
201510021800 METAR MRLM 021800Z 05005KT 9999 FEW030 31/25 A2976=
201510021900 METAR MRLM 021900Z 06005KT 9999 FEW030 SCT240 29/24 A2973=
201510022000 METAR MRLM 022000Z 08005KT 9999 -DZ FEW030 SCT140 SCT240 30/24 A2971=
201510022100 METAR MRLM 022100Z 07003KT 9999 -DZ SCT020 SCT130 29/24 A2970=
201510022200 METAR MRLM 022200Z 27003KT 9999 DZ OVC015 28/25 A2971=
201510022300 METAR MRLM 022300Z 25004KT 9999 BKN010 26/24 A2972=
201510030000 METAR MRLM 030000Z 24003KT 9999 -DZ BKN010 SCT110 25/24 A2974=
201510030100 METAR MRLM NIL=
201510030200 METAR MRLM NIL=
201510030300 METAR MRLM NIL=
201510030400 METAR MRLM NIL=
201510030500 METAR MRLM NIL=
201510030600 METAR MRLM NIL=
201510030700 METAR MRLM NIL=
201510030800 METAR MRLM NIL=
201510030900 METAR MRLM NIL=
201510031000 METAR MRLM NIL=
201510031100 METAR MRLM NIL=
201510031200 METAR MRLM NIL=
201510031300 METAR MRLM NIL=
201510031400 METAR MRLM NIL=
201510031500 METAR MRLM NIL=
201510031600 METAR MRLM NIL=
201510031700 METAR MRLM NIL=
201510031800 METAR MRLM NIL=
201510031900 METAR MRLM NIL=
201510032000 METAR MRLM NIL=
201510032100 METAR MRLM NIL=
201510032200 METAR MRLM NIL=
201510032300 METAR MRLM NIL=
201510040000 METAR MRLM NIL=
201510040100 METAR MRLM NIL=
201510040200 METAR MRLM NIL=
201510040300 METAR MRLM NIL=
201510040400 METAR MRLM NIL=
201510040500 METAR MRLM NIL=
201510040600 METAR MRLM NIL=
201510040700 METAR MRLM NIL=
201510040800 METAR MRLM NIL=
201510040900 METAR MRLM NIL=
201510041000 METAR MRLM NIL=
201510041100 METAR MRLM NIL=
201510041200 METAR MRLM 041200Z 25004KT CAVOK 22/21 A2979=
201510041300 METAR MRLM 041300Z 27004KT CAVOK 24/22 A2983=
201510041400 METAR MRLM 041400Z 25005KT CAVOK 27/22 A2984=
201510041500 METAR MRLM 041500Z 00000KT CAVOK 29/22 A2986=
201510041600 METAR MRLM 041600Z 25004KT 9999 FEW035 BKN250 30/23 A2986=
201510041700 METAR MRLM 041700Z 08005KT 9999 FEW030 BKN250 31/24 A2985=
201510041800 METAR MRLM 041800Z 06006KT CAVOK 30/24 A2983=
201510041900 METAR MRLM 041900Z 04008KT CAVOK 31/23 A2981=
201510042000 METAR MRLM 042000Z 07006KT CAVOK 31/24 A2980=
201510042100 METAR MRLM 042100Z 07005KT 9999 FEW030 BKN250 30/24 A2978=
201510042200 METAR MRLM 042200Z 06006KT 9999 SCT030 SCT250 30/24 A2979=
201510042300 METAR MRLM 042300Z 06005KT 9999 BKN025 29/24 A2980=
201510050000 METAR MRLM 050000Z 06005KT 9999 BKN020 29/24 A2981=
201510050100 METAR MRLM NIL=
201510050200 METAR MRLM NIL=
201510050300 METAR MRLM NIL=
201510050400 METAR MRLM NIL=
201510050500 METAR MRLM NIL=
201510050600 METAR MRLM NIL=
201510050700 METAR MRLM NIL=
201510050800 METAR MRLM NIL=
201510050900 METAR MRLM NIL=
201510051000 METAR MRLM NIL=
201510051100 METAR MRLM NIL=
201510051200 METAR MRLM 051200Z 25004KT CAVOK 24/22 A2987=
201510051300 METAR MRLM 051300Z 26004KT 9999 FEW030 BKN260 26/23 A2987=
201510051400 METAR MRLM 051400Z 23002KT 9999 FEW030 BKN260 30/24 A2990=
201510051500 METAR MRLM 051500Z 10003KT 9999 FEW030 BKN260 30/24 A2990=
201510051600 METAR MRLM NIL=
201510051700 METAR MRLM 051700Z 09006KT 9999 FEW030 BKN260 31/24 A2990=
201510051800 METAR MRLM 051800Z 09006KT 9999 FEW030 OVC260 31/24 A2986=
201510051900 METAR MRLM 051900Z 08006KT CAVOK 31/23 A2984=
201510052000 METAR MRLM 052000Z 06006KT CAVOK 31/24 A2982=
201510052100 METAR MRLM NIL=
201510052200 METAR MRLM NIL=
201510052300 METAR MRLM NIL=
201510060000 METAR MRLM NIL=
201510060100 METAR MRLM NIL=
201510060200 METAR MRLM NIL=
201510060300 METAR MRLM NIL=
201510060400 METAR MRLM NIL=
201510060500 METAR MRLM NIL=
201510060600 METAR MRLM NIL=
201510060700 METAR MRLM NIL=
201510060800 METAR MRLM NIL=
201510060900 METAR MRLM NIL=
201510061000 METAR MRLM NIL=
201510061100 METAR MRLM NIL=
201510061200 METAR MRLM 061200Z 25004KT 9999 FEW010 BKN250 24/23 A2987=
201510061300 METAR MRLM 061300Z 25005KT 9999 FEW010 BKN250 25/23 A2988=
201510061400 METAR MRLM 061400Z 25004KT 9999 FEW015 SCT130 SCT250 27/24 A2990=
201510061500 METAR MRLM 061500Z 28003KT 9999 FEW025 SCT140 SCT260 30/25 A2992=
201510061600 METAR MRLM 061600Z 02005KT 9999 SCT035 SCT260 31/25 A2991=
201510061700 METAR MRLM 061700Z 04006KT 9999 FEW030 SCT260 31/24 A2987=
201510061800 METAR MRLM 061800Z 03010KT 9999 FEW030 BKN260 31/24 A2985=
201510061900 METAR MRLM 061900Z 02010KT CAVOK 32/24 A2983=
201510062000 METAR MRLM 062000Z 02011KT CAVOK 31/24 A2982=
201510062100 METAR MRLM NIL=
201510062200 METAR MRLM NIL=
201510062300 METAR MRLM NIL=
201510070000 METAR MRLM NIL=
201510070100 METAR MRLM NIL=
201510070200 METAR MRLM NIL=
201510070300 METAR MRLM NIL=
201510070400 METAR MRLM NIL=
201510070500 METAR MRLM NIL=
201510070600 METAR MRLM NIL=
201510070700 METAR MRLM NIL=
201510070800 METAR MRLM NIL=
201510070900 METAR MRLM NIL=
201510071000 METAR MRLM NIL=
201510071100 METAR MRLM NIL=
201510071200 METAR MRLM 071200Z 27003KT 9999 SCT010 SCT110 24/22 A2986=
201510071300 METAR MRLM 071300Z 26004KT 9999 SCT010 SCT110 24/22 A2987=
201510071400 METAR MRLM 071400Z 27003KT 9999 SCT015 BKN130 25/22 A2989=
201510071500 METAR MRLM 071500Z 31005KT CAVOK 28/22 A2989=
201510071600 METAR MRLM 071600Z 33005KT 9999 FEW030 SCT130 SCT250 28/22 A2989=
201510071700 METAR MRLM 071700Z 33009KT 9999 SCT030 SCT130 30/24 A2988=
201510071800 METAR MRLM 071800Z 01013KT 9999 OVC020 28/24 A2985=
201510071900 METAR MRLM 071900Z 35010KT 9999 SCT020 SCT130 28/24 A2982=
201510072000 METAR MRLM 072000Z 32004KT 9999 FEW030 BKN130 30/23 A2980=
201510072100 METAR MRLM NIL=
201510072200 METAR MRLM NIL=
201510072300 METAR MRLM NIL=
201510080000 METAR MRLM NIL=
201510080100 METAR MRLM NIL=
201510080200 METAR MRLM NIL=
201510080300 METAR MRLM NIL=
201510080400 METAR MRLM NIL=
201510080500 METAR MRLM NIL=
201510080600 METAR MRLM NIL=
201510080700 METAR MRLM NIL=
201510080800 METAR MRLM NIL=
201510080900 METAR MRLM NIL=
201510081000 METAR MRLM NIL=
201510081100 METAR MRLM NIL=
201510081200 METAR MRLM 081200Z 30005KT CAVOK 25/22 A2986=
201510081300 METAR MRLM 081300Z 30006KT CAVOK 26/22 A2988=
201510081400 METAR MRLM 081400Z 31007KT 9999 FEW030 BKN140 27/22 A2988=
201510081500 METAR MRLM 081500Z 30007KT CAVOK 29/23 A2988=
201510081600 METAR MRLM 081600Z 34008KT 9999 FEW035 SCT140 SCT260 30/23 A2986=
201510081700 METAR MRLM 081700Z 35007KT 9999 FEW030 SCT130 SCT260 29/23 A2986=
201510081800 METAR MRLM 081800Z 36008KT CAVOK 29/23 A2984=
201510081900 METAR MRLM 081900Z 02006KT 9999 FEW030 BKN130 30/24 A2981=
201510082000 METAR MRLM 082000Z 04009KT 9999 FEW025 BKN130 30/24 A2979=
201510082100 METAR MRLM NIL=
201510082200 METAR MRLM NIL=
201510082300 METAR MRLM NIL=
201510090000 METAR MRLM NIL=
201510090100 METAR MRLM NIL=
201510090200 METAR MRLM NIL=
201510090300 METAR MRLM NIL=
201510090400 METAR MRLM NIL=
201510090500 METAR MRLM NIL=
201510090600 METAR MRLM NIL=
201510090700 METAR MRLM NIL=
201510090800 METAR MRLM NIL=
201510090900 METAR MRLM NIL=
201510091000 METAR MRLM NIL=
201510091100 METAR MRLM NIL=
201510091200 METAR MRLM 091200Z 00000KT 9999 SCT010 SCT120 24/23 A2989=
201510091300 METAR MRLM 091300Z 32002KT 9999 DZ BKN010 24/23 A2990=
201510091400 METAR MRLM 091400Z 25003KT 9999 BKN010 SCT120 25/23 A2990 REDZ=
201510091500 METAR MRLM 091500Z 24002KT 9999 BKN015 SCT120 27/24 A2992=
201510091600 METAR MRLM 091600Z 00000KT 9999 BKN020 SCT120 27/24 A2992=
201510091700 METAR MRLM 091700Z 32003KT CAVOK 28/24 A2989=
201510091800 METAR MRLM 091800Z 32003KT CAVOK 29/23 A2985=
201510091900 METAR MRLM 091900Z 03004KT CAVOK 30/24 A2982=
201510092000 METAR MRLM 092000Z 03010KT 9999 FEW030 SCT140 BKN250 30/24 A2980=
201510092100 METAR MRLM 092100Z 01008KT 9999 FEW030 BKN250 30/24 A2980=
201510092200 METAR MRLM 092200Z 04007KT 9999 FEW030 BKN250 29/24 A2980=
201510092300 METAR MRLM 092300Z 31003KT CAVOK 28/23 A2980=
201510100000 METAR MRLM 100000Z 01004KT 9999 FEW020 SCT130 BKN250 27/24 A2983=
201510100100 METAR MRLM NIL=
201510100200 METAR MRLM NIL=
201510100300 METAR MRLM NIL=
201510100400 METAR MRLM NIL=
201510100500 METAR MRLM NIL=
201510100600 METAR MRLM NIL=
201510100700 METAR MRLM NIL=
201510100800 METAR MRLM NIL=
201510100900 METAR MRLM NIL=
201510101000 METAR MRLM NIL=
201510101100 METAR MRLM NIL=
201510101200 METAR MRLM NIL=
201510101300 METAR MRLM NIL=
201510101400 METAR MRLM 101400Z 23004KT 9999 BKN010 SCT100 23/23 A2992=
201510101500 METAR MRLM 101500Z 36002KT 9999 DZ SCT0010 BKN100 24/23 A2993=
201510101600 METAR MRLM NIL=
201510101700 METAR MRLM NIL=
201510101800 METAR MRLM NIL=
201510101900 METAR MRLM NIL=
201510102000 METAR MRLM NIL=
201510102100 METAR MRLM NIL=
201510102200 METAR MRLM NIL=
201510102300 METAR MRLM NIL=
201510110000 METAR MRLM NIL=
201510110100 METAR MRLM NIL=
201510110200 METAR MRLM NIL=
201510110300 METAR MRLM NIL=
201510110400 METAR MRLM NIL=
201510110500 METAR MRLM NIL=
201510110600 METAR MRLM NIL=
201510110700 METAR MRLM NIL=
201510110800 METAR MRLM NIL=
201510110900 METAR MRLM NIL=
201510111000 METAR MRLM NIL=
201510111100 METAR MRLM NIL=
201510111200 METAR MRLM 111200Z 27003KT CAVOK 23/22 A2983=
201510111300 METAR MRLM 111300Z 26003KT CAVOK 25/22 A2984=
201510111400 METAR MRLM 111400Z 31005KT CAVOK 29/22 A2988=
201510111500 METAR MRLM 111500Z 32004KT 9999 FEW030 BKN130 28/22 A2990=
201510111600 METAR MRLM NIL=
201510111700 METAR MRLM 111700Z 06002KT CAVOK 29/23 A2987=
201510111800 METAR MRLM 111800Z 07004KT 9999 FEW030 BKN130 29/24 A2984=
201510111900 METAR MRLM 111900Z 05005KT 9999 FEW030 BKN130 29/24 A2981=
201510112000 METAR MRLM 112000Z 04008KT CAVOK 30/24 A2978=
201510112100 METAR MRLM 112100Z 04004KT CAVOK 29/24 A2976=
201510112200 METAR MRLM 112200Z 06002KT CAVOK 28/23 A2977=
201510112300 METAR MRLM 112300Z 05003KT CAVOK 28/23 A2980=
201510120000 METAR MRLM 120000Z 00000KT CAVOK 26/24 A2982=
201510120100 METAR MRLM NIL=
201510120200 METAR MRLM NIL=
201510120300 METAR MRLM NIL=
201510120400 METAR MRLM NIL=
201510120500 METAR MRLM NIL=
201510120600 METAR MRLM NIL=
201510120700 METAR MRLM NIL=
201510120800 METAR MRLM NIL=
201510120900 METAR MRLM NIL=
201510121000 METAR MRLM NIL=
201510121100 METAR MRLM NIL=
201510121200 METAR MRLM 121200Z 26002KT 9999 FEW010 BKN120 23/22 A2985=
201510121300 METAR MRLM 121300Z 27002KT 9999 SCT010 SCT120 24/23 A2986=
201510121400 METAR MRLM 121400Z 25003KT CAVOK 28/23 A2987=
201510121500 METAR MRLM 121500Z 12003KT 9999 FEW030 BKN140 30/24 A2989=
201510121600 METAR MRLM NIL=
201510121700 METAR MRLM 121700Z 06006KT 9999 FEW030 BKN130 29/24 A2988=
201510121800 METAR MRLM 121800Z 02009KT 9999 FEW030 BKN130 29/24 A2986=
201510121900 METAR MRLM 121900Z 04007KT 9999 SCT020 SCT250 29/24 A2981=
201510122000 METAR MRLM 122000Z 05006KT 9999 -DZ SCT020 SCT250 28/24 A2979=
201510122100 METAR MRLM NIL=
201510122200 METAR MRLM NIL=
201510122300 METAR MRLM NIL=
201510130000 METAR MRLM NIL=
201510130100 METAR MRLM NIL=
201510130200 METAR MRLM NIL=
201510130300 METAR MRLM NIL=
201510130400 METAR MRLM NIL=
201510130500 METAR MRLM NIL=
201510130600 METAR MRLM NIL=
201510130700 METAR MRLM NIL=
201510130800 METAR MRLM NIL=
201510130900 METAR MRLM NIL=
201510131000 METAR MRLM NIL=
201510131100 METAR MRLM NIL=
201510131200 METAR MRLM 131200Z 26003KT CAVOK 23/22 A2986=
201510131300 METAR MRLM 131300Z 29003KT CAVOK 25/22 A2987=
201510131400 METAR MRLM 131400Z 29006KT CAVOK 28/22 A2989=
201510131500 METAR MRLM 131500Z 33007KT 9999 FEW030 BKN260 29/23 A2990=
201510131600 METAR MRLM 131600Z 01009KT 9999 FEW030 BKN260 30/23 A2990=
201510131700 METAR MRLM 131700Z 02008KT 9999 FEW030 SCT140 SCT260 29/24 A2988=
201510131800 METAR MRLM 131800Z 03008KT 9999 FEW030 BKN250 29/24 A2984=
201510131900 METAR MRLM 131900Z 04006KT CAVOK 29/24 A2981=
201510132000 METAR MRLM 132000Z 02007KT CAVOK 30/24 A2977=
201510132100 METAR MRLM NIL=
201510132200 METAR MRLM NIL=
201510132300 METAR MRLM NIL=
201510140000 METAR MRLM NIL=
201510140100 METAR MRLM NIL=
201510140200 METAR MRLM NIL=
201510140300 METAR MRLM NIL=
201510140400 METAR MRLM NIL=
201510140500 METAR MRLM NIL=
201510140600 METAR MRLM NIL=
201510140700 METAR MRLM NIL=
201510140800 METAR MRLM NIL=
201510140900 METAR MRLM NIL=
201510141000 METAR MRLM NIL=
201510141100 METAR MRLM NIL=
201510141200 METAR MRLM 141200Z 25004KT CAVOK 24/23 A2983=
201510141300 METAR MRLM 141300Z 00000KT CAVOK 26/24 A2984=
201510141400 METAR MRLM 141400Z 30003KT CAVOK 28/24 A2980=
201510141500 METAR MRLM 141500Z 34005KT 9999 FEW030 SCT140 30/23 A2988=
201510141600 METAR MRLM NIL=
201510141700 METAR MRLM 141700Z 04010KT CAVOK 31/24 A2984=
201510141800 METAR MRLM 141800Z 03009KT 9999 FEW030 BKN250 30/24 A2982=
201510141900 METAR MRLM 141900Z 02009KT 9999 VCTS SCT020 SCT025CB SCT250 29/24 A2979=
201510142000 METAR MRLM 142000Z 36006KT 9999 DZ SCT025 BKN250 29/24 A2978 REVCTS=
201510142100 METAR MRLM NIL=
201510142200 METAR MRLM NIL=
201510142300 METAR MRLM NIL=
201510150000 METAR MRLM NIL=
201510150100 METAR MRLM NIL=
201510150200 METAR MRLM NIL=
201510150300 METAR MRLM NIL=
201510150400 METAR MRLM NIL=
201510150500 METAR MRLM NIL=
201510150600 METAR MRLM NIL=
201510150700 METAR MRLM NIL=
201510150800 METAR MRLM NIL=
201510150900 METAR MRLM NIL=
201510151000 METAR MRLM NIL=
201510151100 METAR MRLM NIL=
201510151200 METAR MRLM 151200Z 23004KT CAVOK 24/23 A2981=
201510151300 METAR MRLM 151300Z 24005KT CAVOK 24/23 A2982=
201510151400 METAR MRLM 151400Z 26002KT CAVOK 28/23 A2983=
201510151500 METAR MRLM 151500Z 07002KT CAVOK 30/24 A2984=
201510151600 METAR MRLM 151600Z 07005KT CAVOK 29/24 A2984=
201510151700 METAR MRLM 151700Z 06005KT 9999 FEW030 SCT140 SCT260 30/24 A2982=
201510151800 METAR MRLM 151800Z 05006KT CAVOK 30/25 A2978=
201510151900 METAR MRLM 151900Z 04007KT 9999 FEW030 BKN250 30/24 A2975=
201510152000 METAR MRLM 152000Z 04007KT 9999 FEW030 BKN250 30/25 A2972=
201510152100 METAR MRLM NIL=
201510152200 METAR MRLM NIL=
201510152300 METAR MRLM NIL=
201510160000 METAR MRLM NIL=
201510160100 METAR MRLM NIL=
201510160200 METAR MRLM NIL=
201510160300 METAR MRLM NIL=
201510160400 METAR MRLM NIL=
201510160500 METAR MRLM NIL=
201510160600 METAR MRLM NIL=
201510160700 METAR MRLM NIL=
201510160800 METAR MRLM NIL=
201510160900 METAR MRLM NIL=
201510161000 METAR MRLM NIL=
201510161100 METAR MRLM NIL=
201510161200 METAR MRLM 161200Z 23004KT CAVOK 24/22 A2978=
201510161300 METAR MRLM 161300Z 24003KT CAVOK 27/23 A2981=
201510161400 METAR MRLM 161400Z 10003KT CAVOK 29/24 A2983=
201510161500 METAR MRLM 161500Z 10003KT 9999 FEW030 BKN260 30/24 A2985=
201510161600 METAR MRLM 161600Z 09005KT 9999 FEW030 BKN140 29/24 A2984=
201510161700 METAR MRLM 161700Z 10006KT 9999 FEW030 BKN130 29/25 A2982=
201510161800 METAR MRLM 161800Z 10005KT 9999 FEW030 BKN140 29/25 A2979=
201510161900 METAR MRLM 161900Z 09004KT 9999 FEW030 SCT260 30/25 A2975=
201510162000 METAR MRLM 162000Z 06007KT CAVOK 30/25 A2972=
201510162100 METAR MRLM 162100Z 09006KT 9999 FEW030 SCT260 30/24 A2971=
201510162200 METAR MRLM NIL=
201510162300 METAR MRLM 162300Z 21003KT 9999 FEW020 BKN130 27/24 A2974=
201510170000 METAR MRLM 170000Z 22003KT 9999 FEW010 BKN130 26/24 A2977=
201510170100 METAR MRLM NIL=
201510170200 METAR MRLM NIL=
201510170300 METAR MRLM NIL=
201510170400 METAR MRLM NIL=
201510170500 METAR MRLM NIL=
201510170600 METAR MRLM NIL=
201510170700 METAR MRLM NIL=
201510170800 METAR MRLM NIL=
201510170900 METAR MRLM NIL=
201510171000 METAR MRLM NIL=
201510171100 METAR MRLM NIL=
201510171200 METAR MRLM NIL=
201510171300 METAR MRLM NIL=
201510171400 METAR MRLM NIL=
201510171500 METAR MRLM NIL=
201510171600 METAR MRLM NIL=
201510171700 METAR MRLM NIL=
201510171800 METAR MRLM NIL=
201510171900 METAR MRLM NIL=
201510172000 METAR MRLM NIL=
201510172100 METAR MRLM NIL=
201510172200 METAR MRLM NIL=
201510172300 METAR MRLM NIL=
201510180000 METAR MRLM NIL=
201510180100 METAR MRLM NIL=
201510180200 METAR MRLM NIL=
201510180300 METAR MRLM NIL=
201510180400 METAR MRLM NIL=
201510180500 METAR MRLM NIL=
201510180600 METAR MRLM NIL=
201510180700 METAR MRLM NIL=
201510180800 METAR MRLM NIL=
201510180900 METAR MRLM NIL=
201510181000 METAR MRLM NIL=
201510181100 METAR MRLM NIL=
201510181200 METAR MRLM 181200Z 25003KT CAVOK 25/24 A2987=
201510181300 METAR MRLM 181300Z 24004KT CAVOK 27/24 A2988=
201510181400 METAR MRLM 181400Z 13004KT CAVOK 30/24 A2990=
201510181500 METAR MRLM 181500Z 13005KT CAVOK 30/24 A2991=
201510181600 METAR MRLM 181600Z 11005KT 9999 FEW035 31/23 A2991=
201510181700 METAR MRLM 181700Z 11006KT 9999 FEW035 31/23 A2990=
201510181800 METAR MRLM 181800Z 09006KT CAVOK 30/24 A2987=
201510181900 METAR MRLM 181900Z 07006KT 9999 FEW030 SCT140 30/24 A2985=
201510182000 METAR MRLM 182000Z 05005KT 9999 SCT030 30/24 A2983=
201510182100 METAR MRLM 182100Z 06005KT 9999 SCT030 31/24 A2981=
201510182200 METAR MRLM 182200Z 06004KT 9999 FEW030 30/23 A2981=
201510182300 METAR MRLM 182300Z 11003KT 9999 FEW030 29/23 A2984=
201510190000 METAR MRLM 190000Z 00000KT CAVOK 27/24 A2986=
201510190100 METAR MRLM NIL=
201510190200 METAR MRLM NIL=
201510190300 METAR MRLM NIL=
201510190400 METAR MRLM NIL=
201510190500 METAR MRLM NIL=
201510190600 METAR MRLM NIL=
201510190700 METAR MRLM NIL=
201510190800 METAR MRLM NIL=
201510190900 METAR MRLM NIL=
201510191000 METAR MRLM NIL=
201510191100 METAR MRLM NIL=
201510191200 METAR MRLM 191200Z 24004KT CAVOK 24/23 A2987=
201510191300 METAR MRLM 191300Z 23004KT CAVOK 26/23 A2988=
201510191400 METAR MRLM 191400Z 04003KT CAVOK 29/24 A2990=
201510191500 METAR MRLM 191500Z 11004KT 9999 FEW030 31/25 A2990=
201510191600 METAR MRLM 191600Z 11005KT 9999 FEW030 SCT130 30/24 A2988=
201510191700 METAR MRLM 191700Z 10007KT CAVOK 30/23 A2986=
201510191800 METAR MRLM 191800Z 09007KT 9999 FEW030 BKN140 31/25 A2984=
201510191900 METAR MRLM 191900Z 08006KT 9999 FEW030 BKN130 31/24 A2983=
201510192000 METAR MRLM 192000Z 09008KT 9999 FEW030 SCT140 32/25 A2980=
201510192100 METAR MRLM NIL=
201510192200 METAR MRLM NIL=
201510192300 METAR MRLM NIL=
201510200000 METAR MRLM NIL=
201510200100 METAR MRLM NIL=
201510200200 METAR MRLM NIL=
201510200300 METAR MRLM NIL=
201510200400 METAR MRLM NIL=
201510200500 METAR MRLM NIL=
201510200600 METAR MRLM NIL=
201510200700 METAR MRLM NIL=
201510200800 METAR MRLM NIL=
201510200900 METAR MRLM NIL=
201510201000 METAR MRLM NIL=
201510201100 METAR MRLM NIL=
201510201200 METAR MRLM 201200Z 25004KT CAVOK 24/22 A2984=
201510201218 METAR MRLM 221200Z 25004KT CAVOK 23/22 A2985=
201510201300 METAR MRLM 201300Z 24004KT CAVOK 25/23 A2985=
201510201400 METAR MRLM 201400Z 00000KT CAVOK 30/23 A2988=
201510201500 METAR MRLM 201500Z 11004KT 9999 FEW030 BKN260 31/23 A2990=
201510201600 METAR MRLM 201600Z 10005KT 9999 FEW030 BKN260 31/23 A2988=
201510201700 METAR MRLM 201700Z 09006KT CAVOK 31/24 A2987=
201510201800 METAR MRLM 201800Z 09007KT CAVOK 32/24 A2984=
201510201900 METAR MRLM NIL=
201510202000 METAR MRLM 202000Z 07006KT 9999 FEW030 BKN260 31/24 A2978=
201510202100 METAR MRLM NIL=
201510202200 METAR MRLM NIL=
201510202300 METAR MRLM NIL=
201510210000 METAR MRLM NIL=
201510210100 METAR MRLM NIL=
201510210200 METAR MRLM NIL=
201510210300 METAR MRLM NIL=
201510210400 METAR MRLM NIL=
201510210500 METAR MRLM NIL=
201510210600 METAR MRLM NIL=
201510210700 METAR MRLM NIL=
201510210800 METAR MRLM NIL=
201510210900 METAR MRLM NIL=
201510211000 METAR MRLM NIL=
201510211100 METAR MRLM NIL=
201510211200 METAR MRLM 211200Z 25004KT 9999 FEW020 SCT130 24/22 A2985=
201510211300 METAR MRLM 211300Z 24004KT 9999 SCT020 BKN130 24/22 A2987=
201510211400 METAR MRLM 211400Z 29003KT CAVOK 27/23 A2989=
201510211500 METAR MRLM 211500Z 00000KT CAVOK 28/24 A2991=
201510211600 METAR MRLM 211600Z 00000KT 9999 FEW030 SCT250 31/24 A2990 NOSIG=
201510211700 METAR MRLM 211700Z 04007KT 9999 FEW030 SCT140 32/25 A2987=
201510211800 METAR MRLM 211800Z 04007KT 9999 FEW935 BKN130 31/24 A2983=
201510211900 METAR MRLM 211900Z 03009KT CAVOK 32/25 A2976=
201510212000 METAR MRLM 212000Z 04007KT CAVOK 32/25 A2978=
201510212100 METAR MRLM NIL=
201510212200 METAR MRLM NIL=
201510212300 METAR MRLM NIL=
201510220000 METAR MRLM NIL=
201510220100 METAR MRLM NIL=
201510220200 METAR MRLM NIL=
201510220300 METAR MRLM NIL=
201510220400 METAR MRLM NIL=
201510220500 METAR MRLM NIL=
201510220600 METAR MRLM NIL=
201510220700 METAR MRLM NIL=
201510220800 METAR MRLM NIL=
201510220900 METAR MRLM NIL=
201510221000 METAR MRLM NIL=
201510221100 METAR MRLM NIL=
201510221200 METAR MRLM 221200Z 25004KT CAVOK 23/22 A2985=
201510221300 METAR MRLM 221300Z 25003KT CAVOK 24/23 A2986=
201510221400 METAR MRLM 221400Z 27003KT CAVOK 26/23 2988=
201510221500 METAR MRLM 221500Z 33005KT CAVOK 31/24 2989=
201510221600 METAR MRLM 221600Z 34006KT 9999 FEW035 BKN140 31/23 A2989=
201510221700 METAR MRLM NIL=
201510221800 METAR MRLM 221800Z 34004KT CAVOK 30/24 A2983=
201510221900 METAR MRLM 221900Z 02010KT CAVOK 30/23 A2980=
201510222000 METAR MRLM 222000Z 02008KT 9999 FEW030 BKN130 30/24 A2978=
201510222100 METAR MRLM NIL=
201510222200 METAR MRLM NIL=
201510222300 METAR MRLM NIL=
201510230000 METAR MRLM NIL=
201510230100 METAR MRLM NIL=
201510230200 METAR MRLM NIL=
201510230300 METAR MRLM NIL=
201510230400 METAR MRLM NIL=
201510230500 METAR MRLM NIL=
201510230600 METAR MRLM NIL=
201510230700 METAR MRLM NIL=
201510230800 METAR MRLM NIL=
201510230900 METAR MRLM NIL=
201510231000 METAR MRLM NIL=
201510231100 METAR MRLM NIL=
201510231200 METAR MRLM 231200Z 00000KT CAVOK 23/22 A2983=
201510231300 METAR MRLM 231300Z 25004KT CAVOK 24/22 A2985=
201510231400 METAR MRLM 231400Z 24004KT CAVOK 25/23 A2986=
201510231500 METAR MRLM 231500Z 24003KT CAVOK 29/24 A2986=
201510231600 METAR MRLM 231600Z 04005KT CAVOK 29/24 A2987=
201510231700 METAR MRLM 231700Z 04005KT CAVOK 30/24 A2984=
201510231800 METAR MRLM 231800Z 07004KT CAVOK 29/23 A2982=
201510231900 METAR MRLM 231900Z 04007KT CAVOK 29/23 A2978=
201510232000 METAR MRLM 232000Z 04004KT CAVOK 29/24 A2976=
201510232100 METAR MRLM 232100Z 05005KT 9999 FEW030 SCT140 SCT260 30/24 A2974=
201510232200 METAR MRLM 232200Z 03003KT CAVOK 30/24 A2975=
201510232300 METAR MRLM 232300Z 05004KT CAVOK 28/24 A2977=
201510240000 METAR MRLM NIL=
201510240100 METAR MRLM NIL=
201510240200 METAR MRLM NIL=
201510240300 METAR MRLM NIL=
201510240400 METAR MRLM NIL=
201510240500 METAR MRLM NIL=
201510240600 METAR MRLM NIL=
201510240700 METAR MRLM NIL=
201510240800 METAR MRLM NIL=
201510240900 METAR MRLM NIL=
201510241000 METAR MRLM NIL=
201510241100 METAR MRLM NIL=
201510241200 METAR MRLM NIL=
201510241300 METAR MRLM NIL=
201510241400 METAR MRLM NIL=
201510241500 METAR MRLM NIL=
201510241600 METAR MRLM NIL=
201510241700 METAR MRLM NIL=
201510241800 METAR MRLM NIL=
201510241900 METAR MRLM NIL=
201510242000 METAR MRLM NIL=
201510242100 METAR MRLM NIL=
201510242200 METAR MRLM NIL=
201510242300 METAR MRLM NIL=
201510250000 METAR MRLM NIL=
201510250100 METAR MRLM NIL=
201510250200 METAR MRLM NIL=
201510250300 METAR MRLM NIL=
201510250400 METAR MRLM NIL=
201510250500 METAR MRLM NIL=
201510250600 METAR MRLM NIL=
201510250700 METAR MRLM NIL=
201510250800 METAR MRLM NIL=
201510250900 METAR MRLM NIL=
201510251000 METAR MRLM NIL=
201510251100 METAR MRLM NIL=
201510251200 METAR MRLM 251200Z 26005KT CAVOK 23/22 A2985=
201510251300 METAR MRLM 251300Z 26004KT CAVOK 24/13 A2986=
201510251400 METAR MRLM 251400Z 26004KT CAVOK 27/23 A2987=
201510251500 METAR MRLM 251500Z 08003KT 9999 SCT030 SCT260 30/24 A2989=
201510251600 METAR MRLM 251600Z 05005KT 9999 FEW030 SCT260 30/24 A2987=
201510251700 METAR MRLM 251700Z 04006KT 9999 FEW030 SCT260 30/24 A2985=
201510251800 METAR MRLM 251800Z 04005KT 9999 FEW030 BKN260 31/24 A2982=
201510251900 METAR MRLM 251900Z 02008KT CAVOK 31/24 A2980=
201510252000 METAR MRLM 252000Z 03008KT CAVOK 31/24 A2978=
201510252100 METAR MRLM 252100Z 02008KT 9999 FEW030 BKN250 31/24 A2976=
201510252200 METAR MRLM 252200Z 04009KT 9999 SCT030 SCT250 29/24 A2979=
201510252300 METAR MRLM NIL=
201510260000 METAR MRLM 260000Z 03008KT 9999 SCVT020 BKN250 28/25 A2981=
201510260100 METAR MRLM NIL=
201510260200 METAR MRLM NIL=
201510260300 METAR MRLM NIL=
201510260400 METAR MRLM NIL=
201510260500 METAR MRLM NIL=
201510260600 METAR MRLM NIL=
201510260700 METAR MRLM NIL=
201510260800 METAR MRLM NIL=
201510260900 METAR MRLM NIL=
201510261000 METAR MRLM NIL=
201510261100 METAR MRLM NIL=
201510261200 METAR MRLM 261200Z 25005KT CAVOK 23/22 A2984=
201510261300 METAR MRLM 261300Z 24005KT CAVOK 25/22 A2986=
201510261400 METAR MRLM 261400Z 25005KT CAVOK 28/23 A2987=
201510261500 METAR MRLM NIL=
201510261600 METAR MRLM 261600Z 09003KT 9999 FEW040 BKN260 31/23 A2988=
201510261700 METAR MRLM 261700Z 09006KT 9999 FEW040 BKN260 31/24 A2986=
201510261800 METAR MRLM 261800Z 07006KT 9999 FEW040 BKN260 31/24 A2983=
201510261900 METAR MRLM NIL=
201510262000 METAR MRLM 262000Z 06006KT CAVOK 31/24 A2978=
201510262100 METAR MRLM NIL=
201510262200 METAR MRLM NIL=
201510262300 METAR MRLM NIL=
201510270000 METAR MRLM NIL=
201510270100 METAR MRLM NIL=
201510270200 METAR MRLM NIL=
201510270300 METAR MRLM NIL=
201510270400 METAR MRLM NIL=
201510270500 METAR MRLM NIL=
201510270600 METAR MRLM NIL=
201510270700 METAR MRLM NIL=
201510270800 METAR MRLM NIL=
201510270900 METAR MRLM NIL=
201510271000 METAR MRLM NIL=
201510271100 METAR MRLM NIL=
201510271200 METAR MRLM 271200Z 25003KT CAVOK 23/22 A2989=
201510271300 METAR MRLM 271300Z 27002KT 9999 SCT010 BKN130 25/23 A2990=
201510271400 METAR MRLM 271400Z 19002KT 9999 FEW020 SCT250 27/23 A2992=
201510271500 METAR MRLM 271500Z 00000KT CAVOK 29/23 A2993=
201510271600 METAR MRLM 271600Z 10005KT CAVOK 30/23 A2992=
201510271700 METAR MRLM 271700Z 09006KT CAVOK 31/24 A2989=
201510271800 METAR MRLM 271800Z 08007KT CAVOK 31/24 A2986=
201510271900 METAR MRLM NIL=
201510272000 METAR MRLM 272000Z 08006KT 9999 SCT030 31/24 A2981=
201510272100 METAR MRLM NIL=
201510272200 METAR MRLM NIL=
201510272300 METAR MRLM NIL=
201510280000 METAR MRLM NIL=
201510280100 METAR MRLM NIL=
201510280200 METAR MRLM NIL=
201510280300 METAR MRLM NIL=
201510280400 METAR MRLM NIL=
201510280500 METAR MRLM NIL=
201510280600 METAR MRLM NIL=
201510280700 METAR MRLM NIL=
201510280800 METAR MRLM NIL=
201510280900 METAR MRLM NIL=
201510281000 METAR MRLM NIL=
201510281100 METAR MRLM NIL=
201510281200 MRLM 281200Z 25005KT CAVOK 24/22 A2989=
201510281300 METAR MRLM 281300Z 25004KT CAVOK 25/22 A2991=
201510281400 METAR MRLM 281400Z 24003KT CAVOK 29/23 A2993=
201510281500 METAR MRLM 281500Z 09003KT 9999 FEW030 31/24 A2995=
201510281600 METAR MRLM 281600Z 09003KT 9999 FEW030 31/24 A2995=
201510281700 METAR MRLM 2817000Z 07005KT 9999 FEW030 31/24 A2992=
201510281800 METAR MRLM 281800Z 07006KT 9999 FEW035 31/24 A2989=
201510281900 METAR MRLM 281900Z 08005KT 9999 FEW035 32/24 A2986=
201510282000 METAR MRLM 282000Z 05006KT 9999 FEW035 31/24 A2982=
201510282100 METAR MRLM NIL=
201510282200 METAR MRLM NIL=
201510282300 METAR MRLM NIL=
201510290000 METAR MRLM NIL=
201510290100 METAR MRLM NIL=
201510290200 METAR MRLM NIL=
201510290300 METAR MRLM NIL=
201510290400 METAR MRLM NIL=
201510290500 METAR MRLM NIL=
201510290600 METAR MRLM NIL=
201510290700 METAR MRLM NIL=
201510290800 METAR MRLM NIL=
201510290900 METAR MRLM NIL=
201510291000 METAR MRLM NIL=
201510291100 METAR MRLM NIL=
201510291200 METAR MRLM NIL=
201510291300 METAR MRLM NIL=
201510291400 METAR MRLM NIL=
201510291500 METAR MRLM NIL=
201510291600 METAR MRLM NIL=
201510291700 METAR MRLM NIL=
201510291800 METAR MRLM NIL=
201510291900 METAR MRLM NIL=
201510292000 METAR MRLM NIL=
201510292100 METAR MRLM NIL=
201510292200 METAR MRLM NIL=
201510292300 METAR MRLM NIL=
201510300000 METAR MRLM NIL=
201510300100 METAR MRLM NIL=
201510300200 METAR MRLM NIL=
201510300300 METAR MRLM NIL=
201510300400 METAR MRLM NIL=
201510300500 METAR MRLM NIL=
201510300600 METAR MRLM NIL=
201510300700 METAR MRLM NIL=
201510300800 METAR MRLM NIL=
201510300900 METAR MRLM NIL=
201510301000 METAR MRLM NIL=
201510301100 METAR MRLM NIL=
201510301200 METAR MRLM 301200Z 25004KT CAVOK 24/22 A2986=
201510301300 METAR MRLM 301300Z 24005KT CAVOK 25/22 A2987=
201510301400 METAR MRLM 301400Z 22003KT CAVOK 27/23 A2989=
201510301500 METAR MRLM 301500Z 09005KT CAVOK 26/17 A3006 NOSIG=
201510301600 METAR MRLM NIL=
201510301700 METAR MRLM 301700Z 07007KT 9999 FEW040 BKN140 31/23 A2999=
201510301800 METAR MRLM 301800Z 07006KT 9999 BKN030 SCT130 29/24 A2989=
201510301900 METAR MRLM 301900Z 12014 9999 SCT030 BKN130 29/24 A2986=
201510302000 METAR MRLM 302000Z 13009KT 9999 FEW030 SCT130 SCT240 30/22 A2983=
201510302100 METAR MRLM 302100Z 13009KT CAVOK 29/22 A2981=
201510302200 METAR MRLM 302200Z 12003KT CAVOK 28/22 A2979=
201510302300 METAR MRLM 302300Z 12004KT CAVOK 28/22 A2982=
201510310000 METAR MRLM 310000Z 28002KT CAVOK 26/23 A2982=
201510310100 METAR MRLM NIL=
201510310200 METAR MRLM NIL=
201510310300 METAR MRLM NIL=
201510310400 METAR MRLM NIL=
201510310500 METAR MRLM NIL=
201510310600 METAR MRLM NIL=
201510310700 METAR MRLM NIL=
201510310800 METAR MRLM NIL=
201510310900 METAR MRLM NIL=
201510311000 METAR MRLM NIL=
201510311100 METAR MRLM NIL=
201510311200 METAR MRLM NIL=
201510311300 METAR MRLM NIL=
201510311400 METAR MRLM NIL=
201510311500 METAR MRLM NIL=
201510311600 METAR MRLM NIL=
201510311700 METAR MRLM NIL=
201510311800 METAR MRLM NIL=
201510311900 METAR MRLM NIL=
201510312000 METAR MRLM NIL=
201510312100 METAR MRLM NIL=
201510312200 METAR MRLM NIL=
201510312300 METAR MRLM NIL=
201511010000 METAR MRLM NIL=
201511010100 METAR MRLM NIL=
201511010200 METAR MRLM NIL=
201511010300 METAR MRLM NIL=
201511010400 METAR MRLM NIL=
201511010500 METAR MRLM NIL=
201511010600 METAR MRLM NIL=
201511010700 METAR MRLM NIL=
201511010800 METAR MRLM NIL=
201511010900 METAR MRLM NIL=
201511011000 METAR MRLM NIL=
201511011100 METAR MRLM NIL=
201511011200 METAR MRLM 011200Z 25005KT CAVOK 23/22 A2988=
201511011300 METAR MRLM 011300Z 25004KT CAVOK 25/22 A2989=
201511011400 METAR MRLM 011400Z 30004KT CAVOK 28/22 2991=
201511011500 METAR MRLM 011500Z 27004KT 9999 FEW040 SCT260 30/22 2992=
201511011600 METAR MRLM 011600Z 07005KT 9999 FEW040 SCT260 31/23 2991=
201511011700 METAR MRLM 011700Z 06005KT 9999 FEW040 SCT260 31/23 2989=
201511011800 METAR MRLM 011800Z 06007KT 9999 FEW040 SCT260 31/23 A2986=
201511011900 METAR MRLM NIL=
201511012000 METAR MRLM NIL=
201511012100 METAR MRLM 012100Z 03006KT 9999 FEW030 BKN250 30/24 A2979=
201511012200 METAR MRLM 012200Z 03006KT 9999 FEW030 BNK250 30/24 A2979=
201511012300 METAR MRLM 012300Z 03004KT 9999 FEW025 BKN240 29/24 A2980=
201511020000 METAR MRLM 020000Z 00000KT 9999 SCT015 SCT240 26/24 A2983=
201511020100 METAR MRLM NIL=
201511020200 METAR MRLM NIL=
201511020300 METAR MRLM NIL=
201511020400 METAR MRLM NIL=
201511020500 METAR MRLM NIL=
201511020600 METAR MRLM NIL=
201511020700 METAR MRLM NIL=
201511020800 METAR MRLM NIL=
201511020900 METAR MRLM NIL=
201511021000 METAR MRLM NIL=
201511021100 METAR MRLM NIL=
201511021200 METAR MRLM 021200Z 25004KT CAVOK 24/21 A2986=
201511021300 METAR MRLM 021300Z 25004KT CAVOK 26/22 A2986=
201511021400 METAR MRLM 021400Z 24003KT CAVOK 30/23 A2987=
201511021500 METAR MRLM 021500Z 05006KT 9999 FEW030 SCT260 30/23 A2989=
201511021600 METAR MRLM 021600Z 03010KT 9999 FEW040 31/23 A2987=
201511021700 METAR MRLM 021700Z 04010KT CAVOK 31/23 A2985=
201511021800 METAR MRLM 021800Z 06007KT CAVOK 30/24 A2981=
201511021900 METAR MRLM 021900Z 05008KT CAVOK 31/24 A2979=
201511022000 METAR MRLM 022000Z 05007KT CAVOK 30/23 A2978=
201511022100 METAR MRLM NIL=
201511022200 METAR MRLM NIL=
201511022300 METAR MRLM NIL=
201511030000 METAR MRLM NIL=
201511030100 METAR MRLM NIL=
201511030200 METAR MRLM NIL=
201511030300 METAR MRLM NIL=
201511030400 METAR MRLM NIL=
201511030500 METAR MRLM NIL=
201511030600 METAR MRLM NIL=
201511030700 METAR MRLM NIL=
201511030800 METAR MRLM NIL=
201511030900 METAR MRLM NIL=
201511031000 METAR MRLM NIL=
201511031100 METAR MRLM NIL=
201511031200 METAR MRLM 031200Z 26004KT CAVOK 23/22 A2985=
201511031300 METAR MRLM 031300Z 23003KT CAVOK 24/22 A2986=
201511031400 METAR MRLM 031400Z 27003KT CAVOK 28/23 A2987=
201511031500 METAR MRLM 031500Z 07004KT 9999 FEW040 BKN260 30/22 A2988=
201511031600 METAR MRLM 031600Z 08004KT 9999 FEW040 BKN260 30/22 A2987=
201511031700 METAR MRLM 031700Z 06006KT 9999 FEW040 BKN260 30/21 A2985=
201511031800 METAR MRLM 031800Z 04007KT CAVOK 31/22 A2982=
201511031900 METAR MRLM 031900Z 06006KT CAVOK 30/22 A2977=
201511032000 METAR MRLM 032000Z 05008KT CAVOK 31/23 A2976=
201511032100 METAR MRLM NIL=
201511032200 METAR MRLM NIL=
201511032300 METAR MRLM NIL=
201511040000 METAR MRLM NIL=
201511040100 METAR MRLM NIL=
201511040200 METAR MRLM NIL=
201511040300 METAR MRLM NIL=
201511040400 METAR MRLM NIL=
201511040500 METAR MRLM NIL=
201511040600 METAR MRLM NIL=
201511040700 METAR MRLM NIL=
201511040800 METAR MRLM NIL=
201511040900 METAR MRLM NIL=
201511041000 METAR MRLM NIL=
201511041100 METAR MRLM NIL=
201511041200 METAR MRLM 041200Z 20002KT CAVOK 23/22 A2985=
201511041300 METAR MRLM 041300Z 31004KT 9999 FEW015 SCT130 SCT250 26/23 A2986=
201511041400 METAR MRLM 041400Z 30005KT CAVOK 28/22 A2987=
201511041500 METAR MRLM 041500Z 28005KT CAVOK 30/22 A2989=
201511041600 METAR MRLM 041600Z 34004KT 9999 FEW040 BKN260 31/21 A2987=
201511041700 METAR MRLM 041700Z 02010KT 9999 FEW035 BKN260 31/23 A2985=
201511041800 METAR MRLM 041800Z 02008KT CAVOK 31/22 A2983=
201511041900 METAR MRLM 041900Z 03008KT CAVOK 30/23 A2980=
201511042000 METAR MRLM 042000Z 03008KT CAVOK 30/23 A2977=
201511042100 METAR MRLM NIL=
201511042200 METAR MRLM NIL=
201511042300 METAR MRLM NIL=
201511050000 METAR MRLM NIL=
201511050100 METAR MRLM NIL=
201511050200 METAR MRLM NIL=
201511050300 METAR MRLM NIL=
201511050400 METAR MRLM NIL=
201511050500 METAR MRLM NIL=
201511050600 METAR MRLM NIL=
201511050700 METAR MRLM NIL=
201511050800 METAR MRLM NIL=
201511050900 METAR MRLM NIL=
201511051000 METAR MRLM NIL=
201511051100 METAR MRLM NIL=
201511051200 METAR MRLM 051200Z 25003KT CAVOK 24/23 A2984=
201511051300 METAR MRLM 051300Z 23003KT CAVOK 27/23 2984=
201511051400 METAR MRLM 051400Z 13003KT 9999 FEW030 SCT260 29/23 A2987=
201511051500 METAR MRLM 051500Z 11003KT 9999 FEW035 30/23 A2988=
201511051600 METAR MRLM NIL=
201511051700 METAR MRLM 051700Z 09005KT 9999 FEW040 SCT260 30/23 A2987=
201511051800 METAR MRLM 051800Z 07004KT 9999 FEW040 SCT260 31/23 A2984=
201511051900 METAR MRLM 051900Z 05006KT 9999 FEW030 SCT250 30/24 A2982=
201511052000 METAR MRLM 052000Z 06006KT 9999 FEW030 SCT250 31/23 A2979=
201511052100 METAR MRLM NIL=
201511052200 METAR MRLM NIL=
201511052300 METAR MRLM NIL=
201511060000 METAR MRLM NIL=
201511060100 METAR MRLM NIL=
201511060200 METAR MRLM NIL=
201511060300 METAR MRLM NIL=
201511060400 METAR MRLM NIL=
201511060500 METAR MRLM NIL=
201511060600 METAR MRLM NIL=
201511060700 METAR MRLM NIL=
201511060800 METAR MRLM NIL=
201511060900 METAR MRLM NIL=
201511061000 METAR MRLM NIL=
201511061100 METAR MRLM NIL=
201511061200 METAR MRLM 061200Z 26004KT CAVOK 23/21 A2986=
201511061300 METAR MRLM 061300Z 25004KT CAVOK 25/22 A2988=
201511061400 METAR MRLM 061400Z 22002KT CAVOK 28/22 A2990=
201511061500 METAR MRLM 061500Z 23002KT 9999 FEW030 BKN130 29/22 A2992 NOSIG=
201511061600 METAR MRLM 061600Z 08003KT 9999 FEW030 BKN130 29/23 A2991=
201511061700 METAR MRLM 061700Z 10003KT 9999 FEW030 BKN130 30/23 A2988=
201511061800 METAR MRLM 061800Z 06005KT 9999 FEW035 BKN130 30/23 2985=
201511061900 METAR MRLM 061900Z 04005KT 9999 FEW035 BKN130 25/13 A2982=
201511062000 METAR MRLM 062000Z 07006KT 9999 FEW040 SCT100 BKN200 26/17 A2997=
201511062100 METAR MRLM 062100Z 05006KT 9999 FEW030 BKN250 30/24 A2997=
201511062200 METAR MRLM 062200Z 05006KT CAVOK 29/23 A2977=
201511062300 METAR MRLM 062300Z 05004KT 9999 FEW030 BKN250 29/23 A2980=
201511070000 METAR MRLM 070000Z 25005KT 9999 FEW020 BKN250 25/23 A2983=
201511070100 METAR MRLM NIL=
201511070200 METAR MRLM NIL=
201511070300 METAR MRLM NIL=
201511070400 METAR MRLM NIL=
201511070500 METAR MRLM NIL=
201511070600 METAR MRLM NIL=
201511070700 METAR MRLM NIL=
201511070800 METAR MRLM NIL=
201511070900 METAR MRLM NIL=
201511071000 METAR MRLM NIL=
201511071100 METAR MRLM NIL=
201511071200 METAR MRLM NIL=
201511071300 METAR MRLM NIL=
201511071400 METAR MRLM NIL=
201511071500 METAR MRLM NIL=
201511071600 METAR MRLM NIL=
201511071700 METAR MRLM NIL=
201511071800 METAR MRLM NIL=
201511071900 METAR MRLM NIL=
201511072000 METAR MRLM NIL=
201511072100 METAR MRLM NIL=
201511072200 METAR MRLM NIL=
201511072300 METAR MRLM NIL=
201511080000 METAR MRLM NIL=
201511080100 METAR MRLM NIL=
201511080200 METAR MRLM NIL=
201511080300 METAR MRLM NIL=
201511080400 METAR MRLM NIL=
201511080500 METAR MRLM NIL=
201511080600 METAR MRLM NIL=
201511080700 METAR MRLM NIL=
201511080800 METAR MRLM NIL=
201511080900 METAR MRLM NIL=
201511081000 METAR MRLM NIL=
201511081100 METAR MRLM NIL=
201511081200 METAR MRLM 081200Z 19004KT 9999 DZ BKN010 SCT100 23/22 A2986=
201511081300 METAR MRLM 081300Z 23005KT 9999 -DZ BKN010 23/22 A2987=
201511081400 METAR MRLM 081400Z 27005KT 9999 BKN015 24/22 A2989=
201511081500 METAR MRLM 081500Z 00000KT 9999 SCT015 SCT120 26/23 A2990=
201511081600 METAR MRLM 081600Z 27004KT CAVOK 28/23 A2988=
201511081700 METAR MRLM 081700Z 06004KT CAVOK 30/23 A2984=
201511081800 METAR MRLM 081800Z 04004KT CAVOK 30/23 A2981=
201511081900 METAR MRLM 081900Z 03007KT CAVOK 30/23 A2978=
201511082000 METAR MRLM 082000Z 04008KT CAVOK 31/23 A2975=
201511082100 METAR MRLM 082100Z 03007KT CAVOK 30/23 A2975=
201511082200 METAR MRLM 082200Z 02007KT CAVOK 30/22 A2976=
201511082300 METAR MRLM 082300Z 25003KT CAVOK 28/23 A2977=
201511090000 METAR MRLM 090000Z 25003KT CAVOK 28/23 A2979=
201511090100 METAR MRLM NIL=
201511090200 METAR MRLM NIL=
201511090300 METAR MRLM NIL=
201511090400 METAR MRLM NIL=
201511090500 METAR MRLM NIL=
201511090600 METAR MRLM NIL=
201511090700 METAR MRLM NIL=
201511090800 METAR MRLM NIL=
201511090900 METAR MRLM NIL=
201511091000 METAR MRLM NIL=
201511091100 METAR MRLM NIL=
201511091200 METAR MRLM 091200Z 25004KT CAVOK 23/21 A2986=
201511091300 METAR MRLM 091300Z 25003KT CAVOK 24/21 A2988=
201511091400 METAR MRLM 091400Z 26004KT CAVOK 28/22 A2988=
201511091500 METAR MRLM 091500Z 11004KT CAVOK 30/21 A2988=
201511091600 METAR MRLM 091600Z 04006KT CAVOK 30/21 A2986=
201511091700 METAR MRLM 091700Z 02008KT CAVOK 30/21 A2986=
201511091800 METAR MRLM 091800Z 03006KT CAVOK 30/22 A2982=
201511091900 METAR MRLM 091900Z 04007KT CAVOK 30/23 A2980=
201511092000 METAR MRLM 092000Z 03005KT CAVOK 30/23 A2977=
201511092100 METAR MRLM NIL=
201511092200 METAR MRLM NIL=
201511092300 METAR MRLM NIL=
201511100000 METAR MRLM NIL=
201511100100 METAR MRLM NIL=
201511100200 METAR MRLM NIL=
201511100300 METAR MRLM NIL=
201511100400 METAR MRLM NIL=
201511100500 METAR MRLM NIL=
201511100600 METAR MRLM NIL=
201511100700 METAR MRLM NIL=
201511100800 METAR MRLM NIL=
201511100900 METAR MRLM NIL=
201511101000 METAR MRLM NIL=
201511101100 METAR MRLM NIL=
201511101200 METAR MRLM 101200Z 26005KT 9999 SCT010 BKN110 24/22 A2987=
201511101300 METAR MRLM 101300Z 26005KT 9999 SCT010 BKN110 24/22 A2987=
201511101400 METAR MRLM 101400Z 32035KT CAVOK 25/23 A2988=
201511101500 METAR MRLM 101500Z 33005KT CAVOK 27/22 A2990=
201511101600 METAR MRLM 101600Z 33008KT CAVOK 29/22 A2988=
201511101700 METAR MRLM 101700Z 33007KT 9999 FEW040 SCT140 SCT250 30/22 A2986=
201511101800 METAR MRLM 101800Z 34008KT CAVOK 31/23 A2981=
201511101900 METAR MRLM 101900Z 02011KT CAVOK 31/24 A2979=
201511102000 METAR MRLM 102000Z 01012KT CAVOK 30/23 A2978=
201511102100 METAR MRLM NIL=
201511102200 METAR MRLM NIL=
201511102300 METAR MRLM NIL=
201511110000 METAR MRLM NIL=
201511110100 METAR MRLM NIL=
201511110200 METAR MRLM NIL=
201511110300 METAR MRLM NIL=
201511110400 METAR MRLM NIL=
201511110500 METAR MRLM NIL=
201511110600 METAR MRLM NIL=
201511110700 METAR MRLM NIL=
201511110800 METAR MRLM NIL=
201511110900 METAR MRLM NIL=
201511111000 METAR MRLM NIL=
201511111100 METAR MRLM NIL=
201511111200 METAR MRLM 111200Z 25003KT CAVOK 23/22 A2983=
201511111300 METAR MRLM 111300Z 23004KT CAVOK 24/23 A2982=
201511111400 METAR MRLM 111400Z 27003KT CAVOK 27/23 A2983=
201511111500 METAR MRLM 111500Z 07004KT 9999 FEW040 SCT250 28/22 A2985=
201511111600 METAR MRLM 111600Z 03007KT 9999 FEW040 29/23 A2986=
201511111700 METAR MRLM 111700Z 03007KT 9999 FEW040 SCT260 29/23 A2985=
201511111800 METAR MRLM 111800Z 03008KT 9999 SCT035 SCT140 29/23 A2982=
201511111900 METAR MRLM 111900Z 02008KT 9999 BKN030 29/23 A2979=
201511112000 METAR MRLM 112000Z 35006KT 9999 BKN030 29/23 A2978=
201511112100 METAR MRLM NIL=
201511112200 METAR MRLM NIL=
201511112300 METAR MRLM NIL=
201511120000 METAR MRLM NIL=
201511120100 METAR MRLM NIL=
201511120200 METAR MRLM NIL=
201511120300 METAR MRLM NIL=
201511120400 METAR MRLM NIL=
201511120500 METAR MRLM NIL=
201511120600 METAR MRLM NIL=
201511120700 METAR MRLM NIL=
201511120800 METAR MRLM NIL=
201511120900 METAR MRLM NIL=
201511121000 METAR MRLM NIL=
201511121100 METAR MRLM NIL=
201511121200 METAR MRLM 121200Z 28003KT 9999 FEW010 BKN120 23/22 A2982=
201511121300 METAR MRLM 121300Z 26003KT 9999 FEW015 BKN120 24/23 A2983=
201511121400 METAR MRLM 121400Z 32005KT CAVOK 26/22 A2986=
201511121500 METAR MRLM 121500Z 29008KT 9999 FEW030 BKN130 29/22 A2987=
201511121600 METAR MRLM 121600Z 30004KT 9999 FEW030 BKN130 29/23 A2986=
201511121700 METAR MRLM 121700Z 30005KT 9999 FEW040 SCT250 31/22 A2984=
201511121800 METAR MRLM 121800Z 35010KT 9999 SCT040 SCT260 31/22 A2982=
201511121900 METAR MRLM 121900Z 36013KT 9999 FEW030 SCT260 30/23 A2978=
201511122000 METAR MRLM 122000Z 35011KT 9999 FEW030 SCT260 30/23 A2975=
201511122100 METAR MRLM NIL=
201511122200 METAR MRLM NIL=
201511122300 METAR MRLM NIL=
201511130000 METAR MRLM NIL=
201511130100 METAR MRLM NIL=
201511130200 METAR MRLM NIL=
201511130300 METAR MRLM NIL=
201511130400 METAR MRLM NIL=
201511130500 METAR MRLM NIL=
201511130600 METAR MRLM NIL=
201511130700 METAR MRLM NIL=
201511130800 METAR MRLM NIL=
201511130900 METAR MRLM NIL=
201511131000 METAR MRLM NIL=
201511131100 METAR MRLM NIL=
201511131200 METAR MRLM 131200Z 26005KT CAVOK 23/22 A2978=
201511131300 METAR MRLM 131300Z 26004KT CAVOK 26/22 A2979=
201511131400 METAR MRLM 131400Z 26002KT CAVOK 29/22 A2981=
201511131500 METAR MRLM 131500Z 03003KT 9999 FEW040 BKN260 31/23 A2982=
201511131600 METAR MRLM 131600Z 04007KT 9999 FEW040 SCT260 31/23 A2982=
201511131700 METAR MRLM 131700Z 04009KT CAVOK 31/24 A2980=
201511131800 METAR MRLM 131800Z 05007KT CAVOK 31/23 A2977=
201511131900 METAR MRLM 131900Z 05008KT CAVOK 31/23 A2973=
201511132000 METAR MRLM 132000Z 06007KT CAVOK 31/23 A2972=
201511132100 METAR MRLM 132100Z 06009KT 9999 FEW030 30/24 A2972=
201511132200 METAR MRLM 132200Z 05005KT 9999 BKN025 29/24 A2971=
201511132300 METAR MRLM 132300Z 23003KT 9999 SCT015 SCT250 27/24 A2971=
201511140000 METAR MRLM 140000Z 24003KT 9999 FEW010 SCT250 26/24 A2973=
201511140100 METAR MRLM NIL=
201511140200 METAR MRLM NIL=
201511140300 METAR MRLM NIL=
201511140400 METAR MRLM NIL=
201511140500 METAR MRLM NIL=
201511140600 METAR MRLM NIL=
201511140700 METAR MRLM NIL=
201511140800 METAR MRLM NIL=
201511140900 METAR MRLM NIL=
201511141000 METAR MRLM NIL=
201511141100 METAR MRLM NIL=
201511141200 METAR MRLM NIL=
201511141300 METAR MRLM NIL=
201511141400 METAR MRLM NIL=
201511141500 METAR MRLM NIL=
201511141600 METAR MRLM NIL=
201511141700 METAR MRLM NIL=
201511141800 METAR MRLM NIL=
201511141900 METAR MRLM NIL=
201511142000 METAR MRLM NIL=
201511142100 METAR MRLM NIL=
201511142200 METAR MRLM NIL=
201511142300 METAR MRLM NIL=
201511150000 METAR MRLM NIL=
201511150100 METAR MRLM NIL=
201511150200 METAR MRLM NIL=
201511150300 METAR MRLM NIL=
201511150400 METAR MRLM NIL=
201511150500 METAR MRLM NIL=
201511150600 METAR MRLM NIL=
201511150700 METAR MRLM NIL=
201511150800 METAR MRLM NIL=
201511150900 METAR MRLM NIL=
201511151000 METAR MRLM NIL=
201511151100 METAR MRLM NIL=
201511151200 METAR MRLM 151200Z 29004KT CAVOK 25/24 A2981=
201511151300 METAR MRLM 151300Z 31004KT CAVOK 26/24 A2982=
201511151400 METAR MRLM 151400Z 32004KT CAVOK 29/24 A2984=
201511151500 METAR MRLM 151500Z 01008KT 9999 DZ OVC015 27/24 A2985=
201511151600 METAR MRLM 151600Z 07004KT 9999 BKN020 SCT120 28/23 A2984 REDZ=
201511151700 METAR MRLM 151700Z 04006KT 9999 SCT020 BKN130 28/24 A2983=
201511151800 METAR MRLM 151800Z 01005KT 9999 FEW020 BKN130 27/23 A2979=
201511151900 METAR MRLM 151900Z 01010KT 9999 FEW020 BKN130 27/23 A2978=
201511152000 METAR MRLM 152000Z 30005KT 9999 SCT020 SCT130 28/23 A2973=
201511152100 METAR MRLM 152100Z 34006KT 9999 SCT020 BKN130 27/23 A2974=
201511152200 METAR MRLM 152200Z 36007KT 9999 SCT020 BKN130 27/23 A2974=
201511152300 METAR MRLM 152300Z 33002KT 9999 FEW1500 BKN130 26/23 A2976=
201511160000 METAR MRLM 160000Z 33003KT 9999 FEW1000 BKN130 26/23 A2978=
201511160100 METAR MRLM NIL=
201511160200 METAR MRLM NIL=
201511160300 METAR MRLM NIL=
201511160400 METAR MRLM NIL=
201511160500 METAR MRLM NIL=
201511160600 METAR MRLM NIL=
201511160700 METAR MRLM NIL=
201511160800 METAR MRLM NIL=
201511160900 METAR MRLM NIL=
201511161000 METAR MRLM NIL=
201511161100 METAR MRLM NIL=
201511161200 METAR MRLM 161200Z 30002KT CAVOK 24/23 A2976=
201511161300 METAR MRLM 161300Z 27004KT CAVOK 26/24 A2977=
201511161400 METAR MRLM 161400Z 26003KT CAVOK 27/23 A2979=
201511161500 METAR MRLM 161500Z 08003KT 9999 FEW030 BKN260 29/23 A2980=
201511161600 METAR MRLM 161600Z 08003KT 9999 FEW030 SCT15000FT BKN26000FT 29/23 A2981=
201511161700 METAR MRLM 161700Z 03010KT 9999 FEW030 BKN140 29/24 A2978=
201511161800 METAR MRLM 161800Z 05009KT 9999 SCT025 SCT140 29/24 A2976=
201511161900 METAR MRLM 161900Z 09017KT 9999 BKN020 27/23 A2974=
201511162000 METAR MRLM 162000Z 07011KT 4000 RA VCTS OVC010 25/24 A2973=
201511162100 METAR MRLM NIL=
201511162200 METAR MRLM NIL=
201511162300 METAR MRLM NIL=
201511170000 METAR MRLM NIL=
201511170100 METAR MRLM NIL=
201511170200 METAR MRLM NIL=
201511170300 METAR MRLM NIL=
201511170400 METAR MRLM NIL=
201511170500 METAR MRLM NIL=
201511170600 METAR MRLM NIL=
201511170700 METAR MRLM NIL=
201511170800 METAR MRLM NIL=
201511170900 METAR MRLM NIL=
201511171000 METAR MRLM NIL=
201511171100 METAR MRLM NIL=
201511171200 METAR MRLM 171200Z 26004KT CAVOK 23/22 A2972=
201511171300 METAR MRLM 171300Z 27003KT CAVOK 25/23 A2974=
201511171400 METAR MRLM 171400Z 00000KT CAVOK 29/23 A2975=
201511171500 METAR MRLM 171500Z 06004KT 9999 SCT030 SCT260 29/23 A2977=
201511171600 METAR MRLM 171600Z 04006KT 9999 SCT030 SCT130 29/22 A2976=
201511171700 METAR MRLM 171700Z 04007KT 9999 FEW030 SCT260 30/23 A2973=
201511171800 METAR MRLM 171800Z 04006KT 9999 FEW030 SCT150 30/23 A2970=
201511171900 METAR MRLM 171900Z 02008KT 9999 FEW030 BKN140 29/23 A2968=
201511172000 METAR MRLM 172000Z 02009KT 9999 SCT030 29/23 A2966=
201511172100 METAR MRLM NIL=
201511172200 METAR MRLM NIL=
201511172300 METAR MRLM NIL=
201511180000 METAR MRLM NIL=
201511180100 METAR MRLM NIL=
201511180200 METAR MRLM NIL=
201511180300 METAR MRLM NIL=
201511180400 METAR MRLM NIL=
201511180500 METAR MRLM NIL=
201511180600 METAR MRLM NIL=
201511180700 METAR MRLM NIL=
201511180800 METAR MRLM NIL=
201511180900 METAR MRLM NIL=
201511181000 METAR MRLM NIL=
201511181100 METAR MRLM NIL=
201511181200 METAR MRLM 181200Z 25004KT CAVOK 23/22 A2973=
201511181300 METAR MRLM 181300Z 00000KT CAVOK 24/23 A2975=
201511181400 METAR MRLM 181400Z 26004KT CAVOK 25/24 A2977=
201511181500 METAR MRLM 181500Z 30003KT CAVOK 28/23 A2977=
201511181600 METAR MRLM 181600Z 33006KT 9999 FEW035 BKN140 29/22 A2977=
201511181700 METAR MRLM 181700Z 01009KT 9999 FEW030 SCT260 29/23 A2975=
201511181800 METAR MRLM 181800Z 01009KT 9999 FEW030 SCT260 30/23 A2972=
201511181900 METAR MRLM 181900Z 01008KT CAVOK 29/23 A2970=
201511182000 METAR MRLM 182000Z 03006KT 9999 FEW030 SCT130 29/23 A2969=
201511182100 METAR MRLM NIL=
201511182200 METAR MRLM NIL=
201511182300 METAR MRLM NIL=
201511190000 METAR MRLM NIL=
201511190100 METAR MRLM NIL=
201511190200 METAR MRLM NIL=
201511190300 METAR MRLM NIL=
201511190400 METAR MRLM NIL=
201511190500 METAR MRLM NIL=
201511190600 METAR MRLM NIL=
201511190700 METAR MRLM NIL=
201511190800 METAR MRLM NIL=
201511190900 METAR MRLM NIL=
201511191000 METAR MRLM NIL=
201511191100 METAR MRLM NIL=
201511191200 METAR MRLM 191200Z 24004KT CAVOK 23/22 A2977=
201511191300 METAR MRLM 191300Z 26003KT CAVOK 25/22 A2978=
201511191400 METAR MRLM 191400Z 00000KT CAVOK 28/23 A2980=
201511191500 METAR MRLM 191500Z 09003KT CAVOK 28/23 A2984=
201511191600 METAR MRLM 191600Z 06004KT CAVOK 29/22 A2983=
201511191700 METAR MRLM 191700Z 04006KT CAVOK 29/23 A2981=
201511191800 METAR MRLM 191800Z 07005KT CAVOK 29/23 A2978=
201511191900 METAR MRLM 191900Z 09004KT CAVOK 29/23 A2975=
201511192000 METAR MRLM 192000Z 09004KT 9999 FEW030 SCT130 BKN250 29/22 A2973=
201511192100 METAR MRLM NIL=
201511192200 METAR MRLM NIL=
201511192300 METAR MRLM NIL=
201511200000 METAR MRLM NIL=
201511200100 METAR MRLM NIL=
201511200200 METAR MRLM NIL=
201511200300 METAR MRLM NIL=
201511200400 METAR MRLM NIL=
201511200500 METAR MRLM NIL=
201511200600 METAR MRLM NIL=
201511200700 METAR MRLM NIL=
201511200800 METAR MRLM NIL=
201511200900 METAR MRLM NIL=
201511201000 METAR MRLM NIL=
201511201100 METAR MRLM NIL=
201511201200 METAR MRLM 201200Z 25003KT CAVOK 23/22 A2977=
201511201300 METAR MRLM 201300Z 25003KT CAVOK 25/23 A2979=
201511201400 METAR MRLM 201400Z 00000KT CAVOK 28/23 A2981=
201511201500 METAR MRLM 201500Z 12005KT 9999 FEW030 29/23 A2982=
201511201600 METAR MRLM 201600Z 14008KT 9999 FEW030 30/24 A2981=
201511201700 METAR MRLM 201700Z 12008KT CAVOK 30/24 A2978=
201511201800 METAR MRLM 201800Z 11008KT 9999 FEW030 SCT260 30/24 A2975=
201511201900 METAR MRLM 201900Z 11008KT 9999 SCT030 30/24 A2972=
201511202000 METAR MRLM 202000Z 12006KT 9999 BKN025 SCT250 29/24 A2970=
201511202100 METAR MRLM 202100Z 11004KT 9999 BKN020 29/24 A2970=
201511202200 METAR MRLM 202200Z 12004KT 9999 BKN020 29/24 A2970=
201511202300 METAR MRLM 202300Z 09014KT 9999 BKN020 27/24 A2971=
201511210000 METAR MRLM 210000Z 23004KT 9999 BKN015 26/24 A2974=
201511210100 METAR MRLM NIL=
201511210200 METAR MRLM NIL=
201511210300 METAR MRLM NIL=
201511210400 METAR MRLM NIL=
201511210500 METAR MRLM NIL=
201511210600 METAR MRLM NIL=
201511210700 METAR MRLM NIL=
201511210800 METAR MRLM NIL=
201511210900 METAR MRLM NIL=
201511211000 METAR MRLM NIL=
201511211100 METAR MRLM NIL=
201511211200 METAR MRLM NIL=
201511211300 METAR MRLM NIL=
201511211400 METAR MRLM NIL=
201511211500 METAR MRLM NIL=
201511211600 METAR MRLM NIL=
201511211700 METAR MRLM NIL=
201511211800 METAR MRLM NIL=
201511211900 METAR MRLM NIL=
201511212000 METAR MRLM NIL=
201511212100 METAR MRLM NIL=
201511212200 METAR MRLM NIL=
201511212300 METAR MRLM NIL=
201511220000 METAR MRLM NIL=
201511220100 METAR MRLM NIL=
201511220200 METAR MRLM NIL=
201511220300 METAR MRLM NIL=
201511220400 METAR MRLM NIL=
201511220500 METAR MRLM NIL=
201511220600 METAR MRLM NIL=
201511220700 METAR MRLM NIL=
201511220800 METAR MRLM NIL=
201511220900 METAR MRLM NIL=
201511221000 METAR MRLM NIL=
201511221100 METAR MRLM NIL=
201511221200 METAR MRLM 221200Z 31002KT 9999 BKN010 24/23 A2978=
201511221300 METAR MRLM 221300Z 00000KT 9999 BKN015 24/23 A2979=
201511221400 METAR MRLM 221400Z 00000KT 7000 DZ VCHS BKN010 24/23 A2984=
201511221500 METAR MRLM 221500Z 00000KT 5000 RA OVC008 24/23 A2985=
201511221600 METAR MRLM 221600Z 27004KT 7000 +DZ BKN010 24/23 A2986 RERA=
201511221700 METAR MRLM 221700Z 29004KT 9999 -DZ BKN010 25/24 A2984=
201511221800 METAR MRLM 221800Z 03016KT 2000 +RA OVC010 24/23 A2982=
201511221900 METAR MRLM 221900Z 28003KT 9999 -DZ BKN015 24/23 A2980 RERA=
201511222000 METAR MRLM 222000Z 25005KT 9999 SCT015 BKN100 25/23 A2978=
201511222100 METAR MRLM 222100Z 28005KT CAVOK 25/23 A2975=
201511222200 METAR MRLM 222200Z 00000KT CAVOK 26/23 A2976=
201511222300 METAR MRLM 222300Z 00000KT CAVOK 25/23 A2977=
201511230000 METAR MRLM 230000Z 29002KT CAVOK 25/23 A2979=
201511230100 METAR MRLM NIL=
201511230200 METAR MRLM NIL=
201511230300 METAR MRLM NIL=
201511230400 METAR MRLM NIL=
201511230500 METAR MRLM NIL=
201511230600 METAR MRLM NIL=
201511230700 METAR MRLM NIL=
201511230800 METAR MRLM NIL=
201511230900 METAR MRLM NIL=
201511231000 METAR MRLM NIL=
201511231100 METAR MRLM NIL=
201511231200 METAR MRLM 231200Z 30003KT 6000 +DZ OVC010 24/23 A2983=
201511231300 METAR MRLM 231300Z 01010KT 6000 DZ OVC010 24/23 A2986=
201511231400 METAR MRLM 231400Z 29008KT 9999 BKN010 24/22 A2986=
201511231500 METAR MRLM 231500Z 26007KT 9999 BKN080 23/22 A2988=
201511231600 METAR MRLM 231600Z 26004KT 2000 +RA BKN010 24/22 A2990=
201511231700 METAR MRLM 231700Z 24005KT 4000 DZ BKN015 SCT100 24/23 A2988=
201511231800 METAR MRLM 231800Z 23003KT 4000 +DZ SCT015 OVC900 23/23 A2988=
201511231900 METAR MRLM 231900Z 26006KT CAVOK 25/23 A2981=
201511232000 METAR MRLM 232000Z 25004KT CAVOK 26/23 A2979=
201511232100 METAR MRLM NIL=
201511232200 METAR MRLM NIL=
201511232300 METAR MRLM NIL=
201511240000 METAR MRLM NIL=
201511240100 METAR MRLM NIL=
201511240200 METAR MRLM NIL=
201511240300 METAR MRLM NIL=
201511240400 METAR MRLM NIL=
201511240500 METAR MRLM NIL=
201511240600 METAR MRLM NIL=
201511240700 METAR MRLM NIL=
201511240800 METAR MRLM NIL=
201511240900 METAR MRLM NIL=
201511241000 METAR MRLM NIL=
201511241100 METAR MRLM NIL=
201511241200 METAR MRLM 241200Z 27004KT CAVOK 22/21 A2985=
201511241300 METAR MRLM 241300Z 00000KT CAVOK 24/21 A2986=
201511241400 METAR MRLM 241400Z 00000KT 9999 FEW030 SCT250 27/22 A2989=
201511241500 METAR MRLM 241500Z 04012KT 9999 BKN015 26/23 A2992=
201511241600 METAR MRLM 241600Z 17007KT 9999 +DZ BKN010 25/23 A2992=
201511241700 METAR MRLM 241700Z 28005KT 9999 SCT015 BKN130 26/23 A2988 REDZ=
201511241800 METAR MRLM 241800Z 00000KT 9999 SCT030 BKN130 30/22 A2985=
201511241900 METAR MRLM 241900Z 020/15KT 9999 5000 N DZ BKN010 SCT110 25/22 A2985=
201511242000 METAR MRLM 242000Z 280/03KT 9999 BKN015 SCT120 25/22 A2983 REDZ=
201511242100 METAR MRLM NIL=
201511242200 METAR MRLM NIL=
201511242300 METAR MRLM NIL=
201511250000 METAR MRLM NIL=
201511250100 METAR MRLM NIL=
201511250200 METAR MRLM NIL=
201511250300 METAR MRLM NIL=
201511250400 METAR MRLM NIL=
201511250500 METAR MRLM NIL=
201511250600 METAR MRLM NIL=
201511250700 METAR MRLM NIL=
201511250800 METAR MRLM NIL=
201511250900 METAR MRLM NIL=
201511251000 METAR MRLM NIL=
201511251100 METAR MRLM NIL=
201511251200 METAR MRLM 251200Z 17002KT 9999 SCT010 BKN110 23/21 A2984=
201511251300 METAR MRLM 251300Z 00000KT 9999 4000N DZ BKN010 SCT110 23/21 A2986=
201511251400 METAR MRLM 251400Z 25005KT 9999 DZ BKN010 SCT110 22/21 A2989=
201511251500 METAR MRLM 251500Z 28004KT 8000 3000N DZ BKN010 SCT110 23/21 A2990=
201511251600 METAR MRLM 251600Z 24003KT 7000 DZ BKN010 24/22 A2991=
201511251700 METAR MRLM 251700Z 30003KT 8000 4000N DZ BKN015 23/22 A2988=
201511251800 METAR MRLM 251800Z 26003KT 8000 DZ BKN010 SCT100 23/22 A2986=
201511251900 METAR MRLM 251900Z 28004KT 4000 +DZ BKN010 23/22 A2983=
201511252000 METAR MRLM 252000Z 23003KT 5000 DZ BKN015 24/23 A2981=
201511252100 METAR MRLM NIL=
201511252200 METAR MRLM NIL=
201511252300 METAR MRLM NIL=
201511260000 METAR MRLM NIL=
201511260100 METAR MRLM NIL=
201511260200 METAR MRLM NIL=
201511260300 METAR MRLM NIL=
201511260400 METAR MRLM NIL=
201511260500 METAR MRLM NIL=
201511260600 METAR MRLM NIL=
201511260700 METAR MRLM NIL=
201511260800 METAR MRLM NIL=
201511260900 METAR MRLM NIL=
201511261000 METAR MRLM NIL=
201511261100 METAR MRLM NIL=
201511261200 METAR MRLM 261200Z 00000KT 9999 SCT010 SCT110 23/22 A2987=
201511261300 METAR MRLM 261300Z 26003KT 9999 SCT010 SCT110 23/22 A2989=
201511261400 METAR MRLM 261400Z 31006KT 4000 +DZ BKN010 23/21 A2994 RERA=
201511261500 METAR MRLM 261500Z 28005KT 9999 FEW015 BKN120 25/23 A2994 REDZ=
201511261600 METAR MRLM 261600Z 25004KT CAVOK 29/23 A2993=
201511261700 METAR MRLM 261700Z 03003KT 9999 FEW035 BKN130 30/23 A2991=
201511261800 METAR MRLM 261800Z 25003KT 9999 SCT030 SCT130 30/23 A2988=
201511261900 METAR MRLM 261900Z 03005KT 9999 FEW035 BKN130 30/22 A2986=
201511262000 METAR MRLM 262000Z 03007KT 9999 FEW035 SCT140 30/22 A2984=
201511262100 METAR MRLM NIL=
201511262200 METAR MRLM NIL=
201511262300 METAR MRLM NIL=
201511270000 METAR MRLM NIL=
201511270100 METAR MRLM NIL=
201511270200 METAR MRLM NIL=
201511270300 METAR MRLM NIL=
201511270400 METAR MRLM NIL=
201511270500 METAR MRLM NIL=
201511270600 METAR MRLM NIL=
201511270700 METAR MRLM NIL=
201511270800 METAR MRLM NIL=
201511270900 METAR MRLM NIL=
201511271000 METAR MRLM NIL=
201511271100 METAR MRLM NIL=
201511271200 METAR MRLM 271200Z 00000KT 9999 SCT010 BKN100 23/22 A2986=
201511271300 METAR MRLM 271300Z 24004KT 9999 FEW015 BKN120 24/23 A2987=
201511271400 METAR MRLM 271400Z 25003KT CAVOK 27/24 A2989=
201511271500 METAR MRLM 271500Z 07004KT 9999 SCT030 SCT130 29/23 A2991=
201511271600 METAR MRLM 271600Z 08004KT 9999 FEW030 29/24 A2990=
201511271700 METAR MRLM 271700Z 08005KT CAVOK 30/23 A2988=
201511271800 METAR MRLM 271800Z 10004KT CAVOK 30/23 A2985=
201511271900 METAR MRLM 271900Z 08005KT CAVOK 30/23 A2982=
201511272000 METAR MRLM 272000Z 07006KT CAVOK 30/23 A2980=
201511272100 METAR MRLM 272100Z 08005KT CAVOK 30/24 A2978=
201511272200 METAR MRLM 272200Z 08004KT 9999 FEW030 BKN130 29/23 A2978=
201511272300 METAR MRLM 272300Z 08003KT 9999 SCT025 SCT130 28/23 A2979=
201511280000 METAR MRLM 280000Z 04004KT 9999 BKN020 SCT130 28/23 A2981=
201511280100 METAR MRLM NIL=
201511280200 METAR MRLM NIL=
201511280300 METAR MRLM NIL=
201511280400 METAR MRLM NIL=
201511280500 METAR MRLM NIL=
201511280600 METAR MRLM NIL=
201511280700 METAR MRLM NIL=
201511280800 METAR MRLM NIL=
201511280900 METAR MRLM NIL=
201511281000 METAR MRLM NIL=
201511281100 METAR MRLM NIL=
201511281200 METAR MRLM NIL=
201511281300 METAR MRLM NIL=
201511281400 METAR MRLM NIL=
201511281500 METAR MRLM NIL=
201511281600 METAR MRLM NIL=
201511281700 METAR MRLM NIL=
201511281800 METAR MRLM NIL=
201511281900 METAR MRLM NIL=
201511282000 METAR MRLM NIL=
201511282100 METAR MRLM NIL=
201511282200 METAR MRLM NIL=
201511282300 METAR MRLM NIL=
201511290000 METAR MRLM NIL=
201511290100 METAR MRLM NIL=
201511290200 METAR MRLM NIL=
201511290300 METAR MRLM NIL=
201511290400 METAR MRLM NIL=
201511290500 METAR MRLM NIL=
201511290600 METAR MRLM NIL=
201511290700 METAR MRLM NIL=
201511290800 METAR MRLM NIL=
201511290900 METAR MRLM NIL=
201511291000 METAR MRLM NIL=
201511291100 METAR MRLM NIL=
201511291200 METAR MRLM 291200Z 30006KT CAVOK 23/22 A2985=
201511291300 METAR MRLM 291300Z 30005KT 9999 FEW015 SCT130 25/22 A2986=
201511291400 METAR MRLM 291400Z 32005KT 9999 FEW020 BKN130 25/22 A2987=
201511291500 METAR MRLM 291500Z 31009KT 9999 FEW030 BKN130 28/22 A2987=
201511291600 METAR MRLM 291600Z 32007KT 9999 FEW030 BKN130 28/22 A2988=
201511291700 METAR MRLM 291700Z 35010KT 9999 FEW030 BKN130 28/22 A2985=
201511291800 METAR MRLM 291800Z 31007KT 9999 FEW030 BKN130 29/22 A2982=
201511291900 METAR MRLM 291900Z 31007KT 9999 FEW030 30/22 A2978=
201511292000 METAR MRLM 292000Z 34012KT 9999 FEW030 29/22 A2975=
201511292100 METAR MRLM 292100Z 35017KT 9999 SCT025 SCT130 27/22 A2975=
201511292200 METAR MRLM 292200Z 33010KT 9999 SCT020 BKN120 25/22 A2976=
201511292300 METAR MRLM 292300Z 29006KT 9999 FEW015 SCT130 SCT200 25/21 A2977=
201511300000 METAR MRLM 300000Z 28004KT 9999 SCT015 BKN130 24/22 A2978=
201511300100 METAR MRLM NIL=
201511300200 METAR MRLM NIL=
201511300300 METAR MRLM NIL=
201511300400 METAR MRLM NIL=
201511300500 METAR MRLM NIL=
201511300600 METAR MRLM NIL=
201511300700 METAR MRLM NIL=
201511300800 METAR MRLM NIL=
201511300900 METAR MRLM NIL=
201511301000 METAR MRLM NIL=
201511301100 METAR MRLM NIL=
201511301200 METAR MRLM 301200Z 24004KT 9999 FEW010 BKN120 22/21 A2981=
201511301300 METAR MRLM 301300Z 23004KT CAVOK 23/21 A2982=
201511301400 METAR MRLM 301400Z 33003KTCAVOK 26/21 A2977=
201511301500 METAR MRLM 301500Z 32005KTCAVOK 25/21 A2986=
201511301600 METAR MRLM 301600Z 31005KTCAVOK 27/21 A2986=
201511301700 METAR MRLM 301700Z 32005KTCAVOK 28/21 A2983=
201511301800 METAR MRLM 301800Z 32004KTCAVOK 28/21 A2980=
201511301900 METAR MRLM 301900Z 34006KT 9999 FEW030 SCT140 29/22 A2977=
201511302000 METAR MRLM 302000Z 02013KT 9999 FEW030 29/22 A2975=
201511302100 METAR MRLM NIL=
201511302200 METAR MRLM NIL=
201511302300 METAR MRLM NIL=
201512010000 METAR MRLM NIL=
201512010100 METAR MRLM NIL=
201512010200 METAR MRLM NIL=
201512010300 METAR MRLM NIL=
201512010400 METAR MRLM NIL=
201512010500 METAR MRLM NIL=
201512010600 METAR MRLM NIL=
201512010700 METAR MRLM NIL=
201512010800 METAR MRLM NIL=
201512010900 METAR MRLM NIL=
201512011000 METAR MRLM NIL=
201512011100 METAR MRLM NIL=
201512011200 METAR MRLM 011200Z 26002KT CAVOK 23/21 A2981=
201512011300 METAR MRLM 011300Z 00000KT CAVOK 24/22 A2983=
201512011400 METAR MRLM 011400Z 26003KT CAVOK 26/21 A2984=
201512011500 METAR MRLM 011500Z 28003KT CAVOK 29/22 A2985=
201512011600 METAR MRLM 011600Z 26006KT CAVOK 30/19 A2983=
201512011700 METAR MRLM 011700Z 02011KT 9999 FEW040 30/21 A2981=
201512011800 METAR MRLM 011800Z 03010KT 9999 FEW040 30/22 A2979=
201512011900 METAR MRLM 011900Z 02011KT CAVOK 29/22 A2977=
201512012000 METAR MRLM 012000Z 02011KT CAVOK 29/22 A2976=
201512012100 METAR MRLM NIL=
201512012200 METAR MRLM NIL=
201512012300 METAR MRLM NIL=
201512020000 METAR MRLM NIL=
201512020100 METAR MRLM NIL=
201512020200 METAR MRLM NIL=
201512020300 METAR MRLM NIL=
201512020400 METAR MRLM NIL=
201512020500 METAR MRLM NIL=
201512020600 METAR MRLM NIL=
201512020700 METAR MRLM NIL=
201512020800 METAR MRLM NIL=
201512020900 METAR MRLM NIL=
201512021000 METAR MRLM NIL=
201512021100 METAR MRLM NIL=
201512021200 METAR MRLM 021200Z 24004KT CAVOK 23/22 A2981=
201512021300 METAR MRLM 021300Z 23005KT CAVOK 24/22 A2983=
201512021400 METAR MRLM 021400Z 22003KT CAVOK 28/23 A2985=
201512021500 METAR MRLM 021500Z 00000KT 9999 FEW030 29/22 A2986=
201512021600 METAR MRLM 021600Z 07004KT 9999 FEW030 29/22 A2985=
201512021700 METAR MRLM 021700Z 05006KT 9999 FEW030 29/22 A2982=
201512021800 METAR MRLM 021800Z 05007KT CAVOK 29/22 A2980=
201512021900 METAR MRLM 021900Z 05006KT CAVOK 29/22 A2976=
201512022000 METAR MRLM 022000Z 03004KT 9999 FEW030 29/23 A2974=
201512022100 METAR MRLM NIL=
201512022200 METAR MRLM NIL=
201512022300 METAR MRLM NIL=
201512030000 METAR MRLM NIL=
201512030100 METAR MRLM NIL=
201512030200 METAR MRLM NIL=
201512030300 METAR MRLM NIL=
201512030400 METAR MRLM NIL=
201512030500 METAR MRLM NIL=
201512030600 METAR MRLM NIL=
201512030700 METAR MRLM NIL=
201512030800 METAR MRLM NIL=
201512030900 METAR MRLM NIL=
201512031000 METAR MRLM NIL=
201512031100 METAR MRLM NIL=
201512031200 METAR MRLM 031200Z 27004KT CAVOK 23/21 A2986=
201512031300 METAR MRLM 031300Z 25005KT CAVOK 23/21 A2987=
201512031400 METAR MRLM 031400Z 25004KT 9999 FEW010 BKN110 24/22 A2990=
201512031500 METAR MRLM 031500Z 27003KT CAVOK 25/23 A2990=
201512031600 METAR MRLM 031600Z 29002KT CAVOK 27/23 A2989=
201512031700 METAR MRLM 031700Z 31006KT CAVOK 30/21 A2986=
201512031800 METAR MRLM 031800Z 34006KT CAVOK 32/19 A2984=
201512031900 METAR MRLM 031900Z 35009KT CAVOK 31/22 A2982=
201512032000 METAR MRLM 032000Z 36011KT CAVOK 30/23 A2981=
201512032100 METAR MRLM NIL=
201512032200 METAR MRLM NIL=
201512032300 METAR MRLM NIL=
201512040000 METAR MRLM NIL=
201512040100 METAR MRLM NIL=
201512040200 METAR MRLM NIL=
201512040300 METAR MRLM NIL=
201512040400 METAR MRLM NIL=
201512040500 METAR MRLM NIL=
201512040600 METAR MRLM NIL=
201512040700 METAR MRLM NIL=
201512040800 METAR MRLM NIL=
201512040900 METAR MRLM NIL=
201512041000 METAR MRLM NIL=
201512041100 METAR MRLM NIL=
201512041200 METAR MRLM 041200Z 240/04KT CAVOK 24/22 A2987=
201512041300 METAR MRLM 041300Z 26003KT CAVOK 25/23 A2990=
201512041400 METAR MRLM 041400Z 30003KT CAVOK 29/23 A2992=
201512041500 METAR MRLM 041500Z 30006KT CAVOK 29/23 A2994=
201512041600 METAR MRLM 041600Z 33006KT CAVOK 30/24 A2995=
201512041700 METAR MRLM 041700Z 02007KT 9999 FEW020 BKN130 29/24 A2993=
201512041800 METAR MRLM 041800Z 02007KT 9999 FEW020 SCT130 SCT240 29/23 A2990=
201512041900 METAR MRLM 041900Z 34010KT 9999 FEW020 BKN240 30/23 A2988=
201512042000 METAR MRLM NIL=
201512042100 METAR MRLM 042100Z 33006KT CAVOK 29/24 A2985=
201512042200 METAR MRLM 042200Z 30005KT CAVOK 29/24 A2984=
201512042300 METAR MRLM 042300Z 31005KT CAVOK 28/24 A2985=
201512050000 METAR MRLM 050000Z 32003KT CAVOK 28/24 A2987=
201512050100 METAR MRLM NIL=
201512050200 METAR MRLM NIL=
201512050300 METAR MRLM NIL=
201512050400 METAR MRLM NIL=
201512050500 METAR MRLM NIL=
201512050600 METAR MRLM NIL=
201512050700 METAR MRLM NIL=
201512050800 METAR MRLM NIL=
201512050900 METAR MRLM NIL=
201512051000 METAR MRLM NIL=
201512051100 METAR MRLM NIL=
201512051200 METAR MRLM NIL=
201512051300 METAR MRLM NIL=
201512051400 METAR MRLM NIL=
201512051500 METAR MRLM NIL=
201512051600 METAR MRLM NIL=
201512051700 METAR MRLM NIL=
201512051800 METAR MRLM NIL=
201512051900 METAR MRLM NIL=
201512052000 METAR MRLM NIL=
201512052100 METAR MRLM NIL=
201512052200 METAR MRLM NIL=
201512052300 METAR MRLM NIL=
201512060000 METAR MRLM NIL=
201512060100 METAR MRLM NIL=
201512060200 METAR MRLM NIL=
201512060300 METAR MRLM NIL=
201512060400 METAR MRLM NIL=
201512060500 METAR MRLM NIL=
201512060600 METAR MRLM NIL=
201512060700 METAR MRLM NIL=
201512060800 METAR MRLM NIL=
201512060900 METAR MRLM NIL=
201512061000 METAR MRLM NIL=
201512061100 METAR MRLM NIL=
201512061200 METAR MRLM 061200Z 29002KT 9999 BKN010 24/23 A2991=
201512061300 METAR MRLM 061300Z 28005KT 9999 DZ BKN010 24/23 A2991=
201512061400 METAR MRLM 061400Z 26004KT 9999 SCT015 BKN110 26/24 A2992 REDZ=
201512061500 METAR MRLM 061500Z 02012KT 8000 3000N RA BKN010 25/23 A2994=
201512061600 METAR MRLM 061600Z 28004KT 9999 SCT020 SCT110 28/24 A2993 RERA=
201512061700 METAR MRLM 061700Z 28003KT 9999 SCT030 30/24 A2991=
201512061800 METAR MRLM 061800Z 06004KT 9999 SCT030 SCT250 29/24 A2987=
201512061900 METAR MRLM 061900Z 05002KT 9999 SCT030 30/23 A2984=
201512062000 METAR MRLM 062000Z 04002KT 9999 SCT030 SCT130 30/23 A2982=
201512062100 METAR MRLM 062100Z 04005KT 9999 FEW030 BKN130 29/23 A2981=
201512062200 METAR MRLM 062200Z 08003KT 9999 FEW030 SCT130 29/23 A2981=
201512062300 METAR MRLM 062300Z 07004KT 9999 SCT020 SCT130 28/24 A2982=
201512070000 METAR MRLM 070000Z 00000KT 9999 BKN010 26/24 A2986=
201512070100 METAR MRLM NIL=
201512070200 METAR MRLM NIL=
201512070300 METAR MRLM NIL=
201512070400 METAR MRLM NIL=
201512070500 METAR MRLM NIL=
201512070600 METAR MRLM NIL=
201512070700 METAR MRLM NIL=
201512070800 METAR MRLM NIL=
201512070900 METAR MRLM NIL=
201512071000 METAR MRLM NIL=
201512071100 METAR MRLM NIL=
201512071200 METAR MRLM 071200Z 24004KT 9999 BKN010 23/22 A2985=
201512071300 METAR MRLM 071300Z 26002KT 9999 SCT010 BKN120 23/22 A2986=
201512071400 METAR MRLM 071400Z 00000KT 9999 FEW015 BKN130 26/23 A2988=
201512071500 METAR MRLM 071500Z 08002KT CAVOK 29/24 A2989=
201512071600 METAR MRLM 071600Z 05007KT 9999 SCT020 29/24 A2989=
201512071700 METAR MRLM 071700Z 07003KT 9999 FEW030 SCT130 29/23 A2986=
201512071800 METAR MRLM 071800Z 04005KT CAVOK 29/23 A2983=
201512071900 METAR MRLM 071900Z 04004KT 9999 FEW030 SCT130 29/23 A2979=
201512072000 METAR MRLM 072000Z 04007KT 9999 FEW030 29/23 A2977=
201512072100 METAR MRLM NIL=
201512072200 METAR MRLM NIL=
201512072300 METAR MRLM NIL=
201512080000 METAR MRLM NIL=
201512080100 METAR MRLM NIL=
201512080200 METAR MRLM NIL=
201512080300 METAR MRLM NIL=
201512080400 METAR MRLM NIL=
201512080500 METAR MRLM NIL=
201512080600 METAR MRLM NIL=
201512080700 METAR MRLM NIL=
201512080800 METAR MRLM NIL=
201512080900 METAR MRLM NIL=
201512081000 METAR MRLM NIL=
201512081100 METAR MRLM NIL=
201512081200 METAR MRLM 081200Z 26004KT CAVOK 23/21 A2982=
201512081300 METAR MRLM 081300Z 27003KT CAVOK 23/21 A2983=
201512081400 METAR MRLM 081400Z 00000KT CAVOK 27/22 A2986=
201512081500 METAR MRLM 081500Z 33004KT CAVOK 30/21 A2988=
201512081600 METAR MRLM 081600Z 32005KT 9999 FEW035 BKN130 30/23 A2987=
201512081700 METAR MRLM 081700Z 02009KT CAVOK 30/23 A2986=
201512081800 METAR MRLM 081800Z 02011KT CAVOK 29/24 A2984=
201512081900 METAR MRLM 081900Z 02009KT CAVOK 29/23 A2980=
201512082000 METAR MRLM 082000Z 03009KT 9999 FEW020 BKN130 28/24 A2979=
201512082100 METAR MRLM NIL=
201512082200 METAR MRLM NIL=
201512082300 METAR MRLM NIL=
201512090000 METAR MRLM NIL=
201512090100 METAR MRLM NIL=
201512090200 METAR MRLM NIL=
201512090300 METAR MRLM NIL=
201512090400 METAR MRLM NIL=
201512090500 METAR MRLM NIL=
201512090600 METAR MRLM NIL=
201512090700 METAR MRLM NIL=
201512090800 METAR MRLM NIL=
201512090900 METAR MRLM NIL=
201512091000 METAR MRLM NIL=
201512091100 METAR MRLM NIL=
201512091200 METAR MRLM 091200Z 28004KT 9999 SCT010 BKN100 23/22 A2985=
201512091300 METAR MRLM 091300Z 28005KT 9999 BKN015 24/23 A2987=
201512091400 METAR MRLM 091400Z 28004KT 9999 SCT015 BKN100 25/23 A29990=
201512091500 METAR MRLM 091500Z 00000KT 9999 SCT015 OVC120 26/23 A2992=
201512091600 METAR MRLM 091600Z 03006KT 5000 DZ SCT010 OVC090 25/23 A2992=
201512091700 METAR MRLM 091700Z 33003KT 9999 FEW10 BKN090 25/23 A2990 REDZ=
201512091800 METAR MRLM 091800Z 28003KT 9999 SCT015 SCT100 26/23 A2986=
201512091900 METAR MRLM 091900Z 29004KT 9999 BKN020 SCT110 27/23 A2982=
201512092000 METAR MRLM 092000Z 31004KT 9999 FEW020 BKN120 27/24 A2980=
201512092100 METAR MRLM NIL=
201512092200 METAR MRLM NIL=
201512092300 METAR MRLM NIL=
201512100000 METAR MRLM NIL=
201512100100 METAR MRLM NIL=
201512100200 METAR MRLM NIL=
201512100300 METAR MRLM NIL=
201512100400 METAR MRLM NIL=
201512100500 METAR MRLM NIL=
201512100600 METAR MRLM NIL=
201512100700 METAR MRLM NIL=
201512100800 METAR MRLM NIL=
201512100900 METAR MRLM NIL=
201512101000 METAR MRLM NIL=
201512101100 METAR MRLM NIL=
201512101200 METAR MRLM 101200Z 25004KT CAVOK 23/21 A2983=
201512101300 METAR MRLM 101300Z 00000KT 9999 FEW015 BKN130 23/22 A2986=
201512101400 METAR MRLM NIL=
201512101500 METAR MRLM NIL=
201512101600 METAR MRLM NIL=
201512101700 METAR MRLM NIL=
201512101800 METAR MRLM NIL=
201512101900 METAR MRLM NIL=
201512102000 METAR MRLM NIL=
201512102100 METAR MRLM NIL=
201512102200 METAR MRLM NIL=
201512102300 METAR MRLM NIL=
201512110000 METAR MRLM NIL=
201512110100 METAR MRLM NIL=
201512110200 METAR MRLM NIL=
201512110300 METAR MRLM NIL=
201512110400 METAR MRLM NIL=
201512110500 METAR MRLM NIL=
201512110600 METAR MRLM NIL=
201512110700 METAR MRLM NIL=
201512110800 METAR MRLM NIL=
201512110900 METAR MRLM NIL=
201512111000 METAR MRLM NIL=
201512111100 METAR MRLM NIL=
201512111200 METAR MRLM NIL=
201512111300 METAR MRLM NIL=
201512111400 METAR MRLM NIL=
201512111500 METAR MRLM NIL=
201512111600 METAR MRLM NIL=
201512111700 METAR MRLM NIL=
201512111800 METAR MRLM NIL=
201512111900 METAR MRLM NIL=
201512112000 METAR MRLM NIL=
201512112100 METAR MRLM NIL=
201512112200 METAR MRLM NIL=
201512112300 METAR MRLM NIL=
201512120000 METAR MRLM NIL=
201512120100 METAR MRLM NIL=
201512120200 METAR MRLM NIL=
201512120300 METAR MRLM NIL=
201512120400 METAR MRLM NIL=
201512120500 METAR MRLM NIL=
201512120600 METAR MRLM NIL=
201512120700 METAR MRLM NIL=
201512120800 METAR MRLM NIL=
201512120900 METAR MRLM NIL=
201512121000 METAR MRLM NIL=
201512121100 METAR MRLM NIL=
201512121200 METAR MRLM NIL=
201512121300 METAR MRLM NIL=
201512121400 METAR MRLM NIL=
201512121500 METAR MRLM NIL=
201512121600 METAR MRLM NIL=
201512121700 METAR MRLM NIL=
201512121800 METAR MRLM NIL=
201512121900 METAR MRLM NIL=
201512122000 METAR MRLM NIL=
201512122100 METAR MRLM NIL=
201512122200 METAR MRLM NIL=
201512122300 METAR MRLM NIL=
201512130000 METAR MRLM NIL=
201512130100 METAR MRLM NIL=
201512130200 METAR MRLM NIL=
201512130300 METAR MRLM NIL=
201512130400 METAR MRLM NIL=
201512130500 METAR MRLM NIL=
201512130600 METAR MRLM NIL=
201512130700 METAR MRLM NIL=
201512130800 METAR MRLM NIL=
201512130900 METAR MRLM NIL=
201512131000 METAR MRLM NIL=
201512131100 METAR MRLM NIL=
201512131200 METAR MRLM 131200Z 25004KT 8000 DZ SCT010 BKN100 24/22 A2982=
201512131300 METAR MRLM 131300Z 00000KT 8000 -DZ SCT010 BKN100 24/23 A2985=
201512131400 METAR MRLM 131400Z 26004KT 5000 DZ SCT010 SCT090 24/23 A2987=
201512131500 METAR MRLM 131500Z 23005KT 8000 DZ BKN010 SCT090 24/23 A2988=
201512131600 METAR MRLM 131600Z 25005KT 9999 -DZ BKN015 25/24 A2987=
201512131700 METAR MRLM 131700Z 25005KT 9999 SCT020 BKN120 27/24 A2986=
201512131800 METAR MRLM 131800Z 22002KT 9999 BKN025 SCT120 29/24 A2984=
201512131900 METAR MRLM 131900Z 12003KT 9999 BKN015 27/24 A2981=
201512132000 METAR MRLM 132000Z 22004KT 9999 SCT010 BKN120 25/24 A2979=
201512132100 METAR MRLM 132100Z 25004KT 9999 FEW015 BKN120 25/23 A2977=
201512132200 METAR MRLM 132200Z 23003KT CAVOK 25/23 A2976=
201512132300 METAR MRLM 132300Z 27002KT 9999 FEW010 BKN110 25/23 A2977=
201512140000 METAR MRLM 140000Z 00000KT CAVOK 24/23 A2979=
201512140100 METAR MRLM NIL=
201512140200 METAR MRLM NIL=
201512140300 METAR MRLM NIL=
201512140400 METAR MRLM NIL=
201512140500 METAR MRLM NIL=
201512140600 METAR MRLM NIL=
201512140700 METAR MRLM NIL=
201512140800 METAR MRLM NIL=
201512140900 METAR MRLM NIL=
201512141000 METAR MRLM NIL=
201512141100 METAR MRLM NIL=
201512141200 METAR MRLM 141200Z 26004KT CAVOK 22/21 A2982=
201512141300 METAR MRLM 141300Z 26003KT CAVOK 23/22 A2983=
201512141400 METAR MRLM 141400Z 00000KT CAVOK 27/23 A2986=
201512141500 METAR MRLM 141500Z 09003KT CAVOK 28/23 A2987=
201512141600 METAR MRLM 141600Z 09005KT CAVOK 29/23 A2986=
201512141700 METAR MRLM 141700Z 05003KT CAVOK 29/23 A2984=
201512141800 METAR MRLM 141800Z 06005KT CAVOK 29/23 A2981=
201512141900 METAR MRLM 141900Z 06004KT CAVOK 29/23 A2978=
201512142000 METAR MRLM 142000Z 06004KT CAVOK 30/23 A2976=
201512142100 METAR MRLM NIL=
201512142200 METAR MRLM NIL=
201512142300 METAR MRLM NIL=
201512150000 METAR MRLM NIL=
201512150100 METAR MRLM NIL=
201512150200 METAR MRLM NIL=
201512150300 METAR MRLM NIL=
201512150400 METAR MRLM NIL=
201512150500 METAR MRLM NIL=
201512150600 METAR MRLM NIL=
201512150700 METAR MRLM NIL=
201512150800 METAR MRLM NIL=
201512150900 METAR MRLM NIL=
201512151000 METAR MRLM NIL=
201512151100 METAR MRLM NIL=
201512151200 METAR MRLM 151200Z 25004KT CAVOK 22/21 A2979=
201512151300 METAR MRLM 151300Z 24003KT CAVOK 24/23 A2980=
201512151400 METAR MRLM 151400Z 24004KT CAVOK 26/23 A2982=
201512151500 METAR MRLM 151500Z 00000KT CAVOK 28/23 A2984=
201512151600 METAR MRLM 151600Z 11004KT 9999 FEW030 SCT140 SCT260 29/22 A2983=
201512151700 METAR MRLM 151700Z 11005KT 9999 FEW030 BKN260 30/23 A2982=
201512151800 METAR MRLM 151800Z 09004KT 9999 FEW035 BKN260 30/22 A2979=
201512151900 METAR MRLM 151900Z 08007KT CAVOK 29/22 A2977=
201512152000 METAR MRLM 152000Z 08006KT CAVOK 30/23 A2975=
201512152100 METAR MRLM NIL=
201512152200 METAR MRLM NIL=
201512152300 METAR MRLM NIL=
201512160000 METAR MRLM NIL=
201512160100 METAR MRLM NIL=
201512160200 METAR MRLM NIL=
201512160300 METAR MRLM NIL=
201512160400 METAR MRLM NIL=
201512160500 METAR MRLM NIL=
201512160600 METAR MRLM NIL=
201512160700 METAR MRLM NIL=
201512160800 METAR MRLM NIL=
201512160900 METAR MRLM NIL=
201512161000 METAR MRLM NIL=
201512161100 METAR MRLM NIL=
201512161200 METAR MRLM 161200Z 25005KT CAVOK 21/20 A2980=
201512161300 METAR MRLM 161300Z 25005KT CAVOK 23/21 A2981=
201512161400 METAR MRLM 161400Z 25003KT CAVOK 26/23 A2983=
201512161500 METAR MRLM 161500Z 09002KT 9999 FEW030 SCT260 29/23 A2984=
201512161600 METAR MRLM 161600Z 09003KT 9999 FEW030 SCT140 29/23 A2984=
201512161700 METAR MRLM 161700Z 05004KT CAVOK 29/23 A2982=
201512161800 METAR MRLM 161800Z 06006KT 9999 FEW030 SCT260 29/23 A2980=
201512161900 METAR MRLM 161900Z 04006KT 9999 FEW030 30/24 A2978=
201512162000 METAR MRLM 162000Z 05006KT 9999 FEW030 29/23 A2975=
201512162100 METAR MRLM NIL=
201512162200 METAR MRLM NIL=
201512162300 METAR MRLM NIL=
201512170000 METAR MRLM NIL=
201512170100 METAR MRLM NIL=
201512170200 METAR MRLM NIL=
201512170300 METAR MRLM NIL=
201512170400 METAR MRLM NIL=
201512170500 METAR MRLM NIL=
201512170600 METAR MRLM NIL=
201512170700 METAR MRLM NIL=
201512170800 METAR MRLM NIL=
201512170900 METAR MRLM NIL=
201512171000 METAR MRLM NIL=
201512171100 METAR MRLM NIL=
201512171200 METAR MRLM 171200Z 27004KT 9999 FEW015 BKN110 23/22 A2978=
201512171300 METAR MRLM 171300Z 28003KT 9999 FEW015 BKN120 23/22 A2979=
201512171400 METAR MRLM 171400Z 27002KT CAVOK 25/22 A2982=
201512171500 METAR MRLM 171500Z 24002KT 9999 FEW030 BKN130 29/22 A2983=
201512171600 METAR MRLM 171600Z 12006KT 9999 SCT030 BKN130 29/22 A2983=
201512171700 METAR MRLM 171700Z 14008KT 9999 SCT030 BKN130 28/23 A2982=
201512171800 METAR MRLM 171800Z 14010KT 9999 SCT030 BKN130 28/23 A2982=
201512171900 METAR MRLM NIL=
201512172000 METAR MRLM NIL=
201512172100 METAR MRLM NIL=
201512172200 METAR MRLM NIL=
201512172300 METAR MRLM NIL=
201512180000 METAR MRLM NIL=
201512180100 METAR MRLM NIL=
201512180200 METAR MRLM NIL=
201512180300 METAR MRLM NIL=
201512180400 METAR MRLM NIL=
201512180500 METAR MRLM NIL=
201512180600 METAR MRLM NIL=
201512180700 METAR MRLM NIL=
201512180800 METAR MRLM NIL=
201512180900 METAR MRLM NIL=
201512181000 METAR MRLM NIL=
201512181100 METAR MRLM NIL=
201512181200 METAR MRLM NIL=
201512181300 METAR MRLM 181300Z 25004KT 9999 FEW010 23/21 A2985=
201512181400 METAR MRLM 181400Z 25004KT CAVOK 27/22 A2987=
201512181500 METAR MRLM 181500Z 00000KT 9999 SCT030 29/23 A2987=
201512181600 METAR MRLM 181600Z 05006KT 9999 FEW030 29/23 A2987=
201512181700 METAR MRLM 181700Z 04007KT 9999 FEW030 30/23 A2985=
201512181800 METAR MRLM 181800Z 04007KT 9999 FEW030 30/23 A2983=
201512181900 METAR MRLM 181900Z 05007KT CAVOK 30/22 A2980=
201512182000 METAR MRLM 182000Z 04007KT CAVOK 30/22 A2978=
201512182100 METAR MRLM 182100Z 04008KT CAVOK 30/22 A2977=
201512182200 METAR MRLM 182200Z 03006KT CAVOK 29/23 A2978=
201512182300 METAR MRLM 182300Z 02005KT CAVOK 28/22 A2979=
201512190000 METAR MRLM 190000Z 00000KT CAVOK 25/22 A2982=
201512190100 METAR MRLM NIL=
201512190200 METAR MRLM NIL=
201512190300 METAR MRLM NIL=
201512190400 METAR MRLM NIL=
201512190500 METAR MRLM NIL=
201512190600 METAR MRLM NIL=
201512190700 METAR MRLM NIL=
201512190800 METAR MRLM NIL=
201512190900 METAR MRLM NIL=
201512191000 METAR MRLM NIL=
201512191100 METAR MRLM NIL=
201512191200 METAR MRLM NIL=
201512191300 METAR MRLM NIL=
201512191400 METAR MRLM NIL=
201512191500 METAR MRLM NIL=
201512191600 METAR MRLM NIL=
201512191700 METAR MRLM NIL=
201512191800 METAR MRLM NIL=
201512191900 METAR MRLM NIL=
201512192000 METAR MRLM NIL=
201512192100 METAR MRLM NIL=
201512192200 METAR MRLM NIL=
201512192300 METAR MRLM NIL=
201512200000 METAR MRLM NIL=
201512200100 METAR MRLM NIL=
201512200200 METAR MRLM NIL=
201512200300 METAR MRLM NIL=
201512200400 METAR MRLM NIL=
201512200500 METAR MRLM NIL=
201512200600 METAR MRLM NIL=
201512200700 METAR MRLM NIL=
201512200800 METAR MRLM NIL=
201512200900 METAR MRLM NIL=
201512201000 METAR MRLM NIL=
201512201100 METAR MRLM NIL=
201512201200 METAR MRLM 201200Z 29004KT 7000 DZ BKN010 24/23 A2990=
201512201300 METAR MRLM 201300Z 23003KT 9999 BKN010 24/23 A2990 REDZ=
201512201400 METAR MRLM 201400Z 28005KT 9999 DZ OVC010 24/23 A2993=
201512201500 METAR MRLM 201500Z 25005KT 9999 5000 N DZ BKN010 26/24 A2994=
201512201600 METAR MRLM 201600Z 27005KT 9999 DZ BKN015 27/25 A2994=
201512201700 METAR MRLM 201700Z 34002KT 9999 DZ BKN015 26/24 A2993=
201512201800 METAR MRLM 201800Z 24004KT 9999 BKN015 27/24 A2991=
201512201900 METAR MRLM 201900Z 27003KT 9999 BKN020 28/24 A2988=
201512202000 METAR MRLM 202000Z 17006KT 5000 RA BKN010 26/24 A2986=
201512202100 METAR MRLM 202100Z 21004KT 9999 5000N DZ BKN010 26/24 A2985=
201512202200 METAR MRLM 202200Z 27003KT 9999 SCT010 SCT120 26/24 A2984 REDZ=
201512202300 METAR MRLM 202300Z 30003KT 9999 DZ BKN010 26/24 A2983=
201512210000 METAR MRLM 210000Z 01003KT 6000 DZ OVC010 25/24 A2985=
201512210100 METAR MRLM NIL=
201512210200 METAR MRLM NIL=
201512210300 METAR MRLM NIL=
201512210400 METAR MRLM NIL=
201512210500 METAR MRLM NIL=
201512210600 METAR MRLM NIL=
201512210700 METAR MRLM NIL=
201512210800 METAR MRLM NIL=
201512210900 METAR MRLM NIL=
201512211000 METAR MRLM NIL=
201512211100 METAR MRLM NIL=
201512211200 METAR MRLM 211200Z 21003KT 9999 DZ OVC010 24/23 A2984=
201512211300 METAR MRLM 211300Z 25004KT 9999 -DZ OVC010 24/23 A2985=
201512211400 METAR MRLM 211400Z 25004KT 9999 DZ FEW006 BKN010 25/24 A2988=
201512211500 METAR MRLM 211500Z 07012KT 9999 BKN015 28/24 A2989 REDZ=
201512211600 METAR MRLM 211600Z 14003KT 9999 5000E VCSH BKN015 28/25 A2988=
201512211700 METAR MRLM 211700Z 07010KT 9999 SCT020 BKN130 29/24 A2988=
201512211800 METAR MRLM 211800Z 07009KT 9999 SCT020 BKN130 29/25 A2985=
201512211900 METAR MRLM 211900Z 07009KT 9999 BKN025 30/25 A2982=
201512212000 METAR MRLM 212000Z 06008KT 9999 SCT025 SCT250 30/24 A2980=
201512212100 METAR MRLM NIL=
201512212200 METAR MRLM NIL=
201512212300 METAR MRLM NIL=
201512220000 METAR MRLM NIL=
201512220100 METAR MRLM NIL=
201512220200 METAR MRLM NIL=
201512220300 METAR MRLM NIL=
201512220400 METAR MRLM NIL=
201512220500 METAR MRLM NIL=
201512220600 METAR MRLM NIL=
201512220700 METAR MRLM NIL=
201512220800 METAR MRLM NIL=
201512220900 METAR MRLM NIL=
201512221000 METAR MRLM NIL=
201512221100 METAR MRLM NIL=
201512221200 METAR MRLM 221200Z 29005KT 9999 SCT010 SCT250 24/23 A2982=
201512221300 METAR MRLM 221300Z 28004KT 9999 FEW010 BKN120 24/23 A2983=
201512221400 METAR MRLM 221400Z 25003KT 9999 FEW015 BKN130 25/24 A2985=
201512221500 METAR MRLM 221500Z 05007KT 9999 DZ BKN015 SCT130 27/24 A2986=
201512221600 METAR MRLM 221600Z 34010KT 9999 DZ BKN010 SCT120 25/23 A2985=
201512221700 METAR MRLM 221700Z 31005KT 9999 DZ BKN015 SCT120 27/23 A2983=
201512221800 METAR MRLM 221800Z 03006KT 9999 SCT020 BKN130 28/24 A2980 REDZ=
201512221900 METAR MRLM 221900Z 04004KT 9999 FEW025 BKN130 29/24 A2976=
201512222000 METAR MRLM 222000Z 05006KT 9999 FEW030 BKN130 29/24 A2974=
201512222100 METAR MRLM NIL=
201512222200 METAR MRLM NIL=
201512222300 METAR MRLM NIL=
201512230000 METAR MRLM NIL=
201512230100 METAR MRLM NIL=
201512230200 METAR MRLM NIL=
201512230300 METAR MRLM NIL=
201512230400 METAR MRLM NIL=
201512230500 METAR MRLM NIL=
201512230600 METAR MRLM NIL=
201512230700 METAR MRLM NIL=
201512230800 METAR MRLM NIL=
201512230900 METAR MRLM NIL=
201512231000 METAR MRLM NIL=
201512231100 METAR MRLM NIL=
201512231200 METAR MRLM 231200Z 27004KT 9999 FEW010 BKN100 24/22 A2978=
201512231300 METAR MRLM 231300Z 00000KT 9999 FEW010 BKN110 25/23 A2980=
201512231400 METAR MRLM 231400Z 36002KT 9999 BKN015 SCT120 26/23 A2983=
201512231500 METAR MRLM 231500Z 30003KT 9999 FEW020 BKN120 28/24 A2984=
201512231600 METAR MRLM 231600Z 06006KT 9999 FEW030 SCT140 SCT260 29/24 A2983=
201512231700 METAR MRLM 231700Z 09004KT 9999 FEW030 BKN140 29/24 A2980=
201512231800 METAR MRLM 231800Z 11005KT CAVOK 30/25 A2978=
201512231900 METAR MRLM 231900Z 10006KT CAVOK 29/24 A2975=
201512232000 METAR MRLM 232000Z 10006KT CAVOK 30/24 A2973=
201512232100 METAR MRLM NIL=
201512232200 METAR MRLM NIL=
201512232300 METAR MRLM NIL=
201512240000 METAR MRLM NIL=
201512240100 METAR MRLM NIL=
201512240200 METAR MRLM NIL=
201512240300 METAR MRLM NIL=
201512240400 METAR MRLM NIL=
201512240500 METAR MRLM NIL=
201512240600 METAR MRLM NIL=
201512240700 METAR MRLM NIL=
201512240800 METAR MRLM NIL=
201512240900 METAR MRLM NIL=
201512241000 METAR MRLM NIL=
201512241100 METAR MRLM NIL=
201512241200 METAR MRLM 241200Z 26002KT 9999 BKN010 SCT100 24/23 A2981=
201512241300 METAR MRLM 241300Z 22003KT 9999 SCT015 SCT110 24/23 A2983=
201512241400 METAR MRLM 241400Z 00000KT 9999 DZ BKN010 25/24 A2987=
201512241500 METAR MRLM 241500Z 22003KT 9999 DZ BKN010 25/24 A2987=
201512241600 METAR MRLM 241600Z 24003KT 9999 SCT015 BKN120 26/25 A2986 REDZ=
201512241700 METAR MRLM 241700Z 00000KT 9999 FEW020 BKN130 29/25 A2985=
201512241800 METAR MRLM 241800Z 08003KT 9999 FEW020 BKN130 29/24 A2984=
201512241900 METAR MRLM 241900Z 09004KT 9999 FEW030 30/24 A2981=
201512242000 METAR MRLM 242000Z 06005KT 9999 FEW030 SCT260 30/24 A2980=
201512242100 METAR MRLM NIL=
201512242200 METAR MRLM NIL=
201512242300 METAR MRLM NIL=
201512250000 METAR MRLM NIL=
201512250100 METAR MRLM NIL=
201512250200 METAR MRLM NIL=
201512250300 METAR MRLM NIL=
201512250400 METAR MRLM NIL=
201512250500 METAR MRLM NIL=
201512250600 METAR MRLM NIL=
201512250700 METAR MRLM NIL=
201512250800 METAR MRLM NIL=
201512250900 METAR MRLM NIL=
201512251000 METAR MRLM NIL=
201512251100 METAR MRLM NIL=
201512251200 METAR MRLM 251200Z 26006KT 9999 BKN010 24/23 A2984=
201512251300 METAR MRLM 251300Z 34004KT 9999 DZ BKN010 25/24 A2986 RERA=
201512251400 METAR MRLM 251400Z 29004KT 9999 BKN010 26/24 A2988 REDZ=
201512251500 METAR MRLM 251500Z 25003KT 9999 5000N DZ BKN010 26/24 A2988=
201512251600 METAR MRLM 251600Z 06007KT 9999 DZ BKN010 27/24 A2987=
201512251700 METAR MRLM 251700Z 20002KT 9999 BKN010 26/24 A2987 REDZ=
201512251800 METAR MRLM 251800Z 22005KT 9999 5000N DZ BKN008 25/24 A2984=
201512251900 METAR MRLM 251900Z 26006KT 8000 DZ BKN008 25/24 A2981 RERA=
201512252000 METAR MRLM 252000Z 26004KT 9999 BKN010 26/24 A2980 REDZ=
201512252100 METAR MRLM 252100Z 22005KT 9999 SCT015 28/24 A2978=
201512252200 METAR MRLM 252200Z 25002KT 9999 SCT020 SCT130 29/23 A2977=
201512252300 METAR MRLM 252300Z 10006KT 6000 DZ BKN015 27/24 A2978=
201512260000 METAR MRLM 260000Z 22003KT 8000 3000 N DZ BKN010 25/23 A2979=
201512260100 METAR MRLM NIL=
201512260200 METAR MRLM NIL=
201512260300 METAR MRLM NIL=
201512260400 METAR MRLM NIL=
201512260500 METAR MRLM NIL=
201512260600 METAR MRLM NIL=
201512260700 METAR MRLM NIL=
201512260800 METAR MRLM NIL=
201512260900 METAR MRLM NIL=
201512261000 METAR MRLM NIL=
201512261100 METAR MRLM NIL=
201512261200 METAR MRLM NIL=
201512261300 METAR MRLM NIL=
201512261400 METAR MRLM NIL=
201512261500 METAR MRLM NIL=
201512261600 METAR MRLM NIL=
201512261700 METAR MRLM NIL=
201512261800 METAR MRLM NIL=
201512261900 METAR MRLM NIL=
201512262000 METAR MRLM NIL=
201512262100 METAR MRLM NIL=
201512262200 METAR MRLM NIL=
201512262300 METAR MRLM NIL=
201512270000 METAR MRLM NIL=
201512270100 METAR MRLM NIL=
201512270200 METAR MRLM NIL=
201512270300 METAR MRLM NIL=
201512270400 METAR MRLM NIL=
201512270500 METAR MRLM NIL=
201512270600 METAR MRLM NIL=
201512270700 METAR MRLM NIL=
201512270800 METAR MRLM NIL=
201512270900 METAR MRLM NIL=
201512271000 METAR MRLM NIL=
201512271100 METAR MRLM NIL=
201512271200 METAR MRLM 271200Z 00000KT 7000 DZ BKN010 24/23 A2979=
201512271300 METAR MRLM 271300Z 27004KT 9999 4000N DZ BKN010 24/23 A2979=
201512271400 METAR MRLM 271400Z 26003KT 9999 -DZ BKN010 24/23 A2983=
201512271500 METAR MRLM 271500Z 05003KT 9999 -DZ BKN007 25/24 A2984=
201512271600 METAR MRLM 271600Z 04002KT 9999 BKN015 SCT110 27/24 A2983=
201512271700 METAR MRLM 271700Z 22002KT 9999 BKN015 28/24 A2981=
201512271800 METAR MRLM 271800Z 05007KT 9999 -DZ BKN020 SCT110 26/23 A2978=
201512271900 METAR MRLM 271900Z 04006KT 9999 SCT020 BKN120 28/23 A2976=
201512272000 METAR MRLM 272000Z 05009KT 9999 DZ SCT0150 BKN110 26/24 A2974=
201512272100 METAR MRLM 272100Z 36005KT 9999 FEW150 BKN120 26/23 A2973=
201512272200 METAR MRLM 272200Z CORR 34004KT 9999 SCT015 BKN120 26/23 A2972=
201512272300 METAR MRLM 272300Z 26003KT 9999 BKN010 BKN110 25/23 A2972=
201512280000 METAR MRLM 280000Z 00000KT 9999 OVC010 25/23 A2973=
201512280100 METAR MRLM NIL=
201512280200 METAR MRLM NIL=
201512280300 METAR MRLM NIL=
201512280400 METAR MRLM NIL=
201512280500 METAR MRLM NIL=
201512280600 METAR MRLM NIL=
201512280700 METAR MRLM NIL=
201512280800 METAR MRLM NIL=
201512280900 METAR MRLM NIL=
201512281000 METAR MRLM NIL=
201512281100 METAR MRLM NIL=
201512281200 METAR MRLM 281200Z 00000KT 9999 SCT010 BKN100 23/22 A2977=
201512281300 METAR MRLM 281300Z 00000KT CAVOK 24/23 A2978=
201512281400 METAR MRLM 281400Z 00000KT CAVOK 26/24 A2981=
201512281500 METAR MRLM 281500Z 05002KT CAVOK 29/24 A2983=
201512281600 METAR MRLM 281600Z 06004KT 9999 FEW025 SCT250 29/24 A2982=
201512281700 METAR MRLM 281700Z 04007KT 9999 FEW030 SCT140 SCT260 29/24 A2981=
201512281800 METAR MRLM 281800Z 04007KT 9999 FEW030 SCT140 30/24 A2979=
201512281900 METAR MRLM 281900Z 04008KT 9999 FEW030 SCT140 29/24 A2977=
201512282000 METAR MRLM 282000Z 04006KT 9999 FEW030 BKN130 29/24 A2974=
201512282100 METAR MRLM NIL=
201512282200 METAR MRLM NIL=
201512282300 METAR MRLM NIL=
201512290000 METAR MRLM NIL=
201512290100 METAR MRLM NIL=
201512290200 METAR MRLM NIL=
201512290300 METAR MRLM NIL=
201512290400 METAR MRLM NIL=
201512290500 METAR MRLM NIL=
201512290600 METAR MRLM NIL=
201512290700 METAR MRLM NIL=
201512290800 METAR MRLM NIL=
201512290900 METAR MRLM NIL=
201512291000 METAR MRLM NIL=
201512291100 METAR MRLM NIL=
201512291200 METAR MRLM 291200Z 27004KT 9999 SCT010 SCT110 24/22 A2985=
201512291300 METAR MRLM 291300Z 27005KT 9999 FEW015 BKN120 25/22 A2987=
201512291400 METAR MRLM 291400Z 28004KT 9999 FEW020 BKN130 25/22 A2989=
201512291500 METAR MRLM 291500Z 26003KT CAVOK 27/23 A2990=
201512291600 METAR MRLM 291600Z 02003KT CAVOK 29/23 A2990=
201512291700 METAR MRLM 291700Z 04003KT CAVOK 29/23 A2988=
201512291800 METAR MRLM 291800Z 06003KT CAVOK 29/22 A2987=
201512291900 METAR MRLM 291900Z 04003KT CAVOK 30/23 A2985=
201512292000 METAR MRLM 292000Z 03006KT CAVOK 30/23 A2983=
201512292100 METAR MRLM NIL=
201512292200 METAR MRLM NIL=
201512292300 METAR MRLM NIL=
201512300000 METAR MRLM NIL=
201512300100 METAR MRLM NIL=
201512300200 METAR MRLM NIL=
201512300300 METAR MRLM NIL=
201512300400 METAR MRLM NIL=
201512300500 METAR MRLM NIL=
201512300600 METAR MRLM NIL=
201512300700 METAR MRLM NIL=
201512300800 METAR MRLM NIL=
201512300900 METAR MRLM NIL=
201512301000 METAR MRLM NIL=
201512301100 METAR MRLM NIL=
201512301200 METAR MRLM 301200Z 21005KT 9999 -DZ BKN010 23/22 A2990=
201512301300 METAR MRLM 301300Z 24004KT 9999 SCT015 SCT110 24/23 A2992=
201512301400 METAR MRLM 301400Z 24004KT CAVOK 27/24 A2993=
201512301500 METAR MRLM 301500Z 23003KT CAVOK 27/23 A2994=
201512301600 METAR MRLM 301600Z 12004KT CAVOK 29/24 A2993=
201512301700 METAR MRLM 301700Z 12003KT CAVOK 29/24 A2991=
201512301800 METAR MRLM 301800Z 11004KT 9999 FEW025 BKN140 30/24 A2989=
201512301900 METAR MRLM 301900Z 12003KT CAVOK 30/23 A2986=
201512302000 METAR MRLM 302000Z 10003KT CAVOK 30/24 A2983=
201512302100 METAR MRLM NIL=
201512302200 METAR MRLM NIL=
201512302300 METAR MRLM NIL=
201512310000 METAR MRLM NIL=
201512310100 METAR MRLM NIL=
201512310200 METAR MRLM NIL=
201512310300 METAR MRLM NIL=
201512310400 METAR MRLM NIL=
201512310500 METAR MRLM NIL=
201512310600 METAR MRLM NIL=
201512310700 METAR MRLM NIL=
201512310800 METAR MRLM NIL=
201512310900 METAR MRLM NIL=
201512311000 METAR MRLM NIL=
201512311100 METAR MRLM NIL=
201512311200 METAR MRLM 311200Z 26005KT 9999 SCT010 SCT110 23/22 A2986=
201512311300 METAR MRLM 311300Z 26003KT 9999 FEW010 SCT110 24/23 A2987=
201512311400 METAR MRLM 311400Z 00000KT 9999 DZ SCT015 SCT120 27/24 A2989=
201512311500 METAR MRLM 311500Z 34002KT 9999 SCT020 SCT130 28/24 A2990 REDZ=
201512311600 METAR MRLM 311600Z 03008KT 9999 BKN020 28/25 A2990=
201512311700 METAR MRLM 311700Z 05005KT 9999 FEW020 SCT130 29/25 A2988=
201512311800 METAR MRLM 311800Z 02007KT 9999 FEW020 SCT130 30/24 A2985=
201512311900 METAR MRLM 311900Z 03009KT 9999 FEW030 30/23 A2983=
201512312000 METAR MRLM 312000Z 05009KT 9999 FEW030 BKN120 30/25 A2981=
201512312100 METAR MRLM NIL=
201512312200 METAR MRLM NIL=
201512312300 METAR MRLM NIL=
