201701010000 METAR MRLM 010000Z 31002KT 9999 FEW010 BKN080 24/23 A2987=
201701010100 METAR MRLM NIL=
201701010200 METAR MRLM NIL=
201701010300 METAR MRLM NIL=
201701010400 METAR MRLM NIL=
201701010500 METAR MRLM NIL=
201701010600 METAR MRLM NIL=
201701010700 METAR MRLM NIL=
201701010800 METAR MRLM NIL=
201701010900 METAR MRLM NIL=
201701011000 METAR MRLM NIL=
201701011100 METAR MRLM NIL=
201701011200 METAR MRLM 011200Z 01002KT CAVOK 22/22 A2988=
201701011300 METAR MRLM 011300Z 29002KT 9999 FEW010 BKN090 23/22 A2991=
201701011400 METAR MRLM 011400Z 06007KT 7000 DZ SCT015 BKN090 25/23 A2995=
201701011500 METAR MRLM 011500Z 24007KT 8000 -DZ SCT015 BKN090 24/23 A2995=
201701011600 METAR MRLM 011600Z 23005KT 9999 -DZ SCT015 BKN100 25/23 A2994=
201701011700 METAR MRLM 011700Z 23006KT 9999 SCT020 BKN100 27/23 A2992=
201701011800 METAR MRLM 011800Z 21004KT 9999 SCT020 BKN110 27/24 A2990=
201701011900 METAR MRLM 011900Z 20005KT 9999 4000SE -DZ SCT020 BKN110 26/23 A2988=
201701012000 METAR MRLM 012000Z 21003KT 9999 SCT020 BKN110 26/24 A2986=
201701012100 METAR MRLM 012100Z 24004KT 9999 -DZ SCT020 BKN100 26/24 A2984=
201701012200 METAR MRLM 012200Z 00000KT 9999 SCT015 BKN100 26/24 A2985=
201701012300 METAR MRLM 012300Z 17003KT 9999 SCT015 SCT100 25/24 A2987=
201701020000 METAR MRLM 020000Z 00000KT 9999 SCT010 SCT090 24/23 A2987=
201701020100 METAR MRLM NIL=
201701020200 METAR MRLM NIL=
201701020300 METAR MRLM NIL=
201701020400 METAR MRLM NIL=
201701020500 METAR MRLM NIL=
201701020600 METAR MRLM NIL=
201701020700 METAR MRLM NIL=
201701020800 METAR MRLM NIL=
201701020900 METAR MRLM NIL=
201701021000 METAR MRLM NIL=
201701021100 METAR MRLM NIL=
201701021200 METAR MRLM 021200Z 27003KT 9999 VCSH SCT010 SCT100 23/23 A2990=
201701021300 METAR MRLM 021300Z 30003KT 9999 SCT020 SCT110 24/23 A2992=
201701021400 METAR MRLM 021400Z 24003KT 9999 SCT015 SCT110 25/24 A2994=
201701021500 METAR MRLM 021500Z 00000KT 6000 DZ BKN015 26/24 A2996=
201701021600 METAR MRLM 021600Z 10005KT 6000 +DZ BKN015 24/23 A2996=
201701021700 METAR MRLM 021700Z 23007KT 9999 BKN010 24/22 A2993 REDZ=
201701021800 METAR MRLM 021800Z 24006KT 9999 SCT015 SCT120 25/23 A299=
201701021900 METAR MRLM 021900Z 24005KT 9999 FEW020 SCT120 26/24 A2989=
201701022000 METAR MRLM 022000Z 00000KT 9999 FEW025 29/24 A2986=
201701022100 METAR MRLM 022100Z 12002KT 9999 FEW020 28/24 A2984=
201701022200 METAR MRLM 022200Z 12004KT 9999 FEW020 28/24 A2984=
201701022300 METAR MRLM 022300Z 13003KT 9999 FEW020 SCT130 27/24 A2985=
201701030000 METAR MRLM 030000Z 00000KT 9999 FEW015 BKN120 25/23 A2986=
201701030100 METAR MRLM NIL=
201701030200 METAR MRLM NIL=
201701030300 METAR MRLM NIL=
201701030400 METAR MRLM NIL=
201701030500 METAR MRLM NIL=
201701030600 METAR MRLM NIL=
201701030700 METAR MRLM NIL=
201701030800 METAR MRLM NIL=
201701030900 METAR MRLM NIL=
201701031000 METAR MRLM NIL=
201701031100 METAR MRLM NIL=
201701031200 METAR MRLM 031200Z 26005KT 9999 VCSH SCT010 SCT090 21/21 A2985=
201701031300 METAR MRLM 031300Z 21002KT 9999 SCT015 BKN100 22/21 A2988=
201701031400 METAR MRLM 031400Z 25003KT 9999 FEW020 BKN100 23/22 A2990=
201701031500 METAR MRLM 031500Z 26004KT CAVOK 25/23 A2991=
201701031600 METAR MRLM 031600Z 25004KT CAVOK 27/23 A2991=
201701031700 METAR MRLM 031700Z 25004KT 9999 FEW030 BKN130 29/23 A2989=
201701031800 METAR MRLM 031800Z 07003KT 9999 FEW030 BKN130 29/23 A2986=
201701031900 METAR MRLM 031900Z 04006KT 9999 FEW030 SCT130 29/23 A2984=
201701032000 METAR MRLM 032000Z 04007KT CAVOK 29/22 A2981=
201701032100 METAR MRLM 032100Z 04005KT CAVOK 29/23 A2978=
201701032200 METAR MRLM 032200Z 05003KT CAVOK 28/23 A2977=
201701032300 METAR MRLM 032300Z 03005KT CAVOK 28/23 A2979=
201701040000 METAR MRLM 040000Z 00000KT CAVOK 27/23 A2980=
201701040100 METAR MRLM NIL=
201701040200 METAR MRLM NIL=
201701040300 METAR MRLM NIL=
201701040400 METAR MRLM NIL=
201701040500 METAR MRLM NIL=
201701040600 METAR MRLM NIL=
201701040700 METAR MRLM NIL=
201701040800 METAR MRLM NIL=
201701040900 METAR MRLM NIL=
201701041000 METAR MRLM NIL=
201701041100 METAR MRLM NIL=
201701041200 METAR MRLM 041200Z 26004KT CAVOK 20/20 A2984=
201701041300 METAR MRLM 041300Z 00000KT CAVOK 22/20 A2985=
201701041400 METAR MRLM 041400Z 28002KT CAVOK 25/21 A2988=
201701041500 METAR MRLM 041500Z 11002KT CAVOK 27/21 A2988=
201701041600 METAR MRLM 041600Z 12004KT CAVOK 28/20 A2987=
201701041700 METAR MRLM 041700Z 07005KT CAVOK 28/22 A2985=
201701041800 METAR MRLM 041800Z 05008KT CAVOK 29/23 A2982=
201701041900 METAR MRLM 041900Z 06007KT CAVOK 29/23 A2980=
201701042000 METAR MRLM 042000Z 06009KT CAVOK 29/23 A2979=
201701042100 METAR MRLM 042100Z 07007KT 9999 FEW030 29/24 A2978=
201701042200 METAR MRLM 042200Z 09004KT 9999 FEW030 29/23 A2979=
201701042300 METAR MRLM 042300Z 10003KT 9999 FEW025 28/23 A2980=
201701050000 METAR MRLM 050000Z 21002KT 9999 FEW020 25/23 A2981=
201701050100 METAR MRLM NIL=
201701050200 METAR MRLM NIL=
201701050300 METAR MRLM NIL=
201701050400 METAR MRLM NIL=
201701050500 METAR MRLM NIL=
201701050600 METAR MRLM NIL=
201701050700 METAR MRLM NIL=
201701050800 METAR MRLM NIL=
201701050900 METAR MRLM NIL=
201701051000 METAR MRLM NIL=
201701051100 METAR MRLM NIL=
201701051200 METAR MRLM 051200Z 00000KT 9999 BKN010 22/21 A2985=
201701051300 METAR MRLM 051300Z 23004KT CAVOK 23/22 A2988=
201701051400 METAR MRLM 051400Z 23005KT CAVOK 25/23 A2990=
201701051500 METAR MRLM 051500Z 18005KT 9999 FEW030 29/24 A2991=
201701051600 METAR MRLM 051600Z 12008KT 9999 FEW035 29/23 A2990=
201701051700 METAR MRLM 051700Z 12008KT 9999 FEW035 30/24 A2988=
201701051800 METAR MRLM 051800Z 11007KT CAVOK 30/23 A2986=
201701051900 METAR MRLM 051900Z 09008KT 9999 FEW035 SCT140 30/24 A2983=
201701052000 METAR MRLM 052000Z 06012KT 9999 FEW030 SCT140 28/24 A2980=
201701052100 METAR MRLM 052100Z 07011KT CAVOK 27/24 A2979=
201701052200 METAR MRLM 052200Z 07008KT 9999 FEW025 SCT120 28/24 A2980=
201701052300 METAR MRLM 052300Z 06008KT 9999 SCT020 SCT120 27/24 A2981=
201701060000 METAR MRLM 060000Z 09006KT 9999 FEW020 SCT120 27/23 A2982=
201701060100 METAR MRLM NIL=
201701060200 METAR MRLM NIL=
201701060300 METAR MRLM NIL=
201701060400 METAR MRLM NIL=
201701060500 METAR MRLM NIL=
201701060600 METAR MRLM NIL=
201701060700 METAR MRLM NIL=
201701060800 METAR MRLM NIL=
201701060900 METAR MRLM NIL=
201701061000 METAR MRLM NIL=
201701061100 METAR MRLM NIL=
201701061200 METAR MRLM 061200Z 24004KT 9999 FEW010 SCT130 21/20 A2985=
201701061300 METAR MRLM 061300Z 25004KT CAVOK 22/21 A2987=
201701061400 METAR MRLM 061400Z 24003KT CAVOK 25/22 A2990=
201701061500 METAR MRLM 061500Z 07003KT CAVOK 27/23 A2991=
201701061600 METAR MRLM 061600Z 09004KT 9999 FEW030 SCT140 28/22 A2990=
201701061700 METAR MRLM 061700Z 07005KT 9999 FEW030 BKN250 28/22 A2989=
201701061800 METAR MRLM 061800Z 06004KT CAVOK 28/23 A2988=
201701061900 METAR MRLM 061900Z 06003KT 9999 FEW030 BKN240 28/24 A2986=
201701062000 METAR MRLM 062000Z 11003KT 9999 FEW020 BKN220 28/23 A2984=
201701062100 METAR MRLM 062100Z 08004KT 9999 FEW020 BKN220 28/24 A2982=
201701062200 METAR MRLM 062200Z 10005KT 9999 FEW020 BKN200 28/23 A2983=
201701062300 METAR MRLM 062300Z 14004KT 9999 FEW015 BKN200 27/23 A2983=
201701070000 METAR MRLM 070000Z 00000KT 9999 FEW015 BKN200 26/24 A2985=
201701070100 METAR MRLM NIL=
201701070200 METAR MRLM NIL=
201701070300 METAR MRLM NIL=
201701070400 METAR MRLM NIL=
201701070500 METAR MRLM NIL=
201701070600 METAR MRLM NIL=
201701070700 METAR MRLM NIL=
201701070800 METAR MRLM NIL=
201701070900 METAR MRLM NIL=
201701071000 METAR MRLM NIL=
201701071100 METAR MRLM NIL=
201701071200 METAR MRLM 071200Z 26006KT CAVOK 21/20 A2990=
201701071300 METAR MRLM 071300Z 24004KT CAVOK 23/21 A2993=
201701071400 METAR MRLM 071400Z 24004KT CAVOK 25/22 A2996=
201701071500 METAR MRLM 071500Z 00000KT CAVOK 29/23 A2997=
201701071600 METAR MRLM 071600Z 04007KT 9999 FEW030 BKN240 29/23 A2996=
201701071700 METAR MRLM 071700Z 35006KT 9999 FEW030 BKN130 29/22 A2995=
201701071800 METAR MRLM 071800Z 04007KT CAVOK 30/22 A2992=
201701071900 METAR MRLM 071900Z 34006KT CAVOK 30/23 A2989=
201701072000 METAR MRLM 072000Z 36007KT CAVOK 30/22 A2986=
201701072100 METAR MRLM 072100Z 01008KT CAVOK 29/24 A2985=
201701072200 METAR MRLM 072200Z 01012KT 9999 FEW030 BKN130 29/22 A2987=
201701072300 METAR MRLM 072300Z 03012KT 9999 SCT015 BKN120 27/25 A2989=
201701080000 METAR MRLM 080000Z 01012KT 9999 FEW010 BKN110 26/23 A2991=
201701080100 METAR MRLM NIL=
201701080200 METAR MRLM NIL=
201701080300 METAR MRLM NIL=
201701080400 METAR MRLM NIL=
201701080500 METAR MRLM NIL=
201701080600 METAR MRLM NIL=
201701080700 METAR MRLM NIL=
201701080800 METAR MRLM NIL=
201701080900 METAR MRLM NIL=
201701081000 METAR MRLM NIL=
201701081100 METAR MRLM NIL=
201701081200 METAR MRLM 081200Z 28003KT 9999 BKN010 23/21 A2995=
201701081300 METAR MRLM 081300Z 32004KT 9999 FEW010 BKN090 24/22 A2999=
201701081400 METAR MRLM 081400Z 33004KT 4000 RA OVC010 24/22 A3003=
201701081500 METAR MRLM 081500Z 29003KT 4000 RA OVC010 23/22 A3003=
201701081600 METAR MRLM 081600Z 25004KT 8000 -DZ SCT010 BKN100 24/23 A3003=
201701081700 METAR MRLM 081700Z 29002KT 8000 -DZ SCT010 BKN100 25/23 A3002=
201701081800 METAR MRLM 081800Z 26005KT 8000 -DZ SCT010 BKN100 25/24 A2999=
201701081900 METAR MRLM 081900Z 24005KT 6000 -DZ SCT010 BKN100 25/24 A2996=
201701082000 METAR MRLM 082000Z 31004KT 7000 -DZ SCT010 BKN100 25/24 A2993=
201701082100 METAR MRLM 082100Z 03011G21KT 4000 +DZ OVC010 25/24 A2994=
201701082200 METAR MRLM 082200Z 07007KT 6000 DZ SCT010 BKN090 25/23 A2995=
201701082300 METAR MRLM 082300Z 25005KT 6000 SCT010 BKN090 24/23 A2995=
201701090000 METAR MRLM 090000Z 36005KT 5000 +DZ SCT008 BKN080 24/23 A2998=
201701090100 METAR MRLM NIL=
201701090200 METAR MRLM NIL=
201701090300 METAR MRLM NIL=
201701090400 METAR MRLM NIL=
201701090500 METAR MRLM NIL=
201701090600 METAR MRLM NIL=
201701090700 METAR MRLM NIL=
201701090800 METAR MRLM NIL=
201701090900 METAR MRLM NIL=
201701091000 METAR MRLM NIL=
201701091100 METAR MRLM NIL=
201701091200 METAR MRLM 091200Z 23005KT 7000 BKN008 23/22 A3001=
201701091300 METAR MRLM 091300Z 23005KT 7000 FEW008 BKN080 23/22 A3003=
201701091400 METAR MRLM 091400Z 35010KT 6000 -DZ SCT010 BKN080 24/22 A3006=
201701091500 METAR MRLM 091500Z 16002KT 8000 FEW020 SCT100 28/24 A3005=
201701091600 METAR MRLM 091600Z 13002KT 9999 SCT025 29/24 A3005=
201701091700 METAR MRLM 091700Z 12003KT 9999 SCT025 28/24 A3003=
201701091800 METAR MRLM 091800Z 34002KT 9999 SCT030 28/23 A3000=
201701091900 METAR MRLM 091900Z 11002KT 9999 BKN030 29/24 A2998=
201701092000 METAR MRLM 092000Z 11007KT 9999 SCT030 29/24 A2994=
201701092100 METAR MRLM 092100Z 16008KT 9999 DZ VCSH BKN030 28/23 A2993=
201701092200 METAR MRLM 092200Z 20005KT 9999 4000SE +DZ BKN020 25/23 A2994=
201701092300 METAR MRLM 092300Z 26005KT 9999 BKN015 24/22 A2995 REDZ=
201701100000 METAR MRLM 100000Z 28004KT 8000 BKN010 23/22 A2997=
201701100100 METAR MRLM NIL=
201701100200 METAR MRLM NIL=
201701100300 METAR MRLM NIL=
201701100400 METAR MRLM NIL=
201701100500 METAR MRLM NIL=
201701100600 METAR MRLM NIL=
201701100700 METAR MRLM NIL=
201701100800 METAR MRLM NIL=
201701100900 METAR MRLM NIL=
201701101000 METAR MRLM NIL=
201701101100 METAR MRLM NIL=
201701101200 METAR MRLM 101200Z 24004KT 8000 3000N RA BKN010 22/22 A2994=
201701101300 METAR MRLM 101300Z 24005KT 9999 DZ SCT015 BKN100 22/22 A2996 RERA=
201701101400 METAR MRLM 101400Z 25004KT 9999 FEW015 BKN110 24/22 A2998 REDZ=
201701101500 METAR MRLM 101500Z 27004KT 9999 FEW020 BKN120 27/23 A2999=
201701101600 METAR MRLM 101600Z 00000KT 7000 RA BKN015 27/23 A2998=
201701101700 METAR MRLM 101700Z 34002KT 7000 DZ BKN010 24/22 A2998 RERA=
201701101800 METAR MRLM 101800Z 30002KT 5000 DZ BKN015 SCT090 24/23 A2998=
201701101900 METAR MRLM 101900Z 23004KT 9999 SCT020 BKN110 24/23 A2992 REDZ=
201701102000 METAR MRLM 102000Z 21003KT 9999 FEW020 BKN130 27/23 A2988=
201701102100 METAR MRLM 102100Z 34003KT 3000 RA BKN015 26/23 A2988=
201701102200 METAR MRLM 102200Z 28003KT 9999 SCT015 BKN110 24/23 A2987 RERA=
201701102300 METAR MRLM 102300Z 00000KT 8000 3000SE DZ BKN015 SCT100 25/23 A2988=
201701110000 METAR MRLM 110000Z 29003KT 8000 DZ BKN010 24/23 A2990=
201701110100 METAR MRLM NIL=
201701110200 METAR MRLM NIL=
201701110300 METAR MRLM NIL=
201701110400 METAR MRLM NIL=
201701110500 METAR MRLM NIL=
201701110600 METAR MRLM NIL=
201701110700 METAR MRLM NIL=
201701110800 METAR MRLM NIL=
201701110900 METAR MRLM NIL=
201701111000 METAR MRLM NIL=
201701111100 METAR MRLM NIL=
201701111200 METAR MRLM 111200Z 21003KT 9999 -DZ BKN010 22/22 A2991=
201701111300 METAR MRLM 111300Z 21002KT 9999 FEW020 BKN120 23/22 A2992=
201701111400 METAR MRLM 111400Z 25003KT 9999 FEW020 BKN110 23/22 A2994=
201701111500 METAR MRLM 111500Z 33003KT 9999 DZ SCT020 BKN110 24/23 A2995=
201701111600 METAR MRLM 111600Z 00000KT CAVOK 26/23 A2995=
201701111700 METAR MRLM 111700Z 09004KT CAVOK 27/24 A2993=
201701111800 METAR MRLM 111800Z 09005KT 9999 FEW030 BKN130 27/23 A2992=
201701111900 METAR MRLM 111900Z 10007KT CAVOK 28/24 A2989=
201701112000 METAR MRLM 112000Z 09008KT CAVOK 29/24 A2986=
201701112100 METAR MRLM 112100Z 09011KT CAVOK 29/23 A2984=
201701112200 METAR MRLM 112200Z 11011KT CAVOK 29/24 A2984=
201701112300 METAR MRLM 112300Z 12010KT CAVOK 28/23 A2983=
201701120000 METAR MRLM 120000Z 11008KT CAVOK 27/23 A2985=
201701120100 METAR MRLM NIL=
201701120200 METAR MRLM NIL=
201701120300 METAR MRLM NIL=
201701120400 METAR MRLM NIL=
201701120500 METAR MRLM NIL=
201701120600 METAR MRLM NIL=
201701120700 METAR MRLM NIL=
201701120800 METAR MRLM NIL=
201701120900 METAR MRLM NIL=
201701121000 METAR MRLM NIL=
201701121100 METAR MRLM NIL=
201701121200 METAR MRLM 121200Z 26002KT CAVOK 22/22 A2991=
201701121300 METAR MRLM 121300Z 24004KT CAVOK 23/22 A2993=
201701121400 METAR MRLM 121400Z 23003KT CAVOK 24/22 A2995=
201701121500 METAR MRLM 121500Z 00000KT CAVOK 27/22 A2996=
201701121600 METAR MRLM 121600Z 06003KT CAVOK 27/22 A2996=
201701121700 METAR MRLM 121700Z 08006KT CAVOK 28/23 A2995=
201701121800 METAR MRLM 121800Z 10005KT CAVOK 28/23 A2992=
201701121900 METAR MRLM 121900Z 08009KT CAVOK 29/24 A2990=
201701122000 METAR MRLM 122000Z 08010KT CAVOK 29/23 A2988=
201701122100 METAR MRLM 122100Z 08012KT CAVOK 29/23 A2988=
201701122200 METAR MRLM 122200Z 07018KT CAVOK 26/23 A2988=
201701122300 METAR MRLM 122300Z 03005KT CAVOK 27/23 A2990=
201701130000 METAR MRLM 130000Z 19003KT CAVOK 26/22 A2991=
201701130100 METAR MRLM NIL=
201701130200 METAR MRLM NIL=
201701130300 METAR MRLM NIL=
201701130400 METAR MRLM NIL=
201701130500 METAR MRLM NIL=
201701130600 METAR MRLM NIL=
201701130700 METAR MRLM NIL=
201701130800 METAR MRLM NIL=
201701130900 METAR MRLM NIL=
201701131000 METAR MRLM NIL=
201701131100 METAR MRLM NIL=
201701131200 METAR MRLM 131200Z 19003KT 8000 -DZ BKN010 22/21 A2994=
201701131300 METAR MRLM 131300Z 24005KT 8000 4000SE BKN010 22/21 A2995=
201701131400 METAR MRLM 131400Z 31003KT 7000 -DZ BKN010 23/22 A2998=
201701131500 METAR MRLM 131500Z 25006KT 9999 FEW015 SCT100 25/22 A2999=
201701131600 METAR MRLM 131600Z 23003KT 6000 DZ SCT015 BKN100 27/22 A2999=
201701131700 METAR MRLM 131700Z 00000KT 8000 FEW015 BKN100 25/23 A2997=
201701131800 METAR MRLM 131800Z 27002KT 6000 -DZ SCT015 BKN100 25/23 A2995=
201701131900 METAR MRLM 131900Z 05006KT 5000 DZ SCT015 BKN100 24/23 A2993=
201701132000 METAR MRLM 132000Z 10007KT 6000 -DZ SCT010 BKN090 24/23 A2992=
201701132100 METAR MRLM 132100Z 19004KT 6000 4000N RA SCT010 BKN090 24/23 A2992=
201701132200 METAR MRLM 132200Z 26006KT 7000 SCT010 BKN080 22/21 A2992 RERA=
201701132300 METAR MRLM 132300Z 28002KT 6000 3000N OVC010 22/21 A2994=
201701140000 METAR MRLM 140000Z 31002KT 6000 DZ SCT008 BKN080 22/21 A2995=
201701140100 METAR MRLM NIL=
201701140200 METAR MRLM NIL=
201701140300 METAR MRLM NIL=
201701140400 METAR MRLM NIL=
201701140500 METAR MRLM NIL=
201701140600 METAR MRLM NIL=
201701140700 METAR MRLM NIL=
201701140800 METAR MRLM NIL=
201701140900 METAR MRLM NIL=
201701141000 METAR MRLM NIL=
201701141100 METAR MRLM NIL=
201701141200 METAR MRLM 141200Z 29008KT 9999 SCT015 BKN090 21/20 A2996=
201701141300 METAR MRLM 141300Z 26006KT CAVOK 21/20 A2998=
201701141400 METAR MRLM 141400Z 26004KT CAVOK 23/21 A2999=
201701141500 METAR MRLM 141500Z 28003KT 9999 FEW015 BKN110 25/22 A3000=
201701141600 METAR MRLM 141600Z 35008KT 9999 -DZ SCT015 SCT100 25/21 A3002=
201701141700 METAR MRLM 141700Z 35008KT 9999 DZ SCT020 OVC100 24/22 A3000=
201701141800 METAR MRLM 141800Z 22004KT 9999 -DZ SCT020 OVC100 24/22 A2999=
201701141900 METAR MRLM 141900Z 24008KT 9999 FEW020 OVC110 24/21 A2996=
201701142000 METAR MRLM 142000Z 24007KT 9999 FEW020 BKN120 25/21 A2992=
201701142100 METAR MRLM 142100Z 24007KT 9999 FEW020 BKN130 26/22 A2991=
201701142200 METAR MRLM 142200Z 23003KT CAVOK 26/22 A2990=
201701142300 METAR MRLM 142300Z 23003KT CAVOK 25/23 A2991=
201701150000 METAR MRLM 150000Z 25003KT CAVOK 24/22 A2992=
201701150100 METAR MRLM NIL=
201701150200 METAR MRLM NIL=
201701150300 METAR MRLM NIL=
201701150400 METAR MRLM NIL=
201701150500 METAR MRLM NIL=
201701150600 METAR MRLM NIL=
201701150700 METAR MRLM NIL=
201701150800 METAR MRLM NIL=
201701150900 METAR MRLM NIL=
201701151000 METAR MRLM NIL=
201701151100 METAR MRLM NIL=
201701151200 METAR MRLM 151200Z 34002KT 9999 FEW010 BKN080 21/20 A2995=
201701151300 METAR MRLM 151300Z 26004KT CAVOK 22/20 A2996=
201701151400 METAR MRLM 151400Z 25003KT CAVOK 25/21 A2997=
201701151500 METAR MRLM 151500Z 00000KT CAVOK 27/21 A2997=
201701151600 METAR MRLM 151600Z 05005KT CAVOK 27/22 A2996=
201701151700 METAR MRLM 151700Z 04008KT CAVOK 27/22 A2995=
201701151800 METAR MRLM 151800Z 04006KT CAVOK 27/22 A2991=
201701151900 METAR MRLM 151900Z 05006KT CAVOK 28/23 A2988=
201701152000 METAR MRLM 152000Z 09006KT CAVOK 28/22 A2986=
201701152100 METAR MRLM 152100Z 10007KT CAVOK 28/22 A2985=
201701152200 METAR MRLM 152200Z 09005KT CAVOK 28/22 A2984=
201701152300 METAR MRLM 152300Z 09009KT CAVOK 27/22 A2985=
201701160000 METAR MRLM NIL=
201701160100 METAR MRLM NIL=
201701160200 METAR MRLM NIL=
201701160300 METAR MRLM NIL=
201701160400 METAR MRLM NIL=
201701160500 METAR MRLM NIL=
201701160600 METAR MRLM NIL=
201701160700 METAR MRLM NIL=
201701160800 METAR MRLM NIL=
201701160900 METAR MRLM NIL=
201701161000 METAR MRLM NIL=
201701161100 METAR MRLM NIL=
201701161200 METAR MRLM 161200Z 23005KT 9999 FEW010 BKN080 20/19 A2990=
201701161300 METAR MRLM 161300Z 00000KT CAVOK 23/20 A2992=
201701161400 METAR MRLM 161400Z 24002KT CAVOK 24/20 A2994=
201701161500 METAR MRLM 161500Z 13004KT CAVOK 26/22 A2995=
201701161600 METAR MRLM 161600Z 12007KT CAVOK 29/22 A2995=
201701161700 METAR MRLM 161700Z 13008KT CAVOK 29/21 A2993=
201701161800 METAR MRLM 161800Z 11008KT CAVOK 28/22 A2990=
201701161900 METAR MRLM 161900Z 10009KT CAVOK 28/22 A2987=
201701162000 METAR MRLM 162000Z 10008KT CAVOK 28/22 A2984=
201701162100 METAR MRLM 162100Z 10007KT CAVOK 29/23 A2983=
201701162200 METAR MRLM 162200Z 09006KT CAVOK 28/23 A2984=
201701162300 METAR MRLM 162300Z 09006KT CAVOK 28/23 A2985=
201701170000 METAR MRLM 170000Z 10007KT 9999 FEW020 BKN100 27/23 A2987=
201701170100 METAR MRLM NIL=
201701170200 METAR MRLM NIL=
201701170300 METAR MRLM NIL=
201701170400 METAR MRLM NIL=
201701170500 METAR MRLM NIL=
201701170600 METAR MRLM NIL=
201701170700 METAR MRLM NIL=
201701170800 METAR MRLM NIL=
201701170900 METAR MRLM NIL=
201701171000 METAR MRLM NIL=
201701171100 METAR MRLM NIL=
201701171200 METAR MRLM 171200Z 23005KT 9999 SCT010 21/19 A2989=
201701171300 METAR MRLM 171300Z 23004KT 9999 FEW010 SCT080 22/20 A2992=
201701171400 METAR MRLM 171400Z 16003KT 9999 FEW015 SCT090 24/21 A2996=
201701171500 METAR MRLM 171500Z 19003KT CAVOK 26/22 A2997=
201701171600 METAR MRLM 171600Z 13006KT CAVOK 28/22 A2996=
201701171700 METAR MRLM 171700Z 13007KT 9999 FEW030 29/23 A2995=
201701171800 METAR MRLM 171800Z 12008KT 9999 FEW030 SCT130 29/23 A2993=
201701171900 METAR MRLM 171900Z 11007KT 9999 FEW030 BKN130 28/22 A2991=
201701172000 METAR MRLM 172000Z 08006KT CAVOK 28/24 A2988=
201701172100 METAR MRLM 172100Z 10007KT CAVOK 28/23 A2988=
201701172200 METAR MRLM 172200Z 12006KT 9999 FEW025 BKN120 28/24 A2989=
201701172300 METAR MRLM 172300Z 08008KT 9999 FEW025 SCT110 27/22 A2990=
201701180000 METAR MRLM 180000Z 11003KT 9999 FEW020 SCT100 27/23 A2992=
201701180100 METAR MRLM NIL=
201701180200 METAR MRLM NIL=
201701180300 METAR MRLM NIL=
201701180400 METAR MRLM NIL=
201701180500 METAR MRLM NIL=
201701180600 METAR MRLM NIL=
201701180700 METAR MRLM NIL=
201701180800 METAR MRLM NIL=
201701180900 METAR MRLM NIL=
201701181000 METAR MRLM NIL=
201701181100 METAR MRLM NIL=
201701181200 METAR MRLM 181200Z 25003KT CAVOK 21/20 A2995=
201701181300 METAR MRLM 181300Z 00000KT CAVOK 23/21 A2996=
201701181400 METAR MRLM 181400Z 00000KT CAVOK 26/22 A2998=
201701181500 METAR MRLM 181500Z 10003KT CAVOK 26/23 A2998=
201701181600 METAR MRLM 181600Z 11006KT CAVOK 28/22 A2998=
201701181700 METAR MRLM 181700Z 11007KT CAVOK 29/21 A2997=
201701181800 METAR MRLM 181800Z 10008KT CAVOK 29/22 A2993=
201701181900 METAR MRLM 181900Z 09008KT CAVOK 29/22 A2990=
201701182000 METAR MRLM 182000Z 10010KT CAVOK 28/22 A2988=
201701182100 METAR MRLM 182100Z 09009KT CAVOK 28/22 A2986=
201701182200 METAR MRLM 182200Z 10006KT 9999 FEW030 BKN250 28/23 A2987=
201701182300 METAR MRLM 182300Z 10004KT 9999 FEW030 BKN250 27/22 A2988=
201701190000 METAR MRLM 190000Z 00000KT CAVOK 26/22 A2991=
201701190100 METAR MRLM NIL=
201701190200 METAR MRLM NIL=
201701190300 METAR MRLM NIL=
201701190400 METAR MRLM NIL=
201701190500 METAR MRLM NIL=
201701190600 METAR MRLM NIL=
201701190700 METAR MRLM NIL=
201701190800 METAR MRLM NIL=
201701190900 METAR MRLM NIL=
201701191000 METAR MRLM NIL=
201701191100 METAR MRLM NIL=
201701191200 METAR MRLM 191200Z 00000KT CAVOK 19/18 A2989=
201701191300 METAR MRLM 191300Z 25003KT CAVOK 20/19 A2992=
201701191400 METAR MRLM 191400Z 24004KT CAVOK 24/20 A2994=
201701191500 METAR MRLM 191500Z 00000KT CAVOK 27/20 A2995=
201701191600 METAR MRLM 191600Z 09004KT CAVOK 27/20 A2995=
201701191700 METAR MRLM 191700Z 10005KT CAVOK 28/19 A2994=
201701191800 METAR MRLM 191800Z 09005KT CAVOK 28/20 A2991=
201701191900 METAR MRLM 191900Z 09004KT CAVOK 28/20 A2987=
201701192000 METAR MRLM 192000Z 09005KT CAVOK 28/21 A2985=
201701192100 METAR MRLM 192100Z 10005KT CAVOK 28/22 A2983=
201701192200 METAR MRLM 192200Z 09005KT CAVOK 28/22 A2984=
201701192300 METAR MRLM 192300Z 09005KT 9999 FEW025 28/23 A2986=
201701200000 METAR MRLM 200000Z 08003KT 9999 BKN020 27/23 A2987=
201701200100 METAR MRLM NIL=
201701200200 METAR MRLM NIL=
201701200300 METAR MRLM NIL=
201701200400 METAR MRLM NIL=
201701200500 METAR MRLM NIL=
201701200600 METAR MRLM NIL=
201701200700 METAR MRLM NIL=
201701200800 METAR MRLM NIL=
201701200900 METAR MRLM NIL=
201701201000 METAR MRLM NIL=
201701201100 METAR MRLM NIL=
201701201200 METAR MRLM 201200Z 24002KT 9999 SCT010 22/21 A2990=
201701201300 METAR MRLM 201300Z 25003KT 9999 FEW010 SCT080 22/21 A2991=
201701201400 METAR MRLM 201400Z 00000KT 9999 FEW015 SCT090 25/22 A2994=
201701201500 METAR MRLM 201500Z 24002KT CAVOK 26/23 A2995=
201701201600 METAR MRLM 201600Z 09003KT 9999 FEW030 SCT120 28/22 A2995=
201701201700 METAR MRLM 201700Z 09004KT 9999 FEW030 28/23 A2993=
201701201800 METAR MRLM 201800Z 08005KT 9999 FEW030 28/22 A2992=
201701201900 METAR MRLM 201900Z 09006KT 9999 FEW030 28/23 A2989=
201701202000 METAR MRLM 202000Z 09006KT 9999 FEW030 28/23 A2987=
201701202100 METAR MRLM 202100Z 10005KT 9999 FEW030 SCT120 28/23 A2986=
201701202200 METAR MRLM 202200Z 12005KT 9999 FEW030 28/22 A2987=
201701202300 METAR MRLM 202300Z 13004KT 9999 SCT025 27/23 A2988=
201701210000 METAR MRLM 210000Z 12005KT 9999 SCT020 27/23 A2989=
201701210100 METAR MRLM NIL=
201701210200 METAR MRLM NIL=
201701210300 METAR MRLM NIL=
201701210400 METAR MRLM NIL=
201701210500 METAR MRLM NIL=
201701210600 METAR MRLM NIL=
201701210700 METAR MRLM NIL=
201701210800 METAR MRLM NIL=
201701210900 METAR MRLM NIL=
201701211000 METAR MRLM NIL=
201701211100 METAR MRLM NIL=
201701211200 METAR MRLM 211200Z 26002KT 9999 SCT010 BKN080 23/22 A2995=
201701211300 METAR MRLM 211300Z 25003KT 9999 FEW010 BKN080 23/22 A2997=
201701211400 METAR MRLM 211400Z 23003KT CAVOK 25/23 A2999=
201701211500 METAR MRLM 211500Z 13005KT 9999 FEW025 SCT120 27/23 A3000=
201701211600 METAR MRLM 211600Z 11006KT 9999 FEW025 27/24 A3000=
201701211700 METAR MRLM 211700Z 12009KT 9999 FEW025 28/24 A2998=
201701211800 METAR MRLM 211800Z 12009KT 9999 FEW025 28/23 A2995=
201701211900 METAR MRLM 211900Z 12010KT 9999 FEW025 28/23 A2991=
201701212000 METAR MRLM 212000Z 13011KT 9999 FEW025 29/24 A2988=
201701212100 METAR MRLM 212100Z 12010KT 9999 FEW025 28/23 A2987=
201701212200 METAR MRLM 212200Z 12009KT 9999 SCT020 28/24 A2987=
201701212300 METAR MRLM 212300Z 12008KT 9999 BKN020 27/24 A2988=
201701220000 METAR MRLM 220000Z 12008KT 9999 BKN015 27/23 A2988=
201701220100 METAR MRLM NIL=
201701220200 METAR MRLM NIL=
201701220300 METAR MRLM NIL=
201701220400 METAR MRLM NIL=
201701220500 METAR MRLM NIL=
201701220600 METAR MRLM NIL=
201701220700 METAR MRLM NIL=
201701220800 METAR MRLM NIL=
201701220900 METAR MRLM NIL=
201701221000 METAR MRLM NIL=
201701221100 METAR MRLM NIL=
201701221200 METAR MRLM 221200Z 25004KT CAVOK 21/20 A2989=
201701221300 METAR MRLM 221300Z 26004KT CAVOK 22/21 A2991=
201701221400 METAR MRLM 221400Z 27003KT CAVOK 24/22 A2994=
201701221500 METAR MRLM 221500Z 11003KT CAVOK 28/22 A2994=
201701221600 METAR MRLM 221600Z 10005KT CAVOK 28/22 A2994=
201701221700 METAR MRLM 221700Z 11006KT CAVOK 28/22 A2991=
201701221800 METAR MRLM 221800Z 10007KT 9999 FEW030 29/22 A2989=
201701221900 METAR MRLM 221900Z 08007KT 9999 FEW030 28/23 A2987=
201701222000 METAR MRLM 222000Z 09005KT 9999 FEW030 28/23 A2983=
201701222100 METAR MRLM 222100Z 10006KT 9999 FEW030 28/24 A2982=
201701222200 METAR MRLM 222200Z 10006KT 9999 FEW025 28/23 A2982=
201701222300 METAR MRLM 222300Z 10007KT 9999 SCT020 27/23 A2984=
201701230000 METAR MRLM NIL=
201701230100 METAR MRLM NIL=
201701230200 METAR MRLM NIL=
201701230300 METAR MRLM NIL=
201701230400 METAR MRLM NIL=
201701230500 METAR MRLM NIL=
201701230600 METAR MRLM NIL=
201701230700 METAR MRLM NIL=
201701230800 METAR MRLM NIL=
201701230900 METAR MRLM NIL=
201701231000 METAR MRLM NIL=
201701231100 METAR MRLM NIL=
201701231200 METAR MRLM 231200Z 26003KT CAVOK 21/20 A2987=
201701231300 METAR MRLM 231300Z 27003KT CAVOK 22/21 A2989=
201701231400 METAR MRLM 231400Z 29003KT CAVOK 26/23 A2992=
201701231500 METAR MRLM 231500Z 06002KT 9999 FEW030 28/22 A2994=
201701231600 METAR MRLM 231600Z 11005KT 9999 FEW030 28/22 A2993=
201701231700 METAR MRLM 231700Z 11007KT 9999 FEW030 29/23 A2991=
201701231800 METAR MRLM 231800Z 09007KT 9999 FEW030 29/23 A2989=
201701231900 METAR MRLM 231900Z 09007KT 9999 CAVOK 29/23 A2985=
201701232000 METAR MRLM 232000Z 08007KT CAVOK 29/24 A2983=
201701232100 METAR MRLM 232100Z 09005KT CAVOK 29/23 A2981=
201701232200 METAR MRLM 232200Z 04007KT CAVOK 29/24 A2982=
201701232300 METAR MRLM 232300Z 03006KT CAVOK 28/24 A2984=
201701240000 METAR MRLM NIL=
201701240100 METAR MRLM NIL=
201701240200 METAR MRLM NIL=
201701240300 METAR MRLM NIL=
201701240400 METAR MRLM NIL=
201701240500 METAR MRLM NIL=
201701240600 METAR MRLM NIL=
201701240700 METAR MRLM NIL=
201701240800 METAR MRLM NIL=
201701240900 METAR MRLM NIL=
201701241000 METAR MRLM NIL=
201701241100 METAR MRLM NIL=
201701241200 METAR MRLM 241200Z 25005KT CAVOK 19/19 A2991=
201701241300 METAR MRLM 241300Z 27002KT CAVOK 21/20 A2993=
201701241400 METAR MRLM 241400Z 27003KT CAVOK 25/22 A2996=
201701241500 METAR MRLM 241500Z 06002KT 9999 FEW025 27/22 A2998=
201701241600 METAR MRLM 241600Z 05005KT 9999 FEW025 28/23 A2999=
201701241700 METAR MRLM 241700Z 02009KT 9999 FEW030 29/23 A2997=
201701241800 METAR MRLM 241800Z 01013KT 9999 SCT030 29/23 A2996=
201701241900 METAR MRLM 241900Z 01014KT 9999 SCT030 29/22 A2993=
201701242000 METAR MRLM 242000Z 02013KT 9999 BKN030 28/22 A2990=
201701242100 METAR MRLM 242100Z 02012KT 9999 BKN030 28/22 A2989=
201701242200 METAR MRLM 242200Z 03012KT 9999 BKN030 28/22 A2990=
201701242300 METAR MRLM 242300Z 04009KT 9999 BKN025 27/21 A2991=
201701250000 METAR MRLM NIL=
201701250100 METAR MRLM NIL=
201701250200 METAR MRLM NIL=
201701250300 METAR MRLM NIL=
201701250400 METAR MRLM NIL=
201701250500 METAR MRLM NIL=
201701250600 METAR MRLM NIL=
201701250700 METAR MRLM NIL=
201701250800 METAR MRLM NIL=
201701250900 METAR MRLM NIL=
201701251000 METAR MRLM NIL=
201701251100 METAR MRLM NIL=
201701251200 METAR MRLM 251200Z 26004KT 9999 BKN010 22/21 A2994=
201701251300 METAR MRLM 251300Z 25004KT 9999 FEW010 BKN090 23/21 A2996=
201701251400 METAR MRLM 251400Z 24004KT 9999 FEW015 26/22 A2998=
201701251500 METAR MRLM 251500Z 18002KT 9999 SCT020 28/21 A2999=
201701251600 METAR MRLM 251600Z 06003KT 9999 SCT025 28/21 A2999=
201701251700 METAR MRLM 251700Z 03010KT 9999 SCT030 28/21 A2998=
201701251800 METAR MRLM 251800Z 03007KT 9999 FEW030 SCT130 28/22 A2995=
201701251900 METAR MRLM 251900Z 05006KT 9999 FEW030 28/22 A2992=
201701252000 METAR MRLM 252000Z 05007KT 9999 FEW030 28/22 A2990=
201701252100 METAR MRLM 252100Z 06007KT 9999 FEW030 28/22 A2988=
201701252200 METAR MRLM 252200Z 06005KT 9999 FEW030 28/21 A2988=
201701252300 METAR MRLM 252300Z 06004KT 9999 FEW030 27/21 A2988=
201701260000 METAR MRLM NIL=
201701260100 METAR MRLM NIL=
201701260200 METAR MRLM NIL=
201701260300 METAR MRLM NIL=
201701260400 METAR MRLM NIL=
201701260500 METAR MRLM NIL=
201701260600 METAR MRLM NIL=
201701260700 METAR MRLM NIL=
201701260800 METAR MRLM NIL=
201701260900 METAR MRLM NIL=
201701261000 METAR MRLM NIL=
201701261100 METAR MRLM NIL=
201701261200 METAR MRLM 261200Z 26004KT CAVOK 20/19 A2995=
201701261300 METAR MRLM 261300Z 25004KT CAVOK 21/19 A2997=
201701261400 METAR MRLM 261400Z 27002KT CAVOK 24/21 A2999=
201701261500 METAR MRLM 261500Z 00000KT 9999 FEW030 27/21 A3000=
201701261600 METAR MRLM 261600Z 07003KT CAVOK 28/21 A3000=
201701261700 METAR MRLM 261700Z 06005KT CAVOK 28/21 A2998=
201701261800 METAR MRLM 261800Z 07008KT 9999 FEW035 29/22 A2997=
201701261900 METAR MRLM 261900Z 08008KT 9999 FEW035 29/23 A2994=
201701262000 METAR MRLM 262000Z 09008KT 9999 FEW035 29/22 A2992=
201701262100 METAR MRLM 262100Z 08007KT 9999 FEW030 29/22 A2990=
201701262200 METAR MRLM 262200Z 09006KT 9999 FEW030 28/22 A2990=
201701262300 METAR MRLM 262300Z 09005KT 9999 FEW025 27/22 A2991=
201701270000 METAR MRLM NIL=
201701270100 METAR MRLM NIL=
201701270200 METAR MRLM NIL=
201701270300 METAR MRLM NIL=
201701270400 METAR MRLM NIL=
201701270500 METAR MRLM NIL=
201701270600 METAR MRLM 270845ZZ 2706/2806 06006KT 9999 FEW030 TX31/2720Z TN22/2711Z TEMPO 2706/2714 25007KT SCT025=
201701270700 METAR MRLM NIL=
201701270800 METAR MRLM 270845ZZ 2706/2806 06006KT 9999 FEW030 TX31/2720Z TN22/2711Z TEMPO 2706/2714 25007KT SCT025=
201701270900 METAR MRLM NIL=
201701271000 METAR MRLM NIL=
201701271100 METAR MRLM NIL=
201701271200 METAR MRLM 271200Z 25004KT CAVOK 21/20 A2994=
201701271300 METAR MRLM 271300Z 24005KT 9999 FEW010 SCT090 22/21 A2997=
201701271400 METAR MRLM 271400Z 24003KT CAVOK 25/22 A2999=
201701271500 METAR MRLM 271500Z 24003KT 9999 FEW025 SCT120 28/23 A3000=
201701271600 METAR MRLM 271600Z 11003KT 9999 FEW030 29/23 A3000=
201701271700 METAR MRLM 271700Z 11004KT 9999 FEW030 29/23 A2998=
201701271800 METAR MRLM 271800Z 06006KT 9999 FEW030 BKN130 28/23 A2995=
201701271900 METAR MRLM 271900Z 06006KT 9999 FEW030 BKN130 29/24 A2993=
201701272000 METAR MRLM 272000Z 07006KT 9999 FEW030 BKN130 28/23 A2989=
201701272100 METAR MRLM 272100Z 07005KT 9999 FEW025 BKN120 28/24 A2989=
201701272200 METAR MRLM 272200Z 07004KT 9999 FEW025 BKN120 28/24 A2989=
201701272300 METAR MRLM 272300Z 07008KT 9999 SCT020 SCT110 28/24 A2989=
201701280000 METAR MRLM NIL=
201701280100 METAR MRLM NIL=
201701280200 METAR MRLM NIL=
201701280300 METAR MRLM NIL=
201701280400 METAR MRLM NIL=
201701280500 METAR MRLM NIL=
201701280600 METAR MRLM NIL=
201701280700 METAR MRLM NIL=
201701280800 METAR MRLM NIL=
201701280900 METAR MRLM NIL=
201701281000 METAR MRLM NIL=
201701281100 METAR MRLM NIL=
201701281200 METAR MRLM 281200Z 00000KT 9999 FEW010 21/21 A2991=
201701281300 METAR MRLM 281300Z 25003KT 9999 FEW010 22/22 A2992=
201701281400 METAR MRLM 281400Z 25003KT 9999 FEW015 26/23 A2995=
201701281500 METAR MRLM 281500Z 12002KT 9999 SCT020 28/24 A2996=
201701281600 METAR MRLM 281600Z 11004KT 9999 SCT025 29/24 A2996=
201701281700 METAR MRLM 281700Z 10004KT 9999 FEW025 SCT120 29/24 A2995=
201701281800 METAR MRLM 281800Z 09005KT 9999 FEW025 SCT130 29/24 A2993=
201701281900 METAR MRLM 281900Z 09007KT 9999 FEW030 SCT130 29/24 A2990=
201701282000 METAR MRLM 282000Z 08009KT 9999 FEW030 SCT130 29/24 A2987=
201701282100 METAR MRLM 282100Z 08008KT 9999 FEW030 SCT130 29/23 A2987=
201701282200 METAR MRLM 282200Z 07005KT CAVOK 28/23 A2987=
201701282300 METAR MRLM 282300Z 07004KT CAVOK 28/22 A2989=
201701290000 METAR MRLM NIL=
201701290100 METAR MRLM NIL=
201701290200 METAR MRLM NIL=
201701290300 METAR MRLM NIL=
201701290400 METAR MRLM NIL=
201701290500 METAR MRLM NIL=
201701290600 METAR MRLM NIL=
201701290700 METAR MRLM NIL=
201701290800 METAR MRLM NIL=
201701290900 METAR MRLM NIL=
201701291000 METAR MRLM NIL=
201701291100 METAR MRLM NIL=
201701291200 METAR MRLM 291200Z 25005KT 9999 FEW010 20/19 A2992=
201701291300 METAR MRLM 291300Z 26005KT 9999 FEW010 22/20 A2995=
201701291400 METAR MRLM 291400Z 23004KT 9999 FEW015 25/22 A2997=
201701291500 METAR MRLM 291500Z 06002KT 9999 FEW020 28/23 A2999=
201701291600 METAR MRLM 291600Z 10003KT 9999 FEW025 28/23 A2999=
201701291700 METAR MRLM 291700Z 07005KT 9999 FEW025 28/23 A2998=
201701291800 METAR MRLM 291800Z 06006KT 9999 FEW025 29/23 A2995=
201701291900 METAR MRLM 291900Z 04006KT CAVOK 29/23 A2993=
201701292000 METAR MRLM 292000Z 04007KT 9999 FEW030 29/23 A2991=
201701292100 METAR MRLM 292100Z 09012KT 9999 FEW030 SCT130 28/23 A2991=
201701292200 METAR MRLM 292200Z 06009KT 9999 FEW030 SCT120 28/23 A2992=
201701292300 METAR MRLM 292300Z 01005KT 9999 FEW025 BKN110 28/22 A2993=
201701300000 METAR MRLM NIL=
201701300100 METAR MRLM NIL=
201701300200 METAR MRLM NIL=
201701300300 METAR MRLM NIL=
201701300400 METAR MRLM NIL=
201701300500 METAR MRLM NIL=
201701300600 METAR MRLM NIL=
201701300700 METAR MRLM NIL=
201701300800 METAR MRLM NIL=
201701300900 METAR MRLM NIL=
201701301000 METAR MRLM NIL=
201701301100 METAR MRLM NIL=
201701301200 METAR MRLM 301200Z 25004KT CAVOK 22/20 A2999=
201701301300 METAR MRLM 301300Z 26002KT CAVOK 25/21 A3001=
201701301400 METAR MRLM 301400Z 30003KT CAVOK 27/21 A3003=
201701301500 METAR MRLM 301500Z 34005KT CAVOK 29/20 A3004=
201701301600 METAR MRLM 301600Z 03009KT 9999 FEW030 SCT130 29/22 A3004=
201701301700 METAR MRLM 301700Z 03015KT 9999 FEW030 BKN130 28/22 A3002=
201701301800 METAR MRLM 301800Z 06008KT 9999 FEW030 BKN130 28/21 A3001=
201701301900 METAR MRLM 301900Z 05004KT 9999 FEW030 BKN130 28/22 A2998=
201701302000 METAR MRLM 302000Z 06003KT 9999 FEW030 BKN130 28/21 A2996=
201701302100 METAR MRLM 302100Z 01004KT 9999 FEW030 BKN130 29/22 A2996=
201701302200 METAR MRLM 302200Z 03011KT 6000 DZ SCT015 BKN100 23/22 A2999=
201701302300 METAR MRLM 302300Z 19005KT 8000 FEW015 BKN090 23/21 A2998=
201701310000 METAR MRLM NIL=
201701310100 METAR MRLM NIL=
201701310200 METAR MRLM NIL=
201701310300 METAR MRLM NIL=
201701310400 METAR MRLM NIL=
201701310500 METAR MRLM NIL=
201701310600 METAR MRLM NIL=
201701310700 METAR MRLM NIL=
201701310800 METAR MRLM NIL=
201701310900 METAR MRLM NIL=
201701311000 METAR MRLM NIL=
201701311100 METAR MRLM NIL=
201701311200 METAR MRLM 311200Z 26002KT 9999 SCT010 SCT080 22/20 A2998=
201701311300 METAR MRLM 311300Z 25003KT 9999 SCT010 SCT080 23/21 A2999=
201701311400 METAR MRLM 311400Z 33002KT 9999 SCT015 BKN090 24/21 A3003=
201701311500 METAR MRLM 311500Z 06015KT 6000 DZ SCT015 BKN090 24/23 A3004=
201701311600 METAR MRLM 311600Z 24004KT 8000 FEW015 BKN090 24/23 A3004=
201701311700 METAR MRLM 311700Z 23006KT 9999 FEW020 BKN100 26/23 A3001=
201701311800 METAR MRLM 311800Z 23005KT 9999 FEW025 BKN110 28/22 A2998=
201701311900 METAR MRLM 311900Z 11003KT 9999 FEW030 SCT200 29/22 A2995=
201701312000 METAR MRLM 312000Z 09004KT 9999 FEW030 SCT120 29/22 A2992=
201701312100 METAR MRLM 312100Z 05004KT 9999 FEW030 BKN120 28/22 A2991=
201701312200 METAR MRLM 312200Z 06013KT 7000 DZ FEW020 BKN100 25/23 A2992=
201701312300 METAR MRLM 312300Z 03005KT 8000 FEW015 BKN090 25/22 A2993=
201702010000 METAR MRLM NIL=
201702010100 METAR MRLM NIL=
201702010200 METAR MRLM NIL=
201702010300 METAR MRLM NIL=
201702010400 METAR MRLM NIL=
201702010500 METAR MRLM NIL=
201702010600 METAR MRLM NIL=
201702010700 METAR MRLM NIL=
201702010800 METAR MRLM NIL=
201702010900 METAR MRLM NIL=
201702011000 METAR MRLM NIL=
201702011100 METAR MRLM NIL=
201702011200 METAR MRLM 011200Z 24004KT 9999 -DZ VCSH FEW010 SCT080 22/21 A2993=
201702011300 METAR MRLM 011300Z 22005KT 9999 SCT010 SCT080 23/21 A2995=
201702011400 METAR MRLM 011400Z 25003KT 9999 SCT015 SCT090 26/22 A2996=
201702011500 METAR MRLM 011500Z 19002KT 9999 SCT020 SCT100 27/23 A2997=
201702011600 METAR MRLM 011600Z 18002KT 9999 SCT020 SCT100 25/23 A2997=
201702011700 METAR MRLM 011700Z 26003KT 8000 SCT020 BKN100 27/23 A2995=
201702011800 METAR MRLM 011800Z 00000KT 8000 SCT015 BKN090 25/23 A2994 REDZ=
201702011900 METAR MRLM 011900Z 21003KT 9999 SCT020 SCT100 28/23 A2990=
201702012000 METAR MRLM 012000Z 05003KT 9999 SCT020 SCT100 28/23 A2988=
201702012100 METAR MRLM 012100Z 13005KT 9999 SCT020 SCT100 27/22 A2987=
201702012200 METAR MRLM 012200Z 07004KT 9999 SCT020 SCT100 27/23 A2988=
201702012300 METAR MRLM 012300Z 17004KT 9999 FEW015 SCT090 26/22 A2990=
201702020000 METAR MRLM NIL=
201702020100 METAR MRLM NIL=
201702020200 METAR MRLM NIL=
201702020300 METAR MRLM NIL=
201702020400 METAR MRLM NIL=
201702020500 METAR MRLM NIL=
201702020600 METAR MRLM NIL=
201702020700 METAR MRLM NIL=
201702020800 METAR MRLM NIL=
201702020900 METAR MRLM NIL=
201702021000 METAR MRLM NIL=
201702021100 METAR MRLM NIL=
201702021200 METAR MRLM 021200Z 26002KT 9999 FEW010 SCT080 21/20 A2993=
201702021300 METAR MRLM 021300Z 26004KT 9999 SCT010 SCT080 21/20 A2995=
201702021400 METAR MRLM 021400Z 25004KT 9999 FEW015 SCT090 24/22 A2998=
201702021500 METAR MRLM 021500Z 28002KT 9999 SCT020 28/23 A2999=
201702021600 METAR MRLM 021600Z 07002KT 9999 SCT025 28/23 A2998=
201702021700 METAR MRLM 021700Z 03008KT 9999 FEW025 SCT120 28/22 A2997=
201702021800 METAR MRLM 021800Z 04005KT CAVOK 28/22 A2995=
201702021900 METAR MRLM 021900Z 04004KT CAVOK 29/21 A2992=
201702022000 METAR MRLM 022000Z 04003KT CAVOK 29/22 A2990=
201702022100 METAR MRLM 022100Z 05003KT CAVOK 29/22 A2989=
201702022200 METAR MRLM 022200Z 10004KT 9999 FEW030 29/22 A2988=
201702022300 METAR MRLM 022300Z 08004KT 9999 FEW030 28/22 A2990=
201702030000 METAR MRLM NIL=
201702030100 METAR MRLM NIL=
201702030200 METAR MRLM NIL=
201702030300 METAR MRLM NIL=
201702030400 METAR MRLM NIL=
201702030500 METAR MRLM NIL=
201702030600 METAR MRLM NIL=
201702030700 METAR MRLM NIL=
201702030800 METAR MRLM NIL=
201702030900 METAR MRLM NIL=
201702031000 METAR MRLM NIL=
201702031100 METAR MRLM NIL=
201702031200 METAR MRLM 031200Z 25005KT CAVOK 20/19 A2992=
201702031300 METAR MRLM 031300Z 25004KT CAVOK 21/20 A2994=
201702031400 METAR MRLM 031400Z 24004KT CAVOK 25/21 A2995=
201702031500 METAR MRLM 031500Z 07003KT 9999 FEW020 BKN130 27/22 A2998=
201702031600 METAR MRLM 031600Z 07015KT 9999 SCT020 BKN120 26/22 A2999=
201702031700 METAR MRLM 031700Z 09008KT 9999 FEW020 BKN120 28/20 A2996=
201702031800 METAR MRLM 031800Z 09009KT 9999 FEW030 BKN140 30/20 A2993=
201702031900 METAR MRLM 031900Z 07007KT 9999 FEW030 SCT140 29/21 A2991=
201702032000 METAR MRLM 032000Z 05008KT CAVOK 29/21 A2987=
201702032100 METAR MRLM 032100Z 05006KT CAVOK 29/21 A2986=
201702032200 METAR MRLM 032200Z 04008KT CAVOK 28/22 A2987=
201702032300 METAR MRLM 032300Z 04007KT CAVOK 28/22 A2989=
201702040000 METAR MRLM 040000Z 04005KT CAVOK 27/22 A2992=
201702040100 METAR MRLM NIL=
201702040200 METAR MRLM NIL=
201702040300 METAR MRLM NIL=
201702040400 METAR MRLM NIL=
201702040500 METAR MRLM NIL=
201702040600 METAR MRLM NIL=
201702040700 METAR MRLM NIL=
201702040800 METAR MRLM NIL=
201702040900 METAR MRLM NIL=
201702041000 METAR MRLM NIL=
201702041100 METAR MRLM NIL=
201702041200 METAR MRLM 041200Z 26003KT CAVOK 21/20 A2992=
201702041300 METAR MRLM 041300Z 25004KT CAVOK 22/20 A2993=
201702041400 METAR MRLM 041400Z 24004KT CAVOK 25/21 A2995=
201702041500 METAR MRLM 041500Z 00000KT CAVOK 28/22 A2997=
201702041600 METAR MRLM 041600Z 09003KT CAVOK 28/22 A2996=
201702041700 METAR MRLM 041700Z 01008KT CAVOK 29/23 A2994=
201702041800 METAR MRLM 041800Z 01010KT 9999 SCT025 BKN110 28/23 A2991=
201702041900 METAR MRLM 041900Z 07012KT 8000 DZ SCT020 BKN100 26/23 A2988=
201702042000 METAR MRLM 042000Z 03004KT 8000 DZ FEW020 BKN090 24/22 A2987=
201702042100 METAR MRLM 042100Z 25007KT 9999 DZ SCT020 OVC100 24/22 A2983=
201702042200 METAR MRLM 042200Z 27004KT 9999 -DZ SCT020 OVC100 24/23 A2984=
201702042300 METAR MRLM 042300Z 23006KT 9999 -DZ FEW020 OVC100 23/22 A2985=
201702050000 METAR MRLM 050000Z 23005KT 9999 DZ SCT015 OVC100 22/21 A2987=
201702050100 METAR MRLM NIL=
201702050200 METAR MRLM NIL=
201702050300 METAR MRLM NIL=
201702050400 METAR MRLM NIL=
201702050500 METAR MRLM NIL=
201702050600 METAR MRLM NIL=
201702050700 METAR MRLM NIL=
201702050800 METAR MRLM NIL=
201702050900 METAR MRLM NIL=
201702051000 METAR MRLM NIL=
201702051100 METAR MRLM NIL=
201702051200 METAR MRLM 051200Z 28003KT 9999 BKN010 23/22 A2989=
201702051300 METAR MRLM 051300Z 00000KT 9999 BKN010 24/23 A2990=
201702051400 METAR MRLM 051400Z 26004KT 8000 SCT010 BKN090 25/23 A2992=
201702051500 METAR MRLM 051500Z 01009KT 6000 SCT010 BKN090 25/24 A2995=
201702051600 METAR MRLM 051600Z 27003KT 7000 -DZ SCT010 BKN090 25/24 A2994=
201702051700 METAR MRLM 051700Z 25004KT 8000 SCT015 BKN100 26/24 A2992 REDZ=
201702051800 METAR MRLM 051800Z 16002KT 8000 FEW015 BKN100 27/25 A2989=
201702051900 METAR MRLM 051900Z 29002KT 7000 -DZ FEW015 BKN100 26/24 A2986=
201702052000 METAR MRLM 052000Z 14005KT 8000 SCT015 SCT100 27/25 A2983=
201702052100 METAR MRLM 052100Z 00000KT 8000 SCT015 SCT100 29/24 A2982=
201702052200 METAR MRLM 052200Z 00000KT 8000 SCT015 SCT100 28/24 A2983=
201702052300 METAR MRLM 052300Z 00000KT 8000 SCT010 SCT100 27/24 A2985=
201702060000 METAR MRLM 060000Z 06007KT 8000 BKN010 27/24 A2987=
201702060100 METAR MRLM NIL=
201702060200 METAR MRLM NIL=
201702060300 METAR MRLM NIL=
201702060400 METAR MRLM NIL=
201702060500 METAR MRLM NIL=
201702060600 METAR MRLM NIL=
201702060700 METAR MRLM NIL=
201702060800 METAR MRLM NIL=
201702060900 METAR MRLM NIL=
201702061000 METAR MRLM NIL=
201702061100 METAR MRLM NIL=
201702061200 METAR MRLM 061200Z 25005KT 8000 -DZ BKN010 23/22 A2990=
201702061300 METAR MRLM 061300Z 25003KT 8000 DZ BKN010 23/22 A2992=
201702061400 METAR MRLM 061400Z 27003KT 7000 -DZ SCT010 BKN080 23/22 A2994=
201702061500 METAR MRLM 061500Z 23004KT 8000 SCT010 BKN080 25/23 A2995=
201702061600 METAR MRLM 061600Z 16005KT 8000 -DZ SCT010 BKN080 25/24 A2996=
201702061700 METAR MRLM 061700Z 20004KT 8000 SCT010 BKN080 25/23 A2993=
201702061800 METAR MRLM 061800Z 24006KT 9999 FEW015 BKN090 27/23 A2991=
201702061900 METAR MRLM 061900Z 22004KT 9999 FEW020 BKN100 28/23 A2988=
201702062000 METAR MRLM 062000Z 10003KT 9999 FEW020 BKN100 29/24 A2985=
201702062100 METAR MRLM 062100Z 09003KT 9999 FEW025 SCT120 28/23 A2984=
201702062200 METAR MRLM 062200Z 09002KT 9999 FEW025 SCT120 29/23 A2983=
201702062300 METAR MRLM 062300Z 07003KT 9999 FEW020 SCT120 28/23 A2985=
201702070000 METAR MRLM 070000Z 07004KT 9999 FEW020 SCT100 27/23 A2986=
201702070100 METAR MRLM NIL=
201702070200 METAR MRLM NIL=
201702070300 METAR MRLM NIL=
201702070400 METAR MRLM NIL=
201702070500 METAR MRLM NIL=
201702070600 METAR MRLM NIL=
201702070700 METAR MRLM NIL=
201702070800 METAR MRLM NIL=
201702070900 METAR MRLM NIL=
201702071000 METAR MRLM NIL=
201702071100 METAR MRLM NIL=
201702071200 METAR MRLM 071200Z 23004KT 9999 BKN015 SCT110 23/22 A2989=
201702071300 METAR MRLM 071300Z 23006KT 9999 FEW015 SCT120 24/23 A2990=
201702071400 METAR MRLM 071400Z 22005KT 9999 FEW020 SCT130 26/23 A2993=
201702071500 METAR MRLM 071500Z 24004KT 9999 FEW020 BKN130 28/23 A2993=
201702071600 METAR MRLM 071600Z 11004KT 9999 FEW030 BKN130 29/24 A2994=
201702071700 METAR MRLM 071700Z 07004KT 9999 SCT030 29/24 A2992=
201702071800 METAR MRLM 071800Z 05005KT 9999 FEW030 29/23 A2989=
201702071900 METAR MRLM 071900Z 05007KT 9999 FEW030 29/24 A2987=
201702072000 METAR MRLM 072000Z 07006KT 9999 FEW025 29/24 A2984=
201702072100 METAR MRLM 072100Z 07006KT 9999 SCT025 29/24 A2982=
201702072200 METAR MRLM 072200Z 09006KT 9999 FEW020 29/24 A2981=
201702072300 METAR MRLM 072300Z 09007KT 9999 BKN020 SCT120 28/24 A2982=
201702080000 METAR MRLM 080000Z 09005KT 9999 BKN015 27/23 A2985=
201702080100 METAR MRLM NIL=
201702080200 METAR MRLM NIL=
201702080300 METAR MRLM NIL=
201702080400 METAR MRLM NIL=
201702080500 METAR MRLM NIL=
201702080600 METAR MRLM NIL=
201702080700 METAR MRLM NIL=
201702080800 METAR MRLM NIL=
201702080900 METAR MRLM NIL=
201702081000 METAR MRLM NIL=
201702081100 METAR MRLM NIL=
201702081200 METAR MRLM 081200Z 25005KT CAVOK 22/21 A2986=
201702081300 METAR MRLM 081300Z 27005KT CAVOK 23/22 A2988=
201702081400 METAR MRLM 081400Z 00000KT CAVOK 27/23 A2991=
201702081500 METAR MRLM 081500Z 07003KT 9999 FEW030 28/24 A2991=
201702081600 METAR MRLM 081600Z 07003KT 9999 FEW030 BKN260 29/24 A2991=
201702081700 METAR MRLM 081700Z 05004KT 9999 FEW030 SCT260 29/23 A2990=
201702081800 METAR MRLM 081800Z 04006KT 9999 FEW030 29/24 A2988=
201702081900 METAR MRLM 081900Z 04006KT 9999 FEW030 29/24 A2986=
201702082000 METAR MRLM 082000Z 04006KT 9999 SCT020 29/24 A2983=
201702082100 METAR MRLM 082100Z 04008KT 9999 BKN020 29/24 A2982=
201702082200 METAR MRLM 082200Z 05008KT 9999 BKN020 29/24 A2982=
201702082300 METAR MRLM 082300Z 04007KT 9999 SCT020 28/24 A2983=
201702090000 METAR MRLM 090000Z 05007KT 9999 BKN015 28/24 A2986=
201702090100 METAR MRLM NIL=
201702090200 METAR MRLM NIL=
201702090300 METAR MRLM NIL=
201702090400 METAR MRLM NIL=
201702090500 METAR MRLM NIL=
201702090600 METAR MRLM NIL=
201702090700 METAR MRLM NIL=
201702090800 METAR MRLM NIL=
201702090900 METAR MRLM NIL=
201702091000 METAR MRLM NIL=
201702091100 METAR MRLM NIL=
201702091200 METAR MRLM 091200Z 26004KT 9999 SCT010 SCT080 23/23 A2992=
201702091300 METAR MRLM 091300Z 23005KT 9999 FEW010 BKN080 24/23 A2993=
201702091400 METAR MRLM 091400Z 27003KT 9999 FEW015 SCT090 27/24 A2995=
201702091500 METAR MRLM 091500Z 09003KT 9999 SCT020 SCT100 29/24 A2997=
201702091600 METAR MRLM 091600Z 04005KT 9999 SCT025 SCT100 29/23 A2997=
201702091700 METAR MRLM 091700Z 03006KT 9999 SCT025 SCT100 29/25 A2995=
201702091800 METAR MRLM 091800Z 06005KT 9999 FEW025 SCT110 29/25 A2992=
201702091900 METAR MRLM 091900Z 05007KT 9999 FEW025 SCT120 29/25 A2990=
201702092000 METAR MRLM 092000Z 05006KT 9999 FEW025 SCT120 29/25 A2987=
201702092100 METAR MRLM 092100Z 03007KT 9999 FEW025 SCT120 29/25 A2987=
201702092200 METAR MRLM 092200Z 04008KT 9999 BKN020 28/25 A2988=
201702092300 METAR MRLM 092300Z 05010KT 9999 BKN020 28/25 A2989=
201702100000 METAR MRLM 100000Z 05010KT 9999 BKN015 28/25 A2991=
201702100100 METAR MRLM NIL=
201702100200 METAR MRLM NIL=
201702100300 METAR MRLM NIL=
201702100400 METAR MRLM NIL=
201702100500 METAR MRLM NIL=
201702100600 METAR MRLM NIL=
201702100700 METAR MRLM NIL=
201702100800 METAR MRLM NIL=
201702100900 METAR MRLM NIL=
201702101000 METAR MRLM NIL=
201702101100 METAR MRLM NIL=
201702101200 METAR MRLM 101200Z 18006KT 7000 DZ BKN010 24/23 A3000=
201702101300 METAR MRLM 101300Z 22005KT 8000 -DZ BKN010 24/23 A3001=
201702101400 METAR MRLM 101400Z 26004KT 8000 SCT010 SCT090 25/24 A3003=
201702101500 METAR MRLM 101500Z 00000KT 8000 SCT015 SCT100 28/24 A3005=
201702101600 METAR MRLM 101600Z 26002KT 8000 SCT015 BKN100 28/24 A3005=
201702101700 METAR MRLM 101700Z 06012KT 6000 DZ BKN015 25/23 A3004=
201702101800 METAR MRLM 101800Z 06002KT 7000 -DZ SCT015 BKN100 27/24 A3001=
201702101900 METAR MRLM 101900Z 13005KT 8000 SCT015 SCT100 29/25 A2999=
201702102000 METAR MRLM 102000Z 21004KT 8000 FEW015 SCT100 26/24 A2999 RERA=
201702102100 METAR MRLM 102100Z 14004KT 8000 SCT015 SCT100 28/24 A2997=
201702102200 METAR MRLM 102200Z 10010KT 9999 BKN015 28/25 A2997=
201702102300 METAR MRLM 102300Z 08012KT 9999 SCT015 28/24 A2997=
201702110000 METAR MRLM 110000Z 10008KT 9999 BKN010 28/24 A2999=
201702110100 METAR MRLM NIL=
201702110200 METAR MRLM NIL=
201702110300 METAR MRLM NIL=
201702110400 METAR MRLM NIL=
201702110500 METAR MRLM NIL=
201702110600 METAR MRLM NIL=
201702110700 METAR MRLM NIL=
201702110800 METAR MRLM NIL=
201702110900 METAR MRLM NIL=
201702111000 METAR MRLM NIL=
201702111100 METAR MRLM NIL=
201702111200 METAR MRLM 111200Z 30002KT 9999 FEW010 SCT080 20/20 A3000=
201702111300 METAR MRLM 111300Z 26002KT CAVOK 21/21 A3002=
201702111400 METAR MRLM 111400Z 22002KT CAVOK 25/21 A3003=
201702111500 METAR MRLM 111500Z 00000KT CAVOK 27/22 A3004=
201702111600 METAR MRLM 111600Z 12004KT CAVOK 28/23 A3003=
201702111700 METAR MRLM 111700Z 12006KT CAVOK 29/23 A3002=
201702111800 METAR MRLM 111800Z 12008KT CAVOK 30/22 A2999=
201702111900 METAR MRLM 111900Z 09010KT CAVOK 30/22 A2997=
201702112000 METAR MRLM 112000Z 09008KT CAVOK 30/22 A2994=
201702112100 METAR MRLM 112100Z 08008KT CAVOK 29/22 A2992=
201702112200 METAR MRLM 112200Z 08008KT CAVOK 29/22 A2992=
201702112300 METAR MRLM 112300Z 06007KT 9999 FEW025 28/23 A2993=
201702120000 METAR MRLM 120000Z 06008KT 9999 FEW020 27/23 A2994=
201702120100 METAR MRLM NIL=
201702120200 METAR MRLM NIL=
201702120300 METAR MRLM NIL=
201702120400 METAR MRLM NIL=
201702120500 METAR MRLM NIL=
201702120600 METAR MRLM NIL=
201702120700 METAR MRLM NIL=
201702120800 METAR MRLM NIL=
201702120900 METAR MRLM NIL=
201702121000 METAR MRLM NIL=
201702121100 METAR MRLM NIL=
201702121200 METAR MRLM 121200Z 26004KT CAVOK 20/18 A2993=
201702121300 METAR MRLM 121300Z 25003KT 9999 FEW015 BKN100 20/19 A2995=
201702121400 METAR MRLM 121400Z 12009KT 8000 DZ SCT015 OVC100 23/21 A2999=
201702121500 METAR MRLM 121500Z 19002KT 9999 FEW015 OVC100 23/22 A3000 REDZ=
201702121600 METAR MRLM 121600Z 29004KT 9999 SCT020 BKN100 24/20 A3000=
201702121700 METAR MRLM 121700Z 28003KT CAVOK 25/21 A2998=
201702121800 METAR MRLM 121800Z 01011KT 9999 DZ SCT020 OVC090 24/22 A2997=
201702121900 METAR MRLM 121900Z 29005KT 9999 BKN020 SCT100 24/22 A2994 REDZ=
201702122000 METAR MRLM 122000Z 26004KT 9999 FEW020 BKN110 25/22 A2990=
201702122100 METAR MRLM 122100Z 25004KT 9999 FEW025 BKN120 27/22 A2989=
201702122200 METAR MRLM 122200Z 00000KT 5000 +RA BKN015 26/23 A2989=
201702122300 METAR MRLM 122300Z 22003KT 9999 BKN010 23/22 A2990=
201702130000 METAR MRLM 130000Z 22003KT 9999 BKN010 SCT090 23/22 A2992=
201702130100 METAR MRLM NIL=
201702130200 METAR MRLM NIL=
201702130300 METAR MRLM NIL=
201702130400 METAR MRLM NIL=
201702130500 METAR MRLM NIL=
201702130600 METAR MRLM NIL=
201702130700 METAR MRLM NIL=
201702130800 METAR MRLM NIL=
201702130900 METAR MRLM NIL=
201702131000 METAR MRLM NIL=
201702131100 METAR MRLM NIL=
201702131200 METAR MRLM 131200Z 26004KT CAVOK 21/20 A2991=
201702131300 METAR MRLM 131300Z 28002KT CAVOK 23/21 A2993=
201702131400 METAR MRLM 131400Z 24003KT CAVOK 26/22 A2994=
201702131500 METAR MRLM 131500Z 07004KT CAVOK 28/22 A2995=
201702131600 METAR MRLM 131600Z 04007KT 9999 FEW025 SCT120 28/23 A2995=
201702131700 METAR MRLM 131700Z 03011KT 9999 FEW030 SCT120 28/23 A2994=
201702131720 METAR MRLM 03011KT 9999 FEW030 SCT120 28/23 A2994=
201702131800 METAR MRLM 131800Z 03012KT 9999 FEW030 SCT130 28/23 A2992=
201702131900 METAR MRLM 131900Z 06013KT CAVOK 28/23 A2989=
201702132000 METAR MRLM 132000Z 06008KT CAVOK 27/23 A2986=
201702132100 METAR MRLM 132100Z 10004KT 9999 FEW025 BKN130 27/23 A2986=
201702132200 METAR MRLM 132200Z 00000KT 9999 FEW025 SCT130 28/22 A2985=
201702132300 METAR MRLM 132300Z 00000KT 9999 FEW020 SCT120 27/22 A2986=
201702140000 METAR MRLM 140000Z 00000KT 9999 FEW015 SCT110 25/22 A2987=
201702140100 METAR MRLM NIL=
201702140200 METAR MRLM NIL=
201702140300 METAR MRLM NIL=
201702140400 METAR MRLM NIL=
201702140500 METAR MRLM NIL=
201702140600 METAR MRLM NIL=
201702140700 METAR MRLM NIL=
201702140800 METAR MRLM NIL=
201702140900 METAR MRLM NIL=
201702141000 METAR MRLM NIL=
201702141100 METAR MRLM NIL=
201702141200 METAR MRLM 141200Z 26002KT 9999 FEW010 SCT080 22/21 A2991=
201702141300 METAR MRLM 141300Z 00000KT 9999 FEW010 BKN080 22/21 A2993=
201702141400 METAR MRLM 141400Z 00000KT CAVOK 25/21 A2994=
201702141500 METAR MRLM 141500Z 07003KT CAVOK 26/22 A2995=
201702141600 METAR MRLM 141600Z 10005KT 9999 FEW025 28/22 A2995=
201702141700 METAR MRLM 141700Z 05007KT 9999 FEW030 SCT120 28/23 A2994=
201702141800 METAR MRLM 141800Z 06008KT CAVOK 28/23 A2992=
201702141900 METAR MRLM 141900Z 04008KT 9999 FEW030 SCT120 28/22 A2989=
201702142000 METAR MRLM 142000Z 03007KT 9999 FEW030 SCT120 28/23 A2987=
201702142100 METAR MRLM 142100Z 05004KT 9999 FEW030 SCT120 28/22 A2986=
201702142200 METAR MRLM 142200Z 03005KT 9999 SCT025 27/22 A2986=
201702142300 METAR MRLM 142300Z 06005KT 9999 SCT020 SCT110 27/22 A2987=
201702150000 METAR MRLM 150000Z 06003KT 9999 SCT015 SCT100 27/22 A2987=
201702150100 METAR MRLM NIL=
201702150200 METAR MRLM NIL=
201702150300 METAR MRLM NIL=
201702150400 METAR MRLM NIL=
201702150500 METAR MRLM NIL=
201702150600 METAR MRLM NIL=
201702150700 METAR MRLM NIL=
201702150800 METAR MRLM NIL=
201702150900 METAR MRLM NIL=
201702151000 METAR MRLM NIL=
201702151100 METAR MRLM NIL=
201702151200 METAR MRLM 151200Z 25002KT 9999 BKN015 SCT090 23/22 A2992=
201702151300 METAR MRLM 151300Z 26003KT 9999 FEW020 BKN110 24/22 A2994=
201702151400 METAR MRLM 151400Z 28004KT 9999 FEW020 BKN110 24/23 A2996=
201702151500 METAR MRLM 151500Z 00000KT 9999 FEW025 SCT130 26/22 A2998=
201702151600 METAR MRLM 151600Z 08003KT 9999 SCT025 27/22 A2998=
201702151700 METAR MRLM 151700Z 09005KT 9999 FEW025 28/23 A2997=
201702151800 METAR MRLM 151800Z 08005KT 9999 FEW030 28/22 A2994=
201702151900 METAR MRLM 151900Z 08006KT 9999 FEW030 28/22 A2992=
201702152000 METAR MRLM 152000Z 07006KT 9999 FEW030 28/22 A2989=
201702152100 METAR MRLM 152100Z 06007KT 9999 FEW030 28/22 A2988=
201702152200 METAR MRLM 152200Z 07006KT 9999 SCT030 28/22 A2988=
201702152300 METAR MRLM 152300Z 06005KT 9999 SCT030 27/22 A2989=
201702160000 METAR MRLM 160000Z 07003KT 9999 BKN030 27/22 A2992=
201702160100 METAR MRLM NIL=
201702160200 METAR MRLM NIL=
201702160300 METAR MRLM NIL=
201702160400 METAR MRLM NIL=
201702160500 METAR MRLM NIL=
201702160600 METAR MRLM NIL=
201702160700 METAR MRLM NIL=
201702160800 METAR MRLM NIL=
201702160900 METAR MRLM NIL=
201702161000 METAR MRLM NIL=
201702161100 METAR MRLM NIL=
201702161200 METAR MRLM 161200Z 22003KT 9999 FEW015 SCT250 22/22 A2996=
201702161300 METAR MRLM 161300Z 24005KT CAVOK 23/22 A2998=
201702161400 METAR MRLM 161400Z 22003KT CAVOK 26/23 A3000=
201702161500 METAR MRLM 161500Z 12003KT 9999 FEW030 28/22 A3002=
201702161600 METAR MRLM 161600Z 09005KT 9999 FEW030 28/23 A3002=
201702161700 METAR MRLM 161700Z 06006KT 9999 FEW030 28/23 A3000=
201702161800 METAR MRLM 161800Z 07007KT 9999 SCT030 29/23 A2998=
201702161900 METAR MRLM 161900Z 07007KT 9999 FEW030 28/23 A2995=
201702162000 METAR MRLM 162000Z 08006KT 9999 FEW030 28/22 A2992=
201702162100 METAR MRLM 162100Z 06006KT 9999 FEW030 29/23 A2990=
201702162200 METAR MRLM 162200Z 07005KT 9999 SCT025 28/23 A2990=
201702162300 METAR MRLM 162300Z 07006KT 9999 BKN025 27/22 A2991=
201702170000 METAR MRLM 170000Z 08005KT 9999 BKN020 27/23 A2994=
201702170100 METAR MRLM NIL=
201702170200 METAR MRLM NIL=
201702170300 METAR MRLM NIL=
201702170400 METAR MRLM NIL=
201702170500 METAR MRLM NIL=
201702170600 METAR MRLM NIL=
201702170700 METAR MRLM NIL=
201702170800 METAR MRLM NIL=
201702170900 METAR MRLM NIL=
201702171000 METAR MRLM NIL=
201702171100 METAR MRLM NIL=
201702171200 METAR MRLM 171200Z 25004KT 9999 FEW010 21/20 A2998=
201702171300 METAR MRLM 171300Z 26003KT 9999 FEW010 22/21 A3000=
201702171400 METAR MRLM 171400Z 23002KT 9999 FEW015 26/22 A3002=
201702171500 METAR MRLM 171500Z 12003KT 9999 FEW020 27/21 A3004=
201702171600 METAR MRLM 171600Z 10005KT 9999 FEW025 28/21 A3003=
201702171700 METAR MRLM 171700Z 10006KT 9999 FEW030 28/21 A3001=
201702171800 METAR MRLM 171800Z 08007KT 9999 FEW030 29/21 A2999=
201702171900 METAR MRLM 171900Z 06007KT 9999 FEW030 28/22 A2996=
201702172000 METAR MRLM 172000Z 07008KT 9999 FEW030 29/22 A2993=
201702172100 METAR MRLM 172100Z 06007KT 9999 FEW030 29/22 A2992=
201702172200 METAR MRLM 172200Z 06005KT 9999 FEW030 28/22 A2991=
201702172300 METAR MRLM 172300Z 08004KT 9999 FEW025 28/21 A2992=
201702180000 METAR MRLM 180000Z 06005KT 9999 FEW020 SCT100 27/21 A2992=
201702180100 METAR MRLM NIL=
201702180200 METAR MRLM NIL=
201702180300 METAR MRLM NIL=
201702180400 METAR MRLM NIL=
201702180500 METAR MRLM NIL=
201702180600 METAR MRLM NIL=
201702180700 METAR MRLM NIL=
201702180800 METAR MRLM NIL=
201702180900 METAR MRLM NIL=
201702181000 METAR MRLM NIL=
201702181100 METAR MRLM NIL=
201702181200 METAR MRLM 181200Z 25004KT 9999 FEW010 SCT080 21/20 A2994=
201702181300 METAR MRLM 181300Z 22005KT 9999 FEW010 SCT080 22/19 A2996=
201702181400 METAR MRLM 181400Z 18005KT 9999 FEW015 BKN090 24/21 A2997=
201702181500 METAR MRLM 181500Z 12005KT 9999 FEW020 SCT100 28/21 A2997=
201702181600 METAR MRLM 181600Z 13005KT 9999 FEW025 28/20 A2997=
201702181700 METAR MRLM 181700Z 13007KT 9999 FEW030 SCT120 28/21 A2996=
201702181800 METAR MRLM 181800Z 11008KT 9999 FEW030 SCT120 29/21 A2993=
201702181900 METAR MRLM 181900Z 10007KT 9999 FEW030 SCT120 29/22 A2991=
201702182000 METAR MRLM 182000Z 09008KT CAVOK 29/22 A2988=
201702182100 METAR MRLM 182100Z 08006KT 9999 FEW030 SCT120 28/22 A2987=
201702182200 METAR MRLM 182200Z 09006KT 9999 FEW025 BKN110 27/22 A2987=
201702182300 METAR MRLM 182300Z 08005KT 9999 FEW025 BKN110 27/22 A2987=
201702190000 METAR MRLM 190000Z 08004KT 9999 FEW015 BKN100 27/22 A2989=
201702190100 METAR MRLM NIL=
201702190200 METAR MRLM NIL=
201702190300 METAR MRLM NIL=
201702190400 METAR MRLM NIL=
201702190500 METAR MRLM NIL=
201702190600 METAR MRLM NIL=
201702190700 METAR MRLM NIL=
201702190800 METAR MRLM NIL=
201702190900 METAR MRLM NIL=
201702191000 METAR MRLM NIL=
201702191100 METAR MRLM NIL=
201702191200 METAR MRLM 191200Z 11005KT 9999 -DZ BKN020 SCT100 24/20 A2995=
201702191300 METAR MRLM 191300Z 24006KT 9999 FEW020 BKN110 23/21 A2996=
201702191400 METAR MRLM 191400Z 24006KT CAVOK 25/21 A2998=
201702191500 METAR MRLM 191500Z 23004KT CAVOK 27/22 A2998=
201702191600 METAR MRLM 191600Z 07003KT CAVOK 28/21 A2998=
201702191700 METAR MRLM 191700Z 06006KT CAVOK 29/21 A2996=
201702191800 METAR MRLM 191800Z 06007KT 9999 FEW040 29/21 A2995=
201702191900 METAR MRLM 191900Z 06007KT 9999 FEW040 SCT140 29/21 A2993=
201702192000 METAR MRLM 192000Z 07009KT 9999 FEW030 BKN130 28/23 A2990=
201702192100 METAR MRLM 192100Z 10007KT 9999 FEW030 SCT130 28/22 A2989=
201702192200 METAR MRLM 192200Z 11006KT 9999 FEW030 SCT130 28/22 A2988=
201702192300 METAR MRLM 192300Z 11005KT CAVOK 27/22 A2989=
201702200000 METAR MRLM 200000Z 11005KT 9999 SCT020 SCT120 27/23 A2992=
201702200100 METAR MRLM NIL=
201702200200 METAR MRLM NIL=
201702200300 METAR MRLM NIL=
201702200400 METAR MRLM NIL=
201702200500 METAR MRLM NIL=
201702200600 METAR MRLM NIL=
201702200700 METAR MRLM NIL=
201702200800 METAR MRLM NIL=
201702200900 METAR MRLM NIL=
201702201000 METAR MRLM NIL=
201702201100 METAR MRLM NIL=
201702201200 METAR MRLM 201200Z 26005KT 9999 FEW015 SCT120 22/21 A2994=
201702201300 METAR MRLM 201300Z 26005KT 9999 FEW020 BKN120 23/21 A2996=
201702201400 METAR MRLM 201400Z 25004KT 9999 FEW020 26/22 A2998=
201702201500 METAR MRLM 201500Z 10003KT 9999 BKN025 29/22 A3000=
201702201600 METAR MRLM 201600Z 06005KT 9999 SCT030 29/22 A2999=
201702201700 METAR MRLM 201700Z 07005KT 9999 SCT030 28/23 A2998=
201702201800 METAR MRLM 201800Z 06006KT 9999 FEW030 28/23 A2995=
201702201900 METAR MRLM 201900Z 06007KT 9999 SCT030 29/23 A2992=
201702202000 METAR MRLM 202000Z 07009KT 9999 BKN025 28/23 A2989=
201702202100 METAR MRLM 202100Z 06010KT 9999 BKN025 28/23 A2988=
201702202200 METAR MRLM 202200Z 07011KT 9999 BKN020 28/23 A2987=
201702202300 METAR MRLM 202300Z 06010KT 9999 BKN020 27/22 A2989=
201702210000 METAR MRLM 210000Z 06008KT 9999 BKN015 SCT100 27/22 A2991=
201702210100 METAR MRLM NIL=
201702210200 METAR MRLM NIL=
201702210300 METAR MRLM NIL=
201702210400 METAR MRLM NIL=
201702210500 METAR MRLM NIL=
201702210600 METAR MRLM NIL=
201702210700 METAR MRLM NIL=
201702210800 METAR MRLM NIL=
201702210900 METAR MRLM NIL=
201702211000 METAR MRLM NIL=
201702211100 METAR MRLM NIL=
201702211200 METAR MRLM 211200Z 25003KT CAVOK 22/21 A2993=
201702211300 METAR MRLM 211300Z 26002KT CAVOK 23/22 A2994=
201702211400 METAR MRLM 211400Z 24004KT CAVOK 27/21 A2996=
201702211500 METAR MRLM 211500Z 13006KT 9999 FEW030 28/21 A2997=
201702211600 METAR MRLM 211600Z 11006KT 9999 FEW030 28/21 A2997=
201702211700 METAR MRLM 211700Z 10006KT 9999 FEW030 29/22 A2994=
201702211800 METAR MRLM 211800Z 08008KT 9999 FEW030 SCT120 29/22 A2992=
201702211900 METAR MRLM 211900Z 07007KT 9999 FEW030 SCT130 29/22 A2990=
201702212000 METAR MRLM 212000Z 07007KT 9999 FEW030 SCT130 28/21 A2987=
201702212100 METAR MRLM 212100Z 06008KT 9999 FEW030 SCT130 28/22 A2987=
201702212200 METAR MRLM 212200Z 06005KT 9999 FEW025 BKN120 28/22 A2987=
201702212300 METAR MRLM 212300Z 08003KT 9999 FEW025 BKN120 27/22 A2987=
201702220000 METAR MRLM 220000Z 08004KT 9999 FEW020 BKN110 27/21 A2988=
201702220100 METAR MRLM NIL=
201702220200 METAR MRLM NIL=
201702220300 METAR MRLM NIL=
201702220400 METAR MRLM NIL=
201702220500 METAR MRLM NIL=
201702220600 METAR MRLM NIL=
201702220700 METAR MRLM NIL=
201702220800 METAR MRLM NIL=
201702220900 METAR MRLM NIL=
201702221000 METAR MRLM NIL=
201702221100 METAR MRLM NIL=
201702221200 METAR MRLM 221200Z 00000KT CAVOK 21/20 A2987=
201702221300 METAR MRLM 221300Z 00000KT CAVOK 22/21 A2988=
201702221400 METAR MRLM 221400Z 22003KT CAVOK 26/21 A2989=
201702221500 METAR MRLM 221500Z 09003KT 9999 FEW030 28/21 A2991=
201702221600 METAR MRLM 221600Z 10004KT 9999 FEW030 28/22 A2990=
201702221700 METAR MRLM 221700Z 10005KT 9999 FEW030 28/23 A2988=
201702221800 METAR MRLM 221800Z 09006KT 9999 FEW030 28/23 A2985=
201702221900 METAR MRLM 221900Z 10007KT 9999 FEW030 29/23 A2982=
201702222000 METAR MRLM 222000Z 11007KT 9999 FEW030 29/23 A2980=
201702222100 METAR MRLM 222100Z 13008KT CAVOK 29/23 A2978=
201702222200 METAR MRLM 222200Z 14010KT CAVOK 29/23 A2977=
201702222300 METAR MRLM 222300Z 11010KT CAVOK 28/23 A2977=
201702230000 METAR MRLM 230000Z 11008KT CAVOK 28/23 A2979=
201702230100 METAR MRLM NIL=
201702230200 METAR MRLM NIL=
201702230300 METAR MRLM NIL=
201702230400 METAR MRLM NIL=
201702230500 METAR MRLM NIL=
201702230600 METAR MRLM NIL=
201702230700 METAR MRLM NIL=
201702230800 METAR MRLM NIL=
201702230900 METAR MRLM NIL=
201702231000 METAR MRLM NIL=
201702231100 METAR MRLM NIL=
201702231200 METAR MRLM 231200Z 25005KT CAVOK 21/20 A2984=
201702231300 METAR MRLM 231300Z 25005KT CAVOK 22/21 A2985=
201702231400 METAR MRLM 231400Z 00000KT CAVOK 26/22 A2987=
201702231500 METAR MRLM 231500Z 10002KT 9999 FEW030 28/23 A2988=
201702231600 METAR MRLM 231600Z 11005KT 9999 FEW030 28/23 A2987=
201702231700 METAR MRLM 231700Z 10007KT 9999 FEW030 29/23 A2986=
201702231800 METAR MRLM 231800Z 10008KT 9999 FEW030 29/24 A2983=
201702231900 METAR MRLM 231900Z 10007KT 9999 FEW025 29/24 A2981=
201702232000 METAR MRLM 232000Z 09007KT 9999 FEW025 29/24 A2978=
201702232100 METAR MRLM 232100Z 07007KT 9999 BKN020 29/24 A2978=
201702232200 METAR MRLM 232200Z 07007KT 9999 BKN020 28/24 A2977=
201702232300 METAR MRLM 232300Z 03011KT 9999 DZ BKN010 27/24 A2977=
201702240000 METAR MRLM 240000Z 05005KT 9999 4000SE DZ BKN010 27/24 A2977=
201702240100 METAR MRLM NIL=
201702240200 METAR MRLM NIL=
201702240300 METAR MRLM NIL=
201702240400 METAR MRLM NIL=
201702240500 METAR MRLM NIL=
201702240600 METAR MRLM NIL=
201702240700 METAR MRLM NIL=
201702240800 METAR MRLM NIL=
201702240900 METAR MRLM NIL=
201702241000 METAR MRLM NIL=
201702241100 METAR MRLM NIL=
201702241200 METAR MRLM 241200Z 27004KT CAVOK 22/21 A2984=
201702241300 METAR MRLM 241300Z 27005KT CAVOK 23/22 A2986=
201702241400 METAR MRLM 241400Z 27002KT CAVOK 26/23 A2988=
201702241500 METAR MRLM 241500Z 09003KT CAVOK 28/23 A2989=
201702241600 METAR MRLM 241600Z 09004KT 9999 FEW030 28/23 A2989=
201702241700 METAR MRLM 241700Z 11006KT CAVOK 29/23 A2988=
201702241800 METAR MRLM 241800Z 11007KT CAVOK 29/24 A2986=
201702241900 METAR MRLM 241900Z 10008KT 9999 FEW030 29/24 A2983=
201702242000 METAR MRLM 242000Z 09008KT 9999 FEW030 29/24 A2981=
201702242100 METAR MRLM 242100Z 08006KT 9999 FEW025 29/24 A2979=
201702242200 METAR MRLM 242200Z 10005KT 9999 BKN025 29/24 A2978=
201702242300 METAR MRLM 242300Z 11006KT 9999 SCT025 28/24 A2978=
201702250000 METAR MRLM 250000Z 12004KT 9999 SCT020 28/23 A2981=
201702250100 METAR MRLM NIL=
201702250200 METAR MRLM NIL=
201702250300 METAR MRLM NIL=
201702250400 METAR MRLM NIL=
201702250500 METAR MRLM NIL=
201702250600 METAR MRLM NIL=
201702250700 METAR MRLM NIL=
201702250800 METAR MRLM NIL=
201702250900 METAR MRLM NIL=
201702251000 METAR MRLM NIL=
201702251100 METAR MRLM NIL=
201702251200 METAR MRLM 251200Z 24003KT 9999 FEW010 SCT080 23/23 A2987=
201702251300 METAR MRLM 251300Z 23003KT 9999 FEW015 SCT090 24/23 A2989=
201702251400 METAR MRLM 251400Z 15003KT CAVOK 27/24 A2990=
201702251500 METAR MRLM 251500Z 13010KT CAVOK 29/24 A2991=
201702251600 METAR MRLM 251600Z 13010KT 9999 FEW025 29/24 A2991=
201702251700 METAR MRLM 251700Z 12010KT 9999 FEW025 30/25 A2989=
201702251800 METAR MRLM 251800Z 09008KT 9999 FEW025 29/25 A2987=
201702251900 METAR MRLM 251900Z 09008KT 9999 FEW025 29/25 A2985=
201702252000 METAR MRLM 252000Z 09007KT 9999 FEW025 29/25 A2982=
201702252100 METAR MRLM 252100Z 10008KT 9999 FEW025 29/25 A2981=
201702252200 METAR MRLM 252200Z 10008KT 9999 FEW025 29/25 A2980=
201702252300 METAR MRLM 252300Z 12007KT 9999 FEW020 28/24 A2982=
201702260000 METAR MRLM 260000Z 11006KT 9999 FEW020 28/23 A2983=
201702260100 METAR MRLM NIL=
201702260200 METAR MRLM NIL=
201702260300 METAR MRLM NIL=
201702260400 METAR MRLM NIL=
201702260500 METAR MRLM NIL=
201702260600 METAR MRLM NIL=
201702260700 METAR MRLM NIL=
201702260800 METAR MRLM NIL=
201702260900 METAR MRLM NIL=
201702261000 METAR MRLM NIL=
201702261100 METAR MRLM NIL=
201702261200 METAR MRLM 261200Z 20004KT 9999 FEW010 SCT080 24/22 A2990=
201702261300 METAR MRLM 261300Z 23003KT 9999 FEW010 BKN090 24/23 A2993=
201702261400 METAR MRLM 261400Z 20004KT 9999 FEW015 SCT100 27/23 A2996=
201702261500 METAR MRLM 261500Z 14009KT 9999 FEW020 29/23 A2997=
201702261600 METAR MRLM 261600Z 14010KT 9999 FEW025 29/24 A2997=
201702261700 METAR MRLM 261700Z 12010KT 9999 FEW030 30/24 A2995=
201702261800 METAR MRLM 261800Z 10008KT CAVOK 30/24 A2992=
201702261900 METAR MRLM 261900Z 09010KT CAVOK 29/24 A2990=
201702262000 METAR MRLM 262000Z 09010KT 9999 FEW030 29/24 A2988=
201702262100 METAR MRLM 262100Z 10009KT 9999 FEW025 29/24 A2987=
201702262200 METAR MRLM 262200Z 12008KT 9999 FEW025 29/23 A2987=
201702262300 METAR MRLM 262300Z 12007KT 9999 FEW025 SCT120 28/23 A2988=
201702270000 METAR MRLM 270000Z 14006KT 9999 FEW020 SCT110 27/23 A2988=
201702270100 METAR MRLM NIL=
201702270200 METAR MRLM NIL=
201702270300 METAR MRLM NIL=
201702270400 METAR MRLM NIL=
201702270500 METAR MRLM NIL=
201702270600 METAR MRLM NIL=
201702270700 METAR MRLM NIL=
201702270800 METAR MRLM NIL=
201702270900 METAR MRLM NIL=
201702271000 METAR MRLM NIL=
201702271100 METAR MRLM NIL=
201702271200 METAR MRLM 271200Z 25005KT CAVOK 20/18 A2993=
201702271300 METAR MRLM 271300Z 25005KT CAVOK 21/19 A2996=
201702271400 METAR MRLM 271400Z 24005KT CAVOK 25/20 A2998=
201702271500 METAR MRLM 271500Z 10003KT CAVOK 28/21 A2999=
201702271600 METAR MRLM 271600Z 09004KT 9999 FEW030 SCT130 29/20 A3001=
201702271700 METAR MRLM 271700Z 12003KT CAVOK 29/21 A3000=
201702271800 METAR MRLM 271800Z 11006KT CAVOK 29/21 A2996=
201702271900 METAR MRLM 271900Z 09007KT CAVOK 29/22 A2994=
201702272000 METAR MRLM 272000Z 08008KT CAVOK 29/23 A2991=
201702272100 METAR MRLM 272100Z 08007KT CAVOK 29/23 A2990=
201702272200 METAR MRLM 272200Z 08012KT 9999 FEW025 SCT130 29/24 A2991=
201702272300 METAR MRLM 272300Z 06012KT 9999 FEW020 SCT130 27/22 A2992=
201702280000 METAR MRLM 280000Z 05006KT CAVOK 26/21 A2994=
201702280100 METAR MRLM NIL=
201702280200 METAR MRLM NIL=
201702280300 METAR MRLM NIL=
201702280400 METAR MRLM NIL=
201702280500 METAR MRLM NIL=
201702280600 METAR MRLM NIL=
201702280700 METAR MRLM NIL=
201702280800 METAR MRLM NIL=
201702280900 METAR MRLM NIL=
201702281000 METAR MRLM NIL=
201702281100 METAR MRLM NIL=
201702281200 METAR MRLM 281200Z 25005KT CAVOK 20/19 A2995=
201702281300 METAR MRLM 281300Z 25004KT CAVOK 21/20 A2997=
201702281400 METAR MRLM 281400Z 25003KT CAVOK 23/21 A2998=
201702281500 METAR MRLM 281500Z 00000KT CAVOK 28/22 A3000=
201702281600 METAR MRLM 281600Z 09003KT CAVOK 28/22 A3000=
201702281700 METAR MRLM 281700Z 10003KT 9999 FEW030 BKN120 28/22 A3000=
201702281800 METAR MRLM 281800Z 07003KT CAVOK 28/22 A2996=
201702281900 METAR MRLM 281900Z 06005KT 9999 FEW030 SCT130 29/23 A2993=
201702282000 METAR MRLM 282000Z 04010KT 9999 FEW025 BKN130 28/23 A2990=
201702282100 METAR MRLM 282100Z 06010KT 9999 FEW025 BKN110 28/22 A2989=
201702282200 METAR MRLM 282200Z 08006KT CAVOK 28/22 A2988=
201702282300 METAR MRLM 282300Z 00000KT CAVOK 28/22 A2988=
201703010000 METAR MRLM 010000Z 00000KT CAVOK 26/23 A2990=
201703010100 METAR MRLM NIL=
201703010200 METAR MRLM NIL=
201703010300 METAR MRLM NIL=
201703010400 METAR MRLM NIL=
201703010500 METAR MRLM NIL=
201703010600 METAR MRLM NIL=
201703010700 METAR MRLM NIL=
201703010800 METAR MRLM NIL=
201703010900 METAR MRLM NIL=
201703011000 METAR MRLM NIL=
201703011100 METAR MRLM NIL=
201703011200 METAR MRLM 011200Z 35002KT 8000 VCSH SCT010 SCT080 23/21 A2991=
201703011300 METAR MRLM 011300Z 04003KT 8000 DZ SCT010 SCT080 24/22 A2994=
201703011400 METAR MRLM 011400Z 24002KT 8000 FEW010 BKN090 25/23 A2995=
201703011500 METAR MRLM 011500Z 02002KT 8000 FEW015 BKN100 26/23 A2998=
201703011600 METAR MRLM 011600Z 05002KT 9999 FEW020 BKN100 27/24 A2998=
201703011700 METAR MRLM 011700Z 06005KT 9999 FEW025 SCT110 29/24 A2997=
201703011800 METAR MRLM 011800Z 05005KT 9999 SCT030 29/23 A2994=
201703011900 METAR MRLM 011900Z 08005KT 9999 SCT030 29/22 A2991=
201703012000 METAR MRLM 012000Z 07006KT 9999 SCT030 29/22 A2989=
201703012100 METAR MRLM 012100Z 07006KT 9999 SCT030 29/23 A2987=
201703012200 METAR MRLM 012200Z 08005KT 9999 SCT030 28/22 A2986=
201703012300 METAR MRLM 012300Z 07003KT 9999 BKN025 28/23 A2987=
201703020000 METAR MRLM 020000Z 09004KT 9999 BKN020 28/23 A2987=
201703020100 METAR MRLM NIL=
201703020200 METAR MRLM NIL=
201703020300 METAR MRLM NIL=
201703020400 METAR MRLM NIL=
201703020500 METAR MRLM NIL=
201703020600 METAR MRLM NIL=
201703020700 METAR MRLM NIL=
201703020800 METAR MRLM NIL=
201703020900 METAR MRLM NIL=
201703021000 METAR MRLM NIL=
201703021100 METAR MRLM NIL=
201703021200 METAR MRLM 021200Z 20005KT 5000 -DZ SCT010 BKN080 21/21 A2990=
201703021300 METAR MRLM 021300Z 22005KT 6000 -DZ SCT010 BKN080 22/21 A2993=
201703021400 METAR MRLM 021400Z 24006KT 7000 SCT010 BKN080 22/21 A2993=
201703021500 METAR MRLM 021500Z 24003KT 6000 -DZ SCT010 BKN080 22/21 A2996=
201703021600 METAR MRLM 021600Z 25006KT 7000 FEW015 BKN090 24/22 A2996=
201703021700 METAR MRLM 021700Z 21003KT 8000 FEW015 BKN100 27/22 A2994=
201703021800 METAR MRLM 021800Z 08004KT 9999 FEW020 BKN100 27/22 A2992=
201703021900 METAR MRLM 021900Z 05004KT 9999 FEW020 BKN100 28/22 A2990=
201703022000 METAR MRLM 022000Z 07003KT 9999 FEW025 SCT110 29/23 A2987=
201703022100 METAR MRLM 022100Z 04006KT 9999 FEW025 SCT110 29/22 A2985=
201703022200 METAR MRLM 022200Z 03006KT 9999 FEW025 SCT110 29/22 A2985=
201703022300 METAR MRLM 022300Z 02005KT CAVOK 28/22 A2988=
201703030000 METAR MRLM 030000Z 31002KT CAVOK 26/22 A2989=
201703030100 METAR MRLM NIL=
201703030200 METAR MRLM NIL=
201703030300 METAR MRLM NIL=
201703030400 METAR MRLM NIL=
201703030500 METAR MRLM NIL=
201703030600 METAR MRLM NIL=
201703030700 METAR MRLM NIL=
201703030800 METAR MRLM NIL=
201703030900 METAR MRLM NIL=
201703031000 METAR MRLM NIL=
201703031100 METAR MRLM NIL=
201703031200 METAR MRLM 031200Z 26002KT 9999 VCSH SCT015 BKN100 21/20 A2993=
201703031300 METAR MRLM 031300Z 27004KT 9999 SCT015 BKN110 21/20 A2996=
201703031400 METAR MRLM 031400Z 25003KT 9999 BKN020 SCT110 23/22 A2998=
201703031500 METAR MRLM 031500Z 29003KT 9999 SCT020 BKN120 24/22 A2999=
201703031600 METAR MRLM 031600Z 30006KT 9999 SCT020 BKN120 25/22 A3000=
201703031700 METAR MRLM 031700Z 32007KT 3000 RA BKN015 23/21 A3000=
201703031800 METAR MRLM 031800Z 24007KT 9999 -DZ SCT015 BKN100 23/22 A2996 RERA=
201703031900 METAR MRLM 031900Z 27005KT 9999 DZ BKN015 24/22 A2995=
201703032000 METAR MRLM 032000Z 27005KT 9999 SCT020 BKN110 25/22 A2992 REDZ=
201703032100 METAR MRLM 032100Z 30003KT 9999 DZ BKN015 SCT100 24/22 A2991=
201703032200 METAR MRLM 032200Z 27004KT 9999 FEW020 BKN120 24/22 A2989 REDZ=
201703032300 METAR MRLM 032300Z 27003KT CAVOK 24/22 A2989=
201703040000 METAR MRLM 040000Z 00000KT CAVOK 24/23 A2991=
201703040100 METAR MRLM NIL=
201703040200 METAR MRLM NIL=
201703040300 METAR MRLM NIL=
201703040400 METAR MRLM NIL=
201703040500 METAR MRLM NIL=
201703040600 METAR MRLM NIL=
201703040700 METAR MRLM NIL=
201703040800 METAR MRLM NIL=
201703040900 METAR MRLM NIL=
201703041000 METAR MRLM NIL=
201703041100 METAR MRLM NIL=
201703041200 METAR MRLM 041200Z 31003KT 8000 DZ BKN010 22/22 A2997=
201703041300 METAR MRLM 041300Z 26005KT 6000 DZ BKN010 23/22 A2998 RERA=
201703041400 METAR MRLM 041400Z 25003KT 9999 -DZ BKN015 23/23 A3000=
201703041500 METAR MRLM 041500Z 25004KT 9999 BKN015 24/23 A3001=
201703041600 METAR MRLM 041600Z 21003KT 9999 DZ BKN020 26/24 A3002=
201703041700 METAR MRLM 041700Z 25003KT 9999 BKN020 27/23 A2999=
201703041800 METAR MRLM 041800Z 07009KT 9999 BKN025 29/23 A2997=
201703041900 METAR MRLM 041900Z 07010KT 9999 BKN030 29/22 A2994=
201703042000 METAR MRLM 042000Z 06008KT 9999 SCT030 29/23 A2992=
201703042100 METAR MRLM 042100Z 05008KT 9999 FEW030 29/23 A2989=
201703042200 METAR MRLM 042200Z 05005KT 9999 SCT030 28/22 A2990=
201703042300 METAR MRLM 042300Z 26002KT 9999 BKN020 26/22 A2990=
201703050000 METAR MRLM 050000Z 00000KT 9999 BKN015 25/22 A2993=
201703050100 METAR MRLM NIL=
201703050200 METAR MRLM NIL=
201703050300 METAR MRLM NIL=
201703050400 METAR MRLM NIL=
201703050500 METAR MRLM NIL=
201703050600 METAR MRLM NIL=
201703050700 METAR MRLM NIL=
201703050800 METAR MRLM NIL=
201703050900 METAR MRLM NIL=
201703051000 METAR MRLM NIL=
201703051100 METAR MRLM NIL=
201703051200 METAR MRLM 051200Z 25002KT 9999 FEW010 SCT080 20/19 A2992=
201703051300 METAR MRLM 051300Z 26002KT 9999 FEW010 SCT080 22/20 A2993=
201703051400 METAR MRLM 051400Z 25004KT 9999 FEW015 SCT090 25/21 A2995=
201703051500 METAR MRLM 051500Z 28004KT 9999 FEW020 SCT100 28/22 A2996=
201703051600 METAR MRLM 051600Z 08003KT 9999 FEW025 SCT120 29/22 A2996=
201703051700 METAR MRLM 051700Z 01007KT 9999 FEW025 SCT120 29/22 A2994=
201703051800 METAR MRLM 051800Z 05007KT 9999 FEW030 BKN130 29/22 A2992=
201703051900 METAR MRLM 051900Z 03009KT 9999 FEW030 BKN130 29/22 A2990=
201703052000 METAR MRLM 052000Z 03005KT 9999 FEW030 BKN130 29/21 A2987=
201703052100 METAR MRLM 052100Z 01008KT 9999 FEW030 BKN130 28/22 A2985=
201703052200 METAR MRLM 052200Z 04015KT 9999 VCSH FEW020 BKN120 26/22 A2985=
201703052300 METAR MRLM 052300Z 28002KT 8000 VCSH FEW020 BKN110 26/22 A2985=
201703060000 METAR MRLM 060000Z 28005KT 8000 -DZ FEW015 BKN100 23/22 A2987=
201703060100 METAR MRLM NIL=
201703060200 METAR MRLM NIL=
201703060300 METAR MRLM NIL=
201703060400 METAR MRLM NIL=
201703060500 METAR MRLM NIL=
201703060600 METAR MRLM NIL=
201703060700 METAR MRLM NIL=
201703060800 METAR MRLM NIL=
201703060900 METAR MRLM NIL=
201703061000 METAR MRLM NIL=
201703061100 METAR MRLM NIL=
201703061200 METAR MRLM 061200Z 00000KT 6000 DZ SCT010 BKN080 22/21 A2990=
201703061300 METAR MRLM 061300Z 27005KT 7000 -DZ FEW010 BKN080 22/22 A2991=
201703061400 METAR MRLM 061400Z 29005KT 7000 -DZ FEW010 BKN080 23/22 A2992=
201703061500 METAR MRLM 061500Z 28005KT 8000 FEW010 BKN080 24/23 A2994 REDZ=
201703061600 METAR MRLM 061600Z 25003KT 8000 FEW015 BKN090 26/23 A2994=
201703061700 METAR MRLM 061700Z 36010KT 6000 DZ FEW015 BKN090 24/23 A2994=
201703061800 METAR MRLM 061800Z 27005KT 7000 FEW015 BKN090 24/23 A2991 REDZ=
201703061900 METAR MRLM 061900Z 25006KT 8000 FEW015 BKN090 24/22 A2990=
201703062000 METAR MRLM 062000Z 26005KT 9999 FEW020 BKN100 25/23 A2987=
201703062100 METAR MRLM 062100Z 27004KT 9999 FEW020 BKN100 27/23 A2985=
201703062200 METAR MRLM 062200Z 00000KT 9999 FEW020 BKN100 27/22 A2984=
201703062300 METAR MRLM 062300Z 00000KT 9999 FEW020 BKN100 27/23 A2985=
201703070000 METAR MRLM 070000Z 31002KT 9999 FEW015 BKN090 26/23 A2986=
201703070100 METAR MRLM NIL=
201703070200 METAR MRLM NIL=
201703070300 METAR MRLM NIL=
201703070400 METAR MRLM NIL=
201703070500 METAR MRLM NIL=
201703070600 METAR MRLM NIL=
201703070700 METAR MRLM NIL=
201703070800 METAR MRLM NIL=
201703070900 METAR MRLM NIL=
201703071000 METAR MRLM NIL=
201703071100 METAR MRLM NIL=
201703071200 METAR MRLM 071200Z 25004KT 8000 3000N DZ BKN010 22/22 A2993=
201703071300 METAR MRLM 071300Z 26004KT 9999 SCT015 BKN110 22/21 A2995 REDZ=
201703071400 METAR MRLM 071400Z 24004KT 9999 FEW020 BKN120 24/22 A2997=
201703071500 METAR MRLM 071500Z 27004KT 9999 FEW020 SCT130 27/24 A2999=
201703071600 METAR MRLM 071600Z 10003KT 9999 FEW025 SCT130 29/24 A2999=
201703071700 METAR MRLM 071700Z 07005KT 9999 FEW030 SCT250 29/23 A2997=
201703071800 METAR MRLM NIL=
201703071900 METAR MRLM 071900Z 08006KT 9999 FEW030 29/24 A2992=
201703072000 METAR MRLM 072000Z 06007KT 9999 FEW030 29/24 A2989=
201703072100 METAR MRLM 072100Z 07008KT 9999 FEW030 29/24 A2989=
201703072200 METAR MRLM 072200Z 07006KT 9999 SCT030 29/24 A2988=
201703072300 METAR MRLM 072300Z 08007KT 9999 SCT020 28/24 A2990=
201703080000 METAR MRLM 080000Z 09005KT 9999 SCT020 27/23 A2992=
201703080100 METAR MRLM NIL=
201703080200 METAR MRLM NIL=
201703080300 METAR MRLM NIL=
201703080400 METAR MRLM NIL=
201703080500 METAR MRLM NIL=
201703080600 METAR MRLM NIL=
201703080700 METAR MRLM NIL=
201703080800 METAR MRLM NIL=
201703080900 METAR MRLM NIL=
201703081000 METAR MRLM NIL=
201703081100 METAR MRLM NIL=
201703081200 METAR MRLM 081200Z 25004KT 9999 FEW015 SCT250 22/21 A2995=
201703081300 METAR MRLM 081300Z 24003KT CAVOK 23/22 A2997=
201703081400 METAR MRLM 081400Z 00000KT CAVOK 26/22 A2999=
201703081500 METAR MRLM 081500Z 09003KT 9999 FEW025 SCT120 28/23 A3000=
201703081600 METAR MRLM 081600Z 11004KT 9999 FEW030 SCT130 29/23 A3001=
201703081700 METAR MRLM 081700Z 11003KT 9999 FEW030 29/23 A2999=
201703081800 METAR MRLM 081800Z 06007KT CAVOK 29/24 A2996=
201703081900 METAR MRLM 081900Z 08007KT CAVOK 28/24 A2993=
201703082000 METAR MRLM 082000Z 04010KT CAVOK 28/23 A2991=
201703082100 METAR MRLM 082100Z 03006KT CAVOK 28/23 A2989=
201703082200 METAR MRLM 082200Z 04006KT CAVOK 28/22 A2988=
201703082300 METAR MRLM 082300Z 01003KT CAVOK 27/22 A2988=
201703090000 METAR MRLM 090000Z 00000KT CAVOK 26/23 A2989=
201703090100 METAR MRLM NIL=
201703090200 METAR MRLM NIL=
201703090300 METAR MRLM NIL=
201703090400 METAR MRLM NIL=
201703090500 METAR MRLM NIL=
201703090600 METAR MRLM NIL=
201703090700 METAR MRLM NIL=
201703090800 METAR MRLM NIL=
201703090900 METAR MRLM NIL=
201703091000 METAR MRLM NIL=
201703091100 METAR MRLM NIL=
201703091200 METAR MRLM 091200Z 23004KT 8000 FEW010 BKN080 22/21 A2983=
201703091300 METAR MRLM 091300Z 27004KT 9999 FEW010 BKN080 23/22 A2993=
201703091400 METAR MRLM 091400Z 26002KT 9999 FEW015 SCT090 27/23 A2995=
201703091500 METAR MRLM 091500Z 08003KT 9999 FEW020 SCT100 27/24 A2996=
201703091600 METAR MRLM 091600Z 09004KT 9999 FEW025 SCT110 28/23 A2996=
201703091700 METAR MRLM 091700Z 09005KT 9999 FEW025 SCT120 28/22 A2994=
201703091800 METAR MRLM 091800Z 08009KT 9999 FEW025 BKN120 28/23 A2991=
201703091900 METAR MRLM 091900Z 08005KT 9999 FEW025 BKN120 29/23 A2988=
201703092000 METAR MRLM 092000Z 07005KT 9999 FEW025 SCT130 29/24 A2984=
201703092100 METAR MRLM 092100Z 08009KT 9999 FEW025 SCT130 29/24 A2982=
201703092200 METAR MRLM 092200Z 08006KT 9999 FEW025 29/24 A2982=
201703092300 METAR MRLM 092300Z 09007KT 9999 SCT020 28/24 A2984=
201703100000 METAR MRLM 100000Z 09007KT 9999 FEW020 SCT100 28/23 A2985=
201703100100 METAR MRLM NIL=
201703100200 METAR MRLM NIL=
201703100300 METAR MRLM NIL=
201703100400 METAR MRLM NIL=
201703100500 METAR MRLM NIL=
201703100600 METAR MRLM NIL=
201703100700 METAR MRLM NIL=
201703100800 METAR MRLM NIL=
201703100900 METAR MRLM NIL=
201703101000 METAR MRLM NIL=
201703101100 METAR MRLM NIL=
201703101200 METAR MRLM 101200Z 23004KT 8000 FEW010 SCT090 22/22 A2991=
201703101300 METAR MRLM 101300Z 25004KT 8000 VCSH FEW010 BKN090 23/22 A2993=
201703101400 METAR MRLM 101400Z 00000KT 8000 FEW015 BKN090 25/23 A2996=
201703101500 METAR MRLM 101500Z 22004KT 7000 FEW015 BKN090 24/23 A2998 REDZ=
201703101600 METAR MRLM 101600Z 27004KT 8000 FEW020 BKN100 27/22 A2997=
201703101700 METAR MRLM 101700Z 08004KT 9999 FEW025 BKN110 28/23 A2995=
201703101800 METAR MRLM 101800Z 06004KT 9999 FEW025 SCT220 28/24 A2992=
201703101900 METAR MRLM 101900Z 06008KT CAVOK 29/23 A2990=
201703102000 METAR MRLM 102000Z 06008KT 9999 FEW030 29/23 A2987=
201703102100 METAR MRLM 102100Z 05006KT 9999 FEW030 29/23 A2985=
201703102200 METAR MRLM 102200Z 05006KT 9999 FEW030 28/23 A2984=
201703102300 METAR MRLM 102300Z 04004KT 9999 FEW025 SCT200 28/23 A2985=
201703110000 METAR MRLM 110000Z 05006KT 9999 FEW020 SCT200 27/23 A2986=
201703110100 METAR MRLM NIL=
201703110200 METAR MRLM NIL=
201703110300 METAR MRLM NIL=
201703110400 METAR MRLM NIL=
201703110500 METAR MRLM NIL=
201703110600 METAR MRLM NIL=
201703110700 METAR MRLM NIL=
201703110800 METAR MRLM NIL=
201703110900 METAR MRLM NIL=
201703111000 METAR MRLM NIL=
201703111100 METAR MRLM NIL=
201703111200 METAR MRLM 111200Z 24005KT CAVOK 21/20 A2990=
201703111300 METAR MRLM 111300Z 25004KT CAVOK 22/21 A2992=
201703111400 METAR MRLM 111400Z 24003KT CAVOK 26/22 A2995=
201703111500 METAR MRLM 111500Z 09002KT 9999 FEW025 BKN120 27/23 A2997=
201703111600 METAR MRLM 111600Z 00000KT CAVOK 27/23 A2997=
201703111700 METAR MRLM 111700Z 08006KT 9999 FEW030 28/23 A2995=
201703111800 METAR MRLM 111800Z 07004KT 9999 FEW030 28/23 A2992=
201703111900 METAR MRLM 111900Z 05006KT 9999 FEW030 29/24 A2990=
201703112000 METAR MRLM 112000Z 06005KT 9999 FEW030 29/24 A2987=
201703112100 METAR MRLM 112100Z 06007KT 9999 FEW030 29/24 A2985=
201703112200 METAR MRLM 112200Z 05007KT 9999 SCT025 29/24 A2985=
201703112300 METAR MRLM 112300Z 05007KT 9999 FEW025 28/23 A2985=
201703120000 METAR MRLM 120000Z 06006KT 9999 BKN020 28/24 A2988=
201703120100 METAR MRLM NIL=
201703120200 METAR MRLM NIL=
201703120300 METAR MRLM NIL=
201703120400 METAR MRLM NIL=
201703120500 METAR MRLM NIL=
201703120600 METAR MRLM NIL=
201703120700 METAR MRLM NIL=
201703120800 METAR MRLM NIL=
201703120900 METAR MRLM NIL=
201703121000 METAR MRLM NIL=
201703121100 METAR MRLM NIL=
201703121200 METAR MRLM 121200Z 26005KT 9999 FEW010 BKN120 22/21 A2991=
201703121300 METAR MRLM 121300Z 25005KT 9999 FEW015 BKN120 23/22 A2993=
201703121400 METAR MRLM 121400Z 24003KT CAVOK 26/24 A2994=
201703121500 METAR MRLM 121500Z 11003KT 9999 FEW030 28/24 A2995=
201703121600 METAR MRLM 121600Z 09004KT 9999 FEW030 28/24 A2994=
201703121700 METAR MRLM 121700Z 08006KT 9999 FEW025 29/24 A2992=
201703121800 METAR MRLM 121800Z 07007KT 9999 FEW025 29/24 A2990=
201703121900 METAR MRLM 121900Z 06007KT 9999 FEW025 29/24 A2988=
201703122000 METAR MRLM 122000Z 08007KT 9999 FEW025 29/24 A2985=
201703122100 METAR MRLM 122100Z 08006KT 9999 BKN020 29/24 A2983=
201703122200 METAR MRLM 122200Z 07006KT 9999 BKN020 29/24 A2983=
201703122300 METAR MRLM 122300Z 09006KT 9999 BKN020 28/24 A2984=
201703130000 METAR MRLM 130000Z 08005KT 9999 BKN015 28/23 A2987=
201703130100 METAR MRLM NIL=
201703130200 METAR MRLM NIL=
201703130300 METAR MRLM NIL=
201703130400 METAR MRLM NIL=
201703130500 METAR MRLM NIL=
201703130600 METAR MRLM NIL=
201703130700 METAR MRLM NIL=
201703130800 METAR MRLM NIL=
201703130900 METAR MRLM NIL=
201703131000 METAR MRLM NIL=
201703131100 METAR MRLM NIL=
201703131200 METAR MRLM 131200Z 24004KT 9999 FEW010 SCT200 21/20 A2989=
201703131300 METAR MRLM 131300Z 24004KT 9999 FEW010 SCT200 22/21 A2991=
201703131400 METAR MRLM 131400Z 25004KT CAVOK 25/22 A2992=
201703131500 METAR MRLM 131500Z 11002KT 9999 FEW020 BKN220 28/23 A2993=
201703131600 METAR MRLM 131600Z 09005KT 9999 FEW025 BKN220 28/23 A2992=
201703131700 METAR MRLM 131700Z 10006KT 9999 FEW025 SCT220 29/23 A2991=
201703131800 METAR MRLM 131800Z 09006KT 9999 FEW030 29/23 A2988=
201703131900 METAR MRLM 131900Z 08007KT 9999 FEW030 29/23 A2985=
201703132000 METAR MRLM 132000Z 08007KT 9999 FEW030 29/24 A2982=
201703132100 METAR MRLM 132100Z 06006KT 9999 FEW030 29/24 A2981=
201703132200 METAR MRLM 132200Z 06007KT 9999 FEW030 29/23 A2981=
201703132300 METAR MRLM 132300Z 05004KT 9999 SCT025 28/24 A2982=
201703140000 METAR MRLM 140000Z 02004KT 9999 BKN020 28/24 A2983=
201703140100 METAR MRLM NIL=
201703140200 METAR MRLM NIL=
201703140300 METAR MRLM NIL=
201703140400 METAR MRLM NIL=
201703140500 METAR MRLM NIL=
201703140600 METAR MRLM NIL=
201703140700 METAR MRLM NIL=
201703140800 METAR MRLM NIL=
201703140900 METAR MRLM NIL=
201703141000 METAR MRLM NIL=
201703141100 METAR MRLM NIL=
201703141200 METAR MRLM 141200Z 25005KT 9999 SCT010 22/21 A2992 NOSIG=
201703141300 METAR MRLM 141300Z 08007KT CAVOK 21/14 A3006 NOSIG=
201703141400 METAR MRLM 141400Z 00000KT 9999 FEW015 SCT090 25/23 A2997=
201703141500 METAR MRLM 141500Z 02007KT 9999 FEW020 BKN100 28/23 A3000=
201703141600 METAR MRLM 141600Z 32003KT 9999 FEW025 BKN110 28/22 A3000=
201703141700 METAR MRLM 141700Z 04009KT 9999 FEW025 BKN110 28/23 A2999=
201703141800 METAR MRLM 141800Z 05009KT 9999 FEW025 BKN110 28/23 A2997=
201703141900 METAR MRLM 141900Z 10003KT 9999 FEW020 BKN100 26/23 A2994=
201703142000 METAR MRLM 142000Z 08004KT 9999 FEW020 BKN100 28/23 A2991=
201703142100 METAR MRLM 142100Z 09004KT 9999 FEW020 BKN100 28/22 A2988=
201703142200 METAR MRLM 142200Z 08003KT CAVOK 29/23 A2988 NOSIG=
201703142218 METAR MRLM 142200 08003KT CAVOK 29/23 A2988 NOSIG=
201703142300 METAR MRLM 142300Z 09005KT CAVOK 28/23 A2989=
201703142306 METAR MRLM 150000Z 00000KT CAVOK 27/23 A2989=
201703150000 METAR MRLM 150000Z 00000KT CAVOK 27/23 A2989=
201703150100 METAR MRLM NIL=
201703150200 METAR MRLM NIL=
201703150300 METAR MRLM 150300Z 10014G24KT 9999 FEW040 BKN180 23/16 A3006 NOSIG=
201703150400 METAR MRLM NIL=
201703150500 METAR MRLM NIL=
201703150600 METAR MRLM NIL=
201703150700 METAR MRLM NIL=
201703150800 METAR MRLM NIL=
201703150900 METAR MRLM NIL=
201703151000 METAR MRLM NIL=
201703151100 METAR MRLM NIL=
201703151200 METAR MRLM 151200Z 26005KT 9999 BKN015 23/22 A2996=
201703151300 METAR MRLM 151300Z 25006KT 9999 SCT015 BKN110 23/22 A2997=
201703151400 METAR MRLM 151400Z 25006KT 9999 FEW020 BKN120 25/23 A3000=
201703151500 METAR MRLM 151500Z 23003KT 9999 FEW020 BKN130 28/24 A3002=
201703151600 METAR MRLM 151600Z 13006KT 9999 FEW030 29/23 A3002=
201703151700 METAR MRLM 151700Z 10004KT 9999 FEW030 29/23 A3001=
201703151800 METAR MRLM 151800Z 13007KT 9999 FEW035 30/23 A2998=
201703151900 METAR MRLM 151900Z 09008KT 9999 FEW035 SCT130 30/23 A2997=
201703152000 METAR MRLM NIL=
201703152100 METAR MRLM NIL=
201703152200 METAR MRLM NIL=
201703152300 METAR MRLM NIL=
201703160000 METAR MRLM NIL=
201703160100 METAR MRLM NIL=
201703160200 METAR MRLM NIL=
201703160300 METAR MRLM NIL=
201703160400 METAR MRLM NIL=
201703160500 METAR MRLM NIL=
201703160600 METAR MRLM NIL=
201703160700 METAR MRLM NIL=
201703160800 METAR MRLM NIL=
201703160900 METAR MRLM NIL=
201703161000 METAR MRLM NIL=
201703161100 METAR MRLM NIL=
201703161200 METAR MRLM 161200Z 00000KT 9999 BKN015 SCT100 22/20 A2997=
201703161300 METAR MRLM 161300Z 12014KT CAVOK 23/14 A3005 NOSIG=
201703161400 METAR MRLM 161400Z 24004KT CAVOK 26/22 A3000=
201703161500 METAR MRLM 161500Z 00000KT 9999 FEW030 28/22 A3001=
201703161600 METAR MRLM 161600Z 10004KT 9999 FEW030 28/23 A3000=
201703161700 METAR MRLM 161700Z 06006KT 9999 FEW030 SCT130 29/23 A2998=
201703161800 METAR MRLM 161800Z 07016KT 9999 FEW025 BKN130 28/23 A2998=
201703161900 METAR MRLM 161900Z 06010KT 9999 FEW025 BKN120 27/22 A2995=
201703162000 METAR MRLM 162000Z 05011KT 9999 FEW025 BKN120 27/23 A2993=
201703162100 METAR MRLM 162100Z 08006KT 9999 FEW025 BKN130 27/22 A2992=
201703162200 METAR MRLM NIL=
201703162300 METAR MRLM NIL=
201703170000 METAR MRLM NIL=
201703170100 METAR MRLM NIL=
201703170200 METAR MRLM NIL=
201703170300 METAR MRLM NIL=
201703170400 METAR MRLM NIL=
201703170500 METAR MRLM NIL=
201703170600 METAR MRLM NIL=
201703170700 METAR MRLM NIL=
201703170800 METAR MRLM NIL=
201703170900 METAR MRLM NIL=
201703171000 METAR MRLM NIL=
201703171100 METAR MRLM NIL=
201703171200 METAR MRLM 171200Z 22004KT 9999 VCSH FEW010 BKN080 22/21 A3000=
201703171215 METAR MRLM 181200Z 00000KT CAVOK 23/22 A2995=
201703171300 METAR MRLM 171300Z 23003KT 9999 FEW010 SCT080 23/21 A3001=
201703171313 METAR MRLM 181300Z 26002KT CAVOK 24/23 A2997=
201703171400 METAR MRLM 171400Z 24004KT CAVOK 27/22 A3002=
201703171500 METAR MRLM 171500Z 20002KT 9999 FEW025 BKN220 29/21 A3003=
201703171600 METAR MRLM 171600Z 09004KT 9999 FEW030 BKN220 29/21 A3002=
201703171700 METAR MRLM 171700Z 06007KT 9999 FEW030 BKN220 29/21 A2999=
201703171800 METAR MRLM 171800Z 05008KT 9999 FEW030 BKN220 30/22 A2996=
201703171900 METAR MRLM 171900Z 06010KT 9999 FEW030 BKN120 29/22 A2994=
201703172000 METAR MRLM 172000Z 06008KT CAVOK 29/22 A2991=
201703172100 METAR MRLM 172100Z 02006KT 9999 FEW030 BKN120 28/23 A2990=
201703172200 METAR MRLM 172200Z 04003KT 9999 FEW030 BKN120 28/23 A2990=
201703172300 METAR MRLM 172300Z 04006KT 9999 FEW030 BKN120 28/22 A2991=
201703180000 METAR MRLM 180000Z 03006KT 9999 FEW025 BKN110 28/21 A2992=
201703180100 METAR MRLM NIL=
201703180200 METAR MRLM NIL=
201703180300 METAR MRLM NIL=
201703180400 METAR MRLM NIL=
201703180500 METAR MRLM NIL=
201703180600 METAR MRLM NIL=
201703180700 METAR MRLM NIL=
201703180800 METAR MRLM NIL=
201703180900 METAR MRLM NIL=
201703181000 METAR MRLM NIL=
201703181100 METAR MRLM NIL=
201703181200 METAR MRLM 181200Z 00000KT CAVOK 23/22 A2995=
201703181300 METAR MRLM 181300Z 26002KT CAVOK 24/23 A2997=
201703181400 METAR MRLM 181400Z 30002KT 9999 FEW015 BKN100 26/23 A3000=
201703181500 METAR MRLM 181500Z 36009KT 9999 FEW015 BKN100 26/23 A3002=
201703181600 METAR MRLM 181600Z 17006KT 9999 FEW015 BKN100 25/23 A3003=
201703181700 METAR MRLM 181700Z 21003KT 9999 FEW020 BKN100 26/22 A3000=
201703181800 METAR MRLM 181800Z 17003KT 9999 FEW025 BKN110 28/22 A2997=
201703181900 METAR MRLM 181900Z 10004KT 9999 FEW030 SCT120 29/22 A2994=
201703182000 METAR MRLM 182000Z 11005KT 9999 FEW030 29/23 A2992=
201703182100 METAR MRLM 182100Z 10006KT 9999 FEW030 29/23 A2990=
201703182200 METAR MRLM 182200Z 11006KT CAVOK 29/23 A2990=
201703182300 METAR MRLM 182300Z 10006KT CAVOK 29/23 A2991 NOSIG=
201703190000 METAR MRLM 190000Z 09006KT CAVOK 28/22 A2993 NOSIG=
201703190100 METAR MRLM NIL=
201703190200 METAR MRLM NIL=
201703190300 METAR MRLM NIL=
201703190400 METAR MRLM NIL=
201703190500 METAR MRLM NIL=
201703190600 METAR MRLM NIL=
201703190700 METAR MRLM NIL=
201703190800 METAR MRLM NIL=
201703190900 METAR MRLM NIL=
201703191000 METAR MRLM NIL=
201703191100 METAR MRLM NIL=
201703191200 METAR MRLM 191200Z 00000KT 9999 FEW015 SCT110 21/20 A2998=
201703191300 METAR MRLM 191300Z 23005KT 9999 FEW015 SCT110 22/21 A2999=
201703191400 METAR MRLM 191400Z 28003KT 9999 FEW025 25/23 A3001=
201703191500 METAR MRLM 191500Z 08002KT 9999 FEW030 BKN250 28/23 A3002=
201703191600 METAR MRLM 191600Z 08003KT 9999 FEW030 BKN250 28/23 A3001=
201703191700 METAR MRLM 191700Z 04007KT 9999 FEW030 BKN240 29/23 A3000=
201703191800 METAR MRLM 191800Z 04007KT CAVOK 29/23 A2997 NOSIG=
201703191900 METAR MRLM 191900Z 05007KT CAVOK 28/22 A2995 NOSIG=
201703192000 METAR MRLM 192000Z 05006KT 9999 FEW030 BKN240 29/23 A2992=
201703192100 METAR MRLM 192100Z 05006KT 9999 FEW030 BKN130 29/23 A2990=
201703192200 METAR MRLM 192200Z 05005KT 9999 FEW030 SCT130 28/22 A2990=
201703192300 METAR MRLM NIL=
201703200000 METAR MRLM 200000Z 06003KT 9999 FEW020 BKN120 28/22 A2995=
201703200100 METAR MRLM NIL=
201703200200 METAR MRLM NIL=
201703200300 METAR MRLM NIL=
201703200400 METAR MRLM NIL=
201703200500 METAR MRLM NIL=
201703200600 METAR MRLM NIL=
201703200700 METAR MRLM NIL=
201703200800 METAR MRLM NIL=
201703200900 METAR MRLM NIL=
201703201000 METAR MRLM NIL=
201703201100 METAR MRLM NIL=
201703201200 METAR MRLM 201200Z 25005KT CAVOK 21/20 A2997=
201703201300 METAR MRLM 201300Z 26003KT 9999 FEW020 BKN130 23/21 A3000=
201703201400 METAR MRLM 201400Z 25003KT 9999 FEW020 BKN130 26/22 A3002=
201703201500 METAR MRLM 201500Z 07007KT 9999 SCT030 BKN120 26/20 A3002=
201703201600 METAR MRLM 201600Z 35002KT CAVOK 29/22 A3001=
201703201700 METAR MRLM 201700Z 05009KT 9999 FEW030 29/23 A2999=
201703201800 METAR MRLM 201800Z 03009KT 9999 FEW030 29/22 A2997=
201703201900 METAR MRLM 201900Z 03009KT CAVOK 30/22 A2994=
201703202000 METAR MRLM 202000Z 03008KT CAVOK 29/22 A2992=
201703202100 METAR MRLM 202100Z 03008KT 9999 FEW030 29/23 A2990=
201703202200 METAR MRLM 202200Z 02008KT 9999 FEW035 SCT130 29/23 A2990=
201703202300 METAR MRLM NIL=
201703210000 METAR MRLM NIL=
201703210100 METAR MRLM NIL=
201703210200 METAR MRLM NIL=
201703210300 METAR MRLM NIL=
201703210400 METAR MRLM NIL=
201703210500 METAR MRLM NIL=
201703210600 METAR MRLM NIL=
201703210700 METAR MRLM NIL=
201703210800 METAR MRLM NIL=
201703210900 METAR MRLM NIL=
201703211000 METAR MRLM NIL=
201703211100 METAR MRLM NIL=
201703211200 METAR MRLM 211200Z 27003KT 9999 FEW010 BKN080 22/22 A2997=
201703211300 METAR MRLM 211300Z 29003KT 9999 FEW010 BKN080 24/22 A2998=
201703211400 METAR MRLM 211400Z 30006KT 9999 FEW010 BKN080 24/22 A2999=
201703211500 METAR MRLM 211500Z 32005KT 9999 -DZ FEW010 BKN080 25/23 A3001=
201703211600 METAR MRLM 211600Z 33007KT 8000 -DZ FEW010 BKN080 25/23 A3001=
201703211700 METAR MRLM 211700Z 34008KT 7000 DZ FEW010 BKN080 25/23 A3000=
201703211800 METAR MRLM 211800Z 01006KT 7000 -DZ FEW010 BKN080 24/23 A2998=
201703211900 METAR MRLM 211900Z 03004KT 8000 FEW010 BKN080 25/23 A2995=
201703212000 METAR MRLM 212000Z 34005KT 6000 -DZ FEW010 BKN080 24/22 A2992=
201703212100 METAR MRLM 212100Z 23005KT 8000 FEW010 BKN080 24/23 A2989=
201703212200 METAR MRLM 212200Z 25005KT 9999 FEW010 BKN080 25/23 A2989=
201703212300 METAR MRLM 212300Z 29002KT 9999 FEW010 BKN080 25/23 A2990=
201703220000 METAR MRLM 220000Z 24002KT 9999 VCSH SCT010 BKN080 25/23 A2992=
201703220100 METAR MRLM NIL=
201703220200 METAR MRLM NIL=
201703220300 METAR MRLM NIL=
201703220400 METAR MRLM NIL=
201703220500 METAR MRLM NIL=
201703220600 METAR MRLM NIL=
201703220700 METAR MRLM NIL=
201703220800 METAR MRLM NIL=
201703220900 METAR MRLM NIL=
201703221000 METAR MRLM NIL=
201703221100 METAR MRLM NIL=
201703221200 METAR MRLM 221200Z 24005KT 9999 SCT010 BKN080 22/22 A2994=
201703221300 METAR MRLM 221300Z COR 25005KT 9999 SCT010 BKN080 22/22 A2994=
201703221400 METAR MRLM 221400Z COR 24003KT 9999 -DZ SCT010 BKN080 23/22 A2996=
201703221500 METAR MRLM 221500Z 25005KT 9999 FEW015 BKN090 25/23 A2996=
201703221600 METAR MRLM 221600Z 22003KT 9999 FEW015 BKN090 26/23 A2996=
201703221700 METAR MRLM 221700Z 01004KT 9999 -DZ FEW015 BKN090 25/23 A2994=
201703221800 METAR MRLM 221800Z 02007KT 9999 FEW020 BKN100 28/24 A2992=
201703221900 METAR MRLM 221900Z 02008KT 9999 FEW020 BKN200 28/23 A2989=
201703222000 METAR MRLM 222000Z 02012KT 9999 FEW020 BKN200 28/23 A2988=
201703222100 METAR MRLM 222100Z 02009KT 9999 FEW020 SCT100 BKN200 28/23 A2987=
201703222200 METAR MRLM 222200Z 03009KT 9999 FEW020 BKN200 27/23 A2987=
201703222300 METAR MRLM 222300Z 01007KT 9999 FEW020 BKN100 27/23 A2989=
201703230000 METAR MRLM 230000Z 35006KT 9999 FEW015 BKN100 26/22 A2990=
201703230100 METAR MRLM NIL=
201703230200 METAR MRLM NIL=
201703230300 METAR MRLM NIL=
201703230400 METAR MRLM NIL=
201703230500 METAR MRLM NIL=
201703230600 METAR MRLM NIL=
201703230700 METAR MRLM NIL=
201703230800 METAR MRLM NIL=
201703230900 METAR MRLM NIL=
201703231000 METAR MRLM NIL=
201703231100 METAR MRLM NIL=
201703231200 METAR MRLM 231200Z 28005KT 9999 DZ SCT015 BKN100 22/22 A2996=
201703231300 METAR MRLM 231300Z 31013KT 8000 +DZ BKN015 22/22 A2999=
201703231400 METAR MRLM 231400Z 22003KT 9999 FEW020 BKN110 23/22 A3001 REDZ=
201703231500 METAR MRLM 231500Z 24006KT 9999 SCT020 OVC110 24/22 A3002=
201703231600 METAR MRLM 231600Z 28004KT 9999 SCT020 OVC120 25/22 A3002=
201703231700 METAR MRLM 231700Z 29007KT 9999 SCT020 BKN120 25/23 A3001=
201703231800 METAR MRLM 231800Z 30005KT 9999 FEW020 BKN130 26/22 A2998=
201703231900 METAR MRLM 231900Z 32005KT 9999 BKN025 26/22 A2996=
201703232000 METAR MRLM 232000Z 34003KT 9999 SCT020 SCT130 26/22 A2994=
201703232100 METAR MRLM 232100Z 35007KT 9999 DZ SCT015 OVC110 24/22 A2993=
201703232200 METAR MRLM 232200Z 27005KT 9999 FEW020 BKN120 24/23 A2991 REDZ=
201703232300 METAR MRLM 232300Z 27004KT CAVOK 24/22 A2992=
201703240000 METAR MRLM 240000Z 06003KT FEW015 BKN120 23/21 A2994=
201703240100 METAR MRLM NIL=
201703240200 METAR MRLM NIL=
201703240300 METAR MRLM NIL=
201703240400 METAR MRLM NIL=
201703240500 METAR MRLM NIL=
201703240600 METAR MRLM NIL=
201703240700 METAR MRLM NIL=
201703240800 METAR MRLM NIL=
201703240900 METAR MRLM NIL=
201703241000 METAR MRLM NIL=
201703241100 METAR MRLM NIL=
201703241200 METAR MRLM 241200Z 23003KT 8000 DZ SCT015 SCT090 22/21 A2998=
201703241300 METAR MRLM 241300Z 27006KT 3000 -RA OVC015 22/21 A3001=
201703241400 METAR MRLM 241400Z 28007KT 7000 DZ SCT015 OVC090 22/21 A3003=
201703241500 METAR MRLM 241500Z 28006KT 9999 DZ FEW015 OVC100 23/22 A3003=
201703241600 METAR MRLM 241600Z 28006KT 9999 -DZ FEW020 BKN100 23/21 A3003=
201703241700 METAR MRLM 241700Z 25005KT 9999 -DZ SCT020 BKN110 24/22 A3002=
201703241800 METAR MRLM 241800Z 23004KT 9999 FEW020 BKN110 24/22 A3001=
201703241900 METAR MRLM 241900Z 25004KT 8000 DZ SCT015 BKN100 24/22 A2999=
201703242000 METAR MRLM 242000Z 25006KT 9999 FEW015 BKN110 24/22 A2994 REDZ=
201703242100 METAR MRLM 242100Z 25006KT 9999 FEW020 BKN130 25/22 A2991=
201703242200 METAR MRLM 242200Z 26004KT CAVOK 26/22 A2990 NOSIG=
201703242300 METAR MRLM 242300Z 00000KT CAVOK 26/22 A2990=
201703250000 METAR MRLM 250000Z 00000KT CAVOK 25/22 A2992=
201703250100 METAR MRLM NIL=
201703250200 METAR MRLM NIL=
201703250300 METAR MRLM NIL=
201703250400 METAR MRLM NIL=
201703250500 METAR MRLM NIL=
201703250600 METAR MRLM NIL=
201703250700 METAR MRLM NIL=
201703250800 METAR MRLM NIL=
201703250900 METAR MRLM NIL=
201703251000 METAR MRLM NIL=
201703251100 METAR MRLM NIL=
201703251200 METAR MRLM 251200Z COR 00000KT CAVOK 21/20 A2993=
201703251300 METAR MRLM 251300Z COR 24003KT CAVOK 23/21 A2995=
201703251400 METAR MRLM 251400Z 00000KT 9999 FEW025 SCT100 27/22 A2997=
201703251500 METAR MRLM 251500Z 09002KT 9999 FEW025 SCT110 29/23 A2998=
201703251600 METAR MRLM 251600Z 09011KT 9999 FEW020 BKN110 26/23 A2999=
201703251700 METAR MRLM 251700Z 06009KT 9999 FEW020 BKN110 27/23 A2997=
201703251800 METAR MRLM 251800Z 07002KT 9999 FEW025 BKN120 28/23 A2994=
201703251900 METAR MRLM 251900Z 08005KT 9999 FEW025 SCT120 29/21 A2991=
201703252000 METAR MRLM 252000Z 03007KT 9999 FEW030 SCT120 29/22 A2989=
201703252100 METAR MRLM 252100Z 03006KT 9999 FEW030 SCT120 29/22 A2987=
201703252200 METAR MRLM 252200Z 04004KT 9999 FEW030 SCT120 28/22 A2986=
201703252300 METAR MRLM 252300Z COR 01004KT CAVOK 27/22 A2986=
201703260000 METAR MRLM 260000Z 32002KT 9999 FEW020 BKN100 26/22 A2988=
201703260100 METAR MRLM NIL=
201703260200 METAR MRLM NIL=
201703260300 METAR MRLM NIL=
201703260400 METAR MRLM NIL=
201703260500 METAR MRLM NIL=
201703260600 METAR MRLM NIL=
201703260700 METAR MRLM NIL=
201703260800 METAR MRLM NIL=
201703260900 METAR MRLM NIL=
201703261000 METAR MRLM NIL=
201703261100 METAR MRLM NIL=
201703261200 METAR MRLM 261200Z COR 24003KT CAVOK 22/21 A2991=
201703261300 METAR MRLM 261300Z 23004KT 9999 FEW015 SCT090 24/21 A2993=
201703261400 METAR MRLM 261400Z COR 19002KT CAVOK 27/22 A2995=
201703261500 METAR MRLM 261500Z 06003KT 9999 FEW025 SCT100 28/23 A2996=
201703261600 METAR MRLM 261600Z 09004KT 9999 FEW025 BKN200 28/23 A2996=
201703261700 METAR MRLM 261700Z 06005KT 9999 FEW025 BKN200 29/23 A2995=
201703261800 METAR MRLM 261800Z 06006KT 9999 FEW030 BKN220 29/23 A2992=
201703261900 METAR MRLM 261900Z 04008KT 9999 FEW030 BKN220 29/24 A2990=
201703262000 METAR MRLM 262000Z 04008KT 9999 FEW030 BKN220 29/24 A2988=
201703262100 METAR MRLM 262100Z 04009KT 9999 FEW030 SCT130 BKN220 28/23 A2985=
201703262200 METAR MRLM 262200Z 05006KT 9999 FEW025 SCT130 BKN220 28/23 A2985=
201703262300 METAR MRLM 262300Z 04004KT 9999 FEW025 BKN120 28/22 A2986=
201703270000 METAR MRLM 270000Z 00000KT 9999 FEW020 BKN110 27/22 A2988=
201703270100 METAR MRLM NIL=
201703270200 METAR MRLM NIL=
201703270300 METAR MRLM NIL=
201703270400 METAR MRLM NIL=
201703270500 METAR MRLM NIL=
201703270600 METAR MRLM NIL=
201703270700 METAR MRLM NIL=
201703270800 METAR MRLM NIL=
201703270900 METAR MRLM NIL=
201703271000 METAR MRLM NIL=
201703271100 METAR MRLM NIL=
201703271200 METAR MRLM 271200Z 26002KT CAVOK 22/21 A2989=
201703271300 METAR MRLM 271300Z 24004KT CAVOK 24/22 A2992=
201703271400 METAR MRLM 271400Z 00000KT 9999 FEW030 SCT140 28/22 A2994=
201703271500 METAR MRLM 271500Z 09003KT 9999 FEW030 28/22 A2995=
201703271600 METAR MRLM 271600Z 08004KT 9999 FEW030 28/23 A2995=
201703271700 METAR MRLM 271700Z 09006KT 9999 FEW030 29/23 A2994=
201703271800 METAR MRLM 271800Z 08006KT 9999 FEW030 29/23 A2991=
201703271900 METAR MRLM 271900Z 08006KT 9999 FEW035 29/23 A2988=
201703272000 METAR MRLM 272000Z 07006KT 9999 FEW035 29/23 A2984=
201703272100 METAR MRLM 272100Z 06006KT 9999 FEW030 SCT130 28/23 A2982=
201703272200 METAR MRLM 272200Z 07004KT 9999 FEW030 BKN130 28/22 A2982=
201703272300 METAR MRLM 272300Z 08004KT 9999 FEW025 BKN120 28/22 A2982=
201703280000 METAR MRLM 280000Z 00000KT 9999 FEW020 BKN110 27/22 A2983=
201703280100 METAR MRLM NIL=
201703280200 METAR MRLM NIL=
201703280300 METAR MRLM NIL=
201703280400 METAR MRLM NIL=
201703280500 METAR MRLM NIL=
201703280600 METAR MRLM NIL=
201703280700 METAR MRLM NIL=
201703280800 METAR MRLM NIL=
201703280900 METAR MRLM NIL=
201703281000 METAR MRLM NIL=
201703281100 METAR MRLM NIL=
201703281200 METAR MRLM 281200Z 25005KT CAVOK 21/19 A2988=
201703281300 METAR MRLM 281300Z 24005KT CAVOK 23/20 A2990=
201703281400 METAR MRLM 281400Z 23003KT 9999 FEW030 27/21 A2993=
201703281500 METAR MRLM 281500Z 08003KT 9999 FEW030 28/23 A2993=
201703281600 METAR MRLM 281600Z 08005KT 9999 FEW030 28/23 A2992=
201703281700 METAR MRLM 281700Z 09007KT 9999 FEW030 29/24 A2991=
201703281800 METAR MRLM 281800Z 07008KT 9999 FEW030 29/23 A2989=
201703281900 METAR MRLM 281900Z 06006KT 9999 FEW030 29/23 A2986=
201703282000 METAR MRLM 282000Z 08006KT 9999 FEW035 29/22 A2983=
201703282100 METAR MRLM 282100Z 05005KT 9999 FEW030 BKN120 28/22 A2982=
201703282200 METAR MRLM 282200Z 05005KT 9999 FEW025 BKN120 28/22 A2981=
201703282300 METAR MRLM 282300Z 02005KT 9999 FEW025 BKN120 28/22 A2982=
201703290000 METAR MRLM 290000Z 04003KT 9999 FEW020 BKN120 27/22 A2985=
201703290100 METAR MRLM NIL=
201703290200 METAR MRLM NIL=
201703290300 METAR MRLM NIL=
201703290400 METAR MRLM NIL=
201703290500 METAR MRLM NIL=
201703290600 METAR MRLM NIL=
201703290700 METAR MRLM NIL=
201703290800 METAR MRLM NIL=
201703290900 METAR MRLM NIL=
201703291000 METAR MRLM NIL=
201703291100 METAR MRLM NIL=
201703291200 METAR MRLM 291200Z 25005KT 9999 FEW015 22/20 A2987=
201703291300 METAR MRLM 291300Z 24005KT 9999 FEW020 25/21 A2988=
201703291400 METAR MRLM 291400Z 22002KT 9999 FEW020 28/23 A2990=
201703291500 METAR MRLM 291500Z 13006KT 9999 FEW025 29/23 A2991=
201703291600 METAR MRLM 291600Z 11008KT 9999 FEW030 29/23 A2991=
201703291700 METAR MRLM 291700Z 10008KT 9999 FEW030 29/23 A2989=
201703291800 METAR MRLM 291800Z 09008KT 9999 FEW030 30/24 A2988=
201703291900 METAR MRLM 291900Z 07007KT 9999 FEW030 29/24 A2985=
201703292000 METAR MRLM 292000Z 09008KT 9999 FEW030 29/23 A2984=
201703292100 METAR MRLM 292100Z 09006KT 9999 FEW030 29/22 A2982=
201703292200 METAR MRLM 292200Z 08005KT 9999 FEW030 SCT120 28/22 A2982=
201703292300 METAR MRLM 292300Z 06004KT 9999 FEW025 SCT120 28/22 A2981=
201703300000 METAR MRLM 300000Z 10002KT 9999 FEW025 SCT120 28/22 A2983=
201703300100 METAR MRLM NIL=
201703300200 METAR MRLM NIL=
201703300300 METAR MRLM NIL=
201703300400 METAR MRLM NIL=
201703300500 METAR MRLM NIL=
201703300600 METAR MRLM NIL=
201703300700 METAR MRLM NIL=
201703300800 METAR MRLM NIL=
201703300900 METAR MRLM NIL=
201703301000 METAR MRLM NIL=
201703301100 METAR MRLM NIL=
201703301200 METAR MRLM 301200Z 26003KT 9999 FEW015 BKN200 22/20 A2988=
201703301300 METAR MRLM 301300Z 23005KT 9999 FEW020 BKN200 24/20 A2989=
201703301400 METAR MRLM 301400Z 19002KT 9999 FEW025 BKN220 29/22 A2991=
201703301500 METAR MRLM 301500Z 12004KT 9999 FEW025 BKN220 29/23 A2992=
201703301600 METAR MRLM 301600Z 12006KT 9999 FEW030 BKN240 29/23 A2991=
201703301700 METAR MRLM 301700Z 10007KT 9999 FEW030 BKN240 29/23 A2991=
201703301800 METAR MRLM 301800Z 08008KT 9999 FEW030 BKN250 29/24 A2988=
201703301900 METAR MRLM 301900Z 08007KT 9999 FEW030 BKN250 29/24 A2985=
201703302000 METAR MRLM 302000Z 08008KT 9999 FEW030 BKN250 30/23 A2983=
201703302100 METAR MRLM 302100Z 08007KT 9999 FEW030 BKN250 29/24 A2982=
201703302200 METAR MRLM 302200Z 08006KT 9999 FEW025 SCT130 BKN240 29/23 A2981=
201703302300 METAR MRLM 302300Z 10005KT 9999 FEW025 BKN240 28/23 A2982=
201703310000 METAR MRLM 310000Z 11004KT 9999 FEW020 BKN220 28/23 A2982=
201703310100 METAR MRLM NIL=
201703310200 METAR MRLM NIL=
201703310300 METAR MRLM NIL=
201703310400 METAR MRLM NIL=
201703310500 METAR MRLM NIL=
201703310600 METAR MRLM NIL=
201703310700 METAR MRLM NIL=
201703310800 METAR MRLM NIL=
201703310900 METAR MRLM NIL=
201703311000 METAR MRLM NIL=
201703311100 METAR MRLM NIL=
201703311200 METAR MRLM 311200Z 25004KT 9999 FEW020 22/22 A2987=
201703311300 METAR MRLM 311300Z 23002KT 9999 FEW020 24/23 A2988=
201703311400 METAR MRLM 311400Z 13003KT 9999 FEW020 SCT240 28/23 A2991=
201703311500 METAR MRLM 311500Z 13003KT 9999 FEW025 SCT240 28/24 A2992=
201703311600 METAR MRLM 311600Z 11006KT 9999 FEW030 29/24 A2991=
201703311700 METAR MRLM 311700Z 11008KT CAVOK 29/24 A2991=
201703311800 METAR MRLM 311800Z 10009KT CAVOK 30/22 A2988=
201703311900 METAR MRLM 311900Z 10009KT CAVOK 29/24 A2984=
201703312000 METAR MRLM 312000Z 08008KT CAVOK 30/25 A2983=
201703312100 METAR MRLM 312100Z 10007KT 9999 FEW030 SCT250 29/24 A2981=
201703312200 METAR MRLM COR 312200Z 11006KT 9999 SCT030 BKN250 29/24 A2980=
201703312300 METAR MRLM COR 312300Z 11006KT 9999 SCT025 29/24 A2981=
201704010000 METAR MRLM 010000Z 11005KT 9999 SCT020 BKN040 28/23 A2983=
201704010100 METAR MRLM NIL=
201704010200 METAR MRLM NIL=
201704010300 METAR MRLM NIL=
201704010400 METAR MRLM NIL=
201704010500 METAR MRLM NIL=
201704010600 METAR MRLM NIL=
201704010700 METAR MRLM NIL=
201704010800 METAR MRLM NIL=
201704010900 METAR MRLM NIL=
201704011000 METAR MRLM NIL=
201704011100 METAR MRLM NIL=
201704011200 METAR MRLM 011200Z 25005KT CAVOK 22/21 A2990=
201704011300 METAR MRLM 011300Z 25005KT CAVOK 24/22 A2992=
201704011400 METAR MRLM 011400Z 24003KT CAVOK 28/23 A2994=
201704011500 METAR MRLM 011500Z 11004KT CAVOK 28/23 A2994=
201704011600 METAR MRLM 011600Z 06005KT CAVOK 29/23 A2993=
201704011700 METAR MRLM 011700Z 05006KT CAVOK 29/24 A2992=
201704011800 METAR MRLM 011800Z 26007KT CAVOK 29/23 A2990=
201704011900 METAR MRLM COR 011900Z 26005KT CAVOK 29/24 A2997=
201704012000 METAR MRLM 012000Z 06004KT 9999 FEW030 SCT130 29/24 A2985=
201704012100 METAR MRLM 012100Z 06004KT 9999 FEW030 SCT240 29/25 A2984=
201704012200 METAR MRLM 012200Z 03006KT 9999 FEW020 SCT240 29/25 A2984=
201704012300 METAR MRLM 012300Z 04004KT 9999 FEW020 BKN240 28/25 A2985=
201704012347 METAR MRLM 020000Z 06003KT 9999 FEW020 SCT240 28/24 A2987=
201704020000 METAR MRLM 020000Z 06003KT 9999 FEW020 SCT240 28/24 A2987=
201704020100 METAR MRLM NIL=
201704020200 METAR MRLM NIL=
201704020300 METAR MRLM NIL=
201704020400 METAR MRLM NIL=
201704020500 METAR MRLM NIL=
201704020600 METAR MRLM NIL=
201704020700 METAR MRLM NIL=
201704020800 METAR MRLM NIL=
201704020900 METAR MRLM NIL=
201704021000 METAR MRLM NIL=
201704021100 METAR MRLM NIL=
201704021200 METAR MRLM 021200Z 26004KT 9999 VCTS FEW010 BKN080 23/22 A2988=
201704021300 METAR MRLM 021300Z 26003KT 9999 VCTS FEW010 BKN080 24/22 A2990=
201704021400 METAR MRLM 021400Z 24003KT 8000 DZ VCTS FEW010 BKN080 24/23 A2991=
201704021500 METAR MRLM 021500Z 26002KT 9999 -DZ FEW015 BKN090 25/23 A2991=
201704021600 METAR MRLM 021600Z 00000KT 9999 FEW015 BKN090 26/23 A2990=
201704021700 METAR MRLM 021700Z 33004KT 9999 VCTS FEW015 BKN090 26/24 A2990=
201704021800 METAR MRLM 021800Z 33004KT 8000 -DZ VCTS FEW010 BKN090 25/24 A2990=
201704021900 METAR MRLM 021900Z 31006KT 7000 DZ VCTS SCT010 BKN090 24/24 A2986=
201704022000 METAR MRLM 022000Z 28002KT 7000 DZ FEW010 BKN080 24/24 A2983=
201704022100 METAR MRLM 022100Z 28003KT 8000 -DZ FEW010 BKN080 24/24 A2982=
201704022200 METAR MRLM 022200Z 32003KT 8000 -DZ FEW010 BKN080 24/24 A2982=
201704022300 METAR MRLM 022300Z 32003KT 9999 -DZ FEW010 BKN080 24/24 A2983=
201704030000 METAR MRLM 030000Z 29006KT 9999 FEW010 BKN080 24/23 A2983=
201704030100 METAR MRLM NIL=
201704030200 METAR MRLM NIL=
201704030300 METAR MRLM NIL=
201704030400 METAR MRLM NIL=
201704030500 METAR MRLM NIL=
201704030600 METAR MRLM NIL=
201704030700 METAR MRLM NIL=
201704030800 METAR MRLM NIL=
201704030900 METAR MRLM NIL=
201704031000 METAR MRLM NIL=
201704031100 METAR MRLM NIL=
201704031200 METAR MRLM 031200Z 26003KT 9999 FEW015 SCT090 22/22 A2984=
201704031300 METAR MRLM 031300Z 24004KT 9999 FEW015 BKN090 23/23 A2986=
201704031400 METAR MRLM 031400Z 34004KT 9999 FEW015 BKN090 25/23 A2989=
201704031500 METAR MRLM 031500Z 33002KT 9999 VCSH FEW020 BKN100 28/24 A2989=
201704031600 METAR MRLM 031600Z 06003KT 9999 FEW020 BKN100 27/24 A2987=
201704031700 METAR MRLM 031700Z 16002KT 9999 FEW020 BKN110 28/25 A2985=
201704031800 METAR MRLM 031800Z 07005KT 9999 FEW020 BKN120 28/25 A2982=
201704031900 METAR MRLM 031900Z 05005KT 9999 FEW020 SCT120 29/25 A2980=
201704032000 METAR MRLM 032000Z 04005KT 9999 FEW020 SCT120 29/25 A2978=
201704032100 METAR MRLM 032100Z 04004KT 9999 FEW020 BKN120 28/25 A2977=
201704032200 METAR MRLM 032200Z 08003KT 9999 FEW020 BKN120 28/25 A2977=
201704032300 METAR MRLM 032300Z 09002KT 9999 FEW020 BKN120 28/25 A2978=
201704040000 METAR MRLM 040000Z COR 00000KT CAVOK 27/25 A2978=
201704040100 METAR MRLM NIL=
201704040200 METAR MRLM NIL=
201704040300 METAR MRLM NIL=
201704040400 METAR MRLM NIL=
201704040500 METAR MRLM NIL=
201704040600 METAR MRLM NIL=
201704040700 METAR MRLM NIL=
201704040800 METAR MRLM NIL=
201704040900 METAR MRLM NIL=
201704041000 METAR MRLM NIL=
201704041100 METAR MRLM NIL=
201704041200 METAR MRLM 041200Z 00000KT 9999 BKN015 24/23 A2981=
201704041300 METAR MRLM 041300Z 24004KT 9999 BKN020 SCT120 26/24 A2984=
201704041400 METAR MRLM 041400Z 00000KT 9999 FEW020 BKN250 28/25 A2985=
201704041500 METAR MRLM 041500Z 09003KT 9999 FEW030 BKN250 29/25 A2985=
201704041600 METAR MRLM 041600Z 08005KT 9999 FEW030 BKN250 29/25 A2987=
201704041700 METAR MRLM 041700Z 07006KT 9999 FEW030 SCT260 30/26 A2986=
201704041800 METAR MRLM 041800Z 08006KT CAVOK 30/25 A2983=
201704041900 METAR MRLM 041900Z 07005KT CAVOK 30/25 A2981=
201704042000 METAR MRLM 042000Z 06005KT 9999 FEW025 SCT260 30/25 A2978=
201704042100 METAR MRLM 042100Z 06004KT 9999 FEW025 BKN250 30/25 A2976=
201704042200 METAR MRLM 042200Z 09003KT 9999 FEW020 BKN240 29/25 A2977=
201704042300 METAR MRLM 042300Z 12004KT 9999 FEW020 BKN220 29/25 A2977=
201704050000 METAR MRLM 050000Z 12004KT 9999 FEW020 BKN220 28/25 A2981=
201704050100 METAR MRLM NIL=
201704050200 METAR MRLM NIL=
201704050300 METAR MRLM NIL=
201704050400 METAR MRLM NIL=
201704050500 METAR MRLM NIL=
201704050600 METAR MRLM NIL=
201704050700 METAR MRLM NIL=
201704050800 METAR MRLM NIL=
201704050900 METAR MRLM NIL=
201704051000 METAR MRLM NIL=
201704051100 METAR MRLM NIL=
201704051200 METAR MRLM 051200Z 23005KT 9999 BKN010 23/22 A2985 NOSIG=
201704051300 METAR MRLM 051300Z 25004KT 9999 -DZ BKN015 24/23 A2987 NOSIG=
201704051400 METAR MRLM 051400Z 23003KT 9999 BKN015 25/24 A2989 NOSIG=
201704051500 METAR MRLM 051500Z 00000KT 9999 BKN020 29/26 A2990 NOSIG=
201704051600 METAR MRLM 051600Z 10003KT 9999 FEW020 BKN130 29/25 A2989=
201704051700 METAR MRLM 051700Z 11005KT 9999 FEW020 BKN200 30/25 A2987=
201704051800 METAR MRLM 051800Z 10007KT 9999 SCT020 BKN220 30/26 A2985 NOSIG=
201704051900 METAR MRLM 051900Z 09008KT 9999 SCT025 OVC220 31/26 A2983=
201704052000 METAR MRLM 052000Z 08008KT 9999 FEW025 OVC240 30/25 A2981=
201704052100 METAR MRLM 052100Z 08009KT 9999 SCT020 OVC240 30/25 A2980=
201704052200 METAR MRLM 052200Z 07007KT 9999 SCT020 OVC240 29/25 A2980=
201704052300 METAR MRLM 052300Z 07007KT 9999 SCT020 BKN230 29/25 A2981=
201704060000 METAR MRLM 060000Z 06005KT 9999 SCT020 BKN230 29/25 A2983=
201704060100 METAR MRLM NIL=
201704060200 METAR MRLM NIL=
201704060300 METAR MRLM NIL=
201704060400 METAR MRLM NIL=
201704060500 METAR MRLM NIL=
201704060600 METAR MRLM NIL=
201704060700 METAR MRLM NIL=
201704060800 METAR MRLM NIL=
201704060900 METAR MRLM NIL=
201704061000 METAR MRLM NIL=
201704061100 METAR MRLM NIL=
201704061200 METAR MRLM 061200Z 26002KT 8000 FEW010 SCT080 24/23 A2990=
201704061300 METAR MRLM 061300Z 26004KT 8000 FEW015 26/24 A2992=
201704061400 METAR MRLM 061400Z 23004KT 8000 FEW020 28/24 A2994=
201704061500 METAR MRLM 061500Z 03003KT 8000 SCT025 30/25 A2994=
201704061600 METAR MRLM 061600Z 06004KT 9000 SCT025 30/25 A2993=
201704061700 METAR MRLM 061700Z 06005KT 9999 FEW025 30/25 A2991=
201704061800 METAR MRLM 061800Z 06006KT 9999 FEW025 30/25 A2988=
201704061900 METAR MRLM 061900Z 05008KT 9999 FEW025 30/25 A2986=
201704062000 METAR MRLM 062000Z 06006KT 9999 FEW025 30/25 A2984=
201704062100 METAR MRLM 062100Z 05006KT 9999 FEW025 30/25 A2982=
201704062200 METAR MRLM 062200Z 05005KT 9999 FEW025 30/25 A2981=
201704062300 METAR MRLM 062300Z 06005KT 9999 FEW020 SCT100 29/25 A2983=
201704070000 METAR MRLM 070000Z 05006KT 9999 SCT020 SCT100 29/25 A2985=
201704070100 METAR MRLM NIL=
201704070200 METAR MRLM NIL=
201704070300 METAR MRLM NIL=
201704070400 METAR MRLM NIL=
201704070500 METAR MRLM NIL=
201704070600 METAR MRLM NIL=
201704070700 METAR MRLM NIL=
201704070800 METAR MRLM NIL=
201704070900 METAR MRLM NIL=
201704071000 METAR MRLM NIL=
201704071100 METAR MRLM NIL=
201704071200 METAR MRLM 071200Z 06011KT 9999 SCT015 SCT090 28/24 A2991=
201704071300 METAR MRLM 071300Z 06009KT 9000 SCT020 SCT090 28/24 A2993=
201704071400 METAR MRLM 071400Z 06006KT 9000 FEW020 SCT100 29/24 A2995=
201704071500 METAR MRLM 071500Z 06004KT 9999 SCT025 30/24 A2996=
201704071600 METAR MRLM 071600Z 07003KT 9999 FEW025 BKN120 29/25 A2997=
201704071700 METAR MRLM 071700Z 08004KT 9999 FEW025 BKN120 30/25 A2996=
201704071800 METAR MRLM 071800Z 07004KT 9999 FEW025 SCT220 30/25 A2993=
201704071900 METAR MRLM 071900Z 06006KT 9999 FEW025 SCT220 30/25 A2989=
201704072000 METAR MRLM 072000Z 04006KT 9999 FEW025 30/24 A2987=
201704072100 METAR MRLM 072100Z 05008KT 9999 FEW025 30/25 A2985=
201704072200 METAR MRLM 072200Z 04007KT 9999 SCT025 29/25 A2984=
201704072300 METAR MRLM 072300Z 04008KT 9999 SCT020 29/25 A2985=
201704080000 METAR MRLM 080000Z 05008KT 9999 BKN020 29/25 A2986=
201704080100 METAR MRLM NIL=
201704080200 METAR MRLM NIL=
201704080300 METAR MRLM NIL=
201704080400 METAR MRLM NIL=
201704080500 METAR MRLM NIL=
201704080600 METAR MRLM NIL=
201704080700 METAR MRLM NIL=
201704080800 METAR MRLM NIL=
201704080900 METAR MRLM NIL=
201704081000 METAR MRLM NIL=
201704081100 METAR MRLM NIL=
201704081200 METAR MRLM 081200Z 24006KT 8000 +DZ BKN008 23/23 A2990=
201704081300 METAR MRLM 081300Z 25005KT 8000 DZ BKN010 23/22 A2993=
201704081400 METAR MRLM 081400Z 25005KT 9999 -DZ BKN010 23/22 A2996=
201704081500 METAR MRLM 081500Z 25005KT 9999 -DZ BKN010 SCT090 25/23 A2996=
201704081600 METAR MRLM 081600Z 24004KT 9999 VCSH SCT015 BKN100 26/23 A2996=
201704081700 METAR MRLM 081700Z 22005KT 9999 -DZ SCT015 BKN110 24/21 A2995 RERA=
201704081800 METAR MRLM 081800Z 24006KT 9999 FEW015 BKN120 25/22 A2994=
201704081900 METAR MRLM 081900Z 22006KT CAVOK 27/21 A2991=
201704082000 METAR MRLM 082000Z 23005KT CAVOK 29/21 A2988=
201704082100 METAR MRLM 082100Z 23002KT 9999 FEW030 SCT130 29/22 A2986=
201704082200 METAR MRLM 082200Z 00000KT 9999 FEW030 BKN130 29/22 A2984=
201704082300 METAR MRLM 082300Z 18002KT CAVOK 27/23 A2984=
201704090000 METAR MRLM 090000Z 00000KT CAVOK 25/24 A2987=
201704090100 METAR MRLM NIL=
201704090200 METAR MRLM NIL=
201704090300 METAR MRLM NIL=
201704090400 METAR MRLM NIL=
201704090500 METAR MRLM NIL=
201704090600 METAR MRLM NIL=
201704090700 METAR MRLM NIL=
201704090800 METAR MRLM NIL=
201704090900 METAR MRLM NIL=
201704091000 METAR MRLM NIL=
201704091100 METAR MRLM NIL=
201704091200 METAR MRLM 091200Z 25004KT CAVOK 21/19 A2988=
201704091300 METAR MRLM 091300Z 25005KT CAVOK 23/20 A2990=
201704091400 METAR MRLM 091400Z 22004KT 9999 FEW020 BKN110 26/21 A2993=
201704091500 METAR MRLM 091500Z 00000KT CAVOK 26/22 A2995=
201704091600 METAR MRLM 091600Z 11002KT CAVOK 27/22 A2995=
201704091700 METAR MRLM 091700Z 26002KT 9999 FEW030 BKN130 28/22 A2993=
201704091800 METAR MRLM 091800Z 11003KT 9999 FEW035 BKN140 29/21 A2991=
201704091900 METAR MRLM 091900Z 10005KT 9999 FEW035 BKN140 29/22 A2991=
201704092000 METAR MRLM 092000Z 09003KT 9999 FEW035 BKN130 29/22 A2986=
201704092100 METAR MRLM 092100Z 05004KT 9999 FEW035 BKN130 29/22 A2984=
201704092200 METAR MRLM 092200Z 06004KT CAVOK 29/22 A2983=
201704092300 METAR MRLM 092300Z 04005KT CAVOK 28/22 A2984=
201704100000 METAR MRLM 100000Z 05003KT CAVOK 28/23 A2987=
201704100100 METAR MRLM NIL=
201704100200 METAR MRLM NIL=
201704100300 METAR MRLM NIL=
201704100400 METAR MRLM NIL=
201704100500 METAR MRLM NIL=
201704100600 METAR MRLM NIL=
201704100700 METAR MRLM NIL=
201704100800 METAR MRLM NIL=
201704100900 METAR MRLM NIL=
201704101000 METAR MRLM NIL=
201704101100 METAR MRLM NIL=
201704101200 METAR MRLM 101200Z 25005KT CAVOK 21/19 A2988=
201704101300 METAR MRLM 101300Z 24004KT CAVOK 23/20 A2990=
201704101400 METAR MRLM 101400Z 27002KT CAVOK 27/22 A2992=
201704101500 METAR MRLM 101500Z 08002KT 9999 FEW025 BKN220 28/22 A2993=
201704101600 METAR MRLM 101600Z 06004KT 9999 FEW025 BKN220 28/22 A2993=
201704101700 METAR MRLM 101700Z 04007KT 9999 FEW030 BKN240 29/23 A2992=
201704101800 METAR MRLM 101800Z 04008KT 9999 FEW030 BKN240 29/23 A2990=
201704101900 METAR MRLM 101900Z 05007KT 9999 FEW025 BKN120 29/24 A2987=
201704102000 METAR MRLM 102000Z 03009KT 9999 SCT025 BKN120 29/24 A2985=
201704102100 METAR MRLM 102100Z 02008KT 9999 SCT025 BKN120 28/23 A2983=
201704102200 METAR MRLM 102200Z 02006KT 9999 FEW020 BKN120 28/23 A2982=
201704102300 METAR MRLM 102300Z 06012KT 9999 FEW020 BKN120 27/23 A2983=
201704110000 METAR MRLM 110000Z 27003KT 9999 FEW020 BKN110 26/23 A2985=
201704110100 METAR MRLM NIL=
201704110200 METAR MRLM NIL=
201704110300 METAR MRLM NIL=
201704110400 METAR MRLM NIL=
201704110500 METAR MRLM NIL=
201704110600 METAR MRLM NIL=
201704110700 METAR MRLM NIL=
201704110800 METAR MRLM NIL=
201704110900 METAR MRLM NIL=
201704111000 METAR MRLM NIL=
201704111100 METAR MRLM NIL=
201704111200 METAR MRLM 111200Z 26003KT CAVOK 21/20 A2988=
201704111300 METAR MRLM 111300Z 26002KT CAVOK 24/21 A2990=
201704111400 METAR MRLM 111400Z 00000KT CAVOK 28/22 A2992=
201704111500 METAR MRLM 111500Z 14013KT CAVOK 28/23 A2993=
201704111600 METAR MRLM 111600Z 14009KT CAVOK 28/23 A2992=
201704111700 METAR MRLM 111700Z 12009KT 9999 FEW030 SCT240 29/22 A2991=
201704111800 METAR MRLM 111800Z 12006KT 9999 FEW030 SCT240 29/22 A2988=
201704111900 METAR MRLM 111900Z 10007KT 9999 FEW030 BKN240 29/23 A2986=
201704112000 METAR MRLM 112000Z 10007KT CAVOK 29/22 A2983=
201704112100 METAR MRLM 112100Z 08007KT CAVOK 29/22 A2981=
201704112200 METAR MRLM 112200Z 10005KT CAVOK 29/22 A2980=
201704112300 METAR MRLM 112300Z 10005KT 9999 FEW030 SCT240 29/21 A2982=
201704120000 METAR MRLM 120000Z 10004KT 9999 FEW025 SCT220 28/22 A2983=
201704120100 METAR MRLM NIL=
201704120200 METAR MRLM NIL=
201704120300 METAR MRLM NIL=
201704120400 METAR MRLM NIL=
201704120500 METAR MRLM NIL=
201704120600 METAR MRLM NIL=
201704120700 METAR MRLM NIL=
201704120800 METAR MRLM NIL=
201704120900 METAR MRLM NIL=
201704121000 METAR MRLM NIL=
201704121100 METAR MRLM NIL=
201704121200 METAR MRLM 121200Z 00000KT CAVOK 21/20 A2986=
201704121300 METAR MRLM 121300Z 00000KT CAVOK 22/21 A2989=
201704121400 METAR MRLM 121400Z 24003KT 9999 SCT020 BKN130 24/21 A2991=
201704121500 METAR MRLM 121500Z 26004KT CAVOK 27/22 A2990=
201704121600 METAR MRLM 121600Z 09003KT CAVOK 29/22 A2990=
201704121700 METAR MRLM 121700Z 11004KT CAVOK 30/22 A2989=
201704121800 METAR MRLM 121800Z 08006KT 9999 FEW030 30/22 A2987=
201704121900 METAR MRLM 121900Z 09007KT CAVOK 29/22 A2984=
201704122000 METAR MRLM 122000Z 08006KT CAVOK 29/23 A2982=
201704122100 METAR MRLM 122100Z 10006KT CAVOK 30/23 A2981=
201704122200 METAR MRLM 122200Z 10005KT 9999 FEW030 BKN250 29/22 A2980=
201704122300 METAR MRLM 122300Z 09004KT 9999 FEW030 BKN240 29/22 A2982=
201704130000 METAR MRLM 130000Z 09005KT 9999 SCT030 BKN240 29/22 A2984=
201704130100 METAR MRLM NIL=
201704130200 METAR MRLM NIL=
201704130300 METAR MRLM NIL=
201704130400 METAR MRLM NIL=
201704130500 METAR MRLM NIL=
201704130600 METAR MRLM NIL=
201704130700 METAR MRLM NIL=
201704130800 METAR MRLM NIL=
201704130900 METAR MRLM NIL=
201704131000 METAR MRLM NIL=
201704131100 METAR MRLM NIL=
201704131200 METAR MRLM 131200Z 00000KT CAVOK 22/21 A2987=
201704131300 METAR MRLM 131300Z 24004KT CAVOK 26/22 A2988=
201704131400 METAR MRLM 131400Z 07002KT 9999 FEW030 28/23 A2989=
201704131500 METAR MRLM 131500Z 07004KT 9999 FEW030 29/23 A2989=
201704131600 METAR MRLM 131600Z 03007KT 9999 FEW030 29/23 A2989=
201704131700 METAR MRLM 131700Z 04008KT 9999 FEW030 30/24 A2988=
201704131800 METAR MRLM 131800Z 04009KT 9999 FEW030 30/24 A2986=
201704131900 METAR MRLM 131900Z 04009KT 9999 BKN025 29/25 A2983=
201704132000 METAR MRLM 132000Z 05008KT 9999 SCT025 29/24 A2982=
201704132100 METAR MRLM NIL=
201704132200 METAR MRLM 132200Z 07005KT 9999 FEW020 SCT200 28/24 A2980=
201704132300 METAR MRLM 132300Z 04005KT 9999 SCT020 SCT200 28/24 A2981=
201704140000 METAR MRLM 140000Z 04003KT 9999 BKN020 SCT200 28/23 A2984=
201704140100 METAR MRLM NIL=
201704140200 METAR MRLM NIL=
201704140300 METAR MRLM NIL=
201704140400 METAR MRLM NIL=
201704140500 METAR MRLM NIL=
201704140600 METAR MRLM NIL=
201704140700 METAR MRLM NIL=
201704140800 METAR MRLM NIL=
201704140900 METAR MRLM NIL=
201704141000 METAR MRLM NIL=
201704141100 METAR MRLM NIL=
201704141200 METAR MRLM 141200Z 00000KT 9999 FEW010 BKN080 23/22 A2986=
201704141300 METAR MRLM 141300Z 00000KT 8000 DZ FEW010 BKN080 24/23 A2989=
201704141400 METAR MRLM 141400Z 30004KT 9999 -DZ FEW010 BKN080 24/23 A2991=
201704141500 METAR MRLM 141500Z 26006KT 9999 FEW015 BKN090 25/23 A2990=
201704141600 METAR MRLM 141600Z 00000KT 8000 -DZ FEW015 BKN090 27/23 A2991=
201704141700 METAR MRLM 141700Z 27002KT 8000 SCT015 BKN090 25/23 A2992=
201704141800 METAR MRLM 141800Z 23004KT 9999 SCT015 BKN090 26/24 A2990=
201704141900 METAR MRLM 141900Z 20004KT 9999 FEW015 BKN090 25/24 A2988=
201704142000 METAR MRLM 142000Z 22003KT 9999 FEW015 BKN090 26/24 A2986=
201704142100 METAR MRLM 142100Z 21004KT 9999 FEW020 BKN100 27/23 A2984=
201704142200 METAR MRLM 142200Z 21004KT 9999 FEW020 BKN100 26/23 A2983=
201704142300 METAR MRLM 142300Z 23002KT 9999 FEW020 BKN100 26/23 A2983=
201704150000 METAR MRLM 150000Z 00000KT 9999 VCSH FEW015 BKN090 26/24 A2985=
201704150100 METAR MRLM NIL=
201704150200 METAR MRLM NIL=
201704150300 METAR MRLM NIL=
201704150400 METAR MRLM NIL=
201704150500 METAR MRLM NIL=
201704150600 METAR MRLM NIL=
201704150700 METAR MRLM NIL=
201704150800 METAR MRLM NIL=
201704150900 METAR MRLM NIL=
201704151000 METAR MRLM NIL=
201704151100 METAR MRLM NIL=
201704151200 METAR MRLM 151200Z 24004KT 9999 FEW010 BKN080 23/22 A2986=
201704151300 METAR MRLM 151300Z 26002KT CAVOK 25/22 A2988=
201704151400 METAR MRLM 151400Z 26002KT CAVOK 27/22 A2990=
201704151500 METAR MRLM 151500Z 03004KT 9999 FEW020 BKN100 29/23 A2991=
201704151600 METAR MRLM 151600Z 05010KT 6000 SCT015 BKN100 26/24 A2992=
201704151700 METAR MRLM 151700Z 21002KT 8000 SCT015 BKN100 26/23 A2991=
201704151800 METAR MRLM 151800Z 12007KT 9999 FEW015 BKN100 27/24 A2988=
201704151900 METAR MRLM 151900Z 16003KT 9999 FEW015 BKN100 27/23 A2986=
201704152000 METAR MRLM 152000Z 15004KT 9999 FEW020 BKN100 27/23 A2984=
201704152100 METAR MRLM 152100Z 00000KT 9999 FEW020 BKN100 28/23 A2983=
201704152200 METAR MRLM 152200Z 05006KT 9999 VCSH SCT015 BKN100 26/23 A2983=
201704152300 METAR MRLM 152300Z 08010KT 5000 DZ SCT010 BKN090 25/23 A2985=
201704160000 METAR MRLM 160000Z 00000KT 7000 -DZ FEW010 BKN080 24/23 A2986=
201704160100 METAR MRLM NIL=
201704160200 METAR MRLM NIL=
201704160300 METAR MRLM NIL=
201704160400 METAR MRLM NIL=
201704160500 METAR MRLM NIL=
201704160600 METAR MRLM NIL=
201704160700 METAR MRLM NIL=
201704160800 METAR MRLM NIL=
201704160900 METAR MRLM NIL=
201704161000 METAR MRLM NIL=
201704161100 METAR MRLM NIL=
201704161200 METAR MRLM 161200Z 30005KT 5000 +DZ BKN010 23/22 A2987=
201704161300 METAR MRLM 161300Z 29009KT 6000 +DZ SCT010 BKN090 23/23 A2989=
201704161400 METAR MRLM 161400Z 27005KT 9999 FEW015 BKN100 25/24 A2992 REDZ=
201704161500 METAR MRLM 161500Z 27004KT 9999 BKN015 25/24 A2994=
201704161600 METAR MRLM 161600Z 28004KT 9999 -DZ FEW020 BKN110 26/24 A2993=
201704161700 METAR MRLM 161700Z 26003KT 9999 FEW020 BKN120 28/24 A2991=
201704161800 METAR MRLM 161800Z 00000KT 9999 FEW030 BKN130 30/24 A2988=
201704161900 METAR MRLM 161900Z 05005KT 9999 FEW030 30/25 A2984=
201704162000 METAR MRLM 162000Z 03009KT 9999 FEW030 SCT240 30/24 A2983=
201704162100 METAR MRLM 162100Z 01008KT 9999 FEW030 BKN120 29/25 A2982=
201704162200 METAR MRLM 162200Z 01007KT 9999 FEW025 BKN120 29/25 A2981=
201704162300 METAR MRLM 162300Z 32003KT 9999 FEW025 BKN240 28/24 A2982=
201704170000 METAR MRLM 170000Z 33003KT CAVOK 27/24 A2986=
201704170100 METAR MRLM NIL=
201704170200 METAR MRLM NIL=
201704170300 METAR MRLM NIL=
201704170400 METAR MRLM NIL=
201704170500 METAR MRLM NIL=
201704170600 METAR MRLM NIL=
201704170700 METAR MRLM NIL=
201704170800 METAR MRLM NIL=
201704170900 METAR MRLM NIL=
201704171000 METAR MRLM NIL=
201704171100 METAR MRLM NIL=
201704171200 METAR MRLM 171200Z 27003KT 9999 FEW015 SCT240 CAVOK 27/24 A2986=
201704171300 METAR MRLM 171300Z 26003KT 9999 RA FEW010 SCT130 25/24 A2989=
201704171400 METAR MRLM 171400Z 05012KT 5000 2000N +RA OVC010 25/24 A2993=
201704171500 METAR MRLM 171500Z 35004KT 9999 DZ BKN015 SCT110 25/24 A2993 RERA=
201704171600 METAR MRLM 171600Z 30004KT 9999 FEW015 BKN110 26/24 A2991 REDZ=
201704171700 METAR MRLM 171700Z 00000KT 9999 FEW020 BKN120 28/24 A2990=
201704171800 METAR MRLM 171800Z 26004KT 9999 FEW025 BKN130 29/25 A2987=
201704171900 METAR MRLM 171900Z 10004KT 9999 FEW030 SCT140 30/25 A2983=
201704172000 METAR MRLM 172000Z 06009KT 9999 FEW025 SCT130 29/24 A2982=
201704172100 METAR MRLM 172100Z 06006KT 9999 FEW020 BKN130 29/24 A2981=
201704172200 METAR MRLM 172200Z 18003KT 9999 FEW020 BKN130 29/24 A2980=
201704172300 METAR MRLM 172300Z 10005KT CAVOK 28/24 A2981=
201704180000 METAR MRLM 180000Z 09003KT CAVOK 28/24 A2983=
201704180100 METAR MRLM NIL=
201704180200 METAR MRLM NIL=
201704180300 METAR MRLM NIL=
201704180400 METAR MRLM NIL=
201704180500 METAR MRLM NIL=
201704180600 METAR MRLM NIL=
201704180700 METAR MRLM NIL=
201704180800 METAR MRLM NIL=
201704180900 METAR MRLM NIL=
201704181000 METAR MRLM NIL=
201704181100 METAR MRLM NIL=
201704181200 METAR MRLM 181200Z 27004KT CAVOK 24/23 A2986=
201704181300 METAR MRLM 181300Z 30003KT 9999 FEW015 BKN100 27/23 A2989=
201704181400 METAR MRLM 181400Z 30006KT 9999 VCSH FEW020 BKN110 28/23 A2990=
201704181500 METAR MRLM 181500Z 32005KT 9999 FEW020 BKN110 28/24 A2990=
201704181600 METAR MRLM 181600Z 30005KT 9999 FEW025 BKN120 30/24 A2988=
201704181700 METAR MRLM 181700Z 03005KT 9999 FEW025 BKN120 31/25 A2986=
201704181800 METAR MRLM 181800Z 03009KT 9999 FEW025 BKN120 30/25 A2986=
201704181900 METAR MRLM 181900Z 04008KT 9999 FEW025 BKN130 30/25 A2982=
201704182000 METAR MRLM 182000Z 05006KT 9999 FEW025 SCT130 BKN240 29/24 A2981=
201704182100 METAR MRLM 182100Z 06004KT 9999 FEW025 BKN240 30/25 A2980=
201704182200 METAR MRLM 182200Z 12005KT 9999 FEW025 BKN240 29/25 A2977=
201704182300 METAR MRLM 182300Z 11005KT 9999 FEW020 BKN220 29/24 A2978=
201704190000 METAR MRLM 190000Z 10005KT CAVOK 28/25 A2978=
201704190100 METAR MRLM NIL=
201704190200 METAR MRLM NIL=
201704190300 METAR MRLM NIL=
201704190400 METAR MRLM NIL=
201704190500 METAR MRLM NIL=
201704190600 METAR MRLM NIL=
201704190700 METAR MRLM NIL=
201704190800 METAR MRLM NIL=
201704190900 METAR MRLM NIL=
201704191000 METAR MRLM NIL=
201704191100 METAR MRLM NIL=
201704191200 METAR MRLM 191200Z 27003KT CAVOK 24/24 A2984=
201704191300 METAR MRLM 191300Z 26003KT CAVOK 26/24 A2986=
201704191400 METAR MRLM 191400Z 23004KT CAVOK 29/24 A2987=
201704191500 METAR MRLM 191500Z 09004KT 9999 FEW030 SCT240 30/24 A2987=
201704191600 METAR MRLM 191600Z 08006KT 9999 FEW030 30/25 A2988=
201704191700 METAR MRLM 191700Z 06009KT CAVOK 30/25 A2988=
201704191800 METAR MRLM 191800Z 04008KT 9999 FEW025 SCT230 29/25 A2987=
201704191900 METAR MRLM 191900Z 02026KT 9999 SCT015 BKN220 27/24 A2985=
201704192000 METAR MRLM 192000Z 02022KT 9999 BKN015 27/24 A2983=
201704192100 METAR MRLM 192100Z 01009KT 9999 BKN015 SCT100 27/23 A2984=
201704192200 METAR MRLM 192200Z 30004KT 9999 BKN015 SCT100 26/23 A2984=
201704192300 METAR MRLM 192300Z 24005KT 9999 -DZ SCT010 BKN090 25/23 A2983=
201704200000 METAR MRLM 200000Z 25003KT 9999 -DZ SCT010 BKN090 24/22 A2984=
201704200100 METAR MRLM NIL=
201704200200 METAR MRLM NIL=
201704200300 METAR MRLM NIL=
201704200400 METAR MRLM NIL=
201704200500 METAR MRLM NIL=
201704200600 METAR MRLM NIL=
201704200700 METAR MRLM NIL=
201704200800 METAR MRLM NIL=
201704200900 METAR MRLM NIL=
201704201000 METAR MRLM NIL=
201704201100 METAR MRLM NIL=
201704201200 METAR MRLM 201200Z 00000KT CAVOK 22/21 A2987=
201704201300 METAR MRLM 201300Z 00000KT CAVOK 24/22 A2989=
201704201400 METAR MRLM 201400Z 26003KT CAVOK 27/22 A2991=
201704201500 METAR MRLM 201500Z 32005KT CAVOK 29/21 A2991=
201704201600 METAR MRLM 201600Z 32005KT CAVOK 30/22 A2989=
201704201700 METAR MRLM 201700Z 35006KT CAVOK 32/21 A2987=
201704201800 METAR MRLM 201800Z 02011KT CAVOK 31/23 A2985=
201704201900 METAR MRLM 201900Z 02012KT CAVOK 30/25 A2983=
201704202000 METAR MRLM 202000Z 02011KT CAVOK 30/25 A2981=
201704202100 METAR MRLM 202100Z 02011KT CAVOK 30/25 A2978=
201704202200 METAR MRLM 202200Z 03010KT CAVOK 30/25 A2977=
201704202300 METAR MRLM 202300Z 02006KT CAVOK 29/25 A2978=
201704210000 METAR MRLM 210000Z 04004KT CAVOK 28/25 A2982=
201704210100 METAR MRLM NIL=
201704210200 METAR MRLM NIL=
201704210300 METAR MRLM NIL=
201704210400 METAR MRLM NIL=
201704210500 METAR MRLM NIL=
201704210600 METAR MRLM NIL=
201704210700 METAR MRLM NIL=
201704210800 METAR MRLM NIL=
201704210900 METAR MRLM NIL=
201704211000 METAR MRLM NIL=
201704211100 METAR MRLM NIL=
201704211200 METAR MRLM 211200Z 25005KT CAVOK 23/22 A2984=
201704211300 METAR MRLM 211300Z 00000KT CAVOK 25/23 A2985=
201704211400 METAR MRLM 211400Z 00000KT CAVOK 29/23 A2987=
201704211500 METAR MRLM 211500Z 09004KT CAVOK 29/24 A2987=
201704211600 METAR MRLM 211600Z 07005KT 9999 FEW030 29/24 A2987=
201704211700 METAR MRLM 211700Z 06006KT 9999 FEW030 30/25 A2984=
201704211800 METAR MRLM 211800Z 07005KT 9999 FEW030 30/25 A2981=
201704211900 METAR MRLM 211900Z 06007KT CAVOK 30/25 A2978=
201704212000 METAR MRLM 212000Z 08005KT CAVOK 30/25 A2974=
201704212100 METAR MRLM 212100Z 10005KT CAVOK 30/25 A2973=
201704212200 METAR MRLM 212200Z 09005KT CAVOK 30/25 A2972=
201704212300 METAR MRLM 212300Z 10005KT CAVOK 30/25 A2973=
201704220000 METAR MRLM 220000Z 10005KT 9999 FEW025 SCT240 29/24 A2975=
201704220100 METAR MRLM NIL=
201704220200 METAR MRLM NIL=
201704220300 METAR MRLM NIL=
201704220400 METAR MRLM NIL=
201704220500 METAR MRLM NIL=
201704220600 METAR MRLM NIL=
201704220700 METAR MRLM NIL=
201704220800 METAR MRLM NIL=
201704220900 METAR MRLM NIL=
201704221000 METAR MRLM NIL=
201704221100 METAR MRLM NIL=
201704221200 METAR MRLM 221200Z 26004KT CAVOK 24/23 A2980=
201704221300 METAR MRLM 221300Z 24003KT CAVOK 26/24 A2981=
201704221400 METAR MRLM 221400Z 12003KT CAVOK 29/24 A2984=
201704221500 METAR MRLM 221500Z 12005KT CAVOK 30/25 A2984=
201704221600 METAR MRLM 221600Z 10008KT 9999 FEW025 30/26 A2984=
201704221700 METAR MRLM 221700Z 08008KT 9999 FEW025 31/26 A2983=
201704221800 METAR MRLM 221800Z 07007KT 9999 SCT025 30/26 A2980=
201704221900 METAR MRLM 221900Z 06006KT 9999 FEW025 30/26 A2978=
201704222000 METAR MRLM 222000Z 07006KT 9999 FEW025 30/25 A2975=
201704222100 METAR MRLM 222100Z 09005KT 9999 FEW025 30/25 A2974=
201704222200 METAR MRLM 222200Z 08004KT 9999 FEW025 30/25 A2973=
201704222300 METAR MRLM 222300Z 11004KT 9999 FEW020 30/25 A2974=
201704230000 METAR MRLM 230000Z 14005KT 9999 FEW020 SCT200 29/25 A2975=
201704230100 METAR MRLM NIL=
201704230200 METAR MRLM NIL=
201704230300 METAR MRLM NIL=
201704230400 METAR MRLM NIL=
201704230500 METAR MRLM NIL=
201704230600 METAR MRLM NIL=
201704230700 METAR MRLM NIL=
201704230800 METAR MRLM NIL=
201704230900 METAR MRLM NIL=
201704231000 METAR MRLM NIL=
201704231100 METAR MRLM NIL=
201704231200 METAR MRLM 231200Z 26002KT CAVOK 23/23 A2979=
201704231300 METAR MRLM 231300Z 24004KT CAVOK 26/24 A2983=
201704231400 METAR MRLM 231400Z 23002KT 9999 FEW025 29/24 A2985=
201704231500 METAR MRLM 231500Z 12005KT 9999 FEW025 30/25 A2984=
201704231600 METAR MRLM 231600Z 12006KT 9999 FEW025 SCT240 30/26 A2984=
201704231700 METAR MRLM 231700Z 10006KT 9999 FEW030 SCT250 30/26 A2983=
201704231800 METAR MRLM 231800Z 10006KT 9999 FEW030 SCT250 31/25 A2980=
201704231900 METAR MRLM 231900Z 08007KT 9999 FEW030 SCT250 31/26 A2977=
201704232000 METAR MRLM 232000Z 09007KT 9999 SCT030 31/26 A2975=
201704232100 METAR MRLM 232100Z 09007KT 9999 SCT030 SCT250 31/26 A2973=
201704232200 METAR MRLM 232200Z 11005KT 9999 SCT030 SCT250 30/26 A2973=
201704232300 METAR MRLM 232300Z 10005KT 9999 SCT025 SCT220 30/25 A2975=
201704240000 METAR MRLM 240000Z 14006KT 9999 FEW020 BKN200 29/25 A2977=
201704240100 METAR MRLM NIL=
201704240200 METAR MRLM NIL=
201704240300 METAR MRLM NIL=
201704240400 METAR MRLM NIL=
201704240500 METAR MRLM NIL=
201704240600 METAR MRLM NIL=
201704240700 METAR MRLM NIL=
201704240800 METAR MRLM NIL=
201704240900 METAR MRLM NIL=
201704241000 METAR MRLM NIL=
201704241100 METAR MRLM NIL=
201704241200 METAR MRLM 241200Z 25003KT CAVOK 23/22 A2983=
201704241300 METAR MRLM 241300Z 25004KT CAVOK 26/23 A2986=
201704241400 METAR MRLM 241400Z 22002KT CAVOK 29/24 A2987=
201704241500 METAR MRLM 241500Z 13005KT 9999 FEW030 30/25 A2987=
201704241600 METAR MRLM 241600Z 11006KT 9999 FEW030 SCT250 31/25 A2986=
201704241700 METAR MRLM 241700Z 09007KT 9999 FEW030 SCT260 31/25 A2985=
201704241800 METAR MRLM 241800Z 09006KT 9999 FEW030 SCT260 31/25 A2984=
201704241900 METAR MRLM 241900Z 10006KT 9999 FEW030 SCT260 31/25 A2981=
201704242000 METAR MRLM 242000Z 09006KT 9999 FEW030 31/25 A2979=
201704242100 METAR MRLM 242100Z 08005KT 9999 SCT030 31/25 A2978=
201704242200 METAR MRLM 242200Z 07006KT 9999 BKN025 30/25 A2977 NOSIG=
201704242300 METAR MRLM 242300Z 05005KT 9999 BKN025 30/24 A2979=
201704250000 METAR MRLM 250000Z 10003KT 9999 FEW25 SCT240 29/24 A2981=
201704250100 METAR MRLM NIL=
201704250200 METAR MRLM NIL=
201704250300 METAR MRLM NIL=
201704250400 METAR MRLM NIL=
201704250500 METAR MRLM NIL=
201704250600 METAR MRLM NIL=
201704250700 METAR MRLM NIL=
201704250800 METAR MRLM NIL=
201704250900 METAR MRLM NIL=
201704251000 METAR MRLM NIL=
201704251100 METAR MRLM NIL=
201704251200 METAR MRLM 251200Z 26005KT CAVOK 23/22 A2983=
201704251300 METAR MRLM 251300Z 24004KT CAVOK 25/23 A2985=
201704251400 METAR MRLM 251400Z 00000KT 9999 FEW020 SCT130 29/24 A2988=
201704251500 METAR MRLM 251500Z 11006KT 9999 SCT025 BKN130 29/24 A2990=
201704251600 METAR MRLM 251600Z 10007KT 9999 FEW025 BKN130 29/25 A2990=
201704251700 METAR MRLM 251700Z 11005KT 9999 FEW025 BKN130 29/25 A2989=
201704251800 METAR MRLM 251800Z 09004KT 9999 FEW030 BKN130 30/24 A2986=
201704251900 METAR MRLM 251900Z 05007KT 9999 FEW030 SCT140 29/25 A2984=
201704252000 METAR MRLM 252000Z 04007KT 9999 FEW030 SCT240 30/24 A2980=
201704252100 METAR MRLM 252100Z 04005KT CAVOK 30/24 A2978=
201704252200 METAR MRLM 252200Z 05003KT CAVOK 29/24 A2978=
201704252300 METAR MRLM 252300Z 04002KT CAVOK 29/24 A2979=
201704260000 METAR MRLM 260000Z 00000KT CAVOK 28/24 A2981=
201704260100 METAR MRLM NIL=
201704260200 METAR MRLM NIL=
201704260300 METAR MRLM NIL=
201704260400 METAR MRLM NIL=
201704260500 METAR MRLM NIL=
201704260600 METAR MRLM NIL=
201704260700 METAR MRLM NIL=
201704260800 METAR MRLM NIL=
201704260900 METAR MRLM NIL=
201704261000 METAR MRLM NIL=
201704261100 METAR MRLM NIL=
201704261200 METAR MRLM 261200Z 25004KT CAVOK 23/22 A2981=
201704261300 METAR MRLM 261300Z 23004KT CAVOK 25/23 A2982=
201704261400 METAR MRLM 261400Z 23002KT CAVOK 29/24 A2984=
201704261500 METAR MRLM 261500Z 13005KT CAVOK 30/24 A2985=
201704261600 METAR MRLM 261600Z 12007KT CAVOK 30/24 A2985=
201704261700 METAR MRLM 261700Z 13010KT CAVOK 30/25 A2983=
201704261800 METAR MRLM 261800Z 11009KT CAVOK 31/25 A2981=
201704261900 METAR MRLM 261900Z 11011KT CAVOK 31/25 A2978=
201704262000 METAR MRLM 262000Z 11011KT 9999 FEW030 BKN250 31/25 A2976=
201704262100 METAR MRLM 262100Z 11011KT 9999 FEW030 BKN250 31/26 A2974=
201704262200 METAR MRLM 262200Z 12011KT 9999 FEW025 BKN250 30/25 A2975=
201704262300 METAR MRLM 262300Z 12010KT 9999 FEW025 BKN240 30/25 A2976=
201704270000 METAR MRLM 270000Z 12009KT 9999 FEW020 BKN220 29/25 A2977=
201704270100 METAR MRLM NIL=
201704270200 METAR MRLM NIL=
201704270300 METAR MRLM NIL=
201704270400 METAR MRLM NIL=
201704270500 METAR MRLM NIL=
201704270600 METAR MRLM NIL=
201704270700 METAR MRLM NIL=
201704270800 METAR MRLM NIL=
201704270900 METAR MRLM NIL=
201704271000 METAR MRLM NIL=
201704271100 METAR MRLM NIL=
201704271200 METAR MRLM 271200Z 00000KT 9999 FEW010 BKN200 24/24 A2981=
201704271235 METAR MRLM 271200 00000KT 9999 FEW010 BKN200 24/24 A2981=
201704271300 METAR MRLM 271300Z 25002KT 9999 SCT010 BKN200 26/25 A2983=
201704271400 METAR MRLM 271400Z 21002KT 9999 FEW015 BKN220 29/25 A2984=
201704271500 METAR MRLM 271500Z 12005KT 9999 FEW020 BKN220 30/25 A2985=
201704271600 METAR MRLM 271600Z 13008KT 9999 FEW025 BKN240 31/25 A2985=
201704271700 METAR MRLM 271700Z 11009KT CAVOK 31/26 A2984=
201704271800 METAR MRLM 271800Z 11009KT CAVOK 31/25 A2981=
201704271900 METAR MRLM 271900Z 10009KT CAVOK 31/25 A2977=
201704272000 METAR MRLM 272000Z 10009KT CAVOK 31/25 A2975=
201704272100 METAR MRLM 272100Z 10007KT 9999 FEW025 BKN250 31/25 A2974=
201704272200 METAR MRLM 272200Z 10006KT 9999 FEW025 BKN250 30/25 A2974=
201704272300 METAR MRLM 272300Z 10005KT 9999 FEW025 BKN250 30/24 A2975=
201704280000 METAR MRLM 280000Z 12003KT 9999 FEW020 SCT220 29/24 A2976=
201704280100 METAR MRLM NIL=
201704280200 METAR MRLM NIL=
201704280300 METAR MRLM NIL=
201704280400 METAR MRLM NIL=
201704280500 METAR MRLM NIL=
201704280600 METAR MRLM NIL=
201704280700 METAR MRLM NIL=
201704280800 METAR MRLM NIL=
201704280900 METAR MRLM NIL=
201704281000 METAR MRLM NIL=
201704281100 METAR MRLM NIL=
201704281200 METAR MRLM 281200Z 00000KT CAVOK 23/22 A2981=
201704281300 METAR MRLM 281300Z 00000KT CAVOK 25/23 A2983=
201704281400 METAR MRLM 281400Z 00000KT CAVOK 28/23 A2985=
201704281500 METAR MRLM 281500Z 11003KT CAVOK 30/24 A2985=
201704281600 METAR MRLM 281600Z 09006KT CAVOK 30/25 A2984=
201704281700 METAR MRLM 281700Z 11006KT CAVOK 30/25 A2982=
201704281800 METAR MRLM 281800Z 10008KT CAVOK 32/26 A2980=
201704281900 METAR MRLM 281900Z 10008KT CAVOK 31/25 A2977=
201704282000 METAR MRLM 282000Z 10007KT CAVOK 31/25 A2976=
201704282100 METAR MRLM 282100Z 09008KT CAVOK 31/26 A2975=
201704282200 METAR MRLM 282200Z 08007KT 9999 FEW030 SCT220 31/26 A2975=
201704282300 METAR MRLM 282300Z 08008KT 9999 BKN020 30/26 A2977=
201704290000 METAR MRLM 290000Z 09007KT 9999 BKN020 30/26 A2980=
201704290100 METAR MRLM NIL=
201704290200 METAR MRLM NIL=
201704290300 METAR MRLM NIL=
201704290400 METAR MRLM NIL=
201704290500 METAR MRLM NIL=
201704290600 METAR MRLM NIL=
201704290700 METAR MRLM NIL=
201704290800 METAR MRLM NIL=
201704290900 METAR MRLM NIL=
201704291000 METAR MRLM NIL=
201704291100 METAR MRLM NIL=
201704291200 METAR MRLM 291200Z 27004KT 9999 BKN015 25/24 A2985=
201704291300 METAR MRLM 291300Z 27002KT 9999 FEW020 26/25 A2988=
201704291400 METAR MRLM 291400Z 00000KT 9999 FEW020 SCT250 29/25 A2989=
201704291500 METAR MRLM 291500Z 11003KT 9999 SCT030 31/25 A2988=
201704291600 METAR MRLM 291600Z 09004KT 9999 SCT030 31/25 A2988=
201704291700 METAR MRLM 291700Z 06006KT 9999 SCT025 31/26 A2986=
201704291800 METAR MRLM 291800Z 09006KT 9999 SCT020 31/26 A2984=
201704291900 METAR MRLM 291900Z 08010KT 9999 BKN025 31/26 A2983=
201704292000 METAR MRLM 292000Z 08009KT 9999 SCT025 SCT240 31/26 A2981=
201704292100 METAR MRLM 292100Z 09008KT 9999 BKN030 31/25 A2980=
201704292200 METAR MRLM 292200Z 09008KT 9999 BKN020 30/25 A2980=
201704292300 METAR MRLM 292300Z 08009KT 9999 SCT020 BKN250 30/25 A2981=
201704300000 METAR MRLM 300000Z 08006KT 9999 BKN020 29/25 A2983=
201704300100 METAR MRLM NIL=
201704300200 METAR MRLM NIL=
201704300300 METAR MRLM NIL=
201704300400 METAR MRLM NIL=
201704300500 METAR MRLM NIL=
201704300600 METAR MRLM NIL=
201704300700 METAR MRLM NIL=
201704300800 METAR MRLM NIL=
201704300900 METAR MRLM NIL=
201704301000 METAR MRLM NIL=
201704301100 METAR MRLM NIL=
201704301200 METAR MRLM 301200Z 26005KT 9999 VCSH SCT010 BKN080 24/23 A2986=
201704301300 METAR MRLM 301300Z 29002KT 9999 VCSH SCT010 BKN080 25/24 A2988=
201704301400 METAR MRLM 301400Z 16002KT 9000 VCSH SCT010 BKN080 25/23 A2990=
201704301500 METAR MRLM 301500Z 20002KT 9999 SCT010 BKN090 27/25 A2990=
201704301600 METAR MRLM 301600Z 24003KT 9999 SCT010 BKN090 28/25 A2989=
201704301700 METAR MRLM 301700Z 22003KT 9999 SCT015 BKN100 29/25 A2988=
201704301800 METAR MRLM 301800Z 12003KT 9999 FEW020 SCT120 BKN220 31/25 A2985=
201704301900 METAR MRLM 301900Z 10005KT 9999 FEW025 BKN220 31/25 A2983=
201704302000 METAR MRLM 302000Z 11004KT 9999 FEW025 BKN240 31/25 A2981=
201704302100 METAR MRLM 302100Z 09007KT CAVOK 30/25 A2979=
201704302200 METAR MRLM 302200Z 11005KT CAVOK 30/25 A2980=
201704302300 METAR MRLM 302300Z 13004KT CAVOK 30/25 A2981=
201705010000 METAR MRLM 010000Z 13004KT CAVOK 29/25 A2982=
201705010100 METAR MRLM NIL=
201705010200 METAR MRLM NIL=
201705010300 METAR MRLM NIL=
201705010400 METAR MRLM NIL=
201705010500 METAR MRLM NIL=
201705010600 METAR MRLM NIL=
201705010700 METAR MRLM NIL=
201705010800 METAR MRLM NIL=
201705010900 METAR MRLM NIL=
201705011000 METAR MRLM NIL=
201705011100 METAR MRLM NIL=
201705011200 METAR MRLM 011200Z 27004KT CAVOK 24/22 A2986=
201705011300 METAR MRLM 011300Z 25005KT CAVOK 25/23 A2987=
201705011400 METAR MRLM 011400Z 25003KT CAVOK 28/24 A2988=
201705011500 METAR MRLM 011500Z 07004KT CAVOK 30/25 A2988=
201705011600 METAR MRLM 011600Z 01011KT 9999 FEW030 BKN240 31/25 A2988=
201705011700 METAR MRLM 011700Z 02010KT 9999 FEW030 BKN240 31/26 A2987=
201705011800 METAR MRLM 011800Z 03008KT 9999 FEW030 BKN250 31/26 A2985=
201705011900 METAR MRLM 011900Z 04006KT 9999 FEW030 BKN250 31/25 A2982=
201705012000 METAR MRLM 012000Z 03006KT 9999 FEW030 BKN250 31/25 A2978=
201705012100 METAR MRLM 012100Z 06005KT 9999 FEW030 BKN250 31/25 A2976=
201705012200 METAR MRLM 012200Z 07004KT 9999 FEW025 SCT240 30/26 A2977=
201705012300 METAR MRLM 012300Z 07004KT 9999 SCT025 SCT240 30/26 A2978=
201705020000 METAR MRLM 020000Z 07004KT 9999 FEW020 SCT220 29/25 A2980=
201705020100 METAR MRLM NIL=
201705020200 METAR MRLM NIL=
201705020300 METAR MRLM NIL=
201705020400 METAR MRLM NIL=
201705020500 METAR MRLM NIL=
201705020600 METAR MRLM NIL=
201705020700 METAR MRLM NIL=
201705020800 METAR MRLM NIL=
201705020900 METAR MRLM NIL=
201705021000 METAR MRLM NIL=
201705021100 METAR MRLM NIL=
201705021200 METAR MRLM 021200Z 25003KT CAVOK 24/23 A2982=
201705021300 METAR MRLM 021300Z 00000KT 9999 FEW025 SCT130 SCT240 26/24 A2986=
201705021400 METAR MRLM 021400Z 25004KT 9999 SCT020 SCT130 26/24 A2989=
201705021500 METAR MRLM 021500Z 30005KT 9999 DZ BKN010 26/24 A2991=
201705021600 METAR MRLM 021600Z 02015KT 8000 DZ BKN010 26/25 A2992=
201705021700 METAR MRLM 021700Z 02015KT 8000 DZ BKN010 26/25 A2991=
201705021800 METAR MRLM 021800Z 01011KT 9999 DZ OVC010 27/25 A2989=
201705021900 METAR MRLM 021900Z 27004KT 9999 DZ OVC010 25/24 A2987=
201705022000 METAR MRLM 022000Z 30005KT 9999 -DZ SCT010 BKN120 25/24 A2985=
201705022100 METAR MRLM 022100Z 29005KT 9999 FEW008 BKN120 26/24 A2983=
201705022200 METAR MRLM 022200Z 32003KT 9999 FEW008 BKN130 26/24 A2982=
201705022300 METAR MRLM 022300Z 18003KT 9999 -DZ FEW008 BKN130 25/24 A2981=
201705030000 METAR MRLM 030000Z 00000KT CAVOK 25/24 A2982=
201705030100 METAR MRLM NIL=
201705030200 METAR MRLM NIL=
201705030300 METAR MRLM NIL=
201705030400 METAR MRLM NIL=
201705030500 METAR MRLM NIL=
201705030600 METAR MRLM NIL=
201705030700 METAR MRLM NIL=
201705030800 METAR MRLM NIL=
201705030900 METAR MRLM NIL=
201705031000 METAR MRLM NIL=
201705031100 METAR MRLM NIL=
201705031200 METAR MRLM 031200Z 28002KT 9999 FEW010 BKN130 23/22 A2984=
201705031300 METAR MRLM 031300Z 26003KT 9999 FEW015 BKN230 24/23 A2985=
201705031400 METAR MRLM 031400Z 25004KT 9999 FEW015 BKN120 25/23 A2987=
201705031500 METAR MRLM 031500Z 19002KT 9999 FEW015 BKN120 26/24 A2988=
201705031600 METAR MRLM 031600Z 13003KT 9999 SCT020 BKN120 27/24 A2989=
201705031700 METAR MRLM 031700Z 15003KT 9999 DZ SCT020 BKN110 27/24 A2989=
201705031800 METAR MRLM 031800Z 16004KT 9999 FEW020 BKN130 28/24 A2986 REDZ=
201705031900 METAR MRLM 031900Z 11003KT CAVOK 28/24 A2983=
201705032000 METAR MRLM 032000Z 14005KT 9999 FEW025 BKN130 29/24 A2981=
201705032100 METAR MRLM 032100Z 14006KT 9999 SCT025 BKN130 28/23 A2981=
201705032200 METAR MRLM 032200Z 07008KT 9999 SCT015 SCT120 27/25 A2980=
201705032300 METAR MRLM 032300Z 13006KT 9999 SCT015 SCT120 27/24 A2981=
201705040000 METAR MRLM 040000Z 20002KT 9999 BKN010 27/24 A2983=
201705040100 METAR MRLM NIL=
201705040200 METAR MRLM NIL=
201705040300 METAR MRLM NIL=
201705040400 METAR MRLM NIL=
201705040500 METAR MRLM NIL=
201705040600 METAR MRLM NIL=
201705040700 METAR MRLM NIL=
201705040800 METAR MRLM NIL=
201705040900 METAR MRLM NIL=
201705041000 METAR MRLM NIL=
201705041100 METAR MRLM NIL=
201705041200 METAR MRLM 041200Z 25004KT CAVOK 23/22 A2982=
201705041300 METAR MRLM 041300Z 25005KT CAVOK 26/23 A2983=
201705041400 METAR MRLM 041400Z 26003KT CAVOK 29/24 A2983=
201705041500 METAR MRLM 041500Z 09003KT CAVOK 30/24 A2986=
201705041600 METAR MRLM 041600Z 07004KT 9999 FEW030 30/24 A2985=
201705041700 METAR MRLM 041700Z 04006KT 9999 FEW030 30/25 A2982=
201705041800 METAR MRLM 041800Z 05005KT 9999 FEW030 SCT250 30/25 A2980=
201705041900 METAR MRLM 041900Z 04009KT 9999 FEW030 SCT250 30/25 A2976=
201705042000 METAR MRLM 042000Z 03009KT 9999 FEW030 SCT250 31/25 A2974=
201705042100 METAR MRLM 042100Z 07011KT 9999 FEW025 SCT250 30/26 A2972=
201705042200 METAR MRLM 042200Z 06011KT 9999 FEW025 BKN240 29/25 A2972=
201705042300 METAR MRLM 042300Z 07008KT 9999 FEW020 BKN240 29/25 A2975=
201705050000 METAR MRLM 050000Z 07004KT 9999 SCT020 BKN220 29/25 A2978=
201705050100 METAR MRLM NIL=
201705050200 METAR MRLM NIL=
201705050300 METAR MRLM NIL=
201705050400 METAR MRLM NIL=
201705050500 METAR MRLM NIL=
201705050600 METAR MRLM NIL=
201705050700 METAR MRLM NIL=
201705050800 METAR MRLM NIL=
201705050900 METAR MRLM NIL=
201705051000 METAR MRLM NIL=
201705051100 METAR MRLM NIL=
201705051200 METAR MRLM 051200Z 25003KT CAVOK 25/23 A2978=
201705051300 METAR MRLM 051300Z 24003KT CAVOK 27/24 A2980=
201705051400 METAR MRLM 051400Z 26003KT CAVOK 28/25 A2982=
201705051500 METAR MRLM 051500Z 00000KT CAVOK 30/25 A2983=
201705051600 METAR MRLM 051600Z 05006KT 9999 FEW030 BKN130 30/24 A2983=
201705051700 METAR MRLM 051700Z 04008KT 9999 FEW030 SCT130 BKN240 31/25 A2983=
201705051800 METAR MRLM 051800Z 04007KT 9999 FEW030 SCT140 BKN240 30/25 A2980=
201705051900 METAR MRLM 051900Z 03011KT 9999 FEW025 BKN250 31/26 A2978=
201705052000 METAR MRLM 052000Z 02009KT 9999 VCTS FEW025 BKN250 30/25 A2975=
201705052100 METAR MRLM 052100Z 02007KT 9999 FEW020 BKN240 30/25 A2975=
201705052200 METAR MRLM 052200Z 04003KT 9999 SCT020 BKN220 29/25 A2976=
201705052300 METAR MRLM 052300Z 24004KT 9999 DZ VCSH BKN020 27/25 A2979=
201705060000 METAR MRLM 060000Z 22005KT 8000 DZ SCT015 BKN100 25/24 A2982=
201705060100 METAR MRLM NIL=
201705060200 METAR MRLM NIL=
201705060300 METAR MRLM NIL=
201705060400 METAR MRLM NIL=
201705060500 METAR MRLM NIL=
201705060600 METAR MRLM NIL=
201705060700 METAR MRLM NIL=
201705060800 METAR MRLM NIL=
201705060900 METAR MRLM NIL=
201705061000 METAR MRLM NIL=
201705061100 METAR MRLM NIL=
201705061200 METAR MRLM 061200Z 00000KT CAVOK 23/22 A2983=
201705061300 METAR MRLM 061300Z 26003KT CAVOK 25/24 A2986=
201705061400 METAR MRLM 061400Z 25002KT CAVOK 28/24 A2988=
201705061500 METAR MRLM 061500Z 05005KT CAVOK 29/25 A2989=
201705061600 METAR MRLM 061600Z 03008KT 9999 FEW030 SCT250 30/25 A2987=
201705061700 METAR MRLM 061700Z 03011KT 9999 FEW030 SCT260 30/25 A2987=
201705061800 METAR MRLM 061800Z 04007KT 9999 FEW030 SCT260 29/25 A2985=
201705061900 METAR MRLM 061900Z 04007KT CAVOK 30/24 A2982=
201705062000 METAR MRLM 062000Z 04008KT CAVOK 30/24 A2979=
201705062100 METAR MRLM 062100Z 04007KT CAVOK 30/24 A2977=
201705062200 METAR MRLM 062200Z 03007KT 9999 FEW025 SCT240 30/24 A2978=
201705062300 METAR MRLM 062300Z 06006KT 9999 SCT020 SCT230 29/24 A2979=
201705070000 METAR MRLM 070000Z 04002KT 9999 BKN020 29/24 A2983=
201705070100 METAR MRLM NIL=
201705070200 METAR MRLM NIL=
201705070300 METAR MRLM NIL=
201705070400 METAR MRLM NIL=
201705070500 METAR MRLM NIL=
201705070600 METAR MRLM NIL=
201705070700 METAR MRLM NIL=
201705070800 METAR MRLM NIL=
201705070900 METAR MRLM NIL=
201705071000 METAR MRLM NIL=
201705071100 METAR MRLM NIL=
201705071200 METAR MRLM 071200Z 26003KT 9999 FEW010 SCT220 23/22 A2984=
201705071300 METAR MRLM 071300Z 26003KT 9999 FEW010 SCT130 SCT220 24/23 A2987=
201705071400 METAR MRLM 071400Z 30005KT 9999 FEW015 BKN120 26/24 A2989=
201705071500 METAR MRLM 071500Z 32003KT 9999 -DZ FEW015 BKN120 26/24 A2990=
201705071600 METAR MRLM 071600Z 33004KT 9999 FEW020 BKN130 29/25 A2990=
201705071700 METAR MRLM 071700Z 35007KT 9999 FEW020 BKN130 29/24 A2988=
201705071800 METAR MRLM 071800Z 01012KT 9999 FEW020 BKN130 29/25 A2987=
201705071900 METAR MRLM 071900Z 02009KT 9999 FEW020 SCT200 29/25 A2983=
201705072000 METAR MRLM 072000Z 02008KT 9999 BKN020 SCT220 29/24 A2979=
201705072100 METAR MRLM 072100Z 34006KT 9999 SCT020 BKN220 28/24 A2978=
201705072200 METAR MRLM 072200Z 33006KT 9999 FEW020 BKN130 28/24 A2978=
201705072300 METAR MRLM 072300Z 33003KT 9999 FEW020 SCT130 SCT220 29/24 A2979=
201705080000 METAR MRLM 080000Z 00000KT 9999 FEW015 BKN130 28/24 A2982=
201705080100 METAR MRLM NIL=
201705080200 METAR MRLM NIL=
201705080300 METAR MRLM NIL=
201705080400 METAR MRLM NIL=
201705080500 METAR MRLM NIL=
201705080600 METAR MRLM NIL=
201705080700 METAR MRLM NIL=
201705080800 METAR MRLM NIL=
201705080900 METAR MRLM NIL=
201705081000 METAR MRLM NIL=
201705081100 METAR MRLM NIL=
201705081200 METAR MRLM 081200Z 23004KT 9999 FEW015 BKN090 24/23 A2984=
201705081300 METAR MRLM 081300Z 24004KT 9999 FEW015 BKN090 26/23 A2985=
201705081400 METAR MRLM 081400Z 22002KT 9999 FEW020 BKN100 29/23 A2986=
201705081500 METAR MRLM 081500Z 09002KT 9999 FEW020 SCT120 BKN220 29/24 A2987=
201705081600 METAR MRLM 081600Z 04006KT 9999 FEW020 BKN220 29/24 A2986=
201705081700 METAR MRLM 081700Z 03008KT 9999 FEW025 BKN220 29/24 A2985=
201705081800 METAR MRLM 081800Z 03008KT 9999 FEW025 BKN220 29/25 A2982=
201705081900 METAR MRLM 081900Z 02008KT 9999 FEW025 BKN240 30/25 A2980=
201705082000 METAR MRLM 082000Z 03009KT 9999 FEW025 BKN240 29/25 A2977=
201705082100 METAR MRLM 082100Z 02008KT 9999 SCT020 BKN240 29/25 A2975=
201705082200 METAR MRLM 082200Z 01008KT 9999 SCT020 BKN240 29/25 A2974=
201705082300 METAR MRLM 082300Z 36006KT 9999 SCT020 BKN230 29/24 A2976=
201705090000 METAR MRLM 090000Z 35004KT 9999 SCT015 BKN220 28/25 A2978=
201705090100 METAR MRLM NIL=
201705090200 METAR MRLM NIL=
201705090300 METAR MRLM NIL=
201705090400 METAR MRLM NIL=
201705090500 METAR MRLM NIL=
201705090600 METAR MRLM NIL=
201705090700 METAR MRLM NIL=
201705090800 METAR MRLM NIL=
201705090900 METAR MRLM NIL=
201705091000 METAR MRLM NIL=
201705091100 METAR MRLM NIL=
201705091200 METAR MRLM 091200Z 28002KT 9999 FEW010 BKN090 24/23 A2984=
201705091300 METAR MRLM 091300Z 00000KT 9999 FEW010 BKN090 25/24 A2986=
201705091400 METAR MRLM 091400Z 31006KT 9999 FEW015 BKN100 28/24 A2987=
201705091500 METAR MRLM 091500Z 32005KT 9999 FEW020 SCT120 BKN220 30/24 A2987=
201705091600 METAR MRLM 091600Z 35008KT 9999 FEW020 BKN220 30/24 A2986=
201705091700 METAR MRLM 091700Z 02010KT 9999 FEW020 BKN220 30/25 A2985=
201705091800 METAR MRLM 091800Z 01011KT 9999 FEW025 BKN240 30/25 A2984=
201705091900 METAR MRLM 091900Z 01010KT CAVOK 30/25 A2980=
201705092000 METAR MRLM 092000Z 02010KT CAVOK 30/25 A2977=
201705092100 METAR MRLM 092100Z 02010KT 9999 FEW025 BKN240 30/25 A2977=
201705092200 METAR MRLM 092200Z 02008KT 9999 VCTS SCT020 BKN240 30/25 A2977=
201705092300 METAR MRLM 092300Z 35005KT 9999 SCT020 BKN240 29/25 A2980=
201705100000 METAR MRLM 100000Z 25003KT 9999 SCT015 BKN220 27/24 A2982=
201705100100 METAR MRLM NIL=
201705100200 METAR MRLM NIL=
201705100300 METAR MRLM NIL=
201705100400 METAR MRLM NIL=
201705100500 METAR MRLM NIL=
201705100600 METAR MRLM NIL=
201705100700 METAR MRLM NIL=
201705100800 METAR MRLM NIL=
201705100900 METAR MRLM NIL=
201705101000 METAR MRLM NIL=
201705101100 METAR MRLM NIL=
201705101200 METAR MRLM 101200Z 28004KT CAVOK 24/23 A2983=
201705101300 METAR MRLM 101300Z 30004KT CAVOK 27/23 A2987=
201705101400 METAR MRLM 101400Z 29007KT CAVOK 29/24 A2987=
201705101500 METAR MRLM 101500Z 32006KT 9999 FEW030 BKN250 30/25 A2989=
201705101600 METAR MRLM 101600Z 33008KT 9999 FEW030 BKN240 31/24 A2989=
201705101700 METAR MRLM 101700Z 32006KT 9999 SCT030 BKN240 30/25 A2988=
201705101800 METAR MRLM 101800Z 35011KT 9999 FEWT030 SCT130 BKN240 30/25 A2986=
201705101900 METAR MRLM 101900Z 35013KT 9999 FEWT030 BKN240 31/25 A2984=
201705102000 METAR MRLM 102000Z 34014KT 9999 SCT020 BKN230 29/25 A2982=
201705102100 METAR MRLM 102100Z 32012KT 9999 SCT020 BKN230 29/25 A2981=
201705102200 METAR MRLM 102200Z 32009KT 9999 FEW020 BKN220 29/25 A2980=
201705102300 METAR MRLM 102300Z 30007KT 9999 FEW015 BKN220 28/24 A2982=
201705110000 METAR MRLM 110000Z 32004KT CAVOK 27/24 A2984=
201705110100 METAR MRLM NIL=
201705110200 METAR MRLM NIL=
201705110300 METAR MRLM NIL=
201705110400 METAR MRLM NIL=
201705110500 METAR MRLM NIL=
201705110600 METAR MRLM NIL=
201705110700 METAR MRLM NIL=
201705110800 METAR MRLM NIL=
201705110900 METAR MRLM NIL=
201705111000 METAR MRLM NIL=
201705111100 METAR MRLM NIL=
201705111200 METAR MRLM 111200Z 28004KT 9999 SCT010 SCT100 24/23 A2984=
201705111300 METAR MRLM 111300Z 27002KT 9999 BKN015 25/24 A2986=
201705111400 METAR MRLM 111400Z 32002KT 9999 FEW020 SCT120 BKN200 29/25 A2987=
201705111500 METAR MRLM 111500Z 30003KT 9999 BKN020 29/25 A2987=
201705111600 METAR MRLM 111600Z 31005KT 9999 SCT020 BKN120 29/25 A2988 REDZ=
201705111700 METAR MRLM 111700Z 04006KT 9999 SCT020 BKN120 30/25 A2987=
201705111800 METAR MRLM 111800Z 02008KT 9999 FEW020 BKN120 29/25 A2986=
201705111900 METAR MRLM 111900Z 04005KT 9999 FEW020 SCT130 BKN240 30/25 A2983=
201705112000 METAR MRLM 112000Z 03006KT 9999 FEW020 BKN250 30/25 A2981=
201705112100 METAR MRLM 112100Z 03006KT 9999 FEW025 BKN250 30/25 A2980=
201705112200 METAR MRLM 112200Z 03006KT 9999 FEW020 BKN250 29/25 A2980=
201705112300 METAR MRLM 112300Z 03006KT 9999 BKN020 SCT240 29/25 A2980=
201705120000 METAR MRLM 120000Z 03004KT 9999 BKN020 29/25 A2982=
201705120100 METAR MRLM NIL=
201705120200 METAR MRLM NIL=
201705120300 METAR MRLM NIL=
201705120400 METAR MRLM NIL=
201705120500 METAR MRLM NIL=
201705120600 METAR MRLM NIL=
201705120700 METAR MRLM NIL=
201705120800 METAR MRLM NIL=
201705120900 METAR MRLM NIL=
201705121000 METAR MRLM NIL=
201705121100 METAR MRLM NIL=
201705121200 METAR MRLM 121200Z 29002KT 9999 FEW015 BKN200 25/24 A2982=
201705121300 METAR MRLM 121300Z 33003KT 9999 FEW015 BKN200 26/24 A2985=
201705121400 METAR MRLM 121400Z 25003KT 9999 FEW015 BKN200 26/25 A2987=
201705121500 METAR MRLM 121500Z 25004KT 9999 -DZ FEW015 BKN100 26/25 A2988=
201705121600 METAR MRLM 121600Z 34005KT 9999 FEW020 BKN100 29/26 A2988=
201705121700 METAR MRLM 121700Z 03005KT 9999 SCT020 BKN220 29/25 A2986=
201705121800 METAR MRLM 121800Z 04009KT 9999 VCTS FEW020 SCT120 BKN220 30/26 A2985=
201705121900 METAR MRLM 121900Z 03008KT 9999 FEW020 BKN220 29/26 A2982=
201705122000 METAR MRLM 122000Z 04008KT 9999 FEW020 BKN230 28/25 A2979=
201705122100 METAR MRLM 122100Z 03004KT 9999 VCTS FEW020 BKN230 28/24 A2980=
201705122200 METAR MRLM 122200Z 05002KT 9999 -DZ SCT015 BKN110 28/25 A2980=
201705122300 METAR MRLM 122300Z 26004KT 9999 FEW015 BKN200 27/25 A2981=
201705130000 METAR MRLM 130000Z 27004KT 9999 FEW010 BKN200 26/24 A2983=
201705130100 METAR MRLM NIL=
201705130200 METAR MRLM NIL=
201705130300 METAR MRLM NIL=
201705130400 METAR MRLM NIL=
201705130500 METAR MRLM NIL=
201705130600 METAR MRLM NIL=
201705130700 METAR MRLM NIL=
201705130800 METAR MRLM NIL=
201705130900 METAR MRLM NIL=
201705131000 METAR MRLM NIL=
201705131100 METAR MRLM NIL=
201705131200 METAR MRLM 131200Z 28003KT CAVOK 24/23 A2984=
201705131300 METAR MRLM 131300Z 24003KT CAVOK 26/24 A2987=
201705131400 METAR MRLM 131400Z 31003KT CAVOK 28/24 A2987=
201705131500 METAR MRLM 131500Z 32004KT CAVOK 30/24 A2989=
201705131600 METAR MRLM 131600Z 01006KT 9999 FEW025 BKN120 30/25 A2988=
201705131700 METAR MRLM 131700Z 04006KT 9999 FEW025 BKN130 29/25 A2987=
201705131800 METAR MRLM 131800Z 04007KT 9999 FEW030 BKN240 30/24 A2985=
201705131900 METAR MRLM 131900Z 03008KT 9999 FEW030 BKN240 30/25 A2982=
201705132000 METAR MRLM 132000Z 03009KT 9999 FEW030 BKN240 30/25 A2980=
201705132100 METAR MRLM 132100Z 03008KT 9999 FEW030 BKN240 30/25 A2978=
201705132200 METAR MRLM 132200Z 03008KT 9999 FEW025 BKN230 29/25 A2978=
201705132300 METAR MRLM 132300Z 04004KT 9999 FEW020 BKN230 29/25 A2980=
201705140000 METAR MRLM 140000Z 04003KT 9999 VCTS FEW020 SCT100 BKN220 29/25 A2979=
201705140100 METAR MRLM NIL=
201705140200 METAR MRLM NIL=
201705140300 METAR MRLM NIL=
201705140400 METAR MRLM NIL=
201705140500 METAR MRLM NIL=
201705140600 METAR MRLM NIL=
201705140700 METAR MRLM NIL=
201705140800 METAR MRLM NIL=
201705140900 METAR MRLM NIL=
201705141000 METAR MRLM NIL=
201705141100 METAR MRLM NIL=
201705141200 METAR MRLM 141200Z 25003KT CAVOK 24/24 A2985=
201705141300 METAR MRLM 141300Z 27003KT 9999 FEW015 BKN130 27/25 A2988=
201705141400 METAR MRLM 141400Z 27004KT 9999 FEW020 BKN120 29/25 A2989=
201705141500 METAR MRLM 141500Z 34002KT 9999 FEW030 BKN130 30/25 A2990=
201705141600 METAR MRLM 141600Z 06006KT 9999 FEW030 BKN230 30/25 A2990=
201705141700 METAR MRLM 141700Z 06005KT 9999 FEW030 BKN230 30/24 A2989=
201705141800 METAR MRLM 141800Z 06006KT 9999 FEW030 BKN230 30/25 A2986=
201705141900 METAR MRLM 141900Z 07006KT CAVOK 30/25 A2984=
201705142000 METAR MRLM 142000Z 07003KT CAVOK 30/24 A2982=
201705142100 METAR MRLM 142100Z 08004KT CAVOK 30/24 A2979=
201705142200 METAR MRLM 142200Z 09005KT CAVOK 30/25 A2977=
201705142300 METAR MRLM 142300Z 11004KT CAVOK 30/24 A2977=
201705150000 METAR MRLM 150000Z 00000KT CAVOK 29/25 A2979=
201705150100 METAR MRLM NIL=
201705150200 METAR MRLM NIL=
201705150300 METAR MRLM NIL=
201705150400 METAR MRLM NIL=
201705150500 METAR MRLM NIL=
201705150600 METAR MRLM NIL=
201705150700 METAR MRLM NIL=
201705150800 METAR MRLM NIL=
201705150900 METAR MRLM NIL=
201705151000 METAR MRLM NIL=
201705151100 METAR MRLM NIL=
201705151200 METAR MRLM 151200Z 27004KT 9999 BKN015 SCT230 25/25 A2986=
201705151300 METAR MRLM 151300Z 30005KT 9999 FEW015 BKN230 28/25 A2987=
201705151400 METAR MRLM 151400Z 29005KT 9999 FEW020 BKN240 28/25 A2988=
201705151500 METAR MRLM 151500Z 00000KT 9999 FEW020 BKN240 30/25 A2988=
201705151600 METAR MRLM 151600Z 03006KT 9999 SCT020 BKN240 30/26 A2989=
201705151700 METAR MRLM 151700Z 03006KT 9999 FEW030 BKN240 30/26 A2987=
201705151800 METAR MRLM 151800Z 03008KT 9999 FEW030 BKN250 31/26 A2985=
201705151900 METAR MRLM 151900Z 03011KT 9999 FEW030 BKN250 30/26 A2982=
201705152000 METAR MRLM 152000Z 03008KT 9999 FEW030 BKN250 30/25 A2979=
201705152100 METAR MRLM 152100Z 02006KT 9999 FEW025 SCT130 BKN240 30/25 A2976=
201705152200 METAR MRLM 152200Z 29003KT 9999 FEW025 BKN220 31/25 A2977=
201705152300 METAR MRLM 152300Z 04006KT 9999 FEW025 BKN220 30/25 A2976=
201705160000 METAR MRLM 160000Z 33004KT 9999 FEW020 BKN220 29/25 A2978=
201705160100 METAR MRLM NIL=
201705160200 METAR MRLM NIL=
201705160300 METAR MRLM NIL=
201705160400 METAR MRLM NIL=
201705160500 METAR MRLM NIL=
201705160600 METAR MRLM NIL=
201705160700 METAR MRLM NIL=
201705160800 METAR MRLM NIL=
201705160900 METAR MRLM NIL=
201705161000 METAR MRLM NIL=
201705161100 METAR MRLM NIL=
201705161200 METAR MRLM 161200Z 24004KT 9999 -DZ FEW015 BKN090 25/23 A2981=
201705161300 METAR MRLM 161300Z 20002KT 9999 FEW015 OVC090 25/23 A2985=
201705161400 METAR MRLM 161400Z 26003KT 9999 FEW020 OVC100 27/24 A2987=
201705161500 METAR MRLM 161500Z 00000KT CAVOK 29/24 A2988=
201705161600 METAR MRLM 161600Z 08004KT CAVOK 29/24 A2987=
201705161700 METAR MRLM 161700Z 34004KT 9999 FEW030 BKN140 32/25 A2985=
201705161800 METAR MRLM 161800Z 03011KT 9999 FEW030 BKN250 31/26 A2982=
201705161900 METAR MRLM 161900Z 03012KT 9999 FEW030 BKN250 31/26 A2979=
201705162000 METAR MRLM 162000Z 03010KT CAVOK 31/25 A2976=
201705162100 METAR MRLM 162100Z 04008KT 9999 VCTS FEW030 BKN250 31/26 A2976=
201705162200 METAR MRLM 162200Z 03005KT 9999 FEW025 BKN240 30/25 A2978=
201705162300 METAR MRLM 162300Z 05003KT 9999 FEW025 BKN240 29/25 A2979=
201705170000 METAR MRLM 170000Z 23003KT 9999 FEW020 BKN220 28/26 A2981=
201705170100 METAR MRLM NIL=
201705170200 METAR MRLM NIL=
201705170300 METAR MRLM NIL=
201705170400 METAR MRLM NIL=
201705170500 METAR MRLM NIL=
201705170600 METAR MRLM NIL=
201705170700 METAR MRLM NIL=
201705170800 METAR MRLM NIL=
201705170900 METAR MRLM NIL=
201705171000 METAR MRLM NIL=
201705171100 METAR MRLM NIL=
201705171200 METAR MRLM 171200Z 22005KT CAVOK 25/23 A2982=
201705171300 METAR MRLM 171300Z 24004KT CAVOK 27/24 A2983=
201705171400 METAR MRLM 171400Z 00000KT CAVOK 30/24 A2986=
201705171500 METAR MRLM 171500Z 07003KT CAVOK 30/24 A2986=
201705171600 METAR MRLM 171600Z 06004KT 9999 FEW025 SCT240 30/24 A2986=
201705171700 METAR MRLM 171700Z 05006KT 9999 FEW025 SCT240 31/25 A2985=
201705171800 METAR MRLM 171800Z 02008KT 9999 VCTS FEW020 SCT240 30/26 A2982=
201705171900 METAR MRLM 171900Z 06003KT 9999 FEW020 BKN230 29/25 A2979=
201705172000 METAR MRLM 172000Z 03005KT 9999 FEW020 BKN230 30/26 A2977=
201705172100 METAR MRLM 172100Z 02006KT 9999 FEW020 BKN230 29/25 A2977=
201705172200 METAR MRLM 172200Z 04005KT 9999 FEW020 BKN230 29/25 A2977=
201705172300 METAR MRLM 172300Z 26002KT 9999 -DZ VCTS FEW020 OVC100 28/26 A2979=
201705180000 METAR MRLM 180000Z 24003KT 9999 -DZ VCTS FEW015 BKN100 27/26 A2982=
201705180100 METAR MRLM NIL=
201705180200 METAR MRLM NIL=
201705180300 METAR MRLM NIL=
201705180400 METAR MRLM NIL=
201705180500 METAR MRLM NIL=
201705180600 METAR MRLM NIL=
201705180700 METAR MRLM NIL=
201705180800 METAR MRLM NIL=
201705180900 METAR MRLM NIL=
201705181000 METAR MRLM NIL=
201705181100 METAR MRLM NIL=
201705181200 METAR MRLM 181200Z 25004KT CAVOK 23/22 A2980=
201705181300 METAR MRLM 181300Z 00000KT CAVOK 25/23 A2981=
201705181400 METAR MRLM 181400Z 00000KT CAVOK 28/24 A2982=
201705181500 METAR MRLM 181500Z 12004KT CAVOK 29/24 A2983=
201705181600 METAR MRLM 181600Z 11004KT 9999 FEW030 30/24 A2982=
201705181700 METAR MRLM 181700Z 10007KT CAVOK 30/25 A2980=
201705181800 METAR MRLM 181800Z 08007KT CAVOK 30/25 A2979=
201705181900 METAR MRLM 181900Z 10008KT CAVOK 30/25 A2976=
201705182000 METAR MRLM 182000Z 08006KT 999 FEW030 30/25 A2973=
201705182100 METAR MRLM 182100Z 09005KT 999 FEW030 SCT250 30/25 A2972=
201705182200 METAR MRLM 182200Z 10004KT 9999 FEW020 SCT240 29/25 A2972=
201705182300 METAR MRLM 182300Z 11004KT 9999 -DZ SCT020 BKN220 30/25 A2973=
201705190000 METAR MRLM 190000Z 13005KT 9999 SCT020 BKN220 29/25 A2976=
201705190100 METAR MRLM NIL=
201705190200 METAR MRLM NIL=
201705190300 METAR MRLM NIL=
201705190400 METAR MRLM NIL=
201705190500 METAR MRLM NIL=
201705190600 METAR MRLM NIL=
201705190700 METAR MRLM NIL=
201705190800 METAR MRLM NIL=
201705190900 METAR MRLM NIL=
201705191000 METAR MRLM NIL=
201705191100 METAR MRLM NIL=
201705191200 METAR MRLM 191200Z 21004KT CAVOK 23/23 A2975=
201705191300 METAR MRLM 191300Z 24003KT CAVOK 25/24 A2976=
201705191400 METAR MRLM 191400Z 13004KT CAVOK 28/24 A2977=
201705191500 METAR MRLM 191500Z 12006KT CAVOK 29/24 A2977=
201705191600 METAR MRLM 191600Z 13008KT CAVOK 30/24 A2976=
201705191700 METAR MRLM 191700Z 12010KT CAVOK 31/24 A2974=
201705191800 METAR MRLM 191800Z 12009KT CAVOK 31/25 A2971=
201705191900 METAR MRLM 191900Z 09006KT CAVOK 31/25 A2969=
201705192000 METAR MRLM 192000Z 07008KT CAVOK 31/26 A2967=
201705192100 METAR MRLM 192100Z 06009KT 9999 SCT020 BKN250 31/26 A2966=
201705192200 METAR MRLM 192200Z 06007KT 9999 BKN020 30/26 A2967=
201705192300 METAR MRLM 192300Z 01005KT 9999 VCSH BKN020 30/25 A2967=
201705200000 METAR MRLM 200000Z 30004KT 9999 -DZ VCSH BKN015 28/26 A2972=
201705200100 METAR MRLM NIL=
201705200200 METAR MRLM NIL=
201705200300 METAR MRLM NIL=
201705200400 METAR MRLM NIL=
201705200500 METAR MRLM NIL=
201705200600 METAR MRLM NIL=
201705200700 METAR MRLM NIL=
201705200800 METAR MRLM NIL=
201705200900 METAR MRLM NIL=
201705201000 METAR MRLM NIL=
201705201100 METAR MRLM NIL=
201705201200 METAR MRLM 201200Z 22004KT 9999 FEW015 BKN090 25/24 A2977=
201705201300 METAR MRLM 201300Z 00000KT CAVOK 26/24 A2979=
201705201400 METAR MRLM 201400Z 07002KT 9999 FEW020 BKN100 28/24 A2979=
201705201500 METAR MRLM 201500Z 05002KT 9999 SCT020 SCT120 30/25 A2980=
201705201600 METAR MRLM 201600Z 08009KT 9999 VCSH SCT020 BKN120 29/25 A2981=
201705201700 METAR MRLM 201700Z 06004KT 9999 FEW020 SCT130 29/25 A2979=
201705201800 METAR MRLM 201800Z 07006KT 9999 FEW020 SCT130 BKN240 30/25 A2977=
201705201900 METAR MRLM 201900Z 05008KT 9999 FEW025 SCT130 BKN240 30/25 A2975=
201705202000 METAR MRLM 202000Z 07006KT CAVOK 30/24 A2973=
201705202100 METAR MRLM 202100Z 06004KT CAVOK 30/24 A2971=
201705202200 METAR MRLM 202200Z 08003KT CAVOK 30/24 A2971=
201705202300 METAR MRLM 202300Z 11002KT CAVOK 29/24 A2974=
201705210000 METAR MRLM 210000Z 27002KT 9999 FEW020 SCT100 BKN220 28/24 A2976=
201705210100 METAR MRLM NIL=
201705210200 METAR MRLM NIL=
201705210300 METAR MRLM NIL=
201705210400 METAR MRLM NIL=
201705210500 METAR MRLM NIL=
201705210600 METAR MRLM NIL=
201705210700 METAR MRLM NIL=
201705210800 METAR MRLM NIL=
201705210900 METAR MRLM NIL=
201705211000 METAR MRLM NIL=
201705211100 METAR MRLM NIL=
201705211200 METAR MRLM 211200Z 00000KT 8000 -DZ VCSH FEW010 BKN080 23/23 A2986=
201705211300 METAR MRLM 211300Z 28002KT 8000 DZ FEW010 BKN080 23/23 A2988=
201705211400 METAR MRLM 211400Z 27003KT 9000 -DZ FEW010 BKN080 24/23 A2989=
201705211500 METAR MRLM 211500Z 23003KT 9999 -DZ FEW015 BKN090 25/24 A2988=
201705211600 METAR MRLM 211600Z 24005KT 9999 FEW015 BKN090 27/24 A2987=
201705211700 METAR MRLM 211700Z 21004KT 9999 FEW020 BKN100 28/24 A2986=
201705211800 METAR MRLM 211800Z 09004KT 9999 FEW020 BKN100 29/24 A2986=
201705211900 METAR MRLM 211900Z 08005KT 9999 FEW025 BKN110 29/24 A2983=
201705212000 METAR MRLM 212000Z 07005KT 9999 FEW025 BKN110 29/24 A2980=
201705212100 METAR MRLM 212100Z 07005KT 9999 -DZ SCT020 BKN100 29/24 A2979=
201705212200 METAR MRLM 212200Z 09005KT 9999 -DZ FEW020 BKN100 28/24 A2980=
201705212300 METAR MRLM 212300Z 23003KT 9999 -DZ FEW020 BKN100 27/25 A2982=
201705220000 METAR MRLM 220000Z 00000KT 9999 FEW015 BKN090 27/25 A2983=
201705220100 METAR MRLM NIL=
201705220200 METAR MRLM NIL=
201705220300 METAR MRLM NIL=
201705220400 METAR MRLM NIL=
201705220500 METAR MRLM NIL=
201705220600 METAR MRLM NIL=
201705220700 METAR MRLM NIL=
201705220800 METAR MRLM NIL=
201705220900 METAR MRLM NIL=
201705221000 METAR MRLM NIL=
201705221100 METAR MRLM NIL=
201705221200 METAR MRLM 221200Z 25003KT CAVOK 24/23 A2985=
201705221300 METAR MRLM 221300Z 24004KT CAVOK 26/24 A2987=
201705221400 METAR MRLM 221400Z 00000KT CAVOK 30/24 A2989=
201705221500 METAR MRLM 221500Z 07004KT 9999 FEW030 29/24 A2989=
201705221600 METAR MRLM 221600Z 07005KT 9999 FEW030 BKN130 30/24 A2990=
201705221700 METAR MRLM 221700Z 05006KT 9999 FEW030 BKN130 30/25 A2988=
201705221800 METAR MRLM 221800Z 05006KT 9999 FEW020 BKN120 30/25 A2985=
201705221900 METAR MRLM 221900Z 03006KT 9999 FEW020 BKN130 30/24 A2984=
201705222000 METAR MRLM 222000Z 03007KT 9999 SCT020 SCT130 30/25 A2981=
201705222100 METAR MRLM 222100Z 02010KT 9999 SCT020 29/25 A2979=
201705222200 METAR MRLM 222200Z 03010KT 9999 BKN015 29/26 A2980=
201705222300 METAR MRLM 222300Z 04012KT 8000 DZ BKN010 28/26 A2982=
201705230000 METAR MRLM 230000Z 04006KT 7000 RA VCTS OVC010 27/25 A2987=
201705230100 METAR MRLM NIL=
201705230200 METAR MRLM NIL=
201705230300 METAR MRLM NIL=
201705230400 METAR MRLM NIL=
201705230500 METAR MRLM NIL=
201705230600 METAR MRLM NIL=
201705230700 METAR MRLM NIL=
201705230800 METAR MRLM NIL=
201705230900 METAR MRLM NIL=
201705231000 METAR MRLM NIL=
201705231100 METAR MRLM NIL=
201705231200 METAR MRLM 231200Z 27003KT 9999 FEW015 BKN130 23/23 A2983=
201705231300 METAR MRLM 231300Z 00000KT 9999 FEW015 BKN120 24/23 A2985=
201705231400 METAR MRLM 231400Z 23004KT 9999 FEW015 SCT130 26/24 A2987=
201705231500 METAR MRLM 231500Z 22002KT CAVOK 29/25 A2986=
201705231600 METAR MRLM 231600Z 08004KT 9999 FEW20 SCT250 29/25 A2986=
201705231700 METAR MRLM 231700Z 06005KT 9999 FEW20 SCT240 29/25 A2985=
201705231800 METAR MRLM 231800Z 01008KT 9999 FEW20 BKN230 29/25 A2984=
201705231900 METAR MRLM 231900Z 01008KT CAVOK 29/24 A2982=
201705232000 METAR MRLM 232000Z 05003KT 9999 FEW020 BKN220 30/25 A2980=
201705232100 METAR MRLM 232100Z 04005KT 9999 FEW020 BKN240 29/25 A2977=
201705232200 METAR MRLM 232200Z 04004KT CAVOK 29/25 A2975=
201705232300 METAR MRLM 232300Z 11002KT CAVOK 29/25 A2977=
201705240000 METAR MRLM 240000Z 00000KT CAVOK 27/25 A2980=
201705240100 METAR MRLM NIL=
201705240200 METAR MRLM NIL=
201705240300 METAR MRLM NIL=
201705240400 METAR MRLM NIL=
201705240500 METAR MRLM NIL=
201705240600 METAR MRLM NIL=
201705240700 METAR MRLM NIL=
201705240800 METAR MRLM NIL=
201705240900 METAR MRLM NIL=
201705241000 METAR MRLM NIL=
201705241100 METAR MRLM NIL=
201705241200 METAR MRLM 241200Z 26004KT CAVOK 24/23 A2983=
201705241300 METAR MRLM 241300Z 24004KT CAVOK 25/24 A2984=
201705241400 METAR MRLM 241400Z 26004KT CAVOK 28/25 A2984=
201705241500 METAR MRLM 241500Z 08002KT 9999 FEW025 SCT130 BKN240 30/25 A2985=
201705241600 METAR MRLM 241600Z 08005KT 9999 FEW025 SCT130 BKN240 30/25 A2985=
201705241700 METAR MRLM 241700Z 06006KT 9999 FEW025 BKN250 30/26 A2983=
201705241800 METAR MRLM 241800Z 06006KT CAVOK 30/25 A2979=
201705241900 METAR MRLM 241900Z 05007KT 9999 FEW030 BKN140 31/26 A2977=
201705242000 METAR MRLM 242000Z 04007KT 9999 FEW030 BKN140 30/26 A2975=
201705242100 METAR MRLM 242100Z 04005KT 9999 FEW030 SCT140 30/26 A2973=
201705242200 METAR MRLM 242200Z 02005KT 9999 FEW025 SCT140 30/26 A2973=
201705242300 METAR MRLM 242300Z 36005KT 9999 SCT020 30/26 A2974=
201705250000 METAR MRLM 250000Z 01005KT 9999 SCT020 SCT200 29/26 A2977=
201705250100 METAR MRLM NIL=
201705250200 METAR MRLM NIL=
201705250300 METAR MRLM NIL=
201705250400 METAR MRLM NIL=
201705250500 METAR MRLM NIL=
201705250600 METAR MRLM NIL=
201705250700 METAR MRLM NIL=
201705250800 METAR MRLM NIL=
201705250900 METAR MRLM NIL=
201705251000 METAR MRLM NIL=
201705251100 METAR MRLM NIL=
201705251200 METAR MRLM 251200Z 25003KT CAVOK 25/24 A2980=
201705251300 METAR MRLM 251300Z 26002KT CAVOK 26/25 A2982=
201705251400 METAR MRLM 251400Z 12002KT 9999 FEW020 SCT120 BKN220 29/26 A2985=
201705251500 METAR MRLM 251500Z 10002KT 9999 VCTS VCSH FEW020 SCT120 BKN220 29/26 A2988=
201705251600 METAR MRLM 251600Z 17004KT 9999 DZ FEW020 SCT120 BKN220 28/26 A2984=
201705251700 METAR MRLM 251700Z 11009KT 9999 DZ FEW015 BKN110 27/26 A2984=
201705251800 METAR MRLM 251800Z 06002KT 9999 -DZ FEW015 BKN110 28/26 A2980=
201705251900 METAR MRLM 251900Z 05002KT 9999 FEW015 BKN110 29/26 A2977 REDZ=
201705252000 METAR MRLM 252000Z 08003KT 9999 FEW020 BKN120 29/26 A2976=
201705252100 METAR MRLM 252100Z 09004KT 9999 FEW020 BKN120 30/26 A2975=
201705252200 METAR MRLM 252200Z 09006KT 9999 FEW020 BKN120 30/25 A2975=
201705252300 METAR MRLM 252300Z 12004KT CAVOK 29/26 A2977=
201705260000 METAR MRLM 260000Z 23002KT CAVOK 28/26 A2978=
201705260100 METAR MRLM NIL=
201705260200 METAR MRLM NIL=
201705260300 METAR MRLM NIL=
201705260400 METAR MRLM NIL=
201705260500 METAR MRLM NIL=
201705260600 METAR MRLM NIL=
201705260700 METAR MRLM NIL=
201705260800 METAR MRLM NIL=
201705260900 METAR MRLM NIL=
201705261000 METAR MRLM NIL=
201705261100 METAR MRLM NIL=
201705261200 METAR MRLM 261200Z 26005KT 9999 FEW015 BKN200 24/23 A2985=
201705261300 METAR MRLM 261300Z 26002KT 9999 FEW015 BKN200 26/24 A2988=
201705261400 METAR MRLM 261400Z 00000KT 9999 FEW020 SCT120 BKN220 29/25 A2990=
201705261500 METAR MRLM 261500Z 01009KT 9999 FEW020 SCT120 BKN220 29/25 A2990=
201705261600 METAR MRLM 261600Z 34005KT CAVOK 30/25 A2991=
201705261700 METAR MRLM 261700Z 34007KT 9999 FEW020 BKN120 30/26 A2990=
201705261800 METAR MRLM 261800Z 36009KT 9999 FEW020 BKN120 30/26 A2988=
201705261900 METAR MRLM 261900Z 01011KT 9999 SCT020 BKN120 30/27 A2987=
201705262000 METAR MRLM 262000Z 01014KT 9999 SCT020 BKN120 29/26 A2983=
201705262100 METAR MRLM 262100Z 36009KT 9999 SCT020 BKN120 29/26 A2981=
201705262200 METAR MRLM 262200Z 33007KT 9999 FEW020 BKN220 30/25 A2983=
201705262300 METAR MRLM 262300Z 01007KT 9999 FEW020 SCT110 BKN220 29/25 A2985=
201705270000 METAR MRLM NIL=
201705270100 METAR MRLM NIL=
201705270200 METAR MRLM NIL=
201705270300 METAR MRLM NIL=
201705270400 METAR MRLM NIL=
201705270500 METAR MRLM NIL=
201705270600 METAR MRLM NIL=
201705270700 METAR MRLM NIL=
201705270800 METAR MRLM NIL=
201705270900 METAR MRLM NIL=
201705271000 METAR MRLM NIL=
201705271100 METAR MRLM NIL=
201705271200 METAR MRLM 271200Z 24003KT 9999 -DZ FEW010 BKN080 25/24 A2990=
201705271300 METAR MRLM 271300Z 25004KT 9999 FEW010 BKN080 25/24 A2990=
201705271400 METAR MRLM 271400Z 00000KT 9999 FEW010 BKN090 26/25 A2990=
201705271500 METAR MRLM 271500Z 00000KT 9999 FEW015 BKN100 28/25 A2992=
201705271600 METAR MRLM 271600Z 15006KT 9999 FEW015 SCT100 BKN200 29/25 A2991=
201705271700 METAR MRLM 271700Z 12007KT 9999 FEW020 BKN220 30/25 A2990=
201705271800 METAR MRLM 271800Z 11008KT 9999 FEW020 SCT120 BKN220 30/26 A2989=
201705271900 METAR MRLM 271900Z 11008KT 9999 FEW020 BKN220 30/26 A2986=
201705272000 METAR MRLM 272000Z 11010KT 9999 FEW020 BKN220 30/26 A2985=
201705272100 METAR MRLM 272100Z 11009KT 9999 FEW025 BKN230 30/25 A2983=
201705272200 METAR MRLM 272200Z 13007KT 9999 FEW025 BKN230 30/25 A2983=
201705272300 METAR MRLM 272300Z 11006KT 9999 FEW020 BKN230 30/25 A2983=
201705280000 METAR MRLM NIL=
201705280100 METAR MRLM NIL=
201705280200 METAR MRLM NIL=
201705280300 METAR MRLM NIL=
201705280400 METAR MRLM NIL=
201705280500 METAR MRLM NIL=
201705280600 METAR MRLM NIL=
201705280700 METAR MRLM NIL=
201705280800 METAR MRLM NIL=
201705280900 METAR MRLM NIL=
201705281000 METAR MRLM NIL=
201705281100 METAR MRLM NIL=
201705281200 METAR MRLM 281200Z 25004KT 9999 FEW010 BKN090 24/24 A2988=
201705281300 METAR MRLM 281300Z 26005KT 9999 VCSH FEW010 BKN090 24/23 A2989=
201705281400 METAR MRLM 281400Z 26004KT 9999 FEW010 BKN090 25/24 A2991=
201705281500 METAR MRLM 281500Z 31002KT 9999 FEW015 BKN100 28/24 A2993=
201705281600 METAR MRLM 281600Z 03008KT 9999 FEW015 BKN100 28/25 A2992=
201705281700 METAR MRLM 281700Z 03006KT 9999 FEW020 BKN120 28/25 A2991=
201705281800 METAR MRLM 281800Z 05005KT 9999 FEW020 BKN120 28/24 A2989=
201705281900 METAR MRLM 281900Z 04004KT 9999 FEW020 BKN120 29/24 A2988=
201705282000 METAR MRLM 282000Z 03005KT 9999 FEW025 BKN120 29/24 A2985=
201705282100 METAR MRLM 282100Z 04006KT 9999 FEW025 BKN120 29/24 A2984=
201705282200 METAR MRLM 282200Z 02005KT 9999 FEW020 BKN120 28/24 A2985=
201705282300 METAR MRLM 282300Z 05003KT 9999 FEW015 BKN110 28/24 A2987=
201705290000 METAR MRLM NIL=
201705290100 METAR MRLM NIL=
201705290200 METAR MRLM NIL=
201705290300 METAR MRLM NIL=
201705290400 METAR MRLM NIL=
201705290500 METAR MRLM NIL=
201705290600 METAR MRLM NIL=
201705290700 METAR MRLM NIL=
201705290800 METAR MRLM NIL=
201705290900 METAR MRLM NIL=
201705291000 METAR MRLM NIL=
201705291100 METAR MRLM NIL=
201705291200 METAR MRLM 291200Z 25004KT 9999 FEW015 BKN080 24/23 A2990=
201705291300 METAR MRLM 291300Z 25003KT 9999 FEW015 BKN080 26/24 A2991=
201705291400 METAR MRLM 291400Z 22005KT 9999 FEW020 SCT100 BKN220 28/24 A2991=
201705291500 METAR MRLM 291500Z 10004KT 9999 FEW020 SCT100 BKN220 28/24 A2993=
201705291600 METAR MRLM 291600Z 08010KT 9999 FEW020 SCT100 BKN220 28/25 A2994=
201705291700 METAR MRLM 291700Z 07008KT 9999 FEW020 SCT120 BKN220 29/24 A2993=
201705291800 METAR MRLM 291800Z 05006KT 9999 FEW020 BKN120 28/24 A2992=
201705291900 METAR MRLM 291900Z 08008KT 9999 FEW020 BKN120 29/25 A2989=
201705292000 METAR MRLM 292000Z 07006KT 9999 FEW025 SCT130 BKN240 29/25 A2987=
201705292100 METAR MRLM 292100Z 04006KT 9999 FEW025 BKN240 29/25 A2985=
201705292200 METAR MRLM 292200Z 06006KT 9999 FEW020 BKN120 28/24 A2986=
201705292300 METAR MRLM 292300Z 05007KT 9999 SCT015 BKN110 28/24 A2987=
201705300000 METAR MRLM NIL=
201705300100 METAR MRLM NIL=
201705300200 METAR MRLM NIL=
201705300300 METAR MRLM NIL=
201705300400 METAR MRLM NIL=
201705300500 METAR MRLM NIL=
201705300600 METAR MRLM NIL=
201705300700 METAR MRLM NIL=
201705300800 METAR MRLM NIL=
201705300900 METAR MRLM NIL=
201705301000 METAR MRLM NIL=
201705301100 METAR MRLM NIL=
201705301200 METAR MRLM 301200Z 26003KT 9999 -DZ SCT010 BKN080 24/24 A2991=
201705301300 METAR MRLM 301300Z 27004KT 9999 -DZ SCT010 BKN080 25/24 A2991=
201705301400 METAR MRLM 301400Z 00000KT 9999 FEW010 BKN090 26/24 A2991=
201705301500 METAR MRLM 301500Z 13003KT 9999 FEW015 BKN090 28/25 A2992=
201705301600 METAR MRLM 301600Z 33005KT 9999 FEW015 BKN100 29/25 A2991=
201705301700 METAR MRLM 301700Z 05002KT 9999 FEW020 BKN100 29/24 A2990=
201705301800 METAR MRLM 301800Z 08005KT 9999 FEW020 BKN100 29/24 A2989=
201705301900 METAR MRLM 301900Z 07006KT 9999 FEW020 BKN120 29/25 A2987=
201705302000 METAR MRLM 302000Z 05005KT 9999 FEW020 BKN120 29/25 A2987=
201705302100 METAR MRLM 302100Z 03006KT 9999 SCT015 BKN120 29/25 A2984=
201705302200 METAR MRLM 302200Z 02005KT 9999 SCT015 BKN120 28/25 A2984=
201705302300 METAR MRLM 302300Z 30002KT 9999 FEW015 BKN110 28/25 A2984=
201705310000 METAR MRLM NIL=
201705310100 METAR MRLM NIL=
201705310200 METAR MRLM NIL=
201705310300 METAR MRLM NIL=
201705310400 METAR MRLM NIL=
201705310500 METAR MRLM NIL=
201705310600 METAR MRLM NIL=
201705310700 METAR MRLM NIL=
201705310800 METAR MRLM NIL=
201705310900 METAR MRLM NIL=
201705311000 METAR MRLM NIL=
201705311100 METAR MRLM NIL=
201705311200 METAR MRLM 311200Z 29002KT 9999 SCT015 BKN090 25/25 A2988=
201705311300 METAR MRLM 311300Z 29003KT 9999 SCT015 BKN090 26/25 A2990=
201705311400 METAR MRLM 311400Z 31004KT 9999 -DZ FEW015 BKN100 27/25 A2991=
201705311500 METAR MRLM 311500Z 29004KT 9999 FEW020 BKN120 29/25 A2991=
201705311600 METAR MRLM 311600Z 04005KT 9999 FEW020 BKN120 30/25 A2990=
201705311700 METAR MRLM 311700Z 04007KT 9999 FEW025 SCT130 31/25 A2988=
201705311800 METAR MRLM 311800Z 04006KT 9999 FEW025 SCT240 29/25 A2988=
201705311900 METAR MRLM 311900Z 03007KT 9999 FEW025 SCT240 29/25 A2985=
201705312000 METAR MRLM 312000Z 04006KT 9999 FEW025 SCT250 30/25 A2983=
201705312100 METAR MRLM 312100Z 03006KT 9999 FEW025 SCT250 30/25 A2982=
201705312200 METAR MRLM 312200Z 04005KT CAVOK 29/25 A2981=
201705312300 METAR MRLM 312300Z 07002KT CAVOK 29/24 A2982=
201706010000 METAR MRLM NIL=
201706010100 METAR MRLM NIL=
201706010200 METAR MRLM NIL=
201706010300 METAR MRLM NIL=
201706010400 METAR MRLM NIL=
201706010500 METAR MRLM NIL=
201706010600 METAR MRLM NIL=
201706010700 METAR MRLM NIL=
201706010800 METAR MRLM NIL=
201706010900 METAR MRLM NIL=
201706011000 METAR MRLM NIL=
201706011100 METAR MRLM NIL=
201706011200 METAR MRLM 011200Z 28004KT 9000 -DZ FEW010 BKN080 24/24 A2986=
201706011300 METAR MRLM 011300Z 32004KT 9999 FEW010 BKN080 26/24 A2985=
201706011400 METAR MRLM 011400Z 33007KT 9999 FEW015 BKN090 28/25 A2985=
201706011500 METAR MRLM 011500Z 33009KT 9999 FEW015 SCT100 28/25 A2987=
201706011600 METAR MRLM 011600Z 31004KT 9999 SCT020 SCT100 31/25 A2989=
201706011700 METAR MRLM 011700Z 32004KT 9999 FEW020 SCT120 30/26 A2987=
201706011800 METAR MRLM 011800Z 03010KT 9999 FEW020 SCT240 30/26 A2985=
201706011900 METAR MRLM 011900Z 02009KT 9999 FEW025 BKN240 30/25 A2984=
201706012000 METAR MRLM 012000Z 03003KT 9999 FEW025 BKN240 29/25 A2981=
201706012100 METAR MRLM 012100Z 06004KT 9999 FEW020 BKN240 29/25 A2978=
201706012200 METAR MRLM 012200Z 09005KT 9999 FEW020 BKN120 29/25 A2977=
201706012300 METAR MRLM 012300Z 10005KT 9999 FEW020 BKN220 29/25 A2977=
201706020000 METAR MRLM NIL=
201706020100 METAR MRLM NIL=
201706020200 METAR MRLM NIL=
201706020300 METAR MRLM NIL=
201706020400 METAR MRLM NIL=
201706020500 METAR MRLM NIL=
201706020600 METAR MRLM NIL=
201706020700 METAR MRLM NIL=
201706020800 METAR MRLM NIL=
201706020900 METAR MRLM NIL=
201706021000 METAR MRLM NIL=
201706021100 METAR MRLM NIL=
201706021200 METAR MRLM 021200Z 25003KT 9999 FEW015 SCT090 BKN200 25/24 A2984=
201706021300 METAR MRLM 021300Z 26002KT 9999 FEW020 SCT100 BKN200 26/25 A2986=
201706021400 METAR MRLM 021400Z 00000KT CAVOK 27/25 A2987=
201706021500 METAR MRLM 021500Z 06003KT 9999 FEW020 BKN220 30/25 A2988=
201706021600 METAR MRLM 021600Z 05005KT 9999 FEW020 BKN120 29/25 A2987=
201706021700 METAR MRLM 021700Z 04005KT 9999 FEW020 BKN120 29/25 A2986=
201706021800 METAR MRLM 021800Z 04004KT 9999 FEW020 BKN120 29/26 A2984=
201706021900 METAR MRLM 021900Z 04004KT 9999 FEW020 BKN130 29/26 A2981=
201706022000 METAR MRLM 022000Z 07003KT 9999 FEW020 BKN220 30/26 A2978=
201706022100 METAR MRLM 022100Z 08004KT 9999 FEW020 BKN220 30/26 A2976=
201706022200 METAR MRLM 022200Z 09005KT 9999 FEW020 SCT220 30/26 A2975=
201706022300 METAR MRLM 022300Z 07006KT 9999 SCT020 SCT220 29/26 A2977=
201706030000 METAR MRLM NIL=
201706030100 METAR MRLM NIL=
201706030200 METAR MRLM NIL=
201706030300 METAR MRLM NIL=
201706030400 METAR MRLM NIL=
201706030500 METAR MRLM NIL=
201706030600 METAR MRLM NIL=
201706030700 METAR MRLM NIL=
201706030800 METAR MRLM NIL=
201706030900 METAR MRLM NIL=
201706031000 METAR MRLM NIL=
201706031100 METAR MRLM NIL=
201706031200 METAR MRLM 031200Z 00000KT 9999 -DZ VCTS SCT010 BKN110 25/25 A2980=
201706031300 METAR MRLM 031300Z 00000KT 9999 FEW015 BKN120 26/25 A2982=
201706031400 METAR MRLM 031400Z 04009KT 8000 3000N DZ BKN015 SCT110 26/25 A2985=
201706031500 METAR MRLM 031500Z 00000KT 7000 3000N +DZ BKN010 SCT100 26/25 A2986=
201706031600 METAR MRLM 031600Z 23003KT 9999 DZ SCT015 BKN110 25/25 A2986=
201706031700 METAR MRLM 031700Z 00000KT 9999 +DZ BKN015 26/25 A2985=
201706031800 METAR MRLM 031800Z 31004KT 9999 DZ BKN015 SCT120 27/26 A2984=
201706031900 METAR MRLM 031900Z 30005KT 9999 FEW020 BKN200 28/25 A2980 REDZ=
201706032000 METAR MRLM 032000Z 07006KT 9999 SCT020 29/26 A2977=
201706032100 METAR MRLM 032100Z 08004KT 9999 FEW020 SCT130 BKN220 28/25 A2976=
201706032200 METAR MRLM 032200Z 06004KT CAVOK 29/25 A2975=
201706032300 METAR MRLM 032300Z 01007KT CAVOK 28/25 A2976=
201706040000 METAR MRLM 040000Z 33003KT CAVOK 27/25 A2978=
201706040100 METAR MRLM NIL=
201706040200 METAR MRLM NIL=
201706040300 METAR MRLM NIL=
201706040400 METAR MRLM NIL=
201706040500 METAR MRLM NIL=
201706040600 METAR MRLM NIL=
201706040700 METAR MRLM NIL=
201706040800 METAR MRLM NIL=
201706040900 METAR MRLM NIL=
201706041000 METAR MRLM NIL=
201706041100 METAR MRLM NIL=
201706041200 METAR MRLM 041200Z 26004KT 9999 -DZ BKN015 25/24 A2980=
201706041300 METAR MRLM 041300Z 23004KT 9999 BKN015 26/25 A2982=
201706041400 METAR MRLM 041400Z 25004KT 9999 FEW015 SCT120 28/26 A2982=
201706041500 METAR MRLM 041500Z 00000KT 9999 SCT025 SCT130 31/26 A2984=
201706041600 METAR MRLM 041600Z 07005KT 9999 SCT030 30/25 A2982=
201706041700 METAR MRLM 041700Z 05004KT 9999 FEW030 31/26 A2981=
201706041800 METAR MRLM 041800Z 06004KT 9999 FEW030 31/26 A2979=
201706041900 METAR MRLM 041900Z 06005KT 9999 FEW030 31/26 A2977=
201706042000 METAR MRLM 042000Z 05006KT 9999 FEW030 30/26 A2975=
201706042100 METAR MRLM 042100Z 06005KT 9999 FEW030 30/26 A2973=
201706042200 METAR MRLM 042200Z 06004KT 9999 SCT030 30/26 A2973=
201706042300 METAR MRLM 042300Z 09004KT 9999 BKN020 29/26 A2974=
201706050000 METAR MRLM 050000Z 09004KT 9999 BKN020 29/26 A2974=
201706050100 METAR MRLM NIL=
201706050200 METAR MRLM NIL=
201706050300 METAR MRLM NIL=
201706050400 METAR MRLM NIL=
201706050500 METAR MRLM NIL=
201706050600 METAR MRLM NIL=
201706050700 METAR MRLM NIL=
201706050800 METAR MRLM NIL=
201706050900 METAR MRLM NIL=
201706051000 METAR MRLM NIL=
201706051100 METAR MRLM NIL=
201706051200 METAR MRLM 051200Z 25003KT CAVOK 26/25 A2979=
201706051300 METAR MRLM 051300Z 25003KT CAVOK 28/25 A2981=
201706051400 METAR MRLM 051400Z 24003KT 9999 FEW020 BKN120 29/26 A2983=
201706051500 METAR MRLM 051500Z 10004KT 9999 FEW020 SCT230 30/26 A2983=
201706051600 METAR MRLM 051600Z 09006KT 9999 FEW020 SCT230 31/26 A2982=
201706051700 METAR MRLM 051700Z 10006KT CAVOK 31/26 A2980=
201706051800 METAR MRLM 051800Z 08006KT CAVOK 31/26 A2979=
201706051900 METAR MRLM 051900Z 07007KT CAVOK 31/26 A2977=
201706052000 METAR MRLM 052000Z 09009KT 9999 FEW025 SCT130 31/26 A2974=
201706052100 METAR MRLM 052100Z 08008KT 9999 BKN025 31/26 A2974=
201706052200 METAR MRLM 052200Z 10006KT 9999 SCT025 31/26 A2974=
201706052300 METAR MRLM 052300Z 12004KT 9999 FEW020 SCT220 30/25 A2974=
201706060000 METAR MRLM 060000Z 22002KT 9999 FEW020 BKN220 29/26 A2975=
201706060100 METAR MRLM NIL=
201706060200 METAR MRLM NIL=
201706060300 METAR MRLM NIL=
201706060400 METAR MRLM NIL=
201706060600 METAR MRLM NIL=
201706060700 METAR MRLM NIL=
201706060800 METAR MRLM NIL=
201706060900 METAR MRLM NIL=
201706061000 METAR MRLM NIL=
201706061100 METAR MRLM NIL=
201706061200 METAR MRLM 061200Z 26005KT CAVOK 24/23 A2982=
201706061300 METAR MRLM 061300Z 26005KT CAVOK 26/24 A2983=
201706061400 METAR MRLM 061400Z 31002KT CAVOK 30/25 A2985=
201706061500 METAR MRLM 061500Z 34004KT 9999 FEW025 BKN240 31/26 A2985=
201706061600 METAR MRLM 061600Z 30003KT 9999 FEW025 BKN240 31/25 A2984=
201706061700 METAR MRLM 061700Z 03009KT 9999 FEW025 BKN240 31/26 A2985=
201706061800 METAR MRLM 061800Z 04008KT 9999 FEW025 BKN250 31/26 A2982=
201706061900 METAR MRLM 061900Z 03008KT 9999 FEW025 BKN250 31/26 A2979=
201706062000 METAR MRLM 062000Z 04006KT 9999 FEW025 BKN250 31/26 A2977=
201706062100 METAR MRLM 062100Z 06005KT 9999 FEW020 BKN250 30/26 A2977=
201706062200 METAR MRLM 062200Z 05006KT 9999 FEW020 BKN250 30/26 A2976=
201706062300 METAR MRLM 062300Z 06004KT 9999 FEW020 BKN230 30/26 A2977=
201706070000 METAR MRLM 070000Z 06003KT 9999 FEW015 BKN220 29/26 A2978=
201706070100 METAR MRLM NIL=
201706070200 METAR MRLM NIL=
201706070300 METAR MRLM NIL=
201706070400 METAR MRLM NIL=
201706070500 METAR MRLM NIL=
201706070600 METAR MRLM NIL=
201706070700 METAR MRLM NIL=
201706070800 METAR MRLM NIL=
201706070900 METAR MRLM NIL=
201706071000 METAR MRLM NIL=
201706071100 METAR MRLM NIL=
201706071200 METAR MRLM 071200Z 23004KT CAVOK 25/24 A2983=
201706071300 METAR MRLM 071300Z 24003KT 9999 FEW020 SCT130 BKN250 26/25 A2986=
201706071400 METAR MRLM 071400Z 30003KT CAVOK 28/25 A2987=
201706071500 METAR MRLM 071500Z 33003KT 9999 FEW030 BKN130 31/25 A2988=
201706071600 METAR MRLM 071600Z 34005KT 9999 SCT030 BKN240 31/25 A2988=
201706071700 METAR MRLM 071700Z 03010KT 9999 FEW030 BKN260 31/26 A2985=
201706071800 METAR MRLM 071800Z 03011KT CAVOK 31/26 A2985=
201706071900 METAR MRLM NIL=
201706072000 METAR MRLM 072000Z 03010KT CAVOK 30/26 A2979=
201706072100 METAR MRLM 072100Z 04009KT CAVOK 31/26 A2979=
201706072200 METAR MRLM 072200Z 10006KT 9999 FEW020 BKN230 30/26 A2980=
201706072300 METAR MRLM 072300Z 14004KT 9999 BKN020 30/26 A2982=
201706080000 METAR MRLM 080000Z 23002KT 9999 BKN015 28/26 A2983=
201706080100 METAR MRLM NIL=
201706080200 METAR MRLM NIL=
201706080300 METAR MRLM NIL=
201706080400 METAR MRLM NIL=
201706080500 METAR MRLM NIL=
201706080600 METAR MRLM NIL=
201706080700 METAR MRLM NIL=
201706080800 METAR MRLM NIL=
201706080900 METAR MRLM NIL=
201706081000 METAR MRLM NIL=
201706081100 METAR MRLM NIL=
201706081200 METAR MRLM 081200Z 25004KT CAVOK 24/23 A2985=
201706081300 METAR MRLM 081300Z 26003KT CAVOK 26/23 A2987=
201706081400 METAR MRLM 081400Z 27003KT CAVOK 28/25 A2989=
201706081500 METAR MRLM 081500Z 00000KT CAVOK 30/25 A2990=
201706081600 METAR MRLM 081600Z 07004KT CAVOK 30/25 A2989=
201706081700 METAR MRLM 081700Z 06004KT CAVOK 31/25 A2988=
201706081800 METAR MRLM 081800Z 05009KT CAVOK 32/26 A2986=
201706081900 METAR MRLM 081900Z 06008KT CAVOK 31/25 A2983=
201706082000 METAR MRLM 082000Z 04005KT CAVOK 31/25 A2981=
201706082100 METAR MRLM 082100Z 04008KT CAVOK 30/26 A2979=
201706082200 METAR MRLM 082200Z 07007KT CAVOK 30/26 A2979=
201706082300 METAR MRLM 082300Z 10006KT 9999 FEW020 BKN130 30/26 A2982=
201706090000 METAR MRLM 090000Z 00000KT 9999 BKN015 29/25 A2985=
201706090100 METAR MRLM NIL=
201706090200 METAR MRLM NIL=
201706090300 METAR MRLM NIL=
201706090400 METAR MRLM NIL=
201706090500 METAR MRLM NIL=
201706090600 METAR MRLM NIL=
201706090700 METAR MRLM NIL=
201706090800 METAR MRLM NIL=
201706090900 METAR MRLM NIL=
201706091000 METAR MRLM NIL=
201706091100 METAR MRLM NIL=
201706091200 METAR MRLM 091200Z 00000KT 9999 FEW015 BKN100 25/23 A2985=
201706091300 METAR MRLM 091300Z 29003KT 9999 FEW015 BKN100 27/23 A2986=
201706091400 METAR MRLM 091400Z 00000KT CAVOK 31/25 A2988=
201706091500 METAR MRLM 091500Z 02006KT 9999 FEW025 SCT240 31/24 A2988=
201706091600 METAR MRLM 091600Z 03010KT 9999 FEW025 SCT240 31/25 A2988=
201706091700 METAR MRLM 091700Z 03009KT 9999 FEW030 SCT140 31/25 A2987=
201706091800 METAR MRLM 091800Z 03009KT CAVOK 31/25 A2985=
201706091900 METAR MRLM 091900Z 03008KT CAVOK 31/25 A2984=
201706092000 METAR MRLM 092000Z 03009KT 9999 FEW025 SCT250 31/26 A2980=
201706092100 METAR MRLM 092100Z 04007KT 9999 FEW025 SCT250 31/26 A2979=
201706092200 METAR MRLM 092200Z 04006KT 9999 FEW025 BKN250 31/26 A2977=
201706092300 METAR MRLM 092300Z 06007KT 9999 FEW020 BKN250 30/26 A2979=
201706100000 METAR MRLM 100000Z 07006KT 9999 FEW020 BKN230 30/25 A2980=
201706100100 METAR MRLM NIL=
201706100200 METAR MRLM NIL=
201706100300 METAR MRLM NIL=
201706100400 METAR MRLM NIL=
201706100500 METAR MRLM NIL=
201706100600 METAR MRLM NIL=
201706100700 METAR MRLM NIL=
201706100800 METAR MRLM NIL=
201706100900 METAR MRLM NIL=
201706101000 METAR MRLM NIL=
201706101100 METAR MRLM NIL=
201706101200 METAR MRLM 101200Z 26003KT 9999 SCT015 BKN090 24/23 A2987=
201706101300 METAR MRLM 101300Z 28002KT 9999 SCT015 BKN090 25/24 A2989=
201706101400 METAR MRLM 101400Z 23003KT 9999 FEW020 BKN100 26/24 A2988=
201706101500 METAR MRLM 101500Z 13003KT 9999 FEW020 BKN100 27/24 A2990=
201706101600 METAR MRLM 101600Z 12005KT 9999 FEW020 BKN110 29/24 A2989=
201706101700 METAR MRLM 101700Z 11004KT CAVOK 29/24 A2988=
201706101800 METAR MRLM 101800Z 09005KT CAVOK 29/24 A2987=
201706101900 METAR MRLM 101900Z 06006KT 9999 FEW025 BKN230 30/25 A2985=
201706102000 METAR MRLM 102000Z 05007KT 9999 SCT020 BKN230 30/25 A2983=
201706102100 METAR MRLM 102100Z 04007KT 9999 SCT020 BKN230 30/25 A2982=
201706102200 METAR MRLM 102200Z 08005KT 9999 SCT020 BKN220 29/24 A2982=
201706102300 METAR MRLM 102300Z 08004KT 9999 SCT020 BKN220 29/25 A2982=
201706110000 METAR MRLM 110000Z 11003KT 9999 SCT015 BKN220 29/24 A2984=
201706110100 METAR MRLM NIL=
201706110200 METAR MRLM NIL=
201706110300 METAR MRLM NIL=
201706110400 METAR MRLM NIL=
201706110500 METAR MRLM NIL=
201706110600 METAR MRLM NIL=
201706110700 METAR MRLM NIL=
201706110800 METAR MRLM NIL=
201706110900 METAR MRLM NIL=
201706111000 METAR MRLM NIL=
201706111100 METAR MRLM NIL=
201706111200 METAR MRLM 111200Z 00000KT 9999 DZ FEW015 BKN110 25/24 A2989=
201706111300 METAR MRLM 111300Z 00000KT 9999 DZ VCTS SCT015 BKN110 25/24 A2990=
201706111400 METAR MRLM 111400Z 00000KT 9999 DZ BKN015 25/25 A2992 REVCTS=
201706111500 METAR MRLM 111500Z 26002KT 9999 4000N DZ BN010 SCT100 25/25 A2993=
201706111600 METAR MRLM 111600Z 32004KT 9999 DZ OVC010 26/25 A2992=
201706111700 METAR MRLM 111700Z 31004KT 8000 DZ BKN010 SCT100 26/25 A2994=
201706111800 METAR MRLM 111800Z 30007KT 9999 FEW015 BKN100 26/25 A2993 REDZ=
201706111900 METAR MRLM 111900Z 32002KT 9999 SCT015 BKN110 28/25 A2990=
201706112000 METAR MRLM 112000Z 25003KT CAVOK 28/25 A2987=
201706112100 METAR MRLM 112100Z 00000KT CAVOK 29/26 A2984=
201706112200 METAR MRLM 112200Z 03003KT CAVOK 28/25 A2982=
201706112300 METAR MRLM 112300Z 32003KT CAVOK 28/25 A2982=
201706120000 METAR MRLM 120000Z 00000KT CAVOK 27/25 A2985=
201706120100 METAR MRLM NIL=
201706120200 METAR MRLM NIL=
201706120300 METAR MRLM NIL=
201706120400 METAR MRLM NIL=
201706120500 METAR MRLM NIL=
201706120600 METAR MRLM NIL=
201706120700 METAR MRLM NIL=
201706120800 METAR MRLM NIL=
201706120900 METAR MRLM NIL=
201706121000 METAR MRLM NIL=
201706121100 METAR MRLM NIL=
201706121200 METAR MRLM 121200Z 29004KT CAVOK 24/23 A2985=
201706121300 METAR MRLM 121300Z 28005KT CAVOK 26/23 A2985=
201706121400 METAR MRLM 121400Z 00000KT CAVOK 28/24 A2985=
201706121500 METAR MRLM 121500Z 11004KT CAVOK 29/25 A2986=
201706121600 METAR MRLM 121600Z 06006KT CAVOK 30/25 A2987=
201706121700 METAR MRLM 121700Z 01007KT 9999 FEW030 BKN130 30/24 A2986=
201706121800 METAR MRLM NIL=
201706121900 METAR MRLM 121900Z 04005KT 9999 FEW030 BKN220 30/25 A2982=
201706122000 METAR MRLM 122000Z 06006KT 9999 FEW030 SCT140 BKN220 30/25 A2980=
201706122100 METAR MRLM 122100Z 10003KT CAVOK 29/25 A2978=
201706122200 METAR MRLM 122200Z 13005KT CAVOK 29/25 A2976=
201706122300 METAR MRLM 122300Z 12005KT 9999 FEW020 BKN130 29/26 A2976=
201706130000 METAR MRLM 130000Z 14006KT 9999 FEW015 BKN130 28/25 A2978=
201706130100 METAR MRLM NIL=
201706130200 METAR MRLM NIL=
201706130300 METAR MRLM NIL=
201706130400 METAR MRLM NIL=
201706130500 METAR MRLM NIL=
201706130600 METAR MRLM NIL=
201706130700 METAR MRLM NIL=
201706130800 METAR MRLM NIL=
201706130900 METAR MRLM NIL=
201706131000 METAR MRLM NIL=
201706131100 METAR MRLM NIL=
201706131200 METAR MRLM 131200Z 27003KT 9999 FEW015 BKN100 24/23 A2982=
201706131300 METAR MRLM 131300Z 27004KT 9999 VCSH FEW015 BKN100 25/24 A2982=
201706131400 METAR MRLM 131400Z 36002KT 9999 -DZ VCSH SCT010 BKN100 26/24 A2984=
201706131500 METAR MRLM 131500Z 30004KT 9999 DZ VCTS FEW010 BKN100 25/23 A2986=
201706131600 METAR MRLM 131600Z 00000KT 8000 +DZ FEW010 BKN100 25/24 A2986=
201706131700 METAR MRLM 131700Z 30002KT 6000 DZ FEW010 BKN100 25/24 A2987=
201706131800 METAR MRLM 131800Z 00000KT 8000 FEW008 BKN100 25/24 A2984 REDZ=
201706131900 METAR MRLM 131900Z 31005KT 9000 FEW008 BKN100 26/25 A2981=
201706132000 METAR MRLM 132000Z 32005KT 9999 FEW010 BKN110 27/25 A2981=
201706132100 METAR MRLM 132100Z 33006KT 9999 FEW010 BKN110 27/25 A2980=
201706132200 METAR MRLM 132200Z 33004KT 9999 FEW010 BKN110 26/24 A2978=
201706132300 METAR MRLM 132300Z 31002KT 9999 FEW010 BKN100 26/24 A2980=
201706140000 METAR MRLM 140000Z 31002KT 9999 FEW010 BKN090 26/24 A2982=
201706140100 METAR MRLM NIL=
201706140200 METAR MRLM NIL=
201706140300 METAR MRLM NIL=
201706140400 METAR MRLM NIL=
201706140500 METAR MRLM NIL=
201706140600 METAR MRLM NIL=
201706140700 METAR MRLM NIL=
201706140800 METAR MRLM NIL=
201706140900 METAR MRLM NIL=
201706141000 METAR MRLM NIL=
201706141100 METAR MRLM NIL=
201706141200 METAR MRLM 141200Z 25005KT CAVOK 23/22 A2983=
201706141300 METAR MRLM 141300Z 25004KT CAVOK 25/23 A2983=
201706141400 METAR MRLM 141400Z 28003KT CAVOK 26/23 A2985=
201706141500 METAR MRLM 141500Z 35002KT 9999 FEW025 SCT120 BKN220 29/24 A2986=
201706141600 METAR MRLM 141600Z 07004KT 9999 FEW025 BKN220 29/24 A2986=
201706141700 METAR MRLM 141700Z 05006KT 9999 FEW025 BKN240 29/24 A2985=
201706141800 METAR MRLM 141800Z 04007KT 9999 FEW025 BKN240 30/25 A2984=
201706141900 METAR MRLM 141900Z 02008KT 9999 FEW025 BKN240 30/25 A2982=
201706142000 METAR MRLM 142000Z 03007KT 9999 FEW025 BKN240 29/24 A2979=
201706142100 METAR MRLM 142100Z 03007KT CAVOK 29/25 A2978=
201706142200 METAR MRLM 142200Z 03006KT 9999 FEW020 SCT130 BKN230 29/25 A2978=
201706142300 METAR MRLM 142300Z 03006KT 9999 FEW020 SCT130 BKN230 29/25 A2979=
201706150000 METAR MRLM 150000Z 07006KT 9999 FEW015 BKN120 28/25 A2982=
201706150100 METAR MRLM NIL=
201706150200 METAR MRLM NIL=
201706150300 METAR MRLM NIL=
201706150400 METAR MRLM NIL=
201706150500 METAR MRLM NIL=
201706150600 METAR MRLM NIL=
201706150700 METAR MRLM NIL=
201706150800 METAR MRLM NIL=
201706150900 METAR MRLM NIL=
201706151000 METAR MRLM NIL=
201706151100 METAR MRLM NIL=
201706151200 METAR MRLM 151200Z 25003KT 9999 VCSH SCT008 BKN090 24/23 A2986=
201706151300 METAR MRLM 151300Z 00000KT 9999 VCSH FEW009 BKN090 24/23 A2986=
201706151400 METAR MRLM 151400Z 00000KT 9999 FEW010 BKN100 26/24 A2988=
201706151500 METAR MRLM 151500Z 32003KT 9999 FEW015 BKN100 28/24 A2989=
201706151600 METAR MRLM 151600Z 31004KT 9999 FEW015 BKN110 28/24 A2988=
201706151700 METAR MRLM 151700Z 34006KT 9999 FEW020 BKN220 29/25 A2987=
201706151800 METAR MRLM 151800Z 34004KT 9999 FEW020 BKN220 30/25 A2986=
201706151900 METAR MRLM 151900Z 33006KT 9999 FEW025 BKN230 30/24 A2983=
201706152000 METAR MRLM 152000Z 35007KT 9999 FEW025 BKN230 29/24 A2981=
201706152100 METAR MRLM 152100Z 01008KT 9999 FEW020 BKN220 29/25 A2980=
201706152200 METAR MRLM 152200Z 36006KT 9999 FEW020 BKN220 29/25 A2980=
201706152300 METAR MRLM 152300Z 31002KT 9999 FEW020 BKN220 28/25 A2981=
201706160000 METAR MRLM 160000Z 32002KT 9999 FEW015 BKN200 28/25 A2983=
201706160100 METAR MRLM NIL=
201706160200 METAR MRLM NIL=
201706160300 METAR MRLM NIL=
201706160400 METAR MRLM NIL=
201706160500 METAR MRLM NIL=
201706160600 METAR MRLM NIL=
201706160700 METAR MRLM NIL=
201706160800 METAR MRLM NIL=
201706160900 METAR MRLM NIL=
201706161000 METAR MRLM NIL=
201706161100 METAR MRLM NIL=
201706161200 METAR MRLM 161200Z 25003KT CAVOK 24/23 A2984=
201706161300 METAR MRLM 161300Z 27004KT CAVOK 26/23 A2985=
201706161400 METAR MRLM 161400Z 31006KT CAVOK 29/24 A2986=
201706161500 METAR MRLM 161500Z 34008KT CAVOK 30/24 A2988=
201706161600 METAR MRLM 161600Z 36006KT 9999 FEW030 BKN250 30/24 A2989=
201706161700 METAR MRLM 161700Z 03007KT 9999 FEW030 BKN240 30/25 A2988=
201706161800 METAR MRLM 161800Z 05007KT 9999 FEW030 BKN240 30/25 A2985=
201706161900 METAR MRLM 161900Z 05006KT CAVOK 30/25 A2982=
201706162000 METAR MRLM 162000Z 04007KT 9999 FEW025 BKN240 30/25 A2981=
201706162100 METAR MRLM 162100Z 05006KT 9999 SCT020 BKN240 29/25 A2979=
201706162200 METAR MRLM 162200Z 08005KT 9999 BKN020 SCT240 30/25 A2978=
201706162300 METAR MRLM 162300Z 14004KT 9999 BKN020 29/25 A2979=
201706170000 METAR MRLM NIL=
201706170100 METAR MRLM NIL=
201706170200 METAR MRLM NIL=
201706170300 METAR MRLM NIL=
201706170400 METAR MRLM NIL=
201706170500 METAR MRLM NIL=
201706170600 METAR MRLM NIL=
201706170700 METAR MRLM NIL=
201706170800 METAR MRLM NIL=
201706170900 METAR MRLM NIL=
201706171000 METAR MRLM NIL=
201706171100 METAR MRLM NIL=
201706171200 METAR MRLM 171200Z 26004KT CAVOK 25/23 A2982=
201706171300 METAR MRLM 171300Z 26003KT 9999 FEW015 BKN200 25/24 A2983=
201706171400 METAR MRLM 171400Z 24003KT 9999 FEW015 BKN200 27/24 A2985=
201706171500 METAR MRLM 171500Z 08002KT 9999 FEW020 BKN220 29/25 A2985=
201706171600 METAR MRLM 171600Z 09003KT CAVOK 29/25 A2984=
201706171700 METAR MRLM 171700Z 10005KT CAVOK 29/25 A2982=
201706171800 METAR MRLM 171800Z 11004KT CAVOK 29/25 A2981=
201706171900 METAR MRLM 171900Z 10007KT CAVOK 30/25 A2979=
201706172000 METAR MRLM 172000Z 10006KT 9999 FEW020 BKN240 30/25 A2977=
201706172100 METAR MRLM 172100Z 09006KT 9999 FEW025 BKN240 30/25 A2975=
201706172200 METAR MRLM 172200Z 10004KT 9999 FEW025 BKN240 30/25 A2975=
201706172300 METAR MRLM 172300Z 15006KT CAVOK 30/25 A2976=
201706180000 METAR MRLM 180000Z 17004KT 9999 FEW020 BKN220 28/25 A2978=
201706180100 METAR MRLM NIL=
201706180200 METAR MRLM NIL=
201706180300 METAR MRLM NIL=
201706180400 METAR MRLM NIL=
201706180500 METAR MRLM NIL=
201706180600 METAR MRLM NIL=
201706180700 METAR MRLM NIL=
201706180800 METAR MRLM NIL=
201706180900 METAR MRLM NIL=
201706181000 METAR MRLM NIL=
201706181100 METAR MRLM NIL=
201706181200 METAR MRLM 181200Z 22002KT CAVOK 24/23 A2979=
201706181300 METAR MRLM 181300Z 20003KT CAVOK 27/24 A2978=
201706181400 METAR MRLM 181400Z 14009KT CAVOK 29/23 A2979=
201706181500 METAR MRLM 181500Z 14013KT CAVOK 31/24 A2979=
201706181600 METAR MRLM 181600Z 13008KT CAVOK 30/25 A2980=
201706181700 METAR MRLM 181700Z 11008KT CAVOK 30/25 A2980=
201706181800 METAR MRLM 181800Z 10004KT CAVOK 30/25 A2979=
201706181900 METAR MRLM 181900Z 08004KT 9999 FEW030 BKN250 31/25 A2976=
201706182000 METAR MRLM 182000Z 08005KT 9999 FEW030 BKN250 31/26 A2975=
201706182100 METAR MRLM 182100Z 07004KT 9999 FEW030 BKN250 31/26 A2974=
201706182200 METAR MRLM 182200Z 07005KT 9999 FEW025 SCT240 30/26 A2973=
201706182300 METAR MRLM 182300Z 11006KT 9999 FEW025 SCT240 30/26 A2973=
201706190000 METAR MRLM 190000Z 13003KT 9999 FEW020 BKN220 29/26 A2975=
201706190100 METAR MRLM NIL=
201706190200 METAR MRLM NIL=
201706190300 METAR MRLM NIL=
201706190400 METAR MRLM NIL=
201706190500 METAR MRLM NIL=
201706190600 METAR MRLM NIL=
201706190700 METAR MRLM NIL=
201706190800 METAR MRLM NIL=
201706190900 METAR MRLM NIL=
201706191000 METAR MRLM NIL=
201706191100 METAR MRLM NIL=
201706191200 METAR MRLM 191200Z 23003KT CAVOK 24/23 A2981=
201706191300 METAR MRLM 191300Z 23003KT CAVOK 27/24 A2982=
201706191400 METAR MRLM 191400Z 11003KT CAVOK 29/25 A2982=
201706191500 METAR MRLM 191500Z 12006KT CAVOK 30/25 A2982=
201706191600 METAR MRLM 191600Z 12005KT CAVOK 30/24 A2981=
201706191700 METAR MRLM 191700Z 10006KT CAVOK 31/25 A2980=
201706191800 METAR MRLM 191800Z 09007KT CAVOK 30/26 A2979=
201706191900 METAR MRLM 191900Z 06005KT CAVOK 31/26 A2978=
201706192000 METAR MRLM 192000Z 07006KT 9999 FEW025 BKN230 31/26 A2976=
201706192100 METAR MRLM 192100Z 06005KT 9999 SCT020 BKN230 31/26 A2975=
201706192200 METAR MRLM 192200Z 06005KT 9999 BKN020 31/26 A2976=
201706192300 METAR MRLM 192300Z 06006KT 9999 SCT020 BKN230 30/26 A2979=
201706200000 METAR MRLM 200000Z 00000KT 9999 BKN020 SCT220 28/24 A2980=
201706200100 METAR MRLM NIL=
201706200200 METAR MRLM NIL=
201706200300 METAR MRLM NIL=
201706200400 METAR MRLM NIL=
201706200500 METAR MRLM NIL=
201706200600 METAR MRLM NIL=
201706200700 METAR MRLM NIL=
201706200800 METAR MRLM NIL=
201706200900 METAR MRLM NIL=
201706201000 METAR MRLM NIL=
201706201100 METAR MRLM NIL=
201706201200 METAR MRLM 201200Z 27005KT 9999 FEW010 BKN100 24/22 A2981=
201706201300 METAR MRLM 201300Z 25004KT 9999 BKN015 25/22 A2983=
201706201400 METAR MRLM 201400Z 00000KT 9999 DZ BKN015 25/23 A2984=
201706201500 METAR MRLM 201500Z 33003KT 9999 FEW020 BKN120 29/24 A2984 REDZ=
201706201600 METAR MRLM 201600Z 05003KT 9999 FEW025 SCT130 BKN250 29/24 A2984=
201706201700 METAR MRLM 201700Z 03006KT 9999 FEW030 BKN240 31/25 A2984=
201706201800 METAR MRLM 201800Z 03008KT 9999 FEW030 BKN220 30/25 A2982=
201706201900 METAR MRLM 201900Z 01007KT 9999 FEW020 SCT130 BKN200 30/25 A2980=
201706202000 METAR MRLM 202000Z 03007KT 9999 FEW020 BKN200 30/26 A2977=
201706202100 METAR MRLM 202100Z 04008KT 9999 FEW020 BKN200 30/25 A2975=
201706202200 METAR MRLM 202200Z 02006KT 9999 FEW020 BKN220 30/25 A2974=
201706202300 METAR MRLM 202300Z 04004KT 9999 FEW020 BKN220 29/25 A2976=
201706210000 METAR MRLM 210000Z 05003KT 9999 FEW020 BKN220 28/25 A2979=
201706210100 METAR MRLM NIL=
201706210200 METAR MRLM NIL=
201706210300 METAR MRLM NIL=
201706210400 METAR MRLM NIL=
201706210500 METAR MRLM NIL=
201706210600 METAR MRLM NIL=
201706210700 METAR MRLM NIL=
201706210800 METAR MRLM NIL=
201706210900 METAR MRLM NIL=
201706211000 METAR MRLM NIL=
201706211100 METAR MRLM NIL=
201706211200 METAR MRLM 211200Z 24003KT 9999 FEW010 BKN200 24/23 A2980=
201706211300 METAR MRLM 211300Z 28003KT 9999 FEW015 SCT100 BKN200 25/24 A2980=
201706211400 METAR MRLM 211400Z 27002KT 9999 FEW015 SCT100 BKN200 29/24 A2983=
201706211500 METAR MRLM 211500Z 07002KT 9999 FEW020 BKN120 29/25 A2984=
201706211600 METAR MRLM 211600Z 03006KT 9999 FEW020 BKN120 29/25 A2987=
201706211700 METAR MRLM 211700Z 31006KT 9999 FEW020 BKN120 29/24 A2986=
201706211800 METAR MRLM 211800Z 01005KT 9999 FEW020 BKN120 28/25 A2984=
201706211900 METAR MRLM 211900Z 01004KT 9999 -DZ FEW020 BKN120 28/25 A2982=
201706212000 METAR MRLM 212000Z 03006KT 9999 FEW020 BKN120 29/25 A2980=
201706212100 METAR MRLM 212100Z 03004KT 9999 FEW020 BKN120 28/25 A2976=
201706212200 METAR MRLM 212200Z 00000KT 9999 FEW020 BKN120 29/25 A2974=
201706212300 METAR MRLM 212300Z 03006KT CAVOK 28/25 A2974=
201706220000 METAR MRLM 220000Z 01004KT 9999 FEW015 BKN200 28/25 A2975=
201706220100 METAR MRLM NIL=
201706220200 METAR MRLM NIL=
201706220300 METAR MRLM NIL=
201706220400 METAR MRLM NIL=
201706220500 METAR MRLM NIL=
201706220600 METAR MRLM NIL=
201706220700 METAR MRLM NIL=
201706220800 METAR MRLM NIL=
201706220900 METAR MRLM NIL=
201706221000 METAR MRLM NIL=
201706221100 METAR MRLM NIL=
201706221200 METAR MRLM 221200Z 24003KT 9999 VCSH FEW015 BKN100 25/24 A2983=
201706221300 METAR MRLM 221300Z 22002KT 9999 VCSH FEW015 BKN100 25/24 A2984=
201706221400 METAR MRLM 221400Z 23002KT 9999 FEW015 BKN100 26/24 A2987=
201706221500 METAR MRLM 221500Z 12005KT 9999 -DZ SCT015 BKN100 27/25 A2989=
201706221600 METAR MRLM 221600Z 11009KT 9999 DZ SCT015 BKN100 27/25 A2990=
201706221700 METAR MRLM 221700Z 12009KT 9999 -DZ FEW015 BKN110 27/25 A2988=
201706221800 METAR MRLM 221800Z 14010KT 9999 FEW015 BKN110 28/25 A2987 REDZ=
201706221900 METAR MRLM 221900Z 15011KT 9999 FEW015 BKN110 27/24 A2984=
201706222000 METAR MRLM 222000Z 17006KT 9999 FEW020 BKN120 27/24 A2980=
201706222100 METAR MRLM 222100Z 18004KT 9999 FEW020 BKN120 28/24 A2978=
201706222200 METAR MRLM 222200Z 14004KT 9999 FEW020 BKN120 29/25 A2977=
201706222300 METAR MRLM 222300Z 10002KT 9999 FEW020 SCT120 BKN230 28/24 A2978=
201706230000 METAR MRLM 230000Z 00000KT CAVOK 28/25 A2979=
201706230100 METAR MRLM NIL=
201706230200 METAR MRLM NIL=
201706230300 METAR MRLM NIL=
201706230400 METAR MRLM NIL=
201706230500 METAR MRLM NIL=
201706230600 METAR MRLM NIL=
201706230700 METAR MRLM NIL=
201706230800 METAR MRLM NIL=
201706230900 METAR MRLM NIL=
201706231000 METAR MRLM NIL=
201706231100 METAR MRLM NIL=
201706231200 METAR MRLM 231200Z 25004KT CAVOK 24/23 A2984=
201706231300 METAR MRLM 231300Z 25003KT CAVOK 26/25 A2984=
201706231400 METAR MRLM 231400Z 12003KT 9999 FEW020 29/25 A2985=
201706231500 METAR MRLM 231500Z 12005KT 9999 FEW020 29/25 A2987=
201706231600 METAR MRLM 231600Z 12006KT 9999 FEW030 30/24 A2986=
201706231700 METAR MRLM 231700Z 12006KT CAVOK 31/25 A2987=
201706231800 METAR MRLM 231800Z 12006KT CAVOK 30/24 A2985=
201706231900 METAR MRLM 231900Z 11008KT CAVOK 31/24 A2982=
201706232000 METAR MRLM 232000Z 09006KT CAVOK 31/24 A2980=
201706232100 METAR MRLM 232100Z 09005KT CAVOK 30/25 A2977=
201706232200 METAR MRLM 232200Z 08005KT 9999 FEW030 BKN250 30/25 A2977=
201706232300 METAR MRLM 232300Z 08005KT 9999 FEW025 BKN240 30/24 A2979=
201706240000 METAR MRLM 240000Z 09003KT 9999 FEW020 BKN240 30/25 A2982=
201706240100 METAR MRLM NIL=
201706240200 METAR MRLM NIL=
201706240300 METAR MRLM NIL=
201706240400 METAR MRLM NIL=
201706240500 METAR MRLM NIL=
201706240600 METAR MRLM NIL=
201706240700 METAR MRLM NIL=
201706240800 METAR MRLM NIL=
201706240900 METAR MRLM NIL=
201706241000 METAR MRLM NIL=
201706241100 METAR MRLM NIL=
201706241200 METAR MRLM 241200Z 27004KT 9999 DZ SCT015 SCT110 24/23 A2984=
201706241300 METAR MRLM 241300Z 34003KT 2000 +RA BKN015 24/23 A2985=
201706241400 METAR MRLM 241400Z 24003KT 9999 SCT015 BKN100 26/25 A2987 RERA=
201706241500 METAR MRLM 241500Z 22004KT 9999 FEW015 BKN110 28/25 A2988=
201706241600 METAR MRLM 241600Z 22003KT 9999 FEW020 BKN120 30/26 A2988=
201706241700 METAR MRLM 241700Z 07003KT 9999 SCT025 30/26 A2988=
201706241800 METAR MRLM 241800Z 07004KT 9999 SCT030 31/25 A2986=
201706241900 METAR MRLM 241900Z 08007KT 9999 FEW030 31/25 A2984=
201706242000 METAR MRLM 242000Z 06010KT CAVOK 30/25 A2982=
201706242100 METAR MRLM NIL=
201706242200 METAR MRLM 242200Z 04007KT 9999 FEW025 BKN130 30/25 A2980=
201706242300 METAR MRLM 242300Z 06006KT 9999 BKN020 30/25 A2982=
201706250000 METAR MRLM 250000Z 06009KT 9999 SCT020 29/24 A2984=
201706250100 METAR MRLM NIL=
201706250200 METAR MRLM NIL=
201706250300 METAR MRLM NIL=
201706250400 METAR MRLM NIL=
201706250500 METAR MRLM NIL=
201706250600 METAR MRLM NIL=
201706250700 METAR MRLM NIL=
201706250800 METAR MRLM NIL=
201706250900 METAR MRLM NIL=
201706251000 METAR MRLM NIL=
201706251100 METAR MRLM NIL=
201706251200 METAR MRLM 251200Z 27005KT 9999 FEW015 SCT100 24/23 A2986=
201706251300 METAR MRLM 251300Z 26003KT CAVOK 26/24 A2988=
201706251400 METAR MRLM 251400Z 31003KT CAVOK 29/24 A2990=
201706251500 METAR MRLM 251500Z 00000KT 9999 FEW030 SCT250 31/24 A2990=
201706251600 METAR MRLM 251600Z 05006KT 9999 FEW025 SCT240 30/25 A2990=
201706251700 METAR MRLM 251700Z 06006KT CAVOK 30/24 A2990=
201706251800 METAR MRLM 251800Z 05005KT CAVOK 30/25 A2988=
201706251900 METAR MRLM 251900Z 04008KT 9999 FEW030 BKN240 31/26 A2986=
201706252000 METAR MRLM 252000Z 04008KT 9999 FEW030 BKN240 31/25 A2983=
201706252100 METAR MRLM 252100Z 05007KT 9999 FEW025 BKN240 30/25 A2983=
201706252200 METAR MRLM 252200Z 05007KT 9999 SCT025 SCT130 30/25 A2982=
201706252300 METAR MRLM 252300Z 04005KT 9999 SCT025 BKN230 30/24 A2981=
201706260000 METAR MRLM 260000Z 06003KT 9999 BKN020 29/24 A2985=
201706260100 METAR MRLM NIL=
201706260200 METAR MRLM NIL=
201706260300 METAR MRLM NIL=
201706260400 METAR MRLM NIL=
201706260500 METAR MRLM NIL=
201706260600 METAR MRLM NIL=
201706260700 METAR MRLM NIL=
201706260800 METAR MRLM NIL=
201706260900 METAR MRLM NIL=
201706261000 METAR MRLM NIL=
201706261100 METAR MRLM NIL=
201706261200 METAR MRLM 261200Z 32004KT 9999 FEW015 BKN090 25/24 A2985=
201706261300 METAR MRLM 261300Z 29003KT 9999 FEW015 BKN090 25/24 A2988=
201706261400 METAR MRLM 261400Z 32005KT 9999 FEW020 BKN100 27/24 A2989=
201706261500 METAR MRLM 261500Z 31005KT 9999 FEW020 BKN100 29/24 A2991=
201706261600 METAR MRLM 261600Z 35006KT 9999 FEW020 BKN120 29/24 A2989=
201706261700 METAR MRLM 261700Z 34007KT 9999 FEW025 BKN120 30/24 A2988=
201706261800 METAR MRLM 261800Z 33006KT 9999 FEW025 BKN120 30/24 A2987=
201706261900 METAR MRLM 261900Z 36010KT CAVOK 30/25 A2985=
201706262000 METAR MRLM 262000Z 32006KT 9999 FEW020 BKN120 29/25 A2984=
201706262100 METAR MRLM 262100Z 32004KT 9999 FEW020 BKN120 29/24 A2984=
201706262200 METAR MRLM 262200Z 35005KT 9999 -DZ VCSH SCT015 BKN110 29/25 A2983=
201706262300 METAR MRLM 262300Z 04013KT 9999 -DZ VCSH SCT015 BKN110 26/23 A2985=
201706270000 METAR MRLM 270000Z 28005KT 7000 +DZ SCT010 BKN090 23/22 A2987=
201706270100 METAR MRLM NIL=
201706270200 METAR MRLM NIL=
201706270300 METAR MRLM NIL=
201706270400 METAR MRLM NIL=
201706270500 METAR MRLM NIL=
201706270600 METAR MRLM NIL=
201706270700 METAR MRLM NIL=
201706270800 METAR MRLM NIL=
201706270900 METAR MRLM NIL=
201706271000 METAR MRLM NIL=
201706271100 METAR MRLM NIL=
201706271200 METAR MRLM 271200Z 25005KT 9999 FEW010 BKN110 23/22 A2986=
201706271300 METAR MRLM 271300Z 23005KT 9999 FEW015 BKN120 24/23 A2988=
201706271400 METAR MRLM 271400Z 24003KT CAVOK 27/24 A2989=
201706271500 METAR MRLM 271500Z 28003KT 9999 BKN020 SCT110 27/24 A2990=
201706271600 METAR MRLM 271600Z 28004KT 9999 FEW020 BKN120 28/24 A2990=
201706271700 METAR MRLM 271700Z 08007KT 9999 BKN015 29/24 A2990=
201706271800 METAR MRLM 271800Z 06009KT 9999 FEW020 BKN120 27/24 A2987=
201706271900 METAR MRLM 271900Z 04003KT 9999 FEW020 BKN130 28/24 A2984=
201706272000 METAR MRLM 272000Z 07004KT CAVOK 29/24 A2981=
201706272100 METAR MRLM 272100Z 35008KT CAVOK 30/24 A2979=
201706272200 METAR MRLM 272200Z 01008KT CAVOK 30/24 A2979=
201706272300 METAR MRLM 272300Z 02007KT CAVOK 29/24 A2980=
201706280000 METAR MRLM 280000Z 01006KT CAVOK 28/25 A2982=
201706280100 METAR MRLM NIL=
201706280200 METAR MRLM NIL=
201706280300 METAR MRLM NIL=
201706280400 METAR MRLM NIL=
201706280500 METAR MRLM NIL=
201706280600 METAR MRLM NIL=
201706280700 METAR MRLM NIL=
201706280800 METAR MRLM NIL=
201706280900 METAR MRLM NIL=
201706281000 METAR MRLM NIL=
201706281100 METAR MRLM NIL=
201706281200 METAR MRLM 281200Z 26002KT 9999 FEW015 SCT130 SCT240 24/23 A2984=
201706281300 METAR MRLM 281300Z 28003KT 9999 FEW015 SCT130 BKN250 24/23 A2986=
201706281400 METAR MRLM 281400Z 00000KT 9999 FEW015 SCT130 BKN250 27/24 A2987=
201706281500 METAR MRLM 281500Z 36006KT 9999 FEW030 BKN250 30/24 A2987=
201706281600 METAR MRLM 281600Z 04005KT 9999 FEW030 SCT130 BKN250 30/25 A2987=
201706281700 METAR MRLM 281700Z 03007KT 9999 FEW020 BKN120 29/24 A2988=
201706281800 METAR MRLM 281800Z 03006KT 9999 SCT020 BKN110 28/25 A2987=
201706281900 METAR MRLM 281900Z 05003KT 9999 FEW020 SCT140 BKN200 29/25 A2984=
201706282000 METAR MRLM 282000Z 04007KT 9999 FEW020 BKN200 29/25 A2982=
201706282100 METAR MRLM 282100Z 03008KT 9999 FEW020 BKN200 29/25 A2979=
201706282200 METAR MRLM 282200Z 01009KT 9999 FEW020 SCT130 BKN200 29/25 A2981=
201706282300 METAR MRLM 282300Z 36007KT 9999 FEW015 BKN230 29/25 A2982=
201706290000 METAR MRLM 290000Z 36005KT 9999 FEW015 BKN240 28/25 A2986=
201706290100 METAR MRLM NIL=
201706290200 METAR MRLM NIL=
201706290300 METAR MRLM NIL=
201706290400 METAR MRLM NIL=
201706290500 METAR MRLM NIL=
201706290600 METAR MRLM NIL=
201706290700 METAR MRLM NIL=
201706290800 METAR MRLM NIL=
201706290900 METAR MRLM NIL=
201706291000 METAR MRLM NIL=
201706291100 METAR MRLM NIL=
201706291200 METAR MRLM 291200Z 28004KT 9999 SCT010 BKN090 24/23 A2989=
201706291300 METAR MRLM 291300Z 26004KT 9999 SCT010 BKN090 24/23 A2990=
201706291400 METAR MRLM 291400Z 26004KT 9999 FEW010 BKN090 25/24 A2990=
201706291500 METAR MRLM 291500Z 22003KT 9999 FEW015 BKN100 27/25 A2991=
201706291600 METAR MRLM 291600Z 26004KT 9999 FEW015 BKN100 28/25 A2990=
201706291700 METAR MRLM 291700Z 27003KT 9999 FEW015 BKN100 29/24 A2990=
201706291800 METAR MRLM 291800Z 28002KT 9999 FEW015 BKN100 29/25 A2988=
201706291900 METAR MRLM 291900Z 34004KT 9999 -DZ FEW020 BKN110 29/24 A2987=
201706292000 METAR MRLM 292000Z 03011KT 9999 FEW020 BKN110 28/25 A2986=
201706292100 METAR MRLM 292100Z 32003KT CAVOK 29/24 A2983=
201706292200 METAR MRLM 292200Z 31002KT CAVOK 28/24 A2982=
201706292300 METAR MRLM 292300Z 31002KT CAVOK 28/24 A2984=
201706300000 METAR MRLM 300000Z 28002KT 9999 FEW015 BKN200 27/25 A2984=
201706300100 METAR MRLM NIL=
201706300200 METAR MRLM NIL=
201706300300 METAR MRLM NIL=
201706300400 METAR MRLM NIL=
201706300500 METAR MRLM NIL=
201706300600 METAR MRLM NIL=
201706300700 METAR MRLM NIL=
201706300800 METAR MRLM NIL=
201706300900 METAR MRLM NIL=
201706301000 METAR MRLM NIL=
201706301100 METAR MRLM NIL=
201706301200 METAR MRLM 301200Z 28003KT CAVOK 23/22 A2983=
201706301300 METAR MRLM 301300Z 27002KT CAVOK 24/23 A2985=
201706301400 METAR MRLM 301400Z 27003KT CAVOK 27/24 A2987=
201706301500 METAR MRLM 301500Z 00000KT CAVOK 28/24 A2988=
201706301600 METAR MRLM 301600Z 08004KT 9999 FEW020 BKN110 29/24 A2989=
201706301700 METAR MRLM 301700Z 05004KT 9999 FEW020 BKN120 29/24 A2987=
201706301800 METAR MRLM 301800Z 02005KT 9999 FEW020 BKN120 29/25 A2985=
201706301900 METAR MRLM 301900Z 04005KT 9999 FEW020 BKN120 29/25 A2982=
201706302000 METAR MRLM 302000Z 03003KT 9999 FEW020 BKN240 29/25 A2979=
201706302100 METAR MRLM 302100Z 03005KT 9999 FEW020 BKN240 29/25 A2978=
201706302200 METAR MRLM 302200Z 36006KT CAVOK 29/24 A2977=
201706302300 METAR MRLM 302300Z 34006KT 9999 FEW020 BKN230 28/25 A2979=
201707010000 METAR MRLM 010000Z 34006KT 9999 FEW015 BKN210 28/24 A2981=
201707010100 METAR MRLM NIL=
201707010200 METAR MRLM NIL=
201707010300 METAR MRLM NIL=
201707010400 METAR MRLM NIL=
201707010500 METAR MRLM NIL=
201707010600 METAR MRLM NIL=
201707010700 METAR MRLM NIL=
201707010800 METAR MRLM NIL=
201707010900 METAR MRLM NIL=
201707011000 METAR MRLM NIL=
201707011100 METAR MRLM NIL=
201707011200 METAR MRLM 011200Z 00000KT CAVOK 24/23 A2984=
201707011300 METAR MRLM 011300Z 25004KT CAVOK 25/24 A2986=
201707011400 METAR MRLM 011400Z 27002KT 9999 FEW015 SCT130 BKN250 26/25 A2988=
201707011500 METAR MRLM 011500Z 04003KT 9999 FEW020 BKN250 29/25 A2989=
201707011600 METAR MRLM 011600Z 32004KT 9999 FEW020 BKN250 29/24 A2989=
201707011700 METAR MRLM 011700Z 02011KT 9999 FEW020 BKN240 30/25 A2989=
201707011800 METAR MRLM 011800Z 36008KT 9999 FEW020 BKN230 29/25 A2987=
201707011900 METAR MRLM 011900Z 01009KT 9999 FEW030 BKN230 31/25 A2984=
201707012000 METAR MRLM 012000Z 03008KT CAVOK 30/25 A2982=
201707012100 METAR MRLM 012100Z 03008KT CAVOK 29/25 A2981=
201707012200 METAR MRLM 012200Z 03008KT 9999 FEW020 BKN200 29/25 A2982=
201707012300 METAR MRLM 012300Z 34004KT 9999 FEW020 BKN220 29/25 A2983=
201707020000 METAR MRLM 020000Z 34005KT 9999 SCT020 BKN220 28/25 A2987=
201707020100 METAR MRLM NIL=
201707020200 METAR MRLM NIL=
201707020300 METAR MRLM NIL=
201707020400 METAR MRLM NIL=
201707020500 METAR MRLM NIL=
201707020600 METAR MRLM NIL=
201707020700 METAR MRLM NIL=
201707020800 METAR MRLM NIL=
201707020900 METAR MRLM NIL=
201707021000 METAR MRLM NIL=
201707021100 METAR MRLM NIL=
201707021200 METAR MRLM 021200Z 26006KT 9999 VCTS DZ SCT010 BKN090 24/23 A2989=
201707021300 METAR MRLM 021300Z 20003KT 8000 VCTS DZ SCT010 BKN090 24/23 A2991=
201707021400 METAR MRLM 021400Z 00000KT 8000 +DZ VCTS SCT010 BKN090 24/23 A2992=
201707021500 METAR MRLM 021500Z 26004KT 8000 DZ VCTS SCT010 BKN090 24/23 A2993=
201707021600 METAR MRLM 021600Z 00000KT 9999 DZ FEW010 BKN090 24/23 A2995 REVCTS=
201707021700 METAR MRLM 021700Z 30003KT 9999 DZ FEW015 BKN090 24/23 A2996=
201707021800 METAR MRLM 021800Z 26003KT 9999 DZ FEW020 BKN110 24/23 A2990=
201707021900 METAR MRLM 021900Z 13006KT CAVOK 25/24 A2988 REDZ=
201707022000 METAR MRLM 022000Z 00000KT 9999 FEW020 SCT130 BKN220 27/24 A2986=
201707022100 METAR MRLM 022100Z 20004KT 9999 FEW015 BKN220 26/24 A2985=
201707022200 METAR MRLM 022200Z 00000KT 9999 FEW015 BKN230 27/24 A2985=
201707022300 METAR MRLM 022300Z 28002KT CAVOK 27/24 A2984=
201707030000 METAR MRLM 030000Z 00000KT CAVOK 27/24 A2987=
201707030100 METAR MRLM NIL=
201707030200 METAR MRLM NIL=
201707030300 METAR MRLM NIL=
201707030400 METAR MRLM NIL=
201707030500 METAR MRLM NIL=
201707030600 METAR MRLM NIL=
201707030700 METAR MRLM NIL=
201707030800 METAR MRLM NIL=
201707030900 METAR MRLM NIL=
201707031000 METAR MRLM NIL=
201707031100 METAR MRLM NIL=
201707031200 METAR MRLM 031200Z 25002KT 9999 SCT010 BKN080 23/22 A2988=
201707031300 METAR MRLM 031300Z 21003KT 9999 VCTS SCT010 BKN080 23/22 A2988=
201707031400 METAR MRLM 031400Z 18003KT 9999 DZ FEW010 BKN080 23/22 A2989=
201707031500 METAR MRLM 031500Z 28003KT 9999 FEW015 BKN090 24/23 A2987 REDZ=
201707031600 METAR MRLM 031600Z 00000KT 9999 FEW015 BKN090 25/23 A2988=
201707031700 METAR MRLM 031700Z 26002KT 9999 SCT020 BKN100 27/24 A2988=
201707031800 METAR MRLM 031800Z 07004KT 9999 FEW020 BKN220 29/24 A2984=
201707031900 METAR MRLM 031900Z 34007KT 9999 FEW020 BKN120 29/24 A2983=
201707032000 METAR MRLM 032000Z 03006KT 9999 FEW020 SCT120 BKN230 29/24 A2981=
201707032100 METAR MRLM 032100Z 02008KT CAVOK 28/24 A2978=
201707032200 METAR MRLM 032200Z 33005KT CAVOK 30/24 A2977=
201707032300 METAR MRLM 032300Z 31004KT CAVOK 28/24 A2980=
201707040000 METAR MRLM 040000Z 32005KT CAVOK 27/24 A2982=
201707040100 METAR MRLM NIL=
201707040200 METAR MRLM NIL=
201707040300 METAR MRLM NIL=
201707040400 METAR MRLM NIL=
201707040500 METAR MRLM NIL=
201707040600 METAR MRLM NIL=
201707040700 METAR MRLM NIL=
201707040800 METAR MRLM NIL=
201707040900 METAR MRLM NIL=
201707041000 METAR MRLM NIL=
201707041100 METAR MRLM NIL=
201707041200 METAR MRLM 041200Z 23004KT CAVOK 24/23 A2986=
201707041300 METAR MRLM 041300Z 24002KT 9999 FEW015 SCT100 BKN200 25/24 A2985=
201707041400 METAR MRLM 041400Z 00000KT 9999 FEW020 SCT220 28/24 A2986=
201707041500 METAR MRLM 041500Z 12003KT 9999 FEW020 SCT120 BKN220 29/25 A2988=
201707041600 METAR MRLM 041600Z 07005KT 9999 FEW020 SCT120 BKN220 29/25 A2987=
201707041700 METAR MRLM 041700Z 04007KT 9999 FEW025 BKN240 30/25 A2987=
201707041800 METAR MRLM 041800Z 05009KT 9999 FEW025 SCT240 30/26 A2985=
201707041900 METAR MRLM 041900Z 03009KT 9999 VCTS FEW020 SCT240 30/26 A2983=
201707042000 METAR MRLM 042000Z 05004KT 9999 FEW020 BKN230 29/25 A2982=
201707042100 METAR MRLM 042100Z 06004KT 9999 FEW020 SCT120 BKN230 29/25 A2981=
201707042200 METAR MRLM 042200Z 04003KT 9999 FEW020 BKN220 29/25 A2982=
201707042300 METAR MRLM 042300Z 04003KT 9999 FEW020 BKN220 29/25 A2985=
201707050000 METAR MRLM 050000Z 25004KT 9999 VCTS VCSH SCT015 BKN200 27/25 A2988=
201707050100 METAR MRLM NIL=
201707050200 METAR MRLM NIL=
201707050300 METAR MRLM NIL=
201707050400 METAR MRLM NIL=
201707050500 METAR MRLM NIL=
201707050600 METAR MRLM NIL=
201707050700 METAR MRLM NIL=
201707050800 METAR MRLM NIL=
201707050900 METAR MRLM NIL=
201707051000 METAR MRLM NIL=
201707051100 METAR MRLM NIL=
201707051200 METAR MRLM 051200Z 00000KT 9999 FEW015 BKN100 24/23 A2986=
201707051300 METAR MRLM 051300Z 00000KT 9999 FEW015 BKN090 24/23 A2986=
201707051400 METAR MRLM 051400Z 28002KT 9999 SCT015 BKN100 25/24 A2988=
201707051500 METAR MRLM 051500Z 24003KT 9999 VCTS SCT015 SCT090 27/24 A2989=
201707051600 METAR MRLM 051600Z 20003KT 3000 TS RA FEW008CB BKN010 25/24 A2982=
201707051700 METAR MRLM 051700Z 23002KT 9999 4000N +DZ VCTS SCT010 BKN090 25/24 A2989 RERA=
201707051800 METAR MRLM 051800Z 00000KT 9999 DZ VCTS FEW010 BKN100 25/24 A2989=
201707051900 METAR MRLM 051900Z 30002KT 9999 +DZ VCTS FEW015 BKN100 25/24 A2990=
201707052000 METAR MRLM 052000Z 31004KT 9999 DZ VCTS FEW015 SCT120 BKN200 25/24 A2987=
201707052100 METAR MRLM 052100Z 00000KT 9999 DZ FEW015 BKN120 25/24 A2986=
201707052200 METAR MRLM 052200Z 00000KT 9999 DZ SCT015 BKN110 25/24 A2985=
201707052300 METAR MRLM 052300Z 00000KT 9999 DZ SCT015 SCT100 25/24 A2985=
201707060000 METAR MRLM 060000Z 27003KT 8000 +DZ SCT010 SCT090 25/24 A2988=
201707060100 METAR MRLM NIL=
201707060200 METAR MRLM NIL=
201707060300 METAR MRLM NIL=
201707060400 METAR MRLM NIL=
201707060500 METAR MRLM NIL=
201707060600 METAR MRLM NIL=
201707060700 METAR MRLM NIL=
201707060800 METAR MRLM NIL=
201707060900 METAR MRLM NIL=
201707061000 METAR MRLM NIL=
201707061100 METAR MRLM NIL=
201707061200 METAR MRLM 061200Z 00000KT CAVOK 24/23 A2984=
201707061300 METAR MRLM 061300Z 25005KT CAVOK 24/24 A2987=
201707061400 METAR MRLM 061400Z 00000KT 9999 -DZ FEW015 BKN110 26/25 A2989=
201707061500 METAR MRLM 061500Z 16002KT 9999 FEW015 BKN120 27/25 A2989=
201707061600 METAR MRLM 061600Z 11003KT CAVOK 28/25 A2989=
201707061700 METAR MRLM 061700Z 08002KT CAVOK 28/25 A2987=
201707061800 METAR MRLM 061800Z 08007KT 9999 FEW020 BKN240 30/26 A2985=
201707061900 METAR MRLM 061900Z 04007KT CAVOK 30/26 A2983=
201707062000 METAR MRLM 062000Z 03008KT CAVOK 30/26 A2982=
201707062100 METAR MRLM 062100Z 02008KT CAVOK 30/25 A2981=
201707062200 METAR MRLM NIL=
201707062300 METAR MRLM 062300Z 02003KT 9999 SCT020 BKN240 29/25 A2983=
201707070000 METAR MRLM 070000Z 00000KT 9999 BKN015 28/26 A2984=
201707070100 METAR MRLM NIL=
201707070200 METAR MRLM NIL=
201707070300 METAR MRLM NIL=
201707070400 METAR MRLM NIL=
201707070500 METAR MRLM NIL=
201707070600 METAR MRLM NIL=
201707070700 METAR MRLM NIL=
201707070800 METAR MRLM NIL=
201707070900 METAR MRLM NIL=
201707071000 METAR MRLM NIL=
201707071100 METAR MRLM NIL=
201707071200 METAR MRLM 071200Z 27002KT CAVOK 24/23 A2985=
201707071300 METAR MRLM 071300Z 24002KT CAVOK 24/24 A2987=
201707071400 METAR MRLM 071400Z 27003KT CAVOK 26/24 A2988=
201707071500 METAR MRLM 071500Z 07003KT 9999 FEW020 SCT230 29/25 A2989=
201707071600 METAR MRLM 071600Z 06005KT 9999 FEW020 BKN120 29/25 A2989=
201707071700 METAR MRLM 071700Z 03008KT 9999 SCT015 BKN110 28/25 A2990=
201707071800 METAR MRLM 071800Z 07018KT 9999 VCSH SCT010 BKN100 27/25 A2989=
201707071900 METAR MRLM 071900Z 08012KT 9999 FEW010 BKN100 27/25 A2987=
201707072000 METAR MRLM 072000Z 08006KT 9999 DZ FEW010 BKN090 26/24 A2986=
201707072100 METAR MRLM 072100Z 09011KT 9999 DZ FEW009 BKN090 26/24 A2987=
201707072200 METAR MRLM 072200Z 10004KT 9999 -DZ FEW010 BKN090 26/24 A2986=
201707072300 METAR MRLM 072300Z 24002KT 9999 FEW010 BKN090 25/24 A2986 REDZ=
201707080000 METAR MRLM 080000Z 32007KT 9999 -DZ FEW007 BKN080 25/24 A2987 NOSIG=
201707080100 METAR MRLM NIL=
201707080200 METAR MRLM NIL=
201707080300 METAR MRLM NIL=
201707080400 METAR MRLM NIL=
201707080500 METAR MRLM NIL=
201707080600 METAR MRLM NIL=
201707080700 METAR MRLM NIL=
201707080800 METAR MRLM NIL=
201707080900 METAR MRLM NIL=
201707081000 METAR MRLM NIL=
201707081100 METAR MRLM NIL=
201707081200 METAR MRLM 081200Z 00000KT 9999 FEW010 BKN200 22/22 A2989=
201707081300 METAR MRLM 081300Z 34002KT 9999 FEW010 BKN090 23/22 A2990=
201707081400 METAR MRLM 081400Z 00000KT 9999 FEW010 BKN090 24/23 A2993=
201707081500 METAR MRLM 081500Z 31004KT 9999 FEW015 BKN100 25/23 A2994=
201707081600 METAR MRLM 081600Z 27002KT 9999 FEW015 BKN100 27/23 A2994=
201707081700 METAR MRLM 081700Z 31002KT 9999 FEW020 BKN110 28/23 A2993=
201707081800 METAR MRLM 081800Z 32005KT CAVOK 28/23 A2990=
201707081900 METAR MRLM 081900Z 33004KT 9999 FEW020 BKN120 28/24 A2986=
201707082000 METAR MRLM 082000Z 02011KT 9999 SCT020 BKN120 28/25 A2986=
201707082100 METAR MRLM 082100Z 31006KT 9999 FEW020 BKN120 27/24 A2982=
201707082200 METAR MRLM 082200Z 02004KT 9999 FEW015 SCT110 BKN200 27/24 A2985=
201707082300 METAR MRLM 082300Z 33002KT 9999 FEW015 SCT110 BKN200 27/24 A2987=
201707090000 METAR MRLM 090000Z 00000KT 9999 BKN015 SCT100 26/24 A2988=
201707090100 METAR MRLM NIL=
201707090200 METAR MRLM NIL=
201707090300 METAR MRLM NIL=
201707090400 METAR MRLM NIL=
201707090500 METAR MRLM NIL=
201707090600 METAR MRLM NIL=
201707090700 METAR MRLM NIL=
201707090800 METAR MRLM NIL=
201707090900 METAR MRLM NIL=
201707091000 METAR MRLM NIL=
201707091100 METAR MRLM NIL=
201707091200 METAR MRLM 091200Z 00000KT 6000 RA BKN015 23/23 A2988=
201707091300 METAR MRLM 091300Z 28004KT 9999 5000N -RA SCT015 BKN090 23/23 A2990=
201707091400 METAR MRLM 091400Z 00000KT 9999 +DZ VCTS SCT015 BKN090 24/23 A2991=
201707091500 METAR MRLM 091500Z 00000KT 9999 DZ FEW015 BKN110 24/23 A2991=
201707091600 METAR MRLM 091600Z 34002KT 9999 DZ FEW015 SCT110 SCT200 25/24 A2991=
201707091700 METAR MRLM 091700Z 31004KT 9999 DZ FEW015 BKN120 25/24 A2991=
201707091800 METAR MRLM 091800Z 31005KT 9999 DZ FEW015 BKN100 25/24 A2990=
201707091900 METAR MRLM 091900Z 33005KT 9999 +DZ VCSH BKN010 26/24 A2988=
201707092000 METAR MRLM 092000Z 32004KT 9999 -DZ FEW015 BKN120 26/24 A2985=
201707092100 METAR MRLM 092100Z 31007KT 9999 FEW020 SCT130 BKN200 27/24 A2980=
201707092200 METAR MRLM 092200Z 29006KT CAVOK 26/24 A2979=
201707092300 METAR MRLM 092300Z 35004KT 9999 SCT015 BKN120 27/24 A2982=
201707100000 METAR MRLM NIL=
201707100100 METAR MRLM NIL=
201707100200 METAR MRLM NIL=
201707100300 METAR MRLM NIL=
201707100400 METAR MRLM NIL=
201707100500 METAR MRLM NIL=
201707100600 METAR MRLM NIL=
201707100700 METAR MRLM NIL=
201707100800 METAR MRLM NIL=
201707100900 METAR MRLM NIL=
201707101000 METAR MRLM NIL=
201707101100 METAR MRLM NIL=
201707101200 METAR MRLM 101200Z 00000KT 9999 FEW010 BKN090 23/22 A2985=
201707101300 METAR MRLM 101300Z 30005KT 9999 FEW015 BKN100 24/23 A2988=
201707101400 METAR MRLM 101400Z 29006KT 9999 FEW015 BKN110 25/23 A2989=
201707101500 METAR MRLM 101500Z 31005KT 9999 BKN015 SCT110 26/24 A2991=
201707101600 METAR MRLM 101600Z 32007KT 2000 +DZ FEW008 OVC010 24/23 A2992=
201707101700 METAR MRLM 101700Z 28005KT 8000 DZ SCT015 BKN090 24/23 A2991=
201707101800 METAR MRLM 101800Z 30004KT 9999 DZ FEW015 BKN100 25/24 A2988=
201707101900 METAR MRLM 101900Z 32005KT 9999 FEW015 BKN130 27/25 A2986 REDZ=
201707102000 METAR MRLM 102000Z 33006KT 9999 SCT020 BKN120 28/24 A2985=
201707102100 METAR MRLM 102100Z 33005KT 9999 SCT015 BKN110 27/24 A2984=
201707102200 METAR MRLM 102200Z 31004KT 9999 FEW015 SCT130 BKN200 27/24 A2984=
201707102300 METAR MRLM 102300Z 33002KT 9999 FEW015 BKN130 27/24 A2985=
201707110000 METAR MRLM 110000Z 00000KT 9999 FEW015 BKN120 27/24 A2987=
201707110100 METAR MRLM NIL=
201707110200 METAR MRLM NIL=
201707110300 METAR MRLM NIL=
201707110400 METAR MRLM NIL=
201707110500 METAR MRLM NIL=
201707110600 METAR MRLM NIL=
201707110700 METAR MRLM NIL=
201707110800 METAR MRLM NIL=
201707110900 METAR MRLM NIL=
201707111000 METAR MRLM NIL=
201707111100 METAR MRLM NIL=
201707111200 METAR MRLM 111200Z 27003KT CAVOK 24/23 A2986=
201707111300 METAR MRLM 111300Z 29002KT 9999 FEW015 BKN090 25/24 A2987=
201707111400 METAR MRLM 111400Z 29005KT 9999 FEW020 BKN100 27/24 A2988=
201707111500 METAR MRLM 111500Z 32007KT 9999 FEW020 SCT110 BKN220 29/24 A2988=
201707111600 METAR MRLM 111600Z 35009KT 9999 FEW020 BKN120 29/24 A2988=
201707111700 METAR MRLM 111700Z 34010KT 9999 FEW020 BKN120 29/23 A2988=
201707111800 METAR MRLM 111800Z 36014KT 9999 FEW020 BKN120 28/24 A2988=
201707111900 METAR MRLM 111900Z 34009KT 9999 FEW020 BKN110 27/23 A2986=
201707112000 METAR MRLM 112000Z 32006KT 9999 FEW020 BKN110 27/23 A2985=
201707112100 METAR MRLM 112100Z 32007KT 9999 SCT015 BKN110 27/23 A2984=
201707112200 METAR MRLM 112200Z 30005KT 9999 SCT015 BKN110 26/23 A2984=
201707112300 METAR MRLM 112300Z 30002KT 9999 FEW015 BKN100 26/23 A2984=
201707120000 METAR MRLM 120000Z 00000KT 9999 FEW015 BKN100 25/23 A2984=
201707120100 METAR MRLM NIL=
201707120200 METAR MRLM NIL=
201707120300 METAR MRLM NIL=
201707120400 METAR MRLM NIL=
201707120500 METAR MRLM NIL=
201707120600 METAR MRLM NIL=
201707120700 METAR MRLM NIL=
201707120800 METAR MRLM NIL=
201707120900 METAR MRLM NIL=
201707121000 METAR MRLM NIL=
201707121100 METAR MRLM NIL=
201707121200 METAR MRLM 121200Z 00000KT 9999 VCSH BKN015 SCT090 23/22 A2986=
201707121300 METAR MRLM 121300Z 00000KT 9999 VCSH SCT015 BKN090 24/23 A2988 NOSIG=
201707121400 METAR MRLM 121400Z 25003KT 9999 SCT015 BKN100 25/23 A2989=
201707121500 METAR MRLM 121500Z 26004KT 9999 FEW020 SCT100 BKN220 26/24 A2987=
201707121600 METAR MRLM 121600Z 04005KT 9999 FEW020 SCT110 BKN220 27/24 A2989=
201707121700 METAR MRLM 121700Z 03006KT 9999 FEW020 BKN230 27/23 A2988=
201707121800 METAR MRLM 121800Z 05004KT 9999 FEW025 BKN240 29/24 A2987=
201707121900 METAR MRLM 121900Z 03010KT 9999 FEW025 BKN240 29/24 A2985=
201707122000 METAR MRLM 122000Z 02008KT 9999 FEW025 BKN240 29/24 A2983=
201707122100 METAR MRLM 122100Z 02009KT 9999 FEW025 BKN240 29/24 A2982=
201707122200 METAR MRLM 122200Z 02007KT CAVOK 28/24 A2982=
201707122300 METAR MRLM 122300Z 35007KT 9999 FEW020 SCT110 BKN220 28/24 A2984=
201707130000 METAR MRLM 130000Z 31003KT 9999 FEW015 SCT100 BKN200 27/24 A2986=
201707130100 METAR MRLM NIL=
201707130200 METAR MRLM NIL=
201707130300 METAR MRLM NIL=
201707130400 METAR MRLM NIL=
201707130500 METAR MRLM NIL=
201707130600 METAR MRLM NIL=
201707130700 METAR MRLM NIL=
201707130800 METAR MRLM NIL=
201707130900 METAR MRLM NIL=
201707131000 METAR MRLM NIL=
201707131100 METAR MRLM NIL=
201707131200 METAR MRLM 131200Z 28003KT 9999 FEW015 SCT120 BKN230 23/23 A2989=
201707131300 METAR MRLM 131300Z 31006KT 9999 BKN015 24/23 A2992=
201707131400 METAR MRLM 131400Z 29005KT 9999 BKN015 24/23 A2994=
201707131500 METAR MRLM 131500Z 28004KT 9999 FEW020 BKN110 26/23 A2995=
201707131600 METAR MRLM 131600Z 00000KT 9999 DZ FEW020 BKN120 27/24 A2996=
201707131700 METAR MRLM 131700Z 00000KT 9999 -DZ FEW020 BKN120 27/25 A2995=
201707131800 METAR MRLM 131800Z 08003KT CAVOK 27/25 A2992=
201707131900 METAR MRLM 131900Z 10004KT 9999 FEW020 BKN200 29/25 A2989=
201707132000 METAR MRLM 132000Z 03005KT 9999 FEW020 SCT130 BKN220 28/24 A2988=
201707132100 METAR MRLM 132100Z 01008KT CAVOK 29/24 A2987=
201707132200 METAR MRLM 132200Z 02006KT 9999 FEW020 BKN230 29/24 A2986=
201707132300 METAR MRLM 132300Z 02005KT 9999 FEW020 BKN230 28/24 A2988=
201707140000 METAR MRLM 140000Z 33005KT 9999 FEW020 SCT130 BKN230 27/24 A2990=
201707140100 METAR MRLM NIL=
201707140200 METAR MRLM NIL=
201707140300 METAR MRLM NIL=
201707140400 METAR MRLM NIL=
201707140500 METAR MRLM NIL=
201707140600 METAR MRLM NIL=
201707140700 METAR MRLM NIL=
201707140800 METAR MRLM NIL=
201707140900 METAR MRLM NIL=
201707141000 METAR MRLM NIL=
201707141100 METAR MRLM NIL=
201707141200 METAR MRLM 141200Z 00000KT 9999 DZ SCT015 BKN100 24/23 A2993=
201707141300 METAR MRLM 141300Z 00000KT 9999 -DZ SCT015 BKN110 24/23 A2995=
201707141400 METAR MRLM 141400Z 00000KT 9999 FEW020 SCT120 BKN200 24/23 A2995=
201707141500 METAR MRLM 141500Z 24002KT CAVOK 26/24 A2995=
201707141600 METAR MRLM 141600Z 22002KT 9999 FEW020 BKN220 27/24 A2996=
201707141700 METAR MRLM 141700Z 00000KT 9999 FEW025 SCT130 BKN220 29/24 A2996=
201707141800 METAR MRLM 141800Z 06004KT 9999 FEW030 BKN240 30/24 A2997=
201707141900 METAR MRLM 141900Z 07006KT CAVOK 31/24 A2994=
201707142000 METAR MRLM 142000Z 05007KT CAVOK 30/24 A2990=
201707142100 METAR MRLM 142100Z 07008KT CAVOK 30/25 A2989=
201707142200 METAR MRLM 142200Z 07006KT CAVOK 29/25 A2988=
201707142300 METAR MRLM 142300Z 07003KT 9999 FEW020 OVC230 29/24 A2989 NOSIG=
201707150000 METAR MRLM 150000Z 25004KT 9999 SCT030 SCT250 22/21 A3004 NOSIG=
201707150100 METAR MRLM NIL=
201707150200 METAR MRLM NIL=
201707150300 METAR MRLM NIL=
201707150400 METAR MRLM NIL=
201707150500 METAR MRLM NIL=
201707150600 METAR MRLM NIL=
201707150700 METAR MRLM NIL=
201707150800 METAR MRLM NIL=
201707150900 METAR MRLM NIL=
201707151000 METAR MRLM NIL=
201707151100 METAR MRLM NIL=
201707151200 METAR MRLM 151200Z 26004KT 9999 FEW015 SCT100 23/22 A2993=
201707151300 METAR MRLM 151300Z 24004KT 9999 FEW015 BKN100 24/23 A2995=
201707151400 METAR MRLM 151400Z 26004KT CAVOK 27/24 A2996=
201707151500 METAR MRLM 151500Z 24003KT CAVOK 28/24 A2997=
201707151600 METAR MRLM 151600Z 01006KT 9999 FEW025 BKN130 30/24 A2996 NOSIG=
201707151700 METAR MRLM 151700Z 03006KT 9999 FEW025 BKN120 29/24 A2996 NOSIG=
201707151800 METAR MRLM 151800Z 05008KT 9999 FEW020 BKN120 28/25 A2996 NOSIG=
201707151900 METAR MRLM 151900Z 08006KT 9999 -DZ FEW020 BKN110 28/23 A2993=
201707152000 METAR MRLM 152000Z 12004KT 9999 FEW020 BKN120 28/24 A2989=
201707152100 METAR MRLM 152100Z 12004KT 9999 FEW020 BKN120 28/24 A2986=
201707152200 METAR MRLM 152200Z 08005KT 9999 SCT015 BKN120 27/24 A2986=
201707152300 METAR MRLM 152300Z 09005KT 9999 FEW015 BKN110 27/24 A2987=
201707160000 METAR MRLM 160000Z 31002KT 9999 FEW015 SCT100 BKN200 27/24 A2987=
201707160100 METAR MRLM NIL=
201707160200 METAR MRLM NIL=
201707160300 METAR MRLM NIL=
201707160400 METAR MRLM NIL=
201707160500 METAR MRLM NIL=
201707160600 METAR MRLM NIL=
201707160700 METAR MRLM NIL=
201707160800 METAR MRLM NIL=
201707160900 METAR MRLM NIL=
201707161000 METAR MRLM NIL=
201707161100 METAR MRLM NIL=
201707161200 METAR MRLM 161200Z 27002KT CAVOK 24/23 A2988=
201707161300 METAR MRLM 161300Z 00000KT CAVOK 26/23 A2990=
201707161400 METAR MRLM 161400Z 33003KT CAVOK 28/23 A2991=
201707161500 METAR MRLM 161500Z 34007KT 9999 FEW030 BKN130 29/23 A2991=
201707161600 METAR MRLM 161600Z 32005KT CAVOK 28/24 A2992=
201707161700 METAR MRLM 161700Z 34010KT CAVOK 30/23 A2990=
201707161800 METAR MRLM 161800Z 35010KT 9999 FEW030 BKN240 31/24 A2988=
201707161900 METAR MRLM 161900Z 35009KT 9999 FEW030 BKN240 31/23 A2984=
201707162000 METAR MRLM 162000Z 01011KT CAVOK 31/24 A2983=
201707162100 METAR MRLM 162100Z 01012KT CAVOK 30/24 A2981=
201707162200 METAR MRLM 162200Z 36009KT CAVOK 30/24 A2981=
201707162300 METAR MRLM 162300Z 01011KT 9999 FEW020 BKN230 29/25 A2982=
201707170000 METAR MRLM 170000Z 01009KT 9999 SCT015 BKN220 28/25 A2983=
201707170100 METAR MRLM NIL=
201707170200 METAR MRLM NIL=
201707170300 METAR MRLM NIL=
201707170400 METAR MRLM NIL=
201707170500 METAR MRLM NIL=
201707170600 METAR MRLM NIL=
201707170700 METAR MRLM NIL=
201707170800 METAR MRLM NIL=
201707170900 METAR MRLM NIL=
201707171000 METAR MRLM NIL=
201707171100 METAR MRLM NIL=
201707171200 METAR MRLM 171200Z 24002KT CAVOK 23/23 A2983=
201707171300 METAR MRLM 171300Z 25002KT CAVOK 26/24 A2984=
201707171400 METAR MRLM 171400Z 00000KT CAVOK 28/23 A2985=
201707171500 METAR MRLM 171500Z 08004KT 9999 FEW030 SCT250 29/24 A2985=
201707171600 METAR MRLM 171600Z 09004KT 9999 FEW030 SCT250 29/24 A2987=
201707171700 METAR MRLM 171700Z 10005KT CAVOK 30/25 A2984=
201707171800 METAR MRLM 171800Z 10006KT CAVOK 30/25 A2982=
201707171900 METAR MRLM 171900Z 10007KT CAVOK 30/25 A2978=
201707172000 METAR MRLM 172000Z 10008KT CAVOK 30/25 A2977=
201707172100 METAR MRLM 172100Z 06009KT 9999 FEW030 BKN240 30/25 A2977=
201707172200 METAR MRLM 172200Z 05009KT 9999 SCT025 SCT240 30/25 A2976=
201707172300 METAR MRLM 172300Z 04005KT 9999 BKN020 29/25 A2977=
201707180000 METAR MRLM 180000Z 05005KT 9999 SCT020 29/24 A2981=
201707180100 METAR MRLM NIL=
201707180200 METAR MRLM NIL=
201707180300 METAR MRLM NIL=
201707180400 METAR MRLM NIL=
201707180500 METAR MRLM NIL=
201707180600 METAR MRLM NIL=
201707180700 METAR MRLM NIL=
201707180800 METAR MRLM NIL=
201707180900 METAR MRLM NIL=
201707181000 METAR MRLM NIL=
201707181100 METAR MRLM NIL=
201707181200 METAR MRLM 181200Z 23004KT 9999 FEW015 BKN130 23/22 A2986=
201707181300 METAR MRLM 181300Z 00000KT CAVOK 24/23 A2988=
201707181400 METAR MRLM 181400Z 32002KT 9999 FEW015 SCT130 BKN220 25/23 A2989=
201707181500 METAR MRLM 181500Z 25002KT 9999 DZ BKN015 25/24 A2991=
201707181600 METAR MRLM 181600Z 05008KT 2000 +RA VCTS BKN015 25/24 A2992=
201707181700 METAR MRLM 181700Z 23004KT 9999 4000N DZ SCT010 BKN110 25/24 A2990 RERA=
201707181800 METAR MRLM 181800Z 29003KT 9999 FEW015 BKN120 26/25 A2991 REDZ=
201707181900 METAR MRLM 181900Z 03005KT 9999 SCT015 BKN110 27/24 A2989=
201707182000 METAR MRLM 182000Z 25005KT 9999 FEW020 SCT130 BKN220 28/24 A2985=
201707182100 METAR MRLM 182100Z 00000KT CAVOK 29/25 A2983=
201707182200 METAR MRLM 182200Z 05004KT CAVOK 28/25 A2983=
201707182300 METAR MRLM 182300Z 04003KT CAVOK 28/25 A2984=
201707190000 METAR MRLM 190000Z 00000KT CAVOK 27/25 A2987=
201707190100 METAR MRLM NIL=
201707190200 METAR MRLM NIL=
201707190300 METAR MRLM NIL=
201707190400 METAR MRLM NIL=
201707190500 METAR MRLM NIL=
201707190600 METAR MRLM NIL=
201707190700 METAR MRLM NIL=
201707190800 METAR MRLM NIL=
201707190900 METAR MRLM NIL=
201707191000 METAR MRLM NIL=
201707191100 METAR MRLM NIL=
201707191200 METAR MRLM 191200Z 29003KT 9999 SCT015 SCT100 24/23 A2988=
201707191300 METAR MRLM 191300Z 28003KT 9999 SCT015 SCT100 25/24 A2989=
201707191400 METAR MRLM 191400Z 28003KT 9999 SCT020 SCT100 26/24 A2989 RERA=
201707191500 METAR MRLM 191500Z 29004KT 9999 VCTS FEW020 BKN110 27/24 A2989=
201707191600 METAR MRLM 191600Z 32002KT 9999 -DZ FEW020 BKN110 27/25 A2988=
201707191700 METAR MRLM 191700Z 33003KT 9999 -DZ FEW015 BKN100 26/25 A2989=
201707191800 METAR MRLM 191800Z 24004KT 8000 DZ VCTS SCT010 BKN090 26/25 A2989=
201707191900 METAR MRLM 191900Z 28004KT 9999 -DZ FEW010 BKN090 26/25 A2983=
201707192000 METAR MRLM 192000Z 31003KT 9999 FEW010 BKN090 26/25 A2981=
201707192100 METAR MRLM 192100Z 31003KT 9999 FEW015 BKN100 27/25 A2980=
201707192200 METAR MRLM 192200Z 32005KT 9999 FEW015 BKN120 27/25 A2982=
201707192300 METAR MRLM 192300Z 31004KT 9999 SCT015 BKN120 27/24 A2984=
201707200000 METAR MRLM 200000Z 30005KT 9999 FEW020 SCT100 BKN200 26/24 A2084 NOSIG=
201707200100 METAR MRLM NIL=
201707200200 METAR MRLM NIL=
201707200300 METAR MRLM NIL=
201707200400 METAR MRLM NIL=
201707200500 METAR MRLM NIL=
201707200600 METAR MRLM NIL=
201707200700 METAR MRLM NIL=
201707200800 METAR MRLM NIL=
201707200900 METAR MRLM NIL=
201707201000 METAR MRLM NIL=
201707201100 METAR MRLM NIL=
201707201200 METAR MRLM NIL=
201707201300 METAR MRLM NIL=
201707201400 METAR MRLM NIL=
201707201500 METAR MRLM 201500Z 00000KT CAVOK 28/24 A2991 NOSIG=
201707201600 METAR MRLM 201600Z 06004KT 9999 VCSH FEW020 SCT110 BKN220 28/24 A2992 NOSIG=
201707201700 METAR MRLM 201700Z 03011KT 9999 VCSH SCT020 BKN110 28/25 A2992 NOSIG=
201707201800 METAR MRLM 201800Z 07004KT 9999 SCT015 BKN100 27/25 A2989 NOSIG=
201707201900 METAR MRLM 201900Z 23002KT 9999 SCT015 BKN100 28/25 A2985 NOSIG=
201707202000 METAR MRLM 202000Z 12003KT 9999 FEW020 SCT110 BKN220 29/25 A2982=
201707202100 METAR MRLM 202100Z 09003KT CAVOK 29/25 A2979=
201707202200 METAR MRLM 202200Z 05003KT CAVOK 29/24 A2980=
201707202300 METAR MRLM 202300Z 05002KT CAVOK 29/25 A2980=
201707210000 METAR MRLM 210000Z 36003KT CAVOK 28/25 A2981=
201707210100 METAR MRLM NIL=
201707210200 METAR MRLM NIL=
201707210300 METAR MRLM NIL=
201707210400 METAR MRLM NIL=
201707210500 METAR MRLM NIL=
201707210600 METAR MRLM NIL=
201707210700 METAR MRLM NIL=
201707210800 METAR MRLM NIL=
201707210900 METAR MRLM NIL=
201707211000 METAR MRLM NIL=
201707211100 METAR MRLM NIL=
201707211200 METAR MRLM 211200Z 27005KT CAVOK 24/23 A2984=
201707211300 METAR MRLM 211300Z 26004KT CAVOK 26/24 A2987=
201707211400 METAR MRLM 211400Z 33005KT CAVOK 29/25 A2988=
201707211500 METAR MRLM 211500Z 34005KT 9999 SCT025 SCT130 30/25 A2990=
201707211600 METAR MRLM 211600Z 04008KT 9999 SCT020 BKN240 30/26 A2990=
201707211700 METAR MRLM 211700Z 02010KT 9999 FEW020 BKN240 30/26 A2988=
201707211800 METAR MRLM 211800Z 02010KT 9999 FEW020 BKN240 30/26 A2988=
201707211900 METAR MRLM 211900Z 02010KT 9999 FEW020 BKN240 29/25 A2987=
201707212000 METAR MRLM 212000Z 02006KT 9999 BKN015 29/25 A2985=
201707212100 METAR MRLM 212100Z 23004KT 9999 BKN015 SCT120 27/24 A2985=
201707212200 METAR MRLM 212200Z 26005KT 9999 BKN010 27/24 A2984=
201707212300 METAR MRLM 212300Z 31003KT 9999 4000N TS RA FEW006CB BKN010 27/24 A2986=
201707220000 METAR MRLM 220000Z 34003KT 9999 DZ BKN010 26/24 A2989 RETS=
201707220100 METAR MRLM NIL=
201707220200 METAR MRLM NIL=
201707220300 METAR MRLM NIL=
201707220400 METAR MRLM NIL=
201707220500 METAR MRLM NIL=
201707220600 METAR MRLM NIL=
201707220700 METAR MRLM NIL=
201707220800 METAR MRLM NIL=
201707220900 METAR MRLM NIL=
201707221000 METAR MRLM NIL=
201707221100 METAR MRLM NIL=
201707221200 METAR MRLM 221200Z 24003KT 9999 BKN015 SCT100 24/23 A2988=
201707221300 METAR MRLM 221300Z 25005KT 9999 SCT015 BKN100 24/24 A2989 RERA=
201707221400 METAR MRLM 221400Z 24006KT CAVOK 26/24 A2990=
201707221500 METAR MRLM 221500Z 23005KT CAVOK 29/22 A2990=
201707221600 METAR MRLM 221600Z 02007KT 9999 SCT020 BKN120 28/24 A2990=
201707221700 METAR MRLM 221700Z 02008KT CAVOK 29/24 A2989=
201707221800 METAR MRLM 221800Z 03008KT CAVOK 30/24 A2987=
201707221900 METAR MRLM 221900Z 04008KT CAVOK 30/24 A2986=
201707222000 METAR MRLM 222000Z 03013KT CAVOK 30/25 A2982=
201707222100 METAR MRLM 222100Z 02008KT CAVOK 30/25 A2982=
201707222200 METAR MRLM 222200Z 03005KT CAVOK 29/25 A2983=
201707222300 METAR MRLM 222300Z 03004KT 9999 FEW020 BKN120 28/24 A2982=
201707230000 METAR MRLM 230000Z 00000KT 9999 FEW015 BKN110 28/25 A2987=
201707230100 METAR MRLM NIL=
201707230200 METAR MRLM NIL=
201707230300 METAR MRLM NIL=
201707230400 METAR MRLM NIL=
201707230500 METAR MRLM NIL=
201707230600 METAR MRLM NIL=
201707230700 METAR MRLM NIL=
201707230800 METAR MRLM NIL=
201707230900 METAR MRLM NIL=
201707231000 METAR MRLM NIL=
201707231100 METAR MRLM NIL=
201707231200 METAR MRLM 231200Z 29003KT 9999 SCT015 BKN100 24/24 A2985=
201707231300 METAR MRLM 231300Z 26006KT 9999 SCT015 BKN100 24/24 A2985=
201707231400 METAR MRLM 231400Z 26004KT 9999 VCTS SCT015 BKN100 25/24 A2987=
201707231500 METAR MRLM 231500Z 31002KT 9999 VCTS SCT015 BKN110 26/24 A2988=
201707231600 METAR MRLM 231600Z 00000KT 9999 -DZ FEW020 BKN110 27/24 A2988=
201707231700 METAR MRLM 231700Z 00000KT 9999 -DZ SCT020 BKN110 27/24 A2987=
201707231800 METAR MRLM 231800Z 13005KT 9999 VCSH SCT015 BKN110 27/25 A2986=
201707231900 METAR MRLM 231900Z 04007KT 9999 4000N RA BKN015 SCT100 26/24 A2986=
201707232000 METAR MRLM 232000Z 24003KT 9999 -DZ SCT015 BKN100 25/24 A2983=
201707232100 METAR MRLM 232100Z 25004KT 9999 FEW015 SCT110 BKN220 26/25 A2979=
201707232200 METAR MRLM 232200Z 00000KT 9999 FEW015 BKN220 28/25 A2979=
201707232300 METAR MRLM 232300Z 00000KT CAVOK 28/26 A2980=
201707240000 METAR MRLM 240000Z 00000KT CAVOK 27/26 A2982=
201707240100 METAR MRLM NIL=
201707240200 METAR MRLM NIL=
201707240300 METAR MRLM NIL=
201707240400 METAR MRLM NIL=
201707240500 METAR MRLM NIL=
201707240600 METAR MRLM NIL=
201707240700 METAR MRLM NIL=
201707240800 METAR MRLM NIL=
201707240900 METAR MRLM NIL=
201707241000 METAR MRLM NIL=
201707241100 METAR MRLM NIL=
201707241200 METAR MRLM 241200Z 25002KT CAVOK 24/23 A2983=
201707241300 METAR MRLM 241300Z 30002KT CAVOK 25/24 A2984=
201707241400 METAR MRLM 241400Z 28002KT CAVOK 26/24 A2985=
201707241500 METAR MRLM 241500Z 06003KT 9999 FEW020 SCT100 BKN200 27/24 A2988=
201707241600 METAR MRLM 241600Z 00000KT 9999 FEW020 SCT100 BKN200 28/24 A2988=
201707241700 METAR MRLM 241700Z 13003KT 9999 FEW020 BKN120 29/25 A2988=
201707241800 METAR MRLM 241800Z 06003KT 9999 FEW015 BKN120 28/25 A2988=
201707241900 METAR MRLM 241900Z 01004KT 9999 FEW015 BKN120 28/25 A2985=
201707242000 METAR MRLM 242000Z 02006KT CAVOK 28/25 A2985=
201707242100 METAR MRLM 242100Z 33003KT CAVOK 28/25 A2984=
201707242200 METAR MRLM 242200Z 31004KT CAVOK 28/25 A2982=
201707242300 METAR MRLM 242300Z 34003KT CAVOK 28/26 A2982=
201707250000 METAR MRLM 250000Z 00000KT CAVOK 27/26 A2983=
201707250100 METAR MRLM NIL=
201707250200 METAR MRLM NIL=
201707250300 METAR MRLM NIL=
201707250400 METAR MRLM NIL=
201707250500 METAR MRLM NIL=
201707250600 METAR MRLM NIL=
201707250700 METAR MRLM NIL=
201707250800 METAR MRLM NIL=
201707250900 METAR MRLM NIL=
201707251000 METAR MRLM NIL=
201707251100 METAR MRLM NIL=
201707251200 METAR MRLM 251200Z 26005KT 6000 +DZ BKN015 24/24 A2986=
201707251300 METAR MRLM 251300Z 26005KT 6000 RA BKN010 24/24 A2987=
201707251400 METAR MRLM 251400Z 27005KT 9999 2000N +DZ SCT010 BKN080 25/24 A2988 RERA=
201707251500 METAR MRLM 251500Z 29007KT 3000 RA BKN010 24/23 A2988=
201707251600 METAR MRLM 251600Z 28004KT 9999 BKN015 25/24 A2987 RERA=
201707251700 METAR MRLM 251700Z 31004KT 9999 SCT015 BKN100 27/24 A2985=
201707251800 METAR MRLM 251800Z 26003KT 9999 FEW020 SCT120 BKN230 28/25 A2984=
201707251900 METAR MRLM 251900Z 31004KT 9999 FEW025 BKN230 30/26 A2982=
201707252000 METAR MRLM 252000Z 33006KT 9999 FEW030 BKN230 31/25 A2980=
201707252100 METAR MRLM 252100Z 02009KT 9999 FEW030 SCT130 BKN230 29/26 A2979=
201707252200 METAR MRLM 252200Z 01008KT 9999 DZ VCTS SCT015 BKN110 28/25 A2980=
201707252300 METAR MRLM 252300Z 03007KT 6000 RA OVC010 27/26 A2983=
201707260000 METAR MRLM 260000Z 32003KT 6000 +DZ FEW006 OVC010 26/25 A2984 RERA=
201707260100 METAR MRLM NIL=
201707260200 METAR MRLM NIL=
201707260300 METAR MRLM NIL=
201707260400 METAR MRLM NIL=
201707260500 METAR MRLM NIL=
201707260600 METAR MRLM NIL=
201707260700 METAR MRLM NIL=
201707260800 METAR MRLM NIL=
201707260900 METAR MRLM NIL=
201707261000 METAR MRLM NIL=
201707261100 METAR MRLM NIL=
201707261200 METAR MRLM 261200Z 00000KT 9999 3000N DZ FEW010 BKN100 24/24 A2980=
201707261300 METAR MRLM 261300Z 36004KT 9999 FEW010 BKN120 25/22 A2982 REDZ=
201707261400 METAR MRLM 261400Z 25004KT 9999 -DZ VCSH FEW010 BKN120 25/24 A2985=
201707261500 METAR MRLM 261500Z 32002KT 9999 SCT020 BKN110 26/25 A2987=
201707261600 METAR MRLM 261600Z 34005KT 9999 SCT020 BKN120 26/24 A2988=
201707261700 METAR MRLM 261700Z 32005KT 9999 FEW020 BKN120 27/25 A2988 NOSIG=
201707261800 METAR MRLM 261800Z 33004KT 9999 FEW020 BKN120 28/24 A2988 NOSIG=
201707261900 METAR MRLM 261900Z 36008KT 9999 SCT015 SCT120 27/24 A2985=
201707262000 METAR MRLM 262000Z 35007KT 9999 FEW020 SCT130 BKN220 28/24 A2981=
201707262100 METAR MRLM 262100Z 01007KT CAVOK 27/24 A2979=
201707262200 METAR MRLM 262200Z 02009KT 9999 FEW015 BKN130 28/24 A2981=
201707262300 METAR MRLM 262300Z 34005KT CAVOK 27/24 A2981=
201707270000 METAR MRLM 270000Z 30003KT CAVOK 26/24 A2983=
201707270100 METAR MRLM NIL=
201707270200 METAR MRLM NIL=
201707270300 METAR MRLM NIL=
201707270400 METAR MRLM NIL=
201707270500 METAR MRLM NIL=
201707270600 METAR MRLM NIL=
201707270700 METAR MRLM NIL=
201707270800 METAR MRLM NIL=
201707270900 METAR MRLM NIL=
201707271000 METAR MRLM NIL=
201707271100 METAR MRLM NIL=
201707271200 METAR MRLM 271200Z 25002KT CAVOK 24/23 A2986=
201707271300 METAR MRLM 271300Z 25003KT CAVOK 26/24 A2987=
201707271400 METAR MRLM 271400Z 26004KT CAVOK 28/23 A2987=
201707271500 METAR MRLM 271500Z 31002KT 9999 FEW030 SCT240 29/24 A2987=
201707271600 METAR MRLM 271600Z 05008KT 9999 FEW030 SCT240 29/25 A2985=
201707271700 METAR MRLM 271700Z 04006KT 9999 FEW030 SCT140 BKN250 30/25 A2985=
201707271800 METAR MRLM 271800Z 04009KT CAVOK 30/25 A2983=
201707271900 METAR MRLM 271900Z 02010KT CAVOK 30/25 A2981=
201707272000 METAR MRLM 272000Z 02008KT CAVOK 30/26 A2979=
201707272100 METAR MRLM 272100Z 01010KT CAVOK 30/25 A2978=
201707272200 METAR MRLM 272200Z 36011KT CAVOK 30/24 A2979=
201707272300 METAR MRLM 272300Z 34009KT 9999 FEW025 SCT230 29/25 A2979=
201707280000 METAR MRLM 280000Z 34007KT 9999 FEW020 BKN220 28/25 A2981=
201707280100 METAR MRLM NIL=
201707280200 METAR MRLM NIL=
201707280300 METAR MRLM NIL=
201707280400 METAR MRLM NIL=
201707280500 METAR MRLM NIL=
201707280600 METAR MRLM NIL=
201707280700 METAR MRLM NIL=
201707280800 METAR MRLM NIL=
201707280900 METAR MRLM NIL=
201707281000 METAR MRLM NIL=
201707281100 METAR MRLM NIL=
201707281200 METAR MRLM 281200Z 23004KT 9999 VCTS VCSH FEW015 SCT100 BKN200 24/23 A2985=
201707281300 METAR MRLM 281300Z 26004KT 9999 VCTS FEW015 SCT100 BKN200 24/24 A2984=
201707281400 METAR MRLM 281400Z 23002KT 9999 -DZ FEW020 SCT100 BKN200 26/24 A2985=
201707281500 METAR MRLM 281500Z 28003KT 9999 SCT020 BKN110 27/25 A2987=
201707281600 METAR MRLM 281600Z 33006KT 9999 SCT020 BKN110 28/25 A2985=
201707281700 METAR MRLM 281700Z 33005KT 9999 SCT020 BKN120 29/25 A2984=
201707281800 METAR MRLM 281800Z 36007KT 9999 SCT020 BKN120 29/24 A2984=
201707281900 METAR MRLM 281900Z 01007KT 9999 VCSH SCT020 BKN120 29/25 A2982=
201707282000 METAR MRLM 282000Z 06006KT 9999 FEW020 BKN240 28/23 A2981=
201707282100 METAR MRLM 282100Z 03005KT 9999 -DZ FEW025 BKN120 27/23 A2981=
201707282200 METAR MRLM 282200Z 10003KT 9999 DZ FEW020 BKN110 27/24 A2983=
201707282300 METAR MRLM 282300Z 00000KT 9999 DZ FEW020 BKN110 26/24 A2983=
201707290000 METAR MRLM 290000Z 29002KT 9999 -DZ FEW015 BKN100 26/25 A2982=
201707290100 METAR MRLM NIL=
201707290200 METAR MRLM NIL=
201707290300 METAR MRLM NIL=
201707290400 METAR MRLM NIL=
201707290500 METAR MRLM NIL=
201707290600 METAR MRLM NIL=
201707290700 METAR MRLM NIL=
201707290800 METAR MRLM NIL=
201707290900 METAR MRLM NIL=
201707291000 METAR MRLM NIL=
201707291100 METAR MRLM NIL=
201707291200 METAR MRLM 291200Z 27003KT 9999 FEW015 BKN110 23/22 A2983=
201707291300 METAR MRLM 291300Z 00000KT 9999 FEW015 BKN100 24/23 A2985=
201707291400 METAR MRLM 291400Z 34003KT 9999 SCT015 BKN100 25/23 A2987=
201707291500 METAR MRLM 291500Z 32005KT 9999 FEW015 BKN110 26/24 A2988=
201707291600 METAR MRLM 291600Z 31003KT CAVOK 27/24 A2988=
201707291700 METAR MRLM 291700Z 30004KT CAVOK 28/25 A2986=
201707291800 METAR MRLM 291800Z 34005KT CAVOK 28/25 A2987=
201707291900 METAR MRLM 291900Z 02004KT 9999 SCT015 BKN110 28/24 A2987=
201707292000 METAR MRLM 292000Z 02005KT 9999 SCT015 BKN120 27/25 A2982=
201707292100 METAR MRLM 292100Z 05003KT 9999 BKN010 27/25 A2980=
201707292200 METAR MRLM 292200Z 08002KT 9999 FEW015 BKN130 27/25 A2977=
201707292300 METAR MRLM 292300Z 01005KT 9999 FEW015 BKN130 27/25 A2978=
201707300000 METAR MRLM 300000Z 01008KT 9999 FEW010 BKN130 27/25 A2983=
201707300100 METAR MRLM NIL=
201707300200 METAR MRLM NIL=
201707300300 METAR MRLM NIL=
201707300400 METAR MRLM NIL=
201707300500 METAR MRLM NIL=
201707300600 METAR MRLM NIL=
201707300700 METAR MRLM NIL=
201707300800 METAR MRLM NIL=
201707300900 METAR MRLM NIL=
201707301000 METAR MRLM NIL=
201707301100 METAR MRLM NIL=
201707301200 METAR MRLM 301200Z 00000KT 9999 FEW010 BKN100 24/23 A2987=
201707301300 METAR MRLM 301300Z 25004KT 9999 SCT015 BKN110 24/23 A2988=
201707301400 METAR MRLM 301400Z 27004KT 9999 FEW015 BKN120 26/24 A2989=
201707301500 METAR MRLM 301500Z 00000KT CAVOK 29/24 A2990=
201707301600 METAR MRLM 301600Z 05005KT 9999 FEW020 BKN140 29/24 A2989=
201707301700 METAR MRLM 301700Z 05007KT CAVOK 29/24 A2988=
201707301800 METAR MRLM 301800Z 03011KT CAVOK 29/24 A2986=
201707301900 METAR MRLM 301900Z 03009KT CAVOK 29/25 A2983=
201707302000 METAR MRLM 302000Z 05007KT 9999 FEW030 BKN240 30/25 A2981=
201707302100 METAR MRLM 302100Z 04006KT CAVOK 30/25 A2980=
201707302200 METAR MRLM 302200Z 05006KT CAVOK 29/25 A2981=
201707302300 METAR MRLM 302300Z 05007KT CAVOK 29/24 A2982=
201707310000 METAR MRLM 310000Z 04006KT 9999 BKN015 28/25 A2987=
201707310100 METAR MRLM NIL=
201707310200 METAR MRLM NIL=
201707310300 METAR MRLM NIL=
201707310400 METAR MRLM NIL=
201707310500 METAR MRLM NIL=
201707310600 METAR MRLM NIL=
201707310700 METAR MRLM NIL=
201707310800 METAR MRLM NIL=
201707310900 METAR MRLM NIL=
201707311000 METAR MRLM NIL=
201707311100 METAR MRLM NIL=
201707311200 METAR MRLM 311200Z 00000KT 9999 FEW015 SCT100 BKN200 24/23 A2987=
201707311300 METAR MRLM 311300Z 00000KT 9999 FEW015 SCT100 BKN200 24/23 A2989=
201707311400 METAR MRLM 311400Z 25003KT 9999 FEW015 BKN100 24/23 A2992=
201707311500 METAR MRLM 311500Z 23002KT 9999 FEW015 BKN100 25/24 A2991=
201707311600 METAR MRLM 311600Z 00000KT 9999 FEW020 BKN110 27/24 A2991=
201707311700 METAR MRLM 311700Z 33004KT 9999 FEW020 BKN110 28/24 A2992=
201707311800 METAR MRLM 311800Z 01007KT 9999 SCT020 BKN120 28/25 A2992=
201707311900 METAR MRLM 311900Z 03006KT 9999 SCT015 BKN120 28/25 A2989=
201707312000 METAR MRLM 312000Z 04003KT 9999 SCT015 BKN120 28/25 A2987=
201707312100 METAR MRLM 312100Z 10004KT 9999 FEW015 BKN120 28/25 A2985=
201707312200 METAR MRLM 312200Z 10004KT 9999 FEW015 BKN110 28/25 A2985=
201707312300 METAR MRLM 312300Z 10004KT CAVOK 28/25 A2987=
201708010000 METAR MRLM 010000Z 28002KT 9999 FEW015 BKN200 27/25 A2987=
201708010100 METAR MRLM NIL=
201708010200 METAR MRLM NIL=
201708010300 METAR MRLM NIL=
201708010400 METAR MRLM NIL=
201708010500 METAR MRLM NIL=
201708010600 METAR MRLM NIL=
201708010700 METAR MRLM NIL=
201708010800 METAR MRLM NIL=
201708010900 METAR MRLM NIL=
201708011000 METAR MRLM NIL=
201708011100 METAR MRLM NIL=
201708011200 METAR MRLM 011200Z 21003KT 8000 DZ SCT010 BKN080 23/22 A2995=
201708011300 METAR MRLM 011300Z 21004KT 8000 DZ SCT010 BKN080 23/23 A2997=
201708011400 METAR MRLM 011400Z 22003KT 9999 -DZ SCT015 BKN090 23/23 A2997=
201708011500 METAR MRLM 011500Z 24002KT 9999 FEW015 BKN090 25/24 A2997 REDZ=
201708011600 METAR MRLM 011600Z 06002KT 9999 -DZ FEW015 BKN090 26/24 A2997=
201708011700 METAR MRLM 011700Z 24003KT 9999 -DZ FEW020 BKN100 27/24 A2995=
201708011800 METAR MRLM 011800Z 00000KT 9999 FEW020 BKN100 28/24 A2993=
201708011900 METAR MRLM 011900Z 08005KT 9999 FEW020 BKN100 27/24 A2990=
201708012000 METAR MRLM 012000Z 09003KT CAVOK 28/23 A2988=
201708012100 METAR MRLM 012100Z 06003KT CAVOK 28/22 A2986=
201708012200 METAR MRLM 012200Z 08003KT CAVOK 28/22 A2986=
201708012300 METAR MRLM 012300Z 05004KT CAVOK 27/24 A2988=
201708020000 METAR MRLM 020000Z 00000KT CAVOK 26/24 A2987=
201708020100 METAR MRLM NIL=
201708020200 METAR MRLM NIL=
201708020300 METAR MRLM NIL=
201708020400 METAR MRLM NIL=
201708020500 METAR MRLM NIL=
201708020600 METAR MRLM NIL=
201708020700 METAR MRLM NIL=
201708020800 METAR MRLM NIL=
201708020900 METAR MRLM NIL=
201708021000 METAR MRLM NIL=
201708021100 METAR MRLM NIL=
201708021200 METAR MRLM 021200Z 25004KT CAVOK 22/22 A2992=
201708021300 METAR MRLM 021300Z 25003KT CAVOK 24/23 A2993=
201708021400 METAR MRLM 021400Z 24003KT CAVOK 26/24 A2995=
201708021500 METAR MRLM 021500Z 00000KT CAVOK 27/24 A2996=
201708021600 METAR MRLM 021600Z 09002KT 9999 FEW020 BKN120 28/24 A2995=
201708021700 METAR MRLM 021700Z 05005KT 9999 FEW025 29/25 A2994=
201708021800 METAR MRLM 021800Z 03009KT CAVOK 29/24 A2992=
201708021900 METAR MRLM 021900Z 03008KT CAVOK 29/24 A2991=
201708022000 METAR MRLM 022000Z 02007KT 9999 FEW020 BKN130 29/25 A2988=
201708022100 METAR MRLM 022100Z 02005KT 9999 FEW020 BKN130 29/25 A2986=
201708022200 METAR MRLM 022200Z 05006KT 9999 FEW020 SCT130 BKN230 28/25 A2986=
201708022300 METAR MRLM 022300Z 09005KT CAVOK 28/25 A2987=
201708030000 METAR MRLM 030000Z 12005KT 9999 FEW015 SCT130 BKN230 28/24 A2988=
201708030100 METAR MRLM NIL=
201708030200 METAR MRLM NIL=
201708030300 METAR MRLM NIL=
201708030400 METAR MRLM NIL=
201708030500 METAR MRLM NIL=
201708030600 METAR MRLM NIL=
201708030700 METAR MRLM NIL=
201708030800 METAR MRLM NIL=
201708030900 METAR MRLM NIL=
201708031000 METAR MRLM NIL=
201708031100 METAR MRLM NIL=
201708031200 METAR MRLM 031200Z 00000KT CAVOK 23/23 A2989=
201708031300 METAR MRLM 031300Z 28002KT CAVOK 25/23 A2992=
201708031400 METAR MRLM 031400Z 26002KT CAVOK 27/24 A2993=
201708031500 METAR MRLM 031500Z 01008KT 9999 FEW020 BKN120 29/24 A2994=
201708031600 METAR MRLM 031600Z 36008KT 9999 SCT020 BKN120 28/25 A2993=
201708031700 METAR MRLM 031700Z 31004KT 9999 FEW025 BKN130 29/25 A2991=
201708031800 METAR MRLM 031800Z 04009KT 9999 FEW025 SCT130 30/25 A2988=
201708031900 METAR MRLM 031900Z 04009KT CAVOK 30/24 A2987=
201708032000 METAR MRLM 032000Z 04006KT CAVOK 30/23 A2984=
201708032100 METAR MRLM 032100Z 03007KT CAVOK 30/24 A2983=
201708032200 METAR MRLM 032200Z 03005KT 9999 FEW025 SCT240 30/25 A2982=
201708032300 METAR MRLM 032300Z 04006KT CAVOK 30/25 A2981=
201708040000 METAR MRLM 040000Z 04004KT 9999 FEW020 SCT220 29/25 A2983=
201708040100 METAR MRLM NIL=
201708040200 METAR MRLM NIL=
201708040300 METAR MRLM NIL=
201708040400 METAR MRLM NIL=
201708040500 METAR MRLM NIL=
201708040600 METAR MRLM NIL=
201708040700 METAR MRLM NIL=
201708040800 METAR MRLM NIL=
201708040900 METAR MRLM NIL=
201708041000 METAR MRLM NIL=
201708041100 METAR MRLM NIL=
201708041200 METAR MRLM 041200Z 26002KT 9999 FEW015 BKN100 24/24 A2986=
201708041300 METAR MRLM 041300Z 26004KT CAVOK 27/24 A2987=
201708041400 METAR MRLM 041400Z 31002KT 9999 FEW025 SCT130 29/25 A2989=
201708041500 METAR MRLM 041500Z 03005KT 9999 FEW025 SCT250 30/25 A2990=
201708041600 METAR MRLM 041600Z 03007KT 9999 FEW025 BKN140 29/25 A2991=
201708041700 METAR MRLM 041700Z 03006KT 9999 FEW030 BKN140 30/26 A2990=
201708041800 METAR MRLM 041800Z 04007KT 9999 FEW030 BKN250 30/25 A2988=
201708041900 METAR MRLM 041900Z 03009KT CAVOK 30/26 A2985=
201708042000 METAR MRLM 042000Z 04006KT CAVOK 30/26 A2983=
201708042100 METAR MRLM 042100Z 03007KT CAVOK 30/26 A2981=
201708042200 METAR MRLM 042200Z 04005KT 9999 FEW025 BKN240 30/26 A2981=
201708042300 METAR MRLM 042300Z 04004KT 9999 FEW025 BKN240 30/25 A2983=
201708050000 METAR MRLM 050000Z 06002KT 9999 FEW020 BKN220 29/25 A2984=
201708050100 METAR MRLM NIL=
201708050200 METAR MRLM NIL=
201708050300 METAR MRLM NIL=
201708050400 METAR MRLM NIL=
201708050500 METAR MRLM NIL=
201708050600 METAR MRLM NIL=
201708050700 METAR MRLM NIL=
201708050800 METAR MRLM NIL=
201708050900 METAR MRLM NIL=
201708051000 METAR MRLM NIL=
201708051100 METAR MRLM NIL=
201708051200 METAR MRLM 051200Z 28003KT CAVOK 24/23 A2982=
201708051300 METAR MRLM 051300Z 26002KT CAVOK 26/24 A2984=
201708051400 METAR MRLM 051400Z 24002KT CAVOK 28/25 A2987=
201708051500 METAR MRLM 051500Z 31003KT CAVOK 29/25 A2988=
201708051600 METAR MRLM 051600Z 34003KT 9999 FEW035 SCT250 31/24 A2986=
201708051700 METAR MRLM 051700Z 04010KT 9999 FEW030 SCT240 30/26 A2987=
201708051800 METAR MRLM 051800Z 05007KT 9999 FEW020 BKN230 30/25 A2984=
201708051900 METAR MRLM 051900Z 05008KT CAVOK 29/25 A2981=
201708052000 METAR MRLM 052000Z 05006KT 9999 -DZ FEW020 SCT130 BKN200 29/25 A2979=
201708052100 METAR MRLM 052100Z 07003KT 9999 FEW020 BKN130 29/25 A2977=
201708052200 METAR MRLM 052200Z 07004KT 9999 SCT020 BKN130 29/25 A2977=
201708052300 METAR MRLM 052300Z 04003KT 9999 FEW020 SCT130 BKN200 29/25 A2978=
201708060000 METAR MRLM 060000Z 34003KT 9999 FEW015 BKN130 28/26 A2980=
201708060100 METAR MRLM NIL=
201708060200 METAR MRLM NIL=
201708060300 METAR MRLM NIL=
201708060400 METAR MRLM NIL=
201708060500 METAR MRLM NIL=
201708060600 METAR MRLM NIL=
201708060700 METAR MRLM NIL=
201708060800 METAR MRLM NIL=
201708060900 METAR MRLM NIL=
201708061000 METAR MRLM NIL=
201708061100 METAR MRLM NIL=
201708061200 METAR MRLM 061200Z 25004KT CAVOK 24/23 A2980=
201708061300 METAR MRLM 061300Z 25003KT CAVOK 25/24 A2981=
201708061400 METAR MRLM 061400Z 00000KT CAVOK 28/24 A2983=
201708061500 METAR MRLM 061500Z 08004KT 9999 FEW020 BKN220 28/24 A2984=
201708061600 METAR MRLM 061600Z 04008KT 9999 FEW020 BKN220 29/25 A2984=
201708061700 METAR MRLM 061700Z 04008KT 9999 FEW025 BKN220 30/25 A2983=
201708061800 METAR MRLM 061800Z 03010KT 9999 FEW025 BKN230 30/26 A2981=
201708061900 METAR MRLM 061900Z 03009KT 9999 FEW030 BKN240 31/25 A2979=
201708062000 METAR MRLM 062000Z 03011KT CAVOK 30/26 A2976=
201708062100 METAR MRLM 062100Z 03010KT 9999 FEW020 BKN240 30/26 A2975=
201708062200 METAR MRLM 062200Z 05009KT 9999 TS FEW015CB FEW020 BKN240 29/26 A2975=
201708062300 METAR MRLM NIL=
201708070000 METAR MRLM 070000Z 00000KT 9999 BKN010 27/26 A2981=
201708070100 METAR MRLM NIL=
201708070200 METAR MRLM NIL=
201708070300 METAR MRLM NIL=
201708070400 METAR MRLM NIL=
201708070500 METAR MRLM NIL=
201708070600 METAR MRLM NIL=
201708070700 METAR MRLM NIL=
201708070800 METAR MRLM NIL=
201708070900 METAR MRLM NIL=
201708071000 METAR MRLM NIL=
201708071100 METAR MRLM NIL=
201708071200 METAR MRLM 071200Z 26003KT 9999 FEW010 BKN130 24/24 A2982=
201708071300 METAR MRLM 071300Z 25004KT CAVOK 25/24 A2983=
201708071400 METAR MRLM 071400Z 24003KT CAVOK 28/25 A2985=
201708071500 METAR MRLM 071500Z 16003KT 999 FEW020 BKN140 29/25 A2986=
201708071600 METAR MRLM 071600Z 10006KT 9999 FEW020 BKN140 29/26 A2986=
201708071700 METAR MRLM 071700Z 10006KT CAVOK 30/25 A2983=
201708071800 METAR MRLM 071800Z 08009KT CAVOK 30/25 A2983=
201708071900 METAR MRLM 071900Z 08008KT CAVOK 31/25 A2980=
201708072000 METAR MRLM 072000Z 08008KT CAVOK 30/26 A2978=
201708072100 METAR MRLM 072100Z 06006KT 9999 FEW020 BKN240 30/26 A2976=
201708072200 METAR MRLM 072200Z 04004KT 9999 FEW020 BKN230 29/25 A2976=
201708072300 METAR MRLM 072300Z 07003KT 9999 FEW020 BKN220 30/25 A2978=
201708080000 METAR MRLM 080000Z 09004KT 9999 FEW015 BKN220 29/25 A2979=
201708080100 METAR MRLM NIL=
201708080200 METAR MRLM NIL=
201708080300 METAR MRLM NIL=
201708080400 METAR MRLM NIL=
201708080500 METAR MRLM NIL=
201708080600 METAR MRLM NIL=
201708080700 METAR MRLM NIL=
201708080800 METAR MRLM NIL=
201708080900 METAR MRLM NIL=
201708081000 METAR MRLM NIL=
201708081100 METAR MRLM NIL=
201708081200 METAR MRLM 081200Z 25003KT 9999 VCTS FEW015 SCT200 24/23 A2981=
201708081300 METAR MRLM 081300Z 26004KT 9999 VCTS FEW015 SCT200 25/23 A2982=
201708081400 METAR MRLM 081400Z 29002KT 9999 VCSH FEW015 BKN200 27/24 A2986=
201708081500 METAR MRLM 081500Z 33003KT 9999 VCTS VCSH FEW015 BKN120 28/25 A2988=
201708081600 METAR MRLM 081600Z 07007KT 9999 -DZ VCTS SCT015 BKN110 27/25 A2989=
201708081700 METAR MRLM 081700Z 00000KT 9999 DZ FEW015 OVC100 27/25 A2985=
201708081800 METAR MRLM 081800Z 32002KT 9999 FEW020 BKN220 28/26 A2982 REDZ=
201708081900 METAR MRLM 081900Z 30005KT 9999 FEW020 SCT120 BKN240 29/25 A2981=
201708082000 METAR MRLM 082000Z 04004KT 9999 FEW025 SCT120 BKN240 30/25 A2978=
201708082100 METAR MRLM 082100Z 04006KT 9999 FEW025 BKN240 31/25 A2976=
201708082200 METAR MRLM 082200Z 04007KT CAVOK 30/25 A2976=
201708082300 METAR MRLM 082300Z 03006KT CAVOK 30/25 A2977=
201708090000 METAR MRLM 090000Z 07004KT CAVOK 29/25 A2980=
201708090100 METAR MRLM NIL=
201708090200 METAR MRLM NIL=
201708090300 METAR MRLM NIL=
201708090400 METAR MRLM NIL=
201708090500 METAR MRLM NIL=
201708090600 METAR MRLM NIL=
201708090700 METAR MRLM NIL=
201708090800 METAR MRLM NIL=
201708090900 METAR MRLM NIL=
201708091000 METAR MRLM NIL=
201708091100 METAR MRLM NIL=
201708091200 METAR MRLM 091200Z 24004KT 9999 FEW015 BKN200 24/23 A2982=
201708091300 METAR MRLM 091300Z 25002KT 9999 FEW020 BKN220 26/24 A2984=
201708091400 METAR MRLM 091400Z 27003KT CAVOK 29/25 A2987=
201708091500 METAR MRLM 091500Z 30002KT CAVOK 30/25 A2987=
201708091600 METAR MRLM 091600Z 04007KT 9999 FEW025 BKN240 31/25 A2986=
201708091700 METAR MRLM 091700Z 05010KT 9999 FEW025 BKN240 30/26 A2987=
201708091800 METAR MRLM 091800Z 04007KT CAVOK 30/26 A2984=
201708091900 METAR MRLM 091900Z 03007KT CAVOK 30/26 A2982=
201708092000 METAR MRLM 092000Z 03008KT 9999 FEW020 BKN240 30/26 A2980=
201708092100 METAR MRLM 092100Z 02007KT CAVOK 30/26 A2979=
201708092200 METAR MRLM 092200Z 03004KT CAVOK 29/26 A2981=
201708092300 METAR MRLM 092300Z 36006KT 9999 FEW020 BKN220 29/26 A2983=
201708100000 METAR MRLM 100000Z 33002KT 9999 FEW015 BKN220 29/26 A2985=
201708100100 METAR MRLM NIL=
201708100200 METAR MRLM NIL=
201708100300 METAR MRLM NIL=
201708100400 METAR MRLM NIL=
201708100500 METAR MRLM NIL=
201708100600 METAR MRLM NIL=
201708100700 METAR MRLM NIL=
201708100800 METAR MRLM NIL=
201708100900 METAR MRLM NIL=
201708101000 METAR MRLM NIL=
201708101100 METAR MRLM NIL=
201708101200 METAR MRLM 101200Z 28003KT CAVOK 24/23 A2985=
201708101300 METAR MRLM 101300Z 23004KT 9999 FEW015 SCT130 BKN220 24/23 A2989=
201708101400 METAR MRLM 101400Z 00000KT 9999 FEW015 BKN120 25/24 A2991=
201708101500 METAR MRLM 101500Z 15011KT 9999 4000N TS RA SCT010CB BKN110 25/24 A2996=
201708101600 METAR MRLM 101600Z 30006KT 9999 DZ FEW010 BKN120 24/23 A2993 RETSRA=
201708101700 METAR MRLM 101700Z 35004KT 9999 DZ FEW010 SCT120 BKN200 25/23 A2993=
201708101800 METAR MRLM 101800Z 33005KT CAVOK 26/24 A2992=
201708101900 METAR MRLM 101900Z 27005KT CAVOK 28/24 A2989=
201708102000 METAR MRLM 102000Z 00000KT CAVOK 30/24 A2985=
201708102100 METAR MRLM 102100Z 05005KT CAVOK 29/24 A2983=
201708102200 METAR MRLM 102200Z 02009KT CAVOK 29/24 A2985=
201708102300 METAR MRLM 102300Z 02007KT CAVOK 28/23 A2986=
201708110000 METAR MRLM 110000Z 32002KT CAVOK 28/24 A2989=
201708110100 METAR MRLM NIL=
201708110200 METAR MRLM NIL=
201708110300 METAR MRLM NIL=
201708110400 METAR MRLM NIL=
201708110500 METAR MRLM NIL=
201708110600 METAR MRLM NIL=
201708110700 METAR MRLM NIL=
201708110800 METAR MRLM NIL=
201708110900 METAR MRLM NIL=
201708111000 METAR MRLM NIL=
201708111100 METAR MRLM NIL=
201708111200 METAR MRLM 111200Z 28004KT 9999 FEW010 SCT120 BKN200 24/23 A2987=
201708111300 METAR MRLM 111300Z 32008KT 9999 FEW010 BKN110 25/23 A2992=
201708111400 METAR MRLM 111400Z 30004KT 9999 OVC010 25/24 A2997=
201708111500 METAR MRLM 111500Z 28004KT 9999 BKN015 26/24 A2997=
201708111600 METAR MRLM 111600Z 28006KT 9999 FEW015 SCT120 BKN220 27/24 A2993=
201708111700 METAR MRLM 111700Z 30004KT 9999 FEW015 SCT130 BKN220 28/24 A2993=
201708111800 METAR MRLM 111800Z 06002KT 9999 SCT020 BKN120 28/24 A2993=
201708111900 METAR MRLM 111900Z 08002KT 9999 FEW020 BKN130 29/24 A2990=
201708112000 METAR MRLM 112000Z 04006KT 9999 FEW020 SCT140 BKN240 29/25 A2988=
201708112100 METAR MRLM 112100Z 04006KT 9999 FEW020 SCT140 BKN240 29/24 A2986=
201708112200 METAR MRLM 112200Z 04006KT CAVOK 29/24 A2984=
201708112300 METAR MRLM 112300Z 00000KT CAVOK 29/23 A2982=
201708120000 METAR MRLM 120000Z 36004KT CAVOK 29/23 A2985=
201708120100 METAR MRLM NIL=
201708120200 METAR MRLM NIL=
201708120300 METAR MRLM NIL=
201708120400 METAR MRLM NIL=
201708120500 METAR MRLM NIL=
201708120600 METAR MRLM NIL=
201708120700 METAR MRLM NIL=
201708120800 METAR MRLM NIL=
201708120900 METAR MRLM NIL=
201708121000 METAR MRLM NIL=
201708121100 METAR MRLM NIL=
201708121200 METAR MRLM 121200Z 23002KT CAVOK 24/24 A2987=
201708121300 METAR MRLM 121300Z 28002KT CAVOK 26/24 A2987=
201708121400 METAR MRLM 121400Z 00000KT CAVOK 27/24 A2989=
201708121500 METAR MRLM 121500Z 11004KT CAVOK 28/25 A2990=
201708121600 METAR MRLM 121600Z 04009KT 9999 FEW020 BKN240 29/25 A2992=
201708121700 METAR MRLM 121700Z 04007KT 9999 FEW020 SCT130 BKN240 30/24 A2990=
201708121800 METAR MRLM 121800Z 05005KT 9999 FEW025 BKN130 30/24 A2988=
201708121900 METAR MRLM 121900Z 06009KT CAVOK 30/24 A2988=
201708122000 METAR MRLM 122000Z 07010KT 9999 FEW025 BKN140 29/25 A2985=
201708122100 METAR MRLM 122100Z 11002KT 9999 FEW025 BKN250 28/24 A2981=
201708122200 METAR MRLM 122200Z 13008KT 9999 FEW025 BKN250 29/25 A2978=
201708122300 METAR MRLM 122300Z 11009KT 9999 FEW025 SCT130 BKN250 29/24 A2981=
201708130000 METAR MRLM 130000Z 12005KT 9999 FEW020 SCT120 BKN220 28/25 A2983=
201708130100 METAR MRLM NIL=
201708130200 METAR MRLM NIL=
201708130300 METAR MRLM NIL=
201708130400 METAR MRLM NIL=
201708130500 METAR MRLM NIL=
201708130600 METAR MRLM NIL=
201708130700 METAR MRLM NIL=
201708130800 METAR MRLM NIL=
201708130900 METAR MRLM NIL=
201708131000 METAR MRLM NIL=
201708131100 METAR MRLM NIL=
201708131200 METAR MRLM 131200Z 25003KT 9999 FEW015 SCT100 BKN200 23/23 A2985=
201708131300 METAR MRLM 131300Z 24003KT 9999 FEW015 BKN110 25/23 A2987=
201708131400 METAR MRLM 131400Z 22004KT CAVOK 28/24 A2987=
201708131500 METAR MRLM 131500Z 05004KT CAVOK 29/23 A2986=
201708131600 METAR MRLM 131600Z 04009KT 9999 FEW025 SCT140 BKN250 30/24 A2988=
201708131700 METAR MRLM 131700Z 04008KT 9999 FEW025 BKN250 30/25 A2988=
201708131800 METAR MRLM 131800Z 03009KT 9999 FEW025 BKN250 30/25 A2985=
201708131900 METAR MRLM 131900Z 03009KT 9999 FEW025 BKN250 30/25 A2983=
201708132000 METAR MRLM 132000Z 02010KT 9999 FEW025 BKN250 30/25 A2981=
201708132100 METAR MRLM 132100Z 03010KT 9999 FEW030 SCT250 30/24 A2979=
201708132200 METAR MRLM 132200Z 01007KT 9999 FEW030 SCT250 31/25 A2979=
201708132300 METAR MRLM 132300Z 01008KT CAVOK 29/25 A2980=
201708140000 METAR MRLM 140000Z 03006KT CAVOK 28/25 A2981=
201708140100 METAR MRLM NIL=
201708140200 METAR MRLM NIL=
201708140300 METAR MRLM NIL=
201708140400 METAR MRLM NIL=
201708140500 METAR MRLM NIL=
201708140600 METAR MRLM NIL=
201708140700 METAR MRLM NIL=
201708140800 METAR MRLM NIL=
201708140900 METAR MRLM NIL=
201708141000 METAR MRLM NIL=
201708141100 METAR MRLM NIL=
201708141200 METAR MRLM 141200Z 25004KT CAVOK 24/23 A2984=
201708141300 METAR MRLM 141300Z 25004KT CAVOK 26/23 A2984=
201708141400 METAR MRLM 141400Z 00000KT CAVOK 29/24 A2986=
201708141500 METAR MRLM 141500Z 07003KT CAVOK 30/24 A2986=
201708141600 METAR MRLM 141600Z 05008KT 9999 FEW030 31/25 A2985=
201708141700 METAR MRLM 141700Z 02012KT 9999 FEW030 BKN120 30/25 A2985=
201708141800 METAR MRLM 141800Z 02008KT 9999 FEW020 BKN110 30/25 A2982=
201708141900 METAR MRLM 141900Z 01009KT CAVOK 30/26 A2979=
201708142000 METAR MRLM 142000Z 01010KT 9999 FEW025 BKN130 30/25 A2978=
201708142100 METAR MRLM 142100Z 02013KT 9999 FEW020 BKN130 29/26 A2978=
201708142200 METAR MRLM 142200Z 02009KT 9999 BKN020 29/26 A2979=
201708142300 METAR MRLM 142300Z 35004KT 9999 SCT020 29/25 A2980=
201708150000 METAR MRLM 150000Z 28003KT 9999 SCT015 BKN120 28/26 A2982=
201708150100 METAR MRLM NIL=
201708150200 METAR MRLM NIL=
201708150300 METAR MRLM NIL=
201708150400 METAR MRLM NIL=
201708150500 METAR MRLM NIL=
201708150600 METAR MRLM NIL=
201708150700 METAR MRLM NIL=
201708150800 METAR MRLM NIL=
201708150900 METAR MRLM NIL=
201708151000 METAR MRLM NIL=
201708151100 METAR MRLM NIL=
201708151200 METAR MRLM 151200Z 24005KT 9999 4000E +DZ BKN010 24/23 A2983=
201708151300 METAR MRLM 151300Z 24005KT 9999 DZ BKN015 24/23 A2986=
201708151400 METAR MRLM 151400Z 27003KT 9999 DZ VCTS BKN010 24/24 A2988=
201708151500 METAR MRLM 151500Z 24002KT 9999 VCTS BKN010 25/24 A2988 REDZ=
201708151600 METAR MRLM 151600Z 27003KT 9999 BKN015 26/25 A2986=
201708151700 METAR MRLM 151700Z 14003KT 9999 BKN015 SCT120 28/25 A2985=
201708151800 METAR MRLM 151800Z 03003KT 9999 SCT020 BKN120 28/24 A2985=
201708151900 METAR MRLM 151900Z 04003KT 9999 FEW020 SCT220 29/25 A2981=
201708152000 METAR MRLM 152000Z 05006KT 9999 FEW025 BKN230 30/25 A2979=
201708152100 METAR MRLM 152100Z 02007KT 9999 SCT020 BKN110 29/25 A2978=
201708152200 METAR MRLM 152200Z 36009KT 9999 BKN010 28/26 A2978=
201708152300 METAR MRLM 152300Z 05011KT 9999 FEW010 BKN110 27/24 A2982=
201708160000 METAR MRLM 160000Z 27004KT 9999 FEW015 BKN110 27/24 A2983=
201708160100 METAR MRLM NIL=
201708160200 METAR MRLM NIL=
201708160300 METAR MRLM NIL=
201708160400 METAR MRLM NIL=
201708160500 METAR MRLM NIL=
201708160600 METAR MRLM NIL=
201708160700 METAR MRLM NIL=
201708160800 METAR MRLM NIL=
201708160900 METAR MRLM NIL=
201708161000 METAR MRLM NIL=
201708161100 METAR MRLM NIL=
201708161200 METAR MRLM 161200Z 13003KT 8000 DZ VCTS FEW010 BKN080 25/24 A2987=
201708161300 METAR MRLM 161300Z 25003KT 7000 DZ VCTS FEW010 BKN080 24/24 A2988=
201708161400 METAR MRLM 161400Z 23002KT 9000 FEW015 BKN090 25/24 A2989 REDZ=
201708161500 METAR MRLM 161500Z 27002KT 9999 SCT015 BKN090 26/25 A2989=
201708161600 METAR MRLM 161600Z 30002KT 9999 FEW020 BKN100 27/25 A2989=
201708161700 METAR MRLM 161700Z 01005KT 9999 FEW020 BKN120 29/25 A2987=
201708161800 METAR MRLM 161800Z 34006KT 9999 FEW020 BKN120 28/25 A2986=
201708161900 METAR MRLM 161900Z 35006KT 9999 FEW020 BKN120 29/25 A2984=
201708162000 METAR MRLM 162000Z 01010KT 9999 FEW020 BKN240 29/25 A2983=
201708162100 METAR MRLM 162100Z 35008KT 9999 FEW020 BKN240 29/25 A2982=
201708162200 METAR MRLM 162200Z 33007KT CAVOK 29/25 A2980=
201708162300 METAR MRLM 162300Z 33003KT CAVOK 28/25 A2981=
201708170000 METAR MRLM 170000Z 35004KT CAVOK 28/25 A2983=
201708170100 METAR MRLM NIL=
201708170200 METAR MRLM NIL=
201708170300 METAR MRLM NIL=
201708170400 METAR MRLM NIL=
201708170500 METAR MRLM NIL=
201708170600 METAR MRLM NIL=
201708170700 METAR MRLM NIL=
201708170800 METAR MRLM NIL=
201708170900 METAR MRLM NIL=
201708171000 METAR MRLM NIL=
201708171100 METAR MRLM NIL=
201708171200 METAR MRLM 171200Z 26005KT 8000 DZ FEW010 BKN080 23/22 A2988=
201708171300 METAR MRLM 171300Z 31005KT 8000 +DZ FEW010 BKN080 23/22 A2992=
201708171400 METAR MRLM 171400Z 30005KT 9000 -DZ SCT010 BKN080 23/23 A2993=
201708171500 METAR MRLM 171500Z 29005KT 9999 DZ SCT010 BKN090 24/23 A2994=
201708171600 METAR MRLM 171600Z 23004KT 9999 FEW015 SCT100 BKN200 25/23 A2992 REDZ=
201708171700 METAR MRLM 171700Z 25005KT CAVOK 28/23 A2991=
201708171800 METAR MRLM 171800Z 17002KT 9999 FEW020 SCT120 BKN220 30/22 A2988=
201708171900 METAR MRLM 171900Z 10004KT 9999 FEW020 SCT120 BKN220 29/24 A2986=
201708172000 METAR MRLM 172000Z 15007KT 9999 SCT020 BKN110 29/24 A2985=
201708172100 METAR MRLM 172100Z 17003KT CAVOK 28/24 A2982=
201708172200 METAR MRLM 172200Z 22002KT CAVOK 29/23 A2980=
201708172300 METAR MRLM 172300Z 00000KT CAVOK 29/25 A2983=
201708180000 METAR MRLM 180000Z 00000KT CAVOK 26/25 A2984=
201708180100 METAR MRLM NIL=
201708180200 METAR MRLM NIL=
201708180300 METAR MRLM NIL=
201708180400 METAR MRLM NIL=
201708180500 METAR MRLM NIL=
201708180600 METAR MRLM NIL=
201708180700 METAR MRLM NIL=
201708180800 METAR MRLM NIL=
201708180900 METAR MRLM NIL=
201708181000 METAR MRLM NIL=
201708181100 METAR MRLM NIL=
201708181200 METAR MRLM 181200Z 26003KT CAVOK 23/22 A2984=
201708181300 METAR MRLM 181300Z 28004KT 9999 FEW015 OVC090 24/22 A2986=
201708181400 METAR MRLM 181400Z 30002KT 9999 FEW015 OVC090 26/22 A2988=
201708181500 METAR MRLM 181500Z 01003KT 8000 -DZ FEW015 OVC080 26/23 A2990=
201708181600 METAR MRLM 181600Z 28002KT 9999 FEW015 OVC080 25/24 A2990=
201708181700 METAR MRLM 181700Z 24005KT 9999 FEW015 OVC090 26/24 A2987=
201708181800 METAR MRLM 181800Z 00000KT CAVOK 28/24 A2984=
201708181900 METAR MRLM 181900Z 36008KT CAVOK 29/23 A2982=
201708182000 METAR MRLM 182000Z 34005KT CAVOK 29/23 A2981=
201708182100 METAR MRLM 182100Z 36007KT CAVOK 30/23 A2979=
201708182200 METAR MRLM 182200Z 36008KT CAVOK 30/25 A2979=
201708182300 METAR MRLM 182300Z 33005KT CAVOK 28/25 A2980=
201708190000 METAR MRLM 190000Z 34004KT CAVOK 27/25 A2981=
201708190100 METAR MRLM NIL=
201708190200 METAR MRLM NIL=
201708190300 METAR MRLM NIL=
201708190400 METAR MRLM NIL=
201708190500 METAR MRLM NIL=
201708190600 METAR MRLM NIL=
201708190700 METAR MRLM NIL=
201708190800 METAR MRLM NIL=
201708190900 METAR MRLM NIL=
201708191000 METAR MRLM NIL=
201708191100 METAR MRLM NIL=
201708191200 METAR MRLM 191200Z 31003KT 9999 BKN010 25/24 A2982=
201708191300 METAR MRLM 191300Z 30004KT 9999 DZ BKN010 SCT090 25/24 A2984=
201708191400 METAR MRLM 191400Z 29006KT 9999 FEW015 BKN110 26/24 A2985 REDZ=
201708191500 METAR MRLM 191500Z 28004KT 9999 FEW020 SCT120 BKN220 28/24 A2984=
201708191600 METAR MRLM 191600Z 29004KT 9999 FEW020 BKN130 30/24 A2984=
201708191700 METAR MRLM 191700Z 02006KT 9999 FEW030 BKN240 30/24 A2982=
201708191800 METAR MRLM 191800Z 02009KT 9999 FEW030 BKN240 30/25 A2982=
201708191900 METAR MRLM 191900Z 02010KT 9999 FEW030 BKN250 30/25 A2979=
201708192000 METAR MRLM 192000Z 03010KT 9999 FEW025 BKN130 29/25 A2977=
201708192100 METAR MRLM 192100Z 02008KT CAVOK 30/25 A2974=
201708192200 METAR MRLM 192200Z 03006KT 9999 FEW020 BKN240 29/25 A2973=
201708192300 METAR MRLM 192300Z 03005KT 9999 FEW020 BKN230 29/25 A2975=
201708200000 METAR MRLM 200000Z 03005KT 9999 FEW015 BKN230 28/25 A2978=
201708200100 METAR MRLM NIL=
201708200200 METAR MRLM NIL=
201708200300 METAR MRLM NIL=
201708200400 METAR MRLM NIL=
201708200500 METAR MRLM NIL=
201708200600 METAR MRLM NIL=
201708200700 METAR MRLM NIL=
201708200800 METAR MRLM NIL=
201708200900 METAR MRLM NIL=
201708201000 METAR MRLM NIL=
201708201100 METAR MRLM NIL=
201708201200 METAR MRLM 201200Z 26003KT 9999 FEW015 BKN230 23/23 A2979=
201708201300 METAR MRLM 201300Z 25003KT 9999 FEW015 SCT130 BKN230 25/24 A2982=
201708201400 METAR MRLM 201400Z 00000KT CAVOK 27/24 A2984=
201708201500 METAR MRLM 201500Z 31006KT CAVOK 29/24 A2984=
201708201600 METAR MRLM 201600Z 33005KT 9999 FEW025 BKN240 30/25 A2985=
201708201700 METAR MRLM 201700Z 34006KT 9999 SCT020 30/25 A2984=
201708201800 METAR MRLM 201800Z 03008KT 9999 SCT020 SCT130 29/25 A2983=
201708201900 METAR MRLM 201900Z 04007KT 9999 FEW020 BKN220 29/25 A2982=
201708202000 METAR MRLM 202000Z 03010KT 9999 -DZ FEW020 BKN220 28/26 A2979=
201708202100 METAR MRLM 202100Z 02005KT CAVOK 29/25 A2977=
201708202200 METAR MRLM 202200Z 06008KT 9999 FEW030 SCT130 BKN220 29/25 A2978=
201708202300 METAR MRLM 202300Z 06006KT 9999 FEW020 BKN220 28/25 A2980=
201708210000 METAR MRLM 210000Z 00000KT 9999 FEW015 SCT130 BKN220 28/25 A2983=
201708210100 METAR MRLM NIL=
201708210200 METAR MRLM NIL=
201708210300 METAR MRLM NIL=
201708210400 METAR MRLM NIL=
201708210500 METAR MRLM NIL=
201708210600 METAR MRLM NIL=
201708210700 METAR MRLM NIL=
201708210800 METAR MRLM NIL=
201708210900 METAR MRLM NIL=
201708211000 METAR MRLM NIL=
201708211100 METAR MRLM NIL=
201708211200 METAR MRLM 211200Z 26004KT CAVOK 24/23 A2984=
201708211300 METAR MRLM 211300Z 25004KT CAVOK 25/23 A2985=
201708211400 METAR MRLM 211400Z 32002KT CAVOK 29/24 A2986=
201708211500 METAR MRLM 211500Z 08004KT 9999 FEW025 BKN220 28/24 A2987=
201708211600 METAR MRLM 211600Z 04007KT 9999 FEW025 BKN220 29/25 A2987=
201708211700 METAR MRLM 211700Z 04008KT 9999 FEW025 SCT240 30/25 A2986=
201708211800 METAR MRLM 211800Z 04008KT 9999 FEW025 30/25 A2985=
201708211900 METAR MRLM 211900Z 05007KT 9999 FEW025 30/25 A2983=
201708212000 METAR MRLM 212000Z 05008KT 9999 FEW025 30/25 A2982=
201708212100 METAR MRLM 212100Z 09006KT 9999 SCT025 30/25 A2981=
201708212200 METAR MRLM 212200Z 09004KT 9999 SCT020 SCT240 29/25 A2981=
201708212300 METAR MRLM 212300Z 15002KT 9999 SCT020 SCT240 29/25 A2984=
201708220000 METAR MRLM 220000Z 00000KT 9999 FEW015 BKN220 27/25 A2986=
201708220100 METAR MRLM NIL=
201708220200 METAR MRLM NIL=
201708220300 METAR MRLM NIL=
201708220400 METAR MRLM NIL=
201708220500 METAR MRLM NIL=
201708220600 METAR MRLM NIL=
201708220700 METAR MRLM NIL=
201708220800 METAR MRLM NIL=
201708220900 METAR MRLM NIL=
201708221000 METAR MRLM NIL=
201708221100 METAR MRLM NIL=
201708221200 METAR MRLM 221200Z 25004KT CAVOK 23/22 A2987=
201708221300 METAR MRLM 221300Z 25004KT CAVOK 26/23 A2989=
201708221400 METAR MRLM 221400Z 27003KT 9999 FEW030 29/24 A2989=
201708221500 METAR MRLM 221500Z 08004KT 9999 FEW025 29/24 A2990=
201708221600 METAR MRLM 221600Z 07005KT 9999 FEW030 30/24 A2991=
201708221700 METAR MRLM 221700Z 08006KT 9999 FEW030 30/24 A2991=
201708221800 METAR MRLM 221800Z 08006KT 9999 FEW030 30/25 A2988=
201708221900 METAR MRLM 221900Z 08005KT 9999 FEW030 30/25 A2986=
201708222000 METAR MRLM 222000Z 09005KT 9999 FEW030 30/25 A2983=
201708222100 METAR MRLM 222100Z 08006KT 9999 FEW025 30/25 A2981=
201708222200 METAR MRLM 222200Z 08004KT 9999 FEW025 SCT250 30/25 A2981=
201708222300 METAR MRLM 222300Z 07004KT 9999 FEW020 SCT250 30/25 A2981=
201708230000 METAR MRLM 230000Z 00000KT 9999 FEW020 SCT250 29/25 A2982=
201708230100 METAR MRLM NIL=
201708230200 METAR MRLM NIL=
201708230300 METAR MRLM NIL=
201708230400 METAR MRLM NIL=
201708230500 METAR MRLM NIL=
201708230600 METAR MRLM NIL=
201708230700 METAR MRLM NIL=
201708230800 METAR MRLM NIL=
201708230900 METAR MRLM NIL=
201708231000 METAR MRLM NIL=
201708231100 METAR MRLM NIL=
201708231200 METAR MRLM 231200Z 25004KT CAVOK 23/22 A2982=
201708231300 METAR MRLM 231300Z 28003KT CAVOK 24/23 A2983=
201708231400 METAR MRLM 231400Z 28004KT CAVOK 28/24 A2984=
201708231500 METAR MRLM 231500Z 31003KT CAVOK 30/24 A2984=
201708231600 METAR MRLM 231600Z 36006KT CAVOK 31/23 A2984=
201708231700 METAR MRLM 231700Z 03009KT 9999 FEW030 SCT130 BKN250 31/25 A2984=
201708231800 METAR MRLM 231800Z 04007KT 9999 FEW030 SCT120 BKN240 30/25 A2981=
201708231900 METAR MRLM 231900Z 04007KT 9999 FEW020 BKN230 30/25 A2979=
201708232000 METAR MRLM 232000Z 05008KT 9999 FEW020 BKN220 30/26 A2977=
201708232100 METAR MRLM 232100Z 05005KT 9999 BKN015 29/25 A2976=
201708232200 METAR MRLM 232200Z 03008KT 9999 FEW020 BKN120 28/25 A2973=
201708232300 METAR MRLM 232300Z 26002KT 9999 BKN015 SCT110 27/25 A2975=
201708240000 METAR MRLM 240000Z 00000KT 9999 FEW010 BKN120 27/25 A2977=
201708240100 METAR MRLM NIL=
201708240200 METAR MRLM NIL=
201708240300 METAR MRLM NIL=
201708240400 METAR MRLM NIL=
201708240500 METAR MRLM NIL=
201708240600 METAR MRLM NIL=
201708240700 METAR MRLM NIL=
201708240800 METAR MRLM NIL=
201708240900 METAR MRLM NIL=
201708241000 METAR MRLM NIL=
201708241100 METAR MRLM NIL=
201708241200 METAR MRLM 241200Z 24004KT 9999 FEW015 BKN200 23/22 A2979=
201708241300 METAR MRLM 241300Z 25003KT 9999 FEW015 BKN200 24/23 A2982=
201708241400 METAR MRLM 241400Z 27002KT 9999 FEW020 SCT110 BKN200 26/24 A2983=
201708241500 METAR MRLM 241500Z 25002KT CAVOK 28/24 A2984=
201708241600 METAR MRLM 241600Z 07005KT 9999 FEW020 BKN120 28/24 A2984=
201708241700 METAR MRLM 241700Z 33004KT 9999 FEW020 BKN220 30/24 A2982=
201708241800 METAR MRLM 241800Z 03010KT 9999 FEW020 BKN220 29/24 A2981=
201708241900 METAR MRLM 241900Z 03009KT 9999 FEW025 BKN240 30/25 A2979=
201708242000 METAR MRLM 242000Z 05006KT 9999 FEW025 BKN120 29/24 A2977=
201708242100 METAR MRLM 242100Z 08005KT 9999 VCTS FEW020 BKN110 29/25 A2976=
201708242200 METAR MRLM 242200Z 21002KT 9999 -DZ VCSH SCT015 OVC110 27/25 A2977=
201708242300 METAR MRLM 242300Z 29005KT 9999 VCSH SCT015 OVC100 25/23 A2977=
201708250000 METAR MRLM 250000Z 27003KT 9999 FEW010 BKN090 24/23 A2977=
201708250100 METAR MRLM NIL=
201708250200 METAR MRLM NIL=
201708250300 METAR MRLM NIL=
201708250400 METAR MRLM NIL=
201708250500 METAR MRLM NIL=
201708250600 METAR MRLM NIL=
201708250700 METAR MRLM NIL=
201708250800 METAR MRLM NIL=
201708250900 METAR MRLM NIL=
201708251000 METAR MRLM NIL=
201708251100 METAR MRLM NIL=
201708251200 METAR MRLM 251200Z 25004KT CAVOK 23/22 A2985=
201708251300 METAR MRLM 251300Z 25004KT CAVOK 24/23 A2986=
201708251400 METAR MRLM 251400Z 23002KT CAVOK 28/24 A2985=
201708251500 METAR MRLM 251500Z 06005KT 9999 FEW025 SCT240 29/24 A2985=
201708251600 METAR MRLM 251600Z 06005KT 9999 FEW025 SCT240 29/24 A2987=
201708251700 METAR MRLM 251700Z 04004KT 9999 FEW030 SCT250 30/25 A2987=
201708251800 METAR MRLM 251800Z 06007KT 9999 FEW030 SCT250 30/25 A2986=
201708251900 METAR MRLM 251900Z 07008KT 9999 SCT030 30/25 A2983=
201708252000 METAR MRLM 252000Z 04008KT 9999 SCT030 SCT250 30/25 A2982=
201708252100 METAR MRLM 252100Z 04008KT 9999 FEW030 BKN250 30/25 A2981=
201708252200 METAR MRLM 252200Z 06004KT 9999 FEW025 BKN250 29/25 A2981=
201708252300 METAR MRLM 252300Z 09004KT CAVOK 29/24 A2983=
201708260000 METAR MRLM 260000Z 00000KT CAVOK 28/25 A2986=
201708260100 METAR MRLM NIL=
201708260200 METAR MRLM NIL=
201708260300 METAR MRLM NIL=
201708260400 METAR MRLM NIL=
201708260500 METAR MRLM NIL=
201708260600 METAR MRLM NIL=
201708260700 METAR MRLM NIL=
201708260800 METAR MRLM NIL=
201708260900 METAR MRLM NIL=
201708261000 METAR MRLM NIL=
201708261100 METAR MRLM NIL=
201708261200 METAR MRLM 261200Z 23004KT 9999 VCTS FEW015 SCT130 BKN240 23/22 A2989=
201708261300 METAR MRLM 261300Z 23004KT 9999 VCTS FEW015 SCT130 BKN240 24/23 A2991=
201708261400 METAR MRLM 261400Z 12006KT 9999 FEW015 SCT130 BKN220 26/23 A2991=
201708261500 METAR MRLM 261500Z 00000KT CAVOK 26/24 A2990=
201708261600 METAR MRLM 261600Z 04005KT CAVOK 29/25 A2989=
201708261700 METAR MRLM 261700Z 07004KT CAVOK 30/25 A2988=
201708261800 METAR MRLM 261800Z 04005KT CAVOK 30/25 A2987=
201708261900 METAR MRLM 261900Z 04007KT CAVOK 29/24 A2986=
201708262000 METAR MRLM 262000Z 05020KT 9999 VCSH BKN015 26/23 A2986=
201708262100 METAR MRLM 262100Z 26002KT CAVOK 26/22 A2984=
201708262200 METAR MRLM 262200Z 27002KT CAVOK 26/22 A2981=
201708262300 METAR MRLM 262300Z 00000KT CAVOK 26/23 A2982=
201708270000 METAR MRLM 270000Z 00000KT CAVOK 25/24 A2985=
201708270100 METAR MRLM NIL=
201708270200 METAR MRLM NIL=
201708270300 METAR MRLM NIL=
201708270400 METAR MRLM NIL=
201708270500 METAR MRLM NIL=
201708270600 METAR MRLM NIL=
201708270700 METAR MRLM NIL=
201708270800 METAR MRLM NIL=
201708270900 METAR MRLM NIL=
201708271000 METAR MRLM NIL=
201708271100 METAR MRLM NIL=
201708271200 METAR MRLM 271200Z 00000KT CAVOK 22/21 A2986=
201708271300 METAR MRLM 271300Z 28003KT CAVOK 24/22 A2986=
201708271400 METAR MRLM 271400Z 25003KT CAVOK 27/23 A2987=
201708271500 METAR MRLM 271500Z 27003KT CAVOK 29/23 A2988=
201708271600 METAR MRLM 271600Z 08002KT 9999 FEW030 BKN250 31/24 A2987=
201708271700 METAR MRLM 271700Z 06004KT CAVOK 30/24 A2987=
201708271800 METAR MRLM 271800Z 08006KT CAVOK 30/25 A2985=
201708271900 METAR MRLM 271900Z 07009KT CAVOK 29/25 A2982=
201708272000 METAR MRLM 272000Z 13004KT CAVOK 29/23 A2980=
201708272100 METAR MRLM 272100Z 13005KT CAVOK 29/24 A2980=
201708272200 METAR MRLM 272200Z 14005KT CAVOK 30/24 A2978=
201708272300 METAR MRLM 272300Z 13005KT 9999 FEW025 BKN220 29/24 A2978=
201708280000 METAR MRLM 280000Z 11005KT CAVOK 29/24 A2980=
201708280100 METAR MRLM NIL=
201708280200 METAR MRLM NIL=
201708280300 METAR MRLM NIL=
201708280400 METAR MRLM NIL=
201708280500 METAR MRLM NIL=
201708280600 METAR MRLM NIL=
201708280700 METAR MRLM NIL=
201708280800 METAR MRLM NIL=
201708280900 METAR MRLM NIL=
201708281000 METAR MRLM NIL=
201708281100 METAR MRLM NIL=
201708281200 METAR MRLM 281200Z 24004KT CAVOK 23/22 A2984=
201708281300 METAR MRLM 281300Z 24004KT CAVOK 26/23 A2986=
201708281400 METAR MRLM 281400Z 23004KT CAVOK 29/23 A2987=
201708281500 METAR MRLM 281500Z 10004KT 9999 FEW030 SCT240 30/24 A2987=
201708281600 METAR MRLM 281600Z 08005KT 9999 FEW030 SCT240 30/24 A2987=
201708281700 METAR MRLM 281700Z 08006KT 9999 FEW030 SCT240 30/25 A2985=
201708281800 METAR MRLM 281800Z 07006KT CAVOK 31/25 A2983=
201708281900 METAR MRLM 281900Z 07007KT CAVOK 31/25 A2979=
201708282000 METAR MRLM 282000Z 06007KT CAVOK 31/25 A2977=
201708282100 METAR MRLM 282100Z 05008KT CAVOK 31/25 A2977=
201708282200 METAR MRLM 282200Z 07006KT CAVOK 30/25 A2977=
201708282300 METAR MRLM 282300Z 08003KT 9999 FEW020 OVC240 30/24 A2979=
201708290000 METAR MRLM 290000Z 01011KT 9999 BKN015 SCT220 27/24 A2983 RERA=
201708290100 METAR MRLM NIL=
201708290200 METAR MRLM NIL=
201708290300 METAR MRLM NIL=
201708290400 METAR MRLM NIL=
201708290500 METAR MRLM NIL=
201708290600 METAR MRLM NIL=
201708290700 METAR MRLM NIL=
201708290800 METAR MRLM NIL=
201708290900 METAR MRLM NIL=
201708291000 METAR MRLM NIL=
201708291100 METAR MRLM NIL=
201708291200 METAR MRLM 291200Z 26003KT CAVOK 23/22 A2986=
201708291300 METAR MRLM 291300Z 25004KT CAVOK 25/23 A2988=
201708291400 METAR MRLM 291400Z 27002KT CAVOK 29/24 A2990=
201708291500 METAR MRLM 291500Z 11003KT CAVOK 30/24 A2990=
201708291600 METAR MRLM 291600Z 06006KT 9999 FEW030 BKN240 30/24 A2991=
201708291700 METAR MRLM 291700Z 04004KT CAVOK 30/23 A2987=
201708291800 METAR MRLM 291800Z 05008KT CAVOK 30/24 A2984=
201708291900 METAR MRLM 291900Z 03010KT CAVOK 30/25 A2982=
201708292000 METAR MRLM 292000Z 04010KT 9999 FEW030 BKN250 30/25 A2981=
201708292100 METAR MRLM 292100Z 02006KT 9999 FEW025 BKN250 30/25 A2979=
201708292200 METAR MRLM 292200Z 36005KT 9999 FEW025 BKN250 30/25 A2979=
201708292300 METAR MRLM 292300Z 01007KT 9999 SCT020 BKN240 29/25 A2981=
201708300000 METAR MRLM 300000Z 33003KT 9999 FEW015 BKN220 28/25 A2985=
201708300100 METAR MRLM NIL=
201708300200 METAR MRLM NIL=
201708300300 METAR MRLM NIL=
201708300400 METAR MRLM NIL=
201708300500 METAR MRLM NIL=
201708300600 METAR MRLM NIL=
201708300700 METAR MRLM NIL=
201708300800 METAR MRLM NIL=
201708300900 METAR MRLM NIL=
201708301000 METAR MRLM NIL=
201708301100 METAR MRLM NIL=
201708301200 METAR MRLM 301200Z 25003KT CAVOK 22/22 A2985=
201708301300 METAR MRLM 301300Z 24004KT CAVOK 24/23 A2988=
201708301400 METAR MRLM 301400Z 25003KT CAVOK 28/23 A2989=
201708301500 METAR MRLM 301500Z 08003KT CAVOK 29/23 A2989=
201708301600 METAR MRLM 301600Z 05005KT 9999 FEW030 BKN240 30/23 A2989=
201708301700 METAR MRLM NIL=
201708301800 METAR MRLM 301800Z 06006KT CAVOK 30/24 A2986=
201708301900 METAR MRLM 301900Z 06006KT CAVOK 30/24 A2986=
201708302000 METAR MRLM 302000Z 05007KT CAVOK 31/25 A2980=
201708302100 METAR MRLM 302100Z 07006KT CAVOK 30/25 A2980=
201708302200 METAR MRLM 302200Z 08006KT 9999 FEW025 BKN240 30/25 A2980=
201708302300 METAR MRLM 302300Z 11004KT 9999 BKN020 30/25 A2981=
201708310000 METAR MRLM 310000Z 13004KT 9999 BKN015 29/25 A2980=
201708310100 METAR MRLM NIL=
201708310200 METAR MRLM NIL=
201708310300 METAR MRLM NIL=
201708310400 METAR MRLM NIL=
201708310500 METAR MRLM NIL=
201708310600 METAR MRLM NIL=
201708310700 METAR MRLM NIL=
201708310800 METAR MRLM NIL=
201708310900 METAR MRLM NIL=
201708311000 METAR MRLM NIL=
201708311100 METAR MRLM NIL=
201708311200 METAR MRLM 311200Z 27004KT 9999 4000N DZ VCTS BKN015 24/23 A2990=
201708311300 METAR MRLM 311300Z 26005KT 9999 DZ VCTS FEW015 SCT120 BKN200 24/23 A2991=
201708311400 METAR MRLM 311400Z 28005KT 9999 SCT015 SCT120 25/23 A2993 REDZ=
201708311500 METAR MRLM 311500Z 00000KT 9999 SCT020 BKN120 27/24 A2993=
201708311600 METAR MRLM 311600Z 07003KT 9999 FEW020 BKN130 29/25 A2992=
201708311700 METAR MRLM 311700Z 11003KT 9999 FEW020 BKN130 29/25 A2990=
201708311800 METAR MRLM 311800Z 10005KT 9999 FEW025 BKN250 30/25 A2986=
201708311900 METAR MRLM 311900Z 09006KT CAVOK 30/24 A2983=
201708312000 METAR MRLM 312000Z 09007KT CAVOK 30/24 A2981=
201708312100 METAR MRLM 312100Z 09004KT CAVOK 30/24 A2979=
201708312200 METAR MRLM 312200Z 07005KT 9999 FEW020 BKN240 30/24 A2981=
201708312300 METAR MRLM 312300Z 09002KT 9999 FEW020 SCT120 BKN240 29/24 A2983=
201709010000 METAR MRLM 010000Z 13002KT 9999 BKN015 SCT220 28/25 A2985=
201709010100 METAR MRLM NIL=
201709010200 METAR MRLM NIL=
201709010300 METAR MRLM NIL=
201709010400 METAR MRLM NIL=
201709010500 METAR MRLM NIL=
201709010600 METAR MRLM NIL=
201709010700 METAR MRLM NIL=
201709010800 METAR MRLM NIL=
201709010900 METAR MRLM NIL=
201709011000 METAR MRLM NIL=
201709011100 METAR MRLM NIL=
201709011200 METAR MRLM 011200Z 24004KT CAVOK 23/22 A2987=
201709011300 METAR MRLM 011300Z 25003KT CAVOK 25/23 A2988=
201709011400 METAR MRLM 011400Z 22002KT CAVOK 29/24 A2990=
201709011500 METAR MRLM 011500Z 09005KT CAVOK 29/23 A2991=
201709011600 METAR MRLM 011600Z 06006KT CAVOK 30/24 A2992=
201709011700 METAR MRLM 011700Z 07006KT CAVOK 30/24 A2990=
201709011800 METAR MRLM 011800Z 06007KT 9999 FEW030 BKN250 31/25 A2987=
201709011900 METAR MRLM 011900Z 06007KT 9999 FEW030 SCT140 BKN250 31/26 A2984=
201709012000 METAR MRLM 012000Z 06006KT 9999 FEW030 BKN250 31/26 A2982=
201709012100 METAR MRLM 012100Z 06004KT 9999 FEW030 BKN250 31/25 A2981=
201709012200 METAR MRLM 012200Z 06005KT 9999 SCT025 SCT250 31/25 A2982=
201709012300 METAR MRLM 012300Z 05004KT 9999 SCT025 SCT240 30/25 A2983=
201709020000 METAR MRLM 020000Z 06003KT 9999 FEW020 SCT240 30/25 A2985=
201709020100 METAR MRLM NIL=
201709020200 METAR MRLM NIL=
201709020300 METAR MRLM NIL=
201709020400 METAR MRLM NIL=
201709020500 METAR MRLM NIL=
201709020600 METAR MRLM NIL=
201709020700 METAR MRLM NIL=
201709020800 METAR MRLM NIL=
201709020900 METAR MRLM NIL=
201709021000 METAR MRLM NIL=
201709021100 METAR MRLM NIL=
201709021200 METAR MRLM 021200Z 26002KT 9999 VCTS FEW015 BKN200 24/23 A2988=
201709021300 METAR MRLM 021300Z 24004KT 9999 VCTS FEW015 BKN200 24/23 A2989=
201709021400 METAR MRLM 021400Z 28002KT 9999 VCTS FEW020 BKN220 27/24 A2992=
201709021500 METAR MRLM 021500Z 00000KT 9999 VCTS VCSH FEW020 BKN120 29/24 A2993=
201709021600 METAR MRLM 021600Z 01006KT 9999 VCTS SCT020 BKN110 27/25 A2994=
201709021700 METAR MRLM 021700Z 08002KT 9999 VCTS SCT020 BKN110 28/26 A2993=
201709021800 METAR MRLM 021800Z 00000KT 9999 FEW020 SCT120 BKN200 27/26 A2992=
201709021900 METAR MRLM 021900Z 21002KT CAVOK 28/26 A2987=
201709022000 METAR MRLM 022000Z 23002KT CAVOK 29/26 A2986=
201709022100 METAR MRLM 022100Z 29002KT CAVOK 30/25 A2984=
201709022200 METAR MRLM 022200Z 31002KT CAVOK 30/24 A2982=
201709022300 METAR MRLM 022300Z 03005KT CAVOK 30/25 A2983=
201709030000 METAR MRLM 030000Z 00000KT CAVOK 27/25 A2988=
201709030100 METAR MRLM NIL=
201709030200 METAR MRLM NIL=
201709030300 METAR MRLM NIL=
201709030400 METAR MRLM NIL=
201709030500 METAR MRLM NIL=
201709030600 METAR MRLM NIL=
201709030700 METAR MRLM NIL=
201709030800 METAR MRLM NIL=
201709030900 METAR MRLM NIL=
201709031000 METAR MRLM NIL=
201709031100 METAR MRLM NIL=
201709031200 METAR MRLM 031200Z 25003KT 9999 FEW015 SCT120 BKN220 24/24 A2987=
201709031300 METAR MRLM 031300Z 25004KT 9999 VCTS FEW015 SCT130 BKN220 25/24 A2987=
201709031400 METAR MRLM 031400Z 00000KT 9999 VCTS FEW010 SCT130 BKN220 27/25 A2991=
201709031500 METAR MRLM 031500Z 03002KT 9999 FEW010 SCT130 BKN220 27/25 A2993=
201709031600 METAR MRLM 031600Z 00000KT 9999 FEW015 SCT120 BKN220 28/26 A2992=
201709031700 METAR MRLM 031700Z 10005KT 9999 FEW015 SCT120 BKN220 28/26 A2991=
201709031800 METAR MRLM 031800Z 11006KT 9999 DZ FEW015 SCT110 BKN220 28/25 A2989=
201709031900 METAR MRLM 031900Z 07003KT CAVOK 29/25 A2987=
201709032000 METAR MRLM 032000Z 03003KT 9999 FEW020 BKN220 29/25 A2984=
201709032100 METAR MRLM 032100Z 04004KT 9999 FEW030 BKN220 30/24 A2984=
201709032200 METAR MRLM 032200Z 03006KT 9999 FEW030 BKN240 30/25 A2982=
201709032300 METAR MRLM 032300Z 02004KT CAVOK 29/25 A2984=
201709040000 METAR MRLM 040000Z 02004KT CAVOK 29/25 A2984=
201709040100 METAR MRLM NIL=
201709040200 METAR MRLM NIL=
201709040300 METAR MRLM NIL=
201709040400 METAR MRLM NIL=
201709040500 METAR MRLM NIL=
201709040600 METAR MRLM NIL=
201709040700 METAR MRLM NIL=
201709040800 METAR MRLM NIL=
201709040900 METAR MRLM NIL=
201709041000 METAR MRLM NIL=
201709041100 METAR MRLM NIL=
201709041200 METAR MRLM 041200Z 00000KT CAVOK 24/23 A2987=
201709041300 METAR MRLM 041300Z 23002KT CAVOK 27/24 A2990=
201709041400 METAR MRLM 041400Z 00000KT CAVOK 30/24 A2992=
201709041500 METAR MRLM 041500Z 07004KT 9999 FEW025 BKN240 30/25 A2992=
201709041600 METAR MRLM 041600Z 08006KT 9999 BKN020 30/25 A2993=
201709041700 METAR MRLM 041700Z 16009KT 9999 SCT020 BKN130 27/24 A2992 REDZ=
201709041800 METAR MRLM 041800Z 16009KT CAVOK 28/23 A2990=
201709041900 METAR MRLM 041900Z 14012KT 9999 FEW015 SCT130 BKN220 28/23 A2987=
201709042000 METAR MRLM 042000Z 14010KT CAVOK 28/24 A2984=
201709042100 METAR MRLM 042100Z 15008KT CAVOK 28/24 A2982=
201709042200 METAR MRLM 042200Z 17003KT CAVOK 28/24 A2980=
201709042300 METAR MRLM 042300Z 13004KT CAVOK 28/24 A2982=
201709050000 METAR MRLM 050000Z 00000KT CAVOK 26/25 A2985=
201709050100 METAR MRLM NIL=
201709050200 METAR MRLM NIL=
201709050300 METAR MRLM NIL=
201709050400 METAR MRLM NIL=
201709050500 METAR MRLM NIL=
201709050600 METAR MRLM NIL=
201709050700 METAR MRLM NIL=
201709050800 METAR MRLM NIL=
201709050900 METAR MRLM NIL=
201709051000 METAR MRLM NIL=
201709051100 METAR MRLM NIL=
201709051200 METAR MRLM 051200Z 26004KT CAVOK 23/22 A2985=
201709051300 METAR MRLM 051300Z 24004KT CAVOK 26/23 A2987=
201709051400 METAR MRLM 051400Z 28002KT CAVOK 29/23 A2990=
201709051500 METAR MRLM 051500Z 10003KT 9999 FEW025 BKN250 29/25 A2991=
201709051600 METAR MRLM 051600Z 11005KT CAVOK 29/24 A2991=
201709051700 METAR MRLM 051700Z 08006KT CAVOK 30/24 A2990=
201709051800 METAR MRLM 051800Z 08007KT 9999 FEW030 SCT140 BKN250 30/25 A2989=
201709051900 METAR MRLM 051900Z 02008KT 9999 FEW030 BKN250 31/25 A2986=
201709052000 METAR MRLM 052000Z 07008KT 9999 FEW025 BKN250 30/25 A2982=
201709052100 METAR MRLM 052100Z 07008KT 9999 FEW025 BKN250 29/25 A2980=
201709052200 METAR MRLM 052200Z 07006KT 9999 FEW025 BKN250 29/25 A2980=
201709052300 METAR MRLM 052300Z 06009KT 9999 FEW020 BKN230 29/24 A2981=
201709060000 METAR MRLM 060000Z 09005KT 9999 SCT020 BKN230 28/24 A2982=
201709060100 METAR MRLM NIL=
201709060200 METAR MRLM NIL=
201709060300 METAR MRLM NIL=
201709060400 METAR MRLM NIL=
201709060500 METAR MRLM NIL=
201709060600 METAR MRLM NIL=
201709060700 METAR MRLM NIL=
201709060800 METAR MRLM NIL=
201709060900 METAR MRLM NIL=
201709061000 METAR MRLM NIL=
201709061100 METAR MRLM NIL=
201709061200 METAR MRLM 061200Z 24004KT CAVOK 23/22 A2987=
201709061300 METAR MRLM 061300Z 24004KT CAVOK 26/24 A2988=
201709061400 METAR MRLM 061400Z 21002KT CAVOK 30/25 A2989=
201709061500 METAR MRLM 061500Z 12004KT 9999 FEW030 SCT220 30/24 A2988=
201709061600 METAR MRLM 061600Z 09007KT 9999 FEW030 SCT220 30/24 A2988=
201709061700 METAR MRLM 061700Z 10008KT CAVOK 31/24 A2986=
201709061800 METAR MRLM 061800Z 11007KT CAVOK 31/24 A2983=
201709061900 METAR MRLM 061900Z 10010KT CAVOK 31/25 A2982=
201709062000 METAR MRLM 062000Z 11010KT 9999 FEW025 BKN250 31/25 A2980=
201709062100 METAR MRLM 062100Z 12006KT 9999 FEW025 BKN250 31/25 A2977=
201709062200 METAR MRLM 062200Z 10005KT 9999 FEW025 BKN250 31/25 A2977=
201709062300 METAR MRLM 062300Z 11004KT CAVOK 30/24 A2978=
201709070000 METAR MRLM 070000Z 08004KT CAVOK 29/24 A2979=
201709070100 METAR MRLM NIL=
201709070200 METAR MRLM NIL=
201709070300 METAR MRLM NIL=
201709070400 METAR MRLM NIL=
201709070500 METAR MRLM NIL=
201709070600 METAR MRLM NIL=
201709070700 METAR MRLM NIL=
201709070800 METAR MRLM NIL=
201709070900 METAR MRLM NIL=
201709071000 METAR MRLM NIL=
201709071100 METAR MRLM NIL=
201709071200 METAR MRLM 071200Z 26004KT CAVOK 24/23 A2984=
201709071300 METAR MRLM 071300Z 26004KT CAVOK 25/24 A2987=
201709071400 METAR MRLM 071400Z 00000KT CAVOK 27/25 A2989=
201709071500 METAR MRLM 071500Z 00000KT 9999 FEW020 BKN120 29/25 A2990=
201709071600 METAR MRLM 071600Z 08004KT 9999 FEW020 SCT120 BKN220 29/25 A2991=
201709071700 METAR MRLM 071700Z 09014KT 9999 BKN020 28/25 A2989=
201709071800 METAR MRLM 071800Z 12007KT 9999 FEW020 BKN130 29/24 A2986=
201709071900 METAR MRLM 071900Z 12008KT CAVOK 29/26 A2983=
201709072000 METAR MRLM 072000Z 14009KT CAVOK 31/24 A2980=
201709072100 METAR MRLM 072100Z 13007KT CAVOK 30/24 A2979=
201709072200 METAR MRLM 072200Z 12006KT CAVOK 30/24 A2979=
201709072300 METAR MRLM 072300Z 13006KT CAVOK 29/24 A2979=
201709080000 METAR MRLM 080000Z 14006KT CAVOK 29/24 A2981=
201709080100 METAR MRLM NIL=
201709080200 METAR MRLM NIL=
201709080300 METAR MRLM NIL=
201709080400 METAR MRLM NIL=
201709080500 METAR MRLM NIL=
201709080600 METAR MRLM NIL=
201709080700 METAR MRLM NIL=
201709080800 METAR MRLM NIL=
201709080900 METAR MRLM NIL=
201709081000 METAR MRLM NIL=
201709081100 METAR MRLM NIL=
201709081200 METAR MRLM 081200Z 26004KT CAVOK 24/23 A2983=
201709081300 METAR MRLM 081300Z 24004KT CAVOK 26/24 A2984=
201709081400 METAR MRLM 081400Z 27003KT 9999 FEW020 29/25 A2985=
201709081500 METAR MRLM 081500Z 08004KT 9999 SCT025 30/25 A2985=
201709081600 METAR MRLM NIL=
201709081700 METAR MRLM 081700Z 08005KT 9999 FEW030 30/25 A2984=
201709081800 METAR MRLM 081800Z 07006KT 9999 FEW030 SCT260 31/25 A2980=
201709081900 METAR MRLM 081900Z 08007KT 9999 FEW030 SCT260 31/25 A2978=
201709082000 METAR MRLM 082000Z 08007KT 9999 BKN030 SCT260 31/25 A2976=
201709082100 METAR MRLM 082100Z 10005KT 9999 SCT030 SCT260 31/25 A2975=
201709082200 METAR MRLM 082200Z 08004KT 9999 FEW030 SCT250 30/23 A2976=
201709082300 METAR MRLM 082300Z 12004KT CAVOK 30/23 A2976=
201709090000 METAR MRLM 090000Z 13004KT CAVOK 29/23 A2979=
201709090100 METAR MRLM NIL=
201709090200 METAR MRLM NIL=
201709090300 METAR MRLM NIL=
201709090400 METAR MRLM NIL=
201709090500 METAR MRLM NIL=
201709090600 METAR MRLM NIL=
201709090700 METAR MRLM NIL=
201709090800 METAR MRLM NIL=
201709090900 METAR MRLM NIL=
201709091000 METAR MRLM NIL=
201709091100 METAR MRLM NIL=
201709091200 METAR MRLM 091200Z 26004KT CAVOK 24/24 A2980=
201709091300 METAR MRLM 091300Z 26003KT CAVOK 26/24 A2985=
201709091400 METAR MRLM 091400Z 00000KT 9999 FEW025 BKN220 29/24 A2987=
201709091500 METAR MRLM 091500Z 10004KT 9999 FEW025 BKN220 30/24 A2987=
201709091600 METAR MRLM 091600Z 10004KT 9999 FEW030 BKN240 30/24 A2987=
201709091700 METAR MRLM 091700Z 08005KT 9999 FEW030 BKN240 31/24 A2985=
201709091800 METAR MRLM 091800Z 06006KT 9999 FEW030 BKN250 31/24 A2983=
201709091900 METAR MRLM 091900Z 05006KT CAVOK 31/24 A2980=
201709092000 METAR MRLM 092000Z 05007KT CAVOK 31/24 A2977=
201709092100 METAR MRLM 092100Z 07005KT CAVOK 30/24 A2978=
201709092200 METAR MRLM 092200Z 13007KT 9999 FEW025 SCT130 BKN250 31/23 A2979=
201709092300 METAR MRLM 092300Z 21004KT 9999 FEW020 SCT120 BKN240 28/23 A2981=
201709100000 METAR MRLM 100000Z 25003KT 9999 FEW020 SCT110 BKN220 26/22 A2981=
201709100100 METAR MRLM NIL=
201709100200 METAR MRLM NIL=
201709100300 METAR MRLM NIL=
201709100400 METAR MRLM NIL=
201709100500 METAR MRLM NIL=
201709100600 METAR MRLM NIL=
201709100700 METAR MRLM NIL=
201709100800 METAR MRLM NIL=
201709100900 METAR MRLM NIL=
201709101000 METAR MRLM NIL=
201709101100 METAR MRLM NIL=
201709101200 METAR MRLM 101200Z 26005KT CAVOK 22/21 A2983=
201709101300 METAR MRLM 101300Z 26003KT CAVOK 24/22 A2986=
201709101400 METAR MRLM 101400Z 24003KT CAVOK 27/23 A2988=
201709101500 METAR MRLM 101500Z 08004KT CAVOK 30/23 A2988=
201709101600 METAR MRLM 101600Z 06006KT CAVOK 31/22 A2987=
201709101700 METAR MRLM 101700Z 04010KT CAVOK 31/24 A2986=
201709101800 METAR MRLM 101800Z 03010KT 9999 FEW035 BKN250 31/23 A2983=
201709101900 METAR MRLM 101900Z 06007KT CAVOK 31/24 A2982=
201709102000 METAR MRLM 102000Z 09005KT CAVOK 30/23 A2980=
201709102100 METAR MRLM 102100Z 13004KT CAVOK 30/23 A2980=
201709102200 METAR MRLM 102200Z 18004KT CAVOK 28/24 A2981=
201709102300 METAR MRLM 102300Z 22002KT CAVOK 28/24 A2981=
201709110000 METAR MRLM 110000Z 22002KT 9999 FEW020 BKN110 27/23 A2982=
201709110100 METAR MRLM NIL=
201709110200 METAR MRLM NIL=
201709110300 METAR MRLM NIL=
201709110400 METAR MRLM NIL=
201709110500 METAR MRLM NIL=
201709110600 METAR MRLM NIL=
201709110700 METAR MRLM NIL=
201709110800 METAR MRLM NIL=
201709110900 METAR MRLM NIL=
201709111000 METAR MRLM NIL=
201709111100 METAR MRLM NIL=
201709111200 METAR MRLM 111200Z 23004KT CAVOK 23/22 A2985=
201709111300 METAR MRLM 111300Z 26004KT CAVOK 26/23 A2987=
201709111400 METAR MRLM 111400Z 22003KT CAVOK 29/23 A2988=
201709111500 METAR MRLM 111500Z 08003KT CAVOK 31/22 A2988=
201709111600 METAR MRLM 111600Z 08005KT 9999 FEW035 SCT240 31/22 A2986=
201709111700 METAR MRLM 111700Z 06006KT CAVOK 31/24 A2984=
201709111800 METAR MRLM 111800Z 05007KT CAVOK 32/24 A2982=
201709111900 METAR MRLM 111900Z 06007KT CAVOK 32/24 A2979=
201709112000 METAR MRLM 112000Z 06006KT 9999 FEW035 SCT250 32/24 A2979=
201709112100 METAR MRLM 112100Z 06006KT 9999 FEW035 SCT250 31/25 A2977=
201709112200 METAR MRLM 112200Z 03004KT 9999 FEW030 BKN250 30/25 A2978=
201709112300 METAR MRLM 112300Z 30002KT 9999 FEW025 SCT120 BKN240 28/25 A2980=
201709120000 METAR MRLM 120000Z 26004KT 9999 FEW020 SCT110 BKN220 27/25 A2982=
201709120100 METAR MRLM NIL=
201709120200 METAR MRLM NIL=
201709120300 METAR MRLM NIL=
201709120400 METAR MRLM NIL=
201709120500 METAR MRLM NIL=
201709120600 METAR MRLM NIL=
201709120700 METAR MRLM NIL=
201709120800 METAR MRLM NIL=
201709120900 METAR MRLM NIL=
201709121000 METAR MRLM NIL=
201709121100 METAR MRLM NIL=
201709121200 METAR MRLM 121200Z 24004KT CAVOK 24/23 A2987=
201709121300 METAR MRLM 121300Z 23004KT CAVOK 26/24 A2989=
201709121400 METAR MRLM 121400Z 17003KT CAVOK 30/25 A2990=
201709121500 METAR MRLM 121500Z 13005KT CAVOK 31/24 A2990=
201709121600 METAR MRLM 121600Z 11006KT CAVOK 31/23 A2988=
201709121700 METAR MRLM 121700Z 11007KT CAVOK 32/24 A2986=
201709121800 METAR MRLM 121800Z 11008KT CAVOK 32/24 A2984=
201709121900 METAR MRLM 121900Z 11006KT CAVOK 31/24 A2982=
201709122000 METAR MRLM 122000Z 08006KT CAVOK 31/25 A2980=
201709122100 METAR MRLM 122100Z 07007KT 9999 FEW030 31/25 A2979=
201709122200 METAR MRLM 122200Z 06006KT 9999 SCT030 SCT250 31/25 A2980=
201709122300 METAR MRLM 122300Z 07005KT 9999 SCT020 30/25 A2981=
201709130000 METAR MRLM 130000Z 05003KT 9999 SCT020 BKN240 29/25 A2982=
201709130100 METAR MRLM NIL=
201709130200 METAR MRLM NIL=
201709130300 METAR MRLM NIL=
201709130400 METAR MRLM NIL=
201709130500 METAR MRLM NIL=
201709130600 METAR MRLM NIL=
201709130700 METAR MRLM NIL=
201709130800 METAR MRLM NIL=
201709130900 METAR MRLM NIL=
201709131000 METAR MRLM NIL=
201709131100 METAR MRLM NIL=
201709131200 METAR MRLM 131200Z 24004KT 9999 FEW015 BKN200 24/23 A2987=
201709131300 METAR MRLM 131300Z 24004KT 9999 FEW020 BKN220 27/24 A2989=
201709131400 METAR MRLM 131400Z 00000KT CAVOK 30/25 A2988=
201709131500 METAR MRLM 131500Z 13003KT CAVOK 31/24 A2991=
201709131600 METAR MRLM 131600Z 11005KT CAVOK 31/25 A2990=
201709131700 METAR MRLM 131700Z 11005KT CAVOK 31/25 A2990=
201709131800 METAR MRLM 131800Z 11006KT 9999 FEW030 BKN250 31/25 A2988=
201709131900 METAR MRLM 131900Z 10007KT 9999 FEW030 BKN250 32/25 A2987=
201709132000 METAR MRLM 132000Z 12008KT 9999 FEW025 BKN140 31/26 A2984=
201709132100 METAR MRLM 132100Z 11005KT 9999 SCT020 BKN130 30/25 A2982=
201709132200 METAR MRLM 132200Z 13007KT 9999 SCT020 BKN130 30/26 A2982=
201709132300 METAR MRLM 132300Z 15005KT 9999 FEW020 BKN130 30/25 A2981=
201709140000 METAR MRLM 140000Z 20003KT 9999 FEW015 BKN220 28/25 A2982=
201709140100 METAR MRLM NIL=
201709140200 METAR MRLM NIL=
201709140300 METAR MRLM NIL=
201709140400 METAR MRLM NIL=
201709140500 METAR MRLM NIL=
201709140600 METAR MRLM NIL=
201709140700 METAR MRLM NIL=
201709140800 METAR MRLM NIL=
201709140900 METAR MRLM NIL=
201709141000 METAR MRLM NIL=
201709141100 METAR MRLM NIL=
201709141200 METAR MRLM 141200Z 25003KT CAVOK 24/23 A2988=
201709141300 METAR MRLM 141300Z 31003KT CAVOK 25/23 A2989=
201709141400 METAR MRLM 141400Z 27003KT CAVOK 29/25 A2990=
201709141500 METAR MRLM 141500Z 07003KT CAVOK 30/25 A2991=
201709141600 METAR MRLM 141600Z 05006KT 9999 FEW020 BKN240 30/26 A2992=
201709141700 METAR MRLM 141700Z 05005KT 9999 FEW020 SCT140 BKN240 31/25 A2990=
201709141800 METAR MRLM 141800Z 06006KT 9999 FEW020 BKN240 31/25 A2987=
201709141900 METAR MRLM 141900Z 06007KT 9999 FEW020 BKN240 32/26 A2985=
201709142000 METAR MRLM 142000Z 07006KT 9999 FEW030 BKN240 32/26 A2982=
201709142100 METAR MRLM 142100Z 08006KT 9999 SCT030 BKN230 31/25 A2981=
201709142200 METAR MRLM 142200Z 08005KT 9999 FEW030 BKN230 31/25 A2982=
201709142300 METAR MRLM 142300Z 08003KT 9999 SCT025 BKN230 30/25 A2982=
201709150000 METAR MRLM 150000Z 06003KT 9999 BKN020 29/25 A2983=
201709150100 METAR MRLM NIL=
201709150200 METAR MRLM NIL=
201709150300 METAR MRLM NIL=
201709150400 METAR MRLM NIL=
201709150500 METAR MRLM NIL=
201709150600 METAR MRLM NIL=
201709150700 METAR MRLM NIL=
201709150800 METAR MRLM NIL=
201709150900 METAR MRLM NIL=
201709151000 METAR MRLM NIL=
201709151100 METAR MRLM NIL=
201709151200 METAR MRLM 151200Z 24004KT 9999 SCT010 BKN100 25/24 A2990=
201709151300 METAR MRLM 151300Z 25004KT 9999 FEW015 BKN100 25/24 A2991=
201709151400 METAR MRLM 151400Z 29002KT 9999 FEW020 BKN110 26/25 A2990=
201709151500 METAR MRLM 151500Z 22003KT CAVOK 28/26 A2991=
201709151600 METAR MRLM 151600Z 17004KT CAVOK 29/25 A2990=
201709151700 METAR MRLM 151700Z 17003KT CAVOK 30/26 A2987=
201709151800 METAR MRLM 151800Z 09004KT CAVOK 31/25 A2984=
201709151900 METAR MRLM 151900Z 11004KT 9999 FEW030 BKN230 31/24 A2983=
201709152000 METAR MRLM 152000Z 09004KT CAVOK 31/24 A2981=
201709152100 METAR MRLM 152100Z 10004KT CAVOK 30/24 A2980=
201709152200 METAR MRLM 152200Z 10003KT CAVOK 30/24 A2979=
201709152300 METAR MRLM 152300Z 00000KT CAVOK 30/24 A2980=
201709160000 METAR MRLM 160000Z 00000KT CAVOK 26/25 A2982=
201709160100 METAR MRLM NIL=
201709160200 METAR MRLM NIL=
201709160300 METAR MRLM NIL=
201709160400 METAR MRLM NIL=
201709160500 METAR MRLM NIL=
201709160600 METAR MRLM NIL=
201709160700 METAR MRLM NIL=
201709160800 METAR MRLM NIL=
201709160900 METAR MRLM NIL=
201709161000 METAR MRLM NIL=
201709161100 METAR MRLM NIL=
201709161200 METAR MRLM 161200Z 27003KT 9999 FEW010 SCT120 BKN200 23/22 A2982=
201709161300 METAR MRLM 161300Z 00000KT CAVOK 24/22 A2985=
201709161400 METAR MRLM 161400Z 00000KT 9999 -DZ FEW020 SCT120 SCT220 26/23 A2987=
201709161500 METAR MRLM 161500Z 25003KT 9999 FEW020 SCT130 BKN220 29/23 A2988=
201709161600 METAR MRLM 161600Z 00000KT 9999 SCT030 SCT130 31/24 A2988=
201709161700 METAR MRLM 161700Z 03009KT 9999 FEW030 BKN240 32/25 A2986=
201709161800 METAR MRLM 161800Z 04008KT 9999 FEW025 BKN240 31/25 A2983=
201709161900 METAR MRLM 161900Z 05009KT 9999 FEW025 SCT130 BKN240 30/25 A2980=
201709162000 METAR MRLM 162000Z 05006KT 9999 SCT020 SCT130 29/25 A2978=
201709162100 METAR MRLM 162100Z 36004KT 9999 BKN020 30/25 A2976=
201709162200 METAR MRLM 162200Z 36007KT 9999 SCT020 SCT130 30/25 A2975=
201709162300 METAR MRLM 162300Z 32005KT 9999 FEW020 BKN130 29/25 A2978=
201709170000 METAR MRLM 170000Z 35006KT 9999 FEW015 BKN120 28/25 A2982=
201709170100 METAR MRLM NIL=
201709170200 METAR MRLM NIL=
201709170300 METAR MRLM NIL=
201709170400 METAR MRLM NIL=
201709170500 METAR MRLM NIL=
201709170600 METAR MRLM NIL=
201709170700 METAR MRLM NIL=
201709170800 METAR MRLM NIL=
201709170900 METAR MRLM NIL=
201709171000 METAR MRLM NIL=
201709171100 METAR MRLM NIL=
201709171200 METAR MRLM 171200Z 26004KT CAVOK 23/23 A2981=
201709171300 METAR MRLM 171300Z 25003KT CAVOK 25/23 A2985=
201709171400 METAR MRLM 171400Z 22002KT CAVOK 29/25 A2987=
201709171500 METAR MRLM 171500Z 09003KT 9999 FEW025 BKN120 30/25 A2988=
201709171600 METAR MRLM 171600Z 07005KT 9999 FEW025 SCT130 BKN240 31/24 A2988=
201709171700 METAR MRLM 171700Z 08006KT 9999 FEW025 SCT130 BKN240 30/25 A2986=
201709171800 METAR MRLM 171800Z 07006KT CAVOK 30/25 A2983=
201709171900 METAR MRLM 171900Z 06007KT 9999 FEW025 BKN250 31/25 A2980=
201709172000 METAR MRLM 172000Z 05004KT 9999 FEW030 BKN250 30/25 A2976=
201709172100 METAR MRLM 172100Z 10005KT 9999 FEW030 BKN250 31/25 A2977=
201709172200 METAR MRLM 172200Z 10005KT 9999 FEW025 BKN250 30/25 A2977=
201709172300 METAR MRLM 172300Z 13004KT CAVOK 29/25 A2978=
201709180000 METAR MRLM 180000Z 17002KT CAVOK 28/25 A2979=
201709180100 METAR MRLM NIL=
201709180200 METAR MRLM NIL=
201709180300 METAR MRLM NIL=
201709180400 METAR MRLM NIL=
201709180500 METAR MRLM NIL=
201709180600 METAR MRLM NIL=
201709180700 METAR MRLM NIL=
201709180800 METAR MRLM NIL=
201709180900 METAR MRLM NIL=
201709181000 METAR MRLM NIL=
201709181100 METAR MRLM NIL=
201709181200 METAR MRLM 181200Z 27003KT 9999 FEW010 SCT090 BKN200 25/24 A2982=
201709181300 METAR MRLM 181300Z 26004KT 9999 FEW010 SCT090 BKN200 26/25 A2984=
201709181400 METAR MRLM 181400Z 27002KT 9999 FEW015 SCT100 BKN200 28/25 A2987=
201709181500 METAR MRLM 181500Z 06004KT 9999 VCSH FEW020 BKN220 30/25 A2987=
201709181600 METAR MRLM 181600Z 35011KT 9999 FEW020 BKN220 31/24 A2987=
201709181700 METAR MRLM 181700Z 31005KT 9999 VCTS FEW015 BKN240 28/26 A2986=
201709181800 METAR MRLM 181800Z 27004T 9999 DZ VCTS FEW015 BKN120 26/25 A2984=
201709181900 METAR MRLM 181900Z 30004KT 9999 FEW015 SCT120 BKN240 28/26 A2980 REDZ=
201709182000 METAR MRLM 182000Z 10002KT 9999 FEW025 BKN240 30/26 A2979=
201709182100 METAR MRLM 182100Z 04004KT 9999 FEW025 BKN120 29/25 A2979=
201709182200 METAR MRLM 182200Z 15007KT 9999 FEW020 BKN120 29/25 A2979=
201709182300 METAR MRLM 182300Z 17005KT 9999 FEW020 BKN120 28/24 A2979=
201709190000 METAR MRLM 190000Z 15008KT 9999 FEW015 BKN100 27/23 A2980=
201709190100 METAR MRLM NIL=
201709190200 METAR MRLM NIL=
201709190300 METAR MRLM NIL=
201709190400 METAR MRLM NIL=
201709190500 METAR MRLM NIL=
201709190600 METAR MRLM NIL=
201709190700 METAR MRLM NIL=
201709190800 METAR MRLM NIL=
201709190900 METAR MRLM NIL=
201709191000 METAR MRLM NIL=
201709191100 METAR MRLM NIL=
201709191200 METAR MRLM 191200Z 25004KT 9999 VCTS FEW015 BKN200 24/23 A2985=
201709191300 METAR MRLM 191300Z 25003KT CAVOK 25/23 A2986=
201709191400 METAR MRLM 191400Z 21002KT CAVOK 26/23 A2989=
201709191500 METAR MRLM 191500Z 00000KT 9999 VCSH FEW025 BKN220 29/24 A2991=
201709191600 METAR MRLM 191600Z 06005KT 9999 FEW025 BKN220 29/25 A2990=
201709191700 METAR MRLM 191700Z 05005KT 9999 FEW025 BKN240 30/25 A2989=
201709191800 METAR MRLM 191800Z 06005KT 9999 FEW025 BKN240 30/25 A2987=
201709191900 METAR MRLM 191900Z 03009KT 9999 FEW025 BKN250 30/25 A2982=
201709192000 METAR MRLM 192000Z 02009KT 9999 FEW020 BKN250 30/25 A2980=
201709192100 METAR MRLM 192100Z 02007KT 9999 SCT020 BKN250 29/25 A2979=
201709192200 METAR MRLM 192200Z 01008KT 9999 SCT020 BKN220 29/25 A2979=
201709192300 METAR MRLM 192300Z 01006KT 9999 FEW015 BKN220 29/25 A2983=
201709200000 METAR MRLM NIL=
201709200100 METAR MRLM NIL=
201709200200 METAR MRLM NIL=
201709200300 METAR MRLM NIL=
201709200400 METAR MRLM NIL=
201709200500 METAR MRLM NIL=
201709200600 METAR MRLM NIL=
201709200700 METAR MRLM NIL=
201709200800 METAR MRLM NIL=
201709200900 METAR MRLM NIL=
201709201000 METAR MRLM NIL=
201709201100 METAR MRLM NIL=
201709201200 METAR MRLM 201200Z 28006KT 9999 -DZ FEW010 BKN090 24/23 A2986=
201709201300 METAR MRLM 201300Z 00000KT 9999 FEW010 BKN090 24/23 A2988=
201709201400 METAR MRLM 201400Z 25003KT 9999 FEW010 BKN090 25/24 A2990=
201709201500 METAR MRLM 201500Z 25002KT CAVOK 27/24 A2990=
201709201600 METAR MRLM 201600Z 12005KT CAVOK 29/24 A2989=
201709201700 METAR MRLM 201700Z 11006KT CAVOK 30/24 A2986=
201709201800 METAR MRLM 201800Z 10007KT CAVOK 31/24 A2984=
201709201900 METAR MRLM 201900Z 09012KT CAVOK 31/25 A2982=
201709202000 METAR MRLM 202000Z 09013KT CAVOK 30/25 A2980=
201709202100 METAR MRLM 202100Z 09011KT 9999 FEW025 BKN250 29/24 A2980=
201709202200 METAR MRLM 202200Z 12010KT 9999 BKN020 SCT240 29/26 A2980=
201709202300 METAR MRLM 202300Z 12012KT 9999 SCT015 BKN240 28/25 A2981=
201709210000 METAR MRLM NIL=
201709210100 METAR MRLM NIL=
201709210200 METAR MRLM NIL=
201709210300 METAR MRLM NIL=
201709210400 METAR MRLM NIL=
201709210500 METAR MRLM NIL=
201709210600 METAR MRLM NIL=
201709210700 METAR MRLM NIL=
201709210800 METAR MRLM NIL=
201709210900 METAR MRLM NIL=
201709211000 METAR MRLM NIL=
201709211100 METAR MRLM NIL=
201709211200 METAR MRLM 211200Z 25004KT 9999 FEW015 BKN090 24/23 A2987=
201709211300 METAR MRLM 211300Z 25003KT 9999 VCSH FEW015 BKN100 26/24 A2988=
201709211400 METAR MRLM 211400Z 23002KT 9999 VCSH FEW015 BKN100 29/24 A2990=
201709211500 METAR MRLM 211500Z 13005KT 9999 FEW020 BKN120 29/23 A2986=
201709211600 METAR MRLM 211600Z 08005KT 9999 FEW020 BKN120 30/24 A2986=
201709211700 METAR MRLM 211700Z 04008KT 9999 FEW025 BKN130 31/25 A2984=
201709211800 METAR MRLM 211800Z 05006KT 9999 FEW025 BKN250 30/25 A2981=
201709211900 METAR MRLM 211900Z 05009KT CAVOK 30/25 A2979=
201709212000 METAR MRLM 212000Z 05008KT 9999 FEW025 BKN250 30/24 A2977=
201709212100 METAR MRLM 212100Z 06005KT 9999 FEW025 BKN250 30/24 A2975=
201709212200 METAR MRLM 212200Z 05004KT CAVOK 29/24 A2975=
201709212300 METAR MRLM 212300Z 03006KT 9999 FEW020 BKN240 29/24 A2976=
201709220000 METAR MRLM NIL=
201709220100 METAR MRLM NIL=
201709220200 METAR MRLM NIL=
201709220300 METAR MRLM NIL=
201709220400 METAR MRLM NIL=
201709220500 METAR MRLM NIL=
201709220600 METAR MRLM NIL=
201709220700 METAR MRLM NIL=
201709220800 METAR MRLM NIL=
201709220900 METAR MRLM NIL=
201709221000 METAR MRLM NIL=
201709221100 METAR MRLM NIL=
201709221200 METAR MRLM 221200Z 26003KT CAVOK 24/23 A2984=
201709221300 METAR MRLM 221300Z 26003KT CAVOK 26/24 A2985=
201709221400 METAR MRLM 221400Z 29003KT CAVOK 29/25 A2986=
201709221500 METAR MRLM 221500Z 29003KT 9999 FEW025 SCT240 30/24 A2982=
201709221600 METAR MRLM 221600Z 04008KT 9999 FEW025 SCT240 30/25 A2982=
201709221700 METAR MRLM 221700Z 04006KT CAVOK 30/25 A2981=
201709221800 METAR MRLM 221800Z 05007KT CAVOK 31/25 A2979=
201709221900 METAR MRLM 221900Z 05008KT CAVOK 31/25 A2976=
201709222000 METAR MRLM 222000Z 07006KT 9999 FEW025 SCT250 30/24 A2973=
201709222100 METAR MRLM 222100Z 05004KT 9999 FEW020 BKN240 30/24 A2972=
201709222200 METAR MRLM 222200Z 14003KT 9999 FEW020 BKN240 30/24 A2973=
201709222300 METAR MRLM 222300Z 20002KT 9999 FEW015 BKN220 28/25 A2974=
201709230000 METAR MRLM NIL=
201709230100 METAR MRLM NIL=
201709230200 METAR MRLM NIL=
201709230300 METAR MRLM NIL=
201709230400 METAR MRLM NIL=
201709230500 METAR MRLM NIL=
201709230600 METAR MRLM NIL=
201709230700 METAR MRLM NIL=
201709230800 METAR MRLM NIL=
201709230900 METAR MRLM NIL=
201709231000 METAR MRLM NIL=
201709231100 METAR MRLM NIL=
201709231200 METAR MRLM 231200Z 24004KT CAVOK 24/23 A2977=
201709231300 METAR MRLM 231300Z 23005KT CAVOK 26/23 A2979=
201709231400 METAR MRLM 231400Z 00000KT CAVOK 29/24 A2980 NOSIG=
201709231500 METAR MRLM 231500Z VRB02KT 9999 SCT045 SCT250 26/19 A2999 NOSIG=
201709231600 METAR MRLM 231600Z 07007KT CAVOK 31/24 A2984=
201709231700 METAR MRLM 231700Z 12008KT 9999 FEW025 BKN240 31/24 A2983=
201709231800 METAR MRLM 231800Z 12009KT 9999 FEW025 BKN240 31/25 A2980=
201709231900 METAR MRLM 231900Z 12010KT 9999 FEW025 BKN250 31/26 A2977=
201709232000 METAR MRLM 232000Z 12009KT CAVOK 30/25 A2973=
201709232100 METAR MRLM 232100Z 12008KT 9999 FEW020 BKN120 30/25 A2972=
201709232200 METAR MRLM 232200Z 12007KT 9999 FEW020 BKN120 30/25 A2974=
201709232300 METAR MRLM 232300Z 12009KT 9999 SCT015 BKN220 29/25 A2976=
201709240000 METAR MRLM NIL=
201709240100 METAR MRLM NIL=
201709240200 METAR MRLM NIL=
201709240300 METAR MRLM NIL=
201709240400 METAR MRLM NIL=
201709240500 METAR MRLM NIL=
201709240600 METAR MRLM NIL=
201709240700 METAR MRLM NIL=
201709240800 METAR MRLM NIL=
201709240900 METAR MRLM NIL=
201709241000 METAR MRLM NIL=
201709241100 METAR MRLM NIL=
201709241200 METAR MRLM 241200Z 27003KT CAVOK 24/23 A2980=
201709241300 METAR MRLM 241300Z 25004KT 9999 FEW010 BKN200 25/24 A2984=
201709241400 METAR MRLM 241400Z 26004KT 9999 VCTS VCSH SCT010 BKN100 26/24 A2984=
201709241500 METAR MRLM 241500Z 28003KT 9999 FEW010 SCT100 BKN200 27/25 A2984 RETSRA=
201709241600 METAR MRLM 241600Z 33003KT 9999 FEW015 SCT110 BKN220 29/25 A2983=
201709241700 METAR MRLM 241700Z 01007KT 9999 FEW015 SCT120 BKN220 29/25 A2982=
201709241800 METAR MRLM 241800Z 01005KT CAVOK 30/25 A2979=
201709241900 METAR MRLM 241900Z 02007KT CAVOK 30/26 A2977=
201709242000 METAR MRLM 242000Z 04006KT CAVOK 29/26 A2974=
201709242100 METAR MRLM 242100Z 03005KT 9999 FEW025 BKN220 30/25 A2974=
201709242200 METAR MRLM 242200Z 36005KT 9999 SCT020 BKN220 30/25 A2976=
201709242300 METAR MRLM 242300Z 33003KT 9999 FEW020 BKN220 29/26 A2978=
201709250000 METAR MRLM NIL=
201709250100 METAR MRLM NIL=
201709250200 METAR MRLM NIL=
201709250300 METAR MRLM NIL=
201709250400 METAR MRLM NIL=
201709250500 METAR MRLM NIL=
201709250600 METAR MRLM NIL=
201709250700 METAR MRLM NIL=
201709250800 METAR MRLM NIL=
201709250900 METAR MRLM NIL=
201709251000 METAR MRLM NIL=
201709251100 METAR MRLM NIL=
201709251200 METAR MRLM 251200Z 00000KT 9999 FEW010 SCT090 BKN220 24/23 A2979=
201709251300 METAR MRLM 251300Z 00000KT 9999 FEW010 SCT090 BKN220 25/24 A2983=
201709251400 METAR MRLM 251400Z 24002KT 9999 VCSH FEW015 BKN220 27/24 A2984=
201709251500 METAR MRLM 251500Z 18002KT 9999 VCSH SCT015 BKN220 28/25 A2985=
201709251600 METAR MRLM 251600Z 12008KT 9999 -DZ FEW015 BKN100 27/25 A2985=
201709251700 METAR MRLM 251700Z 09003KT 9999 FEW020 BKN110 28/24 A2987=
201709251800 METAR MRLM 251800Z 07006KT 9999 FEW020 BKN110 28/25 A2982=
201709251900 METAR MRLM 251900Z 05004KT 9999 FEW020 BKN110 28/25 A2979=
201709252000 METAR MRLM 252000Z 00000KT 9999 FEW020 BKN120 29/24 A2975=
201709252100 METAR MRLM 252100Z 08004KT 9999 FEW020 BKN120 28/25 A2973=
201709252200 METAR MRLM 252200Z 00000KT CAVOK 28/25 A2974=
201709252300 METAR MRLM 252300Z 00000KT CAVOK 28/25 A2975=
201709260000 METAR MRLM NIL=
201709260100 METAR MRLM NIL=
201709260200 METAR MRLM NIL=
201709260300 METAR MRLM NIL=
201709260400 METAR MRLM NIL=
201709260500 METAR MRLM NIL=
201709260600 METAR MRLM NIL=
201709260700 METAR MRLM NIL=
201709260800 METAR MRLM NIL=
201709260900 METAR MRLM NIL=
201709261000 METAR MRLM NIL=
201709261100 METAR MRLM NIL=
201709261200 METAR MRLM 261200Z 24002KT CAVOK 24/23 A2979=
201709261300 METAR MRLM 261300Z 27002KT CAVOK 25/24 A2981=
201709261400 METAR MRLM 261400Z 21002KT CAVOK 28/24 A2983=
201709261500 METAR MRLM 261500Z 20002KT 9999 FEW025 SCT120 BKN220 29/24 A2984=
201709261600 METAR MRLM 261600Z 10003KT 9999 FEW020 BKN120 29/25 A2984=
201709261700 METAR MRLM 261700Z 13004KT 9999 FEW020 BKN120 30/24 A2982=
201709261800 METAR MRLM 261800Z 09004KT 9999 FEW025 BKN140 30/24 A2980=
201709261900 METAR MRLM 261900Z 09006KT 9999 FEW025 OVC140 29/24 A2978=
201709262000 METAR MRLM 262000Z 10007KT 9999 FEW020 OVC130 29/25 A2975=
201709262100 METAR MRLM 262100Z 12004KT CAVOK 29/25 A2974=
201709262200 METAR MRLM 262200Z 09003KT CAVOK 28/25 A2975=
201709262300 METAR MRLM 262300Z 00000KT CAVOK 28/25 A2976=
201709270000 METAR MRLM NIL=
201709270100 METAR MRLM NIL=
201709270200 METAR MRLM NIL=
201709270300 METAR MRLM NIL=
201709270400 METAR MRLM NIL=
201709270500 METAR MRLM NIL=
201709270600 METAR MRLM NIL=
201709270700 METAR MRLM NIL=
201709270800 METAR MRLM NIL=
201709270900 METAR MRLM NIL=
201709271000 METAR MRLM NIL=
201709271100 METAR MRLM NIL=
201709271200 METAR MRLM 271200Z 26004KT CAVOK 23/22 A2978=
201709271300 METAR MRLM 271300Z 26004KT CAVOK 26/24 A2980=
201709271400 METAR MRLM 271400Z 00000KT CAVOK 29/23 A2982=
201709271500 METAR MRLM 271500Z 06005KT 9999 FEW030 BKN250 30/23 A2982=
201709271600 METAR MRLM 271600Z 04010KT 9999 FEW030 BKN250 30/24 A2981=
201709271700 METAR MRLM 271700Z 03009KT 9999 FEW030 SCT140 SCT250 30/24 A2981=
201709271800 METAR MRLM 271800Z 03008KT CAVOK 31/25 A2978=
201709271900 METAR MRLM 271900Z 05009KT CAVOK 30/24 A2976=
201709272000 METAR MRLM 272000Z 06006KT CAVOK 30/25 A2974=
201709272100 METAR MRLM 272100Z 07005KT 9999 FEW025 BKN240 30/25 A2972=
201709272200 METAR MRLM 272200Z 08004KT CAVOK 30/24 A2973=
201709272300 METAR MRLM 272300Z 12003KT CAVOK 29/24 A2974=
201709280000 METAR MRLM 280000Z 00000KT CAVOK 27/25 A2978=
201709280100 METAR MRLM NIL=
201709280200 METAR MRLM NIL=
201709280300 METAR MRLM NIL=
201709280400 METAR MRLM NIL=
201709280500 METAR MRLM NIL=
201709280600 METAR MRLM NIL=
201709280700 METAR MRLM NIL=
201709280800 METAR MRLM NIL=
201709280900 METAR MRLM NIL=
201709281000 METAR MRLM NIL=
201709281100 METAR MRLM NIL=
201709281200 METAR MRLM 281200Z 26003KT CAVOK 24/23 A2980=
201709281300 METAR MRLM 281300Z 27003KT CAVOK 26/24 A2981=
201709281400 METAR MRLM 281400Z 00000KT CAVOK 29/24 A2982=
201709281500 METAR MRLM 281500Z 11002KT CAVOK 30/24 A2982=
201709281600 METAR MRLM 281600Z 06006KT CAVOK 31/25 A2983=
201709281700 METAR MRLM 281700Z 04007KT CAVOK 31/24 A2981=
201709281800 METAR MRLM 281800Z 04007KT 9999 FEW030 BKN240 31/24 A2978=
201709281900 METAR MRLM 281900Z 04007KT 9999 FEW030 BKN240 31/25 A2974=
201709282000 METAR MRLM 282000Z 03005KT CAVOK 31/24 A2971=
201709282100 METAR MRLM 282100Z 06004KT CAVOK 30/24 A2970=
201709282200 METAR MRLM 282200Z 08004KT CAVOK 30/25 A2972=
201709282300 METAR MRLM 282300Z 10003KT CAVOK 30/24 A2974=
201709290000 METAR MRLM 290000Z 14002KT CAVOK 29/25 A2977=
201709290100 METAR MRLM NIL=
201709290200 METAR MRLM NIL=
201709290300 METAR MRLM NIL=
201709290400 METAR MRLM NIL=
201709290500 METAR MRLM NIL=
201709290600 METAR MRLM NIL=
201709290700 METAR MRLM NIL=
201709290800 METAR MRLM NIL=
201709290900 METAR MRLM NIL=
201709291000 METAR MRLM NIL=
201709291100 METAR MRLM NIL=
201709291200 METAR MRLM 291200Z 25004KT CAVOK 24/23 A2980=
201709291300 METAR MRLM 291300Z 25004KT CAVOK 26/24 A2983=
201709291400 METAR MRLM 291400Z 23003KT CAVOK 28/24 A2985=
201709291500 METAR MRLM 291500Z 12003KT 9999 FEW025TCU BKN220 30/24 A2984=
201709291600 METAR MRLM 291600Z 08003KT 9999 FEW025TCU BKN220 30/24 A2984=
201709291700 METAR MRLM 291700Z 04007KT 9999 FEW025 BKN240 31/25 A2982=
201709291800 METAR MRLM 291800Z 05007KT 9999 FEW025 BKN240 31/25 A2978=
201709291900 METAR MRLM 291900Z 05008KT 9999 FEW025 BKN250 31/25 A2975=
201709292000 METAR MRLM 292000Z 05006KT CAVOK 30/26 A2973=
201709292100 METAR MRLM 292100Z 06004KT CAVOK 30/25 A2972=
201709292200 METAR MRLM 292200Z 07004KT CAVOK 30/25 A2972=
201709292300 METAR MRLM 292300Z 11004KT CAVOK 29/25 A2973=
201709300000 METAR MRLM 300000Z 13003KT 9999 FEW015 BKN220 28/25 A2976=
201709300100 METAR MRLM NIL=
201709300200 METAR MRLM NIL=
201709300300 METAR MRLM NIL=
201709300400 METAR MRLM NIL=
201709300500 METAR MRLM NIL=
201709300600 METAR MRLM NIL=
201709300700 METAR MRLM NIL=
201709300800 METAR MRLM NIL=
201709300900 METAR MRLM NIL=
201709301000 METAR MRLM NIL=
201709301100 METAR MRLM NIL=
201709301200 METAR MRLM 301200Z 25004KT CAVOK 24/23 A2982=
201709301300 METAR MRLM 301300Z 25003KT CAVOK 26/24 A2984=
201709301400 METAR MRLM 301400Z 24003KT CAVOK 29/24 A2986=
201709301500 METAR MRLM 301500Z 07004KT 9999 FEW030 BKN240 30/24 A2987=
201709301600 METAR MRLM 301600Z 05006KT 9999 FEW030 BKN240 31/24 A2985=
201709301700 METAR MRLM 301700Z 04008KT CAVOK 31/24 A2981=
201709301800 METAR MRLM 301800Z 04007KT CAVOK 31/24 A2978=
201709301900 METAR MRLM 301900Z 03006KT 9999 FEW025 BKN250 30/24 A2976=
201709302000 METAR MRLM 302000Z 04005KT 9999 FEW025 BKN250 30/25 A2973=
201709302100 METAR MRLM 302100Z 03004KT 9999 FEW025 BKN250 30/24 A2971=
201709302200 METAR MRLM 302200Z 06003KT CAVOK 29/25 A2973=
201709302300 METAR MRLM 302300Z 10004KT CAVOK 29/25 A2974=
201710010000 METAR MRLM 010000Z 12005KT 9999 FEW015 BKN220 29/25 A2976=
201710010100 METAR MRLM NIL=
201710010200 METAR MRLM NIL=
201710010300 METAR MRLM NIL=
201710010400 METAR MRLM NIL=
201710010500 METAR MRLM NIL=
201710010600 METAR MRLM NIL=
201710010700 METAR MRLM NIL=
201710010800 METAR MRLM NIL=
201710010900 METAR MRLM NIL=
201710011000 METAR MRLM NIL=
201710011100 METAR MRLM NIL=
201710011200 METAR MRLM 011200Z 27004KT CAVOK 24/23 A2975=
201710011300 METAR MRLM 011300Z 27004KT CAVOK 25/23 A2977=
201710011400 METAR MRLM 011400Z 00000KT CAVOK 27/24 A2978=
201710011500 METAR MRLM 011500Z 00000KT CAVOK 29/25 A2980=
201710011600 METAR MRLM 011600Z 08003KT CAVOK 31/23 A2979=
201710011700 METAR MRLM 011700Z 04008KT 9999 FEW030 BKN230 31/24 A2977=
201710011800 METAR MRLM 011800Z 03008KT CAVOK 31/24 A2974=
201710011900 METAR MRLM 011900Z 03010KT CAVOK 31/25 A2971=
201710012000 METAR MRLM 012000Z 03009KT CAVOK 31/25 A2969=
201710012100 METAR MRLM 012100Z 04007KT CAVOK 30/25 A2967=
201710012200 METAR MRLM 012200Z 06006KT 9999 SCT025 SCT120 30/25 A2967=
201710012300 METAR MRLM 012300Z 10005KT 9999 -DZ BKN020 29/25 A2969=
201710020000 METAR MRLM 020000Z 23003KT 9999 -DZ BKN015 27/26 A2972=
201710020100 METAR MRLM NIL=
201710020200 METAR MRLM NIL=
201710020300 METAR MRLM NIL=
201710020400 METAR MRLM NIL=
201710020500 METAR MRLM NIL=
201710020600 METAR MRLM NIL=
201710020700 METAR MRLM NIL=
201710020800 METAR MRLM NIL=
201710020900 METAR MRLM NIL=
201710021000 METAR MRLM NIL=
201710021100 METAR MRLM NIL=
201710021200 METAR MRLM 021200Z 25003KT CAVOK 23/23 A2978=
201710021300 METAR MRLM 021300Z 00000KT CAVOK 24/24 A2980=
201710021400 METAR MRLM 021400Z 25002KT CAVOK 25/24 A2983=
201710021500 METAR MRLM 021500Z 28003KT CAVOK 27/24 A2981=
201710021600 METAR MRLM 021600Z 08003KT 9999 FEW020 OVC100 28/24 A2982=
201710021700 METAR MRLM 021700Z 06005KT 9999 FEW020 OVC100 29/24 A2982=
201710021800 METAR MRLM 021800Z 06005KT 9999 FEW020 OVC110 29/24 A2978=
201710021900 METAR MRLM 021900Z 06004KT 9999 FEW020 BKN110 29/24 A2975=
201710022000 METAR MRLM 022000Z 07004KT CAVOK 29/24 A2974=
201710022100 METAR MRLM 022100Z 09004KT CAVOK 29/24 A2972=
201710022200 METAR MRLM 022200Z 15003KT 9999 FEW020 SCT120 BKN220 29/24 A2973=
201710022300 METAR MRLM 022300Z 22003KT 9999 SCT015 BKN120 27/24 A2975=
201710030000 METAR MRLM 030000Z 24004KT 9999 -DZ FEW015 BKN100 26/24 A2978=
201710030100 METAR MRLM NIL=
201710030200 METAR MRLM NIL=
201710030300 METAR MRLM NIL=
201710030400 METAR MRLM NIL=
201710030500 METAR MRLM NIL=
201710030600 METAR MRLM NIL=
201710030700 METAR MRLM NIL=
201710030800 METAR MRLM NIL=
201710030900 METAR MRLM NIL=
201710031000 METAR MRLM NIL=
201710031100 METAR MRLM NIL=
201710031200 METAR MRLM 031200Z 26003KT CAVOK 23/23 A2974=
201710031300 METAR MRLM 031300Z 28002KT CAVOK 24/23 A2977=
201710031400 METAR MRLM 031400Z 18003KT 9999 FEW015 OVC100 25/24 A2980=
201710031500 METAR MRLM 031500Z 22002KT 9999 -DZ FEW015 OVC100 26/24 A2984=
201710031600 METAR MRLM 031600Z 22002KT 9999 -DZ FEW015 OVC100 26/24 A2985=
201710031700 METAR MRLM 031700Z 21002KT 9999 FEW015 OVC110 27/24 A2985=
201710031800 METAR MRLM 031800Z 23003KT 9999 FEW020 OVC110 28/24 A2981=
201710031900 METAR MRLM 031900Z 22003KT 9999 FEW020 OVC110 29/24 A2978=
201710032000 METAR MRLM 032000Z 16002KT 9999 FEW020 OVC120 29/24 A2974=
201710032100 METAR MRLM 032100Z 13004KT 9999 FEW020 OVC120 28/24 A2972=
201710032200 METAR MRLM 032200Z 10003KT 9999 FEW020 OVC120 28/23 A2972=
201710032300 METAR MRLM 032300Z 13005KT 9999 SCT020 OVC120 28/24 A2976=
201710040000 METAR MRLM 040000Z 18002KT 9999 SCT015 OVC110 27/24 A2977=
201710040100 METAR MRLM NIL=
201710040200 METAR MRLM NIL=
201710040300 METAR MRLM NIL=
201710040400 METAR MRLM NIL=
201710040500 METAR MRLM NIL=
201710040600 METAR MRLM NIL=
201710040700 METAR MRLM NIL=
201710040800 METAR MRLM NIL=
201710040900 METAR MRLM NIL=
201710041000 METAR MRLM NIL=
201710041100 METAR MRLM NIL=
201710041200 METAR MRLM 041200Z 27004KT 9999 FEW015 SCT090 BKN200 23/23 A2976=
201710041300 METAR MRLM 041300Z 25004KT 9999 FEW015 SCT090 BKN200 24/23 A2977=
201710041400 METAR MRLM 041400Z 25002KT 9999 FEW015 SCT090 BKN200 25/24 A2979=
201710041500 METAR MRLM 041500Z 29003KT 9999 FEW015 BKN100 27/24 A2979=
201710041600 METAR MRLM 041600Z 33008KT 9999 FEW020 BKN220 29/24 A2979=
201710041700 METAR MRLM 041700Z 28006KT CAVOK 30/24 A2975=
201710041800 METAR MRLM 041800Z 32005KT 9999 FEW025 SCT130 BKN240 31/24 A2973=
201710041900 METAR MRLM 041900Z 35010KT 9999 FEW025 BKN240 31/24 A2969=
201710042000 METAR MRLM 042000Z 05006KT 9999 SCT025 BKN240 30/25 A2967=
201710042100 METAR MRLM 042100Z 18006KT 9999 VCTS VCSH SCT015 BKN120 26/23 A2966=
201710042200 METAR MRLM 042200Z 22005KT 9999 +DZ VCTS SCT015 BKN110 24/23 A2968=
201710042300 METAR MRLM 042300Z 23005KT 9999 DZ VCTS SCT010 BKN110 25/23 A2969=
201710050000 METAR MRLM 050000Z 22004KT 8000 RA VCTS SCT010 OVC090 24/24 A2974=
201710050100 METAR MRLM NIL=
201710050200 METAR MRLM NIL=
201710050300 METAR MRLM NIL=
201710050400 METAR MRLM NIL=
201710050500 METAR MRLM NIL=
201710050600 METAR MRLM NIL=
201710050700 METAR MRLM NIL=
201710050800 METAR MRLM NIL=
201710050900 METAR MRLM NIL=
201710051000 METAR MRLM NIL=
201710051100 METAR MRLM NIL=
201710051200 METAR MRLM 051200Z 22004KT CAVOK 23/23 A2970=
201710051300 METAR MRLM 051300Z 25004KT CAVOK 24/23 A2973=
201710051400 METAR MRLM 051400Z 23004KT CAVOK 26/24 A2974=
201710051500 METAR MRLM 051500Z 13003KT CAVOK 28/24 A2976=
201710051600 METAR MRLM 051600Z 13005KT 9999 FEW025 BKN130 29/24 A2976=
201710051700 METAR MRLM 051700Z 11004KT 9999 -DZ FEW025 SCT130 SCT200 29/23 A2975=
201710051800 METAR MRLM 051800Z 11004KT CAVOK 28/24 A2971=
201710051900 METAR MRLM 051900Z 11004KT CAVOK 28/24 A2969=
201710052000 METAR MRLM 052000Z 11004KT 9999 FEW020 BKN110 28/24 A2968=
201710052100 METAR MRLM 052100Z 11002KT 9999 -DZ FEW020 BKN110 28/25 A2968=
201710052200 METAR MRLM 052200Z 00000KT 9999 FEW015 BKN110 28/25 A2969=
201710052300 METAR MRLM 052300Z 24002KT 9999 -DZ FEW015 BKN100 27/26 A2971=
201710060000 METAR MRLM 060000Z 19003KT 9999 FEW010 BKN110 26/25 A2973=
201710060100 METAR MRLM NIL=
201710060200 METAR MRLM NIL=
201710060300 METAR MRLM NIL=
201710060400 METAR MRLM NIL=
201710060500 METAR MRLM NIL=
201710060600 METAR MRLM NIL=
201710060700 METAR MRLM NIL=
201710060800 METAR MRLM NIL=
201710060900 METAR MRLM NIL=
201710061000 METAR MRLM NIL=
201710061100 METAR MRLM NIL=
201710061200 METAR MRLM 061200Z 24004KT 9999 FEW015 BKN120 23/22 A2979=
201710061300 METAR MRLM 061300Z 24004KT CAVOK 25/23 A2981=
201710061400 METAR MRLM 061400Z 23002KT CAVOK 28/24 A2983=
201710061500 METAR MRLM 061500Z 16003KT 9999 FEW030 BKN130 29/24 A2985=
201710061600 METAR MRLM 061600Z 15005KT CAVOK 30/24 A2986=
201710061700 METAR MRLM 061700Z 14006KT CAVOK 31/24 A2984=
201710061800 METAR MRLM 061800Z 13006KT 9999 FEW030 BKN140 31/24 A2983=
201710061900 METAR MRLM 061900Z 10006KT 9999 FEW030 SCT140 31/24 A2983=
201710062000 METAR MRLM 062000Z 09005KT 9999 FEW030 BKN130 30/25 A2979=
201710062100 METAR MRLM 062100Z 08004KT 9999 FEW020 BKN130 30/25 A2978=
201710062200 METAR MRLM 062200Z 05004KT 9999 FEW020 BKN140 30/25 A2978=
201710062300 METAR MRLM 062300Z 00000KT 9999 FEW020 BKN140 30/25 A2979=
201710070000 METAR MRLM 070000Z 26003KT 9999 FEW015 BKN130 27/26 A2982=
201710070100 METAR MRLM NIL=
201710070200 METAR MRLM NIL=
201710070300 METAR MRLM NIL=
201710070400 METAR MRLM NIL=
201710070500 METAR MRLM NIL=
201710070600 METAR MRLM NIL=
201710070700 METAR MRLM NIL=
201710070800 METAR MRLM NIL=
201710070900 METAR MRLM NIL=
201710071000 METAR MRLM NIL=
201710071100 METAR MRLM NIL=
201710071200 METAR MRLM 071200Z 26005KT 9999 FEW015 BKN100 23/22 A2986=
201710071300 METAR MRLM 071300Z 23005KT CAVOK 25/22 A2987=
201710071400 METAR MRLM 071400Z 24003KT CAVOK 27/24 A2989=
201710071500 METAR MRLM 071500Z 21002KT 9999 FEW020 BKN120 29/24 A2991=
201710071600 METAR MRLM 071600Z 07002KT 9999 FEW020 BKN120 30/24 A2991=
201710071700 METAR MRLM 071700Z 04006KT 9999 FEW025 SCT240 30/25 A2988=
201710071800 METAR MRLM 071800Z 04008KT 9999 FEW025 31/26 A2986=
201710071900 METAR MRLM 071900Z 06007KT 9999 FEW025 30/26 A2983=
201710072000 METAR MRLM 072000Z 04007KT 9999 FEW025 SCT250 30/26 A2980=
201710072100 METAR MRLM 072100Z 04007KT 9999 FEW025 SCT250 30/26 A2980=
201710072200 METAR MRLM 072200Z 03005KT 9999 FEW025 SCT250 30/26 A2980=
201710072300 METAR MRLM 072300Z 02004KT 9999 FEW020 30/26 A2981=
201710080000 METAR MRLM 080000Z 31002KT 9999 FEW015 28/26 A2983=
201710080100 METAR MRLM NIL=
201710080200 METAR MRLM NIL=
201710080300 METAR MRLM NIL=
201710080400 METAR MRLM NIL=
201710080500 METAR MRLM NIL=
201710080600 METAR MRLM NIL=
201710080700 METAR MRLM NIL=
201710080800 METAR MRLM NIL=
201710080900 METAR MRLM NIL=
201710081000 METAR MRLM NIL=
201710081100 METAR MRLM NIL=
201710081200 METAR MRLM 081200Z 27003KT 9999 SCT015 25/24 A2987=
201710081300 METAR MRLM 081300Z 24004KT 9999 FEW015 SCT100 26/25 A2989=
201710081400 METAR MRLM 081400Z 22003KT 9999 FEW020 30/25 A2990=
201710081500 METAR MRLM 081500Z 13006KT 9999 FEW025 30/24 A2991=
201710081600 METAR MRLM 081600Z 12006KT 9999 FEW025 31/25 A2989=
201710081700 METAR MRLM 081700Z 11007KT 9999 FEW030 SCT250 31/25 A2987=
201710081800 METAR MRLM 081800Z 11008KT 9999 FEW030 SCT250 31/26 A2984=
201710081900 METAR MRLM 081900Z 12009KT 9999 FEW030 SCT250 31/26 A2981=
201710082000 METAR MRLM 082000Z 11009KT CAVOK 31/25 A2978=
201710082100 METAR MRLM 082100Z 11008KT CAVOK 31/25 A2975=
201710082200 METAR MRLM 082200Z 12007KT CAVOK 30/25 A2976=
201710082300 METAR MRLM 082300Z 12005KT CAVOK 30/24 A2976=
201710090000 METAR MRLM 090000Z 13005KT CAVOK 30/24 A2977=
201710090100 METAR MRLM NIL=
201710090200 METAR MRLM NIL=
201710090300 METAR MRLM NIL=
201710090400 METAR MRLM NIL=
201710090500 METAR MRLM NIL=
201710090600 METAR MRLM NIL=
201710090700 METAR MRLM NIL=
201710090800 METAR MRLM NIL=
201710090900 METAR MRLM NIL=
201710091000 METAR MRLM NIL=
201710091100 METAR MRLM NIL=
201710091200 METAR MRLM 091200Z 26005KT CAVOK 24/23 A2981=
201710091300 METAR MRLM 091300Z 26005KT CAVOK 26/24 A2983=
201710091400 METAR MRLM 091400Z 29004KT CAVOK 29/25 A2986=
201710091500 METAR MRLM 091500Z 30003KT 9999 FEW030 SCT130 31/24 A2985=
201710091600 METAR MRLM 091600Z 11002KT 9999 FEW030 BKN130 31/24 A2984=
201710091700 METAR MRLM 091700Z 02013KT 9999 FEW030 BKN130 30/24 A2984=
201710091800 METAR MRLM 091800Z 02009KT 9999 FEW030 BKN120 30/24 A2982=
201710091900 METAR MRLM 091900Z 07012KT 9999 VCSH SCT020 SCT120 28/25 A2979=
201710092000 METAR MRLM 092000Z 10007KT 9999 FEW020 SCT120 SCT230 27/21 A2976=
201710092100 METAR MRLM 092100Z 13003KT 9999 FEW020 SCT130 BKN220 28/22 A2976=
201710092200 METAR MRLM 092200Z 00000KT 9999 FEW020 SCT130 BKN220 28/24 A2975=
201710092300 METAR MRLM 092300Z 18003KT CAVOK 27/24 A2975=
201710100000 METAR MRLM 100000Z 16003KT CAVOK 26/23 A2976=
201710100100 METAR MRLM NIL=
201710100200 METAR MRLM NIL=
201710100300 METAR MRLM NIL=
201710100400 METAR MRLM NIL=
201710100500 METAR MRLM NIL=
201710100600 METAR MRLM NIL=
201710100700 METAR MRLM NIL=
201710100800 METAR MRLM NIL=
201710100900 METAR MRLM NIL=
201710101000 METAR MRLM NIL=
201710101100 METAR MRLM NIL=
201710101200 METAR MRLM 101200Z 25004KT CAVOK 22/21 A2980=
201710101300 METAR MRLM 101300Z 24004KT CAVOK 25/23 A2081=
201710101400 METAR MRLM 101400Z 21002KT CAVOK 28/23 A2984 NOSIG=
201710101500 METAR MRLM 101500Z 08011KT 9999 FEW020 SCT130 29/24 A2986=
201710101600 METAR MRLM 101600Z 04009KT 9999 FEW030 SCT250 29/24 A2985=
201710101700 METAR MRLM NIL=
201710101800 METAR MRLM NIL=
201710101900 METAR MRLM 101900Z 06005KT CAVOK 29/23 A2978=
201710102000 METAR MRLM 102000Z 07006KT 9999 FEW040 BKN250 29/24 A2975=
201710102100 METAR MRLM 102100Z 10004KT CAVOK 29/24 A2974=
201710102200 METAR MRLM 102200Z 18002KT 9999 FEW020 SCT030 BKN230 28/24 A2973=
201710102300 METAR MRLM 102300Z 18002KT 9999 FEW020 SCT130 BKN230 28/24 A2973=
201710110000 METAR MRLM 110000Z 00000KT 9999 FEW020 SCT130 BKN230 27/24 A2977=
201710110100 METAR MRLM NIL=
201710110200 METAR MRLM NIL=
201710110300 METAR MRLM NIL=
201710110400 METAR MRLM NIL=
201710110500 METAR MRLM NIL=
201710110600 METAR MRLM NIL=
201710110700 METAR MRLM NIL=
201710110800 METAR MRLM NIL=
201710110900 METAR MRLM NIL=
201710111000 METAR MRLM NIL=
201710111100 METAR MRLM NIL=
201710111200 METAR MRLM 111200Z 26004KT 9999 FEW015 SCT250 23/22 A2979=
201710111300 METAR MRLM 111300Z 24004KT 9999 FEW015 SCT250 26/23 A2981=
201710111400 METAR MRLM 111400Z 24003KT 9999 FEW020 SCT250 29/24 A2983=
201710111500 METAR MRLM 111500Z 12003KT 9999 FEW020TCU BKN130 30/23 A2984=
201710111600 METAR MRLM 111600Z 08004KT 9999 FEW025 BKN130 30/24 A2983=
201710111700 METAR MRLM 111700Z 09005KT 9999 FEW025 SCT140 BKN250 30/24 A2980=
201710111800 METAR MRLM 111800Z 08007KT 9999 FEW025 BKN250 30/25 A2978=
201710111900 METAR MRLM 111900Z 09007KT 9999 FEW030 BKN250 30/24 A2975=
201710112000 METAR MRLM 112000Z 07006KT 9999 FEW030 BKN250 30/25 A2974=
201710112100 METAR MRLM 112100Z 07005KT 9999 FEW030 BKN250 30/24 A2973=
201710112200 METAR MRLM 112200Z 09004KT 9999 FEW030 BKN250 30/24 A2973=
201710112300 METAR MRLM 112300Z 11002KT CAVOK 29/24 A2974 NOSIG=
201710120000 METAR MRLM 120000Z 00000KT 9999 FEW020 OVC220 27/25 A2975=
201710120100 METAR MRLM NIL=
201710120200 METAR MRLM NIL=
201710120300 METAR MRLM NIL=
201710120400 METAR MRLM NIL=
201710120500 METAR MRLM NIL=
201710120600 METAR MRLM NIL=
201710120700 METAR MRLM NIL=
201710120800 METAR MRLM NIL=
201710120900 METAR MRLM NIL=
201710121000 METAR MRLM NIL=
201710121100 METAR MRLM NIL=
201710121200 METAR MRLM 121200Z 24005KT CAVOK 23/22 A2980=
201710121300 METAR MRLM 121300Z 25005KT CAVOK 26/23 A2981=
201710121400 METAR MRLM 121400Z 25004KT CAVOK 29/24 A2982=
201710121500 METAR MRLM 121500Z 08004KT 9999 FEW030 SCT240 30/23 A2981=
201710121600 METAR MRLM 121600Z 05006KT 9999 FEW030 SCT240 30/24 A2981=
201710121700 METAR MRLM 121700Z COR 05006KT CAVOK 30/24 A2981=
201710121800 METAR MRLM 121800Z 04006KT CAVOK 30/24 A2979=
201710121900 METAR MRLM 121900Z 05007KT 9999 FEW030 SCT250 30/25 A2977=
201710122000 METAR MRLM 122000Z 06006KT 9999 SCT030 30/25 A2975=
201710122100 METAR MRLM 122100Z 05004KT 9999 SCT025 SCT250 30/25 A2974=
201710122200 METAR MRLM 122200Z 05003KT 9999 FEW025 BKN250 29/25 A2974=
201710122300 METAR MRLM 122300Z 04005KT 9999 FEW020 BKN240 29/25 A2975=
201710130000 METAR MRLM 130000Z 03002KT 9999 FEW015 BKN220 28/25 A2975=
201710130100 METAR MRLM NIL=
201710130200 METAR MRLM NIL=
201710130300 METAR MRLM NIL=
201710130400 METAR MRLM NIL=
201710130500 METAR MRLM NIL=
201710130600 METAR MRLM NIL=
201710130700 METAR MRLM NIL=
201710130800 METAR MRLM NIL=
201710130900 METAR MRLM NIL=
201710131000 METAR MRLM NIL=
201710131100 METAR MRLM NIL=
201710131200 METAR MRLM NIL=
201710131300 METAR MRLM 131300Z 25003KT CAVOK 29/24 A2985 NOSIG=
201710131400 METAR MRLM 131400Z 25003KT CAVOK 29/24 A2985 NOSIG=
201710131500 METAR MRLM 131500Z 08002KT 9999 FEW030 BKN250 30/25 A2985=
201710131600 METAR MRLM 131600Z 06006KT 9999 FEW030 BKN250 30/25 A2985=
201710131700 METAR MRLM 131700Z 07006KT 9999 FEW025 BKN240 30/25 A2983=
201710131800 METAR MRLM 131800Z 07006KT CAVOK 30/25 A2980 NOSIG=
201710131900 METAR MRLM 131900Z 05006KT CAVOK 30/25 A2977 NOSIG=
201710132000 METAR MRLM 132000Z 06006KT 9999 FEW025 BKN230 30/25 A2976=
201710132100 METAR MRLM 132100Z 05004KT 9999 FEW025 BKN230 30/25 A2976=
201710132200 METAR MRLM 132200Z 03005KT 9999 BKN020 30/25 A2976=
201710132300 METAR MRLM 132300Z 05004KT 9999 FEW020 SCT130 BKN230 29/24 A2977=
201710140000 METAR MRLM 140000Z 00000KT 9999 SCT020 SCT130 28/25 A2980=
201710140100 METAR MRLM NIL=
201710140200 METAR MRLM NIL=
201710140300 METAR MRLM NIL=
201710140400 METAR MRLM NIL=
201710140500 METAR MRLM NIL=
201710140600 METAR MRLM NIL=
201710140700 METAR MRLM NIL=
201710140800 METAR MRLM NIL=
201710140900 METAR MRLM NIL=
201710141000 METAR MRLM NIL=
201710141100 METAR MRLM NIL=
201710141200 METAR MRLM 141200Z 24004KT CAVOK 24/23 A2981=
201710141300 METAR MRLM 141300Z 22004KT CAVOK 25/24 A2985=
201710141400 METAR MRLM 141400Z 26004KT CAVOK 27/24 A2985=
201710141500 METAR MRLM 141500Z 00000KT CAVOK 29/24 A2987=
201710141600 METAR MRLM 141600Z 09003KT 9999 FEW030 BKN130 30/24 A2987=
201710141700 METAR MRLM 141700Z 09003KT 9999 FEW030 BKN120 30/24 A2986=
201710141800 METAR MRLM 141800Z 07004KT 9999 FEW030 OVC230 30/24 A2983=
201710141900 METAR MRLM 141900Z 08003KT CAVOK 30/25 A2980=
201710142000 METAR MRLM 142000Z 07003KT CAVOK 30/25 A2977=
201710142100 METAR MRLM 142100Z 05005KT CAVOK 30/25 A2975=
201710142200 METAR MRLM 142200Z 07005KT 9999 FEW020 SCT140 BKN220 30/26 A2976=
201710142300 METAR MRLM 142300Z 06004KT 9999 BKN020 29/26 A2978=
201710150000 METAR MRLM 150000Z 00000KT 9999 FEW020 BKN130 29/25 A2981=
201710150100 METAR MRLM NIL=
201710150200 METAR MRLM NIL=
201710150300 METAR MRLM NIL=
201710150400 METAR MRLM NIL=
201710150500 METAR MRLM NIL=
201710150600 METAR MRLM NIL=
201710150700 METAR MRLM NIL=
201710150800 METAR MRLM NIL=
201710150900 METAR MRLM NIL=
201710151000 METAR MRLM NIL=
201710151100 METAR MRLM NIL=
201710151200 METAR MRLM 151200Z 26002KT 9999 FEW015 SCT100 BKN200 24/23 A2982=
201710151300 METAR MRLM 151300Z 25003KT 9999 FEW015 BKN220 26/24 A2984=
201710151400 METAR MRLM 151400Z COR 25003KT CAVOK 30/24 A2986=
201710151500 METAR MRLM 151500Z 12002KT CAVOK 31/25 A2986 NOSIG=
201710151600 METAR MRLM 151600Z 06004KT 9999 FEW025 OVC240 30/24 A2985=
201710151700 METAR MRLM 151700Z 04008KT 9999 FEW020 SCT120 BKN240 29/26 A2985=
201710151800 METAR MRLM 151800Z 07004KT 9999 FEW020 BKN120 30/26 A2981=
201710151900 METAR MRLM 151900Z 07004KT 9999 FEW020 SCT120 BKN240 30/25 A2978=
201710152000 METAR MRLM 152000Z 07005KT 9999 FEW020 SCT120 BKN240 30/25 A2976=
201710152100 METAR MRLM 152100Z 03004KT 9999 FEW020 BKN240 30/25 A2974=
201710152200 METAR MRLM 152200Z 06003KT 9999 FEW020 BKN240 30/26 A2974=
201710152300 METAR MRLM 152300Z COR 04003KT CAVOK 30/25 A2976=
201710160000 METAR MRLM 160000Z 27002KT CAVOK 27/26 A2977 NOSIG=
201710160100 METAR MRLM NIL=
201710160200 METAR MRLM NIL=
201710160300 METAR MRLM NIL=
201710160400 METAR MRLM NIL=
201710160500 METAR MRLM NIL=
201710160600 METAR MRLM NIL=
201710160700 METAR MRLM NIL=
201710160800 METAR MRLM NIL=
201710160900 METAR MRLM NIL=
201710161000 METAR MRLM NIL=
201710161100 METAR MRLM NIL=
201710161200 METAR MRLM 161200Z COR 25005KT CAVOK 24/22 A2981=
201710161300 METAR MRLM 161300Z 26003KT CAVOK 27/24 A2984 NOSIG=
201710161400 METAR MRLM 161400Z 26003KT 9999 FEW020 30/25 A2985=
201710161500 METAR MRLM 161500Z 07003KT 9999 FEW025 SCT250 31/25 A2986=
201710161600 METAR MRLM 161600Z 07006KT 9999 FEW025 SCT250 31/25 A2986=
201710161700 METAR MRLM 161700Z 07006KT 9999 FEW025 31/25 A2983=
201710161800 METAR MRLM 161800Z 07007KT 9999 FEW025 31/25 A2978=
201710161900 METAR MRLM 161900Z 06007KT 9999 FEW030 31/26 A2975=
201710162000 METAR MRLM 162000Z 07008KT 9999 FEW030 31/26 A2973=
201710162100 METAR MRLM 162100Z 08006KT 9999 FEW030 SCT250 30/26 A2973=
201710162200 METAR MRLM 162200Z 09006KT 9999 FEW030 SCT250 30/25 A2974=
201710162300 METAR MRLM 162300Z 08004KT 9999 SCT025 SCT250 30/25 A2976=
201710170000 METAR MRLM 170000Z 00000KT 9999 SCT020 SCT230 29/25 A2977=
201710170100 METAR MRLM NIL=
201710170200 METAR MRLM NIL=
201710170300 METAR MRLM NIL=
201710170400 METAR MRLM NIL=
201710170500 METAR MRLM NIL=
201710170600 METAR MRLM NIL=
201710170700 METAR MRLM NIL=
201710170800 METAR MRLM NIL=
201710170900 METAR MRLM NIL=
201710171000 METAR MRLM NIL=
201710171100 METAR MRLM NIL=
201710171200 METAR MRLM 171200Z 26005KT CAVOK 23/22 A2981=
201710171300 METAR MRLM 171300Z 26005KT CAVOK 24/23 A2982=
201710171400 METAR MRLM 171400Z 26004KT CAVOK 25/23 A2985=
201710171500 METAR MRLM 171500Z 25004KT 9999 VCTS FEW015 BKN120 26/24 A2987=
201710171600 METAR MRLM 171600Z 22003KT 9999 FEW015 BKN120 27/24 A2987=
201710171700 METAR MRLM 171700Z 20002KT 9999 VCSH SCT015 BKN110 27/25 A2985=
201710171800 METAR MRLM 171800Z 28004KT 9999 -DZ FEW010 BKN130 26/25 A2982=
201710171900 METAR MRLM 171900Z 34007KT CAVOK 26/25 A2977=
201710172000 METAR MRLM 172000Z 32005KT 9999 DZ FEW010 BKN120 26/24 A2974=
201710172100 METAR MRLM 172100Z 02016KT 9999 FEW010 BKN130 27/24 A2975 REDZ=
201710172200 METAR MRLM 172200Z 29004KT CAVOK 27/24 A2974 NOSIG=
201710172300 METAR MRLM 172300Z 2002KT CAVOK 26/24 A2977 NOSIG=
201710180000 METAR MRLM 180000Z 00000KT CAVOK 25/24 A2979 NOSIG=
201710180100 METAR MRLM NIL=
201710180200 METAR MRLM NIL=
201710180300 METAR MRLM NIL=
201710180400 METAR MRLM NIL=
201710180500 METAR MRLM NIL=
201710180600 METAR MRLM NIL=
201710180700 METAR MRLM NIL=
201710180800 METAR MRLM NIL=
201710180900 METAR MRLM NIL=
201710181000 METAR MRLM NIL=
201710181100 METAR MRLM NIL=
201710181200 METAR MRLM 181200Z 0000KT CAVOK 23/22 A2980 NOSIG=
201710181300 METAR MRLM 181300Z 35002KT 9999 VCSH FEW015 BKN120 25/22 A2985=
201710181400 METAR MRLM 181400Z 27003KT 9999 VCSH SCT015 BKN120 27/24 A2988=
201710181500 METAR MRLM 181500Z 28010KT 9999 FEW015 SCT130 BKN220 26/23 A2988=
201710181600 METAR MRLM 181600Z 30006KT 9999 FEW015 BKN130 27/23 A2987=
201710181700 METAR MRLM 181700Z 32005KT 9999 FEW020 BKN140 28/23 A2983=
201710181800 METAR MRLM 181800Z 32002KT CAVOK 29/24 A2980 NOSIG=
201710181900 METAR MRLM 181900Z 03005KT CAVOK 29/24 A2978 NOSIG=
201710182000 METAR MRLM 182000Z 29003KT CAVOK 30/24 A2975=
201710182100 METAR MRLM 182100Z 04004KT CAVOK 29/24 A2975=
201710182200 METAR MRLM 182200Z 03004KT CAVOK 28/24 A2976=
201710182300 METAR MRLM 182300Z 00000KT CAVOK 28/25 A2977=
201710190000 METAR MRLM 190000Z 00000KT CAVOK 26/25 A2981=
201710190100 METAR MRLM NIL=
201710190200 METAR MRLM NIL=
201710190300 METAR MRLM NIL=
201710190400 METAR MRLM NIL=
201710190500 METAR MRLM NIL=
201710190600 METAR MRLM NIL=
201710190700 METAR MRLM NIL=
201710190800 METAR MRLM NIL=
201710190900 METAR MRLM NIL=
201710191000 METAR MRLM NIL=
201710191100 METAR MRLM NIL=
201710191200 METAR MRLM 191200Z 02012KT 7000 +RA VCTS SCT010 OVC080 25/23 A2985=
201710191300 METAR MRLM 191300Z 25006KT 8000 +DZ VCTS SCT010 OVC080 23/22 A2986 RERA=
201710191400 METAR MRLM 191400Z 29002KT 9000 DZ SCT010 OVC080 23/23 A2986=
201710191500 METAR MRLM 191500Z 25003KT 9000 DZ SCT010 OVC080 24/23 A2987=
201710191600 METAR MRLM 191600Z 24004KT 9999 -DZ FEW010 OVC090 25/24 A2987=
201710191700 METAR MRLM 191700Z 30003KT 9999 FEW015 OVC090 26/24 A2984=
201710191800 METAR MRLM 191800Z 29003KT 9999 FEW020 BKN120 29/24 A2980=
201710191900 METAR MRLM 191900Z 05004KT 9999 FEW020 SCT120 BKN220 30/25 A2977=
201710192000 METAR MRLM 192000Z 02012KT 9999 FEW020 SCT120 BKN220 29/24 A2975=
201710192100 METAR MRLM 192100Z 36007KT CAVOK 29/24 A2974=
201710192200 METAR MRLM 192200Z 33004KT CAVOK 28/24 A2975=
201710192300 METAR MRLM 192300Z 33002KT CAVOK 27/25 A2976=
201710200000 METAR MRLM 200000Z 31003KT CAVOK 27/25 A2976=
201710200100 METAR MRLM NIL=
201710200200 METAR MRLM NIL=
201710200300 METAR MRLM NIL=
201710200400 METAR MRLM NIL=
201710200500 METAR MRLM NIL=
201710200600 METAR MRLM NIL=
201710200700 METAR MRLM NIL=
201710200800 METAR MRLM NIL=
201710200900 METAR MRLM NIL=
201710201000 METAR MRLM NIL=
201710201100 METAR MRLM NIL=
201710201200 METAR MRLM 201200Z 25003KT CAVOK 24/23 A2979=
201710201300 METAR MRLM 201300Z 29003KT CAVOK 26/23 A2982=
201710201400 METAR MRLM 201400Z 31006KT CAVOK 29/24 A2982=
201710201500 METAR MRLM 201500Z 31006KT CAVOK 30/24 A2984=
201710201600 METAR MRLM 201600Z 34008KT CAVOK 30/25 A2982=
201710201700 METAR MRLM 201700Z 35007KT 9999 FEW030 BKN250 31/26 A2979=
201710201800 METAR MRLM 201800Z 02011KT CAVOK 30/26 A2976=
201710201900 METAR MRLM 201900Z 02011KT CAVOK 31/26 A2972=
201710202000 METAR MRLM 202000Z 03010KT CAVOK 30/26 A2970=
201710202100 METAR MRLM 202100Z 02011KT CAVOK 30/26 A2969=
201710202200 METAR MRLM 202200Z 34006KT 9999 FEW020 BKN240 28/26 A2970=
201710202300 METAR MRLM 202300Z 32003KT 9999 FEW020 BKN240 28/26 A2971=
201710210000 METAR MRLM 210000Z 28003KT 9999 FEW015 BKN220 27/25 A2973=
201710210100 METAR MRLM NIL=
201710210200 METAR MRLM NIL=
201710210300 METAR MRLM NIL=
201710210400 METAR MRLM NIL=
201710210500 METAR MRLM NIL=
201710210600 METAR MRLM NIL=
201710210700 METAR MRLM NIL=
201710210800 METAR MRLM NIL=
201710210900 METAR MRLM NIL=
201710211000 METAR MRLM NIL=
201710211100 METAR MRLM NIL=
201710211200 METAR MRLM 211200Z 29003KT 9999 DZ SCT010 SCT120 26/25 A2974=
201710211300 METAR MRLM 211300Z 26002KT 9999 FEW010 BKN120 26/25 A2984 REDZ=
201710211400 METAR MRLM 211400Z 29004KT 9999 FEW015 SCT130 BKN220 27/25 A2985=
201710211500 METAR MRLM 211500Z 32006KT 9999 SCT020 SCT230 29/25 A2985=
201710211600 METAR MRLM 211600Z 29006KT 9999 SCT020 BKN230 30/25 A2983=
201710211700 METAR MRLM 211700Z 32007KT 9999 FEW020 BKN230 30/25 A2980=
201710211800 METAR MRLM 211800Z 01010KT 9999 FEW030 BKN240 30/25 A2977=
201710211900 METAR MRLM 211900Z 36013KT 9999 FEW030 BKN240 31/25 A2974=
201710212000 METAR MRLM 212000Z 36012KT 9999 FEW030 BKN250 30/25 A2972=
201710212100 METAR MRLM 212100Z 35009KT 9999 FEW030 BKN240 29/25 A2972=
201710212200 METAR MRLM 212200Z 33008KT 9999 FEW030 BKN240 28/25 A2973=
201710212300 METAR MRLM 212300Z 32004KT 9999 SCT020 SCT240 28/25 A2975=
201710220000 METAR MRLM 220000Z 26002KT 9999 SCT015 SCT130 27/25 A2979=
201710220100 METAR MRLM NIL=
201710220200 METAR MRLM NIL=
201710220300 METAR MRLM NIL=
201710220400 METAR MRLM NIL=
201710220500 METAR MRLM NIL=
201710220600 METAR MRLM NIL=
201710220700 METAR MRLM NIL=
201710220800 METAR MRLM NIL=
201710220900 METAR MRLM NIL=
201710221000 METAR MRLM NIL=
201710221100 METAR MRLM NIL=
201710221200 METAR MRLM 221200Z 32002KT CAVOK 23/23 A2977=
201710221300 METAR MRLM 221300Z 00000KT CAVOK 26/24 A2979=
201710221400 METAR MRLM 221400Z 31003KT CAVOK 29/24 A2983=
201710221500 METAR MRLM 221500Z 33006KT CAVOK 30/24 A2985=
201710221600 METAR MRLM 221600Z 36007KT 9999 FEW030 SCT250 32/24 A2983=
201710221700 METAR MRLM 221700Z 02010KT CAVOK 31/25 A2981=
201710221800 METAR MRLM 221800Z 02011KT CAVOK 31/26 A2978=
201710221900 METAR MRLM 221900Z 02012KT CAVOK 31/26 A2973=
201710222000 METAR MRLM 222000Z 01012KT CAVOK 31/26 A2971=
201710222100 METAR MRLM 222100Z 02012KT 9999 FEW020 BKN230 30/26 A2970=
201710222200 METAR MRLM 222200Z 02009KT 9999 BKN015 29/26 A2972=
201710222300 METAR MRLM 222300Z 36009KT 9999 BKN015 29/26 A2972=
201710230000 METAR MRLM 230000Z 26003KT 9999 BKN015 SCT220 28/25 A2977=
201710230100 METAR MRLM NIL=
201710230200 METAR MRLM NIL=
201710230300 METAR MRLM NIL=
201710230400 METAR MRLM NIL=
201710230500 METAR MRLM NIL=
201710230600 METAR MRLM NIL=
201710230700 METAR MRLM NIL=
201710230800 METAR MRLM NIL=
201710230900 METAR MRLM NIL=
201710231000 METAR MRLM NIL=
201710231100 METAR MRLM NIL=
201710231200 METAR MRLM 231200Z 25003KT 9999 FEW015 SCT100 BKN200 24/24 A2977=
201710231300 METAR MRLM 231300Z 30002KT 9999 FEW015 SCT100 BKN200 26/24 A2980=
201710231400 METAR MRLM 231400Z 31006KT 9999 FEW015 SCT110 BKN220 27/25 A2982=
201710231500 METAR MRLM 231500Z 32006KT 9999 VCSH SCT015 OVC110 27/25 A2983=
201710231600 METAR MRLM 231600Z 31006KT 9999 -DZ FEW015 OVC110 28/25 A2983=
201710231700 METAR MRLM 231700Z 31008KT 9999 -DZ FEW015 OVC110 28/25 A2980=
201710231800 METAR MRLM 231800Z 33008KT 9999 FEW020 OVC120 29/25 A2976=
201710231900 METAR MRLM 231900Z 34008KT 9999 FEW020 BKN120 30/25 A2972=
201710232000 METAR MRLM 232000Z 35011KT 9999 FEW020 SCT120 BKN240 30/25 A2971=
201710232100 METAR MRLM 232100Z 34010KT 9999 FEW020 OVC240 29/25 A2970=
201710232200 METAR MRLM 232200Z 35008KT 9999 FEW020 OVC240 29/25 A2973=
201710232300 METAR MRLM 232300Z 31003KT 9999 FEW020 SCT110 OVC240 28/25 A2975=
201710240000 METAR MRLM 240000Z 00000KT 9999 FEW015 SCT110 OVC220 27/25 A2975=
201710240100 METAR MRLM NIL=
201710240200 METAR MRLM NIL=
201710240300 METAR MRLM NIL=
201710240400 METAR MRLM NIL=
201710240500 METAR MRLM NIL=
201710240600 METAR MRLM NIL=
201710240700 METAR MRLM NIL=
201710240800 METAR MRLM NIL=
201710240900 METAR MRLM NIL=
201710241000 METAR MRLM NIL=
201710241100 METAR MRLM NIL=
201710241200 METAR MRLM 241200Z 25004KT CAVOK 24/23 A2977=
201710241300 METAR MRLM 241300Z 00000KT CAVOK 25/24 A2979=
201710241400 METAR MRLM 241400Z 30004KT CAVOK 29/24 A2980=
201710241500 METAR MRLM 241500Z 31003KT 9999 FEW025 BKN250 31/24 A2981=
201710241600 METAR MRLM 241600Z 04008KT 9999 FEW025 BKN250 30/24 A2980=
201710241700 METAR MRLM 241700Z 04010KT 9999 FEW030 BKN250 31/25 A2979=
201710241800 METAR MRLM 241800Z 04009KT 9999 FEW030 BKN250 31/26 A2975=
201710241900 METAR MRLM 241900Z 03010KT 9999 FEW030 BKN250 30/26 A2972=
201710242000 METAR MRLM 242000Z 04007KT 9999 FEW025 BKN250 29/25 A2970=
201710242100 METAR MRLM 242100Z 05005KT 9999 SCT020 BKN250 29/26 A2969=
201710242200 METAR MRLM 242200Z 10003KT 9999 FEW020 BKN240 28/26 A2971=
201710242300 METAR MRLM 242300Z 21003KT 9999 VCSH SCT015 BKN240 27/25 A2973=
201710250000 METAR MRLM 250000Z 35003KT 5000 -RA BKN010 25/24 A2976=
201710250100 METAR MRLM NIL=
201710250200 METAR MRLM NIL=
201710250300 METAR MRLM NIL=
201710250400 METAR MRLM NIL=
201710250500 METAR MRLM NIL=
201710250600 METAR MRLM NIL=
201710250700 METAR MRLM NIL=
201710250800 METAR MRLM NIL=
201710250900 METAR MRLM NIL=
201710251000 METAR MRLM NIL=
201710251100 METAR MRLM NIL=
201710251200 METAR MRLM 251200Z 26003KT CAVOK 24/24 A2986 NOSIG=
201710251300 METAR MRLM 251300Z 24003KT CAVOK 25/24 A2980=
201710251400 METAR MRLM 251400Z 00000KT CAVOK 25/24 A2982 NOSIG=
201710251500 METAR MRLM 251500Z 26005KT 9999 SCT010 BKN030 21/20 A3003 NOSIG=
201710251600 METAR MRLM 251600Z 30003KT CAVOK 28/25 A2982=
201710251700 METAR MRLM 251700Z 04003KT CAVOK 29/24 A2980=
201710251800 METAR MRLM 251800Z 32002KT 9999 FEW020 SCT140 BKN200 29/25 A2976=
201710251900 METAR MRLM 251900Z 05006KT 9999 FEW020 BKN130 29/25 A2974=
201710252000 METAR MRLM 252000Z 05004KT CAVOK 29/24 A2971=
201710252100 METAR MRLM 252100Z 04003KT CAVOK 29/25 A2972=
201710252200 METAR MRLM 252200Z 07004KT CAVOK 28/25 A2974=
201710252300 METAR MRLM 252300Z 11003KT 9999 FEW015 BKN120 28/25 A2975=
201710260000 METAR MRLM 260000Z 00000KT 9999 SCT015 BKN120 27/26 A2977=
201710260100 METAR MRLM NIL=
201710260200 METAR MRLM NIL=
201710260300 METAR MRLM NIL=
201710260400 METAR MRLM NIL=
201710260500 METAR MRLM NIL=
201710260600 METAR MRLM NIL=
201710260700 METAR MRLM NIL=
201710260800 METAR MRLM NIL=
201710260900 METAR MRLM NIL=
201710261000 METAR MRLM NIL=
201710261100 METAR MRLM NIL=
201710261200 METAR MRLM 261200Z 33003KT 9999 OVC010 25/25 A2982=
201710261300 METAR MRLM 261300Z 24003KT 9999 BKN015 25/24 A2983=
201710261400 METAR MRLM 261400Z 24003KT 9999 SCT015 SCT120 26/25 A2985=
201710261500 METAR MRLM 261500Z 00000KT 9999 SCT015 BKN120 28/28 A2985=
201710261600 METAR MRLM 261600Z 11005KT 9999 SCT015 BKN120 29/25 A2984=
201710261700 METAR MRLM 261700Z 06003KT 9999 FEW015 SCT130 29/25 A2982=
201710261800 METAR MRLM 261800Z 03005KT 9999 DZ BKN015 28/25 A2979=
201710261900 METAR MRLM 261900Z 03010KT 9999 FEW020 SCT130 BKN240 29/25 A2979 REDZ=
201710262000 METAR MRLM 262000Z 07009KT 9999 DZ SCT015 SCT120 28/25 A2974=
201710262100 METAR MRLM 262100Z 08013KT 9999 7000SE RA VCTS BKN015 28/24 A2973=
201710262200 METAR MRLM 262200Z 16006KT 9999 +DZ BKN015 25/24 A2974 RERA=
201710262300 METAR MRLM 262300Z 23005KT 9999 +DZ SCT010 SCT110 24/23 A2977=
201710270000 METAR MRLM 270000Z 23004KT 9999 DZ BKN010 24/22 A2979=
201710270100 METAR MRLM NIL=
201710270200 METAR MRLM NIL=
201710270300 METAR MRLM NIL=
201710270400 METAR MRLM NIL=
201710270500 METAR MRLM NIL=
201710270600 METAR MRLM NIL=
201710270700 METAR MRLM NIL=
201710270800 METAR MRLM NIL=
201710270900 METAR MRLM NIL=
201710271000 METAR MRLM NIL=
201710271100 METAR MRLM NIL=
201710271200 METAR MRLM 271200Z 24003KT 9999 SCT010 BKN090 23/22 A2981=
201710271300 METAR MRLM 271300Z 24002KT 9999 SCT010 BKN090 24/23 A2983=
201710271400 METAR MRLM 271400Z 27003KT 9999 SCT015 BKN100 25/24 A2985=
201710271500 METAR MRLM 271500Z 25004KT 9999 FEW015 BKN100 26/25 A2986=
201710271600 METAR MRLM 271600Z 21002KT 9999 FEW015 SCT110 BKN200 28/27 A2986=
201710271700 METAR MRLM 271700Z 09003KT 9999 FEW015 BKN200 28/27 A2984=
201710271800 METAR MRLM 271800Z 05004KT 9999 FEW020 BKN220 29/27 A2980=
201710271900 METAR MRLM 271900Z 04006KT 9999 FEW020 BKN220 29/27 A2976=
201710272000 METAR MRLM 272000Z 04007KT CAVOK 29/27 A2975=
201710272100 METAR MRLM 272100Z 02006KT 9999 FEW020 BKN240 29/27 A2975=
201710272200 METAR MRLM 272200Z 02007KT 9999 SCT020 BKN240 28/27 A2976=
201710272300 METAR MRLM 272300Z 36008KT 9999 BKN020 SCT240 28/26 A2978=
201710280000 METAR MRLM 280000Z 02010KT 9999 BKN015 SCT220 28/26 A2981=
201710280100 METAR MRLM NIL=
201710280200 METAR MRLM NIL=
201710280300 METAR MRLM NIL=
201710280400 METAR MRLM NIL=
201710280500 METAR MRLM NIL=
201710280600 METAR MRLM NIL=
201710280700 METAR MRLM NIL=
201710280800 METAR MRLM NIL=
201710280900 METAR MRLM NIL=
201710281000 METAR MRLM NIL=
201710281100 METAR MRLM NIL=
201710281200 METAR MRLM 281200Z 22004KT 9999 -DZ FEW015 OVC100 23/22 A2987=
201710281300 METAR MRLM 281300Z 16003KT 9999 FEW015 OVC100 23/22 A2988=
201710281400 METAR MRLM 281400Z 17005KT 9999 FEW015 OVC100 25/24 A2988=
201710281500 METAR MRLM 281500Z 15010KT CAVOK 27/26 A2989=
201710281600 METAR MRLM 281600Z 15010KT CAVOK 28/26 A2989=
201710281700 METAR MRLM 281700Z 15008KT 9999 FEW020 OVC200 28/27 A2989=
201710281800 METAR MRLM 281800Z 13007KT 9999 FEW020 OVC200 28/27 A2987=
201710281900 METAR MRLM 281900Z 13007KT 9999 FEW020 OVC220 28/27 A2984=
201710282000 METAR MRLM 282000Z 13007KT 9999 SCT020 OVC220 28/26 A2983=
201710282100 METAR MRLM 282100Z 14008KT 9999 SCT020 OVC220 28/27 A2983=
201710282200 METAR MRLM 282200Z 16007KT 9999 FEW020 OVC110 28/26 A2984=
201710282300 METAR MRLM 282300Z 21002KT 9999 FEW015 OVC110 27/25 A2985=
201710290000 METAR MRLM 290000Z 18004KT 9999 FEW015 OVC100 27/25 A2985=
201710290100 METAR MRLM NIL=
201710290200 METAR MRLM NIL=
201710290300 METAR MRLM NIL=
201710290400 METAR MRLM NIL=
201710290500 METAR MRLM NIL=
201710290600 METAR MRLM NIL=
201710290700 METAR MRLM NIL=
201710290800 METAR MRLM NIL=
201710290900 METAR MRLM NIL=
201710291000 METAR MRLM NIL=
201710291100 METAR MRLM NIL=
201710291200 METAR MRLM 291200Z 27004KT CAVOK 23/21 A2989=
201710291300 METAR MRLM 291300Z 00000KT CAVOK 24/23 A2991=
201710291400 METAR MRLM 291400Z 00000KT CAVOK 27/25 A2992=
201710291500 METAR MRLM 291500Z 00000KT CAVOK 28/26 A2993=
201710291600 METAR MRLM 291600Z 26003KT CAVOK 29/27 A2992=
201710291700 METAR MRLM 291700Z 31003KT CAVOK 29/23 A2989=
201710291800 METAR MRLM 291800Z 08005KT CAVOK 30/23 A2986=
201710291900 METAR MRLM 291900Z 05006KT CAVOK 29/24 A2983=
201710292000 METAR MRLM 292000Z 10007KT CAVOK 29/24 A2979=
201710292100 METAR MRLM 292100Z 10005KT CAVOK 29/24 A2979=
201710292200 METAR MRLM 292200Z 10005KT CAVOK 29/23 A2980=
201710292300 METAR MRLM 292300Z 12005KT CAVOK 29/23 A2982=
201710300000 METAR MRLM 300000Z 14003KT CAVOK 28/23 A2985=
201710300100 METAR MRLM NIL=
201710300200 METAR MRLM NIL=
201710300300 METAR MRLM NIL=
201710300400 METAR MRLM NIL=
201710300500 METAR MRLM NIL=
201710300600 METAR MRLM NIL=
201710300700 METAR MRLM NIL=
201710300800 METAR MRLM NIL=
201710300900 METAR MRLM NIL=
201710301000 METAR MRLM NIL=
201710301100 METAR MRLM NIL=
201710301200 METAR MRLM 301200Z 31005KT 9999 FEW015 SCT230 25/23 A2988=
201710301300 METAR MRLM 301300Z 30006KT 9999 FEW015 SCT230 25/23 A2989=
201710301400 METAR MRLM 301400Z 31006KT 9999 FEW015 BKN120 25/23 A2991=
201710301500 METAR MRLM 301500Z 31005KT 9999 FEW010 SCT120 SCT220 26/24 A2993=
201710301600 METAR MRLM 301600Z 31004KT 9999 DZ FEW010 BKN130 26/24 A2993=
201710301700 METAR MRLM 301700Z 32004KT 9999 +DZ FEW010 SCT130 BKN200 26/24 A2990=
201710301800 METAR MRLM 301800Z 34007KT 9999 +DZ FEW015 SCT130 BKN200 25/24 A2990=
201710301900 METAR MRLM 301900Z 27004KT 9999 DZ FEW015 SCT130 BKN200 25/23 A2986=
201710302000 METAR MRLM 302000Z 33004KT 9999 DZ FEW015 BKN130 25/24 A2985=
201710302100 METAR MRLM 302100Z 29005KT 9999 FEW015 BKN130 25/// A2982=
201710302200 METAR MRLM 302200Z 29004KT 9999 FEW010 SCT130 BKN220 25/23 A2982=
201710302300 METAR MRLM 302300Z 32004KT 9999 FEW010 SCT140 SCT220 25/23 A2984=
201710310000 METAR MRLM 310000Z 30003KT CAVOK 24/23 A2984=
201710310100 METAR MRLM NIL=
201710310200 METAR MRLM NIL=
201710310300 METAR MRLM NIL=
201710310400 METAR MRLM NIL=
201710310500 METAR MRLM NIL=
201710310600 METAR MRLM NIL=
201710310700 METAR MRLM NIL=
201710310800 METAR MRLM NIL=
201710310900 METAR MRLM NIL=
201710311000 METAR MRLM NIL=
201710311100 METAR MRLM NIL=
201710311200 METAR MRLM 311200Z 00000KT CAVOK 22/21 A2987=
201710311300 METAR MRLM 311300Z 31003KT 9999 -DZ SCT015 BKN110 24/22 A2989=
201710311400 METAR MRLM 311400Z 30006KT CAVOK 26/24 A2990=
201710311500 METAR MRLM 311500Z 30004KT 9999 FEW020 BKN120 27/23 A2991=
201710311600 METAR MRLM 311600Z 32004KT 9999 DZ FEW020 BKN120 27/24 A2991=
201710311700 METAR MRLM 311700Z 35011KT 9999 SCT020 SCT130 27/23 A2988 REDZ=
201710311800 METAR MRLM 311800Z 34011KT 9999 SCT020 BKN130 27/22 A2986=
201710311900 METAR MRLM 311900Z 34012KT 9999 FEW025 SCT130 27/22 A2983=
201710312000 METAR MRLM 312000Z 34009KT 9999 FEW030 SCT130 BKN230 28/22 A2981=
201710312100 METAR MRLM 312100Z 34007KT CAVOK 28/23 A2980=
201710312200 METAR MRLM 312200Z 34009KT 9999 FEW030 SCT140 BKN240 28/22 A2980=
201710312300 METAR MRLM 312300Z 34008KT 9999 FEW020 SCT140 BKN240 27/22 A2981=
201711010000 METAR MRLM 010000Z 00000KT CAVOK 25/21 A2985=
201711010100 METAR MRLM NIL=
201711010200 METAR MRLM NIL=
201711010300 METAR MRLM NIL=
201711010400 METAR MRLM NIL=
201711010500 METAR MRLM NIL=
201711010600 METAR MRLM NIL=
201711010700 METAR MRLM NIL=
201711010800 METAR MRLM NIL=
201711010900 METAR MRLM NIL=
201711011000 METAR MRLM NIL=
201711011100 METAR MRLM NIL=
201711011200 METAR MRLM 011200Z 26002KT CAVOK 22/20 A2983=
201711011300 METAR MRLM 011300Z 24003KT CAVOK 24/23 A2991=
201711011400 METAR MRLM 011400Z 00000KT CAVOK 27/22 A2989=
201711011500 METAR MRLM 011500Z 00000KT CAVOK 28/22 A2991=
201711011600 METAR MRLM 011600Z 05005KT CAVOK 28/22 A2990=
201711011700 METAR MRLM 011700Z 04006KT 9999 FEW030 SCT250 29/23 A2987=
201711011800 METAR MRLM 011800Z 05005KT CAVOK 29/23 A2984=
201711011900 METAR MRLM 011900Z 03007KT CAVOK 29/23 A2981=
201711012000 METAR MRLM 012000Z 02009KT 9999 FEW020 OVC110 29/24 A2979=
201711012100 METAR MRLM 012100Z 03006KT 9999 FEW020 OVC110 29/24 A2979=
201711012200 METAR MRLM 012200Z 36004KT 9999 FEW020 SCT110 BKN230 29/24 A2978=
201711012300 METAR MRLM 012300Z 30003KT CAVOK 28/24 A2979=
201711020000 METAR MRLM 020000Z 31002KT CAVOK 26/23 A2981=
201711020100 METAR MRLM NIL=
201711020200 METAR MRLM NIL=
201711020300 METAR MRLM NIL=
201711020400 METAR MRLM NIL=
201711020500 METAR MRLM NIL=
201711020600 METAR MRLM NIL=
201711020700 METAR MRLM NIL=
201711020800 METAR MRLM NIL=
201711020900 METAR MRLM NIL=
201711021000 METAR MRLM NIL=
201711021100 METAR MRLM NIL=
201711021200 METAR MRLM 021200Z 25003KT 9999 -DZ FEW015 BKN100 24/22 A2986=
201711021300 METAR MRLM 021300Z 22002KT 9999 DZ VCTS FEW015 BKN110 23/22 A2988=
201711021400 METAR MRLM 021400Z 25002KT 9999 FEW015 BKN120 24/23 A2990 REDZ=
201711021500 METAR MRLM 021500Z 28004KT 9999 FEW015 BKN120 26/23 A2992=
201711021600 METAR MRLM 021600Z 28002KT 9999 SCT015 BKN110 26/23 A2992 REDZ=
201711021700 METAR MRLM 021700Z 32004KT 9999 FEW015 BKN110 27/23 A2989=
201711021800 METAR MRLM 021800Z 33005KT 9999 BKN010 26/24 A2988=
201711021900 METAR MRLM 021900Z 31005KT 9999 SCT015 SCT110 27/24 A2984=
201711022000 METAR MRLM 022000Z 31005KT 9999 FEW020 SCT130 BKN240 28/24 A2982=
201711022100 METAR MRLM 022100Z 29005KT CAVOK 29/24 A2981=
201711022200 METAR MRLM 022200Z 30004KT CAVOK 29/24 A2980=
201711022300 METAR MRLM 022300Z 30004KT CAVOK 27/24 A2981=
201711030000 METAR MRLM 030000Z 32005KT 9999 FEW015 BKN110 27/24 A2985=
201711030100 METAR MRLM NIL=
201711030200 METAR MRLM NIL=
201711030300 METAR MRLM NIL=
201711030400 METAR MRLM NIL=
201711030500 METAR MRLM NIL=
201711030600 METAR MRLM NIL=
201711030700 METAR MRLM NIL=
201711030800 METAR MRLM NIL=
201711030900 METAR MRLM NIL=
201711031000 METAR MRLM NIL=
201711031100 METAR MRLM NIL=
201711031200 METAR MRLM 031200Z 00000KT CAVOK 24/23 A2985=
201711031300 METAR MRLM 031300Z 22002KT CAVOK 26/23 A2987=
201711031400 METAR MRLM 031400Z 33005KT CAVOK 28/22 A2989=
201711031500 METAR MRLM 031500Z 32003KT CAVOK 30/23 A2990=
201711031600 METAR MRLM 031600Z 05006KT 9999 FEW030 BKN250 29/24 A2989=
201711031700 METAR MRLM 031700Z 04006KT 9999 FEW030 BKN250 29/24 A2987=
201711031800 METAR MRLM 031800Z 04007KT CAVOK 30/24 A2984=
201711031900 METAR MRLM 031900Z 05006KT CAVOK 30/24 A2981=
201711032000 METAR MRLM 032000Z 04007KT CAVOK 30/25 A2978=
201711032100 METAR MRLM 032100Z 06006KT CAVOK 30/24 A2977=
201711032200 METAR MRLM 032200Z 07005KT CAVOK 30/24 A2978=
201711032300 METAR MRLM 032300Z 09004KT CAVOK 30/24 A2979=
201711040000 METAR MRLM 040000Z 00000KT CAVOK 29/24 A2982=
201711040100 METAR MRLM NIL=
201711040200 METAR MRLM NIL=
201711040300 METAR MRLM NIL=
201711040400 METAR MRLM NIL=
201711040500 METAR MRLM NIL=
201711040600 METAR MRLM NIL=
201711040700 METAR MRLM NIL=
201711040800 METAR MRLM NIL=
201711040900 METAR MRLM NIL=
201711041000 METAR MRLM NIL=
201711041100 METAR MRLM NIL=
201711041200 METAR MRLM 041200Z 29007KT 9999 FEW015 BKN120 24/22 A2986=
201711041300 METAR MRLM 041300Z 31004KT 9999 CAVOK 26/23 A2985=
201711041400 METAR MRLM 041400Z 32004KT CAVOK 28/23 A2986=
201711041500 METAR MRLM 041500Z 0300KT CAVOK 29/24 A2986=
201711041600 METAR MRLM 041600Z 05008KT 9999 FEW030 SCT140 BKN240 29/25 A2986=
201711041700 METAR MRLM 041700Z 01012KT CAVOK 30/24 A2983=
201711041800 METAR MRLM 041800Z 01011KT 9999 FEW030 BKN130 30/24 A2981=
201711041900 METAR MRLM 041900Z 34010KT 9999 FEW030 BKN130 30/22 A2979=
201711042000 METAR MRLM 042000Z 34012KT 9999 FEW030 SCT140 BKN250 30/24 A2976=
201711042100 METAR MRLM 042100Z 35012KT 9999 SCT030 30/23 A2976=
201711042200 METAR MRLM 042200Z 01014KT 9999 BKN020 29/24 A2978=
201711042300 METAR MRLM 042300Z 36011KT 9999 SCT020 SCT230 28/24 A2978=
201711050000 METAR MRLM NIL=
201711050100 METAR MRLM NIL=
201711050200 METAR MRLM NIL=
201711050300 METAR MRLM NIL=
201711050400 METAR MRLM NIL=
201711050500 METAR MRLM NIL=
201711050600 METAR MRLM NIL=
201711050700 METAR MRLM NIL=
201711050800 METAR MRLM NIL=
201711050900 METAR MRLM NIL=
201711051000 METAR MRLM NIL=
201711051100 METAR MRLM NIL=
201711051200 METAR MRLM 051200Z 27002KT CAVOK 23/21 A2982=
201711051300 METAR MRLM 051300Z 25003KT CAVOK 24/21 A2986=
201711051400 METAR MRLM 051400Z 10003KT 9999 FEW020 BKN130 25/21 A2989=
201711051500 METAR MRLM 051500Z 30006KT 9999 FEW020 BKN130 27/22 A2988=
201711051600 METAR MRLM 051600Z 32010KT 9999 SCT020 BKN120 28/23 A2990=
201711051700 METAR MRLM 051700Z 32006KT 9999 SCT020 BKN120 28/23 A2988=
201711051800 METAR MRLM 051800Z 33010KT 9999 SCT020 BKN130 30/24 A2985=
201711051900 METAR MRLM 051900Z 36012KT 9999 FEW035 SCT140 30/23 A2981=
201711052000 METAR MRLM NIL=
201711052025 METAR MRLM 052025Z 34010KT CAVOK 30/23 A2980=
201711052100 METAR MRLM 052100Z 35012KT CAVOK 29/24 A2981=
201711052200 METAR MRLM 052200Z 34009KT 9999 SCT020 SCT130 28/24 A2982=
201711052300 METAR MRLM 052300Z 33004KT 9999 SCT020 27/23 A2983=
201711060000 METAR MRLM NIL=
201711060100 METAR MRLM NIL=
201711060200 METAR MRLM NIL=
201711060300 METAR MRLM NIL=
201711060400 METAR MRLM NIL=
201711060500 METAR MRLM NIL=
201711060600 METAR MRLM NIL=
201711060700 METAR MRLM NIL=
201711060800 METAR MRLM NIL=
201711060900 METAR MRLM NIL=
201711061000 METAR MRLM NIL=
201711061100 METAR MRLM NIL=
201711061200 METAR MRLM 061200Z 25004KT 9999 FEW020 SCT130 22/21 A2989=
201711061300 METAR MRLM 061300Z 25003KT 9999 FEW025 25/22 A2989=
201711061400 METAR MRLM 061400Z 00000KT CAVOK 28/22 A2990=
201711061500 METAR MRLM 061500Z 10003KT 9999 FEW020 SCT130 28/22 A2991=
201711061600 METAR MRLM 061600Z 08005KT CAVOK 28/23 A2990=
201711061700 METAR MRLM 061700Z 05006KT 9999 FEW025 SCT140 29/24 A2989=
201711061800 METAR MRLM 061800Z 06006KT CAVOK 29/24 A2985=
201711061900 METAR MRLM 061900Z 05006KT CAVOK 30/23 A2982=
201711062000 METAR MRLM 062000Z 05005KT CAVOK 30/23 A2981=
201711062100 METAR MRLM 062100Z 05004KT CAVOK 29/23 A2979=
201711062200 METAR MRLM 062200Z 03004KT 9999 FEW030 BKN250 29/23 A2979=
201711062300 METAR MRLM 062300Z 03004KT 9999 FEW030 BKN250 29/22 A2980=
201711070000 METAR MRLM NIL=
201711070100 METAR MRLM NIL=
201711070200 METAR MRLM NIL=
201711070300 METAR MRLM NIL=
201711070400 METAR MRLM NIL=
201711070500 METAR MRLM NIL=
201711070600 METAR MRLM NIL=
201711070700 METAR MRLM NIL=
201711070800 METAR MRLM NIL=
201711070900 METAR MRLM NIL=
201711071000 METAR MRLM NIL=
201711071100 METAR MRLM NIL=
201711071200 METAR MRLM 071200Z 30002KT 9999 FEW020 BKN120 23/21 A2985=
201711071300 METAR MRLM 071300Z 29005KT 9999 FEW020 SCT120 24/21 A2987=
201711071400 METAR MRLM 071400Z 29002KT 9999 FEW020 BKN120 26/22 A2988=
201711071500 METAR MRLM 071500Z 01003KT 9999 FEW025 BKN130 28/22 A2989=
201711071600 METAR MRLM 071600Z 08004KT CAVOK 29/22 A2987 NOSIG=
201711071700 METAR MRLM 071700Z 06005KT 9999 FEW030 BKN250 29/23 A2984=
201711071800 METAR MRLM 071800Z 03009KT CAVOK 30/22 A2981NOSIG?=
201711071900 METAR MRLM 071900Z 03009KT CAVOK 30/23 A2979=
201711072000 METAR MRLM 072000Z 02008KT CAVOK 30/23 A2976=
201711072100 METAR MRLM 072100Z 02009KT 9999 SCT030 30/24 A2975=
201711072200 MRLM 072200Z 03011KT 9999 SCT030 SCT130 29/24 A2976=
201711072300 METAR MRLM 072300Z 02008KT 9999 FEW030 SCT140 SCT250 28/23 A2978=
201711080000 METAR MRLM NIL=
201711080100 METAR MRLM NIL=
201711080200 METAR MRLM NIL=
201711080300 METAR MRLM NIL=
201711080400 METAR MRLM NIL=
201711080500 METAR MRLM NIL=
201711080600 METAR MRLM NIL=
201711080700 METAR MRLM NIL=
201711080800 METAR MRLM NIL=
201711080900 METAR MRLM NIL=
201711081000 METAR MRLM NIL=
201711081100 METAR MRLM NIL=
201711081200 METAR MRLM 081200Z 27004KT 9999 FEW030 23/21 A2980=
201711081300 METAR MRLM 081300Z 29005KT CAVOK 26/22 A2981=
201711081400 METAR MRLM 081400Z 30005KT CAVOK 28/22 A2983=
201711081500 METAR MRLM 081500Z 31006KT CAVOK 30/22 A2984=
201711081600 METAR MRLM 081600Z 35009KT 9999 SCT035 SCT130 30/22 A2984=
201711081700 METAR MRLM 081700Z 35011KT 9999 FEW040 SCT240 30/22 A2981=
201711081800 METAR MRLM 081800Z 36011KT CAVOK 30/22 A2979=
201711081900 METAR MRLM 081900Z 36010KT CAVOK 31/23 A2977=
201711082000 METAR MRLM 082000Z 01011KT 9999 FEW035 SCT140 30/23 A2975=
201711082100 METAR MRLM 082100Z 01012KT 9999 SCT025 SCT130 29/23 A2975=
201711082200 METAR MRLM 082200Z 33004KT 9999 FEW020 SCT140 BKN230 28/22 A2975=
201711082300 METAR MRLM 082300Z 03008KT 9999 SCT020 28/23 A2976=
201711090000 METAR MRLM NIL=
201711090100 METAR MRLM NIL=
201711090200 METAR MRLM NIL=
201711090300 METAR MRLM NIL=
201711090400 METAR MRLM NIL=
201711090500 METAR MRLM NIL=
201711090600 METAR MRLM NIL=
201711090700 METAR MRLM NIL=
201711090800 METAR MRLM NIL=
201711090900 METAR MRLM NIL=
201711091000 METAR MRLM NIL=
201711091100 METAR MRLM NIL=
201711091200 METAR MRLM 091200Z 32005KT CAVOK 23/21 A2981=
201711091300 METAR MRLM 091300Z 30004KT CAVOK 25/21 A2983=
201711091400 METAR MRLM 091400Z 31005KT CAVOK 25/21 A2985=
201711091500 METAR MRLM 091500Z 30008KT CAVOK 27/22 A2986=
201711091600 METAR MRLM 091600Z 31007KT CAVOK 28/22 A2985=
201711091700 METAR MRLM 091700Z 33010KT 9999 FEW025 BKN120 27/22 A2983=
201711091800 METAR MRLM 091800Z 34012KT 9999 BKN020 28/22 A2981=
201711091900 METAR MRLM 091900Z 34009KT 9999 BKN015 SCT110 26/23 A2979=
201711092000 METAR MRLM 092000Z 31006KT 9999 SCT015 BKN110 27/23 A2977=
201711092100 METAR MRLM 092100Z 33007KT 9999 DZ SCT010 SCT100 26/23 A2977=
201711092200 METAR MRLM 092200Z 32005KT 9999 FEW015 BKN110 25/23 A2978 REDZ=
201711092300 METAR MRLM 092300Z 29004KT 9999 FEW015 BKN120 25/23 A2978=
201711100000 METAR MRLM NIL=
201711100100 METAR MRLM NIL=
201711100200 METAR MRLM NIL=
201711100300 METAR MRLM NIL=
201711100400 METAR MRLM NIL=
201711100500 METAR MRLM NIL=
201711100600 METAR MRLM NIL=
201711100700 METAR MRLM NIL=
201711100800 METAR MRLM NIL=
201711100900 METAR MRLM NIL=
201711101000 METAR MRLM NIL=
201711101100 METAR MRLM NIL=
201711101200 METAR MRLM 101200Z 23003KT CAVOK 22/20 A2980=
201711101300 METAR MRLM 101300Z 25003KT CAVOK 25/21 A2982=
201711101400 METAR MRLM 101400Z 31008KT CAVOK 28/21 A2983=
201711101500 METAR MRLM 101500Z 32009KT CAVOK 28/21 A2983=
201711101600 METAR MRLM 101600Z 31006KT 9999 FEW030 SCT130 30/22 A2983=
201711101700 METAR MRLM 101700Z 34010KT 9999 FEW030 SCT140 30/22 A2980=
201711101800 METAR MRLM 101800Z 01014KT 9999 FEW030 SCT140 31/23 A2977=
201711101900 METAR MRLM 101900Z 01015KT CAVOK 30/23 A2975=
201711102000 METAR MRLM 102000Z 01014KT CAVOK 29/23 A2972=
201711102100 METAR MRLM 102100Z 01013KT CAVOK 29/23 A2971=
201711102200 METAR MRLM 102200Z 36009KT 9999 FEW025 BKN130 29/23 A2972=
201711102300 METAR MRLM 102300Z 36008KT 9999 BKN020 28/24 A2974=
201711110000 METAR MRLM NIL=
201711110100 METAR MRLM NIL=
201711110200 METAR MRLM NIL=
201711110300 METAR MRLM NIL=
201711110400 METAR MRLM NIL=
201711110500 METAR MRLM NIL=
201711110600 METAR MRLM NIL=
201711110700 METAR MRLM NIL=
201711110800 METAR MRLM NIL=
201711110900 METAR MRLM NIL=
201711111000 METAR MRLM NIL=
201711111100 METAR MRLM NIL=
201711111200 METAR MRLM 111200Z 26004KT CAVOK 22/20 A2977=
201711111300 METAR MRLM 111300Z 29003KT CAVOK 25/21 A2979=
201711111400 METAR MRLM 111400Z 34010KT CAVOK 27/21 A2981=
201711111500 METAR MRLM 111500Z 32007KT CAVOK 29/21 A2981=
201711111600 METAR MRLM 111600Z 31009KT CAVOK 30/22 A2980=
201711111700 METAR MRLM 111700Z 33009KT 9999 SCT030 31/23 A2976=
201711111800 METAR MRLM 111800Z 36011KT 9999 FEW030 31/23 A2973=
201711111900 METAR MRLM 111900Z 01017KT 9999 FEW025 BKN120 30/24 A2972=
201711112000 METAR MRLM 112000Z 35012KT CAVOK 31/23 A2970=
201711112100 METAR MRLM 112100Z 36013KT 9999 FEW020 BKN130 30/24 A2968=
201711112200 METAR MRLM 112200Z 01010KT 9999 BKN015 28/24 A2968=
201711112300 METAR MRLM 112300Z 34005KT 9999 FEW015 SCT240 28/24 A2969=
201711120000 METAR MRLM NIL=
201711120100 METAR MRLM NIL=
201711120200 METAR MRLM NIL=
201711120300 METAR MRLM NIL=
201711120400 METAR MRLM NIL=
201711120500 METAR MRLM NIL=
201711120600 METAR MRLM NIL=
201711120700 METAR MRLM NIL=
201711120800 METAR MRLM NIL=
201711120900 METAR MRLM NIL=
201711121000 METAR MRLM NIL=
201711121100 METAR MRLM NIL=
201711121200 METAR MRLM 121200Z 25004KT 9999 FEW015 SCT130 23/22 A2975=
201711121300 METAR MRLM 121300Z 19002KT 9999 VCSH FEW010CB FEW020 SCT120 25/22 A2977=
201711121400 METAR MRLM 121400Z 25004KT 9999 SCT010 SCT100 28/23 A2979=
201711121500 METAR MRLM 121500Z 07004KT 9999 FEW020 SCT120 28/24 A2980=
201711121600 METAR MRLM 121600Z 07005KT 9999 FEW025 28/24 A2979=
201711121700 METAR MRLM 121700Z 03005KT 9999 FEW030 29/24 A2977=
201711121800 METAR MRLM 121800Z 04007KT 9999 FEW030 BKN250 30/24 A2974=
201711121900 METAR MRLM 121900Z 05007KT 9999 FEW030 BKN240 29/24 A2971=
201711122000 METAR MRLM 122000Z 05005KT CAVOK 29/23 A2969=
201711122100 METAR MRLM 122100Z 06003KT CAVOK 29/23 A2967=
201711122200 METAR MRLM 122200Z 08003KT CAVOK 29/24 A2967=
201711122300 METAR MRLM 122300Z 07002KT CAVOK 29/23 A2969=
201711130000 METAR MRLM NIL=
201711130100 METAR MRLM NIL=
201711130200 METAR MRLM NIL=
201711130300 METAR MRLM NIL=
201711130400 METAR MRLM NIL=
201711130500 METAR MRLM NIL=
201711130600 METAR MRLM NIL=
201711130700 METAR MRLM NIL=
201711130800 METAR MRLM NIL=
201711130900 METAR MRLM NIL=
201711131000 METAR MRLM NIL=
201711131100 METAR MRLM NIL=
201711131200 METAR MRLM 131200Z 20003KT 9999 -DZ FEW015 BKN120 24/23 A2978=
201711131300 METAR MRLM 131300Z 25003KT 9999 FEW015 SCT130 BKN220 25/23 A2980=
201711131400 METAR MRLM 131400Z 21002KT CAVOK 26/23 A2981=
201711131500 METAR MRLM 131500Z 25002KT CAVOK 26/24 A2978=
201711131600 METAR MRLM 131600Z 05003KT CAVOK 29/22 A2978=
201711131700 METAR MRLM 131700Z 35008KT CAVOK 29/23 A2977=
201711131800 METAR MRLM 131800Z 01005KT 9999 FEW030 BKN240 30/24 A2975=
201711131900 METAR MRLM 131900Z 04008KT 9999 FEW025 SCT130 BKN240 29/24 A2973=
201711132000 METAR MRLM 132000Z 03008KT CAVOK 30/24 A2970=
201711132100 METAR MRLM 132100Z 03007KT 9999 FEW025 SCT130 29/24 A2969=
201711132200 METAR MRLM 132200Z 02008KT 9999 FEW025 SCT130 BKN240 29/24 A2970=
201711132300 METAR MRLM 132300Z 02007KT 9999 FEW020 SCT130 BKN240 28/24 A2972=
201711140000 METAR MRLM NIL=
201711140100 METAR MRLM NIL=
201711140200 METAR MRLM NIL=
201711140300 METAR MRLM NIL=
201711140400 METAR MRLM NIL=
201711140500 METAR MRLM NIL=
201711140600 METAR MRLM NIL=
201711140700 METAR MRLM NIL=
201711140800 METAR MRLM NIL=
201711140900 METAR MRLM NIL=
201711141000 METAR MRLM NIL=
201711141100 METAR MRLM NIL=
201711141200 METAR MRLM 141200Z 30003KT 9999 SCT010 BKN020 25/23 A2976=
201711141300 METAR MRLM 141300Z 29005KT 9999 FEW010 SCT120 BKN220 26/23 A2979=
201711141400 METAR MRLM 141400Z 32007KT 9999 FEW015 SCT120 BKN220 27/23 A2982=
201711141500 METAR MRLM 141500Z 31007KT 9999 FEW015 SCT130 BKN230 27/23 A2984=
201711141600 METAR MRLM 141600Z 30009KT 9999 SCT015 BKN110 28/23 A2982=
201711141700 METAR MRLM 141700Z 31010KT 9999 SCT020 BKN130 29/23 A2980=
201711141800 METAR MRLM 141800Z 33010KT 9999 FEW030 SCT250 30/23 A2976=
201711141900 METAR MRLM 141900Z 35013KT 9999 FEW030 SCT250 30/23 A2973=
201711142000 METAR MRLM 142000Z 01014KT 9999 FEW030 30/23 A2971=
201711142100 METAR MRLM 142100Z 01014KT CAVOK 29/23 A2970=
201711142200 METAR MRLM 142200Z 36012KT 9999 SCT020 SCT230 29/23 A2970=
201711142300 METAR MRLM 142300Z 36010KT 9999 BKN020 28/23 A2973=
201711150000 METAR MRLM NIL=
201711150100 METAR MRLM NIL=
201711150200 METAR MRLM NIL=
201711150300 METAR MRLM NIL=
201711150400 METAR MRLM NIL=
201711150500 METAR MRLM NIL=
201711150600 METAR MRLM NIL=
201711150700 METAR MRLM NIL=
201711150800 METAR MRLM NIL=
201711150900 METAR MRLM NIL=
201711151000 METAR MRLM NIL=
201711151100 METAR MRLM NIL=
201711151200 METAR MRLM 151200Z 26003KT CAVOK 23/22 A2977=
201711151300 METAR MRLM 151300Z 30003KT CAVOK 24/22 A2980=
201711151400 METAR MRLM 151400Z 28003KT CAVOK 27/23 A2983=
201711151500 METAR MRLM 151500Z 32010KT CAVOK 28/22 A2985=
201711151600 METAR MRLM 151600Z 32010KT 9999 FEW030 BKN230 30/23 A2984=
201711151700 METAR MRLM 151700Z 32010KT 9999 SCT030 SCT130 31/23 A2982=
201711151800 METAR MRLM 151800Z 36013KT 9999 FEW030 SCT130 31/22 A2979=
201711151900 METAR MRLM 151900Z 34010KT 9999 BKN025 SCT120 28/23 A2977=
201711152000 METAR MRLM 152000Z 34010KT 9999 FEW025 BKN110 28/23 A2976=
201711152100 METAR MRLM 152100Z 28005KT 9999 FEW020 BKN110 27/22 A2976=
201711152200 METAR MRLM 152200Z 29003KT 9999 FEW020 SCT120 BKN200 28/22 A2975=
201711152300 METAR MRLM 152300Z 29003KT CAVOK 27/21 A2977=
201711160000 METAR MRLM NIL=
201711160100 METAR MRLM NIL=
201711160200 METAR MRLM NIL=
201711160300 METAR MRLM NIL=
201711160400 METAR MRLM NIL=
201711160500 METAR MRLM NIL=
201711160600 METAR MRLM NIL=
201711160700 METAR MRLM NIL=
201711160800 METAR MRLM NIL=
201711160900 METAR MRLM NIL=
201711161000 METAR MRLM NIL=
201711161100 METAR MRLM NIL=
201711161200 METAR MRLM 161200Z 30006KT CAVOK 25/21 A2983=
201711161300 METAR MRLM 161300Z 30004KT CAVOK 27/21 A2984=
201711161400 METAR MRLM 161400Z 31008KT CAVOK 28/22 A2988=
201711161500 METAR MRLM 161500Z 31010KT CAVOK 29/22 A2989=
201711161600 METAR MRLM 161600Z 31010KT 9999 FEW030 SCT120 BKN220 31/22 A2988=
201711161700 METAR MRLM 161700Z 33007KT 9999 FEW030 BKN120 30/23 A2988=
201711161800 METAR MRLM 161800Z 28006KT 9999 FEW025 BKN120 28/23 A2985=
201711161900 METAR MRLM 161900Z 35012KT 9999 FEW025 SCT130 BKN240 31/21 A2982=
201711162000 METAR MRLM 162000Z 35011KT 9999 FEW025 BKN240 30/21 A2980=
201711162100 METAR MRLM 162100Z 33010KT 9999 FEW020 BKN230 27/22 A2982=
201711162200 METAR MRLM 162200Z 27006KT 9999 FEW020 SCT110 BKN220 26/21 A2982=
201711162300 METAR MRLM 162300Z 27003KT 9999 FEW020 SCT110 BKN220 26/21 A2984=
201711170000 METAR MRLM 170000Z 25004KT 9999 FEW015 SCT100 BKN200 25/22 A2985=
201711170100 METAR MRLM NIL=
201711170200 METAR MRLM NIL=
201711170300 METAR MRLM NIL=
201711170400 METAR MRLM NIL=
201711170500 METAR MRLM NIL=
201711170600 METAR MRLM NIL=
201711170700 METAR MRLM NIL=
201711170800 METAR MRLM NIL=
201711170900 METAR MRLM NIL=
201711171000 METAR MRLM NIL=
201711171100 METAR MRLM NIL=
201711171200 METAR MRLM 171200Z 29004KT 9999 BKN015 23/20 A2989=
201711171300 METAR MRLM 171300Z 33009KT 9999 -DZ VCSH BKN015 24/22 A2991=
201711171400 METAR MRLM 171400Z 27004KT 9999 -DZ VCSH SCT015 BKN100 23/22 A2994=
201711171500 METAR MRLM 171500Z 30008KT 9999 FEW020 BKN110 27/21 A2994=
201711171600 METAR MRLM 171600Z 31006KT CAVOK 30/21 A2993=
201711171700 METAR MRLM 171700Z 33011KT 9999 FEW030 SCT250 30/21 A2991=
201711171800 METAR MRLM 171800Z 33007KT 9999 FEW030 SCT250 31/21 A2988=
201711171900 METAR MRLM 171900Z 36012KT 9999 FEW030 SCT250 30/21 A2984=
201711172000 METAR MRLM 172000Z 35011KT 9999 FEW030 SCT250 30/20 A2982=
201711172100 METAR MRLM 172100Z 35012KT CAVOK 29/22 A2981=
201711172200 METAR MRLM 172200Z 34009KT CAVOK 28/21 A2982=
201711172300 METAR MRLM 172300Z 34008KT CAVOK 27/21 A2984=
201711180000 METAR MRLM 180000Z 32005KT 9999 FEW015 BKN220 26/22 A2985=
201711180100 METAR MRLM NIL=
201711180200 METAR MRLM NIL=
201711180300 METAR MRLM NIL=
201711180400 METAR MRLM NIL=
201711180500 METAR MRLM NIL=
201711180600 METAR MRLM NIL=
201711180700 METAR MRLM NIL=
201711180800 METAR MRLM NIL=
201711180900 METAR MRLM NIL=
201711181000 METAR MRLM NIL=
201711181100 METAR MRLM NIL=
201711181200 METAR MRLM 181200Z 26005KT 9999 FEW015 SCT110 21/18 A2986=
201711181300 METAR MRLM 181300Z 29006KT 9999 FEW015 BKN110 24/18 A2988=
201711181400 METAR MRLM 181400Z 30006KT 9999 FEW020 BKN120 25/20 A2990=
201711181500 METAR MRLM 181500Z 29007KT CAVOK 26/20 A2991=
201711181600 METAR MRLM 181600Z 31007KT CAVOK 29/21 A2990=
201711181700 METAR MRLM 181700Z 31006KT CAVOK 28/19 A2986=
201711181800 METAR MRLM 181800Z 31007KT CAVOK 30/19 A2983=
201711181900 METAR MRLM 181900Z 36012KT CAVOK 31/20 A2979=
201711182000 METAR MRLM 182000Z 01014KT CAVOK 30/22 A2977=
201711182100 METAR MRLM 182100Z 01014KT CAVOK 29/22 A2977=
201711182200 METAR MRLM 182200Z 36013KT 9999 FEW020 SCT130 29/22 A2978=
201711182300 METAR MRLM 182300Z 05015KT CAVOK 27/23 A2978=
201711190000 METAR MRLM 190000Z 01007KT CAVOK 26/22 A2979=
201711190100 METAR MRLM NIL=
201711190200 METAR MRLM NIL=
201711190300 METAR MRLM NIL=
201711190400 METAR MRLM NIL=
201711190500 METAR MRLM NIL=
201711190600 METAR MRLM NIL=
201711190700 METAR MRLM NIL=
201711190800 METAR MRLM NIL=
201711190900 METAR MRLM NIL=
201711191000 METAR MRLM NIL=
201711191100 METAR MRLM NIL=
201711191200 METAR MRLM 191200Z 25005KT CAVOK 21/19 A2983=
201711191300 METAR MRLM 191300Z 26005KT CAVOK 24/20 A2985=
201711191400 METAR MRLM 191400Z 27003KT CAVOK 28/20 A2986=
201711191500 METAR MRLM 191500Z 33007KT CAVOK 30/21 A2988=
201711191600 METAR MRLM 191600Z 34009KT 9999 FEW030 30/21 A2987=
201711191700 METAR MRLM 191700Z 01014KT 9999 FEW030 30/22 A2984=
201711191800 METAR MRLM 191800Z 35012KT 9999 FEW030 30/22 A2982=
201711191900 METAR MRLM 191900Z 36014KT CAVOK 30/21 A2979=
201711192000 METAR MRLM 192000Z 34011KT CAVOK 30/22 A2977=
201711192100 METAR MRLM 192100Z 34012KT CAVOK 29/22 A2976=
201711192200 METAR MRLM 192200Z 35011KT CAVOK 29/21 A2976=
201711192300 METAR MRLM 192300Z 33006KT 9999 FEW025 SCT120 27/22 A2978=
201711200000 METAR MRLM 200000Z 33005KT 9999 FEW020 26/22 A2981=
201711200100 METAR MRLM NIL=
201711200200 METAR MRLM NIL=
201711200300 METAR MRLM NIL=
201711200400 METAR MRLM NIL=
201711200500 METAR MRLM NIL=
201711200600 METAR MRLM NIL=
201711200700 METAR MRLM NIL=
201711200800 METAR MRLM NIL=
201711200900 METAR MRLM NIL=
201711201000 METAR MRLM NIL=
201711201100 METAR MRLM NIL=
201711201200 METAR MRLM 201200Z 31006KT 9999 FEW015 BKN090 25/20 A2985=
201711201300 METAR MRLM 201300Z 30006KT 9999 FEW015 BKN090 25/21 A2987=
201711201400 METAR MRLM 201400Z 31007KT CAVOK 27/21 A2988=
201711201500 METAR MRLM 201500Z 32010KT CAVOK 29/22 A2988=
201711201600 METAR MRLM 201600Z 33009KT 9999 FEW020 BKN120 28/22 A2988=
201711201700 METAR MRLM 201700Z 34010KT 9999 FEW020 BKN120 29/22 A2986=
201711201800 METAR MRLM 201800Z 31008KT 9999 FEW020 BKN110 28/22 A2983=
201711201900 METAR MRLM 201900Z 33009KT CAVOK 29/22 A2981=
201711202000 METAR MRLM 202000Z 33009KT 9999 FEW020 BKN110 28/22 A2979=
201711202100 METAR MRLM 202100Z 32005KT 9999 FEW020 BKN110 27/22 A2978=
201711202200 METAR MRLM 202200Z 33006KT 9999 FEW015 BKN110 27/22 A2979=
201711202300 METAR MRLM 202300Z 31005KT 9999 FEW015TCU BKN100 27/22 A2980=
201711210000 METAR MRLM 210000Z 32006KT 9999 SCT015 BKN100 25/22 A2981=
201711210100 METAR MRLM NIL=
201711210200 METAR MRLM NIL=
201711210300 METAR MRLM NIL=
201711210400 METAR MRLM NIL=
201711210500 METAR MRLM NIL=
201711210600 METAR MRLM NIL=
201711210700 METAR MRLM NIL=
201711210800 METAR MRLM NIL=
201711210900 METAR MRLM NIL=
201711211000 METAR MRLM NIL=
201711211100 METAR MRLM NIL=
201711211200 METAR MRLM 211200Z 30003KT CAVOK 22/21 A2982=
201711211300 METAR MRLM 211300Z 30003KT CAVOK 25/21 A2985=
201711211400 METAR MRLM 211400Z 30007KT 9999 FEW025 SCT120 27/22 A2986=
201711211500 METAR MRLM 211500Z 31009KT CAVOK 28/22 A2986=
201711211600 METAR MRLM 211600Z 33008KT 9999 FEW030 30/22 A2985=
201711211700 METAR MRLM 211700Z 32007KT 9999 FEW030 30/23 A2984=
201711211800 METAR MRLM 211800Z 01013KT 9999 FEW030 30/23 A2981=
201711211900 METAR MRLM 211900Z 01016KT 9999 FEW030 29/23 A2978=
201711212000 METAR MRLM 212000Z 35013KT 9999 FEW030 29/23 A2976=
201711212100 METAR MRLM 212100Z 35011KT CAVOK 28/23 A2976=
201711212200 METAR MRLM 212200Z 33007KT 9999 FEW020 SCT120 27/23 A2978=
201711212300 METAR MRLM 212300Z 32004KT 9999 FEW020 SCT120 27/23 A2980=
201711220000 METAR MRLM 220000Z 29003KT 9999 FEW015 SCT110 BKN200 26/23 A2981=
201711220100 METAR MRLM NIL=
201711220200 METAR MRLM NIL=
201711220300 METAR MRLM NIL=
201711220400 METAR MRLM NIL=
201711220500 METAR MRLM NIL=
201711220600 METAR MRLM NIL=
201711220700 METAR MRLM NIL=
201711220800 METAR MRLM NIL=
201711220900 METAR MRLM NIL=
201711221000 METAR MRLM NIL=
201711221100 METAR MRLM NIL=
201711221200 METAR MRLM 221200Z 27003KT CAVOK 24/22 A2983=
201711221300 METAR MRLM 221300Z 26003KT CAVOK 27/22 A2985=
201711221400 METAR MRLM 221400Z 32005KT CAVOK 28/22 A2988=
201711221500 METAR MRLM 221500Z 31008KT CAVOK 29/22 A2990=
201711221600 METAR MRLM 221600Z 31006KT 9999 FEW030 BKN140 30/23 A2988=
201711221700 METAR MRLM 221700Z 02011KT 9999 FEW030 SCT140 31/23 A2985=
201711221800 METAR MRLM 221800Z 01012KT 9999 FEW030 SCT140 BKN250 31/23 A2983=
201711221900 METAR MRLM 221900Z 02011KT 9999 FEW030 30/22 A2979=
201711222000 METAR MRLM 222000Z 01008KT CAVOK 29/23 A2977=
201711222100 METAR MRLM 222100Z 35010KT CAVOK 29/23 A2977=
201711222200 METAR MRLM 222200Z 33006KT 9999 SCT020 BKN120 28/24 A2978=
201711222300 METAR MRLM 222300Z 35006KT 9999 FEW020 BKN130 28/23 A2980=
201711230000 METAR MRLM 230000Z 24003KT 9999 FEW020 BKN120 26/23 A2982=
201711230100 METAR MRLM NIL=
201711230200 METAR MRLM NIL=
201711230300 METAR MRLM NIL=
201711230400 METAR MRLM NIL=
201711230500 METAR MRLM NIL=
201711230600 METAR MRLM NIL=
201711230700 METAR MRLM NIL=
201711230800 METAR MRLM NIL=
201711230900 METAR MRLM NIL=
201711231000 METAR MRLM NIL=
201711231100 METAR MRLM NIL=
201711231200 METAR MRLM 231200Z 00000KT 9999 FEW020 BKN120 23/22 A2985=
201711231300 METAR MRLM 231300Z 25002KT 9999 FEW020 BKN120 25/23 A2986=
201711231400 METAR MRLM 231400Z 30004KT 9999 FEW020 BKN130 27/23 A2987=
201711231500 METAR MRLM 231500Z 32008KT 9999 FEW025 BKN130 28/22 A2987=
201711231600 METAR MRLM 231600Z 35007KT 9999 SCT020 BKN110 28/23 A2988=
201711231700 METAR MRLM 231700Z 34008KT 9999 SCT020 BKN120 28/23 A2986=
201711231800 METAR MRLM 231800Z 34011KT 9999 BKN015 26/22 A2984=
201711231900 METAR MRLM 231900Z 32006KT 9999 BKN015 26/22 A2981=
201711232000 METAR MRLM 232000Z 31006KT 9999 -DZ BKN010 26/22 A2981=
201711232100 METAR MRLM 232100Z 35007KT 9999 DZ BKN010 25/23 A2980=
201711232200 METAR MRLM 232200Z 29003KT 9999 -DZ OVC015 25/23 A2981=
201711232300 METAR MRLM 232300Z 31004KT 9999 FEW015 BKN110 24/23 A2981=
201711240000 METAR MRLM 240000Z 29005KT 9999 -DZ SCT015 BKN110 24/22 A2984=
201711240100 METAR MRLM NIL=
201711240200 METAR MRLM NIL=
201711240300 METAR MRLM NIL=
201711240400 METAR MRLM NIL=
201711240500 METAR MRLM NIL=
201711240600 METAR MRLM NIL=
201711240700 METAR MRLM NIL=
201711240800 METAR MRLM NIL=
201711240900 METAR MRLM NIL=
201711241000 METAR MRLM NIL=
201711241100 METAR MRLM NIL=
201711241200 METAR MRLM 241200Z 30002KT 9999 -DZ SCT015 OVC100 23/22 A2986=
201711241300 METAR MRLM 241300Z 27003KT 9999 -DZ SCT015 OVC100 23/22 A2988=
201711241400 METAR MRLM 241400Z 27005KT 9999 FEW015 BKN100 25/23 A2989=
201711241500 METAR MRLM 241500Z 31002KT 8000 -DZ SCT015 BKN110 26/23 A2991=
201711241600 METAR MRLM 241600Z 32004KT 8000 DZ SCT015 BKN110 25/23 A2991=
201711241700 METAR MRLM 241700Z 31006KT 9999 -DZ SCT015 BKN110 26/23 A2989=
201711241800 METAR MRLM 241800Z 30005KT 9999 FEW020 BKN120 26/23 A2987=
201711241900 METAR MRLM 241900Z 30005KT 9999 -DZ FEW020 BKN120 26/23 A2985=
201711242000 METAR MRLM 242000Z 30006KT 9999 FEW020 BKN120 26/23 A2982=
201711242100 METAR MRLM 242100Z 27004KT 9999 FEW020 BKN120 27/23 A2981=
201711242200 METAR MRLM 242200Z 31004KT 9999 FEW020 BKN120 27/23 A2981=
201711242300 METAR MRLM 242300Z 31004KT 9999 VCSH SCT015 BKN110 26/24 A2983=
201711250000 METAR MRLM 250000Z 20002KT 9999 BKN015 SCT100 25/24 A2983=
201711250100 METAR MRLM NIL=
201711250200 METAR MRLM NIL=
201711250300 METAR MRLM NIL=
201711250400 METAR MRLM NIL=
201711250500 METAR MRLM NIL=
201711250600 METAR MRLM NIL=
201711250700 METAR MRLM NIL=
201711250800 METAR MRLM NIL=
201711250900 METAR MRLM NIL=
201711251000 METAR MRLM NIL=
201711251100 METAR MRLM NIL=
201711251200 METAR MRLM 251200Z 28004KT 9999 FEW010 BKN100 23/22 A2987=
201711251300 METAR MRLM 251300Z 28004KT 9999 VCTS FEW010 BKN100 24/23 A2990=
201711251400 METAR MRLM 251400Z 31004KT 9999 VCTS FEW015 BKN110 26/23 A2991=
201711251500 METAR MRLM 251500Z 33006KT 9999 FEW015 BKN110 26/23 A2993=
201711251600 METAR MRLM 251600Z 31007KT 9999 -DZ FEW015 OVC110 25/23 A2991=
201711251700 METAR MRLM 251700Z 32006KT 9999 DZ SCT015 OVC100 25/23 A2990=
201711251800 METAR MRLM 251800Z 30008KT 9999 FEW015 BKN100 26/23 A2985=
201711251900 METAR MRLM 251900Z 32010KT 9999 SCT015 BKN100 26/22 A2983=
201711252000 METAR MRLM 252000Z 32007KT 9999 -DZ SCT015 BKN100 25/23 A2981=
201711252100 METAR MRLM 252100Z 32006KT 9999 SCT015 BKN110 26/23 A2979=
201711252200 METAR MRLM 252200Z 30003KT 9999 FEW015 BKN110 25/23 A2980=
201711252300 METAR MRLM 252300Z 31006KT 9999 FEW015 SCT110 BKN200 25/23 A2981=
201711260000 METAR MRLM 260000Z 32005KT 9999 FEW010 SCT100 BKN200 25/22 A2983=
201711260100 METAR MRLM NIL=
201711260200 METAR MRLM NIL=
201711260300 METAR MRLM NIL=
201711260400 METAR MRLM NIL=
201711260500 METAR MRLM NIL=
201711260600 METAR MRLM NIL=
201711260700 METAR MRLM NIL=
201711260800 METAR MRLM NIL=
201711260900 METAR MRLM NIL=
201711261000 METAR MRLM NIL=
201711261100 METAR MRLM NIL=
201711261200 METAR MRLM 261200Z 31007KT 9999 FEW015 BKN100 24/22 A2985=
201711261300 METAR MRLM 261300Z 32007KT 9999 FEW015 BKN100 24/22 A2988=
201711261400 METAR MRLM 261400Z 31008KT 9999 FEW015 BKN110 25/22 A2989=
201711261500 METAR MRLM 261500Z 29007KT CAVOK 27/23 A2989=
201711261600 METAR MRLM 261600Z 31005KT CAVOK 28/23 A2988=
201711261700 METAR MRLM 261700Z 31006KT CAVOK 28/23 A2986=
201711261800 METAR MRLM 261800Z 31006KT CAVOK 29/23 A2983=
201711261900 METAR MRLM 261900Z 36005KT FEW030 BKN130 29/24 A2980=
201711262000 METAR MRLM 262000Z 34008KT FEW030 BKN120 29/24 A2978=
201711262100 METAR MRLM 262100Z 01013KT FEW030 BKN130 28/24 A2977=
201711262200 METAR MRLM 262200Z 32006KT CAVOK 28/23 A2977=
201711262300 METAR MRLM 262300Z 34006KT CAVOK 27/24 A2978=
201711270000 METAR MRLM 270000Z 32006KT 9999 FEW020 BKN130 26/24 A2981=
201711270100 METAR MRLM NIL=
201711270200 METAR MRLM NIL=
201711270300 METAR MRLM NIL=
201711270400 METAR MRLM NIL=
201711270500 METAR MRLM NIL=
201711270600 METAR MRLM NIL=
201711270700 METAR MRLM NIL=
201711270800 METAR MRLM NIL=
201711270900 METAR MRLM NIL=
201711271000 METAR MRLM NIL=
201711271100 METAR MRLM NIL=
201711271200 METAR MRLM 271200Z 30003KT CAVOK 24/22 A2981=
201711271300 METAR MRLM 271300Z 32008KT 9999 FEW020 SCT130 BKN230 25/22 A2985=
201711271400 METAR MRLM 271400Z 31008KT 9999 FEW020 SCT130 BKN230 26/23 A2988=
201711271500 METAR MRLM 271500Z 30006KT 9999 BKN020 26/22 A2989=
201711271600 METAR MRLM 271600Z 29006KT 9999 FEW020 BKN130 26/22 A2988=
201711271700 METAR MRLM 271700Z 29006KT 9999 FEW020 BKN130 27/22 A2985=
201711271800 METAR MRLM 271800Z 29007KT 9999 FEW025 SCT140 BKN230 27/21 A2983=
201711271900 METAR MRLM 271900Z 30006KT 9999 FEW025 SCT140 BKN230 28/21 A2978=
201711272000 METAR MRLM 272000Z 35014KT 9999 SCT020 SCT130 26/23 A2977=
201711272100 METAR MRLM 272100Z 31009KT 9999 4000N DZ SCT015 SCT110 25/21 A2978=
201711272200 METAR MRLM 272200Z 30007KT 9999 4000N DZ BKN015 24/22 A2978=
201711272300 METAR MRLM 272300Z 31006KT 3000 +RA FEW010 BKN015 24/22 A2980=
201711280000 METAR MRLM 280000Z 29008KT 3000 +DZ BKN010 23/22 A2982=
201711280100 METAR MRLM NIL=
201711280200 METAR MRLM NIL=
201711280300 METAR MRLM NIL=
201711280400 METAR MRLM NIL=
201711280500 METAR MRLM NIL=
201711280600 METAR MRLM NIL=
201711280700 METAR MRLM NIL=
201711280800 METAR MRLM NIL=
201711280900 METAR MRLM NIL=
201711281000 METAR MRLM NIL=
201711281100 METAR MRLM NIL=
201711281200 METAR MRLM 281200Z 29009KT 8000 DZ SCT010 BKN080 23/21 A2984=
201711281300 METAR MRLM 281300Z 29007KT 9999 SCT010 BKN080 23/22 A2987=
201711281400 METAR MRLM 281400Z 30008KT 9999 -DZ SCT010 BKN080 24/21 A2989=
201711281500 METAR MRLM 281500Z 30008KT 9999 FEW015 BKN090 25/22 A2989=
201711281600 METAR MRLM 281600Z 30010KT 9999 FEW015 BKN090 26/22 A2989=
201711281700 METAR MRLM 281700Z 31012KT 9999 FEW015 BKN090 26/21 A2988=
201711281800 METAR MRLM 281800Z 31009KT 9999 FEW015 BKN100 26/21 A2985=
201711281900 METAR MRLM 281900Z 31010KT 9999 FEW020 BKN100 26/21 A2982=
201711282000 METAR MRLM 282000Z 31011KT 9999 FEW020 BKN100 26/22 A2980=
201711282100 METAR MRLM 282100Z 30008KT 9999 -DZ FEW020 BKN110 25/22 A2978=
201711282200 METAR MRLM 282200Z 30007KT 9999 FEW020 BKN110 25/22 A2980=
201711282300 METAR MRLM 282300Z 29008KT 9999 DZ SCT015 BKN100 24/22 A2982=
201711290000 METAR MRLM 290000Z 29005KT 9000 -DZ SCT010 BKN090 23/22 A2984=
201711290100 METAR MRLM NIL=
201711290200 METAR MRLM NIL=
201711290300 METAR MRLM NIL=
201711290400 METAR MRLM NIL=
201711290500 METAR MRLM NIL=
201711290600 METAR MRLM NIL=
201711290700 METAR MRLM NIL=
201711290800 METAR MRLM NIL=
201711290900 METAR MRLM NIL=
201711291000 METAR MRLM NIL=
201711291100 METAR MRLM NIL=
201711291200 METAR MRLM 291200Z 32005KT 9999 VCSH SCT010 OVC100 24/22 A2984=
201711291300 METAR MRLM 291300Z 32008KT 8000 DZ SCT010 OVC100 24/22 A2987=
201711291400 METAR MRLM 291400Z 30006KT 9000 DZ FEW010 OVC100 24/23 A2989=
201711291500 METAR MRLM 291500Z 31005KT 7000 DZ FEW010 OVC100 24/23 A2990=
201711291600 METAR MRLM 291600Z 29004KT 6000 +DZ FEW010 OVC100 24/23 A2990=
201711291700 METAR MRLM 291700Z 25005KT 7000 DZ FEW010 OVC090 24/23 A2989=
201711291800 METAR MRLM 291800Z 23005KT 9999 -DZ FEW015 OVC090 24/23 A2988=
201711291900 METAR MRLM 291900Z 23005KT 9999 FEW015 BKN100 25/23 A2984 REDZ=
201711292000 METAR MRLM 292000Z 23005KT 9999 FEW015 BKN100 26/23 A2980=
201711292100 METAR MRLM 292100Z 24004KT 9999 FEW015 BKN110 26/23 A2979=
201711292200 METAR MRLM 292200Z 28002KT 9999 FEW015 BKN110 26/24 A2979=
201711292300 METAR MRLM 292300Z 27003KT CAVOK 26/24 A2979=
201711300000 METAR MRLM 300000Z 24004KT CAVOK 25/23 A2981=
201711300100 METAR MRLM NIL=
201711300200 METAR MRLM NIL=
201711300300 METAR MRLM NIL=
201711300400 METAR MRLM NIL=
201711300500 METAR MRLM NIL=
201711300600 METAR MRLM NIL=
201711300700 METAR MRLM NIL=
201711300800 METAR MRLM NIL=
201711300900 METAR MRLM NIL=
201711301000 METAR MRLM NIL=
201711301100 METAR MRLM NIL=
201711301200 METAR MRLM 301200Z 29004KT 9999 FEW015 BKN090 23/21 A2985=
201711301300 METAR MRLM 301300Z 25004KT 9999 FEW015 BKN100 24/22 A2988=
201711301400 METAR MRLM 301400Z 00000KT 9999 FEW015 BKN100 25/23 A2992=
201711301500 METAR MRLM 301500Z 00000KT 9999 VCSH FEW015 BKN100 25/22 A2991=
201711301600 METAR MRLM 301600Z 14007KT 9999 FEW015 SCT110 BKN200 25/23 A2991 REDZ=
201711301700 METAR MRLM 301700Z 08003KT 9999 FEW015 BKN120 27/23 A2988=
201711301800 METAR MRLM 301800Z 04004KT CAVOK 27/23 A2984 NOSIG=
201711301900 METAR MRLM 301900Z 05005KT 9999 FEW020 BKN120 27/23 A2981=
201711302000 METAR MRLM 302000Z 04007KT 9999 DZ SCCT015 BKN110 27/24 A2980=
201711302100 METAR MRLM 302100Z 01012KT 9999 4000N DZ BKN015 26/23 A2979=
201711302200 METAR MRLM 302200Z 28004KT 9999 SCT020 BKN0110 26/22 A2979 REDZ=
201711302300 METAR MRLM 302300Z 27004KT 9999 FEW020 BKN120 25/22 A2981=
201712010000 METAR MRLM 010000Z 29002KT 9999 SCT015 BKN110 24/22 A2985=
201712010100 METAR MRLM NIL=
201712010200 METAR MRLM NIL=
201712010300 METAR MRLM NIL=
201712010400 METAR MRLM NIL=
201712010500 METAR MRLM NIL=
201712010600 METAR MRLM NIL=
201712010700 METAR MRLM NIL=
201712010800 METAR MRLM NIL=
201712010900 METAR MRLM NIL=
201712011000 METAR MRLM NIL=
201712011100 METAR MRLM NIL=
201712011200 METAR MRLM 011200Z 24006KT 9999 FEW015 BKN080 23/22 A2986=
201712011300 METAR MRLM 011300Z 28005KT 9999 FEW015 BKN110 23/22 A2989=
201712011400 METAR MRLM 011400Z 28005KT 9999 SCT015 BKN110 24/22 A2992=
201712011500 METAR MRLM 011500Z 27004KT 9999 SCT020 BKN120 26/22 A2994=
201712011600 METAR MRLM 011600Z 25004KT 9999 FEW020 BKN120 28/23 A2992=
201712011700 METAR MRLM 011700Z 28002KT 9999 SCT030 SCT130 30/22 A2991=
201712011800 METAR MRLM 011800Z 07003KT 9999 FEW030 30/22 A2987=
201712011900 METAR MRLM 011900Z 06003KT 9999 FEW030 29/22 A2985=
201712012000 METAR MRLM 012000Z 03005KT CAVOK 30/22 A2982=
201712012100 METAR MRLM 012100Z 03006KT CAVOK 29/22 A2980=
201712012200 METAR MRLM 012200Z 03006KT CAVOK 29/22 A2980=
201712012300 METAR MRLM 012300Z 02005KT CAVOK 28/22 A2982=
201712020000 METAR MRLM 020000Z 26002KT CAVOK 24/23 A2985=
201712020100 METAR MRLM NIL=
201712020200 METAR MRLM NIL=
201712020300 METAR MRLM NIL=
201712020400 METAR MRLM NIL=
201712020500 METAR MRLM NIL=
201712020600 METAR MRLM NIL=
201712020700 METAR MRLM NIL=
201712020800 METAR MRLM NIL=
201712020900 METAR MRLM NIL=
201712021000 METAR MRLM NIL=
201712021100 METAR MRLM NIL=
201712021200 METAR MRLM 021200Z 27003KT 9999 FEW015 BKN100 21/19 A2987=
201712021300 METAR MRLM 021300Z 24005KT 9999 FEW015 BKN100 22/20 A2988=
201712021400 METAR MRLM 021400Z 27002KT 9999 FEW015 BKN100 24/20 A2991=
201712021500 METAR MRLM 021500Z 25004KT CAVOK 26/22 A2990=
201712021600 METAR MRLM 021600Z 29003KT CAVOK 29/23 A2989=
201712021700 METAR MRLM 021700Z 06006KT 9999 FEW025 SCT130 29/22 A2987=
201712021800 METAR MRLM 021800Z 03009KT 9999 FEW030 30/22 A2985=
201712021900 METAR MRLM 021900Z 02007KT CAVOK 29/21 A2982=
201712022000 METAR MRLM 022000Z 02006KT CAVOK 29/22 A2980=
201712022100 METAR MRLM 022100Z 01006KT CAVOK 29/22 A2979=
201712022200 METAR MRLM 022200Z 36007KT CAVOK 28/23 A2980=
201712022300 METAR MRLM 022300Z 33005KT CAVOK 27/23 A2981=
201712030000 METAR MRLM 030000Z 29002KT 9999 FEW015 OVC100 26/23 A2982=
201712030100 METAR MRLM NIL=
201712030200 METAR MRLM NIL=
201712030300 METAR MRLM NIL=
201712030400 METAR MRLM NIL=
201712030500 METAR MRLM NIL=
201712030600 METAR MRLM NIL=
201712030700 METAR MRLM NIL=
201712030800 METAR MRLM NIL=
201712030900 METAR MRLM NIL=
201712031000 METAR MRLM NIL=
201712031100 METAR MRLM NIL=
201712031200 METAR MRLM 031200Z 28004KT CAVOK 21/20 A2987=
201712031300 METAR MRLM 031300Z 29004KT 9999 FEW015 BKN100 22/21 A2988=
201712031400 METAR MRLM 031400Z 28003KT 9999 FEW015 BKN100 24/22 A2990=
201712031500 METAR MRLM 031500Z 33005KT 9999 FEW020 BKN100 26/22 A2987=
201712031600 METAR MRLM 031600Z 32005KT 9999 FEW025 BKN120 29/22 A2987=
201712031700 METAR MRLM 031700Z 34008KT 9999 VCSH SCT020 BKN120 29/23 A2984=
201712031800 METAR MRLM 031800Z 14011KT 9999 SCT015 OVC090 24/22 A2983 RERA=
201712031900 METAR MRLM 031900Z 24004KT 9999 SCT015 OVC090 25/22 A2981=
201712032000 METAR MRLM 032000Z 25003KT 9999 SCT020 BKN100 25/22 A2980=
201712032100 METAR MRLM 032100Z 23004KT 9999 FEW020 BKN100 26/22 A2978=
201712032200 METAR MRLM 032200Z 23003KT 9999 FEW020 BKN100 26/22 A2976=
201712032300 METAR MRLM 032300Z 00000KT 9999 FEW020 BKN100 26/23 A2977=
201712040000 METAR MRLM 040000Z 27002KT 9999 SCT015 SCT090 24/23 A2978=
201712040100 METAR MRLM NIL=
201712040200 METAR MRLM NIL=
201712040300 METAR MRLM NIL=
201712040400 METAR MRLM NIL=
201712040500 METAR MRLM NIL=
201712040600 METAR MRLM NIL=
201712040700 METAR MRLM NIL=
201712040800 METAR MRLM NIL=
201712040900 METAR MRLM NIL=
201712041000 METAR MRLM NIL=
201712041100 METAR MRLM NIL=
201712041200 METAR MRLM 041200Z 27002KT CAVOK 23/21 A2982=
201712041300 METAR MRLM 041300Z 26003KT CAVOK 25/21 A2985=
201712041400 METAR MRLM 041400Z 29002KT 9999 FEW020 SCT130 27/22 A2987=
201712041500 METAR MRLM 041500Z 07008KT 9999 SCT020 BKN100 26/22 A2989=
201712041600 METAR MRLM 041600Z 07002KT 9999 FEW020 BKN100 26/22 A2988=
201712041700 METAR MRLM 041700Z 12006KT 9999 SCT020 SCT110 27/23 A2988=
201712041800 METAR MRLM 041800Z 11004KT 9999 FEW020 BKN120 27/23 A2982=
201712041900 METAR MRLM 041900Z 11006KT 9999 -DZ BKN015 26/23 A2981=
201712042000 METAR MRLM 042000Z 36005KT 9999 BKN020 27/22 A2979=
201712042100 METAR MRLM 042100Z 29005KT 9999 BKN015 25/23 A2979=
201712042200 METAR MRLM 042200Z 27004KT 8000 DZ BKN010 25/23 A2978=
201712042300 METAR MRLM 042300Z 03005KT 2000 +RA OVC010 25/23 A2982=
201712050000 METAR MRLM 050000Z 27005KT 3000 DZ OVC010 23/22 A2984 RERA=
201712050100 METAR MRLM NIL=
201712050200 METAR MRLM NIL=
201712050300 METAR MRLM NIL=
201712050400 METAR MRLM NIL=
201712050500 METAR MRLM NIL=
201712050600 METAR MRLM NIL=
201712050700 METAR MRLM NIL=
201712050800 METAR MRLM NIL=
201712050900 METAR MRLM NIL=
201712051000 METAR MRLM NIL=
201712051100 METAR MRLM NIL=
201712051200 METAR MRLM 051200Z 20002KT 8000 DZ BKN010 23/22 A2984=
201712051300 METAR MRLM 051300Z 29002KT 9999 VCSH SCT015 SCT100 23/22 A2986 REDZ=
201712051400 METAR MRLM 051400Z 25003KT 9999 BKN015 SCT110 25/23 A2988=
201712051500 METAR MRLM 051500Z 34002KT 9999 DZ SCT020 BKN110 26/23 A2988=
201712051600 METAR MRLM 051600Z 02003KT 9999 FEW020 BKN120 28/24 A2987 REDZ=
201712051700 METAR MRLM 051700Z 33003KT CAVOK 29/23 A2985 NOSIG=
201712051800 METAR MRLM 051800Z 03009KT 9999 FEW020 BKN120 27/24 A2983=
201712051900 METAR MRLM 051900Z 05004KT 9999 SCT020 BKN110 28/24 A2980=
201712052000 METAR MRLM 052000Z 03010KT 9999 FEW020 BKN110 28/24 A2979=
201712052100 METAR MRLM 052100Z 01010KT CAVOK 28/24 A2977=
201712052200 METAR MRLM 052200Z 33004KT CAVOK 27/23 A2977=
201712052300 METAR MRLM 052300Z 31006KT 9999 -DZ FEW020 BKN100 26/22 A2976=
201712060000 METAR MRLM 060000Z 29003KT 9999 SCT015 BKN100 25/22 A2977=
201712060100 METAR MRLM NIL=
201712060200 METAR MRLM NIL=
201712060300 METAR MRLM NIL=
201712060400 METAR MRLM NIL=
201712060500 METAR MRLM NIL=
201712060600 METAR MRLM NIL=
201712060700 METAR MRLM NIL=
201712060800 METAR MRLM NIL=
201712060900 METAR MRLM NIL=
201712061000 METAR MRLM NIL=
201712061100 METAR MRLM NIL=
201712061200 METAR MRLM 061200Z 26003KT 9999 FEW015 SCT090 22/21 A2982=
201712061300 METAR MRLM 061300Z 00000KT 9999 FEW015 BKN090 25/21 A2984=
201712061400 METAR MRLM 061400Z 28003KT CAVOK 27/23 A2983=
201712061500 METAR MRLM 061500Z 34002KT CAVOK 29/22 A2981=
201712061600 METAR MRLM 061600Z 05012KT CAVOK 28/24 A2983=
201712061700 METAR MRLM 061700Z 06003KT CAVOK 28/23 A2982=
201712061800 METAR MRLM 061800Z 02010KT 9999 FEW030 SCT250 30/24 A2980=
201712061900 METAR MRLM 061900Z 34008KT 9999 FEW025 BKN250 30/24 A2980=
201712062000 METAR MRLM 062000Z 35009KT 9999 SCT020TCU BKN250 29/25 A2978=
201712062100 METAR MRLM 062100Z 36009KT 9999 SCT020 BKN240 28/25 A2976=
201712062200 METAR MRLM 062200Z 03008KT 9999 FEW020 BKN240 28/25 A2977=
201712062300 METAR MRLM 062300Z 09002KT 9999 FEW020 BKN240 27/24 A2979=
201712070000 METAR MRLM 070000Z 19003KT 9999 FEW015 SCT100 BKN220 26/24 A2979=
201712070100 METAR MRLM NIL=
201712070200 METAR MRLM NIL=
201712070300 METAR MRLM NIL=
201712070400 METAR MRLM NIL=
201712070500 METAR MRLM NIL=
201712070600 METAR MRLM NIL=
201712070700 METAR MRLM NIL=
201712070800 METAR MRLM NIL=
201712070900 METAR MRLM NIL=
201712071000 METAR MRLM NIL=
201712071100 METAR MRLM NIL=
201712071200 METAR MRLM 071200Z 25004KT 9999 FEW015 BKN080 23/21 A2982=
201712071300 METAR MRLM 071300Z 28002KT 9999 VCSH SCT015 BKN080 24/22 A2982=
201712071400 METAR MRLM 071400Z 07012KT 5000 RA OVC015 24/23 A2986=
201712071500 METAR MRLM 071500Z 16003KT 7000 DZ SCT015 OVC090 24/23 A2988 RERA=
201712071600 METAR MRLM 071600Z 17003KT 9999 FEW020 BKN100 26/23 A2983=
201712071700 METAR MRLM 071700Z 06002KT CAVOK 28/23 A2979=
201712071800 METAR MRLM 071800Z 06005KT CAVOK 28/23 A2976=
201712071900 METAR MRLM 071900Z 05008KT CAVOK 28/23 A2973=
201712072000 METAR MRLM 072000Z 03008KT CAVOK 28/24 A2972=
201712072100 METAR MRLM 072100Z 02009KT 9999 FEW020 BKN230 28/24 A2972=
201712072200 METAR MRLM 072200Z 01008KT 9999 FEW020 BKN230 28/24 A2972=
201712072300 METAR MRLM 072300Z 32004KT 9999 FEW020 BKN230 27/23 A2974=
201712080000 METAR MRLM 080000Z 32004KT 9999 FEW015 OVC220 27/24 A2975=
201712080100 METAR MRLM NIL=
201712080200 METAR MRLM NIL=
201712080300 METAR MRLM NIL=
201712080400 METAR MRLM NIL=
201712080500 METAR MRLM NIL=
201712080600 METAR MRLM NIL=
201712080700 METAR MRLM NIL=
201712081000 METAR MRLM NIL=
201712081100 METAR MRLM NIL=
201712081200 METAR MRLM 081200Z 31007KT 9999 FEW015 24/22 A2979=
201712081300 METAR MRLM 081300Z 32007KT 9999 OVC010 25/23 A2983=
201712081400 METAR MRLM 081400Z 31007KT 9999 BKN015 25/23 A2986=
201712081500 METAR MRLM 081500Z 30006KT 9999 OVC010 25/23 A2987=
201712081600 METAR MRLM 081600Z 29007KT 9999 BKN020 26/23 A2985=
201712081700 METAR MRLM 081700Z 29007KT 9999 SCT020 BKN110 28/24 A2983=
201712081800 METAR MRLM 081800Z 30007KT 9999 SCT025 29/24 A2981=
201712081900 METAR MRLM 081900Z 32006KT 9999 DZ BKN020 27/24 A2979=
201712082000 METAR MRLM 082000Z 31005KT 9999 SCT020 SCT120 27/24 A2976 REDZ=
201712082100 METAR MRLM 082100Z 31005KT 9999 FEW020 SCT120 BKN240 26/24 A2974=
201712082200 METAR MRLM 082200Z 33006KT 9999 FEW020 SCT130 BKN240 76/24 A2975=
201712082300 METAR MRLM 082300Z 32008KT 9999 FEW020 BKN110 26/24 A2977=
201712090000 METAR MRLM 090000Z 29004KT 9999 SCT015 BKN110 25/23 A2980=
201712090100 METAR MRLM NIL=
201712090200 METAR MRLM NIL=
201712090300 METAR MRLM NIL=
201712090400 METAR MRLM NIL=
201712090500 METAR MRLM NIL=
201712090600 METAR MRLM NIL=
201712090700 METAR MRLM NIL=
201712090800 METAR MRLM NIL=
201712090900 METAR MRLM NIL=
201712091000 METAR MRLM NIL=
201712091100 METAR MRLM NIL=
201712091200 METAR MRLM 091200Z 29005KT 9999 FEW015 BKN120 24/22 A2985=
201712091300 METAR MRLM 091300Z 29006KT 9999 FEW020 BKN120 25/22 A2987=
201712091400 METAR MRLM 091400Z 28006KT CAVOK 26/23 A2989=
201712091500 METAR MRLM 091500Z 31008KT 9999 FEW025 28/23 A2991=
201712091600 METAR MRLM 091600Z 31009KT 9999 FEW030 29/23 A2989=
201712091700 METAR MRLM 091700Z 33011KT 9999 SCT030 30/23 A2988=
201712091800 METAR MRLM 091800Z 33010KT 9999 SCT030 29/23 A2986=
201712091900 METAR MRLM 091900Z 34010KT 9999 FEW030 SCT240 29/23 A2984=
201712092000 METAR MRLM 092000Z 34009KT 9999 SCT030 SCT130 29/23 A2981=
201712092100 METAR MRLM 092100Z 01012KT 9999 SCT030 SCT240 28/24 A2981=
201712092200 METAR MRLM 092200Z 36012KT 9999 FEW025 SCT130 BKN240 28/24 A2982=
201712092300 METAR MRLM 092300Z 34007KT 9999 FEW020 SCT130 BKN230 27/24 A2984=
201712100000 METAR MRLM 100000Z 31004KT 9999 FEW015 SCT130 BKN230 26/23 A2988=
201712100100 METAR MRLM NIL=
201712100200 METAR MRLM NIL=
201712100300 METAR MRLM NIL=
201712100400 METAR MRLM NIL=
201712100500 METAR MRLM NIL=
201712100600 METAR MRLM NIL=
201712100700 METAR MRLM NIL=
201712100800 METAR MRLM NIL=
201712100900 METAR MRLM NIL=
201712101000 METAR MRLM NIL=
201712101100 METAR MRLM NIL=
201712101200 METAR MRLM 101200Z 30011KT 3000 +DZ OVC010 22/20 A2994=
201712101300 METAR MRLM 101300Z 30009KT 3000 RA OVC010 22/20 A2997=
201712101400 METAR MRLM 101400Z 29010KT 4000 +DZ BKN015 22/20 A2999=
201712101500 METAR MRLM 101500Z 29012G23KT 3000 +DZ BKN015 22/20 A3000=
201712101600 METAR MRLM 101600Z 30010KT 5000 DZ SCT015 OVC080 22/20 A2999=
201712101700 METAR MRLM 101700Z 30012KT 4000 DZ SCT020 OVC080 22/20 A2999=
201712101800 METAR MRLM 101800Z 30012KT 4000 +DZ SCT015 OVC080 22/20 A2996=
201712101900 METAR MRLM 101900Z 29012KT 4000 +DZ SCT010 OVC080 22/20 A2995=
201712102000 METAR MRLM 102000Z 29010KT 6000 DZ FEW015 BKN090 22/20 A2994=
201712102100 METAR MRLM 102100Z 29010KT 9000 4000N DZ VCSH BKN015 22/19 A2994=
201712102200 METAR MRLM 102200Z 30008KT 6000 DZ BKN015 22/19 A2992=
201712102300 METAR MRLM 102300Z 30009KT 4000 +DZ BKN015 22/19 A2995=
201712110000 METAR MRLM 110000Z 29009KT 2000 DZ BKN015 21/19 A2996=
201712110100 METAR MRLM NIL=
201712110200 METAR MRLM NIL=
201712110300 METAR MRLM NIL=
201712110400 METAR MRLM NIL=
201712110500 METAR MRLM NIL=
201712110600 METAR MRLM NIL=
201712110700 METAR MRLM NIL=
201712110800 METAR MRLM NIL=
201712110900 METAR MRLM NIL=
201712111000 METAR MRLM NIL=
201712111100 METAR MRLM NIL=
201712111200 METAR MRLM 111200Z 29012KT 9999 SCT015 BKN090 22/18 A3001=
201712111300 METAR MRLM 111300Z 29012KT 9999 SCT015 OVC090 22/17 A3001=
201712111400 METAR MRLM 111400Z 29011KT 9999 FEW015 BKN090 24/17 A3002=
201712111500 METAR MRLM 111500Z 30010KT 9999 FEW015 OVC100 25/17 A3002=
201712111600 METAR MRLM 111600Z 30012G24KT 9999 FEW020 OVC100 24/17 A3000=
201712111700 METAR MRLM 111700Z 30011G22KT 9999 FEW020 OVC100 24/17 A2998=
201712111800 METAR MRLM 111800Z 30012KT 9999 FEW020 OVC100 24/17 A2995=
201712111900 METAR MRLM 111900Z 29013KT 9999 FEW020 OVC100 24/17 A2992=
201712112000 METAR MRLM 112000Z 30012KT 9999 -DZ SCT150 OVC100 21/19 A2991=
201712112100 METAR MRLM 112100Z 30010KT 9000 -DZ SCT015 OVC090 21/19 A2990=
201712112200 METAR MRLM 112200Z 31009KT 6000 DZ BKN015 21/19 A2991=
201712112300 METAR MRLM 112300Z 30007KT 8000 BKN015 SCT090 21/19 A2993 REDZ=
201712120000 METAR MRLM 120000Z 29008KT 9999 SCT010 BKN080 22/19 A2996=
201712120100 METAR MRLM NIL=
201712120200 METAR MRLM NIL=
201712120300 METAR MRLM NIL=
201712120400 METAR MRLM NIL=
201712120500 METAR MRLM NIL=
201712120600 METAR MRLM NIL=
201712120700 METAR MRLM NIL=
201712120800 METAR MRLM NIL=
201712120900 METAR MRLM NIL=
201712121000 METAR MRLM NIL=
201712121100 METAR MRLM NIL=
201712121200 METAR MRLM 121200Z 29010KT 9999 SCT015 BKN090 23/16 A2997=
201712121300 METAR MRLM 121300Z 29009KT 9999 SCT015 OVC090 22/16 A2999=
201712121400 METAR MRLM 121400Z 30008KT 9999 -DZ SCT015 OVC090 23/16 A3001=
201712121500 METAR MRLM 121500Z 29011KT 9999 SCT015 BKN100 23/17 A3001=
201712121600 METAR MRLM 121600Z 29010KT 9999 SCT015 BKN100 24/17 A3000=
201712121700 METAR MRLM 121700Z 29010G21KT 9999 BKN015 SCT100 24/18 A2998=
201712121800 METAR MRLM 121800Z 29009KT 9999 SCT020 BKN110 24/18 A2996=
201712121900 METAR MRLM 121900Z 29009KT 9999 SCT020 BKN110 24/18 A2993=
201712122000 METAR MRLM 122000Z 30009KT 9999 SCT020 BKN110 25/18 A2992=
201712122100 METAR MRLM 122100Z 29008KT 9999 SCT020 OVC110 25/18 A2992=
201712122200 METAR MRLM 122200Z 30005KT 9999 SCT020 OVC110 24/18 A2993=
201712122300 METAR MRLM 122300Z 30006KT 9999 SCT020 OVC100 24/18 A2995=
201712130000 METAR MRLM 130000Z 30004KT 9999 SCT015 OVC100 24/18 A2996=
201712130100 METAR MRLM NIL=
201712130200 METAR MRLM NIL=
201712130300 METAR MRLM NIL=
201712130400 METAR MRLM NIL=
201712130500 METAR MRLM NIL=
201712130600 METAR MRLM NIL=
201712130700 METAR MRLM NIL=
201712130800 METAR MRLM NIL=
201712130900 METAR MRLM NIL=
201712131000 METAR MRLM NIL=
201712131100 METAR MRLM NIL=
201712131200 METAR MRLM 131200Z 33004KT 9999 SCT015 BKN090 23/19 A2999=
201712131300 METAR MRLM 131300Z 29006KT 9999 FEW015 BKN100 23/19 A3000=
201712131400 METAR MRLM 131400Z 30007KT 9999 FEW020 BKN100 24/19 A3002=
201712131500 METAR MRLM 131500Z 31004KT 9999 FEW020 BKN100 24/19 A3003=
201712131600 METAR MRLM 131600Z 30005KT 9999 FEW020 BKN100 25/19 A3002=
201712131700 METAR MRLM 131700Z 32010KT 9999 FEW020 OVC090 24/19 A3001=
201712131800 METAR MRLM 131800Z 31007KT 9999 -DZ BKN015 SCT090 22/20 A2999=
201712131900 METAR MRLM 131900Z 28008KT 9999 FEW020 BKN100 23/20 A2995=
201712132000 METAR MRLM 132000Z 29008KT 9999 SCT020 BKN110 23/19 A2993=
201712132100 METAR MRLM NIL=
201712132200 METAR MRLM NIL=
201712132300 METAR MRLM 132300Z 28007KT 9999 BKN010 21/19 A2996=
201712140000 METAR MRLM 140000Z 28008KT 9999 BKN010 21/19 A2997=
201712140100 METAR MRLM NIL=
201712140200 METAR MRLM NIL=
201712140300 METAR MRLM NIL=
201712140400 METAR MRLM NIL=
201712140500 METAR MRLM NIL=
201712140600 METAR MRLM NIL=
201712140700 METAR MRLM NIL=
201712140800 METAR MRLM NIL=
201712140900 METAR MRLM NIL=
201712141000 METAR MRLM NIL=
201712141100 METAR MRLM NIL=
201712141200 METAR MRLM 141200Z 31004KT 6000 DZ OVC015 20/19 A2996=
201712141300 METAR MRLM 141300Z 29005KT 8000 DZ OVC015 20/19 A2998=
201712141400 METAR MRLM 141400Z 31006KT 9999 SCT015 OVC080 20/19 A3000 REDZ=
201712141500 METAR MRLM 141500Z 31007KT 9999 -DZ SCT015 OVC080 21/20 A3000=
201712141600 METAR MRLM 141600Z 30007KT 9999 FEW020 BKN090 22/21 A2998=
201712141700 METAR MRLM 141700Z 30006KT 9999 FEW020 BKN090 26/21 A2995=
201712141800 METAR MRLM 141800Z 33009KT CAVOK 27/20 A2993=
201712141900 METAR MRLM 141900Z 33007KT CAVOK 28/20 A2986=
201712142000 METAR MRLM 142000Z 35010KT CAVOK 27/21 A2984=
201712142100 METAR MRLM 142100Z 34010KT CAVOK 27/21 A2982=
201712142200 METAR MRLM 142200Z 34009KT 9999 FEW020 BKN110 25/21 A2983=
201712142300 METAR MRLM 142300Z 33006KT CAVOK 25/21 A2985=
201712150000 METAR MRLM 150000Z 30005KT CAVOK 24/21 A2986=
201712150100 METAR MRLM NIL=
201712150200 METAR MRLM NIL=
201712150300 METAR MRLM NIL=
201712150400 METAR MRLM NIL=
201712150500 METAR MRLM NIL=
201712150600 METAR MRLM NIL=
201712150700 METAR MRLM NIL=
201712150800 METAR MRLM NIL=
201712150900 METAR MRLM NIL=
201712151000 METAR MRLM NIL=
201712151100 METAR MRLM NIL=
201712151200 METAR MRLM 151200Z 25004KT CAVOK 20/19 A2987=
201712151300 METAR MRLM 151300Z 27002KT CAVOK 22/21 A2989=
201712151400 METAR MRLM 151400Z 34002KT 9999 FEW020 BKN120 26/22 A2992=
201712151500 METAR MRLM 151500Z 20002KT 9999 VCSH SCT020 BKN120 26/22 A2994=
201712151600 METAR MRLM 151600Z COR 13010KT 7000 DZ SCT015 OVC100 24/22 A2996 RERA=
201712151700 METAR MRLM 151700Z 25005KT 9999 FEW015 OVC100 25/22 A2992 REDZ=
201712151800 METAR MRLM 151800Z 23006KT CAVOK 27/21 A2989=
201712151900 METAR MRLM 151900Z 14004KT CAVOK 28/22 A2986=
201712152000 METAR MRLM 152000Z 09002KT CAVOK 28/22 A2983=
201712152100 METAR MRLM 152100Z 09004KT CAVOK 28/23 A2981=
201712152200 METAR MRLM 152200Z 04005KT CAVOK 28/22 A2981=
201712152300 METAR MRLM 152300Z 03005KT CAVOK 28/22 A2982=
201712160000 METAR MRLM 160000Z 32002KT CAVOK 25/22 A2984=
201712160100 METAR MRLM NIL=
201712160200 METAR MRLM NIL=
201712160300 METAR MRLM NIL=
201712160400 METAR MRLM NIL=
201712160500 METAR MRLM NIL=
201712160600 METAR MRLM NIL=
201712160700 METAR MRLM NIL=
201712160800 METAR MRLM NIL=
201712160900 METAR MRLM NIL=
201712161000 METAR MRLM NIL=
201712161100 METAR MRLM NIL=
201712161200 METAR MRLM 161200Z 00000KT CAVOK 21/20 A2988=
201712161300 METAR MRLM 161300Z 24002KT CAVOK 23/21 A2991=
201712161400 METAR MRLM 161400Z 25003KT CAVOK 26/22 A2993=
201712161500 METAR MRLM 161500Z 09002KT 9999 FEW020 BKN110 27/23 A2993=
201712161600 METAR MRLM 161600Z 06003KT 9999 VCSH FEW020 BKN120 27/23 A2993=
201712161700 METAR MRLM 161700Z 05009KT 4000 RA BKN015 SCT100 26/23 A2992=
201712161800 METAR MRLM 161800Z 13003KT 9999 SCT020 BKN110 27/23 A2989 RERA=
201712161900 METAR MRLM 161900Z 17007KT 5000 +DZ BKN015 SCT100 25/23 A2987 RERA=
201712162000 METAR MRLM 162000Z 24005KT 9999 BKN020 SCT100 25/23 A2987 REDZ=
201712162100 METAR MRLM 162100Z 23004KT 9999 SCT020 BKN110 26/22 A2986=
201712162200 METAR MRLM 162200Z 21002KT CAVOK 27/22 A2983=
201712162300 METAR MRLM 162300Z 04006KT 6000 +DZ BKN015 SCT090 24/21 A2986 RERA=
201712170000 METAR MRLM 170000Z 21006KT 8000 DZ SCT015 BKN090 23/21 A2987=
201712170100 METAR MRLM NIL=
201712170200 METAR MRLM NIL=
201712170300 METAR MRLM NIL=
201712170400 METAR MRLM NIL=
201712170500 METAR MRLM NIL=
201712170600 METAR MRLM NIL=
201712170700 METAR MRLM NIL=
201712170800 METAR MRLM NIL=
201712170900 METAR MRLM NIL=
201712171000 METAR MRLM NIL=
201712171100 METAR MRLM NIL=
201712171200 METAR MRLM 171200Z 00000KT 9999 FEW015 SCT090 20/18 A2988=
201712171300 METAR MRLM 171300Z 33002KT 9999 FEW020 BKN100 22/19 A2991=
201712171400 METAR MRLM 171400Z 25004KT 9999 -DZ FEW020 BKN100 24/21 A2994=
201712171500 METAR MRLM 171500Z 25004KT CAVOK 26/21 A2994=
201712171600 METAR MRLM 171600Z 10004KT CAVOK 27/22 A2993=
201712171700 METAR MRLM 171700Z 07003KT CAVOK 28/21 A2990=
201712171800 METAR MRLM 171800Z 05006KT CAVOK 29/22 A2987=
201712171900 METAR MRLM 171900Z 03009KT 9999 SCT025 BKN120 29/23 A2984=
201712172000 METAR MRLM 172000Z 11011KT 6000 +DZ BKN020 27/22 A2985=
201712172100 METAR MRLM 172100Z 18008KT 9999 -DZ FEW008 SCT015 SCT100 24/22 A2985=
201712172200 METAR MRLM 172200Z 25007KT 9999 SCT020 SCT110 25/22 A2984=
201712172300 METAR MRLM 172300Z 23005KT 9999 BKN015 25/22 A2984=
201712180000 METAR MRLM 180000Z 23005KT 9999 SCT015 24/22 A2986=
201712180100 METAR MRLM NIL=
201712180200 METAR MRLM NIL=
201712180300 METAR MRLM NIL=
201712180400 METAR MRLM NIL=
201712180500 METAR MRLM NIL=
201712180600 METAR MRLM NIL=
201712180700 METAR MRLM NIL=
201712180800 METAR MRLM NIL=
201712180900 METAR MRLM NIL=
201712181000 METAR MRLM NIL=
201712181100 METAR MRLM NIL=
201712181200 METAR MRLM 181200Z 22003KT 8000 SCT015 SCT090 22/21 A2988=
201712181300 METAR MRLM 181300Z 36004KT 7000 DZ SCT015 BKN090 24/22 A2991=
201712181400 METAR MRLM 181400Z 22004KT 9000 -DZ SCT015 BKN100 23/22 A2992=
201712181500 METAR MRLM 181500Z 25005KT 9999 VCSH BKN015 SCT100 25/23 A2993=
201712181600 METAR MRLM 181600Z 22003KT 9999 FEW020 SCT240 29/22 A2994=
201712181700 METAR MRLM 181700Z 15004KT 9999 FEW025 SCT240 30/23 A2992=
201712181800 METAR MRLM 181800Z 15007KT 9999 FEW025 SCT250 30/22 A2991=
201712181900 METAR MRLM 181900Z 14008KT 9999 FEW030 31/23 A2988=
201712182000 METAR MRLM 182000Z 14008KT 9999 FEW030 30/23 A2984=
201712182100 METAR MRLM 182100Z 13009KT 9999 FEW030 SCT130 30/23 A2982=
201712182200 METAR MRLM 182200Z 13008KT 9999 FEW030 BKN130 29/23 A2981=
201712182300 METAR MRLM 182300Z 11008KT 9999 FEW020 BKN120 29/24 A2983=
201712190000 METAR MRLM 190000Z 05014KT 9999 FEW015 OVC100 26/22 A2986=
201712190100 METAR MRLM NIL=
201712190200 METAR MRLM NIL=
201712190300 METAR MRLM NIL=
201712190400 METAR MRLM NIL=
201712190500 METAR MRLM NIL=
201712190600 METAR MRLM NIL=
201712190700 METAR MRLM NIL=
201712190800 METAR MRLM NIL=
201712190900 METAR MRLM NIL=
201712191000 METAR MRLM NIL=
201712191100 METAR MRLM NIL=
201712191200 METAR MRLM 191200Z 25003KT CAVOK 21/20 A2992=
201712191300 METAR MRLM 191300Z 25003KT 9999 FEW020 23/20 A2994=
201712191400 METAR MRLM 191400Z 23003KT CAVOK 26/21 A2994=
201712191500 METAR MRLM 191500Z 11004KT CAVOK 28/22 A2994=
201712191600 METAR MRLM 191600Z 09006KT 9999 FEW025 SCT120 29/23 A2993=
201712191700 METAR MRLM 191700Z 08010KT 9999 FEW025 BKN110 28/19 A2992=
201712191800 METAR MRLM 191800Z 14008KT CAVOK 29/22 A2990=
201712191900 METAR MRLM 191900Z 13008KT CAVOK 29/21 A2987=
201712192000 METAR MRLM 192000Z 10006KT CAVOK 29/23 A2984=
201712192100 METAR MRLM 192100Z 11004KT CAVOK 29/23 A2982=
201712192200 METAR MRLM 192200Z 12005KT CAVOK 29/23 A2982=
201712192300 METAR MRLM 192300Z 11003KT CAVOK 28/23 A2983=
201712200000 METAR MRLM 200000Z 12004KT 9999 FEW020 BKN100 28/23 A2984=
201712200100 METAR MRLM NIL=
201712200200 METAR MRLM NIL=
201712200300 METAR MRLM NIL=
201712200400 METAR MRLM NIL=
201712200500 METAR MRLM NIL=
201712200600 METAR MRLM NIL=
201712200700 METAR MRLM NIL=
201712200800 METAR MRLM NIL=
201712200900 METAR MRLM NIL=
201712201000 METAR MRLM NIL=
201712201100 METAR MRLM NIL=
201712201200 METAR MRLM 201200Z 00000KT 9999 SCT015 23/22 A2988=
201712201300 METAR MRLM 201300Z 27003KT 8000 3000N RA FEW008 BKN015 23/22 A2990=
201712201400 METAR MRLM 201400Z 23003KT 9999 FEW015 BKN100 26/23 A2992 RERA=
201712201500 METAR MRLM NIL=
201712201600 METAR MRLM 201600Z 23004KT 9999 BKN025 29/23 A2991=
201712201700 METAR MRLM 201700Z 08004KT 9999 BKN025 29/23 A2989=
201712201800 METAR MRLM 201800Z 08004KT 9999 SCT030 30/23 A2987=
201712201900 METAR MRLM 201900Z 03008KT 9999 FEW020 SCT120 29/25 A2984=
201712202000 METAR MRLM 202000Z 04007KT 9999 FEW020 SCT120 29/24 A2982=
201712202100 METAR MRLM 202100Z 07004KT CAVOK 29/24 A2980=
201712202200 METAR MRLM 202200Z 09003KT CAVOK 28/24 A2980=
201712202300 METAR MRLM 202300Z 13003KT 9999 DZ FEW008TCU SCT120 28/23 A2982=
201712210000 METAR MRLM 210000Z 00000KT 9999 FEW015 BKN110 26/23 A2985 REDZ=
201712210100 METAR MRLM NIL=
201712210200 METAR MRLM NIL=
201712210300 METAR MRLM NIL=
201712210400 METAR MRLM NIL=
201712210500 METAR MRLM NIL=
201712210600 METAR MRLM NIL=
201712210700 METAR MRLM NIL=
201712210800 METAR MRLM NIL=
201712210900 METAR MRLM NIL=
201712211000 METAR MRLM NIL=
201712211100 METAR MRLM NIL=
201712211200 METAR MRLM 211200Z 33006KT 9999 3000N +DZ FEW008 BKN010 23/22 A2990=
201712211300 METAR MRLM 211300Z 22004KT 9999 BKN015 24/22 A2993 REDZ=
201712211400 METAR MRLM 211400Z 23005KT 9999 SCT020 25/22 A2993=
201712211500 METAR MRLM 211500Z 23004KT 9999 SCT020 27/23 A2994=
201712211600 METAR MRLM 211600Z 20005KT 9999 SCT030 29/22 A2994=
201712211700 METAR MRLM 211700Z 10004KT 9999 SCT025 SCT110 28/22 A2992=
201712211800 METAR MRLM 211800Z 14005KT 9999 FEW035 30/22 A2988=
201712211900 METAR MRLM 211900Z 10006KT 9999 FEW035 29/22 A2985=
201712212000 METAR MRLM 212000Z 09006KT 9999 FEW030 BKN130 29/24 A2984=
201712212100 METAR MRLM 212100Z 03009KT 9999 SCT020 BKN110 27/23 A2984=
201712212200 METAR MRLM 212200Z 04004KT CAVOK 27/22 A2984=
201712212300 METAR MRLM 212300Z 07002KT CAVOK 27/23 A2985=
201712220000 METAR MRLM 220000Z 00000KT CAVOK 25/23 A2986=
201712220100 METAR MRLM NIL=
201712220200 METAR MRLM NIL=
201712220300 METAR MRLM NIL=
201712220400 METAR MRLM NIL=
201712220500 METAR MRLM NIL=
201712220600 METAR MRLM NIL=
201712220700 METAR MRLM NIL=
201712220800 METAR MRLM NIL=
201712220900 METAR MRLM NIL=
201712221000 METAR MRLM NIL=
201712221100 METAR MRLM NIL=
201712221200 METAR MRLM 221200Z 27003KT 9999 VCSH FEW010 BKN080 22/20 A2988=
201712221300 METAR MRLM 221300Z 23002KT 9999 -DZ FEW010 BKN080 22/21 A2991=
201712221400 METAR MRLM 221400Z 26005KT 9999 FEW015 BKN090 23/21 A2992=
201712221500 METAR MRLM 221500Z 22003KT 9999 FEW020 SCT110 28/22 A2992=
201712221600 METAR MRLM 221600Z 10005KT 9999 FEW020 SCT110 28/22 A2992=
201712221700 METAR MRLM 221700Z 11005KT CAVOK 29/22 A2990=
201712221800 METAR MRLM 221800Z 13005KT CAVOK 29/21 A2987=
201712221900 METAR MRLM 221900Z 10006KT CAVOK 29/23 A2984=
201712222000 METAR MRLM 222000Z 09005KT 9999 FEW025 BKN130 29/23 A2983=
201712222100 METAR MRLM 222100Z 06016KT 9999 FEW020 BKN120 27/23 A2982=
201712222200 METAR MRLM 222200Z 07011KT 9999 FEW020 OVC110 27/23 A2984=
201712222300 METAR MRLM 222300Z 06018KT 9999 -DZ FEW020 OVC110 27/19 A2985=
201712230000 METAR MRLM 230000Z 28003KT 9999 FEW015 BKN100 26/21 A2986=
201712230100 METAR MRLM NIL=
201712230200 METAR MRLM NIL=
201712230300 METAR MRLM NIL=
201712230400 METAR MRLM NIL=
201712230500 METAR MRLM NIL=
201712230600 METAR MRLM NIL=
201712230700 METAR MRLM NIL=
201712230800 METAR MRLM NIL=
201712230900 METAR MRLM NIL=
201712231000 METAR MRLM NIL=
201712231100 METAR MRLM NIL=
201712231200 METAR MRLM 231200Z 24004KT 9999 SCT015 22/21 A2990=
201712231300 METAR MRLM 231300Z 26004KT 9999 FEW015TCU SCT020 23/22 A2993=
201712231400 METAR MRLM 231400Z 23004KT 9999 -DZ FEW015TCU SCT020 24/23 A2996=
201712231500 METAR MRLM 231500Z 23004KT 9999 SCT020 26/24 A2994=
201712231600 METAR MRLM 231600Z 26003KT 9999 SCT020 28/23 A2993=
201712231700 METAR MRLM 231700Z 07004KT 9999 SCT025 29/23 A2990=
201712231800 METAR MRLM 231800Z 05007KT 9999 FEW025 SCT120 29/24 A2989=
201712231900 METAR MRLM 231900Z 07004KT 9999 FEW025 29/23 A2986=
201712232000 METAR MRLM 232000Z 09004KT 9999 FEW025 SCT130 28/23 A2983=
201712232100 METAR MRLM 232100Z 15006KT 9999 -DZ FEW025 BKN130 28/23 A2983=
201712232200 METAR MRLM 232200Z 18002KT 9999 FEW020 BKN130 27/23 A2984=
201712232300 METAR MRLM 232300Z 25003KT 9999 FEW015 SCT110 25/23 A2985 RERA=
201712240000 METAR MRLM 240000Z 26003KT 9999 SCT15 24/23 A2986=
201712240100 METAR MRLM NIL=
201712240200 METAR MRLM NIL=
201712240300 METAR MRLM NIL=
201712240400 METAR MRLM NIL=
201712240500 METAR MRLM NIL=
201712240600 METAR MRLM NIL=
201712240700 METAR MRLM NIL=
201712240800 METAR MRLM NIL=
201712240900 METAR MRLM NIL=
201712241000 METAR MRLM NIL=
201712241100 METAR MRLM NIL=
201712241200 METAR MRLM 241200Z 25004KT CAVOK 21/19 A2990=
201712241300 METAR MRLM 241300Z 24004KT CAVOK 22/20 A2992=
201712241400 METAR MRLM 241400Z 23004KT CAVOK 25/21 A2993=
201712241500 METAR MRLM 241500Z 13003KT CAVOK 27/22 A2993=
201712241600 METAR MRLM 241600Z 09005KT CAVOK 28/22 A2993=
201712241700 METAR MRLM 241700Z 08005KT CAVOK 29/22 A2992=
201712241800 METAR MRLM 241800Z 07006KT 9999 FEW020 BKN120 29/23 A2989=
201712241900 METAR MRLM 241900Z 10004KT CAVOK 29/23 A2987=
201712242000 METAR MRLM 242000Z 09006KT 9999 FEW020 BKN120 28/23 A2986=
201712242100 METAR MRLM 242100Z 04008KT CAVOK 27/23 A2983=
201712242200 METAR MRLM 242200Z 04004KT 9999 FEW020 BKN120 27/23 A2985=
201712242300 METAR MRLM 242300Z 08003KT 9999 SCT020 SCT120 28/23 A2986=
201712250000 METAR MRLM 250000Z 07005KT 9999 SCT015 SCT100 27/22 A2989=
201712250100 METAR MRLM NIL=
201712250200 METAR MRLM NIL=
201712250300 METAR MRLM NIL=
201712250400 METAR MRLM NIL=
201712250500 METAR MRLM NIL=
201712250600 METAR MRLM NIL=
201712250700 METAR MRLM NIL=
201712250800 METAR MRLM NIL=
201712250900 METAR MRLM NIL=
201712251000 METAR MRLM NIL=
201712251100 METAR MRLM NIL=
201712251200 METAR MRLM 251200Z 26004KT 9999 BKN015 SCT100 22/21 A2990=
201712251300 METAR MRLM 251300Z 26003KT 9999 SCT015 BKN110 23/21 A2994=
201712251400 METAR MRLM 251400Z 29002KT 9999 FEW015 BKN120 24/22 A2998=
201712251500 METAR MRLM 251500Z 25003KT 9999 SCT015 BKN120 26/23 A2998=
201712251600 METAR MRLM 251600Z 22002KT 9999 4000S DZ BKN015 SCT100 24/22 A2999=
201712251700 METAR MRLM 251700Z 24006KT 9999 FEW020 BKN120 27/22 A2997 REDZ=
201712251800 METAR MRLM 251800Z 00000KT 9999 DZ BKN015 SCT090 26/21 A2995 RERA=
201712251900 METAR MRLM 251900Z 22004KT 9999 SCT020 SCT130 28/23 A2992 REDZ=
201712252000 METAR MRLM 252000Z 23003KT CAVOK 28/22 A2989=
201712252100 METAR MRLM 252100Z 00000KT 9999 FEW040 SCT140 BKN240 29/21 A2988=
201712252200 METAR MRLM 252200Z 08003KT CAVOK 28/22 A2988=
201712252300 METAR MRLM 252300Z 06003KT CAVOK 28/23 A2989=
201712260000 METAR MRLM 260000Z 09004KT CAVOK 26/22 A2992=
201712260100 METAR MRLM NIL=
201712260200 METAR MRLM NIL=
201712260300 METAR MRLM NIL=
201712260400 METAR MRLM NIL=
201712260500 METAR MRLM NIL=
201712260600 METAR MRLM NIL=
201712260700 METAR MRLM NIL=
201712260800 METAR MRLM NIL=
201712260900 METAR MRLM NIL=
201712261000 METAR MRLM NIL=
201712261100 METAR MRLM NIL=
201712261200 METAR MRLM 261200Z 24005KT 9999 FEW015 SCT090 21/20 A2995=
201712261300 METAR MRLM 261300Z 24002KT 9999 FEW015 BKN090 22/21 A2999=
201712261400 METAR MRLM 261400Z 24003KT 9999 FEW015 BKN090 23/21 A2998=
201712261500 METAR MRLM 261500Z 31002KT 9999 SCT015 BKN100 26/22 A2999=
201712261600 METAR MRLM 261600Z 19002KT 9999 FEW020 BKN120 28/23 A2999=
201712261700 METAR MRLM 261700Z 20004KT 9999 FEW020 SCT120 29/21 A2996=
201712261800 METAR MRLM 261800Z 13006KT 9999 FEW030TCU SCT130 30/22 A2994=
201712261900 METAR MRLM 261900Z 06009KT 9999 FEW020 BKN120 27/21 A2993=
201712262000 METAR MRLM 262000Z 02005KT 9999 FEW025 SCT130 28/21 A2990=
201712262100 METAR MRLM 262100Z 07004KT 9999 FEW025 SCT130 28/22 A2989=
201712262200 METAR MRLM 262200Z 07003KT CAVOK 28/22 A2989=
201712262300 METAR MRLM 262300Z 09005KT CAVOK 28/22 A2991=
201712270000 METAR MRLM 270000Z 09006KT CAVOK 27/22 A2992=
201712270100 METAR MRLM NIL=
201712270200 METAR MRLM NIL=
201712270300 METAR MRLM NIL=
201712270400 METAR MRLM NIL=
201712270500 METAR MRLM NIL=
201712270600 METAR MRLM NIL=
201712270700 METAR MRLM NIL=
201712270800 METAR MRLM NIL=
201712270900 METAR MRLM NIL=
201712271000 METAR MRLM NIL=
201712271100 METAR MRLM NIL=
201712271200 METAR MRLM 271200Z 22004KT 9999 VCSH SCT015 SCT100 21/19 A2995=
201712271300 METAR MRLM 271300Z 25005KT 9999 FEW015 BKN100 22/20 A2996=
201712271400 METAR MRLM 271400Z 25003KT 9999 FEW015 SCT100 25/21 A2998=
201712271500 METAR MRLM 271500Z 35003KT 9999 FEW020TCU SCT110 27/21 A2998=
201712271600 METAR MRLM 271600Z 06003KT 9999 SCT020 SCT110 27/22 A2997=
201712271700 METAR MRLM 271700Z 36003KT 9999 SCT015 BKN100 25/21 A2997=
201712271800 METAR MRLM 271800Z 07002KT 9999 FEW020 BKN110 27/22 A2993=
201712271900 METAR MRLM 271900Z 07004KT 9999 FEW020 BKN120 27/22 A2990=
201712272000 METAR MRLM 272000Z 07004KT 9999 FEW025 SCT120 28/22 A2987=
201712272100 METAR MRLM 272100Z 06007KT 9999 FEW025 BKN120 28/22 A2987=
201712272200 METAR MRLM 272200Z 04008KT CAVOK 27/22 A2985=
201712272300 METAR MRLM 272300Z 05009KT CAVOK 27/22 A2987=
201712280000 METAR MRLM 280000Z 25004KT CAVOK 25/22 A2988=
201712280100 METAR MRLM NIL=
201712280200 METAR MRLM NIL=
201712280300 METAR MRLM NIL=
201712280400 METAR MRLM NIL=
201712280500 METAR MRLM NIL=
201712280600 METAR MRLM NIL=
201712280700 METAR MRLM NIL=
201712280800 METAR MRLM NIL=
201712280900 METAR MRLM NIL=
201712281000 METAR MRLM NIL=
201712281100 METAR MRLM NIL=
201712281200 METAR MRLM 281200Z 27003KT 9999 SCT015 BKN100 22/20 A2989=
201712281300 METAR MRLM 281300Z 28003KT CAVOK 23/21 A2993=
201712281400 METAR MRLM 281400Z 00000KT CAVOK 26/22 A2994=
201712281500 METAR MRLM 281500Z 00000KT 9999 FEW020 BKN110 26/21 A2995=
201712281600 METAR MRLM 281600Z 07002KT CAVOK 27/22 A2995=
201712281700 METAR MRLM 281700Z 05005KT 9999 FEW025 BKN110 27/22 A2994=
201712281800 METAR MRLM 281800Z 03009KT 9999 FEW025 BKN120 27/23 A2992=
201712281900 METAR MRLM 281900Z 09003KT 9999 FEW030 BKN120 28/22 A2988=
201712282000 METAR MRLM 282000Z 09003KT 9999 FEW030 BKN130 28/22 A2986=
201712282100 METAR MRLM 282100Z 07004KT 9999 FEW035 BKN130 28/21 A2985=
201712282200 METAR MRLM 282200Z 05006KT CAVOK 28/22 A2985=
201712282300 METAR MRLM 282300Z 03006KT CAVOK 28/22 A2986=
201712290000 METAR MRLM 290000Z 00000KT CAVOK 25/21 A2989=
201712290100 METAR MRLM NIL=
201712290200 METAR MRLM NIL=
201712290300 METAR MRLM NIL=
201712290400 METAR MRLM NIL=
201712290500 METAR MRLM NIL=
201712290600 METAR MRLM NIL=
201712290700 METAR MRLM NIL=
201712290800 METAR MRLM NIL=
201712290900 METAR MRLM NIL=
201712291000 METAR MRLM NIL=
201712291100 METAR MRLM NIL=
201712291200 METAR MRLM 291200Z 28002KT 9999 FEW015 BKN110 21/20 A2989=
201712291300 METAR MRLM 291300Z 27004KT 9999 FEW015 BKN110 22/20 A2992=
201712291400 METAR MRLM 291400Z 25003KT CAVOK 23/21 A2993=
201712291500 METAR MRLM 291500Z 32004KT CAVOK 27/22 A2994=
201712291600 METAR MRLM 291600Z 30004KT 9999 FEW030 BKN130 29/22 A2994=
201712291700 METAR MRLM 291700Z 02010KT 9999 FEW020 BKN120 27/23 A2992=
201712291800 METAR MRLM 291800Z 35010KT CAVOK 28/23 A2990=
201712291900 METAR MRLM 291900Z 01011KT 9999 FEW030 BKN120 28/23 A2987=
201712292000 METAR MRLM 292000Z 01008KT CAVOK 28/23 A2984=
201712292100 METAR MRLM 292100Z 02010KT CAVOK 28/23 A2984=
201712292200 METAR MRLM 292200Z 02008KT 9999 FEW020 BKN130 27/22 A2984=
201712292300 METAR MRLM 292300Z 02006KT 9999 SCT020 BKN110 27/23 A2986=
201712300000 METAR MRLM 300000Z 31003KT 9999 SCT015 BKN110 26/22 A2989=
201712300100 METAR MRLM NIL=
201712300200 METAR MRLM NIL=
201712300300 METAR MRLM NIL=
201712300400 METAR MRLM NIL=
201712300500 METAR MRLM NIL=
201712300600 METAR MRLM NIL=
201712300700 METAR MRLM NIL=
201712300800 METAR MRLM NIL=
201712300900 METAR MRLM NIL=
201712301000 METAR MRLM NIL=
201712301100 METAR MRLM NIL=
201712301200 METAR MRLM 301200Z 29002KT 9999 DZ SCT010 BKN080 23/22 A2991=
201712301300 METAR MRLM 301300Z 31004KT 9999 -DZ SCT010 BKN080 23/22 A2993=
201712301400 METAR MRLM 301400Z 32006KT 9999 FEW010 BKN080 24/23 A2996 REDZ=
201712301500 METAR MRLM 301500Z 31006KT 4000 +DZ SCT010 OVC080 24/22 A2997=
201712301600 METAR MRLM 301600Z 29003KT 7000 DZ SCT010 OVC080 24/22 A2997=
201712301700 METAR MRLM 301700Z 31004KT 9999 -DZ SCT015 OVC090 24/23 A2996=
201712301800 METAR MRLM 301800Z 30007KT 9999 -DZ FEW015 OVC090 25/23 A2992=
201712301900 METAR MRLM 301900Z 30005KT 9999 -DZ FEW015 OVC090 25/23 A2988=
201712302000 METAR MRLM 302000Z 29004KT 9999 FEW015 OVC100 25/23 A2987 REDZ=
201712302100 METAR MRLM 302100Z 30004KT 9999 FEW015 OVC100 25/23 A2984=
201712302200 METAR MRLM 302200Z 31003KT 9999 FEW015 OVC100 25/23 A2984=
201712302300 METAR MRLM 302300Z 31006KT 9999 FEW015 SCT100 BKN200 25/22 A2987=
201712310000 METAR MRLM 310000Z 34003KT 9999 SCT010 BKN090 25/23 A2988=
201712310100 METAR MRLM NIL=
201712310200 METAR MRLM NIL=
201712310300 METAR MRLM NIL=
201712310400 METAR MRLM NIL=
201712310500 METAR MRLM NIL=
201712310600 METAR MRLM NIL=
201712310700 METAR MRLM NIL=
201712310800 METAR MRLM NIL=
201712310900 METAR MRLM NIL=
201712311000 METAR MRLM NIL=
201712311100 METAR MRLM NIL=
201712311200 METAR MRLM 311200Z 30005KT 9999 VCSH SCT010 BKN090 23/22 A2995=
201712311300 METAR MRLM 311300Z 30005KT 9999 DZ SCT010 OVC090 23/22 A2997=
201712311400 METAR MRLM 311400Z 30004KT 7000 DZ SCT010 OVC090 23/22 A3000=
201712311500 METAR MRLM 311500Z 28004KT 7000 DZ FEW010 OVC090 23/22 A3001=
201712311600 METAR MRLM 311600Z 25005KT 8000 DZ FEW015 OVC090 23/22 A3001=
201712311700 METAR MRLM 311700Z 27002KT 8000 DZ SCT015 OVC090 24/23 A3000=
201712311800 METAR MRLM 311800Z 25004KT 9000 -DZ FEW015 OVC090 24/22 A2998=
201712311900 METAR MRLM 311900Z 26005KT 9999 FEW015 OVC100 24/23 A2994 REDZ=
201712312000 METAR MRLM 312000Z 26002KT 9999 FEW015 OVC100 25/23 A2992=
201712312100 METAR MRLM 312100Z 25002KT 9999 FEW015 OVC100 25/23 A2990=
201712312200 METAR MRLM 312200Z 26002KT 9999 SCT015 OVC110 25/24 A2991=
201712312300 METAR MRLM 312300Z 23003KT 9999 SCT015 OVC110 25/23 A2992=
