202001010000 METAR MRLM 010000Z 00000KT CAVOK 25/23 A2988=
202001010100 METAR MRLM NIL=
202001010200 METAR MRLM NIL=
202001010300 METAR MRLM NIL=
202001010400 METAR MRLM NIL=
202001010500 METAR MRLM NIL=
202001010600 METAR MRLM NIL=
202001010700 METAR MRLM NIL=
202001010800 METAR MRLM NIL=
202001010900 METAR MRLM NIL=
202001011000 METAR MRLM NIL=
202001011100 METAR MRLM NIL=
202001011200 METAR MRLM NIL=
202001011300 METAR MRLM NIL=
202001011400 METAR MRLM NIL=
202001011500 METAR MRLM NIL=
202001011600 METAR MRLM NIL=
202001011700 METAR MRLM NIL=
202001011800 METAR MRLM NIL=
202001011900 METAR MRLM NIL=
202001012000 METAR MRLM NIL=
202001012100 METAR MRLM NIL=
202001012200 METAR MRLM NIL=
202001012300 METAR MRLM NIL=
202001020000 METAR MRLM NIL=
202001020100 METAR MRLM NIL=
202001020200 METAR MRLM NIL=
202001020300 METAR MRLM NIL=
202001020400 METAR MRLM NIL=
202001020500 METAR MRLM NIL=
202001020600 METAR MRLM NIL=
202001020700 METAR MRLM NIL=
202001020800 METAR MRLM NIL=
202001020900 METAR MRLM NIL=
202001021000 METAR MRLM NIL=
202001021100 METAR MRLM NIL=
202001021200 METAR MRLM 021200Z 25003KT 9999 VCSH FEW015 BKN100 21/21 A2990=
202001021300 METAR MRLM 021300Z 35009KT 9999 VCSH FEW015 BKN100 24/21 A2994=
202001021400 METAR MRLM 021400Z 24005KT 9999 FEW015 BKN100 24/22 A2995=
202001021500 METAR MRLM 021500Z 20004KT CAVOK 26/22 A2995=
202001021600 METAR MRLM 021600Z 08004KT CAVOK 29/22 A2994=
202001021700 METAR MRLM 021700Z 06005KT CAVOK 28/22 A2993=
202001021800 METAR MRLM 021800Z 06006KT CAVOK 28/22 A2991=
202001021900 METAR MRLM 021900Z 08004KT CAVOK 27/22 A2988=
202001022000 METAR MRLM 022000Z 09004KT CAVOK 28/23 A2986=
202001022100 METAR MRLM 022100Z 09004KT 9999 FEW025 BKN220 28/23 A2985=
202001022200 METAR MRLM 022200Z 12004KT 9999 FEW025 BKN220 27/23 A2986=
202001022300 METAR MRLM 022300Z 13004KT 9999 FEW025 BKN220 27/22 A2987=
202001030000 METAR MRLM 030000Z 20003KT CAVOK 25/23 A2988=
202001030100 METAR MRLM NIL=
202001030200 METAR MRLM NIL=
202001030300 METAR MRLM NIL=
202001030400 METAR MRLM NIL=
202001030500 METAR MRLM NIL=
202001030600 METAR MRLM NIL=
202001030700 METAR MRLM NIL=
202001030800 METAR MRLM NIL=
202001030900 METAR MRLM NIL=
202001031000 METAR MRLM NIL=
202001031100 METAR MRLM NIL=
202001031200 METAR MRLM 031200Z 24004KT CAVOK 21/20 A2992=
202001031300 METAR MRLM 031300Z 23004KT CAVOK 22/21 A2994=
202001031400 METAR MRLM 031400Z 23003KT CAVOK 25/22 A2996=
202001031500 METAR MRLM 031500Z 26002KT CAVOK 28/22 A2997=
202001031600 METAR MRLM 031600Z 04004KT 9999 FEW025 BKN220 28/22 A2997=
202001031700 METAR MRLM 031700Z 03004KT 9999 FEW025 SCT120 BKN220 28/22 A2997=
202001031800 METAR MRLM 031800Z 05005KT 9999 FEW025 SCT120 BKN220 28/22 A2995=
202001031900 METAR MRLM 031900Z 06003KT CAVOK 28/22 A2991=
202001032000 METAR MRLM 032000Z 04003KT CAVOK 28/22 A2990=
202001032100 METAR MRLM 032100Z 07003KT 9999 FEW020 SCT120 BKN220 27/23 A2989=
202001032200 METAR MRLM 032200Z 09003KT 9999 FEW020 BKN220 28/24 A2990=
202001032300 METAR MRLM 032300Z 22003KT 9999 FEW020 SCT220 26/24 A2991=
202001040000 METAR MRLM 040000Z 22003KT 9999 FEW015 SCT200 25/24 A2992=
202001040100 METAR MRLM NIL=
202001040200 METAR MRLM NIL=
202001040300 METAR MRLM NIL=
202001040400 METAR MRLM NIL=
202001040500 METAR MRLM NIL=
202001040600 METAR MRLM NIL=
202001040700 METAR MRLM NIL=
202001040800 METAR MRLM NIL=
202001040900 METAR MRLM NIL=
202001041000 METAR MRLM NIL=
202001041100 METAR MRLM NIL=
202001041200 METAR MRLM 041200Z 24004KT CAVOK 22/21 A2998=
202001041300 METAR MRLM 041300Z 23004KT 9999 FEW020 BKN120 22/21 A3001=
202001041400 METAR MRLM 041400Z 23003KT CAVOK 26/22 A3003=
202001041500 METAR MRLM 041500Z 22003KT 9999 FEW030 BKN120 27/23 A3004=
202001041600 METAR MRLM 041600Z 04003KT 9999 FEW030 BKN130 28/24 A3003=
202001041700 METAR MRLM 041700Z 05005KT 9999 FEW030 SCT130 28/24 A3002=
202001041800 METAR MRLM 041800Z 05005KT CAVOK 28/24 A2999=
202001041900 METAR MRLM 041900Z 05004KT 9999 FEW030 SCT140 28/24 A2996=
202001042000 METAR MRLM 042000Z 04005KT 9999 FEW030 SCT140 29/23 A2993=
202001042100 METAR MRLM 042100Z 03005KT CAVOK 29/23 A2993=
202001042200 METAR MRLM 042200Z 03004KT CAVOK 28/23 A2993=
202001042300 METAR MRLM 042300Z 01005KT CAVOK 28/23 A2995=
202001050000 METAR MRLM 050000Z 23004KT 9999 FEW020 BKN130 26/22 A2999=
202001050100 METAR MRLM NIL=
202001050200 METAR MRLM NIL=
202001050300 METAR MRLM NIL=
202001050400 METAR MRLM NIL=
202001050500 METAR MRLM NIL=
202001050600 METAR MRLM NIL=
202001050700 METAR MRLM NIL=
202001050800 METAR MRLM NIL=
202001050900 METAR MRLM NIL=
202001051000 METAR MRLM NIL=
202001051100 METAR MRLM NIL=
202001051200 METAR MRLM 051200Z 25005KT 9999 -DZ BKN015 22/21 A3006=
202001051300 METAR MRLM 051300Z 24004KT 9999 SCT020 23/22 A3010=
202001051400 METAR MRLM 051400Z 23005KT CAVOK 26/22 A3011=
202001051500 METAR MRLM 051500Z 21004KT CAVOK 28/22 A3011=
202001051600 METAR MRLM 051600Z 23003KT 9999 FEW030 29/22 A3010=
202001051700 METAR MRLM 051700Z 08005KT 9999 FEW030 30/23 A3007=
202001051800 METAR MRLM 051800Z 07004KT 9999 FEW030 30/22 A3003=
202001051900 METAR MRLM 051900Z 06006KT 9999 FEW030 30/22 A2997=
202001052000 METAR MRLM 052000Z 03010KT 9999 FEW030 30/22 A2994=
202001052100 METAR MRLM 052100Z 03013KT CAVOK 29/23 A2994=
202001052200 METAR MRLM 052200Z 03013KT 9999 FEW025 BKN120 28/24 A2995=
202001052300 METAR MRLM 052300Z 06011KT 9999 FEW020 BKN120 27/23 A2996=
202001060000 METAR MRLM 060000Z 21003KT 9999 FEW020 BKN110 26/23 A3000=
202001060100 METAR MRLM NIL=
202001060200 METAR MRLM NIL=
202001060300 METAR MRLM NIL=
202001060400 METAR MRLM NIL=
202001060500 METAR MRLM NIL=
202001060600 METAR MRLM NIL=
202001060700 METAR MRLM NIL=
202001060800 METAR MRLM NIL=
202001060900 METAR MRLM NIL=
202001061000 METAR MRLM NIL=
202001061100 METAR MRLM NIL=
202001061200 METAR MRLM 061200Z 00000KT 9999 VCSH FEW015 BKN090 22/21 A2996=
202001061300 METAR MRLM 061300Z 23005KT 9999 VCSH FEW015 BKN090 23/21 A2998=
202001061400 METAR MRLM 061400Z 22002KT 9999 FEW015 SCT090 26/21 A3001=
202001061500 METAR MRLM 061500Z 09003KT CAVOK 27/22 A3001=
202001061600 METAR MRLM 061600Z 08004KT CAVOK 28/23 A3000=
202001061700 METAR MRLM 061700Z 11009KT CAVOK 29/22 A2998=
202001061800 METAR MRLM 061800Z 09009KT CAVOK 30/22 A2995=
202001061900 METAR MRLM 061900Z 08009KT CAVOK 30/23 A2992=
202001062000 METAR MRLM 062000Z 04015KT CAVOK 30/22 A2990=
202001062100 METAR MRLM 062100Z 02011KT 9999 FEW025 SCT120 29/24 A2990=
202001062200 METAR MRLM 062200Z 02007KT CAVOK 28/23 A2990=
202001062300 METAR MRLM 062300Z 02006KT CAVOK 28/23 A2992=
202001070000 METAR MRLM 070000Z 33002KT CAVOK 26/23 A2993=
202001070100 METAR MRLM NIL=
202001070200 METAR MRLM NIL=
202001070300 METAR MRLM NIL=
202001070400 METAR MRLM NIL=
202001070500 METAR MRLM NIL=
202001070600 METAR MRLM NIL=
202001070700 METAR MRLM NIL=
202001070800 METAR MRLM NIL=
202001070900 METAR MRLM NIL=
202001071000 METAR MRLM NIL=
202001071100 METAR MRLM NIL=
202001071200 METAR MRLM 071200Z 24003KT CAVOK 19/18 A2994=
202001071300 METAR MRLM 071300Z 23005KT CAVOK 22/19 A2996=
202001071400 METAR MRLM 071400Z 23004KT CAVOK 24/21 A2999=
202001071500 METAR MRLM 071500Z 27002KT CAVOK 28/21 A3000=
202001071600 METAR MRLM 071600Z 07003KT 9999 FEW035 29/21 A3000=
202001071700 METAR MRLM 071700Z 05006KT 9999 FEW035 SCT130 29/22 A2998=
202001071800 METAR MRLM 071800Z 02007KT CAVOK 28/22 A2996=
202001071900 METAR MRLM 071900Z 03006KT CAVOK 30/23 A2994=
202001072000 METAR MRLM 072000Z 03006KT CAVOK 29/22 A2992=
202001072100 METAR MRLM 072100Z 01008KT CAVOK 29/22 A2992=
202001072200 METAR MRLM 072200Z 03006KT CAVOK 28/21 A2992=
202001072300 METAR MRLM 072300Z 01005KT 9999 FEW025 BKN120 28/22 A2993=
202001080000 METAR MRLM 080000Z 35005KT 9999 FEW020 BKN100 28/22 A2995=
202001080100 METAR MRLM NIL=
202001080200 METAR MRLM NIL=
202001080300 METAR MRLM NIL=
202001080400 METAR MRLM NIL=
202001080500 METAR MRLM NIL=
202001080600 METAR MRLM NIL=
202001080700 METAR MRLM NIL=
202001080800 METAR MRLM NIL=
202001080900 METAR MRLM NIL=
202001081000 METAR MRLM NIL=
202001081100 METAR MRLM NIL=
202001081200 METAR MRLM 081200Z 24005KT 9999 FEW015 SCT120 20/19 A2997=
202001081300 METAR MRLM 081300Z 32004KT 8000 2000N DZ BKN015 20/19 A2997=
202001081400 METAR MRLM 081400Z 19005KT 9999 -DZ BKN020 22/21 A3003=
202001081500 METAR MRLM 081500Z 24007KT CAVOK 25/21 A3003=
202001081600 METAR MRLM 081600Z 22005KT 9999 VCSH SCT020 BKN110 26/21 A3002=
202001081700 METAR MRLM 081700Z 26005KT 8000 3000N RA SCT020 BKN100 23/22 A3001=
202001081800 METAR MRLM 081800Z 21006KT 9999 SCT020 BKN110 23/22 A2997 RERA=
202001081900 METAR MRLM 081900Z 21006KT 8000 DZ BKN020 23/22 A2994=
202001082000 METAR MRLM 082000Z 21006KT 7000 +DZ SCT020 BKN100 24/23 A2991=
202001082100 METAR MRLM 082100Z 25004KT 6000 +DZ SCT015 BKN100 23/23 A2991=
202001082200 METAR MRLM 082200Z 25005KT 4000 +DZ BKN015 24/23 A2990=
202001082300 METAR MRLM 082300Z 25004KT 4000 +DZ BKN015 23/23 A2991=
202001090000 METAR MRLM 090000Z 22008KT 3000 RA OVC010 23/23 A2994=
202001090100 METAR MRLM NIL=
202001090200 METAR MRLM NIL=
202001090300 METAR MRLM NIL=
202001090400 METAR MRLM NIL=
202001090500 METAR MRLM NIL=
202001090600 METAR MRLM NIL=
202001090700 METAR MRLM NIL=
202001090800 METAR MRLM NIL=
202001090900 METAR MRLM NIL=
202001091000 METAR MRLM NIL=
202001091100 METAR MRLM NIL=
202001091200 METAR MRLM NIL=
202001091300 METAR MRLM NIL=
202001091400 METAR MRLM NIL=
202001091500 METAR MRLM NIL=
202001091600 METAR MRLM NIL=
202001091700 METAR MRLM NIL=
202001091800 METAR MRLM NIL=
202001091900 METAR MRLM NIL=
202001092000 METAR MRLM NIL=
202001092100 METAR MRLM NIL=
202001092200 METAR MRLM NIL=
202001092300 METAR MRLM NIL=
202001100000 METAR MRLM NIL=
202001100100 METAR MRLM NIL=
202001100200 METAR MRLM NIL=
202001100300 METAR MRLM NIL=
202001100400 METAR MRLM NIL=
202001100500 METAR MRLM NIL=
202001100600 METAR MRLM NIL=
202001100700 METAR MRLM NIL=
202001100800 METAR MRLM NIL=
202001100900 METAR MRLM NIL=
202001101000 METAR MRLM NIL=
202001101100 METAR MRLM NIL=
202001101200 METAR MRLM 101200Z 22004KT CAVOK 21/20 A2989=
202001101300 METAR MRLM 101300Z 23005KT CAVOK 22/20 A2991=
202001101400 METAR MRLM 101400Z 21004KT CAVOK 26/22 A2992=
202001101500 METAR MRLM 101500Z 18002KT CAVOK 27/22 A2992=
202001101600 METAR MRLM 101600Z 07003KT CAVOK 29/21 A2991=
202001101700 METAR MRLM 101700Z 07004KT 9999 FEW035 29/22 A2989=
202001101800 METAR MRLM 101800Z 05006KT CAVOK 30/22 A2987=
202001101900 METAR MRLM 101900Z 04006KT CAVOK 29/22 A2983=
202001102000 METAR MRLM 102000Z 05005KT CAVOK 29/22 A2980=
202001102100 METAR MRLM 102100Z 03007KT CAVOK 29/22 A2978=
202001102200 METAR MRLM 102200Z 02010KT 9999 FEW025 BKN120 28/23 A2979=
202001102300 METAR MRLM 102300Z 08014KT 9999 -DZ VCSH FEW020 OVC120 26/23 A2981=
202001110000 METAR MRLM 110000Z 15006G17KT 9999 -DZ VCSH SCT015 OVC100 25/23 A2983=
202001110100 METAR MRLM NIL=
202001110200 METAR MRLM NIL=
202001110300 METAR MRLM NIL=
202001110400 METAR MRLM NIL=
202001110500 METAR MRLM NIL=
202001110600 METAR MRLM NIL=
202001110700 METAR MRLM NIL=
202001110800 METAR MRLM NIL=
202001110900 METAR MRLM NIL=
202001111000 METAR MRLM NIL=
202001111100 METAR MRLM NIL=
202001111200 METAR MRLM 111200Z 25004KT 9999 FEW015 SCT100 22/21 A2985=
202001111300 METAR MRLM 111300Z 25002KT 9999 FEW015 SCT100 23/22 A2987=
202001111400 METAR MRLM 111400Z 27002KT CAVOK 26/23 A2990=
202001111500 METAR MRLM 111500Z 10004KT CAVOK 27/24 A2989=
202001111600 METAR MRLM 111600Z 10005KT CAVOK 28/24 A2988=
202001111700 METAR MRLM 111700Z 09006KT CAVOK 28/24 A2986=
202001111800 METAR MRLM 111800Z 07008KT CAVOK 28/24 A2985=
202001111900 METAR MRLM 111900Z 05009KT CAVOK 29/24 A2982=
202001112000 METAR MRLM 112000Z 08008KT CAVOK 29/24 A2980=
202001112100 METAR MRLM 112100Z 07008KT CAVOK 29/24 A2979=
202001112200 METAR MRLM 112200Z 08005KT CAVOK 29/24 A2981=
202001112300 METAR MRLM 112300Z 10004KT CAVOK 28/24 A2982=
202001120000 METAR MRLM 120000Z 09004KT CAVOK 28/24 A2983=
202001120100 METAR MRLM NIL=
202001120200 METAR MRLM NIL=
202001120300 METAR MRLM NIL=
202001120400 METAR MRLM NIL=
202001120500 METAR MRLM NIL=
202001120600 METAR MRLM NIL=
202001120700 METAR MRLM NIL=
202001120800 METAR MRLM NIL=
202001120900 METAR MRLM NIL=
202001121000 METAR MRLM NIL=
202001121100 METAR MRLM NIL=
202001121200 METAR MRLM 121200Z 26003KT 3000 DZ OVC015 23/22 A2989=
202001121300 METAR MRLM 121300Z 23004KT 7000 3000N DZ BKN020 23/22 A2992=
202001121400 METAR MRLM 121400Z 23003KT 9999 FEW020 BKN110 24/23 A2995 REDZ=
202001121500 METAR MRLM 121500Z 22003KT 9999 FEW020 SCT130 27/24 A2995=
202001121600 METAR MRLM 121600Z 24004KT 9999 FEW020 BKN130 28/23 A2995=
202001121700 METAR MRLM 121700Z 04004KT 9999 FEW025 BKN120 27/24 A2994=
202001121800 METAR MRLM 121800Z 06004KT 9999 FEW030 BKN130 28/24 A2991=
202001121900 METAR MRLM 121900Z 02007KT CAVOK 28/24 A2988=
202001122000 METAR MRLM 122000Z 03005KT 9999 FEW030 BKN130 28/24 A2985=
202001122100 METAR MRLM 122100Z 03004KT 9999 FEW030 SCT260 28/24 A2985=
202001122200 METAR MRLM 122200Z 02005KT 9999 SCT020 28/24 A2985=
202001122300 METAR MRLM 122300Z 04012KT 6000 +DZ BKN015 26/24 A2985=
202001130000 METAR MRLM 130000Z 07002KT 5000 DZ BKN015 27/24 A2988=
202001130100 METAR MRLM NIL=
202001130200 METAR MRLM NIL=
202001130300 METAR MRLM NIL=
202001130400 METAR MRLM NIL=
202001130500 METAR MRLM NIL=
202001130600 METAR MRLM NIL=
202001130700 METAR MRLM NIL=
202001130800 METAR MRLM NIL=
202001130900 METAR MRLM NIL=
202001131000 METAR MRLM NIL=
202001131100 METAR MRLM NIL=
202001131200 METAR MRLM 131200Z 04009KT 9999 SCT020 27/23 A2989=
202001131300 METAR MRLM 131300Z 05005KT 9999 SCT020 BKN110 26/22 A2992=
202001131400 METAR MRLM 131400Z 21004KT 9999 FEW020 BKN100 24/22 A2995 RERA=
202001131500 METAR MRLM 131500Z 21005KT 9999 DZ BKN015 24/23 A2996=
202001131600 METAR MRLM 131600Z 18007KT 4000 RA BKN020 25/23 A2997=
202001131700 METAR MRLM 131700Z 26004KT 9999 4000 DZ SCT015 28/23 A2992=
202001131800 METAR MRLM 131800Z 01004KT 9999 4000N DZ SCT020 BKN110 24/23 A2992 RERA=
202001131900 METAR MRLM 131900Z 24006KT 9999 BKN020 26/24 A2989 REDZ=
202001132000 METAR MRLM 132000Z 21005KT 3000 RA BKN015 25/23 A2987=
202001132100 METAR MRLM 132100Z 22005KT 8000 3000N DZ BKN015 25/24 A2987=
202001132200 METAR MRLM 132200Z 29003KT 8000 BKN015 25/24 A2987 REDZ=
202001132300 METAR MRLM 132300Z 22003KT 9999 SCT015 BKN100 25/23 A2987=
202001140000 METAR MRLM 140000Z 23003KT 8000 3000N DZ SCT010 BKN100 24/23 A2989=
202001140100 METAR MRLM NIL=
202001140200 METAR MRLM NIL=
202001140300 METAR MRLM NIL=
202001140400 METAR MRLM NIL=
202001140500 METAR MRLM NIL=
202001140600 METAR MRLM NIL=
202001140700 METAR MRLM NIL=
202001140800 METAR MRLM NIL=
202001140900 METAR MRLM NIL=
202001141000 METAR MRLM NIL=
202001141100 METAR MRLM NIL=
202001141200 METAR MRLM 141200Z 22005KT 9000 VCSH SCT015 SCT090 23/22 A2989=
202001141300 METAR MRLM 141300Z 25005KT 9999 VCSH FEW015 SCT090 23/22 A2993=
202001141400 METAR MRLM 141400Z 21004KT 9999 VCSH FEW020 BKN100 25/23 A2995=
202001141500 METAR MRLM 141500Z 23005KT 9999 FEW020 SCT100 25/23 A2996=
202001141600 METAR MRLM 141600Z 23005KT 9999 FEW020 BKN100 27/23 A2995=
202001141700 METAR MRLM 141700Z 29003KT 9999 FEW020 SCT120 28/24 A2993=
202001141800 METAR MRLM 141800Z 06003KT 9999 -DZ VCSH SCT020 BKN120 28/23 A2991=
202001141900 METAR MRLM 141900Z 06003KT 9999 -DZ VCSH SCT020 BKN110 27/23 A2988=
202001142000 METAR MRLM 142000Z 19005KT 9999 -DZ FEW020TCU BKN110 27/24 A2985=
202001142100 METAR MRLM 142100Z 18003KT 9999 VCSH SCT020TCU BKN110 28/23 A2983=
202001142200 METAR MRLM 142200Z 23004KT 9999 FEW020 SCT110 25/24 A2984 REDZ=
202001142300 METAR MRLM 142300Z 22005KT 9999 -DZ VCSH SCT015 BKN100 25/23 A2983=
202001150000 METAR MRLM 150000Z 24003KT 9999 FEW015 SCT090 24/23 A2984 RERA=
202001150100 METAR MRLM NIL=
202001150200 METAR MRLM NIL=
202001150300 METAR MRLM NIL=
202001150400 METAR MRLM NIL=
202001150500 METAR MRLM NIL=
202001150600 METAR MRLM NIL=
202001150700 METAR MRLM NIL=
202001150800 METAR MRLM NIL=
202001150900 METAR MRLM NIL=
202001151000 METAR MRLM NIL=
202001151100 METAR MRLM NIL=
202001151200 METAR MRLM 151200Z 22002KT 8000 VCSH SCT015 SCT090 22/21 A2988=
202001151300 METAR MRLM 151300Z 26002KT 9000 VCSH FEW015 BKN090 23/22 A2991=
202001151400 METAR MRLM 151400Z 29003KT 9999 -DZ FEW015 BKN090 23/22 A2992=
202001151500 METAR MRLM 151500Z 36008KT 8000 DZ FEW015 OVC090 24/22 A2994=
202001151600 METAR MRLM 151600Z 21004KT 9999 SCT015 BKN090 24/22 A2994 REDZ=
202001151700 METAR MRLM 151700Z 24005KT 9999 SCT015 BKN100 24/22 A2994=
202001151800 METAR MRLM 151800Z 22005KT 9999 FEW020 BKN100 26/23 A2991=
202001151900 METAR MRLM 151900Z 19003KT 9999 FEW025 BKN120 28/23 A2988=
202001152000 METAR MRLM 152000Z 09005KT 9999 FEW025 BKN120 27/23 A2985=
202001152100 METAR MRLM 152100Z 08003KT CAVOK 28/23 A2984=
202001152200 METAR MRLM 152200Z 06003KT CAVOK 28/23 A2984=
202001152300 METAR MRLM 152300Z 03004KT CAVOK 27/23 A2985=
202001160000 METAR MRLM 160000Z 02004KT CAVOK 27/22 A2986=
202001160100 METAR MRLM NIL=
202001160200 METAR MRLM NIL=
202001160300 METAR MRLM NIL=
202001160400 METAR MRLM NIL=
202001160500 METAR MRLM NIL=
202001160600 METAR MRLM NIL=
202001160700 METAR MRLM NIL=
202001160800 METAR MRLM NIL=
202001160900 METAR MRLM NIL=
202001161000 METAR MRLM NIL=
202001161100 METAR MRLM NIL=
202001161200 METAR MRLM 161200Z 22004KT 9999 FEW010 BKN080 22/21 A2991=
202001161300 METAR MRLM 161300Z 23004KT 9999 VCSH FEW010 BKN080 22/21 A2992=
202001161400 METAR MRLM 161400Z 18003KT 9999 VCSH SCT010 BKN080 23/22 A2994=
202001161500 METAR MRLM 161500Z 20004KT 9999 FEW015 BKN090 25/22 A2995=
202001161600 METAR MRLM 161600Z 20004KT 9999 FEW015 BKN090 27/22 A2994=
202001161700 METAR MRLM 161700Z 14008KT 9999 FEW020 BKN090 27/22 A2993=
202001161800 METAR MRLM 161800Z 13004KT 9999 FEW020 BKN100 28/22 A2990=
202001161900 METAR MRLM 161900Z 08006KT 9999 FEW025 BKN100 29/23 A2987=
202001162000 METAR MRLM 162000Z 08005KT 9999 FEW025 SCT120 29/23 A2985=
202001162100 METAR MRLM 162100Z 07004KT CAVOK 29/23 A2983=
202001162200 METAR MRLM 162200Z 06006KT CAVOK 29/23 A2983=
202001162300 METAR MRLM NIL=
202001170000 METAR MRLM NIL=
202001170100 METAR MRLM NIL=
202001170200 METAR MRLM NIL=
202001170300 METAR MRLM NIL=
202001170400 METAR MRLM NIL=
202001170500 METAR MRLM NIL=
202001170600 METAR MRLM NIL=
202001170700 METAR MRLM NIL=
202001170800 METAR MRLM NIL=
202001170900 METAR MRLM NIL=
202001171000 METAR MRLM NIL=
202001171100 METAR MRLM NIL=
202001171200 METAR MRLM 171200Z 33005KT 8000 DZ VCSH SCT006 OVC070 24/23 A2987=
202001171300 METAR MRLM 171300Z 26004KT 9999 VCSH FEW010 BKN070 24/23 A2989=
202001171400 METAR MRLM 171400Z 32002KT 5000 +DZ FEW006 OVC070 23/23 A2993 RERA=
202001171500 METAR MRLM 171500Z 24004KT 8000 +DZ SCT006 OVC070 24/23 A2993=
202001171600 METAR MRLM 171600Z 22004KT 9999 VCSH SCT010 BKN080 25/24 A2993 RERA=
202001171700 METAR MRLM 171700Z 21004KT 9999 -DZ VCSH SCT010 BKN080 25/24 A2991=
202001171800 METAR MRLM 171800Z 19002KT 8000 DZ SCT010 OVC080 25/24 A2990=
202001171900 METAR MRLM 171900Z 21002KT 9999 FEW010 BKN080 26/25 A2987 REDZ=
202001172000 METAR MRLM 172000Z 12002KT 8000 +DZ FEW010 OVC080 27/24 A2985=
202001172100 METAR MRLM 172100Z 11002KT 9999 FEW015 BKN080 27/24 A2984 REDZ=
202001172200 METAR MRLM 172200Z 12004KT 9999 FEW015 BKN080 27/24 A2983=
202001172300 METAR MRLM NIL=
202001180000 METAR MRLM NIL=
202001180100 METAR MRLM NIL=
202001180200 METAR MRLM NIL=
202001180300 METAR MRLM NIL=
202001180400 METAR MRLM NIL=
202001180500 METAR MRLM NIL=
202001180600 METAR MRLM NIL=
202001180700 METAR MRLM NIL=
202001180800 METAR MRLM NIL=
202001180900 METAR MRLM NIL=
202001181000 METAR MRLM NIL=
202001181100 METAR MRLM NIL=
202001181200 METAR MRLM 181200Z 22004KT 9999 4000N VCSH FEW015TCU SCT090 24/23 A2988=
202001181300 METAR MRLM 181300Z 21004KT 8000 VCSH SCT015 BKN090 24/23 A2989=
202001181400 METAR MRLM 181400Z 28006KT 4000 +RA FEW005 OVC015 24/23 A2993=
202001181500 METAR MRLM 181500Z 23002KT 9000 VCSH SCT015 BKN090 26/24 A2993 RERA=
202001181600 METAR MRLM 181600Z 14007KT 8000 DZ SCT015 BKN090 25/24 A2993=
202001181700 METAR MRLM 181700Z 08014KT 9999 FEW015 BKN100 27/25 A2992 REDZ=
202001181800 METAR MRLM 181800Z 10008KT 9999 FEW015 OVC100 28/24 A2990=
202001181900 METAR MRLM 181900Z 06008KT 9999 +DZ VCSH FEW015 BKN100 28/25 A2987=
202001182000 METAR MRLM 182000Z 05011KT 9999 FEW020 BKN100 27/24 A2985 REDZ=
202001182100 METAR MRLM 182100Z 06009KT 9999 SCT020 BKN100 28/24 A2984=
202001182200 METAR MRLM 182200Z 06010KT 9999 VCSH FEW015TCU SCT020 BKN100 28/25 A2984=
202001182300 METAR MRLM NIL=
202001190000 METAR MRLM NIL=
202001190100 METAR MRLM NIL=
202001190200 METAR MRLM NIL=
202001190300 METAR MRLM NIL=
202001190400 METAR MRLM NIL=
202001190500 METAR MRLM NIL=
202001190600 METAR MRLM NIL=
202001190700 METAR MRLM NIL=
202001190800 METAR MRLM NIL=
202001190900 METAR MRLM NIL=
202001191000 METAR MRLM NIL=
202001191100 METAR MRLM NIL=
202001191200 METAR MRLM 191200Z 05012KT 9999 VCSH SCT015 BKN090 27/24 A2986=
202001191300 METAR MRLM 191300Z 04013KT 9999 VCSH SCT015 BKN090 27/24 A2987=
202001191400 METAR MRLM 191400Z 05012KT 9999 DZ VCSH SCT015 BKN090 27/25 A2990=
202001191500 METAR MRLM 191500Z 04013KT 9999 SCT015 BKN090 27/25 A2991 REDZ=
202001191600 METAR MRLM 191600Z 06012KT 9999 SCT015 BKN090 28/25 A2992=
202001191700 METAR MRLM 191700Z 04013KT 9999 FEW015TCU SCT020 BKN100 27/25 A2990=
202001191800 METAR MRLM 191800Z 05010KT 9999 FEW015TCU BKN100 28/25 A2988=
202001191900 METAR MRLM 191900Z 06009KT 9999 FEW020TCU BKN100 28/25 A2986=
202001192000 METAR MRLM 192000Z 03006KT 9999 VCSH SCT020TCU BKN100 28/25 A2984=
202001192100 METAR MRLM 192100Z 03009KT 9999 FEW020 BKN110 27/25 A2983=
202001192200 METAR MRLM 192200Z 08005KT 9999 SCT020 BKN110 27/25 A2983=
202001192300 METAR MRLM NIL=
202001200000 METAR MRLM NIL=
202001200100 METAR MRLM NIL=
202001200200 METAR MRLM NIL=
202001200300 METAR MRLM NIL=
202001200400 METAR MRLM NIL=
202001200500 METAR MRLM NIL=
202001200600 METAR MRLM NIL=
202001200700 METAR MRLM NIL=
202001200800 METAR MRLM NIL=
202001200900 METAR MRLM NIL=
202001201000 METAR MRLM NIL=
202001201100 METAR MRLM NIL=
202001201200 METAR MRLM 201200Z 24004KT 8000 FEW015 OVC090 23/23 A2990=
202001201300 METAR MRLM 201300Z 21002KT 8000 VCSH SCT015 OVC090 24/23 A2993=
202001201400 METAR MRLM 201400Z 26005KT 9999 SCT015 OVC090 24/23 A2995=
202001201500 METAR MRLM 201500Z 26005KT 9999 SCT015 OVC090 25/23 A2996=
202001201600 METAR MRLM 201600Z 00000KT 9999 -DZ FEW015 OVC100 26/24 A2997=
202001201700 METAR MRLM 201700Z 29002KT 9999 SCT020 OVC100 27/24 A2996=
202001201800 METAR MRLM 201800Z 31006KT 9999 SCT020 BKN100 27/24 A2994=
202001201900 METAR MRLM 201900Z 35011KT 9999 -DZ VCSH SCT015 OVC100 26/24 A2992=
202001202000 METAR MRLM 202000Z 34008KT 9999 -DZ SCT015 OVC100 25/23 A2991=
202001202100 METAR MRLM 202100Z 25005KT 9999 FEW015 OVC100 25/24 A2990=
202001202200 METAR MRLM 202200Z 31004KT 9000 DZ FEW015 OVC090 25/23 A2990=
202001202300 METAR MRLM NIL=
202001210000 METAR MRLM NIL=
202001210100 METAR MRLM NIL=
202001210200 METAR MRLM NIL=
202001210300 METAR MRLM NIL=
202001210400 METAR MRLM NIL=
202001210500 METAR MRLM NIL=
202001210600 METAR MRLM NIL=
202001210700 METAR MRLM NIL=
202001210800 METAR MRLM NIL=
202001210900 METAR MRLM NIL=
202001211000 METAR MRLM NIL=
202001211100 METAR MRLM NIL=
202001211200 METAR MRLM 211200Z 23004KT CAVOK 22/21 A2993=
202001211300 METAR MRLM 211300Z 28005KT CAVOK 23/22 A2995=
202001211400 METAR MRLM 211400Z 28006KT CAVOK 24/22 A2998=
202001211500 METAR MRLM 211500Z 28005KT CAVOK 25/22 A2998=
202001211600 METAR MRLM 211600Z 29006KT CAVOK 26/23 A2998=
202001211700 METAR MRLM 211700Z 29007KT 9999 FEW015 OVC200 27/23 A2996=
202001211800 METAR MRLM 211800Z 30007KT CAVOK 27/23 A2994=
202001211900 METAR MRLM 211900Z 33012KT 9999 FEW020 OVC200 27/23 A2993=
202001212000 METAR MRLM 212000Z 32011KT 9999 FEW020 OVC200 25/22 A2991=
202001212100 METAR MRLM 212100Z 30007KT 9999 FEW020 OVC200 25/22 A2990=
202001212200 METAR MRLM 212200Z 30008KT 9999 FEW020 OVC200 25/22 A2990=
202001212300 METAR MRLM NIL=
202001220000 METAR MRLM NIL=
202001220100 METAR MRLM NIL=
202001220200 METAR MRLM NIL=
202001220300 METAR MRLM NIL=
202001220400 METAR MRLM NIL=
202001220500 METAR MRLM NIL=
202001220600 METAR MRLM NIL=
202001220700 METAR MRLM NIL=
202001220800 METAR MRLM NIL=
202001220900 METAR MRLM NIL=
202001221000 METAR MRLM NIL=
202001221100 METAR MRLM NIL=
202001221200 METAR MRLM 221200Z 30014KT 9999 FEW015 SCT090 OVC200 23/20 A2996=
202001221300 METAR MRLM 221300Z 29011KT 9999 FEW015 SCT090 OVC200 23/21 A2998=
202001221400 METAR MRLM 221400Z 29009KT 9999 -DZ FEW015 OVC090 23/20 A3001=
202001221500 METAR MRLM 221500Z 28012KT 9999 FEW020 BKN110 24/20 A3002=
202001221600 METAR MRLM 221600Z 28012G22KT 9999 FEW020 BKN110 25/20 A3002=
202001221700 METAR MRLM 221700Z 29010KT 9999 FEW020 OVC110 25/20 A3000=
202001221800 METAR MRLM 221800Z 29012KT 9999 FEW020 BKN120 26/20 A2997=
202001221900 METAR MRLM 221900Z 29012KT 9999 FEW020 BKN120 26/20 A2995=
202001222000 METAR MRLM 222000Z 29010KT 9999 SCT020 BKN120 27/20 A2992=
202001222100 METAR MRLM 222100Z 29009KT 9999 SCT020 BKN120 26/20 A2991=
202001222200 METAR MRLM 222200Z 27006KT 9999 SCT015 OVC100 25/20 A2991=
202001222300 METAR MRLM NIL=
202001230000 METAR MRLM NIL=
202001230100 METAR MRLM NIL=
202001230200 METAR MRLM NIL=
202001230300 METAR MRLM NIL=
202001230400 METAR MRLM NIL=
202001230500 METAR MRLM NIL=
202001230600 METAR MRLM NIL=
202001230700 METAR MRLM NIL=
202001230800 METAR MRLM NIL=
202001230900 METAR MRLM NIL=
202001231000 METAR MRLM NIL=
202001231100 METAR MRLM NIL=
202001231200 METAR MRLM 231200Z 29002KT 9999 -DZ FEW010 OVC080 22/21 A2994=
202001231300 METAR MRLM 231300Z 25003KT 9999 SCT010 OVC080 22/21 A2995=
202001231400 METAR MRLM 231400Z 24003KT 9999 -DZ FEW010 OVC080 23/22 A2998=
202001231500 METAR MRLM 231500Z 25004KT 9999 FEW010 OVC080 23/22 A2999=
202001231600 METAR MRLM 231600Z 23005KT 9999 SCT015 OVC090 25/22 A2998=
202001231700 METAR MRLM 231700Z 28002KT 9999 SCT015 OVC090 25/23 A2996=
202001231800 METAR MRLM 231800Z 33003KT 9999 FEW015 BKN100 26/23 A2993=
202001231900 METAR MRLM 231900Z 02005KT 9999 FEW020 BKN100 27/23 A2990=
202001232000 METAR MRLM 232000Z 34008KT CAVOK 26/23 A2987=
202001232100 METAR MRLM 232100Z 31005KT CAVOK 26/23 A2987=
202001232200 METAR MRLM 232200Z 32006KT 9999 FEW020 BKN100 26/22 A2986=
202001232300 METAR MRLM NIL=
202001240000 METAR MRLM NIL=
202001240100 METAR MRLM NIL=
202001240200 METAR MRLM NIL=
202001240300 METAR MRLM NIL=
202001240400 METAR MRLM NIL=
202001240500 METAR MRLM NIL=
202001240600 METAR MRLM NIL=
202001240700 METAR MRLM NIL=
202001240800 METAR MRLM NIL=
202001240900 METAR MRLM NIL=
202001241000 METAR MRLM NIL=
202001241100 METAR MRLM NIL=
202001241200 METAR MRLM 241200Z 27003KT CAVOK 22/22 A2992=
202001241300 METAR MRLM 241300Z 24004KT CAVOK 23/22 A2994=
202001241400 METAR MRLM 241400Z 26002KT 9999 FEW020 BKN100 25/22 A2997=
202001241500 METAR MRLM 241500Z 35005KT 9999 FEW020 BKN100 26/22 A2998=
202001241600 METAR MRLM 241600Z 36011KT 9999 VCSH SCT020 BKN100 25/23 A2999=
202001241700 METAR MRLM 241700Z 03011KT 8000 DZ FEW015 OVC090 24/23 A2998=
202001241800 METAR MRLM 241800Z 02009KT 9000 DZ FEW015 OVC090 24/23 A2997=
202001241900 METAR MRLM 241900Z 33002KT 9999 -DZ FEW015 OVC090 25/22 A2994=
202001242000 METAR MRLM 242000Z 32006KT 9999 SCT015 OVC090 25/23 A2991 REDZ=
202001242100 METAR MRLM 242100Z 33002KT 9999 FEW020 BKN090 27/22 A2989=
202001242200 METAR MRLM 242200Z 27002KT 9999 FEW020 BKN100 26/23 A2989=
202001242300 METAR MRLM NIL=
202001250000 METAR MRLM NIL=
202001250100 METAR MRLM NIL=
202001250200 METAR MRLM NIL=
202001250300 METAR MRLM NIL=
202001250400 METAR MRLM NIL=
202001250500 METAR MRLM NIL=
202001250600 METAR MRLM NIL=
202001250700 METAR MRLM NIL=
202001250800 METAR MRLM NIL=
202001250900 METAR MRLM NIL=
202001251000 METAR MRLM NIL=
202001251100 METAR MRLM NIL=
202001251200 METAR MRLM 251200Z 25005KT 9999 DZ SCT015 OVC100 22/21 A2999=
202001251300 METAR MRLM 251300Z 24004KT 9999 -DZ SCT015 OVC100 22/22 A3000=
202001251400 METAR MRLM 251400Z 23002KT 9999 VCSH SCT015 BKN100 23/22 A3003=
202001251500 METAR MRLM 251500Z 23003KT 9999 VCSH SCT015 BKN100 25/22 A3004=
202001251600 METAR MRLM 251600Z 25003KT 9999 SCT015 BKN100 25/23 A3004=
202001251700 METAR MRLM 251700Z 27004KT 9999 SCT020 BKN100 26/22 A3002=
202001251800 METAR MRLM 251800Z 33003KT 9999 SCT020 BKN110 26/21 A2999=
202001251900 METAR MRLM 251900Z 25005KT 9999 SCT020 BKN110 26/22 A2996=
202001252000 METAR MRLM 252000Z 25005KT 9999 SCT015 BKN100 25/22 A2994=
202001252100 METAR MRLM 252100Z 25003KT 9999 SCT015 OVC100 24/22 A2993=
202001252200 METAR MRLM 252200Z 26004KT 9999 VCSH SCT015 BKN100 25/23 A2993=
202001252300 METAR MRLM NIL=
202001260000 METAR MRLM NIL=
202001260100 METAR MRLM NIL=
202001260200 METAR MRLM NIL=
202001260300 METAR MRLM NIL=
202001260400 METAR MRLM NIL=
202001260500 METAR MRLM NIL=
202001260600 METAR MRLM NIL=
202001260700 METAR MRLM NIL=
202001260800 METAR MRLM NIL=
202001260900 METAR MRLM NIL=
202001261000 METAR MRLM NIL=
202001261100 METAR MRLM NIL=
202001261200 METAR MRLM 261200Z 23005KT 9999 FEW015 BKN090 20/20 A2999=
202001261300 METAR MRLM 261300Z 24003KT 9999 FEW015 BKN090 22/21 A3002=
202001261400 METAR MRLM 261400Z 29004KT 9999 FEW015 BKN100 24/21 A3004=
202001261500 METAR MRLM 261500Z 30005KT 9999 FEW020 BKN100 24/21 A3004=
202001261600 METAR MRLM 261600Z 35005KT 9999 FEW020 BKN120 26/21 A3003=
202001261700 METAR MRLM 261700Z 01007KT 9999 FEW020 BKN120 26/22 A3002=
202001261800 METAR MRLM 261800Z 01007KT CAVOK 27/22 A2999=
202001261900 METAR MRLM 261900Z 01007KT CAVOK 27/22 A2997=
202001262000 METAR MRLM 262000Z 01007KT CAVOK 26/22 A2994=
202001262100 METAR MRLM 262100Z 01007KT CAVOK 27/22 A2991=
202001262200 METAR MRLM 262200Z 01005KT CAVOK 27/22 A2991=
202001262300 METAR MRLM NIL=
202001270000 METAR MRLM NIL=
202001270100 METAR MRLM NIL=
202001270200 METAR MRLM NIL=
202001270300 METAR MRLM NIL=
202001270400 METAR MRLM NIL=
202001270500 METAR MRLM NIL=
202001270600 METAR MRLM NIL=
202001270700 METAR MRLM NIL=
202001270800 METAR MRLM NIL=
202001270900 METAR MRLM NIL=
202001271000 METAR MRLM NIL=
202001271100 METAR MRLM NIL=
202001271200 METAR MRLM 271200Z 24003KT CAVOK 22/21 A2995=
202001271300 METAR MRLM 271300Z 23003KT CAVOK 24/22 A2996=
202001271400 METAR MRLM 271400Z 22003KT CAVOK 25/22 A2999=
202001271500 METAR MRLM 271500Z 15002KT 9999 FEW020 BKN100 26/22 A3000=
202001271600 METAR MRLM 271600Z 03006KT 9999 FEW020TCU SCT120 27/22 A3001=
202001271700 METAR MRLM 271700Z 02006KT 9999 FEW020 SCT120 27/23 A2999=
202001271800 METAR MRLM 271800Z 02006KT 9999 FEW025 28/22 A2997=
202001271900 METAR MRLM 271900Z 03006KT CAVOK 28/22 A2995=
202001272000 METAR MRLM 272000Z 06005KT CAVOK 28/22 A2992=
202001272100 METAR MRLM 272100Z 07005KT 9999 FEW025 28/22 A2991=
202001272200 METAR MRLM 272200Z 07004KT 9999 SCT020 SCT110 27/22 A2991=
202001272300 METAR MRLM NIL=
202001280000 METAR MRLM NIL=
202001280100 METAR MRLM NIL=
202001280200 METAR MRLM NIL=
202001280300 METAR MRLM NIL=
202001280400 METAR MRLM NIL=
202001280500 METAR MRLM NIL=
202001280600 METAR MRLM NIL=
202001280700 METAR MRLM NIL=
202001280800 METAR MRLM NIL=
202001280900 METAR MRLM NIL=
202001281000 METAR MRLM NIL=
202001281100 METAR MRLM NIL=
202001281200 METAR MRLM 281200Z 22005KT CAVOK 22/21 A2991=
202001281300 METAR MRLM 281300Z 21004KT CAVOK 22/21 A2992=
202001281400 METAR MRLM 281400Z 16002KT CAVOK 23/22 A2995=
202001281500 METAR MRLM 281500Z 09004KT CAVOK 27/22 A2995=
202001281600 METAR MRLM 281600Z 08010KT CAVOK 28/22 A2996=
202001281700 METAR MRLM 281700Z 09009KT CAVOK 28/22 A2994=
202001281800 METAR MRLM 281800Z 10009KT CAVOK 28/22 A2992=
202001281900 METAR MRLM 281900Z 12012KT CAVOK 29/22 A2988=
202001282000 METAR MRLM 282000Z 11010KT CAVOK 28/22 A2988=
202001282100 METAR MRLM 282100Z 10010KT CAVOK 28/22 A2984=
202001282200 METAR MRLM 282200Z 10008KT 9999 FEW025 SCT140 27/23 A2985=
202001282300 METAR MRLM 282300Z 11007KT 9999 FEW020 BKN130 27/23 A2985=
202001290000 METAR MRLM 290000Z 10007KT 9999 BKN015 26/24 A2988=
202001290100 METAR MRLM NIL=
202001290200 METAR MRLM NIL=
202001290300 METAR MRLM NIL=
202001290400 METAR MRLM NIL=
202001290500 METAR MRLM NIL=
202001290600 METAR MRLM NIL=
202001290700 METAR MRLM NIL=
202001290800 METAR MRLM NIL=
202001290900 METAR MRLM NIL=
202001291000 METAR MRLM NIL=
202001291100 METAR MRLM NIL=
202001291200 METAR MRLM 291200Z 22004KT 9999 SCT015 BKN100 23/22 A2993=
202001291300 METAR MRLM 291300Z 24003KT 9999 BKN015 23/23 A2995=
202001291400 METAR MRLM 291400Z 21003KT 9999 FEW020 BKN110 25/23 A2996=
202001291500 METAR MRLM 291500Z 20003KT 9999 FEW020 BKN110 26/23 A2996=
202001291600 METAR MRLM 291600Z 10006KT 9999 BKN020 26/24 A2997=
202001291700 METAR MRLM 291700Z 14008KT 5000 DZ SCT020 OVC100 25/24 A2996=
202001291800 METAR MRLM 291800Z 13006KT 9999 FEW020 BKN110 25/24 A2994 REDZ=
202001291900 METAR MRLM 291900Z 11010KT 9999 SCT025 BKN120 27/24 A2990=
202001292000 METAR MRLM 292000Z 10006KT 9999 BKN020 26/24 A2988=
202001292100 METAR MRLM 292100Z 04008KT 9999 BKN020 26/24 A2987=
202001292200 METAR MRLM 292200Z 03006KT 9999 DZ BKN020 26/23 A2986=
202001292300 METAR MRLM 292300Z 09009KT 9999 SCT020 BKN100 26/23 A2987 REDZ=
202001300000 METAR MRLM 300000Z 14006KT 9999 FEW010 BKN090 25/24 A2989=
202001300100 METAR MRLM NIL=
202001300200 METAR MRLM NIL=
202001300300 METAR MRLM NIL=
202001300400 METAR MRLM NIL=
202001300500 METAR MRLM NIL=
202001300600 METAR MRLM NIL=
202001300700 METAR MRLM NIL=
202001300800 METAR MRLM NIL=
202001300900 METAR MRLM NIL=
202001301000 METAR MRLM NIL=
202001301100 METAR MRLM NIL=
202001301200 METAR MRLM 301200Z 21004KT 9999 SCT015 OVC200 23/23 A2989=
202001301300 METAR MRLM 301300Z 32002KT 9999 FEW015 SCT200 24/23 A2991=
202001301400 METAR MRLM 301400Z 00000KT CAVOK 27/23 A2993=
202001301500 METAR MRLM 301500Z 08002KT 9999 FEW020 BKN110 27/23 A2994=
202001301600 METAR MRLM 301600Z 10007KT 9999 FEW020 BKN110 27/23 A2994=
202001301700 METAR MRLM 301700Z 10006KT 9999 FEW020 BKN120 28/24 A2992=
202001301800 METAR MRLM 301800Z 08007KT 9999 FEW025 BKN120 28/23 A2991=
202001301900 METAR MRLM 301900Z 07006KT 9999 SCT025 SCT120 28/23 A2990=
202001302000 METAR MRLM 302000Z 06007KT 9999 FEW025 SCT120 28/23 A2987=
202001302100 METAR MRLM 302100Z 07006KT 9999 FEW025 28/23 A2986=
202001302200 METAR MRLM 302200Z 08007KT 9999 FEW025 28/23 A2986=
202001302300 METAR MRLM 302300Z 08007KT 9999 SCT020 SCT100 27/23 A2986=
202001310000 METAR MRLM 310000Z 05007KT 9999 BKN020 SCT100 27/23 A2988=
202001310100 METAR MRLM NIL=
202001310200 METAR MRLM NIL=
202001310300 METAR MRLM NIL=
202001310400 METAR MRLM NIL=
202001310500 METAR MRLM NIL=
202001310600 METAR MRLM NIL=
202001310700 METAR MRLM NIL=
202001310800 METAR MRLM NIL=
202001310900 METAR MRLM NIL=
202001311000 METAR MRLM NIL=
202001311100 METAR MRLM NIL=
202001311200 METAR MRLM 311200Z 22004KT 9999 SCT015 21/21 A2991=
202001311300 METAR MRLM 311300Z 22004KT 9999 FEW015 22/21 A2992=
202001311400 METAR MRLM 311400Z 08003KT 9999 FEW020 25/22 A2994=
202001311500 METAR MRLM 311500Z 12006KT 9999 FEW020 28/22 A2996=
202001311600 METAR MRLM 311600Z 12008KT 9999 FEW025 SCT120 28/22 A2996=
202001311700 METAR MRLM 311700Z 11008KT 9999 FEW025 29/22 A2995=
202001311800 METAR MRLM 311800Z 10009KT 9999 FEW025 29/23 A2993=
202001311900 METAR MRLM 311900Z 10010KT 9999 FEW030 29/23 A2990=
202001312000 METAR MRLM 312000Z 09009KT CAVOK 28/23 A2988=
202001312100 METAR MRLM 312100Z 09008KT CAVOK 28/23 A2987=
202001312200 METAR MRLM 312200Z 10008KT 9999 FEW025 28/23 A2987=
202001312300 METAR MRLM 312300Z 10008KT 9999 FEW025 27/23 A2988=
202002010000 METAR MRLM 010000Z 12008KT 9999 FEW020 SCT120 27/23 A2988=
202002010100 METAR MRLM NIL=
202002010200 METAR MRLM NIL=
202002010300 METAR MRLM NIL=
202002010400 METAR MRLM NIL=
202002010500 METAR MRLM NIL=
202002010600 METAR MRLM NIL=
202002010700 METAR MRLM NIL=
202002010800 METAR MRLM NIL=
202002010900 METAR MRLM NIL=
202002011000 METAR MRLM NIL=
202002011100 METAR MRLM NIL=
202002011200 METAR MRLM 011200Z 23005KT 9999 FEW010 BKN110 21/19 A2993=
202002011300 METAR MRLM 011300Z 27004KT 9999 FEW015 BKN110 21/19 A2996=
202002011400 METAR MRLM 011400Z 29003KT 9999 FEW015 BKN120 24/21 A2998=
202002011500 METAR MRLM 011500Z 29004KT 9999 FEW030 BKN120 27/21 A3000=
202002011600 METAR MRLM 011600Z 33004KT 9999 FEW030 BKN130 27/22 A2999=
202002011700 METAR MRLM 011700Z 02007KT 9999 FEW030 BKN130 27/23 A2998=
202002011800 METAR MRLM 011800Z 02006KT 9999 FEW030 BKN130 27/23 A2995=
202002011900 METAR MRLM 011900Z 03003KT CAVOK 28/21 A2993=
202002012000 METAR MRLM 012000Z 08002KT CAVOK 28/21 A2991=
202002012100 METAR MRLM 012100Z 36012KT 9999 FEW030 BKN130 27/23 A2990=
202002012200 METAR MRLM 012200Z 31006KT 9999 FEW030 BKN130 26/23 A2990=
202002012300 METAR MRLM 012300Z 31004KT CAVOK 26/23 A2991=
202002020000 METAR MRLM 020000Z 28005KT CAVOK 25/22 A2994=
202002020100 METAR MRLM NIL=
202002020200 METAR MRLM NIL=
202002020300 METAR MRLM NIL=
202002020400 METAR MRLM NIL=
202002020500 METAR MRLM NIL=
202002020600 METAR MRLM NIL=
202002020700 METAR MRLM NIL=
202002020800 METAR MRLM NIL=
202002020900 METAR MRLM NIL=
202002021000 METAR MRLM NIL=
202002021100 METAR MRLM NIL=
202002021200 METAR MRLM 021200Z 22004KT 3000 RA BKN015 22/22 A2997=
202002021300 METAR MRLM 021300Z 24005KT 6000 DZ BKN015 22/22 A3000 RERA=
202002021400 METAR MRLM 021400Z 23005KT 9999 SCT015 OVC090 23/22 A3003=
202002021500 METAR MRLM 021500Z 24003KT 7000 3000N RA BKN015 24/23 A3005=
202002021600 METAR MRLM 021600Z 28006KT 9999 FEW020 BKN100 25/24 A3004 RERA=
202002021700 METAR MRLM 021700Z 28006KT 9999 FEW020 BKN120 27/23 A3002=
202002021800 METAR MRLM 021800Z 28004KT 9999 DZ BKN015 27/24 A3000=
202002021900 METAR MRLM 021900Z 29004KT 9999 SCT015 BKN100 25/23 A2997 REDZ=
202002022000 METAR MRLM 022000Z 27003KT 9999 VCSH FEW015 BKN110 25/23 A2995=
202002022100 METAR MRLM 022100Z 27005KT 9999 DZ SCT015 BKN110 25/23 A2994=
202002022200 METAR MRLM 022200Z 24003KT 9999 VCSH SCT010 BKN100 25/23 A2993=
202002022300 METAR MRLM NIL=
202002030000 METAR MRLM 030000Z 23003KT 9999 BKN010 24/23 A2993 REDZ=
202002030100 METAR MRLM NIL=
202002030200 METAR MRLM NIL=
202002030300 METAR MRLM NIL=
202002030400 METAR MRLM NIL=
202002030500 METAR MRLM NIL=
202002030600 METAR MRLM NIL=
202002030700 METAR MRLM NIL=
202002030800 METAR MRLM NIL=
202002030900 METAR MRLM NIL=
202002031000 METAR MRLM NIL=
202002031100 METAR MRLM NIL=
202002031200 METAR MRLM 031200Z 21005KT 9999 VCSH FEW015 BKN090 22/21 A2996=
202002031300 METAR MRLM 031300Z 21004KT CAVOK 24/22 A2998=
202002031400 METAR MRLM 031400Z 22002KT CAVOK 26/23 A3000=
202002031500 METAR MRLM 031500Z 09004KT CAVOK 27/24 A3001=
202002031600 METAR MRLM 031600Z 11005KT CAVOK 28/23 A3001=
202002031700 METAR MRLM 031700Z 12007KT CAVOK 29/22 A3000=
202002031800 METAR MRLM 031800Z 11006KT CAVOK 30/21 A2998=
202002031900 METAR MRLM 031900Z 10005KT CAVOK 30/21 A2996=
202002032000 METAR MRLM 032000Z 09006KT CAVOK 29/22 A2993=
202002032100 METAR MRLM 032100Z 09006KT CAVOK 29/22 A2991=
202002032200 METAR MRLM 032200Z 09005KT 9999 FEW030 SCT240 28/22 A2991=
202002032300 METAR MRLM 032300Z 07003KT 9999 SCT030 SCT240 28/23 A2992=
202002040000 METAR MRLM 040000Z 00000KT 9999 FEW020TCU SCT220 25/23 A2993=
202002040100 METAR MRLM NIL=
202002040200 METAR MRLM NIL=
202002040300 METAR MRLM NIL=
202002040400 METAR MRLM NIL=
202002040500 METAR MRLM NIL=
202002040600 METAR MRLM NIL=
202002040700 METAR MRLM NIL=
202002040800 METAR MRLM NIL=
202002040900 METAR MRLM NIL=
202002041000 METAR MRLM NIL=
202002041100 METAR MRLM NIL=
202002041200 METAR MRLM 041200Z 23004KT CAVOK 22/21 A2994=
202002041300 METAR MRLM 041300Z 23002KT CAVOK 23/22 A2997=
202002041400 METAR MRLM 041400Z 22002KT CAVOK 25/22 A2999=
202002041500 METAR MRLM 041500Z 10003KT CAVOK 27/22 A3000=
202002041600 METAR MRLM 041600Z 10004KT CAVOK 27/23 A3000=
202002041700 METAR MRLM 041700Z 08004KT CAVOK 28/23 A2998=
202002041800 METAR MRLM 041800Z 07006KT CAVOK 28/23 A2995=
202002041900 METAR MRLM 041900Z 06006KT CAVOK 28/23 A2993=
202002042000 METAR MRLM 042000Z 05006KT CAVOK 28/23 A2990=
202002042100 METAR MRLM 042100Z 04006KT 9999 FEW025 BKN120 28/23 A2989=
202002042200 METAR MRLM 042200Z 04004KT 9999 FEW025 BKN120 27/23 A2989=
202002042300 METAR MRLM 042300Z 05003KT 9999 FEW020 BKN110 27/24 A2990=
202002050000 METAR MRLM 050000Z 00000KT CAVOK 27/24 A2991=
202002050100 METAR MRLM NIL=
202002050200 METAR MRLM NIL=
202002050300 METAR MRLM NIL=
202002050400 METAR MRLM NIL=
202002050500 METAR MRLM NIL=
202002050600 METAR MRLM NIL=
202002050700 METAR MRLM NIL=
202002050800 METAR MRLM NIL=
202002050900 METAR MRLM NIL=
202002051000 METAR MRLM NIL=
202002051100 METAR MRLM NIL=
202002051200 METAR MRLM 051200Z 22004KT 9999 FEW010 BKN110 23/21 A2992=
202002051300 METAR MRLM 051300Z 21005KT 9999 FEW015 BKN120 23/21 A2994=
202002051400 METAR MRLM 051400Z 23003KT 9999 FEW020 BKN120 25/22 A2995=
202002051500 METAR MRLM 051500Z 21004KT CAVOK 26/23 A2997=
202002051600 METAR MRLM 051600Z 13009KT 9999 FEW020 BKN110 26/22 A2997=
202002051700 METAR MRLM 051700Z 17002KT 9999 FEW020 BKN120 27/22 A2995=
202002051800 METAR MRLM 051800Z 11004KT CAVOK 28/22 A2991=
202002051900 METAR MRLM 051900Z 10004KT CAVOK 29/23 A2988=
202002052000 METAR MRLM 052000Z 08005KT CAVOK 29/22 A2984=
202002052100 METAR MRLM 052100Z 07005KT CAVOK 28/22 A2982=
202002052200 METAR MRLM 052200Z 08006KT CAVOK 28/23 A2982=
202002052300 METAR MRLM 052300Z 08003KT CAVOK 28/23 A2983=
202002060000 METAR MRLM 060000Z 10003KT CAVOK 27/23 A2985=
202002060100 METAR MRLM NIL=
202002060200 METAR MRLM NIL=
202002060300 METAR MRLM NIL=
202002060400 METAR MRLM NIL=
202002060500 METAR MRLM NIL=
202002060600 METAR MRLM NIL=
202002060700 METAR MRLM NIL=
202002060800 METAR MRLM NIL=
202002060900 METAR MRLM NIL=
202002061000 METAR MRLM NIL=
202002061100 METAR MRLM NIL=
202002061200 METAR MRLM 061200Z 20005KT 9999 -DZ BKN010 22/21 A2986=
202002061300 METAR MRLM 061300Z 23006KT 9999 BKN020 23/22 A2988=
202002061400 METAR MRLM 061400Z 24003KT 9999 SCT020 BKN100 25/23 A2991=
202002061500 METAR MRLM 061500Z 27002KT 9999 FEW025 BKN120 28/23 A2992=
202002061600 METAR MRLM 061600Z 03006KT 9999 FEW030 SCT130 28/24 A2992=
202002061700 METAR MRLM 061700Z 03005KT 9999 FEW030 SCT240 29/23 A2989=
202002061800 METAR MRLM 061800Z 02006KT 9999 FEW030 29/24 A2987=
202002061900 METAR MRLM 061900Z 02007KT 9999 FEW030 29/24 A2986=
202002062000 METAR MRLM 062000Z 03006KT 9999 FEW030 29/24 A2983=
202002062100 METAR MRLM 062100Z 05006KT 9999 FEW030 28/23 A2982=
202002062200 METAR MRLM 062200Z 05005KT 9999 SCT025 28/23 A2981=
202002062300 METAR MRLM 062300Z 07004KT 9999 SCT020 27/22 A2982=
202002070000 METAR MRLM 070000Z 07003KT 9999 SCT020 BKN120 27/22 A2985=
202002070100 METAR MRLM NIL=
202002070200 METAR MRLM NIL=
202002070300 METAR MRLM NIL=
202002070400 METAR MRLM NIL=
202002070500 METAR MRLM NIL=
202002070600 METAR MRLM NIL=
202002070700 METAR MRLM NIL=
202002070800 METAR MRLM NIL=
202002070900 METAR MRLM NIL=
202002071000 METAR MRLM NIL=
202002071100 METAR MRLM NIL=
202002071200 METAR MRLM 071200Z 23004KT CAVOK 20/20 A2986=
202002071300 METAR MRLM 071300Z 26002KT CAVOK 21/20 A2989=
202002071400 METAR MRLM 071400Z 25002KT CAVOK 25/21 A2991=
202002071500 METAR MRLM 071500Z 16003KT CAVOK 28/23 A2993=
202002071600 METAR MRLM 071600Z 07006KT 9999 FEW030 28/22 A2993=
202002071700 METAR MRLM 071700Z 08006KT CAVOK 29/22 A2992=
202002071800 METAR MRLM 071800Z 07007KT CAVOK 29/23 A2990=
202002071900 METAR MRLM 071900Z 07008KT CAVOK 29/23 A2988=
202002072000 METAR MRLM 072000Z 05007KT 9999 FEW025 BKN120 29/24 A2986=
202002072100 METAR MRLM 072100Z 04007KT 9999 FEW025 BKN120 28/24 A2986=
202002072200 METAR MRLM 072200Z 05008KT 9999 FEW020TCU BKN120 28/23 A2986=
202002072300 METAR MRLM 072300Z 05009KT 9999 SCT020 BKN120 28/23 A2986=
202002080000 METAR MRLM 080000Z 04009KT 9999 SCT020 BKN200 27/23 A2988=
202002080100 METAR MRLM NIL=
202002080200 METAR MRLM NIL=
202002080300 METAR MRLM NIL=
202002080400 METAR MRLM NIL=
202002080500 METAR MRLM NIL=
202002080600 METAR MRLM NIL=
202002080700 METAR MRLM NIL=
202002080800 METAR MRLM NIL=
202002080900 METAR MRLM NIL=
202002081000 METAR MRLM NIL=
202002081100 METAR MRLM NIL=
202002081200 METAR MRLM 081200Z 23005KT 9999 FEW015TCU BKN200 23/22 A2987=
202002081300 METAR MRLM 081300Z 25004KT 9999 FEW015TCU SCT200 24/22 A2999=
202002081400 METAR MRLM 081400Z 24003KT 9999 VCSH SCT020TCU SCT220 27/23 A3000=
202002081500 METAR MRLM 081500Z 35005KT 9999 FEW020TCU SCT220 28/23 A3001=
202002081600 METAR MRLM 081600Z 02006KT 9999 FEW030 SCT120 29/23 A3002=
202002081700 METAR MRLM 081700Z 02007KT 9999 FEW030 29/22 A3001=
202002081800 METAR MRLM 081800Z 03006KT 9999 FEW030 SCT130 29/23 A2999=
202002081900 METAR MRLM 081900Z 03006KT 9999 FEW030 SCT130 29/23 A2997=
202002082000 METAR MRLM 082000Z 03009KT 9999 FEW030 BKN130 28/21 A2994=
202002082100 METAR MRLM 082100Z 02006KT CAVOK 28/23 A2992=
202002082200 METAR MRLM 082200Z 02003KT CAVOK 28/23 A2992=
202002082300 METAR MRLM 082300Z 03004KT CAVOK 28/22 A2993=
202002090000 METAR MRLM 090000Z 00000KT 9999 FEW020 BKN220 26/23 A2994=
202002090100 METAR MRLM NIL=
202002090200 METAR MRLM NIL=
202002090300 METAR MRLM NIL=
202002090400 METAR MRLM NIL=
202002090500 METAR MRLM NIL=
202002090600 METAR MRLM NIL=
202002090700 METAR MRLM NIL=
202002090800 METAR MRLM NIL=
202002090900 METAR MRLM NIL=
202002091000 METAR MRLM NIL=
202002091100 METAR MRLM NIL=
202002091200 METAR MRLM 091200Z 22004KT CAVOK 21/20 A3000=
202002091300 METAR MRLM 091300Z 22005KT CAVOK 22/20 A3001=
202002091400 METAR MRLM 091400Z 22005KT 9999 FEW020 BKN120 24/21 A3003=
202002091500 METAR MRLM 091500Z 10007KT 9999 FEW025 BKN120 25/21 A3005=
202002091600 METAR MRLM 091600Z 21004KT CAVOK 27/21 A3004=
202002091700 METAR MRLM 091700Z 09003KT 9999 FEW030 BKN140 29/21 A3003=
202002091800 METAR MRLM 091800Z 09004KT 9999 FEW030 29/21 A3001=
202002091900 METAR MRLM 091900Z 08005KT 9999 FEW030 28/21 A2997=
202002092000 METAR MRLM 092000Z 09005KT 9999 FEW035 29/21 A2994=
202002092100 METAR MRLM 092100Z 06005KT 9999 FEW030 28/22 A2993=
202002092200 METAR MRLM 092200Z 06005KT CAVOK 28/21 A2993=
202002092300 METAR MRLM 092300Z 07005KT CAVOK 28/21 A2992=
202002100000 METAR MRLM 100000Z 09004KT CAVOK 26/21 A2995=
202002100100 METAR MRLM NIL=
202002100200 METAR MRLM NIL=
202002100300 METAR MRLM NIL=
202002100400 METAR MRLM NIL=
202002100500 METAR MRLM NIL=
202002100600 METAR MRLM NIL=
202002100700 METAR MRLM NIL=
202002100800 METAR MRLM NIL=
202002100900 METAR MRLM NIL=
202002101000 METAR MRLM NIL=
202002101100 METAR MRLM NIL=
202002101200 METAR MRLM 101200Z 24005KT CAVOK 18/16 A2992=
202002101300 METAR MRLM 101300Z 25004KT CAVOK 20/17 A2993=
202002101400 METAR MRLM 101400Z 00000KT CAVOK 25/18 A2994=
202002101500 METAR MRLM 101500Z 10004KT CAVOK 27/18 A2995=
202002101600 METAR MRLM 101600Z 08006KT CAVOK 27/19 A2995=
202002101700 METAR MRLM 101700Z 07006KT CAVOK 29/21 A2994=
202002101800 METAR MRLM 101800Z 10007KT CAVOK 29/20 A2992=
202002101900 METAR MRLM 101900Z 08009KT CAVOK 29/23 A2989=
202002102000 METAR MRLM 102000Z 09009KT CAVOK 29/23 A2986=
202002102100 METAR MRLM 102100Z 09009KT CAVOK 29/23 A298=
202002102200 METAR MRLM 102200Z 08009KT CAVOK 29/23 A2984=
202002102300 METAR MRLM 102300Z 09007KT CAVOK 28/23 A2985=
202002110000 METAR MRLM 110000Z 08007KT CAVOK 27/22 A2987=
202002110100 METAR MRLM NIL=
202002110200 METAR MRLM NIL=
202002110300 METAR MRLM NIL=
202002110400 METAR MRLM NIL=
202002110500 METAR MRLM NIL=
202002110600 METAR MRLM NIL=
202002110700 METAR MRLM NIL=
202002110800 METAR MRLM NIL=
202002110900 METAR MRLM NIL=
202002111000 METAR MRLM NIL=
202002111100 METAR MRLM NIL=
202002111200 METAR MRLM 111200Z 23005KT 9999 SCT015 BKN090 22/21 A2990=
202002111300 METAR MRLM 111300Z 26003KT 9999 FEW020 BKN100 22/21 A2992=
202002111400 METAR MRLM 111400Z 29002KT 9999 DZ SCT020 BKN110 25/21 A2995=
202002111500 METAR MRLM 111500Z 04010KT 9999 SCT015 BKN110 25/21 A2995 REDZ=
202002111600 METAR MRLM 111600Z 22004KT 9999 FEW020 BKN120 24/22 A2997=
202002111700 METAR MRLM 111700Z 23006KT CAVOK 26/21 A2995=
202002111800 METAR MRLM 111800Z 23004KT CAVOK 28/21 A2993=
202002111900 METAR MRLM 111900Z 08003KT 9999 FEW025 BKN130 28/22 A2991=
202002112000 METAR MRLM 112000Z 04003KT 9999 FEW025 BKN130 29/22 A2987=
202002112100 METAR MRLM 112100Z 02005KT CAVOK 29/22 A2986=
202002112200 METAR MRLM 112200Z 03005KT CAVOK 28/22 A2985=
202002112300 METAR MRLM NIL=
202002120000 METAR MRLM NIL=
202002120100 METAR MRLM NIL=
202002120200 METAR MRLM NIL=
202002120300 METAR MRLM NIL=
202002120400 METAR MRLM NIL=
202002120500 METAR MRLM NIL=
202002120600 METAR MRLM NIL=
202002120700 METAR MRLM NIL=
202002120800 METAR MRLM NIL=
202002120900 METAR MRLM NIL=
202002121000 METAR MRLM NIL=
202002121100 METAR MRLM NIL=
202002121200 METAR MRLM 121200Z 23004KT 9999 4000N VCSH SCT015 BKN090 23/22 A2990=
202002121300 METAR MRLM 121300Z 26003KT 9000 VCSH SCT015 BKN090 23/22 A2991=
202002121400 METAR MRLM 121400Z 29003KT 8000 -DZ SCT015 OVC090 23/22 A2994=
202002121500 METAR MRLM 121500Z 24006KT 9999 -DZ FEW015 BKN090 24/23 A2995=
202002121600 METAR MRLM 121600Z 24004KT 9999 VCSH SCT015 BKN090 26/23 A2995=
202002121700 METAR MRLM 121700Z 30004KT 6000 DZ FEW015 OVC090 25/23 A2994=
202002121800 METAR MRLM 121800Z 23005KT 9000 -DZ FEW015 OVC090 24/23 A2992=
202002121900 METAR MRLM 121900Z 22004KT 9999 FEW020 OVC100 25/23 A2990=
202002122000 METAR MRLM 122000Z 23007KT CAVOK 25/23 A2987=
202002122100 METAR MRLM 122100Z 23005KT CAVOK 27/23 A2985=
202002122200 METAR MRLM 122200Z 23004KT 9999 FEW020 BKN100 26/23 A2985=
202002122300 METAR MRLM 122300Z 22003KT 9999 VCSH SCT015 BKN100 26/24 A2985=
202002130000 METAR MRLM 130000Z 22003KT 6000 +DZ SCT015 OVC080 24/23 A2987=
202002130100 METAR MRLM NIL=
202002130200 METAR MRLM NIL=
202002130300 METAR MRLM NIL=
202002130400 METAR MRLM NIL=
202002130500 METAR MRLM NIL=
202002130600 METAR MRLM NIL=
202002130700 METAR MRLM NIL=
202002130800 METAR MRLM NIL=
202002130900 METAR MRLM NIL=
202002131000 METAR MRLM NIL=
202002131100 METAR MRLM NIL=
202002131200 METAR MRLM 131200Z 24003KT 9999 FEW015 BKN100 22/21 A2988=
202002131300 METAR MRLM 131300Z 26003KT CAVOK 24/22 A2990=
202002131400 METAR MRLM 131400Z 00000KT CAVOK 27/23 A2991=
202002131500 METAR MRLM 131500Z 08003KT CAVOK 28/24 A2992=
202002131600 METAR MRLM 131600Z 07003KT CAVOK 28/24 A2992=
202002131700 METAR MRLM 131700Z 05005KT CAVOK 29/24 A2990=
202002131800 METAR MRLM 131800Z 03012KT 9999 FEW030 SCT130 27/24 A2989=
202002131900 METAR MRLM 131900Z 04011KT CAVOK 27/24 A2987=
202002132000 METAR MRLM 132000Z 07008KT 9999 BKN020 26/24 A2984=
202002132100 METAR MRLM 132100Z 08005KT 9999 FEW020 BKN130 26/24 A2982=
202002132200 METAR MRLM 132200Z 02010KT 9999 DZ BKN020 27/22 A2982=
202002132300 METAR MRLM 132300Z 35003KT 9999 FEW020 BKN100 26/23 A2983 REDZ=
202002140000 METAR MRLM 140000Z 00000KT 9999 FEW015 BKN100 25/23 A2986=
202002140100 METAR MRLM NIL=
202002140200 METAR MRLM NIL=
202002140300 METAR MRLM NIL=
202002140400 METAR MRLM NIL=
202002140500 METAR MRLM NIL=
202002140600 METAR MRLM NIL=
202002140700 METAR MRLM NIL=
202002140800 METAR MRLM NIL=
202002140900 METAR MRLM NIL=
202002141000 METAR MRLM NIL=
202002141100 METAR MRLM NIL=
202002141200 METAR MRLM 141200Z 24003KT 9999 DZ SCT015 BKN090 23/22 A2992=
202002141300 METAR MRLM 141300Z 00000KT 9999 VCSH SCT015 BKN100 23/22 A2993 REDZ=
202002141400 METAR MRLM 141400Z 13003KT 9999 DZ SCT015 BKN100 24/23 A2996=
202002141500 METAR MRLM 141500Z 29003KT 3000 +RA BKN015 24/23 A2998=
202002141600 METAR MRLM 141600Z 26004KT 8000 DZ SCT015 BKN100 24/23 A2998 RERA=
202002141700 METAR MRLM 141700Z 21004KT 9999 BKN020 25/23 A2996=
202002141800 METAR MRLM 141800Z 22006KT 9999 SCT025 BKN120 27/23 A2993=
202002141900 METAR MRLM 141900Z 00000KT 9999 SCT025 28/23 A2991=
202002142000 METAR MRLM 142000Z 00000KT 9999 BKN025 28/23 A2989=
202002142100 METAR MRLM 142100Z 05002KT 9999 FEW030 28/23 A2987=
202002142200 METAR MRLM 142200Z 00000KT 9999 4000E +DZ BKN020 28/23 A2988=
202002142300 METAR MRLM 142300Z 00000KT 9999 SCT015 23/21 A2988 REDZ=
202002150000 METAR MRLM 150000Z 24005KT 9999 SCT015 23/21 A2990=
202002150100 METAR MRLM NIL=
202002150200 METAR MRLM NIL=
202002150300 METAR MRLM NIL=
202002150400 METAR MRLM NIL=
202002150500 METAR MRLM NIL=
202002150600 METAR MRLM NIL=
202002150700 METAR MRLM NIL=
202002150800 METAR MRLM NIL=
202002150900 METAR MRLM NIL=
202002151000 METAR MRLM NIL=
202002151100 METAR MRLM NIL=
202002151200 METAR MRLM 151200Z 22003KT CAVOK 21/20 A2994=
202002151300 METAR MRLM 151300Z 27002KT CAVOK 22/21 A2996=
202002151400 METAR MRLM 151400Z 25002KT CAVOK 26/22 A2997=
202002151500 METAR MRLM 151500Z 04004KT CAVOK 27/23 A2999=
202002151600 METAR MRLM 151600Z 02006KT CAVOK 28/23 A2999=
202002151700 METAR MRLM 151700Z 02005KT 9999 FEW025 SCT120 28/24 A2997=
202002151800 METAR MRLM 151800Z 01005KT CAVOK 29/24 A2994=
202002151900 METAR MRLM 151900Z 01010KT 9999 FEW030 BKN120 29/24 A2992=
202002152000 METAR MRLM 152000Z 03015KT 9999 VCSH SCT025 OVC110 27/21 A2990=
202002152100 METAR MRLM 152100Z 07010KT 9999 VCSH FEW025 BKN110 26/22 A2988=
202002152200 METAR MRLM 152200Z 34007KT 9999 VCSH SCT020 BKN100 26/22 A2988=
202002152300 METAR MRLM 152300Z 27003KT 9999 FEW020 BKN100 26/22 A2987=
202002160000 METAR MRLM 160000Z 21003KT 9999 FEW020TCU BKN100 25/22 A2988=
202002160100 METAR MRLM NIL=
202002160200 METAR MRLM NIL=
202002160300 METAR MRLM NIL=
202002160400 METAR MRLM NIL=
202002160500 METAR MRLM NIL=
202002160600 METAR MRLM NIL=
202002160700 METAR MRLM NIL=
202002160800 METAR MRLM NIL=
202002160900 METAR MRLM NIL=
202002161000 METAR MRLM NIL=
202002161100 METAR MRLM NIL=
202002161200 METAR MRLM 161200Z 24003KT 9999 VCSH SCT010 BKN090 22/21 A2989=
202002161300 METAR MRLM 161300Z 23003KT 9999 SCT010 BKN090 22/21 A2991=
202002161400 METAR MRLM 161400Z 28002KT 9999 SCT015 OVC090 23/22 A2993=
202002161500 METAR MRLM 161500Z 22003KT 9000 -DZ FEW015 OVC090 23/22 A2996=
202002161600 METAR MRLM 161600Z 24005KT 9999 FEW015 OVC090 24/22 A2995=
202002161700 METAR MRLM 161700Z 20002KT 9999 SCT015 OVC090 25/23 A2995=
202002161800 METAR MRLM 161800Z 21004KT 9999 -DZ FEW015 OVC090 24/23 A2993=
202002161900 METAR MRLM 161900Z 22005KT 9999 FEW015 OVC090 25/23 A2990=
202002162000 METAR MRLM 162000Z 10006KT 8000 FEW015 OVC090 25/22 A2989=
202002162100 METAR MRLM 162100Z 22006KT 9999 FEW020 OVC100 24/22 A2985 REDZ=
202002162200 METAR MRLM 162200Z 22007KT 9999 FEW020 OVC100 24/22 A2985=
202002162300 METAR MRLM 162300Z 30005KT 9999 VCSH SCT020 OVC100 24/22 A2986=
202002170000 METAR MRLM 170000Z 26003KT 9999 -DZ SCT015 OVC100 23/21 A2986=
202002170100 METAR MRLM NIL=
202002170200 METAR MRLM NIL=
202002170300 METAR MRLM NIL=
202002170400 METAR MRLM NIL=
202002170500 METAR MRLM NIL=
202002170600 METAR MRLM NIL=
202002170700 METAR MRLM NIL=
202002170800 METAR MRLM NIL=
202002170900 METAR MRLM NIL=
202002171000 METAR MRLM NIL=
202002171100 METAR MRLM NIL=
202002171200 METAR MRLM 171200Z 20005KT 9999 4000N DZ SCT015 OVC090 22/20 A2988=
202002171300 METAR MRLM 171300Z 30003KT 9999 FEW015 BKN100 22/21 A2989 REDZ=
202002171400 METAR MRLM 171400Z 29004KT 9999 FEW020 BKN110 23/21 A2990=
202002171500 METAR MRLM 171500Z 23004KT 9999 FEW020 BKN110 23/22 A2991=
202002171600 METAR MRLM 171600Z 32003KT 9999 FEW020 BKN120 25/21 A2991=
202002171700 METAR MRLM 171700Z 24003KT 9999 FEW020 OVC120 24/22 A2991 REDZ=
202002171800 METAR MRLM 171800Z 24003KT 8000 DZ SCT020 BKN110 23/22 A2988=
202002171900 METAR MRLM 171900Z 25005KT 9999 FEW020 BKN120 24/23 A2986 REDZ=
202002172000 METAR MRLM 172000Z 20004KT 9999 -DZ BKN020 25/23 A2984 REDZ=
202002172100 METAR MRLM 172100Z 24006KT 9999 DZ BKN020 24/22 A2982=
202002172200 METAR MRLM 172200Z 22003KT 9999 FEW020 BKN120 25/23 A2982 REDZ=
202002172300 METAR MRLM 172300Z 22004KT 9999 FEW020 BKN130 25/23 A2983=
202002180000 METAR MRLM 180000Z 21005KT 9999 FEW025 BKN130 24/22 A2985=
202002180100 METAR MRLM NIL=
202002180200 METAR MRLM NIL=
202002180300 METAR MRLM NIL=
202002180400 METAR MRLM NIL=
202002180500 METAR MRLM NIL=
202002180600 METAR MRLM NIL=
202002180700 METAR MRLM NIL=
202002180800 METAR MRLM NIL=
202002180900 METAR MRLM NIL=
202002181000 METAR MRLM NIL=
202002181100 METAR MRLM NIL=
202002181200 METAR MRLM 181200Z 27003KT 9999 VCSH BKN015 23/22 A2988=
202002181300 METAR MRLM 181300Z 22003KT 9999 DZ SCT015 BKN100 23/22 A2991=
202002181400 METAR MRLM 181400Z 22005KT 9999 DZ BKN015 23/22 A2992=
202002181500 METAR MRLM 181500Z 21006KT 9999 FEW020 SCT120 26/23 A2993=
202002181600 METAR MRLM 181600Z 20004KT 9999 SCT020 BKN120 28/23 A2992=
202002181700 METAR MRLM 181700Z 00000KT 9999 SCT015 BKN120 28/23 A2992=
202002181800 METAR MRLM 181800Z 08003KT 9999 SCT015 28/24 A2989=
202002181900 METAR MRLM 181900Z 04003KT 9999 FEW030 29/23 A2987=
202002182000 METAR MRLM 182000Z 03004KT 9999 FEW030 29/23 A2984=
202002182100 METAR MRLM 182100Z 04005KT 9999 FEW030 SCT250 29/23 A2983=
202002182200 METAR MRLM 182200Z 03005KT 9999 FEW030 BKN130 28/23 A2983=
202002182300 METAR MRLM 182300Z 05012KT 9999 SCT020 BKN120 27/24 A2984=
202002190000 METAR MRLM 190000Z 09005KT 9999 FEW020 BKN120 27/23 A2984=
202002190100 METAR MRLM NIL=
202002190200 METAR MRLM NIL=
202002190300 METAR MRLM NIL=
202002190400 METAR MRLM NIL=
202002190500 METAR MRLM NIL=
202002190600 METAR MRLM NIL=
202002190700 METAR MRLM NIL=
202002190800 METAR MRLM NIL=
202002190900 METAR MRLM NIL=
202002191000 METAR MRLM NIL=
202002191100 METAR MRLM NIL=
202002191200 METAR MRLM 191200Z 21005KT CAVOK 23/22 A2992=
202002191300 METAR MRLM 191300Z 22004KT CAVOK 24/22 A2994=
202002191400 METAR MRLM 191400Z 21004KT CAVOK 27/23 A2996=
202002191500 METAR MRLM 191500Z 16003KT CAVOK 29/23 A2996=
202002191600 METAR MRLM 191600Z 05005KT 9999 FEW025 SCT120 29/25 A2996=
202002191700 METAR MRLM 191700Z 03009KT CAVOK 30/24 A2995=
202002191800 METAR MRLM 191800Z 01008KT CAVOK 29/25 A2993=
202002191900 METAR MRLM 191900Z 02009KT CAVOK 29/24 A2991=
202002192000 METAR MRLM 192000Z 04006KT CAVOK 29/24 A2988=
202002192100 METAR MRLM 192100Z 03005KT 9999 FEW020 BKN110 28/24 A2988=
202002192200 METAR MRLM 192200Z 05011KT 9999 -DZ VCSH SCT020 OVC100 26/24 A2988=
202002192300 METAR MRLM 192300Z 02005KT 9999 FEW020 BKN100 26/22 A2988=
202002200000 METAR MRLM 200000Z 18002KT 9999 FEW015 BKN090 25/23 A2989=
202002200100 METAR MRLM NIL=
202002200200 METAR MRLM NIL=
202002200300 METAR MRLM NIL=
202002200400 METAR MRLM NIL=
202002200500 METAR MRLM NIL=
202002200600 METAR MRLM NIL=
202002200700 METAR MRLM NIL=
202002200800 METAR MRLM NIL=
202002200900 METAR MRLM NIL=
202002201000 METAR MRLM NIL=
202002201100 METAR MRLM NIL=
202002201200 METAR MRLM 201200Z 23002KT 9999 VCSH FEW015TCU SCT200 23/22 A2992=
202002201300 METAR MRLM 201300Z 22002KT 9999 FEW015 SCT200 24/23 A2993=
202002201400 METAR MRLM 201400Z 21005KT 9999 SCT020 BKN200 26/24 A2994=
202002201500 METAR MRLM 201500Z 04002KT 9999 -DZ VCSH SCT020 OVC100 27/24 A2996=
202002201600 METAR MRLM 201600Z 05002KT 9999 VCSH SCT020 BKN100 28/23 A2997=
202002201700 METAR MRLM 201700Z 14007KT 9999 SCT020 BKN100 25/23 A2996=
202002201800 METAR MRLM 201800Z 07005KT 9999 FEW020TCU BKN110 28/23 A2993=
202002201900 METAR MRLM 201900Z 08005KT 9999 FEW025 BKN110 29/23 A2990=
202002202000 METAR MRLM 202000Z 01005KT CAVOK 28/24 A2988=
202002202100 METAR MRLM 202100Z 03005KT CAVOK 28/24 A2987=
202002202200 METAR MRLM 202200Z 05006KT 9999 FEW020 BKN120 28/24 A2986=
202002202300 METAR MRLM 202300Z 06008KT 9999 SCT020 BKN120 28/24 A2987=
202002210000 METAR MRLM 210000Z 05008KT 9999 SCT015 BKN100 27/24 A2988=
202002210100 METAR MRLM NIL=
202002210200 METAR MRLM NIL=
202002210300 METAR MRLM NIL=
202002210400 METAR MRLM NIL=
202002210500 METAR MRLM NIL=
202002210600 METAR MRLM NIL=
202002210700 METAR MRLM NIL=
202002210800 METAR MRLM NIL=
202002210900 METAR MRLM NIL=
202002211000 METAR MRLM NIL=
202002211100 METAR MRLM NIL=
202002211200 METAR MRLM 211200Z 23004KT 9999 4000N DZ BKN015 23/22 A2996=
202002211300 METAR MRLM 211300Z 20004KT 9999 SCT015 BKN090 23/22 A2998 REDZ=
202002211400 METAR MRLM 211400Z 23007KT 9999 DZ BKN020 23/22 A3001 RERA=
202002211500 METAR MRLM 211500Z 26006KT 9999 SCT020 BKN110 26/23 A3002=
202002211600 METAR MRLM 211600Z 22003KT 9999 FEW025 SCT120 26/23 A3003=
202002211700 METAR MRLM 211700Z 00000KT 9999 FEW030 SCT130 28/22 A3001=
202002211800 METAR MRLM 211800Z 09004KT 9999 SCT030 29/23 A2999=
202002211900 METAR MRLM 211900Z 11004KT 9999 FEW030 29/23 A2997=
202002212000 METAR MRLM 212000Z 07004KT 9999 FEW030 28/23 A2994=
202002212100 METAR MRLM 212100Z 07008KT 9999 FEW030 28/23 A2993=
202002212200 METAR MRLM 212200Z 05005KT 9999 FEW030 28/23 A2992=
202002212300 METAR MRLM 212300Z 08004KT 9999 BKN025 27/23 A2993=
202002220000 METAR MRLM 220000Z 09003KT 9999 BKN015 26/22 A2996=
202002220100 METAR MRLM NIL=
202002220200 METAR MRLM NIL=
202002220300 METAR MRLM NIL=
202002220400 METAR MRLM NIL=
202002220500 METAR MRLM NIL=
202002220600 METAR MRLM NIL=
202002220700 METAR MRLM NIL=
202002220800 METAR MRLM NIL=
202002220900 METAR MRLM NIL=
202002221000 METAR MRLM NIL=
202002221100 METAR MRLM NIL=
202002221200 METAR MRLM 221200Z 22006KT 9999 FEW015 BKN100 21/19 A2999=
202002221300 METAR MRLM 221300Z 25002KT CAVOK 22/20 A3002=
202002221400 METAR MRLM 221400Z 00000KT CAVOK 24/21 A3004=
202002221500 METAR MRLM 221500Z 00000KT CAVOK 26/22 A3005=
202002221600 METAR MRLM 221600Z 05004KT CAVOK 28/22 A3005=
202002221700 METAR MRLM 221700Z 02003KT CAVOK 28/22 A3003=
202002221800 METAR MRLM 221800Z 02003KT CAVOK 29/22 A3001=
202002221900 METAR MRLM 221900Z 01008KT CAVOK 29/23 A2999=
202002222000 METAR MRLM 222000Z 02010KT CAVOK 29/22 A2996=
202002222100 METAR MRLM NIL=
202002222200 METAR MRLM 222200Z 02007KT CAVOK 29/21 A2995=
202002222300 METAR MRLM 222300Z 01008KT CAVOK 28/22 A2995=
202002230000 METAR MRLM 230000Z 36006KT CAVOK 27/22 A2999=
202002230100 METAR MRLM NIL=
202002230200 METAR MRLM NIL=
202002230300 METAR MRLM NIL=
202002230400 METAR MRLM NIL=
202002230500 METAR MRLM NIL=
202002230600 METAR MRLM NIL=
202002230700 METAR MRLM NIL=
202002230800 METAR MRLM NIL=
202002230900 METAR MRLM NIL=
202002231000 METAR MRLM NIL=
202002231100 METAR MRLM NIL=
202002231200 METAR MRLM 231200Z 23005KT 9999 FEW015 19/18 A2998=
202002231300 METAR MRLM 231300Z 23005KT 9999 FEW015 21/19 A3000=
202002231400 METAR MRLM 231400Z 22005KT 9999 FEW020 24/20 A3000=
202002231500 METAR MRLM 231500Z 11003KT 9999 FEW030 28/21 A3001=
202002231600 METAR MRLM 231600Z 10005KT CAVOK 28/21 A3000=
202002231700 METAR MRLM 231700Z 10006KT CAVOK 28/21 A2998=
202002231800 METAR MRLM 231800Z 08005KT CAVOK 28/21 A2996=
202002231900 METAR MRLM 231900Z 09007KT CAVOK 29/21 A2993=
202002232000 METAR MRLM 232000Z 08008KT CAVOK 29/22 A2990=
202002232100 METAR MRLM 232100Z 07007KT 9999 FEW030 29/21 A2989=
202002232200 METAR MRLM 232200Z 06007KT 9999 FEW030 28/22 A2990=
202002232300 METAR MRLM 232300Z 06005KT 9999 FEW030 28/22 A2990=
202002240000 METAR MRLM 240000Z 05004KT 9999 FEW020 27/21 A2992=
202002240100 METAR MRLM NIL=
202002240200 METAR MRLM NIL=
202002240300 METAR MRLM NIL=
202002240400 METAR MRLM NIL=
202002240500 METAR MRLM NIL=
202002240600 METAR MRLM NIL=
202002240700 METAR MRLM NIL=
202002240800 METAR MRLM NIL=
202002240900 METAR MRLM NIL=
202002241000 METAR MRLM NIL=
202002241100 METAR MRLM NIL=
202002241200 METAR MRLM 241200Z 22004KT 9999 FEW015 SCT100 19/18 A2993=
202002241300 METAR MRLM 241300Z 23004KT CAVOK 20/19 A2995=
202002241400 METAR MRLM 241400Z 27002KT CAVOK 23/20 A2997=
202002241500 METAR MRLM 241500Z 03003KT CAVOK 26/19 A2998=
202002241600 METAR MRLM 241600Z 04004KT CAVOK 27/21 A2998=
202002241700 METAR MRLM 241700Z 05005KT 9999 FEW030 27/22 A2995=
202002241800 METAR MRLM 241800Z 05006KT CAVOK 28/21 A2992=
202002241900 METAR MRLM 241900Z 06006KT CAVOK 28/21 A2989=
202002242000 METAR MRLM 242000Z 04006KT CAVOK 28/22 A2988=
202002242100 METAR MRLM 242100Z 03006KT 9999 FEW030 28/22 A2986=
202002242200 METAR MRLM 242200Z 03005KT 9999 SCT025 28/22 A2986=
202002242300 METAR MRLM 242300Z 06002KT 9999 SCT025 27/22 A2986=
202002250000 METAR MRLM 250000Z 06004KT 9999 SCT020 27/22 A2987=
202002250100 METAR MRLM NIL=
202002250200 METAR MRLM NIL=
202002250300 METAR MRLM NIL=
202002250400 METAR MRLM NIL=
202002250500 METAR MRLM NIL=
202002250600 METAR MRLM NIL=
202002250700 METAR MRLM NIL=
202002250800 METAR MRLM NIL=
202002250900 METAR MRLM NIL=
202002251000 METAR MRLM NIL=
202002251100 METAR MRLM NIL=
202002251200 METAR MRLM 251200Z 33004KT 9999 FEW015 20/20 A2989=
202002251300 METAR MRLM 251300Z 23004KT 9999 SCT015 21/20 A2992=
202002251400 METAR MRLM 251400Z 14013KT 9999 FEW020 BKN130 24/22 A2994=
202002251500 METAR MRLM 251500Z 13013KT CAVOK 25/22 A2995=
202002251600 METAR MRLM 251600Z 12011KT CAVOK 26/22 A2995=
202002251700 METAR MRLM 251700Z 13005KT CAVOK 27/21 A2994=
202002251800 METAR MRLM 251800Z 10008KT 9999 FEW025 BKN130 29/22 A2993=
202002251900 METAR MRLM 251900Z 10008KT 9999 FEW025 BKN130 28/22 A2990=
202002252000 METAR MRLM 252000Z 09005KT CAVOK 29/22 A2988=
202002252100 METAR MRLM 252100Z 10006KT 9999 FEW030 BKN130 28/21 A2987=
202002252200 METAR MRLM 252200Z 10005KT 9999 FEW025 BKN130 27/21 A2986=
202002252300 METAR MRLM 252300Z 12007KT 9999 SCT020 BKN120 27/22 A2986=
202002260000 METAR MRLM 260000Z 12006KT 9999 FEW015 BKN110 27/22 A2990=
202002260100 METAR MRLM NIL=
202002260200 METAR MRLM NIL=
202002260300 METAR MRLM NIL=
202002260400 METAR MRLM NIL=
202002260500 METAR MRLM NIL=
202002260600 METAR MRLM NIL=
202002260700 METAR MRLM NIL=
202002260800 METAR MRLM NIL=
202002260900 METAR MRLM NIL=
202002261000 METAR MRLM NIL=
202002261100 METAR MRLM NIL=
202002261200 METAR MRLM 261200Z 23004KT CAVOK 22/21 A2990=
202002261300 METAR MRLM 261300Z 22003KT CAVOK 24/21 A2993=
202002261400 METAR MRLM 261400Z 00000KT CAVOK 26/22 A2994=
202002261500 METAR MRLM 261500Z 13008KT CAVOK 29/21 A2996=
202002261600 METAR MRLM 261600Z 12010KT CAVOK 29/22 A2997=
202002261700 METAR MRLM 261700Z 10009KT CAVOK 29/22 A2994=
202002261800 METAR MRLM 261800Z 09011KT CAVOK 29/22 A2992=
202002261900 METAR MRLM 261900Z 09012KT CAVOK 29/23 A2990=
202002262000 METAR MRLM 262000Z 08012KT CAVOK 29/23 A2988=
202002262100 METAR MRLM 262100Z 08011KT CAVOK 29/23 A2988=
202002262200 METAR MRLM 262200Z 06007KT 9999 FEW030 29/23 A2988=
202002262300 METAR MRLM 262300Z 06006KT 9999 BKN025 28/23 A2989=
202002270000 METAR MRLM 270000Z 07005KT 9999 BKN020 27/22 A2993=
202002270100 METAR MRLM NIL=
202002270200 METAR MRLM NIL=
202002270300 METAR MRLM NIL=
202002270400 METAR MRLM NIL=
202002270500 METAR MRLM NIL=
202002270600 METAR MRLM NIL=
202002270700 METAR MRLM NIL=
202002270800 METAR MRLM NIL=
202002270900 METAR MRLM NIL=
202002271000 METAR MRLM NIL=
202002271100 METAR MRLM NIL=
202002271200 METAR MRLM 271200Z 23004KT CAVOK 21/21 A2994=
202002271300 METAR MRLM 271300Z 22004KT CAVOK 23/22 A2996=
202002271400 METAR MRLM 271400Z 22003KT CAVOK 26/23 A2997=
202002271500 METAR MRLM 271500Z 11004KT CAVOK 28/23 A2999=
202002271600 METAR MRLM 271600Z 09005KT 9999 FEW030 SCT130 29/23 A2999=
202002271700 METAR MRLM 271700Z 08007KT 9999 FEW030 29/23 A2998=
202002271800 METAR MRLM 271800Z 08007KT CAVOK 29/23 A2996=
202002271900 METAR MRLM 271900Z 09007KT CAVOK 29/23 A2994=
202002272000 METAR MRLM 272000Z 06007KT 9999 FEW030 30/23 A2992=
202002272100 METAR MRLM 272100Z 06007KT 9999 FEW030 29/23 A2991=
202002272200 METAR MRLM 272200Z 04006KT 9999 FEW025 SCT120 28/24 A2992=
202002272300 METAR MRLM 272300Z 03005KT 9999 SCT020 SCT120 28/23 A2993=
202002280000 METAR MRLM 280000Z 02003KT 9999 FEW020 SCT110 28/23 A2994=
202002280100 METAR MRLM NIL=
202002280200 METAR MRLM NIL=
202002280300 METAR MRLM NIL=
202002280400 METAR MRLM NIL=
202002280500 METAR MRLM NIL=
202002280600 METAR MRLM NIL=
202002280700 METAR MRLM NIL=
202002280800 METAR MRLM NIL=
202002280900 METAR MRLM NIL=
202002281000 METAR MRLM NIL=
202002281100 METAR MRLM NIL=
202002281200 METAR MRLM 281200Z 25003KT 9999 VCSH FEW015TCU SCT100 22/21 A3000=
202002281300 METAR MRLM 281300Z 24004KT 9999 FEW015TCU SCT100 23/22 A3002=
202002281400 METAR MRLM 281400Z 24005KT 9999 FEW020TCU 26/23 A3003=
202002281500 METAR MRLM 281500Z 16002KT 9999 FEW020TCU 28/23 A3004=
202002281600 METAR MRLM 281600Z 02005KT 9999 FEW025TCU 29/23 A3005=
202002281700 METAR MRLM 281700Z 02006KT 9999 FEW025 29/23 A3003=
202002281800 METAR MRLM 281800Z 02007KT 9999 FEW025 29/22 A3001=
202002281900 METAR MRLM 281900Z 04007KT 9999 FEW030 29/22 A2999=
202002282000 METAR MRLM 282000Z 02007KT 9999 FEW030 29/22 A2997=
202002282100 METAR MRLM 282100Z 02006KT 9999 FEW030 29/22 A2995=
202002282200 METAR MRLM 282200Z 02007KT 9999 SCT025 28/22 A2995=
202002282300 METAR MRLM 282300Z 05009KT 9999 FEW020 SCT110 27/23 A2995=
202002290000 METAR MRLM 290000Z 03006KT CAVOK 27/22 A2996=
202002290100 METAR MRLM NIL=
202002290200 METAR MRLM NIL=
202002290300 METAR MRLM NIL=
202002290400 METAR MRLM NIL=
202002290500 METAR MRLM NIL=
202002290600 METAR MRLM NIL=
202002290700 METAR MRLM NIL=
202002290800 METAR MRLM NIL=
202002290900 METAR MRLM NIL=
202002291000 METAR MRLM NIL=
202002291100 METAR MRLM NIL=
202002291200 METAR MRLM 291200Z 22005KT CAVOK 22/21 A3002=
202002291300 METAR MRLM 291300Z 22003KT 9999 FEW030 24/22 A3004=
202002291400 METAR MRLM 291400Z 23005KT 9999 FEW030 SCT130 27/22 A3006=
202002291500 METAR MRLM 291500Z 21002KT 9999 FEW030 29/22 A3006=
202002291600 METAR MRLM 291600Z 02006KT 9999 FEW030 BKN130 29/24 A3006=
202002291700 METAR MRLM 291700Z 04007KT 9999 VCSH FEW020 BKN120 28/23 A3005=
202002291800 METAR MRLM 291800Z 04009KT 9999 FEW020 BKN120 28/22 A3002=
202002291900 METAR MRLM 291900Z 03004KT 9999 FEW025 BKN130 29/22 A3000=
202002292000 METAR MRLM 292000Z 07006KT CAVOK 29/22 A2996=
202002292100 METAR MRLM 292100Z 08008KT CAVOK 29/23 A2995=
202002292200 METAR MRLM 292200Z 10006KT CAVOK 29/22 A2995=
202002292300 METAR MRLM 292300Z 10005KT 9999 FEW025 28/22 A2996=
202003010000 METAR MRLM 010000Z 09007KT 9999 DZ SCT020 27/22 A2999=
202003010100 METAR MRLM NIL=
202003010200 METAR MRLM NIL=
202003010300 METAR MRLM NIL=
202003010400 METAR MRLM NIL=
202003010500 METAR MRLM NIL=
202003010600 METAR MRLM NIL=
202003010700 METAR MRLM NIL=
202003010800 METAR MRLM NIL=
202003010900 METAR MRLM NIL=
202003011000 METAR MRLM NIL=
202003011100 METAR MRLM NIL=
202003011200 METAR MRLM 011200Z 00000KT CAVOK 20/19 A2996=
202003011300 METAR MRLM 011300Z 00000KT CAVOK 20/20 A2998=
202003011400 METAR MRLM 011400Z 00000KT CAVOK 22/21 A3000=
202003011500 METAR MRLM 011500Z 00000KT CAVOK 26/22 A3002=
202003011600 METAR MRLM 011600Z 11004KT CAVOK 28/22 A3002=
202003011700 METAR MRLM 011700Z 12008KT CAVOK 29/21 A3000=
202003011800 METAR MRLM 011800Z 11008KT CAVOK 30/21 A2998=
202003011900 METAR MRLM 011900Z 09008KT CAVOK 30/23 A2995=
202003012000 METAR MRLM 012000Z 08011KT CAVOK 30/21 A2993=
202003012100 METAR MRLM 012100Z 08008KT CAVOK 29/22 A2990=
202003012200 METAR MRLM 012200Z 09006KT CAVOK 29/22 A2990=
202003012300 METAR MRLM 012300Z 08007KT CAVOK 28/22 A2992=
202003020000 METAR MRLM 020000Z 07005KT 9999 SCT020 27/22 A2995=
202003020100 METAR MRLM NIL=
202003020200 METAR MRLM NIL=
202003020300 METAR MRLM NIL=
202003020400 METAR MRLM NIL=
202003020500 METAR MRLM NIL=
202003020600 METAR MRLM NIL=
202003020700 METAR MRLM NIL=
202003020800 METAR MRLM NIL=
202003020900 METAR MRLM NIL=
202003021000 METAR MRLM NIL=
202003021100 METAR MRLM NIL=
202003021200 METAR MRLM 021200Z 22004KT 9999 FEW015 SCT100 20/19 A2993=
202003021300 METAR MRLM 021300Z 23004KT 9999 FEW015 SCT100 21/19 A2995=
202003021400 METAR MRLM 021400Z 21005KT CAVOK 25/21 A2997=
202003021500 METAR MRLM 021500Z 10004KT CAVOK 27/22 A2998=
202003021600 METAR MRLM 021600Z 11005KT 9999 FEW030 28/21 A2998=
202003021700 METAR MRLM 021700Z 11007KT CAVOK 28/21 A2996=
202003021800 METAR MRLM 021800Z 10008KT CAVOK 29/22 A2993=
202003021900 METAR MRLM 021900Z 09008KT CAVOK 29/21 A2991=
202003022000 METAR MRLM 022000Z 07008KT CAVOK 29/22 A2988=
202003022100 METAR MRLM 022100Z 08007KT 9999 FEW030 28/23 A2986=
202003022200 METAR MRLM 022200Z 07007KT 9999 FEW030 28/22 A2987=
202003022300 METAR MRLM 022300Z 08006KT 9999 FEW025 SCT120 28/23 A2987=
202003030000 METAR MRLM 030000Z 08006KT 9999 FEW020 SCT110 27/22 A2988=
202003030100 METAR MRLM NIL=
202003030200 METAR MRLM NIL=
202003030300 METAR MRLM NIL=
202003030400 METAR MRLM NIL=
202003030500 METAR MRLM NIL=
202003030600 METAR MRLM NIL=
202003030700 METAR MRLM NIL=
202003030800 METAR MRLM NIL=
202003030900 METAR MRLM NIL=
202003031000 METAR MRLM NIL=
202003031100 METAR MRLM NIL=
202003031200 METAR MRLM 031200Z 25003KT 9999 FEW015 SCT100 21/19 A2990=
202003031300 METAR MRLM 031300Z 22004KT CAVOK 22/19 A2993=
202003031400 METAR MRLM 031400Z 19003KT CAVOK 25/20 A2995=
202003031500 METAR MRLM 031500Z 12007KT 9999 FEW020 BKN120 27/21 A2996=
202003031600 METAR MRLM 031600Z 16006KT 9999 FEW020 BKN120 28/21 A2995=
202003031700 METAR MRLM 031700Z 12007KT 9999 FEW020 BKN120 29/22 A2993=
202003031800 METAR MRLM 031800Z 12008KT 9999 FEW025 BKN120 29/22 A2991=
202003031900 METAR MRLM 031900Z 12008KT CAVOK 29/22 A2988=
202003032000 METAR MRLM 032000Z 12010KT CAVOK 30/23 A2985=
202003032100 METAR MRLM 032100Z 09010KT CAVOK 29/22 A2984=
202003032200 METAR MRLM 032200Z 10009KT CAVOK 29/23 A2984=
202003032300 METAR MRLM 032300Z 09009KT CAVOK 28/23 A2985=
202003040000 METAR MRLM 040000Z 10006KT CAVOK 27/23 A2986=
202003040100 METAR MRLM NIL=
202003040200 METAR MRLM NIL=
202003040300 METAR MRLM NIL=
202003040400 METAR MRLM NIL=
202003040500 METAR MRLM NIL=
202003040600 METAR MRLM NIL=
202003040700 METAR MRLM NIL=
202003040800 METAR MRLM NIL=
202003040900 METAR MRLM NIL=
202003041000 METAR MRLM NIL=
202003041100 METAR MRLM NIL=
202003041200 METAR MRLM 041200Z 00000KT 9999 4000N DZ SCT015 22/21 A2992=
202003041300 METAR MRLM 041300Z 21004KT 9999 SCT015 BKN110 22/21 A2995 REDZ=
202003041400 METAR MRLM 041400Z 20003KT 9999 SCT020 BKN110 23/22 A2998=
202003041500 METAR MRLM 041500Z 13007KT 9999 SCT020 BKN120 25/23 A2996=
202003041600 METAR MRLM 041600Z 14006KT 9999 -DZ SCT020 BKN120 25/23 A2997=
202003041700 METAR MRLM 041700Z 13009KT 9999 FEW025 BKN120 27/21 A2995=
202003041800 METAR MRLM 041800Z 12006KT CAVOK 28/22 A2992=
202003041900 METAR MRLM 041900Z 12005KT CAVOK 29/23 A2989=
202003042000 METAR MRLM 042000Z 08005KT 9999 FEW030 SCT140 29/22 A2987=
202003042100 METAR MRLM 042100Z 08007KT 9999 FEW030 28/22 A2985=
202003042200 METAR MRLM 042200Z 08005KT 9999 FEW030 SCT130 28/23 A2985=
202003042300 METAR MRLM 042300Z 08005KT 9999 FEW025 BKN130 28/22 A2986=
202003050000 METAR MRLM 050000Z 06004KT 9999 FEW020 BKN120 27/22 A2989=
202003050100 METAR MRLM NIL=
202003050200 METAR MRLM NIL=
202003050300 METAR MRLM NIL=
202003050400 METAR MRLM NIL=
202003050500 METAR MRLM NIL=
202003050600 METAR MRLM NIL=
202003050700 METAR MRLM NIL=
202003050800 METAR MRLM NIL=
202003050900 METAR MRLM NIL=
202003051000 METAR MRLM NIL=
202003051100 METAR MRLM NIL=
202003051200 METAR MRLM 051200Z 21004KT 9999 FEW010 SCT120 21/20 A2993=
202003051300 METAR MRLM 051300Z 24004KT 9999 FEW015 SCT120 22/21 A2996=
202003051400 METAR MRLM 051400Z 22003KT 9999 FEW020 SCT120 23/22 A2997=
202003051500 METAR MRLM 051500Z 03004KT 9999 FEW020 BKN120 26/24 A2999=
202003051600 METAR MRLM 051600Z 06004KT 9999 FEW030 28/25 A2999=
202003051700 METAR MRLM 051700Z 08006KT 9999 FEW030 28/23 A2996=
202003051800 METAR MRLM 051800Z 07007KT 9999 FEW030 29/23 A2995=
202003051900 METAR MRLM 051900Z 05006KT 9999 FEW030 29/23 A2993=
202003052000 METAR MRLM 052000Z 04007KT 9999 FEW030 29/22 A2990=
202003052100 METAR MRLM 052100Z 04007KT 9999 FEW034 29/22 A2989=
202003052200 METAR MRLM 052200Z 04006KT 9999 FEW030 29/22 A2989=
202003052300 METAR MRLM 052300Z 02005KT 9999 SCT025 28/22 A2990=
202003060000 METAR MRLM 060000Z 04005KT 9999 BKN020 28/22 A2993=
202003060100 METAR MRLM NIL=
202003060200 METAR MRLM NIL=
202003060300 METAR MRLM NIL=
202003060400 METAR MRLM NIL=
202003060500 METAR MRLM NIL=
202003060600 METAR MRLM NIL=
202003060700 METAR MRLM NIL=
202003060800 METAR MRLM NIL=
202003060900 METAR MRLM NIL=
202003061000 METAR MRLM NIL=
202003061100 METAR MRLM NIL=
202003061200 METAR MRLM 061200Z 25005KT 9999 VCSH FEW015TCU BKN080 21/20 A2996=
202003061300 METAR MRLM 061300Z 22004KT 9999 VCSH FEW015TCU SCT090 21/20 A2998=
202003061400 METAR MRLM 061400Z 27002KT 9999 -DZ FEW015TCU BKN090 23/21 A3001=
202003061500 METAR MRLM 061500Z 25004KT 9999 VCSH FEW020 BKN090 25/23 A3003=
202003061600 METAR MRLM 061600Z 21004KT 9999 FEW020 SCT110 28/22 A3001=
202003061700 METAR MRLM 061700Z 06005KT 9999 FEW030 29/22 A2999=
202003061800 METAR MRLM 061800Z 04005KT 9999 FEW030 29/23 A2996=
202003061900 METAR MRLM 061900Z 03008KT 9999 FEW030 SCT120 29/23 A2995=
202003062000 METAR MRLM 062000Z 06010KT 9999 FEW025 BKN120 28/23 A2993=
202003062100 METAR MRLM 062100Z 10004KT CAVOK 27/21 A2991=
202003062200 METAR MRLM 062200Z 00000KT CAVOK 28/22 A2991=
202003062300 METAR MRLM 062300Z 02002KT 9999 FEW020 BKN110 28/22 A2992=
202003070000 METAR MRLM 070000Z 23002KT 9999 FEW015 BKN100 27/23 A2992=
202003070100 METAR MRLM NIL=
202003070200 METAR MRLM NIL=
202003070300 METAR MRLM NIL=
202003070400 METAR MRLM NIL=
202003070600 METAR MRLM NIL=
202003070700 METAR MRLM NIL=
202003070800 METAR MRLM NIL=
202003070900 METAR MRLM NIL=
202003071000 METAR MRLM NIL=
202003071100 METAR MRLM NIL=
202003071200 METAR MRLM 071200Z 23004KT 9999 FEW020 21/20 A2995=
202003071300 METAR MRLM 071300Z 26003KT 9999 FEW020 21/20 A2998=
202003071400 METAR MRLM 071400Z 25005KT CAVOK 25/22 A3000=
202003071500 METAR MRLM 071500Z 33005KT 9999 DZ SCT015 BKN120 29/23 A3002=
202003071600 METAR MRLM 071600Z 00000KT 9999 FEW015 BKN110 25/22 A3003 REDZ=
202003071700 METAR MRLM 071700Z 12007KT 9999 FEW025 BKN130 26/23 A3000=
202003071800 METAR MRLM 071800Z 08005KT 9999 DZ SCT020 BKN120 27/22 A3000=
202003071900 METAR MRLM 071900Z 03004KT 9999 FEW025 BKN130 28/22 A2996 REDZ=
202003072000 METAR MRLM 072000Z 23004KT 9999 FEW025 BKN130 25/21 A2993 REDZ=
202003072100 METAR MRLM 072100Z 07003KT CAVOK 28/19 A2991=
202003072200 METAR MRLM 072200Z 05003KT CAVOK 28/21 A2990=
202003072300 METAR MRLM 072300Z 05003KT CAVOK 28/21 A2991=
202003080000 METAR MRLM 080000Z 05004KT CAVOK 27/22 A2995=
202003080100 METAR MRLM NIL=
202003080200 METAR MRLM NIL=
202003080300 METAR MRLM NIL=
202003080400 METAR MRLM NIL=
202003080500 METAR MRLM NIL=
202003080600 METAR MRLM NIL=
202003080700 METAR MRLM NIL=
202003080800 METAR MRLM NIL=
202003080900 METAR MRLM NIL=
202003081000 METAR MRLM NIL=
202003081100 METAR MRLM NIL=
202003081200 METAR MRLM 081200Z 23005KT 9999 FEW015 20/19 A2996=
202003081300 METAR MRLM 081300Z 22004KT CAVOK 22/20 A2998=
202003081400 METAR MRLM 081400Z 21005KT CAVOK 25/21 A2999=
202003081500 METAR MRLM 081500Z 06004KT 9999 VCSH SCT020 BKN120 27/22 A3001=
202003081600 METAR MRLM 081600Z 35009KT 9999 FEW020 BKN110 25/20 A3003=
202003081700 METAR MRLM 081700Z 08008KT 9999 SCT020 BKN110 27/23 A3001=
202003081800 METAR MRLM 081800Z 00000KT 9999 FEW020 BKN120 27/22 A2999=
202003081900 METAR MRLM 081900Z 11004KT CAVOK 29/19 A2995=
202003082000 METAR MRLM 082000Z 06016KT 9999 SCT015 BKN100 24/22 A2995=
202003082100 METAR MRLM 082100Z 26005KT 9999 FEW020 BKN090 24/21 A2993=
202003082200 METAR MRLM 082200Z 22003KT 9999 -DZ SCT020 BKN100 24/20 A2993=
202003082300 METAR MRLM 082300Z 21004KT 9999 SCT020 BKN100 24/20 A2993=
202003090000 METAR MRLM 090000Z 21004KT 9999 FEW020 BKN100 23/19 A2994=
202003090100 METAR MRLM NIL=
202003090200 METAR MRLM NIL=
202003090300 METAR MRLM NIL=
202003090400 METAR MRLM NIL=
202003090500 METAR MRLM NIL=
202003090600 METAR MRLM NIL=
202003090700 METAR MRLM NIL=
202003090800 METAR MRLM NIL=
202003090900 METAR MRLM NIL=
202003091000 METAR MRLM NIL=
202003091100 METAR MRLM NIL=
202003091200 METAR MRLM 091200Z 23003KT CAVOK 19/18 A2999=
202003091300 METAR MRLM 091300Z 22004KT CAVOK 21/20 A3000=
202003091400 METAR MRLM 091400Z 23003KT CAVOK 25/20 A3002=
202003091500 METAR MRLM 091500Z 11004KT CAVOK 28/21 A3003=
202003091600 METAR MRLM 091600Z 11005KT CAVOK 29/21 A3003=
202003091700 METAR MRLM 091700Z 08006KT CAVOK 29/21 A3002=
202003091800 METAR MRLM 091800Z 05008KT CAVOK 29/21 A3000=
202003091900 METAR MRLM 091900Z 05011KT CAVOK 29/22 A2998=
202003092000 METAR MRLM 092000Z 07006KT CAVOK 29/22 A2995=
202003092100 METAR MRLM 092100Z 08006KT CAVOK 29/22 A2992=
202003092200 METAR MRLM 092200Z 07008KT CAVOK 28/22 A2991=
202003092300 METAR MRLM 092300Z 06008KT CAVOK 28/23 A2992=
202003100000 METAR MRLM 100000Z 06007KT CAVOK 27/24 A2994=
202003100100 METAR MRLM NIL=
202003100200 METAR MRLM NIL=
202003100300 METAR MRLM NIL=
202003100400 METAR MRLM NIL=
202003100500 METAR MRLM NIL=
202003100600 METAR MRLM NIL=
202003100700 METAR MRLM NIL=
202003100800 METAR MRLM NIL=
202003100900 METAR MRLM NIL=
202003101000 METAR MRLM NIL=
202003101100 METAR MRLM NIL=
202003101200 METAR MRLM 101200Z 29002KT CAVOK 20/19 A2997=
202003101300 METAR MRLM 101300Z 25003KT CAVOK 22/21 A2999=
202003101400 METAR MRLM 101400Z 23002KT CAVOK 27/22 A3002=
202003101500 METAR MRLM 101500Z 08003KT CAVOK 27/21 A3003=
202003101600 METAR MRLM 101600Z 05004KT CAVOK 28/21 A3004=
202003101700 METAR MRLM 101700Z 06004KT CAVOK 28/21 A3002=
202003101800 METAR MRLM 101800Z 06005KT CAVOK 29/22 A2999=
202003101900 METAR MRLM 101900Z 05008KT CAVOK 29/21 A2997=
202003102000 METAR MRLM 102000Z 05007KT CAVOK 30/21 A2993=
202003102100 METAR MRLM 102100Z 05007KT CAVOK 29/21 A2991=
202003102200 METAR MRLM 102200Z 06009KT CAVOK 29/22 A2990=
202003102300 METAR MRLM 102300Z 04007KT 9999 FEW030 28/22 A2991=
202003110000 METAR MRLM 110000Z 04006KT 9999 FEW020 28/23 A2992=
202003110100 METAR MRLM NIL=
202003110200 METAR MRLM NIL=
202003110300 METAR MRLM NIL=
202003110400 METAR MRLM NIL=
202003110500 METAR MRLM NIL=
202003110600 METAR MRLM NIL=
202003110700 METAR MRLM NIL=
202003110800 METAR MRLM NIL=
202003110900 METAR MRLM NIL=
202003111000 METAR MRLM NIL=
202003111100 METAR MRLM NIL=
202003111200 METAR MRLM 111200Z 25004KT 9999 FEW015 SCT090 21/20 A2993=
202003111300 METAR MRLM 111300Z 23002KT 9999 FEW015 SCT090 22/20 A2996=
202003111400 METAR MRLM 111400Z 23004KT 9999 FEW020 SCT100 24/22 A2999=
202003111500 METAR MRLM 111500Z 25003KT 9999 FEW020 BKN100 26/21 A3000=
202003111600 METAR MRLM 111600Z 31006KT 9999 -DZ FEW020 BKN100 25/22 A2999=
202003111700 METAR MRLM 111700Z 27005KT CAVOK 28/22 A2998=
202003111800 METAR MRLM 111800Z 01010KT CAVOK 28/23 A2993=
202003111900 METAR MRLM 111900Z 02008KT CAVOK 28/22 A2991=
202003112000 METAR MRLM 112000Z 03006KT CAVOK 29/22 A2986=
202003112100 METAR MRLM 112100Z 04008KT CAVOK 29/22 A2985=
202003112200 METAR MRLM 112200Z 08004KT CAVOK 29/21 A2984=
202003112300 METAR MRLM 112300Z 06005KT CAVOK 29/21 A2985=
202003120000 METAR MRLM 120000Z 05005KT CAVOK 28/21 A2987=
202003120100 METAR MRLM NIL=
202003120200 METAR MRLM NIL=
202003120300 METAR MRLM NIL=
202003120400 METAR MRLM NIL=
202003120500 METAR MRLM NIL=
202003120700 METAR MRLM NIL=
202003120800 METAR MRLM NIL=
202003120900 METAR MRLM NIL=
202003121000 METAR MRLM NIL=
202003121100 METAR MRLM NIL=
202003121200 METAR MRLM 121200Z 20004KT 9999 SCT020 BKN100 22/21 A2988=
202003121300 METAR MRLM 121300Z 21004KT 9999 FEW020 BKN100 22/21 A2989=
202003121400 METAR MRLM 121400Z 21003KT 9999 FEW020 BKN100 23/21 A2992=
202003121500 METAR MRLM 121500Z 00000KT 9999 SCT020 BKN110 24/22 A2992=
202003121600 METAR MRLM 121600Z 09011KT 9999 FEW025 BKN110 24/21 A2993=
202003121700 METAR MRLM 121700Z 20006KT CAVOK 26/21 A2992=
202003121800 METAR MRLM 121800Z 23004KT CAVOK 28/21 A2988=
202003121900 METAR MRLM 121900Z 05005KT CAVOK 30/20 A2985=
202003122000 METAR MRLM 122000Z 04009KT CAVOK 29/20 A2984=
202003122100 METAR MRLM 122100Z 06005KT CAVOK 29/20 A2983=
202003122200 METAR MRLM 122200Z 04007KT CAVOK 29/20 A2983=
202003122300 METAR MRLM 122300Z 03005KT CAVOK 28/22 A2984=
202003130000 METAR MRLM 130000Z 04005KT CAVOK 27/23 A2987=
202003130100 METAR MRLM NIL=
202003130200 METAR MRLM NIL=
202003130300 METAR MRLM NIL=
202003130400 METAR MRLM NIL=
202003130500 METAR MRLM NIL=
202003130600 METAR MRLM NIL=
202003130700 METAR MRLM NIL=
202003130800 METAR MRLM NIL=
202003130900 METAR MRLM NIL=
202003131000 METAR MRLM NIL=
202003131100 METAR MRLM NIL=
202003131200 METAR MRLM 131200Z 23003KT 9999 FEW020 BKN100 22/21 A2994=
202003131300 METAR MRLM 131300Z 23004KT CAVOK 24/22 A2994=
202003131400 METAR MRLM 131400Z 08003KT 9999 FEW020 BKN120 27/21 A2996=
202003131500 METAR MRLM 131500Z 11010KT 9999 FEW025 BKN120 28/22 A2997=
202003131600 METAR MRLM 131600Z 12009KT 9999 FEW025 BKN130 28/22 A2998=
202003131700 METAR MRLM 131700Z 08005KT 9999 FEW025 BKN130 28/21 A2996=
202003131800 METAR MRLM 131800Z 36011KT 9999 FEW020 BKN130 28/23 A2995=
202003131900 METAR MRLM 131900Z 02013KT 9999 FEW020 BKN130 28/23 A2994=
202003132000 METAR MRLM 132000Z 01012KT CAVOK 28/22 A2992=
202003132100 METAR MRLM 132100Z 01006KT 9999 SCT020 BKN100 27/22 A2990=
202003132200 METAR MRLM 132200Z 27003KT 9999 FEW020 BKN110 27/21 A2991=
202003132300 METAR MRLM 132300Z 27004KT 9999 SCT015 BKN100 26/22 A2991=
202003140000 METAR MRLM 140000Z 27004KT 9999 DZ SCT010 BKN100 25/23 A2994=
202003140100 METAR MRLM NIL=
202003140200 METAR MRLM NIL=
202003140300 METAR MRLM NIL=
202003140400 METAR MRLM NIL=
202003140500 METAR MRLM NIL=
202003140600 METAR MRLM NIL=
202003140700 METAR MRLM NIL=
202003140800 METAR MRLM NIL=
202003140900 METAR MRLM NIL=
202003141000 METAR MRLM NIL=
202003141100 METAR MRLM NIL=
202003141200 METAR MRLM 141200Z 23004KT 9999 VCSH FEW015 SCT100 23/22 A3000=
202003141300 METAR MRLM 141300Z 22004KT 9999 VCSH FEW015 SCT100 23/22 A3002=
202003141400 METAR MRLM 141400Z 00000KT 9999 FEW015 BKN100 25/22 A3003=
202003141500 METAR MRLM 141500Z 05002KT 9999 FEW020 SCT120 27/22 A3004=
202003141600 METAR MRLM 141600Z 07004KT 9999 FEW020 28/22 A3004=
202003141700 METAR MRLM 141700Z 05007KT CAVOK 29/22 A3002=
202003141800 METAR MRLM 141800Z 04009KT 9999 FEW030 SCT130 29/22 A3000=
202003141900 METAR MRLM 141900Z 06017KT 9999 FEW030 BKN130 27/23 A2997=
202003142000 METAR MRLM 142000Z 07007KT CAVOK 28/21 A2995=
202003142100 METAR MRLM 142100Z 16003KT CAVOK 29/20 A2993=
202003142200 METAR MRLM 142200Z 06007KT CAVOK 28/21 A2993=
202003142300 METAR MRLM 142300Z 04005KT CAVOK 28/21 A2994=
202003150000 METAR MRLM 150000Z 05004KT 9999 FEW020 BKN110 28/22 A2995=
202003150100 METAR MRLM NIL=
202003150200 METAR MRLM NIL=
202003150300 METAR MRLM NIL=
202003150400 METAR MRLM NIL=
202003150500 METAR MRLM NIL=
202003150600 METAR MRLM NIL=
202003150700 METAR MRLM NIL=
202003150800 METAR MRLM NIL=
202003150900 METAR MRLM NIL=
202003151000 METAR MRLM NIL=
202003151100 METAR MRLM NIL=
202003151200 METAR MRLM 151200Z 23004KT 9999 FEW015 SCT100 21/20 A2998=
202003151300 METAR MRLM 151300Z 22005KT CAVOK 23/21 A3001=
202003151400 METAR MRLM 151400Z 24003KT CAVOK 27/21 A3003=
202003151500 METAR MRLM 151500Z 07003KT 9999 FEW030 28/21 A3004=
202003151600 METAR MRLM 151600Z 04006KT 9999 FEW030 SCT130 28/22 A3005=
202003151700 METAR MRLM 151700Z 04013KT 9999 FEW025 BKN120 27/23 A3003=
202003151800 METAR MRLM 151800Z 09005KT 9999 FEW025TCU BKN120 28/22 A3000=
202003151900 METAR MRLM 151900Z 09010KT 9999 FEW030 SCT130 29/23 A2997=
202003152000 METAR MRLM 152000Z 06006KT CAVOK 28/23 A2994=
202003152100 METAR MRLM 152100Z 09007KT 9999 FEW030 SCT130 29/23 A2992=
202003152200 METAR MRLM 152200Z 08006KT 9999 FEW025 SCT130 29/23 A2993=
202003152300 METAR MRLM 152300Z 07006KT 9999 FEW025 28/23 A2994=
202003160000 METAR MRLM 160000Z 09003KT 9999 FEW020 28/23 A2995=
202003160100 METAR MRLM NIL=
202003160200 METAR MRLM NIL=
202003160300 METAR MRLM NIL=
202003160400 METAR MRLM NIL=
202003160500 METAR MRLM NIL=
202003160600 METAR MRLM NIL=
202003160700 METAR MRLM NIL=
202003160800 METAR MRLM NIL=
202003160900 METAR MRLM NIL=
202003161000 METAR MRLM NIL=
202003161100 METAR MRLM NIL=
202003161200 METAR MRLM 161200Z 22006KT 9999 SCT015 BKN090 22/20 A2999=
202003161300 METAR MRLM 161300Z 15006KT 9999 SCT020 BKN100 23/21 A3001=
202003161400 METAR MRLM 161400Z 22005KT 9999 -DZ SCT020 BKN100 22/21 A3004=
202003161500 METAR MRLM 161500Z 22007KT CAVOK 24/20 A3003=
202003161600 METAR MRLM 161600Z 22006KT CAVOK 26/21 A3003=
202003161700 METAR MRLM 161700Z 19004KT CAVOK 29/20 A3000=
202003161800 METAR MRLM 161800Z 11005KT CAVOK 29/20 A2997=
202003161900 METAR MRLM 161900Z 09007KT CAVOK 30/21 A2995=
202003162000 METAR MRLM 162000Z 08007KT CAVOK 30/20 A2991=
202003162100 METAR MRLM 162100Z 10009KT CAVOK 30/21 A2990=
202003162200 METAR MRLM 162200Z 09009KT CAVOK 30/20 A2990=
202003162300 METAR MRLM 162300Z 08010KT CAVOK 29/21 A2991=
202003170000 METAR MRLM 170000Z 08011KT CAVOK 28/22 A2994=
202003170100 METAR MRLM NIL=
202003170200 METAR MRLM NIL=
202003170300 METAR MRLM NIL=
202003170400 METAR MRLM NIL=
202003170500 METAR MRLM NIL=
202003170600 METAR MRLM NIL=
202003170700 METAR MRLM NIL=
202003170800 METAR MRLM NIL=
202003170900 METAR MRLM NIL=
202003171000 METAR MRLM NIL=
202003171100 METAR MRLM NIL=
202003171200 METAR MRLM 171200Z 00000KT CAVOK 23/20 A2998=
202003171300 METAR MRLM 171300Z 00000KT CAVOK 24/21 A3000=
202003171400 METAR MRLM 171400Z 00000KT 9999 FEW020 BKN110 26/22 A3001=
202003171500 METAR MRLM 171500Z 16003KT CAVOK 27/22 A3002=
202003171600 METAR MRLM 171600Z 11007KT CAVOK 29/22 A3002=
202003171700 METAR MRLM 171700Z 09005KT CAVOK 29/20 A3000=
202003171800 METAR MRLM 171800Z 11008KT CAVOK 30/21 A2997=
202003171900 METAR MRLM 171900Z 08007KT CAVOK 29/23 A2993=
202003172000 METAR MRLM 172000Z 09009KT CAVOK 30/22 A2992=
202003172100 METAR MRLM 172100Z 08016KT CAVOK 29/22 A2990=
202003172200 METAR MRLM 172200Z 08012KT CAVOK 29/23 A2991=
202003172300 METAR MRLM 172300Z 09009KT CAVOK 28/22 A2992=
202003180000 METAR MRLM 180000Z 08007KT CAVOK 28/23 A2995=
202003180100 METAR MRLM NIL=
202003180200 METAR MRLM NIL=
202003180300 METAR MRLM NIL=
202003180400 METAR MRLM NIL=
202003180500 METAR MRLM NIL=
202003180600 METAR MRLM NIL=
202003180700 METAR MRLM NIL=
202003180800 METAR MRLM NIL=
202003180900 METAR MRLM NIL=
202003181000 METAR MRLM NIL=
202003181100 METAR MRLM NIL=
202003181200 METAR MRLM 181200Z 28002KT 9999 FEW015 BKN100 21/20 A2998=
202003181300 METAR MRLM 181300Z 25002KT 9999 FEW015 BKN100 23/21 A3000=
202003181400 METAR MRLM 181400Z 22002KT 9999 VCSH FEW015 BKN100 24/21 A3002=
202003181500 METAR MRLM 181500Z 06004KT 9999 FEW020 SCT120 27/22 A3003=
202003181600 METAR MRLM 181600Z 08004KT 9999 FEW020 SCT120 28/21 A3003=
202003181700 METAR MRLM 181700Z 08007KT 9999 FEW030 SCT120 29/22 A3000=
202003181800 METAR MRLM 181800Z 09007KT 9999 FEW030 29/23 A2998=
202003181900 METAR MRLM 181900Z 07009KT 9999 FEW030 29/22 A2996=
202003182000 METAR MRLM 182000Z 06009KT 9999 FEW030 29/22 A2994=
202003182100 METAR MRLM 182100Z 07009KT 9999 FEW030 29/22 A2993=
202003182200 METAR MRLM 182200Z 07005KT 9999 FEW030 SCT120 29/22 A2993=
202003182300 METAR MRLM 182300Z 06007KT 9999 FEW030 SCT120 29/22 A2994=
202003190000 METAR MRLM 190000Z 08005KT 9999 SCT020 28/22 A2995=
202003190100 METAR MRLM NIL=
202003190200 METAR MRLM NIL=
202003190300 METAR MRLM NIL=
202003190400 METAR MRLM NIL=
202003190500 METAR MRLM NIL=
202003190600 METAR MRLM NIL=
202003190700 METAR MRLM NIL=
202003190800 METAR MRLM NIL=
202003190900 METAR MRLM NIL=
202003191000 METAR MRLM NIL=
202003191100 METAR MRLM NIL=
202003191200 METAR MRLM 191200Z 25002KT 9999 VCSH FEW015 SCT090 21/19 A2999=
202003191300 METAR MRLM 191300Z 21002KT 9999 FEW015 SCT090 22/20 A3001=
202003191400 METAR MRLM 191400Z 22003KT CAVOK 26/21 A3002=
202003191500 METAR MRLM 191500Z 09004KT CAVOK 28/22 A3003=
202003191600 METAR MRLM 191600Z 08005KT CAVOK 28/22 A3004=
202003191700 METAR MRLM 191700Z 08005KT CAVOK 29/22 A3002=
202003191800 METAR MRLM 191800Z 07006KT CAVOK 29/22 A2999=
202003191900 METAR MRLM 191900Z 07008KT CAVOK 29/23 A2996=
202003192000 METAR MRLM 192000Z 07009KT CAVOK 29/23 A2993=
202003192100 METAR MRLM 192100Z 10011KT CAVOK 29/24 A2992=
202003192200 METAR MRLM 192200Z 16002KT CAVOK 28/22 A2992=
202003192300 METAR MRLM 192300Z 20002KT CAVOK 27/22 A2992=
202003200000 METAR MRLM 200000Z 00000KT 9999 FEW020 SCT100 26/22 A2994=
202003200100 METAR MRLM NIL=
202003200200 METAR MRLM NIL=
202003200300 METAR MRLM NIL=
202003200400 METAR MRLM NIL=
202003200500 METAR MRLM NIL=
202003200600 METAR MRLM NIL=
202003200700 METAR MRLM NIL=
202003200800 METAR MRLM NIL=
202003200900 METAR MRLM NIL=
202003201000 METAR MRLM NIL=
202003201100 METAR MRLM NIL=
202003201200 METAR MRLM 201200Z 00000KT 9999 FEW020 BKN100 21/20 A3002=
202003201300 METAR MRLM 201300Z 07003KT 9999 SCT020 BKN100 22/21 A3005=
202003201400 METAR MRLM 201400Z 26006KT CAVOK 25/22 A3007=
202003201500 METAR MRLM 201500Z 29004KT CAVOK 28/21 A3008=
202003201600 METAR MRLM 201600Z 06004KT CAVOK 29/21 A3008=
202003201700 METAR MRLM 201700Z 05004KT CAVOK 29/22 A3005=
202003201800 METAR MRLM 201800Z 05006KT CAVOK 29/22 A3003=
202003201900 METAR MRLM 201900Z 06006KT CAVOK 29/22 A3000=
202003202000 METAR MRLM 202000Z 05003KT CAVOK 29/23 A2996=
202003202100 METAR MRLM 202100Z 07007KT CAVOK 29/23 A2995=
202003202200 METAR MRLM 202200Z 05005KT 9999 FEW035 29/23 A2994=
202003202300 METAR MRLM 202300Z 05004KT 9999 BKN030 28/23 A2995=
202003210000 METAR MRLM 210000Z 06006KT 9999 BKN020 28/22 A2999=
202003210100 METAR MRLM NIL=
202003210200 METAR MRLM NIL=
202003210300 METAR MRLM NIL=
202003210400 METAR MRLM NIL=
202003210500 METAR MRLM NIL=
202003210600 METAR MRLM NIL=
202003210700 METAR MRLM NIL=
202003210800 METAR MRLM NIL=
202003210900 METAR MRLM NIL=
202003211000 METAR MRLM NIL=
202003211100 METAR MRLM NIL=
202003211200 METAR MRLM 211200Z 00000KT 9999 SCT020 21/19 A3001=
202003211300 METAR MRLM 211300Z 00000KT 9999 FEW020 SCT110 23/20 A3002=
202003211400 METAR MRLM 211400Z 00000KT 9999 SCT020 BKN110 26/21 A3005=
202003211500 METAR MRLM 211500Z 32004KT 9999 SCT020 BKN110 27/22 A3005=
202003211600 METAR MRLM 211600Z 29003KT 9999 FEW020 BKN120 27/21 A3005=
202003211700 METAR MRLM 211700Z 03005KT 9999 FEW030 28/21 A3004=
202003211800 METAR MRLM 211800Z 02006KT 9999 FEW030 SCT130 29/21 A3001=
202003211900 METAR MRLM 211900Z 02006KT CAVOK 29/22 A2997=
202003212000 METAR MRLM 212000Z 04007KT CAVOK 29/22 A2994=
202003212100 METAR MRLM 212100Z 04007KT CAVOK 29/22 A2994=
202003212200 METAR MRLM 212200Z 04009KT CAVOK 29/22 A2992=
202003212300 METAR MRLM 212300Z 05009KT CAVOK 28/22 A2992=
202003220000 METAR MRLM 220000Z 06006KT CAVOK 27/21 A2996=
202003220100 METAR MRLM NIL=
202003220200 METAR MRLM NIL=
202003220300 METAR MRLM NIL=
202003220400 METAR MRLM NIL=
202003220500 METAR MRLM NIL=
202003220600 METAR MRLM NIL=
202003220700 METAR MRLM NIL=
202003220800 METAR MRLM NIL=
202003220900 METAR MRLM NIL=
202003221000 METAR MRLM NIL=
202003221100 METAR MRLM NIL=
202003221200 METAR MRLM 221200Z 26002KT 9999 FEW020 20/19 A2995=
202003221300 METAR MRLM 221300Z 22005KT 9999 FEW020 23/20 A2997=
202003221400 METAR MRLM 221400Z 20002KT CAVOK 27/21 A2999=
202003221500 METAR MRLM 221500Z 10005KT CAVOK 28/22 A3000=
202003221600 METAR MRLM 221600Z 11007KT CAVOK 29/21 A3000=
202003221700 METAR MRLM 221700Z 11006KT CAVOK 29/21 A2998=
202003221800 METAR MRLM 221800Z 10008KT CAVOK 29/22 A2996=
202003221900 METAR MRLM 221900Z 09007KT CAVOK 29/22 A2993=
202003222000 METAR MRLM 222000Z 07010KT CAVOK 30/22 A2991=
202003222100 METAR MRLM 222100Z 06012KT CAVOK 29/23 A2989=
202003222200 METAR MRLM 222200Z 06008KT CAVOK 29/23 A2990=
202003222300 METAR MRLM 222300Z 06009KT CAVOK 28/23 A2991=
202003230000 METAR MRLM 230000Z 06007KT 9999 FEW020 28/23 A2993=
202003230100 METAR MRLM NIL=
202003230200 METAR MRLM NIL=
202003230300 METAR MRLM NIL=
202003230400 METAR MRLM NIL=
202003230500 METAR MRLM NIL=
202003230600 METAR MRLM NIL=
202003230700 METAR MRLM NIL=
202003230800 METAR MRLM NIL=
202003230900 METAR MRLM NIL=
202003231000 METAR MRLM NIL=
202003231100 METAR MRLM NIL=
202003231200 METAR MRLM 231200Z 25005KT 9999 VCSH FEW015 BKN090 22/21 A3001=
202003231300 METAR MRLM 231300Z 25004KT 9999 FEW015 BKN090 24/22 A3003=
202003231400 METAR MRLM 231400Z 25003KT 9999 FEW020 SCT110 26/22 A3004=
202003231500 METAR MRLM 231500Z 24003KT 9999 FEW020 SCT110 28/22 A3005=
202003231600 METAR MRLM 231600Z 08003KT 9999 FEW020 SCT120 29/21 A3005=
202003231700 METAR MRLM 231700Z 07005KT 9999 FEW030 SCT120 29/22 A3003=
202003231800 METAR MRLM 231800Z 10007KT 9999 FEW030 BKN120 29/21 A3001=
202003231900 METAR MRLM 231900Z 06005KT CAVOK 28/21 A2998=
202003232000 METAR MRLM 232000Z 08012KT CAVOK 29/21 A2996=
202003232100 METAR MRLM 232100Z 08013KT CAVOK 28/22 A2995=
202003232200 METAR MRLM 232200Z 05010KT CAVOK 28/22 A2994=
202003232300 METAR MRLM 232300Z 03005KT CAVOK 28/22 A2995=
202003240000 METAR MRLM 240000Z 31003KT CAVOK 27/22 A2996=
202003240100 METAR MRLM NIL=
202003240200 METAR MRLM NIL=
202003240300 METAR MRLM NIL=
202003240400 METAR MRLM NIL=
202003240500 METAR MRLM NIL=
202003240600 METAR MRLM NIL=
202003240700 METAR MRLM NIL=
202003240800 METAR MRLM NIL=
202003240900 METAR MRLM NIL=
202003241000 METAR MRLM NIL=
202003241100 METAR MRLM NIL=
202003241200 METAR MRLM 241200Z 00000KT CAVOK 22/21 A2998=
202003241300 METAR MRLM 241300Z 13003KT 9999 FEW020 BKN100 22/21 A3002=
202003241400 METAR MRLM 241400Z 10007KT 9999 SCT020 BKN110 26/22 A3004=
202003241500 METAR MRLM 241500Z 09013KT 9999 VCSH BKN020 26/21 A3004=
202003241600 METAR MRLM 241600Z 21005KT 9999 FEW020 BKN110 27/22 A3003=
202003241700 METAR MRLM 241700Z 20005KT CAVOK 28/21 A3001=
202003241800 METAR MRLM 241800Z 06005KT CAVOK 28/22 A2998=
202003241900 METAR MRLM 241900Z 09005KT CAVOK 29/22 A2996=
202003242000 METAR MRLM 242000Z 05005KT CAVOK 29/21 A2993=
202003242100 METAR MRLM 242100Z 06005KT CAVOK 29/21 A2991=
202003242200 METAR MRLM 242200Z 06005KT CAVOK 29/22 A2990=
202003242300 METAR MRLM 242300Z 05005KT CAVOK 28/22 A2990=
202003250000 METAR MRLM 250000Z 09003KT CAVOK 28/21 A2992=
202003250100 METAR MRLM NIL=
202003250200 METAR MRLM NIL=
202003250300 METAR MRLM NIL=
202003250400 METAR MRLM NIL=
202003250500 METAR MRLM NIL=
202003250600 METAR MRLM NIL=
202003250700 METAR MRLM NIL=
202003250800 METAR MRLM NIL=
202003250900 METAR MRLM NIL=
202003251000 METAR MRLM NIL=
202003251100 METAR MRLM NIL=
202003251200 METAR MRLM 251200Z 23005KT CAVOK 21/20 A2992=
202003251300 METAR MRLM 251300Z 22005KT CAVOK 24/21 A2994=
202003251400 METAR MRLM 251400Z 00000KT CAVOK 27/22 A2995=
202003251500 METAR MRLM 251500Z 08004KT CAVOK 28/22 A2995=
202003251600 METAR MRLM 251600Z 08006KT CAVOK 29/22 A2995=
202003251700 METAR MRLM 251700Z 08007KT CAVOK 29/21 A2993=
202003251800 METAR MRLM 251800Z 07008KT CAVOK 29/22 A2991=
202003251900 METAR MRLM 251900Z 07006KT CAVOK 29/23 A2988=
202003252000 METAR MRLM 252000Z 07008KT CAVOK 30/23 A2986=
202003252100 METAR MRLM 252100Z 06008KT CAVOK 29/23 A2985=
202003252200 METAR MRLM 252200Z 08007KT 9999 FEW030 29/23 A2984=
202003252300 METAR MRLM 252300Z 10007KT 9999 FEW030 28/23 A2985=
202003260000 METAR MRLM 260000Z 08007KT 9999 SCT020 28/23 A2987=
202003260100 METAR MRLM NIL=
202003260200 METAR MRLM NIL=
202003260300 METAR MRLM NIL=
202003260400 METAR MRLM NIL=
202003260500 METAR MRLM NIL=
202003260600 METAR MRLM NIL=
202003260700 METAR MRLM NIL=
202003260800 METAR MRLM NIL=
202003260900 METAR MRLM NIL=
202003261000 METAR MRLM NIL=
202003261100 METAR MRLM NIL=
202003261200 METAR MRLM 261200Z 24003KT 9999 FEW015 BKN090 23/22 A2990=
202003261300 METAR MRLM 261300Z 23003KT 9999 FEW015 BKN090 24/22 A2992=
202003261400 METAR MRLM 261400Z 21003KT 9999 FEW020 BKN100 26/23 A2993=
202003261500 METAR MRLM 261500Z 09004KT 9999 FEW020 BKN100 27/23 A2994=
202003261600 METAR MRLM 261600Z 09005KT 9999 FEW025 BKN120 28/23 A2994=
202003261700 METAR MRLM 261700Z 08008KT 9999 FEW025 BKN120 28/23 A2993=
202003261800 METAR MRLM 261800Z 06006KT CAVOK 28/23 A2991=
202003261900 METAR MRLM 261900Z 10007KT CAVOK 29/23 A2988=
202003262000 METAR MRLM 262000Z 08007KT 9999 FEW030 SCT130 29/23 A2986=
202003262100 METAR MRLM 262100Z 09006KT 9999 FEW030 SCT130 28/23 A2984=
202003262200 METAR MRLM 262200Z 06005KT 9999 FEW025 SCT120 28/23 A2983=
202003262300 METAR MRLM 262300Z 09003KT 9999 SCT025 28/22 A2983=
202003270000 METAR MRLM 270000Z 08005KT 9999 SCT020 28/22 A2984=
202003270100 METAR MRLM NIL=
202003270200 METAR MRLM NIL=
202003270300 METAR MRLM NIL=
202003270400 METAR MRLM NIL=
202003270500 METAR MRLM NIL=
202003270600 METAR MRLM NIL=
202003270700 METAR MRLM NIL=
202003270800 METAR MRLM NIL=
202003270900 METAR MRLM NIL=
202003271000 METAR MRLM NIL=
202003271100 METAR MRLM NIL=
202003271200 METAR MRLM 271200Z 27002KT CAVOK 23/22 A2988=
202003271300 METAR MRLM 271300Z 22004KT CAVOK 24/22 A2989=
202003271400 METAR MRLM 271400Z 15002KT 9999 FEW020 SCT120 28/22 A2991=
202003271500 METAR MRLM 271500Z 12008KT CAVOK 28/23 A2992=
202003271600 METAR MRLM 271600Z 11007KT CAVOK 29/22 A2991=
202003271700 METAR MRLM 271700Z 10006KT CAVOK 29/22 A2990=
202003271800 METAR MRLM NIL=
202003271900 METAR MRLM NIL=
202003272000 METAR MRLM NIL=
202003272100 METAR MRLM NIL=
202003272200 METAR MRLM NIL=
202003272300 METAR MRLM NIL=
202003280000 METAR MRLM NIL=
202003280100 METAR MRLM NIL=
202003280200 METAR MRLM NIL=
202003280300 METAR MRLM NIL=
202003280400 METAR MRLM NIL=
202003280500 METAR MRLM NIL=
202003280600 METAR MRLM NIL=
202003280700 METAR MRLM NIL=
202003280800 METAR MRLM NIL=
202003280900 METAR MRLM NIL=
202003281000 METAR MRLM NIL=
202003281100 METAR MRLM NIL=
202003281200 METAR MRLM 281200Z 22004KT CAVOK 21/20 A2987=
202003281300 METAR MRLM 281300Z 21005KT CAVOK 24/21 A2989=
202003281400 METAR MRLM 281400Z 18003KT CAVOK 28/21 A2991=
202003281500 METAR MRLM 281500Z 11007KT CAVOK 29/20 A2991=
202003281600 METAR MRLM 281600Z 10007KT CAVOK 30/20 A2991=
202003281700 METAR MRLM 281700Z 10011KT CAVOK 30/22 A2990=
202003281800 METAR MRLM 281800Z 10012KT 9999 FEW030 30/22 A2988=
202003281900 METAR MRLM 281900Z 10012KT 9999 FEW030 SCT140 29/22 A2983=
202003282000 METAR MRLM 282000Z 12010KT 9999 FEW030 BKN130 30/23 A2982=
202003282100 METAR MRLM 282100Z 10009KT 9999 FEW030 BKN130 29/23 A2981=
202003282200 METAR MRLM 282200Z 09009KT 9999 FEW030 SCT130 29/23 A2981=
202003282300 METAR MRLM NIL=
202003290000 METAR MRLM NIL=
202003290100 METAR MRLM NIL=
202003290200 METAR MRLM NIL=
202003290300 METAR MRLM NIL=
202003290400 METAR MRLM NIL=
202003290500 METAR MRLM NIL=
202003290600 METAR MRLM NIL=
202003290700 METAR MRLM NIL=
202003290800 METAR MRLM NIL=
202003290900 METAR MRLM NIL=
202003291000 METAR MRLM NIL=
202003291100 METAR MRLM NIL=
202003291200 METAR MRLM 291200Z 22005KT CAVOK 23/21 A2990=
202003291300 METAR MRLM 291300Z 21005KT 9999 FEW025 BKN110 24/22 A2992=
202003291400 METAR MRLM 291400Z 20005KT 9999 FEW025 BKN120 26/22 A2995=
202003291500 METAR MRLM 291500Z 19005KT CAVOK 28/21 A2996=
202003291600 METAR MRLM 291600Z 18005KT 9999 FEW030 29/21 A2995=
202003291700 METAR MRLM 291700Z 10005KT 9999 FEW030 30/22 A2994=
202003291800 METAR MRLM 291800Z 10006KT 9999 FEW030 30/21 A2991=
202003291900 METAR MRLM 291900Z 07007KT 9999 FEW030 30/21 A2988=
202003292000 METAR MRLM 292000Z 07006KT CAVOK 30/21 A2987=
202003292100 METAR MRLM 292100Z 08008KT CAVOK 30/22 A2985=
202003292200 METAR MRLM 292200Z 08007KT CAVOK 29/22 A2985=
202003292300 METAR MRLM NIL=
202003300000 METAR MRLM NIL=
202003300100 METAR MRLM NIL=
202003300200 METAR MRLM NIL=
202003300300 METAR MRLM NIL=
202003300400 METAR MRLM NIL=
202003300500 METAR MRLM NIL=
202003300600 METAR MRLM NIL=
202003300700 METAR MRLM NIL=
202003300800 METAR MRLM NIL=
202003300900 METAR MRLM NIL=
202003301000 METAR MRLM NIL=
202003301100 METAR MRLM NIL=
202003301200 METAR MRLM 301200Z 23004KT CAVOK 21/20 A2992=
202003301300 METAR MRLM 301300Z 23002KT CAVOK 24/21 A2994=
202003301400 METAR MRLM 301400Z 00000KT CAVOK 27/22 A2995=
202003301500 METAR MRLM 301500Z 04011KT 9999 FEW030 SCT140 28/23 A2997=
202003301600 METAR MRLM 301600Z 09003KT 9999 FEW030 BKN130 28/23 A2996=
202003301700 METAR MRLM NIL=
202003301800 METAR MRLM 301800Z 10006KT 9999 FEW030 BKN130 29/22 A2992=
202003301900 METAR MRLM 301900Z 09006KT CAVOK 29/22 A2989=
202003302000 METAR MRLM 302000Z 10006KT CAVOK 29/22 A2986=
202003302100 METAR MRLM 302100Z 07004KT CAVOK 29/22 A2985=
202003302200 METAR MRLM 302200Z 05005KT 9999 FEW030 SCT130 29/23 A2984=
202003302300 METAR MRLM NIL=
202003310000 METAR MRLM NIL=
202003310100 METAR MRLM NIL=
202003310200 METAR MRLM NIL=
202003310300 METAR MRLM NIL=
202003310400 METAR MRLM NIL=
202003310500 METAR MRLM NIL=
202003310600 METAR MRLM NIL=
202003310700 METAR MRLM NIL=
202003310800 METAR MRLM NIL=
202003310900 METAR MRLM NIL=
202003311000 METAR MRLM NIL=
202003311100 METAR MRLM NIL=
202003311200 METAR MRLM 311200Z 25005KT CAVOK 22/21 A2987=
202003311300 METAR MRLM 311300Z 22005KT CAVOK 24/22 A2989=
202003311400 METAR MRLM 311400Z 25003KT CAVOK 26/24 A2990=
202003311500 METAR MRLM 311500Z 22003KT CAVOK 28/23 A2991=
202003311600 METAR MRLM 311600Z 07005KT CAVOK 28/22 A2991=
202003311700 METAR MRLM 311700Z 05004KT CAVOK 29/23 A2991=
202003311800 METAR MRLM 311800Z 06008KT 9999 FEW030 BKN130 28/24 A2989=
202003311900 METAR MRLM 311900Z 01008KT CAVOK 29/23 A2986=
202003312000 METAR MRLM 312000Z 06004KT CAVOK 29/22 A2984=
202003312100 METAR MRLM 312100Z 06004KT CAVOK 29/23 A2982=
202003312200 METAR MRLM 312200Z 00000KT CAVOK 28/23 A2985=
202003312300 METAR MRLM NIL=
202004010000 METAR MRLM NIL=
202004010100 METAR MRLM NIL=
202004010200 METAR MRLM NIL=
202004010300 METAR MRLM NIL=
202004010400 METAR MRLM NIL=
202004010500 METAR MRLM NIL=
202004010600 METAR MRLM NIL=
202004010700 METAR MRLM NIL=
202004010800 METAR MRLM NIL=
202004010900 METAR MRLM NIL=
202004011000 METAR MRLM NIL=
202004011100 METAR MRLM NIL=
202004011200 METAR MRLM 011200Z 23004KT 9999 SCT020 BKN100 23/22 A2985=
202004011300 METAR MRLM 011300Z 24004KT 9999 FEW020 BKN110 24/22 A2987=
202004011400 METAR MRLM 011400Z 24004KT CAVOK 25/23 A2989=
202004011500 METAR MRLM 011500Z 23003KT 9999 FEW020 BKN120 27/22 A2990=
202004011600 METAR MRLM 011600Z 02007KT 9999 FEW020 BKN120 27/24 A2990=
202004011700 METAR MRLM 011700Z 02007KT 9999 FEW020 BKN120 27/24 A2990=
202004011800 METAR MRLM 011800Z 06010KT 9999 FEW020 BKN110 27/24 A2989=
202004011900 METAR MRLM 011900Z 06009KT 9999 FEW020 BKN130 27/24 A2987=
202004012000 METAR MRLM 012000Z 05008KT 9999 FEW025 BKN130 27/23 A2985=
202004012100 METAR MRLM 012100Z 11004KT 9999 FEW020 BKN120 27/23 A2983=
202004012200 METAR MRLM 012200Z 13006KT CAVOK 27/23 A2984=
202004012300 METAR MRLM NIL=
202004020000 METAR MRLM NIL=
202004020100 METAR MRLM NIL=
202004020200 METAR MRLM NIL=
202004020300 METAR MRLM NIL=
202004020400 METAR MRLM NIL=
202004020500 METAR MRLM NIL=
202004020600 METAR MRLM NIL=
202004020700 METAR MRLM NIL=
202004020800 METAR MRLM NIL=
202004020900 METAR MRLM NIL=
202004021000 METAR MRLM NIL=
202004021100 METAR MRLM NIL=
202004021200 METAR MRLM 021200Z 25003KT 9999 SCT020 23/22 A2989=
202004021300 METAR MRLM 021300Z 22003KT CAVOK 25/23 A2991=
202004021400 METAR MRLM 021400Z 00000KT CAVOK 27/23 A2993=
202004021500 METAR MRLM 021500Z 08004KT 9999 FEW030 BKN240 29/23 A2994=
202004021600 METAR MRLM 021600Z 08006KT 9999 FEW030 SCT250 29/24 A2993=
202004021700 METAR MRLM 021700Z 08008KT 9999 FEW030 SCT250 29/23 A2992=
202004021800 METAR MRLM 021800Z 07009KT 9999 FEW030 BKN250 29/24 A2989=
202004021900 METAR MRLM 021900Z 07009KT 9999 FEW030 BKN240 29/23 A2986=
202004022000 METAR MRLM 022000Z 08009KT 9999 SCT025 BKN230 29/23 A2984=
202004022100 METAR MRLM 022100Z 07007KT 9999 BKN025 29/22 A2983=
202004022200 METAR MRLM 022200Z 06007KT 9999 BKN025 29/23 A2983=
202004022300 METAR MRLM NIL=
202004030000 METAR MRLM NIL=
202004030100 METAR MRLM NIL=
202004030200 METAR MRLM NIL=
202004030300 METAR MRLM NIL=
202004030400 METAR MRLM NIL=
202004030500 METAR MRLM NIL=
202004030600 METAR MRLM NIL=
202004030700 METAR MRLM NIL=
202004030800 METAR MRLM NIL=
202004030900 METAR MRLM NIL=
202004031000 METAR MRLM NIL=
202004031100 METAR MRLM NIL=
202004031200 METAR MRLM 031200Z 22004KT 9999 BKN015 23/22 A2987=
202004031300 METAR MRLM 031300Z 23003KT 9999 FEW020 SCT120 26/23 A2990=
202004031400 METAR MRLM 031400Z 20002KT 9999 FEW020 SCT120 27/23 A2991=
202004031500 METAR MRLM 031500Z 07004KT 9999 FEW025 SCT130 28/23 A2992=
202004031600 METAR MRLM 031600Z 06006KT 9999 FEW030 29/23 A2992=
202004031700 METAR MRLM 031700Z 09007KT 9999 FEW030 29/23 A2991=
202004031800 METAR MRLM 031800Z 07007KT 9999 FEW030 29/23 A2988=
202004031900 METAR MRLM 031900Z 07007KT 9999 FEW030 30/22 A2985=
202004032000 METAR MRLM 032000Z 06007KT 9999 FEW030 29/22 A2983=
202004032100 METAR MRLM 032100Z 06007KT 9999 FEW030 29/22 A2981=
202004032200 METAR MRLM 032200Z 07006KT 9999 FEW030 28/22 A2980=
202004032300 METAR MRLM NIL=
202004040000 METAR MRLM NIL=
202004040100 METAR MRLM NIL=
202004040200 METAR MRLM NIL=
202004040300 METAR MRLM NIL=
202004040400 METAR MRLM NIL=
202004040500 METAR MRLM NIL=
202004040600 METAR MRLM NIL=
202004040700 METAR MRLM NIL=
202004040800 METAR MRLM NIL=
202004040900 METAR MRLM NIL=
202004041000 METAR MRLM NIL=
202004041100 METAR MRLM NIL=
202004041200 METAR MRLM 041200Z 24004KT 9999 FEW020 SCT100 24/22 A2984=
202004041300 METAR MRLM 041300Z 22004KT 9999 FEW020 BKN100 26/23 A2986=
202004041400 METAR MRLM 041400Z 23003KT 9999 FEW020 SCT100 28/23 A2988=
202004041500 METAR MRLM 041500Z 07003KT 9999 FEW020 SCT120 28/23 A2990=
202004041600 METAR MRLM 041600Z 06004KT 9999 FEW025 SCT120 29/23 A2990=
202004041700 METAR MRLM 041700Z 07008KT 9999 FEW025 SCT120 30/24 A2988=
202004041800 METAR MRLM 041800Z 07008KT 9999 FEW030 30/24 A2985=
202004041900 METAR MRLM 041900Z 07008KT 9999 SCT030 30/23 A2983=
202004042000 METAR MRLM 042000Z 07007KT 9999 SCT030 30/23 A2980=
202004042100 METAR MRLM 042100Z 09006KT 9999 SCT025 29/23 A2979=
202004042200 METAR MRLM 042200Z 08007KT 9999 SCT025 SCT120 29/23 A2978=
202004042300 METAR MRLM 042300Z 07009KT 9999 BKN020 SCT100 29/24 A2979=
202004050000 METAR MRLM NIL=
202004050100 METAR MRLM NIL=
202004050200 METAR MRLM NIL=
202004050300 METAR MRLM NIL=
202004050400 METAR MRLM NIL=
202004050500 METAR MRLM NIL=
202004050600 METAR MRLM NIL=
202004050700 METAR MRLM NIL=
202004050800 METAR MRLM NIL=
202004050900 METAR MRLM NIL=
202004051000 METAR MRLM NIL=
202004051100 METAR MRLM NIL=
202004051200 METAR MRLM 051200Z 23003KT 9999 VCSH FEW015TCU SCT090 24/23 A2987=
202004051300 METAR MRLM 051300Z 23004KT 9999 FEW015TCU SCT090 25/24 A2988=
202004051400 METAR MRLM 051400Z 17004KT 9999 FEW020 28/23 A2990=
202004051500 METAR MRLM 051500Z 11006KT 9999 FEW020 30/23 A2991=
202004051600 METAR MRLM 051600Z 09010KT 9999 FEW030 30/24 A2990=
202004051700 METAR MRLM 051700Z 08011KT 9999 FEW030 30/25 A2988=
202004051800 METAR MRLM 051800Z 08011KT 9999 FEW030 30/25 A2986=
202004051900 METAR MRLM 051900Z 08011KT 9999 SCT030 30/25 A2984=
202004052000 METAR MRLM 052000Z 08010KT 9999 SCT025 30/24 A2983=
202004052100 METAR MRLM 052100Z 07010KT 9999 SCT025 30/25 A2981=
202004052200 METAR MRLM 052200Z 08010KT 9999 BKN025 29/24 A2981=
202004052300 METAR MRLM 052300Z 08010KT 9999 BKN020 SCT100 29/24 A2982=
202004060000 METAR MRLM NIL=
202004060100 METAR MRLM NIL=
202004060200 METAR MRLM NIL=
202004060300 METAR MRLM NIL=
202004060400 METAR MRLM NIL=
202004060500 METAR MRLM NIL=
202004060600 METAR MRLM NIL=
202004060700 METAR MRLM NIL=
202004060800 METAR MRLM NIL=
202004060900 METAR MRLM NIL=
202004061000 METAR MRLM NIL=
202004061100 METAR MRLM NIL=
202004061200 METAR MRLM 061200Z 22004KT 9999 FEW025 BKN100 25/24 A2990=
202004061300 METAR MRLM 061300Z 21003KT CAVOK 27/24 A2992=
202004061400 METAR MRLM 061400Z 15004KT CAVOK 29/24 A2994=
202004061500 METAR MRLM 061500Z 11009KT 9999 FEW030 30/23 A2994=
202004061600 METAR MRLM 061600Z 10010KT 9999 FEW030 31/24 A2993=
202004061700 METAR MRLM 061700Z 09010KT CAVOK 30/24 A2992=
202004061800 METAR MRLM 061800Z 08012KT CAVOK 30/25 A2990=
202004061900 METAR MRLM 061900Z 07011KT CAVOK 30/25 A2988=
202004062000 METAR MRLM 062000Z 07011KT CAVOK 30/25 A2987=
202004062100 METAR MRLM 062100Z 05009KT CAVOK 30/24 A2987=
202004062200 METAR MRLM 062200Z 04006KT 9999 BKN025 30/25 A2986=
202004062300 METAR MRLM 062300Z 04006KT 9999 BKN025 29/25 A2988=
202004070000 METAR MRLM NIL=
202004070100 METAR MRLM NIL=
202004070200 METAR MRLM NIL=
202004070300 METAR MRLM NIL=
202004070400 METAR MRLM NIL=
202004070500 METAR MRLM NIL=
202004070600 METAR MRLM NIL=
202004070700 METAR MRLM NIL=
202004070800 METAR MRLM NIL=
202004070900 METAR MRLM NIL=
202004071000 METAR MRLM NIL=
202004071100 METAR MRLM NIL=
202004071200 METAR MRLM 071200Z 22005KT 9999 2000N DZ BKN010 25/24 A2994=
202004071300 METAR MRLM 071300Z 22005KT 9999 DZ BKN020 25/24 A2997=
202004071400 METAR MRLM 071400Z 23004KT 9999 BKN025 26/25 A3000=
202004071500 METAR MRLM 071500Z 22003KT 9999 DZ BKN020 28/25 A3000=
202004071600 METAR MRLM 071600Z 00000KT 9999 BKN025 29/25 A3000 REDZ=
202004071700 METAR MRLM 071700Z 36003KT 9999 SCT030 29/25 A3000=
202004071800 METAR MRLM 071800Z 04005KT 9999 FEW030 SCT130 30/25 A2998=
202004071900 METAR MRLM 071900Z 04006KT 9999 FEW030 30/25 A2994=
202004072000 METAR MRLM 072000Z 03005KT 9999 FEW030 30/25 A2992=
202004072100 METAR MRLM 072100Z 03008KT 9999 SCT030 30/24 A2989=
202004072200 METAR MRLM 072200Z 02008KT 9999 BKN030 30/24 A2989=
202004072300 METAR MRLM 072300Z 03008KT 9999 BKN025 29/24 A2990=
202004080000 METAR MRLM NIL=
202004080100 METAR MRLM NIL=
202004080200 METAR MRLM NIL=
202004080300 METAR MRLM NIL=
202004080400 METAR MRLM NIL=
202004080500 METAR MRLM NIL=
202004080600 METAR MRLM NIL=
202004080700 METAR MRLM NIL=
202004080800 METAR MRLM NIL=
202004080900 METAR MRLM NIL=
202004081000 METAR MRLM NIL=
202004081100 METAR MRLM NIL=
202004081200 METAR MRLM 081200Z 24004KT 9999 FEW015 SCT090 24/22 A2990=
202004081300 METAR MRLM 081300Z 23004KT 9999 VCSH FEW015 SCT090 24/22 A2992=
202004081400 METAR MRLM 081400Z 26003KT 9999 VCSH FEW015 BKN090 27/24 A2994=
202004081500 METAR MRLM 081500Z 24003KT 9999 FEW020 BKN100 27/24 A2995=
202004081600 METAR MRLM 081600Z 04003KT 9999 FEW020 BKN100 30/24 A2995=
202004081700 METAR MRLM 081700Z 06004KT 9999 VCSH SCT020 BKN100 29/25 A2994=
202004081800 METAR MRLM 081800Z 01004KT 9999 FEW020 BKN100 29/24 A2992=
202004081900 METAR MRLM 081900Z 04005KT 9999 -DZ SCT020 BKN100 29/25 A2990=
202004082000 METAR MRLM 082000Z 06003KT 9999 SCT015 BKN100 29/26 A2988=
202004082100 METAR MRLM 082100Z 05008KT 9999 SCT020 BKN100 29/25 A2986=
202004082200 METAR MRLM 082200Z 05008KT 9999 SCT020 BKN100 29/25 A2985=
202004082300 METAR MRLM NIL=
202004090000 METAR MRLM NIL=
202004090100 METAR MRLM NIL=
202004090200 METAR MRLM NIL=
202004090300 METAR MRLM NIL=
202004090400 METAR MRLM NIL=
202004090500 METAR MRLM NIL=
202004090600 METAR MRLM NIL=
202004090700 METAR MRLM NIL=
202004090800 METAR MRLM NIL=
202004090900 METAR MRLM NIL=
202004091000 METAR MRLM NIL=
202004091100 METAR MRLM NIL=
202004091200 METAR MRLM 091200Z 22004KT 9999 VCSH FEW015TCU SCT100 24/23 A2989=
202004091300 METAR MRLM 091300Z 26003KT 9999 VCSH FEW015TCU BKN100 25/23 A2990=
202004091400 METAR MRLM 091400Z 21004KT 9999 -DZ VCSH FEW015TCU BKN100 26/24 A2993=
202004091500 METAR MRLM 091500Z 20002KT 9999 VCSH SCT020 BKN110 28/25 A2994=
202004091600 METAR MRLM 091600Z 11004KT 9999 FEW020 SCT110 29/25 A2993=
202004091700 METAR MRLM 091700Z 09004KT 9999 FEW025 SCT120 BKN240 29/25 A2992=
202004091800 METAR MRLM 091800Z 06010KT 9999 FEW025 SCT120 BKN240 30/25 A2989=
202004091900 METAR MRLM 091900Z 07010KT 9999 FEW025 BKN120 30/24 A2986=
202004092000 METAR MRLM 092000Z 06010KT 9999 FEW025 BKN120 29/24 A2983=
202004092100 METAR MRLM 092100Z 06010KT 9999 SCT020 OVC110 29/24 A2982=
202004092200 METAR MRLM 092200Z 06009KT 9999 SCT020 OVC110 29/25 A2982=
202004092300 METAR MRLM NIL=
202004100000 METAR MRLM NIL=
202004100100 METAR MRLM NIL=
202004100200 METAR MRLM NIL=
202004100300 METAR MRLM NIL=
202004100400 METAR MRLM NIL=
202004100500 METAR MRLM NIL=
202004100600 METAR MRLM NIL=
202004100700 METAR MRLM NIL=
202004100800 METAR MRLM NIL=
202004100900 METAR MRLM NIL=
202004101000 METAR MRLM NIL=
202004101100 METAR MRLM NIL=
202004101200 METAR MRLM NIL=
202004101300 METAR MRLM 101300Z 22003KT 9999 SCT025 25/24 A2989=
202004101400 METAR MRLM 101400Z 21004KT 9999 BKN025 27/24 A2992=
202004101500 METAR MRLM 101500Z 10003KT 9999 SCT025 BKN120 28/24 A2992=
202004101600 METAR MRLM 101600Z 07004KT 9999 BKN020 29/24 A2992=
202004101700 METAR MRLM 101700Z 08008KT 9999 SCT030 BKN240 30/24 A2990=
202004101800 METAR MRLM 101800Z 07008KT 9999 SCT030 30/24 A2989=
202004101900 METAR MRLM 101900Z 07008KT 9999 SCT030 BKN240 30/25 A2986=
202004102000 METAR MRLM 102000Z 08009KT 9999 FEW030 BKN240 30/24 A2984=
202004102100 METAR MRLM 102100Z 10008KT 9999 FEW030 BKN240 30/24 A2982=
202004102200 METAR MRLM 102200Z 10008KT 9999 FEW030 BKN230 29/24 A2980=
202004102300 METAR MRLM NIL=
202004110000 METAR MRLM NIL=
202004110100 METAR MRLM NIL=
202004110200 METAR MRLM NIL=
202004110300 METAR MRLM NIL=
202004110400 METAR MRLM NIL=
202004110500 METAR MRLM NIL=
202004110600 METAR MRLM NIL=
202004110700 METAR MRLM NIL=
202004110800 METAR MRLM NIL=
202004110900 METAR MRLM NIL=
202004111000 METAR MRLM NIL=
202004111100 METAR MRLM NIL=
202004111200 METAR MRLM NIL=
202004111300 METAR MRLM 111300Z 23004KT 9999 FEW030 BKN110 25/23 A2991=
202004111400 METAR MRLM 111400Z 23003KT 9999 FEW030 BKN120 28/24 A2993=
202004111500 METAR MRLM 111500Z 09003KT 9999 FEW030 BKN120 29/24 A2994=
202004111600 METAR MRLM 111600Z 07006KT 9999 SCT030 BKN120 29/24 A2993=
202004111700 METAR MRLM 111700Z 09009KT 9999 FEW025 BKN120 29/25 A2992=
202004111800 METAR MRLM 111800Z 09007KT 9999 FEW030 BKN230 30/25 A2990=
202004111900 METAR MRLM 111900Z 09008KT 9999 FEW030 BKN230 30/25 A2988=
202004112000 METAR MRLM 112000Z 09009KT 9999 FEW030 BKN230 30/25 A2986=
202004112100 METAR MRLM 112100Z 09008KT 9999 SCT025 OVC230 30/25 A2985=
202004112200 METAR MRLM 112200Z 08006KT 9999 BKN020 29/25 A2985=
202004112300 METAR MRLM NIL=
202004120000 METAR MRLM NIL=
202004120100 METAR MRLM NIL=
202004120200 METAR MRLM NIL=
202004120300 METAR MRLM NIL=
202004120400 METAR MRLM NIL=
202004120500 METAR MRLM NIL=
202004120600 METAR MRLM NIL=
202004120700 METAR MRLM NIL=
202004120800 METAR MRLM NIL=
202004120900 METAR MRLM NIL=
202004121000 METAR MRLM NIL=
202004121100 METAR MRLM NIL=
202004121200 METAR MRLM 121200Z 24003KT CAVOK 24/23 A2992=
202004121300 METAR MRLM 121300Z 24003KT CAVOK 25/23 A2993=
202004121400 METAR MRLM 121400Z 00000KT CAVOK 29/25 A2996=
202004121500 METAR MRLM 121500Z 02004KT 9999 FEW025 SCT220 30/25 A2996=
202004121600 METAR MRLM 121600Z 02006KT 9999 FEW025 SCT220 30/25 A2996=
202004121700 METAR MRLM 121700Z 02006KT CAVOK 30/25 A2996=
202004121800 METAR MRLM 121800Z 04007KT 9999 FEW025 SCT120 BKN220 30/25 A2993=
202004121900 METAR MRLM 121900Z 04008KT 9999 FEW030 BKN240 30/25 A2991=
202004122000 METAR MRLM 122000Z 03007KT 9999 FEW030 SCT240 31/25 A2988=
202004122100 METAR MRLM 122100Z 03009KT 9999 SCT030 SCT230 30/25 A2987=
202004122200 METAR MRLM 122200Z 03008KT 9999 SCT030 30/25 A2987=
202004122300 METAR MRLM NIL=
202004130000 METAR MRLM NIL=
202004130100 METAR MRLM NIL=
202004130200 METAR MRLM NIL=
202004130300 METAR MRLM NIL=
202004130400 METAR MRLM NIL=
202004130500 METAR MRLM NIL=
202004130600 METAR MRLM NIL=
202004130700 METAR MRLM NIL=
202004130800 METAR MRLM NIL=
202004130900 METAR MRLM NIL=
202004131000 METAR MRLM NIL=
202004131100 METAR MRLM NIL=
202004131200 METAR MRLM 131200Z 24004KT 9999 VCSH SCT015 OVC090 24/23 A2993=
202004131300 METAR MRLM 131300Z 23003KT 9999 VCSH SCT015 OVC090 24/24 A2995=
202004131400 METAR MRLM 131400Z 24002KT 9999 -DZ SCT015 OVC090 25/24 A2998=
202004131500 METAR MRLM 131500Z 27002KT 9999 -DZ SCT020 OVC100 26/25 A3001=
202004131600 METAR MRLM 131600Z 29004KT 9999 FEW020 OVC100 28/25 A2997=
202004131700 METAR MRLM 131700Z 30006KT 9999 FEW020 OVC100 28/24 A2996=
202004131800 METAR MRLM 131800Z 30005KT 9999 FEW020 OVC110 28/25 A2995=
202004131900 METAR MRLM 131900Z 31006KT 9999 FEW025 BKN110 29/24 A2991=
202004132000 METAR MRLM 132000Z 32005KT CAVOK 31/24 A2989=
202004132100 METAR MRLM 132100Z 01006KT CAVOK 29/24 A2986=
202004132200 METAR MRLM 132200Z 01005KT CAVOK 29/24 A2987=
202004132300 METAR MRLM 132300Z 01004KT CAVOK 29/25 A2987=
202004140000 METAR MRLM 140000Z 05003KT 9999 FEW020 BKN100 29/25 A2989=
202004140100 METAR MRLM NIL=
202004140200 METAR MRLM NIL=
202004140300 METAR MRLM NIL=
202004140400 METAR MRLM NIL=
202004140500 METAR MRLM NIL=
202004140600 METAR MRLM NIL=
202004140700 METAR MRLM NIL=
202004140800 METAR MRLM NIL=
202004140900 METAR MRLM NIL=
202004141000 METAR MRLM NIL=
202004141100 METAR MRLM NIL=
202004141200 METAR MRLM 141200Z 22003KT 9999 SCT020 25/24 A2993=
202004141300 METAR MRLM 141300Z 23003KT 9999 SCT020 BKN100 25/24 A2996=
202004141400 METAR MRLM 141400Z 21004KT 9999 SCT025 27/25 A2997=
202004141500 METAR MRLM 141500Z 08003KT 9999 FEW030 SCT120 29/26 A2998=
202004141600 METAR MRLM 141600Z 06004KT 9999 FEW030 SCT130 29/25 A2997=
202004141700 METAR MRLM 141700Z 07005KT 9999 SCT030 30/25 A2996=
202004141800 METAR MRLM 141800Z 07007KT 9999 FEW030 30/25 A2994=
202004141900 METAR MRLM 141900Z 07007KT 9999 FEW030 30/25 A2990=
202004142000 METAR MRLM 142000Z 04006KT 9999 FEW030 30/25 A2988=
202004142100 METAR MRLM 142100Z 03007KT 9999 FEW030 30/25 A2985=
202004142200 METAR MRLM 142200Z 04007KT 9999 SCT030 30/24 A2985=
202004142300 METAR MRLM 142300Z 04007KT 9999 BKN025 29/25 A2985=
202004150000 METAR MRLM 150000Z 02006KT 9999 BKN020 29/25 A2986=
202004150100 METAR MRLM NIL=
202004150200 METAR MRLM NIL=
202004150300 METAR MRLM NIL=
202004150400 METAR MRLM NIL=
202004150500 METAR MRLM NIL=
202004150600 METAR MRLM NIL=
202004150700 METAR MRLM NIL=
202004150800 METAR MRLM NIL=
202004150900 METAR MRLM NIL=
202004151000 METAR MRLM NIL=
202004151100 METAR MRLM NIL=
202004151200 METAR MRLM 151200Z 00000KT 9999 FEW015 BKN100 24/23 A2989=
202004151300 METAR MRLM 151300Z 00000KT CAVOK 25/24 A2992=
202004151400 METAR MRLM 151400Z 22003KT 9999 FEW020 BKN120 27/25 A2993=
202004151500 METAR MRLM 151500Z 03005KT 9999 DZ BKN020 27/24 A2995=
202004151600 METAR MRLM 151600Z 00000KT 9999 FEW020 BKN110 26/24 A2995 REDZ=
202004151700 METAR MRLM 151700Z 13006KT 9999 FEW025 BKN120 27/25 A2995=
202004151800 METAR MRLM 151800Z 14007KT 9999 FEW025 OVC120 28/25 A2993=
202004151900 METAR MRLM 151900Z 13004KT 9999 SCT025 OVC120 28/24 A2990=
202004152000 METAR MRLM 152000Z 05008KT 9999 4000N +DZ BKN020 25/24 A2988=
202004152100 METAR MRLM 152100Z 25004KT 9999 FEW020 BKN110 25/24 A2986 REDZ=
202004152200 METAR MRLM 152200Z 24005KT 9999 FEW020 BKN110 26/25 A2985=
202004152300 METAR MRLM 152300Z 24004KT 9999 FEW015 BKN110 26/24 A2986=
202004160000 METAR MRLM 160000Z 23003KT 9999 SCT015 BKN100 25/24 A2988=
202004160100 METAR MRLM NIL=
202004160200 METAR MRLM NIL=
202004160300 METAR MRLM NIL=
202004160400 METAR MRLM NIL=
202004160500 METAR MRLM NIL=
202004160600 METAR MRLM NIL=
202004160700 METAR MRLM NIL=
202004160800 METAR MRLM NIL=
202004160900 METAR MRLM NIL=
202004161000 METAR MRLM NIL=
202004161100 METAR MRLM NIL=
202004161200 METAR MRLM 161200Z 26003KT 9999 VCSH FEW015TCU SCT100 24/23 A2994=
202004161300 METAR MRLM 161300Z 24003KT 9999 VCSH FEW015TCU BKN100 24/24 A2997=
202004161400 METAR MRLM 161400Z 00000KT 9999 FEW015 BKN100 26/24 A3002=
202004161500 METAR MRLM 161500Z 09002KT 9999 FEW020 SCT120 29/24 A3000=
202004161600 METAR MRLM 161600Z 09003KT 9999 FEW020TCU 29/24 A3000=
202004161700 METAR MRLM 161700Z 06009KT 9999 SCT030 30/24 A2999=
202004161800 METAR MRLM 161800Z 06010KT 9999 SCT030 30/23 A2996=
202004161900 METAR MRLM 161900Z 06009KT 9999 FEW030 30/22 A2994=
202004162000 METAR MRLM 162000Z 07009KT 9999 SCT030 30/23 A2992=
202004162100 METAR MRLM 162100Z 07009KT 9999 SCT030 29/23 A2991=
202004162200 METAR MRLM 162200Z 07009KT 9999 BKN025 29/24 A2990=
202004162300 METAR MRLM 162300Z 06009KT 9999 BKN025 29/24 A2991=
202004170000 METAR MRLM 170000Z 07009KT 9999 BKN020 28/23 A2992=
202004170100 METAR MRLM NIL=
202004170200 METAR MRLM NIL=
202004170300 METAR MRLM NIL=
202004170400 METAR MRLM NIL=
202004170500 METAR MRLM NIL=
202004170600 METAR MRLM NIL=
202004170700 METAR MRLM NIL=
202004170800 METAR MRLM NIL=
202004170900 METAR MRLM NIL=
202004171000 METAR MRLM NIL=
202004171100 METAR MRLM NIL=
202004171200 METAR MRLM 171200Z 23005KT 9999 FEW015 SCT090 22/21 A2996=
202004171300 METAR MRLM 171300Z 23004KT 9999 FEW020 25/22 A2999=
202004171400 METAR MRLM 171400Z 20002KT 9999 FEW020 28/23 A3001=
202004171500 METAR MRLM 171500Z 08003KT 9999 FEW020 29/23 A3002=
202004171600 METAR MRLM 171600Z 08005KT 9999 FEW025 29/23 A3002=
202004171700 METAR MRLM 171700Z 09007KT 9999 FEW025 29/24 A3001=
202004171800 METAR MRLM 171800Z 08008KT 9999 FEW030 30/24 A2999=
202004171900 METAR MRLM 171900Z 07008KT 9999 SCT030 30/24 A2996=
202004172000 METAR MRLM 172000Z 07008KT 9999 SCT030 30/23 A2993=
202004172100 METAR MRLM 172100Z 06008KT 9999 SCT030 30/23 A2993=
202004172200 METAR MRLM 172200Z 05008KT 9999 SCT030 30/24 A2992=
202004172300 METAR MRLM 172300Z 05008KT 9999 SCT025 29/23 A2992=
202004180000 METAR MRLM 180000Z 05008KT 9999 SCT020 29/23 A2994=
202004180100 METAR MRLM NIL=
202004180200 METAR MRLM NIL=
202004180300 METAR MRLM NIL=
202004180400 METAR MRLM NIL=
202004180500 METAR MRLM NIL=
202004180600 METAR MRLM NIL=
202004180700 METAR MRLM NIL=
202004180800 METAR MRLM NIL=
202004180900 METAR MRLM NIL=
202004181000 METAR MRLM NIL=
202004181100 METAR MRLM NIL=
202004181200 METAR MRLM 181200Z 23004KT 9999 FEW015 22/21 A2996=
202004181300 METAR MRLM 181300Z 25003KT CAVOK 24/22 A2999=
202004181400 METAR MRLM 181400Z 25003KT CAVOK 27/23 A3001=
202004181500 METAR MRLM 181500Z 08003KT 9999 FEW025 29/23 A3002=
202004181600 METAR MRLM 181600Z 04004KT 9999 FEW030 29/23 A3001=
202004181700 METAR MRLM 181700Z 04006KT 9999 FEW030 29/23 A3000=
202004181800 METAR MRLM 181800Z 05007KT 9999 FEW030 29/23 A2997=
202004181900 METAR MRLM 181900Z 05008KT 9999 FEW030 30/22 A2994=
202004182000 METAR MRLM 182000Z 07007KT 9999 FEW030 30/22 A2992=
202004182100 METAR MRLM 182100Z 07006KT 9999 FEW030 29/22 A2989=
202004182200 METAR MRLM 182200Z 08006KT 9999 FEW030 29/22 A2989=
202004182300 METAR MRLM 182300Z 08005KT 9999 FEW025 SCT130 28/21 A2989=
202004190000 METAR MRLM 190000Z 07006KT 9999 FEW020 BKN120 28/22 A2991=
202004190100 METAR MRLM NIL=
202004190200 METAR MRLM NIL=
202004190300 METAR MRLM NIL=
202004190400 METAR MRLM NIL=
202004190500 METAR MRLM NIL=
202004190600 METAR MRLM NIL=
202004190700 METAR MRLM NIL=
202004190800 METAR MRLM NIL=
202004190900 METAR MRLM NIL=
202004191000 METAR MRLM NIL=
202004191100 METAR MRLM NIL=
202004191200 METAR MRLM NIL=
202004191300 METAR MRLM 191300Z 22005KT CAVOK 25/22 A2996=
202004191400 METAR MRLM 191400Z 21003KT CAVOK 28/23 A2997=
202004191500 METAR MRLM 191500Z 07004KT CAVOK 29/22 A2998=
202004191600 METAR MRLM 191600Z 08006KT 9999 FEW030 29/21 A2999=
202004191700 METAR MRLM 191700Z 09006KT 9999 FEW030 30/22 A2998=
202004191800 METAR MRLM 191800Z 08012KT 9999 FEW030 30/24 A2996=
202004191900 METAR MRLM 191900Z 09009KT 9999 FEW030 30/24 A2996=
202004192000 METAR MRLM 192000Z 10007KT CAVOK 29/23 A2988=
202004192100 METAR MRLM 192100Z 10009KT CAVOK 30/23 A2986=
202004192200 METAR MRLM 192200Z 10007KT CAVOK 29/22 A2985=
202004192300 METAR MRLM 192300Z 10009KT 9999 FEW030 29/23 A2985=
202004200000 METAR MRLM 200000Z 11005KT 9999 BKN020 28/22 A2989=
202004200100 METAR MRLM NIL=
202004200200 METAR MRLM NIL=
202004200300 METAR MRLM NIL=
202004200400 METAR MRLM NIL=
202004200500 METAR MRLM NIL=
202004200600 METAR MRLM NIL=
202004200700 METAR MRLM NIL=
202004200800 METAR MRLM NIL=
202004200900 METAR MRLM NIL=
202004201000 METAR MRLM NIL=
202004201100 METAR MRLM NIL=
202004201200 METAR MRLM 201200Z 25004KT 9999 FEW020TCU 22/22 A2989=
202004201300 METAR MRLM 201300Z 24003KT 9999 FEW020 25/23 A2992=
202004201400 METAR MRLM 201400Z 05003KT 9999 FEW020 28/23 A2994=
202004201500 METAR MRLM 201500Z 02007KT 9999 FEW030TCU 29/24 A2995=
202004201600 METAR MRLM 201600Z 05005KT 9999 FEW030 29/24 A2995=
202004201700 METAR MRLM 201700Z 07007KT 9999 FEW030 30/24 A2994=
202004201800 METAR MRLM 201800Z 07008KT 9999 FEW030 30/24 A2993=
202004201900 METAR MRLM 201900Z 06008KT 9999 FEW030 30/24 A2990=
202004202000 METAR MRLM 202000Z 06007KT 9999 FEW030 30/24 A2987=
202004202100 METAR MRLM 202100Z 06007KT 9999 SCT030 30/24 A2986=
202004202200 METAR MRLM 202200Z 06007KT 9999 SCT030 29/23 A2984=
202004202300 METAR MRLM 202300Z 06006KT 9999 SCT020 29/23 A2985=
202004210000 METAR MRLM 210000Z 05005KT 9999 SCT020 SCT120 29/23 A2986=
202004210100 METAR MRLM NIL=
202004210200 METAR MRLM NIL=
202004210300 METAR MRLM NIL=
202004210400 METAR MRLM NIL=
202004210500 METAR MRLM NIL=
202004210600 METAR MRLM NIL=
202004210700 METAR MRLM NIL=
202004210800 METAR MRLM NIL=
202004210900 METAR MRLM NIL=
202004211000 METAR MRLM NIL=
202004211100 METAR MRLM NIL=
202004211200 METAR MRLM 211200Z 23003KT CAVOK 22/21 A2987=
202004211300 METAR MRLM 211300Z 25004KT CAVOK 26/23 A2990=
202004211400 METAR MRLM 211400Z 26005KT 9999 FEW025 28/23 A2993=
202004211500 METAR MRLM 211500Z 05004KT 9999 FEW025 29/24 A2995=
202004211600 METAR MRLM 211600Z 06006KT 9999 FEW025 30/24 A2995=
202004211700 METAR MRLM 211700Z 04006KT 9999 FEW025 30/24 A2994=
202004211800 METAR MRLM 211800Z 04007KT 9999 FEW030 30/24 A2992=
202004211900 METAR MRLM 211900Z 06010KT 9999 FEW030 31/25 A2989=
202004212000 METAR MRLM 212000Z 06007KT 9999 FEW030 30/24 A2987=
202004212100 METAR MRLM 212100Z 06008KT 9999 SCT030 30/24 A2986=
202004212200 METAR MRLM 212200Z 06007KT 9999 SCT030 30/23 A2985=
202004212300 METAR MRLM 212300Z 08004KT 9999 SCT020 SCT120 29/24 A2986=
202004220000 METAR MRLM 220000Z 09007KT 9999 -DZ VCSH SCT020 SCT120 29/24 A2988=
202004220100 METAR MRLM NIL=
202004220200 METAR MRLM NIL=
202004220300 METAR MRLM NIL=
202004220400 METAR MRLM NIL=
202004220500 METAR MRLM NIL=
202004220600 METAR MRLM NIL=
202004220700 METAR MRLM NIL=
202004220800 METAR MRLM NIL=
202004220900 METAR MRLM NIL=
202004221000 METAR MRLM NIL=
202004221100 METAR MRLM NIL=
202004221200 METAR MRLM 221200Z 23004KT CAVOK 23/22 A2992=
202004221300 METAR MRLM 221300Z 23004KT CAVOK 24/22 A2994=
202004221400 METAR MRLM 221400Z 24003KT CAVOK 27/24 A2997=
202004221500 METAR MRLM 221500Z 00000KT 9999 FEW030 BKN240 30/25 A2997=
202004221600 METAR MRLM NIL=
202004221700 METAR MRLM 221700Z 02007KT 9999 FEW030 BKN240 30/24 A2996=
202004221800 METAR MRLM 221800Z 06006KT 9999 FEW030 BKN240 30/24 A2994=
202004221900 METAR MRLM 221900Z 04004KT 9999 FEW030 BKN250 30/24 A2990=
202004222000 METAR MRLM 222000Z 04006KT CAVOK 30/24 A2988=
202004222100 METAR MRLM 222100Z 04006KT CAVOK 30/24 A2986=
202004222200 METAR MRLM 222200Z 05005KT CAVOK 30/23 A2984=
202004222300 METAR MRLM 222300Z 04005KT CAVOK 29/23 A2985=
202004230000 METAR MRLM 230000Z 04005KT CAVOK 29/23 A2990=
202004230100 METAR MRLM NIL=
202004230200 METAR MRLM NIL=
202004230300 METAR MRLM NIL=
202004230400 METAR MRLM NIL=
202004230500 METAR MRLM NIL=
202004230600 METAR MRLM NIL=
202004230700 METAR MRLM NIL=
202004230800 METAR MRLM NIL=
202004230900 METAR MRLM NIL=
202004231000 METAR MRLM NIL=
202004231100 METAR MRLM NIL=
202004231200 METAR MRLM 231200Z 00000KT 9999 DZ BKN015 24/22 A2990=
202004231300 METAR MRLM 231300Z 24004KT 9999 BKN020 24/22 A2992 REDZ=
202004231400 METAR MRLM 231400Z 24004KT 9999 FEW020 BKN120 25/23 A2993=
202004231500 METAR MRLM 231500Z 24004KT 9999 FEW020 BKN130 27/24 A2994=
202004231600 METAR MRLM 231600Z 07003KT CAVOK 28/24 A2995=
202004231700 METAR MRLM 231700Z 09004KT CAVOK 29/23 A2993=
202004231800 METAR MRLM 231800Z 06005KT CAVOK 29/24 A2991=
202004231900 METAR MRLM 231900Z 05005KT CAVOK 29/24 A2989=
202004232000 METAR MRLM 232000Z 06007KT 9999 FEW030 BKN240 29/24 A2985=
202004232100 METAR MRLM 232100Z 05009KT 9999 FEW030 BKN240 30/23 A2983=
202004232200 METAR MRLM 232200Z 06007KT 9999 SCT030 29/23 A2983=
202004232300 METAR MRLM 232300Z 06007KT 9999 BKN025 29/23 A2984=
202004240000 METAR MRLM 240000Z 06007KT 9999 BKN020 28/23 A2987=
202004240100 METAR MRLM NIL=
202004240200 METAR MRLM NIL=
202004240300 METAR MRLM NIL=
202004240400 METAR MRLM NIL=
202004240500 METAR MRLM NIL=
202004240600 METAR MRLM NIL=
202004240700 METAR MRLM NIL=
202004240800 METAR MRLM NIL=
202004240900 METAR MRLM NIL=
202004241000 METAR MRLM NIL=
202004241100 METAR MRLM NIL=
202004241200 METAR MRLM 241200Z 24002KT 9999 FEW020 BKN200 24/23 A2989=
202004241300 METAR MRLM 241300Z 23003KT 9999 FEW020 SCT200 26/24 A2990=
202004241400 METAR MRLM 241400Z 10003KT 9999 FEW025 29/24 A2991=
202004241500 METAR MRLM 241500Z 09004KT 9999 FEW025 29/23 A2993=
202004241600 METAR MRLM 241600Z 07004KT 9999 FEW030 30/24 A2992=
202004241700 METAR MRLM 241700Z 06005KT CAVOK 30/22 A2991=
202004241800 METAR MRLM 241800Z 05007KT CAVOK 30/24 A2990=
202004241900 METAR MRLM 241900Z 05007KT CAVOK 30/24 A2987=
202004242000 METAR MRLM 242000Z 05006KT CAVOK 30/23 A2985=
202004242100 METAR MRLM 242100Z 04005KT CAVOK 30/23 A2982=
202004242200 METAR MRLM 242200Z 03005KT CAVOK 30/23 A2981=
202004242300 METAR MRLM 242300Z 04005KT CAVOK 29/23 A2983=
202004250000 METAR MRLM 250000Z 04004KT CAVOK 29/23 A2984=
202004250100 METAR MRLM NIL=
202004250200 METAR MRLM NIL=
202004250300 METAR MRLM NIL=
202004250400 METAR MRLM NIL=
202004250500 METAR MRLM NIL=
202004250600 METAR MRLM NIL=
202004250700 METAR MRLM NIL=
202004250800 METAR MRLM NIL=
202004250900 METAR MRLM NIL=
202004251000 METAR MRLM NIL=
202004251100 METAR MRLM NIL=
202004251200 METAR MRLM 251200Z 24005KT 9999 FEW020 BKN200 23/21 A2986=
202004251300 METAR MRLM 251300Z 24005KT 9999 VCTS FEW020 BKN200 25/21 A2989=
202004251400 METAR MRLM 251400Z 33003KT 9999 VCSH FEW020 SCT120 BKN220 28/23 A2991=
202004251500 METAR MRLM 251500Z 34006KT 9999 VCSH FEW020TCU BKN120 30/25 A2993=
202004251600 METAR MRLM 251600Z 04003KT 9999 FEW020TCU SCT120 BKN220 29/25 A2993=
202004251700 METAR MRLM 251700Z 04005KT 9999 DZ FEW020 BKN110 29/25 A2993=
202004251800 METAR MRLM 251800Z 06010KT 9999 FEW030 BKN240 31/24 A2991 REDZ=
202004251900 METAR MRLM 251900Z 07010KT 9999 FEW030 SCT240 31/24 A2989=
202004252000 METAR MRLM 252000Z 07008KT 9999 SCT030 SCT240 31/25 A2987=
202004252100 METAR MRLM 252100Z 06007KT 9999 SCT030 SCT240 30/25 A2985=
202004252200 METAR MRLM 252200Z 06006KT 9999 BKN030 SCT240 30/24 A2985=
202004252300 METAR MRLM 252300Z 06006KT 9999 BKN020 SCT220 29/24 A2986=
202004260000 METAR MRLM 260000Z 07005KT 9999 SCT020 SCT220 29/24 A2987=
202004260100 METAR MRLM NIL=
202004260200 METAR MRLM NIL=
202004260300 METAR MRLM NIL=
202004260400 METAR MRLM NIL=
202004260500 METAR MRLM NIL=
202004260600 METAR MRLM NIL=
202004260700 METAR MRLM NIL=
202004260800 METAR MRLM NIL=
202004260900 METAR MRLM NIL=
202004261000 METAR MRLM NIL=
202004261100 METAR MRLM NIL=
202004261200 METAR MRLM 261200Z 22005KT 9999 VCSH BKN015 SCT090 24/24 A2992=
202004261300 METAR MRLM 261300Z 21005KT 9999 VCSH BKN015 SCT090 25/23 A2995=
202004261400 METAR MRLM 261400Z 26004KT 9999 SCT015 27/25 A2996=
202004261500 METAR MRLM 261500Z 08002KT 9999 SCT020TCU 30/25 A2996=
202004261600 METAR MRLM 261600Z 04003KT 9999 SCT020 30/24 A2995=
202004261700 METAR MRLM 261700Z 06005KT 9999 FEW020 30/25 A2995=
202004261800 METAR MRLM 261800Z 05007KT 9999 SCT030 31/25 A2993=
202004261900 METAR MRLM 261900Z 04007KT 9999 SCT030 31/25 A2991=
202004262000 METAR MRLM 262000Z 04010KT 9999 FEW030 30/24 A2989=
202004262100 METAR MRLM 262100Z 05011KT 9999 SCT030 30/25 A2987=
202004262200 METAR MRLM 262200Z 04010KT 9999 SCT030 30/24 A2987=
202004262300 METAR MRLM NIL=
202004270000 METAR MRLM NIL=
202004270100 METAR MRLM NIL=
202004270200 METAR MRLM NIL=
202004270300 METAR MRLM NIL=
202004270400 METAR MRLM NIL=
202004270500 METAR MRLM NIL=
202004270600 METAR MRLM NIL=
202004270700 METAR MRLM NIL=
202004270800 METAR MRLM NIL=
202004270900 METAR MRLM NIL=
202004271000 METAR MRLM NIL=
202004271100 METAR MRLM NIL=
202004271200 METAR MRLM 271200Z 22004KT 8000 DZ VCSH SCT010 OVC080 23/22 A2992=
202004271300 METAR MRLM 271300Z 18004KT 8000 DZ SCT010 OVC080 23/22 A2996=
202004271400 METAR MRLM 271400Z 29004KT 9999 -DZ SCT010 OVC080 23/22 A2997=
202004271500 METAR MRLM 271500Z 24003KT 9999 DZ SCT015 OVC090 24/23 A2998=
202004271600 METAR MRLM 271600Z 27003KT 9999 -DZ FEW015 OVC090 24/23 A2998=
202004271700 METAR MRLM 271700Z 16003KT 9000 +DZ FEW015 OVC090 25/24 A2997=
202004271800 METAR MRLM 271800Z 22003KT 9999 DZ FEW015 OVC090 24/23 A2995=
202004271900 METAR MRLM 271900Z 21003KT 9999 DZ FEW020 OVC100 25/24 A2993=
202004272000 METAR MRLM 272000Z 22003KT 9999 -DZ FEW020 OVC100 25/24 A2992=
202004272100 METAR MRLM 272100Z 00000KT 9999 FEW020 OVC100 26/24 A2992 REDZ=
202004272200 METAR MRLM 272200Z 25003KT 9999 SCT020 OVC100 26/25 A2989=
202004272300 METAR MRLM NIL=
202004280000 METAR MRLM NIL=
202004280100 METAR MRLM NIL=
202004280200 METAR MRLM NIL=
202004280300 METAR MRLM NIL=
202004280400 METAR MRLM NIL=
202004280500 METAR MRLM NIL=
202004280600 METAR MRLM NIL=
202004280700 METAR MRLM NIL=
202004280800 METAR MRLM NIL=
202004280900 METAR MRLM NIL=
202004281000 METAR MRLM NIL=
202004281100 METAR MRLM NIL=
202004281200 METAR MRLM 281200Z 21004KT 9000 DZ VCSH SCT010 OVC080 24/23 A2994=
202004281300 METAR MRLM 281300Z 25003KT 8000 DZ SCT010 OVC080 24/23 A2995=
202004281400 METAR MRLM 281400Z 28005KT 6000 +DZ SCT010 OVC080 24/23 A2998=
202004281500 METAR MRLM 281500Z 22005KT 5000 +DZ FEW008 OVC070 24/23 A3000=
202004281600 METAR MRLM 281600Z 25005KT 9999 -DZ SCT010 OVC080 25/24 A3002=
202004281700 METAR MRLM 281700Z 24006KT 9999 SCT010 OVC080 26/24 A2999 REDZ=
202004281800 METAR MRLM 281800Z 25005KT 9999 SCT015 OVC100 28/24 A2996=
202004281900 METAR MRLM 281900Z 25005KT 9999 SCT015 OVC100 28/24 A2994=
202004282000 METAR MRLM 282000Z 27003KT 9999 SCT015 BKN100 30/23 A2991=
202004282100 METAR MRLM 282100Z 06002KT 9999 FEW020 BKN110 29/23 A2990=
202004282200 METAR MRLM 282200Z 04003KT 9999 FEW020 BKN110 29/23 A2989=
202004282300 METAR MRLM NIL=
202004290000 METAR MRLM NIL=
202004290100 METAR MRLM NIL=
202004290200 METAR MRLM NIL=
202004290300 METAR MRLM NIL=
202004290400 METAR MRLM NIL=
202004290500 METAR MRLM NIL=
202004290600 METAR MRLM NIL=
202004290700 METAR MRLM NIL=
202004290800 METAR MRLM NIL=
202004290900 METAR MRLM NIL=
202004291000 METAR MRLM NIL=
202004291100 METAR MRLM NIL=
202004291200 METAR MRLM 291200Z 00000KT 9999 VCSH SCT010 OVC090 23/22 A2990=
202004291300 METAR MRLM 291300Z 23003KT 9999 VCSH FEW010 OVC090 24/22 A2991=
202004291400 METAR MRLM 291400Z 21003KT 8000 -DZ FEW010 OVC090 24/23 A2994=
202004291500 METAR MRLM 291500Z 18003KT 5000 DZ FEW007 OVC080 24/23 A2995=
202004291600 METAR MRLM 291600Z 32005KT 9999 -DZ FEW007 BKN080 26/24 A2994=
202004291700 METAR MRLM 291700Z 31004KT 9999 FEW010 OVC090 27/24 A2993 REDZ=
202004291800 METAR MRLM 291800Z 33006KT 9000 -DZ FEW010 OVC090 26/24 A2993=
202004291900 METAR MRLM 291900Z 29004KT 9999 DZ SCT010 OVC090 25/24 A2991=
202004292000 METAR MRLM 292000Z 25005KT 9999 SCT010 OVC090 25/23 A2988=
202004292100 METAR MRLM 292100Z 26004KT 9999 SCT015 OVC100 26/23 A2986=
202004292200 METAR MRLM 292200Z 00000KT 8000 DZ SCT015 OVC100 26/24 A2986=
202004292300 METAR MRLM NIL=
202004300000 METAR MRLM NIL=
202004300100 METAR MRLM NIL=
202004300200 METAR MRLM NIL=
202004300300 METAR MRLM NIL=
202004300400 METAR MRLM NIL=
202004300500 METAR MRLM NIL=
202004300600 METAR MRLM NIL=
202004300700 METAR MRLM NIL=
202004300800 METAR MRLM NIL=
202004300900 METAR MRLM NIL=
202004301000 METAR MRLM NIL=
202004301100 METAR MRLM NIL=
202004301200 METAR MRLM 301200Z 25003KT 9999 FEW020 BKN110 24/23 A2991=
202004301300 METAR MRLM 301300Z 27003KT 9999 FEW025 BKN130 26/24 A2993=
202004301400 METAR MRLM 301400Z 27003KT 9999 FEW020 BKN130 27/24 A2995=
202004301500 METAR MRLM 301500Z 30007KT 9999 DZ SCT020 BKN130 28/23 A2996=
202004301600 METAR MRLM 301600Z 36010KT 9999 BKN020 27/24 A2995 REDZ=
202004301700 METAR MRLM 301700Z 03007KT 9999 SCT020 BKN110 27/24 A2994=
202004301800 METAR MRLM 301800Z 06003KT CAVOK 29/23 A2990=
202004301900 METAR MRLM 301900Z 07003KT 9999 FEW020 BKN130 29/22 A2988=
202004302000 METAR MRLM 302000Z 08003KT 9999 FEW020 BKN130 29/22 A2987=
202004302100 METAR MRLM 302100Z 20004KT 9999 FEW020 BKN120 27/24 A2986=
202004302200 METAR MRLM 302200Z 20004KT 9999 FEW020 BKN120 27/24 A2985=
202004302300 METAR MRLM 302300Z 23003KT 9999 FEW015 BKN120 27/24 A2987=
202005010000 METAR MRLM 010000Z 23002KT 9999 FEW015 BKN120 26/24 A2989=
202005010100 METAR MRLM NIL=
202005010200 METAR MRLM NIL=
202005010300 METAR MRLM NIL=
202005010400 METAR MRLM NIL=
202005010500 METAR MRLM NIL=
202005010600 METAR MRLM NIL=
202005010700 METAR MRLM NIL=
202005010800 METAR MRLM NIL=
202005010900 METAR MRLM NIL=
202005011000 METAR MRLM NIL=
202005011100 METAR MRLM NIL=
202005011200 METAR MRLM 011200Z 23005KT CAVOK 23/22 A2991=
202005011300 METAR MRLM 011300Z 23004KT CAVOK 25/23 A2994=
202005011400 METAR MRLM 011400Z 24004KT CAVOK 27/24 A2996=
202005011500 METAR MRLM NIL=
202005011600 METAR MRLM 011600Z 04005KT 9999 SCT020 BKN130 29/24 A2997=
202005011700 METAR MRLM 011700Z 03008KT 9999 VCSH SCT020 BKN120 28/23 A2996=
202005011800 METAR MRLM 011800Z 06014KT 9999 DZ SCT020 BKN110 26/23 A2995=
202005011900 METAR MRLM 011900Z 01003KT 9999 FEW020 BKN120 27/23 A2991 REDZ=
202005012000 METAR MRLM 012000Z 09003KT CAVOK 28/22 A2989=
202005012100 METAR MRLM 012100Z 06003KT CAVOK 28/23 A2988=
202005012200 METAR MRLM 012200Z 00000KT CAVOK 29/24 A2987=
202005012300 METAR MRLM 012300Z 00000KT CAVOK 27/24 A2989=
202005020000 METAR MRLM 020000Z 00000KT CAVOK 26/24 A2992=
202005020100 METAR MRLM NIL=
202005020200 METAR MRLM NIL=
202005020300 METAR MRLM NIL=
202005020400 METAR MRLM NIL=
202005020500 METAR MRLM NIL=
202005020600 METAR MRLM NIL=
202005020700 METAR MRLM NIL=
202005020800 METAR MRLM NIL=
202005020900 METAR MRLM NIL=
202005021000 METAR MRLM NIL=
202005021100 METAR MRLM NIL=
202005021200 METAR MRLM 021200Z 23006KT 9999 -DZ FEW010 OVC080 23/23 A2996=
202005021300 METAR MRLM 021300Z 24004KT 9999 FEW010 OVC080 24/23 A2998=
202005021400 METAR MRLM 021400Z 24004KT 9999 FEW015 BKN090 25/23 A2999=
202005021500 METAR MRLM 021500Z 24004KT 9999 FEW015 BKN090 27/24 A3000=
202005021600 METAR MRLM 021600Z 27002KT 9999 FEW015 BKN090 29/24 A3000=
202005021700 METAR MRLM 021700Z 06003KT 9999 SCT015 OVC100 29/23 A2999=
202005021800 METAR MRLM 021800Z 02003KT 9999 SCT020 OVC100 29/23 A2996=
202005021900 METAR MRLM 021900Z 04004KT 9999 SCT020 OVC100 29/23 A2993=
202005022000 METAR MRLM 022000Z 10009KT 9000 DZ VCSH SCT015 OVC090 27/24 A2992=
202005022100 METAR MRLM 022100Z 24006KT 9999 -DZ VCSH SCT015 BKN090 25/24 A2991=
202005022200 METAR MRLM 022200Z 24005KT 9999 FEW015 SCT090 BKN200 25/24 A2990 REDZ=
202005022300 METAR MRLM 022300Z 23004KT 9999 FEW015 BKN200 25/23 A2992=
202005030000 METAR MRLM 030000Z 25004KT 9999 FEW015 BKN200 25/23 A2992=
202005030100 METAR MRLM NIL=
202005030200 METAR MRLM NIL=
202005030300 METAR MRLM NIL=
202005030400 METAR MRLM NIL=
202005030500 METAR MRLM NIL=
202005030600 METAR MRLM NIL=
202005030700 METAR MRLM NIL=
202005030800 METAR MRLM NIL=
202005030900 METAR MRLM NIL=
202005031000 METAR MRLM NIL=
202005031100 METAR MRLM NIL=
202005031200 METAR MRLM 031200Z 25004KT 9999 VCSH FEW015TCU SCT090 23/22 A2993=
202005031300 METAR MRLM 031300Z 23005KT 9999 VCSH FEW015TCU SCT090 25/23 A2994=
202005031400 METAR MRLM 031400Z 25003KT 9999 VCSH FEW020TCU SCT100 28/24 A2995=
202005031500 METAR MRLM 031500Z 02004KT 9999 VCSH FEW020 BKN100 29/25 A2996=
202005031600 METAR MRLM 031600Z 02004KT 9999 FEW020 BKN100 28/24 A2995=
202005031700 METAR MRLM 031700Z 04006KT 9999 FEW020 BKN100 28/24 A2994=
202005031800 METAR MRLM 031800Z 03004KT 9999 FEW020 BKN120 29/25 A2992=
202005031900 METAR MRLM 031900Z 06003KT 9999 FEW020 BKN120 29/24 A2988=
202005032000 METAR MRLM 032000Z 08003KT 9999 FEW020 BKN120 29/24 A2986=
202005032100 METAR MRLM 032100Z 05006KT 9999 FEW020 BKN120 29/24 A2985=
202005032200 METAR MRLM 032200Z 04006KT 9999 FEW020 BKN120 29/23 A2985=
202005032300 METAR MRLM 032300Z 04005KT 9999 SCT015 OVC100 28/24 A2985=
202005040000 METAR MRLM 040000Z 04005KT 9999 SCT015 OVC100 28/24 A2986=
202005040100 METAR MRLM NIL=
202005040200 METAR MRLM NIL=
202005040300 METAR MRLM NIL=
202005040400 METAR MRLM NIL=
202005040500 METAR MRLM NIL=
202005040600 METAR MRLM NIL=
202005040700 METAR MRLM NIL=
202005040800 METAR MRLM NIL=
202005040900 METAR MRLM NIL=
202005041000 METAR MRLM NIL=
202005041100 METAR MRLM NIL=
202005041200 METAR MRLM NIL=
202005041300 METAR MRLM NIL=
202005041400 METAR MRLM NIL=
202005041500 METAR MRLM NIL=
202005041600 METAR MRLM 041600Z 08003KT CAVOK 28/24 A2991=
202005041700 METAR MRLM 041700Z 05002KT 9999 FEW025 BKN120 29/24 A2989=
202005041800 METAR MRLM 041800Z 05003KT 9999 FEW025 BKN120 30/24 A2987=
202005041900 METAR MRLM 041900Z 05005KT 9999 FEW025 SCT120 BKN220 29/24 A2985=
202005042000 METAR MRLM 042000Z 06009KT 9999 VCSH SCT020 BKN110 28/25 A2983=
202005042100 METAR MRLM 042100Z 02007KT 9999 SCT020 OVC110 28/23 A2983=
202005042200 METAR MRLM 042200Z 22003KT 9999 FEW020 BKN110 28/24 A2982=
202005042300 METAR MRLM 042300Z 22004KT 9999 FEW020 SCT100 BKN200 27/24 A2982=
202005050000 METAR MRLM 050000Z 22003KT 9999 FEW015TCU BKN200 26/24 A2983=
202005050100 METAR MRLM NIL=
202005050200 METAR MRLM NIL=
202005050300 METAR MRLM NIL=
202005050400 METAR MRLM NIL=
202005050500 METAR MRLM NIL=
202005050600 METAR MRLM NIL=
202005050700 METAR MRLM NIL=
202005050800 METAR MRLM NIL=
202005050900 METAR MRLM NIL=
202005051000 METAR MRLM NIL=
202005051100 METAR MRLM NIL=
202005051200 METAR MRLM NIL=
202005051300 METAR MRLM NIL=
202005051400 METAR MRLM NIL=
202005051500 METAR MRLM NIL=
202005051600 METAR MRLM NIL=
202005051700 METAR MRLM NIL=
202005051800 METAR MRLM NIL=
202005051900 METAR MRLM NIL=
202005052000 METAR MRLM NIL=
202005052100 METAR MRLM NIL=
202005052200 METAR MRLM NIL=
202005052300 METAR MRLM NIL=
202005060000 METAR MRLM NIL=
202005060100 METAR MRLM NIL=
202005060200 METAR MRLM NIL=
202005060300 METAR MRLM NIL=
202005060400 METAR MRLM NIL=
202005060500 METAR MRLM NIL=
202005060600 METAR MRLM NIL=
202005060700 METAR MRLM NIL=
202005060800 METAR MRLM NIL=
202005060900 METAR MRLM NIL=
202005061000 METAR MRLM NIL=
202005061100 METAR MRLM NIL=
202005061200 METAR MRLM 061200Z 18002KT 9999 FEW015 OVC090 25/23 A2988=
202005061300 METAR MRLM 061300Z 21003KT 9999 FEW015 OVC090 25/24 A2990=
202005061400 METAR MRLM 061400Z 21004KT 9999 FEW015 BKN100 27/24 A2990=
202005061500 METAR MRLM 061500Z 10004KT 9999 SCT020 BKN100 28/25 A2991=
202005061600 METAR MRLM 061600Z 12003KT 9999 SCT020 BKN100 28/24 A2991=
202005061700 METAR MRLM 061700Z 08003KT 9999 FEW020 BKN100 29/22 A2990=
202005061800 METAR MRLM 061800Z 08004KT 9999 FEW025 SCT120 BKN240 30/23 A2988=
202005061900 METAR MRLM 061900Z 05005KT CAVOK 30/24 A2985=
202005062000 METAR MRLM 062000Z 05005KT CAVOK 30/24 A2982=
202005062100 METAR MRLM 062100Z 05005KT CAVOK 30/25 A2980=
202005062200 METAR MRLM 062200Z 05004KT CAVOK 29/25 A2979=
202005062300 METAR MRLM NIL=
202005070000 METAR MRLM NIL=
202005070100 METAR MRLM NIL=
202005070200 METAR MRLM NIL=
202005070300 METAR MRLM NIL=
202005070400 METAR MRLM NIL=
202005070500 METAR MRLM NIL=
202005070600 METAR MRLM NIL=
202005070700 METAR MRLM NIL=
202005070800 METAR MRLM NIL=
202005070900 METAR MRLM NIL=
202005071000 METAR MRLM NIL=
202005071100 METAR MRLM NIL=
202005071200 METAR MRLM 071200Z 22005KT 9999 VCSH SCT015 BKN090 25/24 A2987=
202005071300 METAR MRLM 071300Z 23004KT 9999 -DZ VCSH SCT015 BKN090 25/24 A2989=
202005071400 METAR MRLM 071400Z 21003KT 9999 -DZ FEW015 BKN090 26/25 A2990=
202005071500 METAR MRLM 071500Z 31002KT 9999 FEW020 SCT100 BKN200 29/26 A2991=
202005071600 METAR MRLM 071600Z 02009KT 9999 FEW020 BKN100 27/26 A2991=
202005071700 METAR MRLM 071700Z 02008KT 9999 VCTS FEW020 OVC100 28/24 A2992=
202005071800 METAR MRLM 071800Z 02006KT 9999 VCTS FEW020 OVC100 27/25 A2990=
202005071900 METAR MRLM 071900Z 24002KT 9999 -DZ FEW020 OVC100 27/25 A2989=
202005072000 METAR MRLM 072000Z 27004KT 9999 -DZ FEW020 OVC100 27/25 A2986=
202005072100 METAR MRLM 072100Z 29003KT 9999 VCTS SCT020 OVC100 27/25 A2985=
202005072200 METAR MRLM 072200Z 27002KT 9999 -DZ VCTS SCT015 OVC090 27/25 A2984=
202005072300 METAR MRLM NIL=
202005080000 METAR MRLM NIL=
202005080100 METAR MRLM NIL=
202005080200 METAR MRLM NIL=
202005080300 METAR MRLM NIL=
202005080400 METAR MRLM NIL=
202005080500 METAR MRLM NIL=
202005080600 METAR MRLM NIL=
202005080700 METAR MRLM NIL=
202005080800 METAR MRLM NIL=
202005080900 METAR MRLM NIL=
202005081000 METAR MRLM NIL=
202005081100 METAR MRLM NIL=
202005081200 METAR MRLM 081200Z 28003KT 9999 VCSH FEW015TCU SCT090 25/24 A2987=
202005081300 METAR MRLM 081300Z 25005KT 9999 VCSH FEW015 SCT090 25/24 A2988=
202005081400 METAR MRLM 081400Z 25004KT 9999 VCSH FEW015 BKN090 26/25 A2990=
202005081500 METAR MRLM 081500Z 20002KT 9999 +DZ SCT015 BKN090 27/25 A2992=
202005081600 METAR MRLM 081600Z 21004KT 9999 DZ SCT015 BKN090 26/25 A2993=
202005081700 METAR MRLM 081700Z 21004KT 9999 FEW020 SCT100 BKN200 29/26 A2989 REDZ=
202005081800 METAR MRLM 081800Z 10004KT 9999 FEW020 BKN220 30/25 A2990=
202005081900 METAR MRLM 081900Z 04002KT 9999 FEW020 BKN120 29/24 A2987=
202005082000 METAR MRLM 082000Z 06004KT 9999 FEW020 OVC120 29/24 A2986=
202005082100 METAR MRLM 082100Z 01007KT 9999 -DZ FEW020 OVC120 27/25 A2985=
202005082200 METAR MRLM 082200Z 25004KT CAVOK 27/25 A2983=
202005082300 METAR MRLM NIL=
202005090000 METAR MRLM NIL=
202005090100 METAR MRLM NIL=
202005090200 METAR MRLM NIL=
202005090300 METAR MRLM NIL=
202005090400 METAR MRLM NIL=
202005090500 METAR MRLM NIL=
202005090600 METAR MRLM NIL=
202005090700 METAR MRLM NIL=
202005090800 METAR MRLM NIL=
202005090900 METAR MRLM NIL=
202005091000 METAR MRLM NIL=
202005091100 METAR MRLM NIL=
202005091200 METAR MRLM 091200Z 25003KT CAVOK 25/24 A2985=
202005091300 METAR MRLM 091300Z 00000KT CAVOK 26/25 A2988=
202005091400 METAR MRLM 091400Z 08002KT CAVOK 29/25 A2990=
202005091500 METAR MRLM 091500Z 36009KT 9999 VCSH FEW020 BKN100 28/25 A2991=
202005091600 METAR MRLM 091600Z 35010KT 9999 SCT020 OVC100 28/25 A2993=
202005091700 METAR MRLM 091700Z 30004KT 9999 SCT020 BKN100 29/25 A2991=
202005091800 METAR MRLM 091800Z 02010KT 9999 FEW025 BKN120 28/25 A2989=
202005091900 METAR MRLM 091900Z 03008KT 9999 FEW025 BKN220 29/25 A2985=
202005092000 METAR MRLM 092000Z 04005KT CAVOK 29/25 A2982=
202005092100 METAR MRLM 092100Z 04005KT CAVOK 29/25 A2980=
202005092200 METAR MRLM 092200Z 09002KT CAVOK 29/25 A2981=
202005092300 METAR MRLM NIL=
202005100000 METAR MRLM NIL=
202005100100 METAR MRLM NIL=
202005100200 METAR MRLM NIL=
202005100300 METAR MRLM NIL=
202005100400 METAR MRLM NIL=
202005100500 METAR MRLM NIL=
202005100600 METAR MRLM NIL=
202005100700 METAR MRLM NIL=
202005100800 METAR MRLM NIL=
202005100900 METAR MRLM NIL=
202005101000 METAR MRLM NIL=
202005101100 METAR MRLM NIL=
202005101200 METAR MRLM 101200Z 24004KT 9999 FEW015 BKN100 25/24 A2987=
202005101300 METAR MRLM 101300Z 00000KT 9999 VCSH SCT015 OVC100 26/24 A2989=
202005101400 METAR MRLM 101400Z 00000KT 9000 DZ SCT015 OVC080 26/25 A2991=
202005101500 METAR MRLM 101500Z 24005KT 9999 SCT015 OVC080 27/25 A2992 REDZ=
202005101600 METAR MRLM 101600Z 27005KT 9999 SCT015 OVC080 28/26 A2992=
202005101700 METAR MRLM 101700Z 07003KT 8000 DZ SCT015 OVC080 27/25 A2993=
202005101800 METAR MRLM 101800Z 27004KT 9999 FEW015 BKN080 27/26 A2989 REDZ=
202005101900 METAR MRLM 101900Z 27004KT 9999 FEW015 BKN080 27/26 A2989 REDZ=
202005102000 METAR MRLM 102000Z 28006KT 9999 FEW020 BKN100 30/26 A2985=
202005102100 METAR MRLM 102100Z 29004KT 9999 FEW020 BKN200 30/26 A2982=
202005102200 METAR MRLM 102200Z 22002KT 9999 FEW020 BKN200 30/25 A2981=
202005102300 METAR MRLM NIL=
202005110000 METAR MRLM NIL=
202005110100 METAR MRLM NIL=
202005110200 METAR MRLM NIL=
202005110300 METAR MRLM NIL=
202005110400 METAR MRLM NIL=
202005110500 METAR MRLM NIL=
202005110600 METAR MRLM NIL=
202005110700 METAR MRLM NIL=
202005110800 METAR MRLM NIL=
202005110900 METAR MRLM NIL=
202005111000 METAR MRLM NIL=
202005111100 METAR MRLM NIL=
202005111200 METAR MRLM 111200Z 24005KT 9999 FEW015 BKN200 25/24 A2989=
202005111300 METAR MRLM 111300Z 26003KT 9999 FEW015 BKN200 26/25 A2990=
202005111400 METAR MRLM 111400Z 30005KT 9999 FEW015 BKN200 29/25 A2990=
202005111500 METAR MRLM 111500Z 33006KT 9999 FEW020 BKN220 30/26 A2992=
202005111600 METAR MRLM 111600Z 33009KT 9999 FEW020 OVC110 29/26 A2994=
202005111700 METAR MRLM 111700Z 33007KT 9999 VCTS VCSH SCT020 OVC100 29/25 A2994=
202005111800 METAR MRLM 111800Z COR 02004KT 8000 +DZ VCTS FEW006 OVC070 25/24 A2992 RERA=
202005111900 METAR MRLM 111900Z 23005KT 9999 DZ FEW010 OVC070 25/25 A2988=
202005112000 METAR MRLM 112000Z 21003KT 8000 -DZ FEW010 OVC080 26/25 A2986=
202005112100 METAR MRLM 112100Z 23004KT 9999 FEW015 OVC090 26/25 A2986 REDZ=
202005112200 METAR MRLM 112200Z 00000KT CAVOK 27/25 A2984=
202005112300 METAR MRLM NIL=
202005120000 METAR MRLM NIL=
202005120100 METAR MRLM NIL=
202005120200 METAR MRLM NIL=
202005120300 METAR MRLM NIL=
202005120400 METAR MRLM NIL=
202005120500 METAR MRLM NIL=
202005120600 METAR MRLM NIL=
202005120700 METAR MRLM NIL=
202005120800 METAR MRLM NIL=
202005120900 METAR MRLM NIL=
202005121000 METAR MRLM NIL=
202005121100 METAR MRLM NIL=
202005121200 METAR MRLM 121200Z 22003KT CAVOK 24/23 A2987=
202005121300 METAR MRLM 121300Z 22004KT CAVOK 25/24 A2992=
202005121400 METAR MRLM 121400Z 25004KT CAVOK 27/24 A2995=
202005121500 METAR MRLM 121500Z 28003KT 9999 BKN030 30/25 A2995=
202005121600 METAR MRLM 121600Z 04005KT 9999 BKN030 30/25 A2994=
202005121700 METAR MRLM 121700Z 01008KT 9999 FEW030 SCT150 BKN250 31/26 A2993=
202005121800 METAR MRLM 121800Z 01010KT 9999 FEW030 BKN250 30/25 A2992=
202005121900 METAR MRLM 121900Z 03008KT 9999 FEW030 BKN250 30/25 A2990=
202005122000 METAR MRLM 122000Z 04005KT 9999 SCT030 BKN250 30/26 A2987=
202005122100 METAR MRLM 122100Z 05007KT 9999 SCT030 30/25 A2985=
202005122200 METAR MRLM 122200Z 05009KT 9999 BKN025 29/25 A2985=
202005122300 METAR MRLM 122300Z 05008KT 9999 SCT025 29/25 A2986=
202005130000 METAR MRLM 130000Z 07006KT 9999 BKN020 28/26 A2990=
202005130100 METAR MRLM NIL=
202005130200 METAR MRLM NIL=
202005130300 METAR MRLM NIL=
202005130400 METAR MRLM NIL=
202005130500 METAR MRLM NIL=
202005130600 METAR MRLM NIL=
202005130700 METAR MRLM NIL=
202005130800 METAR MRLM NIL=
202005130900 METAR MRLM NIL=
202005131000 METAR MRLM NIL=
202005131100 METAR MRLM NIL=
202005131200 METAR MRLM 131200Z 23004KT 9999 FEW015 SCT130 24/23 A2990=
202005131300 METAR MRLM 131300Z 24004KT 9999 FEW020 BKN120 24/24 A2992=
202005131400 METAR MRLM 131400Z 23003KT 9999 4000N DZ SCT020 BKN120 25/24 A2994=
202005131500 METAR MRLM 131500Z 16004KT 9999 SCT020 BKN120 26/25 A2995 REDZ=
202005131600 METAR MRLM 131600Z 12004KT 9999 FEW030 BKN130 29/25 A2994=
202005131700 METAR MRLM 131700Z 11005KT 9999 FEW030 30/24 A2992=
202005131800 METAR MRLM 131800Z 09007KT 9999 FEW030 SCT140 30/25 A2990=
202005131900 METAR MRLM 131900Z 08008KT 9999 FEW030 30/25 A2987=
202005132000 METAR MRLM 132000Z 07006KT 9999 FEW030 35/24 A2985=
202005132100 METAR MRLM 132100Z 07006KT 9999 SCT030 30/25 A2983=
202005132200 METAR MRLM 132200Z 07005KT 9999 BKN030 29/25 A2984=
202005132300 METAR MRLM 132300Z 07006KT 9999 BKN025 29/25 A2985=
202005140000 METAR MRLM 140000Z 10005KT 9999 BKN025 29/24 A2989=
202005140100 METAR MRLM NIL=
202005140200 METAR MRLM NIL=
202005140300 METAR MRLM NIL=
202005140400 METAR MRLM NIL=
202005140500 METAR MRLM NIL=
202005140600 METAR MRLM NIL=
202005140700 METAR MRLM NIL=
202005140800 METAR MRLM NIL=
202005140900 METAR MRLM NIL=
202005141000 METAR MRLM NIL=
202005141100 METAR MRLM NIL=
202005141200 METAR MRLM 141200Z 24003KT CAVOK 25/24 A2989=
202005141300 METAR MRLM 141300Z 25003KT CAVOK 26/24 A2990=
202005141400 METAR MRLM 141400Z 30004KT 9999 FEW020 29/24 A2991=
202005141500 METAR MRLM 141500Z 30002KT 9999 FEW020 30/24 A2991=
202005141600 METAR MRLM 141600Z 02010KT 9999 FEW030 30/24 A2991=
202005141700 METAR MRLM 141700Z 02010KT CAVOK 31/24 A2990=
202005141800 METAR MRLM 141800Z 01011KT 9999 FEW030 SCT240 31/25 A2988=
202005141900 METAR MRLM 141900Z 01014KT 9999 FEW030 SCT240 30/26 A2987=
202005142000 METAR MRLM 142000Z 02013KT 9999 SCT030 SCT240 30/26 A2984=
202005142100 METAR MRLM 142100Z 03009KT 9999 FEW030 BKN240 30/25 A2983=
202005142200 METAR MRLM 142200Z 04007KT 9999 FEW030 BKN240 30/25 A2984=
202005142300 METAR MRLM 142300Z 01004KT 9999 FEW020 BKN220 29/25 A2985=
202005150000 METAR MRLM 150000Z 25002KT CAVOK 28/25 A2986=
202005150100 METAR MRLM NIL=
202005150200 METAR MRLM NIL=
202005150300 METAR MRLM NIL=
202005150400 METAR MRLM NIL=
202005150500 METAR MRLM NIL=
202005150600 METAR MRLM NIL=
202005150700 METAR MRLM NIL=
202005150800 METAR MRLM NIL=
202005150900 METAR MRLM NIL=
202005151000 METAR MRLM NIL=
202005151100 METAR MRLM NIL=
202005151200 METAR MRLM 151200Z 21005KT CAVOK 24/22 A2986=
202005151300 METAR MRLM 151300Z 23004KT CAVOK 26/23 A2987=
202005151400 METAR MRLM 151400Z 22002KT CAVOK 29/23 A2988=
202005151500 METAR MRLM 151500Z 07004KT CAVOK 30/23 A2988=
202005151600 METAR MRLM 151600Z 07005KT CAVOK 30/24 A2987=
202005151700 METAR MRLM 151700Z 07005KT CAVOK 30/24 A2986=
202005151800 METAR MRLM 151800Z 07006KT 9999 FEW030 30/25 A2984=
202005151900 METAR MRLM 151900Z 04006KT 9999 FEW030 31/25 A2982=
202005152000 METAR MRLM 152000Z 06007KT 9999 SCT030 31/25 A2979=
202005152100 METAR MRLM 152100Z 04004KT 9999 SCT030 31/25 A2978=
202005152200 METAR MRLM 152200Z 03006KT 9999 SCT030 30/25 A2978=
202005152300 METAR MRLM 152300Z 05007KT 9999 SCT020 30/24 A2978=
202005160000 METAR MRLM 160000Z 03005KT 9999 SCT020 29/24 A2980=
202005160100 METAR MRLM NIL=
202005160200 METAR MRLM NIL=
202005160300 METAR MRLM NIL=
202005160400 METAR MRLM NIL=
202005160500 METAR MRLM NIL=
202005160600 METAR MRLM NIL=
202005160700 METAR MRLM NIL=
202005160800 METAR MRLM NIL=
202005160900 METAR MRLM NIL=
202005161000 METAR MRLM NIL=
202005161100 METAR MRLM NIL=
202005161200 METAR MRLM 161200Z 23003KT 9999 FEW020 BKN120 25/24 A2984=
202005161300 METAR MRLM 161300Z 00000KT 9999 FEW020 BKN110 25/24 A2985=
202005161400 METAR MRLM 161400Z 29003KT 9999 DZ SCT020 BKN110 26/25 A2988=
202005161500 METAR MRLM 161500Z 00000KT 9999 SCT020 BKN120 27/24 A2989 REDZ=
202005161600 METAR MRLM 161600Z 25003KT 9999 FEW025 BKN130 28/24 A2989=
202005161700 METAR MRLM 161700Z 11005KT 9999 FEW025 BKN130 28/25 A2986=
202005161800 METAR MRLM 161800Z 10003KT 9999 FEW025 BKN130 28/25 A2985=
202005161900 METAR MRLM 161900Z 05003KT 9999 FEW030 BKN130 29/25 A2982=
202005162000 METAR MRLM 162000Z 09004KT CAVOK 30/24 A2979=
202005162100 METAR MRLM 162100Z 06005KT 9999 FEW BKN240 29/25 A2979=
202005162200 METAR MRLM 162200Z 08002KT 9999 FEW030 BKN140 29/24 A2978=
202005162300 METAR MRLM 162300Z 00000KT 9999 FEW030 SCT140 BKN240 29/25 A2979=
202005170000 METAR MRLM 170000Z 00000KT 9999 FEW020 BKN130 28/25 A2983=
202005170100 METAR MRLM NIL=
202005170200 METAR MRLM NIL=
202005170300 METAR MRLM NIL=
202005170400 METAR MRLM NIL=
202005170500 METAR MRLM NIL=
202005170600 METAR MRLM NIL=
202005170700 METAR MRLM NIL=
202005170800 METAR MRLM NIL=
202005170900 METAR MRLM NIL=
202005171000 METAR MRLM NIL=
202005171100 METAR MRLM NIL=
202005171200 METAR MRLM 171200Z 24004KT CAVOK 24/23 A2982=
202005171300 METAR MRLM 171300Z 25003KT CAVOK 27/24 A2983=
202005171400 METAR MRLM 171400Z 06003KT CAVOK 30/24 A2985=
202005171500 METAR MRLM 171500Z 03006KT 9999 FEW030 30/26 A2988=
202005171600 METAR MRLM 171600Z 03004KT 9999 FEW030 30/26 A2989=
202005171700 METAR MRLM 171700Z 03006KT 9999 FEW030 SCT150 31/26 A2989=
202005171800 METAR MRLM 171800Z 05007KT 9999 FEW030 BKN140 31/26 A2987=
202005171900 METAR MRLM 171900Z 07006KT 9999 FEW030 BKN130 31/25 A2983=
202005172000 METAR MRLM 172000Z 02005KT 9999 BKN130 31/25 A2981=
202005172100 METAR MRLM 172100Z 05009KT 9999 FEW030 SCT240 29/26 A2980=
202005172200 METAR MRLM 172200Z 05009KT 9999 FEW030 SCT240 29/26 A2980=
202005172300 METAR MRLM 172300Z 02005KT 9999 BKN025 29/26 A2984=
202005180000 METAR MRLM 180000Z 02005KT 9999 BKN020 29/25 A2986=
202005180100 METAR MRLM NIL=
202005180200 METAR MRLM NIL=
202005180300 METAR MRLM NIL=
202005180400 METAR MRLM NIL=
202005180500 METAR MRLM NIL=
202005180600 METAR MRLM NIL=
202005180700 METAR MRLM NIL=
202005180800 METAR MRLM NIL=
202005180900 METAR MRLM NIL=
202005181000 METAR MRLM NIL=
202005181100 METAR MRLM NIL=
202005181200 METAR MRLM 181200Z 26006KT 8000 -DZ VCSH FEW015 SCT090 BKN200 25/24 A2987=
202005181300 METAR MRLM 181300Z 24005KT 9999 VCSH FEW015 SCT090 BKN200 26/24 A2988=
202005181400 METAR MRLM 181400Z 26004KT 9999 FEW015 SCT100 BKN200 28/25 A2988=
202005181500 METAR MRLM 181500Z 23004KT CAVOK 30/24 A2987=
202005181600 METAR MRLM 181600Z 02007KT 9999 FEW025 BKN220 31/25 A2988=
202005181700 METAR MRLM 181700Z 01009KT CAVOK 31/25 A2989=
202005181800 METAR MRLM 181800Z 36011KT 9999 FEW025 BKN250 30/26 A2987=
202005181900 METAR MRLM 181900Z 36008KT 9999 FEW025 BKN250 30/26 A2985=
202005182000 METAR MRLM 182000Z 02007KT 9999 FEW025 BKN250 30/25 A2983=
202005182100 METAR MRLM 182100Z 01008KT 9999 FEW025 BKN250 30/25 A2980=
202005182200 METAR MRLM 182200Z 36006KT 9999 FEW020 BKN220 29/25 A2981=
202005182300 METAR MRLM 182300Z 31003KT 9999 FEW020 BKN220 29/25 A2982=
202005190000 METAR MRLM 190000Z 22003KT 9999 FEW020 OVC220 27/25 A2984=
202005190100 METAR MRLM NIL=
202005190200 METAR MRLM NIL=
202005190300 METAR MRLM NIL=
202005190400 METAR MRLM NIL=
202005190500 METAR MRLM NIL=
202005190600 METAR MRLM NIL=
202005190700 METAR MRLM NIL=
202005190800 METAR MRLM NIL=
202005190900 METAR MRLM NIL=
202005191000 METAR MRLM NIL=
202005191100 METAR MRLM NIL=
202005191200 METAR MRLM 191200Z 22004KT 9999 VCSH FEW015 BKN090 25/24 A2986=
202005191300 METAR MRLM 191300Z 22004KT 9999 FEW015 BKN090 26/24 A2988=
202005191400 METAR MRLM 191400Z 22003KT CAVOK 28/25 A2988=
202005191500 METAR MRLM 191500Z 06004KT CAVOK 30/25 A2988=
202005191600 METAR MRLM 191600Z 05005KT CAVOK 30/25 A2988=
202005191700 METAR MRLM 191700Z 04007KT CAVOK 31/25 A2988=
202005191800 METAR MRLM 191800Z 05006KT 9999 FEW030 BKN240 31/25 A2986=
202005191900 METAR MRLM 191900Z 05004KT 9999 FEW030 BKN240 30/25 A2982=
202005192000 METAR MRLM 192000Z 05004KT 9999 SCT030 BKN240 30/25 A2980=
202005192100 METAR MRLM 192100Z 04005KT 9999 SCT030 BKN240 31/26 A2977=
202005192200 METAR MRLM 192200Z 05005KT 9999 SCT025 BKN130 30/26 A2978=
202005192300 METAR MRLM 192300Z 07008KT 9999 FEW025 BKN130 30/26 A2980=
202005200000 METAR MRLM 200000Z 08005KT 9999 VCTS VCSH FEW020TCU BKN100 29/25 A2982=
202005200100 METAR MRLM NIL=
202005200200 METAR MRLM NIL=
202005200300 METAR MRLM NIL=
202005200400 METAR MRLM NIL=
202005200500 METAR MRLM NIL=
202005200600 METAR MRLM NIL=
202005200700 METAR MRLM NIL=
202005200800 METAR MRLM NIL=
202005200900 METAR MRLM NIL=
202005201000 METAR MRLM NIL=
202005201100 METAR MRLM NIL=
202005201200 METAR MRLM 201200Z 22003KT CAVOK 25/23 A2985=
202005201300 METAR MRLM 201300Z 00000KT 9999 FEW015 BKN110 25/24 A2987=
202005201400 METAR MRLM 201400Z 21003KT 9999 FEW020 BKN130 26/24 A2987=
202005201500 METAR MRLM 201500Z 08002KT 9999 FEW020 BKN140 29/23 A2987=
202005201600 METAR MRLM 201600Z 06004KT 9999 FEW020 SCT140 BKN230 29/24 A2989=
202005201700 METAR MRLM 201700Z 05004KT CAVOK 29/25 A2987=
202005201800 METAR MRLM 201800Z 02006KT CAVOK 30/25 A2986=
202005201900 METAR MRLM 201900Z 02006KT CAVOK 30/25 A2983=
202005202000 METAR MRLM 202000Z 03006KT 9999 FEW030 SCT130 BKN240 29/25 A2981=
202005202100 METAR MRLM 202100Z 03004KT 9999 VCTS FEW025 BKN130 29/24 A2979=
202005202200 METAR MRLM 202200Z 04004KT 9999 BKN020 28/24 A2979=
202005202300 METAR MRLM 202300Z 05004KT 9999 BKN020 29/25 A2981=
202005210000 METAR MRLM 210000Z 04005KT 9999 BKN020 28/24 A2984=
202005210100 METAR MRLM NIL=
202005210200 METAR MRLM NIL=
202005210300 METAR MRLM NIL=
202005210400 METAR MRLM NIL=
202005210500 METAR MRLM NIL=
202005210600 METAR MRLM NIL=
202005210700 METAR MRLM NIL=
202005210800 METAR MRLM NIL=
202005210900 METAR MRLM NIL=
202005211000 METAR MRLM NIL=
202005211100 METAR MRLM NIL=
202005211200 METAR MRLM 211200Z 23004KT CAVOK 24/23 A2983=
202005211300 METAR MRLM 211300Z 22004KT CAVOK 26/24 A2985=
202005211400 METAR MRLM 211400Z 00000KT CAVOK 28/24 A2986=
202005211500 METAR MRLM 211500Z 05005KT 9999 FEW030 SCT250 29/25 A2986=
202005211600 METAR MRLM 211600Z 08005KT CAVOK 30/24 A2987=
202005211700 METAR MRLM 211700Z 10007KT CAVOK 30/25 A2986=
202005211800 METAR MRLM 211800Z 09009KT CAVOK 31/25 A2985=
202005211900 METAR MRLM 211900Z 08008KT 9999 SCT025 BKN250 30/25 A2982=
202005212000 METAR MRLM 212000Z 02010KT 9999 VCSH BKN020 29/25 A2981=
202005212100 METAR MRLM 212100Z 01005KT 9999 DZ BKN020 29/25 A2981=
202005212200 METAR MRLM 212200Z 02303KT 9999 DZ VCTS BKN020 27/26 A2981=
202005212300 METAR MRLM 212300Z COR 23003KT 9999 DZ VCTS BKN020 27/26 A2981=
202005220000 METAR MRLM 220000Z 23003KT 9999 DZ VCTS SCT015 BKN110 25/24 A2988=
202005220100 METAR MRLM NIL=
202005220200 METAR MRLM NIL=
202005220300 METAR MRLM NIL=
202005220400 METAR MRLM NIL=
202005220500 METAR MRLM NIL=
202005220600 METAR MRLM NIL=
202005220700 METAR MRLM NIL=
202005220800 METAR MRLM NIL=
202005220900 METAR MRLM NIL=
202005221000 METAR MRLM NIL=
202005221100 METAR MRLM NIL=
202005221200 METAR MRLM 221200Z 30002KT 9999 FEW015 SCT200 23/23 A2987=
202005221300 METAR MRLM 221300Z 22002KT 9999 FEW015 SCT200 25/24 A2988=
202005221400 METAR MRLM 221400Z 12003KT 9999 FEW020TCU SCT200 28/24 A2989=
202005221500 METAR MRLM 221500Z 10005KT 9999 FEW020 SCT220 29/25 A2989=
202005221600 METAR MRLM 221600Z 09007KT 9999 FEW020 SCT220 29/25 A2991=
202005221700 METAR MRLM 221700Z 07007KT 9999 FEW020 SCT220 30/25 A2991=
202005221800 METAR MRLM 221800Z 08007KT 9999 FEW025 SCT130 BKN240 30/24 A2989=
202005221900 METAR MRLM 221900Z 08005KT 9999 FEW025 SCT240 30/24 A2986=
202005222000 METAR MRLM 222000Z 11008KT 9999 FEW025 SCT130 BKN240 30/24 A2981=
202005222100 METAR MRLM 222100Z 12009KT 9999 FEW025 BKN240 31/25 A2978=
202005222200 METAR MRLM 222200Z 10008KT CAVOK 29/24 A2978=
202005222300 METAR MRLM 222300Z 11004KT CAVOK 29/25 A2981=
202005230000 METAR MRLM 230000Z 09012KT 9999 FEW020 BKN100 29/25 A2985=
202005230100 METAR MRLM NIL=
202005230200 METAR MRLM NIL=
202005230300 METAR MRLM NIL=
202005230400 METAR MRLM NIL=
202005230500 METAR MRLM NIL=
202005230600 METAR MRLM NIL=
202005230700 METAR MRLM NIL=
202005230800 METAR MRLM NIL=
202005230900 METAR MRLM NIL=
202005231000 METAR MRLM NIL=
202005231100 METAR MRLM NIL=
202005231200 METAR MRLM 231200Z 23004KT 9999 VCTS VCSH SCT015 BKN090 25/24 A2987=
202005231300 METAR MRLM 231300Z 25004KT 9999 -DZ VCSH SCT015 BKN090 25/24 A2989=
202005231400 METAR MRLM 231400Z 24002KT 9999 FEW015 BKN090 27/25 A2988 RERA=
202005231500 METAR MRLM 231500Z 35002KT 9999 FEW020 BKN100 30/24 A2989=
202005231600 METAR MRLM 231600Z 02005KT 9999 FEW020 SCT120 31/26 A2988=
202005231700 METAR MRLM 231700Z 01008KT 9999 FEW030 SCT220 31/26 A2985=
202005231800 METAR MRLM 231800Z 02010KT CAVOK 31/25 A2982=
202005231900 METAR MRLM 231900Z 05010KT CAVOK 31/25 A2980=
202005232000 METAR MRLM 232000Z 05008KT CAVOK 31/25 A2978=
202005232100 METAR MRLM 232100Z 05007KT 9999 FEW025 BKN250 30/26 A2978=
202005232200 METAR MRLM 232200Z 07007KT 9999 SCT025 BKN250 30/26 A2978=
202005232300 METAR MRLM 232300Z 06007KT 9999 SCT020 BKN230 30/25 A2979=
202005240000 METAR MRLM 240000Z 07005KT 9999 SCT020 BKN230 30/25 A2981=
202005240100 METAR MRLM NIL=
202005240200 METAR MRLM NIL=
202005240300 METAR MRLM NIL=
202005240400 METAR MRLM NIL=
202005240500 METAR MRLM NIL=
202005240600 METAR MRLM NIL=
202005240700 METAR MRLM NIL=
202005240800 METAR MRLM NIL=
202005240900 METAR MRLM NIL=
202005241000 METAR MRLM NIL=
202005241100 METAR MRLM NIL=
202005241200 METAR MRLM 241200Z 22004KT 9999 FEW015 25/24 A2984=
202005241300 METAR MRLM 241300Z 23003KT 9999 FEW020 27/25 A2986=
202005241400 METAR MRLM 241400Z 00000KT 9999 FEW030 28/26 A2986=
202005241500 METAR MRLM 241500Z 05004KT 9999 FEW030 30/25 A2987=
202005241600 METAR MRLM 241600Z COR 05005KT CAVOK 30/26 A2986=
202005241700 METAR MRLM 241700Z 03006KT CAVOK 31/26 A2985=
202005241800 METAR MRLM 241800Z 04007KT 9999 FEW030 31/26 A2984=
202005241900 METAR MRLM 241900Z 04006KT 9999 FEW030 31/25 A2980=
202005242000 METAR MRLM 242000Z 05006KT CAVOK 31/25 A2979=
202005242100 METAR MRLM 242100Z 05006KT 9999 FEW035 31/25 A2977=
202005242200 METAR MRLM 242200Z 07004KT 9999 FEW035 SCT250 31/25 A2976=
202005242300 METAR MRLM 242300Z 08004KT 9999 FEW030 BKN240 30/25 A2977=
202005250000 METAR MRLM 250000Z 09003KT 9999 FEW025 BKN240 30/25 A2980=
202005250100 METAR MRLM NIL=
202005250200 METAR MRLM NIL=
202005250300 METAR MRLM NIL=
202005250400 METAR MRLM NIL=
202005250500 METAR MRLM NIL=
202005250600 METAR MRLM NIL=
202005250700 METAR MRLM NIL=
202005250800 METAR MRLM NIL=
202005250900 METAR MRLM NIL=
202005251000 METAR MRLM NIL=
202005251100 METAR MRLM NIL=
202005251200 METAR MRLM 251200Z 23004KT CAVOK 25/24 A2978=
202005251300 METAR MRLM 251300Z 23004KT CAVOK 27/25 A2981=
202005251400 METAR MRLM 251400Z 00000KT 9999 FEW030 BKN250 30/25 A2983=
202005251500 METAR MRLM 251500Z 11003KT 9999 FEW030 BKN250 30/25 A2984=
202005251600 METAR MRLM 251600Z 09005KT CAVOK 31/26 A2984=
202005251700 METAR MRLM 251700Z 08006KT 9999 FEW030 BKN250 31/26 A2985=
202005251800 METAR MRLM 251800Z 09007KT 9999 FEW030 SCT250 32/26 A2982=
202005251900 METAR MRLM 251900Z 09004KT 9999 SCT030 BKN250 30/26 A2978=
202005252000 METAR MRLM 252000Z 06006KT 9999 FEW030 BKN240 31/26 A2976=
202005252100 METAR MRLM 252100Z 06007KT 9999 FEW030 BKN230 31/26 A2976=
202005252200 METAR MRLM 252200Z 05005KT 9999 FEW030 BKN230 30/26 A2976=
202005252300 METAR MRLM 252300Z 07004KT 9999 FEW025 SCT140 BKN230 30/25 A2976=
202005260000 METAR MRLM 260000Z 22003KT 9999 FEW025 BKN140 30/25 A2981=
202005260100 METAR MRLM NIL=
202005260200 METAR MRLM NIL=
202005260300 METAR MRLM NIL=
202005260400 METAR MRLM NIL=
202005260500 METAR MRLM NIL=
202005260600 METAR MRLM NIL=
202005260700 METAR MRLM NIL=
202005260800 METAR MRLM NIL=
202005260900 METAR MRLM NIL=
202005261000 METAR MRLM NIL=
202005261100 METAR MRLM NIL=
202005261200 METAR MRLM 261200Z 24002KT 9999 FEW015 BKN090 26/25 A2981=
202005261300 METAR MRLM 261300Z 23003KT 9999 FEW015 BKN090 27/25 A2984=
202005261400 METAR MRLM 261400Z 25003KT 9999 FEW020 BKN100 29/26 A2984=
202005261500 METAR MRLM 261500Z 04004KT 9999 FEW030 SCT120 31/24 A2983=
202005261600 METAR MRLM 261600Z 08005KT 9999 FEW030 SCT220 31/25 A2984=
202005261700 METAR MRLM 261700Z 08006KT 9999 FEW030 SCT220 31/25 A2983=
202005261800 METAR MRLM 261800Z 06005KT 9999 FEW030 SCT240 31/25 A2981=
202005261900 METAR MRLM 261900Z 08006KT CAVOK 31/26 A2977=
202005262000 METAR MRLM 262000Z 07007KT CAVOK 32/26 A2975=
202005262100 METAR MRLM 262100Z 07007KT 9999 FEW030 SCT240 32/26 A2974=
202005262200 METAR MRLM 262200Z 05008KT 9999 SCT030 SCT220 31/26 A2974=
202005262300 METAR MRLM 262300Z 03004KT 9999 SCT020 BKN220 30/26 A2976=
202005270000 METAR MRLM 270000Z 02005KT 9999 SCT020 BKN220 30/25 A2978=
202005270100 METAR MRLM NIL=
202005270200 METAR MRLM NIL=
202005270300 METAR MRLM NIL=
202005270400 METAR MRLM NIL=
202005270500 METAR MRLM NIL=
202005270600 METAR MRLM NIL=
202005270700 METAR MRLM NIL=
202005270800 METAR MRLM NIL=
202005270900 METAR MRLM NIL=
202005271000 METAR MRLM NIL=
202005271100 METAR MRLM NIL=
202005271200 METAR MRLM 271200Z 23004KT 9999 VCSH FEW020TCU OVC200 26/25 A2984=
202005271300 METAR MRLM 271300Z 22003KT 9999 FEW020 OVC200 27/26 A2987=
202005271400 METAR MRLM 271400Z 21004KT 9999 VCSH FEW020 SCT100 BKN200 28/25 A2987=
202005271500 METAR MRLM 271500Z 30005KT 9999 +DZ SCT015 BKN090 26/24 A2988 RERA=
202005271600 METAR MRLM 271600Z 21005KT 9999 FEW020 BKN100 28/25 A2986 REDZ=
202005271700 METAR MRLM 271700Z 08005KT 9999 FEW020 BKN100 30/25 A2986=
202005271800 METAR MRLM 271800Z 06005KT 9999 -DZ FEW020 BKN110 30/25 A2985=
202005271900 METAR MRLM 271900Z 04004KT 9999 FEW020 SCT110 BKN220 30/25 A2981=
202005272000 METAR MRLM 272000Z 05006KT CAVOK 30/25 A2980=
202005272100 METAR MRLM 272100Z 04004KT CAVOK 30/25 A2979=
202005272200 METAR MRLM 272200Z 08009KT 9999 FEW020 OVC120 30/26 A2981=
202005272300 METAR MRLM 272300Z 07010KT 9999 VCSH SCT020 OVC120 30/26 A2984=
202005280000 METAR MRLM 280000Z 18009KT 9999 DZ VCTS VCSH FEW0070 OVC080 24/22 A2981 RERA=
202005280100 METAR MRLM NIL=
202005280200 METAR MRLM NIL=
202005280300 METAR MRLM NIL=
202005280400 METAR MRLM NIL=
202005280500 METAR MRLM NIL=
202005280600 METAR MRLM NIL=
202005280700 METAR MRLM NIL=
202005280800 METAR MRLM NIL=
202005280900 METAR MRLM NIL=
202005281000 METAR MRLM NIL=
202005281100 METAR MRLM NIL=
202005281200 METAR MRLM 281200Z 23005KT 9999 FEW020 BKN100 23/22 A2988=
202005281300 METAR MRLM 281300Z 21004KT 9999 FEW020 BKN120 24/23 A2989=
202005281400 METAR MRLM 281400Z 21003KT 9999 FEW020 BKN120 26/23 A2988=
202005281500 METAR MRLM 281500Z 00000KT 9999 FEW020 BKN130 27/23 A2990=
202005281600 METAR MRLM 281600Z 24003KT 9999 SCT015 BKN120 27/25 A2991=
202005281700 METAR MRLM 281700Z 33006KT 9999 FEW020 BKN130 28/23 A2991=
202005281800 METAR MRLM 281800Z 33005KT 9999 FEW020 BKN130 27/22 A2990=
202005281900 METAR MRLM 281900Z 31004KT CAVOK 28/22 A2986=
202005282000 METAR MRLM 282000Z 31005KT CAVOK 28/23 A2986=
202005282100 METAR MRLM 282100Z 29004KT 9999 FEW020 BKN130 27/23 A2984=
202005282200 METAR MRLM 282200Z 00000KT 9999 -DZ FEW015 BKN130 27/24 A2984=
202005282300 METAR MRLM 282300Z 00000KT 9999 VCSH FEW015 BKN120 27/24 A2985=
202005290000 METAR MRLM 290000Z 23004KT 9999 DZ SCT015 BKN100 26/24 A2990=
202005290100 METAR MRLM NIL=
202005290200 METAR MRLM NIL=
202005290300 METAR MRLM NIL=
202005290400 METAR MRLM NIL=
202005290500 METAR MRLM NIL=
202005290600 METAR MRLM NIL=
202005290700 METAR MRLM NIL=
202005290800 METAR MRLM NIL=
202005290900 METAR MRLM NIL=
202005291000 METAR MRLM NIL=
202005291100 METAR MRLM NIL=
202005291200 METAR MRLM 291200Z 00000KT 9999 FEW015 BKN140 23/22 A2987=
202005291300 METAR MRLM 291300Z 23005KT 9999 FEW020 BKN140 24/23 A2991=
202005291400 METAR MRLM 291400Z 25004KT CAVOK 27/24 A2991=
202005291500 METAR MRLM 291500Z 06003KT 9999 FEW030 BKN130 27/23 A2992=
202005291600 METAR MRLM 291600Z 08003KT 9999 FEW030 BKN130 29/24 A2991=
202005291700 METAR MRLM 291700Z 08005KT 9999 FEW030 BKN140 30/23 A2990=
202005291800 METAR MRLM 291800Z 07005KT CAVOK 30/24 A2988=
202005291900 METAR MRLM 291900Z 06007KT CAVOK 30/24 A2986=
202005292000 METAR MRLM 292000Z 04007KT 9999 VCTS FEW020 SCT140 BKN230 29/25 A2984=
202005292100 METAR MRLM 292100Z 35004KT 9999 DZ BKN020 29/24 A2982=
202005292200 METAR MRLM 292200Z 25006KT 9999 BKN020 27/24 A2983 REDZ=
202005292300 METAR MRLM 292300Z 24004KT 9999 DZ SCT015 BKN130 26/24 A2984=
202005300000 METAR MRLM 300000Z 23004KT 9999 DZ FEW015 BKN110 25/24 A2987=
202005300100 METAR MRLM NIL=
202005300200 METAR MRLM NIL=
202005300300 METAR MRLM NIL=
202005300400 METAR MRLM NIL=
202005300500 METAR MRLM NIL=
202005300600 METAR MRLM NIL=
202005300700 METAR MRLM NIL=
202005300800 METAR MRLM NIL=
202005300900 METAR MRLM NIL=
202005301000 METAR MRLM NIL=
202005301100 METAR MRLM NIL=
202005301200 METAR MRLM 301200Z 24003KT 9999 FEW010 BKN200 23/22 A2988=
202005301300 METAR MRLM 301300Z 25002KT 9999 FEW010 BKN200 24/23 A2990=
202005301400 METAR MRLM 301400Z 24004KT 9999 FEW010 BKN200 25/23 A2992=
202005301500 METAR MRLM 301500Z 23002KT 9999 FEW015 OVC120 26/24 A2993=
202005301600 METAR MRLM 301600Z 29004KT 9999 FEW015 OVC120 28/23 A2992=
202005301700 METAR MRLM 301700Z 30004KT 9999 FEW020 OVC120 29/23 A2992=
202005301800 METAR MRLM 301800Z 34006KT 9999 SCT020 OVC120 28/24 A2991=
202005301900 METAR MRLM 301900Z 01006KT 9999 SCT020 OVC120 28/24 A2988=
202005302000 METAR MRLM 302000Z 03006KT 9999 SCT020 OVC120 28/24 A2985=
202005302100 METAR MRLM 302100Z 03005KT 9999 FEW020 OVC120 28/24 A2985=
202005302200 METAR MRLM 302200Z 02003KT 9999 FEW020 OVC120 28/24 A2984=
202005302300 METAR MRLM 302300Z 04003KT 9999 SCT015 OVC100 27/24 A2987=
202005310000 METAR MRLM 310000Z 06003KT 9999 SCT015 OVC100 27/24 A2989=
202005310100 METAR MRLM NIL=
202005310200 METAR MRLM NIL=
202005310300 METAR MRLM NIL=
202005310400 METAR MRLM NIL=
202005310500 METAR MRLM NIL=
202005310600 METAR MRLM NIL=
202005310700 METAR MRLM NIL=
202005310800 METAR MRLM NIL=
202005310900 METAR MRLM NIL=
202005311000 METAR MRLM NIL=
202005311100 METAR MRLM NIL=
202005311200 METAR MRLM 311200Z 22005KT 9999 FEW015 SCT200 24/23 A2990=
202005311300 METAR MRLM 311300Z 22004KT 9999 FEW015TCU SCT200 26/23 A2992=
202005311400 METAR MRLM 311400Z 21003KT 9999 FEW015TCU SCT100 BKN200 28/24 A2993=
202005311500 METAR MRLM 311500Z 22002KT 9999 VCSH FEW020TCU BKN200 30/24 A2994=
202005311600 METAR MRLM 311600Z 06004KT 9999 VCSH FEW020 BKN220 29/23 A2994=
202005311700 METAR MRLM 311700Z 02005KT 9999 FEW020 BKN120 28/24 A2993=
202005311800 METAR MRLM 311800Z 01004KT 9999 -DZ FEW020 BKN120 29/24 A2991=
202005311900 METAR MRLM 311900Z 31004KT 9999 FEW025 SCT130 30/24 A2988=
202005312000 METAR MRLM 312000Z 02006KT CAVOK 29/25 A2985=
202005312100 METAR MRLM 312100Z 02007KT 9999 FEW025 SCT240 30/24 A2984=
202005312200 METAR MRLM 312200Z 01007KT 9999 FEW025 SCT240 29/25 A2984=
202005312300 METAR MRLM 312300Z 36005KT 9999 SCT025 SCT240 29/24 A2986=
202006010000 METAR MRLM 010000Z 33002KT 9999 FEW020 SCT110 28/24 A2988=
202006010100 METAR MRLM NIL=
202006010200 METAR MRLM NIL=
202006010300 METAR MRLM NIL=
202006010400 METAR MRLM NIL=
202006010500 METAR MRLM NIL=
202006010600 METAR MRLM NIL=
202006010700 METAR MRLM NIL=
202006010800 METAR MRLM NIL=
202006010900 METAR MRLM NIL=
202006011000 METAR MRLM NIL=
202006011100 METAR MRLM NIL=
202006011200 METAR MRLM 011200Z 23005KT CAVOK 24/23 A2991=
202006011300 METAR MRLM 011300Z 23005KT CAVOK 26/24 A2994=
202006011400 METAR MRLM 011400Z 26003KT CAVOK 28/24 A2993=
202006011500 METAR MRLM 011500Z 06004KT 9999 FEW030 BKN240 28/25 A2995=
202006011600 METAR MRLM 011600Z 05005KT 9999 FEW030 BKN240 29/25 A2994=
202006011700 METAR MRLM 011700Z 05006KT 9999 FEW030 BKN240 30/25 A2994=
202006011800 METAR MRLM 011800Z 06006KT CAVOK 30/25 A2992=
202006011900 METAR MRLM 011900Z 07004KT 9999 FEW030 BKN230 29/25 A2989=
202006012000 METAR MRLM 012000Z 03003KT 9999 FEW030 BKN230 29/25 A2985=
202006012100 METAR MRLM 012100Z 07005KT 9999 SCT025 BKN230 29/25 A2984=
202006012200 METAR MRLM 012200Z 09005KT 9999 FEW025 BKN230 29/25 A2984=
202006012300 METAR MRLM 012300Z 05005KT 9999 FEW025 BKN230 29/24 A2985=
202006020000 METAR MRLM 020000Z 23003KT 9999 FEW020 BKN220 28/24 A2990=
202006020100 METAR MRLM NIL=
202006020200 METAR MRLM NIL=
202006020300 METAR MRLM NIL=
202006020400 METAR MRLM NIL=
202006020500 METAR MRLM NIL=
202006020600 METAR MRLM NIL=
202006020700 METAR MRLM NIL=
202006020800 METAR MRLM NIL=
202006020900 METAR MRLM NIL=
202006021000 METAR MRLM NIL=
202006021100 METAR MRLM NIL=
202006021200 METAR MRLM 021200Z 22004KT 9999 FEW020 SCT120 BKN230 23/23 A2989=
202006021300 METAR MRLM 021300Z 23004KT 9999 FEW020 SCT130 BKN230 24/23 A2990=
202006021400 METAR MRLM 021400Z 25003KT 9999 SCT020 BKN130 26/24 A2992=
202006021500 METAR MRLM 021500Z 31005KT 9999 DZ SCT020 BKN120 28/24 A2993=
202006021600 METAR MRLM 021600Z 32008KT 9999 -DZ FEW020 BKN110 28/23 A2994=
202006021700 METAR MRLM 021700Z 35011KT 9999 VCSH SCT020 BKN110 28/25 A2992=
202006021800 METAR MRLM 021800Z 33010KT 9999 FEW020 BKN130 29/24 A2990=
202006021900 METAR MRLM 021900Z 31007KT 9999 FEW020 BKN130 29/23 A2989=
202006022000 METAR MRLM 022000Z 28007KT 9999 FEW015 SCT130 BKN240 28/23 A2985=
202006022100 METAR MRLM 022100Z 26004KT 9999 FEW015 BKN140 27/23 A2983=
202006022200 METAR MRLM 022200Z 27003KT CAVOK 27/23 A2983=
202006022300 METAR MRLM 022300Z 23003KT CAVOK 27/24 A2985=
202006030000 METAR MRLM 030000Z 21003KT CAVOK 26/24 A2987=
202006030100 METAR MRLM NIL=
202006030200 METAR MRLM NIL=
202006030300 METAR MRLM NIL=
202006030400 METAR MRLM NIL=
202006030500 METAR MRLM NIL=
202006030600 METAR MRLM NIL=
202006030700 METAR MRLM NIL=
202006030800 METAR MRLM NIL=
202006030900 METAR MRLM NIL=
202006031000 METAR MRLM NIL=
202006031100 METAR MRLM NIL=
202006031200 METAR MRLM 031200Z 23004KT 9999 FEW015TC SCT200 24/22 A2984=
202006031300 METAR MRLM 031300Z 23004KT 9999 FEW015TC SCT200 27/23 A2986=
202006031400 METAR MRLM 031400Z 26003KT 9999 VCSH FEW020TCU BKN200 28/24 A2987=
202006031500 METAR MRLM 031500Z 30002KT 9999 VCSH FEW020 BKN110 28/24 A2988=
202006031600 METAR MRLM 031600Z 35006KT 9999 FEW020 OVC110 27/24 A2988=
202006031700 METAR MRLM 031700Z 31003KT 9999 DZ FEW020 OVC110 27/24 A2988=
202006031800 METAR MRLM 031800Z 36004KT 9999 -DZ SCT020 OVC110 27/24 A2985=
202006031900 METAR MRLM 031900Z 03004KT 9999 SCT020 OVC110 27/24 A2982=
202006032000 METAR MRLM 032000Z 09003KT 9999 FEW020 OVC120 27/24 A2979=
202006032100 METAR MRLM 032100Z 10003KT 9999 FEW020 BKN120 28/24 A2975=
202006032200 METAR MRLM 032200Z 04002KT CAVOK 28/24 A2975=
202006032300 METAR MRLM 032300Z 02003KT CAVOK 27/24 A2978=
202006040000 METAR MRLM 040000Z 03004KT CAVOK 27/25 A2979=
202006040100 METAR MRLM NIL=
202006040200 METAR MRLM NIL=
202006040300 METAR MRLM NIL=
202006040400 METAR MRLM NIL=
202006040500 METAR MRLM NIL=
202006040600 METAR MRLM NIL=
202006040700 METAR MRLM NIL=
202006040800 METAR MRLM NIL=
202006040900 METAR MRLM NIL=
202006041000 METAR MRLM NIL=
202006041100 METAR MRLM NIL=
202006041200 METAR MRLM 041200Z 23002KT 9999 FEW015 BKN090 24/24 A2981=
202006041300 METAR MRLM 041300Z 21002KT 9999 FEW015 SCT090 26/25 A2982=
202006041400 METAR MRLM 041400Z 08003KT 9999 FEW020 SCT200 29/24 A2985=
202006041500 METAR MRLM 041500Z 07004KT 9999 FEW020 SCT200 29/24 A2986=
202006041600 METAR MRLM 041600Z 07004KT 9999 FEW025 BKN220 29/24 A2985=
202006041700 METAR MRLM 041700Z 06005KT 9999 FEW025 BKN220 29/25 A2983=
202006041800 METAR MRLM 041800Z 05005KT 9999 FEW025 BKN220 29/25 A2981=
202006041900 METAR MRLM 041900Z 03006KT 9999 FEW025 BKN220 30/25 A2977=
202006042000 METAR MRLM 042000Z 02008KT 9999 FEW025 BKN220 29/25 A2976=
202006042100 METAR MRLM 042100Z 25005KT 9999 SCT020 BKN220 27/25 A2975=
202006042200 METAR MRLM 042200Z 26005KT 9999 FEW020 SCT120 BKN220 28/24 A2977=
202006042300 METAR MRLM 042300Z 24003KT 9999 FEW020 SCT120 BKN220 27/23 A2977=
202006050000 METAR MRLM 050000Z 23002KT 9999 SCT015 OVC100 26/24 A2979=
202006050100 METAR MRLM NIL=
202006050200 METAR MRLM NIL=
202006050300 METAR MRLM NIL=
202006050400 METAR MRLM NIL=
202006050500 METAR MRLM NIL=
202006050600 METAR MRLM NIL=
202006050700 METAR MRLM NIL=
202006050800 METAR MRLM NIL=
202006050900 METAR MRLM NIL=
202006051000 METAR MRLM NIL=
202006051100 METAR MRLM NIL=
202006051200 METAR MRLM 051200Z 21006KT 9999 DZ SCT015 BKN100 24/23 A2988=
202006051300 METAR MRLM 051300Z 00000KT 9999 FEW020 BKN110 25/24 A2990=
202006051400 METAR MRLM 051400Z 00000KT 9999 FEW020 BKN130 25/24 A2991=
202006051500 METAR MRLM 051500Z 26004KT CAVOK 26/24 A2990=
202006051600 METAR MRLM 051600Z 00000KT CAVOK 29/29 A2990=
202006051700 METAR MRLM 051700Z 06005KT CAVOK 29/25 A2989=
202006051800 METAR MRLM 051800Z 06005KT CAVOK 29/25 A2988=
202006051900 METAR MRLM 051900Z 07004KT CAVOK 29/24 A2985=
202006052000 METAR MRLM 052000Z 07005KT CAVOK 29/24 A2985=
202006052100 METAR MRLM 052100Z 06005KT CAVOK 29/24 A2984=
202006052200 METAR MRLM 052200Z 10003KT CAVOK 28/24 A2983=
202006052300 METAR MRLM 052300Z 00000KT CAVOK 28/25 A2984=
202006060000 METAR MRLM 060000Z 00000KT 9999 FEW020 SCT150 BKN240 27/25 A2989=
202006060100 METAR MRLM NIL=
202006060200 METAR MRLM NIL=
202006060300 METAR MRLM NIL=
202006060400 METAR MRLM NIL=
202006060500 METAR MRLM NIL=
202006060600 METAR MRLM NIL=
202006060700 METAR MRLM NIL=
202006060800 METAR MRLM NIL=
202006060900 METAR MRLM NIL=
202006061000 METAR MRLM NIL=
202006061100 METAR MRLM NIL=
202006061200 METAR MRLM 061200Z 22003KT 9999 FEW015 BKN130 24/23 A2989=
202006061300 METAR MRLM 061300Z 23004KT 9999 FEW015 BKN130 25/24 A2991=
202006061400 METAR MRLM 061400Z 29004KT 9999 FEW015 SCT130 BKN230 27/24 A2991=
202006061500 METAR MRLM 061500Z 00000KT CAVOK 28/24 A2992=
202006061600 METAR MRLM 061600Z 04004KT 9999 FEW030 BKN250 30/24 A2994=
202006061700 METAR MRLM 061700Z 02008KT 9999 FEW030 SCT140 BKN250 31/24 A2992=
202006061800 METAR MRLM 061800Z 01008KT CAVOK 30/25 A2990=
202006061900 METAR MRLM 061900Z 02007KT CAVOK 29/25 A2988=
202006062000 METAR MRLM 062000Z 02006KT CAVOK 30/25 A2985=
202006062100 METAR MRLM 062100Z 02007KT CAVOK 30/25 A2983=
202006062200 METAR MRLM 062200Z 02008KT 9999 FEW030 SCT250 30/26 A2984=
202006062300 METAR MRLM 062300Z 02007KT 9999 FEW030 SCT250 29/26 A2985=
202006070000 METAR MRLM 070000Z 36006KT 9999 BKN025 29/26 A2989=
202006070100 METAR MRLM NIL=
202006070200 METAR MRLM NIL=
202006070300 METAR MRLM NIL=
202006070400 METAR MRLM NIL=
202006070500 METAR MRLM NIL=
202006070600 METAR MRLM NIL=
202006070700 METAR MRLM NIL=
202006070800 METAR MRLM NIL=
202006070900 METAR MRLM NIL=
202006071000 METAR MRLM NIL=
202006071100 METAR MRLM NIL=
202006071200 METAR MRLM 071200Z 23004KT 9999 -DZ VCSH FEW010 BKN090 25/24 A2990=
202006071300 METAR MRLM 071300Z 23002KT 9999 VCSH FEW010 BKN090 25/24 A2990=
202006071400 METAR MRLM 071400Z 21004KT 9999 FEW010 BKN090 25/24 A2991=
202006071500 METAR MRLM 071500Z 26003KT CAVOK 28/25 A2991=
202006071600 METAR MRLM 071600Z 03004KT 9999 FEW020 SCT200 29/25 A2991=
202006071700 METAR MRLM 071700Z 06005KT 9999 FEW020 SCT200 30/25 A2990=
202006071800 METAR MRLM 071800Z 07006KT CAVOK 30/26 A2988=
202006071900 METAR MRLM 071900Z 07009KT CAVOK 31/26 A2986=
202006072000 METAR MRLM 072000Z 04008KT CAVOK 31/26 A2983=
202006072100 METAR MRLM 072100Z 04006KT 9999 FEW025 BKN250 30/25 A2982=
202006072200 METAR MRLM 072200Z 03006KT 9999 SCT025 BKN250 30/25 A2982=
202006072300 METAR MRLM 072300Z 04003KT 9999 SCT020 SCT250 29/25 A2982=
202006080000 METAR MRLM 080000Z 05003KT 9999 SCT020 SCT230 29/25 A2984=
202006080100 METAR MRLM NIL=
202006080200 METAR MRLM NIL=
202006080300 METAR MRLM NIL=
202006080400 METAR MRLM NIL=
202006080500 METAR MRLM NIL=
202006080600 METAR MRLM NIL=
202006080700 METAR MRLM NIL=
202006080800 METAR MRLM NIL=
202006080900 METAR MRLM NIL=
202006081000 METAR MRLM NIL=
202006081100 METAR MRLM NIL=
202006081200 METAR MRLM 081200Z 28002KT CAVOK 25/24 A2986=
202006081300 METAR MRLM 081300Z 23003KT CAVOK 27/25 A2987=
202006081400 METAR MRLM 081400Z 23002KT CAVOK 29/25 A2988=
202006081500 METAR MRLM 081500Z 07002KT 9999 FEW025 SCT220 30/25 A2990=
202006081600 METAR MRLM 081600Z 11004KT CAVOK 30/25 A2991=
202006081700 METAR MRLM 081700Z 08006KT CAVOK 31/25 A2989=
202006081800 METAR MRLM 081800Z 08005KT CAVOK 31/26 A2988=
202006081900 METAR MRLM 081900Z 07006KT CAVOK 31/26 A2985=
202006082000 METAR MRLM 082000Z 07006KT CAVOK 31/26 A2982=
202006082100 METAR MRLM 082100Z 04006KT 9999 FEW025 31/25 A2981=
202006082200 METAR MRLM 082200Z 06007KT 9999 SCT025 31/26 A2981=
202006082300 METAR MRLM 082300Z 05007KT 9999 SCT025 30/25 A2981=
202006090000 METAR MRLM 090000Z 09004KT 9999 SCT020 SCT220 30/25 A2982=
202006090100 METAR MRLM NIL=
202006090200 METAR MRLM NIL=
202006090300 METAR MRLM NIL=
202006090400 METAR MRLM NIL=
202006090500 METAR MRLM NIL=
202006090600 METAR MRLM NIL=
202006090700 METAR MRLM NIL=
202006090800 METAR MRLM NIL=
202006090900 METAR MRLM NIL=
202006091000 METAR MRLM NIL=
202006091100 METAR MRLM NIL=
202006091200 METAR MRLM 091200Z 22004KT 9999 FEW015 BKN120 24/24 A2986=
202006091300 METAR MRLM 091300Z 23005KT 9999 VCSH FEW015 BKN120 25/25 A2987=
202006091400 METAR MRLM 091400Z 22004KT 9999 FEW020 BKN120 27/25 A2989=
202006091500 METAR MRLM 091500Z 19004KT 9999 FEW020 BKN130 28/25 A2988=
202006091600 METAR MRLM 091600Z 00000KT CAVOK 30/26 A2988=
202006091700 METAR MRLM 091700Z 06005KT 9999 FEW030 BKN140 30/26 A2987=
202006091800 METAR MRLM 091800Z 03005KT CAVOK 30/25 A2985=
202006091900 METAR MRLM 091900Z 02008KT CAVOK 31/26 A2982=
202006092000 METAR MRLM 092000Z 03007KT CAVOK 31/26 A2983=
202006092100 METAR MRLM 092100Z 03006KT 9999 SCT030 BKN250 30/26 A2982=
202006092200 METAR MRLM 092200Z 03007KT 9999 BKN030 30/26 A2982=
202006092300 METAR MRLM 092300Z 07007KT 9999 DZ FEW015TCU BKN020 30/25 A2982=
202006100000 METAR MRLM 100000Z 05006KT 9999 BKN020 29/25 A2985 REDZ=
202006100100 METAR MRLM NIL=
202006100200 METAR MRLM NIL=
202006100300 METAR MRLM NIL=
202006100400 METAR MRLM NIL=
202006100500 METAR MRLM NIL=
202006100600 METAR MRLM NIL=
202006100700 METAR MRLM NIL=
202006100800 METAR MRLM NIL=
202006100900 METAR MRLM NIL=
202006101000 METAR MRLM NIL=
202006101100 METAR MRLM NIL=
202006101200 METAR MRLM 101200Z 00000KT 9999 FEW015 BKN120 23/23 A2987=
202006101300 METAR MRLM 101300Z 23004KT CAVOK 24/23 A2989=
202006101400 METAR MRLM 101400Z 25003KT 9999 FEW015 BKN140 26/24 A2991=
202006101500 METAR MRLM 101500Z 00000KT 9999 FEW015 SCT130 BKN230 28/24 A2992=
202006101600 METAR MRLM 101600Z 35003KT CAVOK 28/24 A2991=
202006101700 METAR MRLM 101700Z 33006KT 9999 FEW020 SCT140 BKN220 28/25 A2989=
202006101800 METAR MRLM 101800Z 31005KT 9999 SCT020 BKN130 29/24 A2989=
202006101900 METAR MRLM 101900Z 35008KT 9999 FEW030 SCT140 BKN230 29/25 A2989=
202006102000 METAR MRLM 102000Z 33008KT 9999 FEW020 SCT140 BKN230 29/25 A2987=
202006102100 METAR MRLM 102100Z 31006KT 9999 FEW030 BKN240 30/25 A2984=
202006102200 METAR MRLM 102200Z 35010KT 9999 FEW030 BKN120 29/25 A2986=
202006102300 METAR MRLM 102300Z 36008KT 9999 FEW015TCU SCT020 BKN120 29/24 A2986=
202006110000 METAR MRLM 110000Z 35004KT 9999 -RA BKN015 28/26 A2989=
202006110100 METAR MRLM NIL=
202006110200 METAR MRLM NIL=
202006110300 METAR MRLM NIL=
202006110400 METAR MRLM NIL=
202006110500 METAR MRLM NIL=
202006110600 METAR MRLM NIL=
202006110700 METAR MRLM NIL=
202006110800 METAR MRLM NIL=
202006110900 METAR MRLM NIL=
202006111000 METAR MRLM NIL=
202006111100 METAR MRLM NIL=
202006111200 METAR MRLM 111200Z 25004KT 9999 FEW015 24/23 A2990=
202006111300 METAR MRLM 111300Z 24003KT 9999 FEW015 24/23 A2992=
202006111400 METAR MRLM 111400Z 29004KT 9999 FEW015 SCT200 28/24 A2992=
202006111500 METAR MRLM 111500Z 31005KT 9999 FEW020 SCT200 29/24 A2993=
202006111600 METAR MRLM 111600Z 31006KT 9999 FEW020 SCT120 BKN220 30/24 A2993=
202006111700 METAR MRLM 111700Z 35009KT 9999 FEW020 SCT120 BKN220 30/24 A2992=
202006111800 METAR MRLM 111800Z 36010KT 9999 FEW020TCU SCT120 BKN220 30/25 A2990=
202006111900 METAR MRLM 111900Z 36013G24KT 9999 DZ VCSH SCT010 BKN080 27/24 A2989=
202006112000 METAR MRLM 112000Z 21006KT 9999 SCT010 BKN080 25/23 A2989=
202006112100 METAR MRLM 112100Z 24006KT 9999 VCSH SCT010 BKN080 25/23 A2987=
202006112200 METAR MRLM 112200Z 25004KT 9999 FEW010 BKN080 25/24 A2987=
202006112300 METAR MRLM 112300Z 22003KT 9999 -DZ VCSH FEW015TCU BKN090 25/23 A2987=
202006120000 METAR MRLM 120000Z 24004KT 9999 -DZ VCSH FEW015 BKN090 24/23 A2990=
202006120100 METAR MRLM NIL=
202006120200 METAR MRLM NIL=
202006120300 METAR MRLM NIL=
202006120400 METAR MRLM NIL=
202006120500 METAR MRLM NIL=
202006120600 METAR MRLM NIL=
202006120700 METAR MRLM NIL=
202006120800 METAR MRLM NIL=
202006120900 METAR MRLM NIL=
202006121000 METAR MRLM NIL=
202006121100 METAR MRLM NIL=
202006121200 METAR MRLM 121200Z 23004KT 9999 VCSH FEW015 SCT100 22/22 A2989=
202006121300 METAR MRLM 121300Z 23004KT 9999 VCSH FEW015 SCT100 24/22 A2990=
202006121400 METAR MRLM 121400Z 30003KT 9999 VCSH FEW015 BKN100 27/23 A2992=
202006121500 METAR MRLM 121500Z 03012KT 9999 -DZ VCSH SCT015 OVC100 26/24 A2994=
202006121600 METAR MRLM 121600Z 36007KT 9999 FEW015 BKN100 26/23 A2993=
202006121700 METAR MRLM 121700Z 36005KT 9999 FEW020 BKN100 27/24 A2992=
202006121800 METAR MRLM 121800Z 03005KT 9999 FEW020 BKN120 28/23 A2989=
202006121900 METAR MRLM 121900Z 02004KT CAVOK 29/24 A2985=
202006122000 METAR MRLM 122000Z 01008KT CAVOK 29/24 A2982=
202006122100 METAR MRLM 122100Z 36008KT CAVOK 29/24 A2981=
202006122200 METAR MRLM 122200Z 36009KT 9999 FEW025 SCT220 29/24 A2980=
202006122300 METAR MRLM 122300Z 01009KT 9999 SCT025 SCT220 28/24 A2981=
202006130000 METAR MRLM 130000Z 31002KT 9999 SCT020 SCT200 27/24 A2982=
202006130100 METAR MRLM NIL=
202006130200 METAR MRLM NIL=
202006130300 METAR MRLM NIL=
202006130400 METAR MRLM NIL=
202006130500 METAR MRLM NIL=
202006130600 METAR MRLM NIL=
202006130700 METAR MRLM NIL=
202006130800 METAR MRLM NIL=
202006130900 METAR MRLM NIL=
202006131000 METAR MRLM NIL=
202006131100 METAR MRLM NIL=
202006131200 METAR MRLM 131200Z 00000KT CAVOK 23/22 A2983=
202006131300 METAR MRLM 131300Z 00000KT CAVOK 25/23 A2983=
202006131400 METAR MRLM 131400Z 30006KT CAVOK 28/22 A2985=
202006131500 METAR MRLM 131500Z 26005KT CAVOK 29/23 A2985=
202006131600 METAR MRLM 131600Z 34008KT 9999 FEW030 BKN250 30/23 A2984=
202006131700 METAR MRLM 131700Z 36010KT 9999 FEW030 SCT250 30/24 A2984=
202006131800 METAR MRLM 131800Z 01011KT 9999 FEW030 SCT250 30/25 A2982=
202006131900 METAR MRLM 131900Z 01012KT 9999 FEW030 SCT250 30/25 A2979=
202006132000 METAR MRLM 132000Z 35011KT 9999 FEW030 BKN240 29/24 A2977=
202006132100 METAR MRLM 132100Z 36011KT 9999 BKN030 29/24 A2977=
202006132200 METAR MRLM 132200Z 35009KT 9999 VCTS BKN020 29/24 A2978=
202006132300 METAR MRLM 132300Z 23003KT 9999 TS DZ FEW010CB BKN015 26/24 A2979=
202006140000 METAR MRLM 140000Z 25007KT 9999 +DZ VCTS BKN015 24/23 A2984=
202006140100 METAR MRLM NIL=
202006140200 METAR MRLM NIL=
202006140300 METAR MRLM NIL=
202006140400 METAR MRLM NIL=
202006140500 METAR MRLM NIL=
202006140600 METAR MRLM NIL=
202006140700 METAR MRLM NIL=
202006140800 METAR MRLM NIL=
202006140900 METAR MRLM NIL=
202006141000 METAR MRLM NIL=
202006141100 METAR MRLM NIL=
202006141200 METAR MRLM 141200Z 24007KT CAVOK 24/23 A2985=
202006141300 METAR MRLM 141300Z 00000KT CAVOK 24/23 A2988=
202006141400 METAR MRLM 141400Z 00000KT CAVOK 27/24 A2989=
202006141500 METAR MRLM 141500Z 29005KT CAVOK 28/24 A2990=
202006141600 METAR MRLM 141600Z 25003KT 9999 FEW030 SCT140 BKN250 29/23 A2988=
202006141700 METAR MRLM 141700Z 11005KT 9999 FEW030 BKN140 29/24 A2988=
202006141800 METAR MRLM 141800Z 02009KT 9999 FEW030 SCT140 30/25 A2987=
202006141900 METAR MRLM 141900Z 02007KT 9999 FEW030 BKN250 30/24 A2985=
202006142000 METAR MRLM 142000Z 01005KT 9999 FEW030 BKN240 29/24 A2982=
202006142100 METAR MRLM 142100Z 03005KT 9999 FEW030 BKN240 29/24 A2978=
202006142200 METAR MRLM 142200Z 04005KT 9999 FEW030 BKN240 29/24 A2977=
202006142300 METAR MRLM 142300Z 05007KT 9999 FEW025 SCT130 BKN240 29/24 A2979=
202006150000 METAR MRLM 150000Z 05005KT 9999 FEW025 SCT130 BKN240 28/24 A2979=
202006150100 METAR MRLM NIL=
202006150200 METAR MRLM NIL=
202006150300 METAR MRLM NIL=
202006150400 METAR MRLM NIL=
202006150500 METAR MRLM NIL=
202006150600 METAR MRLM NIL=
202006150700 METAR MRLM NIL=
202006150800 METAR MRLM NIL=
202006150900 METAR MRLM NIL=
202006151000 METAR MRLM NIL=
202006151100 METAR MRLM NIL=
202006151200 METAR MRLM 151200Z 30003KT 9999 FEW015 SCT200 25/24 A2987=
202006151300 METAR MRLM 151300Z 26004KT 9999 FEW015 SCT200 27/25 A2988=
202006151400 METAR MRLM 151400Z 28002KT 9999 FEW020 SCT200 29/25 A2989=
202006151500 METAR MRLM 151500Z 04004KT 9999 FEW020TCU SCT220 30/25 A2990=
202006151600 METAR MRLM 151600Z 03006KT 9999 FEW020 SCT220 31/25 A2990=
202006151700 METAR MRLM 151700Z 04005KT 9999 FEW020 SCT220 30/25 A2989=
202006151800 METAR MRLM 151800Z 04008KT 9999 FEW025 SCT240 31/26 A2988=
202006151900 METAR MRLM 151900Z 03008KT 9999 FEW025 BKN240 31/25 A2985=
202006152000 METAR MRLM 152000Z 04006KT 9999 FEW025 BKN240 30/24 A2982=
202006152100 METAR MRLM 152100Z 04005KT 9999 FEW025 BKN240 30/25 A2983=
202006152200 METAR MRLM 152200Z 04004KT 9999 FEW025 BKN240 29/24 A2984=
202006152300 METAR MRLM 152300Z 00000KT 9999 FEW020 BKN220 29/25 A2984=
202006160000 METAR MRLM 160000Z 33006KT 9999 FEW020 BKN220 28/25 A2982=
202006160100 METAR MRLM NIL=
202006160200 METAR MRLM NIL=
202006160300 METAR MRLM NIL=
202006160400 METAR MRLM NIL=
202006160500 METAR MRLM NIL=
202006160600 METAR MRLM NIL=
202006160700 METAR MRLM NIL=
202006160800 METAR MRLM NIL=
202006160900 METAR MRLM NIL=
202006161000 METAR MRLM NIL=
202006161100 METAR MRLM NIL=
202006161200 METAR MRLM 161200Z 26004KT 9999 VCSH FEW015 BKN090 25/23 A2988=
202006161300 METAR MRLM 161300Z 25003KT 9999 VCSH FEW015 BKN090 25/24 A2988=
202006161400 METAR MRLM 161400Z 26004KT 9999 FEW020 SCT100 27/24 A2988=
202006161500 METAR MRLM 161500Z 07003KT 9999 FEW020 SCT220 29/24 A2988=
202006161600 METAR MRLM 161600Z 03006KT 9999 FEW020 SCT220 29/24 A2990=
202006161700 METAR MRLM 161700Z 04005KT 9999 FEW020 SCT220 29/25 A2989=
202006161800 METAR MRLM 161800Z 03006KT 9999 FEW025 SCT240 29/25 A2987=
202006161900 METAR MRLM 161900Z 01007KT 9999 FEW025 SCT240 30/25 A2984=
202006162000 METAR MRLM 162000Z 01007KT 9999 FEW025 SCT240 30/25 A2983=
202006162100 METAR MRLM 162100Z 03007KT 9999 FEW025 BKN240 30/25 A2982=
202006162200 METAR MRLM 162200Z 04005KT 9999 FEW025 BKN240 29/25 A2983=
202006162300 METAR MRLM 162300Z 01004KT 9999 SCT020 OVC220 29/25 A2986=
202006170000 METAR MRLM 170000Z 30002KT 9999 SCT020 BKN220 28/25 A2986=
202006170100 METAR MRLM NIL=
202006170200 METAR MRLM NIL=
202006170300 METAR MRLM NIL=
202006170400 METAR MRLM NIL=
202006170500 METAR MRLM NIL=
202006170600 METAR MRLM NIL=
202006170700 METAR MRLM NIL=
202006170800 METAR MRLM NIL=
202006170900 METAR MRLM NIL=
202006171000 METAR MRLM NIL=
202006171100 METAR MRLM NIL=
202006171200 METAR MRLM 171200Z 24004KT CAVOK 24/23 A2986=
202006171300 METAR MRLM 171300Z 24003KT CAVOK 26/24 A2988=
202006171400 METAR MRLM 171400Z 25003KT CAVOK 27/24 A2990=
202006171500 METAR MRLM 171500Z 06003KT 9999 FEW030 BKN130 29/24 A2991=
202006171600 METAR MRLM 171600Z 04006KT 9999 VCSH FEW030 SCT130 30/25 A2991=
202006171700 METAR MRLM 171700Z 35007KT 9999 FEW025 BKN130 29/24 A2990=
202006171800 METAR MRLM 171800Z 36005KT 9999 FEW025 BKN130 29/24 A2989=
202006171900 METAR MRLM 171900Z 32005KT 9999 FEW030 BKN130 29/25 A2987=
202006172000 METAR MRLM 172000Z 01007KT CAVOK 30/25 A2984=
202006172100 METAR MRLM 172100Z 35007KT CAVOK 29/25 A2983=
202006172200 METAR MRLM 172200Z 35006KT CAVOK 29/25 A2983=
202006172300 METAR MRLM 172300Z 33003KT CAVOK 29/25 A2983=
202006180000 METAR MRLM 180000Z 00000KT CAVOK 28/25 A2986=
202006180100 METAR MRLM NIL=
202006180200 METAR MRLM NIL=
202006180300 METAR MRLM NIL=
202006180400 METAR MRLM NIL=
202006180500 METAR MRLM NIL=
202006180600 METAR MRLM NIL=
202006180700 METAR MRLM NIL=
202006180800 METAR MRLM NIL=
202006180900 METAR MRLM NIL=
202006181000 METAR MRLM NIL=
202006181100 METAR MRLM NIL=
202006181200 METAR MRLM 181200Z 23006KT 8000 DZ VCTS BKN020 25/24 A2986=
202006181300 METAR MRLM 181300Z 21004KT 9999 -DZ FEW020 BKN110 25/24 A2990=
202006181400 METAR MRLM 181400Z 21004KT 9999 -DZ FEW020 BKN120 25/24 A2990=
202006181500 METAR MRLM 181500Z 00000KT CAVOK 26/24 A2989=
202006181600 METAR MRLM 181600Z 10008KT CAVOK 28/24 A2989=
202006181700 METAR MRLM 181700Z 12009KT CAVOK 28/24 A2989=
202006181800 METAR MRLM 181800Z 13011KT CAVOK 29/24 A2989=
202006181900 METAR MRLM 181900Z 15006KT CAVOK 29/23 A2987=
202006182000 METAR MRLM 182000Z 17004KT CAVOK 30/24 A2982=
202006182100 METAR MRLM 182100Z 12007KT CAVOK 30/23 A2980=
202006182200 METAR MRLM 182200Z 11006KT CAVOK 29/23 A2980=
202006182300 METAR MRLM 182300Z 00000KT CAVOK 28/25 A2981=
202006190000 METAR MRLM 190000Z 00000KT CAVOK 27/25 A2984=
202006190100 METAR MRLM NIL=
202006190200 METAR MRLM NIL=
202006190300 METAR MRLM NIL=
202006190400 METAR MRLM NIL=
202006190500 METAR MRLM NIL=
202006190600 METAR MRLM NIL=
202006190700 METAR MRLM NIL=
202006190800 METAR MRLM NIL=
202006190900 METAR MRLM NIL=
202006191000 METAR MRLM NIL=
202006191100 METAR MRLM NIL=
202006191200 METAR MRLM 191200Z 26004KT 9999 VCSH SCT010 BKN080 24/23 A2987=
202006191300 METAR MRLM 191300Z 24004KT 8000 +DZ VCSH FEW008 OVC070 24/23 A2988=
202006191400 METAR MRLM 191400Z 25002KT 9999 -DZ VCSH FEW008 OVC070 25/24 A2989=
202006191500 METAR MRLM 191500Z 24007KT 9999 FEW015 SCT090 BKN200 27/24 A2988 REDZ=
202006191600 METAR MRLM 191600Z 29005KT CAVOK 30/24 A2988=
202006191700 METAR MRLM 191700Z 03004KT 9999 FEW020 BKN110 30/25 A2988=
202006191800 METAR MRLM 191800Z 01007KT 9999 FEW020 BKN110 30/24 A2986=
202006191900 METAR MRLM 191900Z 02003KT CAVOK 30/24 A2984=
202006192000 METAR MRLM 192000Z 02004KT CAVOK 30/24 A2983=
202006192100 METAR MRLM 192100Z 36005KT CAVOK 30/24 A2981=
202006192200 METAR MRLM 192200Z 03004KT CAVOK 29/24 A2981=
202006192300 METAR MRLM 192300Z 01005KT CAVOK 29/25 A2982=
202006200000 METAR MRLM 200000Z 27002KT 9999 FEW020 SCT110 BKN220 27/25 A2983=
202006200100 METAR MRLM NIL=
202006200200 METAR MRLM NIL=
202006200300 METAR MRLM NIL=
202006200400 METAR MRLM NIL=
202006200500 METAR MRLM NIL=
202006200600 METAR MRLM NIL=
202006200700 METAR MRLM NIL=
202006200800 METAR MRLM NIL=
202006200900 METAR MRLM NIL=
202006201000 METAR MRLM NIL=
202006201100 METAR MRLM NIL=
202006201200 METAR MRLM 201200Z 26003KT 9999 VCTS VCSH SCT015 OVC080 25/23 A2984=
202006201300 METAR MRLM 201300Z 28005KT 8000 -DZ VCTS VCSH SCT015 OVC080 24/23 A2985=
202006201400 METAR MRLM 201400Z 25002KT 8000 DZ VCTS SCT015 OVC080 24/23 A2990=
202006201500 METAR MRLM 201500Z 26004KT 8000 DZ VCTS FEW015 OVC080 24/23 A2991=
202006201600 METAR MRLM 201600Z 25004KT 8000 DZ FEW015 OVC080 24/23 A2991=
202006201700 METAR MRLM 201700Z 24004KT 9000 -DZ FEW015 OVC080 24/23 A2990=
202006201800 METAR MRLM 201800Z 22003KT 9000 -DZ FEW010 OVC080 25/24 A2989=
202006201900 METAR MRLM 201900Z 31002KT 9999 -DZ FEW010 OVC080 25/24 A2986=
202006202000 METAR MRLM 202000Z 27004KT 9999 -DZ FEW010 OVC080 25/24 A2981=
202006202100 METAR MRLM 202100Z 30005KT 9999 -DZ NSC 25/24 A2980=
202006202200 METAR MRLM 202200Z 24002KT 9999 FEW015 OVC090 26/24 A2983 REDZ=
202006202300 METAR MRLM 202300Z 26005KT 9999 FEW015 OVC090 25/24 A2983=
202006210000 METAR MRLM 210000Z 26003KT 9999 FEW015 OVC100 25/24 A2985=
202006210100 METAR MRLM NIL=
202006210200 METAR MRLM NIL=
202006210300 METAR MRLM NIL=
202006210400 METAR MRLM NIL=
202006210500 METAR MRLM NIL=
202006210600 METAR MRLM NIL=
202006210700 METAR MRLM NIL=
202006210800 METAR MRLM NIL=
202006210900 METAR MRLM NIL=
202006211000 METAR MRLM NIL=
202006211100 METAR MRLM NIL=
202006211200 METAR MRLM 211200Z 23005KT CAVOK 23/22 A2983=
202006211300 METAR MRLM 211300Z 00000KT CAVOK 27/23 A2985=
202006211400 METAR MRLM 211400Z 22004KT CAVOK 27/24 A2989=
202006211500 METAR MRLM 211500Z 27003KT CAVOK 29/24 A2989=
202006211600 METAR MRLM 211600Z 32005KT CAVOK 30/24 A2989=
202006211700 METAR MRLM 211700Z 34008KT CAVOK 30/23 A2987=
202006211800 METAR MRLM 211800Z 36010KT CAVOK 31/24 A2987=
202006211900 METAR MRLM 211900Z 36011KT 9999 FEW030 BKN240 30/25 A2986=
202006212000 METAR MRLM 212000Z 02010KT 9999 SCT025 BKN240 29/26 A2984=
202006212100 METAR MRLM 212100Z 06027KT 1000 +RA OVC010 25/25 A2985=
202006212200 METAR MRLM 212200Z 17003KT 9999 DZ SCT010 BKN120 24/23 A2982=
202006212300 METAR MRLM 212300Z 22005KT 9999 -DZ FEW010 SCT120 BKN220 24/23 A2982=
202006220000 METAR MRLM 220000Z 21005KT CAVOK 23/22 A2983=
202006220100 METAR MRLM NIL=
202006220200 METAR MRLM NIL=
202006220300 METAR MRLM NIL=
202006220400 METAR MRLM NIL=
202006220500 METAR MRLM NIL=
202006220600 METAR MRLM NIL=
202006220700 METAR MRLM NIL=
202006220800 METAR MRLM NIL=
202006220900 METAR MRLM NIL=
202006221000 METAR MRLM NIL=
202006221100 METAR MRLM NIL=
202006221200 METAR MRLM 221200Z 00000KT 9999 SCT020 BKN110 24/23 A2988=
202006221300 METAR MRLM 221300Z 00000KT 9999 4000N RA SCT015 BKN110 24/23 A2991=
202006221400 METAR MRLM 221400Z 23002KT 9999 FEW025 SCT130 27/25 A2991 RERA=
202006221500 METAR MRLM 221500Z 01003KT 9999 FEW030 SCT140 29/25 A2991=
202006221600 METAR MRLM 221600Z 03007KT CAVOK 29/25 A2991=
202006221700 METAR MRLM 221700Z 03004KT CAVOK 30/25 A2989=
202006221800 METAR MRLM 221800Z 02007KT CAVOK 30/25 A2987=
202006221900 METAR MRLM 221900Z 01008KT CAVOK 30/25 A2986=
202006222000 METAR MRLM 222000Z 36009KT CAVOK 30/25 A2985=
202006222100 METAR MRLM 222100Z 36008KT CAVOK 30/25 A2984=
202006222200 METAR MRLM 222200Z 36004KT 9999 FEW030 BKN130 29/25 A2985=
202006222300 METAR MRLM 222300Z 34005KT 9999 BKN020 29/25 A2985=
202006230000 METAR MRLM 230000Z 30007KT 9999 BKN020 27/26 A2988=
202006230100 METAR MRLM NIL=
202006230200 METAR MRLM NIL=
202006230300 METAR MRLM NIL=
202006230400 METAR MRLM NIL=
202006230500 METAR MRLM NIL=
202006230600 METAR MRLM NIL=
202006230700 METAR MRLM NIL=
202006230800 METAR MRLM NIL=
202006230900 METAR MRLM NIL=
202006231000 METAR MRLM NIL=
202006231100 METAR MRLM NIL=
202006231200 METAR MRLM 231200Z 24004KT 7000 TS DZ VCSH FEW008CB SCT015 OVC070 25/24 A2983=
202006231300 METAR MRLM 231300Z 21005KT 5000 -TSRA SCT008CB OVC070 25/24 A2986=
202006231400 METAR MRLM 231400Z 24004KT 8000 VCSH FEW015 OVC080 25/24 A2989 RETSRA=
202006231500 METAR MRLM 231500Z 21004KT 8000 VCTS VCSH FEW015 OVC080 27/25 A2987=
202006231600 METAR MRLM 231600Z 26005KT 7000 DZ VCTS VCSH SCT015 OVC080 27/24 A2986=
202006231700 METAR MRLM 231700Z 16004KT 8000 FEW015 OVC080 26/25 A2986 REDZ=
202006231800 METAR MRLM 231800Z 20004KT 9000 FEW015 OVC080 27/24 A2982=
202006231900 METAR MRLM 231900Z 13006KT 9999 FEW020 OVC090 28/25 A2979=
202006232000 METAR MRLM 232000Z 13007KT 9999 FEW020 OVC090 28/25 A2977=
202006232100 METAR MRLM 232100Z 15005KT CAVOK 30/25 A2976=
202006232200 METAR MRLM 232200Z 10006KT CAVOK 29/25 A2976=
202006232300 METAR MRLM 232300Z 12008KT CAVOK 29/25 A2978=
202006240000 METAR MRLM 240000Z 14004KT CAVOK 28/25 A2979=
202006240100 METAR MRLM NIL=
202006240200 METAR MRLM NIL=
202006240300 METAR MRLM NIL=
202006240400 METAR MRLM NIL=
202006240500 METAR MRLM NIL=
202006240600 METAR MRLM NIL=
202006240700 METAR MRLM NIL=
202006240800 METAR MRLM NIL=
202006240900 METAR MRLM NIL=
202006241000 METAR MRLM NIL=
202006241100 METAR MRLM NIL=
202006241200 METAR MRLM 241200Z 00000KT 8000 VCTS VCSH SCT010 OVC070 24/23 A2985=
202006241300 METAR MRLM 241300Z 23003KT 9000 -DZ VCSH FEW010 OVC080 24/23 A2986=
202006241400 METAR MRLM 241400Z 20003KT 9999 FEW015 OVC080 25/23 A2986=
202006241500 METAR MRLM 241500Z 00000KT 9999 VCTS VCSH SCT015 OVC080 27/23 A2988=
202006241600 METAR MRLM 241600Z 03009KT 4000 +DZ SCT015 OVC070 26/24 A2989=
202006241700 METAR MRLM 241700Z 36003KT 8000 VCSH FEW015 OVC080 26/24 A2988 REDZ=
202006241800 METAR MRLM 241800Z 25002KT 9999 -DZ FEW020 OVC080 26/24 A2986=
202006241900 METAR MRLM 241900Z 28002KT 9999 FEW020 OVC100 27/23 A2983=
202006242000 METAR MRLM 242000Z 35002KT 9999 FEW020 OVC100 28/23 A2982=
202006242100 METAR MRLM 242100Z 00000KT 9999 FEW020 OVC100 28/23 A2980=
202006242200 METAR MRLM 242200Z 06002KT CAVOK 28/24 A2979=
202006242300 METAR MRLM 242300Z 07003KT CAVOK 28/24 A2979=
202006250000 METAR MRLM 250000Z 18002KT CAVOK 26/25 A2980=
202006250100 METAR MRLM NIL=
202006250200 METAR MRLM NIL=
202006250300 METAR MRLM NIL=
202006250400 METAR MRLM NIL=
202006250500 METAR MRLM NIL=
202006250600 METAR MRLM NIL=
202006250700 METAR MRLM NIL=
202006250800 METAR MRLM NIL=
202006250900 METAR MRLM NIL=
202006251000 METAR MRLM NIL=
202006251100 METAR MRLM NIL=
202006251200 METAR MRLM 251200Z 03004KT 9999 FEW020 BKN120 25/24 A2988=
202006251300 METAR MRLM 251300Z 24004KT 9999 SCT020 BKN130 26/24 A2989=
202006251400 METAR MRLM 251400Z 24006KT CAVOK 28/24 A2990=
202006251500 METAR MRLM 251500Z 22004KT CAVOK 29/24 A2991=
202006251600 METAR MRLM 251600Z 07003KT 9999 FEW030 BKN240 30/25 A2992=
202006251700 METAR MRLM 251700Z 09004KT 9999 FEW030 OVC240 30/25 A2991=
202006251800 METAR MRLM 251800Z 05005KT 9999 FEW030 OVC240 30/25 A2989=
202006251900 METAR MRLM 251900Z 05005KT CAVOK 30/24 A2988=
202006252000 METAR MRLM 252000Z 06006KT CAVOK 30/26 A2985=
202006252100 METAR MRLM 252100Z 05008KT CAVOK 30/25 A2984=
202006252200 METAR MRLM 252200Z 05007KT 9999 SCT030 BKN240 30/25 A2984=
202006252300 METAR MRLM 252300Z 06006KT 9999 SCT030 BKN240 30/25 A2984=
202006260000 METAR MRLM 260000Z 05006KT 9999 SCT025 OVC240 29/25 A2985=
202006260100 METAR MRLM NIL=
202006260200 METAR MRLM NIL=
202006260300 METAR MRLM NIL=
202006260400 METAR MRLM NIL=
202006260500 METAR MRLM NIL=
202006260600 METAR MRLM NIL=
202006260700 METAR MRLM NIL=
202006260800 METAR MRLM NIL=
202006260900 METAR MRLM NIL=
202006261000 METAR MRLM NIL=
202006261100 METAR MRLM NIL=
202006261200 METAR MRLM 261200Z 24005KT 9999 SCT015 BKN110 24/23 A2991=
202006261300 METAR MRLM 261300Z 20006KT 7000 RA SCT020 BKN110 24/23 A2992=
202006261400 METAR MRLM 261400Z 21006KT 9999 DZ SCT020 BKN110 24/23 A2993=
202006261500 METAR MRLM 261500Z 21006KT 9999 DZ FEW020 SCT120 BKN220 24/23 A2992=
202006261600 METAR MRLM 261600Z 24004KT CAVOK 27/24 A2990 REDZ=
202006261700 METAR MRLM 261700Z 08005KT CAVOK 27/24 A2993=
202006261800 METAR MRLM 261800Z 06010KT 9999 +DZ SCT020 BKN230 24/24 A2994=
202006261900 METAR MRLM 261900Z 21003KT 9999 DZ FEW020 BKN130 26/25 A2989=
202006262000 METAR MRLM 262000Z 20003KT CAVOK 26/24 A2986 REDZ=
202006262100 METAR MRLM 262100Z 26004KT CAVOK 27/24 A2983=
202006262200 METAR MRLM 262200Z 32004KT CAVOK 27/24 A2983=
202006262300 METAR MRLM 262300Z 00000KT CAVOK 27/25 A2984=
202006270000 METAR MRLM 270000Z 00000KT 9999 SCT020 OVC130 27/25 A2986=
202006270100 METAR MRLM NIL=
202006270200 METAR MRLM NIL=
202006270300 METAR MRLM NIL=
202006270400 METAR MRLM NIL=
202006270500 METAR MRLM NIL=
202006270600 METAR MRLM NIL=
202006270700 METAR MRLM NIL=
202006270800 METAR MRLM NIL=
202006270900 METAR MRLM NIL=
202006271000 METAR MRLM NIL=
202006271100 METAR MRLM NIL=
202006271200 METAR MRLM 271200Z 24003KT CAVOK 24/23 A2983=
202006271300 METAR MRLM 271300Z 29005KT CAVOK 26/23 A2983=
202006271400 METAR MRLM 271400Z 28008KT CAVOK 28/23 A2982=
202006271500 METAR MRLM 271500Z 30007KT CAVOK 29/24 A2985=
202006271600 METAR MRLM 271600Z 28007KT CAVOK 29/24 A2982=
202006271700 METAR MRLM 271700Z 30008KT 9999 FEW025 BKN120 30/24 A2981=
202006271800 METAR MRLM 271800Z 33013KT 9999 FEW025 BKN120 30/25 A2982=
202006271900 METAR MRLM 271900Z 34016KT 9999 FEW025 SCT120 BKN220 30/25 A2981=
202006272000 METAR MRLM 272000Z 34017KT 9999 FEW020 SCT120 BKN220 30/25 A2979=
202006272100 METAR MRLM 272100Z 34016KT 9999 SCT020 BKN120 29/25 A2979=
202006272200 METAR MRLM 272200Z 32008KT 9999 SCT020 BKN120 28/25 A2979=
202006272300 METAR MRLM 272300Z 28007KT 9999 -DZ SCT015 OVC100 27/24 A2981=
202006280000 METAR MRLM 280000Z 27003KT 8000 -DZ VCSH SCT010 OVC090 26/24 A2983=
202006280100 METAR MRLM NIL=
202006280200 METAR MRLM NIL=
202006280300 METAR MRLM NIL=
202006280400 METAR MRLM NIL=
202006280500 METAR MRLM NIL=
202006280600 METAR MRLM NIL=
202006280700 METAR MRLM NIL=
202006280800 METAR MRLM NIL=
202006280900 METAR MRLM NIL=
202006281000 METAR MRLM NIL=
202006281100 METAR MRLM NIL=
202006281200 METAR MRLM 281200Z 23002KT CAVOK 23/23 A2985=
202006281300 METAR MRLM 281300Z 23003KT 9999 VCSH FEW020 BKN100 23/23 A2986=
202006281400 METAR MRLM 281400Z 13002KT 9999 DZ VCSH SCT020 BKN100 24/23 A2988=
202006281500 METAR MRLM 281500Z 25004KT 9999 VCSH SCT020 OVC100 24/24 A2988 REDZ=
202006281600 METAR MRLM 281600Z 27003KT 9999 SCT020 OVC100 26/24 A2986=
202006281700 METAR MRLM 281700Z 25002KT 9999 FEW020 BKN120 28/24 A2984=
202006281800 METAR MRLM 281800Z 02006KT CAVOK 29/24 A2983=
202006281900 METAR MRLM 281900Z 01007KT CAVOK 30/24 A2982=
202006282000 METAR MRLM 282000Z 36010KT 9999 FEW020 SCT120 BKN220 30/24 A2980=
202006282100 METAR MRLM 282100Z 36011KT 9999 SCT020 BKN120 28/25 A2978=
202006282200 METAR MRLM 282200Z 30004KT 9999 FEW020 BKN120 27/24 A2978=
202006282300 METAR MRLM 282300Z 29004KT 9999 FEW020 SCT120 BKN220 27/24 A2978=
202006290000 METAR MRLM 290000Z 32005KT 9999 FEW015 SCT100 BKN200 27/24 A2982=
202006290100 METAR MRLM NIL=
202006290200 METAR MRLM NIL=
202006290300 METAR MRLM NIL=
202006290400 METAR MRLM NIL=
202006290500 METAR MRLM NIL=
202006290600 METAR MRLM NIL=
202006290700 METAR MRLM NIL=
202006290800 METAR MRLM NIL=
202006290900 METAR MRLM NIL=
202006291000 METAR MRLM NIL=
202006291100 METAR MRLM NIL=
202006291200 METAR MRLM 291200Z 00000KT CAVOK 24/23 A2985=
202006291300 METAR MRLM 291300Z 00000KT CAVOK 25/23 A2987=
202006291400 METAR MRLM 291400Z 00000KT CAVOK 25/23 A2987=
202006291500 METAR MRLM 291500Z 23003KT CAVOK 30/24 A2989=
202006291600 METAR MRLM 291600Z 03007KT 9999 FEW030 BKN140 30/24 A2989=
202006291700 METAR MRLM 291700Z 01006KT CAVOK 31/25 A2986=
202006291800 METAR MRLM 291800Z 02010KT CAVOK 30/25 A2984=
202006291900 METAR MRLM 291900Z 02010KT CAVOK 30/25 A2982=
202006292000 METAR MRLM 292000Z 36009KT CAVOK 30/25 A2980=
202006292100 METAR MRLM 292100Z 02008KT 9999 FEW030 SCT250 30/25 A2979=
202006292200 METAR MRLM 292200Z 02006KT CAVOK 29/25 A2979=
202006292300 METAR MRLM 292300Z 05005KT 9999 FEW025 BKN250 29/25 A2982=
202006300000 METAR MRLM 300000Z 06006KT 9999 BKN020 28/25 A2986=
202006300100 METAR MRLM NIL=
202006300200 METAR MRLM NIL=
202006300300 METAR MRLM NIL=
202006300400 METAR MRLM NIL=
202006300500 METAR MRLM NIL=
202006300600 METAR MRLM NIL=
202006300700 METAR MRLM NIL=
202006300800 METAR MRLM NIL=
202006300900 METAR MRLM NIL=
202006301000 METAR MRLM NIL=
202006301100 METAR MRLM NIL=
202006301200 METAR MRLM 301200Z 26005KT 9999 FEW015 BKN110 24/23 A2987=
202006301300 METAR MRLM 301300Z 28003KT 9999 FEW015 BKN120 25/23 A2990=
202006301400 METAR MRLM 301400Z 26004KT CAVOK 27/23 A2991=
202006301500 METAR MRLM 301500Z 29003KT 9999 FEW025 SCT130 28/22 A2991=
202006301600 METAR MRLM 301600Z 33004KT 9999 FEW025 BKN130 28/23 A2991=
202006301700 METAR MRLM 301700Z 02008KT 9999 FEW030 BKN130 28/24 A2989=
202006301800 METAR MRLM 301800Z 02007KT CAVOK 28/24 A2988=
202006301900 METAR MRLM 301900Z 02006KT CAVOK 28/24 A2985=
202006302000 METAR MRLM 302000Z 03004KT CAVOK 28/24 A2983=
202006302100 METAR MRLM 302100Z 06004KT 9999 FEW030 BKN120 28/24 A2982=
202006302200 METAR MRLM 302200Z 11003KT 9999 FEW030 BKN120 28/24 A2982=
202006302300 METAR MRLM 302300Z 01004KT 9999 SCT020 BKN120 28/24 A2983=
202007010000 METAR MRLM 010000Z 23004KT 9999 SCT020 BKN110 27/24 A2985=
202007010100 METAR MRLM NIL=
202007010200 METAR MRLM NIL=
202007010300 METAR MRLM NIL=
202007010400 METAR MRLM NIL=
202007010500 METAR MRLM NIL=
202007010600 METAR MRLM NIL=
202007010700 METAR MRLM NIL=
202007010800 METAR MRLM NIL=
202007010900 METAR MRLM NIL=
202007011000 METAR MRLM NIL=
202007011100 METAR MRLM NIL=
202007011200 METAR MRLM 011200Z 25004KT 9999 -DZ FEW015 OVC100 22/22 A2984=
202007011300 METAR MRLM 011300Z 00000KT 9999 FEW015 OVC100 23/22 A2988=
202007011400 METAR MRLM 011400Z 23005KT 9999 FEW020 BKN100 25/22 A2990=
202007011500 METAR MRLM 011500Z 27003KT 9999 FEW020 SCT120 BKN220 29/23 A2990=
202007011600 METAR MRLM 011600Z 11004KT 9999 FEW020 BKN120 29/22 A2989=
202007011700 METAR MRLM 011700Z 11004KT 9999 FEW020 OVC120 29/23 A2988=
202007011800 METAR MRLM 011800Z 08004KT 9999 FEW025 OVC120 29/24 A2987=
202007011900 METAR MRLM 011900Z 08003KT 9999 SCT025 OVC120 29/24 A2985=
202007012000 METAR MRLM 012000Z 05017KT 9999 VCSH SCT015 BKN100 26/24 A2985 RERA=
202007012100 METAR MRLM 012100Z 06019KT 9999 DZ VCSH FEW015 BKN100 26/23 A2981=
202007012200 METAR MRLM 012200Z 08009KT 9999 VCSH FEW015 BKN100 27/22 A2982 REDZ=
202007012300 METAR MRLM 012300Z 25005KT 9999 SCT015 BKN090 25/24 A2982=
202007020000 METAR MRLM 020000Z 25003KT 9999 FEW015 SCT090 BKN200 24/23 A2982=
202007020100 METAR MRLM NIL=
202007020200 METAR MRLM NIL=
202007020300 METAR MRLM NIL=
202007020400 METAR MRLM NIL=
202007020500 METAR MRLM NIL=
202007020600 METAR MRLM NIL=
202007020700 METAR MRLM NIL=
202007020800 METAR MRLM NIL=
202007020900 METAR MRLM NIL=
202007021000 METAR MRLM NIL=
202007021100 METAR MRLM NIL=
202007021200 METAR MRLM 021200Z 26005KT 9999 FEW015 BKN090 23/21 A2987=
202007021300 METAR MRLM 021300Z 24003KT 9999 FEW015 BKN090 23/22 A2989=
202007021400 METAR MRLM 021400Z 27005KT CAVOK 27/23 A2989=
202007021500 METAR MRLM 021500Z 27004KT CAVOK 27/23 A2990=
202007021600 METAR MRLM 021600Z 31003KT CAVOK 29/23 A2989=
202007021700 METAR MRLM 021700Z 31006KT CAVOK 29/21 A2986=
202007021800 METAR MRLM 021800Z 36011KT CAVOK 29/24 A2986=
202007021900 METAR MRLM 021900Z 35009KT CAVOK 30/23 A2982=
202007022000 METAR MRLM 022000Z 34008KT 9999 FEW030 BKN230 30/24 A2981=
202007022100 METAR MRLM 022100Z 35009KT 9999 FEW030 BKN230 30/24 A2980=
202007022200 METAR MRLM 022200Z 35010KT 9999 SCT020 BKN230 29/25 A2980=
202007022300 METAR MRLM 022300Z 34010KT 9999 FEW020 SCT120 BKN220 28/24 A2980=
202007030000 METAR MRLM 030000Z 32006KT 9999 FEW020 BKN220 27/24 A2981=
202007030100 METAR MRLM NIL=
202007030200 METAR MRLM NIL=
202007030300 METAR MRLM NIL=
202007030400 METAR MRLM NIL=
202007030500 METAR MRLM NIL=
202007030600 METAR MRLM NIL=
202007030700 METAR MRLM NIL=
202007030800 METAR MRLM NIL=
202007030900 METAR MRLM NIL=
202007031000 METAR MRLM NIL=
202007031100 METAR MRLM NIL=
202007031200 METAR MRLM 031200Z 23003KT CAVOK 23/23 A2982=
202007031300 METAR MRLM 031300Z 27003KT CAVOK 26/23 A2984=
202007031400 METAR MRLM 031400Z 29004KT CAVOK 27/23 A2986=
202007031500 METAR MRLM 031500Z 29007KT CAVOK 28/24 A2985=
202007031600 METAR MRLM 031600Z 31006KT 9999 FEW030 SCT140 BKN240 28/24 A2986=
202007031700 METAR MRLM 031700Z 31006KT 9999 FEW030 BKN140 29/25 A2985=
202007031800 METAR MRLM 031800Z 36016KT 9999 BKN020 27/25 A2986=
202007031900 METAR MRLM 031900Z 35009KT 9999 FEW020 SCT130 BKN230 27/24 A2981=
202007032000 METAR MRLM 032000Z 34009KT 9999 SCT020 BKN130 28/24 A2982=
202007032100 METAR MRLM 032100Z 31007KT 9999 BKN020 28/24 A2979=
202007032200 METAR MRLM 032200Z 31006KT 9999 SCT020 BKN220 28/24 A2978=
202007032300 METAR MRLM 032300Z 00000KT 9999 FEW020 SCT130 BKN220 28/25 A2979=
202007040000 METAR MRLM 040000Z 34007KT 9999 SCT150 BKN120 27/24 A2983=
202007040100 METAR MRLM NIL=
202007040200 METAR MRLM NIL=
202007040300 METAR MRLM NIL=
202007040400 METAR MRLM NIL=
202007040500 METAR MRLM NIL=
202007040600 METAR MRLM NIL=
202007040700 METAR MRLM NIL=
202007040800 METAR MRLM NIL=
202007040900 METAR MRLM NIL=
202007041000 METAR MRLM NIL=
202007041100 METAR MRLM NIL=
202007041200 METAR MRLM 041200Z 29003KT CAVOK 24/23 A2982=
202007041300 METAR MRLM 041300Z 00000KT 9999 VCSH FEW020 SCT110 BKN220 24/23 A2986=
202007041400 METAR MRLM 041400Z 21004KT 9999 FEW020 BKN120 25/23 A2988=
202007041500 METAR MRLM 041500Z 22004KT CAVOK 26/23 A2988=
202007041600 METAR MRLM 041600Z 23004KT 9999 FEW025 BKN130 26/24 A2989=
202007041700 METAR MRLM 041700Z 22003KT CAVOK 28/25 A2988=
202007041800 METAR MRLM 041800Z 00000KT 9999 DZ VCTS FEW020 SCT130 BKN230 28/25 A2987=
202007041900 METAR MRLM 041900Z 00000KT CAVOK 28/24 A2983=
202007042000 METAR MRLM 042000Z 00000KT CAVOK 28/25 A2981=
202007042100 METAR MRLM 042100Z 07004KT 9999 FEW030 SCT130 BKN230 28/24 A2982=
202007042200 METAR MRLM 042200Z 06005KT 9999 FEW030 BKN130 28/25 A2983=
202007042300 METAR MRLM 042300Z 01005KT 7000 TS DZ FEW010CB SCT015 BKN110 27/25 A2983=
202007050000 METAR MRLM 050000Z 27004KT 7000 +DZ BKN015 26/25 A2985 RETS=
202007050100 METAR MRLM NIL=
202007050200 METAR MRLM NIL=
202007050300 METAR MRLM NIL=
202007050400 METAR MRLM NIL=
202007050500 METAR MRLM NIL=
202007050600 METAR MRLM NIL=
202007050700 METAR MRLM NIL=
202007050800 METAR MRLM NIL=
202007050900 METAR MRLM NIL=
202007051000 METAR MRLM NIL=
202007051100 METAR MRLM NIL=
202007051200 METAR MRLM 051200Z 24003KT CAVOK 24/23 A2988=
202007051300 METAR MRLM 051300Z 23004KT CAVOK 26/23 A2989=
202007051400 METAR MRLM 051400Z 27003KT CAVOK 28/23 A2990=
202007051500 METAR MRLM 051500Z 05004KT CAVOK 28/24 A2991=
202007051600 METAR MRLM 051600Z 03006KT 9999 FEW025 BKN230 29/24 A2990=
202007051700 METAR MRLM 051700Z 04006KT 9999 FEW025 SCT230 29/24 A2989=
202007051800 METAR MRLM 051800Z 06005KT CAVOK 29/24 A2987=
202007051900 METAR MRLM 051900Z 07006KT CAVOK 29/24 A2984=
202007052000 METAR MRLM 052000Z 08007KT CAVOK 30/24 A2982=
202007052100 METAR MRLM 052100Z 07007KT CAVOK 29/24 A2981=
202007052200 METAR MRLM 052200Z 07007KT 9999 FEW025 BKN240 29/24 A2981=
202007052300 METAR MRLM 052300Z 08005KT 9999 FEW025 BKN240 29/24 A2982=
202007060000 METAR MRLM 060000Z 08005KT 9999 FEW020 BKN220 28/24 A2984=
202007060100 METAR MRLM NIL=
202007060200 METAR MRLM NIL=
202007060300 METAR MRLM NIL=
202007060400 METAR MRLM NIL=
202007060500 METAR MRLM NIL=
202007060600 METAR MRLM NIL=
202007060700 METAR MRLM NIL=
202007060800 METAR MRLM NIL=
202007060900 METAR MRLM NIL=
202007061000 METAR MRLM NIL=
202007061100 METAR MRLM NIL=
202007061200 METAR MRLM 061200Z 22004KT 9999 FEW020 SCT200 24/24 A2989=
202007061300 METAR MRLM 061300Z 23003KT 9999 FEW020 SCT200 26/24 A2990=
202007061400 METAR MRLM 061400Z 15002KT 9999 VCSH FEW020TCU SCT200 28/25 A2993=
202007061500 METAR MRLM 061500Z 11002KT 9999 FEW025 BKN220 29/25 A2994=
202007061600 METAR MRLM 061600Z 07004KT CAVOK 29/25 A2993=
202007061700 METAR MRLM 061700Z 06006KT CAVOK 30/25 A2991=
202007061800 METAR MRLM 061800Z 06005KT CAVOK 30/24 A2990=
202007061900 METAR MRLM 061900Z 06006KT CAVOK 30/25 A2989=
202007062000 METAR MRLM 062000Z 07006KT CAVOK 30/25 A2988=
202007062100 METAR MRLM 062100Z 06007KT 9999 FEW025 SCT240 30/24 A2986=
202007062200 METAR MRLM 062200Z 04006KT 9999 SCT025 30/25 A2987=
202007062300 METAR MRLM 062300Z 06005KT 9999 SCT025 29/25 A2987=
202007070000 METAR MRLM 070000Z 05007KT 9999 FEW020TCU SCT220 29/25 A2988=
202007070100 METAR MRLM NIL=
202007070200 METAR MRLM NIL=
202007070300 METAR MRLM NIL=
202007070400 METAR MRLM NIL=
202007070500 METAR MRLM NIL=
202007070600 METAR MRLM NIL=
202007070700 METAR MRLM NIL=
202007070800 METAR MRLM NIL=
202007070900 METAR MRLM NIL=
202007071000 METAR MRLM NIL=
202007071100 METAR MRLM NIL=
202007071200 METAR MRLM 071200Z 25005KT 9999 FEW020 SCT230 23/23 A2990=
202007071300 METAR MRLM 071300Z 23003KT CAVOK 25/24 A2992=
202007071400 METAR MRLM 071400Z 21003KT CAVOK 28/24 A2992=
202007071500 METAR MRLM 071500Z 05003KT CAVOK 30/24 A2993=
202007071600 METAR MRLM 071600Z 08004KT 9999 FEW030 SCT140 29/24 A2995=
202007071700 METAR MRLM 071700Z 07005KT 9999 FEW030 SCT240 30/24 A2994=
202007071800 METAR MRLM 071800Z 05005KT CAVOK 30/24 A2992=
202007071900 METAR MRLM 071900Z 05007KT CAVOK 31/24 A2990=
202007072000 METAR MRLM 072000Z 05006KT CAVOK 31/24 A2987=
202007072100 METAR MRLM 072100Z 06006KT CAVOK 30/24 A2986=
202007072200 METAR MRLM 072200Z 03004KT 9999 FEW030 BKN240 30/24 A2985=
202007072300 METAR MRLM 072300Z 01006KT 9999 FEW025 BKN240 29/24 A2985=
202007080000 METAR MRLM 080000Z 00000KT CAVOK 29/24 A2985=
202007080100 METAR MRLM NIL=
202007080200 METAR MRLM NIL=
202007080300 METAR MRLM NIL=
202007080400 METAR MRLM NIL=
202007080500 METAR MRLM NIL=
202007080600 METAR MRLM NIL=
202007080700 METAR MRLM NIL=
202007080800 METAR MRLM NIL=
202007080900 METAR MRLM NIL=
202007081000 METAR MRLM NIL=
202007081100 METAR MRLM NIL=
202007081200 METAR MRLM 081200Z 23006KT 9999 DZ FEW020 BKN100 24/24 A2989=
202007081300 METAR MRLM 081300Z 23004KT 9999 DZ SCT020 OVC110 24/23 A2990=
202007081400 METAR MRLM 081400Z 26005KT 9999 DZ FEW020 BKN120 24/23 A2991=
202007081500 METAR MRLM 081500Z 00000KT 9999 FEW020 BKN130 24/23 A2993 REDZ=
202007081600 METAR MRLM 081600Z 25003KT CAVOK 26/23 A2991=
202007081700 METAR MRLM 081700Z 10003KT CAVOK 28/24 A2989=
202007081800 METAR MRLM 081800Z 09003KT CAVOK 28/24 A2986=
202007081900 METAR MRLM 081900Z 06005KT CAVOK 28/24 A2984=
202007082000 METAR MRLM 082000Z 01007KT CAVOK 26/23 A2984=
202007082100 METAR MRLM 082100Z 01005KT CAVOK 28/23 A2983=
202007082200 METAR MRLM 082200Z 01007KT 9999 FEW030 BKN140 28/24 A2983=
202007082300 METAR MRLM 082300Z 00000KT 9999 FEW025 BKN130 28/23 A2982=
202007090000 METAR MRLM 090000Z 28003KT 9999 FEW020 BKN120 27/24 A2984=
202007090100 METAR MRLM NIL=
202007090200 METAR MRLM NIL=
202007090300 METAR MRLM NIL=
202007090400 METAR MRLM NIL=
202007090500 METAR MRLM NIL=
202007090600 METAR MRLM NIL=
202007090700 METAR MRLM NIL=
202007090800 METAR MRLM NIL=
202007090900 METAR MRLM NIL=
202007091000 METAR MRLM NIL=
202007091100 METAR MRLM NIL=
202007091200 METAR MRLM 091200Z 23003KT 9999 FEW010 BKN080 23/22 A2984=
202007091300 METAR MRLM 091300Z 26003KT 9999 FEW010 BKN080 24/23 A2984=
202007091400 METAR MRLM 091400Z 00000KT 9999 FEW010 BKN080 26/23 A2987=
202007091500 METAR MRLM 091500Z 05004KT 9999 VCSH SCT015 BKN100 28/24 A2987=
202007091600 METAR MRLM 091600Z 03006KT 9999 SCT015 BKN100 28/24 A2986=
202007091700 METAR MRLM 091700Z 05004KT 9999 FEW020 BKN120 28/24 A2985=
202007091800 METAR MRLM 091800Z 06006KT 9999 FEW020 SCT120 28/24 A2984=
202007091900 METAR MRLM 091900Z 03006KT 9999 FEW020 SCT120 29/24 A2981=
202007092000 METAR MRLM 092000Z 02007KT 9999 FEW020 BKN120 29/24 A2980=
202007092100 METAR MRLM 092100Z 01007KT 9999 FEW020 BKN120 29/24 A2979=
202007092200 METAR MRLM 092200Z 35008KT 9999 SCT020 BKN120 29/24 A2979=
202007092300 METAR MRLM 092300Z 32006KT 9999 SCT020 BKN120 28/24 A2981=
202007100000 METAR MRLM 100000Z 31005KT 9999 SCT015 BKN200 27/24 A2980=
202007100100 METAR MRLM NIL=
202007100200 METAR MRLM NIL=
202007100300 METAR MRLM NIL=
202007100400 METAR MRLM NIL=
202007100500 METAR MRLM NIL=
202007100600 METAR MRLM NIL=
202007100700 METAR MRLM NIL=
202007100800 METAR MRLM NIL=
202007100900 METAR MRLM NIL=
202007101000 METAR MRLM NIL=
202007101100 METAR MRLM NIL=
202007101200 METAR MRLM 101200Z 27002KT 9999 FEW015 SCT100 24/23 A2988=
202007101300 METAR MRLM 101300Z 28004KT 9999 FEW015 BKN100 26/24 A2989=
202007101400 METAR MRLM 101400Z 28003KT 9999 FEW020 BKN120 29/24 A2990=
202007101500 METAR MRLM 101500Z 29004KT 9999 FEW020 BKN120 29/24 A2992=
202007101600 METAR MRLM 101600Z 28003KT 9999 FEW025 SCT130 BKN240 30/24 A2991=
202007101700 METAR MRLM 101700Z 02009KT 9999 FEW025TCU BKN240 30/24 A2991=
202007101800 METAR MRLM 101800Z 01008KT 9999 FEW025 BKN240 30/24 A2990=
202007101900 METAR MRLM 101900Z 01007KT CAVOK 30/24 A2988=
202007102000 METAR MRLM 102000Z 02007KT 9999 FEW025 SCT240 30/25 A2986=
202007102100 METAR MRLM 102100Z 02007KT 9999 VCSH FEW025 SCT240 30/25 A2986=
202007102200 METAR MRLM 102200Z 02007KT 9999 VCSH FEW020TCU BKN120 29/24 A2986=
202007102300 METAR MRLM 102300Z 01008KT 9999 FEW020 SCT120 BKN220 28/24 A2987=
202007110000 METAR MRLM 110000Z 02005KT CAVOK 28/24 A2989=
202007110100 METAR MRLM NIL=
202007110200 METAR MRLM NIL=
202007110300 METAR MRLM NIL=
202007110400 METAR MRLM NIL=
202007110500 METAR MRLM NIL=
202007110600 METAR MRLM NIL=
202007110700 METAR MRLM NIL=
202007110800 METAR MRLM NIL=
202007110900 METAR MRLM NIL=
202007111000 METAR MRLM NIL=
202007111100 METAR MRLM NIL=
202007111200 METAR MRLM 111200Z 24005KT 9999 DZ FEW020 BKN120 23/23 A2989=
202007111300 METAR MRLM 111300Z 28005KT 9999 FEW020 BKN130 23/22 A2989=
202007111400 METAR MRLM 111400Z 04004KT 9999 FEW020 SCT130 BKN230 24/22 A2992=
202007111500 METAR MRLM 111500Z 29004KT CAVOK 27/23 A2992=
202007111600 METAR MRLM 111600Z 22003KT CAVOK 26/23 A2994=
202007111700 METAR MRLM 111700Z 00000KT 9999 DZ SCT020 BKN120 26/24 A2994=
202007111800 METAR MRLM 111800Z 00000KT 9999 -DZ FEW020 BKN130 26/24 A2991=
202007111900 METAR MRLM 111900Z 24004KT 9999 FEW020 BKN130 26/24 A2989=
202007112000 METAR MRLM 112000Z 30003KT CAVOK 27/24 A2987=
202007112100 METAR MRLM 112100Z 31005KT CAVOK 27/24 A2986=
202007112200 METAR MRLM 112200Z 29004KT CAVOK 28/24 A2984=
202007112300 METAR MRLM 112300Z 31003KT CAVOK 27/24 A2984=
202007120000 METAR MRLM 120000Z 00000KT CAVOK 27/24 A2987=
202007120100 METAR MRLM NIL=
202007120200 METAR MRLM NIL=
202007120300 METAR MRLM NIL=
202007120400 METAR MRLM NIL=
202007120500 METAR MRLM NIL=
202007120600 METAR MRLM NIL=
202007120700 METAR MRLM NIL=
202007120800 METAR MRLM NIL=
202007120900 METAR MRLM NIL=
202007121000 METAR MRLM NIL=
202007121100 METAR MRLM NIL=
202007121200 METAR MRLM 121200Z 24003KT CAVOK 24/23 A2987=
202007121300 METAR MRLM 121300Z 00000KT 9999 DZ FEW015 BKN110 24/23 A2987=
202007121400 METAR MRLM 121400Z 23004KT 9999 -DZ FEW020 BKN130 25/24 A2990=
202007121500 METAR MRLM 121500Z 25003KT CAVOK 28/24 A2991=
202007121600 METAR MRLM 121600Z 07004KT 9999 FEW025 BKN140 28/25 A2991=
202007121700 METAR MRLM 121700Z 01008KT 9999 FEW030 BKN130 29/24 A2991=
202007121800 METAR MRLM 121800Z 34006KT CAVOK 28/24 A2990=
202007121900 METAR MRLM 121900Z 35009KT 9999 FEW030 BKN140 29/24 A2988=
202007122000 METAR MRLM 122000Z 34008KT 9999 BKN030 29/25 A2984=
202007122100 METAR MRLM 122100Z 34009KT 9999 SCT030 BKN230 29/24 A2984=
202007122200 METAR MRLM 122200Z 31005KT 9999 FEW030 BKN230 28/24 A2982=
202007122300 METAR MRLM 122300Z 00000KT CAVOK 28/24 A2981=
202007130000 METAR MRLM 130000Z 00000KT CAVOK 28/24 A2981=
202007130100 METAR MRLM NIL=
202007130200 METAR MRLM NIL=
202007130300 METAR MRLM NIL=
202007130400 METAR MRLM NIL=
202007130500 METAR MRLM NIL=
202007130600 METAR MRLM NIL=
202007130700 METAR MRLM NIL=
202007130800 METAR MRLM NIL=
202007130900 METAR MRLM NIL=
202007131000 METAR MRLM NIL=
202007131100 METAR MRLM NIL=
202007131200 METAR MRLM 131200Z 26005KT 6000 +DZ VCTS FEW008 OVC070 23/23 A2992=
202007131300 METAR MRLM 131300Z 29007KT 5000 +DZ FEW008 OVC070 23/23 A2994=
202007131400 METAR MRLM 131400Z 27005KT 6000 DZ FEW008 OVC070 23/23 A2996=
202007131500 METAR MRLM 131500Z 24006KT 5000 +DZ FEW008 OVC070 23/23 A2996=
202007131600 METAR MRLM 131600Z 24004KT 8000 DZ FEW010 OVC090 23/23 A2995=
202007131700 METAR MRLM 131700Z 27003KT 9999 -DZ FEW010 OVC090 25/23 A2994=
202007131800 METAR MRLM 131800Z 22003KT 9999 -DZ FEW010 OVC090 26/24 A2992=
202007131900 METAR MRLM 131900Z 24003KT 9999 -DZ FEW015 OVC100 27/24 A2989=
202007132000 METAR MRLM 132000Z 22002KT CAVOK 28/23 A2986=
202007132100 METAR MRLM 132100Z 03002KT CAVOK 28/23 A2985=
202007132200 METAR MRLM 132200Z 04003KT CAVOK 28/22 A2984=
202007132300 METAR MRLM 132300Z 05002KT CAVOK 28/23 A2985=
202007140000 METAR MRLM 140000Z 06003KT CAVOK 27/24 A2987=
202007140100 METAR MRLM NIL=
202007140200 METAR MRLM NIL=
202007140300 METAR MRLM NIL=
202007140400 METAR MRLM NIL=
202007140500 METAR MRLM NIL=
202007140600 METAR MRLM NIL=
202007140700 METAR MRLM NIL=
202007140800 METAR MRLM NIL=
202007140900 METAR MRLM NIL=
202007141000 METAR MRLM NIL=
202007141100 METAR MRLM NIL=
202007141200 METAR MRLM 141200Z 22006KT 9999 -DZ VCSH FEW015 BKN090 24/23 A2988=
202007141300 METAR MRLM 141300Z 26003KT 9999 FEW015 BKN090 26/23 A2988=
202007141400 METAR MRLM 141400Z 18002KT CAVOK 27/23 A2988=
202007141500 METAR MRLM 141500Z 10006KT CAVOK 29/24 A2989=
202007141600 METAR MRLM 141600Z 09005KT CAVOK 29/23 A2988=
202007141700 METAR MRLM 141700Z 06008KT CAVOK 30/23 A2988=
202007141800 METAR MRLM 141800Z 04007KT CAVOK 29/24 A2987=
202007141900 METAR MRLM 141900Z 03007KT 9999 FEW025 BKN120 29/24 A2985=
202007142000 METAR MRLM 142000Z 02005KT 9999 FEW025 BKN120 29/25 A2983=
202007142100 METAR MRLM 142100Z 36009KT 9999 FEW025 BKN220 29/25 A2984=
202007142200 METAR MRLM 142200Z 01007KT 9999 SCT020 BKN220 28/24 A2984=
202007142300 METAR MRLM 142300Z 31004KT 9999 FEW020 BKN220 28/24 A2984=
202007150000 METAR MRLM 150000Z 33005KT 9999 FEW015 BKN200 28/25 A2985=
202007150100 METAR MRLM NIL=
202007150200 METAR MRLM NIL=
202007150300 METAR MRLM NIL=
202007150400 METAR MRLM NIL=
202007150500 METAR MRLM NIL=
202007150600 METAR MRLM NIL=
202007150700 METAR MRLM NIL=
202007150800 METAR MRLM NIL=
202007150900 METAR MRLM NIL=
202007151000 METAR MRLM NIL=
202007151100 METAR MRLM NIL=
202007151200 METAR MRLM 151200Z 21003KT 9999 FEW015 BKN120 24/23 A2984=
202007151300 METAR MRLM 151300Z 00000KT CAVOK 25/23 A2985=
202007151400 METAR MRLM 151400Z 07003KT CAVOK 28/25 A2987=
202007151500 METAR MRLM 151500Z 06004KT 9999 FEW030 SCT250 28/24 A2989=
202007151600 METAR MRLM 151600Z 07004KT CAVOK 29/24 A2989=
202007151700 METAR MRLM 151700Z 08005KT CAVOK 29/24 A2987=
202007151800 METAR MRLM 151800Z 04007KT CAVOK 30/24 A2986=
202007151900 METAR MRLM 151900Z 04006KT CAVOK 30/24 A2984=
202007152000 METAR MRLM 152000Z 03006KT CAVOK 30/24 A2982=
202007152100 METAR MRLM 152100Z 02006KT CAVOK 31/25 A2983=
202007152200 METAR MRLM 152200Z 01008KT CAVOK 30/24 A2984=
202007152300 METAR MRLM 152300Z 01006KT 9999 SCT030 BKN250 30/24 A2985=
202007160000 METAR MRLM 160000Z 23004KT 9999 SCT025 29/25 A2988=
202007160100 METAR MRLM NIL=
202007160200 METAR MRLM NIL=
202007160300 METAR MRLM NIL=
202007160400 METAR MRLM NIL=
202007160500 METAR MRLM NIL=
202007160600 METAR MRLM NIL=
202007160700 METAR MRLM NIL=
202007160800 METAR MRLM NIL=
202007160900 METAR MRLM NIL=
202007161000 METAR MRLM NIL=
202007161100 METAR MRLM NIL=
202007161200 METAR MRLM 161200Z 24004KT CAVOK 23/22 A2991=
202007161300 METAR MRLM 161300Z 23003KT CAVOK 25/23 A2992=
202007161400 METAR MRLM 161400Z 21004KT CAVOK 27/24 A2993=
202007161500 METAR MRLM 161500Z 06003KT 9999 FEW030 BKN240 29/24 A2994=
202007161600 METAR MRLM 161600Z 03006KT 9999 FEW030 OVC240 30/24 A2993=
202007161700 METAR MRLM 161700Z 07004KT 9999 FEW030 OVC240 30/24 A2992=
202007161800 METAR MRLM 161800Z 05004KT CAVOK 30/24 A2990=
202007161900 METAR MRLM 161900Z 06007KT CAVOK 31/24 A2989=
202007162000 METAR MRLM 162000Z 06007KT CAVOK 31/24 A2989=
202007162100 METAR MRLM 162100Z 07006KT 9999 FEW030 OVC240 30/25 A2985=
202007162200 METAR MRLM 162200Z 05006KT 9999 FEW030 OVC240 30/24 A2984=
202007162300 METAR MRLM 162300Z 05004KT 9999 SCT025 BKN230 29/24 A2984=
202007170000 METAR MRLM 170000Z 03004KT 9999 BKN020 29/24 A2983=
202007170100 METAR MRLM NIL=
202007170200 METAR MRLM NIL=
202007170300 METAR MRLM NIL=
202007170400 METAR MRLM NIL=
202007170500 METAR MRLM NIL=
202007170600 METAR MRLM NIL=
202007170700 METAR MRLM NIL=
202007170800 METAR MRLM NIL=
202007170900 METAR MRLM NIL=
202007171000 METAR MRLM NIL=
202007171100 METAR MRLM NIL=
202007171200 METAR MRLM 171200Z 24002KT CAVOK 23/22 A2988=
202007171300 METAR MRLM 171300Z 26003KT CAVOK 25/23 A2989=
202007171400 METAR MRLM 171400Z 22003KT 9999 FEW020 SCT120 27/24 A2990=
202007171500 METAR MRLM 171500Z 10004KT 9999 FEW020 SCT120 29/23 A2990=
202007171600 METAR MRLM 171600Z 07003KT 9999 FEW030 SCT240 30/24 A2989=
202007171700 METAR MRLM 171700Z 04005KT 9999 FEW030 SCT240 30/25 A2989=
202007171800 METAR MRLM 171800Z 04006KT 9999 SCT025 SCT240 30/25 A2988=
202007171900 METAR MRLM 171900Z 03007KT 9999 FEW025 SCT240 30/25 A2985=
202007172000 METAR MRLM 172000Z 03006KT 9999 FEW025 SCT240 30/25 A2984=
202007172100 METAR MRLM 172100Z 05005KT 9999 FEW025 SCT240 30/24 A2982=
202007172200 METAR MRLM 172200Z 06005KT 9999 FEW025 SCT240 30/24 A2982=
202007172300 METAR MRLM 172300Z 06004KT 9999 FEW020 SCT120 BKN220 29/24 A2983=
202007180000 METAR MRLM 180000Z 08003KT 9999 FEW020 SCT120 BKN220 29/23 A2983=
202007180100 METAR MRLM NIL=
202007180200 METAR MRLM NIL=
202007180300 METAR MRLM NIL=
202007180400 METAR MRLM NIL=
202007180500 METAR MRLM NIL=
202007180600 METAR MRLM NIL=
202007180700 METAR MRLM NIL=
202007180800 METAR MRLM NIL=
202007180900 METAR MRLM NIL=
202007181000 METAR MRLM NIL=
202007181100 METAR MRLM NIL=
202007181200 METAR MRLM 181200Z 24003KT 9999 FEW015 BKN090 23/22 A2986=
202007181300 METAR MRLM 181300Z 25005KT 9999 FEW015 BKN090 24/22 A2985=
202007181400 METAR MRLM 181400Z 00000KT 9999 VCSH FEW020 BKN100 27/23 A2986=
202007181500 METAR MRLM 181500Z 05003KT 9999 VCTS FEW020 OVC100 29/23 A2989=
202007181600 METAR MRLM 181600Z 31004KT 9999 -DZ VCTS FEW020 BKN100 28/24 A2989=
202007181700 METAR MRLM 181700Z 16002KT 9999 VCTS FEW020 BKN100 29/23 A2988=
202007181800 METAR MRLM 181800Z 03003KT 7000 RA VCTS FEW015 OVC100 29/24 A2984=
202007181900 METAR MRLM 181900Z 04007KT 9999 SCT015 OVC100 27/25 A2986 RERA=
202007182000 METAR MRLM 182000Z 01004KT 9999 FEW020 BKN100 28/25 A2981=
202007182100 METAR MRLM 182100Z 25003KT 9999 FEW025 SCT120 BKN220 29/25 A2979=
202007182200 METAR MRLM 182200Z 28003KT 9999 FEW025 BKN220 28/24 A2978=
202007182300 METAR MRLM 182300Z 31003KT CAVOK 28/24 A2980=
202007190000 METAR MRLM 190000Z 30003KT CAVOK 27/25 A2981=
202007190100 METAR MRLM NIL=
202007190200 METAR MRLM NIL=
202007190300 METAR MRLM NIL=
202007190400 METAR MRLM NIL=
202007190500 METAR MRLM NIL=
202007190600 METAR MRLM NIL=
202007190700 METAR MRLM NIL=
202007190800 METAR MRLM NIL=
202007190900 METAR MRLM NIL=
202007191000 METAR MRLM NIL=
202007191100 METAR MRLM NIL=
202007191200 METAR MRLM 191200Z 23003KT CAVOK 23/23 A2982=
202007191300 METAR MRLM 191300Z 25004KT CAVOK 24/23 A2982=
202007191400 METAR MRLM 191400Z 25003KT CAVOK 28/24 A2984=
202007191500 METAR MRLM 191500Z 24003KT CAVOK 29/25 A2985=
202007191600 METAR MRLM 191600Z 03006KT 9999 FEW025 SCT250 30/25 A2985=
202007191700 METAR MRLM 191700Z 01008KT 9999 FEW025 SCT140 29/25 A2984=
202007191800 METAR MRLM 191800Z 02006KT 9999 FEW030 BKN130 30/25 A2984=
202007191900 METAR MRLM 191900Z 03006KT CAVOK 30/25 A2983=
202007192000 METAR MRLM 192000Z 05005KT 9999 FEW030 BKN230 29/25 A2980=
202007192100 METAR MRLM 192100Z 36009KT 9999 FEW030 BKN230 30/25 A2976=
202007192200 METAR MRLM 192200Z 01009KT 9999 FEW030 BKN240 29/26 A2978=
202007192300 METAR MRLM 192300Z 04007KT 9999 FEW030 SCT130 BKN240 30/25 A2979=
202007200000 METAR MRLM 200000Z 07004KT 9999 DZ BKN020 28/25 A2984=
202007200100 METAR MRLM NIL=
202007200200 METAR MRLM NIL=
202007200300 METAR MRLM NIL=
202007200400 METAR MRLM NIL=
202007200500 METAR MRLM NIL=
202007200600 METAR MRLM NIL=
202007200700 METAR MRLM NIL=
202007200800 METAR MRLM NIL=
202007200900 METAR MRLM NIL=
202007201000 METAR MRLM NIL=
202007201100 METAR MRLM NIL=
202007201200 METAR MRLM 201200Z 21003KT 9999 FEW015 SCT120 BKN230 24/24 A2984=
202007201300 METAR MRLM 201300Z 22005KT 9999 FEW020 SCT130 BKN230 26/24 A2987=
202007201400 METAR MRLM 201400Z 22004KT 9999 FEW020 SCT130 27/25 A2986=
202007201500 METAR MRLM 201500Z 07003KT 9999 SCT020 30/25 A2986=
202007201600 METAR MRLM 201600Z 05004KT 9999 SCT035 30/25 A2985=
202007201700 METAR MRLM 201700Z 04004KT 9999 SCT025 30/25 A2984=
202007201800 METAR MRLM 201800Z 04005KT 9999 FEW025 SCT250 30/25 A2984=
202007201900 METAR MRLM 201900Z 06005KT 9999 FEW025 SCT250 30/25 A2982=
202007202000 METAR MRLM 202000Z 05007KT CAVOK 31/25 A2980=
202007202100 METAR MRLM 202100Z 05008KT CAVOK 30/25 A2978=
202007202200 METAR MRLM 202200Z 06007KT 9999 SCT025 30/25 A2979=
202007202300 METAR MRLM 202300Z 06009KT 9999 SCT020 BKN100 28/25 A2980=
202007210000 METAR MRLM 210000Z 03004KT 9999 FEW020 SCT110 BKN230 28/25 A2983=
202007210100 METAR MRLM NIL=
202007210200 METAR MRLM NIL=
202007210300 METAR MRLM NIL=
202007210400 METAR MRLM NIL=
202007210500 METAR MRLM NIL=
202007210600 METAR MRLM NIL=
202007210700 METAR MRLM NIL=
202007210800 METAR MRLM NIL=
202007210900 METAR MRLM NIL=
202007211000 METAR MRLM NIL=
202007211100 METAR MRLM NIL=
202007211200 METAR MRLM 211200Z 23004KT 9999 VCTS VCSH FEW015 BKN200 23/22 A2983=
202007211300 METAR MRLM 211300Z 25003KT 9999 VCSH SCT015 OVC100 23/23 A2987=
202007211400 METAR MRLM 211400Z 25004KT 9999 -DZ VCSH SCT015 OVC100 24/23 A2988=
202007211500 METAR MRLM 211500Z 24003KT 8000 DZ VCSH SCT015 OVC100 24/23 A2988=
202007211600 METAR MRLM 211600Z 09006KT 7000 DZ SCT010 OVC090 25/24 A2990=
202007211700 METAR MRLM 211700Z 06007KT 9000 -DZ SCT010 OVC090 25/23 A2991=
202007211800 METAR MRLM 211800Z 21005KT 9999 FEW015 OVC100 25/23 A2989 REDZ=
202007211900 METAR MRLM 211900Z 26003KT 9999 FEW015 OVC100 26/24 A2987=
202007212000 METAR MRLM 212000Z 25003KT 9999 FEW020 OVC100 27/24 A2982=
202007212100 METAR MRLM 212100Z 00000KT CAVOK 27/24 A2981=
202007212200 METAR MRLM 212200Z 06005KT CAVOK 27/24 A2982=
202007212300 METAR MRLM 212300Z 06007KT CAVOK 27/23 A2984=
202007220000 METAR MRLM 220000Z 23002KT CAVOK 27/24 A2985=
202007220100 METAR MRLM NIL=
202007220200 METAR MRLM NIL=
202007220300 METAR MRLM NIL=
202007220400 METAR MRLM NIL=
202007220500 METAR MRLM NIL=
202007220600 METAR MRLM NIL=
202007220700 METAR MRLM NIL=
202007220800 METAR MRLM NIL=
202007220900 METAR MRLM NIL=
202007221000 METAR MRLM NIL=
202007221100 METAR MRLM NIL=
202007221200 METAR MRLM 221200Z 24005KT 9999 FEW010 BKN100 23/22 A2986=
202007221300 METAR MRLM 221300Z 25003KT 9999 FEW010 BKN100 24/23 A2989=
202007221400 METAR MRLM 221400Z 26004KT 9999 FEW015 BKN100 26/23 A2990=
202007221500 METAR MRLM 221500Z 31003KT 9999 FEW015 SCT120 BKN220 29/23 A2991=
202007221600 METAR MRLM 221600Z 04005KT CAVOK 29/24 A2991=
202007221700 METAR MRLM 221700Z 02008KT CAVOK 29/24 A2991=
202007221800 METAR MRLM 221800Z 02006KT CAVOK 30/23 A2989=
202007221900 METAR MRLM 221900Z 01008KT CAVOK 29/23 A2987=
202007222000 METAR MRLM 222000Z 02006KT CAVOK 29/24 A2984=
202007222100 METAR MRLM 222100Z 03004KT 9999 FEW025 OVC220 29/24 A2982=
202007222200 METAR MRLM 222200Z 06006KT 9999 FEW025 OVC220 28/24 A2982=
202007222300 METAR MRLM 222300Z 05005KT 9999 FEW020 OVC200 28/24 A2983=
202007230000 METAR MRLM 230000Z 07003KT 9999 FEW020 OVC200 28/24 A2983=
202007230100 METAR MRLM NIL=
202007230200 METAR MRLM NIL=
202007230300 METAR MRLM NIL=
202007230400 METAR MRLM NIL=
202007230500 METAR MRLM NIL=
202007230600 METAR MRLM NIL=
202007230700 METAR MRLM NIL=
202007230800 METAR MRLM NIL=
202007230900 METAR MRLM NIL=
202007231000 METAR MRLM NIL=
202007231100 METAR MRLM NIL=
202007231200 METAR MRLM 231200Z 24004KT 9999 FEW015 BKN230 23/23 A2985=
202007231300 METAR MRLM 231300Z 25004KT 9999 FEW020 BKN230 26/24 A2987=
202007231400 METAR MRLM 231400Z 34007KT 9999 FEW030 BKN240 29/24 A2989=
202007231500 METAR MRLM 231500Z 34007KT 9999 FEW030 BKN240 29/24 A2989=
202007231600 METAR MRLM 231600Z 36009KT 9999 FEW030 SCT140 BKN240 30/24 A2989=
202007231700 METAR MRLM 231700Z 02008KT 9999 FEW025 BKN130 29/24 A2989=
202007231800 METAR MRLM 231800Z 03006KT 9999 FEW025 BKN240 30/25 A2987=
202007231900 METAR MRLM 231900Z 04004KT 9999 FEW025 SCT130 BKN240 29/24 A2985=
202007232000 METAR MRLM 232000Z 03009KT 9999 SCT020 BKN130 29/24 A2983=
202007232100 METAR MRLM 232100Z 04003KT 9999 BKN015 29/24 A2981=
202007232200 METAR MRLM 232200Z 06004KT 9999 SCT020 BKN250 29/25 A2981=
202007232300 METAR MRLM 232300Z 08005KT 9999 BKN025 29/24 A2981=
202007240000 METAR MRLM 240000Z 09006KT 9999 DZ BKN020 27/23 A2985=
202007240100 METAR MRLM NIL=
202007240200 METAR MRLM NIL=
202007240300 METAR MRLM NIL=
202007240400 METAR MRLM NIL=
202007240500 METAR MRLM NIL=
202007240600 METAR MRLM NIL=
202007240700 METAR MRLM NIL=
202007240800 METAR MRLM NIL=
202007240900 METAR MRLM NIL=
202007241000 METAR MRLM NIL=
202007241100 METAR MRLM NIL=
202007241200 METAR MRLM 241200Z 23006KT 9999 FEW015 BKN110 24/23 A2986=
202007241300 METAR MRLM 241300Z 22005KT 9999 FEW015 BKN120 25/23 A2988=
202007241400 METAR MRLM 241400Z 22005KT 9999 FEW020 BKN130 27/24 A2989=
202007241500 METAR MRLM 241500Z 00000KT CAVOK 29/24 A2991=
202007241600 METAR MRLM 241600Z 02005KT CAVOK 29/25 A2991=
202007241700 METAR MRLM 241700Z 02008KT 9999 FEW030 BKN250 30/24 A2990=
202007241800 METAR MRLM 241800Z 01009KT 9999 SCT030 BKN240 30/25 A2990=
202007241900 METAR MRLM 241900Z 02008KT 9999 FEW030 BKN240 30/25 A2988=
202007242000 METAR MRLM 242000Z 06007KT 9999 FEW030 SCT130 BKN240 29/25 A2986=
202007242100 METAR MRLM 242100Z 11008KT 9999 SCT020 BKN120 29/24 A2984=
202007242200 METAR MRLM 242200Z 13007KT 9999 SCT020 BKN220 29/24 A2981=
202007242300 METAR MRLM 242300Z 07004KT 9999 FEW020 BKN130 28/25 A2981=
202007250000 METAR MRLM 250000Z 09005KT 9999 FEW015 BKN130 28/24 A2985=
202007250100 METAR MRLM NIL=
202007250200 METAR MRLM NIL=
202007250300 METAR MRLM NIL=
202007250400 METAR MRLM NIL=
202007250500 METAR MRLM NIL=
202007250600 METAR MRLM NIL=
202007250700 METAR MRLM NIL=
202007250800 METAR MRLM NIL=
202007250900 METAR MRLM NIL=
202007251000 METAR MRLM NIL=
202007251100 METAR MRLM NIL=
202007251200 METAR MRLM 251200Z 24004KT CAVOK 23/22 A2985=
202007251300 METAR MRLM 251300Z 24004KT CAVOK 25/22 A2987=
202007251400 METAR MRLM 251400Z 21003KT CAVOK 26/23 A2990=
202007251500 METAR MRLM 251500Z 22003KT 9999 FEW020 BKN100 28/23 A2991=
202007251600 METAR MRLM 251600Z 07002KT 9999 FEW020 BKN100 28/23 A2991=
202007251700 METAR MRLM 251700Z 09004KT 9999 FEW020 BKN120 29/23 A2989=
202007251800 METAR MRLM 251800Z 07005KT 9999 FEW020 SCT120 BKN220 29/24 A2985=
202007251900 METAR MRLM 251900Z 03011KT 9999 FEW025 BKN220 29/25 A2984=
202007252000 METAR MRLM 252000Z 04006KT 9999 FEW025 BKN220 29/24 A2982=
202007252100 METAR MRLM 252100Z 05005KT 9999 FEW025 BKN220 29/24 A2981=
202007252200 METAR MRLM 252200Z 04004KT 9999 FEW025 BKN220 29/24 A2980=
202007252300 METAR MRLM 252300Z 09003KT CAVOK 28/23 A2983=
202007260000 METAR MRLM 260000Z 10003KT 9999 FEW020 BKN200 28/23 A2984=
202007260100 METAR MRLM NIL=
202007260200 METAR MRLM NIL=
202007260300 METAR MRLM NIL=
202007260400 METAR MRLM NIL=
202007260500 METAR MRLM NIL=
202007260600 METAR MRLM NIL=
202007260700 METAR MRLM NIL=
202007260800 METAR MRLM NIL=
202007260900 METAR MRLM NIL=
202007261000 METAR MRLM NIL=
202007261100 METAR MRLM NIL=
202007261200 METAR MRLM 261200Z 30002KT 9999 VCSH SCT015 BKN090 25/24 A2991=
202007261300 METAR MRLM 261300Z 23003KT 9999 VCSH SCT015 BKN090 25/24 A2992=
202007261400 METAR MRLM 261400Z 26005KT 9999 FEW015 BKN090 25/24 A2994=
202007261500 METAR MRLM 261500Z 27003KT 9999 -DZ FEW015 OVC090 26/24 A2995=
202007261600 METAR MRLM 261600Z 26002KT 9999 -DZ FEW020 OVC100 27/24 A2994=
202007261700 METAR MRLM 261700Z 07003KT 9999 -DZ FEW020 OVC100 27/24 A2993=
202007261800 METAR MRLM 261800Z 02002KT 9999 FEW020 OVC100 27/24 A2990=
202007261900 METAR MRLM 261900Z 03005KT CAVOK 29/24 A2986=
202007262000 METAR MRLM 262000Z 01009KT CAVOK 28/24 A2984=
202007262100 METAR MRLM 262100Z 36008KT CAVOK 29/24 A2982=
202007262200 METAR MRLM 262200Z 01007KT CAVOK 29/23 A2983=
202007262300 METAR MRLM 262300Z 02006KT CAVOK 29/23 A2985=
202007270000 METAR MRLM 270000Z 01005KT 9999 FEW020 SCT200 28/24 A2987=
202007270100 METAR MRLM NIL=
202007270200 METAR MRLM NIL=
202007270300 METAR MRLM NIL=
202007270400 METAR MRLM NIL=
202007270500 METAR MRLM NIL=
202007270600 METAR MRLM NIL=
202007270700 METAR MRLM NIL=
202007270800 METAR MRLM NIL=
202007270900 METAR MRLM NIL=
202007271000 METAR MRLM NIL=
202007271100 METAR MRLM NIL=
202007271200 METAR MRLM 271200Z 23006KT CAVOK 23/22 A2988=
202007271300 METAR MRLM 271300Z 23003KT CAVOK 25/23 A2990=
202007271400 METAR MRLM 271400Z 27002KT CAVOK 28/23 A2991=
202007271500 METAR MRLM 271500Z 05004KT CAVOK 29/24 A2990=
202007271600 METAR MRLM 271600Z 03009KT 9999 FEW030 30/25 A2988=
202007271700 METAR MRLM 271700Z 01011KT CAVOK 30/24 A2989=
202007271800 METAR MRLM 271800Z 01011KT CAVOK 31/24 A2987=
202007271900 METAR MRLM 271900Z 01009KT 9999 FEW030 BKN250 31/24 A2985=
202007272000 METAR MRLM 272000Z 01009KT 9999 SCT030 30/25 A2983=
202007272100 METAR MRLM 272100Z 01009KT 9999 SCT030 BKN250 30/25 A2981=
202007272200 METAR MRLM 272200Z 36008KT 9999 BKN030 29/25 A2982=
202007272300 METAR MRLM 272300Z 34008KT 9999 BKN030 29/25 A2984=
202007280000 METAR MRLM 280000Z 32006KT 9999 BKN020 28/25 A2986=
202007280100 METAR MRLM NIL=
202007280200 METAR MRLM NIL=
202007280300 METAR MRLM NIL=
202007280400 METAR MRLM NIL=
202007280500 METAR MRLM NIL=
202007280600 METAR MRLM NIL=
202007280700 METAR MRLM NIL=
202007280800 METAR MRLM NIL=
202007280900 METAR MRLM NIL=
202007281000 METAR MRLM NIL=
202007281100 METAR MRLM NIL=
202007281200 METAR MRLM 281200Z 24004KT CAVOK 23/22 A2986=
202007281300 METAR MRLM 281300Z 21005KT CAVOK 24/23 A2988=
202007281400 METAR MRLM 281400Z 00000KT CAVOK 28/23 A2989=
202007281500 METAR MRLM 281500Z 07003KT CAVOK 29/23 A2989=
202007281600 METAR MRLM 281600Z 03006KT CAVOK 30/23 A2988=
202007281700 METAR MRLM 281700Z 03009KT CAVOK 31/24 A2987=
202007281800 METAR MRLM 281800Z 02009KT CAVOK 31/23 A2985=
202007281900 METAR MRLM 281900Z 02009KT CAVOK 31/24 A2984=
202007282000 METAR MRLM 282000Z 02009KT 9999 FEW030 BKN240 30/25 A2983=
202007282100 METAR MRLM 282100Z 36009KT 9999 SCT030 BKN240 29/25 A2981=
202007282200 METAR MRLM 282200Z 33006KT 9999 BKN025 29/24 A2982=
202007282300 METAR MRLM 282300Z 27003KT 9999 SCT025 29/25 A2984=
202007290000 METAR MRLM 290000Z 26003KT 9999 BKN020 27/25 A2987=
202007290100 METAR MRLM NIL=
202007290200 METAR MRLM NIL=
202007290300 METAR MRLM NIL=
202007290400 METAR MRLM NIL=
202007290500 METAR MRLM NIL=
202007290600 METAR MRLM NIL=
202007290700 METAR MRLM NIL=
202007290800 METAR MRLM NIL=
202007290900 METAR MRLM NIL=
202007291000 METAR MRLM NIL=
202007291100 METAR MRLM NIL=
202007291200 METAR MRLM 291200Z 28004KT 9999 FEW015 SCT090 BKN200 24/23 A2987=
202007291300 METAR MRLM 291300Z 18003KT 9999 FEW015 SCT090 OVC200 24/23 A2990=
202007291400 METAR MRLM 291400Z 23004KT 9999 FEW015 SCT090 BKN200 26/23 A2989=
202007291500 METAR MRLM 291500Z 07002KT 9999 FEW020 SCT100 BKN220 28/24 A2989=
202007291600 METAR MRLM 291600Z 05005KT 9999 FEW020 SCT100 BKN220 29/24 A2991=
202007291700 METAR MRLM 291700Z 07005KT 9999 FEW020 BKN220 30/25 A2989=
202007291800 METAR MRLM 291800Z 04008KT 9999 FEW025 BKN120 29/25 A2988=
202007291900 METAR MRLM 291900Z 03006KT 9999 SCT025 SCT120 30/25 A2986=
202007292000 METAR MRLM 292000Z 04008KT 9999 SCT025 SCT120 30/26 A2985=
202007292100 METAR MRLM 292100Z 06004KT 9999 SCT025 BKN120 29/25 A2982=
202007292200 METAR MRLM 292200Z 08007KT 9999 FEW025 BKN120 29/25 A2981=
202007292300 METAR MRLM 292300Z 08004KT 9999 FEW020 BKN110 29/25 A2982=
202007300000 METAR MRLM 300000Z 19002KT 9999 SCT020 BKN200 28/25 A2983=
202007300100 METAR MRLM NIL=
202007300200 METAR MRLM NIL=
202007300300 METAR MRLM NIL=
202007300400 METAR MRLM NIL=
202007300500 METAR MRLM NIL=
202007300600 METAR MRLM NIL=
202007300700 METAR MRLM NIL=
202007300800 METAR MRLM NIL=
202007300900 METAR MRLM NIL=
202007301000 METAR MRLM NIL=
202007301100 METAR MRLM NIL=
202007301200 METAR MRLM 301200Z 22004KT 9999 VCSH SCT015 BKN090 24/23 A2985=
202007301300 METAR MRLM 301300Z 22003KT 9999 VCSH FEW015TCU SCT090 26/23 A2987=
202007301400 METAR MRLM 301400Z 00000KT 9999 VCSH FEW020 BKN100 27/24 A2989=
202007301500 METAR MRLM 301500Z 06004KT 9999 FEW020 SCT100 BKN200 29/24 A2989=
202007301600 METAR MRLM 301600Z 04005KT 9999 FEW020 BKN200 30/24 A2989=
202007301700 METAR MRLM 301700Z 05005KT 9999 FEW025 BKN230 30/24 A2988=
202007301800 METAR MRLM 301800Z 03007KT CAVOK 31/24 A2986=
202007301900 METAR MRLM 301900Z 04007KT CAVOK 31/25 A2986=
202007302000 METAR MRLM 302000Z 04008KT CAVOK 31/24 A2980=
202007302100 METAR MRLM 302100Z 04005KT CAVOK 30/24 A2979=
202007302200 METAR MRLM 302200Z 04005KT CAVOK 30/25 A2979=
202007302300 METAR MRLM 302300Z 02004KT 9999 FEW020 BKN220 29/25 A2980=
202007310000 METAR MRLM 310000Z 01003KT 9999 FEW020 BKN220 29/25 A2981=
202007310100 METAR MRLM NIL=
202007310200 METAR MRLM NIL=
202007310300 METAR MRLM NIL=
202007310400 METAR MRLM NIL=
202007310500 METAR MRLM NIL=
202007310600 METAR MRLM NIL=
202007310700 METAR MRLM NIL=
202007310800 METAR MRLM NIL=
202007310900 METAR MRLM NIL=
202007311000 METAR MRLM NIL=
202007311100 METAR MRLM NIL=
202007311200 METAR MRLM 311200Z 00000KT CAVOK 23/21 A2982=
202007311300 METAR MRLM 311300Z 23005KT CAVOK 25/23 A2989=
202007311400 METAR MRLM 311400Z 24003KT CAVOK 28/23 A2986=
202007311500 METAR MRLM 311500Z 30006KT CAVOK 30/24 A2986=
202007311600 METAR MRLM 311600Z 34006KT 9999 FEW030 OVC250 31/24 A2985=
202007311700 METAR MRLM 311700Z 01009KT 9999 FEW030 OVC250 31/25 A2985=
202007311800 METAR MRLM 311800Z 01010KT 9999 FEW030 BKN250 31/25 A2984=
202007311900 METAR MRLM 311900Z 01008KT 9999 FEW030 BKN250 31/25 A2982=
202007312000 METAR MRLM 312000Z 02007KT 9999 FEW030 BKN250 31/25 A2981=
202007312100 METAR MRLM 312100Z 02007KT CAVOK 31/24 A2980=
202007312200 METAR MRLM 312200Z 02005KT CAVOK 31/24 A2980=
202007312300 METAR MRLM 312300Z 03004KT CAVOK 30/24 A2980=
202008010000 METAR MRLM 010000Z 35004KT CAVOK 29/25 A2980=
202008010100 METAR MRLM NIL=
202008010200 METAR MRLM NIL=
202008010300 METAR MRLM NIL=
202008010400 METAR MRLM NIL=
202008010500 METAR MRLM NIL=
202008010600 METAR MRLM NIL=
202008010700 METAR MRLM NIL=
202008010800 METAR MRLM NIL=
202008010900 METAR MRLM NIL=
202008011000 METAR MRLM NIL=
202008011100 METAR MRLM NIL=
202008011200 METAR MRLM 011200Z 25003KT CAVOK 23/21 A2983=
202008011300 METAR MRLM 011300Z 24003KT CAVOK 25/22 A2985=
202008011400 METAR MRLM 011400Z 24003KT CAVOK 28/23 A2985=
202008011500 METAR MRLM 011500Z 04005KT CAVOK 30/23 A2987=
202008011600 METAR MRLM 011600Z 05006KT CAVOK 31/23 A2987=
202008011700 METAR MRLM 011700Z 05005KT CAVOK 31/24 A2986=
202008011800 METAR MRLM 011800Z 07005KT CAVOK 31/25 A2984=
202008011900 METAR MRLM 011900Z 06004KT CAVOK 31/23 A2981=
202008012000 METAR MRLM 012000Z 04005KT CAVOK 31/23 A2978=
202008012100 METAR MRLM 012100Z 05007KT CAVOK 31/24 A2976=
202008012200 METAR MRLM 012200Z 07006KT CAVOK 31/24 A2976=
202008012300 METAR MRLM 012300Z 08006KT CAVOK 30/24 A2979=
202008020000 METAR MRLM 020000Z 10004KT CAVOK 29/24 A2980=
202008020100 METAR MRLM NIL=
202008020200 METAR MRLM NIL=
202008020300 METAR MRLM NIL=
202008020400 METAR MRLM NIL=
202008020500 METAR MRLM NIL=
202008020600 METAR MRLM NIL=
202008020700 METAR MRLM NIL=
202008020800 METAR MRLM NIL=
202008020900 METAR MRLM NIL=
202008021000 METAR MRLM NIL=
202008021100 METAR MRLM NIL=
202008021200 METAR MRLM 021200Z 21004KT 9999 FEW015 SCT200 25/23 A2985=
202008021300 METAR MRLM 021300Z 22004KT 9999 FEW015 SCT200 26/23 A2986=
202008021400 METAR MRLM 021400Z 19004KT CAVOK 29/25 A2986=
202008021500 METAR MRLM 021500Z 11007KT 9999 FEW020 SCT220 30/24 A2987=
202008021600 METAR MRLM 021600Z 10007KT CAVOK 31/24 A2986=
202008021700 METAR MRLM 021700Z 08006KT CAVOK 31/24 A2986=
202008021800 METAR MRLM 021800Z 07007KT CAVOK 31/25 A2985=
202008021900 METAR MRLM 021900Z 08007KT 9999 FEW030 SCT240 31/25 A2984=
202008022000 METAR MRLM 022000Z 07007KT 9999 FEW030 SCT240 31/25 A2981=
202008022100 METAR MRLM 022100Z 07006KT 9999 FEW030 SCT240 31/25 A2980=
202008022200 METAR MRLM 022200Z 07005KT 9999 FEW030 30/25 A2980=
202008022300 METAR MRLM 022300Z 06004KT 9999 FEW030 30/25 A2980=
202008030000 METAR MRLM 030000Z 05004KT 9999 FEW020 SCT220 30/24 A2982=
202008030100 METAR MRLM NIL=
202008030200 METAR MRLM NIL=
202008030300 METAR MRLM NIL=
202008030400 METAR MRLM NIL=
202008030500 METAR MRLM NIL=
202008030600 METAR MRLM NIL=
202008030700 METAR MRLM NIL=
202008030800 METAR MRLM NIL=
202008030900 METAR MRLM NIL=
202008031000 METAR MRLM NIL=
202008031100 METAR MRLM NIL=
202008031200 METAR MRLM 031200Z 23004KT 9999 VCTS VCSH FEW015TCU SCT090 BKN200 24/23 A2987=
202008031300 METAR MRLM 031300Z 24004KT 9999 VCTS VCSH FEW015 SCT090 BKN200 24/23 A2989=
202008031400 METAR MRLM 031400Z 23004KT 9999 FEW015 SCT090 BKN200 25/23 A2991=
202008031500 METAR MRLM 031500Z 22005KT 9999 FEW020 BKN100 28/22 A2993=
202008031600 METAR MRLM 031600Z 23004KT 9999 VCTS FEW020 SCT120 BKN230 30/24 A2994=
202008031700 METAR MRLM 031700Z 08005KT 9999 VCTS FEW020 BKN230 31/25 A2992=
202008031800 METAR MRLM 031800Z 07006KT 9999 FEW020 BKN120 30/25 A2990=
202008031900 METAR MRLM 031900Z 05007KT 9999 FEW020 OVC120 30/25 A2989=
202008032000 METAR MRLM 032000Z 05004KT 9999 FEW020 BKN120 30/25 A2985=
202008032100 METAR MRLM 032100Z 08004KT CAVOK 29/25 A2985=
202008032200 METAR MRLM 032200Z 09004KT CAVOK 29/25 A2983=
202008032300 METAR MRLM 032300Z 08004KT CAVOK 30/25 A2984=
202008040000 METAR MRLM 040000Z 07002KT CAVOK 29/25 A2986=
202008040100 METAR MRLM NIL=
202008040200 METAR MRLM NIL=
202008040300 METAR MRLM NIL=
202008040400 METAR MRLM NIL=
202008040500 METAR MRLM NIL=
202008040600 METAR MRLM NIL=
202008040700 METAR MRLM NIL=
202008040900 METAR MRLM NIL=
202008041000 METAR MRLM NIL=
202008041100 METAR MRLM NIL=
202008041200 METAR MRLM NIL=
202008041300 METAR MRLM NIL=
202008041400 METAR MRLM NIL=
202008041500 METAR MRLM NIL=
202008041600 METAR MRLM NIL=
202008041700 METAR MRLM NIL=
202008041800 METAR MRLM NIL=
202008041900 METAR MRLM NIL=
202008042000 METAR MRLM NIL=
202008042100 METAR MRLM NIL=
202008042200 METAR MRLM NIL=
202008042300 METAR MRLM NIL=
202008050000 METAR MRLM NIL=
202008050100 METAR MRLM NIL=
202008050200 METAR MRLM NIL=
202008050300 METAR MRLM NIL=
202008050400 METAR MRLM NIL=
202008050500 METAR MRLM NIL=
202008050600 METAR MRLM NIL=
202008050700 METAR MRLM NIL=
202008050800 METAR MRLM NIL=
202008050900 METAR MRLM NIL=
202008051000 METAR MRLM NIL=
202008051100 METAR MRLM NIL=
202008051200 METAR MRLM 051200Z 24004KT 9999 FEW015 BKN240 24/23 A2985=
202008051300 METAR MRLM 051300Z 00000KT 9999 FEW015 SCT130 BKN240 24/23 A2987=
202008051400 METAR MRLM 051400Z 26003KT 9999 FEW015 SCT130 BKN240 26/25 A2988=
202008051500 METAR MRLM 051500Z 29004KT CAVOK 27/23 A2989=
202008051600 METAR MRLM 051600Z 25004KT CAVOK 29/24 A2989=
202008051700 METAR MRLM 051700Z 03006KT 9999 FEW030 BKN250 30/24 A2988=
202008051800 METAR MRLM 051800Z 02011KT 9999 FEW030 BKN250 31/25 A2986=
202008051900 METAR MRLM 051900Z 02009KT 9999 FEW030 BKN130 30/25 A2986=
202008052000 METAR MRLM 052000Z 06018KT 9999 DZ BKN020 27/25 A2986 RERA=
202008052100 METAR MRLM 052100Z 08024KT 9999 -DZ SCT015 BKN120 27/23 A2984=
202008052200 METAR MRLM 052200Z 18004KT 9999 FEW020 BKN120 26/23 A2982=
202008052300 METAR MRLM 052300Z 19004KT 9999 FEW015 BKN110 25/23 A2982=
202008060000 METAR MRLM 060000Z 17003KT 9999 FEW015 BKN110 24/21 A2983=
202008060100 METAR MRLM NIL=
202008060200 METAR MRLM NIL=
202008060300 METAR MRLM NIL=
202008060400 METAR MRLM NIL=
202008060500 METAR MRLM NIL=
202008060600 METAR MRLM NIL=
202008060700 METAR MRLM NIL=
202008060800 METAR MRLM NIL=
202008060900 METAR MRLM NIL=
202008061000 METAR MRLM NIL=
202008061100 METAR MRLM NIL=
202008061200 METAR MRLM 061200Z 24004KT 9999 FEW015 BKN200 23/22 A2982=
202008061300 METAR MRLM 061300Z 25003KT 9999 FEW015 BKN100 24/22 A2985=
202008061400 METAR MRLM 061400Z 24005KT 9999 FEW020 SCT100 BKN200 25/23 A2986=
202008061500 METAR MRLM 061500Z 00000KT CAVOK 28/24 A2988=
202008061600 METAR MRLM 061600Z 07003KT CAVOK 29/24 A2989=
202008061700 METAR MRLM 061700Z 25002KT CAVOK 29/24 A2989=
202008061800 METAR MRLM 061800Z 07004KT CAVOK 30/24 A2987=
202008061900 METAR MRLM 061900Z 07006KT 9999 FEW020 BKN220 30/24 A2985=
202008062000 METAR MRLM 062000Z 09011KT 9999 FEW020 OVC120 29/25 A2984=
202008062100 METAR MRLM 062100Z 10009KT 9999 VCSH SCT020 OVC120 28/25 A2984=
202008062200 METAR MRLM 062200Z 11011KT 9999 SCT020 OVC120 28/24 A2982=
202008062300 METAR MRLM 062300Z 17003KT 9999 FEW015 OVC100 27/24 A2983=
202008070000 METAR MRLM 070000Z 20003KT 9999 FEW015 OVC100 26/24 A2983=
202008070100 METAR MRLM NIL=
202008070200 METAR MRLM NIL=
202008070300 METAR MRLM NIL=
202008070400 METAR MRLM NIL=
202008070500 METAR MRLM NIL=
202008070600 METAR MRLM NIL=
202008070700 METAR MRLM NIL=
202008070800 METAR MRLM NIL=
202008070900 METAR MRLM NIL=
202008071000 METAR MRLM NIL=
202008071100 METAR MRLM NIL=
202008071200 METAR MRLM 071200Z 26003KT 9999 VCSH FEW015TCU BKN100 24/23 A2989=
202008071300 METAR MRLM 071300Z 27003KT 9999 VCTS VCSH FEW015TCU BKN100 25/23 A2990=
202008071400 METAR MRLM 071400Z 25002KT 9999 VCSH FEW020 SCT100 BKN200 26/24 A2991=
202008071500 METAR MRLM 071500Z 07003KT 9999 FEW020 SCT100 BKN200 28/24 A2991=
202008071600 METAR MRLM 071600Z 03005KT 9999 FEW020 SCT120 BKN220 29/25 A2991=
202008071700 METAR MRLM 071700Z 03006KT CAVOK 29/24 A2991=
202008071800 METAR MRLM 071800Z 03006KT CAVOK 30/25 A2989=
202008071900 METAR MRLM 071900Z 03006KT CAVOK 30/25 A2986=
202008072000 METAR MRLM 072000Z 04006KT CAVOK 30/25 A2985=
202008072100 METAR MRLM 072100Z 04005KT CAVOK 29/25 A2984=
202008072200 METAR MRLM 072200Z 04005KT 9999 FEW020 BKN220 29/25 A2984=
202008072300 METAR MRLM 072300Z 02004KT 9999 FEW020 BKN220 29/24 A2985=
202008080000 METAR MRLM 080000Z 02004KT 9999 SCT015 BKN200 29/25 A2987=
202008080100 METAR MRLM NIL=
202008080200 METAR MRLM NIL=
202008080300 METAR MRLM NIL=
202008080400 METAR MRLM NIL=
202008080500 METAR MRLM NIL=
202008080600 METAR MRLM NIL=
202008080700 METAR MRLM NIL=
202008080800 METAR MRLM NIL=
202008080900 METAR MRLM NIL=
202008081000 METAR MRLM NIL=
202008081100 METAR MRLM NIL=
202008081200 METAR MRLM 081200Z 22004KT 9999 BKN020 24/23 A2990=
202008081300 METAR MRLM 081300Z 26005KT 9999 FEW020 SCT130 BKN220 24/23 A2988=
202008081400 METAR MRLM 081400Z 00000KT 9999 FEW020 SCT140 BKN230 25/23 A2990=
202008081500 METAR MRLM 081500Z 23004KT CAVOK 27/25 A2991=
202008081600 METAR MRLM 081600Z 24004KT 9999 FEW030 BKN130 29/25 A2990=
202008081700 METAR MRLM 081700Z 31005KT 9999 VCTS SCT025 BKN120 28/25 A2991=
202008081800 METAR MRLM 081800Z 32013KT 8000 RA VCTS SCT020 BKN120 24/22 A2990=
202008081900 METAR MRLM 081900Z 29004KT 9999 TS FEW015 SCT020 BKN110 25/22 A2992=
202008082000 METAR MRLM 082000Z 27005KT 9999 DZ VCTS FEW020 BKN110 25/23 A2986=
202008082100 METAR MRLM 082100Z 26005KT CAVOK 25/23 A2986 REDZ=
202008082200 METAR MRLM 082200Z 30005KT 9999 FEW015 BKN130 27/23 A2987=
202008082300 METAR MRLM 082300Z 28003KT CAVOK 26/23 A2985=
202008090000 METAR MRLM 090000Z 31004KT CAVOK 26/23 A2988=
202008090100 METAR MRLM NIL=
202008090200 METAR MRLM NIL=
202008090300 METAR MRLM NIL=
202008090400 METAR MRLM NIL=
202008090500 METAR MRLM NIL=
202008090600 METAR MRLM NIL=
202008090700 METAR MRLM NIL=
202008090800 METAR MRLM NIL=
202008090900 METAR MRLM NIL=
202008091000 METAR MRLM NIL=
202008091100 METAR MRLM NIL=
202008091200 METAR MRLM 091200Z 23003KT 9999 DZ VCTS FEW015 BKN110 23/23 A2987=
202008091300 METAR MRLM 091300Z 00000KT 9999 DZ SCT015 BKN100 24/23 A2991=
202008091400 METAR MRLM 091400Z 22003KT 9999 DZ VCTS FEW015 BKN110 24/23 A2989=
202008091500 METAR MRLM 091500Z 21004KT CAVOK 28/24 A2989 REDZ=
202008091600 METAR MRLM 091600Z 08003KT CAVOK 27/24 A2992=
202008091700 METAR MRLM 091700Z 31004KT 9999 VCSH FEW020 BKN120 27/24 A2990=
202008091800 METAR MRLM 091800Z 28005KT CAVOK 28/25 A2983=
202008091900 METAR MRLM 091900Z 35007KT 9999 SCT020 BKN130 29/25 A2988=
202008092000 METAR MRLM 092000Z 36008KT 9999 FEW020 SCT140 BKN230 28/24 A2983=
202008092100 METAR MRLM 092100Z 29005KT 9999 FEW020 BKN230 29/24 A2983=
202008092200 METAR MRLM 092200Z 01005KT 9999 BKN020 28/25 A2982=
202008092300 METAR MRLM 092300Z 32003KT 9999 SCT020 BKN120 27/24 A2982=
202008100000 METAR MRLM 100000Z 00000KT 9999 FEW015 SCT140 BKN220 26/24 A2982=
202008100100 METAR MRLM NIL=
202008100200 METAR MRLM NIL=
202008100300 METAR MRLM NIL=
202008100400 METAR MRLM NIL=
202008100500 METAR MRLM NIL=
202008100600 METAR MRLM NIL=
202008100700 METAR MRLM NIL=
202008100800 METAR MRLM NIL=
202008100900 METAR MRLM NIL=
202008101000 METAR MRLM NIL=
202008101100 METAR MRLM NIL=
202008101200 METAR MRLM 101200Z 22002KT 9999 FEW015 BKN200 23/22 A2981=
202008101300 METAR MRLM 101300Z 24002KT CAVOK 24/23 A2983=
202008101400 METAR MRLM 101400Z 25002KT CAVOK 27/24 A2984=
202008101500 METAR MRLM 101500Z 31004KT CAVOK 29/23 A2986=
202008101600 METAR MRLM 101600Z 30004KT CAVOK 28/23 A2986=
202008101700 METAR MRLM 101700Z 31003KT CAVOK 29/23 A2986=
202008101800 METAR MRLM 101800Z 01008KT CAVOK 30/25 A2985=
202008101900 METAR MRLM 101900Z 01007KT CAVOK 30/24 A2981=
202008102000 METAR MRLM 102000Z 01009KT 9999 FEW020 BKN220 30/25 A2980=
202008102100 METAR MRLM 102100Z 36009KT 9999 FEW020 BKN220 29/25 A2978=
202008102200 METAR MRLM 102200Z 35009KT 9999 SCT020 BKN220 29/25 A2977=
202008102300 METAR MRLM 102300Z 31005KT 9999 SCT020 OVC220 28/25 A2978=
202008110000 METAR MRLM 110000Z 33006KT 9999 SCT015 OVC200 28/25 A2980=
202008110100 METAR MRLM NIL=
202008110200 METAR MRLM NIL=
202008110300 METAR MRLM NIL=
202008110400 METAR MRLM NIL=
202008110500 METAR MRLM NIL=
202008110600 METAR MRLM NIL=
202008110700 METAR MRLM NIL=
202008110800 METAR MRLM NIL=
202008110900 METAR MRLM NIL=
202008111000 METAR MRLM NIL=
202008111100 METAR MRLM NIL=
202008111200 METAR MRLM 111200Z 23003KT 8000 VCSH SCT015 BKN090 24/24 A2982=
202008111300 METAR MRLM 111300Z 23004KT 9999 VCSH FEW015TCU BKN090 27/25 A2983=
202008111400 METAR MRLM 111400Z 23003KT 9999 VCTS FEW020TCU SCT100 29/25 A2984=
202008111500 METAR MRLM 111500Z 06004KT 9999 VCSH FEW020TCU SCT220 29/25 A2985=
202008111600 METAR MRLM 111600Z 01010KT 9999 VCSH FEW020TCU SCT120 BKN220 28/25 A2987=
202008111700 METAR MRLM 111700Z 30005KT 9999 FEW020 BKN220 30/24 A2986=
202008111800 METAR MRLM 111800Z 33006KT 9999 FEW020 BKN220 29/24 A2984=
202008111900 METAR MRLM 111900Z 32010KT 9999 FEW020 SCT120 BKN220 29/24 A2983=
202008112000 METAR MRLM 112000Z 31008KT 9999 SCT020 OVC120 28/24 A2983=
202008112100 METAR MRLM 112100Z 33010KT 8000 DZ SCT015 OVC100 27/25 A2983=
202008112200 METAR MRLM 112200Z 05016KT 9000 -DZ VCSH SCT015 OVC100 27/25 A2984=
202008112300 METAR MRLM 112300Z 23005KT 8000 DZ SCT010 OVC090 25/24 A2987=
202008120000 METAR MRLM 120000Z 25005KT 8000 DZ SCT010 OVC090 24/23 A2986=
202008120100 METAR MRLM NIL=
202008120200 METAR MRLM NIL=
202008120300 METAR MRLM NIL=
202008120400 METAR MRLM NIL=
202008120500 METAR MRLM NIL=
202008120600 METAR MRLM NIL=
202008120700 METAR MRLM NIL=
202008120800 METAR MRLM NIL=
202008120900 METAR MRLM NIL=
202008121000 METAR MRLM NIL=
202008121100 METAR MRLM NIL=
202008121200 METAR MRLM 121200Z 25005KT CAVOK 23/22 A2981=
202008121300 METAR MRLM 121300Z 24005KT 9999 BKN120 23/22 A2984=
202008121400 METAR MRLM 121400Z 24003KT 9999 FEW020 BKN120 25/23 A2985=
202008121500 METAR MRLM 121500Z 01006KT 3000 RA BKN020 25/23 A2988=
202008121600 METAR MRLM 121600Z 20004KT 5000 DZ BKN020 23/22 A2987=
202008121700 METAR MRLM 121700Z 26006KT 9999 DZ SCT020 BKN120 24/23 A2986=
202008121800 METAR MRLM 121800Z 24006KT 9999 BKN020 26/23 A2982 REDZ=
202008121900 METAR MRLM 121900Z 15003KT 3000 RA BKN015 26/23 A2981=
202008122000 METAR MRLM 122000Z 28003KT 9999 DZ SCT020 BKN120 26/24 A2979=
202008122100 METAR MRLM 122100Z 32004KT 9999 -DZ SCT020 BKN120 26/25 A2977=
202008122200 METAR MRLM 122200Z 26003KT 9999 FEW020 BKN120 27/24 A2977=
202008122300 METAR MRLM 122300Z 02005KT 9999 SCT015 BKN120 27/25 A2978=
202008130000 METAR MRLM 130000Z 04006KT 9999 4000N DZ SCT015 BKN100 26/24 A2983=
202008130100 METAR MRLM NIL=
202008130200 METAR MRLM NIL=
202008130300 METAR MRLM NIL=
202008130400 METAR MRLM NIL=
202008130500 METAR MRLM NIL=
202008130600 METAR MRLM NIL=
202008130700 METAR MRLM NIL=
202008130800 METAR MRLM NIL=
202008130900 METAR MRLM NIL=
202008131000 METAR MRLM NIL=
202008131100 METAR MRLM NIL=
202008131200 METAR MRLM 131200Z 29003KT 9999 FEW015 BKN100 24/23 A2977=
202008131300 METAR MRLM 131300Z 24004KT 9999 VCTS FEW015 BKN110 24/23 A2979=
202008131400 METAR MRLM 131400Z 01002KT 9999 DZ SCT015 BKN110 25/24 A2982=
202008131500 METAR MRLM 131500Z 26003KT 9999 VCTS FEW015 BKN110 25/24 A2985=
202008131600 METAR MRLM 131600Z 28004KT 8000 2000N TS RA FEW010CB SCT020 BKN100 25/24 A2988=
202008131700 METAR MRLM 131700Z 27005KT 9999 DZ FEW020 BKN120 25/24 A2985 RETS=
202008131800 METAR MRLM 131800Z 28006KT 9999 FEW025 BKN130 27/25 A2982 REDZ=
202008131900 METAR MRLM 131900Z 31004KT CAVOK 30/25 A2978=
202008132000 METAR MRLM 132000Z 02008KT 9999 VCTS FEW020 BKN130 30/25 A2977=
202008132100 METAR MRLM 132100Z 36008KT 5000 TS RA FEW015CB SCT020 BKN120 28/25 A2977=
202008132200 METAR MRLM 132200Z 01010KT 9999 DZ VCTS SCT020 BKN120 26/25 A2975 RERA=
202008132300 METAR MRLM 132300Z 26003KT 9999 FEW020 BKN120 26/25 A2975 REDZ=
202008140000 METAR MRLM 140000Z 27003KT 9999 FEW015 BKN120 26/25 A2978=
202008140100 METAR MRLM NIL=
202008140200 METAR MRLM NIL=
202008140300 METAR MRLM NIL=
202008140400 METAR MRLM NIL=
202008140500 METAR MRLM NIL=
202008140600 METAR MRLM NIL=
202008140700 METAR MRLM NIL=
202008140800 METAR MRLM NIL=
202008140900 METAR MRLM NIL=
202008141000 METAR MRLM NIL=
202008141100 METAR MRLM NIL=
202008141200 METAR MRLM 141200Z 24004KT 9999 FEW015 BKN200 24/23 A2978=
202008141300 METAR MRLM 141300Z 27003KT 8000 HZ FEW015 BKN100 25/24 A2979=
202008141400 METAR MRLM 141400Z 28006KT 9999 FEW015 SCT100 BKN200 27/23 A2976=
202008141500 METAR MRLM 141500Z 24004KT 9999 FEW020 BKN220 30/24 A2979=
202008141600 METAR MRLM 141600Z 35008KT 9999 FEW020 BKN220 29/25 A2982=
202008141700 METAR MRLM 141700Z 36008KT CAVOK 29/25 A2980=
202008141800 METAR MRLM 141800Z 30004KT CAVOK 29/25 A2977=
202008141900 METAR MRLM 141900Z 02010KT CAVOK 30/26 A2975=
202008142000 METAR MRLM 142000Z 01010KT CAVOK 30/26 A2972=
202008142100 METAR MRLM 142100Z 02008KT CAVOK 30/25 A2971=
202008142200 METAR MRLM 142200Z 04008KT CAVOK 30/25 A2971=
202008142300 METAR MRLM 142300Z 04006KT 9999 FEW020 BKN220 29/25 A2973=
202008150000 METAR MRLM 150000Z 05005KT 9999 SCT015 BKN200 29/25 A2975=
202008150100 METAR MRLM NIL=
202008150200 METAR MRLM NIL=
202008150300 METAR MRLM NIL=
202008150400 METAR MRLM NIL=
202008150500 METAR MRLM NIL=
202008150600 METAR MRLM NIL=
202008150700 METAR MRLM NIL=
202008150800 METAR MRLM NIL=
202008150900 METAR MRLM NIL=
202008151000 METAR MRLM NIL=
202008151100 METAR MRLM NIL=
202008151200 METAR MRLM 151200Z 26003KT 9999 FEW010 BKN090 23/23 A2977=
202008151300 METAR MRLM 151300Z 00000KT 9999 -DZ FEW010 BKN090 23/23 A2982=
202008151400 METAR MRLM 151400Z 25004KT 9999 FEW010 OVC090 24/24 A2986=
202008151500 METAR MRLM 151500Z 29003KT 9999 VCSH SCT010 OVC090 25/24 A2988=
202008151600 METAR MRLM 151600Z 35010KT 9999 -DZ SCT010 OVC090 26/23 A2989=
202008151700 METAR MRLM 151700Z 35010KT 8000 DZ FEW007 OVC080 25/23 A2989=
202008151800 METAR MRLM 151800Z 27005KT 9999 FEW007 OVC080 25/23 A2987 REDZ=
202008151900 METAR MRLM 151900Z 23005KT 9999 SCT010 OVC080 25/23 A2985=
202008152000 METAR MRLM 152000Z 15004KT 9999 -DZ FEW010 OVC080 25/23 A2982=
202008152100 METAR MRLM 152100Z 15003KT 8000 -DZ FEW010 OVC080 24/23 A2982=
202008152200 METAR MRLM 152200Z 30003KT 5000 -RA FEW006 OVC015 24/23 A2982=
202008152300 METAR MRLM 152300Z 20002KT 8000 DZ FEW006 OVC070 24/23 A2982 RERA=
202008160000 METAR MRLM 160000Z 19002KT 9000 -DZ FEW006 OVC070 24/23 A2983=
202008160100 METAR MRLM NIL=
202008160200 METAR MRLM NIL=
202008160300 METAR MRLM NIL=
202008160400 METAR MRLM NIL=
202008160500 METAR MRLM NIL=
202008160600 METAR MRLM NIL=
202008160700 METAR MRLM NIL=
202008160800 METAR MRLM NIL=
202008160900 METAR MRLM NIL=
202008161000 METAR MRLM NIL=
202008161100 METAR MRLM NIL=
202008161200 METAR MRLM 161200Z 23004KT CAVOK 24/23 A2985=
202008161300 METAR MRLM 161300Z 24004KT CAVOK 24/23 A2987=
202008161400 METAR MRLM 161400Z 00000KT 9999 FEW025 BKN130 25/24 A2989=
202008161500 METAR MRLM 161500Z 00000KT 9999 FEW025 BKN130 27/24 A2990=
202008161600 METAR MRLM 161600Z 00000KT 9999 SCT025 BKN130 28/24 A2991=
202008161700 METAR MRLM 161700Z 00000KT 9999 FEW025 BKN120 28/24 A2991=
202008161800 METAR MRLM 161800Z 01006KT 9999 FEW020 BKN120 29/24 A2990=
202008161900 METAR MRLM 161900Z 04019KT 9999 DZ SCT015 BKN110 26/24 A2989=
202008162000 METAR MRLM 162000Z 06009KT 9999 SCT025 BKN120 26/24 A2986=
202008162100 METAR MRLM 162100Z 00000KT 9999 BKN025 27/23 A2985=
202008162200 METAR MRLM 162200Z 24004KT CAVOK 27/23 A2983=
202008170000 METAR MRLM 170000Z 24003KT CAVOK 26/24 A2984=
202008170100 METAR MRLM NIL=
202008170200 METAR MRLM NIL=
202008170300 METAR MRLM NIL=
202008170400 METAR MRLM NIL=
202008170500 METAR MRLM NIL=
202008170600 METAR MRLM NIL=
202008170700 METAR MRLM NIL=
202008170800 METAR MRLM NIL=
202008170900 METAR MRLM NIL=
202008171000 METAR MRLM NIL=
202008171100 METAR MRLM NIL=
202008171200 METAR MRLM 171200Z 24005KT CAVOK 22/21 A2989=
202008171300 METAR MRLM 171300Z 00000KT CAVOK 24/22 A2990=
202008171400 METAR MRLM 171400Z 24003KT CAVOK 28/23 A2992=
202008171500 METAR MRLM 171500Z 05004KT CAVOK 28/24 A2993=
202008171600 METAR MRLM 171600Z 31005KT CAVOK 29/22 A2993=
202008171700 METAR MRLM 171700Z 31005KT CAVOK 29/22 A2993=
202008171800 METAR MRLM 171800Z 02008KT CAVOK 29/24 A2988=
202008171900 METAR MRLM 171900Z 03008KT CAVOK 29/24 A2988=
202008172000 METAR MRLM 172000Z 03006KT CAVOK 29/24 A2985=
202008172100 METAR MRLM 172100Z 06004KT CAVOK 30/23 A2984=
202008172200 METAR MRLM 172200Z 04006KT CAVOK 29/23 A2984=
202008172300 METAR MRLM 172300Z 06003KT CAVOK 29/22 A2985=
202008180000 METAR MRLM 180000Z 00000KT CAVOK 28/25 A2988=
202008180100 METAR MRLM NIL=
202008180200 METAR MRLM NIL=
202008180300 METAR MRLM NIL=
202008180400 METAR MRLM NIL=
202008180500 METAR MRLM NIL=
202008180600 METAR MRLM NIL=
202008180700 METAR MRLM NIL=
202008180800 METAR MRLM NIL=
202008180900 METAR MRLM NIL=
202008181000 METAR MRLM NIL=
202008181100 METAR MRLM NIL=
202008181200 METAR MRLM 181200Z 25004KT 9999 FEW015 SCT200 23/22 A2987=
202008181300 METAR MRLM 181300Z 28005KT 9999 FEW015TCU SCT200 24/23 A2990=
202008181400 METAR MRLM 181400Z 29009KT 9999 FEW015 BKN200 26/23 A2991=
202008181500 METAR MRLM 181500Z 30006KT 9999 FEW020 BKN220 29/24 A2991=
202008181600 METAR MRLM 181600Z 32004KT 9999 FEW020 SCT120 BKN220 30/23 A2991=
202008181700 METAR MRLM 181700Z 02007KT 9999 FEW020 BKN120 29/23 A2992=
202008181800 METAR MRLM 181800Z 04006KT 9999 FEW020 OVC120 29/24 A2991=
202008181900 METAR MRLM 181900Z COR 06006KT 9999 VCSH SCT020 OVC120 28/24 A2989=
202008182000 METAR MRLM 182000Z 12008KT 9999 -DZ FEW020 OVC100 26/24 A2986=
202008182100 METAR MRLM 182100Z 18004KT 9999 FEW020 OVC100 26/24 A2984=
202008182200 METAR MRLM 182200Z 18002KT CAVOK 27/24 A2982=
202008182300 METAR MRLM 182300Z 09004KT CAVOK 28/24 A2986=
202008190000 METAR MRLM 190000Z 09010KT CAVOK 28/23 A2987=
202008190100 METAR MRLM NIL=
202008190200 METAR MRLM NIL=
202008190300 METAR MRLM NIL=
202008190400 METAR MRLM NIL=
202008190500 METAR MRLM NIL=
202008190600 METAR MRLM NIL=
202008190700 METAR MRLM NIL=
202008190800 METAR MRLM NIL=
202008190900 METAR MRLM NIL=
202008191000 METAR MRLM NIL=
202008191100 METAR MRLM NIL=
202008191200 METAR MRLM 191200Z 24005KT CAVOK 23/21 A2985=
202008191300 METAR MRLM 191300Z COR 22004KT CAVOK 26/22 A2987=
202008191400 METAR MRLM 191400Z 00000KT CAVOK 28/22 A2989=
202008191500 METAR MRLM 191500Z 02005KT CAVOK 29/22 A2989=
202008191600 METAR MRLM 191600Z 03007KT CAVOK 30/22 A2989=
202008191700 METAR MRLM 191700Z 04005KT CAVOK 30/22 A2987=
202008191800 METAR MRLM 191800Z 02008KT 9999 FEW030 SCT240 30/23 A2985=
202008191900 METAR MRLM 191900Z 04006KT 9999 FEW030 SCT240 30/25 A2982=
202008192000 METAR MRLM 192000Z 02007KT 9999 FEW030 SCT240 30/25 A2981=
202008192100 METAR MRLM 192100Z 02007KT 9999 FEW030 BKN240 30/24 A2979=
202008192200 METAR MRLM 192200Z 03007KT 9999 FEW030 BKN240 29/24 A2979=
202008192300 METAR MRLM 192300Z 01005KT 9999 SCT020 BKN220 29/24 A2980=
202008200000 METAR MRLM 200000Z 03005KT 9999 FEW020 BKN220 29/25 A2982=
202008200100 METAR MRLM NIL=
202008200200 METAR MRLM NIL=
202008200300 METAR MRLM NIL=
202008200400 METAR MRLM NIL=
202008200500 METAR MRLM NIL=
202008200600 METAR MRLM NIL=
202008200700 METAR MRLM NIL=
202008200800 METAR MRLM NIL=
202008200900 METAR MRLM NIL=
202008201000 METAR MRLM NIL=
202008201100 METAR MRLM NIL=
202008201200 METAR MRLM 201200Z 21004KT CAVOK 24/23 A2982=
202008201300 METAR MRLM 201300Z 21004KT CAVOK 27/24 A2985=
202008201400 METAR MRLM 201400Z 27003KT CAVOK 28/24 A2987=
202008201500 METAR MRLM 201500Z 35004KT 9999 FEW030 BKN140 30/23 A2989=
202008201600 METAR MRLM 201600Z 02008KT 9999 SCT030 29/25 A2989=
202008201700 METAR MRLM 201700Z 02009KT CAVOK 30/24 A2988=
202008201800 METAR MRLM 201800Z 02008KT CAVOK 30/25 A2985=
202008201900 METAR MRLM 201900Z 03007KT CAVOK 30/25 A2981=
202008202000 METAR MRLM 202000Z 03007KT 9999 FEW030 BKN250 30/25 A2980=
202008202100 METAR MRLM 202100Z 03006KT 9999 FEW030 BKN250 30/25 A2978=
202008202200 METAR MRLM 202200Z 02005KT 9999 SCT030 BKN240 29/24 A2979=
202008202300 METAR MRLM 202300Z 01006KT 9999 SCT030 BKN130 29/24 A2981=
202008210000 METAR MRLM 210000Z 00000KT 9999 SCT025 BKN120 28/25 A2983=
202008210100 METAR MRLM NIL=
202008210200 METAR MRLM NIL=
202008210300 METAR MRLM NIL=
202008210400 METAR MRLM NIL=
202008210500 METAR MRLM NIL=
202008210600 METAR MRLM NIL=
202008210700 METAR MRLM NIL=
202008210800 METAR MRLM NIL=
202008210900 METAR MRLM NIL=
202008211000 METAR MRLM NIL=
202008211100 METAR MRLM NIL=
202008211200 METAR MRLM 211200Z 00000KT 9999 FEW020 BKN130 24/23 A2982=
202008211300 METAR MRLM 211300Z 12005KT 9999 FEW020 BKN130 27/24 A2985=
202008211400 METAR MRLM 211400Z 20003KT CAVOK 28/24 A2987=
202008211500 METAR MRLM 211500Z 02003KT 9999 FEW025 BKN130 28/24 A2988=
202008211600 METAR MRLM 211600Z 05003KT 9999 FEW025 BKN130 29/24 A2988=
202008211700 METAR MRLM 211700Z 05003KT 9999 FEW025 BKN130 30/24 A2988=
202008211800 METAR MRLM 211800Z 05006KT CAVOK 30/25 A2986=
202008211900 METAR MRLM 211900Z 07005KT 9999 FEW030 SCT250 30/25 A2982=
202008212000 METAR MRLM 212000Z 06006KT 9999 FEW030 SCT250 30/25 A2980=
202008212100 METAR MRLM 212100Z 07007KT 9999 FEW030 SCT250 30/25 A2978=
202008212200 METAR MRLM 212200Z 10008KT 9999 FEW030 SCT250 30/24 A2978=
202008212300 METAR MRLM 212300Z 09008KT 9999 BKN030 30/24 A2980=
202008220000 METAR MRLM 220000Z 07007KT 9999 BKN025 29/24 A2985=
202008220100 METAR MRLM NIL=
202008220200 METAR MRLM NIL=
202008220300 METAR MRLM NIL=
202008220400 METAR MRLM NIL=
202008220500 METAR MRLM NIL=
202008220600 METAR MRLM NIL=
202008220700 METAR MRLM NIL=
202008220800 METAR MRLM NIL=
202008220900 METAR MRLM NIL=
202008221000 METAR MRLM NIL=
202008221100 METAR MRLM NIL=
202008221200 METAR MRLM 221200Z 19004KT CAVOK 23/22 A2985=
202008221300 METAR MRLM 221300Z 19004KT CAVOK 24/23 A2986=
202008221400 METAR MRLM 221400Z 22003KT CAVOK 27/23 A2987=
202008221500 METAR MRLM 221500Z 14004KT CAVOK 28/23 A2988=
202008221600 METAR MRLM 221600Z 12009KT CAVOK 30/23 A2988=
202008221700 METAR MRLM 221700Z 12010KT CAVOK 30/24 A2987=
202008221800 METAR MRLM 221800Z 11009KT 9999 FEW030 SCT240 30/24 A2986=
202008221900 METAR MRLM 221900Z 06005KT 9999 FEW030 SCT240 30/23 A2982=
202008222000 METAR MRLM 222000Z 05007KT CAVOK 30/24 A2980=
202008222100 METAR MRLM 222100Z 03009KT CAVOK 31/25 A2979=
202008222200 METAR MRLM 222200Z 06008KT 9999 FEW030 SCT240 30/24 A2980=
202008222300 METAR MRLM 222300Z 10008KT 9999 SCT020 SCT220 30/25 A2981=
202008230000 METAR MRLM 230000Z 14006KT 9999 FEW020 SCT220 29/24 A2983=
202008230100 METAR MRLM NIL=
202008230200 METAR MRLM NIL=
202008230300 METAR MRLM NIL=
202008230400 METAR MRLM NIL=
202008230500 METAR MRLM NIL=
202008230600 METAR MRLM NIL=
202008230700 METAR MRLM NIL=
202008230800 METAR MRLM NIL=
202008230900 METAR MRLM NIL=
202008231000 METAR MRLM NIL=
202008231100 METAR MRLM NIL=
202008231200 METAR MRLM 231200Z 26003KT 9999 FEW015 SCT100 25/24 A2985=
202008231300 METAR MRLM 231300Z 29002KT 9999 FEW015 SCT100 27/24 A2987=
202008231400 METAR MRLM 231400Z 26003KT 9999 FEW020 29/24 A2988=
202008231500 METAR MRLM 231500Z 03008KT 9999 FEW020 29/24 A2988=
202008231600 METAR MRLM 231600Z 05006KT 9999 FEW030 29/24 A2986=
202008231700 METAR MRLM 231700Z 05005KT 9999 FEW030 30/24 A2986=
202008231800 METAR MRLM 231800Z 06006KT CAVOK 30/24 A2984=
202008231900 METAR MRLM 231900Z 04006KT CAVOK 30/24 A2982=
202008232000 METAR MRLM 232000Z 04007KT 9999 FEW030 31/24 A2979=
202008232100 METAR MRLM 232100Z 04007KT CAVOK 31/24 A2978=
202008232200 METAR MRLM 232200Z 05005KT CAVOK 30/24 A2978=
202008232300 METAR MRLM 232300Z 07002KT CAVOK 30/24 A2979=
202008240000 METAR MRLM 240000Z 11002KT CAVOK 28/24 A2980=
202008240100 METAR MRLM NIL=
202008240200 METAR MRLM NIL=
202008240300 METAR MRLM NIL=
202008240400 METAR MRLM NIL=
202008240500 METAR MRLM NIL=
202008240600 METAR MRLM NIL=
202008240700 METAR MRLM NIL=
202008240800 METAR MRLM NIL=
202008240900 METAR MRLM NIL=
202008241100 METAR MRLM NIL=
202008241200 METAR MRLM 241200Z 24004KT CAVOK 23/22 A2983=
202008241300 METAR MRLM 241300Z 21004KT CAVOK 25/23 A2984=
202008241400 METAR MRLM 241400Z 00000KT CAVOK 29/24 A2986=
202008241500 METAR MRLM 241500Z 32004KT CAVOK 30/23 A2987=
202008241600 METAR MRLM 241600Z 02009KT CAVOK 30/24 A2986=
202008241700 METAR MRLM 241700Z 03009KT CAVOK 30/25 A2985=
202008241800 METAR MRLM 241800Z 04009KT CAVOK 30/24 A2984=
202008241900 METAR MRLM 241900Z 04007KT CAVOK 31/25 A2981=
202008242000 METAR MRLM 242000Z 03009KT CAVOK 31/24 A2978=
202008242100 METAR MRLM 242100Z 02009KT CAVOK 31/24 A2977=
202008242200 METAR MRLM 242200Z 05009KT CAVOK 30/25 A2977=
202008242300 METAR MRLM 242300Z 05008KT CAVOK 30/25 A2978=
202008250000 METAR MRLM 250000Z 09005KT CAVOK 29/24 A2982=
202008250100 METAR MRLM NIL=
202008250200 METAR MRLM NIL=
202008250300 METAR MRLM NIL=
202008250400 METAR MRLM NIL=
202008250500 METAR MRLM NIL=
202008250600 METAR MRLM NIL=
202008250700 METAR MRLM NIL=
202008250800 METAR MRLM NIL=
202008250900 METAR MRLM NIL=
202008251000 METAR MRLM NIL=
202008251100 METAR MRLM NIL=
202008251200 METAR MRLM 251200Z 24004KT CAVOK 23/22 A2980=
202008251300 METAR MRLM 251300Z 23003KT CAVOK 24/22 A2980=
202008251400 METAR MRLM 251400Z 21003KT CAVOK 25/23 A2982=
202008251500 METAR MRLM 251500Z 22004KT CAVOK 26/23 A2984=
202008251600 METAR MRLM 251600Z 21002KT CAVOK 27/24 A2986=
202008251700 METAR MRLM 251700Z 21003KT CAVOK 27/24 A2983=
202008251800 METAR MRLM 251800Z 00000KT 9999 -DZ FEW020 OVC140 27/25 A2982=
202008251900 METAR MRLM 251900Z 00000KT 9999 -DZ FEW020 OVC130 27/25 A2980=
202008252000 METAR MRLM 252000Z 23004KT 2000 RA VCTS BKN020 25/24 A2979=
202008252100 METAR MRLM 252100Z 00000KT 9999 DZ BKN020 25/24 A2977 RERA=
202008252200 METAR MRLM 252200Z 22004KT 9999 -DZ SCT020 BKN110 25/24 A2977=
202008252300 METAR MRLM 252300Z 21003KT 9999 FEW020 BKN120 25/25 A2978=
202008260000 METAR MRLM 260000Z 21003KT 9999 FEW010 BKN110 25/24 A2981=
202008260100 METAR MRLM NIL=
202008260200 METAR MRLM NIL=
202008260300 METAR MRLM NIL=
202008260400 METAR MRLM NIL=
202008260500 METAR MRLM NIL=
202008260600 METAR MRLM NIL=
202008260700 METAR MRLM NIL=
202008260800 METAR MRLM NIL=
202008260900 METAR MRLM NIL=
202008261000 METAR MRLM NIL=
202008261100 METAR MRLM NIL=
202008261200 METAR MRLM 261200Z 21004T 9999 VCSH FEW015TCU BKN100 23/23 A2982=
202008261300 METAR MRLM 261300Z 23004T 9999 VCSH FEW015 BKN100 25/23 A2983=
202008261400 METAR MRLM 261400Z 25003T 9999 FEW020 SCT100 27/23 A2984=
202008261500 METAR MRLM 261500Z 04004T 9999 FEW020 SCT120 BKN220 29/23 A2985=
202008261600 METAR MRLM 261600Z 02005T CAVOK 29/23 A2985=
202008261700 METAR MRLM 261700Z 04006T CAVOK 29/24 A2985=
202008261800 METAR MRLM 261800Z 07006T 9999 FEW025 SCT120 BKN220 29/24 A2984=
202008261900 METAR MRLM 261900Z 08008T 9999 FEW025 SCT120 BKN220 29/24 A2980=
202008262000 METAR MRLM 262000Z 09005T 9999 +DZ VCSH FEW020 BKN120 28/24 A2980=
202008262100 METAR MRLM 262100Z 25006T 9999 SCT015 OVC100 25/24 A2979=
202008262200 METAR MRLM 262200Z 24004T 9999 FEW015 OVC100 25/23 A2980=
202008262300 METAR MRLM 262300Z 25005KT 9999 FEW015 BKN100 25/23 A2981=
202008270000 METAR MRLM 270000Z 25004KT 9999 FEW015 SCT100 OVC200 24/23 A2982=
202008270100 METAR MRLM NIL=
202008270200 METAR MRLM NIL=
202008270300 METAR MRLM NIL=
202008270400 METAR MRLM NIL=
202008270500 METAR MRLM NIL=
202008270600 METAR MRLM NIL=
202008270700 METAR MRLM NIL=
202008270800 METAR MRLM NIL=
202008270900 METAR MRLM NIL=
202008271000 METAR MRLM NIL=
202008271100 METAR MRLM NIL=
202008271200 METAR MRLM 271200Z 23005KT 9999 FEW020 SCT200 23/22 A2990=
202008271300 METAR MRLM 271300Z 23004KT 9999 FEW020 SCT200 27/23 A2991=
202008271400 METAR MRLM 271400Z 17002KT 9999 FEW020 SCT220 29/23 A2994=
202008271500 METAR MRLM 271500Z 07004KT 9999 FEW020 29/23 A2993=
202008271600 METAR MRLM 271600Z 06005KT 9999 FEW025 29/24 A2993=
202008271700 METAR MRLM 271700Z 05005KT 9999 FEW025 30/24 A2991=
202008271800 METAR MRLM 271800Z 06005KT 9999 FEW025 30/24 A2989=
202008271900 METAR MRLM 271900Z 05005KT 9999 FEW025 30/24 A2986=
202008272000 METAR MRLM 272000Z 04006KT 9999 FEW025 30/25 A2985=
202008272100 METAR MRLM 272100Z 03007KT 9999 SCT025 30/25 A2984=
202008272200 METAR MRLM 272200Z 04006KT 9999 SCT025 30/24 A2984=
202008272300 METAR MRLM 272300Z 05005KT 9999 SCT020 30/24 A2986=
202008280000 METAR MRLM 280000Z 06005KT 9999 SCT020 SCT230 29/24 A2987=
202008280100 METAR MRLM NIL=
202008280200 METAR MRLM NIL=
202008280300 METAR MRLM NIL=
202008280400 METAR MRLM NIL=
202008280500 METAR MRLM NIL=
202008280600 METAR MRLM NIL=
202008280700 METAR MRLM NIL=
202008280800 METAR MRLM NIL=
202008280900 METAR MRLM NIL=
202008281000 METAR MRLM NIL=
202008281100 METAR MRLM NIL=
202008281200 METAR MRLM 281200Z 24003KT CAVOK 24/23 A2991=
202008281300 METAR MRLM 281300Z 23003KT 9999 FEW025 SCT130 26/24 A2994=
202008281400 METAR MRLM 281400Z 24003KT 9999 FEW030 SCT130 29/24 A2996=
202008281500 METAR MRLM 281500Z 07004KT 9999 SCT030 29/24 A2996=
202008281600 METAR MRLM 281600Z 04006KT 9999 FEW030 SCT130 29/25 A2996=
202008281700 METAR MRLM 281700Z 07006KT 9999 FEW030 BKN130 29/25 A2997=
202008281800 METAR MRLM 281800Z 04004KT 9999 FEW030 BKN130 29/24 A2994=
202008281900 METAR MRLM 281900Z 09005KT 9999 FEW030 BKN130 30/24 A2991=
202008282000 METAR MRLM 282000Z 08008KT 9999 SCT015 BKN130 30/24 A2990=
202008282100 METAR MRLM 282100Z 08012KT 9999 BKN025 27/24 A2988=
202008282200 METAR MRLM 282200Z 17003KT 9999 FEW025 BKN130 27/24 A2987=
202008282300 METAR MRLM 282300Z 00000KT 9999 FEW020 BKN120 26/24 A2986=
202008290000 METAR MRLM 290000Z 22003KT CAVOK 27/24 A2987=
202008290100 METAR MRLM NIL=
202008290200 METAR MRLM NIL=
202008290300 METAR MRLM NIL=
202008290400 METAR MRLM NIL=
202008290500 METAR MRLM NIL=
202008290600 METAR MRLM NIL=
202008290700 METAR MRLM NIL=
202008290800 METAR MRLM NIL=
202008290900 METAR MRLM NIL=
202008291000 METAR MRLM NIL=
202008291100 METAR MRLM NIL=
202008291200 METAR MRLM 291200Z 23004KT CAVOK 23/22 A2987=
202008291300 METAR MRLM 291300Z 24002KT CAVOK 25/22 A2992=
202008291400 METAR MRLM 291400Z 24004KT CAVOK 26/23 A2995=
202008291500 METAR MRLM 291500Z 27004KT CAVOK 29/23 A2995=
202008291600 METAR MRLM 291600Z 30004KT CAVOK 31/23 A2994=
202008291700 METAR MRLM 291700Z 02009KT CAVOK 31/24 A2992=
202008291800 METAR MRLM 291800Z 03009KT CAVOK 30/24 A2991=
202008291900 METAR MRLM 291900Z 02011KT CAVOK 31/25 A2989=
202008292000 METAR MRLM 292000Z 02008KT CAVOK 30/24 A2987=
202008292100 METAR MRLM 292100Z 01008KT 9999 FEW025 BKN250 30/25 A2985=
202008292200 METAR MRLM 292200Z 01005KT 9999 FEW025 BKN250 30/25 A2982=
202008292300 METAR MRLM 292300Z 35007KT 9999 FEW025 BKN250 30/25 A2984=
202008300000 METAR MRLM 300000Z 04009KT 9999 SCT020 BKN220 29/25 A2987=
202008300100 METAR MRLM NIL=
202008300200 METAR MRLM NIL=
202008300300 METAR MRLM NIL=
202008300400 METAR MRLM NIL=
202008300500 METAR MRLM NIL=
202008300600 METAR MRLM NIL=
202008300700 METAR MRLM NIL=
202008300800 METAR MRLM NIL=
202008300900 METAR MRLM NIL=
202008301000 METAR MRLM NIL=
202008301100 METAR MRLM NIL=
202008301200 METAR MRLM 301200Z 23005KT 9999 FEW020 SCT200 24/23 A2990=
202008301300 METAR MRLM 301300Z 22004KT 9999 FEW020 SCT200 25/23 A2991=
202008301400 METAR MRLM 301400Z 25002KT 9999 FEW020TCU SCT200 29/24 A2993=
202008301500 METAR MRLM 301500Z 08003KT 9999 VCSH FEW020TCU BKN220 29/25 A2993=
202008301600 METAR MRLM 301600Z 08004KT 9999 VCSH FEW020 BKN220 30/25 A2994=
202008301700 METAR MRLM 301700Z 11022G36KT 3000 +RA VCTS FEW0006 OVC015 24/23 A2998=
202008301800 METAR MRLM 301800Z 24006KT 9999 DZ VCSH FEW0006 BKN080 24/23 A2988=
202008301900 METAR MRLM 301900Z 15004KT 9999 FEW0010 BKN090 26/23 A2988 REDZ=
202008302000 METAR MRLM 302000Z 22002KT CAVOK 27/23 A2985=
202008302100 METAR MRLM 302100Z 27002KT CAVOK 28/23 A2982=
202008302200 METAR MRLM 302200Z 26002KT CAVOK 28/25 A2981=
202008302300 METAR MRLM 302300Z 33002KT CAVOK 28/23 A2982=
202008310000 METAR MRLM 310000Z 22002KT CAVOK 27/25 A2983=
202008310100 METAR MRLM NIL=
202008310200 METAR MRLM NIL=
202008310300 METAR MRLM NIL=
202008310400 METAR MRLM NIL=
202008310500 METAR MRLM NIL=
202008310600 METAR MRLM NIL=
202008310700 METAR MRLM NIL=
202008310800 METAR MRLM NIL=
202008310900 METAR MRLM NIL=
202008311000 METAR MRLM NIL=
202008311100 METAR MRLM NIL=
202008311200 METAR MRLM 311200Z 24005KT CAVOK 22/21 A2989=
202008311300 METAR MRLM 311300Z 22004KT CAVOK 25/22 A2991=
202008311400 METAR MRLM 311400Z 00000KT CAVOK 28/24 A2993=
202008311500 METAR MRLM 311500Z 04004KT CAVOK 29/24 A2994=
202008311600 METAR MRLM 311600Z 04005KT CAVOK 29/23 A2993=
202008311700 METAR MRLM 311700Z 03007KT CAVOK 30/24 A2992=
202008311800 METAR MRLM 311800Z 03005KT CAVOK 30/23 A2989=
202008311900 METAR MRLM 311900Z 04005KT CAVOK 30/24 A2986=
202008312000 METAR MRLM 312000Z 04006KT CAVOK 31/23 A2984=
202008312100 METAR MRLM 312100Z 04009KT CAVOK 30/24 A2982=
202008312200 METAR MRLM 312200Z 05007KT CAVOK 30/23 A2982=
202008312300 METAR MRLM 312300Z 03006KT 9999 FEW030 SCT240 30/23 A2983=
202009010000 METAR MRLM 010000Z 04006KT 9999 FEW030 SCT240 29/24 A2987=
202009010100 METAR MRLM NIL=
202009010200 METAR MRLM NIL=
202009010300 METAR MRLM NIL=
202009010400 METAR MRLM NIL=
202009010500 METAR MRLM NIL=
202009010600 METAR MRLM NIL=
202009010700 METAR MRLM NIL=
202009010800 METAR MRLM NIL=
202009010900 METAR MRLM NIL=
202009011000 METAR MRLM NIL=
202009011100 METAR MRLM NIL=
202009011200 METAR MRLM 011200Z 24004KT CAVOK 23/22 A2988=
202009011300 METAR MRLM 011300Z 23003KT 9999 FEW025 BKN250 26/23 A2990=
202009011400 METAR MRLM 011400Z 22003KT CAVOK 28/24 A2992=
202009011500 METAR MRLM 011500Z 04005KT CAVOK 29/24 A2991=
202009011600 METAR MRLM 011600Z 01008KT CAVOK 30/24 A2991=
202009011700 METAR MRLM 011700Z 01008KT CAVOK 30/24 A2990=
202009011800 METAR MRLM 011800Z 03010KT 9999 FEW030 SCT240 29/25 A2989=
202009011900 METAR MRLM 011900Z 04005KT 9999 FEW030 SCT140 29/25 A2986=
202009012000 METAR MRLM 012000Z 02004KT CAVOK 29/23 A2984=
202009012100 METAR MRLM 012100Z 05005KT CAVOK 30/22 A2981=
202009012200 METAR MRLM 012200Z 04005KT CAVOK 30/22 A2982=
202009012300 METAR MRLM 012300Z 11004KT CAVOK 29/22 A2983=
202009020000 METAR MRLM 020000Z 00000KT CAVOK 29/22 A2984=
202009020100 METAR MRLM NIL=
202009020200 METAR MRLM NIL=
202009020300 METAR MRLM NIL=
202009020400 METAR MRLM NIL=
202009020500 METAR MRLM NIL=
202009020600 METAR MRLM NIL=
202009020700 METAR MRLM NIL=
202009020800 METAR MRLM NIL=
202009020900 METAR MRLM NIL=
202009021000 METAR MRLM NIL=
202009021100 METAR MRLM NIL=
202009021200 METAR MRLM 021200Z 23005KT CAVOK 22/20 A2984=
202009021300 METAR MRLM 021300Z 22005KT CAVOK 25/21 A2985=
202009021400 METAR MRLM 021400Z 24003KT CAVOK 27/22 A2986=
202009021500 METAR MRLM 021500Z 05005KT CAVOK 29/23 A2986=
202009021600 METAR MRLM 021600Z 07005KT CAVOK 30/22 A2985=
202009021700 METAR MRLM 021700Z 08004KT CAVOK 30/22 A2982=
202009021800 METAR MRLM 021800Z 08008KT CAVOK 31/22 A2979=
202009021900 METAR MRLM 021900Z 08007KT CAVOK 31/23 A2977=
202009022000 METAR MRLM 022000Z 06007KT CAVOK 31/22 A2977=
202009022100 METAR MRLM 022100Z 06006KT 9999 FEW030 BKN250 30/23 A2975=
202009022200 METAR MRLM 022200Z 07005KT 9999 FEW030 BKN250 30/23 A2975=
202009022300 METAR MRLM 022300Z 09005KT 9999 FEW030 BKN250 30/23 A2976=
202009030000 METAR MRLM 030000Z 10004KT CAVOK 30/23 A2976=
202009030100 METAR MRLM NIL=
202009030200 METAR MRLM NIL=
202009030300 METAR MRLM NIL=
202009030400 METAR MRLM NIL=
202009030500 METAR MRLM NIL=
202009030600 METAR MRLM NIL=
202009030700 METAR MRLM NIL=
202009030800 METAR MRLM NIL=
202009030900 METAR MRLM NIL=
202009031000 METAR MRLM NIL=
202009031100 METAR MRLM NIL=
202009031200 METAR MRLM 031200Z 24005KT CAVOK 23/21 A2979=
202009031300 METAR MRLM 031300Z 24005KT CAVOK 25/23 A2981=
202009031400 METAR MRLM 031400Z 23003KT 9999 FEW025 29/23 A2983=
202009031500 METAR MRLM 031500Z 06004KT 9999 FEW025 29/23 A2984=
202009031600 METAR MRLM 031600Z 06004KT CAVOK 30/23 A2984=
202009031700 METAR MRLM 031700Z 07007KT 9999 FEW030 30/24 A2981=
202009031800 METAR MRLM 031800Z 04007KT CAVOK 30/24 A2979=
202009031900 METAR MRLM 031900Z 03007KT CAVOK 31/24 A2976=
202009032000 METAR MRLM 032000Z 04005KT CAVOK 30/24 A2974=
202009032100 METAR MRLM 032100Z 06006KT 9999 FEW030 SCT250 30/24 A2973=
202009032200 METAR MRLM 032200Z 06004KT 9999 FEW030 SCT250 30/23 A2972=
202009032300 METAR MRLM 032300Z 06004KT 9999 FEW030 SCT250 29/24 A2974=
202009040000 METAR MRLM 040000Z 12005KT 9999 FEW020 SCT230 29/24 A2976=
202009040100 METAR MRLM NIL=
202009040200 METAR MRLM NIL=
202009040300 METAR MRLM NIL=
202009040400 METAR MRLM NIL=
202009040500 METAR MRLM NIL=
202009040600 METAR MRLM NIL=
202009040700 METAR MRLM NIL=
202009040800 METAR MRLM NIL=
202009040900 METAR MRLM NIL=
202009041000 METAR MRLM NIL=
202009041100 METAR MRLM NIL=
202009041200 METAR MRLM 041200Z 22005KT CAVOK 23/21 A2981=
202009041300 METAR MRLM 041300Z 22005KT 9999 FEW020 SCT100 BKN200 24/22 A2982=
202009041400 METAR MRLM 041400Z 22004KT CAVOK 27/23 A2984=
202009041500 METAR MRLM 041500Z 23002KT CAVOK 29/23 A2983=
202009041600 METAR MRLM 041600Z 03005KT CAVOK 30/23 A2982=
202009041700 METAR MRLM 041700Z 09006KT 9999 FEW030 BKN240 31/24 A2982=
202009041800 METAR MRLM 041800Z 06006KT 9999 FEW030 BKN240 31/24 A2981=
202009041900 METAR MRLM 041900Z 08007KT 9999 FEW030 BKN240 30/24 A2979=
202009042000 METAR MRLM 042000Z 08008KT 9999 FEW030 SCT240 30/25 A2977=
202009042100 METAR MRLM 042100Z 07005KT 9999 FEW030 SCT240 30/25 A2977=
202009042200 METAR MRLM 042200Z 09004KT 9999 FEW020 SCT120 30/24 A2977=
202009042300 METAR MRLM 042300Z 09004KT 9999 FEW020 BKN120 29/24 A2977=
202009050000 METAR MRLM 050000Z 18002KT 9999 FEW015 BKN110 28/25 A2979=
202009050100 METAR MRLM NIL=
202009050200 METAR MRLM NIL=
202009050300 METAR MRLM NIL=
202009050400 METAR MRLM NIL=
202009050500 METAR MRLM NIL=
202009050600 METAR MRLM NIL=
202009050700 METAR MRLM NIL=
202009050800 METAR MRLM NIL=
202009050900 METAR MRLM NIL=
202009051000 METAR MRLM NIL=
202009051100 METAR MRLM NIL=
202009051200 METAR MRLM 051200Z 22004KT CAVOK 23/22 A2986=
202009051300 METAR MRLM 051300Z 22004KT CAVOK 25/23 A2988=
202009051400 METAR MRLM 051400Z 25004KT CAVOK 27/24 A2989=
202009051500 METAR MRLM 051500Z 02003KT CAVOK 29/24 A2988=
202009051600 METAR MRLM 051600Z 01006KT CAVOK 29/25 A2989=
202009051700 METAR MRLM 051700Z 06005KT 9999 FEW030 BKN250 30/25 A2989=
202009051800 METAR MRLM 051800Z 07007KT 9999 SCT030 30/25 A2988=
202009051900 METAR MRLM 051900Z 05006KT 9999 FEW030 SCT140 30/25 A2984=
202009052000 METAR MRLM 052000Z 07006KT 9999 FEW030 SCT250 30/25 A2982=
202009052100 METAR MRLM 052100Z 04006KT 9999 FEW030 SCT250 30/25 A2981=
202009052200 METAR MRLM 052200Z 03006KT 9999 FEW030 30/25 A2979=
202009052300 METAR MRLM 052300Z 03006KT 9999 SCT030 30/25 A2979=
202009060000 METAR MRLM 060000Z 22003KT 9999 BKN250 29/24 A2985=
202009060100 METAR MRLM NIL=
202009060200 METAR MRLM NIL=
202009060300 METAR MRLM NIL=
202009060400 METAR MRLM NIL=
202009060500 METAR MRLM NIL=
202009060600 METAR MRLM NIL=
202009060700 METAR MRLM NIL=
202009060800 METAR MRLM NIL=
202009060900 METAR MRLM NIL=
202009061000 METAR MRLM NIL=
202009061100 METAR MRLM NIL=
202009061200 METAR MRLM NIL=
202009061300 METAR MRLM NIL=
202009061400 METAR MRLM NIL=
202009061500 METAR MRLM NIL=
202009061600 METAR MRLM NIL=
202009061700 METAR MRLM NIL=
202009061800 METAR MRLM NIL=
202009061900 METAR MRLM NIL=
202009062000 METAR MRLM NIL=
202009062100 METAR MRLM NIL=
202009062200 METAR MRLM NIL=
202009062300 METAR MRLM NIL=
202009070000 METAR MRLM NIL=
202009070100 METAR MRLM NIL=
202009070200 METAR MRLM NIL=
202009070300 METAR MRLM NIL=
202009070400 METAR MRLM NIL=
202009070500 METAR MRLM NIL=
202009070600 METAR MRLM NIL=
202009070700 METAR MRLM NIL=
202009070800 METAR MRLM NIL=
202009070900 METAR MRLM NIL=
202009071000 METAR MRLM NIL=
202009071100 METAR MRLM NIL=
202009071200 METAR MRLM 071200Z 00000KT 9999 VCSH FEW020 BKN200 23/22 A2980=
202009071300 METAR MRLM 071300Z 25004KT 9999 FEW020 BKN200 26/23 A2981=
202009071400 METAR MRLM 071400Z 27003KT CAVOK 29/24 A2984=
202009071500 METAR MRLM 071500Z 01002KT 9999 FEW020 BKN240 31/24 A2984=
202009071600 METAR MRLM 071600Z 02007KT 9999 FEW020 BKN240 31/24 A2982=
202009071700 METAR MRLM 071700Z 02010KT 9999 FEW030 BKN240 31/25 A2982=
202009071800 METAR MRLM 071800Z 02012KT 9999 FEW030 BKN240 31/26 A2980=
202009071900 METAR MRLM 071900Z 02010KT 9999 SCT020 OVC120 30/25 A2978=
202009072000 METAR MRLM 072000Z 02005KT 9999 SCT020 OVC120 29/26 A2975=
202009072100 METAR MRLM 072100Z 05011KT 9999 FEW020 OVC120 29/25 A2974=
202009072200 METAR MRLM 072200Z 07004KT 9999 VCTS FEW020 OVC120 29/23 A2977=
202009072300 METAR MRLM 072300Z 21005KT 9999 VCSH FEW015TCU OVC100 26/23 A2976=
202009080000 METAR MRLM 080000Z 21004KT 9999 VCSH FEW015 OVC100 25/22 A2976=
202009080100 METAR MRLM NIL=
202009080200 METAR MRLM NIL=
202009080300 METAR MRLM NIL=
202009080400 METAR MRLM NIL=
202009080500 METAR MRLM NIL=
202009080600 METAR MRLM NIL=
202009080700 METAR MRLM NIL=
202009080800 METAR MRLM NIL=
202009080900 METAR MRLM NIL=
202009081000 METAR MRLM NIL=
202009081100 METAR MRLM NIL=
202009081200 METAR MRLM 081200Z 24004KT CAVOK 23/21 A2981=
202009081300 METAR MRLM 081300Z 24004KT CAVOK 26/22 A2982=
202009081400 METAR MRLM 081400Z 29002KT CAVOK 29/23 A2984=
202009081500 METAR MRLM 081500Z 09003KT CAVOK 29/23 A2984=
202009081600 METAR MRLM 081600Z 09006KT CAVOK 30/24 A2984=
202009081700 METAR MRLM 081700Z 09006KT CAVOK 30/23 A2984=
202009081800 METAR MRLM 081800Z 10009KT 9999 FEW030 SCT250 31/23 A2981=
202009081900 METAR MRLM 081900Z 08009KT 9999 FEW030 SCT250 31/24 A2978=
202009082000 METAR MRLM 082000Z 08010KT 9999 FEW030 SCT250 31/24 A2976=
202009082100 METAR MRLM 082100Z 08011KT 9999 FEW030 BKN250 30/24 A2975=
202009082200 METAR MRLM 082200Z 11007KT 9999 FEW020 BKN230 30/24 A2974=
202009082300 METAR MRLM 082300Z 12008KT 9999 FEW020 BKN230 30/24 A2976=
202009090000 METAR MRLM 090000Z 17004KT 9999 FEW015 BKN220 28/24 A2977=
202009090100 METAR MRLM NIL=
202009090200 METAR MRLM NIL=
202009090300 METAR MRLM NIL=
202009090400 METAR MRLM NIL=
202009090500 METAR MRLM NIL=
202009090600 METAR MRLM NIL=
202009090700 METAR MRLM NIL=
202009090800 METAR MRLM NIL=
202009090900 METAR MRLM NIL=
202009091000 METAR MRLM NIL=
202009091100 METAR MRLM NIL=
202009091200 METAR MRLM 091200Z 23005KT CAVOK 23/22 A2985=
202009091300 METAR MRLM 091300Z 25004KT CAVOK 27/23 A2988=
202009091400 METAR MRLM 091400Z 25003KT CAVOK 29/24 A2988=
202009091500 METAR MRLM 091500Z 04005KT 9999 FEW030 SCT250 30/24 A2988=
202009091600 METAR MRLM 091600Z 02007KT 9999 FEW030 SCT250 30/25 A2989=
202009091700 METAR MRLM 091700Z 04006KT 9999 FEW030 SCT250 31/25 A2989=
202009091800 METAR MRLM 091800Z 05006KT CAVOK 31/24 A2987=
202009091900 METAR MRLM 091900Z 05007KT 9999 FEW030 BKN250 31/24 A2984=
202009092000 METAR MRLM 092000Z 04007KT 9999 SCT030 BKN250 31/25 A2983=
202009092100 METAR MRLM 092100Z 04006KT 9999 SCT030 31/25 A2983=
202009092200 METAR MRLM 092200Z 08004KT 9999 BKN025 30/25 A2982=
202009092300 METAR MRLM 092300Z 08004KT 9999 BKN025 30/25 A2984=
202009100000 METAR MRLM 100000Z 00000KT 9999 SCT020 29/25 A2987=
202009100100 METAR MRLM NIL=
202009100200 METAR MRLM NIL=
202009100300 METAR MRLM NIL=
202009100400 METAR MRLM NIL=
202009100500 METAR MRLM NIL=
202009100600 METAR MRLM NIL=
202009100700 METAR MRLM NIL=
202009100800 METAR MRLM NIL=
202009100900 METAR MRLM NIL=
202009101000 METAR MRLM NIL=
202009101100 METAR MRLM NIL=
202009101200 METAR MRLM 101200Z 23005KT CAVOK 23/22 A2990=
202009101300 METAR MRLM 101300Z 24004KT CAVOK 26/23 A2990=
202009101400 METAR MRLM 101400Z 00000KT CAVOK 27/24 A2992=
202009101500 METAR MRLM 101500Z 00000KT 9999 FEW030 BKN240 29/24 A2993=
202009101600 METAR MRLM 101600Z 05004KT 9999 FEW030 BKN240 30/24 A2993=
202009101700 METAR MRLM 101700Z 06004KT CAVOK 30/25 A2990=
202009101800 METAR MRLM 101800Z 07004KT CAVOK 30/25 A2988=
202009101900 METAR MRLM 101900Z 09006KT 9999 FEW030 BKN250 31/25 A2984=
202009102000 METAR MRLM 102000Z 07008KT 9999 FEW030 BKN250 31/25 A2981=
202009102100 METAR MRLM 102100Z 08007KT 9999 FEW025 BKN240 30/25 A2980=
202009102200 METAR MRLM 102200Z 08006KT 9999 FEW025 BKN240 30/25 A2979=
202009102300 METAR MRLM 102300Z 09004KT 9999 FEW025 BKN240 30/25 A2980=
202009110000 METAR MRLM 110000Z 09005KT 9999 FEW020 BKN230 29/24 A2983=
202009110100 METAR MRLM NIL=
202009110200 METAR MRLM NIL=
202009110300 METAR MRLM NIL=
202009110400 METAR MRLM NIL=
202009110500 METAR MRLM NIL=
202009110600 METAR MRLM NIL=
202009110700 METAR MRLM NIL=
202009110800 METAR MRLM NIL=
202009110900 METAR MRLM NIL=
202009111000 METAR MRLM NIL=
202009111100 METAR MRLM NIL=
202009111200 METAR MRLM 111200Z 25005KT 9999 FEW020 24/22 A2984=
202009111300 METAR MRLM 111300Z 24003KT 9999 FEW020 27/23 A2984=
202009111400 METAR MRLM 111400Z 26002KT 9999 FEW020 30/24 A2986=
202009111500 METAR MRLM 111500Z 07004KT 9999 FEW030 30/23 A2987=
202009111600 METAR MRLM 111600Z 06004KT 9999 FEW030 31/24 A2987=
202009111700 METAR MRLM 111700Z 06007KT 9999 FEW030 31/25 A2986=
202009111800 METAR MRLM 111800Z 06007KT 9999 FEW030 SCT230 31/26 A2983=
202009111900 METAR MRLM 111900Z 06008KT 9999 FEW030 SCT230 31/26 A2979=
202009112000 METAR MRLM 112000Z 05006KT 9999 SCT030 SCT230 31/26 A2978=
202009112100 METAR MRLM 112100Z 06005KT 9999 SCT030 SCT230 31/25 A2976=
202009112200 METAR MRLM 112200Z 05005KT 9999 SCT025 SCT220 30/25 A2975=
202009112300 METAR MRLM 112300Z 04005KT 9999 SCT025 BKN220 30/25 A2976=
202009120000 METAR MRLM 120000Z 13002KT 9999 SCT020 BKN220 29/25 A2976=
202009120100 METAR MRLM NIL=
202009120200 METAR MRLM NIL=
202009120300 METAR MRLM NIL=
202009120400 METAR MRLM NIL=
202009120500 METAR MRLM NIL=
202009120600 METAR MRLM NIL=
202009120700 METAR MRLM NIL=
202009120800 METAR MRLM NIL=
202009120900 METAR MRLM NIL=
202009121000 METAR MRLM NIL=
202009121100 METAR MRLM NIL=
202009121200 METAR MRLM 121200Z 24005KT 9999 FEW015 BKN100 24/23 A2978=
202009121300 METAR MRLM 121300Z 22004KT 9999 FEW015 SCT200 25/23 A2979=
202009121400 METAR MRLM 121400Z 10002KT 9999 FEW020 SCT220 29/24 A2981=
202009121500 METAR MRLM 121500Z 09005KT 9999 FEW020TCU SCT130 31/23 A2983=
202009121600 METAR MRLM 121600Z 08005KT 9999 FEW020TCU 30/24 A2983=
202009121700 METAR MRLM 121700Z 07006KT 9999 FEW030 31/24 A2981=
202009121800 METAR MRLM 121800Z 08007KT 9999 FEW030 SCT250 31/25 A2977=
202009121900 METAR MRLM 121900Z 07008KT 9999 FEW030 SCT250 31/25 A2973=
202009122000 METAR MRLM 122000Z 06008KT 9999 FEW030 SCT250 31/25 A2971=
202009122100 METAR MRLM 122100Z 06008KT 9999 FEW030 BKN250 30/25 A2971=
202009122200 METAR MRLM 122200Z 07008KT 9999 FEW025 BKN230 30/24 A2971=
202009122300 METAR MRLM 122300Z 05005KT 9999 FEW025 BKN230 30/24 A2974=
202009130000 METAR MRLM 130000Z 05003KT 9999 FEW020 BKN200 30/24 A2975=
202009130100 METAR MRLM NIL=
202009130200 METAR MRLM NIL=
202009130300 METAR MRLM NIL=
202009130400 METAR MRLM NIL=
202009130500 METAR MRLM NIL=
202009130600 METAR MRLM NIL=
202009130700 METAR MRLM NIL=
202009130800 METAR MRLM NIL=
202009130900 METAR MRLM NIL=
202009131000 METAR MRLM NIL=
202009131100 METAR MRLM NIL=
202009131200 METAR MRLM 131200Z 24003KT 9999 -DZ VCSH FEW015 OVC100 24/23 A2981=
202009131300 METAR MRLM 131300Z 21003KT 9999 FEW015 OVC100 24/23 A2982=
202009131400 METAR MRLM 131400Z 32002KT 9999 FEW015 OVC100 25/23 A2986=
202009131500 METAR MRLM 131500Z 25004KT 9999 FEW015 BKN100 27/24 A2986=
202009131600 METAR MRLM 131600Z 31005KT 9999 FEW020 BKN120 28/22 A2986=
202009131700 METAR MRLM 131700Z 31007KT 9999 FEW020 BKN120 29/23 A2987=
202009131800 METAR MRLM 131800Z 31006KT 9999 FEW020 BKN200 29/24 A2983=
202009131900 METAR MRLM 131900Z 30005KT 9999 FEW020 OVC200 29/24 A2980=
202009132000 METAR MRLM 132000Z 30005KT 9999 FEW020 OVC200 29/24 A2977=
202009132100 METAR MRLM 132100Z 33008KT 9999 FEW020 OVC200 29/25 A2977=
202009132200 METAR MRLM 132200Z 35009KT 9999 SCT020 OVC200 29/24 A2978=
202009132300 METAR MRLM NIL=
202009140000 METAR MRLM NIL=
202009140100 METAR MRLM NIL=
202009140200 METAR MRLM NIL=
202009140300 METAR MRLM NIL=
202009140400 METAR MRLM NIL=
202009140500 METAR MRLM NIL=
202009140600 METAR MRLM NIL=
202009140700 METAR MRLM NIL=
202009140800 METAR MRLM NIL=
202009140900 METAR MRLM NIL=
202009141000 METAR MRLM NIL=
202009141100 METAR MRLM NIL=
202009141200 METAR MRLM 141200Z 25004KT 9999 VCTS VCSH FEW015 SCT090 24/23 A2988=
202009141300 METAR MRLM 141300Z 25003KT 9999 VCTS FEW015 SCT090 27/23 A2990=
202009141400 METAR MRLM 141400Z 27002KT 9999 VCTS FEW020 BKN100 27/24 A2993=
202009141500 METAR MRLM 141500Z 24003KT 9999 FEW020TCU BKN100 28/24 A2995=
202009141600 METAR MRLM 141600Z 04002KT 9999 FEW020 BKN100 29/24 A2995=
202009141700 METAR MRLM 141700Z 36004KT 9999 FEW020 BKN120 30/24 A2991=
202009141800 METAR MRLM 141800Z 33005KT 9999 FEW020 BKN200 30/25 A2987=
202009141900 METAR MRLM 141900Z 36010KT 9999 SCT020 BKN200 30/25 A2985=
202009142000 METAR MRLM 142000Z 36012KT 9999 SCT020 BKN200 29/25 A2984=
202009142100 METAR MRLM 142100Z 36011KT 9999 FEW020 BKN200 29/25 A2979=
202009142200 METAR MRLM 142200Z 36009KT 9999 FEW020 BKN200 29/25 A2981=
202009142300 METAR MRLM NIL=
202009150000 METAR MRLM NIL=
202009150100 METAR MRLM NIL=
202009150200 METAR MRLM NIL=
202009150300 METAR MRLM NIL=
202009150400 METAR MRLM NIL=
202009150500 METAR MRLM NIL=
202009150600 METAR MRLM NIL=
202009150700 METAR MRLM NIL=
202009150800 METAR MRLM NIL=
202009150900 METAR MRLM NIL=
202009151000 METAR MRLM NIL=
202009151100 METAR MRLM NIL=
202009151200 METAR MRLM 151200Z 24003KT 9999 FEW020 SCT200 24/23 A2990=
202009151300 METAR MRLM 151300Z 22004KT CAVOK 27/24 A2991=
202009151400 METAR MRLM 151400Z 21003KT 9999 FEW020 SCT220 30/24 A2992=
202009151500 METAR MRLM 151500Z 06004KT 9999 FEW030 SCT220 30/24 A2992=
202009151600 METAR MRLM 151600Z 06007KT 9999 FEW030 SCT220 31/25 A2995=
202009151700 METAR MRLM 151700Z 06007KT 9999 FEW030 SCT240 31/25 A2994=
202009151800 METAR MRLM 151800Z 07007KT 9999 FEW030 SCT240 31/25 A2991=
202009151900 METAR MRLM 151900Z 07007KT 9999 FEW030 BKN240 31/26 A2988=
202009152000 METAR MRLM 152000Z 07009KT CAVOK 31/25 A2984=
202009152100 METAR MRLM 152100Z 08007KT CAVOK 31/25 A2983=
202009152200 METAR MRLM 152200Z 07003KT 9999 FEW030 BKN250 30/26 A2983=
202009152300 METAR MRLM NIL=
202009160000 METAR MRLM NIL=
202009160100 METAR MRLM NIL=
202009160200 METAR MRLM NIL=
202009160300 METAR MRLM NIL=
202009160400 METAR MRLM NIL=
202009160500 METAR MRLM NIL=
202009160600 METAR MRLM NIL=
202009160700 METAR MRLM NIL=
202009160800 METAR MRLM NIL=
202009160900 METAR MRLM NIL=
202009161000 METAR MRLM NIL=
202009161100 METAR MRLM NIL=
202009161200 METAR MRLM 161200Z 23003KT 9999 VCSH FEW015 SCT090 BKN200 24/24 A2989=
202009161300 METAR MRLM 161300Z 26003KT 9999 FEW015 SCT090 BKN200 26/25 A2992=
202009161400 METAR MRLM 161400Z 27003KT 9999 FEW020 BKN200 28/25 A2995=
202009161500 METAR MRLM 161500Z 27004KT 9999 FEW020 BKN200 29/25 A2995=
202009161600 METAR MRLM 161600Z 36007KT 9999 FEW020TCU SCT120 BKN220 30/25 A2995=
202009161700 METAR MRLM 161700Z 32006KT 9999 FEW020TCU BKN120 30/24 A2991=
202009161800 METAR MRLM 161800Z 23004KT 9999 FEW020 BKN120 30/25 A2987=
202009161900 METAR MRLM 161900Z 15003KT 9999 FEW020 BKN120 30/25 A2982=
202009162000 METAR MRLM 162000Z 03011KT 9999 FEW020 BKN120 29/25 A2980=
202009162100 METAR MRLM 162100Z 35006KT 9999 FEW020 SCT120 BKN220 29/25 A2974=
202009162200 METAR MRLM 162200Z 36008KT 9999 FEW020 SCT120 BKN220 29/25 A2980=
202009162300 METAR MRLM NIL=
202009170000 METAR MRLM NIL=
202009170100 METAR MRLM NIL=
202009170200 METAR MRLM NIL=
202009170300 METAR MRLM NIL=
202009170400 METAR MRLM NIL=
202009170500 METAR MRLM NIL=
202009170600 METAR MRLM NIL=
202009170700 METAR MRLM NIL=
202009170800 METAR MRLM NIL=
202009170900 METAR MRLM NIL=
202009171000 METAR MRLM NIL=
202009171100 METAR MRLM NIL=
202009171200 METAR MRLM 171200Z 24004KT 9999 FEW015TCU SCT200 24/23 A2987=
202009171300 METAR MRLM 171300Z 23004KT 9999 FEW015TCU SCT200 27/24 A2988=
202009171400 METAR MRLM 171400Z 20002KT 9999 FEW020 SCT200 30/25 A2990=
202009171500 METAR MRLM 171500Z 07004KT 9999 FEW020TCU SCT220 30/25 A2990=
202009171600 METAR MRLM 171600Z 06005KT 9999 FEW020 30/26 A2991=
202009171700 METAR MRLM 171700Z 05006KT 9999 FEW020 30/25 A2989=
202009171800 METAR MRLM 171800Z 04006KT 9999 FEW030 30/25 A2986=
202009171900 METAR MRLM 171900Z 04006KT 9999 FEW030 31/25 A2982=
202009172000 METAR MRLM 172000Z 04005KT 9999 FEW030 3/25 A2979=
202009172100 METAR MRLM 172100Z 04006KT 9999 FEW030 30/25 A2978=
202009172200 METAR MRLM 172200Z 06007KT 9999 SCT030 30/25 A2978=
202009172300 METAR MRLM NIL=
202009180000 METAR MRLM NIL=
202009180100 METAR MRLM NIL=
202009180200 METAR MRLM NIL=
202009180300 METAR MRLM NIL=
202009180400 METAR MRLM NIL=
202009180500 METAR MRLM NIL=
202009180600 METAR MRLM NIL=
202009180700 METAR MRLM NIL=
202009180800 METAR MRLM NIL=
202009180900 METAR MRLM NIL=
202009181000 METAR MRLM NIL=
202009181100 METAR MRLM NIL=
202009181200 METAR MRLM 181200Z 24004KT 9999 FEW015 SCT090 24/22 A2985=
202009181300 METAR MRLM 181300Z 25004KT 9999 FEW015 SCT090 26/23 A2988=
202009181400 METAR MRLM 181400Z 26002KT 9999 FEW020 SCT220 28/24 A2989=
202009181500 METAR MRLM 181500Z 04004KT 9999 FEW020 SCT220 29/24 A2990=
202009181600 METAR MRLM 181600Z 03007KT 9999 FEW020 SCT220 31/25 A2990=
202009181700 METAR MRLM 181700Z 02008KT 9999 FEW030 SCT240 30/24 A2988=
202009181800 METAR MRLM 181800Z 04006KT 9999 VCTS FEW030 SCT240 30/25 A2986=
202009181900 METAR MRLM 181900Z 04006KT 9999 FEW025 SCT120 BKN240 30/25 A2983=
202009182000 METAR MRLM 182000Z 23004KT 9999 FEW025 BKN240 28/25 A2980=
202009182100 METAR MRLM 182100Z 04004KT 9999 FEW020TCU SCT025 BKN240 30/25 A2980=
202009182200 METAR MRLM 182200Z 05007KT 9999 SCT020 BKN220 30/24 A2980=
202009182300 METAR MRLM NIL=
202009190000 METAR MRLM NIL=
202009190100 METAR MRLM NIL=
202009190200 METAR MRLM NIL=
202009190300 METAR MRLM NIL=
202009190400 METAR MRLM NIL=
202009190500 METAR MRLM NIL=
202009190600 METAR MRLM NIL=
202009190700 METAR MRLM NIL=
202009190800 METAR MRLM NIL=
202009190900 METAR MRLM NIL=
202009191000 METAR MRLM NIL=
202009191100 METAR MRLM NIL=
202009191200 METAR MRLM 191200Z 25005KT 9999 FEW015 BKN200 23/22 A2985=
202009191300 METAR MRLM 191300Z 23004KT CAVOK 25/22 A2987=
202009191400 METAR MRLM 191400Z 00000KT CAVOK 30/23 A2988=
202009191500 METAR MRLM 191500Z 06004KT CAVOK 30/23 A2988=
202009191600 METAR MRLM 191600Z 36009KT CAVOK 31/23 A2987=
202009191700 METAR MRLM 191700Z 35007KT CAVOK 31/23 A2985=
202009191800 METAR MRLM 191800Z 01010KT CAVOK 31/24 A2983=
202009191900 METAR MRLM 191900Z 01010KT CAVOK 31/24 A2980=
202009192000 METAR MRLM 192000Z 01012KT 9999 FEW030 31/25 A2978=
202009192100 METAR MRLM 192100Z 01009KT 9999 FEW030 SCT250 30/24 A2978=
202009192200 METAR MRLM 192200Z 02006KT 9999 FEW030 SCT250 30/24 A2978=
202009192300 METAR MRLM NIL=
202009200000 METAR MRLM NIL=
202009200100 METAR MRLM NIL=
202009200200 METAR MRLM NIL=
202009200300 METAR MRLM NIL=
202009200400 METAR MRLM NIL=
202009200500 METAR MRLM NIL=
202009200600 METAR MRLM NIL=
202009200700 METAR MRLM NIL=
202009200800 METAR MRLM NIL=
202009200900 METAR MRLM NIL=
202009201000 METAR MRLM NIL=
202009201100 METAR MRLM NIL=
202009201200 METAR MRLM 201200Z 26003KT 9999 FEW010 BKN090 24/24 A2987=
202009201300 METAR MRLM 201300Z 28003KT 9999 VCTS FEW010 BKN090 25/24 A2988=
202009201400 METAR MRLM 201400Z 27004KT 9999 VCTS VCSH SCT010 OVC090 25/24 A2990=
202009201500 METAR MRLM 201500Z 22003KT 8000 +DZ SCT010 OVC080 25/24 A2992=
202009201600 METAR MRLM 201600Z 29002KT 8000 +DZ FEW007 OVC080 25/24 A2991=
202009201700 METAR MRLM 201700Z 25005KT 9999 -DZ FEW007 OVC080 26/25 A2989=
202009201800 METAR MRLM 201800Z 26003KT 9999 FEW010 BKN090 28/24 A2986 REDZ=
202009201900 METAR MRLM 201900Z 36004KT 9999 FEW010 BKN090 29/23 A2983=
202009202000 METAR MRLM 202000Z 05005KT 9999 FEW020 SCT100 BKN200 29/24 A2981=
202009202100 METAR MRLM 202100Z 05010KT 9999 FEW020 BKN200 28/24 A2981=
202009202200 METAR MRLM 202200Z 07005KT 9999 FEW020 BKN200 28/24 A2981=
202009202300 METAR MRLM NIL=
202009210000 METAR MRLM NIL=
202009210100 METAR MRLM NIL=
202009210200 METAR MRLM NIL=
202009210300 METAR MRLM NIL=
202009210400 METAR MRLM NIL=
202009210500 METAR MRLM NIL=
202009210600 METAR MRLM NIL=
202009210700 METAR MRLM NIL=
202009210800 METAR MRLM NIL=
202009210900 METAR MRLM NIL=
202009211000 METAR MRLM NIL=
202009211100 METAR MRLM NIL=
202009211200 METAR MRLM 211200Z 23005KT CAVOK 23/22 A2986=
202009211300 METAR MRLM 211300Z 25004KT CAVOK 25/23 A2986=
202009211400 METAR MRLM 211400Z 25003KT CAVOK 29/23 A2988=
202009211500 METAR MRLM 211500Z 05005KT CAVOK 30/24 A2989=
202009211600 METAR MRLM 211600Z 03006KT CAVOK 30/24 A2989=
202009211700 METAR MRLM 211700Z 02007KT CAVOK 30/24 A2987=
202009211800 METAR MRLM 211800Z 03005KT CAVOK 30/24 A2985=
202009211900 METAR MRLM 211900Z 07004KT CAVOK 30/24 A2983=
202009212000 METAR MRLM 212000Z 07005KT CAVOK 30/24 A2981=
202009212100 METAR MRLM 212100Z 05004KT 9999 FEW025 BKN240 30/24 A2980=
202009212200 METAR MRLM 212200Z 05005KT 9999 SCT025 BKN230 29/25 A2980=
202009212300 METAR MRLM 212300Z 04004KT 9999 FEW020 BKN230 29/24 A2981=
202009220000 METAR MRLM NIL=
202009220100 METAR MRLM NIL=
202009220200 METAR MRLM NIL=
202009220300 METAR MRLM NIL=
202009220400 METAR MRLM NIL=
202009220500 METAR MRLM NIL=
202009220600 METAR MRLM NIL=
202009220700 METAR MRLM NIL=
202009220800 METAR MRLM NIL=
202009220900 METAR MRLM NIL=
202009221000 METAR MRLM NIL=
202009221100 METAR MRLM NIL=
202009221200 METAR MRLM 221200Z 23004KT CAVOK 24/23 A2985=
202009221300 METAR MRLM 221300Z 24004KT CAVOK 25/23 A2987=
202009221400 METAR MRLM 221400Z 02005KT 9999 FEW020 BKN130 27/24 A2988=
202009221500 METAR MRLM 221500Z 31004KT 9999 FEW020 BKN130 28/24 A2988=
202009221600 METAR MRLM 221600Z 00000KT CAVOK 29/23 A2988=
202009221700 METAR MRLM 221700Z 01009KT CAVOK 30/24 A2987=
202009221800 METAR MRLM 221800Z 03007KT CAVOK 30/24 A2983=
202009221900 METAR MRLM 221900Z 02008KT CAVOK 30/24 A2982=
202009222000 METAR MRLM 222000Z 03009KT CAVOK 31/24 A2980=
202009222100 METAR MRLM 222100Z 05006KT CAVOK 30/24 A2979=
202009222200 METAR MRLM 222200Z 05004KT 9999 FEW025 BKN240 29/25 A2981=
202009222300 METAR MRLM 222300Z 00000KT 9999 FEW020 BKN220 28/25 A2982=
202009230000 METAR MRLM NIL=
202009230100 METAR MRLM NIL=
202009230200 METAR MRLM NIL=
202009230300 METAR MRLM NIL=
202009230400 METAR MRLM NIL=
202009230500 METAR MRLM NIL=
202009230600 METAR MRLM NIL=
202009230700 METAR MRLM NIL=
202009230800 METAR MRLM NIL=
202009230900 METAR MRLM NIL=
202009231000 METAR MRLM NIL=
202009231100 METAR MRLM NIL=
202009231200 METAR MRLM 231200Z 20005KT 9999 SCT015 BKN100 24/23 A2985=
202009231300 METAR MRLM 231300Z 22003KT 9999 SCT015 BKN100 25/23 A2987=
202009231400 METAR MRLM 231400Z 23003KT 9999 FEW015 BKN100 26/24 A2989=
202009231500 METAR MRLM 231500Z 09002KT 9999 FEW020 BKN100 28/24 A2989=
202009231600 METAR MRLM 231600Z 05004KT 9999 FEW020 SCT120 BKN220 30/25 A2988=
202009231700 METAR MRLM 231700Z 02008KT 9999 FEW020 SCT120 BKN220 29/25 A2988=
202009231800 METAR MRLM 231800Z 01010KT CAVOK 30/25 A2986=
202009231900 METAR MRLM 231900Z 36010KT 9999 -DZ FEW020 BKN220 29/25 A2983=
202009232000 METAR MRLM 232000Z 34008KT 9999 FEW020 BKN220 29/24 A2982=
202009232100 METAR MRLM 232100Z 34007KT 9999 SCT020 BKN200 29/25 A2982=
202009232200 METAR MRLM 232200Z 34006KT 9999 SCT015 BKN200 29/24 A2982=
202009232300 METAR MRLM 232300Z 30003KT 9999 SCT015 BKN200 28/24 A2984=
202009240000 METAR MRLM 240000Z 23003KT 9999 -DZ SCT015 BKN200 27/24 A2985=
202009240100 METAR MRLM NIL=
202009240200 METAR MRLM NIL=
202009240300 METAR MRLM NIL=
202009240400 METAR MRLM NIL=
202009240500 METAR MRLM NIL=
202009240600 METAR MRLM NIL=
202009240700 METAR MRLM NIL=
202009240800 METAR MRLM NIL=
202009240900 METAR MRLM NIL=
202009241000 METAR MRLM NIL=
202009241100 METAR MRLM NIL=
202009241200 METAR MRLM 241200Z 23005KT 9999 FEW015 SCT090 BKN200 23/22 A2988=
202009241300 METAR MRLM 241300Z 22004KT 9999 FEW015 BKN200 25/23 A2988=
202009241400 METAR MRLM 241400Z 27003KT 9999 FEW020 BKN220 28/24 A2990=
202009241500 METAR MRLM 241500Z 03005KT 9999 FEW020 BKN220 29/24 A2991=
202009241600 METAR MRLM 241600Z 02007KT 9999 FEW020 BKN220 30/24 A2991=
202009241700 METAR MRLM 241700Z 01009KT 9999 FEW020 BKN220 30/24 A2991=
202009241800 METAR MRLM 241800Z 02009KT 9999 FEW020 BKN220 30/24 A2989=
202009241900 METAR MRLM 241900Z 36008KT 9999 FEW020 BKN120 29/24 A2986=
202009242000 METAR MRLM 242000Z 36008KT 9999 FEW020 BKN120 29/25 A2985=
202009242100 METAR MRLM 242100Z 03006KT 9999 SCT020 OVC120 29/25 A2985=
202009242200 METAR MRLM 242200Z 03007KT 9999 SCT015 OVC100 29/24 A2985=
202009242300 METAR MRLM 242300Z 07007KT 9999 -DZ SCT015 OVC100 28/25 A2987=
202009250000 METAR MRLM 250000Z 11006KT 9999 -DZ SCT015 OVC100 28/25 A2989=
202009250100 METAR MRLM NIL=
202009250200 METAR MRLM NIL=
202009250300 METAR MRLM NIL=
202009250400 METAR MRLM NIL=
202009250500 METAR MRLM NIL=
202009250600 METAR MRLM NIL=
202009250700 METAR MRLM NIL=
202009250800 METAR MRLM NIL=
202009250900 METAR MRLM NIL=
202009251000 METAR MRLM NIL=
202009251100 METAR MRLM NIL=
202009251200 METAR MRLM 251200Z 23004KT CAVOK 22/22 A2993=
202009251300 METAR MRLM 251300Z 22004KT CAVOK 24/23 A2996=
202009251400 METAR MRLM 251400Z 22004KT CAVOK 25/23 A2997=
202009251500 METAR MRLM 251500Z 24003KT CAVOK 26/23 A2998=
202009251600 METAR MRLM 251600Z 00000KT CAVOK 29/23 A2998=
202009251700 METAR MRLM 251700Z 26004KT CAVOK 30/23 A2996=
202009251800 METAR MRLM 251800Z 02010KT 9999 FEW030 BKN140 30/23 A2993=
202009251900 METAR MRLM 251900Z 36011KT CAVOK 30/23 A2992=
202009252000 METAR MRLM 252000Z 01010KT CAVOK 30/24 A2989=
202009252100 METAR MRLM 252100Z 03009KT 9999 SCT025 BKN120 29/24 A2990=
202009252200 METAR MRLM 252200Z 07010KT 9999 SCT025 BKN120 28/24 A2990=
202009252300 METAR MRLM 252300Z 18006KT 9999 SCT015 BKN120 26/23 A2992=
202009260000 METAR MRLM 260000Z 17006KT 9999 FEW010 BKN120 24/22 A2993=
202009260100 METAR MRLM NIL=
202009260200 METAR MRLM NIL=
202009260300 METAR MRLM NIL=
202009260400 METAR MRLM NIL=
202009260500 METAR MRLM NIL=
202009260600 METAR MRLM NIL=
202009260700 METAR MRLM NIL=
202009260800 METAR MRLM NIL=
202009260900 METAR MRLM NIL=
202009261000 METAR MRLM NIL=
202009261100 METAR MRLM NIL=
202009261200 METAR MRLM 261200Z 00000KT CAVOK 23/22 A2992=
202009261300 METAR MRLM 261300Z 22004KT CAVOK 25/23 A2994=
202009261400 METAR MRLM 261400Z 20003KT CAVOK 29/22 A2996=
202009261500 METAR MRLM 261500Z 06003KT CAVOK 29/22 A2997=
202009261600 METAR MRLM 261600Z 06004KT CAVOK 30/21 A2997=
202009261700 METAR MRLM 261700Z 04006KT CAVOK 30/23 A2995=
202009261800 METAR MRLM 261800Z 08007KT CAVOK 30/24 A2991=
202009261900 METAR MRLM 261900Z 07010KT CAVOK 31/23 A2989=
202009262000 METAR MRLM 262000Z 06010KT CAVOK 31/23 A2985=
202009262100 METAR MRLM 262100Z 07007KT CAVOK 30/23 A2983=
202009262200 METAR MRLM 262200Z 07005KT CAVOK 30/23 A2983=
202009262300 METAR MRLM 262300Z 09004KT CAVOK 29/23 A2983=
202009270000 METAR MRLM 270000Z 07005KT CAVOK 29/23 A2985=
202009270100 METAR MRLM NIL=
202009270200 METAR MRLM NIL=
202009270300 METAR MRLM NIL=
202009270400 METAR MRLM NIL=
202009270500 METAR MRLM NIL=
202009270600 METAR MRLM NIL=
202009270700 METAR MRLM NIL=
202009270800 METAR MRLM NIL=
202009270900 METAR MRLM NIL=
202009271000 METAR MRLM NIL=
202009271100 METAR MRLM NIL=
202009271200 METAR MRLM 271200Z 23004KT CAVOK 23/22 A2986=
202009271300 METAR MRLM 271300Z 23003KT CAVOK 25/23 A2988=
202009271400 METAR MRLM 271400Z 24004KT CAVOK 27/24 A2992=
202009271500 METAR MRLM 271500Z 27003KT 9999 FEW030 SCT250 30/24 A2991=
202009271600 METAR MRLM 271600Z 06004KT 9999 FEW030 BKN250 30/24 A2991=
202009271700 METAR MRLM 271700Z 04006KT 9999 FEW030 BKN240 30/24 A2990=
202009271800 METAR MRLM 271800Z 05009KT CAVOK 30/25 A2988=
202009271900 METAR MRLM 271900Z 08025KT 9999 BKN020 26/22 A2985=
202009272000 METAR MRLM 272000Z 23004KT 9999 FEW020 BKN120 25/23 A2985=
202009272100 METAR MRLM 272100Z 19004KT 9999 FEW020 BKN120 24/21 A2982=
202009272200 METAR MRLM 272200Z 14004KT 9999 FEW020 BKN130 25/22 A2981=
202009272300 METAR MRLM NIL=
202009280000 METAR MRLM NIL=
202009280100 METAR MRLM NIL=
202009280200 METAR MRLM NIL=
202009280300 METAR MRLM NIL=
202009280400 METAR MRLM NIL=
202009280500 METAR MRLM NIL=
202009280600 METAR MRLM NIL=
202009280700 METAR MRLM NIL=
202009280800 METAR MRLM NIL=
202009280900 METAR MRLM NIL=
202009281000 METAR MRLM NIL=
202009281100 METAR MRLM NIL=
202009281200 METAR MRLM 281200Z 23003KT 9999 FEW015 SCT100 21/20 A2983=
202009281300 METAR MRLM 281300Z 25003KT 9999 FEW015 SCT100 25/22 A2984=
202009281400 METAR MRLM 281400Z 23002KT 9999 FEW020 SCT120 28/23 A2985=
202009281500 METAR MRLM 281500Z 19002KT 9999 FEW020 SCT120 30/23 A2985=
202009281600 METAR MRLM 281600Z 06004KT 9999 FEW030 30/23 A2986=
202009281700 METAR MRLM 281700Z 01014KT 9999 FEW030 SCT130 29/24 A2984=
202009281800 METAR MRLM 281800Z 08007KT 9999 FEW030 SCT130 30/24 A2980=
202009281900 METAR MRLM 281900Z 11012KT 9999 FEW030 BKN130 30/25 A2977=
202009282000 METAR MRLM 282000Z 11008KT 9999 FEW030 SCT130 BKN250 29/24 A2975=
202009282100 METAR MRLM NIL=
202009282200 METAR MRLM NIL=
202009282300 METAR MRLM NIL=
202009290000 METAR MRLM NIL=
202009290100 METAR MRLM NIL=
202009290200 METAR MRLM NIL=
202009290300 METAR MRLM NIL=
202009290400 METAR MRLM NIL=
202009290500 METAR MRLM NIL=
202009290600 METAR MRLM NIL=
202009290700 METAR MRLM NIL=
202009290800 METAR MRLM NIL=
202009290900 METAR MRLM NIL=
202009291000 METAR MRLM NIL=
202009291100 METAR MRLM NIL=
202009291200 METAR MRLM 291200Z 23003KT CAVOK 22/21 A2981=
202009291300 METAR MRLM 291300Z 24004KT CAVOK 24/22 A2983=
202009291400 METAR MRLM 291400Z 28003KT 9999 VCSH FEW020 BKN130 25/22 A2986=
202009291500 METAR MRLM 291500Z 10015KT 9999 DZ SCT015 BKN110 25/23 A2990 RERA=
202009291600 METAR MRLM 291600Z 12014KT 9999 DZ SCT020 BKN120 25/23 A2988=
202009291700 METAR MRLM 291700Z 12012KT 9999 FEW020 BKN120 27/23 A2987 REDZ=
202009291800 METAR MRLM 291800Z 13011KT CAVOK 28/24 A2983=
202009291900 METAR MRLM 291900Z 10008KT CAVOK 28/24 A2979=
202009292000 METAR MRLM 292000Z 10007KT CAVOK 29/24 A2976=
202009292100 METAR MRLM 292100Z 09007KT 330V050 CAVOK 29/24 A2975=
202009292200 METAR MRLM 292200Z 09008KT CAVOK 29/24 A2974=
202009292300 METAR MRLM 292300Z 09010KT CAVOK 28/23 A2976=
202009300000 METAR MRLM NIL=
202009300100 METAR MRLM NIL=
202009300200 METAR MRLM NIL=
202009300300 METAR MRLM NIL=
202009300400 METAR MRLM NIL=
202009300500 METAR MRLM NIL=
202009300600 METAR MRLM NIL=
202009300700 METAR MRLM NIL=
202009300800 METAR MRLM NIL=
202009300900 METAR MRLM NIL=
202009301000 METAR MRLM NIL=
202009301100 METAR MRLM NIL=
202009301200 METAR MRLM 301200Z 00000KT CAVOK 24/23 A2984=
202009301300 METAR MRLM 301300Z 24004KT CAVOK 26/24 A2986=
202009301400 METAR MRLM 301400Z 27003KT CAVOK 28/24 A2989=
202009301500 METAR MRLM 301500Z 31005KT CAVOK 30/22 A2988=
202009301600 METAR MRLM 301600Z 35006KT 9999 SCT030 30/22 A2989=
202009301700 METAR MRLM 301700Z 36009KT 9999 FEW030 SCT130 31/23 A2987=
202009301800 METAR MRLM 301800Z 02022KT 9999 VCSH BKN025 27/24 A2986=
202009301900 METAR MRLM 301900Z 36011KT 9999 FEW025 BKN130 27/23 A2984=
202009302000 METAR MRLM 302000Z 24006KT CAVOK 27/23 A2980=
202009302100 METAR MRLM 302100Z 24005KT CAVOK 26/23 A2980=
202009302200 METAR MRLM 302200Z 21004KT 9999 FEW025 BKN130 26/23 A2980=
202009302300 METAR MRLM 302300Z 23004KT 9999 FEW020 BKN120 26/24 A2981=
202010010000 METAR MRLM 010000Z 22004KT CAVOK 25/22 A2984=
202010010100 METAR MRLM NIL=
202010010200 METAR MRLM NIL=
202010010300 METAR MRLM NIL=
202010010400 METAR MRLM NIL=
202010010500 METAR MRLM NIL=
202010010600 METAR MRLM NIL=
202010010700 METAR MRLM NIL=
202010010800 METAR MRLM NIL=
202010010900 METAR MRLM NIL=
202010011000 METAR MRLM NIL=
202010011100 METAR MRLM NIL=
202010011200 METAR MRLM 011200Z 23002KT 9999 FEW015TCU SCT200 22/21 A2980=
202010011300 METAR MRLM 011300Z 27002KT 9999 FEW015 BKN200 22/21 A2983=
202010011400 METAR MRLM 011400Z 23004KT 9999 FEW015 BKN200 23/22 A2985=
202010011500 METAR MRLM 011500Z 22002KT 9999 FEW020 BKN120 25/23 A2987=
202010011600 METAR MRLM 011600Z 00000KT 9999 FEW020 BKN120 27/23 A2986=
202010011700 METAR MRLM 011700Z 24002KT 9999 FEW020 BKN120 28/23 A2985=
202010011800 METAR MRLM 011800Z 34006KT 9999 FEW020 BKN220 29/23 A2981=
202010011900 METAR MRLM 011900Z 35007KT 9999 SCT020 BKN220 28/24 A2978=
202010012000 METAR MRLM 012000Z 01009KT 9999 FEW020 BKN220 28/24 A2974=
202010012100 METAR MRLM 012100Z 01007KT 9999 FEW020 BKN220 28/24 A2973=
202010012200 METAR MRLM 012200Z 01007KT CAVOK 28/24 A2973=
202010012300 METAR MRLM 012300Z 03004KT CAVOK 27/24 A2975=
202010020000 METAR MRLM 020000Z 05002KT CAVOK 27/24 A2977=
202010020100 METAR MRLM NIL=
202010020200 METAR MRLM NIL=
202010020300 METAR MRLM NIL=
202010020400 METAR MRLM NIL=
202010020500 METAR MRLM NIL=
202010020600 METAR MRLM NIL=
202010020700 METAR MRLM NIL=
202010020800 METAR MRLM NIL=
202010020900 METAR MRLM NIL=
202010021000 METAR MRLM NIL=
202010021100 METAR MRLM NIL=
202010021200 METAR MRLM 021200Z 26002KT 9999 VCSH SCT015 BKN090 24/23 A2979=
202010021300 METAR MRLM 021300Z 22003KT 9999 VCSH SCT015 BKN090 24/23 A2982=
202010021400 METAR MRLM 021400Z 22003KT 9999 VCSH SCT015 OVC090 24/23 A2983=
202010021500 METAR MRLM 021500Z 22003KT 9999 FEW015 BKN090 25/24 A2983=
202010021600 METAR MRLM 021600Z 23002KT 9999 FEW020 BKN100 27/24 A2983=
202010021700 METAR MRLM 021700Z 27002KT 9999 FEW020 BKN100 28/24 A2981=
202010021800 METAR MRLM 021800Z 03002KT CAVOK 28/24 A2976=
202010021900 METAR MRLM 021900Z 04006KT 9999 FEW030 SCT220 29/24 A2973=
202010022000 METAR MRLM 022000Z 05007KT 9999 FEW030 SCT220 30/24 A2971=
202010022100 METAR MRLM 022100Z 06005KT CAVOK 29/24 A2970=
202010022200 METAR MRLM 022200Z 08005KT CAVOK 28/24 A2971=
202010022300 METAR MRLM 022300Z 18002KT CAVOK 27/25 A2972=
202010030000 METAR MRLM 030000Z 19003KT 9999 FEW020 SCT200 26/24 A2975=
202010030100 METAR MRLM NIL=
202010030200 METAR MRLM NIL=
202010030300 METAR MRLM NIL=
202010030400 METAR MRLM NIL=
202010030500 METAR MRLM NIL=
202010030600 METAR MRLM NIL=
202010030700 METAR MRLM NIL=
202010030800 METAR MRLM NIL=
202010030900 METAR MRLM NIL=
202010031000 METAR MRLM NIL=
202010031100 METAR MRLM NIL=
202010031200 METAR MRLM 031200Z 00000KT CAVOK 23/22 A2978=
202010031300 METAR MRLM 031300Z 00000KT CAVOK 26/23 A2979=
202010031400 METAR MRLM 031400Z 05004KT CAVOK 28/24 A2981=
202010031500 METAR MRLM 031500Z 08004KT CAVOK 29/24 A2983=
202010031600 METAR MRLM 031600Z 05004KT CAVOK 29/24 A2983=
202010031700 METAR MRLM 031700Z 03007KT CAVOK 30/23 A2982=
202010031800 METAR MRLM 031800Z 02007KT CAVOK 30/24 A2978=
202010031900 METAR MRLM 031900Z 03007KT CAVOK 30/23 A2976=
202010032000 METAR MRLM 032000Z 04005KT CAVOK 30/24 A2973=
202010032100 METAR MRLM 032100Z 05005KT 9999 FEW030 BKN250 30/23 A2972=
202010032200 METAR MRLM 032200Z 00000KT 9999 FEW030 BKN230 29/23 A2974=
202010032300 METAR MRLM 032300Z 23007KT 9999 FEW025 SCT130 BKN220 26/23 A2976=
202010040000 METAR MRLM 040000Z 21004KT CAVOK 24/22 A2979=
202010040100 METAR MRLM NIL=
202010040200 METAR MRLM NIL=
202010040300 METAR MRLM NIL=
202010040400 METAR MRLM NIL=
202010040500 METAR MRLM NIL=
202010040600 METAR MRLM NIL=
202010040700 METAR MRLM NIL=
202010040800 METAR MRLM NIL=
202010040900 METAR MRLM NIL=
202010041000 METAR MRLM NIL=
202010041100 METAR MRLM NIL=
202010041200 METAR MRLM 041200Z 22004KT CAVOK 23/22 A2983=
202010041300 METAR MRLM 041300Z 23004KT 9999 FEW025 BKN130 25/23 A2985=
202010041400 METAR MRLM 041400Z 00000KT CAVOK 28/23 A2987=
202010041500 METAR MRLM 041500Z 12006KT 9999 FEW030 BKN140 30/23 A2988=
202010041600 METAR MRLM 041600Z 12006KT 9999 FEW030 30/23 A2986=
202010041700 METAR MRLM 041700Z 09009KT 9999 FEW030 30/24 A2983=
202010041800 METAR MRLM 041800Z 09008KT CAVOK 30/24 A2982=
202010041900 METAR MRLM 041900Z 08009KT CAVOK 31/24 A2979=
202010042000 METAR MRLM 042000Z 05010KT CAVOK 30/24 A2977=
202010042100 METAR MRLM 042100Z 06006KT CAVOK 29/24 A2976=
202010042200 METAR MRLM 042200Z 19003KT CAVOK 28/24 A2976=
202010042300 METAR MRLM 042300Z 19004KT 9999 DZ FEW025 BKN120 26/23 A2978=
202010050000 METAR MRLM 050000Z 21005KT 9999 SCT025 BKN120 25/23 A2984 REDZ=
202010050100 METAR MRLM NIL=
202010050200 METAR MRLM NIL=
202010050300 METAR MRLM NIL=
202010050400 METAR MRLM NIL=
202010050500 METAR MRLM NIL=
202010050600 METAR MRLM NIL=
202010050700 METAR MRLM NIL=
202010050800 METAR MRLM NIL=
202010050900 METAR MRLM NIL=
202010051000 METAR MRLM NIL=
202010051100 METAR MRLM NIL=
202010051200 METAR MRLM 051200Z 23003KT 9999 FEW015 BKN100 23/23 A2983=
202010051300 METAR MRLM 051300Z 24003KT 9999 FEW015 BKN100 25/23 A2984=
202010051400 METAR MRLM 051400Z 20003KT 9999 FEW015 BKN100 28/24 A2986=
202010051500 METAR MRLM 051500Z 06004KT 9999 FEW020 BKN120 28/24 A2987=
202010051600 METAR MRLM 051600Z 01008KT 9999 FEW020 SCT220 30/24 A2986=
202010051700 METAR MRLM 051700Z 36011KT CAVOK 30/25 A2985=
202010051800 METAR MRLM 051800Z 36011KT CAVOK 30/25 A2981=
202010051900 METAR MRLM 051900Z 36012KT 9999 VCTS FEW030 BKN220 31/25 A2977=
202010052000 METAR MRLM 052000Z 35009KT 9999 FEW030 BKN220 29/25 A2976=
202010052100 METAR MRLM 052100Z 28004KT 9999 VCTS VCSH SCT020 OVC110 28/25 A2978=
202010052200 METAR MRLM 052200Z 25003KT 9999 DZ VCTS FEW015 OVC100 24/23 A2979=
202010052300 METAR MRLM NIL=
202010060000 METAR MRLM NIL=
202010060100 METAR MRLM NIL=
202010060200 METAR MRLM NIL=
202010060300 METAR MRLM NIL=
202010060400 METAR MRLM NIL=
202010060500 METAR MRLM NIL=
202010060600 METAR MRLM NIL=
202010060700 METAR MRLM NIL=
202010060800 METAR MRLM NIL=
202010060900 METAR MRLM NIL=
202010061000 METAR MRLM NIL=
202010061100 METAR MRLM NIL=
202010061200 METAR MRLM 061200Z 22005KT CAVOK 23/22 A2981=
202010061300 METAR MRLM 061300Z 24005KT CAVOK 24/23 A2982=
202010061400 METAR MRLM 061400Z 23004KT 9999 FEW020 SCT200 27/24 A2983=
202010061500 METAR MRLM 061500Z 15002KT 9999 FEW020 BKN200 28/24 A2984=
202010061600 METAR MRLM 061600Z 04002KT CAVOK 29/23 A2985=
202010061700 METAR MRLM 061700Z 04002KT CAVOK 29/22 A2984=
202010061800 METAR MRLM 061800Z 10003KT CAVOK 30/22 A2980=
202010061900 METAR MRLM 061900Z 04005KT CAVOK 30/23 A2977=
202010062000 METAR MRLM 062000Z 05004KT CAVOK 29/24 A2974=
202010062100 METAR MRLM 062100Z 07007KT 9999 FEW025 OVC120 29/24 A2973=
202010062200 METAR MRLM 062200Z 08004KT 9999 SCT025 OVC120 29/24 A2975=
202010062300 METAR MRLM 062300Z 02004KT 9999 SCT020 OVC100 29/24 A2977=
202010070000 METAR MRLM 070000Z 23004KT 9999 SCT020 OVC100 27/25 A2979=
202010070100 METAR MRLM NIL=
202010070200 METAR MRLM NIL=
202010070300 METAR MRLM NIL=
202010070400 METAR MRLM NIL=
202010070500 METAR MRLM NIL=
202010070600 METAR MRLM NIL=
202010070700 METAR MRLM NIL=
202010070800 METAR MRLM NIL=
202010070900 METAR MRLM NIL=
202010071000 METAR MRLM NIL=
202010071100 METAR MRLM NIL=
202010071200 METAR MRLM 071200Z 24003KT CAVOK 23/22 A2982=
202010071300 METAR MRLM 071300Z 20003KT CAVOK 25/24 A2985=
202010071400 METAR MRLM 071400Z 00000KT CAVOK 29/24 A2988=
202010071500 METAR MRLM 071500Z 09004KT 9999 FEW030 BKN140 29/25 A2989=
202010071600 METAR MRLM 071600Z 04004KT 9999 FEW030 BKN240 29/25 A2988=
202010071700 METAR MRLM 071700Z 02008KT CAVOK 30/25 A2986=
202010071800 METAR MRLM 071800Z 02010KT CAVOK 31/25 A2984=
202010071900 METAR MRLM 071900Z 01009KT CAVOK 30/25 A2980=
202010072000 METAR MRLM 072000Z 02006KT 9999 FEW025 BKN240 29/25 A2979=
202010072100 METAR MRLM 072100Z 03004KT 9999 FEW025 SCT130 BKN240 29/25 A2978=
202010072200 METAR MRLM 072200Z 01004KT 9999 VCTS BKN020 29/25 A2980=
202010072300 METAR MRLM 072300Z 28004KT 9999 FEW025 SCT130 27/24 A2983=
202010080000 METAR MRLM 080000Z 26005KT 9999 SCT020 BKN120 25/23 A2981=
202010080100 METAR MRLM NIL=
202010080200 METAR MRLM NIL=
202010080300 METAR MRLM NIL=
202010080400 METAR MRLM NIL=
202010080500 METAR MRLM NIL=
202010080600 METAR MRLM NIL=
202010080700 METAR MRLM NIL=
202010080800 METAR MRLM NIL=
202010080900 METAR MRLM NIL=
202010081000 METAR MRLM NIL=
202010081100 METAR MRLM NIL=
202010081200 METAR MRLM 081200Z 24004KT CAVOK 23/22 A2988=
202010081300 METAR MRLM 081300Z 22004KT CAVOK 24/23 A2990=
202010081400 METAR MRLM 081400Z 22004KT CAVOK 27/23 A2991=
202010081500 METAR MRLM 081500Z 07003KT CAVOK 28/23 A2993=
202010081600 METAR MRLM 081600Z 03008KT 9999 FEW030 BKN250 29/23 A2991=
202010081700 METAR MRLM 081700Z 01007KT CAVOK 30/23 A2990=
202010081800 METAR MRLM 081800Z 02010KT CAVOK 30/23 A2987=
202010081900 METAR MRLM 081900Z 02007KT CAVOK 29/23 A2984=
202010082000 METAR MRLM 082000Z 02006KT CAVOK 30/23 A2982=
202010082100 METAR MRLM 082100Z 04004KT CAVOK 29/23 A2981=
202010082200 METAR MRLM 082200Z 00000KT 9999 FEW030 SCT130 BKN230 29/23 A2983=
202010082300 METAR MRLM 082300Z 00000KT 9999 FEW030 BKN120 29/24 A2985=
202010090000 METAR MRLM 090000Z 29003KT 9999 FEW020 BKN120 27/25 A2989=
202010090100 METAR MRLM NIL=
202010090200 METAR MRLM NIL=
202010090300 METAR MRLM NIL=
202010090400 METAR MRLM NIL=
202010090500 METAR MRLM NIL=
202010090600 METAR MRLM NIL=
202010090700 METAR MRLM NIL=
202010090800 METAR MRLM NIL=
202010090900 METAR MRLM NIL=
202010091000 METAR MRLM NIL=
202010091100 METAR MRLM NIL=
202010091200 METAR MRLM 091200Z 26003KT 9999 FEW015 BKN200 23/22 A2989=
202010091300 METAR MRLM 091300Z 22003KT 9999 FEW015 BKN200 24/22 A2990=
202010091400 METAR MRLM 091400Z 32002KT 9999 FEW020 SCT120 28/23 A2992=
202010091500 METAR MRLM 091500Z 08003KT 9999 FEW020 SCT120 29/23 A2993=
202010091600 METAR MRLM 091600Z 09005KT 9999 FEW020 30/23 A2994=
202010091700 METAR MRLM 091700Z 08007KT 9999 FEW025TCU 30/24 A2992=
202010091800 METAR MRLM 091800Z 08008KT 9999 FEW025TCU 30/25 A2988=
202010091900 METAR MRLM 091900Z 06008KT 9999 FEW025 30/25 A2986=
202010092000 METAR MRLM 092000Z 03005KT 9999 FEW030 SCT240 30/24 A2984=
202010092100 METAR MRLM 092100Z 03005KT 9999 FEW030 SCT240 29/24 A2982=
202010092200 METAR MRLM 092200Z 05006KT 9999 FEW030 SCT240 29/24 A2983=
202010092300 METAR MRLM 092300Z 03003KT 9999 FEW020 SCT220 29/24 A2986=
202010100000 METAR MRLM 100000Z 22002KT 9999 FEW020 SCT220 27/24 A2987=
202010100100 METAR MRLM NIL=
202010100200 METAR MRLM NIL=
202010100300 METAR MRLM NIL=
202010100400 METAR MRLM NIL=
202010100500 METAR MRLM NIL=
202010100600 METAR MRLM NIL=
202010100700 METAR MRLM NIL=
202010100800 METAR MRLM NIL=
202010100900 METAR MRLM NIL=
202010101000 METAR MRLM NIL=
202010101100 METAR MRLM NIL=
202010101200 METAR MRLM 101200Z 25004KT 9999 FEW020 SCT100 24/22 A2988=
202010101300 METAR MRLM 101300Z 21005KT 9999 VCTS FEW020 SCT100 26/23 A2990=
202010101400 METAR MRLM 101400Z 24003KT 9999 VCTS FEW020 SCT100 29/24 A2992=
202010101500 METAR MRLM 101500Z 02003KT 9999 FEW020 SCT220 29/24 A2990=
202010101600 METAR MRLM 101600Z 06005KT 9999 SCT020 BKN120 29/24 A2992=
202010101700 METAR MRLM 101700Z 09003KT 9999 VCSH FEW020 BKN120 30/24 A2989=
202010101800 METAR MRLM 101800Z 12007KT 9999 VCTS VCSH FEW020TCU BKN100 29/24 A2987=
202010101900 METAR MRLM 101900Z 16003KT 9999 -DZ VCSH FEW020 BKN100 27/24 A2985=
202010102000 METAR MRLM 102000Z 04005KT 9999 FEW025 BKN120 29/24 A2983=
202010102100 METAR MRLM 102100Z 07003KT CAVOK 30/23 A2981=
202010102200 METAR MRLM 102200Z 11004KT CAVOK 29/23 A2980=
202010102300 METAR MRLM 102300Z 08003KT CAVOK 29/24 A2982=
202010110000 METAR MRLM 110000Z 11002KT CAVOK 29/24 A2984=
202010110100 METAR MRLM NIL=
202010110200 METAR MRLM NIL=
202010110300 METAR MRLM NIL=
202010110400 METAR MRLM NIL=
202010110500 METAR MRLM NIL=
202010110600 METAR MRLM NIL=
202010110700 METAR MRLM NIL=
202010110800 METAR MRLM NIL=
202010110900 METAR MRLM NIL=
202010111000 METAR MRLM NIL=
202010111100 METAR MRLM NIL=
202010111200 METAR MRLM 111200Z 22004KT CAVOK 24/23 A2985=
202010111300 METAR MRLM 111300Z 23005KT CAVOK 24/24 A2986=
202010111400 METAR MRLM 111400Z 25005KT CAVOK 26/24 A2988=
202010111500 METAR MRLM 111500Z 22003KT CAVOK 27/25 A2989=
202010111600 METAR MRLM 111600Z 26003KT 9999 FEW030 BKN130 30/25 A2989=
202010111700 METAR MRLM 111700Z 04004KT 9999 FEW030 SCT130 30/25 A2986=
202010111800 METAR MRLM 111800Z 01006KT 9999 FEW030 SCT130 29/25 A2983=
202010111900 METAR MRLM 111900Z 03003KT CAVOK 30/25 A2981=
202010112000 METAR MRLM 112000Z 03008KT CAVOK 31/25 A2978=
202010112100 METAR MRLM 112100Z 07005KT 9999 FEW035 30/25 A2977=
202010112200 METAR MRLM 112200Z 00000KT CAVOK 30/24 A2977=
202010112300 METAR MRLM 112300Z 00000KT CAVOK 30/24 A2979=
202010120000 METAR MRLM 120000Z 00000KT CAVOK 26/25 A2983=
202010120100 METAR MRLM NIL=
202010120200 METAR MRLM NIL=
202010120300 METAR MRLM NIL=
202010120400 METAR MRLM NIL=
202010120500 METAR MRLM NIL=
202010120600 METAR MRLM NIL=
202010120700 METAR MRLM NIL=
202010120800 METAR MRLM NIL=
202010120900 METAR MRLM NIL=
202010121000 METAR MRLM NIL=
202010121100 METAR MRLM NIL=
202010121200 METAR MRLM 121200Z 22004KT 9999 SCT020 BKN110 24/23 A2983=
202010121300 METAR MRLM 121300Z 00000KT 7000 DZ VCTS SCT020 BKN110 24/23 A2985=
202010121400 METAR MRLM 121400Z 00000KT 7000 DZ VCTS SCT020 BKN110 24/23 A2991=
202010121500 METAR MRLM 121500Z 23005KT 7000 -RA VCTS SCT020 OVC110 24/23 A2992=
202010121600 METAR MRLM 121600Z 20004KT 9999 DZ FEW020 BKN110 24/23 A2990=
202010121700 METAR MRLM 121700Z 25004KT CAVOK 26/24 A2986 REDZ=
202010121800 METAR MRLM 121800Z 28003KT CAVOK 29/23 A2983=
202010121900 METAR MRLM 121900Z 02006KT CAVOK 29/23 A2978=
202010122000 METAR MRLM 122000Z 02006KT CAVOK 29/23 A2975=
202010122100 METAR MRLM 122100Z 30003KT CAVOK 30/23 A2973=
202010122200 METAR MRLM 122200Z 35006KT CAVOK 29/23 A2974=
202010122300 METAR MRLM 122300Z 32005KT CAVOK 28/23 A2976=
202010130000 METAR MRLM 130000Z 22005KT CAVOK 27/22 A2981=
202010130100 METAR MRLM NIL=
202010130200 METAR MRLM NIL=
202010130300 METAR MRLM NIL=
202010130400 METAR MRLM NIL=
202010130500 METAR MRLM NIL=
202010130600 METAR MRLM NIL=
202010130700 METAR MRLM NIL=
202010130800 METAR MRLM NIL=
202010130900 METAR MRLM NIL=
202010131000 METAR MRLM NIL=
202010131100 METAR MRLM NIL=
202010131200 METAR MRLM 131200Z 26003KT 9999 FEW010 BKN200 23/22 A2985=
202010131300 METAR MRLM 131300Z 26005KT 9999 FEW010 BKN200 25/22 A2987=
202010131400 METAR MRLM 131400Z 29005KT 9999 FEW010 BKN200 28/24 A2989=
202010131500 METAR MRLM 131500Z 30006KT 9999 FEW020 BKN200 28/23 A2991=
202010131600 METAR MRLM 131600Z 30006KT CAVOK 30/23 A2990=
202010131700 METAR MRLM 131700Z 30004KT CAVOK 30/22 A2987=
202010131800 METAR MRLM 131800Z 02006KT CAVOK 30/24 A2983=
202010131900 METAR MRLM 131900Z 01009KT CAVOK 30/24 A2981=
202010132000 METAR MRLM 132000Z 01008KT CAVOK 29/24 A2978=
202010132100 METAR MRLM 132100Z 01007KT CAVOK 29/25 A2978=
202010132200 METAR MRLM 132200Z 03006KT 9999 FEW020 BKN220 29/24 A2978=
202010132300 METAR MRLM 132300Z 08003KT 9999 FEW020 BKN220 28/24 A2979=
202010140000 METAR MRLM 140000Z 08004KT 9999 FEW015 BKN200 28/24 A2982=
202010140100 METAR MRLM NIL=
202010140200 METAR MRLM NIL=
202010140300 METAR MRLM NIL=
202010140400 METAR MRLM NIL=
202010140500 METAR MRLM NIL=
202010140600 METAR MRLM NIL=
202010140700 METAR MRLM NIL=
202010140800 METAR MRLM NIL=
202010140900 METAR MRLM NIL=
202010141000 METAR MRLM NIL=
202010141100 METAR MRLM NIL=
202010141200 METAR MRLM 141200Z 26004KT 9999 FEW015 BKN200 23/22 A2981=
202010141300 METAR MRLM 141300Z 23004KT 9999 FEW015 BKN200 24/23 A2984=
202010141400 METAR MRLM 141400Z 28003KT 9999 FEW015 BKN200 27/23 A2985=
202010141500 METAR MRLM 141500Z 30007KT 9999 FEW020TCU BKN220 29/23 A2987=
202010141600 METAR MRLM 141600Z 31005KT 9999 VCSH FEW020 BKN120 29/23 A2987=
202010141700 METAR MRLM 141700Z 02016KT 9999 VCSH FEW015 BKN100 27/24 A2985=
202010141800 METAR MRLM 141800Z 03006KT 9999 FEW015 OVC100 28/24 A2983=
202010141900 METAR MRLM 141900Z 05004KT 9999 -DZ SCT015 OVC100 27/24 A2980=
202010142000 METAR MRLM 142000Z 07010KT 9999 FEW015 OVC100 27/23 A2977=
202010142100 METAR MRLM 142100Z 06007KT 9999 -DZ FEW015 OVC100 27/24 A2979=
202010142200 METAR MRLM 142200Z 03007KT 9999 FEW015 OVC100 27/24 A2980=
202010142300 METAR MRLM 142300Z 25004KT 9999 SCT010 OVC090 26/24 A2981=
202010150000 METAR MRLM 150000Z 24002KT 9999 SCT010 OVC090 25/24 A2982=
202010150100 METAR MRLM NIL=
202010150200 METAR MRLM NIL=
202010150300 METAR MRLM NIL=
202010150400 METAR MRLM NIL=
202010150500 METAR MRLM NIL=
202010150600 METAR MRLM NIL=
202010150700 METAR MRLM NIL=
202010150800 METAR MRLM NIL=
202010150900 METAR MRLM NIL=
202010151000 METAR MRLM NIL=
202010151100 METAR MRLM NIL=
202010151200 METAR MRLM NIL=
202010151300 METAR MRLM NIL=
202010151400 METAR MRLM NIL=
202010151500 METAR MRLM NIL=
202010151600 METAR MRLM NIL=
202010151700 METAR MRLM NIL=
202010151800 METAR MRLM NIL=
202010151900 METAR MRLM NIL=
202010152000 METAR MRLM NIL=
202010152100 METAR MRLM NIL=
202010152200 METAR MRLM NIL=
202010152300 METAR MRLM NIL=
202010160000 METAR MRLM NIL=
202010160100 METAR MRLM NIL=
202010160200 METAR MRLM NIL=
202010160300 METAR MRLM NIL=
202010160400 METAR MRLM NIL=
202010160500 METAR MRLM NIL=
202010160600 METAR MRLM NIL=
202010160700 METAR MRLM NIL=
202010160800 METAR MRLM NIL=
202010160900 METAR MRLM NIL=
202010161000 METAR MRLM NIL=
202010161100 METAR MRLM NIL=
202010161200 METAR MRLM 161200Z 23005KT 9999 FEW015 SCT100 22/21 A2983=
202010161300 METAR MRLM 161300Z 24004KT 9999 FEW015 SCT100 25/22 A2986=
202010161400 METAR MRLM 161400Z 22003KT 9999 FEW020 29/24 A2986=
202010161500 METAR MRLM 161500Z 05004KT 9999 FEW020 30/24 A2987=
202010161600 METAR MRLM 161600Z 02008KT 9999 FEW030 30/24 A2987=
202010161700 METAR MRLM 161700Z 02008KT 9999 FEW030 30/24 A2985=
202010161800 METAR MRLM 161800Z 02007KT 9999 FEW030 31/24 A2983=
202010161900 METAR MRLM 161900Z 02007KT CAVOK 31/24 A2979=
202010162000 METAR MRLM 162000Z 02008KT CAVOK 30/24 A2977=
202010162100 METAR MRLM 162100Z 01007KT CAVOK 30/23 A2976=
202010162200 METAR MRLM 162200Z 01007KT CAVOK 30/24 A2976=
202010162300 METAR MRLM NIL=
202010170000 METAR MRLM NIL=
202010170100 METAR MRLM NIL=
202010170200 METAR MRLM NIL=
202010170300 METAR MRLM NIL=
202010170400 METAR MRLM NIL=
202010170500 METAR MRLM NIL=
202010170600 METAR MRLM NIL=
202010170700 METAR MRLM NIL=
202010170800 METAR MRLM NIL=
202010170900 METAR MRLM NIL=
202010171000 METAR MRLM NIL=
202010171100 METAR MRLM NIL=
202010171200 METAR MRLM 171200Z 20004KT 9999 SCT020 BKN100 24/23 A2985=
202010171300 METAR MRLM 171300Z 28004KT 9999 SCT020 OVC100 24/23 A2986=
202010171400 METAR MRLM 171400Z 26004KT 9999 FEW020 BKN100 26/23 A2987=
202010171500 METAR MRLM 171500Z 27008KT 9999 FEW030 BKN120 30/23 A2987=
202010171600 METAR MRLM 171600Z 28005KT 9999 FEW030 BKN120 30/24 A2987=
202010171700 METAR MRLM 171700Z 27004KT 8000 +DZ VCSH SCT020 OVC100 30/25 A2986=
202010171800 METAR MRLM 171800Z 06017KT 6000 DZ FEW010 OVC080 25/23 A2986=
202010171900 METAR MRLM 171900Z 32002KT 9999 -DZ FEW010 OVC080 27/24 A2982=
202010172000 METAR MRLM 172000Z 23005KT CAVOK 28/23 A2980=
202010172100 METAR MRLM 172100Z 16002KT 9999 FEW020 OVC200 29/22 A2980=
202010172200 METAR MRLM 172200Z 12002KT 9999 FEW020 OVC200 28/23 A2981=
202010172300 METAR MRLM 172300Z 19002KT 9999 FEW020 OVC200 27/24 A2982=
202010180000 METAR MRLM 180000Z 24002KT 9999 -DZ SCT015 OVC200 26/24 A2980=
202010180100 METAR MRLM NIL=
202010180200 METAR MRLM NIL=
202010180300 METAR MRLM NIL=
202010180400 METAR MRLM NIL=
202010180500 METAR MRLM NIL=
202010180600 METAR MRLM NIL=
202010180700 METAR MRLM NIL=
202010180800 METAR MRLM NIL=
202010180900 METAR MRLM NIL=
202010181000 METAR MRLM NIL=
202010181100 METAR MRLM NIL=
202010181200 METAR MRLM 181200Z 23003KT 9999 FEW020 BKN200 23/22 A2982=
202010181300 METAR MRLM 181300Z 23002KT 9999 FEW020 BKN200 25/22 A2983=
202010181400 METAR MRLM 181400Z 24003KT CAVOK 28/23 A2985=
202010181500 METAR MRLM 181500Z 29007KT CAVOK 30/23 A2986=
202010181600 METAR MRLM 181600Z 32009KT 9999 FEW030 BKN240 31/24 A2984=
202010181700 METAR MRLM 181700Z 33007KT 9999 FEW030 BKN240 31/25 A2982=
202010181800 METAR MRLM 181800Z 01011KT CAVOK 31/25 A2978=
202010181900 METAR MRLM 181900Z 01011KT CAVOK 31/25 A2976=
202010182000 METAR MRLM 182000Z 36013KT 9999 FEW025 BKN250 30/25 A2975=
202010182100 METAR MRLM 182100Z 02009KT 9999 FEW025 BKN250 29/25 A2975=
202010182200 METAR MRLM 182200Z 01003KT 9999 SCT020 BKN230 29/24 A2976=
202010182300 METAR MRLM 182300Z 25003KT 9999 SCT020 BKN230 28/25 A2975=
202010190000 METAR MRLM 190000Z 27002KT 9999 FEW020 BKN220 27/25 A2976=
202010190100 METAR MRLM NIL=
202010190200 METAR MRLM NIL=
202010190300 METAR MRLM NIL=
202010190400 METAR MRLM NIL=
202010190500 METAR MRLM NIL=
202010190600 METAR MRLM NIL=
202010190700 METAR MRLM NIL=
202010190800 METAR MRLM NIL=
202010191100 METAR MRLM NIL=
202010191200 METAR MRLM 191200Z 00000KT 9999 VCSH SCT015 BKN100 24/22 A2980=
202010191300 METAR MRLM 191300Z 36007KT 9999 VCSH SCT015 BKN110 26/22 A2982=
202010191400 METAR MRLM 191400Z 30005KT 9999 FEW020 BKN120 25/23 A2983=
202010191500 METAR MRLM 191500Z 28004KT CAVOK 26/23 A2984=
202010191600 METAR MRLM 191600Z 30005KT 9999 FEW015 SCT130 BKN220 28/23 A2983=
202010191700 METAR MRLM 191700Z 29004KT CAVOK 28/24 A2981=
202010191800 METAR MRLM 191800Z 31005KT CAVOK 29/24 A2976=
202010191900 METAR MRLM 191900Z 33005KT 9999 FEW030 SCT140 BKN220 30/25 A2971=
202010192000 METAR MRLM 192000Z 01008KT CAVOK 30/24 A2970=
202010192100 METAR MRLM 192100Z 36010KT CAVOK 30/25 A2969=
202010192200 METAR MRLM 192200Z 35010KT CAVOK 29/24 A2971=
202010192300 METAR MRLM 192300Z 35008KT 9999 VCTS SCT020 SCT130 BKN230 29/24 A2975=
202010200000 METAR MRLM 200000Z 00000KT 9999 FEW020 SCT130 BKN230 27/23 A2979=
202010200100 METAR MRLM NIL=
202010200200 METAR MRLM NIL=
202010200300 METAR MRLM NIL=
202010200400 METAR MRLM NIL=
202010200500 METAR MRLM NIL=
202010200600 METAR MRLM NIL=
202010200700 METAR MRLM NIL=
202010200800 METAR MRLM NIL=
202010200900 METAR MRLM NIL=
202010201000 METAR MRLM NIL=
202010201100 METAR MRLM NIL=
202010201200 METAR MRLM 201200Z 22005KT CAVOK 23/21 A2975=
202010201300 METAR MRLM 201300Z 28003KT CAVOK 24/22 A2978=
202010201400 METAR MRLM 201400Z 29003KT CAVOK 29/22 A2979=
202010201500 METAR MRLM 201500Z 30006KT CAVOK 30/22 A2979=
202010201600 METAR MRLM 201600Z 01007KT CAVOK 30/23 A2980=
202010201700 METAR MRLM 201700Z 03007KT CAVOK 30/24 A2979=
202010201800 METAR MRLM 201800Z 02008KT 9999 FEW030 30/24 A2976=
202010201900 METAR MRLM 201900Z 03008KT CAVOK 30/24 A2973=
202010202000 METAR MRLM 202000Z 05005KT CAVOK 29/24 A2971=
202010202100 METAR MRLM 202100Z 00000KT 9999 FEW020 SCT130 29/24 A2970=
202010202200 METAR MRLM 202200Z 23004KT 9999 -DZ SCT020 27/25 A2972=
202010202300 METAR MRLM 202300Z 23003KT 9999 FEW020 BKN120 26/25 A2972=
202010210000 METAR MRLM 210000Z 23004KT 9999 FEW020 BKN120 26/24 A2974=
202010210100 METAR MRLM NIL=
202010210200 METAR MRLM NIL=
202010210300 METAR MRLM NIL=
202010210400 METAR MRLM NIL=
202010210500 METAR MRLM NIL=
202010210600 METAR MRLM NIL=
202010210700 METAR MRLM NIL=
202010210800 METAR MRLM NIL=
202010210900 METAR MRLM NIL=
202010211000 METAR MRLM NIL=
202010211100 METAR MRLM NIL=
202010211200 METAR MRLM 211200Z 22004KT CAVOK 23/23 A2983=
202010211300 METAR MRLM 211300Z 24004KT CAVOK 24/23 A2983=
202010211400 METAR MRLM 211400Z 20004KT 9999 FEW020 BKN100 25/23 A2986=
202010211500 METAR MRLM 211500Z 21004KT 9999 -DZ FEW020 OVC090 25/24 A2987=
202010211600 METAR MRLM 211600Z 25004KT 9999 -DZ FEW020 OVC090 25/24 A2987=
202010211700 METAR MRLM 211700Z 27004KT 9999 -DZ FEW020 OVC090 26/24 A2984=
202010211800 METAR MRLM 211800Z 15008KT 9999 FEW020 OVC090 26/24 A2979=
202010211900 METAR MRLM 211900Z 25005KT 9999 FEW020 OVC100 27/24 A2978=
202010212000 METAR MRLM 212000Z 00000KT 9999 FEW020 OVC100 28/23 A2977=
202010212100 METAR MRLM 212100Z 22002KT CAVOK 27/24 A2976=
202010212200 METAR MRLM 212200Z 18002KT CAVOK 27/25 A2975=
202010212300 METAR MRLM 212300Z 17003KT CAVOK 26/24 A2977=
202010220000 METAR MRLM 220000Z 22003KT CAVOK 25/24 A2979=
202010220100 METAR MRLM NIL=
202010220200 METAR MRLM NIL=
202010220300 METAR MRLM NIL=
202010220400 METAR MRLM NIL=
202010220500 METAR MRLM NIL=
202010220600 METAR MRLM NIL=
202010220700 METAR MRLM NIL=
202010220800 METAR MRLM NIL=
202010220900 METAR MRLM NIL=
202010221000 METAR MRLM NIL=
202010221100 METAR MRLM NIL=
202010221200 METAR MRLM 221200Z 24003KT CAVOK 22/21 A2983=
202010221300 METAR MRLM 221300Z 22005KT CAVOK 25/22 A2985=
202010221400 METAR MRLM 221400Z 21003KT CAVOK 28/22 A2986=
202010221500 METAR MRLM 221500Z 08003KT CAVOK 29/23 A2987=
202010221600 METAR MRLM 221600Z 09004KT CAVOK 29/23 A2987=
202010221700 METAR MRLM 221700Z 09005KT CAVOK 30/23 A2985=
202010221800 METAR MRLM 221800Z 08006KT CAVOK 30/23 A2982=
202010221900 METAR MRLM 221900Z 04007KT CAVOK 30/23 A2980=
202010222000 METAR MRLM 222000Z 05007KT CAVOK 30/24 A2978=
202010222100 METAR MRLM 222100Z 05005KT 9999 FEW030 SCT240 30/24 A2976=
202010222200 METAR MRLM 222200Z 04004KT 9999 FEW030 SCT240 29/24 A2976=
202010222300 METAR MRLM 222300Z 07003KT 9999 FEW030 SCT240 29/24 A2976=
202010230000 METAR MRLM 230000Z 23002KT 9999 FEW020 SCT220 26/25 A2979=
202010230100 METAR MRLM NIL=
202010230200 METAR MRLM NIL=
202010230300 METAR MRLM NIL=
202010230400 METAR MRLM NIL=
202010230500 METAR MRLM NIL=
202010230600 METAR MRLM NIL=
202010230700 METAR MRLM NIL=
202010230800 METAR MRLM NIL=
202010230900 METAR MRLM NIL=
202010231000 METAR MRLM NIL=
202010231100 METAR MRLM NIL=
202010231200 METAR MRLM 231200Z 24004KT CAVOK 23/23 A2985=
202010231300 METAR MRLM 231300Z 23003KT CAVOK 24/23 A2987=
202010231400 METAR MRLM 231400Z 23003KT CAVOK 26/24 A2988=
202010231500 METAR MRLM 231500Z 05003KT CAVOK 30/24 A2989=
202010231600 METAR MRLM 231600Z 02008KT CAVOK 30/24 A2988=
202010231700 METAR MRLM 231700Z 01009KT CAVOK 31/24 A2986=
202010231800 METAR MRLM 231800Z 02009KT CAVOK 31/24 A2983=
202010231900 METAR MRLM 231900Z 02007KT CAVOK 30/25 A2978=
202010232000 METAR MRLM 232000Z 02007KT CAVOK 30/25 A2976=
202010232100 METAR MRLM 232100Z 03007KT CAVOK 30/25 A2976=
202010232200 METAR MRLM 232200Z 06006KT CAVOK 30/24 A2977=
202010232300 METAR MRLM 232300Z 10004KT 9999 FEW030 BKN240 29/24 A2978=
202010240000 METAR MRLM 240000Z 00000KT 9999 FEW025 BKN240 27/24 A2980=
202010240100 METAR MRLM NIL=
202010240200 METAR MRLM NIL=
202010240300 METAR MRLM NIL=
202010240400 METAR MRLM NIL=
202010240500 METAR MRLM NIL=
202010240600 METAR MRLM NIL=
202010240700 METAR MRLM NIL=
202010240800 METAR MRLM NIL=
202010240900 METAR MRLM NIL=
202010241000 METAR MRLM NIL=
202010241100 METAR MRLM NIL=
202010241200 METAR MRLM 241200Z 24004KT CAVOK 24/23 A2984=
202010241300 METAR MRLM 241300Z 22005KT CAVOK 27/23 A2985=
202010241400 METAR MRLM 241400Z 22003KT CAVOK 30/23 A2985=
202010241500 METAR MRLM 241500Z 06004KT CAVOK 30/24 A2987=
202010241600 METAR MRLM 241600Z 03008KT CAVOK 31/24 A2987=
202010241700 METAR MRLM 241700Z 05005KT CAVOK 30/24 A2985=
202010241800 METAR MRLM 241800Z 03007KT CAVOK 30/24 A2982=
202010241900 METAR MRLM 241900Z 04006KT CAVOK 30/25 A2978=
202010242000 METAR MRLM 242000Z 04005KT 9999 FEW030 BKN240 30/25 A2977=
202010242100 METAR MRLM 242100Z 06005KT 9999 FEW030 BKN240 30/25 A2975=
202010242200 METAR MRLM 242200Z 10004KT 9999 FEW025 SCT140 BKN240 29/24 A2977=
202010242300 METAR MRLM 242300Z 12004KT 9999 FEW025 SCT140 BKN240 29/24 A2980=
202010250000 METAR MRLM 250000Z 22004KT 9999 FEW020 BKN130 28/24 A2981=
202010250100 METAR MRLM NIL=
202010250200 METAR MRLM NIL=
202010250300 METAR MRLM NIL=
202010250400 METAR MRLM NIL=
202010250500 METAR MRLM NIL=
202010250600 METAR MRLM NIL=
202010250700 METAR MRLM NIL=
202010250800 METAR MRLM NIL=
202010250900 METAR MRLM NIL=
202010251000 METAR MRLM NIL=
202010251100 METAR MRLM NIL=
202010251200 METAR MRLM 251200Z 25003KT 9999 FEW020 SCT200 24/22 A2984=
202010251300 METAR MRLM 251300Z 23003KT 9999 FEW020 SCT200 25/23 A2986=
202010251400 METAR MRLM 251400Z 23003KT 9999 FEW020 SCT200 28/24 A2987=
202010251500 METAR MRLM 251500Z 09005KT CAVOK 29/24 A2987=
202010251600 METAR MRLM 251600Z 09007KT 9999 FEW030 BKN220 30/24 A2986=
202010251700 METAR MRLM 251700Z 09008KT 9999 FEW030 BKN220 30/24 A2984=
202010251800 METAR MRLM 251800Z 10010KT 9999 FEW030 SCT220 31/25 A2981=
202010251900 METAR MRLM 251900Z 07010KT CAVOK 31/25 A2978=
202010252000 METAR MRLM 252000Z 10008KT 9999 FEW030 BKN240 30/25 A2976=
202010252100 METAR MRLM 252100Z 13009KT 9999 FEW020 BKN120 30/25 A2976=
202010252200 METAR MRLM 252200Z 21004KT 9999 FEW020 BKN120 27/25 A2976=
202010252300 METAR MRLM 252300Z 22003KT 9999 FEW020 BKN120 26/25 A2978=
202010260000 METAR MRLM 260000Z 25002KT 9999 FEW015 BKN100 26/25 A2980=
202010260100 METAR MRLM NIL=
202010260200 METAR MRLM NIL=
202010260300 METAR MRLM NIL=
202010260400 METAR MRLM NIL=
202010260500 METAR MRLM NIL=
202010260600 METAR MRLM NIL=
202010260700 METAR MRLM NIL=
202010260800 METAR MRLM NIL=
202010260900 METAR MRLM NIL=
202010261000 METAR MRLM NIL=
202010261100 METAR MRLM NIL=
202010261200 METAR MRLM 261200Z 22004KT 9999 FEW015TCU BKN200 23/21 A2982=
202010261300 METAR MRLM 261300Z 25004KT 9999 FEW015TCU BKN200 25/22 A2984=
202010261400 METAR MRLM 261400Z 24004KT 9999 FEW020TCU BKN220 27/23 A2986=
202010261500 METAR MRLM 261500Z 26003KT 9999 FEW020 BKN220 30/23 A2987=
202010261600 METAR MRLM 261600Z 05004KT CAVOK 30/23 A2986=
202010261700 METAR MRLM 261700Z 04005KT CAVOK 30/23 A2984=
202010261800 METAR MRLM 261800Z 05008KT CAVOK 31/24 A2981=
202010261900 METAR MRLM 261900Z 02008KT CAVOK 30/24 A2978=
202010262000 METAR MRLM 262000Z 36009KT 9999 FEW025 BKN240 30/25 A2977=
202010262100 METAR MRLM 262100Z 34008KT 9999 FEW020 SCT120 BKN220 29/24 A2977=
202010262200 METAR MRLM 262200Z 34004KT 9999 FEW020TCU SCT120 BKN220 29/25 A2978=
202010262300 METAR MRLM 262300Z 36006KT 9999 SCT020 BKN220 29/24 A2979=
202010270000 METAR MRLM 270000Z 25003KT 9999 SCT015 BKN200 27/25 A2982=
202010270100 METAR MRLM NIL=
202010270200 METAR MRLM NIL=
202010270300 METAR MRLM NIL=
202010270400 METAR MRLM NIL=
202010270500 METAR MRLM NIL=
202010270600 METAR MRLM NIL=
202010270700 METAR MRLM NIL=
202010270800 METAR MRLM NIL=
202010270900 METAR MRLM NIL=
202010271000 METAR MRLM NIL=
202010271100 METAR MRLM NIL=
202010271200 METAR MRLM 271200Z 00000KT CAVOK 23/22 A2984=
202010271300 METAR MRLM 271300Z 24004KT CAVOK 24/23 A2985=
202010271400 METAR MRLM 271400Z 00000KT CAVOK 26/24 A2987=
202010271500 METAR MRLM 271500Z 00000KT CAVOK 28/25 A2989=
202010271600 METAR MRLM 271600Z 05004KT CAVOK 29/24 A2987=
202010271700 METAR MRLM 271700Z 05004KT CAVOK 29/25 A2983=
202010271800 METAR MRLM 271800Z 02008KT CAVOK 30/25 A2981=
202010271900 METAR MRLM 271900Z 01007KT CAVOK 29/25 A2978=
202010272000 METAR MRLM 272000Z 02005KT CAVOK 29/25 A2976=
202010272100 METAR MRLM 272100Z 01005KT CAVOK 30/24 A2974=
202010272200 METAR MRLM 272200Z 36005KT CAVOK 30/25 A2976=
202010272300 METAR MRLM 272300Z 28002KT CAVOK 28/25 A2977=
202010280000 METAR MRLM 280000Z 00000KT CAVOK 26/24 A2980=
202010280100 METAR MRLM NIL=
202010280200 METAR MRLM NIL=
202010280300 METAR MRLM NIL=
202010280400 METAR MRLM NIL=
202010280500 METAR MRLM NIL=
202010280600 METAR MRLM NIL=
202010280700 METAR MRLM NIL=
202010280800 METAR MRLM NIL=
202010280900 METAR MRLM NIL=
202010281000 METAR MRLM NIL=
202010281100 METAR MRLM NIL=
202010281200 METAR MRLM 281200Z 00000KT 9999 FEW015 BKN130 24/24 A2982=
202010281300 METAR MRLM 281300Z 25004KT CAVOK 25/24 A2985=
202010281400 METAR MRLM 281400Z 22004KT CAVOK 26/24 A2986=
202010281500 METAR MRLM 281500Z 22003KT CAVOK 27/25 A2986=
202010281600 METAR MRLM 281600Z 06003KT CAVOK 29/25 A2986=
202010281700 METAR MRLM 281700Z 04005KT CAVOK 30/24 A2983=
202010281800 METAR MRLM 281800Z 04010KT CAVOK 30/25 A2981=
202010281900 METAR MRLM 281900Z 01008KT CAVOK 31/24 A2978=
202010282000 METAR MRLM 282000Z 36006KT CAVOK 30/25 A2976=
202010282100 METAR MRLM 282100Z 01010KT CAVOK 29/25 A2977=
202010282200 METAR MRLM 282200Z 36006KT CAVOK 29/25 A2978=
202010282300 METAR MRLM 282300Z 00000KT CAVOK 28/25 A2979=
202010290000 METAR MRLM 290000Z 00000KT CAVOK 27/25 A2981=
202010290100 METAR MRLM NIL=
202010290200 METAR MRLM NIL=
202010290300 METAR MRLM NIL=
202010290400 METAR MRLM NIL=
202010290500 METAR MRLM NIL=
202010290600 METAR MRLM NIL=
202010290700 METAR MRLM NIL=
202010290800 METAR MRLM NIL=
202010290900 METAR MRLM NIL=
202010291000 METAR MRLM NIL=
202010291100 METAR MRLM NIL=
202010291200 METAR MRLM 291200Z 22003KT 9999 FEW015 SCT200 23/23 A2982=
202010291300 METAR MRLM 291300Z 25003KT 9999 FEW015 SCT200 25/23 A2983=
202010291400 METAR MRLM 291400Z 36002KT 9999 FEW015 SCT200 28/23 A2986=
202010291500 METAR MRLM 291500Z 32006KT 9999 FEW020TCU SCT220 30/23 A2987=
202010291600 METAR MRLM 291600Z 33005KT 9999 FEW020TCU SCT220 31/23 A2986=
202010291700 METAR MRLM 291700Z 36009KT 9999 FEW020 SCT220 31/24 A2982=
202010291800 METAR MRLM 291800Z 36012KT CAVOK 31/24 A2979=
202010291900 METAR MRLM 291900Z 36011KT CAVOK 31/25 A2977=
202010292000 METAR MRLM 292000Z 36012KT 9999 FEW030 BKN220 30/24 A2976=
202010292100 METAR MRLM 292100Z 34007KT 9999 FEW030 BKN220 30/24 A2974=
202010292200 METAR MRLM 292200Z 32006KT 9999 FEW030 BKN220 29/24 A2975=
202010292300 METAR MRLM 292300Z 34008KT 9999 FEW020 BKN200 29/24 A2980=
202010300000 METAR MRLM 300000Z 33007KT 9999 FEW020 BKN200 28/24 A2981=
202010300100 METAR MRLM NIL=
202010300200 METAR MRLM NIL=
202010300300 METAR MRLM NIL=
202010300400 METAR MRLM NIL=
202010300500 METAR MRLM NIL=
202010300600 METAR MRLM NIL=
202010300700 METAR MRLM NIL=
202010300800 METAR MRLM NIL=
202010300900 METAR MRLM NIL=
202010301000 METAR MRLM NIL=
202010301100 METAR MRLM NIL=
202010301200 METAR MRLM 301200Z 22005KT 9999 FEW015TCU SCT100 23/22 A2983=
202010301300 METAR MRLM 301300Z 28002KT 9999 FEW015 BKN100 25/23 A2987=
202010301400 METAR MRLM 301400Z 25003KT CAVOK 28/24 A2987=
202010301500 METAR MRLM 301500Z 29005KT 9999 FEW030 30/23 A2989=
202010301600 METAR MRLM 301600Z 35012KT 9999 FEW030 SCT130 30/24 A2989=
202010301700 METAR MRLM 301700Z 35015KT 9999 FEW030 SCT130 31/24 A2986=
202010301800 METAR MRLM 301800Z 32010KT 9999 FEW030 30/24 A2983=
202010301900 METAR MRLM 301900Z 32009KT 9999 FEW030 SCT130 30/24 A2980=
202010302000 METAR MRLM 302000Z 35016KT 9999 FEW030 SCT130 30/25 A2978=
202010302100 METAR MRLM 302100Z 34010KT 9999 SCT020 SCT120 29/24 A2979=
202010302200 METAR MRLM 302200Z 35009KT 9999 SCT020 SCT120 29/24 A2979=
202010302300 METAR MRLM 302300Z 36009KT 9999 SCT020 SCT120 28/25 A2981=
202010310000 METAR MRLM 310000Z 31004KT 9999 SCT015 SCT200 28/24 A2983=
202010310100 METAR MRLM NIL=
202010310200 METAR MRLM NIL=
202010310300 METAR MRLM NIL=
202010310400 METAR MRLM NIL=
202010310500 METAR MRLM NIL=
202010310600 METAR MRLM NIL=
202010310700 METAR MRLM NIL=
202010310800 METAR MRLM NIL=
202010310900 METAR MRLM NIL=
202010311000 METAR MRLM NIL=
202010311100 METAR MRLM NIL=
202010311200 METAR MRLM 311200Z 22003KT 9999 FEW015 BKN130 23/22 A2989=
202010311300 METAR MRLM 311300Z 26004KT CAVOK 24/23 A2991=
202010311400 METAR MRLM 311400Z 26003KT CAVOK 28/24 A2992=
202010311500 METAR MRLM 311500Z 30007KT CAVOK 30/23 A2993=
202010311600 METAR MRLM 311600Z 33010KT CAVOK 30/24 A2992=
202010311700 METAR MRLM 311700Z 33012KT CAVOK 29/24 A2991=
202010311800 METAR MRLM 311800Z 33014KT CAVOK 30/24 A2988=
202010311900 METAR MRLM 311900Z 34016KT 9999 BKN025 30/24 A2985=
202010312000 METAR MRLM 312000Z 32014KT 9999 FEW025 SCT140 BKN240 29/24 A2982=
202010312100 METAR MRLM 312100Z 31012KT 9999 FEW025 BKN240 28/24 A2982=
202010312200 METAR MRLM 312200Z 31012KT 9999 SCT020 SCT140 BKN240 28/23 A2982=
202010312300 METAR MRLM 312300Z 31007KT 9999 FEW020 BKN230 27/24 A2984=
202011010000 METAR MRLM 010000Z 29005KT 9999 FEW015 SCT130 BKN230 26/23 A2988=
202011010100 METAR MRLM NIL=
202011010200 METAR MRLM NIL=
202011010300 METAR MRLM NIL=
202011010400 METAR MRLM NIL=
202011010500 METAR MRLM NIL=
202011010600 METAR MRLM NIL=
202011010700 METAR MRLM NIL=
202011010800 METAR MRLM NIL=
202011010900 METAR MRLM NIL=
202011011000 METAR MRLM NIL=
202011011100 METAR MRLM NIL=
202011011200 METAR MRLM 011200Z 28008KT 9999 FEW015 SCT130 BKN220 25/22 A2984=
202011011300 METAR MRLM 011300Z 28006KT CAVOK 26/23 A2985=
202011011400 METAR MRLM 011400Z 29009KT CAVOK 28/23 A2987=
202011011500 METAR MRLM 011500Z 30011KT 9999 BKN030 29/23 A2987=
202011011600 METAR MRLM 011600Z 29011KT 9999 BKN030 29/23 A2986=
202011011700 METAR MRLM 011700Z 32011KT 9999 BKN030 30/23 A2984=
202011011800 METAR MRLM 011800Z 30008KT 9999 BKN030 31/24 A2981=
202011011900 METAR MRLM 011900Z 33012KT 9999 FEW030 SCT140 BKN250 31/23 A2977=
202011012000 METAR MRLM 012000Z 33015KT 9999 FEW030 SCT130 30/24 A2975=
202011012100 METAR MRLM 012100Z 30009KT 9999 DZ BKN015 27/25 A2976=
202011012200 METAR MRLM 012200Z 30009KT 9999 SCT015 27/24 A2977 REDZ=
202011012300 METAR MRLM 012300Z 26007KT 9999 SCT015 BKN120 25/24 A2978=
202011020000 METAR MRLM 020000Z 26007KT 9999 SCT015 BKN120 25/24 A2978=
202011020100 METAR MRLM NIL=
202011020200 METAR MRLM NIL=
202011020300 METAR MRLM NIL=
202011020400 METAR MRLM NIL=
202011020500 METAR MRLM NIL=
202011020600 METAR MRLM NIL=
202011020700 METAR MRLM NIL=
202011020800 METAR MRLM NIL=
202011020900 METAR MRLM NIL=
202011021000 METAR MRLM NIL=
202011021100 METAR MRLM NIL=
202011021200 METAR MRLM 021200Z 23004KT 9999 FEW015 SCT100 OVC200 24/23 A2978=
202011021300 METAR MRLM 021300Z 20003KT 9999 FEW015 SCT100 BKN200 25/23 A2979=
202011021400 METAR MRLM 021400Z 20003KT 9999 FEW015 BKN100 27/23 A2982=
202011021500 METAR MRLM 021500Z 00000KT 9999 FEW020 OVC100 28/24 A2982=
202011021600 METAR MRLM 021600Z 28003KT 9999 FEW020 OVC100 28/24 A2981=
202011021700 METAR MRLM 021700Z 29006KT 9999 FEW020 OVC100 28/24 A2979=
202011021800 METAR MRLM 021800Z 28006KT 9999 FEW020 OVC100 29/24 A2976=
202011021900 METAR MRLM 021900Z 29006KT 9999 FEW020 OVC110 30/24 A2974=
202011022000 METAR MRLM 022000Z 29005KT 9999 FEW020 OVC110 29/24 A2971=
202011022100 METAR MRLM 022100Z 25005KT CAVOK 29/24 A2970=
202011022200 METAR MRLM 022200Z 26002KT CAVOK 29/25 A2970=
202011022300 METAR MRLM 022300Z 00000KT CAVOK 28/25 A2971=
202011030000 METAR MRLM 030000Z 23002KT CAVOK 27/25 A2973=
202011030100 METAR MRLM NIL=
202011030200 METAR MRLM NIL=
202011030300 METAR MRLM NIL=
202011030400 METAR MRLM NIL=
202011030500 METAR MRLM NIL=
202011030600 METAR MRLM NIL=
202011030700 METAR MRLM NIL=
202011030800 METAR MRLM NIL=
202011030900 METAR MRLM NIL=
202011031000 METAR MRLM NIL=
202011031100 METAR MRLM NIL=
202011031200 METAR MRLM 031200Z 21006KT CAVOK 23/22 A2971=
202011031300 METAR MRLM 031300Z 23003KT CAVOK 25/23 A2974=
202011031400 METAR MRLM 031400Z 24004KT CAVOK 27/24 A2975=
202011031500 METAR MRLM 031500Z 26003KT 9999 -DZ NSC 28/25 A2975=
202011031600 METAR MRLM 031600Z 24004KT CAVOK 29/25 A2974=
202011031700 METAR MRLM 031700Z 00000KT CAVOK 30/23 A2971=
202011031800 METAR MRLM 031800Z 03005KT 9999 -DZ NSC 29/25 A2969=
202011031900 METAR MRLM 031900Z 36005KT CAVOK 30/24 A2966=
202011032000 METAR MRLM 032000Z 24003KT CAVOK 30/24 A2964=
202011032100 METAR MRLM 032100Z 07005KT CAVOK 30/24 A2964=
202011032200 METAR MRLM 032200Z 07005KT CAVOK 29/24 A2965=
202011032300 METAR MRLM 032300Z 11006KT 9999 -DZ NSC 29/25 A2966=
202011040000 METAR MRLM 040000Z 27002KT 9999 -DZ FEW020 BKN100 27/25 A2967=
202011040100 METAR MRLM NIL=
202011040200 METAR MRLM NIL=
202011040300 METAR MRLM NIL=
202011040400 METAR MRLM NIL=
202011040500 METAR MRLM NIL=
202011040600 METAR MRLM NIL=
202011040700 METAR MRLM NIL=
202011040800 METAR MRLM NIL=
202011040900 METAR MRLM NIL=
202011041000 METAR MRLM NIL=
202011041100 METAR MRLM NIL=
202011041200 METAR MRLM 041200Z 21005KT CAVOK 24/23 A2970=
202011041300 METAR MRLM 041300Z 25004KT CAVOK 25/23 A2973=
202011041400 METAR MRLM 041400Z 27003KT CAVOK 28/24 A2974=
202011041500 METAR MRLM 041500Z 23003KT CAVOK 29/24 A2975=
202011041600 METAR MRLM 041600Z 00000KT CAVOK 28/25 A2976=
202011041700 METAR MRLM 041700Z 08006KT CAVOK 30/24 A2974=
202011041800 METAR MRLM 041800Z 06004KT CAVOK 30/25 A2972=
202011041900 METAR MRLM 041900Z 05005KT 9999 FEW030 BKN140 30/24 A2971=
202011042000 METAR MRLM 042000Z 05004KT 9999 FEW030 SCT140 BKN230 30/24 A2969=
202011042100 METAR MRLM 042100Z 05003KT 9999 FEW020 BKN130 29/24 A2970=
202011042200 METAR MRLM 042200Z 22004KT 9999 -DZ SCT020 BKN120 27/25 A2970=
202011042300 METAR MRLM 042300Z 23003KT 9999 FEW020 BKN120 26/25 A2971=
202011050000 METAR MRLM 050000Z 24005KT 9999 DZ FEW010CB BKN110 25/24 A2975=
202011050100 METAR MRLM NIL=
202011050200 METAR MRLM NIL=
202011050300 METAR MRLM NIL=
202011050400 METAR MRLM NIL=
202011050500 METAR MRLM NIL=
202011050600 METAR MRLM NIL=
202011050700 METAR MRLM NIL=
202011050800 METAR MRLM NIL=
202011050900 METAR MRLM NIL=
202011051000 METAR MRLM NIL=
202011051100 METAR MRLM NIL=
202011051200 METAR MRLM 051200Z 25003KT 9999 SCT020 BKN090 25/24 A2979=
202011051300 METAR MRLM 051300Z 24004KT 9999 -DZ FEW020 BKN100 25/24 A2981=
202011051400 METAR MRLM 051400Z 23003KT 9999 FEW020 BKN120 27/25 A2983=
202011051500 METAR MRLM 051500Z 00000KT CAVOK 28/24 A2983=
202011051600 METAR MRLM 051600Z 07003KT 9999 FEW020 BKN130 29/24 A2983=
202011051700 METAR MRLM 051700Z 03007KT CAVOK 30/23 A2980=
202011051800 METAR MRLM 051800Z 02007KT CAVOK 29/24 A2977=
202011051900 METAR MRLM 051900Z 34006KT 9999 FEW025 BKN130 29/24 A2974=
202011052000 METAR MRLM 052000Z 32005KT 9999 FEW025 BKN130 29/24 A2972=
202011052100 METAR MRLM 052100Z 35006KT 9999 BKN025 29/25 A2972=
202011052200 METAR MRLM 052200Z 35007KT 9999 FEW020 BKN120 28/25 A2972=
202011052300 METAR MRLM 052300Z 32006KT 9999 SCT015 BKN110 28/25 A2973=
202011060000 METAR MRLM 060000Z 29003KT 9999 SCT015 BKN110 27/23 A2977=
202011060100 METAR MRLM NIL=
202011060200 METAR MRLM NIL=
202011060300 METAR MRLM NIL=
202011060400 METAR MRLM NIL=
202011060500 METAR MRLM NIL=
202011060600 METAR MRLM NIL=
202011060700 METAR MRLM NIL=
202011060800 METAR MRLM NIL=
202011060900 METAR MRLM NIL=
202011061000 METAR MRLM NIL=
202011061100 METAR MRLM NIL=
202011061200 METAR MRLM 061200Z 21004KT 9999 SCT015 OVC090 25/23 A2980=
202011061300 METAR MRLM 061300Z 20004KT 8000 VCSH SCT015TCU OVC080 25/24 A2981=
202011061400 METAR MRLM 061400Z 32006KT 9999 -DZ VCSH FEW015TCU OVC080 24/23 A2984=
202011061500 METAR MRLM 061500Z 29003KT 9999 FEW015 BKN080 25/24 A2983=
202011061600 METAR MRLM 061600Z 29004KT 9999 FEW020 BKN100 28/25 A2982=
202011061700 METAR MRLM 061700Z 31006KT 9999 FEW020 BKN200 28/24 A2979=
202011061800 METAR MRLM 061800Z 31006KT 9999 FEW020 BKN220 30/23 A2976=
202011061900 METAR MRLM 061900Z 01008KT 9999 SCT020 BKN220 29/24 A2974=
202011062000 METAR MRLM 062000Z 36008KT 9999 SCT020 BKN220 29/24 A2972=
202011062100 METAR MRLM 062100Z 01007KT 9999 FEW020 BKN220 29/24 A2971=
202011062200 METAR MRLM 062200Z 33004KT 9999 FEW020 BKN220 28/24 A2972=
202011062300 METAR MRLM 062300Z 31002KT 9999 SCT015 BKN200 28/24 A2974=
202011070000 METAR MRLM 070000Z 27003KT 9999 SCT015 BKN200 27/25 A2975=
202011070100 METAR MRLM NIL=
202011070200 METAR MRLM NIL=
202011070300 METAR MRLM NIL=
202011070400 METAR MRLM NIL=
202011070500 METAR MRLM NIL=
202011070600 METAR MRLM NIL=
202011070700 METAR MRLM NIL=
202011070800 METAR MRLM NIL=
202011070900 METAR MRLM NIL=
202011071000 METAR MRLM NIL=
202011071100 METAR MRLM NIL=
202011071200 METAR MRLM 071200Z 22004KT 9999 FEW015 BKN100 24/23 A2980=
202011071300 METAR MRLM 071300Z 24003KT 9999 FEW015 BKN100 25/23 A2982=
202011071400 METAR MRLM 071400Z 22003KT 9999 FEW015 BKN100 27/24 A2983=
202011071500 METAR MRLM 071500Z 03003KT 9999 FEW020 SCT120 BKN220 28/24 A2984=
202011071600 METAR MRLM 071600Z 02004KT 9999 FEW020 BKN220 28/24 A2984=
202011071700 METAR MRLM 071700Z 06003KT 9999 FEW020 BKN220 29/24 A2982=
202011071800 METAR MRLM 071800Z 08004KT 9999 FEW020 SCT220 29/25 A2978=
202011071900 METAR MRLM 071900Z 06005KT 9999 FEW020 SCT220 29/25 A2976=
202011072000 METAR MRLM 072000Z 07005KT 9999 FEW020 SCT220 29/25 A2974=
202011072100 METAR MRLM 072100Z 05005KT 9999 FEW020 SCT220 29/25 A2973=
202011072200 METAR MRLM 072200Z 05005KT 9999 BKN020 SCT220 29/25 A2973=
202011072300 METAR MRLM 072300Z 07005KT 9999 SCT020 SCT220 28/25 A2974=
202011080000 METAR MRLM 080000Z 00000KT 9999 SCT015 SCT200 26/25 A2976=
202011080100 METAR MRLM NIL=
202011080200 METAR MRLM NIL=
202011080300 METAR MRLM NIL=
202011080400 METAR MRLM NIL=
202011080500 METAR MRLM NIL=
202011080600 METAR MRLM NIL=
202011080700 METAR MRLM NIL=
202011080800 METAR MRLM NIL=
202011080900 METAR MRLM NIL=
202011081000 METAR MRLM NIL=
202011081100 METAR MRLM NIL=
202011081200 METAR MRLM 081200Z 00000KT CAVOK 24/23 A2983=
202011081300 METAR MRLM 081300Z 25003KT CAVOK 27/24 A2985=
202011081400 METAR MRLM 081400Z 31002KT CAVOK 28/24 A2986=
202011081500 METAR MRLM 081500Z 03004KT 9999 FEW030 29/24 A2987=
202011081600 METAR MRLM 081600Z 02008KT 9999 FEW030 29/25 A2986=
202011081700 METAR MRLM 081700Z 03006KT 9999 FEW030 29/25 A2986=
202011081800 METAR MRLM 081800Z 03007KT 9999 FEW030 30/25 A2983=
202011081900 METAR MRLM 081900Z 04008KT 9999 FEW030 30/26 A2981=
202011082000 METAR MRLM 082000Z 03007KT 9999 SCT030 30/25 A2980=
202011082100 METAR MRLM 082100Z 03005KT 9999 SCT030 30/25 A2978=
202011082200 METAR MRLM 082200Z 05005KT 9999 BKN025 29/25 A2979=
202011082300 METAR MRLM 082300Z 09003KT 9999 SCT025 29/25 A2980=
202011090000 METAR MRLM 090000Z 21003KT 9999 SCT020 28/24 A2985=
202011090100 METAR MRLM NIL=
202011090200 METAR MRLM NIL=
202011090300 METAR MRLM NIL=
202011090400 METAR MRLM NIL=
202011090500 METAR MRLM NIL=
202011090600 METAR MRLM NIL=
202011090700 METAR MRLM NIL=
202011090800 METAR MRLM NIL=
202011090900 METAR MRLM NIL=
202011091000 METAR MRLM NIL=
202011091100 METAR MRLM NIL=
202011091200 METAR MRLM 091200Z 23004KT 9999 FEW015 SCT120 24/23 A2986=
202011091300 METAR MRLM 091300Z 24004KT CAVOK 26/24 A2987=
202011091400 METAR MRLM 091400Z 28004KT CAVOK 29/24 A2988=
202011091500 METAR MRLM 091500Z 01007KT 9999 FEW030 30/24 A2989=
202011091600 METAR MRLM 091600Z 01009KT 9999 FEW030 SCT250 30/25 A2989=
202011091700 METAR MRLM 091700Z 02007KT 9999 FEW030 29/25 A2987=
202011091800 METAR MRLM 091800Z 02007KT 9999 FEW030 30/25 A2985=
202011091900 METAR MRLM 091900Z 05005KT CAVOK 30/25 A2981=
202011092000 METAR MRLM 092000Z 03009KT CAVOK 30/25 A2979=
202011092100 METAR MRLM 092100Z 04008KT 9999 FEW030 30/25 A2978=
202011092200 METAR MRLM 092200Z 05005KT 9999 FEW030 SCT250 29/25 A2978=
202011092300 METAR MRLM 092300Z 10005KT 9999 BKN025 29/25 A2980=
202011100000 METAR MRLM 100000Z 11005KT 9999 BKN020 28/24 A2984=
202011100100 METAR MRLM NIL=
202011100200 METAR MRLM NIL=
202011100300 METAR MRLM NIL=
202011100400 METAR MRLM NIL=
202011100500 METAR MRLM NIL=
202011100600 METAR MRLM NIL=
202011100700 METAR MRLM NIL=
202011100800 METAR MRLM NIL=
202011100900 METAR MRLM NIL=
202011101000 METAR MRLM NIL=
202011101100 METAR MRLM NIL=
202011101200 METAR MRLM 101200Z 24003KT CAVOK 24/23 A2987=
202011101300 METAR MRLM 101300Z 25004KT 9999 FEW020 SCT120 25/24 A2989=
202011101400 METAR MRLM 101400Z 28004KT CAVOK 29/24 A2990=
202011101500 METAR MRLM 101500Z 03006KT CAVOK 29/25 A2992=
202011101600 METAR MRLM 101600Z 05006KT 9999 FEW030 SCT240 29/24 A2989=
202011101700 METAR MRLM 101700Z 06008KT CAVOK 30/25 A2987=
202011101800 METAR MRLM 101800Z 06008KT CAVOK 30/25 A2987=
202011101900 METAR MRLM 101900Z 04006KT CAVOK 30/25 A2982=
202011102000 METAR MRLM NIL=
202011102100 METAR MRLM NIL=
202011102200 METAR MRLM NIL=
202011102300 METAR MRLM NIL=
202011110000 METAR MRLM NIL=
202011110100 METAR MRLM NIL=
202011110200 METAR MRLM NIL=
202011110300 METAR MRLM NIL=
202011110400 METAR MRLM NIL=
202011110500 METAR MRLM NIL=
202011110600 METAR MRLM NIL=
202011110700 METAR MRLM NIL=
202011110800 METAR MRLM NIL=
202011110900 METAR MRLM NIL=
202011111000 METAR MRLM NIL=
202011111100 METAR MRLM NIL=
202011111200 METAR MRLM NIL=
202011111300 METAR MRLM NIL=
202011111400 METAR MRLM NIL=
202011111500 METAR MRLM NIL=
202011111600 METAR MRLM NIL=
202011111700 METAR MRLM NIL=
202011111800 METAR MRLM NIL=
202011111900 METAR MRLM NIL=
202011112000 METAR MRLM NIL=
202011112100 METAR MRLM NIL=
202011112200 METAR MRLM NIL=
202011112300 METAR MRLM NIL=
202011120000 METAR MRLM NIL=
202011120100 METAR MRLM NIL=
202011120200 METAR MRLM NIL=
202011120300 METAR MRLM NIL=
202011120400 METAR MRLM NIL=
202011120500 METAR MRLM NIL=
202011120600 METAR MRLM NIL=
202011120700 METAR MRLM NIL=
202011120800 METAR MRLM NIL=
202011120900 METAR MRLM NIL=
202011121000 METAR MRLM NIL=
202011121100 METAR MRLM NIL=
202011121200 METAR MRLM NIL=
202011121300 METAR MRLM NIL=
202011121400 METAR MRLM NIL=
202011121500 METAR MRLM NIL=
202011121600 METAR MRLM NIL=
202011121700 METAR MRLM NIL=
202011121800 METAR MRLM NIL=
202011121900 METAR MRLM NIL=
202011122000 METAR MRLM NIL=
202011122100 METAR MRLM NIL=
202011122200 METAR MRLM NIL=
202011122300 METAR MRLM NIL=
202011130000 METAR MRLM NIL=
202011130100 METAR MRLM NIL=
202011130200 METAR MRLM NIL=
202011130300 METAR MRLM NIL=
202011130400 METAR MRLM NIL=
202011130500 METAR MRLM NIL=
202011130600 METAR MRLM NIL=
202011130700 METAR MRLM NIL=
202011130800 METAR MRLM NIL=
202011130900 METAR MRLM NIL=
202011131000 METAR MRLM NIL=
202011131100 METAR MRLM NIL=
202011131200 METAR MRLM NIL=
202011131300 METAR MRLM NIL=
202011131400 METAR MRLM NIL=
202011131500 METAR MRLM NIL=
202011131600 METAR MRLM NIL=
202011131700 METAR MRLM NIL=
202011131800 METAR MRLM NIL=
202011131900 METAR MRLM NIL=
202011132000 METAR MRLM NIL=
202011132100 METAR MRLM NIL=
202011132200 METAR MRLM NIL=
202011132300 METAR MRLM NIL=
202011140000 METAR MRLM NIL=
202011140100 METAR MRLM NIL=
202011140200 METAR MRLM NIL=
202011140300 METAR MRLM NIL=
202011140400 METAR MRLM NIL=
202011140500 METAR MRLM NIL=
202011140600 METAR MRLM NIL=
202011140700 METAR MRLM NIL=
202011140800 METAR MRLM NIL=
202011140900 METAR MRLM NIL=
202011141000 METAR MRLM NIL=
202011141100 METAR MRLM NIL=
202011141200 METAR MRLM NIL=
202011141300 METAR MRLM NIL=
202011141400 METAR MRLM NIL=
202011141500 METAR MRLM NIL=
202011141600 METAR MRLM NIL=
202011141700 METAR MRLM NIL=
202011141800 METAR MRLM NIL=
202011141900 METAR MRLM NIL=
202011142000 METAR MRLM NIL=
202011142100 METAR MRLM NIL=
202011142200 METAR MRLM NIL=
202011142300 METAR MRLM NIL=
202011150000 METAR MRLM NIL=
202011150100 METAR MRLM NIL=
202011150200 METAR MRLM NIL=
202011150300 METAR MRLM NIL=
202011150400 METAR MRLM NIL=
202011150500 METAR MRLM NIL=
202011150600 METAR MRLM NIL=
202011150700 METAR MRLM NIL=
202011150800 METAR MRLM NIL=
202011150900 METAR MRLM NIL=
202011151000 METAR MRLM NIL=
202011151100 METAR MRLM NIL=
202011151200 METAR MRLM NIL=
202011151300 METAR MRLM NIL=
202011151400 METAR MRLM NIL=
202011151500 METAR MRLM NIL=
202011151600 METAR MRLM NIL=
202011151700 METAR MRLM NIL=
202011151800 METAR MRLM NIL=
202011151900 METAR MRLM NIL=
202011152000 METAR MRLM NIL=
202011152100 METAR MRLM NIL=
202011152200 METAR MRLM NIL=
202011152300 METAR MRLM NIL=
202011160000 METAR MRLM NIL=
202011160100 METAR MRLM NIL=
202011160200 METAR MRLM NIL=
202011160300 METAR MRLM NIL=
202011160400 METAR MRLM NIL=
202011160500 METAR MRLM NIL=
202011160600 METAR MRLM NIL=
202011160700 METAR MRLM NIL=
202011160800 METAR MRLM NIL=
202011160900 METAR MRLM NIL=
202011161000 METAR MRLM NIL=
202011161100 METAR MRLM NIL=
202011161200 METAR MRLM 161200Z 29005KT CAVOK 25/21 A2978=
202011161300 METAR MRLM 161300Z 28007KT CAVOK 28/21 A2980=
202011161400 METAR MRLM 161400Z 28006KT CAVOK 30/22 A2981=
202011161500 METAR MRLM 161500Z 27004KT CAVOK 31/22 A2981=
202011161600 METAR MRLM 161600Z 30009KT CAVOK 32/21 A2979=
202011161700 METAR MRLM 161700Z 29005KT 9999 FEW030 BKN240 32/22 A2977=
202011161800 METAR MRLM 161800Z 28006KT 9999 FEW030 BKN240 31/21 A2974=
202011161900 METAR MRLM 161900Z 28005KT CAVOK 31/22 A2971=
202011162000 METAR MRLM 162000Z 25003KT CAVOK 31/22 A2968=
202011162100 METAR MRLM 162100Z 31002KT CAVOK 31/23 A2967=
202011162200 METAR MRLM 162200Z 24002KT CAVOK 30/25 A2968=
202011162300 METAR MRLM NIL=
202011170000 METAR MRLM NIL=
202011170100 METAR MRLM NIL=
202011170200 METAR MRLM NIL=
202011170300 METAR MRLM NIL=
202011170400 METAR MRLM NIL=
202011170500 METAR MRLM NIL=
202011170600 METAR MRLM NIL=
202011170700 METAR MRLM NIL=
202011170800 METAR MRLM NIL=
202011170900 METAR MRLM NIL=
202011171000 METAR MRLM NIL=
202011171100 METAR MRLM NIL=
202011171200 METAR MRLM 171200Z 22003KT 9999 FEW020 BKN200 24/23 A2972=
202011171300 METAR MRLM 171300Z 26003KT CAVOK 25/23 A2974=
202011171400 METAR MRLM 171400Z 27003KT CAVOK 27/23 A2976=
202011171500 METAR MRLM 171500Z 05002KT CAVOK 28/23 A2979=
202011171600 METAR MRLM 171600Z 06003KT CAVOK 29/23 A2979=
202011171700 METAR MRLM 171700Z 08005KT CAVOK 30/23 A2976=
202011171800 METAR MRLM 171800Z 06005KT CAVOK 30/24 A2975=
202011171900 METAR MRLM 171900Z 04006KT CAVOK 31/25 A2972=
202011172000 METAR MRLM 172000Z 05006KT CAVOK 30/25 A2972=
202011172100 METAR MRLM 172100Z 27005KT 9999 DZ FEW020 BKN120 27/25 A2972=
202011172200 METAR MRLM 172200Z 26006KT 9999 FEW020 BKN120 26/23 A2973 REDZ=
202011172300 METAR MRLM NIL=
202011180000 METAR MRLM NIL=
202011180100 METAR MRLM NIL=
202011180200 METAR MRLM NIL=
202011180300 METAR MRLM NIL=
202011180400 METAR MRLM NIL=
202011180500 METAR MRLM NIL=
202011180600 METAR MRLM NIL=
202011180700 METAR MRLM NIL=
202011180800 METAR MRLM NIL=
202011180900 METAR MRLM NIL=
202011181000 METAR MRLM NIL=
202011181100 METAR MRLM NIL=
202011181200 METAR MRLM 181200Z 27004KT 9999 FEW015TCU SCT100 25/23 A2984=
202011181300 METAR MRLM 181300Z 25003KT 9999 FEW015TCU SCT100 25/23 A2986=
202011181400 METAR MRLM 181400Z 24003KT 9999 FEW020 BKN100 26/24 A2988=
202011181500 METAR MRLM 181500Z 25003KT 9999 FEW020 BKN100 28/25 A2989=
202011181600 METAR MRLM 181600Z 32004KT 9999 FEW020 BKN100 28/24 A2990=
202011181700 METAR MRLM 181700Z 01004KT 9999 FEW020 BKN120 29/24 A2987=
202011181800 METAR MRLM 181800Z 01006KT 9999 FEW020 SCT120 OVC220 28/25 A2985=
202011181900 METAR MRLM 181900Z 01006KT 9999 FEW020 OVC220 29/24 A2983=
202011182000 METAR MRLM 182000Z 02007KT 9999 FEW020 OVC120 28/25 A2980=
202011182100 METAR MRLM 182100Z 01006KT 9999 -DZ SCT020 OVC120 27/25 A2981=
202011182200 METAR MRLM 182200Z 31003KT 9999 -DZ SCT015 OVC100 27/25 A2981=
202011182300 METAR MRLM NIL=
202011190000 METAR MRLM NIL=
202011190100 METAR MRLM NIL=
202011190200 METAR MRLM NIL=
202011190300 METAR MRLM NIL=
202011190400 METAR MRLM NIL=
202011190500 METAR MRLM NIL=
202011190600 METAR MRLM NIL=
202011190700 METAR MRLM NIL=
202011190800 METAR MRLM NIL=
202011190900 METAR MRLM NIL=
202011191000 METAR MRLM NIL=
202011191100 METAR MRLM NIL=
202011191200 METAR MRLM 191200Z 29002KT 9999 FEW015 BKN200 23/22 A2988=
202011191300 METAR MRLM 191300Z 27003KT 9999 FEW015 SCT100 BKN200 24/23 A2989=
202011191400 METAR MRLM 191400Z 27003KT CAVOK 25/23 A2991=
202011191500 METAR MRLM 191500Z 28005KT CAVOK 29/23 A2992=
202011191600 METAR MRLM 191600Z 29007KT CAVOK 30/23 A2990=
202011191700 METAR MRLM 191700Z 32009KT 9999 FEW030 SCT220 31/23 A2987=
202011191800 METAR MRLM 191800Z 35013KT 9999 FEW030 SCT220 31/25 A2984=
202011191900 METAR MRLM 191900Z 35016KT 9999 FEW030 SCT220 31/24 A2982=
202011192000 METAR MRLM 192000Z 35014KT CAVOK 31/24 A2980=
202011192100 METAR MRLM 192100Z 33012KT 9999 FEW020 SCT220 29/24 A2979=
202011192200 METAR MRLM 192200Z 32010KT 9999 SCT020 SCT220 29/24 A2979=
202011192300 METAR MRLM NIL=
202011200000 METAR MRLM NIL=
202011200100 METAR MRLM NIL=
202011200200 METAR MRLM NIL=
202011200300 METAR MRLM NIL=
202011200400 METAR MRLM NIL=
202011200500 METAR MRLM NIL=
202011200600 METAR MRLM NIL=
202011200700 METAR MRLM NIL=
202011200800 METAR MRLM NIL=
202011200900 METAR MRLM NIL=
202011201000 METAR MRLM NIL=
202011201100 METAR MRLM NIL=
202011201200 METAR MRLM 201200Z 31005KT 9999 -DZ SCT015 BKN090 24/23 A2986=
202011201300 METAR MRLM 201300Z 30006KT 9999 -DZ SCT020 BKN090 24/23 A2988=
202011201400 METAR MRLM 201400Z COR 30006KT 9999 DZ SCT020 OVC090 24/23 A2988=
202011201500 METAR MRLM 201500Z 28006KT 9999 FEW020 BKN110 25/24 A2991 REDZ=
202011201600 METAR MRLM 201600Z 29005KT 9999 DZ VCSH BKN020 26/24 A2990=
202011201700 METAR MRLM 201700Z 28006KT 9999 FEW020 BKN120 27/24 A2989 REDZ=
202011201800 METAR MRLM 201800Z 00000KT 9999 DZ FEW020 BKN120 26/24 A2986=
202011201900 METAR MRLM 201900Z 00000KT 9999 FEW015 BKN130 26/24 A2984 REDZ=
202011202000 METAR MRLM 202000Z 00000KT 9999 DZ FEW015 OVC120 26/25 A2982=
202011202100 METAR MRLM 202100Z 28003KT 9999 DZ VCSH FEW015 OVC120 26/24 A2980=
202011202200 METAR MRLM 202200Z 00000KT 9999 FEW015 BKN130 25/24 A2980 REDZ=
202011202300 METAR MRLM 202300Z 00000KT CAVOK 25/23 A2980=
202011210000 METAR MRLM 210000Z 23006KT CAVOK 24/23 A2980=
202011210100 METAR MRLM NIL=
202011210200 METAR MRLM NIL=
202011210300 METAR MRLM NIL=
202011210400 METAR MRLM NIL=
202011210500 METAR MRLM NIL=
202011210600 METAR MRLM NIL=
202011210700 METAR MRLM NIL=
202011210800 METAR MRLM NIL=
202011210900 METAR MRLM NIL=
202011211000 METAR MRLM NIL=
202011211100 METAR MRLM NIL=
202011211200 METAR MRLM 211200Z 23005KT CAVOK 22/21 A2982=
202011211300 METAR MRLM 211300Z 23005KT CAVOK 26/22 A2985=
202011211400 METAR MRLM 211400Z 25004KT CAVOK 27/24 A2985=
202011211500 METAR MRLM 211500Z 27003KT CAVOK 27/23 A2986=
202011211600 METAR MRLM 211600Z 02005KT 9999 FEW030 SCT140 BKN240 29/24 A2985=
202011211700 METAR MRLM 211700Z 01009KT 9999 FEW030 SCT140 BKN250 29/24 A2982=
202011211800 METAR MRLM 211800Z 01009KT CAVOK 29/25 A2980=
202011211900 METAR MRLM 211900Z 36011KT 9999 FEW030 SCT140 BKN250 29/24 A2977=
202011212000 METAR MRLM 212000Z 01010KT 9999 SCT025 BKN240 28/24 A2975=
202011212100 METAR MRLM 212100Z 32005KT 9999 SCT020 BKN230 28/24 A2975=
202011212200 METAR MRLM NIL=
202011212300 METAR MRLM 212300Z 00000KT 9999 SCT020 BKN230 28/25 A2974=
202011220000 METAR MRLM 220000Z 27003KT 9999 SCT020 BKN130 27/24 A2979=
202011220100 METAR MRLM NIL=
202011220200 METAR MRLM NIL=
202011220300 METAR MRLM NIL=
202011220400 METAR MRLM NIL=
202011220500 METAR MRLM NIL=
202011220600 METAR MRLM NIL=
202011220700 METAR MRLM NIL=
202011220800 METAR MRLM NIL=
202011220900 METAR MRLM NIL=
202011221000 METAR MRLM NIL=
202011221100 METAR MRLM NIL=
202011221200 METAR MRLM 221200Z 22002KT 8000 FEW010 OVC080 24/23 A2983=
202011221300 METAR MRLM 221300Z 23003KT 8000 FEW010 OVC080 24/24 A2985=
202011221400 METAR MRLM 221400Z 26003KT 9999 -DZ FEW010 OVC080 25/24 A2986=
202011221500 METAR MRLM 221500Z 29004KT 9999 FEW015 BKN090 27/24 A2985=
202011221600 METAR MRLM 221600Z 32006KT 9999 FEW015 BKN090 28/24 A2984=
202011221700 METAR MRLM 221700Z 32007KT 9999 FEW015 BKN090 28/24 A2982=
202011221800 METAR MRLM 221800Z 35011KT 9999 FEW020 SCT120 BKN220 29/24 A2980=
202011221900 METAR MRLM 221900Z 34011KT 9999 DZ FEW020 SCT120 BKN220 28/24 A2977=
202011222000 METAR MRLM 222000Z 32008KT 9999 FEW020 SCT120 BKN220 27/24 A2975 REDZ=
202011222100 METAR MRLM 222100Z 30003KT 9999 -DZ SCT020 BKN120 27/24 A2975=
202011222200 METAR MRLM 222200Z 32003KT 9999 SCT020 BKN120 27/24 A2976=
202011222300 METAR MRLM 222300Z 31002KT 9999 FEW020 SCT100 BKN200 26/24 A2977=
202011230000 METAR MRLM 230000Z 25003KT 9999 FEW015 BKN200 25/24 A2979=
202011230100 METAR MRLM NIL=
202011230200 METAR MRLM NIL=
202011230300 METAR MRLM NIL=
202011230400 METAR MRLM NIL=
202011230500 METAR MRLM NIL=
202011230600 METAR MRLM NIL=
202011230700 METAR MRLM NIL=
202011230800 METAR MRLM NIL=
202011230900 METAR MRLM NIL=
202011231000 METAR MRLM NIL=
202011231100 METAR MRLM NIL=
202011231200 METAR MRLM 231200Z 24004KT 9999 FEW015 SCT100 23/22 A2985=
202011231300 METAR MRLM 231300Z 23003KT 9999 FEW015 SCT100 25/23 A2986=
202011231400 METAR MRLM 231400Z 30005KT 9999 FEW020 SCT120 28/24 A2988=
202011231500 METAR MRLM 231500Z 29008KT 9999 FEW020 28/24 A2988=
202011231600 METAR MRLM 231600Z 29007KT 9999 FEW025 29/24 A2987=
202011231700 METAR MRLM 231700Z 34009KT 9999 FEW025 30/24 A2985=
202011231800 METAR MRLM 231800Z 36012KT 9999 FEW025 29/25 A2982=
202011231900 METAR MRLM 231900Z 35012KT 9999 FEW025 29/24 A2980=
202011232000 METAR MRLM 232000Z 36013KT 9999 FEW025 29/25 A2977=
202011232100 METAR MRLM 232100Z 35012KT 9999 SCT025 29/25 A2977=
202011232200 METAR MRLM 232200Z 35008KT 9999 FEW015TCU SCT020 28/24 A2979=
202011232300 METAR MRLM 232300Z 29003KT 9999 FEW015TCU SCT020 27/24 A2980=
202011240000 METAR MRLM 240000Z 25003KT 9999 SCT015 SCT200 26/24 A2982=
202011240100 METAR MRLM NIL=
202011240200 METAR MRLM NIL=
202011240300 METAR MRLM NIL=
202011240400 METAR MRLM NIL=
202011240500 METAR MRLM NIL=
202011240600 METAR MRLM NIL=
202011240700 METAR MRLM NIL=
202011240800 METAR MRLM NIL=
202011240900 METAR MRLM NIL=
202011241000 METAR MRLM NIL=
202011241100 METAR MRLM NIL=
202011241200 METAR MRLM 241200Z 26003KT CAVOK 24/23 A2987=
202011241300 METAR MRLM 241300Z 26006KT CAVOK 26/24 A2989=
202011241400 METAR MRLM 241400Z 30004KT CAVOK 28/24 A2992=
202011241500 METAR MRLM 241500Z 30007KT 9999 FEW020 BKN130 28/25 A2992=
202011241600 METAR MRLM 241600Z 31007KT 9999 FEW025 30/24 A2990=
202011241700 METAR MRLM 241700Z 36009KT 9999 FEW020 BKN130 30/24 A2989=
202011241800 METAR MRLM 241800Z 36010KT CAVOK 28/24 A2986=
202011241900 METAR MRLM 241900Z 35008KT 9999 DZ VCSH FEW015CB SCT020 BKN120 29/25 A2983=
202011242000 METAR MRLM 242000Z 35010KT 9999 DZ VCSH SCT015 BKN120 27/26 A2983=
202011242100 METAR MRLM 242100Z 35008KT 9999 VCSH BKN015 27/25 A2982=
202011242200 METAR MRLM 242200Z 34005KT 9999 VCSH SCT015 BKN110 27/24 A2981=
202011242300 METAR MRLM 242300Z 33003KT 9999 SCT015 BKN100 26/24 A2984=
202011250000 METAR MRLM 250000Z 00000KT 9999 BKN015 26/24 A2992=
202011250100 METAR MRLM NIL=
202011250200 METAR MRLM NIL=
202011250300 METAR MRLM NIL=
202011250400 METAR MRLM NIL=
202011250500 METAR MRLM NIL=
202011250600 METAR MRLM NIL=
202011250700 METAR MRLM NIL=
202011250800 METAR MRLM NIL=
202011250900 METAR MRLM NIL=
202011251000 METAR MRLM NIL=
202011251100 METAR MRLM NIL=
202011251200 METAR MRLM 251200Z 26002KT CAVOK 23/22 A2986=
202011251300 METAR MRLM 251300Z 00000KT CAVOK 25/23 A2988=
202011251400 METAR MRLM 251400Z 00000KT CAVOK 28/24 A2990=
202011251500 METAR MRLM 251500Z 03004KT CAVOK 29/24 A2992=
202011251600 METAR MRLM 251600Z 01007KT CAVOK 29/24 A2992=
202011251700 METAR MRLM 251700Z 01007KT CAVOK 29/25 A2990=
202011251800 METAR MRLM 251800Z 01009KT 9999 FEW030 BKN240 29/25 A2988=
202011251900 METAR MRLM 251900Z 01008KT CAVOK 29/25 A2985=
202011252000 METAR MRLM 252000Z 01007KT 9999 FEW030 BKN240 29/25 A2983=
202011252100 METAR MRLM 252100Z 04005KT 9999 FEW030 BKN240 29/25 A2981=
202011252200 METAR MRLM 252200Z 05005KT 9999 FEW030 SCT130 BKN240 29/25 A2982=
202011252300 METAR MRLM 252300Z 04004KT 9999 FEW025 SCT130 BKN240 28/24 A2982=
202011260000 METAR MRLM 260000Z 26004KT 9999 FEW020 SCT130 BKN230 27/24 A2985=
202011260100 METAR MRLM NIL=
202011260200 METAR MRLM NIL=
202011260300 METAR MRLM NIL=
202011260400 METAR MRLM NIL=
202011260500 METAR MRLM NIL=
202011260600 METAR MRLM NIL=
202011260700 METAR MRLM NIL=
202011260800 METAR MRLM NIL=
202011260900 METAR MRLM NIL=
202011261000 METAR MRLM NIL=
202011261100 METAR MRLM NIL=
202011261200 METAR MRLM 261200Z 25003KT 9999 FEW015TCU SCT200 23/22 A2986=
202011261300 METAR MRLM 261300Z 24004KT 9999 FEW015TCU SCT200 24/22 A2988=
202011261400 METAR MRLM 261400Z 25002KT 9999 FEW015 SCT200 25/23 A2988=
202011261500 METAR MRLM 261500Z 00000KT 9999 FEW020 SCT200 27/24 A2990=
202011261600 METAR MRLM 261600Z 34004KT 9999 FEW020 SCT220 29/24 A2989=
202011261700 METAR MRLM 261700Z 02007KT 9999 FEW020 BKN120 29/25 A2988=
202011261800 METAR MRLM 261800Z 02006KT 9999 FEW020 BKN120 29/25 A2986=
202011261900 METAR MRLM 261900Z 05004KT CAVOK 28/25 A2983=
202011262000 METAR MRLM 262000Z 09007KT 9999 FEW020 SCT120 BKN220 29/25 A2983=
202011262100 METAR MRLM 262100Z 07016KT 8000 -DZ FEW010 OVC090 25/23 A2982=
202011262200 METAR MRLM 262200Z 10003KT 9999 -DZ FEW010 OVC090 25/23 A2980=
202011262300 METAR MRLM 262300Z 00000KT 9999 -DZ FEW010 SCT090 OVC200 24/23 A2979=
202011270000 METAR MRLM 270000Z 29002KT CAVOK 24/23 A2981=
202011270100 METAR MRLM NIL=
202011270200 METAR MRLM NIL=
202011270300 METAR MRLM NIL=
202011270800 METAR MRLM NIL=
202011270900 METAR MRLM NIL=
202011271000 METAR MRLM NIL=
202011271100 METAR MRLM NIL=
202011271200 METAR MRLM 271200Z 23005KT 8000 FEW015 BKN080 23/22 A2987=
202011271300 METAR MRLM 271300Z 26002KT 9999 FEW015 BKN080 24/22 A2988=
202011271400 METAR MRLM 271400Z 25003KT 9000 VCSH FEW015TCU BKN080 26/23 A2990=
202011271500 METAR MRLM 271500Z 23003KT 9000 -DZ VCSH FEW015TCU BKN080 27/23 A2990=
202011271600 METAR MRLM 271600Z 25004KT 9999 FEW020TCU BKN100 29/24 A2990=
202011271700 METAR MRLM 271700Z 03007KT 9999 FEW020TCU BKN100 29/24 A2988=
202011271800 METAR MRLM 271800Z 01012KT 9999 FEW020 BKN100 28/24 A2986=
202011271900 METAR MRLM 271900Z 00000KT 9999 VCSH FEW020TCU BKN100 27/23 A2983=
202011272000 METAR MRLM 272000Z 16006KT 9999 FEW020TCU SCT120 BKN220 27/22 A2983=
202011272100 METAR MRLM 272100Z 21004KT 9999 FEW020 SCT120 BKN220 27/23 A2981=
202011272200 METAR MRLM 272200Z 21003KT CAVOK 26/23 A2981=
202011272300 METAR MRLM 272300Z 22003KT CAVOK 26/23 A2982=
202011280000 METAR MRLM 280000Z 22004KT 9999 FEW015 SCT100 25/23 A2984=
202011280100 METAR MRLM NIL=
202011280200 METAR MRLM NIL=
202011280300 METAR MRLM NIL=
202011280400 METAR MRLM NIL=
202011280500 METAR MRLM NIL=
202011280600 METAR MRLM NIL=
202011280700 METAR MRLM NIL=
202011280800 METAR MRLM NIL=
202011280900 METAR MRLM NIL=
202011281000 METAR MRLM NIL=
202011281100 METAR MRLM NIL=
202011281200 METAR MRLM 281200Z 00000KT CAVOK 21/21 A2988=
202011281300 METAR MRLM 281300Z 23003KT CAVOK 24/22 A2990=
202011281400 METAR MRLM 281400Z 00000KT CAVOK 27/23 A2993=
202011281500 METAR MRLM 281500Z 06004KT CAVOK 28/23 A2993=
202011281600 METAR MRLM 281600Z 05004KT CAVOK 29/23 A2992=
202011281700 METAR MRLM 281700Z 04005KT CAVOK 29/23 A2990=
202011281800 METAR MRLM 281800Z 04006KT CAVOK 29/23 A2988=
202011281900 METAR MRLM 281900Z 02008KT CAVOK 29/24 A2984=
202011282000 METAR MRLM 282000Z 01006KT CAVOK 29/25 A2981=
202011282100 METAR MRLM 282100Z 01006KT 9999 FEW030 SCT250 29/25 A2981=
202011282200 METAR MRLM 282200Z 36005KT 9999 FEW030 BKN250 29/23 A2981=
202011282300 METAR MRLM 282300Z 34004KT 9999 BKN025 28/24 A2982=
202011290000 METAR MRLM 290000Z 26003KT 9999 BKN020 27/23 A2987=
202011290100 METAR MRLM NIL=
202011290200 METAR MRLM NIL=
202011290300 METAR MRLM NIL=
202011290400 METAR MRLM NIL=
202011290500 METAR MRLM NIL=
202011290600 METAR MRLM NIL=
202011290700 METAR MRLM NIL=
202011290800 METAR MRLM NIL=
202011290900 METAR MRLM NIL=
202011291000 METAR MRLM NIL=
202011291100 METAR MRLM NIL=
202011291200 METAR MRLM 291200Z 24005KT CAVOK 22/21 A2985=
202011291300 METAR MRLM 291300Z 24005KT CAVOK 23/22 A2987=
202011291400 METAR MRLM 291400Z 29004KT CAVOK 24/22 A2991=
202011291500 METAR MRLM 291500Z 29006KT CAVOK 27/22 A2992=
202011291600 METAR MRLM 291600Z 31006KT 9999 FEW025 BKN140 29/23 A2992=
202011291700 METAR MRLM 291700Z 31007KT 9999 FEW025 SCT140 BKN240 30/23 A2990=
202011291800 METAR MRLM 291800Z 34011KT 9999 FEW025 BKN130 28/24 A2988=
202011291900 METAR MRLM 291900Z 33008KT 9999 FEW020 BKN130 28/24 A2985=
202011292000 METAR MRLM 292000Z 35009KT 9999 BKN020 28/24 A2983=
202011292100 METAR MRLM 292100Z 34010KT 9999 BKN020 28/24 A2981=
202011292200 METAR MRLM 292200Z 31005KT 9999 FEW020 SCT140 BKN240 28/24 A2980=
202011292300 METAR MRLM 292300Z 30003KT 9999 FEW020 SCT140 BKN240 27/24 A2982=
202011300000 METAR MRLM 300000Z 29003KT 9999 VCSH FEW015 SCT130 BKN230 26/23 A2985=
202011300100 METAR MRLM NIL=
202011300200 METAR MRLM NIL=
202011300300 METAR MRLM NIL=
202011300400 METAR MRLM NIL=
202011300500 METAR MRLM NIL=
202011300600 METAR MRLM NIL=
202011300700 METAR MRLM NIL=
202011300800 METAR MRLM NIL=
202011300900 METAR MRLM NIL=
202011301000 METAR MRLM NIL=
202011301100 METAR MRLM NIL=
202011301200 METAR MRLM 301200Z 29005KT 7000 VCSH FEW010TCU OVC080 24/23 A2990=
202011301300 METAR MRLM 301300Z 29003KT 8000 FEW010 BKN080 24/23 A2990=
202011301400 METAR MRLM 301400Z 30005KT 5000 -DZ VCSH FEW010TCU OVC080 25/24 A2994=
202011301500 METAR MRLM 301500Z 30007KT 6000 DZ SCT010 OVC080 24/23 A2995=
202011301600 METAR MRLM 301600Z 30005KT 6000 +DZ SCT010 OVC080 24/24 A2995=
202011301700 METAR MRLM 301700Z 29004KT 8000 DZ SCT010 OVC080 24/24 A2993=
202011301800 METAR MRLM 301800Z 29005KT 9999 -DZ SCT015 OVC090 25/24 A2989=
202011301900 METAR MRLM 301900Z 29003KT 9999 SCT015 OVC090 25/24 A2986 REDZ=
202011302000 METAR MRLM 302000Z 36008KT 9999 VCSH FEW010TCU SCT015 OVC090 25/23 A2984 RERA=
202011302100 METAR MRLM 302100Z 35007KT 6000 +DZ SCT015 OVC090 26/23 A2984=
202011302200 METAR MRLM 302200Z 26003KT 4000 +DZ VCSH FEW008TCU SCT010 OVC080 25/24 A2983=
202011302300 METAR MRLM 302300Z 23005KT 9999 FEW010 SCT080 OVC200 24/23 A2985=
202012010000 METAR MRLM 010000Z 25004KT 9999 FEW010 SCT080 OVC200 23/23 A2986=
202012010100 METAR MRLM NIL=
202012010200 METAR MRLM NIL=
202012010300 METAR MRLM NIL=
202012010400 METAR MRLM NIL=
202012010500 METAR MRLM NIL=
202012010600 METAR MRLM NIL=
202012010700 METAR MRLM NIL=
202012010800 METAR MRLM NIL=
202012010900 METAR MRLM NIL=
202012011000 METAR MRLM NIL=
202012011100 METAR MRLM NIL=
202012011200 METAR MRLM 011200Z 26005KT 8000 -DZ FEW010 OVC080 23/22 A2992=
202012011300 METAR MRLM 011300Z 25005KT 6000 DZ FEW010 OVC080 23/22 A2993=
202012011400 METAR MRLM 011400Z 22005KT 9000 FEW010 OVC080 24/22 A2995 REDZ=
202012011500 METAR MRLM 011500Z 26003KT 9999 SCT015 OVC090 25/23 A2995=
202012011600 METAR MRLM 011600Z 27003KT 9999 SCT015 OVC090 26/23 A2995=
202012011700 METAR MRLM 011700Z 30005KT 9999 SCT015 OVC090 28/23 A2993=
202012011800 METAR MRLM 011800Z 28006KT 9999 FEW020 OVC100 28/23 A2989=
202012011900 METAR MRLM 011900Z 32005KT 9999 FEW020 OVC100 28/23 A2987=
202012012000 METAR MRLM 012000Z 33006KT 5000 -DZ VCSH FEW010TCU FEW020 OVC100 27/24 A2985=
202012012100 METAR MRLM 012100Z 32007KT 8000 -DZ VCSH FEW010TCU OVC080 24/23 A2985=
202012012200 METAR MRLM 012200Z 30005KT 5000 DZ FEW010 OVC080 24/23 A2986=
202012012300 METAR MRLM 012300Z 30003KT 9000 SCT010 OVC070 24/23 A2987 REDZ=
202012020000 METAR MRLM 020000Z 23003KT 9999 SCT010 OVC070 23/23 A2988=
202012020100 METAR MRLM NIL=
202012020200 METAR MRLM NIL=
202012020300 METAR MRLM NIL=
202012020400 METAR MRLM NIL=
202012020500 METAR MRLM NIL=
202012020600 METAR MRLM NIL=
202012020700 METAR MRLM NIL=
202012020800 METAR MRLM NIL=
202012020900 METAR MRLM NIL=
202012021000 METAR MRLM NIL=
202012021100 METAR MRLM NIL=
202012021200 METAR MRLM 021200Z 29006KT 9999 DZ FEW015 BKN100 23/22 A2987=
202012021300 METAR MRLM 021300Z 29004KT 9999 FEW020 BKN120 23/22 A2989 REDZ=
202012021400 METAR MRLM 021400Z 30006KT CAVOK 24/22 A2991=
202012021500 METAR MRLM 021500Z 30007KT 9999 FEW020 BKN130 26/23 A2991=
202012021600 METAR MRLM 021600Z 30006KT 9999 FEW015 BKN130 27/23 A2992=
202012021700 METAR MRLM 021700Z 32005KT 8000 DZ SCT010 BKN110 25/24 A2991=
202012021800 METAR MRLM 021800Z 34009KT 9999 -DZ BKN015 26/24 A2989=
202012021900 METAR MRLM 021900Z 35011KT 5000 -RA BKN015 25/24 A2987=
202012022000 METAR MRLM 022000Z 35007KT 4000 DZ SCT015 OVC100 24/23 A2984=
202012022100 METAR MRLM 022100Z 31003KT 9999 DZ SCT015 BKN110 25/23 A2984=
202012022200 METAR MRLM 022200Z 25003KT 9999 FEW015 SCT120 BKN220 25/23 A2983 REDZ=
202012022300 METAR MRLM 022300Z 00000KT 9999 DZ FEW015 SCT130 BKN220 25/23 A2985=
202012030000 METAR MRLM 030000Z 00000KT 9999 -DZ FEW010 SCT130 BKN220 24/23 A2988=
202012030100 METAR MRLM NIL=
202012030200 METAR MRLM NIL=
202012030300 METAR MRLM NIL=
202012030400 METAR MRLM NIL=
202012030500 METAR MRLM NIL=
202012030600 METAR MRLM NIL=
202012030700 METAR MRLM NIL=
202012030800 METAR MRLM NIL=
202012030900 METAR MRLM NIL=
202012031000 METAR MRLM NIL=
202012031100 METAR MRLM NIL=
202012031200 METAR MRLM 031200Z 00000KT 9999 DZ FEW010 BKN090 23/22 A2986=
202012031300 METAR MRLM 031300Z 00000KT CAVOK 24/23 A2988=
202012031400 METAR MRLM 031400Z 00000KT CAVOK 25/23 A2990=
202012031500 METAR MRLM 031500Z 00000KT 9999 SCT020 BKN120 26/23 A2991=
202012031600 METAR MRLM 031600Z 30005KT 9999 FEW025 BKN130 26/23 A2991=
202012031700 METAR MRLM 031700Z 30006KT 9999 FEW030 BKN130 28/24 A2989=
202012031800 METAR MRLM 031800Z 35010KT 9999 FEW030 BKN150 28/24 A2986=
202012031900 METAR MRLM 031900Z 33009KT 9999 FEW030 SCT150 29/23 A2983=
202012032000 METAR MRLM 032000Z 33009KT 9999 DZ FEW030 BKN130 28/23 A2981=
202012032100 METAR MRLM 032100Z 33009KT 9999 BKN025 27/24 A2980 REDZ=
202012032200 METAR MRLM 032200Z 31009KT 9999 SCT025 BKN130 27/24 A2980=
202012032300 METAR MRLM 032300Z 29003KT 9999 FEW020 SCT130 BKN230 26/23 A2982=
202012040000 METAR MRLM 040000Z 26003KT 9999 FEW015 BKN120 25/23 A2985=
202012040100 METAR MRLM NIL=
202012040200 METAR MRLM NIL=
202012040300 METAR MRLM NIL=
202012040400 METAR MRLM NIL=
202012040500 METAR MRLM NIL=
202012040600 METAR MRLM NIL=
202012040700 METAR MRLM NIL=
202012040800 METAR MRLM NIL=
202012040900 METAR MRLM NIL=
202012041000 METAR MRLM NIL=
202012041100 METAR MRLM NIL=
202012041200 METAR MRLM 041200Z 00000KT 9999 SCT020 23/22 A2989=
202012041300 METAR MRLM 041300Z 25004KT 9999 FEW020 SCT100 25/23 A2991=
202012041400 METAR MRLM 041400Z 24004KT 9999 FEW020 SCT100 28/24 A2994=
202012041500 METAR MRLM 041500Z 07003KT 9999 VCTS VCSH FEW025TCU SCT120 29/24 A2994=
202012041600 METAR MRLM 041600Z 05004KT 9999 VCSH FEW025TCU BKN120 28/24 A2994=
202012041700 METAR MRLM 041700Z 14014KT 9000 -DZ VCSH FEW015TCU BKN100 25/22 A2994=
202012041800 METAR MRLM 041800Z 22004KT 9000 DZ FEW015 BKN100 24/22 A2992=
202012041900 METAR MRLM 041900Z 21004KT 9999 FEW015 BKN100 25/23 A2988 REDZ=
202012042000 METAR MRLM 042000Z 21005KT CAVOK 27/24 A2986=
202012042100 METAR MRLM 042100Z 21004KT CAVOK 29/23 A2984=
202012042200 METAR MRLM 042200Z 11005KT CAVOK 28/24 A2984=
202012042300 METAR MRLM 042300Z 10005KT CAVOK 28/23 A2985=
202012050000 METAR MRLM 050000Z 00000KT CAVOK 26/24 A2987=
202012050100 METAR MRLM NIL=
202012050200 METAR MRLM NIL=
202012050300 METAR MRLM NIL=
202012050400 METAR MRLM NIL=
202012050500 METAR MRLM NIL=
202012050600 METAR MRLM NIL=
202012050700 METAR MRLM NIL=
202012050800 METAR MRLM NIL=
202012050900 METAR MRLM NIL=
202012051000 METAR MRLM NIL=
202012051100 METAR MRLM NIL=
202012051200 METAR MRLM 051200Z 23003KT CAVOK 21/20 A2993=
202012051300 METAR MRLM 051300Z 23004KT CAVOK 24/21 A2995=
202012051400 METAR MRLM 051400Z 21003KT CAVOK 27/22 A2997=
202012051500 METAR MRLM 051500Z 07003KT 9999 FEW030 28/22 A2997=
202012051600 METAR MRLM 051600Z 09004KT CAVOK 29/22 A2996=
202012051700 METAR MRLM 051700Z 06005KT CAVOK 29/23 A2994=
202012051800 METAR MRLM 051800Z 07004KT CAVOK 29/23 A2990=
202012051900 METAR MRLM 051900Z 06006KT CAVOK 30/23 A2988=
202012052000 METAR MRLM 052000Z 06006KT CAVOK 29/23 A2986=
202012052100 METAR MRLM 052100Z 07005KT CAVOK 29/23 A2985=
202012052200 METAR MRLM 052200Z 07004KT CAVOK 29/22 A2984=
202012052300 METAR MRLM 052300Z 10003KT CAVOK 27/23 A2986=
202012060000 METAR MRLM 060000Z 00000KT CAVOK 24/23 A2987=
202012060100 METAR MRLM NIL=
202012060200 METAR MRLM NIL=
202012060300 METAR MRLM NIL=
202012060400 METAR MRLM NIL=
202012060500 METAR MRLM NIL=
202012060600 METAR MRLM NIL=
202012060700 METAR MRLM NIL=
202012060800 METAR MRLM NIL=
202012060900 METAR MRLM NIL=
202012061000 METAR MRLM NIL=
202012061100 METAR MRLM NIL=
202012061200 METAR MRLM 061200Z 23005KT CAVOK 21/20 A2988=
202012061300 METAR MRLM 061300Z 22004KT CAVOK 23/21 A2990=
202012061400 METAR MRLM 061400Z 00000KT CAVOK 25/22 A2991=
202012061500 METAR MRLM 061500Z 00000KT CAVOK 28/22 A2992=
202012061600 METAR MRLM 061600Z 09003KT CAVOK 29/22 A2991=
202012061700 METAR MRLM 061700Z 06004KT 9999 FEW030 BKN130 29/22 A2990=
202012061800 METAR MRLM 061800Z 03004KT 9999 FEW030 BKN130 28/23 A2987=
202012061900 METAR MRLM 061900Z 02007KT CAVOK 29/24 A2984=
202012062000 METAR MRLM 062000Z 01006KT CAVOK 29/23 A2982=
202012062100 METAR MRLM 062100Z 02006KT CAVOK 29/23 A2985=
202012062200 METAR MRLM 062200Z 01004KT CAVOK 28/23 A2983=
202012062300 METAR MRLM 062300Z 36004KT CAVOK 28/23 A2984=
202012070000 METAR MRLM 070000Z 00000KT 9999 FEW020 BKN230 25/23 A2987=
202012070100 METAR MRLM NIL=
202012070200 METAR MRLM NIL=
202012070300 METAR MRLM NIL=
202012070400 METAR MRLM NIL=
202012070500 METAR MRLM NIL=
202012070600 METAR MRLM NIL=
202012070700 METAR MRLM NIL=
202012070800 METAR MRLM NIL=
202012070900 METAR MRLM NIL=
202012071000 METAR MRLM NIL=
202012071100 METAR MRLM NIL=
202012071200 METAR MRLM 071200Z 25004KT 9999 FEW015 BKN130 23/22 A2990=
202012071300 METAR MRLM 071300Z 00000KT 9999 FEW015 BKN130 24/23 A2993=
202012071400 METAR MRLM 071400Z 22003KT 9999 FEW015 BKN120 25/23 A2995=
202012071500 METAR MRLM 071500Z 00000KT CAVOK 27/23 A2996=
202012071600 METAR MRLM 071600Z 08003KT 9999 FEW030 BKN130 28/22 A2996=
202012071700 METAR MRLM 071700Z 07005KT 9999 FEW030 SCT140 28/23 A2993=
202012071800 METAR MRLM 071800Z 03010KT 9999 FEW030 SCT140 29/24 A2990=
202012071900 METAR MRLM 071900Z 36014KT CAVOK 29/24 A2987=
202012072000 METAR MRLM 072000Z 24012KT CAVOK 29/24 A2986=
202012072100 METAR MRLM 072100Z 35012KT CAVOK 29/23 A2985=
202012072200 METAR MRLM 072200Z 33007KT CAVOK 29/24 A2986=
202012072300 METAR MRLM 072300Z 30004KT CAVOK 28/23 A2989=
202012080000 METAR MRLM 080000Z 29003KT CAVOK 27/23 A2993=
202012080100 METAR MRLM NIL=
202012080200 METAR MRLM NIL=
202012080300 METAR MRLM NIL=
202012080400 METAR MRLM NIL=
202012080500 METAR MRLM NIL=
202012080600 METAR MRLM NIL=
202012080700 METAR MRLM NIL=
202012080800 METAR MRLM NIL=
202012080900 METAR MRLM NIL=
202012081000 METAR MRLM NIL=
202012081100 METAR MRLM NIL=
202012081200 METAR MRLM 081200Z 22005KT 9999 VCSH FEW015TCU BKN090 23/22 A2995=
202012081300 METAR MRLM 081300Z 00000KT 9000 VCSH FEW015TCU BKN090 24/23 A2998=
202012081400 METAR MRLM 081400Z 34010KT 4000 +DZ SCT010 OVC080 24/23 A3003=
202012081500 METAR MRLM 081500Z 26007KT 8000 DZ FEW010 BKN080 24/23 A3002=
202012081600 METAR MRLM 081600Z 26007KT 9999 FEW010 BKN080 25/23 A3001 REDZ=
202012081700 METAR MRLM 081700Z 25007KT 9999 VCSH FEW015TCU BKN090 25/23 A2999=
202012081800 METAR MRLM 081800Z 27005KT 9999 FEW015 BKN090 26/23 A2997=
202012081900 METAR MRLM 081900Z 26006KT 9999 FEW020 BKN100 28/23 A2994=
202012082000 METAR MRLM 082000Z 25005KT 9999 FEW020 BKN100 29/22 A2993=
202012082100 METAR MRLM 082100Z 27003KT 9999 FEW020 SCT120 29/22 A2993=
202012082200 METAR MRLM 082200Z 00000KT 9999 FEW020 SCT220 29/23 A2993=
202012082300 METAR MRLM 082300Z 36003KT 9999 FEW020 BKN220 28/23 A2994=
202012090000 METAR MRLM 090000Z 21002KT 9999 FEW015 BKN200 24/23 A2996=
202012090100 METAR MRLM NIL=
202012090200 METAR MRLM NIL=
202012090300 METAR MRLM NIL=
202012090400 METAR MRLM NIL=
202012090500 METAR MRLM NIL=
202012090600 METAR MRLM NIL=
202012090700 METAR MRLM NIL=
202012090800 METAR MRLM NIL=
202012090900 METAR MRLM NIL=
202012091000 METAR MRLM NIL=
202012091100 METAR MRLM NIL=
202012091200 METAR MRLM 091200Z 28007KT 8000 -DZ FEW010 BKN080 21/20 A3002=
202012091300 METAR MRLM 091300Z 29007KT 8000 DZ VCSH FEW010TCU BKN080 22/20 A3004=
202012091400 METAR MRLM 091400Z 26004KT 9000 SCT010 OVC080 22/21 A3006 REDZ=
202012091500 METAR MRLM 091500Z 29005KT 6000 DZ FEW010 OVC080 23/22 A3005=
202012091600 METAR MRLM 091600Z 27005KT 3000 -RA FEW008 OVC070 23/22 A3006=
202012091700 METAR MRLM 091700Z 27007KT 5000 +DZ FEW008 OVC070 23/22 A3004=
202012091800 METAR MRLM 091800Z 26005KT 6000 DZ FEW008 OVC070 23/22 A3001=
202012091900 METAR MRLM 091900Z 27010KT 6000 DZ FEW008 OVC070 23/22 A2997=
202012092000 METAR MRLM 092000Z 28009KT 6000 DZ FEW008 OVC070 22/21 A2996=
202012092100 METAR MRLM 092100Z 27008KT 5000 +DZ FEW008 OVC070 22/21 A2996=
202012092200 METAR MRLM 092200Z 29006KT 5000 DZ FEW006 OVC070 22/21 A2995=
202012092300 METAR MRLM 092300Z 26005KT 5000 DZ SCT006 OVC070 22/21 A2996=
202012100000 METAR MRLM 100000Z 27006KT 8000 -DZ SCT006 OVC070 22/22 A2997=
202012100100 METAR MRLM NIL=
202012100200 METAR MRLM NIL=
202012100300 METAR MRLM NIL=
202012100400 METAR MRLM NIL=
202012100500 METAR MRLM NIL=
202012100600 METAR MRLM NIL=
202012100700 METAR MRLM NIL=
202012100800 METAR MRLM NIL=
202012100900 METAR MRLM NIL=
202012101000 METAR MRLM NIL=
202012101100 METAR MRLM NIL=
202012101200 METAR MRLM 101200Z 28007KT 3000 +DZ BKN020 22/21 A2995=
202012101300 METAR MRLM 101300Z 28007KT 5000 +DZ SCT015 BKN100 22/21 A2996=
202012101400 METAR MRLM 101400Z 30005KT 5000 DZ SCT010 OVC100 22/21 A300=
202012101500 METAR MRLM 101500Z 29007KT 7000 DZ FEW015 OVC120 23/22 A300=
202012101600 METAR MRLM 101600Z 30004KT 4000 +DZ FEW015 OVC120 23/22 A3002=
202012101700 METAR MRLM 101700Z 28007KT 9999 SCT020 BKN120 24/22 A2999 REDZ=
202012101800 METAR MRLM 101800Z 29009KT 9999 SCT025 BKN120 25/22 A2996=
202012101900 METAR MRLM 101900Z 27011KT 9999 FEW030 SCT130 28/22 A2993=
202012102000 METAR MRLM 102000Z 30008KT 9999 FEW030 SCT130 28/23 A2991=
202012102100 METAR MRLM 102100Z 31009KT CAVOK 26/23 A2990=
202012102200 METAR MRLM 102200Z 30007KT 9999 FEW025 SCT130 26/23 A2990=
202012102300 METAR MRLM 102300Z 29004KT 8000 3000N DZ SCT020 BKN120 24/23 A2992=
202012110000 METAR MRLM 110000Z 29005KT 3000 +DZ BKN015 23/22 A2995=
202012110100 METAR MRLM NIL=
202012110200 METAR MRLM NIL=
202012110300 METAR MRLM NIL=
202012110400 METAR MRLM NIL=
202012110500 METAR MRLM NIL=
202012110600 METAR MRLM NIL=
202012110700 METAR MRLM NIL=
202012110800 METAR MRLM NIL=
202012110900 METAR MRLM NIL=
202012111000 METAR MRLM NIL=
202012111100 METAR MRLM NIL=
202012111200 METAR MRLM 111200Z 23005KT 3000 RA BKN015 23/22 A2990=
202012111300 METAR MRLM 111300Z 22004KT 9999 SCT015 BKN100 23/22 A2993 RERA=
202012111400 METAR MRLM 111400Z 25006KT 9999 FEW020 BKN110 24/23 A2997=
202012111500 METAR MRLM 111500Z 26005KT 9999 DZ SCT020 BKN110 24/23 A2998=
202012111600 METAR MRLM 111600Z 28004KT 3000 RA SCT015 BKN100 24/23 A2997=
202012111700 METAR MRLM 111700Z 23005KT 9999 SCT020 BKN120 25/23 A2993 RERA=
202012111800 METAR MRLM 111800Z 18005KT 9999 3000N DZ SCT010 BKN120 24/23 A2992=
202012111900 METAR MRLM 111900Z 23005KT 9999 FEW010 SCT120 25/23 A2988 REDZ=
202012112000 METAR MRLM 112000Z 25003KT CAVOK 28/23 A2986=
202012112100 METAR MRLM 112100Z 04003KT 9999 FEW030 28/23 A2983=
202012112200 METAR MRLM 112200Z 01007KT CAVOK 27/23 A2982=
202012112300 METAR MRLM 112300Z 34005KT CAVOK 27/22 A2983=
202012120000 METAR MRLM 120000Z 27003KT CAVOK 23/22 A2984=
202012120100 METAR MRLM NIL=
202012120200 METAR MRLM NIL=
202012120300 METAR MRLM NIL=
202012120400 METAR MRLM NIL=
202012120500 METAR MRLM NIL=
202012120600 METAR MRLM NIL=
202012120700 METAR MRLM NIL=
202012120800 METAR MRLM NIL=
202012120900 METAR MRLM NIL=
202012121000 METAR MRLM NIL=
202012121100 METAR MRLM NIL=
202012121200 METAR MRLM 121200Z 00000KT CAVOK 21/20 A2990=
202012121300 METAR MRLM 121300Z 24003KT CAVOK 23/21 A2992=
202012121400 METAR MRLM 121400Z 23004KT CAVOK 26/22 A2994=
202012121500 METAR MRLM 121500Z 00000KT CAVOK 28/22 A2994=
202012121600 METAR MRLM 121600Z 08004KT CAVOK 28/23 A2994=
202012121700 METAR MRLM 121700Z 07005KT CAVOK 28/22 A2992=
202012121800 METAR MRLM 121800Z 07005KT CAVOK 29/22 A2990=
202012121900 METAR MRLM 121900Z 08005KT CAVOK 29/23 A2987=
202012122000 METAR MRLM 122000Z 06008KT CAVOK 29/23 A2984=
202012122100 METAR MRLM 122100Z 06006KT CAVOK 29/22 A2983=
202012122200 METAR MRLM 122200Z 06007KT CAVOK 29/23 A2985=
202012122300 METAR MRLM NIL=
202012130000 METAR MRLM NIL=
202012130100 METAR MRLM NIL=
202012130200 METAR MRLM NIL=
202012130300 METAR MRLM NIL=
202012130400 METAR MRLM NIL=
202012130500 METAR MRLM NIL=
202012130600 METAR MRLM NIL=
202012130700 METAR MRLM NIL=
202012130800 METAR MRLM NIL=
202012130900 METAR MRLM NIL=
202012131000 METAR MRLM NIL=
202012131100 METAR MRLM NIL=
202012131200 METAR MRLM 131200Z 23006KT 9999 FEW020 BKN100 21/20 A2990=
202012131300 METAR MRLM 131300Z 22004KT CAVOK 23/21 A2993=
202012131400 METAR MRLM 131400Z 00000KT CAVOK 25/22 A2995=
202012131500 METAR MRLM 131500Z 00000KT CAVOK 29/22 A2995=
202012131600 METAR MRLM 131600Z 04004KT 9999 FEW030 28/23 A2995=
202012131700 METAR MRLM 131700Z 04005KT CAVOK 29/23 A2994=
202012131800 METAR MRLM 131800Z 04005KT CAVOK 29/22 A2992=
202012131900 METAR MRLM 131900Z 08005KT CAVOK 29/22 A2989=
202012132000 METAR MRLM 132000Z 10007KT CAVOK 29/22 A2987=
202012132100 METAR MRLM 132100Z 12006KT CAVOK 29/22 A2986=
202012132200 METAR MRLM 132200Z 12005KT CAVOK 29/21 A2985=
202012132300 METAR MRLM NIL=
202012140000 METAR MRLM NIL=
202012140100 METAR MRLM NIL=
202012140200 METAR MRLM NIL=
202012140300 METAR MRLM NIL=
202012140400 METAR MRLM NIL=
202012140500 METAR MRLM NIL=
202012140600 METAR MRLM NIL=
202012140700 METAR MRLM NIL=
202012140800 METAR MRLM NIL=
202012140900 METAR MRLM NIL=
202012141000 METAR MRLM NIL=
202012141100 METAR MRLM NIL=
202012141200 METAR MRLM 141200Z 27003KT CAVOK 21/20 A2992=
202012141300 METAR MRLM 141300Z 24005KT CAVOK 23/21 A2995=
202012141400 METAR MRLM 141400Z 26004KT CAVOK 26/22 A2997=
202012141500 METAR MRLM 141500Z 26004KT CAVOK 28/22 A2997=
202012141600 METAR MRLM 141600Z 03004KT CAVOK 29/22 A2997=
202012141700 METAR MRLM 141700Z 01008KT CAVOK 29/23 A2995=
202012141800 METAR MRLM 141800Z 02007KT CAVOK 29/22 A2993=
202012141900 METAR MRLM 141900Z 01009KT CAVOK 29/23 A2990=
202012142000 METAR MRLM 142000Z 03005KT CAVOK 29/23 A2988=
202012142100 METAR MRLM 142100Z 02005KT CAVOK 29/23 A2986=
202012142200 METAR MRLM 142200Z 03006KT CAVOK 29/23 A2987=
202012142300 METAR MRLM 142300Z 01004KT CAVOK 28/23 A2988=
202012150000 METAR MRLM 150000Z 00000KT CAVOK 25/22 A2992=
202012150100 METAR MRLM NIL=
202012150200 METAR MRLM NIL=
202012150300 METAR MRLM NIL=
202012150400 METAR MRLM NIL=
202012150500 METAR MRLM NIL=
202012150600 METAR MRLM NIL=
202012150700 METAR MRLM NIL=
202012150800 METAR MRLM NIL=
202012150900 METAR MRLM NIL=
202012151000 METAR MRLM NIL=
202012151100 METAR MRLM NIL=
202012151200 METAR MRLM 151200Z 25003KT CAVOK 22/20 A2988=
202012151300 METAR MRLM 151300Z 24003KT CAVOK 23/21 A2989=
202012151400 METAR MRLM 151400Z 25003KT CAVOK 26/22 A2990=
202012151500 METAR MRLM 151500Z 00000KT CAVOK 28/23 A2992=
202012151600 METAR MRLM 151600Z 05005KT CAVOK 28/23 A2992=
202012151700 METAR MRLM 151700Z 11006KT FEW025 BKN120 29/22 A2990=
202012151800 METAR MRLM 151800Z 02007KT 9999 FEW025 BKN120 28/22 A2988=
202012151900 METAR MRLM 151900Z 36007KT 9999 VCSH FEW020 BKN120 29/22 A2983=
202012152000 METAR MRLM 152000Z 36009KT 9999 FEW020 BKN120 27/23 A2982=
202012152100 METAR MRLM 152100Z 01007KT CAVOK 26/24 A2980=
202012152200 METAR MRLM 152200Z 29003KT CAVOK 26/23 A2979=
202012152300 METAR MRLM 152300Z 00000KT CAVOK 25/23 A2979=
202012160000 METAR MRLM 160000Z 00000KT CAVOK 25/23 A2982=
202012160100 METAR MRLM NIL=
202012160200 METAR MRLM NIL=
202012160300 METAR MRLM NIL=
202012160400 METAR MRLM NIL=
202012160500 METAR MRLM NIL=
202012160600 METAR MRLM NIL=
202012160700 METAR MRLM NIL=
202012160800 METAR MRLM NIL=
202012160900 METAR MRLM NIL=
202012161000 METAR MRLM NIL=
202012161100 METAR MRLM NIL=
202012161200 METAR MRLM 161200Z 24005KT CAVOK 22/21 A2985=
202012161300 METAR MRLM 161300Z 23004KT CAVOK 24/22 A2988=
202012161400 METAR MRLM 161400Z 25004KT 9999 FEW020 26/23 A2990=
202012161500 METAR MRLM 161500Z 30002KT 9999 FEW020 28/23 A2990=
202012161600 METAR MRLM 161600Z 03005KT 9999 FEW025 28/23 A2990=
202012161700 METAR MRLM 161700Z 02007KT CAVOK 28/24 A2989=
202012161800 METAR MRLM 161800Z 02009KT CAVOK 29/24 A2986=
202012161900 METAR MRLM 161900Z 02006KT CAVOK 29/24 A2983=
202012162000 METAR MRLM 162000Z 03006KT 9999 FEW025 29/24 A2981=
202012162100 METAR MRLM 162100Z 01006KT 9999 FEW025 29/24 A2981=
202012162200 METAR MRLM 162200Z 02004KT 9999 FEW025 28/24 A2980=
202012162300 METAR MRLM 162300Z 01004KT 9999 FEW020 28/24 A2981=
202012170000 METAR MRLM 170000Z 00000KT 9999 FEW020 SCT110 26/24 A2982=
202012170100 METAR MRLM NIL=
202012170200 METAR MRLM NIL=
202012170300 METAR MRLM NIL=
202012170400 METAR MRLM NIL=
202012170500 METAR MRLM NIL=
202012170600 METAR MRLM NIL=
202012170700 METAR MRLM NIL=
202012170800 METAR MRLM NIL=
202012170900 METAR MRLM NIL=
202012171000 METAR MRLM NIL=
202012171100 METAR MRLM NIL=
202012171200 METAR MRLM 171200Z 25005KT 9000 VCSH FEW015TCU BKN090 23/22 A2988=
202012171300 METAR MRLM 171300Z 23003KT 8000 VCSH FEW015TCU BKN090 24/23 A2991=
202012171400 METAR MRLM 171400Z 01008KT 6000 +DZ FEW010 OVC080 24/23 A2996 RERA=
202012171500 METAR MRLM 171500Z 23005KT 9000 -DZ FEW010 OVC080 24/23 A2996=
202012171600 METAR MRLM 171600Z 27002KT 8000 -DZ FEW015 OVC080 25/24 A2998=
202012171700 METAR MRLM 171700Z 22005KT 9999 FEW015 OVC090 24/23 A2994 REDZ=
202012171800 METAR MRLM 171800Z 22006KT 9999 FEW015 BKN090 26/23 A2992=
202012171900 METAR MRLM 171900Z 22004KT 9999 FEW015 BKN090 27/23 A2990=
202012172000 METAR MRLM 172000Z 21005KT 9999 -DZ SCT015 BKN090 26/24 A2988=
202012172100 METAR MRLM 172100Z 19004KT 9999 SCT015 BKN090 27/24 A2988=
202012172200 METAR MRLM 172200Z 20002KT 9999 -DZ SCT015 BKN090 26/24 A2989=
202012172300 METAR MRLM 172300Z 22002KT 9999 VCSH FEW010TCU SCT015 BKN090 25/24 A2990=
202012180000 METAR MRLM 180000Z 17002KT 9999 SCT010 BKN080 25/23 A2991=
202012180100 METAR MRLM NIL=
202012180200 METAR MRLM NIL=
202012180300 METAR MRLM NIL=
202012180400 METAR MRLM NIL=
202012180500 METAR MRLM NIL=
202012180600 METAR MRLM NIL=
202012180700 METAR MRLM NIL=
202012180800 METAR MRLM NIL=
202012180900 METAR MRLM NIL=
202012181000 METAR MRLM NIL=
202012181100 METAR MRLM NIL=
202012181200 METAR MRLM 181200Z 21004KT 9999 5000N DZ SCT015 BKN100 22/21 A2993=
202012181300 METAR MRLM 181300Z 26005KT 9999 5000N DZ SCT015 BKN110 23/22 A2996=
202012181400 METAR MRLM 181400Z 27004KT 9999 FEW020 BKN120 24/22 A2999=
202012181500 METAR MRLM 181500Z 25006KT 9999 DZ FEW020 BKN120 26/23 A2999=
202012181600 METAR MRLM 181600Z 28005KT 9999 FEW020 BKN130 27/23 A2998 REDZ=
202012181700 METAR MRLM 181700Z 21004KT 9999 FEW030 SCT130 28/23 A2996=
202012181800 METAR MRLM 181800Z 00000KT 9999 SCT030 30/23 A2993=
202012181900 METAR MRLM 181900Z 04003KT 9999 FEW030 30/21 A2990=
202012182000 METAR MRLM 182000Z 04004KT 9999 FEW030 29/22 A2988=
202012182100 METAR MRLM 182100Z 06004KT CAVOK 29/22 A2987=
202012182200 METAR MRLM 182200Z 05007KT CAVOK 29/22 A2987=
202012182300 METAR MRLM 182300Z 05004KT CAVOK 28/22 A2988=
202012190000 METAR MRLM 190000Z 04005KT CAVOK 26/22 A2990=
202012190100 METAR MRLM NIL=
202012190200 METAR MRLM NIL=
202012190300 METAR MRLM NIL=
202012190400 METAR MRLM NIL=
202012190500 METAR MRLM NIL=
202012190600 METAR MRLM NIL=
202012190700 METAR MRLM NIL=
202012190800 METAR MRLM NIL=
202012190900 METAR MRLM NIL=
202012191000 METAR MRLM NIL=
202012191100 METAR MRLM NIL=
202012191200 METAR MRLM 191200Z 27004KT 9999 5000N DZ BKN015 22/22 A2990=
202012191300 METAR MRLM 191300Z 15006KT 7000 +DZ BKN015 23/22 A2994=
202012191400 METAR MRLM 191400Z 22008KT 9999 DZ SCT020 BKN100 23/22 A2995=
202012191500 METAR MRLM 191500Z 22006KT 9999 DZ SCT020 BKN110 23/22 A2996=
202012191600 METAR MRLM 191600Z 23004KT 9999 FEW020 BKN120 26/24 A2995 REDZ=
202012191700 METAR MRLM 191700Z 22004KT 9999 SCT020 BKN120 27/24 A2993=
202012191800 METAR MRLM 191800Z 11005KT 9999 BKN020 29/22 A2990=
202012191900 METAR MRLM 191900Z 06003KT 9999 SCT020 BKN110 28/23 A2987=
202012192000 METAR MRLM 192000Z 21005KT 9999 SCT020 BKN120 27/23 A2984=
202012192100 METAR MRLM 192100Z 21004KT 9999 FEW020 BKN130 29/24 A2983=
202012192200 METAR MRLM 192200Z 31005KT 9999 FEW020 SCT140 28/22 A2984=
202012192300 METAR MRLM 192300Z 24004KT 9999 FEW010 SCT120 25/23 A2984=
202012200000 METAR MRLM 200000Z 24003KT 9999 DZ SCT010 BKN100 24/23 A2987=
202012200100 METAR MRLM NIL=
202012200200 METAR MRLM NIL=
202012200300 METAR MRLM NIL=
202012200400 METAR MRLM NIL=
202012200500 METAR MRLM NIL=
202012200600 METAR MRLM NIL=
202012200700 METAR MRLM NIL=
202012200800 METAR MRLM NIL=
202012200900 METAR MRLM NIL=
202012201000 METAR MRLM NIL=
202012201100 METAR MRLM NIL=
202012201200 METAR MRLM 201200Z 26002KT 8000 SCT015 BKN090 22/22 A2988=
202012201300 METAR MRLM 201300Z 23003KT 9000 VCSH FEW015TCU SCT090 23/22 A2991=
202012201400 METAR MRLM 201400Z 22005KT 9999 VCSH FEW015TCU SCT090 25/22 A2993=
202012201500 METAR MRLM 201500Z 25003KT 9999 FEW020TCU SCT110 28/23 A2993=
202012201600 METAR MRLM 201600Z 08002KT 9999 FEW020TCU SCT110 29/24 A2993=
202012201700 METAR MRLM 201700Z 02008KT 9999 FEW020 SCT120 28/23 A2991=
202012201800 METAR MRLM 201800Z 04004KT 9999 FEW025 28/23 A2987=
202012201900 METAR MRLM 201900Z 07003KT 9999 FEW025 29/23 A2985=
202012202000 METAR MRLM 202000Z 06003KT 9999 FEW025 30/22 A2983=
202012202100 METAR MRLM 202100Z 07002KT 9999 FEW025 29/22 A2982=
202012202200 METAR MRLM 202200Z 20002KT CAVOK 29/22 A2982=
202012202300 METAR MRLM 202300Z 13002KT CAVOK 27/23 A2983=
202012210000 METAR MRLM 210000Z 00000KT CAVOK 25/23 A2985=
202012210100 METAR MRLM NIL=
202012210200 METAR MRLM NIL=
202012210300 METAR MRLM NIL=
202012210400 METAR MRLM NIL=
202012210500 METAR MRLM NIL=
202012210600 METAR MRLM NIL=
202012210700 METAR MRLM NIL=
202012210800 METAR MRLM NIL=
202012210900 METAR MRLM NIL=
202012211000 METAR MRLM NIL=
202012211100 METAR MRLM NIL=
202012211200 METAR MRLM 211200Z 29002KT CAVOK 21/20 A2992=
202012211300 METAR MRLM 211300Z 25003KT CAVOK 23/21 A2994=
202012211400 METAR MRLM 211400Z 22002KT CAVOK 26/21 A2997=
202012211500 METAR MRLM 211500Z 00000KT CAVOK 28/22 A2987=
202012211600 METAR MRLM 211600Z 07004KT 9999 FEW030 28/22 A2997=
202012211700 METAR MRLM 211700Z 04005KT CAVOK 28/22 A2996=
202012211800 METAR MRLM 211800Z 04005KT CAVOK 29/22 A2992=
202012211900 METAR MRLM 211900Z 06004KT CAVOK 29/23 A2989=
202012212000 METAR MRLM 212000Z 04006KT CAVOK 29/23 A2988=
202012212100 METAR MRLM 212100Z 04005KT CAVOK 29/23 A2987=
202012212200 METAR MRLM 212200Z 05005KT CAVOK 28/23 A2987=
202012212300 METAR MRLM 212300Z 06002KT CAVOK 28/23 A2988=
202012220000 METAR MRLM 220000Z 00000KT CAVOK 25/23 A2989=
202012220100 METAR MRLM NIL=
202012220200 METAR MRLM NIL=
202012220300 METAR MRLM NIL=
202012220400 METAR MRLM NIL=
202012220500 METAR MRLM NIL=
202012220600 METAR MRLM NIL=
202012220700 METAR MRLM NIL=
202012220800 METAR MRLM NIL=
202012220900 METAR MRLM NIL=
202012221000 METAR MRLM NIL=
202012221100 METAR MRLM NIL=
202012221200 METAR MRLM 221200Z 21007KT 9999 FEW010 BKN110 22/20 A2992=
202012221300 METAR MRLM 221300Z 27004KT 9999 FEW015 SCT130 24/21 A2994=
202012221400 METAR MRLM 221400Z 23003KT 9999 VCSH FEW015 SCT120 26/22 A2997=
202012221500 METAR MRLM 221500Z 06009KT 9999 4000N DZ SCT015 BKN110 24/22 A3000=
202012221600 METAR MRLM 221600Z 21006KT 9999 -DZ SCT020 BKN120 24/22 A2999=
202012221700 METAR MRLM 221700Z 25006KT CAVOK 27/22 A2994=
202012221800 METAR MRLM 221800Z 19002KT 9999 FEW020 BKN130 30/23 A2992=
202012221900 METAR MRLM 221900Z 04009KT 9999 SCT020 BKN110 27/23 A2989=
202012222000 METAR MRLM 222000Z 05013KT 9999 DZ SCT020 BKN100 26/24 A2989=
202012222100 METAR MRLM 222100Z 11011KT 9999 -DZ FEW020 OVC110 25/22 A2988=
202012222200 METAR MRLM 222200Z 23006KT CAVOK 24/22 A2987=
202012222300 METAR MRLM 222300Z 22004KT CAVOK 24/22 A2987=
202012230000 METAR MRLM 230000Z 00000KT CAVOK 24/22 A2988=
202012230100 METAR MRLM NIL=
202012230200 METAR MRLM NIL=
202012230300 METAR MRLM NIL=
202012230400 METAR MRLM NIL=
202012230500 METAR MRLM NIL=
202012230600 METAR MRLM NIL=
202012230700 METAR MRLM NIL=
202012230800 METAR MRLM NIL=
202012230900 METAR MRLM NIL=
202012231000 METAR MRLM NIL=
202012231100 METAR MRLM NIL=
202012231200 METAR MRLM 231200Z 26005KT 7000 +DZ BKN010 23/22 A2989=
202012231300 METAR MRLM 231300Z COR 24004KT 2000 RA BKN010 23/23 A2992=
202012231400 METAR MRLM 231400Z 20004KT 5000 DZ BKN015 24/23 A2993 RERA=
202012231500 METAR MRLM 231500Z 25004KT 9999 BKN020 25/24 A2997 REDZ=
202012231600 METAR MRLM 231600Z 24003KT 9999 BKN020 26/24 A2993=
202012231700 METAR MRLM 231700Z 01003KT 9999 BKN020 27/25 A2991=
202012231800 METAR MRLM 231800Z 33008KT 5000 DZ BKN015 25/24 A2990=
202012231900 METAR MRLM 231900Z 00000KT 5000 DZ BKN015 25/24 A2987=
202012232000 METAR MRLM 232000Z 19003KT 9999 BKN025 26/24 A2985=
202012232100 METAR MRLM 232100Z 22003KT 9999 BKN020 26/25 A2984=
202012232200 METAR MRLM 232200Z 20004KT 9999 FEW020 BKN120 25/24 A2984=
202012232300 METAR MRLM 232300Z 23005KT 9999 FEW020 SCT120 25/24 A2985=
202012240000 METAR MRLM 240000Z 23005KT 9999 FEW015 SCT120 24/23 A2988=
202012240100 METAR MRLM NIL=
202012240200 METAR MRLM NIL=
202012240300 METAR MRLM NIL=
202012240400 METAR MRLM NIL=
202012240500 METAR MRLM NIL=
202012240600 METAR MRLM NIL=
202012240700 METAR MRLM NIL=
202012240800 METAR MRLM NIL=
202012240900 METAR MRLM NIL=
202012241000 METAR MRLM NIL=
202012241100 METAR MRLM NIL=
202012241200 METAR MRLM 241200Z 21005KT 8000 SCT015 BKN200 22/22 A2990=
202012241300 METAR MRLM 241300Z 22005KT 9000 FEW015 BKN200 24/22 A2991=
202012241400 METAR MRLM 241400Z 23004KT 9999 FEW020 BKN220 26/23 A2993=
202012241500 METAR MRLM 241500Z 16002KT 9999 FEW020 BKN220 28/24 A2993=
202012241600 METAR MRLM 241600Z 08003KT 9999 FEW020 BKN220 28/23 A2992=
202012241700 METAR MRLM 241700Z 04005KT 9999 FEW025 SCT220 29/24 A2990=
202012241800 METAR MRLM 241800Z 04005KT CAVOK 29/23 A2987=
202012241900 METAR MRLM 241900Z 03007KT CAVOK 29/24 A2985=
202012242000 METAR MRLM 242000Z 03006KT CAVOK 29/23 A2983=
202012242100 METAR MRLM 242100Z 04005KT CAVOK 29/23 A2982=
202012242200 METAR MRLM 242200Z 05004KT 9999 FEW025 SCT220 28/23 A2983=
202012242300 METAR MRLM 242300Z 05004KT 9999 FEW020 SCT200 28/24 A2984=
202012250000 METAR MRLM 250000Z 00000KT 9999 FEW020 SCT200 25/23 A2986=
202012250100 METAR MRLM NIL=
202012250200 METAR MRLM NIL=
202012250300 METAR MRLM NIL=
202012250400 METAR MRLM NIL=
202012250500 METAR MRLM NIL=
202012250600 METAR MRLM NIL=
202012250700 METAR MRLM NIL=
202012250800 METAR MRLM NIL=
202012250900 METAR MRLM NIL=
202012251000 METAR MRLM NIL=
202012251100 METAR MRLM NIL=
202012251200 METAR MRLM 251200Z 23004KT 9999 FEW015 20/20 A2991=
202012251300 METAR MRLM 251300Z COR 23004KT 9999 FEW015 22/21 A2993=
202012251400 METAR MRLM 251400Z 23005KT 9999 FEW020 SCT200 25/22 A2995=
202012251500 METAR MRLM 251500Z 08002KT 9999 FEW020 SCT120 28/23 A2997=
202012251600 METAR MRLM 251600Z 04005KT 9999 FEW020 BKN120 28/23 A2996=
202012251700 METAR MRLM 251700Z 04005KT 9999 FEW020 BKN120 28/23 A2994=
202012251800 METAR MRLM 251800Z 01009KT 9999 FEW020 BKN120 28/23 A2991=
202012251900 METAR MRLM 251900Z 35010KT 9999 FEW020 BKN120 27/22 A2990=
202012252000 METAR MRLM 252000Z 34008KT 9999 FEW020 BKN110 28/19 A2987=
202012252100 METAR MRLM 252100Z 04007KT 9000 -DZ FEW015 OVC100 27/22 A2987=
202012252200 METAR MRLM 252200Z 18003KT 9999 FEW015 BKN100 24/22 A2988=
202012252300 METAR MRLM 252300Z 21004KT 9999 FEW015 BKN090 24/22 A2989=
202012260000 METAR MRLM 260000Z 21003KT CAVOK 23/22 A2991=
202012260100 METAR MRLM NIL=
202012260200 METAR MRLM NIL=
202012260300 METAR MRLM NIL=
202012260400 METAR MRLM NIL=
202012260500 METAR MRLM NIL=
202012260600 METAR MRLM NIL=
202012260700 METAR MRLM NIL=
202012260800 METAR MRLM NIL=
202012260900 METAR MRLM NIL=
202012261000 METAR MRLM NIL=
202012261100 METAR MRLM NIL=
202012261200 METAR MRLM 261200Z 00000KT CAVOK 21/20 A2991=
202012261300 METAR MRLM 261300Z 30008KT 9999 FEW010 BKN130 23/20 A2993=
202012261400 METAR MRLM 261400Z 23007KT CAVOK 24/20 A2993=
202012261500 METAR MRLM 261500Z 30006KT CAVOK 26/20 A2993=
202012261600 METAR MRLM 261600Z 30008KT CAVOK 28/20 A2993=
202012261700 METAR MRLM 261700Z 28007KT CAVOK 29/20 A2991=
202012261800 METAR MRLM 261800Z 31006KT CAVOK 30/21 A2987=
202012261900 METAR MRLM 261900Z 35010KT CAVOK 30/22 A2983=
202012262000 METAR MRLM 262000Z 35010KT CAVOK 30/22 A2982=
202012262100 METAR MRLM 262100Z 36010KT CAVOK 28/23 A2981=
202012262200 METAR MRLM 262200Z 32007KT 9999 SCT025 BKN120 27/23 A2981=
202012262300 METAR MRLM 262300Z 33007KT 9999 FEW020 BKN110 26/22 A2981=
202012270000 METAR MRLM 270000Z 32006KT 9999 BKN015 26/23 A2985=
202012270100 METAR MRLM NIL=
202012270200 METAR MRLM NIL=
202012270300 METAR MRLM NIL=
202012270400 METAR MRLM NIL=
202012270500 METAR MRLM NIL=
202012270600 METAR MRLM NIL=
202012270700 METAR MRLM NIL=
202012270800 METAR MRLM NIL=
202012270900 METAR MRLM NIL=
202012271000 METAR MRLM NIL=
202012271100 METAR MRLM NIL=
202012271200 METAR MRLM 271200Z 28010KT 5000 DZ BKN015 22/21 A2991=
202012271300 METAR MRLM 271300Z 27008KT 9999 -DZ FEW015 BKN110 22/21 A2993=
202012271400 METAR MRLM 271400Z 28007KT 9999 FEW015 BKN120 23/21 A2996=
202012271500 METAR MRLM 271500Z 28008KT 4000 RA BKN015 22/21 A2996=
202012271600 METAR MRLM 271600Z 28008KT 8000 3000N +DZ SCT020 OVC100 22/21 A2997 RERA=
202012271700 METAR MRLM 271700Z 28011KT 8000 +DZ SCT020 OVC100 22/21 A2994=
202012271800 METAR MRLM 271800Z 28011KT 9999 -DZ FEW020 OVC110 23/21 A2991=
202012271900 METAR MRLM 271900Z 27009KT 9999 DZ FEW020 OVC120 23/21 A2987=
202012272000 METAR MRLM 272000Z 27009KT 9999 DZ FEW020 BKN120 23/21 A2986=
202012272100 METAR MRLM 272100Z 27010KT 9999 DZ FEW020 BKN130 23/21 A2985=
202012272200 METAR MRLM 272200Z 27009KT 9999 DZ FEW015 BKN130 23/21 A2985=
202012272300 METAR MRLM 272300Z 27006KT 9999 DZ FEW015 BKN130 23/21 A2986=
202012280000 METAR MRLM 280000Z 27007KT 6000 DZ SCT015 BKN110 22/21 A2990=
202012280100 METAR MRLM NIL=
202012280200 METAR MRLM NIL=
202012280300 METAR MRLM NIL=
202012280400 METAR MRLM NIL=
202012280500 METAR MRLM NIL=
202012280600 METAR MRLM NIL=
202012280700 METAR MRLM NIL=
202012280800 METAR MRLM NIL=
202012280900 METAR MRLM NIL=
202012281000 METAR MRLM NIL=
202012281100 METAR MRLM NIL=
202012281200 METAR MRLM 281200Z 23003KT 6000 DZ FEW015 OVC080 22/21 A2993=
202012281300 METAR MRLM 281300Z 24003KT 8000 -DZ FEW015 BKN080 22/22 A2996=
202012281400 METAR MRLM 281400Z 27004KT 5000 DZ FEW015 OVC080 23/22 A2998=
202012281500 METAR MRLM 281500Z 25006KT 5000 DZ FEW010 OVC080 23/22 A2997=
202012281600 METAR MRLM 281600Z 24005KT 8000 -DZ FEW010 BKN080 23/22 A2998=
202012281700 METAR MRLM 281700Z 26005KT 9999 FEW010 BKN080 25/23 A2995 REDZ=
202012281800 METAR MRLM 281800Z 28007KT 9999 FEW015 BKN080 26/23 A2992=
202012281900 METAR MRLM 281900Z 28008KT 9999 FEW015 BKN100 26/23 A2989=
202012282000 METAR MRLM 282000Z 28006KT 9999 FEW020 SCT100 27/23 A2987=
202012282100 METAR MRLM 282100Z 28007KT 9999 FEW020TCU SCT100 27/23 A2986=
202012282200 METAR MRLM 282200Z 30007KT 9999 FEW020 BKN100 25/22 A2987=
202012282300 METAR MRLM 282300Z 28006KT 9999 FEW020 SCT100 BKN200 24/22 A2988=
202012290000 METAR MRLM 290000Z 27005KT 9999 FEW015 SCT100 BKN200 24/22 A2989=
202012290100 METAR MRLM NIL=
202012290200 METAR MRLM NIL=
202012290300 METAR MRLM NIL=
202012290400 METAR MRLM NIL=
202012290500 METAR MRLM NIL=
202012290600 METAR MRLM NIL=
202012290700 METAR MRLM NIL=
202012290800 METAR MRLM NIL=
202012290900 METAR MRLM NIL=
202012291000 METAR MRLM NIL=
202012291100 METAR MRLM NIL=
202012291200 METAR MRLM 291200Z 28008KT 9999 FEW015 SCT100 22/20 A2990=
202012291300 METAR MRLM 291300Z 29008KT 9999 FEW015 SCT100 23/21 A2992=
202012291400 METAR MRLM 291400Z 28007KT CAVOK 25/21 A2993=
202012291500 METAR MRLM 291500Z 30007KT 9999 FEW020 BKN120 26/22 A2994=
202012291600 METAR MRLM 291600Z 31007KT 9999 FEW020 BKN120 27/22 A2994=
202012291700 METAR MRLM 291700Z 32006KT 9999 FEW020 BKN120 27/22 A2992=
202012291800 METAR MRLM 291800Z 32005KT 9999 FEW020 BKN120 28/22 A2989=
202012291900 METAR MRLM 291900Z 35010KT 9999 FEW020 BKN120 28/23 A2986=
202012292000 METAR MRLM 292000Z 36008KT 9999 FEW020 BKN120 28/23 A2984=
202012292100 METAR MRLM 292100Z 36009KT 9999 FEW020 BKN120 27/23 A2983=
202012292200 METAR MRLM 292200Z 34008KT 9999 FEW020 BKN120 27/23 A2983=
202012292300 METAR MRLM 292300Z 32006KT 9999 FEW020 BKN120 26/23 A2984=
202012300000 METAR MRLM 300000Z 28003KT 9999 FEW015 BKN100 25/23 A2986=
202012300100 METAR MRLM NIL=
202012300200 METAR MRLM NIL=
202012300300 METAR MRLM NIL=
202012300400 METAR MRLM NIL=
202012300500 METAR MRLM NIL=
202012300600 METAR MRLM NIL=
202012300700 METAR MRLM NIL=
202012300800 METAR MRLM NIL=
202012300900 METAR MRLM NIL=
202012301000 METAR MRLM NIL=
202012301100 METAR MRLM NIL=
202012301200 METAR MRLM 301200Z 25003KT CAVOK 22/21 A2988=
202012301300 METAR MRLM 301300Z 24004KT CAVOK 22/21 A2990=
202012301400 METAR MRLM 301400Z 23004KT CAVOK 25/22 A2992=
202012301500 METAR MRLM 301500Z 00000KT CAVOK 27/22 A2993=
202012301600 METAR MRLM 301600Z 06004KT CAVOK 27/22 A2993=
202012301700 METAR MRLM 301700Z 03005KT CAVOK 28/23 A2991=
202012301800 METAR MRLM 301800Z 04006KT CAVOK 27/23 A2988=
202012301900 METAR MRLM 301900Z 03008KT CAVOK 28/23 A2986=
202012302000 METAR MRLM 302000Z 05003KT CAVOK 28/23 A2983=
202012302100 METAR MRLM 302100Z 05004KT CAVOK 28/23 A2981=
202012302200 METAR MRLM 302200Z 07005KT CAVOK 27/22 A2982=
202012302300 METAR MRLM 302300Z 10004KT CAVOK 27/22 A2983=
202012310000 METAR MRLM 310000Z 00000KT CAVOK 26/22 A2987=
202012310100 METAR MRLM NIL=
202012310200 METAR MRLM NIL=
202012310300 METAR MRLM NIL=
202012310400 METAR MRLM NIL=
202012310500 METAR MRLM NIL=
202012310600 METAR MRLM NIL=
202012310700 METAR MRLM NIL=
202012310800 METAR MRLM NIL=
202012310900 METAR MRLM NIL=
202012311000 METAR MRLM NIL=
202012311100 METAR MRLM NIL=
202012311200 METAR MRLM 311200Z 24003KT CAVOK 21/20 A2987=
202012311300 METAR MRLM 311300Z 24003KT CAVOK 23/22 A2990=
202012311400 METAR MRLM 311400Z 22003KT CAVOK 25/22 A2991=
202012311500 METAR MRLM 311500Z 22003KT CAVOK 25/22 A2991=
202012311600 METAR MRLM 311600Z 10003KT CAVOK 27/23 A2992=
202012311700 METAR MRLM 311700Z 12007KT CAVOK 29/22 A2990=
202012311800 METAR MRLM 311800Z 11009KT CAVOK 29/22 A2987=
202012311900 METAR MRLM 311900Z 11007KT CAVOK 29/22 A2984=
202012312000 METAR MRLM 312000Z 10007KT CAVOK 29/22 A2982=
202012312100 METAR MRLM 312100Z 09009KT CAVOK 29/23 A2981=
202012312200 METAR MRLM 312200Z 09008KT CAVOK 28/23 A2982=
202012312300 METAR MRLM 312300Z 10006KT CAVOK 28/23 A2983=
