200601010000 METAR MRPV NIL=
200601010100 METAR MRPV NIL=
200601010200 METAR MRPV NIL=
200601010300 METAR MRPV NIL=
200601010400 METAR MRPV NIL=
200601010500 METAR MRPV NIL=
200601010600 METAR MRPV NIL=
200601010700 METAR MRPV NIL=
200601010800 METAR MRPV NIL=
200601010900 METAR MRPV NIL=
200601011000 METAR MRPV NIL=
200601011100 METAR MRPV NIL=
200601011200 METAR MRPV NIL=
200601011300 METAR MRPV 011300Z 14009KT 9999 FEW035 20/13 A3001=
200601011400 METAR MRPV 011400Z 12010KT 9999 SCT035 22/13 A3004 RMK DZ DST N NE=
200601011500 METAR MRPV 011500Z 08010KT 9999 SCT035 23/14 A3004 RMK DZ DST N=
200601011600 METAR MRPV 011600Z 08009KT 9999 SCT035 23/15 A3004=
200601011700 METAR MRPV 011700Z 08011KT 9999 FEW035 25/16 A3002=
200601011800 METAR MRPV 011800Z 07007KT 9999 FEW040 26/16 A3000=
200601011900 METAR MRPV 011900Z 09010KT 9999 FEW025 SCT040 26/16 A2997 RMK DZ DST N=
200601012000 METAR MRPV 012000Z 09013KT 9999 FEW025 BKN035 26/16 A2994 RMK RN DST NW=
200601012100 METAR MRPV 012100Z 09010KT 9999 FEW015 BKN030 24/16 A2995=
200601012200 METAR MRPV 012200Z 08008KT 9999 FEW010 BKN030 24/16 A2995=
200601012300 METAR MRPV 012300Z 08010KT 9999 BKN025 23/16 A2997=
200601020000 METAR MRPV NIL=
200601020100 METAR MRPV NIL=
200601020200 METAR MRPV NIL=
200601020300 METAR MRPV NIL=
200601020400 METAR MRPV NIL=
200601020500 METAR MRPV NIL=
200601020600 METAR MRPV NIL=
200601020700 METAR MRPV NIL=
200601020800 METAR MRPV NIL=
200601020900 METAR MRPV NIL=
200601021000 METAR MRPV NIL=
200601021100 METAR MRPV NIL=
200601021200 METAR MRPV 021200Z 09010KT 9999 FEW025 BKN250 20/16 A3003=
200601021300 METAR MRPV 021300Z 12010KT 9999 FEW030 SCT120 BKN250 20/16 A3007=
200601021400 METAR MRPV 021400Z 08016KT 9999 SCT030 BKN250 22/15 A3008=
200601021500 METAR MRPV 021500Z 07015KT 9999 SCT030 BKN250 23/15 A3009=
200601021600 METAR MRPV 021600Z 06016KT 9999 FEW030 BKN250 24/14 A3008=
200601021700 METAR MRPV 021700Z 08016KT 9999 FEW040 BKN250 25/14 A3007=
200601021800 METAR MRPV 021800Z 07015KT 9999 SCT035 BKN250 26/14 A3005=
200601021900 METAR MRPV 021900Z 07013KT 9999 SCT030 BKN250 26/14 A3002=
200601022000 METAR MRPV 02200Z 08016KT 9999 SCT040 BKN250 26/14 A3000=
200601022100 METAR MRPV 022100Z 10008KT 9999 SCT040 BKN250 25/15 A3000=
200601022200 METAR MRPV 022200Z 06009KT 9999 SCT040 BKN250 24/15 A3000=
200601022300 METAR MRPV 022300Z 08008KT 9999 SCT030 BKN250 22/15 A3002=
200601030000 METAR MRPV NIL=
200601030100 METAR MRPV NIL=
200601030200 METAR MRPV NIL=
200601030300 METAR MRPV NIL=
200601030400 METAR MRPV NIL=
200601030500 METAR MRPV NIL=
200601030600 METAR MRPV NIL=
200601030700 METAR MRPV NIL=
200601030800 METAR MRPV NIL=
200601030900 METAR MRPV NIL=
200601031000 METAR MRPV NIL=
200601031100 METAR MRPV NIL=
200601031200 METAR MRPV 031200Z 12008KT CAVOK 18/13 A3006=
200601031300 METAR MRPV 031300Z 07006KT CAVOK 19/13 A3009=
200601031400 METAR MRPV 031400Z 14005KT CAVOK 20/14 A3011=
200601031500 METAR MRPV 031500Z 13007KT CAVOK 22/15 A3012=
200601031600 METAR MRPV 031600Z 09011KT CAVOK 24/15 A3012=
200601031700 METAR MRPV 031700Z 09011KT 9999 FEW030 BKN250 25/15 A3009=
200601031800 METAR MRPV 031800Z 15005KT 9999 SCT040 BKN250 26/15 A3009=
200601031900 METAR MRPV 031900Z 06007KT 9999 SCT030 SCT120 BKN250 26/14 A3005=
200601032000 METAR MRPV 032000Z 00000KT 9999 SCT025 BKN120 25/17 A3003=
200601032100 METAR MRPV 032100Z 24004KT 9999 FEW020 SCT035 BKN120 25/18 A3002=
200601032200 METAR MRPV 032200Z 19008KT 9999 SCT025 BKN120 22/17 A3002=
200601032300 METAR MRPV 032300Z 30008KT 9999 SCT030 BKN250 22/17 A3003=
200601040000 METAR MRPV NIL=
200601040100 METAR MRPV NIL=
200601040200 METAR MRPV NIL=
200601040300 METAR MRPV NIL=
200601040400 METAR MRPV NIL=
200601040500 METAR MRPV NIL=
200601040600 METAR MRPV NIL=
200601040700 METAR MRPV NIL=
200601040800 METAR MRPV NIL=
200601040900 METAR MRPV NIL=
200601041000 METAR MRPV NIL=
200601041100 METAR MRPV NIL=
200601041200 METAR MRPV 041200Z 12007KT CAVOK 18/13 A3006=
200601041300 METAR MRPV 041300Z 11006KT CAVOK 19/13 A3008=
200601041400 METAR MRPV 041400Z 11010KT CAVOK 21/14 A3009=
200601041500 METAR MRPV 041500Z 07016KT CAVOK 24/14 A3009=
200601041600 METAR MRPV 041600Z 10016KT CAVOK 23/15 A3008=
200601041700 METAR MRPV 041700Z 05017KT CAVOK 24/15 A3006=
200601041800 METAR MRPV 041800Z 06016KT 9999 FEW035 25/16 A3004=
200601041900 METAR MRPV 041900Z 04006KT 9999 SCT040 25/15 A3003=
200601042000 METAR MRPV 042000Z 04005KT 9999 SCT040 26/15 A3000=
200601042100 METAR MRPV 042100Z 07011KT 9999 SCT040 26/15 A2998=
200601042200 METAR MRPV 042200Z 09010KT 9999 SCT040 24/15 A2998=
200601042300 METAR MRPV 042300Z 08014KT 9999 SCT035 23/15 A3000=
200601050000 METAR MRPV NIL=
200601050100 METAR MRPV NIL=
200601050200 METAR MRPV NIL=
200601050300 METAR MRPV NIL=
200601050400 METAR MRPV NIL=
200601050500 METAR MRPV NIL=
200601050600 METAR MRPV NIL=
200601050700 METAR MRPV NIL=
200601050800 METAR MRPV NIL=
200601050900 METAR MRPV NIL=
200601051000 METAR MRPV NIL=
200601051100 METAR MRPV NIL=
200601051200 METAR MRPV 051200Z 13008KT 9999 SCT035 SCT250 19/14 A3001=
200601051300 METAR MRPV 051300Z 12012KT CAVOK 20/14 A3004=
200601051400 METAR MRPV 051400Z 10010KT CAVOK 21/14 A3006 RMK FEW120 SCT200=
200601051500 METAR MRPV 051500Z 09012KT CAVOK 23/14 A3006 RMK SCT200=
200601051600 METAR MRPV 051600Z 07010KT 9999 FEW040 SCT220 24/15 A3006=
200601051700 METAR MRPV 051700Z 07015KT 9999 FEW040 25/14 A3004 RMK FEW220=
200601051800 METAR MRPV 051800Z 08014KT 9999 BKN040 25/15 A3000 RMK DZ NE OVR RDGS=
200601051900 METAR MRPV 051900Z 09015KT 9999 SCT040 26/15 A2996 RMK TCU DST SW=
200601052000 METAR MRPV 052000Z 08014KT 9999 SCT040 26/15 A2994 RMK TCU DST SW=
200601052100 METAR MRPV 052100Z 09015KT 9999 FEW010 FEW020TCU SCT030 25/16 A2994 RMK RN DST NW N=
200601052200 METAR MRPV 052200Z 11008KT 9999 3000NW -RA FEW015TCU BKN030 23/18 A2995=
200601052300 METAR MRPV 052300Z 00000KT 9999 4000NW BR FEW005 BKN025 21/17 A2997 REDZ RMK TCU DST SW=
200601060000 METAR MRPV NIL=
200601060100 METAR MRPV NIL=
200601060200 METAR MRPV NIL=
200601060300 METAR MRPV NIL=
200601060400 METAR MRPV NIL=
200601060500 METAR MRPV NIL=
200601060600 METAR MRPV NIL=
200601060700 METAR MRPV NIL=
200601060800 METAR MRPV NIL=
200601060900 METAR MRPV NIL=
200601061000 METAR MRPV NIL=
200601061100 METAR MRPV NIL=
200601061200 METAR MRPV 061200Z 10005KT 6000 +DZ VCFG BKN020 SCT100 18/16 A3003=
200601061300 METAR MRPV 061300Z 12006KT 9999 SCT025 BKN080 19/16 A3004 REDZ RMK RN DST E N=
200601061400 METAR MRPV 061400Z 11005KT 9999 -DZ FEW030 BKN090 20/15 A3007=
200601061500 METAR MRPV 061500Z 10012KT 9999 FEW035 BKN090 21/15 A3007 REDZ RMK DZ DST NE=
200601061600 METAR MRPV 061600Z 09018KT 9999 FEW035 BKN090 24/15 A3005 RMK RN DST E=
200601061700 METAR MRPV 061700Z 09018KT 9999 SCT035 BKN090 21/15 A3005 RMK RN DIST N/NE/E=
200601061800 METAR MRPV 061800Z 08015KT 9999 BKN030 SCT090 22/15 A3002 RMK RN DST QUAD N=
200601061900 METAR MRPV 061900Z 08016KT 9999 BKN035 SCT100 21/15 A3000 RMK RN DST N E=
200601062000 METAR MRPV 062000Z 10017KT 9999 -DZ SCT035 BKN090 21/13 A2998 RMK RN DST E=
200601062100 METAR MRPV 062100Z 09022KT 9999 SCT035 BKN090 19/12 A2997 REDZ RMK RN E=
200601062200 METAR MRPV 062200Z 09020KT 9999 -DZ FEW040 OVC100 19/13 A2998=
200601062300 METAR MRPV 062300Z 11018KT 9999 -DZ OVC100 19/14 A3001=
200601070000 METAR MRPV NIL=
200601070100 METAR MRPV NIL=
200601070200 METAR MRPV NIL=
200601070300 METAR MRPV NIL=
200601070400 METAR MRPV NIL=
200601070500 METAR MRPV NIL=
200601070600 METAR MRPV NIL=
200601070700 METAR MRPV NIL=
200601070800 METAR MRPV NIL=
200601070900 METAR MRPV NIL=
200601071000 METAR MRPV NIL=
200601071100 METAR MRPV NIL=
200601071200 METAR MRPV 071200Z 10015KT 9999 FEW030 SCT270 17/12 A3006 RN DST N=
200601071300 METAR MRPV 071300Z 09012KT 9999 FEW030 19/12 A3006 RMK DZ N=
200601071400 METAR MRPV 071400Z 11015KT 9999 SCT030 SCT100 19/13 A3010 RMK DZ N E=
200601071500 METAR MRPV 071500Z 10018KT 9999 FEW030 19/13 A3011 RMK DZ N E=
200601071600 METAR MRPV 071600Z 10020G30KT 9999 FEW030 SCT300 21/13 A3011 RMK DZ N NE E SE=
200601071700 METAR MRPV 071700Z 10020G30KT 9999 FEW025 20/13 A3008 RMK DZ N NE E=
200601071800 METAR MRPV 071800Z 10018G28KT 9999 FEW025 SCT120 21/14 A3005 RMK DZ N E=
200601071900 METAR MRPV 071900Z 09018G28KT 9999 FEW025 SCT300 20/14 A3003=
200601072000 METAR MRPV 072000Z 10016G26KT 9999 SCT030 21/14 A3001 RMK DZ N E=
200601072100 METAR MRPV 072100Z 09018G28KT 9999 -DZ FEW030 SCT130 22/14 A3000 RMK RN N NE=
200601072200 METAR MRPV 072200Z 10016KT 9999 -DZ BKN028 SCT140 20/15 A3000 RKM RN N NE=
200601072300 METAR MRPV 072300Z 11016KT 9999 FEW025 20/14 A3001 REDZ=
200601080000 METAR MRPV NIL=
200601080100 METAR MRPV NIL=
200601080200 METAR MRPV NIL=
200601080300 METAR MRPV NIL=
200601080400 METAR MRPV NIL=
200601080500 METAR MRPV NIL=
200601080600 METAR MRPV NIL=
200601080700 METAR MRPV NIL=
200601080800 METAR MRPV NIL=
200601080900 METAR MRPV NIL=
200601081000 METAR MRPV NIL=
200601081100 METAR MRPV NIL=
200601081200 METAR MRPV NIL=
200601081300 METAR MRPV 081300Z 10013KT 9999 SCT020 18/14 A3007 RMK DZ/RN N/NE=
200601081400 METAR MRPV 081400Z 11022KT 9999 BKN020 19/14 A3009=
200601081500 METAR MRPV 081500Z 12014KT 9999 SCT020 BKN130 20/15 A3009=
200601081600 METAR MRPV 081600Z 09013KT 9999 SCT020 BKN120 21/15 A3008=
200601081700 METAR MRPV 081700Z 09020KT 9999 SCT020 BKN120 22/15 A3007=
200601081800 METAR MRPV 081800Z 09020KT 9999 SCT020 BKN120 23/16 A3005=
200601081900 METAR MRPV 081900Z 09013KT 9999 SCT020 BKN120 24/16 A3002=
200601082000 METAR MRPV 082000Z 10016KT 9999 SCT020 BKN100 23/17 A2999=
200601082100 METAR MRPV 082100Z 10019KT 9999 SCT020 BKN100 23/16 A2999 RMK DZ N/NE=
200601082200 METAR MRPV 082200Z 10016KT 9999 SCT020 BKN100 22/16 A2999=
200601082300 METAR MRPV 082300Z 12014KT 9999 SCT020 BKN100 21/16 A2999=
200601090000 METAR MRPV NIL=
200601090100 METAR MRPV NIL=
200601090200 METAR MRPV NIL=
200601090300 METAR MRPV NIL=
200601090400 METAR MRPV NIL=
200601090500 METAR MRPV NIL=
200601090600 METAR MRPV NIL=
200601090700 METAR MRPV NIL=
200601090800 METAR MRPV NIL=
200601090900 METAR MRPV NIL=
200601091000 METAR MRPV NIL=
200601091100 METAR MRPV NIL=
200601091200 METAR MRPV NIL=
200601091300 METAR MRPV 091300Z 11015G25KT 9999 FEW025 SCT080 20/14 A3005=
200601091400 METAR MRPV 091400Z 10015G25KT 9999 FEW025 SCT080 22/12 A3004=
200601091500 METAR MRPV 091500Z 09015G25KT 9999 FEW030 23/14 A3008=
200601091600 METAR MRPV 091600Z 08015G25 CAVOK 23/14 A3007=
200601091700 METAR MRPV 091700Z 09015G25KT 9999 FEW030 24/15 A3006=
200601091800 METAR MRPV 091800Z 08015G25KT 9999 FEW035 25/15 A3003=
200601091900 METAR MRPV 091900Z 08012G22KT 9999 FEW035 26/16 A3001=
200601092000 METAR MRPV 092000Z 07010G20 9999 FEW035 SCT080 25/15 A2998=
200601092100 METAR MRPV 092100Z 08010G20KT 9999 FEW035 SCT080 24/16 A2996=
200601092200 METAR MRPV 092200Z 07010G20KT 9999 FEW035 SCT080 23/16 A2996=
200601092300 METAR MRPV 092300Z 07012G22KT 9999 FEW035 SCT080 22/15 A2997=
200601100000 METAR MRPV NIL=
200601100100 METAR MRPV NIL=
200601100200 METAR MRPV NIL=
200601100300 METAR MRPV NIL=
200601100400 METAR MRPV NIL=
200601100500 METAR MRPV NIL=
200601100600 METAR MRPV NIL=
200601100700 METAR MRPV NIL=
200601100800 METAR MRPV NIL=
200601100900 METAR MRPV NIL=
200601101000 METAR MRPV NIL=
200601101100 METAR MRPV NIL=
200601101200 METAR MRPV NIL=
200601101300 METAR MRPV 101300Z 10018KT CAVOK 21/12 A3003=
200601101400 METAR MRPV 101400Z 09020KT CAVOK 21/14 A3006=
200601101500 METAR MRPV 101500Z 12011KT CAVOK 24/13 A3006=
200601101600 METAR MRPV 101600Z 08017KT CAVOK 24/14 A3006=
200601101700 METAR MRPV 101700Z 06020KT CAVOK 24/14 A3004=
200601101800 METAR MRPV 101800Z 07021KT CAVOK 25/15 A3001=
200601101900 METAR MRPV 101900Z 07015KT CAVOK 26/14 A2998=
200601102000 METAR MRPV 102000Z 08016KT 9999 FEW040 26/15 A2996=
200601102100 METAR MRPV 102100Z 07016KT 9999 FEW040 26/15 A2995=
200601102200 METAR MRPV 102200Z 08012KT 9999 FEW040 25/15 A2996=
200601102300 METAR MRPV 102300Z 08012KT 9999 FEW040 24/15 A2997=
200601110000 METAR MRPV NIL=
200601110100 METAR MRPV NIL=
200601110200 METAR MRPV NIL=
200601110300 METAR MRPV NIL=
200601110400 METAR MRPV NIL=
200601110500 METAR MRPV NIL=
200601110600 METAR MRPV NIL=
200601110700 METAR MRPV NIL=
200601110800 METAR MRPV NIL=
200601110900 METAR MRPV NIL=
200601111000 METAR MRPV NIL=
200601111100 METAR MRPV NIL=
200601111200 METAR MRPV NIL=
200601111300 METAR MRPV 111300Z 09012G24KT 9999 FEW025 20/16 A3002=
200601111400 METAR MRPV 111400Z 09012G22KT 9999 FEW025 22/16 A3004=
200601111500 METAR MRPV 111500Z 07010G20KT 9999 FEW025 23/16 A3004=
200601111600 METAR MRPV 111600Z 07010G20KT 9999 FEW025 23/15 A3005=
200601111700 METAR MRPV 111700Z 07012G22KT 9999 SCT025 25/15 A3002=
200601111800 METAR MRPV 111800Z 09010G20KT 9999 SCT030 25/16 A3000=
200601111900 METAR MRPV 111900Z 08012G22KT 9999 SCT030 25/16 A2997=
200601112000 METAR MRPV 112000Z 08010G20KT 9999 SCT030 26/16 A2995=
200601112100 METAR MRPV 112100Z 09010G20KT 9999 SCT030 26/15 A2993=
200601112200 METAR MRPV 112200Z 09010G20KT 9999 SCT030 25/16 A2993=
200601112300 METAR MRPV 112300Z 09010G20KT 9999 SCT030 23/16 A2994=
200601120000 METAR MRPV NIL=
200601120100 METAR MRPV NIL=
200601120200 METAR MRPV NIL=
200601120300 METAR MRPV NIL=
200601120400 METAR MRPV NIL=
200601120500 METAR MRPV NIL=
200601120600 METAR MRPV NIL=
200601120700 METAR MRPV NIL=
200601120800 METAR MRPV NIL=
200601120900 METAR MRPV NIL=
200601121000 METAR MRPV NIL=
200601121100 METAR MRPV NIL=
200601121200 METAR MRPV NIL=
200601121300 METAR MRPV 121300Z 10014KT 9999 SKC 20/14 A2998=
200601121400 METAR MRPV 121400Z 11012KT 9999 SKC 22/14 A3001=
200601121500 METAR MRPV 121500Z 09010G20KT 9999 SKC 24/15 A3000=
200601121600 METAR MRPV 121600Z 09010G20KT 9999 SKC 25/15 A3000=
200601121700 METAR MRPV NIL=
200601121800 METAR MRPV 121800Z 07010G20KT 9999 FEW035 26/15 A2997=
200601121900 METAR MRPV 121900Z 08010G20KT 9999 FEW035 26/16 A2992=
200601122000 METAR MRPV 122000Z 09010G20KT 9999 SCT035 27/16 A2990=
200601122100 METAR MRPV 122100Z 11015KT 9999 SCT035 25/16 A2989 RMK TCU DST SSW=
200601122200 METAR MRPV 122200Z 09010G20KT 9999 SCT035 25/16 A2989 RMK TCU DST SW=
200601122300 METAR MRPV 122300Z 09014KT 9999 SCT035 24/16 A2990=
200601130000 METAR MRPV NIL=
200601130100 METAR MRPV NIL=
200601130200 METAR MRPV NIL=
200601130300 METAR MRPV NIL=
200601130400 METAR MRPV NIL=
200601130500 METAR MRPV NIL=
200601130600 METAR MRPV NIL=
200601130700 METAR MRPV NIL=
200601130800 METAR MRPV NIL=
200601130900 METAR MRPV NIL=
200601131000 METAR MRPV NIL=
200601131100 METAR MRPV NIL=
200601131200 METAR MRPV NIL=
200601131300 METAR MRPV 131300Z 11010G20KT 9999 FEW025 20/15 A2999=
200601131400 METAR MRPV 131400Z 10010G20KT 9999 SKC 22/15 A3000=
200601131500 METAR MRPV 131500Z 09012G24KT 9999 SKC 24/16 A3000=
200601131600 METAR MRPV 131600Z 07010G20KT 9999 SKC 25/16 A3001=
200601131700 METAR MRPV 131700Z 07012G24 9999 FEW030 25/16 A2999=
200601131800 METAR MRPV 131800Z 07010G20KT 9999 FEW030 26/15 A2997=
200601131900 METAR MRPV 131900Z 07010G20KT 9999 FEW030 27/15 A2993 RMK TUC DST SSW=
200601132000 METAR MRPV 132000Z 07012G22KT 9999 FEW030 26/15 A2992 RMK TCU DST SSW=
200601132100 METAR MRPV 132100Z 07010G20KT 9999 FEW030 26/15 A2990 TCU DST S SW=
200601132200 METAR MRPV 132200Z 07010G20KT 9999 FEW030 26/15 A2990=
200601132300 METAR MRPV 132300Z 07010G20KT 9999 FEW030 24/15 A2991=
200601140000 METAR MRPV NIL=
200601140100 METAR MRPV NIL=
200601140200 METAR MRPV NIL=
200601140300 METAR MRPV NIL=
200601140400 METAR MRPV NIL=
200601140500 METAR MRPV NIL=
200601140600 METAR MRPV NIL=
200601140700 METAR MRPV NIL=
200601140800 METAR MRPV NIL=
200601140900 METAR MRPV NIL=
200601141000 METAR MRPV NIL=
200601141100 METAR MRPV NIL=
200601141200 METAR MRPV NIL=
200601141300 METAR MRPV 141300Z 11012KT CAVOK 21/14 A3004=
200601141400 METAR MRPV 141400Z 12014KT CAVOK 22/14 A3005=
200601141500 METAR MRPV 141500Z 11009KT CAVOK 23/14 A3005=
200601141600 METAR MRPV 141600Z 08015KT CAVOK 25/14 A3006=
200601141700 METAR MRPV 141700Z 09011KT 9999 FEW040 BKN250 25/15 A3009=
200601141800 METAR MRPV 141800Z 08012KT 9999 SCT035 BKN250 26/16 A3000=
200601141900 METAR MRPV 141900Z 09012KT 9999 SCT030 BKN130 25/16 A2998=
200601142000 METAR MRPV 142000Z NIL=
200601142100 METAR MRPV 142100Z 12014KT 9999 SCT020 BKN130 24/17 A2997=
200601142200 METAR MRPV 142200Z 04012KT 9999 SCT020 BKN100 23/17 A2997=
200601142300 METAR MRPV 142300Z 07011KT 9999 SCT020 BKN100 23/17 A2995=
200601150000 METAR MRPV NIL=
200601150100 METAR MRPV NIL=
200601150200 METAR MRPV NIL=
200601150300 METAR MRPV NIL=
200601150400 METAR MRPV NIL=
200601150500 METAR MRPV NIL=
200601150600 METAR MRPV NIL=
200601150700 METAR MRPV NIL=
200601150800 METAR MRPV NIL=
200601150900 METAR MRPV NIL=
200601151000 METAR MRPV NIL=
200601151100 METAR MRPV NIL=
200601151200 METAR MRPV NIL=
200601151300 METAR MRPV 151300Z 11006KT 9999 SCT020 BKN120 19/16 A3004=
200601151400 METAR MRPV 151400Z 09013KT 9999 SCT020 21/16 A3005=
200601151500 METAR MRPV 151500Z 10007KT 9999 SCT020 23/16 A3004=
200601151600 METAR MRPV 151600Z 13007KT 4000 +DZ SCT005 BKN015 20/17 A3005=
200601151800 METAR MRPV 151800Z 09015KT 9999 SCT025TCU BKN100 22/18 A3000=
200601151900 METAR MRPV 151900Z 10010KT 9999 SCT020 BKN100 22/17 A2998 RMK RN/DZ=
200601152000 METAR MRPV 152000Z 11012KT 6000 -DZ SCT015 BKN025 20/17 A2998=
200601152100 METAR MRPV 152100Z 09020KT 9999 SCT020TCU BKN100 20/16 A2998 RMK RN DST N NE=
200601152200 METAR MRPV 152200Z 10017KT 9999 SCT020 BKN080 20/15 A2997 RMK RN DST N NE=
200601152300 METAR MRPV 152300Z 08010KT 9999 FEW010 SCT020 BKN080 20/15 A2999 RMK RN DST N NE=
200601160000 METAR MRPV NIL=
200601160100 METAR MRPV NIL=
200601160200 METAR MRPV NIL=
200601160300 METAR MRPV NIL=
200601160400 METAR MRPV NIL=
200601160500 METAR MRPV NIL=
200601160600 METAR MRPV NIL=
200601160700 METAR MRPV NIL=
200601160800 METAR MRPV NIL=
200601160900 METAR MRPV NIL=
200601161000 METAR MRPV NIL=
200601161100 METAR MRPV NIL=
200601161200 METAR MRPV 161200Z 11010KT 9999 FEW010 SCT020 OVC100 19/15 A3000 RN E=
200601161300 METAR MRPV 161300Z 10019KT 9999 FEW012 SCT020 BKN100 19/15 A3001 RMK DZ DST N NE=
200601161400 METAR MRPV 161400Z 12010KT 9999 SCT018 BKN100 19/15 A3003=
200601161500 METAR MRPV 161500Z 10012KT 9999 SCT020 BKN100 20/15 A3004 RMK DZ DST N NE=
200601161600 METAR MRPV 161600Z 09014KT 9999 SCT020 BKN080 21/16 A3004 RMK DZ DST N NE=
200601161700 METAR MRPV 161700Z 07015KT 9999 SCT020 BKN100 22/16 A3003 RMK DZ DST N NE=
200601161800 METAR MRPV 161800Z 10012KT 9999 FEW010 SCT020 BKN080 20/16 A3001 RMK DZ DST N NE S=
200601161900 METAR MRPV 161900Z 10013KT 9999 SCT020 OVC100 21/16 A2999 RMK DZ DST N NE=
200601162000 METAR MRPV 162000Z 09015KT 9999 SCT015 BKN080 22/16 A2997 RMK DZ DST N NE=
200601162100 METAR MRPV 162100Z 09005KT 9999 SCT020 BKN100 22/16 A2996=
200601162200 METAR MRPV 162200Z 10009KT 9999 SCT020 BKN080 22/16 A2996=
200601162300 METAR MRPV NIL=
200601170000 METAR MRPV NIL=
200601170100 METAR MRPV NIL=
200601170200 METAR MRPV NIL=
200601170300 METAR MRPV NIL=
200601170400 METAR MRPV NIL=
200601170500 METAR MRPV NIL=
200601170600 METAR MRPV NIL=
200601170700 METAR MRPV NIL=
200601170800 METAR MRPV NIL=
200601170900 METAR MRPV NIL=
200601171000 METAR MRPV NIL=
200601171100 METAR MRPV NIL=
200601171200 METAR MRPV 171200Z 02004KT 9999 SKC 17/14 A3004=
200601171300 METAR MRPV 171300Z 00000KT 9999 SKC 19/15 A3005=
200601171400 METAR MRPV 171400Z VRB03KT 9999 SKC 21/15 A3008=
200601171500 METAR MRPV 171500Z 10008KT 9999 SKC 24/14 A3007=
200601171600 METAR MRPV 171600Z VRB03KT 9999 FEW035 26/15 A3007=
200601171700 METAR MRPV 171700Z 06008KT 9999 FEW030 26/15 A3005=
200601171800 METAR MRPV 171800Z 07010KT 9999 SCT030 27/16 A3001=
200601171900 METAR MRPV 171900Z 07010KT 9999 FEW020TCU SCT035 28/16 A3001=
200601172000 METAR MRPV 172000Z 22005KT 9999 SCT020 BKN030 25717 A3001=
200601172100 METAR MRPV 172100Z 24007KT 9999 SCT020TCU BKN030 25/18 A3000 RMK RASH WSW W NW=
200601172200 METAR MRPV 172200Z 27010KT 9999 SCT025 BKN250 24/18 A3001 RMK PCPN DST SSW=
200601172300 METAR MRPV 172300Z 28008KT 9999 SCT030 BKN025 22/17 A3002 PCPN DIST NW=
200601180000 METAR MRPV NIL=
200601180100 METAR MRPV NIL=
200601180200 METAR MRPV NIL=
200601180300 METAR MRPV NIL=
200601180400 METAR MRPV NIL=
200601180500 METAR MRPV NIL=
200601180600 METAR MRPV NIL=
200601180700 METAR MRPV NIL=
200601180800 METAR MRPV NIL=
200601180900 METAR MRPV NIL=
200601181000 METAR MRPV NIL=
200601181100 METAR MRPV NIL=
200601181200 METAR MRPV NIL=
200601181300 METAR MRPV 181300Z 10010G20KT 9999 FEW020 SCT090 20/15 A3012=
200601181400 METAR MRPV 181400Z 11010G20KT 9999 SCT020 21/16 A3014=
200601181500 METAR MRPV 181500Z 09010G20KT 9999 SCT025 23/15 A3013=
200601181600 METAR MRPV 181600Z 08015G25KT 9999 SCT030 23/16 A3013=
200601181700 METAR MRPV 181700Z 07015G25KT 9999 SCT030 24/15 A3012=
200601181800 METAR MRPV 181800Z 08015G25KT 9999 SCT030 26/16 A3008=
200601181900 METAR MRPV 181900Z 07015G25KT 9999 SCT030 25/14 A3005=
200601182000 METAR MRPV 182000Z 07016G26KT 9999 SCT030 24/15 A3003=
200601182100 METAR MRPV 182100Z 09016G26KT 9999 SCT030 24/15 A3001=
200601182200 METAR MRPV 182200Z 25003KT 9999 DZ BKN028 24/22 A2993 RN DST W NW N=
200601182300 METAR MRPV 182300Z 08020G30KT 9999 SCT030 21/16 A3001=
200601190000 METAR MRPV NIL=
200601190100 METAR MRPV NIL=
200601190200 METAR MRPV NIL=
200601190300 METAR MRPV NIL=
200601190400 METAR MRPV NIL=
200601190500 METAR MRPV NIL=
200601190600 METAR MRPV NIL=
200601190700 METAR MRPV NIL=
200601190800 METAR MRPV NIL=
200601190900 METAR MRPV NIL=
200601191000 METAR MRPV NIL=
200601191100 METAR MRPV NIL=
200601191200 METAR MRPV NIL=
200601191300 METAR MRPV 191300Z 09015G25KT 9999 FEW025 21/12 A3001=
200601191400 METAR MRPV 191400Z 09010G20 9999 FEW025 22/13 A3006=
200601191500 METAR MRPV 191500Z 09024G34KT 9999 FEW025 23/13 A3005=
200601191600 METAR MRPV 191600Z 09015G25KT 9999 FEW025 24/12 A3004=
200601191700 METAR MRPV 191700Z 09020G30KT 9999 FEW025 24/11 A3003=
200601191800 METAR MRPV 191800Z 08020G30KT 9999 SCT040 24/11 A3001=
200601191900 METAR MRPV 191900Z 07015G25 9999 FEW025 24/11 A2997=
200601192000 METAR MRPV 192000Z 07015G25KT 9999 FEW025 24/14 A2993=
200601192100 METAR MRPV 192100Z 07015G25KT 9999 FEW025 23/15 A2993=
200601192200 METAR MRPV 192200Z 07015G25KT 9999 FEW025 22/15 A2993=
200601192300 METAR MRPV 192300Z 07015G25KT 9999 FEW025 SCT100 20/16 A2996=
200601200000 METAR MRPV NIL=
200601200100 METAR MRPV NIL=
200601200200 METAR MRPV NIL=
200601200300 METAR MRPV NIL=
200601200400 METAR MRPV NIL=
200601200500 METAR MRPV NIL=
200601200600 METAR MRPV NIL=
200601200700 METAR MRPV NIL=
200601200800 METAR MRPV NIL=
200601200900 METAR MRPV NIL=
200601201000 METAR MRPV NIL=
200601201100 METAR MRPV NIL=
200601201200 METAR MRPV 201200Z 11012KT 9999 FEW010 SCT020 BKN100 20/15 A2994 RMK DZ N/NE=
200601201300 METAR MRPV 201300Z 12008KT 9999 FEW010 SCT020 BKN100 21/15 A2997 DZ N NE E=
200601201400 METAR MRPV 201400Z 14014KT 9999 FEW010 SCT015 BKN080 21/15 A2999 DZ NE E=
200601201500 METAR MRPV 201500Z 17007KT 9999 SCT020 BKN100 23/15 A2999 DZ E SE=
200601201600 METAR MRPV 201600Z 10012KT 9999 SCT025 24/15 A2997=
200601201700 METAR MRPV 201700Z 09013KT 9999 SCT025 26/15 A2995=
200601201800 METAR MRPV 201800Z 09016KT 9999 SCT030 26/15 A2992=
200601201900 METAR MRPV 201900Z 09014KT 9999 FEW020 SCT035 25/14 A2990=
200601202000 METAR MRPV 202000Z 07013KT 9999 SCT030 26/15 A2986=
200601202100 METAR MRPV 202100Z 04019KT 9999 SCT040 24/15 A2986=
200601202200 METAR MRPV 202200Z 05018KT 9999 SCT040 24/14 A2986=
200601202300 METAR MRPV 202300Z 07016KT 9999 FEW040 23/14 A2988=
200601210000 METAR MRPV NIL=
200601210100 METAR MRPV NIL=
200601210200 METAR MRPV NIL=
200601210300 METAR MRPV NIL=
200601210400 METAR MRPV NIL=
200601210500 METAR MRPV NIL=
200601210600 METAR MRPV NIL=
200601210700 METAR MRPV NIL=
200601210800 METAR MRPV NIL=
200601210900 METAR MRPV NIL=
200601211000 METAR MRPV NIL=
200601211100 METAR MRPV NIL=
200601211200 METAR MRPV 211200Z 12006KT 9999 SKC 19/10 A2993=
200601211300 METAR MRPV 211300Z 11009KT 9999 SKC 21/10 A2995=
200601211400 METAR MRPV 211400Z 10019KT 9999 SKC 22/11 A2997=
200601211500 METAR MRPV 211500Z 08022G32KT 9999 SKC 23/12 A2997=
200601211600 METAR MRPV 211600Z 11021KT CAVOK 24/12 A2997=
200601211700 METAR MRPV 211700Z 09022KT CAVOK 25/14 A2994=
200601211800 METAR MRPV 211800Z 11016KT CAVOK 25/15 A2992=
200601211900 METAR MRPV 211900Z NIL=
200601212000 METAR MRPV 212000Z NIL=
200601212003 METAR MRPV 212003Z 10025KT 9999 FEW040 25/15 A2987=
200601212100 METAR MRPV 212100Z 07022KT 9999 FEW040 25/15 A2986=
200601212200 METAR MRPV 212200Z 08014KT 9999 FEW030 24/15 A2986=
200601212300 METAR MRPV 212300Z 07011KT 9999 FEW040 23/15 A2988=
200601220000 METAR MRPV NIL=
200601220100 METAR MRPV NIL=
200601220200 METAR MRPV NIL=
200601220300 METAR MRPV NIL=
200601220400 METAR MRPV NIL=
200601220500 METAR MRPV NIL=
200601220600 METAR MRPV NIL=
200601220700 METAR MRPV NIL=
200601220800 METAR MRPV NIL=
200601220900 METAR MRPV NIL=
200601221000 METAR MRPV NIL=
200601221100 METAR MRPV NIL=
200601221200 METAR MRPV NIL=
200601221300 METAR MRPV 221300Z 12008KT CAVOK 20/15 A2997=
200601221400 METAR MRPV 221400Z 11017KT CAVOK 22/15 A2996=
200601221500 METAR MRPV 221500Z 07011KT CAVOK 24/15 A2997=
200601221600 METAR MRPV 221600Z 08011KT CAVOK 24/15 A2997=
200601221700 METAR MRPV 221700Z 08012KT 9999 FEW040 26/15 A2995=
200601221800 METAR MRPV 221800Z 08016KT 9999 FEW035 26/15 A2993=
200601221900 METAR MRPV 221900Z 08017KT 9999 SCT040 26/15 A2991=
200601222000 METAR MRPV NIL=
200601222100 METAR MRPV 222100Z 10016KT 9999 SCT030 25/15 A2989=
200601222200 METAR MRPV 222200Z 06014KT 9999 SCT035 26/15 A2989=
200601222300 METAR MRPV 222300Z 13010KT 9999 SCT030 24/16 A2990=
200601230000 METAR MRPV NIL=
200601230100 METAR MRPV NIL=
200601230200 METAR MRPV NIL=
200601230300 METAR MRPV NIL=
200601230400 METAR MRPV NIL=
200601230500 METAR MRPV NIL=
200601230600 METAR MRPV NIL=
200601230700 METAR MRPV NIL=
200601230800 METAR MRPV NIL=
200601230900 METAR MRPV NIL=
200601231000 METAR MRPV NIL=
200601231100 METAR MRPV NIL=
200601231200 METAR MRPV NIL=
200601231300 METAR MRPV 231300Z 13010KT 9999 SKC 20/15 A2994=
200601231400 METAR MRPV 231400Z 12014KT 9999 SKC 23/16 A2996=
200601231500 METAR MRPV 231500Z 11014KT 9999 FEW030 24/16 A2997=
200601231600 METAR MRPV 231600Z 10015KT 9999 SCT030 26/17 A2997=
200601231700 METAR MRPV 231700Z 09010KT 9999 FEW020 SCT030 25/16 A2996=
200601231800 METAR MRPV 231800Z 03010KT 9999 FEW020 SCT030 26/17 A2995=
200601231900 METAR MRPV 231900Z 07014KT 9999 FEW020 SCT030 26/17 A2993=
200601232000 METAR MRPV 232000Z 08014KT 9999 FEW020 SCT030 26/16 A2990 RMK TCU S=
200601232100 METAR MRPV 232100Z 09015KT 9999 FEW020CB SCT030 27/16 A2990=
200601232200 METAR MRPV 232200Z 09014KT 9999 SCT030 BKN250 25/16 A2990=
200601232300 METAR MRPV 232300Z 09012KT 9999 SCT030 BKN250 25/17 A2991=
200601240000 METAR MRPV NIL=
200601240100 METAR MRPV NIL=
200601240200 METAR MRPV NIL=
200601240300 METAR MRPV NIL=
200601240400 METAR MRPV NIL=
200601240500 METAR MRPV NIL=
200601240600 METAR MRPV NIL=
200601240700 METAR MRPV NIL=
200601240800 METAR MRPV NIL=
200601240900 METAR MRPV NIL=
200601241000 METAR MRPV NIL=
200601241100 METAR MRPV NIL=
200601241200 METAR MRPV NIL=
200601241300 METAR MRPV 241300Z 12010G20KT 9999 SKC 21/16 A2994=
200601241400 METAR MRPV 241400Z 09012G24KT 9999 SKC 23/16 A2996=
200601241500 METAR MRPV 241500Z 09014G26KT 9999 FEW035 24/16 A2998=
200601241600 METAR MRPV 241600Z 08012G24KT 9999 FEW030 25/16 A2998=
200601241700 METAR MRPV 241700Z 07012G22KT 9999 FEW030 26/17 A2996=
200601241800 METAR MRPV 241800Z 07012G22KT 9999 SCT030 26/17 A2994=
200601241900 METAR MRPV 241900Z 07010G20KT 9999 SCT030 26/17 A2992=
200601242000 METAR MRPV 242000Z 08010G20KT 9999 SCT030 26/17 A2990=
200601242100 METAR MRPV 242100Z 08010G20KT 9999 -RA FEW020 BKN030 25/18 A2989=
200601242200 METAR MRPV 242200Z 08010G20KT 9999 FEW020 BKN030 22/17 A2991=
200601242300 METAR MRPV 242300Z 07010G20KT 9999 FEW020 SCT030 21/17 A2992=
200601250000 METAR MRPV NIL=
200601250100 METAR MRPV NIL=
200601250200 METAR MRPV NIL=
200601250300 METAR MRPV NIL=
200601250400 METAR MRPV NIL=
200601250500 METAR MRPV NIL=
200601250600 METAR MRPV NIL=
200601250700 METAR MRPV NIL=
200601250800 METAR MRPV NIL=
200601250900 METAR MRPV NIL=
200601251000 METAR MRPV NIL=
200601251100 METAR MRPV NIL=
200601251200 METAR MRPV NIL=
200601251300 METAR MRPV 251300Z 11012G22KT 9999 FEW020 21/16 A2999=
200601251400 METAR MRPV 251400Z 12015G25KT 9999 FEW020 22/17 A3002=
200601251500 METAR MRPV 251500Z 09018G28KT 9999 SCT020 24/16 A3004 DZ N NE=
200601251600 METAR MRPV 251600Z 07015G25KT 9999 FEW025 24/16 A3004 RN N E=
200601251700 METAR MRPV 251700Z 07015G25KT 9999 FEW030 25/15 A3003 RN N NE=
200601251800 METAR MRPV 251800Z 08015G25KT 9999 FEW030 26/15 A3000 RN N NE=
200601251900 METAR MRPV 251900Z 08015G25KT 9999 FEW030 26/15 A2998 RN N NE=
200601252000 METAR MRPV 252000Z 07015G25KT 9999 FEW030 26/15 A2995=
200601252100 METAR MRPV 252100Z 07012G22KT 9999 FEW030 25/16 A2993=
200601252200 METAR MRPV 252200Z 07010G20KT 9999 FEW030 25/15 A2993=
200601252300 METAR MRPV 252300Z 07012G24KT 9999 FEW030 23/15 A2994=
200601260000 METAR MRPV NIL=
200601260100 METAR MRPV NIL=
200601260200 METAR MRPV NIL=
200601260300 METAR MRPV NIL=
200601260400 METAR MRPV NIL=
200601260500 METAR MRPV NIL=
200601260600 METAR MRPV NIL=
200601260700 METAR MRPV NIL=
200601260800 METAR MRPV NIL=
200601260900 METAR MRPV NIL=
200601261000 METAR MRPV NIL=
200601261100 METAR MRPV NIL=
200601261200 METAR MRPV 261200Z 11011KT 9999 FEW010 SCT025 BKN120 20/15 A3001 DZ N NE=
200601261300 METAR MRPV 261300Z 09007KT 9999 SCT020 21/16 A3004 RMK DZ DST N NE=
200601261400 METAR MRPV 261400Z 07010KT 9999 SCT025 22/16 A3006=
200601261500 METAR MRPV 261500Z 08016KT 9999 SCT025 24/17 A3007=
200601261600 METAR MRPV 261600Z 08020KT 9999 FEW025 24/17 A3007=
200601261700 METAR MRPV 261700Z 07022KT 9999 SCT020 25/17 A3006=
200601261800 METAR MRPV 261800Z 10022KT 9999 SCT020 25/17 A3003=
200601261900 METAR MRPV 261900Z 08020KT 9999 SCT020 25/17 A3001=
200601262100 METAR MRPV 262100Z 09016KT 9999 SCT020 23/16 A2998=
200601262200 METAR MRPV 262200Z 08015KT 9999 SCT025 24/16 A2998=
200601262300 METAR MRPV 262300Z 10014KT 9999 FEW012 SCT020 23/17 A3000=
200601270000 METAR MRPV NIL=
200601270100 METAR MRPV NIL=
200601270200 METAR MRPV NIL=
200601270300 METAR MRPV NIL=
200601270400 METAR MRPV NIL=
200601270500 METAR MRPV NIL=
200601270600 METAR MRPV NIL=
200601270700 METAR MRPV NIL=
200601270800 METAR MRPV NIL=
200601270900 METAR MRPV NIL=
200601271000 METAR MRPV NIL=
200601271100 METAR MRPV NIL=
200601271200 METAR MRPV 271200Z 10016KT 9999 SCT020 19/14 A3006 DZ N NE=
200601271300 METAR MRPV 271300Z 12013KT 9999 SCT020 20/15 A3008=
200601271400 METAR MRPV 271400Z 08022KT 9999 SCT020 21/15 A3010=
200601271500 METAR MRPV 271500Z 09028KT 9999 SCT025 22/14 A3010=
200601271600 METAR MRPV 271600Z 09018G29KT 9999 SCT025 22/15 A3010=
200601271700 METAR MRPV 271700Z 10023KT 9999 SCT025 23/14 A3009=
200601271800 METAR MRPV 271800Z 09023KT 9999 SCT025 23/16 A3007=
200601271900 METAR MRPV 271900Z 09018KT 9999 SCT035 24/15 A3004=
200601272000 METAR MRPV 272000Z 10016KT 9999 SCT025 24/16 A3001=
200601272100 METAR MRPV 272100Z 10021KT 9999 SCT030 23/15 A3000=
200601272200 METAR MRPV 272200Z 09015KT 9999 SCT025 23/16 A3001=
200601272300 METAR MRPV 272300Z 08022KT 9999 SCT020 22/16 A3002=
200601280000 METAR MRPV NIL=
200601280100 METAR MRPV NIL=
200601280200 METAR MRPV NIL=
200601280300 METAR MRPV NIL=
200601280400 METAR MRPV NIL=
200601280500 METAR MRPV NIL=
200601280600 METAR MRPV NIL=
200601280700 METAR MRPV NIL=
200601280800 METAR MRPV NIL=
200601280900 METAR MRPV NIL=
200601281000 METAR MRPV NIL=
200601281100 METAR MRPV NIL=
200601281200 METAR MRPV NIL=
200601281300 METAR MRPV 281300Z 11019KT 9999 SCT020 22/16 A3004 RMK DZ N/NE=
200601281400 METAR MRPV 281400Z 09013KT 9999 SCT020 22/16 A3006 RMK DZ DST NE=
200601281500 METAR MRPV 281500Z 09016KT 9999 SCT025 23/16 A3007=
200601281600 METAR MRPV 281600Z 09016KT 9999 FEW020 SCT030 23/17 A3008=
200601281700 METAR MRPV 281700Z 12013KT 9999 BKN025 24/17 A3007=
200601281800 METAR MRPV 281800Z 08015KT 9999 SCT025 BKN080 25/17 A3006=
200601281900 METAR MRPV 281900Z 08016KT 9999 SCT020 BKN100 24/17 A3003 RMK RN DST N NE=
200601282000 METAR MRPV 282000Z 07013KT 9999 SCT020 BKN100 24/17 A3001 RMK DZ/RN N NE=
200601282200 METAR MRPV 282200Z 08015KT 9999 SCT025 BKN100 25/17 A2999 RN N NE=
200601282300 METAR MRPV 282300Z 08014KT 9999 FEW020 SCT035 BKN250 23/17 A3000 RN DST N NE=
200601290000 METAR MRPV NIL=
200601290100 METAR MRPV NIL=
200601290200 METAR MRPV NIL=
200601290300 METAR MRPV NIL=
200601290400 METAR MRPV NIL=
200601290500 METAR MRPV NIL=
200601290600 METAR MRPV NIL=
200601290700 METAR MRPV NIL=
200601290800 METAR MRPV NIL=
200601290900 METAR MRPV NIL=
200601291000 METAR MRPV NIL=
200601291100 METAR MRPV NIL=
200601291200 METAR MRPV NIL=
200601291300 METAR MRPV 291300Z 10014KT 9999 SKC 20/14 A3002=
200601291400 METAR MRPV 291400Z 130G20KT 9999 SKC 23/14 A3003=
200601291500 METAR MRPV 291500Z 09012G22KT 9999 SKC 24/14 A3004=
200601291600 METAR MRPV 291600Z 09015G25KT 9999 SKC 26/15 A3004=
200601291700 METAR MRPV 291700Z 08012G22KT CAVOK 26/15 A3003=
200601291800 METAR MRPV 291800Z 07012G22 9999 FEW030 BKN250 26/15 A3001=
200601291900 METAR MRPV 291900Z 08012G22KT 9999 FEW030 BKN250 26/15 A2999=
200601292000 METAR MRPV 292000Z 08012G22KT 9999 FEW030 BKN250 26/15 A2977=
200601292100 METAR MRPV 292100Z 08010G20KT 9999 FEW030 BKN250 26/15 A2996=
200601292200 METAR MRPV 292200Z 07010G20KT 9999 FEW030 BKN250 26/15 A2996=
200601292300 METAR MRPV 292300Z 08010G20KT 9999 FEW030 BKN250 24/16 A2996=
200601300000 METAR MRPV NIL=
200601300100 METAR MRPV NIL=
200601300200 METAR MRPV NIL=
200601300300 METAR MRPV NIL=
200601300400 METAR MRPV NIL=
200601300500 METAR MRPV NIL=
200601300600 METAR MRPV NIL=
200601300700 METAR MRPV NIL=
200601300800 METAR MRPV NIL=
200601300900 METAR MRPV NIL=
200601301000 METAR MRPV NIL=
200601301100 METAR MRPV NIL=
200601301200 METAR MRPV 301200Z 13010KT CAVOK 19/15 A3000=
200601301300 METAR MRPV 301300Z 12014KT CAVOK 20/15 A3001=
200601301400 METAR MRPV 301400Z 11012G22KT CAVOK 23/16 A3003=
200601301500 METAR MRPV 301500Z 08012G22KT CAVOK 24/16 A3002=
200601301600 METAR MRPV 301600Z 06010G20KT CAVOK 25/16 A3002=
200601301700 METAR MRPV 301700Z 08010G20KT CAVOK 26/15 A3000=
200601301800 METAR MRPV 301800Z 09012G22KT 9999 FEW030 BKN250 27/16 A2999=
200601301900 METAR MRPV 301900Z 07012G22KT 9999 FEW030 BKN250 27/16 A2997=
200601302000 METAR MRPV 302000Z 07010G20KT 9999 FEW030 BKN250 26/15 A2995=
200601302200 METAR MRPV 302200Z 07012G22KT 9999 FEW020 SCT035 BKN250 25/17 A2994 RMK TCU DST A SE W=
200601302300 METAR MRPV 302300Z 09010G20KT 9999 SCT025 BKN035 23/15 A2995 RMK RN DST N NE=
200601310000 METAR MRPV NIL=
200601310100 METAR MRPV NIL=
200601310200 METAR MRPV NIL=
200601310300 METAR MRPV NIL=
200601310400 METAR MRPV NIL=
200601310500 METAR MRPV NIL=
200601310600 METAR MRPV NIL=
200601310700 METAR MRPV NIL=
200601310800 METAR MRPV NIL=
200601310900 METAR MRPV NIL=
200601311000 METAR MRPV NIL=
200601311100 METAR MRPV NIL=
200601311200 METAR MRPV 311200Z 13010KT 9999 SCT025 SCT100 24/18 A2995=
200601311300 METAR MRPV 311300Z 12014KT 9999 FEW020 BKN250 21/17 A2998=
200601311400 METAR MRPV 311400Z 11012KT 9999 FEW020 BKN250 22/17 A2999=
200601311500 METAR MRPV 311500Z 10010G20KT 9999 FEW020 BKN250 23/18 A3002=
200601311600 METAR MRPV 311600Z 10010G20KT 9999 SCT025 BKN250 24/17 A3003 RMK RN DST N NW=
200601311700 METAR MRPV 311700Z 09012G22KT 9999 SCT025 SCT100 25/18 A3000=
200601311800 METAR MRPV 311800Z 11010G20KT 9999 SCT025 SCT100 24/18 A2999 RMK RN DST SE=
200601311900 METAR MRPV 311900Z 13012KT 9999 SCT025 SCT100 23/18 A2998=
200601312100 METAR MRPV 312100Z 09010G20KT 9999 SCT025 SCT100 27/17 A2994=
200601312200 METAR MRPV 312200Z 11008KT 3000 -RA SCT010 BKN012 21/19 A2995=
200601312300 METAR MRPV 312300Z 14006KT 3000 1000E RA SCT010 BKN012 20/18 A2996=
200602010000 METAR MRPV NIL=
200602010100 METAR MRPV NIL=
200602010200 METAR MRPV NIL=
200602010300 METAR MRPV NIL=
200602010400 METAR MRPV NIL=
200602010500 METAR MRPV NIL=
200602010600 METAR MRPV NIL=
200602010700 METAR MRPV NIL=
200602010800 METAR MRPV NIL=
200602010900 METAR MRPV NIL=
200602011000 METAR MRPV NIL=
200602011100 METAR MRPV NIL=
200602011200 METAR MRPV 011200Z 08019KT CAVOK 19/14 A3000=
200602011300 METAR MRPV 011300Z 11016KT CAVOK 19/14 A3000=
200602011400 METAR MRPV 011400Z 09018KT CAVOK 21/13 A3002=
200602011500 METAR MRPV 011500Z 10017KT CAVOK 23/11 A3002=
200602011600 METAR MRPV 011600Z 06017KT CAVOK 24/12 A3001=
200602011700 METAR MRPV 011700Z 08015KT CAVOK 25/12 A3001=
200602012000 METAR MRPV 012000Z 09016KT 9999 SCT040 BKN250 26/14 A2993=
200602012100 METAR MRPV 012100Z 07013KT 9999 SCT040 BKN250 25/15 A2992=
200602012200 METAR MRPV 012200Z 08012KT 9999 SCT030 BKN250 24/16 A2991=
200602012300 METAR MRPV 012300Z 08014KT 08014KT 9999 SCT030 BKN250 23/16 A2992=
200602020000 METAR MRPV NIL=
200602020100 METAR MRPV NIL=
200602020200 METAR MRPV NIL=
200602020300 METAR MRPV NIL=
200602020400 METAR MRPV NIL=
200602020500 METAR MRPV NIL=
200602020600 METAR MRPV NIL=
200602020700 METAR MRPV NIL=
200602020800 METAR MRPV NIL=
200602020900 METAR MRPV NIL=
200602021000 METAR MRPV NIL=
200602021100 METAR MRPV NIL=
200602021200 METAR MRPV 021200Z 06004KT 9999 FEW020 BKN250 18/15 A2998=
200602021300 METAR MRPV 021300Z 12008KT 9999 FEW030 BKN250 20/15 A3000=
200602021400 METAR MRPV 021400Z 12008KT CAVOK 21/16 A3001=
200602021500 METAR MRPV 021500Z 11007KT CAVOK 24/16 A3000=
200602021600 METAR MRPV 021600Z 09012KT 9999 FEW040 BKN250 25/15 A2999=
200602021700 METAR MRPV 021700Z 10004KT 9999 SCT030 BKN250 28/15 A2997=
200602021800 METAR MRPV 021800Z 31009KT 9999 SCT040 BKN250 27/16 A2994=
200602021900 METAR MRPV 021900Z 28006KT 9999 SCT025 BKN250 26/18 A2993=
200602022000 METAR MRPV 2015Z 24004KT 9999 SCT025 BKN100 24/19 A2991 RMK RN E/SE/S=
200602022015 METAR MRPV 2015Z 24004KT 9999 SCT025 BKN100 24/19 A2991 RMK RN E/SE/S=
200602022100 METAR MRPV 022100Z 12006KT 9999 SCT020 BKN100 27/21 A2975=
200602022200 METAR MRPV 022200Z 00000KT 9999 -DZ FEW010TCU SCT020 OVC100 22/18 A2990 6000 N DUE RN=
200602022300 METAR MRPV NIL=
200602030000 METAR MRPV NIL=
200602030100 METAR MRPV NIL=
200602030200 METAR MRPV NIL=
200602030300 METAR MRPV NIL=
200602030400 METAR MRPV NIL=
200602030500 METAR MRPV NIL=
200602030600 METAR MRPV NIL=
200602030700 METAR MRPV NIL=
200602030800 METAR MRPV NIL=
200602030900 METAR MRPV NIL=
200602031000 METAR MRPV NIL=
200602031100 METAR MRPV NIL=
200602031200 METAR MRPV 031200Z 11005KT 9999 SCT040 SCT100 19/17 A2994 RMK VIS NW 8000 ST LOW=
200602031300 METAR MRPV 031300Z 04003KT 9999 BKN035 SCT100 20/17 A2996=
200602031400 METAR MRPV 031400Z 10005KT 9999 FEW035 SCT110 BKN230 22/18 A2997=
200602031500 METAR MRPV 031500Z 13005KT 9999 FEW035 BKN230 24/17 A2999=
200602031600 METAR MRPV 031600Z 13006KT 9999 FEW035 SCT120 BKN250 26/17 A2999=
200602031700 METAR MRPV 031700Z 14005KT 9999 FEW035 BKN250 27/16 A2997=
200602031800 METAR MRPV 031800Z 25006KT 9999 FEW020 BKN035 25/18 A2995 HZ ARND=
200602031900 METAR MRPV 031900Z 26010KT 9999 FEW020TCU SCT035 SCT130 25/19 A2993 8000 N DUE ARND=
200602032000 METAR MRPV 032000Z 28015KT 9999 FEW015TCU SCT030 SCT120 23/20 A2990 6000 N DUE RN ST=
200602032100 METAR MRPV 032100Z 28013KT 9999 4000NE -DZ FEW008 SCT025 BKN110 21/19 A2991 RERA=
200602032200 METAR MRPV 032200Z 28011KT 4000 -DZ BR FEW001 SCT008 BKN120 20/18 A2992=
200602032300 METAR MRPV 032300Z 30003KT 4000 RA BR FEW001 SCT008 BKN120 20/19 A2993=
200602032325 METAR MRPV 032325Z 27004KT 3500 RA BR SCT001 BKN010 20/18 A2995=
200602040000 METAR MRPV NIL=
200602040100 METAR MRPV NIL=
200602040200 METAR MRPV NIL=
200602040300 METAR MRPV NIL=
200602040400 METAR MRPV NIL=
200602040500 METAR MRPV NIL=
200602040600 METAR MRPV NIL=
200602040700 METAR MRPV NIL=
200602040800 METAR MRPV NIL=
200602040900 METAR MRPV NIL=
200602041000 METAR MRPV NIL=
200602041100 METAR MRPV NIL=
200602041200 METAR MRPV NIL=
200602041300 METAR MRPV 041300Z 00000KT 9999 FEW025 BKN120 20/19 A3001=
200602041400 METAR MRPV 041400Z 09004KT 9999 FEW025 BKN120 21/19 A3002=
200602041500 METAR MRPV 041500Z 10005KT 9999 FEW025 BKN120 23/19 A3003=
200602041600 METAR MRPV 041600Z 28008KT 9999 FEW020 BKN120 24/20 A3003=
200602041700 METAR MRPV 041700Z 28008KT 9999 FEW015 BKN100 23/20 A3002 HZ W=
200602041800 METAR MRPV 041800Z 29008KT 8000 BR FEW015 BKN100 23/19 A3000=
200602041900 METAR MRPV 041900Z 29004KT 9999 FEW015 BKN100 25/19 A2997=
200602042000 METAR MRPV 042000Z VRB03KT 5000 2000E RA SCT008 BKN015 22/19 A2995 TS/S=
200602042100 METAR MRPV 042100Z 13006KT 6000 RA SCT015 BKN080 21/19 A2994 RMK VSBY E 4KM=
200602042200 METAR MRPV 042200Z VRB03KT 8000 -RA FEW010 OVC080 29/19 A2995=
200602042300 METAR MRPV 042300Z VRB03KT 5000 -DZ FEW008 BKN015 20/19 A2996 VSBY W 3KM=
200602050000 METAR MRPV NIL=
200602050100 METAR MRPV NIL=
200602050200 METAR MRPV NIL=
200602050300 METAR MRPV NIL=
200602050400 METAR MRPV NIL=
200602050500 METAR MRPV NIL=
200602050600 METAR MRPV NIL=
200602050700 METAR MRPV NIL=
200602050800 METAR MRPV NIL=
200602050900 METAR MRPV NIL=
200602051000 METAR MRPV NIL=
200602051100 METAR MRPV NIL=
200602051200 METAR MRPV NIL=
200602051300 METAR MRPV 051300Z 10012KT CAVOK 21/15 A3004=
200602051400 METAR MRPV 051400Z 10010G20KT CAVOK 23/16 A3006=
200602051600 METAR MRPV 051600Z 07012G22KT 9999 SCT030 24/16 A3008=
200602051700 METAR MRPV 051700Z 08018G28KT 9999 SCT030 24/16 A3004=
200602051800 METAR MRPV 051800Z 08015G25KT 9999 FEW030 25/15 A3003=
200602051900 METAR MRPV 051900Z 03015G25KT 9999 SCT030 24/15 A3002=
200602052000 METAR MRPV 052000Z 07016/26KT 9999 FEW030 SCT120 25/14 A2999=
200602052200 METAR MRPV 052200Z 06017KT 9999 SCT035 24/15 A2997=
200602052300 METAR MRPV 052300Z 06013KT 9999 SCT035 23/16 A2999=
200602060000 METAR MRPV NIL=
200602060100 METAR MRPV NIL=
200602060200 METAR MRPV NIL=
200602060300 METAR MRPV NIL=
200602060400 METAR MRPV NIL=
200602060500 METAR MRPV NIL=
200602060600 METAR MRPV NIL=
200602060700 METAR MRPV NIL=
200602060800 METAR MRPV NIL=
200602060900 METAR MRPV NIL=
200602061000 METAR MRPV NIL=
200602061100 METAR MRPV NIL=
200602061200 METAR MRPV NIL=
200602061300 METAR MRPV 061300Z 14010KT 9999 BKN030 21/16 A3002=
200602061400 METAR MRPV 061400Z 13010KT 9999 BKN030 21/17 A3003=
200602061500 METAR MRPV 061500Z 10010G20KT 9999 BKN030 22/17 A3005 RMK RN N=
200602061600 METAR MRPV 061600Z 09010G20KT 9999 BKN030 23/17 A3005RMK RN E SE S N=
200602061700 METAR MRPV 061700Z 10010G20KT 9999 BKN030 24/17 A3004 RMK RN N=
200602061800 METAR MRPV 061800Z 09010G20KT 9999 BKN030 24/17 A3002=
200602061900 METAR MRPV 061900Z 09010G20KT 9999 SCT030 25/18 A3000=
200602062000 METAR MRPV 062000Z 08010G20KT 9999 SCT030 25/18 A2998=
200602062100 METAR MRPV 062100Z 09010G20KT 9999 BKN030 24/17 A2997=
200602062200 METAR MRPV 062200Z 09010G20KT 9999 FEW030 SCT100 23/17 A2997=
200602062300 METAR MRPV 062300Z 08010G20KT 9999 SCT030 23/17 A2997=
200602070000 METAR MRPV NIL=
200602070100 METAR MRPV NIL=
200602070200 METAR MRPV NIL=
200602070300 METAR MRPV NIL=
200602070400 METAR MRPV NIL=
200602070500 METAR MRPV NIL=
200602070600 METAR MRPV NIL=
200602070700 METAR MRPV NIL=
200602070800 METAR MRPV NIL=
200602070900 METAR MRPV NIL=
200602071000 METAR MRPV NIL=
200602071100 METAR MRPV NIL=
200602071200 METAR MRPV 071200Z 08018KT 9999 FEW025 18/11 A3001=
200602071300 METAR MRPV 071300Z 08016KT CAVOK 19/12 A3003 RMK RFGS 23KTS=
200602071400 METAR MRPV 071400Z 09018KT CAVOK 20/12 A3006=
200602071500 METAR MRPV 071500Z 10018KT CAVOK 21/13 A3006 RMK RFGS 24KT=
200602071600 METAR MRPV 071600Z 08017KT CAVOK 23/13 A3006=
200602071700 METAR MRPV 071700Z 08015KT CAVOK 25/13 A3005=
200602071800 METAR MRPV 071800Z 08013KT CAVOK 25/13 A3003=
200602071900 METAR MRPV 071900Z 07014KT CAVOK 26/13 A2999=
200602072000 METAR MRPV 072000Z 06012KT 9999 FEW045 26/13 A2996=
200602072100 METAR MRPV 072100Z 07014KT 9999 FEW045 26/14 A2996=
200602072200 METAR MRPV 072200Z 07012KT 9999 FEW035 SCT230 26/14 A2996=
200602072300 METAR MRPV 072300Z 07011KT 9999 FEW035 SCT250 25/14 A2997=
200602080000 METAR MRPV NIL=
200602080100 METAR MRPV NIL=
200602080200 METAR MRPV NIL=
200602080300 METAR MRPV NIL=
200602080400 METAR MRPV NIL=
200602080500 METAR MRPV NIL=
200602080600 METAR MRPV NIL=
200602080700 METAR MRPV NIL=
200602080800 METAR MRPV NIL=
200602080900 METAR MRPV NIL=
200602081000 METAR MRPV NIL=
200602081100 METAR MRPV NIL=
200602081200 METAR MRPV 081200Z 10020KT CAVOK 20/11 A3000=
200602081300 METAR MRPV 081300Z 12014KT CAVOK 20/10 A3001=
200602081400 METAR MRPV 081400Z 11016KT CAVOK 22/09 A3002=
200602081500 METAR MRPV 081500Z 08017KT CAVOK 23/12 A3003=
200602081600 METAR MRPV 081600Z 07020KT CAVOK 23/14 A3003=
200602081700 METAR MRPV 081700Z 07020KT 9999 FEW045 24/15 A3002=
200602081800 METAR MRPV 081800Z 07020KT 9999 FEW035 23/15 A3000 DZ N NE=
200602081900 METAR MRPV 081900Z 06020KT 9999 SCT035 23/15 A2998 DZ N NE=
200602082000 METAR MRPV 082000Z 07020KT 9999 FEW035 23/15 A2996=
200602082100 METAR MRPV 082100Z 07018KT 9999 SCT035 23/15 A2995=
200602082200 METAR MRPV 082200Z 07018KT 9999 SCT030 23/15 A2995=
200602082300 METAR MRPV 082300Z 07018KT 9999 FEW030 22/14 A2996 DZ N NE DST=
200602090000 METAR MRPV NIL=
200602090100 METAR MRPV NIL=
200602090200 METAR MRPV NIL=
200602090300 METAR MRPV NIL=
200602090400 METAR MRPV NIL=
200602090500 METAR MRPV NIL=
200602090600 METAR MRPV NIL=
200602090700 METAR MRPV NIL=
200602090800 METAR MRPV NIL=
200602090900 METAR MRPV NIL=
200602091000 METAR MRPV NIL=
200602091100 METAR MRPV NIL=
200602091200 METAR MRPV NIL=
200602091300 METAR MRPV 091300Z 09020KT CAVOK 20/10 A3007=
200602091500 METAR MRPV 091500Z 09018G28KT CAVOK 23/08 A3009=
200602091600 METAR MRPV 091600Z 07020G30KT CAVOK 24/08 A3010=
200602091700 METAR MRPV 091700Z 06022G32KT CAVOK 25/10 A3008=
200602091800 METAR MRPV 091800Z 06018G28KT CAVOK 25/10 A3005=
200602091900 METAR MRPV 091900Z 06021G31KT CAVOK 25/11 A3004=
200602092000 METAR MRPV 092000Z 07020KT CAVOK 25/12 A3002 RMK GST 27KT=
200602092100 METAR MRPV 092100Z 06022KT CAVOK 25/10 A2999 RMK G 27KT=
200602092200 METAR MRPV 092200Z 06021G31KT CAVOK 24/10 A300=
200602092300 METAR MRPV 092300Z 06020KT CAVOK 22/13 A3001=
200602100000 METAR MRPV NIL=
200602100100 METAR MRPV NIL=
200602100200 METAR MRPV NIL=
200602100300 METAR MRPV NIL=
200602100400 METAR MRPV NIL=
200602100500 METAR MRPV NIL=
200602100600 METAR MRPV NIL=
200602100700 METAR MRPV NIL=
200602100800 METAR MRPV NIL=
200602100900 METAR MRPV NIL=
200602101000 METAR MRPV NIL=
200602101100 METAR MRPV NIL=
200602101200 METAR MRPV NIL=
200602101300 METAR MRPV 101300Z 12010G20KT 9999 SKC 20/13 A3007=
200602101400 METAR MRPV 101400Z 10012G22KT 9999 SKC 22/12 A3009=
200602101500 METAR MRPV 101500Z 09012G24KT 9999 SKC 24/12 A3009=
200602101600 METAR MRPV 101600Z 09012G24KT 9999 SKC 25/11 A3009=
200602101700 METAR MRPV 101700Z 08012G22KT 9999 SKC 26/13 A3007=
200602101800 METAR MRPV 101800Z 08012G22KT 9999 SKC 26/12 A3004=
200602101900 METAR MRPV 101900Z 07012G24KT 9999 FEW030 26/12 A3002=
200602102000 METAR MRPV 102000Z 08012/24KT 9999 FEW030 26/12 A3000=
200602102100 METAR MRPV 102100Z 07012G22KT 9999 FEW030 28/12 A2998=
200602102200 METAR MRPV 102200Z 07010G20KT 9999 FEW030 25/11 A2997=
200602102300 METAR MRPV 102300Z 07010G20KT 9999 FEW035 24/12 A3000=
200602110000 METAR MRPV NIL=
200602110100 METAR MRPV NIL=
200602110200 METAR MRPV NIL=
200602110300 METAR MRPV NIL=
200602110400 METAR MRPV NIL=
200602110500 METAR MRPV NIL=
200602110600 METAR MRPV NIL=
200602110700 METAR MRPV NIL=
200602110800 METAR MRPV NIL=
200602110900 METAR MRPV NIL=
200602111000 METAR MRPV NIL=
200602111100 METAR MRPV NIL=
200602111200 METAR MRPV 111200Z 13012KT 9999 SKC 22/10 A3007=
200602111300 METAR MRPV 111300Z 14012KT 9999 SKC 19/10 A3005=
200602111500 METAR MRPV 111500Z 12014KT 9999 SKC 23/11 A3008=
200602111800 METAR MRPV 111800Z 09010KT 9999 SKC 27/13 A3003=
200602112000 METAR MRPV 112000Z 08012KT 9999 FEW035 27/13 A2999=
200602112100 METAR MRPV 112100Z 08012KT 9999 SCT035 26/13 A2998=
200602112200 METAR MRPV 112200Z 09012KT 9999 SCT035 26/13 A2998=
200602112300 METAR MRPV 112300Z 08012KT 9999 SCT035 23/15 A2999=
200602120000 METAR MRPV NIL=
200602120100 METAR MRPV NIL=
200602120200 METAR MRPV NIL=
200602120300 METAR MRPV NIL=
200602120400 METAR MRPV NIL=
200602120500 METAR MRPV NIL=
200602120600 METAR MRPV NIL=
200602120700 METAR MRPV NIL=
200602120800 METAR MRPV NIL=
200602120900 METAR MRPV NIL=
200602121000 METAR MRPV NIL=
200602121100 METAR MRPV NIL=
200602121200 METAR MRPV NIL=
200602121300 METAR MRPV 121300Z 11010G20KT 9999 FEW035 19/11 A3006=
200602121400 METAR MRPV 121400Z 13012G22KT 9999 FEW035 21/13 A3008=
200602121500 METAR MRPV 121500Z 09012G22KT 9999 FEW035 23/14 A3010=
200602121600 METAR MRPV 121600Z 09015G25KT 9999 FEW035 24/14 A3010=
200602121700 METAR MRPV 121700Z 08015G25KT 9999 FEW035 25/14 A3008=
200602121800 METAR MRPV 121800Z 08015G25KT 9999 FEW035 26/13 A3003=
200602121900 METAR MRPV 121900Z 09015G25KT 9999 FEW035 27/13 A3002=
200602122000 METAR MRPV 122000Z 09015G25KT 9999 FEW035 26/13 A3001=
200602122100 METAR MRPV 122100Z 08015G25KT 9999 FEW035 26/13 A3000=
200602122200 METAR MRPV 122200Z 09015G25KT 9999 FEW035 24/13 A3000=
200602122300 METAR MRPV 122300Z 07010G20KT 9999 FEW035 23/15 A3002=
200602130000 METAR MRPV NIL=
200602130100 METAR MRPV NIL=
200602130200 METAR MRPV NIL=
200602130300 METAR MRPV NIL=
200602130400 METAR MRPV NIL=
200602130500 METAR MRPV NIL=
200602130600 METAR MRPV NIL=
200602130700 METAR MRPV NIL=
200602130800 METAR MRPV NIL=
200602130900 METAR MRPV NIL=
200602131000 METAR MRPV NIL=
200602131100 METAR MRPV NIL=
200602131200 METAR MRPV 131200Z 09020KT 9999 SCT035 SCT270 19/14 A3008=
200602131300 METAR MRPV 131300Z 09020KT 9999 SCT035 SCT270 20/14 A3009=
200602131400 METAR MRPV 131400Z 10020KT 9999 SCT035 SCT270 20/15 A3012 DZ N NE=
200602131500 METAR MRPV 131500Z 09017G27KT 9999 SCT035 BKN270 21/14 A3014=
200602131600 METAR MRPV 131600Z 10016G26KT 9999 FEW040 SCT270 22/15 A3014=
200602131700 METAR MRPV 131700Z 08020G30KT 9999 FEW040 BKN270 23/15 A3012=
200602131800 METAR MRPV 131800Z 09022G32KT 9999 FEW035 BKN270 24/15 A3010 DZ NE=
200602131900 METAR MRPV 131900Z 08026KT 9999 FEW040 BKN270 23/15 A3007 DZ N NE=
200602132000 METAR MRPV 132000Z 09023G33KT 9999 FEW040 BKN300 23/16 A3005 DZ DST N NE=
200602132100 METAR MRPV 132100Z 09020G30KT 9999 FEW040 BKN300 23/16 A3002=
200602132200 METAR MRPV 132200Z 11020G30KT 9999 FEW040 BKN300 23/16 A3003 RMK DZ DST N/NE=
200602132300 METAR MRPV 132300Z 11020G30KT 9999 FEW030 SCT300 22/16 A3003 RMK N/NE/E DST=
200602140000 METAR MRPV NIL=
200602140100 METAR MRPV NIL=
200602140200 METAR MRPV NIL=
200602140300 METAR MRPV NIL=
200602140400 METAR MRPV NIL=
200602140500 METAR MRPV NIL=
200602140600 METAR MRPV NIL=
200602140700 METAR MRPV NIL=
200602140800 METAR MRPV NIL=
200602140900 METAR MRPV NIL=
200602141000 METAR MRPV NIL=
200602141100 METAR MRPV NIL=
200602141200 METAR MRPV 141200Z 12017G27KT 9999 FEW020 BKN270 18/13 A3005 RMK DZ DST N/NE/E=
200602141300 METAR MRPV 141300Z 12020KT 9999 FEW025 SCT270 18/14 A3007 RMK DZ N/NE DST=
200602141400 METAR MRPV 141400Z 11021G32KT 9999 FEW030 19/14 A3009 RMK DZ DST N/NE=
200602141500 METAR MRPV 141500Z 10021G31KT 9999 FEW030 21/15 A3009 RMK DZ N/NE DST=
200602141600 METAR MRPV 141600Z 10018G28KT 9999 FEW030 23/15 A3011 RMK DZ N/NE=
200602141700 METAR MRPV 141700Z 09024G34KT 9999 FEW030 23/15 A3009 RMK DZ N/NE DST=
200602141800 METAR MRPV 141800Z 09025G35KT 9999 FEW030 SCT300 24/15 A3006 RMK DZ N/NE DST=
200602141900 METAR MRPV 141900Z 10023G33KT 9999 FEW030 SCT300 24/15 A3003=
200602142000 METAR MRPV 142000Z 09022G32KT 9999 SCT030 22/15 A3000 RMK DZ DST N/NE OVER RDGS=
200602142100 METAR MRPV 142100Z 08020G30KT 9999 FEW030 23/15 A2998=
200602142200 METAR MRPV 142200Z 09018G28KT 9999 FEW030 22/15 A2998=
200602142300 METAR MRPV 142300Z 08016G26KT 9999 FEW030 22/15 A2998=
200602150000 METAR MRPV NIL=
200602150100 METAR MRPV NIL=
200602150200 METAR MRPV NIL=
200602150300 METAR MRPV NIL=
200602150400 METAR MRPV NIL=
200602150500 METAR MRPV NIL=
200602150600 METAR MRPV NIL=
200602150700 METAR MRPV NIL=
200602150800 METAR MRPV NIL=
200602150900 METAR MRPV NIL=
200602151000 METAR MRPV NIL=
200602151100 METAR MRPV NIL=
200602151200 METAR MRPV 151200Z 09018KT 9999 FEW030 BKN270 19/16 A3000=
200602151300 METAR MRPV 151300Z 10016KT 9999 FEW030 BKN300 20/16 A3002=
200602151400 METAR MRPV 151400Z 11016KT 9999 FEW030 SCT300 21/16 A3005=
200602151600 METAR MRPV 151600Z 08018KT 9999 SCT035 22/18 A3006=
200602151700 METAR MRPV 151700Z 09018KT 9999 SCT035 22/16 A3006 RMK RAFAGAS 25KT DZ N NE=
200602151900 METAR MRPV 151900Z 09020KT 9999 BKN035 24/13 A3001=
200602152000 METAR MRPV 152000Z 08020G30KT 9999 FEW045 24/14 A2998=
200602152100 METAR MRPV 152100Z 08018G28KT CAVOK 25/14 A2995=
200602152200 METAR MRPV 152200Z 07019KT CAVOK 24/14 A2995=
200602152300 METAR MRPV 152300Z 08018KT 9999 FEW040 SCT300 23/14 A2996=
200602160000 METAR MRPV NIL=
200602160100 METAR MRPV NIL=
200602160200 METAR MRPV NIL=
200602160300 METAR MRPV NIL=
200602160400 METAR MRPV NIL=
200602160500 METAR MRPV NIL=
200602160600 METAR MRPV NIL=
200602160700 METAR MRPV NIL=
200602160800 METAR MRPV NIL=
200602160900 METAR MRPV NIL=
200602161000 METAR MRPV NIL=
200602161100 METAR MRPV NIL=
200602161200 METAR MRPV 161200Z 10010G20KT 9999 FEW025 19/15 A3001=
200602161300 METAR MRPV 161300Z 09010G20KT 9999 FEW025 20/14 A3001=
200602161400 METAR MRPV 161400Z 09012G22KT 9999 FEW030 22/13 A3002=
200602161500 METAR MRPV 161500Z 08012G22KT 9999 FEW030 24/13 A3003=
200602161600 METAR MRPV 161600Z 09012G22KT 9999 FEW030 24/15 A3003=
200602161700 METAR MRPV 161700Z 08015G25KT 9999 FEW035 24/15 A3001=
200602161800 METAR MRPV 161800Z 07015G25KT 9999 FEW035 24/16 A2999=
200602161900 METAR MRPV 161900Z 07012G24KT 9999 FEW035 25/15 A2997=
200602162000 METAR MRPV 162000Z 07015G25KT 9999 FEW035 24/16 A2997=
200602162100 METAR MRPV 162100Z 08012G22KT 9999 FEW035 24/16 A2995=
200602162200 METAR MRPV 162200Z 08012G24KT 9999 FEW035 23/16 A2995=
200602162300 METAR MRPV 162300Z 08012G24KT 9999 SCT030 22/16 A2996=
200602170000 METAR MRPV NIL=
200602170100 METAR MRPV NIL=
200602170200 METAR MRPV NIL=
200602170300 METAR MRPV NIL=
200602170400 METAR MRPV NIL=
200602170500 METAR MRPV NIL=
200602170600 METAR MRPV NIL=
200602170700 METAR MRPV NIL=
200602170800 METAR MRPV NIL=
200602170900 METAR MRPV NIL=
200602171000 METAR MRPV NIL=
200602171100 METAR MRPV NIL=
200602171200 METAR MRPV NIL=
200602171300 METAR MRPV 171300Z 09016G28KT 9999 FEW025 19/14 A3004=
200602171400 METAR MRPV 171400Z 09016G26KT 9999 FEW030 22/13 A3005 PCPN N NE=
200602171500 METAR MRPV 171500Z 08014G24KT 9999 FEW035 23/15 A3006 RMK PCPN DST NNE=
200602171600 METAR MRPV 171600Z 09015G28KT 9999 FEW035 23/16 A3006 RMK DZ DST N NE=
200602171700 METAR MRPV 171700Z 09020G30KT 9999 SCT030 23/15 A3005 RMK PCPN NNE=
200602171800 METAR MRPV 171800Z 09015G25KT 9999 SCT035 25/15 A3003 RMK PCPN DST NE=
200602171900 METAR MRPV 171900Z 08015G25KT 9999 FEW035 25/15 A3000=
200602172000 METAR MRPV 172000Z 09015G25KT 9999 FEW035 25/15 A2998=
200602172100 METAR MRPV 172100Z 09015G25KT 9999 FEW035 25/16 A2996=
200602172200 METAR MRPV 172200Z 09014G27KT 9999 FEW035 23/16 A2996=
200602172300 METAR MRPV 172300Z 08016G27KT 9999 FEW030 21/15 A2997=
200602180000 METAR MRPV NIL=
200602180100 METAR MRPV NIL=
200602180200 METAR MRPV NIL=
200602180300 METAR MRPV NIL=
200602180400 METAR MRPV NIL=
200602180500 METAR MRPV NIL=
200602180600 METAR MRPV NIL=
200602180700 METAR MRPV NIL=
200602180800 METAR MRPV NIL=
200602180900 METAR MRPV NIL=
200602181000 METAR MRPV NIL=
200602181100 METAR MRPV NIL=
200602181200 METAR MRPV 181200Z 11010G20KT 9999 FEW020 19/15 A3003 RMK RN E NE=
200602181300 METAR MRPV 181300Z 09015G25KT 9999 FEW025 20/15 A3005=
200602181400 METAR MRPV 181400Z 09015G26KT 9999 SCT020 20/15 A3007=
200602181500 METAR MRPV 181500Z 08017KT 9999 SCT020 21/15 A3008=
200602181600 METAR MRPV 181600Z 08020G30KT 9999 SCT025 22/15 A3009=
200602181700 METAR MRPV 181700Z 09020G30KT 9999 SCT025 23/14 A3008 RN N NE=
200602181800 METAR MRPV 181800Z 09017G27KT 9999 SCT030 23/14 A3005=
200602181900 METAR MRPV 181900Z 09018G28KT 9999 SCT030 24/14 A3002=
200602182100 METAR MRPV 182100Z 09010G20KT 9999 SCT030 23/14 A2999=
200602182200 METAR MRPV 182200Z 09010G20KT 9999 SCT030 22/14 A2998=
200602182300 METAR MRPV 182300Z 10010G20KT 9999 SCT030 22/15 A2999=
200602190000 METAR MRPV NIL=
200602190100 METAR MRPV NIL=
200602190200 METAR MRPV NIL=
200602190300 METAR MRPV NIL=
200602190400 METAR MRPV NIL=
200602190500 METAR MRPV NIL=
200602190600 METAR MRPV NIL=
200602190700 METAR MRPV NIL=
200602190800 METAR MRPV NIL=
200602190900 METAR MRPV NIL=
200602191000 METAR MRPV NIL=
200602191100 METAR MRPV NIL=
200602191200 METAR MRPV NIL=
200602191300 METAR MRPV 191300Z 11016G27KT 9999 FEW035 20/12 A3007=
200602191400 METAR MRPV 191400Z 11015G25KT 9999 FEW035 20/13 A3008=
200602191500 METAR MRPV 191500Z 11014G25KT 9999 FEW035 22/13 A3010=
200602191600 METAR MRPV 191600Z 09020G30KT 9999 FEW035 23/13 A3010=
200602191700 METAR MRPV 191700Z 07015G28KT 9999 FEW035 24/11 A3008=
200602191800 METAR MRPV 191800Z 07020G30KT 9999 FEW035 24/12 A3006=
200602191900 METAR MRPV 191900Z 06020G30KT 9999 FEW035 24/12 A3003=
200602192000 METAR MRPV 192000Z 07020G30KT 9999 FEW035 24/12 A3000=
200602192100 METAR MRPV 192100Z 07020G30KT 9999 FEW035 24/12 A2999=
200602192200 METAR MRPV 192200Z 07020G30KT 9999 FEW035 23/13 A2998=
200602192300 METAR MRPV 192300Z 07016G26KT 9999 FEW035 21/13 A2998=
200602200000 METAR MRPV NIL=
200602200100 METAR MRPV NIL=
200602200200 METAR MRPV NIL=
200602200300 METAR MRPV NIL=
200602200400 METAR MRPV NIL=
200602200500 METAR MRPV NIL=
200602200600 METAR MRPV NIL=
200602200700 METAR MRPV NIL=
200602200800 METAR MRPV NIL=
200602200900 METAR MRPV NIL=
200602201000 METAR MRPV NIL=
200602201100 METAR MRPV NIL=
200602201200 METAR MRPV 201200Z 10016KT CAVOK 19/09 A3002=
200602201300 METAR MRPV 201300Z 11015KT CAVOK 19/10 A3005=
200602201400 METAR MRPV 201400Z 10018G28KT CAVOK 20/11 A3007=
200602201500 METAR MRPV 201500Z 08018KT CAVOK 23/19 A3007=
200602201600 METAR MRPV 201600Z 07018G28KT CAVOK 23/12 A3007=
200602201700 METAR MRPV 201700Z 07015KT CAVOK 24/13 A3006=
200602201800 METAR MRPV 201800Z 06022KT CAVOK 23/13 A3004=
200602201900 METAR MRPV 201900Z 07018G28KT 9999 FEW045 24/14 A3001=
200602202000 METAR MRPV 202000Z 07020G30T 9999 FEW045 25/12 A2999=
200602202100 METAR MRPV 202100Z 08019KT 9999 FEW045 24/13 A2997=
200602202200 METAR MRPV 202200Z 07016G26KT 9999 FEW045 24/11 A2997=
200602202300 METAR MRPV 202300Z 09018KT CAVOK 23/12 A2998=
200602210000 METAR MRPV NIL=
200602210100 METAR MRPV NIL=
200602210200 METAR MRPV NIL=
200602210300 METAR MRPV NIL=
200602210400 METAR MRPV NIL=
200602210500 METAR MRPV NIL=
200602210600 METAR MRPV NIL=
200602210700 METAR MRPV NIL=
200602210800 METAR MRPV NIL=
200602210900 METAR MRPV NIL=
200602211000 METAR MRPV NIL=
200602211100 METAR MRPV NIL=
200602211200 METAR MRPV 211200Z 13010KT CAVOK 18/13 A3004=
200602211300 METAR MRPV 211300Z 12011KT CAVOK 19/13 A3005=
200602211400 METAR MRPV 211400Z 10015G25KT CAVOK 21/13 A3005=
200602211500 METAR MRPV 211500Z 08020KT CAVOK 22/14 A3005=
200602211600 METAR MRPV 211600Z 07020G30KT CAVOK 23/15 A3005=
200602211700 METAR MRPV 211700Z 07022G32KT 9999 FEW035 BKN300 23/15 A3004=
200602211800 METAR MRPV 211800Z 08020G30KT 9999 FEW035 BKN300 23/15 A3002=
200602211900 METAR MRPV 211900Z 08020G30KT 9999 BKN030 SCT300 21/14 A3001=
200602212000 METAR MRPV 21200Z 06018KT 9999 SCT030 SCT130 22/14 A2999 RMK DZ NE=
200602212100 METAR MRPV NIL=
200602212200 METAR MRPV NIL=
200602212300 METAR MRPV NIL=
200602220000 METAR MRPV NIL=
200602220100 METAR MRPV NIL=
200602220200 METAR MRPV NIL=
200602220300 METAR MRPV NIL=
200602220400 METAR MRPV NIL=
200602220500 METAR MRPV NIL=
200602220600 METAR MRPV NIL=
200602220700 METAR MRPV NIL=
200602220800 METAR MRPV NIL=
200602220900 METAR MRPV NIL=
200602221000 METAR MRPV NIL=
200602221100 METAR MRPV NIL=
200602221200 METAR MRPV 221200Z 11010KT 9999 SCT035 SCT300 18/11 A2999=
200602221300 METAR MRPV 221300Z 11012KT 9999 BKN035 18/12 A3000 RMK DZ DST N NE E=
200602221400 METAR MRPV 221400Z 09013KT 9999 FEW040 SCT300 22/15 A3002 REDZ RMK DZ DST NE=
200602221500 METAR MRPV 221500Z 09016KT 9999 FEW040 SCT300 23/15 A3003 DZ N NE RFGS 23KT=
200602221600 METAR MRPV 221600Z 07017KT 9999 FEW040 23/15 A3004=
200602221700 METAR MRPV 221700Z 08018KT 9999 FEW045 25/15 A3002=
200602221800 METAR MRPV 221800Z 07017KT 9999 FEW045 25/14 A3000=
200602221900 METAR MRPV 221900Z 07016KT 9999 FEW045 26/14 A2997=
200602222000 METAR MRPV 222000Z 08018KT 9999 FEW045 27/14 A2994=
200602222100 METAR MRPV 222100Z 06015KT 9999 FEW040 25/14 A2993=
200602222200 METAR MRPV 222200Z 07016KT 9999 FEW045 24/14 A2993=
200602222300 METAR MRPV 222300Z 08016KT 9999 FEW045 24/14 A2994=
200602230000 METAR MRPV NIL=
200602230100 METAR MRPV NIL=
200602230200 METAR MRPV NIL=
200602230300 METAR MRPV NIL=
200602230400 METAR MRPV NIL=
200602230500 METAR MRPV NIL=
200602230600 METAR MRPV NIL=
200602230700 METAR MRPV NIL=
200602230800 METAR MRPV NIL=
200602230900 METAR MRPV NIL=
200602231000 METAR MRPV NIL=
200602231100 METAR MRPV NIL=
200602231200 METAR MRPV 231200Z 10015G26KT 9999 FEW025 20/14 A2999=
200602231300 METAR MRPV 231300Z 11012G24KT 9999 FEW025 20/14 A3000=
200602231400 METAR MRPV 231400Z 09015G25KT 9999 FEW025 22/15 A3002=
200602231500 METAR MRPV 231500Z 09015G25KT 9999 FEW030 23/15 A3004=
200602231600 METAR MRPV 231600Z 09015G25KT 9999 FEW030 24/15 A3003=
200602231700 METAR MRPV 231700Z 08015G25KT 9999 FEW030 26/15 A3001=
200602231800 METAR MRPV 231800Z 08010G20KT 9999 FEW030 26/15 A2998=
200602231900 METAR MRPV 231900Z 09012G22KT 9999 FEW030 28/15 A2992=
200602232000 METAR MRPV 232000Z 06012G22KT 9999 FEW030 26/16 A2994=
200602232100 METAR MRPV 232100Z 09012G24KT 9999 FEW030 26/16 A2991=
200602232300 METAR MRPV 232300Z 10010G20KT 9999 FEW030 22/15 A2993=
200602240000 METAR MRPV NIL=
200602240100 METAR MRPV NIL=
200602240200 METAR MRPV NIL=
200602240300 METAR MRPV NIL=
200602240400 METAR MRPV NIL=
200602240500 METAR MRPV NIL=
200602240600 METAR MRPV NIL=
200602240700 METAR MRPV NIL=
200602240800 METAR MRPV NIL=
200602240900 METAR MRPV NIL=
200602241000 METAR MRPV NIL=
200602241100 METAR MRPV NIL=
200602241200 METAR MRPV 241225 12015KT 9999 BKN030 20/16 A3000=
200602241225 METAR MRPV 241225Z 12015KT 9999 BKN030 20/16 A3000=
200602241300 METAR MRPV 241300Z 11010G20KT 9999 BKN030 21/16 A3002=
200602241400 METAR MRPV 241400Z 12010G22KT 9999 BKN030 22/16 A3003=
200602241500 METAR MRPV 241500Z 10010G20KT 9999 BKN030=
200602241600 METAR MRPV 241600Z 09010G20KT 9999 BKN030 23/17 A3006=
200602241700 METAR MRPV 241700Z 07012G24KT 9999 BKN030 24/17 A3005=
200602241900 METAR MRPV 241900Z 09015G25KT 9999 SCT030 BKN100 24/17 A3000=
200602242000 METAR MRPV 242000Z 09015G25KT 9999 SCT030 BKN100 23/17 A2997=
200602242100 METAR MRPV 242100Z 08015G25KT 9999 SCT030 BKN100 23/17 A2995=
200602242200 METAR MRPV 242200Z 09015/26KT 9999 SCT030 BKN100 21/16 A2985=
200602242300 METAR MRPV 242300Z 09010G20KT 9999 SCT025 SCT100 20/15 A2996=
200602250000 METAR MRPV NIL=
200602250100 METAR MRPV NIL=
200602250200 METAR MRPV NIL=
200602250300 METAR MRPV NIL=
200602250400 METAR MRPV NIL=
200602250500 METAR MRPV NIL=
200602250600 METAR MRPV NIL=
200602250700 METAR MRPV NIL=
200602250800 METAR MRPV NIL=
200602250900 METAR MRPV NIL=
200602251000 METAR MRPV NIL=
200602251100 METAR MRPV NIL=
200602251200 METAR MRPV 251200Z 12014KT CAVOK 18/13 A3000=
200602251300 METAR MRPV 251300Z 11018KT CAVOK 20/13 A3003=
200602251400 METAR MRPV 251400Z 09018G28KT CAVOK 21/14 A3004=
200602251500 METAR MRPV 251500Z 08020KT CAVOK 22/15 A3005=
200602251600 METAR MRPV 251600Z 08020G30KT CAVOK 23/16 A3009=
200602251700 METAR MRPV 251700Z 07021G32KT 9999 FEW030 24/15 A3003=
200602251800 METAR MRPV 251800Z 07020G30KT 9999 SCT025 20/14 A3003=
200602251900 METAR MRPV 251900Z 07020G30KT 9999 SCT030 21/14 A3001=
200602252000 METAR MRPV 252000Z 07016G26KT 9999 SCT035 22/13 A2998=
200602252100 METAR MRPV 252100Z 07018KT 9999 SCT035 23/13 A2996 RMK DZ DST NE=
200602252200 METAR MRPV 252200Z 07020KT 9999 FEW035 21/14 A2996=
200602252300 METAR MRPV 252300Z 08020KT 9999 FEW035 21/13 A2996=
200602260000 METAR MRPV NIL=
200602260100 METAR MRPV NIL=
200602260200 METAR MRPV NIL=
200602260300 METAR MRPV NIL=
200602260400 METAR MRPV NIL=
200602260500 METAR MRPV NIL=
200602260600 METAR MRPV NIL=
200602260700 METAR MRPV NIL=
200602260800 METAR MRPV NIL=
200602260900 METAR MRPV NIL=
200602261000 METAR MRPV NIL=
200602261100 METAR MRPV NIL=
200602261200 METAR MRPV 261200Z 13009KT CAVOK 16/10 A3000=
200602261300 METAR MRPV 261300Z 14010KT CAVOK 17/09 A3003=
200602261400 METAR MRPV 261400Z 13010KT 9999 SKC 22/09 A3004=
200602261500 METAR MRPV 261500Z 11012KT 9999 SKC 24/09 A3005=
200602261600 METAR MRPV 261600Z 08012KT 9999 SKC 25/10 A3005=
200602261700 METAR MRPV 261700Z 10010KT CAVOK 27/11 A3002=
200602261800 METAR MRPV 261800Z 11012KT CAVOK 28/11 A3000=
200602261900 METAR MRPV 261900Z 08014KT 9999 FEW045 27/13 A2997=
200602262000 METAR MRPV 262000Z 08016KT 9999 FEW045 27/14 A2995=
200602262100 METAR MRPV 262100Z 08015KT 9999 FEW040 SCT250 25/15 A2994 RMK CB DST S=
200602262300 METAR MRPV 262300Z 07014KT 9999 FEW040 24/15 A2997 RMK CB DST S=
200602270000 METAR MRPV NIL=
200602270100 METAR MRPV NIL=
200602270200 METAR MRPV NIL=
200602270300 METAR MRPV NIL=
200602270400 METAR MRPV NIL=
200602270500 METAR MRPV NIL=
200602270600 METAR MRPV NIL=
200602270700 METAR MRPV NIL=
200602270800 METAR MRPV NIL=
200602270900 METAR MRPV NIL=
200602271000 METAR MRPV NIL=
200602271100 METAR MRPV 271100Z 10018G28KT 9999 FEW025 SCT270 18/12 A3994 RMK DZ N NE=
200602271200 METAR MRPV 271200Z 10018G28KT 9999 FEDW025 SCT270 18/12 A3004 RMK DZ N NE=
200602271300 METAR MRPV 271300Z 10016KT 9999 FEW030 19/12 A3007 RMK DZ NE DST=
200602271400 METAR MRPV 271400Z 10015KT 9999 FEW040 21/12 A3008=
200602271500 METAR MRPV 271500Z 09022KT CAVOK 22/12 A3009 RMK FEW110 RFGS 28KT=
200602271600 METAR MRPV 271600Z 09022G32KT 9999 FEW040 SCT130 23/11 A3010=
200602271700 METAR MRPV 271700Z 08020G30KT 9999 FEW040 SCT140 23/12 A3006=
200602271800 METAR MRPV 271800Z 07020G30KT 9999 FEW040 SCT140 24/13 A3005=
200602271900 METAR MRPV 271900Z 07019KT 9999 SCT040 23/13 A3003=
200602272000 METAR MRPV 272000Z 07018G28KT 9999 FEW045 25/13 A3001=
200602272100 METAR MRPV 272100Z 06022KT 9999 FEW045 SCT150 23/13 A2999=
200602272200 METAR MRPV 272200Z 07019KT 9999 FEW045 23/13 A2999=
200602272300 METAR MRPV 272300Z 08016KT 9999 FEW045 21/13 A3000=
200602280000 METAR MRPV NIL=
200602280100 METAR MRPV NIL=
200602280200 METAR MRPV NIL=
200602280300 METAR MRPV NIL=
200602280400 METAR MRPV NIL=
200602280500 METAR MRPV NIL=
200602280600 METAR MRPV NIL=
200602280700 METAR MRPV NIL=
200602280800 METAR MRPV NIL=
200602280900 METAR MRPV NIL=
200602281000 METAR MRPV NIL=
200602281100 METAR MRPV NIL=
200602281200 METAR MRPV NIL=
200602281225 METAR MRPV 281225Z 10010G20KT 9999 FEW030 SCT090 19/13 A3002=
200602281300 METAR MRPV 281300Z 09010G20KT CAVOK 20/14 A3003=
200602281400 METAR MRPV 281400Z 08012G24KT CAVOK 22/14 A3004=
200602281500 METAR MRPV 281500Z 09012G24KT CAVOK 23/14 A3004=
200602281600 METAR MRPV 281600Z 08018G28KT CAVOK 23/14 A3005=
200602281700 METAR MRPV 281700Z 09015G25KT CAVOK 24/15 A3003=
200602281800 METAR MRPV 281800Z 08015G25KT CAVOK 25/15 A3000=
200602281900 METAR MRPV 281900Z 09016G26KT 9999 FEW035 26/15 A2998=
200602282000 METAR MRPV 282000Z 09016KT 9999 FEW035 26/15 A2996=
200602282100 METAR MRPV 282100Z 09015G25KT 9999 FEW035 24/16 A2994=
200602282200 METAR MRPV 282200Z 08012G22KT 9999 FEW035 23/16 A2994=
200602282300 METAR MRPV 282300Z 08015G25KT 9999 FEW035 21/15 A2995=
200603010000 METAR MRPV NIL=
200603010100 METAR MRPV NIL=
200603010200 METAR MRPV NIL=
200603010300 METAR MRPV NIL=
200603010400 METAR MRPV NIL=
200603010500 METAR MRPV NIL=
200603010600 METAR MRPV NIL=
200603010700 METAR MRPV NIL=
200603010800 METAR MRPV NIL=
200603010900 METAR MRPV NIL=
200603011000 METAR MRPV NIL=
200603011100 METAR MRPV NIL=
200603011200 METAR MRPV 011200Z 10014KT CAVOK 19/15 A3001=
200603011300 METAR MRPV 011300Z 13012KT CAVOK 20/15 A3003=
200603011400 METAR MRPV 011400Z 10010G20KT 9999 FEW035 21/16 A3004=
200603011500 METAR MRPV 011500Z 09010G20KT 9999 FEW035 23/14 A3004=
200603011600 METAR MRPV 011600Z 08020KT 9999 FEW035 25/16 A3003=
200603011700 METAR MRPV 011700Z 08012G22KT 9999 FEW035 26/16 A3001=
200603011800 METAR MRPV 011800Z 09015G25KT 9999 FEW035 26/16 A2999=
200603011900 METAR MRPV 011900Z 08012G24KT 9999 FEW035 27/16 A2996=
200603012000 METAR MRPV 012000Z 08012G22KT 9999 FEW035 26/16 A2994=
200603012100 METAR MRPV 012100Z 09012G22KT 9999 FEW035 26/15 A2993=
200603012200 METAR MRPV 012200Z 10010G22KT 9999 FEW035 24/16 A2992=
200603012300 METAR MRPV 012300Z 09015G25KT 9999 SCT030 22/16 A2995=
200603020000 METAR MRPV NIL=
200603020100 METAR MRPV NIL=
200603020200 METAR MRPV NIL=
200603020300 METAR MRPV NIL=
200603020400 METAR MRPV NIL=
200603020500 METAR MRPV NIL=
200603020600 METAR MRPV NIL=
200603020700 METAR MRPV NIL=
200603020800 METAR MRPV NIL=
200603020900 METAR MRPV NIL=
200603021000 METAR MRPV NIL=
200603021100 METAR MRPV NIL=
200603021200 METAR MRPV 021200Z NIL=
200603021300 METAR MRPV 021300Z 10010G20KT 9999 SCT020 21/16 A3004=
200603021400 METAR MRPV 021400Z 0901020KT 9999 SCT020 21/16 A3006=
200603021500 METAR MRPV 021500Z 10010G20KT 9999 SCT020 22/16 A3007=
200603021600 METAR MRPV 021600Z 10010G20KT 9999 SCT020 23/16 A3007=
200603021700 METAR MRPV 021700Z 08014KT 9999 SCT025 25/14 A3006=
200603021800 METAR MRPV 021800Z 09010G20KT 9999 SCT030 26/16 A3002=
200603021900 METAR MRPV 021900Z 08010G20KT 9999 FEW035 27/15 A3000=
200603022000 METAR MRPV 022000Z 09010G20KT 9999 FEW035 27/15 A2996=
200603022100 METAR MRPV 022100Z 09010G20KT 9999 FEW035 27/15 A2994=
200603022200 METAR MRPV 022200Z 08010G20KT 9999 FEW035 25/15 A2994=
200603022300 METAR MRPV 022300Z 08010G20KT 9999 SCT030 23/15 A2995=
200603030000 METAR MRPV NIL=
200603030100 METAR MRPV NIL=
200603030200 METAR MRPV NIL=
200603030300 METAR MRPV NIL=
200603030400 METAR MRPV NIL=
200603030500 METAR MRPV NIL=
200603030600 METAR MRPV NIL=
200603030700 METAR MRPV NIL=
200603030800 METAR MRPV NIL=
200603030900 METAR MRPV NIL=
200603031000 METAR MRPV NIL=
200603031100 METAR MRPV NIL=
200603031200 METAR MRPV 031200Z 12010KT 9999 SKC 20/14 A3001=
200603031300 METAR MRPV 031300Z 13006KT CAVOK 21/14 A3004=
200603031400 METAR MRPV 031400Z 12010KT CAVOK 23/15 A3005=
200603031500 METAR MRPV 031500Z 11012KT CAVOK 24/15 A3006=
200603031600 METAR MRPV 031600Z 11012KT CAVOK 26/15 A3005=
200603031700 METAR MRPV 031700Z 08013KT 9999 FEW045 27/15 A3004=
200603031800 METAR MRPV 031800Z 07013KT 9999 FEW045 28/15 A3001=
200603031900 METAR MRPV 031900Z 08014KT 9999 FEW045 28/16 A2999=
200603032000 METAR MRPV 032000Z 09015KT 9999 FEW045 28/16 A2997 RMK TCU SW=
200603032100 METAR MRPV 032100Z 08013KT 9999 FEW035 28/16 A2994 RMK TCU DST SW=
200603032200 METAR MRPV 032200Z 08017KT 9999 FEW025TCU FEW040 25/16 A2994=
200603032300 METAR MRPV 032300Z 08014KT 9999 FEW035 24/17 A2995=
200603040000 METAR MRPV NIL=
200603040100 METAR MRPV NIL=
200603040200 METAR MRPV NIL=
200603040300 METAR MRPV NIL=
200603040400 METAR MRPV NIL=
200603040500 METAR MRPV NIL=
200603040600 METAR MRPV NIL=
200603040700 METAR MRPV NIL=
200603040800 METAR MRPV NIL=
200603040900 METAR MRPV NIL=
200603041000 METAR MRPV NIL=
200603041100 METAR MRPV NIL=
200603041200 METAR MRPV 041200Z 10012KT 9999 FEW025 20/15 A3002=
200603041300 METAR MRPV 041300Z 09014KT 9999 FEW030 21/15 A3004=
200603041400 METAR MRPV 041400Z 10012KT 9999 FEW035 22/16 A3006=
200603041500 METAR MRPV 041500Z 07015KT 9999 FEW040 23/15 A3006 RMK RFGS 21KT=
200603041600 METAR MRPV 041600Z 08016KT 9999 SCT035 24/15 A3006=
200603041700 METAR MRPV 041700Z 07015G25KT 9999 FEW040 25/15 A3005=
200603041800 METAR MRPV 041800Z 06016KT 9999 SCT040 25/15 A3003=
200603041900 METAR MRPV 041900Z 07018KT 9999 SCT045 26/16 A3000 RMK RFGS 23KT=
200603042000 METAR MRPV 042000Z 08018G28KT 9999 FEW030 26/16 A2998=
200603042100 METAR MRPV 042100Z 08018G28KT 9999 SCT030 25/16 A2997=
200603042200 METAR MRPV 042200Z 09020KT 9999 SCT030 23/15 A2997=
200603042300 METAR MRPV 042300Z 09020KT 9999 SCT030 22/15 A22/15 A2996=
200603050000 METAR MRPV NIL=
200603050100 METAR MRPV NIL=
200603050200 METAR MRPV NIL=
200603050300 METAR MRPV NIL=
200603050400 METAR MRPV NIL=
200603050500 METAR MRPV NIL=
200603050600 METAR MRPV NIL=
200603050700 METAR MRPV NIL=
200603050800 METAR MRPV NIL=
200603050900 METAR MRPV NIL=
200603051000 METAR MRPV NIL=
200603051100 METAR MRPV NIL=
200603051200 METAR MRPV 051200Z 09018KT 9999 FEW030 19/14 A3005=
200603051300 METAR MRPV 051300Z 11018KT 9999 FEW040 20/13 A3007=
200603051400 METAR MRPV 051400Z 10018G28KT CAVOK 22/11 A3008=
200603051500 METAR MRPV 051500Z 08020G30 CAVOK 23/12 A3000=
200603051600 METAR MRPV 051600Z 08018G28KT CAVOK 24/13 A3008=
200603051700 METAR MRPV 051700Z 07022G34KT 9999 FEW045 25/13 A3007=
200603051800 METAR MRPV 051800Z 07020G30KT 9999 FEW045 25/13 A3005=
200603051900 METAR MRPV 051900Z 07021G34KT 9999 FEW045 25/13 A3003=
200603052000 METAR MRPV 052000Z 06020G30KT 9999 FEW048 25/13 A3001=
200603052200 METAR MRPV 052200Z 07020KT 9999 FEW045 23/12 A3002 RMK RAFAGAS DE 26KT=
200603060000 METAR MRPV NIL=
200603060100 METAR MRPV NIL=
200603060200 METAR MRPV NIL=
200603060300 METAR MRPV NIL=
200603060400 METAR MRPV NIL=
200603060500 METAR MRPV NIL=
200603060600 METAR MRPV NIL=
200603060700 METAR MRPV NIL=
200603060800 METAR MRPV NIL=
200603060900 METAR MRPV NIL=
200603061000 METAR MRPV NIL=
200603061100 METAR MRPV NIL=
200603061200 METAR MRPV 061200Z 11015G25KT 9999 FEW030 19/14 A3008 RMK PCPN ENE DST=
200603061300 METAR MRPV 061300Z 11015G28KT 9999 FEW030 20/14 A3010=
200603061400 METAR MRPV 061400Z 10015G25KT 9999 FEW030 21/14 A3011=
200603061500 METAR MRPV 061500Z 08016G28KT 9999 FEW030 SCT090 22/14 A3012=
200603061600 METAR MRPV 061600Z 07015G28KT 9999 FEW030 23/15 A3012=
200603061700 METAR MRPV 061700Z 07018G29KT 9999 FEW030 24/15 A3012=
200603061800 METAR MRPV 061800Z 07018G28KT 9999 FEW035 24/15 A3008=
200603061900 METAR MRPV 061900Z 07016G26KT 9999 FEW035 25/15 A3007=
200603062000 METAR MRPV 062000Z 08015G25KT 9999 FEW035 25/15 A3005=
200603062100 METAR MRPV 062100Z 07018G28KT 9999 SCT035 24/14 A3003=
200603062200 METAR MRPV 062200Z 10015G25KT 9999 SCT035 BKN250 23/15 A3004=
200603062300 METAR MRPV 062300Z 08015G25KT 9999 FEW025 BKN250 21/15 A3004=
200603070000 METAR MRPV NIL=
200603070100 METAR MRPV NIL=
200603070200 METAR MRPV NIL=
200603070300 METAR MRPV NIL=
200603070400 METAR MRPV NIL=
200603070500 METAR MRPV NIL=
200603070600 METAR MRPV NIL=
200603070700 METAR MRPV NIL=
200603070800 METAR MRPV NIL=
200603070900 METAR MRPV NIL=
200603071000 METAR MRPV NIL=
200603071100 METAR MRPV NIL=
200603071200 METAR MRPV 071200Z 11015G25KT 9999 FEW025 SCT250 19/14 A3010=
200603071300 METAR MRPV 071300Z 10015G25KT 9999 FEW020 SCT250 19/14 A3011=
200603071400 METAR MRPV 071400Z 09015G25KT 9999 SCT025 20/14 A3012=
200603071500 METAR MRPV 071500Z 09016G26KT 9999 SCT030 22/14 A3013=
200603071600 METAR MRPV 071600Z 09016G28KT 9999 FEW030 23/14 A3013=
200603071700 METAR MRPV 071700Z 08018KT28KT 9999 FEW035 24/15 A3010=
200603071800 METAR MRPV 071800Z 08016G27KT 9999 SCT030 22/14 A3008=
200603071900 METAR MRPV 071900Z 08016G26KT 9999 SCT035 22/15 A3005=
200603072000 METAR MRPV 072000Z 07018G28KT 9999 SCT035 23/14 A3003=
200603072100 METAR MRPV 072100Z 08020G30KT 9999 SCT030 22/14 A3001=
200603072200 METAR MRPV 072200Z 08018G28KT 9999 SCT030 22/14 A3002=
200603072300 METAR MRPV 072300Z 08015G26KT 9999 SCT030 21/12 A3003=
200603080000 METAR MRPV NIL=
200603080100 METAR MRPV NIL=
200603080200 METAR MRPV NIL=
200603080300 METAR MRPV NIL=
200603080400 METAR MRPV NIL=
200603080500 METAR MRPV NIL=
200603080600 METAR MRPV NIL=
200603080700 METAR MRPV NIL=
200603080800 METAR MRPV NIL=
200603080900 METAR MRPV NIL=
200603081000 METAR MRPV NIL=
200603081100 METAR MRPV NIL=
200603081200 METAR MRPV NIL=
200603081300 METAR MRPV 081300Z 10016G26KT 9999 SCT020 18/15 A3008=
200603081400 METAR MRPV 081400Z 11015G25KT 9999 SCT020 19/15 A3009=
200603081500 METAR MRPV 081500Z 08016G26KT 9999 FEW025 20/15 A3008=
200603081600 METAR MRPV 081600Z 0812G24KT 9999 FEW025 23/14 A3009=
200603081700 METAR MRPV 081700Z 08012G24KT 9999 FEW030 23/14 A3008=
200603081800 METAR MRPV 081800Z 07012G24KT 9999 FEW030 24/15 A3004=
200603081900 METAR MRPV 081900Z 08012G22KT 9999 FEW030 26/15 A3002=
200603082000 METAR MRPV 082000Z 08015G25KT 9999 FEW030 25/15 A2999=
200603082100 METAR MRPV 082100Z 08010G20KT 9999 FEW030 24/15 A2996 RMK TCU DST S=
200603082200 METAR MRPV 082200Z 08012G22KT 9999 SCT030 24/15 A2996 RMK TCU DST S=
200603082300 METAR MRPV 082300Z 09010G20KT 9999 SCT030 22/15 A2998=
200603090000 METAR MRPV NIL=
200603090100 METAR MRPV NIL=
200603090200 METAR MRPV NIL=
200603090300 METAR MRPV NIL=
200603090400 METAR MRPV NIL=
200603090500 METAR MRPV NIL=
200603090600 METAR MRPV NIL=
200603090700 METAR MRPV NIL=
200603090800 METAR MRPV NIL=
200603090900 METAR MRPV NIL=
200603091000 METAR MRPV NIL=
200603091100 METAR MRPV NIL=
200603091200 METAR MRPV 091200Z 11010KT CAVOK 19/14 A3001=
200603091300 METAR MRPV 091300Z 12014KT CAVOK 20/15 A3005=
200603091400 METAR MRPV 091400Z 10015KT CAVOK 21/15 A3005=
200603091500 METAR MRPV 091500Z 10015KT CAVOK 24/15 A3006=
200603091600 METAR MRPV 091600Z 09016KT CAVOK 25/15 A3005=
200603091700 METAR MRPV 091700Z 08015KT 9999 FEW045 26/15 A3003=
200603091800 METAR MRPV 091800Z 07013KT 9999 FEW045 27/15 A3001=
200603091900 METAR MRPV 091900Z 08010KT 9999 SCT040 28/15 A2998=
200603092000 METAR MRPV 092000Z 08012KT 9999 FEW025 SCT040 27/15 A2995=
200603092100 METAR MRPV 092100Z 09011KT 9999 BKN040 25/15 A2993 CB N=
200603092200 METAR MRPV 092200Z 09012KT 9999 -RA FEW025TCU BKN040 23/16 A2994=
200603092300 METAR MRPV 092300Z 09008KT 9999 FEW020 BKN035 23/16 A2995 RERA TCU DST W=
200603100000 METAR MRPV NIL=
200603100100 METAR MRPV NIL=
200603100200 METAR MRPV NIL=
200603100300 METAR MRPV NIL=
200603100400 METAR MRPV NIL=
200603100500 METAR MRPV NIL=
200603100600 METAR MRPV NIL=
200603100700 METAR MRPV NIL=
200603100800 METAR MRPV NIL=
200603100900 METAR MRPV NIL=
200603101000 METAR MRPV NIL=
200603101100 METAR MRPV NIL=
200603101200 METAR MRPV 101200Z 13007KT CAVOK 19/14 A2998=
200603101300 METAR MRPV 101300Z 13010KT CAVOK 21/14 A3001=
200603101400 METAR MRPV 101400Z 13010KT CAVOK 23/14 A3003=
200603101500 METAR MRPV 101500Z 14012KT CAVOK 25/13 A3003=
200603101600 METAR MRPV 101600Z 09010KT CAVOK 27/14 A3003=
200603101900 METAR MRPV 101900Z 08010KT 9999 SCT045 29/13 A2997=
200603102000 METAR MRPV 102000Z 08013KT 9999 BKN040 27/14 A2994=
200603102100 METAR MRPV 102100Z 08015KT 9999 SCT040 27/15 A2993=
200603102200 METAR MRPV 102200Z 07013KT 9999 FEW025 SCT040 26/15 A2993=
200603102300 METAR MRPV 102300Z 08015KT 9999 FEW035 24/16 A2994 RMK FEW130=
200603110000 METAR MRPV NIL=
200603110100 METAR MRPV NIL=
200603110200 METAR MRPV NIL=
200603110300 METAR MRPV NIL=
200603110400 METAR MRPV NIL=
200603110500 METAR MRPV NIL=
200603110600 METAR MRPV NIL=
200603110700 METAR MRPV NIL=
200603110800 METAR MRPV NIL=
200603110900 METAR MRPV NIL=
200603111000 METAR MRPV NIL=
200603111100 METAR MRPV NIL=
200603111200 METAR MRPV 111200Z 12012KT 9999 FEW025 20/14 A3002=
200603111300 METAR MRPV 111300Z 14010KT 9999 FEW030 SCT080 20/15 A3004=
200603111400 METAR MRPV 111400Z 12014KT 9999 FEW030 22/15 A3006 RMK FEW080=
200603111500 METAR MRPV 111500Z 11013KT 9999 FEW040 24/15 A3008=
200603111600 METAR MRPV 111600Z 08017KT 9999 FEW045 25/15 A3008=
200603111700 METAR MRPV 111700Z 07017KT 9999 FEW045 25/15 A3006=
200603111800 METAR MRPV 111800Z 09016KT 9999 SCT045 27/16 A3003=
200603111900 METAR MRPV 111900Z 08019KT 9999 SCT045 27/16 A3001 RMK CU DLPNG S/W=
200603112000 METAR MRPV 112000Z 09019KT 9999 SCT045 27/16 A2999=
200603112100 METAR MRPV 112100Z 08012KT 9999 FEW045 25/18 A2997=
200603112200 METAR MRPV 112200Z 08019KT 9999 FEW035 24/16 A2997 RMK TCU WSW=
200603112300 METAR MRPV 112300Z 09014G24KT 9999 FEW025 SCT040 23/15 A2999=
200603120000 METAR MRPV NIL=
200603120100 METAR MRPV NIL=
200603120200 METAR MRPV NIL=
200603120300 METAR MRPV NIL=
200603120400 METAR MRPV NIL=
200603120500 METAR MRPV NIL=
200603120600 METAR MRPV NIL=
200603120700 METAR MRPV NIL=
200603120800 METAR MRPV NIL=
200603120900 METAR MRPV NIL=
200603121000 METAR MRPV NIL=
200603121100 METAR MRPV NIL=
200603121200 METAR MRPV NIL=
200603121300 METAR MRPV NIL=
200603121400 METAR MRPV NIL=
200603121500 METAR MRPV NIL=
200603121600 METAR MRPV NIL=
200603121700 METAR MRPV NIL=
200603121800 METAR MRPV NIL=
200603121900 METAR MRPV NIL=
200603122000 METAR MRPV NIL=
200603122100 METAR MRPV 122100Z 09012G24KT 9999 FEW030 BKN250 25/15 A2996=
200603122200 METAR MRPV 122200Z 08015G25KT 9999 FEW030 BKN250 23/16 A2996=
200603122300 METAR MRPV 122300Z 09010G20KT 9999 SCT030 BKN250 21/15 A2997=
200603130000 METAR MRPV NIL=
200603130100 METAR MRPV NIL=
200603130200 METAR MRPV NIL=
200603130300 METAR MRPV NIL=
200603130400 METAR MRPV NIL=
200603130500 METAR MRPV NIL=
200603130600 METAR MRPV NIL=
200603130700 METAR MRPV NIL=
200603130800 METAR MRPV NIL=
200603130900 METAR MRPV NIL=
200603131000 METAR MRPV NIL=
200603131100 METAR MRPV NIL=
200603131200 METAR MRPV NIL=
200603131300 METAR MRPV 131300Z 12014KT CAVOK 21/12 A3001=
200603131400 METAR MRPV 131400Z 11010G2KT CAVOK 23/12 A3001=
200603131500 METAR MRPV NIL=
200603131600 METAR MRPV 131600Z 08014KT 9999 SKC 26/13 A3002=
200603131700 METAR MRPV 131700Z 08014KT SKC 27/13 A3000=
200603131800 METAR MRPV 131800Z 08010G20KT 9999 FEW030 27/13 A2997=
200603131900 METAR MRPV 131900Z 08010G20KT 9999 FEW030 27/13 A2995=
200603132000 METAR MRPV 132000Z 07010G22KT 9999 FEW030 26/15 A2993=
200603132100 METAR MRPV NIL=
200603132200 METAR MRPV NIL=
200603132300 METAR MRPV NIL=
200603140000 METAR MRPV NIL=
200603140100 METAR MRPV NIL=
200603140200 METAR MRPV NIL=
200603140300 METAR MRPV NIL=
200603140400 METAR MRPV NIL=
200603140500 METAR MRPV NIL=
200603140600 METAR MRPV NIL=
200603140700 METAR MRPV NIL=
200603140800 METAR MRPV NIL=
200603140900 METAR MRPV NIL=
200603141000 METAR MRPV NIL=
200603141100 METAR MRPV NIL=
200603141200 METAR MRPV NIL=
200603141300 METAR MRPV 141300Z 10012KT 9999 SKC 20/14 A3000=
200603141400 METAR MRPV 141400Z 10014KT 9999 SKC 22/13 A3001=
200603141500 METAR MRPV 141500Z 08014KT 9999 SKC 25/12 A3002=
200603141600 METAR MRPV 141600Z 10014KT 9999 SKC 27/08 A3001=
200603141700 METAR MRPV 141700Z 08016KT 9999 FEW030 27/12 A3000=
200603141800 METAR MRPV 141800Z 07010G20KT 9999 FEW030 28/13 A2997=
200603141900 METAR MRPV 141900Z 08010G20KT 9999 FEW030 27/15 A2996 RMK TCU DST S/SW/W=
200603142000 METAR MRPV 142000Z 08010G20KT 9999 SCT030 27/15 A2994 RMK LINE TCU S/SW/NW=
200603142100 METAR MRPV 142100Z 08015G25KT 9999 SCT030 SCT250 26/15 A2993=
200603142200 METAR MRPV 142200Z 09012G22KT 9999 SCT030 SCT250 23/15 A2994 TCU SSW NW=
200603142300 METAR MRPV 142300Z 09014G24KT 9999 SCT030 SCT250 22/15 A2995=
200603150000 METAR MRPV NIL=
200603150100 METAR MRPV NIL=
200603150200 METAR MRPV NIL=
200603150300 METAR MRPV NIL=
200603150400 METAR MRPV NIL=
200603150500 METAR MRPV NIL=
200603150600 METAR MRPV NIL=
200603150700 METAR MRPV NIL=
200603150800 METAR MRPV NIL=
200603150900 METAR MRPV NIL=
200603151000 METAR MRPV NIL=
200603151100 METAR MRPV NIL=
200603151200 METAR MRPV 151200Z 12015KT CAVOK 19/12 A3001=
200603151300 METAR MRPV 151300Z 13018KT CAVOK 20/12 A3003 CB S=
200603151400 METAR MRPV 151400Z 11017KT CAVOK 22/11 A3005 RMK CB DSPNG DST S GST 23KT=
200603151500 METAR MRPV 151500Z 10016G26KT CAVOK 24/09 A3006=
200603151600 METAR MRPV 151600Z 10018G28KT CAVOK 25/11 A3006 RMK TRACE SC=
200603151700 METAR MRPV 151700Z 07020G30KT CAVOK 25/12 A3005 RMK TRACE SC=
200603151800 METAR MRPV 151800Z 06019G29KT CAVOK 25/13 A3003 RMK FEW060=
200603151900 METAR MRPV 151900Z 06019KT CAVOK 26/13 A3000 RMK FEW060 GST 24KT=
200603152000 METAR MRPV 152000Z 05019KT 9999 FEW045 25/14 A2998 RMK FEW080 GST 24KT=
200603152100 METAR MRPV 152100Z 06020KT 9999 FEW040 24/14 A2996 RMK GST 25KT=
200603152200 METAR MRPV 152200Z 07021KT 9999 FEW045 23/14 A2996 RMK GST 27 KT=
200603152300 METAR MRPV 152300Z 08020G30KT 9999 SCT035 21/13 A2998 RMK DZ N/NE OVR RDGS=
200603160000 METAR MRPV NIL=
200603160100 METAR MRPV NIL=
200603160200 METAR MRPV NIL=
200603160300 METAR MRPV NIL=
200603160400 METAR MRPV NIL=
200603160500 METAR MRPV NIL=
200603160600 METAR MRPV NIL=
200603160700 METAR MRPV NIL=
200603160800 METAR MRPV NIL=
200603160900 METAR MRPV NIL=
200603161000 METAR MRPV NIL=
200603161100 METAR MRPV NIL=
200603161200 METAR MRPV 161200Z 12013KT CAVOK 18/12 A3003=
200603161300 METAR MRPV 161300Z 12013KT CAVOK 19/13 A3004=
200603161400 METAR MRPV 161400Z 10015KT CAVOK 21/13 A3006=
200603161500 METAR MRPV 161500Z 08024KT CAVOK 22/12 A3007=
200603161600 METAR MRPV 161600Z 06018G28KT CAVOK 23/12 A3007=
200603161700 METAR MRPV 161700Z 06020G30KT CAVOK 24/12 A3005=
200603161800 METAR MRPV 161800Z 07016KT CAVOK 26/12 A3002=
200603161900 METAR MRPV 161900Z 07019KT CAVOK 26/13 A3000 FEW050=
200603162000 METAR MRPV 162000Z 07016KT 9999 FEW045 26/13 A2999=
200603162100 METAR MRPV 162100Z 09018KT 9999 FEW040 25/14 A2997=
200603162200 METAR MRPV 162200Z 09022KT 9999 SCT040 23/15 A2997=
200603162300 METAR MRPV 162300Z 09020KT 9999 FEW040 23/15 A2997=
200603170000 METAR MRPV NIL=
200603170100 METAR MRPV NIL=
200603170200 METAR MRPV NIL=
200603170300 METAR MRPV NIL=
200603170400 METAR MRPV NIL=
200603170500 METAR MRPV NIL=
200603170600 METAR MRPV NIL=
200603170700 METAR MRPV NIL=
200603170800 METAR MRPV NIL=
200603170900 METAR MRPV NIL=
200603171000 METAR MRPV NIL=
200603171100 METAR MRPV NIL=
200603171200 METAR MRPV 171200Z 11015KT 9999 FEW030 19/15 A3003 DZ NE=
200603171300 METAR MRPV 171300Z 10018KT 9999 FEW030 20/13 A3006=
200603171400 METAR MRPV 171400Z 10018KT CAVOK 22/14 A3006=
200603171500 METAR MRPV 171500Z 07020KT 9999 FEW040 23/14 A3008=
200603171600 METAR MRPV 171600Z 07020KT 9999 FEW040 24/15 A3007=
200603171700 METAR MRPV 171700Z 07018KT 9999 SCT030 24/16 A3007=
200603171800 METAR MRPV 171800Z 171800S 08020KT 9999 SCT035 24/16 A3005=
200603171900 METAR MRPV 171900Z 07019KT 9999 SCT030 24/15 A3003=
200603172100 METAR MRPV 172100Z 08019KT 9999 FEWO45 25/15 A2999=
200603172200 METAR MRPV 172200Z 08020KT 9999 FEW035 24/15 A2998=
200603172300 METAR MRPV 172300Z 09018KT 9999 FEW040 23/16 A2998=
200603180000 METAR MRPV NIL=
200603180100 METAR MRPV NIL=
200603180200 METAR MRPV NIL=
200603180300 METAR MRPV NIL=
200603180400 METAR MRPV NIL=
200603180500 METAR MRPV NIL=
200603180600 METAR MRPV NIL=
200603180700 METAR MRPV NIL=
200603180800 METAR MRPV NIL=
200603180900 METAR MRPV NIL=
200603181000 METAR MRPV NIL=
200603181100 METAR MRPV NIL=
200603181200 METAR MRPV 181200Z 10010G20KT 9999 BKN025 20/15 A3002/RN DIST E S=
200603181300 METAR MRPV 181300Z 10010G20KT 9999 BKN025 20/15 A3004 RMK DZ SE S=
200603181400 METAR MRPV 181400Z 10010G20KT 9999 BKN025 21/15 A3005=
200603181500 METAR MRPV 181500Z 07012G22KT 9999 SCT025 23/15 A3006=
200603181600 METAR MRPV 181600Z 07012G25KT SCT025 23/15 A3006=
200603181700 METAR MRPV 181700Z 08015G25KT 9999 SCT030 25/15 A3004=
200603181800 METAR MRPV 181800Z 08015G28KT 9999 SCT030 24/15 A3001=
200603181900 METAR MRPV 181900Z 06015G25KT 9999 SCT030 24/12 A3000=
200603182000 METAR MRPV 182000Z 07015G25KT 9999 SCT030 25/14 A2999=
200603182100 METAR MRPV 182100Z 08020KT 9999 FEW030 24/15 A2007=
200603182200 METAR MRPV 182200Z 07020KT 9999 FEW030 23/13 A2995=
200603182300 METAR MRPV 182300Z 08020KT 9999 FEW030 22/15 A2996=
200603190000 METAR MRPV NIL=
200603190100 METAR MRPV NIL=
200603190200 METAR MRPV NIL=
200603190300 METAR MRPV NIL=
200603190400 METAR MRPV NIL=
200603190500 METAR MRPV NIL=
200603190600 METAR MRPV NIL=
200603190700 METAR MRPV NIL=
200603190800 METAR MRPV NIL=
200603190900 METAR MRPV NIL=
200603191000 METAR MRPV NIL=
200603191100 METAR MRPV NIL=
200603191200 METAR MRPV NIL=
200603191300 METAR MRPV 191300Z 13012KT 9999 FEW022 19/13 A3001=
200603191400 METAR MRPV 191400Z 13014KT 9999 FEW022 21/14 A3002=
200603191500 METAR MRPV 191500Z 11016KT 9999 FEW025 24/14 A3002=
200603191600 METAR MRPV 191600Z 08020KT 9999 FEW025 25/14 A3001=
200603191700 METAR MRPV 191700Z 08022KT 9999 FEW030 26/14 A3001=
200603191800 METAR MRPV 191800Z 08022KT 9999 FEW030 26/13 A2999=
200603191900 METAR MRPV 191900Z 08020KT 9999 FEW030 27/14 A2996=
200603192000 METAR MRPV 192000Z 08020KT 9999 SCT030 27/14 A2993=
200603192100 METAR MRPV 192100Z 08010G20KT 9999 SCT030 25/14 A2992=
200603192200 METAR MRPV 192200Z 09012G22KT 9999 33/17 A2972=
200603192300 METAR MRPV 192300Z 08020KT 9999 SCT030 22/15 A2993=
200603200000 METAR MRPV NIL=
200603200100 METAR MRPV NIL=
200603200200 METAR MRPV NIL=
200603200300 METAR MRPV NIL=
200603200400 METAR MRPV NIL=
200603200500 METAR MRPV NIL=
200603200600 METAR MRPV NIL=
200603200700 METAR MRPV NIL=
200603200800 METAR MRPV NIL=
200603200900 METAR MRPV NIL=
200603201000 METAR MRPV NIL=
200603201100 METAR MRPV NIL=
200603201200 METAR MRPV NIL=
200603201225 METAR MRPV 201225Z 12014KT 9999 SKC 19/12 A3000=
200603201300 METAR MRPV 201300Z 13012KT CAVOK 20/13 A3001=
200603201400 METAR MRPV 201400Z 14012KT CAVOK 22/12 A3003=
200603201500 METAR MRPV 201500Z 10012KT 9999 SKC 25/12 A3002=
200603201600 METAR MRPV 201600Z 09014KT 9999 SKC 26/12 A3002=
200603201700 METAR MRPV 201700Z 11010KT 9999 FEW024 28/13 A3000=
200603201800 METAR MRPV 201800Z 07015KT 9999 FEW028 28/13 A2997=
200603201900 METAR MRPV 201900Z 08016KT 9999 SCT030 28/13 A2994=
200603202000 METAR MRPV 202000Z 08010G20KT 9999 SCT030 27/14 A2991 TCU DST SW=
200603202100 METAR MRPV 202100Z 08012KT 9999 SCT030TCU 26/14 A2990=
200603202200 METAR MRPV 202200Z 05014KT 9999 SCT030 26/13 A2989=
200603202300 METAR MRPV 202300Z 08015KT 9999 SCT020 24/16 A2990=
200603210000 METAR MRPV NIL=
200603210100 METAR MRPV NIL=
200603210200 METAR MRPV NIL=
200603210300 METAR MRPV NIL=
200603210400 METAR MRPV NIL=
200603210500 METAR MRPV NIL=
200603210600 METAR MRPV NIL=
200603210700 METAR MRPV NIL=
200603210800 METAR MRPV NIL=
200603210900 METAR MRPV NIL=
200603211000 METAR MRPV NIL=
200603211100 METAR MRPV NIL=
200603211200 METAR MRPV 211200Z 13012KT 9999 SKC 19/12 A2998 HZ LGT ARND=
200603211300 METAR MRPV 211300Z 10008KT CAVOK 20/12 A3000 HZ LEVE ARND=
200603211400 METAR MRPV 211400Z 11008KT CAVOK 24/12 A3002=
200603211500 METAR MRPV 211500Z 08009KT CAVOK 25/12 A3002=
200603211600 METAR MRPV 211600Z 09010KT CAVOK 27/11 A3002 RMK LGT HZ W=
200603211700 METAR MRPV 211700Z 09007KT 9999 FEW040 28/13 A2999=
200603211800 METAR MRPV 211800Z 07008KT 9999 FEW040 29/14 A2997=
200603211900 METAR MRPV 211900Z 09013KT 9999 FEW040 28/15 A2995=
200603212000 METAR MRPV 212000Z 08015KT 9999 FEW040 28/15 A2993=
200603212100 METAR MRPV 212100Z 08012KT 9999 FEW040 27/15 A2992=
200603212200 METAR MRPV 212200Z 09014KT 9999 FEW040 26/16 A2991 RMK TCU SW=
200603212300 METAR MRPV 212300Z 08012KT 9999 FEW035 25/16 A2992=
200603220000 METAR MRPV NIL=
200603220100 METAR MRPV NIL=
200603220200 METAR MRPV NIL=
200603220300 METAR MRPV NIL=
200603220400 METAR MRPV NIL=
200603220500 METAR MRPV NIL=
200603220600 METAR MRPV NIL=
200603220700 METAR MRPV NIL=
200603220800 METAR MRPV NIL=
200603220900 METAR MRPV NIL=
200603221000 METAR MRPV NIL=
200603221100 METAR MRPV NIL=
200603221200 METAR MRPV 221200Z 14007KT 9999 FEW030 19/14 A2999=
200603221300 METAR MRPV 221300Z 11010KT 9999 SCT030 21/14 A3002 DZ N NE=
200603221400 METAR MRPV 221400Z 12009KT 9999 -DZ BKN035 22/15 A3004=
200603221500 METAR MRPV 221500Z 11014KT 9999 BKN035 22/15 A3007 RMK RN N NE E SE=
200603221600 METAR MRPV 221600Z 07014KT 9999 -DZ FEW025 BKN040 21/17 A3008=
200603221700 METAR MRPV 221700Z 08010KT 9999 BKN040 23/15 A3007 REDZ RMK DZ N NE E=
200603221800 METAR MRPV 221800Z 08012KT 9999 SCT030 BKN090 23/16 A3004 RMK FU W=
200603221900 METAR MRPV 221900Z 07015KT 9999 SCT035 SCT100 25/15 A300 RMK DZ N NE=
200603222000 METAR MRPV 222000Z 07015KT 9999 FEW030 25/15 A2997=
200603222100 METAR MRPV 222100Z 08018KT 9999 FEW020TCU SCT035 SCT100 24/15 A2997 RMK TCU RN SW=
200603222200 METAR MRPV 222200Z 10013KT 9999 SCT040 SCT100 23/16 A2996 RMK TCU RN SW=
200603222300 METAR MRPV 222300Z 10013KT 9999 SCT040 SCT100 23/16 A2997 RMK RN DS SW=
200603230000 METAR MRPV NIL=
200603230100 METAR MRPV NIL=
200603230200 METAR MRPV NIL=
200603230300 METAR MRPV NIL=
200603230400 METAR MRPV NIL=
200603230500 METAR MRPV NIL=
200603230600 METAR MRPV NIL=
200603230700 METAR MRPV NIL=
200603230800 METAR MRPV NIL=
200603230900 METAR MRPV NIL=
200603231000 METAR MRPV NIL=
200603231100 METAR MRPV NIL=
200603231200 METAR MRPV 231200Z 13008KT 9999 FEW035 SCT100 20/15 A3002=
200603231300 METAR MRPV 231300Z 13008KT 9999 FEW030 BKN230 21/16 A3004=
200603231400 METAR MRPV 231400Z 12010KT 9999 FEW035 BKN230 23/16 A3007=
200603231500 METAR MRPV 231500Z 10014KT 9999 FEW030 SCT250 24/16 A3007=
200603231600 METAR MRPV 231600Z 07010KT 9999 FEW040 25/16 A3007=
200603231700 METAR MRPV 231700Z 07011KT 9999 FEW040 26/16 A3005=
200603231800 METAR MRPV 231800Z 08012KT 9999 FEW040 27/15 A3002=
200603231900 METAR MRPV 231900Z 08008KT 9999 FEW040 28716 A2999=
200603232000 METAR MRPV 232000Z 10007KT 9999 FEW020TCU SCT035 28/16 A2997 RMK RASH W=
200603232100 METAR MRPV 232100Z 19006KT 170V240 9999 FEW020TCU BKN030 25/17 A2995 RMK RASH SW=
200603232103 METAR MRPV 232103Z 11012KT 9999 FEW020TCU BKN030 25/16 A2995 RMK RASH N TS DST SW=
200603232200 METAR MRPV 232200Z 27011KT 9999 SCT030 SCT100 23/18 A2996 RMK VIS N 5KMS DUE RN=
200603232300 METAR MRPV 232300Z 29010KT 9999 4000NE VCSH FEW007 SCT030 BKN100 22/18 A2997=
200603240000 METAR MRPV NIL=
200603240100 METAR MRPV NIL=
200603240200 METAR MRPV NIL=
200603240300 METAR MRPV NIL=
200603240400 METAR MRPV NIL=
200603240500 METAR MRPV NIL=
200603240600 METAR MRPV NIL=
200603240700 METAR MRPV NIL=
200603240800 METAR MRPV NIL=
200603240900 METAR MRPV NIL=
200603241000 METAR MRPV NIL=
200603241100 METAR MRPV NIL=
200603241200 METAR MRPV 241200Z 14010KT CAVOK 20/14 A3001=
200603241300 METAR MRPV 241300Z 12011KT CAVOK 21/13 A3004=
200603241400 METAR MRPV 241400Z 12015KT CAVOK 23/14 A3007=
200603241500 METAR MRPV 241500Z 09016KT CAVOK 25/15 A3007=
200603241600 METAR MRPV 241600Z 08018KT 9999 FEW040 25/16 A3008 RMK DZ DST NE=
200603241700 METAR MRPV 241700Z 08020KT 9999 FEW040 27/15 A3006=
200603241800 METAR MRPV 241800Z 09018KT 9999 SCT040 28/14 A3003=
200603241900 METAR MRPV 241900Z 09018KT 9999 BKN035 26/15 A3000 RMK RN DST E TCU SE S SW=
200603242000 METAR MRPV 242000Z 10018KT 9999 FEW035 BKN250 25/15 A2997 RMK CB DST S SW W=
200603242100 METAR MRPV 242100Z 09012KT 9999 FEW035 BKN070 24/16 A2997 TCU DST SE S=
200603242200 METAR MRPV 242200Z 12012KT 9999 FEW035 BKN090 23/16 A2997 TCU DST SW=
200603242300 METAR MRPV 242300Z 13012KT 9999 FEW030 SCT080 BKN110 23/16 A2998=
200603250000 METAR MRPV NIL=
200603250100 METAR MRPV NIL=
200603250200 METAR MRPV NIL=
200603250300 METAR MRPV NIL=
200603250400 METAR MRPV NIL=
200603250500 METAR MRPV NIL=
200603250600 METAR MRPV NIL=
200603250700 METAR MRPV NIL=
200603250800 METAR MRPV NIL=
200603250900 METAR MRPV NIL=
200603251000 METAR MRPV NIL=
200603251100 METAR MRPV NIL=
200603251200 METAR MRPV NIL=
200603251300 METAR MRPV 251300Z 10016KT CAVOK 22/15 A3004=
200603251400 METAR MRPV 251400Z 08010G20KT 9999 FEW025 BKN250 23/16 A3006=
200603251500 METAR MRPV 251500Z 08015G25KT 9999 FEW025 BKN250 23/16 A3008=
200603251600 METAR MRPV 251600Z 08012G22KT 9999 SCT025 SCT250 24/10 A3008=
200603251700 METAR MRPV 251700Z 08012G22KT 9999 SCT025 SCT250 25/16 A3007=
200603251800 METAR MRPV 251800Z 09012G24KT 9999 BKN025 24/16 A3004=
200603251900 METAR MRPV 251900Z 08015G25KT 9999 BKN025 23/15 A3002=
200603252000 METAR MRPV 252000Z 08012G22KT 9999 FEW018 BKN025 23/15 A3000=
200603252100 METAR MRPV 252100Z 09015G27KT 9999 BKN025 22/15 A2998=
200603252200 METAR MRPV 252200Z 07015G25KT 9999 SCT030 22/15 A2997=
200603252300 METAR MRPV 252300Z 09015G25KT 9999 SCT030 21/14 A2998=
200603260000 METAR MRPV NIL=
200603260100 METAR MRPV NIL=
200603260200 METAR MRPV NIL=
200603260300 METAR MRPV NIL=
200603260400 METAR MRPV NIL=
200603260500 METAR MRPV NIL=
200603260600 METAR MRPV NIL=
200603260700 METAR MRPV NIL=
200603260800 METAR MRPV NIL=
200603260900 METAR MRPV NIL=
200603261000 METAR MRPV NIL=
200603261100 METAR MRPV NIL=
200603261200 METAR MRPV NIL=
200603261300 METAR MRPV 261300Z 10015G25KT 9999 FEW028 BKN250 20/13 A3005=
200603261400 METAR MRPV 261400Z 10015G25KT 9999 FEW030 BKN250 21/14 A3007=
200603261500 METAR MRPV 261500Z 08015G25KT 9999 FEW030 BKN250 23/15 A3000=
200603261600 METAR MRPV 261600Z 07016G28KT 9999 FEW030 BKN250 23/14 A3009=
200603261700 METAR MRPV 261700Z 06012G22KT 9999 FEW030 BKN250 25/13 A3006=
200603261800 METAR MRPV 261800Z 06016G26KT 9999 SCT030 SCT250 26/13 A3005=
200603261900 METAR MRPV 261900Z 06016G28KT 9999 SCT030 SCT250 26/13 A3002=
200603262000 METAR MRPV 262000Z 06016G26KT 9999 SCT030 SCT250 25/13 A2999=
200603262100 METAR MRPV 262100Z 06016/26 9999 SCT030 BKN250 25/12 A2997=
200603262200 METAR MRPV 262200Z 07015G25KT 9999 FEW030 BKN250 24/13 A2996=
200603262300 METAR MRPV 262300Z 09012G22KT 9999 SCT025 BKN250 21/14 A2997=
200603270000 METAR MRPV NIL=
200603270100 METAR MRPV NIL=
200603270200 METAR MRPV NIL=
200603270300 METAR MRPV NIL=
200603270400 METAR MRPV NIL=
200603270500 METAR MRPV NIL=
200603270600 METAR MRPV NIL=
200603270700 METAR MRPV NIL=
200603270800 METAR MRPV NIL=
200603270900 METAR MRPV NIL=
200603271000 METAR MRPV NIL=
200603271100 METAR MRPV NIL=
200603271200 METAR MRPV 271200Z 09016G26KT 9999 FEW040 BKN250 20/13 A3006=
200603271300 METAR MRPV 271300Z 10016G26KT 9999 FEW040 BKN250 20/13 A3007=
200603271400 METAR MRPV 271400Z 09015G25KT CAVOK 21/13 A3009=
200603271500 METAR MRPV 271500Z 08015G25KT CAVOK 22/12 A3010=
200603271700 METAR MRPV 271700Z 07015G26KT CAVOK 24/14 A3008=
200603271800 METAR MRPV 271800Z 07018G28KT CAVOK 24/15 A3005=
200603271900 METAR MRPV 271900Z 07015G25KT 9999 FEW030 BKN250 24/15 A3002=
200603272000 METAR MRPV 272000Z 06012G22KT 9999 SCT035 SCT250 26/15 A3000=
200603272100 METAR MRPV 272100Z 07015G25KT 9999 SCT035 SCT250 25/15 A2999=
200603272200 METAR MRPV 272200Z 07015G25KT 9999 SCT035 SCT250 23/16 A2998=
200603272300 METAR MRPV 272300Z 07012G22KT 9999 SCT030 SCT250 22/16 A3000=
200603280000 METAR MRPV NIL=
200603280100 METAR MRPV NIL=
200603280200 METAR MRPV NIL=
200603280300 METAR MRPV NIL=
200603280400 METAR MRPV NIL=
200603280500 METAR MRPV NIL=
200603280600 METAR MRPV NIL=
200603280700 METAR MRPV NIL=
200603280800 METAR MRPV NIL=
200603280900 METAR MRPV NIL=
200603281000 METAR MRPV NIL=
200603281100 METAR MRPV NIL=
200603281200 METAR MRPV 281200Z 11012KT 9999 SCT030 SCT250 20/14 A3005=
200603281300 METAR MRPV 281300Z 10016KT 9999 SCT030 SCT250 20/15 A3008 RMK DZ DST NE=
200603281400 METAR MRPV 281400Z 10015G25KT 9999 BKN030 SCT250 21/15 A3010 RMK DZ DST N NE=
200603281500 METAR MRPV 281500Z 08020KT 9999 SCT030 SCT250 22/15 A3011 RMK DZ DST NE=
200603281600 METAR MRPV 281600Z 09018KT 9999 SCT030 SCT250 22/16 A3010 RMK DZ DST NE=
200603281700 METAR MRPV 281700Z 08016G26KT 9999 SCT030 SCT250 22/16 A3009=
200603281800 METAR MRPV 281800Z 08024KT 9999 FEW030 BKN250 23/15 A3006=
200603281900 METAR MRPV 281900Z 08020KT 9999 FEW030 BKN250 24/15 A3003=
200603282000 METAR MRPV 282000Z 08020KT 9999 FEW025 BKN250 23/16 A3000=
200603282100 METAR MRPV 282100Z 09020KT 9999 FEW030 BKN250 22/16 A2999 RMK RFGS 29KT=
200603282200 METAR MRPV 282200Z 08020G30KT 9999 FEW025 SCT250 22/16 A2999=
200603282300 METAR MRPV 282300Z 09016KT 9999 FEW025 SCT250 21/16 A2998 DZ N NE DST=
200603290000 METAR MRPV NIL=
200603290100 METAR MRPV NIL=
200603290200 METAR MRPV NIL=
200603290300 METAR MRPV NIL=
200603290400 METAR MRPV NIL=
200603290500 METAR MRPV NIL=
200603290600 METAR MRPV NIL=
200603290700 METAR MRPV NIL=
200603290800 METAR MRPV NIL=
200603290900 METAR MRPV NIL=
200603291000 METAR MRPV NIL=
200603291100 METAR MRPV NIL=
200603291200 METAR MRPV 291200Z 10012KT 9999 -DZ SCT030 BKN090 21/16 A3001=
200603291300 METAR MRPV 291300Z 10018KT 9999 FEW035 BKN090 22/16 A3002 REDZ RMK DZ DST N NE E=
200603291400 METAR MRPV 291400Z 10018KT 9999 FEW030 SCT090 23/16 A3004 RMK DZ N NE DST=
200603291500 METAR MRPV 291500Z 09020KT 9999 -DZ SCT030 BKN090 23/17 A3005 RMK RFGS 26KT RN DST N NE=
200603291600 METAR MRPV 291600Z NIL=
200603291700 METAR MRPV 291700Z 09017KT 9999 DZ SCT030 BKN090 23/17 A3005 RMK RFGS 25KT=
200603291800 METAR MRPV 291800Z 10014G24 9999 4000E -RA SCT025 BKN100 23/18 A3004=
200603291900 METAR MRPV 291900Z 11010KT 9999 -DZ FEW030 BKN100 23/18 A3000 RMK RN DST E=
200603292000 METAR MRPV 292000Z 09020KT 9999 -DZ FEW030 SCT080 BKN110 24/17 A2998 RMK RN DST E=
200603292100 METAR MRPV 292100Z 08017KT 9999 FEW030 BKN100 24/17 A2996 REDZ RN DST E=
200603292200 METAR MRPV 292200Z 11022KT 9999 SCT030 SCT120 23/17 A2994 DZ N NE E=
200603292300 METAR MRPV 292300Z 10009KT 9999 -DZ BKN030 23/17 A2997 RN N NE=
200603300000 METAR MRPV NIL=
200603300100 METAR MRPV NIL=
200603300200 METAR MRPV NIL=
200603300300 METAR MRPV NIL=
200603300400 METAR MRPV NIL=
200603300500 METAR MRPV NIL=
200603300600 METAR MRPV NIL=
200603300700 METAR MRPV NIL=
200603300800 METAR MRPV NIL=
200603300900 METAR MRPV NIL=
200603301000 METAR MRPV NIL=
200603301100 METAR MRPV NIL=
200603301200 METAR MRPV NIL=
200603301300 METAR MRPV NIL=
200603301400 METAR MRPV 301400Z 08022KT 9999 FEW015 BKN090 22/17 A3004=
200603301500 METAR MRPV 301500Z 08015G25KT 9999 FEW015 BKN090 23/17 A3006=
200603301600 METAR MRPV 301600Z 08015G25KT 9999 FEW020 BKN090 24/17 A3004=
200603301700 METAR MRPV 301700Z 08015G25KT 9999 SCT025 BKN090 24/17 A3004=
200603301800 METAR MRPV 301800Z 09012G22KT 9999 SCT0 25 SCT040 25/17 A3003=
200603301900 METAR MRPV 301900Z 08015G25KT 9999 SCT025 SCT040 25/17 A3000=
200603302000 METAR MRPV 302000Z 09016G26KT 9999 SCT025 SCT040 26/17 A2997=
200603302100 METAR MRPV 302100Z 10012G22KT 9999 SCT020 BKN030 24/17 A2996=
200603302200 METAR MRPV 302200Z 08012G22KT 9999 SCT020 BKN030 22/17 A2997 RN N E=
200603302300 METAR MRPV 302300Z 07010G20KT 9999 SCT020 BKN040 22/17 A2998=
200603310000 METAR MRPV NIL=
200603310100 METAR MRPV NIL=
200603310200 METAR MRPV NIL=
200603310300 METAR MRPV NIL=
200603310400 METAR MRPV NIL=
200603310500 METAR MRPV NIL=
200603310600 METAR MRPV NIL=
200603310700 METAR MRPV NIL=
200603310800 METAR MRPV NIL=
200603310900 METAR MRPV NIL=
200603311000 METAR MRPV NIL=
200603311100 METAR MRPV NIL=
200603311200 METAR MRPV NIL=
200603311300 METAR MRPV 311300Z 10012G22KT 9999 SCT025 BKN250 21/16 A3007=
200603311400 METAR MRPV 311400Z 08012G22KT 9999 FEW030 SCT100 BKN250 23/16 A3009=
200603311500 METAR MRPV 311500Z 08016G26KT 9999 FEW030 BKN250 23/17 A3010=
200603311600 METAR MRPV 311600Z 07012G22KT 9999 SCT030 BKN250 24/17 A3009=
200603311700 METAR MRPV 311700Z 07016G26KT 9999 SCT030 BKN250 26/17 A3008=
200603311800 METAR MRPV 311800Z 08015G27KT 9999 FEW020 SCT035 24/16 A3007=
200603311900 METAR MRPV 311900Z 06012G24KT 9999 FEW030 SCT250 26/17 A3003=
200603312000 METAR MRPV 312000Z 07014G25KT 9999 SCT030 BKN250 27/15 A3001 CB DST S SW=
200603312100 METAR MRPV 312100Z 07015G25KT 9999 SCT030 BKN250 25/17 A3000=
200603312200 METAR MRPV 312200Z 07012G22KT 9999 SCT030 BKN250 24/16 A3000=
200603312300 METAR MRPV 312300Z 09012G22KT 9999 FEW025 OVC250 23/16 A3001=
200604010000 METAR MRPV NIL=
200604010100 METAR MRPV NIL=
200604010200 METAR MRPV NIL=
200604010300 METAR MRPV NIL=
200604010400 METAR MRPV NIL=
200604010500 METAR MRPV NIL=
200604010600 METAR MRPV NIL=
200604010700 METAR MRPV NIL=
200604010800 METAR MRPV NIL=
200604010900 METAR MRPV NIL=
200604011000 METAR MRPV NIL=
200604011100 METAR MRPV NIL=
200604011200 METAR MRPV NIL=
200604011300 METAR MRPV 011300Z 13014KT CAVOK 21/14 A3007=
200604011400 METAR MRPV 011400Z 11010G20KT CAVOK 23/14 A3008=
200604011500 METAR MRPV 011500Z 09014G24KT CAVOK 25/15 A3010=
200604011600 METAR MRPV 011600Z 08010G20KT CAVOK 26/15 A3008=
200604011700 METAR MRPV 011700Z 08010G22KT 9999 FEW030 BKN300 27/15 A3007=
200604011800 METAR MRPV 011800Z 07015G26KT 9999 FEW030 BKN300 26/15 A3005=
200604011900 METAR MRPV 011900Z 07015G25KT 9999 SCT025 BKN300 26/15 A3005=
200604012000 METAR MRPV 012000Z 07015G25KT 9999 SCT025 BKN300 26/15 A3001=
200604012100 METAR MRPV 012100Z 07010G20KT 9999 SCT025 BKN300 26/15 A2999=
200604012200 METAR MRPV 012200Z 07012G22KT 9999 FEW025 BKN300 26/15 A2998=
200604012300 METAR MRPV 012300Z 06012G22KT 9999 FEW025 BKN300 23/15 A2998=
200604020000 METAR MRPV NIL=
200604020100 METAR MRPV NIL=
200604020200 METAR MRPV NIL=
200604020300 METAR MRPV NIL=
200604020400 METAR MRPV NIL=
200604020500 METAR MRPV NIL=
200604020600 METAR MRPV NIL=
200604020700 METAR MRPV NIL=
200604020800 METAR MRPV NIL=
200604020900 METAR MRPV NIL=
200604021000 METAR MRPV NIL=
200604021100 METAR MRPV NIL=
200604021200 METAR MRPV 021200Z 11010KT CAVOK 19/14 A3001=
200604021300 METAR MRPV 021300Z 11015KT CAVOK 21/14 A3003=
200604021400 METAR MRPV 021400Z 10014KT CAVOK 22/14 A3005=
200604021500 METAR MRPV 021500Z 09015KT CAVOK 23/14 A3006=
200604021700 METAR MRPV 021700Z 08017KT CAVOK 26/13 A3004=
200604021800 METAR MRPV 021800Z 08014KT 9999 FEW045 BKN250 27/14 A3002=
200604021900 METAR MRPV 021900Z 09016KT 9999 FEW045 BKN250 27/14 A3000=
200604022000 METAR MRPV 022000Z 08016KT 9999 FEW040 BKN250 27/15 A2998=
200604022100 METAR MRPV 022100Z 08018KT 9999 FEW040 BKN250 25/15 A2996 RMK CB DST SW GST 25KT=
200604022200 METAR MRPV 022200Z 09016KT 9999 FEW035 BKN250 24/15 A2996 RMK TCU DST SW GST 21KT=
200604022300 METAR MRPV 022300Z 08013KT 9999 FEW030 BKN250 23/15 A2997 RMK CB DST SW R=
200604030000 METAR MRPV NIL=
200604030100 METAR MRPV NIL=
200604030200 METAR MRPV NIL=
200604030300 METAR MRPV NIL=
200604030400 METAR MRPV NIL=
200604030500 METAR MRPV NIL=
200604030600 METAR MRPV NIL=
200604030700 METAR MRPV NIL=
200604030800 METAR MRPV NIL=
200604030900 METAR MRPV NIL=
200604031000 METAR MRPV NIL=
200604031100 METAR MRPV NIL=
200604031200 METAR MRPV 031200Z 11014KT 9999 FEW030 BKN220 19/13 A3000=
200604031300 METAR MRPV 031300Z 10014KT 9999 FEW035 BKN220 20/14 A3001=
200604031400 METAR MRPV 031400Z 09018KT 9999 FEW040 BKN220 22/14 A3004=
200604031500 METAR MRPV 031500Z 08020KT 9999 FEW040 BKN220 22/14 A3005=
200604031600 METAR MRPV 031600Z 07017KT 9999 FEW045 BKN250 22/15 A3005 RMK RAFAGAS HASTA 25NUDOS=
200604031700 METAR MRPV 031700Z 07018KT 9999 FEW030 SCT250 24/13 A3005 RMK RFGS 25KT DZ DST NE=
200604031800 METAR MRPV 031800Z 07018KT 9999 FEW035 BKN250 24/12 A3003 RMK RFGS 24KT=
200604031900 METAR MRPV 031900Z 07017KT 9999 FEW045 BKN220 24/13 A3000=
200604032000 METAR MRPV 032000Z 07017KT 9999 FEW040 SCT220 24/17 A2997=
200604032100 METAR MRPV 032100Z 08020KT 9999 FEW035 SCT250 24/13 A2996=
200604032200 METAR MRPV 032200Z 08020KT 9999 FEW045 SCT250 24/13 A2995=
200604032300 METAR MRPV 032300Z 08016KT 9999 FEW045 SCT250 28/21 A2980=
200604040000 METAR MRPV NIL=
200604040100 METAR MRPV NIL=
200604040200 METAR MRPV NIL=
200604040300 METAR MRPV NIL=
200604040400 METAR MRPV NIL=
200604040500 METAR MRPV NIL=
200604040600 METAR MRPV NIL=
200604040700 METAR MRPV NIL=
200604040800 METAR MRPV NIL=
200604040900 METAR MRPV NIL=
200604041000 METAR MRPV NIL=
200604041100 METAR MRPV NIL=
200604041200 METAR MRPV 041200Z 12012KT CAVOK 18/13 A3001=
200604041300 METAR MRPV 041300Z 11014KT CAVOK 20/15 A3002=
200604041400 METAR MRPV 041400Z 09018KT CAVOK 22/15 A3003=
200604041500 METAR MRPV 041500Z 09017KT CAVOK 23/15 A3003=
200604041600 METAR MRPV 041600Z 09020KT 9999 FEW045 BKN250 24/16 A3003 DZ DST NE=
200604041700 METAR MRPV 041700Z 07016KT 9999 FEW040 BKN250 26/15 A3002 FU E=
200604041900 METAR MRPV 041900Z 08015KT 9999 FEW040 BKN250 26/16 A2999 TCU DST SW=
200604042000 METAR MRPV 042000Z 09018KT 9999 FEW035 BKN250 26/16 A2995 TCU RN DST SSW=
200604042100 METAR MRPV 042100Z 09018KT 9999 FEW035 SCT250 26/16 A2993 DZ DST NE CB DST SE=
200604042200 METAR MRPV 042200Z 09018KT 9999 FEW035 SCT250 24/16 A2993 RMK CB DST S GST 23 KT=
200604042300 METAR MRPV NIL=
200604050000 METAR MRPV NIL=
200604050100 METAR MRPV NIL=
200604050200 METAR MRPV NIL=
200604050300 METAR MRPV NIL=
200604050400 METAR MRPV NIL=
200604050500 METAR MRPV NIL=
200604050600 METAR MRPV NIL=
200604050700 METAR MRPV NIL=
200604050800 METAR MRPV NIL=
200604050900 METAR MRPV NIL=
200604051000 METAR MRPV NIL=
200604051100 METAR MRPV NIL=
200604051200 METAR MRPV NIL=
200604051300 METAR MRPV 051300Z 10010G20KT 9999 FEW035 BKN280 20/15 A3004=
200604051400 METAR MRPV 051400Z 10012G22KT 9999 FEW025 BKN280 21/14 A3005=
200604051500 METAR MRPV 051500Z 09012G24KT 9999 FEW025 BKN280 22/15 A3007=
200604051600 METAR MRPV 051600Z 08012G22KT 9999 FEW025 BKN280 23/15 A3006=
200604051700 METAR MRPV 051700Z 08012G22KT 9999 FEW025 BKN280 24/15 A3005=
200604051800 METAR MRPV 051800Z 08012G24KT 9999 FEW025 BKN280 24/15 A3004=
200604051900 METAR MRPV 051900Z 08012G23KT 9999 FEW025 BKN280 26/16 A3001=
200604052000 METAR MRPV 052000Z 07012G24KT 9999 SCT030 BKN280 26/16 A2998=
200604052100 METAR MRPV 052100Z 07012G22KT 9999 SCT030 BKN280 25/15 A2997=
200604052200 METAR MRPV 052200Z 08012G24KT 9999 SCT030 BKN280 24/16 A2997=
200604052300 METAR MRPV 052300Z 09012G22KT 9999 SCT030 BKN280 23/21 A2985=
200604060000 METAR MRPV NIL=
200604060100 METAR MRPV NIL=
200604060200 METAR MRPV NIL=
200604060300 METAR MRPV NIL=
200604060400 METAR MRPV NIL=
200604060500 METAR MRPV NIL=
200604060600 METAR MRPV NIL=
200604060700 METAR MRPV NIL=
200604060800 METAR MRPV NIL=
200604060900 METAR MRPV NIL=
200604061000 METAR MRPV NIL=
200604061100 METAR MRPV NIL=
200604061200 METAR MRPV NIL=
200604061300 METAR MRPV 061300Z 10010G20KT CAVOK 21/14 A3004=
200604061400 METAR MRPV 061400Z 10010G20KT CAVOK 23/14 A3005=
200604061500 METAR MRPV 061500Z 09010G20KT CAVOK 25/13 A3006=
200604061600 METAR MRPV 061600Z 08012KT 9999 FEW030 SCT270 26/14 A3004=
200604061700 METAR MRPV 061700Z 09014KT 9999 FEW030 SCT270 27/14 A3006=
200604061800 METAR MRPV 061800Z 07010G20KT 9999 SCT025TCU SCT270 27/14 A3000=
200604061900 METAR MRPV 061900Z 07015KT 9999 SCT025TCU SCT270 28/15 A2997 HZ W=
200604062000 METAR MRPV 062000Z 17008KT 9999 FEW015TCU SCT030TCU 27/14 A2995=
200604062100 METAR MRPV 062100Z 27012KT 9999 SCT015TCU SCT030 25/18 A2993=
200604062200 METAR MRPV 062200Z 28010KT 9999 FEW015 SCT030 BKN270 25/18 A2994=
200604062300 METAR MRPV 062300Z 08012KT 9999 -RA SCT015 BKN030 22/18 A2994=
200604070000 METAR MRPV NIL=
200604070100 METAR MRPV NIL=
200604070200 METAR MRPV NIL=
200604070300 METAR MRPV NIL=
200604070400 METAR MRPV NIL=
200604070500 METAR MRPV NIL=
200604070600 METAR MRPV NIL=
200604070700 METAR MRPV NIL=
200604070800 METAR MRPV NIL=
200604070900 METAR MRPV NIL=
200604071000 METAR MRPV NIL=
200604071100 METAR MRPV NIL=
200604071200 METAR MRPV NIL=
200604071300 METAR MRPV 071300Z 12015KT CAVOK 21/13 A3003=
200604071400 METAR MRPV 071400Z 11015KT CAVOK 24/13 A3005=
200604071500 METAR MRPV 071500Z 09015KT CAVOK 26/13 A3006=
200604071600 METAR MRPV 071600Z 08010G20KT CAVOK 27/13 A3005=
200604071700 METAR MRPV 071700Z 08010G20KT 9999 FEW030 BKN250 27/13 A3004=
200604071800 METAR MRPV 071800Z 0701G20KT 9999 SCT030 BKN250 28/14 A3000=
200604071900 METAR MRPV 071900Z 07014KT 9999 SCT030 BKN250 28/14 A2999=
200604072000 METAR MRPV 072000Z 08016KT 9999 SCT025TCU BKN250 29/15 A2996 RMK RN DST W NW CB DST SW=
200604072100 METAR MRPV 072100Z 27012KT 9999 FEW015TCU SCT030 BKN250 25/18 A2996 RMK RASH DST S/W/NW/N CB DST S=
200604072200 METAR MRPV 072200Z VRB03KT 9999 FEW010 BKN030 24/17 A2997 RMK RN DST SW/W/NW=
200604072300 METAR MRPV 072300Z 08012KT 9999 FEW010 BKN030 22/16 A2997 RMK RN SW/NW=
200604080000 METAR MRPV NIL=
200604080100 METAR MRPV NIL=
200604080200 METAR MRPV NIL=
200604080300 METAR MRPV NIL=
200604080400 METAR MRPV NIL=
200604080500 METAR MRPV NIL=
200604080600 METAR MRPV NIL=
200604080700 METAR MRPV NIL=
200604080800 METAR MRPV NIL=
200604080900 METAR MRPV NIL=
200604081000 METAR MRPV NIL=
200604081100 METAR MRPV NIL=
200604081200 METAR MRPV NIL=
200604081300 METAR MRPV 081300Z 09014KT CAVOK 22/12 A3003=
200604081400 METAR MRPV 081400Z 12012KT CAVOK 26/10 A3005=
200604081500 METAR MRPV 081500Z 09014KT CAVOK 27/10 A3005=
200604081600 METAR MRPV 081600Z 32012KT CAVOK 28/10 A3005=
200604081700 METAR MRPV 081700Z 28018KT 9999 FEW040 BKN250 27/14 A3004=
200604081800 METAR MRPV 081800Z 28020KT 9999 SCT040 BKN250 28/16 A3002=
200604081900 METAR MRPV 081900Z 29015KT 9999 SCT035 BKN250 29/16 A2999=
200604082000 METAR MRPV NIL=
200604082100 METAR MRPV 082100Z 27021KT 9999 BKN030 28/17 A2995=
200604082200 METAR MRPV 082200Z 24015KT 9999 BKN030 28/18 A2995=
200604082300 METAR MRPV 082300Z 23014KT 9999 BKN040 28/18 A2977=
200604090000 METAR MRPV NIL=
200604090100 METAR MRPV NIL=
200604090200 METAR MRPV NIL=
200604090300 METAR MRPV NIL=
200604090400 METAR MRPV NIL=
200604090500 METAR MRPV NIL=
200604090600 METAR MRPV NIL=
200604090700 METAR MRPV NIL=
200604090800 METAR MRPV NIL=
200604090900 METAR MRPV NIL=
200604091000 METAR MRPV NIL=
200604091100 METAR MRPV NIL=
200604091200 METAR MRPV NIL=
200604091300 METAR MRPV 091300Z 13020KT CAVOK 23/17 A3003=
200604091400 METAR MRPV 091400Z 12018KT CAVOK 24/16 A3004=
200604091500 METAR MRPV 091500Z 14015KT 9999 FEW040 SCT250 25/17 A3005=
200604091600 METAR MRPV 091600Z 08015KT 9999 SCT035 27/16 A3003=
200604091700 METAR MRPV 091700Z 08016KT 9999 SCT040 28/16 A3001=
200604091800 METAR MRPV NIL=
200604091900 METAR MRPV 091900Z 07018KT 9999 FEW030 BKN040 29/18 A2996=
200604092000 METAR MRPV 092000Z 27015KT 9999 BKN040 27/19 A2993=
200604092100 METAR MRPV 092100Z 27022KT 9999 SCT025 BKN080 26/19 A2991 RN N NE=
200604092200 METAR MRPV 092200Z 08014KT 5000 VCSH SCT012TCU SCT020 BKN080 24/17 A2993=
200604092300 METAR MRPV 092300Z 13008KT 9999 -TS SCT018CB BKN030 22/19 A2993=
200604100000 METAR MRPV NIL=
200604100100 METAR MRPV NIL=
200604100200 METAR MRPV NIL=
200604100300 METAR MRPV NIL=
200604100400 METAR MRPV NIL=
200604100500 METAR MRPV NIL=
200604100600 METAR MRPV NIL=
200604100700 METAR MRPV NIL=
200604100800 METAR MRPV NIL=
200604100900 METAR MRPV NIL=
200604101000 METAR MRPV NIL=
200604101100 METAR MRPV NIL=
200604101200 METAR MRPV NIL=
200604101300 METAR MRPV 101300Z 12015KT CAVOK 21/16 A3000=
200604101400 METAR MRPV NIL=
200604101500 METAR MRPV 101500Z 09028KT 9999 FEW030 BKN120 23/16 A3003=
200604101600 METAR MRPV 101600Z 07026KT 9999 FEW030 SCT130 25/16 A3003=
200604101700 METAR MRPV 101700Z 07022KT 9999 BKN035 26/17 A3002=
200604101800 METAR MRPV 101800Z 07033KT 9999 SCT025 BKN080 26/16 A3000=
200604101900 METAR MRPV 101900Z 09022KT 9999 BKN035 27/16 A2997=
200604102100 METAR MRPV 102100Z 08022KT 9999 SCT025 BKN040 27/16 A2991=
200604102200 METAR MRPV 102200Z 08024KT 9999 BKN030 27/16 A2990=
200604102300 METAR MRPV 102300Z 08020KT 9999 SCT020 BKN080 25/17 A2991=
200604110000 METAR MRPV NIL=
200604110100 METAR MRPV NIL=
200604110200 METAR MRPV NIL=
200604110300 METAR MRPV NIL=
200604110400 METAR MRPV NIL=
200604110500 METAR MRPV NIL=
200604110600 METAR MRPV NIL=
200604110700 METAR MRPV NIL=
200604110800 METAR MRPV NIL=
200604110900 METAR MRPV NIL=
200604111000 METAR MRPV NIL=
200604111100 METAR MRPV NIL=
200604111200 METAR MRPV 111200Z 08015KT 9999 FEW020 BKN250 21/17 A2999=
200604111300 METAR MRPV 111300Z 09018KT 9999 FEW020 BKN250 22/17 A3000=
200604111400 METAR MRPV 111400Z 10018KT 9999 FEW020 BKN250 23/17 A3001=
200604111500 METAR MRPV 111500Z 07015G25KT 9999 FEW020 BKN250 23/16 A3003=
200604111600 METAR MRPV 111600Z 089018G28KT 9999 FEW020 BKN250 25/16 A3002=
200604111700 METAR MRPV 111700Z 08015G25KT 9999 SCT025 BKN250 23/16 A3003 RN N E=
200604111800 METAR MRPV 111800Z 08015G25KT 9999 SCT025 BKN250 23/16 A3001=
200604111900 METAR MRPV 111900Z 09014G24KT 9999 SCT025 BKN100 23/16 A2998=
200604112000 METAR MRPV 112000Z 09012G22KT 9999 SCT025 SCT100 BKN250 24/16 A2995=
200604112100 METAR MRPV 112100Z 07012G24KT 9999 SCT025 SCT100 BKN250 22/15 A2994 RMK RN DST E/N=
200604112200 METAR MRPV 112200Z 07012G22KT 9999 SCT025 SCT100 BKN250 23/15 A2994=
200604112300 METAR MRPV 112300Z 08010G20KT 9999 SCT025 SCT100 BKN250 21/14 A2995=
200604120000 METAR MRPV NIL=
200604120100 METAR MRPV NIL=
200604120200 METAR MRPV NIL=
200604120300 METAR MRPV NIL=
200604120400 METAR MRPV NIL=
200604120500 METAR MRPV NIL=
200604120600 METAR MRPV NIL=
200604120700 METAR MRPV NIL=
200604120800 METAR MRPV NIL=
200604120900 METAR MRPV NIL=
200604121000 METAR MRPV NIL=
200604121100 METAR MRPV NIL=
200604121200 METAR MRPV NIL=
200604121300 METAR MRPV 121300Z 09012G24KT CAVOK 21/14 A3003=
200604121400 METAR MRPV 121400Z 09012G22KT CAVOK 22/14 A3006=
200604121500 METAR MRPV 121500Z 08012G22KT CAVOK 24/15 A3006=
200604121600 METAR MRPV 121600Z 07015G27KT 9999 FEW030 BKN250 25/14 A3006=
200604121800 METAR MRPV 121800Z 09010G22KT 9999 SCT025 BKN250 25/14 A3006=
200604121900 METAR MRPV 121900Z 08012G22KT 9999 SCT025 BKN250 25/14 A3002 RMK TCU DST SW=
200604122000 METAR MRPV 122000Z 08012G23KT 9999 SCT025 BKN250 24/15 A3000=
200604122100 METAR MRPV 122100Z 08012G23KT 9999 SCT025 BKN250 24/15 A3000 RMK DZ DST N/NE=
200604122200 METAR MRPV 122200Z 08012G22KT 9999 SCT025 BKN250 22/14 A3000=
200604122300 METAR MRPV 122300Z 09010G20KT 9999 SCT025 OVC250 21/15 A3001=
200604130000 METAR MRPV NIL=
200604130100 METAR MRPV NIL=
200604130200 METAR MRPV NIL=
200604130300 METAR MRPV NIL=
200604130400 METAR MRPV NIL=
200604130500 METAR MRPV NIL=
200604130600 METAR MRPV NIL=
200604130700 METAR MRPV NIL=
200604130800 METAR MRPV NIL=
200604130900 METAR MRPV NIL=
200604131000 METAR MRPV NIL=
200604131100 METAR MRPV NIL=
200604131200 METAR MRPV NIL=
200604131300 METAR MRPV 131300Z 10010G20KT CAVOK 21/11 A3006=
200604131400 METAR MRPV 131400Z 09012G22KT CAVOK 22/11 A3007=
200604131600 METAR MRPV 131600Z 08010G20KT CAVOK 25/12 A3007=
200604131700 METAR MRPV 131700Z 08015KT 9999 FEW030 BKN250 26/13 A3006=
200604131800 METAR MRPV 131800Z 07015KT 9999 FEW030 BKN250 26/13 A3004=
200604131900 METAR MRPV 131900Z 08015KT 9999 SCT030 BKN250 25/14 A30010=
200604132000 METAR MRPV 132000Z 08018KT 9999 FEW015 SCT030 BKN250 23/15 A2999=
200604132100 METAR MRPV 132100Z 10015KT 9999 4000W RA FEW010 SCT025 OVC250 20/16 A3000=
200604132200 METAR MRPV 132200Z 07010KT 9999 RA FEW010 SCT025 OVC250 20/16 A3001=
200604132300 METAR MRPV 132300Z 09010KT 9999 FEW015 SCT030 BKN250 20/16 A3001 RERA=
200604140000 METAR MRPV NIL=
200604140100 METAR MRPV NIL=
200604140200 METAR MRPV NIL=
200604140300 METAR MRPV NIL=
200604140400 METAR MRPV NIL=
200604140500 METAR MRPV NIL=
200604140600 METAR MRPV NIL=
200604140700 METAR MRPV NIL=
200604140800 METAR MRPV NIL=
200604140900 METAR MRPV NIL=
200604141000 METAR MRPV NIL=
200604141100 METAR MRPV NIL=
200604141200 METAR MRPV NIL=
200604141300 METAR MRPV 141300Z 11020KT CAVOK 20/13 A3005=
200604141400 METAR MRPV 141400Z 09028KT CAVOK 22/14 A3002=
200604141500 METAR MRPV 141500Z 08026KT CAVOK 23/14 A3007=
200604141600 METAR MRPV 141600Z 09025KT 9999 FEW040 24/14 A3006=
200604141700 METAR MRPV 141700Z 07020KT 9999 FEW040 24/14 A3006=
200604141800 METAR MRPV 141800Z 08020KT 9999 SCT030 26/14 A3003=
200604141900 METAR MRPV 141900Z 08016KT 9999 VCSH SCT025TCU BKN040 23/14 A3000 RN S=
200604142100 METAR MRPV 142100Z 11009KT 9999 SCT020 BKN080 22/13 A2997=
200604142200 METAR MRPV 142200Z 11008KT 9999 SCT020 BKN100 22713 A2996=
200604142300 METAR MRPV 142300Z 11008KT 9999 SCT025 BKN100 22/13 A2997=
200604150000 METAR MRPV NIL=
200604150100 METAR MRPV NIL=
200604150200 METAR MRPV NIL=
200604150300 METAR MRPV NIL=
200604150400 METAR MRPV NIL=
200604150500 METAR MRPV NIL=
200604150600 METAR MRPV NIL=
200604150700 METAR MRPV NIL=
200604150800 METAR MRPV NIL=
200604150900 METAR MRPV NIL=
200604151000 METAR MRPV NIL=
200604151100 METAR MRPV NIL=
200604151200 METAR MRPV NIL=
200604151300 METAR MRPV 151300Z 12008KT CAVOK 21/11 A3006=
200604151400 METAR MRPV 151400Z 11012KT CAVOK 22/13 A3008=
200604151500 METAR MRPV 151500Z 09011KT CAVOK 24/13 A3008=
200604151600 METAR MRPV 151600Z 09008KT CAVOK 26/12 A3006=
200604151700 METAR MRPV 151700Z 08006KT 9999 FEW040 28/13 A3004=
200604151800 METAR MRPV 151800Z 26008KT 9999 SCT040 29/12 A3001=
200604151900 METAR MRPV 151900Z 26010KT 9999 SCT040 28/14 A2999=
200604152200 METAR MRPV 152200Z 27008KT 9999 SCT020 BKN080 25/17 A2998=
200604152300 METAR MRPV 152300Z 09012KT 9999 SCT015TCU SCT025 BKN080 24/16 A2999=
200604160000 METAR MRPV NIL=
200604160100 METAR MRPV NIL=
200604160200 METAR MRPV NIL=
200604160300 METAR MRPV NIL=
200604160400 METAR MRPV NIL=
200604160500 METAR MRPV NIL=
200604160600 METAR MRPV NIL=
200604160700 METAR MRPV NIL=
200604160800 METAR MRPV NIL=
200604160900 METAR MRPV NIL=
200604161000 METAR MRPV NIL=
200604161100 METAR MRPV NIL=
200604161200 METAR MRPV NIL=
200604161300 METAR MRPV 161300Z 13006KT CAVOK 22/13 A3008=
200604161400 METAR MRPV 161400Z 12009KT CAVOK 24/13 A3010=
200604161500 METAR MRPV 161500Z 09009KT CAVOK 25/14 A2996=
200604161600 METAR MRPV 161600Z 09008KT 9999 FEW040 26/13 A3010=
200604161700 METAR MRPV 161700Z 05004KT 9999 SCT040 28/12 A3008=
200604161800 METAR MRPV 161800Z 04005KT 9999 SCT040 29/12 A3005=
200604161900 METAR MRPV 161900Z 27005KT 9999 SCT040 29/15 A3003=
200604162000 METAR MRPV NIL=
200604162100 METAR MRPV 162100Z 18007KT 9999 SCT020TCU BKN040 27/17 A3000=
200604162200 METAR MRPV 162200Z 00000KT 9999 SCT015TCU BKN040 26/27 A3000=
200604162300 METAR MRPV 162300Z 22004KT 9999 FEW012CB SCT020 BKN100 25/18 A3001 RMK 6000 N VCSH=
200604170000 METAR MRPV NIL=
200604170100 METAR MRPV NIL=
200604170200 METAR MRPV NIL=
200604170300 METAR MRPV NIL=
200604170400 METAR MRPV NIL=
200604170500 METAR MRPV NIL=
200604170600 METAR MRPV NIL=
200604170700 METAR MRPV NIL=
200604170800 METAR MRPV NIL=
200604170900 METAR MRPV NIL=
200604171000 METAR MRPV NIL=
200604171100 METAR MRPV NIL=
200604171200 METAR MRPV NIL=
200604171300 METAR MRPV 171300Z 09006KT CAVOK 20/14 A3006=
200604171400 METAR MRPV 171400Z VRB03KT CAVOK 25/14 A3008 RMK HZ W=
200604171500 METAR MRPV 171500Z 27006KT CAVOK 26/15 A3008 RMK HZ W=
200604171600 METAR MRPV 171600Z 28008KT CAVOK 26/15 A3007 RMK HZ W=
200604171700 METAR MRPV 171700Z 26010KT 9999 FEW030 OVC250 28/15 A3006=
200604171800 METAR MRPV 171800Z 27012KT 9999 FEW030 OVC250 28/15 A3004 RMK HZ W=
200604171900 METAR MRPV 171900Z 26012KT 9999 SCT025TCU OVC250 27/18 A3002 RMK HZ W=
200604172000 METAR MRPV 172000Z 27012KT 9999 SCT025TCU BKN250 27/18 A3000 RMK HZ LGT W=
200604172100 METAR MRPV 172100Z 26012KT 9999 SCT025TCU BKN250 27/17 A2999 RMK HZ ALL W QUAD=
200604172200 METAR MRPV 172200Z 26010KT 9999 FEW015TCU SCT030 BKN250 25/18 A2999 RMK RN/HZ W QUAD=
200604172300 METAR MRPV 172300Z 25010KT 9999 SCT020 BKN250 22/18 A2999=
200604180000 METAR MRPV NIL=
200604180100 METAR MRPV NIL=
200604180200 METAR MRPV NIL=
200604180300 METAR MRPV NIL=
200604180400 METAR MRPV NIL=
200604180500 METAR MRPV NIL=
200604180600 METAR MRPV NIL=
200604180700 METAR MRPV NIL=
200604180800 METAR MRPV NIL=
200604180900 METAR MRPV NIL=
200604181000 METAR MRPV NIL=
200604181100 METAR MRPV NIL=
200604181200 METAR MRPV NIL=
200604181400 METAR MRPV 181400Z VRB03KT CAVOK 24/15 A3005 RMK HZ W/E=
200604181500 METAR MRPV 181500Z 28010KT 9999 4000W HZ FEW030 BKN250 24/17 A3005=
200604181600 METAR MRPV 181600Z 26010KT 9999 FEW030 BKN250 26/16 A3004 RMK HZ W/E=
200604181700 METAR MRPV 181700Z 28012KT 9999 SCT025 BKN250 28/15 A3003 RMK HZ W/E=
200604181800 METAR MRPV 181800Z 28014KT 9999 FEW015TCU SCT030 28/15 A3001 RMK HZ W=
200604181900 METAR MRPV 181900Z 27014KT 9999 FEW015TCU SCT030 29/17 A2999 RMK HZ W=
200604182000 METAR MRPV 182000Z 27015KT 9999 FEW015TCU SCT030 29/17 A2996 RMK HZ E/W=
200604182100 METAR MRPV 182100Z 26013KT 9999 FEW015TCU SCT030 28/15 A2994=
200604182200 METAR MRPV 182200Z 25012KT 9999 FEW015TCU BKN030 25/19 A2994 HZ E W RN S=
200604182300 METAR MRPV 182300Z 24007KT 9999 FEW015 BKN030 24/18 A2996 HZ W RN E=
200604190000 METAR MRPV NIL=
200604190100 METAR MRPV NIL=
200604190200 METAR MRPV NIL=
200604190300 METAR MRPV NIL=
200604190400 METAR MRPV NIL=
200604190500 METAR MRPV NIL=
200604190600 METAR MRPV NIL=
200604190700 METAR MRPV NIL=
200604190800 METAR MRPV NIL=
200604190900 METAR MRPV NIL=
200604191000 METAR MRPV NIL=
200604191100 METAR MRPV NIL=
200604191200 METAR MRPV NIL=
200604191300 METAR MRPV 191300Z VRB03KT 9999 4000W HZ FEW018 BKN250 23/16 A3001 HZ E CB DST NE=
200604191400 METAR MRPV 191400Z 12009KT 9999 4000W HZ FEW015 SCT090 25/17 A3002 HZ E W CB DST S=
200604191500 METAR MRPV 191500Z 10008KT 9999 4000W HZ FEW020 BKN250 28/11 A3002 HZ E W CB DST S=
200604191600 METAR MRPV 191600Z 07010KT 9999 4000W HZ FEW025 BKN250 29/12 A3001 HZ W E CB DST S=
200604191700 METAR MRPV NIL=
200604191800 METAR MRPV 191800Z 27016KT 9999 4000W HZ SCT020 BKN250 29/19 A2998 HZ E W TCU E=
200604191900 METAR MRPV 191900Z 28020KT 9999 5000W HZ FEW015TCU SCT030 BKN250 28/18 A2996 HZ E W=
200604192000 METAR MRPV 192000Z 26015KT 9999 5000W HZ SCT012STCU SCT030 BKN250 28/19 A2995 HZ E W RASH E NE=
200604192100 METAR MRPV NIL=
200604192200 METAR MRPV 192200Z 08012KT 9999 5000W HZ FEW012TCU SCT030 BKN250 24/17 A2993 HZ W E RN DST W NW=
200604192300 METAR MRPV 192300Z 10010KT 9999 5000W VCSH SCT010TCU SCT030 BKN250 23/17 A2994=
200604200000 METAR MRPV NIL=
200604200100 METAR MRPV NIL=
200604200200 METAR MRPV NIL=
200604200300 METAR MRPV NIL=
200604200400 METAR MRPV NIL=
200604200500 METAR MRPV NIL=
200604200600 METAR MRPV NIL=
200604200700 METAR MRPV NIL=
200604200800 METAR MRPV NIL=
200604200900 METAR MRPV NIL=
200604201000 METAR MRPV NIL=
200604201100 METAR MRPV NIL=
200604201200 METAR MRPV NIL=
200604201300 METAR MRPV 201300Z 12010KT CAVOK 23/11 A2998 HZ W NW=
200604201400 METAR MRPV 201400Z 12007KT CAVOK 26/10 A3001 HZ W CB S=
200604201500 METAR MRPV 201500Z 10010KT CAVOK 28/09 A3001 HZ W CB S=
200604201600 METAR MRPV 201600Z 07010KT CAVOK 29/10 A3000 HZ ARND CB DST S SW=
200604201700 METAR MRPV NIL=
200604201800 METAR MRPV 201800Z 28012KT 9999 SCT035 BKN250 29/19 A2998 HZ ARND=
200604201900 METAR MRPV 201900Z 28014KT 9999 SCT030 BKN250 28/19 A2979 CB RN N=
200604202000 METAR MRPV 202000Z NIL=
200604202100 METAR MRPV 202100Z 00000KT 9999 RA SCT015 BKN080 22/19 A2995 RMK VSBY NW N E 5KM DUE RN=
200604202200 METAR MRPV 202200Z 00000KT 9999 RERA SCT030 OVC100 22/20 A2994 RN SW=
200604202300 METAR MRPV 202300Z 00000KT 9999 FEW025 SCT035 BKN100 22/19 A2995=
200604210000 METAR MRPV NIL=
200604210100 METAR MRPV NIL=
200604210200 METAR MRPV NIL=
200604210300 METAR MRPV NIL=
200604210400 METAR MRPV NIL=
200604210500 METAR MRPV NIL=
200604210600 METAR MRPV NIL=
200604210700 METAR MRPV NIL=
200604210800 METAR MRPV NIL=
200604210900 METAR MRPV NIL=
200604211000 METAR MRPV NIL=
200604211100 METAR MRPV NIL=
200604211200 METAR MRPV NIL=
200604211300 METAR MRPV 211300Z 12008KT CAVOK 23/15 A3000=
200604211400 METAR MRPV 211400Z 09013KT CAVOK 24/15 A3001=
200604211500 METAR MRPV 211500Z 07010KT 9999 FEW040 SCT250 26/16 A3001=
200604211600 METAR MRPV 211600Z 09013KT 9999 FEW040 28/17 A3000=
200604211700 METAR MRPV 211700Z 06014KT 9999 SCT035 28/17 A2999=
200604211800 METAR MRPV 211800Z 07012KT 9999 SCT030 29/18 A2997=
200604211900 METAR MRPV 211900Z 08013KT 9999 BKN030 28/18 A2994=
200604212100 METAR MRPV 212100Z 07016KT 9999 BKN030 28/19 A2990 RMK CB/RN DST N=
200604212200 METAR MRPV 212200Z 07012KT 9999 SCT020TCU BKN035 26/19 A2990 RMK CB RN DST W=
200604212300 METAR MRPV 212300Z 07008KT 9999 FEW010TCU SCT025 BKN080 24/18 A2993=
200604220000 METAR MRPV NIL=
200604220100 METAR MRPV NIL=
200604220200 METAR MRPV NIL=
200604220300 METAR MRPV NIL=
200604220400 METAR MRPV NIL=
200604220500 METAR MRPV NIL=
200604220600 METAR MRPV NIL=
200604220700 METAR MRPV NIL=
200604220800 METAR MRPV NIL=
200604220900 METAR MRPV NIL=
200604221000 METAR MRPV NIL=
200604221100 METAR MRPV NIL=
200604221200 METAR MRPV NIL=
200604221300 METAR MRPV 221300Z 10010KT 9999 SCT025 23/18 A2999=
200604221400 METAR MRPV 221400Z 11012KT 9999 BKN030 24/18 A3001=
200604221500 METAR MRPV NIL=
200604221600 METAR MRPV 221600Z 08017KT 9999 BKN030 27/18 A3001=
200604221700 METAR MRPV 221700Z 07017KT 9999 SCT025 BKN100 26/18 A2998=
200604221800 METAR MRPV 221800Z 07016KT 9999 SCT030 BKN100 27/18 A2997=
200604221900 METAR MRPV 221900Z 07015KT 9999 BKN025 28/18 A2995=
200604222000 METAR MRPV 222000Z 07014KT 9999 BKN030 28/18 A2991=
200604222100 METAR MRPV 222100Z 06015KT 9999 FEW030 SCT080 28/18 A2989=
200604222200 METAR MRPV NIL=
200604222300 METAR MRPV NIL=
200604230000 METAR MRPV NIL=
200604230100 METAR MRPV NIL=
200604230200 METAR MRPV NIL=
200604230300 METAR MRPV NIL=
200604230400 METAR MRPV NIL=
200604230500 METAR MRPV NIL=
200604230600 METAR MRPV NIL=
200604230700 METAR MRPV NIL=
200604230800 METAR MRPV NIL=
200604230900 METAR MRPV NIL=
200604231000 METAR MRPV NIL=
200604231100 METAR MRPV NIL=
200604231200 METAR MRPV NIL=
200604231300 METAR MRPV 231300Z 11019KT 9999 FEW025 BKN250 24/18 A2999=
200604231400 METAR MRPV 231400Z 09022KT 9999 FEW025 BKN250 25/18 A3002=
200604231500 METAR MRPV 231500Z 09015G25KT 9999 FEW025 BKN250 26/17 A3003=
200604231600 METAR MRPV 231600Z 07015G26KT 9999 FEW025 BKN250 26/18 A3002=
200604231700 METAR MRPV 231700Z 07015G25KT 9999 SCT025 BKN250 27/17 A3001=
200604231800 METAR MRPV 231800Z 06017G27KT 9999 SCT025 BKN250 27/16 A2999=
200604231900 METAR MRPV 231900Z 08017G27KT 9999 FEW025 SCT250 28/17 A2997=
200604232000 METAR MRPV 232000Z 07016G26KT 9999 FEW025 SCT250 28/17 A2995=
200604232100 METAR MRPV 232100Z 07024KT 9999 FEW025 SCT250 28/17 A2994=
200604232200 METAR MRPV 232200Z 07012G24KT 9999 FEW025 27/15 A2994 LINE DST TCU SW=
200604232300 METAR MRPV 232300Z 07027KT 9999 FEW025 25/15 A2996=
200604240000 METAR MRPV NIL=
200604240100 METAR MRPV NIL=
200604240200 METAR MRPV NIL=
200604240300 METAR MRPV NIL=
200604240400 METAR MRPV NIL=
200604240500 METAR MRPV NIL=
200604240600 METAR MRPV NIL=
200604240700 METAR MRPV NIL=
200604240800 METAR MRPV NIL=
200604240900 METAR MRPV NIL=
200604241000 METAR MRPV NIL=
200604241100 METAR MRPV NIL=
200604241200 METAR MRPV NIL=
200604241300 METAR MRPV 241300Z 10010G20KT 9999 FEW020 BKN250 22/15 A2999 RMK 6000 W DUE HZ=
200604241400 METAR MRPV 241400Z 10010G20KT 9999 FEW020 BKN250 23/16 A3002 6000 W HZ ARND=
200604241500 METAR MRPV 241500Z 08015G25KT 9999 FEW020 BKN250 24/16 A3002 7000 W DUE HZ=
200604241600 METAR MRPV 241600Z 06015G25KT 9999 FEW025 BKN250 25/15 A3002 8000 W DUE HZ=
200604241700 METAR MRPV 241700Z 07015G25KT 9999 FEW030 BKN250 27/16 A3001 RMK 8000 W DUE HZ=
200604241800 METAR MRPV 241800Z 07015G25KT 9999 FEW030 SCT250 29/17 A2998 8000 W DUE HZ=
200604241900 METAR MRPV 241900Z 07015G25KT 9999 FEW030 SCT250 29/17 A2995 8000 W DUE HZ TCU S SW=
200604242000 METAR MRPV 242000Z 07015G25KT 9999 SCT030 BKN250 28/18 A2993 8000 W DUE HZ CB TCU DST SSW=
200604242100 METAR MRPV 242100Z 08018G28KT 9999 SCT025 BKN250 23/17 A2994 RN DST S SW CB E/S/W=
200604242200 METAR MRPV 242200Z 07012G22KT 9999 FEW012 SCT025 BKN250 23/16 A2995 RN DST W CB SW W=
200604242300 METAR MRPV 242300Z 09012G22KT 9999 FEW012 SCT025 BKN250 22717 A2997 RN DST NW/E=
200604250000 METAR MRPV NIL=
200604250100 METAR MRPV NIL=
200604250200 METAR MRPV NIL=
200604250300 METAR MRPV NIL=
200604250400 METAR MRPV NIL=
200604250500 METAR MRPV NIL=
200604250600 METAR MRPV NIL=
200604250700 METAR MRPV NIL=
200604250800 METAR MRPV NIL=
200604250900 METAR MRPV NIL=
200604251000 METAR MRPV NIL=
200604251100 METAR MRPV NIL=
200604251200 METAR MRPV 251200Z 13010KT CAVOK 21/17 A2999 CB DST S=
200604251300 METAR MRPV 251300Z 08010KT CAVOK 22/18 A2999 CB DST S SW=
200604251400 METAR MRPV 251400Z 09010KT 9999 FEW030 SCT100 BKN250 24/18 A3002=
200604251500 METAR MRPV 251500Z 09010G20KT 9999 FEW030 SCT100 BKN250 25/18 A3003 RN DST NE N=
200604251600 METAR MRPV 251600Z 10010G20KT 9999 FEW015 BKN030 23/17 A3006 RN N E S=
200604251700 METAR MRPV 251700Z 12010G20KT 9999 FEW018 SCT030 BKN250 24/17 A3005 RN DST W/NW/N=
200604251800 METAR MRPV 251800Z 09010G20KT 9999 FEW025 BKN250 25/18 A3003 RN DST NW=
200604251900 METAR MRPV 251900Z 12010G20KT 9999 SCT030 BKN250 27/16 A2997=
200604252000 METAR MRPV 252000Z 09010G20KT 9999 FEW030 BKN250 26/14 A2994=
200604252100 METAR MRPV 252100Z 09010G21KT 9999 FEW030 BKN250 25/14 A2994=
200604252200 METAR MRPV 252200Z 08010G20KT 9999 SCT030 BKN250 24/16 A2996=
200604252300 METAR MRPV 252300Z 10010G20KT 9999 FEW030 BKN250 23/16 A2997=
200604260000 METAR MRPV NIL=
200604260100 METAR MRPV NIL=
200604260200 METAR MRPV NIL=
200604260300 METAR MRPV NIL=
200604260400 METAR MRPV NIL=
200604260500 METAR MRPV NIL=
200604260600 METAR MRPV NIL=
200604260700 METAR MRPV NIL=
200604260800 METAR MRPV NIL=
200604260900 METAR MRPV NIL=
200604261000 METAR MRPV NIL=
200604261100 METAR MRPV NIL=
200604261200 METAR MRPV 261200Z 12005KT CAVOK 20/16 A3000 HZ ARND=
200604261300 METAR MRPV 261300Z 11006KT CAVOK 22/16 A3001=
200604261400 METAR MRPV 261400Z 12008KT CAVOK 26/16 A3003 CB W=
200604261500 METAR MRPV 261500Z 10008KT 9999 SCT040 BKN220 26/16 A3004=
200604261600 METAR MRPV 261600Z 09012KT 9999 SCT040 BKN130 26/16 A3005=
200604261700 METAR MRPV 261700Z 09013KT 9999 SCT040 BKN250 27/16 A3004=
200604261800 METAR MRPV 261800Z 09011KT 9999 SCT040 29/17 A3008=
200604261900 METAR MRPV 261900Z 10012KT 9999 BKN030 29/16 A2999=
200604262000 METAR MRPV 262000Z 07012KT 9999 SCT020TCU BKN035 28/17 RMK A2996 CB/RASH SW NW=
200604262100 METAR MRPV 262100Z 23006KT 9999 TSRA FEW010 SCT015CB BKN030 20/19 A2997 RMK 5000W SHRA=
200604262200 METAR MRPV 262200Z 00000KT 9999 SCT020 BKN100 20/19 A2997 RETS=
200604262300 METAR MRPV 262300Z 10008KT 9999 FEW010 SCT020 OVC100 22/18 A2997=
200604270000 METAR MRPV NIL=
200604270100 METAR MRPV NIL=
200604270200 METAR MRPV NIL=
200604270300 METAR MRPV NIL=
200604270400 METAR MRPV NIL=
200604270500 METAR MRPV NIL=
200604270600 METAR MRPV NIL=
200604270700 METAR MRPV NIL=
200604270800 METAR MRPV NIL=
200604270900 METAR MRPV NIL=
200604271000 METAR MRPV NIL=
200604271100 METAR MRPV NIL=
200604271200 METAR MRPV 271200Z 12010KT CAVOK 21/16 A3002 CB DST S=
200604271300 METAR MRPV 271300Z 13006KT CAVOK 22/17 A3005=
200604271400 METAR MRPV 271400Z 00000KT CAVOK 22/17 A3007 RMK LEVE HZ W=
200604271500 METAR MRPV 271500Z 09009KT CAVOK 26/17 A3007 RMK LEVE HZ W=
200604271600 METAR MRPV 271600Z 08005KT 9999 SCT035 BKN250 28/17 A3005 RMK LEVE HZ W=
200604271700 METAR MRPV 271700Z 09010KT 9999 SCT030 SCT250 29/16 A3004 RMK LEVE HZ W=
200604271800 METAR MRPV 271800Z 36004KT 9999 FEW025 SCT040 27/19 A3003=
200604272000 METAR MRPV 272000Z 27010KT 9999 4000 VCSH SCT010TCU BKN025 26/20 A2999=
200604272100 METAR MRPV 272100Z 28005KT 9999 4000 RA BR SCT020 BKN080 19/18 A2999=
200604272200 METAR MRPV 272200Z 34004KT 9999 SCT025 BKN100 19/18 A3000 RERA=
200604272300 METAR MRPV 272300Z 00000KT 9999 SCT020 BKN100 20/18 A3001=
200604280000 METAR MRPV NIL=
200604280100 METAR MRPV NIL=
200604280200 METAR MRPV NIL=
200604280300 METAR MRPV NIL=
200604280400 METAR MRPV NIL=
200604280500 METAR MRPV NIL=
200604280600 METAR MRPV NIL=
200604280700 METAR MRPV NIL=
200604280800 METAR MRPV NIL=
200604280900 METAR MRPV NIL=
200604281000 METAR MRPV NIL=
200604281100 METAR MRPV NIL=
200604281200 METAR MRPV 281200Z 11008KT CAVOK 19/15 A3004=
200604281300 METAR MRPV 281300Z 13007KT CAVOK 22/16 A3005=
200604281400 METAR MRPV 281400Z 08015KT CAVOK 24/16 A3005=
200604281500 METAR MRPV 281500Z 07014KT CAVOK 25/16 A3006 RMK HZ LGT W=
200604281600 METAR MRPV 281600Z 06012KT 9999 FEW040 SCT250 26/15 A3005 RMK LGT HZ W=
200604281700 METAR MRPV NIL=
200604281800 METAR MRPV 281800Z 07012KT 9999 BKN030 28/17 A3002=
200604281900 METAR MRPV 281900Z 07012KT 9999 SCT030 BKN040 27/17 A2999=
200604282000 METAR MRPV 282000Z 06008KT 9999 SCT020 BKN035 28/17 A2998 RMK CB RASH NW DST=
200604282100 METAR MRPV 282100Z 08014KT 9999 VCSH SCT012CB BKN025 25/17 A2996 CB RASH W=
200604282200 METAR MRPV 282200Z 09011KT 9999 SCT020TCU BKN040 24/17 A2995=
200604282300 METAR MRPV 282300Z 07010KT 9999 SCT020 BKN040 24/18 A2995=
200604290000 METAR MRPV NIL=
200604290100 METAR MRPV NIL=
200604290200 METAR MRPV NIL=
200604290300 METAR MRPV NIL=
200604290400 METAR MRPV NIL=
200604290500 METAR MRPV NIL=
200604290600 METAR MRPV NIL=
200604290700 METAR MRPV NIL=
200604290800 METAR MRPV NIL=
200604290900 METAR MRPV NIL=
200604291000 METAR MRPV NIL=
200604291100 METAR MRPV NIL=
200604291200 METAR MRPV NIL=
200604291300 METAR MRPV 291300Z 10010G20KT CAVOK 22/15 A3000=
200604291400 METAR MRPV 291400Z 09010G20 9999 FEW025 SCT230 24/15 A3002=
200604291500 METAR MRPV 291500Z 08012G22KT 9999 FEW030 SCT230 26/16 A3002=
200604291600 METAR MRPV 291600Z 08012G22KT 9999 FEW025 SCT240 26/16 A3002=
200604291700 METAR MRPV 291700Z 07010G20KT 9999 SCT030 27/16 A3000=
200604291800 METAR MRPV 291800Z 08010G20KT 9999 SCT030 28/17 A2999=
200604291900 METAR MRPV 291900Z 10010G20KT 9999 FEW020TCU SCT030 27/16 A2997=
200604292000 METAR MRPV 292000Z 09012G20KT 9999 FEW020TCU SCT030 27/16 A2994=
200604292100 METAR MRPV 292100Z 09012G22KT 9999 FEW020TCU SCT030 27/17 A2992=
200604292200 METAR MRPV 292200Z 10010G20KT 9999 FEW020 BKN030 25/17 A2992=
200604292300 METAR MRPV 292300Z 11010G20KT 9999 FEW020 SCT030 25/17 A2992=
200604300000 METAR MRPV NIL=
200604300100 METAR MRPV NIL=
200604300200 METAR MRPV NIL=
200604300300 METAR MRPV NIL=
200604300400 METAR MRPV NIL=
200604300500 METAR MRPV NIL=
200604300600 METAR MRPV NIL=
200604300700 METAR MRPV NIL=
200604300800 METAR MRPV NIL=
200604300900 METAR MRPV NIL=
200604301000 METAR MRPV NIL=
200604301100 METAR MRPV NIL=
200604301200 METAR MRPV NIL=
200604301300 METAR MRPV 301300Z 11012KT CAVOK 22/15 A2999=
200604301400 METAR MRPV 301400Z 10010G20KT CAVOK 24/16 A3001=
200604301500 METAR MRPV 301500Z 09010G20KT 9999 FEW025 SCT250 25/15 A3001=
200604301600 METAR MRPV 301600Z 08010G20KT 9999 FEW025 SCT250 26/15 A3001=
200604301700 METAR MRPV 301700Z 09010G20KT 9999 SCT025 SCT250 27/15 A3000=
200604301800 METAR MRPV 301800Z 08010G20KT 9999 SCT025 SCT250 28/15 A2997=
200604301900 METAR MRPV 301900Z 09010G20KT 9999 SCT025 BKN250 28/15 A2995=
200604302000 METAR MRPV 302000Z 09010G20KT 9999 SCT025 BKN250 28/15 A2995=
200604302100 METAR MRPV 302100Z 09010G20KT 9999 SCT025 BKN250 28/15 A2991 TCU SW NW=
200604302200 METAR MRPV 302200Z 08010G20KT 9999 SCT025 BKN250 26/17 A2991=
200604302300 METAR MRPV 302300Z 33007KT 9999 SCT025 BKN250 23/20 A2993=
200605010000 METAR MRPV NIL=
200605010100 METAR MRPV NIL=
200605010200 METAR MRPV NIL=
200605010300 METAR MRPV NIL=
200605010400 METAR MRPV NIL=
200605010500 METAR MRPV NIL=
200605010600 METAR MRPV NIL=
200605010700 METAR MRPV NIL=
200605010800 METAR MRPV NIL=
200605010900 METAR MRPV NIL=
200605011000 METAR MRPV NIL=
200605011100 METAR MRPV NIL=
200605011200 METAR MRPV NIL=
200605011245 METAR MRPV 011245Z 14010KT CAVOK 21/12 A2997=
200605011300 METAR MRPV 011300Z 14012KT CAVOK 22/12 A2998=
200605011400 METAR MRPV 011400Z 14012KT CAVOK 24/12 A2999=
200605011500 METAR MRPV 011500Z 14012KT CAVOK 24/12 A2999=
200605011700 METAR MRPV 011700Z 08015KT 9999 FEW030 SCT250 29/13 A2997=
200605011800 METAR MRPV 011800Z 09016KT 9999 FEW028 SCT280 29/23 A2984=
200605011900 METAR MRPV 011900Z 08012G22KT 9999 SCT030 29/16 A2994=
200605012000 METAR MRPV 012000Z 08010G20KT 9999 SCT025 28/16 A2992=
200605012100 METAR MRPV 012100Z 08010G20KT 9999 SCT025 28/16 A2992 RMK TCU DST NW SW=
200605012200 METAR MRPV 012200Z 08010G20KT 9999 SCT025 26/16 A2993 RMK TCU DST SW NW=
200605012300 METAR MRPV 012300Z 08010G20KT 9999 SCT025 24/17 A2993 RMK TCU DST SW NW=
200605020000 METAR MRPV NIL=
200605020100 METAR MRPV NIL=
200605020200 METAR MRPV NIL=
200605020300 METAR MRPV NIL=
200605020400 METAR MRPV NIL=
200605020500 METAR MRPV NIL=
200605020600 METAR MRPV NIL=
200605020700 METAR MRPV NIL=
200605020800 METAR MRPV NIL=
200605020900 METAR MRPV NIL=
200605021000 METAR MRPV NIL=
200605021100 METAR MRPV NIL=
200605021200 METAR MRPV NIL=
200605021300 METAR MRPV 021300Z 13011KT CAVOK 21/12 A3000=
200605021400 METAR MRPV 021400Z 10011KT CAVOK 24/11 A3001=
200605021500 METAR MRPV 021500Z 09014KT CAVOK 27/11 A3002=
200605021600 METAR MRPV 021600Z 07012KT CAVOK 27/10 A3001=
200605021700 METAR MRPV 021700Z 09010KT CAVOK 28/12 A2999=
200605021800 METAR MRPV 021800Z 07015KT 9999 FEW045 28/14 A2998=
200605021900 METAR MRPV 021900Z 07014KT 9999 FEW040 28/15 A2996=
200605022000 METAR MRPV 022000Z NIL=
200605022100 METAR MRPV 022100Z 08013KT 9999 SCT040 28/16 A2994=
200605022200 METAR MRPV 022200Z 09013KT 9999 SCT040 SCT270 27/16 A2994=
200605022300 METAR MRPV 022300Z 09013KT 9999 SCT040 SCT250 25/17 A2996 RMK CBS DST S/W=
200605030000 METAR MRPV NIL=
200605030100 METAR MRPV NIL=
200605030200 METAR MRPV NIL=
200605030300 METAR MRPV NIL=
200605030400 METAR MRPV NIL=
200605030500 METAR MRPV NIL=
200605030600 METAR MRPV NIL=
200605030700 METAR MRPV NIL=
200605030800 METAR MRPV NIL=
200605030900 METAR MRPV NIL=
200605031000 METAR MRPV NIL=
200605031100 METAR MRPV NIL=
200605031200 METAR MRPV 031200Z 12012KT CAVOK 21/12 A3003 CB DST S=
200605031300 METAR MRPV 031300Z 10010KT CAVOK 22/12 A3005=
200605031400 METAR MRPV 031400Z 09010KT CAVOK 22/14 A3006=
200605031500 METAR MRPV 031500Z 12010KT CAVOK 24/13 A3007=
200605031600 METAR MRPV 031600Z 09015KT CAVOK 24/14 A3006=
200605031700 METAR MRPV 031700Z 09015KT CAVOK 26/15 A3004=
200605031800 METAR MRPV 031800Z 08016KT 9999 FEW040 BKN140 25/16 A3003=
200605031900 METAR MRPV 031900Z 08015KT 9999 SCT035 BKN140 26/17 A3001=
200605032000 METAR MRPV 032000Z 07014KT 9999 SCT030 BKN130 25/17 A2993=
200605032100 METAR MRPV 032100Z 08017KT 9999 SCT030 BKN130 25/18 A2997 RN NE=
200605032200 METAR MRPV 032200Z 09019KT 9999 SCT025 BKN120 24/17 A2997=
200605032300 METAR MRPV 032300Z 09016KT 9999 SCT020 BKN120 23/17 A2997=
200605040000 METAR MRPV NIL=
200605040100 METAR MRPV NIL=
200605040200 METAR MRPV NIL=
200605040300 METAR MRPV NIL=
200605040400 METAR MRPV NIL=
200605040500 METAR MRPV NIL=
200605040600 METAR MRPV NIL=
200605040700 METAR MRPV NIL=
200605040800 METAR MRPV NIL=
200605040900 METAR MRPV NIL=
200605041000 METAR MRPV NIL=
200605041100 METAR MRPV NIL=
200605041200 METAR MRPV 041200Z 12007KT CAVOK 19/14 A3002=
200605041300 METAR MRPV 041300Z 11010KT CAVOK 22/14 A3004=
200605041400 METAR MRPV 041400Z 10011KT CAVOK 24/14 A3005=
200605041500 METAR MRPV 041500Z 08016KT CAVOK 25/14 A3006=
200605041600 METAR MRPV 041600Z 08010KT 9999 FEW040 BKN250 26/15 A3005=
200605041700 METAR MRPV 041700Z 09011KT 9999 FEW045 BKN250 27/15 A3003=
200605041800 METAR MRPV 041800Z 07011KT 9999 SCT045 BKN250 28/16 A3001=
200605041900 METAR MRPV 041900Z 08011KT 9999 SCT045 BKN250 29/24 A2987 RMK CB DST SE=
200605042000 METAR MRPV 042000Z 07012KT 9999 SCT045 BKN250 28/16 A2997 RMK HZ W=
200605042100 METAR MRPV 042100Z 08011KT 9999 SCT040 BKN250 27/17 A2996 HZ W CB SE=
200605042200 METAR MRPV 042200Z 06006KT 9999 SCT040 BKN250 28/17 A2996=
200605042300 METAR MRPV 042300Z 10004KT 9999 FEW020 SCT035 BKN250 26/17 A2997=
200605050000 METAR MRPV NIL=
200605050100 METAR MRPV NIL=
200605050200 METAR MRPV NIL=
200605050300 METAR MRPV NIL=
200605050400 METAR MRPV NIL=
200605050500 METAR MRPV NIL=
200605050600 METAR MRPV NIL=
200605050700 METAR MRPV NIL=
200605050800 METAR MRPV NIL=
200605050900 METAR MRPV NIL=
200605051000 METAR MRPV NIL=
200605051100 METAR MRPV NIL=
200605051200 METAR MRPV 051200Z 12010KT 9999 FEW030 BKN250 20/16 A3000 RMK DZ N NE DST=
200605051300 METAR MRPV 051300Z 12010KT 9999 FEW030 BKN250 22/17 A3002 DZ N DST=
200605051400 METAR MRPV 051400Z 10010G20KT 9999 SCT030 BKN250 23/17 A3004 DZ DST N=
200605051500 METAR MRPV 051500Z 10016KT 9999 SCT025 BKN250 23/17 A3005 RN DST N NE=
200605051600 METAR MRPV 051600Z 10015KT 9999 FEW020 SCT030 BKN250 23/16 A3006 DZ NE DST=
200605051700 METAR MRPV 051700Z 09015KT 9999 FEW020 BKN250 26/17 A3005 TCU DST W=
200605051800 METAR MRPV 051800Z 07016KT 9999 FEW030 BKN250 27/17 A3003 TCU W=
200605051900 METAR MRPV 051900Z 09014KT 9999 FEW020 BKN030 26/17 A3001 RN DST NE NW=
200605052100 METAR MRPV 052100Z 10014KT 9999 SCT020TCU BKN250 28/18 A2997 RN SW=
200605052200 METAR MRPV 052200Z 09010G20KT 9999 SCT020TCU BKN250 24/17 A2996=
200605052300 METAR MRPV 052300Z 09010G20KT 9999 FEW015 SCT030 BKN25 22/17 A2998 RMK VSBY W 5KM DUE RASH=
200605060000 METAR MRPV NIL=
200605060100 METAR MRPV NIL=
200605060200 METAR MRPV NIL=
200605060300 METAR MRPV NIL=
200605060400 METAR MRPV NIL=
200605060500 METAR MRPV NIL=
200605060600 METAR MRPV NIL=
200605060700 METAR MRPV NIL=
200605060800 METAR MRPV NIL=
200605060900 METAR MRPV NIL=
200605061000 METAR MRPV NIL=
200605061100 METAR MRPV NIL=
200605061200 METAR MRPV 061200Z 13012KT CAVOK 21/16 A2999=
200605061300 METAR MRPV 061300Z 10012KT CAVOK 23/16 A3000=
200605061400 METAR MRPV 061400Z 12012KT CAVOK 26/16 A3002=
200605061500 METAR MRPV 061500Z 32008KT 9999 FEW020 BKN250 27/16 A3004 RMK VSBY W 5KM DUE HZ=
200605061600 METAR MRPV 061600Z 31010KT 9999 SCT025 BKN250 25/19 A3004 RMK VSBY W 5KM DUE HZ=
200605061700 METAR MRPV O61700Z 28012KT 9999 SCT025 BK250 25/19 A3003 RMK VSBY NW 5KM DUE HZ=
200605061800 METAR MRPV 061800Z 28014KT 9999 SCT025 BKN250 26/19 A39002=
200605061900 METAR MRPV 061900Z 29014KT 9999 SCT025 BKN250 27/19 A2999 RN NW=
200605062000 METAR MRPV 062000Z 28015KT 9999 SCT025 BKN250 25/19 A2997 RMK VSBY E 4KM DUE RASH=
200605062100 METAR MRPV 062100Z 29014KT 9999 SCT025 BKN250 24/19 A2997 RMK RN DST NE SE=
200605062200 METAR MRPV 062200Z 23006KT 9999 SCT025 BKN250 25/19 A2996 RMK 5000E=
200605062300 METAR MRPV 062300Z 10007KT 9999 1000N -RA FEW010TCU BKN030 23/19 A2996=
200605070000 METAR MRPV NIL=
200605070100 METAR MRPV NIL=
200605070200 METAR MRPV NIL=
200605070300 METAR MRPV NIL=
200605070400 METAR MRPV NIL=
200605070500 METAR MRPV NIL=
200605070600 METAR MRPV NIL=
200605070700 METAR MRPV NIL=
200605070800 METAR MRPV NIL=
200605070900 METAR MRPV NIL=
200605071000 METAR MRPV NIL=
200605071100 METAR MRPV NIL=
200605071200 METAR MRPV NIL=
200605071300 METAR MRPV 071300Z 12012KT CAVOK 23/16 A3003 RMK TCU DST SSW=
200605071400 METAR MRPV 071400Z 12012KT CAVOK 25/16 A3004=
200605071500 METAR MRPV 071500Z 08015KT 9999 FEW025 SCT250 27/16 A3004=
200605071600 METAR MRPV 071600Z 09015KT 9999 FEW025 SCT250 28/16 A3002=
200605071700 METAR MRPV 071700Z 10014KT 9999 SCT020 29/16 A3001=
200605071800 METAR MRPV 071800Z 29010KT 9999 SCT020 30/15 A2999=
200605071900 METAR MRPV 071900Z 28015KT 9999 FEW020TCU SCT030 28/20 A2996=
200605072000 METAR MRPV 072000Z 27007KT 9999 1000NNW RA FEW020TCU BKN030 24/21 A2995=
200605072100 METAR MRPV 072100Z VRB03KT 9999 0800WNW -RA FEW005 BKN022 22/20 A2995 RMK RASH WNW LOW ST NW S=
200605072200 METAR MRPV 072200Z VRB03KT 9999 FEW008 SCT025 BKN250 21/20 A2995 RMK TS DST W TCU ESE RERA=
200605072300 METAR MRPV 072300Z 31005KT 7000 VCFG SCT005 SCT020 BKN250 22/20 A2997 RMK VIS E UNLTD=
200605080000 METAR MRPV NIL=
200605080100 METAR MRPV NIL=
200605080200 METAR MRPV NIL=
200605080300 METAR MRPV NIL=
200605080400 METAR MRPV NIL=
200605080500 METAR MRPV NIL=
200605080600 METAR MRPV NIL=
200605080700 METAR MRPV NIL=
200605080800 METAR MRPV NIL=
200605080900 METAR MRPV NIL=
200605081000 METAR MRPV NIL=
200605081100 METAR MRPV NIL=
200605081200 METAR MRPV NIL=
200605081300 METAR MRPV 081300Z 12005KT CAVOK 22/16 A3007=
200605081400 METAR MRPV 081400Z 10005KT CAVOK 26/15 A3003=
200605081500 METAR MRPV 081500Z 29007KT CAVOK 25/17 A3003=
200605081600 METAR MRPV 081600Z 28007KT 9999 FEW040 BKN250 26/17 A3001=
200605081700 METAR MRPV 081700Z 28007KT 9999 SCT040 BKN250 29/18 A3000=
200605081800 METAR MRPV 081800Z 28010KT 9999 SCT040 BKN250 28/18 A2998=
200605081900 METAR MRPV 081900Z 29011KT 9999 SCT030 BKN080 27/19 A2997=
200605082000 METAR MRPV 082000Z NIL=
200605082100 METAR MRPV 082100Z 28009KT 9999 SCT015TCU BKN035 27/20 A2992 RMK TCU AND CB ARND=
200605082200 METAR MRPV 082200Z 26004KT 9999 4000E SCT012 BKN025 24/20 A2992=
200605082300 METAR MRPV 082300Z 28006KT 9999 3000N -RA BR SCT012 BKN030 22/20 A2992=
200605090000 METAR MRPV NIL=
200605090100 METAR MRPV NIL=
200605090200 METAR MRPV NIL=
200605090300 METAR MRPV NIL=
200605090400 METAR MRPV NIL=
200605090500 METAR MRPV NIL=
200605090600 METAR MRPV NIL=
200605090700 METAR MRPV NIL=
200605090800 METAR MRPV NIL=
200605090900 METAR MRPV NIL=
200605091000 METAR MRPV NIL=
200605091100 METAR MRPV NIL=
200605091200 METAR MRPV 091200Z 00000KT 4000 BR FEW001 SCT010 20/19 A2996 RMK 6000W=
200605091300 METAR MRPV 091300Z 10003KT 9999 FEW015 SCT030 BKN250 22/19 A2998 RMK 5000 NE E SE DUE FG=
200605091400 METAR MRPV 091400Z 06004KT 9999 SCT020 BKN100 23/20 A2999=
200605091500 METAR MRPV 091500Z 00000KT 9999 SCT020 SCT100 BKN250 26/19 A3000 RMK LGT HZ ARND=
200605091600 METAR MRPV 091600Z 28007KT 9999 SCT020 BKN250 26/20 A2999 RKM HZ ARND=
200605091700 METAR MRPV 091700Z 29012KT 9999 4000 NE VCSH FEW020TCU SCT025 BKN250 25/20 A2977=
200605091800 METAR MRPV 091800Z 29009KT 9999 TSRA FEW015CB SCT020 BKN100 24/20 A2996 RMK 6000 N NE DUE RN=
200605091900 METAR MRPV 091900Z 34003KT 4000 RA BR SCT012 OVC100 22/21 A2995=
200605092000 METAR MRPV 092000Z 31004KT 9999 3000SW BR FEW003 BKN010 22/21 A2993=
200605092100 METAR MRPV 092100Z 31006KT 9999 3000W SCT010 OVC100 22/20 A2992 BR SW W=
200605092200 METAR MRPV 092200Z 29007KT 6000 2000W VCFG SCT003 BKN010 21/20 A2993=
200605092300 METAR MRPV 092300Z 30005KT 2000W VCFG SCT002 OVC010 21/20 A2994 RMK VSBY NW UNLTD FG BKS ARND=
200605100000 METAR MRPV NIL=
200605100100 METAR MRPV NIL=
200605100200 METAR MRPV NIL=
200605100300 METAR MRPV NIL=
200605100400 METAR MRPV NIL=
200605100500 METAR MRPV NIL=
200605100600 METAR MRPV NIL=
200605100700 METAR MRPV NIL=
200605100800 METAR MRPV NIL=
200605100900 METAR MRPV NIL=
200605101000 METAR MRPV NIL=
200605101100 METAR MRPV NIL=
200605101200 METAR MRPV 101200Z 14007KT CAVOK 20/18 A2999 RMK FEW090 BKN120=
200605101300 METAR MRPV 101300Z 12006KT CAVOK 21/18 A2999=
200605101400 METAR MRPV 101400Z 13004KT CAVOK 23/18 A3002=
200605101500 METAR MRPV 101500Z 10007KT CAVOK 24/19 A3002=
200605101600 METAR MRPV 101600Z 33003KT 9999 FEW030 BKN250 26/18 A3003 HZ NW=
200605101700 METAR MRPV 101700Z 29007KT 9999 SCT035 BKN250 26/20 A3001 HZ LEVE NW=
200605101800 METAR MRPV 101800Z 28009KT 9999 SCT030 BKN250 26/20 A3001=
200605101900 METAR MRPV 101900Z 28008KT 9999 FEW020TCU SCT030 BKN250 26/20 A2998 CB RN DST E=
200605102000 METAR MRPV 102000Z 28007KT 9999 FEW015 SCT020 BKN080 25/20 A2995=
200605102100 METAR MRPV 102100Z 28009KT 9999 SCT020TCU BKN100 26/21 A2994 CB RN E=
200605102200 METAR MRPV 102200Z 28008KT 9999 TS VCSH SCT010CB BKN030 24/21 A2994 CB TS RASH NE E VSBY 6KM=
200605102300 METAR MRPV 102300Z 29004KT 3000 TSRA SCT010CB BKN025 22/21 A2996=
200605110000 METAR MRPV NIL=
200605110100 METAR MRPV NIL=
200605110200 METAR MRPV NIL=
200605110300 METAR MRPV NIL=
200605110400 METAR MRPV NIL=
200605110500 METAR MRPV NIL=
200605110600 METAR MRPV NIL=
200605110700 METAR MRPV NIL=
200605110800 METAR MRPV NIL=
200605110900 METAR MRPV NIL=
200605111000 METAR MRPV NIL=
200605111100 METAR MRPV NIL=
200605111200 METAR MRPV 111200Z 16003KT CAVOK 19/18 A3002 BR/SE/NW=
200605111300 METAR MRPV 111300Z 15003KT 9999 FEW002 BKN250 22/19 A3003 RMK LOW ST SE SW W=
200605111400 METAR MRPV 111400Z 00000KT 9999 FEW010 BKN250 23/19 A3005=
200605111500 METAR MRPV 111500Z VRB03KT 9999 FEW015 BKN250 25/19 A3005 RMK VSBY W NW 5KM DUE HZ=
200605111600 METAR MRPV 111600Z 29007KT 9999 FEW020 BKN250 26/20 A3004 RMK VSBY NW 6KM HZY=
200605111700 METAR MRPV 111700Z 28010KT 9999 SCT022 BKN250 26/20 A3002=
200605111900 METAR MRPV 111900Z 28012KT 9999 FEW012CB BKN025 25/20 A3000 RMK TS SE=
200605112000 METAR MRPV NIL=
200605112100 METAR MRPV NIL=
200605112200 METAR MRPV NIL=
200605112300 METAR MRPV NIL=
200605120000 METAR MRPV NIL=
200605120100 METAR MRPV NIL=
200605120200 METAR MRPV NIL=
200605120300 METAR MRPV NIL=
200605120400 METAR MRPV NIL=
200605120500 METAR MRPV NIL=
200605120600 METAR MRPV NIL=
200605120700 METAR MRPV NIL=
200605120800 METAR MRPV NIL=
200605120900 METAR MRPV NIL=
200605121000 METAR MRPV NIL=
200605121100 METAR MRPV NIL=
200605121200 METAR MRPV 121200Z 12008KT 9999 FEW030 SCT270 21/17 A3000 RMK LGT HZ W=
200605121300 METAR MRPV 121300Z 11008KT 9999 FEW035 SCT270 23/18 A3002 RMK CB DST N=
200605121400 METAR MRPV 121400Z 11012KT 9999 FEW035 BKN260 25/18 A2003 RMK LEVE HZY=
200605121500 METAR MRPV 121500Z 10013KT 9999 SCT030 BKN260 26/18 A3003=
200605121600 METAR MRPV 121600Z 07015KT 9999 FEW035 SCT260 27/17 A3002=
200605121700 METAR MRPV 121700Z 09014KT 9999 FEW035 SCT260 28/18 A3002=
200605121800 METAR MRPV 121800Z 07010KT 9999 SCT030 29/18 A2999 RMK TCU DST SW=
200605121900 METAR MRPV 121900Z 07008KT 9999 SCT030 SCT260 28/18 A2997 RMK CB DST SE NW=
200605122000 METAR MRPV 122000Z 27008KT 9999 SCT030TCU SCT260 28/18 A2994 RMK RN DST NW CB DST SE S NW=
200605122050 METAR MRPV 122050Z 32015KT 1000 +TSRA SCT005 BKN010 22/20 A2995=
200605122100 METAR MRPV 122100Z 27006KT 5000 9999E RA FEW010CB BKN022 20/20 A2994=
200605122200 METAR MRPV NIL=
200605122300 METAR MRPV NIL=
200605130000 METAR MRPV NIL=
200605130100 METAR MRPV NIL=
200605130200 METAR MRPV NIL=
200605130300 METAR MRPV NIL=
200605130400 METAR MRPV NIL=
200605130500 METAR MRPV NIL=
200605130600 METAR MRPV NIL=
200605130700 METAR MRPV NIL=
200605130800 METAR MRPV NIL=
200605130900 METAR MRPV NIL=
200605131000 METAR MRPV NIL=
200605131100 METAR MRPV NIL=
200605131200 METAR MRPV NIL=
200605131300 METAR MRPV 131300Z 12012KT 9999 FEW030 BKN250 23/17 A3001=
200605131400 METAR MRPV 131400Z 11012KT 9999 FEW025 BKN250 23/17 A3004=
200605131500 METAR MRPV 131500Z 09015KT 9999 FEW025 BKN250 24/16 A3004=
200605131600 METAR MRPV 131600Z 09012KT 9999 FEW025 BKN250 26/17 A3003=
200605131700 METAR MRPV 131700Z 10015KT 9999 FEW025 BKN250 27/18 A3002=
200605131800 METAR MRPV 131800Z 09014KT 9999 FEW025 BKN250 27/18 A3001=
200605131900 METAR MRPV 131900Z 08015KT 9999 FEW025 BKN250 28/20 A2998 RMK TCU SW=
200605132000 METAR MRPV 132000Z 09015KT 9999 SCT025TCU BKN250 28/20 A2996=
200605132100 METAR MRPV 132100Z 09014KT 9999 SCT025TCU BKN250 28/17 A2994 RMK CB DST SE=
200605132200 METAR MRPV 132200Z 27010KT 9999 SCT025TCU BKN250 25/21 A2995=
200605132300 METAR MRPV 132300Z 28012KT 9999 1000NE VCSH FEW010 BKN025 24/21 A2997=
200605140000 METAR MRPV NIL=
200605140100 METAR MRPV NIL=
200605140200 METAR MRPV NIL=
200605140300 METAR MRPV NIL=
200605140400 METAR MRPV NIL=
200605140500 METAR MRPV NIL=
200605140600 METAR MRPV NIL=
200605140700 METAR MRPV NIL=
200605140800 METAR MRPV NIL=
200605140900 METAR MRPV NIL=
200605141000 METAR MRPV NIL=
200605141100 METAR MRPV NIL=
200605141200 METAR MRPV NIL=
200605141300 METAR MRPV 141300Z 14005KT 9999 FEW015 BKN250 21/17 A3003=
200605141500 METAR MRPV 141500Z 10010KT 9999 SCT025 BKN250 25/18 A3004=
200605141600 METAR MRPV 141600Z 12008KT 9999 SCT030 BKN250 26/18 A3004=
200605141700 METAR MRPV 141700Z 11007KT 9999 SCT030 BKN250 26/18 A3004 RMK CB DST W=
200605141800 METAR MRPV 141800Z 09005KT 9999 SCT030 BKN250 27/18 A3002=
200605141900 METAR MRPV 141900Z NIL=
200605142000 METAR MRPV 142000Z 08004KT 9999 FEW015TCU SCT025 BKN080 28/18 A2996 TCU ARND=
200605142100 METAR MRPV 142100Z 31005KT 9999 FEW015TCU SCT025 BKN100 26/21 A2996=
200605142200 METAR MRPV 142200Z 28005KT 9999 SCT010TCU BKN030 24/21 A2996 RN NW/N VIS 6000N=
200605142300 METAR MRPV 142300Z 29005KT 9999 3000SW VCSH SCT010TCU SCT020 BKN035 24/21 A2997 RN NW N=
200605150000 METAR MRPV 150000Z 31004KT 9999 4000SW +RA SCT010TCU SCT020 BKN100 23/20 A2998=
200605150100 METAR MRPV NIL=
200605150200 METAR MRPV NIL=
200605150300 METAR MRPV NIL=
200605150400 METAR MRPV NIL=
200605150500 METAR MRPV NIL=
200605150600 METAR MRPV NIL=
200605150700 METAR MRPV NIL=
200605150800 METAR MRPV NIL=
200605150900 METAR MRPV NIL=
200605151000 METAR MRPV NIL=
200605151100 METAR MRPV NIL=
200605151200 METAR MRPV 151200Z 12007KT 9999 FEW020 SCT250 21/17 A3001 RMK CB DST SSW LGT HZ W=
200605151300 METAR MRPV 151300Z 11011KT 9999 FEW025 SCT250 23/17 A3003 CB DST SSW=
200605151400 METAR MRPV 151400Z 10010KT 9999 FEW030 BKN250 25/17 A3004=
200605151500 METAR MRPV 151500Z 09012KT 9999 FEW030 SCT250 25/18 A3005=
200605151600 METAR MRPV 151600Z 09011KT 9999 SCT030 BKN250 27/18 A3004=
200605151700 METAR MRPV 151700Z 09010KT 9999 SCT030 BKN250 27/18 A3004=
200605151800 METAR MRPV 151800Z 09006KT 9999 SCT030 BKN250 28/18 A3002=
200605151900 METAR MRPV 151900Z 29011KT 9999 SCT010TCU SCT030 26/20 A3000=
200605152000 METAR MRPV 152000Z 26006KT 9999 TS FEW010CB SCT025 BKN100 24/22 A2998 RERA TS RN/N=
200605152100 METAR MRPV 152100Z 36004KT 9999 SCT010TCU SCT020 BKN100 23/19 A2998 RASH W NW=
200605152200 METAR MRPV 152200Z 00000KT 9999 FEW015 SCT025 BKN100 22/20 A2998=
200605152300 METAR MRPV 152300Z 00000KT 9999 SCT020 BKN100 23/20 A2998=
200605160000 METAR MRPV 160000Z 00000KT 9999 FEW012 SCT020 BKN100 22/21 A3001=
200605160100 METAR MRPV NIL=
200605160200 METAR MRPV NIL=
200605160300 METAR MRPV NIL=
200605160400 METAR MRPV NIL=
200605160500 METAR MRPV NIL=
200605160600 METAR MRPV NIL=
200605160700 METAR MRPV NIL=
200605160800 METAR MRPV NIL=
200605160900 METAR MRPV NIL=
200605161000 METAR MRPV NIL=
200605161100 METAR MRPV NIL=
200605161200 METAR MRPV 161200Z 09003KT CAVOK 20/18 A3001=
200605161300 METAR MRPV 161300Z 11005KT CAVOK 24/18 A3003 CBDST SW W=
200605161400 METAR MRPV 161400Z 28005KT 9999 FEW025 BKN250 24/19 A3004=
200605161500 METAR MRPV 161500Z 28006KT 9999 SCT025 BKN250 24/19 A3004=
200605161600 METAR MRPV 161600Z 30006KT 9999 SCT030 BKN250 25/20 A3004=
200605161700 METAR MRPV 161700Z 28008KT 9999 SCT030 BKN130 26/20 A3004=
200605161800 METAR MRPV 161800Z 29010KT 9999 FEDW020 SCT030 BKN100 26/21 A3002=
200605161900 METAR MRPV 161900Z 30010KT 9999 FEW010 SCT025 OVC100 26/21 A2999 TS RASH SE=
200605162000 METAR MRPV 162000Z 29008KT 9999 SCT010 BKN100 25/21 A2998 RN ARND=
200605162100 METAR MRPV 162100Z 27006KT 9999 SCT015 BKN030 25/21 A2996 RMK RN DST ARND=
200605162200 METAR MRPV 162200Z 27007KT 9999 SCT006 BKN020 24/21 A2996 RN ST DST ARND=
200605162300 METAR MRPV 162300Z 31005KT 7000 VCFG FEW010 SCT020 BKN100 23/20 A2998 RMK RASH DST SW NW=
200605170000 METAR MRPV NIL=
200605170100 METAR MRPV NIL=
200605170200 METAR MRPV NIL=
200605170300 METAR MRPV NIL=
200605170400 METAR MRPV NIL=
200605170500 METAR MRPV NIL=
200605170600 METAR MRPV NIL=
200605170700 METAR MRPV NIL=
200605170800 METAR MRPV NIL=
200605170900 METAR MRPV NIL=
200605171000 METAR MRPV NIL=
200605171100 METAR MRPV NIL=
200605171200 METAR MRPV 171200Z 00000KT 3000 DZ SCT001 BKN008 21/20 A3002 VIS N/NE 9999=
200605171300 METAR MRPV 171300Z 13005KT 9999 FEW001 SCT100 22/19 A3002=
200605171400 METAR MRPV 171400Z 12008KT 9999 FEW015 BKN250 26/19 A3003 RMK CB DST S SW HZ W=
200605171500 METAR MRPV 171500Z 11008KT 9999 FEW015 SCT100 BKN250 27/19 A3003 RMK CB DST S SW HZ W=
200605171600 METAR MRPV 171600Z 10008KT 9999 SCT025TCU BKN250 29/18 A3002 RMK CB DST S SW HZ SW=
200605171700 METAR MRPV 171700Z 29012KT 9999 SCT025TCU BKN250 26/22 A3002 RMK 5000 W HZ=
200605171900 METAR MRPV 171900Z 29014KT 9999 FEW010CB SCT025 BKN120 25/21 A3000 RMK TS DST ESE=
200605172000 METAR MRPV 172000Z 07008KT 2000 +TSRA BKN005CB OVC010 20/18 A3002=
200605172100 METAR MRPV 172100Z VRB03KT 5000 1000NW RA FEW010 BKN018 19/19 A3001 TS DST W=
200605172200 METAR MRPV 172200Z VRB03KT 5000 1000NW RA FEW010 BKN018 19/19 A3001=
200605172300 METAR MRPV 172300Z VRB03KT 5000 RA FEW004 BKN020 20/19 A3003=
200605180000 METAR MRPV NIL=
200605180100 METAR MRPV NIL=
200605180200 METAR MRPV NIL=
200605180300 METAR MRPV NIL=
200605180400 METAR MRPV NIL=
200605180500 METAR MRPV NIL=
200605180600 METAR MRPV NIL=
200605180700 METAR MRPV NIL=
200605180800 METAR MRPV NIL=
200605180900 METAR MRPV NIL=
200605181000 METAR MRPV NIL=
200605181100 METAR MRPV NIL=
200605181200 METAR MRPV 181200Z 13005KT CAVOK 21/18 A3004 RMK CB NE=
200605181300 METAR MRPV 181300Z 11005KT 9999 VCFG FEW035 SCT250 22/19 A3007 VIS W 6KMS=
200605181400 METAR MRPV 181400Z 12007KT 9999 FEW030 BKN250 23/19 A3008 RMK VIS W 6KMS CB DST N=
200605181500 METAR MRPV 181500Z 12008KT 9999 FEW030 BKN250 24/19 A3009 RMK VIS W 6KMS DUE HZ CB DST SW=
200605181600 METAR MRPV 181600Z 11010KT 9999 FEW025 BKN250 24/19 A3009 RMK VIS W 6KMS CB DST N=
200605181700 METAR MRPV 181700Z 09013KT 9999 SCT020 BKN250 25/19 A3007 HZY VIS 6KMS W RN DST NW=
200605181900 METAR MRPV 181900Z 08014KT 9999 SCT020 OVC250 25/19 A3004 RN DST N QUAD=
200605182000 METAR MRPV 182000Z 08015KT 9999 SCT020 OVC250 22/18 A3003 RMK TS DST W/NW=
200605182100 METAR MRPV 182100Z 10016KT 9999 SCT025 OVC250 22/17 A3003 RMK RN DST W SW=
200605182200 METAR MRPV 182200Z 09008KT 9999 FEW025 SCT120 OVC250 22/18 A3003=
200605182300 METAR MRPV 182300Z 10010KT 9999 FEW025 SCT120 OVC250 22/18 A3004=
200605190000 METAR MRPV NIL=
200605190100 METAR MRPV NIL=
200605190200 METAR MRPV NIL=
200605190300 METAR MRPV NIL=
200605190400 METAR MRPV NIL=
200605190500 METAR MRPV NIL=
200605190600 METAR MRPV NIL=
200605190700 METAR MRPV NIL=
200605190800 METAR MRPV NIL=
200605190900 METAR MRPV NIL=
200605191000 METAR MRPV NIL=
200605191100 METAR MRPV NIL=
200605191200 METAR MRPV 191200Z 11009KT 9999 FEW030 BKN100 21/17 A3006 RMK DZ DST N=
200605191300 METAR MRPV 191300Z 13005KT 9999 FEW030 BKN100 22/17 A3008 RMK DZ DST N=
200605191400 METAR MRPV 191400Z 13008KT CAVOK 24/18 A3008=
200605191500 METAR MRPV 191500Z 10012KT 9999 FEW030 BKN100 24/18 A3009 RMK DZ DST N=
200605191600 METAR MRPV 191600Z 11012KT 9999 SCT030 BKN100 25/18 A3010 RMK DZ N CB DST NW=
200605191700 METAR MRPV 191700Z 10014KT 9999 SCT030 BKN100 25/18 A3008 RMK DZ DST N CB DST NW=
200605191800 METAR MRPV 191800Z 10015KT 9999 SCT025 BKN120 25/18 A3007 RMK RN DST N NE=
200605191900 METAR MRPV 191900Z 09012KT 9999 FEW020 SCT120 BKN250 26/19 A3005 RMK RN DST NE NW=
200605192000 METAR MRPV 192000Z 09012KT 9999 FEW025 SCT120 BKN250 26/18 A3002 RMK RN DST NW=
200605192100 METAR MRPV 192100Z 09020KT 9999 FEW025 SCT120 BKN250 25/18 A3000=
200605192200 METAR MRPV 192200Z 10016KT 9999 SCT025 SCT120 BKN250 24/18 A3001 RN DST NE SE VIS 5000 W/RA TS W=
200605192300 METAR MRPV 192300Z 10015KT 5000 2000E RA SCT010 BKN020 21/19 A3004=
200605200000 METAR MRPV NIL=
200605200100 METAR MRPV NIL=
200605200200 METAR MRPV NIL=
200605200300 METAR MRPV NIL=
200605200400 METAR MRPV NIL=
200605200500 METAR MRPV NIL=
200605200600 METAR MRPV NIL=
200605200700 METAR MRPV NIL=
200605200800 METAR MRPV NIL=
200605200900 METAR MRPV NIL=
200605201000 METAR MRPV NIL=
200605201100 METAR MRPV NIL=
200605201200 METAR MRPV NIL=
200605201300 METAR MRPV 201300Z 15007KT CAVOK 22/18 A3002=
200605201400 METAR MRPV 201400Z 14007KT CAVOK 24/18 A3003=
200605201500 METAR MRPV 201500Z 11011KT 9999 FEW040 SCT250 26/18 A3004=
200605201600 METAR MRPV 201600Z 11010KT 9999 SCT040 SCT250 26/19 A3005=
200605201700 METAR MRPV 201700Z 09013KT 9999 BKN040 27/19 A3003=
200605201800 METAR MRPV 201800Z 29010KT 9999 SCT020TCU BKN035 27/21 A3001=
200605201900 METAR MRPV 201900Z 29011KT 9999 4000N TSRA SCT012CB SCT020 BKN100 23/21 A3000=
200605202100 METAR MRPV 202100Z 19003KT 9999 SCT010TCU BKN020 22/21 A2997 RETS RASH S SE=
200605202200 METAR MRPV 202200Z 15003KT 9999 SCT020 BKN100 23/20 A2996=
200605202300 METAR MRPV 202300Z 18003KT 9999 SCT020 BKN100 23/20 A2998=
200605210000 METAR MRPV 210000Z 13003KT 9999 SCT020 BKN100 23/20 A2999=
200605210100 METAR MRPV NIL=
200605210200 METAR MRPV NIL=
200605210300 METAR MRPV NIL=
200605210400 METAR MRPV NIL=
200605210500 METAR MRPV NIL=
200605210600 METAR MRPV NIL=
200605210700 METAR MRPV NIL=
200605210800 METAR MRPV NIL=
200605210900 METAR MRPV NIL=
200605211000 METAR MRPV NIL=
200605211100 METAR MRPV NIL=
200605211200 METAR MRPV NIL=
200605211300 METAR MRPV 211300Z 14007KT 9999 SCT020 SCT120 22/18 A3000=
200605211400 METAR MRPV 211400Z 12010KT 9999 SCT025 SCT130 24/18 A3001=
200605211500 METAR MRPV 211500Z 09010KT 9999 SCT030 SCT250 25/18 A3000=
200605211600 METAR MRPV 211600Z 09010KT 9999 FEW020 SCT030 26/18 A3000=
200605211800 METAR MRPV 211800Z 09009KT 9999 FEW020 SCT035 BKN250 28/19 A2996=
200605211900 METAR MRPV 211900Z 09011KT 9999 BKN030 28/18 A2994=
200605212000 METAR MRPV 212000Z NIL=
200605212100 METAR MRPV 212100Z 11007KT 9999 SCT025TCU BKN100 25/19 A2990 RMK SHRA DST NW W=
200605212200 METAR MRPV 212200Z 32005KT 9999 4000W BR FEW006 SCT020 BKN100 22/21 A2992=
200605212300 METAR MRPV 212300Z 29006KT 6000 VCFG SCT004 BKN010 22/21 A2992 RMK 9999 W NW E=
200605220000 METAR MRPV NIL=
200605220100 METAR MRPV NIL=
200605220200 METAR MRPV NIL=
200605220300 METAR MRPV NIL=
200605220400 METAR MRPV NIL=
200605220500 METAR MRPV NIL=
200605220600 METAR MRPV NIL=
200605220700 METAR MRPV NIL=
200605220800 METAR MRPV NIL=
200605220900 METAR MRPV NIL=
200605221000 METAR MRPV NIL=
200605221100 METAR MRPV NIL=
200605221200 METAR MRPV 221200Z 11004KT CAVOK 20/16 A2997 CB N/S/SW=
200605221300 METAR MRPV 221300Z 11009KT CAVOK 22/16 A2999 RMK CD DST S N=
200605221400 METAR MRPV 221400Z 11011KT 9999 SCT030 BKN100 23/18 A3001 RMK LEVE HZ W=
200605221500 METAR MRPV 221500Z 10008KT 9999 BKN020 BKN100 23/18 A3003=
200605221600 METAR MRPV 221600Z 12004KT 9999 FEW015 SCT020 OVC100 25/18 A3003 RMK RN DST N=
200605221700 METAR MRPV 221700Z 28006KT 9999 BKN015 OVC100 23/20 A3002 RERA=
200605221800 METAR MRPV 221800Z 28003KT 9999 SCT010 BKN080 24/20 A3000 RMK SHRA DST SW S SE=
200605221900 METAR MRPV 221900Z 26003KT 9999 4000N VCSH FEW005 SCT012TCU OVC100 22/20 A2998=
200605222000 METAR MRPV 222000Z 00000KT 9999 3000S -RA SCT012 BKN020 24/20 A2999=
200605222200 METAR MRPV 222200Z 13008KT 9999 SCT020 OVC100 22/18 A2995 RERA=
200605222300 METAR MRPV 222300Z 13007KT 9999 SCT015 BKN025 22/18 A2996=
200605230000 METAR MRPV NIL=
200605230100 METAR MRPV NIL=
200605230200 METAR MRPV NIL=
200605230300 METAR MRPV NIL=
200605230400 METAR MRPV NIL=
200605230500 METAR MRPV NIL=
200605230600 METAR MRPV NIL=
200605230700 METAR MRPV NIL=
200605230800 METAR MRPV NIL=
200605230900 METAR MRPV NIL=
200605231000 METAR MRPV NIL=
200605231100 METAR MRPV NIL=
200605231200 METAR MRPV 231200Z 07004KT CAVOK 18/16 A3002 CB DST S=
200605231300 METAR MRPV 231300Z 05004KT CAVOK 21/17 A3004 RMK BK250=
200605231400 METAR MRPV 231400Z 23003KT CAVOK 23/18 A3004 RMK BKN250=
200605231500 METAR MRPV 231500Z 30004KT 9999 FEW030 BKN250 26/18 A3003=
200605231600 METAR MRPV 231600Z 29008KT 9999 FEW030 SCT100 BKN250 26/19 A3005 RMK TCU S/W/NW=
200605231700 METAR MRPV 231700Z 29011KT 9999 SCT025TCU BKN250 26/20 A3003 RMK RN SE=
200605231800 METAR MRPV 231800Z 29010KT 9999 -RA FEW015CB SCT030 BKN250 24/21 A3002 RMK TS S RASH E=
200605231900 METAR MRPV 231900Z VRB03KT 9999 -RA FEW020 SCT120 BKN250 21/19 A3002=
200605232000 METAR MRPV 232000Z 31006KT 9999 FEW012 BKN120 23/21 A3001 RERA=
200605232100 METAR MRPV 232100Z 30005KT 9999 SCT010 OVC120 23/20 A3000 RMK RN SE S=
200605232200 METAR MRPV 232200Z 28010KT 9999 4000E VCFG SCT008 OVC120 21/20 A2998=
200605232300 METAR MRPV 232300Z 29005KT 8000 4000 E VCFG SCT005 BKN120 21/20 A3001=
200605240000 METAR MRPV NIL=
200605240100 METAR MRPV NIL=
200605240200 METAR MRPV NIL=
200605240300 METAR MRPV NIL=
200605240400 METAR MRPV NIL=
200605240500 METAR MRPV NIL=
200605240600 METAR MRPV NIL=
200605240700 METAR MRPV NIL=
200605240800 METAR MRPV NIL=
200605240900 METAR MRPV NIL=
200605241000 METAR MRPV NIL=
200605241100 METAR MRPV NIL=
200605241200 METAR MRPV 241200Z 09003KT CAVOK 19/19 A3006=
200605241300 METAR MRPV 241300Z 09005KT CAVOK 21/19 A3008=
200605241400 METAR MRPV 241400Z 11008KT CAVOK 23/18 A3007=
200605241500 METAR MRPV 241500Z 11009KT CAVOK 26/17 A3007=
200605241600 METAR MRPV 241600Z 09010KT 9999 FEW025 SCT120 BKN250 26/18 A3006=
200605241700 METAR MRPV 241700Z 289010KT 9999 3000NW BR FEW025 SCT120 BKN250 25/21 A3005=
200605241800 METAR MRPV 241800Z 27010KT 9999 SCT022 SCT120 BKN250 25/21 A3005=
200605241900 METAR MRPV 241900Z 28010KT 9999 SCT025TCU SCT120 BKN250 27/21 A3002 RMK RN DST NW N=
200605242000 METAR MRPV 242000Z 27010KT 9999 SCT025TCU SCT120 BKN250 25/21 A3001 RMK RN DST N NW=
200605242100 METAR MRPV 242100Z 24008KT 5000 9999E RA SCT004TCU BKN020 22/21 A2999=
200605242200 METAR MRPV 242200Z VRB03KT 9999 2000NW VCSH SCT004 BKN022 22/20 A3000=
200605242300 METAR MRPV 242300Z VRB03KT 9999 FEW010 BKN022 22/20 A3001=
200605250000 METAR MRPV NIL=
200605250100 METAR MRPV NIL=
200605250200 METAR MRPV NIL=
200605250300 METAR MRPV NIL=
200605250400 METAR MRPV NIL=
200605250500 METAR MRPV NIL=
200605250600 METAR MRPV NIL=
200605250700 METAR MRPV NIL=
200605250800 METAR MRPV NIL=
200605250900 METAR MRPV NIL=
200605251000 METAR MRPV NIL=
200605251100 METAR MRPV NIL=
200605251200 METAR MRPV 251200Z 13007KT 9999 FEW030 SCT280 21/18 A3002=
200605251300 METAR MRPV 251300Z 12007KT CAVOK 23/18 A3003=
200605251400 METAR MRPV 251400Z 10010KT 9999 FEW035 SCT280 24/18 A3003=
200605251500 METAR MRPV 251500Z 08016KT 9999 FEW035 SCT280 26/18 A3003=
200605251600 METAR MRPV 251600Z 07015KT 9999 SCT035 SCT280 27/18 A3002=
200605251700 METAR MRPV 251700Z 09015KT 9999 SCT030 SCT280 28/18 A3000=
200605251800 METAR MRPV 251800Z 08014KT 9999 SCT030 SCT280 28/20 A2999=
200605252000 METAR MRPV 252000Z 08014KT 9999 FEW015 SCT030 28/18 A2994=
200605252100 METAR MRPV 252100Z 09015KT 9999 2000E VCSH SCT010TCU BKN030 24/20 A2994 RMK RASH E NW N=
200605252200 METAR MRPV 252200Z VBR03KT 9999 3000NW -RA FEW008 BKN025 21/19 A2996 RASH NE NW=
200605252300 METAR MRPV 252300Z VRB03KT 9999 3000SW -RA FEW010 SCT025 BKN100 21/20 A2990=
200605260000 METAR MRPV NIL=
200605260100 METAR MRPV NIL=
200605260200 METAR MRPV NIL=
200605260300 METAR MRPV NIL=
200605260400 METAR MRPV NIL=
200605260500 METAR MRPV NIL=
200605260600 METAR MRPV NIL=
200605260700 METAR MRPV NIL=
200605260800 METAR MRPV NIL=
200605260900 METAR MRPV NIL=
200605261000 METAR MRPV NIL=
200605261100 METAR MRPV NIL=
200605261200 METAR MRPV 261200Z 10008KT 9999 FEW025 BKN270 21/17 A2997 RMK CB DST N=
200605261300 METAR MRPV 261300Z 11008KT CAVOK 23/18 A2999 RMK CB N=
200605261400 METAR MRPV 261400Z 12007KT 9999 FEW030 BKN250 24/18 A3000=
200605261500 METAR MRPV 261500Z 09013KT 9999 FEW030 BKN250 26/18 A3000=
200605261600 METAR MRPV 261600Z 08013KT 9999 FEW030 BKN250 26/18 A3000=
200605261700 METAR MRPV 261700Z 08010KT 9999 SCT030 BKN100 27/19 A2998 RN NE E=
200605261800 METAR MRPV 261800Z 08010KT 9999 SCT030 BKN100 27/19 A2998 RN NE E=
200605261900 METAR MRPV 261900Z 09009KT 9999 FEW010TCU SCT025 BKN100 25/19 A2998 RN NW N=
200605262000 METAR MRPV 262000Z 09011KT 9999 SCT025 BKN100 24/18 A2996 RN W NW N=
200605262100 METAR MRPV 262100Z 09012KT 9999 SCT020 BKN100 24/18 A2994=
200605262200 METAR MRPV 262200Z 08010KT 9999 SCT020 BKN100 24/19 A2994=
200605262300 METAR MRPV 262300Z 08008KT 9999 FEW012 SCT020 BKN100 23/18 A2994=
200605270000 METAR MRPV 270000Z 10007KT 9999 FEW006 SCT020 BKN100 23/18 A2995=
200605270100 METAR MRPV NIL=
200605270200 METAR MRPV NIL=
200605270300 METAR MRPV NIL=
200605270400 METAR MRPV NIL=
200605270500 METAR MRPV NIL=
200605270600 METAR MRPV NIL=
200605270700 METAR MRPV NIL=
200605270800 METAR MRPV NIL=
200605270900 METAR MRPV NIL=
200605271000 METAR MRPV NIL=
200605271100 METAR MRPV NIL=
200605271200 METAR MRPV NIL=
200605271300 METAR MRPV 271300Z 13005KT CAVOK 22/17 A2998=
200605271400 METAR MRPV 271400Z 14004KT CAVOK 24/18 A3000=
200605271500 METAR MRPV 271500Z 07005KT CAVOK 26/17 A3001=
200605271600 METAR MRPV 271600Z 09006KT 9999 FEW030 BKN250 27/18 A3000=
200605271700 METAR MRPV 271700Z 32006KT 9999 SCT030 BKN250 26/20 A2999=
200605271800 METAR MRPV 271800Z 28006KT 9999 FEW012 SCT025 BKN100 26/20 A2998=
200605271900 METAR MRPV 271900Z 29009KT 9999 SCT010CB BKN080 26/20 A2996 RMK RN DST NW N NE=
200605272000 METAR MRPV 272000Z 28008KT 8000 3000W TS VCSH SCT005CB BKN020 23/20 A2996=
200605272100 METAR MRPV 272100Z 00000KT 8000 3000NW +RA SCT005 BKN020 22/18 A2997=
200605272200 METAR MRPV NIL=
200605272300 METAR MRPV 272300Z 00000KT 6000 2000W -RA BR BKN006 OVC010 21/20 A2998=
200605280000 METAR MRPV NIL=
200605280100 METAR MRPV NIL=
200605280200 METAR MRPV NIL=
200605280300 METAR MRPV NIL=
200605280400 METAR MRPV NIL=
200605280500 METAR MRPV NIL=
200605280600 METAR MRPV NIL=
200605280700 METAR MRPV NIL=
200605280800 METAR MRPV NIL=
200605280900 METAR MRPV NIL=
200605281000 METAR MRPV NIL=
200605281100 METAR MRPV NIL=
200605281200 METAR MRPV NIL=
200605281300 METAR MRPV 281300Z 13003KT CAVOK 21/17 A3002=
200605281400 METAR MRPV 281400Z 11009KT CAVOK 22/17 A3004=
200605281500 METAR MRPV 281500Z 12009KT CAVOK 23/17 A3004=
200605281600 METAR MRPV 281600Z 11010KT 9999 FEW030 OVC250 24/18 A3006=
200605281700 METAR MRPV 281700Z 10012KT 9999 FEW025 BKN250 24/18 A3004=
200605281800 METAR MRPV 281800Z 10011KT 9999 SCT030 BKN100 24/18 A3003=
200605281900 METAR MRPV 281900Z 09012KT 9999 SCT035 OVC120 24/19 A3001=
200605282000 METAR MRPV 282000Z 08010KT 9999 FEW035 OVC120 26/18 A2999=
200605282100 METAR MRPV 282100Z 09013KT 9999 SCT030 BKN120 25/18 A2997=
200605282200 METAR MRPV 282200Z 07011KT 9999 SCT030 BKN120 25/18 A2996=
200605282300 METAR MRPV 282300Z 10008KT 9999 SCT020 BKN120 24/18 A2998=
200605290000 METAR MRPV NIL=
200605290100 METAR MRPV NIL=
200605290200 METAR MRPV NIL=
200605290300 METAR MRPV NIL=
200605290400 METAR MRPV NIL=
200605290500 METAR MRPV NIL=
200605290600 METAR MRPV NIL=
200605290700 METAR MRPV NIL=
200605290800 METAR MRPV NIL=
200605290900 METAR MRPV NIL=
200605291000 METAR MRPV NIL=
200605291100 METAR MRPV NIL=
200605291200 METAR MRPV 291200Z 13008KT CAVOK 21/17 A3000 RMK CB DST NNE E=
200605291300 METAR MRPV 291300Z 13008KT CAVOK 21/18 A3003 RMK CB DST NE E=
200605291400 METAR MRPV 291400Z 12010KT CAVOK 23/18 A3004 RMK TCU DST SW=
200605291500 METAR MRPV 291500Z 12011KT 9999 FEW030 BKN250 24/18 A3005 RMK CB DST SW=
200605291600 METAR MRPV 291600Z 11010KT 9999 FEW030 BKN250 25/18 A3005=
200605291800 METAR MRPV 291800Z 09016KT 9999 SCT030 BKN250 24/19 A3002 RN DST NE=
200605291900 METAR MRPV 291900Z 09017KT 9999 FEW015 SCT030 BKN250 25/18 A3000 RMK RN DST NE NW=
200605292000 METAR MRPV 292000Z 06009KT 9999 FEW012TCU SCT030 BKN250 26/19 A2997 RMK CB DST S SW E=
200605292100 METAR MRPV 292100Z 09017KT 9999 FEW012TCU SCT030 26/19 A2997=
200605292200 METAR MRPV 292200Z 10016KT 9999 SCT025 BKN250 24/18 A2997=
200605292300 METAR MRPV 292300Z 10016KT 9999 -RA FEW010 BKN030 22/18 A2998=
200605300000 METAR MRPV NIL=
200605300100 METAR MRPV NIL=
200605300200 METAR MRPV NIL=
200605300300 METAR MRPV NIL=
200605300400 METAR MRPV NIL=
200605300500 METAR MRPV NIL=
200605300600 METAR MRPV NIL=
200605300700 METAR MRPV NIL=
200605300800 METAR MRPV NIL=
200605300900 METAR MRPV NIL=
200605301000 METAR MRPV NIL=
200605301100 METAR MRPV NIL=
200605301200 METAR MRPV 301200Z 12010KT CAVOK 20/16 A2997 BKN250 CB DST SW=
200605301300 METAR MRPV 301300Z 12012KT CAVOK 23/16 A2999 RMK CB DST SW=
200605301400 METAR MRPV 301400Z 09012KT CAVOK 24/17 A3000 RMK CB DST SW=
200605301500 METAR MRPV 301500Z 09016KT 9999 FEW025 BKN250 25/17 A3000=
200605301600 METAR MRPV 301600Z 08015KT 9999 FEW030 BKN250 26/17 A3000=
200605301700 METAR MRPV 301700Z 04010KT 9999 SCT030 BKN250 27/16 A2999=
200605301800 METAR MRPV 301800Z 08013KT 9999 SCT040 SCT300 28/18 A2997=
200605301900 METAR MRPV 301900Z 07014KT 9999 SCT035TCU 28/18 A2995=
200605302000 METAR MRPV 302000Z 08017KT 9999 SCT030TCU 27/18 A2993=
200605302100 METAR MRPV 302100Z 08017KT 9999 SCT015TCU SCT030 28/18 A2991 RMK RASH NW NE=
200605302200 METAR MRPV 302200Z 06020KT 9999 1000NW -TSRA SCT010CB BKN030 22/19 A2995=
200605302300 METAR MRPV 302300Z 11010KT 9999 4000W -RA FEW020 SCT120 BKN250 22/19 A2995 TS W SW=
200605310000 METAR MRPV NIL=
200605310100 METAR MRPV NIL=
200605310200 METAR MRPV NIL=
200605310300 METAR MRPV NIL=
200605310400 METAR MRPV NIL=
200605310500 METAR MRPV NIL=
200605310600 METAR MRPV NIL=
200605310700 METAR MRPV NIL=
200605310800 METAR MRPV NIL=
200605310900 METAR MRPV NIL=
200605311000 METAR MRPV NIL=
200605311100 METAR MRPV NIL=
200605311200 METAR MRPV 311200Z 09012KT CAVOK 20/16 A2996 RMK CB DST S=
200605311300 METAR MRPV 311300Z 11013KT CAVOK 22/16 A2998 RMK BKN270 CB DST S=
200605311400 METAR MRPV 311400Z 07010KT CAVOK 24/17 A3000 RMK CB S=
200605311500 METAR MRPV 311500Z 09013KT CAVOK 26/16 A2998 CB S SW=
200605311600 METAR MRPV 311600Z 07016KT 9999 FEW035 SCT270 27/18 A2997=
200605311700 METAR MRPV 311700Z 08012KT 9999 FEW020 SCT035 27/18 A2997=
200605311800 METAR MRPV 311800Z 2710KT 9999 FEW010TCU BKN035 26/20 A2997 RN E=
200605311900 METAR MRPV 311900Z 24010KT 7000 3000W +RA SCT010 BKN025 22/20 A2996=
200605312000 METAR MRPV 312000Z 09006KT 9999 2000NW RA SCT015 SCT035 BKN110 22/20 A2996=
200605312100 METAR MRPV 312100Z 03006KT 9999 -RA FEW035 BKN110 22/20 A2997=
200605312200 METAR MRPV 312200Z 27005KT 8000 3000E VCFG SCT008 BKN020 21/20 A2997=
200605312300 METAR MRPV 312300Z 29005KT 3000 BR SCT002 BKN010 21/20 A2998=
200606010000 METAR MRPV NIL=
200606010100 METAR MRPV NIL=
200606010200 METAR MRPV NIL=
200606010300 METAR MRPV NIL=
200606010400 METAR MRPV NIL=
200606010500 METAR MRPV NIL=
200606010600 METAR MRPV NIL=
200606010700 METAR MRPV NIL=
200606010800 METAR MRPV NIL=
200606010900 METAR MRPV NIL=
200606011000 METAR MRPV NIL=
200606011100 METAR MRPV NIL=
200606011200 METAR MRPV 011200Z 00000KT 9999 3000SW BR FEW002 BKN100 21/20 A2999=
200606011500 METAR MRPV 011500Z 11008KT 9999 SCT025 BKN250 25/19 A3002 RMK HZ W=
200606011600 METAR MRPV 011600Z 07007KT 9999 SCT025 BKN250 26/19 A3002 RMK HZ W=
200606011700 METAR MRPV 011700Z 09003KT FEW020 SCT030 BKN250 26/19 A3000 RMK RN DST N HZ LEVE W=
200606011800 METAR MRPV 011800Z 07007KT 9999 SCT030 BKN250 28/20 A2998 RMK TCU DST ARND=
200606011900 METAR MRPV 011900Z 09012KT 9999 FEW010TCU SCT025 BKN250 27/20 A2995 RMK SHRA DST NW E=
200606012000 METAR MRPV 012000Z 09016KT 9999 FEW012TCU SCT020 BKN100 26/19 A2993 RMK SHRA DST E W=
200606012100 METAR MRPV 012100Z 10014KT 9999 SCT015 BKN100 23/18 A2993 RMK RASH DST SW=
200606012200 METAR MRPV 012200Z 10013KT 9999 SCT030 BKN100 23/18 A2995=
200606012300 METAR MRPV 012300Z 11010KT 9999 SCT020 BKN100 23/18 A2996=
200606020000 METAR MRPV NIL=
200606020100 METAR MRPV NIL=
200606020200 METAR MRPV NIL=
200606020300 METAR MRPV NIL=
200606020400 METAR MRPV NIL=
200606020500 METAR MRPV NIL=
200606020600 METAR MRPV NIL=
200606020700 METAR MRPV NIL=
200606020800 METAR MRPV NIL=
200606020900 METAR MRPV NIL=
200606021000 METAR MRPV NIL=
200606021100 METAR MRPV NIL=
200606021200 METAR MRPV 021200Z 11003KT CAVOK 19/17 A3001=
200606021300 METAR MRPV 021300Z 11005KT CAVOK 21/18 A3003 RMK BKN120 SCT250=
200606021400 METAR MRPV 021400Z 13006KT CAVOK 23/18 A3004 FEW120 BKN150=
200606021500 METAR MRPV 021500Z 10005KT 9999 FEW030 SCT130 BKN250 26/19 A3005 HZ W=
200606021600 METAR MRPV 021600Z 10011KT 9999 FEW040 SCT120 BKN250 26/16 A3004=
200606021700 METAR MRPV NIL=
200606021800 METAR MRPV NIL=
200606021900 METAR MRPV NIL=
200606022000 METAR MRPV NIL=
200606022100 METAR MRPV NIL=
200606022200 METAR MRPV NIL=
200606022300 METAR MRPV NIL=
200606030000 METAR MRPV NIL=
200606030100 METAR MRPV NIL=
200606030200 METAR MRPV NIL=
200606030300 METAR MRPV NIL=
200606030400 METAR MRPV NIL=
200606030500 METAR MRPV NIL=
200606030600 METAR MRPV NIL=
200606030700 METAR MRPV NIL=
200606030800 METAR MRPV NIL=
200606030900 METAR MRPV NIL=
200606031000 METAR MRPV NIL=
200606031100 METAR MRPV NIL=
200606031200 METAR MRPV NIL=
200606031300 METAR MRPV 031300Z 07003KT 9999 FEW030 OVC120 21/19 A3005=
200606031400 METAR MRPV 031400Z 00000KT 9999 FEW030 BKN120 23/19 A3005=
200606031500 METAR MRPV 031500Z 26004KT 9999 FEW030 OVC120 23/19 A3006=
200606031700 METAR MRPV 031700Z 28005KT 9999 SCT030 BKN100 23/19 A3004=
200606031900 METAR MRPV 031900Z 28008KT 9999 SCT030 SCT120 BKN250 26/20 A3000 RMK TCU CB SW W=
200606032000 METAR MRPV 032000Z 29011KT 9999 SCT030 BKN090 26/20 A2997=
200606032100 METAR MRPV 032100Z 28011KT 9999 4000SW BR FEW007 SCT020 BKN080 23/21 A2997=
200606032200 METAR MRPV 032200Z 28008KT 4000 RA BR SCT003 BKN010 21/20 A2998 RMK VIS NW 6000 MTS=
200606032300 METAR MRPV 032300Z 30006KT 5000 2000N RABR FEW005 SCT015 OVC100 20/20 A2999=
200606040000 METAR MRPV NIL=
200606040100 METAR MRPV NIL=
200606040200 METAR MRPV NIL=
200606040300 METAR MRPV NIL=
200606040400 METAR MRPV NIL=
200606040500 METAR MRPV NIL=
200606040600 METAR MRPV NIL=
200606040700 METAR MRPV NIL=
200606040800 METAR MRPV NIL=
200606040900 METAR MRPV NIL=
200606041000 METAR MRPV NIL=
200606041100 METAR MRPV NIL=
200606041200 METAR MRPV NIL=
200606041300 METAR MRPV 041300Z 07005KT CAVOK 21/18 A3000=
200606041400 METAR MRPV 041400Z VRB03KT CAVOK 24/19 A3006=
200606041500 METAR MRPV 041500Z 25006KT CAVOK 24/19 A3006=
200606041600 METAR MRPV 041600Z 27005KT 9999 FEW030 BKN250 24/19 A3006=
200606041700 METAR MRPV 041700Z 28007KT 9999 FEW030 BKN250 24/20 A3004=
200606041800 METAR MRPV 041800Z 27006KT 9999 FEW030 BKN250 24/20 A3002=
200606041900 METAR MRPV 041900Z 27008KT 9999 FEW030 BKN250 24/20 A3000=
200606042000 METAR MRPV 042000Z 28012KT 9999 SCT030 SCT100 BKN250 26/20 A2996 RMK TCU W SW=
200606042100 METAR MRPV 042100Z 27012KT 9999 FEW015TCU SCT030 BKN250 25/21 A2994 RMK RN NW N=
200606042200 METAR MRPV 042200Z 28012KT 9999 SCT010 BKN030 22/19 A2994 TCU ARND=
200606042300 METAR MRPV 042300Z 30009KT 4000 DZ SCT002 BKN018 21/20 A3009=
200606050000 METAR MRPV NIL=
200606050100 METAR MRPV NIL=
200606050200 METAR MRPV NIL=
200606050300 METAR MRPV NIL=
200606050400 METAR MRPV NIL=
200606050500 METAR MRPV NIL=
200606050600 METAR MRPV NIL=
200606050700 METAR MRPV NIL=
200606050800 METAR MRPV NIL=
200606050900 METAR MRPV NIL=
200606051000 METAR MRPV NIL=
200606051100 METAR MRPV NIL=
200606051200 METAR MRPV 051200Z 00000KT 9999 3000W BR FEW001 SCT015 BKN100 18/18 A3000=
200606051300 METAR MRPV 051300Z 00000KT 9999 3000SW BR FEW002 BKN250 19/19 A3000=
200606051400 METAR MRPV 051400Z 13004KT 9999 SCT030 SCT250 21/18 A3001 DU W OVCER PISTA 09=
200606051500 METAR MRPV 051500Z VRB03KT 9999 FEW030 BKN120 23/19 A3002 DU W=
200606051600 METAR MRPV 051600Z 25004KT 9999 FEW030 SCT120 BKN250 25/19 A3001=
200606051700 METAR MRPV 051700Z 26003KT 250V330KT 9999 FEW025 BKN250 26/19 A3000=
200606051800 METAR MRPV 051800Z 29009KT 9999 FEW025 BKN250 26/20 A2996=
200606051900 METAR MRPV 051900Z 27010KT 9999 FEW020 BKN250 26/21 A2994 RMK TCU RASH SE TCU S SW=
200606052000 METAR MRPV 052000Z 28014KT 9999 FEW015TCU SCT030 BKN250 25/21 A2991 RMK RN E SE=
200606052100 METAR MRPV 052100Z 27016KT 8000 3000SW BR SCT010 BKN020 23/21 A2991 RMK RN DST E=
200606052200 METAR MRPV 052200Z 28013KT 7000 3000E DZ BR SCT012 BKN030 21/20 A2991=
200606052300 METAR MRPV 052300Z 29008KT 5000 2000 +RA SCT008 BKN020 21/20 A2994=
200606060000 METAR MRPV NIL=
200606060100 METAR MRPV NIL=
200606060200 METAR MRPV NIL=
200606060300 METAR MRPV NIL=
200606060400 METAR MRPV NIL=
200606060500 METAR MRPV NIL=
200606060600 METAR MRPV NIL=
200606060700 METAR MRPV NIL=
200606060800 METAR MRPV NIL=
200606060900 METAR MRPV NIL=
200606061000 METAR MRPV NIL=
200606061100 METAR MRPV NIL=
200606061200 METAR MRPV 061200Z 00000KT 7000 3000SW -DZ BR FEW001 BKN012 20/19 A2998 RMK VIS W UNL=
200606061300 METAR MRPV 061300Z 30004KT 7000 3000W BR SCT002 BKN015 20/19 A3000=
200606061400 METAR MRPV 061400Z 29003KT 4000 BR FEW001 SCT012 BKN100 21/19 A3001=
200606061500 METAR MRPV 061500Z 27006KT 4000 BR SCT002 BKN015 21/19 A3004 RMK CONDICIONES MUY VARIABLES=
200606061600 METAR MRPV 061600Z VRB03KT 9999 4000E BR FEW004 SCT025 BKN120 23/19 A3003=
200606061700 METAR MRPV 061700Z VRB03KT 9999 FEW020 SCT120 BKN250 26/18 A3001=
200606061800 METAR MRPV 061800Z 27008KT 9999 FEW010 BKN025 25/18 A2999 RMK RN DST QUAD E=
200606061900 METAR MRPV 061900Z 27009KT 5000 2000E RA SCT010 SCT020 BKN100 22/20 A2998=
200606062000 METAR MRPV 062000Z 18012KT 8000 3000E -RA SCT010 BKN025 22/20 A2995=
200606062100 METAR MRPV 062100Z 29010 5000 2000E DZ BR SCT002 BKN018 21/20 A2995 RMK WET RNY=
200606062200 METAR MRPV 062200Z 30008KT 5000 2000E DZ BR SCT002 BKN018 20/19 A2995 RMK WET RNY=
200606062300 METAR MRPV 062300Z 30008KT 4000 -DZ BR SCT001 BKN010 20/19 A2996 RMK VIS NW UNLTD=
200606070000 METAR MRPV NIL=
200606070100 METAR MRPV NIL=
200606070200 METAR MRPV NIL=
200606070300 METAR MRPV NIL=
200606070400 METAR MRPV NIL=
200606070500 METAR MRPV NIL=
200606070600 METAR MRPV NIL=
200606070700 METAR MRPV NIL=
200606070800 METAR MRPV NIL=
200606070900 METAR MRPV NIL=
200606071000 METAR MRPV NIL=
200606071100 METAR MRPV NIL=
200606071200 METAR MRPV NIL=
200606071300 METAR MRPV NIL=
200606071400 METAR MRPV 071400Z 32004KT 6000 -RA BR FEW002 SCT020 BKN100 20/19 A3007 RMK VIS NW 8KMS DU APCH09=
200606071500 METAR MRPV 071500Z 31004KT 7000 VCFG SCT005 SCT020 BKN100 21/19 A3009=
200606071600 METAR MRPV 071600Z 31004KT 9999 FEW005 SCT015 BKN100 22/19 A3007 RMK VIS S 7KMS DUE LOW ST=
200606071700 METAR MRPV 071700Z 28005KT 9999 FEW006 SCT015 BKN100 23/18 A3007=
200606071800 METAR MRPV 071800Z 29003KT 9999 VCFG SCT012 OVC100 23/19 A3005 RERA RMK RASH W NW VIS SW 5KMS=
200606071900 METAR MRPV 071900Z 29009KT 9999 VCFG FEW010 SCT020 OVC100 22/20 A3003 RMK VIS SW 5KMS DUE FG=
200606072000 METAR MRPV 072000Z 31007KT 9999 FEW008 SCT020 BKN100 22/20 A3001=
200606072100 METAR MRPV 072100Z 30007KT 9999 SCT015 BKN100 23/19 A2999=
200606072200 METAR MRPV 072200Z 27006KT 9999 FEW010 SCT020 BKN100 22/19 A2999=
200606072300 METAR MRPV 072300Z 28004KT 9999 SCT020 BKN120 22/19 A3000=
200606080000 METAR MRPV NIL=
200606080100 METAR MRPV NIL=
200606080200 METAR MRPV NIL=
200606080300 METAR MRPV NIL=
200606080400 METAR MRPV NIL=
200606080500 METAR MRPV NIL=
200606080600 METAR MRPV NIL=
200606080700 METAR MRPV NIL=
200606080800 METAR MRPV NIL=
200606080900 METAR MRPV NIL=
200606081000 METAR MRPV NIL=
200606081100 METAR MRPV NIL=
200606081200 METAR MRPV 081200Z VRB03KT CAVOK 19/18 A3005=
200606081300 METAR MRPV 081300Z 08004KT CAVOK 20/18 A2999 RMK DU APCH 09=
200606081400 METAR MRPV 081400Z 03002KT CAVOK 24/19 A3007 RMK DU APCH 09=
200606081500 METAR MRPV 081500Z 28006KT 9999 SCT030 BKN120 24/19 A2988 RMK DU HZ W=
200606081600 METAR MRPV 081600Z 29006KT 9999 SCT030 BKN120 24/19 A3008=
200606081700 METAR MRPV 081700Z 29006KT 9999 SCT030 BKN100 25/17 A3007=
200606081800 METAR MRPV 081800Z 29008KT 9999 SCT030 BKN100 26/18 A3005 RMK RA NE=
200606081900 METAR MRPV 081900Z 30009KT 9999 SCT030 BKN100 25/18 A3003 RMK RN NE=
200606082000 METAR MRPV 082000Z 30007KT 9999 SCT025 BKN100 24/19 A3000=
200606082200 METAR MRPV 082200Z 31006KT 9999 3000NW +RA BR FEW008 SCT012 BKN100 21/20 A3000=
200606082300 METAR MRPV 082300Z 34004KT 7000 3000S RA BR FEW006 SCT015 BKN100 20/19 A3001=
200606090000 METAR MRPV NIL=
200606090100 METAR MRPV NIL=
200606090200 METAR MRPV NIL=
200606090300 METAR MRPV NIL=
200606090400 METAR MRPV NIL=
200606090500 METAR MRPV NIL=
200606090600 METAR MRPV NIL=
200606090700 METAR MRPV NIL=
200606090800 METAR MRPV NIL=
200606090900 METAR MRPV NIL=
200606091000 METAR MRPV NIL=
200606091100 METAR MRPV NIL=
200606091200 METAR MRPV NIL=
200606091300 METAR MRPV 091300Z 07003KT CAVOK 21/19 A3003 RMK HZ W=
200606091400 METAR MRPV 091400Z 00000KT CAVOK 24/19 A3004 RMK HZ W=
200606091600 METAR MRPV 091600Z 28008KT 9999 SCT030 BKN120 24/20 A3005=
200606091700 METAR MRPV 091700Z 30008KT 9999 SCT030 SCT120 BKN250 25/21 A3005=
200606091800 METAR MRPV 091800Z 28008KT 9999 SCT025 BKN250 25/20 A3002=
200606091900 METAR MRPV 091900Z 29010KT 9999 SCT030 SCT120 BKN250 25/20 A2998=
200606092000 METAR MRPV 092000Z 29010KT 9999 SCT030 SCT120 BKN250 25720 A2998 RMK RN NW N NE=
200606092100 METAR MRPV 092100Z 27006KT 7000 3000W RA BR SCT005 BKN010 21/20 A2995=
200606092200 METAR MRPV 092200Z 28004KT 5000 FEW004 SCT010 BKN100 20/20 A2996 RMK VSBY NW UNL=
200606092300 METAR MRPV 092300Z 00000KT 5000 BR SCT008 BKN015 21/20 A2996 SW W NW 3KM=
200606100000 METAR MRPV 100000Z 27004KT 5000 BR FEW002 BKN012 20/19 A2998 RMK VSBY S N 3KM SW W 7KM=
200606100100 METAR MRPV NIL=
200606100200 METAR MRPV NIL=
200606100300 METAR MRPV NIL=
200606100400 METAR MRPV NIL=
200606100500 METAR MRPV NIL=
200606100600 METAR MRPV NIL=
200606100700 METAR MRPV NIL=
200606100800 METAR MRPV NIL=
200606100900 METAR MRPV NIL=
200606101000 METAR MRPV NIL=
200606101100 METAR MRPV NIL=
200606101200 METAR MRPV NIL=
200606101300 METAR MRPV 101300Z 00000KT 7000 3000W BR SCT008 BKN020 20/19 A3003 RMK DU PISTA 09=
200606101400 METAR MRPV 101400Z VRB03KT 7000 3000W BR FEW010 SCT025 BKN120 22/19 A3003 RMK DU PISTA 09=
200606101500 METAR MRPV 101500Z VRB03KT 9999 FEW012 SCT120 BKN250 23/18 A3003 CB SW=
200606101600 METAR MRPV 101600Z VRB03KT 9999 FEW025 BKN270 24/18 A3002 CB SW W=
200606101700 METAR MRPV 101700Z VRB03KT 9999 FEW025 SCT100 BKN270 26/19 A3001 CB S SW=
200606101800 METAR MRPV 101800Z 27007KT 9999 FEW022 SCT100 BKN270 26/19 A2999=
200606101900 METAR MRPV 101900Z 27010KT 9999 SCT025 BKN090 29/25 A2980=
200606102000 METAR MRPV 102000Z 28010KT 9999 FEW015CB SCT020 BKN270 24/20 A2994 RMK TS NE SE=
200606102100 METAR MRPV 102100Z 26010KT 3000 TSRA SCT008CB BKN010 21/20 A2995=
200606102200 METAR MRPV 102200Z 32010KT 2500 +RA FEW010 BKN015 19/18 A2997 RMK TS DST NW=
200606102300 METAR MRPV 102300Z VRB03KT 5000 2000W RA BR FEW003 SCT020 BKN080 19/19 A2998=
200606110000 METAR MRPV NIL=
200606110100 METAR MRPV NIL=
200606110200 METAR MRPV NIL=
200606110300 METAR MRPV NIL=
200606110400 METAR MRPV NIL=
200606110500 METAR MRPV NIL=
200606110600 METAR MRPV NIL=
200606110700 METAR MRPV NIL=
200606110800 METAR MRPV NIL=
200606110900 METAR MRPV NIL=
200606111000 METAR MRPV NIL=
200606111100 METAR MRPV NIL=
200606111200 METAR MRPV NIL=
200606111300 METAR MRPV 111300Z 22007KT 9999 FEW010 SCT250 21/17 A3000=
200606111400 METAR MRPV 111400Z 31008KT 9999 3000N VCFG SCT008 SCT020 20/18 A3003=
200606111500 METAR MRPV 111500Z 34006KT 9999 SCT010 BKN022 22/19 A3004=
200606111600 METAR MRPV 111600Z 29006KT 9999 SCT015 24/18 A3003=
200606111700 METAR MRPV 111700Z 27006KT 9999 SCT025 SCT250 25/18 A3002=
200606111800 METAR MRPV 111800Z 30009KT 9999 SCT015TCU SCT250 26/19 A2999=
200606111900 METAR MRPV 111900Z 29010KT 9999 SCT020TCU SCT220 26/19 A2998=
200606112000 METAR MRPV 112000Z 27006KT 9999 FEW012TCU BKN025 27/19 A2996=
200606112200 METAR MRPV 112200Z 27015KT 9999 2000NE TS VCSH FEW008CB BKN020 22/20 A2995=
200606112300 METAR MRPV 112300Z 28008KT 6000 2500W -DZ BR SCT004 BKN020 21/20 A2996=
200606120000 METAR MRPV NIL=
200606120100 METAR MRPV NIL=
200606120200 METAR MRPV NIL=
200606120300 METAR MRPV NIL=
200606120400 METAR MRPV NIL=
200606120500 METAR MRPV NIL=
200606120600 METAR MRPV NIL=
200606120700 METAR MRPV NIL=
200606120800 METAR MRPV NIL=
200606120900 METAR MRPV NIL=
200606121000 METAR MRPV NIL=
200606121100 METAR MRPV NIL=
200606121200 METAR MRPV 121200Z 00000KT CAVOK 17/15 A3001=
200606121300 METAR MRPV 121300Z 06003KT CAVOK 20/16 A3002=
200606121400 METAR MRPV 121400Z 13006KT CAVOK 24/16 A3001=
200606121500 METAR MRPV 121500Z 09012KT CAVOK 26/18 A3001=
200606121600 METAR MRPV 121600Z 07015KT 9999 FEW025 BKN300 26/17 A3001=
200606121700 METAR MRPV 121700Z 08012KT 9999 SCT030 BKN300 27/17 3000=
200606121800 METAR MRPV 121800Z 29006KT 9999 FEW015TCU SCT030 BKN300 28/18 A2999 RMK DST N NW=
200606121900 METAR MRPV 121900Z 29010KT 9999 FEW012TCU SCT030 BKN300 27/21 RMK RN DST N=
200606122000 METAR MRPV NIL=
200606122100 METAR MRPV NIL=
200606122200 METAR MRPV NIL=
200606122300 METAR MRPV NIL=
200606130000 METAR MRPV NIL=
200606130100 METAR MRPV NIL=
200606130200 METAR MRPV NIL=
200606130300 METAR MRPV NIL=
200606130400 METAR MRPV NIL=
200606130500 METAR MRPV NIL=
200606130600 METAR MRPV NIL=
200606130700 METAR MRPV NIL=
200606130800 METAR MRPV NIL=
200606130900 METAR MRPV NIL=
200606131000 METAR MRPV NIL=
200606131100 METAR MRPV NIL=
200606131200 METAR MRPV 131200Z 13006KT 9999 FEW030 SCT270 21/17 A2998 RMK TCU DST SW=
200606131300 METAR MRPV 131300Z 12006KT CAVOK 23/18 A2997=
200606131400 METAR MRPV 131400Z 12007KT 9999 SCT030 BKN250 23/17 A3000=
200606131500 METAR MRPV 131500Z 00000KT 9999 SCT030 BKN120 27/18 A30010=
200606131600 METAR MRPV 131600Z 27005KT 9999 SCT030 BKN220 24/19 A3000=
200606131700 METAR MRPV 131700Z 33004KT 9999 SCT030 BKN250 26/20 A3000 RMK TCU RN N NW=
200606131800 METAR MRPV 131800Z 00000KT FEW020TCU SCT035 BKN250 26/20 A2992 RMK RN N NE=
200606131900 METAR MRPV 131900Z 28008KT 9999 SCT012TCU BKN080 26720 A2994 RMK CB RSH SW NW=
200606132000 METAR MRPV 132000Z 28008KT 9999 SCT010CB SCT020 BKN080 25/19 A2992 RMK 3000S TS VCSH=
200606132100 METAR MRPV 132100Z 33005KT 9999 SCT020 BKN100 22/20 A2993 RERA=
200606132200 METAR MRPV 132200Z 30006KT 8000 3000S BR SCT007 BKN020 21/20 A2994=
200606132300 METAR MRPV 132300Z 30005KT 3000 1000N RA BR SCT004 BKN010 21/20 A2996=
200606140000 METAR MRPV 140000Z 35003KT 8000 SCT010 BKN020 21/19 A2996 RERA=
200606140100 METAR MRPV NIL=
200606140200 METAR MRPV NIL=
200606140300 METAR MRPV NIL=
200606140400 METAR MRPV NIL=
200606140500 METAR MRPV NIL=
200606140600 METAR MRPV NIL=
200606140700 METAR MRPV NIL=
200606140800 METAR MRPV NIL=
200606140900 METAR MRPV NIL=
200606141000 METAR MRPV NIL=
200606141100 METAR MRPV NIL=
200606141200 METAR MRPV 141200Z 07003KT 9999 SCT040 SCT100 20/19 A3001 DU APCH09=
200606141300 METAR MRPV 141300Z 11003KT CAVOK 22/19 A3001 TCU LINE S W=
200606141400 METAR MRPV 141400Z 11006KT CAVOK 23/19 A3003 TCU S SW=
200606141500 METAR MRPV 141500Z 10004KT 9999 SCT025 BKN250 24/18 A3002=
200606141600 METAR MRPV 141600Z 28008KT 9999 SCT020 BKN250 25/20 A3003=
200606141700 METAR MRPV 141700Z 27009KT 9999 FEW030 SCT300 26/20 A3001 TCU RN DST SE=
200606141800 METAR MRPV 141800Z 28010KT 9999 TSRA FEW012 SCT020CB BKN030 24/20 A3000 VIS SE 6000 TCU CB SCT ARND=
200606141900 METAR MRPV 141900Z 28005KT 7000 -RA FEW010 SCT020 BKN030 22/21 A2998=
200606142000 METAR MRPV 142000Z 36004KT 5000 -RA BR SCT002 BKN008 21/20 A3000=
200606142100 METAR MRPV 142100Z 36003KT 5000 -RA BR SCT005 BKN012 21/20 A2998 RMK VSBY N 3KM=
200606142200 METAR MRPV 142200Z 11003KT 6000 -RA BR FEW010 SCT020 BKN100 21/20 A2999 RMK VSBY W UNL=
200606142300 METAR MRPV 142300Z 12006KT 9999 -RA FEW020 SCT035 BKN100 20/18 A3001=
200606150000 METAR MRPV NIL=
200606150100 METAR MRPV NIL=
200606150200 METAR MRPV NIL=
200606150300 METAR MRPV NIL=
200606150400 METAR MRPV NIL=
200606150500 METAR MRPV NIL=
200606150600 METAR MRPV NIL=
200606150700 METAR MRPV NIL=
200606150800 METAR MRPV NIL=
200606150900 METAR MRPV NIL=
200606151000 METAR MRPV NIL=
200606151100 METAR MRPV NIL=
200606151200 METAR MRPV 151200Z 10005KT CAVOK 19/16 A3001 RMK CB E S SW=
200606151300 METAR MRPV 151300Z 25002KT CAVOK 21/17 A3004 RMK CBDST NE/S/SW=
200606151400 METAR MRPV 151400Z 31006KT 9999 FEW035 BKN250 23/18 A3006=
200606151500 METAR MRPV 151500Z 33004KT 9999 SCT020 BKN250 24/19 A3008=
200606151600 METAR MRPV 151600Z 29005KT 9999 SCT025 BKN250 24/19 A3007=
200606151700 METAR MRPV 15J1700Z 29005KT 9999 SCT020 BKN250 25/19 A3006=
200606151800 METAR MRPV 151800Z 30006KT 9999 SCT020 BKN250 25/20 A3002=
200606151900 METAR MRPV 151900Z 29007KT 9999 SCT025 BKN250 26/19 A2999=
200606152000 METAR MRPV 152000Z 30008KT 9999 SCT025 BKN250 26/21 A2997=
200606152100 METAR MRPV 152100Z 27007KT 9999 SCT020 BKN100 26/21 A2996=
200606152200 METAR MRPV 152200Z 26004KT 9999 TS VCSH SCT004CB SCT020 BKN100 24/22 A2997=
200606152300 METAR MRPV 152300Z 13003KT 9999 FEW012 SCT020 BKN100 21/19 A2997 RMK VIS N 7000 RA ST=
200606160000 METAR MRPV NIL=
200606160100 METAR MRPV NIL=
200606160200 METAR MRPV NIL=
200606160300 METAR MRPV NIL=
200606160400 METAR MRPV NIL=
200606160500 METAR MRPV NIL=
200606160600 METAR MRPV NIL=
200606160700 METAR MRPV NIL=
200606160800 METAR MRPV NIL=
200606160900 METAR MRPV NIL=
200606161000 METAR MRPV NIL=
200606161100 METAR MRPV NIL=
200606161200 METAR MRPV 161200Z 12008KT CAVOK 20/16 A2999 CB DST NE SW=
200606161300 METAR MRPV 161300Z 13008KT CAVOK 22/17 A2999 RMK SCT300 CB DST SW/NE=
200606161400 METAR MRPV 161400Z 14006KT CAVOK 24/18 A2999 RMK SCT300 HZ DST W=
200606161500 METAR MRPV 161500Z 10012KT 9999 FEW035 26/17 A2985=
200606161600 METAR MRPV 161600Z 09015KT 9999 SCT035 26/18 A3001=
200606161700 METAR MRPV 161700Z 07010KT 9999 SCT035 27/18 A3000=
200606161800 METAR MRPV 161800Z 09010KT 9999 SCT035 SCT240 27/18 A2998=
200606161900 METAR MRPV 161900Z 30008KT 9999 SCT030 SCT250 29/18 A2997=
200606162000 METAR MRPV 162000Z 27012KT 9999 FEW015TCU BKN030 25/21 A2994=
200606162100 METAR MRPV 162100Z 28008KT 9999 SCT015TCU BKN030 25/20 A2994 RMK CB/ TS DST S=
200606162200 METAR MRPV 162200Z 29010KT 9999 FEW006 SCT025 BKN250 23/20 A2993 RMK CB DST W NW PCPN DST SE NW=
200606162300 METAR MRPV 162300Z 31008KT 7000 3000W BR SCT002 BKN018 22/20 A2995 RMK VIS SE UNLTD=
200606170000 METAR MRPV NIL=
200606170100 METAR MRPV NIL=
200606170200 METAR MRPV NIL=
200606170300 METAR MRPV NIL=
200606170400 METAR MRPV NIL=
200606170500 METAR MRPV NIL=
200606170600 METAR MRPV NIL=
200606170700 METAR MRPV NIL=
200606170800 METAR MRPV NIL=
200606170900 METAR MRPV NIL=
200606171000 METAR MRPV NIL=
200606171100 METAR MRPV NIL=
200606171300 METAR MRPV 171300Z 10012KT 9999 FEW012 SCT080 22/18 A2998=
200606171400 METAR MRPV 171400Z 09014KT 9999 FEW010 SCT080 24/18 A3000=
200606171500 METAR MRPV 171500Z 08015KT 9999 FEW015 BKN250 25/19 A3001 RMK PCPN DST N=
200606171600 METAR MRPV 171600Z 08013KT 9999 SCT015 BKN250 25/18 A3002=
200606171700 METAR MRPV 171700Z 08016KT 9999 SCT015 BKN250 26/18 A3000 RMK PCPN DST N=
200606171800 METAR MRPV 171800Z 06012KT 9999 SCT015 BKN250 26/20 A2999 RMK DST N=
200606171900 METAR MRPV 171900Z 06012KT 9999 FEW015TCU SCT025 BKN250 26/18 A2998 RMK PCPN DST E NW N=
200606172000 METAR MRPV 172000Z 10012KT 7000 3000NW RA SCT010 SCT030 BKN100 22/18 A2999 WET RNY=
200606172100 METAR MRPV 172100Z 10016KT 9999 FEW010 BKN270 23/18 A2997=
200606172200 METAR MRPV 172200Z 09015KT 9999 FEW015 SCT120 BKN250 23/17 A2995=
200606172300 METAR MRPV 172300Z 10015KT 9999 FEW020 OVC250 23/16 A2995=
200606180000 METAR MRPV NIL=
200606180100 METAR MRPV NIL=
200606180200 METAR MRPV NIL=
200606180300 METAR MRPV NIL=
200606180400 METAR MRPV NIL=
200606180500 METAR MRPV NIL=
200606180600 METAR MRPV NIL=
200606180700 METAR MRPV NIL=
200606180800 METAR MRPV NIL=
200606180900 METAR MRPV NIL=
200606181000 METAR MRPV NIL=
200606181100 METAR MRPV NIL=
200606181200 METAR MRPV NIL=
200606181300 METAR MRPV 181300Z 11011KT CAVOK 22/17 A3001=
200606181400 METAR MRPV 181400Z 09014KT CAVOK 24/16 A3002=
200606181500 METAR MRPV 181500Z 08013KT 9999 FEW010 26/16 A3003=
200606181600 METAR MRPV 181600Z 07014KT 9999 FEW010 SCT250 27/16 A3001=
200606181700 METAR MRPV 181700Z 06014KT 9999 FEW015 27/16 A3000=
200606181800 METAR MRPV 181800Z 05012KT 9999 SCT020 29/18 A2999=
200606181900 METAR MRPV 181900Z 07013KT 9999 FEW012TCU SCT030 28/18 A2998=
200606182200 METAR MRPV 182200Z 27008KT 9999 FEW010CB BKN030 25/22 A2994=
200606182300 METAR MRPV NIL=
200606190000 METAR MRPV NIL=
200606190100 METAR MRPV NIL=
200606190200 METAR MRPV NIL=
200606190300 METAR MRPV NIL=
200606190400 METAR MRPV NIL=
200606190500 METAR MRPV NIL=
200606190600 METAR MRPV NIL=
200606190700 METAR MRPV NIL=
200606190800 METAR MRPV NIL=
200606190900 METAR MRPV NIL=
200606191000 METAR MRPV NIL=
200606191100 METAR MRPV NIL=
200606191200 METAR MRPV 191200Z 13010KT CAVOK 21/17 A2999=
200606191300 METAR MRPV 191300Z 11011KT CAVOK 22/17 A3001 CB DST S GUST16KT=
200606191400 METAR MRPV 191400Z 08017KT CAVOK 24/18 A3003 CB DST S SCT250 GUST 24KT=
200606191500 METAR MRPV 191500Z 08014KT CAVOK 25/18 A3002=
200606191600 METAR MRPV 191600Z 08014KT 9999 FEW030 SCT150 26/17 A3003=
200606191700 METAR MRPV 191700Z 08013KT 9999 FEW035 BKN250 27/18 A3001=
200606191800 METAR MRPV 191800Z 07013KT 9999 SCT035 BKN250 27/18 A2999=
200606191900 METAR MRPV 191900Z 08012KT 9999 SCT035 BKN250 27/18 A2998=
200606192000 METAR MRPV 192000Z 08014KT 9999 SCT030 BKN120 26/18 A2998=
200606192100 METAR MRPV 192100Z 08010KT 9999 SCT020 BKN100 25/19 A2996=
200606192200 METAR MRPV 192200Z 10010KT 9999 FEW010 SCT020 BKN100 24/19 A2997=
200606192300 METAR MRPV 192300Z 12007KT 9999 FEW015 SCT025 BKN100 23/18 A2998=
200606200000 METAR MRPV NIL=
200606200100 METAR MRPV NIL=
200606200200 METAR MRPV NIL=
200606200300 METAR MRPV NIL=
200606200400 METAR MRPV NIL=
200606200500 METAR MRPV NIL=
200606200600 METAR MRPV NIL=
200606200700 METAR MRPV NIL=
200606200800 METAR MRPV NIL=
200606200900 METAR MRPV NIL=
200606201000 METAR MRPV NIL=
200606201100 METAR MRPV NIL=
200606201200 METAR MRPV NIL=
200606201300 METAR MRPV 201300Z 10015KT CAVOK 23/17 A3000 RMK BKN250 DZ DST NE=
200606201400 METAR MRPV 201400Z 09016KT 9999 FEW030 BKN250 24/18 A3000 RMK DZ NE OVR RDGS=
200606201500 METAR MRPV 201500Z 10014KT 9999 SCT030 BKN250 26/18 A3001=
200606201600 METAR MRPV 201600Z 05012KT 9999 FEW020 SCT030 BKN250 25/18 A3002 DZ NW N NE=
200606201700 METAR MRPV 201700Z 08016KT 9999 FEW012 SCT020 BKN100 23/18 A3003 RMK VSBY E 6KM RN N NE E=
200606201800 METAR MRPV 201800Z 11010KT 9999 VCSH SCT020 BKN100 22/18 A3003 RERA RKM VSBY S 6KM=
200606201900 METAR MRPV 201900Z 10022KT 9999 SCT025 BKN120 26/18 A2999=
200606202000 METAR MRPV 202000Z 09018KT 9999 SCT040 BKN120 26/16 A2997=
200606202100 METAR MRPV 202100Z 12010KT CAVOK 26/16 A2993=
200606202200 METAR MRPV 202200Z 10008KT CAVOK 26/16 A2993=
200606202300 METAR MRPV 202300Z 08016KT 9999 SCT040 BKN100 24/16 A2996=
200606210000 METAR MRPV NIL=
200606210100 METAR MRPV NIL=
200606210200 METAR MRPV NIL=
200606210300 METAR MRPV NIL=
200606210400 METAR MRPV NIL=
200606210500 METAR MRPV NIL=
200606210600 METAR MRPV NIL=
200606210700 METAR MRPV NIL=
200606210800 METAR MRPV NIL=
200606210900 METAR MRPV NIL=
200606211000 METAR MRPV NIL=
200606211100 METAR MRPV NIL=
200606211200 METAR MRPV 211200Z 10012KT CAVOK 22/17 A2998 BKN100 CB DST N=
200606211300 METAR MRPV 211300Z 10013KT CAVOK 23/17 A2999=
200606211400 METAR MRPV 211400Z 08015KT 9999 FEW040 SCT120 24/18 A3001=
200606211500 METAR MRPV 211500Z 08014KT 9999 FEW030 BKN120 24/18 A3003=
200606211600 METAR MRPV 211600Z 08012KT 9999 SCT030 BKN120 27/18 A3003 RMK DZ DST N NE=
200606211700 METAR MRPV 211700Z 05010KT 9999 SCT030 BKN100 25/18 A3004=
200606211800 METAR MRPV 211800Z 07012KT 9999 SCT040 BKN100 26/18 A3000 RMK DZ DST NE=
200606211900 METAR MRPV 211900Z 08015KT 9999 SCT025 BKN100 26/18 A2998 RMK RN DST NE E TCU DST ARND=
200606212000 METAR MRPV 212000Z 14006KT 9999 -RA FEW012 SCT020 BKN100 23/20 A2998 RMK VIS 5000S RA=
200606212100 METAR MRPV 212100Z 12008KT 9999 SCT020 BKN100 23/18 A2997=
200606212200 METAR MRPV 212200Z 10009KT 9999 FEW010 SCT025 BKN100 24/18 A2997=
200606212300 METAR MRPV 212300Z 08010KT 9999 SCT035 BKN120 23/18 A2997=
200606220000 METAR MRPV NIL=
200606220100 METAR MRPV NIL=
200606220200 METAR MRPV NIL=
200606220300 METAR MRPV NIL=
200606220400 METAR MRPV NIL=
200606220500 METAR MRPV NIL=
200606220600 METAR MRPV NIL=
200606220700 METAR MRPV NIL=
200606220800 METAR MRPV NIL=
200606220900 METAR MRPV NIL=
200606221000 METAR MRPV NIL=
200606221100 METAR MRPV NIL=
200606221200 METAR MRPV 221200Z 12006KT CAVOK 21/17 A3001 CB S SW=
200606221300 METAR MRPV 221300Z 12007KT CAVOK 23/17 A3002 RMK CB DST SW DU 09PCH=
200606221400 METAR MRPV 221400Z 12007KT CAVOK 25/17 A3002 RMK CB DST SW DU APCH09=
200606221500 METAR MRPV 221500Z 11010KT CAVOK 27/17 A3003 RMK CB DST SW DU ON APCH09=
200606221600 METAR MRPV 221600Z 08004KT 9999 FEW030 BKN250 28/17 A3002=
200606221700 METAR MRPV 221700Z 29012KT 9999 SCT030 BKN250 27/20 A3003 RMK TCU SW NW=
200606221800 METAR MRPV 221800Z 27014KT 9999 SCT030TCU BKN250 27/20 A3000=
200606221900 METAR MRPV 221900Z 28015KT 9999 SCT020TCU BKN250 27/21 A2998 RMK TS DST ESE=
200606222000 METAR MRPV 222000Z 30008KT 6000 -TSRA SCT010CB BKN020 22/21 A2997 RMK VIS E SE UNLTD=
200606222100 METAR MRPV 222100Z 36007KT 5000 2000NW -RA SCT008 BKN020 21/20 A2996 RMK VIS SE UNL TS DST N=
200606222200 METAR MRPV 222200Z VRB03KT 7000 3000 DZ SCT008 BKN022 21/19 A2998 RMK VIS E UNL=
200606222300 METAR MRPV 222300Z 06004KT 6000 RA SCT006 BKN020 21/20 A2999=
200606230000 METAR MRPV NIL=
200606230100 METAR MRPV NIL=
200606230200 METAR MRPV NIL=
200606230300 METAR MRPV NIL=
200606230400 METAR MRPV NIL=
200606230500 METAR MRPV NIL=
200606230600 METAR MRPV NIL=
200606230700 METAR MRPV NIL=
200606230800 METAR MRPV NIL=
200606230900 METAR MRPV NIL=
200606231000 METAR MRPV NIL=
200606231100 METAR MRPV NIL=
200606231200 METAR MRPV 231200Z 13005KT CAVOK 21/18 A2999 RMK CB DST N NE SW=
200606231300 METAR MRPV 231300Z 10011KT CAVOK 22/18 A3000 RMK CB NE SW=
200606231400 METAR MRPV 231400Z 12010KT CAVOK 24/18 A3000 RMK CB SW N=
200606231500 METAR MRPV 231500Z 12015KT CAVOK 25/18 A3001=
200606231600 METAR MRPV 231600Z 08016KT 9999 FEW025 BKN250 26/19 A3001=
200606231700 METAR MRPV 231700Z 08016KT 9999 SCT020 BKN250 27/19 A3001=
200606231800 METAR MRPV 231800Z 05010KT 9999 SCT020 BKN250 28/18 A3000=
200606231900 METAR MRPV 231900Z 28010KT 9999 FEW020TCU SCT030 BKN250 26/21 A2999=
200606232000 METAR MRPV 232000Z 29008KT 999 FEW020TCU SCT030 BKN250 26/21 A2996=
200606232100 METAR MRPV 232100Z 27008KT 8000 2000NE -TSRA SCT010CB BKN030 24/20 A2995=
200606232200 METAR MRPV 232200Z 29008KT 6000 2000W -DZ VCFG SCT002 BKN018 22/20 A2997 TS DST W VIS 9999 E SE=
200606232300 METAR MRPV 232300Z VRB03KT 9999 5000W SCT008 BKN250 23/20 A2994=
200606240000 METAR MRPV NIL=
200606240100 METAR MRPV NIL=
200606240200 METAR MRPV NIL=
200606240300 METAR MRPV NIL=
200606240400 METAR MRPV NIL=
200606240500 METAR MRPV NIL=
200606240600 METAR MRPV NIL=
200606240700 METAR MRPV NIL=
200606240800 METAR MRPV NIL=
200606240900 METAR MRPV NIL=
200606241000 METAR MRPV NIL=
200606241100 METAR MRPV NIL=
200606241200 METAR MRPV NIL=
200606241300 METAR MRPV 241300Z 12010KT 9999 FEW030 BKN250 23/16 A2997 CB DST SW=
200606241400 METAR MRPV 241400Z 10015KT 9999 FEW020 BKN250 25/18 A3000 CB DST SW=
200606241500 METAR MRPV 241500Z 10013KT 9999 FEW025 BKN250 26/18 A3003 CB DST S=
200606241600 METAR MRPV 241600Z 28005KT 9999 FEW030 BKN240 30/25 A2982 CB DST W NW N HZ ARND=
200606241700 METAR MRPV 241700Z 07012KT 9999 SCT022 BKN250 28/18 A3000 DU/09=
200606241800 METAR MRPV 241800Z 06008KT 9999 SCT030TCU BKN250 29/18 A2998 DU/09 OVCR=
200606241900 METAR MRPV 241900Z 26010KT 9999 SCT020TCU BKN250 27/21 A2994 RMK RN=
200606242000 METAR MRPV 242000Z 28013KT 9999 5000NW VCSH FEW010CB BKN025 27/18 A2992 TS DST N/S=
200606242100 METAR MRPV 242100Z 11008KT 4000 1000E TSRA SCT005CB BKN015 22/18 A2995=
200606242200 METAR MRPV 242200Z VRB03KT 5000 2000W -TSRA FEW002 FEW010CB BKN080 20/19 A29 CHECK TEXT NEW ENDING ADDED KATLYTAA=
200606242300 METAR MRPV 242300Z 13005KT 8000 3000W RA FEW020 OVC100 20/18 A2995 TS DST W=
200606250000 METAR MRPV NIL=
200606250100 METAR MRPV NIL=
200606250200 METAR MRPV NIL=
200606250300 METAR MRPV NIL=
200606250400 METAR MRPV NIL=
200606250500 METAR MRPV NIL=
200606250600 METAR MRPV NIL=
200606250700 METAR MRPV NIL=
200606250800 METAR MRPV NIL=
200606250900 METAR MRPV NIL=
200606251000 METAR MRPV NIL=
200606251100 METAR MRPV NIL=
200606251200 METAR MRPV NIL=
200606251300 METAR MRPV 251300Z 11005KT CAVOK 24/18 A2998=
200606251400 METAR MRPV 251400Z 10004KT CAVOK 26/17 A2999=
200606251500 METAR MRPV 251500Z 29010KT 9999 FEW040 BKN120 24/19 A3001=
200606251600 METAR MRPV 251600Z 30009KT 9999 SCT030 BKN120 24/20 A3001=
200606251700 METAR MRPV 251700Z 27008KT 9999 FEW020 SCT035 BKN120 25/20 A3001=
200606251800 METAR MRPV 251800Z 30006KT 9999 SCT025 BKN120 26/20 A2998=
200606252000 METAR MRPV 252000Z 27009KT 9999 TS VCSH SCT020CB BKN100 27/21 A2992 RMK VSBY E SE S 6KM DUE TSTM/RASH=
200606252100 METAR MRPV 252100Z 14005KT 3000 1000E TSRA SCT002 BKN010CB 20/18 A2993=
200606252200 METAR MRPV 252200Z 00000KT 9999 4000S TS VCSH SCT010CB SCT020 BKN100 20/19 A2993=
200606252300 METAR MRPV 252300Z 32003KT 4000 -RA BR SCT012 BKN020 20/19 A2996 RMK VIS 8000W=
200606260000 METAR MRPV NIL=
200606260100 METAR MRPV NIL=
200606260200 METAR MRPV NIL=
200606260300 METAR MRPV NIL=
200606260400 METAR MRPV NIL=
200606260500 METAR MRPV NIL=
200606260600 METAR MRPV NIL=
200606260700 METAR MRPV NIL=
200606260800 METAR MRPV NIL=
200606260900 METAR MRPV NIL=
200606261000 METAR MRPV NIL=
200606261100 METAR MRPV NIL=
200606261200 METAR MRPV 261200Z 07004KT CAVOK 20/18 A2995 CB DST S N=
200606261300 METAR MRPV 261300Z 14006KT CAVOK 22/18 A2997 RMK CB DST N NE S SW=
200606261400 METAR MRPV 261400Z 34005KT 9999 FEW030 BKN220 23/19 A3000 RMK CB DST S N=
200606261500 METAR MRPV 261500Z 29004KT 9999 SCT025 BKN100 24/19 A2995 RMK DU W=
200606261600 METAR MRPV 261600Z 08010KT 9999 FEW020 SCT035 BKN100 26/18 A3000=
200606261700 METAR MRPV 261700Z 08004KT 9999 SCT030 BKN100 26/18 A2997=
200606261800 METAR MRPV 261800Z 29003KT 9999 SCT030 BKN100 27/18 A2997=
200606261900 METAR MRPV 261900Z VRB03KT 9999 FEW020TCU SCT035 BKN100 26/21 A2995 RMK RN DST NE=
200606262000 METAR MRPV 262000Z 10006KT 9999 FEW012TCU SCT025 BKN100 25/20 A2994 RMK RN DST NW N NE=
200606262100 METAR MRPV 262100Z 06011KT 9999 FEW006TCU SCT015 BKN100 23/18 A2994 RMK RASH W NW N=
200606262200 METAR MRPV 262200Z 09014KT 9999 SCT020 BKN100 23/18 A2992=
200606262300 METAR MRPV 262300Z 13003KT 9999 SCT030 BKN100 23/18 A2993=
200606270000 METAR MRPV NIL=
200606270100 METAR MRPV NIL=
200606270200 METAR MRPV NIL=
200606270300 METAR MRPV NIL=
200606270400 METAR MRPV NIL=
200606270500 METAR MRPV NIL=
200606270600 METAR MRPV NIL=
200606270700 METAR MRPV NIL=
200606270800 METAR MRPV NIL=
200606270900 METAR MRPV NIL=
200606271000 METAR MRPV NIL=
200606271100 METAR MRPV NIL=
200606271200 METAR MRPV 271200Z 12008KT 9999 FEW030 BKN270 21/18 A2997 CB N=
200606271300 METAR MRPV 271300Z 11010KT CAVOK 23/18 A2998=
200606271400 METAR MRPV 271400Z 09013KT CAVOK 25/18 A2998=
200606271500 METAR MRPV 271500Z 08012KT 9999 SCT030 BKN250 26/19 A2999=
200606271600 METAR MRPV 271600Z 07009KT 9999 SCT040 27/19 A2999=
200606271700 METAR MRPV 271700Z 07014KT 9999 SCT030 27/19 A3000=
200606271800 METAR MRPV 271800Z 05008KT 9999 FEW025 SCT040 27/19 A2999=
200606271900 METAR MRPV 271900Z 05007KT 9999 SCT025 BKN100 29/19 A2997=
200606272000 METAR MRPV 272000Z 33003KT 9999 TS VCSH FEW006CB SCT020 BKN100 27/21 A2995 RMK VIS W NW 7KMS=
200606272100 METAR MRPV 272100Z 29008KT 9999 SCT030 BKN100 25/22 A2995 RMK VIS N 6000 VCSH=
200606272200 METAR MRPV 272200Z 30005KT 9999 -RA FEW008 SCT015 BKN100 23/21 A2995=
200606272300 METAR MRPV 272300Z 28004KT 3000 3000 W BR SCT003 BKN020 22/21 A2996=
200606280000 METAR MRPV NIL=
200606280100 METAR MRPV NIL=
200606280200 METAR MRPV NIL=
200606280300 METAR MRPV NIL=
200606280400 METAR MRPV NIL=
200606280500 METAR MRPV NIL=
200606280600 METAR MRPV NIL=
200606280700 METAR MRPV NIL=
200606280800 METAR MRPV NIL=
200606280900 METAR MRPV NIL=
200606281000 METAR MRPV NIL=
200606281100 METAR MRPV NIL=
200606281200 METAR MRPV 281200Z 10006KT 9999 BKN030 22/19 A2999 RMK RN DST NW NE CB DST SW N=
200606281300 METAR MRPV 281300Z 10007KT 9999 BKN025 23/19 A3001 RMK DZ N CB N S=
200606281400 METAR MRPV 281400Z 10008KT 9999 BKN030 24/19 A3003 RMK RN N NE CB SW=
200606281500 METAR MRPV 281500Z 10008KT 9999 FEW015 BKN030 24/19 A3003 RMK RN N NW=
200606281600 METAR MRPV 281600Z 09010KT 9999 FEW15 BKN030 25/20 A3004 RMK RN NW DU 09=
200606281700 METAR MRPV 281700Z 07011KT 9999 FEW015 SCT030 BKN250 25/18 A3003 RMK RN DIST N=
200606281800 METAR MRPV 281800Z 09009KT 9999 SCT015 BKN250 26/18 A3001 RMK RN NW CB SW=
200606281900 METAR MRPV 281900Z 07014KT 9999 FEW015 BKN250 26/18 A2999 RMK EN NW=
200606282000 METAR MRPV 282000Z 07014KT 9999 FEW015TCU BKN030 27/18 A2997=
200606282200 METAR MRPV 282200Z 09012KT 9999 SCT020 BKN250 25/19 A2995=
200606282300 METAR MRPV 282300Z 09010KT 9999 SCT025 OVC250 24/19 A2996=
200606290000 METAR MRPV NIL=
200606290100 METAR MRPV NIL=
200606290200 METAR MRPV NIL=
200606290300 METAR MRPV NIL=
200606290400 METAR MRPV NIL=
200606290500 METAR MRPV NIL=
200606290600 METAR MRPV NIL=
200606290700 METAR MRPV NIL=
200606290800 METAR MRPV NIL=
200606290900 METAR MRPV NIL=
200606291000 METAR MRPV NIL=
200606291100 METAR MRPV NIL=
200606291200 METAR MRPV 291200Z 10008KT 9999 4000E -RA FEW015 BKN030 22/19 A2998=
200606291300 METAR MRPV 291300Z 11008KT 9999 3000NE -RA FEW015 SCT030 BKN090 21/19 A3000=
200606291400 METAR MRPV 291400Z 13004KT 9999 -DZ FEW015 SCT030 BKN090 21/19 A3000 RERA=
200606291500 METAR MRPV 291500Z 16009KT 8000 3000NE -RA SCT010 BKN025 21/19 A3001 VIS W 9999=
200606291600 METAR MRPV 291600Z 09007KT 7000 3000NE RA SCT004 BKN020 21/20 A3002 VIS 9999 W=
200606291700 METAR MRPV 291700Z 08015KT 9999 SCT015 BKN250 24/20 A3000 CB DST W=
200606291800 METAR MRPV 291800Z 08014KT 9999 FEW020 BKN250 27/20 A2997=
200606291900 METAR MRPV 291900Z 09015KT 9999 SCT025 BKN250 25/20 A2996=
200606292100 METAR MRPV 292100Z 08020KT 9999 FEW030 SCT100 BKN250 26/19 A2992 RN N/NE=
200606292200 METAR MRPV 292200Z 07020KT 9999 SCT022 BKN250 24/19 A2993 RN N=
200606292300 METAR MRPV NIL=
200606300000 METAR MRPV NIL=
200606300100 METAR MRPV NIL=
200606300200 METAR MRPV NIL=
200606300300 METAR MRPV NIL=
200606300400 METAR MRPV NIL=
200606300500 METAR MRPV NIL=
200606300600 METAR MRPV NIL=
200606300700 METAR MRPV NIL=
200606300800 METAR MRPV NIL=
200606300900 METAR MRPV NIL=
200606301000 METAR MRPV NIL=
200606301100 METAR MRPV NIL=
200606301200 METAR MRPV NIL=
200606301300 METAR MRPV 301300Z 12010KT 9999 SCT025 BKN250 22/19 A2997 RERA RN N CB W=
200606301400 METAR MRPV 301400Z 09014KT 9999 2000NE -RA FEW020 SCT120 BKN250 22/19 A2997=
200606301500 METAR MRPV 301500Z 09018KT 9999 3000NE FEW018 SCT120 BKN250 23/19 A2997=
200606301600 METAR MRPV 301600Z 09020G30KT 9999 FEW015 BKN250 24/19 A2994 RN N=
200606301700 METAR MRPV 301700Z 08015G25KT 9999 FEW020 BKN250 25/19 A2983 RN N NE=
200606301800 METAR MRPV 301800Z 07015G25KT 9999 FEW020 BKN250 25/19 A2992 RN N NE=
200606301900 METAR MRPV 301900Z 08020KT 9999 SCT025 BKN250 26/20 A2991 RN N E=
200606302000 METAR MRPV 302000Z 08022 9999 SCT020 BKN250 25/19 A2991 RN N NE=
200606302100 METAR MRPV 302100Z 07017KT 9999 SCT020 BKN250 24/19 A2990 RMK RN DST N NE=
200606302200 METAR MRPV 302200Z 08020KT 9999 SCT020 BKN250 25/19 A2990 RMK RN DST N NE=
200606302300 METAR MRPV 302300Z 09020KT 9999 SCT020 BKN250 22/18 A2992=
200607010000 METAR MRPV NIL=
200607010100 METAR MRPV NIL=
200607010200 METAR MRPV NIL=
200607010300 METAR MRPV NIL=
200607010400 METAR MRPV NIL=
200607010500 METAR MRPV NIL=
200607010600 METAR MRPV NIL=
200607010700 METAR MRPV NIL=
200607010800 METAR MRPV NIL=
200607010900 METAR MRPV NIL=
200607011000 METAR MRPV NIL=
200607011100 METAR MRPV NIL=
200607011200 METAR MRPV 011200Z 11013KT 9999 SCT020 SCT120 22/19 A2994 RMK CB DIST E/S=
200607011300 METAR MRPV 011300Z 11010KT 9999 SCT020 SCT100 22/19 A2995 RMK DZ DST NE=
200607011400 METAR MRPV 011400Z 10014KT 9999 SCT020 BKN120 24/19 A2997 RMK DZ NE=
200607011500 METAR MRPV 011500Z 09014KT 9999 SCT020 BKN120 25/19 A2998 RMK DZ DST N NE=
200607011600 METAR MRPV 011600Z 09022KT 9999 SCT020 SCT120 25/19 A2996=
200607011700 METAR MRPV 011700Z 08020KT 9999 SCT020 26/19 A2996=
200607011800 METAR MRPV 011800Z 07015KT 9999 SCT025 27/19 A2996=
200607011900 METAR MRPV 011900Z 07011KT 9999 FEW020 SCT035 26/19 A2995=
200607012000 METAR MRPV 012000Z 08010KT 9999 SCT030 28/19 A2993=
200607012100 METAR MRPV 012100Z 09010KT 9999 SCT020 BKN035 26/19 A2992=
200607012200 METAR MRPV 012200Z 10013KT 9999 BKN025 26/19 A2992=
200607012300 METAR MRPV 012300Z 10006KT 9999 SCT025 27/19 A2993=
200607020000 METAR MRPV NIL=
200607020100 METAR MRPV NIL=
200607020200 METAR MRPV NIL=
200607020300 METAR MRPV NIL=
200607020400 METAR MRPV NIL=
200607020500 METAR MRPV NIL=
200607020600 METAR MRPV NIL=
200607020700 METAR MRPV NIL=
200607020800 METAR MRPV NIL=
200607020900 METAR MRPV NIL=
200607021000 METAR MRPV NIL=
200607021100 METAR MRPV NIL=
200607021200 METAR MRPV NIL=
200607021300 METAR MRPV 021300Z 13005KT 9999 SCT030 OVC100 23/19 A3005 RMK RN/DZ NW N NE=
200607021400 METAR MRPV 021400Z 11008KT 9999 SCT020 OVC100 24/19 A3002=
200607021500 METAR MRPV 021500Z 10019KT 9999 SCT025 BKN120 24/19 A3002=
200607021600 METAR MRPV 021600Z 09014KT 9999 SCT025 OVC120 26/19 A3002=
200607021700 METAR MRPV 021700Z 08012KT 9999 SCT030 BKN250 26/19 A3000=
200607021800 METAR MRPV 021800Z 07015KT 9999 SCT030 BKN250 26/19 A2999=
200607021900 METAR MRPV 021900Z 09013KT 9999 SCT025 SCT120 26/19 A2999=
200607022000 METAR MRPV NIL=
200607022100 METAR MRPV 022100Z 08011KT 9999 SCT030 BKN250 28/19 A2996=
200607022200 METAR MRPV 022200Z 10010KT 9999 SCT035 BKN250 27/20 A2996=
200607022300 METAR MRPV 022300Z 09010KT 9999 SCT035 BKN250 27/20 A2997=
200607030000 METAR MRPV 030000Z 08008KT 9999 SCT030 BKN250 25/19 A2998=
200607030100 METAR MRPV NIL=
200607030200 METAR MRPV NIL=
200607030300 METAR MRPV NIL=
200607030400 METAR MRPV NIL=
200607030500 METAR MRPV NIL=
200607030600 METAR MRPV NIL=
200607030700 METAR MRPV NIL=
200607030800 METAR MRPV NIL=
200607030900 METAR MRPV NIL=
200607031000 METAR MRPV NIL=
200607031100 METAR MRPV NIL=
200607031200 METAR MRPV 031200Z 11006KT 9999 FEW030 OVC250 22/18 A3004=
200607031300 METAR MRPV 031300Z 12006KT 9999 FEW030 OVC250 24/18 A3004=
200607031400 METAR MRPV 031400Z 11008KT 9999 FEW030 OVC250 25/19 A3006=
200607031500 METAR MRPV 031500Z 12006KT 9999 FEW030 OVC250 24/18 A3004=
200607031600 METAR MRPV 031600Z 08008KT 9999 FEW030 OVC250 27/19 A3005=
200607031700 METAR MRPV 031700Z 08012KT 9999 SCT030 OVC250 27/19 A3004=
200607031800 METAR MRPV 031800Z 10007KT 9999 BKN030 OVC250 27/20 A3004=
200607031900 METAR MRPV 031900Z 00000KT 9999 SCT030 OVC120 28/20 A3002=
200607032000 METAR MRPV 032000Z 35003KT 9999 -RA FEW015 SCT025 OVC100 25/22 A3000=
200607032100 METAR MRPV 032100Z 22004KT 9999 -TSRA FEW010CB SCT020 OVC100 25/22 A2999 VIS NW 6000/RA=
200607032200 METAR MRPV 032200Z 32006KT 9999 4000S BR VCSH SCT003CB BKN015 22/21 A3001 RETS=
200607032300 METAR MRPV 032300Z 32005KT 3000 BR BKN003 22/21 A3002 RETS=
200607040000 METAR MRPV 040000Z 30003KT 3000 BR SCT002 OVC010 22/21 A3005=
200607040100 METAR MRPV NIL=
200607040200 METAR MRPV NIL=
200607040300 METAR MRPV NIL=
200607040400 METAR MRPV NIL=
200607040500 METAR MRPV NIL=
200607040600 METAR MRPV NIL=
200607040700 METAR MRPV NIL=
200607040800 METAR MRPV NIL=
200607040900 METAR MRPV NIL=
200607041000 METAR MRPV NIL=
200607041100 METAR MRPV NIL=
200607041200 METAR MRPV 041200Z 12007KT CAVOK 22/18 A3001 RMK CB DST NW NE SW=
200607041300 METAR MRPV 041300Z 10013KT CAVOK 24/19 A3002=
200607041400 METAR MRPV 041400Z 09015KT CAVOK 25/19 A3003=
200607041500 METAR MRPV 041500Z 08018KT 9999 FEW040 BKN250 25/19 A3005=
200607041700 METAR MRPV 041700Z 08012KT 9999 FEW040 SCT120 BKN250 25/18 A3003=
200607041800 METAR MRPV 041800Z 07012KT 9999 FEW035 SCT120 BKN250 25/17 A3002=
200607041900 METAR MRPV 041900Z 06015KT CAVOK 25/17 A3001=
200607042000 METAR MRPV 042000Z 07014KT 9999 FEW040 SCT120 BKN250 26/18 A2997=
200607042100 METAR MRPV 042100Z 08014KT 9999 FEW040 SCT120 BKN250 28/18 A2996=
200607042200 METAR MRPV 042200Z 08015KT 9999 FEW040 BKN250 26/18 A2996=
200607042300 METAR MRPV 042300Z 09010KT CAVOK 25/18 A2997 RMK TCU SW CB DST S=
200607050000 METAR MRPV 050000Z 10012KT 9999 FEW040 SCT120 BKN250 24/18 A3000=
200607050100 METAR MRPV NIL=
200607050200 METAR MRPV NIL=
200607050300 METAR MRPV NIL=
200607050400 METAR MRPV NIL=
200607050500 METAR MRPV NIL=
200607050600 METAR MRPV NIL=
200607050700 METAR MRPV NIL=
200607050800 METAR MRPV NIL=
200607050900 METAR MRPV NIL=
200607051000 METAR MRPV NIL=
200607051100 METAR MRPV NIL=
200607051200 METAR MRPV 051200Z 11008KT CAVOK 22/15 A3000=
200607051300 METAR MRPV 051300Z 10008KT CAVOK 22/15 A3002=
200607051400 METAR MRPV 051400Z 10011KT CAVOK 23/16 A3004=
200607051500 METAR MRPV 051500Z 11010KT CAVOK 24/16 A3005=
200607051600 METAR MRPV 051600Z 10008KT CAVOK 25/17 A3006 BKN120 SCT250=
200607051800 METAR MRPV 051800Z 07004KT CAVOK 26/17 A3006=
200607051900 METAR MRPV 051900Z 30003KT 9999 SCT040 BKN120 26/20 A3003=
200607052000 METAR MRPV 052000Z 09008KT 9999 FEW040 SCT110 BKN140 26/18 A3001=
200607052100 METAR MRPV 052100Z 08006KT 9999 FEW010 SCT090 BKN120 25/28 A2999 RMK TCU RN DST NW=
200607052200 METAR MRPV 052200Z 00000KT 9999 4000SW BR FEW006 SCT025 BKN120 24/21 A3001 RMK CB DST WSW=
200607052300 METAR MRPV 052300Z VRB03KT 9999 4000W BR FEW005 SCT015 BKN120 A3002=
200607060000 METAR MRPV 060000Z 09008KT 9999 3500NW BR FEW003 SCT030 BKN120 23/19 A3003=
200607060100 METAR MRPV NIL=
200607060200 METAR MRPV NIL=
200607060300 METAR MRPV NIL=
200607060400 METAR MRPV NIL=
200607060500 METAR MRPV NIL=
200607060600 METAR MRPV NIL=
200607060700 METAR MRPV NIL=
200607060800 METAR MRPV NIL=
200607060900 METAR MRPV NIL=
200607061000 METAR MRPV NIL=
200607061100 METAR MRPV NIL=
200607061200 METAR MRPV 061200Z 00000KT 9999 VCFG FEW005 SCT250 20/18 A3006 VIS W 7000=
200607061300 METAR MRPV 061300Z 04003KT CAVOK 22/19 A3007 RMK TCU DST SW HZW=
200607061400 METAR MRPV 061400Z 13006KT CAVOK 24/18 A3008 RMK HZ QUAD W=
200607061500 METAR MRPV 061500Z 06004KT 9999 FEW035 BKN250 26/18 A3008 RMK LEVE HZ QUAD W=
200607061600 METAR MRPV 061600Z 11004KT 9999 SCT040 BKN250 26/18 A3007 RMK LEVE HZY=
200607061700 METAR MRPV 061700Z 11005KT 9999 FEW040 SCT120 BKN250 28/18 A3006 RMK HZY=
200607061800 METAR MRPV 061800Z 30008KT 9999 FEW015TCU SCT040 BKN250 26/20 A3004 RMK HZY=
200607061900 METAR MRPV 061900Z 32009KT 9999 FEW020 SCT140 BKN250 26/21 A3002 RMK CB DST NE E LEVE HZ QUAD W=
200607062000 METAR MRPV 062000Z 28012KT 9999 FEW035 BKN250 27/22 A3000 RMK CB DST NE E SE S=
200607062100 METAR MRPV 062100Z 28010KT 9999 4000SE +TSRA FEW005 SCT010CB SCT025 24/22 A2998=
200607062200 METAR MRPV 062200Z 30006KT 4000 -DZ BR SCT002 BKN008 22/22 A3001 RERA RMK VIS SE UNLTD=
200607062300 METAR MRPV 062300Z 25002KT 9999 4000W BR FEW003 BKN100 21/20 A3002=
200607070000 METAR MRPV 070000Z 08002KT 9999 VCFG FEW006 BKN120 21/20 A3003=
200607070100 METAR MRPV NIL=
200607070200 METAR MRPV NIL=
200607070300 METAR MRPV NIL=
200607070400 METAR MRPV NIL=
200607070500 METAR MRPV NIL=
200607070600 METAR MRPV NIL=
200607070700 METAR MRPV NIL=
200607070800 METAR MRPV NIL=
200607070900 METAR MRPV NIL=
200607071000 METAR MRPV NIL=
200607071100 METAR MRPV NIL=
200607071200 METAR MRPV 071200Z 10005KT CAVOK 19/18 A3007=
200607071300 METAR MRPV 071300Z 12009KT 9999 FEW030 BKN120 22/18 A3006=
200607071400 METAR MRPV 071400Z 10008KT CAVOK 24/19 A3005 RMK SCT120 BKN250=
200607071500 METAR MRPV 071500Z 13005KT CAVOK 25/18 A3002 RMK SCT120 BKN250=
200607071600 METAR MRPV 071600Z 08010KT 9999 FEW030 SCT120 BKN250 27/19 A3002=
200607071700 METAR MRPV NIL=
200607071800 METAR MRPV 071800Z 08015KT 9999 SCT020 BKN100 25/18 A3003=
200607071900 METAR MRPV 071900Z 09010KT 9999 SCT025 BKN100 25/18 A3000=
200607072000 METAR MRPV 072000Z 09013KT 9999 VCSH SCT020TCU BKN100 26/19 A3000 VIS NE E 6KMS DUE RASH=
200607072100 METAR MRPV 072100Z 10014KT 9999 SCT020TCU BKN100 25/19 A2998=
200607072200 METAR MRPV 072200Z 09011KT 9999 SCT025 BKN100 25/19 A2997=
200607072300 METAR MRPV 072300Z 10009KT 9999 FEW015 SCT025 BKN100 24/19 A2998=
200607080000 METAR MRPV 080000Z 12009KT 9999 SCT010 BKN025 23/18 A2998=
200607080100 METAR MRPV NIL=
200607080200 METAR MRPV NIL=
200607080300 METAR MRPV NIL=
200607080400 METAR MRPV NIL=
200607080500 METAR MRPV NIL=
200607080600 METAR MRPV NIL=
200607080700 METAR MRPV NIL=
200607080800 METAR MRPV NIL=
200607080900 METAR MRPV NIL=
200607081000 METAR MRPV NIL=
200607081100 METAR MRPV NIL=
200607081200 METAR MRPV 081200Z 12010KT 9999 FEW020 BKN250 21/18 A2999=
200607081300 METAR MRPV 081300Z 12011KT 9999 SCT020 BKN250 22/18 A3001=
200607081400 METAR MRPV 081400Z 13010KT 9999 SCT025 BKN250 24/18 A3001=
200607081800 METAR MRPV 081800Z 10008KT 9999 SCT020 BKN120 25/19 A3000=
200607081900 METAR MRPV 081900Z 08011KT 9999 SCT030 BKN100 26/18 A2997=
200607082000 METAR MRPV 082000Z 09008KT 9999 SCT030 BKN120 27/18 A2994=
200607082100 METAR MRPV 082100Z 08005KT 9999 SCT040 OVC120 27/18 A2994=
200607082200 METAR MRPV 082200Z 29005KT 9999 VCSH FEW006TCU SCT015 BKN035 24/22 A2994 RN DST N NE SW 6 KM=
200607082300 METAR MRPV 082300Z 17003KT 9999 4000W BR FEW010 SCT015 BKN100 21/19 A2996=
200607090000 METAR MRPV 090000Z 00000KT 9999 SCT020 OVC100 21/19 A2996=
200607090100 METAR MRPV NIL=
200607090200 METAR MRPV NIL=
200607090300 METAR MRPV NIL=
200607090400 METAR MRPV NIL=
200607090500 METAR MRPV NIL=
200607090600 METAR MRPV NIL=
200607090700 METAR MRPV NIL=
200607090800 METAR MRPV NIL=
200607090900 METAR MRPV NIL=
200607091000 METAR MRPV NIL=
200607091100 METAR MRPV NIL=
200607091200 METAR MRPV 091200Z 00000KT 0600 FG OVC001 19/19 A2997=
200607091300 METAR MRPV 091300Z 00000KT 9999 4000SW BR FEW012 BKN250 21/20 A2997=
200607091400 METAR MRPV 091400Z 12005KT 9999 FEW030 SCT120 BKN250 25/18 A2998=
200607091500 METAR MRPV 091500Z 08008KT 9999 SCT040 BKN250 26/18 A3000=
200607091600 METAR MRPV 091600Z 07006KT 9999 SCT040 BKN250 27/18 A2999=
200607091700 METAR MRPV 091700Z 09007KT 9999 SCT040 BKN250 28/18 A2999=
200607091800 METAR MRPV 091800Z 28009KT 9999 SCT020 BKN080 27/21 A2997=
200607091900 METAR MRPV 091900Z 31006KT 9999 FEW010 SCT025 BKN100 24/21 A2994 RMK RN SW=
200607092000 METAR MRPV 092000Z 24004KT 4000 RA BR SCT007 BKN020 21/20 A2993 RMK VSB E SE 8000=
200607092100 METAR MRPV 092100Z 33003KT 3000 +RA BR SCT003 BKN010 21/21 A2993=
200607092200 METAR MRPV 092200Z 01004KT 3000 RA BR BKN003 OVC100 20/19 A2994 VSBY E 6KM=
200607092300 METAR MRPV 092300Z 31004KT 2000 RA BR BKN003 OVC100 20/19 A2997=
200607100000 METAR MRPV 100000Z 00000KT 2000 RA BR BKN004 OVC100 20/19 A2998=
200607100100 METAR MRPV NIL=
200607100200 METAR MRPV NIL=
200607100300 METAR MRPV NIL=
200607100400 METAR MRPV NIL=
200607100500 METAR MRPV NIL=
200607100600 METAR MRPV NIL=
200607100700 METAR MRPV NIL=
200607100800 METAR MRPV NIL=
200607100900 METAR MRPV NIL=
200607101000 METAR MRPV NIL=
200607101100 METAR MRPV NIL=
200607101200 METAR MRPV 101200Z 13006KT CAVOK 21/18 A2997=
200607101300 METAR MRPV 101300Z 12008KT CAVOK 22/18 A2999=
200607101400 METAR MRPV 101400Z 13010KT 9999 FEW030 SCT120 BKN230 22/18 A2998 RMK CB N=
200607101600 METAR MRPV 101600Z 10012KT 9999 FEW035 BKN230 25/19 A3001=
200607101700 METAR MRPV 101700Z 07014KT 9999 FEW035 BKN230 26/19 A2999=
200607101800 METAR MRPV 101800Z 08015KT 9999 SCT035 SCT250 26/18 A2998=
200607101900 METAR MRPV 101900Z 08013KT 9999 FEW035 BKN250 27/19 A2996=
200607102000 METAR MRPV 102000Z 10008KT 9999 FEW040 BKN250 28/18 A2993=
200607102100 METAR MRPV 102100Z 08008KT 9999 FEW035 BKN250 28/18 A2992 RMK CB DST WSW=
200607102200 METAR MRPV 102200Z 08014KT 9999 FEW015 BKN250 26/18 A2992 RMK RASH DST NW TCU WSW=
200607102300 METAR MRPV 102300Z 10012KT 9999 VCFG FEW008 SCT120 BKN250 25/18 A2993 RMK 7000 DZ NE DST LINEA TCU SW NW=
200607110000 METAR MRPV 110000Z 08010KT 9999 VCFG FEW003 SCT120 BKN250 24/19 A2995 RMK 5000 W=
200607110100 METAR MRPV NIL=
200607110200 METAR MRPV NIL=
200607110300 METAR MRPV NIL=
200607110400 METAR MRPV NIL=
200607110500 METAR MRPV NIL=
200607110600 METAR MRPV NIL=
200607110700 METAR MRPV NIL=
200607110800 METAR MRPV NIL=
200607110900 METAR MRPV NIL=
200607111000 METAR MRPV NIL=
200607111100 METAR MRPV NIL=
200607111200 METAR MRPV 111200Z 12010KT 9999 FEW030 SCT250 22/18 A2992 RMK DZ DST N NE=
200607111300 METAR MRPV 111300Z 09015KT 9999 SCT025 SCT120 23/19 A3001 RMK DZ NW/N/NE DST=
200607111400 METAR MRPV 111400Z 09014KT 9999 FEW030 SCT120 25/19 A3001 RMK DZ NE DST RAFAGAS 19KT=
200607111500 METAR MRPV 111500Z 11016G28KT 9999 FEW040 SCT120 25/15 A3001=
200607111600 METAR MRPV 111600Z 12014KT 9999 FEW040 SCT120 25/14 A3002 RMK RAFAGAS 20 KTS=
200607111700 METAR MRPV 111700Z 10010KT 9999 FEW040 BKN120 24/18 A3001=
200607111800 METAR MRPV 111800Z 100G20KT CAVOK 26/17 A2997 RERA=
200607111900 METAR MRPV 111900Z 09013KT CAVOK 26/18 A2996 RMK RAFAGAS 20KTS=
200607112000 METAR MRPV 112000Z 07015KT CAVOK 27/17 A2996 RMK TCU DST N=
200607112100 METAR MRPV 112100Z 07015KT 9999 FEW045 BKN270 26/17 A2995 RMK FEW130=
200607112200 METAR MRPV 112200Z 06014KT CAVOK 27/17 A2994 RMK FEW130 SCT300 CB DST N=
200607112300 METAR MRPV 112300Z 07012KT CAVOK 25/17 A2994 RMK FEW130 SCT250 CB DST NW N=
200607120000 METAR MRPV 12000Z 07011KT 9999 FEW035 SCT120 24/17 A2998 RMK CB DST W/N=
200607120100 METAR MRPV NIL=
200607120200 METAR MRPV NIL=
200607120300 METAR MRPV NIL=
200607120400 METAR MRPV NIL=
200607120500 METAR MRPV NIL=
200607120600 METAR MRPV NIL=
200607120700 METAR MRPV NIL=
200607120800 METAR MRPV NIL=
200607120900 METAR MRPV NIL=
200607121000 METAR MRPV NIL=
200607121100 METAR MRPV NIL=
200607121200 METAR MRPV 121200Z 12010KT CAOK 21/17 A2998 SCT270 TCU SW=
200607121300 METAR MRPV 121300Z 10012KT 9999 FEW030 SCT270 22/18 A3000 RMK CB DIST SW=
200607121400 METAR MRPV 121400Z 09014KT CAVOK 24/18 A3000 RMK FEW130 SCT1300=
200607121500 METAR MRPV 121500Z 08013KT 9999 FEW035 SCT130 25/18 A3002 RMK CB DIST SW=
200607121600 METAR MRPV 121600Z 05014KT 9999 SCT030 27/18 A3001 RMK DZ DST N NE=
200607121700 METAR MRPV 121700Z 08015KT 9999 FEW035 SCT250 27/19 A3001=
200607121800 METAR MRPV 121800Z 09016KT 9999 SCT035 SCT250 27/19 A3001 RMK TCU DIST W=
200607121900 METAR MRPV 121900Z 09015KT 9999 SCT035 SCT250 26/19 A2998 RMK DZ DST NE=
200607122000 METAR MRPV 122000Z 09012KT 9999 FEW040 BKN250 27/19 A2995/ RMK DZ NE E DIST. TCU DIST WSW W.CB NW=
200607122100 METAR MRPV 122100Z 09013KT 9999 SCT035 SCT100 26/19 A2994 RMK TCU W=
200607122200 METAR MRPV 122200Z 07013KT 9999 FEW035 BKN250 25/19 A2992 RMK RN N NE CB SW=
200607122300 METAR MRPV 122300Z 09013KT 9999 FEW020 BKN035 25/19 A2994 RMK CB W SW DZ NE=
200607130000 METAR MRPV 130000Z 07011KT 9999 VCFG FEW003 BKN030 24/19 A2996 RMK VIS W 6KM TCU DST WSW=
200607130100 METAR MRPV NIL=
200607130200 METAR MRPV NIL=
200607130300 METAR MRPV NIL=
200607130400 METAR MRPV NIL=
200607130500 METAR MRPV NIL=
200607130600 METAR MRPV NIL=
200607130700 METAR MRPV NIL=
200607130800 METAR MRPV NIL=
200607130900 METAR MRPV NIL=
200607131000 METAR MRPV NIL=
200607131100 METAR MRPV NIL=
200607131200 METAR MRPV 131200Z 13007KT 9999 SCT015 BKN100 22/19 A2997=
200607131300 METAR MRPV 131300Z 13008KT 9999 FEW025 BKN120 22/18 A2998=
200607131400 METAR MRPV 131400Z 10011KT 9999 FEW030 BKN120 23/18 A2998=
200607131500 METAR MRPV NIL=
200607131600 METAR MRPV 131600Z 09016KT 9999 SCT025 BKN120 25/19 A2999=
200607131700 METAR MRPV 131700Z 10011KT 9999 SCT025 BKN120 26/19 A3000=
200607131800 METAR MRPV 131800Z 09012KT 9999 SCT025 BKN100 28/19 A2998 RMK RN NW E=
200607131900 METAR MRPV 131900Z 08010KT 9999 SCT025 BKN100 26/18 A2996 RMK RN SE S=
200607132000 METAR MRPV 132000Z 10008KT 9999 VCSH FEW010TCU SCT025 BKN100 26/19 A2995=
200607132100 METAR MRPV 132100Z 12004KT 3000 RA BR FEW007 SCT012 BKN020 22/20 A2996=
200607132200 METAR MRPV 132200Z 09006KT 6000 RA SCT020 BKN100 22/20 A2997 RMK RN N 4000=
200607132300 METAR MRPV 132300Z 15003KT 5000 RA BR SCT010 BKN020 20/19 A2998 RMK 3000 E 9999 W=
200607140000 METAR MRPV 140000Z 08005KT 6000 -RA BR FEW008 SCT012 OVC100 20/19 A2997=
200607140100 METAR MRPV NIL=
200607140200 METAR MRPV NIL=
200607140300 METAR MRPV NIL=
200607140400 METAR MRPV NIL=
200607140500 METAR MRPV NIL=
200607140600 METAR MRPV NIL=
200607140700 METAR MRPV NIL=
200607140800 METAR MRPV NIL=
200607140900 METAR MRPV NIL=
200607141000 METAR MRPV NIL=
200607141100 METAR MRPV NIL=
200607141200 METAR MRPV 141200Z 12004KT CAVOK 20/18 A2997=
200607141300 METAR MRPV 141300Z 11005KT CAVOK 21/18 A2998=
200607141400 METAR MRPV 141400Z 12008KT 9999 FEW030 OVC120 23/19 A2999=
200607141500 METAR MRPV 141500Z 12006KT 9999 SCT0390 BKN120 24/19 A3001=
200607141600 METAR MRPV 141600Z 13005KT 9999 SCT025 OVC120 24/18 A3001=
200607141700 METAR MRPV 141700Z 12006KT 9999 SCT025 OVC100 24/18 A3001=
200607141800 METAR MRPV 141800Z 30003KT 9999 SCT030 OVC100 24/20 A2999=
200607141900 METAR MRPV 141900Z 00000KT 9999 FEW010TCU SCT025 OVC100 26/19 A2998 RMK RN N=
200607142000 METAR MRPV 142000Z 12009KT 9999 SCT020TCU OVC100 25/19 A2995=
200607142100 METAR MRPV 142100Z 1009KT 9999 SCT020TCU OVC100 24/19 A2995=
200607142200 METAR MRPV 142200Z 08011KT 9999 SCT020 OVC100 24/18 A2996=
200607142300 METAR MRPV 142300Z 10009KT 9999 FEW010 SCT020 OVC100 24/18 A2997=
200607150000 METAR MRPV 150000Z 12009KT 9999 SCT020TCU OVC100 23/18 A2999 VSBY W NW 6KM LOW ST=
200607150100 METAR MRPV NIL=
200607150200 METAR MRPV NIL=
200607150300 METAR MRPV NIL=
200607150400 METAR MRPV NIL=
200607150500 METAR MRPV NIL=
200607150600 METAR MRPV NIL=
200607150700 METAR MRPV NIL=
200607150800 METAR MRPV NIL=
200607150900 METAR MRPV NIL=
200607151000 METAR MRPV NIL=
200607151100 METAR MRPV NIL=
200607151200 METAR MRPV 151200Z 10003KT CAVOK 19/17 A3001 RMK CB SW=
200607151300 METAR MRPV 151300Z 14006KT CAVOK 21/17 A3001 RMK BKN120 CB DST SW=
200607151400 METAR MRPV 151400Z 12007KT 9999 FEW030 SCT120 BKN250 23/18 A3002=
200607151500 METAR MRPV 151500Z 10009KT 9999 FEW030 SCT140 BKN250 25/18 A3002=
200607151600 METAR MRPV 151600Z 10008KT 9999 SCT030 BKN250 26/18 A3003=
200607151700 METAR MRPV 151700Z 08008KT 9999 SCT030 BKN250 27/18 A3001=
200607151800 METAR MRPV 151800Z 10011KT 9999 SCT030 BKN250 28/19 A2999=
200607151900 METAR MRPV 151900Z 28009KT 9999 SCT030 BKN250 26/21 A2998=
200607152100 METAR MRPV 152100Z 16002KT 7000 3000SW TSRA FEW006 SCT020CB OVC100 19/19 A2999=
200607152200 METAR MRPV 152200Z 05002KT 8000 -TSRA SCT015CB OVC080 19/19 A2999=
200607152300 METAR MRPV 152300Z 00000KT 9999 -RA SCT020 OVC100 21/20 A3001=
200607160000 METAR MRPV NIL=
200607160100 METAR MRPV NIL=
200607160200 METAR MRPV NIL=
200607160300 METAR MRPV NIL=
200607160400 METAR MRPV NIL=
200607160500 METAR MRPV NIL=
200607160600 METAR MRPV NIL=
200607160700 METAR MRPV NIL=
200607160800 METAR MRPV NIL=
200607160900 METAR MRPV NIL=
200607161000 METAR MRPV NIL=
200607161100 METAR MRPV NIL=
200607161200 METAR MRPV 161200Z 09015KT 9999 SCT020 BKN250 20/16 A2998=
200607161300 METAR MRPV 161300Z 08013KT 9999 FEW020 BKN250 23/17 A2998=
200607161400 METAR MRPV 161400Z 08021KT 9999 FEW020 BKN250 23/17 A2999=
200607161500 METAR MRPV 161500Z 07020KT 9999 FEW030 BKN250 25/17 A3001=
200607161600 METAR MRPV 161600Z 10012KT 9999 FEW030 BKN250 27/18 A3000=
200607161700 METAR MRPV 161700Z 09014KT 9999 SCT025 BKN250 27/19 A2999=
200607161800 METAR MRPV 161800Z 08012KT 9999 SCT020 BKN250 27/19 A2997 RMK CB DST S SW=
200607161900 METAR MRPV 161900Z 08011KT 9999 FEW010TCU SCT025 BKN250 27/19 A2995 RMK CB DST S SW W RN DST NW N=
200607162000 METAR MRPV 162000Z 14012KT 5000 2000NW -TSRA SCT010CB BKN020 22/18 A2996 RMK 999 SE=
200607162100 METAR MRPV 162100Z 07007KT 8000 3000NW RA SCT015 BKN090 21/19 A2997 RMK VIS E SE S UNLTD=
200607162200 METAR MRPV 162200Z VRB03KT 9999 RA SCT025 OVC100 21/19 A2994=
200607162300 METAR MRPV 162300Z 10506KT 9999 -RA SCT030 BKN120 21/19 A2993=
200607170000 METAR MRPV NIL=
200607170100 METAR MRPV NIL=
200607170200 METAR MRPV NIL=
200607170300 METAR MRPV NIL=
200607170400 METAR MRPV NIL=
200607170500 METAR MRPV NIL=
200607170600 METAR MRPV NIL=
200607170700 METAR MRPV NIL=
200607170800 METAR MRPV NIL=
200607170900 METAR MRPV NIL=
200607171000 METAR MRPV NIL=
200607171100 METAR MRPV NIL=
200607171200 METAR MRPV 171200Z 09009KT CAVOK 21/18 A2997 CB DST S SW=
200607171300 METAR MRPV 171300Z 11008KT CAVOK 23/18 A2998 RMK BKN090 FU SW=
200607171400 METAR MRPV 171400Z 11010KT CAVOK 24/18 A2999 RMK BKN090 CB DST SW=
200607171500 METAR MRPV 171500Z 11012KT 9999 FEW020 SCT090 BKN250 25/18 A2999 RMK CB DST SW=
200607171600 METAR MRPV 171600Z 09012KT 9999 FEW020 SCT090 BKN250 26/19 A2999 RMK TCU DST NW W=
200607171700 METAR MRPV 171700Z 08008KT 9999 SCT020 SCT100 BKN250 27/18 A2998 PCPN DST NW=
200607171800 METAR MRPV 171800Z 28012KT 9999 SCT020 SCT100 BKN250 26/20 A2995 RMK PCPN ESE/NW=
200607171900 METAR MRPV 171900Z 28013KT 9999 FEW010CB BKN025 24/20 A2995 RMK RN SE S N DST=
200607172000 METAR MRPV 172000Z 15005KT 5000 RA SCT002 BKN020 22/21 A2994 RMK VIS S QUAD UNLTD=
200607172100 METAR MRPV 172100Z 25010KT 3000 -TSRA SCT002 FEW010CB BKN020 20/20 A2995=
200607172200 METAR MRPV 172200Z 24007KT 2500 +RA SCT002 BKN012 20/19 A2997=
200607172300 METAR MRPV 172300Z VRB03KT 2800 +RA SCT002 BKN010 20/19 A3000=
200607180000 METAR MRPV NIL=
200607180100 METAR MRPV NIL=
200607180200 METAR MRPV NIL=
200607180300 METAR MRPV NIL=
200607180400 METAR MRPV NIL=
200607180500 METAR MRPV NIL=
200607180600 METAR MRPV NIL=
200607180700 METAR MRPV NIL=
200607180800 METAR MRPV NIL=
200607180900 METAR MRPV NIL=
200607181000 METAR MRPV NIL=
200607181100 METAR MRPV NIL=
200607181200 METAR MRPV 181200Z 09005KT CAVOK 18/17 A3000 RMK POLVO PISTA 09=
200607181300 METAR MRPV 181300Z VRB03KT CAVOK 19/17 A3002=
200607181400 METAR MRPV 181400Z VRB03KT CAVOK 23/17 A3003=
200607181500 METAR MRPV 181500Z VRB03 CAVOK 26/16 A3003=
200607181600 METAR MRPV 181600Z VRB03KT CAVOK 27/17 A3001=
200607181700 METAR MRPV 181700Z 08006KT 9999 FEW025 BKN100 27/15 A3000=
200607181800 METAR MRPV 181800Z 27009KT 9999 FEW025 SCT100 28/19 A2998=
200607182000 METAR MRPV 182000Z 08010KT 9999 3000NE VCTS FEW010CB BKN030 27/19 A2995=
200607182100 METAR MRPV 182100Z 28010KT 5000 2000NW -RA FEW010CB BKN025 22/20 A2995 RMK TSTM W NW=
200607182200 METAR MRPV 182200Z VRB03KT 6000 3000W RA SCT002 BKN018 20/19 A2996=
200607182300 METAR MRPV 182300Z 00000KT 5000 2500W +RA SCT002 BKN020 20/19 A2998=
200607190000 METAR MRPV NIL=
200607190100 METAR MRPV NIL=
200607190200 METAR MRPV NIL=
200607190300 METAR MRPV NIL=
200607190400 METAR MRPV NIL=
200607190500 METAR MRPV NIL=
200607190600 METAR MRPV NIL=
200607190700 METAR MRPV NIL=
200607190800 METAR MRPV NIL=
200607190900 METAR MRPV NIL=
200607191000 METAR MRPV NIL=
200607191100 METAR MRPV NIL=
200607191200 METAR MRPV 121200Z 13007KT CAVOK 20/18 A2999 RMK FEW100 BKN250 CB DST NE SW=
200607191300 METAR MRPV 191300Z 13010KT CAVOK 22/18 A3001 RMK CB DST NE SW=
200607191400 METAR MRPV 191400Z 11012KT CAVOK 24/18 A3001=
200607191500 METAR MRPV 191500Z 08013KT CAVOK 25/19 A3006=
200607191600 METAR MRPV 191600Z 07008KT 9999 FEW040 BKN250 27/18 A3001=
200607191700 METAR MRPV 191700Z 29013KT 9999 FEW020TCU SCT040 BKN250 26/20 A3002 RMK RN DST NE=
200607191800 METAR MRPV 191800Z 30013KT 9999 FEW020TCU SCT040 SCT250 25/20 A3000 RMK RN DST N NE E=
200607191900 METAR MRPV 191900Z 24008KT 9999 FEW015TCU BKN035 23/19 A2999 RETS RMK RN DST N SW W=
200607192000 METAR MRPV 192000Z 30008KT 9000 4000NE VCSH FEW003 FEW010CB BKN025 23/20 A2998 RMK TS E SE=
200607192100 METAR MRPV 192100Z 08004KT 4000 -RA BR SCT003 BKN012 21/20 A2999=
200607192300 METAR MRPV 192300Z 30004KT 3000 -DZ BR SCT002 BKN008 20/19 A3001=
200607200000 METAR MRPV 200000Z 09004KT 9999 4000NE BR FEW003 SCT030 BKN100 20/19 A3001=
200607200100 METAR MRPV NIL=
200607200200 METAR MRPV NIL=
200607200300 METAR MRPV NIL=
200607200400 METAR MRPV NIL=
200607200500 METAR MRPV NIL=
200607200600 METAR MRPV NIL=
200607200700 METAR MRPV NIL=
200607200800 METAR MRPV NIL=
200607200900 METAR MRPV NIL=
200607201000 METAR MRPV NIL=
200607201100 METAR MRPV NIL=
200607201200 METAR MRPV 201200Z 12008KT 9999 FEW030 BKN100 22/18 A3001 RMK DZ NE=
200607201300 METAR MRPV 201300Z 10009KT CAVOK 22/18 A3002 FEW120 BKN270 CB DST NE=
200607201400 METAR MRPV 201400Z 13006KT CAVOK 23/18 A3004 FEW120 SCT270 CB E=
200607201500 METAR MRPV 201500Z 10011KT 9999 FEW035 SCT270 25/19 A3005=
200607201600 METAR MRPV 201600Z 08010KT 9999 SCT030 SCT300 26/19 A3005 DZ N=
200607201700 METAR MRPV 201700Z 08010KT 9999 FEW030 SCT120 BKN250 26/19 A3004 DZ N=
200607201800 METAR MRPV 201800Z 08005KT 9999 SCT035 SCT300 28/19 A3002 TCU N SW=
200607201900 METAR MRPV 201900Z 28008KT 9999 FEW015CB BKN030 25/21 A3000 RN NE SW NW=
200607202000 METAR MRPV 202000Z 27008KT 9999 FEW005 FEW015TCU BKN025 24/21 A2988 RN DST N=
200607202100 METAR MRPV 202100Z 28006KT 9999 VCFG FEW005 FEW010TCU BKN020 23/20 A2996 VIS 6000 W=
200607202200 METAR MRPV 202200Z 31004KT 9000 4000SW VCFG FEW005 FEW010TCU BKN020 23/20 A2995=
200607202300 METAR MRPV 202300Z 13006KT 5000 -RA FEW005 SCT020 BKN100 22/20 A2998 VIS S/SW 9999=
200607210000 METAR MRPV 210000Z 13010KT 8000 VCSH FEW015 BKN100 21/19 A2998 VIS 6000 W/NW=
200607210100 METAR MRPV NIL=
200607210200 METAR MRPV NIL=
200607210300 METAR MRPV NIL=
200607210400 METAR MRPV NIL=
200607210500 METAR MRPV NIL=
200607210600 METAR MRPV NIL=
200607210700 METAR MRPV NIL=
200607210800 METAR MRPV NIL=
200607210900 METAR MRPV NIL=
200607211000 METAR MRPV NIL=
200607211100 METAR MRPV NIL=
200607211200 METAR MRPV 211200Z 08005KT CAVOK 19/17 A3000=
200607211300 METAR MRPV 211300Z 11008KT CAVOK 21/18 A3001 OVC250=
200607211400 METAR MRPV 211400Z 02010KT CAVOK 23/18 A3004 OVC250=
200607211500 METAR MRPV 211500Z 10012KT 9999 FEW025 BKN250 25/18 A3005=
200607211600 METAR MRPV 211600Z 11010KT 9999 FEW025 BKN250 26/18 A3004=
200607211700 METAR MRPV 211700Z 11010KT 9999 FEW025 BKN250 27/19 A3002=
200607211800 METAR MRPV 211800Z 27010KT 9999 SCT020 BKN250 25/20 A3000 RN DST N NW=
200607211900 METAR MRPV 211900Z 28014KT 9999 SCT020 BKN250 25/20 A2999 RN N NE=
200607212000 METAR MRPV 212000Z 31010KT 3000 TSRA SCT010CB SCT020 23/20 A2997 VIS W 9999=
200607212100 METAR MRPV 212100Z 12008KT 4000 +RA SCT008 SCT025 BKN090 18/17 A2999 VIS S UNLTD=
200607212200 METAR MRPV 212200Z VRB03KT 5000 RA FEW008 SCT020 OVC100 19/18 A3000 RMK VIS 3KMS W DUE RASH VIS SE S UNLTD=
200607212300 METAR MRPV 212300Z VRB03KT 5000 RA FEW002 SCT025 OVC100 19/19 A3000 RMK 3KMS DUE RASH VIS SE S UNL=
200607220000 METAR MRPV NIL=
200607220100 METAR MRPV NIL=
200607220200 METAR MRPV NIL=
200607220300 METAR MRPV NIL=
200607220400 METAR MRPV NIL=
200607220500 METAR MRPV NIL=
200607220600 METAR MRPV NIL=
200607220700 METAR MRPV NIL=
200607220800 METAR MRPV NIL=
200607220900 METAR MRPV NIL=
200607221000 METAR MRPV NIL=
200607221100 METAR MRPV NIL=
200607221200 METAR MRPV 221200Z 12010KT 9999 FEW020 SCT100 BKN250 20/17 A3000 RN NE=
200607221300 METAR MRPV 221300Z 12010KT 9999 FEW020 SCT100 BKN250 22/17 A3001 RN DST NE=
200607221400 METAR MRPV 221400Z 11011KT 9999 FEW020 SCT100 BKN250 23/18 A3002 RMK FU OVR APCH09 DST NE=
200607221500 METAR MRPV 221500Z 11011KT 9999 FEW020 SCT100 BKN250 23/18 A3006 RMK FU OVR APCH09=
200607221600 METAR MRPV 221600Z 07013KT 9999 SCT020 BKN250 25/18 A3005 RMK RN DST NE DUST OVR AP09=
200607221700 METAR MRPV 221700Z 07008KT 9999 SCT025 BKN250 25/19 A3003=
200607221800 METAR MRPV 221800Z VRB03KT 9999 SCT022 SCT100 BKN250 27/18 A3002 RMK TCU W NW=
200607221900 METAR MRPV 221900Z 07008KT 9999 FEW015TCU BKN030 27/18 A2999 RMK RN DST NW NE=
200607222000 METAR MRPV 222000Z 32007KT 7000 3000NW -RA VCSH SCT010CB BKN020 23/19 A2998 RMK VIS S SE UNL RASH NW N=
200607222100 METAR MRPV 222100Z 28008KT 9999 SCT008 BKN020 22/20 A2998=
200607222200 METAR MRPV 222200Z 30006KT 3000 -RA FG SCT002 BKN012 21/20 A2999=
200607222300 METAR MRPV 222300Z VRB03KT 9999 -RA FEW002 BKN100 21/19 A2999 VIS NW W 2KMTS DUE ST=
200607230000 METAR MRPV NIL=
200607230100 METAR MRPV NIL=
200607230200 METAR MRPV NIL=
200607230300 METAR MRPV NIL=
200607230400 METAR MRPV NIL=
200607230500 METAR MRPV NIL=
200607230600 METAR MRPV NIL=
200607230700 METAR MRPV NIL=
200607230800 METAR MRPV NIL=
200607230900 METAR MRPV NIL=
200607231000 METAR MRPV NIL=
200607231100 METAR MRPV NIL=
200607231200 METAR MRPV 231200Z 12010KT CAVOK 18/14 A3001=
200607231300 METAR MRPV 231300Z 12011KT CAVOK 21/14 A3001=
200607231400 METAR MRPV 231400Z 09010G20KT CAVOK 23/16 A3003=
200607231500 METAR MRPV 231500Z 09010G20KT CAVOK 24/17 A3004=
200607231600 METAR MRPV 231600Z 07010G20KT 9999 FEW025 SCT100 24/16 A3004=
200607231700 METAR MRPV 231700Z 08010G20KT 9999 FEW020 SCT100 25/17 A3005 RMK RN E=
200607231800 METAR MRPV 231800Z 09016KT 9999 SCT020 SCT100 25/17 A3004 RMK RN NE=
200607231900 METAR MRPV 231900Z 08015KT 9999 SCT020 SCT250 27/17 A3002=
200607232000 METAR MRPV 232000Z 08015KT 9999 SCT020 SCT100 27/18 A2999 RMK TCU SW W=
200607232100 METAR MRPV 232100Z 29008KT 9999 4000SW BR FEW005 SCT015 BKN250 22/20 A3000 RM RASH DST NE=
200607232200 METAR MRPV 232200Z 10010KT 9999 FEW020 BKN250 23/18 A2997 TCU LINE NW CB DST E SE RN NE=
200607232300 METAR MRPV 232300Z 28008KT 9999 FEW004 SCT100 BKN250 22/20 A2998 RMK CB DST E=
200607240000 METAR MRPV NIL=
200607240100 METAR MRPV NIL=
200607240200 METAR MRPV NIL=
200607240300 METAR MRPV NIL=
200607240400 METAR MRPV NIL=
200607240500 METAR MRPV NIL=
200607240600 METAR MRPV NIL=
200607240700 METAR MRPV NIL=
200607240800 METAR MRPV NIL=
200607240900 METAR MRPV NIL=
200607241000 METAR MRPV NIL=
200607241100 METAR MRPV NIL=
200607241200 METAR MRPV 241200Z 13010KT CAVOK 21/16 A3000 RMK CB DST SW SCT100 SCT280=
200607241300 METAR MRPV 241300Z 10014KT CAVOK 22/17 A3003=
200607241400 METAR MRPV 241400Z 12014KT CAVOK 23/17 A3003=
200607241500 METAR MRPV 241500Z 09010KT CAVOK 26/17 A3004=
200607241600 METAR MRPV 241600Z 08013KT CAVOK 26/18 A3003=
200607241700 METAR MRPV 241700Z 09008KT 9999 FEW040 BKN100 27/19 A3002=
200607241800 METAR MRPV 241800Z 06008KT 9999 FEW040 SCT100 27/18 A3000=
200607241900 METAR MRPV 241900Z 02010KT 9999 FEW025TCU FEW040 SCT300 27/22 A2997=
200607242000 METAR MRPV 242000Z 27008KT 9999 VCSH SCT015TCU SCT035 27/22 A2993 RMK 7000 NE=
200607242010 SPECI MRPV 242010Z 29006KT 4000 TSRA FEW006 SCT012CB BKN020 24/21 A2996=
200607242100 METAR MRPV 242100Z 17004KT 9999 4000W -RA SCT030 BKN100 20/19 A2998 TS DST W=
200607242200 METAR MRPV 242200Z 12006KT 9999 -RA OVC100 21/19 A2997 VSBY W 6KM=
200607242300 METAR MRPV 242300Z 15005KT 9999 4000W BR FEW001 OVC100 20/18 A2997 RERA LTNG DST W=
200607250000 METAR MRPV 250000Z 14007KT 9999 FEW030 OVC100 21/18 A2998=
200607250100 METAR MRPV NIL=
200607250200 METAR MRPV NIL=
200607250300 METAR MRPV NIL=
200607250400 METAR MRPV NIL=
200607250500 METAR MRPV NIL=
200607250600 METAR MRPV NIL=
200607250700 METAR MRPV NIL=
200607250800 METAR MRPV NIL=
200607250900 METAR MRPV NIL=
200607251000 METAR MRPV NIL=
200607251100 METAR MRPV NIL=
200607251200 METAR MRPV 251200Z 12008KT CAVOK 21/17 A2998=
200607251300 METAR MRPV 251300Z 11012KT CAVOK 22/17 A2999 CB DST N=
200607251400 METAR MRPV 251400Z 09015KT 9999 FEW035 24/18 A3001=
200607251500 METAR MRPV 251500Z 07016KT 9999 FEW035 25/17 A3001=
200607251600 METAR MRPV 251600Z 09016G26KT 9999 -DZ SCT030 26/18 A3003 RN N=
200607251700 METAR MRPV 251700Z 07015G25KT 9999 BKN03524/18 A3002 DZ NE WC APC RWY 09 /10=
200607251800 METAR MRPV 251800Z 08015G25KT 9999 SCT035 26/18 A2999 RMK DZ N QUAD OVR RDGS WS APCH RWY 09+-5=
200607251900 METAR MRPV 251900Z 07014G24KT 9999 SCT035 SCT250 26/18 A2998 DZ N NE=
200607252000 METAR MRPV 252000Z 09015G25KT 9999 SCT035 BKN250 26/17 A2995 HZ LEVE ARND=
200607252100 METAR MRPV 252100Z 05014G24KT 9999 FEW040 BKN250 26/16 A2995 DU ARND=
200607252200 METAR MRPV 252200Z 07013KT 9999 FEW035 BKN250 25/17 A2995 RN DST N/NE DU ARND=
200607252300 METAR MRPV 252300Z 09013KT 9999 FEW040 BKN250 24/17 A2996 RN DST N NE DU ARND=
200607260000 METAR MRPV 260000Z 09013KT 9999 -RA SCT035 BKN100 22/16 A2999=
200607260100 METAR MRPV NIL=
200607260200 METAR MRPV NIL=
200607260300 METAR MRPV NIL=
200607260400 METAR MRPV NIL=
200607260500 METAR MRPV NIL=
200607260600 METAR MRPV NIL=
200607260700 METAR MRPV NIL=
200607260800 METAR MRPV NIL=
200607260900 METAR MRPV NIL=
200607261000 METAR MRPV NIL=
200607261100 METAR MRPV NIL=
200607261200 METAR MRPV 261200Z 12010KT CAVOK 20/16 A3000 RMK FU ARND=
200607261300 METAR MRPV 261300Z 10012KT CAVOK 22/16 A3001 BKN120 DU ARND=
200607261400 METAR MRPV 261400Z 1001209KT 9999 FEW035 SCT120 23/17 A3002 RMK LGT DU ARND=
200607261500 METAR MRPV 261500Z 05013KT 9999 FEW040 SCT120 24/16 A3003 DU LEVE ARND=
200607261600 METAR MRPV 261600Z 06015KT 9999 FEW040 BKN250 24/16 A3003 DU ARND LEVE=
200607261700 METAR MRPV 261700Z 08015KT 9999 FEW035 BKN250 25/16 A3003 DU LEVE ARND=
200607261800 METAR MRPV 261800Z 06014KT 9999 FEW040 SCT130 BKN250 25/16 A3002 DU ARND LEVE=
200607261900 METAR MRPV 261900Z 05012KT 9999 FEW040 BKN250 27/16 A3000 TCU DST S DU ARND=
200607262000 METAR MRPV 262000Z 05014KT 9999 FEW040 SCT120 BKN250 25/15 A2999 DU=
200607262100 METAR MRPV 262100Z 31007KT 9999 FEW025 SCT130 BKN250 24/21 A2998 LGT DUST ARND=
200607262200 METAR MRPV 262200Z 28006KT 1500 -RA BR SCT001 BKN005 20/20 A2999=
200607262300 METAR MRPV 262300Z 30006KT 9999 4000 NW BR VCSH FEW002 FEW010TCU SCT030 20/18 A3001 RMK CONDICIONES VRBLS=
200607270000 METAR MRPV 270000Z 24003KT 9999 VCSH SCT030 BKN100 19/18 A3002 RN N/NE VIS 7KMS=
200607270100 METAR MRPV NIL=
200607270200 METAR MRPV NIL=
200607270300 METAR MRPV NIL=
200607270400 METAR MRPV NIL=
200607270500 METAR MRPV NIL=
200607270600 METAR MRPV NIL=
200607270700 METAR MRPV NIL=
200607270800 METAR MRPV NIL=
200607270900 METAR MRPV NIL=
200607271000 METAR MRPV NIL=
200607271100 METAR MRPV NIL=
200607271200 METAR MRPV 271200Z 12012KT CAVOK 21/15 A3001 SCT100 BKN130=
200607271300 METAR MRPV 271300Z 12012KT CAVOK 21/15 A3004 RMK SCT130 BKN250=
200607271400 METAR MRPV 271400Z 12010KT CAVOK 22/15 A3005 BKN130 SCT250=
200607271500 METAR MRPV 271500Z 12010KT CAVOK 23/16 A3006 RMK BKN130=
200607271600 METAR MRPV 271600Z 09012KT CAVOK 25/15 A3006 RMK BKN130=
200607271700 METAR MRPV 271700Z 06010KT CAVOK 26/16 A3005 RMK BKN130 SCT250=
200607271800 METAR MRPV 271800Z 08010KT 9999 FEW040 SCT130 BKN250 28/16 A3003=
200607271900 METAR MRPV 271900Z 27015KT 9999 FEW035 SCT130 BKN250 25/19 A3003 RMK TCU DST W/NE=
200607272000 METAR MRPV 272000Z 28013KT 9999 VCSH FEW020TCU SCT035 BKN250 25/19 A3002 VIS NE 6KMS=
200607272100 METAR MRPV 272100Z 33006K 8000 VCSH SCT020TCU BKN030 23/19 A3003=
200607272200 METAR MRPV 272200Z VRB08KT 3000 +TSRA SCT010CB BKN020 19/18 A3004=
200607272300 METAR MRPV 272300Z 06005KT 7000 -RA FEW020 OVC100 19/18 A3004 RMK VIS S N UNL=
200607280000 METAR MRPV 280000Z 30002KT 9999 4000W -RA BR FEW005 SCT015 BKN100 19/19 A3009=
200607280100 METAR MRPV NIL=
200607280200 METAR MRPV NIL=
200607280300 METAR MRPV NIL=
200607280400 METAR MRPV NIL=
200607280500 METAR MRPV NIL=
200607280600 METAR MRPV NIL=
200607280700 METAR MRPV NIL=
200607280800 METAR MRPV NIL=
200607280900 METAR MRPV NIL=
200607281000 METAR MRPV NIL=
200607281100 METAR MRPV NIL=
200607281200 METAR MRPV 281200Z 12008KT CAVOK 19/16 A3007=
200607281300 METAR MRPV 281300Z 13010KT CAVOK 21/16 A3007 RMK CB SSW=
200607281400 METAR MRPV 281400Z 13010KT CAVOK 24/16 A3009=
200607281500 METAR MRPV 281500Z 11012KT CAVOK 25/16 A3011=
200607281600 METAR MRPV 281600Z 10012KT 9999 FEW025 BKN100 25/16 A3011 RMK CB SSW=
200607281700 METAR MRPV 281700Z 05008KT 9999 FEW025 BKN100 27/18 A3008 RMK TCU E=
200607281800 METAR MRPV 281800Z 27014KT 9999 SCT020TCU BKN100 25/19 A3008=
200607281900 METAR MRPV 281900Z 27012KT 9999 FEW010TCU SCT025 25/20 A3006 RMK RN N E=
200607282000 METAR MRPV 282000Z 28010KT 9999 SCT010TCU BKN030 26720 A3003=
200607282100 METAR MRPV 282100Z 25010KT 9999 FEW010TCU BKN030 26/20 A3000 RMK RN DST N NW E=
200607282200 METAR MRPV 282200Z 27015KT 9999 -TS FEW008CB BKN025 24/21 A2999 RMK 2000 E DUE TSRA=
200607282300 METAR MRPV 282300Z 09008KT 4000 RA FEW004 SCT012 BKN080 20/18 A3002=
200607290000 METAR MRPV NIL=
200607290100 METAR MRPV NIL=
200607290200 METAR MRPV NIL=
200607290300 METAR MRPV NIL=
200607290400 METAR MRPV NIL=
200607290500 METAR MRPV NIL=
200607290600 METAR MRPV NIL=
200607290700 METAR MRPV NIL=
200607290800 METAR MRPV NIL=
200607290900 METAR MRPV NIL=
200607291000 METAR MRPV NIL=
200607291100 METAR MRPV NIL=
200607291200 METAR MRPV 291200Z VRB03KT CAVOK 18/16 A3004 RMK CB DST SW NW=
200607291300 METAR MRPV 291300Z VRB03KT CAVOK 21/17 A3005 RMK CB DST SW NW=
200607291400 METAR MRPV 291400Z VRB03KT CAVOK 23/18 A3007 RMK CB DST SW NW=
200607291500 METAR MRPV 291500Z 26006KT 9999 FEW025 BKN250 23/19 A3008 RMK CB DST SW HZ W LIGHT=
200607291600 METAR MRPV 291600Z 28010KT 9999 SCT025 BKN250 24/19 A3008 RMK TCU HZ W=
200607291700 METAR MRPV 291700Z 28012KT 9999 FEW015TCU SCT025 25/19 A3006 RMK CB DST NW RN DST N NW=
200607291800 METAR MRPV 291800Z 27013KT 9999 SCT015TCU SCT025 25/20 A3005 RMK RN DST NE NW=
200607291900 METAR MRPV 291900Z 26010KT 9999 FEW014CB SCT025 25/19 A3002 RMK RN DST NE SE=
200607292000 METAR MRPV 292000Z 28014KT 8000 3000NW VCSH FEW010CB SCT025 24/19 A2999=
200607292100 METAR MRPV 292100Z 32012KT 3000 -TSRA FEW005CB SCT010 BKN025 21/19 A2999 VSBY S UNL=
200607292200 METAR MRPV 292200Z VRB03KT 3000 RA FEW002 SCT012 BKN090 20/19 A3001 TS DST S=
200607292300 METAR MRPV 292300Z VRB03KT 3000 RA FEW002 BKN012 20/19 A3002=
200607300000 METAR MRPV NIL=
200607300100 METAR MRPV NIL=
200607300200 METAR MRPV NIL=
200607300300 METAR MRPV NIL=
200607300400 METAR MRPV NIL=
200607300500 METAR MRPV NIL=
200607300600 METAR MRPV NIL=
200607300700 METAR MRPV NIL=
200607300800 METAR MRPV NIL=
200607300900 METAR MRPV NIL=
200607301000 METAR MRPV NIL=
200607301100 METAR MRPV NIL=
200607301200 METAR MRPV 301200Z VRB03KT CAVOK 18/17 A3000=
200607301300 METAR MRPV 301300Z 11009KT CAVOK 21/17 A3000=
200607301400 METAR MRPV 301400Z 15007KT CAVOK 24/18 A3000=
200607301500 METAR MRPV 301500Z 11007KT CAVOK 26/17 A3002=
200607301600 METAR MRPV 301600Z 27012KT 9999 FEW020 BKN100 25/19 A3001 CB SW=
200607301700 METAR MRPV 301700Z 27012KT 9999 SCT025 25/18 A3001 CB SW=
200607301800 METAR MRPV 301800Z 27014KT 9999 SCT020TCU 25/19 A3000=
200607301900 METAR MRPV 301900Z 27016KT 9999 FEW010TCU SCT025 24/20 A2998 RN SE=
200607302000 METAR MRPV 302000Z 27014KT 9999 SCT010TCU BKN025 23/20 A2997 VIS 6000 E/RA=
200607302100 METAR MRPV 302100Z 29010KT 9999 SCT008 BKN020 22/20 A2995=
200607302200 METAR MRPV 302200Z 29008KT 9999 SCT004 BKN020 23/20 A2995=
200607302300 METAR MRPV 302300Z 28008KT 8000 VCFG SCT002 BKN020 22/20 A2996=
200607310000 METAR MRPV NIL=
200607310100 METAR MRPV NIL=
200607310200 METAR MRPV NIL=
200607310300 METAR MRPV NIL=
200607310400 METAR MRPV NIL=
200607310500 METAR MRPV NIL=
200607310600 METAR MRPV NIL=
200607310700 METAR MRPV NIL=
200607310800 METAR MRPV NIL=
200607310900 METAR MRPV NIL=
200607311000 METAR MRPV NIL=
200607311100 METAR MRPV NIL=
200607311200 METAR MRPV 311200Z 30003KT CAVOK 19/17 A3000 RMK CB DST E=
200607311300 METAR MRPV 311300Z VRB03KT CAVOK 21/18 A3003 BKN270 TCU DST SW=
200607311400 METAR MRPV 311400Z 27004KT CAVOK 22/19 A3003 RMK BKN270=
200607311500 METAR MRPV 311500Z 29009KT 9999 FEW035 SCT270 23/19 A3005=
200607311600 METAR MRPV 311600Z 28010KT 9999 FEW025 SCT300 24/20 A3006=
200607311700 METAR MRPV 311700Z 29012KT 9999 SCT025 24/20 A3006=
200607311800 METAR MRPV 311800Z 27010KT 9999 SCT030 25/20 A3004=
200607311900 METAR MRPV 311900Z 26010KT 9999 FEW025 SCT100 26/20 A3002 RMK TCU DST SW=
200607312000 METAR MRPV 312000Z 27013KT 9999 4000W BR FEW003 FEW015TCU SCT300 24/21 A3002 RMK CB/RASH DST NE=
200607312200 METAR MRPV 312200Z 29006KT 9999 4000SW BR FEW005 BKN020 22/19 A3000 RMK RASH DST NW=
200607312300 METAR MRPV 312300Z 28006KT 9999 FEW010 BKN030 22/19 A3002 RERA RMK RASH DST NW=
200608010000 METAR MRPV 010000Z 25003KT 9999 BKN030 21/19 A3003 RMK CB TS DST SSW RN DST NE/E=
200608010100 METAR MRPV NIL=
200608010200 METAR MRPV NIL=
200608010300 METAR MRPV NIL=
200608010400 METAR MRPV NIL=
200608010500 METAR MRPV NIL=
200608010600 METAR MRPV NIL=
200608010700 METAR MRPV NIL=
200608010800 METAR MRPV NIL=
200608010900 METAR MRPV NIL=
200608011000 METAR MRPV NIL=
200608011100 METAR MRPV NIL=
200608011200 METAR MRPV 011200Z 11012KT CAVOK 21/17 A3003=
200608011300 METAR MRPV 011300Z 10013KT CAVOK 23/18 A3005 RMK FEW140=
200608011400 METAR MRPV 011400Z 09012KT CAVOK 24/18 A3006=
200608011500 METAR MRPV 011500Z 07008KT CAVOK 25/18 A3006 RMK SCT300=
200608011600 METAR MRPV 011600Z 09013KT 9999 FEW040 SCT300 27/19 A3005=
200608011700 METAR MRPV 011700Z 07008KT 9999 FEW040 SCT300 28/18 A3003=
200608011800 METAR MRPV 011800Z 09004KT 9999 SCT040 29/18 A3002 RMK DIST SW=
200608011900 METAR MRPV 011900Z 27010KT 9999 BKN035 26/21 A3001=
200608012000 METAR MRPV 012000Z 29012KT 9999 FEW020TCU SCT035 27/22 A2999=
200608012100 METAR MRPV 012100Z 17012KT 9999 FEW020TCU SCT035 26/22 A2988=
200608012200 METAR MRPV 012200Z 26008KT 9999 4000 N VCFG FEW005 SCT030 24/22 A2998=
200608012300 METAR MRPV 012300Z 30008KT 7000 3000W -DZ BR FEW001 BKN010 23/22 A2999=
200608020000 METAR MRPV NIL=
200608020100 METAR MRPV NIL=
200608020200 METAR MRPV NIL=
200608020300 METAR MRPV NIL=
200608020400 METAR MRPV NIL=
200608020500 METAR MRPV NIL=
200608020600 METAR MRPV NIL=
200608020700 METAR MRPV NIL=
200608020800 METAR MRPV NIL=
200608020900 METAR MRPV NIL=
200608021000 METAR MRPV NIL=
200608021100 METAR MRPV NIL=
200608021200 METAR MRPV 021200Z 13012KT CAVOK 21/16 A3002=
200608021300 METAR MRPV 021300Z 12012KT CAVOK 22/17 A3004 RMK CB DST S=
200608021400 METAR MRPV 021400Z 12012KT CAVOK 23/17 A3006 RMK CB SW=
200608021500 METAR MRPV 021500Z 09015KT CAVOK 25/17 A3006=
200608021600 METAR MRPV 021600Z 09016KT 9999 FEW025 BKN250 26/18 A3005=
200608021700 METAR MRPV NIL=
200608021800 METAR MRPV 021800Z 28012KT 9999 FEW020TCU SCT020 BKN250 26/20 A3005=
200608021900 METAR MRPV 021900Z 28007KT 9999 SCT010TCU BKN025 26/21 A3002=
200608022000 METAR MRPV 022000Z 08012KT 9999 FEW010TCU BKN250 28/19 A2999=
200608022100 METAR MRPV 022100Z VRB03KT 9999 SCT010TCU BKN250 29/17 A2998 RMK RN N=
200608022200 METAR MRPV 022200Z 28010KT 9999 FEW010TCU SCT025 BKN250 25/22 A2997 RN DST N=
200608022300 METAR MRPV 022300Z VRB03KT 9999 SCT010TCU BKN250 29/17 A2998 RMK RN DST N=
200608030000 METAR MRPV NIL=
200608030100 METAR MRPV NIL=
200608030200 METAR MRPV NIL=
200608030300 METAR MRPV NIL=
200608030400 METAR MRPV NIL=
200608030500 METAR MRPV NIL=
200608030600 METAR MRPV NIL=
200608030700 METAR MRPV NIL=
200608030800 METAR MRPV NIL=
200608030900 METAR MRPV NIL=
200608031000 METAR MRPV NIL=
200608031100 METAR MRPV NIL=
200608031200 METAR MRPV 031200Z 14008KT 9999 FEW008 BKN250 21/17 A3001 RMK CB DIST SW=
200608031300 METAR MRPV 031300Z 11010KT CAVOK 23/17 A3002 RMK HZ ARND=
200608031400 METAR MRPV 031400Z 10012KT CAVOK 25/17 A3003 RMK HZ ARND=
200608031500 METAR MRPV 031500Z 08012KT 9999 FEW020 BKN250 26/17 A3004 RMK DU W=
200608031600 METAR MRPV 031600Z 06012KT 9999 FEW020 BKN250 27/18 A3004 RMK DU W=
200608031700 METAR MRPV 031700Z 29008KT 9999 FEW010 SCT025 BKN250 29/18 A3003 RMK HZ W=
200608031800 METAR MRPV 031800Z 27012KT 9999 FEW012TCU BKN025 26/21 A3001 RMK HZ W=
200608031900 METAR MRPV 031900Z 29012KT 9999 FEW012TCU SCT025 26/21 A2999=
200608032000 METAR MRPV 032000Z 28015KT 9999 FEW010TCU BKN025 26/22 A2998 RMK DST N NW=
200608032100 METAR MRPV 032100Z 26012KT 9999 SCT010TCU BKN02224/21 A2997=
200608032200 METAR MRPV 032200Z 31012KT 9999 VCTS FEW008CB SCT020 BKN250 23/21 A2997 TS N=
200608032300 METAR MRPV 032300Z 35005KT 8000 3000W VCFG SCT002 BKN022 22/20 A300 RN NW=
200608040000 METAR MRPV NIL=
200608040100 METAR MRPV NIL=
200608040200 METAR MRPV NIL=
200608040300 METAR MRPV NIL=
200608040400 METAR MRPV NIL=
200608040500 METAR MRPV NIL=
200608040600 METAR MRPV NIL=
200608040700 METAR MRPV NIL=
200608040800 METAR MRPV NIL=
200608040900 METAR MRPV NIL=
200608041000 METAR MRPV NIL=
200608041100 METAR MRPV NIL=
200608041200 METAR MRPV 041200Z 12014KT 9999 FEW024 BKN250 21/17 A3001 RMK CB DST S=
200608041300 METAR MRPV 041300Z 12014KT 9999 FEW025 BKN250 22/18 A3003=
200608041400 METAR MRPV 041400Z 10012G22KT 9999 FEW024 BKN250 24/18 A3003=
200608041500 METAR MRPV 041500Z 08015KT 9999 FEW024 BKN250 25/18 A3004=
200608041600 METAR MRPV 041600Z 06010G20KT 9999 SCT024 BKN250 26/18 A3004=
200608041700 METAR MRPV 041700Z 07015KT 9999 FEW012 BKN028 26/18 A3004 DU PISTA 09=
200608041800 METAR MRPV 041800Z 07010KT 9999 FEW012 SCT028 BKN250 25/18 A3001=
200608041900 METAR MRPV 041900Z 07014KT 9999 FEW012 SCT028 BKN250 26/18 A2999=
200608042000 METAR MRPV 042000Z 09010KT 9999 FEW015TCU SCT028 BKN250 25/18 A3001=
200608042100 METAR MRPV 042100Z 07015KT 9999 FEW015TCU SCT028 BKN250 26/18 A2993=
200608042200 METAR MRPV 042200Z 07016KT 9999 FEW012TCU SCT028 BKN250 26/18 A2992 RMK RN CB DST N E=
200608042300 METAR MRPV 042300Z 07010KT 9999 SCT010 BKN025 25/28 A2994 RMK RN DST N NE=
200608050000 METAR MRPV NIL=
200608050100 METAR MRPV NIL=
200608050200 METAR MRPV NIL=
200608050300 METAR MRPV NIL=
200608050400 METAR MRPV NIL=
200608050500 METAR MRPV NIL=
200608050600 METAR MRPV NIL=
200608050700 METAR MRPV NIL=
200608050800 METAR MRPV NIL=
200608050900 METAR MRPV NIL=
200608051000 METAR MRPV NIL=
200608051100 METAR MRPV NIL=
200608051200 METAR MRPV 051200Z 12012KT 9999 FEW014 SCT120 BKN250 21/17 A2996 RMK RN NE NW=
200608051300 METAR MRPV 051300Z 11012KT 9999 SCT015 BKN250 22/18 A2998 RMK CB DST SW RN DST NE=
200608051400 METAR MRPV 051400Z 07012KT 9999 FEW012 SCT100 BKN250 23/18 A2998 RMK CB DST S=
200608051500 METAR MRPV 051500Z 07010G20KT 9999 FEW014 BKN250 24/18 A2999 RMK RN DST NE=
200608051600 METAR MRPV 051600Z 07010G20KT 9999 FEW014 BKN250 24/18 A2998 RMK RN DST NE=
200608051700 METAR MRPV 051700Z 08015KT 9999 FEW014 BKN250 26/19 A2998 RMK RN DST NE=
200608051800 METAR MRPV 051800Z 08016KT 9999 SCT014 BKN250 27/19 A2995 RMK RN DST NE=
200608051900 METAR MRPV 051900Z 06015KT 9999 FEW015TCU BKN250 27/18 A2993 RMK RN DST NE=
200608052000 METAR MRPV 052000Z 08016KT 9999 SCT015TCU BKN250 28/18 A2991 RMK RN DST NE=
200608052100 METAR MRPV 052100Z 08018KT 9999 FEW012TCU SCT030 BKN250 26/18 A2991 RMK PCPN DST=
200608052200 METAR MRPV 052200Z 07018KT 9999 SCT020TCU BKN250 26/18 A2990 RMK PCPN DST NE/NW=
200608052300 METAR MRPV 052300Z 08018KT 9999 SCT020 BKN250 23/16 A2991 RN DST NE NW TUC W=
200608060000 METAR MRPV NIL=
200608060100 METAR MRPV NIL=
200608060200 METAR MRPV NIL=
200608060300 METAR MRPV NIL=
200608060400 METAR MRPV NIL=
200608060500 METAR MRPV NIL=
200608060600 METAR MRPV NIL=
200608060700 METAR MRPV NIL=
200608060800 METAR MRPV NIL=
200608060900 METAR MRPV NIL=
200608061000 METAR MRPV NIL=
200608061100 METAR MRPV NIL=
200608061200 METAR MRPV 061200Z 12010KT CAVOK 21/16 A2996 CB N NE E=
200608061300 METAR MRPV 061300Z 10012KT CAVOK 21/16 A2997 RN DST NE CB DST E BKN250=
200608061400 METAR MRPV 061400Z 13014KT 9999 FEW035 BKN250 22/16 A2999 RMK CB DST E RN NE=
200608061500 METAR MRPV 061500Z 12010KT 9999 -DZ SCT030 BKN250 23/17 A3000=
200608061600 METAR MRPV 061600Z 12010KT 9999 FEW030 SCT120 BKN250 23/18 A3000 REDZ=
200608061700 METAR MRPV 061700Z 09014KT 9999 SCT030 SCT120 24/18 A3000 RMK DZ DST N NE=
200608061800 METAR MRPV 061800Z 08014KT 9999 SCT030 SCT120 25/18 A2998=
200608061900 METAR MRPV 061900Z 08010KT 9999 BKN030 26/18 A2996=
200608062000 METAR MRPV 062000Z 09010KT 9999 FEW035 SCT250 27/19 A2994=
200608062100 METAR MRPV 062100Z 08012KT 9999 FEW035 SCT120 27/19 A2992 RMK RN NE TCU W=
200608062200 METAR MRPV 062200Z 07012KT 9999 FEW040 SCT250 26/18 A2992 RMK TCU S N=
200608062300 METAR MRPV 062300Z 12009KT 9999 FEW040 BKN250 25/18 A2993 RMK TCU SW W=
200608070000 METAR MRPV 070000Z 10010KT 9999 FEW035 BKN250 25/18 A2993 RMK TSTM NW TCU SW W=
200608070100 METAR MRPV NIL=
200608070200 METAR MRPV NIL=
200608070300 METAR MRPV NIL=
200608070400 METAR MRPV NIL=
200608070500 METAR MRPV NIL=
200608070600 METAR MRPV NIL=
200608070700 METAR MRPV NIL=
200608070900 METAR MRPV NIL=
200608071100 METAR MRPV NIL=
200608071200 METAR MRPV NIL=
200608071300 METAR MRPV 071300Z 11008KT 9999 SCT030 BKN250 22717 A3000=
200608071400 METAR MRPV 071400Z 09012KT 9999 SCT030 BKN250 24/18 A3001=
200608071500 METAR MRPV 071500Z 08014KT 9999 SCT030 BKN250 25/18 A3001=
200608071600 METAR MRPV 071600Z 07015KT 9999 SCT030 SCT250 26/17 A3001=
200608071700 METAR MRPV NIL=
200608071800 METAR MRPV 071800Z 08016KT 9999 BKN030 26/18 A2999=
200608071900 METAR MRPV 071900Z 06015KT 9999 SCT030 BKN250 28/18 A2996=
200608072000 METAR MRPV 072000Z 06015KT 9999 FEW025TCU SCT035 BKN250 27/18 A2995 RN DST NE E=
200608072100 METAR MRPV 072100Z 08007KT 9999 -RA FEW020TCU SCT030 BKN100 22/19 A2994=
200608072200 METAR MRPV 072200Z 10008KT 9999 SCT025 BKN100 23/18 A2995 RN DST NW N=
200608072300 METAR MRPV 072300Z 08009KT 9999 SCT020 BKN100 23/18 A2996=
200608080000 METAR MRPV NIL=
200608080100 METAR MRPV NIL=
200608080200 METAR MRPV NIL=
200608080300 METAR MRPV NIL=
200608080400 METAR MRPV NIL=
200608080500 METAR MRPV NIL=
200608080600 METAR MRPV NIL=
200608080700 METAR MRPV NIL=
200608080800 METAR MRPV NIL=
200608080900 METAR MRPV NIL=
200608081000 METAR MRPV NIL=
200608081100 METAR MRPV NIL=
200608081200 METAR MRPV 081200Z 11012KT 9999 FEW030 SCT270 21/17 A2993=
200608081300 METAR MRPV 081300Z 09013KT CAVOK 22/16 A2996 DZ NE DST=
200608081400 METAR MRPV 081400Z 08015KT 9999 FEW030 BKN250 23/17 A3000=
200608081500 METAR MRPV 081500Z 07018KT 9999 SCT030 BKN250 24/17 A3002=
200608081600 METAR MRPV 081600Z 07017KT 9999 SCT030 BKN250 25/18 A3000 DZ N=
200608081700 METAR MRPV 081700Z 10014KT 9999 SCT030 BKN120 23/17 A3000=
200608081800 METAR MRPV 081800Z 07018KT 9999 SCT030 BKN120 24/16 A3000=
200608081900 METAR MRPV 081900Z 07012KT 9999 SCT030 BKN120 24/16 A3000=
200608082000 METAR MRPV 082000Z 05008KT 9999 FEW020 SCT035 BKN120 26/16 A2997=
200608082100 METAR MRPV 082100Z 08008KT 9999 SCT030 BKN250 26/16 A2995=
200608082200 METAR MRPV NIL=
200608082300 METAR MRPV NIL=
200608090000 METAR MRPV NIL=
200608090100 METAR MRPV NIL=
200608090200 METAR MRPV NIL=
200608090300 METAR MRPV NIL=
200608090400 METAR MRPV NIL=
200608090500 METAR MRPV NIL=
200608090600 METAR MRPV NIL=
200608090700 METAR MRPV NIL=
200608090800 METAR MRPV NIL=
200608090900 METAR MRPV NIL=
200608091000 METAR MRPV NIL=
200608091100 METAR MRPV NIL=
200608091200 METAR MRPV 091200Z 13008KT 9999 -DZ BKN100 21/16 A2995=
200608091300 METAR MRPV 091300Z 14008KT CAVOK 22/16 A2998 REDZ BKN100=
200608091400 METAR MRPV 091400Z 11010KT CAVOK 25/16 A2999 BKN100=
200608091500 METAR MRPV 091500Z 11014KT CAVOK 25/16 A3000 BKN100 TCU SW=
200608091600 METAR MRPV 091600Z 09015KT 9999 FEW040 BKN120 25/17 A3001=
200608091700 METAR MRPV 091700Z 07013KT 9999 BKN035 SCT120 24/17 A3002 DZ N NE=
200608091800 METAR MRPV 091800Z 09015KT 9999 FEW015 BKN035 25/18 A2999 RERA RN NW N NE=
200608091900 METAR MRPV 091900Z 08010KT 9999 -RA FEW015 BKN030 23/18 A2998 VSBY W 6KM DUE RN=
200608092000 METAR MRPV 092000Z 09010KT 9999 DZ FEW015 SCT030 BKN250 24/19 A2996=
200608092100 METAR MRPV 092100Z 08014KT 9999 FEW012 SCT035 BKN250 24/21 A2993 RMK CB DST SW RN DST NW=
200608092200 METAR MRPV 092200Z 07015KT 9999 SCT020 OVC250 24/18 A2993 RMK RN DST NW=
200608092300 METAR MRPV 092300Z 07010KT 9999 SCT020 OVC250 23/18 A2994 RMK 3000NW BR=
200608100000 METAR MRPV NIL=
200608100100 METAR MRPV NIL=
200608100200 METAR MRPV NIL=
200608100300 METAR MRPV NIL=
200608100400 METAR MRPV NIL=
200608100500 METAR MRPV NIL=
200608100600 METAR MRPV NIL=
200608100700 METAR MRPV NIL=
200608100800 METAR MRPV NIL=
200608100900 METAR MRPV NIL=
200608101000 METAR MRPV NIL=
200608101100 METAR MRPV NIL=
200608101200 METAR MRPV 101200Z 12008KT CAVOK 20/16 A2996 CB DST SW HZY=
200608101300 METAR MRPV 101300Z 12008KT CAVOK 22/17 A2998 RMK LEVE HZ W=
200608101400 METAR MRPV 101400Z 13008KT 9999 FEW030 BKN250 23/18 A2998=
200608101500 METAR MRPV 101500Z 07012KT CAVOK 25/17 A2997=
200608101600 METAR MRPV 101600Z 10016KT CAVOK 26/18 A2997=
200608101700 METAR MRPV 101700Z 08015KT 9999 FEW025 BKN250 27/17 A2996=
200608101800 METAR MRPV 101800Z 07012KT 9999 SCT025 BKN250 27/17 A2994=
200608101900 METAR MRPV 101900Z 07012KT 9999 SCT025 BKN250 29/18 A2991 RMK TCU DST SW W=
200608102000 METAR MRPV 102000Z 08010KT 9999 SCT020TCU BKN250 28/28 A2990 RMK RN DST N=
200608102100 METAR MRPV 102100Z 27014KT 9999 2000NW TS VCSH FEW012CB BKN025 23/19 A2990=
200608102200 METAR MRPV 102200Z 31007KT 8000 3000NW VCFG SCT004 BKN020 22/20 A2991=
200608102300 METAR MRPV 102300Z VRB03KT 8000 3000NW VCFG FEW002 BKN025 22/19 A2992=
200608110100 METAR MRPV NIL=
200608110200 METAR MRPV NIL=
200608110300 METAR MRPV NIL=
200608110400 METAR MRPV NIL=
200608110500 METAR MRPV NIL=
200608110600 METAR MRPV NIL=
200608110700 METAR MRPV NIL=
200608110800 METAR MRPV NIL=
200608110900 METAR MRPV NIL=
200608111000 METAR MRPV NIL=
200608111100 METAR MRPV NIL=
200608111200 METAR MRPV 111200Z 11007KT 9999 FEW025 SCT120 BKN250 20/17 A2994 CB N SW=
200608111300 METAR MRPV 111300Z 12008KT CAVOK 22/18 A2995 RMK FEW120 BKN250 CB DST E=
200608111400 METAR MRPV 111400Z 11010KT 9999 FEW030 BKN250 23/18 A2996 RMK CB DST NE=
200608111500 METAR MRPV 111500Z 12007KT 9999 FEW020 BKN250 26/19 A2996 RMK CB DST SW DUS OVR AP09=
200608111600 METAR MRPV 111600Z 05012KT 9999 SCT025 BKN250 27/17 A2996 RMK DUST OVR AP09 RN DST NW=
200608111800 METAR MRPV 111800Z 07006KT 9999 SCT025 BKN250 28/17 A2993=
200608111900 METAR MRPV 111900Z 09012KT 9999 SCT025 BKN250 29/18 A2990=
200608112000 METAR MRPV 112000Z 07012KT 9999 SCT025 BKN250 29/17 A2988=
200608112100 METAR MRPV 112100Z 05012KT 9999 SCT022 BKN250 29/18 A2986=
200608112200 METAR MRPV 112200Z 07012KT 9999 4000 NW VCSH FEW010TCU SCT030 BKN250 27/18 A2986=
200608112300 METAR MRPV 112300Z 29010KT 7000 2000NE DZ VCFG SCT002 BKN020 22/21 A2990 RMK VIS SE UNL=
200608120000 METAR MRPV NIL=
200608120100 METAR MRPV NIL=
200608120200 METAR MRPV NIL=
200608120300 METAR MRPV NIL=
200608120400 METAR MRPV NIL=
200608120500 METAR MRPV NIL=
200608120600 METAR MRPV NIL=
200608120700 METAR MRPV NIL=
200608120800 METAR MRPV NIL=
200608120900 METAR MRPV NIL=
200608121000 METAR MRPV NIL=
200608121100 METAR MRPV NIL=
200608121200 METAR MRPV NIL=
200608121300 METAR MRPV 121300Z 12004KT 9999 FEW030 BKN250 21/18 A2997=
200608121400 METAR MRPV 121400Z 02004KT 9999 FEW030 BKN250 22/18 A2999=
200608121500 METAR MRPV 121500Z 08010KT 9999 FEW030 BKN250 24/18 A2998=
200608121600 METAR MRPV 121600Z 09007KT 9999 FEW030 BKN250 26/18 A2997=
200608121700 METAR MRPV 121700Z 07010KT 9999 SCT025 SCT120 BKN250 27/18 A2995=
200608121800 METAR MRPV 121800Z 07007KT 9999 SCT030 BKN120 27/18 A2994=
200608121900 METAR MRPV 121900Z 05008KT 9999 SCT030 BKN250 28/18 A2992=
200608122000 METAR MRPV 122000Z 08015KT 9999 SCT025 BKN250 29/19 A2989=
200608122100 METAR MRPV NIL=
200608122200 METAR MRPV 122200Z 33007KT 9999 FEW010TCU SCT020 BKN100 22/19 A2991 RN NE=
200608122300 METAR MRPV 122300Z 30006KT 9999 SCT010 BKN100 22/19 A2992=
200608130000 METAR MRPV NIL=
200608130100 METAR MRPV NIL=
200608130200 METAR MRPV NIL=
200608130300 METAR MRPV NIL=
200608130400 METAR MRPV NIL=
200608130500 METAR MRPV NIL=
200608130600 METAR MRPV NIL=
200608130700 METAR MRPV NIL=
200608130800 METAR MRPV NIL=
200608130900 METAR MRPV NIL=
200608131000 METAR MRPV NIL=
200608131100 METAR MRPV NIL=
200608131200 METAR MRPV NIL=
200608131300 METAR MRPV 131300Z 12006KT 9999 FEW025 SCT120 BKN250 23/18 A3000=
200608131400 METAR MRPV 131400Z 11008KT 9999 SCT030 BKN250 24/28 A3001=
200608131500 METAR MRPV 131500Z 07014KT 9999 SCT030 BKN250 26/19 A3001=
200608131600 METAR MRPV 131600Z 07010KT 9999 FEW030 BKN250 28/19 A3000=
200608131700 METAR MRPV 131700Z 07011KT 9999 SCT030 BKN120 28/18 A3000=
200608131800 METAR MRPV 131800Z 07007KT 9999 SCT030 BKN120 29/18 A2999 RMK RN DST N=
200608131900 METAR MRPV 131900Z 07012KT 9999 SCT030 SCT120 28/18 A2997 RMK RN DST N NE=
200608132000 METAR MRPV 132000Z 07018KT 9999 SCT030 BKN120 27/18 A2996 RMK RN DST N=
200608132100 METAR MRPV 132100Z 07012KT 9999 SCT030 BKN120 27/18 A2994=
200608132200 METAR MRPV 132200Z 08012KT 9999 SCT020 BKN100 26/18 A2994=
200608132300 METAR MRPV 132300Z 08013KT 9999 FEW020 BKN100 25/18 A2996=
200608140000 METAR MRPV NIL=
200608140100 METAR MRPV NIL=
200608140200 METAR MRPV NIL=
200608140300 METAR MRPV NIL=
200608140400 METAR MRPV NIL=
200608140500 METAR MRPV NIL=
200608140600 METAR MRPV NIL=
200608140700 METAR MRPV NIL=
200608140800 METAR MRPV NIL=
200608140900 METAR MRPV NIL=
200608141000 METAR MRPV NIL=
200608141100 METAR MRPV NIL=
200608141200 METAR MRPV 141200Z 09013KT 9999 FEW030 BKN250 22/18 A2997 RMK CB DST E=
200608141300 METAR MRPV 141300Z 12010KT 9999 FEW030 SCT120 BKN250 24/19 A2999 CB NE=
200608141400 METAR MRPV 141400Z 11011KT 9999 FEW030 BKN250 24/19 A3001=
200608141500 METAR MRPV 141500Z 10014KT 9999 FEW025 SCT120 BKN250 24/18 A3004 DZ NE=
200608141600 METAR MRPV 141600Z 08014KT 9999 SCT020 BKN120 25/19 A3002 DZ NE=
200608141700 METAR MRPV 141700Z 09016KT 9999 SCT025 BKN120 24/18 A3002=
200608141800 METAR MRPV 141800Z 10014KT 9999 FEW025 SCT120 BKN250 24/18 A3004 DZ NE=
200608141900 METAR MRPV 141900Z 07014KT 9999 FEW020 SCT035 BKN100 25/19 A2998=
200608142000 METAR MRPV 142000Z 09016KT 9999 SCT025 BKN120 26/19 A2996=
200608142100 METAR MRPV 142100Z 07013KT 9999 SCT020 BKN100 25/19 A2996 DZ N NE=
200608142200 METAR MRPV 142200Z 08013KT 9999 SCT025 BKN100 25/19 A2995=
200608142300 METAR MRPV 142300Z 09016KT 9999 SCT020 BKN100 24/18 A2996=
200608150000 METAR MRPV 150000Z 09012KT 9999 FEW030 OVC100 24/18 A2997=
200608150100 METAR MRPV NIL=
200608150200 METAR MRPV NIL=
200608150300 METAR MRPV NIL=
200608150400 METAR MRPV NIL=
200608150500 METAR MRPV NIL=
200608150600 METAR MRPV NIL=
200608150700 METAR MRPV NIL=
200608150800 METAR MRPV NIL=
200608150900 METAR MRPV NIL=
200608151000 METAR MRPV NIL=
200608151100 METAR MRPV NIL=
200608151200 METAR MRPV 151200Z 11010KT 9999 BKN025 SCT250 21/17 A2997 DZ NE DST=
200608151300 METAR MRPV 151300Z 07014KT 9999 SCT020 SCT250 22/17 A2998 RMK DZ DST NE E=
200608151400 METAR MRPV 151400Z 10013KT 9999 BKN030 23/18 A3000 RMK DZ DST NE=
200608151500 METAR MRPV 151500Z 07018KT 9999 SCT030 BKN250 24/18 A3002 RMK DZ DST NE=
200608151600 METAR MRPV 151600Z 08018KT 9999 FEW012 SCT030 BKN250 25/18 A3003 RMK RN DST NE=
200608151700 METAR MRPV 151700Z 09014KT 9999 FEW012 SCT030 BKN250 24/18 A3004 RMK RN DST NE=
200608151800 METAR MRPV 151800Z 09017KT 9999 FEW012 SCT030 BKN250 25/19 A3003 RMK RN DST N=
200608151900 METAR MRPV 151900Z 09017KT 9999 FEW030 OVC250 24/18 A2998 RMK CB DST SW=
200608152000 METAR MRPV 152000Z 06012KT 9999 FEW030 OVC250 24/18 A2998 RMK RN DST N=
200608152100 METAR MRPV 152100Z 07014KT 9999 SCT025 OVC250 25/18 A2996 RMK DST PCPN NE CB DST SW=
200608152200 METAR MRPV 152200Z 08015KT 9999 SCT025 OVC250 25/18 A2996 RMK CB DST SW W=
200608152300 METAR MRPV 152300Z 08017KT 9999 SCT025 OVC250 23/17 A2998 RMK RN DST N NE=
200608160000 METAR MRPV NIL=
200608160100 METAR MRPV NIL=
200608160200 METAR MRPV NIL=
200608160300 METAR MRPV NIL=
200608160400 METAR MRPV NIL=
200608160500 METAR MRPV NIL=
200608160600 METAR MRPV NIL=
200608160800 METAR MRPV NIL=
200608160900 METAR MRPV NIL=
200608161000 METAR MRPV NIL=
200608161100 METAR MRPV NIL=
200608161200 METAR MRPV 161200Z 13008KT CAVOK 20/16 A2995 FEW130 BKN250=
200608161300 METAR MRPV 161300Z 09015KT CAVOK 22/17 A2999 RMK SCT130 BKN250 CB DST SW=
200608161400 METAR MRPV 161400Z 11012KT CAVOK 22/17 A3000 RMK SCT130 BKN250 CB DST SW=
200608161500 METAR MRPV 161500Z 08014KT CAVOK 25/17 A2999 RMK DUST ON AP09=
200608161600 METAR MRPV 161600Z 07014KT CAVOK 26/17 A3002 RMK CB DST SW=
200608161700 METAR MRPV 161700Z 07015KT 9999 FEW030 BKN250 26/16 A3001 RMK CB DST SW=
200608161800 METAR MRPV 161800Z 06014KT 9999 FEW030 BKN250 25/17 A3001=
200608161900 METAR MRPV 161900Z 08016KT 9999 FEW012 SCT030 BKN250 23/16 A3000 RMK PCPN DST NE=
200608162000 METAR MRPV 162000Z 09020KT 9999 -RA FEW010 SCT030 BKN250 22/17 A2999 RMK PCPN DST N NE=
200608162100 METAR MRPV 162100Z 12012KT 9999 -RA SCT015 OVC250 21/18 A2999=
200608162200 METAR MRPV 162200Z 10012KT 9999 FEW014 OVC250 22/18 A2998 RMK RN N NE=
200608162300 METAR MRPV 162300Z 11010KT 9999 -RA FEW030 OVC250 21/17 A2999=
200608170000 METAR MRPV NIL=
200608170100 METAR MRPV NIL=
200608170200 METAR MRPV NIL=
200608170300 METAR MRPV NIL=
200608170400 METAR MRPV NIL=
200608170500 METAR MRPV NIL=
200608170600 METAR MRPV NIL=
200608170700 METAR MRPV NIL=
200608170800 METAR MRPV NIL=
200608170900 METAR MRPV NIL=
200608171000 METAR MRPV NIL=
200608171100 METAR MRPV NIL=
200608171200 METAR MRPV 171200Z 06003KT 050V320 9999 FEW025 BKN120 20/16 A3001 RMK POLVO E=
200608171300 METAR MRPV 171300Z 12008KT 9999 FEW030 BKN120 22/16 A3000=
200608171400 METAR MRPV 171400Z 11010KT 9999 FEW030 BKN120 24/18 A3001=
200608171500 METAR MRPV 171500Z 08012KT 9999 SCT025 SCT100 BKN250 25/18 A3002 RMK RN NW=
200608171600 METAR MRPV 171600Z 10012KT 9999 FEW030 SCT120 BKN250 25/18 A3002=
200608171700 METAR MRPV 171700Z 09011KT 9999 FEW015 SCT030 BKN250 26/18 A3002 RMK RN NE NW=
200608171800 METAR MRPV 171800Z 27010KT 9999 FEW015TCU BKN030 25/20 A2999=
200608171900 METAR MRPV 171900Z 25010KT 9999 -RA VCSH SCT010TCU BKN022 23/20 A2999 VIS N 2000 DUE RA=
200608172000 METAR MRPV 172000Z 28015KT 5000 2000NW -RA VCFG SCT002 BKN020 22/21 A2995 VIS E UNL=
200608172100 METAR MRPV 172100Z 31010KT 3000 BR SCT002 BKN012 20/20 A2997=
200608172200 METAR MRPV 172200Z 25005KT 5000 2000E RA BR SCT002 BKN020 20/19 A2995 RMK TS DST S=
200608172300 METAR MRPV 172300Z VRB03KT 5000 2000NW RA BR SCT004 SCT015 OVC100 20/19 A2997 RMK UNL E=
200608180000 METAR MRPV NIL=
200608180100 METAR MRPV NIL=
200608180200 METAR MRPV NIL=
200608180300 METAR MRPV NIL=
200608180400 METAR MRPV NIL=
200608180500 METAR MRPV NIL=
200608180700 METAR MRPV NIL=
200608180800 METAR MRPV NIL=
200608180900 METAR MRPV NIL=
200608181000 METAR MRPV NIL=
200608181100 METAR MRPV NIL=
200608181200 METAR MRPV 181200Z 11013KT CAVOK 21/16 A2996 RMK BKN130 SCT250=
200608181300 METAR MRPV 181300Z 10014KT CAVOK 22/17 A2998=
200608181400 METAR MRPV NIL=
200608181500 METAR MRPV 181500Z 08014KT CAVOK 26/17 A3001 RMK TCU DST SW=
200608181600 METAR MRPV 181600Z 08011KT 9999 FEW030 SCT250 27/17 A3000 RMK CB DST SW=
200608181700 METAR MRPV 181700Z 07010KT 9999 SCT030 SCT150 27/17 A3001=
200608181800 METAR MRPV 181800Z 08007KT 9999 BKN030 27/18 A2998=
200608181900 METAR MRPV 181900Z 25004KT 9999 BKN030 26/20 A2995 RMK RASH W NW=
200608182100 METAR MRPV NIL=
200608182200 METAR MRPV 182200Z 30007KT 9999 4000S BR SCT006 BKN020 22/20 A2995=
200608182300 METAR MRPV 182300Z 26003KT 6000 BR SCT010 BKN020 22/19 A2996=
200608190000 METAR MRPV NIL=
200608190100 METAR MRPV NIL=
200608190200 METAR MRPV NIL=
200608190300 METAR MRPV NIL=
200608190400 METAR MRPV NIL=
200608190500 METAR MRPV NIL=
200608190600 METAR MRPV NIL=
200608190700 METAR MRPV NIL=
200608190800 METAR MRPV NIL=
200608190900 METAR MRPV NIL=
200608191000 METAR MRPV NIL=
200608191100 METAR MRPV NIL=
200608191200 METAR MRPV NIL=
200608191300 METAR MRPV 191300Z 12010KT 9999 FEW030 BKN250 21/17 A2999=
200608191400 METAR MRPV 191400Z 12006KT 9999 FEW030 BKN250 23/18 A3000=
200608191500 METAR MRPV 191500Z 11008KT 9999 FEW030 BKN250 25/18 A3000=
200608191600 METAR MRPV 191600Z 08011KT 9999 FEW030 BKN250 27/18 A2999=
200608191700 METAR MRPV 191700Z 08006KT 9999 SCT030 BKN250 28/18 A2997=
200608191800 METAR MRPV 191800Z 36011KT 9999 SCT025 BKN250 27/20 A2979=
200608191900 METAR MRPV 191900Z 31010KT 9999 -RA SCT015 BKN025 22/20 A2994 VSBY W 5KM DUE RN=
200608192000 METAR MRPV 192000Z 00000KT 3000 -RA BR BKN008 OVC015 20/20 A2996=
200608192100 METAR MRPV 192100Z 31008KT 9999 TSRA SCT006CB BKN020 22/20 A2993 RMK VIS 5000 NE E SE=
200608192200 METAR MRPV 192200Z 31004KT 2000 TSRA SCT003 SCT012CB BKN100 20/20 A2995=
200608192300 METAR MRPV NIL=
200608200000 METAR MRPV NIL=
200608200100 METAR MRPV NIL=
200608200200 METAR MRPV NIL=
200608200300 METAR MRPV NIL=
200608200400 METAR MRPV NIL=
200608200500 METAR MRPV NIL=
200608200600 METAR MRPV NIL=
200608200700 METAR MRPV NIL=
200608200800 METAR MRPV NIL=
200608200900 METAR MRPV NIL=
200608201000 METAR MRPV NIL=
200608201100 METAR MRPV NIL=
200608201200 METAR MRPV NIL=
200608201300 METAR MRPV 201300Z 08004KT CAVOK 19/17 A3000=
200608201400 METAR MRPV 201400Z 12004KT 9999 FEW030 SCT120 BKN250 23/18 A3001=
200608201500 METAR MRPV 201500Z 00000KT 9999 SCT030 BKN250 25/18 A3002=
200608201600 METAR MRPV 201600Z 25006KT 9999 SCT025 BKN120 24/19 A3002=
200608201700 METAR MRPV 201700Z 29006KT 9999 SCT020 BKN120 25/20 A3002=
200608201800 METAR MRPV 201800Z 29009KT 9999 FEW012 SCT020 BKN100 25/20 A2999=
200608201900 METAR MRPV 201900Z 28008KT 9999 FEW015 SCT020 BKN100 25/20 A2997=
200608202000 METAR MRPV 202000Z 29008KT 9999 FEW010 SCT020 BKN100 25/20 A2994=
200608202100 METAR MRPV 202100Z 26008KT 3000E +RA BR SCT006 BKN020 22/21 A2994=
200608202200 METAR MRPV 202200Z 30009KT 3000E -RA BR SCT006 BKN015 22/20 A2995=
200608202300 METAR MRPV 202300Z 28009KT 3000 -RA BR SCT004 BKN010 21/20 A2995 RMK VIS NW 6KMS=
200608210000 METAR MRPV NIL=
200608210100 METAR MRPV NIL=
200608210200 METAR MRPV NIL=
200608210300 METAR MRPV NIL=
200608210400 METAR MRPV NIL=
200608210500 METAR MRPV NIL=
200608210600 METAR MRPV NIL=
200608210700 METAR MRPV NIL=
200608210800 METAR MRPV NIL=
200608210900 METAR MRPV NIL=
200608211000 METAR MRPV NIL=
200608211100 METAR MRPV NIL=
200608211200 METAR MRPV 211200Z NIL=
200608211300 METAR MRPV NIL=
200608211400 METAR MRPV 211400Z 12008KT CAVOK 24/18 A3003 RMK CB DST SW=
200608211500 METAR MRPV 211500Z 10010KT CAVOK 25/18 A3005=
200608211600 METAR MRPV 211600Z 09008KT 9999 FEW024 BKN250 27/17 A3005=
200608211700 METAR MRPV 211700Z VRB03KT 9999 FEW025 BKN250 26/18 A3006=
200608211800 METAR MRPV 211800Z 24006KT 9999 3000NE VCSH FEW015TCU SCT030 BKN250 26/20 A3004=
200608211900 METAR MRPV 211900Z VRB03KT 9999 2000N VCSH FEW015CB BKN030 23/18 A3004=
200608212000 METAR MRPV 212000Z 32006KT 9999 FEW015TCU SCT030 BKN250 25/20 A2999 RERA=
200608212100 METAR MRPV 212100Z 33005KT 9999 FEW010TCU BKN030 25/20 A2999=
200608212200 METAR MRPV 212200Z 28008KT 9999 SCT004 BKN022 24/21 A2998=
200608212300 METAR MRPV 212300Z 28005KT 9999 FEW004 SCT025 BKN250 24/21 A2998=
200608220000 METAR MRPV NIL=
200608220100 METAR MRPV NIL=
200608220200 METAR MRPV NIL=
200608220300 METAR MRPV NIL=
200608220400 METAR MRPV NIL=
200608220500 METAR MRPV NIL=
200608220600 METAR MRPV NIL=
200608220700 METAR MRPV NIL=
200608220800 METAR MRPV NIL=
200608220900 METAR MRPV NIL=
200608221000 METAR MRPV NIL=
200608221100 METAR MRPV NIL=
200608221200 METAR MRPV 221200Z 12008KT CAVOK 22/17 A3004 RMK CB DST NE SW=
200608221300 METAR MRPV 221300Z 13008KT 9999 FEW030 BKN250 22/17 A3005 RMK CB NE SW=
200608221400 METAR MRPV 221400Z 11012KT 9999 FEW030 SCT120 BKN250 22/18 A3009 RMK CB SW=
200608221500 METAR MRPV 221500Z 10010KT 9999 FEW020 SCT120 BKN250 23/18 A3009=
200608221600 METAR MRPV 221600Z 08016KT 9999 FEW025 SCT120 OVC250 24/18 A3008=
200608221700 METAR MRPV 221700Z 11014KT 9999 FEW015 SCT120 OVC250 23/18 A3009=
200608221800 METAR MRPV 221800Z 09014KT 9999 FEW025 SCT120 OVC250 25/19 A3005=
200608221900 METAR MRPV 221900Z 09014KT 9999 FEW020 SCT120 BKN250 26/18 A3002=
200608222000 METAR MRPV 222000Z 09017KT 9999 FEW020 SCT120 BKN250 25/18 A3002=
200608222100 METAR MRPV 222100Z 10016KT CAVOK 24/18 A2999=
200608222200 METAR MRPV 222200Z 10016KT CAVOK 23/18 A2998=
200608222300 METAR MRPV 222300Z 12010KT CAVOK 22/17 A2999=
200608230000 METAR MRPV NIL=
200608230100 METAR MRPV NIL=
200608230200 METAR MRPV NIL=
200608230300 METAR MRPV NIL=
200608230400 METAR MRPV NIL=
200608230500 METAR MRPV NIL=
200608230600 METAR MRPV NIL=
200608230700 METAR MRPV NIL=
200608230800 METAR MRPV NIL=
200608230900 METAR MRPV NIL=
200608231000 METAR MRPV NIL=
200608231100 METAR MRPV NIL=
200608231200 METAR MRPV 231200Z 10010KT 9999 FEW020 OVC120 22/18 A3003 CB DST SW DZ DIST NE=
200608231300 METAR MRPV 231300Z 13009KT CAVOK 22/18 A3001 BKN120 CB DST SW=
200608231400 METAR MRPV 231400Z 10010KT 9999 -RA SCT030 BKN120 23/18 A3006=
200608231700 METAR MRPV 231700Z 09012KT 9999 SCT025 BKN250 26/19 A3005 RMK CB DIST SW=
200608231800 METAR MRPV 231800Z 09016KT 9999 FEW012TCU SCT030 BKN250 27/19 A3003 RN DST NW=
200608231900 METAR MRPV 231900Z 09012KT 9999 FEW015TCU SCT030 BKN250 27/19 A3002=
200608232000 METAR MRPV 232000Z 07011KT 9999 FEW015 SCT030 BKN250 28/18 A2998 TCU DST W=
200608232100 METAR MRPV 232100Z 07012KT 9999 FEW012TCU SCT030 BKN250 28/18 A2995 TCU W=
200608232200 METAR MRPV 232200Z 08010KT 9999 FEW012TCU BKN030 27/18 A2994=
200608232300 METAR MRPV 232300Z 08010KT 9999 FEW015 SCT030 BKN250 25/18 A2995=
200608240000 METAR MRPV NIL=
200608240100 METAR MRPV NIL=
200608240200 METAR MRPV NIL=
200608240300 METAR MRPV NIL=
200608240400 METAR MRPV NIL=
200608240500 METAR MRPV NIL=
200608240600 METAR MRPV NIL=
200608240700 METAR MRPV NIL=
200608240800 METAR MRPV NIL=
200608240900 METAR MRPV NIL=
200608241000 METAR MRPV NIL=
200608241100 METAR MRPV NIL=
200608241200 METAR MRPV 241200Z 11010KT 9999 FEW025 BKN250 22/17 A2996=
200608241300 METAR MRPV 241300Z 12008KT 9999 FEW030 SCT120 BKN250 22/18 A2998=
200608241400 METAR MRPV 241400Z 08008KT 9999 FEW030 SCT090 BKN40 23/18 A3000 DZ N NE=
200608241500 METAR MRPV 241500Z 08011KT 9999 SCT030 BKN120 23/18 A3001 RN DST W NW N E=
200608241600 METAR MRPV NIL=
200608241700 METAR MRPV 241700Z 27004KT 8000 3000SW -RA BR FEW004 SCT025 BKN120 22/20 A3003=
200608241800 METAR MRPV NIL=
200608241900 METAR MRPV 241900Z 10008KT 8000 3500SW VCSH BR FEW006 FEW015TCU BKN030 24/18 A2998 VSBY S UNL=
200608242000 METAR MRPV 242000Z 14005KT 5000 -RA BR FEW006 SCT025 BKN120 20/19 A2997 VSBY S UNL W 4KM=
200608242100 METAR MRPV 242100Z 10006KT 9999 4000NW BR FEW004 SCT025 BKN120 22/19 A2994 RERA=
200608242200 METAR MRPV 242200Z 13005KT 9999 FEW004 SCT090 BKN140 22/18 A2992=
200608242300 METAR MRPV 242300Z 27007KT 9999 4000S BR FEW003 SCT100 BKN140 21/20 A2993=
200608250000 METAR MRPV 250000Z 30004KT 8000 3500SW VCFG FEW003 SCT025 BKN140 20/19 A2996=
200608250100 METAR MRPV NIL=
200608250200 METAR MRPV NIL=
200608250300 METAR MRPV NIL=
200608250400 METAR MRPV NIL=
200608250500 METAR MRPV NIL=
200608250600 METAR MRPV NIL=
200608250700 METAR MRPV NIL=
200608250800 METAR MRPV NIL=
200608250900 METAR MRPV NIL=
200608251000 METAR MRPV NIL=
200608251100 METAR MRPV NIL=
200608251200 METAR MRPV 251200Z 08005KT CAVOK 19/18 A2998 RMK BKN110=
200608251300 METAR MRPV 251300Z 14005KT CAVOK 21/17 A2997=
200608251400 METAR MRPV 251400Z 13004KT CAVOK 22/18 A3000 RERA RMK POLVO E=
200608251500 METAR MRPV 251500Z 05005KT CAVOK 24/17 A3002=
200608251600 METAR MRPV 251600Z 28006KT CAVOK 24/19 A3001=
200608251700 METAR MRPV 251700Z 28006KT 9999 FEW025 BKN100 24/19 A3001 RMK POLVO PISTA 09=
200608251800 METAR MRPV 251800Z 28010KT 9999 FEW030 BKN100 24/20 A2999 RMK LEVE HZY POLVO PISTA 09=
200608251900 METAR MRPV 251900Z 29012KT 9999 FEW025 BKN100 23/19 A2998 RMK LEVE HZY=
200608252000 METAR MRPV 252000Z 29010KT 9999 FEW025 BKN100 24/19 A2994 RMK TCU DST S=
200608252100 METAR MRPV 252100Z 28006KT 9999 FEW020 BKN100 24/20 A2994 RMK TCU DST S=
200608252200 METAR MRPV 252200Z 27008KT 9999 FEW010 SCT025 23/20 A2993 RMK SCT120=
200608252300 METAR MRPV 252300Z 28008KT 9999 VCFG FEW008 SCT120 BKN250 22/20 A2993 RMK VIS SW 6KMS=
200608260000 METAR MRPV 260000Z 28005KT 6000 VCFG FEW006 SCT015 BKN250 24/20 A2995 RMK CB DST W=
200608260100 METAR MRPV NIL=
200608260200 METAR MRPV NIL=
200608260300 METAR MRPV NIL=
200608260400 METAR MRPV NIL=
200608260500 METAR MRPV NIL=
200608260600 METAR MRPV NIL=
200608260700 METAR MRPV NIL=
200608260800 METAR MRPV NIL=
200608260900 METAR MRPV NIL=
200608261000 METAR MRPV NIL=
200608261100 METAR MRPV NIL=
200608261200 METAR MRPV 261200Z 09003KT CAVOK 18/18 A2998 BKN100=
200608261300 METAR MRPV 261300Z 10005KT CAVOK 19/18 A3000=
200608261400 METAR MRPV 261400Z 10004KT CAVOK 21/18 A3003=
200608261500 METAR MRPV 261500Z 13005KT CAVOK 22/19 A3003 RMK DZ DST NW=
200608261600 METAR MRPV 261600Z 12005KT CAVOK 24/17 A3002 RMK DZ N NE TCU SW=
200608261700 METAR MRPV 261700Z 04004KT 9999 FEW030 BKN120 26/18 A3001 RMK RCU W=
200608261800 METAR MRPV 261800Z 30006KT 9999 FEW020TCU SCT030 BKN120 26/19 A2999=
200608261900 METAR MRPV 261900Z 24008KT 9999 4000SE -RA FEW010 SCT020TCU BKN100 24/20 A2998=
200608262000 METAR MRPV 262000Z 09006KT 6000 -RA FEW010 FEW018TCU BKN100 21/19 A2998 VIS S UNL=
200608262100 METAR MRPV 262100Z 13004KT 9999 -RA VCSH FEW015 OVC100 20/19 A2996 RMK VIS NW 6KMS=
200608262200 METAR MRPV 262200Z 26005KT 3000 -RA BR SCT001 BKN010 20/19 A2998=
200608262300 METAR MRPV 262300Z 00000KT 4000 -RA BR FEW002 SCT012 OVC100 20/19 A2999=
200608270000 METAR MRPV 270000Z 11003KT 9999 -RA FEW025 OVC100 20/19 A2999 RMK VIS E 6KMS=
200608270100 METAR MRPV NIL=
200608270200 METAR MRPV NIL=
200608270300 METAR MRPV NIL=
200608270400 METAR MRPV NIL=
200608270500 METAR MRPV NIL=
200608270600 METAR MRPV NIL=
200608270700 METAR MRPV NIL=
200608270800 METAR MRPV NIL=
200608270900 METAR MRPV NIL=
200608271000 METAR MRPV NIL=
200608271100 METAR MRPV NIL=
200608271200 METAR MRPV 271200Z 11012KT CAVOK 21/17 A2996=
200608271300 METAR MRPV 271300Z 12012KT CAVOK 20/17 A2998 RMK RN DST E=
200608271400 METAR MRPV 271400Z 12010KT CAVOK 22/17 A3000=
200608271500 METAR MRPV 271500Z 10010KT CAVOK 24/17 A3001=
200608271600 METAR MRPV 271600Z 27006KT 9999 FEW025 BKN120 24/19 A3002=
200608271700 METAR MRPV 271700Z 28008KT 9999 SCT025 BKN120 25/20 A3001 RMK HZ W=
200608271800 METAR MRPV 271800Z 27010KT 9999 SCT025 BKN120 24/19 A3000 RMK RN NW=
200608271900 METAR MRPV 271900Z 29012KT 9999 SCT022 BKN120 29/19 A2998 RMK RN N NW=
200608272000 METAR MRPV 272000Z 29012KT 9999 SCT020 BKN120 26/19 A2998 RN DST NE NW=
200608272100 METAR MRPV 272100Z 28012KT 9999 FEW010TCU SCT030 BKN120 25/20 A2994 RN DST W NW N=
200608272200 METAR MRPV 272200Z 29015KT 7000 3000W -TSRA VCSH FEW008CB BKN020 23/21 A2994=
200608272300 METAR MRPV 272300Z 13008KT 2000 +TSRA SCT004CB OVC010 19/18 A2998=
200608280000 METAR MRPV NIL=
200608280100 METAR MRPV NIL=
200608280200 METAR MRPV NIL=
200608280300 METAR MRPV NIL=
200608280400 METAR MRPV NIL=
200608280500 METAR MRPV NIL=
200608280600 METAR MRPV NIL=
200608280700 METAR MRPV NIL=
200608280800 METAR MRPV NIL=
200608280900 METAR MRPV NIL=
200608281000 METAR MRPV NIL=
200608281100 METAR MRPV NIL=
200608281200 METAR MRPV 281200Z VRB03KT CAVOK 17/16 A2998=
200608281300 METAR MRPV 281300Z 13006KT CAVOK 21/17 A3001=
200608281400 METAR MRPV 281400Z 15007KT CAVOK 24/18 A3001=
200608281500 METAR MRPV 281500Z 29006KT 9999 FEW030 26/17 A3001 DU/09=
200608281600 METAR MRPV 281600Z 27009KT 9999 SCT025 25/19 A3002 DU/09=
200608281700 METAR MRPV 281700Z 27010KT 9999 SCT025 27/20 A3000 DU/09=
200608281800 METAR MRPV 281800Z 27010KT 9999 SCT025 SCT120 26/20 A2998 DU/09 RN DST N=
200608281900 METAR MRPV 281900Z 28012KT 9999 SCT022 BKN120 26/21 A2996=
200608282000 METAR MRPV 282000Z 27012KT 9999 SCT020TCU SCT120 26/21 A2994=
200608282100 METAR MRPV 282100Z 29013KT 9999 FEW010CB BKN030 25/22 A2993 RN E=
200608282200 METAR MRPV 282200Z 28012KT 9999 FEW010TCU SCT030 25/22 A2992 RN N NE=
200608282300 METAR MRPV 282300Z 28010KT 9999 SCT004 SCT025 23/20 A2993 RN N NE=
200608290000 METAR MRPV NIL=
200608290100 METAR MRPV NIL=
200608290200 METAR MRPV NIL=
200608290300 METAR MRPV NIL=
200608290400 METAR MRPV NIL=
200608290500 METAR MRPV NIL=
200608290700 METAR MRPV NIL=
200608290800 METAR MRPV NIL=
200608290900 METAR MRPV NIL=
200608291000 METAR MRPV NIL=
200608291100 METAR MRPV NIL=
200608291200 METAR MRPV NIL=
200608291300 METAR MRPV 291300Z 09008KT CAVOK 23/19 A3000 HZY=
200608291400 METAR MRPV 291400Z 10008KT 9999 FEW010 SCT250 25/18 A3002 HZ W=
200608291500 METAR MRPV 291500Z 28008KT 9999 FEW015 BKN250 24/20 A3001 HZY W=
200608291600 METAR MRPV 291600Z 28009KT 9999 FEW008 SCT024 BKN250 25/20 A3002 VSBY W 5KM=
200608291700 METAR MRPV 291700Z 29008KT 9999 FEW010TCU SCT030 BKN250 26/20 A3000 HZY W=
200608291800 METAR MRPV 291800Z 28010KT 9999 SCT012TCU SCT030 BKN250 26/21 A2998=
200608291900 METAR MRPV 291900Z 26011KT 9999 SCT015TCU BKN250 27/22 A2995 HZ W=
200608292000 METAR MRPV 292000Z 27015KT 9999 FEW010TCU SCT030 BKN250 27/22 A2993=
200608292100 METAR MRPV 292100Z 27015KT 9999 FEW010CB BKN030 27/22 A2992 RMK HZ W TS DST N ESE=
200608292200 METAR MRPV 292200Z 27006KT 4000 -TSRA FEW010CB BKN025 22/21 A2993 RMK VIS 9999 S SE=
200608292300 METAR MRPV 292300Z VRB03KT 9999 3000W SCT003 BKN025 21/19 A2995 RMK VIS 9999E RETS=
200608300000 METAR MRPV NIL=
200608300100 METAR MRPV NIL=
200608300200 METAR MRPV NIL=
200608300300 METAR MRPV NIL=
200608300400 METAR MRPV NIL=
200608300500 METAR MRPV NIL=
200608300600 METAR MRPV NIL=
200608300700 METAR MRPV NIL=
200608300800 METAR MRPV NIL=
200608300900 METAR MRPV NIL=
200608301000 METAR MRPV NIL=
200608301100 METAR MRPV NIL=
200608301200 METAR MRPV 301200Z 25003KT 9999 4000W BR FEW002 BKN250 19/19 A2999=
200608301300 METAR MRPV 301300Z 00000KT 9999 FEW030 BKN250 22/19 A3000 RMK CB DST SW POLVO PISTA 09=
200608301400 METAR MRPV 301400Z 10008KT 9999 FEW030 BKN250 25/19 A3002 RMK CB DST SW HZ W=
200608301500 METAR MRPV 301500Z 08008KT 9999 FEW035 SCT250 26/19 A3003 RMK CB DST WSW=
200608301600 METAR MRPV 301600Z 07008KT 9999 FEW035 BKN280 27/19 A3003=
200608301700 METAR MRPV 301700Z 26004KT 9999 FEW020TCU SCT030 SCT280 26/21 A3002=
200608301800 METAR MRPV 301800Z 30008KT 9999 FEW020TCU SCT035 SCT280 27/22 A3000=
200608301900 METAR MRPV 301900Z 26008KT 9999 SCT020TCU BKN030 25/22 A2997=
200608302000 METAR MRPV 302000Z 30008KT 270V340 9999 4000W VCSH FEW010CB BKN025 23/21 A2995 RERA RMK TS DST NW=
200608302100 METAR MRPV 302100Z 28008KT 4000 -DZ BR FEW002 FEW010CB BKN015 21/20 A2998 RMK TS DST SE LOW ST MVNG W/TO E=
200608302200 METAR MRPV 302200Z 00000KT 9999 FEW015 BKN250 22/20 A2996 RMK CB DST W=
200608302300 METAR MRPV 302300Z 13006KT 9999 FEW030 SCT120 BKN250 23/20 A2996 RMK CB DST W=
200608310000 METAR MRPV 310000Z 12008KT 9999 FEW035 SCT120 BKN250 23/19 A2997=
200608310100 METAR MRPV NIL=
200608310200 METAR MRPV NIL=
200608310300 METAR MRPV NIL=
200608310400 METAR MRPV NIL=
200608310500 METAR MRPV NIL=
200608310600 METAR MRPV NIL=
200608310700 METAR MRPV NIL=
200608310800 METAR MRPV NIL=
200608310900 METAR MRPV NIL=
200608311000 METAR MRPV NIL=
200608311100 METAR MRPV NIL=
200608311200 METAR MRPV 311200Z 14008KT 9999 FEW030 SCT120 BKN250 21/17 A2999 CB DST S SW=
200608311300 METAR MRPV 311300Z 11010KT CAVOK 22/18 A3001 RMK SCT120 BKN250 CB DST SW TCU NW=
200608311400 METAR MRPV 311400Z 13007KT 9999 FEW035 SCT120 BKN250 24/18 A3005 RMK CB DST S SW=
200608311500 METAR MRPV 311500Z 07008KT 9999 FEW035 BKN120 24/18 A3006 RMK RN DST N CB DST S SW DUST AP09=
200608311600 METAR MRPV 311600Z 30007KT 9999 4000SW BR FEW004 SCT120 BKN250 23/20 A3006 RMK CB LINE S TO W DUST OVR AP09=
200608311700 METAR MRPV 311700Z 29008KT 8000 3500SW VCFG FEW003 SCT015 BKN120 23/20 A3005 RMK DUST OVER AP09=
200608311800 METAR MRPV 311800Z 29003KT 9999 VCFG FEW003 FEW020TUC BKN250 25/20 A3002 RMK VIS N 6KMS=
200608311900 METAR MRPV 311900Z 07007KT 9999 FEW035 BKN250 27/19 A2998 RMK HZY=
200608312000 METAR MRPV 312000Z 09013KT 9999 FEW020TCU SCT035 BKN250 26/19 A2996 RMK HZY=
200608312100 METAR MRPV 312100Z 28012KT 9999 FEW015TCU BKN030 24/21 A2996=
200608312200 METAR MRPV 312200Z 32006KT 9999 4000 NW -RA VCSH FEW008CB BKN015 23/20 A2999 RMK TS N=
200608312300 METAR MRPV 312300Z 07005KT 9999 4000W BR VCSH FEW003 FEW010CB SCT030 21/17 A3000=
200609010000 METAR MRPV 010000Z 30004KT 7000 VCFG FEW003 SCT025 BKN250 21/18 A3000 VIS SE S UNL VIS W 4000 MTS=
200609010100 METAR MRPV NIL=
200609010200 METAR MRPV NIL=
200609010300 METAR MRPV NIL=
200609010400 METAR MRPV NIL=
200609010500 METAR MRPV NIL=
200609010600 METAR MRPV NIL=
200609010700 METAR MRPV NIL=
200609010800 METAR MRPV NIL=
200609010900 METAR MRPV NIL=
200609011000 METAR MRPV NIL=
200609011100 METAR MRPV NIL=
200609011200 METAR MRPV 011200Z 13006KT CAVOK 20/15 A2999 RMK CB DST NE W=
200609011300 METAR MRPV 011300Z 33004KT CAVOK 20/15 A3001 RMK CB N=
200609011400 METAR MRPV 011400Z 34004KT CAVOK 23/15 A3003 RMK CB NE=
200609011500 METAR MRPV 011500Z 31005KT CAVOK 24/18 A3005=
200609011600 METAR MRPV 011600Z 07010KT 9999 FEW035 BKN250 26/18 A3005=
200609011700 METAR MRPV 011700Z 08008KT 9999 FEW030 SCT090 BKN250 26/18 A3003=
200609011800 METAR MRPV 011800Z 25004KT 9999 FEW030 BKN220 28/17 A3000=
200609011900 METAR MRPV 011900Z 29012KT 9999 FEW035 BKN220 26/20 A2997=
200609012000 METAR MRPV 012000Z 29013KT 9999 FEW018TCU FEW030 BKN220 25/21 A2996=
200609012100 METAR MRPV 012100Z 29011KT 8000 3500NE -TS VCSH FEW010 FEW015CB SCT030 25/21 A2996=
200609012200 METAR MRPV 012200Z 00000KT 8000 3500SW -RA BR FEW005 SCT015 BKN100 21/19 A2997 VIS 9999 N/S TS SW=
200609012300 METAR MRPV 012300Z 18002KT 8000 3500SW -RA BR FEW006 SCT015 BKN100 21/20 A2997 VIS N S 9999=
200609020000 METAR MRPV 020000Z 08003KT 8000 3500 -DZ BR FEW005 SCT020 BKN100 21/20 A2999 RMK VIS S UNL LTNG DST NE=
200609020100 METAR MRPV NIL=
200609020200 METAR MRPV NIL=
200609020300 METAR MRPV NIL=
200609020400 METAR MRPV NIL=
200609020500 METAR MRPV NIL=
200609020600 METAR MRPV NIL=
200609020700 METAR MRPV NIL=
200609020800 METAR MRPV NIL=
200609020900 METAR MRPV NIL=
200609021000 METAR MRPV NIL=
200609021100 METAR MRPV NIL=
200609021200 METAR MRPV 021200Z 11006KT CAVOK 21/20 A3002 RMK CB DST S SW=
200609021300 METAR MRPV 021300Z 11007KT CAVOK 21/20 A3002 HZ W=
200609021400 METAR MRPV 021400Z 12012KT CAVOK 24/18 A3002=
200609021500 METAR MRPV 021500Z 08015KT 9999 FEW025 SCT250 25/19 A3001=
200609021600 METAR MRPV 021600Z 06020KT 9999 FEW025 SCT250 26/18 A2999=
200609021700 METAR MRPV 021700Z 07014KT 9999 SCT025 BKN250 27/18 A2999=
200609021800 METAR MRPV 021800Z 10014KT 9999 FEW012TCU SCT030 27/19 A2997 RN DST WNW=
200609021900 METAR MRPV 021900Z 08018KT 9999 FEW010TCU SCT030 27/18 A2995 RN DST N WNW=
200609022000 METAR MRPV 022000Z 06018KT 9999 4000W VCTS FEW008CB BKN030 25/17 A2993 RMK TS DST W RN N/NE=
200609022100 METAR MRPV 022100Z 28006KT 9999 SCT002 BKN022 22/20 A2994=
200609022200 METAR MRPV 022200Z 30006KT 5000 2000W VCFG SCT002 BKN015 22/20 A2993=
200609022300 METAR MRPV NIL=
200609030000 METAR MRPV NIL=
200609030100 METAR MRPV NIL=
200609030200 METAR MRPV NIL=
200609030300 METAR MRPV NIL=
200609030400 METAR MRPV NIL=
200609030500 METAR MRPV NIL=
200609030600 METAR MRPV NIL=
200609030700 METAR MRPV NIL=
200609030800 METAR MRPV NIL=
200609030900 METAR MRPV NIL=
200609031000 METAR MRPV NIL=
200609031100 METAR MRPV NIL=
200609031200 METAR MRPV 031200Z 11007KT CAVOK 20/17 A2998=
200609031300 METAR MRPV 031300Z 14012KT CAVOK 21/17 A3000=
200609031400 METAR MRPV 031400Z 11018KT 9999 FEW022 SCT110 BKN250 23/17 A3002=
200609031500 METAR MRPV 031500Z 12016KT 9999 FEW022 SCT250 25/17 A3001=
200609031600 METAR MRPV 031600Z 07016KT 9999 FEW024 BKN250 26/18 A3002 RN NE=
200609031700 METAR MRPV 011700Z 08015KT 9999 FEW015 SCT030 26/19 A3002 RN NE=
200609031800 METAR MRPV 031800Z 08016KT 9999 FEW010TCU SCT030 BKN250 27/19 A3000 CB S RN NW NE=
200609031900 METAR MRPV 031900Z 09015KT 9999 3000NE VCSH FEW012TCU BKN030 25/19 A2998=
200609032000 METAR MRPV 032000Z 07006KT 9999 SCT020 BKN250 25/19 A2994 RN NW=
200609032100 METAR MRPV 032100Z 18008KT 9999 FEW004 SCT030 OVC250 26/17 A2994=
200609032200 METAR MRPV 032200Z 27013KT 9999 SCT002 BKN020 23/20 A2994=
200609032300 METAR MRPV 032300Z 25005KT 9999 SCT002 BKN025 22/20 A2996=
200609040000 METAR MRPV NIL=
200609040100 METAR MRPV NIL=
200609040200 METAR MRPV NIL=
200609040300 METAR MRPV NIL=
200609040400 METAR MRPV NIL=
200609040500 METAR MRPV NIL=
200609040600 METAR MRPV NIL=
200609040700 METAR MRPV NIL=
200609040800 METAR MRPV NIL=
200609040900 METAR MRPV NIL=
200609041000 METAR MRPV NIL=
200609041100 METAR MRPV NIL=
200609041200 METAR MRPV 041200Z 08008KT CAVOK 18/15 A3001=
200609041300 METAR MRPV 041300Z 12006KT CAVOK 21/16 A3001 RMK POLVO PISTA 09=
200609041400 METAR MRPV 041400Z 12009KT CAVOK 26/17 A3003 RMK POLVO PISTA 09=
200609041500 METAR MRPV 041500Z 08014KT CAVOK 27/17 A3003 RMK POLVO PISTA 09=
200609041600 METAR MRPV 041600Z 07016KT 9999 FEW025 SCT120 BKN250 27/17 A3004=
200609041700 METAR MRPV 041700Z 06014KT 9999 FEW025 SCT120 BKN250 27/17 A3003=
200609041800 METAR MRPV 041800Z 09015KT 9999 FEW025 SCT120 BKN250 28/19 A3001 TCU DST NW=
200609041900 METAR MRPV 041900Z 08016KT 9999 -TSRA FEW010CB SCT030 BKN250 25/20 A3000=
200609042000 METAR MRPV 042000Z 10018KT 9999 FEW012TCU SCT030 BKN250 24/18 A2997 RETS RMK CB DST W SE RN DST NW=
200609042100 METAR MRPV 042100Z 09015KT 9999 FEW012TCU SCT030 BKN250 27/18 A2995 RMK CB DST SW W SE PCPN DST SE NW=
200609042200 METAR MRPV 042200Z 12015KT 9999 SCT010 BKN250 24/18 A2998 RMK TS DST ESE RN N=
200609042300 METAR MRPV 042300Z 12010KT 9999 SCT012 BKN250 22/17 A3000 RMK CB DST E SE NW RN DST NW SE=
200609050000 METAR MRPV NIL=
200609050100 METAR MRPV NIL=
200609050200 METAR MRPV NIL=
200609050300 METAR MRPV NIL=
200609050400 METAR MRPV NIL=
200609050500 METAR MRPV NIL=
200609050600 METAR MRPV NIL=
200609050700 METAR MRPV NIL=
200609050800 METAR MRPV NIL=
200609050900 METAR MRPV NIL=
200609051000 METAR MRPV NIL=
200609051100 METAR MRPV NIL=
200609051200 METAR MRPV 051200Z 11008KT CAVOK 21/16 A3003 FEW130 BKN270 CB DST SW=
200609051300 METAR MRPV 051300Z 09010KT CAVOK 22/17 A3005 RMK FEW130 BKN270 CB DST SW DUST OVER AP09=
200609051400 METAR MRPV 051400Z 11008KT CAVOK 25/17 A3006 FEW130 BKN270 RMK CB DST SW/ N DUST OVER AP09=
200609051500 METAR MRPV 051500Z 09013KT 9999 FEW035 SCT270 26/18 A3007 RMK CB DST WSW HZ W=
200609051600 METAR MRPV 051600Z 08013KT 9999 FEW040 SCT300 27/18 A3005 RMK DUST OVER AP09 CB DST WSW=
200609051700 METAR MRPV 051700Z 08015KT 9999 FEW040 27/18 A3002=
200609051800 METAR MRPV 051800Z 07013KT 9999 FEW035 28/19 A2999 RMK RN DST E=
200609051900 METAR MRPV 051900Z 07013KT 9999 FEW035 29/18 A2997 RMK TCU NE E DST=
200609052000 METAR MRPV 052000Z 08015KT 9999 DZ FEW015TCU BKN030 27/18 A2995 RMK RN DST NE S=
200609052100 METAR MRPV 052100Z 09015KT 9999 VCSH FEW015TCU BKN030 25/19 A2996 RMK VIS W NW 7000 MTS=
200609052200 METAR MRPV 052200Z 30005KT 9999 4000 W BR FEW004 FEW015TCU SCT025 23/21 A2996 RERA=
200609052300 METAR MRPV 052300Z 27005KT 9999 4000 N BR FEW004 SCT015 BKN250 22/21 A2998=
200609060000 METAR MRPV NIL=
200609060100 METAR MRPV NIL=
200609060200 METAR MRPV NIL=
200609060300 METAR MRPV NIL=
200609060600 METAR MRPV NIL=
200609060700 METAR MRPV NIL=
200609060800 METAR MRPV NIL=
200609060900 METAR MRPV NIL=
200609061000 METAR MRPV NIL=
200609061100 METAR MRPV NIL=
200609061200 METAR MRPV 061200Z 12007KT 9999 FEW022 BKN250 21/17 A3001 RMK LTNG SW CB DST SW E=
200609061300 METAR MRPV 061300Z 13007KT CAVOK 22/17 A3002 RMK CB E SW=
200609061400 METAR MRPV 061400Z 12013KT 9999 FEW028 SCT120 BKN250 24/18 A3005 RMK CN NE E=
200609061500 METAR MRPV 061500Z 09013KT CAVOK 24/18 A3003 RMK FU APROXIMACION 09=
200609061600 METAR MRPV 061600Z 08015KT CAVOK 24/18 A3002 RMK DU APROXIMACION 09 CB SW=
200609061700 METAR MRPV 061700Z 12008KT CAVOK 26/17 A3001=
200609061800 METAR MRPV 061800Z 09013KT 9999 FEW030 BKN250 27/19 A3000=
200609061900 METAR MRPV 061900Z 27008KT FEW015TCU SCT030 SCT250 25/20 A2998 RMK RN N=
200609062000 METAR MRPV 062000Z 32012KT 9999 3000W TSRA SCT010CB BKN020 24/21 A2996=
200609062100 METAR MRPV 062100Z 25004KT 9999 4000W VCSH FEW010CB SCT020 BKN100 21/19 A2997 RETS TS DST W NW=
200609062200 METAR MRPV 062200Z 35003KT 3000 -RA BR SCT001 BKN012 21/20 A2999 TS DST W=
200609062300 METAR MRPV 062300Z 28006KT 3000 RA BR SCT001 BKN010 19/19 A3002 TS DST SE S=
200609070000 METAR MRPV 070000Z 34004KT 4000 RA BR SCT001 BKN015 18/17 A3003=
200609070100 METAR MRPV NIL=
200609070200 METAR MRPV NIL=
200609070300 METAR MRPV NIL=
200609070400 METAR MRPV NIL=
200609070500 METAR MRPV NIL=
200609070600 METAR MRPV NIL=
200609070700 METAR MRPV NIL=
200609070800 METAR MRPV NIL=
200609070900 METAR MRPV NIL=
200609071000 METAR MRPV NIL=
200609071100 METAR MRPV NIL=
200609071200 METAR MRPV 071200Z 14010KT CAVOK 20/16 A2997 RMK BKN300=
200609071300 METAR MRPV NIL=
200609071400 METAR MRPV NIL=
200609071500 METAR MRPV 071500Z 11015KT CAVOK 25/17 A3001 BKN300=
200609071600 METAR MRPV 071600Z 08012KT 9999 FEW030 BKN300 27/18 A3001 DU 09=
200609071700 METAR MRPV NIL=
200609071800 METAR MRPV NIL=
200609071900 METAR MRPV 071900Z 28013KT 9999 FEW012CB SCT035 BKN250 25/19 A2997 RN DST E=
200609072000 METAR MRPV 072000Z VRB10G20KT 3000 +TSRA SCT010CB BKN020 20/19 A2996=
200609072100 METAR MRPV 072100Z 30005KT 9999 3000W -DZ BR FEW002 FEW010CB SCT010 20/20 A2995 TS W=
200609072200 METAR MRPV 072200Z 32004KT 9999 FEW005 FEW015TCU BKN250 21/20 A2994 CB LTNG W=
200609072300 METAR MRPV 072300Z 29003KT 8000 3500SW VCFG FEW006 FEW015TCU SCT020 22/19 A2997 RN NW E=
200609080000 METAR MRPV 080000Z 29002KT 8000 3000SW VCFG FEW001 BKN015 21/19 A2997=
200609080100 METAR MRPV NIL=
200609080200 METAR MRPV NIL=
200609080300 METAR MRPV 080300Z 29014KT 8000 3000E VCTS FEW012CB SCT030 BKN250 22/20 A2996=
200609080400 METAR MRPV NIL=
200609080500 METAR MRPV NIL=
200609080600 METAR MRPV NIL=
200609080700 METAR MRPV NIL=
200609080800 METAR MRPV NIL=
200609080900 METAR MRPV NIL=
200609081000 METAR MRPV NIL=
200609081100 METAR MRPV NIL=
200609081200 METAR MRPV NIL=
200609081300 METAR MRPV 081300Z 08004KT CAVOK 19/17 A3003 DU OVCER PISTA O9=
200609081400 METAR MRPV NIL=
200609081500 METAR MRPV NIL=
200609081600 METAR MRPV 081600Z VRB03KT 9999 FEW030 BKN250 27/18 A3003=
200609081700 METAR MRPV NIL=
200609081800 METAR MRPV 081800Z 27015KT 9999 FEW012TCU SCT030 BKN250 25/19 A3001 RN NW N=
200609081900 METAR MRPV 081900Z 28012KT 5000 2000E RA SCT010TCU BKN025 23/21 A2999=
200609082000 METAR MRPV 082000Z 28012KT 8000 2000N SCT015TCU SCT030 BKN250 22/20 A2998 RERA=
200609082100 METAR MRPV 082100Z 29014KT 8000 3000E VCTS FEW012CB SCT030 BKN250 22/20 A2996=
200609082200 METAR MRPV 082200Z 30009KT 3000 -RA BR SCT002 BKN012 21/20 A2998=
200609082300 METAR MRPV 082300Z VRB03KT 3000 RA BR SCT004 BKN015 20/19 A2999=
200609090000 METAR MRPV NIL=
200609090100 METAR MRPV NIL=
200609090200 METAR MRPV NIL=
200609090300 METAR MRPV NIL=
200609090400 METAR MRPV NIL=
200609090500 METAR MRPV NIL=
200609090600 METAR MRPV NIL=
200609090700 METAR MRPV NIL=
200609090800 METAR MRPV NIL=
200609090900 METAR MRPV NIL=
200609091000 METAR MRPV NIL=
200609091100 METAR MRPV NIL=
200609091200 METAR MRPV 091200Z 09006KT CAVOK 16/16 A3001 RMK CB DIST SW/NW=
200609091300 METAR MRPV 091300Z 09007KT CAVOK 19/16 A3001 RMK CB DST SW NW POLVO PISTA 09=
200609091400 METAR MRPV 091400Z VRBO3KT CAVOK 21/17 A3003 RMK CB DST SE W POLVO PISTA 09=
200609091500 METAR MRPV 091500Z 25005KT CAVOK 22/19 A3005 RMK CB DST W POLVO PISTA 09 HZ W=
200609091600 METAR MRPV 091600Z 29006KT CAVOK 23/19 A3004 RMK CB DST SW HZ W=
200609091700 METAR MRPV 091700Z 28009KT 9999 FEW030 BKN250 26/19 A3003 RMK HZ W=
200609091800 METAR MRPV 091800Z 28010KT 9999 SCT025 BKN250 25/19 A3001=
200609091900 METAR MRPV 091900Z 28012KT 9999 -RA SCT030 BKN250 24/20 A2998=
200609092000 METAR MRPV 092000Z 29008KT 9999 FEW010TCU SCT026 BKN250 25/20 A2995 RMK RN DST SE=
200609092100 METAR MRPV 092100Z 28010KT 9999 FEW004 SCT022 BKN250 23/20 A2994 RMK TS DST NE=
200609092200 METAR MRPV 092200Z 27010KT 7000 3000 BR SCT002 BKN015 22/20 A2994=
200609092300 METAR MRPV 092300Z 28008KT 1500 BR SCT001 OVC006 21/20 A2996=
200609100000 METAR MRPV NIL=
200609100100 METAR MRPV NIL=
200609100200 METAR MRPV NIL=
200609100300 METAR MRPV NIL=
200609100400 METAR MRPV NIL=
200609100500 METAR MRPV NIL=
200609100600 METAR MRPV NIL=
200609100700 METAR MRPV NIL=
200609100800 METAR MRPV NIL=
200609100900 METAR MRPV NIL=
200609101000 METAR MRPV NIL=
200609101100 METAR MRPV NIL=
200609101200 METAR MRPV 101200Z 12008KT CAVOK 19/16 A3000 CB DST S=
200609101300 METAR MRPV 101300Z 08006KT CAVOK 21/17 A3003 RMK CB DST SW W=
200609101400 METAR MRPV 101400Z 10010KT CAVOK 23/18 A3003 RMK CB DST SW W=
200609101500 METAR MRPV NIL=
200609101600 METAR MRPV 101600Z 09008KT 9999 FEW030 SCT120 BKN250 26/18 A3005 RMK CB DST W NW=
200609101700 METAR MRPV 101700Z 29012KT 9999 SCT025 SCT120 BKN250 25/19 A3004 RMK RN DST N=
200609101800 METAR MRPV 101800Z 27010KT 9999 FEW015TCU SCT030 BKN250 26/20 A3001 RMK PCPN DST NE=
200609101900 METAR MRPV 101900Z 29010KT 9999 SCT015TCU SCT030 BKN250 26/20 A2997 RMK RN DST N=
200609102000 METAR MRPV 102000Z 25014KT 9999 TS SCT010CB BKN020 24/21 A2994=
200609102100 METAR MRPV NIL=
200609102200 METAR MRPV 102200Z 03006KT 3000 -TS RA SCT002 FEW008CB BKN012 20/19 A2996=
200609102300 METAR MRPV 102300Z 13006KT 5000 RA SCT010 SCT025 BKN100 20/19 A2998=
200609110000 METAR MRPV NIL=
200609110100 METAR MRPV NIL=
200609110200 METAR MRPV NIL=
200609110300 METAR MRPV NIL=
200609110400 METAR MRPV NIL=
200609110500 METAR MRPV NIL=
200609110600 METAR MRPV NIL=
200609110700 METAR MRPV NIL=
200609110800 METAR MRPV NIL=
200609110900 METAR MRPV NIL=
200609111000 METAR MRPV NIL=
200609111100 METAR MRPV NIL=
200609111200 METAR MRPV 111200Z 09003KT CAVOK 17/16 A3001=
200609111300 METAR MRPV 111300Z 08005KT CAVOK 20/17 A3002=
200609111400 METAR MRPV 111400Z 11008KT CAVOK 23/18 A3004=
200609111500 METAR MRPV 111500Z 08012KT CAVOK 25/18 A3006=
200609111600 METAR MRPV 111600Z 08012KT 9999 FEW045 BKN250 27/19 A3007=
200609111700 METAR MRPV 111700Z 07008KT 9999 FEW045 BKN250 27/18 A3006=
200609111800 METAR MRPV 111800Z 05005KT 9999 SCT035 SCT250 28/18 A3005=
200609111900 METAR MRPV 111900Z 28010KT 9999 FEW015TCU FEW030 SCT280 26/22 A3001=
200609112000 METAR MRPV 112000Z 29010KT 9999 FEW015TCU SCT030 25/24 A2997=
200609112100 METAR MRPV 112100Z 27012KT 9999 VCSH FEW010CB SCT025 SCT250 25/22 A2996 VIS N NW 6000=
200609112200 METAR MRPV 112200Z 31008KT 9999 VCSH FEW006 FEW012CB SCT025 23/21 A2996 VIS 6000 WNW=
200609112300 METAR MRPV 112300Z 29008KT 8000 VCFG FEW005 BKN020 23/21 A2998=
200609120000 METAR MRPV 120000Z 30006KT 6000 VCFG FEW005 FEW015TCU SCT250 22/21 A2999=
200609120100 METAR MRPV NIL=
200609120200 METAR MRPV NIL=
200609120300 METAR MRPV NIL=
200609120400 METAR MRPV NIL=
200609120500 METAR MRPV NIL=
200609120600 METAR MRPV NIL=
200609120700 METAR MRPV NIL=
200609120800 METAR MRPV NIL=
200609120900 METAR MRPV NIL=
200609121000 METAR MRPV NIL=
200609121100 METAR MRPV NIL=
200609121200 METAR MRPV 121200Z 12008KT CAVOK 20/17 A3000 RMK BKN250=
200609121300 METAR MRPV 121300Z 12010KT CAVOK 23/17 A3004 BKN250=
200609121400 METAR MRPV 121400Z 11013KT CAVOK 24/17 A3005 BKN250=
200609121500 METAR MRPV 121500Z 08013KT CAVOK 26/18 A3005 BKN250 DU/09=
200609121600 METAR MRPV NIL=
200609121700 METAR MRPV 121700Z 06012KT 9999 FEW040 BKN250 27/18 A3004=
200609121800 METAR MRPV 121800Z 07015KT 9999 DZ SCT035 BKN250 26/19 A3003 SH DST WNW=
200609121900 METAR MRPV 121900Z 06008KT 9999 SCT035 SCT120 26/19 A3001 REDZ RN DST SE S=
200609122000 METAR MRPV 122000Z 14010KT 9999 3000SW RA FEW015TCU BKN025 23/19 A3000=
200609122100 METAR MRPV 122100Z 19002KT 9999 4000W BR FEW005 BKN120 22/20 A3005 RERA=
200609122200 METAR MRPV 122200Z 32006KT 4000 -DZ BR SCT001 BKN008 21/20 A2999=
200609122300 METAR MRPV 122300Z 22002KT 9999 4000SW BR FEW001 SCT010 BKN120 21/19 A3000=
200609130000 METAR MRPV 130000Z 00000KT 9999 VCFG FEW001 SCT130 BKN250 21/19 A3000 VSBY N 7KM=
200609130100 METAR MRPV NIL=
200609130200 METAR MRPV NIL=
200609130300 METAR MRPV NIL=
200609130400 METAR MRPV NIL=
200609130500 METAR MRPV NIL=
200609130600 METAR MRPV NIL=
200609130700 METAR MRPV NIL=
200609130800 METAR MRPV NIL=
200609130900 METAR MRPV NIL=
200609131000 METAR MRPV NIL=
200609131100 METAR MRPV NIL=
200609131200 METAR MRPV 131200Z 14008KT CAVOK 20/16 A3001=
200609131300 METAR MRPV 131300Z 14010KT CAVOK 22/16 A3002 RMK FEW030 BKN250=
200609131400 METAR MRPV 131400Z 13008KT CAVOK 24/16 A3004 BKN250=
200609131500 METAR MRPV 131500Z 09014KT CAVOK 25/17 A3004 BKN250=
200609131600 METAR MRPV 131600Z 08015KT 9999 FEW040 BKN250 26/18 A3003=
200609131700 METAR MRPV 131700Z 09012KT 9999 FEW045 BKN250 27/19 A3001=
200609131800 METAR MRPV 131800Z 06015KT 9999 FEW045 BKN250 28/18 A2999=
200609131900 METAR MRPV 131900Z 08011KT 9999 FEW020 SCT035 BKN250 28/19 A2998=
200609132000 METAR MRPV 132000Z 08017KT 9999 4000E VCSH FEW020TCU SCT025 BKN250 24/21 A2995 RASH NW=
200609132100 METAR MRPV 132100Z 10009KT 9999 6000 WNW VCTSRAQ FEW015CB SCT020 BKN250 24/19 A2994 RMK TSRM W/NW=
200609132200 METAR MRPV 132200Z 29003KT 9999 FEW015 SCT020 BKN120 22/19 A2996 RN DST ARND=
200609132300 METAR MRPV 132300Z 19004KT 7000 RA SCT020 OVC120 20/20 A2998=
200609140000 METAR MRPV 140000Z 11006KT 9999 -RA SCT025 BKN120 20/19 A2999=
200609140100 METAR MRPV NIL=
200609140200 METAR MRPV NIL=
200609140300 METAR MRPV NIL=
200609140400 METAR MRPV NIL=
200609140500 METAR MRPV NIL=
200609140600 METAR MRPV NIL=
200609140700 METAR MRPV NIL=
200609140800 METAR MRPV NIL=
200609140900 METAR MRPV NIL=
200609141000 METAR MRPV NIL=
200609141100 METAR MRPV NIL=
200609141200 METAR MRPV 141200Z 14004KT CAVOK 19/17 A3003=
200609141300 METAR MRPV 141300Z 11007KT CAVOK 22/17 A3006=
200609141400 METAR MRPV 141400Z 11012KT CAVOK 24/18 A3006 RMK POLVO PISTA 09=
200609141500 METAR MRPV 141500Z 08013KT 9999 FEW022 SCT250 26/18 A3007=
200609141600 METAR MRPV 141600Z 06013KT 9999 SCT030 SCT250 27/18 A3007 RMK POLVO PISTA 09=
200609141700 METAR MRPV 141700Z 08015KT 9999 -RA FEW014TCU SCT030 BKN250 25/18 A3006=
200609141800 METAR MRPV 141800Z 11008KT 9999 SCT015TCU SCT030 BKN250 26/19 A3004 RMK CB DST NW RN DST N NW=
200609141900 METAR MRPV 141900Z 09012KT 9999 SCT012TCU SCT030 BKN250 27/19 A2999 RMK CB DST W/NW RN DST QUAD N=
200609142000 METAR MRPV 142000Z 29012KT 6000 2000NW -TSRA SCT008CB BKN015 23/20 A2999 RMK 9999 SE=
200609142100 METAR MRPV 142100Z 18005KT 9999 FEW015 OVC100 20/19 A2999 RMK VIS 5KMS W DUE BR=
200609142200 METAR MRPV 142200Z 08010KT 9999 -RA SCT015 OVC100 20/18 A3000 RMK VIS 5KMS TO W DUE BR=
200609142300 METAR MRPV 142300Z 11011KT 9999 -RA SCT015 OVC100 20/18 A3001 RMK VIS 5KMS TO W DUE BR=
200609150000 METAR MRPV NIL=
200609150100 METAR MRPV NIL=
200609150200 METAR MRPV NIL=
200609150300 METAR MRPV NIL=
200609150400 METAR MRPV NIL=
200609150500 METAR MRPV NIL=
200609150700 METAR MRPV NIL=
200609150800 METAR MRPV NIL=
200609150900 METAR MRPV NIL=
200609151000 METAR MRPV NIL=
200609151100 METAR MRPV NIL=
200609151200 METAR MRPV 151200Z 13010KT CAVOK 19/16 A3003=
200609151300 METAR MRPV 151300Z 14008KT CAVOK 21/16 A3005=
200609151400 METAR MRPV 151400Z 09016KT CAVOK 24/17 A3007=
200609151500 METAR MRPV 151500Z 08018KT CAVOK 25/17 A3008=
200609151600 METAR MRPV 151600Z 08020KT 9999 FEW024 BKN250 25/18 A3009=
200609151700 METAR MRPV 151700Z 09020KT 9999 FEW024 BKN250 25/18 A3008=
200609151800 METAR MRPV 151800Z 09020KT 9999 SCT022 BKN250 25/19 A3006=
200609151900 METAR MRPV 151900Z 08020KT 9999 SCT022 BKN250 24/18 A3004 RMK PCPN DST N NE=
200609152000 METAR MRPV 152000Z 09020KT 9999 FEW025 BKN250 25/19 A3000 RMK PCPN DST E NE=
200609152100 METAR MRPV 152100Z 10020KT 9999 SCT022 BKN250 23/18 A2999 RMK RN N NE E=
200609152200 METAR MRPV 152200Z 11018KT 9999 FEW022 BKN250 23/18 A2999 RMK RN E NE=
200609152300 METAR MRPV 152300Z 09012KT 9999 FEW030 BKN250 22/18 A2999=
200609160000 METAR MRPV NIL=
200609160100 METAR MRPV NIL=
200609160200 METAR MRPV NIL=
200609160300 METAR MRPV NIL=
200609160400 METAR MRPV NIL=
200609160500 METAR MRPV NIL=
200609160600 METAR MRPV NIL=
200609160700 METAR MRPV NIL=
200609160800 METAR MRPV NIL=
200609160900 METAR MRPV NIL=
200609161000 METAR MRPV NIL=
200609161100 METAR MRPV NIL=
200609161200 METAR MRPV 161200Z 12006KT CAVOK 19/16 A3002 RMK CB DST SE=
200609161300 METAR MRPV 161300Z VRB03KT CAVOK 22/17 A3005=
200609161400 METAR MRPV 161400Z 03005KT CAVOK 24/17 A3005=
200609161500 METAR MRPV 161500Z 12005KT CAVOK 26/16 A3005=
200609161600 METAR MRPV 161600Z 27010KT 9999 FEW030 BKN120 26/19 A3006=
200609161700 METAR MRPV 161700Z 26010KT 9999 SCT030 BKN120 26/20 A3005=
200609161800 METAR MRPV 161800Z 27013KT 9999 SCT015 BKN120 26/20 A3002 RMK RN NE=
200609161900 METAR MRPV 161900Z 29011KT 9999 TS VCSH SCT008CB BKN025 26/21 A2989 RMK VIS ENE 2000MTS=
200609162000 METAR MRPV 162000Z 18005KT 3000 TSRA SCT005 BKN012 20/19 A2998=
200609162100 METAR MRPV 162100Z 15005KT 5000 2000NW RA SCT010 BKN015 20/19 A2999=
200609162200 METAR MRPV 162200Z 13008KT 9999 -RA SCT015 OVC100 21/19 A2997 VIS W 4000/RA=
200609162300 METAR MRPV 162300Z 12007KT 9999 -RA FEW020 BKN120 20/19 A2998 VIS 4000 W/RA=
200609170000 METAR MRPV NIL=
200609170100 METAR MRPV NIL=
200609170200 METAR MRPV NIL=
200609170300 METAR MRPV NIL=
200609170400 METAR MRPV NIL=
200609170500 METAR MRPV NIL=
200609170700 METAR MRPV NIL=
200609170800 METAR MRPV NIL=
200609170900 METAR MRPV NIL=
200609171000 METAR MRPV NIL=
200609171100 METAR MRPV NIL=
200609171200 METAR MRPV 171200Z 12009KT CAVOK 20/16 A3000 RMK BKN100 CB DST SW=
200609171300 METAR MRPV 171300Z 14007KT CAVOK 21/17 A3001 SCT100 SCT250 CB DST S SW=
200609171400 METAR MRPV 171400Z 13008KT CAVOK 23/17 A3003 BKN250 CB DST NE S SW=
200609171500 METAR MRPV 171500Z 13010KT CAVOK 25/17 A3002 CB DST NE SW BKN250=
200609171600 METAR MRPV 171600Z 08008KT 9999 FEW040 BKN250 26/18 A3003=
200609171700 METAR MRPV 171700Z 09005KT 9999 FEW020 SCT280 28/17 A3001=
200609171800 METAR MRPV 171800Z 27008KT 9999 FEW040 SCT280 27/20 A2998 TCU DST S/SW RN DST E=
200609171900 METAR MRPV 171900Z 27012KT 9999 3000E +RA SCT020TCU BKN030 25/20 A2996 TS DST QUAD N=
200609172000 METAR MRPV 172000Z 29006KT 9999 4000W -RA FEW008 FEW015CB SCT025 19/18 A2997 TS DST W=
200609172100 METAR MRPV NIL=
200609172105 METAR MRPV 172105Z 13004KT 9999 VCSH FEW015 BKN100 20/18 A2996 RERA VIS 6000 W=
200609172200 METAR MRPV 172200Z 09009KT 9999 FEW015 BKN100 21/18 A2993=
200609172300 METAR MRPV 172300Z 22004KT 9999 FEW020 BKN100 21/19 A2995 CB DST E SE=
200609180000 METAR MRPV 180000Z 30004KT 9999 SCT025 BKN100 20/19 A2996 RMK CB DST=
200609180100 METAR MRPV NIL=
200609180300 METAR MRPV NIL=
200609180400 METAR MRPV NIL=
200609180500 METAR MRPV NIL=
200609180700 METAR MRPV NIL=
200609180800 METAR MRPV NIL=
200609180900 METAR MRPV NIL=
200609181000 METAR MRPV NIL=
200609181100 METAR MRPV NIL=
200609181200 METAR MRPV 181200Z VRB03KT CAVOK 19/17 A2999 RMK CB W=
200609181300 METAR MRPV 181300Z 06004KT CAVOK 22/18 A3001 RMK BKN280 CB DST W=
200609181400 METAR MRPV 181400Z 34004KT CAVOK 23/118 A3004 BKN280 CB W DU PISTA 09=
200609181500 METAR MRPV 181500Z 27003KT 9999 FEW035 SCT300 26/18 A3007 DU PIST 09=
200609181600 METAR MRPV 181600Z 28010KT 9999 FEW015TCU SCT030 24/19 A3006 DST RN E DU PISTA 09=
200609181700 METAR MRPV 181700Z 28008KT 9999 FEW015TCU BKN030 24/20 A3005 RN NE E SE DU PISTA 09=
200609181800 METAR MRPV 181800Z 32006KT 9999 -DZ FEW012TCU BKN025 24/21 A3003 DST RN ARND=
200609181900 METAR MRPV 181900Z 27006KT 9999 FEW012TCU BKN030 24/20 A3000 REDZ=
200609182000 METAR MRPV NIL=
200609182300 METAR MRPV 182300Z 02003KT 3000 RA BR SCT002 BKN010 19/18 A3003=
200609190000 METAR MRPV NIL=
200609190100 METAR MRPV NIL=
200609190300 METAR MRPV NIL=
200609190400 METAR MRPV NIL=
200609190500 METAR MRPV NIL=
200609190600 METAR MRPV NIL=
200609190700 METAR MRPV NIL=
200609190800 METAR MRPV NIL=
200609190900 METAR MRPV NIL=
200609191000 METAR MRPV NIL=
200609191100 METAR MRPV NIL=
200609191200 METAR MRPV 191200Z 09004KT CAVOK 17/16 A3007=
200609191300 METAR MRPV NIL=
200609191400 METAR MRPV 191400Z 12002KT 060V140 9999 FEW025 BKN120 22/18 A3012=
200609191500 METAR MRPV 191500Z 04004KT 9999 FEW030 BKN100 23/18 A3013=
200609191600 METAR MRPV 191600Z 31003KT 9999 FEW030 BKN280 25/18 A3012=
200609191700 METAR MRPV 191700Z 29004KT 9999 FEW030 SCT120 BKN280 27/18 A3009=
200609191800 METAR MRPV 191800Z 34004KT 9999 FEW035 BKN250 27/17 A3006 RMK CB DST N NE TCU DST S=
200609191900 METAR MRPV 191900Z 25005KT 9999 FEW020TCU SCT035 BKN250 28/19 A3001 RMK RN DST E=
200609192000 METAR MRPV 192000Z 10012KT 9999 3000W RA FEW015TCU BKN030 24/19 A3001 RMK TS DST W=
200609192100 METAR MRPV 192100Z 05003KT 9999 3000W VCSH FEW010CB BKN025 23/21 A2999=
200609192200 METAR MRPV 192200Z VRB03KT 5000 -RA FEW010CB BKN030 19/18 A3001 RMK VIS S UNLTD TS DST SE=
200609192300 METAR MRPV 192300Z 14003KT 9999 -RA VCFG FEW005 SCT025 BKN100 20/19 A3003 RMK VIS N NE E 6KMS=
200609200000 METAR MRPV NIL=
200609200100 METAR MRPV NIL=
200609200200 METAR MRPV NIL=
200609200300 METAR MRPV NIL=
200609200400 METAR MRPV NIL=
200609200500 METAR MRPV NIL=
200609200600 METAR MRPV NIL=
200609200700 METAR MRPV NIL=
200609200800 METAR MRPV NIL=
200609200900 METAR MRPV NIL=
200609201000 METAR MRPV NIL=
200609201100 METAR MRPV NIL=
200609201200 METAR MRPV 201200Z VRB03KT CAVOK 19/18 A3003 DU PISTA 09=
200609201300 METAR MRPV 201300Z 10004KT CAVOK 21/17 A3005 RMK DUST OVER APCH09=
200609201400 METAR MRPV 201400Z VRB03KT CAVOK 23/18 A3009 DUST OVCER APCH09=
200609201500 METAR MRPV 201500Z 27008KT 9999 FEW020 SCT120 BKN250 22/20 A3009 RMK HZ W DUST OVER APCH09=
200609201600 METAR MRPV 201600Z 28007KT 9999 SCT020 BKN120 23/20 A3010 DUST OVCER APCH09=
200609201700 METAR MRPV 201700Z 28008KT 7000 3000W VCFG FEW012 SCT020 BKN120 23/20 A3008=
200609201800 METAR MRPV 201800Z 25007KT 3000 RA BR SCT004 BKN015 21/20 A3005=
200609201900 METAR MRPV 201900Z VRB03KT 6000 2000NW -RA BR FEW004 SCT020 BKN100 22/20 A3002=
200609202000 METAR MRPV 202000Z VRB03KT 9999 FEW010 SCT025 BKN250 23/20 A2998=
200609202100 METAR MRPV 202100Z 09007KT 9999 SCT025 BKN250 23/19 A2997=
200609202200 METAR MRPV 202200Z VRB03KT 9999 SCT030 BKN250 24/19 A2996 RMK CB SE W=
200609202300 METAR MRPV 202300Z 27007KT 9999 SCT010 BKN025 23/20 A2998=
200609210000 METAR MRPV NIL=
200609210100 METAR MRPV NIL=
200609210200 METAR MRPV NIL=
200609210300 METAR MRPV NIL=
200609210400 METAR MRPV NIL=
200609210500 METAR MRPV NIL=
200609210600 METAR MRPV NIL=
200609210700 METAR MRPV NIL=
200609210800 METAR MRPV NIL=
200609210900 METAR MRPV NIL=
200609211000 METAR MRPV NIL=
200609211100 METAR MRPV NIL=
200609211200 METAR MRPV 211200Z 12009KT CAVOK 20/16 A3000 RMK CB DST SW=
200609211300 METAR MRPV 211300Z 14005KT CAVOK 22/16 A3002 RMK CB SW=
200609211400 METAR MRPV 211400Z 24006KT CAVOK 23/18 A3005 RMK CB SW W=
200609211500 METAR MRPV 211500Z 30006KT CAVOK 23/18 A3006 RMK CB SW W=
200609211600 METAR MRPV 211600Z 28008KT 9999 FEW030 SCT250 24/19 A3007=
200609211700 METAR MRPV 211700Z 26006KT 9999 SCT030 SCT120 26/19 A3005=
200609211800 METAR MRPV 211800Z 27010KT 9999 SCT025 SCT120 26/20 A3002=
200609211900 METAR MRPV 211900Z 28012KT 9999 FEW015TCU SCT030 27/20 A2999=
200609212000 METAR MRPV 212000Z 27012KT 9999 FEW012CB BKN025 25/20 A2997 RN NE=
200609212100 METAR MRPV 212100Z 29010KT 9999 FEW012CB BKN025 26/21 A2995 RN N SE=
200609212200 METAR MRPV 212200Z 32010KT 5000 2000NW -TSRA FEW008CB SCT020 BKN100 21/20 A2996=
200609212300 METAR MRPV 212300Z 27012KT 3000 +RA SCT004 BKN012 20/19 A3000=
200609220000 METAR MRPV 220000Z NIL=
200609220100 METAR MRPV NIL=
200609220200 METAR MRPV NIL=
200609220300 METAR MRPV NIL=
200609220400 METAR MRPV NIL=
200609220500 METAR MRPV NIL=
200609220600 METAR MRPV NIL=
200609220700 METAR MRPV NIL=
200609220800 METAR MRPV NIL=
200609220900 METAR MRPV NIL=
200609221000 METAR MRPV NIL=
200609221100 METAR MRPV NIL=
200609221200 METAR MRPV 221200Z VRB03KT CAVOK 17/16 A3003 DUST OVCER AP09=
200609221300 METAR MRPV 221300Z 08006KT CAVOK 21/17 A3004 DU/09=
200609221400 METAR MRPV 221400Z VRB03KT CAVOK 24/18 A3007 DU/09=
200609221500 METAR MRPV 221500Z VRB03KT CAVOK 25/18 A3007 DU/09=
200609221600 METAR MRPV 221600Z 09008KT 9999 FEW030 27/18 A3006 HZ W=
200609221700 METAR MRPV 221700Z 27011KT 9999 SCT028 26/20 A3004 HZ W=
200609221800 METAR MRPV 221800Z 27014KT 9999 SCT025 26/21 A3001 HZ/W=
200609221900 METAR MRPV 221900Z 27012KT 9999 FEW015TCU SCT025 25/20 A3000 RN DST NE=
200609222000 METAR MRPV 222000Z 27010KT 9999 SCT012TCU BKN030 25/21 A2998 RN DST N/NE=
200609222100 METAR MRPV 222100Z 28010KT 9999 -RA SCT008TCU BKN020 23/21 A2996 TS DST N VSBY 3KM=
200609222200 METAR MRPV 222200Z 26006KT 5000 2000W -RA BR SCT004 BKN015 23/21 A2997=
200609222300 METAR MRPV 222300Z 25005KT 7000 VCFG SCT004 BKN025 22/21 A2997 VSBY S UNL=
200609230000 METAR MRPV NIL=
200609230100 METAR MRPV NIL=
200609230200 METAR MRPV NIL=
200609230300 METAR MRPV NIL=
200609230400 METAR MRPV NIL=
200609230500 METAR MRPV NIL=
200609230600 METAR MRPV NIL=
200609230700 METAR MRPV NIL=
200609230800 METAR MRPV NIL=
200609230900 METAR MRPV NIL=
200609231000 METAR MRPV NIL=
200609231100 METAR MRPV NIL=
200609231200 METAR MRPV 231200Z 12008KT CAVOK 21/17 A2998=
200609231300 METAR MRPV 231300Z 12008KT CAVOK 23/17 A3000 RMK BKN280=
200609231400 METAR MRPV 231400Z 08012KT CAVOK 24/18 A3002 SCT250=
200609231500 METAR MRPV 231500Z 07013KT 9999 FEW030 SCT250 25/18 A3004=
200609231600 METAR MRPV 231600Z 07013KT 9999 FEW030 SCT300 26/19 A3003=
200609231700 METAR MRPV 231700Z 07008KT 9999 FEW030 SCT300 27/19 A3000=
200609231800 METAR MRPV 231800Z 05010KT 9999 BKN030 28/18 A2998=
200609231900 METAR MRPV 231900Z 09010KT 9999 FEW035 SCT300 29/19 A2995=
200609232000 METAR MRPV 232000Z 07010KT 9999 SCT040 SCT300 28/19 A2992=
200609232100 METAR MRPV 232100Z 27004KT 9999 FEW015TCU BKN030 25/22 A2991 RMK CB SHRA DST N=
200609232200 METAR MRPV 232200Z 13006KT 9999 VCSH FEW010CB BKN025 24/21 A2992 RERA RMK 5000 VIS W TS DST W=
200609232300 METAR MRPV 232300Z 00000KT 9999 FEW015TCU BKN025 22/19 A2995 RMK RN DST N SE=
200609240000 METAR MRPV NIL=
200609240100 METAR MRPV NIL=
200609240200 METAR MRPV NIL=
200609240300 METAR MRPV NIL=
200609240400 METAR MRPV NIL=
200609240500 METAR MRPV NIL=
200609240600 METAR MRPV NIL=
200609240700 METAR MRPV NIL=
200609240800 METAR MRPV NIL=
200609240900 METAR MRPV NIL=
200609241000 METAR MRPV NIL=
200609241100 METAR MRPV NIL=
200609241200 METAR MRPV NIL=
200609241300 METAR MRPV 241300Z NIL=
200609241400 METAR MRPV 241400Z 08016KT 9999 FEW030 BKN250 24/17 A3001=
200609241500 METAR MRPV 241500Z 09015KT 9999 FEW030 BKN250 24/16 A2999=
200609241600 METAR MRPV 241600Z 08014KT 9999 SCT035 BKN250 26/17 A2999=
200609241700 METAR MRPV 241700Z 09012KT 9999 SCT030 BKN250 27/17 A2999=
200609241800 METAR MRPV 241800Z 08013KT 9999 SCT035 BKN250 27/16 A2997=
200609242000 METAR MRPV 242000Z 07011KT 9999 FEW035 BKN270 28/16 A2991=
200609242100 METAR MRPV 242100Z 08011KT 9999 SCT035 BKN270 27/16 A2990 RMK CB DST S SW=
200609242200 METAR MRPV 242200Z 33005KT 9999 SCT030 BKN250 25/21 A2991=
200609242300 METAR MRPV 242300Z 30004KT 9999 FEW010 SCT020 BKN250 22/20 A2992=
200609250000 METAR MRPV NIL=
200609250100 METAR MRPV NIL=
200609250200 METAR MRPV NIL=
200609250300 METAR MRPV NIL=
200609250400 METAR MRPV NIL=
200609250500 METAR MRPV NIL=
200609250600 METAR MRPV NIL=
200609250700 METAR MRPV NIL=
200609250800 METAR MRPV NIL=
200609250900 METAR MRPV NIL=
200609251000 METAR MRPV NIL=
200609251100 METAR MRPV NIL=
200609251200 METAR MRPV 251200Z 15005KT CAVOK 19/15 A2998=
200609251300 METAR MRPV 251300Z 11011KT CAVOK 22/16 A3001 RMK BKN250=
200609251400 METAR MRPV 251400Z 11010KT CAVOK 24/16 A3001 RMK BKN250=
200609251500 METAR MRPV 251500Z 11012KT CAVOK 24/16 A3000 RMK BKN250=
200609251600 METAR MRPV 251600Z 09010KT 9999 FEW030 BKN250 26/17 A3004=
200609251700 METAR MRPV 251700Z 09007KT 9999 SCT035 BKN270 27/17 A3002=
200609251800 METAR MRPV 251800Z 12005KT 9999 SCT030 BKN250 28/17 A2999 RMK DUST W TCU ARND=
200609251900 METAR MRPV 251900Z 09014KT 9999 FEW015 SCT025 BKN250 27/18 A2995 DUST W CB SCT ARND DST=
200609252000 METAR MRPV 252000Z 35004KT 9999 TS VCSH SCT020 BKN035 22/17 A2996 RMK VIS W NW 6KMS=
200609252100 METAR MRPV 252100Z 28003KT 9999 SCT025 BKN100 21/18 A2997 RETS=
200609252200 METAR MRPV 252200Z 10005KT 9999 SCT030 BKN120 22/18 A2996=
200609252300 METAR MRPV 252300Z 07007KT 9999 FEW030 SCT120 BKN250 24/18 A2995=
200609260000 METAR MRPV NIL=
200609260100 METAR MRPV NIL=
200609260200 METAR MRPV NIL=
200609260300 METAR MRPV NIL=
200609260400 METAR MRPV NIL=
200609260500 METAR MRPV NIL=
200609260600 METAR MRPV NIL=
200609260700 METAR MRPV NIL=
200609260800 METAR MRPV NIL=
200609260900 METAR MRPV NIL=
200609261000 METAR MRPV NIL=
200609261100 METAR MRPV NIL=
200609261200 METAR MRPV 261200Z 10012KT CAVOK 20/16 A3000 RMK CB DST SW=
200609261300 METAR MRPV 261300Z 09013KT CAVOK 22/16 A3002 RMK CB W=
200609261400 METAR MRPV 261400Z 08008KT CAVOK 24/17 A3004 RMK CB SW=
200609261500 METAR MRPV 261500Z 08010KT CAVOK 26/18 A3004=
200609261600 METAR MRPV 261600Z 08009KT 9999 FEW030 26/27 A3005=
200609261700 METAR MRPV 261700Z 07008KT 9999 FEW040 28/18 A3003=
200609261800 METAR MRPV 261800Z 08007KT 9999 FEW035 29/18 A3000=
200609261900 METAR MRPV 261900Z 02003KT 9999 FEW030 30/18 A2997=
200609262000 METAR MRPV 262000Z 26010KT 9999 FEW035 28/21 A2994=
200609262100 METAR MRPV 262100Z 26010KT 9999 FEW015TCU SCT030 25/22 A2993=
200609262200 METAR MRPV 262200Z 09012KT 9999 2000S RA SCT010CB BKN020 21/20 A2996=
200609262300 METAR MRPV 262300Z 33006KT 9999 4000NW VCSH FEW010CB BKN030 21/20 A2998 RERA TS DST W=
200609270000 METAR MRPV NIL=
200609270100 METAR MRPV NIL=
200609270200 METAR MRPV NIL=
200609270300 METAR MRPV NIL=
200609270400 METAR MRPV NIL=
200609270500 METAR MRPV NIL=
200609270600 METAR MRPV NIL=
200609270700 METAR MRPV NIL=
200609270800 METAR MRPV NIL=
200609270900 METAR MRPV NIL=
200609271000 METAR MRPV NIL=
200609271100 METAR MRPV NIL=
200609271200 METAR MRPV 271200Z 10008KT 9999 FEW030 SCT250 21/18 A3000=
200609271300 METAR MRPV 271300Z 11010KT 9999 FEW025 SCT250 23/18 A3002=
200609271400 METAR MRPV 271400Z 09015KT 9999 FEW035 24/19 A3004=
200609271500 METAR MRPV NIL=
200609271600 METAR MRPV 271600Z 07013KT 9999 FEW040 27/19 A3002=
200609271700 METAR MRPV 271700Z 07011KT 9999 FEW040 28/19 A3001=
200609271800 METAR MRPV 271800Z 07012KT 9999 BKN040 28/19 A2999=
200609271900 METAR MRPV 271900Z 04007KT 9999 FEW020TCU SCT040 28/19 A2996 RN DST NW N=
200609272000 METAR MRPV 272000Z 08012KT 9999 FEW020TCU BKN030 27/20 A2994 SH DST WNW=
200609272100 METAR MRPV 2721900Z 30008KT 9999 VCSH FEW020TCU BKN030 24/21 A2996 VSBY W 7KM DUE RASH=
200609272200 METAR MRPV 272200Z 29008KT 9999 VCSH FEW005 FEW010CB BKN030 24/21 A2995 VSBY W 7KM DUE RN=
200609272300 METAR MRPV 272300Z 31002KT 9999 VCFG FEW005 BKN025 23/21 A2996 VSBY SW 5KM=
200609280000 METAR MRPV 280000Z 22002KT 9999 VCFG FEW003 SCT025 BKN250 23/21 A2997=
200609280100 METAR MRPV NIL=
200609280200 METAR MRPV NIL=
200609280300 METAR MRPV NIL=
200609280400 METAR MRPV NIL=
200609280500 METAR MRPV NIL=
200609280600 METAR MRPV NIL=
200609280700 METAR MRPV NIL=
200609280800 METAR MRPV NIL=
200609280900 METAR MRPV NIL=
200609281000 METAR MRPV NIL=
200609281100 METAR MRPV NIL=
200609281200 METAR MRPV 281200Z 13008KT 9999 SCT030 BKN120 22/18 A3000 CB DST SW=
200609281300 METAR MRPV 281300Z 07008KT 9999 FEW030 SCT090 BKN120 23/18 A2998 CB DST SW DU PISTA 09=
200609281400 METAR MRPV 281400Z 04010KT 9999 SCT030 BKN120 24/19 A3004 RN N=
200609281500 METAR MRPV 281500Z 07014KT 9999 SCT030 BKN250 25/19 A3003 DZ N=
200609281600 METAR MRPV 281600Z 07016KT 9999 FEW035 BKN250 26/19 A3002 DZ N=
200609281700 METAR MRPV 281700Z 07015 9999 FEW040 BKN250 27/20 A3000 DZ N=
200609281800 METAR MRPV 281800Z 08014KT 9999 BKN035 26/19 A2999=
200609281900 METAR MRPV 281900Z 09013KT 9999 FEW040 BKN250 28/20 A2995 DZ N=
200609282000 METAR MRPV 282000Z 08015KT 9999 FEW035 BKN250 27/19 A2994 TCU RN NW=
200609282100 METAR MRPV 282100Z 08010KT 9999 VCFG FEW005 SCT130 BKN250 26/19 A2992 RMK 7000NW TS DST S=
200609282200 METAR MRPV 282200Z 33006KT 9999 VCFG FEW005 SCT030 BKN130 24/21 A2992 RMK VIS 6000W=
200609282300 METAR MRPV 282300Z 10006KT 9999 VCFG FEW005 SCT130 BKN250 24/19 A2993 RMK VIS 7000W=
200609290000 METAR MRPV 290000Z 09011KT 9999 VCFG FEW005 SCT025 BKN250 23/19 A2994 RMK VIS 6000 NW=
200609290100 METAR MRPV NIL=
200609290200 METAR MRPV NIL=
200609290300 METAR MRPV NIL=
200609290400 METAR MRPV NIL=
200609290500 METAR MRPV NIL=
200609290600 METAR MRPV NIL=
200609290700 METAR MRPV NIL=
200609290800 METAR MRPV NIL=
200609290900 METAR MRPV NIL=
200609291000 METAR MRPV NIL=
200609291100 METAR MRPV NIL=
200609291200 METAR MRPV 11006KT 9999 FEW030 OVC250 22/17 A2999=
200609291300 METAR MRPV 291300Z 11008KT 9999 FEW030 BKN250 23/18 A2999=
200609291400 METAR MRPV 291400Z 09009KT 9999 FEW030 BKN250 24/18 A3002=
200609291500 METAR MRPV 291500Z 10010KT 99999 FEW030 BKN250 25/18 A3002=
200609291600 METAR MRPV 291600Z 09010KT 9999 SCT030 BKN250 26/18 A3003=
200609291700 METAR MRPV 291700Z 10010KT 9999 SCT030 BKN250 26/19 A3000=
200609291800 METAR MRPV 291800Z 08011KT 9999 SCT035 OVC250 27/19 A2997=
200609291900 METAR MRPV 291900Z 09009KT 9999 FEW020TCU SCT035 BKN120 26/19 A2995=
200609292000 METAR MRPV 292000Z 10013KT 9999 VCSH FEW020TCU SCT035 BKN120 26/20 A2992 RMK SHRA DST E NW N=
200609292100 METAR MRPV 292100Z 11007KT 9999 TS VCSH SCT012CB BKN100 24/19 A2993 RMK W/NW 5KMS=
200609292200 METAR MRPV 292200Z 00000KT 9999 SCT015 BKN035 22/18 A2995 RMK RASH E W SW DST=
200609292300 METAR MRPV 292300Z 14003KT 9999 FEW010 SCT020 BKN100 22/19 A2996 RMK RN DST S=
200609300000 METAR MRPV NIL=
200609300100 METAR MRPV NIL=
200609300200 METAR MRPV NIL=
200609300300 METAR MRPV NIL=
200609300400 METAR MRPV NIL=
200609300500 METAR MRPV NIL=
200609300600 METAR MRPV NIL=
200609300700 METAR MRPV NIL=
200609300800 METAR MRPV NIL=
200609300900 METAR MRPV NIL=
200609301000 METAR MRPV NIL=
200609301100 METAR MRPV NIL=
200609301200 METAR MRPV 301200Z 14006KT 9999 FEW030 BKN250 20/17 A2999=
200609301300 METAR MRPV 301300Z 13006KT 9999 FEW030 BKN250 22/17 A3002=
200609301400 METAR MRPV 301400Z 11008KT 9999 FEW020 BKN250 23/17 A3002=
200609301500 METAR MRPV NIL=
200609301600 METAR MRPV 301600Z 06015KT 9999 SCT030 BKN250 26/19 A3002=
200609301700 METAR MRPV 301700Z 09015KT 9999 SCT030 BKN250 26/19 A3000=
200609301800 METAR MRPV 301800Z 10012KT 9999 SCT030 BKN250 26/19 A3000=
200609301900 METAR MRPV 301900Z 09012KT 9999 SCT030 BKN250 27/19 A2996 RMK RN DST NE=
200609302000 METAR MRPV 302000Z 08012KT 9999 FEW010TCU SCT030 BKN100 24/17 A2996=
200609302100 METAR MRPV 302100Z 12005KT 9999 SCT030 BKN100 23/18 A2995 RETS=
200609302200 METAR MRPV 302200Z 16005KT 9999 FEW030 OVC120 23/18 A2996=
200609302300 METAR MRPV 302300Z 14002KT CAVOK 23/17 A2996=
200610010000 METAR MRPV 010000Z 08005KT CAVOK 22/18 A2996=
200610010100 METAR MRPV NIL=
200610010200 METAR MRPV NIL=
200610010300 METAR MRPV NIL=
200610010400 METAR MRPV NIL=
200610010500 METAR MRPV NIL=
200610010600 METAR MRPV NIL=
200610010700 METAR MRPV NIL=
200610010800 METAR MRPV NIL=
200610010900 METAR MRPV NIL=
200610011000 METAR MRPV NIL=
200610011100 METAR MRPV NIL=
200610011200 METAR MRPV 011200Z 14006KT CAVOK 20/15 A2996 RMK TCU DST SW=
200610011300 METAR MRPV 011300Z 14006KT CAVOK 22/16 A2999=
200610011400 METAR MRPV 011400Z 15006KT CAVOK 24/17 A3002=
200610011500 METAR MRPV 011500Z 08009KT 9999 FEW040 BKN250 25/17 A3004=
200610011600 METAR MRPV 011600Z 08004KT 9999 FEW040 SCT130 BKN250 27/18 A3003=
200610011700 METAR MRPV 011700Z 10005KT 9999 SCT040 BKN120 28/17 A3001=
200610011800 METAR MRPV 011800Z 28004KT 9999 SCT030 BKN120 28/20 A2999=
200610011900 METAR MRPV 011900Z 28008KT 9999 SCT010TCU SCT025 BKN100 26/21 A2996=
200610012000 METAR MRPV 012000Z 27006KT 9999 FEW015TCU SCT030 BKN100 26/21 A2993 RN DST W=
200610012100 METAR MRPV 012100Z 07002KT 6000 VCSH BKN005 OVC100 23/21 A2994=
200610012200 METAR MRPV 012200Z 22003KT 4000 TS VCSH SCT012CB OVC100 21/20 A2996 VIS E/SE 9999=
200610012300 METAR MRPV 012300Z 31004KT 3000 BR BKN004 OVC100 21/20 A2998=
200610020000 METAR MRPV NIL=
200610020100 METAR MRPV NIL=
200610020200 METAR MRPV NIL=
200610020300 METAR MRPV NIL=
200610020400 METAR MRPV NIL=
200610020500 METAR MRPV NIL=
200610020600 METAR MRPV NIL=
200610020700 METAR MRPV NIL=
200610020800 METAR MRPV NIL=
200610020900 METAR MRPV NIL=
200610021000 METAR MRPV NIL=
200610021100 METAR MRPV NIL=
200610021200 METAR MRPV 021200Z 11012KT 9999 FEW030 SCT250 21/17 A2999 RMK CB DST SW=
200610021300 METAR MRPV 021300Z 12014KT 9999 FEW030 SCT250 22/17 A3000 CB DST SW=
200610021400 METAR MRPV 021400Z 09015KT CAVOK 23/16 A3002 BKN250 CB DST SW=
200610021500 METAR MRPV 021500Z 09015KT CAVOK 26/17 A3002 BKN250 DU/09=
200610021600 METAR MRPV 021600Z 07016KT 9999 FEW040 SCT250 26/18 A3002=
200610021700 METAR MRPV 021700Z 06014KT 9999 FEW040 SCT250 27/18 A3000 CB DST N=
200610021800 METAR MRPV 021800Z 08015KT 9999 FEW040 SCT140 27/18 A2997=
200610021900 METAR MRPV 021900Z 06013KT 9999 FEW040 BKN250 27/19 A2994 DZ DST N=
200610022000 METAR MRPV 022000Z VRB03KT 9999 FEW040 BKN250 28/17 A2990=
200610022100 METAR MRPV 022100Z 29012KT 9999 FEW020TCU BKN035 25/22 A2989=
200610022200 METAR MRPV 022200Z 30004KT 9999 FEW006 SCT020 BKN250 23/21 A2990=
200610022300 METAR MRPV 022300Z 27004KT 9999 4000W BR FEW005 SCT015 BKN250 22/21 A2992=
200610030000 METAR MRPV 030000Z 30002KT 9999 4000W BR FEW005 SCT015 BKN250 22/21 A2995=
200610030100 METAR MRPV NIL=
200610030200 METAR MRPV NIL=
200610030300 METAR MRPV NIL=
200610030400 METAR MRPV NIL=
200610030500 METAR MRPV NIL=
200610030600 METAR MRPV NIL=
200610030800 METAR MRPV NIL=
200610030900 METAR MRPV NIL=
200610031000 METAR MRPV NIL=
200610031100 METAR MRPV NIL=
200610031200 METAR MRPV 031200Z 10015KT 9999 -DZ FEW030 BKN250 22/18 A2995 RMK RN NE=
200610031300 METAR MRPV 031300Z 11012KT 9999 SCT030 SCT250 22/18 A2995 RMK REDZ DST N=
200610031400 METAR MRPV 031400Z 10013KT 9999 FEW035 SCT270 24/18 A2998 DZ NE=
200610031500 METAR MRPV 031500Z 08010KT 9999 SCT035 SCT270 24/18 A2999=
200610031600 METAR MRPV 031600Z 11012KT 9999 BKN035 26/18 A2998 CB N=
200610031700 METAR MRPV 031700Z 10012KT 9999 BKN030 25/19 A2998 RN N NE=
200610031800 METAR MRPV 031800Z 09012KT 9999 -DZ SCT035 BKN120 23/19 A2994 RERA RN N=
200610031900 METAR MRPV 031900Z 06015KT 9999 SCT030 BKN120 23/18 A2992 REDZ DZ N=
200610032000 METAR MRPV 032000Z 06015KT 9999 FEW030 SCT120 BKN250 25/18 A2989 DZ NE=
200610032100 METAR MRPV 032100Z 06012KT 9999 SCT035 BKN250 25/17 A2988=
200610032200 METAR MRPV NIL=
200610032300 METAR MRPV 032300Z 11007KT 9999 SCT030 SCT120 23/17 A2990=
200610032340 METAR MRPV 032340Z 10007KT 9999 SCT030 SCT120 23/18 A2992=
200610040000 METAR MRPV NIL=
200610040100 METAR MRPV NIL=
200610040200 METAR MRPV NIL=
200610040300 METAR MRPV NIL=
200610040400 METAR MRPV NIL=
200610040500 METAR MRPV NIL=
200610040600 METAR MRPV NIL=
200610040700 METAR MRPV NIL=
200610040800 METAR MRPV NIL=
200610040900 METAR MRPV NIL=
200610041000 METAR MRPV NIL=
200610041200 METAR MRPV 041200Z 12010KT CAVOK 20/17 A2991 RMK BKN250=
200610041300 METAR MRPV 041300Z 10013KT 9999 FEW030 BKN250 23/18 A2994=
200610041400 METAR MRPV 041400Z 12008KT 9999 FEW035 BKN250 24/18 A2997=
200610041500 METAR MRPV NIL=
200610041600 METAR MRPV 041600Z 07013KT 9999 FEW040 BKN250 27/18 A2994=
200610041700 METAR MRPV 041700Z 08012KT 9999 SCT040 BKN250 27/19 A2993=
200610041800 METAR MRPV 041800Z 08014KT 9999 BKN035 26/18 A2989=
200610041900 METAR MRPV 041900Z 08015KT 9999 BKN035 27/19 A2986=
200610042000 METAR MRPV 042000Z 06011KT 9999 VCSH BKN030 24/19 A2985=
200610042100 METAR MRPV 042100Z 07015KT 4000E -RA VCSH SCT025 BKN100 22/19 A2984=
200610042200 METAR MRPV 042200Z 09008KT 9999 -DZ VCFG FEW005 SCT025 BKN100 21/19 A2985 RMK VIS NW 7KMS SCT RN DIST ARND=
200610042300 METAR MRPV 042300Z 09008KT 9999 FEW015 BKN030 21/18 A2987 REDZ=
200610050000 METAR MRPV NIL=
200610050100 METAR MRPV NIL=
200610050200 METAR MRPV NIL=
200610050300 METAR MRPV NIL=
200610050400 METAR MRPV NIL=
200610050500 METAR MRPV NIL=
200610050600 METAR MRPV NIL=
200610050700 METAR MRPV NIL=
200610050800 METAR MRPV NIL=
200610050900 METAR MRPV NIL=
200610051000 METAR MRPV NIL=
200610051100 METAR MRPV NIL=
200610051200 METAR MRPV NIL=
200610051300 METAR MRPV 051300Z 13005KT 9999 FEW030 BKN250 23/17 A2992=
200610051400 METAR MRPV 051400Z 08012KT 9999 FEW030 BKN250 24/18 A2994=
200610051500 METAR MRPV 051500Z 08013KT 9999 FEW030 BKN250 25/18 A2994=
200610051600 METAR MRPV 051600Z 09012KT 9999 FEW030 SCT120 BKN250 27/18 A2994=
200610051700 METAR MRPV 051700Z 08014KT 9999 SCT030 BKN250 27/19 A2991=
200610051800 METAR MRPV 051800Z 09013KT 9999 SCT030 BKN250 27/18 A2988=
200610051900 METAR MRPV 051900Z 09009KT 9999 SCT030 BKN250 28/19 A2985=
200610052000 METAR MRPV 052000Z 28007KT 9999 SCT030 BKN120 25/21 A2993=
200610052100 METAR MRPV 052100Z 28006KT 9999 FEW015TCU SCT025 BKN120 24/21 A2983=
200610052200 METAR MRPV 052200Z 28006KT 9999 FEW012CB SCT020 BKN100 23/21 A2983 RMK RASH NE=
200610052300 METAR MRPV 052300Z 33004KT 9999 4000N -TS VCSH FEW008 SCT015CB OVC100 22/21 A2987=
200610060000 METAR MRPV NIL=
200610060100 METAR MRPV NIL=
200610060200 METAR MRPV NIL=
200610060300 METAR MRPV NIL=
200610060400 METAR MRPV NIL=
200610060500 METAR MRPV NIL=
200610060600 METAR MRPV NIL=
200610060700 METAR MRPV NIL=
200610060800 METAR MRPV NIL=
200610060900 METAR MRPV NIL=
200610061000 METAR MRPV NIL=
200610061100 METAR MRPV NIL=
200610061200 METAR MRPV 061200Z 13006KT 9999 FEW020 BKN250 21/18 A2994=
200610061300 METAR MRPV 061300Z 11006KT 9999 FEW025 BKN250 23/18 A2996=
200610061400 METAR MRPV 061400Z 11009KT 9999 FEW025 BKN250 24/18 A2997=
200610061500 METAR MRPV 061500Z 08008KT 9999 FEW030 BKN250 26/18 A2997=
200610061600 METAR MRPV 061600Z 08006KT 9999 SCT030 BKN250 27/18 A2998=
200610061700 METAR MRPV 061700Z 10008KT 9999 SCT030 BKN250 28/19 A2998 RMK RN E=
200610061800 METAR MRPV 061800Z 08012KT 9999 BKN030 28/19 A2993=
200610061900 METAR MRPV 061900Z 10004KT 9999 SCT030 BKN080 29/19 A2990 RMK RASH NW E=
200610062000 METAR MRPV 062000Z 03004KT 9999 3000NW TS VCSH FEW012 SCT020CB BKN100 24/19 A2989=
200610062100 METAR MRPV NIL=
200610062200 METAR MRPV 062200Z 00000KT 9999 VCFG SCT025 OVC100 22/20 A2992 BR W NW VIS 6000=
200610062300 METAR MRPV 062300Z 20002KT 9999 4000W BR FEW020 OVC100 21/20 A2992 BR SW W=
200610070000 METAR MRPV NIL=
200610070100 METAR MRPV NIL=
200610070200 METAR MRPV NIL=
200610070300 METAR MRPV NIL=
200610070400 METAR MRPV NIL=
200610070500 METAR MRPV NIL=
200610070600 METAR MRPV NIL=
200610070700 METAR MRPV NIL=
200610070800 METAR MRPV NIL=
200610070900 METAR MRPV NIL=
200610071000 METAR MRPV NIL=
200610071100 METAR MRPV NIL=
200610071200 METAR MRPV 071200Z 14005KT 9999 FEW030 BKN250 22/18 A2997=
200610071300 METAR MRPV 071300Z 09010KT 9999 FEW030 SCT120 BKN250 24/18 A2998=
200610071400 METAR MRPV 071400Z 09011KT 9999 FEW030 BKN250 24/18 A2999=
200610071500 METAR MRPV 071500Z 08012KT 9999 FEW030 BKN250 25/19 A2999=
200610071600 METAR MRPV 071600Z 08012KT 9999 SCT030 BKN250 26/19 A3000=
200610071700 METAR MRPV 071700Z 08011KT 9999 FEW020 SCT030 BKN250 28/19 A2999=
200610071800 METAR MRPV 071800Z 10018KT 9999 SCT030 BKN250 27/19 A2995=
200610071900 METAR MRPV 071900Z 09013KT 9999 FEW025 BKN100 28/19 A2992 RN W N E=
200610072000 METAR MRPV 072000Z 10011KT 9999 TS VCSH FEW010CB SCT020 OVC100 25/20 A2991 VIS NW 6000/TSRA=
200610072100 METAR MRPV 072100Z 08011KT 9999 SCT020TCU OVC100 24/19 A2990 RASH W E=
200610072200 METAR MRPV 072200Z 12004KT 9999 SCT020 OVC100 23/19 A2991=
200610072300 METAR MRPV 072300Z 23003KT 4000 BR FEW010 SCT020 OVC100 20/19 A2994=
200610080000 METAR MRPV NIL=
200610080100 METAR MRPV NIL=
200610080200 METAR MRPV NIL=
200610080300 METAR MRPV NIL=
200610080400 METAR MRPV NIL=
200610080500 METAR MRPV NIL=
200610080600 METAR MRPV NIL=
200610080700 METAR MRPV NIL=
200610080800 METAR MRPV NIL=
200610080900 METAR MRPV NIL=
200610081000 METAR MRPV NIL=
200610081100 METAR MRPV NIL=
200610081200 METAR MRPV 081200Z 10003KT CAVOK 22/18 A2998 RMK BKN250 CB DST SW/W=
200610081300 METAR MRPV NIL=
200610081400 METAR MRPV 081400Z 10007KT CAVOK 25/18 A3001 SCT120 BKN250=
200610081500 METAR MRPV 081500Z 29007KT 9999 FEW040 SCT130 BKN250 25/19 A3003=
200610081600 METAR MRPV 081600Z 29007KT 9999 FEW035 SCT140 26/19 A3003=
200610081700 METAR MRPV 081700Z 28010KT 9999 FEW035 BKN250 26/21 A3000=
200610081800 METAR MRPV 081800Z 27006KT 9999 VCSH FEW015TCU SCT030 SCT250 26/21 A2996 VSBY NE 6KM DUE RN=
200610081900 METAR MRPV 081900Z 09005KT 9999 4000NE RA SCT015CB BKN030 22/19 A2996=
200610082000 METAR MRPV 082000Z 14004KT 9999 -RA SCT030 BKN100 21/20 A2993 VSBY W 7KM=
200610082100 METAR MRPV 082100Z 13004KT 9999 -RA FEW030 BKN120 22/21 A2992=
200610082200 METAR MRPV 082200Z 00000KT 9999 -RA FEW030 BKN120 23/21 A2992=
200610082300 METAR MRPV 082300Z 04004KT 9999 -RA FEW035 BKN120 22/21 A2993=
200610090000 METAR MRPV 090000Z NIL=
200610090100 METAR MRPV NIL=
200610090200 METAR MRPV NIL=
200610090300 METAR MRPV NIL=
200610090400 METAR MRPV NIL=
200610090500 METAR MRPV NIL=
200610090600 METAR MRPV NIL=
200610090700 METAR MRPV NIL=
200610090800 METAR MRPV NIL=
200610090900 METAR MRPV NIL=
200610091000 METAR MRPV NIL=
200610091100 METAR MRPV NIL=
200610091200 METAR MRPV 091200Z 12010KT CAVOK 21/18 A2996 RMK CB DIST S/SW BKN250=
200610091300 METAR MRPV 091300Z 12012KT CAVOK 23/18 A2998 RMK CB DST S SW W=
200610091400 METAR MRPV 091400Z 10010KT CAVOK 24/18 A2999 RMK CB DST S SW W=
200610091500 METAR MRPV 091500Z 15008KT 9999 SCT030 SCT250 26/18 A3003 RMK CB DST S SW W=
200610091600 METAR MRPV 091600Z 29006KT 9999 SCT030 BKN250 27/17 A3003=
200610091700 METAR MRPV 091700Z 31008KT 9999 BKN030 SCT250 24/20 A3002 RMK DZ DST NE=
200610091800 METAR MRPV 091800Z 28010KT 9999 FEW008 SCT015 BKN250 24/21 A3000=
200610091900 METAR MRPV 091900Z 28012KT 9999 FEW008 SCT015 BKN250 24/21 A2996=
200610092000 METAR MRPV 092000Z 28008KT 9999 SCT025 SCT130 24/20 A2994=
200610092100 METAR MRPV 092100Z 27004KT 9999 FEW015 SCT130 BKN250 24/20 A2994 RMK=
200610092200 METAR MRPV 092200Z 25005KT 9999 FEW010 BKN025 23/20 A2993 RMK RN DIST E=
200610092300 METAR MRPV 092300Z 29006KT 9999 FEW008 BKN020 22/20 A2995=
200610100000 METAR MRPV NIL=
200610100100 METAR MRPV NIL=
200610100200 METAR MRPV NIL=
200610100300 METAR MRPV NIL=
200610100400 METAR MRPV NIL=
200610100500 METAR MRPV NIL=
200610100600 METAR MRPV NIL=
200610100700 METAR MRPV NIL=
200610100800 METAR MRPV NIL=
200610100900 METAR MRPV NIL=
200610101000 METAR MRPV NIL=
200610101100 METAR MRPV NIL=
200610101200 METAR MRPV 101200Z 09004KT CAVOK 20/18 A3001 BKN110 DU PISTA 09=
200610101300 METAR MRPV 101300Z 23003KT CAVOK 21/19 A3002 RMK BKN110 DUST OVER APCH09=
200610101400 METAR MRPV 101400Z 30003KT CAVOK 23/19 A3004 RMK BKN110 DUST OVER APCH 09=
200610101500 METAR MRPV 101500Z 28008KT 9999 FEW020 BKN110 23/20 A3006=
200610101600 METAR MRPV 101600Z 28008KT 9999 FEW020 SCT120 24/20 A3006 RMK TCU RN DST SE HZY=
200610101700 METAR MRPV 101700Z 27008KT 9999 VCSH FEW020TCU FEW030 SCT250 25/21 A3003 VIS E 8KMS=
200610101800 METAR MRPV 101800Z VRB03KT 9999 VCSH FEW015TCU BKN030 26/20 A3000 RMK VIS NE 8KMS=
200610101900 METAR MRPV 101900Z 12006KT 9999 FEW012TCU SCT030 SCT250 26/20 A2996 RERA RMK RN DST E=
200610102000 METAR MRPV 102000Z 26007KT 9999 VCSH FEW015TCU FEW025 BKN250 23/20 A2995 TS DIST SW VIS W 7KMS=
200610102100 METAR MRPV 102100Z 29005KT 9999 VCFG FEW007 FEW015TCU SCT030 23/20 A2999 RMK VIS W 7000 MTS=
200610102200 METAR MRPV 102200Z 27004KT 4000 BR VCSH FEW002 BKN010 22/21 A2995=
200610102300 METAR MRPV 102300Z 08005KT 2500 TS RA SCT002 FEW010CB BKN012 20/20 A2998=
200610110000 METAR MRPV NIL=
200610110100 METAR MRPV NIL=
200610110200 METAR MRPV NIL=
200610110300 METAR MRPV NIL=
200610110400 METAR MRPV NIL=
200610110500 METAR MRPV NIL=
200610110600 METAR MRPV NIL=
200610110700 METAR MRPV NIL=
200610110800 METAR MRPV NIL=
200610110900 METAR MRPV NIL=
200610111000 METAR MRPV NIL=
200610111100 METAR MRPV NIL=
200610111200 METAR MRPV 111200Z 14004KT CAVOK 20/16 A2997=
200610111300 METAR MRPV 111300Z 15003KT CAVOK 22/17 A3000=
200610111400 METAR MRPV 111400Z 00000KT CAVOK 22/18 A3000 RMK CB SW W=
200610111500 METAR MRPV 111500Z 36004KT 9999 FEW030 BKN120 23/18 A3006 RMK CB SW W=
200610111600 METAR MRPV 111600Z NIL=
200610111700 METAR MRPV 111700Z 30006KT 9999 SCT030 BKN120 26/19 A3002=
200610111800 METAR MRPV 111800Z 26004KT 9999 FEW020TCU SCT035 BKN100 26/19 A3000=
200610111900 METAR MRPV 111900Z 30004KT 9999 SCT025 BKN100 27/20 A2998=
200610112000 METAR MRPV 112000Z 26006KT 9999 FEW020 SCT030 BKN100 26/21 A2996=
200610112100 METAR MRPV 112100Z 28008KT 9999 SCT020TCU BKN100 25/21 A2995 RN N NE E=
200610112200 METAR MRPV 112200Z 31009KT 9999 SCT020 BKN080 23/20 A2994 RN NE DST=
200610112300 METAR MRPV 112300Z 34007KT 3000 +RA BR FEW006 SCT015 BKN100 21/20 A2999 VIS SW 7000=
200610120000 METAR MRPV NIL=
200610120100 METAR MRPV NIL=
200610120200 METAR MRPV NIL=
200610120300 METAR MRPV NIL=
200610120400 METAR MRPV NIL=
200610120500 METAR MRPV NIL=
200610120600 METAR MRPV NIL=
200610120700 METAR MRPV NIL=
200610120800 METAR MRPV NIL=
200610120900 METAR MRPV NIL=
200610121000 METAR MRPV NIL=
200610121100 METAR MRPV NIL=
200610121200 METAR MRPV NIL=
200610121300 METAR MRPV 121300Z 11004KT CAVOK 20/18 A3002 RMK FU ARND BKN250=
200610121400 METAR MRPV 121400Z 14003KT CAVOK 24/18 A3004 BKN250=
200610121500 METAR MRPV 121500Z 10005KT CAVOK 26/19 A3005 BKN250 DU/W=
200610121600 METAR MRPV NIL=
200610121700 METAR MRPV NIL=
200610121800 METAR MRPV 121800Z 29009KT 9999 SCT030 BKN250 27/21 A2999=
200610121900 METAR MRPV 121900Z 28010KT 9999 SCT020TCU SCT035 BKN250 26/21 A2997=
200610122000 METAR MRPV 122000Z 28010KT 9999 SCT020TCU SCT035 26/22 A2995=
200610122100 METAR MRPV 122100Z 28009KT 9999 FEW020TCU SCT030 25/22 A2993=
200610122200 METAR MRPV NIL=
200610122300 METAR MRPV 122300Z 29008KT 5000 SCT006 BKN020 22/21 A2995 VSBY W 3KM=
200610130000 METAR MRPV 130000Z NIL=
200610130100 METAR MRPV NIL=
200610130200 METAR MRPV NIL=
200610130300 METAR MRPV NIL=
200610130400 METAR MRPV NIL=
200610130500 METAR MRPV NIL=
200610130600 METAR MRPV NIL=
200610130700 METAR MRPV NIL=
200610130800 METAR MRPV NIL=
200610130900 METAR MRPV NIL=
200610131000 METAR MRPV NIL=
200610131100 METAR MRPV NIL=
200610131200 METAR MRPV 131200Z 14005KT 9999 FEW030 SCT250 21/18 A2998=
200610131300 METAR MRPV 131300Z 13006KT 9999 FEW030 23/18 A3001=
200610131400 METAR MRPV 131400Z 11008KT 9999 FEW030 25/19 A3003=
200610131500 METAR MRPV 131500Z 08010KT 9999 SCT030 26/19 A3003=
200610131600 METAR MRPV NIL=
200610131700 METAR MRPV 131700Z 07010KT 9999 SCT025 BKN120 28/19 A3001=
200610131800 METAR MRPV 131800Z 08013KT 9999 SCT025 BKN100 28/18 A2999=
200610131900 METAR MRPV 131900Z 10011KT 9999 BKN035 28/18 A2997=
200610132000 METAR MRPV 132000Z 07010KT 9999 FEW020 SCT035 28/17 A2995=
200610132100 METAR MRPV 132100Z 06008KT 9999 FEW020 SCT030 28/18 A2993=
200610132200 METAR MRPV 132200Z 12006KT 9999 SCT030 28/18 A2992=
200610132300 METAR MRPV 132300Z 28007KT 9999 SCT025 25/22 A2994=
200610140000 METAR MRPV NIL=
200610140100 METAR MRPV NIL=
200610140200 METAR MRPV NIL=
200610140300 METAR MRPV NIL=
200610140400 METAR MRPV NIL=
200610140500 METAR MRPV NIL=
200610140600 METAR MRPV NIL=
200610140700 METAR MRPV NIL=
200610140800 METAR MRPV NIL=
200610140900 METAR MRPV NIL=
200610141000 METAR MRPV NIL=
200610141100 METAR MRPV NIL=
200610141200 METAR MRPV 141200Z 14008KT CAVOK 20/16 A2998=
200610141300 METAR MRPV 141300Z 10008KT CAVOK 22/17 A3001=
200610141400 METAR MRPV 141400Z 09008KT CAVOK 24/18 A3003=
200610141500 METAR MRPV 141500Z 10012KT CAVOK 25/18 A3005=
200610141600 METAR MRPV 141600Z 07010KT CAVOK 26/18 A3004=
200610141700 METAR MRPV 141700Z 07012KT 9999 FEW040 BKN250 27/18 A3001=
200610141800 METAR MRPV 141800Z 07010KT 9999 FEW040 BKN250 26/18 A2998=
200610141900 METAR MRPV 141900Z 07010KT 9999 FEW040 BKN250 28/18 A2995=
200610142000 METAR MRPV 142000Z 07006KT 9999 FEW020 SCT035 BKN250 27/19 A2992=
200610142100 METAR MRPV 142100Z 32006KT 9999 FEW015 SCT030 BKN250 24/21 A2991=
200610142200 METAR MRPV 142200Z 29006KT 9999 VCFG FEW005 SCT020 BKN250 23/21 A2992 RMK SW W 6KMS=
200610142300 METAR MRPV 142300Z 28005KT 7000 3000SW VCFG FEW003 SCT012 BKN250 22/21 A2994=
200610150000 METAR MRPV NIL=
200610150100 METAR MRPV NIL=
200610150200 METAR MRPV NIL=
200610150300 METAR MRPV NIL=
200610150400 METAR MRPV NIL=
200610150500 METAR MRPV NIL=
200610150600 METAR MRPV NIL=
200610150700 METAR MRPV NIL=
200610150800 METAR MRPV NIL=
200610150900 METAR MRPV NIL=
200610151000 METAR MRPV NIL=
200610151100 METAR MRPV NIL=
200610151200 METAR MRPV 151200Z 10009KT 9999 FEW30 SCT100 22/17 A2999=
200610151300 METAR MRPV 151300Z 11008KT 9999 FEW030 SCT100 BKN280 23/18 A3001=
200610151400 METAR MRPV 151400Z 07010KT 9999 FEW035 BKN280 25/18 A3002=
200610151500 METAR MRPV 151500Z 06010KT 9999 FEW040 BKN250 26/18 A3003=
200610151600 METAR MRPV 151600Z 08013KT 9999 FEW040 SCT280 27/18 A3003=
200610151700 METAR MRPV 151700Z 06014KT 9999 FEW040 SCT280 27/18 A3000=
200610151800 METAR MRPV 151800Z 07006KT 9999 SCT040 SCT280 27/18 A2995=
200610151900 METAR MRPV 151900Z 09009KT 9999 FEW010 BKN030 27/19 A2993=
200610152000 METAR MRPV 152000Z 08016KT 9999 VCSH FEW015TCU BKN030 26/19 A2990 RMK VIS NW NE 7KMS=
200610152100 METAR MRPV 152100Z 32006KT 9999 VCSH FEW015 SCT030 25/20 A2990 RMK VIS SW NW 6000 MTS=
200610152200 METAR MRPV 152200Z 28006KT 9999 VCSH FEW010 SCT030 23/20 A2990 RMK VIS W 6000MTS=
200610152300 METAR MRPV 152300Z 32006KT 8000 VCFG FEW005 BKN013 22/20 A2994 RMK VIS W UNL=
200610160000 METAR MRPV NIL=
200610160100 METAR MRPV NIL=
200610160200 METAR MRPV NIL=
200610160300 METAR MRPV NIL=
200610160400 METAR MRPV NIL=
200610160500 METAR MRPV NIL=
200610160600 METAR MRPV NIL=
200610160700 METAR MRPV NIL=
200610160800 METAR MRPV NIL=
200610160900 METAR MRPV NIL=
200610161000 METAR MRPV NIL=
200610161100 METAR MRPV NIL=
200610161200 METAR MRPV 161200Z 00000KT 9999 VCFG FEW005 SCT025 19/18 A3005 RMK=
200610161300 METAR MRPV 161300Z 29002KT 9999 VCFG FEW004 SCT015 21/19 A3008 RMK VIS W 6000 MTS=
200610161400 METAR MRPV 161400Z 34003KT 9999 FEW006 SCT015 23/19 A3008=
200610161500 METAR MRPV 161500Z 27003KT 9999 SCT020 23/20 A3009=
200610161600 METAR MRPV 161600Z 28008KT 9999 FEW010 BKN030 23/19 A3009=
200610161700 METAR MRPV 161700Z 34004KT 9999 FEW030 26/20 A3005=
200610161800 METAR MRPV 161800Z 28010KT 9999 BN030 25/20 A3003=
200610161900 METAR MRPV 161900Z 28010KT 9999 BKN030 25/20 A3000=
200610162000 METAR MRPV 162000Z 28013KT 9999 FEW015 SCT030 25/21 A2998 RMK DZ S=
200610162100 METAR MRPV 162100Z 29012KT 8000 VCFG FEW008 BKN015 23/20 A2996=
200610162200 METAR MRPV 162200Z 28011KT 7000 VCFG FEW002 BKN015 22/20 A2998 RN DST NW=
200610162300 METAR MRPV 162300Z 30006KT 5000 BR FEW002 BKN010 21/20 A2999 VIS 9999 S=
200610170000 METAR MRPV NIL=
200610170100 METAR MRPV NIL=
200610170200 METAR MRPV NIL=
200610170300 METAR MRPV NIL=
200610170400 METAR MRPV NIL=
200610170500 METAR MRPV NIL=
200610170600 METAR MRPV NIL=
200610170700 METAR MRPV NIL=
200610170800 METAR MRPV NIL=
200610170900 METAR MRPV NIL=
200610171000 METAR MRPV NIL=
200610171100 METAR MRPV NIL=
200610171200 METAR MRPV 171200Z 00000KT CAVOK 20/19 A3004 BKN120 RMK DUST W=
200610171300 METAR MRPV 171300Z 14003KT CAVOK 22/18 A3004 SCT120 BKN250 DU/W=
200610171400 METAR MRPV 171400Z 00000KT 9999 FEW025 BKN120 25/18 A3004 DU/W=
200610171500 METAR MRPV 171500Z 23003KT 9999 SCT025 BKN120 25/19 A3005=
200610171600 METAR MRPV 171600Z 28007KT 9999 SCT025 BKN120 25/19 A3006=
200610171700 METAR MRPV 171700Z 31006KT 9999 BKN030 26/19 A3004 TCU ARND=
200610171800 METAR MRPV 171800Z 29011KT 9999 SCT020 BKN035 25/20 A3000 RN DST E=
200610171900 METAR MRPV 171900Z 27006KT 9999 SCT020 BKN035 26/21 A2998=
200610172000 METAR MRPV 172000Z 26006KT 9999 SCT020TCU BKN080 24/21 A2996 RN NE E RASH NW=
200610172100 METAR MRPV NIL=
200610172200 METAR MRPV 172200Z 30007KT 4000 -RA BR BKN005 OVC020 21/20 A2996=
200610172300 METAR MRPV 172300Z 30006KT 4000 BR BKN004 OVC020 21/20 A2997=
200610180000 METAR MRPV NIL=
200610180100 METAR MRPV NIL=
200610180200 METAR MRPV NIL=
200610180300 METAR MRPV NIL=
200610180400 METAR MRPV NIL=
200610180500 METAR MRPV NIL=
200610180600 METAR MRPV NIL=
200610180700 METAR MRPV NIL=
200610180800 METAR MRPV NIL=
200610180900 METAR MRPV NIL=
200610181000 METAR MRPV NIL=
200610181100 METAR MRPV NIL=
200610181200 METAR MRPV 181200Z 29004KT 1000 FG OVC001 19/19 A3001=
200610181300 METAR MRPV 181300Z 35002KT 2000 BR OVC004 20/19 A3002 VSBY NW 7KM=
200610181400 METAR MRPV 181400Z 31003KT 5000 BR SCT006 BKN015 21/20 A3003 VSBY S SW 3KM=
200610181500 METAR MRPV 181500Z 27002KT 6000 -RA BR SCT004 BKN015 21/20 A3004 VSBY S SW 3KM DUE LW ST=
200610181600 METAR MRPV NIL=
200610181700 METAR MRPV 181700Z 29006KT 8000 3000E BR FEW003 SCT010 BKN020 22/20 A3003 RERA=
200610181800 METAR MRPV 181800Z 28010KT 9999 SCT010 BKN020 24/21 A2999 RASH E SE=
200610181900 METAR MRPV 181900Z 30010KT 3000 -RA BR BKN005 OVC025 21/20 A2997=
200610182000 METAR MRPV NIL=
200610182100 METAR MRPV 182100Z 30013KT 7000 3000W VCFG SCT006 BKN020 22/20 A2993=
200610182200 METAR MRPV 182200Z 30010KT 6000 VCFG SCT005 BKN010 21/20 A2993 RMK 3000 W NW=
200610182300 METAR MRPV 182300Z 32011KT 5000 BR SCT003 BKN010 20/19 A2994=
200610190000 METAR MRPV NIL=
200610190100 METAR MRPV NIL=
200610190200 METAR MRPV NIL=
200610190300 METAR MRPV NIL=
200610190400 METAR MRPV NIL=
200610190500 METAR MRPV NIL=
200610190600 METAR MRPV NIL=
200610190700 METAR MRPV NIL=
200610190800 METAR MRPV NIL=
200610190900 METAR MRPV NIL=
200610191000 METAR MRPV NIL=
200610191100 METAR MRPV NIL=
200610191200 METAR MRPV 191200Z 00000KT 8000 3000S VCFG SCT010 OVC120 20/18 A2997=
200610191300 METAR MRPV 191300Z 00000KT 9999 FEW020 SCT030 BKN100 21/18 A2999 RMK POLVO PISTA 09=
200610191400 METAR MRPV 191400Z 10003KT 9999 SCT030 BKN100 22/19 A3000=
200610191500 METAR MRPV 191500Z 21002KT 9999 SCT025 BKN250 24/18 A3001 RMK POLVO W=
200610191600 METAR MRPV 191600Z 25004KT 9999 SCT025 BKN250 25/19 A3001=
200610191700 METAR MRPV 191700Z 29010KT 9999 SCT020 BKN250 25/20 A2999=
200610191800 METAR MRPV 191800Z 28010KT 9999 FEW020 BKN035 25/20 A2996=
200610191900 METAR MRPV 191900Z 26007KT 9999 SCT020 BKN035 25/20 A2993 RMK CB SHRA DST SE S SW=
200610192000 METAR MRPV 192000Z 29008KT 9999 SCT015 BKN025 23/20 A2992 RMK VIS 5000 SHRA S SW=
200610192100 METAR MRPV 192100Z 32008KT 8000 4000S VCFG SCT010 BKN025 22/20 A2991=
200610192200 METAR MRPV 192200Z 32006KT 9999 SCT005 BKN020 21/19 A2992 RMK ST S SW 5000=
200610192300 METAR MRPV 192300Z 31004KT 9999 SCT005 BKN020 21/19 A2992 RMK ST S SW 5000=
200610200000 METAR MRPV 200000Z 29003KT 9999 FEW010 OVC100 21/19 A2993=
200610200100 METAR MRPV NIL=
200610200200 METAR MRPV NIL=
200610200300 METAR MRPV NIL=
200610200400 METAR MRPV NIL=
200610200500 METAR MRPV NIL=
200610200600 METAR MRPV NIL=
200610200700 METAR MRPV NIL=
200610200800 METAR MRPV NIL=
200610200900 METAR MRPV NIL=
200610201000 METAR MRPV NIL=
200610201100 METAR MRPV NIL=
200610201200 METAR MRPV 201200Z 28004KT 9999 3000SW BR BKN010 19/18 A2998=
200610201300 METAR MRPV 201300Z 00000KT 9999 4000S BR FEW005 BKN015 21/19 A2999=
200610201400 METAR MRPV 201400Z 21003KT 9999 VCFG FEW008 BKN130 23/19 A3000 RMK 7000 SW=
200610201500 METAR MRPV 201500Z 23003KT 9999 FEW008 SCT020 BKN130 23/19 A3001=
200610201600 METAR MRPV 201600Z 28008KT 8000 VCFG FEW005 SCT015 BKN130 23/19 A3001=
200610201700 METAR MRPV 201700Z 28010KT 9999 FEW005 BKN020 22/19 A2999=
200610201800 METAR MRPV NIL=
200610201900 METAR MRPV NIL=
200610202000 METAR MRPV 202000Z 32005KT 4000 -RA BR SCT002 BKN013 20/19 A2992=
200610202100 METAR MRPV 202100Z 30005KT 7000 -DZ VCFG SCT002 BKN012 21/20 A2991=
200610202200 METAR MRPV 202200Z 30007KT 3000 -DZ BR SCT001 BKN008 20/20 A2992=
200610202300 METAR MRPV 202300Z 29008KT 2000 BR SCT001 SCT008 20/19 A2994 REDZ=
200610210000 METAR MRPV NIL=
200610210100 METAR MRPV NIL=
200610210200 METAR MRPV NIL=
200610210300 METAR MRPV NIL=
200610210400 METAR MRPV NIL=
200610210500 METAR MRPV NIL=
200610210600 METAR MRPV NIL=
200610210700 METAR MRPV NIL=
200610210800 METAR MRPV NIL=
200610210900 METAR MRPV NIL=
200610211000 METAR MRPV NIL=
200610211100 METAR MRPV NIL=
200610211200 METAR MRPV 211200Z 16003KT 9999 FEW010 BKN100 19/18 A2996=
200610211300 METAR MRPV 211300Z 30007KT 5000 BR FEW001 BKN010 20/19 A3001 RMK VIS W UNL=
200610211400 METAR MRPV 211400Z 30005KT 5000 BR SCT002 BKN010 20/19 A3005 REDZ=
200610211500 METAR MRPV 211500Z 30005KT 6000 VCFG FEW001 BKN015 21/19 A3007 RMK CONDICIONES VARIABLES=
200610211600 METAR MRPV 211600Z 17006KT 6000 VCFG FEW001 BKN012 21/19 A3008 RMK VIS N 4000MTS=
200610211700 METAR MRPV 211700Z 30004KT 4000 -RA BR SCT002 BKN012 20/19 A3006=
200610211800 METAR MRPV 211800Z 28005KT 4000 -RA BR SCT002 BKN010 20/19 A3004 RMK VIS E SE 6000MTS=
200610211900 METAR MRPV 211900Z 24004KT 4000 -RA BR SCT003 BKN010 20/19 A3001=
200610212000 METAR MRPV 212000Z 17002KT 8000 3500 SW -DZ VCFG FEW005 SCT020 BKN120 21/19 A2997 RMK VIS NW N UNL=
200610212100 METAR MRPV 212100Z 19003KT 9999 FEW020 BKN120 22/19 A2995 REDZ=
200610212200 METAR MRPV 212200Z 28012KT 9999 VCFG FEW005 SCT015 BKN120 21/20 A2997 VIS SW 6000=
200610212300 METAR MRPV 212300Z 26005KT 5000 -RA BR FEW002 SCT010 BKN120 20/19 A2998=
200610220000 METAR MRPV NIL=
200610220100 METAR MRPV NIL=
200610220200 METAR MRPV NIL=
200610220300 METAR MRPV NIL=
200610220400 METAR MRPV NIL=
200610220500 METAR MRPV NIL=
200610220600 METAR MRPV NIL=
200610220700 METAR MRPV NIL=
200610220800 METAR MRPV NIL=
200610220900 METAR MRPV NIL=
200610221000 METAR MRPV NIL=
200610221100 METAR MRPV NIL=
200610221200 METAR MRPV 221200Z 34002KT 0800 FG VV001 19/19 A3004=
200610221300 METAR MRPV 221300Z 00000KT 4000 BR SCT002 BKN010 20/19 A3005=
200610221400 METAR MRPV 221400Z 30002KT 7000 VCFG SCT005 BKN018 22/19 A3008=
200610221500 METAR MRPV 221500Z 00000KT 9000 FEW008 BKN020 24/19 A3009=
200610221600 METAR MRPV 221600Z 27006KT 9999 FEW010 SCT030 24/20 A3009 HZ=
200610221700 METAR MRPV 221700Z 27008KT 9999 FEW030 SCT250 25/19 A3006 TCU DST NE HZ=
200610221800 METAR MRPV 221800Z 25006KT 9999 FEW015TCU SCT030 25/20 A3004 RN DST E SE=
200610221900 METAR MRPV 221900Z 22006KT 9999 4000NW RA SCT015TCU BKN030 22/20 A3001=
200610222000 METAR MRPV 222000Z 26003KT 9999 -RA VCSH FEW010TCU SCT030 BKN120 24/21 A2998 VIS W N 8000=
200610222100 METAR MRPV 222100Z 31003KT 6000 -DZ FGSCT002 BKN012 21/20 A2998 VSBY SW 3KM=
200610222200 METAR MRPV 222200Z 31004KT 4000 -RA BR SCT002 BKN010 21/21 A2998 VSBY NE 7KM=
200610222300 METAR MRPV 222300Z 28006KT 4000 BR SCT002 BKN008 21/20 A2999 RERA=
200610230000 METAR MRPV 230000Z NIL=
200610230100 METAR MRPV NIL=
200610230200 METAR MRPV NIL=
200610230300 METAR MRPV NIL=
200610230400 METAR MRPV NIL=
200610230500 METAR MRPV NIL=
200610230600 METAR MRPV NIL=
200610230700 METAR MRPV NIL=
200610230800 METAR MRPV NIL=
200610230900 METAR MRPV NIL=
200610231000 METAR MRPV NIL=
200610231100 METAR MRPV NIL=
200610231200 METAR MRPV 231200Z 14004KT FEW030 BKN250 20/18 A3005=
200610231300 METAR MRPV 231300Z 14007KT 9999 FEW030 BKN250 21/18 A3008=
200610231400 METAR MRPV 231400Z 12007KT 9999 FEW030 SCT130 BKN250 24/18 A3010=
200610231500 METAR MRPV 231500Z 10003KT CAVOK 25/18 A3010=
200610231600 METAR MRPV 231600Z 28008KT 9999 FEW025 SCT130 BKN250 25/21 A3007=
200610231700 METAR MRPV 231700Z 30007KT 9999 SCT030 BKN130 26/21 A3006=
200610231800 METAR MRPV 231800Z 28012KT 9999 SCT025 BKN120 26/21 A3003=
200610231900 METAR MRPV 231900Z 28008KT 9999 TS VCSH SCT010CB BKN080 25/20 A3003 RASH NE E SE VSBY 5KM=
200610232000 METAR MRPV 232000Z 32008KT 9999 -TSRA SCT010CB BKN035 22/21 A3001 VSBY NW N 5KM=
200610232100 METAR MRPV 232100Z 33003KT 9999 SCT010 BKN030 23/22 A2999 RETS=
200610232200 METAR MRPV 232200Z 26002KT 9999 FEW012 SCT020 BKN100 24/21 A3000=
200610232300 METAR MRPV 232300Z 27004KT 5000 BR SCT006 BKN020 22/21 A3002=
200610240000 METAR MRPV 240000Z NIL=
200610240100 METAR MRPV NIL=
200610240200 METAR MRPV NIL=
200610240300 METAR MRPV NIL=
200610240400 METAR MRPV NIL=
200610240500 METAR MRPV NIL=
200610240600 METAR MRPV NIL=
200610240700 METAR MRPV NIL=
200610240800 METAR MRPV NIL=
200610240900 METAR MRPV NIL=
200610241000 METAR MRPV NIL=
200610241100 METAR MRPV NIL=
200610241200 METAR MRPV 241200Z 14004KT CAVOK 21/16 A3005 RMK BKN250=
200610241300 METAR MRPV 241300Z 10008KT CAVOK 22/16 A3006=
200610241400 METAR MRPV 241400Z 10006KT CAVOK 24/16 A3006=
200610241500 METAR MRPV 241500Z 09014KT CAVOK 25/16 A3006=
200610241600 METAR MRPV 241600Z 08012KT 9999 FEW030 BKN250 27/17 A3005=
200610241700 METAR MRPV 241700Z 07010KT 9999 SCT030 BKN250 28/17 A3003=
200610241800 METAR MRPV 241800Z 07010KT 9999 SCT035 BKN250 28/18 A3001=
200610241900 METAR MRPV 241900Z 07011KT 9999 SCT030 BKN250 27/18 A2999=
200610242000 METAR MRPV 242000Z 09014KT 9999 SCT025 BKN120 26/18 A2997=
200610242100 METAR MRPV 242100Z 08010KT 9999 SCT025 SCT120 25/18 A2996=
200610242200 METAR MRPV 242200Z 10008KT 9999 SCT025 BKN120 24/18 A2998 RMK CB DST SW=
200610242300 METAR MRPV 242300Z 12006KT 9999 SCT025 BKN250 24/18 A2998=
200610250000 METAR MRPV NIL=
200610250100 METAR MRPV NIL=
200610250200 METAR MRPV NIL=
200610250300 METAR MRPV NIL=
200610250400 METAR MRPV NIL=
200610250500 METAR MRPV NIL=
200610250600 METAR MRPV NIL=
200610250700 METAR MRPV NIL=
200610250800 METAR MRPV NIL=
200610250900 METAR MRPV NIL=
200610251000 METAR MRPV NIL=
200610251100 METAR MRPV NIL=
200610251200 METAR MRPV 251200Z 14006KT CAVOK 21/16 A3005 BKN250 CB SW=
200610251300 METAR MRPV 251300Z 12006KT CAVOK 22/17 A3007=
200610251400 METAR MRPV 251400Z 08015KT CAVOK 24/16 A3008 RMK CB DST SW=
200610251500 METAR MRPV 251500Z 09013KT CAVOK 24/17 A3009=
200610251600 METAR MRPV 251600Z 10009KT 9999 FEW030 SCT120 BKN250 27/18 A3007 NOSIG=
200610251700 METAR MRPV 251700Z 07009KT 9999 SCT030 BKN120 26/18 A3005=
200610251800 METAR MRPV 251800Z 05005KT 9999 SCT030 BKN120 28/17 A3002=
200610251900 METAR MRPV 251900Z 07011KT 9999 FEW020TCU SCT035 BKN120 27/18 A3000=
200610252000 METAR MRPV 252000Z 08012KT 9999 FEW020 SCT120 BKN250 26/18 A3000=
200610252100 METAR MRPV 252100Z 27010KT 9999 SCT020 BKN080 24/21 A2997=
200610252200 METAR MRPV 252200Z 34007KT 2000 TS RA SCT006CB BKN012 OVC080 21/21 A2998 RMK E SE S UNL=
200610252300 METAR MRPV NIL=
200610260000 METAR MRPV NIL=
200610260100 METAR MRPV NIL=
200610260200 METAR MRPV NIL=
200610260300 METAR MRPV NIL=
200610260400 METAR MRPV NIL=
200610260500 METAR MRPV NIL=
200610260600 METAR MRPV NIL=
200610260700 METAR MRPV NIL=
200610260800 METAR MRPV NIL=
200610260900 METAR MRPV NIL=
200610261000 METAR MRPV NIL=
200610261100 METAR MRPV NIL=
200610261200 METAR MRPV 261200Z 13010KT CAVOK 21/18 A3001 RMK CB DST NE E S=
200610261300 METAR MRPV 261300Z 10012KT 9999 FEW030 SCT250 23/18 A3004 RMK DZ NE CB NE=
200610261400 METAR MRPV 261400Z 11008KT 9999 FEW030 SCT250 24/18 A3005 RMK CB NE=
200610261500 METAR MRPV 261500Z 08013KT 9999 BKN030 25/19 A3007=
200610261600 METAR MRPV NIL=
200610261700 METAR MRPV 261700Z 09013KT 9999 BKN030 24/19 A3005 RMK RN E SE=
200610261800 METAR MRPV 261800Z 07015KT 9999 FEW020 SCT035 26/18 A3003 RERA=
200610261900 METAR MRPV 261900Z 07012KT 9999 FEW035 SCT100 27/18 A2991 RMK CB NE=
200610262000 METAR MRPV 262000Z 08008KT 9999 FEW035 SCT100 27/17 A2997=
200610262100 METAR MRPV 262100Z 07008KT 9999 FEW015 SCT250 25/17 A2997=
200610262200 METAR MRPV 262200Z 05012KT 9999 FEW008 SCT035 BKN120 25/18 A2997=
200610262300 METAR MRPV 262300Z 07012KT 9999 FEW030 SCT100 BKN250 24/17 A2998 BR DST W=
200610270000 METAR MRPV NIL=
200610270100 METAR MRPV NIL=
200610270200 METAR MRPV NIL=
200610270300 METAR MRPV NIL=
200610270400 METAR MRPV NIL=
200610270500 METAR MRPV NIL=
200610270600 METAR MRPV NIL=
200610270700 METAR MRPV NIL=
200610270800 METAR MRPV NIL=
200610270900 METAR MRPV NIL=
200610271000 METAR MRPV NIL=
200610271100 METAR MRPV NIL=
200610271200 METAR MRPV 271200Z 13006KT CAVOK 20/15 A3000=
200610271300 METAR MRPV 271300Z 12008KT CAVOK 22/15 A3001 BKN250=
200610271400 METAR MRPV 271400Z 10010KT CAVOK 25/15 A3002 SCT250=
200610271500 METAR MRPV 271500Z 08012KT CAVOK 27/15 A3003 SCT250 DU/W=
200610271600 METAR MRPV 271600Z 10010KT CAVOK 28/16 A3001 SCT250=
200610271700 METAR MRPV 271700Z 08008KT CAVOK 28/15 A2999 SCT250=
200610271800 METAR MRPV 271800Z 09010KT 9999 FEW045 SCT250 29/17 A2998=
200610271900 METAR MRPV 271900Z 29011KT 9999 SCT040 SCT250 26/21 A2996=
200610272000 METAR MRPV 272000Z 29011KT 9999 FEW015 SCT035 26/21 A2993=
200610272100 METAR MRPV 272100Z 27010KT 9999 FEW015TCU BKN030 26/21 A2992=
200610272200 METAR MRPV 272200Z 27008KT 9999 FEW015 SCT030 25/21 A2994=
200610272300 METAR MRPV 272300Z 29008KT 9999 VCFG FEW006 BKN030 23/20 A2996 VSBY N 7KM=
200610280000 METAR MRPV 280000Z NIL=
200610280100 METAR MRPV NIL=
200610280200 METAR MRPV NIL=
200610280300 METAR MRPV NIL=
200610280400 METAR MRPV NIL=
200610280600 METAR MRPV NIL=
200610280700 METAR MRPV NIL=
200610280800 METAR MRPV NIL=
200610280900 METAR MRPV NIL=
200610281000 METAR MRPV NIL=
200610281100 METAR MRPV NIL=
200610281200 METAR MRPV 281200Z 12007KT CAVOK 20/16 A2999 RMK CB SW=
200610281300 METAR MRPV 281300Z 12008KT CAVOK 22/17 A3001 RMK BKN300 CB DST SW=
200610281400 METAR MRPV 281400Z 10014KT CAVOK 25/18 A3002 CB SW DU PISTA 09=
200610281500 METAR MRPV 281500Z 09013KT CAVOK 26/18 A3002 SCT300=
200610281600 METAR MRPV 281600Z 06014KT 9999 FEW045 BKN280 27/17 A3003=
200610281700 METAR MRPV 281700Z 08012KT 9999 BKN030 26/18 A3001=
200610281800 METAR MRPV 291800Z 08010KT 9999 BKN035 27/18 A2998=
200610281900 METAR MRPV 281900Z 08010KT 9999 SCT035 SCT250 29/18 A2995=
200610282000 METAR MRPV 282000Z 09012KT 9999 FEW020TCU BKN035 28/18 A2992 RASH NE=
200610282100 METAR MRPV 282100Z 09010KT 9999 FEW020TCU BKN030 24/19 A2990 RERA=
200610282200 METAR MRPV 282200Z 08014KT 9999 FEW008 FEW015TCU SCT035 26/19 A2991 RMK RN DST SE NW=
200610282300 METAR MRPV 282300Z 10006KT 9999 BR FEW004 BKN025 23/19 A2994 RERA RMK VIS 5000 W NW=
200610290000 METAR MRPV 290000Z NIL=
200610290100 METAR MRPV NIL=
200610290200 METAR MRPV NIL=
200610290300 METAR MRPV NIL=
200610290400 METAR MRPV NIL=
200610290500 METAR MRPV NIL=
200610290600 METAR MRPV NIL=
200610290700 METAR MRPV NIL=
200610290800 METAR MRPV NIL=
200610290900 METAR MRPV NIL=
200610291000 METAR MRPV NIL=
200610291100 METAR MRPV NIL=
200610291200 METAR MRPV NIL=
200610291300 METAR MRPV 291300Z 15003KT CAVOK 22/18 A3003=
200610291400 METAR MRPV 291400Z 12005KT 9999 FEW030 BKN250 25/18 A3004=
200610291500 METAR MRPV 291500Z 10007KT 9999 SCT030 BKN250 26/18 A3005=
200610291600 METAR MRPV 291600Z 08008KT 9999 FEW020 SCT035 BKN250 26/17 A3005=
200610291700 METAR MRPV 291700Z 09007KT 9999 FEW020 SCT030 BKN120 27/18 A3001 RMK CB RN DST E=
200610291800 METAR MRPV 291800Z 09012KT 9999 SCT025 BKN100 26/19 A2998 RMK TCU CB DST ARND=
200610291900 METAR MRPV 291900Z 09012KT 9999 SCT030 BKN100 27/18 A2994 RMK RN DST N E CB SHRA DST NW=
200610292000 METAR MRPV 292000Z 10010KT 9999 -RA SCT020 BKN080 24/19 A2993 RMK SHRA E NW N=
200610292100 METAR MRPV 292100Z 13008KT 9999 SCT020 BKN100 22/19 A2993 RERA=
200610292200 METAR MRPV 292200Z 13004KT 9999 SCT020 BKN100 23/18 A2993=
200610292300 METAR MRPV 292300Z 10006KT 9999 SCT030 BKN120 22/18 A2994=
200610300000 METAR MRPV 300000Z NIL=
200610300100 METAR MRPV NIL=
200610300200 METAR MRPV NIL=
200610300300 METAR MRPV NIL=
200610300400 METAR MRPV NIL=
200610300500 METAR MRPV NIL=
200610300600 METAR MRPV NIL=
200610300700 METAR MRPV NIL=
200610300800 METAR MRPV NIL=
200610300900 METAR MRPV NIL=
200610301000 METAR MRPV NIL=
200610301100 METAR MRPV NIL=
200610301200 METAR MRPV 301200Z 10004KT 9999 FEW020 BKN250 21/18 A2995 DZ NW N NE=
200610301300 METAR MRPV 301300Z 12005KT 9999 SCT020 BKN130 22/18 A2998 RA DZ E=
200610301400 METAR MRPV 301400Z 12007KT 9999 SCT020 BKN100 22/18 A3001 RMK RN E=
200610301500 METAR MRPV 301500Z 08010KT 9999 FEW030 BKN120 24/18 A3002=
200610301600 METAR MRPV NIL=
200610301700 METAR MRPV NIL=
200610301800 METAR MRPV NIL=
200610301900 METAR MRPV 301900Z 25009KT 9999 SCT020 OVC100 24/19 A2995=
200610302000 METAR MRPV 302000Z 29010KT 9999 SCT020CB OVC100 24/19 A2994 RMK CB RASH NE E SE=
200610302100 METAR MRPV 302100Z 30007KT 9999 SSCT010CB BKN025 23/20 A2992 RMK CB RASH NE E SE S=
200610302200 METAR MRPV 302200Z 29005KT 7000 VCSH SCT010CB BKN025 22/20 A2995=
200610302300 METAR MRPV 302300Z 00000KT 9999 SCT015 OVC100 21/19 A2996 RMK 5000 MTS NW N DUE RN=
200610310000 METAR MRPV 310000Z 26005KT 9999 DZ FEW007 BKN035 25/23 A2974 RMK RN W N=
200610310100 METAR MRPV NIL=
200610310200 METAR MRPV NIL=
200610310300 METAR MRPV NIL=
200610310400 METAR MRPV NIL=
200610310500 METAR MRPV NIL=
200610310600 METAR MRPV NIL=
200610310700 METAR MRPV NIL=
200610310800 METAR MRPV NIL=
200610310900 METAR MRPV NIL=
200610311000 METAR MRPV NIL=
200610311100 METAR MRPV NIL=
200610311200 METAR MRPV NIL=
200610311300 METAR MRPV 311300Z 14002KT CAVOK 22/18 A2998=
200610311400 METAR MRPV 311400Z 24004KT CAVOK 25/19 A3000=
200610311500 METAR MRPV 311500Z 28008KT 9999 FEW035 BKN300 25/19 A3001=
200610311600 METAR MRPV 311600Z 28009KT 9999 SCT030 BKN300 25/19 A3001=
200610311700 METAR MRPV 311700Z 28011KT 9999 SCT030 BKN300 25/19 A2988=
200610311800 METAR MRPV 311800Z 27009KT 9999 FEW020 SCT030 BKN280 25/20 A2995=
200610311900 METAR MRPV 311900Z 24010KT 9999 FEW020 SCT030 BKN250 24/20 A2993=
200610312000 METAR MRPV 312000Z 29007KT 9999 FEW020 SCT030 BKN220 23/19 A23/19 A2991=
200610312100 METAR MRPV 312100Z 29008KT 9999 FEW020 SCT030 BKN220 22/20 A2992 RERA=
200610312200 METAR MRPV 312200Z 30005KT 9999 FEW015 SCT020 SCT030 22/19 A2991=
200610312300 METAR MRPV 312300Z 31004KT 9999 FEW015 SCT025 BKN250 22/19 A2993=
200611010000 METAR MRPV NIL=
200611010100 METAR MRPV NIL=
200611010200 METAR MRPV NIL=
200611010300 METAR MRPV NIL=
200611010400 METAR MRPV NIL=
200611010500 METAR MRPV NIL=
200611010600 METAR MRPV NIL=
200611010700 METAR MRPV NIL=
200611010800 METAR MRPV NIL=
200611010900 METAR MRPV NIL=
200611011000 METAR MRPV NIL=
200611011100 METAR MRPV NIL=
200611011200 METAR MRPV 011200Z 07002KT 8000 VCFG FEW007 BKN013 20/18 A2997 RMK POLVO 09=
200611011300 METAR MRPV 011300Z 07003KT 9999 FEW008 BKN018 21/18 A2999 DU/09=
200611011400 METAR MRPV 011400Z 05003KT 9999 FEW010 SCT090 22/18 A3000 DU/09=
200611011500 METAR MRPV 011500Z 32003KT 9999 FEW025 SCT090 25/19 A3001=
200611011600 METAR MRPV 011600Z 30005KT 9999 FEW030 BKN090 26/19 A3001 HZ=
200611011700 METAR MRPV 011700Z 26005KT 9000 FEW010 FEW020TCU BKN100 25/20 A2997 HZ=
200611011800 METAR MRPV 011800Z 24005KT 8000 -RA FEW007 FEW015TCU BKN100 25/20 A2994 HZY=
200611011900 METAR MRPV 011900Z 32005KT 9999 4000N VCSH FEW015CB BKN030 25/20 A2991 RERA TS DST S=
200611012000 METAR MRPV 012000Z 24006KT 9999 4000W -RA VCSH FEW010CB SCT030 BKN250 22/20 A2988=
200611012100 METAR MRPV 012100Z 30006KT 4000 BR SCT002 BKN010 21/20 A2989=
200611012200 METAR MRPV 012200Z 30006KT 4000 -RA BR FEW002 SCT015 BKN100 20/20 A2991 VSBY S UNL=
200611012300 METAR MRPV 012300Z 25003KT 240V360 5000 -RA BR FEW006 BKN020 21/20 A2993 TS SE=
200611020000 METAR MRPV 020000Z 07004KT 4000 -RA BR FEW005 SCT020 BKN100 20/20 A2995 TS E=
200611020100 METAR MRPV NIL=
200611020200 METAR MRPV NIL=
200611020300 METAR MRPV NIL=
200611020400 METAR MRPV NIL=
200611020500 METAR MRPV NIL=
200611020600 METAR MRPV NIL=
200611020700 METAR MRPV NIL=
200611020800 METAR MRPV NIL=
200611020900 METAR MRPV NIL=
200611021000 METAR MRPV NIL=
200611021100 METAR MRPV NIL=
200611021200 METAR MRPV 021200Z 00000KT CAVOK 18/17 A2996 RM CB SW DU APROXIMACION 09=
200611021300 METAR MRPV 021300Z 12003KT CAVOK 22/18 A2999=
200611021400 METAR MRPV 021400Z 11006KT CAVOK 24/18 A3000 DU PISTA 09=
200611021500 METAR MRPV 021500Z 03002KT 9999 FEW030 SCT250 26/19 A3000 DU PISTA 09=
200611021600 METAR MRPV 021600Z 28009KT 9999 SCT035 26/19 A3000 DU PISTA 09=
200611021700 METAR MRPV 021700Z 27008KT 9999 BKN030 27/20 A2997 TCU SE=
200611021800 METAR MRPV 021800Z 28009KT 9999 -RA FEW015TCU BKN030 24/20 A2995=
200611021900 METAR MRPV 021900Z 28008KT 8000 -RA VCFG FEW005 FEW015TCU BKN025 22/21 A2991 VSBY W 4KM=
200611022000 METAR MRPV 022000Z 27007KT 8000 VCSH FEW007 FEW015TCU SCT030 23/21 A2989 RERA=
200611022100 METAR MRPV 022100Z 30007KT 9999 VCSH FEW008 FEW015TCU BKN030 23/20 A2988 RMK VIS W/NW 7KM=
200611022200 METAR MRPV 022200Z 30008KT 4000 RA BR SCT004 BKN010 20/19 RMK VIS 7000W=
200611022300 METAR MRPV 022300Z 29008KT 3000 RA BR SCT002 BKN010 20/19 A2993 RMK TS DST S=
200611030000 METAR MRPV NIL=
200611030100 METAR MRPV NIL=
200611030200 METAR MRPV NIL=
200611030300 METAR MRPV NIL=
200611030400 METAR MRPV NIL=
200611030500 METAR MRPV NIL=
200611030600 METAR MRPV NIL=
200611030700 METAR MRPV NIL=
200611030800 METAR MRPV NIL=
200611030900 METAR MRPV NIL=
200611031000 METAR MRPV NIL=
200611031100 METAR MRPV NIL=
200611031200 METAR MRPV 031200Z 11007KT 9999 FEW025 21/17 A2994=
200611031300 METAR MRPV 031300Z 14007KT 9999 FEW030 BKN090 21/17 A2997=
200611031400 METAR MRPV 031400Z 10010KT 9999 FEW030 BKN090 22/18 A2998 RMK POLVO PISTA 09=
200611031500 METAR MRPV 031500Z 09010KT 9999 FEW030 BKN090 24/18 A2999 RMK POLVO PISTA 09=
200611031600 METAR MRPV 031600Z 09005KT 9999 FEW035 BKN090 26/18 A2998 RMK POLVO PISTA 09=
200611031700 METAR MRPV 031700Z 07008KT 9999 FEW035 BKN100 26/18 A2996 RMK POLVO EN LA PROXIMIDAD DE LA PISTA 09=
200611031800 METAR MRPV 031800Z 06006KT 9999 FEW025 BKN035 28/18 A2993 RMK POLVO PISTA 09=
200611031900 METAR MRPV 031900Z 30005KT 9999 FEW015 BKN035 25/21 A2991 RMK CB DST S SW=
200611032000 METAR MRPV 032000Z 26006KT 9999 FEW020 SCT030 26/21 A2988 RMK TCU RN DST NW=
200611032100 METAR MRPV 032100Z 27007KT 9999 RA VCSH FEW015CB BKN025 23/20 A2987 RMK VSB E 5000 DUE RA=
200611032200 METAR MRPV 032200Z 11006KT 9999 4000NW -RA VCSG FEW015 SCT030 21/19 A2988=
200611032300 METAR MRPV 032300Z 10010KT 9999 FEW030 22/17 A2991 RERA RMK RASH DST W=
200611040000 METAR MRPV 040000Z NIL=
200611040100 METAR MRPV NIL=
200611040200 METAR MRPV NIL=
200611040300 METAR MRPV NIL=
200611040400 METAR MRPV NIL=
200611040500 METAR MRPV NIL=
200611040600 METAR MRPV NIL=
200611040700 METAR MRPV NIL=
200611040800 METAR MRPV NIL=
200611040900 METAR MRPV NIL=
200611041000 METAR MRPV NIL=
200611041100 METAR MRPV NIL=
200611041200 METAR MRPV 041200Z 13005KT CAVOK 20/16 A2993 BKN120=
200611041300 METAR MRPV 041300Z 13005KT CAVOK 22/16 A2975/RMK BKN250=
200611041400 METAR MRPV 041400Z 09009KT 9999 FEW030 SCT120 24/17 A2997=
200611041500 METAR MRPV 041500Z 07012KT 9999 FEW030 SCT120 25/17 A2997=
200611041600 METAR MRPV 041600Z 09010KT 9999 SCT030 26/18 A2996=
200611041700 METAR MRPV 041700Z 09010KT 9999 SCT030 27/18 A2997=
200611041800 METAR MRPV 041800Z 08007KT 9999 SCT030 28/18 A2991=
200611041900 METAR MRPV 041900Z 08011KT 9999 FEW025 SCT035 26/18 A2988=
200611042000 METAR MRPV 042000Z 09010KT 9999 FEW025 SCT035 27/18 A2986=
200611042100 METAR MRPV 042100Z 08010KT 9999 FEW025 BKN035 25/18 A2985=
200611042200 METAR MRPV 042200Z 04012KT 9999 BKN025 24/17 A2988=
200611042300 METAR MRPV 042300Z 07008KT 9999 FEW010 SCT020 BKN040 23/17 A2985=
200611050000 METAR MRPV NIL=
200611050100 METAR MRPV NIL=
200611050200 METAR MRPV NIL=
200611050300 METAR MRPV NIL=
200611050400 METAR MRPV NIL=
200611050500 METAR MRPV NIL=
200611050600 METAR MRPV NIL=
200611050700 METAR MRPV NIL=
200611050800 METAR MRPV NIL=
200611050900 METAR MRPV NIL=
200611051000 METAR MRPV NIL=
200611051100 METAR MRPV NIL=
200611051200 METAR MRPV NIL=
200611051300 METAR MRPV 051300Z 12009KT CAVOK 21/16 A2995=
200611051400 METAR MRPV 051400Z 08014KT CAVOK 23/17 A2996=
200611051500 METAR MRPV 051500Z 09014KT 9999 FEW030 SCT250 24/17 A2998=
200611051600 METAR MRPV 051600Z 08012KT 9999 FEW030 SCT130 26/17 A2997=
200611051700 METAR MRPV 051700Z 09010KT 9999 SCT030 27/17 A2993=
200611051800 METAR MRPV 051800Z 06010KT 9999 SCT030 28/17 A2991=
200611051900 METAR MRPV 051900Z 07009KT 9999 SCT030 28/17 A2989=
200611052000 METAR MRPV 052000Z 07009KT 9999 BKN035 27/17 A2996 RMK CB RN NW=
200611052100 METAR MRPV 052100Z 05007KT 9999 FEW020 SCT035 27/17 A2986=
200611052200 METAR MRPV 052200Z 36003KT 9999 SCT020 BKN035 24/21 A2986=
200611052300 METAR MRPV 052300Z 10007KT 9999 SCT020 BKN030 23/17 A2988=
200611060000 METAR MRPV NIL=
200611060100 METAR MRPV NIL=
200611060200 METAR MRPV NIL=
200611060300 METAR MRPV NIL=
200611060400 METAR MRPV NIL=
200611060500 METAR MRPV NIL=
200611060600 METAR MRPV NIL=
200611060700 METAR MRPV NIL=
200611060800 METAR MRPV NIL=
200611060900 METAR MRPV NIL=
200611061000 METAR MRPV NIL=
200611061100 METAR MRPV NIL=
200611061200 METAR MRPV 061200Z 14004KT 9999 SCT025 BKN100 20/18 A2993 RMK DZ N NE=
200611061300 METAR MRPV 061300Z 11007KT 9999 SCT020 SCT100 BKN250 22/18 A2995=
200611061400 METAR MRPV 061400Z 12008KT 9999 FEW020 SCT035 BKN250 23/18 A2997=
200611061500 METAR MRPV 061500Z 11006KT 9999 SCT025 BKN250 24/18 A2997=
200611061600 METAR MRPV 061600Z 12006KT 9999 SCT030 BKN250 25/19 A2996=
200611061700 METAR MRPV 061700Z 10010KT 9999 SCT025 BKN250 26/19 A2994 RN/NW DZ/NE=
200611061800 METAR MRPV 061800Z 08009KT 9999 SCT020TCU BKN080 25/19 A2992 RN W/E=
200611061900 METAR MRPV 061900Z 16004KT 9999 4000S -RA SCT015TCU SCT030 BKN100 22/20 A2990=
200611062000 METAR MRPV 062000Z 14006KT 9999 4000S VCSH FEW010 SCT020 OVC100 22/20 A2989 RERA=
200611062100 METAR MRPV 062100Z 14003KT 9999 FEW010 SCT025 OVC100 23/20 A2987 RMK RASH DIST E=
200611062200 METAR MRPV 062200Z 16006KT 9000 4000SW -RA FEW010 SCT020 OVC100 21/19 A2989=
200611062300 METAR MRPV 062300Z 13004KT 9999 SCT025 BKN250 22/19 A2989 VIS NW 6KMS DUE FG=
200611070000 METAR MRPV NIL=
200611070100 METAR MRPV NIL=
200611070200 METAR MRPV NIL=
200611070300 METAR MRPV NIL=
200611070400 METAR MRPV NIL=
200611070500 METAR MRPV NIL=
200611070600 METAR MRPV NIL=
200611070700 METAR MRPV NIL=
200611070800 METAR MRPV NIL=
200611070900 METAR MRPV NIL=
200611071000 METAR MRPV NIL=
200611071100 METAR MRPV NIL=
200611071200 METAR MRPV 071200Z 12010KT 9999 FEW025 BKN280 21/17 A2994=
200611071300 METAR MRPV 071300Z 12007KT CAVOK 22/18 A2996 RMK BKN280 CB DST SW=
200611071400 METAR MRPV 071400Z 11012KT 9999 SCT030 SCT280 23/18 A2998 RMK CB DST SW=
200611071500 METAR MRPV 071500Z 11008KT 9999 SCT030 SCT280 25/18 A2995=
200611071600 METAR MRPV 071600Z 09008KT 9999 BKN030 26/18 A2999 RMK DUST OVER APCH09=
200611071700 METAR MRPV 071700Z 06008KT 9999 FEW020 SCT035 28/18 A2996=
200611071800 METAR MRPV 071800Z 09012KT 9999 FEW020 SCT035 26/19 A2994 RMK RN DST NW N=
200611071900 METAR MRPV 071900Z 07008KT 9999 VCSH FEW015TCU BKN030 25/19 A2991 RMK VIS W 7KMS RN DST E=
200611072000 METAR MRPV 072000Z 27010KT 9999 4000W BR FEW005 FEW015TCU SCT030 23/21 A2991 RMK PCPN DST E=
200611072100 METAR MRPV 072100Z 32003KT 5000 -RA BR SCT002 BKN012 21/20 A2993=
200611072200 METAR MRPV 072200Z 24003KT 3000 RA BR SCT002 SCT010 20/19 A2993=
200611072300 METAR MRPV 072300Z 31004KT 5000 BR FEW002 BKN015 20/19 A2995 RMK VIS 3.5 SW W 9999E=
200611080000 METAR MRPV NIL=
200611080100 METAR MRPV NIL=
200611080200 METAR MRPV NIL=
200611080300 METAR MRPV NIL=
200611080400 METAR MRPV NIL=
200611080500 METAR MRPV NIL=
200611080600 METAR MRPV NIL=
200611080700 METAR MRPV NIL=
200611080800 METAR MRPV NIL=
200611080900 METAR MRPV NIL=
200611081000 METAR MRPV NIL=
200611081100 METAR MRPV NIL=
200611081200 METAR MRPV 081200Z 14005KT CAVOK 19/17 A2994 HZ/W=
200611081300 METAR MRPV 081300Z 14008KT CAVOK 21/17 A2996=
200611081400 METAR MRPV 081400Z 11007KT CAVOK 24/18 A2998=
200611081500 METAR MRPV 081500Z 12007KT CAVOK 26/17 A2998=
200611081600 METAR MRPV 081600Z 08012KT 9999 FEW035 26/16 A2998=
200611081700 METAR MRPV 081700Z 07015KT 9999 SCT030 27/18 A2996 RMK RN DST E=
200611081800 METAR MRPV 081800Z 10006KT 9999 -RA BKN030 23/20 A2993=
200611081900 METAR MRPV 081900Z 08015KT 9999 VCSH SCT030 27/19 A2989 RERA VIS 8000E=
200611082000 METAR MRPV 082000Z 08012KT 9999 -RA VCSH FEW015TCU BKN030 25/18 A2988 RMK VIS 7000NW=
200611082100 METAR MRPV 082100Z 07008KT 9999 VCSH FEW010 BKN030 25/19 A2988 RERA RMK VIS NW 7000=
200611082200 METAR MRPV 082200Z 29008KT 9999 4000W VCSH FEW002 FEW010CB BKN025 22/19 A2990=
200611082300 METAR MRPV 082300Z 07005KT 9999 VCFG FEW005 SCT025 BKLN250 21/19 A2992 RMK 7000 W=
200611090000 METAR MRPV NIL=
200611090100 METAR MRPV NIL=
200611090200 METAR MRPV NIL=
200611090300 METAR MRPV NIL=
200611090400 METAR MRPV NIL=
200611090500 METAR MRPV NIL=
200611090600 METAR MRPV NIL=
200611090700 METAR MRPV NIL=
200611090800 METAR MRPV NIL=
200611090900 METAR MRPV NIL=
200611091000 METAR MRPV NIL=
200611091100 METAR MRPV NIL=
200611091200 METAR MRPV 091200Z 09005KT CAVOK 17/15 A2998 RMK BKN270 DUST OVER APCH09=
200611091300 METAR MRPV 091300Z 11005KT CAVOK 21/16 A2999 RMK DU 09=
200611091400 METAR MRPV 091400Z 14006KT CAVOK 24/15 A3000=
200611091500 METAR MRPV 091500Z 10009KT 9999 FEW040 BKN270 25/15 A3002=
200611091600 METAR MRPV 091600Z 07012KT 9999 FEW040 BKN250 27/16 A3001=
200611091700 METAR MRPV 091700Z 14008KT 9999 FEW040 BKN250 27/17 A2988=
200611091800 METAR MRPV NIL=
200611091900 METAR MRPV 091900Z 24008KT 9999 FEW015TCU BKN250 25/20 A2993=
200611092000 METAR MRPV 092000Z 28012KT 9999 FEW013TCU BKN025 24/21 A2992 RMK RN DST NW=
200611092100 METAR MRPV 092100Z 24004KT 3000 -TS RA FEW003 FEW010CB BKN015 22/21 A2991=
200611092200 METAR MRPV 092200Z 28004KT 3500 -RA BR SCT002 BKN012 21/20 A2993=
200611092300 METAR MRPV 092300Z 34003KT 3500 -DZ BR FEW002 BKN010 21/20 A2995=
200611100000 METAR MRPV 100000Z 00000KT 9999 4000W -RA BR FEW004 BKN020 20/20 A2995=
200611100100 METAR MRPV NIL=
200611100200 METAR MRPV NIL=
200611100300 METAR MRPV NIL=
200611100400 METAR MRPV NIL=
200611100500 METAR MRPV NIL=
200611100700 METAR MRPV NIL=
200611100800 METAR MRPV NIL=
200611100900 METAR MRPV NIL=
200611101000 METAR MRPV NIL=
200611101100 METAR MRPV NIL=
200611101200 METAR MRPV 101200Z 10007KT 9999 FEW025 SCT250 20/17 A2998 RMK CB DST S SW W=
200611101300 METAR MRPV 101300Z 12006KT 9999 FEW030 22/17 A3000=
200611101400 METAR MRPV 101400Z 09011KT 9999 FEW030 SCT250 24/17 A3001=
200611101500 METAR MRPV 101500Z 08010KT 9999 FEW030 SCT270 25/17 A3003=
200611101600 METAR MRPV 101600Z 08009KT 9999 SCT030 25/17 A3002=
200611101700 METAR MRPV 101700Z 28006KT 9999 FEW020 BKN035 25/20 A3000=
200611101800 METAR MRPV 101800Z 29006KT 9999 SCT020 BKN030 25/20 A2998=
200611101900 METAR MRPV 101900Z 28009KT 9999 SCT020 BKKN035 26/20 A2995 RMK RN E TC ARND=
200611102000 METAR MRPV 102000Z 30007KT 9999 VCSH FEW010 SCT025 BKN100 24/20 A2994 RMK RASH W NW N NE VIS 7000MTS=
200611102100 METAR MRPV 102100Z 31006KT 6000 VCSH FEW010 SCT020TCU BKN100 23/21 A2994 VIS 9999 E SE S=
200611102200 METAR MRPV 102200Z 33005KT 1000 +RA BR SCT003 BKN012 20/20 A2996=
200611102300 METAR MRPV 102300Z 29004KT 3000 BR FEW003 SCT012 OVC100 20/19 A2998 VIS NW/N 8000=
200611110000 METAR MRPV NIL=
200611110100 METAR MRPV NIL=
200611110200 METAR MRPV NIL=
200611110300 METAR MRPV NIL=
200611110400 METAR MRPV NIL=
200611110500 METAR MRPV NIL=
200611110600 METAR MRPV NIL=
200611110700 METAR MRPV NIL=
200611110800 METAR MRPV NIL=
200611110900 METAR MRPV NIL=
200611111000 METAR MRPV NIL=
200611111100 METAR MRPV NIL=
200611111200 METAR MRPV 111200Z 10006KT 9999 FEW030 SCT250 20/17 A3001 RMK CB DST W=
200611111300 METAR MRPV 111300Z 13006KT 9999 FEW030 SCT250 22/17 A3002 CB/HZ QUAD W=
200611111400 METAR MRPV 111400Z 13006KT 9999 FEW025 SCT250 24/18 A3003=
200611111500 METAR MRPV 111500Z 09009KT 9999 SCT030 25/18 A3005=
200611111600 METAR MRPV 111600Z 09008KT 9999 SCT030 26/18 A3004=
200611111700 METAR MRPV 111700Z 09010KT 9999 FEW020 SCT035 26/19 A3001 TCU ARND=
200611111800 METAR MRPV 111800Z 09008KT 9999 SCT020 BKN035 26/19 A3000 RN DST NW N=
200611111900 METAR MRPV 111900Z 08014KT 9999 SCT020 BKN035 26/19 A2996 RN DST E=
200611112000 METAR MRPV 112000Z 11009KT 9999 FEW012 SCT030 BKN080 24/19 A2996 RN E/SE/N/NE VIS N 6000=
200611112100 METAR MRPV 112100Z 11009KT 9999 SCT015 BKN100 22/19 A2996=
200611112200 METAR MRPV 112200Z 10010KT 9999 SCT012 OVC100 22/19 A2997=
200611112300 METAR MRPV 112300Z 10008KT 9999 SCT010 BKN030 22/18 A2998=
200611120000 METAR MRPV NIL=
200611120100 METAR MRPV NIL=
200611120200 METAR MRPV NIL=
200611120300 METAR MRPV NIL=
200611120400 METAR MRPV NIL=
200611120500 METAR MRPV NIL=
200611120700 METAR MRPV NIL=
200611120800 METAR MRPV NIL=
200611120900 METAR MRPV NIL=
200611121000 METAR MRPV NIL=
200611121100 METAR MRPV NIL=
200611121200 METAR MRPV NIL=
200611121300 METAR MRPV 121300Z 14004KT CAVOK 20/15 A3003 BKN120 CB DST SW=
200611121400 METAR MRPV 121400Z 12007KT CAVOK 24/17 A3004 SCT120 BKN250=
200611121500 METAR MRPV 121500Z 11013KT 9999 FEW030 SCT120 BKN250 23/17 A3004=
200611121600 METAR MRPV 121600Z 10013KT 9999 SCT030 BKN250 25/18 A3003=
200611121700 METAR MRPV 121700Z 10014KT 9999 SCT025 BKN120 24/18 A3003=
200611121800 METAR MRPV 121800Z 11010KT 9999 SCT020 BKN100 24/18 A3000=
200611121900 METAR MRPV 121900Z 10010KT 9999 SCT025 BKN100 25/18 A2997=
200611122000 METAR MRPV 122000Z 11011KT 9999 SCT030 BKN120 25/18 A2995=
200611122100 METAR MRPV 122100Z 10012KT 9999 SCT025 BKN100 25/18 A2994=
200611122200 METAR MRPV 122200Z 11011KT 9999 FEW015TCU SCT025 BKN100 23/18 A2995 RMK CB RN DST S=
200611122300 METAR MRPV 122300Z 10012KT 9999 FEW012 SCT025 BKN100 22/17 A2998 RMK SHRA DST E SE S=
200611130000 METAR MRPV 130000Z 10007KT 9999 SCT020 OVC100 22/17 A2998=
200611130100 METAR MRPV NIL=
200611130200 METAR MRPV NIL=
200611130300 METAR MRPV NIL=
200611130400 METAR MRPV NIL=
200611130500 METAR MRPV NIL=
200611130600 METAR MRPV NIL=
200611130700 METAR MRPV NIL=
200611130800 METAR MRPV NIL=
200611130900 METAR MRPV NIL=
200611131000 METAR MRPV NIL=
200611131100 METAR MRPV NIL=
200611131200 METAR MRPV NIL=
200611131300 METAR MRPV NIL=
200611131400 METAR MRPV 131400Z 09010KT CAVOK 22/16 A3004=
200611131500 METAR MRPV 131500Z 09012KT CAVOK 23/16 A3005=
200611131600 METAR MRPV 131600Z 07008KT 9999 FEW040 SCT120 26/16 A3004=
200611131700 METAR MRPV 131700Z 05007KT 9999 FEW040 SCT120 26/16 A3002=
200611131800 METAR MRPV 131800Z 09007KT 9999 FEW035 SCT120 BKN250 26/17 A3000=
200611131900 METAR MRPV 131900Z 09005KT 9999 SCT035 BKN250 26/17 A2996=
200611132000 METAR MRPV 132000Z 11010KT 9999 FEW015 BKN030 25/17 A2994 RMK RN DST E=
200611132100 METAR MRPV 132100Z 12013KT 9999 VCFG FEW008 BKN025 23/17 A2995 RMK 7000 NW RN E=
200611132200 METAR MRPV NIL=
200611132300 METAR MRPV 132300Z 29005KT 5000 -RA BR FEW004 SCT012 BKN100 21/20 A2998 RMK UNL SE S=
200611140000 METAR MRPV NIL=
200611140100 METAR MRPV NIL=
200611140200 METAR MRPV NIL=
200611140300 METAR MRPV NIL=
200611140400 METAR MRPV NIL=
200611140500 METAR MRPV NIL=
200611140600 METAR MRPV NIL=
200611140700 METAR MRPV NIL=
200611140800 METAR MRPV NIL=
200611140900 METAR MRPV NIL=
200611141000 METAR MRPV NIL=
200611141100 METAR MRPV NIL=
200611141200 METAR MRPV 141200Z 12010KT CAVOK 19/16 A2998 SCT270=
200611141300 METAR MRPV 141300Z 12008KT CAVOK 22/16 A2999=
200611141400 METAR MRPV 141400Z 11012KT CAVOK 24/15 A3000=
200611141500 METAR MRPV 141500Z 08018KT CAVOK 25/15 A3000=
200611141600 METAR MRPV 141600Z 07014KT CAVOK 26/16 A3000=
200611141700 METAR MRPV NIL=
200611141800 METAR MRPV NIL=
200611141900 METAR MRPV 141900Z 29009KT 9999 FEW035 BKN250 26/20 A2993 RMK RN DST N NE=
200611142000 METAR MRPV 142000Z 28007KT 9999 SCT015TCU BKN030 24/20 A2990 RMK RN DST N=
200611142100 METAR MRPV 142100Z 31006KT 5000 -RA VCSH SCT012CB BKN025 21/20 A2990 RMK VIS E S UNL TS NW N=
200611142200 METAR MRPV 142200Z 28004KT 4000 -RA BR SCT002 BKN010 20/19 A2992 RMK VIS S SW UNL=
200611142300 METAR MRPV 142300Z 32005KT 3500 -RA BR SCT002 BKN010 20/19 A2993=
200611150000 METAR MRPV NIL=
200611150100 METAR MRPV NIL=
200611150200 METAR MRPV NIL=
200611150300 METAR MRPV NIL=
200611150400 METAR MRPV NIL=
200611150500 METAR MRPV NIL=
200611150600 METAR MRPV NIL=
200611150700 METAR MRPV NIL=
200611150800 METAR MRPV NIL=
200611150900 METAR MRPV NIL=
200611151000 METAR MRPV NIL=
200611151100 METAR MRPV NIL=
200611151300 METAR MRPV 151300Z 25002KT 9999 4000W BR FEW002 SCT120 BKN260 21/19 A29940=
200611151400 METAR MRPV 151400Z 31005KT 9999 VCFG FEW003 SCT130 BKN260 22/19 A2998 RMK VIS W 5000MTS=
200611151500 METAR MRPV 151500Z 28008KT 9999 VCFG FEW008 BKN120 22/19 A3000 RMK VIS SW 7000MTS=
200611151600 METAR MRPV 151600Z 29009KT 9999 SCT025 SCT120 22/19 A2999=
200611151700 METAR MRPV 151700Z 27008KT 9999 FEW008 SCT020 BKN100 21/18 A2998=
200611151800 METAR MRPV 151800Z 32006KT 9999 SCT015 BKN030 22/19 A2995 RMK RN SE=
200611152000 METAR MRPV 152000Z 28004KT 3000 +DZ BR SCT001 BKN008 20/19 A2992=
200611152100 METAR MRPV 152100Z 28006KT 4000 -DZ BR SCT002 BKN010 20/19 A2991=
200611152200 METAR MRPV 152200Z 29006KT 3000 -DZ BR SCT001 BKN008 20/19 A2991=
200611152300 METAR MRPV 152300Z 30006KT 3000 -DZ BR SCT001 BKN008 19/19 A2993=
200611160000 METAR MRPV NIL=
200611160100 METAR MRPV NIL=
200611160200 METAR MRPV NIL=
200611160300 METAR MRPV NIL=
200611160400 METAR MRPV NIL=
200611160500 METAR MRPV NIL=
200611160600 METAR MRPV NIL=
200611160700 METAR MRPV NIL=
200611160800 METAR MRPV NIL=
200611160900 METAR MRPV NIL=
200611161000 METAR MRPV NIL=
200611161100 METAR MRPV NIL=
200611161200 METAR MRPV 161200Z 10003KT CAVOK 18/17 A2999 RMK DU 09=
200611161300 METAR MRPV 161300Z 10003KT CAVOK 20/18 A2999 BKN120=
200611161400 METAR MRPV 161400Z 13003KT 9999 FEW040 BKN120 21/18 A3002 RMK DU/W=
200611161500 METAR MRPV 161500Z 29004KT 9999 FEW040 BKN120 22/19 A3004 DU/07=
200611161600 METAR MRPV 161600Z 28006KT 9999 FEW020 SCT030 BKN100 22/18 A3004=
200611161700 METAR MRPV 161700Z 28009KT 9999 FEW015 SCT025 OVC100 23/18 A3001=
200611161800 METAR MRPV 161800Z 28008KT 9999 SCT012TCU OVC100 22/19 A2999 RN E SE S=
200611161900 METAR MRPV 161900Z 29006KT 9000 4000SW VCSH FEW005 SCT020 OVC100 23/20 A2995=
200611162000 METAR MRPV 162000Z 29004KT 9000 4000NE VCSH SCT010 SCT020TCU OVC100 22/20 A2995 RN N/NE/E=
200611162100 METAR MRPV NIL=
200611162200 METAR MRPV NIL=
200611162300 METAR MRPV NIL=
200611170000 METAR MRPV NIL=
200611170100 METAR MRPV NIL=
200611170200 METAR MRPV NIL=
200611170300 METAR MRPV NIL=
200611170400 METAR MRPV NIL=
200611170500 METAR MRPV NIL=
200611170600 METAR MRPV NIL=
200611170700 METAR MRPV NIL=
200611170800 METAR MRPV NIL=
200611170900 METAR MRPV NIL=
200611171000 METAR MRPV NIL=
200611171100 METAR MRPV NIL=
200611171200 METAR MRPV NIL=
200611171300 METAR MRPV NIL=
200611171400 METAR MRPV NIL=
200611171500 METAR MRPV NIL=
200611171600 METAR MRPV NIL=
200611171700 METAR MRPV NIL=
200611171800 METAR MRPV NIL=
200611171900 METAR MRPV NIL=
200611172000 METAR MRPV NIL=
200611172100 METAR MRPV 172100Z 13003KT 6000 -RAR FEW010CB SCT020 OVC100 19/18 A2992=
200611172200 METAR MRPV 172200Z 12003KT 5000 -RA BR FEW012 SCT020 OVC100 20/19 A2993 RMK 3000 NW N BR=
200611172300 METAR MRPV 172300Z 00000KT 7000 -RA SCT015 OVC100 20/19 A2994 RMK VIS 4000 NW N SHRA BR=
200611180000 METAR MRPV NIL=
200611180100 METAR MRPV NIL=
200611180200 METAR MRPV NIL=
200611180300 METAR MRPV NIL=
200611180400 METAR MRPV NIL=
200611180500 METAR MRPV NIL=
200611180600 METAR MRPV NIL=
200611180700 METAR MRPV NIL=
200611180800 METAR MRPV NIL=
200611180900 METAR MRPV NIL=
200611181000 METAR MRPV NIL=
200611181100 METAR MRPV NIL=
200611181200 METAR MRPV NIL=
200611181300 METAR MRPV 181300Z 08002KT 9999 SCT030 SCT120 BKN250 22/19 A3001 VIS 5000SW VCFG=
200611181400 METAR MRPV 181400Z 28002KT 9999 SCT030 SCT120 BKN250 22/19 A3001 RMK VIS 5000 SW VCFG=
200611181500 METAR MRPV 181500Z 29004KT 5000 BR SCT008 SCT120 BKN250 22/20 A3003 RMK VIS 999 E SE=
200611181600 METAR MRPV 181600Z 32002KT 6000 VCFG HZ SCT010 OVC100 23/20 A3003=
200611181700 METAR MRPV 181700Z 26003KT 7000 VCFG FEW015 SCT025 OVC100 24/20 A3000=
200611181800 METAR MRPV 181800Z 32007KT 9999 SCT020 BKN080 25/18 A2997=
200611181900 METAR MRPV 181900Z 27007KT 9999 SCT020 BKN100 25/20 A2994 RMK RN DST E=
200611182000 METAR MRPV 182000Z 30008KT 9999 FEW015 SCT020TCU BKN1000 24/19 A2992=
200611182100 METAR MRPV 182100Z 28006KT 9999 3000 S VCSH FEW010 SCT020TCU BKN100 22/20 2991=
200611182200 METAR MRPV 182200Z 28007KT 7000 -RA BR SCT010TCU SCT020 BKN100 21/20 A2992=
200611182300 METAR MRPV 182300Z 29004KT 9999 VCFG FEW012 SCT025 20/19 A2994=
200611190000 METAR MRPV NIL=
200611190100 METAR MRPV NIL=
200611190200 METAR MRPV NIL=
200611190300 METAR MRPV NIL=
200611190400 METAR MRPV NIL=
200611190500 METAR MRPV NIL=
200611190600 METAR MRPV NIL=
200611190700 METAR MRPV NIL=
200611190800 METAR MRPV NIL=
200611190900 METAR MRPV NIL=
200611191000 METAR MRPV NIL=
200611191100 METAR MRPV NIL=
200611191200 METAR MRPV 191200Z 08004KT CAVOK 17/16 A2997 RMK BKN270=
200611191300 METAR MRPV 191300Z 13004KT CAVOK 21/17 A2999/RMK SCT270=
200611191400 METAR MRPV 191400Z 11008KT CAVOK 23/18 A3001=
200611191500 METAR MRPV 191500Z 11010KT 9999 FEW035 BKN270 25/18 A3002=
200611191600 METAR MRPV 191600Z 12006KT 9999 FEW035 SCT250 26/18 A3000=
200611191700 METAR MRPV 191700Z 28010KT 9999 SCT035 SCT270 24/20 A2999=
200611191800 METAR MRPV 191800Z 21005KT 9999 SCT030 SCT270 26/21 A2997 RMK TSU RN DST NE=
200611191900 METAR MRPV 191900Z 27010KT 9999 FEW020TCU BKN030 24/20 A2993 RMK CB TS DST N=
200611192000 METAR MRPV 192000Z 28008KT 8000 3000SW -RA BR SCT005 FEW010CB BKN015 22/21 A2994 RMK TSTM DST NW=
200611192100 METAR MRPV NIL=
200611192200 METAR MRPV 192200Z 00000KT 9999 -DZ VCFG FEW006 SCT025 BKN100 21/19 A2992 RMK VIS S SW 5000MTS=
200611192300 METAR MRPV 192300Z 00000KT 9999 VCFG FEW005 SCT015 BKN100 21/19 A2994 RMK VIS SW W 6000MTS=
200611200000 METAR MRPV NIL=
200611200100 METAR MRPV NIL=
200611200200 METAR MRPV NIL=
200611200300 METAR MRPV NIL=
200611200400 METAR MRPV NIL=
200611200500 METAR MRPV NIL=
200611200600 METAR MRPV NIL=
200611200700 METAR MRPV NIL=
200611200800 METAR MRPV NIL=
200611200900 METAR MRPV NIL=
200611201000 METAR MRPV NIL=
200611201100 METAR MRPV NIL=
200611201200 METAR MRPV 201200Z 12004KT 9999 FEW020 SCT100 20/18 A2999 RMK RN DST QUAD N=
200611201300 METAR MRPV 201300Z 14003KT 9999 SCT030 SCT100 20/18 A3001 RMK DZ N=
200611201400 METAR MRPV 201400Z 09015KT 9999 FEW025 BKN250 21/17 A3003 RMK DZ N NE=
200611201500 METAR MRPV 201500Z 09016KT 9999 FEW030 BKN250 23/18 A3004 RMK DZ N NE=
200611201600 METAR MRPV NIL=
200611201700 METAR MRPV 201700Z 08016KT 9999 SCT030 BKN250 25/18 A3002 RMK DZ N NE=
200611201800 METAR MRPV 201800Z 07012KT 9999 SCT030 BKN250 25/18 A2999 DZ N=
200611201900 METAR MRPV 201900Z 09012KT 9999 FEW05 SCT120 BKN250 24/18 A2997 RMK DZ NE=
200611202000 METAR MRPV 202000Z 09014KT 9999 FEW035 BKN120 23/18 A2995 DZ N DST=
200611202100 METAR MRPV 202100Z 09015KT 9999 SCT030 SCT120 22/18 A2995 DZ DST N NE E=
200611202200 METAR MRPV 202200Z 08015KT 9999 -DZ BKN030 SCT120 21/17 A2996 RN DST N=
200611202300 METAR MRPV 202300Z 09013KT 9999 FEW030 SCT120 BKN250 21/18 A2997 DZ N NE E=
200611210000 METAR MRPV NIL=
200611210100 METAR MRPV NIL=
200611210200 METAR MRPV NIL=
200611210300 METAR MRPV NIL=
200611210400 METAR MRPV NIL=
200611210500 METAR MRPV NIL=
200611210600 METAR MRPV NIL=
200611210700 METAR MRPV NIL=
200611210800 METAR MRPV NIL=
200611210900 METAR MRPV NIL=
200611211000 METAR MRPV NIL=
200611211100 METAR MRPV NIL=
200611211200 METAR MRPV 211200Z 11016G26KT 9999 FEW030 BKN250 19/14 A3007/ RMK DZ N NE E NW=
200611211300 METAR MRPV 211300Z 11018G28KT 9999 FEW030 BKN250 19/14 A3009 DZ DST QUAD N=
200611211400 METAR MRPV 211400Z 11018G28KT 9999 FEW032 BKN250 20/15 A3011 DZ QUAD N/E DST=
200611211500 METAR MRPV 211500Z 11016G26KT 9999 FEW035 SCT250 21/15 A3013 DZ QUAD N E DST=
200611211600 METAR MRPV 211600Z 10020G30KT 9999 FEW030 SCT250 22/15 A3012 DZ N E=
200611211700 METAR MRPV 211700Z 11020G30KT 9999 FEW030 22/16 A3010 DZ QUAD N/E=
200611211800 METAR MRPV NIL=
200611211900 METAR MRPV 211900Z 10020G30KT 9999 FEW030 22/15 A3005 DZ N NE E=
200611212000 METAR MRPV 212000Z 09020G30KT 9999 FEW030 SCT250 22/15 A3003 DZ N E DST=
200611212100 METAR MRPV 212100Z 07020G30KT 9999 FEW030 SCT250 21/15 A3002 DZ N E=
200611212200 METAR MRPV 212200Z 09015G25KT 9999 -DZ FEW025 21/15 A3001=
200611212300 METAR MRPV 212300Z 11017KT 9999 -DZ FEW025 19/15 A3003 RN E=
200611220000 METAR MRPV NIL=
200611220100 METAR MRPV NIL=
200611220200 METAR MRPV NIL=
200611220300 METAR MRPV NIL=
200611220400 METAR MRPV NIL=
200611220500 METAR MRPV NIL=
200611220600 METAR MRPV NIL=
200611220700 METAR MRPV NIL=
200611220800 METAR MRPV NIL=
200611220900 METAR MRPV NIL=
200611221000 METAR MRPV NIL=
200611221100 METAR MRPV NIL=
200611221200 METAR MRPV NIL=
200611221300 METAR MRPV 221300Z 10019KT 9999 SCT020 BKN250 15/10 A3012=
200611221400 METAR MRPV 221400Z 10021KT 9999 SCT020 BKN250 15/10 A3013=
200611221500 METAR MRPV 221500Z 10021KT 9999 SCT020 17/11 A3014=
200611221600 METAR MRPV 221600Z 12018KT 9999 SCT020 18/11 A3013=
200611221700 METAR MRPV 221700Z 11016KT 9999 SCT025 19/12 A3011=
200611221800 METAR MRPV NIL=
200611221900 METAR MRPV 221900Z 10015KT 9999 SCT025 18/12 A3006=
200611222000 METAR MRPV NIL=
200611222100 METAR MRPV 222100Z 11014KT 9999 BKN025 18/13 A3002=
200611222200 METAR MRPV 222200Z 10012KT 9999 BKN025 17/13 A3004=
200611222300 METAR MRPV 222300Z 11011KT 9999 SCT025 17/13 A3005=
200611230000 METAR MRPV NIL=
200611230100 METAR MRPV NIL=
200611230200 METAR MRPV NIL=
200611230300 METAR MRPV NIL=
200611230400 METAR MRPV NIL=
200611230500 METAR MRPV NIL=
200611230600 METAR MRPV NIL=
200611230700 METAR MRPV NIL=
200611230800 METAR MRPV NIL=
200611230900 METAR MRPV NIL=
200611231000 METAR MRPV NIL=
200611231100 METAR MRPV NIL=
200611231200 METAR MRPV 231200Z 12015KT 9999 SCT020 16/12 A3004=
200611231300 METAR MRPV 231300Z 13013KT 9999 SCT020 16/12 A3005=
200611231400 METAR MRPV 231400Z 11016KT 9999 FEW020 18/13 A3007=
200611231500 METAR MRPV 231500Z 12017KT 9999 FEW020 20/14 A3007=
200611231600 METAR MRPV 231600Z 11015KT 9999 FEW020 20/14 A3006=
200611231700 METAR MRPV 231700Z 12017KT 9999 SCT020 20/14 A3004=
200611231800 METAR MRPV 231800Z 09018KT 9999 SCT035 21/15 A3002=
200611231900 METAR MRPV 231900Z 10016KT 9999 SCT025 23/16 A2999=
200611232000 METAR MRPV 232000Z 12011KT 9999 SCT025 22/15 A2997=
200611232100 METAR MRPV 232100Z 12014KT 9999 FEW020 SCT035 20/15 A2995=
200611232200 METAR MRPV 232200Z 12012KT 9999 SCT020 20/14 A2997=
200611232300 METAR MRPV 232300Z 11010KT 9999 BKN020 19/14 A2999=
200611240000 METAR MRPV NIL=
200611240100 METAR MRPV NIL=
200611240200 METAR MRPV NIL=
200611240300 METAR MRPV NIL=
200611240400 METAR MRPV NIL=
200611240500 METAR MRPV NIL=
200611240600 METAR MRPV NIL=
200611240700 METAR MRPV NIL=
200611240800 METAR MRPV NIL=
200611240900 METAR MRPV NIL=
200611241000 METAR MRPV NIL=
200611241100 METAR MRPV NIL=
200611241200 METAR MRPV NIL=
200611241300 METAR MRPV 241300Z 11010KT 9999 FEW020 18/11 A3000=
200611241400 METAR MRPV 241400Z 12011KT 9999 FEW030 20/12 A3002=
200611241500 METAR MRPV 241500Z 10016KT 9999 FEW030 21/12 A3004=
200611241600 METAR MRPV 241600Z 10015KT 9999 FEW030 22/13 A3002=
200611241700 METAR MRPV 241700Z 09016KT 9999 FEW030 24/14 A2999=
200611241800 METAR MRPV 241800Z 09012KT 9999 FEW030 24/15 A2997=
200611241900 METAR MRPV 241900Z 13008KT 9999 FEW030 SCT250 25/15 A2993=
200611242000 METAR MRPV 242000Z 09010KT 9999 FEW030 SCT250 25/16 A2992=
200611242100 METAR MRPV 242100Z 09012KT 9999 SCT030 SCT250 25/16 A2992=
200611242200 METAR MRPV 242200Z 10012KT 9999 FEW030 SCT250 23/16 A2991=
200611242300 METAR MRPV 242300Z 10012KT 9999 FEW025 SCT250 21/16 A2992=
200611250000 METAR MRPV NIL=
200611250100 METAR MRPV NIL=
200611250200 METAR MRPV NIL=
200611250300 METAR MRPV NIL=
200611250400 METAR MRPV NIL=
200611250500 METAR MRPV NIL=
200611250600 METAR MRPV NIL=
200611250700 METAR MRPV NIL=
200611250800 METAR MRPV NIL=
200611250900 METAR MRPV NIL=
200611251000 METAR MRPV NIL=
200611251100 METAR MRPV NIL=
200611251200 METAR MRPV 251200Z 11008KT 9999 FEW025 BKN250 19/16 A2996=
200611251300 METAR MRPV 251300Z 10014KT 9999 FEW025 BKN250 19/15 A2999=
200611251400 METAR MRPV 251400Z 11015KT 9999 FEW020 BKN250 19/15 A3001=
200611251500 METAR MRPV 251500Z 10015KT 9999 FEW030 BKN250 22/15 A3001=
200611251600 METAR MRPV 251600Z 10014KT 9999 SCT025 BKN250 22/16 A3001=
200611251700 METAR MRPV 251700Z 11012KT 9999 FEW035 SCT250 24/17 A3000=
200611251800 METAR MRPV 251800Z 12012KT 9999 FEW035 SCT250 25/16 A2998=
200611251900 METAR MRPV 251900Z 09012KT 9999 FEW025 SCT250 26/16 A2995=
200611252000 METAR MRPV 252000Z 10013KT 9999 FEW040 25716 A2993=
200611252100 METAR MRPV 252100Z 09014KT 9999 FEW035 SCT250 25/17 A2992=
200611252200 METAR MRPV 252200Z 09015KT 9999 SCT035 22/17 A2993 RMK DZ DIST N NE OVER RDGS=
200611252300 METAR MRPV 252300Z 10014KT 9999 SCT035 21/17 A2994=
200611260000 METAR MRPV NIL=
200611260100 METAR MRPV NIL=
200611260200 METAR MRPV NIL=
200611260300 METAR MRPV NIL=
200611260400 METAR MRPV NIL=
200611260500 METAR MRPV NIL=
200611260600 METAR MRPV NIL=
200611260700 METAR MRPV NIL=
200611260800 METAR MRPV NIL=
200611260900 METAR MRPV NIL=
200611261000 METAR MRPV NIL=
200611261100 METAR MRPV NIL=
200611261200 METAR MRPV 261200Z 11008KT 9999 FEW030 20/17 A2997=
200611261300 METAR MRPV 261300Z 11010KT 9999 FEW030 21/17 A2999=
200611261400 METAR MRPV 261400Z 12012KT CAVOK 23/18 A3000=
200611261500 METAR MRPV 261500Z 10010KT CAVOK 24/18 A3001=
200611261600 METAR MRPV 261600Z 11008KT 9999 FEW035 26/18 A3001=
200611261700 METAR MRPV 261700Z 08012KT 9999 FEW030 SCT060 25/18 A3001=
200611261800 METAR MRPV 261800Z 09008KT 9999 SCT040 26/19 A2998=
200611261900 METAR MRPV 261900Z 08006KT 9999 FEW025 SCT040 27/18 A2994 RMK DZ DST N=
200611262000 METAR MRPV 262000Z 20002KT 9999 BKN030 26/20 A2992=
200611262100 METAR MRPV 262100Z 10008KT 9999 FEW020TCU GFEW035 27/19 A2991=
200611262200 METAR MRPV 262200Z 07010KT 9999 VCFG FEW006 SCT025 25/19 A2991 VSBY N 8KM RN NW=
200611262300 METAR MRPV 262300Z 08010KT 9999 VCFG FEW005 SCT025 23/18 A2993 VSBY W 8KM=
200611270000 METAR MRPV 270000Z 08007KT 9999 4000W BR FEW004 BKN018 23/18 A2994=
200611270100 METAR MRPV NIL=
200611270200 METAR MRPV NIL=
200611270300 METAR MRPV NIL=
200611270400 METAR MRPV NIL=
200611270500 METAR MRPV NIL=
200611270600 METAR MRPV NIL=
200611270700 METAR MRPV NIL=
200611270800 METAR MRPV NIL=
200611270900 METAR MRPV NIL=
200611271000 METAR MRPV NIL=
200611271100 METAR MRPV NIL=
200611271200 METAR MRPV NIL=
200611271300 METAR MRPV 271300Z 11012KT 9999 FEW025 22/18 A2999 RMK CB DST SW DZ DST NE=
200611271400 METAR MRPV 271400Z 09012KT 9999 FEW025 22/18 A3001 DZ N NE DU PISTA 09 CB SW=
200611271500 METAR MRPV 271500Z 08010KT 9999 FEW030 SCT300 24/18 A3002 CB DST SW DZ N NE OVCR MTNG DU OVCR PISTA 09=
200611271600 METAR MRPV 271600Z 09014KT 9999 SCT035 SCT300 25/19 A3001 DZ N NE E DU PISTA 09=
200611271700 METAR MRPV 271700Z 10009KT 9999 -RA BKN035 SCT100 25/19 A3000=
200611271800 METAR MRPV NIL=
200611271900 METAR MRPV NIL=
200611272000 METAR MRPV 272000Z 10012KT 9999 FEW025 27/19 A2994 RN E SE=
200611272100 METAR MRPV 272100Z 09012KT 9999 FEW025 SCT300 21/18 A2997 RMK CB N DZ NE=
200611272200 METAR MRPV 272200Z 35005KT 4000 -RA BR SCT002 BKN010 21/20 A2991 RMK VIS 6000 E=
200611272300 METAR MRPV 272300Z 35002KT 6000 VCFG FEW002 BKN015 21/20 A2994 RERA RMK VIS 9999 S SE=
200611280000 METAR MRPV NIL=
200611280100 METAR MRPV NIL=
200611280200 METAR MRPV NIL=
200611280300 METAR MRPV NIL=
200611280400 METAR MRPV NIL=
200611280500 METAR MRPV NIL=
200611280700 METAR MRPV NIL=
200611280800 METAR MRPV NIL=
200611280900 METAR MRPV NIL=
200611281000 METAR MRPV NIL=
200611281100 METAR MRPV NIL=
200611281200 METAR MRPV 281200Z 12006KT 9999 FEW030 SCT250 20/17 A2995=
200611281300 METAR MRPV 281300Z 13006KT 9999 SCT040 22/18 A2996=
200611281400 METAR MRPV 281400Z 11008KT 9999 SCT030 BKN120 24/18 A2998=
200611281500 METAR MRPV 281500Z 08013KT 9999 SCT025 25/19 A2999=
200611281600 METAR MRPV 281600Z 10009KT 9999 SCT025 26/19 A2998=
200611281700 METAR MRPV NIL=
200611281800 METAR MRPV NIL=
200611281900 METAR MRPV 281900Z 12010KT 9999 VCSH SCT020TCU BKN080 25/19 A2991 RMK SHRA ARND VIS 6000 NW W=
200611282000 METAR MRPV 282000Z 13006KT 9999 SCT015TCU SCT025 BKN100 24/19 A2990=
200611282100 METAR MRPV 282100Z 11006KT 8000 3000W VCSH SCT004 SCT020TCU BKN100 23/18 A2989=
200611282200 METAR MRPV 282200Z 11006KT 6000 3000W -RA BR SCT015 BKN040 21/19 A2990=
200611282300 METAR MRPV 282300Z 11008KT 8000 3000NW VCFG FEW015 SCT025 BKN100 20/18 A2991=
200611290000 METAR MRPV NIL=
200611290100 METAR MRPV NIL=
200611290200 METAR MRPV NIL=
200611290300 METAR MRPV NIL=
200611290400 METAR MRPV NIL=
200611290500 METAR MRPV NIL=
200611290600 METAR MRPV NIL=
200611290700 METAR MRPV NIL=
200611290800 METAR MRPV NIL=
200611290900 METAR MRPV NIL=
200611291000 METAR MRPV NIL=
200611291100 METAR MRPV NIL=
200611291200 METAR MRPV 291200Z 10009KT 9999 SCT025 BKN100 21/17 A2995=
200611291300 METAR MRPV 291300Z 12006KT 9999 SCT025 BKN100 21/17 A2997=
200611291400 METAR MRPV 291400Z 09012KT 9999 SCT025 BKN120 22/18 A3000=
200611291500 METAR MRPV 291500Z 10009KT 9999 SCT020 BKN100 22/18 A3000=
200611291600 METAR MRPV 291600Z 09010KT 9999 SCT020 BKN100 24/18 A2999=
200611291700 METAR MRPV NIL=
200611291800 METAR MRPV NIL=
200611291900 METAR MRPV 291900Z 10009KT 9999 4000S -RA FEW010 SCT025 OVC100 23/19 A2993=
200611292000 METAR MRPV 292000Z 10008KT 9999 SCT020 BKN100 23/18 A2990=
200611292100 METAR MRPV 292100Z 09011KT 9999 SCT020 OVC100 23/18 A2988 RMK DZ NE=
200611292200 METAR MRPV 292200Z 11007KT 9999 VCSH SCT010 BKN100 22/18 A2990 RMK RN E=
200611292300 METAR MRPV 292300Z 12007KT 9999 SCT020 OVC100 21/18 A2991=
200611300000 METAR MRPV NIL=
200611300100 METAR MRPV NIL=
200611300200 METAR MRPV NIL=
200611300300 METAR MRPV NIL=
200611300400 METAR MRPV NIL=
200611300500 METAR MRPV NIL=
200611300800 METAR MRPV NIL=
200611300900 METAR MRPV NIL=
200611301000 METAR MRPV NIL=
200611301100 METAR MRPV NIL=
200611301300 METAR MRPV 301300Z 09007KT CAVOK 22/17 A2998 RMK DU PISTA 09=
200611301400 METAR MRPV 301400Z 11007KT 9999 FEW030 BKN280 24/18 A3000=
200611301500 METAR MRPV 301500Z 09006KT 9999 FEW030 BKN300 26718 A3001=
200611301600 METAR MRPV NIL=
200611301700 METAR MRPV 301700Z 15004KT 9999 FEW035 SCT120 28/18 A2998 RMK DU PISTA 09=
200611301800 METAR MRPV 301800Z VRB03KT 9999 SCT035 SCT100 28/18 A2995=
200611301900 METAR MRPV 301900Z 29007KT 9999 FEW015TCU BKN030 25/21 A2992 RMK RN NW=
200611302000 METAR MRPV 302000Z 29011KT 9999 VCSH FEW010CB BKN030 25/21 A2990 RMK VIS NW 6000MTS=
200611302100 METAR MRPV 302100Z 33003KT 9999 4000W BR FEW005 BKN018 21/20 A2990 RERA=
200611302200 METAR MRPV 302200Z 28004KT 4000 BR FEW002 BKN010 21/20 A2992 REDZ RMK VIS E SE UNLTD=
200611302300 METAR MRPV 302300Z 29003KT 2000 BR SCT001 BKN006 21/20 A2993=
200612010000 METAR MRPV NIL=
200612010100 METAR MRPV NIL=
200612010200 METAR MRPV NIL=
200612010300 METAR MRPV NIL=
200612010400 METAR MRPV NIL=
200612010500 METAR MRPV NIL=
200612010700 METAR MRPV NIL=
200612010800 METAR MRPV NIL=
200612010900 METAR MRPV NIL=
200612011000 METAR MRPV NIL=
200612011100 METAR MRPV NIL=
200612011200 METAR MRPV 011200Z 12006KT 9999 FEW030 BKN100 21/18 A2997=
200612011300 METAR MRPV 011300Z 12010KT 9999 FEW025 BKN100 22/18 A3000=
200612011400 METAR MRPV 011400Z 08015KT 9999 -DZ FEW030 SCT100 23/19 A3002 RERA RN DST NE=
200612011500 METAR MRPV 011500Z 08013KT 9999 SCT030 SCT100 23/19 A3003 REDZ RMK DZ DST N DUST IN APCH09=
200612011600 METAR MRPV 011600Z 11010KT 9999 SCT030 SCT100 23/19 A3007 RMK DZ TO N OVER RDGS=
200612011700 METAR MRPV 011700Z 11010KT 9999 FEW035 BKN120 23/19 A3007 RMK DZ DIST N=
200612011800 METAR MRPV 011800Z 08013KT 9999 FEW030 BKN120 25/19 A2996 RMK DZ N=
200612011900 METAR MRPV 011900Z 09020KT 9999 FEW030 SCT120 25/18 A2994 RMK DZ DIST TO N OVER RDGS=
200612012000 METAR MRPV 012000Z 09015KT 9999 BKN030 25/18 A2991 RMK DZ DST N NE E DST=
200612012100 METAR MRPV 012100Z 09009KT 9999 FEW030 SCT250 26/19 A2989=
200612012200 METAR MRPV 012200Z 06012KT 9999 SCT035 SCT250 25/18 A2989=
200612012300 METAR MRPV 012300Z 07008KT 9999 FEW030 24/18 A2992 DZ N=
200612020000 METAR MRPV NIL=
200612020100 METAR MRPV NIL=
200612020200 METAR MRPV NIL=
200612020300 METAR MRPV NIL=
200612020400 METAR MRPV NIL=
200612020500 METAR MRPV NIL=
200612020600 METAR MRPV NIL=
200612020700 METAR MRPV NIL=
200612020800 METAR MRPV NIL=
200612020900 METAR MRPV NIL=
200612021000 METAR MRPV NIL=
200612021100 METAR MRPV NIL=
200612021200 METAR MRPV 021200Z 11010KT 9999 SCT030 SCT100 21/18 A2995 RN N=
200612021300 METAR MRPV 021300Z 10012KT 9999 SCT030 SCT090 21/18 A2998 RMK RERA RN DST DST N=
200612021400 METAR MRPV 021400Z 10012KT 9999 -RA FEW030 BKN100 22/17 A2999=
200612021500 METAR MRPV 021500Z 13010KT 9999 -DZ FEW030 BKN100 21/18 3001 RERA=
200612021600 METAR MRPV 021600Z 11010KT 9999 FEW035 BKN100 22/18 A3002 RN NW=
200612021700 METAR MRPV 021700Z 08012KT 9999 DZ FEW035 BKN100 23/19 A2999 RN NE E=
200612021800 METAR MRPV 021800Z 12008KT 9999 FEW035 BKN100 22/19 A2996 REDZ RN NW=
200612021900 METAR MRPV 021900Z 08015KT 9999 SCT030 BKN100 24/19 A2994 RN N NE E=
200612022000 METAR MRPV 022000Z 08010KAT 9999 BKN030 SCT100 24/19 A2992 RERA DZ N NE E=
200612022100 METAR MRPV 022100Z 08012KT 9999 +DZ SCT025 BKN100 22/19 A2991 RMK RN DST N NE E SE=
200612022200 METAR MRPV 022200Z 09010KT 9999 -DZ SCT025 BKN100 22/19 A2991 RMK RN DST N NE E SE=
200612022300 METAR MRPV 022300Z 07017KT 9999 FEW030 SCT100 BKN250 21/17 A2992 REDZ RMK RN DST N NE E=
200612030000 METAR MRPV NIL=
200612030100 METAR MRPV NIL=
200612030200 METAR MRPV NIL=
200612030300 METAR MRPV NIL=
200612030400 METAR MRPV NIL=
200612030500 METAR MRPV NIL=
200612030600 METAR MRPV NIL=
200612030700 METAR MRPV NIL=
200612030800 METAR MRPV NIL=
200612030900 METAR MRPV NIL=
200612031000 METAR MRPV NIL=
200612031100 METAR MRPV NIL=
200612031200 METAR MRPV NIL=
200612031300 METAR MRPV 031300Z 10017G27KT CAVOK 21/14 A2997=
200612031400 METAR MRPV 031400Z 10022KT CAVOK 22/14 A3000=
200612031500 METAR MRPV 031500Z 09017G27KT CAVOK 24/14 A3000=
200612031600 METAR MRPV 031600Z 07016G26KT CAVOK 24/16 A3000=
200612031700 METAR MRPV 031700Z 07017KT CAVOK 25/17 A2999=
200612031800 METAR MRPV 031800Z 06017KT CAVOK 26/16 A2995=
200612031900 METAR MRPV 031900Z 07018KT CAVOK 26/16 A2993=
200612032000 METAR MRPV 032000Z 06014KT CAVOK 26/15 A2992=
200612032100 METAR MRPV 032100Z 07015KT CAVOK 26/16 A2991=
200612032200 METAR MRPV 032200Z 06016KT CAVOK 25/16 A2991=
200612032300 METAR MRPV 032300Z 06012KT CAVOK 23/16 A2991=
200612040000 METAR MRPV 040000Z 07012KT CAVOK 22/16 A2993=
200612040100 METAR MRPV NIL=
200612040200 METAR MRPV NIL=
200612040300 METAR MRPV NIL=
200612040400 METAR MRPV NIL=
200612040500 METAR MRPV NIL=
200612040600 METAR MRPV NIL=
200612040700 METAR MRPV NIL=
200612040800 METAR MRPV NIL=
200612040900 METAR MRPV NIL=
200612041000 METAR MRPV NIL=
200612041100 METAR MRPV NIL=
200612041200 METAR MRPV 041200Z 09010KT 9999 SCT020 BKN120 21/17 A2999 DZ N NE E=
200612041300 METAR MRPV 041300Z 09012KT 9999 SCT020 SCT120 22/17 A3002=
200612041400 METAR MRPV 041400Z 10016KT 9999 SCT025 SCT120 23/17 A3004=
200612041500 METAR MRPV 041500Z 09016KT 9999 SCT025 BKN250 24/16 A3002=
200612041600 METAR MRPV 041600Z 09016KT 9999 SCT020 BKN100 24/17 A3006=
200612041700 METAR MRPV 041700Z 08017KT 9999 SCT020 BKN020 BKN100 22/17 A3004 RMK DZ N NE=
200612041800 METAR MRPV 041800Z 07021KT 9999 SCT020 OVC100 23/16 A3001 RMK RN DST N NE=
200612041900 METAR MRPV 041900Z 08020G30KT 9999 SCT020 BKN100 23/15 A2999 RMK DZ N NE E=
200612042000 METAR MRPV NIL=
200612042100 METAR MRPV 042100Z 09017KT 9999 SCT020 BKN100 23/16 A2992 RMK DZ N NE=
200612042200 METAR MRPV 042200Z 10018KT 9999 SCT020 BKN100 22/16 A2992=
200612042300 METAR MRPV 042300Z 10009KT 9999 SCT020 BKN100 21/14 A2997 RMK DZ NE=
200612050000 METAR MRPV NIL=
200612050100 METAR MRPV NIL=
200612050200 METAR MRPV NIL=
200612050300 METAR MRPV NIL=
200612050400 METAR MRPV NIL=
200612050500 METAR MRPV NIL=
200612050600 METAR MRPV NIL=
200612050700 METAR MRPV NIL=
200612050800 METAR MRPV NIL=
200612050900 METAR MRPV NIL=
200612051000 METAR MRPV NIL=
200612051100 METAR MRPV NIL=
200612051200 METAR MRPV 051200Z 12011KT 9999 FEW025 SCT300 19/14 A3004 RMK RN DZ DST N NE=
200612051300 METAR MRPV 051300Z 09014KT 9999 FEW025 SCT300 20/15 A3002 RMK RN DZ N NE=
200612051400 METAR MRPV 051400Z 10011KT 9999 SCT025 21/15 A3005 RMK RN N NE=
200612051500 METAR MRPV 051500Z 11011KT 9999 SCT025 20/15 A3005 RMK RN DZ N NE=
200612051600 METAR MRPV NIL=
200612051700 METAR MRPV NIL=
200612051800 METAR MRPV NIL=
200612051900 METAR MRPV 051900Z 07022KT 9999 FEW025 24/16 A2996 RMK DZ N NE=
200612052000 METAR MRPV 052000Z 09016KT 9999 FEW025 23/16 A2995 RMK DZ N NE=
200612052100 METAR MRPV 052100Z 10017KT 9999 FEW025 24/16 A2994 RMK DZ DST N NE=
200612052200 METAR MRPV 052200Z 09018KT 9999 FEW025 22/16 RMK DZ DST N NE=
200612052300 METAR MRPV 052300Z 10014KT 9999 FEW025 20/16 A2996 RMK DZ DST N NE=
200612060000 METAR MRPV 060000Z 10016KT 9999 FEW025 20/16 A2998 RMK DZ N NE=
200612060100 METAR MRPV NIL=
200612060200 METAR MRPV NIL=
200612060300 METAR MRPV NIL=
200612060400 METAR MRPV NIL=
200612060500 METAR MRPV NIL=
200612060600 METAR MRPV NIL=
200612060700 METAR MRPV NIL=
200612060800 METAR MRPV NIL=
200612060900 METAR MRPV NIL=
200612061000 METAR MRPV NIL=
200612061100 METAR MRPV NIL=
200612061200 METAR MRPV NIL=
200612061300 METAR MRPV 061300Z 10014KT 9999 SCT020 BKN100 21/16 A3000 RMK RN/DZ DST N NE=
200612061400 METAR MRPV 061400Z 12009KT 9999 SCT020 BKN040 22/17 A3003 RMK RN/DZ DST N NE=
200612061500 METAR MRPV 061500Z 12008KT 9999 SCT020 BKN035 22/17 A3004 RMK RN/DZ=
200612061600 METAR MRPV 061600Z 12009KT 9999 SCT020 BKN030 23/17 A3004 RMK DZ DST N NE=
200612061700 METAR MRPV 061700Z 10014KT 9999 SCT035 SCT120 25/18 A3002 RMK DZ DST N NE=
200612061800 METAR MRPV 061800Z 08014KT 9999 BKN030 25/18 A3000 DZ N NE=
200612061900 METAR MRPV 061900Z 07014KT 9999 BKN030 25/18 A2998 RMK DZ DST N NE=
200612062000 METAR MRPV 062000Z 10015KT 9999 SCT020 BKN035 24/18 A2996 RMK DIST N/E SE=
200612062100 METAR MRPV 062100Z 09015KT 9999 SCT025 OVC100 23/18 A2995 RN ARND=
200612062200 METAR MRPV 062200Z 15014KT 9000 4000S -RA FEW010 SCT020 BKN100 21/18 A2996=
200612062300 METAR MRPV 062300Z 12006KT 9999 SCT020 BKN080 21/18 A2997=
200612070000 METAR MRPV NIL=
200612070100 METAR MRPV NIL=
200612070200 METAR MRPV NIL=
200612070300 METAR MRPV NIL=
200612070400 METAR MRPV NIL=
200612070500 METAR MRPV NIL=
200612070600 METAR MRPV NIL=
200612070700 METAR MRPV NIL=
200612070800 METAR MRPV NIL=
200612070900 METAR MRPV NIL=
200612071000 METAR MRPV NIL=
200612071100 METAR MRPV NIL=
200612071200 METAR MRPV 071200Z 12010KT 9999 FEW030 BKN270 20/16 A2999=
200612071300 METAR MRPV 071300Z 12010KT 9999 FEW030 BKN270 21/16 A3001=
200612071400 METAR MRPV 071400Z 10013KT 9999 FEW030 BKN270 23/17 A3003=
200612071500 METAR MRPV 071500Z 08014KT 9999 FEW040 SCT270 24/17 A3004=
200612071600 METAR MRPV 071600Z 06013KT 9999 FEW035 SCT270 24/17 A3004 DZ N NE=
200612071700 METAR MRPV 071700Z 08013KT 9999 SCT030 SCT100 25/17 A3003 DZ N=
200612071800 METAR MRPV 071800Z 08012KT 9999 FEW035 SCT090 26/17 A3001=
200612071900 METAR MRPV 071900Z 08013KT 9999 SCT035 SCT090 27/17 A2998=
200612072000 METAR MRPV 072000Z 08015KT 9999 BKN035 27/17 A2997=
200612072100 METAR MRPV 072100Z 09012KT 9999 SCT035 SCT300 26/17 A2996=
200612072200 METAR MRPV 072200Z 08015KT 9999 FEW040 SCT300 26/17 A2996 RMK TCU DST SW=
200612072300 METAR MRPV 072300Z 10010KT 9999 FEW030 SCT300 24/17 A2998 RMK TCU DST SW=
200612080000 METAR MRPV 080000Z NIL=
200612080100 METAR MRPV NIL=
200612080200 METAR MRPV NIL=
200612080300 METAR MRPV NIL=
200612080400 METAR MRPV NIL=
200612080500 METAR MRPV NIL=
200612080600 METAR MRPV NIL=
200612080700 METAR MRPV NIL=
200612080800 METAR MRPV NIL=
200612080900 METAR MRPV NIL=
200612081000 METAR MRPV NIL=
200612081100 METAR MRPV NIL=
200612081200 METAR MRPV 081200Z 12008KT CAVOK 19/16 A3001 RMK SCT300=
200612081300 METAR MRPV 081300Z 12008KT CAVOK 21/16 A3004=
200612081400 METAR MRPV 081400Z 11006KT CAVOK 23/15 A3006=
200612081500 METAR MRPV 081500Z 08016KT CAVOK 24/16 A3006=
200612081600 METAR MRPV 081600Z 07013KT CAVOK 26/16 A3006=
200612081700 METAR MRPV 081700Z 07013KT 9999 FEW030 SCT100 ND RMK VIENTO ESTIMADO=
200612081800 METAR MRPV 081800Z 16010KT E 9999 FEW040 BKN100 28/16 ND RMK VIENTO ESTIMADO=
200612081900 METAR MRPV 081900Z 08010KT E 9999 FEW045 BKN100 29/15 A ND RMK VIENTO ESTIMADO=
200612082000 METAR MRPV 082000Z 27005KT E 9999 FEW025 SCT120 28/19 ND RMK VIENTO ESTIMADO TCU DST N FEW040=
200612082100 METAR MRPV 082100Z 30005KT 9999 FEW030 SCT120 26/19 A2997 RMK TCU SW HZ W N=
200612082200 METAR MRPV 082200Z 16006KT 9999 FEW015TCU SCT030 25/20 A2997 RMK RN DST N=
200612082300 METAR MRPV 082300Z VRB03KT 9999 -RA VCFG FEW007 BKN015 22/21 A2999 RMK VIS NW SW W 6000=
200612090000 METAR MRPV 090000Z NIL=
200612090100 METAR MRPV NIL=
200612090200 METAR MRPV NIL=
200612090300 METAR MRPV NIL=
200612090400 METAR MRPV NIL=
200612090500 METAR MRPV NIL=
200612090600 METAR MRPV NIL=
200612090700 METAR MRPV NIL=
200612090800 METAR MRPV NIL=
200612090900 METAR MRPV NIL=
200612091000 METAR MRPV NIL=
200612091100 METAR MRPV NIL=
200612091200 METAR MRPV 091200Z 12006KT CAVOK 19/16 A3002 BKN300=
200612091300 METAR MRPV 091300Z 13008KT CAVOK 22/17 A3004/RMK BKN300=
200612091400 METAR MRPV 091400Z 10008KT CAVOK 24/17 A3002=
200612091500 METAR MRPV 091500Z 27003KT 9999 FEW040 SCT300 25/17 A3007=
200612091600 METAR MRPV 091600Z 05012KT 9999 FEW035 26/17 A3006=
200612091700 METAR MRPV 091700Z 08012KT 9999 FEW040 27/17 A3004=
200612091800 METAR MRPV 091800Z 08010KT 9999 FEW020 SCT035 27/17 A2999 RMK RN DST W=
200612091900 METAR MRPV NIL=
200612092000 METAR MRPV 092000Z 29003KT 9999 SCT030 SCT250 27/20 A2996=
200612092100 METAR MRPV 092100Z 26010KT 9999 FEW025 BKN025 25/21 A2995 RMK RN N=
200612092200 METAR MRPV 092200Z 08008KT 9999 4000W SH VCTS FEW007CB BKN012 22/20 2998 RMK TS W N=
200612092300 METAR MRPV 092300Z 08004KT 4000 -RA BR FEW004 BKN012 21/20 A3000 RMK VIS E SE UNL=
200612100000 METAR MRPV NIL=
200612100100 METAR MRPV NIL=
200612100200 METAR MRPV NIL=
200612100300 METAR MRPV NIL=
200612100400 METAR MRPV NIL=
200612100500 METAR MRPV NIL=
200612100600 METAR MRPV NIL=
200612100700 METAR MRPV NIL=
200612100800 METAR MRPV NIL=
200612100900 METAR MRPV NIL=
200612101000 METAR MRPV NIL=
200612101100 METAR MRPV NIL=
200612101200 METAR MRPV NIL=
200612101300 METAR MRPV 101300Z 11007KT 9999 SCT030 BKN120 21/17 A3008=
200612101400 METAR MRPV 101400Z 13005KT 9999 SCT035 BKN120 22/18 A3010=
200612101500 METAR MRPV 101500Z 12007KT CAVOK 21/18 A3009 RMK CB RN W NW N NE=
200612101600 METAR MRPV 101600Z 09009KT 9999 SCT040 BKN120 26/18 A3008=
200612101700 METAR MRPV 101700Z 07010KT 9999 SCT040 BKN100 26/18 A3004 RMK RN E=
200612101800 METAR MRPV 101800Z 09007KT 9999 SCT025 BKN100 26/18 A3004 RMK RN NE=
200612101900 METAR MRPV 101900Z 05006KT 9999 SCT020TCU BKN040 27/19 A3001 RMK RASH NW N NE E=
200612102000 METAR MRPV 102000Z 04003KT 9999 3000 W -RA SCT010 SCT015TCU BKN100 22/20 A3003=
200612102100 METAR MRPV 102100Z 28007KT 9999 SCT015 BKN100 22/20 A2999=
200612102200 METAR MRPV 102200Z 23002KT 9999 SCT020 BKN100 21/20 A2999=
200612102300 METAR MRPV 102300Z 00000KT 9999 SCT020 BKN100 21/20 A2999 RMK RN DST NE E=
200612110000 METAR MRPV NIL=
200612110100 METAR MRPV NIL=
200612110200 METAR MRPV NIL=
200612110300 METAR MRPV NIL=
200612110400 METAR MRPV NIL=
200612110500 METAR MRPV NIL=
200612110600 METAR MRPV NIL=
200612110700 METAR MRPV NIL=
200612110800 METAR MRPV NIL=
200612110900 METAR MRPV NIL=
200612111000 METAR MRPV NIL=
200612111100 METAR MRPV NIL=
200612111200 METAR MRPV 111200Z 13003KT 9999 SCT040 BKN120 21/18 A3006 RMK DZ NE=
200612111300 METAR MRPV 111300Z 11007KT 9999 SCT030 BKN120 22/18 A3008 RMK DZ NE DST W=
200612111400 METAR MRPV 111400Z 11007KT 9999 SCT030 BKN120 23/18 A3009 DUST W DZ NE=
200612111500 METAR MRPV 111500Z 08007KT 9999 4000N -RA SCT020 OVC100 21/18 A3012=
200612111600 METAR MRPV 111600Z 07009KT 9999 SCT9025 OVC100 23/19 A3011 RMK RN N NE E=
200612111700 METAR MRPV 111700Z 11009KT 9999 SCT020 OVC100 23/19 A3007 RMK RN DIST N NE E=
200612111800 METAR MRPV 111800Z 10008KT 9999 -RA SCT020 OVC100 23/19 A3004 RMK RN DST N NE E=
200612111900 METAR MRPV 111900Z 10011KT 9999 -RA FEW015 SCT020 OVC100 22/19 A3002 RMK VIS N NE E 6KMS=
200612112000 METAR MRPV 112000Z 12006KT 9999 SCT020 OVC100 22/19 A3001 RMK RN N NE E SE=
200612112100 METAR MRPV 112100Z 09012KT 9999 -RA FEW010 SCT020 BKN100 21/18 A3001 VSBY E 5KM DUE RN=
200612112200 METAR MRPV 112200Z 11008KT 9999 SCT020 BKN100 21/18 A3000 RERA=
200612112300 METAR MRPV 112300Z 11009KT 9999 SCT015 OVC100 21/18 A3001=
200612120000 METAR MRPV NIL=
200612120100 METAR MRPV NIL=
200612120200 METAR MRPV NIL=
200612120300 METAR MRPV NIL=
200612120400 METAR MRPV NIL=
200612120500 METAR MRPV NIL=
200612120600 METAR MRPV NIL=
200612120700 METAR MRPV NIL=
200612120800 METAR MRPV NIL=
200612120900 METAR MRPV NIL=
200612121000 METAR MRPV NIL=
200612121100 METAR MRPV NIL=
200612121200 METAR MRPV NIL=
200612121300 METAR MRPV 121300Z 12009KT 9999 SCT020 BKN120 21/17 A3007=
200612121400 METAR MRPV 121400Z 10012KT 9999 SCT020 BKN120 22/18 A3009 DU PISTA 09=
200612121500 METAR MRPV 121500Z 11011KT 9999 SCT020 BKN100A 22/17 A3009=
200612121600 METAR MRPV 121600Z 09015KT 9999 SCT020 BKN100 23/17 A3009=
200612121700 METAR MRPV 121700Z 08013KT 9999 SCT030 BKN120 23/17 A3006=
200612121800 METAR MRPV 121800Z 08012KT 9999 SCT030 BKN120 24/17 A3004=
200612121900 METAR MRPV 121900Z 09009KT 9999 SCT030 BKN100 26/17 A3001=
200612122000 METAR MRPV 122000Z 09013KT 9999 SCT040 SCT120 26/16 A2999=
200612122100 METAR MRPV 122100Z 07011KT 9999 SCT025 BKN250 26/16 A2998=
200612122200 METAR MRPV 122200Z 09010KT 9999 SCT030 SCT250 25/17 A2998=
200612122300 METAR MRPV 122300Z 10006KT 9999 FEW020 SCT250 24/17 A3000=
200612130000 METAR MRPV 130000Z NIL=
200612130100 METAR MRPV NIL=
200612130200 METAR MRPV NIL=
200612130300 METAR MRPV NIL=
200612130400 METAR MRPV NIL=
200612130500 METAR MRPV NIL=
200612130600 METAR MRPV NIL=
200612130700 METAR MRPV NIL=
200612130800 METAR MRPV NIL=
200612130900 METAR MRPV NIL=
200612131000 METAR MRPV NIL=
200612131100 METAR MRPV NIL=
200612131200 METAR MRPV 131200Z 14008KT CAVOK 18/16 A3004 RMK SCT300=
200612131300 METAR MRPV 131300Z 13004KT CAVOK 20/16 A3007=
200612131400 METAR MRPV NIL=
200612131500 METAR MRPV 131500Z 11004KT CAVOK 25/17 A3008 RMK LEVE HZ W=
200612131600 METAR MRPV 131600Z 27008KT 9999 FEW040 SCT300 24/18 A3007=
200612131700 METAR MRPV 131700Z 27006KT 9999 FEW040 SCT300 25/18 A3006=
200612131800 METAR MRPV 131800Z 27008KT 9999 SCT035 26/18 A3006=
200612131900 METAR MRPV 131900Z 26008KT 9999 SCT030 26/20 A3000 RMK TCU DST E=
200612132000 METAR MRPV 132000Z 27011KT 9999 FEW020TCU SCT030 25/20 A2997=
200612132100 METAR MRPV 132100Z 28010KT 9999 FEW018TCU SCT030 25/20 A2996 RMK RN DST E SE TCU ARND=
200612132200 METAR MRPV 132200Z 27009KT 9999 DZ FEW018TCU SCT025 23/21 A2996 RMK TCU RN ARND=
200612132300 METAR MRPV 132300Z 28010KT 4000 BR FEW006 BKN010 21/20 A2998=
200612140000 METAR MRPV 140000Z 30007KT 5000 BR FEW005 BKN015 20/20 A2999=
200612140100 METAR MRPV NIL=
200612140200 METAR MRPV NIL=
200612140300 METAR MRPV NIL=
200612140400 METAR MRPV NIL=
200612140500 METAR MRPV NIL=
200612140600 METAR MRPV NIL=
200612140700 METAR MRPV NIL=
200612140800 METAR MRPV NIL=
200612140900 METAR MRPV NIL=
200612141000 METAR MRPV NIL=
200612141100 METAR MRPV NIL=
200612141200 METAR MRPV 141200Z 09007KT CAVOK 20/17 A3000 SCT250=
200612141300 METAR MRPV 141300Z 11008KT CAVOK 21/17 A3001/RMK FEW250 HZ DIST W=
200612141400 METAR MRPV 141400Z 12007KT CAVOK 23/18 A3004 RMK HZ DST W=
200612141500 METAR MRPV 141500Z 11009KT 9999 FEW040 26/18 A3004=
200612141600 METAR MRPV 141600Z 08012KT 9999 SCT040 26/17 A3004=
200612141700 METAR MRPV 141700Z 31002KT 9999 FEW030 SCT040 24/20 A3003=
200612141800 METAR MRPV 141800Z 08004KT 9999 FEW020 SCT030 25/20 A2999 RMK RN DST E=
200612141900 METAR MRPV 141900Z 29009KT 9999 FEW018TCU BKN025 26/20 A2997 RMK TCU DST NE=
200612142000 METAR MRPV 142000Z 28008KT 9999 FEW015 SCT025 26/21 A2994 RMK RN NW N NE E=
200612142100 METAR MRPV 142100Z 36004KT 9999 RA FEW010TCU BKN020 22/20 A2993 VIS NW N 3000 DUE RA VIS S 500MTS DUE RA=
200612142200 METAR MRPV 142200Z 25002KT 9999 FEW015 BKN120 21/19 A2994 RERA RMK RASH W=
200612142300 METAR MRPV 142300Z 00000KT 9999 FEW020 BKN120 20/19 A2996=
200612150000 METAR MRPV 150000Z 14002KT 9999 SCT020 BKN120 21/19 A2996 RMK RN SE=
200612150100 METAR MRPV NIL=
200612150200 METAR MRPV NIL=
200612150300 METAR MRPV NIL=
200612150400 METAR MRPV NIL=
200612150500 METAR MRPV NIL=
200612150600 METAR MRPV NIL=
200612150700 METAR MRPV NIL=
200612150800 METAR MRPV NIL=
200612150900 METAR MRPV NIL=
200612151000 METAR MRPV NIL=
200612151100 METAR MRPV NIL=
200612151200 METAR MRPV NIL=
200612151300 METAR MRPV 151300Z 09015G25KT 9999 SCT020 BKN250 20/16 A3001 RMK DZ N NE=
200612151400 METAR MRPV 151400Z 10010KT 9999 SCT020 BKN250 23/16 A3006 RMK DZ N=
200612151500 METAR MRPV 151500Z 10011KT 9999 FEW025 BKN250 23/16 A3004=
200612151600 METAR MRPV 151600Z 07011KT CAVOK 25/15 A3002=
200612151700 METAR MRPV 151700Z 07011KT CAVOK 26/15 A3001=
200612151800 METAR MRPV 151800Z 07011KT CAVOK 26/16 A2997=
200612151900 METAR MRPV 151900Z 08011KT CAVOK 27/15 A2994 RMK TCU S SW=
200612152000 METAR MRPV 152000Z 07009KT CAVOK 27/16 A2992 TCU S SW=
200612152100 METAR MRPV 152100Z 08010KT 9999 FEW030 BKN280 27/16 A2991 RMK CB DST S=
200612152200 METAR MRPV 152200Z 08009KT 9999 FEW025 BKN280 25/18 A2993 RMK CB DST S=
200612152300 METAR MRPV 152300Z 08007KT 9999 FEW015 BKN280 24/17 A2994 RMK CB DST S=
200612160000 METAR MRPV 160000Z 25004KT 9999 SCT010 BKN280 21/20 A2998=
200612160100 METAR MRPV NIL=
200612160200 METAR MRPV NIL=
200612160300 METAR MRPV NIL=
200612160400 METAR MRPV NIL=
200612160500 METAR MRPV NIL=
200612160600 METAR MRPV NIL=
200612160700 METAR MRPV NIL=
200612160800 METAR MRPV NIL=
200612160900 METAR MRPV NIL=
200612161000 METAR MRPV NIL=
200612161100 METAR MRPV NIL=
200612161200 METAR MRPV 161200Z 11008KT CAVOK 19/15 A3000=
200612161300 METAR MRPV 161300Z 14007KT CAVOK 20/14 A3001=
200612161400 METAR MRPV 161400Z 12009KT CAVOK 23/15 A3003=
200612161500 METAR MRPV 161500Z 10011KT CAVOK 23/15 A3002=
200612161600 METAR MRPV 161600Z 09014KT CAVOK 23/15 A3003=
200612161700 METAR MRPV 161700Z 07014KT 9999 FEW030 23/15 A3003=
200612161800 METAR MRPV 161800Z 11011KT 9999 FEW040 27/14 A3001=
200612161900 METAR MRPV 161900Z NIL=
200612162000 METAR MRPV 162000Z 09013KT 9999 SCT040 27/16 A2995=
200612162100 METAR MRPV 162100Z 07010KT 9999 SCT040 27/15 A2994=
200612162200 METAR MRPV 162200Z 08012KT 9999 SCT040 26/15 A2995=
200612162300 METAR MRPV 162300Z 09010KT 9999 SCT040 24/16 A2997=
200612170000 METAR MRPV 170000Z 00000KT 9999 FEW030 26/23 A2977 CB DST E=
200612170100 METAR MRPV NIL=
200612170200 METAR MRPV NIL=
200612170300 METAR MRPV NIL=
200612170400 METAR MRPV NIL=
200612170500 METAR MRPV NIL=
200612170600 METAR MRPV NIL=
200612170700 METAR MRPV NIL=
200612170800 METAR MRPV NIL=
200612170900 METAR MRPV NIL=
200612171000 METAR MRPV NIL=
200612171100 METAR MRPV NIL=
200612171200 METAR MRPV NIL=
200612171300 METAR MRPV 171300Z 12008KT CAVOK 21/16 A3008=
200612171400 METAR MRPV 171400Z 07013KT CAVOK 22/16 A3009=
200612171500 METAR MRPV 171500Z 08016KT CAVOK 24/16 A3009=
200612171600 METAR MRPV 171600Z 07015KT 9999 FEW040 25/17 A3008=
200612171700 METAR MRPV 171700Z 07016KT 9999 FEW035 25/17 A3007=
200612171800 METAR MRPV 171800Z 06016KT 9999 SCT025 25/16 A3004=
200612171900 METAR MRPV 171900Z 07018KT 9999 SCT030 26/16 A3001=
200612172000 METAR MRPV 172000Z 06017KT 9999 SCT040 26/16 A2998=
200612172100 METAR MRPV 172100Z 05015KT 9999 SCT040 25/15 A2997=
200612172200 METAR MRPV 172200Z 06015KT 9999 SCT040 25/15 A2997=
200612172300 METAR MRPV 172300Z 06012KT 9999 FEW035 23/16 A2998=
200612180000 METAR MRPV 180000Z NIL=
200612180100 METAR MRPV NIL=
200612180200 METAR MRPV NIL=
200612180300 METAR MRPV NIL=
200612180400 METAR MRPV NIL=
200612180500 METAR MRPV NIL=
200612180600 METAR MRPV NIL=
200612180700 METAR MRPV NIL=
200612180800 METAR MRPV NIL=
200612180900 METAR MRPV NIL=
200612181000 METAR MRPV NIL=
200612181100 METAR MRPV NIL=
200612181200 METAR MRPV 181200Z 14010KT CAVOK 19/14 A3003 RMK CB DIST S=
200612181300 METAR MRPV 181300Z 10011KT CAVOK 21/15 A3006 RMK CB DST S=
200612181400 METAR MRPV 181400Z 09012KT CAVOK 23/14 A3008=
200612181500 METAR MRPV 181500Z 08015KT CAVOK 24/13 A3009=
200612181600 METAR MRPV 181600Z 05015KT CAVOK 25/15 A3008=
200612181700 METAR MRPV 181700Z NIL=
200612181800 METAR MRPV 181800Z 06018KT 9999 FEW040 26/15 A3007=
200612181900 METAR MRPV 181900Z 08014KT 9999 FEW040 26/15 A3007=
200612182000 METAR MRPV 182000Z 06012KT 9999 FEW040 26/14 A3001=
200612182100 METAR MRPV 182100Z 06015KT 9999 FEW040 26/14 A3001=
200612182200 METAR MRPV 182200Z NIL=
200612182300 METAR MRPV 182300Z 05012KT 9999 SCT030 23/16 A2999=
200612190000 METAR MRPV 190000Z NIL=
200612190100 METAR MRPV NIL=
200612190200 METAR MRPV NIL=
200612190300 METAR MRPV NIL=
200612190400 METAR MRPV NIL=
200612190500 METAR MRPV NIL=
200612190600 METAR MRPV NIL=
200612190700 METAR MRPV NIL=
200612190800 METAR MRPV NIL=
200612190900 METAR MRPV NIL=
200612191000 METAR MRPV NIL=
200612191100 METAR MRPV NIL=
200612191200 METAR MRPV 191200Z 09016KT CAVOK 20/15 A2998=
200612191300 METAR MRPV 191300Z 09018KT CAVOK 21/15 A3000=
200612191400 METAR MRPV 191400Z 08017KT CAVOK 23/15 A3000=
200612191500 METAR MRPV 191500Z 08013KT 9999 FEW035 24/16 A3003=
200612191600 METAR MRPV 191600Z 08017KT 9999 FEW040 25/16 A3002 RMK G23KT=
200612191700 METAR MRPV 191700Z 08015KT 9999 SCT035 24/16 A3002=
200612191800 METAR MRPV 191800Z 06013KT 9999 BKN030 24/17 A3000=
200612191900 METAR MRPV 191900Z 07016KT 9999 SCT040 25/16 A2977 RMK DZ DST N=
200612192000 METAR MRPV 192000Z 07013KT 9999 SCT035 26/16 A2995=
200612192100 METAR MRPV 192100Z 07012KT 9999 SCT040 26/16 A2994=
200612192200 METAR MRPV 192200Z 06016KT 9999 SCT035 24/16 A2995=
200612192300 METAR MRPV 192300Z 07013KT 9999 FEW035 23/16 A2996=
200612200000 METAR MRPV NIL=
200612200100 METAR MRPV NIL=
200612200200 METAR MRPV NIL=
200612200300 METAR MRPV NIL=
200612200400 METAR MRPV NIL=
200612200500 METAR MRPV NIL=
200612200600 METAR MRPV NIL=
200612200700 METAR MRPV NIL=
200612200800 METAR MRPV NIL=
200612200900 METAR MRPV NIL=
200612201000 METAR MRPV NIL=
200612201100 METAR MRPV NIL=
200612201200 METAR MRPV 201200Z 12010KT CAVOK 19/15 A3001=
200612201300 METAR MRPV 201300Z 11008KT CAVOK 20/15 A3003=
200612201400 METAR MRPV 201400Z 11012KT CAVOK 22/16 A3005=
200612201500 METAR MRPV 201500Z 09015KT CAVOK 24/16 A3004=
200612201600 METAR MRPV 07013KT 9999 FEW040 25/17 A3003=
200612201700 METAR MRPV 201700Z 06012KT 9999 FEW040 26/16 A3001=
200612201800 METAR MRPV 201800Z 07010KT 9999 FEW040 27/16 A2998=
200612201900 METAR MRPV 201900Z 08015KT 9999 FEW040 27/17 A2994=
200612202000 METAR MRPV 202000Z 08015KT 9999 FEW018 SCT035 27/17 A2993=
200612202100 METAR MRPV 202100Z 07010KT 9999 FEW015 SCT040 27/17 A2993 RMK TCU DIST N/W=
200612202200 METAR MRPV 202200Z 08010KT 9999 VCSH FEW015TCU FEW030 SCT100 25/18 A2994 RMK VIS NW 6KMS RASH DST SW=
200612202300 METAR MRPV 202300Z 27006KT 9999 VCSH FEW008 FEW012CB SCT025 23/20 A2996 RMK VIS W 6KMS=
200612210000 METAR MRPV NIL=
200612210100 METAR MRPV NIL=
200612210200 METAR MRPV NIL=
200612210300 METAR MRPV NIL=
200612210400 METAR MRPV NIL=
200612210500 METAR MRPV NIL=
200612210600 METAR MRPV NIL=
200612210700 METAR MRPV NIL=
200612210800 METAR MRPV NIL=
200612210900 METAR MRPV NIL=
200612211000 METAR MRPV NIL=
200612211100 METAR MRPV NIL=
200612211200 METAR MRPV 211200Z 09005KT CAVOK 18/14 A3004=
200612211300 METAR MRPV 211300Z 11008KT CAVOK 21/15 A3006 DUST ON APCH09=
200612211400 METAR MRPV 211400Z 11010KT CAVOK 23/15 A3008=
200612211500 METAR MRPV 211500Z 09008KT CAVOK 25/15 A3009=
200612211600 METAR MRPV 211600Z 10008KT CAVOK 26/15 A3008=
200612211700 METAR MRPV 211700Z 07008KT 9999 FEW045 27/14 A3006=
200612211800 METAR MRPV 211800Z 26007KT 9999 SCT040 26/19 A3004=
200612211900 METAR MRPV 211900Z 23005KT 9999 SCT035 26/19 A3004=
200612212000 METAR MRPV 212000Z 20006KT 9999 SCT035 26/19 A2998=
200612212100 METAR MRPV 212100Z 25007KT 9999 -RA FEW015TCU BKN030 25/20 A2998=
200612212200 METAR MRPV 212200Z 29007KT 9999 VCFG FEW007 BKN018 23/20 A2999 RERA VSBY NW 7KM DUE RN/FG=
200612212300 METAR MRPV 212300Z 28007KT 9999 4000W VCSH FEW007 FEW010CB BKN020 22/19 2999 RERA TS SW=
200612220000 METAR MRPV 220000Z NIL=
200612220100 METAR MRPV NIL=
200612220200 METAR MRPV NIL=
200612220300 METAR MRPV NIL=
200612220400 METAR MRPV NIL=
200612220500 METAR MRPV NIL=
200612220600 METAR MRPV NIL=
200612220700 METAR MRPV NIL=
200612220800 METAR MRPV NIL=
200612220900 METAR MRPV NIL=
200612221000 METAR MRPV NIL=
200612221100 METAR MRPV NIL=
200612221200 METAR MRPV 221200Z 13010KT CAVOK 19/16 A3003=
200612221300 METAR MRPV 221300Z 10010KT CAVOK 20/16 A3005=
200612221400 METAR MRPV 221400Z 11010KT CAVOK 23/16 A3007=
200612221500 METAR MRPV 221500Z 11012KT CAVOK 25/16 A3007=
200612221600 METAR MRPV 221600Z 09012KT 9999 FEW030 27/15 A3007=
200612221700 METAR MRPV 221700Z 36007KT 9999 FEW035 27/15 A3005=
200612221800 METAR MRPV 221800Z 28014KT 9999 SCT030 26/19 A3003 DU PISTA 09=
200612221900 METAR MRPV 221900Z 28015KT 9999 SCT030 26/19 A3000 DU PISTA 09=
200612222000 METAR MRPV 222000Z 29014KT 9999 FEW018 SCT030 26/20 A2999 DU PISTA 09=
200612222100 METAR MRPV 222100Z 27014KT 9999 SCT015 SCT030 25/20 A29999 RMK RN DST NE POLVO PISTA 09=
200612222200 METAR MRPV 222200Z 28012KT 9999 SCT012 BKN030 24/20 A2999 RMK POLVO PISTA 09 HZ W N RN DST N=
200612222300 METAR MRPV 222300Z 31009KT 3000 RA SCT002 BKN015 21/20 A3001=
200612230000 METAR MRPV NIL=
200612230100 METAR MRPV NIL=
200612230200 METAR MRPV NIL=
200612230300 METAR MRPV NIL=
200612230400 METAR MRPV NIL=
200612230500 METAR MRPV NIL=
200612230600 METAR MRPV NIL=
200612230700 METAR MRPV NIL=
200612230800 METAR MRPV NIL=
200612230900 METAR MRPV NIL=
200612231000 METAR MRPV NIL=
200612231100 METAR MRPV NIL=
200612231200 METAR MRPV 231200Z 12010KT 9999 FEW028 20/16 A3002 RMK PCPN DST SE=
200612231300 METAR MRPV 231300Z 11010KT 9999 FEW028 21/17 A3005=
200612231400 METAR MRPV 231400Z 10014KT 9999 FEW025 23/17 A3007 RMK RN DST NE=
200612231500 METAR MRPV 231500Z 08020KT 9999 FEW020 24/18 A3007 RMK RN DST NE=
200612231600 METAR MRPV 231600Z 06020KT 9999 SCT020 25/17 A3006=
200612231700 METAR MRPV 231700Z 06018KT 9999 SCT020 25/17 A3005 RMK RN DST NW=
200612231800 METAR MRPV 231800Z 07016KT 9999 SCT020 26/17 A3001 RMK RN DST NW=
200612231900 METAR MRPV 231900Z 07015KT 9999 SCT020 27/17 A2999 RMR RN DST NW=
200612232000 METAR MRPV 232000Z 08012KT 9999 FEW015 SCT030 26/18 A2996 RMK RN DST NW=
200612232100 METAR MRPV 232100Z 08016KT 9999 SCT025 27/17 A2994=
200612232200 METAR MRPV 232200Z 08017KT 9999 FEW015 SCT030 25/18 A2995 RMK RN DST NE=
200612232300 METAR MRPV 232300Z 09014KT 9999 FEW015 SCT030 23/18 A2998 RMK RN DST NE CB DST SW=
200612240000 METAR MRPV 240000Z NIL=
200612240100 METAR MRPV NIL=
200612240200 METAR MRPV NIL=
200612240300 METAR MRPV NIL=
200612240400 METAR MRPV NIL=
200612240500 METAR MRPV NIL=
200612240600 METAR MRPV NIL=
200612240700 METAR MRPV NIL=
200612240800 METAR MRPV NIL=
200612240900 METAR MRPV NIL=
200612241000 METAR MRPV NIL=
200612241100 METAR MRPV NIL=
200612241200 METAR MRPV NIL=
200612241300 METAR MRPV 241300Z 12012KT CAVOK 22/17 A3002=
200612241400 METAR MRPV 241400Z 11015KT CAVOK 24/17 A3004=
200612241500 METAR MRPV 241500Z 08015KT 9999 FEW040 26/18 A3005 RMK RN DST NE=
200612241600 METAR MRPV NIL=
200612241700 METAR MRPV 241700Z 07020KT 9999 SCT035 27/18 A3004 RMK RN DST NE=
200612241800 METAR MRPV 241800Z 09014KT 9999 SCT030 28/19 A3000 RMK RN DST NE=
200612241900 METAR MRPV 241900Z 09014KT 9999 SCT030 29/18 A2997 RMK RN DST NE NW=
200612242000 METAR MRPV 242000Z 06010KT 9999 FEW015TCU SCT030 28/18 A2996 RMK RN DST NE RASH DST NW=
200612242100 METAR MRPV NIL=
200612242200 METAR MRPV 242200Z 28008KT 9999 FEW008 SCT020 BKN250 23/19 A2997 RMK CB SW=
200612242300 METAR MRPV 242300Z 31006KT 9999 FEW006 SCT020 BKN250 22/20 A2998=
200612250000 METAR MRPV NIL=
200612250100 METAR MRPV NIL=
200612250200 METAR MRPV NIL=
200612250300 METAR MRPV NIL=
200612250400 METAR MRPV NIL=
200612250500 METAR MRPV NIL=
200612250600 METAR MRPV NIL=
200612250700 METAR MRPV NIL=
200612250800 METAR MRPV NIL=
200612250900 METAR MRPV NIL=
200612251000 METAR MRPV NIL=
200612251100 METAR MRPV NIL=
200612251200 METAR MRPV 251200Z 11008KT CAVOK 21/16 A3000=
200612251300 METAR MRPV 251300Z 12008KT CAVOK 22/17 A3002 RMK CB N=
200612251400 METAR MRPV NIL=
200612251500 METAR MRPV 251500Z 10015KT 9999 FEW035 25/18 A3006 RMK DZ N=
200612251600 METAR MRPV 251600Z 08014G24KT 9999 FEW035 26/18 A3005=
200612251700 METAR MRPV 251700Z 08012KT 9999 FEW035 SCT120 27/20 A3001=
200612251800 METAR MRPV 251800Z 09015KT 9999 BKN035 25/17 A3000=
200612251900 METAR MRPV NIL=
200612252000 METAR MRPV 252000Z 10010KT 9999 BKN030 24/17 A2994=
200612252100 METAR MRPV 252100Z 08014KT 9999 FEW025 SCT100 25/18 A2993 RMK TCU DIST S=
200612252200 METAR MRPV 252200Z 10013KT 9999 -DZ FEW015 BKN030 23/17 A2994=
200612252300 METAR MRPV NIL=
200612260000 METAR MRPV NIL=
200612260100 METAR MRPV NIL=
200612260200 METAR MRPV NIL=
200612260300 METAR MRPV NIL=
200612260400 METAR MRPV NIL=
200612260500 METAR MRPV NIL=
200612260600 METAR MRPV NIL=
200612260700 METAR MRPV NIL=
200612260800 METAR MRPV NIL=
200612260900 METAR MRPV NIL=
200612261000 METAR MRPV NIL=
200612261100 METAR MRPV NIL=
200612261200 METAR MRPV 261200Z 10008KT 9999 FEW020 SVY140 21/17 A3001=
200612261300 METAR MRPV 261300Z 12010KT 9999 FEW025 SCT140 22/17 A3003=
200612261400 METAR MRPV NIL=
200612261500 METAR MRPV 261500Z 07017KT 9999 FEW040 24/17 A3006 RMK RFGS 23KT=
200612261600 METAR MRPV NIL=
200612261700 METAR MRPV 261700Z 08015G25KT 9999 FEW045 25/17 A3004=
200612261800 METAR MRPV 261800Z 06015KT 9999 FEW045 26/16 A3002 RMK RFGS 21KT=
200612261900 METAR MRPV NIL=
200612262000 METAR MRPV 262000Z 09015KT 9999 SCT035 26/16 A2997 RMK RFGS 21KT=
200612262100 METAR MRPV 262100Z 06012G22KT 9999 SCT040 25/16 A2997 NOSIG=
200612262200 METAR MRPV NIL=
200612262300 METAR MRPV 262300Z 10012KT 9999 FEW035 22/16 A3000 DZ N NE RAFAGAS 18KT=
200612270000 METAR MRPV 270000Z=
200612270100 METAR MRPV NIL=
200612270200 METAR MRPV NIL=
200612270300 METAR MRPV NIL=
200612270400 METAR MRPV NIL=
200612270500 METAR MRPV NIL=
200612270600 METAR MRPV NIL=
200612270700 METAR MRPV NIL=
200612270800 METAR MRPV NIL=
200612270900 METAR MRPV NIL=
200612271000 METAR MRPV NIL=
200612271100 METAR MRPV NIL=
200612271200 METAR MRPV 271200Z 10015G25KT 9999 DZ SCT020 BKN100 18/14 A3005 RN DST N=
200612271300 METAR MRPV 271300Z 10020G30KT 9999 SCT025 BKN100 18/13 A3007 REDZ RN ARND=
200612271400 METAR MRPV 271400Z 09024G34KT 9999 -DZ SCT025 BKN100 19/13 A3010 RN N=
200612271500 METAR MRPV 271500Z 10022G32KT 9999 FEW025 BKN100 20/14 A3010 REDZ DZ N=
200612271600 METAR MRPV 271600Z 09020G30KT 9999 FEW025 BKN100 20/14 A3009 RN DST N=
200612271700 METAR MRPV 271700Z 10016G26KT 9999 SCT025 SCT100 21/15 A3008 DZ N NE E=
200612271800 METAR MRPV 271800Z 09020G30KT 9999 FEW025 SCT120 22/15 A3004 DZ N=
200612271900 METAR MRPV 271900Z 09018G28KT 9999 FEW025 SCT120 21/15 A3001 DZ N=
200612272000 METAR MRPV 272000Z 10016G26KT 9999 FEW030 BKN120 22/15 A3000 DZ N=
200612272100 METAR MRPV 272100Z 08019KT 9999 FEW030 SCT120 22/15 A2999 RMK DZ DST QUAD N RAFAGAS 24KT=
200612272200 METAR MRPV 272200Z 08014KT 9999 FEW030 BKN120 22/15 A3000 RMK DZ DST NW N NE E=
200612272300 METAR MRPV 272300Z 10013KT 9999 FEW030 SCT120 20/15 A3001 RMK DZ DST QUAD N E=
200612280000 METAR MRPV 280000Z NIL=
200612280100 METAR MRPV NIL=
200612280200 METAR MRPV NIL=
200612280300 METAR MRPV NIL=
200612280400 METAR MRPV NIL=
200612280500 METAR MRPV NIL=
200612280600 METAR MRPV NIL=
200612280700 METAR MRPV NIL=
200612280800 METAR MRPV NIL=
200612280900 METAR MRPV NIL=
200612281000 METAR MRPV NIL=
200612281100 METAR MRPV NIL=
200612281200 METAR MRPV NIL=
200612281300 METAR MRPV 281300Z 10015KT 9999 FEW008 BKN090 20/16 A3005=
200612281400 METAR MRPV 281400Z 11015G25KT 9999 FEW010 SCT100 22/16 A3006 RMK RN DST NE=
200612281500 METAR MRPV NIL=
200612281600 METAR MRPV 281600Z 08020KT 9999 FEW012 SCT100 24/17 A3007 RMK RN DST NE=
200612281700 METAR MRPV 281700Z 09015G25KT 9999 SCT012 SCT100 22/17 A3006 RMK RN DST NE=
200612281800 METAR MRPV 281800Z 07015G25KT 9999 FEW010 SCT030 24/17 A3002=
200612281900 METAR MRPV 281900Z 09016KT 9999 FEW010 SCT030 24/17 A3000 RMK RN DST NE=
200612282000 METAR MRPV 282000Z 09017KT 9999 FEW010 SCT030 23/17 A2997 RMK RN DST NE TCU DST SSW=
200612282100 METAR MRPV 282100Z 08020KT 9999 SCT010 SCT030 23/16 A2996 RMK RN NE TCU DST SSW=
200612282200 METAR MRPV 282200Z 08018KT 9999 SCT010 SCT030 23/17 A2996 RMK RN NE=
200612282300 METAR MRPV 282300Z 09015KT 9999 SCT010 SCT030 21/17 A17 A2998 RMK RN DST NE=
200612290000 METAR MRPV 290000Z NIL=
200612290100 METAR MRPV NIL=
200612290200 METAR MRPV NIL=
200612290300 METAR MRPV NIL=
200612290400 METAR MRPV NIL=
200612290500 METAR MRPV NIL=
200612290600 METAR MRPV NIL=
200612290700 METAR MRPV NIL=
200612290800 METAR MRPV NIL=
200612290900 METAR MRPV NIL=
200612291000 METAR MRPV NIL=
200612291100 METAR MRPV NIL=
200612291200 METAR MRPV 291200Z 09018KT 9999 FEW026 20/16 A3002 RN NE=
200612291300 METAR MRPV 291300Z 09020KT 9999 FEW026 20/15 A3003 RMK RN NE=
200612291400 METAR MRPV 291400Z 10020KT 9999 SCT024 21/16 A3006 RMK RN NE=
200612291500 METAR MRPV 291500Z 10015G25KT 9999 SCT026 22/16 A3006 RMK RN NE=
200612291600 METAR MRPV 291600Z 09014G24KT 9999 FEW028 25/16 A3006 RMK DZ NE=
200612291700 METAR MRPV 291700Z 07014G24KT 9999 FEW026 25/16 A3004 RMK DZ NE=
200612291800 METAR MRPV 291800Z 07014G24KT 9999 FEW027 26/17 A3001 RMK DZ NE=
200612291900 METAR MRPV 291900Z 07014G24KT 9999 FEW028 26/18 A2998 RMK DZ NE=
200612292000 METAR MRPV 292000Z 08016G26KT 9999 FEW029 25/17 A2995 RMK DZ NE=
200612292100 METAR MRPV 292100Z 07019G29KT 9999 FEW033 24/17 A2994 RMK RN NE=
200612292200 METAR MRPV 292200Z 07022KT 9999 FEW021 24/16 A2995 RMK RN NE=
200612292300 METAR MRPV 292300Z 09020KT FEW020 23/17 A2996 RMK RN NE=
200612300000 METAR MRPV NIL=
200612300100 METAR MRPV NIL=
200612300200 METAR MRPV NIL=
200612300300 METAR MRPV NIL=
200612300400 METAR MRPV NIL=
200612300500 METAR MRPV NIL=
200612300600 METAR MRPV NIL=
200612300700 METAR MRPV NIL=
200612300800 METAR MRPV NIL=
200612300900 METAR MRPV NIL=
200612301000 METAR MRPV NIL=
200612301100 METAR MRPV NIL=
200612301200 METAR MRPV 301200Z 10015KT 9999 FEW018 20/16 A3001=
200612301300 METAR MRPV 301300Z 10014KT 9999 FEW018 20/16 A3003=
200612301400 METAR MRPV 301400Z 10015KT CAVOK 23/16 A3004=
200612301500 METAR MRPV NIL=
200612301600 METAR MRPV 301600Z 09020KT CAVOK 25/16 A3003=
200612301700 METAR MRPV 301700Z 08019KT CAVOK 26/13 A3002=
200612301800 METAR MRPV 301800Z 08021KT CAVOK 26/17 A3000=
200612301900 METAR MRPV 301900Z 09020KT 9999 FEW030 27/17 A2997=
200612302000 METAR MRPV 302000Z 08020KT 9999 FEW030 26718 A2994 RMK RN NE=
200612302100 METAR MRPV 302100Z 08020KT 9999 SCT030 25/18 A2993 RMK PCPN DST NE=
200612302200 METAR MRPV NIL=
200612302300 METAR MRPV 302300Z 09022KT 9999 SCT022 22/17 A2995 RMK PCPN DIST NE=
200612310000 METAR MRPV NIL=
200612310100 METAR MRPV NIL=
200612310200 METAR MRPV NIL=
200612310300 METAR MRPV NIL=
200612310400 METAR MRPV NIL=
200612310500 METAR MRPV NIL=
200612310600 METAR MRPV NIL=
200612310700 METAR MRPV NIL=
200612310800 METAR MRPV NIL=
200612310900 METAR MRPV NIL=
200612311000 METAR MRPV NIL=
200612311100 METAR MRPV NIL=
200612311200 METAR MRPV 311200Z 11011KT 9999 SCT025 20/16 A3000 RMK DZ NE=
200612311300 METAR MRPV 311300Z 10010KT 9999 FEW025 21/16 A3002 DZ N NE=
200612311400 METAR MRPV 311400Z 09013KT 9999 BKN025 22/17 A3004 RMK DZ OVER MNTS TO N NE RFGS 18KT=
200612311500 METAR MRPV 311500Z 07012KT 9999 SCT030 23/17 A3005 RMK RFGS 17KT DZ OVER MNTS TO N NE=
200612311600 METAR MRPV 311600Z 09015KT 9999 FEW030 24/18 A3004 RMK RFGS 22KT DZ OVER MNTS TO N NE=
200612311700 METAR MRPV 311700Z 08015KT 9999 BKN025 23/17 A3003 RMK DZ OVER MNTS TO N NE RFGS 20KT=
200612311800 METAR MRPV 311800Z 11013G23KT 9999 BKN025 23/17 A3001 RMK DZ N NE=
200612311900 METAR MRPV 311900Z 09014KT 9999 BKN030 23/17 A2998 RMK DZ N NE RFGS 20KT=
200612312000 METAR MRPV 312000Z 10015KT 9999 BKN025 23/17 A2996 RMK RFGS 20KT=
200612312100 METAR MRPV NIL=
200612312200 METAR MRPV 312200Z 11011KT 9999 SCT035 23/16 A2996 RGS18KT=
200612312300 METAR MRPV 312300Z 10014KT 9999 SCT035 22/16 A2994=
