200701010000 METAR MRPV 010000Z 12011KT 9999 FEW030 22/15 A2997=
200701010100 METAR MRPV NIL=
200701010200 METAR MRPV NIL=
200701010300 METAR MRPV NIL=
200701010400 METAR MRPV NIL=
200701010500 METAR MRPV NIL=
200701010600 METAR MRPV NIL=
200701010700 METAR MRPV NIL=
200701010800 METAR MRPV NIL=
200701010900 METAR MRPV NIL=
200701011000 METAR MRPV NIL=
200701011100 METAR MRPV NIL=
200701011200 METAR MRPV 011200Z 14007KT CAVOK 19/15 A2997=
200701011300 METAR MRPV 011300Z 12010KT CAVOK 21/16 A2999=
200701011400 METAR MRPV 011400Z 10011KT 9999 FEW030 22/17 A3003=
200701011500 METAR MRPV 011500Z 08013KT 9999 FEW035 23/16 A3003 RAF/18KT=
200701011600 METAR MRPV 011600Z 07013KT 9999 FEW040 25/19 A3002 RAF/19KT=
200701011700 METAR MRPV 011700Z 09013KT 9999 FEW040 26/16 A3001=
200701011800 METAR MRPV 011800Z 07014KT 9999 FEW045 27/17 A2998=
200701011900 METAR MRPV 011900Z 0901525KT 9999 FEW045 27/17 A2995=
200701012000 METAR MRPV 012000Z 08015KT 9999 FEW045 27/16 A2993=
200701012100 METAR MRPV 012100Z 07016KT 9999 FEW045 27/17 A2991=
200701012200 METAR MRPV 012200Z 08020KT 9999 FEW035 23/18 A2992 RMK RAFAGAS 26KT DZ DST NE TCU DST SW=
200701012300 METAR MRPV 012300Z 09014KT 9999 FEW030 22/17 A2993=
200701020000 METAR MRPV 020000Z NIL=
200701020100 METAR MRPV NIL=
200701020200 METAR MRPV NIL=
200701020300 METAR MRPV NIL=
200701020400 METAR MRPV NIL=
200701020500 METAR MRPV NIL=
200701020600 METAR MRPV NIL=
200701020700 METAR MRPV NIL=
200701020800 METAR MRPV NIL=
200701020900 METAR MRPV NIL=
200701021000 METAR MRPV NIL=
200701021100 METAR MRPV NIL=
200701021200 METAR MRPV 021200Z 11013KT CAVOK 20/14 A2998=
200701021300 METAR MRPV 021300Z 10012KT CAVOK 21/14 A2999 RMK RAFAGAS 18KT=
200701021400 METAR MRPV 021400Z 11014KT CAVOK 23/14 A3002 RMK GUST 21KT=
200701021500 METAR MRPV 021500Z 08017KT CAVOK 24/15 A3002 RMK GUST 24KT=
200701021600 METAR MRPV 021600Z 06016KT CAVOK 25/15 A3001 RMK GUST 22KT=
200701021700 METAR MRPV 021700Z 07020KT 9999 FEW048 25/15 A2999 RMK GUST 27KT=
200701021800 METAR MRPV 021800Z 06018KT CAVOK 25/16 A2997 RMK GUST 24KT=
200701021900 METAR MRPV 021900Z 07019KT 9999 FEW045 27/16 A2995/RMK GUST 25KT=
200701022000 METAR MRPV 022000Z 06017KT 9999 FEW045 26/16 A29/92 RMK RAFAGAS HASTA 23KT=
200701022100 METAR MRPV 022100Z 09015G25KT 9999 FEW040 26/17 A2990=
200701022200 METAR MRPV 022200Z 09017KT 9999 FEW040 25/18 A2991 RMK DZ DST NE=
200701022300 METAR MRPV 022300Z 07015G25KT 9999 FEW025 SCT250 23/18 A2992=
200701030000 METAR MRPV 030000Z 07015KT 9999 SCT030 22/18 A2993 RMK DZ NE RAFAGAS 23KT=
200701030100 METAR MRPV NIL=
200701030200 METAR MRPV NIL=
200701030300 METAR MRPV NIL=
200701030400 METAR MRPV NIL=
200701030500 METAR MRPV NIL=
200701030600 METAR MRPV NIL=
200701030700 METAR MRPV NIL=
200701030800 METAR MRPV NIL=
200701030900 METAR MRPV NIL=
200701031000 METAR MRPV NIL=
200701031100 METAR MRPV NIL=
200701031200 METAR MRPV NIL=
200701031300 METAR MRPV 031300Z 09020KT 9999 FEW025 21/16 A3001=
200701031400 METAR MRPV 031400Z 09020KT 9999 FEW020 22/16 A3004=
200701031500 METAR MRPV 031500Z 08015G25KT 9999 FEW025 23/15 A3004=
200701031600 METAR MRPV 031600Z 07015G25KT 9999 FEW030 23/16 A3003=
200701031700 METAR MRPV 031700Z 07017G27KT 9999 FEW022 24/16 A3002=
200701031800 METAR MRPV 031800Z 07018G28KT 9999 FEW022 25/16 A3000 RMK RN DST NE=
200701031900 METAR MRPV 031900Z 07020G30KT 9999 FEW022 26/15 A2997 RMK RN DST NE=
200701032000 METAR MRPV 032000Z 07018G28KT 9999 FEW022 25/15 A2995 RMK RN DST NE=
200701032100 METAR MRPV 032100Z 07015G25KT 9999 FEW022 25/15 A2994 RMK RN NE=
200701032200 METAR MRPV 032200Z 07020KT 9999 FEW025 24/16 A2995=
200701032300 METAR MRPV 032300Z 09018KT 9999 FEW025 23/16 A2995 RMK RN NE=
200701040000 METAR MRPV NIL=
200701040100 METAR MRPV NIL=
200701040200 METAR MRPV NIL=
200701040300 METAR MRPV NIL=
200701040400 METAR MRPV NIL=
200701040500 METAR MRPV NIL=
200701040600 METAR MRPV NIL=
200701040700 METAR MRPV NIL=
200701040800 METAR MRPV NIL=
200701040900 METAR MRPV NIL=
200701041000 METAR MRPV NIL=
200701041100 METAR MRPV NIL=
200701041200 METAR MRPV NIL=
200701041300 METAR MRPV 041300Z 10020KT 9999 FEW028 21/16 A2998 RMK RN N NE=
200701041400 METAR MRPV 041400Z 09016G26KT 9999 SCT025 21/17 A3001 RMK RN NNE=
200701041500 METAR MRPV 041500Z 09015G25KT 9999 SCT022 22/16 A3002=
200701041600 METAR MRPV 041600Z 09015G25KT 9999 SCT022 24/17 A3002 RMK RN N NE=
200701041700 METAR MRPV 041700Z 08016G26KT 9999 SCT022 24/17 A3001 RMK RN N NE=
200701041800 METAR MRPV 041800Z 09022KT 9999 BKN025 23/17 A3000 RMK RN N NE=
200701041900 METAR MRPV 041900Z 09015G25KT 9999 SCT022 25/17 A2997=
200701042000 METAR MRPV 042000Z 08020KT 9999 BKN022 24/17 A2994 RMK RN N NE=
200701042100 METAR MRPV 042100Z 09020KT 9999 BKN022 24/17 A2993 RMK PCPN DIST N NE=
200701042200 METAR MRPV 042200Z 08020KT 9999 BKN022 22/17 A2994 RMK PCPN DST N NE=
200701042300 METAR MRPV 042300Z 09016KT 9999 BKN022 21/17 A2995RMK PCPN N NE=
200701050000 METAR MRPV NIL=
200701050100 METAR MRPV NIL=
200701050200 METAR MRPV NIL=
200701050300 METAR MRPV NIL=
200701050400 METAR MRPV NIL=
200701050500 METAR MRPV NIL=
200701050600 METAR MRPV NIL=
200701050700 METAR MRPV NIL=
200701050800 METAR MRPV NIL=
200701050900 METAR MRPV NIL=
200701051000 METAR MRPV NIL=
200701051100 METAR MRPV NIL=
200701051200 METAR MRPV 051200Z 12010KT 9999 SCT020 BKN250 20/17 A2994=
200701051300 METAR MRPV 051300Z 12012KT 9999 SCT020 BKN250 22/17 A2996 RMK PCPN DST N NE=
200701051400 METAR MRPV 051400Z 12014KT 9999 SCT020 BKN250 24/18 A2999 RMK DZ DST N NE=
200701051500 METAR MRPV 051500Z 09018KT 9999 SCT020 BKN250 23/18 A2999 RMK DZ DST N NE=
200701051600 METAR MRPV 051600Z 09016KT 9999 SCT020 BKN250 24/19 A3000 RMK DZ DST N NE=
200701051700 METAR MRPV 051700Z 0801212G22KT 9999 SCT020 SCT250 24/18 A2998 RMK DZ DST N NE=
200701051800 METAR MRPV 051800Z 09012G22KT 9999 SCT022 SCT035 24/18 A2996 RMK PCPN DST N NE=
200701051900 METAR MRPV 051900Z 11010G20KT 9999 SCT022 SCT035 26/19 A2992 RMK PCPN DST N NE=
200701052000 METAR MRPV 052000Z 08010G20KT 9999 SCT022 SCT035 26/18 A2990 RMK PCPN DST N NE=
200701052100 METAR MRPV 052100Z 09018KT 9999 SCT020 SCT250 25/18 A2989=
200701052200 METAR MRPV 052200Z 10010G20KT 9999 SCT025 SCT250 25/18 A2989 RN N NE=
200701052300 METAR MRPV 052300Z 09012G22KT 9999 FEW015 BKN026 23/18 A2991 RN N=
200701060000 METAR MRPV 060000Z=
200701060100 METAR MRPV NIL=
200701060200 METAR MRPV NIL=
200701060300 METAR MRPV NIL=
200701060400 METAR MRPV NIL=
200701060500 METAR MRPV NIL=
200701060600 METAR MRPV NIL=
200701060700 METAR MRPV NIL=
200701060800 METAR MRPV NIL=
200701060900 METAR MRPV NIL=
200701061000 METAR MRPV NIL=
200701061100 METAR MRPV NIL=
200701061200 METAR MRPV 061200Z 10012KT 9999 FEW025 SCT250 20/17 A2995 RMK DZ N NE=
200701061300 METAR MRPV 061300Z 10013KT 9999 FEW025 21/17 A2997 RMK DZ DST N RAFAGAS 20KT=
200701061400 METAR MRPV 061400Z 10015KT 9999 FEW025 22/18 A2999 DZ NE=
200701061500 METAR MRPV 061500Z 08017KT 9999 FEW030 24/18 A3000 DZ N NE GTS23KT=
200701061600 METAR MRPV 061600Z 08015G25KT 9999 SCT030 24/18 A3000 DZ N NE=
200701061700 METAR MRPV 061700Z 08015KT 9999 SCT030 SCT250 25/18 A2998 DZ N NE GTS20KT=
200701061800 METAR MRPV 061800Z 07013KT 9999 BKN030 25/18 A2996 DZ N NE GTS18KT=
200701061900 METAR MRPV 061900Z 08015KT 9999 BKN030 24/18 A2993 DZ N NE GTS 21KT=
200701062000 METAR MRPV 062000Z 07014KT 9999 FEW030 BKN250 25/18 A2991=
200701062100 METAR MRPV 062100Z 06015G25KT 9999 FEW025 BKN270 25/17 A2991=
200701062200 METAR MRPV 062200Z 07016G26KT 9999 FEW030 BKN270 24/17 A2991 RMK DZ DST N=
200701062300 METAR MRPV 062300Z 08014KT 9999 FEW030 BKN270 23/18 A2992 RMK DZ DST N=
200701070000 METAR MRPV 070000Z NIL=
200701070100 METAR MRPV NIL=
200701070200 METAR MRPV NIL=
200701070300 METAR MRPV NIL=
200701070400 METAR MRPV NIL=
200701070500 METAR MRPV NIL=
200701070600 METAR MRPV NIL=
200701070700 METAR MRPV NIL=
200701070800 METAR MRPV NIL=
200701070900 METAR MRPV NIL=
200701071000 METAR MRPV NIL=
200701071100 METAR MRPV NIL=
200701071200 METAR MRPV 071200Z 11014KT CAVOK 19/15 A2998=
200701071300 METAR MRPV 071300Z 09017KT CAVOK 20/14 A3000 RMK GUST 24KT=
200701071400 METAR MRPV 071400Z 10014KT CAVOK 22/13 A3002 RMK GUST 24KT=
200701071500 METAR MRPV 071500Z 08020KT CAVOK 23/14 A3001 RMK GUST 25KT=
200701071600 METAR MRPV 071600Z 07020KT CAVOK 23/16 A3000 RMK GUST 26KT=
200701071700 METAR MRPV 071700Z 07018G28KT CAVOK 24/17 A2999=
200701071800 METAR MRPV 071800Z 07017KT 9999 FEW045 25/16 A2997 RMK GUST 23KT=
200701071900 METAR MRPV 071900Z 06015KT 9999 FEW045 25/15 A2994 RMK GUST 21KT=
200701072000 METAR MRPV 072000Z 07015KT 9999 FEW045 26/15 A2992 RMK GUST 22KT=
200701072100 METAR MRPV 072100Z 06017KT 9999 FEW045 25/17 A2991 RMK GST 23KT=
200701072200 METAR MRPV 072200Z 06015KT 9999 FEW045 24/14 A2992 RMK GST 21KT=
200701072300 METAR MRPV 072300Z 07016KT 9999 FEW040 22/15 A2993=
200701080000 METAR MRPV 080000Z NIL=
200701080100 METAR MRPV NIL=
200701080200 METAR MRPV NIL=
200701080300 METAR MRPV NIL=
200701080400 METAR MRPV NIL=
200701080500 METAR MRPV NIL=
200701080600 METAR MRPV NIL=
200701080700 METAR MRPV NIL=
200701080800 METAR MRPV NIL=
200701080900 METAR MRPV NIL=
200701081000 METAR MRPV NIL=
200701081100 METAR MRPV NIL=
200701081200 METAR MRPV 081200Z 14010KT CAVOK 18/13 A3000=
200701081300 METAR MRPV 081300Z 11010KT CAVOK 20/15 A3002 RMK GST 16KT=
200701081400 METAR MRPV 081400Z 08017KT CAVOK 21/15 A3004 RMK RST 23KT=
200701081500 METAR MRPV 081500Z 08016KT CAVOK 23/15 A3005 RMK GST 22KT=
200701081600 METAR MRPV 081600Z 07017KT CAVOK 24/15 A3004=
200701081700 METAR MRPV 081700Z 06017KT CAVOK 25/14 A3002 RMK GST 24KT=
200701081800 METAR MRPV 081800Z 06018KT CAVOK 25/14 A2996 RMK GST 24KT ARND LEVE FU=
200701081900 METAR MRPV 081900Z 06018KT CAVOK 25/14 A2997 RMK GST 24KT=
200701082000 METAR MRPV 082000Z 06018KT 9999 FEW048 25/15 A2995 RMK GST 23KT=
200701082100 METAR MRPV 082100Z 07017KT 9999 FEW045 25/16 A2994=
200701082200 METAR MRPV 082200Z 06016KT 9999 FEW040 24/16 A2994=
200701082300 METAR MRPV 082300Z 08017KT 9999 FEW035 23/16 A2996=
200701090000 METAR MRPV 090000Z 07018KT 9999 FEW035 22/16 A2992=
200701090100 METAR MRPV NIL=
200701090200 METAR MRPV NIL=
200701090300 METAR MRPV NIL=
200701090400 METAR MRPV NIL=
200701090500 METAR MRPV NIL=
200701090600 METAR MRPV NIL=
200701090700 METAR MRPV NIL=
200701090800 METAR MRPV NIL=
200701090900 METAR MRPV NIL=
200701091000 METAR MRPV NIL=
200701091100 METAR MRPV NIL=
200701091200 METAR MRPV NIL=
200701091300 METAR MRPV 091300Z 09022KT CAVOK 20/15 A3004 RMK RN NE=
200701091400 METAR MRPV 091400Z 10015G25KT CAVOK 21/14 A3006=
200701091500 METAR MRPV 091500Z 09015G25KT CAVOK 23/15 A3006=
200701091600 METAR MRPV 091600Z 08016G26KT CAVOK 24/14 A3005=
200701091700 METAR MRPV 091700Z 09020G30KT FEW030 24/14 A3004 RMK RN N NE=
200701091800 METAR MRPV 091800Z 09016G26KT 9999 FEW030 25/16 A3000 RMK RN N NE=
200701091900 METAR MRPV 091900Z 07016G26KT 9999 FEW030 25/16 A2999 RMK RN N NE=
200701092000 METAR MRPV 092000Z 07018G28KT 9999 SCT030 24/15 A2996 RMK RN N NE=
200701092100 METAR MRPV 092100Z 07018G28KT 9999 SCT030 24/15 A2996 RMK PCPN DST NE=
200701092200 METAR MRPV 092200Z 07020G31KT 9999 SCT030 23/14 A2996 RMK PCPN DST NE=
200701092300 METAR MRPV 092300Z 07020G30KT 9999 SCT030 21/13 A2998 RMK PCPN DST NE=
200701100000 METAR MRPV NIL=
200701100100 METAR MRPV NIL=
200701100200 METAR MRPV NIL=
200701100300 METAR MRPV NIL=
200701100400 METAR MRPV NIL=
200701100500 METAR MRPV NIL=
200701100600 METAR MRPV NIL=
200701100700 METAR MRPV NIL=
200701100800 METAR MRPV NIL=
200701100900 METAR MRPV NIL=
200701101000 METAR MRPV NIL=
200701101100 METAR MRPV NIL=
200701101200 METAR MRPV 101200Z 10017KT CAVOK 19/14 A2998 RMK HZ W=
200701101300 METAR MRPV 101300Z 09019KT CAVOK 19/14 A3002 RMK DZ NE RFGS 26KT=
200701101400 METAR MRPV 101400Z 09014KT CAVOK 21/15 A3004=
200701101500 METAR MRPV 101500Z 09015KT CAVOK 24/14 A3003=
200701101600 METAR MRPV 101600Z 10020KT CAVOK 25/15 A3002=
200701101700 METAR MRPV 101700Z 08018KT CAVOK 25/15 A3001=
200701101800 METAR MRPV 101800Z 08018KT 9999 FEW030 25/16 A2998=
200701101900 METAR MRPV 101900Z 09019KT 9999 FEW030 25/16 A2995=
200701102000 METAR MRPV 102000Z 07019KT 9999 FEW030 24/16 A2994 RMK DZ NE=
200701102100 METAR MRPV 102100Z 07016KT 9999 SCT025 23/16 A2993 RMK DZ DST NE=
200701102200 METAR MRPV 102200Z 09021KT 9999 SCT025 22/16 A2994 RMK DZ NE=
200701102300 METAR MRPV 102300Z 09016KT 9999 SCT025 22/16 A2995 RMK DZ NE=
200701110000 METAR MRPV 110000Z NIL=
200701110100 METAR MRPV NIL=
200701110200 METAR MRPV NIL=
200701110300 METAR MRPV NIL=
200701110400 METAR MRPV NIL=
200701110500 METAR MRPV NIL=
200701110600 METAR MRPV NIL=
200701110700 METAR MRPV NIL=
200701110800 METAR MRPV NIL=
200701110900 METAR MRPV NIL=
200701111000 METAR MRPV NIL=
200701111100 METAR MRPV NIL=
200701111200 METAR MRPV 111200Z 10012KT CAVOK 19/14 A3001=
200701111300 METAR MRPV 111300Z 11011KT CAVOK 20/14 A3004=
200701111400 METAR MRPV 111400Z 11018KT CAVOK 21/14 A3006=
200701111500 METAR MRPV 111500Z 09018KT CAVOK 22/15 A3006=
200701111600 METAR MRPV 111600Z 08022KT CAVOK 22/15 A3005=
200701111700 METAR MRPV 111700Z 09020KT 9999 FEW025 24/15 A3005=
200701111800 METAR MRPV 111800Z 09018KT 9999 SCT025 24/14 A3004=
200701111900 METAR MRPV 111900Z 09015KT 9999 SCT025 24/14 A3005=
200701112000 METAR MRPV 112000Z 09020KT 9999 SCT030 24/13 A2998=
200701112100 METAR MRPV 112100Z 10018KT 9999 SCT025 23/14 A2998=
200701112200 METAR MRPV 112200Z 10016KT 9999 SCT025 22/14 A2998=
200701112300 METAR MRPV 112300Z 07020KT CAVOK 28/16 A2976=
200701120000 METAR MRPV 120000Z NIL=
200701120100 METAR MRPV NIL=
200701120200 METAR MRPV NIL=
200701120300 METAR MRPV NIL=
200701120400 METAR MRPV NIL=
200701120700 METAR MRPV NIL=
200701120800 METAR MRPV NIL=
200701120900 METAR MRPV NIL=
200701121000 METAR MRPV NIL=
200701121100 METAR MRPV NIL=
200701121200 METAR MRPV NIL=
200701121300 METAR MRPV 121300Z 10016G26KT CAVOK 20/15 A3001=
200701121400 METAR MRPV 121400Z 11015G25KT 9999 FEW028 21/15 A3003=
200701121500 METAR MRPV 121500Z 09020KT 9999 FEW028 24/16 A3004=
200701121600 METAR MRPV 121600Z 07015G25KT 9999 FEW025 24/16 A3003=
200701121700 METAR MRPV 121700Z 08016G27KT 9999 SCT022 23/16 A3003 RMK RN DST N NE=
200701121800 METAR MRPV 121800Z 08020G30KT 9999 BKN024 25/17 A3000 RMK RN DST E NE N=
200701121900 METAR MRPV 121900Z 08020G30KT 9999 BKN024 24/16 A2998 RMK RN DST E N NE=
200701122000 METAR MRPV 122000Z 08020G30KT 9999 SCT026 26/16 A2995 RMK RN DST N NE E=
200701122100 METAR MRPV 122100Z 08020G30KT 9999 SCT026 25/16 A2994 RMK RN DST N NE=
200701122200 METAR MRPV 122200Z 08020G30KT 9999 SCT026 24/16 A2993 RMK RN N NE=
200701122300 METAR MRPV 122300Z 08020G30KT 9999 FEW030 22/15 A2994 RMK RN N NE=
200701130000 METAR MRPV 130000Z NIL=
200701130100 METAR MRPV NIL=
200701130200 METAR MRPV NIL=
200701130300 METAR MRPV NIL=
200701130400 METAR MRPV NIL=
200701130500 METAR MRPV NIL=
200701130600 METAR MRPV NIL=
200701130700 METAR MRPV NIL=
200701130800 METAR MRPV NIL=
200701130900 METAR MRPV NIL=
200701131000 METAR MRPV NIL=
200701131100 METAR MRPV NIL=
200701131200 METAR MRPV 131200Z 10022KT CAVOK 20/15 A2994 RMK DZ NE/E=
200701131300 METAR MRPV 131300Z 12015G25KT 999 FEW022 SCT035 21/15 A2996 RMK DZ=
200701131400 METAR MRPV 131400Z 08015G25KT 9999 SCT035 22/16 A2999 RMK RN N NE=
200701131500 METAR MRPV 131500Z 08018G28KT 9999 FEW030 SCT090 23/15 A3000 RMK RN N NE E=
200701131600 METAR MRPV 131600Z 09015G25KT 9999 SCT030 25/14 A3001 RMK RN N NE=
200701131700 METAR MRPV 131700Z 07020KT 9999 SCT030 25/16 A3000 RMK RN N NE=
200701131800 METAR MRPV 131800Z 08015G25KT 9999 SCT030 26/16 A2997 RMK RN N NE=
200701131900 METAR MRPV 131900Z 07015G25KT 9999 SCT030 26/16 A2993 RMK RN N NE=
200701132000 METAR MRPV 132000Z 08016G26KT 9999 FEW026 25/16 A2999 RMK RN N NE=
200701132100 METAR MRPV 132100Z 07018G28KT 9999 FEW026 26/16 A2989 RN N NE=
200701132200 METAR MRPV 132200Z 08018G28KT 9999 FEW026 24/16 A2990 RMK RN N NE=
200701132300 METAR MRPV 132300Z 08015G26KT 9999 FEW026 23/16 A2999 RMK RN N NE=
200701140000 METAR MRPV NIL=
200701140100 METAR MRPV NIL=
200701140200 METAR MRPV NIL=
200701140300 METAR MRPV NIL=
200701140400 METAR MRPV NIL=
200701140500 METAR MRPV NIL=
200701140600 METAR MRPV NIL=
200701140700 METAR MRPV NIL=
200701140800 METAR MRPV NIL=
200701140900 METAR MRPV NIL=
200701141000 METAR MRPV NIL=
200701141100 METAR MRPV NIL=
200701141200 METAR MRPV NIL=
200701141300 METAR MRPV 141300Z 11020KT 9999 FEW025 21/15 A2997 RMK RN NE=
200701141400 METAR MRPV 141400Z 09017G27KT 9999 FEW026 22/16 A3000=
200701141500 METAR MRPV 141500Z 11015G25KT 9999 FEW025 23/15 A3001=
200701141600 METAR MRPV 141600Z 08018G28KT 9999 FEW025 25/16 A3000=
200701141700 METAR MRPV 141700Z 07020G30KT 9999 FEW025 24/16 A2997=
200701141800 METAR MRPV 141800Z 07020G30KT 9999 FEW025 25/16 A2996=
200701141900 METAR MRPV 141900Z 07020G30KT 9999 SCT025 25/16 A2994=
200701142000 METAR MRPV 142000Z 07020G30KT 9999 SCT025 25/16 A2994=
200701142100 METAR MRPV 142100Z 07022G32KT 9999 SCT025 24/16 A2989 RMK PCPN DSTN NE=
200701142200 METAR MRPV 142200Z 07020G30KT 9999 SCT025 24/16 A2990 RMK RN DST N NE=
200701142300 METAR MRPV 142300Z 08020G30KT 9999 FEW025 22/16 A2991 RMK PCPN DST N NE=
200701150000 METAR MRPV NIL=
200701150100 METAR MRPV NIL=
200701150200 METAR MRPV NIL=
200701150300 METAR MRPV NIL=
200701150400 METAR MRPV NIL=
200701150500 METAR MRPV NIL=
200701150600 METAR MRPV NIL=
200701150700 METAR MRPV NIL=
200701150800 METAR MRPV NIL=
200701150900 METAR MRPV NIL=
200701151000 METAR MRPV NIL=
200701151100 METAR MRPV NIL=
200701151200 METAR MRPV NIL=
200701151300 METAR MRPV 151300Z 10016KT 9999 FEW025 20/16 A2996 RMK DZ DST NE=
200701151400 METAR MRPV 151400Z 08019KT 9999 FEW025 22/16 A2999 RMK DZ NE=
200701151500 METAR MRPV 151500Z 09019KT 9999 FEW030 23/16 A3000=
200701151600 METAR MRPV 151600Z 07021KT 9999 FEW030 24/16 A3001=
200701151700 METAR MRPV 151700Z 07020KT 9999 FEW030 25/16 A2999=
200701151800 METAR MRPV 151800Z 07017KT 9999 FEW030 26/16 A2997=
200701151900 METAR MRPV 151900Z 08020KT 9999 SCT040 BKN120 26/17 A2994=
200701152000 METAR MRPV 152000Z 08022KT 9999 SCT040 BKN140 24/17 A2992=
200701152100 METAR MRPV 152100Z 07021KT 9999 SCT040 BKN140 25/15 A2990=
200701152200 METAR MRPV 152200Z 07020KT 9999 SCT040 BKN140 23/16 A2990=
200701152300 METAR MRPV 152300Z 07017KT 9999 FEW040 SCT120 23/16 A2991=
200701160000 METAR MRPV 160000Z NIL=
200701160100 METAR MRPV NIL=
200701160200 METAR MRPV NIL=
200701160300 METAR MRPV NIL=
200701160400 METAR MRPV NIL=
200701160500 METAR MRPV NIL=
200701160600 METAR MRPV NIL=
200701160700 METAR MRPV NIL=
200701160800 METAR MRPV NIL=
200701160900 METAR MRPV NIL=
200701161000 METAR MRPV NIL=
200701161100 METAR MRPV NIL=
200701161200 METAR MRPV 161200Z NIL=
200701161300 METAR MRPV 161300Z 10016KT 9999 FEW030 21/15 A2998=
200701161400 METAR MRPV 161400Z 08019KT 9999 FEW030 22/15 A3000=
200701161500 METAR MRPV 161500Z 07021KT 9999 FEW030 23/16 A3002=
200701161600 METAR MRPV 161600Z 08018KT 9999 FEW025 24/16 A3002=
200701161700 METAR MRPV 161700Z 08022KT 9999 SCT025 24/16 A3001=
200701161800 METAR MRPV 161800Z 08023KT 9999 SCT030 24/16 A2999=
200701161900 METAR MRPV 161900Z 07022KT 9999 FEW025 24/16 A2996=
200701162000 METAR MRPV 162000Z 09021KT 9999 SCT025 25/16 A2994=
200701162100 METAR MRPV 162100Z 08015KT 9999 SCT025 24/16 A2993=
200701162200 METAR MRPV 162200Z 08020KT 9999 SCT025 24/15 A2992=
200701162300 METAR MRPV 162300Z 09015KT 9999 SCT025 22/16 A2994=
200701170000 METAR MRPV NIL=
200701170100 METAR MRPV NIL=
200701170200 METAR MRPV NIL=
200701170300 METAR MRPV NIL=
200701170400 METAR MRPV NIL=
200701170500 METAR MRPV NIL=
200701170600 METAR MRPV NIL=
200701170700 METAR MRPV NIL=
200701170800 METAR MRPV NIL=
200701170900 METAR MRPV NIL=
200701171000 METAR MRPV NIL=
200701171100 METAR MRPV NIL=
200701171200 METAR MRPV 171200Z 12014KT 9999 SCT025 BKN270 20/15 A3000 RMK DZ NE=
200701171300 METAR MRPV 171300Z 10018KT 9999 SCT025 19/14 A3002 RMK DZ DST NE=
200701171400 METAR MRPV 171400Z 11016KT 9999 SCT025 20/15 A3004 RMK DZ DST NE=
200701171500 METAR MRPV 171500Z 10017KT 9999 FEW025 23/15 A3005=
200701171600 METAR MRPV 171600Z 10018KT 9999 FEW025 23/16 A3006=
200701171700 METAR MRPV 171700Z 11020KT 9999 FEW025 24/16 A3004=
200701171800 METAR MRPV 171800Z 09021KT 9999 FEW030 24/16 A3002=
200701171900 METAR MRPV 171900Z 08018KT 9999 SCT030 24/17 A3000=
200701172000 METAR MRPV 172000Z 10023KT 9999 SCT025 23/16 A2998 RMK DZ DST NE=
200701172100 METAR MRPV 172100Z 10014KT 9999 SCT025 BKN250 23/16 A2998 RMK DZ NE=
200701172200 METAR MRPV 172200Z 11018KT 9999 SCT025 BKN140 21/24 A2999 RMK DZ NE=
200701172300 METAR MRPV 172300Z 12012KT 9999 FEW030 BKN140 21/15 A3000 RMK DZ NE=
200701180000 METAR MRPV 180000Z NIL=
200701180100 METAR MRPV NIL=
200701180200 METAR MRPV NIL=
200701180300 METAR MRPV NIL=
200701180400 METAR MRPV NIL=
200701180500 METAR MRPV NIL=
200701180600 METAR MRPV NIL=
200701180700 METAR MRPV NIL=
200701180800 METAR MRPV NIL=
200701180900 METAR MRPV NIL=
200701181000 METAR MRPV NIL=
200701181100 METAR MRPV NIL=
200701181200 METAR MRPV 181200Z 09020G30KT 9999 FEW022 18/14 A3002=
200701181300 METAR MRPV 181300Z 10020G30KT 9999 FEW022 19/13 A3006 RMK RN DST N/NE=
200701181400 METAR MRPV 181400Z 10020G30KT 9999 FEW022 20/15 A3009 RMK RN N NE=
200701181500 METAR MRPV 181500Z 09020G30KT 9999 FEW022 BKN015 21/13 A3010 RMK RN N NE=
200701181600 METAR MRPV 181600Z 08025G35KT 9999 FEW025 21/14 A3010 RMK RN N NE=
200701181700 METAR MRPV 181700Z 09020G30KT 9999 FEW030 23/13 A3008 RMK RN N NE=
200701181800 METAR MRPV 181800Z 07020G30KT 9999 SCT030 22/14 A3008 RMK N NE=
200701181900 METAR MRPV 181900Z 07020G30KT 9999 SCT030 23/14 A3005 RMK RN N NE=
200701182000 METAR MRPV 182000Z 08020G30KT 9999 SCT030 23/15 A3001 RMK RN N NE=
200701182100 METAR MRPV 182100Z 07020G30KT 9999 SCT030 22/15 A3000 RMK RN N NE=
200701182200 METAR MRPV NIL=
200701182300 METAR MRPV 182300Z 08020G30KT 9999 SCT030 20/14 A2999 RMK RN N NE=
200701190000 METAR MRPV NIL=
200701190100 METAR MRPV NIL=
200701190200 METAR MRPV NIL=
200701190300 METAR MRPV NIL=
200701190400 METAR MRPV NIL=
200701190500 METAR MRPV NIL=
200701190600 METAR MRPV NIL=
200701190700 METAR MRPV NIL=
200701190800 METAR MRPV NIL=
200701190900 METAR MRPV NIL=
200701191000 METAR MRPV NIL=
200701191100 METAR MRPV NIL=
200701191200 METAR MRPV 191200Z 12010G20KT 9999 FEW023 18/13 A3005 RMK RN DST N=
200701191300 METAR MRPV 191300Z 11010G20KT 9999 FEW022 18/13 A3007 RMK RN N NE=
200701191400 METAR MRPV 191400Z 09010G20KT 9999 FEW025 21/14 A3009 RMK RN N NE=
200701191500 METAR MRPV 191500Z 09020KT 9999 FEW030 21/15 A3010 RMK RN N NE=
200701191600 METAR MRPV 191600Z 06020G30KT 9999 FEW030 22/14 A3011 RMK RN N NE=
200701191700 METAR MRPV 191700Z 07020G30KT SCT030 22/14 A3009 RMK RN N NE=
200701191800 METAR MRPV 191800Z 07020G30KT 9999 FEW030 24/14 A3005=
200701191900 METAR MRPV 191900Z 08020G30KT 9999 SCT030 24/15 A3003 RMK RN N NE=
200701192000 METAR MRPV 192000Z 08020G30KT 9999 FEW030 SCT250 25/15 A3001=
200701192100 METAR MRPV 192100Z 09015G25KT 9999 FEW030 SCT250 23/15 A2999 RMK PCPN DST NE=
200701192200 METAR MRPV 192200Z 08015G25KT 9999 FEW030 23/14 A2999 RMK PCPN DST NE=
200701192300 METAR MRPV 192300Z 09020KT 9999 SCT030 22/14 A2999 RMK PCPN DST NE=
200701200000 METAR MRPV NIL=
200701200100 METAR MRPV NIL=
200701200200 METAR MRPV NIL=
200701200300 METAR MRPV NIL=
200701200400 METAR MRPV NIL=
200701200500 METAR MRPV NIL=
200701200600 METAR MRPV NIL=
200701200700 METAR MRPV NIL=
200701200800 METAR MRPV NIL=
200701200900 METAR MRPV NIL=
200701201000 METAR MRPV NIL=
200701201100 METAR MRPV NIL=
200701201200 METAR MRPV 201200Z 11012KT 9999 FEW022 18/14 A3002 RMK RN DIST NE=
200701201300 METAR MRPV 201300Z 12016KT 9999 FEW022 19/14 A3003 RMK PCPN DIST NE=
200701201400 METAR MRPV 201400Z 10016KT 9999 FEW020 20/16 A3006 RMK PCPN DST NE=
200701201500 METAR MRPV 201500Z 09020KT 9999 SCT020 20/16 A3007 RMK PCPN DST NE=
200701201600 METAR MRPV 201600Z 08015G25KT 9999 FEW015 SCT025 21/15 A3008 RMK PCPN DST NE=
200701201700 METAR MRPV 201700Z 08015G25KT 9999 SCT020 24/16 A3007 RMK RN DST NE=
200701201800 METAR MRPV 201800Z 08015G25KT 9999 FEW015 SCT030 22/15 A3005 RMK PCPN DST NE=
200701201900 METAR MRPV 201900Z 08015G25 9999 FEW015 SCT030 22/16 A3003 RMK RN DST NE=
200701202000 METAR MRPV 202000Z 10815G25KT 9999 SCT030 24/16 A3000 RMK PCPN DST N NE=
200701202100 METAR MRPV 202100Z 08016G26KT 9999 FEW030 24/16 A2998 RMK DZ NE=
200701202200 METAR MRPV 202200Z 08015G25KT 9999 FEW030 24/14 A2997 RMK RN E=
200701202300 METAR MRPV 202300Z 07020KT 9999 FEW030 23/15 A2998 RMK RN E=
200701210000 METAR MRPV NIL=
200701210100 METAR MRPV NIL=
200701210200 METAR MRPV NIL=
200701210300 METAR MRPV NIL=
200701210400 METAR MRPV NIL=
200701210500 METAR MRPV NIL=
200701210600 METAR MRPV NIL=
200701210700 METAR MRPV NIL=
200701210800 METAR MRPV NIL=
200701210900 METAR MRPV NIL=
200701211000 METAR MRPV NIL=
200701211100 METAR MRPV NIL=
200701211200 METAR MRPV NIL=
200701211300 METAR MRPV 211300Z 12007KT CAVPK 19/13 A3003=
200701211400 METAR MRPV 211400Z 13010KT CAVOK 22/12 A3005=
200701211500 METAR MRPV 211500Z 11013KT CAVOK 23/12 A3006=
200701211600 METAR MRPV 211600Z 08013KT CAVOK 25/12 A3006=
200701211700 METAR MRPV 211700Z 07012KT CAVOK 26/12 A3005=
200701211800 METAR MRPV 211800Z 09010KT CAVOK 26/12 A3004=
200701211900 METAR MRPV 211900Z 08014KT 9999 FEW040 SCT250 26/14 A3005=
200701212000 METAR MRPV 212000Z 09019KT 9999 SCT035 25/16 A2997=
200701212100 METAR MRPV 212100Z 09016KT 9999 SCT030 25/16 A2996=
200701212200 METAR MRPV 212200Z 10014KT 9999 SCT030 BKN120 23/16 A2997=
200701212300 METAR MRPV 212300Z 11011KT 9999 SCT025 BKN120 22/16 A2998=
200701220000 METAR MRPV 220000Z NIL=
200701220100 METAR MRPV NIL=
200701220200 METAR MRPV NIL=
200701220300 METAR MRPV NIL=
200701220400 METAR MRPV NIL=
200701220500 METAR MRPV NIL=
200701220600 METAR MRPV NIL=
200701220700 METAR MRPV NIL=
200701220800 METAR MRPV NIL=
200701220900 METAR MRPV NIL=
200701221000 METAR MRPV NIL=
200701221100 METAR MRPV NIL=
200701221200 METAR MRPV NIL=
200701221300 METAR MRPV NIL=
200701221400 METAR MRPV NIL=
200701221500 METAR MRPV 221500Z 10010KT CAVOK 24/15 A3003=
200701221600 METAR MRPV 221600Z 12010KT CAVOK 26/15 A3002=
200701221700 METAR MRPV 221700Z 11009KT 9999 FEW045 26/16 A3001=
200701221800 METAR MRPV 221800Z 10010KT 9999 FEW040 27/16 A3000=
200701221900 METAR MRPV 221900Z 08014KT 9999 SCT040 27/17 A2998=
200701222000 METAR MRPV 222000Z 09013KT 9999 SCT035 26/17 A2996=
200701222100 METAR MRPV 222100Z 08016KT 9999 SCT040 25/17 A2994=
200701222200 METAR MRPV 222200Z 08015KT 9999 SCT035 25/17 A2995=
200701222300 METAR MRPV 222300Z 10015KT 9999 SCT040 22/17 A2996=
200701230000 METAR MRPV 230000Z NIL=
200701230100 METAR MRPV NIL=
200701230200 METAR MRPV NIL=
200701230300 METAR MRPV NIL=
200701230400 METAR MRPV NIL=
200701230500 METAR MRPV NIL=
200701230600 METAR MRPV NIL=
200701230700 METAR MRPV NIL=
200701230800 METAR MRPV NIL=
200701230900 METAR MRPV NIL=
200701231000 METAR MRPV NIL=
200701231100 METAR MRPV NIL=
200701231200 METAR MRPV 231200Z 11014KT CAVOK 20/16 A2996=
200701231300 METAR MRPV 231300Z 11014KT CAVOK 20/15 A2997=
200701231400 METAR MRPV 231400Z 12012KT CAVOK 23/16 A2999=
200701231500 METAR MRPV 231500Z 08010KT CAVOK 24/16 A2999=
200701231600 METAR MRPV 231600Z 08020KT CAVOK 25/16 A2999=
200701231700 METAR MRPV 231700Z 07020KT 9999 FEW028 26/17 A2998=
200701231800 METAR MRPV 231800Z 09020KT 9999 FEW028 26/18 A2998=
200701231900 METAR MRPV 231900Z 09020KT 9999 SCT030 25/18 A2994=
200701232000 METAR MRPV 232000Z 09022KT 9999 SCT030 25/17 A2994=
200701232100 METAR MRPV 232100Z 09021KT 9999 SCT030 25/18 A2992=
200701232200 METAR MRPV 232200Z 09020KT 9999 SCT030 24/18 A2992=
200701232300 METAR MRPV 232300Z 09018KT 9999 SCT025 23/18 A2990=
200701240000 METAR MRPV NIL=
200701240100 METAR MRPV NIL=
200701240200 METAR MRPV NIL=
200701240300 METAR MRPV NIL=
200701240400 METAR MRPV NIL=
200701240500 METAR MRPV NIL=
200701240600 METAR MRPV NIL=
200701240800 METAR MRPV NIL=
200701240900 METAR MRPV NIL=
200701241000 METAR MRPV NIL=
200701241100 METAR MRPV NIL=
200701241200 METAR MRPV 241200Z 14010KT CAVOK 19/14 A3000=
200701241300 METAR MRPV 241300Z 13010KT CAVOK 21/14 A3001=
200701241400 METAR MRPV 241400Z 12013KT CAVOK 22/14 A3002=
200701241500 METAR MRPV 241500Z 10010G20KT CAVOK 25/14 A3003=
200701241600 METAR MRPV 241600Z 10010G20KT CAVOK 25/15 A3003=
200701241700 METAR MRPV 241700Z 09010G20KT CAVOK 27/14 A3002=
200701241800 METAR MRPV 241800Z 08012G22KT 9999 FEW028 26/16 A3000=
200701241900 METAR MRPV 241900Z 09012G22KT 9999 FEW028 26/17 A2998=
200701242000 METAR MRPV 242000Z 08020KT 9999 SCT030 26/17 A29/96=
200701242100 METAR MRPV 242100Z 08020KT 9999 SCT030 26/17 A2992=
200701242200 METAR MRPV 242200Z 08020KT 9999 SCT030 25/16 A2992=
200701242300 METAR MRPV 242300Z 09020KT 9999 SCT030 23/16 A2993=
200701250000 METAR MRPV NIL=
200701250100 METAR MRPV NIL=
200701250200 METAR MRPV NIL=
200701250300 METAR MRPV NIL=
200701250400 METAR MRPV NIL=
200701250500 METAR MRPV NIL=
200701250600 METAR MRPV NIL=
200701250700 METAR MRPV NIL=
200701250800 METAR MRPV NIL=
200701250900 METAR MRPV NIL=
200701251000 METAR MRPV NIL=
200701251100 METAR MRPV NIL=
200701251200 METAR MRPV NIL=
200701251300 METAR MRPV NIL=
200701251400 METAR MRPV 251400Z 09020KT 9999 SCT030 BKN250 21/15 A3005 RMK PCPN DST NE=
200701251500 METAR MRPV 251500Z 08015KT 9999 FEW030 SCT250 23/16 A3006=
200701251600 METAR MRPV 251600Z 09018KT 9999 FEW030 BKN250 25/16 A3005=
200701251700 METAR MRPV 251700Z 09018KT 9999 FEW030 BKN250 26/16 A3004=
200701251800 METAR MRPV 251800Z 08018KT 9999 FEW025 BKN080 26/16 A3002 RMK PCPN DST NE N=
200701251900 METAR MRPV 251900Z 09018KT 9999 FEW025 BKN250 26/16 A2999=
200701252000 METAR MRPV 252000Z 08020KT 9999 FEW025 BKN250 26/17 A2996=
200701252100 METAR MRPV 252100Z 09020KT 9999 FEW025 BKN250 26/16 A2995 RMK RN DST NE=
200701252200 METAR MRPV 252200Z 07020KT 9999 FEW025 BKN250 24/17 A2995 RMK RN DST NE=
200701252300 METAR MRPV 252300Z 09015G25KT 9999 FEW025 SCT250 22/17 A29997 RMK RN DST NE=
200701260000 METAR MRPV NIL=
200701260100 METAR MRPV NIL=
200701260200 METAR MRPV NIL=
200701260300 METAR MRPV NIL=
200701260400 METAR MRPV NIL=
200701260500 METAR MRPV NIL=
200701260600 METAR MRPV NIL=
200701260700 METAR MRPV NIL=
200701260800 METAR MRPV NIL=
200701260900 METAR MRPV NIL=
200701261000 METAR MRPV NIL=
200701261100 METAR MRPV NIL=
200701261200 METAR MRPV NIL=
200701261300 METAR MRPV 261300Z 10015G25KT 9999 FEW018 BKN250 19/14 A3006 RMK DZ DST NE/E=
200701261400 METAR MRPV 261400Z 11015G25KT 9999 FEW020 BKN250 19/14 A3008 RMK DZ DST NE/E=
200701261500 METAR MRPV 261500Z 10015G25KT 9999 FEW020 BKN250 22/15 A3010 RMK DZ DST N/NE/E=
200701261600 METAR MRPV 261600Z 10015G25KT 9999 FEW020 BKN250 23/14 A3010 RMK DZ DST NE/E=
200701261700 METAR MRPV 261700Z 09015G25KT 9999 FEW022 BKN250 23/14 A3009 RMK DZ DST NE/E=
200701261800 METAR MRPV 261800Z 08015G25KT 9999 FEW020 BKN250 22/15 A3007 RMK DZ DST NE/E=
200701261900 METAR MRPV 261900Z 07015G25KT 9999 FEW022 BKN250 22/15 A3005 RMK DZ DST NE/E CB DST S=
200701262000 METAR MRPV 262000Z 09015G25KT 9999 FEW022 BKN250 22/15 A3002 RMK DZ DST NE/E CB DST S=
200701262100 METAR MRPV 262100Z 09015G25KT 9999 FEW022 BKN250 22/15 A3001 RMK DZ DST NE E CB DST S=
200701262200 METAR MRPV 262200Z 08015G25KT 9999 FEW026 BKN250 22/15 A3000 RMK DZ DST NE E CB DST S=
200701262300 METAR MRPV 262300Z 09015G25KT 9999 FEW028 SCT090 BKN250 21/16 A3000=
200701270000 METAR MRPV NIL=
200701270100 METAR MRPV 270100Z 09009KT CAVOK 27/15 A2984 RKM BKN250=
200701270200 METAR MRPV NIL=
200701270300 METAR MRPV NIL=
200701270400 METAR MRPV NIL=
200701270500 METAR MRPV NIL=
200701270600 METAR MRPV NIL=
200701270800 METAR MRPV NIL=
200701270900 METAR MRPV NIL=
200701271000 METAR MRPV NIL=
200701271100 METAR MRPV NIL=
200701271200 METAR MRPV NIL=
200701271300 METAR MRPV 271300Z 12008KT CAVOK 19/13 A3004=
200701271400 METAR MRPV 271400Z 10010KT CAVOK 21/14 A3005=
200701271500 METAR MRPV 271500Z 09016KT CAVOK 24/13 A3007=
200701271600 METAR MRPV 271600Z 09014KT CAVOK 24/15 A3006=
200701271700 METAR MRPV 271700Z 09013KT 9999 FEW040 BKN120 24/14 A3004=
200701271800 METAR MRPV 271800Z 10014KT 9999 FEW040 BKN120 25/14 A3001=
200701271900 METAR MRPV 271900Z 08012KT 9999 FEW040 BKN120 26/15 A2998=
200701272000 METAR MRPV 272000Z 08014KT 9999 SCT040 BKN120 26/16 A2995=
200701272100 METAR MRPV 272100Z 08015KT 9999 SCT040 BKN120 24/16 A2995=
200701272200 METAR MRPV 272200Z 10014KT 9999 FEW040 BKN120 24/16 A2995=
200701272300 METAR MRPV 272300Z 10012KT 9999 FEW040 BKN120 22/16 A2997=
200701272330 METAR MRPV 272330Z 11009KT 9999 FEW040 BKN120 21/16 A2997=
200701280000 METAR MRPV 280000Z NIL=
200701280100 METAR MRPV NIL=
200701280200 METAR MRPV NIL=
200701280300 METAR MRPV NIL=
200701280400 METAR MRPV NIL=
200701280500 METAR MRPV NIL=
200701280700 METAR MRPV NIL=
200701280800 METAR MRPV NIL=
200701280900 METAR MRPV NIL=
200701281000 METAR MRPV NIL=
200701281100 METAR MRPV NIL=
200701281200 METAR MRPV 281200Z NIL=
200701281300 METAR MRPV 281300Z 10010KT CAVOK 20/14 A3003=
200701281400 METAR MRPV 281400Z 11012KT CAVOK 22/15 A3006=
200701281500 METAR MRPV 281500Z 11013KT CAVOK 23/15 A3007=
200701281600 METAR MRPV 281600Z 10015KT CAVOK 24/15 A3007=
200701281700 METAR MRPV 281700Z 08015KT CAVOK FEW040 SCT270 26/16 A3006=
200701281800 METAR MRPV 281800Z 09013KT 9999 FEW040 SCT270 25/16 A3003=
200701281900 METAR MRPV 281900Z 09012KT 9999 SCT040 SCT270 26/16 A3000=
200701282000 METAR MRPV 282000Z 08017KT 9999 SCT040 SCT270 25/16 A2999=
200701282100 METAR MRPV 282100Z 09014KT 9999 FEW040 BKN270 25/16 A2997=
200701282200 METAR MRPV 282200Z 09016KT 9999 SCT040 SCT270 24/16 A2997=
200701282300 METAR MRPV 282300Z 10012KT 9999 SCT040 SCT270 22/16 A2998=
200701290000 METAR MRPV NIL=
200701290100 METAR MRPV NIL=
200701290200 METAR MRPV NIL=
200701290300 METAR MRPV NIL=
200701290400 METAR MRPV NIL=
200701290500 METAR MRPV NIL=
200701290600 METAR MRPV NIL=
200701290700 METAR MRPV NIL=
200701290800 METAR MRPV NIL=
200701290900 METAR MRPV NIL=
200701291000 METAR MRPV NIL=
200701291100 METAR MRPV NIL=
200701291200 METAR MRPV 291200Z 12011KT 9999 SCT020 BKN250 19/16 A3006 RMK DZ DST E=
200701291300 METAR MRPV 291300Z 10010KT 9999 SCT020 SCT250 19/16 A3008 RMK DZ NE=
200701291400 METAR MRPV 291400Z 08017KT 9999 FEW020 SCT270 21/16 A3008 RMK DZ NE=
200701291500 METAR MRPV 291500Z 10015KT 9999 FEW025 SCT250 22/16 A3010=
200701291600 METAR MRPV 291600Z 10015KT 9999 FEW030 23/16 A3008=
200701291700 METAR MRPV 291700Z 09017KT 9999 FEW025 24/17 A3006=
200701291800 METAR MRPV 291800Z 09013KT 9999 SCT025 26/17 A3004=
200701291900 METAR MRPV 291900Z 09012KT 9999 FEW020 SCT040 23/16 A3002=
200701292000 METAR MRPV 292000Z 10017KT 9999 FEW020 SCT030 24/16 A2999=
200701292100 METAR MRPV 292100Z 08017KT 9999 SCT025 23/17 A2997 RMK DZ DST N NE=
200701292200 METAR MRPV 292200Z 10014KT 9999 SCT020 SCT250 24/17 A2997 RMK DZ N NE=
200701292300 METAR MRPV 292300Z 09013KT 9999 SCT020 21/16 A2998 RMK DZ DST N NE=
200701300000 METAR MRPV NIL=
200701300100 METAR MRPV NIL=
200701300200 METAR MRPV NIL=
200701300300 METAR MRPV NIL=
200701300400 METAR MRPV NIL=
200701300500 METAR MRPV NIL=
200701300600 METAR MRPV NIL=
200701300700 METAR MRPV NIL=
200701300800 METAR MRPV NIL=
200701300900 METAR MRPV NIL=
200701301000 METAR MRPV NIL=
200701301200 METAR MRPV NIL=
200701301300 METAR MRPV 301300Z 09015G25KT 9999 SCT015 20/16 A3007 PCPN DST N NE=
200701301400 METAR MRPV 301400Z 10015G25KT 9999 FEW020 21/17 A3008 RMK PCPN DST N NE=
200701301500 METAR MRPV 301500Z 10012G22KT 9999 FEW020 22/17 A3010 RMK PCPN DST NE=
200701301600 METAR MRPV 301600Z 08015G25KT 9999 FEW020 24/18 A3009 PCPN DST NE=
200701301700 METAR MRPV 301700Z 08015G25KT 9999 SCT020 25/17 A3007 RMK PCPN DST DST N NE=
200701301800 METAR MRPV 301800Z 08015G25KT 9999 SCT022 24/17 A3006 RMK PCPN DST N NE=
200701301900 METAR MRPV 301900Z 08017G27KT 9999 SCT024 24/17 A3004 RMK PCPN DST N NE=
200701302000 METAR MRPV 302000Z 08015G25KT 9999 SCT024 24/18 A2999=
200701302100 METAR MRPV 302100Z 08015G25KT 9999 SCT024 24/17 A2999 RMK RN DST N/NE=
200701302200 METAR MRPV 302200Z 07015G25KT 9999 SCT024 22/15 A2999 RMK RN DST N/NE/E=
200701302300 METAR MRPV 302300Z 08015G25KT 9999 SCT025 22/15 A3000 RN DST N/NE/E=
200701310000 METAR MRPV NIL=
200701310100 METAR MRPV NIL=
200701310200 METAR MRPV NIL=
200701310300 METAR MRPV NIL=
200701310400 METAR MRPV NIL=
200701310500 METAR MRPV NIL=
200701310600 METAR MRPV NIL=
200701310700 METAR MRPV NIL=
200701310800 METAR MRPV NIL=
200701310900 METAR MRPV NIL=
200701311000 METAR MRPV NIL=
200701311100 METAR MRPV NIL=
200701311200 METAR MRPV 311200Z 11015KT CAVOK 18/14 A3001 RMK RN N NE=
200701311300 METAR MRPV 311300Z 12020KT CAVOK 20/14 A3002 RMK RN DIST N/NE=
200701311400 METAR MRPV 311400Z 10022KT CAVOK 21/15 A3006=
200701311500 METAR MRPV 311500Z 09020KT CAVOK 23/15 A3006=
200701311600 METAR MRPV 311600Z 08020KT CAVOK 24/15 A3005=
200701311700 METAR MRPV 311700Z 08020KT CAVOK 25/15 A3004=
200701311800 METAR MRPV 311800Z 08020KT CAVOK 26/15 A3002=
200701311900 METAR MRPV 311900Z 07018KT CAVOK 27/15 A3000=
200701312000 METAR MRPV 312000Z 07020KT 9999 FEW030 26/16 A2997=
200701312100 METAR MRPV 312100Z 08020KT 9999 FEW030 26/16 A2996=
200701312200 METAR MRPV 312200Z 08020KT 9999 FEW030 25/15 A2995=
200701312300 METAR MRPV 312300Z 09018KT 9999 FEW024 23/16 A2997=
200702010000 METAR MRPV NIL=
200702010100 METAR MRPV NIL=
200702010200 METAR MRPV NIL=
200702010300 METAR MRPV NIL=
200702010400 METAR MRPV NIL=
200702010500 METAR MRPV NIL=
200702010600 METAR MRPV NIL=
200702010700 METAR MRPV NIL=
200702010800 METAR MRPV NIL=
200702010900 METAR MRPV NIL=
200702011000 METAR MRPV NIL=
200702011100 METAR MRPV NIL=
200702011200 METAR MRPV 011200Z 11014KT CAVOK 20/15 A2998=
200702011300 METAR MRPV 011300Z 11015KT CAVOK 21/16 A3000=
200702011400 METAR MRPV 011400Z 11014KT CAVOK 23/16 A3002=
200702011500 METAR MRPV 011500Z 10015KT CAVOK 24/16 A3002=
200702011600 METAR MRPV 011600Z 08020KT CAVOK 26/16 A3001=
200702011700 METAR MRPV 011700Z 08017KT CAVOK 27/17 A2999=
200702011800 METAR MRPV 011800Z 08018KT CAVOK 27/17 A2997=
200702011900 METAR MRPV 011900Z 08018KT 9999 FEW028 28/17 A2995=
200702012000 METAR MRPV 012000Z 08020KT 9999 FEW028 28/17 A2993=
200702012100 METAR MRPV 012100Z 08015KT 9999 FEW026 27/17 A2991=
200702012200 METAR MRPV 012200Z 09016KT 9999 FEW024 25/17 A2991=
200702012300 METAR MRPV 012300Z 08016KT 9999 FEW022TCU 23/18 A2993=
200702020000 METAR MRPV 020000Z NIL=
200702020100 METAR MRPV NIL=
200702020200 METAR MRPV NIL=
200702020300 METAR MRPV NIL=
200702020400 METAR MRPV NIL=
200702020500 METAR MRPV NIL=
200702020600 METAR MRPV NIL=
200702020700 METAR MRPV NIL=
200702020800 METAR MRPV NIL=
200702020900 METAR MRPV NIL=
200702021000 METAR MRPV NIL=
200702021100 METAR MRPV NIL=
200702021200 METAR MRPV 021200Z 15006KT CAVOK 18/15 A3001=
200702021300 METAR MRPV 021300Z 14006KT FEW040 SCT270 20/15 A3003=
200702021400 METAR MRPV 021400Z 13007KT 9999 FEW040 SCT270 22/15 A3004 RMK HZ W=
200702021500 METAR MRPV 021500Z 11012KT CAVOK 25/15 A3004=
200702021600 METAR MRPV 021600Z 09011KT CAVOK 25/15 A3004 RMK HZ W=
200702021700 METAR MRPV 021700Z 06009KT 9999 FEW040 SCT270 26/15 A3002 RMK HZ W=
200702021800 METAR MRPV 021800Z 05008KT 9999 FEW040 SCT270 28/15 A2999=
200702021900 METAR MRPV 021900Z 10008KT 9999 FEW040 SCT270 28/15 A2997=
200702022000 METAR MRPV 022000Z 09013KT 9999 FEW040 SCT250 28/16 A2994 RMK HZ W=
200702022100 METAR MRPV 022100Z 09012KT 9999 SCT040 28/17 A2993=
200702022200 METAR MRPV 022200Z 09011KT FEW040 26/17 A2993=
200702022300 METAR MRPV 022300Z 10009KT 9999 FEW040 25/17 A2994=
200702030000 METAR MRPV NIL=
200702030100 METAR MRPV NIL=
200702030200 METAR MRPV NIL=
200702030300 METAR MRPV NIL=
200702030400 METAR MRPV NIL=
200702030500 METAR MRPV NIL=
200702030600 METAR MRPV NIL=
200702030700 METAR MRPV NIL=
200702030800 METAR MRPV NIL=
200702030900 METAR MRPV NIL=
200702031000 METAR MRPV NIL=
200702031100 METAR MRPV NIL=
200702031200 METAR MRPV 031200Z 14005KT CAVOK 18/14 A3003 RMK HZY=
200702031300 METAR MRPV 031300Z 14006KT 9999 FEW040 BKN250 20/14 A3004=
200702031400 METAR MRPV 031400Z 12010KT 9999 FEW040 SCT250 22/15 A3006=
200702031500 METAR MRPV 031500Z 10014KT 9999 FEW040 SCT250 24/16 A3006=
200702031600 METAR MRPV 031600Z 09016KT 9999 SCT030 25/16 A3006=
200702031700 METAR MRPV 031700Z 08013KT 9999 FEW030 26/16 A3005=
200702031800 METAR MRPV 031800Z 09014KT 9999 FEW035 26/16 A3001=
200702031900 METAR MRPV 031900Z 08017KT 9999 FEW030 26/16 A2999=
200702032000 METAR MRPV 032000Z 09018KT 9999 SCT040 26/16 A2997=
200702032100 METAR MRPV 032100Z 08016KT 9999 SCT040 26/16 A2995 RMK HZ LGT ARND=
200702032200 METAR MRPV 032200Z 08016KT 9999 SCT040 25/15 A2995 RMK HZ ARND=
200702032300 METAR MRPV 032300Z 09017KT 9999 SCT040 24/16 A2996=
200702040000 METAR MRPV NIL=
200702040100 METAR MRPV NIL=
200702040200 METAR MRPV NIL=
200702040300 METAR MRPV NIL=
200702040400 METAR MRPV NIL=
200702040500 METAR MRPV NIL=
200702040600 METAR MRPV NIL=
200702040700 METAR MRPV NIL=
200702040800 METAR MRPV NIL=
200702040900 METAR MRPV NIL=
200702041000 METAR MRPV NIL=
200702041100 METAR MRPV NIL=
200702041200 METAR MRPV NIL=
200702041300 METAR MRPV 041300Z 10015KT 9999 SCT020 20/14 A3004=
200702041400 METAR MRPV 041400Z 09020KT 9999 FEW020 21/15 A3006=
200702041500 METAR MRPV 041500Z 10016KT 9999 SCT020 22/15 A3008=
200702041600 METAR MRPV 041600Z 08021KT 9999 FEW020 23/14 A3008=
200702041700 METAR MRPV 041700Z 08015KT 9999 FEW030 25/14 A3006=
200702041800 METAR MRPV 041800Z 06020KT 9999 FEW030 25/14 A3004 RMK HZ ARND=
200702041900 METAR MRPV 041900Z 08019KT 9999 FEW030 26/15 A3001 RMK HZ ARND=
200702042000 METAR MRPV 042000Z 07018KT 9999 FEW030 26/14 A2999 RMK HZ ARND=
200702042100 METAR MRPV 042100Z 08016KT 9999 FEW030 26/15 22997 RMK HZ ARND=
200702042200 METAR MRPV 042200Z 08016KT 9999 FEW030 25/16 A2996 RMK HZ ARND=
200702042300 METAR MRPV 042300Z 008017KT 9999 FEW030 24/15 A2996 RMK HZY=
200702050000 METAR MRPV 050000Z NIL=
200702050100 METAR MRPV NIL=
200702050200 METAR MRPV NIL=
200702050300 METAR MRPV NIL=
200702050400 METAR MRPV NIL=
200702050500 METAR MRPV NIL=
200702050600 METAR MRPV NIL=
200702050700 METAR MRPV NIL=
200702050800 METAR MRPV NIL=
200702050900 METAR MRPV NIL=
200702051000 METAR MRPV NIL=
200702051100 METAR MRPV NIL=
200702051200 METAR MRPV NIL=
200702051300 METAR MRPV 051300Z 13015KT CAVOK 20/15 A3003=
200702051400 METAR MRPV NIL=
200702051500 METAR MRPV 051500Z 09022KT CAVOK 23/16 A3008=
200702051600 METAR MRPV 051600Z 07015G25KT CAVOK 24/16 A3008=
200702051700 METAR MRPV 051700Z 07015G25KT CAVOK 26/16 A3008=
200702051800 METAR MRPV 051800Z 07015G25KT 9999 FEW027 25/16 A3006=
200702051900 METAR MRPV 051900Z 07017G27KT 9999 FEW026 26/15 A3003=
200702052000 METAR MRPV 052000Z 07015G25KT 9999 FEW026 26/15 A3000=
200702052100 METAR MRPV 052100Z 07012G22KT 9999 FEW028 26/14 A2999=
200702052200 METAR MRPV 052200Z 07012G22KT 9999 FEW024 25/15 A2999=
200702052300 METAR MRPV 052300Z 06020KT 9999 FEW022 24/14 A3000=
200702060000 METAR MRPV 060000Z NIL=
200702060100 METAR MRPV NIL=
200702060200 METAR MRPV NIL=
200702060300 METAR MRPV NIL=
200702060400 METAR MRPV NIL=
200702060500 METAR MRPV NIL=
200702060600 METAR MRPV NIL=
200702060700 METAR MRPV NIL=
200702060800 METAR MRPV NIL=
200702060900 METAR MRPV NIL=
200702061000 METAR MRPV NIL=
200702061100 METAR MRPV NIL=
200702061200 METAR MRPV 061200Z 11014KT CAVOK 19/11 A3007=
200702061300 METAR MRPV 061300Z 12014KT CAVOK 20/10 A3009=
200702061400 METAR MRPV 061400Z 11018KT CAVOK 23/10 A3011=
200702061500 METAR MRPV 061500Z 08020KT CAVOK 25/10 A3011=
200702061600 METAR MRPV 061600Z 08022KT CAVOK 25/13 A3011=
200702061700 METAR MRPV 061700Z 07017G27KT CAVOK 24/15 A3010=
200702061800 METAR MRPV 061800Z 07018G28KT 9999 FEW026 24/16 A3009=
200702061900 METAR MRPV 061900Z 07015G25KT 9999 FEW026 25/16 A3006=
200702062000 METAR MRPV 062000Z 07018G28KT 9999 FEW026 24/16 A3002=
200702062100 METAR MRPV 062100Z 08020G30KT 9999 SCT028 24/15 A3000=
200702062200 METAR MRPV 062200Z 07018G28KT 9999 SCT024 22/15 A3001=
200702062300 METAR MRPV 062300Z 07022KT 9999 SCT022 21/15 A3002=
200702070000 METAR MRPV NIL=
200702070100 METAR MRPV NIL=
200702070200 METAR MRPV NIL=
200702070300 METAR MRPV NIL=
200702070400 METAR MRPV NIL=
200702070500 METAR MRPV NIL=
200702070600 METAR MRPV NIL=
200702070700 METAR MRPV NIL=
200702070800 METAR MRPV NIL=
200702070900 METAR MRPV NIL=
200702071000 METAR MRPV NIL=
200702071100 METAR MRPV NIL=
200702071200 METAR MRPV 071200Z 11015KT CAVOK 18/12 A3007 RMK RN DST NE/E=
200702071300 METAR MRPV 071300Z 07017KT CAVOK 19/12 A3000 RMK RN N NE=
200702071400 METAR MRPV 071400Z 11015KT CAVOK 21/13 A3011 RMK RN N NE=
200702071500 METAR MRPV 071500Z 08020KT 9999 FEW023 21/13 A3012=
200702071600 METAR MRPV 071600Z 08015G25KT 9999 FEW024 23/13 A3011=
200702071700 METAR MRPV 071700Z 08015G25KT 9999 FEW026 25/12 A3009 RMK RN N NE=
200702071800 METAR MRPV 071800Z 08015G25KT 9999 FEW026 26/12 A3006=
200702071900 METAR MRPV 071900Z 07020KT 9999 FEW026 26/12 A3004=
200702072000 METAR MRPV 072000Z 08012G24KT 9999 FEW026 26/12 A3000 RMK RN N NE=
200702072100 METAR MRPV 072100Z 08020KT 9999 FEW028 25/13 A2999 RN N NE=
200702072200 METAR MRPV 072200Z 08020KT 9999 SCT026 25/14 A2998 RMK RN N NE=
200702072300 METAR MRPV 072300Z 09018KT 9999 SCT025 23/14 A3000 RMK RN N NE=
200702080000 METAR MRPV NIL=
200702080100 METAR MRPV NIL=
200702080200 METAR MRPV NIL=
200702080300 METAR MRPV NIL=
200702080400 METAR MRPV NIL=
200702080500 METAR MRPV NIL=
200702080600 METAR MRPV NIL=
200702080700 METAR MRPV NIL=
200702080800 METAR MRPV NIL=
200702080900 METAR MRPV NIL=
200702081000 METAR MRPV NIL=
200702081100 METAR MRPV NIL=
200702081200 METAR MRPV 081200Z NIL=
200702081300 METAR MRPV 081300Z 14007KT CAVOK 19/11 A3012=
200702081400 METAR MRPV 081400Z 12010KT CAVOK 22/12 A3013=
200702081500 METAR MRPV 081500Z 08020KT CAVOK 23/13 A3014=
200702081600 METAR MRPV 081600Z 07016KT CAVOK 24/13 A3014=
200702081700 METAR MRPV 081700Z 09019KT 9999 FEW030 25/12 A3012=
200702081800 METAR MRPV 081800Z 08015KT 9999 FEW030 26/14 A3007=
200702081900 METAR MRPV 081900Z 09015KT 9999 SCT030 27/14 A3004=
200702082000 METAR MRPV 082000Z 09016KT 9999 SCT040 26/15 A3001=
200702082100 METAR MRPV 082100Z 09016KT 9999 SCT040 24/16 A3000 LGT HZ ARND=
200702082200 METAR MRPV 082200Z 11012KT 9999 SCT040 23/16 A3001 RMK LGT HZ ARND=
200702082300 METAR MRPV 082300Z 10014KT 9999 SCT030 22/15 A3002 RMK LGT HZ ARND=
200702090000 METAR MRPV NIL=
200702090100 METAR MRPV NIL=
200702090200 METAR MRPV NIL=
200702090300 METAR MRPV NIL=
200702090400 METAR MRPV NIL=
200702090500 METAR MRPV NIL=
200702090600 METAR MRPV NIL=
200702090700 METAR MRPV NIL=
200702090800 METAR MRPV NIL=
200702090900 METAR MRPV NIL=
200702091000 METAR MRPV NIL=
200702091100 METAR MRPV NIL=
200702091200 METAR MRPV 091200Z 13008KT CAVOK 18/12 A3008 SCT270 HZ ARND=
200702091300 METAR MRPV 091300Z 12010KT CAVOK 18/13 A3009 RMK LGT HZ ARND=
200702091400 METAR MRPV 091400Z 13012KT CAVOK 21/14 A3010=
200702091500 METAR MRPV 091500Z 14009KT 9999 SKC 24/12 A3011=
200702091600 METAR MRPV 091600Z 11010KT 9999 SKC 26/11 A3011=
200702091700 METAR MRPV 091700Z 09014KT CAVOK 27/12 A3007=
200702091800 METAR MRPV 091800Z 09014KT CAVOK 27/13 A3005=
200702091900 METAR MRPV 091900Z 09015KT CAVOK 27/14 A3003=
200702092000 METAR MRPV 092000Z 08015KT 9999 FEW040 27/14 A3001=
200702092100 METAR MRPV 092100Z 08015KT 9999 FEW040 26/15 A3000=
200702092200 METAR MRPV 092200Z 09014KT 9999 FEW040 25/15 A3000=
200702092300 METAR MRPV 092300Z 11011KT 9999 FEW035 23/16 A3002=
200702100000 METAR MRPV NIL=
200702100100 METAR MRPV NIL=
200702100200 METAR MRPV NIL=
200702100300 METAR MRPV NIL=
200702100400 METAR MRPV NIL=
200702100500 METAR MRPV NIL=
200702100600 METAR MRPV NIL=
200702100700 METAR MRPV NIL=
200702100800 METAR MRPV NIL=
200702100900 METAR MRPV NIL=
200702101000 METAR MRPV NIL=
200702101100 METAR MRPV NIL=
200702101200 METAR MRPV NIL=
200702101300 METAR MRPV 101300Z 12009KT 9999 SKC 19/12 A3009=
200702101400 METAR MRPV 101400Z 11009KT CAVOK 22/12 A3010=
200702101500 METAR MRPV 101500Z 10014KT CAVOK 23/12 A3011=
200702101600 METAR MRPV 101600Z 08014KT CAVOK 24/13 A3011=
200702101700 METAR MRPV 101700Z 08016KT CAVOK 25/14 A3009=
200702101800 METAR MRPV 101800Z 08017KT 9999 FEW040 26/14 A3007=
200702101900 METAR MRPV 101900Z 09016KT 9999 FEW035 27/14 A3004 RMK FU S=
200702102000 METAR MRPV 102000Z 08014KT 9999 SCT040 26/14 A3002=
200702102100 METAR MRPV 102100Z 09011KT 9999 SCT040 25/15 A3000=
200702102200 METAR MRPV 102200Z 09013KT 9999 SCT00 24/15 A3000=
200702102300 METAR MRPV 102300Z 09013KT 9999 SCT035 23/16 A3001=
200702110000 METAR MRPV NIL=
200702110100 METAR MRPV NIL=
200702110200 METAR MRPV NIL=
200702110300 METAR MRPV NIL=
200702110400 METAR MRPV NIL=
200702110500 METAR MRPV NIL=
200702110600 METAR MRPV NIL=
200702110700 METAR MRPV NIL=
200702110800 METAR MRPV NIL=
200702110900 METAR MRPV NIL=
200702111000 METAR MRPV NIL=
200702111100 METAR MRPV NIL=
200702111200 METAR MRPV NIL=
200702111300 METAR MRPV 111300Z 11015KT CAVOK 20/14 A3008=
200702111400 METAR MRPV 111400Z 10018KT CAVOK 22/14 A3010=
200702111500 METAR MRPV 111500Z 10018KT CAVOK 24/15 A3011=
200702111600 METAR MRPV 111600Z 09018KT CAVOK 25/15 A3010=
200702111700 METAR MRPV 111700Z 08018KT CAVOK 27/14 A3007=
200702111800 METAR MRPV 111800Z 08018KT 9999 FEW024 28/12 A3005=
200702111900 METAR MRPV 111900Z 09020KT 9999 FEW026 27/16 A3002=
200702112000 METAR MRPV 112000Z 08020KT 9999 FEW026 27/16 A2999=
200702112100 METAR MRPV NIL=
200702112200 METAR MRPV 112200Z 08020KT 9999 FEW023 25/15 A2998=
200702112300 METAR MRPV 112300Z 08020KT 9999 FEW024 24/16 A2999=
200702120000 METAR MRPV NIL=
200702120200 METAR MRPV NIL=
200702120300 METAR MRPV NIL=
200702120400 METAR MRPV NIL=
200702120500 METAR MRPV NIL=
200702120600 METAR MRPV NIL=
200702120700 METAR MRPV NIL=
200702120800 METAR MRPV NIL=
200702120900 METAR MRPV NIL=
200702121000 METAR MRPV NIL=
200702121100 METAR MRPV NIL=
200702121200 METAR MRPV NIL=
200702121300 METAR MRPV 121300Z 11015KT CAVOK 21/15 A3005 RMK RN N NE=
200702121400 METAR MRPV 121400Z 11016KT CAVOK 23/15 A3007=
200702121500 METAR MRPV 121500Z 09020KT CAVOK 25/15 A3009=
200702121600 METAR MRPV 121600Z 09016KT CAVOK 25/15 A3009=
200702121700 METAR MRPV 121700Z 09018KT CAVOK 26/15 A3007=
200702121800 METAR MRPV 121800Z 08018KT CAVOK 27/15 A3002 RMK FU 09=
200702121900 METAR MRPV 121900Z 08017KT CAVOK 28/16 A2999 RMK FU 09=
200702122000 METAR MRPV 122000Z 08018KT 9999 FEW027 28/16 A2997 RMK FU 09=
200702122100 METAR MRPV 122100Z 08018KT 9999 FEW026 27/16 A2995=
200702122200 METAR MRPV 122200Z 08016KT 9999 FEW026 27/16 A2995=
200702122300 METAR MRPV 122300Z 08014KT 9999 SCT025 25/16 A2996=
200702122344 METAR MRPV 122344Z 09015KT 9999 FEW025 23/16 A2997=
200702130000 METAR MRPV NIL=
200702130100 METAR MRPV 130100Z NIL=
200702130200 METAR MRPV NIL=
200702130300 METAR MRPV NIL=
200702130400 METAR MRPV NIL=
200702130600 METAR MRPV NIL=
200702130700 METAR MRPV NIL=
200702130800 METAR MRPV NIL=
200702130900 METAR MRPV NIL=
200702131000 METAR MRPV NIL=
200702131100 METAR MRPV NIL=
200702131200 METAR MRPV NIL=
200702131300 METAR MRPV 131300Z 14007KT CAVOK 19/14 A3003=
200702131400 METAR MRPV 131400Z 11015KT CAVOK 22/14 A3006=
200702131500 METAR MRPV 131500Z 10010KT CAVOK 24/14 A3007=
200702131600 METAR MRPV 131600Z 09008KT CAVOK 27/12 A3006=
200702131700 METAR MRPV 131700Z 27008KT CAVOK 28/13 A3003=
200702131800 METAR MRPV 131800Z 28010KT 9999 FEW030 28/15 A3000=
200702131900 METAR MRPV 131900Z 28004KT 9999 FEW030 28/17 A2997=
200702132000 METAR MRPV 132000Z 27014KT 9999 FEW027 29/18 A2995=
200702132100 METAR MRPV 132100Z 26010KT 9999 SCT024 27/18 A2994 RMK HZ W TCU S=
200702132200 METAR MRPV 132200Z 25012KT 9999 SCT022TCU 27/19 A2994=
200702132300 METAR MRPV 132300Z 26012KT 9999 SCT020TCU 25/19 A2996 RMK PCPN DST NNE HZ W=
200702140000 METAR MRPV NIL=
200702140100 METAR MRPV 140100Z NIL=
200702140200 METAR MRPV NIL=
200702140300 METAR MRPV NIL=
200702140400 METAR MRPV NIL=
200702140500 METAR MRPV NIL=
200702140600 METAR MRPV NIL=
200702140700 METAR MRPV NIL=
200702140800 METAR MRPV NIL=
200702140900 METAR MRPV NIL=
200702141000 METAR MRPV NIL=
200702141100 METAR MRPV NIL=
200702141200 METAR MRPV NIL=
200702141300 METAR MRPV 141300Z 10005KT CAVOK 18/13 A3005/ SCT250 HZ ARND=
200702141400 METAR MRPV 141400Z 08004KT CAVOK 22/14 A3007 RMK HZY=
200702141500 METAR MRPV 141500Z 35003KT CAVOK 25/16 A3000 RMK HZY=
200702141600 METAR MRPV 141600Z 31005KT CAVOK 27/16 A3005 RMK HZY=
200702141700 METAR MRPV 141700Z 28008KT 9999 FEW040 28/15 A3003 RMK HZY=
200702141800 METAR MRPV 141800Z 28008KT 9999 SCT040 28/14 A2999 RMK HZY=
200702141900 METAR MRPV 141900Z 28007KT 9999 SCT040 29/14 A2997 RMK HZY=
200702142000 METAR MRPV 142000Z 29010KT 9999 SCT030 29/18 A2995 RMK HZY=
200702142100 METAR MRPV 142100Z 29007KT 9999 FEW030 BKN040 29/17 A2994 RMK HZY=
200702142200 METAR MRPV 142200Z 20003KT 9999 -RA FEW020TCU SCT040 26/17 A2994 RMK HZY=
200702142300 METAR MRPV 142300Z 26005KT 9999 FEW020 SCT040 25/18 A2995 RMK HZY=
200702150000 METAR MRPV NIL=
200702150100 METAR MRPV NIL=
200702150200 METAR MRPV NIL=
200702150300 METAR MRPV NIL=
200702150400 METAR MRPV NIL=
200702150500 METAR MRPV NIL=
200702150600 METAR MRPV NIL=
200702150700 METAR MRPV NIL=
200702150800 METAR MRPV NIL=
200702150900 METAR MRPV NIL=
200702151000 METAR MRPV NIL=
200702151100 METAR MRPV NIL=
200702151200 METAR MRPV NIL=
200702151300 METAR MRPV 151300Z 13005KT CAVOK 20/15 A3003 RMK HZY=
200702151400 METAR MRPV 151400Z 13007KT CAVOK 23/15 A3005 RMK HZY=
200702151500 METAR MRPV 151500Z 11007KT CAVOK 26/08 A30006 RMK HZY=
200702151600 METAR MRPV 151600Z 11006KT 9999 FEW035 28/10 A3006 RMK HZ LGT ARND=
200702151700 METAR MRPV 151700Z 09009KT 9999 FEW040 28/12 A3004 RMK HZY=
200702151800 METAR MRPV 151800Z 09005KT 9999 SCT040 29/13 A3001 RMK HZY=
200702151900 METAR MRPV 151900Z 10007KT 9999 SCT040 29/14 A2998 RMK HZY=
200702152000 METAR MRPV 152000Z 08003KT 9999 FEW020 SCT040 28/15 A2996 RMK HZY=
200702152100 METAR MRPV 152100Z 26004KT 9999 FEW020 SCT040 26/19 A2995 RMK HZY=
200702152200 METAR MRPV 152200Z 26004KT 9999 SCT020TCU BKN040 24/19 A2997 RMK HZY TCU RN DST SW=
200702152300 METAR MRPV 152300Z 00000KT 9999 SCT020TCU BKN040 22/18 A2999 RMK HZY=
200702160000 METAR MRPV NIL=
200702160100 METAR MRPV NIL=
200702160200 METAR MRPV NIL=
200702160300 METAR MRPV NIL=
200702160400 METAR MRPV NIL=
200702160500 METAR MRPV NIL=
200702160600 METAR MRPV NIL=
200702160700 METAR MRPV NIL=
200702160800 METAR MRPV NIL=
200702160900 METAR MRPV NIL=
200702161000 METAR MRPV NIL=
200702161100 METAR MRPV NIL=
200702161200 METAR MRPV 161200Z 15004KT CAVOK 17/12 A3005 RMK BKN270 HZY=
200702161300 METAR MRPV 161300Z 12005KT CAVOK 18/12 A3007 RMK HZY=
200702161400 METAR MRPV 161400Z 13005KT CAVOK 22/11 A3009 RMK LEVE HZY=
200702161500 METAR MRPV 161500Z 10009KT CAVOK 25/08 A3009 RMK HZ LGT ARND=
200702161600 METAR MRPV 161600Z 09009KT CAVOK 26/06 A3010=
200702161700 METAR MRPV 161700Z 08010KT CAVOK 27/07 A3007=
200702161800 METAR MRPV 161800Z 06009KT CAVOK 29/09 A3002=
200702161900 METAR MRPV 161900Z 08012KT CAVOK 30/07 A3000 RMK HZ LGT ARND=
200702162000 METAR MRPV 162000Z 08012KT 9999 FEW040 SCT270 29/09 A2997 RMK LEVE HZY=
200702162100 METAR MRPV 162100Z 08014KT 9999 FEW040 SCT270 28/10 A2996 RMK HZ ARND TCU DST S=
200702162200 METAR MRPV 162200Z 09013KT 9999 FEW040 SCT270 28/12 A2996 RMK CB DST SE=
200702162300 METAR MRPV 162300Z 09012KT 9999 FEW040 SCT270 25/14 A2997 RMK CB DST SE=
200702170000 METAR MRPV NIL=
200702170100 METAR MRPV NIL=
200702170200 METAR MRPV NIL=
200702170300 METAR MRPV NIL=
200702170400 METAR MRPV NIL=
200702170500 METAR MRPV NIL=
200702170700 METAR MRPV NIL=
200702170800 METAR MRPV NIL=
200702170900 METAR MRPV NIL=
200702171000 METAR MRPV NIL=
200702171100 METAR MRPV NIL=
200702171200 METAR MRPV NIL=
200702171300 METAR MRPV 171300Z 12015KT CAVOK 19/13 A3008=
200702171400 METAR MRPV 171400Z 11016KT CAVOK 22/10 A3009=
200702171500 METAR MRPV 171500Z 09020KT CAVOK 24/11 A3010=
200702171600 METAR MRPV 171600Z 09022KT CAVOK 24/19 A3010=
200702171700 METAR MRPV 171700Z 07022KT 9999 FEW030 25/12 A3009=
200702171800 METAR MRPV 171800Z 08018KT 9999 FEW030 26/13 A3006=
200702171900 METAR MRPV 171900Z 07020KT 9999 FEW030 26/12 A3004=
200702172000 METAR MRPV 172000Z 09020KT 9999 SCT030 26/13 A3002=
200702172100 METAR MRPV 172100Z 08020KT 9999 SCT030 25/14 A2999=
200702172200 METAR MRPV 172200Z 09024KT 9999 SCT030 24/14 A2999=
200702172300 METAR MRPV 172300Z 08020KT 9999 FEW020 SCT035 23/14 A3001=
200702180000 METAR MRPV NIL=
200702180100 METAR MRPV NIL=
200702180200 METAR MRPV NIL=
200702180300 METAR MRPV NIL=
200702180400 METAR MRPV NIL=
200702180500 METAR MRPV NIL=
200702180600 METAR MRPV NIL=
200702180700 METAR MRPV NIL=
200702180800 METAR MRPV NIL=
200702180900 METAR MRPV NIL=
200702181000 METAR MRPV NIL=
200702181100 METAR MRPV NIL=
200702181200 METAR MRPV NIL=
200702181300 METAR MRPV 181300Z 12012KT CAVOK 21/11 A3009=
200702181400 METAR MRPV 181400Z 09020G30KT CAVOK 23/10 A3011=
200702181500 METAR MRPV 181500Z 10020G30KT CAVOK 25710 A3013 RMK FU 09=
200702181600 METAR MRPV 181600Z 09015G25KT CAVOK 25/12 A3013=
200702181700 METAR MRPV 181700Z 08020G30KT CAVOK 24/14 A3012=
200702181800 METAR MRPV 181800Z 07022G32KT 9999 FEW030 25/14 A3010=
200702181900 METAR MRPV 181900Z 07020G30KT 9999 FEW030 25/15 A3007=
200702182000 METAR MRPV 182000Z 06020G30KT 9999 SCT030 26/14 A3005=
200702182100 METAR MRPV 182100Z 07015G25KT 9999 SCT030 25/14 A3002=
200702182200 METAR MRPV 182200Z 06015G25KT 9999 -DZ FEW020 SCT035 23/15 A3002 RASH N QD=
200702182300 METAR MRPV 182300Z 07015G25KT 9999 -DZ SCT020 SCT035 BKN250 21/15 A3005=
200702190000 METAR MRPV NIL=
200702190100 METAR MRPV NIL=
200702190200 METAR MRPV NIL=
200702190300 METAR MRPV NIL=
200702190400 METAR MRPV NIL=
200702190500 METAR MRPV NIL=
200702190600 METAR MRPV NIL=
200702190700 METAR MRPV NIL=
200702190800 METAR MRPV NIL=
200702190900 METAR MRPV NIL=
200702191000 METAR MRPV NIL=
200702191100 METAR MRPV NIL=
200702191200 METAR MRPV 191200Z 10019KT 9999 SCT030 SCT250 18/14 A3007 RMK RN DST N=
200702191300 METAR MRPV 191300Z 09017KT 9999 SCT030 19/14 A3008 RMK RFGS 22KT RN N QUAD=
200702191400 METAR MRPV 191400Z 09015KT 9999 SCT030 20/15 A3010 RN DIST N QUAD RFGS 20KT=
200702191500 METAR MRPV 191500Z 09023KT 9999 SCT030 20/15 A3011 RMK RN DIST N QUAD=
200702191600 METAR MRPV 191600Z 09019G29KT 9999 SCT030 22/15 A3012 RMK PCPN DIST N QD=
200702191700 METAR MRPV 191700Z 09015G25KT SCT030 22/15 A3010 RMK PCPN DST N QD=
200702191800 METAR MRPV 191800Z 09018G28KT 9999 SCT030 22/15 A3008 RMK RN N QD=
200702191900 METAR MRPV 191900Z 08020G30KT 9999 SCT030 22/15 A3005=
200702192000 METAR MRPV 192000Z 07020G30KT 9999 SCT030 22/15 A3002 RMK PCPN DST N QUAD=
200702192100 METAR MRPV 192100Z 07022G33KT 9999 SCT030 22/15 A3002 RMK NE/E=
200702192200 METAR MRPV 192200Z 08020G30KT 9999 SCT025 20/15 A3002 RMK NE/E=
200702192300 METAR MRPV 192300Z 07015G25KT 9999 SCT022 20/15 A3003 RMK RN DST N/NE/E=
200702200000 METAR MRPV NIL=
200702200100 METAR MRPV NIL=
200702200200 METAR MRPV NIL=
200702200400 METAR MRPV NIL=
200702200500 METAR MRPV NIL=
200702200600 METAR MRPV NIL=
200702200700 METAR MRPV NIL=
200702200800 METAR MRPV NIL=
200702200900 METAR MRPV NIL=
200702201000 METAR MRPV NIL=
200702201100 METAR MRPV NIL=
200702201200 METAR MRPV 201200Z 11010KT 9999 FEW025 BKN250 19/15 A3004 RMK DZ N=
200702201300 METAR MRPV 201300Z 10011KT 9999 FEW030 SCT300 20/15 A3006 RMK DZ DST N/NE RAFAGAS 16KT=
200702201400 METAR MRPV 201400Z 09015KT CAVOK 21/15 A3007 RMK DZ DST N/NE SCT300=
200702201500 METAR MRPV 201500Z 07018KT 9999 FEW040 SCT300 22/16 A3010 RMK DZ N/NE=
200702201600 METAR MRPV 201600Z 08017KT 9999 SCT040 SCT300 23/16 A3011 RMK DZ N/NE=
200702201700 METAR MRPV 201700Z 08015KT 9999 BKN030 23/16 A3010 RMK DZ N/NE=
200702201800 METAR MRPV 201800Z 09013KT 9999 BKN025 23/16 A3006 RMK DZ DST N/NE=
200702201900 METAR MRPV 201900Z 09012KT 9999 BKN020 22/16 A3006 RMK DZ N/NE=
200702202000 METAR MRPV 202000Z 10010KT 9999 BKN020 22/16 A3001 RMK DZ N/NE=
200702202100 METAR MRPV 202100Z 07017KT 9999 SCT020 BKN040 27/17 A2998 DZ N NE=
200702202200 METAR MRPV 202200Z 10012KT 9999 4000S VCSH BKN040 22/17 A2999 RN E SE S=
200702202300 METAR MRPV 202300Z 10011KT 9999 BKN020 22/17 A3000 DZ N NE=
200702210000 METAR MRPV NIL=
200702210100 METAR MRPV NIL=
200702210200 METAR MRPV NIL=
200702210300 METAR MRPV NIL=
200702210400 METAR MRPV NIL=
200702210500 METAR MRPV NIL=
200702210600 METAR MRPV NIL=
200702210700 METAR MRPV NIL=
200702210800 METAR MRPV NIL=
200702210900 METAR MRPV NIL=
200702211100 METAR MRPV NIL=
200702211200 METAR MRPV 211200Z 12010KT CAVOK 18/12 A3002 RMK BKN280 RFGS 16KT=
200702211300 METAR MRPV 211300Z 12010KT CAVOK 19/13 A3005 BKN280 GUTS 15KT=
200702211400 METAR MRPV 211400Z 11010KT CAVOK 22/12 A3006 BKN280=
200702211500 METAR MRPV 211500Z 09014KT CAVOK 24/13 A3009 SCT300=
200702211600 METAR MRPV 211600Z 07013KT CAVOK 25/13 A3008 SCT300=
200702211700 METAR MRPV 211700Z 07016KT CAVOK 26/14 A3006 SCT300=
200702211800 METAR MRPV 211800Z 07018KT 9999 FEW040 SCT300 25/14 A3004=
200702211900 METAR MRPV NIL=
200702212000 METAR MRPV 212000Z 08014KT 9999 FEW040 SCT300 26/14 A2999=
200702212100 METAR MRPV 212100Z 08019KT 9999 FEW040 26/14 A2997=
200702212200 METAR MRPV 212200Z 07010KT 9999 FEW040 26/14 A2997=
200702212300 METAR MRPV 212300Z 07015KT 9999 FEW040 24/14 A2998=
200702220000 METAR MRPV 220000Z NIL=
200702220100 METAR MRPV NIL=
200702220200 METAR MRPV NIL=
200702220300 METAR MRPV NIL=
200702220400 METAR MRPV NIL=
200702220500 METAR MRPV NIL=
200702220600 METAR MRPV NIL=
200702220700 METAR MRPV NIL=
200702220800 METAR MRPV NIL=
200702220900 METAR MRPV NIL=
200702221000 METAR MRPV NIL=
200702221100 METAR MRPV NIL=
200702221200 METAR MRPV 221200Z 11011KT CAVOK 19/14 A3002 RMK TRAZOS DE SC=
200702221300 METAR MRPV 221300Z 10011KT CAVOK 20/14 A3004 RMK GST 19KT=
200702221400 METAR MRPV 221400Z 09013KT CAVOK 22/14 A3007 GST 19KT=
200702221500 METAR MRPV 221500Z 10015KT CAVOK 23/13 A3008=
200702221600 METAR MRPV 221600Z 08023KT 9999 NSC 24/13 A3007=
200702221700 METAR MRPV 221700Z 07023KT 9999 NSC 25/13 A3004 RMK GST28KT=
200702221800 METAR MRPV 221800Z 07023KT 9999 NSC 26/14 A3002 RMK GST30KT=
200702221900 METAR MRPV 221900Z 08018KT 9999 NSC 27/14 A2998=
200702222000 METAR MRPV 222000Z 07018KT 9999 FEW040 27/12 A2996=
200702222100 METAR MRPV 222100Z 07020KT 9999 FEW040 26/14 A2994=
200702222200 METAR MRPV 222200Z 07014KT 9999 FEW040 25/14 A2994=
200702222300 METAR MRPV NIL=
200702230000 METAR MRPV NIL=
200702230100 METAR MRPV NIL=
200702230200 METAR MRPV NIL=
200702230300 METAR MRPV NIL=
200702230400 METAR MRPV NIL=
200702230500 METAR MRPV NIL=
200702230600 METAR MRPV NIL=
200702230700 METAR MRPV NIL=
200702230800 METAR MRPV NIL=
200702230900 METAR MRPV NIL=
200702231000 METAR MRPV NIL=
200702231100 METAR MRPV NIL=
200702231200 METAR MRPV 231200Z 12010KT CAVOK 18/12 A2999 BKN3900 GTS 16KT=
200702231300 METAR MRPV 231300Z 11010KT CAVOK 20/13 A3001=
200702231400 METAR MRPV 231400Z 12010KT CAVOK 22/12 A3002 RMK RAFAGAS 17KT BKN300=
200702231500 METAR MRPV 231500Z 08020KT CAVOK 23/13 A3004=
200702231600 METAR MRPV 231600Z 07020KT CAVOK 24/14 A3004=
200702231700 METAR MRPV 231700Z 07016KT 9999 FEW030 25714 A3002 RMK FU S=
200702231800 METAR MRPV 231800Z 07018KT 9999 FEW030 25/15 A3000=
200702231900 METAR MRPV 231900Z 09020KT 9999 FEW030 25/15 A2996=
200702232000 METAR MRPV 232000Z 07022KT 9999 FEW030 25/14 A2995=
200702232100 METAR MRPV 232100Z 08020KT 9999 SCT030 26/16 A2993=
200702232200 METAR MRPV 232200Z 07022KT 9999 SCT030 25/14 A2993 RMK TCU DST ESE=
200702232300 METAR MRPV 232300Z 08024KT 9999 FEW030 22/15 A2994=
200702240000 METAR MRPV NIL=
200702240100 METAR MRPV NIL=
200702240200 METAR MRPV NIL=
200702240300 METAR MRPV NIL=
200702240400 METAR MRPV NIL=
200702240500 METAR MRPV NIL=
200702240600 METAR MRPV NIL=
200702240700 METAR MRPV NIL=
200702240800 METAR MRPV NIL=
200702240900 METAR MRPV NIL=
200702241000 METAR MRPV NIL=
200702241100 METAR MRPV NIL=
200702241200 METAR MRPV NIL=
200702241300 METAR MRPV 241300Z 11016KT 9999 NSC 19/11 A3001=
200702241400 METAR MRPV 241400Z 10018KT 9999 SKC 21/12 A3003=
200702241500 METAR MRPV 241500Z 09020KT 9999 SKC 23/12 A3004=
200702241600 METAR MRPV 241600Z 07020KT 9999 NSC 24/13 A3003=
200702241700 METAR MRPV 241700Z 08018KT 9999 NSC 26/14 A3002=
200702241800 METAR MRPV 241800Z 10017KT 9999 FEW030 27/14 A2999=
200702241900 METAR MRPV 241900Z 08020KT 9999 FEW035 26/15 A2997=
200702242000 METAR MRPV 242000Z 08016G26KT 9999 FEW035 26/15 A2994=
200702242100 METAR MRPV 242100Z 08020KT 9999 FEW035 24/15 A29994 RMK HZ W=
200702242200 METAR MRPV 242200Z 08022KT 9999 FEW035 24/15 A2992 RMK HZ W=
200702242300 METAR MRPV 242300Z 08020KT 9999 FEW030 22/15 A2994=
200702250000 METAR MRPV NIL=
200702250100 METAR MRPV NIL=
200702250200 METAR MRPV NIL=
200702250400 METAR MRPV NIL=
200702250500 METAR MRPV NIL=
200702250600 METAR MRPV NIL=
200702250700 METAR MRPV NIL=
200702250800 METAR MRPV NIL=
200702250900 METAR MRPV NIL=
200702251000 METAR MRPV NIL=
200702251100 METAR MRPV NIL=
200702251200 METAR MRPV NIL=
200702251300 METAR MRPV 251300Z 10012KT 9999 SKC 20/13 A3001=
200702251400 METAR MRPV 251400Z 11014KT 9999 SKC 22/13 A3003=
200702251500 METAR MRPV 251500Z 12014KT 9999 SKC 26/14 A3003=
200702251600 METAR MRPV 251600Z 12010KT 9999 SKC 28/14 A3003=
200702251700 METAR MRPV 251700Z 09012KT 9999 NSC 29/14 A3000=
200702251800 METAR MRPV 251800Z 11013KT 9999 NSC 31/13 2997=
200702251900 METAR MRPV 251900Z 09014KT 9999 NSC 31/13 A2993=
200702252000 METAR MRPV 252000Z 08015KT 9999 FEW035 30/15 A2991=
200702252100 METAR MRPV 252100Z 07012KT 9999 FEW030 28/16 A2991=
200702252200 METAR MRPV 252200Z 07014KT 9999 FEW025 27/16 A2991=
200702252300 METAR MRPV 252300Z 08014KT 9999 FEW022 25/16 A2992=
200702260000 METAR MRPV NIL=
200702260100 METAR MRPV NIL=
200702260200 METAR MRPV NIL=
200702260300 METAR MRPV NIL=
200702260400 METAR MRPV NIL=
200702260500 METAR MRPV NIL=
200702260600 METAR MRPV NIL=
200702260700 METAR MRPV NIL=
200702260800 METAR MRPV NIL=
200702260900 METAR MRPV NIL=
200702261100 METAR MRPV NIL=
200702261200 METAR MRPV 261200Z 12009KT 9999 SKC 19/13 A2997=
200702261300 METAR MRPV 261300Z 10012KT 9999 NSC 20/14 A3000=
200702261400 METAR MRPV 261400Z 08008KT 9999 NSC 24/16 VIENTO ESTIMADO=
200702261500 METAR MRPV 261500Z 09015KT 9999 NSC 27/17 A//// VIENTO ESTIMADO=
200702261600 METAR MRPV 261600Z 10012KT 9999 NSC 29/17 A/// VIENTO ESTIMADO=
200702261700 METAR MRPV 261700Z 08012KT 9999 NSC 30/18 A//// VIENTO ESTIMADO=
200702261800 METAR MRPV 261800Z 09015KT 9999 NSC 31/18 A/// VIENTO ESTIMADO=
200702261900 METAR MRPV 261900Z 09014KT 9999 NSC 28/17 A2996=
200702262000 METAR MRPV 262000Z 10014KT 9999 FEW040 29/16 A2993=
200702262100 METAR MRPV 262100Z 08017KT 9999 FEW040 27/16 A2991 RMK HZ ARND=
200702262200 METAR MRPV 262200Z 09015KT 9999 FEW040 26/16 A2992 RMK HZ ARND=
200702262300 METAR MRPV 262300Z 09014KT 9999 FEW040 25/16 A2992 RMK HZ ARND=
200702270000 METAR MRPV 270000Z NIL=
200702270100 METAR MRPV NIL=
200702270300 METAR MRPV NIL=
200702270400 METAR MRPV NIL=
200702270500 METAR MRPV NIL=
200702270600 METAR MRPV NIL=
200702270700 METAR MRPV NIL=
200702270800 METAR MRPV NIL=
200702270900 METAR MRPV NIL=
200702271000 METAR MRPV NIL=
200702271100 METAR MRPV NIL=
200702271200 METAR MRPV 271200Z 12010KT CAVOK 20/16 A2993 RMK TRAZAS SC HZ W=
200702271300 METAR MRPV 271300Z 11014KT CAVOK 22/16 A2995 RMK TRAZAS SC=
200702271400 METAR MRPV 271400Z 09016KT CAVOK 24/16 A2997 RMK TRAZAS SC GST24KT HZ W=
200702271500 METAR MRPV 271500Z 08019KT CAVOK 25/16 A2999 RMK GST24KT TRAZAS SC HZ ARND=
200702271600 METAR MRPV 271600Z 07018KT CAVOK 27/16 A2998 RMK TRZAS SC GST24KT HZ ARND=
200702271700 METAR MRPV 271700Z 08017KT 9999 FEW047 27/16 A2997 RMK GST22KT LGT HZ ARND=
200702271800 METAR MRPV 271800Z 08012KT 9999 FEW047 29/16 A2994 RMK GST17KT LGT HZ ARND=
200702271900 METAR MRPV 271900Z 07012KT 9999 FEW045 29/17 A2991 RMK LGT HZ ARND=
200702272000 METAR MRPV 272000Z 08012KT 9999 FEW045 30/16 A2989 RMK LGT HZ SW=
200702272100 METAR MRPV 272100Z 02007KT 9999 FEW045 29/16 A2988 RMK HZ W QUAD=
200702272200 METAR MRPV 272200Z 08016KT 9999 FEW045 29/16 A2987 RMK HZ W=
200702272300 METAR MRPV 272300Z 08011KT 9999 FEW040 27/16 A2988 RMK HZ W=
200702280000 METAR MRPV NIL=
200702280100 METAR MRPV NIL=
200702280200 METAR MRPV NIL=
200702280300 METAR MRPV NIL=
200702280400 METAR MRPV NIL=
200702280500 METAR MRPV NIL=
200702280600 METAR MRPV NIL=
200702280700 METAR MRPV NIL=
200702280800 METAR MRPV NIL=
200702280900 METAR MRPV NIL=
200702281000 METAR MRPV NIL=
200702281100 METAR MRPV NIL=
200702281200 METAR MRPV 281200Z 12010KT 9999 FEW025 22/16 A2992 HZ W=
200702281300 METAR MRPV 281300Z 12010KT 9999 NSC 22/16 A2994 RMK HZ ARND TRACE SC=
200702281400 METAR MRPV 281400Z 10012KT 9999 FEW030 24/17 A2995=
200702281500 METAR MRPV 281500Z 10011KT 9999 FEW040 26717 A2997 RMK HZ ARND=
200702281600 METAR MRPV NIL=
200702281700 METAR MRPV 281700Z 08018KT 9999 SCT030 27/17 A2994 RMK HZ ARND=
200702281800 METAR MRPV 281800Z 09016KT 9999 SCT030 27/17 A2993 RMK HZ ARND=
200702281900 METAR MRPV 281900Z 08014KT 9999 FEW025 SCT040 28717 A2991 RMK HZ ARND RAFAGAS 21KT=
200702282000 METAR MRPV NIL=
200702282100 METAR MRPV NIL=
200702282200 METAR MRPV NIL=
200702282300 METAR MRPV NIL=
200703010000 METAR MRPV NIL=
200703010100 METAR MRPV NIL=
200703010200 METAR MRPV NIL=
200703010300 METAR MRPV NIL=
200703010400 METAR MRPV NIL=
200703010500 METAR MRPV NIL=
200703010600 METAR MRPV NIL=
200703010700 METAR MRPV NIL=
200703010800 METAR MRPV NIL=
200703010900 METAR MRPV NIL=
200703011000 METAR MRPV NIL=
200703011100 METAR MRPV NIL=
200703011200 METAR MRPV NIL=
200703011300 METAR MRPV 011300Z 10011KT 9999 NSC 22/16 A2992 RMK LG HZ ARND TRACE SC=
200703011400 METAR MRPV 011400Z 09012KT 9999 SCT030 23/17 A2993 RMK RFGS 18KT DUST OVER APCH 09 HZY=
200703011500 METAR MRPV 011500Z 07022KT 9999 SCT030 24/17 A2995 RMK LGT HZ W FU TO W=
200703011600 METAR MRPV 011600Z 07020KT 9999 FEW030 25/16 A2995 RMK HZ TO W=
200703011700 METAR MRPV 011700Z 08022KT 9999 FEW030 26/16 A2992 RMK HZ W=
200703011800 METAR MRPV 011800Z 08022KT 9999 FEW030 28/16 A2989 RMK HZ TO W=
200703011900 METAR MRPV NIL=
200703012000 METAR MRPV NIL=
200703012100 METAR MRPV NIL=
200703012200 METAR MRPV NIL=
200703012300 METAR MRPV 012300Z 09016KT 9999 SCT025 24/17 A2983 RMK HZ W=
200703020000 METAR MRPV NIL=
200703020100 METAR MRPV NIL=
200703020200 METAR MRPV NIL=
200703020300 METAR MRPV NIL=
200703020400 METAR MRPV NIL=
200703020500 METAR MRPV NIL=
200703020600 METAR MRPV NIL=
200703020700 METAR MRPV NIL=
200703020800 METAR MRPV NIL=
200703020900 METAR MRPV NIL=
200703021000 METAR MRPV NIL=
200703021200 METAR MRPV 021200Z 10012KT 9999 NSC 20/16 A2990 RMK RAFAGAS 17KT TRACE SC CI=
200703021300 METAR MRPV NIL=
200703021400 METAR MRPV NIL=
200703021500 METAR MRPV 021500Z 09017KT NSC 25/16 A2993 RMK TRAZOS DE SC HZ SEMICIRCULO DEL W=
200703021700 METAR MRPV NIL=
200703021800 METAR MRPV 021800Z 08022KT 9999 FEW030 28/15 A2989 RMK HZ DST W=
200703021900 METAR MRPV 021900Z 08022KT 9999 FEW030 29/14 A2987 RMK HZ DST W=
200703022000 METAR MRPV 022000Z 07020KT 9999 FEW030 28/14 A2984 RMK HZ DST W TCU DST S=
200703022100 METAR MRPV 022100Z 08020KT 9999 FEW025 28/16 A2983 HZ W TCU S=
200703022200 METAR MRPV 022200Z 908020KT 9999 FEW024 26/17 A2983 HZ W=
200703022300 METAR MRPV NIL=
200703030000 METAR MRPV NIL=
200703030100 METAR MRPV NIL=
200703030200 METAR MRPV NIL=
200703030300 METAR MRPV NIL=
200703030400 METAR MRPV NIL=
200703030500 METAR MRPV NIL=
200703030600 METAR MRPV NIL=
200703030700 METAR MRPV NIL=
200703030800 METAR MRPV NIL=
200703030900 METAR MRPV NIL=
200703031100 METAR MRPV NIL=
200703031200 METAR MRPV NIL=
200703031300 METAR MRPV 031300Z 10016KT 9999 FEW020 22/16 A2994 RMK HZ LEVE W=
200703031400 METAR MRPV 031400Z 09020KT 9999 FEW022 23/16 A2996 HZ W=
200703031500 METAR MRPV 031500Z 08024KT 9999 FEW024 24/16 A2996 HZ W=
200703031600 METAR MRPV 031600Z 07024KT 9999 FEW026 25/16 A2996 HZ W=
200703031700 METAR MRPV 031700Z 07025KT 9999 FEW028 27/16 A2994 HZY=
200703031800 METAR MRPV 031800Z 08022KT 9999 FEW030 27/16 A2991 HZ W=
200703031900 METAR MRPV 031900Z 07020KT 9999 FEW030 28/16 A2989 HZY W=
200703032000 METAR MRPV 032000Z 07020KT 9999 FEW030 27/15 A2987=
200703032100 METAR MRPV 032100Z 07020KT 9999 FEW030 27/16 A2966 RMK LGT HZ ARND=
200703032200 METAR MRPV 032200Z 07018KT 9999 FEW030 26/15 A2986 RMK HZ ARND LGT=
200703032300 METAR MRPV 032300Z 07020KT 9999 FEW025 BKN250 24/15 A2986 RMK HZ LGT ARND=
200703040000 METAR MRPV NIL=
200703040100 METAR MRPV NIL=
200703040200 METAR MRPV NIL=
200703040300 METAR MRPV NIL=
200703040400 METAR MRPV NIL=
200703040500 METAR MRPV NIL=
200703040700 METAR MRPV NIL=
200703040800 METAR MRPV NIL=
200703040900 METAR MRPV NIL=
200703041000 METAR MRPV NIL=
200703041100 METAR MRPV NIL=
200703041200 METAR MRPV 041200Z NIL=
200703041300 METAR MRPV 041300Z 12011KT CAVOK 21/15 A3001=
200703041500 METAR MRPV NIL=
200703041600 METAR MRPV 041600Z 07019KT 9999 FEW030 24/15 A3005=
200703041700 METAR MRPV 041700Z 08019KT 9999 FEW030 25/14 A3004=
200703041800 METAR MRPV 041800Z 06018KT 9999 FEW040 27/14 A3002=
200703042000 METAR MRPV 042000Z 08018KT 9999 FEW040 27/16 A2997 RMK GST25KT=
200703042100 METAR MRPV 042100Z 07017KT 9999 FEW040 27/24 A2994 RMK GST23KT=
200703042200 METAR MRPV 042200Z 08014KT 9999 -RA SCT020 BKN100 22/18 A2996 RMK GST20KT=
200703042300 METAR MRPV NIL=
200703050000 METAR MRPV 050000Z NIL=
200703050100 METAR MRPV NIL=
200703050200 METAR MRPV NIL=
200703050300 METAR MRPV NIL=
200703050400 METAR MRPV NIL=
200703050500 METAR MRPV NIL=
200703050600 METAR MRPV NIL=
200703050700 METAR MRPV NIL=
200703050800 METAR MRPV NIL=
200703050900 METAR MRPV NIL=
200703051000 METAR MRPV NIL=
200703051100 METAR MRPV NIL=
200703051200 METAR MRPV 051200Z 09021KT 9999 SCT025 29/13 A3003 DZ N GTS 27KT=
200703051300 METAR MRPV 051300Z 11012G22KT 9999 FEW030 SCT250 20/12 A3005 RMK DZ NE=
200703051400 METAR MRPV 051400Z 11012KT CAVOK 22/12 A3007 RMK RAFAGAS 19KTS SCT250=
200703051500 METAR MRPV 051500Z 10015KT CAVOK 24/11 A3010 RMK SCT280 TRACE SC=
200703051600 METAR MRPV 051600Z 08020KT CAVOK 25/09 A3007 RMK RAFAGAS 26KTS SCT260=
200703051700 METAR MRPV 051700Z 07023KT CAVOK 25/08 A3005 RMK SCT250 TRACE SC=
200703051800 METAR MRPV NIL=
200703051900 METAR MRPV 051900Z 05020KT 9999 FEW040 25/10 A3000 RMK RAFAGAS 26KT=
200703052000 METAR MRPV 052000Z 06020KT 9999 FEW030 25/12 A2998 RMK RAFAGAS 27KT=
200703052100 METAR MRPV NIL=
200703052200 METAR MRPV 052200Z 06018KT 9999 FEW040 24/13 A2997 RMK RFGS 25KT=
200703052300 METAR MRPV 052300Z 06019KT 9999 FEW030 22/13 A2998 RMK RFGS 26KT=
200703060100 METAR MRPV NIL=
200703060200 METAR MRPV NIL=
200703060300 METAR MRPV NIL=
200703060400 METAR MRPV NIL=
200703060500 METAR MRPV NIL=
200703060600 METAR MRPV NIL=
200703060700 METAR MRPV NIL=
200703060800 METAR MRPV NIL=
200703060900 METAR MRPV NIL=
200703061000 METAR MRPV NIL=
200703061100 METAR MRPV NIL=
200703061200 METAR MRPV 061200Z 11014KT 9999 NSC 18/13 A3004 RMK GST 19KT TRACE SC CB DST S=
200703061300 METAR MRPV 061300Z 11014KT CAVOK 19/13 A3006 RMK CB DST S SCT250 RFGS 22KT=
200703061400 METAR MRPV 061400Z 11015KT CAVOK 21/13 A3007 RMK RFGS 21KT FEW250=
200703061500 METAR MRPV 061500Z 09016KT 9999 NSC 24/12 A3008 RMK RFGS 23KT TRACE SC=
200703061600 METAR MRPV 061600Z 08016KT 9999 NSC 24/12 A3008 RMK RFGS 21KT TRACE SC=
200703061700 METAR MRPV 061700Z 08017KT 9999 NSC 25/12 A3007 RMK RFGS 26KT=
200703061800 METAR MRPV 061800Z 08018KT 9999 NSC 26/12 A3004 RFGS 26KT TRACE SCT=
200703061900 METAR MRPV 061900Z 07016KT 9999 NSC 26/11 A3002 RMK TRACE CU/SC RFGS 24KT=
200703062000 METAR MRPV 062000Z 07017KT 9999 FEW040 26/12 A3000 RMK RFGS 23KT=
200703062100 METAR MRPV 062100Z 09019KT 9999 FEW040 25/14 A2998 RMK RAFAGAS DE 26KT TRACE CI=
200703062200 METAR MRPV 062200Z 06019KT 9999 FEW030 23/16 A2998=
200703062300 METAR MRPV 062300Z 08019KT 9999 SCT030 22/14 A3000 RMK RAFAGAS DE 26KT=
200703070000 METAR MRPV NIL=
200703070100 METAR MRPV NIL=
200703070200 METAR MRPV NIL=
200703070300 METAR MRPV NIL=
200703070400 METAR MRPV NIL=
200703070500 METAR MRPV NIL=
200703070600 METAR MRPV NIL=
200703070700 METAR MRPV NIL=
200703070800 METAR MRPV NIL=
200703070900 METAR MRPV NIL=
200703071000 METAR MRPV NIL=
200703071100 METAR MRPV NIL=
200703071200 METAR MRPV 071200Z 11012KT CAVOK 19/14 A3003 RMK RAFAGAS 18KT TRACE SC SCT300=
200703071300 METAR MRPV 071300Z 11013KT CAVOK 20/14 A3006 RMK SCT300 TRAZAS DE SC RAFAGAS DE 19KT=
200703071400 METAR MRPV 071400Z 09018KT CAVOK 21/14 A3007 RMK RAFAGAS DE 25KT FEW300 TRAZAS DE SC=
200703071500 METAR MRPV 071500Z 08022KT CAVOK 24/14 A3007 RMK TRAZAS DE SC=
200703071600 METAR MRPV 071600Z 07025KT 9999 FEW025 24/14 A3007=
200703071700 METAR MRPV 071700Z 07024KT 9999 FEW025 25/14 A3005=
200703071800 METAR MRPV 071800Z 08023KT 9999 FEW025 27/14 3002=
200703071900 METAR MRPV 071900Z 08022KT 9999 FEW025 26/15 A3001 RMK HZ LGT W=
200703072000 METAR MRPV 072000Z 07020KT 9999 SCT025 26/15 A2998=
200703072100 METAR MRPV 072100Z 08020KT 9999 SCT025 24/15 A2995 CB S=
200703072200 METAR MRPV 072200Z 08022KT 9999 SCT025 SCT250 24/16 A2997 TCU SW=
200703072300 METAR MRPV 072300Z 09018KT 9999 SCT025 SCT250 23/16 A2999 TCU SW=
200703080000 METAR MRPV 080000Z NIL=
200703080100 METAR MRPV NIL=
200703080300 METAR MRPV NIL=
200703080400 METAR MRPV NIL=
200703080500 METAR MRPV NIL=
200703080600 METAR MRPV NIL=
200703080700 METAR MRPV NIL=
200703080800 METAR MRPV NIL=
200703080900 METAR MRPV NIL=
200703081000 METAR MRPV NIL=
200703081200 METAR MRPV NIL=
200703081300 METAR MRPV 081300Z 10014KT CAVOK 20/15 A3004 BKN250 TRACE SCT=
200703081400 METAR MRPV 081400Z 08017KT 9999 FEW030 BKN250 21/15 A3005 GTS 22KT=
200703081500 METAR MRPV 081500Z 08022KT 9999 FEW025 SCT250 23/15 A3006=
200703081600 METAR MRPV 081600Z 07020KT 9999 FEW028 24/15 A3006=
200703081700 METAR MRPV 081700Z 07018KT 9999 FEW026 26/14 A3005=
200703081800 METAR MRPV 081800Z 08020KT 9999 FEW024 26/14 A3002=
200703081900 METAR MRPV 081900Z 08018KT 9999 FEW024 28/14 A3000=
200703082000 METAR MRPV 082000Z 09020KT 9999 FEW024 27/14 A2996=
200703082100 METAR MRPV 082100Z 08020KT 9999 SCT022 27/15 A2994 RMK TCU S=
200703082200 METAR MRPV 082200Z 08018KT 9999 SCT022 25/16 A2994 RMK CB S=
200703082300 METAR MRPV 082300Z 09021KT 9999 SCT020 SCT100 23/16 A2995 VIS NE W 4000 DUE FU=
200703090000 METAR MRPV NIL=
200703090100 METAR MRPV NIL=
200703090200 METAR MRPV NIL=
200703090400 METAR MRPV NIL=
200703090500 METAR MRPV NIL=
200703090600 METAR MRPV NIL=
200703090700 METAR MRPV NIL=
200703090800 METAR MRPV NIL=
200703090900 METAR MRPV NIL=
200703091000 METAR MRPV NIL=
200703091100 METAR MRPV NIL=
200703091200 METAR MRPV 091200Z 12012KT 9999 NSC 18/13 A3000 RMK TRAZAS DE SC=
200703091300 METAR MRPV 091300Z 12010KT 9999 NSC 20/11 A3002 RMK TRACE SC GTS 15KT=
200703091400 METAR MRPV 091400Z 09016KR 9999 NSC 21/13 A3004 RMK TRACE SC GST21KT=
200703091500 METAR MRPV NIL=
200703091600 METAR MRPV 091600Z 08015KT 9999 FEW034 25/14 A3004 RMK RN DST N=
200703091700 METAR MRPV 091700Z 07015KT 9999 FEW034 26/15 A3002=
200703091800 METAR MRPV 091800Z 08017KT 9999 FEW035 26/16 A3000 RMK GST23KT=
200703091900 METAR MRPV 091900Z 08015KT 9999 FEW032 27/15 A2998 RMK GST20KT=
200703092000 METAR MRPV 092000Z 07018KT 9999 FEW030 25/15 A2996 RMK TCU S=
200703092100 METAR MRPV 092100Z 07016KT 9999 FEW030 25/14 A2994 RMK RAFAGAS 21KT CB S=
200703092200 METAR MRPV 092200Z 08018KT 9999 FEW025 SCT250 25/15 A2994 RMK RAFAGAS 23KT CB DST S=
200703092300 METAR MRPV 092300Z 08005KT 9999 SCT022 23/14 A2995=
200703100000 METAR MRPV NIL=
200703100200 METAR MRPV NIL=
200703100400 METAR MRPV NIL=
200703100500 METAR MRPV NIL=
200703100700 METAR MRPV NIL=
200703100800 METAR MRPV NIL=
200703100900 METAR MRPV NIL=
200703101000 METAR MRPV NIL=
200703101100 METAR MRPV NIL=
200703101200 METAR MRPV 101200Z 12009KT 9999 NSC 19/15 A3001 DZ N NE TRACE SCT=
200703101300 METAR MRPV 101300Z 11008KT 9999 FEW030 21/16 A3003 RMK DZ NE=
200703101400 METAR MRPV 101400Z 11014KT 9999 FEW030 22/17 A3005 RMK DZ NE=
200703101500 METAR MRPV 101500Z 09018KT 9999 FEW025 23/17 A3005 RMK DZ NE=
200703101600 METAR MRPV 101600Z 08015KT 9999 SCT030 25/17 A3005 RMK DZ NE=
200703101700 METAR MRPV 101700Z 07015KT 9999 SCT025 SCT250 26/17 A3003 RMK DZ NE=
200703101800 METAR MRPV 101800Z 08018G28KT 9999 5000 E DUE FU FEW020 SCT035 BKN250 25/18 A3002=
200703101900 METAR MRPV 101900Z 08016KT 9999 FEW020 SCT040 BKN120 25718 A3002 RMK DZ NE=
200703102000 METAR MRPV 102000Z 09015KT 9999 SCT020 BKN100 23/17 A2997 RMK RAFAGAS 24KT DZ NE=
200703102100 METAR MRPV 102100Z 08015KT 9999 SCT030 BKN120 23/17 A2995 DZ N NE=
200703102200 METAR MRPV 102200Z 08017KT 9999 SCT020 SCT100 24/16 A2995 RMK DZ NE=
200703102300 METAR MRPV 102300Z 07016KT 9999 SCT020 BKN250 22/16 A2998 RMK DZ DST NE=
200703110000 METAR MRPV NIL=
200703110100 METAR MRPV NIL=
200703110200 METAR MRPV NIL=
200703110300 METAR MRPV NIL=
200703110400 METAR MRPV NIL=
200703110500 METAR MRPV NIL=
200703110600 METAR MRPV NIL=
200703110700 METAR MRPV NIL=
200703110800 METAR MRPV NIL=
200703110900 METAR MRPV NIL=
200703111000 METAR MRPV NIL=
200703111100 METAR MRPV NIL=
200703111200 METAR MRPV NIL=
200703111300 METAR MRPV 111300Z 11011KT 9999 SCT020 BKN270 22/17 A3002 RMK DZ DST N NE=
200703111400 METAR MRPV 111400Z 10014KT 9999 FEW015 SCT025 BKN250 22/17 A3004 RMK RFGS 20KT DZ N NE E=
200703111500 METAR MRPV 111500Z 10016KT 9999 SCT025 BKN040 23/17 A3004 RMK DZ NE=
200703111600 METAR MRPV 111600Z 10020KT 9999 SCT020 BKN040 24/16 A3004 RMK DZ NE=
200703111700 METAR MRPV 111700Z 10015KT 9999 SCT025 SCT100 25/17 A3002 RMK DZ N NE=
200703111800 METAR MRPV 111800Z 09018KT 9999 FEW020 SCT040 25/16 A3001 RMK RFGS 25KT DZ NE E=
200703111900 METAR MRPV 111900Z 08016KT 9999 SCT025 SCT100 25/17 A2990 RMK RFGS 24 DZ NE=
200703112000 METAR MRPV 112000Z 08019KT 9999 SCT020 BKN100 25/17 A2997 RMK RFGS 24KT DZ NE=
200703112100 METAR MRPV 112100Z 08016KT 9999 SCT030 BKN100 25/16 A2996 RMK DZ NE=
200703112200 METAR MRPV 112200Z 08016KT 9999 SCT020 BKN100 24/16 A2995 RMK DZ N/NE CB DST SW=
200703112300 METAR MRPV 112300Z 09014KT 9999 FEW030 BKN100 22/16 A2996 RMK RAFAGAS DE 22KT=
200703120000 METAR MRPV 120000Z NIL=
200703120100 METAR MRPV NIL=
200703120200 METAR MRPV NIL=
200703120300 METAR MRPV NIL=
200703120400 METAR MRPV NIL=
200703120600 METAR MRPV NIL=
200703120700 METAR MRPV NIL=
200703120800 METAR MRPV NIL=
200703120900 METAR MRPV NIL=
200703121000 METAR MRPV NIL=
200703121100 METAR MRPV NIL=
200703121200 METAR MRPV 121200Z 12007KT 9999 SCT030 BKN100 20/16 A3003=
200703121300 METAR MRPV 121300Z 12011KT 9999 SCT030 BKN100 21/15 A3005=
200703121400 METAR MRPV 121400Z 10012KT 9999 SCT030 BKN100 22/16 A3006 RMK DZ N/NE=
200703121500 METAR MRPV 121500Z 09017KT 9999 SCT030 BKN120 24/16 A3006 RMK DZ NE=
200703121600 METAR MRPV 121600Z 08021KT 9999 SCT030 SCT120 26/16 A3007 RMK DZ NE=
200703121700 METAR MRPV 121700Z 08017KT 9999 SCT030 SCT120 25/16 A3005 RMK DZ NE=
200703121800 METAR MRPV 121800Z 07018KT 9999 SCT035 27/16 A3004 RMK RAFAGAS DE 25KT=
200703121900 METAR MRPV 121900Z 07017KT 9999 SCT040 27/16 A3001 RMK RAFAGAS DE 25KT=
200703122000 METAR MRPV 122000Z 07018KT 9999 SCT040 SCT120 27/16 A2998=
200703122100 METAR MRPV 122100Z 06017KT 9999 SCT035 SCT120 25/16 A2998=
200703122200 METAR MRPV 122200Z 08016KT 9999 SCT9030 BKN120 25/16 A2996 DZ NE=
200703122300 METAR MRPV 122300Z 09015KT 9999 SCT025 SCT270 23/16 A2998=
200703122330 METAR MRPV 122330Z 08014KT 9999 SCT025 BKN270 23/16 A2998=
200703130000 METAR MRPV NIL=
200703130100 METAR MRPV NIL=
200703130200 METAR MRPV NIL=
200703130300 METAR MRPV NIL=
200703130500 METAR MRPV NIL=
200703130600 METAR MRPV NIL=
200703130700 METAR MRPV NIL=
200703130800 METAR MRPV NIL=
200703130900 METAR MRPV NIL=
200703131000 METAR MRPV NIL=
200703131100 METAR MRPV NIL=
200703131200 METAR MRPV 131200Z 10012KT 9999 FEW030 20/15 A3006 RMK LGT HZ ARND=
200703131300 METAR MRPV 131300Z 09016KT 999 FEW030 21/15 A3008 RAFAGAS 21KT=
200703131400 METAR MRPV 131400Z 10017KT 9999 NSC 22/15 A3009 TRACE CU HZY=
200703131500 METAR MRPV 131500Z 07020KT 9999 FEW024 23/14 A3010 HZY=
200703131600 METAR MRPV 131600Z 07015G25KT 9999 FEW024 25/14 A3011 HZY=
200703131700 METAR MRPV 131700Z 07015G25KT 9999 FEW024 26/14 A3009 HZY=
200703131800 METAR MRPV 131800Z 07018KT 9999 SCT024 26/14 A3007 HZY=
200703131900 METAR MRPV 131900Z 07016G26KT 9999 FEW024 26/15 A3004 HZY=
200703132000 METAR MRPV 132000Z 07016G26KT 9999 FEW024 27/15 A3001 HZY=
200703132100 METAR MRPV 132100Z 07017G29KT 9999 FEW024 25/16 A3000 RMK HZ LGT ARND=
200703132300 METAR MRPV 132300Z 09016KT 9999 FEW020 SCT100 22/15 A3001 RMK HZ LGT ARND CB DST SSW=
200703140000 METAR MRPV 140000Z NIL=
200703140100 METAR MRPV NIL=
200703140200 METAR MRPV NIL=
200703140300 METAR MRPV NIL=
200703140400 METAR MRPV NIL=
200703140500 METAR MRPV NIL=
200703140600 METAR MRPV NIL=
200703140700 METAR MRPV NIL=
200703140800 METAR MRPV NIL=
200703140900 METAR MRPV NIL=
200703141100 METAR MRPV NIL=
200703141200 METAR MRPV 141200Z 12008KT 9999 NSC 18/12 A3004 RMK TRAZAS DE SC HZ DST W=
200703141300 METAR MRPV 141300Z 12010KT 9999 NSC 20/13 A3006 RMK TRACE SC HZ LGT ARND=
200703141400 METAR MRPV 141400Z 12010KT 9999 NSC 23/13 A3006 RMK TRACE SC HZ LGT ARND=
200703141500 METAR MRPV 141500Z 08014KT 9999 NSC 25/13 A3007 RMK HZ LGT ARND TRACE SC CI GST20KT=
200703141600 METAR MRPV 141600Z 08015KT 9999 NSC 26/13 A3007 RMK HZ LGT ARND TRACE SC CI GST20KT=
200703141700 METAR MRPV 141700Z 07014KT 9999 FEW030 26/13 A3006 RMK HZ LGT ARND GST22KT=
200703141800 METAR MRPV 141800Z 07012KT 9999 FEW030 27/13 A3003 RMK HZ LGT ARND GST18KT=
200703141900 METAR MRPV 141900Z 08012KT 9999 FEW030 28/13 A3000 RMK HZ LGT ARND GST18KT=
200703142000 METAR MRPV 142000Z 08014KT 9999 FEW030 28/15 A2997 RMK HZ LGT ARND GST19KT LINE TCU S=
200703142100 METAR MRPV 142100Z 08016KT 9999 FEW030 27/15 A2995 RMK RAFAGAS 22KTS CB DST S TCU W HZ ARND=
200703142200 METAR MRPV 142200Z 08016KT 9999 FEW030 SCT250 24/16 A2999 RMK HZ ARND RAFAGAS 21KTS CB SW LINE TCU NW=
200703142300 METAR MRPV 142300Z 08016KT 9999 FEW025 BKN250 23/16 A2996 RMK HZ ARND CB SW=
200703150000 METAR MRPV 150000Z 08016KT 9999 FEW020 BKN250 22/16 A2977 RMK HZ ARND=
200703150100 METAR MRPV NIL=
200703150200 METAR MRPV NIL=
200703150300 METAR MRPV NIL=
200703150400 METAR MRPV NIL=
200703150500 METAR MRPV NIL=
200703150600 METAR MRPV NIL=
200703150700 METAR MRPV NIL=
200703150800 METAR MRPV NIL=
200703150900 METAR MRPV NIL=
200703151000 METAR MRPV NIL=
200703151100 METAR MRPV NIL=
200703151200 METAR MRPV 151200Z 13008KT CAVOK 19/13 A3000 BKN270 HZY=
200703151300 METAR MRPV 151300Z 12010KT CAVOK 20/13 A3001 RMK SCT270 HZ ARND=
200703151400 METAR MRPV 151400Z 13010KT CAVOK 23/13 A3003 RMK FEW270 HZ ARND=
200703151500 METAR MRPV 151500Z 09010KT CAVOK 25/12 A3004 RMK SCT270 HZ ARND=
200703151600 METAR MRPV 151600Z 09010KT CAVOK 27/13 A3003 RMK SCT270 HZ W=
200703151700 METAR MRPV 151700Z 09009KT 9999 FEW030 28/12 A3001 RMK HZ W=
200703151800 METAR MRPV 151800Z 08010KT 9999 SCT026 29/13 A2998 RMK HZ W=
200703151900 METAR MRPV 151900Z 08010KT 9999 SCT025 30/14 A2995 RMK HZ W TCU S SW=
200703152000 METAR MRPV 152000Z 27009KT 9999 SCT025 27/17 A2992 RMK TCU S SW HZ W=
200703152100 METAR MRPV 152100Z 26010KT 9999 SCT028TCU 28/19 A2991 RMK HZ W QUAD=
200703152200 METAR MRPV 152200Z 26010KT 9999 SCT022TCU 26/20 A2991 HZ W QD=
200703152300 METAR MRPV 152300Z 07009KT 9999 -TS VCSH FEW015 CB BKN020 22/19 A2993 RMK TS/RASH AND VIS 3KMS TO NNE=
200703160000 METAR MRPV NIL=
200703160100 METAR MRPV NIL=
200703160200 METAR MRPV NIL=
200703160300 METAR MRPV NIL=
200703160400 METAR MRPV NIL=
200703160700 METAR MRPV NIL=
200703160800 METAR MRPV NIL=
200703160900 METAR MRPV NIL=
200703161000 METAR MRPV NIL=
200703161100 METAR MRPV NIL=
200703161200 METAR MRPV 161200Z 13008KT CAVOK 21 /14 A2998 RMK HZLGT ARND SCT250=
200703161300 METAR MRPV 161300Z 11009KT CAVOK 22/15 A3000 RMK BKN250 HZ LGT TO W=
200703161400 METAR MRPV 161400Z 10010KT CAVOK 24/14 A3002 RMK BKN250 HZ W=
200703161500 METAR MRPV 161500Z 10013KT CAVOK 26/15 A3000 RMK SCT270=
200703161600 METAR MRPV 161600Z 10011KT CAVOK 27/14 A3003 RMK SCT270=
200703161700 METAR MRPV 161700Z 08011KT 9999 FEW040 SCT270 28/14 A3001=
200703161800 METAR MRPV 161800Z 09011KT 9999 FEW040 SCT270 29/15 A2998=
200703161900 METAR MRPV 161900Z 09012KT 9999 FEW020 SCT030 29/16 A2995 TCU ARND=
200703162000 METAR MRPV 162000Z 22013KT FEW015TCU SCT025 26/19 A2994 CB DST SW=
200703162100 METAR MRPV 162100Z 25006KT 9999 SCT030 BKN080 25/20 A2992=
200703162200 METAR MRPV 162200Z 27006KT 9999 FEW015 SCT025 BKN100 25/19 A2992 RMK CB/RASH NW/N/NE=
200703162300 METAR MRPV 162300Z 05006KT 9999 -RA SCT020 BKN100 21/18 A2993=
200703170000 METAR MRPV NIL=
200703170100 METAR MRPV NIL=
200703170200 METAR MRPV NIL=
200703170300 METAR MRPV NIL=
200703170400 METAR MRPV NIL=
200703170500 METAR MRPV NIL=
200703170600 METAR MRPV NIL=
200703170700 METAR MRPV NIL=
200703171000 METAR MRPV NIL=
200703171100 METAR MRPV NIL=
200703171200 METAR MRPV NIL=
200703171300 METAR MRPV 171300Z 12010KT CAVOK 21/15 A3005 RMK SCT270 HZ LGT W=
200703171400 METAR MRPV 171400Z 12011KT CAVOK 24/14 A3005 RMK 270 HZ W=
200703171500 METAR MRPV 171500Z 12010KT CAVOK 26/13 A3007 RMK SCT270 HZ LGT ARND=
200703171600 METAR MRPV 171600Z 10012KT 9999 FEW040 27/14 A3008=
200703171700 METAR MRPV 171700Z 09006KT 9999 FEW040 28/12 A3007=
200703171800 METAR MRPV 171800Z 02004KT 9999 FEW040 29/11 A3004=
200703171900 METAR MRPV 171900Z 29009KT 9999 SCT030 27/17 A3000=
200703172000 METAR MRPV 172000Z 04007KT 9999 FEW020TCU SCT035 27/13 A2998 RMK CB/RASH NW=
200703172100 METAR MRPV 172100Z 35007KT 9999 1000W +RA SCT015TCU BKN030 22/18 A2997=
200703172200 METAR MRPV 172200Z 07004KT 9999 SCT030 BKN100 24/18 A2996 RERA=
200703172300 METAR MRPV 172300Z 09011KT 9999 SCT030 SCT100 BKN250 23/17 A2997=
200703172330 METAR MRPV 172330Z 10010KT 9999 FEW030 SCT100 BKN250 23/16 A2998=
200703180000 METAR MRPV 180000Z NIL=
200703180100 METAR MRPV NIL=
200703180200 METAR MRPV NIL=
200703180300 METAR MRPV NIL=
200703180500 METAR MRPV NIL=
200703180600 METAR MRPV NIL=
200703180700 METAR MRPV NIL=
200703180800 METAR MRPV NIL=
200703180900 METAR MRPV NIL=
200703181000 METAR MRPV NIL=
200703181200 METAR MRPV NIL=
200703181300 METAR MRPV 181300Z 11010KT 9999 NSC 21/13 A3004 TRACE SCT=
200703181400 METAR MRPV 181400Z 10016KT 9999 NSC 23/14 A3006 TRACE SCT=
200703181500 METAR MRPV 181500Z 08018T 9999 NSC 25/14 A3007 TRACE SC=
200703181600 METAR MRPV NIL=
200703181700 METAR MRPV 181700Z 05019KT 9999 FEW040 25/16 A3005=
200703181800 METAR MRPV 181800Z 08016KT 9999 SCT035 26/15 A3003=
200703181900 METAR MRPV 181900Z 07015KT 9999 SCT040 27/16 A3000=
200703182000 METAR MRPV 182000Z 07014KT 9999 SCT030 26/16 A2997=
200703182100 METAR MRPV 182100Z 07014KT 9999 FEW025 SCT035 BKN100 24/17 A2996=
200703182200 METAR MRPV 182200Z 08018KT 9999 SCT030 BKN120 24/16 A2996 RMK RN DST NE=
200703182300 METAR MRPV 182300Z 08013KT 9999 SCT030 BKN120 22/16 A2997 RMK RN N NE=
200703190000 METAR MRPV NIL=
200703190100 METAR MRPV NIL=
200703190200 METAR MRPV NIL=
200703190400 METAR MRPV NIL=
200703190600 METAR MRPV NIL=
200703190700 METAR MRPV NIL=
200703190800 METAR MRPV NIL=
200703190900 METAR MRPV NIL=
200703191000 METAR MRPV NIL=
200703191100 METAR MRPV NIL=
200703191200 METAR MRPV 191200Z 11013KT 9999 SCT025 20/16 A3003 RMK RAFAGAS DE 19KT DZ QUADRANTE N DST=
200703191300 METAR MRPV 191300Z 10014KT 9999 SCT030 21/16 A3005 RMK GST19KT DZ DST N NE=
200703191400 METAR MRPV 191400Z 09018KT 9999 FEW030 22/16 A3006 RMK DZ DST N NE=
200703191500 METAR MRPV 191500Z 09016KT 9999 FEW020 SCT030 23/17 A3008 RMK GST 22KT RN DST N NE=
200703191600 METAR MRPV 191600Z 08019KT 9999 FEW020 SCT090 25/17 A3008 RMK RN DST N NE=
200703191700 METAR MRPV 191700Z 08017KT 9999 SCT020 SCT090 24/17 A3006 RMK RN N NE GST23KT=
200703191800 METAR MRPV 191800Z 09014KT 9999 SCT020 SCT090 25/17 A3005 RMK GST21KT RN N NE=
200703191900 METAR MRPV 191900Z 08018KT 9999 SCT020 SCT090 23/17 A3003 RMK RN N NE GST23KT=
200703192000 METAR MRPV 192000Z 07016KT 9999 SCT020 SCT090 23/17 A3001 RN DST N NE GST22KT=
200703192100 METAR MRPV NIL=
200703192200 METAR MRPV 192200Z 07018KT 9999 FEW020 SCT100 22/17 A2999 RMK DZ NE RAFAGAS 23KTS=
200703192300 METAR MRPV 192300Z 07014G24KT 9999 SCT020 SCT100 22/16 A3000 RMK DZ NE=
200703200000 METAR MRPV NIL=
200703200100 METAR MRPV NIL=
200703200200 METAR MRPV NIL=
200703200300 METAR MRPV NIL=
200703200400 METAR MRPV NIL=
200703200500 METAR MRPV NIL=
200703200600 METAR MRPV NIL=
200703200700 METAR MRPV NIL=
200703200800 METAR MRPV NIL=
200703200900 METAR MRPV NIL=
200703201000 METAR MRPV NIL=
200703201100 METAR MRPV NIL=
200703201200 METAR MRPV 201200Z 11012KT CAVOK 19/15 A3003 BKN300 DZ N=
200703201300 METAR MRPV 201300Z 11014KT CAVOK 21/15 A3006 RMK DZ DST NE G21KT=
200703201400 METAR MRPV 201400Z 11018G28KT 9999 SCT030 21/16 A3008 RMK DZ DST N NE=
200703201500 METAR MRPV 201500Z 09016KT 9999 FEW030 24/15 A3009 RMK G22KT DZ DST N NE=
200703201600 METAR MRPV NIL=
200703201700 METAR MRPV NIL=
200703201800 METAR MRPV 201800Z 07015G25KT 9999 FEW030 27/15 A3004 RMK RN DST N NE=
200703201900 METAR MRPV 201900Z 07019KT 9999 FEW030 27/15 A3002 RMK G27KT DZ DST N NE=
200703202000 METAR MRPV 202000Z 07017G27KT 9999 FEW030 27/15 A2999 RMK DZ DST N NE=
200703202100 METAR MRPV 202100Z 07016G26KT 9999 FEW030 25/17 A2997 RMK PCPN DST N NE=
200703202200 METAR MRPV 202200Z 07015G25KT 9999 FEW030 25/16 A2996 RMK DZ N NE FU E=
200703202300 METAR MRPV 202300Z 08015G25KT 9999 FEW030 23/16 A2998 RMK DZ N NE=
200703210000 METAR MRPV NIL=
200703210100 METAR MRPV NIL=
200703210200 METAR MRPV NIL=
200703210300 METAR MRPV NIL=
200703210400 METAR MRPV NIL=
200703210500 METAR MRPV NIL=
200703210700 METAR MRPV NIL=
200703210800 METAR MRPV NIL=
200703210900 METAR MRPV NIL=
200703211000 METAR MRPV NIL=
200703211100 METAR MRPV NIL=
200703211200 METAR MRPV 211200Z 10014KT 9999 NSC 19/13 A3000 RMK GST20KT CB DST SE TRACE SC CI=
200703211300 METAR MRPV 211300Z 10013KT 9999 NSC 20/12 A3002 RMK RFGS 21KT TRAZAS SC/CI=
200703211400 METAR MRPV 211400Z 12012KT 9999 NSC 23/13 A3002 RMK RFGS 17KT TRAZAS SC/CC=
200703211500 METAR MRPV 211500Z 08020KT 9999 NSC 25/12 A3003 RMK TRAZAS SC CC=
200703211600 METAR MRPV 211600Z 08018KT 9999 NSC 25/15 A3003 RMK RFGS 25KT TZS SC/CC=
200703211700 METAR MRPV 211700Z 07018KT CAVOK 25/15 A3003 RMK RFGS 23KT SCT220=
200703211800 METAR MRPV 211800Z 07018KT 9999 FEW028 BKN220 25/16 A3001 RMK DZ N NE RFGS 24KT=
200703211900 METAR MRPV 211900Z 08018KT 9999 FEW028 SCT220 26/16 A2998 RMK RFGS 23KT=
200703212000 METAR MRPV 212000Z 07023KT 9999 FEW025 26/14 2997 RMK TCU S DZ N NE=
200703212100 METAR MRPV 212100Z 08015G25KT 9999 SCT025 28/21 A2976 RMK CB DST S DZ NE=
200703212200 METAR MRPV 212200Z 08016G26 9999 SCT025 SCT220 24/14 A2005 RMK TCU DST SE DZ NE=
200703212300 METAR MRPV 212300Z 07015G25KT 9999 SCT022 22/13 A2996 RMK DZ NE=
200703220000 METAR MRPV NIL=
200703220100 METAR MRPV NIL=
200703220200 METAR MRPV NIL=
200703220300 METAR MRPV NIL=
200703220400 METAR MRPV NIL=
200703220500 METAR MRPV NIL=
200703220600 METAR MRPV NIL=
200703220700 METAR MRPV NIL=
200703220800 METAR MRPV NIL=
200703220900 METAR MRPV NIL=
200703221000 METAR MRPV NIL=
200703221200 METAR MRPV 221200Z 12010KT 9999 NSC 19/13 A2997 RMK TRACE SC G16KT=
200703221300 METAR MRPV 221300Z 12010KT 9999 NSC 21/13 A3000 RMK TRAZAS DE SC RAFAGAS DE 16KT=
200703221400 METAR MRPV 221400Z 10013G23KT 9999 NSC 22/14 A3001 RMK TRAZAS SC=
200703221500 METAR MRPV 221500Z 09015KT 9999 NSC 25/13 A3002 RMK TRAZAS SC=
200703221600 METAR MRPV 221600Z 07020KT 9999 FEW040 25/14 A3004=
200703221700 METAR MRPV 221700Z 06016KT 9999 FEW040 25/15 A3001 RMK RAFAGAS DE 24KT=
200703221800 METAR MRPV 221800Z 07016KT 9999 FEW040 26/16 A2999=
200703221900 METAR MRPV 221900Z 07019KT 9999 SCT040 27/15 A2995=
200703222000 METAR MRPV 222000Z 08016KT 9999 SCT040 27/15 A2996=
200703222100 METAR MRPV 222100Z 07019KT 9999 SCT040 26/17 A2992=
200703222200 METAR MRPV 222200Z 08015KT 9999 SCT030 26/16 A2990=
200703222300 METAR MRPV 222300Z 08015KT 9999 SCT030 23/16 A2991=
200703230000 METAR MRPV NIL=
200703230100 METAR MRPV NIL=
200703230200 METAR MRPV NIL=
200703230300 METAR MRPV NIL=
200703230400 METAR MRPV NIL=
200703230500 METAR MRPV NIL=
200703230600 METAR MRPV NIL=
200703230700 METAR MRPV NIL=
200703230800 METAR MRPV NIL=
200703230900 METAR MRPV NIL=
200703231000 METAR MRPV NIL=
200703231100 METAR MRPV NIL=
200703231200 METAR MRPV 231200Z 11012KT 9999 NSC 20/14 A2997 RMK TRAZAS SC RFGS 19KT=
200703231300 METAR MRPV 231300Z 11012KT 9999 NSC 21/14 A2999 TRACE SCT=
200703231400 METAR MRPV 231400Z 10012KT 9999 NSC 23/14 A3000 TRACE SCT=
200703231500 METAR MRPV 231500Z 09013KT 9999 NSC 24/15 A3003 TRAC3 SCT=
200703231600 METAR MRPV 231600Z 08016KT 9999 NSC 26/14 A3000=
200703231700 METAR MRPV 231700Z 07012KT 9999 FEW040 28/14 A2998=
200703231800 METAR MRPV 231800Z 06011KT 9999 SCT040 28/14 A2996=
200703231900 METAR MRPV 231900Z 07014KT 9999 SCT040 28/14 A2994=
200703232000 METAR MRPV 232000Z 09012KT 9999 SCT040 28/15 A2991 TCU S SW=
200703232100 METAR MRPV 232100Z 09016KT 9999 BKN030 28/16 A2989 RMK CB S SW E RASH W=
200703232200 METAR MRPV 232200Z 09016KT 9999 SCT025 BKN040 24/16 A2991 RMK CB RASH NW N=
200703232300 METAR MRPV 232300Z 06003KT 9999 FEW025 SCT040 24/17 A2992=
200703240000 METAR MRPV 240000Z NIL=
200703240100 METAR MRPV NIL=
200703240300 METAR MRPV NIL=
200703240400 METAR MRPV NIL=
200703240500 METAR MRPV NIL=
200703240600 METAR MRPV NIL=
200703240700 METAR MRPV NIL=
200703240800 METAR MRPV NIL=
200703240900 METAR MRPV NIL=
200703241000 METAR MRPV NIL=
200703241100 METAR MRPV NIL=
200703241200 METAR MRPV 241200Z NIL=
200703241300 METAR MRPV 241300Z 11012KT 9999 NSC 20/14 A3002 RMK GST20KT=
200703241400 METAR MRPV 241400Z 09016KT 9999 NSC 23/15 A3004 RMK TRACE SC=
200703241500 METAR MRPV 241500Z 08015KT 9999 NSC 24/15 A3004 RMK TRACE SC=
200703241600 METAR MRPV 241600Z 09014KT 9999 FEW040 26/14 A3004=
200703241700 METAR MRPV 241700Z 08014KT 9999 FEW040 26/16 A3002 RMK GST21KT=
200703241800 METAR MRPV 241800Z 08015KT 9999 SCT040 27/16 A3000=
200703241900 METAR MRPV 241900Z 08017KT 9999 SCT040 26/16 A2998=
200703242000 METAR MRPV 242000Z 08017KT 9999 SCT040 27/16 A2996=
200703242100 METAR MRPV 242100Z 07019KT 9999 SCT040 26/16 A2995 RMK CB DST S SW=
200703242200 METAR MRPV 242200Z 08018KT 9999 SCT030 25/26 A2994=
200703242300 METAR MRPV 242300Z 11014KT 9999 SCT025 BKN100 23/17 A2995=
200703250000 METAR MRPV 250000Z NIL=
200703250100 METAR MRPV NIL=
200703250200 METAR MRPV NIL=
200703250300 METAR MRPV NIL=
200703250400 METAR MRPV NIL=
200703250500 METAR MRPV NIL=
200703250600 METAR MRPV NIL=
200703250700 METAR MRPV NIL=
200703250800 METAR MRPV NIL=
200703250900 METAR MRPV NIL=
200703251000 METAR MRPV NIL=
200703251100 METAR MRPV NIL=
200703251300 METAR MRPV 251300Z 09018KT 9999 FEW020 21/16 A3002 RMK DZ DST N=
200703251400 METAR MRPV 251400Z 09015G25KT 9999 FEW020 22/16 A3005 RMK DZ DST N NE=
200703251500 METAR MRPV 251500Z 08015G25KT 9999 FEW020 24/16 A3006 RMK RN DST N NE=
200703251600 METAR MRPV 251600Z 08015G25KT 9999 FEW025 25/16 A3004 RMK DZ DST N NE=
200703251700 METAR MRPV 251700Z 09016KT 9999 SCT022 24/16 A3003 RMK G21KT DZ DST N NE=
200703251800 METAR MRPV 251800Z 09016G26KT 9999 FEW020 SCT030 24/15 A3001 RMK DZ DST N NE=
200703251900 METAR MRPV 251900Z 09015G27KT 9999 FEW020 SCT030 25/16 A2998=
200703252000 METAR MRPV 252000Z 09015G25KT 9999 SCT022 26/16 A2995=
200703252100 METAR MRPV 252100Z 09014G24KT 9999 SCT025 25/16 2994 RMK RN DST N NE TCU S=
200703252200 METAR MRPV 252200Z 10016KT 9999 SCT022 23/16 A2995 RMK RN DST N NE=
200703252300 METAR MRPV 252300Z 11010G20 9999 SCT022 21/15 A2996 RMK RN E NE=
200703260000 METAR MRPV NIL=
200703260100 METAR MRPV NIL=
200703260200 METAR MRPV NIL=
200703260300 METAR MRPV NIL=
200703260400 METAR MRPV NIL=
200703260500 METAR MRPV NIL=
200703260600 METAR MRPV NIL=
200703260700 METAR MRPV NIL=
200703260800 METAR MRPV NIL=
200703260900 METAR MRPV NIL=
200703261000 METAR MRPV NIL=
200703261100 METAR MRPV NIL=
200703261200 METAR MRPV 261200Z 12010KT 9999 NSC 19/14 A3000 RMK TRACE SC GST15KT=
200703261300 METAR MRPV 261300Z 14009KT 9999 NSC 20/13 A3002 TRACE OF SCT=
200703261400 METAR MRPV 261400Z 11012KT 9999 NSC 23/13 A3004 RMK TRACE OF SC RFGS 17KT=
200703261500 METAR MRPV 261500Z 08018KT 9999 NSC 24/12 A3003 RMK TRACE OF SC RFGS 23KT=
200703261600 METAR MRPV 261600Z 07014KT 9999 NSC 26/12 A3002 RMK TRCE OF SC RFGS 19KT=
200703261700 METAR MRPV 261700Z 07013KT 9999 FEW030 27/13 A3000 RMK RFGS 18KT=
200703261800 METAR MRPV 261800Z 09011KT 9999 FEW030 28/14 A2997 RMK RFGS 16KT=
200703261900 METAR MRPV 261900Z 08011KT 9999 FEW030 28/15 A2994=
200703262000 METAR MRPV 262000Z 09012KT 9999 SCT030TCU 29/15 A2991=
200703262100 METAR MRPV 262100Z 08008KT 9999 BKN025TCU 27/15 A2990 RMK RN S=
200703262200 METAR MRPV 262200Z 09010KT 9999 FEW015TCU BKN024 24/17 A2990 RERA RMK CB DST S FU S=
200703262300 METAR MRPV 262300Z 09010KT 9999 FEW020TCU BKN022 23/17 A2992 RMK CB DST S=
200703270000 METAR MRPV NIL=
200703270100 METAR MRPV NIL=
200703270200 METAR MRPV NIL=
200703270300 METAR MRPV NIL=
200703270400 METAR MRPV NIL=
200703270600 METAR MRPV NIL=
200703270700 METAR MRPV NIL=
200703270800 METAR MRPV NIL=
200703270900 METAR MRPV NIL=
200703271000 METAR MRPV NIL=
200703271100 METAR MRPV NIL=
200703271200 METAR MRPV 271200Z 14007KT 9999 NSC 19/14 A2998 RMK TRACE SC CI=
200703271300 METAR MRPV 271300Z 13007KT 9999 NSC 21/14 A3000 RMK TRAZAS SC/CI=
200703271400 METAR MRPV 271400Z 14006KT 9999 NSC 24/14 3001 RMK TRAZAS CI LGT HZ W=
200703271500 METAR MRPV 271500Z 09013KT 9999 NSC 26/14 A3001 RMK TRAZAS SC/CI HZ LGT ARND=
200703271600 METAR MRPV 271600Z 08009KT 9999 FEW030 SCT250 28/14 A3000 RMK HZ LGT W RAFAGAS DE 14KT=
200703271700 METAR MRPV 271700Z 07009KT 9999 FEW030 SCT250 29/13 A2999 RMK HZ LGT W=
200703271800 METAR MRPV 271800Z 34005KT 9999 SCT030 SCT250 30/13 A2996 RMK HZ LGT ARND=
200703271900 METAR MRPV 271900Z 28009KT 9999 FEW015TCU SCT030 29/14 A2993 RMK HZ LGT W=
200703272000 METAR MRPV 272000Z 08011KT 9999 SCT015TCU SCT030 26/15 A2992 RMK HZ W=
200703272100 METAR MRPV 272100Z 09012KT 9999 -RA SCT012TCU BKN025 24/17 A2991 HZ W=
200703272200 METAR MRPV 272200Z 12006KT 5000 2000W SCT010 BKN018 20/18 A2993=
200703272205 METAR MRPV 272205Z 11005KT 3000 +RA SCT008 BKN015 20/18 A2994=
200703272300 METAR MRPV 272300Z VRB03KT 8000 3000N RA SCT006 BKN020 20/19 A2995 VSBY E UNL=
200703280000 METAR MRPV 280000Z NIL=
200703280200 METAR MRPV NIL=
200703280300 METAR MRPV NIL=
200703280400 METAR MRPV NIL=
200703280500 METAR MRPV NIL=
200703280600 METAR MRPV NIL=
200703280700 METAR MRPV NIL=
200703280800 METAR MRPV NIL=
200703280900 METAR MRPV NIL=
200703281000 METAR MRPV NIL=
200703281100 METAR MRPV NIL=
200703281200 METAR MRPV 281200Z 11004KT CAVOK 19/16 A3000 RMK BKN230 HZ W=
200703281300 METAR MRPV 281300Z 10005KT CAVOK 21/16 A3002 FEW120 BKN230 HZ W=
200703281400 METAR MRPV 281400Z 12006KT CAVOK 24/15 A3003 BKN230 HZ W=
200703281500 METAR MRPV 281500Z 10009KT CAVOK 25/14 A3002 OVC250 HZ W=
200703281600 METAR MRPV 281600Z 08006KT 9999 FEW040 OVC250 28/14 A3003=
200703281630 METAR MRPV 281630Z 30004KT 9999 SCT040 BKN250 28/13 A3002=
200703281700 METAR MRPV 281700Z 29008KT 9999 SCT040 BKN250 27/14 A3003=
200703281800 METAR MRPV 281800Z 28010KT 9999 SCT035 BKN250 28/16 A2998=
200703281900 METAR MRPV 281900Z 27008KT 9999 SCT030 BKN250 28/18 A2995=
200703282000 METAR MRPV 282000Z 27008KT 9999 SCT030 BKN250 28/16 A2993 TCU ARND=
200703282100 METAR MRPV 282100Z 27007KT 9999 SCT030 BKN250 29/16 A2991=
200703282200 METAR MRPV 292200Z 14004KT 9999 SCT030 BKN045 27/17 A2992 RMK TCU SCT ARND=
200703282300 METAR MRPV 282300Z 11007KT 9999 SCT035 BKN250 24/17 A2992 RMK RN NE=
200703290000 METAR MRPV 290000Z NIL=
200703290100 METAR MRPV NIL=
200703290200 METAR MRPV NIL=
200703290300 METAR MRPV NIL=
200703290400 METAR MRPV NIL=
200703290500 METAR MRPV NIL=
200703290600 METAR MRPV NIL=
200703290700 METAR MRPV NIL=
200703290800 METAR MRPV NIL=
200703290900 METAR MRPV NIL=
200703291000 METAR MRPV NIL=
200703291100 METAR MRPV NIL=
200703291200 METAR MRPV 291200Z 10010KT CAVOK 20/14 A3000 RMK CB DST SW BKN250 TRAZAS SC=
200703291300 METAR MRPV 291300Z 10012KT CAVOK 22/14 A3001 RMK BKN250 TRACE CU CB SW=
200703291400 METAR MRPV 291400Z 11011KT CAVOK 24/14 A3003 RMK BKN270 CB DST SW TRACE SC=
200703291500 METAR MRPV 291500Z 09012KT CAVOK 25/14 A3003 RMK TRACE CU SC BKN270=
200703291600 METAR MRPV 291600Z 07012KT 9999 FEW045 BKN270 26/14 A3002=
200703291700 METAR MRPV 291700Z 08012KT 9999 FEW040 BKN270 27/14 A3000=
200703291800 METAR MRPV 291800Z 08011KT 9999 SCT040 BKN270 28/14 A2997=
200703291900 METAR MRPV 291900Z 08010KT 9999 SCT040 BKN270 29/14 A2994=
200703292000 METAR MRPV 292000Z 08012KT 9999 SCT040 BKN250 29/15 A2991=
200703292100 METAR MRPV 292100Z 08012KT 9999 FEW020 SCT040 28/14 A2989=
200703292200 METAR MRPV 292200Z 09012KT 9999 FEW020 SCT035 28/16 A2990 RMK CB RN DST N=
200703292300 METAR MRPV 292300Z 27006KT 9999 VCSH SCT015CB BKN030 26/19 A2991 RMK CB RN N NE=
200703300000 METAR MRPV 300000Z NIL=
200703300100 METAR MRPV NIL=
200703300200 METAR MRPV NIL=
200703300300 METAR MRPV NIL=
200703300400 METAR MRPV NIL=
200703300500 METAR MRPV NIL=
200703300600 METAR MRPV NIL=
200703300700 METAR MRPV NIL=
200703300900 METAR MRPV NIL=
200703301000 METAR MRPV NIL=
200703301200 METAR MRPV 301200Z 12012KT 9999 NSC 19/14 A2997 TRACE SCT=
200703301300 METAR MRPV 301300Z 12010KT 9999 NSC 21/14 A2999 RMK TRACE SC CB DST SE=
200703301400 METAR MRPV 301400Z 11011KT 9999 NSC 23/15 A3000 RMK TRACE CU SC GUST 17KT=
200703301500 METAR MRPV 301500Z 09011KT 9999 NSC 25/15 A3001 RMK TRACE CU SC=
200703301600 METAR MRPV 301600Z 07012KT 9999 FEW040 26/15 A3000=
200703301700 METAR MRPV 301700Z 07008KT 9999 SCT040 28/15 A2998=
200703301800 METAR MRPV 301800Z 08012KT 9999 SCT040 28/15 A2996 RMK DES. CU ARND=
200703301900 METAR MRPV 301900Z 09012KT 9999 BKN035 29/15 A2993 RMK DES. CU SW=
200703302000 METAR MRPV 302000Z 09011KT 9999 FEW025 SCT040 28/16 A2990=
200703302100 METAR MRPV 302100Z 09018KT 9999 SCT040 26/16 A2998 RMK SCT TCU ARND=
200703302200 METAR MRPV 302200Z 08017KT 9999 SCT030 25/17 A2988=
200703302300 METAR MRPV 302300Z 10016KT 9999 BKN030 23/17 A2989 RMK TCU SCT ARND=
200703310000 METAR MRPV NIL=
200703310100 METAR MRPV NIL=
200703310300 METAR MRPV NIL=
200703310400 METAR MRPV NIL=
200703310500 METAR MRPV NIL=
200703310600 METAR MRPV NIL=
200703310700 METAR MRPV NIL=
200703310800 METAR MRPV NIL=
200703310900 METAR MRPV NIL=
200703311000 METAR MRPV NIL=
200703311100 METAR MRPV NIL=
200703311200 METAR MRPV 13008KT CAVOK 21/12 A2995 RMK BKN250 CB DST S=
200703311300 METAR MRPV 311300Z 12010KT CAVOK 22/12 A2996 RMK BKN250=
200703311400 METAR MRPV 311400Z 12010KT CAVOK 24/12 A2998 RMK FEW100 BKN250=
200703311500 METAR MRPV 311500Z 10010KT CAVOK 26/12 A2999 RMK FEW100 BKN250=
200703311600 METAR MRPV 311600Z 08010KT CAVOK 28/12 A2997 RMK BKN250=
200703311700 METAR MRPV 311700Z 07010KT CAVOK 28/13 A2995 RMK BKN250 TCU DST SW=
200703311800 METAR MRPV 311800Z 09010KT 9999 FEW030 BKN250 30/14 A2993 RMK TCU SW=
200703311900 METAR MRPV 311900Z 08010KT 9999 FEW030TCU BKN250 29/15 A2991 RMK RFGS 15KT=
200703312000 METAR MRPV 312000Z 08014KT 9999 SCT030TCU BKN250 28/16 A2989 RMK CB DST S=
200703312100 METAR MRPV 312100Z 27010KT 9999 SCT020TCU BKN250 26/18 A2988 RMK HZ=
200703312200 METAR MRPV 312200Z 26010KT 9999 SCT015 BKN250 24/20 A2988 RMK CB SW HZ NW/N=
200703312300 METAR MRPV 312300Z 27008KT 9999 SCT010 BKN022 24/19 A2989 RMK HZ NW/W=
200704010000 METAR MRPV 010000Z NIL=
200704010100 METAR MRPV NIL=
200704010200 METAR MRPV NIL=
200704010300 METAR MRPV NIL=
200704010400 METAR MRPV NIL=
200704010500 METAR MRPV NIL=
200704010600 METAR MRPV NIL=
200704010700 METAR MRPV NIL=
200704010800 METAR MRPV NIL=
200704010900 METAR MRPV NIL=
200704011100 METAR MRPV NIL=
200704011200 METAR MRPV NIL=
200704011300 METAR MRPV 011300Z 10012KT 9999 FEW020 SCT250 22/17 A2997=
200704011400 METAR MRPV 011400Z 10012KT 9999 FEW020 SCT250 23/16 A2999=
200704011500 METAR MRPV 011500Z 10012KT 9999 FEW020 SCT250 25/17 A2999=
200704011600 METAR MRPV 011600Z 07012KT 9999 FEW025 SCT250 27/16 A2998 RMK RAFAGAS DE 18KT=
200704011700 METAR MRPV 011700Z 08013KT 9999 SCT022 28/17 A2998=
200704011800 METAR MRPV 011800Z 08015KT 9999 SCT025 28/16 A2996 RMK RAFAGAS DE 20KT=
200704011900 METAR MRPV 011900Z 08016KT 9999 FEW015TCU SCT030 27/17 A2994 RMK RAFAGAS DE 22KT=
200704012000 METAR MRPV 012000Z 07016KT 9999 SCT015TCU BKN030 27/17 A2992 RMK RAFAGAS DE 20KT=
200704012100 METAR MRPV 012100Z 08016KT 9999 FEW015TCU SCT030 26/17 A2991 CB S=
200704012200 METAR MRPV 012200Z 08016KT 9999 FEW018 BKN250 26/17 A2990 CB SE=
200704012300 METAR MRPV 012300Z 09013KT 9999 FEW018 BKN250 25/17 A2990 CB SE=
200704020000 METAR MRPV 020000Z 09014KT 9999 FEW015 BKN250 24/17 A2991=
200704020100 METAR MRPV NIL=
200704020200 METAR MRPV NIL=
200704020300 METAR MRPV NIL=
200704020400 METAR MRPV NIL=
200704020500 METAR MRPV NIL=
200704020600 METAR MRPV NIL=
200704020800 METAR MRPV NIL=
200704020900 METAR MRPV NIL=
200704021000 METAR MRPV NIL=
200704021100 METAR MRPV NIL=
200704021200 METAR MRPV 021200Z 12009KT CAVOK 21/15 A2999 RMK SCT280 TRAZAS SC AC=
200704021300 METAR MRPV 021300Z 12010KT CAVOK 22/16 A3001 FEW280 TRACE CU=
200704021400 METAR MRPV 021400Z 09012KT 9999 NSC 28/16 A3002 TRACE CU SCT CI=
200704021500 METAR MRPV 021500Z 07014KT 9999 FEW030 SCT280 26/16 A3003=
200704021600 METAR MRPV 021600Z 07012KT 9999 FEW030 SCT280 26/16 A3002=
200704021700 METAR MRPV 021700Z 07012KT 9999 FEW030 28/16 A3001=
200704021800 METAR MRPV 021800Z 06012KT 9999 SCT030 28/16 A2999 TCU S=
200704021900 METAR MRPV 021900Z 07015KT 9999 SCT030 29/17 A2995 TCU S SW=
200704022000 METAR MRPV 022000Z 07013KT 9999 SCT030 BKN250 30/16 A2993 CB S=
200704022100 METAR MRPV 022100Z 09014KT 9999 SCT024TCU BKN250 29/17 A2991 CB S SW RN DST S SW W=
200704022300 METAR MRPV 022300Z 28008KT 260V350 9999 FEW010CB SCT022 BKN250 24/18 A2996 RMK TS DST W=
200704030000 METAR MRPV NIL=
200704030100 METAR MRPV NIL=
200704030200 METAR MRPV NIL=
200704030300 METAR MRPV NIL=
200704030400 METAR MRPV NIL=
200704030500 METAR MRPV NIL=
200704030600 METAR MRPV NIL=
200704030700 METAR MRPV NIL=
200704030800 METAR MRPV NIL=
200704030900 METAR MRPV NIL=
200704031000 METAR MRPV NIL=
200704031100 METAR MRPV NIL=
200704031200 METAR MRPV 031200Z 12008KT CAVOK 21/16 A2999 RMK BKN220 TRAZAS SC=
200704031300 METAR MRPV 031300Z 09011KT 9999 FEW030 BKN220 22/17 A3004 RMK TCU DST SSW DU APCH RW09=
200704031400 METAR MRPV 031400Z 08011KT 9999 SCT035 BKN220 23/17 A3004 RMK DU APCH 09 TCU SSW=
200704031500 METAR MRPV 031500Z 08012KT 9999 SCT030 BKN230 26/16 A3005 RMK TCU DST SW=
200704031600 METAR MRPV NIL=
200704031700 METAR MRPV 031700Z 08012KT 9999 SCT030 BKN200 27/16 A3004=
200704031800 METAR MRPV 031800Z 07012KT 9999 SCT030 BKN200 28/16 A3001=
200704031900 METAR MRPV 031900Z 08011KT 9999 SCT030 SCT120 BKN200 28/17 A3000 RMK CB RASH N=
200704032000 METAR MRPV 032000Z 07013KT 9999 FEW015CB SCT025 BKN100 27/16 A2998 RMK CB RASH N NE=
200704032100 METAR MRPV NIL=
200704032200 METAR MRPV NIL=
200704032300 METAR MRPV NIL=
200704040000 METAR MRPV 040000Z NIL=
200704040100 METAR MRPV NIL=
200704040200 METAR MRPV NIL=
200704040300 METAR MRPV NIL=
200704040400 METAR MRPV NIL=
200704040500 METAR MRPV NIL=
200704040600 METAR MRPV NIL=
200704040800 METAR MRPV NIL=
200704040900 METAR MRPV NIL=
200704041000 METAR MRPV NIL=
200704041100 METAR MRPV NIL=
200704041200 METAR MRPV 041200Z NIL=
200704041300 METAR MRPV 041300Z 11009KT 9999 SCT030 BKN100 22/18 A3003 RMK DZ DST N NE=
200704041400 METAR MRPV 041400Z 10007KT 9999 SCT030 OVC100 24/18 A3004 RMK DZ NE=
200704041500 METAR MRPV 041500Z 11008KT 9999 SCT030 OVC100 24/17 A3003=
200704041600 METAR MRPV 041600Z 08007KT 9999 SCT035 BKN120 26/18 A3003=
200704041700 METAR MRPV 041700Z 11007KT 9999 SCT030 BKN120 27/17 A2999 RMK DZ N NE=
200704041800 METAR MRPV 041800Z 04005KT 9999 SCT030 BKN120 28/17 A2998=
200704041900 METAR MRPV 041900Z 09008KT 9999 SCT035 BKN100 27/18 A2994=
200704042000 METAR MRPV 042000Z 33007KT 9999 -RA SCT025 OVC100 25/20 A2992 RMK 6000N RA=
200704042100 METAR MRPV 042100Z 32008KT 9999 3000NW -RA BR SCT015TCU SCT030 OVC100 22/21 A2991=
200704042200 METAR MRPV 042200Z 09007KT 9999 3000SW TSRA SCT012 SCT020CB OVC100 20/18 A2992=
200704042300 METAR MRPV 042300Z 00000KT 9999 FEW020 SCT030 OVC100 20/19 A2994=
200704050000 METAR MRPV NIL=
200704050100 METAR MRPV NIL=
200704050200 METAR MRPV NIL=
200704050300 METAR MRPV NIL=
200704050400 METAR MRPV NIL=
200704050600 METAR MRPV NIL=
200704050700 METAR MRPV NIL=
200704050900 METAR MRPV NIL=
200704051000 METAR MRPV NIL=
200704051100 METAR MRPV NIL=
200704051200 METAR MRPV NIL=
200704051300 METAR MRPV 051300Z 12009KT 9999 -RA FEW020 SCT090 BKN250 21/18 A2997=
200704051400 METAR MRPV 051400Z 10010KT 9999 FEW030 SCT100 BKN250 23/18 A2999 RMK RERA CB DST NW=
200704051500 METAR MRPV 051500Z 11014KT 9999 FEW030 SCT100 BKN250 23/18 A3001 RMK RN N NE=
200704051600 METAR MRPV 051600Z 07010KT 9999 FEW025 SCT100 BKN250 24/18 A3003 RMK PCPN NE=
200704051700 METAR MRPV 051700Z 09010KT FEW030 SCT100 BKN250 25/18 A3000 RMK PCPN DST N/E=
200704051800 METAR MRPV 051800Z 08013KT 9999 SCT028 BKN250 25/18 A2999 RMK PCPN DST N NE E=
200704051900 METAR MRPV 051900Z 08013KT 9999 SCT024 BKN250 26/17 A2996 RMK RN NW=
200704052000 METAR MRPV 052000Z 08014KT 9999 SCT022 OVC250 26/17 A2993 RMK RN N NW W=
200704052100 METAR MRPV 052100Z 07010KT 9999 SCT024 BKN250 26/18 A2991 RMK TCU S RN DST NW=
200704052200 METAR MRPV 052200Z 08010KT 9999 SCT018 BKN250 25/17 A2991 RMK TCU S RN DST NW=
200704052300 METAR MRPV 052300Z 08011KT 9999 FEW020 SCT080 BKN250 24/17 A2992 RMK CB DST SW=
200704060000 METAR MRPV 060000Z NIL=
200704060100 METAR MRPV NIL=
200704060200 METAR MRPV NIL=
200704060300 METAR MRPV NIL=
200704060400 METAR MRPV NIL=
200704060500 METAR MRPV NIL=
200704060600 METAR MRPV NIL=
200704060800 METAR MRPV NIL=
200704060900 METAR MRPV NIL=
200704061000 METAR MRPV NIL=
200704061100 METAR MRPV NIL=
200704061200 METAR MRPV NIL=
200704061300 METAR MRPV 061300Z 13008KT CAVOK 21/16 A2998 RMK SCT100 BKN250=
200704061400 METAR MRPV 061400Z 11010KT CAVOK 21/16 A2998 RMK SCT100 BKN250=
200704061500 METAR MRPV 061500Z 11010KT CAVOK 23/17 A3002 RMK FEW100 BKN250=
200704061600 METAR MRPV 061600Z 09012KT CAVOK 24/17 A3002 RMK BKN250=
200704061700 METAR MRPV 061700Z 08010KT CAVOK 26/17 A300 RMK BKN250=
200704061800 METAR MRPV 061800Z 07009KT 9999 FEW030 BKN250 28/16 A2998=
200704061900 METAR MRPV 061900Z 06009KT 9999 SCT024 BKN250 27/16 A2995 RMK RN DST NW=
200704062000 METAR MRPV 062000Z 27010KT 9999 FEW010TCU SCT022 BKN250 26/18 A2992 RMK RN NE/N/NW=
200704062100 METAR MRPV 072100Z 26008KT 9999 SCT010TCU SCT022 BKN250 25/19 A2991 RN N=
200704062200 METAR MRPV 062200Z VRB03KT 9999 2000E -RA SCT010 BKN022 25/19 A2992=
200704062300 METAR MRPV 062300Z VRB03KT 5000 2000NW RA SCT010 BKN015 20/19 A2995=
200704070100 METAR MRPV NIL=
200704070200 METAR MRPV NIL=
200704070300 METAR MRPV NIL=
200704070400 METAR MRPV NIL=
200704070500 METAR MRPV NIL=
200704070600 METAR MRPV NIL=
200704070700 METAR MRPV NIL=
200704070800 METAR MRPV NIL=
200704070900 METAR MRPV NIL=
200704071000 METAR MRPV NIL=
200704071200 METAR MRPV NIL=
200704071300 METAR MRPV 071300Z 10012G22KT CAVOK 21/16 A3003 BKN100 DZ N=
200704071400 METAR MRPV 071400Z 09014G24KT CAVOK 21/16 A3007 BKN100=
200704071500 METAR MRPV 071500Z 10012G22KT 9999 SCT030 BKN100 22/16 A3008 RN NE=
200704071600 METAR MRPV 071600Z 09010G20KT 9999 SCT030 SCT100 BKN250 22/16 A3008 RN NE=
200704071700 METAR MRPV 071700Z 11014KT 9999 FEW022 SCT100 BKN250 23/17 A3006 DZ NE=
200704071800 METAR MRPV 071800Z 07013KT 9999 FEW022 SCT100 BKN250 24/18 A3004=
200704071900 METAR MRPV 071900Z 07010G20KT 9999 FEW022 SCT100 BKN250 25/17 A3001 RN NE=
200704072000 METAR MRPV 072000Z 07010G20KT 9999 SCT020 SCT030 BKN250 24/18 A3000 RN N=
200704072100 METAR MRPV 072100Z 08010G20KT 9999 SCT016 SCT025 BKN250 24/18 A2998 RMK RN NE=
200704072200 METAR MRPV 072200Z 07010G20KT 9999 FEW015 SCT030 BKN250 24/17 A2998 RMK RN NE=
200704072300 METAR MRPV 072300Z 09010G20KT 9999 SCT010 BKN022 22/17 A3001=
200704072350 METAR MRPV 080000Z 10012KT 9999 SCT010 BKN022 22/17 A3001=
200704080000 METAR MRPV 080000Z 10012KT 9999 SCT010 BKN022 22/17 A3001=
200704080100 METAR MRPV NIL=
200704080200 METAR MRPV NIL=
200704080300 METAR MRPV NIL=
200704080400 METAR MRPV NIL=
200704080500 METAR MRPV NIL=
200704080600 METAR MRPV NIL=
200704080700 METAR MRPV NIL=
200704080800 METAR MRPV NIL=
200704080900 METAR MRPV NIL=
200704081000 METAR MRPV NIL=
200704081100 METAR MRPV NIL=
200704081200 METAR MRPV NIL=
200704081300 METAR MRPV 081300Z 11010G20KT 9999 SCT015 SCT100 21/15 A3010 RMK RN DST NNE=
200704081400 METAR MRPV 081400Z 11014KT 9999 SCT015 SCT100 21/16 A3014 RMK RN DST NE=
200704081500 METAR MRPV 081500Z 11010G20KT 9999 SCT015 SCT100 22/16 A3014 RMK DZ DST N=
200704081600 METAR MRPV 081600Z 11010G20KT 9999 SCT020 SCT100 25/16 A3014 RMK RN DST N=
200704081700 METAR MRPV 081700Z 09014KT 9999 SCT022 SCT100 26/16 A3013 RMK RN DST N=
200704081800 METAR MRPV 081800Z 09014KT 9999 FEW025 SCT100 BKN250 27/17 A3001 RMK RN DST NE=
200704081900 METAR MRPV 081900Z 08015KT 9999 FEW025TCU BKN250 27/17 A3007 RMK CB DST SW=
200704082000 METAR MRPV 082000Z 08010G20KT 9999 FEW015TCU BKN027 24/17 A3005=
200704082200 METAR MRPV 082200Z 11012KT 9999 -RA SCT012 BKN024 21/18 A3006=
200704082300 METAR MRPV 082300Z 10012KT -RA SCT010 SCT100 BKN250 21/17 A3006=
200704082343 METAR MRPV 090000Z 10010KT 9999 -RA SCT015 SCT100 BKN250 20/17 A3006=
200704082359 METAR MRPV 090000Z 10010KT 9999 -RA SCT015 SCT100 BKN250 20/17 A3006=
200704090000 METAR MRPV 090000Z 10010KT 9999 -RA SCT015 SCT100 BKN250 20/17 A3006=
200704090100 METAR MRPV NIL=
200704090300 METAR MRPV NIL=
200704090400 METAR MRPV NIL=
200704090500 METAR MRPV NIL=
200704090600 METAR MRPV NIL=
200704090700 METAR MRPV NIL=
200704090800 METAR MRPV NIL=
200704090900 METAR MRPV NIL=
200704091000 METAR MRPV NIL=
200704091100 METAR MRPV NIL=
200704091200 METAR MRPV 091200Z 12010KT CAVOK 21/16 A3000 BKN100 TRACE CU SCT=
200704091300 METAR MRPV 091300Z 13009KT CAVOK 22/17 A3008 RMK TRACE CU SC BKN100=
200704091400 METAR MRPV 091400Z 11008KT CAVOK 23/17 A3011 RMK SCT100 TRACE CU SC=
200704091500 METAR MRPV 091500Z 07010KT CAVOK 25/17 A3012 RMK TRACE SC SCT130 BKN250=
200704091600 METAR MRPV 091600Z 08007KT 9999 SCT030 SCT130 BKN250 27/17 A3011=
200704091700 METAR MRPV 091700Z 06007KT 9999 SCT030 BKN250 29/16 A3009=
200704091800 METAR MRPV 091800Z 01003KT 010V160 9999 SCT030 BKN250 29/16 A3005=
200704091900 METAR MRPV 091900Z 30008KT 9999 SCT025 BKN040 28/19 A3004=
200704092000 METAR MRPV 092000Z 27004KT 9999 SCT025 BKN040 27/20 A2999 RMK CB S SW NW RASH NW=
200704092100 METAR MRPV 092100Z 35004KT 9999 TS VCSH FEW015CB SCT030 BKN100 24/19 A2999/VIS SW W 6KM DUE TSTM=
200704092200 METAR MRPV 092200Z 31003KT 9999 SCY025 OVC100 23/18 A2999=
200704092300 METAR MRPV 092300Z 29003KT 9999 SCT015 BKN040 23/19 A3001 VIS SW 5KM DUE FOG BNK=
200704100000 METAR MRPV NIL=
200704100100 METAR MRPV NIL=
200704100300 METAR MRPV NIL=
200704100400 METAR MRPV NIL=
200704100500 METAR MRPV NIL=
200704100600 METAR MRPV NIL=
200704100700 METAR MRPV NIL=
200704100800 METAR MRPV NIL=
200704100900 METAR MRPV NIL=
200704101000 METAR MRPV NIL=
200704101100 METAR MRPV NIL=
200704101200 METAR MRPV 101200Z 00000KT CAVOK 18/16 A3002 RMK BKN120=
200704101300 METAR MRPV 101300Z 00000KT CAVOK 20/16 A3004 SCT120 BKN250=
200704101400 METAR MRPV 101400Z 31003KT CAVOK 22/17 A3006/SCT120 BKN250 TRACE SC/ HZ W=
200704101500 METAR MRPV 101500Z 28005KT 9999 FEW040 SCT120 OVC250 24/18 A3006 HZ W=
200704101600 METAR MRPV 101600Z 09006KT 9999 SCT030 SCT130 BKN250 28/17 A3005/HZ W=
200704101700 METAR MRPV 101700Z 30007KT 9999 SCT030 BKN120 26/19 A3004 RN DIST NW=
200704101800 METAR MRPV 101800Z 29014KT 9999 SCT030 OVC120 26/20 A3000/ CB DIST N NW NE=
200704101900 METAR MRPV 101900Z 29011KT 9999 SCT030 OVC100 25/19 A2988 CB RASH DIST ARND/=
200704102000 METAR MRPV 102000Z 29010KT 9999 TS VCSH SCT020CB SCT035 OVC100 23/20 A2996 VIS NW N NE 5KM DUE TSTM=
200704102100 METAR MRPV 102100Z 34004KT 4000 -TSRA SCT010SCT015CB OVC100 22/20 A2996 RMK VIS N UNLD=
200704102200 METAR MRPV NIL=
200704102300 METAR MRPV 102300Z 28004KT 4000 RA BR SCT007 BKN015 22/20 A2998 RMK VIS NW 8KM=
200704110000 METAR MRPV NIL=
200704110100 METAR MRPV NIL=
200704110200 METAR MRPV NIL=
200704110300 METAR MRPV NIL=
200704110400 METAR MRPV NIL=
200704110500 METAR MRPV NIL=
200704110600 METAR MRPV NIL=
200704110700 METAR MRPV NIL=
200704110900 METAR MRPV NIL=
200704111000 METAR MRPV NIL=
200704111100 METAR MRPV NIL=
200704111200 METAR MRPV 111200Z 09003KT CAVOK 19/18 A3000 RMK SCT120 BKN250 CB DST SW=
200704111300 METAR MRPV 111300Z 03003KT CAVOK 21/18 A3002 RMK SCT130 SCT250 CB DST=
200704111400 METAR MRPV 111400Z 07003KT 9999 FEW030 SCT130 24/18 A3003 RMK HZ W CB DST SW/W=
200704111500 METAR MRPV 111500Z 04003KT 9999 FEW035 SCT250 26/18 A3003 RMK CB DST SW HZ W=
200704111600 METAR MRPV 111600Z 29007KT 9999 SCT030 SCT250 26/18 A3002 RMK CB DST SW=
200704111700 METAR MRPV 111700Z 30008KT 9999 FEW020 SCT035 SCT250 27/19 A3001 RMK TCU S/SW=
200704111800 METAR MRPV 111800Z 29010KT 9999 BKN030 27/19 A2999 TCU SCT ARND=
200704111900 METAR MRPV 111900Z 28008KT 9999 SCT030 BKN080 27/19 A2996 RMK TCU SCT ARND=
200704112000 METAR MRPV 112000Z 28009KT 9999 SCT025 BKN100 25/21 A2994 RMK TCU SCT ARND RN E=
200704112100 METAR MRPV 112100Z 30010KT 9999 FEW020TCU SCT030 OVC100 25/20 A2993 RN NE E=
200704112200 METAR MRPV 112200Z 30011KT 9999 FEW020TCU SCT030 OVC100 24/20 A2994 RN NW NE E=
200704112300 METAR MRPV 112300Z 29010KT 9999 FEW015TCU SCT025 OVC100 23/19 A2996 RASH NW N=
200704120000 METAR MRPV NIL=
200704120100 METAR MRPV NIL=
200704120200 METAR MRPV NIL=
200704120300 METAR MRPV NIL=
200704120400 METAR MRPV NIL=
200704120500 METAR MRPV NIL=
200704120600 METAR MRPV NIL=
200704120700 METAR MRPV NIL=
200704120800 METAR MRPV NIL=
200704120900 METAR MRPV NIL=
200704121000 METAR MRPV NIL=
200704121100 METAR MRPV NIL=
200704121200 METAR MRPV 121200Z VRB03KT CAVOK 19/18 A3003.HZ W=
200704121300 METAR MRPV 121300Z 14005KT 9999 FEW004 BKN250 22/19 A3005 HZ/FG W=
200704121400 METAR MRPV 121400Z 29006KT 7000 3000W VCFG SCT002 BKN250 23/20 A3007 CB W=
200704121500 METAR MRPV 121500Z 28005KT 7000 3000E VCFG SCT010 BKN250 25/20 A3007 CB DST SW=
200704121600 METAR MRPV 121600Z 08006KT 8000 3000E VCFG SCT010 BKN250 28/19 A3004=
200704121700 METAR MRPV 121700Z 09010KT 9999 SCT010 BKN250 28/18 A3003 CB SW HZY=
200704121800 METAR MRPV 121800Z 08010KT 9999 SCT013TCU BKN250 28/18 A3001 HZ W=
200704121900 METAR MRPV 121900Z 27010KT 8000 VCFG FEW010TCU SCT025TCU BKN250 25/22 A2998 CB SW NW=
200704122000 METAR MRPV 122000Z 27015KT 3000 +RA FEW008CB BKN010 23/21 A2996=
200704122100 METAR MRPV 122100Z 29008KT 5000 VCFG SCT008 BKN016 23/21 A2995=
200704122200 METAR MRPV 122200Z VRB03KT 7000 3000W VCFG SCT004 SCT020 BKN250 23/21 A2995 RMK LINE TCU W=
200704122300 METAR MRPV 122300Z 12004KT 2000 +RA SCT002 SCT015 BKN100 21/20 A2998 RMK LINE TCU W=
200704130000 METAR MRPV 130000Z NIL=
200704130100 METAR MRPV NIL=
200704130200 METAR MRPV NIL=
200704130300 METAR MRPV NIL=
200704130400 METAR MRPV NIL=
200704130500 METAR MRPV NIL=
200704130600 METAR MRPV NIL=
200704130700 METAR MRPV NIL=
200704130800 METAR MRPV NIL=
200704130900 METAR MRPV NIL=
200704131000 METAR MRPV NIL=
200704131100 METAR MRPV NIL=
200704131200 METAR MRPV 131200Z 12008KT CAVOK 21/17 A3002 RMK SCT250 TRAZAS SC/AC HZ LGT ARND=
200704131300 METAR MRPV 131300Z 10011KT CAVOK 23/18 A3004 RMK SCT250 TRACE SC=
200704131400 METAR MRPV 131400Z 10010KT CAVOK 25/18 A3006 RMK SCT250 TRACE CU=
200704131500 METAR MRPV 131500Z 07012KT 9999 FEW022 BKN250 27/17 A3006 RMK HZ LGT ARND=
200704131600 METAR MRPV 131600Z 08009KT 9999 FEW022 BKN250 27/18 A3005 RMK HZ LGT W=
200704131700 METAR MRPV 131700Z 08007KT 9999 SCT022 BKN250 29/18 A3004 RMK HZ LGT ARND=
200704131800 METAR MRPV 131800Z 06008KT 9999 SCT022 BKN250 29/17 A3002 RMK HZ LGT ARND CB DST W SW=
200704131900 METAR MRPV 131900Z 06010KT 9999 FEW012TCU SCT030 BKN250 30/16 A2999 RMK HZ LGT W=
200704132000 METAR MRPV 132000Z 28010KT 9999 FEW012TCU SCT030 BKN250 27/20 A2998 RMK HZ W=
200704132100 METAR MRPV 132100Z 27010KT 9999 FEW012TCU SCT030 BKN250 26/20 A2995 RMK HZ W=
200704132200 METAR MRPV 132200Z 27012KT 9999 FEW012TCU SCT030 BKN250 26/20 A2994 RMK HZW=
200704132300 METAR MRPV 132300Z 29009KT 9999 SCT015TCU BKN250 25/20 A2996 RMK HZ W=
200704140000 METAR MRPV NIL=
200704140100 METAR MRPV NIL=
200704140200 METAR MRPV NIL=
200704140300 METAR MRPV NIL=
200704140400 METAR MRPV NIL=
200704140500 METAR MRPV NIL=
200704140600 METAR MRPV NIL=
200704140700 METAR MRPV NIL=
200704140800 METAR MRPV NIL=
200704141000 METAR MRPV NIL=
200704141100 METAR MRPV NIL=
200704141200 METAR MRPV 141200Z 09008KT 9999 SCT018 BKN250 22/18 A3001 RN N NE=
200704141300 METAR MRPV 141300Z 09008KT 9999 SCT018 BKN250 22/18 A3003 RMK POLVO PISTA 09 RN DST N NE=
200704141400 METAR MRPV 141400Z 09010KT 9999 SCT015 SCT025 BKN250 23/18 A3005 RMK POLVO PISTA 09 RN DST N NE=
200704141500 METAR MRPV 141500Z 09012KT 9999 SCT020 SCT090 BKN250 25/18 A3006 RMK POLVO PISTA 09 RN DST N NE=
200704141600 METAR MRPV 141600Z 09014KT 9999 SCT017 SCT100 BKN250 25/18 A3006 RMK RN DST N NE=
200704141700 METAR MRPV 141700Z 09014KT 9999 SCT015 BKN028 26/18 A3004 RMK RN DST NE=
200704141800 METAR MRPV 141800Z 09013G23KT 9999 SCT015 BKN028 25/18 A3003 RMK RN DST NE NW=
200704141900 METAR MRPV 141900Z 08013G23KT 9999 SCT015 BKN028 25/17 A3000 RMK RN DST NE NW=
200704142000 METAR MRPV 142000Z 09014KT 9999 SCT015 BKN028 24/17 A2997 RMK RN DST S/N=
200704142100 METAR MRPV 142100Z 12019KT 6000 -RA FEW010 SCT025 BKN100 22/18 A2998. VIS N UNL=
200704142200 METAR MRPV 142200Z 11010KT 8000 -DZ FEW015 SCT030 BKN100 22/18 A2997/ VIS QUAD N UNL=
200704142300 METAR MRPV 142300Z 12007KT 9999 SCT030 BKN120 22/17 A2998/ RN DIST W=
200704150000 METAR MRPV NIL=
200704150100 METAR MRPV NIL=
200704150300 METAR MRPV NIL=
200704150400 METAR MRPV NIL=
200704150600 METAR MRPV NIL=
200704150700 METAR MRPV NIL=
200704150800 METAR MRPV NIL=
200704150900 METAR MRPV NIL=
200704151000 METAR MRPV NIL=
200704151100 METAR MRPV NIL=
200704151200 METAR MRPV NIL=
200704151300 METAR MRPV 151300Z 050003KT CAVOK 22/17 A3006/ RMK SCT100 BKN250=
200704151400 METAR MRPV 151400Z 08003KT 9999 FEW030 SCT120 BKN250 24/17 A3008=
200704151500 METAR MRPV 151500Z 11003KT 9999 FEW030 BKN250 25/17 A3008=
200704151600 METAR MRPV 151600Z 00000KT 9999 FEW030 SCT120 BKN250 26/17 A3007=
200704151700 METAR MRPV 151700Z 02004KT 9999 SCT030 BKN250 29/17 A3006=
200704151800 METAR MRPV 151800Z 28005KT 9999 SCT030 SCT120 BKN250 28/18 A3003=
200704151900 METAR MRPV 151900Z 25003KT 9999 FEW025 SCT100 BKN250 28/17 A2999=
200704152000 METAR MRPV 152000Z 27004KT 9999 SCT030 SCT100 BKN250 27/18 A2998=
200704152100 METAR MRPV 152100Z 07008KT 9999 SCT030 SCT100 BKN250 28/19 A2996=
200704152200 METAR MRPV 152200Z 28007KT 9999 SCT030 BKN100 28/21 A2995=
200704152300 METAR MRPV 152300Z 28006KT 9999 FEW020 SCT030 BKN100 26/21 A2997=
200704160000 METAR MRPV NIL=
200704160100 METAR MRPV NIL=
200704160200 METAR MRPV NIL=
200704160300 METAR MRPV NIL=
200704160400 METAR MRPV NIL=
200704160500 METAR MRPV NIL=
200704160600 METAR MRPV NIL=
200704160700 METAR MRPV NIL=
200704160800 METAR MRPV NIL=
200704160900 METAR MRPV NIL=
200704161000 METAR MRPV NIL=
200704161100 METAR MRPV NIL=
200704161200 METAR MRPV NIL=
200704161300 METAR MRPV 161300Z 08020KT 9999 SCT030 22/15 A3007=
200704161400 METAR MRPV 161400Z 08021KT 9999 SCT030 23/15 A3009=
200704161500 METAR MRPV 161500Z 08019KT 9999 SCT030 24/14 A3009=
200704161600 METAR MRPV 161600Z 08017KT 9999 SCT030 26/14 A3009 RMK RAFAGAS DE 25KT=
200704161700 METAR MRPV 161700Z 07019KT 9999 SCT030 26/15 A3008=
200704161800 METAR MRPV 161800Z 07016KT 9999 SCT030 SCT250 26/15 A3005 RMK RAFAGAS DE 23KT=
200704161900 METAR MRPV 161900Z 06018KT 9999 SCT030 BKN250 26/14 A3002=
200704162000 METAR MRPV 162000Z 07015KT 9999 SCT035 BKN250 27/14 A2998=
200704162100 METAR MRPV 162100Z 07017KT 9999 FEW030 BKN250 27/14 A2997=
200704162200 METAR MRPV 162200Z 06015KT 9999 FEW030 BKN250 26/24 A2997=
200704162300 METAR MRPV 162300Z 07016KT 9999 FEW025 BKN250 24/15 A2998=
200704170000 METAR MRPV NIL=
200704170100 METAR MRPV NIL=
200704170200 METAR MRPV NIL=
200704170300 METAR MRPV NIL=
200704170400 METAR MRPV NIL=
200704170500 METAR MRPV NIL=
200704170600 METAR MRPV NIL=
200704170700 METAR MRPV NIL=
200704170800 METAR MRPV NIL=
200704170900 METAR MRPV NIL=
200704171000 METAR MRPV NIL=
200704171100 METAR MRPV NIL=
200704171200 METAR MRPV NIL=
200704171300 METAR MRPV 171300Z 11014KT CAVOK 21/13 A3003 SCT250 CB S=
200704171400 METAR MRPV 171400Z 11013KT CAVOK 23/14 A3004 SCT250=
200704171500 METAR MRPV 171500Z 08018KT CAVOK 24/12 A3004 SCT250 CB S=
200704171600 METAR MRPV 171600Z 07014KT CAVOK 26/11 A3003 SCT250=
200704171700 METAR MRPV 171700Z 09012KT CAVOK 27/13 A3003 SCT250 TRACE CU=
200704171800 METAR MRPV 171800Z 09012KT CAVOK 27/13 A3003 SCT250 TRACE CU=
200704171900 METAR MRPV 171900Z 09012KT CAVOK 28/14 A2995 RMK SCT250 TRACE CU=
200704172000 METAR MRPV 172000Z 09012KT 9999 FEW030 SCT250 28/14 A2993=
200704172100 METAR MRPV 172100Z 08012KT 9999 FEW030 SCT250 28/15 A2991=
200704172200 METAR MRPV 172200Z 09011KT 9999 SCT030 SCT250 26/16 A2991 RMK CB SW=
200704172300 METAR MRPV 172300Z 09010KT 9999 SCT030 SCT250 25/16 A2992=
200704180000 METAR MRPV 180000Z NIL=
200704180100 METAR MRPV NIL=
200704180300 METAR MRPV NIL=
200704180400 METAR MRPV NIL=
200704180500 METAR MRPV NIL=
200704180700 METAR MRPV NIL=
200704180800 METAR MRPV NIL=
200704180900 METAR MRPV NIL=
200704181000 METAR MRPV NIL=
200704181100 METAR MRPV NIL=
200704181200 METAR MRPV NIL=
200704181300 METAR MRPV 181300Z VRB03KT CAVOK 22/14 A2996 RMK SCT250 HZ W=
200704181400 METAR MRPV 181400Z 12008KT CAVOK 25/13 A2997 RMK SCT250 HZ LGT ARND=
200704181500 METAR MRPV 181500Z 09008KT CAVOK 27/11 A2998 RMK SCT250 HZ W=
200704181600 METAR MRPV 181600Z 33006KT CAVOK 28/12 A2996 RMK SCT250 HZ W=
200704181700 METAR MRPV 181700Z 27009KT 9999 FEW030 SCT250 28/16 A2996 RMK HZ W=
200704181800 METAR MRPV 181800Z 27013KT 9999 FEW030 29/15 A2994 RMK HZ W=
200704181900 METAR MRPV 181900Z 26010KT 9999 FEW030 29/16 A2991 RMK HZ W=
200704182000 METAR MRPV 182000Z 26012KT 9999 FEW030 29/17 A2990 RMK HZ W=
200704182100 METAR MRPV 182100Z 26010KT 9999 SCT030 28/18 A2989 RMK HZ W=
200704182200 METAR MRPV 182200Z 26014KT 9999 SCT030 27/19 A2988 RMK HZW=
200704182300 METAR MRPV 182300Z 28014KT 9999 SCT030 25/20 A2989 RMK HZ N W=
200704190000 METAR MRPV NIL=
200704190100 METAR MRPV NIL=
200704190200 METAR MRPV NIL=
200704190300 METAR MRPV NIL=
200704190400 METAR MRPV NIL=
200704190500 METAR MRPV NIL=
200704190600 METAR MRPV NIL=
200704190700 METAR MRPV NIL=
200704190800 METAR MRPV NIL=
200704190900 METAR MRPV NIL=
200704191000 METAR MRPV NIL=
200704191100 METAR MRPV NIL=
200704191200 METAR MRPV 191200Z 08005KT CAVOK 18/13 A2996 BKN250 HZ W=
200704191300 METAR MRPV 191300Z 09008KT CAVOK 20/14 A2997 RMK BKN250 HZ W FU PISTA 09=
200704191400 METAR MRPV 191400Z 05005KT CAVOK 23/15 A2999 RMK BKN250 HZ W N FU PISTA 09=
200704191500 METAR MRPV 191500Z 30006KT CAVOK 25/16 A2999 RMK HZ N W BKN250 DU PISTA 09=
200704191600 METAR MRPV 191600Z 28008KT 9999 FEW030 BKN250 26/16 A2999 RMK HZ W N=
200704191700 METAR MRPV 191700Z 27008KT 9999 FEW030 BKN250 28/16 A2998 HZ W N=
200704191800 METAR MRPV 191800Z 30008KT 9999 FEW030 BKN250 29/14 A2995 RMK HZY=
200704191900 METAR MRPV 191900Z 28010KT 9999 SCT030 BKN250 30/16 A2992 RMK HZY=
200704192000 METAR MRPV 192000Z 26012KT 9999 SCT030 BKN250 28/20 A2991 RMK HZY=
200704192100 METAR MRPV 192100Z 27010KT 9999 SCT025TCU BKN250 29/19 A2989/HZY=
200704192200 METAR MRPV 192200Z 32004KT 4000 1000N RA FEW008TCU BKN020 24/20 A2991/UNL S=
200704192300 METAR MRPV 192300Z 28009KT 8000 3000N -DZ FEW010 SCT022 BKN250 24/20 A2993/E UNL=
200704200000 METAR MRPV NIL=
200704200100 METAR MRPV NIL=
200704200200 METAR MRPV NIL=
200704200300 METAR MRPV NIL=
200704200400 METAR MRPV NIL=
200704200500 METAR MRPV NIL=
200704200600 METAR MRPV NIL=
200704200700 METAR MRPV NIL=
200704200800 METAR MRPV NIL=
200704200900 METAR MRPV NIL=
200704201000 METAR MRPV NIL=
200704201100 METAR MRPV NIL=
200704201200 METAR MRPV 201200Z VRB03KT 9999 FEW004 SCT090 BKN250 16/12 A3001 RMK HZ W=
200704201300 METAR MRPV 201300Z VRB03KT 9999 FEW002 SCT090 BKN250 20/24 A3003.HZY=
200704201400 METAR MRPV 201400Z VRB03KT 9999 4000W FEW008 SCT090 BKN250 23/14 A3004/ FU OVR RNWY 09=
200704201500 METAR MRPV 201500Z 12007KT 9999 4000W FEW015 SCT090 BKN250 27/12 A3005/HZ LGT ARND=
200704201600 METAR MRPV 201600Z 09014KT 9999 4000W FEW025 SCT090 BKN250 28/14 A3002/HZ ARND=
200704201700 METAR MRPV 201700Z 09012KT 9999 4000W FEW025 BKN250 29/12 A3001/ HZY=
200704201800 METAR MRPV NIL=
200704201900 METAR MRPV 201900Z 27011KT 9999 4000W SCT025 BKN250 27/18 A2979/HZ ARND=
200704202100 METAR MRPV 202100Z 34006KT 7000 3000 W -RA SCT015TCU BKN025 24/21 A2994 RMK HZ ARND=
200704202200 METAR MRPV 202200Z 09010KT 260V030 9999 4000W FEW010 BKN250 26/14 A2994 RERA RMK HZ W=
200704202300 METAR MRPV 202300Z 08014KT 9999 4000 NW SCT022 BKN250 25/14 A2996 RMK HZ ARND TCU NW/N/SW=
200704210000 METAR MRPV NIL=
200704210100 METAR MRPV NIL=
200704210200 METAR MRPV NIL=
200704210400 METAR MRPV NIL=
200704210500 METAR MRPV NIL=
200704210600 METAR MRPV NIL=
200704210700 METAR MRPV NIL=
200704210800 METAR MRPV NIL=
200704210900 METAR MRPV NIL=
200704211000 METAR MRPV NIL=
200704211100 METAR MRPV NIL=
200704211200 METAR MRPV 211200Z 11005KT CAVOK 20/12 A3006 RMK BKN250 HZ W CB DST S SW=
200704211300 METAR MRPV 211300Z 13005KT CAVOK 24/12 A3008 RMK BKN250 HZ W=
200704211400 METAR MRPV 211400Z 14005KT CAVOK 26/12 A3007 RMK BKN250 HZ ARND TRAZAS SC=
200704211500 METAR MRPV 211500Z 08013KT CAVOK 27/13 A3008 RMK BKN250 TRAZAS SC CB DST S/SW/W HZ W=
200704211600 METAR MRPV 211600Z 07012KT CAVOK 28/13 A3007 RMK BKN250 TRAZAS SC HZ W=
200704211700 METAR MRPV 211700Z 08010KT 9999 FEW030 BKN250 28/13 A3007 RMK HZ ARND=
200704211800 METAR MRPV 211800Z 09008KT 9999 FEW030 BKN250 29/13 A3004 RMK HZ ARND=
200704211900 METAR MRPV 211900Z 09009KT 9999 SCT030 BKN250 30/14 A3000 RMK HZ ARND=
200704212000 METAR MRPV 212000Z 07005KT 9999 SCT030 BKN250 30/14 A2999 RMK HZ ARND=
200704212100 METAR MRPV 212100Z 07006KT 9999 SCT030 SCT250 28/18 A2996 HZY CB RN N=
200704212200 METAR MRPV 212200Z 36006KT 9999 4000N SCT020TCU SCT030 BKN100 25/19 A2996=
200704212300 METAR MRPV 212300Z 00000KT 9999 FEW020TCU SCT040 BKN100 21/18 A2998 CB RN W=
200704220000 METAR MRPV NIL=
200704220100 METAR MRPV NIL=
200704220200 METAR MRPV NIL=
200704220300 METAR MRPV NIL=
200704220400 METAR MRPV NIL=
200704220500 METAR MRPV NIL=
200704220600 METAR MRPV NIL=
200704220700 METAR MRPV NIL=
200704220800 METAR MRPV NIL=
200704220900 METAR MRPV NIL=
200704221000 METAR MRPV NIL=
200704221100 METAR MRPV NIL=
200704221200 METAR MRPV NIL=
200704221300 METAR MRPV NIL=
200704221400 METAR MRPV 221400Z 09012KT CAVOK 25/14 A3005 SCT250 CB S=
200704221500 METAR MRPV 221500Z 09010KT CAVOK 26/15 A3005 SCT250 HZY=
200704221600 METAR MRPV 221600Z 08009KT CAVOK 27/15 A3004KT SCT250 HZY=
200704221700 METAR MRPV 221700Z 07008KT CAVOK 29/15 A3003 FEW250=
200704221800 METAR MRPV 221800Z 07012KT 9999 SCT040 29/15 A3003 HZY=
200704221900 METAR MRPV 221900Z 02005KT 9999 FEW020TCU SCT035 28/18 A3001=
200704222000 METAR MRPV 222000Z 28010KT 9999 FEW020TCU SCT030 27/20 A2999=
200704222100 METAR MRPV 222100Z 27008KT 9999 VCSH SCT020TCU BKN040 26/20 A2998 RMK CB SH N=
200704222200 METAR MRPV 222200Z 30006KT 9999 FEW020 SCT030 25/21 A2998=
200704222300 METAR MRPV 222300Z 29005KT 9999 BKN030 25/21 A2999=
200704230000 METAR MRPV 230000Z NIL=
200704230100 METAR MRPV NIL=
200704230200 METAR MRPV NIL=
200704230300 METAR MRPV NIL=
200704230500 METAR MRPV NIL=
200704230600 METAR MRPV NIL=
200704230700 METAR MRPV NIL=
200704230800 METAR MRPV NIL=
200704231000 METAR MRPV NIL=
200704231100 METAR MRPV NIL=
200704231200 METAR MRPV 231200Z 11010KT CAVOK 20/14 A3003 RMK SCT300 TRAZAS SC LGT ZH ARND=
200704231300 METAR MRPV 231300Z 09012KT 9999 FEW030 SCT300 21/15 A3006 RMK HZ LGT ARND DU 09=
200704231400 METAR MRPV 231400Z 11010KT 9999 FEW035 SCT300 24/15 A3007=
200704231500 METAR MRPV 231500Z 09013KT 9999 FEW030 SCT250 25/14 A3007 RMK HZ LGT ARND=
200704231600 METAR MRPV 231600Z 07013KT 9999 FEW030 SCT250 26/14 A3007 RMK HZ LGT ARND=
200704231700 METAR MRPV 231700Z 07012KT 9999 FEW030 SCT250 27/13 A3005 RMK HZ ARND=
200704231800 METAR MRPV 231800Z 07011KT 9999 SCT030 28/14 A3003 RMK HZ LGT ARND=
200704231900 METAR MRPV 231900Z 08012KT 9999 SCT030 28/14 A3001 RMK HZ ARND=
200704232000 METAR MRPV 232000Z 08012KT 9999 SCT030 29/13 A3000 RMK HZ ARND TCU ARND=
200704232100 METAR MRPV 232100Z 08014KT 9999 SCT030 28/13 A3000 RMK HZY=
200704232200 METAR MRPV 232200Z 09010KT 9999 SCT040 28/13 A2998 HZY=
200704232300 METAR MRPV 232300Z 09013KT 9999 SCT030 26/15 A2998 RMK HZY=
200704240000 METAR MRPV NIL=
200704240100 METAR MRPV NIL=
200704240200 METAR MRPV NIL=
200704240300 METAR MRPV NIL=
200704240400 METAR MRPV NIL=
200704240500 METAR MRPV NIL=
200704240600 METAR MRPV NIL=
200704240700 METAR MRPV NIL=
200704240800 METAR MRPV NIL=
200704240900 METAR MRPV NIL=
200704241100 METAR MRPV NIL=
200704241200 METAR MRPV 241200Z 12008KT 9999 NSC 20/15 A3004 TRACE SC CI CB DST SW HZY=
200704241300 METAR MRPV 241300Z 10013KT 9999 NSC 22/16 A3007 RMK GUST 19KT TRACE SC AC CI CB DST SW=
200704241400 METAR MRPV 241400Z 09013KT 9999 FEW040 24/16 A3007 RMK GUST 21KT HZ W=
200704241500 METAR MRPV 241500Z 07014KT 9999 FEW035 25/16 A3007 RMK CB DST S=
200704241600 METAR MRPV 241600Z 06013KT 9999 FEW035 26/15 A3006 RMK GUST 18KT=
200704241700 METAR MRPV 241700Z 06011KT 9999 FEW035 28/16 A3005=
200704241800 METAR MRPV 241800Z 07013KT 9999 FEW035 28/16 A3002=
200704241900 METAR MRPV 241900Z 07012KT 9999 SCT030 29/16 A2998=
200704242000 METAR MRPV 242000Z 06012KT 9999 SCT030TCU 30/16 A2995=
200704242100 METAR MRPV 242100Z 08013KT 9999 FEW010TCU SCT030TCU 27/17 A2994/ CB=
200704242200 METAR MRPV 242200Z 08014KT 9999 FEW015TCU SCT030 BKN250 25/17 A2994 CB DIST S SW/ VIS NW 4KM DUE RN=
200704242300 METAR MRPV 242300Z VRB03KT 8000 3000NW VCFG SCT008 BKN018 23/19 A2998=
200704250000 METAR MRPV NIL=
200704250100 METAR MRPV NIL=
200704250200 METAR MRPV NIL=
200704250300 METAR MRPV NIL=
200704250400 METAR MRPV NIL=
200704250500 METAR MRPV NIL=
200704250600 METAR MRPV NIL=
200704250700 METAR MRPV NIL=
200704250800 METAR MRPV NIL=
200704250900 METAR MRPV NIL=
200704251000 METAR MRPV NIL=
200704251100 METAR MRPV NIL=
200704251200 METAR MRPV 251200Z 12006KT CAVOK 20/15 A3002 RMK BKN250=
200704251300 METAR MRPV 251300Z 12007KT CAVOK 23/15 A3003.BKN250. HZ W=
200704251400 METAR MRPV 251400Z 12009KT CAVOK 24/14 A3005/BKN250 TRACE CU HZ W=
200704251500 METAR MRPV 251500Z 06008KT 9999 FEW030 BKN250 26/15 A3005 RMK HZ LG=
200704251600 METAR MRPV 251600Z 09008KT 9999 FEW030 BKN250 27/15 A3004. HZ LGT W=
200704251700 METAR MRPV 251700Z 09008KT 9999 SCT030 BKN250 28/15 A3002 HZ LGT W=
200704251800 METAR MRPV 251800Z 09008KT 9999 SCT030TCU BKN250 28/16 A3000/HZ LGT W=
200704251900 METAR MRPV 251900Z 27007KT 9999 4000W FEW010TCU SCT030 BKN250 27/18 A2987 HZ HVY W=
200704252000 METAR MRPV 252000Z VRB03KT 9999 3000W SCT010TCU SCT030 BKN250 26/17 A2994 RN W=
200704252100 METAR MRPV 252100Z 28009KT 8000 3000NW VCTS FEW010CB BKN025 25/20 A2993 RMK TS NW=
200704252200 METAR MRPV 252200Z VRB03KT 8000 3000NW -TSRA FEW010CB SCT025 BKN100 21/19 A2995 RMK VIS E/SE UNL=
200704252300 METAR MRPV 252300Z VRB03KT 7000 3000NW -RA SCT004 BKN022 21/19 A2996 RMK VIS SE/S UNL=
200704260000 METAR MRPV 260000Z NIL=
200704260100 METAR MRPV NIL=
200704260200 METAR MRPV NIL=
200704260300 METAR MRPV NIL=
200704260400 METAR MRPV NIL=
200704260500 METAR MRPV NIL=
200704260600 METAR MRPV NIL=
200704260700 METAR MRPV NIL=
200704260900 METAR MRPV NIL=
200704261000 METAR MRPV NIL=
200704261200 METAR MRPV 261200Z 13008KT CAVOK 20/16 A2998 RMK SCT100 BKN250 TRACE SC HZ W=
200704261300 METAR MRPV 261300Z 12008KT CAVOK 22/15 A2999 RMK SCT120 SCT250 HZ W=
200704261400 METAR MRPV 261400Z 13009KT CAVOK 24/16 A30001 RMK FEW120 SCT250 RAFAGAS DE 14KT HZ LGT W=
200704261500 METAR MRPV 261500Z 12008KT CAVOK 27/16 A3001 RMK FEW120 SCT250 HZ LGT W POLVO 09=
200704261600 METAR MRPV 261600Z 28010KT 9999 SCT020 25/20 A3002 RMK HZ LGT W=
200704261700 METAR MRPV 261700Z 28011KT 9999 FEW010TCU BKN030 25/20 A3002 RMK HZ LGT W PCPN N=
200704261800 METAR MRPV 261800Z 27010KT 9999 SCT010TCU SCT030 25/19 A3001 RMK RN DST N/NW CB DST S=
200704261900 METAR MRPV 261900Z 28009KT 9999 SCT010TCU SCT025 25/20 A2998 RMK RN NE/NW CB DST S=
200704262000 METAR MRPV 262000Z VRB03KT 3000 +RA SCT002 SCT020 BKN250 21/20 A2997=
200704262100 METAR MRPV 262100Z VRB07KT 7000 3000NW -RA SCT004 BKN020 22/19 A2997=
200704262200 METAR MRPV 262200Z VRB03KT 6000 2500E -RA SCT002 BKN020 21/19 A2996=
200704262300 METAR MRPV 262300Z VRB03KT 7000 3000E VCFG SCT002 BKN020 22/19 A2996 TCU N NE=
200704270000 METAR MRPV 270000Z NIL=
200704270100 METAR MRPV NIL=
200704270200 METAR MRPV NIL=
200704270300 METAR MRPV NIL=
200704270400 METAR MRPV NIL=
200704270600 METAR MRPV NIL=
200704270700 METAR MRPV NIL=
200704270800 METAR MRPV NIL=
200704270900 METAR MRPV NIL=
200704271000 METAR MRPV NIL=
200704271200 METAR MRPV 271200Z 13009KT CAVOK 20/16 A2998/FEW120 SCT300/HZ W=
200704271300 METAR MRPV 271300Z 12011KT CAVOK 21/16 A3000 SCT100=
200704271400 METAR MRPV 271400Z 09010KT 9999 FEW030 BKN100 23/17 A3003 RN NE E=
200704271500 METAR MRPV 271500Z 08013KT 9999 SCT030 BKN100 23/17 A3004 RN NE E HZ W=
200704271600 METAR MRPV 271600Z 10012KT 4000 +DZ FEW006 SCT020 BKN100 22/18 A3007 VSBY SW UNL=
200704271700 METAR MRPV 271700Z 12006KT 9999 -DZ FEW035 BKN100 22/19 A3006=
200704271800 METAR MRPV 271800Z 13007KT 9999 FEW030 BKN120 24/18 A3001 HZY=
200704271900 METAR MRPV 271900Z 08017KT 9999 FEW020 SCT030 BKN120 24/17 A3000 HZ W=
200704272000 METAR MRPV 272000Z 08012KT 9999 FEW020 SCT030 BKN120 25/16 A2998=
200704272100 METAR MRPV 272100Z 14006KT 9999 FEW020 SCT030 BKN130 25/18 A2998 RMK GST12KT RN DST E W=
200704272200 METAR MRPV 272200Z 11011KT 9999 SCT025 BKN150 23/17 A2998 RMK GST17KT=
200704272300 METAR MRPV 272300Z 09008KT 9999 SCT025 BKN150 23/18 A2999=
200704280000 METAR MRPV NIL=
200704280100 METAR MRPV NIL=
200704280200 METAR MRPV NIL=
200704280300 METAR MRPV NIL=
200704280400 METAR MRPV NIL=
200704280500 METAR MRPV NIL=
200704280600 METAR MRPV NIL=
200704280700 METAR MRPV NIL=
200704280800 METAR MRPV NIL=
200704280900 METAR MRPV NIL=
200704281000 METAR MRPV NIL=
200704281100 METAR MRPV NIL=
200704281200 METAR MRPV 281200Z 12006KT 9999 SCT040 BKN250 20/16 A3003=
200704281300 METAR MRPV 281300Z 13007KT 9999 SCT035 BKN250 22/16 A3002=
200704281400 METAR MRPV 281400Z 11012KT 9999 SCT030 BKN250 23/18 A2984=
200704281500 METAR MRPV 281500Z 10012KT 9999 BKN030 25/18 A3006 RMK RN E NE=
200704281600 METAR MRPV 281600Z 10014KT 9999 SCT020 BKN035 23/17 A3005 RMK RN ARND=
200704281700 METAR MRPV 281700Z 10012KT 9999 FEW012 SCT020 BKN100 24/17 A3007 RMK RN ARND=
200704281800 METAR MRPV 281800Z 13005KT 9999 SCT020 BKN040 24/17 A3004=
200704282000 METAR MRPV 282000Z 08010KT 9999 SCT020 BKN100 25/17 A2999=
200704282100 METAR MRPV 282100Z 10007KT 9999 SCT020 BKN100 24/18 A2998=
200704282200 METAR MRPV 282200Z 12006KT 9999 SCT105 BKN030 23/18 A2998 RMK RN DST E SE=
200704282300 METAR MRPV NIL=
200704290000 METAR MRPV NIL=
200704290100 METAR MRPV NIL=
200704290300 METAR MRPV NIL=
200704290500 METAR MRPV NIL=
200704290600 METAR MRPV NIL=
200704290700 METAR MRPV NIL=
200704290800 METAR MRPV NIL=
200704290900 METAR MRPV NIL=
200704291000 METAR MRPV NIL=
200704291100 METAR MRPV NIL=
200704291300 METAR MRPV NIL=
200704291400 METAR MRPV 291400Z 11011KT CAVOK 22/15 A3008 RMK BKN120 CB DST SW=
200704291600 METAR MRPV 291600Z 09010KT CAVOK 26/15 A3009 RMK BKN120=
200704291700 METAR MRPV 291700Z 08012KT CAVOK 27/14 A3007 RMK BKN120=
200704291800 METAR MRPV 291800Z 07010KT CAVOK 27/15 A3006 RMK SCT120 BKN250=
200704291900 METAR MRPV 291900Z 08012KT 9999 FEW040 SCT120 BKN250 28/16 A3002=
200704292000 METAR MRPV 292000Z 07013KT 9999 FEW030 SCT130 BKN250 28/16 A2998=
200704292100 METAR MRPV 292100Z 08014KT 9999 FEW040 BKN250 26/16 A2997=
200704292200 METAR MRPV 292200Z 07012KT 9999 FEW030 BKN250 26/15 A2995=
200704292300 METAR MRPV 292300Z 08012KT 9999 FEW030 BKN250 26/19 A2996=
200704300000 METAR MRPV 300000Z 08010KT 9999 FEW030 SCT250 25/16 A2998=
200704300100 METAR MRPV NIL=
200704300200 METAR MRPV NIL=
200704300400 METAR MRPV NIL=
200704300500 METAR MRPV NIL=
200704300700 METAR MRPV NIL=
200704300800 METAR MRPV NIL=
200704300900 METAR MRPV NIL=
200704301100 METAR MRPV NIL=
200704301200 METAR MRPV 301200Z 13007KT CAVOK 20/15 A2998 RMK SCT250 TRACE SC DZ NE DST CB N S=
200704301300 METAR MRPV 301300Z 12008KT 9999 FEW035 SCT250 22/16 A3001/CB DIST S DZ N NE=
200704301400 METAR MRPV 301400Z 08012KT 9999 SCT035 SCT250 23/17 A3004/ DZ NE=
200704301500 METAR MRPV 301500Z 08011KT 9999 SCT035 SCT250 25/16 A3003/ DZ NE=
200704301600 METAR MRPV 301600Z 07009KT 9999 FEW025 BKN035 26/17 A3003/ DZ NE=
200704301700 METAR MRPV 301700Z 07010KT 9999 FEW025 BKN035 26/17 A3003 DZ DST N NE=
200704301800 METAR MRPV 301800Z 07011KT 9999 3000NE VCSH FEW025 BKN035 24/18 A3000=
200704301900 METAR MRPV 301900Z 08012KT 9999 FEW025 BKN035 24/19 A2999/RN NE W=
200704302000 METAR MRPV 302000Z 07010KT 9999 FEW025 BKN035 26/18 A2993/ RN NE NW=
200704302100 METAR MRPV 302100Z 28009KT 9999 SCT008 BKN025 23/20 A2994 RMK N/NE/NW=
200704302200 METAR MRPV 302200Z VRB03KT 9999 SCT002 SCT020 BKN250 23/20 A2994 RMK RN QURND N=
200704302300 METAR MRPV 302300Z 09010KT 9999 SCT002 SCT020 BKN250 23/18 A2994 RMK RN QUND N=
200705010000 METAR MRPV 010000Z NIL=
200705010200 METAR MRPV NIL=
200705010300 METAR MRPV NIL=
200705010400 METAR MRPV NIL=
200705010600 METAR MRPV NIL=
200705010700 METAR MRPV NIL=
200705010800 METAR MRPV NIL=
200705010900 METAR MRPV NIL=
200705011000 METAR MRPV NIL=
200705011100 METAR MRPV NIL=
200705011200 METAR MRPV 011200Z NIL=
200705011300 METAR MRPV 011300Z 10014KT 9999 NSC 23/16 A2997 RMK TRAZAS SC=
200705011400 METAR MRPV 011400Z 10015KT 9999 NSC 26/17 A2999 RMK TRAZAS SC=
200705011500 METAR MRPV 011500Z 08013KT 9999 FEW030 26/17 A3000=
200705011600 METAR MRPV 011600Z 08015KT 9999 SCT030 27/17 A3000 RMK PCPN NE=
200705011700 METAR MRPV 011700Z 08015KT 9999 SCT030 27/17 A3000 RMK PCPN DST NE=
200705011800 METAR MRPV 011800Z 07014KT 9999 SCT030 28/17 A2996 RMK PCPN NE=
200705012000 METAR MRPV 012000Z 09015KT 9999 SCT010TCU SCT025 BKN250 26/18 A2991 RMK PCPN NW/SW/E CB S=
200705012100 METAR MRPV 012100Z 09016KT 9999 SCT010TCU SCT025 BKN250 24/18 A2990 TS DST NW CB RN NE NW W=
200705012300 METAR MRPV 012300Z 27005KT 5000 2000NW RA SCT002 BKN018 21/19 A2995=
200705012358 METAR MRPV 020000Z NIL=
200705020000 METAR MRPV NIL=
200705020100 METAR MRPV NIL=
200705020200 METAR MRPV NIL=
200705020300 METAR MRPV NIL=
200705020400 METAR MRPV NIL=
200705020500 METAR MRPV NIL=
200705020600 METAR MRPV NIL=
200705020900 METAR MRPV NIL=
200705021100 METAR MRPV NIL=
200705021200 METAR MRPV 021200Z 14006KT CAVOK 20/15 A2996/RMK OVC150 TRACE SCT=
200705021300 METAR MRPV 021300Z 10008KT CAVOK 22/16 A2998 RMK SCT130 BKN250=
200705021400 METAR MRPV 021400Z 10013KT CAVOK 24/16 A3000 FEW130 BKN250=
200705021500 METAR MRPV 021500Z 08012KT CAVOK 25/16 A3000 TRACE SCT FEW130 BKN250 HZY=
200705021600 METAR MRPV 021600Z 07014KT 9999 FEW028 SCT120 BKN250 26/17 A2999 DU PISTA 09 HZ W=
200705021700 METAR MRPV 021700Z 08012KT 9999 FEW028 SCT120 BKN250 27/17 A2998 HZ W=
200705021800 METAR MRPV 021800Z 09010KT 9999 FEW018TCU BKN120 27/17 A2996 CB/RN S=
200705022000 METAR MRPV 022000Z 27008KT 9999 SCT010 BKN100 24/20 A2994 RN N RERA=
200705022100 METAR MRPV 022100Z 30008KT 6000 2000E -RA VCFG SCT002 BKN020 21/18 A2993=
200705022200 METAR MRPV 022200Z 30006KT 5000 2000NW DZ VCFG SCT002 BKN020 22/20 A2994=
200705022300 METAR MRPV 022300Z VRB03KT 7000 3000E VCFG SCT002 SCT020 BKN120 22/19 A2994=
200705030000 METAR MRPV 030000Z NIL=
200705030200 METAR MRPV NIL=
200705030300 METAR MRPV NIL=
200705030400 METAR MRPV NIL=
200705030500 METAR MRPV NIL=
200705030600 METAR MRPV NIL=
200705030800 METAR MRPV NIL=
200705030900 METAR MRPV NIL=
200705031000 METAR MRPV NIL=
200705031100 METAR MRPV NIL=
200705031200 METAR MRPV 031200Z 13003KT 060V130 CAVOK 18/17 A2998 RMK SCT120 SCT270=
200705031300 METAR MRPV 031300Z 12002KT 110V290 CAVOK 22/18 A3000 RMK BKN270 TRACE SC AC HZ LGT W=
200705031400 METAR MRPV 031400Z 10010KT CAVOK 25/17 A3000 RMK BKN270 HZ W=
200705031500 METAR MRPV 031500Z 15004KT 9999 FEW030 BKN250 27/16 A3001 RMK HZ W=
200705031600 METAR MRPV 031600Z 28008KT 9999 SCT030 BKN250 25/19 A3002 RMK HZ W=
200705031800 METAR MRPV 031800Z 28010KT 9999 VCSH FEW010CB SCT025 SCT250 26/20 A2999 RMK VIS NE 6000 DUE RN=
200705031900 METAR MRPV 031900Z 34003KT 340V280 9999 3000N +RA FEW015CB SCT025 BKN100 24/19 A2997=
200705032000 METAR MRPV 032000Z 34003KT 9999 -RA FEW010 SCT025 OVC100 22/20 A2995=
200705032100 METAR MRPV 032100Z 30008KT 9999 4000SW VCSH FEW020 SCT030 OVC100 22/20 A2994=
200705032200 METAR MRPV 032200Z 29008KT 9999 VCSH FEW012 SCT020 OVC100 22/20 A2995 RMK SHRA DST NW N NE E=
200705032300 METAR MRPV 032300Z 06005KT 4000 -RA BR BKN010 OVC025 20/19 A2998=
200705040000 METAR MRPV 040000Z NIL=
200705040100 METAR MRPV NIL=
200705040300 METAR MRPV NIL=
200705040400 METAR MRPV NIL=
200705040500 METAR MRPV NIL=
200705040600 METAR MRPV NIL=
200705040700 METAR MRPV NIL=
200705040800 METAR MRPV NIL=
200705040900 METAR MRPV NIL=
200705041200 METAR MRPV 041200Z 09002KT090V280 CAVOK 18/16 A2997 FEW120 SCT280 CB DST SW=
200705041300 METAR MRPV 041300Z 10008KT CAVOK 22/17 A2998 RMK FEW120 FEW300 POLVO PISTA 09=
200705041400 METAR MRPV 041400Z 11011KT CAVOK 24/18 A3000 RMK FEW300 TRACE AC=
200705041500 METAR MRPV 041500Z 09010KT 9999 FEW030 SCT270 26/17 A3000 RMK HZ W=
200705041600 METAR MRPV 041600Z 07008KT 9999 SCT030 SCT250 27/18 A3000 RMK HZW=
200705041700 METAR MRPV 041700Z 28008KT 9999 SCT020 BKN040 25/20 A2999 RMK HZW=
200705041800 METAR MRPV 041800Z 28008KT 9999 SCT020TCU BKN040 26/20 A2999 RMK SHRA DST N NE E=
200705041900 METAR MRPV 041900Z 30005KT 9999 SCT020TCU BKN035 25/20 A2996 RERA RMK SHRA NW N E=
200705042000 METAR MRPV 042000Z 32004KT 9999 SCT020TCU BKN035 25/21 A2993 RMK SHRA NW N=
200705042100 METAR MRPV 042100Z 34004KT 07V327 9999 VCSH SCT006 BKN020 24/20 A2993/ VIS S SW 5KM DUE RASH=
200705042200 METAR MRPV 042200Z 27006KT 6000 VCSH SCT020 BKN100 22/21 A2992/RASH ARND=
200705042300 METAR MRPV 042300Z 29005KT 6000 VCSH SCT010 BKN025 22/20 A2993/ RN ARND=
200705050000 METAR MRPV NIL=
200705050100 METAR MRPV NIL=
200705050200 METAR MRPV NIL=
200705050300 METAR MRPV NIL=
200705050400 METAR MRPV NIL=
200705050500 METAR MRPV NIL=
200705050600 METAR MRPV NIL=
200705050700 METAR MRPV NIL=
200705050800 METAR MRPV NIL=
200705050900 METAR MRPV NIL=
200705051000 METAR MRPV NIL=
200705051100 METAR MRPV NIL=
200705051300 METAR MRPV 051300Z 14004KT CAVOK 23/17 A2994/ BKN270 CB DIST S SW HZ LGT W=
200705051400 METAR MRPV 051400Z 13005KT CAVOK 25/17 A2997/ CB DIST S/ BKN270=
200705051500 METAR MRPV 051500Z 14003KT 9999 FEW030 SCT270 27/17 A2997/ CB DIST SW S=
200705051600 METAR MRPV 051600Z 27008KT 9999 SCT030 25/19 A2999/HZ W=
200705051700 METAR MRPV 051700Z 28007KT 9999 FEW025 BKN040 26/20 A2996=
200705051800 METAR MRPV 051800Z 29008KT 9999 FEW020TCU BKN035 28/20 A29/94=
200705051900 METAR MRPV 051900Z 26003KT 9999 2000E TSSH FE010 SCT015CB BKN030 24/20 A2992=
200705052000 METAR MRPV 052000Z 34004KT 5000 TSRA SCT010CB BKN025 20/19 A2991 VIS NW 8KM=
200705052200 METAR MRPV 052200Z 00000KT 8000 -RA FEW010 SCT015 OCS100 20/19 A2995=
200705052300 METAR MRPV 052300Z 00000KT 9999 -TSRA FEW010 SCT020CB OVC100 20/19 A2993=
200705060000 METAR MRPV 060000Z NIL=
200705060200 METAR MRPV NIL=
200705060300 METAR MRPV NIL=
200705060500 METAR MRPV NIL=
200705060600 METAR MRPV NIL=
200705060700 METAR MRPV NIL=
200705060800 METAR MRPV NIL=
200705060900 METAR MRPV NIL=
200705061000 METAR MRPV NIL=
200705061100 METAR MRPV NIL=
200705061200 METAR MRPV 061200Z NIL=
200705061300 METAR MRPV 061300Z VRB03KT 9999 SCT025 BKN250 23/19 A2996 RMK RN DST N=
200705061400 METAR MRPV 061400Z 10008KT 9999 SCT020 BKN035 24/19 A2997=
200705061500 METAR MRPV 061500Z 10010KT 9999 SCT020 BKN250 24/19 A2989 RM RN N=
200705061600 METAR MRPV 061600Z 09012KT 9999 SCT020 BKN250 25/19 A2998 RMK RAFAGAS DE 18KT RN E/N=
200705061700 METAR MRPV 061700Z 12012KT 9999 SCT020 BKN035 25/18 A2998 RMK RN N=
200705061800 METAR MRPV 061800Z 13012KT 9999 SCT020 BKN035 26/19 A2995 RMK RN E/N TCU=
200705061900 METAR MRPV 061900Z 10014KT 9999 SCT020 BKN035 26/18 A2993 RMK RASH N/NE=
200705062000 METAR MRPV 062000Z 09013KT 9999 SCT025 BKN250 26/18 A2991 RMK RN NE=
200705062100 METAR MRPV 062100Z 11012KT 9999 SCT025 BKN250 26/18 A2991 RN NW=
200705062200 METAR MRPV 062200Z 08008KT 9999 SCT010 BKN270 26/18 A2991 RN NW TCU SW W=
200705062300 METAR MRPV 062300Z 27006KT 9999 SCT010 BKN250 24/20 A2993 TCU SW W E RN NW=
200705070000 METAR MRPV 070000Z NIL=
200705070200 METAR MRPV NIL=
200705070300 METAR MRPV NIL=
200705070400 METAR MRPV NIL=
200705070500 METAR MRPV NIL=
200705070600 METAR MRPV NIL=
200705070700 METAR MRPV NIL=
200705070800 METAR MRPV NIL=
200705071000 METAR MRPV NIL=
200705071100 METAR MRPV NIL=
200705071200 METAR MRPV 071200Z 13010KT CAVOK 22/18 A2991/RMK SCT120 BKN230=
200705071300 METAR MRPV 071300Z 11007KT CAVOK 23/18 A2992 SCT120 BKN230=
200705071400 METAR MRPV 071400Z 11010KT 9999 FEW030 BKN250 25/18 A2995=
200705071500 METAR MRPV 071500Z 10011KT 9999 FEW030 BKN230 26/18 A2995 DU PISTA 09 HZY RN N=
200705071600 METAR MRPV 071600Z 07012KT 9999 SCT025 BKN230 27/18 A2996 HZ W RN N=
200705071700 METAR MRPV 071700Z 08010KT 9999 FEW015TCU SCT025 28/17 A2994 DU PISTA 09 HZ W RN N=
200705071800 METAR MRPV 071800Z 32005KT 9999 SCT010TCU BKN025 27/18 A2994 DU PISTA 09 RN N HZ W=
200705071900 METAR MRPV 071900Z 28009KT 9999 4000N VCTS FEW010CB BKN025 25/20 A2990 TS N=
200705072000 METAR MRPV 072000Z VRB03KT 5000 2000NW TSRA SCT003CB BKN015 20/19 A2990=
200705072100 METAR MRPV 072100Z VRB03KT 8000 3000SW -RA SCT004 SCT020 BKN250 21/20 A2989 RMK TSTM SSW VIS E UNL=
200705072200 METAR MRPV 072200Z 10008KT 9999 SCT006 SCT022 BKN250 22/18 A2989 RMK RN NE NW CB SW=
200705072300 METAR MRPV 072300Z 09014KT 9999 SCT005 SCT022 BKN250 22/17 A2989=
200705080000 METAR MRPV 080000Z NIL=
200705080100 METAR MRPV NIL=
200705080200 METAR MRPV NIL=
200705080300 METAR MRPV NIL=
200705080500 METAR MRPV NIL=
200705080600 METAR MRPV NIL=
200705080900 METAR MRPV NIL=
200705081000 METAR MRPV NIL=
200705081100 METAR MRPV NIL=
200705081200 METAR MRPV 081200Z 12008KT CAVOK 22/16 A2995 RMK BKN250 TRAZAS AC=
200705081300 METAR MRPV 081300Z 11007KT CAVOK 23/16 A2996 RMK SCT280 TCU DST SW HZ W=
200705081400 METAR MRPV 081400Z 12007KT CAVOK 24/17 A2996 RMK FEW280 TCU DST SW HZ ARND=
200705081500 METAR MRPV 081500Z 10012KT 9999 FEW027 SCT250 26/18 A2998 RMK DU 09 HZ LGT ARND=
200705081700 METAR MRPV 081700Z 08010KT 9999 FEW023 SCT250 28/18 A2996 RMK HZ W LGT GST16KT=
200705081800 METAR MRPV 081800Z 07013KT 9999 SCT015TCU 28/17 A2994 RMK HZ LGT W=
200705081900 METAR MRPV 081900Z 27010KT 9999 BKN020TCU 27/21 A2992 RMK HZ LGT W=
200705082000 METAR MRPV 090200Z 26010KT 9999 FEW010CB SCT020TCU BKN250 25/21 A2989 RMK HZ LGT ARNDW RN DIST N=
200705082100 METAR MRPV 082100Z 30008KT 6000 3000N VCTS SCT006CB BKN020 24/20 A2991 RMK 9999 S SW=
200705082200 METAR MRPV 082200Z VRB03KT 8000 3000SW -RA SCT002 SCT020 BKN250 21/20 A2991 RMK VIS 9999 N=
200705082300 METAR MRPV 082300Z VRB03KT 9999 SCT002 BKN024 22/20 A2993 RMK RN DST NW=
200705090000 METAR MRPV 090000Z NIL=
200705090100 METAR MRPV NIL=
200705090200 METAR MRPV NIL=
200705090300 METAR MRPV NIL=
200705090600 METAR MRPV NIL=
200705090700 METAR MRPV NIL=
200705090800 METAR MRPV NIL=
200705091000 METAR MRPV NIL=
200705091100 METAR MRPV NIL=
200705091200 METAR MRPV 091200Z 08008KT CAVOK 20/17 A2998 SCT090 BKN120 DU PISTA 090 TRACE SCT=
200705091400 METAR MRPV 091400Z 11007KT CAVOK 24/17 A3001 RMK BKN250 TRACE CU SC TCU DST W HZ W=
200705091600 METAR MRPV 091600Z 09010KT 9999 SCT030 BKN120 26/17 A3001 RMK HZ W=
200705091700 METAR MRPV 091700Z 07009KT 9999 SCT030 BKN120 26/17 A3002 RMK TCU RN DST W=
200705091900 METAR MRPV 091900Z 26003KT 9999 FEW020 SCT030 BKN100 27/20 A2999 RMK TCU ARND=
200705092000 METAR MRPV 092000Z 27006KT 9999 FEW015 SCT025 BKN100 24/20 A2994 RMK FG SW=
200705092100 METAR MRPV 092100Z 26006KT 9999 4000N VCSH BR FEW010 SCT025 BKN100 23/21 A2995=
200705092200 METAR MRPV 092200Z 28007KT 4000 BR VCSH SCT010 BKN020 22/20 A2995=
200705092300 METAR MRPV 092300Z 27003KT 4000 -RA SCT006 BKN015 22/20 A2997=
200705100000 METAR MRPV NIL=
200705100100 METAR MRPV NIL=
200705100200 METAR MRPV NIL=
200705100300 METAR MRPV NIL=
200705100400 METAR MRPV NIL=
200705100500 METAR MRPV NIL=
200705100600 METAR MRPV NIL=
200705100700 METAR MRPV NIL=
200705100800 METAR MRPV NIL=
200705100900 METAR MRPV NIL=
200705101000 METAR MRPV NIL=
200705101100 METAR MRPV NIL=
200705101200 METAR MRPV 101200Z 11008KT CAVOK 21/17 A2997 RMK SCT280 CB DST SSW=
200705101300 METAR MRPV 101300Z 11008KT CAVOK 23/17 A3000 FEW280/TRACE CU SCT CB=
200705101400 METAR MRPV 101400Z 10012KT CAVOK 24/17 A3001 FEW120 TRACE SCT CI CB S SW=
200705101500 METAR MRPV 101500Z 08012KT 9999 FEW030 SCT120 26/18 A3001/ CB DIST SW=
200705101600 METAR MRPV 101600Z 08008KT 9999 SCT040 BKN120 27/19 A3003=
200705101700 METAR MRPV 101700Z 26004KT 9999 SCT030 BKN120 27/21 A3000/ TCU SCT ARND=
200705101800 METAR MRPV 101800Z 29010KT 9999 SCT020TCU BKN100 27/21 A2999/ TCU SCT ARND/ RASH NW N DIST=
200705101900 METAR MRPV 101900Z 28006KT 9999 SCT015CB SCT025 BKN140 27/20 A2998/ RASH N NW=
200705102000 METAR MRPV 102000Z 29011KT 9999 VCSH SCT012CB SCT025 OVC100 24/21 A2998 RMK RASH N NE E VIS 5000=
200705102100 METAR MRPV 102100Z 01006KT 9999 4000N -TSRA SCT010CB SCT020 OVC100 23/20 A2995=
200705102200 METAR MRPV 102200Z 00000KT 9999 FEW010 SCT015 OVC100 22/20 A2995 RERA=
200705102300 METAR MRPV 102300Z 00000KT 9999 4000SW BR SCT010 BKN025 23/21 A2995=
200705110000 METAR MRPV NIL=
200705110100 METAR MRPV NIL=
200705110200 METAR MRPV NIL=
200705110300 METAR MRPV NIL=
200705110400 METAR MRPV NIL=
200705110500 METAR MRPV NIL=
200705110600 METAR MRPV NIL=
200705110700 METAR MRPV NIL=
200705110800 METAR MRPV NIL=
200705110900 METAR MRPV NIL=
200705111000 METAR MRPV NIL=
200705111100 METAR MRPV NIL=
200705111200 METAR MRPV 111200Z 12007KT 9999 FEW030 SCT280 22/18 A2997 RMK CB DST S LEVE HZ W=
200705111300 METAR MRPV 111300Z 12008KT CAVOK 24/18 A2999 SCT250 RMK CB DST S LGT HZ ARND=
200705111400 METAR MRPV 111400Z 11007KT 9999 FEW035 BKN250 26/18 A3001 RMK CB DST S HZ LGT W=
200705111500 METAR MRPV 111500Z 08010KT 9999 SCT030 SCT250 27/18 A3001=
200705111600 METAR MRPV 111600Z 21003KT 9999 SCT030 BKN250 28/19 A3000=
200705111700 METAR MRPV 111700Z 08003KT 9999 SCT030 BKN250 28/20 A2998=
200705111800 METAR MRPV 111800Z 10006KT 9999 SCT030 BKN250 29/19 A2997 RMK TCU/RN=
200705111900 METAR MRPV 111900Z 27006KT 9999 FEW020TCU SCT030 BKN100 26/21 A2995 RMK TCU/RN NW/N=
200705112000 METAR MRPV 112000Z 28010KT 9999 VCSH SCT020TCU BKN040 26/21 A2993 RMK CB/RASH VIS 5KM NW/N=
200705112100 METAR MRPV 112100Z 29003 070V360KT 9999 4000S VCSH SCT010CB SCT020 BKN100 24/20 A2993=
200705112200 METAR MRPV 112200Z 10008KT 9999 SCT015 OVC100 25/19 A2993=
200705112300 METAR MRPV 112300Z 10009KT 9999 SCT020 OVC100 24/19 A2994=
200705120000 METAR MRPV 120000Z NIL=
200705120100 METAR MRPV NIL=
200705120200 METAR MRPV NIL=
200705120300 METAR MRPV NIL=
200705120400 METAR MRPV NIL=
200705120500 METAR MRPV NIL=
200705120600 METAR MRPV NIL=
200705120700 METAR MRPV NIL=
200705120800 METAR MRPV NIL=
200705120900 METAR MRPV NIL=
200705121000 METAR MRPV NIL=
200705121100 METAR MRPV NIL=
200705121200 METAR MRPV NIL=
200705121300 METAR MRPV 121300Z 13008KT CAVOK 24/18 A3002=
200705121400 METAR MRPV 121400Z 12009KT CAVOK 26/18 A3003 FEW250 CB S SW=
200705121500 METAR MRPV 121500Z 09010KT CAVOK 28/18 A3003 BKN120 DU PISTA 09=
200705121600 METAR MRPV 121600Z 08009KT 9999 FEW020 BKN120 28/19 A3002=
200705121700 METAR MRPV 121700Z 10009KT 9999 SCT020TCU SCT035 29/19 A3001=
200705121800 METAR MRPV 121800Z 08008KT 9999 SCT015TCU BKN030 28/19 A2999=
200705121900 METAR MRPV 121900Z 27009KT 9999 4000N VCTS FEW010CB BKN025 26/21 A2997=
200705122000 METAR MRPV 122000Z 16010KT 3000 1000W +TSRA SCT9002CB BKN012 21/19 A2996=
200705122100 METAR MRPV 122100Z NIL=
200705122200 METAR MRPV 122200Z VRB03KT 6000 2000NW VCFG SCT002 BKN020 21/20 A2997=
200705122300 METAR MRPV 122300Z VRB03KT 9999 SCT004 SCT012 BKN120 21/20 A2998=
200705130000 METAR MRPV 130000Z NIL=
200705130100 METAR MRPV NIL=
200705130200 METAR MRPV NIL=
200705130300 METAR MRPV NIL=
200705130400 METAR MRPV NIL=
200705130500 METAR MRPV NIL=
200705130600 METAR MRPV NIL=
200705130700 METAR MRPV NIL=
200705130800 METAR MRPV NIL=
200705130900 METAR MRPV NIL=
200705131000 METAR MRPV NIL=
200705131100 METAR MRPV NIL=
200705131200 METAR MRPV 131200Z NIL=
200705131300 METAR MRPV 131300Z VRB03KT 9999 FEW022 SCT120 BKN250 23/18 A3006 RMK LOW ST W NW=
200705131400 METAR MRPV 131400Z 09010KT 9999 FEW022 SCT120 BKN250 26/19 A3007 RMK HZ W=
200705131500 METAR MRPV 131500Z 27006KT 9999 FEW008 SCT120 BKN250 26/21 A3007 RMK HZ W=
200705131600 METAR MRPV 131600Z 27006KT 9999 SCT010 SCT120 26/21 A3007 RMK HZ W=
200705131700 METAR MRPV 131700Z 08008KT 9999 SCT010 SCT120 29/19 A3004 RMK HZ W CB DST ENE=
200705131800 METAR MRPV 131800Z 09008KT 9999 SCT016TCU 30/18 A3001 RMK HZ W=
200705131900 METAR MRPV 131900Z 09009KT 9999 SCT020TCU SCT250 30/19 A2998 RMK HZ W CB E RN NW=
200705132000 METAR MRPV 132000Z 09010KT 9999 VCTS FEW010CB SCT020 28/18 A2994 RMK TS SW=
200705132100 METAR MRPV 132100Z 26008KT 8000 3000W -TSRA SCT008CB BKN022 23/20 A2995 RMK 9999 E=
200705132200 METAR MRPV 132200Z VRB03KT 8000 3000NW -RA SCT008 SCT015 BKN250 23/20 A2996 RMK TS RN DST S SW=
200705132300 METAR MRPV 132300Z 10009KT 8000 3500W VCSH SCT010 BKN020 23/19 A3000 RMK TS DST S SW SHRA N NE W=
200705140000 METAR MRPV 140000Z NIL=
200705140100 METAR MRPV NIL=
200705140200 METAR MRPV NIL=
200705140300 METAR MRPV NIL=
200705140400 METAR MRPV NIL=
200705140500 METAR MRPV NIL=
200705140600 METAR MRPV NIL=
200705140700 METAR MRPV NIL=
200705140800 METAR MRPV NIL=
200705140900 METAR MRPV NIL=
200705141000 METAR MRPV NIL=
200705141100 METAR MRPV NIL=
200705141200 METAR MRPV 141200Z 11009KT 9999 FEW030 SCT250 22/18 A3000 RN NE CB DST S=
200705141300 METAR MRPV 141300Z 12008KT CAVOK 24/18 A3002 RMK BKN250 TRACE SC GUS15KT CB DST S DZ NE=
200705141400 METAR MRPV 141400Z 10009KT 9999 FEW030 BKN250 25/18 A3004 RMK CB DST N S POLVO PISTA 09=
200705141500 METAR MRPV 141500Z 07008KT 9999 FEW030 BKN250 26/19 A3005 RMK CB DST N S POLVO PISTA 09=
200705141600 METAR MRPV 141600Z 08008KT 9999 FEW030 BKN250 27/18 A3005 RMK CB DST N S POLVO PISTA 09=
200705141700 METAR MRPV 141700Z 30008KT 9999 SCT015 BKN250 26/21 A3003 RMK CB DST NW=
200705141800 METAR MRPV 141800Z 08013KT 9999 SCT010TCU SCT020 BKN250 26/19 A3001 RMK HZ QUAD W RN DST N=
200705141900 METAR MRPV 141900Z 18015KT 9999 SCT010 OVC250 26/19 A2998 RMK RN DST N HZ W=
200705142000 METAR MRPV 142000Z 29012KT 9999 4000NW BR SCT008 OVC250 26/22 A2998 RMK RN DST N HZ W=
200705142100 METAR MRPV 142100Z 27008KT 8000 2000NW VCFG FEW002 SCT008TCU BKN020 24/21 A2998 RMK PCPN NW VIS S SE UNLTD=
200705142200 METAR MRPV 142200Z 28006KT 8000 3000W VCFG SCT002 SCT010TCU BKN020 23/21 A2996 RMK DUST ON AP09 RN N NW VIS S SE UNLTD=
200705142300 METAR MRPV 142300Z VRB03KT 8000 3000NW VCFG SCT002 SCT020 BKN250 23/21 A2997=
200705150000 METAR MRPV NIL=
200705150100 METAR MRPV NIL=
200705150200 METAR MRPV NIL=
200705150300 METAR MRPV NIL=
200705150400 METAR MRPV NIL=
200705150500 METAR MRPV NIL=
200705150600 METAR MRPV NIL=
200705150700 METAR MRPV NIL=
200705150800 METAR MRPV NIL=
200705150900 METAR MRPV NIL=
200705151000 METAR MRPV NIL=
200705151100 METAR MRPV NIL=
200705151200 METAR MRPV 151200Z 12012KT 9999 FEW030 22/18 A2998 RMK DZ DST NE=
200705151300 METAR MRPV 151300Z 11008KT 9999 FEW025 24/18 A3000 RMK FEW100 RFGS 14KT=
200705151400 METAR MRPV 151400Z 11009KT 9999 FEW025 25/18 A3002 RMK FEW050 TRAZAS AC RFGS 14KT=
200705151500 METAR MRPV 151500Z 09010KT 9999 FEW040 26/18 A3002=
200705151600 METAR MRPV 151600Z 09008KT 9999 SCT035 27/18 A3001=
200705151700 METAR MRPV 161700Z 07006KT 9999 SCT035 28/18 A2999=
200705151800 METAR MRPV 151800Z 31007KT 9999 SCT030 26/20 A2998=
200705151900 METAR MRPV 151900Z 30012KT 9999 SCT020CB BKN040 27/21 A2996 RMK RASH NW N NE=
200705152000 METAR MRPV 152000Z 27004KT 9999 4000S -TSRA SCT012 SCT020CB BKN100 24/21 A2995=
200705152100 METAR MRPV 152100Z 32003KT 6000 2000E +RA BR SCT006 BKN012 23/22 A2992=
200705152200 METAR MRPV 152200Z 13006KT 4000 -TSRA SCT006 SCT015CB BKN100 22/21 A2994=
200705152300 METAR MRPV 152300Z 33003KT 3000 -RA BR OVC002 22/21 A2995=
200705160000 METAR MRPV NIL=
200705160100 METAR MRPV NIL=
200705160200 METAR MRPV NIL=
200705160300 METAR MRPV NIL=
200705160400 METAR MRPV NIL=
200705160500 METAR MRPV NIL=
200705160600 METAR MRPV NIL=
200705160700 METAR MRPV NIL=
200705160800 METAR MRPV NIL=
200705160900 METAR MRPV NIL=
200705161000 METAR MRPV NIL=
200705161100 METAR MRPV NIL=
200705161200 METAR MRPV 161200Z 12009KT CAVOK 21/17 A2995 RMK BKN250 TRACE SC CB DST NE=
200705161300 METAR MRPV 161300Z 12009KT CAVOK 23/17 A2997 RMK BKN270 TRACE SC RAFAGAS 14KT=
200705161400 METAR MRPV 161400Z 11011KT CAVOK 25/18 A2998 RMK BKN270 TRACE SC CU HZ RAFAGAS 17KT=
200705161500 METAR MRPV 161500Z 10015KT 9999 FEW040 SCT270 26/18 A2999 RMK RAFAGAS 20KT=
200705161600 METAR MRPV 161600Z 09013KT 9999 FEW035 SCT270 27/18 A2999=
200705161700 METAR MRPV 161700Z 09012KT 9999 SCT040 SCT270 28/18 A2998=
200705161800 METAR MRPV 161800Z 09013KT 9999 BKN040 29/18 A2997 RMK TCU ARND=
200705161900 METAR MRPV 161900Z 10011KT 9999 BKN030 28/19 A2995=
200705162000 METAR MRPV 162000Z 10014KT 9999 VCSH FEW010CB SCT025 BKN080 28/19 A2991 RMK VIS NW 7000=
200705162100 METAR MRPV 162100Z 31006KT 9999 VCSH FEW010 SCT020CB OVC100 25/21 A2990 VSBY SW 5KM=
200705162200 METAR MRPV 162200Z 34006KT 9999 TS VCSH SCT010CB BKN100 23/21 A2994 VSBY NW 5KM=
200705162300 METAR MRPV 162300Z 07009KT 7000 3000W +TSRA SCT010CB SCT025 OVC100 22/20 A2995=
200705170000 METAR MRPV 170000Z NIL=
200705170100 METAR MRPV NIL=
200705170200 METAR MRPV NIL=
200705170300 METAR MRPV NIL=
200705170400 METAR MRPV NIL=
200705170500 METAR MRPV NIL=
200705170600 METAR MRPV NIL=
200705170800 METAR MRPV NIL=
200705170900 METAR MRPV NIL=
200705171000 METAR MRPV NIL=
200705171100 METAR MRPV NIL=
200705171200 METAR MRPV 20002 190V340KT CAVOK 20/18 A2997 RMK HZ DUST ARND TRAZAS ST SC SCT120 BKN250=
200705171300 METAR MRPV 171300Z 32004KT 9999 3000W BR FEW001 SCT120 BKN250 22/19 A3000 HZY DU PISTA 09=
200705171400 METAR MRPV 171400Z 28005KT 9999 4000W BR FEW001 BKN220 22/19 A3001 HZ/DU ARND=
200705171500 METAR MRPV 171500Z 26004KT 9999 FE020 BKN230 24/20 A3001 HZ/DU ARND=
200705171600 METAR MRPV 171600Z 30006KT 9999 FEW030 BKN230 26/21 A3001 HZ/DU ARND=
200705171700 METAR MRPV 171700Z 29004KT 9999 SCT025 BKN230 27/21 A2999 HZ/DU ARND=
200705171800 METAR MRPV 171800Z 28011KT 9999 SCT030 BKN120 27/21 A2997 HZ/DU ARND=
200705171900 METAR MRPV 171900Z 28011KT 9999 FEW020CB SCT030 BKN120 27/21 A2994 CB RASH N NE E=
200705172000 METAR MRPV 172000Z 17007KT 4000 TSRA SCT012CB SCT030 OVC100 25/21 A2993 VSBY W UNL=
200705172100 METAR MRPV 172100Z 14003KT 8000 3000NW -TSRA FEW012 SCT020CB OVC100 21/20 A2995=
200705172200 METAR MRPV 172200Z 02003KT 7000 -RA BR SCT015 BKN025 22/20 A2996 RMK VIS N 4000=
200705172300 METAR MRPV 172300Z 11007KT 7000 -RA FEW010 SCT015 OVC100 22/20 A2997=
200705180000 METAR MRPV 180000Z NIL=
200705180100 METAR MRPV NIL=
200705180200 METAR MRPV NIL=
200705180300 METAR MRPV NIL=
200705180400 METAR MRPV NIL=
200705180500 METAR MRPV NIL=
200705180600 METAR MRPV NIL=
200705180700 METAR MRPV NIL=
200705180800 METAR MRPV NIL=
200705180900 METAR MRPV NIL=
200705181000 METAR MRPV NIL=
200705181100 METAR MRPV NIL=
200705181200 METAR MRPV 181200Z 12010KT CAVOK 22/18 A2997 RMK FEW120 BKN250 CB N=
200705181300 METAR MRPV 181300Z 13009KT CAVOK 23/18 A2999 RMK TRACE SC AC BKN250 FEW250 RST14KT=
200705181400 METAR MRPV 181400Z 11010KT CAVOK 24/18 A3000 RMK TRACE CU SC AC SCT250 RST16KT=
200705181500 METAR MRPV 181500Z 10012KT 9999 SCT020 25/18 A3002=
200705181600 METAR MRPV 181600Z 10012KT 9999 SCT020 26/19 A3001=
200705181700 METAR MRPV 181700Z 08010KT 9999 SCT025 27/19 A3000=
200705181800 METAR MRPV 181800Z VRB03KT 9999 SCT010TCU BKN025 28/18 A2999=
200705181900 METAR MRPV 181900Z 29010KT 9999 4000NW SCT010TCU BKN030 27/21 A2996=
200705182000 METAR MRPV 182000Z 30010KT 9999 4000NW VCSH FEW010CB BKN030 25/20 A2996=
200705182100 METAR MRPV 182100Z 27012KT 4000 BR SCT002 BKN012 22/20 A2995=
200705182200 METAR MRPV 182200Z 26006KT 4000 -RA BR SCT002 BKN012 20/20 A2977=
200705182300 METAR MRPV 182300Z 31005KT 4000 -RABR SCT002 BKN012 20/20 A2999=
200705190000 METAR MRPV 190000Z NIL=
200705190100 METAR MRPV NIL=
200705190200 METAR MRPV NIL=
200705190300 METAR MRPV NIL=
200705190400 METAR MRPV NIL=
200705190500 METAR MRPV NIL=
200705190600 METAR MRPV NIL=
200705190700 METAR MRPV NIL=
200705190800 METAR MRPV NIL=
200705190900 METAR MRPV NIL=
200705191000 METAR MRPV NIL=
200705191100 METAR MRPV NIL=
200705191200 METAR MRPV 191200Z NIL=
200705191300 METAR MRPV 191300Z VRB03KT 8000 3000W VCFG SCT010 BKN250 20/18 A3004=
200705191400 METAR MRPV 191400Z VRB03KT 8000 3000NW BR SCT010 SCT090 BKN250 21/18 A3005=
200705191500 METAR MRPV 191500Z VRB03KT 7000 3000NW BR SCT004 SCT090 BKN250 21/18 A3006=
200705191600 METAR MRPV 191600Z VRB03KT 8000 3000NW BR SCT005 SCT090 BKN250 23/19 A3006=
200705191700 METAR MRPV 191700Z VRB03KT 8000 3000N BR SCT008 SCT090 BKN250 24/19 A3003=
200705191800 METAR MRPV 191800Z 27006KT 7000 3000NW BR SCT008 SCT090 BKN250 25/20 A3000=
200705191900 METAR MRPV 191900Z 28007KT 6000 2000NW BR SCT008 SCT022 BKN250 25/20 A2999=
200705192000 METAR MRPV 192000Z 27008KT 7000 3000N BR VCSH SCT008TCU BKN022 24/21 A2997=
200705192100 METAR MRPV 192100Z 26006KT 5000 1000E -RA BR SCT002 BKN018 23/21 A2995 RMK RASH E=
200705192200 METAR MRPV 192200Z VRB03KT 2000 TSRA SCT001 SCT006CB OVC010 21/20 A2996=
200705192300 METAR MRPV 192300Z 16004KT 3000 RA SCT002 OVC012 20/19 A2998 RMK TS DST S W=
200705200000 METAR MRPV NIL=
200705200100 METAR MRPV NIL=
200705200200 METAR MRPV NIL=
200705200300 METAR MRPV NIL=
200705200400 METAR MRPV NIL=
200705200500 METAR MRPV NIL=
200705200600 METAR MRPV NIL=
200705200700 METAR MRPV NIL=
200705200800 METAR MRPV NIL=
200705200900 METAR MRPV NIL=
200705201000 METAR MRPV NIL=
200705201100 METAR MRPV NIL=
200705201200 METAR MRPV NIL=
200705201300 METAR MRPV 201300Z 12006KT 9999 SCT004 BKN100 22/19 A3002=
200705201400 METAR MRPV 201400Z 09008KT 9999 SCT008 SCT120 BKN250 24/18 A3004 PCPN DST N CB DST S=
200705201500 METAR MRPV 201500Z 12007KT 9999 FEW010 SCT120 BKN250 26/18 A3002 PCPN DST N CB DST S=
200705201600 METAR MRPV 201600Z 08009KT 9999 SCT025 BKN250 27/18 A3001 RMK CB DST SW=
200705201700 METAR MRPV 201700Z 27005KT 9999 FEW010TCU SCT015 BKN250 26/18 A3001=
200705201800 METAR MRPV 201800Z 27010KT 9000 3000SW VCSH SCT010TCU BKN020 23/20 A3001=
200705201900 METAR MRPV 201900Z NIL=
200705202000 METAR MRPV 202000Z VRB03KT 8000 3000NW VCSH FEW003 SCT020 BKN120 22/20 A2999 RERA=
200705202100 METAR MRPV 202100Z VRB03KT 9999 3000 NW VCSH FEW002 SCT022 BKN120 22/20 A2997=
200705202200 METAR MRPV 202200Z VRB03KT 9999 3000NW -RA VCSH SCT006 SCT020 BKN120 22/20 A2997=
200705202300 METAR MRPV 202300Z 13006KT 9999 3000NW -RA VCSH SCT010 BKN120 21/19 A2996=
200705210000 METAR MRPV 210000Z NIL=
200705210100 METAR MRPV NIL=
200705210200 METAR MRPV NIL=
200705210300 METAR MRPV NIL=
200705210400 METAR MRPV NIL=
200705210500 METAR MRPV NIL=
200705210600 METAR MRPV NIL=
200705210700 METAR MRPV NIL=
200705210800 METAR MRPV NIL=
200705210900 METAR MRPV NIL=
200705211000 METAR MRPV NIL=
200705211100 METAR MRPV NIL=
200705211200 METAR MRPV 211200Z 00000KT 9999 VCFG FEW002 BKN100 19/19 A3002 RMK VIS 6000 W NW=
200705211300 METAR MRPV 211300Z 13003KT 9999 VCFG FEW005 BKN100 21/19 A3002 RMK VIS W 8000 MTS POLVO PISTA 09=
200705211400 METAR MRPV 211400Z 12002KT 9999 FEW030 BKN250 24/19 A3002 RMK DU PISTA 09 FEW120=
200705211500 METAR MRPV 211500Z 31002KT 9999 SCT025 OVC100 25/18 A3005=
200705211600 METAR MRPV 211600Z 28007KT 9999 SCT020 OVC100 24/19 A3005 RMK TCU ARND=
200705211700 METAR MRPV 211700Z 28010KT 9999 -RA FEW010 SCT020TCU OVC100 23/20 A3004 RMK CB RN N NW NE E=
200705211800 METAR MRPV 211800Z 29008KT 4000 -RA SCT003 BKN012 22/20 A3003 RMK VIS 6000 E, ST LOW W/E=
200705211900 METAR MRPV 211900Z 29008KT 3000 RA BR SCT002 BKN008 21/20 A3002=
200705212000 METAR MRPV 212000Z 30008KT 2500 RA BR SCT002 BKN008 20/19 A3001=
200705212100 METAR MRPV 212100Z 32002KT 3000 -RA BR SCT003 BKN007 20/19 A2999=
200705212200 METAR MRPV 212200Z 10003KT 5000 -RA BR SCT006 BKN012 20/19 A2999=
200705212300 METAR MRPV 212300Z 00000KT 6000 -RA VCFG FEW010 SCT020 OVC100 20/20 A3001=
200705220000 METAR MRPV 220000Z NIL=
200705220100 METAR MRPV NIL=
200705220200 METAR MRPV NIL=
200705220300 METAR MRPV NIL=
200705220400 METAR MRPV NIL=
200705220500 METAR MRPV NIL=
200705220600 METAR MRPV NIL=
200705220700 METAR MRPV NIL=
200705220800 METAR MRPV NIL=
200705220900 METAR MRPV NIL=
200705221000 METAR MRPV NIL=
200705221100 METAR MRPV NIL=
200705221200 METAR MRPV 221200Z 08004KT 9999 FEW035 BKN090 19/18 A3000 RMK THING FG N NE=
200705221300 METAR MRPV 221300Z 11004KT 9999 SCT035 BKN090 21/18 A3001 HZY DU PISTA 09=
200705221400 METAR MRPV 221400Z 07007KT 9999 FEW035 BKN100 24/18 A3001 DU PISTA 09=
200705221500 METAR MRPV 221500Z 09008KT 9999 FEW030 SCT100 BKN250 25/19 A3001 DU PISTA 09=
200705221600 METAR MRPV 221600Z 11007KT 9999 SCT025 BKN250 26/18 A3002 TCU NW N=
200705221700 METAR MRPV 221700Z 11007KT 9999 SCT030 BKN100 27/18 A3000=
200705221800 METAR MRPV 221800Z 10010KT 9999 FEW020TCU SCT030 BKN100 27/18 A2998 CB RASH NW/N=
200705221900 METAR MRPV 221900Z 13005KT 9999 FEW015CB SCT030 BKN100 26/18 A2997 CB RASH NW N=
200705222000 METAR MRPV 222000Z 35007KT 9999 3000NW -RA VCSH SCT015CB SCT025 BKN100 25/18 A2995=
200705222100 METAR MRPV 222100Z 00000KT 9999 4000SW -RA BR FEW012 SCT25 BKN100 22/19 A2994=
200705222200 METAR MRPV 222200Z 00000KT 7000 3000SW BR VCSH FEW012 SCT020 SCT100 22/20 A2994 RMK CB RASH NW N=
200705222300 METAR MRPV 222300Z 280060KT 3000 BR SCT003 BKN010 21/20 A2996=
200705230000 METAR MRPV 230000Z NIL=
200705230100 METAR MRPV NIL=
200705230200 METAR MRPV NIL=
200705230300 METAR MRPV NIL=
200705230400 METAR MRPV NIL=
200705230500 METAR MRPV NIL=
200705230600 METAR MRPV NIL=
200705230700 METAR MRPV NIL=
200705230800 METAR MRPV NIL=
200705230900 METAR MRPV NIL=
200705231000 METAR MRPV NIL=
200705231100 METAR MRPV NIL=
200705231200 METAR MRPV 231200Z 07002KT CAVOK 19/18 A2998 RMK BKN100 DU PISTA 09=
200705231300 METAR MRPV 231300Z 00000KT 9999 VCFG FEW035 BKN100 21/19 A2998 RMK VIS W 6000 DUE THIM FG DU 09=
200705231400 METAR MRPV 231400Z 28006KT 9999 4000W BR FEW001 BKN100 21/19 A3000 RMK DU 09=
200705231500 METAR MRPV 231500Z 29005KT 9999 4000SW BR FEW005 SCT020 BKN100 22/19 A3001 RMK DU W=
200705231600 METAR MRPV 231600Z 28006KT 9999 VCFG FEW012 BKN120 23/19 A3001 RMK=
200705231700 METAR MRPV 231700Z 30006KT 9999 BKN025 25/20 A2998=
200705231800 METAR MRPV 231800Z 32007KT 9999 FEW010TCU SCT020 BKN100 25/20 A2995 RMK TCU DST ARND=
200705231900 METAR MRPV 231900Z 08010KT 9999 4000SW VCSH SCT010TCU BKN025 24/20 A2993 RERA=
200705232000 METAR MRPV 232000Z 08011KT 9999 SCT020CB BKN030 24/20 A2992 RMK RASH CB W=
200705232100 METAR MRPV 232100Z 28010KT 2000 BR VCSH SCT001 OVC004 22/20 A2990=
200705232200 METAR MRPV 232200Z 33004KT 3000 BR SCT002 OVC100 22/20 A2989=
200705232300 METAR MRPV 232300Z 28005KT 2000 -RA BR SCT002 OVC006 21/20 A2992=
200705232334 METAR MRPV 232334Z 30006KT 1000 +SHRA SCT001 OVC003 21/20 A2993=
200705240000 METAR MRPV 240000Z NIL=
200705240100 METAR MRPV NIL=
200705240200 METAR MRPV NIL=
200705240300 METAR MRPV NIL=
200705240400 METAR MRPV NIL=
200705240500 METAR MRPV NIL=
200705240600 METAR MRPV NIL=
200705240700 METAR MRPV NIL=
200705240800 METAR MRPV NIL=
200705240900 METAR MRPV NIL=
200705241100 METAR MRPV NIL=
200705241200 METAR MRPV 241200Z 00000KT 3500 BR FEW002 BKN007 20/19 A2999 VSBY S UNL=
200705241300 METAR MRPV 241300Z 09004KT 9999 VCFG FEW005 SCT100 22/19 A3000 RMK VIS 6000 S E SCT280 TCU DST W POLVO PISTA 09=
200705241400 METAR MRPV 241400Z 09003KT 9999 FEW020 BKN250 23/19 A3001 POLVO PISTA 09 TCU DST SW FEW100 HZY=
200705241500 METAR MRPV 241500Z 26006KT 9999 3000W BR SCT008 SCT100 BKN250 24/21 A3002 RMK TCU DST S SW POLVO PISTA 09=
200705241600 METAR MRPV 241600Z 26006KT 6000 2000E VCFG SCT002 BKN020 24/20 A3002 RMK TCU DST S SW W=
200705241700 METAR MRPV 241700Z 28010KT 6000 2000E VCFG SCT002 SCT010CB BKN022 23/20 A3001 RMK TS DST SE=
200705241800 METAR MRPV 241800Z 31004KT 6000 2800N -RA VCFG SCT002 BKN022 2321 A2998 TCU DST S=
200705241900 METAR MRPV 241900Z 28008KT 6000 VCSH SCT002 FEW010TCU BKN018 24/20 A2996=
200705242000 METAR MRPV 242000Z 28009KT 3000 +RA BR SCT001 BKN012 20/20 A2995=
200705242100 METAR MRPV 242100Z 30008KT 3000 -RA BR SCT001 BKN010 20/20 A2994=
200705242200 METAR MRPV 242200Z 29007KT 3000 BR SCT001 BKN010 20/20 A2995=
200705242300 METAR MRPV 242300Z 31006KT 3000 -RA BR SCT001 OVC010 20/19 A2997=
200705250000 METAR MRPV 250000Z NIL=
200705250100 METAR MRPV NIL=
200705250200 METAR MRPV NIL=
200705250300 METAR MRPV NIL=
200705250400 METAR MRPV NIL=
200705250500 METAR MRPV NIL=
200705250600 METAR MRPV NIL=
200705250700 METAR MRPV NIL=
200705250800 METAR MRPV NIL=
200705250900 METAR MRPV NIL=
200705251000 METAR MRPV NIL=
200705251100 METAR MRPV NIL=
200705251200 METAR MRPV 251200Z 28002KT 0800 -RAFG VV002 19/19 A3003=
200705251300 METAR MRPV 251300Z 27003KT 1500 BR SCT001 BKN004 19/19 A3004=
200705251400 METAR MRPV 251400Z 27003KT 1000 -RA BR SCT001 BKN005 20/19 A3006=
200705251500 METAR MRPV 251500Z 27002KT 4000 -DZ BR SCT001 BKN012 21/19 A3006 RERA RMK TEND MEJORANDO=
200705251600 METAR MRPV 251600Z 26004KT 5000 BR SCT004 BKN016 22/20 A3005 REDZ RMK DUST AP09=
200705251700 METAR MRPV 251700Z 27005KT 6000 VCFG SCT004 BKN020 23/20 A3004 RMK PCPN S TCU SW NW=
200705251800 METAR MRPV 251800Z 27009KT 7000 VCFG SCT004 BKN025 24/20 A3001 RMK TCU SW NW RN S=
200705251900 METAR MRPV 251900Z 27007KT 5000 2000E -RA BR SCT001 BKN015 22/20 A3000 RMK TCU SW NW=
200705252000 METAR MRPV 252000Z 26009KT 5000 2300E -RA BR SCT002 SCT010TCU BKN020 23/20 A2998 RMK CONDICIONES VRBLS=
200705252100 METAR MRPV 252100Z 26006KT 5000 2300 E -RA BR SCT002 SCT010TCU BKN018 22/20 A2997=
200705252200 METAR MRPV 252200Z 27007KT 2500 +RA BR SCT001 BKN018 21/20 A2997=
200705252300 METAR MRPV 252300Z 27007KT 3000 -RA BR SCT001 BKN010 21/20 A2997 RMK CONDICIONES VRB=
200705260000 METAR MRPV 260000Z NIL=
200705260100 METAR MRPV NIL=
200705260200 METAR MRPV NIL=
200705260300 METAR MRPV NIL=
200705260400 METAR MRPV NIL=
200705260500 METAR MRPV NIL=
200705260600 METAR MRPV NIL=
200705260700 METAR MRPV NIL=
200705260800 METAR MRPV NIL=
200705260900 METAR MRPV NIL=
200705261000 METAR MRPV NIL=
200705261100 METAR MRPV NIL=
200705261200 METAR MRPV 261200Z NIL=
200705261300 METAR MRPV 261300Z VRB03KT 9999 2000W BR SCT001 SCT250 20/18 A3003=
200705261400 METAR MRPV 261400Z 28005KT 7000 3000 W VCFG SCT001 SCT010 21/19 A3005 RMK DU PISTA09=
200705261500 METAR MRPV 261500Z 27006KT 7000 3000W VCFG SCT002 BKN250 23/19 A3005 RMK DU PISTA09=
200705261600 METAR MRPV 261600Z 29006KT 7000 3000NW VCFG SCT006 SCT250 24/19 A3004 RMK DU PISTA09=
200705261700 METAR MRPV 261700Z 28009KT 8000 VCFG SCT010 SCT250 25/20 A3003=
200705261800 METAR MRPV 261800Z 29012KT 8000 VCFG SCT010TCU SCT250 26/20 A3002=
200705261900 METAR MRPV 261900Z 28011KT 8000 VCFG SCT010TCU SCT250 26/20 A3000=
200705262000 METAR MRPV 262000Z 28011KT 8000 VCFG SCT010TCU SCT250 25/20 A2999 RMK CB E SE=
200705262100 METAR MRPV 262100Z 27010KT 8000 VCFG SCT010TCU SCT250 25/21 A2996 CB SE=
200705262200 METAR MRPV 262200Z 28011KT 7000 VCFG SCT008 BKN022 24/21 A2996 CB SE=
200705262300 METAR MRPV 262300Z 28009KT 7000 VCFG SCT002 BKN020 23/20 A2997 CB SE=
200705270000 METAR MRPV NIL=
200705270100 METAR MRPV NIL=
200705270200 METAR MRPV NIL=
200705270300 METAR MRPV NIL=
200705270400 METAR MRPV NIL=
200705270500 METAR MRPV NIL=
200705270600 METAR MRPV NIL=
200705270700 METAR MRPV NIL=
200705270800 METAR MRPV NIL=
200705270900 METAR MRPV NIL=
200705271000 METAR MRPV NIL=
200705271100 METAR MRPV NIL=
200705271200 METAR MRPV NIL=
200705271300 METAR MRPV 271300Z 00000KT 1500 BR OVC001 19/19 A3005=
200705271400 METAR MRPV 271400Z 00000KT 3000 BR OVC002 20/19 A3007=
200705271500 METAR MRPV 271500Z 00000KT 5000 BR SCT003 OVC015 22/19 A3007=
200705271600 METAR MRPV 271600Z 28008KT 7000 VCFG FEW007 SCT020 BKN040 23/20 A3006=
200705271700 METAR MRPV 271700Z 29006KT 9999 SCT012 BKN030 23/19 A3004=
200705271800 METAR MRPV 271800Z 29007KT 9999 SCT020 BKN035 25/20 A3002=
200705271900 METAR MRPV 271900Z 29010KT 9999 SCT020 BKN035 25/20 A3000=
200705272000 METAR MRPV 272000Z 29010KT 9999 SCT025 BKN030 25/21 A2998=
200705272100 METAR MRPV 272100Z 30010KT 9999 4000N BR FEW005 SCT015 BKN030 24/20 A2992=
200705272200 METAR MRPV 272200Z 2909KT 8000 3000SW BR SCT005 BKN010 23/20 A2998=
200705272300 METAR MRPV 272300Z 28006KT 5000 BR SCT003 BKN010 22/20 A2998 VIS 3KMS DUE FG=
200705272355 METAR MRPV NIL=
200705280000 METAR MRPV NIL=
200705280056 METAR MRPV NIL=
200705280100 METAR MRPV NIL=
200705280200 METAR MRPV NIL=
200705280300 METAR MRPV NIL=
200705280400 METAR MRPV NIL=
200705280500 METAR MRPV NIL=
200705280600 METAR MRPV NIL=
200705280700 METAR MRPV NIL=
200705280800 METAR MRPV NIL=
200705280900 METAR MRPV NIL=
200705281000 METAR MRPV NIL=
200705281100 METAR MRPV NIL=
200705281200 METAR MRPV 281200Z 00000KT 9999 3000W BR FEW002 BKN250 19/17 A3003 RMK TRACE SC DU PISTA09=
200705281300 METAR MRPV 281300Z 30004KT 3000 BR FEW001 SCT008 20/19 A3000 RMK DU APCH09 RWY SCT250=
200705281400 METAR MRPV 281400Z 28003KT 5000 BR FEW002 SCT250 22/19 A3007 RMK FEW015 DU APCH 09RWY=
200705281500 METAR MRPV 281500Z 31004KT 7000 3000NW BR SCT006 SCT250 24/19 A3007=
200705281600 METAR MRPV 281600Z 29004KT 4000 BR FEW003 SCT010 23/20 A3007=
200705281700 METAR MRPV 281700Z 28009KT 5000 BR SCT008 BKN020 24/20 A3007 RMK 4000 SW=
200705281800 METAR MRPV 281800Z 29009KT 7000 VCFG SCT010 BKN025 25/20 A3004 VIS 4000 NW BR=
200705281900 METAR MRPV 281900Z 270009KT 5000 BR SCT002 BKN015 25/20 A3002 RMK VIS E W 6000 CNDS VRL=
200705282000 METAR MRPV NIL=
200705282100 METAR MRPV 282100Z 29008KT 4000 BR SCT003 BKN010 23/20 A2999 RMK VIS 5000 E CONDICIONES VARIABLES=
200705282200 METAR MRPV 282200Z 28008KT 4000 BR SCT003 BKN010 22/20 A2998 RMK VIS 6000 E W=
200705282300 METAR MRPV 282300Z 29006KT 3000 BR SCT002 BKN006 22/20 A3000=
200705290000 METAR MRPV 290000Z NIL=
200705290100 METAR MRPV NIL=
200705290200 METAR MRPV NIL=
200705290300 METAR MRPV NIL=
200705290400 METAR MRPV NIL=
200705290500 METAR MRPV NIL=
200705290600 METAR MRPV NIL=
200705290700 METAR MRPV NIL=
200705290800 METAR MRPV NIL=
200705290900 METAR MRPV NIL=
200705291000 METAR MRPV NIL=
200705291100 METAR MRPV NIL=
200705291200 METAR MRPV 291200Z 27002KT 0200 FG VV/// 20/19 A3003=
200705291300 METAR MRPV 291300Z 29002KT 0200 FG VV/// 20/20 A3005=
200705291400 METAR MRPV 291400Z 29003KT 3000 BR SCT001 BKN008 21/20 A3005 RMK VIS 7000SE=
200705291445 SPECI MRPV 291445Z 30005KT 4000 BR SCT003 BKN250 22/20 A3007 RMK VIS 5000 E W=
200705291500 METAR MRPV 291500Z 30006KT 4000 BR SCT003 BKN250 23/20 A3006 RMK POLVO W 5000 E W=
200705291600 METAR MRPV 291600Z 28007KT 5000 BR FEW003 SCT120 BKN250 24/20 A3006=
200705291700 METAR MRPV NIL=
200705291800 METAR MRPV NIL=
200705291900 METAR MRPV NIL=
200705292000 METAR MRPV 292000Z 30007KT 4000 BR SCT001 BKN010 23/20 A2999 RMK VIS 6000 W E=
200705292100 METAR MRPV 292100Z 29006KT 4000 BR SCT001 BKN008 23/20 A2998 RMK VIS E W 6KMS=
200705292200 METAR MRPV 292200Z 26005KT 4000 RA BR SCT002 BKN008 22/20 A2996=
200705292300 METAR MRPV 292300Z 28006KT 4000 -RA BR SCT001 BKN008 22/21 A2998=
200705300000 METAR MRPV NIL=
200705300100 METAR MRPV NIL=
200705300200 METAR MRPV NIL=
200705300300 METAR MRPV NIL=
200705300400 METAR MRPV NIL=
200705300500 METAR MRPV NIL=
200705300600 METAR MRPV NIL=
200705300700 METAR MRPV NIL=
200705300800 METAR MRPV NIL=
200705300900 METAR MRPV NIL=
200705301000 METAR MRPV NIL=
200705301100 METAR MRPV NIL=
200705301200 MRPV NIL=
200705301300 METAR MRPV 301300Z 30002KT 7000 3000SW VCFG FEW002 BKN020 21/19 A3003 RMK DUST ON APCH09=
200705301400 METAR MRPV 301400Z 00000KT 9999 VCFG FEW006 SCT020 23/19 A3004 RMK VIS SW 6KMS DUST ON APCH09=
200705301500 METAR MRPV 301500Z VRB03KT 9999 SCT012 SCT100 BKN250 25/18 A3005 RMK DUST IN APCH09=
200705301600 METAR MRPV 301600Z 29006KT 9999 SCT015 BKN250 24/18 A3004=
200705301700 METAR MRPV 301700Z 27007KT 9999 SCT015 BKN250 26/20 A3002 RMK HZ ARND TCU DST S=
200705301800 METAR MRPV 301800Z 27010KT 9999 SCT012TCU BKN250 25/19 A3001 RMK LGT HZ ARND PCPN DST SSE=
200705301900 METAR MRPV 301900Z 28012KT 9999 SCT010TCU SCT025 BKN250 25/21 A2999 RMK TS DST SW LGT HZ ARND=
200705302000 METAR MRPV 30200Z0 28010KT 5000 -RA VCSH SCT002 BKN018 22/20 A2998 RMK HZ ARND=
200705302100 METAR MRPV 302100Z 29012KT 5000 2000NW BR SCT002 BKN015 22/20 A2997=
200705302200 METAR MRPV 302200Z 27010KT 1000 RA BR SCT001 OVC100 20/19 A2996=
200705302300 METAR MRPV 302300Z 28007KT 1000 RA BR SCT001 OVC004 19/19 A2998=
200705310000 METAR MRPV 310000Z NIL=
200705310100 METAR MRPV NIL=
200705310200 METAR MRPV NIL=
200705310300 METAR MRPV NIL=
200705310400 METAR MRPV NIL=
200705310500 METAR MRPV NIL=
200705310600 METAR MRPV NIL=
200705310700 METAR MRPV NIL=
200705310800 METAR MRPV NIL=
200705310900 METAR MRPV NIL=
200705311000 METAR MRPV NIL=
200705311100 METAR MRPV NIL=
200705311200 METAR MRPV 311200Z 05002KT 4000 BR SCT003 BKN012 20/19 A2998 RMK 9999 E=
200705311300 METAR MRPV 311300Z 34002KT 4000 BR FEW002 SCT015 20/19 A3001 RMK REDZ DU PISTA09=
200705311400 METAR MRPV 311400Z 00000KT 9999 VCFG FEW008 SCT015 BKN250 23/19 A3003 RMK VIS SW NW 7000 DU PISTA09=
200705311500 METAR MRPV 311500Z 27007KT 8000 VCFG SCT008 FEW010TCU BKN250 23/19 A3005 RMK DU PISTA09=
200705311600 METAR MRPV 311600Z 27010KT 5000 2400W BR SCT001 BKN015 21/20 A3006=
200705311700 METAR MRPV 3006=
200705311800 METAR MRPV 311800Z 28008KT 5000 BR SCT002 BKN018 22/20 A3003=
200705311900 METAR MRPV 311900Z 29010KT 5000 -RA BR SCT002 BKN016 22/20 A3001=
200705312000 METAR MRPV 312000Z 29011KT 8000 VCFG SCT004 SCT020 BKN250 24/20 A2999=
200705312100 METAR MRPV 312100Z 28010KT 7500 VCFG SCT002 SCT020 BKN250 23/20 A2998=
200705312200 METAR MRPV 312200Z 27008KT 6000 -RA VCFG SCT002 BKN020 21/20 A2998=
200705312300 METAR MRPV 312300Z 28007KT 2000 RA BR SCT001 BKN08 20/19 A3000=
200706010000 METAR MRPV NIL=
200706010100 METAR MRPV NIL=
200706010200 METAR MRPV NIL=
200706010300 METAR MRPV NIL=
200706010400 METAR MRPV NIL=
200706010500 METAR MRPV NIL=
200706010600 METAR MRPV NIL=
200706010700 METAR MRPV NIL=
200706010800 METAR MRPV NIL=
200706010900 METAR MRPV NIL=
200706011000 METAR MRPV NIL=
200706011100 METAR MRPV NIL=
200706011200 METAR MRPV 011200Z 09002KT CAVOK 19/18 A3000 RMK SCT120 BKN250 TRACE OF SC=
200706011300 METAR MRPV 011300Z 00000KT CAVOK 22/19 A3003 BKN120 SCT250 TRACE SCT DU PISTA 09=
200706011400 METAR MRPV 011400Z 31002KT 9999 FEW015 BKN120 23/18 A3004 TRACE CI=
200706011500 METAR MRPV 011500Z 28007KT 9999 4000NW BR FEW015 SCT120 BKN250 25/19 A3005=
200706011600 METAR MRPV 011600Z 28007KT 9999 4000N BR FEW012 SCT120 BKN250 24/20 A3005 DU PISTA 09=
200706011700 METAR MRPV 011700Z 27007KT 9999 SCT015 SCT120 BKN250 25/20 A3005=
200706011800 METAR MRPV 011800Z 27010KT 9999 SCT015 SCT120 BKN250 24/20 A3004 RN SE=
200706011900 METAR MRPV 011900Z 28010KT 9999 SCT010 BKN025 24/20 A3002=
200706012000 METAR MRPV 012000Z 28011KT 8000 VCFG SCT008 BKN020 23/20 A3001=
200706012100 METAR MRPV 012100Z 28011KT 7000 VCFG SCT003 BKN020 23/20 A2999=
200706012200 METAR MRPV 012200Z 29010KT 6000 VCFG SCT002 BKN018 23/20 A2999 RMK RN SE ST MOVIENDOSE AL E=
200706012300 METAR MRPV 012300Z 28007KT 5000 BR SCT001 BKN015 21/20 A3000 RMK RN SE ST MOVIENDOSE SE E=
200706012357 METAR MRPV 020000Z NIL=
200706020000 METAR MRPV NIL=
200706020100 METAR MRPV NIL=
200706020200 METAR MRPV NIL=
200706020300 METAR MRPV NIL=
200706020400 METAR MRPV NIL=
200706020500 METAR MRPV NIL=
200706020600 METAR MRPV NIL=
200706020700 METAR MRPV NIL=
200706020800 METAR MRPV NIL=
200706020900 METAR MRPV NIL=
200706021000 METAR MRPV NIL=
200706021100 METAR MRPV NIL=
200706021200 METAR MRPV NIL=
200706021300 METAR MRPV 021300Z VRB03KT 6000 2500SW VCFG SCT001 SCT110 23/20 A3004 RMK DU OVR RWY 09=
200706021400 METAR MRPV 021400Z 13006KT 9999 2000NW BR FEW015 SCT110 26/18 A3004 DU 09RWY=
200706021500 METAR MRPV 021500Z 09007KT 9999 3000NW BR FEW020 SCT110 26/18 A3004=
200706021600 METAR MRPV 021600Z 28010KT 9000 2000NW VCFG SCT015 24/20 A3004 RMK HZ ARND=
200706021700 METAR MRPV 021700Z 28009KT 8000 3000NW VCFG SCT015 25/21 A3004 RMK HZ ARND TCU E NW=
200706021800 METAR MRPV 021800Z 29012KT 7000 3000NW VCFG SCT010TCU BKN020 25/21 A3003 RMK HZ ARND=
200706021900 METAR MRPV 021900Z 26008KT 6000 VCFG FEW010CB SCT015TCU BKN020 24/20 A3003 RMK HZ AROUND RN DST NW=
200706022000 METAR MRPV 022000Z 28009KT 5000 BR FEW010CB BKN020 24/21 A3000 RN SE E HZ ARND=
200706022100 METAR MRPV 022100Z 28010KT 4000 BR SCT002 BKN012 23/20 A3000 RMK RN DST NW SE=
200706022200 METAR MRPV 022200Z 27007KT 3000 BR SCT001 BKN008 22/20 A2999 RMK TS DST N=
200706022300 METAR MRPV 022300Z 27005KT 3000 -RA BR SCT001 BKN008 22/20 A3001=
200706030000 METAR MRPV NIL=
200706030100 METAR MRPV NIL=
200706030200 METAR MRPV NIL=
200706030300 METAR MRPV NIL=
200706030400 METAR MRPV NIL=
200706030500 METAR MRPV NIL=
200706030600 METAR MRPV NIL=
200706030700 METAR MRPV NIL=
200706030800 METAR MRPV NIL=
200706030900 METAR MRPV NIL=
200706031000 METAR MRPV NIL=
200706031100 METAR MRPV NIL=
200706031200 METAR MRPV NIL=
200706031300 METAR MRPV 031300Z 13006KT CAVOK 22/18 A3003 SCT250 TRACE SCT=
200706031400 METAR MRPV 031400Z 09010KT CAVOK 24/18 A3004 RMK BKN250 TRACE SC=
200706031500 METAR MRPV 031500Z 12006KT 9999 FEW040 BKN250 26/16 A3004=
200706031600 METAR MRPV 031600Z 13004KT 9999 SCT030 BKN250 27/17 A3003 RMK LEVE HZ W=
200706031700 METAR MRPV 031700Z 29009KT 9999 FEW020 SCT035 BKN250 26/21 A3003=
200706031800 METAR MRPV 031800Z 29008KT 9999 SCT020 BKN035 26/21 A3003=
200706031900 METAR MRPV 031900Z 28007KT 9999 SCT020TCU BKN030 25/20 A3007=
200706032000 METAR MRPV 032000Z 29010KT 9999 VCSH SCT020TCU BKN030 25/20 A3000 RMK VIS 6000 VCSH NW N NE=
200706032100 METAR MRPV 032100Z 30009KT 9999 SCT020CB BKN040 24/20 A2998 RMK RASH DST N NE E=
200706032200 METAR MRPV 032200Z 32006KT 9999 FEW020 SCT035 BKN100 23/19 A2999 RMK RASH DST N NE=
200706032300 METAR MRPV 032300Z 31006KT 9999 SCT015 BKN025 23/20 A3006=
200706032330 METAR MRPV 032330Z 31004KT 9999 FEW012 SCT020 BKN100 22/20 A3000=
200706040000 METAR MRPV NIL=
200706040100 METAR MRPV NIL=
200706040200 METAR MRPV NIL=
200706040300 METAR MRPV NIL=
200706040400 METAR MRPV NIL=
200706040500 METAR MRPV NIL=
200706040600 METAR MRPV NIL=
200706040700 METAR MRPV NIL=
200706040800 METAR MRPV NIL=
200706040900 METAR MRPV NIL=
200706041000 METAR MRPV NIL=
200706041100 METAR MRPV NIL=
200706041200 METAR MRPV 041200Z 14002KT 9999 VCFG FEW002 BKN270 19/18 A3003 RMK VIS W 5000 FEW030=
200706041300 METAR MRPV 041300Z VRB03KT 320V030 9999 FEW030 BKN270 22/19 A3004 RMK HZ W=
200706041400 METAR MRPV 041400Z 10005KT CAVOK 25/18 A3003 RMK TRACE CU SC DUST IN APCH09 BKN270=
200706041500 METAR MRPV 041500Z 12005KT 9999 FEW030 27/18 A3003 RMK LGT HZ W=
200706041600 METAR MRPV 041600Z 08008KT 9999 SCT025 28/17 A3004 RMK HZ W=
200706041700 METAR MRPV 041700Z 27010KT 9999 FEW020 SCT035 26/21 A3003 RMK HZ W=
200706041800 METAR MRPV 041800Z 28011KT 9999 VCSH FEW020 SCT035 26/21 A3002 RMK VIS 6KMS TO NW N NE VIS=
200706041900 METAR MRPV 041900Z 30007KT 9999 -RA VCSH FEW010TCU SCT020 BKN040 26/20 A3000 RMK VIS N 5KMS=
200706042000 METAR MRPV 42000Z 35005KT 350V040 9999 3000NW VCSH SCT010CB SCT020 BKN100 25/20 A2998=
200706042100 METAR MRPV 042100Z 26003KT 9999 TS VCSH FEW010CB SCT020 BKN100 22/19 A2998=
200706042200 METAR MRPV 042200Z 31003KT 9999 FEW006 SCT020 BKN100 22/19 A2998=
200706042300 METAR MRPV 042300Z 23002KT 9999 VCSH SCT005 SCT015 BKN100 22/19 A2999 RMK VIS NW 5000 DUE RASH=
200706050000 METAR MRPV 050000Z 28004KT 4000 BR BKN002 OVC100 21/20 A3000=
200706050100 METAR MRPV NIL=
200706050200 METAR MRPV NIL=
200706050300 METAR MRPV NIL=
200706050400 METAR MRPV NIL=
200706050500 METAR MRPV NIL=
200706050600 METAR MRPV NIL=
200706050700 METAR MRPV NIL=
200706050800 METAR MRPV NIL=
200706050900 METAR MRPV NIL=
200706051000 METAR MRPV NIL=
200706051100 METAR MRPV NIL=
200706051200 METAR MRPV 051200Z 14002KT 9999 4000NE BR FEW003 SCT300 19/17 A3003 RMK TRACE AC AS=
200706051300 METAR MRPV 051300Z 05004KT CAVOK 20/18 A3005 SCT300 TRACE CU AC=
200706051400 METAR MRPV 051400Z 13004KT 020V130 CAVOK 24/17 A3004 RMK FEW120 FEW300=
200706051500 METAR MRPV 051500Z 09009KT 9999 FEW025 26/16 A3005 RMK DU APCH 09=
200706051600 METAR MRPV 051600Z 27011KT 9999 FEW025 25/19 A3008 RMK CB S SW=
200706051700 METAR MRPV 051700Z 27006KT 9999 SCT025 26/19 A3004 RMK RN N=
200706051800 METAR MRPV 051800Z 27007KT 9999 FEW015TCU SCT025 27/20 A3003 RMK RN N=
200706051900 METAR MRPV 051900Z 28008KT 9999 SCT015TCU SCT025 25/20 A3000 RMK RN N NE=
200706052000 METAR MRPV 052000Z 27008KT 9999 SCT012TCU SCT025 BKN250 25/20 A2998 RMK RN NE NW=
200706052100 METAR MRPV 052100Z 27007KT 8000 3000NW TS VCSH FEW010CB BKN022 23/20 A2998=
200706052200 METAR MRPV 052200Z 30007KT 5000 2400W BR SCT002 BKN015 21/20 A2991=
200706052300 METAR MRPV 052300Z 30006KT 5000 2000E -RA BR SCT002 BKN015 21/20 A3000=
200706060000 METAR MRPV 060000Z NIL=
200706060100 METAR MRPV NIL=
200706060200 METAR MRPV NIL=
200706060300 METAR MRPV NIL=
200706060400 METAR MRPV NIL=
200706060500 METAR MRPV NIL=
200706060800 METAR MRPV NIL=
200706060900 METAR MRPV NIL=
200706061000 METAR MRPV NIL=
200706061100 METAR MRPV NIL=
200706061200 METAR MRPV 061200Z 31003KT 0100 FG VV/// 19/18 A3002=
200706061300 METAR MRPV 061300Z 00000KT 2000 BR SCT001 BKN270 19/19 A3003=
200706061400 METAR MRPV 061400Z 00000KT 9999 VCFG FEW001 BKN250 23/19 A3004 VSBY W 6KM=
200706061500 METAR MRPV 061500Z 10008KT 9999 4000NW BR FEW012 BKN250 26/18 A3002 DU PISTA 09=
200706061600 METAR MRPV 061600Z 07006KT 9999 4000NW BR FEW012 BKN250 22/18 A3002=
200706061700 METAR MRPV 061700Z 06009KT 9999 3000NW VCSH SCT015 BKN250 27/18 A3002=
200706061800 METAR MRPV 061800Z 27007KT 9999 4000NW VCSH SCT010 BKN025 24/20 A3002=
200706061900 METAR MRPV 061900Z 27007KT 9000 VCFG SCT015TCU BKN025 24/20 A2999 RN N=
200706062000 METAR MRPV 062000Z 28010KT 8000 3000NW VCSH SCT008TCU BKN020 25/21 A2997=
200706062100 METAR MRPV 062100Z 31007KT 7000 VCFG SCT004 BKN025 23/20 A2995=
200706062200 METAR MRPV 062200Z 29008KT 6000 VCFG SCT002 BKN022 23/20 A2995 RMK ST W E=
200706062300 METAR MRPV 062300Z 28007KT 5000 2000N BR SCT002 BKN020 22/20 A2997 RMK ST W E TS DST S=
200706070000 METAR MRPV 070000Z NIL=
200706070100 METAR MRPV NIL=
200706070300 METAR MRPV NIL=
200706070400 METAR MRPV NIL=
200706070500 METAR MRPV NIL=
200706070600 METAR MRPV NIL=
200706070700 METAR MRPV NIL=
200706070800 METAR MRPV NIL=
200706070900 METAR MRPV NIL=
200706071000 METAR MRPV NIL=
200706071100 METAR MRPV NIL=
200706071200 METAR MRPV 071200Z 00000KT 9999 2000W BR FEW001 SCT100 19/18 A2997=
200706071300 METAR MRPV 071300Z 06003KT CAVOK 22/18 A2998 RMK BKN100 TRACE ST=
200706071400 METAR MRPV 071400Z 10004KT 9999 FEW020 SCT100 BKN250 24/18 A3000=
200706071500 METAR MRPV 071500Z 28006KT 9999 4000W BR FEW020 SCT100 BKN250 25/20 A3000 RMK TCU DST SW=
200706071600 METAR MRPV 071600Z 28008KT 9999 VCFG SCT020 BKN250 24/20 A2999 RMK DU 09 TCU S SW=
200706071700 METAR MRPV 071700Z 29007KT 9999 SCT015 BKN250 25/21 A3000 RMK TCU S SW=
200706071800 METAR MRPV 071800Z 31007KT 9999 3000NE VCSH SCT012TCU BKN250 25/20 A2998=
200706071900 METAR MRPV 071900Z 27007KT 9999 3000NE VCSH SCT012TCU BKN025 25/20 A2997=
200706072000 METAR MRPV 072000Z 28010KT 9999 3000N VCSH SCT010TCU SCT025 BKN250 25/20 A2994=
200706072100 METAR MRPV 072100Z 29009KT 8000 3000N VCTS FEW008CB SCT020 BKN025 24/19 A2994 RMK ST W E=
200706072200 METAR MRPV NIL=
200706072300 METAR MRPV NIL=
200706080000 METAR MRPV NIL=
200706080100 METAR MRPV NIL=
200706080200 METAR MRPV NIL=
200706080300 METAR MRPV NIL=
200706080400 METAR MRPV NIL=
200706080500 METAR MRPV NIL=
200706080600 METAR MRPV NIL=
200706080700 METAR MRPV NIL=
200706080800 METAR MRPV NIL=
200706080900 METAR MRPV NIL=
200706081000 METAR MRPV NIL=
200706081200 METAR MRPV 081200Z 12010KT CAVOK 21/17 A2997 BKN090 TRACE SCT=
200706081300 METAR MRPV 081300Z 14008KT CAVOK 21/17 A2999 RMK TRACE CU SC FEW080 BKN100=
200706081600 METAR MRPV NIL=
200706081700 METAR MRPV 081700Z 10010KT 9999 SCT025 OVC120 25/18 A3000=
200706081800 METAR MRPV 081800Z 09012KT 9999 SCT025 OVC120 26/19 A2999=
200706081900 METAR MRPV 081900Z 08013KT 9999 SCT025 OVC100 25/19 A2997=
200706082000 METAR MRPV 082000Z 10010KT 9999 SCT025 OVC100 26/18 A2995=
200706082100 METAR MRPV 082100Z 09011KT 9999 SCT020TCU OVC100 24/18 A2995=
200706082200 METAR MRPV 082200Z 09009KT 9999 SCT020 OVC100 24/18 A2995=
200706082300 METAR MRPV 082300Z 10008KT 9999 3000NW VCSH FEW006CB SCT012 OVC100 22/18 A2996=
200706090000 METAR MRPV NIL=
200706090100 METAR MRPV NIL=
200706090200 METAR MRPV NIL=
200706090300 METAR MRPV NIL=
200706090400 METAR MRPV NIL=
200706090500 METAR MRPV NIL=
200706090600 METAR MRPV NIL=
200706090700 METAR MRPV NIL=
200706090800 METAR MRPV NIL=
200706090900 METAR MRPV NIL=
200706091000 METAR MRPV NIL=
200706091100 METAR MRPV NIL=
200706091300 METAR MRPV NIL=
200706091400 METAR MRPV NIL=
200706091500 METAR MRPV NIL=
200706091600 METAR MRPV 091600Z 08010KT 9999 SCT040 SCT250 27/17 A2999 RMK CB DST SE S SW=
200706091700 METAR MRPV 091700Z 08005KT 9999 SCT040 28/17 A2997=
200706091800 METAR MRPV 091800Z 32006KT 9999 BKN030 27/20 A2995=
200706091900 METAR MRPV 091900Z 28012KT 9999 VCSH SCT012CB BKN030 25/19 A2992 RMK RASH N NE VIS 6KMS=
200706092000 METAR MRPV 092000Z 34008KT 9999 3000N TS VCSH SCT003 BKN010CB 22/16 A2999=
200706092100 METAR MRPV 092100Z 20003KT 5000 -TS RA SCT006 BKN015CB 19/18 A2993 RMK VIS S 3000 DUE ST=
200706092200 METAR MRPV 092200Z 00000KT 6000 VCSH SCT012 BKN025 19/18 A2994=
200706092300 METAR MRPV 092300Z 00000KT 6000 VCFG SCT004 BKN100 19/18 A2995 RMK VIS S 3000MTS=
200706100000 METAR MRPV 100000Z NIL=
200706100100 METAR MRPV NIL=
200706100200 METAR MRPV NIL=
200706100300 METAR MRPV NIL=
200706100400 METAR MRPV NIL=
200706100500 METAR MRPV NIL=
200706100600 METAR MRPV NIL=
200706100700 METAR MRPV NIL=
200706100800 METAR MRPV NIL=
200706100900 METAR MRPV NIL=
200706101000 METAR MRPV NIL=
200706101100 METAR MRPV NIL=
200706101200 METAR MRPV 101200Z NIL=
200706101300 METAR MRPV 101300Z 13004KT CAVOK 20/18 A2995 RMK SCT130 BKN250=
200706101400 METAR MRPV 101400Z 10005KT CAVOK 23/19 A2995 RMK BKN250 TRACE SC AC=
200706101500 METAR MRPV 101500Z 00000KT 9999 FEW040 BKN250 26/17 A2995=
200706101600 METAR MRPV 101600Z 28010KT 9999 SCT035 BKN250 25/19 A2995=
200706101700 METAR MRPV 101700Z 28013KT 9999 SCT030 BKN250 25/19 A2995=
200706101800 METAR MRPV 101800Z 29011KT 9999 SCT030 BKN250 25/19 A2994=
200706101900 METAR MRPV 101900Z 28012KT 9999 FEW020TCU SCT030 BKN250 25720 A2994=
200706102000 METAR MRPV 102000Z 28010KT 9999 FEW020TCU SCT035 BKN250 25/20 A2992=
200706102100 METAR MRPV 102100Z 28013KT 9999 4000S BR SCT010 SCT020TCU BKN100 22/20 A2992=
200706102200 METAR MRPV 102200Z 28009KT 3000 BR SCT002 BKN008 21/20 A2992 VSBY E 6KM=
200706102300 METAR MRPV 102300Z 30007KT 4000 BR SCT003 OVC012 21/19 A2995=
200706110000 METAR MRPV NIL=
200706110100 METAR MRPV NIL=
200706110200 METAR MRPV NIL=
200706110300 METAR MRPV NIL=
200706110400 METAR MRPV NIL=
200706110500 METAR MRPV NIL=
200706110600 METAR MRPV NIL=
200706110700 METAR MRPV NIL=
200706110800 METAR MRPV NIL=
200706110900 METAR MRPV NIL=
200706111000 METAR MRPV NIL=
200706111100 METAR MRPV NIL=
200706111200 METAR MRPV 111200Z 09005KT CAVOK 18/17 A2997 SCT250 HZ W=
200706111300 METAR MRPV 111300Z 10006KT CAVOK 22/17 A2998 SCT250 HZ W=
200706111400 METAR MRPV 111400Z VRB03KT CAVOK 25/16 A3000 SCT250 HZ W=
200706111500 METAR MRPV 111500Z 07008KT 9999 FEW020 SCT250 26/18 A3000 HZ W=
200706111600 METAR MRPV 111600Z 07007KT 9999 FEW020 SCT250 27/18 A2999 HZ W=
200706111700 METAR MRPV 111700Z 29010KT 9999 SCT020 SCT250 25/20 A2999 HZ W TCU S=
200706111800 METAR MRPV 111800Z 27010KT 9999 FEW015TCU SCT022 BKN250 25/21 A2999 HZ W N=
200706111900 METAR MRPV 111900Z 28010KT 9999 FEW015TCU SCT022 BKN250 25/20 A2997 HZ N W=
200706112000 METAR MRPV 112000Z 27010KT 9999 FEW015TCU SCT022 26/21 A2994 HZ N W=
200706112100 METAR MRPV 112100Z 26009KT 9999 4000SE VCSH SCT010TCU BKN022 25/20 A2993=
200706112200 METAR MRPV 112200Z 25007KT 6000 2000E TS SCT008CB BKN018 23/20 A2993 RMK RASH SE N NW VIS W UNL=
200706112300 METAR MRPV 112300Z 15005KT 5000 2000NW -TSRA FEW002 FEW008CB BKN018 19/17 A2994=
200706120000 METAR MRPV 120000Z NIL=
200706120100 METAR MRPV NIL=
200706120200 METAR MRPV NIL=
200706120300 METAR MRPV NIL=
200706120400 METAR MRPV NIL=
200706120500 METAR MRPV NIL=
200706120600 METAR MRPV NIL=
200706120700 METAR MRPV NIL=
200706120800 METAR MRPV NIL=
200706120900 METAR MRPV NIL=
200706121000 METAR MRPV NIL=
200706121100 METAR MRPV NIL=
200706121200 METAR MRPV NIL=
200706121300 METAR MRPV 121300Z 10010KT 9999 FEW020 SCT120 23/18 A2995=
200706121400 METAR MRPV 121400Z 09015KT 9999 FEW020 23/18 A2996=
200706121500 METAR MRPV 121500Z 09015KT 9999 FEW020 25/18 A2998 RMK RST22KT=
200706121600 METAR MRPV 121600Z 07012KT 9999 SCT024 26/18 A2974 RMK RST18KT=
200706121700 METAR MRPV 121700Z 07013KT 9999 SCT026 27/18 A2997 RMK RST19KT=
200706121800 METAR MRPV 121800Z 08012KT 9999 FEW012TCU BKN026 26/18 A2997 RMK RN DST NW=
200706121900 METAR MRPV 121900Z 26008KT 9999 FEW012TCU SCT026 26/21 A2993 RMK RN DST N=
200706122000 METAR MRPV 122000Z 27010KT 9999 VCTS FEW010CB BKN024 26/22 A2992 RMK 6000 N DUE TS=
200706122100 METAR MRPV 122100Z 33005KT 3000 -TSRA SCT008CB BKN010 23/21 A2991=
200706122200 METAR MRPV 122200Z 20005KT 8000 3000W -TS VCSH FEW008CB BKN022 23/20 A2992 RMK VIS 9999 QUAD E=
200706122300 METAR MRPV 122300Z VRB03KT 9999 4000NW BR FEW010 SCT025 BKN250 22/20 A2992=
200706130000 METAR MRPV 130000Z NIL=
200706130100 METAR MRPV NIL=
200706130200 METAR MRPV NIL=
200706130300 METAR MRPV NIL=
200706130400 METAR MRPV NIL=
200706130500 METAR MRPV NIL=
200706130600 METAR MRPV NIL=
200706130700 METAR MRPV NIL=
200706130800 METAR MRPV NIL=
200706130900 METAR MRPV NIL=
200706131000 METAR MRPV NIL=
200706131100 METAR MRPV NIL=
200706131200 METAR MRPV NIL=
200706131300 METAR MRPV 131300Z VRB03KT CAVOK 23/18 A2991 RMK BKN280 HZ W POLVO PISTA 09=
200706131400 METAR MRPV 131400Z 29005KT CAVOK 23/19 A2993 RMK BKN250 HZ W POLVO APROXIMACION PISTA 09=
200706131500 METAR MRPV 131500Z 27005KT CAVOK 25/19 A2994 RMK BKN250=
200706131600 METAR MRPV 131600Z 28010KT 9999 SCT018 BKN250 26/20 A2995=
200706131700 METAR MRPV 131700Z 27009KT 9999 SCT030 BKN250 26/21 A2994=
200706131800 METAR MRPV 131800Z 28010KT 9999 FEW015TCU SCT025 26/21 A2993 RMK RN DST N=
200706131900 METAR MRPV 131900Z 28010KT 9999 FEW015TCU SCT025 27/21 A2990 RMK RN DST N=
200706132000 METAR MRPV 132000Z 27010KT 8000 1500E -TSRA SCT008CB BKN025 25/21 A2988 RMK VIS 9999W=
200706132100 METAR MRPV 132100Z 28009KT 7000 3000N VCFG FEW008CB BKN020TCU 24/22 2986 RMK ST MVNG FOM W TO E=
200706132200 METAR MRPV 132200Z 28010KT 3000 BR SCT002 BKN012 22/21 A2985 RMK TCU ARND TS DST NW=
200706132300 METAR MRPV 132300Z 29009KT 2000 BR SCT002 BKN008 21/21 A2988 RMK TS DST W=
200706140000 METAR MRPV NIL=
200706140100 METAR MRPV NIL=
200706140200 METAR MRPV NIL=
200706140300 METAR MRPV NIL=
200706140400 METAR MRPV NIL=
200706140500 METAR MRPV NIL=
200706140600 METAR MRPV NIL=
200706140700 METAR MRPV NIL=
200706140800 METAR MRPV NIL=
200706140900 METAR MRPV NIL=
200706141000 METAR MRPV NIL=
200706141100 METAR MRPV NIL=
200706141200 METAR MRPV 141200Z 11004KT CAVOK 18/15 A2997 RMK BKN250 TRACE SC DU CB DST SW=
200706141300 METAR MRPV 141300Z 09005KT CAVOK 19/16 A2995 RMK BKN250 CB DST SW DUST W TRACE SC=
200706141400 METAR MRPV 141400Z 07008KT CAVOK 24/16 A2996 RMK TRACE SC BKN250 DUST W CB DST SW=
200706141500 METAR MRPV 141500Z 09002KT CAVOK 26/16 A2996 RMK BKN250 DUST W CB DST SW=
200706141600 METAR MRPV 141600Z 34004KT 9999 FEW040 BKN250 27/18 A2996 RMK DUST APCH RWY09=
200706141700 METAR MRPV 141700Z 28008KT 9999 SCT040 BKN250 28/18 A2996=
200706141800 METAR MRPV 141800Z 27006KT 9999 SCT035 BKN250 28/19 A2994=
200706141900 METAR MRPV 141900Z 28010KT 9999 BKN030 26/20 A2993 RMK CB RASH DST NW=
200706142000 METAR MRPV 142000Z 28008KT 9999 VCSH SCT020TCU BKN035 26/20 A2992 RMK VIS 6KMS E=
200706142100 METAR MRPV 142100Z 25004KT 9999 TS SCT020CB BKN030 25/21 A2988=
200706142200 METAR MRPV NIL=
200706142300 METAR MRPV 142300Z 27008KT 3000 RABR SCT002 BKN006 22/21 A2989 RMK VIS E UNL=
200706150000 METAR MRPV 150000Z NIL=
200706150100 METAR MRPV NIL=
200706150300 METAR MRPV NIL=
200706150400 METAR MRPV NIL=
200706150500 METAR MRPV NIL=
200706150600 METAR MRPV NIL=
200706150700 METAR MRPV NIL=
200706150800 METAR MRPV NIL=
200706150900 METAR MRPV NIL=
200706151000 METAR MRPV NIL=
200706151100 METAR MRPV NIL=
200706151200 METAR MRPV NIL=
200706151300 METAR MRPV 151300Z 12006KT CAVOK 23/18 A2999 RMK TRACE SC FEW130 BKN250 HZ ARND=
200706151400 METAR MRPV 151400Z 15004KT CAVOK 24/18 A3001 RMK FEW120 BKN250 TRACE SC HZ W=
200706151500 METAR MRPV 151500Z 11008KT 9999 FEW040 SCT120 BKN250 26/18 A3001=
200706151600 METAR MRPV 151600Z 08010KT 9999 FEW040 SCT120 BKN250 27/19 A3001=
200706151700 METAR MRPV NIL=
200706151800 METAR MRPV 151800Z 09010KT 9999 SCT030 BKN120 26/18 A3001=
200706151900 METAR MRPV 151900Z 09009KT 9999 SCT025 OVC100 26/19 A2998 RMK CU ARND=
200706152000 METAR MRPV 152000Z 29007KT 9999 SCT030 BKN100 25/20 A2996=
200706152100 METAR MRPV 152100Z 28008KT 9999 SCT020 OVC100 25/20 A2993=
200706152200 METAR MRPV 152200Z 28010KT 7000 VCFG FEW005 SCT015 OVC100 23/21 A2993 VSBY SW 4KM=
200706152300 METAR MRPV NIL=
200706160000 METAR MRPV NIL=
200706160100 METAR MRPV NIL=
200706160200 METAR MRPV NIL=
200706160300 METAR MRPV NIL=
200706160400 METAR MRPV NIL=
200706160500 METAR MRPV NIL=
200706160600 METAR MRPV NIL=
200706160700 METAR MRPV NIL=
200706160800 METAR MRPV NIL=
200706160900 METAR MRPV NIL=
200706161000 METAR MRPV NIL=
200706161100 METAR MRPV NIL=
200706161200 METAR MRPV NIL=
200706161300 METAR MRPV NIL=
200706161400 METAR MRPV 161400Z 12009KT CAVOK 24/18 A3002 BKN250 TRACE SCT=
200706161500 METAR MRPV 161500Z 09012KT 9999 SCT040 BKN250 25/18 A3003=
200706161600 METAR MRPV 161600Z 08011KT 9999 FEW040 BKN250 26/18 A3004=
200706161700 METAR MRPV 161700Z 07009KT 9999 SCT035 BKN250 27/19 A3003=
200706161800 METAR MRPV 161800Z 08008KT 9999 SCT035 BKN250 28/18 A3001 CB NE=
200706161900 METAR MRPV NIL=
200706162000 METAR MRPV 162000Z 28012KT 9999 TS VCSH SCT010CB SCT025 BKN100 25/20 A2998 VSBY N 6KM DUE RASH=
200706162100 METAR MRPV 162100Z 35006KT 5000 TSRA BKN003CB OVC100 22/20 A2999 RMK VIS N NE E 3000 TSRA=
200706162200 METAR MRPV 162200Z 30008KT 3000 -RA BR SCT002 BKN007 20/19 A3001=
200706162300 METAR MRPV 162300Z 36002KT 5000 BR SCT006 SCT025 OVC100 20/19 A3002 RMK SE S VIS 3000 DUE FG=
200706170000 METAR MRPV 170000Z NIL=
200706170100 METAR MRPV NIL=
200706170200 METAR MRPV NIL=
200706170300 METAR MRPV NIL=
200706170400 METAR MRPV NIL=
200706170500 METAR MRPV NIL=
200706170600 METAR MRPV NIL=
200706170700 METAR MRPV NIL=
200706170800 METAR MRPV NIL=
200706170900 METAR MRPV NIL=
200706171000 METAR MRPV NIL=
200706171100 METAR MRPV NIL=
200706171200 METAR MRPV NIL=
200706171300 METAR MRPV 171300Z 13006KT CAVOK 23/17 A3003 RMK BKN250 CB DST SW=
200706171400 METAR MRPV 171400Z 11010KT CAVOK 24/17 A3003 RMK BKN250=
200706171500 METAR MRPV 171500Z 10008KT CAVOK 25/18 A3004 RMK BKN250=
200706171600 METAR MRPV 171600Z 08015KT 9999 FEW025 BKN250 26/17 A3004=
200706171700 METAR MRPV 171700Z 06008KT 9999 SCT025 BKN250 27/18 A3003 RMK TCU SW NE=
200706171800 METAR MRPV 171800Z 07007KT 9999 SCT025 BKN250 28/18 A3001 RMK TCU NE SW=
200706171900 METAR MRPV 171900Z 25006KT 9999 FEW015TCU 26/21 A2999=
200706172000 METAR MRPV 172000Z 28011KT 9999 FEW012TCU SCT022 26/22 A2991=
200706172100 METAR MRPV 172100Z 28012KT 9999 4000NW BR SCT010TCU BKN020 25/22 A2996=
200706172200 METAR MRPV 172200Z 26014KT 2000 TSRA SCT002 FEW005CB BKN010 22/21 A2996=
200706172300 METAR MRPV NIL=
200706180000 METAR MRPV NIL=
200706180100 METAR MRPV NIL=
200706180200 METAR MRPV NIL=
200706180300 METAR MRPV NIL=
200706180400 METAR MRPV NIL=
200706180500 METAR MRPV NIL=
200706180600 METAR MRPV NIL=
200706180700 METAR MRPV NIL=
200706180800 METAR MRPV NIL=
200706180900 METAR MRPV NIL=
200706181000 METAR MRPV NIL=
200706181100 METAR MRPV NIL=
200706181200 METAR MRPV NIL=
200706181300 METAR MRPV NIL=
200706181400 METAR MRPV 181400Z 12008KT CAVOK 22/17 A3002 RMK TRACE SC BKN120 SCT250 CB DST NE=
200706181419 METAR MRPV 181419Z 12008KT CAVOK 22/17 A3002 RMK BKN120 SCT250 CB VRY DST NE TRACE SC=
200706181500 METAR MRPV 181500Z 11009KT CAVOK 24/17 A3001 RMK SCT100 BKN250 CB DST E=
200706181600 METAR MRPV 181600Z 09013KT 9999 SCT012 BKN250 24/18 A3002 RMK RN DST E NE=
200706181700 METAR MRPV 181700Z 09010KT 9999 SCT012 BKN250 23/18 A3002 RMK RN DST NW=
200706181800 METAR MRPV 181800Z 08012KT 9999 SCT015 BKN250 23/18 A3000 RN DST NE=
200706181900 METAR MRPV 181900Z 08010KT 9999 SCT020 BKN250 24/18 A2998 RMK RN DST NE NW=
200706182000 METAR MRPV 182000Z 08008KT 9999 SCT020 OVC250 25/18 A2995 RMK RN DST NE NW=
200706182100 METAR MRPV 182100Z 08008KT 9999 SCT020 OVC250 25/18 A2994 PCPN DST NE NW=
200706182200 METAR MRPV 182200Z 09008KT 9999 SCT018 OVC250 24/18 A2994 RMK RN DST N NW=
200706182300 METAR MRPV 182300Z 10008KT 9999 FEW015 BKN250 25/18 A2993=
200706190000 METAR MRPV NIL=
200706190100 METAR MRPV NIL=
200706190200 METAR MRPV NIL=
200706190300 METAR MRPV NIL=
200706190400 METAR MRPV NIL=
200706190500 METAR MRPV NIL=
200706190600 METAR MRPV NIL=
200706190700 METAR MRPV NIL=
200706190800 METAR MRPV NIL=
200706190900 METAR MRPV NIL=
200706191000 METAR MRPV NIL=
200706191100 METAR MRPV NIL=
200706191200 METAR MRPV 191200Z 12008KT CAVOK 21/17 A2998 RMK TRACE SC SCT250 CB DST SW=
200706191300 METAR MRPV 191300Z 11008KT CAVOK 23/18 A2999 RMK TRACE SC SCT300 CB DST SW RFGS 14KT=
200706191400 METAR MRPV 191400Z 08013KT 9999 FEW035 SCT300 24/17 A3002 RMK RFGS 20KT DST CB DISPN SW DUST APCH RWY 09=
200706191500 METAR MRPV 191500Z 06013KT 9999 FEW030 SCT300 25/17 A3003 RMK DUST APCH RWY 09 RFGS 19KT=
200706191600 METAR MRPV 191600Z 07013KT 9999 FEW025 26/18 A3003 RMK RFGS 19KT=
200706191700 METAR MRPV 191700Z 08014KT 9999 BKN024 25/17 A3002 RMK RFGS 19KT=
200706191800 METAR MRPV NIL=
200706191900 METAR MRPV 191900Z 07012KT 9999 SCT024 28/18 A2997=
200706192000 METAR MRPV 192000Z 06013KT 9999 SCT020 28/18 A2996 RMK RFGS 20KT=
200706192100 METAR MRPV 192100Z 07014KT 9999 SCT025 SCT300 28/18 A2994 RMK RAFAGAS 20KT=
200706192200 METAR MRPV 192200Z 06012KT 9999 SCT022 BKN300 27/17 A2995 RMK RAFAGAS 18KT TCU N NE=
200706192300 METAR MRPV 192300Z 07012KT 9999 SCT020TCU BKN300 25/17 A2995=
200706200000 METAR MRPV 200000Z NIL=
200706200100 METAR MRPV NIL=
200706200200 METAR MRPV NIL=
200706200300 METAR MRPV NIL=
200706200400 METAR MRPV NIL=
200706200500 METAR MRPV NIL=
200706200600 METAR MRPV NIL=
200706200700 METAR MRPV NIL=
200706200800 METAR MRPV NIL=
200706200900 METAR MRPV NIL=
200706201000 METAR MRPV NIL=
200706201100 METAR MRPV NIL=
200706201200 METAR MRPV 201200Z 10007KT CAVOK 20/16 A2999 RMK TRACE SC SCT250 POLVO APROXIMACION PISTA 09=
200706201300 METAR MRPV 201300Z 12010KT CAVOK 22/16 A3001 RMK SCT250 TRACE CU SC=
200706201400 METAR MRPV 201400Z 08012KT 9999 FEW040 BKN300 23/17 A3001 RMK RAFAGAS 17KT=
200706201500 METAR MRPV 201500Z 08013KT 9999 FEW030 SCT120 BKN250 25/17 A3000 RMK DU W=
200706201600 METAR MRPV 201600Z 07013KT 9999 SCT035 BKN120 25/17 A3000=
200706201700 METAR MRPV 201700Z 06012KT 9999 SCT030 OVC120 25/17 A3001=
200706201800 METAR MRPV 201800Z 08012KT 9999 SCT030 OVC120 25/18 A3001=
200706201900 METAR MRPV 201900Z 09007KT 9999 SCT025 BKN120 25718 A2998=
200706202000 METAR MRPV 202000Z 09007KT 9999 SCT020 OVC120 26718 A2996=
200706202100 METAR MRPV 202100Z 09007KT 9999 FEW015 SCT020 BKN120 26/18 A2996 RASH NE W=
200706202200 METAR MRPV 202200Z 09006KT 4000 +RA BR FEW006 SCT010 BKN100 20/18 A3000=
200706202300 METAR MRPV 202300Z 11006KT 9999 -RA FEW030 OVC100 20/17 A2998=
200706210000 METAR MRPV NIL=
200706210100 METAR MRPV NIL=
200706210200 METAR MRPV NIL=
200706210300 METAR MRPV NIL=
200706210400 METAR MRPV NIL=
200706210500 METAR MRPV NIL=
200706210600 METAR MRPV NIL=
200706210700 METAR MRPV NIL=
200706210800 METAR MRPV NIL=
200706210900 METAR MRPV NIL=
200706211000 METAR MRPV NIL=
200706211100 METAR MRPV NIL=
200706211200 METAR MRPV 211200Z 22002KT CAVOK 19/16 A3000 RMK SCT080 SCT250 TRAZAS SC=
200706211300 METAR MRPV 211300Z 25003KT CAVOK 20/16 A3003 BKN090 TRAZAS SC/CI DU PISTA 09=
200706211400 METAR MRPV 211400Z 30002KT CAVOK 23/17 A3004 SCT100 SCT250 TRAZAS SCT DU PISTA 09=
200706211500 METAR MRPV 211500Z 06004KT CAVOK 25/17 A2001 TRAZAS SCT SCT120 BKN250=
200706211600 METAR MRPV 211600Z 14004KT 9999 FEW030 BKN120 27/16 A3000=
200706211700 METAR MRPV 211700Z 07012KT 9999 SCT035 BKN120 28/18 A3000=
200706211800 METAR MRPV 211800Z 08009KT 9999 SCT035 BKN120 28/18 A2999=
200706211900 METAR MRPV 211900Z 07011KT 9999 BKN030 29/18 A2997=
200706212000 METAR MRPV 212000Z 28007KT 9999 SCT010TCU BKN030 26/21 A2995=
200706212100 METAR MRPV 212100Z 32004KT 9999 4000SW TS VCSH FEW008 SCT010CB CB025 23/18 A2994=
200706212200 METAR MRPV 212200Z 24004KT 9000 3000SW TS VCSH SCT006 SCT010CB BKN080 21/18 A2998=
200706212300 METAR MRPV 212300Z 12004KT 3000 +RA SCT003 SCT007 BKN020 20/19 A3000 RMK VIS W 5000=
200706220000 METAR MRPV 220000Z=
200706220100 METAR MRPV NIL=
200706220200 METAR MRPV NIL=
200706220300 METAR MRPV NIL=
200706220400 METAR MRPV NIL=
200706220500 METAR MRPV NIL=
200706220600 METAR MRPV NIL=
200706220700 METAR MRPV NIL=
200706220800 METAR MRPV NIL=
200706220900 METAR MRPV NIL=
200706221000 METAR MRPV NIL=
200706221100 METAR MRPV NIL=
200706221200 METAR MRPV 221200Z 10006KT CAVOK 19/17 A3000 RMK BKN250 TRACE STSC=
200706221300 METAR MRPV 221300Z 11011KT CAVOK 22/17 A3001 RMK TRACE SC SCT250 GST18KT=
200706221400 METAR MRPV 221400Z 10014KT 9999 FEW035 SCT250 23/18 A3003 RMK GST20KT=
200706221500 METAR MRPV 221500Z 08012KT 9999 FEW030 SCT250 25/18 A3003=
200706221600 METAR MRPV 221600Z 07010KT 9999 FEW035 SCT250 26/18 A3001=
200706221700 METAR MRPV 221700Z 06006KT 9999 SCT030 SCT250 28/18 A3000=
200706221800 METAR MRPV 221800Z 29011KT 9999 FEW010 SCT030 BKN250 26/21 A2999 RMK DSR CU ARND=
200706221900 METAR MRPV 221900Z 29010KT 9999 SCT020TCU BKN035 25/21 A2998=
200706222000 METAR MRPV 222000Z 28011KT 9999 VCSH FEW010 SCT020TCU BKN035 25/21 A2996 RMK RASH N NE E VIS NE 5000=
200706222100 METAR MRPV 222100Z 29011KT 9999 SCT020TCU SCT030 BKN100 24/21 A2995 RMK SHRA DST N NE E NW=
200706222200 METAR MRPV 222200Z 29010KT 4000BR SCT003 SCT010 BKN020 23/21 A2995=
200706222300 METAR MRPV 222300Z 28008KT 0500 FG VV/// 22/21 A2996=
200706230000 METAR MRPV 230000Z NIL=
200706230100 METAR MRPV NIL=
200706230200 METAR MRPV NIL=
200706230300 METAR MRPV NIL=
200706230400 METAR MRPV NIL=
200706230500 METAR MRPV NIL=
200706230600 METAR MRPV NIL=
200706230700 METAR MRPV NIL=
200706230800 METAR MRPV NIL=
200706230900 METAR MRPV NIL=
200706231000 METAR MRPV NIL=
200706231100 METAR MRPV NIL=
200706231200 METAR MRPV 231200Z VRB03KT CAVOK 18/17 A2998 BKN250 HZ W=
200706231300 METAR MRPV 231300Z VRB03KT CAVOK 20/19 A2999 RMK BKN250 CB DST DST NNE HZ QUAD W=
200706231400 METAR MRPV 231400Z 12008KT CAVOK 24/18 A2999 RMK BKN250 CB DST NNE HZ W=
200706231500 METAR MRPV 231500Z 12009KT CAVOK 25/18 A2998 RMK FEW100 BKN250 HZ W CB DST NNE=
200706231600 METAR MRPV 231600Z 09007KT 9999 FEW015 BKN100 27/18 A3000 RMK HZ W=
200706231700 METAR MRPV 231700Z 27005KT 9999 4000NW BR SCT018 BKN100 26/19 A2999 RN DST ENE=
200706231800 METAR MRPV 231800Z 27009KT 8000 3000NW VCFG BR SCT012TCU BKN100 25/20 A2999 RMK HZ QUAD W=
200706231900 METAR MRPV 231900Z 24004KT 7000 3000NW -RA BR SCT010TCU BKN100 24/21 A2997 RMK TS DST N=
200706232000 METAR MRPV 232000Z 25006KT 8000 3000NW VCSH BR SCT010TCU BKN100 26/21 A2993 RMK SHRA DST N=
200706232100 METAR MRPV 232100Z 27010KT 8000 3000NW VCFG FEW006 SCT012 BKN100 24/22 A2993=
200706232200 METAR MRPV 232200Z 28009KT 2000 BR SCT002 BKN010 23/21 A2993 RMK ST MOV FROM W TO E=
200706232300 METAR MRPV 232300Z 29005KT 3000 BR SCT002 BKN010 22/21 A2994=
200706240000 METAR MRPV NIL=
200706240100 METAR MRPV NIL=
200706240200 METAR MRPV NIL=
200706240300 METAR MRPV NIL=
200706240400 METAR MRPV NIL=
200706240500 METAR MRPV NIL=
200706240600 METAR MRPV NIL=
200706240700 METAR MRPV NIL=
200706240900 METAR MRPV NIL=
200706241000 METAR MRPV NIL=
200706241100 METAR MRPV NIL=
200706241200 METAR MRPV NIL=
200706241300 METAR MRPV 241300Z 12008KT 9999 FEW012 BKN250 23/18 A2996 RMK CB DST SW=
200706241400 METAR MRPV 241400Z 10010KT 9999 FEW012 BKN250 24/18 A2998 RMK CB DST NE=
200706241500 METAR MRPV 241500Z 07009KT 9999 SCT015 BKN250 25/18 A2999 RMK PCPN DST NE=
200706241600 METAR MRPV 241600Z 09006KT 9999 SCT012 BKN250 27/18 A2999 RMK PCPN DST NE=
200706241700 METAR MRPV 241700Z 26006KT 9999 SCT010 SCT022 BKN250 26/20 A2999 RMK PCPN DST N NE=
200706241800 METAR MRPV 241800Z 29006KT 9999 SCT010TCU SCT022 BKN250 26/20 A2997 RMK PCPN DST NW=
200706241900 METAR MRPV 241900Z 29006KT 9999 SCT010TCU SCT022 BKN250 27/20 A2995=
200706242000 METAR MRPV 242000Z 08010KT 9999 SCT010TCU SCT022 BKN250 25/18 A2993 RMK RN DST E=
200706242100 METAR MRPV 242100Z 07010KT 9999 3000E VCSH SCT010TCU SCT030 BKN250 25/18 A2993=
200706242200 METAR MRPV 242200Z 09008KT 9999 SCT010 SCT025 BKN250 22/19 A2993 RM RN NW=
200706242300 METAR MRPV NIL=
200706250000 METAR MRPV 250000Z NIL=
200706250100 METAR MRPV NIL=
200706250200 METAR MRPV NIL=
200706250300 METAR MRPV NIL=
200706250400 METAR MRPV NIL=
200706250500 METAR MRPV NIL=
200706250600 METAR MRPV NIL=
200706250700 METAR MRPV NIL=
200706250800 METAR MRPV NIL=
200706250900 METAR MRPV NIL=
200706251000 METAR MRPV NIL=
200706251100 METAR MRPV NIL=
200706251200 METAR MRPV 251200Z 11010KT 9999 FEW025 BKN100 22/18 A2997 RMK GUST 15 DZ DST NW N NE=
200706251300 METAR MRPV 251300Z 11013KT 9999 FEW030 BKN100 22/17 A2997 RMK RAFAGAS 20KT DZ N=
200706251400 METAR MRPV 251400Z 10010KT 9999 -RA SCT025 BKN100 22/18 A3000 RMK RAFAGAS 18KT POLVO APROXIMACION PISTA 09=
200706251500 METAR MRPV 251500Z 10010KT 9999 4000E -RA VCSH SCT010 OVC100 21/18 A3003=
200706251600 METAR MRPV 251600Z 12008KT 7000 3000W -RA SCT010 OVC100 21/18 A3004=
200706251700 METAR MRPV 251700Z 09013KT 9999 SCT015 OVC100 22/19 A3003 RERA RMK RN N RAFAGAS 19KT=
200706251800 METAR MRPV 251800Z 08013KT 9999 SCT012 SCT120 BKN250 24/19 A3001 RMK RN N=
200706251900 METAR MRPV 251900Z 08014G24KT 9999 SCT015 SCT120 BKN250 25/18 A3000=
200706252000 METAR MRPV 252000Z 07014G24KT 9999 SCT012 BKN250 25/17 A2999=
200706252100 METAR MRPV 252100Z 08014KT 9999 SCT015 BKN250 25/16 A2998=
200706252200 METAR MRPV 252200Z 09010KT 9999 -RA SCT015 BKN250 23/18 A2998=
200706252300 METAR MRPV NIL=
200706260000 METAR MRPV NIL=
200706260100 METAR MRPV NIL=
200706260200 METAR MRPV NIL=
200706260300 METAR MRPV NIL=
200706260400 METAR MRPV NIL=
200706260500 METAR MRPV NIL=
200706260600 METAR MRPV NIL=
200706260700 METAR MRPV NIL=
200706260800 METAR MRPV NIL=
200706260900 METAR MRPV NIL=
200706261000 METAR MRPV NIL=
200706261100 METAR MRPV NIL=
200706261200 METAR MRPV NIL=
200706261300 METAR MRPV NIL=
200706261400 METAR MRPV 261400Z 09015G25KT 9999 FEW030 BKN250 24/18 A30/06 RMK DZ N AND NE OVR RDGS DU APCH RWY09=
200706261500 METAR MRPV 261500Z 08016KT 9999 SCT025 SCT120 BKN250 25/18 A3006 DU APCH RWY09 DZ NE DST GTS 21KT=
200706261600 METAR MRPV 261600Z 08017KT 9999 SCT025 SCT120 BKN250 26/18 A3006 RMK DU W DZ NE=
200706261700 METAR MRPV 261700Z 07016KT 9999 SCT025 SCT100 BKN250 25/17 A3006 DZ NE=
200706261757 METAR MRPV 1800Z 09013KT 9999 SCT025 BKN100 25/18 A3004 DSNT DZ NE=
200706261800 METAR MRPV 1800Z 09013KT 9999 SCT025 BKN100 25/18 A3004 DSNT DZ NE=
200706261900 METAR MRPV 261900Z 07010KT 9999 SCT020 BKN100 26/18 A3001=
200706262000 METAR MRPV 262000Z 08007KT 9999 SCT020 BKN100 27/18 A2999=
200706262100 METAR MRPV 262100Z 09011KT 9999 SCT020 BKN100 26/19 A2998 RMK TCU RN N NE=
200706262200 METAR MRPV 262200Z 07008KT 9999 SCT020 SCT100 BKN250 24/19 A2994=
200706262300 METAR MRPV 262300Z 08011KT 9999 SCT025 BKN250 24/18 A2998=
200706270000 METAR MRPV 270000Z NIL=
200706270100 METAR MRPV NIL=
200706270200 METAR MRPV NIL=
200706270300 METAR MRPV NIL=
200706270400 METAR MRPV NIL=
200706270500 METAR MRPV NIL=
200706270600 METAR MRPV NIL=
200706270700 METAR MRPV NIL=
200706270800 METAR MRPV NIL=
200706270900 METAR MRPV NIL=
200706271000 METAR MRPV NIL=
200706271100 METAR MRPV NIL=
200706271200 METAR MRPV 271200Z 10010KT CAVOK 21/17 A2997 RMK TRACE SC CI BKN100 RAFAGAS 16KT=
200706271300 METAR MRPV 271300Z 09010KT CAVOK 23/16 A2998 RMK SCT100 SCT250 TRACE SC CB DST SW GST17KT=
200706271400 METAR MRPV 271400Z 11010KT CAVOK 24/17 A2996 RMK BKN250 TRACE CU SC AC CB DST S=
200706271500 METAR MRPV 271500Z 07002KT 9999 SCT040 BKN250 25/17 A2999 RMK CB DST S SW=
200706271600 METAR MRPV 271600Z 13004KT 9999 FEW040 BKN250 24/17 A2999=
200706271700 METAR MRPV 271700Z 31003KT 9999 FEW030 BKN120 26/20 A2999=
200706271800 METAR MRPV 271800Z 28006KT 9999 -RA FEW012TCU SCT020 BKN100 23/20 A3000 RMK VIS 5000 SW DUE FG=
200706271900 METAR MRPV 271900Z 28003KT 9999 FEW006 SCT012 OVC100 24/20 A2997 RERA=
200706272000 METAR MRPV NIL=
200706272100 METAR MRPV NIL=
200706272200 METAR MRPV 272200Z 08005KT 9999 FEW020 OVC100 22/20 A2991=
200706272300 METAR MRPV 272300Z 15005KT 9999 SCT020 OVC100 24/19 A2990=
200706280000 METAR MRPV 280000Z NIL=
200706280100 METAR MRPV NIL=
200706280200 METAR MRPV NIL=
200706280300 METAR MRPV NIL=
200706280400 METAR MRPV NIL=
200706280500 METAR MRPV NIL=
200706280600 METAR MRPV NIL=
200706280700 METAR MRPV NIL=
200706280800 METAR MRPV NIL=
200706281000 METAR MRPV NIL=
200706281100 METAR MRPV NIL=
200706281200 METAR MRPV 281200Z 12006KT CAVOK 19/16 A2997 BKN250 TRAZAS DE CU CB N W=
200706281300 METAR MRPV 281300Z 13005KT CAVOK 22/16 A2998 RMK TRACE SC CU BKN250=
200706281400 METAR MRPV 281400Z 12006KT CAVOK 24/17 A2999 RMK TRACE CU SC BKN250 TCU DST SW=
200706281500 METAR MRPV 281500Z 09006KT 9999 FEW035 BKN250 26/17 A2998 RMK LEVE HZ W=
200706281600 METAR MRPV 281600Z 08009KT 9999 FEW035 BKN250 26/18 A2998=
200706281700 METAR MRPV 281700Z 04002KT 9999 SCT030 BKN250 29/18 A2996 RMK HZ LEVE W=
200706281800 METAR MRPV 281800Z 27008KT 9999 SCT040 BKN250 27/20 A2995 RMK TCU DST N=
200706281900 METAR MRPV 281900Z 27010KT 9999 SCT015CB BKN100 27/21 A2993 RMK TCU CB ARND RN DST S SW=
200706282000 METAR MRPV 282000Z 06007KT 3000 RA BR FEW002 SCT006 BKN015 21/20 A2995 RMK 9999 E SE=
200706282100 METAR MRPV NIL=
200706282200 METAR MRPV 282200Z 02002KT 9999 FEW020 OVC100 21/19 A2995=
200706282300 METAR MRPV 282300Z 00000KT 9999 -RA SCT020 OVC100 21/20 A2997=
200706290000 METAR MRPV NIL=
200706290100 METAR MRPV NIL=
200706290200 METAR MRPV NIL=
200706290300 METAR MRPV NIL=
200706290400 METAR MRPV NIL=
200706290500 METAR MRPV NIL=
200706290600 METAR MRPV NIL=
200706290700 METAR MRPV NIL=
200706290800 METAR MRPV NIL=
200706290900 METAR MRPV NIL=
200706291000 METAR MRPV NIL=
200706291100 METAR MRPV NIL=
200706291200 METAR MRPV 291200Z 14002KT 9999 FEW035 SCT120 BKN250 19/18 A3000 RMK DZ DST N DU 09=
200706291300 METAR MRPV 291300Z 27003KT CAVOK 21/19 A3003 RMK FEW120 BKN250 DUST IN APCH RWY 09 CB DST N TCU DST S SW=
200706291400 METAR MRPV 291400Z 30003KT CAVOK 22/19 A3004 RMK SCT100 BKN250 CB DST N S DUST IN APCH RWY 09=
200706291500 METAR MRPV 291500Z 36003KT 170V330 9999 FEW025 SCT100 BKN250 24/19 A3005 RMK CB DST S DUST APCH RWY 09=
200706291600 METAR MRPV 291600Z 08010KT 9999 FEW020 SCT100 BKN250 25/19 A3004 RMK CB DST S RN DST N RFGS 16KT=
200706291700 METAR MRPV 291700Z 08014KT 9999 SCT020 BKN250 24/19 A3004=
200706291800 METAR MRPV 291800Z 08012KT 9999 SCT020 BKN250 25/19 A3003 RMK DST N NE E=
200706291900 METAR MRPV 291900Z 09015KT 9999 SCT020 BKN250 24/19 A3001 RMK RN DST N NE=
200706292000 METAR MRPV 292000Z 09014KT 9999 SCT020 BKN250 23/18 A3000 RMK RN N NE RFGS 19KT=
200706292100 METAR MRPV 292100Z 09013KT 9999 FEW020 OVC250 24/17 A3000 RMK RAFAGAS 18KT=
200706292200 METAR MRPV 292200Z 09012KT 9999 FEW020 OVC250 22/17 A3000=
200706292300 METAR MRPV 292300Z 10006KT 9999 FEW030 OVC250 22/17 A2999=
200706300000 METAR MRPV NIL=
200706300100 METAR MRPV NIL=
200706300200 METAR MRPV NIL=
200706300300 METAR MRPV NIL=
200706300400 METAR MRPV NIL=
200706300500 METAR MRPV NIL=
200706300600 METAR MRPV NIL=
200706300700 METAR MRPV NIL=
200706300800 METAR MRPV NIL=
200706300900 METAR MRPV NIL=
200706301000 METAR MRPV NIL=
200706301100 METAR MRPV NIL=
200706301200 METAR MRPV NIL=
200706301300 METAR MRPV NIL=
200706301400 METAR MRPV 301400Z 11009KT 9999 FEW010 SCT100 BKN250 22/18 A3007 RMK RN NE=
200706301500 METAR MRPV 301500Z 09009KT 9999 FEW015 SCT100 BKN250 24/19 A3008 RMK RN NE RAFAGAS 14KT POLVO APROXIMACION 09=
200706301600 METAR MRPV 301600Z 08010KT 9999 FEW020 SCT100 BKN250 26/18 A3006 RMK RAFAGAS 16 KT RN NE=
200706301700 METAR MRPV 301700Z 07012KT 9999 FEW020 SCT100 BKN250 26/18 A3004 RMK RN NE=
200706301800 METAR MRPV 301800Z 08010KT 9999 SCT020 BKN250 27/19 A3003 RMK RN NE NW=
200706301900 METAR MRPV 301900Z 06006KT 9999 SCT020 BKN250 28/19 A3002 RMK RN NE=
200706302000 METAR MRPV 302000Z 28010KT 9999 SCT020TCU BKN250 24/21 A3000=
200706302100 METAR MRPV 302100Z 28008KT 9999 4000NW VCSH FEW008 FEW015TCU BKN022 24/21 A2999=
200706302200 METAR MRPV 302200Z 31006KT 9999 SCT010 SCT020 BKN250 24/21 A2998 HZ W=
200706302300 METAR MRPV NIL=
200707010000 METAR MRPV 010000Z NIL=
200707010100 METAR MRPV NIL=
200707010200 METAR MRPV NIL=
200707010300 METAR MRPV NIL=
200707010400 METAR MRPV NIL=
200707010500 METAR MRPV NIL=
200707010600 METAR MRPV NIL=
200707010700 METAR MRPV NIL=
200707010800 METAR MRPV NIL=
200707010900 METAR MRPV NIL=
200707011000 METAR MRPV NIL=
200707011100 METAR MRPV NIL=
200707011200 METAR MRPV NIL=
200707011300 METAR MRPV 011300Z 13006KT CAVOK 22/18 A3004 SCT100 SCT250 CB SW=
200707011400 METAR MRPV 011400Z 10007KT CAVOK 23/18 A3005 TRAZAS SCT FEW100 SCT250 CB SW HZ W=
200707011500 METAR MRPV 011500Z 09011KT CAVOK 26/18 A3006 TRZAS SCT SCT250 CB SW HZ W=
200707011600 METAR MRPV 011600Z 08012KT 9999 FEW018 SCT250 27/18 A3006 HZ W CB SW=
200707011700 METAR MRPV 011700Z 09012KT 9999 SCT020 SCT250 28/19 A3006 HZ W=
200707011800 METAR MRPV 011800Z 07008KT 9999 SCT020 SCT250 29/19 A3004 TCU S=
200707011900 METAR MRPV 011900Z 05007KT 9999 SCT022TCU SCT250 29/18 A3003 VSBY NW 6KM DUE RASH CB NW HZ W=
200707012000 METAR MRPV 012000Z 28012KT 9999 SCT008 BKN025TCU 26/22 A3001 HZ W CB NW=
200707012100 METAR MRPV 012100Z 27010KT 9999 SCT006 BKN022TCU 26/22 A2999 RMK HZ ARND=
200707012200 METAR MRPV 012200Z 28010KT 7000 3000N VCFG BR SCT002 BKN020 24/21 A2999 RMK ST W E=
200707012300 METAR MRPV 012300Z 22005KT 1000 +TSRA SCT002 FEW005CB BKN012 21/21 A3001=
200707020000 METAR MRPV 020000Z NIL=
200707020100 METAR MRPV NIL=
200707020200 METAR MRPV NIL=
200707020300 METAR MRPV NIL=
200707020400 METAR MRPV NIL=
200707020500 METAR MRPV NIL=
200707020600 METAR MRPV NIL=
200707020700 METAR MRPV NIL=
200707020800 METAR MRPV NIL=
200707020900 METAR MRPV NIL=
200707021000 METAR MRPV NIL=
200707021100 METAR MRPV NIL=
200707021200 METAR MRPV 021200Z 12010KT CAVOK 22/17 A3001 RMK BKN 070 TRACE SC=
200707021300 METAR MRPV 021300Z 08012KT 9999 FEW035 SCT100 BKN250 24/18 A3003 RMK DU 09 RGT17KT=
200707021400 METAR MRPV 021400Z 09014KT 9999 FEW040 SCT250 24/19 A3004 RMK DZ NE DU 09 GST20KT=
200707021500 METAR MRPV 021500Z 08013KT 9999 SCT035 SCT250 25/19 A3004 RMK CB DST SW=
200707021600 METAR MRPV 021600Z 06012KT 9999 SCT035 SCT250 26/19 A3004 RMK CB DST SW=
200707021700 METAR MRPV 021700Z 06008KT 9999 FEW030 28/18 A3003=
200707021800 METAR MRPV 021800Z 08010KT 9999 SCT030 29/18 A3000=
200707021900 METAR MRPV 021900Z 06013KT 9999 BKN030 29/19 A2999=
200707022000 METAR MRPV 022000Z 08012KT 9999 SCT025 BKN035 29/19 A2998 RMK TCU CB ARND=
200707022100 METAR MRPV 022100Z 12006KT 9999 TS VCSH SCT015CB BKN025 25/20 A2996 5000 NW=
200707022200 METAR MRPV 022200Z 09008KT 9999 SCT020 BKN100 25/19 A2997=
200707022300 METAR MRPV 022300Z 27004KT 9999 FEW006 SCT020 BKN100 23/21 A2999 RMK 5000SW BR=
200707030000 METAR MRPV 030000Z NIL=
200707030100 METAR MRPV NIL=
200707030200 METAR MRPV NIL=
200707030300 METAR MRPV NIL=
200707030400 METAR MRPV NIL=
200707030500 METAR MRPV NIL=
200707030600 METAR MRPV NIL=
200707030700 METAR MRPV NIL=
200707030800 METAR MRPV NIL=
200707030900 METAR MRPV NIL=
200707031000 METAR MRPV NIL=
200707031100 METAR MRPV NIL=
200707031200 METAR MRPV 031200Z 12007KT 9999 FEW012 SCT020 BKN100 22/18 A3000 DZ NE=
200707031300 METAR MRPV 031300Z 11008KT 9999 FEW015 SCT025 BKN100 22/18 A3002=
200707031400 METAR MRPV 031400Z 12006KT 9999 SCT025 OVC100 23/18 A3003=
200707031500 METAR MRPV 031500Z 09014KT 9999 SCT020 OVC100 24/18 A3003=
200707031600 METAR MRPV 031600Z 10015KT 9999 SCT025 BKN120 24/18 A3002 RMK GUST 24KT=
200707031700 METAR MRPV 031700Z 09012KT 9999 FEW040 OVC120 24/18 A3000=
200707031800 METAR MRPV 031800Z 07014KT 9999 FEW030 BKN120 24/17 A3002=
200707031900 METAR MRPV 031900Z 06006KT 9999 FEW030 SCT120 BKN250 26/17 A2998=
200707032000 METAR MRPV 032000Z 11004KT 9999 FEW035 SCT120 BKN250 27/17 A2994=
200707032100 METAR MRPV 032100Z 08006KT 9999 FEW040 BKN250 27/18 A2992=
200707032200 METAR MRPV NIL=
200707032300 METAR MRPV 032300Z 09009KT 9999 SCT025 BKN250 25/18 A2996 RMK CB DST SE S SW=
200707040000 METAR MRPV NIL=
200707040100 METAR MRPV NIL=
200707040200 METAR MRPV NIL=
200707040300 METAR MRPV NIL=
200707040400 METAR MRPV NIL=
200707040500 METAR MRPV NIL=
200707040600 METAR MRPV NIL=
200707040700 METAR MRPV NIL=
200707040800 METAR MRPV NIL=
200707040900 METAR MRPV NIL=
200707041000 METAR MRPV NIL=
200707041100 METAR MRPV NIL=
200707041200 METAR MRPV 041200Z NIL=
200707041300 METAR MRPV 041300Z 11010KT 9999 SCT025 BKN250 23/18 A2998=
200707041400 METAR MRPV 041400Z 08014KT 9999 SCT020 BKN250 24/19 A3000=
200707041500 METAR MRPV 041500Z 08013KT 9999 SCT020 BKN250 24/18 A3000=
200707041600 METAR MRPV 041600Z 07016KT 9999 SCT020 BKN250 24/18 A2999=
200707041700 METAR MRPV 041700Z 07014KT 9999 SCT020 SCT100 BKN250 25/18 A2999 RMK RFGS 21KT=
200707041800 METAR MRPV 041800Z 07016KT 9999 SCT020 BKN120 26/18 A2999 RMK RFGS 24KT=
200707041900 METAR MRPV 041900Z 07013KT 9999 FEW015 SCT020 BKN250 26/18 A2997 RMK RFGS 19KT=
200707042000 METAR MRPV 042000Z 08012KT 9999 SCT020 SCT120 BKN250 26/18 A2995=
200707042100 METAR MRPV 042100Z 06009KT 9999 FEW010 SCT020 BKN100 26/18 A2993=
200707042200 METAR MRPV 042200Z 08013KT 9999 SCT020 SCT120 BKN250 25/19 A2992=
200707042300 METAR MRPV 042300Z 07011KT 9999 SCT020 BKN250 24/18 A2991 RMK RN N NE=
200707050000 METAR MRPV 050000Z 07012KT 9999 SCT020 BKN250 23/18 A2993 RMK DZ NE=
200707050100 METAR MRPV NIL=
200707050200 METAR MRPV NIL=
200707050300 METAR MRPV NIL=
200707050400 METAR MRPV NIL=
200707050500 METAR MRPV NIL=
200707050600 METAR MRPV NIL=
200707050700 METAR MRPV NIL=
200707050800 METAR MRPV NIL=
200707050900 METAR MRPV NIL=
200707051000 METAR MRPV NIL=
200707051100 METAR MRPV NIL=
200707051200 METAR MRPV NIL=
200707051300 METAR MRPV 051300Z 11007KT 9999 SCT020 BKN250 22/18 A2996 RMK RN NW N NE CB N=
200707051400 METAR MRPV 051400Z 10013KT 9999 SCT020 BKN250 22/18 A2998 RMK CB N RN NW N NE RAFAGAS 19KT POLVO APROXIMACION 09=
200707051500 METAR MRPV 051500Z 10012G22KT 9999 -RA FEW018 SCT110 BKN250 21/18 A3001=
200707051600 METAR MRPV 051600Z 15010KT 9999 -RA FEW018 SCT110 BKN250 20/18 A2998 TSTM N=
200707051700 METAR MRPV 051700Z 11011KT 9999 -RA FEW020 SCT110 BKN250 22/18 A2999=
200707051800 METAR MRPV 051800Z 09015KT 9999 FEW015 SCT110 BKN250 23/18 A2999=
200707051900 METAR MRPV 051900Z 09012KT 9999 FEW020 SCT110 BKN250 23/18 A2997 RMK RAFAGAS 20KT=
200707052000 METAR MRPV 052000Z 08015KT 9999 FEW020 SCT110 BKN250 23/18 A2995 RMK RAFAGAS 22KT=
200707052100 METAR MRPV 052100Z 11010KT CAVOK 23/18 A2992 TRZAS SCT SCT110 BKN250=
200707052200 METAR MRPV 052200Z 09012KT CAVOK 23/18 A2994 TRAZAS SCT SCT110 BKN250=
200707052300 METAR MRPV 052300Z 09012KT CAVOK 23/17 A2994 TRAZAS SCT SCT110 BKN250=
200707060000 METAR MRPV NIL=
200707060100 METAR MRPV NIL=
200707060200 METAR MRPV NIL=
200707060300 METAR MRPV NIL=
200707060400 METAR MRPV NIL=
200707060500 METAR MRPV NIL=
200707060600 METAR MRPV NIL=
200707060700 METAR MRPV NIL=
200707060800 METAR MRPV NIL=
200707060900 METAR MRPV NIL=
200707061000 METAR MRPV NIL=
200707061100 METAR MRPV NIL=
200707061200 METAR MRPV 061200Z 10010KT 9999 SCT022 BKN250 22/18 A3000 RMK PCPN DST N NE CB DST SW NW=
200707061300 METAR MRPV NIL=
200707061400 METAR MRPV 061400Z 09012KT 9999 SCT022 BKN250 23/18 A3001 RN N NE CB S SW DU PISTA 09=
200707061500 METAR MRPV 061500Z 0 9014KT 9999 SCT022 BKN250 24/18 A3001 DU 09 RN NE=
200707061600 METAR MRPV 061600Z 09012KT 9999 SCT022 BKN250 26/18 A3001 RN NE=
200707061700 METAR MRPV 0617900Z 08014G24KT 9999 FEW020 BKN250 27/18 A2999 DU PISTA 09=
200707061800 METAR MRPV 061800Z 08016KT 9999 FEW020 BKN250 27/18 A2997 DU PISTA 09=
200707061900 METAR MRPV 061900Z 08012KT 9999 SCT020 BKN250 27/18 A2996 RMK DU PISAT 09=
200707062000 METAR MRPV 062000Z 07012KT 9999 SCT020 BKN250 27/19 A2994=
200707062100 METAR MRPV 062100Z 08008KT 9999 FEW010TCU SCT020 BKN250 26/19 A2993=
200707062200 METAR MRPV 062200Z 08010KT 6000 2000NE RA VCSH FEW008 SCT022 BKN250 23/20 A2994=
200707062300 METAR MRPV 062300Z VRB03KT 8000 2000W -RA BR FEW002 BKN020 21/20 A2996 RMK VIS E UNL FG APROX09=
200707070000 METAR MRPV 070000Z NIL=
200707070100 METAR MRPV NIL=
200707070200 METAR MRPV NIL=
200707070300 METAR MRPV NIL=
200707070400 METAR MRPV NIL=
200707070500 METAR MRPV NIL=
200707070600 METAR MRPV NIL=
200707070700 METAR MRPV NIL=
200707070800 METAR MRPV NIL=
200707070900 METAR MRPV NIL=
200707071000 METAR MRPV NIL=
200707071100 METAR MRPV NIL=
200707071200 METAR MRPV NIL=
200707071300 METAR MRPV 071300Z 10009KT 9999 FEW030 SCT100 BKN250 22/18 A2998 RMK DU AROX 09=
200707071400 METAR MRPV 071400Z 11008KT 9999 FEW030 SCT110 BKN250 23/19 A2999 RMK DU APROX 09 RN DST N NW=
200707071500 METAR MRPV 071500Z 09010KT 9999 3000N FEW025 SCT130 BKN250 24/19 A3001 RMK RN N NW=
200707071600 METAR MRPV 071600Z 09010KT 9999 FEW030 SCT100 BKN250 24/18 A3002 RMK RN NE DU 09=
200707071700 METAR MRPV 071700Z 10010KT 9999 -RA FEW030 SCT100 BKN250 23/18 A3002=
200707071800 METAR MRPV 071800Z 10010KT 9999 -DZ FEW030 SCT100 BKN250 24/18 A3000=
200707071900 METAR MRPV 071900Z 09008KT 9999 FEW030 SCT100 BKN250 26/18 A2996 RMK CB DST SW=
200707072000 METAR MRPV 072000Z 09005KT 9999 FEW030 SCT100 BKN250 27/17 A2995 RMK CB DST SW=
200707072100 METAR MRPV 072100Z 09008KT 9999 -RA FEW030 SCT100 OVC250 25/18 A2995=
200707072200 METAR MRPV 072200Z 09010KT 9999 FEW025 SCT100 OVC250 23/18 A2994=
200707072300 METAR MRPV 072300Z 10009KT 9999 FEW025 SCT100 OVC250 23/18 A2996 RMK RA DST NE=
200707080000 METAR MRPV 080000Z NIL=
200707080100 METAR MRPV NIL=
200707080200 METAR MRPV NIL=
200707080300 METAR MRPV NIL=
200707080400 METAR MRPV NIL=
200707080500 METAR MRPV NIL=
200707080600 METAR MRPV NIL=
200707080700 METAR MRPV NIL=
200707080800 METAR MRPV NIL=
200707080900 METAR MRPV NIL=
200707081000 METAR MRPV NIL=
200707081100 METAR MRPV NIL=
200707081200 METAR MRPV NIL=
200707081300 METAR MRPV 081300Z 12010KT 9999 FEW040 SCT120 BKN250 23/17 A3000=
200707081400 METAR MRPV 081400Z 10010KT 9999 FEW035 SCT120 BKN250 24/17 A3000=
200707081500 METAR MRPV 081500Z 08012KT 9999 FEW040 SCT120 BKN250 25/18 A3002=
200707081600 METAR MRPV 081600Z 09012KT 9999 SCT045 SCT120 BKN250 26/18 A3004=
200707081700 METAR MRPV 081700Z 08011KT 9999 SCT040 BKN120 26/18 A3003=
200707081800 METAR MRPV 081800Z 08008KT 9999 SCT035 BKN120 26/19 A3002=
200707081900 METAR MRPV 081900Z 07010KT 9999 SCT030 BKN120 26/17 A2998=
200707082000 METAR MRPV 082000Z 07009KT 9999 FEW010CB SCT020 BKN100 25/18 A2998 RMK SHRA DST SW W=
200707082100 METAR MRPV 082100Z 32009KT 9999 VCSH SCT020CB BKN100 21/19 A3000 RMK RASH VIS 6KMS NE=
200707082200 METAR MRPV 082200Z 32004KT 4000 BR VCSH SCT002 BKN010 21/19 A3000=
200707082300 METAR MRPV 082300Z 30002KT 5000 -RA BR SCT005 BKN015 20/19 A3002 RMK SE S SW 3KMS=
200707090000 METAR MRPV NIL=
200707090100 METAR MRPV NIL=
200707090200 METAR MRPV NIL=
200707090300 METAR MRPV NIL=
200707090400 METAR MRPV NIL=
200707090500 METAR MRPV NIL=
200707090600 METAR MRPV NIL=
200707090700 METAR MRPV NIL=
200707090800 METAR MRPV NIL=
200707090900 METAR MRPV NIL=
200707091000 METAR MRPV NIL=
200707091100 METAR MRPV NIL=
200707091200 METAR MRPV 091200Z 08004KT CAVOK 20/16 A3002 RMK BKN250 CB TCU DST S SW TRACE SC=
200707091300 METAR MRPV 091300Z 07008KT CAVOK 22/16 A3002 RMK BKN250 TRACE SC AC CB DST S SW DUST APCH 09=
200707091400 METAR MRPV 091400Z 32002KT CAVOK 24/17 A3004 RMK SCT120 BKN250 TRACE SC DUST APCH 09=
200707091500 METAR MRPV 091500Z 28005KT 9999 FEW035 SCT120 BKN250 24/18 A3004=
200707091600 METAR MRPV 091600Z 06006KT 9999 SCT040 BKN120 27/18 A3002=
200707091700 METAR MRPV 091700Z 09006KT 9999 SCT035 BKN120 28/17 A3003=
200707091800 METAR MRPV 091800Z 27009KT 9999 SCT012TCU BKN030 25/18 A3001=
200707091900 METAR MRPV 091900Z 32007KT 9999 4000N -TS VCSH SCT012CB SCT015 BKN040 23/18 A3001=
200707092000 METAR MRPV 092000Z 35004KT 9999 4000E VCSH FEW015CB BKN030 23/19 A2999=
200707092100 METAR MRPV 092100Z 12002KT 4000 -RA BR SCT008 BKN015 21/19 A2999 RMK VIS S UNL=
200707092200 METAR MRPV 092200Z 12002KT 8000 3000N -RA BR SCT010 BKN100 20/19 A3000 TSTM OCACIONAL DST N=
200707092300 METAR MRPV 092300Z 12002KT 5000 -RA BR FEW008 SCT015 BKN100 20/18 A3001 RMK VIS S UNL=
200707100000 METAR MRPV NIL=
200707100100 METAR MRPV NIL=
200707100200 METAR MRPV NIL=
200707100300 METAR MRPV NIL=
200707100400 METAR MRPV NIL=
200707100500 METAR MRPV NIL=
200707100600 METAR MRPV NIL=
200707100700 METAR MRPV NIL=
200707100800 METAR MRPV NIL=
200707100900 METAR MRPV NIL=
200707101000 METAR MRPV NIL=
200707101100 METAR MRPV NIL=
200707101200 METAR MRPV 101200Z 10008KT 9999 SCT030 SCT250 20/17 A3002 RMK CB DST S POLVO APROXIMACION PISTA 09 DZ DST N=
200707101300 METAR MRPV 101300Z 12008KT 9999 FEW035 SCT130 22/17 A3004 RMK POLVO APROXIMACION 09=
200707101400 METAR MRPV 101400Z 10009KT 9999 FEW030 SCT300 23/18 A3003 RMK RAFAGAS 14KT DZ N NE=
200707101500 METAR MRPV 101500Z 10012KT 9999 FEW035 BKN250 24/19 A3004 RMK RAFAGAS 18KT DZ N=
200707101600 METAR MRPV 101600Z 11009KT 9999 FEW040 SCT250 25/19 A3003 RMK DZ N=
200707101700 METAR MRPV 101700Z 12010KT 9999 SCT025 SCT250 27/18 A3002 RMK CB W=
200707101800 METAR MRPV 101800Z 09010KT 9999 FEW015TCU SCT035 SCT250 27/19 A3000 RMK DU APROXIMACION 09 RASH NW=
200707101900 METAR MRPV 101900Z 09008KT 9999 FEW015TCU BKN030 26/19 A3002=
200707102000 METAR MRPV 102000Z 26004KT 9999 SCT012TCU BKN025 24/21 A2998=
200707102100 METAR MRPV 102100Z 28003KT 9999 4000W VCSH FEW010CB BKN025 23/19 A2997 TS W NW MOVING TO SW=
200707102200 METAR MRPV 102200Z 10007KT 9999 BKN030 23/18 A2997 TCU RN NE NW=
200707102300 METAR MRPV 102300Z 11010KT 9999 VCSH FEW035 BKN100 22/18 A2997 VSBY NE 8KM RN NW=
200707110000 METAR MRPV NIL=
200707110100 METAR MRPV NIL=
200707110200 METAR MRPV NIL=
200707110300 METAR MRPV NIL=
200707110400 METAR MRPV NIL=
200707110500 METAR MRPV NIL=
200707110600 METAR MRPV NIL=
200707110700 METAR MRPV NIL=
200707110800 METAR MRPV NIL=
200707110900 METAR MRPV NIL=
200707111000 METAR MRPV NIL=
200707111100 METAR MRPV NIL=
200707111200 METAR MRPV 111200Z 14006KT CAVOK 21/17 A2996 RMK SCT120 BKN250 TRACE SC CB DST W=
200707111300 METAR MRPV 111300Z 13006KT 9999 FEW030 SCT120 BKN250 22/17 A2999=
200707111400 METAR MRPV 111400Z 12008KT 9999 FEW030 BKN250 23/17 A3001 TCU SW=
200707111500 METAR MRPV 111500Z 10012KT 9999 FEW030 BKN250 24/17 A3001 CB SW=
200707111600 METAR MRPV 111600Z 08008KT 9999 FEW030 SCT100 BKN250 26/18 A3000=
200707111700 METAR MRPV 111700Z 08010KT 9999 FEW030 SCT100 BKN250 27/18 A3000 RN NE=
200707111800 METAR MRPV 111800Z 07014KT 9999 FEW012 BKN025 25/17 A3000 RN E SE=
200707111900 METAR MRPV 111900Z 12010KT 9999 SCT015 SCT025 BKN250 25/19 A2997 RN SE W=
200707112000 METAR MRPV 112000Z 08012KT 9999 SCT010 SCT025 BKN250 25/18 A2997 RN S=
200707112100 METAR MRPV 112100Z 12012KT 9999 FEW020 SCT030 BKN250 21/16 A2996 RMK TS DST W=
200707112200 METAR MRPV 112200Z 12013KT 9999 SCT030 OVC250 22/15 A2995 RMK CB DST NW=
200707112300 METAR MRPV 112300Z 12012KT 9999 FEW030 OVC250 22/15 A2995 RMK CB DST NW=
200707120000 METAR MRPV 120000Z NIL=
200707120100 METAR MRPV NIL=
200707120200 METAR MRPV NIL=
200707120300 METAR MRPV NIL=
200707120400 METAR MRPV NIL=
200707120500 METAR MRPV NIL=
200707120600 METAR MRPV NIL=
200707120700 METAR MRPV NIL=
200707120800 METAR MRPV NIL=
200707120900 METAR MRPV NIL=
200707121000 METAR MRPV NIL=
200707121100 METAR MRPV NIL=
200707121200 METAR MRPV 121200Z 12010KT 9999 FEW030 BKN100 20/16 A2998 RMK DZ N NE DST=
200707121300 METAR MRPV 121300Z 10008KT 9999 FEW030 SCT100 21/17 A3000 RMK DZ NE TCU DST S SCT250 GST13KT=
200707121400 METAR MRPV 121400Z 10011KT 9999 FEW035 BKN250 23/17 A3000 RMK CB DST SW NE GST16KT=
200707121500 METAR MRPV 121500Z 09015KT 9999 FEW030 BKN250 24/17 A3001 RMK CB DST SW=
200707121600 METAR MRPV 121600Z 08014KT 9999 FEW030 BKN250 26/18 A3001 RMK CB DST SW GST20KT=
200707121700 METAR MRPV 121700Z 08011KT 9999 SCT020TCU SCT250 27/18 A3000 RMK CB DST SE=
200707121800 METAR MRPV 121800Z 08012KT 9999 SCT020TCU SCT250 26/18 A2998 RMK RN DST W SW CB DST SW=
200707121900 METAR MRPV 121900Z 28012KT 9999 VCTS FEW010CB SCT025TCU BKN250 24/19 A2995 RMK 8000 SW=
200707122000 METAR MRPV 122000Z 26008KT 9999 FEW010CB BKN022 22/18 A2996 RMK TS DST SW NW=
200707122100 METAR MRPV 122100Z 33006KT 3000 TS RA FEW010CB BKN020 20/18 A2997=
200707122200 METAR MRPV 122200Z VRB03KT 5000 2000N RA VCSH SCT010 BKN020 20/18 A2997 RMK VIS 9999 S=
200707122300 METAR MRPV 122300Z 09005KT 5000 2000N +RA SCT010 OVC090 19/18 A2999 RMK VIS 9999 S=
200707130000 METAR MRPV NIL=
200707130100 METAR MRPV NIL=
200707130200 METAR MRPV NIL=
200707130300 METAR MRPV NIL=
200707130400 METAR MRPV NIL=
200707130500 METAR MRPV NIL=
200707130600 METAR MRPV NIL=
200707130700 METAR MRPV NIL=
200707130800 METAR MRPV NIL=
200707130900 METAR MRPV NIL=
200707131000 METAR MRPV NIL=
200707131100 METAR MRPV NIL=
200707131200 METAR MRPV NIL=
200707131300 METAR MRPV 131300Z 10010KT 9999 FEW015 BKN250 20/17 A3001 RMK CB DST N NE POLVO APROXIMACION PISTA 09=
200707131400 METAR MRPV 131400Z 10008KT CAVOK 22/17 A3002 RMK CB DST N NE TRACE SC BKN250 POLVO APROXIMACION PISTA 09=
200707131500 METAR MRPV 131500Z 12009KT CAVOK 24/18 A3002 RMK TRACE SC BKN250=
200707131600 METAR MRPV 131600Z NIL=
200707131700 METAR MRPV 131700Z 07012KT 9999 SCT025 BKN250 28/18 A3002 RMK TCU DST W NW=
200707131800 METAR MRPV 131800Z 27007KT 9999 SCT020TCU BKN250 25/20 A3001 RMK RN DST NE=
200707131900 METAR MRPV 131900Z 31005KT 9999 FEW015TCU BKN250 25/20 A2999 RMK CB DST SE RN DST N=
200707132000 METAR MRPV 132000Z 27006KT 9999 2000NW TSRA SCT008CB BKN020 24/20 A24/20 A2997 RMK TS MOVIENDOSE NW AL SE=
200707132100 METAR MRPV 132100Z 24003KT 9999 VCSH FEW004 FEW010CB BKN025 22/20 A2997 RMK VIS E W 7KMS ST MVNG W TO E OCNL TS DST SW=
200707132200 METAR MRPV 132200Z 28006KT 4000 BR SCT002 BKN008 21/20 A2997 RMK TSTM DST S=
200707132300 METAR MRPV 132300Z 28006KT 4000 BR SCT002 BKN008 21/20 A2997 RMK TSTM DST S=
200707140000 METAR MRPV NIL=
200707140100 METAR MRPV NIL=
200707140200 METAR MRPV NIL=
200707140300 METAR MRPV NIL=
200707140400 METAR MRPV NIL=
200707140500 METAR MRPV NIL=
200707140600 METAR MRPV NIL=
200707140700 METAR MRPV NIL=
200707140800 METAR MRPV NIL=
200707140900 METAR MRPV NIL=
200707141000 METAR MRPV NIL=
200707141100 METAR MRPV NIL=
200707141200 METAR MRPV 141200Z 09002KT 9999 SCT010 BKN020 18/17 A3002 RMK=
200707141300 METAR MRPV 141300Z 08005KT 9999 SCT020 BKN250 19/18 A3002 RMK DZ DST NE DUST APCH 09 CB DST S SW W=
200707141400 METAR MRPV 141400Z 13004KT 9999 SCT030 BKN250 23/18 A3003=
200707141500 METAR MRPV 141500Z 08009KT 9999 SCT030 SCT120 BKN250 24/18 A3002=
200707141600 METAR MRPV 141600Z 09005KT 9999 SCT030 BKN250 25/18 A3002=
200707141700 METAR MRPV 141700Z 29008KT 9999 SCT020 BKN250 25/20 A3002=
200707141800 METAR MRPV 141800Z 29009KT 9999 FEW015TCU SCT025 BKN120 25/20 A3000 CB RASH DST N NE=
200707141900 METAR MRPV 141900Z 28007KT 4000 TSRA FEW005 SCT010CB BKN015 21/19 A3000 RMK VIS NW 8KMS=
200707142000 METAR MRPV 142000Z 30005KT 4000 -RA BR SCT005 BKN010 21/20 A2998=
200707142100 METAR MRPV 142100Z 34002KT 4000 RA BR SCT003 BKN008 21/20 A2997=
200707142200 METAR MRPV 142200Z 30004KT 4000 -RA BR SCT002 BKN008 21/20 A2998=
200707142300 METAR MRPV 142300Z 00000KT 9999 4000S VCFG SCT006 BKN100 21/20 A2998=
200707150000 METAR MRPV NIL=
200707150100 METAR MRPV NIL=
200707150200 METAR MRPV NIL=
200707150300 METAR MRPV NIL=
200707150400 METAR MRPV NIL=
200707150500 METAR MRPV NIL=
200707150600 METAR MRPV NIL=
200707150700 METAR MRPV NIL=
200707150800 METAR MRPV NIL=
200707150900 METAR MRPV NIL=
200707151000 METAR MRPV NIL=
200707151100 METAR MRPV NIL=
200707151200 METAR MRPV 151200Z NIL=
200707151300 METAR MRPV 151300Z 11004KT CAVOK 23/18 A3002 SCT250 RMK TRACE SC=
200707151400 METAR MRPV 151400Z 11004KT 9999 FEW040 SCT250 24/18 A3004=
200707151500 METAR MRPV 151500Z 10007KT 9999 FEW040 BKN250 26/18 A3005=
200707151600 METAR MRPV 151600Z 28007KT 9999 SCT030 BKN100 24/20 A3006=
200707151700 METAR MRPV 151700Z 27004KT 9999 SCT030 BKN100 25/20 A3005=
200707151800 METAR MRPV 151800Z 28006KT 9999 FEW020 SCT035 BKN100 24/19 A3005 RMK CB RN N NE=
200707151900 METAR MRPV 151900Z 29006KT 9999 4000SW VCFG SCT004 SCT015 BKN100 24/21 A3002 RMK RASH N NE E=
200707152000 METAR MRPV 152000Z 28006KT 5000 TS VCSH SCT004 BKN015CB 20/19 A3002 RMK VIS E UNL=
200707152100 METAR MRPV 152100Z 18002KT 9999 SCT025 OVC100 21/20 A3001=
200707152200 METAR MRPV 152200Z 24002KT 4000 -TSRA SCT004 BKN010CB 21/20 A3001 VSBY NE E 8KM=
200707152300 METAR MRPV 152300Z 00000KT 9999 VCFG SCT020 OVC100 21/20 A3000 VSBY NW N 6KM DUE FG=
200707160000 METAR MRPV NIL=
200707160100 METAR MRPV NIL=
200707160200 METAR MRPV NIL=
200707160300 METAR MRPV NIL=
200707160400 METAR MRPV NIL=
200707160500 METAR MRPV NIL=
200707160600 METAR MRPV NIL=
200707160700 METAR MRPV NIL=
200707160800 METAR MRPV NIL=
200707160900 METAR MRPV NIL=
200707161000 METAR MRPV NIL=
200707161100 METAR MRPV NIL=
200707161200 METAR MRPV 161200Z 12008KT 9999 FEW030 BKN250 21/17 A3001 RMK DZ DST NE RFGS 13KT=
200707161300 METAR MRPV 161300Z 12008KT CAVOK 22/17 A3002 SCT120 BKN250 TRAZAS SCT DU PISTA 09=
200707161400 METAR MRPV 161400Z 10012KT 9999 FEW035 BKN120 22/16 A3003 HZY RAFAGAS 17KT=
200707161500 METAR MRPV 161500Z 09014KT 9999 SCT035 BKN120 23/16 A3002=
200707161600 METAR MRPV 161600Z 08014KT 9999 SCT030 BKN120 25/16 A3003=
200707161700 METAR MRPV 161700Z 07015KT 9999 FEW020 SCT030 BKN120 25/16 A3006=
200707161800 METAR MRPV 161800Z 08013KT 9999 SCT030 BKN120 25/15 A3002=
200707161900 METAR MRPV 161900Z 09012G22KT 9999 FEW025 OVC120 25/16 A3000=
200707162000 METAR MRPV 162000Z 09014KT 9999 SCT030 BKN120 25/16 A3000=
200707162100 METAR MRPV 162100Z 08014KT 9999 SCT030 BKN120 25/16 A2998 RMK RN DST E=
200707162200 METAR MRPV 162200Z 08011KT 9999 FEW035 BKN120 26/16 A2997 RMK TCU RN E=
200707162300 METAR MRPV 162300Z 07010KT 9999 FEW040 BKN120 24/14 A2998=
200707170000 METAR MRPV 170000Z NIL=
200707170100 METAR MRPV NIL=
200707170200 METAR MRPV NIL=
200707170300 METAR MRPV NIL=
200707170400 METAR MRPV NIL=
200707170500 METAR MRPV NIL=
200707170600 METAR MRPV NIL=
200707170700 METAR MRPV NIL=
200707170800 METAR MRPV NIL=
200707170900 METAR MRPV NIL=
200707171000 METAR MRPV NIL=
200707171300 METAR MRPV 171300Z 13009KT CAVOK 21/15 A3003 RMK DU 09 BKN110=
200707171400 METAR MRPV 171400Z 12008KT CAVOK 24/16 A3004 RMK FEW110 SCT250 DU 09 CB DST E=
200707171500 METAR MRPV 171500Z 11010KT 9999 FEW030 SCT110 BKN250 24/17 A3005 RMK DU 09 RN DST E=
200707171600 METAR MRPV 171600Z 09012KT FEW030 SCT110 BKN250 24/17 A3007 RMK RN DST E=
200707171700 METAR MRPV 171700Z 09013KT 9999 SCT030 BKN250 24/17 A3008 RMK LINE RN E=
200707171800 METAR MRPV 171800Z 10010KT 9999 FEW015 SCT030 OVC250 23/18 A3008 RMK=
200707171900 METAR MRPV 171900Z 09012KT 9999 SCT012 SCT030 OVC250 23/16 A3004 RMK RN SE NW=
200707172000 METAR MRPV 172000Z 10010KT 9999 SCT025 OVC250 24/17 A3001 RMK RN DST E W=
200707172100 METAR MRPV 172100Z 09008KT 9999 FEW030 BKN250 26/16 A2998 RMK RN DST W=
200707172200 METAR MRPV 172200Z 04006KT 9999 FEW020 OVC250 25/16 A2998 RMK RN DST E W=
200707172300 METAR MRPV 172300Z 27005KT 9999 FEW010 SCT110 BKN250 23/20 A3000=
200707180000 METAR MRPV 180000Z NIL=
200707180100 METAR MRPV NIL=
200707180200 METAR MRPV NIL=
200707180300 METAR MRPV NIL=
200707180400 METAR MRPV NIL=
200707180500 METAR MRPV NIL=
200707180600 METAR MRPV NIL=
200707180700 METAR MRPV NIL=
200707180800 METAR MRPV NIL=
200707180900 METAR MRPV NIL=
200707181000 METAR MRPV NIL=
200707181100 METAR MRPV NIL=
200707181200 METAR MRPV 181200Z 11010KT 9999 FEW020 SCT250 19/16 A3002 CB/LTNG DST S SW=
200707181300 METAR MRPV 181300Z 10010KT 9999 FEW020 SCT250 21/16 A3004 RMK CB DST S SW=
200707181400 METAR MRPV 181400Z 13009KT 9999 FEW020 SCT250 24/17 A3005 RMK CB DST S SW RN DST NE=
200707181500 METAR MRPV 181500Z 11009KT 9999 FEW018 SCT100 BKN250 23/16 A3005 RMK CB DST S SW=
200707181600 METAR MRPV 181600Z 09009KT 9999 SCT018 BKN250 23/17 A3007 RMK RN DST SW NE=
200707181700 METAR MRPV 181700Z 08010KT 9999 -DZ SCT018 SCT120 BKN250 23/18 A3006=
200707181800 METAR MRPV 181800Z 09008KT 9999 FEW020 SCT120 BKN250 24/18 A3005 REDZ=
200707181900 METAR MRPV 181900Z 27009KT 7000 3000W VCFG BR SCT002 BKN018 22/19 A3004 RMK ST MOVIENDOSE W AL E=
200707182000 METAR MRPV 182000Z 28004KT 8000 3500W VCFG BR SCT002 BKN020 23/19 A3003 RMK VIS 9999 E SE=
200707182100 METAR MRPV 182100Z 07009KT 9999 SCT010 SCT120 BKN250 24/19 A3001 RMK 6KMS TO W DUE RN=
200707182200 METAR MRPV 182200Z 10012G22KT 9999 SCT018 SCT120 BKN250 22/17 A3001 RMK VIS E 6KMS=
200707182300 METAR MRPV 182300Z 11010KT 9999 4000E -RA FEW020 SCT120 BKN250 20/17 A3002=
200707190000 METAR MRPV NIL=
200707190100 METAR MRPV NIL=
200707190200 METAR MRPV NIL=
200707190300 METAR MRPV NIL=
200707190400 METAR MRPV NIL=
200707190500 METAR MRPV NIL=
200707190600 METAR MRPV NIL=
200707190700 METAR MRPV NIL=
200707190800 METAR MRPV NIL=
200707190900 METAR MRPV NIL=
200707191000 METAR MRPV NIL=
200707191100 METAR MRPV NIL=
200707191200 METAR MRPV 191200Z 12008KT 9999 FEW020 SCT250 20/16 A3001 RMK HZ W=
200707191300 METAR MRPV 191300Z 12008KT 9999 FEW020 SCT080 22/17 A3002 RMK VIS NW DUE HZ=
200707191400 METAR MRPV 191400Z 13010KT 9999 FEW020 24/17 A3003 RMK VIS NW 6KMS DUE HZ=
200707191500 METAR MRPV 191500Z 10010KT 9999 SCT020 24/17 A3004 RMK 6KMS NW DUE HZ=
200707191600 METAR MRPV 191600Z 09010KT 9999 SCT020 26/16 A3005 RMK HZY=
200707191700 METAR MRPV 191700Z 09006KT 9999 FEW010 SCT024 27/17 A3004 RMK HZY TCU DST S=
200707191800 METAR MRPV 191800Z 27011KT 9999 FEW010TCU SCT024 25/18 A3003 RMK HZY=
200707191900 METAR MRPV 191900Z 27010KT 9999 SCT010TCU SCT025 24/19 A3002 RMK RN DST NE NW=
200707192000 METAR MRPV 192000Z 27010KT 8000 2000N -TSRA SCT008CB BKN025 23/20 A3000 RMK VIS S UNLTD=
200707192100 METAR MRPV 192100Z 30008KT 7000 2000 NW VCSH FEW004 FEW010CB BKN025 23/19 A2999=
200707192200 METAR MRPV 192200Z 28007KT 7000 3000E VCSH SCT002 BKN022 23/19 A2999=
200707192300 METAR MRPV 192300Z VRB03KT 5000 2400W RA VCSH SCT002 BKN015 20/19 A3001 RMK VIS E UNL=
200707200000 METAR MRPV 200000Z NIL=
200707200100 METAR MRPV NIL=
200707200200 METAR MRPV NIL=
200707200300 METAR MRPV NIL=
200707200400 METAR MRPV NIL=
200707200500 METAR MRPV NIL=
200707200600 METAR MRPV NIL=
200707200700 METAR MRPV NIL=
200707200800 METAR MRPV NIL=
200707200900 METAR MRPV NIL=
200707201000 METAR MRPV NIL=
200707201100 METAR MRPV NIL=
200707201200 METAR MRPV NIL=
200707201300 METAR MRPV 201300Z 10010KT 9999 FEW040 BKN250 22/17 A3003=
200707201400 METAR MRPV 201400Z 10011KT 9999 SCT035 BKN250 24/14 A3004=
200707201500 METAR MRPV 201500Z 09010KT 9999 SCT035 BKN250 25/16 A3004=
200707201600 METAR MRPV 201600Z 06008KT 9999 SCT025 BKN250 26/17 A3005=
200707201700 METAR MRPV 201700Z 08008KT 9999 SCT030 BKN250 27/17 A3003=
200707201800 METAR MRPV 201800Z 08008KT 9999 FEW020 SCT035 BKN250 27/17 A3002=
200707201900 METAR MRPV 201900Z 07010KT 9999 SCT025 SCT120 BKN250 27/17 A2999=
200707202000 METAR MRPV 202000Z 06010KT 9999 SCT030 SCT120 BKN250 27/17 A2997=
200707202100 METAR MRPV 202100Z 08009KT 9999 SCT025 SCT120 BKN250 26/17 A2996 TCU RN NW=
200707202200 METAR MRPV NIL=
200707202300 METAR MRPV 202300Z 29008KT 9999 FEW010TCU SCT025 BKN120 22/19 A2998 RASH NW N=
200707210000 METAR MRPV NIL=
200707210100 METAR MRPV NIL=
200707210200 METAR MRPV NIL=
200707210300 METAR MRPV NIL=
200707210400 METAR MRPV NIL=
200707210500 METAR MRPV NIL=
200707210600 METAR MRPV NIL=
200707210700 METAR MRPV NIL=
200707210800 METAR MRPV NIL=
200707210900 METAR MRPV NIL=
200707211000 METAR MRPV NIL=
200707211100 METAR MRPV NIL=
200707211200 METAR MRPV 211200Z 02004KT CAVOK 18/16 A3004 RMK BKN250 HZ W=
200707211300 METAR MRPV 211300Z 13004KT CAVOK 22/16 A3005 BKN250 TRAZAS SCT HZ W=
200707211400 METAR MRPV 211400Z 12006KT CAVOK 24/17 A3007 BKN250 TRAZAS SCT HZ W=
200707211500 METAR MRPV 211500Z 11010KT 9999 FEW040 BKN250 25/17 A3007 HZ W=
200707211600 METAR MRPV 211600Z 08009KT 9999 SCT030 SCT250 27/17 A3007=
200707211700 METAR MRPV 211700Z 36005KT 9999 FEW010TCU SCT025 SCT120 25/19 A3007=
200707211800 METAR MRPV 211800Z 30007KT 9999 BKN025 26/20 A3004=
200707211900 METAR MRPV 211900Z 18005KT 3000 +TSRA FEW006 SCT012CB OVC100 19/18 A3004 VSBY S UNL=
200707212000 METAR MRPV 212000Z 33005KT 9999 SCT020 BKN100 20/18 A3002 RETS TS DST N RASH W NW=
200707212100 METAR MRPV 212100Z 30005KT 9999 VCSH SCT020 BKN100 22/19 A3000 RMK RASH E SW S VIS 5000=
200707212200 METAR MRPV 212200Z 15003KT 9999 SCT020 BKN100 22/20 A3000 RMK RN DST SE=
200707212300 METAR MRPV 212300Z 10007KT 9999 -RA FEW005 SCT015 BKN100 21/18 A3002=
200707220000 METAR MRPV 2200Z NIL=
200707220100 METAR MRPV NIL=
200707220200 METAR MRPV NIL=
200707220300 METAR MRPV NIL=
200707220400 METAR MRPV NIL=
200707220500 METAR MRPV NIL=
200707220600 METAR MRPV NIL=
200707220700 METAR MRPV NIL=
200707220800 METAR MRPV NIL=
200707220900 METAR MRPV NIL=
200707221000 METAR MRPV NIL=
200707221100 METAR MRPV NIL=
200707221200 METAR MRPV NIL=
200707221300 METAR MRPV 221300Z 11003KT CAVOK 20/17 A3007 RMK BKN120 TRACE SC=
200707221400 METAR MRPV 221400Z 11005KT CAVOK 23/17 A3006 RMK BKN120 TRACE SC=
200707221500 METAR MRPV 221500Z 10008KT 9999 SCT030 BKN130 25/18 A3005=
200707221600 METAR MRPV 221600Z 09010KT 9999 SCT030 BKN120 25/17 A3005=
200707221700 METAR MRPV 221700Z 02006KT 9999 FEW015TCU SCT030 BKN120 25/20 A3008 RMK TCU RN DST N NE E=
200707221800 METAR MRPV 221800Z 27010KT 9999 SCT025TCU SCT025 BKN100 24/19 A3006 RMK TCU RN N NE=
200707221900 METAR MRPV 221900Z 28007KT 9999 SCT010TCU SCT025 BKN100 24/20 A3004 RMK CB RN N NE E=
200707222000 METAR MRPV 222000Z 36003KT 9999 3000S TS VCSH FEW008CB SCT020 BKN100 24/18 A3003=
200707222100 METAR MRPV 222100Z 12003KT 8000 -TSRA SCT010 SCT020CB OVC100 18/18 A3000 RMK 5000 W NW TSSHRA=
200707222200 METAR MRPV 222200Z 12005KT 9999 -TSRA SCT010 SCT020CB OVC100 20/18 A3000=
200707222300 METAR MRPV 222300Z 00000KT 2000 +RA BR SCT004 SCT010 OVC100 20/19 A3004=
200707230000 METAR MRPV 230000Z NIL=
200707230100 METAR MRPV NIL=
200707230200 METAR MRPV NIL=
200707230300 METAR MRPV NIL=
200707230400 METAR MRPV NIL=
200707230500 METAR MRPV NIL=
200707230600 METAR MRPV NIL=
200707230700 METAR MRPV NIL=
200707230800 METAR MRPV NIL=
200707230900 METAR MRPV NIL=
200707231000 METAR MRPV NIL=
200707231100 METAR MRPV NIL=
200707231200 METAR MRPV 231200Z 11002KT CAVOK 18/16 A3003 FEW080 BKN250 CB DST SW W DU PISTA 09 TRAZAS SCT=
200707231300 METAR MRPV 231300Z 12003KT CAVOK 20/16 A3004 RMK SCT080 SCT250 CB DST=
200707231400 METAR MRPV 231400Z 13003KT CAVOK 23/17 A3005 RMK SCT250 CB DST SW POLVO PROXIMACION PISTA 09 TRAZAS CU/SC=
200707231500 METAR MRPV 231500Z 29005KT 9999 FEW025 SCT250 25/16 A3004 POLVO EN LAS PROXIMIDADES DE LA PISTA CB DST NW SW=
200707231600 METAR MRPV 231600Z 28007KT 9999 SCT025 SCT250 24/18 A3005 POLVO APROXIMACION EN LA PISTA 09 CB DST SW=
200707231700 METAR MRPV 231700Z 27008KT 9999 SCT025 SCT250 25/19 A3005 RMK ROLVO APROXIMACION PISTA 09=
200707231800 METAR MRPV 231800Z 28007KT 9999 SCT025 SCT250 26/19 A3003 RMK TCU E SE=
200707231900 METAR MRPV 231900Z 25008KT 3000 1000S +TSRA SCT010CB SCT025 21/20 A3002=
200707232000 METAR MRPV 232000Z 30010KT 9999 SCT004 BKN020 24/21 A2999 RMK ST MOVIENDOSE NORTE AL SUR=
200707232100 METAR MRPV 232100Z 27008KT 3000 BR SCT002 BKN015 22/20 A2997 RMK ST MOVNG W E=
200707232200 METAR MRPV 232200Z 29007KT 6000 2000NW -RA VCSH SCT002 BKN020 20/20 A2996=
200707232300 METAR MRPV 232300Z 29006KT 5000 2000W BR SCT002 BKN015 20/20 A2997 RMK ST MVNG W TO E=
200707240000 METAR MRPV NIL=
200707240100 METAR MRPV NIL=
200707240200 METAR MRPV NIL=
200707240300 METAR MRPV NIL=
200707240400 METAR MRPV NIL=
200707240500 METAR MRPV NIL=
200707240600 METAR MRPV NIL=
200707240700 METAR MRPV NIL=
200707240800 METAR MRPV NIL=
200707240900 METAR MRPV NIL=
200707241000 METAR MRPV NIL=
200707241100 METAR MRPV NIL=
200707241200 METAR MRPV 241200Z 08006KT CAVOK 17/15 A3000 RMK BKN250 TRACE CU SC DU 09=
200707241300 METAR MRPV 241300Z 07004KT CAVOK 20/17 A3002 RMK SCT250 TRACE CU SC DUST IN APCH RNY 09=
200707241400 METAR MRPV 241400Z 11008KT CAVOK 23/17 A3002 RMK SCT300 TRACE CU SC=
200707241500 METAR MRPV 241500Z 12006KT CAVOK 25/17 A3003 RMK DUST APCH 09 TRACE SC CB DST SW SCT300=
200707241600 METAR MRPV 241600Z 10005KT CAVOK 2717 A3002 RMK TRACE SC FEW100 SCT300 CB DST DUST APCH 09=
200707241700 METAR MRPV 241700Z 27008KT 9999 FEW020 SCT300 26/18 A3000 RMK TCU N NW=
200707241800 METAR MRPV 241800Z 28008KT 9999 FEW020 SCT300 27/19 A2999 RMK CB DST SE TCU N NW=
200707241900 METAR MRPV 241900Z 27010KT 9999 SCT020 SCT300 26/19 A2997 RMK CB DST SE TCU N NW SW=
200707242000 METAR MRPV 242000Z 28014KT 9999 4000 TS VCSH FEW010CB SCT025TCU 24/21 A2995=
200707242100 METAR MRPV 242100Z 29008KT 4000 1000N -TSRA FEW002 FEW006CB BKN014 21/20 A2994 RMK LOW ST W=
200707242200 METAR MRPV 242200Z 28008KT 3000 -DZ BR SCT002 BKN012 20/20 A2995 RMK CONDICIONES VARIABLES TORMENTA DISIPANDOSE AL W=
200707242300 METAR MRPV 242300Z 32004KT 3000 BR SCT002 BKN012 21/20 A2994 RMK ST MOVIENDOSE W A E=
200707250000 METAR MRPV 250000Z NIL=
200707250100 METAR MRPV NIL=
200707250200 METAR MRPV NIL=
200707250300 METAR MRPV NIL=
200707250400 METAR MRPV NIL=
200707250500 METAR MRPV NIL=
200707250600 METAR MRPV NIL=
200707250700 METAR MRPV NIL=
200707250800 METAR MRPV NIL=
200707250900 METAR MRPV NIL=
200707251000 METAR MRPV NIL=
200707251100 METAR MRPV NIL=
200707251200 METAR MRPV 251200Z 10004KT CAVOK 18/16 A2998 RMK FEW080 BKN300 CB DST ENE=
200707251300 METAR MRPV 251300Z 12006KT CAVOK 20/16 A3001 RMK BKN300 TRACE SC AC RAFAGAS 12KT=
200707251400 METAR MRPV 251400Z 09010KT CAVOK 23/17 A3003 TRACE SCT BKN250 HZ W=
200707251500 METAR MRPV 251500Z 09002KT CAVOK 26/17 A3005 RMK TRACE SC FEW100 SCT250 HZ W=
200707251600 METAR MRPV 251600Z 08011KT 9999 FEW020 SCT100 BKN250 26/17 A3006 RMK HZ W RN E DU APROXIMACION 09=
200707251700 METAR MRPV 251700Z 08009KT 9999 SCT016 SCT100 BKN250 24/18 A3005 RMK RN NE NW HZ W DU APROXIMACION 09=
200707251800 METAR MRPV 251800Z 08006KT 9999 FEW018 SCT100 BKN250 26/18 A3003 RMK DU APROXIMACION 09 HZ W=
200707251900 METAR MRPV 251900Z 08009KT 9999 FEW015 SCT100 BKN250 25/18 A3001 RMK RN N NE HZ W DU APROXIMACION 09=
200707252000 METAR MRPV 252000Z 09013KT 9999 FEW018 SCT100 BKN250 24/18 A2999 RMK RN N NE=
200707252100 METAR MRPV 252100Z 08008KT 9999 FEW014 SCT100 BKN250 23/18 A3000 RN N LOW ST W=
200707252200 METAR MRPV 252200Z 29009KT 9999 FEW002 SCT100 BKN250 21/20 A3001 RN DST N=
200707252300 METAR MRPV 252300Z VRB03KT 8000 VCFG SCT002 BKN018 21/19 A2999 VSBY S N UNL=
200707260000 METAR MRPV NIL=
200707260100 METAR MRPV NIL=
200707260200 METAR MRPV NIL=
200707260300 METAR MRPV NIL=
200707260400 METAR MRPV NIL=
200707260500 METAR MRPV NIL=
200707260600 METAR MRPV NIL=
200707260700 METAR MRPV NIL=
200707260800 METAR MRPV NIL=
200707260900 METAR MRPV NIL=
200707261000 METAR MRPV NIL=
200707261100 METAR MRPV NIL=
200707261200 METAR MRPV 261200Z 14005KT CAVOK 18/14 A3001 RMK BKN250 TRACE CU SC CB DST SW=
200707261300 METAR MRPV 261300Z 01002KT CAVOK 21/15 A3002 BKN250 CB SW=
200707261400 METAR MRPV 261400Z 14005KT CAVOK 23/15 A3004 BKN250 CB DST SW=
200707261500 METAR MRPV 261500Z 13004KT CAVOK 25/14 A3007 BKN250 TRAZAS SCT CB SW=
200707261600 METAR MRPV 261600Z 10003KT CAVOK 26/17 A3006 BKN270 TRAZAS SCT CB SW=
200707261700 METAR MRPV 261700Z 29005KT 9999 FEW030 BKN250 26/18 A3005=
200707261800 METAR MRPV 261800Z 27003KT 9999 SCT030 BKN250 28/20 A3003=
200707261900 METAR MRPV 261900Z 08009KT 9999 FEW020TCU SCT035 BKN250 27/17 A3000=
200707262000 METAR MRPV 262000Z 07010KT 9999 SCT025 BKN120 26/17 A2998=
200707262100 METAR MRPV 262100Z 05004KT 9999 FEW012 SCT025 BKN120 26/17 A2996=
200707262200 METAR MRPV 262200Z 28009KT 9999 4000SW VCFG SCT010 SCT025 BKN120 23/20 A2997=
200707262300 METAR MRPV 262300Z 27005KT 5000 VCFG SCT005 BKN020 23/20 A2997 RMK=
200707270000 METAR MRPV 270000Z NIL=
200707270100 METAR MRPV NIL=
200707270200 METAR MRPV NIL=
200707270300 METAR MRPV NIL=
200707270400 METAR MRPV NIL=
200707270500 METAR MRPV NIL=
200707270600 METAR MRPV NIL=
200707270700 METAR MRPV NIL=
200707270800 METAR MRPV NIL=
200707270900 METAR MRPV NIL=
200707271000 METAR MRPV NIL=
200707271100 METAR MRPV NIL=
200707271200 METAR MRPV 271200Z 09007KT CAVOK 19/16 A2999 RMK TRACE SC AC BKN250 VB S SW DU AROXIMACION 09=
200707271300 METAR MRPV 271300Z 12008KT CAVOK 23/16 A3002 RMK CB DST S SW TRACE SC AC BKN250 GST13KT=
200707271400 METAR MRPV 271400Z 05006KT CAVOK 25/17 A3003 RMK CB S SW TRACE SC BKN250 DU 09=
200707271500 METAR MRPV 271500Z 07006KT CAVOK 27/16 A3003 RMK TRACE SC BKN250=
200707271600 METAR MRPV 271600Z 28007KT 9999 FEW035 BKN250 26/19 A3003 RMK DU 09=
200707271700 METAR MRPV 271700Z 27010KT 9999 SCT025 BKN250 26/20 A3002 RMK TCU SCT ARND=
200707271800 METAR MRPV 271800Z 25007KT 9999 SCT025 BKN250 26/20 A3000 RMK CB RASH N TCU SCT ARND=
200707271900 METAR MRPV 271900Z 36010KT 7000 2000N +TSRA SCT006CB SCT010 BKN100 23/19 A2999=
200707272000 METAR MRPV 272000Z 00000KT 9999 -TSRA SCT015CB BKN100 21/19 A2998=
200707272100 METAR MRPV 272100Z 02002KT 9999 TS VCSH SCT010 SCT020CB OVC100 21/19 A2997 RMK 5000SW=
200707272200 METAR MRPV 272200Z 22002KT 9999 VCFG SCT010 BKN100 20/19 A2998 RMK 5000W=
200707272300 METAR MRPV 272300Z 02003KT 9999 FEW020 OVC100 20/19 A2998=
200707280000 METAR MRPV 280000Z NIL=
200707280100 METAR MRPV NIL=
200707280200 METAR MRPV NIL=
200707280300 METAR MRPV NIL=
200707280400 METAR MRPV NIL=
200707280500 METAR MRPV NIL=
200707280600 METAR MRPV NIL=
200707280700 METAR MRPV NIL=
200707280800 METAR MRPV NIL=
200707280900 METAR MRPV NIL=
200707281000 METAR MRPV NIL=
200707281100 METAR MRPV NIL=
200707281200 METAR MRPV 281200Z 13009KT CAVOK 20/16 A2995 BKN250 TRAZAS SCT CB SW=
200707281300 METAR MRPV 281300Z 14009KT 9999 FEW030 BKN250 22/17 A2998 RMK HZ W CB DST SW=
200707281400 METAR MRPV 281400Z 11010KT 9999 FEW030 BKN250 24/17 A2999 RMK CB DST SW=
200707281500 METAR MRPV 281500Z 08015KT 9999 FEW030 BKN250 24/17 A2999=
200707281600 METAR MRPV 281600Z 07010KT 9999 FEW030 SCT250 26/18 A2999=
200707281700 METAR MRPV 281700Z 06007KT 9999 SCT030 SCT250 28/18 A2998=
200707281800 METAR MRPV 281800Z 06007KT 9999 BKN030 28/18 A2996=
200707281900 METAR MRPV 281900Z 32004KT 9999 FEW020TCU BKN030 27/20 A2992=
200707282000 METAR MRPV 282000Z 33006KT 9999 TS FEW015CB SCT025 BKN080 26/21 A2991 RMK CB SHRA DST NW=
200707282100 METAR MRPV 282100Z 30008KT 9999 TS VCSH FEW008CB SCT020 BKN100 24/21 A2991 RMK RASH SW W VIS 5KMS=
200707282200 METAR MRPV 282200Z 26005KT 9999 TS VCSH SCT010CB BKN020 21/19 A2992=
200707282300 METAR MRPV 282300Z 17003KT 9999 -RA FEW025 OVC100 21/19 A2995=
200707290000 METAR MRPV 290000Z NIL=
200707290100 METAR MRPV NIL=
200707290200 METAR MRPV NIL=
200707290300 METAR MRPV NIL=
200707290400 METAR MRPV NIL=
200707290500 METAR MRPV NIL=
200707290600 METAR MRPV NIL=
200707290700 METAR MRPV NIL=
200707290800 METAR MRPV NIL=
200707290900 METAR MRPV NIL=
200707291000 METAR MRPV NIL=
200707291100 METAR MRPV NIL=
200707291200 METAR MRPV NIL=
200707291300 METAR MRPV 291300Z 10007KT CAVOK 23/17 A2997 RMK CB DST SW BKN250=
200707291400 METAR MRPV 291400Z 11009KT CAVOK 24/18 A2997 RMK CB DST SW TRACE SC BKN250=
200707291500 METAR MRPV 291500Z 08012KT CAVOK 26/17 A2996 RMK TRACE SC BKN250=
200707291600 METAR MRPV 291600Z 08014KT 9999 FEW020 BKN250 26/17 A2997=
200707291700 METAR MRPV 291700Z 07010KT 9999 FEW020 BKN250 27/17 A2997 RMK TCU SW=
200707291800 METAR MRPV 291800Z 05009KT 9999 SCT020 BKN250 27/17 A2996 RMK TCU SW RN NW=
200707291900 METAR MRPV 291900Z 29006KT 9999 FEW010TCU SCT025 BKN250 26/20 A2995 RMK RN DST NW=
200707292000 METAR MRPV 292000Z 27007KT 8000 3000N TS VCSH FEW010CB BKN022 25/21 A2994=
200707292100 METAR MRPV 292100Z VRB03KT 5000 2400NW -TSRA FEW010CB BKN020 21/20 A2993 RMK VIS E SE UNL=
200707292200 METAR MRPV 292200Z 11008KT 9999 FEW008 BKN250 23/19 A2992=
200707292300 METAR MRPV 292300Z 08012KT 9999 FEW010 OVC250 22/18 A2993=
200707300000 METAR MRPV NIL=
200707300100 METAR MRPV NIL=
200707300200 METAR MRPV NIL=
200707300300 METAR MRPV NIL=
200707300400 METAR MRPV NIL=
200707300500 METAR MRPV NIL=
200707300600 METAR MRPV NIL=
200707300700 METAR MRPV NIL=
200707300800 METAR MRPV NIL=
200707300900 METAR MRPV NIL=
200707301000 METAR MRPV NIL=
200707301100 METAR MRPV NIL=
200707301200 METAR MRPV NIL=
200707301300 METAR MRPV 301300Z 07004KT CAVOK 21/16 A2997 RMK BKN250 CB SW NW=
200707301400 METAR MRPV 301400Z VRB03KT CAVOK 24/17 A2999 RMK FEW100 BKN250=
200707301500 METAR MRPV 301500Z 28006KT 9999 FEW020 BKN250 25/18 A3000=
200707301600 METAR MRPV 301600Z 30006KT 999 FEW020 BKN250 26/19 A3000=
200707301700 METAR MRPV 301700Z 27009KT 9999 SCT015 BKN250 26/19 A3000 RMK TCU SW NW RN DST N=
200707301800 METAR MRPV 301800Z VRB03KT 090V170 8000 3000W -TSRA VCSH SCT012CB BKN250 25/19 A2998=
200707301900 METAR MRPV 301900Z 27004KT 9999 3000NW VCSH FEW010 FEW015CB BKN250 25/20 A2997=
200707302000 METAR MRPV 302000Z 08010KT 9999 SCT020TCU BKN250 28/18 A2994=
200707302100 METAR MRPV 302100Z 07006KT 9999 SCT022TCU BKN250 29/18 A2991=
200707302200 METAR MRPV 302200Z 09011KT 9999 FEW010TCU SCT025TCU BKN250 27/18 A2991 DST RN N NW=
200707302300 METAR MRPV 302300Z 10009KT 7000 3000W -RA VCTS FEW002 FEW008CB BKN020 25/18 A2993 VSBY S SE UNL=
200707310000 METAR MRPV NIL=
200707310100 METAR MRPV NIL=
200707310200 METAR MRPV NIL=
200707310300 METAR MRPV NIL=
200707310400 METAR MRPV NIL=
200707310500 METAR MRPV NIL=
200707310600 METAR MRPV NIL=
200707310700 METAR MRPV NIL=
200707310800 METAR MRPV NIL=
200707310900 METAR MRPV NIL=
200707311000 METAR MRPV NIL=
200707311100 METAR MRPV NIL=
200707311200 METAR MRPV 311200Z 10008KT CAVOK 20/17 A2994 RMK TRACE CU SC BKN250=
200707311300 METAR MRPV 311300Z 10009KT CAVOK 22/17 A2996 BKN200 TRAZAS SC/CU DU PISATA 09 RAFAGAS 14KT=
200707311400 METAR MRPV 311400Z 10009KT CAVOK 24/17 A2997 BKN200 TRAZAS CU DU PISAT 09 RAFAGAS 14 NUDOS=
200707311500 METAR MRPV 311500Z 08011KT 9999 FEW045 BKN200 25/18 A2998 DU PISTA 09 RAFAGAS 16KT=
200707311600 METAR MRPV 311600Z 07013KT 9999 FEW045 BKN200 26/18 A2999 POLVO EN LA APROXIMACION DE LA PISTA 09 Y RAFAGAS DE 18 NUDOS=
200707311700 METAR MRPV 311700Z 07012KT 9999 SCT040 BKN200 26/18 A2996 POLVO EN LA APROXIMACION DE LA PISTA 09=
200707311800 METAR MRPV 311800Z 07010KT 9999 FEW020 BKN035 27/18 A2994 POLVO EN LA APROXIMACION DE LA PISTA 09 Y RAFAGAS DE 15 NUDOS=
200707311900 METAR MRPV 311900Z 04007KT 9999 FEW010 FEW015CB BKN030 26/19 A2993 RASH N=
200707312000 METAR MRPV 312000Z 33004KT 9999 FEW010 FEW015TCU BKN030 24/21 A2993 RN W NW=
200707312100 METAR MRPV 312100Z 32007KT 9999 -RA FEW007 BKN025 23/20 A2991 RMK 7000 NW DUE RN LOW ST=
200707312200 METAR MRPV 312200Z 29007KT 9999 FEW008 BKN025 23/20 A2991 RERA=
200707312300 METAR MRPV 312300Z 32006KT 9999 4000NE -RA SCT008 BKN025 22/19 A2994 RMK VIS N NW 7000=
200708010000 METAR MRPV 010000Z NIL=
200708010100 METAR MRPV NIL=
200708010200 METAR MRPV NIL=
200708010300 METAR MRPV NIL=
200708010400 METAR MRPV NIL=
200708010500 METAR MRPV NIL=
200708010600 METAR MRPV NIL=
200708010700 METAR MRPV NIL=
200708010800 METAR MRPV NIL=
200708010900 METAR MRPV NIL=
200708011000 METAR MRPV NIL=
200708011100 METAR MRPV NIL=
200708011200 METAR MRPV 011200Z 13006KT 9999 FEW025 BKN250 21/17 A2994 RMK CB NE HZ W=
200708011300 METAR MRPV 011300Z 12007KT CAVOK 22/17 A2994 RMK FEW0120 BKN250 TRACE CU SC CB DST NE GST12KT=
200708011400 METAR MRPV 011400Z 10010KT 9999 FEW030 SCT200 24/18 A2997 RMK CB DST NE GST15KT=
200708011500 METAR MRPV 011500Z 10010KT 9999 FEW035 SCT250 25/18 A2998 RMK DU 09 CB DST NE=
200708011600 METAR MRPV 011600Z 08011KT 9999 SCT035 SCT250 26/18 A2997 RMK GST16KT=
200708011700 METAR MRPV NIL=
200708011800 METAR MRPV 011800Z 07008KT 9999 SCT035 SCT250 29/18 A2994=
200708011900 METAR MRPV 011900Z 06009KT 9999 FEW040 SCT250 28/17 A2992 RMK TCU DST SW=
200708012000 METAR MRPV 012000Z 27008KT 9999 FEW020TCU SCT035 26/21 A2988 RMK GST14KT=
200708012045 METAR MRPV 012045Z 27012KT 9999 4000NW -RA VCSH FEW006 FEW010CB BKN020 24/21 A2988=
200708012100 METAR MRPV 012100Z 28012KT 9999 4 W -TSRA VCSH FEW006 SCT010CB BKN020 24/21 A2988=
200708012200 METAR MRPV 012200Z 34004KT 9999 4000NW -DZ VCSH FEW005 FEW012CB BKN020 22/22 A2991 RETS TS DST W=
200708012300 METAR MRPV 012300Z 30003KT 9999 -DZ VCSH FEW006 BKN250 22/20 A2992 RMK 8000W RN DISPERSAS DST ARND=
200708020000 METAR MRPV 020000Z NIL=
200708020100 METAR MRPV NIL=
200708020200 METAR MRPV NIL=
200708020300 METAR MRPV NIL=
200708020400 METAR MRPV NIL=
200708020500 METAR MRPV NIL=
200708020600 METAR MRPV NIL=
200708020700 METAR MRPV NIL=
200708020800 METAR MRPV NIL=
200708020900 METAR MRPV NIL=
200708021000 METAR MRPV NIL=
200708021100 METAR MRPV NIL=
200708021200 METAR MRPV 021200Z 11009KT 9999 FEW025 BKN250 21/16 A2995 CB DST SW RAFAGAS 17KT=
200708021300 METAR MRPV 021300Z 11010KT 9999 FEW025 BKN250 23/17 A2996 RMK GUST 15KT=
200708021400 METAR MRPV 021400Z 09014KT 9999 FEW030 BKN250 24/17 A2999 RMK GUST 20KT=
200708021500 METAR MRPV 021500Z 08016KT 9999 SCT040 BKN250 24/18 A3000 RMK DZ DST N NE GUST 24KT=
200708021600 METAR MRPV 021600Z 07017KT 9999 SCT030 BKN250 24/17 A3000 RMK GUST 24KT RN DST E NE=
200708021700 METAR MRPV 021700Z 06016KT 9999 FEW030 BKN250 24/17 A2999 RMK GUST 21KT=
200708021800 METAR MRPV 021800Z 07013KT 9999 FEW040 SCT120 BKN250 26/18 A2997 RMK=
200708021900 METAR MRPV 021900Z 08012KT 9999 SCT035 BKN100 24/17 A2998 RMK GUST 17KT=
200708022000 METAR MRPV 022000Z 08012KT 9999 SCT040 BKN100 25/17 A2994 RMK GUST 17KT=
200708022100 METAR MRPV 022100Z 09011KT 9999 FEW035 SCT120 BKN250 26/16 A2993=
200708022200 METAR MRPV 022200Z 08010KT CAVOK 25/17 A2992 RMK TRACE CU SC FEW120 BKN250 TCU DST SSE CB DST SW=
200708022300 METAR MRPV 022300Z 08008KT 9999 SCT040 BKN250 24/16 A2992 RMK RN DST NE=
200708030000 METAR MRPV 030000Z NIL=
200708030100 METAR MRPV NIL=
200708030200 METAR MRPV NIL=
200708030300 METAR MRPV NIL=
200708030400 METAR MRPV NIL=
200708030500 METAR MRPV NIL=
200708030600 METAR MRPV NIL=
200708030700 METAR MRPV NIL=
200708030800 METAR MRPV NIL=
200708030900 METAR MRPV NIL=
200708031000 METAR MRPV NIL=
200708031100 METAR MRPV NIL=
200708031200 METAR MRPV 031200Z 13006KT CAVOK 20/16 A2997 RMK TRACE SC SCT100 BKN250=
200708031300 METAR MRPV 031300Z 13006KT CAVOK 21/16 A2999 RMK BKN100 SCT250 TRACE SC=
200708031400 METAR MRPV 031400Z 13008KT CAVOK 23/16 A2999 RMK TRACE SC BKN100=
200708031500 METAR MRPV 031500Z 11009KT CAVOK 24/17 A3000 RMK BKN100 TRACE RFGS 15KT=
200708031600 METAR MRPV 031600Z 10011KT CAVOK 26/17 A3001 RMK FEW060 BKN100 TRACE SC RFGS 16KT=
200708031700 METAR MRPV 031700Z 07011KT 9999 FEW035 SCT120 BKN250 26/18 A3000=
200708031800 METAR MRPV 031800Z 08013KT 9999 FEW040 SCT120 BKN250 27/18 A2999 RMK TCU DST E RFGS 19KT=
200708031900 METAR MRPV 031900Z 08010KT 9999 FEW020TCU SCT035 BKN250 28/18 A2997 RMK RN DST NW RFGS 16KT=
200708032000 METAR MRPV 032000Z 10013KT 9999 3000E -RA VCSH SCT015TCU BKN030 23/19 A2996 RMK RFGS 20KT=
200708032100 METAR MRPV 032100Z 13007KT 9999 4000E -RA VCSH SCT015TCU SCT030 22/19 A2995 RMK RAFAGAS 14KT=
200708032200 METAR MRPV 032200Z 14006KT 9999 4000NW VCSH FEW006 FEW012CB BKN020 22/19 2995 RERA=
200708032300 METAR MRPV 032300Z 30006KT 9999 4000W -DZ VCSH FEW005 FEW010TCU SCT015 21/20 A2998=
200708040000 METAR MRPV 040000Z NIL=
200708040100 METAR MRPV NIL=
200708040200 METAR MRPV NIL=
200708040300 METAR MRPV NIL=
200708040400 METAR MRPV NIL=
200708040500 METAR MRPV NIL=
200708040600 METAR MRPV NIL=
200708040700 METAR MRPV NIL=
200708040800 METAR MRPV NIL=
200708040900 METAR MRPV NIL=
200708041000 METAR MRPV NIL=
200708041100 METAR MRPV NIL=
200708041200 METAR MRPV 041200Z NIL=
200708041300 METAR MRPV 041300Z 12006KT CAVOK 22/17 A3000 RMK SCT100 BKN250 HZ W=
200708041400 METAR MRPV 041400Z 11007KT CAVOK 24/17 A3000 RMK SCT100 BKN250 HZ W=
200708041500 METAR MRPV 041500Z 06010KT CAVOK 25717 A3001 RMK SCT100 BKN250 TRACE SC HZ W=
200708041600 METAR MRPV 041600Z 04006KT 9999 FEW020 BKN250 26/17 A3001 RMK HZ W CB S SW=
200708041700 METAR MRPV 041700Z 29010KT 9999 SCT020 BKN250 27/20 A3000 RMK RN N NE HZ W=
200708041800 METAR MRPV 041800Z 27009KT 9999 2000NE VCSH FEW010TCU SCT025 BKN250 27/20 A2999 RMK HZ W=
200708041900 METAR MRPV 041900Z 28013KT 9999 SCT010TCU SCT025 BKN250 26/20 A2997 RMK RN NE SE S=
200708042000 METAR MRPV 042000Z 27007KT 8000 3000NE -RA VCTS FEW008CB BKN025 23/19 A2997 RMK VIS E SE UNL=
200708042100 METAR MRPV 042100Z 34006KT 9999 SCT010TCU SCT025 BKN250 23/20 A2995 RN N NW=
200708042300 METAR MRPV NIL=
200708050000 METAR MRPV NIL=
200708050100 METAR MRPV NIL=
200708050200 METAR MRPV NIL=
200708050300 METAR MRPV NIL=
200708050400 METAR MRPV NIL=
200708050500 METAR MRPV NIL=
200708050600 METAR MRPV NIL=
200708050700 METAR MRPV NIL=
200708050800 METAR MRPV NIL=
200708050900 METAR MRPV NIL=
200708051000 METAR MRPV NIL=
200708051100 METAR MRPV NIL=
200708051200 METAR MRPV NIL=
200708051300 METAR MRPV 051300Z 13005KT CAVOK 21/18 A3002 RMK TRAZAS SC BKN250 DST CB/S/SW=
200708051400 METAR MRPV 051400Z 13005KT 9999 FEW010 BKN250 23/18 A3003 CB SW=
200708051500 METAR MRPV 051500Z 11005KT 9999 FEW015 SCT110 BKN250 25/18 A3005 CB SW HZ W=
200708051600 METAR MRPV 051600Z 28008KT 9999 SCT015 SCT110 BKN250 23/20 A3005 CB SW HZ W=
200708051700 METAR MRPV 051700Z 27007KT 9999 SCT014 BKN250 25/20 A3003 TCU NE NW HZ W RN NE=
200708051800 METAR MRPV NIL=
200708051900 METAR MRPV 051900Z 27007KT 9999 3000NE VCSH FEW010CB SCT025TCU BKN250 26/21 A2998=
200708052000 METAR MRPV 052000Z 28009KT 7000 3000SW -RA VCSH SCT004 BKN018TCU 22/20 A2997 VSBY SE E UNL=
200708052100 METAR MRPV 052100Z 29006KT 2000 TSRA SCT006 SCT008CB BKN012 20/19 A2999=
200708052200 METAR MRPV 052200Z 27008KT 1500 -TSRA SCT001 FEW005CB BKN010 19/19 A3000=
200708052300 METAR MRPV 052300Z VRB03KT 3000 RA SCT006 SCT020 BKN120 19/18 A3003 RMK UNL W=
200708060000 METAR MRPV 060000Z NIL=
200708060100 METAR MRPV NIL=
200708060200 METAR MRPV NIL=
200708060300 METAR MRPV NIL=
200708060400 METAR MRPV NIL=
200708060500 METAR MRPV NIL=
200708060600 METAR MRPV NIL=
200708060700 METAR MRPV NIL=
200708060800 METAR MRPV NIL=
200708060819 METAR MRPV 060819Z 25007KT 9999 3000N VCSH FEW010TCU SCT020 BKN250 26/20 A3000=
200708060900 METAR MRPV NIL=
200708061000 METAR MRPV NIL=
200708061100 METAR MRPV NIL=
200708061200 METAR MRPV 061200Z 13007KT CAVOK 20/16 A3001 RMK SCT100 BKN250 HZ W=
200708061300 METAR MRPV 061300Z 11010KT CAVOK 21/17 A3002 FEW 100 BKN250 HZ W CB=
200708061400 METAR MRPV 061400Z 10013KT 9999 FEW020 BKN250 24/17 A3003 DU OVER APCH 09=
200708061500 METAR MRPV NIL=
200708061600 METAR MRPV 061600Z 08012KT 9999 FEW025 BKN250 26/17 A3002=
200708061700 METAR MRPV 061700Z 07008KT 9999 SCT015 BKN250 26/18 A3003=
200708061800 METAR MRPV 061800Z 28008KT 9999 SCT015 BKN250 25/19 A3002 TCU S=
200708061900 METAR MRPV NIL=
200708062000 METAR MRPV 062000Z 06006KT 9999 3000NW VCSH FEW010TCU SCT020 BKN250 25/19 A2998=
200708062100 METAR MRPV 062100Z 05007KT 9999 4000W VCSH FEW002 FEW010CB BKN020 24/18 A2998=
200708062200 METAR MRPV 062200Z 26007KT 8000 3000N VCSH BR SCT002 BKN020 22/18 A2999 RMK ST MOVIENDONSE W AL E=
200708062300 METAR MRPV 062300Z 29005KT 3000 BR SCT001 BKN010 20/19 A3001=
200708070000 METAR MRPV 070000Z NIL=
200708070100 METAR MRPV NIL=
200708070200 METAR MRPV NIL=
200708070300 METAR MRPV NIL=
200708070400 METAR MRPV NIL=
200708070500 METAR MRPV NIL=
200708070600 METAR MRPV NIL=
200708070700 METAR MRPV NIL=
200708070800 METAR MRPV NIL=
200708070900 METAR MRPV NIL=
200708071000 METAR MRPV NIL=
200708071100 METAR MRPV NIL=
200708071200 METAR MRPV 071200Z 01002KT CAVOK 17/15 A3000 FEW100 SCT250 CB SW HZY=
200708071300 METAR MRPV 071300Z 00000KT CAVOK 21/16 A3002 RMK TRACE AC SC SCT250 CB DST SW POLVO APROXIMACION PISTA 09=
200708071400 METAR MRPV 071400Z 10008KT 9999 NSC 24/17 A3001 TRACE SCT AC CI GUST 14KT POLVO APROXIMACION PISTA 09 LEVE HZ ARND=
200708071500 METAR MRPV 071500Z 09013KT CAVOK 25/17 A3003 RMK TRCE CU CI FEW100 GUST18=
200708071600 METAR MRPV 071600Z 06007KT 9999 FEW045 SCT120 26/17 A3004 RMK LEVE HZ ARND TCU DST NE=
200708071700 METAR MRPV 071700Z 07008KT 9999 FEW030 BKN045 26/17 A3002 RMK RN DST E LEVE HZ ARND=
200708071800 METAR MRPV 071800Z 09011KT 9999 FEW020TCU BKN040 25/17 A3001 RMK LEVE HZ ARND RN DST NE=
200708071900 METAR MRPV 071900Z 07010KT 9999 FEW020TCU SCT035 BKN120 25/17 A2999 RMK SHRA DST NW LEVE HZ ARND=
200708072000 METAR MRPV 082000Z 27010KT 9999 FEW015TCU SCT035 SCT250 26/20 A2993 RMK RASH DST NW=
200708072100 METAR MRPV 072100Z 29008KT 9999 -DZ VCTS SCT010CB BKN020 23/20 A2997 RMK VIS E 5KMS W 6KMS=
200708072200 METAR MRPV 072200Z 11003KT 4000 TS VCSH SCT008CB BKN013 20/19 A2998 RMK VIS E 5KMS VIS S UNLTD=
200708072300 METAR MRPV NIL=
200708080000 METAR MRPV 080000Z NIL=
200708080100 METAR MRPV NIL=
200708080200 METAR MRPV NIL=
200708080300 METAR MRPV NIL=
200708080400 METAR MRPV NIL=
200708080500 METAR MRPV NIL=
200708080600 METAR MRPV NIL=
200708080700 METAR MRPV NIL=
200708080800 METAR MRPV NIL=
200708080900 METAR MRPV NIL=
200708081000 METAR MRPV NIL=
200708081100 METAR MRPV NIL=
200708081200 METAR MRPV 081200Z 12008KT CAVOK 2019 A2997 FEW120 TRACE SC CI=
200708081300 METAR MRPV 081300Z 12009KT CAVOK 22/17 A2998 RMK SCT250 TRACE SC AC=
200708081400 METAR MRPV 081400Z 12007KT CAVOK 24/17 A2999 RMK FEW120 BKN250 TRACE SC=
200708081500 METAR MRPV 081500Z 08010KT CAVOK 25/17 A3000 RMK TRACE CU SC AC BKN250=
200708081600 METAR MRPV 081600Z 09007KT 9999 FEW045 BKN250 26/17 A3004=
200708081700 METAR MRPV 081700Z 09006KT 9999 SCT040 SCT250 27/17 A2998=
200708081800 METAR MRPV 081800Z 27006KT 9999 SCT035 SCT250 27/20 A2997 RMK TCU DST N=
200708081900 METAR MRPV 081900Z 30007KT 9999 FEW015TCU SCT035 SCT250 27/20 A2995=
200708082000 METAR MRPV 082000Z 27010KT 9999 FEW015TCU SCT035 SCT250 26/20 A2993 RMK RASH DST NW=
200708082100 METAR MRPV 082100Z 26009KT 9999 VCSH SCT012CB BKN020 26/21 A2990 RMK VIS NW N 6000MTS RAFAGAS 14KT=
200708082200 METAR MRPV 082200Z 29010KT 4000 VCTS SCT010CB BKN020 21/20 A2993 RETS VIS SE UNL=
200708082300 METAR MRPV 082300Z 30007KT 4000 BR SCT002 BKN010 21/20 A2996 REDZ=
200708090000 METAR MRPV 090000Z NIL=
200708090100 METAR MRPV NIL=
200708090200 METAR MRPV NIL=
200708090300 METAR MRPV NIL=
200708090400 METAR MRPV NIL=
200708090500 METAR MRPV NIL=
200708090600 METAR MRPV NIL=
200708090700 METAR MRPV NIL=
200708090800 METAR MRPV NIL=
200708090900 METAR MRPV NIL=
200708091000 METAR MRPV NIL=
200708091100 METAR MRPV NIL=
200708091200 METAR MRPV 091200Z 06007KT CAVOK 19/16 A2997 RMK TRACE SC AC AS BKN250 CB DST W=
200708091300 METAR MRPV 091300Z 11005KT CAVOK 22/17 A2999 RMK TRACE CU SC AC CB W DU APROXIMACION PISTA 09=
200708091400 METAR MRPV 091400Z 11007KT 9999 FEW030 BKN250 24/17 A3000 RMK FEW120 DU APROXIMACION PISTA 09 CB W=
200708091500 METAR MRPV 091500Z 11008KT 9999 FEW040 BKN250 25/17 A3000 RMK FEW120=
200708091600 METAR MRPV 091600Z 09008KT 9999 FEW045 BKN120 27/18 RMK FEW250=
200708091700 METAR MRPV 091700Z 09010KT 9999 SCT035 SCT250 27/18 A2998 RMK RAFAGAS 17KT TCU N=
200708091800 METAR MRPV 091800Z 25007KT 9999 SCT040 SCT250 29/16 A2997 RMK FEW120 HZW TCU NW N E=
200708091900 METAR MRPV 091900Z 07008KT 010V080 9999 FEW040 BKN250 28/18 A2993 TCU NW SW=
200708092000 METAR MRPV 092000Z 28010KT 9999 VCTS FEW010CB BKN020TCU 26/21 A2991 VIS E 7000MTS TS E MOVIENDOSE AL W=
200708092100 METAR MRPV 092100Z 16002KT 9999 4000W VCSH FEW010CB SCT020TCU BKN100 24/18 A2991=
200708092200 METAR MRPV 092200Z 30007KT 3500 BR SCT001 BKN007 21/20 A2992 VSBY N 7KM=
200708092300 METAR MRPV 092300Z 00000KT 9999 VCFG FEW004 SCT020 BKN100 22/20 A2993 RERA VSBY E 8KM LOW ST SW=
200708100000 METAR MRPV NIL=
200708100100 METAR MRPV NIL=
200708100200 METAR MRPV NIL=
200708100300 METAR MRPV NIL=
200708100400 METAR MRPV NIL=
200708100500 METAR MRPV NIL=
200708100600 METAR MRPV NIL=
200708100700 METAR MRPV NIL=
200708100800 METAR MRPV NIL=
200708100900 METAR MRPV NIL=
200708101000 METAR MRPV NIL=
200708101100 METAR MRPV NIL=
200708101200 METAR MRPV 101200Z 06004KT CAVOK 19/18 A2997 RMK SCT110 DUST IN APCH RNY 09 HZ TO W QD=
200708101300 METAR MRPV 101300Z 09008KT CAVOK 21/18 A2997 SCT110 DU PISTA 09=
200708101400 METAR MRPV 101400Z 09012KT CAVOK 24/18 A2998 SCT110 HZ W DU PISTA 09=
200708101500 METAR MRPV 101500Z 08013KT 9999 FEW024 SCT110 26/18 A2999=
200708101600 METAR MRPV 101600Z 08011KT 9999 FEW024 SCT110 25/17 A2998 DU PISTA 09=
200708101700 METAR MRPV 101700Z 08010KT 9999 SCT024 SCT110 27/18 A2997 DU PISTA 09 RN NE=
200708101800 METAR MRPV 101800Z 07009KT 9999 SCT024 SCT110 27/18 A2996 RN NE NW TCU SW=
200708101900 METAR MRPV 101900Z 07008KT 9999 FEW010TCU SCT025 BKN250 26/18 A2992 RN N NE NW=
200708102000 METAR MRPV 102000Z 28012KT 9999 4000NW VCSH FEW010CB BKN025 26/21 A2988=
200708102100 METAR MRPV 102100Z 29009KT 7000 3000W VCTS BR FEW010CB BKN020 23/21 A2989 RMK UNL S SE=
200708102200 METAR MRPV 102200Z 35005KT 3000 +RABR SCT002 BKN015 21/20 A2989=
200708102300 METAR MRPV 102300Z VRB03KT 3000 -RABR SCT002 BKN012 21/20 A2990=
200708110000 METAR MRPV NIL=
200708110100 METAR MRPV NIL=
200708110200 METAR MRPV NIL=
200708110300 METAR MRPV NIL=
200708110400 METAR MRPV NIL=
200708110500 METAR MRPV NIL=
200708110600 METAR MRPV NIL=
200708110700 METAR MRPV NIL=
200708110800 METAR MRPV NIL=
200708110900 METAR MRPV NIL=
200708111000 METAR MRPV NIL=
200708111100 METAR MRPV NIL=
200708111200 METAR MRPV 111200Z VRB03KT 3000 BR SCT002 BKN012 19/18 A2998 RMK DU APROXIMACION 09=
200708111300 METAR MRPV 111300Z VRB03KT 5000 BR SCT002 BKN012 19/18 A3001 RMK DU 09=
200708111400 METAR MRPV 111400Z VRB03KT 9999 3000E BR SCT008 BKN250 23/19 A3002=
200708111500 METAR MRPV 111500Z VRB03 9999 FEW012 BKN250 24/18 A3002=
200708111600 METAR MRPV 111600Z 32005KT 9999 SCT018 BKN250 26/19 A3002=
200708111700 METAR MRPV 111700Z 27008KT 9999 SCT015 SCT100 BKN250 24/19 A3002 RMK RN DST E SE TCU SW NW=
200708111800 METAR MRPV 111800Z 28008KT 9999 3000E VCSH SCT015 SCT100 BKN250 24/20 A3002 RMK TCU SW W NW=
200708111900 METAR MRPV 111900Z 30008KT 9999 SCT012TCU SCT100 BKN250 25/20 A2997 RMK RN E=
200708112000 METAR MRPV 112000Z 27012KT 8000 3000SE -RA VCSH FEW004 SCT010TCU BKN025 23/20 A2996 RMK ST MOVE W E=
200708112100 METAR MRPV 112100Z 29010KT 2000 -DZ BR SCT001 BKN010 20/20 A2996 RMK ST W=
200708112200 METAR MRPV 112200Z 30008KT 4000 BR SCT001 BKN012 20/19 A2996 RMK ST W 9999 NW=
200708112300 METAR MRPV 112300Z 30005KT 3000 -RA BR SCT001 BKN012 20/19 A2998 RMK ST W 9999 NW=
200708120000 METAR MRPV 120000Z NIL=
200708120100 METAR MRPV NIL=
200708120200 METAR MRPV NIL=
200708120300 METAR MRPV NIL=
200708120400 METAR MRPV NIL=
200708120500 METAR MRPV NIL=
200708120600 METAR MRPV NIL=
200708120700 METAR MRPV NIL=
200708120800 METAR MRPV NIL=
200708120900 METAR MRPV NIL=
200708121000 METAR MRPV NIL=
200708121100 METAR MRPV NIL=
200708121200 METAR MRPV 121200Z 11004KT CAOK 19/17 A3000 BKN250=
200708121300 METAR MRPV 121300Z 09005KT CAVOK 20/18 A3002 RMK BKN250 CB DST W=
200708121400 METAR MRPV 121400Z 27007KT CAVOK 22/19 A3005 RMK FEW100 BKN220 CB DST W=
200708121500 METAR MRPV NIL=
200708121600 METAR MRPV 121600Z 30004KT 9999 FEW016 BKN220 24/19 A3003 RMK CB DST W TCU DST NW=
200708121700 METAR MRPV 121700Z 28005KT 9999 SCT012TCU BKN220 25/20 A3005 RMK CB DST W=
200708121800 METAR MRPV 121800Z 29008KT 9999 3000NE VCTSSH FEW010CB SCT025TCU BKN020 25/19 A3003=
200708121900 METAR MRPV 121900Z VRB03KT 3000 SHRA FEW010CB SCT022 BKN220 22/20 A3002=
200708122000 METAR MRPV 122000Z 24004KT 4000 1500W -RA BR SCT001 BKN012 22/21 A3000 RMK ST W=
200708122100 METAR MRPV 122100Z 22006KT 2000 RA BR SCT001 BKN010 19/18 A3002 RMK LOW ST MOVN W TO E=
200708122200 METAR MRPV 122200Z VRB03KT 7000 3000NW -RA BR FEW002 SCT020 BKN100 19/18 A3000 RMK VIS SE S UNLTD=
200708122300 METAR MRPV 122300Z 09007KT 8000 2000NE RA VCSH SCT002 OVC100 19/18 A3000 VIS S W UNLTD=
200708130000 METAR MRPV NIL=
200708130100 METAR MRPV NIL=
200708130200 METAR MRPV NIL=
200708130300 METAR MRPV NIL=
200708130400 METAR MRPV NIL=
200708130500 METAR MRPV NIL=
200708130600 METAR MRPV NIL=
200708130700 METAR MRPV NIL=
200708130800 METAR MRPV NIL=
200708130900 METAR MRPV NIL=
200708131000 METAR MRPV NIL=
200708131100 METAR MRPV NIL=
200708131200 METAR MRPV 131200Z 08006KT CAVOK 18/16 A2999 RMK TRACE SC AC DU 09 BKN300=
200708131300 METAR MRPV 131300Z 09004KT CAVOK 22/17 A3001 TRACE SCT AC BKN300 DUST APCH 09=
200708131400 METAR MRPV 131400Z 27007KT CAVOK 22/18 A3002 RMK TRACE CU SC BKN300=
200708131500 METAR MRPV 131500Z 30008KT 9999 SCT015 BKN300 21/19 A3004=
200708131600 METAR MRPV 131600Z 29008KT 9999 FEW035 BKN300 24/18 A3004=
200708131700 METAR MRPV 131700Z 29008KT 9999 FEW035 BKN300 24/18 A3002=
200708131800 METAR MRPV 131800Z 28006KT 9999 FEW040 BKN300 26/19 A3001=
200708131900 METAR MRPV 131900Z 28008KT 9999 FEW020TCU FEW040 BKN300 26/19 A2998=
200708132000 METAR MRPV 132000Z 27008KT 9999 VCSH FEW015TCU BKN030 26/19 A2995 RMK VIS E 7KMS=
200708132030 METAR MRPV 132030Z 28006KT 6000 -TSRA VCSH SCT010CB BKN020 25/20 A2995 VIS W UNL=
200708132100 METAR MRPV 132100Z 00000KT 6000 2500SW -RA CVTS FEW010CB BKN020 21/20 A2995 RETS VIS SE S W UNL=
200708132200 METAR MRPV 132200Z 00000KT 6000 -DZ FEW005 FEW010CB BKN100 20/19 A2995 RERA TORMENTA MOVIENDOSE AL CUADRANTE W=
200708132300 METAR MRPV 132300Z 27002KT 6000 VCSH FEW007 FEW015CB BKN100 21/19 A2996=
200708140000 METAR MRPV NIL=
200708140100 METAR MRPV NIL=
200708140200 METAR MRPV NIL=
200708140300 METAR MRPV NIL=
200708140400 METAR MRPV NIL=
200708140500 METAR MRPV NIL=
200708140600 METAR MRPV NIL=
200708140700 METAR MRPV NIL=
200708140800 METAR MRPV NIL=
200708140900 METAR MRPV NIL=
200708141000 METAR MRPV NIL=
200708141100 METAR MRPV NIL=
200708141200 METAR MRPV 141200Z 15002KT 9999 3000W BR BKN250 17/16 A3000 RMK TRACE SC=
200708141300 METAR MRPV 141300Z 03003KT CAVOK 20/17 A3001=
200708141400 METAR MRPV NIL=
200708141500 METAR MRPV 141500Z 07007KT CAVOK 24/18 A3003 RMK TRACE SC ST CU AC BKN200 HZ LEVE ARND=
200708141600 METAR MRPV 141600Z 29006KT 9999 FEW035 BKN200 26/20 A3002 RMK FEW120 HZ LEVE ARND DU APROXIMACION PISTA 09=
200708141700 METAR MRPV 141700Z 28006KT 9999 SCT035 SCT200 27/20 A23000 RMK TCU SE DST VIS W 8000 HZ=
200708141800 METAR MRPV 141800Z 27005KT 9999 VCSH FEW020TCU FEW035 BKN250 27/21 A2999 HZ ARND VIE E 8000MTS=
200708141900 METAR MRPV 141900Z 11006KT 9999 FEW020TCU SCT035 BKN250 28/18 A2995 RMK HZ RASH N=
200708142000 METAR MRPV 142000Z 32006KT 5000 RA VCSH SCT015TCU BKN030 24/20 A2995 RMK VIS SE S UNL TSTM N=
200708142036 METAR MRPV 142036Z 07004KT 9999 4000NW VCSH FEW007 FEW015CB BKN030 23/20 A2994 RERA=
200708142100 METAR MRPV NIL=
200708142200 METAR MRPV 242200Z 13005KT 9999 VCSH FEW005 SCT020 BKN100 23/18 A2995 VSBY NW N 6KM=
200708142300 METAR MRPV 142300Z 05006KT 5000 -RA BR FEW004 SCT015 BKN100 20/19 A2998 VSBY SE S SW UNL VSBY NW N 4KM=
200708150000 METAR MRPV NIL=
200708150100 METAR MRPV NIL=
200708150200 METAR MRPV NIL=
200708150300 METAR MRPV NIL=
200708150400 METAR MRPV NIL=
200708150500 METAR MRPV NIL=
200708150600 METAR MRPV NIL=
200708150700 METAR MRPV NIL=
200708150800 METAR MRPV NIL=
200708150900 METAR MRPV NIL=
200708151000 METAR MRPV NIL=
200708151100 METAR MRPV NIL=
200708151200 METAR MRPV 151200Z 12008KT CAVOK 20/17 A2997 RMK TRACE SCT120 BKN250 RFGS 13KT=
200708151300 METAR MRPV 151300Z 13009KT CAVOK 21/17 A2999 TRAZAS SCT BKN120 SCT250 RAFAGAS 15KT=
200708151400 METAR MRPV 151400Z 10008KT CAVOK 22/17 A3001 TRAZAS SCT SCT120 BKN250 DU PISTA 09=
200708151500 METAR MRPV 151500Z 11008KT CAVOK 24/18 A3002 TRAZAS SCT SCT120 BKN250 POLVO APROXIMACION DE LA PISTA 09=
200708151600 METAR MRPV 151600Z 09008KT CAVOK 26/18 A3001 TRAZAS CU/AS BKN200=
200708151700 METAR MRPV 151700Z 08006KT 9999 FEW040 BKN200 28/18 A3000 TCU E=
200708151800 METAR MRPV 151800Z 29011KT 9999 FEW040 BKN250 27/20 A2998 TCU RN E=
200708151900 METAR MRPV 151900Z 29010KT 9999 FEW015CB SCT035 BKN250 26/21 A2996 RASH N E S OCLS TS E/S=
200708152000 METAR MRPV 152000Z 26005KT 9999 3500NW VCTS SCT010CB BKN025 23/21 A2005 RERA=
200708152100 METAR MRPV 152100Z 32005KT 9999 VCSH FEW002 BKN012 22/20 A2995 RMK VIS W NW N 5000=
200708152200 METAR MRPV 152200Z 35003KT 9999 -DZ VCSH FEW005 FEW010TCU BKN015 22/20 A2996 RMK VIS E NE UNL CONDICIONES VARIABLES=
200708152300 METAR MRPV 152300Z 34002KT 9999 3000SW VCFG FEW005 BKN013 22/20 A2997 REDZ RMK VIS E 5000 DUE RASH TS DST S CONDICIONES VARIABLES=
200708160000 METAR MRPV NIL=
200708160100 METAR MRPV NIL=
200708160200 METAR MRPV NIL=
200708160300 METAR MRPV NIL=
200708160400 METAR MRPV NIL=
200708160500 METAR MRPV NIL=
200708160600 METAR MRPV NIL=
200708160700 METAR MRPV NIL=
200708160800 METAR MRPV NIL=
200708160900 METAR MRPV NIL=
200708161000 METAR MRPV NIL=
200708161100 METAR MRPV NIL=
200708161200 METAR MRPV 161200Z 13006KT 9999 FEW024 BKN220 20/17 A3000=
200708161300 METAR MRPV NIL=
200708161400 METAR MRPV NIL=
200708161500 METAR MRPV NIL=
200708161600 METAR MRPV NIL=
200708161700 METAR MRPV 161700Z 07009KT 9999 SCT020 BKN220 27/17 A3002=
200708161800 METAR MRPV 161800Z 07008KT 9999 SCT020 BKN220 28/18 A2999=
200708161900 METAR MRPV 161900Z 06007KT 9999 FEW015TCU SCT020 BKN220 28/18 A2996=
200708162000 METAR MRPV 162000Z 10008KT 9999 FEW015TCU SCT020 BKN220 25/19 A2993=
200708162100 METAR MRPV 162100Z 06009KT 9999 SCT010 SCT025 BKN220 25/19 A2993=
200708162200 METAR MRPV NIL=
200708162300 METAR MRPV 162300Z VRB03KT 9999 FEW010 SCT025 BKN220 23/20 A2996=
200708170000 METAR MRPV NIL=
200708170100 METAR MRPV NIL=
200708170200 METAR MRPV NIL=
200708170300 METAR MRPV NIL=
200708170400 METAR MRPV NIL=
200708170500 METAR MRPV NIL=
200708170600 METAR MRPV NIL=
200708170700 METAR MRPV NIL=
200708170800 METAR MRPV NIL=
200708170900 METAR MRPV NIL=
200708171000 METAR MRPV NIL=
200708171100 METAR MRPV NIL=
200708171200 METAR MRPV NIL=
200708171300 METAR MRPV 171300Z 10010KT CAVOK 22/17 A2999 RMK SCT110 BKN220=
200708171400 METAR MRPV 171400Z 11010KT CAVOK 24/17 A3000 RMK BKN220 POLVO APROXIMACION PISTA 09=
200708171500 METAR MRPV 171500Z 08012KT 9999 FEW018 BKN220 25/17 A3001 RMK POLVO APROXIMACION PISTA 09=
200708171600 METAR MRPV 171600Z 08012KT 9999 FEW018 SCT220 27/17 A2999 RMK POLO APROXIMACION PISTA 09=
200708171700 METAR MRPV 171700Z 07012KT 9999 SCT020 SCT220 27/17 A2999=
200708171800 METAR MRPV 171800Z 07013KT 9999 SCT020 SCT220 28/18 A2997 RMK TCU DST SW=
200708171900 METAR MRPV 171900Z 07012KT 9999 FEW010TCU SCT025 27/17 A2995=
200708172000 METAR MRPV 172000Z 08010KT 9999 SCT010TCU BKN025 28/17 A2992=
200708172100 METAR MRPV NIL=
200708172200 METAR MRPV 172200Z 10005KT 9999 4000N BR FEW002 SCT015 BKN220 24/18 A2993 TS DST S=
200708172300 METAR MRPV 172300Z 30006KT 4000 1800N BR SCT002 BKN014 21/20 A2996 RMK VIS SE UNLTD=
200708180000 METAR MRPV NIL=
200708180100 METAR MRPV NIL=
200708180200 METAR MRPV NIL=
200708180300 METAR MRPV NIL=
200708180400 METAR MRPV NIL=
200708180500 METAR MRPV NIL=
200708180600 METAR MRPV NIL=
200708180700 METAR MRPV NIL=
200708180800 METAR MRPV NIL=
200708180900 METAR MRPV NIL=
200708181000 METAR MRPV NIL=
200708181100 METAR MRPV NIL=
200708181200 METAR MRPV 181200Z 12009KT CAVOK 20/16 A2998 TRACE SC FEW110 BKN220=
200708181300 METAR MRPV 181300Z 11010KT CAVOK 22/17 A2999 RMK TRACE SC FEW110 BKN220 DUST IN APCH RNY 09=
200708181400 METAR MRPV NIL=
200708181500 METAR MRPV 181500Z 09013KT 9999 FEW016 SCT110 BKN220 25/17 A3000 RMK CB DST SW=
200708181600 METAR MRPV 181600Z 07010KT 9999 FEW016 SCT110 BKN220 26/17 A2998 CB DST SW=
200708181700 METAR MRPV 181700Z 06010KT 9999 SCT020 BKN220 28/17 A2998 RMK CB DST SW PCPN DST E=
200708181800 METAR MRPV 181800Z 09012KT 8000 2000NE -RA VCSH SCT015TCU SCT025 BKN220 23/19 A2997 RMK VIS S W UNLTD CB DST SW=
200708181900 METAR MRPV NIL=
200708182000 METAR MRPV 182000Z VRB03KT 3000 +RA FEW008 SCT020 BKN100 20/19 A2995 CB DST W SW=
200708182100 METAR MRPV 182100Z VRB03KT 5000 2400E RA BR FEW002 SCT020 BKN100 21/19 A2994 RMK VIS SW UNL=
200708182200 METAR MRPV 182200Z 12005KT 8000 2000SE -DZ VCSH FEW002 SCT025 BKN100 21/18 A2993 RMK VIS SW W UNL=
200708182300 METAR MRPV 182300Z VRB03KT 8000 3500SE VCSH SCT002 SCT025 BKN120 20/19 A2995 RMK VIS S SW UNL=
200708190000 METAR MRPV NIL=
200708190100 METAR MRPV NIL=
200708190200 METAR MRPV NIL=
200708190300 METAR MRPV NIL=
200708190400 METAR MRPV NIL=
200708190500 METAR MRPV NIL=
200708190600 METAR MRPV NIL=
200708190700 METAR MRPV NIL=
200708190800 METAR MRPV NIL=
200708190900 METAR MRPV NIL=
200708191000 METAR MRPV NIL=
200708191100 METAR MRPV NIL=
200708191200 METAR MRPV 191200Z NIL=
200708191300 METAR MRPV 191300Z 12007KT 9999 FEW030 BKN130 22/18 A2998=
200708191400 METAR MRPV 191400Z 11005KT 9999 FEW030 SCT120 24/18 A3001=
200708191500 METAR MRPV 191500Z 08004KT 9999 FEW030 SCT120 26/18 A2999=
200708191600 METAR MRPV 191600Z 28008KT 9999 SCT030 25/19 A3000=
200708191700 METAR MRPV 191700Z 27008KT 9999 BKN030 24/19 A3000=
200708191800 METAR MRPV 191800Z 29014KT 9999 FEW020 SCT035 26/19 A2999=
200708191900 METAR MRPV 191900Z 28013KT 9999 BKN025 26/18 A2997 RMK CB RASH E=
200708192000 METAR MRPV 192000Z 26008KT 9999 SCT020CB BKN035 24/20 A2995 RMK CB RN E SE S=
200708192100 METAR MRPV 192100Z 29010KT 9999 4000SW VCFG SCT010 SCT020CB BKN080 22/20 A2993=
200708192200 METAR MRPV 192200Z 29009KT 9999 4000SW VCFG SCT005 BKN015 23/20 A2992=
200708192300 METAR MRPV 192300Z 27008KT 4000 -RA BR SCT002 BKN008 21/19 A2994=
200708200000 METAR MRPV 200000Z NIL=
200708200100 METAR MRPV NIL=
200708200200 METAR MRPV NIL=
200708200300 METAR MRPV NIL=
200708200400 METAR MRPV NIL=
200708200500 METAR MRPV NIL=
200708200600 METAR MRPV NIL=
200708200700 METAR MRPV NIL=
200708200800 METAR MRPV NIL=
200708200900 METAR MRPV NIL=
200708201000 METAR MRPV NIL=
200708201100 METAR MRPV NIL=
200708201200 METAR MRPV NIL=
200708201300 METAR MRPV 201300Z 00000KT CAVOK 21/16 A2998 SCT250 TRAZAS SCT CB SW HZ W=
200708201400 METAR MRPV 201400Z 00000KT CAVOK 24/18 A2999 SCT250 CB SW=
200708201500 METAR MRPV 201500Z 02002KT CAVOK 25/16 A2998 SCT250 TRAZAS SCT=
200708201600 METAR MRPV 201600Z 31005KT 9999 FEW030 SCT250 27/17 A2997=
200708201700 METAR MRPV 201700Z 28009KT 9999 SCT030 BKN270 27/18 A2996=
200708201800 METAR MRPV 201800Z 29013KT 9999 BKN030 27/19 A2995=
200708201900 METAR MRPV 201900Z 29011KT 9999 SCT020TCU BKN035 26/19 A2994=
200708202000 METAR MRPV 202000Z 28011KT 9999 SCT020TCU BKN030 24/20 A2991=
200708202100 METAR MRPV 202100Z 30010KT 9999 4000N -RA BR FEW010 SCT020TCU BKN080 22/20 A2992=
200708202200 METAR MRPV 202200Z 32006KT 4000 -RA BR SCT003 BKN010 22/20 A2992=
200708202300 METAR MRPV 202300Z 29007KT 3000 BR SCT002 BKN008 21/20 A2993=
200708210000 METAR MRPV 210000Z NIL=
200708210100 METAR MRPV NIL=
200708210200 METAR MRPV NIL=
200708210300 METAR MRPV NIL=
200708210400 METAR MRPV NIL=
200708210500 METAR MRPV NIL=
200708210600 METAR MRPV NIL=
200708210700 METAR MRPV NIL=
200708210800 METAR MRPV NIL=
200708210900 METAR MRPV NIL=
200708211000 METAR MRPV NIL=
200708211100 METAR MRPV NIL=
200708211200 METAR MRPV 211200Z 00000KT 9999 VCFG FEW004 BKN250 19/19 A2997 RMK VIS W 6000MTS=
200708211300 METAR MRPV 211300Z 28005KT 9999 3000W BR FEW001 BKN010 20/19 A3001=
200708211400 METAR MRPV 211400Z 28004KT 7000 3000SW VCFG FEW003 SCT140 BKN250 22/19 A3002 RMK VIS NW N NE UNL CONDICIONES VARIABLES=
200708211500 METAR MRPV 211500Z 29004KT 9999 4000SW BR SCT004 BKN120 23/19 A3003=
200708211600 METAR MRPV 211600Z 31004KT 9999 SCT006 BKN100 24/19 A3002=
200708211700 METAR MRPV 211700Z 28005KT 9999 SCT020 OVC100 24/19 A3002=
200708211800 METAR MRPV 211800Z 28005KT 9999 SCT025 BKN120 26/20 A2999=
200708211900 METAR MRPV 211900Z 27005KT 9999 SCT020 BKN120 25/20 A2996=
200708212000 METAR MRPV 212000Z 30009KT 9999 SCT010TCU SCT020 BKN100 26/20 A2992=
200708212100 METAR MRPV 212100Z 30005KT 2000 TSRA SCT002 SCT010CB OVC100 23/21 A2993 RMK VIS 9999 NW=
200708212200 METAR MRPV 212200Z 00000KT 2000TS RA SCT002 SCT010CB OVC100 20/19 A2995=
200708212300 METAR MRPV 212300Z 02002KT 4000 -RA BR SCT002 BKN010 OVC100 20/19 A2998 RMK VIS 8000 SE S=
200708220000 METAR MRPV 220000Z NIL=
200708220100 METAR MRPV NIL=
200708220200 METAR MRPV NIL=
200708220300 METAR MRPV NIL=
200708220400 METAR MRPV NIL=
200708220500 METAR MRPV NIL=
200708220600 METAR MRPV NIL=
200708220700 METAR MRPV NIL=
200708220800 METAR MRPV NIL=
200708220900 METAR MRPV NIL=
200708221000 METAR MRPV NIL=
200708221100 METAR MRPV NIL=
200708221200 METAR MRPV 221200Z 21002KT CAVOK 18/18 A3000 FG BAKN W N TRAZAS SCT FEW130 BKN250=
200708221300 METAR MRPV 221300Z 28003KT 1500 BR BKN005 19/18 A3002=
200708221400 METAR MRPV 221400Z 32002KT 9999 4000W BR FEW005 BKN250 21/19 A3003=
200708221500 METAR MRPV 221500Z VRB03KT 8000 3000NW VCFG BR SCT008 BKN250 23/19 A3004 RMK VIS 9999 S SE=
200708221600 METAR MRPV 221600Z 27006KT 8000 3000NW VCFG BR FEW004 SCT012 BKN250 24/20 A3003 RMK VIS 9999 S SE=
200708221700 METAR MRPV 221700Z 27007KT 8000 3000NW VCFG BR FEW004 SCT010 BKN250 23/19 A3002 VIS 9999 SE S=
200708221800 METAR MRPV 221800Z 03004KT 9999 SCT025 BKN250 26/18 A3000=
200708221900 METAR MRPV 221900Z 06007KT 9999 FEW015TCU SCT025 BKN250 27/17 A2999=
200708222000 METAR MRPV 222000Z 08008KT 9999 FEW010CB SCT025 BKN250 26/18 A2994 RMK HZ NW W=
200708222100 METAR MRPV 222100Z 09006KT 9999 4000N TS VCSH FEW010CB SCT025 BKN250 24/18 A2994=
200708222200 METAR MRPV 222200Z VRB03KT 3000 +TSRA SCT008CB BKN015 20/19 A2995=
200708222300 METAR MRPV 222300Z VRB03KT 6000 -RA FEW002 SCT010 BKN100 20/19 A2996=
200708222330 METAR MRPV 222330Z VRB03KT 6000 VCFG STO02 SCT015 20/19 A2997=
200708230000 METAR MRPV NIL=
200708230100 METAR MRPV NIL=
200708230200 METAR MRPV NIL=
200708230300 METAR MRPV NIL=
200708230400 METAR MRPV NIL=
200708230500 METAR MRPV NIL=
200708230600 METAR MRPV NIL=
200708230700 METAR MRPV NIL=
200708230800 METAR MRPV NIL=
200708230900 METAR MRPV NIL=
200708231000 METAR MRPV NIL=
200708231100 METAR MRPV NIL=
200708231200 METAR MRPV 231200Z 12002KT 9999 VCFG FEW010 BKN250 18/17 A3000 RMK VIS W 7000=
200708231300 METAR MRPV 231300Z 10003KT CAVOK 21/18 A3001 RMK FEW120 SCT300 TCU DST SW HZ W=
200708231400 METAR MRPV 231400Z 10002KT CAVOK 24/18 A3002 RMK TRACE SC HZ W CB DST SW SCT120 SCT300=
200708231500 METAR MRPV 231500Z 29005KT CAVOK 25/18 A3003 RMK TRACE SC SCT120 HZ W=
200708231600 METAR MRPV 231600Z 27006KT 9999 FEW025 SCT120 26/19 A3003 RMK HZ W=
200708231700 METAR MRPV 231700Z 28010KT 9999 SCT014TCU 26/20 A3002 RMK HZ W=
200708231800 METAR MRPV 231800Z 28010KT 8000 VCFG SCT012TCU 26/20 A3000=
200708231900 METAR MRPV 231900Z 05010KT 6000 2000NE -TSRA SCT008CB BKN030 22/18 A3000 VIS W UNLTD=
200708232000 METAR MRPV 232000Z VRB03KT 7000 3000N RA FEW010TCU SCT025 BKN120 21/19 A2998 RMK VIS W UNLTD=
200708232100 METAR MRPV 232100Z VRB03KT 9999 FEW010TCU SCT025 BKN120 23/19 A2997 RMK RN E NW=
200708232200 METAR MRPV 232200Z 25004KT 8000 -RA VCSH FEW004 BKN028 22/20 A2997 RMK VIS W UNL=
200708232300 METAR MRPV 232300Z VRB03KT 9999 FEW012 SCT120 BKN250 23/20 A2996 RMK TCU S SW NE HZ W=
200708240000 METAR MRPV 24000Z NIL=
200708240100 METAR MRPV NIL=
200708240200 METAR MRPV NIL=
200708240300 METAR MRPV NIL=
200708240400 METAR MRPV NIL=
200708240500 METAR MRPV NIL=
200708240600 METAR MRPV NIL=
200708240700 METAR MRPV NIL=
200708240800 METAR MRPV NIL=
200708240900 METAR MRPV NIL=
200708241000 METAR MRPV NIL=
200708241100 METAR MRPV NIL=
200708241200 METAR MRPV 241200Z 11002KT CAVOK 18/17 A2999 RMK TRACE CU SC SCT300 POLVO APROXIMACION PISTA 09=
200708241300 METAR MRPV 241300Z 11007KT CAVOK 22/18 A3000 RMK TRACE SC CU SCT300 DU APROXIMACION PISTA 09=
200708241400 METAR MRPV 241400Z 13007KT 9999 FEW035 SCT300 23/18 A3002 RMK HZ W=
200708241500 METAR MRPV 241500Z 09012KT 9999 FEW030 BKN300 25/18 A3002 RMK HZ W=
200708241600 METAR MRPV 241600Z 07010KT 9999 FEW030 BKN300 26/18 A3002 RMK HZ W=
200708241700 METAR MRPV 241700Z 05010KT 9999 SCT025 BKN300 27/17 A3002 RMK HZ W=
200708241800 METAR MRPV 241800Z 05009KT 9999 SCT025 BKN300 28/17 A2999 RMK TCU SW=
200708241900 METAR MRPV 241900Z 08010KT 9999 FEW010TCU SCT025 29/18 A2998 RMK RN NW=
200708242000 METAR MRPV 242000Z 29006KT 9999 FEW010TCU 25/21 A2996 RMK RN N NW=
200708242100 METAR MRPV 242100Z 28010KT 8000 3500W VCFG B R SCT002 FEW010CB BKN020 24/21 A2994 LW ST MOVING W TO E=
200708242200 METAR MRPV 242200Z 28010KT 8000 3500W VCFG BR SCT002 FEW010CB BKN020 25/21 A2994 LOW ST MOVNG W TO E=
200708242300 METAR MRPV 242300Z 27007KT 6000 2500N -RA BR SCT002 BKN108 23/21 A2995=
200708250000 METAR MRPV 250000Z NIL=
200708250100 METAR MRPV NIL=
200708250200 METAR MRPV NIL=
200708250300 METAR MRPV NIL=
200708250400 METAR MRPV NIL=
200708250500 METAR MRPV NIL=
200708250600 METAR MRPV NIL=
200708250700 METAR MRPV NIL=
200708250800 METAR MRPV NIL=
200708250900 METAR MRPV NIL=
200708251000 METAR MRPV NIL=
200708251100 METAR MRPV NIL=
200708251200 METAR MRPV 251200Z 00000KT 9999 SCT025 BKN120 19/18 A2998=
200708251300 METAR MRPV 251300Z 07002KT 9999 FEW030 BKN120 20/18 A2999 DU PISTA 09=
200708251400 METAR MRPV 251400Z 13002KT 9999 FEW030 BKN120 22/18 A300=
200708251500 METAR MRPV 251500Z 15002KT 9999 FEW030 BKN120 24/18 A3002=
200708251600 METAR MRPV 251600Z 29005KT 9999 FEW020 SCT035 BKN120 22/19 A3003=
200708251700 METAR MRPV 251700Z 29005KT 9999 FEW020 SCT035 BKN120 22/19 A3003=
200708251800 METAR MRPV 251800Z 28007KT 9999 FEW010TCU SCT025 BKN100 22/19 A2999=
200708251900 METAR MRPV 251900Z 32006KT 9999 SCT010TCU BKN025 22/20 A2997=
200708252000 METAR MRPV 252000Z 29003KT 9999 3000S VCSH SCT006TCU BKN012 22/19 A2994 RASH S=
200708252100 METAR MRPV 252100Z 02004KT 7000 3000N BR FEW005 SCT015 BKN100 20/17 A2994=
200708252200 METAR MRPV 252200Z 08007KT 3000 +RA BR BKN008 OVC100 19/18 A2995=
200708252300 METAR MRPV 252300Z 07007KT 5000 -RA BR FEW005 SCT010 OVC100 19/17 A2997=
200708260000 METAR MRPV 260000Z NIL=
200708260100 METAR MRPV NIL=
200708260200 METAR MRPV NIL=
200708260300 METAR MRPV NIL=
200708260400 METAR MRPV NIL=
200708260500 METAR MRPV NIL=
200708260600 METAR MRPV NIL=
200708260700 METAR MRPV NIL=
200708260800 METAR MRPV NIL=
200708260900 METAR MRPV NIL=
200708261000 METAR MRPV NIL=
200708261100 METAR MRPV NIL=
200708261200 METAR MRPV NIL=
200708261300 METAR MRPV 261300Z 23003KT CAVOK 18/16 A2999 RMK BKN120 TRACE SC=
200708261400 METAR MRPV 261400Z 10004KT CAVOK 19/19 A3001 RMK TRACE SC BKN120=
200708261600 METAR MRPV NIL=
200708261700 METAR MRPV 261700Z 10003KT CAVOK 26/17 A2999 RMK TRACE SC OVC120=
200708261800 METAR MRPV 261800Z 29010KT 9999 FEW030 OVC120 23/19 A2998=
200708261900 METAR MRPV 261900Z 30008KT 9999 SCT020 OVC100 24/19 A2996=
200708262000 METAR MRPV 262000Z 29006KT 9999 SCT020 BKN120 24/19 A2993=
200708262100 METAR MRPV 262100Z 29006KT 9999 SCT020 BKN120 25/19 A2991=
200708262200 METAR MRPV 262200Z 28007KT 9999 4000SW VCFG SCT012 OVC100 22/19 A2992=
200708262300 METAR MRPV 262300Z 29006KT 4000 BR SCT003 BKN010 21/20 A2992 RMK 9999 NE E=
200708270000 METAR MRPV NIL=
200708270100 METAR MRPV NIL=
200708270200 METAR MRPV NIL=
200708270300 METAR MRPV NIL=
200708270400 METAR MRPV NIL=
200708270500 METAR MRPV NIL=
200708270600 METAR MRPV NIL=
200708270700 METAR MRPV NIL=
200708270800 METAR MRPV NIL=
200708270900 METAR MRPV NIL=
200708271000 METAR MRPV NIL=
200708271100 METAR MRPV NIL=
200708271200 METAR MRPV NIL=
200708271300 METAR MRPV 271300Z 13003KT 9999 VCFG FEW008 BKN250 19/18 A2999 RMK 7000E POLVO APROXIMACION PISTA 09=
200708271400 METAR MRPV 271400Z 13005KT CAVOK 22/18 A3000 RMK POLVO APROXIMACION PISTA 09 HZ DST W TRACE ST SC BKN250=
200708271500 METAR MRPV 271500Z 08004KT 9999 FEW030 BKN250 25/18 A3001=
200708271600 METAR MRPV 271600Z 33004KT 9999 FEW030 BKN250 26/19 A3002=
200708271700 METAR MRPV NIL=
200708271800 METAR MRPV 271800Z 26006KT 9999 SCT030 BKN250 27/20 A2997=
200708271900 METAR MRPV 271900Z 29013KT 9999 4000S TS VCSH SCT008CB SCT025 BKN100 26/20 A2994=
200708272000 METAR MRPV 272000Z 10003KT 3000 +TSRA SCT006CB BKN012 19/18 A2995 RMK VIS 8000N=
200708272100 METAR MRPV 272100Z 23003KT 5000 -TSRA SCT008CB BKN015 19/19 A2995=
200708272200 METAR MRPV 272200Z 32005KT 4000 BR SCT003 BKN010 20/19 A2995 RETS VIS E 6KMS=
200708272300 METAR MRPV NIL=
200708280000 METAR MRPV NIL=
200708280100 METAR MRPV NIL=
200708280200 METAR MRPV NIL=
200708280300 METAR MRPV NIL=
200708280400 METAR MRPV NIL=
200708280500 METAR MRPV NIL=
200708280600 METAR MRPV NIL=
200708280700 METAR MRPV NIL=
200708280800 METAR MRPV NIL=
200708280900 METAR MRPV NIL=
200708281100 METAR MRPV NIL=
200708281200 METAR MRPV 281200Z 10004KT CAVOK 17/15 A2996 RMK CB DST NE S DU 09 BKN250=
200708281300 METAR MRPV NIL=
200708281400 METAR MRPV 281400Z 29002KT CAVOK 23/17 A2998 RMK CB DST S SW W DUST IN APCH RNY 09 TRACE SC AC SCT250=
200708281500 METAR MRPV 281500Z 28010KT CAVOK 23/18 A2999 RMK CB LINE SW W TRACE SC DUST 09 BKN250=
200708281600 METAR MRPV 281600Z 28012KT CAVOK 24/18 A2999 RMK CB LINE WW W DUST 09 TRACE SC BKN250=
200708281700 METAR MRPV 281700Z 28008KT 9999 SCT022 BKN250 25/19 A2999 RMK CB LINE DST SW W DUST IN APCH RNY 09=
200708281800 METAR MRPV 281800Z 26012KT 9999 FEW015TCU BKN022 24/19 A2998 RMK RASH DST SSW=
200708281900 METAR MRPV 281900Z 27008KT 9999 4000NE VCSH SCT012TCU SCT025 24/20 A2995=
200708282000 METAR MRPV 282000Z 26010KT 8000 3000NE -RA VCSH SCT010TCU SCT025 23/20 A2994 CB DST W=
200708282100 METAR MRPV 282100Z VRB03KT 9999 3000E VCSH SCT010 SCT120 BKN250 22/20 A2994 RMK TCU SW NW=
200708282200 METAR MRPV 282200Z 31005KT 8000 3000E VCFG BR SCT002 BKN018 22/20 A2994 ST MOVIENDOSE DE W A E=
200708282300 METAR MRPV 282300Z 30005KT 5000 2400 -RA BR SCT002 BKN015 20/20 A2995 RMK ST MOVIENDOSE DW W A E=
200708290000 METAR MRPV 290000Z NIL=
200708290100 METAR MRPV NIL=
200708290200 METAR MRPV NIL=
200708290300 METAR MRPV NIL=
200708290400 METAR MRPV NIL=
200708290500 METAR MRPV NIL=
200708290600 METAR MRPV NIL=
200708290700 METAR MRPV NIL=
200708290800 METAR MRPV NIL=
200708290900 METAR MRPV NIL=
200708291000 METAR MRPV NIL=
200708291100 METAR MRPV NIL=
200708291200 METAR MRPV 291200Z 11003KT 6000 2500SE BR FEW003 BKN010 19/18 A3002 RMK VIS 9999 N NW=
200708291300 METAR MRPV NIL=
200708291400 METAR MRPV 291400Z 10007KT CAVOK 22/17 A3004 RMK TRACE CU SC AC DU APROXIMACION PISTA 09 BKN250=
200708291500 METAR MRPV 291500Z 13005KT CAVOK 25/17 A3004 RMK TRACE SC BKN250 DU APROXIMACION PISTA 09=
200708291600 METAR MRPV 291600Z 29005KT 9999 FEW025 BKN250 27/18 A3005 RMK DU APROXIMACION PISTA 09=
200708291700 METAR MRPV 291700Z 28008KT 9999 FEW025 BKN250 25/20 A3004 RMK DU APROXIMACION PISTA 09=
200708291800 METAR MRPV 291800Z 28010KT 9999 SCT022 BKN250 26/20 A3003 RMK HZ W=
200708291900 METAR MRPV 291900Z 28010KT 9999 FEW010TCU SCT030 26/22 A2999 RMK HZ W=
200708292000 METAR MRPV 292000Z 27010KT 7000 3000NE -TSRA FEW008CB SCT012TCU BKN020 24/21 A2997 VIS W UNL=
200708292100 METAR MRPV 292100Z 28007KT 5000 BR SCT003 BKN015 23/21 A2995 TS DST N=
200708292200 METAR MRPV 292200Z 28008KT 3000 -RA BR SCT001 BKN010 22/21 A2996=
200708292300 METAR MRPV 292300Z 28007KT 2000 +RA BR SCT001 BKN010 21/20 A2999=
200708300000 METAR MRPV NIL=
200708300100 METAR MRPV NIL=
200708300200 METAR MRPV NIL=
200708300300 METAR MRPV NIL=
200708300400 METAR MRPV NIL=
200708300500 METAR MRPV NIL=
200708300600 METAR MRPV NIL=
200708300700 METAR MRPV NIL=
200708300800 METAR MRPV NIL=
200708300900 METAR MRPV NIL=
200708301000 METAR MRPV NIL=
200708301100 METAR MRPV NIL=
200708301200 METAR MRPV 301200Z 10004KT 9999 SCT025 BKN250 21/18 A3001 RMK CB LINE DST NE W=
200708301300 METAR MRPV 301300Z 13004KT 9999 FEW035 SCT120 BKN250 22/18 A3003 TCU W NW=
200708301400 METAR MRPV 301400Z 10005KT CAVOK 24/19 A3003 TRAZAS CU FEW120 BKN250 DU PISTA 09=
200708301500 METAR MRPV 301500Z 12005KT 9999 FEW030 SCT120 BKN250 26/18 A3004 DU PISAT 09=
200708301600 METAR MRPV 301600Z 27007KT 9999 FEW010 SCT025 BKN250 25/20 A3004 DU PISTA 09 RN E TCU E S SW=
200708301700 METAR MRPV 301700Z 27008KT 9999 FEW004 BKN022 23/21 A3004 RN E SE S TCU S SW=
200708301800 METAR MRPV 301800Z 15004KT 9999 3000NE TSRA SCT010CB BKN250 24/20 A3001=
200708301900 METAR MRPV NIL=
200708302000 METAR MRPV 302000Z 25009KT 7000 3000E -RA BR SCT002 BKN022 23/21 A2995 UNL S=
200708302100 METAR MRPV 302100Z 27010KT 3000 TSRA SCT001 FEW006 BKN012 22/21 A2993=
200708302200 METAR MRPV 302200Z 14006KT 6000 -TSRA FEW002 FEW010CB BKN100 19/19 A2995 RMK UNL E=
200708302300 METAR MRPV 302300Z VRB03KT 9999 -RA FEW008 SCT100 BKN250 19/19 A2997 RMK VIS NW 6000 DUE ST=
200708310000 METAR MRPV 310000Z NIL=
200708310100 METAR MRPV NIL=
200708310200 METAR MRPV NIL=
200708310300 METAR MRPV NIL=
200708310400 METAR MRPV NIL=
200708310500 METAR MRPV NIL=
200708310600 METAR MRPV NIL=
200708310700 METAR MRPV NIL=
200708310800 METAR MRPV NIL=
200708310900 METAR MRPV NIL=
200708311100 METAR MRPV NIL=
200708311200 METAR MRPV 311200Z 12004KT CAVOK 19/16 A2999 RMK TRACE CU BKN250=
200708311300 METAR MRPV 311300Z 13006KT CAVOK 22/17 A3001 RMK DU 09 TRACE CU BKN250=
200708311400 METAR MRPV 311400Z 12006KT CAVOK 25/17 A3001 RMK TRACE SC CU SCT250=
200708311500 METAR MRPV 311500Z 10007KT 9999 FEW030 SCT250 26/17 A3000=
200708311600 METAR MRPV 311600Z 29007KT 9999 FEW030 SCT250 25/20 A3001=
200708311700 METAR MRPV 311700Z 28009KT 9999 SCT025 24/20 A3001=
200708311800 METAR MRPV 311800Z 29010KT 9999 BKN025 25/19 A3000=
200708311900 METAR MRPV 311900Z 28012KT 9999 VCSH SCT020CB SCT035 25/19 A2999 RMK CB RASH E 6000=
200708312000 METAR MRPV 312000Z 27009KT 9999 4000N VCSH SCT010 SCT020TCU BKN100 24/20 A2996=
200708312100 METAR MRPV 312100Z 28009KT 5000 -TSRA SCT003 BKN015CB 22/20 A2996 RMK VIS S 8KMS=
200708312200 METAR MRPV NIL=
200708312300 METAR MRPV 312300Z 04005KT 3000 TSRA SCT002 BKN008CB 19/18 A300=
200709010000 METAR MRPV NIL=
200709010100 METAR MRPV NIL=
200709010200 METAR MRPV NIL=
200709010300 METAR MRPV NIL=
200709010400 METAR MRPV NIL=
200709010500 METAR MRPV NIL=
200709010600 METAR MRPV NIL=
200709010700 METAR MRPV NIL=
200709010800 METAR MRPV NIL=
200709010900 METAR MRPV NIL=
200709011000 METAR MRPV NIL=
200709011100 METAR MRPV NIL=
200709011200 METAR MRPV 011200Z 13007KT CAVOK 19/15 A3000 BKN120 TRAZAS SCT=
200709011300 METAR MRPV 011300Z 13007KT CAVOK 22/16 A3003 RMK BKN120 TRAZAS SC=
200709011400 METAR MRPV 011400Z 13007KT CAVOK 25/15 A3004 RMK SCT120 SCT250 TRAZAS SC=
200709011500 METAR MRPV 011500Z 23006KT 9999 FEW030 SCT250 24/18 A3005=
200709011600 METAR MRPV 011600Z 29009KT 9999 FEW030 SCT250 24/18 A3000=
200709011700 METAR MRPV 011700Z 28008KT 9999 SCT025 SCT120 25/19 A3005=
200709011800 METAR MRPV 011800Z 29010KT 9999 SCT025 26/19 A3004 RMK TCU RN DST E=
200709011900 METAR MRPV 011900Z 29009KT 9999 4000 TS VCSH FEW010CB BKN025 24/19 A3001 RASH N=
200709012000 METAR MRPV 012000Z 26005KT 9999 SCT020 BKN035 24/20 A2998 TCU/RN N/NE=
200709012100 METAR MRPV 012100Z 25005KT 9999 TS VCSH FEW010CB SCT020 BKN100 25/20 A2996 CB RASH VIS 6MKS TO NE E SE=
200709012200 METAR MRPV 012200Z 30002KT 3000 -TSRA SCT006 SCT010CB BKN100 22/20 A2997 RMK VIS SW UNLTD=
200709012300 METAR MRPV 012300Z 00000KT 6000 -TSRA FEW003 SCT010CB OVC100 20/18 A3001 RMK VIS SW 3KMS=
200709020000 METAR MRPV NIL=
200709020100 METAR MRPV NIL=
200709020200 METAR MRPV NIL=
200709020300 METAR MRPV NIL=
200709020400 METAR MRPV NIL=
200709020500 METAR MRPV NIL=
200709020600 METAR MRPV NIL=
200709020700 METAR MRPV NIL=
200709020800 METAR MRPV NIL=
200709020900 METAR MRPV NIL=
200709021000 METAR MRPV NIL=
200709021100 METAR MRPV NIL=
200709021200 METAR MRPV NIL=
200709021300 METAR MRPV 021300Z 00000KT CAVOK 20/17 A3004 RMK TRACE SC SCT250=
200709021400 METAR MRPV 021400Z 04003KT CAVOK 23/17 A3005 SCT250 TRACE SCT=
200709021500 METAR MRPV 021500Z 11006KT CAVOK 26/17 A3005 RMK BKN250 TRACE SC=
200709021600 METAR MRPV 021600Z 07006KT 9999 SCT035 SCT250 26/17 A3006=
200709021700 METAR MRPV 021700Z 08007KT 9999 SCT030 28/17 A3005=
200709021800 METAR MRPV 021800Z 28013KT 9999 SCT020TCU BKN035 25/20 A3003=
200709021900 METAR MRPV 021900Z 23004KT 5000 -TSRA SCT003 BKN015CB 21/290 A3001 RMK VIS NW N 3KMS=
200709022000 METAR MRPV 022000Z 02004KT 9999 3000SW TS VCFG FEW010 SCT015CB OVC100 21/19 A3001=
200709022100 METAR MRPV 022100Z 19004KT 9999 SCT020 OVC100 22/19 A3000=
200709022200 METAR MRPV 022200Z 32003KT 9999 SCT020 OVC100 22/19 A2999=
200709022300 METAR MRPV 022300Z 08009KT 9999 SCT020 BKN100 23/18 A3000=
200709030000 METAR MRPV NIL=
200709030100 METAR MRPV NIL=
200709030200 METAR MRPV NIL=
200709030300 METAR MRPV NIL=
200709030400 METAR MRPV NIL=
200709030500 METAR MRPV NIL=
200709030600 METAR MRPV NIL=
200709030700 METAR MRPV NIL=
200709030800 METAR MRPV NIL=
200709030900 METAR MRPV NIL=
200709031000 METAR MRPV NIL=
200709031100 METAR MRPV NIL=
200709031200 METAR MRPV NIL=
200709031300 METAR MRPV 031300Z 13007KT 9999 NSC 22/16 A3003 RMK TRACE AC CI CB SW=
200709031400 METAR MRPV 031400Z 09009KT 9999 NSC 24/17 A3005 RMK TRACE CU SC AC CI CB S W E DU APROXIMACION PISTA 09=
200709031500 METAR MRPV 031500Z 08010KT CAVOK 26/17 A3004 RMK TRACE SC FEWCI250 DU AROXIMACION PISTA 09=
200709031600 METAR MRPV 031600Z VRB03KT 9999 FEW025 28/17 A3004 RMK DU APROXIMACION PISTA 09=
200709031700 METAR MRPV 031700Z 28012KT 9999 FEW012TCU SCT025 24/20 A3003 RMK RN E NE CB S W=
200709031800 METAR MRPV 031800Z 28014KT 9999 SCT010TCU SCT025 26/20 A3001 RMK RN ENE NW=
200709031900 METAR MRPV 031900Z 27010KT 9999 FEW010CB BKN025 25/20 A2998 TS DST NNW=
200709032000 METAR MRPV 032000Z 26006KT 9999 -TSRA SCT002 FEW008CB BKN020 22/20 A2995=
200709032100 METAR MRPV 032100Z 27008KT 1000 -TSRA SCT004CB OVC008 20/19 A2998=
200709032200 METAR MRPV 032200Z 31004KT 2000 -TSRA FEW002CB OVC008 20/19 A2998=
200709032300 METAR MRPV 032300Z VRB03KT 2000 -RA SCT002 OVC010 19/19 A3001=
200709040000 METAR MRPV NIL=
200709040100 METAR MRPV NIL=
200709040200 METAR MRPV NIL=
200709040300 METAR MRPV NIL=
200709040400 METAR MRPV NIL=
200709040500 METAR MRPV NIL=
200709040600 METAR MRPV NIL=
200709040700 METAR MRPV NIL=
200709040800 METAR MRPV NIL=
200709040900 METAR MRPV NIL=
200709041000 METAR MRPV NIL=
200709041100 METAR MRPV NIL=
200709041200 METAR MRPV 041200Z 08003KT 9999 SCT025 SCT100 17/16 A2999 RMK DUST IN APCH RNY 09=
200709041300 METAR MRPV 041300Z 00000KT 9999 FEW025 BKN100 19/17 A3001 POLVO PISTA 09=
200709041400 METAR MRPV 041400Z 07002KT 9999 FEW025 SCT100 BKN250 21/18 A3002 POLVO PISTA 09=
200709041500 METAR MRPV 051500Z VRB03KT 9999 FEW025 BKN250 23/18 A3003 POLVO PISTA 09=
200709041600 METAR MRPV 041600Z 30006KT 9999 SCT025 BKN100 23/18 A3003 DU PISTA 09=
200709041700 METAR MRPV 041700Z 30007KT 9999 BKN025 SCT100 23/18 A3002 DU PISTA 09=
200709041800 METAR MRPV 041800Z 28008KT 9999 SCT010 BKN022 24/19 A3001 RN NW W=
200709041900 METAR MRPV NIL=
200709042000 METAR MRPV NIL=
200709042100 METAR MRPV NIL=
200709042200 METAR MRPV 042200Z 29006KT 5000 -RA BR SCT002 BKN015 21/20 A2995 RMK CONDICIONES VARIABLES=
200709042300 METAR MRPV 042300Z 29007KT 3000 DZ BR SCT002 BKN010 21/20 A2997 RMK CONDICIONES VARIABLES=
200709050000 METAR MRPV 050000Z NIL=
200709050100 METAR MRPV NIL=
200709050200 METAR MRPV NIL=
200709050300 METAR MRPV NIL=
200709050400 METAR MRPV NIL=
200709050500 METAR MRPV NIL=
200709050600 METAR MRPV NIL=
200709050700 METAR MRPV NIL=
200709050800 METAR MRPV NIL=
200709050900 METAR MRPV NIL=
200709051000 METAR MRPV NIL=
200709051100 METAR MRPV NIL=
200709051200 METAR MRPV 051200Z 08004KT CAVOK 18/17 A3001 RMK CB E DU APROXIMACION PISTA 09 TRACE SC BKN100 SCT250=
200709051300 METAR MRPV 051300Z 11004KT CAVOK 20/17 A3002 RMK TRACE SC SCT100 BKN250 DU 09 CB DST NE=
200709051400 METAR MRPV 051400Z 11004KT CAVOK 22/17 A3002 RMK TRACE SCCU FEW120 BKN250=
200709051500 METAR MRPV 051500Z 11008KT CAVOK 25/17 A3003 RMK DU 09 FEW120 BKN250=
200709051600 METAR MRPV 051600Z 09009KT CAVOK 27/18 A3002 RMK DU 09 TRACE SC BKN250=
200709051700 METAR MRPV 051700Z 08008KT 9999 FEW025 BKN250 28/18 A3002=
200709051800 METAR MRPV 051800Z 27009KT 9999 SCT022 BKN250 27/20 A3000 RMK TCU N NW W=
200709051900 METAR MRPV 051900Z 29010KT 6000 -RA FEW010CB BKN018 24/21 A2998 RMK E UNL=
200709052000 METAR MRPV 052000Z VRB03KT 5000 2000E -TSRA FEW010CB BKN016 19/18 A2997 RMK VIS S SW UNL=
200709052100 METAR MRPV 052100Z 09005KT 6000 2000 NE -RA SCT015 BKN100 19/18 A2997 RMK VIS S UNL=
200709052200 METAR MRPV 052200Z VRB03KT 9999 SCT020 BKN100 20/19 A2998 RMK RN DST N=
200709052300 METAR MRPV 052300Z 14008KT 2500 TSRA SCT008CB BKN012 20/19 A3002=
200709060000 METAR MRPV NIL=
200709060100 METAR MRPV NIL=
200709060200 METAR MRPV NIL=
200709060300 METAR MRPV NIL=
200709060400 METAR MRPV NIL=
200709060500 METAR MRPV NIL=
200709060600 METAR MRPV NIL=
200709060700 METAR MRPV NIL=
200709060800 METAR MRPV NIL=
200709060900 METAR MRPV NIL=
200709061000 METAR MRPV NIL=
200709061100 METAR MRPV NIL=
200709061200 METAR MRPV 061200Z 14006KT CAVOK 20/15 A3001 TRAZAS SCT SCT100 BKN200 DU PISTA 09=
200709061300 METAR MRPV 061300Z 35005KT 9999 FEW005 BKN200 19/17 A3006 RMK TRAZAS CU/SC POLVO 09 CB DST S=
200709061400 METAR MRPV 061400Z 28002KT 9999 FEW010 SCT250 22/19 A3008 RMK CB DST DST SW/W POLVO 09=
200709061500 METAR MRPV 061500Z 30004KT 9999 FEW025 BKN250 23/18 A3010=
200709061600 METAR MRPV 061600Z 27005KT 9999 SCT025 BKN250 24/18 A3009=
200709061700 METAR MRPV 061700Z 29008KT 9999 SCT025 BKN250 25/19 A3007 RMK CB RASH DST E=
200709061800 METAR MRPV 061800Z 29006KT 9999 SCT020CB BKN250 25/19 A3003 RMK CB/RASH NE=
200709061900 METAR MRPV 061900Z 36002KT 9999 SCT020 BKN035 27/19 A3000 RASH NE=
200709062000 METAR MRPV 062000Z 32005KT 9999 FEW010CB SCT020 BKN100 26/20 A2997 RMK RASH NE=
200709062100 METAR MRPV 062100Z 08007KT 9999 TS VCSH SCT007 SCT020CB BKN100 24/18 A2998 RMK VIS NW 5KMS DUE RASH=
200709062200 METAR MRPV 062200Z 32004KT 9999 3000SW BR VCSH SCT010 BKN020 21/18 A3000=
200709062300 METAR MRPV 062300Z 30003KT 3000 -RA BR SCT002 BKN006 20/20 A3001=
200709070000 METAR MRPV NIL=
200709070100 METAR MRPV NIL=
200709070200 METAR MRPV NIL=
200709070300 METAR MRPV NIL=
200709070400 METAR MRPV NIL=
200709070500 METAR MRPV NIL=
200709070600 METAR MRPV NIL=
200709070700 METAR MRPV NIL=
200709070800 METAR MRPV NIL=
200709070900 METAR MRPV NIL=
200709071000 METAR MRPV NIL=
200709071100 METAR MRPV NIL=
200709071200 METAR MRPV 071200Z 13007KT CAVOK 20/16 A3001 RMK TRACE SC BKN300=
200709071300 METAR MRPV 071300Z 12010KT CAVOK 22/16 A3003 RMK TRACE CU SC BKN300 RFGS 15KT=
200709071400 METAR MRPV 071400Z 10012KT CAVOK 23/17 A3004 RMK TRACE CU SC SCT300 RFGS 18KT=
200709071500 METAR MRPV 071500Z 08013KT 9999 FEW030 SCT250 25/17 A3005=
200709071600 METAR MRPV 071600Z 07009KT 9999 FEW030 SCT250 27/17 A3003=
200709071700 METAR MRPV 071700Z 08007KT 9999 FEW030 SCT250 28/17 A3001=
200709071800 METAR MRPV 071800Z 06006KT 9999 SCT030 SCT250 29/27 A2998=
200709071900 METAR MRPV 071900Z 28012KT 9999 FEW020 BKN030 27/20 A2996=
200709072000 METAR MRPV 072000Z 08013KT 9999 FEW020TCU BKN030 26/21 A2994 TCU RN E=
200709072100 METAR MRPV 072100Z 27007KT 3000 TS RA SCT010CB BKN030 24/21 A2995 VIS W UNL=
200709072200 METAR MRPV 072200Z 00000KT 9999 3000NW -TSRA FEW007 SCT015CB BKN080 20/19 A2995=
200709072300 METAR MRPV 072300Z 12003KT 9999 FEW005 SCT015 OVC100 20/19 A2997=
200709080000 METAR MRPV NIL=
200709080100 METAR MRPV NIL=
200709080200 METAR MRPV NIL=
200709080300 METAR MRPV NIL=
200709080400 METAR MRPV NIL=
200709080500 METAR MRPV NIL=
200709080600 METAR MRPV NIL=
200709080700 METAR MRPV NIL=
200709080800 METAR MRPV NIL=
200709080900 METAR MRPV NIL=
200709081000 METAR MRPV NIL=
200709081100 METAR MRPV NIL=
200709081200 METAR MRPV 081200Z 09011KT 9999 FEW030 OVC120 21/17 A2998=
200709081300 METAR MRPV 081300Z 13006KT 9999 FEW030 OVC120 21/17 A2998=
200709081400 METAR MRPV 081400Z 13007KT 9999 FEW030 BKN120 22/17 A2999=
200709081500 METAR MRPV 081500Z 12008KT 9999 FEW030 SCT120 BKN250 24/17 A2999=
200709081600 METAR MRPV 081600Z 09016KT 9999 FEW030 SCT120 BKN250 25/17 A3003=
200709081700 METAR MRPV 081700Z 07017KT 9999 FEW030 BKN120 28/16 A3003=
200709081800 METAR MRPV 081800Z 08015KT 9999 SCT030 BKN120 26/17 A2997=
200709081900 METAR MRPV 081900Z 07013KT 9999 SCT030 BKN120 27/18 A2995=
200709082000 METAR MRPV 082000Z 07007KT 9999 4000W BR FEW008 SCT025 BKN100 25/17 A2993=
200709082100 METAR MRPV 082100Z 00000KT 9999 -RA SCT020 OVC100 22/21 A2992=
200709082200 METAR MRPV NIL=
200709082300 METAR MRPV 082300Z 08007KT 9999 SCT020 BKN100 23/18 A2992=
200709090000 METAR MRPV NIL=
200709090100 METAR MRPV NIL=
200709090200 METAR MRPV NIL=
200709090300 METAR MRPV NIL=
200709090400 METAR MRPV NIL=
200709090500 METAR MRPV NIL=
200709090600 METAR MRPV NIL=
200709090700 METAR MRPV NIL=
200709090800 METAR MRPV NIL=
200709090900 METAR MRPV NIL=
200709091000 METAR MRPV NIL=
200709091100 METAR MRPV NIL=
200709091200 METAR MRPV NIL=
200709091300 METAR MRPV 091300Z 10005KT CAVOK 21/18 A2997 FEW100 BKN250 CB SW=
200709091400 METAR MRPV 091400Z 13006KT CAVOK 25/17 A2999 CB SW BKN250=
200709091500 METAR MRPV 091500Z 10009KT 9999 FEW022 BKN250 26/17 A2998 CB SW=
200709091600 METAR MRPV 091600Z 09010KT 9999 FEW022 BKN250 26/17 A2998 TCU NE=
200709091700 METAR MRPV 091700Z 29004KT 9999 SCT020TCU BKN250 28/17 A2997 RN NE NW=
200709091800 METAR MRPV 091800Z 27010KT 9999 SCT010TCU SCT025 25/20 A2994 RN N=
200709091900 METAR MRPV 091900Z 27010KT 9999 3000N TS VCSH FEW010CB BKN022 26/20 A2991=
200709092000 METAR MRPV 092000Z 36008KT 2000 +TSRA SCT005CB BKN010 20/19 A2992=
200709092100 METAR MRPV 092100Z VRB03KT 5000 2000NW -TARA FEW002 FEW010CB BKN015 20/19 A2992=
200709092200 METAR MRPV 092200Z 26004KT 2000 +RA SCT002 OVC010 19/19 A2992 RMK TS W NW=
200709092300 METAR MRPV 092300Z 28004KT 2000 RA BR SCT001 OVC008 19/19 A2994=
200709100000 METAR MRPV 100000Z NIL=
200709100100 METAR MRPV NIL=
200709100200 METAR MRPV NIL=
200709100300 METAR MRPV NIL=
200709100400 METAR MRPV NIL=
200709100500 METAR MRPV NIL=
200709100600 METAR MRPV NIL=
200709100700 METAR MRPV NIL=
200709100800 METAR MRPV NIL=
200709100900 METAR MRPV NIL=
200709101000 METAR MRPV NIL=
200709101100 METAR MRPV NIL=
200709101200 METAR MRPV 101200Z VRB03KT CAVOK 18/16 A2996 RMK BKN110 CB SW=
200709101300 METAR MRPV 101300Z VRB03KT CAVOK 20/16 A2998 RMK DU 09 BKN110 CB SW=
200709101400 METAR MRPV 101400Z 12004KT CAVOK 23/17 A2999 RMK DU 09 BKN110 CB DST SW=
200709101500 METAR MRPV 101500Z 28007KT CAVOK 23/18 A3000 RMK DU 09 BKN110 CB SW=
200709101600 METAR MRPV 101600Z 28005KT CAVOK 24/18 A3000 RMK DU 09 BKN110 CB SW=
200709101700 METAR MRPV 101700Z 29008KT 9999 FEW012 SCT110 BKN250 25/19 A2998=
200709101800 METAR MRPV 101800Z 27008KT 9999 SCT012TCU SCT110 26/20 A2996=
200709101900 METAR MRPV 101900Z 29008KT 9999 -TSRA SCT010CB SCT100 25/19 A2993=
200709102000 METAR MRPV 102000Z 27005KT 9999 FEW010CB SCT024 BKN250 24/20 A2991 RMK RN DST E S=
200709102100 METAR MRPV 102100Z 28007KT 8000 3000NE VCTS SCT004 FEW010CB BKN250 23/21 A2990=
200709102200 METAR MRPV 102200Z VRB03KT 4000 1800E RA SCT002 BKN018 21/20 A2991 RMK VIS W 6KMS=
200709102300 METAR MRPV 102300Z VRB03KT 3000 -TSRA SCT001 FEW005CB BKN090 20/19 A2992=
200709110000 METAR MRPV 110000Z VRB03KT 4000 -RA SCT002 SCT010 BKN090 20/19 A2992 RMK UNL S=
200709110100 METAR MRPV NIL=
200709110200 METAR MRPV NIL=
200709110300 METAR MRPV NIL=
200709110400 METAR MRPV NIL=
200709110500 METAR MRPV NIL=
200709110600 METAR MRPV NIL=
200709110700 METAR MRPV NIL=
200709110800 METAR MRPV NIL=
200709110900 METAR MRPV NIL=
200709111000 METAR MRPV NIL=
200709111100 METAR MRPV NIL=
200709111200 METAR MRPV 111200Z 13007KT CAVOK 20/16 A2994 TRAZAS SC/CI CB S FEW120=
200709111300 METAR MRPV 111300Z 12008KT CAVOK 22/17 A2996 RMK CB DST SW TRAZAS SC FEW120 SCT300=
200709111400 METAR MRPV 111400Z 11008KT CAVOK 24/17 A2997 RMK CB DST N/SW TRAZAS CU/SC FEW120 SCT300=
200709111500 METAR MRPV 111500Z 09011KT 9999 FEW045 SCT300 25/17 A2998 RMK CB DST SW TRAZAS AC RAFAGAS 18 NUDOS=
200709111600 METAR MRPV 111600Z 08013KT 9999 FEW045 BKN250 25/17 A2998 RMK RAFAGAS 19 NUDOS=
200709111700 METAR MRPV 111700Z 07012KT 9999 SCT025 BKN250 27/18 A2998=
200709111800 METAR MRPV 111800Z 07012KT 9999 SCT020 BKN250 27/18 A2995=
200709111900 METAR MRPV 111900Z 07012KT 9999 SCT015 28/18 A2992 RMK LINE TCU DST S CB DST E/SE/N RN E/NE=
200709112000 METAR MRPV NIL=
200709112100 METAR MRPV NIL=
200709112200 METAR MRPV NIL=
200709112300 METAR MRPV NIL=
200709120000 METAR MRPV NIL=
200709120100 METAR MRPV NIL=
200709120200 METAR MRPV NIL=
200709120300 METAR MRPV NIL=
200709120400 METAR MRPV NIL=
200709120500 METAR MRPV NIL=
200709120600 METAR MRPV NIL=
200709120700 METAR MRPV NIL=
200709120800 METAR MRPV NIL=
200709120900 METAR MRPV NIL=
200709121000 METAR MRPV NIL=
200709121100 METAR MRPV NIL=
200709121200 METAR MRPV 121200Z 12009KT CAVOK 21/17 A2992 RMK TRACE SC BKN250 CB N NE E S GST 14KT=
200709121300 METAR MRPV 121300Z 11011KT 9999 FEW030 SCT250 22/17 A2992 RMK CB DST N NE RFGS 16KT=
200709121400 METAR MRPV 121400Z 11011KT 9999 FEW035 BKN250 24/18 A2995 RMK CB DST N RFGS 17KT=
200709121500 METAR MRPV 121500Z 08012KT 9999 SCT025 BKN250 25/18 A2996=
200709121600 METAR MRPV 121600Z 06014KT 9999 SCT025 BKN250 26/18 A2998=
200709121700 METAR MRPV 121700Z 06010KT 9999 SCT025 BKN250 26/18 A2997=
200709121800 METAR MRPV 121800Z 07012KT 9999 SCT025 BKN250 26/18 A2994=
200709121900 METAR MRPV 121900Z 08017KT 9999 FEW020TCU SCT030 BKN080 25/18 A2991 RMK CBS RASH DST N=
200709122000 METAR MRPV 122000Z 09012KT 9999 FEW020TCU SCT035 BKN100 25/18 A2988 RMK CBS DST RASH E W=
200709122100 METAR MRPV 122100Z 09013KT 9999 FEW015TCU SCT025 BKN100 24/17 A2987=
200709122200 METAR MRPV 122200Z 11008KT 9999 FEW010 SCT020 OVC100 23/17 A2989=
200709122300 METAR MRPV NIL=
200709122330 METAR MRPV 122330Z 11005K 9999 BKN025 OVC100 23/17 A2992=
200709130000 METAR MRPV 130000Z NIL=
200709130100 METAR MRPV NIL=
200709130200 METAR MRPV NIL=
200709130300 METAR MRPV NIL=
200709130400 METAR MRPV NIL=
200709130500 METAR MRPV NIL=
200709130600 METAR MRPV NIL=
200709130700 METAR MRPV NIL=
200709130800 METAR MRPV NIL=
200709130900 METAR MRPV NIL=
200709131000 METAR MRPV NIL=
200709131100 METAR MRPV NIL=
200709131200 METAR MRPV 131200Z 13003KT 9999 FEW030 BKN100 21/16 A2995 RMK CB DST SW FU N POLVO CABECERA 09=
200709131300 METAR MRPV 131300Z 31002KT CAVOK 23/17 A2996 RMK TRACE SC CB SW FU N DU APROXIMACION PISTA 09 BKN100=
200709131400 METAR MRPV 131400Z 12007KT CAVOK 24/17 A2997 RMK TRACE CU SC CI SCT100=
200709131500 METAR MRPV 131500Z 08010KT 9999 FEW030 BKN120 25/17 A2999=
200709131600 METAR MRPV NIL=
200709131700 METAR MRPV 131700Z 08007KT 9999 SCT020 BKN120 26/18 A2998=
200709131800 METAR MRPV 131800Z 09007KT 9999 FEW010 SCT025 BKN120 26718 A2995=
200709131900 METAR MRPV 131900Z 27008KT 9999 FEW015 SCT025 BKN120 25/20 A2991=
200709132000 METAR MRPV 132000Z 28010KT 9999 ST015 BKN100 24/20 2989=
200709132100 METAR MRPV 132100Z 28011KT 9999 FEW010 SCT020 OVC100 25/20 A2988 RASH NE N E=
200709132200 METAR MRPV 132200Z 29009KT 6000 VCFG SCT010 BKN025 23/20 A2989 VSBY SW 3KM DUE FG RASH E=
200709132300 METAR MRPV 132300Z 31004KT 6000 VCSH SCT005 BKN015 22/20 A2990=
200709140000 METAR MRPV NIL=
200709140100 METAR MRPV NIL=
200709140200 METAR MRPV NIL=
200709140300 METAR MRPV NIL=
200709140400 METAR MRPV NIL=
200709140500 METAR MRPV NIL=
200709140600 METAR MRPV NIL=
200709140700 METAR MRPV NIL=
200709140800 METAR MRPV NIL=
200709140900 METAR MRPV NIL=
200709141000 METAR MRPV NIL=
200709141100 METAR MRPV NIL=
200709141200 METAR MRPV 141200Z 13005KT CAVOK 20/18 A2994 RMK CB DST E DUST IN APCH RNY 09 TRACE SC FEW100 BKN250=
200709141300 METAR MRPV 141300Z 14004KT 9999 4000W BR FEW030 BKN250 21/18 A2996 CB E DU PISTA 09=
200709141315 METAR MRPV 141315Z 30002KT 90999 4000W BR FEW030 SCT100 BKN250 20/18 A2998 DU PISTA 09 CB ENE=
200709141400 METAR MRPV 141400Z 07007KT CAVOK 22/18 A2998 TRAZAS CU/SC/ST FEW100 BKN250 CB N NE POLVO EN LA APROXIMACION DE LA PISTA 09=
200709141500 METAR MRPV 141500Z 09011KT 9999 FEW020 SCT120 BKN250 24/18 A2999=
200709141600 METAR MRPV 141600Z 10013KT 9999 FEW025 BKN120 23/18 A2998=
200709141700 METAR MRPV 141700Z 09012KT 9999 FEW015 OVC120 23/18 A2999 RN NE=
200709141800 METAR MRPV 141800Z 12003KT 9999 -RA SCT015 OVC100 20/18 A2999=
200709141900 METAR MRPV 141900Z 09013KT 9999 SCT020 OVC100 22/17 A2995 RERA=
200709142000 METAR MRPV 142000Z 08012KT 9999 SCT025 OVC100 23/18 A2993=
200709142100 METAR MRPV 142100Z 10006KT CAVOK 24/18 A2989 RMK TRACE SC BKN120=
200709142200 METAR MRPV 142200Z 10010KT 9999 FEW040 SCT120 BKN250 23/16 A2991=
200709142300 METAR MRPV 142300Z 07010KT 9999 SCT030 OVC100 22/17 A2993=
200709150000 METAR MRPV 150000Z NIL=
200709150100 METAR MRPV NIL=
200709150200 METAR MRPV NIL=
200709150300 METAR MRPV NIL=
200709150400 METAR MRPV NIL=
200709150500 METAR MRPV NIL=
200709150600 METAR MRPV NIL=
200709150700 METAR MRPV NIL=
200709150800 METAR MRPV NIL=
200709150900 METAR MRPV NIL=
200709151000 METAR MRPV NIL=
200709151100 METAR MRPV NIL=
200709151200 METAR MRPV 151200Z VRB03KT 9999 3000W BR FEW002 SCT020 BKN100 20/17 A2999=
200709151300 METAR MRPV 151300Z 00000KT 9999 4000W BR FEW002 SCT025 BKN100 20/18 A3000 RMK DU 09=
200709151400 METAR MRPV 151400Z 10008KT 9999 4000W BR FEW002 SCT025 BKN100 22/16 A3001 RMK DU 09=
200709151500 METAR MRPV 151500Z 11006KT 9999 4000NW BR SCT020 BKN120 23/17 A3003=
200709151600 METAR MRPV 151600Z 08010KT 9999 FEW020 SCT120 BKN220 23/17 A3002=
200709151700 METAR MRPV 151700Z 09010KT 9999 FEW020 SCT120 BKN220 24/17 A3000=
200709151800 METAR MRPV 151800Z 07007KT 9999 SCT020TCU SCT120 BKN220 26/17 A2998 RMK RN DST W=
200709151900 METAR MRPV 151900Z 27009KT 9999 SCT010TCU SCT120 BKN220 24/20 A2996 RMK RN DST NW=
200709152000 METAR MRPV 152000Z 27009KT 8000 3000W VCFG BR FEW002 BKN020 22/20 A2995 RMK RN E=
200709152100 METAR MRPV 152100Z 27006KT 3000 DZ BR SCT001 BKN010 21/20 A2995 RMK ST DESPLAZANDOSE DEL W/ AL E=
200709152200 METAR MRPV NIL=
200709152300 METAR MRPV 152300Z VRB03KT 3000 RA BR SCT010 OVC100 19/18 A2997=
200709160000 METAR MRPV NIL=
200709160100 METAR MRPV NIL=
200709160200 METAR MRPV NIL=
200709160300 METAR MRPV NIL=
200709160400 METAR MRPV NIL=
200709160500 METAR MRPV NIL=
200709160600 METAR MRPV NIL=
200709160700 METAR MRPV NIL=
200709160800 METAR MRPV NIL=
200709160900 METAR MRPV NIL=
200709161000 METAR MRPV NIL=
200709161100 METAR MRPV NIL=
200709161200 METAR MRPV NIL=
200709161300 METAR MRPV 161300Z 11008KT 9999 FEW030 BKN100 21/17 A3001=
200709161400 METAR MRPV 161400Z 13007KT 9999 FEW030 BKN100 23/17 A3002=
200709161500 METAR MRPV 161500Z 10006KT 9999 FEW022 BKN100 25/18 A3002=
200709161600 METAR MRPV 161600Z 09010KT 9999 SCT018 SCT025 25/17 A3003 RMK TCU DST SW/W/NW=
200709161700 METAR MRPV NIL=
200709161800 METAR MRPV 161800Z 21004KT 9999 SCT012TCU SCT025 BKN250 26/18 A2999 RN DST NE/SE=
200709161900 METAR MRPV 161900Z 28006KT 9999 SCT010TCU BKN022 24/20 A2996=
200709162000 METAR MRPV 162000Z 27010KT 5000 2000S -RA VCSH SCT010TCU BKN018 22/20 A2993=
200709162100 METAR MRPV 162100Z 24005KT 2000 TSRA SCT001 FEW006CB BKN010 20/20 A2994=
200709162200 METAR MRPV 162200Z VRB03KT 6000 2800E -TSRA SCT002 FEW008CB BKN020 20/19 A2995=
200709162300 METAR MRPV NIL=
200709170000 METAR MRPV NIL=
200709170100 METAR MRPV NIL=
200709170200 METAR MRPV NIL=
200709170300 METAR MRPV NIL=
200709170400 METAR MRPV NIL=
200709170500 METAR MRPV NIL=
200709170600 METAR MRPV NIL=
200709170700 METAR MRPV NIL=
200709170800 METAR MRPV NIL=
200709170900 METAR MRPV NIL=
200709171000 METAR MRPV NIL=
200709171100 METAR MRPV NIL=
200709171200 METAR MRPV 171200Z 11005KT CAVOK 19/17 A2999 RMK TRACE SC CI FEW100 CB DST SE SW=
200709171300 METAR MRPV 171300Z 06003KT 9999 NSC 21/18 A3002 RMK TRACE CU SC AC CB DST SW W=
200709171400 METAR MRPV 171400Z 00000KT CAVOK 23/18 A3003 RMK TRACE CU SC FEW100 CB DST W SW=
200709171500 METAR MRPV 171500Z 10006KT CAVOK 26/18 A3002 RMK TRACE SC SCT100 DUST IN APCH RNY 09 CB DST SW W=
200709171600 METAR MRPV 171600Z 28010KT 9999 SCT028 25/20 A3002 RMK HZ W DUST APCH 09=
200709171700 METAR MRPV 171700Z 29010KT 9999 SCT018TCU 26/20 A3000=
200709171800 METAR MRPV 171800Z 27009KT 9999 SCT010TCU SCT022 26/20 A2997=
200709171900 METAR MRPV 171900Z 28014KT 9999 FEW010CB SCT022TCU 26/21 A2995 RMK RASH E=
200709172000 METAR MRPV 172000Z 26007KT 8000 2000E TS VCSH SCT004CB BKN018 23/21 A2995 TS MOVNG E TO SE VIS W UNLTD=
200709172100 METAR MRPV 172100Z VRB03KT 7000 3000NW -RA SCT010 BKN100 20/19 A2994 VIS SE S UNL TSTM W=
200709172200 METAR MRPV 172200Z VRB03KT 8000 3000NW -DZ VCFG SCT010 SCT100 BKN250 21/20 A2993 RMK VIS SE S UNL=
200709172300 METAR MRPV 172300Z 28006KT 5000 2400NW BR SCT001 BKN020 21/20 A2995 VIS SE S UNL=
200709180000 METAR MRPV 180000Z NIL=
200709180100 METAR MRPV NIL=
200709180200 METAR MRPV NIL=
200709180300 METAR MRPV NIL=
200709180400 METAR MRPV NIL=
200709180500 METAR MRPV NIL=
200709180600 METAR MRPV NIL=
200709180700 METAR MRPV NIL=
200709180800 METAR MRPV NIL=
200709180900 METAR MRPV NIL=
200709181000 METAR MRPV NIL=
200709181100 METAR MRPV NIL=
200709181200 METAR MRPV 181200Z 09004KT CAVOK 18/17 A2997 TRAZAS SC/AC CB DST S/SW BKN300 DELDADO BANCO NIEBLA W=
200709181300 METAR MRPV 181300Z 09005KT CAVOK 21/18 A2999 RMK TRACE CU SC CB S SW SCT100 SCT300=
200709181400 METAR MRPV 181400Z 12007KT CAVOK 23/17 A3000 RMK TRACE CU SC CB S SCT100 SCT300=
200709181500 METAR MRPV 181500Z 12006KT 9999 FEW020 SCT120 BKN250 25/17 A3000=
200709181600 METAR MRPV 181600Z 28012KT 9999 FEW010TCU SCT020 BKN120 24/20 A3002 RMK TCU RN N NE=
200709181700 METAR MRPV 181700Z 28008KT 9999 SCT020 BKN120 25720 A3000 RMK RN N=
200709181800 METAR MRPV 181800Z 26005KT 9999 SCT020 BKN120 25/20 A2977=
200709181900 METAR MRPV 181900Z 26008KT 9999 SCT012 SCT020TCU BKN120 26721 A2994 RMK CB RN N E=
200709182000 METAR MRPV 182000Z 26008KT 9999 TS VCSH SCT010CB BKN100 25/21 A2992 RMK CB SH E VIS 6000=
200709182100 METAR MRPV 182100Z 35003KT 9999 4000N VCSH FEW012 SCT020CB BKN100 22/17 A2992=
200709182200 METAR MRPV 182200Z 20003KT 1000 +SHRA SCT006 SCT006 BKN010 20/18 A2994=
200709182300 METAR MRPV 182300Z 00000KT 3000 -RA BR FEW003 SCT007 BKN015 20/18 A2994=
200709190000 METAR MRPV NIL=
200709190100 METAR MRPV NIL=
200709190200 METAR MRPV NIL=
200709190300 METAR MRPV NIL=
200709190400 METAR MRPV NIL=
200709190500 METAR MRPV NIL=
200709190600 METAR MRPV NIL=
200709190700 METAR MRPV NIL=
200709190800 METAR MRPV NIL=
200709190900 METAR MRPV NIL=
200709191100 METAR MRPV NIL=
200709191200 METAR MRPV 191200Z 08005KT 9999 FEW030 SCT250 19/18 A2997 CB DST SW W TRACE AC=
200709191300 METAR MRPV 191300Z 07003KT CAVOK 22/18 A2998 TRAZAS CU BKN250 CB SW W=
200709191400 METAR MRPV 191400Z 13006KT CAVOK 24/18 A2999 TRAZAS CU BKN250 CB S SW W=
200709191500 METAR MRPV 191500Z 10005KT CAVOK 26/18 A2998 BKN250 TRAZAS SCT=
200709191600 METAR MRPV 191600Z 08008KT 9999 SCT020 BKN250 27/18 A2998=
200709191700 METAR MRPV 191700Z 27009KT SCT020 SCT120 BKN250 25/20 A2997=
200709191800 METAR MRPV NIL=
200709191900 METAR MRPV 191900Z 27007KT 9999 VCFG 4000SW SCT010TCU BKN020 26/21 A2992=
200709192000 METAR MRPV 192000Z 28010KT 4000 BR SCT003 BKN010 22/20 A2991=
200709192100 METAR MRPV 192100Z 26006KT 4000 BR SCT004 BKN010 23/20 A2991=
200709192200 METAR MRPV 192200Z 29007KT 3000 BR SCT002 BKN006 21/20 A2992=
200709192300 METAR MRPV 192300Z 28007KT 0500 VV001 20/20 A2992=
200709200000 METAR MRPV NIL=
200709200100 METAR MRPV NIL=
200709200200 METAR MRPV NIL=
200709200300 METAR MRPV NIL=
200709200400 METAR MRPV NIL=
200709200500 METAR MRPV NIL=
200709200600 METAR MRPV NIL=
200709200700 METAR MRPV NIL=
200709200800 METAR MRPV NIL=
200709200900 METAR MRPV NIL=
200709201000 METAR MRPV NIL=
200709201100 METAR MRPV NIL=
200709201200 METAR MRPV 201200Z 21002KT 9999 3000SW BR FEW002 BKN008 19/19 A2999=
200709201300 METAR MRPV 201300Z 09006KT CAVOK 20/18 A2996 RMK TRACE SC FEW100 BKN250=
200709201400 METAR MRPV 201400Z 11005KT CAVOK 23/18 A2997 RMK TRACE CU AC BKN250 CB DST W=
200709201500 METAR MRPV 201500Z 12004KT 9999 FEW030 BKN250 26/18 A2997 RMK CB DST SW W=
200709201600 METAR MRPV 201600Z 28010KT 9999 SCT030 BKN250 25/21 A2998 RMK CB DST SW W=
200709201700 METAR MRPV 201700Z 29009KT 9999 SCT030 SCT120 BKN250 25/20 A2997=
200709201800 METAR MRPV 201800Z 28010KT 9999 SCT020 BKN100 25/21 A2995=
200709201900 METAR MRPV 201900Z 27011KT 9999 FEW010 SCT020TCU BKN100 25/21 A2991 RMK CB RASH NE E=
200709202000 METAR MRPV 202000Z 28012KT 4000 BR SCT002 BKN006 22/21 A2991 RMK VIS NW 8000=
200709202100 METAR MRPV 202100Z 28010KT 2000 BR BKN001 OVC010 21/20 A2991=
200709202200 METAR MRPV 202200Z 00000KT 6000 -RA BR SCT010 BKN025 21/20 A2991 RMK VIS N 3KMS=
200709202300 METAR MRPV 202300Z 19002KT 7000 -RA FEW010 SCT015 OVC100 21/20 A2992=
200709210000 METAR MRPV NIL=
200709210100 METAR MRPV NIL=
200709210200 METAR MRPV NIL=
200709210300 METAR MRPV NIL=
200709210400 METAR MRPV NIL=
200709210500 METAR MRPV NIL=
200709210600 METAR MRPV NIL=
200709210700 METAR MRPV NIL=
200709210800 METAR MRPV NIL=
200709210900 METAR MRPV NIL=
200709211000 METAR MRPV NIL=
200709211100 METAR MRPV NIL=
200709211200 METAR MRPV 211200Z 11006KT CAVOK 20/17 A2995 TRAZAS CU BKN300 CB NW THING FG BANK SW=
200709211300 METAR MRPV 211300Z 28005KT 9999 4000W BR BKN300 21/19 A2998 RMK TRAZAS CU/SC=
200709211400 METAR MRPV 211400Z 12005KT 9999 FEW030 BKN300 25/19 A3000 RMK CB DST W=
200709211500 METAR MRPV 211500Z 10008KT 9999 FEW022 SCT300 26/18 A2999 RMK HZ W=
200709211600 METAR MRPV 211600Z 22004KT 9999 SCT012 28/18 A2999 RMK VIS NW 6KMS DUE HZ=
200709211700 METAR MRPV 211700Z 27010KT 9999 3000N BR FEW010TCU SCT022 25/21 A2998 RMK RN DST NE=
200709211800 METAR MRPV 211800Z 28014KT 9999 4000E TS VCSH SCT010CB BKN022 24/20 A2997=
200709211900 METAR MRPV 211900Z 31005KT 7000 2000E TS VCSH SCT008CB BKN015 23/21 A2997=
200709212000 METAR MRPV 212000Z 22004KT 8000 3000NW VCSH FEW002 SCT015 BKN025 21/19 A2994 VIS SE/S UNL=
200709212100 METAR MRPV NIL=
200709212200 METAR MRPV 212200Z 28007KT 2000 -RA BR SCT001 BKN008 21/20 A2994=
200709212300 METAR MRPV 212300Z 29005KT 3000 BR SCT001 BKN015 21/20 A2994=
200709220000 METAR MRPV NIL=
200709220100 METAR MRPV NIL=
200709220200 METAR MRPV NIL=
200709220300 METAR MRPV NIL=
200709220400 METAR MRPV NIL=
200709220500 METAR MRPV NIL=
200709220600 METAR MRPV NIL=
200709220700 METAR MRPV NIL=
200709220800 METAR MRPV NIL=
200709220900 METAR MRPV NIL=
200709221000 METAR MRPV NIL=
200709221100 METAR MRPV NIL=
200709221200 METAR MRPV NIL=
200709221300 METAR MRPV 221300Z 08004KT CAVOK 20/18 A2999 RMK BKN250=
200709221400 METAR MRPV 221400Z 11008KT CAVOK 24/17 A3000 RMK BKN250=
200709221500 METAR MRPV 221500Z 1008KT CAVOK 25/17 A3001 RMK TRACE BKN250=
200709221600 METAR MRPV 221600Z 12008KT 9999 FEW025 BKN250 27/17 A2999=
200709221700 METAR MRPV 221700Z 09008KT 9999 SCT020 BKN250 28/17 A2999 RMK TCU DST N E=
200709221800 METAR MRPV 221800Z 26007KT 9999 SCT015TCU BKN250 26/20 A2996 DST PCPN N NW=
200709221900 METAR MRPV 221900Z 28008KT 9999 SCT018TCU BKN250 25/21 A2994 RMK PCPN DST N NW=
200709222000 METAR MRPV 222000Z 27009KT 9999 3000NE VCSH FEW010CB SCT015TCU BKN250 25/21 A2993=
200709222100 METAR MRPV 222100Z 34005KT 5000 2000NW -TSRA FEW005CB BKN015 22/19 A2993=
200709222200 METAR MRPV 222200Z VRB03KT 3000 -TSRA SCT010CB BKN015 21/20 A2995 RMK VIS E UNL=
200709222300 METAR MRPV 222300Z 29004KT 3000 -RA BR SCT100 BKN012 21/20 A2997 RMK INDEFINDO=
200709230000 METAR MRPV NIL=
200709230100 METAR MRPV NIL=
200709230200 METAR MRPV NIL=
200709230300 METAR MRPV NIL=
200709230400 METAR MRPV NIL=
200709230500 METAR MRPV NIL=
200709230600 METAR MRPV NIL=
200709230700 METAR MRPV NIL=
200709230800 METAR MRPV NIL=
200709230900 METAR MRPV NIL=
200709231000 METAR MRPV NIL=
200709231100 METAR MRPV NIL=
200709231200 METAR MRPV NIL=
200709231300 METAR MRPV 231300Z 13005KT CAVOK 22/18 A3003 RMK TRACE SC BKN250=
200709231400 METAR MRPV 231400Z 11009KT CAVOK 24/18 A3004 RMK TRACE SC BKN250=
200709231500 METAR MRPV 231500Z 09010KT 9999 FEW018 BKN250 25/18 A3005=
200709231600 METAR MRPV 231600Z 08010KT 9999 FEW018 BKN250 26/18 A3005=
200709231700 METAR MRPV 231700Z 09010KT 9999 FEW018 BKN250 27/17 A3004=
200709231800 METAR MRPV 231800Z 05004KT 9999 SCT018TCU BKN250 28/18 A3000 RMK RN DST NW=
200709231900 METAR MRPV 231900Z 27012KT 9999 FEW010CB SCT020TCU BKN250 25/22 A2997=
200709232000 METAR MRPV NIL=
200709232100 METAR MRPV 232100Z 26010KT 5000 2400W BR FEW001 FEW018CB BKNM015 22/21 A2994=
200709232200 METAR MRPV 232200Z 31006KT 2000 -RA BR SCT001 OVC008 21/20 A2996=
200709232300 METAR MRPV 2323090Z 25004KT 2500 -RA BR SCT001 OVC010 21/20 A2994=
200709240000 METAR MRPV NIL=
200709240100 METAR MRPV NIL=
200709240200 METAR MRPV NIL=
200709240300 METAR MRPV NIL=
200709240400 METAR MRPV NIL=
200709240500 METAR MRPV NIL=
200709240600 METAR MRPV NIL=
200709240700 METAR MRPV NIL=
200709240800 METAR MRPV NIL=
200709240900 METAR MRPV NIL=
200709241000 METAR MRPV NIL=
200709241100 METAR MRPV NIL=
200709241200 METAR MRPV 241200Z 13007KT CAVOK 20/17 A3001 TRACE SCT AC BKN250=
200709241300 METAR MRPV 241300Z 14006KT CAVOK 21/17 A3002 TRAZAS CU FEW120 BKN250=
200709241400 METAR MRPV 241400Z 11008G18KT 9999 FEW030 BKN250 24/18 A3004=
200709241500 METAR MRPV 241500Z 10008KT 9999 SCT030 BKN250 26/18 A3007=
200709241600 METAR MRPV 241600Z 10006KT 9999 SCT030 BKN250 26/18 A3006=
200709241700 METAR MRPV 241700Z 08008KT 9999 SCT030 BKN120 26/18 A3002=
200709241800 METAR MRPV 241800Z 06007KT 9999 SCT025 BKN120 25/18 A3001=
200709241900 METAR MRPV 241900Z 07006KT 9999 SCT020 BKN120 26/18 A2996=
200709242000 METAR MRPV 242000Z 28006KT 9999 FEW010TCU SCT020 BKN100 24/21 A2993=
200709242100 METAR MRPV 242100Z 15005KT 9999 TS FEW012CB SCT020 BKN100 25/19 A2991 RMK RASH DST E=
200709242200 METAR MRPV 242200Z 12012KT 9999 3000SW VCSH SCT006 SCT015CB BKN100 23/18 A2994=
200709242300 METAR MRPV 242300Z 11009KT 9999 TS SCT020CB OVC100 21/18 A2996=
200709250000 METAR MRPV NIL=
200709250100 METAR MRPV NIL=
200709250200 METAR MRPV NIL=
200709250300 METAR MRPV NIL=
200709250400 METAR MRPV NIL=
200709250500 METAR MRPV NIL=
200709250600 METAR MRPV NIL=
200709250700 METAR MRPV NIL=
200709250800 METAR MRPV NIL=
200709250900 METAR MRPV NIL=
200709251000 METAR MRPV NIL=
200709251100 METAR MRPV NIL=
200709251200 METAR MRPV 251200Z 00000KT CAVOK 18/14 A3000 RMK TRACE CU SCT300 TCU SW=
200709251300 METAR MRPV 251300Z 10002KT 9999 NSC 21/15 A3001 RMK TRAZAS CU/CI CB DST S=
200709251400 METAR MRPV 251400Z 10008KT CAVOK 24/14 A3004 RMK TRAZAS CU SCT300 CB DST S=
200709251500 METAR MRPV 251500Z 13005KT CAVOK 25/14 A3005 RMK SCT250 TRAZAS SC/CU=
200709251600 METAR MRPV 251600Z 08007KT 9999 FEW030 SCT250 26/13 A3005=
200709251700 METAR MRPV 251700Z 28004KT 9999 FEW030 SCT250 26/18 A3003=
200709251800 METAR MRPV 251800Z 27008KT 9999 FEW020 SCT030 26/20 A3001=
200709251900 METAR MRPV 251900Z 27010KT 9999 FEW020TCU SCT030 26/20 A2999=
200709252000 METAR MRPV 252000Z 28010KT 9999 SCT020TCU BKN030 26/21 A2996 RMK TCU/RN N=
200709252100 METAR MRPV 252100Z 04006KT 3000 TSRA SCT002 SCT007CB OVC100 22/20 A2997 RMK VIS NW N 8KMS=
200709252200 METAR MRPV NIL=
200709252300 METAR MRPV 252300Z 29002KT 5000 BR SCT003 SCT010 OVC100 19/18 A3001=
200709260000 METAR MRPV NIL=
200709260100 METAR MRPV NIL=
200709260200 METAR MRPV NIL=
200709260300 METAR MRPV NIL=
200709260400 METAR MRPV NIL=
200709260500 METAR MRPV NIL=
200709260600 METAR MRPV NIL=
200709260700 METAR MRPV NIL=
200709260800 METAR MRPV NIL=
200709260900 METAR MRPV NIL=
200709261000 METAR MRPV NIL=
200709261100 METAR MRPV NIL=
200709261200 METAR MRPV 271200Z 14005KT CAVOK 18/16 A3003 TRAZAS SC SCT300 CB N W=
200709261300 METAR MRPV 261300Z 14007KT 9999 NSC 21/16 A3005 TRAZAS SC/CI CB DST N/W=
200709261400 METAR MRPV 261400Z 12009KT 9999 NSC 23/17 A3006 RAFAGAS 15 NUDOS CB DST N HZ W TRAZAS CU/CI=
200709261500 METAR MRPV 261500Z 12009KT 9999 FEW035 25/17 A3005 TRAZAS CI=
200709261600 METAR MRPV 261600Z 08011KT 9999 SCT030 26/17 A3005=
200709261700 METAR MRPV 261700Z 08005KT 9999 SCT030 27/17 A3003=
200709261800 METAR MRPV 261800Z 28009KT 9999 FEW010 SCT020TCU SCT035 25/20 A3001=
200709261900 METAR MRPV 261900Z 30004KT 9999 SCT020 BKN035 26/20 A2998=
200709262000 METAR MRPV 262000Z 30008KT 9999 FEW010 SCT020TCU BKN040 25/21 A2996=
200709262100 METAR MRPV 262100Z 22002KT 7000 TSRA SCT006 SCT015CB OVC100 22/20 A2997 RMK VIS SW 4KMS=
200709262200 METAR MRPV 262200Z 00000KT 6000 VCFG FEW006 SCT015 OVC100 22/21 A2997=
200709262300 METAR MRPV 262300Z 30004KT 6000 VCFG SCT002 SCT010 OVC100 21/20 A2999 RMK VIS SW W 3KMS=
200709270000 METAR MRPV NIL=
200709270100 METAR MRPV NIL=
200709270200 METAR MRPV NIL=
200709270300 METAR MRPV NIL=
200709270400 METAR MRPV NIL=
200709270500 METAR MRPV NIL=
200709270600 METAR MRPV NIL=
200709270700 METAR MRPV NIL=
200709270800 METAR MRPV NIL=
200709270900 METAR MRPV NIL=
200709271000 METAR MRPV NIL=
200709271100 METAR MRPV NIL=
200709271200 METAR MRPV 271200Z 14006KT CAVOK 20/16 A3001 RMK SCT300 TRAZAS SC CB DST S=
200709271300 METAR MRPV 271300Z 10009KT CAVOK 22/16 A3003 TRACE CU SCT SCT300 CB DST S RFGS 14KT=
200709271400 METAR MRPV 271400Z 09008KT CAVOK 24/16 A3003 RMK TRACE CU SCT300 CB DST SW DUST IN APCH RNY 09 RFGS 13KT=
200709271500 METAR MRPV 271500Z 11010KT CAVOK 26/17 A3001 RMK TRACE SC SCT300 RFGS 13KT CB DST SSE=
200709271600 METAR MRPV 271600Z 07012KT 9999 FEW030 SCT250 27/17 A3002 RMK CB DST SW DUST IN APCH 09=
200709271700 METAR MRPV 271700Z 07010KT 9999 FEW030 SCT250 28/17 A3000 CB DST SW=
200709271800 METAR MRPV 271800Z 28010KT 9999 FEW015TCU SCT030 26/20 A2998 RMK PCPN DST NE=
200709271900 METAR MRPV 271900Z 27007KT 9999 3000 NE -RA VCSH FEW015CB SCT020TCU BKN022 24/20 A2998=
200709272000 METAR MRPV 272000Z 28008KT 9999 2000N -TSRA SCT008CB BKN022 23/21 A2993=
200709272100 METAR MRPV 272100Z 28008KT 6000 2800 NW VCFG BR SCT002 BKN015 23/21 A2992 RMK ST DESPLASANDOSE W A E=
200709272200 METAR MRPV 272200Z VRB03KT 3000 -RA BR SCT002 BKN015 22/20 A2992 RMK VIS N UNL=
200709272300 METAR MRPV 272300Z VRB03KT 5000 2000NW -RA BR SCT002 FEW008CB BKN015 21/20 A2994=
200709280000 METAR MRPV 280000Z NIL=
200709280100 METAR MRPV NIL=
200709280200 METAR MRPV NIL=
200709280300 METAR MRPV NIL=
200709280400 METAR MRPV NIL=
200709280500 METAR MRPV NIL=
200709280600 METAR MRPV NIL=
200709280700 METAR MRPV NIL=
200709280800 METAR MRPV NIL=
200709280900 METAR MRPV NIL=
200709281000 METAR MRPV NIL=
200709281100 METAR MRPV NIL=
200709281200 METAR MRPV 281200Z 12008KT CAVOK 20/17 A2998 RKM TRAZAS SCT FEW100 BKN250 CB DST S=
200709281300 METAR MRPV 281300Z 12008KT 9999 FEW022 SCT100 BKN250 22/17 A2999 RMK DU PISTA 09=
200709281400 METAR MRPV 281400Z 07005KT 9999 FEW022 SCT100 BKN250 23/18 A3000 RMK DU PISTA 09=
200709281500 METAR MRPV 281500Z 06006KT 9999 FEW022 SCT100 BKN250 25/17 A3001 RMK DU PISTA 09=
200709281600 METAR MRPV 281600Z 28009KT 9999 SCT022 SCT100 BKN250 25/19 A3001 RMK DU PISTA 09=
200709281700 METAR MRPV 281700Z 08009KT 9999 SCT020 BKN250 27/18 A2998 RMK RN NE DU PISTA 09 TCU NE SE=
200709281800 METAR MRPV 281800Z 06009KT 9999 3000NE TS VCSH FEW010CB SCT020TCU BKN250 27/18 A2995=
200709281900 METAR MRPV 281900Z 07009KT 9999 SCT015TCU BKN250 28/18 A2993 RMK RN N=
200709282000 METAR MRPV 282000Z 24006KT 7000 3000N VCFG BR FEW008CB SCT012TCU BKN020 23/21 A2990 RMK RN N=
200709282100 METAR MRPV 282100Z 33010KT 5000 2000N -TSRA SCT005CB SCT012TCU BKN015 21/18 A2992=
200709282200 METAR MRPV 282200Z VRB03KT 5000 -RA BR SCT002 BKN016 20/19 A2992=
200709282300 METAR MRPV 282300Z 11003KT 6000 -RA VCFG SCT004 BKN016 20/19 A2993=
200709290000 METAR MRPV NIL=
200709290100 METAR MRPV NIL=
200709290200 METAR MRPV NIL=
200709290300 METAR MRPV NIL=
200709290400 METAR MRPV NIL=
200709290500 METAR MRPV NIL=
200709290600 METAR MRPV NIL=
200709290700 METAR MRPV NIL=
200709290800 METAR MRPV NIL=
200709290900 METAR MRPV NIL=
200709291000 METAR MRPV NIL=
200709291100 METAR MRPV NIL=
200709291200 METAR MRPV 291200Z 11008KT CAVOK 21/17 A2994 RMK SCT100 BKN250=
200709291300 METAR MRPV 291300Z 12008KT CAVOK 23/18 A2995 RMK FEW160 SCT300=
200709291400 METAR MRPV 291400Z 12009KT CAVOK 25/18 A2998 RMK DU PISTA 09 SCT300=
200709291500 METAR MRPV 291500Z 29007KT 9999 FEW025 SCT300 25/20 A2999 DU PIST 09 CB S=
200709291600 METAR MRPV 291600Z 27008KT 9999 SCT022 26/20 A3000 DU PIST 09=
200709291700 METAR MRPV 291700Z 28009KT 9999 SCT022 26/21 A2998 HZ W TCU NE=
200709291800 METAR MRPV 291800Z 27010KT 9999 3000NE VCSH FEW010CB BKN022TCU 27/21 A2995 HZ W=
200709291900 METAR MRPV 291900Z 08008KT 3000 TSRA SCT005CB BKN015 22/21 A2993 RMK VSBY W UNL=
200709292000 METAR MRPV 292000Z VRB03KT 8000 1000NW -TSRA FEW002 FEW010CB BKN022 21/20 A2994=
200709292100 METAR MRPV 292100Z VRB03KT 5000 2000E -RA VCSH FEW002 SCT010 BKN020 21/19 A2993 RMK TS W=
200709292200 METAR MRPV 292200Z VRB03KT 6000 -RA FEW002 SCT012 OVC100 21/20 A2994 RMK TS DAT W=
200709292300 METAR MRPV 292300Z 11006KT 9999 -RA SCT020 OVC120 21/19 A2995 RMK CB DST SW/W=
200709300000 METAR MRPV 300000Z MRLM 300000Z 31004KT 9999 FEW023 BKN220 28/24 A2982 RMK CB/RN DST S/SW/W=
200709300100 METAR MRPV NIL=
200709300200 METAR MRPV NIL=
200709300300 METAR MRPV NIL=
200709300400 METAR MRPV NIL=
200709300500 METAR MRPV NIL=
200709300600 METAR MRPV NIL=
200709300700 METAR MRPV NIL=
200709300800 METAR MRPV NIL=
200709300900 METAR MRPV NIL=
200709301000 METAR MRPV NIL=
200709301100 METAR MRPV NIL=
200709301200 METAR MRPV NIL=
200709301300 METAR MRPV 301300Z 34003KT 9999 SCT025 BKN120 20/18 A3002=
200709301400 METAR MRPV 301400Z 11002KT 9999 FEW035 OVC120 21/18 A3004=
200709301500 METAR MRPV 301500Z 30002KT 9999 FEW030 BKN120 24/19 A3006=
200709301600 METAR MRPV 301600Z 35002KT 9999 FEW025 BKN120 24/19 A3004=
200709301700 METAR MRPV 301700Z 07002KT 9999 SCT025 BKN120 26/19 A3001=
200709301800 METAR MRPV NIL=
200709301900 METAR MRPV 301900Z 36006KT 9999 3000SW TS VCSH SCT010CB BKN100 24/19 A2999=
200709302000 METAR MRPV 302000Z 25005KT 9999 SCT035 BKN100 23/18 A2996=
200709302100 METAR MRPV 302100Z 30002KT 9999 SCT030 BKN100 24/20 A2996 RMK RASH NE=
200709302200 METAR MRPV 302200Z 09006KT CAVOK 23/18 A2997 RMK OVC120 TRAZAS CU/SC=
200709302300 METAR MRPV 302300Z 09004KT CAVOK 22/19 A2997 RMK OVC120 TRAZAS SC=
200710010000 METAR MRPV NIL=
200710010100 METAR MRPV NIL=
200710010200 METAR MRPV NIL=
200710010300 METAR MRPV NIL=
200710010400 METAR MRPV NIL=
200710010500 METAR MRPV NIL=
200710010600 METAR MRPV NIL=
200710010700 METAR MRPV NIL=
200710010800 METAR MRPV NIL=
200710010900 METAR MRPV NIL=
200710011000 METAR MRPV NIL=
200710011100 METAR MRPV NIL=
200710011200 METAR MRPV 011200Z 10003KT 6000 2500SW VCFG FEW002 BKN010 20/19 A3001=
200710011300 METAR MRPV 011300Z 00000KT 9999 VCFG FEW003 BKN100 22/19 A3003 VIS SW/W/NW 6KMS POLVO CABECERA 09=
200710011400 METAR MRPV 011400Z 00000KT 9999 FEW020 BKN100 23/19 A3004 POLVO PISTA 09 TRAZAS ST=
200710011500 METAR MRPV 011500Z 33002KT 9999 SCT020 BKN120 24/19 A3003=
200710011600 METAR MRPV 011600Z 32004KT 9999 SCT020 BKN120 25/19 A3005=
200710011700 METAR MRPV 011700Z 27006KT 9999 SCT020 BKN120 26/20 A3001=
200710011800 METAR MRPV 011800Z 28010KT 9999 4000SW VCSH SCT015 BKN030 26/21 A2999=
200710011900 METAR MRPV 011900Z 27007KT 9999 SCT020TCU BKN035 26/20 A2995 RMK CB/RASH NW/N/E=
200710012000 METAR MRPV 012000Z 31011KT 9999 3000NW -TSRA SCT010CB SCT030 BKN100 22/20 A2994=
200710012100 METAR MRPV 012100Z 33007KT 5000 BR SCT002 BKN010 20/18 A2996=
200710012200 METAR MRPV 012200Z 32005KT 4000 +RA BR SCT002 BKN008 20/19 A2996=
200710012300 METAR MRPV 012300Z 00000KT 8000 3000S -RA BR SCT003 BKN015 20/19 A2996=
200710020000 METAR MRPV NIL=
200710020100 METAR MRPV NIL=
200710020200 METAR MRPV NIL=
200710020300 METAR MRPV NIL=
200710020400 METAR MRPV NIL=
200710020500 METAR MRPV NIL=
200710020600 METAR MRPV NIL=
200710020700 METAR MRPV NIL=
200710020800 METAR MRPV NIL=
200710020900 METAR MRPV NIL=
200710021000 METAR MRPV NIL=
200710021100 METAR MRPV NIL=
200710021200 METAR MRPV 021200Z 08002KT CAVOK 18/18 A3002 RMK TRAZAS SC SCT100 BKN250 POLVO EN PROXIMACION DE LA PISTA 09=
200710021300 METAR MRPV 021300Z 00000KT CAVOK 21/19 A3002 RMK TRACE SC AC BKN250 DUST IN APCH RNY 09 HZ W=
200710021400 METAR MRPV 021400Z 24002KT 9999 FEW025 SCT300 24/19 A3002 RMK DUST IN APCH RNY 09 HZ W=
200710021500 METAR MRPV 021500Z 29007KT 9999 SCT020 BKN120 24/19 A3003=
200710021600 METAR MRPV 021600Z 28006KT 9999 FEW010 SCT020 BKN120 24/20 A3004=
200710021700 METAR MRPV 021700Z 29010KT 9999 SCT020 BKN120 24/19 A3004=
200710021800 METAR MRPV 021800Z 28011KT 9999 FEW012 SCT020 BKN120 24/19 A3002=
200710021900 METAR MRPV 021900Z 29011KT 9999 FEW010 SCT020 BKN100 24/20 A2999=
200710022000 METAR MRPV 022000Z 27011KT 9999 FEW010 SCT020TCU BKN100 25/20 A2997 RMK SCT CBS DST ARND=
200710022100 METAR MRPV 022100Z 28010KT 9999 FEW010 SCT020 BKN100 23/19 A2996=
200710022200 METAR MRPV 022200Z 30009KT 9999 4000W BR VCSH FEW006 SCT015 BKN100 21/20 A2996 RMK RASH NW N=
200710022300 METAR MRPV 022300Z 31005KT 9999 3000N BR SCT005 BKN015 21/20 A2998=
200710030000 METAR MRPV NIL=
200710030100 METAR MRPV NIL=
200710030200 METAR MRPV NIL=
200710030300 METAR MRPV NIL=
200710030400 METAR MRPV NIL=
200710030500 METAR MRPV NIL=
200710030600 METAR MRPV NIL=
200710030700 METAR MRPV NIL=
200710030800 METAR MRPV NIL=
200710030900 METAR MRPV NIL=
200710031000 METAR MRPV NIL=
200710031100 METAR MRPV NIL=
200710031200 METAR MRPV 031200Z 09003KT CAVOK 18/17 A3000 TRAZAS SC/AC BKN270 POLVO PISTA 09 CB DST W/NW=
200710031300 METAR MRPV 031300Z 08006KT CAVOK 21/18 A2999 RMK TRACE SC FEW120 SCT270 DU PISTA 09 CB DST W=
200710031400 METAR MRPV 031400Z 25006KT 9999 SCT120 BKN250 23/19 A3003 RMK CB W DU PISTA 09=
200710031500 METAR MRPV 031500Z 29009KT 9999 SCT020 BKN250 24/19 A3005 RMK CB SW W=
200710031600 METAR MRPV 031600Z 29009KT 9999 SCT020 BKN250 25/19 A3004 RMK CB SW N RN NE=
200710031700 METAR MRPV 031700Z 28007KT 9999 FEW010TCU SCT025 26/20 A3002 RMK CB N RN NE=
200710031800 METAR MRPV 031800Z 25008KT 9999 FEW010TCU SCT025 26/20 A2999 RMK CB N RN NE=
200710031900 METAR MRPV 031900Z 29010KT 9999 3000NW VCSH FEW010CB SCT025 26/20 A2997 RMK RAFAGAS 17KT=
200710032000 METAR MRPV 032000Z 31010KT 9999 4000E VCTS FEW010CB BKN024 24/20 A2995 RMK RAFAGAS 18KT=
200710032100 METAR MRPV 032100Z 30009KT 7000 3000N VCFG SCT010 SCT020 BKN250 21/19 A2995=
200710032200 METAR MRPV 032200Z 29007KT 6000 VCFG SCT002 BKN018 21/20 A2997=
200710032222 METAR MRPV 032222Z 27004KT 5000 -RA BR SCT002 BKN015 21/20 A2998=
200710032300 METAR MRPV 032300Z VRB03KT 7000 3000N -RA BR SCT004 SCT020 BKN120 21/19 A2998=
200710040000 METAR MRPV NIL=
200710040100 METAR MRPV NIL=
200710040200 METAR MRPV NIL=
200710040300 METAR MRPV NIL=
200710040400 METAR MRPV NIL=
200710040500 METAR MRPV NIL=
200710040600 METAR MRPV NIL=
200710040700 METAR MRPV NIL=
200710040800 METAR MRPV NIL=
200710040900 METAR MRPV NIL=
200710041000 METAR MRPV NIL=
200710041100 METAR MRPV NIL=
200710041200 METAR MRPV 041200Z 09007KT 9999 VCFG BKN100 SCT250 20/17 A2998 RMK TRACE SC VIS W 8KMS=
200710041300 METAR MRPV 041300Z 15002KT CAVOK 22/17 A2999 HZ W TRAZAS SCT FEW100 BKN250=
200710041400 METAR MRPV 041400Z 16002KT CAVOK 25/17 A3000 RMK TRAZAS CU BKN250 HZ W DU PISTA 09=
200710041500 METAR MRPV 041500Z 29007KT 9999 FEW022 BKN250 24/20 A3001 HZ W=
200710041600 METAR MRPV 041600Z 29008KT 9999 FEW020 BKN250 25/19 A3001 DU PISTA 09 HZ W=
200710041700 METAR MRPV 041700Z 28006KT 9999 FEW010TCU SCT025 BKN250 27/20 A2997 CB NW=
200710041800 METAR MRPV 041800Z 28006KT 9999 FEW010TCU SCT025 BKN250 27/20 A2997 CB NW=
200710041900 METAR MRPV 041900Z 29010KT 9999 FEW010 SCT020TCU BKN250 26/21 A2993 RN NE=
200710042000 METAR MRPV 042000Z 28012KT 9000 4000NE TS VCSH SCT008CB BKN020 24/21 A2992=
200710042100 METAR MRPV 042100Z VRB03KT 3000 +TSRA SCT005CB BKN020 21/17 A2994=
200710042200 METAR MRPV 042200Z VRB03KT 5000 2400NW -TSRA FEW002 FEW010CB OVC120 201/18 A2995 RMK VIS QUADN E UNL=
200710042300 METAR MRPV 042300Z 07005KT 6000 2800E -RA FEW002 SCT020 OVC120 19/18 A2997 RMK TS DST W VIS NW UNL=
200710050000 METAR MRPV NIL=
200710050100 METAR MRPV NIL=
200710050200 METAR MRPV NIL=
200710050300 METAR MRPV NIL=
200710050400 METAR MRPV NIL=
200710050500 METAR MRPV NIL=
200710050600 METAR MRPV NIL=
200710050700 METAR MRPV NIL=
200710050800 METAR MRPV NIL=
200710050900 METAR MRPV NIL=
200710051000 METAR MRPV NIL=
200710051100 METAR MRPV NIL=
200710051200 METAR MRPV NIL=
200710051300 METAR MRPV 051300Z 14005KT CAVOK 20/17 A2999 RMK TRAZAS CU SCT100 SCT250=
200710051400 METAR MRPV 051400Z 11005KT CAVOK 25/17 A3001 RMK CU/AC SCT300 POLVO EN LA APROXIMACION PISTA 09=
200710051500 METAR MRPV 051500Z 29006KT CAVOK 25/19 A3001 RMK SCT300 TRAZAS SC POLVO EN LA APROXIMACION DE LA PISTA 09=
200710051600 METAR MRPV 051600Z 29008KT 9999 FEW020 BKN300 25/19 A3001 RMK POLVO EN LA APROXIMACION DE LA PISTA 09=
200710051700 METAR MRPV 051700Z 28009KT 9999 SCT018 BKN300 25/19 A2999=
200710051800 METAR MRPV 051800Z 28011KT 9999 4000N VCSH FEW010TCU SCT020 BKN300 25/19 A2998=
200710051900 METAR MRPV 051900Z 29009KT 9999 3000NW VCSH FEW010CB SCT020TCU BKN300 24/20 A2995=
200710052000 METAR MRPV 052000Z 27010KT 9999 4000N VCSH FEW005CB SCT020TCU BKN300 25/20 A2992=
200710052100 METAR MRPV 052100Z 30009KT 3000 BR SCT001 BKN012 21/20 A2991=
200710052200 METAR MRPV 052200Z 31006KT 2000 -TSRA FEW001 FEW006CB BKN010 20/19 A2991=
200710052300 METAR MRPV 052300Z 32005KT 4000 -RA BR SCT001 BKN014 20/19 A2993=
200710060000 METAR MRPV NIL=
200710060100 METAR MRPV NIL=
200710060200 METAR MRPV NIL=
200710060300 METAR MRPV NIL=
200710060400 METAR MRPV NIL=
200710060500 METAR MRPV NIL=
200710060600 METAR MRPV NIL=
200710060700 METAR MRPV NIL=
200710060800 METAR MRPV NIL=
200710060900 METAR MRPV NIL=
200710061000 METAR MRPV NIL=
200710061100 METAR MRPV NIL=
200710061200 METAR MRPV 061200Z NIL=
200710061300 METAR MRPV 061300Z 07002KT 9999 SCT025 BKN100 20/18 A2998 POLVO PISTA 09=
200710061400 METAR MRPV 061400Z 32002KT 9999 SCT020 BKN100 21/18 A2999 POLVO PISTA 09=
200710061500 METAR MRPV 061500Z 28003KT 9999 FEW015 SCT020 BKN120 23/18 A3000=
200710061600 METAR MRPV 061600Z 25002KT 9999 SCT025 BKN120 26/19 A2997=
200710061700 METAR MRPV 061700Z 34002KT 9999 SCT020 SCT120 BKN250 28/18 A2995=
200710061800 METAR MRPV 061800Z 26006KT 9999 SCT025 BKN250 26/18 A2991=
200710061900 METAR MRPV 061900Z 29010KT 9999 FEW015TCU SCT025 BKN100 26/21 A2986=
200710062000 METAR MRPV 062000Z 28010KT 9999 FEW010TCU BKN020 25/21 A2984 TCU/CB DST ARND RASH N=
200710062100 METAR MRPV 062100Z 27014KT 2000 +RA BR SCT006 BKN010 20/19 A2985=
200710062200 METAR MRPV 062200Z 27007KT 1000 +SHRA FEW006 SCT010 BKN020 20/19 A2986=
200710062300 METAR MRPV NIL=
200710070000 METAR MRPV NIL=
200710070100 METAR MRPV NIL=
200710070200 METAR MRPV NIL=
200710070300 METAR MRPV NIL=
200710070400 METAR MRPV NIL=
200710070500 METAR MRPV NIL=
200710070600 METAR MRPV NIL=
200710070700 METAR MRPV NIL=
200710070800 METAR MRPV NIL=
200710070900 METAR MRPV NIL=
200710071000 METAR MRPV NIL=
200710071100 METAR MRPV NIL=
200710071200 METAR MRPV NIL=
200710071300 METAR MRPV 071300Z 00000KT 4000 BR FEW003 SCT010 BKN120 21/19 A2993 RMK VIS NW N UNLTD=
200710071400 METAR MRPV 071400Z 06003KT 9999 SCT020 BKN120 22/18 A2993 RMK CB DST SW W=
200710071500 METAR MRPV 071500Z 05003KT 9999 SCT020 BKN120 25/18 A2993=
200710071600 METAR MRPV 071600Z 28005KT 9999 FEW015 SCT025 BKN120 25/18 A2993=
200710071700 METAR MRPV 071700Z 28011KT 9999 SCT025 BKN120 25/19 A2991=
200710071800 METAR MRPV 071800Z 30014KT 9999 SCT020 BKN100 24/20 A2992 RMK SCT TUC ARND=
200710071900 METAR MRPV 071900Z 29014KT 9999 FEW018 SCT020 BKN100 23/20 A2987=
200710072000 METAR MRPV 072000Z 29011KT 9999 FEW012 SCT020 BKN100 22/19 A2985=
200710072100 METAR MRPV 072100Z 29011KT 9999 FEW010 SCT020 BKN100 21/19 A2984=
200710072200 METAR MRPV 072200Z 32008KT 9999 FEW010 SCT020 BKN100 22/19 A2986=
200710072300 METAR MRPV 072300Z 31006KT 9999 FEW010 SCT025 BKN120 22/18 A2986=
200710080000 METAR MRPV 080000Z NIL=
200710080100 METAR MRPV NIL=
200710080200 METAR MRPV NIL=
200710080300 METAR MRPV NIL=
200710080400 METAR MRPV NIL=
200710080500 METAR MRPV NIL=
200710080600 METAR MRPV NIL=
200710080700 METAR MRPV NIL=
200710080800 METAR MRPV NIL=
200710080900 METAR MRPV NIL=
200710081000 METAR MRPV NIL=
200710081100 METAR MRPV NIL=
200710081200 METAR MRPV 081200Z 00000KT 9999 SCT018 SCT120 19/18 A2992 CB DST SW/W POLVO PISTA 09=
200710081300 METAR MRPV 081300Z 00000KT 9999 FEW020 BKN250 22/18 A2993 RMK CB S SW W DU APROXIMACION PISTA 09 FEW120=
200710081400 METAR MRPV 081400Z 28002KT 9999 -RA VCFG FEW002 SCT015 BKN100 22/18 A2995 RMK VIS SW W NW 5000MTS=
200710081500 METAR MRPV 081500Z 29005KT 3000 RA BR SCT003 BKN010 20/19 A2997=
200710081600 METAR MRPV 081600Z 30004KT 3000 -RA BR SCT002 OVC008 20/19 A2998=
200710081700 METAR MRPV 081700Z 29005KT 2000 -RA BR SCT003 BKN008 20/19 A2997=
200710081800 METAR MRPV 081800Z 30005KT 6000 VCFG FEW003 SCT015 BKN100 22/20 A2994=
200710081900 METAR MRPV 081900Z 28011KT 8000 3000W BR SCT003 BKN015 22/19 A2990 RMK RASH E=
200710082000 METAR MRPV 082000Z 28010KT 3000 BR FEW002 SCT008 BKN015 21/19 A2987=
200710082100 METAR MRPV 082100Z 28011KT 6000 VCFG SCT006 SCT020 21/20 A2987=
200710082200 METAR MRPV 082200Z 29011KT 8000 SCT010 SCT025 21/19 A2989=
200710082300 METAR MRPV 082300Z 31008KT 8000 FEW010 SCT018 BKN025 20/19 A2990=
200710082329 METAR MRPV 082329Z 30008KT 8000 3000SW VCFG FEW006 SCT020 BKN100 20/18 A2990=
200710090000 METAR MRPV 090000Z NIL=
200710090100 METAR MRPV NIL=
200710090200 METAR MRPV NIL=
200710090300 METAR MRPV NIL=
200710090400 METAR MRPV NIL=
200710090500 METAR MRPV NIL=
200710090600 METAR MRPV NIL=
200710090700 METAR MRPV NIL=
200710090800 METAR MRPV NIL=
200710090900 METAR MRPV NIL=
200710091000 METAR MRPV NIL=
200710091100 METAR MRPV NIL=
200710091200 METAR MRPV NIL=
200710091300 METAR MRPV 091300Z 29002KT 2500 DZ BR SCT001 BKN008 20/19 A2998=
200710091400 METAR MRPV 091400Z 29002KT 2500 -RA BR SCT001 BKN007 20/19 A3001=
200710091500 METAR MRPV 091500Z 32005KT 3000 -RA BR SCT001 BKN010 20/19 A3002=
200710091600 METAR MRPV 091600Z 31004KT 2000 -RA BR SCT001 OVC008 20/19 A3002=
200710091700 METAR MRPV 091700Z 28009KT 2500 -RA BR SCT001 OVC009 21/20 A3001=
200710091800 METAR MRPV 091800Z 31006KT 2500 RA BR SCT001 OVC008 20/19 A3000=
200710091900 METAR MRPV 091900Z 31005KT 3000 -RA BR SCT001 OVC010 20/19 A2997=
200710092000 METAR MRPV 092000Z 28004KT 4000 -RA BR SCT001 BKN012 21/20 A2995=
200710092100 METAR MRPV 092100Z 29008KT 4000 -RA BR SCT003 BKN014 21/20 A2993=
200710092200 METAR MRPV 092200Z 29008KT 5000 2400E BR SCT003 BKN015 21/20 A2993=
200710092300 METAR MRPV 092300Z 31006KT 5000 -RA BR SCT003 BKN015 20/18 A2994 RMK CONDICIONES MUY VARIABLES=
200710100000 METAR MRPV 100000Z NIL=
200710100100 METAR MRPV NIL=
200710100200 METAR MRPV NIL=
200710100300 METAR MRPV NIL=
200710100400 METAR MRPV NIL=
200710100500 METAR MRPV NIL=
200710100600 METAR MRPV NIL=
200710100700 METAR MRPV NIL=
200710100800 METAR MRPV NIL=
200710100900 METAR MRPV NIL=
200710101000 METAR MRPV NIL=
200710101100 METAR MRPV NIL=
200710101200 METAR MRPV 101200Z 32002KT 2000 -RA BR SCT001 BKN006 19/19 A2999=
200710101300 METAR MRPV 101300Z 30002KT 2000-RA BR SCT001 BKN005 19/19 A3001=
200710101400 METAR MRPV 101400Z 24002KT 3500 -DZBR SCT001 BKN010 20/19 A3004 RERA=
200710101500 METAR MRPV 101500Z 29006KT 3500 DZ BR SCT001 BKN010 20/20 A3005=
200710101600 METAR MRPV 101600Z 28006KT 5000 -DZ BR SCT001 BKN015 22/19 A3004=
200710101700 METAR MRPV 101700Z 27008KT 5000 -DZ BR SCT001 BKN015 22/20 A3002 RMK CONDICIONES VARIABLES=
200710101800 METAR MRPV 101800Z 29009KT 5000 BR SCT001 BKN015 22/20 A3002=
200710101900 METAR MRPV 101900Z 27012KT 6000 VCFG SCT002 SCT020 BKN250 24/21 A2997=
200710102000 METAR MRPV 102000Z 29009KT 3000 1400W RABR SCT001 BKN012 22/20 A2995 RMK CONDICIONES VARIABLES=
200710102100 METAR MRPV 102100Z 29009KT 3000 RA BR SCT001 BKN010 21/20 A2993=
200710102200 METAR MRPV 102200Z 32004KT 2000 RA BR SCT001 BKN010 20/20 A2994=
200710102300 METAR MRPV 102300Z 26005KT 2000 RA BR SCT001 BKN010 20/20 A2995=
200710110000 METAR MRPV NIL=
200710110100 METAR MRPV NIL=
200710110200 METAR MRPV NIL=
200710110300 METAR MRPV NIL=
200710110400 METAR MRPV NIL=
200710110500 METAR MRPV NIL=
200710110600 METAR MRPV NIL=
200710110700 METAR MRPV NIL=
200710110800 METAR MRPV NIL=
200710110900 METAR MRPV NIL=
200710111000 METAR MRPV NIL=
200710111100 METAR MRPV NIL=
200710111200 METAR MRPV 111200Z 00000KT 9999 VCFG FEW002 BKN018 19/19 A3000 RMK VSBY SW W NW 6KM DU PISTA 09=
200710111300 METAR MRPV 111300Z 00000KT 4000 DZ VCFG FEW002 BKN012 20/19 A3001 VIS E/SE UNL POLVO PISTA 09=
200710111400 METAR MRPV 111400Z 26002KT 6000 -DZ VCFG SCT002 BKN013 20/18 A3003 POLVO PISTA 09 CONDICIONES VARIABLES=
200710111500 METAR MRPV 111500Z 31005KT 7000 3000SW DZ VCFG FEW003 BKN018 21/19 A3004 POLVO PISTA 09 CONDICIONES VARIABLES=
200710111600 METAR MRPV 111600Z 30007KT 8000 3500SW VCFG FEW002 BKN018 22/20 A3004 VIS NW/W/ NE UNL POLVO PISTA 09 CONDICIONES VARIABLES=
200710111700 METAR MRPV 111700Z 29008KT 9999 4000SW BR FEW004 BKN020 22/20 A3002=
200710111800 METAR MRPV 111800Z 28010KT 9999 DZ VCFG FEW005 BKN015 22/20 A3000 VIS W/NW 6KMS RN DST NW/NE=
200710111900 METAR MRPV 111900Z 29009KT 8000 3000NW DZ BR FEW002 BKN020 22/19 A2998=
200710112000 METAR MRPV 112000Z 31008KT 7000 3000N -RA BR SCT002 BKN018 21/19 A2996=
200710112100 METAR MRPV 112100Z 31007KT 8000 VCFG SCT002 BKN020 21/19 A2995=
200710112200 METAR MRPV 112200Z 29009KT 8000 VCFG SCT002 BKN022 22/19 A2994=
200710112300 METAR MRPV 112300Z 28006KT 6000 2800NW VCFG BR SCT002 BKN018 21/19 A2995 RMK ST MVNG W TO E=
200710120000 METAR MRPV NIL=
200710120100 METAR MRPV NIL=
200710120200 METAR MRPV NIL=
200710120300 METAR MRPV NIL=
200710120400 METAR MRPV NIL=
200710120500 METAR MRPV NIL=
200710120600 METAR MRPV NIL=
200710120700 METAR MRPV NIL=
200710120800 METAR MRPV NIL=
200710120900 METAR MRPV NIL=
200710121000 METAR MRPV NIL=
200710121100 METAR MRPV NIL=
200710121200 METAR MRPV 121200Z 00000KT 3000 -DZBR SCT001 BKN008 19/19 A2997=
200710121300 METAR MRPV 121300Z 07002KT 4000 -DZ BR SCT001 BKN015 20/19 A2999 VIS S SW 3KMS VIS N 6KMS CONDNS VRBLS=
200710121400 METAR MRPV 121400Z 00000KT 4000 -DZ BR FEW001 BKN015 21/19 A3001 RMK CNDCNS VRBLS=
200710121500 METAR MRPV 121500Z 32003KT 9999 VCFG FEW008 SCT020 23/20 A3003 REDZ RMK VIS SW W 7KMS=
200710121600 METAR MRPV 121600Z 28005KT 9999 FEW012 SCT020 24/20 A3002=
200710121700 METAR MRPV 121700Z 28009KT 9999 4000SW BR SCT004 BKN015 24/20 A2999 DUST IN APCH W=
200710121800 METAR MRPV 121800Z 25006KT 9999 4000SW BR VCSH SCT006 BKN020 24/20 A2997 RASH N=
200710121900 METAR MRPV 121900Z 27009KT 9999 4000NW BR VCSH SCT010 BKN020 23/20 A2994=
200710122000 METAR MRPV 122000Z 30010KT 4000 BR VCSH SCT006 BKN010 21/20 A2993=
200710122100 METAR MRPV 122100Z 29010KT 0500 FG VV/// 20/19 A2994=
200710122200 METAR MRPV 122200Z 29009KT 0500 DZ FG VV/// 19/19 A2995=
200710122300 METAR MRPV 122300Z 28008KT 0700 -RA BR VV/// 19/19 A2996=
200710130000 METAR MRPV 130000Z NIL=
200710130100 METAR MRPV NIL=
200710130200 METAR MRPV NIL=
200710130300 METAR MRPV NIL=
200710130400 METAR MRPV NIL=
200710130500 METAR MRPV NIL=
200710130600 METAR MRPV NIL=
200710130700 METAR MRPV NIL=
200710130800 METAR MRPV NIL=
200710130900 METAR MRPV NIL=
200710131000 METAR MRPV NIL=
200710131100 METAR MRPV NIL=
200710131200 METAR MRPV 131200Z 08004KT 9999 SCT015 BKN120 18/17 A2993 POLVO PISTA 09=
200710131300 METAR MRPV 131300Z 08004KT 9999 SCT015 BKN120 20/18 A2999 RMK DU APROXIMACION 09=
200710131400 METAR MRPV 131400Z 06002KT 9999 SCT015 SCT120 23/18 A3001 RMK DU APROXIMACION 09=
200710131500 METAR MRPV 131500Z 00000KT 9999 FEW018 SCT030 25718 A3002=
200710131600 METAR MRPV 131600Z 28005KT 9999 FEW020 SCT035 25/18 A3001=
200710131700 METAR MRPV 131700Z 27006KT 9999 SCT020 BKN250 25719 A2999=
200710131800 METAR MRPV 131800Z 28011KT 9999 SCT015 BKN250 25/20 A2985=
200710131900 METAR MRPV 131900Z 28012KT 9999 VCSH FEW010CB SCT020 SCT100 25720 A2992 RMK CB RASH E VIS 6000MTS=
200710132000 METAR MRPV 132000Z 27009KT 9999 4000N VCSH SCT003 BKN010TCU 22/20 A2991=
200710132100 METAR MRPV 132100Z 29007KT 3000 -RA BR SCT002 BKN008 20/19 A2990=
200710132200 METAR MRPV 132200Z 29004KT 1000 RA BR SCT001 BKN006 20/19 A2991=
200710132300 METAR MRPV 132300Z 23005KT 1000 RA BR VV/// 19/19 A2993=
200710140000 METAR MRPV NIL=
200710140100 METAR MRPV NIL=
200710140200 METAR MRPV NIL=
200710140300 METAR MRPV NIL=
200710140400 METAR MRPV NIL=
200710140500 METAR MRPV NIL=
200710140600 METAR MRPV NIL=
200710140700 METAR MRPV NIL=
200710140800 METAR MRPV NIL=
200710140900 METAR MRPV NIL=
200710141000 METAR MRPV NIL=
200710141100 METAR MRPV NIL=
200710141200 METAR MRPV NIL=
200710141300 METAR MRPV 141300Z 09003KT CAVOK 18/18 A2997 BKN250 TRAZAS SCT=
200710141400 METAR MRPV 141400Z 11003KT 9999 FEW040 BKN250 22/18 A2998=
200710141500 METAR MRPV 141500Z 06002KT 9999 FEW040 BKN250 25/18 A2998=
200710141600 METAR MRPV 141600Z 29005KT 9999 SCT040 SCT250 25/19 A2997=
200710141700 METAR MRPV 141700Z 27010KT 9999 SCT020 BKN035 25/20 A2995 RASH E=
200710141800 METAR MRPV 141800Z 28009KT 9999 VCSH SCT020 BKN035 24/20 A2993 VSBY NE E 6KM=
200710141900 METAR MRPV 141900Z 28009KT 9999 R000N VCSH SCT004 BKN020 24/21 A2990 RERA=
200710142000 METAR MRPV 142000Z 29008KT 5000 -RA BR SCT003 BKN015 21/19 A2989=
200710142100 METAR MRPV 142100Z 27006KT 2000 -RA BR BKN002 OVC010 21/20 A2988=
200710142200 METAR MRPV 142200Z 26006KT 2000 BR BKN002 OVC010 20/20 A2988 RMK VIS 6000 E SE=
200710142300 METAR MRPV 142300Z 27007KT 1000 BR VV/// 20/19 A2990=
200710150000 METAR MRPV NIL=
200710150100 METAR MRPV NIL=
200710150200 METAR MRPV NIL=
200710150300 METAR MRPV NIL=
200710150700 METAR MRPV NIL=
200710150800 METAR MRPV NIL=
200710150900 METAR MRPV NIL=
200710151000 METAR MRPV NIL=
200710151100 METAR MRPV NIL=
200710151200 METAR MRPV 151200Z 09004KT CAVOK 18/17 A2992 RMK FEW100 OVC240=
200710151300 METAR MRPV 151300Z 11004KT CAVOK 20/18 A2994 RMK BKN240 POLVO PISTA 09=
200710151400 METAR MRPV 151400Z VRB03KT 9999 4000NW BR FEW002 SCT100 BKN240 22/18 A2996 RMK POLVO PISTA 09=
200710151500 METAR MRPV 151500Z 27004KT 9999 4000NW FEW002 SCT100 BKN240 22/19 A2998 POLVO PISTA 09=
200710151600 METAR MRPV 151600Z 28005KT 8000 3500NW VCFG BR FEW002 SCT012 BKN240 22/19 A2996=
200710151700 METAR MRPV 151700Z 32004KT 8000 3500NW VCFG BR SCT002 BKN022 25/20 A2994 RMK POLVO PISTA 09=
200710151800 METAR MRPV 151800Z 27004KT 8000 DZ VCFG FEW002 SCT012 BKN240 25/19 A2991=
200710151900 METAR MRPV 151900Z 28007KT 8000 3500NW VCFG BR SCT002 BKN022 24/20 A2990=
200710152000 METAR MRPV 152000Z 29008KT 7000 3000NW VCSH SCT002 BKN020 23/20 A2988=
200710152100 METAR MRPV 152100Z 27008KT 6000 2500NW VCSH BR SCT002 BKN018 22/20 A2987 ST NOVIENDOSE DEL W HASTA E=
200710152200 METAR MRPV 152200Z 28007KT 3000 BR SCT002 BKN012 21/20 A2987=
200710152300 METAR MRPV 152300Z 27008KT 3000 BR SCT002 BKN012 20/19 A2989=
200710160000 METAR MRPV NIL=
200710160100 METAR MRPV NIL=
200710160200 METAR MRPV NIL=
200710160300 METAR MRPV NIL=
200710160400 METAR MRPV NIL=
200710160500 METAR MRPV NIL=
200710160600 METAR MRPV NIL=
200710160700 METAR MRPV NIL=
200710160800 METAR MRPV NIL=
200710160900 METAR MRPV NIL=
200710161000 METAR MRPV NIL=
200710161100 METAR MRPV NIL=
200710161200 METAR MRPV 161200Z 00000KT CAVOK 18/18 A2995 DU PISTA 09 TRAZAS ST FEW090 BKN250=
200710161300 METAR MRPV 161300Z 31004KT 0800 FG VV0002 19/18 A2998=
200710161400 METAR MRPV 161400Z 33002KT 5000 BR FEW002 BKN015 20/18 A2999 VIS SSW 3KMS=
200710161500 METAR MRPV 161500Z 10002KT 7000 VCFG FEW002 SCT020 BKN100 23/19 A3000 RN DST NNE/E=
200710161600 METAR MRPV 161600Z 14003KT 9999 FEW010 BKN100 24/19 A2999 RN DST E=
200710161700 METAR MRPV 161700Z 15005KT 9999 4000NW BR SCT010 BKN250 24/18 A2997=
200710161800 METAR MRPV 161800Z VRB03KT 9999 3000NW BR SCT010 BKN250 25/18 A2995=
200710161900 METAR MRPV 161900Z 28009KT 8000 3000NW VCFG BR SCT008 BKN250 24/20 A2992=
200710162000 METAR MRPV 162000Z 27008KT 6000 2800W VCFG BR SCT002 BKN018 22/20 A2991 ST MOVIENDOSE DE W A E=
200710162100 METAR MRPV 162100Z 29009KT 2500 BR SCT001 OVC010 20/19 A2990 RMK ST MVNG W TO E=
200710162200 METAR MRPV 162200Z 30007KT 2000 -RA BR SCT001 OVC008 20/19 A2990=
200710162300 METAR MRPV 162300Z 30006KT 2500 -RA BR SCT001 OVC010 20/19 A2992=
200710170000 METAR MRPV NIL=
200710170100 METAR MRPV NIL=
200710170200 METAR MRPV NIL=
200710170300 METAR MRPV NIL=
200710170400 METAR MRPV NIL=
200710170500 METAR MRPV NIL=
200710170600 METAR MRPV NIL=
200710170700 METAR MRPV NIL=
200710170800 METAR MRPV NIL=
200710170900 METAR MRPV NIL=
200710171000 METAR MRPV NIL=
200710171100 METAR MRPV NIL=
200710171200 METAR MRPV 171200Z 00000KT 6000 2500S VCFG FEW003 BKN015 19/19 A3001 RMK VIS 9999 W=
200710171300 METAR MRPV 171300Z 00000KT 8000 3500S -DZ VCFG FEW003 BKN018 20/19 A3003 RMK VIS W UNLTD DUST IN APCH RNY 07=
200710171400 METAR MRPV 171400Z 00000KT 7000 VCFG FEW004 BKN020 21/19 A3004 REDZ RMK DUST APCH RNY 09=
200710171500 METAR MRPV 171500Z 27005KT 7000 VCFG SCT004 BKN020 21/19 A3006 RMK DUST IN APCH RNY 09=
200710171600 METAR MRPV NIL=
200710171700 METAR MRPV 171700Z VRB03KT 7000 VCFG SCT008 BKN022 24/20 A3002 RMK PCPN E NE=
200710171800 METAR MRPV 171800Z 26004KT 7000 VCFG SCT004 BKN025 23/20 A3001 PCN N NE=
200710171900 METAR MRPV 171900Z 27007KT 9999 FEW005TCU SCT012 BKN100 24/20 A2996 RMK PCPN DST N NE=
200710172000 METAR MRPV 172000Z 28010KT 7000 VCFG SCT008 BKN020 23/20 A2994=
200710172100 METAR MRPV 172100Z 29009KT 5000 -RA BR SCT002 SCT010TCU BKN015 22/20 A2993 RMK ST MOVIENDOSE DE W A E=
200710172200 METAR MRPV 172200Z 29008KT 2500 -RA BR SCT001 BKN008 20/20 A2994 RMK ST MOVIENDOSE DE W A E=
200710172300 METAR MRPV 172300Z 28007KT 3000 -RA BR SCT001 BKN012 20/20 A2996=
200710180000 METAR MRPV 180000Z NIL=
200710180100 METAR MRPV NIL=
200710180200 METAR MRPV NIL=
200710180300 METAR MRPV NIL=
200710180400 METAR MRPV NIL=
200710180500 METAR MRPV NIL=
200710180600 METAR MRPV NIL=
200710180700 METAR MRPV NIL=
200710180800 METAR MRPV NIL=
200710180900 METAR MRPV NIL=
200710181000 METAR MRPV NIL=
200710181100 METAR MRPV NIL=
200710181200 METAR MRPV 181200Z 00000KT CAVOK 19/18 A2999 TRAZAS ST POLVO PISTA 09 BKN100=
200710181300 METAR MRPV 181300Z 00000KT 9999 SCT015 BKN100 20/19 A3002 RMK DU APROXIMACION 09=
200710181400 METAR MRPV 181400Z 33003KT 9999 FEW015 BKN100 21/19 A3004 RMK DU APROXIMACION 09=
200710181500 METAR MRPV 181500Z 25003KT 9999 FEW015 SCT020 BKN100 22/19 A3005 RMK DU APROXIMACION 09=
200710181600 METAR MRPV 181600Z 29007KT 9999 SCT020 BKN100 24/19 A3004=
200710181700 METAR MRPV 181700Z 28009KT 9999 FEW010 SCT020 BKN100 23/20 A3002=
200710181800 METAR MRPV 181800Z 29010KT 9999 3000SW BR SCT010 BKN100 23/20 A3000=
200710181900 METAR MRPV 181900Z 28011KT 6000 2000W -DZ BR SCT002 BKN008 21/20 A2998=
200710182000 METAR MRPV 182000Z 30007KT 6000 2000W BR SCT002 BKN008 21/20 A2995=
200710182100 METAR MRPV 182100Z 28007KT 3000 BR SCT001 BKN006 20/20 A2994=
200710182200 METAR MRPV 182200Z 30004KT 5000 BR SCT003 BKN015 21/20 A2996=
200710182300 METAR MRPV 182300Z 00000KT 6000 VCFG FEW008 SCT015 OVC100 20/19 A2996 VSBY S 4KM=
200710190000 METAR MRPV NIL=
200710190100 METAR MRPV NIL=
200710190200 METAR MRPV NIL=
200710190300 METAR MRPV NIL=
200710190400 METAR MRPV NIL=
200710190500 METAR MRPV NIL=
200710190600 METAR MRPV NIL=
200710190700 METAR MRPV NIL=
200710190800 METAR MRPV NIL=
200710190900 METAR MRPV NIL=
200710191000 METAR MRPV NIL=
200710191100 METAR MRPV NIL=
200710191200 METAR MRPV 191200Z 00000KT 6000 2500SW VCFG FEW001 SCT010 BKN100 20/19 A3000 DUST IN APCH RNY 09 VIS SE UNLTD=
200710191300 METAR MRPV 191300Z 00000KT 6000 2500SW VCFG FEW001 SCT010 BKN100 21/19 A3003 RMK DU PISTA 09=
200710191400 METAR MRPV 191400Z 28004KT 5000 2400SW BR FEW001 SCT008 BKN100 21/19 A3004 RMK DU PISTA 09=
200710191500 METAR MRPV 191500Z 28004KT 7000 3000N BR FEW002 SCT008 BKN100 22/19 A3005 DU PISTA 09=
200710191600 METAR MRPV 191600Z 29006KT 9999 FEW010 SCT020 BKN100 23/19 A3005 DU PISTA 09=
200710191700 METAR MRPV 191700Z 27006KT 9999 SCT020 BKN100 24/19 A3003=
200710191800 METAR MRPV 191800Z 29009KT 9999 FEW015 SCT025 BKN100 24/19 A3002=
200710191900 METAR MRPV 191900Z 26007KT 9999 FEW004 SCT020 BKN100 24/19 A2996=
200710192000 METAR MRPV 192000Z 27008KT 9999 FEW006 SCT020 BKN100 29/19 A2994 VSBY NW N 6KM DUE RASH=
200710192100 METAR MRPV 192100Z 27008KT 9999 FEW006 SCT020 BKN100 23/19 A2994 RMK RN DST N NW=
200710192200 METAR MRPV 192200Z 29008KT 4000 -RA BR SCT002 BKN010 21/20 A2994=
200710192300 METAR MRPV 192300Z 29008KT 1000 BR OVC001 20/19 A2996=
200710200000 METAR MRPV NIL=
200710200100 METAR MRPV NIL=
200710200200 METAR MRPV NIL=
200710200300 METAR MRPV NIL=
200710200400 METAR MRPV NIL=
200710200500 METAR MRPV NIL=
200710200600 METAR MRPV NIL=
200710200700 METAR MRPV NIL=
200710200800 METAR MRPV NIL=
200710200900 METAR MRPV NIL=
200710201000 METAR MRPV NIL=
200710201100 METAR MRPV NIL=
200710201200 METAR MRPV NIL=
200710201300 METAR MRPV 201300Z 00000KT 9999 SCT030 BKN120 19/19 A3004=
200710201400 METAR MRPV 201400Z 12002KT 9999 FEW020 SCT030 BKN120 23/18 A3004=
200710201500 METAR MRPV 201500Z 33003KT 9999 SCT020 BKN120 23/18 A3005=
200710201600 METAR MRPV 201600Z 28008KT 9999 FEW015 SCT020 BKN120 23/19 A3004=
200710201700 METAR MRPV 201700Z 28009KT 9999 SCT020 BKN120 24/19 A3001=
200710201800 METAR MRPV 201800Z 27009KT 9999 SCT020 BKN120 25/18 A2998=
200710201900 METAR MRPV 201900Z 27009KT 9999 SCT020 BKN100 25/19 A2996=
200710202000 METAR MRPV 202000Z 28013KT 9999 VCSH FEW010CB SCT020 BKN100 24/20 A2993 RMK VIS 5000SW=
200710202100 METAR MRPV 202100Z 29009KT 4000 +RA BR SCT004 SCT012TCU BKN100 21/20 A2994=
200710202200 METAR MRPV 202200Z 29006KT 4000 -RA BR SCT006 BKN010 20/19 A2996=
200710202300 METAR MRPV 202300Z 30006KT 1000 RA BR SCT002 BKN007 19/19 A2998=
200710210000 METAR MRPV 210000Z 09014KT 9999 3000NE VCSH FEW010 SCT030 BKN100 22/17 A2987 RMK RN DST E N=
200710210100 METAR MRPV NIL=
200710210200 METAR MRPV NIL=
200710210300 METAR MRPV NIL=
200710210400 METAR MRPV NIL=
200710210500 METAR MRPV NIL=
200710210600 METAR MRPV NIL=
200710210700 METAR MRPV NIL=
200710210800 METAR MRPV NIL=
200710210900 METAR MRPV NIL=
200710211000 METAR MRPV NIL=
200710211100 METAR MRPV NIL=
200710211200 METAR MRPV 261200Z 13007KT 9999 FEW030 20/16 A2996 FG W=
200710211300 METAR MRPV 211300Z 09004KT CAVOK 19/18 A3003 SCT110 OVC250=
200710211400 METAR MRPV 211400Z VRB03KT CAVOK 21/18 A3005 SCT110 OVC250=
200710211500 METAR MRPV 211500Z VRB03KT CAVOK 26/17 A3006 TRAZAS SCT SCT110 BKN250=
200710211600 METAR MRPV NIL=
200710211700 METAR MRPV 211700Z 27010KT 9999 FEW022 SCT110 BKN250 25/18 A3002 RN DST N=
200710211800 METAR MRPV 211800Z 29009KT 9999 FEW015TCU SCT024 BKN250 24/20 A3000 RN DST N/NE/E=
200710211900 METAR MRPV 211900Z 27007KT 9999 3000E VCSH FEW010CB SCT024 BKB250 23/19 A2998=
200710212000 METAR MRPV 212000Z 05004KT 5000 2400N -RA FEW008 BKN016 21/19 A2997=
200710212100 METAR MRPV 212100Z VRB03KT 5000 2400N -RA SCT002 BKN016 20/19 A2997=
200710212200 METAR MRPV 212200Z 29005KT 4000 -RA BR SCT002 BKN014 20/19 A2997=
200710212300 METAR MRPV 212300Z 29005KT 3000 -RA BR SCT001 OVC010 19/19 A2999=
200710220000 METAR MRPV NIL=
200710220100 METAR MRPV NIL=
200710220200 METAR MRPV NIL=
200710220300 METAR MRPV NIL=
200710220400 METAR MRPV NIL=
200710220500 METAR MRPV NIL=
200710220600 METAR MRPV NIL=
200710220700 METAR MRPV NIL=
200710220800 METAR MRPV NIL=
200710220900 METAR MRPV NIL=
200710221000 METAR MRPV NIL=
200710221100 METAR MRPV NIL=
200710221200 METAR MRPV 221200Z 13008KT CAVOK 19/16 A2998 RMK TRACE CU SCT250=
200710221300 METAR MRPV 221300Z 12007KT CAVOK 21/16 A3000 RMK TRACE CU FEW080 SCT250 RFGS 13KT=
200710221400 METAR MRPV 221400Z 13008KT CAVOK 24/17 A3001 TRACE CU AC FEW250 CB DST S=
200710221500 METAR MRPV 221500Z 08012KT 9999 FEW030 SCT250 25/17 A3003=
200710221600 METAR MRPV 221600Z 07012KT 9999 SCT025 SCT250 24/16 A3004 RMK DUST IN APCH RNY 09=
200710221700 METAR MRPV 221700Z 22004KT 9999 SCT012 SCT025 24/17 A3001 RMK DUST APCH RNY 09 PCPN DST E=
200710221800 METAR MRPV 221800Z VRB03KT 9999 -RA SCT012 BKN025 25/19 A2998 RMK TCU NW N=
200710221900 METAR MRPV NIL=
200710222000 METAR MRPV 222000Z 12010KT 9999 FEW012TCU BKN025 22/16 A2994 RN E NW=
200710222100 METAR MRPV 222100Z 12009KT 9999 SCT022 BKN250 22/15 A2992 RMK CB SW W=
200710222200 METAR MRPV 222200Z 26005KT 9999 2500SW BR SCT002 BKN250 21/18 A2992 RMK ST MOVIENDOSE DE OESTE HACIA AL ESTE=
200710222300 METAR MRPV 222300Z 28007KT 7000 3400 VCFG BR SCT001 BKN250 20/18 A2993 VIS W UNL=
200710230000 METAR MRPV NIL=
200710230100 METAR MRPV NIL=
200710230200 METAR MRPV NIL=
200710230300 METAR MRPV NIL=
200710230400 METAR MRPV NIL=
200710230500 METAR MRPV NIL=
200710230600 METAR MRPV NIL=
200710230700 METAR MRPV NIL=
200710230800 METAR MRPV NIL=
200710230900 METAR MRPV NIL=
200710231000 METAR MRPV NIL=
200710231100 METAR MRPV NIL=
200710231200 METAR MRPV 231200Z 12004KT 9999 NSC 17/14 A2997 CB DST W POLVO PISTA 09 TRAZAS CU/CI=
200710231300 METAR MRPV 231300Z 12005KT 9999 NSC 19/14 A3000 RMK TRACE CU AC CI=
200710231400 METAR MRPV 231400Z 00000KT 9999 NSC 24/16 A3001 RMK TRACE CU AC CI DU PISTA 09=
200710231500 METAR MRPV 231500Z 27006KT CAVOK 25/16 A3002 RMK TRACE SC FEW250 DU PISTA 09=
200710231600 METAR MRPV 231600Z 28008KT 9999 FEW025 25/16 A3002=
200710231700 METAR MRPV 231700Z 29009KT 9999 FEW025 26/18 A2999=
200710231800 METAR MRPV 231800Z 27009KT 9999 SCT022 26/18 A2996 RMK TCU N=
200710231900 METAR MRPV 231900Z 28009KT 9999 FEW012TCU SCT025 26/18 A2993=
200710232000 METAR MRPV 232000Z 27008KT 9999 FEW010TCU SCT025 26/20 A2991=
200710232100 METAR MRPV 232100Z 27010KT 9999 SCT010TCU SCT025 25/20 A2989 CB SW=
200710232200 METAR MRPV 232200Z 26008KT 9999 SCT010TCU SCT025 22/19 A2990 CB SW W NW=
200710232300 METAR MRPV 232300Z 31005KT 9999 SCT004 FEW010TCU BKN250 21/19 A2992 RMK CB S W RN E NE=
200710240000 METAR MRPV 240000Z NIL=
200710240100 METAR MRPV NIL=
200710240200 METAR MRPV NIL=
200710240300 METAR MRPV NIL=
200710240400 METAR MRPV NIL=
200710240500 METAR MRPV NIL=
200710240700 METAR MRPV NIL=
200710240800 METAR MRPV NIL=
200710240900 METAR MRPV NIL=
200710241000 METAR MRPV NIL=
200710241100 METAR MRPV NIL=
200710241200 METAR MRPV 241200Z 10003KT CAVOK 18/17 A2997 RMK LGT HZ ARND SCT090 SCT250=
200710241300 METAR MRPV 241300Z 04002KT CAVOK 21/18 A3000 HZY TRAZAS SCT FEW090 SCT250=
200710241400 METAR MRPV 241400Z 29002KT 9999 FEW025 23/19 A3001 HZY DU PISTA 09=
200710241500 METAR MRPV 241500Z 27004KT 9999 FEW020 24/18 A3001 HZY DU PIST 09=
200710241600 METAR MRPV 241600Z 32006KT 9999 SCT020 25/18 A3000 HZY DU PISTA 09=
200710241700 METAR MRPV 241700Z 27008KT 9999 SCT025 26/20 A2998 HZY DU PISTA 09=
200710241800 METAR MRPV 241800Z 28012KT 9999 SCT025 26/20 A2995 TCU SW=
200710241900 METAR MRPV 241900Z 28010KT 9999 BKN025 26/19 A2993 TCU SW=
200710242000 METAR MRPV NIL=
200710242100 METAR MRPV 242100Z 29011KT 9999 FEW010 SCT020 BKN100 23/20 A2989=
200710242200 METAR MRPV 242200Z 29010KT 9999 4000SW BR SCT006 BKN020 21/20 A2991=
200710242300 METAR MRPV 242300Z 28010KT 0600 FG DZ OVC001 20/20 A2994=
200710250000 METAR MRPV 250000Z NIL=
200710250100 METAR MRPV NIL=
200710250200 METAR MRPV NIL=
200710250300 METAR MRPV NIL=
200710250400 METAR MRPV NIL=
200710250500 METAR MRPV NIL=
200710250600 METAR MRPV NIL=
200710250700 METAR MRPV NIL=
200710250800 METAR MRPV NIL=
200710250900 METAR MRPV NIL=
200710251000 METAR MRPV NIL=
200710251100 METAR MRPV NIL=
200710251200 METAR MRPV 251200Z 00000KT CAVOK 18/17 A2997 RMK DU PISTA 09 SCT100 SCT250=
200710251300 METAR MRPV 251300Z 27003KT 9999 3500W BR FEW002 BKN100 19/18 A2999=
200710251400 METAR MRPV 251400Z 29003KT 7000 3000SW VCFG SCT002 BKN100 20/18 A3000=
200710251500 METAR MRPV 251500Z 29004KT 7000 3000N VCFG SCT003 BKN100 21/18 A3002=
200710251600 METAR MRPV 251600Z 26003KT 7000 VCFG SCT004 BKN100 23/18 A3001 RMK VIS 5000N=
200710251700 METAR MRPV 251700Z 29004KT 9999 SCT010 BKN030 24/18 A2999=
200710251800 METAR MRPV 251800Z 24005KT 9999 SCT020 BKN080 26/19 A2996=
200710251900 METAR MRPV 251900Z 26007KT 9999 SCT020 BKN040 25/19 A2992=
200710252000 METAR MRPV 252000Z 28011KT 9999 SCT020 BKN040 25/20 A2990=
200710252100 METAR MRPV 252100Z 28010KT 9999 FEW005 SCT020 BKN100 23/20 A2990=
200710252200 METAR MRPV 252200Z 28006KT 4000 BR SCT002 BKN010 21/20 A2991 VIS NW/N UNL=
200710252300 METAR MRPV 252300Z 29008KT 4000 -RA BR SCT002 BKN008 20/19 A2992 VIS E 6KMS=
200710260000 METAR MRPV NIL=
200710260100 METAR MRPV NIL=
200710260200 METAR MRPV NIL=
200710260300 METAR MRPV NIL=
200710260400 METAR MRPV NIL=
200710260500 METAR MRPV NIL=
200710260600 METAR MRPV NIL=
200710260800 METAR MRPV NIL=
200710260900 METAR MRPV NIL=
200710261000 METAR MRPV NIL=
200710261100 METAR MRPV NIL=
200710261200 METAR MRPV 261200Z 13007KT 9999 FEW030 20/16 A2996 FG W=
200710261300 METAR MRPV 261300Z 12007KT 9999 NSC 22/16 A2998 TRAZAS CU/CI=
200710261400 METAR MRPV 261400Z 10009KT CAVOK 24/17 A2999 FEW090 TRAZAS CU/CI CB DST SW POLVO PISTA 09=
200710261500 METAR MRPV 261500Z 09008KT 9999 SCT035 25/18 A3000 TRAZAS CI=
200710261600 METAR MRPV 261600Z 06009KT 9999 SCT030 BKN080 25/18 A2999=
200710261700 METAR MRPV 261700Z 09013KT 9999 SCT025 BKN100 24/18 A2998=
200710261800 METAR MRPV 261800Z 08017KT 9999 SCT025 BKN100 23/17 A2996 RMK RAFAGAS 23NUDOS=
200710261900 METAR MRPV 261900Z 08015KT 9999 SCT025 BKN080 24/16 A2994 RASH W RAFAGAS 22NUDOS=
200710262000 METAR MRPV 262000Z 12006KT 9999 SCT030 BKN120 24/17 A2994=
200710262100 METAR MRPV 262100Z 13007KT 9999 SCT025 BKN100 23/17 A2994=
200710262200 METAR MRPV 262200Z 13007KT 9999 SCT040 BKN120 22/16 A2996=
200710262300 METAR MRPV 262300Z 12006KT 9999 SCT025 BKN100 21/16 A2997=
200710270000 METAR MRPV NIL=
200710270100 METAR MRPV NIL=
200710270200 METAR MRPV NIL=
200710270300 METAR MRPV NIL=
200710270400 METAR MRPV NIL=
200710270500 METAR MRPV NIL=
200710270600 METAR MRPV NIL=
200710270700 METAR MRPV NIL=
200710270800 METAR MRPV NIL=
200710270900 METAR MRPV NIL=
200710271000 METAR MRPV NIL=
200710271100 METAR MRPV NIL=
200710271200 METAR MRPV 271200Z NIL=
200710271230 METAR MRPV 271230Z 09016KT CAVOK 21/16 A2996 TRACE SCT BKN250 CB DST W=
200710271300 METAR MRPV 271300Z 09014KT CAVOK 22/16 A2996 RMK TRACE BKN250 DST CB W=
200710271400 METAR MRPV 271400Z 11012KT 9999 FEW020 SCT250 23/16 A2998 RMK CB DST W=
200710271500 METAR MRPV 271500Z 10012KT 9999 FEW020 SCT250 24/16 A2999=
200710271600 METAR MRPV 271600Z 09015KT 9999 SCT020 SCT250 25/16 A2999=
200710271700 METAR MRPV 271700Z 08015KT 9999 SCT020 SCT250 26/15 A2996 RMK RN DST E=
200710271800 METAR MRPV 271800Z 08015KT 9999 SCT020 SCT260 27/15 A2994 RMK RN DST E=
200710271900 METAR MRPV 271900Z 07012KT 9999 FEW015TCU SCT022 BKN220 26/14 A2992=
200710272000 METAR MRPV 272000Z 06010KT 9999 FEW012TCU SCT022 BKN250 26/15 A2990=
200710272100 METAR MRPV 272100Z 09010KT 9999 SCT010 SCT022 BKN250 24/16 A2990 RMK RN NW TCU S SW=
200710272200 METAR MRPV 272200Z 09010KT 9999 SCT012 SCT022 BKN250 25/16 A2990 RMK RN N NE E TCU SW=
200710272300 METAR MRPV 272300Z 10006KT 7000 2000NW -RA VCTS FEW008CB BKN025 21/18 A2992=
200710280000 METAR MRPV 280000Z NIL=
200710280100 METAR MRPV NIL=
200710280200 METAR MRPV NIL=
200710280300 METAR MRPV NIL=
200710280400 METAR MRPV NIL=
200710280500 METAR MRPV NIL=
200710280600 METAR MRPV NIL=
200710280700 METAR MRPV NIL=
200710280800 METAR MRPV NIL=
200710280900 METAR MRPV NIL=
200710281000 METAR MRPV NIL=
200710281100 METAR MRPV NIL=
200710281200 METAR MRPV NIL=
200710281300 METAR MRPV 281300Z 10012KT 9999 FEW020 BKN100 21/16 A2996 RN NE=
200710281400 METAR MRPV 281400Z 10012KT 9999 ASCT020 22/17 A2998 RMK RN NE RAFAGAS 17KT=
200710281500 METAR MRPV 281500Z 10014KT 9999 SCT020 23/17 A2999 RMK RAFAGAS 20KT=
200710281600 METAR MRPV 281600Z 09014KT 9999 SCT020 24/17 A2998 RMK RN NE RAFAGAS 20KT=
200710281700 METAR MRPV 281700Z 09013KT 9999 SCT020 25/17 A2995=
200710281800 METAR MRPV 281800Z 09012KT 9999 SCT020 SCT100 27/18 A2992 RMK RN NE TCU N S=
200710282300 METAR MRPV 282300Z VRB03KT 5000 2000NW RA BR SCT002 BKN015 20/18 A2991=
200710290000 METAR MRPV NIL=
200710290100 METAR MRPV NIL=
200710290200 METAR MRPV NIL=
200710290300 METAR MRPV NIL=
200710290400 METAR MRPV NIL=
200710290700 METAR MRPV NIL=
200710290800 METAR MRPV NIL=
200710290900 METAR MRPV NIL=
200710291100 METAR MRPV NIL=
200710291200 METAR MRPV 291200Z 10005KT 9999 FEW030 BKN250 18/17 A2996 RMK DUST IN APCH RNY 09 TCU DST W=
200710291300 METAR MRPV 291300Z 13003KT CAVOK 21/17 A2998 DZ N NE TCU W POLVO EN LA PISTA 09 TRAZAS CU/AC BKN250=
200710291400 METAR MRPV 291400Z 09002KT 9999 BKN035 SCT250 24/18 A3000 DU PISTA 09=
200710291500 METAR MRPV 291500Z 260HVH581 291556 GG MYNNYMYX SAZZMAMX SBBRYZYX SCZZMAMX SGZZMAMX SKZZMAMX SLZZMAMX SOZZMAMX SPZZMAMX SUZZMAMX SVZZMAMX TJSJYMYX TNCCYMYX 291530 MSLPYMYX FTES31=
200710291600 METAR MRPV 291600Z 29005KT 9999 SCT012 SCT090 BKN250 23/19 A3000 RMK POLVO EN LA PISTA 09 HZY=
200710291700 METAR MRPV 291700Z 28006KT 9999 SCT010TCU SCT090 BKN250 24/18 A1998 RERA HZY=
200710291800 METAR MRPV NIL=
200710291900 METAR MRPV 291900Z 28006KT 9999 SCT010TCU SCT090 BKN250 24/18 A2993 HZY=
200710292000 METAR MRPV 292000Z 27007KT 9999 SCT015 SCT090 BKN250 25/19 A2990 HZ LGT ARND TCU SEMIC S=
200710292100 METAR MRPV 292100Z 28009KT 9999 SCT015 BKN090 23/19 A2989 RMK HZ LEVE ARND TCU DST QUAD S=
200710292200 METAR MRPV 292200Z 28008KT 9999 4000N BR FEW004 SCT015 BKN090 22/19 A2990 RMK LEVE HZ ARND=
200710292300 METAR MRPV 292300Z 29006KT 3000 BR SCT002 BKN010 21/20 A2992 RMK ST WW AL E=
200710300000 METAR MRPV NIL=
200710300100 METAR MRPV NIL=
200710300200 METAR MRPV NIL=
200710300300 METAR MRPV NIL=
200710300400 METAR MRPV NIL=
200710300800 METAR MRPV NIL=
200710301000 METAR MRPV NIL=
200710301100 METAR MRPV NIL=
200710301200 METAR MRPV 301200Z 08005KT CAVOK 18/16 A2996 RMK TRACE SC BKN250 CB S SW W NW DU PISTA 09=
200710301300 METAR MRPV 301300Z 09002KT CAVOK 22/18 A2998 RMK CB DST S W POLVO APROXIMACION PISTA 09 TRACE CU BKN250=
200710301400 METAR MRPV 301400Z 35003KT CAVOK 24/17 A2999 RMK TRACE CU BKN250 CB DST S POLVO APROXIMACION PISTA 09 HZ LEVE ARND=
200710301500 METAR MRPV 301500Z 27008KT 9999 FEW025 SCT120 BKN250 23/19 A3001 RMK HZ LEVE ARND POLVO APROXIMACION PISTA 09=
200710301600 METAR MRPV 301600Z 27007KT 9999 4000N HZ SCT025 SCT120 BKN250 24/19 A3009 POLVO APROXIMACION PISTA 09=
200710301700 METAR MRPV 301700Z 28009KT 9999 SCT025 BKN250 24/19 A2998 RMK VIS 5000 E HZ=
200710301800 METAR MRPV 301800Z 29011KT 9999 FEW012 SCT020 BKN100 25/20 A2995 RMK VIS 5000N HZ=
200710301900 METAR MRPV 301900Z 28011KT 9999 SCT020 BKN100 24/19 A2993=
200710302000 METAR MRPV 302000Z 27008KT 9999 SCT012 BKN100 24/19 A2990=
200710302100 METAR MRPV 302100Z 29009KT 9999 3000N TS VCSH SCT010CB BKN025 23/20 A2991=
200710302200 METAR MRPV 302200Z 29006KT 4000 -RA BR FEW006 SCT012 OVC100 20/19 A2992 VIS SE/S/SW UNL=
200710302300 METAR MRPV 302300Z 33003KT 3000 -RA BR FEW005 SCT010 OVC100 20/20 A2993 VIS E 7KMS=
200710310000 METAR MRPV NIL=
200710310100 METAR MRPV NIL=
200710310200 METAR MRPV NIL=
200710310300 METAR MRPV NIL=
200710310400 METAR MRPV NIL=
200710310500 METAR MRPV NIL=
200710310600 METAR MRPV NIL=
200710310700 METAR MRPV NIL=
200710310800 METAR MRPV NIL=
200710310900 METAR MRPV NIL=
200710311000 METAR MRPV NIL=
200710311100 METAR MRPV NIL=
200710311200 METAR MRPV 311200Z 00000KT 4000 BR SCT001 BKN010 19/18 A2997 RMK VSBY SE UNL POLVO EN LA PISTA 09=
200710311300 METAR MRPV 311300Z 00000KT 6000 2800W VCFG BR SCT001 BKN015 20/18 A2999 POLVO PISTA 09 VIS SE UNL=
200710311400 METAR MRPV 311400Z 27003KT 4000 BR SCT002 BKN015 21/19 A3001 VIS SE UNL POLVO PISTA 09 CONDICIONES VARIABLES=
200710311500 METAR MRPV 311500Z 28007KT 6000 VCFG SCT004 BKN020 22/19 A3002 POLVO PISTA 09 VIS NW/N 4KMS=
200710311600 METAR MRPV 311600Z 28006KT 8000 SCT010 BKN020 23/18 A3001 POLVO PISTA 09 VIS NW/ N 6KMS=
200710311700 METAR MRPV 311700Z 28008KT 9999 FEW010 BKN020 24/19 A2998=
200710311800 METAR MRPV 311800Z 28008KT 9999 BKN020 25/18 A2995=
200710311900 METAR MRPV 311900Z 28011KT 9999 SCT010 BKN020 23/20 A2991=
200710312000 METAR MRPV 312000Z 28010KT 5000 2000N VCSH SCT002 BKN010CB 23/19 A2989=
200710312100 METAR MRPV 312100Z 27006KT 1000 RA BR SCT002 BKN008 20/19 A2990=
200710312200 METAR MRPV 312200Z 26004KT 1000 -RA BR VV/// 20/19 A2990 CLSD=
200710312300 METAR MRPV 312300Z 26005KT 1000 RA BR OVC001 19/19 Q2993=
200711010000 METAR MRPV NIL=
200711010100 METAR MRPV NIL=
200711010200 METAR MRPV NIL=
200711010400 METAR MRPV NIL=
200711010500 METAR MRPV NIL=
200711010600 METAR MRPV NIL=
200711010700 METAR MRPV NIL=
200711010800 METAR MRPV NIL=
200711010900 METAR MRPV NIL=
200711011000 METAR MRPV NIL=
200711011100 METAR MRPV NIL=
200711011200 METAR MRPV 011200Z 29003KT 0800 FG VV002 19/19 A2997=
200711011300 METAR MRPV 011300Z 34002KT 3000 BR FEW001 SCT005 19/19 A2999 RMK SCT100=
200711011400 METAR MRPV 011400Z 00000KT 7000 3000SW VCFG BR FEW002 BKN100 21/19 A3000 RMK DUST APCH RNY 09=
200711011500 METAR MRPV 011500Z 04002KT 8000 FEW007 SCT020 BKN100 23/19 A3000 RMK DUST APCH RNY 09=
200711011600 METAR MRPV 011600Z 27006KT 9999 SCT010 BKN020 24/20 A3000=
200711011800 METAR MRPV 011800Z 25007KT 9999 SCT010 BKN025 23/19 A2995=
200711011900 METAR MRPV 011900Z 27010KT 9999 SCT012 BKN025 24/19 A2993 RMK RASH NW N NE E=
200711012000 METAR MRPV 012000Z 28008KT 99999 4000N VCSH SCT010 SCT020 BKN100 23/19 A2991 RMK RASH NW N NE E=
200711012100 METAR MRPV 012100Z 04002KT 5000 RA BR SCT003 BKN020 22/20 A2990 RMK VIS S 3000MTS DUE ST RN=
200711012200 METAR MRPV 012200Z 00000KT 4000 -RA BR SCT003 BKN015 20/18 A2992 RMK VIS E 8000MTS=
200711012300 METAR MRPV 012300Z 00000KT 4000 -RA BR SCT002 BKN010 20/19 A2993 RMK VIS NE E 8000MTS=
200711020000 METAR MRPV NIL=
200711020100 METAR MRPV NIL=
200711020200 METAR MRPV NIL=
200711020300 METAR MRPV NIL=
200711020400 METAR MRPV NIL=
200711020500 METAR MRPV NIL=
200711020600 METAR MRPV NIL=
200711020700 METAR MRPV NIL=
200711020800 METAR MRPV NIL=
200711020900 METAR MRPV NIL=
200711021000 METAR MRPV NIL=
200711021200 METAR MRPV 021200Z 00000KT 3000 -DZ BR SCT001 BKN006 19/18 A3000=
200711021300 METAR MRPV 021300Z 00000KT 6000 VCFG FEW002 SCT012 20/19 A3001 RMK VIS S UNL=
200711021400 METAR MRPV 021400Z 00000KT 9999 VCFG FEW015 SCT250 23/19 A3002 RMK VIS SW W NW 6000MTS=
200711021500 METAR MRPV 021500Z 27005KT 8000 VCFG SCT004 SCT020 23/19 A3003=
200711021600 METAR MRPV 021600Z 27006KT 9999 4000E BR SCT004 SCT020 24/19 A3002=
200711021700 METAR MRPV 021700Z 29008KT 9999 4000E BR SCT004 SCT020 24/19 A2999=
200711021800 METAR MRPV 021800Z 27009KT 9999 4000E BR SCT004 SCT020 25/19 A2996=
200711021900 METAR MRPV NIL=
200711022000 METAR MRPV 022000Z 27010KT 8000 3000E VCSH SCT010TCU BKN025 24/21 A2991=
200711022100 METAR MRPV 022100Z 24005KT 6000 2800E VCSH FEW004TCU BKN015CB 22/20 A2992=
200711022200 METAR MRPV 022200Z VRB03KT 5000 RA SCT004 BKN015 19/19 A2992=
200711022300 METAR MRPV 022300Z 06004KT 5000 -RA BR SCT002 BKN018 20/19 A2994=
200711030000 METAR MRPV NIL=
200711030100 METAR MRPV NIL=
200711030200 METAR MRPV NIL=
200711030300 METAR MRPV 030300Z VRB03KT 8000 3000N -RA VCSH SCT015 BKN030 21/20 A2992=
200711030400 METAR MRPV NIL=
200711030500 METAR MRPV NIL=
200711030600 METAR MRPV NIL=
200711030700 METAR MRPV NIL=
200711030800 METAR MRPV NIL=
200711030900 METAR MRPV NIL=
200711031000 METAR MRPV NIL=
200711031100 METAR MRPV NIL=
200711031200 METAR MRPV 031200Z 00000KT 2500 BR SCT001 BKN010 19/19 A3000=
200711031300 METAR MRPV 031300Z 00000KT 5000 2400W BR SCT001 SCT010 BKN250 20/19 A3000=
200711031400 METAR MRPV 031400Z VRB03KT 7000 2000NW SCT002 BKN250 22/20 A3002=
200711031500 METAR MRPV 031500Z 27004KT 6000 220W BR VCFG SCT001 SCT020 BKN250 24/18 A3003=
200711031600 METAR MRPV 031600Z 27007KT 5000 2000NW BR SCT001 BKN015 22/20 A3003=
200711031700 METAR MRPV 031700Z 28004KT 6000 2000NW VCFG BR SCT002 BKN018 24/20 A3003=
200711031800 METAR MRPV 031800Z 31004KT 7000 3000NW -RA BR SCT004 BKN020 24/19 A2998=
200711031900 METAR MRPV 031900Z 31005KT 7000 3000NW VCFG BR SCT002 BKN020 24/19 A2994=
200711032000 METAR MRPV 032000Z VRB03KT 7000 -RA VCFG FEW002 SCT020 BKN100 22/19 A2992 TS N=
200711032100 METAR MRPV NIL=
200711032200 METAR MRPV 032200Z VRB03KT 9999 3000N VCSH SCT003 BKN030 22/20 A2993=
200711032300 METAR MRPV 032300Z 09005KT 9999 3000SE VCSH SCT002 BKN030 21/18 A2995=
200711040000 METAR MRPV NIL=
200711040100 METAR MRPV NIL=
200711040200 METAR MRPV NIL=
200711040300 METAR MRPV NIL=
200711040400 METAR MRPV NIL=
200711040500 METAR MRPV NIL=
200711040600 METAR MRPV NIL=
200711040700 METAR MRPV NIL=
200711040800 METAR MRPV NIL=
200711040900 METAR MRPV NIL=
200711041000 METAR MRPV NIL=
200711041100 METAR MRPV NIL=
200711041200 METAR MRPV NIL=
200711041300 METAR MRPV 041300Z 11006KT 9999 SCT015 SCT100 21/17 A2996 RMK RN DST N E=
200711041400 METAR MRPV 041400Z 10012KT 9999 SCT018 BKN250 21/17 A2998 RMK RN DST NE=
200711041500 METAR MRPV 041500Z 08020KT 9999 SCT015 BKN250 22/17 A2998 RMK RN DST NE=
200711041600 METAR MRPV 041600Z 08014KT 9999 SCT015 BKN250 23/17 A2998 RMK RN DST NE=
200711041700 METAR MRPV 041700Z 09006KT 9999 SCT015 BKN250 23/18 A2996 RMK RN DST NE=
200711041800 METAR MRPV 041800Z 08007KT 9999 SCT015 BKN250 25/18 A2991=
200711041900 METAR MRPV 041900Z 14005KT 9999 FEW010TCU SCT030 BKN250 27/17 A2998=
200711042000 METAR MRPV 042000Z 28004KT 9999 FEW010TCU BKN030 26/18 A2986=
200711042100 METAR MRPV 042100Z 27008KT 9999 SCT010TCU BKN025 24/19 A2984=
200711042200 METAR MRPV 042200Z 26007KT 9999 SCT004 BKN020 22/20 A2985=
200711042300 METAR MRPV 042300Z 27007KT 6000 2000N BR SCT002 BKN015 21/19 A2988 ST MOVIENDOSE W AL E=
200711050000 METAR MRPV 050000Z 28004KT 5000 BR SCT002 BKN015 20/19 A2989=
200711050100 METAR MRPV NIL=
200711050200 METAR MRPV NIL=
200711050300 METAR MRPV NIL=
200711050400 METAR MRPV NIL=
200711050500 METAR MRPV NIL=
200711050600 METAR MRPV NIL=
200711050700 METAR MRPV NIL=
200711050800 METAR MRPV NIL=
200711050900 METAR MRPV NIL=
200711051000 METAR MRPV NIL=
200711051100 METAR MRPV NIL=
200711051200 METAR MRPV 051200Z 10005KT CAVOK 19/17 A2989 TRAZAS CU CB N BKN300=
200711051300 METAR MRPV 051300Z 07003KT CAVOK 22/17 A2991 TRAZAS CU CB DST N BKN300=
200711051400 METAR MRPV 051400Z 09007KT CAVOK 24/18 A2993 TRAZAS CU CB DST N HZ W BKN270=
200711051500 METAR MRPV 051500Z 30008KT 9999 FEW045 BKN270 24/18 A2994 CB DST NW=
200711051600 METAR MRPV 051600Z 31005KT 9999 SCT035 BKN250 25/19 A2994=
200711051700 METAR MRPV 051700Z 25006KT 9999 FEW010TCU SCT025 BKN250 24/20 A2991 RN DST E=
200711051800 METAR MRPV 051800Z 28006KT 9999 FEW010 SCT025 BKN100 25/19 A2989=
200711051900 METAR MRPV 051900Z 27005KT 9999 FEW010 SCT020 BKN100 25/20 A2984 RN DST E=
200711052000 METAR MRPV 052000Z 26004KT 9999 FEW006 SCT012 BKN020 23/20 A2992 RERA=
200711052100 METAR MRPV 052100Z 28009KT 9999 TS FEW010CB SCT020 BKN100 24/20 A2980 RMK TS RASH DST NW N=
200711052200 METAR MRPV 052200Z 22006KT 1000 +TSRA SCT001 BKN008CB 20/20 A2984=
200711052300 METAR MRPV 052300Z 13002KT 1000 +SHRA VV/// 20/19 A2988=
200711060000 METAR MRPV NIL=
200711060100 METAR MRPV NIL=
200711060200 METAR MRPV NIL=
200711060300 METAR MRPV NIL=
200711060400 METAR MRPV NIL=
200711060500 METAR MRPV NIL=
200711060600 METAR MRPV NIL=
200711060700 METAR MRPV NIL=
200711060800 METAR MRPV NIL=
200711060900 METAR MRPV NIL=
200711061000 METAR MRPV NIL=
200711061100 METAR MRPV NIL=
200711061200 METAR MRPV 061200Z 11006KT 9999 FEW025 BKN250 20/16 A2991=
200711061300 METAR MRPV 061300Z 12006KT CAVOK 21/17 A2992 RMK TRACE CU BKN270 CB DST SW TCU DST NW=
200711061400 METAR MRPV 061400Z 12006KT CAVOK 23/17 A2994 RMK TRACE CU BKN270 TCU NE SW CB DST NW=
200711061500 METAR MRPV 061500Z 08007KT 9999 SCT025 BKN270 25/18 A2996 RMK CB DST SW=
200711061600 METAR MRPV 061600Z 08006KT 9999 SCT030 BKN250 26/17 A2994=
200711061700 METAR MRPV 061700Z 34002KT 9999 FEW025 SCT040 26/20 A2992=
200711061800 METAR MRPV 061800Z 27007KT 9999 VCSH SCT010CB BKN025 24/20 A2991 RMK RASH DST E VIS 6000=
200711061900 METAR MRPV 061900Z 29005KT 9999 SCT010 BKN020 23/20 A2987 RMK RASH N W=
200711062000 METAR MRPV 062000Z 29009KT 7000 3000W BR SCT008CB BKN012 22/20 A2986=
200711062100 METAR MRPV 062100Z 26005KT 2000 RABR SCT002 BKN007 21/20 A2986=
200711062200 METAR MRPV 062200Z 30004KT 5000 BR SCT004 BKN015 21/20 A2988 RMK VIS SW 3000MTS=
200711062300 METAR MRPV 062300Z 00000KT 9000 4000W BR SCT008 BKN020 21/20 A2989=
200711070000 METAR MRPV 070000Z NIL=
200711070100 METAR MRPV NIL=
200711070200 METAR MRPV NIL=
200711070300 METAR MRPV NIL=
200711070400 METAR MRPV NIL=
200711070500 METAR MRPV NIL=
200711070600 METAR MRPV NIL=
200711070700 METAR MRPV NIL=
200711070800 METAR MRPV NIL=
200711070900 METAR MRPV NIL=
200711071000 METAR MRPV NIL=
200711071100 METAR MRPV NIL=
200711071200 METAR MRPV 071200Z 11012KT 9999 SCT020 BKN100 20/17 A2994 VIS E 6KMS DUE RN RN DST N RAFAGAS 18 NUDOS=
200711071300 METAR MRPV 071300Z 10011KT 9999 FEW020 SCT090 BKN120 21/17 A2998 RMK DZ N E DST RAFAGAS 15KT=
200711071400 METAR MRPV 071400Z 10015KT 9999 FEW030 BKN120 21/17 A3000 RMK DS N NE DST RAFAGAS 23KT=
200711071500 METAR MRPV 071500Z 09020KT 9999 FEW006 SCT020 BKN120 21/17 A3000 RMK DZ NE RAFAGAS 27KT=
200711071600 METAR MRPV 071600Z 09016KT 9999 FEW010 SCT025 BKN120 22/17 A2999 RMK RAFAGAS 24KT DZ NE=
200711071700 METAR MRPV 071700Z 11013KT 9999 FEW010 SCT025 BKN100 22/17 A2996 RMK RAFAGAS 20KT DZ NE E=
200711071800 METAR MRPV 071800Z 10016G26KT 9999 FEW015 SCT025 BKN100 21/17 A2993 RMK DZ NE E=
200711071900 METAR MRPV 071900Z 10015KT 9999 SCT020 BKN100 22/17 A2990 RMK RAFAGAS 21KT=
200711072000 METAR MRPV 072000Z 09014KT 9999 FEW010 SCT020 BKN100 21/17 A2989 RMK DZ NE E SE S=
200711072100 METAR MRPV 072100Z 08014KT 9999 FEW010 SCT020 BKN100 21/17 A2988 DZ N NE=
200711072200 METAR MRPV 072200Z 09014KT 9999 SCT015 BKN100 21/17 A2988 DZ NE=
200711072300 METAR MRPV 072300Z 11012KT 9999 SCT015 BKN100 21/17 A2988 RN E=
200711072330 METAR MRPV 072330Z 10012KT 9999 SCT015 BKN100 21/17 A2988 RN E=
200711080000 METAR MRPV NIL=
200711080100 METAR MRPV NIL=
200711080200 METAR MRPV NIL=
200711080300 METAR MRPV NIL=
200711080400 METAR MRPV NIL=
200711080500 METAR MRPV NIL=
200711080600 METAR MRPV NIL=
200711080700 METAR MRPV NIL=
200711080800 METAR MRPV NIL=
200711080900 METAR MRPV NIL=
200711081000 METAR MRPV NIL=
200711081100 METAR MRPV NIL=
200711081200 METAR MRPV 081200Z 09017KT 9999 SCT030 BKN100 20/16 A2992 RMK VIS NE E 5000 DUE RA=
200711081300 METAR MRPV 081300Z 09018KT 9999 SCT030 BKN100 20/16 A2994 VSBY NE 6KM DUE RN RN DST N E RAFAGAS 26KT=
200711081400 METAR MRPV 081400Z 09015KT 9999 SCT030 BKN100 21/16 A2997 VSBY NE 6KM DUE RN RN DST NW N NE SE DU PISTA 09=
200711081500 METAR MRPV 081500Z 09014KT 9999 FEW010 SCT030 BKN100 21/17 A2997 RN N NE E RAFAGAS 22KT=
200711081600 METAR MRPV 081600Z 10014KT 9999 3000NE VCSH FEW010 SCT030 BKN100 23/17 A2996=
200711081700 METAR MRPV 081700Z 10014KT 9999 4000E VCSH FEW010 SCT030 BKN100 22/17 A2995 RN N NE RAFAGAS 22KT=
200711081800 METAR MRPV 081800Z 10016KT 9999 4000E VCSH FEW010 SCT030 BKN100 22/17 A2992 RN N NE RAFAGAS 22KT=
200711081900 METAR MRPV 081900Z 10016G27KT 9999 4000E VCSH FEW010 SCT030 BKN100 22/18 A2991=
200711082000 METAR MRPV 082000Z 09015KT 9999 3000NE VCSH FEW010 SCT030 BKN100 22/17 A2989 RMK RN E N RAFAGAS 20KT=
200711082100 METAR MRPV NIL=
200711082200 METAR MRPV 082200Z 10012KT 9999 3000NE VCSH FEW010 SCT030 BKN100 21/17 A2988 RMK RN DST E N GUST 19KT=
200711082300 METAR MRPV 082300Z 12012KT 9999 3000NE VCSH FEW010 SCT030 BKN100 21/17 A2990 RMK RN DST N E GUST 18KT=
200711090000 METAR MRPV 090000Z NIL=
200711090100 METAR MRPV NIL=
200711090200 METAR MRPV NIL=
200711090300 METAR MRPV NIL=
200711090400 METAR MRPV NIL=
200711090500 METAR MRPV NIL=
200711090600 METAR MRPV NIL=
200711090700 METAR MRPV NIL=
200711090800 METAR MRPV NIL=
200711090900 METAR MRPV NIL=
200711091000 METAR MRPV NIL=
200711091100 METAR MRPV NIL=
200711091200 METAR MRPV 091200Z 08019KT 9999 4000E FEW030 BKN100 19/15 A2994 RMK RN N NE E SE RAFAGAS 24KT=
200711091300 METAR MRPV 091300Z 08008KT 9999 4000E FEW030 BKN100 19/16 A2998 RMK RN DST N NE E GUST 13KT=
200711091400 METAR MRPV 091400Z 08013KT 9999 4000E SCT030 BKN100 20/16 A3000 REDZ RMK RN DST NW N NE E SE=
200711091500 METAR MRPV 091500Z 10014KT 9999 3000NE FEW020 SCT100 BKN250 21/16 A3001 RMK RN DST QUAD N E GUST 21KT=
200711091600 METAR MRPV 091600Z 09020KT 9999 3000NE VCSH FEW015 SCT100 BKN250 21/16 A3000 RMK GUST 26KT RN DST QUAD N E=
200711091700 METAR MRPV 091700Z 09020KT 9999 3000NE DZ VCSH FEW015 SCT100 BKN250 22/16 A2998 RMK GUST 26KT=
200711091800 METAR MRPV 091800Z 10018KT 9999 3000NE VCSH FEW015 SCT100 BKN250 22/16 A2995 RMK GUST 25KT=
200711091900 METAR MRPV 091900Z 10015KT 9999 3000NE VCSH FEW020 SCT100 BKN250 22/16 A2993 RMK GUST 21KT RN QUAD N E=
200711092000 METAR MRPV 092000Z 09017KT 9999 3000NE VCSH FEW020 SCT100 BKN250 21/16 A2992 RMK RN QUAD NE GUST 22KT=
200711092100 METAR MRPV 092100Z 09018KT 9999 3000NE VCSH FEW020 SCT100 BKN250 21/16 A2992 RAFAGAS 25 NUDOS RN DST N/E=
200711092200 METAR MRPV 092200Z 09017KT 9999 3000NE VCSH FEW020 SCT100 BKN250 20/16 A2993 RAFAGAS 25NUDOS RN DST N/E=
200711092300 METAR MRPV 092300Z 10014KT 9999 3000NE VCSH FEW020 SCT100 BKN250 20/16 A2993 RAFAGAS 19 NUDOS RN DST N/E=
200711100000 METAR MRPV NIL=
200711100100 METAR MRPV NIL=
200711100200 METAR MRPV NIL=
200711100300 METAR MRPV NIL=
200711100400 METAR MRPV NIL=
200711100500 METAR MRPV NIL=
200711100600 METAR MRPV NIL=
200711100700 METAR MRPV NIL=
200711100800 METAR MRPV NIL=
200711100900 METAR MRPV NIL=
200711101000 METAR MRPV NIL=
200711101100 METAR MRPV NIL=
200711101200 METAR MRPV 101200Z 11010KT CAOK 19/11 A2996 SCT120 BKN250=
200711101300 METAR MRPV 101300Z 12008KT CAVOK 19/12 A2998 SCT120 BKN250 RAFAGAS 14 NUDOS=
200711101400 METAR MRPV 101400Z 10012KT CAVOK 19/14 A2999 SCT120 BKN250 17 NUDOS POLVO PISTA 09=
200711101500 METAR MRPV 101500Z 11010KT CAVOK 20/11 A3001 SCT120 BKN250 RAFAGAS 16 NUDOS POLVO PISTA 09=
200711101600 METAR MRPV 101600Z 09014KT 9999 FEW020 SCT120 BKN250 21/15 A3002 RN DST SE/NW FRAFAGAS 20 NUDOS=
200711101700 METAR MRPV 101700Z 11013KT 9999 FEW020 SCT120 BKN250 20/13 A3001 RN DST N RAFAGAS 20 NUDOS=
200711101800 METAR MRPV 101800Z 09013KT 9999 -DZ FEW020 SCT120 BKN230 19/13 A2998 VIS 5KMS E RN DST N/NE RAFAGAS 18 NUDOS=
200711101900 METAR MRPV 101900Z 11010KT 9999 FEW020 SCT120 BKN250 19/12 A2996 RN DST E/N RAFAGAS 17 NUDOS=
200711102000 METAR MRPV 102000Z 10010KT 9999 -RA FEW020 SCT120 BKN250 19/12 A2995 VIS E 5KMS=
200711102100 METAR MRPV 102100Z 12007KT 7000 3000NW -RA SCT015 OVC110 17/15 A2994 RMK UNL S=
200711102200 METAR MRPV 102200Z 12007KT 7000 3000NW -RA SCT015 OVC110 17/14 A2994 RMK UNL S=
200711102300 METAR MRPV 102300Z 10016KT 8000 -RA FEW012 SCT120 BKN250 17/17 A2994 RMK UNL S=
200711110000 METAR MRPV 110000Z 09014KT 8000 -RA FEW015 BKN120 18/15 A2995=
200711110100 METAR MRPV NIL=
200711110200 METAR MRPV NIL=
200711110300 METAR MRPV NIL=
200711110400 METAR MRPV NIL=
200711110500 METAR MRPV NIL=
200711110600 METAR MRPV NIL=
200711110700 METAR MRPV NIL=
200711110800 METAR MRPV NIL=
200711110900 METAR MRPV NIL=
200711111000 METAR MRPV NIL=
200711111100 METAR MRPV NIL=
200711111200 METAR MRPV NIL=
200711111300 METAR MRPV 111300Z 10012KT 9999 +DZ SCT020 OVC100 17/13 A2996 RMK RAFAGAS 18KT=
200711111400 METAR MRPV 111400Z 12007KT 9999 SCT020 OVC100 18/13 A2998 REDZ RMK DZ NE=
200711111500 METAR MRPV 111500Z 11010KT 9999 SCT020 OVC100 19/13 A3000 RMK RMK NE=
200711111600 METAR MRPV 111600Z 10010KT 9999 DZ SCT020 AOVC100 19/14 A2999 RMK RAFAGAS 17KT=
200711111700 METAR MRPV 111700Z 09015KT 9999 SCT020 OVC100 18/14 A2997=
200711111800 METAR MRPV 111800Z 09015KT 9999 SCT020 OVC100 18/14 A2997=
200711111900 METAR MRPV 111900Z 10012KT 9999 -RA FEW015 SCT020 OVC100 19/16 A2993=
200711112000 METAR MRPV NIL=
200711112100 METAR MRPV 112100Z 10006KT 9999 DZ FEW025 OVC100 18/16 A2990=
200711112200 METAR MRPV 112200Z 09005KT CAVOK 19/17 A2988 RMK OVC100 TRACE SC=
200711112300 METAR MRPV 112300Z 11003KT 9999 -RA FEW030 OVC100 19/17 A2989=
200711120000 METAR MRPV 120000Z NIL=
200711120100 METAR MRPV NIL=
200711120200 METAR MRPV NIL=
200711120300 METAR MRPV NIL=
200711120400 METAR MRPV NIL=
200711120500 METAR MRPV NIL=
200711120600 METAR MRPV NIL=
200711120700 METAR MRPV NIL=
200711120800 METAR MRPV NIL=
200711120900 METAR MRPV NIL=
200711121000 METAR MRPV NIL=
200711121100 METAR MRPV NIL=
200711121200 METAR MRPV 121200Z 12002KT CAVOK 16/15 A2996 FEW100 BKN270 TRAZAS SC=
200711121300 METAR MRPV 121300Z 08003KT CAVOK 19/16 A2998 RMK SCT100 BKN270 TRACE SC=
200711121400 METAR MRPV 121400Z 00000KT 9999 FEW020 SCT100 BKN270 21/17 A2999 RMK DU PISTA 09=
200711121500 METAR MRPV 121500Z 28004KT 9999 FEW012 SCT020 BKN270 22/18 A3000 RMK DU W=
200711121600 METAR MRPV 121600Z 27005KT 9999 FEW015 SCT020 BKN270 23/18 A2999 RMK DU APROXIMACION 09=
200711121700 METAR MRPV 121700Z 28006KT 9999 FEW015 BKN020 24/18 A2997=
200711121800 METAR MRPV 121800Z 28007KT 9999 SCT012 BKN020 24/18 A2995=
200711121900 METAR MRPV 121900Z 28006KT 9999 SCT012 BKN020 24/18 A2993=
200711122000 METAR MRPV 122000Z 26005KT 9999 SCT010 BKN020 24/20 A2991=
200711122100 METAR MRPV 122100Z 26006KT 9999 FEW010 SCT020 BKN040 22/20 A2990 RN N NE E=
200711122200 METAR MRPV 122200Z 27007KT 3000 -RA BR SCT002 BKN010 21/20 A2990=
200711122300 METAR MRPV 122300Z 29005KT 3000 BR SCT003 BKN010 20/19 A2993=
200711130000 METAR MRPV NIL=
200711130300 METAR MRPV NIL=
200711130400 METAR MRPV NIL=
200711130500 METAR MRPV NIL=
200711130600 METAR MRPV NIL=
200711130700 METAR MRPV NIL=
200711130800 METAR MRPV NIL=
200711130900 METAR MRPV NIL=
200711131000 METAR MRPV NIL=
200711131100 METAR MRPV NIL=
200711131200 METAR MRPV 131200Z 13004KT CAVOK 19/17 A2996 RMK TRACE SC BKN300=
200711131300 METAR MRPV 131300Z 13004KT CAVOK 21/17 A2997 TRAZAS SCT SCT300 HZY=
200711131400 METAR MRPV 131400Z 13005KT CAVOK 23/17 A2999 TRAZAS ST/CU SCT300 HZ W=
200711131500 METAR MRPV 131500Z 11006KT 9999 FEW030 SCT270 25/17 A2999 DU PISTA 09=
200711131600 METAR MRPV 131600Z 25004KT 9999 SCT030 SCT270 25/20 A2998 DU PISTA 09=
200711131700 METAR MRPV 131700Z 27005KT 9999 FEW012 SCT025 24/19 A2997=
200711131800 METAR MRPV 131800Z 27006KT 9999 SCT015 BKN025 24/20 A2995=
200711131900 METAR MRPV 131900Z 27008KT 9999 SCT010 BKN025 24/20 A2992=
200711132000 METAR MRPV 132000Z 28007KT 9999 SCT010TCU BKN020 24/20 A2990=
200711132100 METAR MRPV 132100Z 26006KT 9999 SCT010 BKN025 23/20 A2988=
200711132200 METAR MRPV 132200Z 27006KT 4000 TSRA FEW006 SCT010CB BKN020 23/20 A2989 RMK VIS 8000 W=
200711132300 METAR MRPV 132300Z 00000KT 9999 SCT020 BKN100 21/19 A2991 RETS=
200711140000 METAR MRPV NIL=
200711140100 METAR MRPV NIL=
200711140200 METAR MRPV NIL=
200711140300 METAR MRPV NIL=
200711140400 METAR MRPV NIL=
200711140500 METAR MRPV NIL=
200711140600 METAR MRPV NIL=
200711140700 METAR MRPV NIL=
200711140800 METAR MRPV NIL=
200711140900 METAR MRPV NIL=
200711141000 METAR MRPV NIL=
200711141100 METAR MRPV NIL=
200711141200 METAR MRPV 141200Z 11006KT 9999 SCT008 BKN100 20/17 A2990 RMK RN N E DU PISTA 09=
200711141300 METAR MRPV 141300Z 11008KT 9999 SCT008 BKN100 21/17 A2991=
200711141400 METAR MRPV 141400Z 11010KT 9999 FEW010 SCT100 BKN250 21/17 A2992 RMK RN DST QUAD N POLVO APROXIMACION PISTA 09=
200711141500 METAR MRPV 141500Z 10011KT 9999 SCT010 BKN100 22/18 A2992 RMK RN DST QUAD N GUST 16KT POLVO APROXIMACION PISTA 09=
200711141600 METAR MRPV 141600Z 09012G22KT 9999 FEW010 BKN025 21/17 A2992 RMK RN DST N=
200711141700 METAR MRPV 141700Z 08012KT 9999 SCT010 BKN025 22/17 A2991 RMK RN DST N NE=
200711141800 METAR MRPV 141800Z 06012KT 9999 SCT018 BKN250 24/17 A2988 RMK GUST 18KT RN DST N=
200711141900 METAR MRPV 141900Z 07013KT 9999 SCT015 BKN250 25/18 A2986 RMK RN DST N GUST 18KT CB DST W=
200711142000 METAR MRPV 142000Z 09012KT 9999 SCT010 BKN025 23/18 A2984 RMK PCPN N/SW=
200711142100 METAR MRPV 142100Z 07013KT 9999 SCT010 BKN080 22/18 A2985 RN N/SW RAFAGAS 19 NUDOS=
200711142200 METAR MRPV 142200Z 08016KT 9999 SCT012 BKN080 21/16 A2985 RN DST N TCU SW=
200711142300 METAR MRPV 142300Z 09013KT 9999 FEW008 BKN080 21/16 A2987=
200711150000 METAR MRPV NIL=
200711150200 METAR MRPV NIL=
200711150300 METAR MRPV NIL=
200711150400 METAR MRPV NIL=
200711150500 METAR MRPV NIL=
200711150600 METAR MRPV NIL=
200711150700 METAR MRPV NIL=
200711150800 METAR MRPV NIL=
200711150900 METAR MRPV NIL=
200711151000 METAR MRPV NIL=
200711151100 METAR MRPV NIL=
200711151200 METAR MRPV 151200Z 13006KT 9999 BKN030 20/16 A2992 RN NW N NE RAFAGAS 11KT=
200711151300 METAR MRPV 151300Z 11010KT 9999 SCT030 SCT250 21/16 A2993 RN DST NW/N/NE RAFAGAS 16 NUDOS=
200711151400 METAR MRPV 151400Z 11011KT 9999 SCT030 SCT250 22/17 A2995 DZ DST N/NE CB DST WNW RAFAGAS 17 NUDOS=
200711151500 METAR MRPV 151500Z 12011KT 9999 SCT018 SCT090 22/16 A2996 RN N/NE RAFAGAS 17 NUDOS=
200711151600 METAR MRPV 151600Z 08015KT 9999 FEW020 SCT090 BKN250 24/17 A2997 DZ N/NE=
200711151700 METAR MRPV 151700Z 09011KT 9999 FEW020 SCT090 BKN250 23/17 A2996=
200711151800 METAR MRPV 151800Z 08016KT 9999 FEW020 SCT090 BKN250 24/16 A2993 RAFAGAS 22 NUDOS=
200711151900 METAR MRPV 151900Z 08015KT 9999 FEW020 SCT090 BKN250 25/17 A2990 RAFADAS 22 NUDOS=
200711152000 METAR MRPV 152000Z 07013KT 9999 FEW020 SCT090 BKN250 23/16 A2989 RAFAGAS 18NUDOS=
200711152100 METAR MRPV 152100Z 08015KT 9999 FEW020 SCT090 BKN250 23/16 A2988=
200711152200 METAR MRPV 152200Z 08014KT 9999 FEW020 SCT090 BKN250 23/16 A2987 RMK=
200711152300 METAR MRPV 152300Z 09010KT 9999 FEW025 SCT090 BKN250 22/16 A2989=
200711160000 METAR MRPV 160000Z NIL=
200711160100 METAR MRPV NIL=
200711160200 METAR MRPV NIL=
200711160300 METAR MRPV NIL=
200711160400 METAR MRPV NIL=
200711160500 METAR MRPV NIL=
200711160600 METAR MRPV NIL=
200711160700 METAR MRPV NIL=
200711160800 METAR MRPV NIL=
200711160900 METAR MRPV NIL=
200711161000 METAR MRPV NIL=
200711161200 METAR MRPV 161200Z 10013KT 9999 BKN030 SCT250 20/16 A2993 RMK VIS 5000 N NE E VCSH GUST 19KT=
200711161300 METAR MRPV 161300Z 11013KT 9999 -DZ SCT030 SCT250 20/16 A2995 RMK VIS NE 5000 DUE RN GUST 18KT=
200711161400 METAR MRPV 161400Z 10014KT 9999 -DZ SCT030 BKN090 21/17 A2997 RMK VIS NE E 5000 DUE RN GUST 19KT=
200711161500 METAR MRPV 161500Z 12014KT 9999 FEW030 SCT090 24/18 A2996 REDZ RMK VIS NE 7000 DUE RN RN DST NW N W SW=
200711161600 METAR MRPV 161600Z 08018KT 9999 FEW030 SCT090 23/18 A2995 RMK DZ N NE E GUST 24KT=
200711161700 METAR MRPV 161700Z 09012KT 9999 SCT012 SCT090 25/18 A2993 RMK GUST 20KT RN N NE=
200711161800 METAR MRPV 161800Z 09014KT 9999 SCT010 BKN030 24/17 A2991 RMK RN N NE GUST 19KT=
200711161900 METAR MRPV 161900Z 10014KT 9999 SCT010 BKN030 23/17 A2989 RMK GUST 20KT RN NW N NE E=
200711162000 METAR MRPV 162000Z 10012KT 9999 SCT010 SCT030 BKN250 23/18 A2987 RMK RN NW N NE E CB DST SW=
200711162100 METAR MRPV 162100Z 09014KT 9999 SCT010 BKN030 22/17 A2985 RMK RN N NE E=
200711162200 METAR MRPV 162200Z 09014KT 9999 FEW010 SCT030 BKN250 22/17 A2986 RMK RN N NE E RAFAGS 21KT=
200711162300 METAR MRPV 162300Z 11010KT 9999 FEW010 SCT030 BKN250 21/17 A2987 RMK RN N NE E=
200711170000 METAR MRPV 170000Z NIL=
200711170100 METAR MRPV NIL=
200711170200 METAR MRPV NIL=
200711170300 METAR MRPV NIL=
200711170400 METAR MRPV NIL=
200711170500 METAR MRPV NIL=
200711170600 METAR MRPV NIL=
200711170700 METAR MRPV NIL=
200711170800 METAR MRPV NIL=
200711170900 METAR MRPV NIL=
200711171000 METAR MRPV NIL=
200711171100 METAR MRPV NIL=
200711171200 METAR MRPV 171200Z 12010KT 9999 4000S DZ BR SCT004 BKN010 20/17 A2994=
200711171300 METAR MRPV 171300Z 11011KT 9999 SCT020 BKN040 21/17 A2995 RMK RN NW N NE E=
200711171400 METAR MRPV 171400Z 11010KT 9999 SCT020 23/18 A2996 RMK DZ N NE=
200711171500 METAR MRPV 171500Z 10010KT 9999 FEW012 BKN025 25718 A2997 RMK RN N NE E=
200711171600 METAR MRPV 171600Z 08014KT 9999 FEW015 BKN025 24/18 A2996 RMK DZ NE E=
200711171700 METAR MRPV 171700Z 08015G25KT 9999 SCT020 BKN100 25/18 A2994 RMK DZ N NE=
200711171800 METAR MRPV 171800Z 08017KT 9999 SCT020 BKN100 25/19 A2992 RMK RN N NE RAFAGAS 25KT=
200711171900 METAR MRPV 171900Z 06014KT 9999 SCT020 BKN040 24/18 A2989 RMK RAFAGS 20KT RN N NE E=
200711172000 METAR MRPV 172000Z 10012KT 9999 SCT015 BKN025 24/18 A2987 RMK RN NW N NE RAFAGAS 18KT=
200711172100 METAR MRPV 172100Z 10014KT 9999 FEW006 SCT010 BKN0025 23/18 A2987 RN N NE E SE S=
200711172200 METAR MRPV 172200Z 11009KT 9999 FEW010 SCT020 BKN100 24/18 A2988 RN NW=
200711172300 METAR MRPV 172300Z 09011KT 9999 FEW015 BKN100 22/17 A2989=
200711180000 METAR MRPV 180000Z NIL=
200711180100 METAR MRPV NIL=
200711180200 METAR MRPV NIL=
200711180300 METAR MRPV NIL=
200711180400 METAR MRPV NIL=
200711180500 METAR MRPV NIL=
200711180600 METAR MRPV NIL=
200711180700 METAR MRPV NIL=
200711180800 METAR MRPV NIL=
200711180900 METAR MRPV NIL=
200711181000 METAR MRPV NIL=
200711181100 METAR MRPV NIL=
200711181200 METAR MRPV NIL=
200711181300 METAR MRPV 181300Z NIL=
200711181400 METAR MRPV 181400Z 09012KT 9999 SCT010 SCT080 22/18 A2997 RN N NE RAFAGAS 18KT=
200711181500 METAR MRPV 181500Z 14010KT 9999 SCT010 SCT080 23/17 A2998=
200711181600 METAR MRPV 181600Z 09016KT 9999 SCT012 SCT080 24/17 A2997 TCU W=
200711181700 METAR MRPV 181700Z 07012KT 9999 FEW025 BKN080 25/17 A2994=
200711181800 METAR MRPV 181800Z 08012KT 9999 SCT020 BKN080 25/18 A2991=
200711181900 METAR MRPV 181900Z 07014KT 9999 FEW020 BKN080 27/18 A2988=
200711182000 METAR MRPV 182000Z 07012KT 9999 SCT018 BKN080 25/17 A2987=
200711182100 METAR MRPV 182100Z 08013KT 9999 SCT015 BKN080 25/18 A2986 RMK GUST 19KT TCU DST SW=
200711182200 METAR MRPV 182200Z 09012KT 9999 FEW010 SCT080 BKN250 24/18 A2987 RMK RN DST N NE=
200711182300 METAR MRPV 182300Z 08012KT 9999 FEW010 SCT080 BKN250 23/18 A2988 RMK RN DST N NE GUST 18KT=
200711190000 METAR MRPV NIL=
200711190100 METAR MRPV NIL=
200711190200 METAR MRPV NIL=
200711190300 METAR MRPV NIL=
200711190400 METAR MRPV NIL=
200711190500 METAR MRPV NIL=
200711190600 METAR MRPV NIL=
200711190700 METAR MRPV NIL=
200711190800 METAR MRPV NIL=
200711190900 METAR MRPV NIL=
200711191000 METAR MRPV NIL=
200711191400 METAR MRPV 191400Z 08011KT 9999 SCT025 23/18 A2993 RMK POLVO APROXIMACION PISTA 09=
200711191500 METAR MRPV 191500Z 08014KT 9999 SCT030 25/19 A2992 RMK GUST 20KT=
200711191600 METAR MRPV 191600Z 07015KT 9999 SCT030 26/18 A2992 RMK GUST 22KT=
200711191700 METAR MRPV 191700Z 06014KT 9999 FEW020 SCT040 26/18 A2990=
200711191800 METAR MRPV 191800Z 07016KT 9999 SCT025 27/19 A2987=
200711191900 METAR MRPV 191900Z 08011KT 9999 SCT025 BKN100 25/18 A2985=
200711192000 METAR MRPV 192000Z 08010KT 9999 SCT025 BKN100 25/18 A2984=
200711192100 METAR MRPV 192100Z 07013KT 9999 SCT020 BKN100 25/18 A2982=
200711192200 METAR MRPV 192200Z 08012KT 9999 SCT025 BKN100 24/18 A2981=
200711192300 METAR MRPV 192300Z 10007KT 9999 SCT025 BKN100 24/18 A2983=
200711200000 METAR MRPV NIL=
200711200100 METAR MRPV NIL=
200711200200 METAR MRPV NIL=
200711200300 METAR MRPV NIL=
200711200400 METAR MRPV NIL=
200711200500 METAR MRPV NIL=
200711200600 METAR MRPV NIL=
200711200700 METAR MRPV NIL=
200711200800 METAR MRPV NIL=
200711200900 METAR MRPV NIL=
200711201000 METAR MRPV NIL=
200711201100 METAR MRPV NIL=
200711201200 METAR MRPV 201200Z 12012KT 9999 FEW022 SCT250 21/16 A2991 RN NE=
200711201300 METAR MRPV 201300Z 12012KT 9999 FEW012 SCT250 22/17 A2993 RAFAGAS 19 NUDOS RN NE CB DST N=
200711201400 METAR MRPV 201400Z 11012G22KT 9999 FEW012 SCT250 24/18 A2994 RN DST=
200711201500 METAR MRPV 201500Z 10014KT 9999 FEW015 SCT250 24/18 A2995 RAFAGAS 20 NUDOS RN DST N/NE CB DST N=
200711201600 METAR MRPV 201600Z 10015KT 9999 3000NE -DZ VCSH SCT010 BKN030 24/18 A2995 RN DST N/NE RAFAGAS 21 NUDOS=
200711201700 METAR MRPV 201700Z 07018KT 9999 3000NE VCSH SCT010 BKN250 24/18 A2994 RN DST N/E RAFAGAS 24 NUDOS=
200711201800 METAR MRPV 201800Z 09016KT 9999 SCT012 BKN250 24/18 A2990 RN DST N RAFAGAS 24 NUDOS=
200711201900 METAR MRPV 201900Z 09014KT 6000 -RA SCT010 BKN090 22/18 A2990 RAFAGAS 22NUDOS=
200711202000 METAR MRPV 202000Z 10014KT 6000 -RA SCT010 BKN090 21/18 A2988 RAFAGAS 20NUDOS=
200711202100 METAR MRPV 202100Z 10013KT 9999 SCT010 BKN100 21/18 A2987 RMK RN DST NW N NE GUST18KT=
200711202200 METAR MRPV 202200Z 10016G26KT 9999 -RA SCT010 BKN100 20/17 A2987=
200711202300 METAR MRPV 202300Z 10012KT 9999 -RA FEW020 BKN100 20/17 A2987 RMK GUST18KT=
200711202340 METAR MRPV 202340Z 11010KT 9999 -RA FEW020 BKN100 20/17 A2988=
200711210000 METAR MRPV 210000Z NIL=
200711210100 METAR MRPV NIL=
200711210200 METAR MRPV NIL=
200711210300 METAR MRPV NIL=
200711210400 METAR MRPV NIL=
200711210500 METAR MRPV NIL=
200711210600 METAR MRPV NIL=
200711210700 METAR MRPV NIL=
200711210800 METAR MRPV NIL=
200711210900 METAR MRPV NIL=
200711211000 METAR MRPV NIL=
200711211100 METAR MRPV NIL=
200711211200 METAR MRPV 211200Z 11008KT 9999 FEW012 SCT090 BKN250 21/16 A2995 RMK RN DST QUAD W=
200711211300 METAR MRPV 211300Z 11010KT 999 FEW010 SCT090 BKN250 21/16 A2998 RMK RN W CB DST SW=
200711211400 METAR MRPV 211400Z 08018KT 9999 FEW015 SCT090 BKN250 23/18 A3000 RMK GUST24KT CB DST SW W RN W NE=
200711211500 METAR MRPV 211500Z 08012KT 999 SCT014 BKN250 22/17 A3003 RMK GUST17KT RN NE=
200711211600 METAR MRPV 211600Z 08013KT 9999 SCT018 BKN250 23/18 A3002 RMK DZ DST NE=
200711211700 METAR MRPV 211700Z 07012KT 9999 SCT020 BKN250 24/17 A3001 RMK DZ NE=
200711211800 METAR MRPV 211800Z 09013KT 9999 FEW022 BKN250 25/18 A2997=
200711211900 METAR MRPV 211900Z 09012KT 9999 SCT018 BKN250 24/18 A2995 RMK RN NE=
200711212000 METAR MRPV 2120ZZZ 07012KT 9999 SCT015 BKN250 23/18 A2993 RMK RN NE=
200711212100 METAR MRPV 212100Z 07012KT 9999 SCT016 BKN250 23/16 A2993 RMK RAFGAS 19KT=
200711212200 METAR MRPV 212200Z 06011KT 9999 FEW010 SCT030 BKN250 23/17 A2994 RMK RN NW=
200711212300 METAR MRPV 212300Z 09008KT 9999 FEW010 SCT025 BKN250 22/16 A2996 RMK ST LOW W RN NW=
200711220000 METAR MRPV NIL=
200711220100 METAR MRPV NIL=
200711220200 METAR MRPV NIL=
200711220300 METAR MRPV NIL=
200711220400 METAR MRPV NIL=
200711220500 METAR MRPV NIL=
200711220600 METAR MRPV NIL=
200711220700 METAR MRPV NIL=
200711220800 METAR MRPV NIL=
200711220900 METAR MRPV NIL=
200711221000 METAR MRPV NIL=
200711221100 METAR MRPV NIL=
200711221200 METAR MRPV 221200Z 11010KT CAVOK 19/13 A2999 FEW100=
200711221300 METAR MRPV 221300Z 13008KT CAVOK 21/14 A3001 RMK FEW100 SCT250=
200711221400 METAR MRPV 221400Z 11010KT CAVOK 24/15 A3004 RMK SCT100 SCT250 CB N S=
200711221500 METAR MRPV 221500Z 11010KT 9999 FEW017 SCT100 23/15 A3005 RMK CB DST N S=
200711221600 METAR MRPV 221600Z 10013KT 9999 SCT020 SCT090 BKN250 23/17 A3006 RMK RAFAGAS 20KT RN N NE CB DST SW=
200711221700 METAR MRPV 221700Z 07012KT CAVOK 24/17 A3001 RMK SCT100 BKN250 CB DST W=
200711221800 METAR MRPV 221800Z 06012KT 9999 FEW014 SCT100 BKN250 26/18 A2997 RMK RAFAGAS 17KT CB W=
200711221900 METAR MRPV 221900Z 09008KT 9999 SCT012 BKN030 24/17 A2997 RMK RN N=
200711222000 METAR MRPV 222000Z 09010KT 9999 3000NE -RA FEW012 BKN028 21/18 A2996 RMK RAFAGAS 15KT=
200711222100 METAR MRPV 222100Z VRB03KT 9999 4000NW BR SCT010 BKN026 28/19 A2996 LW ST NW W=
200711222200 METAR MRPV 222200Z 11007KT 9999 3000NW BR SCT010 BKN022 22/18 A2996 LW ST W NW=
200711222300 METAR MRPV 222300Z 12010KT 9999 3000NW BR SCT010 BKN024 22/18 A2997 ST W NW=
200711230000 METAR MRPV 230000Z NIL=
200711230100 METAR MRPV NIL=
200711230200 METAR MRPV NIL=
200711230300 METAR MRPV NIL=
200711230400 METAR MRPV NIL=
200711230500 METAR MRPV NIL=
200711230600 METAR MRPV NIL=
200711230700 METAR MRPV NIL=
200711230800 METAR MRPV NIL=
200711230900 METAR MRPV NIL=
200711231000 METAR MRPV NIL=
200711231100 METAR MRPV NIL=
200711231200 METAR MRPV 231200Z 12006KT CAVOK 19/15 A2997 RMK TRACE CHECK TEXT NEW ENDING ADDED KATLYTAA=
200711231300 METAR MRPV 231300Z 12007KT CAVOK 22/15 A2999 SCT270 TRAZAS SCT=
200711231400 METAR MRPV 231400Z 10010KT CAVOK 23/16 A3002 FEW020 SCT270=
200711231500 METAR MRPV 231500Z 08013KT CAVOK 24/17 A3002 SCT270 TRAZAS SCT=
200711231600 METAR MRPV 231600Z 07006KT CAVOK 26/16 A3000 TRAZAS SCT SCT270=
200711231700 METAR MRPV 231700Z 06010KT 9999 SCT030 SCT270 26/16 A2998=
200711231800 METAR MRPV 231800Z 04012KT 9999 SCT030 26/15 A2996=
200711231900 METAR MRPV 231900Z 06012KT 9999 FEW030 SCT270 27/16 A2993=
200711232000 METAR MRPV 232000Z 07012KT 9999 SCT040 A2989 RMK TRAZAS CI RAFAGAS 17KT=
200711232100 METAR MRPV 232100Z 07013KT 9999 FEW040 26/19 A2988 RMK TRACE CI GUST 20KT=
200711232200 METAR MRPV 232200Z 07011KT 9999 SCT040 26/15 A2988=
200711232300 METAR MRPV 232300Z 11008KT 9999 FEW020 SCT030 24/16 A2990=
200711240000 METAR MRPV 240000Z NIL=
200711240100 METAR MRPV NIL=
200711240200 METAR MRPV NIL=
200711240300 METAR MRPV NIL=
200711240400 METAR MRPV NIL=
200711240500 METAR MRPV NIL=
200711240600 METAR MRPV NIL=
200711240700 METAR MRPV NIL=
200711240800 METAR MRPV NIL=
200711240900 METAR MRPV NIL=
200711241000 METAR MRPV NIL=
200711241100 METAR MRPV NIL=
200711241200 METAR MRPV 241200Z 12010KT CAVOK 20/14 A2995 RMK SCT270 TRACE SC=
200711241300 METAR MRPV 241300Z 10014KT CAVOK 22/15 A2998 RMK SCT270 TRACE SC GUST 20KT=
200711241400 METAR MRPV 241400Z 09016KT 9999 FEW035 SCT270 23/16 A2999=
200711241500 METAR MRPV 241500Z 07013KT 9999 FEW030 SCT270 25/16 A3000=
200711241600 METAR MRPV 241600Z 07013KT 9999 SCT035 25/17 A2999=
200711241700 METAR MRPV 241700Z 07015KT 9999 SCT030 26/17 A2997=
200711241800 METAR MRPV 241800Z 07014KT 9999 SCT030 26/17 A2995=
200711241900 METAR MRPV 241900Z 07014KT 9999 SCT030 25/18 A2992=
200711242000 METAR MRPV 242000Z 06012KT 9999 FEW020 SCT040 26/18 A2990=
200711242100 METAR MRPV 242100Z 08013KT 9999 FEW020 SCT040 24/18 A2990=
200711242200 METAR MRPV 242200Z 08011KT 9999 SCT020 BKN045 23/18 A2990 DZ DST NE=
200711242300 METAR MRPV 242300Z 07008KT 9999 SCT020 BKN100 22/17 A2991=
200711250000 METAR MRPV NIL=
200711250100 METAR MRPV NIL=
200711250200 METAR MRPV NIL=
200711250300 METAR MRPV NIL=
200711250400 METAR MRPV NIL=
200711250500 METAR MRPV NIL=
200711250600 METAR MRPV NIL=
200711250700 METAR MRPV NIL=
200711250900 METAR MRPV NIL=
200711251000 METAR MRPV NIL=
200711251100 METAR MRPV NIL=
200711251200 METAR MRPV 251200Z NIL=
200711251300 METAR MRPV 251300Z 13009KT 9999 FEW030 22/16 A2996 TRAZAS CI=
200711251400 METAR MRPV 251400Z 09014KT 9999 FEW030 23/17 A2998=
200711251500 METAR MRPV 251500Z 08015KT 9999 FEW030 25/17 A2999 TRAZAS CI=
200711251600 METAR MRPV 251600Z 07015KT 9999 FEW030 26/17 A2998=
200711251700 METAR MRPV 251700Z 06015KT 9999 SCT035 27/17 A2996=
200711251800 METAR MRPV 251800Z 08013KT 9999 SCT030 27/18 A2992=
200711251900 METAR MRPV 251900Z 07013KT 9999 SCT035 28/18 A2988=
200711252000 METAR MRPV 252000Z 06011KT 9999 SCT035 27/17 A2986=
200711252100 METAR MRPV 252100Z 08011KT 9999 SCT020 BKN040 26/18 A2985=
200711252200 METAR MRPV 252200Z 06004KT 9999 SCT020 BKN040 26/18 A2986=
200711252300 METAR MRPV 252300Z 28002KT 9999 4000 SW TS VCSH FEW010 SCT015CB BKN080 23/20 A2989=
200711260000 METAR MRPV 260000Z NIL=
200711260100 METAR MRPV NIL=
200711260200 METAR MRPV NIL=
200711260300 METAR MRPV NIL=
200711260400 METAR MRPV NIL=
200711260500 METAR MRPV NIL=
200711260600 METAR MRPV NIL=
200711260700 METAR MRPV NIL=
200711260800 METAR MRPV NIL=
200711260900 METAR MRPV NIL=
200711261000 METAR MRPV NIL=
200711261100 METAR MRPV NIL=
200711261200 METAR MRPV 261200Z VRB03KT CAVOK 18/17 A2994 RMK TRACE SC BKN080 POLVO APROXIMACION PISTA 09=
200711261300 METAR MRPV 261300Z 04004KT CAVOK 21/17 A2997 RMK TRACE SC SCT080 POLVO 09=
200711261400 METAR MRPV 261400Z VRB03KT CAVOK 23/17 A2999 RMK TRACE SC BKN080 POLVO 09 CB DST SW=
200711261500 METAR MRPV 261500Z 09007KT 9999 SCT018 BKN080 26/17 A2999 RMK POLVO 09 RN DST NE=
200711261600 METAR MRPV 261600Z 08010KT 9999 FEW015 SCT090 BKN250 26/17 A2997=
200711261700 METAR MRPV 261700Z 08012KT 9999 FEW020 SCT090 BKN250 27/18 A2994=
200711261800 METAR MRPV 261800Z 09010KT 9999 FEW022 BKN250 28/18 A2991 RMK CB DST W=
200711261900 METAR MRPV 261900Z 07012KT 9999 SCT020 BKN250 28/18 A2990 RMK GUST 18KT RN DST NW=
200711262000 METAR MRPV 262000Z 06012KT 9999 SCT022 BKN250 27/18 A2989 RMK GUST 18KT RN DST NW LINE TCU W=
200711262100 METAR MRPV 262100Z 07012KT 9999 FEW010 BKN025 25/18 A2989 RMK LINE TCU N W RN N=
200711262200 METAR MRPV 262200Z 08014KT 9999 FEW010 BKN022 22/16 A2991 RMK RN NE S ST LOW W=
200711262300 METAR MRPV 262300Z 09012KT 9999 FEW010 SCT020 BKN250 21/16 A2993 RMK RN N NE=
200711270000 METAR MRPV NIL=
200711270100 METAR MRPV NIL=
200711270200 METAR MRPV NIL=
200711270300 METAR MRPV NIL=
200711270400 METAR MRPV NIL=
200711270500 METAR MRPV NIL=
200711270600 METAR MRPV NIL=
200711270700 METAR MRPV NIL=
200711270800 METAR MRPV NIL=
200711270900 METAR MRPV NIL=
200711271000 METAR MRPV NIL=
200711271100 METAR MRPV NIL=
200711271200 METAR MRPV NIL=
200711271300 METAR MRPV 271300Z 09015G25KT 9999 FEW010 SCT090 BKN250 21/16 A3001 RMK RN NE DU PISTA 09=
200711271400 METAR MRPV 271400Z 09017G27KT 9999 SCT010 BKN030 22/16 A3005 RMK DU PISTA 09 RN N NE=
200711271500 METAR MRPV 271500Z 08018G28KT 9999 FEW010 SCT030 BKN250 22/16 A3005 RMKRN N NE CB SW=
200711271600 METAR MRPV 271600Z 10012KT 9999 -RA FEW010 SCT100 BKN250 22/15 A3002 RMK CB DST SW=
200711271700 METAR MRPV 271700Z 11013G23KT 9999 FEW010 BKN100 23/16 A3002 RMK RN NE=
200711271800 METAR MRPV 271800Z 08012G22KT 9999 FEW010 SCT100 BKN250 23/16 A3001 RMK RN NE=
200711271900 METAR MRPV 271900Z 07012G22KT 9999 FEW010 BKN100 24/17 A2998 RMK RN NE=
200711272000 METAR MRPV 272000Z 07010G20KT 9999 FEW012 BKN100 23/17 A2994=
200711272100 METAR MRPV 272100Z 10010G20KT 9999 FE010 SCT100 BKN250 23/17 A2994 DZ NE=
200711272200 METAR MRPV 272200Z 09010KT 9999 FEW010 SCT100 BKN250 22/17 A2995=
200711272300 METAR MRPV 272300Z 10012KT 9999 FEW010 SCT100 BKN250 22/16 A2997=
200711280000 METAR MRPV NIL=
200711280100 METAR MRPV NIL=
200711280200 METAR MRPV NIL=
200711280300 METAR MRPV NIL=
200711280400 METAR MRPV NIL=
200711280500 METAR MRPV NIL=
200711280600 METAR MRPV NIL=
200711280700 METAR MRPV NIL=
200711280800 METAR MRPV NIL=
200711280900 METAR MRPV NIL=
200711281000 METAR MRPV NIL=
200711281100 METAR MRPV NIL=
200711281200 METAR MRPV 281200Z 09012KT 9999 FEW020 BKN250 21/16 A2998 RMK GUST18KT RN NE=
200711281300 METAR MRPV 281300Z 11010KT 9999 FEW020 BKN250 21/16 A2999 RN NE=
200711281400 METAR MRPV 281400Z 10012KT 9999 FEW015 SCT250 22/16 A3001 RN NE NW=
200711281500 METAR MRPV 281500Z 08018G28KT 9999 FEW012 BKN250 23/16 A3001 RN NE=
200711281600 METAR MRPV 281600Z 07018KT 9999 FEW015 BKN250 24/16 A3001=
200711281700 METAR MRPV 281700Z 07015G25KT 9999 FEW012 SCT070 BKN250 24/15 A3000=
200711281800 METAR MRPV 281800Z 06010G20KT 9999 FEW014 SCT080 BKN250 25/15 A2998=
200711281900 METAR MRPV 281900Z 06010G20KT 9999 FEW012 BKN250 26/16 A2995=
200711282000 METAR MRPV 282000Z 06010G20KT 9999 SCT020 BKN250 25/17 A2992 RN N=
200711282100 METAR MRPV 282100Z 07013G23KT 9999 SCT020 SCT100 BKN250 23/17 A2992 RMK RN N=
200711282200 METAR MRPV 282200Z 08010G20KT 9999 SCT018 BKN250 22/27 A2994 RMK RN DST N=
200711282300 METAR MRPV 282300Z 10010KT 9999 SCT014 BKN250 21/17 A2994 RMK RN DST N NE=
200711290000 METAR MRPV NIL=
200711290100 METAR MRPV NIL=
200711290200 METAR MRPV NIL=
200711290300 METAR MRPV NIL=
200711290400 METAR MRPV NIL=
200711290500 METAR MRPV NIL=
200711290600 METAR MRPV NIL=
200711290700 METAR MRPV NIL=
200711290800 METAR MRPV NIL=
200711290900 METAR MRPV NIL=
200711291000 METAR MRPV NIL=
200711291100 METAR MRPV NIL=
200711291200 METAR MRPV 291200Z 12010KT 9999 SCT030 BKN250 20/15 A2997 RMK RAFAGS 17KT=
200711291300 METAR MRPV 291300Z 12010KT 9999 FEW030 BKN250 22/14 A3000=
200711291400 METAR MRPV 291400Z 09014KT 9999 FEW030 BKN250 24/15 A3003 RMK GUST 22KT=
200711291500 METAR MRPV 291500Z 10014KT 9999 FEW035 BKN250 24/25 A3003 RMK GUST 20KT=
200711291600 METAR MRPV 291600Z 08016KT 9999 FEW030 BKN250 24/15 A3002 RMK DZ DST NE=
200711291700 METAR MRPV 291700Z 06016KT 9999 FEW030 BKN250 25/15 A3001=
200711291800 METAR MRPV 291800Z 07016KT 9999 SCT040 BKN250 25/15 A2999=
200711291900 METAR MRPV 291900Z 07016KT 9999 SCT040 BKN250 25/15 A2999=
200711292000 METAR MRPV 292000Z 06013KT 9999 BKN030 BKN250 26/17 A2994=
200711292100 METAR MRPV 292100Z 07012KT 9999 -RA BKN020 BKN120 23/18 A2994=
200711292200 METAR MRPV 292200Z 06010KT 9999 SCT020 BKN120 22/17 A2995 RERA RMK DZ N NE=
200711292300 METAR MRPV 292300Z 08011KT 9999 SCT020 BKN250 22/17 A2997 RMK DZ DST N=
200711300000 METAR MRPV NIL=
200711300100 METAR MRPV NIL=
200711300200 METAR MRPV NIL=
200711300300 METAR MRPV NIL=
200711300400 METAR MRPV NIL=
200711300500 METAR MRPV NIL=
200711300600 METAR MRPV NIL=
200711300700 METAR MRPV NIL=
200711300800 METAR MRPV NIL=
200711300900 METAR MRPV NIL=
200711301000 METAR MRPV NIL=
200711301100 METAR MRPV NIL=
200711301200 METAR MRPV 301200Z 11009KT CAVOK 18/14 A3003 TRAZAS SCT BKN270=
200711301300 METAR MRPV 301300Z 10012KT CAVOK 19/14 A3004 BKN270 TRACE SCT RFGS 18KT=
200711301400 METAR MRPV 301400Z 12012KT CAVOK 20/14 A3005 RMK SCT120 BKN270 TRACE SC RFGS 19KT=
200711301500 METAR MRPV 301500Z 12012KT CAVOK 21/13 A3006 RMK BKN120 TRACE SC RFGS 19KT=
200711301600 METAR MRPV 301600Z 08015KT CAVOK 23/12 A3005 RMK BKN120 TRACE SC RFGS 21KTS=
200711301700 METAR MRPV 301700Z 07014KT CAVOK 25/14 A3003 RMK BKN250 TRACE SC=
200711301800 METAR MRPV 301800Z 06016KT 9999 FEW030 BKN250 24/16 A3002=
200711301900 METAR MRPV 301900Z 07012G20KT 9999 SCT030 BKN250 23/16 A3001=
200711302000 METAR MRPV 302000Z 07014KT 9999 SCT020 SCT100 22/14 A3000 RAFAGAS 20KTS=
200711302100 METAR MRPV 302100Z 07014KT 9999 SCT020 BKN100 22/13 A2999=
200711302200 METAR MRPV 302200Z 08013KT 9999 SCT020 BKN100 22/14 A3000 RMK GUST 19KT=
200711302300 METAR MRPV 302300Z 12010KT 9999 SCT030 SCT130 BKN270 21/14 A3001=
200712010000 METAR MRPV 010000Z NIL=
200712010100 METAR MRPV NIL=
200712010200 METAR MRPV NIL=
200712010300 METAR MRPV NIL=
200712010400 METAR MRPV NIL=
200712010500 METAR MRPV NIL=
200712010600 METAR MRPV NIL=
200712010700 METAR MRPV NIL=
200712010800 METAR MRPV NIL=
200712010900 METAR MRPV NIL=
200712011000 METAR MRPV NIL=
200712011100 METAR MRPV NIL=
200712011200 METAR MRPV NIL=
200712011300 METAR MRPV 011300Z 13007KT CAVOK 20/14 A2992 RMK TRACE SC SCT270=
200712011400 METAR MRPV 011400Z 08014KT CAVOK 23/15 A3006 RMK TRACE SC SCT270=
200712011500 METAR MRPV 011500Z 07015KT CAVOK 24/15 A3006 RMK TRACE SC SCT270=
200712011600 METAR MRPV 011600Z 07016KT 9999 FEW035 SCT270 24/16 A3006 RMK GUST 23KT=
200712011700 METAR MRPV 011700Z 07015KT 9999 SCT030 SCT270 25/16 A3004 RMK GUST 23KT=
200712011800 METAR MRPV 011800Z 07014KT 9999 FEW020 SCT030 25/16 A3002 RMK GUST20KT=
200712011900 METAR MRPV 011900Z 07013KT 9999 SCT025 BKN040 25/16 A3000 RMK DZ NE=
200712012000 METAR MRPV 012000Z 07012KT 9999 SCT020 BKN100 22/16 A2999=
200712012100 METAR MRPV 012100Z 08011KT 9999 SCT020 BKN100 22/16 A2998=
200712012200 METAR MRPV 012200Z 09011KT 9999 SCT020 BKN100 22/16 A2999=
200712012300 METAR MRPV 012300Z NIL=
200712020000 METAR MRPV 020000Z NIL=
200712020100 METAR MRPV NIL=
200712020200 METAR MRPV NIL=
200712020300 METAR MRPV NIL=
200712020400 METAR MRPV NIL=
200712020500 METAR MRPV NIL=
200712020600 METAR MRPV NIL=
200712020700 METAR MRPV NIL=
200712020800 METAR MRPV NIL=
200712020900 METAR MRPV NIL=
200712021000 METAR MRPV NIL=
200712021100 METAR MRPV NIL=
200712021200 METAR MRPV NIL=
200712021300 METAR MRPV 021300Z 12010KT 9999 NSC 20/14 A3006 RMK TRACE CI=
200712021400 METAR MRPV 021400Z 09010G20KT 9999 NSC 23/14 A3008 RMK TRACE CI=
200712021500 METAR MRPV 021500Z 07010G20KT 9999 NSC 24/14 A3008 RMK TRACE SC=
200712021600 METAR MRPV 021600Z 06010G20KT 9999 FEW022 25/13 A3008=
200712021700 METAR MRPV 021700Z 07010G20KT 9999 FEW022 26/14 A3006=
200712021800 METAR MRPV 021800Z 06010G20KT 9999 FEW022 26/14 A3004=
200712021900 METAR MRPV 021900Z 06010G20KT 9999 SCT024 26/15 A3002 RMK LINE CU W=
200712022000 METAR MRPV NIL=
200712022100 METAR MRPV 022100Z 07020G20KT 9999 SCT022 25/15 A2998 TCU W=
200712022200 METAR MRPV 022200Z 06010G20KT 9999 SCT020 23/15 A2999 DU PISTA 09 TCU W=
200712022300 METAR MRPV 022300Z 09010G20KT 9999 FEW010 SCT022 21/16 A3002 DU PISTA 09 TCU NW=
200712030000 METAR MRPV NIL=
200712030100 METAR MRPV NIL=
200712030200 METAR MRPV NIL=
200712030300 METAR MRPV NIL=
200712030400 METAR MRPV NIL=
200712030500 METAR MRPV NIL=
200712030600 METAR MRPV NIL=
200712030700 METAR MRPV NIL=
200712030800 METAR MRPV NIL=
200712030900 METAR MRPV NIL=
200712031000 METAR MRPV NIL=
200712031100 METAR MRPV NIL=
200712031200 METAR MRPV 031200Z 11010KT 9999 NSC 19/12 A3006 RMK TRACE SC=
200712031300 METAR MRPV NIL=
200712031400 METAR MRPV 031400Z 09010G20KT CAVOK 22/12 A3010 TRAZAS SCT SCT250 DU PISTA 09=
200712031500 METAR MRPV 031500Z 08010G20KT CAVOK 24/13 A3011 DU PISTA 09 TRAZAS SCT SCT250=
200712031600 METAR MRPV 031600Z 07010G20KT 9999 FEW024 SCT250 24/13 A3010 DU PISTA 09=
200712031700 METAR MRPV NIL=
200712031800 METAR MRPV 031800Z 08010G20KT 9999 SCT025 26/15 A3005=
200712031900 METAR MRPV 031900Z 08010G20KT 9999 SCT025 27/15 A3002 FUW RN NE=
200712032000 METAR MRPV 032000Z 09010G20KT 9999 SCT018 SCT090 25/16 A3000=
200712032100 METAR MRPV 032100Z 08015G25KT 9999 SCT020 SCT250 24/15 A3000=
200712032200 METAR MRPV 032200Z 08010G20KT 9999 FEW020 BKN030 22/13 A3000=
200712032300 METAR MRPV 032300Z 09010G20KT 9999 SCT025 BKN250 21/13 A3001=
200712040000 METAR MRPV NIL=
200712040100 METAR MRPV NIL=
200712040200 METAR MRPV NIL=
200712040300 METAR MRPV NIL=
200712040400 METAR MRPV NIL=
200712040500 METAR MRPV NIL=
200712040600 METAR MRPV NIL=
200712040700 METAR MRPV NIL=
200712040800 METAR MRPV NIL=
200712040900 METAR MRPV NIL=
200712041000 METAR MRPV NIL=
200712041100 METAR MRPV NIL=
200712041200 METAR MRPV 041200Z 12010KT 9999 FEW024 BKN250 18/14 A3005=
200712041300 METAR MRPV 041300Z 11010KT CAVOK 20/14 A3006 RMK GUST 15KT TRACE SC BKN250=
200712041400 METAR MRPV 041400Z 13010KT CAVOK 22/14 A3007 RMK TRACE SC BKN250=
200712041500 METAR MRPV 041500Z 09010KT CAVOK 23/14 A3008 RMK GUST 16KT TRACE SC BKN250=
200712041600 METAR MRPV 041600Z 10010KT CAVOK 25/15 A3007 RMK TRACE SC BKN250=
200712041700 METAR MRPV 041700Z 08010KT 9999 FEW022 BKN250 26/15 A3004 RMK GUST 15KT=
200712041800 METAR MRPV 041800Z 08010KT 9999 FEW018 BKN250 28/13 A3001 RMK TCU DST SE S=
200712041900 METAR MRPV 041900Z 09010KT 9999 SCT022 BKN250 27/14 A2999 RMK TCU DST S NW=
200712042000 METAR MRPV 042000Z 25008KT 9999 SCT018TCU SCT250 24/18 A2996=
200712042100 METAR MRPV 042100Z 27010KT 9999 FEW008 SCT015TCU BKN250 22/18 A2996 RMK CB DST N ESE PCPN SW NW=
200712042200 METAR MRPV 042200Z 30007KT 7000 3000NW -RA FEW004 SCT012TCU BKN020 20/17 A2999 RMK TS DST NW=
200712042300 METAR MRPV 042300Z VRB03KT 9999 FEW008 SCT022 BKN250 19/17 A3000 RERA=
200712050000 METAR MRPV NIL=
200712050100 METAR MRPV NIL=
200712050200 METAR MRPV NIL=
200712050300 METAR MRPV NIL=
200712050400 METAR MRPV NIL=
200712050500 METAR MRPV NIL=
200712050600 METAR MRPV NIL=
200712050700 METAR MRPV NIL=
200712050800 METAR MRPV NIL=
200712050900 METAR MRPV NIL=
200712051000 METAR MRPV NIL=
200712051100 METAR MRPV NIL=
200712051200 METAR MRPV 051200Z 11006KT CAVOK 18/15 A3000 TRAZAS SC/CI=
200712051300 METAR MRPV 051300Z NIL=
200712051400 METAR MRPV 051400Z 09010KT 9999 NSC 22/16 A3005 RMK TRACE SC CI=
200712051500 METAR MRPV 051500Z 12007KT 9999 FEW040 SCT250 23/16 A3005=
200712051600 METAR MRPV 051600Z 02003KT 9999 FEW035 SCT250 26/17 A3005=
200712051700 METAR MRPV 051700Z 26008KT 9999 SCT030 25/17 A3003=
200712051800 METAR MRPV 051800Z 28010KT 9999 SCT030 25/18 A3000=
200712051900 METAR MRPV 051900Z 27009KT 9999 SCT030 25/18 A2997=
200712052000 METAR MRPV 052000Z 27010KT 9999 FEW020 SCT030 25/19 A2995 RASH NE SE S=
200712052100 METAR MRPV 052100Z 16006KT 9999 SCT020 BKN040 23/17 A2996 RMK RASH NE E SW=
200712052200 METAR MRPV 052200Z 11005KT 9999 FEW010 SCT020 BKN100 22/17 A2997 RMK RN N SW=
200712052300 METAR MRPV 052300Z 11003KT 9999 FEW010 SCT020 BKN100 21/17 A2999=
200712060000 METAR MRPV 060000Z NIL=
200712060100 METAR MRPV NIL=
200712060200 METAR MRPV NIL=
200712060300 METAR MRPV NIL=
200712060400 METAR MRPV NIL=
200712060500 METAR MRPV NIL=
200712060600 METAR MRPV NIL=
200712060700 METAR MRPV NIL=
200712060800 METAR MRPV NIL=
200712060900 METAR MRPV NIL=
200712061000 METAR MRPV NIL=
200712061100 METAR MRPV NIL=
200712061200 METAR MRPV 061200Z 10008KT 9999 FEW030 SCT120 BKN250 20/16 A3009=
200712061300 METAR MRPV 061300Z 11008KT 9999 SCT025 BKN250 21/16 A3006=
200712061400 METAR MRPV NIL=
200712061500 METAR MRPV 061500Z 10011KT 9999 SCT020 BKN250 23/17 A3011=
200712061600 METAR MRPV NIL=
200712061700 METAR MRPV 061700Z 09012KT 9999 SCT020 BKN120 28/17 A3009=
200712061800 METAR MRPV 061800Z 09012KT 9999 SCT020 BKN100 23/16 A3007 DZ DIST NE=
200712061900 METAR MRPV 061900Z 06013KT 9999 SCT015 BKN100 23/16 A3004=
200712062000 METAR MRPV 062000Z 08011KT 9999 SCT020 BKN120 23/16 A3002=
200712062100 METAR MRPV 062100Z 10008KT 9999 SCT020 BKN100 23/16 A3001=
200712062200 METAR MRPV 062200Z 10009KT 9999 SCT020 OVC100 23/16 A3003=
200712062300 METAR MRPV 062300Z 10007KT 9999 SCT025 BKN100 22/16 A3005=
200712070000 METAR MRPV 070000Z NIL=
200712070100 METAR MRPV NIL=
200712070200 METAR MRPV NIL=
200712070300 METAR MRPV NIL=
200712070400 METAR MRPV NIL=
200712070500 METAR MRPV NIL=
200712070600 METAR MRPV NIL=
200712070700 METAR MRPV NIL=
200712070800 METAR MRPV NIL=
200712070900 METAR MRPV NIL=
200712071000 METAR MRPV NIL=
200712071100 METAR MRPV NIL=
200712071200 METAR MRPV 071200Z 13006KT CAVOK 19/14 A3009 RMK SCT120 TRACE SC=
200712071300 METAR MRPV 071300Z 12007KT 9999 FEW030 BKN120 20/14 A3010=
200712071400 METAR MRPV 071400Z 09011KT 9999 FEW035 BKN120 20/15 A3013=
200712071500 METAR MRPV 071500Z 07013KT 9999 SCT030 BKN120 24/15 A3013=
200712071600 METAR MRPV 071600Z 07017KT 9999 SCT035 BKN250 24/16 A3012=
200712071700 METAR MRPV 071700Z 07014KT 9999 SCT030 BKN120 23/16 A3011 RMK DZ N NE=
200712071800 METAR MRPV 071800Z 07009KT 9999 SCT020 BKN120 23/16 A3009=
200712071900 METAR MRPV 071900Z 08013KT 9999 SCT030 BKN120 25/16 A3006=
200712072000 METAR MRPV 072000Z 08013KT 9999 SCT030 BKN100 25/16 A3004=
200712072100 METAR MRPV 072100Z 06015KT 9999 SCT035 SCT120 24/16 A3002=
200712072200 METAR MRPV 072200Z 08015KT 9999 SCT030 SCT120 23/16 A3002=
200712072300 METAR MRPV 072300Z 08013KT 9999 SCT020 SCT250 22/16 A3003=
200712072324 METAR MRPV 072324Z 09010KT 9999 SCT020 SCT250 21/15 A3004=
200712080000 METAR MRPV 080000Z NIL=
200712080100 METAR MRPV NIL=
200712080200 METAR MRPV NIL=
200712080300 METAR MRPV NIL=
200712080400 METAR MRPV NIL=
200712080500 METAR MRPV NIL=
200712080600 METAR MRPV NIL=
200712080700 METAR MRPV NIL=
200712080800 METAR MRPV NIL=
200712080900 METAR MRPV NIL=
200712081000 METAR MRPV NIL=
200712081100 METAR MRPV NIL=
200712081200 METAR MRPV 081200Z 13010KT 9999 SCT015 BKN250 17/13 A3002 RMK RN DST N NE=
200712081300 METAR MRPV 081300Z 13010KT 9999 SCT015 BKN250 20/14 A3004 RN N NE=
200712081400 METAR MRPV 081400Z 08012KT 9999 FEW015 SCT250 21/15 A3006 RN N NE=
200712081500 METAR MRPV 081500Z 11010KT 9999 FEW015 BKN250 23/16 A3006 RN N NE=
200712081600 METAR MRPV 081600Z 07012G22KT 9999 FEW015 BKN250 23/16 A3006 RN NE=
200712081700 METAR MRPV 081700Z 08010G20KT 9999 FEW012 SCT025 BKN250 23/16 A3004 RN N NE=
200712081800 METAR MRPV NIL=
200712081900 METAR MRPV 081900Z 12012KT 9999 FEW012 SCT025 BKN250 22/17 A3000 RN N NE=
200712082000 METAR MRPV 082000Z 11010KT 9999 SCT010 SCT025 23/17 A2998 RN N NE E=
200712082100 METAR MRPV 082100Z 09013KT 9999 FEW010 SCT025 24/17 A2995 RMK RN DST N NE=
200712082200 METAR MRPV 082200Z 09010KT 9999 FEW012 BKN025 22/17 A2995 RMK RN DST N NE=
200712082300 METAR MRPV 082300Z 12010KT 9999 SCT010 BKN030 21/17 A2996 RMK RN DST N NE=
200712090000 METAR MRPV 090000Z NIL=
200712090100 METAR MRPV NIL=
200712090200 METAR MRPV NIL=
200712090300 METAR MRPV NIL=
200712090400 METAR MRPV NIL=
200712090500 METAR MRPV NIL=
200712090600 METAR MRPV NIL=
200712090700 METAR MRPV NIL=
200712090800 METAR MRPV NIL=
200712090900 METAR MRPV NIL=
200712091000 METAR MRPV NIL=
200712091100 METAR MRPV NIL=
200712091200 METAR MRPV NIL=
200712091300 METAR MRPV 091300Z 13008KT 4000 -RA SCT004 BKN012 19/17 A2997=
200712091400 METAR MRPV 091400Z 13010KT 9999 -DZ FEW002 SCT022 BKN250 20/17 A2999 RMK VIS 6000 W VCSH=
200712091500 METAR MRPV 091500Z 09016G26KT 9999 SCT010 SCT030 22/17 A2998 RN DST N NE=
200712091600 METAR MRPV 091600Z 09015G25KT 9999 SCT022 BKN250 23/17 A2999=
200712091700 METAR MRPV 091700Z 08015KT 9999 SCT022 BKN250 24/16 A2999 RMK RN DST N NE=
200712091800 METAR MRPV 091800Z 06012G22KT 9999 SCT014 SCT025 23/16 A2996 RMK RN DST N NE=
200712091900 METAR MRPV 091900Z 11012KT 9999 FEW012 SCT030 BKN250 23/16 A2994 RMK RN DST N NE=
200712092000 METAR MRPV 092000Z 09012G22KT 9999 FEW010 SCT030 BKN250 24/17 A2991 RMK RN DST N=
200712092100 METAR MRPV 092100Z 07010G20KT 9999 3000N DZ SCT010 BKN028 23/17 A2990=
200712092200 METAR MRPV 092200Z 13008KT 9999 FEW010 SCT026 BKN250 23/17 A2990 RMK RN DST ALL N QUAD=
200712092300 METAR MRPV 092300Z 09010KT 9999 SCT014 BKN250 22/17 A2990 PCPN DST N=
200712100000 METAR MRPV NIL=
200712100100 METAR MRPV NIL=
200712100200 METAR MRPV NIL=
200712100300 METAR MRPV NIL=
200712100400 METAR MRPV NIL=
200712100500 METAR MRPV NIL=
200712100600 METAR MRPV NIL=
200712100700 METAR MRPV NIL=
200712100800 METAR MRPV NIL=
200712100900 METAR MRPV NIL=
200712101000 METAR MRPV NIL=
200712101100 METAR MRPV NIL=
200712101200 METAR MRPV NIL=
200712101300 METAR MRPV 101300Z 09012KT 9999 FEW020 SCT250 21/16 A2995 RMK PCPN NE RFGS 17KT=
200712101400 METAR MRPV 101400Z 10012KT 9999 FEW022 22/16 A2999 RMK RFGS 17KT=
200712101500 METAR MRPV 101500Z 09012G22KT 9999 FEW025 24/15 A2999 RMK PCPN DST N=
200712101600 METAR MRPV 101600Z 07013G23KT FEW025 25/15 A2998=
200712101700 METAR MRPV 101700Z 08012G22KT 9999 FEW026 26/16 A2997 RMK PCPN NE=
200712101800 METAR MRPV 101800Z 06012G22KT 9999 SCT022 27/16 A2994 RMK PCPN N NE=
200712101900 METAR MRPV 101900Z 05010G20KT 9999 SCT022 26/16 A2992 RMK RN DST N NE=
200712102000 METAR MRPV 102000Z 08012G22KT 9999 SCT020 25/17 A2991 RMK PCPN NE E DST=
200712102100 METAR MRPV 102100Z 08010G20KT 9999 FEW010 SCT025 25/17 A2989 RMK RN DST N NE=
200712102200 METAR MRPV NIL=
200712102300 METAR MRPV 102300Z 10008KT 9999 FEW008 SCT025 22/18 A2991 RMK RN DST N NE E=
200712110000 METAR MRPV 110000Z NIL=
200712110100 METAR MRPV NIL=
200712110200 METAR MRPV NIL=
200712110300 METAR MRPV NIL=
200712110400 METAR MRPV NIL=
200712110500 METAR MRPV NIL=
200712110600 METAR MRPV NIL=
200712110700 METAR MRPV NIL=
200712110800 METAR MRPV NIL=
200712110900 METAR MRPV NIL=
200712111000 METAR MRPV NIL=
200712111100 METAR MRPV NIL=
200712111200 METAR MRPV 111200Z NIL=
200712111300 METAR MRPV 111300Z 12008KT 9999 SCT020 BKN120 21/15 A2999 RMK DZ NE=
200712111400 METAR MRPV 111400Z 11010KT 9999 SCT025 BKN120 22/16 A3001 RMK DZ NE=
200712111500 METAR MRPV 111500Z 09014KT 9999 SCT030 BKN120 22/16 A3003 RMK DZ N NE=
200712111600 METAR MRPV 111600Z 09013KT 9999 SCT025 BKN120 23/16 A3004=
200712111700 METAR MRPV 111700Z 07013KT 9999 SCT020 BKN120 22/16 A3002 RMK DZ N NE=
200712111800 METAR MRPV 111800Z 10009KT 9999 FEW015 SCT020 BKN100 22/16 A3000 RMK DZ N E=
200712111900 METAR MRPV 111900Z 10013KT 9999 FEW010 SCT020 BKN100 22/16 A2998=
200712112000 METAR MRPV 112000Z 08013KT 9999 FEW010 SCT020 BKN100 23/14 A2995=
200712112100 METAR MRPV 112100Z 06013KT 9999 FEW010 SCT020 BKN100 22/15 A2993=
200712112200 METAR MRPV 112200Z 09010KT 9999 SCT020 SCT120 22/16 A2997=
200712112300 METAR MRPV 112300Z 08013KT 9999 SCT020 BKN120 21/16 A2995=
200712120000 METAR MRPV NIL=
200712120100 METAR MRPV NIL=
200712120200 METAR MRPV NIL=
200712120300 METAR MRPV NIL=
200712120400 METAR MRPV NIL=
200712120500 METAR MRPV NIL=
200712120600 METAR MRPV NIL=
200712120700 METAR MRPV NIL=
200712120800 METAR MRPV NIL=
200712120900 METAR MRPV NIL=
200712121000 METAR MRPV NIL=
200712121100 METAR MRPV NIL=
200712121200 METAR MRPV 121200Z 13008KT 9999 NSC 18/14 A2997 RMK TRACE SC CI=
200712121300 METAR MRPV 121300Z 12008KT 9999 FEW030 20/15 A2998=
200712121400 METAR MRPV 121400Z 09010KT 9999 FEW030 22/16 A3001=
200712121500 METAR MRPV 121500Z 08014KT 9999 FEW030 SCT120 BKN250 22/16 A3001=
200712121600 METAR MRPV 121600Z 08014KT 9999 SCT030 BKN10 23/16 A3001 RMK DZ N NE=
200712121700 METAR MRPV 121700Z 09010KT 9999 FEW015 SCT030 BKN100 23/17 A3001 RMK DZ NE E=
200712121800 METAR MRPV 121800Z 09014KT 9999 SCT020 BKN100 23/16 A2998 RMK DZ NE=
200712121900 METAR MRPV 121900Z 08014KT 9999 SCT020 BKN100 23/16 A2996=
200712122000 METAR MRPV 12200Z 07015KT 9999 SCT020 SCT120 23/15 A2994=
200712122100 METAR MRPV 122100Z 09014KT 9999 SCT025 SCT120 24/15 A2993=
200712122200 METAR MRPV 122200Z 08014KT 9999 SCT025 22/13 A2993=
200712122300 METAR MRPV 122300Z 08014KT 9999 BKN025 21/14 A2995=
200712122330 METAR MRPV 122330Z 08013KT 9999 SCT025 21/15 A2995=
200712130000 METAR MRPV NIL=
200712130100 METAR MRPV NIL=
200712130200 METAR MRPV NIL=
200712130300 METAR MRPV NIL=
200712130400 METAR MRPV NIL=
200712130500 METAR MRPV NIL=
200712130600 METAR MRPV NIL=
200712130700 METAR MRPV NIL=
200712130800 METAR MRPV NIL=
200712130900 METAR MRPV NIL=
200712131000 METAR MRPV NIL=
200712131100 METAR MRPV NIL=
200712131200 METAR MRPV 131200Z 00000KT CAVOK 18/14 A2999 RMK TRACE SC FEW250=
200712131300 METAR MRPV 131300Z 13008KT CAVOK 19/14 A3001 TRAZAS SCT=
200712131400 METAR MRPV 131400Z 11012KT CAVOK 22/15 A3003 TRAZAS SCT=
200712131500 METAR MRPV 131500Z 08016KT CAVOK 23/13 A3002 TRAZAS SCT CI=
200712131600 METAR MRPV 131600Z 08015KT CAVOK 24/15 A3002 TRAZAS SCT=
200712131700 METAR MRPV 131700Z 10009KT 9999 FEW030 26/15 A2999=
200712131800 METAR MRPV 131800Z 08011KT 9999 SCT030 26/16 A2997=
200712131900 METAR MRPV 131900Z 08011KT 9999 FEW020 SCT035 26/16 A2995=
200712132000 METAR MRPV 132000Z 08010KT 9999 FEW020 SCT035 26/16 A2993=
200712132100 METAR MRPV 132100Z NIL=
200712132200 METAR MRPV 132200Z NIL=
200712132300 METAR MRPV 132300Z NIL=
200712140000 METAR MRPV 140000Z NIL=
200712140100 METAR MRPV NIL=
200712140200 METAR MRPV NIL=
200712140300 METAR MRPV NIL=
200712140400 METAR MRPV NIL=
200712140500 METAR MRPV NIL=
200712140600 METAR MRPV NIL=
200712140700 METAR MRPV NIL=
200712140800 METAR MRPV NIL=
200712140900 METAR MRPV NIL=
200712141000 METAR MRPV NIL=
200712141100 METAR MRPV NIL=
200712141200 METAR MRPV NIL=
200712141300 METAR MRPV 141300Z 12012KT CAVOK 20/12 A3001 RMK BKN250=
200712141400 METAR MRPV 141400Z 13010KT CAVOK 22/12 A3002 RMK SCT250=
200712141500 METAR MRPV 141500Z 09010G20KT CAVOK 24/12 A3002 RMK SCT250=
200712141600 METAR MRPV 141600Z 07010G20KT CAVOK 25/12 A3001 RMK TRACE SC SCT250=
200712141700 METAR MRPV 141700Z 07010G20KT 9999 FEW030 26/12 A3000=
200712141800 METAR MRPV 141800Z 08010KT 9999 FEW030 26/13 A2997 RMK GUST 15KT=
200712141900 METAR MRPV 141900Z 08010KT 9999 FEW030 27/13 A2994=
200712142000 METAR MRPV 142000Z 08013KT 9999 FEW030 27/14 A2992 RMK TCU DST SW W=
200712142100 METAR MRPV 142100Z 09010KT 9999 SCT025 26/15 A2991 RMK TCU SW W PCPN NW=
200712142200 METAR MRPV 142200Z 08012KT 9999 SCT025 25/15 A2991 RMK TCU NW=
200712142300 METAR MRPV 142300Z 08012KT 9999 SCT012 23/15 A2993 RMK TCU NW N PCPN DST NW=
200712142345 METAR MRPV 142345Z 09011KT 9999 SCT008 21/15 A2994 LOW ST W=
200712150000 METAR MRPV NIL=
200712150100 METAR MRPV NIL=
200712150200 METAR MRPV NIL=
200712150300 METAR MRPV NIL=
200712150400 METAR MRPV NIL=
200712150500 METAR MRPV NIL=
200712150600 METAR MRPV NIL=
200712150700 METAR MRPV NIL=
200712150800 METAR MRPV NIL=
200712150900 METAR MRPV NIL=
200712151000 METAR MRPV NIL=
200712151100 METAR MRPV NIL=
200712151200 METAR MRPV 151200Z NIL=
200712151300 METAR MRPV 151300Z 14008KT CAVOK 19/13 A2999 RMK FEW090=
200712151400 METAR MRPV 151400Z 13008KT CAVOK 23/12 A3001 RMK FEW090=
200712151500 METAR MRPV 151500Z 13008KT CAVOK 24/12 A3001 RMK FEW090=
200712151600 METAR MRPV 151600Z 28005KT 9999 FEW024 SCT090 26/15 A3001 RMK DUST APCH RNY 09=
200712151700 METAR MRPV 151700Z 28009KT 9999 SCT022 SCT090 26/17 A2999 RMK DUST APCH RNY09 CB NW=
200712151800 METAR MRPV NIL=
200712151900 METAR MRPV 151900Z 28008KT 9999 SCT010TCU SCT030 BKN250 25/17 A2995 RMK RN DIST N=
200712152000 METAR MRPV 152000Z 26007KT 9999 SCT010TCU BKN030 24/18 A2993 RN N=
200712152100 METAR MRPV 152100Z 26008KT 9999 SCT010TCU SCT030 BKN250 A2991 RMK RN N HZ ARND=
200712152200 METAR MRPV 152200Z 27008KT 7000 3000NW VCFG FEW008TCU SCT018 BKN250 23/19 A2991=
200712152300 METAR MRPV 152300Z 27008KT 3000 BR SCT002 BKN012 21/19 A2993 RMK ST MVMG W TO E=
200712160000 METAR MRPV 160000Z NIL=
200712160100 METAR MRPV NIL=
200712160200 METAR MRPV NIL=
200712160300 METAR MRPV NIL=
200712160400 METAR MRPV NIL=
200712160500 METAR MRPV NIL=
200712160600 METAR MRPV NIL=
200712160700 METAR MRPV NIL=
200712160800 METAR MRPV NIL=
200712160900 METAR MRPV NIL=
200712161000 METAR MRPV NIL=
200712161100 METAR MRPV NIL=
200712161200 METAR MRPV 161200Z NIL=
200712161300 METAR MRPV 161300Z 12008KT 9999 SKC 20/15 A2999=
200712161400 METAR MRPV 161400Z 13010KT 9999 SKC 23/21 A3000=
200712161500 METAR MRPV 161500Z 10010KT 9999 NSC 25/16 A3001 RMK TRACE SC=
200712161600 METAR MRPV 161600Z 08010G20KT 9999 FEW030 26/16 A3000=
200712161700 METAR MRPV 161700Z 09010G20KT 9999 SCT0 25 27/16 A2999=
200712161800 METAR MRPV 161800Z 09010G20KT 9999 SCT022 27/17 A2997 RMK RN DST N=
200712161900 METAR MRPV 161900Z 09012KT 9999 SCT012 BKN030 26/17 A2994 RMK RN N TCU N NW W=
200712162000 METAR MRPV 162000Z 09011G21KT 9999 FEW010TCU BKN030 24/17 A2992 RMK RN NW N NE=
200712162100 METAR MRPV 162100Z 08012KT 9999 FEW010TCU SCT030 BKN250 24/17 A2991=
200712162200 METAR MRPV 162200Z 08012KT 9999 FEW012TCU SCT090 BKN250 25/17 A2992=
200712162300 METAR MRPV 162300Z 10012KT 9999 FEW010 SCT030 23/17 A2994=
200712170000 METAR MRPV 170000Z NIL=
200712170100 METAR MRPV NIL=
200712170200 METAR MRPV NIL=
200712170300 METAR MRPV NIL=
200712170400 METAR MRPV NIL=
200712170500 METAR MRPV NIL=
200712170600 METAR MRPV NIL=
200712170700 METAR MRPV NIL=
200712170800 METAR MRPV NIL=
200712170900 METAR MRPV NIL=
200712171000 METAR MRPV NIL=
200712171100 METAR MRPV NIL=
200712171200 METAR MRPV NIL=
200712171300 METAR MRPV 171300Z NIL=
200712171400 METAR MRPV 171400Z 08010KT 9999 SCT020 BKN120 22/17 A3003 RMK RN N NE W=
200712171500 METAR MRPV 171500Z 10011KT 9999 FEW010 SCT020 BKN100 22/17 A3004 RMK RN N NE E=
200712171600 METAR MRPV 171600Z NIL=
200712171700 METAR MRPV 171700Z 09012KT 9999 3000S VCSH SCT010 SCT020 BKN100 22/18 A3003 RMK RN N NE SE S SW=
200712171800 METAR MRPV 171800Z 08013KT 9999 SCT020 SCT120 25717 A3001 RMK DZ N NE=
200712171900 METAR MRPV 171900Z 07019KT 9999 SCT030 SCT130 25/16 A2997=
200712172000 METAR MRPV 172000Z 08014KT 9999 FEW015 SCT020 SCT120 26/16 A2984=
200712172100 METAR MRPV 172100Z 07014KT 9999 SCT020 BKN120 24/15 A2995=
200712172200 METAR MRPV NIL=
200712172300 METAR MRPV 172300Z 09008KT 9999 SCT030 22/16 A2997=
200712180000 METAR MRPV NIL=
200712180100 METAR MRPV NIL=
200712180200 METAR MRPV NIL=
200712180300 METAR MRPV NIL=
200712180400 METAR MRPV NIL=
200712180500 METAR MRPV NIL=
200712180600 METAR MRPV NIL=
200712180700 METAR MRPV NIL=
200712180800 METAR MRPV NIL=
200712180900 METAR MRPV NIL=
200712181000 METAR MRPV NIL=
200712181100 METAR MRPV NIL=
200712181200 METAR MRPV 181200Z 10009KT 9999 SCT030 20/15 A3004=
200712181300 METAR MRPV 181300Z 10008KT 9999 SCT030 20/15 A3005=
200712181400 METAR MRPV 181400Z 08014KT 9999 FEW030 22/15 A3007=
200712181500 METAR MRPV 181500Z 07012KT CAVOK 24/14 A3007 FEW070=
200712181600 METAR MRPV 181600Z 06013KT 9999 FEW035 24/15 A3006=
200712181700 METAR MRPV 181700Z 07014KT 9999 FEW035 26/16 A3004=
200712181800 METAR MRPV 181800Z 05013KT 9999 SCT035 24/16 A3002=
200712181900 METAR MRPV 181900Z 08011KT 9999 BKN035 25/16 A3000=
200712182000 METAR MRPV 182000Z 08011KT 9999 BKN035 25/16 A2998=
200712182100 METAR MRPV 182100Z 06011KT 9999 FEW020 SCT040 24/16 A2997=
200712182200 METAR MRPV 182200Z 06009KT 9999 SCT030 24/16 A2997=
200712182300 METAR MRPV 182300Z 06009KT 9999 SCT030 23/15 A2999=
200712190000 METAR MRPV 190000Z NIL=
200712190100 METAR MRPV NIL=
200712190200 METAR MRPV NIL=
200712190300 METAR MRPV NIL=
200712190400 METAR MRPV NIL=
200712190500 METAR MRPV NIL=
200712190600 METAR MRPV NIL=
200712190700 METAR MRPV NIL=
200712190800 METAR MRPV NIL=
200712190900 METAR MRPV NIL=
200712191000 METAR MRPV NIL=
200712191100 METAR MRPV NIL=
200712191200 METAR MRPV 191200Z 12007KT 9999 FEW035 SCT120 19/15 A3003 RMK FEW250=
200712191300 METAR MRPV 191300Z 12006KT 9999 FEW035 20/15 A3005 TRACE AC CI=
200712191400 METAR MRPV 191400Z 08011KT 9999 FEW040 22/15 A3007 RMK GUST 19KT=
200712191500 METAR MRPV 191500Z 09011KT 9999 SCT030 23/15 A3007=
200712191600 METAR MRPV 191600Z 07012KT 9999 SCT030 25/15 A3007 RMK GUST 18KT=
200712191700 METAR MRPV 191700Z 07013KT 9999 SCT030 24/16 A3005 RMK GUST 19KT=
200712191800 METAR MRPV 191800Z 06014KT 9999 SCT030 26/15 A3003=
200712191900 METAR MRPV 191900Z 07014KT 9999 SCT030 26/15 A3000 RMK GUST 19KT=
200712192000 METAR MRPV 192000Z 06015KT 9999 SCT030 26/15 A2998=
200712192100 METAR MRPV 192100Z 06014KT 9999 SCT030 25/14 A2996=
200712192200 METAR MRPV 192200Z 05013KIT 9999 FEW030 24/13 A2996=
200712192300 METAR MRPV 192300Z 07013KT 9999 FEW030 23/13 A2998=
200712200000 METAR MRPV NIL=
200712200100 METAR MRPV NIL=
200712200200 METAR MRPV NIL=
200712200300 METAR MRPV NIL=
200712200400 METAR MRPV NIL=
200712200500 METAR MRPV NIL=
200712200600 METAR MRPV NIL=
200712200700 METAR MRPV NIL=
200712200800 METAR MRPV NIL=
200712200900 METAR MRPV NIL=
200712201000 METAR MRPV NIL=
200712201100 METAR MRPV NIL=
200712201200 METAR MRPV 201200Z 12008KT 9999 FEW015 SCT100 19/15 A2997 RN NW=
200712201300 METAR MRPV 201300Z 12008KT 9999 SCT018 20/15 A2999 RMK RN DST SE=
200712201400 METAR MRPV 201400Z 12008KT 9999 FEW012 BKN030 21/15 A3001 RMK PCPN DST N E=
200712201500 METAR MRPV 201500Z 09010KT 9999 SCT020 24/16 A3001=
200712201600 METAR MRPV 201600Z 07010KT 9999 SCT020 26/15 A3001 RMK DUST APCH RNY 09=
200712201700 METAR MRPV 201700Z 07010KT 9999 SCT025 26/15 A2999 RMK DU IN APCH RNY 09=
200712201800 METAR MRPV 201800Z 07010KT 9999 SCT025 27/15 A2996 DU IN APCH RNY 09=
200712201900 METAR MRPV 201900Z VRB03KT 9999 SCT025 26/15 A2994 RMK TCU NW SW=
200712202000 METAR MRPV 202000Z 26008KT 9999 FEW012TCU SCT027 25/19 A2991=
200712202100 METAR MRPV 202100Z 27008KT 9999 FEW012TCU SCT024 24/19 A2990=
200712202200 METAR MRPV 202200Z 27008KT 9999 SCT004 BKN025 23/19 A2991 RMK ST MOVIENDOSE DE W A E=
200712202300 METAR MRPV 202300Z 28007KT 9999 3000NW VCSH SCT002 BKN020 22/19 A2993=
200712210000 METAR MRPV NIL=
200712210100 METAR MRPV NIL=
200712210200 METAR MRPV NIL=
200712210300 METAR MRPV NIL=
200712210400 METAR MRPV NIL=
200712210500 METAR MRPV NIL=
200712210600 METAR MRPV NIL=
200712210700 METAR MRPV NIL=
200712210800 METAR MRPV NIL=
200712210900 METAR MRPV NIL=
200712211000 METAR MRPV NIL=
200712211100 METAR MRPV NIL=
200712211200 METAR MRPV 211200Z 12008KT 9999 NSC 18/15 A2996 RMK TRACE SC=
200712211300 METAR MRPV 211300Z 13009KT 9999 NSC 21/15 A2998 RMK TRACE SC=
200712211400 METAR MRPV 211400Z 09014KT 9999 NSC 23/16 A3000 RMK TRACE SC=
200712211500 METAR MRPV 211500Z 08014KT 9999 FEW030 24/16 A3001=
200712211600 METAR MRPV 211600Z 07013KT 9999 FEW030 25/17 A3000=
200712211700 METAR MRPV 211700Z 07012KT 9999 FEW030 26/16 A2999 RMK DU 09=
200712211800 METAR MRPV 211800Z 05009KT 9999 SCT022 27/15 A2996=
200712211900 METAR MRPV 211900Z 06010KT 9999 FEW012TCU SCT024 26/15 A2994=
200712212000 METAR MRPV 212000Z 0908KT 9999 FEW012TCU SCT022 26/16 A2990 RMK RN DST NW=
200712212100 METAR MRPV 212100Z 07009KT 9999 FEW012TCU SCT022 25/17 A2988=
200712212200 METAR MRPV 212200Z 34005KT 6000 2400NW VCSH SCT004 BKN020 22/18 A2990 RMK VIS E UNL=
200712212300 METAR MRPV 212300Z 08007KT 7000 3000NW VCSH SCT004 BKN020 21/17 A2991=
200712220000 METAR MRPV 220000Z NIL=
200712220100 METAR MRPV NIL=
200712220200 METAR MRPV NIL=
200712220300 METAR MRPV NIL=
200712220400 METAR MRPV NIL=
200712220500 METAR MRPV NIL=
200712220600 METAR MRPV NIL=
200712220700 METAR MRPV NIL=
200712220800 METAR MRPV NIL=
200712220900 METAR MRPV NIL=
200712221000 METAR MRPV NIL=
200712221100 METAR MRPV NIL=
200712221200 METAR MRPV 221200Z 09010G20KT 9999 SCT014 20/16 A2997 RMK RN DST N=
200712221300 METAR MRPV 221300Z 11010KT 9999 SCT014 20/15 A2998 RMK RN N=
200712221400 METAR MRPV 221400Z 12008KT 9999 FEW012 SCT090 21/16 A3001 RMK RN N=
200712221500 METAR MRPV 221500Z 10009KT 9999 SCT012 SCT100 22/16 A3001 RMK RN N NE=
200712221600 METAR MRPV NIL=
200712221700 METAR MRPV 221700Z 07012KT 9999 SCT010 SCT025 22/16 A3000 RMK RN N SE DU PISTA 09=
200712221800 METAR MRPV 221800Z 11010KT 9999 SCT013 SCT028 22/16 A2997 RMK DZ N=
200712221900 METAR MRPV 221900Z 09012KT 9999 SCT011 SCT030 BKN100 22/16 A2995 RMK RAFAGAS 18KT RN N SE=
200712222000 METAR MRPV 222000Z 12008KT 7000 3000NW -RA VCSH SCT008 SCT022 BKN100 21/18 A2993=
200712222100 METAR MRPV 222100Z 11010KT 9999 SCT008 SCT025 BKN100 21/17 A2991 RN N NE=
200712222200 METAR MRPV 222200Z 10010KT 9999 FEW008 BKN028 21/17 A2990 RN N NE=
200712222300 METAR MRPV 222300Z 09012KT 9999 FEW008 BKN025 20/16 A2992 RN N NE S=
200712230000 METAR MRPV NIL=
200712230100 METAR MRPV NIL=
200712230200 METAR MRPV NIL=
200712230300 METAR MRPV NIL=
200712230400 METAR MRPV NIL=
200712230500 METAR MRPV NIL=
200712230600 METAR MRPV NIL=
200712230700 METAR MRPV NIL=
200712230800 METAR MRPV NIL=
200712230900 METAR MRPV NIL=
200712231000 METAR MRPV NIL=
200712231100 METAR MRPV NIL=
200712231200 METAR MRPV 231200Z 11012KT 9999 BKN025 SCT090 20/16 A2998 RMK RN DST NW N NE GUST 19KT=
200712231300 METAR MRPV 231300Z 11013KT 9999 DZ SCT030 BKN090 20/16 A3002 RMK RN NE RAFAGAS 19KT=
200712231400 METAR MRPV 231400Z 09013KT 9999 FEW035 BKN090 21/16 A3004 REDZ RMK RN N NE W RAFAGAS 19KT=
200712231500 METAR MRPV 231500Z 09013G23KT 9999 FEW030 BKN100 22/16 A3003 DZ NW N NE=
200712231600 METAR MRPV 231600Z 09015KT 9999 FEW030 BKN100 24/16 A3002 RMK DZ NW N NE RAFAGAS 20KT=
200712231700 METAR MRPV 231700Z 07017KT 9999 FEW030 SCT100 22/16 A3003 RMK DZ N NE TRAZAS 23KT=
200712231800 METAR MRPV 231800Z 09013KT 9999 FEW030 SCT100 23/16 A3002 DZ N NE=
200712231900 METAR MRPV 231900Z 08020KT 9999 FEW035 SCT100 24/15 A2999 RMK DZ NW N NE GUST 20KT=
200712232000 METAR MRPV 232000Z 08019KT 9999 FEW030 BKN100 21/16 A2998 DZ N NE RAFAGAS 27KT=
200712232100 METAR MRPV 232100Z 08017KT 9999 FEW030 SCT100 22/15 A2997 RMK DZ DST N NE GUST 22KT=
200712232200 METAR MRPV 232200Z 09017KT 9999 FEW030 SCT100 20/14 A2996 RMK RN DST N NE GUST25=
200712232300 METAR MRPV 232300Z 10015KT 9999 FEW030 SCT100 20/14 A2997 RMK GUST 22KT SCT250 DZ DST N=
200712240000 METAR MRPV 240000Z NIL=
200712240100 METAR MRPV NIL=
200712240200 METAR MRPV NIL=
200712240300 METAR MRPV NIL=
200712240400 METAR MRPV NIL=
200712240500 METAR MRPV NIL=
200712240600 METAR MRPV NIL=
200712240700 METAR MRPV NIL=
200712240800 METAR MRPV NIL=
200712240900 METAR MRPV NIL=
200712241000 METAR MRPV NIL=
200712241100 METAR MRPV NIL=
200712241200 METAR MRPV 241200Z 11011KT 9999 FEW030 SCT100 19/14 A2996 RMK DZ NW N NE RAFAGAS 18KT=
200712241300 METAR MRPV 241300Z 11012KT 9999 FEW035 BKN100 19/14 A2999 RMK DZ DST NW N NE GUST 17KT=
200712241400 METAR MRPV 241400Z 10013KT 9999 FEW035 BKN090 20/14 A3002 RMK DZ DST N NE GUST 18KT=
200712241500 METAR MRPV 241500Z 10012KT 9999 FEW035 BKN090 23/14 A3002 RMK DZ DST NW N NE=
200712241600 METAR MRPV 241600Z 09015G25KT 9999 SCT035 SCT100 21/14 A3004 RMK DZ DST NW N NE=
200712241700 METAR MRPV 241700Z 09014KT 9999 FEW030 BKN090 23/16 A3001 RMK RN DST NW N NE GUST 19KT=
200712241800 METAR MRPV 241800Z 08020KT 9999 SCT030 23/16 A2998 RMK DZ DST NW N NE GUST 25KT=
200712241900 METAR MRPV 241900Z 11014KT 9999 -DZ SCT030 SCT090 22/16 A2995 RMK GUST 19KT RN DST NE E=
200712242000 METAR MRPV 242000Z 09014KT 9999 SCT030 SCT090 23/17 A2993 REDZ VIS 5000NE RA GUST 22KT=
200712242100 METAR MRPV 242100Z 09014KT 9999 FEW030 SCT090 23/17 A2991 RMK RN DST N NE GUST 19KT=
200712242200 METAR MRPV 242200Z 09017KT 9999 SCT030 22/16 A2991 RMK RN DST NW N NE RFGS 23KT=
200712242300 METAR MRPV 242300Z 07016KT 9999 FEW025 BKN090 20/16 A2992 RMK RFGS 22KT VIS NE 5KMS DUE RN RN DST NW N=
200712250000 METAR MRPV NIL=
200712250100 METAR MRPV NIL=
200712250200 METAR MRPV NIL=
200712250300 METAR MRPV NIL=
200712250400 METAR MRPV NIL=
200712250500 METAR MRPV NIL=
200712250600 METAR MRPV NIL=
200712250700 METAR MRPV NIL=
200712250800 METAR MRPV NIL=
200712250900 METAR MRPV NIL=
200712251000 METAR MRPV NIL=
200712251100 METAR MRPV NIL=
200712251200 METAR MRPV 251200Z 10012KT 9999 SCT020 SCT090 22/18 A2998 RMK VSBY N NE 6KM DUE RN. RAFAGAS 17KT=
200712251300 METAR MRPV 251300Z 12010KT 9999 SCT020 SCT090 22/18 A2992 RMK VIS NE E 5KMS DUE RN RFGS 15KT=
200712251400 METAR MRPV 251400Z 10013KT 9999 -DZ BKN025 SCT090 22/18 A2995 RERA VIS NE E SE 5KMS DUE RN RFGS 20KT=
200712251500 METAR MRPV 251500Z 11012G22KT 8000 3000NE BKN020 SCT090 22/18 A2997 RMK VIS E SE 5KMS W UNLTD=
200712251600 METAR MRPV 251600Z 13010KT 3000 +RA FEW006 BKN010 20/18 A2998 RMK RFGS 17KT VIS W 5KMS=
200712251700 METAR MRPV 251700Z 12008KT 9999 3000 RA SCT015 BKN090 21/18 A2997 RMK CND VRBLS=
200712251800 METAR MRPV 251800Z 10011KT 9999 BKN020 SCT090 21/17 A2995 RERA RMK RFGS 17KT VIS N NE 5KMS SCT RN ARND=
200712251900 METAR MRPV 251900Z 08020G30KT 9999 SCT025 BKN100 19/16 A2992 PCPN DST N NE E SE=
200712252000 METAR MRPV 252000Z 09019KT 9999 SCT030 BKN100 20/17 A2990 RMK PCPN DST N NE RFGS 26KT=
200712252100 METAR MRPV 252100Z 10014KT 9999 SCT030 BKN100 20/16 A2988 RMK DZ DST NW N NE RGFS 20KT=
200712252200 METAR MRPV 252200Z 09012KT 9999 SCT030 BKN100 20/17 A2989 RMK DZ DST NW N NE RFGS 17KT=
200712252300 METAR MRPV 252300Z 10012KT 9999 FEW030 SCT100 BKN250 20/16 A2989 RMK DZ DST NW N NE E RFGS 19KT=
200712260000 METAR MRPV 260000Z NIL=
200712260100 METAR MRPV NIL=
200712260200 METAR MRPV NIL=
200712260300 METAR MRPV NIL=
200712260400 METAR MRPV NIL=
200712260500 METAR MRPV NIL=
200712260600 METAR MRPV NIL=
200712260700 METAR MRPV NIL=
200712260800 METAR MRPV NIL=
200712260900 METAR MRPV NIL=
200712261000 METAR MRPV NIL=
200712261100 METAR MRPV NIL=
200712261200 METAR MRPV 261200Z 10012KT 9999 FEW010 SCT100 19/15 A2991 RMK GUST 17KT RN DST N=
200712261300 METAR MRPV 261300Z 10010G20KT 9999 SCT012 20/12 A2993 RMK RN N=
200712261400 METAR MRPV 261400Z 09011G21KT 9999 FEW020 21/15 A2994 RMK RN N=
200712261500 METAR MRPV 261500Z 08013G23KT 9999 FEW020 23/15 A2995 RMK RN DST N=
200712261600 METAR MRPV 261600Z 08014G24KT 9999 FEW020 23/15 A2995 RMK RN N=
200712261700 METAR MRPV 261700Z 07011G21KT 9999 FEW020 25/14 A2993=
200712261800 METAR MRPV 261800Z 09010G20KT 9999 FEW025 26/15 A2992=
200712261900 METAR MRPV 261900Z 07010G20KT 9999 SCT025 25/16 A2990 RMK RN DST NE=
200712262000 METAR MRPV 262000Z 08013G23KT 9999 SCT025 25/17 A2988 RMK RN N NE=
200712262100 METAR MRPV 262100Z 08010G20KT 9999 SCT025 25/16 A2987 RMK RN NE=
200712262200 METAR MRPV 262200Z 07012G22KT 9999 SCT025 24/16 A2988=
200712262300 METAR MRPV 262300Z 08010G20KT 9999 SCT020 BKN250 22/16 A2989=
200712270000 METAR MRPV NIL=
200712270100 METAR MRPV NIL=
200712270200 METAR MRPV NIL=
200712270300 METAR MRPV NIL=
200712270400 METAR MRPV NIL=
200712270500 METAR MRPV NIL=
200712270600 METAR MRPV NIL=
200712270700 METAR MRPV NIL=
200712270800 METAR MRPV NIL=
200712270900 METAR MRPV NIL=
200712271000 METAR MRPV NIL=
200712271100 METAR MRPV NIL=
200712271200 METAR MRPV 271200Z 11010KT CAVOK 18/14 A2994 RMK SCT080 BKN250=
200712271300 METAR MRPV 271300Z 10010KT CAVOK 19/13 A2996 RMK SCT080 BKN250=
200712271400 METAR MRPV 271400Z 10010KT 9999 FEW030 SCT080 BKN250 20/14 A2999 RMK RAFAGAS 15KT=
200712271500 METAR MRPV 271500Z 09010KT 9999 FEW030 BKN250 22/14 A2999 RMK RAFAGAS 15KT=
200712271600 METAR MRPV 271600Z 08012KT 9999 FEW030 BKN250 22/14 A2999 RMK RAFAGAS 17KT=
200712271700 METAR MRPV 271700Z 08011KT 9999 FEW030 BKN250 24/14 A2998 RMK RAFAGAS 15KT=
200712271800 METAR MRPV 271800Z 08010KT 9999 FEW030 SCT100 BKN250 24/14 A2995=
200712271900 METAR MRPV 271900Z 09012KT 9999 FEW025 BKN250 25/14 A2993=
200712272000 METAR MRPV 272000Z 08012KT 9999 FEW026 BKN250 26/14 A2989=
200712272100 METAR MRPV 272100Z 08012KT 9999 FEW023 BKN250 24/15 A2988=
200712272200 METAR MRPV 272200Z 09010KT 9999 FEW025 SCT080 BKN250 23/15 23/15 A2990=
200712272300 METAR MRPV 272300Z 11008KT 9999 FEW015 BKN250 22/15 A2991=
200712280000 METAR MRPV NIL=
200712280100 METAR MRPV NIL=
200712280200 METAR MRPV NIL=
200712280300 METAR MRPV NIL=
200712280400 METAR MRPV NIL=
200712280500 METAR MRPV NIL=
200712280600 METAR MRPV NIL=
200712280700 METAR MRPV NIL=
200712280800 METAR MRPV NIL=
200712280900 METAR MRPV NIL=
200712281000 METAR MRPV NIL=
200712281100 METAR MRPV NIL=
200712281200 METAR MRPV 281200Z 12010KT 9999 SCT015 BKN030 18/15 A2996 RMK RN DST W N NE=
200712281300 METAR MRPV 281300Z 12010KT 9999 FEW015 SCT030 20/16 A2997 RMK RN NW N NE=
200712281400 METAR MRPV 281400Z 13010KT 9999 FEW012 SCT080 23/17 A2999 RN N NE RAFAGAS 15KT=
200712281500 METAR MRPV 281500Z 11010KT 9999 FEW010 SCT030 24/17 A2999 DZ N NE RAFAGAS 16KT=
200712281600 METAR MRPV 281600Z 10012KT 9999 FEW013 SCT030 24/18 A2999 RN N NE RAFAGAS 17KT=
200712281700 METAR MRPV 281700Z 10010KT 9999 FEW014 SCT028 24/18 A2998 RN N NE RAFAGAS 16KT=
200712281800 METAR MRPV 281800Z 10013KT 9999 SCT011 BKN032 24/18 A2995 RN N NE RAFAGAS 16KT=
200712281900 METAR MRPV 281900Z 10010KT 9999 SCT010 BKN027 22/18 A2993 RN N NE=
200712282000 METAR MRPV 282000Z 07010KT 9999 -RA FEW008 SCT018 BKN120 21/18 A2991=
200712282100 METAR MRPV 282100Z 07010KT 9999 SCT010 BKN030 22/18 A2990 RMK RN DST QUAD N GUST 16KT=
200712282200 METAR MRPV 282200Z 07011KT 9999 SCT010 BKN030 21/17 A2990 RERA RMK RA DST QUAD N W GUST 16KT=
200712282300 METAR MRPV 282300Z 09012KT 9999 SCT008 SCT030 BKN250 20/16 A2993 RMK RN DST N NE GUST 19KT=
200712290000 METAR MRPV 290000Z NIL=
200712290100 METAR MRPV NIL=
200712290200 METAR MRPV NIL=
200712290300 METAR MRPV NIL=
200712290400 METAR MRPV NIL=
200712290500 METAR MRPV NIL=
200712290600 METAR MRPV NIL=
200712290700 METAR MRPV NIL=
200712290800 METAR MRPV NIL=
200712290900 METAR MRPV NIL=
200712291000 METAR MRPV NIL=
200712291100 METAR MRPV NIL=
200712291200 METAR MRPV 291200Z 10009KT 9999 SCT025 SCT100 20/16 A2993 RMK DZ NW N NE RAFAGAS 14KT CB DST SW=
200712291300 METAR MRPV 291300Z 09010KT 9999 BKN030 SCT100 21/17 A2996 RMK DZ DST N GUST 15KT=
200712291400 METAR MRPV 291400Z 11011KT 9999 FEW030 SCT100 21/16 A2997 RMK DZ QUAD N GUST 18KT=
200712291500 METAR MRPV 291500Z 08020KT 9999 FEW035 SCT280 22/15 A2999 RMK GUST 28 TRACE AC DZ DST NE E=
200712291600 METAR MRPV 291600Z 08018KT 9999 SCT030 23/15 A2998 RMK GUST 24KT=
200712291700 METAR MRPV 291700Z 08019KT 9999 SCT030 24/16 A2996 RMK DZ DST NE GUST 25KT=
200712291800 METAR MRPV 291800Z 09015KT 9999 SCT030 BKN100 24/17 A2995 RMK RN DST NW N NE GUST 21KT=
200712291900 METAR MRPV 291900Z 10011KT 9999 DZ BKN030 SCT100 24/17 A2992 RMK VIS 6000E RA GUST 19KT=
200712292000 METAR MRPV 292000Z 08019KT 9999 SCT030 BKN100 22/16 A2990 REDZ RMK VIS 6000 NE RA GUST 25KT=
200712292100 METAR MRPV 292100Z 10013KT 9999 SCT030 23/16 A2989 RMK DZ NW N NE RFGS 18KT=
200712292200 METAR MRPV 292200Z 09014KT 9999 SCT035 22/16 A2988 RMK DZ DST NW N NE RFGS 19KT=
200712292300 METAR MRPV 292300Z 08019KT 9999 FEW035 21/15 A2999 RMK FEW090=
200712300000 METAR MRPV NIL=
200712300100 METAR MRPV NIL=
200712300200 METAR MRPV NIL=
200712300300 METAR MRPV NIL=
200712300400 METAR MRPV NIL=
200712300500 METAR MRPV NIL=
200712300600 METAR MRPV NIL=
200712300700 METAR MRPV NIL=
200712300800 METAR MRPV NIL=
200712300900 METAR MRPV NIL=
200712301000 METAR MRPV NIL=
200712301100 METAR MRPV NIL=
200712301200 METAR MRPV 301200Z 12009KT CAVOK 19/15 A2996 TRZAS SCT CI FEW100 RAFAGAS 15KT=
200712301300 METAR MRPV 301300Z 12009KT 9999 FEW030 20/15 A2998 RMK TRACE AC CI=
200712301400 METAR MRPV 301400Z 10010KT 9999 FEW030 22/15 A3000 RFGS 17KT=
200712301500 METAR MRPV 301500Z 10012KT 9999 FEW030 22/16 A3001 RMK RFGS 17KT=
200712301600 METAR MRPV 301600Z 08013KT 9999 FEW035 24/16 A3000 RMK RFGS 20KT=
200712301700 METAR MRPV 301700Z 07015KT 9999 FEW035 SCT280 25/16 A2998 RMK RFGS 22KT=
200712301800 METAR MRPV 301800Z 07016KT 9999 FEW035 26/15 A2996 RMK TRACE CI RFGS 21KT=
200712301900 METAR MRPV 301900Z 08015KT 9999 FEW040 26/16 A2993 RMK RFGS 21KT=
200712302000 METAR MRPV NIL=
200712302100 METAR MRPV 302100Z 06013KT 9999 FEW045 26/16 A2990 RMK RFGS 18KT=
200712302200 METAR MRPV 302200Z 07015KT 9999 FEW035 24/17 A2990 RMK RFGS 20KT=
200712302300 METAR MRPV 302300Z 09013KT 9999 FEW030 22/17 A2990 RMK DZ DST N RFGS 18KT=
200712310000 METAR MRPV 310000Z NIL=
200712310100 METAR MRPV NIL=
200712310200 METAR MRPV NIL=
200712310300 METAR MRPV NIL=
200712310400 METAR MRPV NIL=
200712310500 METAR MRPV NIL=
200712310600 METAR MRPV NIL=
200712310700 METAR MRPV NIL=
200712310800 METAR MRPV NIL=
200712310900 METAR MRPV NIL=
200712311000 METAR MRPV NIL=
200712311100 METAR MRPV NIL=
200712311200 METAR MRPV 311200Z 11009KT CAVOK 20/15 A2996 RMK CB DST SW TRACE SC BKN250=
200712311300 METAR MRPV 311300Z 10013KT CAVOK 21/15 A2999 RMK TRACE SC BKN250 CB DST SW RFGS 18KT=
200712311400 METAR MRPV 311400Z 08013KT CAVOK 22/15 A3002 RMK TRACE SC BKN250 CB DST SE SW RFGS 18KT=
200712311500 METAR MRPV 311500Z 08015KT 9999 FEW045 BKN250 22/15 A3002 RMK RFGS 20KT=
200712311600 METAR MRPV 311600Z 07016KT 9999 FEW045 BKN250 23/15 A3001 RMK RFGS 21KT=
200712311700 METAR MRPV 311700Z 07015KT 9999 FEW045 SCT250 25/15 A3000 RMK CB DST SW FEW120=
200712311800 METAR MRPV 311800Z 07014KT 9999 FEW040 SCT250 25/15 A2999 RMK FEW120=
200712311900 METAR MRPV 311900Z 08011KT 9999 FEW040 BKN250 25/15 A2996 RMK RFGS 17KT=
200712312000 METAR MRPV 312000Z 07014KT 9999 FEW040 SCT120 BKN250 25/16 A2994=
200712312100 METAR MRPV 312100Z 08014KT 9999 FEW035 SCT120 BKN250 24/17 A2992=
200712312200 METAR MRPV 312200Z 08015KT 9999 FEW030 SCT120 BKN200 22/15 A2993 RMK TCU DST SW=
200712312300 METAR MRPV 312300Z 09013KT 9999 FEW035 BKN120 21/15 A2994 RMK RAFAGAS 18KT=
