200901010000 METAR MRPV 010000Z NIL=
200901010100 METAR MRPV NIL=
200901010200 METAR MRPV NIL=
200901010300 METAR MRPV NIL=
200901010400 METAR MRPV NIL=
200901010500 METAR MRPV NIL=
200901010600 METAR MRPV NIL=
200901010700 METAR MRPV NIL=
200901010800 METAR MRPV NIL=
200901010900 METAR MRPV NIL=
200901011000 METAR MRPV NIL=
200901011100 METAR MRPV NIL=
200901011200 METAR MRPV 011200Z NIL=
200901011300 METAR MRPV 011300Z 10010G20KT 9999 FEW025 20/16 A2999 RN N=
200901011400 METAR MRPV 011400Z 10010G20KT 9999 FEW025 20/16 A3001 RN NE=
200901011500 METAR MRPV 011500Z 08010G20KT 9999 FEW025 22/16 A3001 RN NE=
200901011600 METAR MRPV 011600Z 08012G22KT 9999 FEW025 22/16 A3001 RN NE=
200901011700 METAR MRPV 011700Z 08013/23KT 9999 SCT022 23/16 A2999 RN NE=
200901011800 METAR MRPV 011800Z 07015G25KT 9999 SCT028 23/16 A2997 RN N=
200901011900 METAR MRPV 011900Z 07015G25KT 9999 BKN020 23/16 A2994 RN NE=
200901012000 METAR MRPV 012000Z 07015G25KT 9999 BKN020 23/16 A2994 RN NE=
200901012100 METAR MRPV 012100Z 07016G26KT 9999 SCT018 BKN090 21/15 A2990 RN DST NE=
200901012200 METAR MRPV 012200Z 08014G24KT 9999 SCT015 BKN090 21/15 A2991 RN DST NE=
200901012300 METAR MRPV 012300Z 08014G24KT 9999 SCT015 BKN090 20/15 A2992 RN NE=
200901020000 METAR MRPV NIL=
200901020100 METAR MRPV NIL=
200901020200 METAR MRPV NIL=
200901020300 METAR MRPV NIL=
200901020400 METAR MRPV NIL=
200901020500 METAR MRPV NIL=
200901020600 METAR MRPV NIL=
200901020700 METAR MRPV NIL=
200901020800 METAR MRPV NIL=
200901020900 METAR MRPV NIL=
200901021000 METAR MRPV NIL=
200901021100 METAR MRPV NIL=
200901021200 METAR MRPV NIL=
200901021300 METAR MRPV 021300Z 10010G20KT 9999 FEW010 19/14 A2998=
200901021400 METAR MRPV 021400Z 11012G22KT 9999 FEW012 21/15 A2999=
200901021500 METAR MRPV 021500Z 08016G26KT 9999 FEW020 22/15 A3000=
200901021600 METAR MRPV 021600Z 07012G22KT 9999 FEW020 23/15 A2999=
200901021700 METAR MRPV 021700Z 07012G22KT 9999 FEW020 24/16 A2998=
200901021800 METAR MRPV 021800Z 08011G21KT 9999 FEW020 25/16 A2996=
200901021900 METAR MRPV 021900Z 08014G24KT 9999 SCT020 25/16 A2993 RN DST NE=
200901022000 METAR MRPV 022000Z 08012G22KT 9999 SCT022 25/16 A2990 RN NE=
200901022100 METAR MRPV 022100Z 08012G22KT 9999 SCT022 25/16 A2989 RMK RN DST NE=
200901022200 METAR MRPV 022200Z 09010KT 9999 SCT020 23/16 A2991 RMK RN DST NE=
200901022300 METAR MRPV 022300Z 08012G22KT 9999 SCT020 22/16 A2992 RMK RN DST NE=
200901030000 METAR MRPV NIL=
200901030100 METAR MRPV NIL=
200901030200 METAR MRPV NIL=
200901030300 METAR MRPV NIL=
200901030400 METAR MRPV NIL=
200901030500 METAR MRPV NIL=
200901030600 METAR MRPV NIL=
200901030700 METAR MRPV NIL=
200901030800 METAR MRPV NIL=
200901030900 METAR MRPV NIL=
200901031000 METAR MRPV NIL=
200901031100 METAR MRPV NIL=
200901031200 METAR MRPV 031200Z NIL=
200901031300 METAR MRPV 031300Z 10015KT 9999 SKC 20/11 A2997=
200901031400 METAR MRPV 031400Z 10010G20KT 9999 SKC 22/12 A2999=
200901031500 METAR MRPV 031500Z 09011G21KT 9999 SKC 24/13 A3000=
200901031600 METAR MRPV 031600Z 07013G23KT 9999 SKC 25/14 A2998 RMK TRACE SC=
200901031700 METAR MRPV 031700Z 07016G26KT 9999 NSC 25/15 A2998 RMK TRACE SC=
200901031800 METAR MRPV 031800Z 08014G24KT 9999 FEW030 26/15 A2995 RMK RN DST NE=
200901031900 METAR MRPV 031900Z 07015G25KT 9999 FEW030 25/16 A2992 RMK RN DST NE=
200901032000 METAR MRPV 032000Z 08015G25KT 9999 FEW030 25/16 A2990 RMK RN DST NE=
200901032100 METAR MRPV 032100Z 08015G25KT 9999 SCT025 24/15 A2990 RMK RN NW=
200901032200 METAR MRPV 032200Z 06012G22KT 9999 SCT022 23/16 A2991 RMK RN NE=
200901032300 METAR MRPV 032300Z 07010G20KT 9999 SCT020 22/14 A2992 RMK RN DST NE=
200901032359 METAR MRPV 040000Z NIL=
200901040000 METAR MRPV NIL=
200901040100 METAR MRPV NIL=
200901040200 METAR MRPV NIL=
200901040300 METAR MRPV NIL=
200901040400 METAR MRPV NIL=
200901040500 METAR MRPV NIL=
200901040600 METAR MRPV NIL=
200901040700 METAR MRPV NIL=
200901040800 METAR MRPV NIL=
200901040900 METAR MRPV NIL=
200901041000 METAR MRPV NIL=
200901041100 METAR MRPV NIL=
200901041200 METAR MRPV NIL=
200901041300 METAR MRPV 041300Z 12011KT 9999 FEW020 20/16 A3000=
200901041400 METAR MRPV 041400Z 11013KT 9999 FEW020 21/16 A3004=
200901041500 METAR MRPV 041500Z 11012KT 9999 FEW020 23/16 A3004=
200901041600 METAR MRPV 041600Z 08016KT 9999 NSC 24/16 A3002 RMK TRACE SC CI=
200901041700 METAR MRPV 041700Z 07017KT 9999 NSC 25/15 A3001 RMK TRACE SC CU=
200901041800 METAR MRPV 041800Z 07018KT 9999 NSC 26/15 A2998 RMK TRACE SC=
200901041900 METAR MRPV 041900Z 07017KT 9999 FEW025 26/15 A2997=
200901042000 METAR MRPV 042000Z 07016KT 9999 FEW030 27/15 A2994=
200901042100 METAR MRPV 042100Z 07017KT 9999 FEW030 26/16 A2993=
200901042200 METAR MRPV 042200Z 07017KT 9999 FEW040 25/16 A2995=
200901042300 METAR MRPV 042300Z 07017KT 9999 FEW025 23/16 A2996=
200901050000 METAR MRPV NIL=
200901050100 METAR MRPV NIL=
200901050200 METAR MRPV NIL=
200901050300 METAR MRPV NIL=
200901050400 METAR MRPV NIL=
200901050500 METAR MRPV NIL=
200901050600 METAR MRPV NIL=
200901050700 METAR MRPV NIL=
200901050800 METAR MRPV NIL=
200901050900 METAR MRPV NIL=
200901051000 METAR MRPV NIL=
200901051100 METAR MRPV NIL=
200901051200 METAR MRPV 051200Z NIL=
200901051300 METAR MRPV 051300Z 11008KT 9999 SCT020 BKN100 20/17 A3004 RERA RMK DZ/RN N/NE=
200901051400 METAR MRPV 051400Z 13007KT 9999 SCT020 BKN120 21/17 A3004 RMK DZ N=
200901051500 METAR MRPV 051500Z 10012KT 9999 FEW025 BKN120 23/17 A3003=
200901051600 METAR MRPV 051600Z 08017KT 9999 SCT030 SCT120 24/16 A3001 RMK DZ N=
200901051700 METAR MRPV 051700Z 07015KT 9999 SCT030 SCT120 24/16 A2999=
200901051800 METAR MRPV 051800Z 08016KT 9999 SCT025 BKN120 25/17 A2998 RMK RN N NE=
200901051900 METAR MRPV 051900Z 08017KT 9999 SCT020TCU BKN100 24/17 A2996 RMK RN N=
200901052000 METAR MRPV 052000Z 11007KT 9999 FEW015 SCT025 BKN100 23/17 A2994=
200901052100 METAR MRPV 052100Z 09010KT 9999 SCT020 BKN100 23/17 A2992=
200901052200 METAR MRPV 052200Z 09011KT 9999 SCT025 BKN120 23/17 A2993 DZ NE=
200901052300 METAR MRPV 052300Z 10010KT 9999 SCT025 BKN120 22/17 A2993 DZ N=
200901060000 METAR MRPV 060000Z NIL=
200901060100 METAR MRPV NIL=
200901060200 METAR MRPV NIL=
200901060300 METAR MRPV NIL=
200901060400 METAR MRPV NIL=
200901060500 METAR MRPV NIL=
200901060600 METAR MRPV NIL=
200901060700 METAR MRPV NIL=
200901060800 METAR MRPV NIL=
200901060900 METAR MRPV NIL=
200901061000 METAR MRPV NIL=
200901061100 METAR MRPV NIL=
200901061200 METAR MRPV 061200Z 12008KT 9999 SCT025 BKN250 20/16 A2997 RMK RN DST NE=
200901061300 METAR MRPV 061300Z 12008KT 9999 SCT020 BKN250 21/16 A2999 DZ NE=
200901061400 METAR MRPV 061400Z 11009KT 9999 SCT025 SCT100 BKN250 22/17 A3001=
200901061500 METAR MRPV 061500Z 10011KT 9999 SCT030 SCT120 23/17 A3002=
200901061600 METAR MRPV 061600Z 07013KT 9999 SCT020 24/17 A3000=
200901061700 METAR MRPV 061700Z 06014KT 9999 SCT025 26/17 A2998=
200901061800 METAR MRPV 061800Z 07015KT 9999 SCT030 26/17 A2995=
200901061900 METAR MRPV 061900Z 08012KT 9999 SCT030 27/17 A2992=
200901062000 METAR MRPV 062000Z 08014KT 9999 SCT030 27/17 A2989=
200901062100 METAR MRPV 062100Z 08011KT 9999 SCT025 BKN250 26/17 A2989 RMK DZ N=
200901062200 METAR MRPV 062200Z 08013KT 9999 SCT030 BKN250 24/17 A2990=
200901062300 METAR MRPV 062300Z 09013KT 9999 SCT025 BKN250 24/17 A2991=
200901070000 METAR MRPV 070000Z NIL=
200901070100 METAR MRPV NIL=
200901070200 METAR MRPV NIL=
200901070300 METAR MRPV NIL=
200901070400 METAR MRPV NIL=
200901070500 METAR MRPV NIL=
200901070600 METAR MRPV NIL=
200901070700 METAR MRPV NIL=
200901070800 METAR MRPV NIL=
200901070900 METAR MRPV NIL=
200901071000 METAR MRPV NIL=
200901071100 METAR MRPV NIL=
200901071200 METAR MRPV 071200Z 12010KT 9999 FEW025 SCT250 19/15 A2998 RMK DZ NE CB SW=
200901071300 METAR MRPV 071300Z 12010KT 9999 FEW025 SCT250 21/16 A2999 RMK PCPN NE CB SW=
200901071400 METAR MRPV 071400Z 12012KT 9999 FEW025 SCT250 22/16 A3001 RMK PCPN NE CB SW=
200901071500 METAR MRPV 071500Z 12012KT 9999 FEW025 SCT250 24/15 A3001 RMK PCPN NE=
200901071600 METAR MRPV 071600Z 09011G21KT 9999 FEW025 SCT250 25/15 A3001 RMK PCPN NE=
200901071700 METAR MRPV 071700Z 08010G20KT 9999 FEW025 SCT250 26/16 A3000 RMK PCPN NE=
200901071800 METAR MRPV 071800Z 08012KT 9999 FEW022 SCT250 27/16 A2997 RMK PCPN TCU NE=
200901071900 METAR MRPV 071900Z 08012KT 9999 SCT022 SCT250 28/16 A2994 RMK PCPN NE CB DST ENE=
200901072000 METAR MRPV 072000Z 08010G20KT 9999 SCT020 BKN030 25/17 A2991 RMK PCPN NE NW=
200901072100 METAR MRPV 072100Z 08012G22KT 9999 -RA SCT015 BKN030 21/18 A2990=
200901072200 METAR MRPV 072200Z 09015KT 9999 SCT015 BKN100 22/17 A2991 RERA RMK TS DST W RN DST NE=
200901072300 METAR MRPV 072300Z 10012KT 9999 SCT015 BKN100 21/17 A2994 RMK RN DST N NE=
200901080000 METAR MRPV NIL=
200901080100 METAR MRPV NIL=
200901080200 METAR MRPV NIL=
200901080300 METAR MRPV NIL=
200901080400 METAR MRPV NIL=
200901080500 METAR MRPV NIL=
200901080600 METAR MRPV NIL=
200901080700 METAR MRPV NIL=
200901080800 METAR MRPV NIL=
200901080900 METAR MRPV NIL=
200901081000 METAR MRPV NIL=
200901081100 METAR MRPV NIL=
200901081200 METAR MRPV 081200Z 12010KT CAVOK 19/14 A2995 TRAZAS SC BKN090=
200901081300 METAR MRPV 081300Z 12010KT CAVOK 20/15 A2997 RMK TRACE SC BKN090 VEL.MAX.VTO.17KT=
200901081400 METAR MRPV 081400Z 08011KT CAVOK 22/15 A3000 RMK TRACE SC SCT090 VEL.MAX. VTO 16KT=
200901081500 METAR MRPV 081500Z 08012G22KT 9999 FEW025 23/16 A2999 RMK HZ W=
200901081600 METAR MRPV 081600Z 08012G24KT 9999 FEW025 24/16 A2999 RMK RN DST NE=
200901081700 METAR MRPV 081700Z 08010G20KT 9999 SCT025 25/17 A2997 RMK RN DST NE=
200901081800 METAR MRPV 081800Z 07010G20KT 9999 SCT022 25/17 A2996 RMK RN DST NE=
200901081900 METAR MRPV NIL=
200901082000 METAR MRPV NIL=
200901082100 METAR MRPV NIL=
200901082200 METAR MRPV NIL=
200901082300 METAR MRPV NIL=
200901090000 METAR MRPV NIL=
200901090100 METAR MRPV NIL=
200901090200 METAR MRPV NIL=
200901090300 METAR MRPV NIL=
200901090400 METAR MRPV NIL=
200901090500 METAR MRPV NIL=
200901090600 METAR MRPV NIL=
200901090700 METAR MRPV NIL=
200901090800 METAR MRPV NIL=
200901090900 METAR MRPV NIL=
200901091000 METAR MRPV NIL=
200901091100 METAR MRPV NIL=
200901091200 METAR MRPV 091200Z 10010KT 9999 3000NE VCSH SCT010 BKN270 20/15 A2998=
200901091300 METAR MRPV 091300Z 09011G21KT 9999 SCT010 BKN250 20/14 A3000 RMK RN DST N NE SE=
200901091400 METAR MRPV 091400Z 09017G27KT 9999 FEW012 BKN250 21/15 A3003 RMK RN NE SE E=
200901091500 METAR MRPV 091500Z 09012G24KT 9999 FEW012 SCT250 23/16 A3004 RMK RN NE SE E=
200901091600 METAR MRPV 091600Z 08016G26KT 9999 FEW012 SCT250 23/15 A3004 RMK RN NE=
200901091700 METAR MRPV 091700Z 07017G27KT 9999 FEW012 25/15 A3003 RMK RN NE=
200901091800 METAR MRPV 091800Z 06016G26KT 9999 FEW012 25/13 A2999 RMK RN NE=
200901091900 METAR MRPV 091900Z 08015G25KT 9999 FEW012 26/13 A2996 RMK RN NE=
200901092000 METAR MRPV 092000Z 07015G25KT 9999 FEW020 25/13 A2994=
200901092100 METAR MRPV 092100Z 07015G25KT 9999 5000 0500 NE FU FEW020 25/13 A2994=
200901092200 METAR MRPV 092200Z 07014G24KT 9999 FEW020 24/14 A2993 RMK FU N NE=
200901092300 METAR MRPV 092300Z 08012G22KT 9999 FEW020 23/14 A2994 RMK TRACE AC=
200901100000 METAR MRPV NIL=
200901100100 METAR MRPV NIL=
200901100200 METAR MRPV NIL=
200901100300 METAR MRPV NIL=
200901100400 METAR MRPV NIL=
200901100500 METAR MRPV NIL=
200901100600 METAR MRPV NIL=
200901100700 METAR MRPV NIL=
200901100800 METAR MRPV NIL=
200901100900 METAR MRPV NIL=
200901101000 METAR MRPV NIL=
200901101100 METAR MRPV NIL=
200901101200 METAR MRPV 101200Z 08017KT CAVOK 20/12 A3001 RMK BKN120 TRACE SC VEL.MAX.VTO 26KT=
200901101300 METAR MRPV 101300Z 08020KT CAVOK 20/12 A3002 RMK BKN120 TRACE SC RAFAGAS 26KT=
200901101400 METAR MRPV 101400Z 10015KT CAVOK 21/12 A3005 RMK SCT250 TRACE SC AC=
200901101500 METAR MRPV 101500Z 08016KT CAVOK 22/10 A3005 RMK SCT250 TRACE SC RAFAGAS 22KT=
200901101600 METAR MRPV 101600Z 07018KT CAVOK 24/11 A3003 RMK SCT250 TRACE SC=
200901101700 METAR MRPV 101700Z 07016KT 9999 NSC 25/12 A3001 RMK TRACE SC CI=
200901101800 METAR MRPV 101800Z 07016KT 9999 NSC 25/13 A3000 RMK TRACE CI=
200901101900 METAR MRPV 101900Z 07016KT 9999 NSC 25713 A2996 RMK TRACE SC CI=
200901102000 METAR MRPV 102000Z 08015KT 9999 FEW040 SCT250 25/14 A2994 RMK TRACE AC=
200901102100 METAR MRPV 102100Z 08015KT 9999 FEW040 25/15 A2994=
200901102200 METAR MRPV 102200Z 07016KT 9999 SCT030 SCT250 24/15 A2993=
200901102300 METAR MRPV 102300Z 07016KT 9999 SCT030 SCT250 24/15 A2993=
200901110000 METAR MRPV 110000Z NIL=
200901110100 METAR MRPV NIL=
200901110200 METAR MRPV NIL=
200901110300 METAR MRPV NIL=
200901110400 METAR MRPV NIL=
200901110500 METAR MRPV NIL=
200901110600 METAR MRPV NIL=
200901110700 METAR MRPV NIL=
200901110800 METAR MRPV NIL=
200901110900 METAR MRPV NIL=
200901111000 METAR MRPV NIL=
200901111100 METAR MRPV NIL=
200901111200 METAR MRPV 111200Z NIL=
200901111300 METAR MRPV 111300Z 11012KT 9999 FEW030 BKN250 19/14 A3001=
200901111400 METAR MRPV 111400Z 10012KT 9999 FEW030 BKN250 21/14 A3003=
200901111500 METAR MRPV 111500Z 08015KT CAVOK 23/14 A3002 TRAZAS SCT BKN250=
200901111600 METAR MRPV 111600Z 08015KT CAVOK 24/14 A3002 BKN250 TRAZAS SCT=
200901111700 METAR MRPV 111700Z 06019KT 9999 FEW030 BKN250 23/15 A3001=
200901111800 METAR MRPV 111800Z 07015KT 9999 SCT030 BKN250 24/15 A2999=
200901111900 METAR MRPV 111900Z 07014KT 9999 SCT030 BKN250 25/14 A2996=
200901112000 METAR MRPV 112000Z 06014KT 9999 SCT030 BKN250 26/17 A2993=
200901112100 METAR MRPV 112100Z 07017KT 9999 SCT030 BKN250 24/14 A2991=
200901112200 METAR MRPV 112200Z 08014KT 9999 SCT030 BKN250 24/15 A2992 RMK DZ NE E=
200901112300 METAR MRPV 112300Z 09011KT 9999 SCT035 BKN250 22/16 A2993=
200901112330 METAR MRPV 112330Z 09012KT 9999 SCT030 BKN250 22/16 A2994 RMK DZ NE=
200901120000 METAR MRPV 120000Z NIL=
200901120100 METAR MRPV NIL=
200901120200 METAR MRPV NIL=
200901120300 METAR MRPV NIL=
200901120400 METAR MRPV NIL=
200901120500 METAR MRPV NIL=
200901120600 METAR MRPV NIL=
200901120700 METAR MRPV NIL=
200901120800 METAR MRPV NIL=
200901120900 METAR MRPV NIL=
200901121000 METAR MRPV NIL=
200901121100 METAR MRPV NIL=
200901121200 METAR MRPV 121200Z 10014KT CAVOK 19/14 A2995 RMK TRACE SC SCT120 BKN250=
200901121300 METAR MRPV 121300Z 10014KT CAVOK 20/14 A2997 RMK TRACE SC BKN120=
200901121400 METAR MRPV 121400Z 11013KT 9999 FEW030 BKN120 21/15 A3000=
200901121500 METAR MRPV 121500Z 08018KT 9999 SCT030 BKN120 22/16 A3001 RMK PCPN N=
200901121600 METAR MRPV 121600Z 08018KT 9999 SCT030 BKN120 23/16 A3001 RM DZ N=
200901121700 METAR MRPV 121700Z 07016KT 9999 SCT030 BKN120 24/16 A2999=
200901121800 METAR MRPV 121800Z 07019KT 9999 SCT030 BKN120 24/15 A2997=
200901121900 METAR MRPV 121900Z 06016KT 9999 SCT030 BKN250 25/15 A2994=
200901122000 METAR MRPV 122000Z 06016KT 9999 SCT035 BKN250 25/24 A2992=
200901122100 METAR MRPV 122100Z 06013KT 9999 SCT035 BKN250 25/14 A2991=
200901122200 METAR MRPV 122200Z 07012KT 9999 SCT030 SCT120 BKN250 24/14 A2991=
200901122300 METAR MRPV 122300Z 10009KT 9999 FEW030 SCT120 BKN250 23/15 A2992=
200901130000 METAR MRPV NIL=
200901130100 METAR MRPV NIL=
200901130200 METAR MRPV NIL=
200901130300 METAR MRPV NIL=
200901130400 METAR MRPV NIL=
200901130500 METAR MRPV NIL=
200901130600 METAR MRPV NIL=
200901130700 METAR MRPV NIL=
200901130800 METAR MRPV NIL=
200901130900 METAR MRPV NIL=
200901131000 METAR MRPV NIL=
200901131100 METAR MRPV NIL=
200901131200 METAR MRPV 131200Z 14010KT CAVOK 17/13 A2999 FEW100=
200901131300 METAR MRPV 131300Z 13010KT CAVOK 19/13 A3001 RMK FEW100 FEW250 HZ QUAD W VIENTO CRUZADO EN PISTA=
200901131400 METAR MRPV 131400Z 10010G20KT CAVOK 22/15 A3004 RMK TRACE SC FEW100 BKN250 HZ QUAD W=
200901131500 METAR MRPV 131500Z 08010G20KT 9999 FEW022 SCT100 BKN250 22/15 A3005=
200901131600 METAR MRPV 131600Z 08011G21KT 9999 FEW024 SCT250 23/16 A3005=
200901131700 METAR MRPV 131700Z 07010G20KT 9999 SCT015 BKN250 24/16 A3004=
200901131800 METAR MRPV 131800Z 08010G20KT 9999 SCT015 BKN250 25/16 A3000 RMK RN DST NE=
200901131900 METAR MRPV 131900Z 08010G20KT 9999 SCT020 BKN250 24/16 A2998 RMK RN DST NE=
200901132000 METAR MRPV 132000Z 08010G20KT 9999 SCT020 BKN250 25/16 A2995 RMK RN DST NE=
200901132100 METAR MRPV 132100Z 09010G20KT 9999 SCT022 BKN250 24/16 A2994 RMK RN DST NE=
200901132200 METAR MRPV 132200Z 09013G23KT 9999 SCT022 BKN250 22/16 A2994 RMK RN DST NE=
200901132300 METAR MRPV 132300Z 10011KT 9999 SCT015 BKN250 21/15 A2996=
200901132352 METAR MRPV 140000Z NIL=
200901140000 METAR MRPV NIL=
200901140100 METAR MRPV 140100Z NIL=
200901140200 METAR MRPV NIL=
200901140300 METAR MRPV NIL=
200901140400 METAR MRPV NIL=
200901140500 METAR MRPV NIL=
200901140600 METAR MRPV NIL=
200901140700 METAR MRPV NIL=
200901140800 METAR MRPV NIL=
200901140900 METAR MRPV NIL=
200901141000 METAR MRPV NIL=
200901141100 METAR MRPV NIL=
200901141200 METAR MRPV 141200Z 10010G20KT CAVOK 19/13 A3000 RNK TRACE SCT BKN250=
200901141300 METAR MRPV 141300Z 12010G20KT CAVOK 20/13 A3002 RMK TRACE SC SCT250=
200901141400 METAR MRPV 141400Z 10013G23KT CAVOK 21/14 A3004 RMK TRACE SC SCT250=
200901141500 METAR MRPV 141500Z 08015G25KT CAVOK 23/14 A3004 RMK TRACE SC SCT250 RN N=
200901141600 METAR MRPV 141600Z 08014G24KT CAVOK 23/14 A3003 RMK TRACE SC SCT250=
200901141700 METAR MRPV 141700Z 08012G22KT 9999 FEW022 BKN250 24/15 A3003=
200901141800 METAR MRPV 141800Z 07013G23KT 9999 FEW022 BKN250 25/15 A3001=
200901141900 METAR MRPV 141900Z 08012G22KT 9999 FEW022 BKN250 24/15 A2999=
200901142000 METAR MRPV 142000Z 08012G22KT 9999 FEW022 BKN250 25/15 A2997 RMK RN NE=
200901142100 METAR MRPV 142100Z 09010G20KT 9999 SCT020 BKN250 24/15 A2996 RMK RN NE=
200901142200 METAR MRPV 142200Z 08010G20KT 9999 SCT020 SCT250 23/14 A2997 RMK RN NE=
200901142300 METAR MRPV 142300Z 09010G20KT 9999 SCT020 SCT030 22/15 A2999 RMK RN N NE=
200901150000 METAR MRPV NIL=
200901150100 METAR MRPV NIL=
200901150200 METAR MRPV NIL=
200901150300 METAR MRPV NIL=
200901150400 METAR MRPV NIL=
200901150500 METAR MRPV NIL=
200901150600 METAR MRPV NIL=
200901150700 METAR MRPV NIL=
200901150800 METAR MRPV NIL=
200901150900 METAR MRPV NIL=
200901151000 METAR MRPV NIL=
200901151100 METAR MRPV NIL=
200901151200 METAR MRPV NIL=
200901151300 METAR MRPV 151300Z 10011G21KT 9999 FEW020 BKN250 20/15 A3002 RMK RN N NE=
200901151400 METAR MRPV 151400Z 09012G22KT 9999 FEW020 BKN250 21/16 A3004 RMK RN NE N=
200901151500 METAR MRPV 151500Z 09015G25KT 9999 FEW020 BKN250 22/16 ND RMK RN NE=
200901151600 METAR MRPV 151600Z 08015G25KT 9999 FEW020 BKN250 23/16 A3005 RMK RN N NE=
200901151700 METAR MRPV 151700Z 09016G26KT 9999 SCT015 BKN250 22/16 A3004 RMK RN N NE=
200901151800 METAR MRPV 151800Z 09010G20KT 9999 FWE012 BKN030 23/16 A3002 RMK RN NE=
200901151900 METAR MRPV 151900Z 09010G20KT 9999 FEW012 BKN030 21/15 A3001=
200901152000 METAR MRPV 152000Z 09014G24KT 9999 FEW012 BKN030 22/16 A2999 RMK RN N NE=
200901152100 METAR MRPV 152100Z 07012G22KT 9999 SCT012 BKN030 21/15 A2998 RN N NE=
200901152200 METAR MRPV 152200Z 08012G22KT 9999 SCT012 BKN250 21/13 A2998 RN N NE=
200901152300 METAR MRPV 152300Z 09010G20KT 9999 FEW012 BKN250 21/13 A2999 RN N NE=
200901160000 METAR MRPV 160000Z NIL=
200901160100 METAR MRPV NIL=
200901160200 METAR MRPV NIL=
200901160300 METAR MRPV NIL=
200901160400 METAR MRPV NIL=
200901160500 METAR MRPV NIL=
200901160600 METAR MRPV NIL=
200901160700 METAR MRPV NIL=
200901160800 METAR MRPV NIL=
200901160900 METAR MRPV NIL=
200901161000 METAR MRPV NIL=
200901161100 METAR MRPV NIL=
200901161200 METAR MRPV 161200Z 11011KT 9999 SCT020 BKN100 18/14 A3004 RMK RN DZ NW N NE=
200901161300 METAR MRPV 161300Z 11013KT 9999 SCT020 BKN100 19/14 A3005 DZ N NE=
200901161400 METAR MRPV 161400Z 11015KT 9999 SCT025 BKN100 20/15 A3007 DZ NE=
200901161500 METAR MRPV 161500Z 11016KT 9999 SCT025 BKN100 20/15 A3009 DZ NE=
200901161600 METAR MRPV 161600Z 09018KT 9999 FEW020 SCT040 20/15 A3010 DZ N MAX=
200901161700 METAR MRPV 161700Z 08018KT 9999 FEW020 BKN040 20/15 A3009 DZ N NE=
200901161800 METAR MRPV 161800Z 07019KT 9999 SCT025 BKN100 21/15 A3007 DZ N NE MAX/=
200901161900 METAR MRPV 161900Z 08018KT 9999 SCT020 BKN100 21/15 A3005 DZ N NE MAX=
200901162000 METAR MRPV 162000Z 07018KT 9999 SCT020 BKN100 20/15 A3003 DZ N NE MAX/=
200901162100 METAR MRPV 162100Z 08015KT 9999 SCT020 BKN100 20/15 A3004 RMK DZ N NE VL MX VIENTO 22KT=
200901162200 METAR MRPV 162200Z 09014KT 9999 SCT025 OVC120 20/14 A3003 RMK DZ NE=
200901162300 METAR MRPV NIL=
200901170000 METAR MRPV 170000Z NIL=
200901170100 METAR MRPV NIL=
200901170200 METAR MRPV NIL=
200901170300 METAR MRPV NIL=
200901170400 METAR MRPV NIL=
200901170500 METAR MRPV NIL=
200901170600 METAR MRPV NIL=
200901170700 METAR MRPV NIL=
200901170800 METAR MRPV NIL=
200901170900 METAR MRPV NIL=
200901171000 METAR MRPV NIL=
200901171100 METAR MRPV NIL=
200901171200 METAR MRPV 171200Z 11011KT 9999 SCT030 SCT120 BKN250 18/13 A3007=
200901171300 METAR MRPV 171300Z 11016KT 9999 SCT030 BKN120 19/14 A3009=
200901171400 METAR MRPV 171400Z 09019KT 9999 FEW030 BKN120 21/14 A3011 RMK VL MX VIENTO 25KT=
200901171500 METAR MRPV 171500Z 10017KT 9999 FEW030 SCT120 BKN250 22/14 A3012 RMK VL MX VIENTO 24KT=
200901171600 METAR MRPV 171600Z 07018KT 9999 FEW030 SCT120 BKN250 22/14 A3012 RMK VL MX VIENTO 25KT=
200901171700 METAR MRPV 171700Z 08015KT 9999 FEW040 SCT120 BKN250 23/14 A3011 RMK VL MX VIENTO 21KT=
200901171800 METAR MRPV 171800Z 07017KT 9999 FEW040 SCT120 BKN250 22/13 A3007 RMK VL MX VIENTO 24KT=
200901171900 METAR MRPV 171900Z 07019KT 9999 FEW040 BKN120 23/14 A3006 RMK VL MX VIENTO 26KT=
200901172000 METAR MRPV 172000Z 07017KT 9999 FEW040 BKN120 22/15 A3004=
200901172100 METAR MRPV 172100Z 07020G31KT 9999 FEW040 BKN120 23/14 A3002=
200901172200 METAR MRPV 172200Z 08016KT 9999 FEW040 BKN120 22/14 A3002 VELOCIDAD MAXIMA 23NUDOS=
200901172300 METAR MRPV 172300Z 08015KT 9999 FEW040 SCT120 BKN250 21/14 A3004 VELOCIDAD MAXIMA 23 NUDOS=
200901180000 METAR MRPV NIL=
200901180100 METAR MRPV NIL=
200901180200 METAR MRPV NIL=
200901180300 METAR MRPV NIL=
200901180400 METAR MRPV NIL=
200901180500 METAR MRPV NIL=
200901180600 METAR MRPV NIL=
200901180700 METAR MRPV NIL=
200901180800 METAR MRPV NIL=
200901180900 METAR MRPV NIL=
200901181000 METAR MRPV NIL=
200901181100 METAR MRPV NIL=
200901181200 METAR MRPV 181200Z 12011KT CAVOK 18/11 A3007 TRAZAS SCT SCT270=
200901181300 METAR MRPV 181300Z 11012KT 9999 NSC 19/11 A3008 TRAZAS SCT/CI=
200901181400 METAR MRPV 181400Z 11013KT 9999 NSC 20/12 A3012 TRAZAS SCT VELOCIDAD MAXIMO DEL VIENTO 20NUDOS=
200901181500 METAR MRPV 181500Z 10015KT 9999 NSC 22/13 A3012 TRAZAS SCT/CI=
200901181600 METAR MRPV 181600Z 07018KT 9999 NSC 22/14 A3012 VELOCIDAD MAXIMA VIENTO 23 NUDOS=
200901181700 METAR MRPV 181700Z 08018KT 9999 FEW040 23/15 A3011=
200901181800 METAR MRPV 181800Z 08017KT 9999 FEW040 23/16 A3007 TRAZAS CI=
200901181900 METAR MRPV 181900Z 08019KT 9999 SCT035 23/16 A3004=
200901182000 METAR MRPV 182000Z NIL=
200901182100 METAR MRPV NIL=
200901182200 METAR MRPV 182200Z 08018KT 9999 BKN025 22/13 A3002 RMK VEL MAX WIND 24 KTS=
200901182300 METAR MRPV 182300Z 08016KT 9999 FEW020 BKN040 21/13 A3003 RMK VEL MAX=
200901182358 METAR MRPV 190000Z 08016KT 9999 BKN025 21/13 A3003=
200901190000 METAR MRPV 190000Z 08016KT 9999 BKN025 21/13 A3003=
200901190100 METAR MRPV NIL=
200901190200 METAR MRPV NIL=
200901190300 METAR MRPV NIL=
200901190400 METAR MRPV NIL=
200901190500 METAR MRPV NIL=
200901190600 METAR MRPV NIL=
200901190700 METAR MRPV NIL=
200901190800 METAR MRPV NIL=
200901190900 METAR MRPV NIL=
200901191000 METAR MRPV NIL=
200901191100 METAR MRPV NIL=
200901191200 METAR MRPV 191200Z 11010KT 9999 FEW025 SCT250 18/14 A3006 RMK VL MX VIENTO 15KT PCPN NE=
200901191300 METAR MRPV 191300Z 11010KT 9999 FEW025 20/14 A3009 RMK VEL MX VTO 15KT PCPN DST NE=
200901191400 METAR MRPV 191400Z 10010KT 9999 FEW025 SCT100 20/14 A3011 RMK PCPN DST N NE=
200901191500 METAR MRPV 191500Z 08010G20KT 9999 FEW025 SCT100 21/15 A3012 RMK PCPN DST NE=
200901191600 METAR MRPV 191600Z 08010G20KT 9999 FEW025 SCT100 23/15 A3011 RMK PCPN DST NE=
200901191700 METAR MRPV 191700Z 08010G20KT 9999 FEW025 SCT100 24/16 A3009 RMK PCPN DST NE=
200901191800 METAR MRPV 191800Z 08010G20KT FEW025 BKN100 25/16 A3006 RMK PCPN DST NE DUST APCH RNY 09=
200901191900 METAR MRPV 191900Z 08010KT 9999 FEW022 SCT120 BKN250 24/16 A3004 RMK PCPN DST NE NW=
200901192000 METAR MRPV 192000Z 08014KT 9999 SCT020 BKN250 22/16 A3002 RMK RN NE NW=
200901192100 METAR MRPV 192100Z 09015KT 9999 SCT020 BKN250 24/16 A3000 RMK RN NE=
200901192200 METAR MRPV 192200Z 09010G20KT 9999 SCT020 BKN250 23/16 A3000 RMK RN NE=
200901192300 METAR MRPV 192300Z 10010G20KT 9999 FEW020 BKN250 21/15 A3001=
200901200000 METAR MRPV 200000Z 11009KT CAVOK 28/19 A2986 RMK SCT120 SCT250=
200901200100 METAR MRPV NIL=
200901200200 METAR MRPV NIL=
200901200300 METAR MRPV NIL=
200901200400 METAR MRPV NIL=
200901200500 METAR MRPV NIL=
200901200600 METAR MRPV NIL=
200901200700 METAR MRPV NIL=
200901200800 METAR MRPV NIL=
200901200900 METAR MRPV NIL=
200901201000 METAR MRPV NIL=
200901201100 METAR MRPV NIL=
200901201200 METAR MRPV 201200Z 10010KT 9999 SCT012 BKN250 18/15 A3004 RMK RN DST NE=
200901201300 METAR MRPV 201300Z 11010KT 9999 FEW015 BKN250 19/15 A3006 RMK RN N NE=
200901201400 METAR MRPV 201400Z 09010KT 9999 FEW015 BKN250 21/15 A3009 RMK RAFAGAS 15KT RN NE=
200901201500 METAR MRPV 201500Z 10012KT 9999 FEW020 BKN250 23/16 A3009 RMK RN N NE RAFAG AS 18KT=
200901201600 METAR MRPV 201600Z 07010G20KT 9999 FEW020 BKN250 24/16 A3009 RMK RN NE=
200901201700 METAR MRPV 201700Z 08010G20KT 9999 SCT020 BKN250 25/16 A3008 RMK RN NE=
200901201800 METAR MRPV 201800Z 08012KT 9999 SCT020 BKN250 25/16 A3005 RMK RN N NE RAFAG AS 17KT=
200901201900 METAR MRPV 201900Z 08010KT 9999 SCT020 BKN250 26/16 A3001 RMK RN N NE RAFAG AS 15KT=
200901202000 METAR MRPV 202000Z 08010KT 9999 SCT018 BKN030 25/16 A2999 RMK RN N NE=
200901202100 METAR MRPV 202100Z 09012KT 9999 SCT020 BKN030 23/16 A2998 DU PIST 09 MAX/ WIND 18KT=
200901202200 METAR MRPV 202200Z 09010KT 9999 FEW020 SCT030 BKN250 22/16 A2998 RN N MAX/ WIND 15KT=
200901202300 METAR MRPV 202300Z 10010G20KT 9999 FEW012 SCT030 BKN250 21/16 A2999 RN N ESE=
200901210000 METAR MRPV 210000Z NIL=
200901210100 METAR MRPV NIL=
200901210200 METAR MRPV NIL=
200901210300 METAR MRPV NIL=
200901210400 METAR MRPV NIL=
200901210500 METAR MRPV NIL=
200901210600 METAR MRPV NIL=
200901210700 METAR MRPV NIL=
200901210800 METAR MRPV NIL=
200901210900 METAR MRPV NIL=
200901211000 METAR MRPV NIL=
200901211100 METAR MRPV NIL=
200901211200 METAR MRPV 211200Z 09012G24KT 9999 FEW010 BKN030 17/12 A3009 RMK PCPN DST N NE=
200901211300 METAR MRPV 211300Z 10010G20KT 9999 FEW010 BKN030 18/11 A3013 RN NE=
200901211400 METAR MRPV 211400Z 10010G20KT 9999 FEW010 SCT030 BKN250 20/13 A3014 RN N NE=
200901211500 METAR MRPV 211500Z 10010G20KT 9999 FEW015 SCT030 BKN250 21/13 A3015 RN NE=
200901211600 METAR MRPV 211600Z 09015G25KT 9999 FEW020 SCT090 BKN250 21/13 A3014 RN NE=
200901211700 METAR MRPV 211700Z 09015G25KT 9999 4000NE VCSH FEW016 SCT090 BKN250 22/14 A3011 DU PIST 09=
200901211800 METAR MRPV 211800Z 09015G25KT 9999 4000NE VCSH FEW016 SCT090 BKN250 22/13 A3007 DU PISTA 09=
200901211900 METAR MRPV NIL=
200901212000 METAR MRPV 212000Z 07019G29KT 9999 FEW012 SCT090 BKN250 21/14 A33003 RN NE SE=
200901212100 METAR MRPV 212100Z 08015G25KT 9999 SCT015 BKN100 20/13 A3003 RMK PCPN N NE=
200901212200 METAR MRPV 212200Z 10012G22KT 9999 4000NE VCSH SCT014 BKN100 19/14 A3003=
200901212300 METAR MRPV 212300Z 09012G22 9999 SCT010 BKN100 19/14 A3005 RMK RN N NE=
200901220000 METAR MRPV 220000Z NIL=
200901220100 METAR MRPV NIL=
200901220200 METAR MRPV NIL=
200901220300 METAR MRPV NIL=
200901220400 METAR MRPV NIL=
200901220500 METAR MRPV NIL=
200901220600 METAR MRPV NIL=
200901220700 METAR MRPV NIL=
200901220800 METAR MRPV NIL=
200901220900 METAR MRPV NIL=
200901221000 METAR MRPV NIL=
200901221100 METAR MRPV NIL=
200901221200 METAR MRPV 221200Z 12014KT 9999 SCT020 BKN250 18/14 A3006 RMK DZ NE E RAFAG AS 20KT=
200901221300 METAR MRPV NIL=
200901221400 METAR MRPV 221400Z 10015KT 9999 FEW020 20/15 A3010 RMK TRACE CI VL MX VIENTO 21KT=
200901221500 METAR MRPV 221500Z 11014KT 9999 SCT020 20/15 A3011=
200901221600 METAR MRPV 221600Z 07019KT 9999 SCT025 22/15 A3010 RMK VL MX VIENTO 26KT=
200901221700 METAR MRPV 221700Z 08020KT 9999 FEW025 23/15 A3008 RMK VL MX VIENTO 25KT=
200901221800 METAR MRPV 221800Z 08018KT 9999 SCT025 21/15 A3006=
200901221900 METAR MRPV 221900Z 09017KT 9999 SCT025 21/15 A3005=
200901222000 METAR MRPV 222000Z 09017KT 9999 BKN025 22/14 A3003=
200901222100 METAR MRPV 222100Z 10013KT 9999 BKN025 21/15 A3003=
200901222200 METAR MRPV 222200Z 10013KT 9999 BKN025 20/15 A3005=
200901222300 METAR MRPV 222300Z 11011KT 9999 SCT020 20/15 A3005 DZ NE=
200901230000 METAR MRPV NIL=
200901230100 METAR MRPV NIL=
200901230200 METAR MRPV NIL=
200901230300 METAR MRPV NIL=
200901230400 METAR MRPV NIL=
200901230500 METAR MRPV NIL=
200901230600 METAR MRPV NIL=
200901230700 METAR MRPV NIL=
200901230800 METAR MRPV NIL=
200901230900 METAR MRPV NIL=
200901231000 METAR MRPV NIL=
200901231100 METAR MRPV NIL=
200901231200 METAR MRPV 231200Z 11012KT 9999 SCT020 BKN250 20/15 A3006 DZ N NE MAX=
200901231300 METAR MRPV 231300Z 09015KT 9999 SCT020 SCT250 20/16 A3008 MAX WIND 22NUDOS=
200901231400 METAR MRPV 231400Z 10014KT 9999 SCT020 21/16 A3009 TRAZAS CI MAX WIND 22NUD OS DZ DST NE=
200901231500 METAR MRPV 231500Z 10013KT 9999 SCT020 23/17 A3010 DZ NE=
200901231600 METAR MRPV 231600Z 08018KT 9999 SCT020 23/16 A3010 DZ NE=
200901231700 METAR MRPV 231700Z 07020KT 9999 SCT030 23/16 A3007=
200901231800 METAR MRPV 231800Z 07021KT 9999 SCT020 23/16 A3006 MAX WIND 27NUDOS=
200901231900 METAR MRPV 231900Z 07019KT 9999 FEW020 24/16 A3002=
200901232000 METAR MRPV 232000Z 07020KT 9999 SCT025 24/15 A3001=
200901232100 METAR MRPV 232100Z 06018KT 9999 SCT030 24/15 A3000=
200901232200 METAR MRPV 232200Z 08017KT 9999 FEW030 24/15 A3001=
200901232300 METAR MRPV 232300Z 07017KT 9999 FEW030 23/15 A3002=
200901240000 METAR MRPV NIL=
200901240100 METAR MRPV NIL=
200901240200 METAR MRPV NIL=
200901240300 METAR MRPV NIL=
200901240400 METAR MRPV NIL=
200901240500 METAR MRPV NIL=
200901240600 METAR MRPV NIL=
200901240700 METAR MRPV NIL=
200901240800 METAR MRPV NIL=
200901240900 METAR MRPV NIL=
200901241000 METAR MRPV NIL=
200901241100 METAR MRPV NIL=
200901241200 METAR MRPV 241200Z 13009KT 9999 NSC 18/14 A3003 RMK TRACE SC CI=
200901241300 METAR MRPV 241300Z 13008KT 9999 NSC 19/14 A3004 RMK TRACE SC CI=
200901241400 METAR MRPV NIL=
200901241500 METAR MRPV 241500Z 08017KT 9999 FEW040 22/15 A3005=
200901241600 METAR MRPV 241600Z 06018KT 9999 FEW025 23/15 A3006=
200901241700 METAR MRPV 241700Z 07016KT 9999 FEW025 24/16 A3004=
200901241800 METAR MRPV 241800Z 07016KT 9999 SCT025 24/16 A3002=
200901241900 METAR MRPV 241900Z 07015KT 9999 SCT035 25/16 A2999=
200901242000 METAR MRPV 242000Z 07014KT 9999 SCT025 25/15 A2997=
200901242100 METAR MRPV 242100Z 07014KT 9999 SCT030 25/16 A2996 RMK RAFAGAS 21KT=
200901242200 METAR MRPV 242200Z 07013KT 9999 SCT030 24/17 A2996=
200901242300 METAR MRPV 242300Z 07013KT 9999 SCT030 24/17 A2996=
200901250000 METAR MRPV NIL=
200901250100 METAR MRPV NIL=
200901250200 METAR MRPV NIL=
200901250300 METAR MRPV NIL=
200901250400 METAR MRPV NIL=
200901250500 METAR MRPV NIL=
200901250600 METAR MRPV NIL=
200901250700 METAR MRPV NIL=
200901250800 METAR MRPV NIL=
200901250900 METAR MRPV NIL=
200901251000 METAR MRPV NIL=
200901251100 METAR MRPV NIL=
200901251200 METAR MRPV 251200Z 11010KT 9999 4000NE VCSH SCT010 SCT100 BKN250 20/16 A2997 RMK RN DST N=
200901251300 METAR MRPV 251300Z 11012KT 9999 4000 NE VCSH SCT010 SCT100 BKN250 20/16 A2999 RMK RN N NE=
200901251400 METAR MRPV 251400Z 10010G20KT 9999 4000NE VCSH FEW012 SCT100 BKN250 21/16 A3002 RMK RN N NE=
200901251500 METAR MRPV 251500Z 0012G22KT 9999 FEW014 SCT100 BKN250 22/16 A3002 RMK RN N NE=
200901251600 METAR MRPV 251600Z 08010G20KT 8000 3000NE DZ VCSH SCT010 BKN090 22/17 A3002=
200901251700 METAR MRPV 251700Z 09010G20KT 8000 3000NE DZ VCSH SCT010 BKN100 21/17 A3001=
200901251800 METAR MRPV 251800Z 13010KT 5000 -RA SCT010 BKN080 21/18 A2999=
200901251900 METAR MRPV 251900Z 14009KT 5000 -RA SCT010 BKN080 21/18 A2998 RMK VIENTO CRUZADO EN LA PISTA=
200901252000 METAR MRPV 252000Z 12010KT 8000 SCT012 SCT100 BKN250 21/17 A2996 RERA RMK RN N E S=
200901252100 METAR MRPV 252100Z 09012KT 9999 FEW010 SCT025 BKN250 23/17 A2994 RN N=
200901252200 METAR MRPV 252200Z 09010G20KT 9999 FEW010 SCT100 BKN250 22/16 A2994 RN N=
200901252300 METAR MRPV 252300Z 09010G20KT 9999 FEW010 SCT030 21/16 A2995 RN N=
200901260000 METAR MRPV 260000Z NIL=
200901260100 METAR MRPV NIL=
200901260200 METAR MRPV NIL=
200901260300 METAR MRPV NIL=
200901260400 METAR MRPV NIL=
200901260500 METAR MRPV NIL=
200901260600 METAR MRPV NIL=
200901260700 METAR MRPV NIL=
200901260800 METAR MRPV NIL=
200901260900 METAR MRPV NIL=
200901261000 METAR MRPV NIL=
200901261100 METAR MRPV NIL=
200901261200 METAR MRPV 261200Z 10014G24KT 9999 FEW014 19/15 A2999 PCPN DST NE=
200901261300 METAR MRPV 261300Z 10010G20KT 4000 VCSH 9999 FEW012 20/15 A2999=
200901261400 METAR MRPV 261400Z 10010G20KT 9999 FEW012 21/15 A3002 RN N=
200901261500 METAR MRPV 261500Z 09010G20KT 9999 SCT022 22/15 A3003 RN N=
200901261600 METAR MRPV 261600Z 08013G23KT 9999 SCT012 22/16 A3003 RN N=
200901261700 METAR MRPV 261700Z 07011G21KT 9999 SCT020 24/15 A3001 RN N=
200901261800 METAR MRPV 261800Z 08015G25KT 9999 SCT020 25/15 A2998 RN N=
200901261900 METAR MRPV 261900Z 08018G28KT 9999 SCT020 25/15 A2997 RN N NE=
200901262000 METAR MRPV 262000Z 07018G28KT 9999 SCT020 24/1 A2995 RN N NE=
200901262100 METAR MRPV 262100Z 07016G26KT 9999 SCT020 23/15 A2993 RMK DZ NE=
200901262200 METAR MRPV 262200Z 07015G25KT 9999 SCT020 23/14 A2994 RMK RN NE=
200901262300 METAR MRPV 262300Z 07015G25 9999 FEW020 22/13 A2995 RMK PCPN NE=
200901270000 METAR MRPV 270000Z NIL=
200901270100 METAR MRPV NIL=
200901270200 METAR MRPV NIL=
200901270300 METAR MRPV NIL=
200901270400 METAR MRPV NIL=
200901270500 METAR MRPV NIL=
200901270600 METAR MRPV NIL=
200901270700 METAR MRPV NIL=
200901270800 METAR MRPV NIL=
200901270900 METAR MRPV NIL=
200901271000 METAR MRPV NIL=
200901271100 METAR MRPV NIL=
200901271200 METAR MRPV 271200Z 12010G20KT 9999 NSC 18/14 A3001 RMK TRACE SC=
200901271300 METAR MRPV 271300Z 11010G20KT 9999 NSC 20/14 A3003 RMK TRACE SC=
200901271400 METAR MRPV 271400Z 09011KT 9999 FEW020 21/14 A3004 RMK RN DST NE=
200901271500 METAR MRPV 271500Z 08013G23KT 9999 FEW020 23/14 A3004 RMK RN NE=
200901271600 METAR MRPV 271600Z 08015G25KT 9999 FEW020 24/13 A3003=
200901271700 METAR MRPV 271700Z 08015G25KT 9999 FEW020 25/13 A3000=
200901271800 METAR MRPV 271800Z 07015G25 FEW025 25/15 A2998 RMK RN NE=
200901271900 METAR MRPV 271900Z 07015G25KT 9999 FEW025 26/15 A2996 RMK RN NE=
200901272000 METAR MRPV 272000Z 08012KT 9999 FEW025 26/15 A2993 RMK RN NE=
200901272100 METAR MRPV 272100Z 07013G23KT 9999 FEW020 25/15 A2992=
200901272200 METAR MRPV 272200Z 07013G23KT 9999 FEW020 24/16 A2992 RN N/NE=
200901272300 METAR MRPV 272300Z 07012G22KT 9999 FEW020 22/15 A2992 RN N/NE=
200901280000 METAR MRPV NIL=
200901280100 METAR MRPV NIL=
200901280200 METAR MRPV NIL=
200901280300 METAR MRPV NIL=
200901280400 METAR MRPV NIL=
200901280500 METAR MRPV NIL=
200901280600 METAR MRPV NIL=
200901280700 METAR MRPV NIL=
200901280800 METAR MRPV NIL=
200901280900 METAR MRPV NIL=
200901281000 METAR MRPV NIL=
200901281100 METAR MRPV NIL=
200901281200 METAR MRPV 281200Z 10011KT 9999 FEW030 SCT250 19/15 A3000=
200901281300 METAR MRPV 281300Z 11012KT 9999 SCT030 20/15 A3002=
200901281400 METAR MRPV 281400Z 09014KT 9999 SCT025 20/15 A3004=
200901281500 METAR MRPV 281500Z 08017KT 9999 SCT030 23/15 A3003=
200901281600 METAR MRPV 281600Z 07018KT 9999 SCT030 23/16 A3002=
200901281700 METAR MRPV 281700Z 08019KT 9999 SCT025 24/16 A3001 VELOCIDAD MAX VIENTO 26N UDOS=
200901281800 METAR MRPV 281800Z 09016KT 9999 SCT025 25/16 A2999=
200901281900 METAR MRPV 281900Z 08017KT 9999 SCT025 25/16 A2997=
200901282000 METAR MRPV 282000Z 09018KT 9999 BKN020 25/14 A2996 RMK VEL WIND MAX 24 KTS TCU SW=
200901282100 METAR MRPV 282100Z 08017KT 9999 SCT040 SCT100 24/15 A2996=
200901282200 METAR MRPV 282200Z 12011KT 9999 SCT040 24/16 A2997=
200901282300 METAR MRPV 282300Z 10010KT 9999 SCT040 SCT100 24/15 A2998=
200901290000 METAR MRPV NIL=
200901290100 METAR MRPV NIL=
200901290200 METAR MRPV NIL=
200901290300 METAR MRPV NIL=
200901290400 METAR MRPV NIL=
200901290500 METAR MRPV NIL=
200901290600 METAR MRPV NIL=
200901290700 METAR MRPV NIL=
200901290800 METAR MRPV NIL=
200901290900 METAR MRPV NIL=
200901291000 METAR MRPV NIL=
200901291100 METAR MRPV NIL=
200901291200 METAR MRPV 291200Z 11010KT 9999 FEW025 19/15 A3000=
200901291300 METAR MRPV 291300Z 11013KT 9999 FEW020 20/15 A3002=
200901291400 METAR MRPV 291400Z 11013KT 9999 FEW025 21/16 A3003=
200901291500 METAR MRPV 291500Z 08017KT 9999 FEW030 22/16 A3003=
200901291600 METAR MRPV 291600Z 07014KT 9999 SCT030 23/16 A3002=
200901291700 METAR MRPV 291700Z 10013KT 9999 BKN025 24/16 A3001=
200901291800 METAR MRPV 291800Z 10012KT 9999 BKN025 24/17 A2999=
200901291900 METAR MRPV 291900Z 08017KT 9999 SCT020 BKN040 26/17 A2995=
200901292000 METAR MRPV 292000Z 08015KT 9999 FEW020 SCT040 26/17 A2994=
200901292100 METAR MRPV 292100Z 09015KT 9999 FEW025 SCT040 25/17 A2993=
200901292200 METAR MRPV 292200Z 07016KT 9999 SCT040 SCT100 24/17 A2995=
200901292300 METAR MRPV 292300Z 08014KT 9999 SCT030 23/17 A2998=
200901300000 METAR MRPV NIL=
200901300100 METAR MRPV NIL=
200901300200 METAR MRPV NIL=
200901300300 METAR MRPV NIL=
200901300400 METAR MRPV NIL=
200901300500 METAR MRPV NIL=
200901300600 METAR MRPV NIL=
200901300700 METAR MRPV NIL=
200901300800 METAR MRPV NIL=
200901300900 METAR MRPV NIL=
200901301000 METAR MRPV NIL=
200901301100 METAR MRPV NIL=
200901301200 METAR MRPV 301200Z 11012KT 9999 FEW020 19/14 A3004=
200901301300 METAR MRPV 301300Z 11011KT 9999 FEW020 20/15 A3005=
200901301400 METAR MRPV 301400Z 10013KT 9999 FEW030 21/14 A3007=
200901301500 METAR MRPV 301500Z 09018KT 9999 NSC 22/14 A3006 RMK TRACE SC=
200901301600 METAR MRPV 301600Z 08016KT 9999 NSC 24/14 A3006 RMK TRACE SC=
200901301700 METAR MRPV 301700Z 07016KT 9999 FEW040 25/14 A3004=
200901301800 METAR MRPV 301800Z 07015KT 9999 FEW040 26714 A3001=
200901301900 METAR MRPV 301900Z 07013KT 9999 FEW040 27/14 A2999=
200901302000 METAR MRPV 302000Z 08015KT 9999 FEW030 26/16 A2998=
200901302100 METAR MRPV 302100Z 07014KT 9999 SCT040 26/16 A2997=
200901302200 METAR MRPV 302200Z 08015KT 9999 SCT040 25/16 A2998=
200901302300 METAR MRPV 302300Z 08015KT 9999 FEW040 24/15 A3000=
200901310000 METAR MRPV 310000Z NIL=
200901310100 METAR MRPV NIL=
200901310200 METAR MRPV NIL=
200901310300 METAR MRPV NIL=
200901310400 METAR MRPV NIL=
200901310500 METAR MRPV NIL=
200901310600 METAR MRPV NIL=
200901310700 METAR MRPV NIL=
200901310800 METAR MRPV NIL=
200901310900 METAR MRPV NIL=
200901311000 METAR MRPV NIL=
200901311100 METAR MRPV NIL=
200901311200 METAR MRPV 311200Z 09012G22KT 9999 FEW020 19/15 A3005 RMK PCPN DST NE=
200901311300 METAR MRPV 311300Z 10011G21KT 9999 FEW022 20/15 A3006 RN NE=
200901311400 METAR MRPV 311400Z 07015G25KT 9999 FEW022 21/15 A3007=
200901311500 METAR MRPV 311500Z 08015G25KT 9999 FEW022 23/15 A3007=
200901311600 METAR MRPV 311600Z 08012G22KT 9999 FEW022 25/14 A3005=
200901311700 METAR MRPV 311700Z 08013G23KT 9999 SCT022 24/16 A3004 RN N NE=
200901311800 METAR MRPV 311800Z 09012G22KT 9999 BKN030 23/16 A3002 RN N NE=
200901311900 METAR MRPV 311900Z 08017G27KT 9999 SCT030 24/16 A2999 RN NE=
200901312000 METAR MRPV 312000Z 08014G24KT 9999 BKN025 24/16 A2997 RN NE=
200901312100 METAR MRPV 312100Z 09013G23KT 9999 BKN025 24/16 A2998 RMK PCPN NE=
200901312200 METAR MRPV 312200Z 07013G23KT 9999 BKN022 22/16 A2996 RMK PCPN NE NW=
200901312300 METAR MRPV 312300Z 07013G23KT 9999 BKN022 21/15 A2980 RMK PCPN NE NW=
200902010000 METAR MRPV NIL=
200902010100 METAR MRPV NIL=
200902010200 METAR MRPV NIL=
200902010300 METAR MRPV NIL=
200902010400 METAR MRPV NIL=
200902010500 METAR MRPV NIL=
200902010600 METAR MRPV NIL=
200902010700 METAR MRPV NIL=
200902010800 METAR MRPV NIL=
200902010900 METAR MRPV NIL=
200902011000 METAR MRPV NIL=
200902011100 METAR MRPV NIL=
200902011200 METAR MRPV 011200Z 10010G20KT CAVOK 19/13 A3000 RMK BKN250=
200902011300 METAR MRPV 011300Z 10017G27KT CAVOK 20/13 A3002 RMK TRACE SC BKN250=
200902011400 METAR MRPV 011400Z 09019G29KT CAVOK 21/13 A3002 RMK TRACE SC BKN250=
200902011500 METAR MRPV 011500Z 08015G25KT CAVOK 2/13 A3004 RMK TRACE SC SCT250=
200902011600 METAR MRPV 011600Z 07015G25KT CAVOK 23/19 A3003 RMK TRACE SC SCT250=
200902011700 METAR MRPV 011700Z 07016G26KT 999 FEW024 SCT250 23/14 A3001=
200902011800 METAR MRPV 011800Z 06016G26KT 9999 FEW024 SCT250 24/13 A2999=
200902011900 METAR MRPV 011900Z 06015G25KT 9999 FEW022 SCT250 25/23 A2997=
200902012000 METAR MRPV 012000Z 07015G25KT 9999 FEW022 SCT250 25/13 A2993=
200902012100 METAR MRPV 012100Z 07010G20KT 9999 FEW022 SCT250 25/13 A2991 RN NE=
200902012200 METAR MRPV 012200Z 07011G21KT 9999 FEW022 SCT250 24/13 A2992=
200902012300 METAR MRPV 012300Z 08013G23KT 9999 SCT022 23/13 A2993=
200902020000 METAR MRPV NIL=
200902020100 METAR MRPV NIL=
200902020200 METAR MRPV NIL=
200902020300 METAR MRPV NIL=
200902020400 METAR MRPV NIL=
200902020500 METAR MRPV NIL=
200902020600 METAR MRPV NIL=
200902020700 METAR MRPV NIL=
200902020800 METAR MRPV NIL=
200902020900 METAR MRPV NIL=
200902021000 METAR MRPV NIL=
200902021100 METAR MRPV NIL=
200902021200 METAR MRPV 021200Z 13007KT 999 SKC 17/10 A2997=
200902021300 METAR MRPV 021300Z 12009KT 9999 SKC 19/10 A2999 VIENTO MAX 16NUDOS=
200902021400 METAR MRPV 021400Z 12009KT 9999 SKC 21/11 A3000=
200902021500 METAR MRPV 021500Z 07011KT 9999 NSC 24/10 A3001 TRAZAS SCT VIENTO MAX 16NUDO S=
200902021600 METAR MRPV 021600Z 10010KT 9999 NSC 25/12 A3000 TRAZAS SCT=
200902021700 METAR MRPV 021700Z 10010KT 9999 NSC 27/13 A2998 TRAZAS SCT=
200902021800 METAR MRPV 021800Z 08010G20KT 9999 NSC 27/14 A2994 TRAZAS SCT=
200902021900 METAR MRPV 021900Z 07011G21KT 9999 FEW025 26/15 A2992=
200902022000 METAR MRPV 022000Z 09018KT 9999 FEW030 25/16 A2991 FEW CI=
200902022100 METAR MRPV 022100Z 08014G24KT 9999 FEW030 25/16 A2990=
200902022200 METAR MRPV 022200Z 08013G23KT 9999 FEW030 24/16 A2991 RMK RN DST NE=
200902022300 METAR MRPV 022300Z 07011G21KT 9999 FEW030 23/16 A2993 RMK PCPN DST NE=
200902030000 METAR MRPV NIL=
200902030100 METAR MRPV NIL=
200902030200 METAR MRPV NIL=
200902030300 METAR MRPV NIL=
200902030400 METAR MRPV NIL=
200902030500 METAR MRPV NIL=
200902030600 METAR MRPV NIL=
200902030700 METAR MRPV NIL=
200902030800 METAR MRPV NIL=
200902030900 METAR MRPV NIL=
200902031000 METAR MRPV NIL=
200902031100 METAR MRPV NIL=
200902031200 METAR MRPV 031200Z 11009KT 9999 SCT020 SCT250 20/16 A2997 RMK VL MX VIENTO 14KT DZ DST N NE TRACE AC=
200902031300 METAR MRPV 031300Z 11010KT 9999 SCT025 SCT250 21/16 A2999 RMK VEL MAX VTO 16KT DZ DST N NE E=
200902031400 METAR MRPV 031400Z 10014KT 9999 SCT025 22/16 A3000 RMK VEL MAX VTO 23KT=
200902031500 METAR MRPV 031500Z 09017KT 9999 SCT025 23/17 A3002 RMK VEL MAX VTO 23KT=
200902031600 METAR MRPV 031600Z 09016KT 9999 SCT025 BKN100 24/16 A3001 RMK DZ N NE=
200902031700 METAR MRPV 031700Z 09014KT 9999 SCT020 BKN100 24/17 A3000 RMK DZ N NW N NE=
200902031800 METAR MRPV 031800Z 08020KT 9999 SCT020 BKN100 24/16 A2999 RMK DZ DST N NE=
200902031900 METAR MRPV 031900Z 07016KT 9999 SCT020 BKN100 24/15 A2996 RMK DZ DST NE=
200902032000 METAR MRPV 032000Z 08019KT 9999 SCT025 BKN100 25/16 A2993=
200902032100 METAR MRPV 032100Z 08021KT 9999 SCT030 SCT100 24/15 A2992=
200902032200 METAR MRPV 032200Z 09016KT 9999 SCT025 BKN100 23/16 A2994 RMK DZ NE=
200902032300 METAR MRPV 032300Z 09017KT 9999 SCT020 BKN100 21/16 A2995 RMK DZ N NE=
200902040000 METAR MRPV NIL=
200902040100 METAR MRPV NIL=
200902040200 METAR MRPV NIL=
200902040300 METAR MRPV NIL=
200902040400 METAR MRPV NIL=
200902040500 METAR MRPV NIL=
200902040600 METAR MRPV NIL=
200902040700 METAR MRPV NIL=
200902040800 METAR MRPV NIL=
200902040900 METAR MRPV NIL=
200902041000 METAR MRPV NIL=
200902041100 METAR MRPV NIL=
200902041200 METAR MRPV 041200Z 10015G26KT 9999 -DZ SCT025 SCT250 18/14 A3004 VIS NE 6KM S DUE DZ MODERADA=
200902041300 METAR MRPV 041300Z 11014KT 9999 DZ SCT020 19/15 A3005 RMK VIS NE 6000 DUE DZ MODERADA RAFAGAS 21KT=
200902041400 METAR MRPV 041400Z 11013KT 9999 -DZ SCT025 20/15 A3007 RMK VIS NE E 6000 DUE DZ RAFAGAS 20KT=
200902041500 METAR MRPV 041500Z 10015KT 9999 SCT020 22/16 A3008 REDZ RMK DZ NW N NE E VIS NE E 6000MTS=
200902041600 METAR MRPV 041600Z 10018KT 9999 FEW020 SCT040 22/16 A3008 RMK DZ NW N NE E SE VIS NE E 6000MTS RAFAGAS 25KT=
200902041700 METAR MRPV 041700Z 09010G20KT 9999 FEW020 BKN035 22/16 A3007 RMK DZ NW N NE E SE NE E 6000MTS=
200902041800 METAR MRPV 041800Z 09023KT 9999 SCT020 BKN040 23/16 A3005 RMK RN NW N NE VIS NE 6000MTS=
200902041900 METAR MRPV 041900Z 09022KT 9999 4000NE -DZ SCT020 BKN040 23/16 A3004 RAFAGA S 30KT=
200902042000 METAR MRPV 042000Z 08022G32 9999 3000NE -RA SCT020 BKN040 20/16 A3003=
200902042100 METAR MRPV 042100Z 07020G30KT 9999 4000NE -RA SCT020 BKN035 20/15 A3002=
200902042200 METAR MRPV 042200Z 08021KT 9999 4000N DZ SCT020 BKN040 20/15 A3001=
200902042300 METAR MRPV 042300Z 08028G38KT 9999 SCT020 BKN100 20/14 A3001 RN NW N NE VSBY 5KM=
200902050000 METAR MRPV 050000Z NIL=
200902050100 METAR MRPV NIL=
200902050200 METAR MRPV NIL=
200902050300 METAR MRPV NIL=
200902050400 METAR MRPV NIL=
200902050500 METAR MRPV NIL=
200902050600 METAR MRPV NIL=
200902050700 METAR MRPV NIL=
200902050800 METAR MRPV NIL=
200902050900 METAR MRPV NIL=
200902051000 METAR MRPV NIL=
200902051100 METAR MRPV NIL=
200902051200 METAR MRPV 051200Z 10015KT 9999 FEW025 SCT120 19/15 A3004 VIS NE 6KMS DUE RN VEL MX VTO 22KT DZ DST NW N E=
200902051300 METAR MRPV 051300Z 09019G29KT 9999 FEW025 SCT130 20/15 A3003 VSBY NE 8KM DUE RN DZ NW N NE=
200902051400 METAR MRPV 051400Z 11016KT 9999 SCT025 20/15 A3006 VSBY NE E 6KM DUE RN DZ NW N SE MAX/ WIND 24KT=
200902051500 METAR MRPV 051500Z 09020KT 9999 SCT025 21/15 A3008KT RN NW N NE E VSBY NE 6KM=
200902051600 METAR MRPV 051600Z 07022G32KT 9999 SCT020 22/15 A3009 RN NW N NE=
200902051700 METAR MRPV 051700Z 09021KT 9999 SCT020 22/15 A3009 DZ N NE E MAX/ WIND 28KT=
200902051800 METAR MRPV 051800Z 09023KT 9999 -DZ SCT025 22/15 A3005 VSBY NE 6KM DUE RN MAX/WIND 35KT=
200902051900 METAR MRPV 051900Z 10021KT 9999 SCT020 23/16 A3004 DZ N NE E MAX WIND 29KT=
200902052000 METAR MRPV 052000Z 09021KT 9999 SCT030 22/16 A3003 RN NW N NE E=
200902052100 METAR MRPV 052100Z 09020G31KT 9999 SCT020 21/15 A3000 RMK PCPN NW N NE E=
200902052200 METAR MRPV 052200Z 08023KT 9999 SCT020 20/15 A3002 RMK VL MX VIENTO 30KT DZ N NE E=
200902052300 METAR MRPV 052300Z 09020G30KT 9999 SCT020 20/15 A3002 RMK DZ N NE E=
200902052330 METAR MRPV 052330Z 10019KT 9999 SCT020 19/14 A3003 RMK DZ N NE E VL MX VIENTO 27KT=
200902060000 METAR MRPV NIL=
200902060100 METAR MRPV NIL=
200902060200 METAR MRPV NIL=
200902060300 METAR MRPV NIL=
200902060400 METAR MRPV NIL=
200902060500 METAR MRPV NIL=
200902060600 METAR MRPV NIL=
200902060700 METAR MRPV NIL=
200902060800 METAR MRPV NIL=
200902060900 METAR MRPV NIL=
200902061000 METAR MRPV NIL=
200902061100 METAR MRPV NIL=
200902061200 METAR MRPV 061200Z 10021G31KT 9999 FEW030 SCT250 17/13 A3006 RMK FEW120 DZ NW N NE E=
200902061300 METAR MRPV 061300Z 10020KT 9999 FEW030 SCT120 17/13 A3006 RMK DZ DST NW N NE E VL MX VIENTO 28KT TRACE CI=
200902061400 METAR MRPV 061400Z 11019G29KT 9999 FEW025 SCT120 19/13 A3008=
200902061500 METAR MRPV 061500Z 10019G29KT 9999 FEW025 SCT120 20/14 A3009 RMK DZ N NE=
200902061600 METAR MRPV 061600Z 08020G30KT 9999 SCT022 1/14 A3007 RMK FEW120 PCPN N NE E=
200902061700 METAR MRPV 061700Z 08025G35KT 9999 SCT022 22/15 A3006 RMK PCPN N NE E=
200902061800 METAR MRPV 061800Z 09025G35KT 9999 SCT020 22/14 A3005 RMK PCPN N NE=
200902061900 METAR MRPV 061900Z 08020G30KT 9999 SCT020 22/15 A3003 RMK PCPN N NE E=
200902062000 METAR MRPV 062000Z 09020G30KT 9999 SCT020 22/15 A3000 RMK PCPN N NE E=
200902062100 METAR MRPV 062100Z 07021G31KT 9999 SCT020 21/14 A2999 RN DST N=
200902062200 METAR MRPV 062200Z 09024G34KT 9999 SCT020 21/15 A2999 RN N/NE/E=
200902062300 METAR MRPV 062300Z 10020G30KT 9999 SCT020 20/14 A3001 RN DST N=
200902070000 METAR MRPV NIL=
200902070100 METAR MRPV NIL=
200902070200 METAR MRPV NIL=
200902070300 METAR MRPV NIL=
200902070400 METAR MRPV NIL=
200902070500 METAR MRPV NIL=
200902070600 METAR MRPV NIL=
200902070700 METAR MRPV NIL=
200902070800 METAR MRPV NIL=
200902070900 METAR MRPV NIL=
200902071000 METAR MRPV NIL=
200902071100 METAR MRPV NIL=
200902071200 METAR MRPV 071200Z 10019G29KT 9999 SCT022 BKN250 18/14 A3003 RN N E=
200902071300 METAR MRPV 071300Z 10019G29KT 9999 SCT022 18/14 A3005 RN DST N/E=
200902071400 METAR MRPV 071400Z 10020G30KT 9999 SCT022 19/14 A3006 RN N/E=
200902071500 METAR MRPV 071500Z 10020G30KT 9999 SCT020 20/14 A3007 RN DST N/E=
200902071600 METAR MRPV 071600Z 10021G31KT 9999 SCT020 21/15 A3007 RN DST N=
200902071700 METAR MRPV 071700Z 10020G30KT 9999 SCT020 21/15 A3006 RN DST N=
200902071800 METAR MRPV 071800Z 10020G30KT 9999 SCT020 23/14 A3006 RN DST N/E=
200902071900 METAR MRPV 071900Z 09016G26KT 9999 SCT020 23/15 A3002 RN DST N=
200902072000 METAR MRPV 072000Z 08016G26KT 9999 SCT020 24/16 A2998 RN DST N=
200902072100 METAR MRPV 072100Z 08014G24KT 9999 SCT020 23/15 A2997 PCPN DST N=
200902072200 METAR MRPV 072200Z 08019G29KT 9999 SCT020 22/16 A2996 RMK PCPN DST N E QDS=
200902072300 METAR MRPV 072300Z 09016G26KT 9999 SCT018 21/15 A2998 RMK PCPN DST N E=
200902080000 METAR MRPV NIL=
200902080100 METAR MRPV NIL=
200902080200 METAR MRPV NIL=
200902080300 METAR MRPV NIL=
200902080400 METAR MRPV NIL=
200902080500 METAR MRPV NIL=
200902080600 METAR MRPV NIL=
200902080700 METAR MRPV NIL=
200902080800 METAR MRPV NIL=
200902080900 METAR MRPV NIL=
200902081000 METAR MRPV NIL=
200902081100 METAR MRPV NIL=
200902081200 METAR MRPV 081200Z 12014G24KT 9999 SCT020 19/14 A3000 RMK PCPN N NE=
200902081300 METAR MRPV 081300Z 11012G22KT 9999 SCT020 20/14 A3005 RMK PCPN DST N NE E=
200902081400 METAR MRPV 081400Z 09012G22KT 9999 SCT020 22/15 A3004 RMK PCPN DST N NE E=
200902081500 METAR MRPV 081500Z 09014G24KT 9999 FEW016 22/16 A3004 RMK PCPN DST N NE=
200902081600 METAR MRPV 081600Z 08015G25KT 9999 FEW014 23/16 A3004 PCN DST N NE=
200902081700 METAR MRPV 081700Z 08016G26KT 9999 FEW015 24/16 A3002 RMK PCPN DST N NE E=
200902081800 METAR MRPV 081800Z 09013G23KT 9999 FEW016 26/16 A3001 PCPN DST N NE=
200902081900 METAR MRPV 081900Z 07014G24KT 9999 FEW016 25/16 A2999=
200902082000 METAR MRPV 082000Z 08016G26KT 9999 FEW016 25/17 A2995 RMK PCPN DST N NE=
200902082100 METAR MRPV 082100Z 07015G25KT 9999 FEW016 29/16 A2994 RMK RN N NE=
200902082200 METAR MRPV 082200Z 07018G28KT 9999 FEW016 22/17 A2995 RMK RN N NE E=
200902082300 METAR MRPV 082300Z 08015G25KT 9999 SCT015 22/15 A2996 RMK RN NE E=
200902090000 METAR MRPV NIL=
200902090100 METAR MRPV NIL=
200902090200 METAR MRPV NIL=
200902090300 METAR MRPV NIL=
200902090400 METAR MRPV NIL=
200902090500 METAR MRPV NIL=
200902090600 METAR MRPV NIL=
200902090700 METAR MRPV NIL=
200902090800 METAR MRPV NIL=
200902090900 METAR MRPV NIL=
200902091000 METAR MRPV NIL=
200902091100 METAR MRPV NIL=
200902091200 METAR MRPV 091200Z 09016G26KT CAVOK 19/14 A3001 TRAZAS SCT BKN250=
200902091300 METAR MRPV 091300Z 10018KT CAVOK 20/14 TRACE CU SCT BKN250 RAFAGAS 23KT=
200902091400 METAR MRPV 091400Z 08023KT CAVOK 21/13 A3004 RMK TRACE CU SC BKN250 RAFAGAS 28KT=
200902091500 METAR MRPV 091500Z 07020KT CAVOK 22/14 A3005 RMK TRACE CU SC BKN250 RAFAGAS 27KT=
200902091600 METAR MRPV 091600Z 08020KT 9999 FEW040 BKN250 23/14 A3004 RMK RAFAGAS 29KT=
200902091700 METAR MRPV 091700Z 08021KT 9999 FEW040 BKN250 24/14 A3002=
200902091800 METAR MRPV 091800Z 07018KT 9999 FEW040 BKN250 24/15 A2999 RAFAGAS 25KT=
200902091900 METAR MRPV 091900Z 06017KT 9999 SCT035 BKN250 25715 A2998 RMK RAFAFGAS 24KT=
200902092000 METAR MRPV 092000Z 06018KT 9999 SCT035 BKN250 25/15 A2996=
200902092100 METAR MRPV 092100Z 06016KT 9999 SCT030 BKN250 24/15 A2994 DZ NE=
200902092200 METAR MRPV 092200Z 06018G28KT 9999 SCT030 SCT250 23/14 A2994=
200902092300 METAR MRPV NIL=
200902100000 METAR MRPV 100000Z NIL=
200902100100 METAR MRPV NIL=
200902100200 METAR MRPV NIL=
200902100300 METAR MRPV NIL=
200902100400 METAR MRPV NIL=
200902100500 METAR MRPV NIL=
200902100600 METAR MRPV NIL=
200902100700 METAR MRPV NIL=
200902100800 METAR MRPV NIL=
200902100900 METAR MRPV NIL=
200902101000 METAR MRPV NIL=
200902101100 METAR MRPV NIL=
200902101200 METAR MRPV 101200Z 12012KT CAVOK 18/13 A3001 TRACE SCT SCT250=
200902101300 METAR MRPV 101300Z 12013KT 9999 FEW035 19/13 A3002 TRACE CI=
200902101400 METAR MRPV 101400Z 11015KT 9999 FEW035 21/14 A3003=
200902101500 METAR MRPV 101500Z 08017KT 9999 FEW030 21/14 A3004=
200902101600 METAR MRPV 101600Z 08017KT 9999 FEW030 23/14 A3003=
200902101700 METAR MRPV 101700Z 07017KT 9999 SCT030 23/14 A3002=
200902101800 METAR MRPV 101800Z 07018KT 9999 SCT030 23/13 A3001=
200902101900 METAR MRPV 101900Z 07018KT 9999 SCT030 24/14 A2998 RM VEL MAX VIENTO 24 KTS=
200902102000 METAR MRPV 102000Z 07018KT 9999 SCT030 24/14 A2995 RMK VEL MAX WIND 26 KTS=
200902102100 METAR MRPV 102100Z 08018KT 9999 SCT030 23/13 A2994 RMK VL MX VIENTO 24KT=
200902102200 METAR MRPV 102200Z 08018KT 9999 SCT030 23/13 A2994=
200902102300 METAR MRPV 102300Z 09016KT 9999 SCT035 22/13 A2995=
200902110000 METAR MRPV 110000Z NIL=
200902110100 METAR MRPV NIL=
200902110200 METAR MRPV NIL=
200902110300 METAR MRPV NIL=
200902110400 METAR MRPV NIL=
200902110500 METAR MRPV NIL=
200902110600 METAR MRPV NIL=
200902110700 METAR MRPV NIL=
200902110800 METAR MRPV NIL=
200902110900 METAR MRPV NIL=
200902111000 METAR MRPV NIL=
200902111100 METAR MRPV NIL=
200902111200 METAR MRPV 111200Z 12011KT 9999 SKC 19/12 A2999=
200902111300 METAR MRPV 111300Z 12011KT 9999 NSC 20/12 A3000 RMK TRACE CU SC=
200902111400 METAR MRPV 111400Z 11011KT 9999 NSC 22/13 A3002 RM TRACE CU SCT=
200902111500 METAR MRPV 111500Z 09014KT 9999 NSC 24/23 A3003 RMK TRACE SC=
200902111600 METAR MRPV 111600Z 08014KT 9999 NSC 25/13 A3002 RMK TRACE SC=
200902111700 METAR MRPV 111700Z 0801KT 9999 NSC 26/14 A3000 RMK TRACE SC=
200902111800 METAR MRPV 111800Z 08014KT 999 NSC 26/15 A2998 RMK TRACE SC=
200902111900 METAR MRPV 111900Z 08016KT 9999 NSC 26/16 A2997 RMK TRACE CU SC=
200902112000 METAR MRPV 112000Z 07016KT 9999 FEW040 26/16 A2995=
200902112100 METAR MRPV 112100Z 07016KT 9999 SCT040 26/16 A2994=
200902112200 METAR MRPV 112200Z 09016KT 9999 SCT025 24/16 A2994=
200902112300 METAR MRPV 112300Z 09015KT 9999 SCT025 24/17 A2997=
200902120000 METAR MRPV NIL=
200902120100 METAR MRPV NIL=
200902120200 METAR MRPV NIL=
200902120300 METAR MRPV NIL=
200902120400 METAR MRPV NIL=
200902120500 METAR MRPV NIL=
200902120600 METAR MRPV NIL=
200902120700 METAR MRPV NIL=
200902120800 METAR MRPV NIL=
200902120900 METAR MRPV NIL=
200902121000 METAR MRPV NIL=
200902121100 METAR MRPV NIL=
200902121200 METAR MRPV 121200Z 09017KT 9999 NSC 20/16 A2999 RAZAS SCT CI MAX/ WIND 22KT=
200902121300 METAR MRPV 121300Z 09018KT 9999 NSC 21/16 A3000 TRAZAS CU/SC/CI VEL/MAX WIN D 23NUDOS=
200902121400 METAR MRPV 121400Z 08018KT 9999 FEW030 BKN250 21/16 A3002 VEL/MAX WIND 23NU DOS=
200902121500 METAR MRPV 121500Z 09017KT 9999 FEW025 BKN250 23/16 A3003 RN DST NE VEL/MAX WIND 22NUDOS=
200902121600 METAR MRPV 121600Z 07016G26KT 9999 FEW025 BKN250 24/16 A3003 RN NE=
200902121700 METAR MRPV 121700Z 08016G26KT 9999 FEW025 BKN250 24/16 A3003 RN NE=
200902121800 METAR MRPV 121800Z 07019KT 9999 FEW025 BKN250 25/16 A3001 RN NE VEL/MAX/WIN D 27NUDOS=
200902121900 METAR MRPV 121900Z 08015G25KT 9999 FEW025 BKN250 25/16 A2999 RN NE=
200902122000 METAR MRPV 122000Z 08015G25KT 9999 FEW025 BKN250 24/16 A2997 RN NE=
200902122100 METAR MRPV 122100Z 08015G25KT 9999 FEW025 BKN250 24/17 A2997 RMK PCPN DST N E=
200902122200 METAR MRPV 122200Z 13G23KT 9999 FEW025 SCT100 BKN250 22/16 A2996 RMK RN DST NE=
200902122201 METAR MRPV 122201Z 08013G23KT 9999 FEW025 SCT100 BKN250 22/16 A2996 RMK RN DST NE=
200902122300 METAR MRPV 122300Z 09012G22KT 9999 FEW020 BKN100 22/16 A2996 RMK RN NE=
200902130000 METAR MRPV NIL=
200902130100 METAR MRPV NIL=
200902130200 METAR MRPV NIL=
200902130300 METAR MRPV NIL=
200902130400 METAR MRPV NIL=
200902130500 METAR MRPV NIL=
200902130600 METAR MRPV NIL=
200902130700 METAR MRPV NIL=
200902130800 METAR MRPV NIL=
200902130900 METAR MRPV NIL=
200902131000 METAR MRPV NIL=
200902131100 METAR MRPV NIL=
200902131200 METAR MRPV 131200Z 10012KT 9999 FEW020 19/15 A3001 RMK TRACE AC CI VL MX VIENTO 18KT=
200902131300 METAR MRPV 131300Z 11011KT 9999 FEW025 SCT250 19/15 A3003 RMK TRACE AC VEL MAX VTO 17KT=
200902131400 METAR MRPV 131400Z 11013KT 9999 NSC 21/15 A3004 RMK TRACE SC AC CC VEL MAX VTO 20KT=
200902131500 METAR MRPV 131500Z 08018KT 9999 NSC 23/15 A3005 RMK TRACE SC AC VEL MAX VTO 25KT=
200902131600 METAR MRPV 131600Z 07015G25KT 9999 FEW025 24/14 A3004=
200902131700 METAR MRPV 131700Z 07013G23KT 9999 FEW025 25/14 A3002=
200902131800 METAR MRPV 131800Z 07013G23KT 9999 FEW025 26/14 A3000=
200902131900 METAR MRPV 131900Z 07013G23KT 9999 FEW025 26/15 A2998=
200902132000 METAR MRPV 132000Z 07013G23KT 9999 FEW025 27/14 A2995=
200902132100 METAR MRPV 132100Z 07013G23KT 9999 FEW025 26/16 A2993=
200902132200 METAR MRPV 132200Z 07010G20KT 9999 FEW022 25/15 A2992=
200902132300 METAR MRPV 132300Z 09010G20KT 9999 FEW020 24/15 A2993=
200902140000 METAR MRPV NIL=
200902140100 METAR MRPV NIL=
200902140200 METAR MRPV NIL=
200902140300 METAR MRPV NIL=
200902140400 METAR MRPV NIL=
200902140500 METAR MRPV NIL=
200902140600 METAR MRPV NIL=
200902140700 METAR MRPV NIL=
200902140800 METAR MRPV NIL=
200902140900 METAR MRPV NIL=
200902141000 METAR MRPV NIL=
200902141100 METAR MRPV NIL=
200902141200 METAR MRPV 141200Z 11012KT CAVOK 19/14 A2996 RMK TRAZAS SC BKN250=
200902141300 METAR MRPV 141300Z 10012KT CAVOK 20/15 A2998 RMK TRACE SC SCT250=
200902141400 METAR MRPV 141400Z 11012KT CAVOK 22/15 A2999 RMK TRACE SC SCT250=
200902141500 METAR MRPV 141500Z 09012KT CAVOK 24/15 A3000 RMK TRACE SC SCT250=
200902141600 METAR MRPV 141600Z 07016KT 9999 FEW025 25/15 A3000=
200902141700 METAR MRPV 141700Z 07016KT 9999 FEW025 26/16 A2998 RMK RN NE=
200902141800 METAR MRPV 141800Z 08010G20KT 9999 SCT025 25/16 A2996 RMK RN NE NW=
200902141900 METAR MRPV 141900Z 08010G20KT 9999 FEW020 SCT030 26/16 A2993 RMK RN NE NW=
200902142000 METAR MRPV 142000Z 09010G20KT 9999 FEW020 BKN030 25/16 A2991=
200902142100 METAR MRPV 142100Z 09010G20KT 9999 FEW020 BKN030 25/16 A2990 RN E NE NW=
200902142200 METAR MRPV 142200Z 09010G20KT 9999 FEW020 BKN030 25/17 A2991 RN NE NW=
200902142300 METAR MRPV 142300Z 10010/20KT 9999 SCT015 BKN030 22/16 A2991 RN NE NW=
200902150000 METAR MRPV 150000Z NIL=
200902150100 METAR MRPV NIL=
200902150200 METAR MRPV NIL=
200902150300 METAR MRPV NIL=
200902150400 METAR MRPV NIL=
200902150500 METAR MRPV NIL=
200902150600 METAR MRPV NIL=
200902150700 METAR MRPV NIL=
200902150800 METAR MRPV NIL=
200902150900 METAR MRPV NIL=
200902151000 METAR MRPV NIL=
200902151100 METAR MRPV NIL=
200902151200 METAR MRPV 151200Z 13008KT 9999 FEW030 19/14 A2999=
200902151300 METAR MRPV 151300Z 13006KT 9999 FEW030 20/14 A3002=
200902151400 METAR MRPV 151400Z 13008KT 9999 NSC 22/14 A3003=
200902151500 METAR MRPV 151500Z 10009KT 9999 NSC 23/14 A3003 TRACE SCT=
200902151600 METAR MRPV 151600Z 09009KT 9999 NSC 24/14 A3003 TRACE SCT=
200902151700 METAR MRPV 151700Z 07006KT 9999 NSC 27/14 A3001=
200902151800 METAR MRPV 151800Z 11005KT 9999 FEW040 27/14 A2998=
200902151900 METAR MRPV 151900Z 08007KT 9999 FEW040 28//15 A2995=
200902152000 METAR MRPV 152000Z 08008KT 9999 SCT025 28/16 A2993=
200902152100 METAR MRPV 152100Z 09010KT 9999 SCT040 27/16 A2993=
200902152200 METAR MRPV 152200Z 09010KT 9999 FEW020TCU SCT035 24/17 A2993=
200902152300 METAR MRPV 152300Z 10012KT 9999 SCT020TCU BKN035 24/17 A2994 RMK DZ N NE=
200902160000 METAR MRPV 160000Z NIL=
200902160100 METAR MRPV NIL=
200902160200 METAR MRPV NIL=
200902160300 METAR MRPV NIL=
200902160400 METAR MRPV NIL=
200902160500 METAR MRPV NIL=
200902160600 METAR MRPV NIL=
200902160700 METAR MRPV NIL=
200902160800 METAR MRPV NIL=
200902160900 METAR MRPV NIL=
200902161000 METAR MRPV NIL=
200902161100 METAR MRPV NIL=
200902161200 METAR MRPV 161200Z 09013KT 9999 FEW030 18/14 A3002 RMK RAFAGAS 18KT=
200902161300 METAR MRPV 161300Z 11010KT 9999 NSC 19/13 A3004 RMK VL MX VIENTO 15KT TRACE SC=
200902161400 METAR MRPV 161400Z 12011KT 9999 NSC 21/13 A3004 RMK VL MX VIENTO 18KT TRA SC=
200902161500 METAR MRPV 161500Z 09016KT 9999 NSC 23/12 A3005 RMK TRACE SC=
200902161600 METAR MRPV 161600Z 08017KT 9999 NSC 24/11 A3005 RMK TRACE SC=
200902161700 METAR MRPV 161700Z 07018KT 9999 FEW040 24/12 A3005=
200902161800 METAR MRPV 161800Z 06018KT 9999 FEW040 24/12 A3002=
200902161900 METAR MRPV 161900Z 06018KT 9999 FEW040 25/11 A3000=
200902162000 METAR MRPV 162000Z 08020KT 9999 FEW040 26/11 A2998=
200902162100 METAR MRPV 162100Z 07020KT 9999 FEW040 25/11 A2997=
200902162200 METAR MRPV 162200Z 06017G27KT 9999 FEW040 24/10 A2997=
200902162300 METAR MRPV 162300Z 06010KT 9999 FEW040 23/12 A2998=
200902170000 METAR MRPV NIL=
200902170100 METAR MRPV NIL=
200902170200 METAR MRPV NIL=
200902170300 METAR MRPV NIL=
200902170400 METAR MRPV NIL=
200902170500 METAR MRPV NIL=
200902170600 METAR MRPV NIL=
200902170700 METAR MRPV NIL=
200902170800 METAR MRPV NIL=
200902170900 METAR MRPV NIL=
200902171000 METAR MRPV NIL=
200902171100 METAR MRPV NIL=
200902171200 METAR MRPV 171200Z 09019KT 9999 SCT030 18/12 A3001 RMK DZ NE N NW VEL MAX VIENTO 24KTS=
200902171300 METAR MRPV 171300Z 09011KT 9999 SCT030 19/13 A3003 DZ DST NW/N/NE VEL/MAX/W IND 18NUDOS=
200902171400 METAR MRPV 171400Z 12014G24KT 9999 SCT030 20/13 A3004 DZ DST N/NE/E=
200902171500 METAR MRPV 171500Z 10011KT 9999 SCT025 22/13 A3005=
200902171600 METAR MRPV 171600Z 10011KT 9999 SCT025 22/13 A3005=
200902171700 METAR MRPV 171700Z 10013KT 9999 SCT030 24/12 A3005=
200902171800 METAR MRPV 171800Z 08018KT 9999 SCT030 24/11 A3000=
200902171900 METAR MRPV 171900Z 07019KT 9999 SCT030 25/11 A2996 VEL/MAX WIND 27NUDOS=
200902172000 METAR MRPV 172000Z 07017KT 9999 SCT030 25/11 A2994 VEL/MAX/WIND 27NUDOS=
200902172100 METAR MRPV 172100Z 06020KT 9999 FEW040 24/11 A2993 RMK VEL MAX VTO 27KTS=
200902172200 METAR MRPV 172200Z 07017KT 9999 FEW040 24/11 A2993 RMK VEL MAX VTO 26KTS=
200902172300 METAR MRPV 172300Z 06019KT 9999 FEW040 22/11 A2994 RMK VEL MAX VTO 26KT=
200902180000 METAR MRPV NIL=
200902180100 METAR MRPV NIL=
200902180200 METAR MRPV NIL=
200902180300 METAR MRPV NIL=
200902180400 METAR MRPV NIL=
200902180500 METAR MRPV NIL=
200902180600 METAR MRPV NIL=
200902180700 METAR MRPV NIL=
200902180800 METAR MRPV NIL=
200902180900 METAR MRPV NIL=
200902181000 METAR MRPV NIL=
200902181100 METAR MRPV NIL=
200902181200 METAR MRPV 181200Z 10010KT 9999 NSC 17/10 A2999 RMK TRACE SC VL MX VTO 16KT=
200902181300 METAR MRPV 181300Z 11010KT 9999 NSC 18/10 A3000 TRACE SCT VEL MAX VTO 16KT=
200902181400 METAR MRPV 181400Z 08014KT 9999 NSC 20/10 A3001 RMK TRACE SC=
200902181500 METAR MRPV 181500Z 07010G20KT 9999 NSC 22/11 A3002 RMK TRACE SC DUST IN APCH RNY 09=
200902181600 METAR MRPV 181600Z 07012G22KT 9999 NSC 24/11 A3001 TRACE SCT=
200902181700 METAR MRPV 181700Z 07012G22KT 9999 NSC 24/11 A2999 RMK TRACE SC=
200902181800 METAR MRPV 181800Z 07012G22KT 9999 NSC 25/11 A2996 RMK TRACE SC=
200902181900 METAR MRPV 181900Z 06012G22KT 9999 NSC 25/11 A2994 RMK TRACE SC=
200902182000 METAR MRPV 182000Z 06014KT 9999 NSC 25/11 A2991 TRACE SCT=
200902182100 METAR MRPV 182100Z 07014G24KT 9999 NSC 24/11 A2990 RMK TRACE SC=
200902182200 METAR MRPV 182200Z 07012G22KT 9999 FEW025 24/12 A2991=
200902182300 METAR MRPV 182300Z 07012G22KT 9999 FEW022 22/12 A2992=
200902190000 METAR MRPV NIL=
200902190100 METAR MRPV NIL=
200902190200 METAR MRPV NIL=
200902190300 METAR MRPV NIL=
200902190400 METAR MRPV NIL=
200902190500 METAR MRPV NIL=
200902190600 METAR MRPV NIL=
200902190700 METAR MRPV NIL=
200902190800 METAR MRPV NIL=
200902190900 METAR MRPV NIL=
200902191000 METAR MRPV NIL=
200902191100 METAR MRPV NIL=
200902191200 METAR MRPV 191200Z 12007KT 9999 NSC 18/14 A2995 TRAZAS SCT=
200902191300 METAR MRPV 191300Z 10009KT 9999 NSC 19/14 A2997 RMK TRACE SC AC=
200902191400 METAR MRPV 191400Z 11011KT 9999 FEW030 21/15 A2999 RMK TRACE AC DZ N NE=
200902191500 METAR MRPV 191500Z 10010G20KT 9999 FEW030 23/15 A2999 RMK DZ N NE=
200902191600 METAR MRPV 191600Z 07010G20KT 9999 FEW030 25715 A2999 RMK DZ NE=
200902191700 METAR MRPV 191700Z 07010G20KT 9999 SCT030 25/15 A2998 RMK DZ NE=
200902191800 METAR MRPV 191800Z 07010G20KT 9999 SCT025 25/16 A2997 RMK DZ NE=
200902191900 METAR MRPV 191900Z 09011G21KT 9999 SCT025 25/16 A2994 RMK DZ NE=
200902192000 METAR MRPV 192000Z 10010G20KT 9999 BKN027 25716 A2992 RMK DZ NE=
200902192052 METAR MRPV 102100Z 10010G20KT 9999 BKN026 24/16 A2991 RN NE=
200902192100 METAR MRPV NIL=
200902192200 METAR MRPV 192200Z 10010G20KT 9999 BKN028 23/16 A2991 DZ N=
200902192300 METAR MRPV 192300Z 10010G20KT 9999 FEW015 SCT030 23/17 A2991 RN NE=
200902192352 METAR MRPV 200000Z NIL=
200902200000 METAR MRPV NIL=
200902200100 METAR MRPV NIL=
200902200200 METAR MRPV NIL=
200902200300 METAR MRPV NIL=
200902200400 METAR MRPV NIL=
200902200500 METAR MRPV NIL=
200902200600 METAR MRPV NIL=
200902200700 METAR MRPV NIL=
200902200800 METAR MRPV NIL=
200902200900 METAR MRPV NIL=
200902201000 METAR MRPV NIL=
200902201100 METAR MRPV NIL=
200902201200 METAR MRPV 201200Z 10014KT 9999 FEW025 SCT090 21/16 A2994 RMK DZ DST N NE VEL MAX VTO 22KT=
200902201300 METAR MRPV 201300Z 10011KT 9999 SCT025 SCT090 21/16 A2996 DZ SSE N VEL MAX VIENTO 17KTS=
200902201400 METAR MRPV 201400Z 10012KT 9999 SCT030 SCT100 22/16 A2997 VEL MAX VIENTO 18KTS=
200902201500 METAR MRPV 201500Z 10010KT 9999 SCT025 SCT100 23/16 A2998 VEL MAX VIENTO 15KTS RN N QUAD=
200902201600 METAR MRPV 201600Z 07012KT 9999 SCT090 SCT100 25/17 A2998 RN N QUAD VEL MAX 18KTS=
200902201700 METAR MRPV 201700Z 08012KT 9999 SCT018 BKN100 23/17 A2997 RN N E QUAD=
200902201800 METAR MRPV 201800Z 09012KT 9999 SCT015 BKN100 24/17 A2995 RN N QUAD VEL MAX VIENTO 17KTS=
200902201900 METAR MRPV 201900Z 078014G24KT 9999 SCT015 BKN100 25/17 A2991 RN N QUAD=
200902202000 METAR MRPV 202000Z 07016G26KT 9999 SCT015 BKN100 24/17 A2990 RN N QUAD=
200902202100 METAR MRPV 202100Z 07012G22KT 9999 SCT015 BKN100 23/17 A2989 RMK RN N NE=
200902202200 METAR MRPV 202200Z 07013G23KT 9999 -DZ SCT015 BKN100 22/16 A2989 RMK RN N NE=
200902202300 METAR MRPV 202300Z 08012G22KT 9999 SCT015 BKN100 2116 A2989 RMK RN N NE=
200902210000 METAR MRPV 210000Z NIL=
200902210100 METAR MRPV NIL=
200902210200 METAR MRPV NIL=
200902210300 METAR MRPV NIL=
200902210400 METAR MRPV NIL=
200902210500 METAR MRPV NIL=
200902210600 METAR MRPV NIL=
200902210700 METAR MRPV NIL=
200902210800 METAR MRPV NIL=
200902210900 METAR MRPV NIL=
200902211000 METAR MRPV NIL=
200902211100 METAR MRPV NIL=
200902211200 METAR MRPV 211200Z 10015KT 9999 FEW030 19/14 A2994 RMK RAFAGAS 23KT=
200902211300 METAR MRPV 211300Z 09020KT 9999 FEW025 19/14 A2996 VL MX VTO 28KT=
200902211400 METAR MRPV 211400Z 08021KT 9999 FEW025 20/14 A2996 RMK VL MX VTO 26KT=
200902211500 METAR MRPV 211500Z 07020KT 9999 FEW035 22/14 A2999 RMK VL MX VTO 26KT=
200902211600 METAR MRPV 211600Z 06017KT 9999 SCT030 23/14 A2998 RMK VL MX VTO 23KT=
200902211700 METAR MRPV 211700Z 06017KT 9999 SCT030 23/15 A2997=
200902211800 METAR MRPV 211800Z 07018KT 9999 SCT030 24/15 A2995=
200902211900 METAR MRPV 211900Z 07022KT 9999 SCT030 24/14 A2993 RMK VEL MAX WIND 28 KTS=
200902212000 METAR MRPV 212000Z NIL=
200902212100 METAR MRPV 212100Z 06019KT 9999 SCT030 23/16 A2989 VEL/MAX/WIND 27NUDOS=
200902212200 METAR MRPV 212200Z 07018KT 9999 SCT030 22/15 A2990 VEL/MAX/WIND 25NUDOS DZ N/NE=
200902212300 METAR MRPV 212300Z 07018G28KT 9999 SCT030 21/15 A2990 DZ N=
200902220000 METAR MRPV NIL=
200902220100 METAR MRPV NIL=
200902220200 METAR MRPV NIL=
200902220300 METAR MRPV NIL=
200902220400 METAR MRPV NIL=
200902220500 METAR MRPV NIL=
200902220600 METAR MRPV NIL=
200902220700 METAR MRPV NIL=
200902220800 METAR MRPV NIL=
200902220900 METAR MRPV NIL=
200902221000 METAR MRPV NIL=
200902221100 METAR MRPV NIL=
200902221200 METAR MRPV 221200Z 10014KT 9999 FEW020 BKN250 20/16 A2998 VEL MAX VIENTO 21KTS DZ NE=
200902221300 METAR MRPV 221300Z 09018KT 9999 FEW025 BKN250 21/16 A2998 VEL/MAX VIENTO 26NUDOS DZ NE=
200902221400 METAR MRPV 221400Z 09016KT 9999 FEW025 BKN250 22/16 A3000 DZ NE=
200902221500 METAR MRPV 221500Z 08017KT 9999 FEW030 BKN250 23/16 A3001 DZ N/NE=
200902221600 METAR MRPV 221600Z 07017KT 9999 SCT030 BKN250 23/16 A3003=
200902221700 METAR MRPV 221700Z 07018KT 9999 SCT030 BKN250 24/16 A3002 VEL/MAX/24NUDOS=
200902221800 METAR MRPV 221800Z 06017KT 9999 SCT030 BKN250 26/15 A3000=
200902221900 METAR MRPV 221900Z 06017KT 9999 SCT030 BKN250 25/15 A2998 RMK RN NE VEL MAX WIND 24 KTS=
200902222000 METAR MRPV 222000Z 06014KT 9999 SCT030 BKN250 24/15 A2996 RMK VEL MAX=
200902222100 METAR MRPV 222100Z 06015KT 9999 SCT035 BKN250 25/15 A2993 RMK VEL MAX VTO 23KT=
200902222200 METAR MRPV 222200Z 07016KT 9999 SCT035 BKN250 25/15 A2993 RMK VEL MAX VTO 23KT=
200902222300 METAR MRPV 222300Z 08016KT 9999 SCT030 BKN250 23/15 A2994=
200902230000 METAR MRPV NIL=
200902230100 METAR MRPV NIL=
200902230200 METAR MRPV NIL=
200902230300 METAR MRPV NIL=
200902230400 METAR MRPV NIL=
200902230500 METAR MRPV NIL=
200902230600 METAR MRPV NIL=
200902230700 METAR MRPV NIL=
200902230800 METAR MRPV NIL=
200902230900 METAR MRPV NIL=
200902231000 METAR MRPV NIL=
200902231100 METAR MRPV NIL=
200902231200 METAR MRPV 231200Z 10013KT 9999 FEW025 19/15 A3001 RMK DZ DST N NE VL MX VTO 18KT=
200902231300 METAR MRPV 231300Z 10013KT 9999 FEW030 20/15 A3002 RMK DZ DST N NE E VEL MAX VTO 20KT=
200902231400 METAR MRPV 231400Z 08019KT 9999 FEW030 21/15 A3004 RMK DZ N NE FEW250 VEL MAX VTO 26KT=
200902231500 METAR MRPV 231500Z 08019KT 9999 SCT020 23/16 A3006 RMK DZ DST N NE=
200902231600 METAR MRPV 231600Z 08020KT 9999 SCT030 23/16 A3007 RMK VEL MAX VTO 26KT DZ DST NE=
200902231700 METAR MRPV 231700Z 07020KT 9999 SCT030 24/16 A3004 RMK RN E VEL MAX VTO 28KT=
200902231800 METAR MRPV 231800Z 07013G24KT 9999 SCT030 24/15 A3002 RMK DZ DST NE=
200902231900 METAR MRPV 231900Z 06015G27KT 9999 FEW030 25/15 A3000=
200902232000 METAR MRPV 232000Z 07016KT 9999 FEW030 25/14 A2997 RMK VEL MAX VTO 23KT=
200902232100 METAR MRPV 232100Z 07016KT 9999 FEW030 24/14 A2995 RMK RAFAGAS 24KT=
200902232200 METAR MRPV 232200Z 08014KT 9999 FEW030 23/14 A2996 RMK RAFAGAS 22KT=
200902232300 METAR MRPV 232300Z 07013KT 9999 FEW040 22/15 A2997=
200902240000 METAR MRPV NIL=
200902240100 METAR MRPV NIL=
200902240200 METAR MRPV NIL=
200902240300 METAR MRPV NIL=
200902240400 METAR MRPV NIL=
200902240500 METAR MRPV NIL=
200902240600 METAR MRPV NIL=
200902240700 METAR MRPV NIL=
200902240800 METAR MRPV NIL=
200902240900 METAR MRPV NIL=
200902241000 METAR MRPV NIL=
200902241100 METAR MRPV NIL=
200902241200 METAR MRPV 241200Z 11014KT 9999 NSC 19/13 A2999 TRAZAS SCT VEL/MAX/VIENTO 22NUDOS=
200902241300 METAR MRPV 241300Z 09013G23KT 9999 NSC 19/13 A3000 RMK DZ NE TRACE SC=
200902241400 METAR MRPV 241400Z 09016KT 9999 FEW035 20/14 A3002 RMK DZ NE RAFAGAS 21KT=
200902241500 METAR MRPV 241500Z 09017G27KT 9999 FEW035 23/14 A3004 RMK DZ NE=
200902241600 METAR MRPV 241600Z 07019G29KT 9999 FEW035 24/14 A3004 RMK DZ NE=
200902241700 METAR MRPV 241700Z 07017G27KT 9999 FEW035 25/13 A3002 RMK DZ NE=
200902241800 METAR MRPV 241800Z 08017G27KT 9999 FEW035 25713 A3000 RMK DZ NE=
200902241900 METAR MRPV 241900Z 08010G20KT 9999 FEW030 25/14 A2998 RMK DZ NE=
200902242000 METAR MRPV 242000Z 06015G25KT 9999 FEW030 25715 A2995 RMK DZ NE=
200902242100 METAR MRPV 242100Z 07015G25KT 9999 FEW030 25/14 A2993 RN DIST NE=
200902242200 METAR MRPV 242200Z 07012G22KT 9999 FEW030 24/15 A2992 RN NE=
200902242300 METAR MRPV 242300Z 07014G24KT 9999 FEW025 23/16 A2993 RN NE=
200902250000 METAR MRPV NIL=
200902250100 METAR MRPV NIL=
200902250200 METAR MRPV NIL=
200902250300 METAR MRPV NIL=
200902250400 METAR MRPV NIL=
200902250500 METAR MRPV NIL=
200902250600 METAR MRPV NIL=
200902250700 METAR MRPV NIL=
200902250800 METAR MRPV NIL=
200902250900 METAR MRPV NIL=
200902251000 METAR MRPV NIL=
200902251100 METAR MRPV NIL=
200902251200 METAR MRPV 251200Z 11011KT 9999 NSC 18/13 A2999 TRACE SCT CI VEL MAX VTO 16KT=
200902251300 METAR MRPV 251300Z 10014KT 9999 NSC 19/14 A3001 RMK TRACE SC CI VEL MAX 21KTS WIND=
200902251400 METAR MRPV 251400Z 08019KT 9999 NSC 21/13 A3003 RMK TRACE SC CI VEL MAX VIENTO 24KTS=
200902251500 METAR MRPV 251500Z 07013G23KT 9999 NSC 22/13A3004 RMK TRACE SC=
200902251600 METAR MRPV 251600Z 07016G26KT 9999 NSC 23/13 A3003 RMK TRACE SC=
200902251700 METAR MRPV 251700Z 07016G26KT 9999 NSC 24/14 A3002 RMK TRACE SC RN NE=
200902251800 METAR MRPV 251800Z 07016G26KT 9999 FEW025 24/14 A3001 RMK RN NE=
200902251900 METAR MRPV 251900Z 07015G25KT 9999 FEW025 24/15 A2999 RMK RN NE=
200902252000 METAR MRPV 252000Z 07015G25KT 9999 FEW025 25/15 A2996 RMK RN NE=
200902252100 METAR MRPV 252100Z 08013G23KT 9999 FEW022 24/16 A2994 RMK RN NE=
200902252200 METAR MRPV 252200Z 08016G26KT 9999 FEW020 22/16 A2994 RMK RN N NE=
200902252300 METAR MRPV 252300Z 08016G26KT 9999 FEW018 21/15 A2994 RMK RN N NE=
200902260000 METAR MRPV 260000Z NIL=
200902260100 METAR MRPV NIL=
200902260200 METAR MRPV NIL=
200902260300 METAR MRPV NIL=
200902260400 METAR MRPV NIL=
200902260500 METAR MRPV NIL=
200902260600 METAR MRPV NIL=
200902260700 METAR MRPV NIL=
200902260800 METAR MRPV NIL=
200902260900 METAR MRPV NIL=
200902261000 METAR MRPV NIL=
200902261100 METAR MRPV NIL=
200902261200 METAR MRPV NIL=
200902261300 METAR MRPV 261300Z 08016KT 9999 FEW030 20/15 A3001 RMK DZ DST N NE VL MX VTO 22KT=
200902261400 METAR MRPV 261400Z 08017KT 9999 FEW030 20/16 A3002 RMK DZ DST N NE VL MX VTO 24KT=
200902261500 METAR MRPV 261500Z 08010G20KT 9999 FEW030 23/16 A3003 RMK DZ N NE=
200902261600 METAR MRPV 261600Z 07012G22KT 9999 SCT020 22/16 A3004 RMK PCPN N NE E=
200902261700 METAR MRPV 261700Z 08013G23KT 9999 SCT020 22/16 A3002 RMK PCPN N NE=
200902261800 METAR MRPV 261800Z 07016G26KT 9999 SCT020 22/16 A3001 RMK PCPN N NE=
200902261900 METAR MRPV 261900Z 07013G23KT 9999 SCT025 24/15 A2998 RMK PCPN N NE=
200902262000 METAR MRPV 262000Z 09010G20KT 9999 SCT025 23/16 A2995 RMK PCPN N NE=
200902262100 METAR MRPV 262100Z 08016G26KT 9999 SCT022 21/15 A2994 DZ N/NE FU N=
200902262200 METAR MRPV 262200Z 08017G27KT 9999 FEW015 SCT025 20/15 A2994 FU N DZ N/NE=
200902262300 METAR MRPV 262300Z 09013G23KT 9999 FEW015 SCT025 20/14 A2994 FU N RN=
200902270000 METAR MRPV NIL=
200902270100 METAR MRPV NIL=
200902270200 METAR MRPV NIL=
200902270300 METAR MRPV NIL=
200902270400 METAR MRPV NIL=
200902270500 METAR MRPV NIL=
200902270600 METAR MRPV NIL=
200902270700 METAR MRPV NIL=
200902270800 METAR MRPV NIL=
200902270900 METAR MRPV NIL=
200902271000 METAR MRPV NIL=
200902271100 METAR MRPV NIL=
200902271200 METAR MRPV 271200Z 11011KT 9999 FEW025 19/15 A2995 RMK DZ NE E TRACE CI=
200902271300 METAR MRPV 271300Z 11010KT 9999 FEW025 BKN250 19/15 A2997 DZ DST N/NE=
200902271400 METAR MRPV 271400Z 12013KT 9999 FEW030 BKN250 21/16 A2998 DZ DST N/NE/E=
200902271500 METAR MRPV 271500Z 10013KT 9999 FEW030 BKN250 23/16 A2999 DZ N/NE VEL/MAX/V IENTO 19NUDOS=
200902271600 METAR MRPV 271600Z 09018KT 9999 SCT030 BKN250 24/16 A3000 DZ DST N/NE/E VEL /MAX/ VIENTO 26NUDOS=
200902271700 METAR MRPV 271700Z 08019KT 9999 SCT030 BKN250 24/16 A2998 DZ N/NE VEL/MAX/V IENTO 25NUDOS=
200902271800 METAR MRPV 271800Z 08016G26KT 9999 FEW020 SCT035 23/16 A2997 DZ N/NE=
200902271900 METAR MRPV 271900Z 08019KT 9999 FEW020 SCT035 22/16 A2994 RMK VEL MAX=
200902272000 METAR MRPV 272000Z 08020KT 9999 FEW020 SCT040 22/16 A2992 RMK VEL MAX=
200902272100 METAR MRPV 272100Z 08015KT 9999 BKN020 22/16 A2990 RMK VEL MAX VTO 22KT DZ DST NE=
200902272200 METAR MRPV 272200Z 10016KT 9999 FEW020 SCT035 22/16 A2990 RMK VEL MAX VTO 23KT DZ NE=
200902272300 METAR MRPV 272300Z 08017KT 9999 FEW020 SCT035 21/16 A2990 RMK DZ NE=
200902280000 METAR MRPV NIL=
200902280100 METAR MRPV NIL=
200902280200 METAR MRPV NIL=
200902280300 METAR MRPV NIL=
200902280400 METAR MRPV NIL=
200902280500 METAR MRPV NIL=
200902280600 METAR MRPV NIL=
200902280700 METAR MRPV NIL=
200902280800 METAR MRPV NIL=
200902280900 METAR MRPV NIL=
200902281000 METAR MRPV NIL=
200902281100 METAR MRPV NIL=
200902281200 METAR MRPV 281200Z 13011KT 9999 NSC 18/14 A2993 RMK TRACE SC CI=
200902281300 METAR MRPV 281300Z 12010KT 9999 FEW025 19/15 A2996 RMK DZ DST NE E=
200902281400 METAR MRPV 281400Z 11010KT 9999 FEW030 21/16 A2997 RMK DZ DST NE E=
200902281500 METAR MRPV 281500Z 08016KT 9999 FEW030 22/16 A2998 RMK DZ DST NE=
200902281600 METAR MRPV 281600Z 07015KT 9999 SCT030 24/16 A2998 RMK DZ DST NE=
200902281700 METAR MRPV 281700Z 08015KT 9999 SCT030 25/16 A2996=
200902281800 METAR MRPV 281800Z 09015KT 9999 SCT030 24 /16 A2993=
200902281900 METAR MRPV 281900Z 09015KT 9999 SCT030 26/16 A2992=
200902282000 METAR MRPV 282000Z 08016KT 9999 SCT030 26/16 A2989=
200902282100 METAR MRPV 282100Z 08013KT 9999 SCT025 25/15 A2988=
200902282200 METAR MRPV 282200Z 08010KT 9999 SCT020 22/14 A2990=
200902282300 METAR MRPV 282300Z 08018KT 9999 SCT020 22/15 A2991 RMK DZ DST NE E=
200903010000 METAR MRPV 010000Z NIL=
200903010100 METAR MRPV NIL=
200903010200 METAR MRPV NIL=
200903010300 METAR MRPV NIL=
200903010400 METAR MRPV NIL=
200903010500 METAR MRPV NIL=
200903010600 METAR MRPV NIL=
200903010700 METAR MRPV NIL=
200903010800 METAR MRPV NIL=
200903010900 METAR MRPV NIL=
200903011000 METAR MRPV NIL=
200903011100 METAR MRPV NIL=
200903011200 METAR MRPV NIL=
200903011300 METAR MRPV 011300Z 11010KT 9999 FEW025 19/13 A3000=
200903011400 METAR MRPV 011400Z 10012KT NSC 22/13 A3001 RMK TRACE SC=
200903011500 METAR MRPV 011500Z 08017KT 9999 NSC 23/13 A3002 RMK TRACE SC=
200903011600 METAR MRPV 011600Z 08015KT 9999 FEW040 24/14 A3001=
200903011700 METAR MRPV 011700Z 07014KT 9999 FEW040 25/13 A3000=
200903011800 METAR MRPV 011800Z 08014KT 9999 FEW040 33/15 A2981=
200903011900 METAR MRPV 011900Z 08016KT 9999 SCT040 26/16 A2995=
200903012000 METAR MRPV 012000Z 07018KT 9999 SCT040 25/16 A2992=
200903012100 METAR MRPV 012100Z 08021KT 9999 SCT040 24/15 RMK A2991=
200903012200 METAR MRPV 012200Z 08019KT 9999 SCT020 23/14 A2993 RMK VEL MAX 27KTS=
200903012300 METAR MRPV 012300Z 09018KT 9999 SCT025 22/15 A2995=
200903020000 METAR MRPV 02000Z NIL=
200903020100 METAR MRPV NIL=
200903020200 METAR MRPV NIL=
200903020300 METAR MRPV NIL=
200903020400 METAR MRPV NIL=
200903020500 METAR MRPV NIL=
200903020600 METAR MRPV NIL=
200903020700 METAR MRPV NIL=
200903020800 METAR MRPV NIL=
200903020900 METAR MRPV NIL=
200903021000 METAR MRPV NIL=
200903021100 METAR MRPV NIL=
200903021200 METAR MRPV 021200Z 10013KT 9999 FEW025 18/14 A3003 DZ DST N NE E VEL MAX VTO 21KT=
200903021300 METAR MRPV 021300Z 10013KT 9999 FEW025 19/13 A3005 RMK DZ N NE VEL MAX VIENTO 19KTS=
200903021400 METAR MRPV 021400Z 10010KT 9999 FEW030 21/14 A3006 RMK DZ NE VEL MAX 15KTS=
200903021500 METAR MRPV 021500Z 09013KT 9999 FEW030 22/13 A3006 RMK DZ DIST N=
200903021600 METAR MRPV 021600Z 08017G27KT 9999 FEW030 23/14 A3006 RMK DZ NNE=
200903021700 METAR MRPV 021700Z 08020G30KT 9999 FEW030 23/14 A3005 RMK RN NE=
200903021800 METAR MRPV 021800Z 07017G27KT 9999 FEW030 23/15 A3003 RMK RN NE=
200903021900 METAR MRPV 021900Z 08016G26KT 9999 SCT030 22/15 A3003 RMK NE=
200903022000 METAR MRPV 022000Z 08014G24KT 9999 SCT030 23/15 A3000 RMK RN NE=
200903022100 METAR MRPV 022100Z 09015G25KT 9999 SCT030 22/15 A2998 RMK PCPN NE=
200903022200 METAR MRPV 022200Z 08016G26KT 9999 FEW030 21/15 A2998 RMK PCPN NE=
200903022300 METAR MRPV 022300Z 08019G29KT 9999 FEW030 20/14 A2999 RMK PCPN NE=
200903030000 METAR MRPV 030000Z NIL=
200903030100 METAR MRPV NIL=
200903030200 METAR MRPV NIL=
200903030300 METAR MRPV NIL=
200903030400 METAR MRPV NIL=
200903030500 METAR MRPV NIL=
200903030600 METAR MRPV NIL=
200903030700 METAR MRPV NIL=
200903030800 METAR MRPV NIL=
200903030900 METAR MRPV NIL=
200903031000 METAR MRPV NIL=
200903031100 METAR MRPV NIL=
200903031200 METAR MRPV 031200Z 12016KT 9999 FEW025 19/14 A3002 RMK DZ DST NW N NE E VEL.MAX.VTO 25KT=
200903031300 METAR MRPV 031300Z 11015KT 9999 FEW020 19/14 A3005 RMK DZ DST N NE E SE VL MX VTO 23KT=
200903031400 METAR MRPV 031400Z 11018KT 9999 FEW020 20/14 A3006 RMK DZ NW N NE E VL MX VTO 24KT=
200903031500 METAR MRPV 031500Z 09017G27KT 9999 FEW020 21/14 A3007 RMK OCON N NE=
200903031600 METAR MRPV 031600Z 09018G28KT 9999 FEW020 22/14 A3007 RMK PCPN N NE=
200903031700 METAR MRPV 031700Z 09020G30KT 9999 FEW020 23/14 A3006 RMK PCPN N NE=
200903031800 METAR MRPV 031800Z 09020G30KT 9999 FEW020 23/15 A3004 RMK PCPN N NE=
200903031900 METAR MRPV 031900Z 08020G30KT 9999 FEW020 23/14 A3003 RMK PCPN N NE E=
200903032000 METAR MRPV 032000Z 09020G30KT 9999 FEW020 23/14 A3001 RMK PCPN N NE=
200903032100 METAR MRPV 032100Z 09020G30KT 9999 FEW020 23/14 A2999 RN DST N=
200903032200 METAR MRPV 032200Z 10020G30KT 9999 FEW020 22/15 A3000 DZ DST N=
200903032300 METAR MRPV 032300Z 09015G25KT 9999 FEW018 21/14 A3001 DZ N=
200903040000 METAR MRPV NIL=
200903040100 METAR MRPV NIL=
200903040200 METAR MRPV NIL=
200903040300 METAR MRPV NIL=
200903040400 METAR MRPV NIL=
200903040500 METAR MRPV NIL=
200903040600 METAR MRPV NIL=
200903040700 METAR MRPV NIL=
200903040800 METAR MRPV NIL=
200903040900 METAR MRPV NIL=
200903041000 METAR MRPV NIL=
200903041100 METAR MRPV NIL=
200903041200 METAR MRPV 041200Z 11012KT 9999 FEW020 BKN250 18/13 A3005 RMK DZ DIST N NE E VEL MAX VIENTO 19KTS=
200903041300 METAR MRPV 041300Z 10016KT 9999 FEW020 BKN250 18/14 A3006 DZ DST N/NE/E VEL /MAX VIENTO 21NUDOS=
200903041400 METAR MRPV 041400Z 10017KT 9999 FEW025 BKN250 20/15 A3006 DZ DST N/NE VEL/MAX/VIENTO 24NUDOS=
200903041500 METAR MRPV 041500Z 09017G27KT 9999 FEW025 BKN250 21/15 A3007 DZ N/NE=
200903041600 METAR MRPV 041600Z 08019G29KT 9999 FEW025 BKN250 21/15 A3006 DZ N/NE=
200903041700 METAR MRPV 041700Z 07017G27KT 9999 FEW025 BKN250 23/15 A3004 DZ N/NE=
200903041800 METAR MRPV 041800Z 08017G27KT 9999 FEW025 BKN250=
200903041900 METAR MRPV 041900Z 07018G28KT 9999 FEW020 BKN250 23/15 A3001 DZ N/NE=
200903042000 METAR MRPV 042000Z 08018G28KT 9999 FEW020 BKN250 22/15 A2999 DZ DST N/NE=
200903042100 METAR MRPV 042100Z 08018G28KT 9999 SCT020 BKN250 22/15 A2998 PCPN DST N NE=
200903042200 METAR MRPV 042200Z 09015G25KT 9999 SCT020 BKN250 21/15 A2997 RMK PCPN DST N NE=
200903042300 METAR MRPV 042300Z 10018G28KT 9999 SCT018 BKN250 19/14 A3000 RMK PCPN DST N NE=
200903050000 METAR MRPV NIL=
200903050100 METAR MRPV NIL=
200903050200 METAR MRPV NIL=
200903050300 METAR MRPV NIL=
200903050400 METAR MRPV NIL=
200903050500 METAR MRPV NIL=
200903050600 METAR MRPV NIL=
200903050700 METAR MRPV NIL=
200903050800 METAR MRPV NIL=
200903050900 METAR MRPV NIL=
200903051000 METAR MRPV NIL=
200903051100 METAR MRPV NIL=
200903051200 METAR MRPV 051200Z 11011KT 9999 FEW025 BKN250 20/10 A2999 RMK DZ NNE SE VL MX VTO 19KT=
200903051300 METAR MRPV 051300Z 11011KT 9999 FEW030 SCT250 21/16 A3001 RMK DZ DST NW N NE SE VEL MAX VTO 18KT=
200903051400 METAR MRPV 051400Z 08019KT 9999 FEW030 21/16 A3003 RMK DZ DST N NE E SE VEL MAX VTO 25KT=
200903051500 METAR MRPV 051500Z 07019KT 9999 SCT020 22/16 A3003 RMK DZ DST N NE=
200903051600 METAR MRPV 051600Z 08020KT 9999 FEW020 SCT035 23/16 A3003 RMK DZ N NE E VEL MAX VTO 26KT=
200903051700 METAR MRPV 051700Z 09021KT 9999 SCT030 24/16 A3001 RMK VEL MAX VTO 28KT DZ DST N NE E=
200903051800 METAR MRPV 051800Z 08020G30KT 9999 SCT025 24/16 A3003 RMK DZ DST N NE=
200903051900 METAR MRPV 051900Z 07018KT 9999 SCT030 24/16 A2998 RMK VEL MAX VTO 26KT DZ N NE=
200903052000 METAR MRPV 052000Z 07021KT 9999 SCT035 24/16 A2996 RMK VEL MAX VTO 28KT DZ DST N=
200903052100 METAR MRPV 052100Z 08020G32KT 9999 SCT035 24/16 A2993 RMK DZ DST N=
200903052200 METAR MRPV 052200Z 08020KT 9999 SCT035 23/16 A2994=
200903052300 METAR MRPV 052300Z 07018KT 9999 SCT035 22/16 A2997 RMK DZ DST NE VEL.MAX.VTO 25KT=
200903060000 METAR MRPV NIL=
200903060100 METAR MRPV NIL=
200903060200 METAR MRPV NIL=
200903060300 METAR MRPV NIL=
200903060400 METAR MRPV NIL=
200903060500 METAR MRPV NIL=
200903060600 METAR MRPV NIL=
200903060700 METAR MRPV NIL=
200903060800 METAR MRPV NIL=
200903060900 METAR MRPV NIL=
200903061000 METAR MRPV NIL=
200903061100 METAR MRPV NIL=
200903061200 METAR MRPV 061200Z 10013KT CAVOK 19/15 A3001 TRAZAS SCT BKN250 VEL/MAX/VIENT O 18KTS=
200903061300 METAR MRPV 061300Z 11015KT 9999 FEW035 BKN250 21/15 A3003 RMK VEL. MAX. VTO. 22KT=
200903061400 METAR MRPV 061400Z 08019KT 9999 FEW030 BKN250 21/16 A3005 RMK DZ DST N NE VEL.MAX.VTO.26KT=
200903061500 METAR MRPV 061500Z 08021KT 9999 FEW025 BKN250 22/16 A3006 RMK DZ DST NE=
200903061600 METAR MRPV 061600Z 08021KT 9999 SCT025 BKN250 24/16 A3007=
200903061700 METAR MRPV 061700Z 08019KT 9999 FEW030 BKN250 25/16 A3005 RMK VEL.MAX.VTO26KT=
200903061800 METAR MRPV 061800Z 08021G31KT 9999 FEW030 BKN250 24/16 A3002=
200903061900 METAR MRPV 061900Z 09021KT 9999 FEW025 SCT040 24/16 A2999 RMK DZ N VEL MAX VIENTO 29 KTS=
200903062000 METAR MRPV 062000Z 07024G34KT 9999 FEW025 SCT040 24/16 A2997=
200903062100 METAR MRPV 062100Z 08020KT 9999 FEW030 SCT120 23/14 A2995 RMK RN NE VEL MAX VIENTO 28KTS=
200903062200 METAR MRPV 062200Z 08020KT 9999 SCT035 23/15 A2994 RMK DZ LGT NE VEL MAX 28KTS=
200903062300 METAR MRPV 062300Z 08020KT 9999 SCT035 22/14 A2995 RMK DZ NE=
200903070000 METAR MRPV NIL=
200903070100 METAR MRPV NIL=
200903070200 METAR MRPV NIL=
200903070300 METAR MRPV NIL=
200903070400 METAR MRPV NIL=
200903070500 METAR MRPV NIL=
200903070600 METAR MRPV NIL=
200903070700 METAR MRPV NIL=
200903070800 METAR MRPV NIL=
200903070900 METAR MRPV NIL=
200903071000 METAR MRPV NIL=
200903071100 METAR MRPV NIL=
200903071200 METAR MRPV 071200Z 11012KT 9999 SCT025 19/15 A3000 RMK VEL MAX VTO 17KT DZ N NE=
200903071300 METAR MRPV 071300Z 10015KT 9999 SCT025 20/15 A3003 RMK VL MX VTO 22KT DZ N NE=
200903071400 METAR MRPV 071400Z 08018KT 9999 FEW030 22/15 A3004 RMK VL MX VTO 23KT DZ N=
200903071500 METAR MRPV 071500Z 07019KT 9999 FEW030 23/14 A3005 RMK DZ N=
200903071600 METAR MRPV 071600Z 08018KT 9999 SCT035 24/15 A3006 RMK VL MX VTO 24KT=
200903071700 METAR MRPV 071700Z 08016KT 9999 SCT035 25/15 A3004 RMK VL MX VTO 24KT=
200903071800 METAR MRPV 071800Z 08019KT 9999 FEW035 25/16 A3002 RMK VL MX VTO 26KT=
200903071900 METAR MRPV 071900Z 07019KT 9999 FEW035 26/15 A2998 RMK VL MX VTO 23KT=
200903072000 METAR MRPV 072000Z 08020KT 9999 SCT030 25/15 A2996 RMK VL MX VTO 25KT=
200903072100 METAR MRPV 072100Z 07018KT 9999 SCT030 24/16 A2994 RMK VL MX VTO 26KT=
200903072200 METAR MRPV 072200Z 07019KT 9999 SCT035 22/16 A2995 RMK VL MX VTO 27KT DZ NE=
200903072300 METAR MRPV 072300Z 09015KT 9999 SCT025 22/15 A2995 RMK VL MX VTO DZ NE=
200903080000 METAR MRPV NIL=
200903080100 METAR MRPV NIL=
200903080200 METAR MRPV NIL=
200903080300 METAR MRPV NIL=
200903080400 METAR MRPV NIL=
200903080500 METAR MRPV NIL=
200903080600 METAR MRPV NIL=
200903080700 METAR MRPV NIL=
200903080800 METAR MRPV NIL=
200903080900 METAR MRPV NIL=
200903081000 METAR MRPV NIL=
200903081100 METAR MRPV NIL=
200903081200 METAR MRPV 081200Z 10010G20KT 9999 SCT022 20/16 A2996 RN DST N NE=
200903081300 METAR MRPV 081300Z 11020G30KT 9999 SCT022 20/16 A2998 RMK RN N NE=
200903081400 METAR MRPV 081400Z 09010G20KT 9999 SCT022 21/15 A3000 RMK PCPN N NE=
200903081500 METAR MRPV 081500Z 09015G29KT 9999 SCT020 22/15 A3002 RMK PCPN N NE=
200903081600 METAR MRPV 081600Z 08015G25KT 9999 SCT020 24/16 A3002 RMK PCPN N NE=
200903081700 METAR MRPV 081700Z 09015G25KT 9999 SCT020 24/16 A3001 RMK PCPN N NE=
200903081800 METAR MRPV 081800Z 08015G25KT 9999 SCT020 25/16 A2998 RMK PCPN N NE=
200903081900 METAR MRPV 081900Z 08015G25KT 9999 SCT020 25/16 A2996 DZ N/NE=
200903082000 METAR MRPV 082000Z 08018G28KT 9999 SCT020 24/16 A2994 DZ N/NE=
200903082100 METAR MRPV 082100Z 08018G18KT 9999 SCT020 23/16 A2993 RMK RN DST N/NE=
200903082200 METAR MRPV 082200Z 08015G25KT 9999 SCT020 23/16 A2993 RMK N/NE=
200903082300 METAR MRPV 082300Z 08015G25KT 9999 SCT020 22/16 A2994 RMK RN N/NE=
200903090000 METAR MRPV 090000Z NIL=
200903090100 METAR MRPV NIL=
200903090200 METAR MRPV NIL=
200903090300 METAR MRPV NIL=
200903090400 METAR MRPV NIL=
200903090500 METAR MRPV NIL=
200903090600 METAR MRPV NIL=
200903090700 METAR MRPV NIL=
200903090800 METAR MRPV NIL=
200903090900 METAR MRPV NIL=
200903091000 METAR MRPV NIL=
200903091100 METAR MRPV NIL=
200903091200 METAR MRPV 091200Z 10014KT 9999 FEW025 19/15 A2998 RMK TRACE CI DZ N NE VEL MAX VIENTO 20KTS=
200903091300 METAR MRPV 091300Z 10013KT 9999 FEW025 20/16 A2999 RMK TRAZAS AC DZ DST N/NE VL.MX.VTO.21KT=
200903091400 METAR MRPV 091400Z 11014KT 9999 FEW030 22/16 A3002 RMK DZ DST N/NE VL.MX.VTO 21KT=
200903091500 METAR MRPV 091500Z 08016G26KT 9999 FEW025 23/16 A3003 RMK RN N/NE=
200903091600 METAR MRPV NIL=
200903091700 METAR MRPV 091700Z 08015G25KT 9999 FEW025 25/16 A3001 RMK RN N/NE=
200903091800 METAR MRPV 091800Z 08015G25KT 9999 SCT025 26/17 A2998 RMK RN N/NE=
200903091900 METAR MRPV 091900Z 09015G25KT 9999 SCT025 25/16 A2997 RMK RN DST N/NE=
200903092000 METAR MRPV 092000Z 08015G25KT 9999 SCT025 24/16 A2995 RMK RN N/NE TCU SSW/W=
200903092100 METAR MRPV 092100Z 08016KT 9999 SCT025 23/16 A2994 RN DST N NE TCU DST S SW=
200903092101 METAR MRPV 092101Z COR 08016G26KT 9999 SCT025 23/16 A2994 RMK PCPN DST N NE RCU DST S SW=
200903092200 METAR MRPV 092200Z 09013G23KT 9999 SCT020 23/16 A2995 RMK PCPN DST N NE=
200903092300 METAR MRPV 092300Z 09012G22KT 9999 SCT020 22/16 A2996 RMK PCPN DST N NE=
200903100000 METAR MRPV NIL=
200903100100 METAR MRPV NIL=
200903100200 METAR MRPV NIL=
200903100300 METAR MRPV NIL=
200903100400 METAR MRPV NIL=
200903100500 METAR MRPV NIL=
200903100600 METAR MRPV NIL=
200903100700 METAR MRPV NIL=
200903100800 METAR MRPV NIL=
200903100900 METAR MRPV NIL=
200903101000 METAR MRPV NIL=
200903101100 METAR MRPV NIL=
200903101200 METAR MRPV 101200Z 10013KT 9999 FEW025 18/15 A2997 RMK DZ DST N NE=
200903101300 METAR MRPV 101300Z 08018KT 9999 FEW025 19/14 A2999 RMK DZ DST NE VEL MAX VTO 24KT=
200903101400 METAR MRPV 101400Z 07018KT 9999 FEW030 20/14 A3000 RMK DZ DST NE VEL MAX VTO 25KT=
200903101500 METAR MRPV 101500Z 08016G26KT 9999 FEW030 22/15 A3001 RMK DZ DST NE=
200903101600 METAR MRPV 101600Z 07017KT 9999 FEW030 22/15 A3002 RMK VEL MAX VTO 23KT DZ DST NE=
200903101700 METAR MRPV 101700Z 07014G24KT 9999 FEW030 24/15 A2999 PCPN DST NE=
200903101800 METAR MRPV NIL=
200903101900 METAR MRPV 101900Z 07016G26KT 9999 FEW025 24/14 A2995 RMK PCPN DST NE=
200903102000 METAR MRPV 102000Z 08018KT 9999 SCT025 24/15 A2992 RMK PCPN DST NE=
200903102100 METAR MRPV 102100Z 08014G24KT 9999 SCT023 22/15 A2992 RMK RN DST NE=
200903102200 METAR MRPV 102200Z 08018KT 9999 SCT022 22/14 A2992 RMK RN DST NE=
200903102300 METAR MRPV 102300Z 09015G25KT 9999 SCT020 21/14 A2993 RMK RN DST NE=
200903110000 METAR MRPV 110000Z NIL=
200903110100 METAR MRPV NIL=
200903110200 METAR MRPV NIL=
200903110300 METAR MRPV NIL=
200903110400 METAR MRPV NIL=
200903110500 METAR MRPV NIL=
200903110600 METAR MRPV NIL=
200903110700 METAR MRPV NIL=
200903110800 METAR MRPV NIL=
200903110900 METAR MRPV NIL=
200903111000 METAR MRPV NIL=
200903111100 METAR MRPV NIL=
200903111200 METAR MRPV 111200Z 11010KT 9999 NSC 17/12 A2999 RMK TRAZAS SC VL.MAX.VTO. 16KT=
200903111300 METAR MRPV 111300Z 11011KT 9999 NSC 19/12 A3000 RMK TRACE SC VEL.MAX.VTO 18KT=
200903111400 METAR MRPV 111400Z 11013KT 9999 NSC 21/11 A3001 RMK TRACE SC VEL.MAX.VTO. 21KT=
200903111500 METAR MRPV 111500Z 08016KT 9999 NSC 23/11 A3001 RMK TRACE SC 23KT=
200903111600 METAR MRPV 111600Z 08014KT 9999 NSC 24/13 A3001 RMK VEL. MAX. 21KT TRACE SC=
200903111700 METAR MRPV 111700Z 07015KT 9999 NSC 25/14 A2999 RMK TRACE SC VEL. MAX. VTO 21KT=
200903111800 METAR MRPV 111800Z 08014KT 9999 FEW040 26/15 A2997 RMK VEL.MAX.VTO 20KT=
200903111900 METAR MRPV 111900Z 08016KT 9999 FEW040 26/15 A2994 RMK VEL MAX VIENTO 21 KTS=
200903112000 METAR MRPV 112000Z 09019KT 9999 FEW040 25/16 A2992=
200903112100 METAR MRPV 112100Z 08015KT 9999 SCT040 24/16 A2990=
200903112200 METAR MRPV 112200Z 09021KT 9999 SCT030 22/ A2991 RMK VEL MAX 28KTS=
200903112300 METAR MRPV 112300Z 09022KT 9999 SCT025 20/14 A2993 VEL MAX VIENTO 28KTS=
200903112354 METAR MRPV 120000Z NIL=
200903120000 METAR MRPV NIL=
200903120100 METAR MRPV NIL=
200903120200 METAR MRPV NIL=
200903120300 METAR MRPV NIL=
200903120400 METAR MRPV NIL=
200903120500 METAR MRPV NIL=
200903120600 METAR MRPV NIL=
200903120700 METAR MRPV NIL=
200903120800 METAR MRPV NIL=
200903120900 METAR MRPV NIL=
200903121000 METAR MRPV NIL=
200903121100 METAR MRPV NIL=
200903121200 METAR MRPV 121200Z 11009KT 9999 NSC 17/12 A3001 RMK TRACE SC=
200903121300 METAR MRPV 121300Z 13009KT 9999 NSC 18/12 A3004 TRACE SCT VEL MAX 14KTS=
200903121400 METAR MRPV 121400Z 12011KT 9999 NSC 21/12 A3004 TRACE SC VEL MAX VIENTO 16KTS=
200903121500 METAR MRPV 121500Z 12010KT 9999 NSC 24/11 A3003 TRACE SCT VEL MAX VIENTO 16KTS=
200903121600 METAR MRPV 121600Z 07015KT 9999 NSC 24/13 A3003 RMK TRACE SC VEL MAX VIENTO 21KTS=
200903121700 METAR MRPV 121700Z 08015KT 9999 NSC 24/14 A3002 RMK VEL MAX VIENTO 22KTS TRACE SC=
200903121800 METAR MRPV 121800Z 07014KT 9999 FEW040 25/15 A3000 VEL MAX VIENTO 21KTS=
200903121900 METAR MRPV 121900Z 08015KT 9999 SCT040 26/15 A2998 RMK VEL MAX VIENTO 20KTS TCU DIST E=
200903122000 METAR MRPV 122000Z 08018KT 9999 SCT040 24/15 A2995 RMK VEL MAX VIENTO 25 KTS=
200903122100 METAR MRPV 122100Z 08019KT 9999 SCT040 23/14 A2994 RMK VL MX VTO 25KT=
200903122200 METAR MRPV 122200Z 08017KT 9999 SCT030 22/13 A2994 RMK VL MX VTO 23KT=
200903122300 METAR MRPV 122300Z 08017KT 9999 SCT030 20/14 A2995=
200903130000 METAR MRPV 130000Z NIL=
200903130100 METAR MRPV NIL=
200903130200 METAR MRPV NIL=
200903130300 METAR MRPV NIL=
200903130400 METAR MRPV NIL=
200903130500 METAR MRPV NIL=
200903130600 METAR MRPV NIL=
200903130700 METAR MRPV NIL=
200903130800 METAR MRPV NIL=
200903130900 METAR MRPV NIL=
200903131000 METAR MRPV NIL=
200903131100 METAR MRPV NIL=
200903131200 METAR MRPV 131200Z 12010KT 9999 NSC 18/12 A2999 RMK TRACE SC VEL.MAX.VTO. 15KT=
200903131300 METAR MRPV 131300Z 10013KT 9999 NSC 18/13 A3001 TRACE SCT VEL MAX VIENTO 18KTS=
200903131400 METAR MRPV 131400Z 09013KT 9999 NSC 21/13 A3003 RMK TRACE SC VEL MAX VIENTO 19KTS=
200903131500 METAR MRPV 131500Z 08017KT 9999 NSC 22/13 A3004 RMK TRACE SC=
200903131600 METAR MRPV 131600Z 07012KT 9999 NSC 24/13 A3005 TRACE SCT=
200903131700 METAR MRPV 131700Z 08008KT 9999 FEW040 25/13 A3002 RMK VEL MAX 19KTS POLVO W=
200903131800 METAR MRPV 131800Z 09011KT 9999 FEW040 26/14 A3000 RMK DU APP09 VEL MAX 17KTS=
200903131900 METAR MRPV 131900Z 07015KT 9999 SCT035 26/14 A2996 RMK VEL MAX VIENTO 20KTS CB DIST S=
200903132000 METAR MRPV 132000Z 08016KT 9999 SCT030 26/14 A2995 RMK CB DIST S E=
200903132100 METAR MRPV 132100Z 08015KT 9999 SCT025 25/15 A2992 RMK CB DST S=
200903132200 METAR MRPV 132200Z 08015KT 9999 SCT035 24/15 A2992 RMK CB S/SW=
200903132300 METAR MRPV 132300Z 08014KT 9999 FEW020 SCT035 22/16 A2994 RMK TCU/RN E CB S/SW=
200903140000 METAR MRPV 140000Z NIL=
200903140100 METAR MRPV NIL=
200903140200 METAR MRPV NIL=
200903140300 METAR MRPV NIL=
200903140400 METAR MRPV NIL=
200903140500 METAR MRPV NIL=
200903140600 METAR MRPV NIL=
200903140700 METAR MRPV NIL=
200903140800 METAR MRPV NIL=
200903140900 METAR MRPV NIL=
200903141000 METAR MRPV NIL=
200903141100 METAR MRPV NIL=
200903141200 METAR MRPV 141200Z 10015KT 9999 SCT020 19/14 A3000 RMK RN NE=
200903141300 METAR MRPV 141300Z 11015KT 9999 SCT020 19/14 A3002 RMK RN NE=
200903141400 METAR MRPV 141400Z 11014KT 9999 SCT020 21/14 A3004 RMK RN NE FU NW=
200903141500 METAR MRPV 141500Z 11015KT 9999 FEW020 23/14 A3005 RMK RN NE=
200903141600 METAR MRPV 141600Z 09010G20KT 9999 FEW020 23/14 A3006 RMK RN NE=
200903141700 METAR MRPV 141700Z 09010G20KT 9999 FEW025 24/15 A3004 RMK RN NE=
200903141800 METAR MRPV 141800Z 08010G20KT 9999 FEW025 26/15 A3001 RMK RN NE=
200903141900 METAR MRPV 141900Z 08010G20 9999 FEW025 26/15 A2998 RMK RN NE=
200903142000 METAR MRPV 142000Z 07010G20KT 9999 FEW022TCU SCT100 26/15 A2996=
200903142100 METAR MRPV 142100Z 08010G20KT 9999 FEW020TCU SCT100 23/15 A2996 RMK PCPN DST NE=
200903142200 METAR MRPV 142200Z 08010G20KT 9999 FEW020 BKN100 22/16 A2996 RMK RN NE RASH DST S=
200903142300 METAR MRPV 142300Z 09010G20KT 9999 FEW020 SCT100 22/16 A2996 PCPN DST NE E=
200903150000 METAR MRPV NIL=
200903150100 METAR MRPV NIL=
200903150200 METAR MRPV NIL=
200903150300 METAR MRPV NIL=
200903150400 METAR MRPV NIL=
200903150500 METAR MRPV NIL=
200903150600 METAR MRPV NIL=
200903150700 METAR MRPV NIL=
200903150800 METAR MRPV NIL=
200903150900 METAR MRPV NIL=
200903151000 METAR MRPV NIL=
200903151100 METAR MRPV NIL=
200903151200 METAR MRPV 151200Z 12010KT 9999 NSC 18/14 A3003 RMK TRACE SC=
200903151300 METAR MRPV 151300Z 12010KT 9999 NSC 20/14 A3005 RMK TRACE SC=
200903151400 METAR MRPV 151400Z 10010KT 9999 NSC 22/13 A3006 RMK TRACE SC=
200903151500 METAR MRPV 151500Z 09012KT 9999 NSC 24/13 A3005 RMK TRACE SC=
200903151600 METAR MRPV 151600Z 09015KT 9999 NSC 26/14 A3005 RMK TRACE SC=
200903151700 METAR MRPV 151700Z 0701020KT 9999 FEW030 26/14 A3003=
200903151800 METAR MRPV 151800Z 07010G20KT 9999 FEW030 26/14 A3001=
200903151900 METAR MRPV 151900Z 07010G20KT 9999 FEW030 27/14 A2998 RMK TCU DST S=
200903152000 METAR MRPV 152000Z 08010G20KT 9999 FEW030 28/14 A2995 RMK TCU S MRLM 152000Z 05009KT 9999 FEW035 29/22 A2989 TRACE AS HZ SE=
200903152100 METAR MRPV 152100Z 08010G20KT 9999 SCT030TCU 26/14 A2994 RMK CB DST SE RASH S=
200903152200 METAR MRPV 152200Z 08010G20KT 9999 FEW030TCU BKN250 23/15 A2995 RASH DST S CB DST SE=
200903152300 METAR MRPV 152300Z 09010G20KT 9999 FEW025 BKN250 22/16 A2997=
200903160000 METAR MRPV NIL=
200903160100 METAR MRPV NIL=
200903160200 METAR MRPV NIL=
200903160300 METAR MRPV NIL=
200903160400 METAR MRPV NIL=
200903160500 METAR MRPV NIL=
200903160600 METAR MRPV NIL=
200903160700 METAR MRPV NIL=
200903160800 METAR MRPV NIL=
200903160900 METAR MRPV NIL=
200903161000 METAR MRPV NIL=
200903161100 METAR MRPV NIL=
200903161200 METAR MRPV 161200Z 12014KT 9999 NSC 19/13 A3004 RMK TRAZAS SC=
200903161300 METAR MRPV 161300Z 12014KT 9999 NSC 20/14 A3007 RMK TRACE SC=
200903161400 METAR MRPV 161400Z 10015KT 9999 FEW030 22/14 A3009=
200903161500 METAR MRPV 161500Z 07012G22KT 9999 FEW030 23/14 A3009=
200903161600 METAR MRPV 161600Z 08014G24KT 9999 FEW030 23/14 A3009=
200903161700 METAR MRPV 161700Z 07012G22KT 9999 FEW035 25/14 A3008=
200903161800 METAR MRPV 161800Z 09010G20KT 9999 SCT030 26/15 A3005=
200903161900 METAR MRPV 161900Z 08011G21KT 9999 SCT030 26/15 A3003 RMK TCU DST S=
200903162000 METAR MRPV 162000Z 07013G23KT 9999 SCT030 26/15 A3001 RMK HZ W TCU DST S=
200903162100 METAR MRPV 162100Z 07012G22KT 9999 SCT 3 25/14 A2999 RMK TCU S HZ QUAD W=
200903162200 METAR MRPV 162200Z 07013G23KT 9999 SCT025 24/14 A2998 RMK QUAD HZ W=
200903162300 METAR MRPV 162300Z 08012G22KT 9999 SCT022 23/15 A2999 RMK HZ W QUAD=
200903170000 METAR MRPV NIL=
200903170100 METAR MRPV NIL=
200903170200 METAR MRPV NIL=
200903170300 METAR MRPV NIL=
200903170400 METAR MRPV NIL=
200903170500 METAR MRPV NIL=
200903170600 METAR MRPV NIL=
200903170700 METAR MRPV NIL=
200903170800 METAR MRPV NIL=
200903170900 METAR MRPV NIL=
200903171000 METAR MRPV NIL=
200903171100 METAR MRPV NIL=
200903171200 METAR MRPV 171200Z 11010KT 9999 NSC 18/13 A3003 RMK TRACE SC DZ DST NE VEL MAX VTO 16KT=
200903171300 METAR MRPV 171300Z 11012KT 9999 NSC 20/14 A3008 RMK TRACE CU SC V MAX VT 18KTS=
200903171400 METAR MRPV 171400Z 10014G24KT 9999 FEW035 21/14 A3000 RMK DZ NE=
200903171500 METAR MRPV 171500Z 08016KT 9999 FEW042 22/14 A3007 RMK VEL MAX VT 24KTS=
200903171600 METAR MRPV 171600Z 08017KT 9999 FEW045 24/13 A3005 RMK VL MX VT 23KTS DU NEAR APP09=
200903171700 METAR MRPV 171700Z 08017KT 9999 FEW045 25/13 A3004 RMK VL MX VT 23KTS DU NEAR APP09=
200903171730 MRPV 171730Z 09019KT 8888 SCT030 21/14 A2998 RMK VL MX VTO 26KT=
200903171800 METAR MRPV 171800Z 07017KT 9999 FEW040 25/14 A3002 RMK VL MX VT 23KTS=
200903171900 METAR MRPV 171900Z 07016KT 9999 FEW040 25/14 A2999=
200903172000 METAR MRPV 172000Z 06017KT 9999 FEW035 25/24 A2997 RMK VEL MAX WIND 24 KTS=
200903172100 METAR MRPV 172100Z 08018KT 9999 FEW030 24/15 A2995 RMK VEL MAX VTO 23KTS=
200903172200 METAR MRPV 221700Z 08021KT 9999 SCT030 23/13 A2996 RMK DZ DST N/NW=
200903172300 METAR MRPV NIL=
200903180000 METAR MRPV NIL=
200903180100 METAR MRPV NIL=
200903180200 METAR MRPV NIL=
200903180300 METAR MRPV NIL=
200903180400 METAR MRPV NIL=
200903180500 METAR MRPV NIL=
200903180600 METAR MRPV NIL=
200903180700 METAR MRPV NIL=
200903180800 METAR MRPV NIL=
200903180900 METAR MRPV NIL=
200903181000 METAR MRPV NIL=
200903181100 METAR MRPV NIL=
200903181200 METAR MRPV 181200Z 13008KT 9999 NSC 18/10 A2999 RMK TRACE SC=
200903181300 METAR MRPV 181300Z 10012KT 9999 NSC 19/12 A3001 RMK TRACE CU SC VL MX VTO 18KT=
200903181400 METAR MRPV 181400Z 11013KT 9999 NSC 21/11 A3002 RMK TRACE CU SC VL MX VTO 18KT=
200903181500 METAR MRPV 181500Z 08016KT 9999 NSC 23/11 A3002 RMK TRACE CU SC VL MX VTO 21KT=
200903181600 METAR MRPV 181600Z 08016KT 9999 NSC 25/14 A3001 RMK TRACE SC CU VL MX VTO 23KT=
200903181700 METAR MRPV 181700Z 08016KT 9999 NSC 26/11 2999 RMK TRACE CU VL MX VTO 21KT=
200903181800 METAR MRPV 181800Z 07016KT 9999 NSC 26/11 A2999 RMK TRACE CU VL MX VTO 21KT=
200903181900 METAR MRPV 08017KT 9999 FEW045 26/17 2995=
200903182000 METAR MRPV 182000Z 08016KT 9999 FEW035 26/14 A2993 RMK VEL MAX VIENTO 24 KTS=
200903182100 METAR MRPV 182100Z 08016KT 9999 FEW045 26/14 A2991 RMK TCU DST S/SW=
200903182200 METAR MRPV 182200Z 08017KT 9999 FEW045 25/15 A2992 RMK VL.MX.VTO. 23KT=
200903182300 METAR MRPV 182300Z 08015KT 9999 FEW040 23/15 A2991 RMK VL.MX.VTO. 20KT=
200903190000 METAR MRPV 190000Z NIL=
200903190100 METAR MRPV NIL=
200903190200 METAR MRPV NIL=
200903190300 METAR MRPV NIL=
200903190400 METAR MRPV NIL=
200903190500 METAR MRPV NIL=
200903190600 METAR MRPV NIL=
200903190700 METAR MRPV NIL=
200903190800 METAR MRPV NIL=
200903190900 METAR MRPV NIL=
200903191000 METAR MRPV NIL=
200903191100 METAR MRPV NIL=
200903191200 METAR MRPV 191200Z 12009KT 9999 NSC 18/12 A2996 RMK TRACE SC VEL MX VTO 16KTS=
200903191300 METAR MRPV 191300Z 11010KT 9999 NSC 20/12 A2998 RMK TRAZAS SC=
200903191400 METAR MRPV 191400Z 10009KT 9999 NSC 22/12 A2999 RMK TRAZAS CUSC VL.MX.VTO. 15KT=
200903191500 METAR MRPV 191500Z 08014KT 9999 NSC 24/11 A3000 RMK TRAZAS CU/SC=
200903191600 METAR MRPV 191600Z 08008KT 9999 NSC 25/12 A3000 RMK TRAZAS CU VL.MX.VTO. 14KT=
200903191700 METAR MRPV 191700Z 09010KT 9999 NSC 27/12 A2997 RMK TRAZAS CU=
200903191800 METAR MRPV 191800Z 09012KT 9999 FEW045 27/13 A2994=
200903191900 METAR MRPV 191900Z 08013KT 9999 FEW045 27/15 A2992=
200903192000 METAR MRPV 192000Z 08016KT 9999 FEW040 27/15 A2989 RMK TCU DST SW=
200903192100 METAR MRPV 192100Z 08014KT 9999 SCT035 25/15 A2988 RMK TCU DST S VEL MAX VTO 19KT=
200903192200 METAR MRPV 192200Z 08014KT 9999 SCT040 24/15 A2989 RMK TCU DST SW TRACE AC VEL MAX VTO 19KT=
200903192300 METAR MRPV 192300Z 08016KT 9999 FEW040 23/15 A2989 RMK VEL MAX VTO 21KT=
200903200000 METAR MRPV 200000Z NIL=
200903200100 METAR MRPV NIL=
200903200200 METAR MRPV NIL=
200903200300 METAR MRPV NIL=
200903200400 METAR MRPV NIL=
200903200500 METAR MRPV NIL=
200903200600 METAR MRPV NIL=
200903200700 METAR MRPV NIL=
200903200800 METAR MRPV NIL=
200903200900 METAR MRPV NIL=
200903201000 METAR MRPV NIL=
200903201100 METAR MRPV NIL=
200903201200 METAR MRPV 201200Z 12010KT 9999 NSC 18/12 A2996 RMK TRACE SC=
200903201300 METAR MRPV 201300Z 12012KT 9999 NSC 20/12 A2999 RMK TRACE SC=
200903201400 METAR MRPV 201400Z 10015KT 9999 NSC 22/13 A3000 RMK TRACE SC=
200903201500 METAR MRPV 201500Z 09014KT 9999 NSC 24/12 A3000 RMK TRACE SC=
200903201600 METAR MRPV 201600Z 08010KT 9999 NSC 25/12 A3000 RMK TRACE SC VEL MAX VTO 17KT=
200903201700 METAR MRPV 201700Z 08012KT 9999 NSC 25/13 A2998 RMK TRACE SC CU VEL MAX VTO=
200903201701 METAR MRPV 201701Z COR 08012KT 9999 NSC 25/13 A2998 RMK TRACE SC CU VEL MAX VTO 18KT=
200903201800 METAR MRPV 201800Z 07010G20KT 9999 FEW030 27/14 A2995=
200903201900 METAR MRPV 201900Z 07010G20KT 9999 SCT030 26/14 A2992 RMK TCU S=
200903202000 METAR MRPV 202000Z 07010G20KT 9999 SCT030 26/14 A2990 RMK TCU DST S=
200903202100 METAR MRPV 202100Z 08010G20KT 9999 SCT030 26/14 A2988 RMK CB DST S TCU DST W=
200903202200 METAR MRPV 202200Z 08010G20KT 9999 SCT030 25/15 A2989 RNK TCU DST S SW W=
200903202300 METAR MRPV 202300Z 09010G20KT 9999 SCT025 23/15 A2991=
200903210000 METAR MRPV 210000Z NIL=
200903210100 METAR MRPV NIL=
200903210200 METAR MRPV NIL=
200903210300 METAR MRPV NIL=
200903210400 METAR MRPV NIL=
200903210500 METAR MRPV NIL=
200903210600 METAR MRPV NIL=
200903210700 METAR MRPV NIL=
200903210800 METAR MRPV NIL=
200903210900 METAR MRPV NIL=
200903211000 METAR MRPV NIL=
200903211100 METAR MRPV NIL=
200903211200 METAR MRPV 211200Z 11015KT 9999 SCT022 19/14 A2999=
200903211300 METAR MRPV 211300Z 09010G20KT 9999 SCT022 20/14 A3001 RMK RN DST NE=
200903211400 METAR MRPV 211400Z 09014G24KT 9999 FEW025 21/14 A3003 RMK RN DST NE=
200903211500 METAR MRPV 211500Z 09015G25KT 9999 SCT024 21/13 A3005 RMK RN DST NE=
200903211600 METAR MRPV 211600Z 09012G22KT 9999 SCT025 22/13 A3004 RMK RN DST W=
200903211700 METAR MRPV 211700Z 08012G22KT 9999 SCT022 22/15 A3003 RMK RN DST NE=
200903211800 METAR MRPV 211800Z 09013G23KT 9999 SCT022 23/15 A3001 RMK RN DST NE=
200903211900 METAR MRPV 211900Z 08016G26KT 9999 SCT024 23/12 A2999 RMK RN DST NE=
200903212000 METAR MRPV 212000Z 08016G26KT 9999 SCT023 A2997 RMK RN DST NE=
200903212100 METAR MRPV 212100Z 08013G23KT 9999 SCT024 22/13 A2996 TRACE RN NE=
200903212200 METAR MRPV 212200Z 08011G21KT 9999 SCT022 21/13 A2995 RMK RN NE=
200903212300 METAR MRPV 212300Z 10010G20KT 9999 SCT020 21/13 A2997 RMK RN NE=
200903220000 METAR MRPV NIL=
200903220100 METAR MRPV NIL=
200903220200 METAR MRPV NIL=
200903220300 METAR MRPV NIL=
200903220400 METAR MRPV NIL=
200903220500 METAR MRPV NIL=
200903220600 METAR MRPV NIL=
200903220700 METAR MRPV NIL=
200903220800 METAR MRPV NIL=
200903220900 METAR MRPV NIL=
200903221000 METAR MRPV NIL=
200903221100 METAR MRPV NIL=
200903221200 METAR MRPV 221200Z 10010G20KT 9999 NSC 18/13 A3000 TRACE SCT=
200903221300 METAR MRPV 221300Z 10010G20KT 9999 NSC 19/14 A3001 RMK TRACE SC=
200903221400 METAR MRPV 221400Z 10010G20KT 9999 NSC 21/14 A3002 RMK TRACE SC RN NE=
200903221500 METAR MRPV 221500Z 08014G24KT 9999 FEW030 22/15 A3003 RMK RN NE=
200903221600 METAR MRPV 221600Z 07013G23KT 9999 FEW030 23/14 A3001 RMK RN NE=
200903221700 METAR MRPV 221700Z 07012G22KT 9999 FEW030 24/14 A3000 RMK RN NE=
200903221800 METAR MRPV 221800Z 08012G24KT 9999 FEW030 23/15 A2998 RMK RN NE HZ W QUAD=
200903221900 METAR MRPV 221900Z 08013G23KT 9999 FEW030 23/15 A2995 RMK RN NE HZ W QUAD TCU S=
200903222000 METAR MRPV 222000Z 08014G24KT 9999 FEW030 24/15 A2992 RMK RN NE HZ W QUAD TCU S=
200903222100 METAR MRPV 222100Z 08013G23KT 9999 SCT030 23/15 A2991 RMK PCPN NE HZ W TCU S=
200903222200 METAR MRPV 222200Z 08014G24KT 9999 SCT025 21/15 A2991 RMK FEW008 HZ W TCU S PCPN NE=
200903222300 METAR MRPV 222300Z 09012G22KT 9999 SCT020 SCT250 21/15 A2993 RMK PCPN NE=
200903230000 METAR MRPV NIL=
200903230100 METAR MRPV NIL=
200903230200 METAR MRPV NIL=
200903230300 METAR MRPV NIL=
200903230400 METAR MRPV NIL=
200903230500 METAR MRPV NIL=
200903230600 METAR MRPV NIL=
200903230700 METAR MRPV NIL=
200903230800 METAR MRPV NIL=
200903230900 METAR MRPV NIL=
200903231000 METAR MRPV NIL=
200903231100 METAR MRPV NIL=
200903231200 METAR MRPV 231200Z 12010KT CAVOK 18/11 A2997 RMK TRACE SC FEW250=
200903231300 METAR MRPV 231300Z 12009KT CAVOK 19/19 A2999 RMK TRACE SC SCT250 VL MX VTO 14KT=
200903231400 METAR MRPV 231400Z 11010KT CAVOK 21/13 A3000 RMK TRACE CU SC SCT250 VEL MAX WIND 21 KTS=
200903231500 METAR MRPV 231500Z 08016KT CAVOK 23/13 A3000 RMK TRACE CU FEW250 VEL MAX WIND 16 KTS=
200903231600 METAR MRPV 231600Z 08016KT CAVOK 25/14 A3000 RMK TRACE CU AC FE250 XL MX VTO 21KT=
200903231700 METAR MRPV 231700Z 08013KT CAVOK 25/14 A2999 RMK TRACE CU FEW120 FEW250 VL MX VTO 18KT DU 09=
200903231800 METAR MRPV 231800Z 08015KR CAVOK 24/14 A2997 RMK TRACE CU FEW120 BKN250=
200903231900 METAR MRPV 231900Z 07014KT 9999 FEW035 BKN250 25/15 A2995 RMK VEL MAX=
200903232000 METAR MRPV 232000Z 08015KT 9999 FEW040 BKN250 26/15 A2992 RMK TRACE AC VEL MAX WIND 20 KTS=
200903232100 METAR MRPV NIL=
200903232200 METAR MRPV 232200Z 08016KT 9999 FEW040 25/15 A2989 RMK TCU DST S=
200903232300 METAR MRPV 232300Z 08016KT 9999 FEW035 23/15 A2991 RMK TCU DST S VL.MX.VTO 23KT=
200903240000 METAR MRPV 240000Z NIL=
200903240100 METAR MRPV NIL=
200903240200 METAR MRPV NIL=
200903240300 METAR MRPV NIL=
200903240400 METAR MRPV NIL=
200903240500 METAR MRPV NIL=
200903240600 METAR MRPV NIL=
200903240700 METAR MRPV NIL=
200903240800 METAR MRPV NIL=
200903240900 METAR MRPV NIL=
200903241000 METAR MRPV NIL=
200903241100 METAR MRPV NIL=
200903241200 METAR MRPV 241200Z 11012KT 9999 NSC 18/12 A2998 RMK TRACE SC AC CI VL MX VTO 19/KT=
200903241300 METAR MRPV 241300Z 11010KT CAVOK 20/13 A3000 RMK FEW120 TRAZAS SC/CI VL.MX.VTO 16KT=
200903241400 METAR MRPV 241400Z 11012KT 9999 NSC 22/12 A3001 RMK TRAZAS SC/AC/CI POLVOEN LAS SERCANIA DE LA PROXIMACION DE LA PISTA 09 VL.MX.VTO. 17KT=
200903241500 METAR MRPV 241500Z 09015KT 9999 NSC 24/11 A3002 RMK TRAZAS SC/AC=
200903241600 METAR MRPV 241600Z 07014KT 9999 NSC 25/11 A3002 RMK TRAZAS CU/SC/AC VL.MX.VTO. 19KT=
200903241700 METAR MRPV 241700Z 07011KT 9999 NSC 26/13 A3000 RMK TRAZAS CU/AC VL.MX.VTO.16KT=
200903241800 METAR MRPV 241800Z 08012KT 9999 FEW040 27/14 A2997 RMK VL.MX.VTO. 19KT=
200903241900 METAR MRPV 241900Z 07016KT 9999 FEW045 27/14 A2995 RMK VL.MX.VTO. 22KT TCU DST SW=
200903242000 METAR MRPV 242000Z 07014KT 9999 FEW045 27/15 A2993 RMK TCU DST S/SW VL.MX.VTO 19KT=
200903242100 METAR MRPV 242100Z 08015KT 9999 SCT040 26/15 A2991 TRACE AC TCU DST S SW VEL MAX VTO 20KT=
200903242200 METAR MRPV 242200Z 08016KT 9999 FEW035 SCT080 25/18 A2990 RMK CB DST SE TCU DST S SW W VEL MAX VTO 21KT=
200903242300 METAR MRPV 242300Z 09015KT 9999 SCT032 SCT080 23/16 A2992 RMK TCU DST S SW W VEL MAX VTO 22KT=
200903250000 METAR MRPV NIL=
200903250100 METAR MRPV NIL=
200903250200 METAR MRPV NIL=
200903250300 METAR MRPV NIL=
200903250400 METAR MRPV NIL=
200903250500 METAR MRPV NIL=
200903250600 METAR MRPV NIL=
200903250700 METAR MRPV NIL=
200903250800 METAR MRPV NIL=
200903250900 METAR MRPV NIL=
200903251000 METAR MRPV NIL=
200903251100 METAR MRPV NIL=
200903251200 METAR MRPV 251200Z 13008KT 9999 NSC 19/13 A2998 RMK TRACE SC AC=
200903251300 METAR MRPV 251300Z 13010KT 9999 NSC 20/13 A3000 RMK TRACE CU SC VEL MAX VTO 15KT=
200903251400 METAR MRPV 251400Z 12012KT 9999 NSC 22/14 A3001 RMK TRACE CU SC=
200903251500 METAR MRPV 251500Z 08011KT 9999 NSC 25/14 A3001 RMK TRACE CU VEL MAX VTO 16KT=
200903251600 METAR MRPV 251600Z 07010KT 9999 NSC 26/14 A3001 TRACE CU=
200903251700 METAR MRPV 251700Z 09009KT 9999 FEW048 27/14 A2999 RMK VEL MAX VTO 16KT=
200903251800 METAR MRPV 251800Z 08013KT 9999 FEW045 28/15 A2997=
200903251900 METAR MRPV 251900Z 08012KT 9999 FEW040 28/15 A2994 RMK TCU DST S SW W=
200903252000 METAR MRPV 252000Z 08015KT 9999 SCT040 28/16 A2992 RMK TCU S SW W=
200903252100 METAR MRPV 252100Z 08017KT 9999 FEW020TCU SCT040 26/16 A2990=
200903252200 METAR MRPV 252200Z 09016KT 9999 FEW035 SCT090 25/17 A2991 RMK CB SHRA DST SW VEL MAX VTO 22KT=
200903252300 METAR MRPV 252300Z 09014KT 9999 FEW020TCU BKN030 22/16 A2993 RMK VEL MAX VT0 20KT HZ LEVE ARND=
200903260000 METAR MRPV 260000Z NIL=
200903260100 METAR MRPV 260100Z NIL=
200903260200 METAR MRPV NIL=
200903260300 METAR MRPV NIL=
200903260400 METAR MRPV NIL=
200903260500 METAR MRPV NIL=
200903260600 METAR MRPV NIL=
200903260700 METAR MRPV NIL=
200903260800 METAR MRPV NIL=
200903260900 METAR MRPV NIL=
200903261000 METAR MRPV NIL=
200903261100 METAR MRPV NIL=
200903261200 METAR MRPV 261200Z 13010KT 9999 NSC 19/14 A2996 RMK TRAZAS SC=
200903261300 METAR MRPV 261300Z 11012KT 9999 NSC 21/13 A2998 RMK TRACE SC=
200903261400 METAR MRPV 261400Z 11012KT 9999 NSC 23/13 A3000 TRACE SCT=
200903261500 METAR MRPV 261500Z 10014KT 9999 NSC 25/14 A2999 RMK TRACE SC=
200903261600 METAR MRPV 261600Z 08014KT 9999 NSC 27/13 A2988 RMK TRACE SC=
200903261700 METAR MRPV 271700Z 08014KT 9999 NSC 29/13 A2996 RMK TRACE SC=
200903261800 METAR MRPV 261800Z 08014KT 9999 4000NW FU FEW030 29/14 A2994=
200903261900 METAR MRPV 261900Z 08010KT 9999 4000NW FU SCT030 29/13 A2991=
200903262000 METAR MRPV 262000Z 25008KT 9999 4000NW FU SCT030 29/18 A2989=
200903262100 METAR MRPV 262100Z 27010KT 9999 4000NW FU SCT030TCU 28/18 A2988 HZ W QUAD=
200903262200 METAR MRPV 262200Z 24010KT 9999 SCT022TCU 28/18 A2988 VIS W 5KM DUE HVY HZ=
200903262300 METAR MRPV 262300Z 09010KT 8000 VCFG SCT022TCU 24/17 A2989 VIS W 5KM DUE HZ=
200903270000 METAR MRPV 270000Z NIL=
200903270100 METAR MRPV NIL=
200903270200 METAR MRPV NIL=
200903270300 METAR MRPV NIL=
200903270400 METAR MRPV NIL=
200903270500 METAR MRPV NIL=
200903270600 METAR MRPV NIL=
200903270700 METAR MRPV NIL=
200903270800 METAR MRPV NIL=
200903270900 METAR MRPV NIL=
200903271000 METAR MRPV NIL=
200903271100 METAR MRPV NIL=
200903271200 METAR MRPV 271200Z 08004KT 9999 FEW028 16/12 A2995 FG OVER RNY 09 HZ W=
200903271300 METAR MRPV 271300Z 07006KT 9999 FEW028 18/13 A2997 DU APP09 VIS W 6KM DUE HZ=
200903271400 METAR MRPV 271400Z VRB02KT 8000 VCFG FEW025 23/16 A2999 VIS W 5KM DUE HZ HVY=
200903271500 METAR MRPV 271500Z 28007KT 8000 VCFG FEW024 FEW024 24/16 A2999 VIS W 5KM DUE HVY HZ=
200903271600 METAR MRPV 271600Z 27007KT 9999 SCT022 26/16 A2999 RMK VIS W 4KM DUE HZ HVY HZ ARND=
200903271700 METAR MRPV 271700Z 27010KT 9999 SCT022 27/16 A2997 VIS W 5KM DUE HZ HZ ARND=
200903271800 METAR MRPV 271800Z 27010KT 9999 SCT022 27/15 A2995 VIS 8KM DUE HZ HZ ARND TCU S=
200903271900 METAR MRPV 271900Z 27012KT 9999 SCT022 28/16 A2992 TCU S VIS W 8KM DUE HZ=
200903272000 METAR MRPV 272000Z 26010KT 9999 SCT020TCU 28/17 A2989 RMK VIS W 8KM DUE HZ=
200903272100 METAR MRPV 272100Z 27010KT 9999 SCT020TCU 27/18 A2988 VEL MAX VIENTO 18NUDO S HZ ARND VIS W 8KMS DUE HZ=
200903272200 METAR MRPV 272200Z 26010KT 9999 SCT020TCU 26/18 A2988 HZ ARND VIS 8KMS W DUR HZ=
200903272300 METAR MRPV 272300Z 27010KT 9999 SCT020 24/17 A2989 HZ ARND TCU N=
200903280000 METAR MRPV NIL=
200903280100 METAR MRPV NIL=
200903280200 METAR MRPV NIL=
200903280300 METAR MRPV NIL=
200903280400 METAR MRPV NIL=
200903280500 METAR MRPV NIL=
200903280600 METAR MRPV NIL=
200903280700 METAR MRPV NIL=
200903280800 METAR MRPV NIL=
200903280900 METAR MRPV NIL=
200903281000 METAR MRPV NIL=
200903281100 METAR MRPV NIL=
200903281200 METAR MRPV 281200Z NIL=
200903281300 METAR MRPV 281300Z 08005KT 9999 SKC 19/15 A2999 RMK DU PISTA 09=
200903281400 METAR MRPV 281400Z 08004KT 9999 SKC 23/15 A3001 RMK HZ W=
200903281500 METAR MRPV 281500Z 24004KT 9999 NSC 25/13 A3002 RMK TRACE SC HZ W=
200903281600 METAR MRPV 281600Z 28008KT 9999 NSC 27/11 A3001 RMK TRACE SC HZ W=
200903281700 METAR MRPV 281700Z 28010KT 9999 FEW030 29/09 A3000 RMK HZ W=
200903281800 METAR MRPV 281800Z 27012KT 9999 FEW030 29/12 A2988 RMK HZ W RAFAGAS 19KT=
200903281900 METAR MRPV 281900Z 25010KT 9999 FEW030 29/13 A2996 RMK TCU S HZ W=
200903282000 METAR MRPV 282000Z 26010G20KT 9999 FEW030 30/13 A2994 RMK TCU S HZ W=
200903282100 METAR MRPV 282100Z 26010KT 9999 SCT030TCU 28/15 A2992 RMK HZ W=
200903282200 METAR MRPV 282200Z 27014KT 9999 SCT030TCU 27/14 A2991=
200903282300 METAR MRPV 282300Z 26012KT 9999 FEW030 26/14 A2992 RMK HZ W=
200903290000 METAR MRPV 290000Z NIL=
200903290100 METAR MRPV NIL=
200903290200 METAR MRPV NIL=
200903290300 METAR MRPV NIL=
200903290400 METAR MRPV NIL=
200903290500 METAR MRPV NIL=
200903290600 METAR MRPV NIL=
200903290700 METAR MRPV NIL=
200903290800 METAR MRPV NIL=
200903290900 METAR MRPV NIL=
200903291000 METAR MRPV NIL=
200903291100 METAR MRPV NIL=
200903291156 METAR MRPV 20=
200903291200 METAR MRPV 291200Z 09003KT CAVOK 17/5 A2998 RMK BKN250 HZ ARND=
200903291300 METAR MRPV 291300Z 09007KT CAVOK 21/15 A3000 RMK SCT250 TRAZAS SC HZY=
200903291400 METAR MRPV 291400Z 11009KT CAVOK 24/15 A3001 RMK SCT250 TRAZAS CU HZY=
200903291500 METAR MRPV 291500Z 13008KT CAVOK 27/14 A3001 RMK TRAZAS CU SCT250 HZY=
200903291600 METAR MRPV 291600Z 08011KT CAVOK 28/09 A3000 RMK TRAZAS CU FEW250 HZ LGT ARND=
200903291700 METAR MRPV 291700Z 10008KT 9999 FEW045 30/12 A2998=
200903291800 METAR MRPV 291800Z 09007KT 9999 FEW045 30/12 A2996 RMK HZ QUAND W VL.MX.VTO 13KT=
200903291900 METAR MRPV 291900Z 26006KT 9999 SCT040 28/16 A2994 RMK VL.MX.VTO. 14KT=
200903292000 METAR MRPV 292000Z 27009KT 9999 SCT040 29/16 A2992 RMK VL.MX.VTO 14KT TCU SE/SW=
200903292100 METAR MRPV 292100Z 25007KT 9999 FEW025 SCT040 28/18 A2990 RMK VEL MAX VTO 12KT TUC DST SE S SW LGT HZ ARND=
200903292200 METAR MRPV 292200Z 25006KT 9999 FEW025 BKN040 26/18 A2991 RMK TCU NW N NE E LGT HZ ARND VEL MAX VTO 13KT=
200903292300 METAR MRPV 292300Z 26004KT 9999 FEW025 BKN040 26/18 A2992 RMK TCU DST N NE SE LGT HZ ARND=
200903300000 METAR MRPV NIL=
200903300100 METAR MRPV NIL=
200903300200 METAR MRPV NIL=
200903300300 METAR MRPV NIL=
200903300400 METAR MRPV NIL=
200903300500 METAR MRPV NIL=
200903300600 METAR MRPV NIL=
200903300700 METAR MRPV NIL=
200903300800 METAR MRPV NIL=
200903300900 METAR MRPV NIL=
200903301000 METAR MRPV NIL=
200903301100 METAR MRPV NIL=
200903301200 METAR MRPV 301200Z 12008KT 9999 NSC 20/13 A2999 RMK TRACE CU CI HZ=
200903301300 METAR MRPV 301300Z 12008KT 9999 NSC 22/12 A3001 RMK TRACE SC CI LGT HZ ARND=
200903301400 METAR MRPV 301400Z 11010KT 9999 NSC 24/12 A3002 RMK TRACE CU CI LGT HZ ARND=
200903301500 METAR MRPV 301500Z 10012KT CAVOK 26/12 A3002 RMK TRACE CU FEW250 VEL MAX VTO 19KT LGT HZ ARND=
200903301600 METAR MRPV 301600Z 08014KT CAVOK 27/10 A3001 RMK TRACE CU FEW250 LGT HZ ARND VEL MAX VTO 20KT=
200903301700 METAR MRPV 301700Z 08010KT CAVOK 28/12 A3000 RMK TRACE CU SCT250 VEL MAX VTO 16KT=
200903301800 METAR MRPV 301800Z 08013KT 9999 FEW048 SCT300 28/12 A2997 RMK LGT HZ ARND TRACE AC VEL MAX VTO 18KT=
200903301900 METAR MRPV 301900Z 07013KT 9999 FEW045 SCT100 29/14 A2994 RMK HZ ARND VEL MAX WIND 20 KTS=
200903302000 METAR MRPV 302000Z 08015KT 9999 FEW045 SCT100 27/15 A2993 RMK HZ LGT ARND TCU SW W=
200903302100 METAR MRPV 302100Z 09012KT 9999 FEW040 28/14 A2991 RMK CB DST SE TCU DST S SW W HZ LEVE ARND=
200903302200 METAR MRPV 302200Z 08013KT 9999 FEW045 26/16 A2990 RMK TRACE AC CI HZ LEVE ARND TCU DST E CB SHRA DST WSW=
200903302300 METAR MRPV 302300Z 09013KT 9999 FEW040 SCT250 25/17 A2993 RMK HZ LEVE ARND VIS 8000 W SW HZ=
200903302330 METAR MRPV 302330Z 08012KT 9999 FEW030 BKN250 24/16 A2993 RMK VIS 8000 SW W DUE HZ HZY FEW100=
200903310000 METAR MRPV NIL=
200903310100 METAR MRPV NIL=
200903310200 METAR MRPV NIL=
200903310300 METAR MRPV NIL=
200903310400 METAR MRPV NIL=
200903310500 METAR MRPV NIL=
200903310600 METAR MRPV NIL=
200903310700 METAR MRPV NIL=
200903310800 METAR MRPV NIL=
200903310900 METAR MRPV NIL=
200903311000 METAR MRPV NIL=
200903311100 METAR MRPV NIL=
200903311200 METAR MRPV 311200Z 12006KT CAVOK 20/15 A3000 RMK TRAZAS SC FEW250 HZ LGT ARND=
200903311300 METAR MRPV 311300Z 11008KT 9999 NSC 22/15 A3001 HZ LGT ARND TRAZAS CU/CI VEL/MAX/ VIENTO 13NUDOS=
200903311400 METAR MRPV 311400Z 09009KT 9999 NSC 24/16 A3001 TRAZAS CU HZY=
200903311500 METAR MRPV 311500Z 09010KT 9999 NSC 26/16 A3002 TRAZAS CU VIS W 8 KMS DUE HZ HZY=
200903311600 METAR MRPV 311600Z 08005KT 9999 FEW045 29/15 A3000 VIS W 8KMS DUE HZ HZY=
200903311700 METAR MRPV 311700Z 10004KT 9999 FEW045 30/17 A2999 RMK HZ LGT ARND VIS 8000W HZ=
200903311800 METAR MRPV 311800Z 28011KT 9999 FEW030TCU BKN045 27/18 A2997 RMK HZ LGT ARN D=
200903311900 METAR MRPV 311900Z 25007KT 9999 FEW025TCU BKN035 27/19 A2995 RMK HZ ARND VEL.MAX.VTO 12KT=
200903312000 METAR MRPV 312000Z 25009KT 8000 VCSH FEW020TCU BKN030 25/19 A2995 RMK VIS 9999 SE E 7000 NE E=
200903312100 METAR MRPV 312100Z 26005KT 7000 VCSH FEW018TCU BKN025 24/19 A2996 REDZ RMK VIS NE E 6KM OCNL TS DIST N=
200903312200 METAR MRPV 312200Z 00000KT 8000 3500NE -RA VCTS FEW015CB SCT030 BKN100 23/19 A2996 VIS S SE UNL=
200903312300 METAR MRPV 312300Z 08003KT 7000 -RA FEW010 SCT025 BKN100 22/19 A2996 HZY=
200903312352 METAR MRPV 010000Z NIL=
200904010000 METAR MRPV 010000Z NIL=
200904010100 METAR MRPV NIL=
200904010200 METAR MRPV NIL=
200904010300 METAR MRPV NIL=
200904010400 METAR MRPV NIL=
200904010500 METAR MRPV NIL=
200904010600 METAR MRPV NIL=
200904010700 METAR MRPV NIL=
200904010800 METAR MRPV NIL=
200904010900 METAR MRPV NIL=
200904011000 METAR MRPV NIL=
200904011100 METAR MRPV NIL=
200904011200 METAR MRPV 011200Z 00000KT 7000 VCFG SCT010 BKN250 19/18 A3001 RMK DUST IN APCH RNY 09 VIS S UNLTD=
200904011300 METAR MRPV 011300Z 00000KT 5000 BR SCT010 BKN250 20/18 A3004 RMK DU APP09 VIS S UNL=
200904011400 METAR MRPV 011400Z 10005KT 5000 BR SCT010 BKN250 22/18 A3005 RMK VIS S UNL DU APP09=
200904011500 METAR MRPV 011500Z 07005KT 5000 BR SCT012 BKN250 25/18 A3005=
200904011600 METAR MRPV 011600Z 25005KT 5000 BR SCT012 BKN250 27/17 A3005=
200904011700 METAR MRPV 011700Z 27008KT 5000 BR FEW010TCU SCT022 BKN250 26/18 A3000=
200904011800 METAR MRPV 011800Z 27012KT 5000 BR FEW010TCU SCT022 BKN250 26/18 A3001=
200904011900 METAR MRPV 011900Z 26007KT 5000 BR SCT010TCU SCT022 BKN250 27/18 A2998=
200904012000 METAR MRPV 012000Z 26010KT 5000 BR SCT010TCU SCT022 BKN250 27/18 A2995=
200904012100 METAR MRPV 012100Z 27011KT 5000 BR SCT010TCU SCT022 BKN250 28/18 A2993=
200904012200 METAR MRPV 012200Z 26010KT 5000 BR SCT010TCU SCT022 BKN250 25/19 A2993=
200904012300 METAR MRPV 012300Z 27010KT 5000 BR SCT010TCU SCT022 BKN250 24/19 A2994=
200904020000 METAR MRPV NIL=
200904020100 METAR MRPV NIL=
200904020200 METAR MRPV NIL=
200904020300 METAR MRPV NIL=
200904020400 METAR MRPV NIL=
200904020500 METAR MRPV NIL=
200904020600 METAR MRPV NIL=
200904020700 METAR MRPV NIL=
200904020800 METAR MRPV NIL=
200904020900 METAR MRPV NIL=
200904021000 METAR MRPV NIL=
200904021100 METAR MRPV NIL=
200904021200 METAR MRPV 021200Z 08007KT 7000 VCFG FEW002 BKN250 17/14 A2999 RMK FEW020 HZ ARND=
200904021300 METAR MRPV 021300Z 13006KT 7000 FEW020 BKN250 21/16 A3000 RMK HZ ARND=
200904021400 METAR MRPV 021400Z 12006KT 7000 FEW020 BKN250 24/15 A3001 RMK HZ ARND DU PISTA 09=
200904021500 METAR MRPV 021500Z 10006KT 8000 FEW025 26/13 A3001 RMK HZ ARND DU PISTA 09=
200904021600 METAR MRPV 021600Z 07007KT 9000 FEW025 27/12 A3000 RMK HZ ARND VIS W 5000 DUE HZ=
200904021700 METAR MRPV 021700Z 19004KT 9999 FEW025 29/12 A2998 RMK HZ ARND VIS W 6000 DUE HZ=
200904021800 METAR MRPV 021800Z 27006KT 9999 FEW022 31/11 A2995 RMK HZ ARND VIS W 6000 DUE HZ=
200904021900 METAR MRPV 021900Z 26012KT 9999 SCT022 29/15 A2992 RMK HZ ARND VIS W 6000 MTS DUE HZ=
200904022000 METAR MRPV 022000Z 27012KT 8000 SCT020TCU 29/18 A2989 RMK HZ ARND VIS W 500 0MTS DUE HZ=
200904022100 METAR MRPV 022100Z 26014KT 8000 SCT018TCU 27/19 A2298 RMK VIS 5KM DUE HZ=
200904022200 METAR MRPV 022200Z 27012KT 5000 HZ SCT015TCU 26/20 A2989=
200904022300 METAR MRPV 022300Z 27010KT 5000 HZ FEW010TCU SCT025 23/19 A2990=
200904030000 METAR MRPV 030000Z NIL=
200904030100 METAR MRPV NIL=
200904030200 METAR MRPV NIL=
200904030300 METAR MRPV NIL=
200904030400 METAR MRPV NIL=
200904030500 METAR MRPV NIL=
200904030600 METAR MRPV NIL=
200904030700 METAR MRPV NIL=
200904030800 METAR MRPV NIL=
200904030900 METAR MRPV NIL=
200904031000 METAR MRPV NIL=
200904031100 METAR MRPV NIL=
200904031200 METAR MRPV 031200Z 00000KT 4000 HZ BR SCT001 BKN010 20/18 A2999 DU APP09=
200904031300 METAR MRPV 031300Z 24004KT 4000 HZ BR SCT002 BKN012 20/18 A3001 RMK POLVO EN LA CABECERA 09=
200904031400 METAR MRPV 031400Z 00000KT 5000 HZ BR SCT002 BKN015 21/18 A3003 RMK POLVO EN CABECERA 09=
200904031500 METAR MRPV 031500Z VRB02KT 7000 3000NW FU SCT010 BKN080 23/16 A3004 RMK POLVO EN CABECERA PISTA 09=
200904031600 METAR MRPV 031600Z 24005KT 7000 3000NW HZ SCT010 SCT080 25/15 A3003 RMK POLVO EN CABECERA 09=
200904031700 METAR MRPV 031700Z 28005KT 7000 3000NW HZ SCT010 BKN025 26/16 A3001 RMK POLVO EN CABECERA PISTA 09=
200904031800 METAR MRPV 031800Z VRB02KT 7000 3000NW HZ SCT015 BKN070 26/17 A2999=
200904031900 METAR MRPV 031900Z 27008KT 7000 3000NW HZ FEW012TCU SCT020 BKN090 27/17 A2995=
200904032000 METAR MRPV 032000Z 28010KT 7000 3000NE VCSH SCT010TCU BKN030 28/18 A2993 RMK HZ ARND=
200904032100 METAR MRPV 032100Z 26012KT 7000 3000NE VCSH SCT010TCU BKN030 27/18 A2991 RMK HZ ARND=
200904032200 METAR MRPV 032200Z 25009KT 7000 3000NW HZ FEW010TUC SCT025 BKN250 26/18 A2990=
200904032300 METAR MRPV 032300Z 27010KT 7000 3000NW HZ FEW010TCU BKN025 24/18 A2991=
200904040000 METAR MRPV NIL=
200904040100 METAR MRPV NIL=
200904040200 METAR MRPV NIL=
200904040300 METAR MRPV NIL=
200904040400 METAR MRPV NIL=
200904040500 METAR MRPV NIL=
200904040600 METAR MRPV NIL=
200904040700 METAR MRPV NIL=
200904040800 METAR MRPV NIL=
200904040900 METAR MRPV NIL=
200904041000 METAR MRPV NIL=
200904041100 METAR MRPV NIL=
200904041200 METAR MRPV 041200Z 08004KT 9999 NSC 19/14 A2999 RMK TRACE SC CI HZ ARND=
200904041300 METAR MRPV 041300Z 13007KT 9999 NSC 22/14 A3001 RMK TRACE SC HZY=
200904041400 METAR MRPV 041400Z 13006KT 9999 NSC 24/15 A3003 RMK TRACE CU HZY VIS W 8KMS DUE HZ=
200904041500 METAR MRPV 041500Z 09009KT 9999 NSC 26/15 A3003 RMK VIS W 8KMS HZ TRACE CU VEL MAX VTO 14KT HZY=
200904041600 METAR MRPV 041600Z 07009KT 9999 FEW045 27/15 A3002 RMK VIS W 8KMS DUE HZ HZY=
200904041700 METAR MRPV 041700Z 07008KT 9999 FEW045 28/15 A3001 RMK VIS W 8KMS DUE HZ HZY VEL MAX VTO 17KT=
200904041800 METAR MRPV 041800Z 08010KT 9999 FEW045 29/15 A2998 RMK VIS W 8KMS DUE HZ HZY VEL MAX VTO 17KT=
200904041900 METAR MRPV 041900Z 08009KT 9999 FEW045 30/15 A2995 RMK HZ TCU DST SW W=
200904042000 METAR MRPV 042000Z 13003KT 9999 FEW028TCU SCT040 30/15 A2992 RMK HZY=
200904042100 METAR MRPV 042100Z 12005KT 9999 FEW025TCU SCT040 28/16 A2990 RMK HZY VEL.MAX.VTO 11KT=
200904042200 METAR MRPV 042200Z 09011KT 9999 FEW025 SCT040 27/16 A2990 RMK HZY=
200904042300 METAR MRPV 042300Z 08010KT 9999 VCSH FEW025 SCT035 27/16 A2990 RMK VIS 8000 N TCU DST SW N=
200904050000 METAR MRPV NIL=
200904050100 METAR MRPV NIL=
200904050200 METAR MRPV NIL=
200904050300 METAR MRPV NIL=
200904050400 METAR MRPV NIL=
200904050500 METAR MRPV NIL=
200904050600 METAR MRPV NIL=
200904050700 METAR MRPV NIL=
200904050800 METAR MRPV NIL=
200904050900 METAR MRPV NIL=
200904051000 METAR MRPV NIL=
200904051100 METAR MRPV NIL=
200904051200 METAR MRPV 051200Z 14007KT 9999 NSC 18/13 A2996 RMK TRAZAS SC HZ W=
200904051300 METAR MRPV 051300Z 13007KT 9999 NSC 20/13 A2998 RMK TRACE SC VEL.MAX.VTO 15KT=
200904051400 METAR MRPV 051400Z 11010KT 9999 NSC 22/14 A2999 RMK TRACE CU SC VEL. MAX VTO 15KT=
200904051500 METAR MRPV 051500Z 09012KT 9999 NSC 24/14 A3000 RMK TRACE CU VEL.MAX.VTO 17KT=
200904051600 METAR MRPV 051600Z 08010KT 9999 NSC 25/14 A3000 RMK TRACE CU VEL.MAX.VTO 15KT=
200904051700 METAR MRPV 051700Z 07015KT 9999 FEW045 26/14 A2998 RMK VEL.MAX.VTO 20KT=
200904051800 METAR MRPV 051800Z 08013KT 9999 FEW045 27/15 A2997 RMK VEL.MAX.VTO 19KT=
200904051900 METAR MRPV 051900Z 08012G22KT 9999 FEW045 27/15 A2995=
200904052000 METAR MRPV 052000Z 07012KT 9999 FEW045 27/14 A2992 RMK VEL MAX WIND 18 KTS=
200904052100 METAR MRPV 052100Z 06010KT 9999 FEW045 28/14 A2990 VEL MAX VT 16KTS=
200904052200 METAR MRPV 052200Z 08012KT 9999 FEW045 27/14 A2990 VEL MAX VT 17KTS=
200904052300 METAR MRPV 052300Z 08011KT 9999 FEW040 26/14 A2991=
200904060000 METAR MRPV 060000Z NIL=
200904060100 METAR MRPV NIL=
200904060200 METAR MRPV NIL=
200904060300 METAR MRPV NIL=
200904060400 METAR MRPV NIL=
200904060500 METAR MRPV NIL=
200904060600 METAR MRPV NIL=
200904060700 METAR MRPV NIL=
200904060800 METAR MRPV NIL=
200904060900 METAR MRPV NIL=
200904061000 METAR MRPV NIL=
200904061100 METAR MRPV NIL=
200904061200 METAR MRPV 061200Z 14006KT 9999 NSC 17/13 A2999 RMK TRACE SC=
200904061300 METAR MRPV 061300Z 11009KT 9999 NSC 20/13 A3000 RMK TRACE SC VEL MAX VT 14KTS=
200904061400 METAR MRPV 061400Z 1009KT 9999 NSC 22/13 A3003 RMK TRACE CU VEL MX VT 14KTS=
200904061500 METAR MRPV 061500Z 11008KT 9999 NSC 24/13 A3002 RMK TRACE CU VL MX VT 14KTS=
200904061600 METAR MRPV 061600Z 10008KT 9999 NSC 26/13 A3001 RMK TRACE CU VL MX VT 13KTS=
200904061700 METAR MRPV 061700Z 08010KT 9999 NSC 27/13 A2999 RMK TRACE CU VL MX VT 15KTS HZ LGT W=
200904061800 METAR MRPV 061800Z 07009KT 9999 NSC 28/14 A2996 RMK TRACE CU VL MX VT 14KTS HZ LGT ARND=
200904061900 METAR MRPV 061900Z 08012KT 9999 NSC 28/14 A2994 RMK TRACE CU VL MX VT 17KTS HZ LGT ARND=
200904062000 METAR MRPV 062000Z 08013KT 9999 FEW045 29/14 A2991=
200904062100 METAR MRPV 062100Z 08014KT 9999 FEW040 28/14 A2991=
200904062200 METAR MRPV 062200Z 08013KT 9999 FEW040 28/14 A2991=
200904062300 METAR MRPV 062300Z 08014KT 9999 FEW040 25/15 A2992 HZY MAX/ WIND 20KT=
200904070000 METAR MRPV 070000Z 06002KT CAVOK 28/21 A2986 TRAZAS CU BKN070 FEW300 HZY=
200904070100 METAR MRPV 070100Z NIL=
200904070200 METAR MRPV NIL=
200904070300 METAR MRPV NIL=
200904070400 METAR MRPV NIL=
200904070500 METAR MRPV NIL=
200904070600 METAR MRPV NIL=
200904070700 METAR MRPV NIL=
200904070800 METAR MRPV NIL=
200904070900 METAR MRPV NIL=
200904071000 METAR MRPV NIL=
200904071100 METAR MRPV NIL=
200904071200 METAR MRPV 071200Z 11010KT 9999 NSC 19/12 A3004 TRACE SCT CI=
200904071300 METAR MRPV 071300Z 09010G20KT 9999 NSC 21/13 A3006 TRACE SCT CI=
200904071400 METAR MRPV 071400Z 09011G21KT 9999 NSC 23/15 A3010 TRACE SCT CI=
200904071500 METAR MRPV 071500Z 07013G23KT 9999 FEW030 24/15 A3010=
200904071600 METAR MRPV 071600Z 06011G21KT 9999 FEW030 25/13 A3010=
200904071700 METAR MRPV 071700Z 06016G26KT 9999 FEW030 25/13 A3008=
200904071800 METAR MRPV 071800Z 06012G22KT 9999 FEW030 27/13 A3006=
200904071900 METAR MRPV 071900Z 07014G24KT 9999 FEW030 27/13 A3003=
200904072000 METAR MRPV 072000Z 06014G24KT 9999 SCT030 27/13 A3001=
200904072100 METAR MRPV 072100Z 06019G29KT 9999 FEW030 25/15 A2999 RMK PCPN DST E FU N=
200904072200 METAR MRPV 072200Z 06014G24KT 9999 FEW025 23/14 A3000 RMK PCPN NE FU N=
200904072300 METAR MRPV 072300Z 07014G24KT 9999 FEW022 23/14 A3000 RMK PCPN NE=
200904080000 METAR MRPV 080000Z NIL=
200904080100 METAR MRPV NIL=
200904080200 METAR MRPV NIL=
200904080300 METAR MRPV NIL=
200904080400 METAR MRPV NIL=
200904080500 METAR MRPV NIL=
200904080600 METAR MRPV NIL=
200904080700 METAR MRPV NIL=
200904080800 METAR MRPV NIL=
200904080900 METAR MRPV NIL=
200904081000 METAR MRPV NIL=
200904081100 METAR MRPV NIL=
200904081200 METAR MRPV 081200Z 12016KT 9999 NSC 18/08 A3008 RMK TRACE CI=
200904081300 METAR MRPV 081300Z 11010G20KT NSC 22/05 3009 RMK TRAZAS CI=
200904081400 METAR MRPV 081400Z 11011G21KT CAVOK 23/05 A3010 RMK FEW250=
200904081500 METAR MRPV 081500Z 07020G30KT CAVOK 24/08 A3011 RMK FEW250=
200904081600 METAR MRPV 081600Z 07015G25KT CAVOK 25/09 A3010 RMK FEW250 TRAZAS SC=
200904081700 METAR MRPV 081700Z 06017G17KT CAVOK 26/10 A3008 RMK FEW250 TRAZAS SC=
200904081800 METAR MRPV 081800Z 06018G28KT 9999 FEW030 SCT250 25/13 A3007=
200904081900 METAR MRPV 081900Z 08014G24KT 9999 FEW030 SCT250 25/13 A3005=
200904082000 METAR MRPV 082000Z 08014G24KT 9999 FEW030 SCT250 25/12 A3002=
200904082100 METAR MRPV 082100Z 07014G24KT 9999 FEW030 SCT250 26/13 A3000=
200904082200 METAR MRPV 082200Z 09012G22KT SCT030 SCT250 25/12 A3002=
200904082300 METAR MRPV 082300Z 09010G20KT 9999 FEW030 SCT250 23/12 A3001=
200904090000 METAR MRPV NIL=
200904090100 METAR MRPV NIL=
200904090200 METAR MRPV NIL=
200904090300 METAR MRPV NIL=
200904090400 METAR MRPV NIL=
200904090500 METAR MRPV NIL=
200904090600 METAR MRPV NIL=
200904090700 METAR MRPV NIL=
200904090800 METAR MRPV NIL=
200904090900 METAR MRPV NIL=
200904091000 METAR MRPV NIL=
200904091100 METAR MRPV NIL=
200904091200 METAR MRPV 091200Z 11010KT CAVOK 19/14 A3003 RMK TRACE SC BKN250=
200904091300 METAR MRPV 091300Z 11010G20KT CAVOK 21/14 A3004 RMK TRACE SC BKN250=
200904091400 METAR MRPV 091400Z 09010G20KT CAVOK 23/14 A3005 RMK TRACE SC BKN250=
200904091500 METAR MRPV 091500Z 08012G22KT CAVOK 24/15 A3005 RMK FEWSC BKN250=
200904091600 METAR MRPV 091600Z 07010G20KT CAVOK 26/14 A3005 RMK TRACE SC BKN250=
200904091700 METAR MRPV 091700Z 06010G20KT 9999 FEW030 BKN250 26/15 A3004=
200904091800 METAR MRPV 091800Z 06010G20KT 9999 FEW030 BKN250 27/15 A3002 RMK PCPN DST NE=
200904091900 METAR MRPV 091900Z 06010G20KT 9999 FEW030 BKN250 26/16 A3000=
200904092000 METAR MRPV 092000Z 07010G20KT 9999 FEW030 BKN250 26/16 A3000=
200904092100 METAR MRPV 092100Z 08013G23KT 9999 FEW030 SCT250 25/15 A2994 RMK RN DST NE TCU DST S=
200904092200 METAR MRPV 092200Z 07013G23KT 9999 FEW030 SCT250 24/16 A2996 RMK RN DST NE TCU DST S=
200904092300 METAR MRPV 092300Z 08012G22KT 9999 FEW030 SCT250 22/16 A2996 RMK RN DST NE TCU DST S=
200904100000 METAR MRPV NIL=
200904100100 METAR MRPV NIL=
200904100200 METAR MRPV NIL=
200904100300 METAR MRPV NIL=
200904100400 METAR MRPV NIL=
200904100500 METAR MRPV NIL=
200904100600 METAR MRPV NIL=
200904100700 METAR MRPV NIL=
200904100800 METAR MRPV NIL=
200904100900 METAR MRPV NIL=
200904101000 METAR MRPV NIL=
200904101100 METAR MRPV NIL=
200904101200 METAR MRPV 101200Z 12007KT CAVOK 18/14 A3003 RMK TRAZAS SC FEW250=
200904101300 METAR MRPV 101300Z 13009KT CAVOK 20/14 A3005 RMK TRACE SC SCT250 VEL.MAX.VTO 16KT=
200904101400 METAR MRPV 101400Z 12009KT CAVOK 22/13 A3007 RMK TRACE SC SCT250 VEL.MAX.VTO 15KT=
200904101500 METAR MRPV 101500Z 09011KT CAVOK 24/14 A3007 RMK TRACE SC BKN250=
200904101600 METAR MRPV 101600Z 08010KT CAVOK 26/14 A3006 RMK TRACE CU BKN250 VEL MAX VTO 16KT=
200904101700 METAR MRPV 101700Z 07010KT CAVOK 27/13 A3005 RMK TRACE CU SCT250 VEL MAX VTO 16KT=
200904101800 METAR MRPV 101800Z 08012KT 9999 FEW045 SCT250 28/13 A3002=
200904101900 METAR MRPV 101900Z 08011KT 9999 FEW045 SCT300 28/14 A2999 RMK VEL MAX=
200904102000 METAR MRPV 102000Z 09012KT 9999 FEW040 28/15 A2997 RMK VEL MAX WIND TCU DST SW=
200904102100 METAR MRPV 102100Z 08011KT 9999 FEW040 28/14 A2995 VL MX VT 16KTS FEW100 TCU SW W=
200904102200 METAR MRPV 102200Z 07011KT 9999 FEW040 26/15 A2995 RMK TCU AND RASH SW FEW100=
200904102300 METAR MRPV 102300Z 08012KT 9999 FEW035 24/16 A2997 FEW100 TCU DIST W=
200904102357 METAR MRPV 110000Z NIL=
200904110000 METAR MRPV 110000Z NIL=
200904110100 METAR MRPV NIL=
200904110200 METAR MRPV NIL=
200904110300 METAR MRPV NIL=
200904110400 METAR MRPV NIL=
200904110500 METAR MRPV NIL=
200904110600 METAR MRPV NIL=
200904110700 METAR MRPV NIL=
200904110800 METAR MRPV NIL=
200904110900 METAR MRPV NIL=
200904111000 METAR MRPV NIL=
200904111100 METAR MRPV NIL=
200904111200 METAR MRPV 111200Z 13007KT 9999 NSC 19/14 A3004 RMK TRACE SC=
200904111300 METAR MRPV 111300Z 14007KT 9999 NSC 22/14 A3006 TRACE CU CI=
200904111400 METAR MRPV 111400Z 12008KT 9999 NSC 25/13 A3008 RMK TRACE CU CI VL MX VT 13KTS=
200904111500 METAR MRPV 111500Z 09009KT 9999 NSC 26/13 A3009 RMK TRACE CU CI VL MX VTO 14KTS=
200904111600 METAR MRPV 111600Z 10007KT 9999 NSC 28/14 A3007 TRACE CU VL MX VTO 12KTS=
200904111700 METAR MRPV 111700Z 08011KT 9999 FEW048 28/15 A3006 RMK VL MX VTO 17KTS=
200904111754 METAR MRPV 171800Z 07012KT 9999 FEW045 28/16 A3005=
200904111800 METAR MRPV 111800Z 07012KT 9999 FEW045 28/16 A3005=
200904111900 METAR MRPV 111900Z 08014KT 9999 FEW045 28/16 A3002 RMK VEL MAX WIND 19 KTS=
200904112000 METAR MRPV 112000Z 07015KT 9999 FEW045 28 /17 A2999 RMK VEL MAX WIND 20 KTS=
200904112100 METAR MRPV 112100Z 08015KT 9999 FEW045 27/17 A2997 TCU SW MAX WIND 20KT=
200904112200 METAR MRPV 112200Z 08016KT 9999 FEW040 26/17 A2996 TCU W CB SW MAX/=
200904112300 METAR MRPV 112300Z 08016KT 9999 FEW030 24/17 A2997 TCU WSW FEW080 MAX/=
200904112330 METAR MRPV 112330Z 10013KT 9999 FEW030 23/17 A2997 RMK MAX. WIND 18KT=
200904120000 METAR MRPV 120000Z NIL=
200904120100 METAR MRPV NIL=
200904120200 METAR MRPV NIL=
200904120300 METAR MRPV NIL=
200904120400 METAR MRPV NIL=
200904120500 METAR MRPV NIL=
200904120600 METAR MRPV NIL=
200904120700 METAR MRPV NIL=
200904120800 METAR MRPV NIL=
200904120900 METAR MRPV NIL=
200904121000 METAR MRPV NIL=
200904121100 METAR MRPV NIL=
200904121200 METAR MRPV 121200Z 12010KT 9999 SCT030 21/16 A3000 RMK DZ DST NE=
200904121300 METAR MRPV 121300Z 11011KT 9999 SCT030 21/17 A3003 DZ N NE MAX/ WIND 17KT=
200904121400 METAR MRPV 121400Z 11011KT 9999 FEW030 24/17 A3006 FEW080 DZ N NE MAX=
200904121500 METAR MRPV 121500Z 09014KT 9999 BKN030 24/17 A3006 DZ N NE MAX/WIND 20KT=
200904121600 METAR MRPV 121600Z 08013G23KT 9999 BKN030 24/17 A3006=
200904121700 METAR MRPV 121700Z 08013KT 9999 BKN035 26/17 A3005 MAX/ WIND 18KT=
200904121800 METAR MRPV 121800Z 08012KT 9999 BKN035 25/17 A3004 MAX WIND 17KT=
200904121900 METAR MRPV 121900Z 09012KT 9999 SCT035 28/17 A2999 MAX WIND 17KT=
200904122000 METAR MRPV 122000Z 06015KT 9999 DZ BKN030 24/18 A2997 RERA TCU SE SW RN NW N NE=
200904122100 METAR MRPV 122100Z 08015KT 9999 SCT035 26/16 A2996 REDZ RMK FEW250 CB/RASH DST SW TRAZAS AC VL.MX.VTO 21KT=
200904122200 METAR MRPV 122200Z 07013KT 9999 FEW030 SCT250 24/16 A2996 RMK TRAZAS AC/AS VL.MX.VTO. 19KT=
200904122300 METAR MRPV 122300Z 09013KT 9999 BKN030 23/17 A2997 DZ DST N/NE CB DST S TCU DST SW VL/MX/VTO/ 19KT=
200904130000 METAR MRPV 130000Z NIL=
200904130100 METAR MRPV NIL=
200904130200 METAR MRPV NIL=
200904130300 METAR MRPV NIL=
200904130400 METAR MRPV NIL=
200904130500 METAR MRPV NIL=
200904130600 METAR MRPV NIL=
200904130700 METAR MRPV NIL=
200904130800 METAR MRPV NIL=
200904130900 METAR MRPV NIL=
200904131000 METAR MRPV NIL=
200904131100 METAR MRPV NIL=
200904131200 METAR MRPV NIL=
200904131300 METAR MRPV 131300Z 13010KT 9999 FEW030 22/15 A3002=
200904131400 METAR MRPV 131400Z 12008KT 9999 FEW030 24/15 A3001 METAR RMK ESTIMADO POR TENER LAS MAQUINAS FUERA DEL SISTEMA=
200904131500 METAR MRPV 131500Z 10010KT 9999 FEW030 SCT250 26/15 A3002=
200904131600 METAR MRPV 131600Z 12008KT 9999 FEW030 SCT250 28/14 A3000=
200904131700 METAR MRPV 131700Z 07010KT 9999 FEW030 SCT250 29/14 A2998=
200904131800 METAR MRPV 131800Z 08010KT 9999 SCT030 30/14 A2996=
200904131900 METAR MRPV 131900Z 24006KT 9999 SCT030 SCT250 29/17 A2994 RMK HZ W=
200904132000 METAR MRPV 132000Z 21004KT 9999 FEW020TCU SCT030 BKN250 28/16 A2991 RMK HZ W=
200904132100 METAR MRPV 132100Z 08008KT 8000 SCT020TCU BKN030 26/17 A2991 HZY=
200904132200 METAR MRPV 132200Z 27010KT 7000 3000N HZ SCT015TCU BKN025 25/19 A2991 RMK VEL MAX VTO 16KT=
200904132300 METAR MRPV 132300Z 26008KT 7000 2000N -RA HZ SCT010TCU BKN020 23/19 A2994 RMK VIS SE S UNLTD=
200904140000 METAR MRPV NIL=
200904140100 METAR MRPV NIL=
200904140200 METAR MRPV NIL=
200904140300 METAR MRPV NIL=
200904140400 METAR MRPV NIL=
200904140500 METAR MRPV NIL=
200904140600 METAR MRPV NIL=
200904140700 METAR MRPV NIL=
200904140800 METAR MRPV NIL=
200904140900 METAR MRPV NIL=
200904141000 METAR MRPV NIL=
200904141100 METAR MRPV NIL=
200904141200 METAR MRPV 141200Z 10014KT 9999 SCT020 BKN090 21/16 A2999=
200904141300 METAR MRPV 141300Z 11012KT 9999 FEW018 SCT090 BKN250 21/16 A3001=
200904141400 METAR MRPV 141400Z 12010KT 9999 FEW025 BKN250 23/17 A3003=
200904141500 METAR MRPV 141500Z 11010KT 9999 FEW025 BKN250 25/17 A3002 HZ W PCPN DST NE=
200904141600 METAR MRPV 141600Z 08012KT 9999 FEWW025 BKN250 25/17 A3002 RMK PCPN DST NE HZ W=
200904141700 METAR MRPV 141700Z 08010KT 9999 FEW025 BKN250 26/17 A3000 HZ W VEL MAX VTO 15KT=
200904141800 METAR MRPV 141800Z 07014KT 9999 FEW025TCU BKN250 26/17 A3000 HZ W=
200904141900 METAR MRPV 141900Z 08010KT 9999 SCT020TCU BKN250 27/18 A2996 RMK VEL MAX VTO 16KT HZ W=
200904142000 METAR MRPV 142000Z 24007KT 9999 SCT020TCU BKN030 25/18 A2995 RMK RN HZ W NW=
200904142100 METAR MRPV 142100Z 22006KT 9999 FEW015TCU SCT030 BKN250 26/19 A2994 RMK RN HZ DST QUAD W=
200904142200 METAR MRPV 142200Z 25007KT 9999 4000W HZ FEW012TCU BKN030 26/19 A2993 RMK RN DST NW=
200904142300 METAR MRPV 142300Z 09013KT 9999 4000W HZ SCT010TCU BKN030 23/17 A2995 RMK RN DST N NW=
200904150000 METAR MRPV NIL=
200904150100 METAR MRPV NIL=
200904150200 METAR MRPV NIL=
200904150300 METAR MRPV NIL=
200904150400 METAR MRPV NIL=
200904150500 METAR MRPV NIL=
200904150600 METAR MRPV NIL=
200904150700 METAR MRPV NIL=
200904150800 METAR MRPV NIL=
200904150900 METAR MRPV NIL=
200904151000 METAR MRPV NIL=
200904151100 METAR MRPV NIL=
200904151200 METAR MRPV 151200Z 13010KT CAVOK 20/13 A3001 RMK BKN250 VIENTO CRUZADO EN PISTA=
200904151300 METAR MRPV 151300Z 11012KT CAVOK 21/13 A3002 RMK TRACE SC BKN250 CB DST S=
200904151400 METAR MRPV 151400Z 11012KT CAVOK 23/14 A3004 RMK TRACE SC BKN250 CB DST S HZ W=
200904151500 METAR MRPV 151500Z 11014KT CAVOK 25/14 A3004 RMK TRACE SC BKN250 HZ W CB DST S=
200904151600 METAR MRPV 151600Z 10012KT 9999 FEW030 BKN250 27/14 A3004 RMK HZ W CB DST S=
200904151700 METAR MRPV 151700Z 08010KT 9999 FEW030 BKN250 28/15 A3002 RMK VEL.MAX.VTO 16KT HZ W=
200904151800 METAR MRPV 151800Z 07010KT 9999 FEW030 BKN250 29/14 A3000 RMK HZ W=
200904151900 METAR MRPV 151900Z 07012KT 9999 FEW030 BKN250 29/15 A2997 RMK HZ W=
200904152000 METAR MRPV 152000Z 08012KT 9999 FEW015TCU BKN250 28/15 A2995 RMK HZ W=
200904152100 METAR MRPV 152100Z 08012KT 9999 FEW015TCU BKN250 26/16 A2994 RMK VT MX 17KTS HZ W=
200904152200 METAR MRPV 152200Z 08010KT 9999 FEW015TCU BKN250 26/16 A2994 MAX VT 16KTS HZ W=
200904152300 METAR MRPV 152300Z 08010G20KT 9999 FEW015TCU BKN250 23/A2996=
200904160000 METAR MRPV NIL=
200904160100 METAR MRPV NIL=
200904160200 METAR MRPV NIL=
200904160300 METAR MRPV NIL=
200904160400 METAR MRPV NIL=
200904160500 METAR MRPV NIL=
200904160600 METAR MRPV NIL=
200904160700 METAR MRPV NIL=
200904160800 METAR MRPV NIL=
200904160900 METAR MRPV NIL=
200904161000 METAR MRPV NIL=
200904161100 METAR MRPV NIL=
200904161200 METAR MRPV 161200Z 12010KT CAVOK 20/14 A3001 TRACE SCT FEW250 CB DST SE VEL MAX VTO 16KT=
200904161300 METAR MRPV 161300Z 10010KT CAVOK 22/15 A3003 RMK TRACE SC FEW250 CB=
200904161400 METAR MRPV 161400Z 10012KT CAVOK 24/16 A3004 RMK TRACE CU SC SCT250 VL MX 17KTS=
200904161500 METAR MRPV 161500Z 08016KT 9999 FEW035 SCT250 25/14 A3004 RMK FU APP W=
200904161600 METAR MRPV 161600Z 09012KT 9999 FEW035 SCT250 26/15 A3003 RMK FU APP09=
200904161700 METAR MRPV 161700Z 08010KT 9999 FEW030 SCT250 27/15 A3002 RMK VEL MAX 15KTS=
200904161800 METAR MRPV 161800Z 08012KT 9999 SCT030 SCT250 27/16 A3001 VL MX 18KTS=
200904161900 METAR MRPV 161900Z 07013KT 9999 SCT030 BKN250 27/16 A2998 VL MX 21KTS=
200904162000 METAR MRPV 162000Z 08012KT 9999 SCT025 BKN250 28/16 A2995 RMK HZ LGT ARND=
200904162100 METAR MRPV 162100Z 09013KT 9999 SCT025 BKN250 28/16 A2994 HZY=
200904162200 METAR MRPV 162200Z 08016KT 9999 FEW025 SCT035 27/16 A2993 TCU RN SW=
200904162300 METAR MRPV 162300Z 08014KT 9999 FEW020 SCT040 25/17 A2995 HZY=
200904170000 METAR MRPV 170000Z NIL=
200904170100 METAR MRPV NIL=
200904170200 METAR MRPV NIL=
200904170300 METAR MRPV NIL=
200904170400 METAR MRPV NIL=
200904170500 METAR MRPV NIL=
200904170600 METAR MRPV NIL=
200904170700 METAR MRPV NIL=
200904170800 METAR MRPV NIL=
200904170900 METAR MRPV NIL=
200904171000 METAR MRPV NIL=
200904171100 METAR MRPV NIL=
200904171200 METAR MRPV 171200Z 11010KT CAVOK 20/15 A2999 RMK TRACE SC BKN250=
200904171300 METAR MRPV 171300Z 11009KT CAVOK 22/15 A2999 TRAZAS SCT BKN250=
200904171400 METAR MRPV 171400Z 08016KT CAVOK 23/16 A3001 SCT250=
200904171500 METAR MRPV 171500Z 08015KT CAVOK 25/16 A3001 TRAZAS SCT BKN250=
200904171600 METAR MRPV 171600Z 07015KT 9999 FEW040 BKN250 26/15 A3001=
200904171700 METAR MRPV 171700Z 08016KT 999 SCT040 SCT250 27/16 A3000=
200904171800 METAR MRPV 171800Z 07015KT 9999 SCT040 BKN250 27/16 A2997=
200904171900 METAR MRPV 171900Z NIL=
200904172000 METAR MRPV 172000Z 07017KT 9999 SCT035 BKN250 27/16 A2993=
200904172100 METAR MRPV 172100Z 08015KT 9999 SCT035 BKN250 27/16 A2991=
200904172200 METAR MRPV 172200Z 08016KT 9999 SCT030 BKN250 26/16 A2991=
200904172300 METAR MRPV 172300Z 08014KT 9999 SCT020 BKN250 24/17 A2992 RMK HZ ARND=
200904180000 METAR MRPV 180000Z NIL=
200904180100 METAR MRPV NIL=
200904180200 METAR MRPV NIL=
200904180300 METAR MRPV NIL=
200904180400 METAR MRPV NIL=
200904180500 METAR MRPV NIL=
200904180600 METAR MRPV NIL=
200904180700 METAR MRPV NIL=
200904180800 METAR MRPV NIL=
200904180900 METAR MRPV NIL=
200904181000 METAR MRPV NIL=
200904181100 METAR MRPV NIL=
200904181200 METAR MRPV NIL=
200904181300 METAR MRPV 181300Z 11013KT 9999 FEW020 BKN250 20/16 A2997=
200904181400 METAR MRPV 181400Z 09016KT 9999 FEW020 BKN250 22/15 A2998=
200904181500 METAR MRPV 181500Z 04015KT 9999 FEW025 BKN250 24/15 A2998=
200904181600 METAR MRPV 181600Z 08013KT 9999 FEW025 BKN250 25/15 A2998=
200904181700 METAR MRPV 181700Z 09011KT 9999 FEW030 BKN250 26/15 A2997=
200904181800 METAR MRPV 181800Z 08014KT 9999 SCT030 BKN250 26/15 A2995=
200904181900 METAR MRPV 181900Z 08016KT 9999 SCT030 27/14 A2993=
200904182000 METAR MRPV 182000Z 07016KT 9999 SCT030 26/15 A2990=
200904182100 METAR MRPV 182100Z 07016KT 9999 SCT030 26/15 A2988 RMK HZ LGT ARND=
200904182200 METAR MRPV 182200Z 07015KT 9999 SCT030 25/15 A2988 RMK HZ ARND=
200904182300 METAR MRPV 182300Z 08015KT 9999 FEW020 BKN040 24/16 A2990 HZY TCU RN E=
200904190000 METAR MRPV NIL=
200904190100 METAR MRPV NIL=
200904190200 METAR MRPV NIL=
200904190300 METAR MRPV NIL=
200904190400 METAR MRPV NIL=
200904190500 METAR MRPV NIL=
200904190600 METAR MRPV NIL=
200904190700 METAR MRPV NIL=
200904190800 METAR MRPV NIL=
200904190900 METAR MRPV NIL=
200904191000 METAR MRPV NIL=
200904191100 METAR MRPV NIL=
200904191200 METAR MRPV 191200Z 11012KT 9999 FEW025 BKN250 19/12 A2996=
200904191300 METAR MRPV 191300Z 11015KT CAVOK 21/12 A2997 RMK TRACE SC SCT250=
200904191400 METAR MRPV 191400Z 09010G20KT CAVOK 23/09 A2999 RMK TRACE SC SCT250=
200904191500 METAR MRPV 191500Z 08012KT CAVOK 24/12 A3000 RMK TRACE SC SCT250=
200904191600 METAR MRPV 191600Z 08014KT 9999 FEW030 SCT250 25/13 A2999 HZ W=
200904191700 METAR MRPV 191700Z 07010G20KT 9999 FEW030 SCT250 26/14 A2997 HZ W=
200904191800 METAR MRPV 191800Z 08010G20KT 9999 FEW030 SCT250 27/14 A2995 RMK HZ W=
200904191900 METAR MRPV 191900Z 08010G20KT 9999 SCT030 28/14 A2992=
200904192000 METAR MRPV 192000Z 08010G20KT 9999 SCT030 27/15 A2989=
200904192100 METAR MRPV 192100Z 09010G20KT 9999 SCT030 26/15 A2987=
200904192200 METAR MRPV 192200Z 08010G20KT 9999 SCT030 25/16 A2988 RMK COLUMNA FU DST NW=
200904192300 METAR MRPV 192300Z 08010G20KT 9999 SCT030 22/15 A2990=
200904200000 METAR MRPV NIL=
200904200100 METAR MRPV NIL=
200904200200 METAR MRPV NIL=
200904200300 METAR MRPV NIL=
200904200400 METAR MRPV NIL=
200904200500 METAR MRPV NIL=
200904200600 METAR MRPV NIL=
200904200700 METAR MRPV NIL=
200904200800 METAR MRPV NIL=
200904200900 METAR MRPV NIL=
200904201000 METAR MRPV NIL=
200904201100 METAR MRPV NIL=
200904201200 METAR MRPV 201200Z 11009KT 9999 NSC 20/15 A2996 RMK TRAZAS SC=
200904201300 METAR MRPV 201300Z 12010KT 9999 NSC 22/15 A2997 RMK TRAZAS SC VEL MAX VTO 18KTS=
200904201400 METAR MRPV 201400Z 10013KT 9999 NSC 23/15 A2998 RMK TRAZAS SC=
200904201500 METAR MRPV 201500Z 08010G20KT 9999 NSC 25/16 A2998 RMK TRACE SC HZ W=
200904201600 METAR MRPV 201600Z 07010G20KT 9999 NSC 26/16 A2998 RMK TRACE SC HZ W=
200904201700 METAR MRPV 201700Z 08010G20KT 9999 FEW030 27/17 A2997 RMK HZ W=
200904201800 METAR MRPV 201800Z 09010G20KT 9999 FEW030 28/17 A2996 RMK HZ W TCU DST SSW=
200904201900 METAR MRPV 201900Z 07010G20KT 9999 SCT030 28/17 A2993 RMK TCU DST S RN DST NE HZ W=
200904202000 METAR MRPV 202000Z 07015G25KT 9999 SCT030 25/17 A2990 RN DST NE CB DST S=
200904202100 METAR MRPV 202100Z 07017G27KT 9999 FEW012TCU FEW060 26/16 A2990 RMK RASH AND CB DIST S=
200904202200 METAR MRPV 202200Z 07014G24KT 9999 SCT015 BKN250 22/17 A2992 TS DIST S SW RN DIST N NE=
200904202300 METAR MRPV 202300Z 08012G22KT 9999 SCT015 BKN080 22/16 A2993 RN DIST NE=
200904202358 METAR MRPV 210000Z NIL=
200904210000 METAR MRPV NIL=
200904210100 METAR MRPV NIL=
200904210200 METAR MRPV NIL=
200904210300 METAR MRPV NIL=
200904210400 METAR MRPV NIL=
200904210500 METAR MRPV NIL=
200904210600 METAR MRPV NIL=
200904210700 METAR MRPV NIL=
200904210800 METAR MRPV NIL=
200904210900 METAR MRPV NIL=
200904211000 METAR MRPV NIL=
200904211100 METAR MRPV NIL=
200904211200 METAR MRPV 211200Z 11011KT 9999 NSC 20/15 A3000 RMK TRACE SC AC CI VEL MAX VTO 16KT=
200904211300 METAR MRPV 211300Z 11013KT 9999 FEW030 22/16A303 TRACE CI CC DZ NE VL MX VT 20KTS=
200904211400 METAR MRPV 211400Z 10014KT 9999 FEW035 23/16 A3005 RMK DZ N NE VL MX 22KTS=
200904211500 METAR MRPV 211500Z 09015KT 9999 FEW030 24/15 A3006 DZ NE=
200904211600 METAR MRPV 211600Z 08018KT 9999 FEW030 26/16 A3005 VL MX 23KTS DZ NE=
200904211700 METAR MRPV 211700Z 09018KT 9999 SCT030 26/16 A3003 VL MX 23KTS DZ NE=
200904211800 METAR MRPV 211800Z 09014G24KT 9999 FEW020 SCT030 25/16 A3002 RMK DZ NE=
200904211900 METAR MRPV 211900Z 08012G22KT 9999 SCT030 26/17 A2999 DZ NE=
200904212000 METAR MRPV 212000Z 07012G22KT 9999 FEW030 27/16 A2996 CB DIST SW DZ NE TRACE AC=
200904212100 METAR MRPV 212100Z 07010G20KT 9999 FEW030 SCT250 26/16 A2996 CB SW DZ NE=
200904212200 METAR MRPV 212200Z 07010G20KT 9999 SCT020 BKN250 24/17 A2997 DZ NE CB S SE=
200904212300 METAR MRPV 212300Z 08010G20KT 9999 FEW022 BKN250 25/17 A2997 RN NE CB S SE=
200904220000 METAR MRPV 220000Z NIL=
200904220100 METAR MRPV NIL=
200904220200 METAR MRPV NIL=
200904220300 METAR MRPV NIL=
200904220400 METAR MRPV NIL=
200904220500 METAR MRPV NIL=
200904220600 METAR MRPV NIL=
200904220700 METAR MRPV NIL=
200904220800 METAR MRPV NIL=
200904220900 METAR MRPV NIL=
200904221000 METAR MRPV NIL=
200904221100 METAR MRPV NIL=
200904221200 METAR MRPV 221200Z 10015KT 9999 FEW030 SCT100 BKN250 21/17 A3003 RMK CB DST NE VEL.MAX.VTO 21KT=
200904221300 METAR MRPV 221300Z 10014KT 9999 FEW030 SCT100 BKN250 22/17 A3005 MAX/=
200904221400 METAR MRPV 221400Z 08017KT 9999 FEW035 SCT120 BKN250 23/17 A3006 MAX/WIND 24KT=
200904221500 METAR MRPV 221500Z 10018KT 9999 SCT030 OVC250 24/16 A3008 MAX WIND 25KT=
200904221600 METAR MRPV 221600Z 07016KT 9999 SCT030 SCT120 BKN250 25/16 A3008 MAX/=
200904221700 METAR MRPV 221700Z 08018KT 9999 SCT030 BKN120 25/16 A3008 MAX/ WIND 23KT=
200904221800 METAR MRPV 221800Z 08016KT 9999 SCT040 BKN120 26/16 A3006=
200904221900 METAR MRPV 221900Z 07018KT 9999 FEW040 SCT120 BKN250 26/16 A3002 MAX/=
200904222000 METAR MRPV 222000Z 06019KT 9999 FEW035 BKN250 24/16 A2999 MAX WIND 25KT=
200904222100 METAR MRPV 222100Z 07018KT 9999 FEW030 SCT120 BKN250 24/16 A2997 RMK VL.MX.VTO. 26KT=
200904222200 METAR MRPV 222200Z 06015KT 9999 SCT030 BKN120 24/15 A2997 RMK VL.MX.VTO. 22KT=
200904222300 METAR MRPV 222300Z 07011KT 9999 SCT025 BKN120 23/16 A2999=
200904230000 METAR MRPV 230000Z NIL=
200904230100 METAR MRPV NIL=
200904230200 METAR MRPV NIL=
200904230300 METAR MRPV NIL=
200904230400 METAR MRPV NIL=
200904230500 METAR MRPV NIL=
200904230600 METAR MRPV NIL=
200904230700 METAR MRPV NIL=
200904230800 METAR MRPV NIL=
200904230900 METAR MRPV NIL=
200904231000 METAR MRPV NIL=
200904231100 METAR MRPV NIL=
200904231200 METAR MRPV 231200Z 11009KT 9999 SCT030 SCT100 22/18 A3001 RN NE N=
200904231300 METAR MRPV 231300Z 12007KT 9999 FEW035 SCT120 BKN250 23/17 A3002 RMK DZ DST NE VL.MX.VTO. 13KT=
200904231400 METAR MRPV 231400Z 10010KT 9999 SCT035 BKN120 23/17 A3003 RMK DZ N/NE VL.MX.VTO. 16KT=
200904231500 METAR MRPV 231500Z 07015KT 9999 SCT030 BKN120 25/17 A3004 RMK VL.MX.VTO. 21KT=
200904231600 METAR MRPV 231600Z 08018KT 9999 SCT030 BKN120 24/17 A3005 RMK VL.MX.VTO. 25KT=
200904231700 METAR MRPV 231700Z 08015KT 9999 SCT025 BKN120 24/18 A3005 RMK VL.MX.VTO. 21KT=
200904231800 METAR MRPV 231800Z 08014KT 9999 BKN025 OVC120 24/17 A3004 RMK RN LGT E=
200904231900 METAR MRPV 231900Z 10009KT 9999 SCT030 OVC100 23/17 A3000 RERA=
200904232000 METAR MRPV 232000Z 08012KT 9999 FEW035 OVC100 23/18 A2998=
200904232100 METAR MRPV 232100Z 09010KT 9999 FEW040 OVC120 23/17 A2994=
200904232200 METAR MRPV 232200Z 12005KT 9999 SCT040 BKN120 23/17 A2994=
200904232300 METAR MRPV 232300Z 11007KT 9999 FEW040 OVC120 23/16 A2994=
200904240000 METAR MRPV NIL=
200904240100 METAR MRPV NIL=
200904240200 METAR MRPV NIL=
200904240300 METAR MRPV NIL=
200904240400 METAR MRPV NIL=
200904240500 METAR MRPV NIL=
200904240600 METAR MRPV NIL=
200904240700 METAR MRPV NIL=
200904240800 METAR MRPV NIL=
200904240900 METAR MRPV NIL=
200904241000 METAR MRPV NIL=
200904241100 METAR MRPV NIL=
200904241200 METAR MRPV 241200Z 10010KT 9999 SCT020 SCT100 21/17 A2997 RN N NE MAX/=
200904241300 METAR MRPV 241300Z 11010KT 9999 SCT025 BKN100 22/17 A3001 RMK DZ DST N NE E=
200904241400 METAR MRPV 241400Z 09012KT 9999 FEW035 BKN120 23/17 A3003 DZ DST N VEL MAX VTO 17=
200904241500 METAR MRPV 241500Z 08017KT 9999 SCT030 BKN120 24/16 A3003 RMK VEL MAX VTO 25KT DZ DST NE=
200904241600 METAR MRPV 241600Z 07016KT 9999 SCT030 BKN120 25/16 A3002 DZ DST N NE=
200904241700 METAR MRPV 241700Z 08018KT 9999 SCT030 BKN120 24/16 A3002 DZ DST NE=
200904241800 METAR MRPV 241800Z 08017KT 9999 SCT035 BKN120 25/16 A3000 RMK VEL MAX VTO 24KT=
200904241900 METAR MRPV 241900Z 08018KT 9999 SCT040 BKN120 24/16 A2997 RMK VEL MAX VTO 23KT=
200904242000 METAR MRPV 242000Z 08015KT 9999 SCT040 BKN120 24/15 A2996=
200904242100 METAR MRPV 242100Z 08016KT 9999 FEW040 BKN120 24/15 A2994 RMK VEL.MAX.VTO 21KT=
200904242200 METAR MRPV 242200Z 07015KT 9999 FEW040 BKN120 23/15 A2995=
200904242300 METAR MRPV 242300Z 08013KT 9999 FEW040 BKN120 23/15 A2995 RMK VEL. MAX. VTO. 20KT=
200904250000 METAR MRPV NIL=
200904250100 METAR MRPV NIL=
200904250200 METAR MRPV NIL=
200904250300 METAR MRPV NIL=
200904250400 METAR MRPV NIL=
200904250500 METAR MRPV NIL=
200904250600 METAR MRPV NIL=
200904250700 METAR MRPV NIL=
200904250800 METAR MRPV NIL=
200904250900 METAR MRPV NIL=
200904251000 METAR MRPV NIL=
200904251100 METAR MRPV NIL=
200904251200 METAR MRPV 251200Z 10012KT CAVOK 20/15 A2999 RMK BKN250=
200904251300 METAR MRPV 251300Z 10010G20KT CAVOK 22/15 A3000 RMK CB DST S TRACE SC BKN250=
200904251400 METAR MRPV 251400Z 09010G20KT CAVOK 24/13 A3001 RMK TRACE SC BKN250=
200904251500 METAR MRPV 251500Z 08010G20KT CAVOK 25/14 A3001 RMK TRACE SC BKN250=
200904251600 METAR MRPV 251600Z 08015G25KT CAVOK 25/14 A3002 RMK TRACE SC BKN250=
200904251700 METAR MRPV 251700Z 08015G25KT 9999 FEW030 SCT250 27/15 A3001 RMK DZ DST NE=
200904251800 METAR MRPV 251800Z 07013G23KT 9999 FEW025 27/15 A3000 RMK DZ DST NE=
200904251900 METAR MRPV 251900Z 07012G22KT 9999 FEW030 27/15 A2997 RMK DZ DST NE=
200904252000 METAR MRPV 252000Z 07011G21KT 9999 SCT030 27/15 A2994 RMK DZ DST NE=
200904252100 METAR MRPV 252100Z 07013G23KT 9999 SCT030 26/16 A2994 TCU SW DZ NE=
200904252200 METAR MRPV 252200Z 07010G20KT 9999 SCT030 BKN250 26/16 A2994 TCU S DZ NE=
200904252300 METAR MRPV 252300Z 07012G22KT 9999 SCT020 BKN250 23/16 A2974 DZ NE=
200904252359 METAR MRPV 260000Z NIL=
200904260000 METAR MRPV NIL=
200904260100 METAR MRPV NIL=
200904260200 METAR MRPV NIL=
200904260300 METAR MRPV NIL=
200904260400 METAR MRPV NIL=
200904260500 METAR MRPV NIL=
200904260600 METAR MRPV NIL=
200904260700 METAR MRPV NIL=
200904260800 METAR MRPV NIL=
200904260900 METAR MRPV NIL=
200904261000 METAR MRPV NIL=
200904261100 METAR MRPV NIL=
200904261200 METAR MRPV 261200Z 10010G20KT CAVOK 20/15 A2998 RMK FEW250=
200904261300 METAR MRPV 261300Z 10010G20KT CAVOK 22/15 A3000 FEW250=
200904261400 METAR MRPV 261400Z 09010G20KT CAVOK 24/14 A3001 FEW250=
200904261500 METAR MRPV 261500Z 08010G20KT 9999 NSC 25/15 A3000 TRACE SCT=
200904261600 METAR MRPV 261600Z 07010G20KT 9999 NSC 27/15 A3000 TRACE SCT=
200904261700 METAR MRPV 261700Z 06010G20KT 9999 FEW030 27/13 A2999=
200904261800 METAR MRPV 261800Z 06012G22KT 9999 FEW030 28/14 A2998=
200904261900 METAR MRPV 261900Z 07010G20KT 9999 SCT030 28/14 A2995 RMK CB SW RN NE=
200904262000 METAR MRPV 262000Z 07011G22KT 9999 SCT030 SCT250 28/15 A2993 RMK TCU S RN NE=
200904262100 METAR MRPV 262100Z 07011G21KT 9999 SCT030 27/15 A2991 CB S SW RN NE HZ W=
200904262200 METAR MRPV 262200Z 07013G23KT 9999 SCT030 25/15 A2991 HZ W CB SE TCU SW RN NE=
200904262300 METAR MRPV 262300Z 08012G22KT 9999 FEW020 24/16 A2992 HZ W RN NE=
200904270000 METAR MRPV 270000Z NIL=
200904270100 METAR MRPV NIL=
200904270200 METAR MRPV NIL=
200904270300 METAR MRPV NIL=
200904270400 METAR MRPV NIL=
200904270500 METAR MRPV NIL=
200904270600 METAR MRPV NIL=
200904270700 METAR MRPV NIL=
200904270800 METAR MRPV NIL=
200904270900 METAR MRPV NIL=
200904271000 METAR MRPV NIL=
200904271100 METAR MRPV NIL=
200904271200 METAR MRPV 271200Z 11009KT 9999 NSC 20/15 A2998 RMK TRACE SC CC VEL.MAX.VTO 14KT=
200904271300 METAR MRPV 271300Z 10010KT 9999 NSC 22/15 A3000 TRAZAS SCT CU CI=
200904271400 METAR MRPV 271400Z 08015KT 9999 NSC 24/15 A3000 TRAZAS CU MAX/ WIND 20KT=
200904271500 METAR MRPV 271500Z 07010G20KT 9999 NSC 25/15 A2999 TRAZAS SCT=
200904271600 METAR MRPV 271600Z 07011G21KT 9999 FEW035 26/15 A3000=
200904271700 METAR MRPV 271700Z 08011G21KT 9999 FEW035 27/15 A3000=
200904271800 METAR MRPV 271800Z 07011KT 9999 FEW035 27/16 A2997=
200904271900 METAR MRPV 271900Z 07010G20KT 9999 FEW030 28/16 A2994 RMK TCU S/SW=
200904272000 METAR MRPV 272000Z 08013G23KT 9999 SCT030 28/17 A2992 TCU S/SW RN DST S/NE=
200904272100 METAR MRPV 272100Z 09012G22KT 9999 SCT030 26/17 A2991 RMK TCU S/SW PCPN NE=
200904272200 METAR MRPV 272200Z 08010G20KT 9999 SCT030 25/18 A2991 RMK TCU E/S/NW RN NE=
200904272300 METAR MRPV 272300Z 09010G20KT 9999 SCT025 24/18 A2993 RMK RN NE TCU S/NE=
200904280000 METAR MRPV 280000Z NIL=
200904280100 METAR MRPV NIL=
200904280200 METAR MRPV NIL=
200904280300 METAR MRPV NIL=
200904280400 METAR MRPV NIL=
200904280500 METAR MRPV NIL=
200904280600 METAR MRPV NIL=
200904280700 METAR MRPV NIL=
200904280800 METAR MRPV NIL=
200904280900 METAR MRPV NIL=
200904281000 METAR MRPV NIL=
200904281100 METAR MRPV NIL=
200904281200 METAR MRPV 281200Z 09011KT 9999 FEW030 21/16 A3000 DZ N NE VL MX 16KTS=
200904281300 METAR MRPV 281300Z 08017KT 9999 FEW030 22/16 A3001 RMK DZ DST NE VL.MX.VTO.22KT=
200904281400 METAR MRPV 281400Z 08017KT 9999 FEW030 23/17 A3002 RMK DZ DST NE VL.MX.VTO. 23KT=
200904281500 METAR MRPV 281500Z 07013G23KT 9999 FEW030 24/16 RMK DZ NE=
200904281600 METAR MRPV 281600Z 07015G25KT 9999 FEW030 25/16 A3003 RMK DZ NE=
200904281700 METAR MRPV 281700Z 07015G25KT 9999 FEW030 26/16 A3001 RMK DZ NE=
200904281800 METAR MRPV 281800Z 07015G25KT 999 SCT025 25/16 A3000 RMK TCU SW RN NE=
200904281900 METAR MRPV 281900Z 07014G24KT 9999 SCT024 26/16 A2997 RMK TCU SSW DZ NE=
200904282000 METAR MRPV 282000Z 08015G25KT 9999 SCT022 BKN250 26/16 A2995 RMK DZ NE=
200904282100 METAR MRPV 282100Z 09010G20KT 9999 FEW020 BKN250 23/16 A2997 RMK PCPN DST NE TCU DST SW=
200904282200 METAR MRPV 282200Z 08010G20KT 9999 FEW020 BKN250 23/17 A2995 RMK PCPN CB DST NE=
200904282300 METAR MRPV 282300Z 09010G20KT 9999 FEW020 BKN250 24/17 A2995 RMK RN DST NE=
200904290000 METAR MRPV 290000Z NIL=
200904290100 METAR MRPV NIL=
200904290200 METAR MRPV NIL=
200904290300 METAR MRPV NIL=
200904290400 METAR MRPV NIL=
200904290500 METAR MRPV NIL=
200904290600 METAR MRPV NIL=
200904290700 METAR MRPV NIL=
200904290900 METAR MRPV NIL=
200904291000 METAR MRPV NIL=
200904291100 METAR MRPV NIL=
200904291200 METAR MRPV 291200Z 08016KT 9999 SCT025 21/16 A3000 DZ N NE MAX WIND 23KT=
200904291300 METAR MRPV 291300Z 10010KT 9999 FEW030 22/16 A3002 RMK DZ DST NE VEL MAX VTO 16KT TRACE AC CI=
200904291400 METAR MRPV 291400Z 10013KT 9999 FEW035 23/16 A3002 RMK FEW300 VEL MAX VTO 20KT=
200904291500 METAR MRPV 291500Z 08017KT 9999 FEW035 SCT120 25/16 A3002=
200904291600 METAR MRPV 291600Z 07017KT 9999 SCT040 SCT120 26/16 A3002=
200904291700 METAR MRPV 291700Z 08016KT 9999 SCT035 BKN120 25/17 A3001=
200904291800 METAR MRPV 291800Z 08016KT 9999 SCT025 OVC100 26/17 A3000=
200904291900 METAR MRPV 291900Z 10010KT 9999 SCT025 OVC100 24/17 A3000=
200904292000 METAR MRPV 292000Z 09016KT 9999 SCT025 OVC100 23/17 A2998 RMK DZ DST NE=
200904292100 METAR MRPV 292100Z 08015KT 9999 SCT025 OVC100 23/17 A2997 RMK DZ DST NE=
200904292200 METAR MRPV 292200Z 08013KT 9999 SCT020 OVC100 22/16 A2996=
200904292300 METAR MRPV 292300Z 09013KT 9999 SCT020 OVC100 22/16 A2999=
200904300000 METAR MRPV NIL=
200904300100 METAR MRPV NIL=
200904300200 METAR MRPV NIL=
200904300300 METAR MRPV NIL=
200904300400 METAR MRPV NIL=
200904300500 METAR MRPV NIL=
200904300600 METAR MRPV NIL=
200904300700 METAR MRPV NIL=
200904300800 METAR MRPV NIL=
200904300900 METAR MRPV NIL=
200904301000 METAR MRPV NIL=
200904301100 METAR MRPV NIL=
200904301200 METAR MRPV 301200Z 10009KT CAVOK 21/16 A3001 RMK BKN100 SCT250 TRAZAS SC CB DST SE/S/SW=
200904301300 METAR MRPV 301300Z 09010KT 9999 FEW030 SCT120 21/16 A3004 RMK SCT250 CB DST S SW DZ DST NE VEL.MAX.VTO 15KT=
200904301400 METAR MRPV 301400Z 09014KT 9999 FEW030 SCT120 21/16 A3007 RMK SCT250 DZ DST NE VEL.MAX.VTO 19KT=
200904301500 METAR MRPV 301500Z 09010KT 9999 SCT035 BKN120 24/16 A3007=
200904301600 METAR MRPV 301600Z 08017KT 9999 SCT020 BKN120 24/16 A3007=
200904301700 METAR MRPV 301700Z 09012KT 9999 SCT030 BKN120 24/15 A3008=
200904301800 METAR MRPV 301800Z 07012KT 9999 SCT030 BKN120 27/16 A3004=
200904301900 METAR MRPV 301900Z 08015KT 9999 SCT035 OVC120 26/16 A3002 RMK DZ DST NE=
200904302000 METAR MRPV 302000Z 08015KT 9999 SCT040 BKN120 24/17 A3000 RMK DZ DST NE E=
200904302100 METAR MRPV 302100Z 08015KT 9999 FEW040 BKN120 24/17 A2999=
200904302200 METAR MRPV 302200Z 08014KT 9999 FEW040 BKN120 24/17 A2997=
200904302300 METAR MRPV 302300Z 08014KT 9999 FEW040 BKN120 23/17 A2999=
200905010000 METAR MRPV NIL=
200905010100 METAR MRPV NIL=
200905010200 METAR MRPV NIL=
200905010300 METAR MRPV NIL=
200905010400 METAR MRPV NIL=
200905010500 METAR MRPV NIL=
200905010600 METAR MRPV NIL=
200905010700 METAR MRPV NIL=
200905010800 METAR MRPV NIL=
200905010900 METAR MRPV NIL=
200905011000 METAR MRPV NIL=
200905011100 METAR MRPV NIL=
200905011200 METAR MRPV 011200Z 10012KT 9999 FEW025 BKN250 20/15 A3003 RMK CB DST SW=
200905011300 METAR MRPV 011300Z 09010G20KT 9999 FEW025 BKN250 22/15 A3006 RMK CB DST SW=
200905011400 METAR MRPV 011400Z 08011G21KT 9999 FEW025 BKN250 22/16 A3008 RMK PCPN NE=
200905011500 METAR MRPV 011500Z 09011G21KT 9999 FEW025 BKN250 23/16 A3009 RMK PCPN NE=
200905011600 METAR MRPV 011600Z 08010G20KT 9999 FEW025 BKN250 24/16 A3009 RMKM PCPN NE=
200905011700 METAR MRPV 011700Z 09010G20KT 9999 FEW025 BKN250 23/16 A3007 RMK PCPN NE=
200905011800 METAR MRPV 011800Z 09010G20KT 9999 FEW025 BKN250 24/16 A3006 RMK PCPN NE=
200905011900 METAR MRPV 011900Z 09010G20KT 9999 FEW025 BKN250 24/16 A3004 RMK PCPN NE=
200905012000 METAR MRPV 012000Z 09010G20KT 9999 FEW025 BKN250 25/16 A3000 RMK PCPN NE=
200905012100 METAR MRPV 012100Z 10012KT 9999 FEW025 BKN250 26/17 A2999 RMK RN NE=
200905012200 METAR MRPV 012200Z 09012KT 9999 FEW025 BKN250 25717 A2999 RMK RN NE=
200905012300 METAR MRPV 012300Z 09015KT 9999 FEW025 BKN250 23/17 A3001 RMK RN NE HZ W=
200905020000 METAR MRPV NIL=
200905020100 METAR MRPV NIL=
200905020200 METAR MRPV NIL=
200905020300 METAR MRPV NIL=
200905020400 METAR MRPV NIL=
200905020500 METAR MRPV NIL=
200905020600 METAR MRPV NIL=
200905020700 METAR MRPV NIL=
200905020800 METAR MRPV NIL=
200905020900 METAR MRPV NIL=
200905021000 METAR MRPV NIL=
200905021100 METAR MRPV NIL=
200905021200 METAR MRPV 021200Z 11010G20KT CAVOK 20/16 A3002 RMK TRACE SC BKN250 HZ W RN DST NE=
200905021300 METAR MRPV 021300Z 10010G20KT CAVOK 22/17 A3004 RMK RN NE TRACE SC BKN250=
200905021400 METAR MRPV 021400Z 10010G20KT CAVOK 23/16 A3006 RMK TRACE SC BKN250 RN NE HZ W=
200905021500 METAR MRPV 021500Z 09010G20KT CAVOK 25/17 A3005=
200905021600 METAR MRPV 021600Z 09010G20KT 9999 FEW024 BKN250 25/16 A3006 RN NE HZ W=
200905021700 METAR MRPV 021700Z 09010G20KT 9999 FEW024 BKN250 26/16 A3005 RMK RN NW HZ W=
200905021800 METAR MRPV 021800Z 08010G20KT 9999 FEW024 OVC250 26/17 A3002 RMK RN NE=
200905021900 METAR MRPV 021900Z 08012KT 9999 FEW024 OVC250 26/16 A3000 RMK RN NE HZ W TCU S=
200905022000 METAR MRPV 022000Z 08010KT 9999 FEW020 OVC250 26/16 A2998 RMK RN NE HZ W TCU S=
200905022100 METAR MRPV NIL=
200905022200 METAR MRPV 022200Z 04007KT 8000 FEW008 SCT020TCU BKN100 25/19 A2996 RMK HZ ARND RN NE=
200905022300 METAR MRPV 022300Z 29005KT 8000 SCT008 BKN025 24/18 A2998 RMK HZ ARND RN NE=
200905030000 METAR MRPV 030000Z NIL=
200905030100 METAR MRPV NIL=
200905030200 METAR MRPV NIL=
200905030300 METAR MRPV NIL=
200905030400 METAR MRPV NIL=
200905030500 METAR MRPV NIL=
200905030600 METAR MRPV NIL=
200905030700 METAR MRPV NIL=
200905030800 METAR MRPV NIL=
200905030900 METAR MRPV NIL=
200905031000 METAR MRPV NIL=
200905031100 METAR MRPV NIL=
200905031200 METAR MRPV 031200Z 00000KT 2000 -RABR SCT001 BKN008 20/19 A3006=
200905031300 METAR MRPV 031300Z 00000KT 2000 RA BR SCT001 BKN008 20/19 A3008=
200905031400 METAR MRPV 031400Z 00000KT 3000 -RABR SCT001 BKN010 20/19 A3010=
200905031500 METAR MRPV 031500Z VRB02KT 5000 2000S BR SCT001 BKN015 21/19 A3011 RERA=
200905031600 METAR MRPV 031600Z VRB02KT 8000 VCFG FEW002 BKN020 23/19 A3009=
200905031700 METAR MRPV 031700Z VRB02KT 9999 FEW008 SCT110 BKN250 24/19 A3008=
200905031800 METAR MRPV 031800Z 28005KT 9999 FEW020 SCT110 BKN250 25/18 A3006=
200905031900 METAR MRPV 031900Z 27006KT 9999 FEW020 BKN250 26/18 A3002 RMK TCU DST S=
200905032000 METAR MRPV 032000Z 27012KT 9999 SCT020 BKN250 25/17 A2999 RMK TCU DST S/SW=
200905032100 METAR MRPV 032100Z 28009KT 9999 SCT020 BKN250 24/18 A2998 RMK TCU NW W=
200905032200 METAR MRPV 032200Z 29008KT 9999 SCT020TCU BKN250 24/17 A2997=
200905032300 METAR MRPV 032300Z 27012KT 5000 2000N DZ BR SCT002 BKN015 22/20 A2999 ST MVNG W TO E=
200905040000 METAR MRPV NIL=
200905040100 METAR MRPV NIL=
200905040200 METAR MRPV NIL=
200905040300 METAR MRPV NIL=
200905040400 METAR MRPV NIL=
200905040500 METAR MRPV NIL=
200905040600 METAR MRPV NIL=
200905040700 METAR MRPV NIL=
200905040800 METAR MRPV NIL=
200905040900 METAR MRPV NIL=
200905041000 METAR MRPV NIL=
200905041100 METAR MRPV NIL=
200905041200 METAR MRPV 041200Z 10003KT 9999 NSC 19/16 A3002 RMK TRACE SC CI DU APROXIMA CION 09=
200905041300 METAR MRPV 041300Z 00000KT 9999 NSC 23/17 A3004 TRACE SCT CI DUST IN APCH 09=
200905041400 METAR MRPV 041400Z 00000KT 9999 NSC 25/17 A3005 RMK TRACE CU CI DUST IN APCH 09=
200905041500 METAR MRPV 041500Z 29006KT 9999 SCT030 24/18 A3006 RMK LGT HZ ARND DUST TO W QUAD=
200905041600 METAR MRPV 041600Z 27005KT 9999 SCT030 26/18 A3005 RMK HZ LG ARND=
200905041700 METAR MRPV 041700Z 28009KT 9999 SCT035 27/18 A3003 RMK LGT HZ ARND DUST IN APCH 09=
200905041800 METAR MRPV 041800Z 27010KT 9999 SCT030 27/17 A3001 RMK LGT HZ ARND PCPN DST N E=
200905041900 METAR MRPV 041900Z 25010KT 9999 SCT030 28/19 A2998 RMK HZ ARND RN DST NE SE=
200905042000 METAR MRPV 042000Z 26006KT 9999 1000N TSRA SCT010CB BKN025 23/15 A2999=
200905042100 METAR MRPV 042100Z 00000KT 9999 1000NW -TSRA FEW015CB BKN025 20/17 A2998=
200905042200 METAR MRPV 042200Z 00000KT 9999 TS FEW020CB BKN100 20/18 A2997=
200905042300 METAR MRPV 042300Z 00000KT 9999 SCT030 BKN120 22/19 A2997=
200905050000 METAR MRPV NIL=
200905050100 METAR MRPV NIL=
200905050200 METAR MRPV NIL=
200905050300 METAR MRPV NIL=
200905050400 METAR MRPV NIL=
200905050500 METAR MRPV NIL=
200905050600 METAR MRPV NIL=
200905050700 METAR MRPV NIL=
200905050800 METAR MRPV NIL=
200905050900 METAR MRPV NIL=
200905051000 METAR MRPV NIL=
200905051100 METAR MRPV NIL=
200905051200 METAR MRPV 051200Z 06005KT CAVOK 19/16 A3001 RMK TRAZAS SC FEW250 POLVO EN LA APROXIMACION DE LA PISTA 09=
200905051300 METAR MRPV 051300Z 00000KT CAVOK 22/17 A3004 RMK TRACE CU SCT250 POLVO APROXIMACIO PISTA 09 HZ LGT ARND=
200905051400 METAR MRPV 051400Z 29006KT CAVOK 23/18 A3005 RMK TRACE CU SCT250 HZY POLVO APROXIMACION PISTA 09=
200905051500 METAR MRPV 051500Z 29006KT 9999 SCT030 24/19 A3005 RMK HZY=
200905051600 METAR MRPV 051600Z 29003KT 9999 SCT030 27/18 A3004 RMK HZ LGT ARND=
200905051700 METAR MRPV 051700Z 31003KT 9999 SCT030 28/19 A3002 RMK HZ LGT ARND=
200905051800 METAR MRPV 051800Z 28007KT 9999 4000N VCSH SCT015TCU BKN025 28/20 A2999=
200905051900 METAR MRPV 051900Z 22003KT 3000 TSRA BKN010CB 23/19 A2997 VIS W UNL=
200905052000 METAR MRPV 052000Z 18004KT 6000 -TSRA BKN020CB 19/18 A2997=
200905052100 METAR MRPV 052100Z 12004KT 9999 FEW025 OVC100 20/19 A2995 RMK TS S=
200905052200 METAR MRPV 052200Z 00000KT 9999 FEW040 OVC100 20/19 A2994=
200905052300 METAR MRPV 052300Z 10003KT CAVOK 21/18 A2995 RMK TRACE SC BKN120=
200905060000 METAR MRPV NIL=
200905060100 METAR MRPV NIL=
200905060200 METAR MRPV NIL=
200905060300 METAR MRPV NIL=
200905060400 METAR MRPV NIL=
200905060500 METAR MRPV NIL=
200905060600 METAR MRPV NIL=
200905060700 METAR MRPV NIL=
200905060800 METAR MRPV NIL=
200905060900 METAR MRPV NIL=
200905061000 METAR MRPV NIL=
200905061100 METAR MRPV NIL=
200905061200 METAR MRPV 061200Z 14006KT CAVOK 19/16 A3000 RMK TRACE SC BKN250 TCU DST SW=
200905061300 METAR MRPV 061300Z 12006KT CAVOK 22/16 A3002 TRAZAS CU BKN250=
200905061400 METAR MRPV 061400Z 10008KT CAVOK 23/16 A3003 TRAZAS SCT CU BKN250=
200905061500 METAR MRPV 061500Z 10006KT 9999 FEW035 BKN250 26/17 A3004=
200905061600 METAR MRPV 061600Z 08011KT 9999 SCT035 BKN250 27/16 A3003=
200905061700 METAR MRPV 061700Z 09003KT 9999 SCT035 BKN250 28/16 A3003=
200905061800 METAR MRPV 061800Z 29006KT 9999 SCT030 BKN250 27/17 A3001 TCU DST ARND RN E=
200905061900 METAR MRPV 061900Z 28008KT 9999 BKN020TCU 27/19 A2997 RN E W=
200905062000 METAR MRPV 062000Z 26006G16KT 9999 4000E VCTS VCSH SCT010CB BKN015 26/19 A2996=
200905062100 METAR MRPV 062100Z 32003KT 1000 +TSRA SCT006CB BKN010 19/18 A2998=
200905062200 METAR MRPV 062200Z 00000KT 2000 -RA VCTS SCT004 BKN010 19/18 A2997=
200905062300 METAR MRPV 062300Z 00000KT 9000 3000S BR FEW008 SCT020 OVC100 19/18 A2998=
200905070000 METAR MRPV NIL=
200905070100 METAR MRPV NIL=
200905070200 METAR MRPV NIL=
200905070300 METAR MRPV NIL=
200905070400 METAR MRPV NIL=
200905070500 METAR MRPV NIL=
200905070600 METAR MRPV NIL=
200905070700 METAR MRPV NIL=
200905070800 METAR MRPV NIL=
200905070900 METAR MRPV NIL=
200905071000 METAR MRPV NIL=
200905071100 METAR MRPV NIL=
200905071200 METAR MRPV 071200Z 11007KT CAVOK 20/17 A2998 RMK TRACE SC CI FEW120 TCU DST NE=
200905071300 METAR MRPV 071300Z 12006KT 9999 FEW025 22/17 A3000 RMK FEW120 FEW250 DZ DST NE VELOCIDAD MAXIMA 11KT=
200905071400 METAR MRPV 071400Z 10006KT 9999 SCT025 24/18 A3002 RMK FEW120 RN N NE=
200905071500 METAR MRPV 071500Z 07010KT 9999 FEW020 BKN030 24/17 A3003 RMK RN N NE DU APROXIMACION 09=
200905071600 METAR MRPV 071600Z 07012KT 9999 SCT020 BKN030 23/17 A3003 RMK RN N NE=
200905071700 METAR MRPV 071700Z 07012KT 9999 SCT020 BKN030 23/17 A3001 RN N NE=
200905071800 METAR MRPV 071800Z 08012KT 9999 SCT020 BKN030 24/17 A2999 RMK RN N NE=
200905071900 METAR MRPV 071900Z 07012KT 9999 SCT020 BKN030 25/16 A2996 RMK RN N NE=
200905072000 METAR MRPV 072000Z 08012KT 9999 SCT015TCU BKN030 25/17 A2995 RN N NE=
200905072100 METAR MRPV 072100Z 07012KT 9999 SCT020 BKN030 25/17 A2993 RMK RN NE/SE/NW/W=
200905072200 METAR MRPV 072200Z VRB02KT 9999 SCT020 BKN030 24/17 A2994 RMK RN N/NE/NW/SW=
200905072300 METAR MRPV 072300Z 30005KT 9999 SCT020 BKN030 21/19 A2995 RMK PCPN QUAND N=
200905080000 METAR MRPV 080000Z NIL=
200905080100 METAR MRPV NIL=
200905080200 METAR MRPV NIL=
200905080300 METAR MRPV NIL=
200905080400 METAR MRPV NIL=
200905080500 METAR MRPV NIL=
200905080600 METAR MRPV NIL=
200905080700 METAR MRPV NIL=
200905080800 METAR MRPV NIL=
200905080900 METAR MRPV NIL=
200905081000 METAR MRPV NIL=
200905081100 METAR MRPV NIL=
200905081200 METAR MRPV 081200Z 14007KT CAVOK 20/16 A2996 TRAZAS SCT BKN250 MAX/=
200905081300 METAR MRPV 081300Z 10008KT CAVOK 22/16 A2997 RMK TRAZAS SC BKN250=
200905081400 METAR MRPV 081400Z 09010KT CAVOK 24/16 A2998 RMK TRAZAS CU BKN250=
200905081500 METAR MRPV 081500Z 07013KT 9999 FEW030 BKN250 25/16 A2999=
200905081600 METAR MRPV 081600Z 08010KT 9999 FEW030 BKN250 26/17 A2999=
200905081700 METAR MRPV 081700Z 07005KT 9999 SCT025TCU BKN250 28/17 A2997=
200905081800 METAR MRPV 081800Z 27006KT 9999 SCT025TCU 27/18 A2995=
200905081900 METAR MRPV 081900Z 26008KT 9999 SCT025TCU 28/18 A2992 RMK RASH N=
200905082000 METAR MRPV 082000Z 27008KT 9999 4000NW VCTS SCT010CB SCT025TCU 25/19 A2991 RMK HAVY RASH NE=
200905082100 METAR MRPV 082100Z VRV02KT 2000 +SHRA FEW008CB BKN010 21/20 A2992 RMK TS DST W=
200905082200 METAR MRPV 082200Z VRB02KT 5000 2000NW -RA BR SCT006 BKN020 20/19 A2992 RMK TS DST W=
200905082300 METAR MRPV 082300Z 00000KT 2000-RA BR SCT001 OVC008 20/19 A2995=
200905090000 METAR MRPV NIL=
200905090100 METAR MRPV NIL=
200905090200 METAR MRPV NIL=
200905090300 METAR MRPV NIL=
200905090400 METAR MRPV NIL=
200905090500 METAR MRPV NIL=
200905090600 METAR MRPV NIL=
200905090700 METAR MRPV NIL=
200905090800 METAR MRPV NIL=
200905090900 METAR MRPV NIL=
200905091000 METAR MRPV NIL=
200905091100 METAR MRPV NIL=
200905091200 METAR MRPV 091200Z 10010KT 9999 FEW015 BKN250 21/17 A2997 RMK RAFAGAS 16KT=
200905091300 METAR MRPV 091300Z 10010KT 9999 FEW020 BKN250 22/17 A2998 RMK=
200905091400 METAR MRPV 091400Z 09010KT 9999 FEW020 BKN250 24/17 A2998 RMK VEL MAX VTO 15KT=
200905091500 METAR MRPV 091500Z 07013KT 9999 FEW020 BKN250 25/17 A2999 VEL MAX VTO 18KT=
200905091600 METAR MRPV 091600Z 07012KT 9999 FEW025 BKN250 26/16 A2999 VEL MAX VTO 17KT=
200905091700 METAR MRPV 091700Z 08013KT 9999 SCT022 BKN250 27/17 A2998 RMK VEL MAX VTO 18KT=
200905091800 METAR MRPV 091800Z 07014KT 9999 SCT022 BKN250 27/17 A2997=
200905091900 METAR MRPV 091900Z 07010KT 9999 SCT022 BKN220 28/18 A2994 VEL MAX VTO 15KT=
200905092000 METAR MRPV 092000Z 07011KT 9999 FEW010TCU BKN030 27/17 A2992 VEL MAX 16KT CB DST S SSW=
200905092100 METAR MRPV 092100Z 08010KT 9999 FEW010CB BKN035 26/18 A2990 RMK TS DST S SW=
200905092200 METAR MRPV 092200Z 09011KT 9999 SCT010 SCT030 OVC250 24/18 A2990 RMK TS DST S VEL.MAX. VTO 16KT SHRA DST NE NW=
200905092300 METAR MRPV 092300Z 23004KT 8000 VCFG FEW006 SCT020 OVC250 23/19 A2993 RMK RN DST E CB DST W=
200905100000 METAR MRPV NIL=
200905100100 METAR MRPV NIL=
200905100200 METAR MRPV NIL=
200905100300 METAR MRPV NIL=
200905100400 METAR MRPV NIL=
200905100500 METAR MRPV NIL=
200905100600 METAR MRPV NIL=
200905100700 METAR MRPV NIL=
200905100800 METAR MRPV NIL=
200905100900 METAR MRPV NIL=
200905101000 METAR MRPV NIL=
200905101100 METAR MRPV NIL=
200905101200 METAR MRPV 101200Z 12009KT 9999 SCT030 BKN120 22/18 A2994=
200905101300 METAR MRPV 101300Z 11010KT 9999 SCT030 BKN120 22/18 A2997=
200905101400 METAR MRPV 101400Z 11008KT 9999 SCT030 OVC100 22/17 A2998=
200905101500 METAR MRPV 101500Z 10012KT 9999 SCT030 BKN100 24/18 A2998=
200905101600 METAR MRPV 101600Z 08014KT 9999 SCT030 OVC120 25/18 A2998=
200905101700 METAR MRPV 101700Z 07014KT 9999 SCT035 OVC120 26/18 A2998=
200905101800 METAR MRPV 101800Z 06011KT 9999 SCT030 BKN100 27/18 A2977=
200905101900 METAR MRPV 101900Z 09012KT 9999 FEW020TCU SCT035 BKN100 26/18 A2995 RMK TCU RN NW W=
200905102000 METAR MRPV 102000Z 07013KT 9999 FEW020 SCT030 BKN100 25/18 A2993 RMK TCU RN DST NE=
200905102100 METAR MRPV 102100Z 08016KT 9999 SCT035 OVC120 24/18 A2991=
200905102200 METAR MRPV 102200Z 09013KT CAVOK 24/18 A2988 TRAZAS SCT OVC120=
200905102300 METAR MRPV 102300Z 08016KT CAVOK 24/18 A2987 TRAZAS SCT OVC120=
200905110000 METAR MRPV NIL=
200905110100 METAR MRPV NIL=
200905110200 METAR MRPV NIL=
200905110300 METAR MRPV NIL=
200905110400 METAR MRPV NIL=
200905110500 METAR MRPV NIL=
200905110600 METAR MRPV NIL=
200905110700 METAR MRPV NIL=
200905110800 METAR MRPV NIL=
200905110900 METAR MRPV NIL=
200905111000 METAR MRPV NIL=
200905111100 METAR MRPV NIL=
200905111200 METAR MRPV 111200Z 11013KT 9999 SCT030 BKN250 22/18 A2992 RMK VEL MAX VTO 18KT DZ DST NE E=
200905111300 METAR MRPV 111300Z 08017KT 9999 FEW035 BKN250 23/18 A2994 TRACE AC DZ E=
200905111400 METAR MRPV 111400Z 09013KT 9999 SCT035 BKN250 23/18 A2995 RN NE E=
200905111500 METAR MRPV 111500Z 08014KT 9999 SCT025 SCT100 BKN250 24/18 A2996 RN NE=
200905111600 METAR MRPV 111600Z 08015KT 9999 SCT030 BKN120 25/18 A2996=
200905111700 METAR MRPV 111700Z 07016KT 9999 SCT030 BKN120 25/18 A2996=
200905111800 METAR MRPV 111800Z 06015KT 9999 SCT025 BKN120 26/18 A2996 TCU RN NE E=
200905111900 METAR MRPV NIL=
200905111924 METAR MRPV 111924Z 07010KT 9999 SCT030 BKN120 25/18 A2993=
200905112000 METAR MRPV 112000Z 07012KT 9999 SCT025 BKN120 25/17 A2991=
200905112100 METAR MRPV 112100Z 08012KT 9999 SCT025 BKN120 25/18 A2990=
200905112200 METAR MRPV 112200Z 08013KT 9999 SCT025 OVC120 24/17 A2988=
200905112300 METAR MRPV 112300Z 10009KT 9999 SCT025 OVC120 24/17 A2989=
200905112337 METAR MRPV 112337Z 10008KT 9999 SCT025 OVC120 23/17 A2992=
200905120000 METAR MRPV NIL=
200905120100 METAR MRPV NIL=
200905120200 METAR MRPV NIL=
200905120300 METAR MRPV NIL=
200905120400 METAR MRPV NIL=
200905120500 METAR MRPV NIL=
200905120600 METAR MRPV NIL=
200905120700 METAR MRPV NIL=
200905120800 METAR MRPV NIL=
200905120900 METAR MRPV NIL=
200905121000 METAR MRPV NIL=
200905121100 METAR MRPV NIL=
200905121200 METAR MRPV 121200Z 11011KT CAVOK 21/17 A2991 RMK TRACE SC BKN100 SCT250 DZ DST N NE VEL.MAX.VTO 16KT CB DST E SE=
200905121300 METAR MRPV 121300Z 12012G22KT CAVOK 22/17 A2993 RMK TRACE SC SCT090 BKN120 DZ NE E=
200905121400 METAR MRPV 121400Z 10011KT 9999 FEW025 SCT090 BKN120 22/17 A2996 RMK DZ N NE E RAFAGAS 16KT=
200905121500 METAR MRPV 121500Z 11012KT 9999 SCT020 OVC100 22/17 A2999 RMK RN N NE E=
200905121600 METAR MRPV 121600Z 10014KT 9999 -RA FEW030 OVC100 21/18 A2998 RMK CB SW RAF AGAS 20KT=
200905121700 METAR MRPV 121700Z 09011KT 9999 FEW030 OVC100 22/17 A2997 RERA=
200905121800 METAR MRPV 121800Z 11012KT 9999 FEW030 OVC100 22/18 A3000 RMK DZ NE RAFAGAS 20KT=
200905121900 METAR MRPV 121900Z 07009KT 9999 FEW030 OVC100 24/17 A2995=
200905122000 METAR MRPV 122000Z 10011KT 9999 FEW025 OVC100 24/18 A2992=
200905122100 METAR MRPV 122100Z 09012KT 9999 FEW025 OVC100 24/16 A2991=
200905122200 METAR MRPV 122200Z 09012KT 9999 FEW030 OVC120 24/16 A2990=
200905122300 METAR MRPV 122300Z 10009KT 9999 FEW030 OVC120 23/17 A2991=
200905130000 METAR MRPV 130000Z NIL=
200905130100 METAR MRPV NIL=
200905130200 METAR MRPV NIL=
200905130300 METAR MRPV NIL=
200905130400 METAR MRPV NIL=
200905130500 METAR MRPV NIL=
200905130600 METAR MRPV NIL=
200905130700 METAR MRPV NIL=
200905130800 METAR MRPV NIL=
200905130900 METAR MRPV NIL=
200905131000 METAR MRPV NIL=
200905131100 METAR MRPV NIL=
200905131200 METAR MRPV 131200Z 13008KT 9999 FEW030 BKN250 20/16 A2995 DZ N NE E MAX/ WIND 14KT=
200905131300 METAR MRPV 131300Z 11009KT 9999 FEW030 BKN250 21/16 A2996 RMK DZ NE=
200905131400 METAR MRPV 131400Z 09010KT 9999 FEW035 BKN250 24/17 A2998 RMK TRZAS AC=
200905131500 METAR MRPV 131500Z 11010KT 9999 FEW030 BKN250 25/17 A2999 RMK TRAZAS AC CB DST SW VL.MX.VTO. 16KT=
200905131600 METAR MRPV 131600Z 09012KT 9999 SCT025 BKN250 25/16 A3000 RMK CB DST SW/NW VL.MX.VTO. 17KT RN E=
200905131700 METAR MRPV 131700Z 10012KT 9999 SCT025 BKN250 25/17 A2999 RMK VL.MX.VTO. 17KT CB DST SW/NW RN E=
200905131800 METAR MRPV 131800Z 09010KT 9999 SCT025 BKN250 26/18 A2997 RMK RN E/NE CB DST SW/NW VL.MX.VTO. 15KT=
200905131900 METAR MRPV 131900Z 09014KT 9999 SCT020 SCT030 BKN250 25/17 A2993 RMK VL.MX.VTO. 19KT CB DST SW/NW RN NE/E=
200905132000 METAR MRPV 132000Z 08012KT 9999 SCT025 BKN250 25/18 A2991 RMK RN N/NE CB SW/NW VL.MX.VTO. 17KT=
200905132100 METAR MRPV 132100Z 07010KT 5000 2000NE -RA SCT010 BKN020 22/19 A2992 RMK VEL MAX VTO 15KT=
200905132200 METAR MRPV 132200Z 09010KT 5000 2000NE DZ VCSH SCT010 BKN020 21/18 A2993 VEL MAX VTO 15KT=
200905132300 METAR MRPV 132300Z 07007KT 6000 DZ VCFG SCT10 BKN020 21/18 A2995=
200905140000 METAR MRPV NIL=
200905140100 METAR MRPV NIL=
200905140200 METAR MRPV NIL=
200905140300 METAR MRPV NIL=
200905140400 METAR MRPV NIL=
200905140500 METAR MRPV NIL=
200905140600 METAR MRPV NIL=
200905140700 METAR MRPV NIL=
200905140800 METAR MRPV NIL=
200905140900 METAR MRPV NIL=
200905141000 METAR MRPV NIL=
200905141100 METAR MRPV NIL=
200905141200 METAR MRPV 141200Z 12006KT CAVOK 20/16 A2996 RMK TRACE SC BKN250 DZ NE=
200905141300 METAR MRPV 141300Z 12007KT CAVOK 22/16 A2999 RMK TRACE SC BKN280=
200905141400 METAR MRPV 141400Z 11009KT CAVOK 24/17 A2999 RMK TRACE CU SC BKN280 HZ ARND=
200905141500 METAR MRPV 141500Z 08012KT 9999 FEW030 BKN250 25/16 A3000 RMK CB DST S TRACE AC=
200905141600 METAR MRPV 141600Z 07014KT 9999 FEW030 SCT250 27/18 A3000=
200905141700 METAR MRPV 141700Z 08010KT 9999 SCT030 SCT250 28/17 A2997 RMK VEL MAX VTO 15KT CB DST ESE=
200905141800 METAR MRPV 141800Z 09010KT 9999 FEW015TCU SCT030 28/17 A2995 CB DST NE SW VEL MAX VTO 16KT=
200905141900 METAR MRPV 141900Z 08013KT 9999 4000NE VCSH FEW010CB BKN025 26/18 A2993 RMK RN N NW=
200905142000 METAR MRPV 142000Z 07010KT 9999 -RA VCTS FEW010CB BKN025 22/18 A2994 VIS NW 6KMS=
200905142100 METAR MRPV 142100Z 08007KT 9999 SCT008 BKN025 23/18 A2992 RERA RMK VIS 6000 NW RA=
200905142200 METAR MRPV 142200Z VRB02KT 9999 2000N BR SCT004 BKN025 23/20 A2992=
200905142300 METAR MRPV 142300Z 09011KT 9999 3000NE VCSH SCT006 BKN025 23/18 A2992 RMK VEL.MAX.VTO 16KT=
200905150000 METAR MRPV NIL=
200905150100 METAR MRPV NIL=
200905150200 METAR MRPV NIL=
200905150300 METAR MRPV NIL=
200905150400 METAR MRPV NIL=
200905150500 METAR MRPV NIL=
200905150600 METAR MRPV NIL=
200905150700 METAR MRPV NIL=
200905150800 METAR MRPV NIL=
200905150900 METAR MRPV NIL=
200905151000 METAR MRPV NIL=
200905151100 METAR MRPV NIL=
200905151200 METAR MRPV 151200Z 13007KT CAVOK 21/16 A2996 RMK TRACE SC SCT120 VL MX VTO 12KT=
200905151300 METAR MRPV 151300Z 12008KT CAVOK 23/16 A2997 RMK TRACE SC BKN120 VEL.MAX.VTO 15KT=
200905151400 METAR MRPV 151400Z 10013G23KT CAVOK 24/16 A2997 RMK TRACE CU SC BKN120=
200905151500 METAR MRPV 151500Z 09013KT 9999 FEW025 BKN120 25/16 A2999 RMK CB DST SW NW VEL.MAX.VTO 17KT=
200905151600 METAR MRPV 151600Z 08013KT 9999 FEW025 SCT120 BKN250 26/17 A3000 NOSIG=
200905151700 METAR MRPV 151700Z 09012KT 9999 FEW025 SCT250 27/17 A2995 RMK TCU SE/N VEL MAX VTO 17KTS=
200905151800 METAR MRPV 151800Z 07012KT 9999 FEW025 SCT250 28/17 A2994 RMK CB E/NE TCU N/W VEL MAX VTO 17KTS=
200905151900 METAR MRPV 151900Z 07010KT 9999 SCT022TCU SCT250 29/16 A2992 RMK CB DST S SW N NE RN DST S SW=
200905152000 METAR MRPV 152000Z 08010G20KT 9999 FEW012CB SCT030TCU BKN250 27/18 A2990 RMK SHRA SW W NW=
200905152100 METAR MRPV 152100Z 08014KT 9999 FEW010CB SCT030TCU BKN250 27/17 A2987 RN W=
200905152200 SPECI MRPV 24004KT 9999 3000NW VCSH FEW010CB BKN025 25/18 A2989 RN N NE=
200905152300 METAR MRPV 152300Z 27006KT 8000 3000N VCFG BR SCT004 BKN025 24/20 A2990 CB N=
200905160000 METAR MRPV NIL=
200905160100 METAR MRPV NIL=
200905160200 METAR MRPV NIL=
200905160300 METAR MRPV NIL=
200905160400 METAR MRPV NIL=
200905160500 METAR MRPV NIL=
200905160600 METAR MRPV NIL=
200905160700 METAR MRPV NIL=
200905160800 METAR MRPV NIL=
200905160900 METAR MRPV NIL=
200905161000 METAR MRPV NIL=
200905161100 METAR MRPV NIL=
200905161200 METAR MRPV 161200Z 11004KT 9999SCT030 BKN250 22/17 A2995=
200905161300 METAR MRPV 161300Z 11004KT CAVOK 23/17 A2997 TRAZAS SCT BKN250=
200905161400 METAR MRPV 161400Z 10006KT CAVOK 24/17 A2997 TRAZAS SCT BKN250=
200905161500 METAR MRPV 161500Z 08008KT 9999 FEW040 SCT120 BKN250 26/17 A2997=
200905161600 METAR MRPV 161600Z 08004KT 9999 FEW040 SCT120 BKN250 27/16 A2997=
200905161700 METAR MRPV 161700Z 09006KT 9999 SCT030 BKN120 27/17 A2996 TCU RN NW N=
200905161800 METAR MRPV 161800Z 27003KT 9999 3000N VCTSRA FEW010CB SCT020 OVC100 25/18 A2995=
200905161900 METAR MRPV 161900Z 00000KT 6000 -RA SCT008 SCT020 OVC100 21/19 A2997=
200905162000 METAR MRPV 162000Z 00000KT 9999 SCT030 OVC120 21/19 A2994 RERA=
200905162100 METAR MRPV 162100Z 11007KT CAVOK 23/19 A291 RMK TRAVE SC BKN120=
200905162200 METAR MRPV 162200Z 11008KT 9999 FEW030 BKN120 24/18 A2989=
200905162300 METAR MRPV 162300Z 09013KT 9999 FEW030 SCT120 BKN250 23/18 A2990=
200905170000 METAR MRPV NIL=
200905170100 METAR MRPV NIL=
200905170200 METAR MRPV NIL=
200905170300 METAR MRPV NIL=
200905170400 METAR MRPV NIL=
200905170500 METAR MRPV NIL=
200905170600 METAR MRPV NIL=
200905170700 METAR MRPV NIL=
200905170800 METAR MRPV NIL=
200905170900 METAR MRPV NIL=
200905171000 METAR MRPV NIL=
200905171100 METAR MRPV NIL=
200905171200 METAR MRPV 171200Z 12003KT CAVOK 20/15 A2993 RMK TRACE SC BKN270 TCU DST SW=
200905171300 METAR MRPV 171300Z 10005KT CAVOK 23/16 A2993 RMK TRACE SC BKN270=
200905171400 METAR MRPV 171400Z 09014KT CAVOK 25/15 A2994 RMK TRACE SC SCT270 TCU DST SW=
200905171500 METAR MRPV 171500Z 09009KT CAVOK 26/15 A2996 RMK TRACE SC SCT270 TCU DST SW=
200905171600 METAR MRPV 171600Z 25005KT 9999 FEW030 26/18 A2996=
200905171700 METAR MRPV 171700Z 29007KT 9999 SCT030 27/19 A2994=
200905171800 METAR MRPV 171800Z 27009KT 9999 SCT030 27/19 A2992 RMK TCU ARND=
200905171900 METAR MRPV 171900Z 28008KT 9999 4000E VCSH FEW010CB SCT025 28/19 A2990=
200905172000 METAR MRPV 172000Z 08012KT 9999 4000 E RA VCTS SCT015CB BKN025 21/16 A2989=
200905172100 METAR MRPV 172100Z 25003KT 7000 -RA VCTS FEW020CB SCT030 BKN100 21/20 A2998=
200905172200 METAR MRPV 172200Z 10006KT 7000 3000S VCSH SCT015 SCT025 OVC100 21/19 A2989=
200905172300 METAR MRPV 172300Z 11003KT 7000 3000SW -RA SCT010 OVC100 21/19 A2990=
200905180000 METAR MRPV NIL=
200905180100 METAR MRPV NIL=
200905180200 METAR MRPV NIL=
200905180300 METAR MRPV NIL=
200905180400 METAR MRPV NIL=
200905180500 METAR MRPV NIL=
200905180600 METAR MRPV NIL=
200905180700 METAR MRPV NIL=
200905180800 METAR MRPV NIL=
200905180900 METAR MRPV NIL=
200905181000 METAR MRPV NIL=
200905181100 METAR MRPV NIL=
200905181200 METAR MRPV 181200Z 00000KT CAVOK 18/16 A2994 TRAZAS SCT BKN300 HZY=
200905181300 METAR MRPV 181300Z 07004KT CAVOK 21/17 A2996 RMK TRACE SC CU BKN300 DU 09=
200905181400 METAR MRPV 181400Z 11005KT CAVOK 23/17 A2996 RMK TRACE CU SC BKN300 HZ ARND DU 09=
200905181500 METAR MRPV 181500Z 00000KT 9999 FEW030 BKN250 25/18 A2996 RMK HZ ARND LGT=
200905181600 METAR MRPV 181600Z 29002KT 9999 SCT025 BKN250 26/18 A2996 RMK HZ ARND=
200905181700 METAR MRPV 181700Z 27008KT 9999 SCT020 BKN250 26/19 A2995 RMK VIS N 6000 DUE HZ=
200905181800 METAR MRPV 181800Z 27010KT 9999 SCT025 BKN250 26/19 A2993=
200905181900 METAR MRPV 181900Z 26008KT 9999 SCT025 SCT250 27/20 A2990 RMK TCU SCT ARND=
200905182000 METAR MRPV 182000Z 27007KT 9999 VCSH FEW012CB SCT020 BKN100 26/20 A2988 RMK CB RASH N NE E VIS 6000=
200905182100 METAR MRPV 182100Z 26007KT 9999 TS VCSH SCT010CB BKN020 25/20 A2989 VIS N E SE 6KMS=
200905182200 METAR MRPV 182200Z 06007KT 6000 2000N TSRA SCT015CB OVC100 20/18 A2990=
200905182300 METAR MRPV 182300Z 00000KT 9999 3000S -RA SCT010 OVC100 20/18 A2991=
200905190000 METAR MRPV NIL=
200905190100 METAR MRPV NIL=
200905190200 METAR MRPV NIL=
200905190300 METAR MRPV NIL=
200905190400 METAR MRPV NIL=
200905190500 METAR MRPV NIL=
200905190600 METAR MRPV NIL=
200905190700 METAR MRPV NIL=
200905190800 METAR MRPV NIL=
200905190900 METAR MRPV NIL=
200905191000 METAR MRPV NIL=
200905191100 METAR MRPV NIL=
200905191200 METAR MRPV 191200Z 13005KT CAVOK 21/16 A2994 RMK TRACE SC HZ LEVE ARND OVC2 50=
200905191300 METAR MRPV 191300Z 13006KT CAVOK 23/17 A2996 RMK TRACE SC BKN250 HZY=
200905191400 METAR MRPV 191400Z 12007KT CAVOK 25/16 A2996 VEL MAX 12KT TRACE CU SCT BKN250 HZY=
200905191500 METAR MRPV 191500Z 09010KT CAVOK 26/14 A2995 RMK HZ W TRACE CU SC BKN250=
200905191600 METAR MRPV 191600Z 08013KT 9999 FEW025 BKN250 27/12 A2996 HZ W QUAD=
200905191700 METAR MRPV 191700Z 08006KT 9999 FEW025 BKN250 28/14 A2994 HZ W TCU SW=
200905191800 METAR MRPV 191800Z 22004KT 9999 SCT025TCU BKN250 28/19 A2992=
200905191900 METAR MRPV 191900Z 28006KT 9999 SCT022TCU BKN250N27/20 A2989 HZ W N CB DST SE NW=
200905192000 METAR MRPV 192000Z 27010KT 8000 3000NE VCSH FG FEW010CB SCT020TCU BKN250 27/20 A2987 VIS SE S UNL=
200905192100 METAR MRPV 192100Z 07006KT 5000 2000NE VCTSSH SCT003 BKN018TCU 20/18 A2988 RETS=
200905192200 METAR MRPV 192200Z VRB02KT 5000 RA BR SCT008 BKN020 19/18 A2991=
200905192300 METAR MRPV 192300Z 00000KT 3000 -RA BR SCT002 BKN013 20/19 A2995 RMK TS DST S SW=
200905200000 METAR MRPV NIL=
200905200100 METAR MRPV NIL=
200905200200 METAR MRPV NIL=
200905200300 METAR MRPV NIL=
200905200400 METAR MRPV NIL=
200905200500 METAR MRPV NIL=
200905200600 METAR MRPV NIL=
200905200700 METAR MRPV NIL=
200905200800 METAR MRPV NIL=
200905200900 METAR MRPV NIL=
200905201000 METAR MRPV NIL=
200905201100 METAR MRPV NIL=
200905201200 METAR MRPV 201200Z 11008KT CAVOK 21/16 A2996 RMK TRACE SC AC BKN250 DU 09=
200905201300 METAR MRPV 201300Z 14006KT CAVOK 22/17 A2998 RMK TRACE SC CU BKN250=
200905201400 METAR MRPV 201400Z 11008KT CAVOK 24/16 A2998 RMK TRACE CU AC BKN250 POLVO APROXIMACION PISTA 09=
200905201500 METAR MRPV 201500Z 11011KT CAVOK 25/17 A2998 RMK TRACE SC BKN250 VEL. MAX.VTO 16KT POLVO APROXIMACION PISTA 09=
200905201600 METAR MRPV 201600Z 08010KT CAVOK 26/17 A2997 RMK TRACE SC BKN250=
200905201700 METAR MRPV 201700Z 06010KT 9999 FEW030 BKN250 27/18 A2995=
200905201800 METAR MRPV 201800Z 09012KT 9999 FEW030 BKN250 28/18 A2993 RMK TCU DST SE SW=
200905201900 METAR MRPV 201900Z 08012KT 9999 SCT025 BKN250 27/18 A2991 RMK TCU NE SW RN NE NW=
200905202000 METAR MRPV 202000Z 08010KT 9999 3000SW VCTS FEW015CB SCT025TCU BKN250 28/18 A2990 RMK RN NW NE=
200905202100 METAR MRPV 202100Z VRB02KT 7000 -RA VCTS FEW012CB SCT025 BKN250 24/21 A2990 TS SW HZY=
200905202200 METAR MRPV 202200Z 09011KT 7000 FEW014CB SCT025TCU BKN250 24/19 A2989 RERA TS SW RN HZ ARNDMAX/ WIND 17KT=
200905202300 METAR MRPV 202300Z 07010KT 8000 VCHZ SCT012 SCT120 BKN250 23/19 A2991 VSBY W 6KM DUE RN TS SW W=
200905210000 METAR MRPV 210000Z NIL=
200905210100 METAR MRPV NIL=
200905210200 METAR MRPV NIL=
200905210300 METAR MRPV NIL=
200905210400 METAR MRPV NIL=
200905210500 METAR MRPV NIL=
200905210600 METAR MRPV NIL=
200905210700 METAR MRPV NIL=
200905210800 METAR MRPV NIL=
200905210900 METAR MRPV NIL=
200905211000 METAR MRPV NIL=
200905211100 METAR MRPV NIL=
200905211200 METAR MRPV 211200Z 11007KT CAVOK 21/16 A2994 RMK TRACE SC SCT300 VEL MAX VTO 12KT=
200905211300 METAR MRPV 211300Z 00000KT CAVOK 22/17 A2996 TRAZAS CU FEW300=
200905211400 METAR MRPV 211400Z 12011KT 9999 NSC 24/17 A2997 TRACE CU/CI MAX/ WIND 16KT=
200905211500 METAR MRPV 211500Z 09011KT 9999 FEW030 26/16 A2998 MAX/ WIND 16KT=
200905211600 METAR MRPV 211600Z 08012KT 9999 FEW030 27/17 A2998 DU PIST 09=
200905211700 METAR MRPV 211700Z 07010KT 9999 FEW030 27/17 A2997 TCU SW=
200905211800 METAR MRPV 211800Z 06010KT 9999 SCT030TCU 28/18 A2995=
200905211900 METAR MRPV 211900Z 08011KT 9999 FEW012CB SCT030TCU 29/18 A2992 MAX=
200905212000 METAR MRPV 212000Z 08008KT 9999 FEW012CB SCT030 28/18 A2990 RASH N NW SW=
200905212100 METAR MRPV 212100Z 30008KT 4000 -TSRA SCT002 SCT008 BKN012 22/20 A2991 RMK VIS SE UNL=
200905212130 METAR MRPV 212130Z 32006KT 5000 2000NW -RA VCTS SCT002 FEW008 BKN020 20/17 A2992 RMK VIS SE UNL=
200905212200 METAR MRPV 212200Z 00000KT 7000 -RA SCT004 SCT020 BKN100 20/17 A2992 RMK VIS SE UNL=
200905212300 METAR MRPV 212300Z 00000KT 8000 FEW010 SCT025 BKN100 21/19 A2994 RERA=
200905220000 METAR MRPV NIL=
200905220100 METAR MRPV NIL=
200905220200 METAR MRPV NIL=
200905220300 METAR MRPV NIL=
200905220400 METAR MRPV NIL=
200905220500 METAR MRPV NIL=
200905220600 METAR MRPV NIL=
200905220700 METAR MRPV NIL=
200905220800 METAR MRPV NIL=
200905220900 METAR MRPV NIL=
200905221000 METAR MRPV NIL=
200905221100 METAR MRPV NIL=
200905221200 METAR MRPV 221200Z 13008KT CAVOK 21/17 A2993 RMK TRACE SC AC BKN250 VEL.MAX.VTO 13KT=
200905221300 METAR MRPV 221300Z 14006KT CAVOK 23/17 A2995 RMK TRACE CU SCT130 SCT250 RAF AGAS 11KT=
200905221400 METAR MRPV 221400Z 13008KT CAVOK 25/17 A2996 RMK TRACE CU FEW130 SCT250 HZ W RAFAGAS 12KT=
200905221500 METAR MRPV 221500Z 08014KT CAVOK 26/16 A2996 RMK TRACE SC SCT120 SCT250=
200905221600 METAR MRPV 221600Z 06008KT 9999 FEW030 SCT250 27/17 A2996 RMK DU W=
200905221700 METAR MRPV 221700Z 09006KT 9999 SCT030 SCT250 28/18 A2994=
200905221800 METAR MRPV 221800Z 08010KT 9999 FEW020 SCT030 28/18 A2993 RMK HZ ARND=
200905221900 METAR MRPV 221900Z 07008KT 9999 BKN025 29/19 A2992 RMK TCU RASH NW N=
200905222000 METAR MRPV 222000Z 24007KT 9999 4000N VCSH SCT020TCU BKN030 27/20 A2990=
200905222100 METAR MRPV 222100Z 30007KT 7000 3000NW VCTS VCSH SCT010CB BKN025 22/17 A2992=
200905222200 METAR MRPV 222200Z 00000KT 3000 TSRA SCT008CB BKN020 20/18 A2995=
200905222300 METAR MRPV 222300Z 00000KT 6000 VCFG FEW006 SCT015 BKN025 20/19 A2996 RMK VIS SE S SW 3000 DUE ST=
200905230000 METAR MRPV NIL=
200905230100 METAR MRPV NIL=
200905230200 METAR MRPV NIL=
200905230300 METAR MRPV NIL=
200905230400 METAR MRPV NIL=
200905230500 METAR MRPV NIL=
200905230600 METAR MRPV NIL=
200905230700 METAR MRPV NIL=
200905230800 METAR MRPV NIL=
200905230900 METAR MRPV NIL=
200905231000 METAR MRPV NIL=
200905231100 METAR MRPV NIL=
200905231200 METAR MRPV 231200Z 00000KT CAVOK 20/18 A3000 TRAZAS SCT/ST OVC120=
200905231300 METAR MRPV 231300Z 00000KT 9999 3000NW BR FEW006 OVC120 21/19 A3003 RMK DU 09=
200905231400 METAR MRPV 231400Z 07002KT 9999 3000NW BR FEW006 OVC120 23/19 A3003 RMK DU 09=
200905231500 METAR MRPV 231500Z 11006KT CAVOK 26/18 A3003 RMK TRACE SC CU BKN120 DU 09=
200905231600 METAR MRPV 231600Z 08007KT 9999 FEW030 BKN120 28/18 A3001=
200905231700 METAR MRPV 231700Z 00000KT 9999 SCT030 BKN120 29/18 A3000=
200905231800 METAR MRPV 231800Z 28013KT 9999 4000N VCSH FEW010TCU SCT025 BKN100 27/20 A2997=
200905231900 METAR MRPV 231900Z 00000KT 9000 4000N VCTS VCSH SCT015TCU OVC100 25/21 A2998=
200905232000 METAR MRPV 232000Z 26003KT 7000 3000N VCSH SCT012TCU OVC100 23/18 A2998=
200905232100 METAR MRPV 232100Z 00000KT 9999 SCT030 OVC100 22/18 A2999=
200905232200 METAR MRPV 232200Z 00000KT 9999 3000S VCSH SCT015 OVC100 22/19 A2998 RMK TS DST S SE=
200905232300 METAR MRPV 232300Z 00000KT 9999 4000N -RA BR FEW015 OVC100 21/19 A2998=
200905240000 METAR MRPV NIL=
200905240100 METAR MRPV NIL=
200905240200 METAR MRPV NIL=
200905240300 METAR MRPV NIL=
200905240400 METAR MRPV NIL=
200905240500 METAR MRPV NIL=
200905240600 METAR MRPV NIL=
200905240700 METAR MRPV NIL=
200905240800 METAR MRPV NIL=
200905240900 METAR MRPV NIL=
200905241000 METAR MRPV NIL=
200905241100 METAR MRPV NIL=
200905241200 METAR MRPV 241200Z 12006KT 9999 FEW030 OVC120 21/18 A3002=
200905241300 METAR MRPV 241300Z 13005KT 9999 FEW030 SCT120 BKN250 22/18 A3004=
200905241400 METAR MRPV 241400Z 13004KT CAVOK 23/18 A3004 RMK TRACE SC SCT120 BKN250=
200905241500 METAR MRPV NIL=
200905241600 METAR MRPV 241600Z 05003KT 9999 SCT030 BKN250 27/18 A3004=
200905241700 METAR MRPV 241700Z 28008KT 9999 4000N HZ FEW012 SCT030 BKN250 27/20 A3003=
200905241800 METAR MRPV 241800Z 28011KT 9999 4000N HZ SCT010 BKN120 26/21 A3002=
200905241900 METAR MRPV 241900Z 29009KT 9999 3000N VCTS VCSH SCT010CB BKN025 25/20 A3000=
200905242000 METAR MRPV 242000Z 06005KT 9999 4000SW VCTS VCSH SCT015CB BKN025 23/18 A2999=
200905242100 METAR MRPV 242100Z 00000KT 9999 SCT020 OVC100 24/19 A2997=
200905242200 METAR MRPV 242200Z 29004KT 6000 VCFG SCT015 OVC100 24/20 A2997=
200905242300 METAR MRPV 242300Z 30002KT 5000 BR SCT012 OVC100 24/20 A2997 RMK VIS 3000 S SW BR=
200905250000 METAR MRPV NIL=
200905250100 METAR MRPV NIL=
200905250200 METAR MRPV NIL=
200905250300 METAR MRPV NIL=
200905250400 METAR MRPV NIL=
200905250500 METAR MRPV NIL=
200905250600 METAR MRPV NIL=
200905250700 METAR MRPV NIL=
200905250800 METAR MRPV NIL=
200905250900 METAR MRPV NIL=
200905251000 METAR MRPV NIL=
200905251100 METAR MRPV NIL=
200905251200 METAR MRPV NIL=
200905251300 METAR MRPV 251300Z 09006KT CAVOK 22/18 A3000 RMK TRACE SC BKN120 SCT250 POLVO APROXIMACION PISTA 09=
200905251400 METAR MRPV 251400Z 14007KT CAVOK 24/18 A3001 RMK TRACE CU SC SCT120 BKN250 VEL.MAX VTO 13KT=
200905251500 METAR MRPV 251500Z 13005KT CAVOK 27/18 A3001 RMK TRACE CU SC BKN250=
200905251600 METAR MRPV 251600Z 08003KT CAVOK 28/18 A3001 RMK TRACE CU FEW130 SCT250 TCU DST E=
200905251700 METAR MRPV 251700Z 27007KT 9999 FEW030 SCT300 27/20 A2999 RMK TRACE AC=
200905251800 METAR MRPV 251800Z 27012KT 9999 FEW014CB SCT300 27/20 A2997 RMK RN DST E=
200905251900 METAR MRPV 251900Z 28008KT 8000 1000NE TS VCSH SCT008CB SCT030 27/20 A2997=
200905252000 METAR MRPV 252000Z 30005KT 3000 +TSRA SCT006 BKN012 20/19 A2996=
200905252025 METAR MRPV 252025Z VRB02KT 5000 RA SCT008 BKN020 20/18 A2995 TS W=
200905252100 METAR MRPV 252100Z VRB02KT 7000 2000NW -RA BR SCT010 BKN020 20/19 A2995=
200905252200 METAR MRPV 252200Z 00000KT 6000 VCFG SCT006 SCT020 OVC100 21/19 A2994 RERA=
200905252300 METAR MRPV 252300Z 00000KT 3000 -RA BR SCT002 BKN010 21/19 A2997=
200905260000 METAR MRPV NIL=
200905260100 METAR MRPV NIL=
200905260200 METAR MRPV NIL=
200905260300 METAR MRPV NIL=
200905260400 METAR MRPV NIL=
200905260500 METAR MRPV NIL=
200905260600 METAR MRPV NIL=
200905260700 METAR MRPV NIL=
200905260800 METAR MRPV NIL=
200905260900 METAR MRPV NIL=
200905261000 METAR MRPV NIL=
200905261100 METAR MRPV NIL=
200905261200 METAR MRPV 261200Z 08004KT CAVOK 20/18 A2997 RMK TRACE SC SCT120 SCT250 DUST NEAR APROCH RNY 09=
200905261300 METAR MRPV 261300Z 00000KT CAVOK 21/19 A2999 TRAZAS SCT SCT120 SCT250 DU PISTA 09=
200905261400 METAR MRPV 261400Z 00000KT CAVOK 25/19 A2998 TRAZAS CU FEW130 SCT250 DU PISTA 09=
200905261500 METAR MRPV 261500Z 28006KT CAVOK 24/19 A2999 TRAZAS CU/AC BKN250 DU PISTA 09=
200905261600 METAR MRPV 261600Z 28005KT 9999 FEW040 BKN250 25/20 A29999 DU PISTA 09 HZY=
200905261700 METAR MRPV 261700Z 26006KT 9999 FEW035 BKN280 26/20 A2998 HZY TCU S=
200905261800 METAR MRPV 261800Z 27008KT 9999 FEW025TCU FEW035 BKN280 27/21 A2996 HZY=
200905261900 METAR MRPV 261900Z 28010KT 9999 4000NE VCTS SCT012CB BKN025 27/21 A2994=
200905262000 METAR MRPV 262000Z 22005KT 9999 3000E VCTS SCT010CB BKN025 25/20 A2992=
200905262100 METAR MRPV 262100Z 07008KT 5000 2000E -TSRA SCT006CB BKN015 21/19 A2993=
200905262200 METAR MRPV 262200Z 00000KT 5000 -TSRA FEW004CB BKN015 21/19 A2995=
200905262300 METAR MRPV 262300Z 00000KT 5000 2000N RA SCT002 BKN015 21/20 A2997 RETS VIS S UNL=
200905270000 METAR MRPV NIL=
200905270100 METAR MRPV NIL=
200905270200 METAR MRPV NIL=
200905270300 METAR MRPV NIL=
200905270400 METAR MRPV NIL=
200905270500 METAR MRPV NIL=
200905270600 METAR MRPV NIL=
200905270700 METAR MRPV NIL=
200905270800 METAR MRPV NIL=
200905270900 METAR MRPV NIL=
200905271000 METAR MRPV NIL=
200905271100 METAR MRPV NIL=
200905271200 METAR MRPV 271200Z 14006KT CAVOK 21/17 A2995 RMK TRACE SC BKN100=
200905271300 METAR MRPV 271300Z 14004KT CAVOK 22/17 A2997 RMK TRACE SC BKN100 TCU SW=
200905271400 METAR MRPV 271400Z 14005KT CAVOK 25/18 A2996 RMK TRACE CU SC SCT120 SCT280 CB TCU SW=
200905271500 METAR MRPV 271500Z 14004KT CAVOK 27/17 A2998 RMK FEW100 FEW280 CB DST SW=
200905271600 METAR MRPV 271600Z 28008KT 9999 FEW035 SCT100 25/20 A2998 RMK CB S HZ CUADRANTES N W=
200905271700 METAR MRPV 271700Z 28009KT 9999 4000NE VCSH FEW015CB FEW020TCU BKN250 25/20 A2998=
200905271800 METAR MRPV 271800Z 28006KT 9999 4000NE -RA VCSH FEW010TCU SCT025 BKN250 25/20 A2996=
200905271900 METAR MRPV 271900Z 29008KT 9999 4000NE VCSH FEW006 SCT015TCU BKN250 26/20 A2993 RERA RMK HZ LEVE W=
200905272000 METAR MRPV 272000Z 29006KT 6000 2000NE -RA VCSH SCT005 BKN020 23/21 A2992 RMK VIS S UNL=
200905272100 METAR MRPV NIL=
200905272200 METAR MRPV 272200Z VRB02KT 2000 +TSRA SCT002CB BKN008 20/19 A2994=
200905272300 METAR MRPV 272300Z 00000KT 3000 +SHRA SCT004 BKN012 19/18 A2996 RETS RMK TS DST W=
200905280000 METAR MRPV 280000Z NIL=
200905280100 METAR MRPV NIL=
200905280200 METAR MRPV NIL=
200905280300 METAR MRPV NIL=
200905280400 METAR MRPV NIL=
200905280500 METAR MRPV NIL=
200905280600 METAR MRPV NIL=
200905280700 METAR MRPV NIL=
200905280800 METAR MRPV NIL=
200905280900 METAR MRPV NIL=
200905281000 METAR MRPV NIL=
200905281100 METAR MRPV NIL=
200905281200 METAR MRPV 281200Z 281200Z09004KT CAVOK 19/17 A2998 BKN130 SCT250=
200905281300 METAR MRPV 281300Z 12004KT CAVOK 21/18 A3000 RMK BKN250=
200905281400 METAR MRPV 281400Z 10005KT CAVOK 24/18 A3001 RMK TRACE CU BKN250=
200905281500 METAR MRPV 281500Z 29004KT CAVOK 25/19 A3001 RMK TRACE CU HZ W BKN250=
200905281600 METAR MRPV 281600Z 27007KT 9999 FEW035 BKN250 25/18 A3001=
200905281700 METAR MRPV 281700Z 28006KT 9999 SCT030 SCT250 26/17 A3001 RMK TCU SCT ARND=
200905281800 METAR MRPV 281800Z 25005KT 9999 SCT030 SCT250 27/18 A2999 RMK RASH E SE TCU SCT ARND=
200905281900 METAR MRPV 281900Z 24003KT 9999 SCT030 BKN100 28/17 A2997 RMK RN DST N E=
200905282000 METAR MRPV 282000Z 07009KT 9999 VCSH SCT020CB SCT030 BKN100 26/19 A2995 RMK VIS N NE 6000 DUE RASH CB=
200905282100 METAR MRPV 282100Z 07005KT 9999 SCT030 BKN100 25/18 A2993 RMK RNN DST N NW=
200905282200 METAR MRPV 282200Z 28003KT 9999 FEW010 SCT020 BKN100 24/18 A2995 RN DST W=
200905282300 METAR MRPV NIL=
200905290000 METAR MRPV NIL=
200905290100 METAR MRPV NIL=
200905290200 METAR MRPV NIL=
200905290300 METAR MRPV NIL=
200905290400 METAR MRPV NIL=
200905290500 METAR MRPV NIL=
200905290600 METAR MRPV NIL=
200905290700 METAR MRPV NIL=
200905290800 METAR MRPV NIL=
200905290900 METAR MRPV NIL=
200905291000 METAR MRPV NIL=
200905291100 METAR MRPV NIL=
200905291200 METAR MRPV 291200Z 12002KT CAVOK 19/17 A3003 RMK BKN250 HZ ARND=
200905291300 METAR MRPV 291300Z 00000KT CAVOK 23/18 A3004 RMK TRACE CU SC AC LGT HZ ARND BKN250 DUST NEAR APCH 09=
200905291400 METAR MRPV 291400Z 10009KT CAVOK 25/18 A3004 RMK HZY DUST NEAR APCH RNY 09 TRACE CU FEW150 BKN250 VEL MAX VTO 15KT=
200905291500 METAR MRPV NIL=
200905291700 METAR MRPV 291700Z 28007KT 9999 FEW020 SCT030 SCT250 27/20 A3002 RMK LGT HZ ARND=
200905291800 METAR MRPV 291800Z 29009KT 9999 FEW020TCU SCT030 27/20 A3000=
200905291900 METAR MRPV 291900Z 28012KT 9999 4000N VCSH SCT020TCU BKN030 25/21 A2998=
200905292000 METAR MRPV 292000Z 27004KT 9999 4000S VCTS VCSH FEW006 SCT012CB BKN025 24/20 A2998 VIS E 5KMS=
200905292100 METAR MRPV 292100Z 24005KT 6000 RA SCT010 BKN020 20/19 A2999 RMK 3000 SW DUE ST RA=
200905292200 METAR MRPV 292200Z 00000KT 9999 4000N VCFG FEW007 SCT020 OVC100 22/20 A2999=
200905292300 METAR MRPV 292300Z 00000KT 9999 4000N VCFG FEW008 SCT025 OVC100 22/20 A3000=
200905300000 METAR MRPV NIL=
200905300100 METAR MRPV NIL=
200905300200 METAR MRPV NIL=
200905300300 METAR MRPV NIL=
200905300400 METAR MRPV NIL=
200905300500 METAR MRPV NIL=
200905300600 METAR MRPV NIL=
200905300700 METAR MRPV NIL=
200905300800 METAR MRPV NIL=
200905300900 METAR MRPV NIL=
200905301000 METAR MRPV NIL=
200905301100 METAR MRPV NIL=
200905301200 METAR MRPV 301200Z 12006KT CAVOK 20/16 A3001 RMK TRACE SC SCT120 BKN250=
200905301300 METAR MRPV 301300Z 13006KT CAVOK 22/17 A3003 RMK TRACE SC SCT120 BKN250=
200905301400 METAR MRPV 301400Z 12006KT CAVOK 24/17 A3003 RMK TRACE SC BKN270=
200905301500 METAR MRPV 301500Z 08013KT 9999 FEW030 BKN270 25/17 A3004=
200905301600 METAR MRPV 301600Z 06012KT 9999 FEW030 BKN250 26/17 A3003=
200905301700 METAR MRPV 301700Z 08010KT 9999 SCT030 BKN250 25/17 A3001=
200905301800 METAR MRPV 301800Z 09009KT 9999 SCT030 BKN250 27/17 A2999 TCU DST E=
200905301900 METAR MRPV 301900Z 14002KT 9999 SCT030 BKN100 28/16 A2996=
200905302000 METAR MRPV 302000Z 29009KT 9999 VCSH SCT012TCU BKN035 26/21 A2994 RMK CB N N NE E VIS N 5000 KMS=
200905302100 METAR MRPV 302100Z 28014KT 9999 2000E TSRA SCT006CB BKN012 24/21 A2993=
200905302200 METAR MRPV 302200Z 32002KT 2000 TSRA SCT008CB OVC015 21/20 A2996=
200905302300 METAR MRPV 302300Z 20002KT 7000 3000S RA VCTS FEW010CB SCT020 OVC100 19/18 A2997=
200905310000 METAR MRPV 310000Z NIL=
200905310100 METAR MRPV NIL=
200905310200 METAR MRPV NIL=
200905310300 METAR MRPV NIL=
200905310400 METAR MRPV NIL=
200905310500 METAR MRPV NIL=
200905310600 METAR MRPV NIL=
200905310700 METAR MRPV NIL=
200905310800 METAR MRPV NIL=
200905310900 METAR MRPV NIL=
200905311000 METAR MRPV NIL=
200905311100 METAR MRPV NIL=
200905311200 METAR MRPV 311200Z 12005KT 9999 SCT025 BKN250 21/17 A3001 RMK CB DST SW W PCPN DST NE=
200905311300 METAR MRPV 311300Z 09008KT 9999 FEW030 BKN250 22/18 A3002 RMK HZY=
200905311400 METAR MRPV 311400Z 11008KT 9999 FEW030 BKN250 24/17 A3003 HZY=
200905311500 METAR MRPV 311500Z 08010KT 9999 FEW022 SCT100 BKN250 25/18 A3003 HZY RN NE=
200905311600 METAR MRPV 311600Z 08006KT 9999 FEW022 SCT100 BKN250 26/17 A3002 HZY RN NE=
200905311700 METAR MRPV 311700Z 08010KT 9999 FEW022 SCT100 BKN250 26/17 A3000 HZY RN NE=
200905311800 METAR MRPV 311800Z 07006KT 9999 FEW022 BKN250 28/18 A2997 HZY RN NE=
200905311900 METAR MRPV 311900Z 27012KT 1000 +TSRA SCT010CB BKN015 24/20 A2996=
200905312000 METAR MRPV 312000Z 28004KT 8000 3000NW -RA VCSH SCT004 BKN016 22/20 A2996 RETS VSBY E SE UNL=
200905312100 METAR MRPV 312100Z 00000KT 9999 SCT006 OVC100 22/19 A2994 RERA VIS W 6000MT S POR LLUVIA Y TORMENTA=
200905312200 METAR MRPV 312200Z 11010KT 9999 SCT010 OVC100 23/17 A2992 RMK RN NE NW W=
200905312300 METAR MRPV 312300Z 10010KT 9999 FEW004 SCT020 OVC100 22/18 A2994 RMK RN NE NW W=
200906010000 METAR MRPV NIL=
200906010100 METAR MRPV NIL=
200906010200 METAR MRPV NIL=
200906010300 METAR MRPV NIL=
200906010400 METAR MRPV NIL=
200906010500 METAR MRPV NIL=
200906010600 METAR MRPV NIL=
200906010700 METAR MRPV NIL=
200906010800 METAR MRPV NIL=
200906010900 METAR MRPV NIL=
200906011000 METAR MRPV NIL=
200906011100 METAR MRPV NIL=
200906011200 METAR MRPV 011200Z 09005KT CAVOK 21/17 A2996 RMK TRACE SC BKN100 POLVO APROXIMACIO PISTA 09=
200906011300 METAR MRPV 011300Z 13005KT CAVOK 22/17 A2999 RMK TRACE SC BKN100=
200906011400 METAR MRPV 011400Z 12006KT CAVOK 23/17 A3000 RMK TRACE SC BKN100=
200906011500 METAR MRPV 011500Z 11006KT CAVOK 24/17 A3000 RMK TRACE SC BKN100 HZ W CB DST S=
200906011600 METAR MRPV 011600Z 09010KT 9999 FEW020 BKN100 25/18 A3001 RMK HZ W=
200906011700 METAR MRPV 011700Z 07010KT 9999 FEW020 BKN100 25/17 A2999 RMK CB SW DST HZ W=
200906011800 METAR MRPV 011800Z 08010KT 9999 SCT020 BKN250 27/18 A2997 RMK CB SW HZ W=
200906011900 METAR MRPV 011900Z 08011KT 9999 SCT020 BKN250 26/18 A2995 RMK CB DST SW SE HZ W RN NE=
200906012000 METAR MRPV 012000Z 08013KT 9999 SCT020 BKN250 27/18 A2992 RMK CB DST SW RN NE HZ W=
200906012100 METAR MRPV 012100Z 08012KT 9999 SCT015 BKN250 26/18 A2990 RMK TS DST SW RN NE DST HZ W=
200906012200 METAR MRPV 012200Z 09012KT 9999 4000NE -RA VCSH SCT010 BKN250 24/18 A2991 RMK TS DST W HZ W CB DST W=
200906012300 METAR MRPV 012300Z 09007KT 9999 4000NW -RA VCSH SCT010 BKN250 22/19 A2991 RMK HZ W=
200906020000 METAR MRPV NIL=
200906020100 METAR MRPV NIL=
200906020200 METAR MRPV NIL=
200906020300 METAR MRPV NIL=
200906020400 METAR MRPV NIL=
200906020500 METAR MRPV NIL=
200906020600 METAR MRPV NIL=
200906020700 METAR MRPV NIL=
200906020800 METAR MRPV NIL=
200906020900 METAR MRPV NIL=
200906021000 METAR MRPV NIL=
200906021100 METAR MRPV NIL=
200906021200 METAR MRPV 021200Z 11008KT 9999 SCT025 BKN250 21/18 A2994 DZ NW N NE E SE=
200906021300 METAR MRPV 021300Z 11009KT 9999 SCT030 SCT250 22/18 A2995 RMK PCPN NE E SE VL VTO 14KT=
200906021400 METAR MRPV 021400Z 10010KT 9999 FEW030 24/19 A2997 RMK FEW120 TRACE CI PCPN NE E CB NE=
200906021500 METAR MRPV 021500Z 10010KT 9999 SCT020 25/18 A2997 RMK VL MX VTO 18KT DU 09 RN NE=
200906021600 METAR MRPV 021600Z 07012KT 9999 SCT020 25/18 A2997 RMK VL MX VTO 17KT PCPN NE=
200906021700 METAR MRPV 021700Z 07014KT 9999 SCT025 SCT250 26/18 A2995 RMK PCPN NE TCU NW SW VL MX VTO 19KT=
200906021800 METAR MRPV 021800Z 06014KT 9999 SCT025 SCT250 27/18 A2994 RMK PCPN NE TCU N NW SW=
200906021900 METAR MRPV 021900Z 07010KT 9999 BKN025 26/18 A2991 RMK PCPN NE TCU NW SW=
200906022000 METAR MRPV 022000Z 07011KT 9999 FEW015TCU SCT030 27/19 A2989 RMK PCPN NE NW CB DST SW VL MX VTO 17KT=
200906022100 METAR MRPV 022100Z 06011KT 9999 FEW012TCU BKN030 25/18 A2988 RMK VEL MAX VTO 17KT PCPN W NE CB DST SW=
200906022200 METAR MRPV 022200Z 09012KT 9999 SCT010 BKN030 24/17 A2990 RMK TS DST W NW RN NE N VEL MAX VTO 18KT=
200906022300 METAR MRPV 022300Z 08009G19KT 9999 SCT010 BKN030 23/18 A2991 RMK CB DST SW NW RN NE=
200906030000 METAR MRPV NIL=
200906030100 METAR MRPV NIL=
200906030200 METAR MRPV NIL=
200906030300 METAR MRPV NIL=
200906030400 METAR MRPV NIL=
200906030500 METAR MRPV NIL=
200906030600 METAR MRPV NIL=
200906030700 METAR MRPV NIL=
200906030800 METAR MRPV NIL=
200906030900 METAR MRPV NIL=
200906031000 METAR MRPV NIL=
200906031100 METAR MRPV NIL=
200906031200 METAR MRPV 031200Z 10010KT CAVOK 21/17 A2993 RMK TRACE SC FEW100 SCT250 CB SSW RAFAGAS DE 15KT=
200906031300 METAR MRPV 031300Z 12007KT CAVOK 22/16 A2994 RMK TRACE SC SCT100 SCT250 CB DST SW=
200906031400 METAR MRPV 031400Z 11013KT CAVOK 23/17 A2995 RMK TRACE SC FEW120 BKN220 CB DST SW VEL MAX VTO 19KT=
200906031500 METAR MRPV 031500Z 09018KT 9999 FEW045 BKN250 24/18 A2995 RMK VEL MAX VTO 23KT DZ DST NE=
200906031600 METAR MRPV 031600Z 07013KT 9999 FEW045 BKN250 25/18 A2994 RMK VEL MAX VTO 19KT=
200906031700 METAR MRPV 031700Z 07013KT 9999 SCT035 SCT250 26/18 A2994 RMK VEL MAX VTO 20KT DUST NEAR APCH 09=
200906031800 METAR MRPV 031800Z 08015KT 9999 FEW040 BKN250 26/18 A2991 RMK DZ DST N NE DUST NEAR APCH RNY 09=
200906031900 METAR MRPV 031900Z 07012KT 9999 BKN030 25/18 A2990 RMK DZ DST NW N NE FEW250=
200906032000 METAR MRPV 032000Z 06011KT 9999 SCT035 SCT250 25/18 A2988 RMK DZ DST NW NE VEL MAX VTO 16KT=
200906032100 METAR MRPV 032100Z 09010KT 9999 BKN035 26/17 A2987 RMK DZ DST N NE TCU DST S VEL.MAX.VTO 15KT=
200906032200 METAR MRPV 032200Z 08012KT 9999 FEW015 BKN030 24/18 A2987 DZ DST N NE CB TS DST SW=
200906032300 METAR MRPV 032300Z 09013KT 9999 FEW030 SCT100 23/18 A2989 RMK DZ NE SCT250 VEL.MAX.VTO 18KT=
200906040000 METAR MRPV NIL=
200906040100 METAR MRPV NIL=
200906040200 METAR MRPV NIL=
200906040300 METAR MRPV NIL=
200906040400 METAR MRPV NIL=
200906040500 METAR MRPV NIL=
200906040600 METAR MRPV NIL=
200906040700 METAR MRPV NIL=
200906040800 METAR MRPV NIL=
200906040900 METAR MRPV NIL=
200906041000 METAR MRPV NIL=
200906041100 METAR MRPV NIL=
200906041200 METAR MRPV 041200Z 13008KT CAVOK 21/16 A2997 RMK TRACE SC SCT120 BKN250 VL MX VTO 13KT=
200906041300 METAR MRPV 041300Z 12008KT CAVOK 22/17 A2994 RMK TRACE SC SCT120 BKN250 VEL.MAX.VTO 13KT=
200906041400 METAR MRPV 041400Z 11010KT CAVOK 24/17 A2995 RMK TRACE SC CU BKN250=
200906041500 METAR MRPV 041500Z 09016KT CAVOK 24/18 A2993 RMK TRACE CU SC BKN250 VEL.MAX.VTO 21KT=
200906041600 METAR MRPV 041600Z 09015KT 9999 FEW045 BKN250 27/18 A2994 RMK VEL.MAX.VTO 21KT=
200906041700 METAR MRPV 041700Z 07013KT 9999 FEW040 BKN250 27/18 A2993 RMK VEL.MAX.VTO 20KT=
200906041800 METAR MRPV 041800Z 08013KT 9999 SCT040 BKN250 28/18 A2992 RMK VEL.MAX.VTO 18KT=
200906041900 METAR MRPV 041900Z 09011KT 9999 SCT040 SCT250 28/18 A2990 RMK TCU DST E SE=
200906042000 METAR MRPV 042000Z 09013KT 9999 FEW040 BKN250 28/18 A2988 RMK TCU DST E SW NW=
200906042100 METAR MRPV 042100Z 08012KT 9999 FEW025TCU FEW035 SCT250 29/18 A2986 VSBY E 8KM DUE RN MAX. WIND 18KT=
200906042200 METAR MRPV 042200Z 10010KT 9999 FEW020TCU FEW030 SCT250 25/19 A2988 RN NW MAX/ WIND 15KT=
200906042300 METAR MRPV 042300Z 08010KT 9999 FEW015 SCT035 25/18 A2989 RASH W MAX WIND 15KT=
200906050000 METAR MRPV 050000Z NIL=
200906050100 METAR MRPV NIL=
200906050200 METAR MRPV NIL=
200906050300 METAR MRPV NIL=
200906050400 METAR MRPV NIL=
200906050500 METAR MRPV NIL=
200906050600 METAR MRPV NIL=
200906050700 METAR MRPV NIL=
200906050800 METAR MRPV NIL=
200906050900 METAR MRPV NIL=
200906051000 METAR MRPV NIL=
200906051100 METAR MRPV NIL=
200906051200 METAR MRPV 051200Z 00000KT 9999 FEW030 SCT090 BKN130 20/18 A2998 RMK LGT HZ ARND DUST NEAR APCH RNY 09=
200906051300 METAR MRPV 051300Z 03002KT CAVOK 21/18 A3000 RMK TRAZAS SC SCT140 BKN250 HZY FU PISTA 09=
200906051400 METAR MRPV 051400Z 08004KT CAVOK 24/18 A2999 TRAZAS CU/SC/AS BKN250 VSBY W 7KM DUE HZ HZY POLVO PISTA 09=
200906051500 METAR MRPV 051500Z 23003KT 9999 FEW040 BKN250 25/18 A3000 HZY=
200906051600 METAR MRPV 051600Z 28006KT 9999 FEW035 BKN250 27/20 A3001 FEW120 VSBY W 7KM DUE HZ HZY=
200906051700 METAR MRPV 051700Z 29007KT 8000 SCT030 SCT250 27/20 A2999 HZY TCU N SE S SW=
200906051800 METAR MRPV 051800Z 27007KT 9999 VCSH FEW020TCU FEW030 SCT280 27/19 A2996 VSBY SE 8KM HZY=
200906051900 METAR MRPV 051900Z 27007KT 9999 VCTS VCSH FEW015CB SCT030 SCT280 27/20 A2994 VSBY N NE E 5KM=
200906052000 METAR MRPV 052000Z 13004KT 4000 -RA VCTS SCT010CB BKN015 22/20 A2995=
200906052100 METAR MRPV 052100Z 19005KT 2000 RA VCTS SCT002 CHECK TEXT NEW ENDING ADDED KATLYTAA=
200906052200 METAR MRPV 052200Z 08002KT 5000 -RA BR FEW002 SCT015 BKN100 20/19 A2996 RMK VIS S UNL MEJORANDO LENTAMENTE=
200906052300 METAR MRPV 052300Z 00000KT 5000 -RA BR FEW002 OVC100 20/19 A2999 VIS S UNL VIS NW N 4000MTS PISTA HUMEDA=
200906060000 METAR MRPV NIL=
200906060100 METAR MRPV NIL=
200906060200 METAR MRPV NIL=
200906060300 METAR MRPV NIL=
200906060400 METAR MRPV NIL=
200906060500 METAR MRPV NIL=
200906060600 METAR MRPV NIL=
200906060700 METAR MRPV NIL=
200906060800 METAR MRPV NIL=
200906060900 METAR MRPV NIL=
200906061000 METAR MRPV NIL=
200906061100 METAR MRPV NIL=
200906061200 METAR MRPV 061200Z VRB02KT CAVOK 19/18 A2997 RMK BKN250=
200906061300 METAR MRPV 061300Z 12003KT CAVOK 22/17 A2997 RMK SCT250=
200906061400 METAR MRPV 061400Z 08011KT CAVOK 24/16 A2998 RMK DU PISTA 09 SCT250=
200906061500 METAR MRPV 061500Z 08010KT CAVOK 26/16 A2999 RMK SCT250 DU PISTA 09 RAFAGAS 15KT=
200906061600 METAR MRPV 061600Z 08012KT CAVOK 26/16 A2999 RMK SCT120=
200906061700 METAR MRPV 061700Z 08008KT 9999 FEW028 BKN120 26/16 A2999 RMK HZ NW=
200906061800 METAR MRPV 061800Z 27010KT 9999 SCT022 BKN120 26/19 A2997 RMK HZ NW W LINEA DE TCU S W=
200906061900 METAR MRPV 061900Z 28010KT 5000 +RA SCT010 BKN020 23/20 A2996 LINEA DE TCU SW=
200906062000 METAR MRPV 062000Z 330V13008KT 9999 SCT010 BKN025 24/18 A2994 RERA RMK RN N=
200906062100 METAR MRPV 062100Z 30008KT 9999 FEW010 SCT025 BKN100 23/18 A2994 RMK VIENTO CRUZADO=
200906062200 METAR MRPV 062200Z 27006KT 9999 SCT008 BKN015 22/19 A2995 RMK PCPN NW=
200906062300 METAR MRPV 062300Z 30006KT 8000 VCFG SCT002 BKN015 22/18 A2996 RMK PCPN NW=
200906070000 METAR MRPV 070000Z NIL=
200906070100 METAR MRPV NIL=
200906070200 METAR MRPV NIL=
200906070300 METAR MRPV NIL=
200906070400 METAR MRPV NIL=
200906070500 METAR MRPV NIL=
200906070600 METAR MRPV NIL=
200906070700 METAR MRPV NIL=
200906070800 METAR MRPV NIL=
200906070900 METAR MRPV NIL=
200906071000 METAR MRPV NIL=
200906071100 METAR MRPV NIL=
200906071200 METAR MRPV 071200Z 11004KT CAVOK 21/17 A2997 BKN120=
200906071300 METAR MRPV 071300Z 00000KT CAVOK 23/18 A3000 RMK TRACE SC SCT120=
200906071400 METAR MRPV 071400Z 28004KT CAVOK 24/18 A3000 RMK SCT120 SCT250 TRACE SC CB DST S=
200906071500 METAR MRPV 071500Z 28004KT CAVOK 25/17 A3000 RMK TRACE SC SCT120 SCT250=
200906071600 METAR MRPV 071600Z 27004KT 9999 FEW030 BKN250 27/17 A2999=
200906071700 METAR MRPV 071700Z 28010KT 9999 FEW030 BKN250 26/19 A2997 RMK TCU S=
200906071800 METAR MRPV 071800Z 28012KT 9999 FEW020TCU BKN120 27/20 A2995=
200906071900 METAR MRPV 071900Z 28012KT 9999 FEW020TCU BKN120 27/20 A2995=
200906072000 METAR MRPV 072000Z 27014KT 9999 4000E VCTS SCT010CB SCT030TCU 26/21 A2992 RMK VL MX VTO19KT=
200906072100 METAR MRPV 072100Z 28010KT 7000 3000NE VCTS VCSH FEW004CB SCT008TCU BKN015 24/21 A2992 RMK LOW ST MVNG W TO E=
200906072200 METAR MRPV 072200Z 28010KT 5000 2000NE -RA VCSH SCT002 BKN012 23/21 A2991 ST MV W TO E=
200906072300 METAR MRPV 072300Z VRB02KT 2000 +SHRA SCT001 BKN010 21/20 A2993=
200906080000 METAR MRPV NIL=
200906080100 METAR MRPV NIL=
200906080200 METAR MRPV NIL=
200906080300 METAR MRPV NIL=
200906080400 METAR MRPV NIL=
200906080500 METAR MRPV NIL=
200906080600 METAR MRPV NIL=
200906080700 METAR MRPV NIL=
200906080800 METAR MRPV NIL=
200906080900 METAR MRPV NIL=
200906081000 METAR MRPV NIL=
200906081100 METAR MRPV NIL=
200906081200 METAR MRPV 081200Z 12007KT CAVOK 21/18 A2994 RMK TRACE SC BKN130 SCT250=
200906081300 METAR MRPV 081300Z 12007KT CAVOK 22/18 A2995 RMK TRACE CU SC SCT130 SCT250 VEL MAX VTO 12KT=
200906081400 METAR MRPV 081400Z 11012KT CAVOK 24/18 A2996 RMK TRACE CU SC FEW140 SCT250 VEL MAX VTO 17KT=
200906081500 METAR MRPV 081500Z 08011KT 9999 FEW035 SCT250 25/19 A2997=
200906081600 METAR MRPV 081600Z 07008KT 9999 FEW040 SCT250 26/19 A2996=
200906081700 METAR MRPV 081700Z 08008KT 9999 FEW040 BKN250 27/18 A2995 RMK TCU DST SW=
200906081800 METAR MRPV 081800Z 27010KT 9999 FEW025TCU BKN035 26/22 A2994 RMK VEL MAX VTO 16KT=
200906081900 METAR MRPV 081900Z 27009KT 9999 FEW012 SCT020TCU SCT250 25/21 A2992 RMK VEL MAX VTO 14KT=
200906082000 METAR MRPV 082000Z 28012KT 9999 FEW012 FEW015CB SCT025 26/21 A2990 RMK RN DST E SE=
200906082100 METAR MRPV 082100Z 29010KT 3000 BR SCT002 BKN007 22/21 2991=
200906082200 METAR MRPV 082200Z 28009KT 4000 -DZBR SCT002 BKN010 22/20 A2990=
200906082300 METAR MRPV 082300Z 29004KT 4000 BR SCT003 BKN012 21/20 A2991=
200906082306 METAR MRPV 082306Z 29003KT 5000 BR FEW003 SCT015 BKN100 21/20 A2991=
200906082345 METAR MRPV 082345Z 00000KT 6000 VCFG FEW004 SCT015 BKN100 21/19 A2992=
200906090000 METAR MRPV NIL=
200906090100 METAR MRPV NIL=
200906090200 METAR MRPV NIL=
200906090300 METAR MRPV NIL=
200906090400 METAR MRPV NIL=
200906090500 METAR MRPV NIL=
200906090600 METAR MRPV NIL=
200906090700 METAR MRPV NIL=
200906090800 METAR MRPV NIL=
200906090900 METAR MRPV NIL=
200906091000 METAR MRPV NIL=
200906091100 METAR MRPV NIL=
200906091200 METAR MRPV 091200Z 14005KT CAVOK 22/18 A2996 RMK TRACE SC AC SCT120 BKN250 CB DST W=
200906091300 METAR MRPV 091300Z 12006KT CAVOK 23/18 A2997 RMK TRACE CU SC SCT120 BKN250 CB DST W=
200906091400 METAR MRPV 091400Z 10010KT CAVOK 25/19 A2999 RMK TRACE SC/CU SCT120 BKN250 VEL MAX VTO 16KT=
200906091500 METAR MRPV 091500Z 07010KT 9999 FEW030 BKN250 26/17 A300 RMK DU APROX W=
200906091600 METAR MRPV 091600Z 12003KT 9999 FEW030 BKN250 28/17 A2999=
200906091700 METAR MRPV 091700Z 28005KT 9999 SCT035 BKN250 27/20 A3000 DU APROX W=
200906091800 METAR MRPV 091800Z 28008KT 9999 SCT025 BKN100 26/20 A2999 RMK TCU SCT ARND=
200906091900 METAR MRPV 091900Z 29006KT 9999 SCT025 OVC100 26/21 A2995=
200906092000 METAR MRPV 092000Z 00000KT 9999 FEW020 SCT030 OVC100 28/21 A2993=
200906092100 METAR MRPV 092100Z 08003KT 9999 SCT030 OVC100 27/21 A2991=
200906092200 METAR MRPV 092200Z 08010KT 9999 FEW015 SCT025 OVC100 27/19 A2991=
200906092300 METAR MRPV 092300Z 00000KT 7000 3000SW -RA BR VCTS FEW012CB SCT025 OVC100 24/21 A2993=
200906100000 METAR MRPV 100000Z NIL=
200906100100 METAR MRPV NIL=
200906100200 METAR MRPV NIL=
200906100300 METAR MRPV NIL=
200906100400 METAR MRPV NIL=
200906100500 METAR MRPV NIL=
200906100600 METAR MRPV NIL=
200906100700 METAR MRPV NIL=
200906100800 METAR MRPV NIL=
200906100900 METAR MRPV NIL=
200906101000 METAR MRPV NIL=
200906101100 METAR MRPV NIL=
200906101200 METAR MRPV 101200Z 11009KT CAVOK 22/18 A2999 RMK TRACE SC BKN120 SCT250 RMK VEL MAX VTO 15KT CB DST S SW=
200906101300 METAR MRPV 101300Z 11006KT CAVOK 22/18 A3000 TRAZAS SCT BKN120=
200906101400 METAR MRPV 101400Z 11006KT CAVOK 23/18 A3001 TRAZAS SCT OVC120=
200906101500 METAR MRPV 101500Z 10008KT CAVOK 23/18 A3001 TRAZAS SCT OVC120=
200906101600 METAR MRPV 101600Z 12006KT CAVOK 24/18 A3001 TRACE SCT OVC120=
200906101700 METAR MRPV 101700Z 09013KT 9999 FEW030 OVC120 26/18 A3001=
200906101800 METAR MRPV 101800Z 11004KT 9999 FEW030 OVC120 27/18 A2999=
200906101900 METAR MRPV 101900Z 24006KT 9999 FEW030 OVC120 28/18 A2997=
200906102000 METAR MRPV 102000Z 29009KT 9999 SCT030 OVC120 25/20 A2996=
200906102100 METAR MRPV 102100Z 28009KT 9999 FEW020TCU SCT030 OVC120 25/20 A2995=
200906102200 METAR MRPV 102200Z 27009KT VCSH FEW010TCU SCT020 BKN100 24/21 A2995 RMK VIS N NE E 6000MTS DUE RASH=
200906102300 METAR MRPV 102300Z 09009KT 9999 -RA FEW010TCU SCT025 OVC100 20/18 A2998 RMK VIS E 3000 DUE RASH=
200906110000 METAR MRPV NIL=
200906110100 METAR MRPV NIL=
200906110200 METAR MRPV NIL=
200906110300 METAR MRPV NIL=
200906110400 METAR MRPV NIL=
200906110500 METAR MRPV NIL=
200906110600 METAR MRPV NIL=
200906110700 METAR MRPV NIL=
200906110800 METAR MRPV NIL=
200906110900 METAR MRPV NIL=
200906111000 METAR MRPV NIL=
200906111100 METAR MRPV NIL=
200906111200 METAR MRPV 111200Z 00000KT CAVOK 21/19 A2998 RMK TRACE SC AC BKN250 DU PISTA 09 HZ AROUND=
200906111300 METAR MRPV 111300Z 00000KT CAVOK 22/19 A2998 RMK TRACE SC BKN250 DU PISTA 09 HZ=
200906111400 METAR MRPV 111400Z 04004KT 9999 FEW030 BKN250 24/19 A299 RMK DU APROXIMACIO N 09 HZ ARND=
200906111500 METAR MRPV 111500Z 00000KT 9999 SCT030 BKN250 26/19 A3000 RMK HZ W=
200906111600 METAR MRPV 111600Z 26003KT 9999 SCT030 BKN250 27/18 A2999 RMK HZ ARND CU ARND=
200906111700 METAR MRPV 111700Z 25003KT 9999 SCT025 SCT250 28/18 A2998 HZ ARND=
200906111800 METAR MRPV 111800Z 26007KT 9999 SCT030 BKN250 28/19 A2996 RMK HZ ARND TCU SCT ARND=
200906111900 METAR MRPV 111900Z 26007KT 9999 4000N VCSH FEW020TCU BKN030 27/20 A2994=
200906112000 METAR MRPV 112000Z 14004KT 8000 TS VCSH SCT010CB BKN020 24/19 A2993=
200906112100 METAR MRPV NIL=
200906112200 METAR MRPV 112200Z 09004KT 9999 SCT020 OVC100 23/20 A2992=
200906112300 METAR MRPV 112300Z 11008KT 9999 SCT030 OVC100 22/18 A2994=
200906120000 METAR MRPV NIL=
200906120100 METAR MRPV NIL=
200906120200 METAR MRPV NIL=
200906120300 METAR MRPV NIL=
200906120400 METAR MRPV NIL=
200906120500 METAR MRPV NIL=
200906120600 METAR MRPV NIL=
200906120700 METAR MRPV NIL=
200906120800 METAR MRPV NIL=
200906120900 METAR MRPV NIL=
200906121000 METAR MRPV NIL=
200906121100 METAR MRPV NIL=
200906121200 METAR MRPV 121200Z 10004KT CAVOK 20/17 A2996 TRAZAS SCT SCT130 BKN250 DU PISTA 09=
200906121300 METAR MRPV 121300Z 09002KT CAVOK 23/18 A2998 RMK TRACE SCAC BKN250 DU09 HZ LGT ARND CB DST SW=
200906121400 METAR MRPV 121400Z 30004KT CAVOK 24/18 A3000 RMK TRACE CU BKN250 DU09 HZ LGT ARND=
200906121500 METAR MRPV NIL=
200906121600 METAR MRPV 121600Z 28010KT 9999 SCT025 BKN250 24/19 A3001 RMK HZ ARND=
200906121700 METAR MRPV 121700Z 28010KT 9999 SCT020 BKN030 23/19 A3001 RMK HZ ARND=
200906121800 METAR MRPV 121800Z 19010KT 8000 VCFG SCT008 BKN020 22/19 A3000=
200906121900 METAR MRPV 121900Z 30005KT 5000 -RABR SCT002 BKN015 21/19 A2999 RMK TSTM DST N=
200906122000 METAR MRPV 122000Z VRB02KT 5000 -RABR SCT002 BKN015 20/19 A2997=
200906122100 METAR MRPV 122100Z 00000KT 6000 -RA VCFG SCT002 BKN020 21/18 A2997=
200906122200 METAR MRPV 122200Z 00000KT 6000 -RA VCFG SCT002 BKN020 21/18 A2997=
200906122300 METAR MRPV 122300Z 00000KT 5000 -RA BR SCT002 BKN020 21/19 A2997=
200906130000 METAR MRPV NIL=
200906130100 METAR MRPV 130100Z NIL=
200906130200 METAR MRPV NIL=
200906130300 METAR MRPV NIL=
200906130400 METAR MRPV NIL=
200906130500 METAR MRPV NIL=
200906130600 METAR MRPV NIL=
200906130700 METAR MRPV NIL=
200906130800 METAR MRPV NIL=
200906130900 METAR MRPV NIL=
200906131000 METAR MRPV NIL=
200906131100 METAR MRPV NIL=
200906131200 METAR MRPV 131200Z 09005KT 8000 VCFG FEW015 BKN100 19/18 A3001=
200906131300 METAR MRPV 131300Z VRB02KT 8000 VCFG FEW020 BKN100 21/19 A3001 DUST APCH RNY 09=
200906131400 METAR MRPV 131400Z 05004KT 8000 VCFG FEW020 BKN250 23/17 A3003 DUST APCH RNY 09=
200906131500 METAR MRPV 131500Z 26004KT 8000 VCFG SCT025 BKN250 25/18 A3003 DUST RNY 09=
200906131600 METAR MRPV 131600Z 27010KT 7000 VCFG FEW010 SCT025 BKN250 24/19 A3003 RMK DUST RNY 09=
200906131700 METAR MRPV 131700Z 28010KT 5000 BR SCT008 BKN018 24/20 A3003 RMK TCU NW N SW=
200906131800 METAR MRPV NIL=
200906131900 METAR MRPV NIL=
200906132000 METAR MRPV NIL=
200906132100 METAR MRPV NIL=
200906132200 METAR MRPV NIL=
200906132300 METAR MRPV NIL=
200906140000 METAR MRPV NIL=
200906140100 METAR MRPV NIL=
200906140200 METAR MRPV NIL=
200906140300 METAR MRPV NIL=
200906140400 METAR MRPV NIL=
200906140500 METAR MRPV NIL=
200906140600 METAR MRPV NIL=
200906140700 METAR MRPV NIL=
200906140800 METAR MRPV NIL=
200906140900 METAR MRPV NIL=
200906141000 METAR MRPV NIL=
200906141100 METAR MRPV NIL=
200906141200 METAR MRPV 141200Z 15003KT 9999 -RA SCT120 OVC250 18/17 A2998=
200906141300 METAR MRPV 141300Z 27004KT 9999 FEW002 SCT120 BKN250 20/18 A3003 RERA=
200906141400 METAR MRPV 141400Z 26004KT 9999 FEW002 SCT120 BKN250 21/18 A3005=
200906141500 METAR MRPV 141500Z VRB02KT CAVOK 23/18 A3006 RMK SCT120 SCT250=
200906141600 METAR MRPV 141600Z 29006KT 9999 FEW025 SCT250 24/17 A3005=
200906141700 METAR MRPV 141700Z 27010KT 9999 SCT025 SCT250 25/17 A3005=
200906141800 METAR MRPV 141800Z 29010KT 9999 SCT025 SCT250 25/17 A3002 RMK TCU DST W NW=
200906141900 METAR MRPV 141900Z 27010KT 9999 FEW015TCU SCT025 26/19 A3001=
200906142000 METAR MRPV NIL=
200906142100 METAR MRPV 142100Z 27011KT 9999 SCT010TCU SCT025 25/20 A2998 CB/RN NW W=
200906142200 METAR MRPV 142200Z 28010KT 5000 BR SCT002 BKN012 22/20 A2998 ST MOVIENDOSE DE W A E MAX/ WIND 15KT CB RN W=
200906142300 METAR MRPV 142300Z 29010KT 5000 2000NW BR VCSH FEW002 FEW006 BKN015 21/19 A3000=
200906150000 METAR MRPV NIL=
200906150100 METAR MRPV NIL=
200906150200 METAR MRPV NIL=
200906150300 METAR MRPV NIL=
200906150400 METAR MRPV NIL=
200906150500 METAR MRPV NIL=
200906150600 METAR MRPV NIL=
200906150700 METAR MRPV NIL=
200906150800 METAR MRPV NIL=
200906150900 METAR MRPV NIL=
200906151000 METAR MRPV NIL=
200906151100 METAR MRPV NIL=
200906151200 METAR MRPV 151200Z 00000KT 7000 VCFG FEW005 BKN015 18/17 A3006 RMK DUST APCH RNY 09=
200906151300 METAR MRPV 151300Z 14002KT 9999 VCFG FEW007 SCT015 20/18 A3006 VSBY E SE 6KM SCT120=
200906151400 METAR MRPV 151400Z 10008KT 9999 VCFG FEW008 BKN090 20/17 A3006 DU PIST 09 VSBY W 7KM=
200906151500 METAR MRPV 151500Z 11002KT CAVOK 22/18 A3002 SCT120 BKN250 DU PIST 09=
200906151600 METAR MRPV 151600Z 24003KT 9999 FEW030 SCT120 BKN250 25/18 A3005 CB/DU W=
200906151700 METAR MRPV 151700Z 29009KT 9999 SCT030 BKN250 2518 A3003=
200906151800 METAR MRPV 151800Z 29008KT 9999 SCT025 BKN250 25/18 A3001=
200906151900 METAR MRPV 151900Z 27010KT 9999 FEW012 SCT025 BKN250 24/19 A3000 MAX=
200906152000 METAR MRPV 152000Z 28009KT 9999 FEW010 SCT025 BKN250 24/20 A2998=
200906152100 METAR MRPV 152100Z 27009KT 9999 3000W VCSH FEW010 SCT020 BKN100 23/20 A2997=
200906152200 METAR MRPV 152200Z 29008KT 2000 -RA BR SCT006 BKN010 20/19 A2998=
200906152300 METAR MRPV 152300Z 30004KT 3000 BR SCT008 BKN012 20/19 A2997 RERA=
200906160000 METAR MRPV NIL=
200906160100 METAR MRPV NIL=
200906160200 METAR MRPV NIL=
200906160300 METAR MRPV NIL=
200906160400 METAR MRPV NIL=
200906160500 METAR MRPV NIL=
200906160600 METAR MRPV NIL=
200906160700 METAR MRPV NIL=
200906160800 METAR MRPV NIL=
200906160900 METAR MRPV NIL=
200906161000 METAR MRPV NIL=
200906161100 METAR MRPV NIL=
200906161200 METAR MRPV 161200Z 10002KT CAVOK 20/19 A3000 RMK POLVO APROXIMACION SCT250 HZ LGT ARND=
200906161300 METAR MRPV 161300Z 09005KT CAVOK 22/19 A3001 RMK TRACE ST CU SCT250 HZ ARND DU APROXIMACION 09=
200906161400 METAR MRPV 161400Z 00000KT CAVOK 25/18 A3002 RMK TRACE CU SCT250 VIS N 8000 DUE HZ DU APROXIMACION 09=
200906161500 METAR MRPV 161500Z 27005KT 9999 SCT030 SCT250 24/20 A3002 RMK HZ LEVE ARND DU W=
200906161600 METAR MRPV 161600Z 28006KT 9999 SCT030 SCT250 24/20 A3001 RMK DU W=
200906161700 METAR MRPV NIL=
200906161800 METAR MRPV 161800Z 28010KT 9999 BKN030 26/20 A2998=
200906161900 METAR MRPV 161900Z 29011KT 9999 VCTS VCSH SCT015CB BKN030 26/20 A2997 RMK VIS E 8000MTS DUE CB TSTM=
200906162000 METAR MRPV 162000Z 27008KT 9999 VCSH FEW010CB SCT025 BKN100 26/20 A2995 RMK VIS BE E 7000 DUE RASH=
200906162100 METAR MRPV 162100Z 07003KT 9999 SCT010TCU BKN020 23/17 A2995 RMK RASH N NE E SE S=
200906162200 METAR MRPV 162200Z 13002KT 9999 FEW008 SCT020 BKN100 23/20 A2995=
200906162300 METAR MRPV 162300Z 31003KT 6000 SCT004 BKN010 22/20 A2996=
200906170000 METAR MRPV NIL=
200906170100 METAR MRPV NIL=
200906170200 METAR MRPV NIL=
200906170300 METAR MRPV NIL=
200906170400 METAR MRPV NIL=
200906170500 METAR MRPV NIL=
200906170600 METAR MRPV NIL=
200906170700 METAR MRPV NIL=
200906170800 METAR MRPV NIL=
200906170900 METAR MRPV NIL=
200906171000 METAR MRPV NIL=
200906171100 METAR MRPV NIL=
200906171200 METAR MRPV 171200Z 12005KT 9999 FEW025 BKN250 21/17 A2997 DU PIST 09 HZY CB DST S=
200906171300 METAR MRPV 171300Z 13004KT 9999 FEW025 BKN250 23/18 A2998 RMK CB DST NW HZ W=
200906171400 METAR MRPV 171400Z 09008KT 9999 FEW030 BKN250 23/18 A2999 RMK VL VTO 14KT DU 09=
200906171500 METAR MRPV 171500Z 09010KT 9999 FEW030 SCT150 24/18 A2999 RMK DU 09=
200906171600 METAR MRPV 171600Z 07011KT 9999 FEW030 SCT250 26/18 A2998 RMK DU 09=
200906171700 METAR MRPV 171700Z 08012KT 9999 SCT030 SCT150 27/18 A2998=
200906171800 METAR MRPV 171800Z 08010KT 9999 FEW020TCU SCT035 27/19 A2996 RMK RN N E TCU ARND=
200906171900 METAR MRPV 171900Z 07009KT 9999 SCT020 BKN035 26/18 A2994 RMK RASH DST W NW=
200906172000 METAR MRPV 172000Z 27002KT 9999 SCT020TCU BKN030 25/21 A2993 RMK VIS N 5000 DUE ST RN=
200906172100 METAR MRPV 172100Z 26005KT 7000 3000SW VCFG BR FEW005 SCT010 BKN020 24/21 A2992=
200906172200 METAR MRPV 172200Z 30006KT 8000 3000N VCTS VCSH SCT006CB SCT010 BKN015 23/20 A2992=
200906172300 METAR MRPV 172300Z 00000KT 7000 3000W -RA VCFG SCT005 BKN020 21/20 A2993=
200906180000 METAR MRPV NIL=
200906180100 METAR MRPV NIL=
200906180200 METAR MRPV NIL=
200906180300 METAR MRPV NIL=
200906180400 METAR MRPV NIL=
200906180500 METAR MRPV NIL=
200906180600 METAR MRPV NIL=
200906180700 METAR MRPV NIL=
200906180800 METAR MRPV NIL=
200906180900 METAR MRPV NIL=
200906181000 METAR MRPV NIL=
200906181100 METAR MRPV NIL=
200906181200 METAR MRPV 181200Z 13005KT CAVOK 21/16 A2993 RMK TRACE SC AC BKN250 DU AROX IMACION 09 TCU DST S SW=
200906181300 METAR MRPV 181300Z 12007KT CAVOK 22/17 A2994 RMK TRACE SC AC BKN250 TCU DST SW VEL MAX VTO 12KT=
200906181400 METAR MRPV 181400Z 08010KT CAVOK 24/17 A2995 RMK TRACE CU TCU DST SW BKN250=
200906181500 METAR MRPV 181500Z 09009KT 9999 FEW035 BKN250 25/17 A2998 RMK TRACE CC TCU DST SW DUST NEAR APCH RNY 09=
200906181600 METAR MRPV 181600Z 07014KT 9999 SCT030 BKN250 26/17 A2997 DUST IN RNY 09 CB DST SW=
200906181700 METAR MRPV 181700Z 07008KT 9999 SCT030 BKN250 27/18 A2996 RMK CB DST SW TCU DST NW=
200906181800 METAR MRPV 181800Z 09006KT 9999 SCT030 BKN250 29/17 A2994 CB DST SW NE TCU NE PCPN DST NE NW=
200906181900 METAR MRPV 181900Z 28010KT 9999 SCT020TCU BKN250 25/20 A2991 CB W NW SW PCPN NE NW=
200906182000 METAR MRPV 182000Z 28010KT 9999 SCT020TCU BKN250 23/20 A2990 TS DST N CB DST SW W NW RN NE NW=
200906182100 METAR MRPV 182100Z 29010KT 9999 VCSH FEW004 BKN030 22/19 A2991 RMK TS DST SW VIS 5000SE=
200906182200 METAR MRPV 182200Z 29008KT 8000 VCFG SCT002 BKN015 21/19 A2992 RMK ST MOVIENDOSE W A E=
200906182300 METAR MRPV 182300Z 25004KT 5000 BR SCT001 BKN012 21/19 A2993 RMK ST MOVIEND OSE W AL E=
200906190000 METAR MRPV NIL=
200906190100 METAR MRPV NIL=
200906190200 METAR MRPV NIL=
200906190300 METAR MRPV NIL=
200906190400 METAR MRPV NIL=
200906190500 METAR MRPV NIL=
200906190600 METAR MRPV NIL=
200906190700 METAR MRPV NIL=
200906190800 METAR MRPV NIL=
200906190900 METAR MRPV NIL=
200906191000 METAR MRPV NIL=
200906191100 METAR MRPV NIL=
200906191200 METAR MRPV 191200Z 12007KT CAVOK 20/16 A2993 RMK TRECE SC BKN250 CB SW=
200906191300 METAR MRPV 191300Z 11009KT CAVOK 22/17 A2995 RMK TRACE CU BKN250=
200906191400 METAR MRPV 191400Z 10012G22KT CAVOK 24/17 A2995 RMK TRACE CU BKN250=
200906191500 METAR MRPV 191500Z 09014KT 9999 FEW030 BKN250 25/18 A2996 RMK POLVO APROXIMACION PISTA 09=
200906191600 METAR MRPV 191600Z 08010KT 9999 FEW030 BKN250 26/17 A2996 RMK POLVO APROXIMACION PISTA 09=
200906191700 METAR MRPV 191700Z 25004KT 9999 FEW025 BKN250 28/17 A2994 RMK POLVO APROXIMACION PISTA 09 TCU DST N NE=
200906191800 METAR MRPV 191800Z 30010KT 9999 FEW015CB FEW030 25/20 A2994 RMK DU PISTA 09 RN N NE=
200906191900 METAR MRPV 191900Z 26006KT 9999 FEW012TCU SCT030 25/20 A2992 RMK RERA VEL MAX WIND 11 KTS DU PISTA 09=
200906192000 METAR MRPV 192000Z 27008KT 9999 4000NE -RA VCTS FEW010CB BKN030 24/20 A2989=
200906192100 METAR MRPV 192100Z 28012KT 5000 TS VCSH SCT008CB BKN015 24/21 A2988 RAQSH E RERA=
200906192200 METAR MRPV 192200Z VRB02KT 5000 2000N -TSRA VCSH FEW004CB BKN018 19/18 A2991=
200906192300 METAR MRPV 192300Z 00000KT 5000 2000N RA VCSH FEW002 SCT020 OVC080 19/18 A2993 TS DST W=
200906200000 METAR MRPV 200000Z NIL=
200906200100 METAR MRPV NIL=
200906200200 METAR MRPV NIL=
200906200300 METAR MRPV NIL=
200906200400 METAR MRPV NIL=
200906200500 METAR MRPV NIL=
200906200600 METAR MRPV NIL=
200906200700 METAR MRPV NIL=
200906200800 METAR MRPV NIL=
200906200900 METAR MRPV NIL=
200906201000 METAR MRPV NIL=
200906201100 METAR MRPV NIL=
200906201200 METAR MRPV 201200Z 13006KT CAVOK 21/16 A2994 RMK SCT120 BKN250=
200906201300 METAR MRPV 201300Z 11008KT CAVOK 23/16 A2995 RMK SCT120 BKN250=
200906201400 METAR MRPV 201400Z 09008KT CAVOK 25/17 A2995 FEW120 BKN250 CB SW=
200906201500 METAR MRPV 201500Z 29004KT CAVOK 25/18 A2997 FEW120BKN250 CB SW DU APROX/ 09=
200906201600 METAR MRPV 201600Z 28008KT 9999 FEW030 SCT120 BKN250 25/18 A2997 CB SW DU PIST 09=
200906201700 METAR MRPV 201700Z 29010KT 9999 FEW025 SCT120 BKN250 25/20 A2998 CB SW TCU NE MAX/ WIND 15KT=
200906201800 METAR MRPV 201800Z 29010KT 9999 FEW010CB BKN030 25/20 A2997=
200906201900 METAR MRPV 201900Z 25008KT 9999 2000NE VCSH FEW010CB BKN030 24/19 A2996 RN S TS DST NE=
200906202000 METAR MRPV 202000Z VRB02KT 6000 2000N -TSRA VCSH FEW008CB BKN025 21/19 A2994=
200906202100 METAR MRPV 202100Z 29004KT 5000 BR SCT007 BKN015 22/20 A2993 RETS=
200906202200 METAR MRPV 202200Z 26004KT 4000 RA BR SCT001 BKN012 21/20 A2993 RMK CAMPO BAJO MINIMOS=
200906202300 METAR MRPV 202300Z 00000KT 3000 -RA BR SCT001 BKN010 21/20 A2994 RMK CAMPO BAJO MINIMOS=
200906210000 METAR MRPV NIL=
200906210100 METAR MRPV NIL=
200906210200 METAR MRPV NIL=
200906210300 METAR MRPV NIL=
200906210400 METAR MRPV NIL=
200906210500 METAR MRPV NIL=
200906210600 METAR MRPV NIL=
200906210700 METAR MRPV NIL=
200906210800 METAR MRPV NIL=
200906210900 METAR MRPV NIL=
200906211000 METAR MRPV NIL=
200906211100 METAR MRPV NIL=
200906211200 METAR MRPV 211200Z 11006KT CAVOK 20/16 A2997 RMK BKN250 TRACE SC AC TCU DST SW W=
200906211300 METAR MRPV 211300Z 10010KT CAVOK 23/16 A2997 RMK TRACE SC BKN250=
200906211400 METAR MRPV 211400Z 09013KT 9999 FEW030 BKN250 24/18 A2999=
200906211500 METAR MRPV 211500Z 10007KT 9999 SCT030 BKN250 24/18 A2999=
200906211600 METAR MRPV 211600Z 08012KT 9999 SCT030 SCT250 26/18 A2999=
200906211700 METAR MRPV 211700Z 07012KT 9999 SCT030 SCT250 27/18 A2998=
200906211800 METAR MRPV 211800Z 09010KT 9999 SCT030 28/18 A2996=
200906211900 METAR MRPV 211900Z 09012KT 9999 FEW020TCU SCT035 27/19 A2994=
200906212000 METAR MRPV 212000Z 08014KT 9999 VCTS VCSH SCT010TCU BKN020 26/18 A2991 RMK VIS N NW 5000MTS DUE TSTM=
200906212100 METAR MRPV 212100Z 25002KT 9999 3000W -RABR VCTS SCT010 BKN020 20/18 A2993=
200906212200 METAR MRPV 212200Z 00000KT 9999 SCT030 OVC100 21/19 A2992 RERA RMK RASH E SE=
200906212300 METAR MRPV 212300Z 00000KT 9999 -RA SCT030 OVC100 21/19 A2993 RMK RASH DST E SE=
200906220000 METAR MRPV NIL=
200906220100 METAR MRPV NIL=
200906220200 METAR MRPV NIL=
200906220300 METAR MRPV NIL=
200906220400 METAR MRPV NIL=
200906220500 METAR MRPV NIL=
200906220600 METAR MRPV NIL=
200906220700 METAR MRPV NIL=
200906220800 METAR MRPV NIL=
200906220900 METAR MRPV NIL=
200906221000 METAR MRPV NIL=
200906221100 METAR MRPV NIL=
200906221200 METAR MRPV 221200Z 10003KT CAVOK 18/15 A2996 TRAZAS SCT SCT250=
200906221300 METAR MRPV 221300Z 10003KT CAVOK 21/16 A2998 RMK TRACE SC SCT250=
200906221400 METAR MRPV 221400Z 00000KT CAVOK 25/16 A2999 RMK SCT250 TRACE SC=
200906221500 METAR MRPV 221500Z 00000KT CAVOK 26/15 A2999 RMK TRACE CU SC SCT250 DU09=
200906221600 METAR MRPV 221600Z 23004KT CAVOK 27/18 A2999 RMK TRACE SC CU DU09 SCT250=
200906221700 METAR MRPV 221700Z 28008KT 9999 SCT035 BKN250 27/18 A2998 RMK DU 09=
200906221800 METAR MRPV 221800Z 28008KT 9999 SCT035 BKN250 27/18 A2998 RMK DU 09=
200906221900 METAR MRPV 221900Z 28010KT 9999 SCT030 BKN250 27/16 A2994=
200906222000 METAR MRPV 222000Z 28010KT 9999 SCT030 BKN120 27/19 A2991=
200906222100 METAR MRPV 222100Z 28007KT 9999 FEW020 SCT035 BKN120 26/20 A2991 TS RASH DST SE S=
200906222200 METAR MRPV 222200Z 26004KT 9999 4000S VCTS VCSH SCT005CB SCT020 OVC100 25/21 A2991=
200906222300 METAR MRPV 222300Z 13005KT 2000 +TSRA SCT005CB OVC010 20/18 A2994 RMK VIS W 8KMS=
200906230000 METAR MRPV 230000Z NIL=
200906230100 METAR MRPV NIL=
200906230200 METAR MRPV NIL=
200906230300 METAR MRPV NIL=
200906230400 METAR MRPV NIL=
200906230500 METAR MRPV NIL=
200906230600 METAR MRPV NIL=
200906230700 METAR MRPV NIL=
200906230800 METAR MRPV NIL=
200906230900 METAR MRPV NIL=
200906231000 METAR MRPV NIL=
200906231100 METAR MRPV NIL=
200906231200 METAR MRPV 231200Z 00000KT CAVOK 18/17 A2997 RMK FEW120 BKN250 HZ ARND DU APROXIMACION 09=
200906231300 METAR MRPV 231300Z 08005KT CAVOK 21/17 A2998 RMK TRACE SC AC BKN250 LGT HZ ARND DUST NEAR APCH RNY 09=
200906231400 METAR MRPV 231400Z 00000KT CAVOK 24/17 A2999 TRACE CU SCT250 LGT HZ ARND DUST APCH RNY 09=
200906231500 METAR MRPV 231500Z 08004KT CAVOK 26/17 A3000 RMK SCT250 TRACE CU LGT HZ ARND DUST W=
200906231600 METAR MRPV 231600Z 28008KT 9999 FEW030 SCT250 26/19 A2999 RMK HZ LGT ARND=
200906231700 METAR MRPV 231700Z 28009KT 9999 FEW020 SCT035 25/19 A2999 RMK VIS N 6KMS DUE HZ=
200906231800 METAR MRPV 231800Z 28008KT 9999 SCT020TCU BKN030 24/20 A2998 HZY=
200906231900 METAR MRPV NIL=
200906231901 METAR MRPV 231901Z 29006KT 9999 SCT020 BKN030 26/20 A2995 HZY RN DST N NE E=
200906232000 METAR MRPV 232000Z 28010KT 9999 SCT020TCU BKN030 26/20 A2993 RMK TS DST W NW=
200906232100 METAR MRPV 232100Z 27010KT 2000 TSRA SCT006CB SCT010 BKN020 21/20 A2993=
200906232200 METAR MRPV 232200Z 28009KT 2000 -RA BR BKN003 OVC010 21/20 A2995=
200906232300 METAR MRPV 232300Z 27003KT 1000 BR BKN002 OVC010 20/20 A2995 RERA=
200906240000 METAR MRPV NIL=
200906240100 METAR MRPV NIL=
200906240200 METAR MRPV NIL=
200906240300 METAR MRPV NIL=
200906240400 METAR MRPV NIL=
200906240500 METAR MRPV NIL=
200906240600 METAR MRPV NIL=
200906240700 METAR MRPV NIL=
200906240800 METAR MRPV NIL=
200906240900 METAR MRPV NIL=
200906241000 METAR MRPV NIL=
200906241100 METAR MRPV NIL=
200906241200 METAR MRPV 241200Z 00000KT CAVOK 19/18 A3000 RMK TRACE SC SCT120 SCT250 DU09 HZ FG DST W=
200906241300 METAR MRPV 241300Z 00000KT CAVOK 22/19 A3000 RMK TRACE CU SC FEW120 BKN250 POLVO APROXIMACION PISTA 09 HZ W=
200906241400 METAR MRPV 241400Z 29002KT 9999 FEW030 BKN250 23/18 A3002 RMK POLVO APROXIMACION PISTA 09 HZ W=
200906241500 METAR MRPV 241500Z 27004KT 9999 SCT020 BKN250 24/19 A3002 POLVO APROXIMACION PISTA 09 HZ ARND=
200906241600 METAR MRPV 241600Z 27006KT 9999 SCT020 BKN250 23/20 A3001 RMK POLVO APROXIMACIO PISTA 09 HZ ARND=
200906241700 METAR MRPV 241700Z 28008KT 9999 SCT012 BKN250 24/20 A3000 RMK TCU S POLVO APROXIMACION PISTA 09 HZ ARND=
200906241800 METAR MRPV 241800Z 28010KT 8000 VCFG SCT004 BKN030 24/20 A2998 RMK POLVO APROXIMACION PISTA 09 TCU DST SE=
200906241900 METAR MRPV 241900Z 27009KT 8000 VCFG VCTS SCT008CB BKN025 24/19 A2997=
200906242000 METAR MRPV 242000Z 25004KT 8000 -RA VCTS FEW010CB BKN025 23/20 A2994=
200906242100 METAR MRPV 242100Z 29007KT 7000 3000N -RA VCFG SCT004 BKN020 22/20 A2994=
200906242200 METAR MRPV 242200Z 28006KT 5000 -RA BR SCT002 BKN015 21/18 A2995=
200906242300 METAR MRPV 242300Z 04004KT 2000 RA BR SCT001 BKN010 20/18 A3000=
200906250000 METAR MRPV 250000Z NIL=
200906250100 METAR MRPV NIL=
200906250200 METAR MRPV NIL=
200906250300 METAR MRPV NIL=
200906250400 METAR MRPV NIL=
200906250500 METAR MRPV NIL=
200906250600 METAR MRPV NIL=
200906250700 METAR MRPV NIL=
200906250800 METAR MRPV NIL=
200906250900 METAR MRPV NIL=
200906251000 METAR MRPV NIL=
200906251100 METAR MRPV NIL=
200906251200 METAR MRPV 251200Z 10002KT CAVOK 18/16 A3000 RMK TRACE SC AC SCT250 CB DST SW=
200906251300 METAR MRPV 251300Z 06003KT CAVOK 21/17 A3000 TRACE SCT/CI BKN120 DU PISTA 09=
200906251400 METAR MRPV 251400Z 00000KT CAVOK 21/17 A3002 TRAZAS SCT/ST/CI BKN120 DU PIST 09=
200906251500 METAR MRPV 251500Z 25004KT 9999 FEW030 BKN120 24/17 A3002 DU PIST 09=
200906251600 METAR MRPV 251600Z 27005KT 9999 FEW030 SCT120 25/18 A3001 DU PISTA 09=
200906251700 METAR MRPV 251700Z 27007KT 9999 SCT025 SCT120 24/20 A3001 TCU SW N NE MAX/ WIND 12KT=
200906251800 METAR MRPV 251800Z 27010KT 9999 VCSH SCT015TCU SCT030 25/18 A2999 VSBY NE 5KM=
200906251900 METAR MRPV 251900Z 28005KT 9999 FEW015TCU SCT030 26/19 A2997 CB SW=
200906252000 METAR MRPV 252000Z 27010KT 9999 SCT012TCU SCT030 25/20 A2995 CB SW=
200906252100 METAR MRPV 252100Z 26010KT 5000 -RA BR SCT002 BKN015 23/20 A2993 RMK ST LOW MOVIENDOSE DE W A E=
200906252200 METAR MRPV 252200Z 31005KT 5000 -RA BR SCT004 BKN018 23/20 A2994=
200906252300 METAR MRPV 252300Z 30004KT 6000 VCFG SCT002 BKN020 22/20 A2995 ST MOVIENDOSE DE W A E=
200906260000 METAR MRPV NIL=
200906260100 METAR MRPV NIL=
200906260200 METAR MRPV NIL=
200906260300 METAR MRPV NIL=
200906260400 METAR MRPV NIL=
200906260500 METAR MRPV NIL=
200906260600 METAR MRPV NIL=
200906260700 METAR MRPV NIL=
200906260800 METAR MRPV NIL=
200906260900 METAR MRPV NIL=
200906261000 METAR MRPV NIL=
200906261100 METAR MRPV NIL=
200906261200 METAR MRPV 261200Z 12007KT CAVOK 20/17 A2997 RMK TRACE SC SCT100 SCT250 CB DST S SW W=
200906261300 METAR MRPV 261300Z 00000KT CAVOK 21/18 A2999 RMK TRACE SC AC BKN250 TCU SW W DU APROXIMACION 09=
200906261400 METAR MRPV 261400Z 12005KT CAVOK 23/18 A2999 RMK TRACE SC BKN250 CB DST SW=
200906261500 METAR MRPV 261500Z 09004KT CAVOK 24/18 A3000 RMK TRACE SC CU BKN250 DU APROX IMACION 09=
200906261600 METAR MRPV 261600Z 21002KT 9999 FEW035 BKN250 27/18 A2999 RMK DU APROXIMACIO N 09=
200906261700 METAR MRPV 261700Z 26006KT 9999 SCT035 BKN250 26/20 A2998 RMK TCU DST SW=
200906261800 METAR MRPV 261800Z 28010KT 9999 FEW015TCU SCT025 BKN250 26/21 A2997 RMK HZ N=
200906261900 METAR MRPV 261900Z 28010KT 9999 FEW012CB SCT025 BKN250 25/21 A2996 RMK HZ CUADRANTE N RN TS NE=
200906262000 METAR MRPV 262000Z 28010KT 9999 FEW010CB SCT025 BKN250 24/21 A2994 RMK TS NE=
200906262100 METAR MRPV 262100Z 27007KT 8000 VCFG SCT004 SCT025 BKN250 25/21 A2994 RMK CB SW W=
200906262200 METAR MRPV 262200Z 28008KT 8000 SCT002 SCT025 BKN250 24/21 A2994 RMK TCU N W=
200906262300 METAR MRPV 262300Z 27005KT 4000 BR SCT001 BKN012 23/21 A2994=
200906270000 METAR MRPV NIL=
200906270100 METAR MRPV NIL=
200906270200 METAR MRPV NIL=
200906270300 METAR MRPV NIL=
200906270400 METAR MRPV NIL=
200906270500 METAR MRPV NIL=
200906270600 METAR MRPV NIL=
200906270700 METAR MRPV NIL=
200906270800 METAR MRPV NIL=
200906270900 METAR MRPV NIL=
200906271000 METAR MRPV NIL=
200906271100 METAR MRPV NIL=
200906271200 METAR MRPV 271200Z 11005KT ACAVOK21/17 A2007 TRAZAS SCT BKN250=
200906271300 METAR MRPV 271300Z 13004KT CAVOK 21/17 A2999 RMK TRCE SC AC BKN250=
200906271400 METAR MRPV 271400Z 12005KT CAVOK 23/17 A3000 RMK TRACE SC BKN250=
200906271500 METAR MRPV 271500Z 06003KT CAVOK 25/18 A3000 RMK TRACE SC SCT120 BKN250=
200906271600 METAR MRPV 271600Z 28008KT 9999 FEW030 BKN250 25/16 A3000=
200906271700 METAR MRPV 271700Z 28006KT 9999 SCT030 BKN250 26/19 A2998=
200906271800 METAR MRPV 271800Z 28008KT 9999 SCT030 BKN250 26/20 A2998 RMK TCU SCT ARND RN E=
200906271900 METAR MRPV 271900Z 28009KT 9999 4000N -TSRA FEW012CB SCT030 BKN120 24/20 A2997=
200906272000 METAR MRPV 272000Z 29007KT 9999 VCSH SCT015 SCT020TCU BKN100 23/22 A2996=
200906272100 METAR MRPV 272100Z 28008KT 9999 2000E TSRA SCT006 SCT012CB BKN100 24/21 A2994=
200906272200 METAR MRPV 272200Z 30006KT 9999 4000N VCFG SCT010 SCT020 OVC100 22/20 A2995=
200906272300 METAR MRPV 272300Z 00000KT 9999 VCFG SCT005 SCT015 OVC100 21/20 A2996 VIS N 5KMS=
200906272345 METAR MRPV 272345Z 30004KT 5000 VCFG BR SCT005 SCT010 OVC100 21/19 A2998 VIS SW 3KMS=
200906280000 METAR MRPV NIL=
200906280100 METAR MRPV NIL=
200906280200 METAR MRPV NIL=
200906280300 METAR MRPV NIL=
200906280400 METAR MRPV NIL=
200906280500 METAR MRPV NIL=
200906280600 METAR MRPV NIL=
200906280700 METAR MRPV NIL=
200906280800 METAR MRPV NIL=
200906280900 METAR MRPV NIL=
200906281000 METAR MRPV NIL=
200906281100 METAR MRPV NIL=
200906281200 METAR MRPV 281200Z 12007KT CAVOK 20/16 A2996 RMK TRACE SC SCT250=
200906281300 METAR MRPV 281300Z 12008KT CAVOK 22/17 A2997 RMK TRACE SC SCT250=
200906281400 METAR MRPV 281400Z 14006KT CAVOK 24/17 A2999 RMK TRACE SC SCT250=
200906281500 METAR MRPV 281500Z 11003KT CAVOK 26/17 A3001 RMK TRACE CU SC BKN250=
200906281600 METAR MRPV 281600Z 29008KT 9999 FEW030 BKN250 25/19 A3000=
200906281700 METAR MRPV 281700Z 29008KT 9999 SCT030 25/19 A3000=
200906281800 METAR MRPV 281800Z 29011KT 9999 FEW020TCU BKN035 26/19 A2999 TCU ARND=
200906281900 METAR MRPV 281900Z 28010KT 9999 VCTS VCSH SCT020CB BKN030 25/19 A2998 RMK VIS N E 6KMS=
200906282000 METAR MRPV 282000Z 26004KT 9999 FEW010 SCT020CB BKN035 24/20 A2997 RMK RASH E NE=
200906282100 METAR MRPV 282100Z 00000KT 3000 -TSRA SCT006 SCT010CB OVC100 21/18 A2996 RMK VIS 8000W=
200906282200 METAR MRPV 282200Z 00000KT 9999 SCT012 BKN030 21/20 A2997=
200906282300 METAR MRPV 282300Z 00000KT 7000 3000E VCTS VCSH FEW012CB SCT020 OVC100 21/19 A2999 RMK SHRA N NE E SE=
200906290000 METAR MRPV NIL=
200906290100 METAR MRPV NIL=
200906290200 METAR MRPV NIL=
200906290300 METAR MRPV NIL=
200906290400 METAR MRPV NIL=
200906290500 METAR MRPV NIL=
200906290600 METAR MRPV NIL=
200906290700 METAR MRPV NIL=
200906290800 METAR MRPV NIL=
200906290900 METAR MRPV NIL=
200906291000 METAR MRPV NIL=
200906291100 METAR MRPV NIL=
200906291200 METAR MRPV 291200Z 00000KT 9999 3000W BR FEW002 BKN120 18/17 A2997 RMK TRACE SC=
200906291300 METAR MRPV 291300Z 00000KT CAVOK 20/18 A2999 RMK TRACE SC OVC120 POLVO APROXIMACION PISTA 09=
200906291400 METAR MRPV 291400Z 00000KT CAVOK 21/18 A3000 RMK TRACE ST CU BKN120 SCT250 POLVO APROXIMACION PISTA 09=
200906291500 METAR MRPV 291500Z 00000KT CAVOK 24/18 A2999 RMK TRACE CU ST SCT140 BKN250 POLVO APROXIMACION PISTA 09=
200906291600 METAR MRPV 291600Z 00000KT CAVOK 26/16 A2997 RMK TRACE CU SC BKN250 POLVO APROXIMACION PISTA 09=
200906291700 METAR MRPV 291700Z 08008KT 9999 FEW030 BKN250 28/28 A2995 RMK POLVO APROXIMACION PISTA 09 VEL.MAX.VTO 13KT=
200906291800 METAR MRPV 291800Z 26006KT 9999 SCT030 SCT250 28/20 A2994=
200906291900 METAR MRPV 291900Z 28009KT 9999 FEW020 SCT035 27/20 A2993 RMK TCU ARND RN N=
200906292000 METAR MRPV 292000Z 28007KT 9999 4000E -RA VCTS VCSH SCT015CB BKN030 24/20 A2992 RMK TS SH E TO W=
200906292100 METAR MRPV 292100Z 00000KT 9999 4000S TS VCSH SCT010CB BKN020 24/20 A2991 RERA=
200906292200 METAR MRPV 292200Z 11004KT 9999 -RA SCT015 BKN030 22/19 A2991 TS DST SE S=
200906292300 METAR MRPV 292300Z 24003KT 9999 +RA SCT012 OVC100 21/19 A2992 TS W=
200906300000 METAR MRPV 300000Z NIL=
200906300100 METAR MRPV NIL=
200906300200 METAR MRPV NIL=
200906300300 METAR MRPV NIL=
200906300400 METAR MRPV NIL=
200906300500 METAR MRPV NIL=
200906300600 METAR MRPV NIL=
200906300700 METAR MRPV NIL=
200906300800 METAR MRPV NIL=
200906300900 METAR MRPV NIL=
200906301000 METAR MRPV NIL=
200906301100 METAR MRPV NIL=
200906301200 METAR MRPV 301200Z 00000KT CAVOK 18/16 A2995 RMK BKN120 SCT250 DUST IN APCH RNY 09 CB DST SW=
200906301300 METAR MRPV 301300Z 00000KT CAVOK 20/17 A2997 FEW140 BKN250 DU PISTA 09=
200906301400 METAR MRPV 301400Z 00000KT CAVOK 25/17 A2997 TRAZAS SCT BKN250 CB SW DU PIST 09 HZ W=
200906301500 METAR MRPV 301500Z 27006KT 9999 FEW030 BKN250 24/18 A2997 DU PISTA 09 HZ N CB DST SW=
200906301600 METAR MRPV 301600Z 28006KT 9999 FEW030 BKN250 24/19 A2997 H N DU PISTA 09 CB SW=
200906301700 METAR MRPV 301700Z 29008KT 9999 FEW030 BKN250 24/20 A2997 HZ N DU PISTA 09=
200906301800 METAR MRPV 301800Z 29008KT 9999 FEW030TCU BKN250 24/20 A2996 HZ N=
200906301900 METAR MRPV 301900Z 28006KT 9999 FEW025TCU BKN250 25/19 A2993 HZ N=
200906302000 METAR MRPV 302000Z 28006KT 9999 SCT015TCU BKN250 25/19 A2990=
200906302100 METAR MRPV NIL=
200906302200 METAR MRPV 302200Z 25008KT 4000 -RA BR SCT002 BKN012 22/21 A2988 RMK TS NE ST MOVIENDOSE DE W A E=
200906302300 METAR MRPV NIL=
200907010000 METAR MRPV NIL=
200907010100 METAR MRPV NIL=
200907010200 METAR MRPV NIL=
200907010300 METAR MRPV NIL=
200907010400 METAR MRPV NIL=
200907010500 METAR MRPV NIL=
200907010600 METAR MRPV NIL=
200907010700 METAR MRPV NIL=
200907010800 METAR MRPV NIL=
200907010900 METAR MRPV NIL=
200907011000 METAR MRPV NIL=
200907011200 METAR MRPV NIL=
200907011300 METAR MRPV NIL=
200907011400 METAR MRPV NIL=
200907011500 METAR MRPV 011500Z 30004KT 9999 FEW030 SCT120 BKN250 23/19 A3000 RMK DU APROXIMACION 09=
200907011600 METAR MRPV 011600Z 28004KT 9999 FEW030 BKN250 25/19 3000 RMK TRACE AC NOSIG=
200907011700 METAR MRPV 011700Z 07004KT 9999 FEW020TCU SCT030 BKN250 27/17 A2999=
200907011800 METAR MRPV 011800Z 07006KT 9999 FEW020TCU SCT030 BKN250 27/18 A2995 BECMG 24004KT=
200907011900 METAR MRPV 011900Z 27004KT 9999 SCT015TCU BKN250 27/20 A2993 BECMG 8000 VCSH SCT015CB=
200907012000 METAR MRPV 012000Z 28008KT 9999 4000N VCSH FEW010CB BKN030 25/20 A2991 BECMG 5000 SHRA=
200907012100 METAR MRPV 012100Z 25008KT 6000 2000NW -RA VCSH FEW010CB BKN020 24/20 A2989 BECMG 3000 TS=
200907012200 METAR MRPV 012200Z VRB02KT 4000 -RABR SCT002 BKN012 23/21 A2990 TEMPO 5000 BKN015=
200907012300 METAR MRPV 012300Z 10010KT 8000 3000NW -RA VCSH SCT004 BKN020 22/18 A2989 RMK VL MX VTO 16KT NOSIG=
200907020000 METAR MRPV NIL=
200907020100 METAR MRPV NIL=
200907020200 METAR MRPV NIL=
200907020300 METAR MRPV NIL=
200907020400 METAR MRPV NIL=
200907020500 METAR MRPV NIL=
200907020600 METAR MRPV NIL=
200907020700 METAR MRPV NIL=
200907020800 METAR MRPV NIL=
200907020900 METAR MRPV NIL=
200907021000 METAR MRPV NIL=
200907021100 METAR MRPV NIL=
200907021200 METAR MRPV 021200Z 12006KT 9999 FEW035 BKN120 21/17 A2996 NOSIG=
200907021300 METAR MRPV 021300Z 12007KT 9999 FEW035 SCT120 22/18 A2999 NOSIG=
200907021400 METAR MRPV 021400Z 09012KT 9999 FEW035 23/18 A3001 RMK TRACE AC CI VL MX VTO 18KT TEMPO 09012G22KT=
200907021500 METAR MRPV 021500Z 11008KT 9999 FEW025 25/18 A3001 RMK TRACE AC CI VL MX VTO 13KT NOSIG=
200907021600 METAR MRPV 021600Z 08010KT 9999 SCT025 26/18 A3000 RMK FEWCI PCPN N NE VL MX VTO 15KT=
200907021700 METAR MRPV 021700Z 07010KT 9999 SCT025 SCT250 27/18 A3001 RMK TS DST N RN NE VL MX VTO 15KT NOSIG=
200907021800 METAR MRPV 021800Z 07010G20KT 9999 SCT020 BKN250 24/18 A2999 RMK PCPN NE N W NOSIG=
200907021900 METAR MRPV 021900Z 08012KT 9999 SCT020 BKN250 26/18 A2977 RMK RN N NE VL MX VTO 17KT NOSIG=
200907022000 METAR MRPV 022000Z 33009KT 9999 3000W BR FEW002 BKN025 25/18 A2998 RMK PCPN N NE BECMG -RA=
200907022100 METAR MRPV 022100Z 29006KT 8000 VCFG SCT002 BKN018 23/20 A2995 RMK PCPN N NE TEMPO 5000 BR BKN015=
200907022200 METAR MRPV 022200Z 22004KT 5000 BR SCT002 BKN015 22/20 A2996 RMK PCPN NE BECMG 3000 BR BKN012=
200907022300 METAR MRPV 022300Z VRB02KT 4000 RA BR SCT002 BKN014 21/20 A2998 NOSIG=
200907030000 METAR MRPV NIL=
200907030100 METAR MRPV NIL=
200907030200 METAR MRPV NIL=
200907030300 METAR MRPV NIL=
200907030400 METAR MRPV NIL=
200907030500 METAR MRPV NIL=
200907030600 METAR MRPV NIL=
200907030700 METAR MRPV NIL=
200907030800 METAR MRPV NIL=
200907030900 METAR MRPV NIL=
200907031000 METAR MRPV NIL=
200907031100 METAR MRPV NIL=
200907031200 METAR MRPV 031200Z 11006KT CAVOK 21/16 A3000 RMK TRACE SC CI SCT120 NOSIG=
200907031300 METAR MRPV 031300Z 12008KT CAVOK 22/17 A3001 RMK TRACE CU SC CI SCT120 NOSIG=
200907031400 METAR MRPV 031400Z 11009KT CAVOK 23/17 A3001 RMK TRACE CU SC CI BKN100 VEL MAX VTO 15KT NOSIG=
200907031500 METAR MRPV 031500Z 08012KT 9999 FEW030 BKN120 25/18 A3003 RMK DUST W NOSIG=
200907031600 METAR MRPV 031600Z 09010KT 9999 FEW030 BKN120 26/18 A3001 RMK DUST W=
200907031700 METAR MRPV 031700Z 09010KT 9999 SCT030 BKN120 27/18 A3000 RMK VEL MAX VTO 16KT NOSIG=
200907031800 METAR MRPV 031800Z 07014KT 9999 -RA FEW020 BKN030 24/18 A3000 DUST W RASH NE NOSIG=
200907031900 METAR MRPV 031900Z 08011KT 9999 SCT025 BKN100 25/18 A2999 RERA NOSIG=
200907032000 METAR MRPV 032000Z 05005KT 9999 SCT030 BKN100 25/18 A2997=
200907032100 METAR MRPV 032100Z 08008KT 9999 SCT030 BKN100 22/17 A2997 RMK DZ DST NE NOSIG=
200907032200 METAR MRPV 032200Z 07015KT 9999 SCT030 BKN100 22/18 A2996 NOSIG=
200907032300 METAR MRPV 032300Z 08015KT 9999 SCT030 BKN120 22/17 A2997 NOSIG=
200907040000 METAR MRPV NIL=
200907040100 METAR MRPV NIL=
200907040200 METAR MRPV NIL=
200907040300 METAR MRPV NIL=
200907040400 METAR MRPV NIL=
200907040500 METAR MRPV NIL=
200907040600 METAR MRPV NIL=
200907040700 METAR MRPV NIL=
200907040800 METAR MRPV NIL=
200907040900 METAR MRPV NIL=
200907041000 METAR MRPV NIL=
200907041100 METAR MRPV NIL=
200907041200 METAR MRPV 041200Z 10010KT 9999 SCT025 OVC100 22/17 A2998 NOSIG=
200907041300 METAR MRPV 041300Z 10011KT 9999 SCT020 OVC100 22/17 A3001 RMK DZ DST N NE NOSIG=
200907041400 METAR MRPV 041400Z 08017KT 9999 FEW020 OVC100 22/17 A3002 RMK POLVO APROXIMACION PISTA 09 DZ DST NE NOSIG=
200907041500 METAR MRPV 041500Z 08018KT 9999 FEW025 OVC100 23/16 A3004 RMK VEL.MAX VTO 24KT TEMPO -RA=
200907041600 METAR MRPV 041600Z 09018KT 9999 FEW025 BKN100 23/16 A3004 RMK RN DST NE VEL.MAX.VTO 25KT TEMPO -RA=
200907041700 METAR MRPV 041700Z 09016KT 9999 FEW025 BKN100 24/17 A3003 RMK VEL.MAX. VTO 22KT TEMPO -RA=
200907041800 METAR MRPV 041800Z 07013KT 9999 FEW030 OVC120 24/17 A3001 RMK VEL.MAX.VTO 19KT DZ DST N NE NOSIG=
200907041900 METAR MRPV 041900Z 08014KT 9999 FEW030 OVC120 24/17 A3000 RMK VEL.MAX VTO 20KT DZ DST NE NOSIG=
200907042000 METAR MRPV 042000Z 07015KT 9999 SCT040 OVC120 23/17 A2998 RMK VEL.MAX.VTO 21KT NOSIG=
200907042100 METAR MRPV 042100Z 07015KT 9999 FEW040 OVC120 23/17 A2998 MAX/ WIND 21KT NOSIG=
200907042200 METAR MRPV 042200Z 08012KT 9999 FEW035 OVC120 24/17 A2996 MAX/ WIND 18KT NOSIG=
200907042300 METAR MRPV 042300Z 08012KT 9999 FEW030 BKN120 24/16 A2996 NOSIG=
200907050000 METAR MRPV 050000Z NIL=
200907050100 METAR MRPV NIL=
200907050200 METAR MRPV NIL=
200907050300 METAR MRPV NIL=
200907050400 METAR MRPV NIL=
200907050500 METAR MRPV NIL=
200907050600 METAR MRPV NIL=
200907050700 METAR MRPV NIL=
200907050800 METAR MRPV NIL=
200907050900 METAR MRPV NIL=
200907051000 METAR MRPV NIL=
200907051100 METAR MRPV NIL=
200907051200 METAR MRPV 051200Z 11008KT CAVOK 21/16 A2996 RMK TRACE SC SCT120 BKN250 NOSIG=
200907051300 METAR MRPV 051300Z 100009KT CAVOK 22/17 A2998 RMK TRAZAS SC BKN120 VEL MAX 15KTS NOSIG=
200907051400 METAR MRPV 051400Z 09013KT CAVOK 22/18 A2999 TRAZAS SCT BKN120 BKN120 MAX WIND 18KT NOSIG=
200907051500 METAR MRPV 051500Z 09011KT 9999 FEW030 BKN120 24/18 A3000 NOSIG=
200907051600 METAR MRPV 051600Z 10008KT 9999 SCT035 BKN120 25/18 A3003 NOSIG=
200907051700 METAR MRPV 051700Z 08012KT 9999 SCT0320 BKN120 26/17 A2999 NOSIG=
200907051800 METAR MRPV 051800Z 08009KT 9999 SCT030 BKN100 27/17 A2997 RASH E TEMPO -RA=
200907051900 METAR MRPV 051900Z 08010KT 9999 -RA VCSH FEW020 SCT035 OVC100 23/19 A2996 VSBY E 5KM TEMPO -RA BKN020=
200907052000 METAR MRPV 052000Z 11006KT 9999 3000E RA SCT025 OVC100 22/19 A2996 TEMPO 6000 RA BKN020=
200907052100 METAR MRPV 052100Z 00000KT 6000 2000N -RA SCT010 BKN020 21/19 A2996 BECMG 8000 BKN025=
200907052200 METAR MRPV 052200Z 00000KT 8000 3000NW -RA BR SCT012 BKN025 20/19 A2997 TEMP O 9999 OVC100=
200907052300 METAR MRPV 052300Z 00000KT 9999 FEW040 OVC100 20/19 A2996 RERA NOSIG=
200907060000 METAR MRPV NIL=
200907060100 METAR MRPV NIL=
200907060200 METAR MRPV NIL=
200907060300 METAR MRPV NIL=
200907060400 METAR MRPV NIL=
200907060500 METAR MRPV NIL=
200907060600 METAR MRPV NIL=
200907060700 METAR MRPV NIL=
200907060800 METAR MRPV NIL=
200907060900 METAR MRPV NIL=
200907061000 METAR MRPV NIL=
200907061100 METAR MRPV NIL=
200907061200 METAR MRPV 061200Z 09008KT 9999 NSC 20/16 A2995 RMK TRACE CU CI=
200907061300 METAR MRPV 061300Z 11005KT 9999 NSC 22/17 A2998 RMK TRACE SC CU CI CC TCU DST SW NOSIG=
200907061400 METAR MRPV 061400Z 10005KT CAVOK 23/17 A3000 RMK TRACE SC FEW140 FEW250 CB DST SW NOSIG=
200907061500 METAR MRPV 061500Z 14002KT 9999 FEW030 SCT250 26/16 A3000 RMK TRACE AC CB DST SW DU APROXIMACION PISTA 09 BECMG 24008KT=
200907061600 METAR MRPV 061600Z 29006KT 9999 FEW030 26/18 A3000 RMK FEW120 NOSIG=
200907061700 METAR MRPV 061700Z 27009KT 9999 FEW020TCU SCT035 26/19 A2999 RMK TRACE CI TEMPO BKN025TCU=
200907061800 METAR MRPV 061800Z 30007KT 9999 BKN030 SCT120 25/19 A2998 RMK TCU S SW TEMPO 8000 VCSH BKN025TCU=
200907061900 METAR MRPV 061900Z 26007KT 9999 FEW015CB FEW020TCU BKN030 25720 A2996 TEMPO 7000 RA VCTS SCT010CB=
200907062000 METAR MRPV 062000Z 27007KT 9999 VCSH FEW010CB FEW015TCU BKN030 224/18 A2995 RMK VIS N NE E 8000MTS TEMPO 5000 -TS RA SCT010CB=
200907062100 METAR MRPV 062100Z 28008KT 9999 VCSH FEW010CB SCT030 BKN100 23/20 A2993 RMK VIS NE E 8000 TCU N S TEMPO VCTS SCT010CB=
200907062200 METAR MRPV 062200Z 29006KT 9999 VCSH FEW010CB SCT030 BKN250 23/19 A2992 RMK VIS E SE 8000 NOSIG=
200907062300 METAR MRPV 062300Z 00000KT 9999 VCSH FEW008 SCT020 BKN100 23/18 A2993 RMK VIS NE E 8000 TEMPO -RA=
200907070000 METAR MRPV 070000Z NIL=
200907070100 METAR MRPV NIL=
200907070200 METAR MRPV NIL=
200907070300 METAR MRPV NIL=
200907070400 METAR MRPV NIL=
200907070500 METAR MRPV NIL=
200907070600 METAR MRPV NIL=
200907070700 METAR MRPV NIL=
200907070800 METAR MRPV NIL=
200907070900 METAR MRPV NIL=
200907071000 METAR MRPV NIL=
200907071100 METAR MRPV NIL=
200907071200 METAR MRPV 071200Z 00000KT CAVOK 18/16 A2995 SCT250 CB NE TCU SW DU PIST 09 NOSIG=
200907071300 METAR MRPV 071300Z 12006KT CAVOK 22/17 A2995 RMK TRACE SC SCT250 TCU S SW CB DST NE VL MX VTO 11KT=
200907071400 METAR MRPV 071400Z 11009KT CAVOK 23/17 A2997 RMK TRACE CU SC SCT250 CB DST NE SW VL MX VTO 14KT NOSIG=
200907071500 METAR MRPV 071500Z 11007KT CAVOK 25/17 A2998 RMK TRACE SC CU SCT250 CB DST SW NE TEMPO 24006=
200907071600 METAR MRPV 071600Z 09009KT CAVOK 26/17 A2998 RMK TRACE CU SC SCT250 CB DST NE SW VL MX VTO 14KT NOSIG=
200907071700 METAR MRPV 071700Z 07002KT 9999 FEW045 SCT250 28/18 A2997 RMK TCU DST N E TEMPO 24008=
200907071800 METAR MRPV 071800Z 27004KT 9999 FEW020TCU BKN040 26/19 A2996 RMK DU09 NOSIG=
200907071900 METAR MRPV 071900Z 09006KT 9999 FEW045 BKN250 29/17 A2993 RMK TCU NW S SW NOSIG=
200907072000 METAR MRPV 072000Z 06002KT 9999 SCT045 BKN250 29/19 A2990 RMK TCU DST S SW NW TEMPO 25006=
200907072100 METAR MRPV 072100Z 27006KT 9999 FEW025TCU SCT040 SCT250 26/21 A2988 RMK VEL MAX VTO 11KT TEMPO 8000 VCSH=
200907072200 METAR MRPV 072200Z 27008KT 5000 RA VCSH VCTS FEW006 SCT010CB BKN020 24/22 A2988 RMK VIS SE E UNL VEL MAX VTO 13KT TEMPO 4000 SH SCT010CB BKN012=
200907072300 METAR MRPV 072300Z 0000KT 8000 3500W -DZ VCTS VCSH FEW004 FEW008CB SCT015 22/20 A2991 VIS N NE E UNL NOSIG=
200907080000 METAR MRPV NIL=
200907080100 METAR MRPV NIL=
200907080200 METAR MRPV NIL=
200907080300 METAR MRPV NIL=
200907080400 METAR MRPV NIL=
200907080500 METAR MRPV NIL=
200907080600 METAR MRPV NIL=
200907080700 METAR MRPV NIL=
200907080800 METAR MRPV NIL=
200907080900 METAR MRPV NIL=
200907081000 METAR MRPV NIL=
200907081100 METAR MRPV NIL=
200907081200 METAR MRPV 081200Z 00000KT CAVOK 18/17 A2994 RMK BKN250 CB DST SW W NOSIG=
200907081300 METAR MRPV 081300Z 11002KT CAVOK 21/17 A2994 RMK TRACE CU BKN250 CB DST SW TEMPO 24006KT=
200907081400 METAR MRPV 081400Z 06005KT CAVOK 24/17 A2996 TRACE CU BKN250 CB DST SW TEMPO 24006KT=
200907081500 METAR MRPV 081500Z 10005KT 9999 FEW040 BKN250 26/18 A2997 RMK CB DST NE SW VEL MAX VTO 11KT TEMPO 24006KT=
200907081600 METAR MRPV 081600Z 07011KT 9999 FEW040 BKN250 26/18 A2997 RMK CB DST NE SW VEL MAX VTO 16KT NOSIG=
200907081700 METAR MRPV 081700Z 08012KT 9999 FEW035 SCT120 BKN250 26/18 A2998 RMK CB DST NE SW NOSIG=
200907081800 METAR MRPV 081800Z 09006KT 9999 SCT040 BKN120 27/18 A2996 RMK TCU DST SW NW TEMPO 24006KT=
200907081900 METAR MRPV 081900Z 13006KT 9999 SCT040 BKN120 27/18 A2993 RMK TCU DST SW W TEMPO 24006KT=
200907082000 METAR MRPV 082000Z 00000KT 9999 FEW045 BKN120 28/18 A2990 RMK TCU DST NW W SW TEMPO 24006KT=
200907082100 METAR MRPV 082100Z 22004KT 9999 FEW020TCU SCT035 SCT120 26/21 A2988 TEMPO 8000 VCSH=
200907082200 METAR MRPV 082200Z 22004KT 9999 VCSH FEW035 SCT120 BKN250 23/19 A2990 RMK CB DST SW W NW VIS 8000W TEMPO 8000 VCSH=
200907082300 METAR MRPV 082300Z 31008KT 9999 SCT020 BKN100 22/19 A2993 RMK CB RN DST W TEMPO 8000 VCFG SCT010=
200907090000 METAR MRPV NIL=
200907090100 METAR MRPV NIL=
200907090200 METAR MRPV NIL=
200907090300 METAR MRPV NIL=
200907090400 METAR MRPV NIL=
200907090500 METAR MRPV NIL=
200907090600 METAR MRPV NIL=
200907090700 METAR MRPV NIL=
200907090800 METAR MRPV NIL=
200907090900 METAR MRPV NIL=
200907091000 METAR MRPV NIL=
200907091100 METAR MRPV NIL=
200907091200 METAR MRPV 091200Z 12003KT CAVOK 18/15 A2997 RMK TRACE SC BKN250=
200907091300 METAR MRPV 091300Z 13005KT CAVOK 21/16 A2999 RMK TRACE SC BKN250 NOSIG=
200907091400 METAR MRPV 091400Z 11005KT CAVOK 23/16 A2999 RMK TRACE SC BKN250 NOSIG=
200907091500 METAR MRPV 091500Z 13007KT CAVOK 24/16 A3006 RMK TRACE SC AC BKN250 NOSIG=
200907091600 METAR MRPV 091600Z 10010KT 9999 FEW035 SCT120 BKN250 26/17 A3001 NOSIG=
200907091700 METAR MRPV 091700Z 08012KT 9999 FEW035 BKN130 25/17 A3001 NOSIG=
200907091800 METAR MRPV 091800Z 08008KT 9999 FEW030 OVC120 26/17 A2999 NOSIG=
200907091900 METAR MRPV 091900Z 08004KT 9999 FEW030 OVC120 27/17 A2997 NOSIG=
200907092000 METAR MRPV 092000Z 29009KT 9999 SCT040 OVC120 25/19 A2995 TEMPO BKN030=
200907092100 METAR MRPV 092100Z 30008KT 9999 SCT030 OVC120 25/20 A2994 TEMPO 8000 BKN025=
200907092200 METAR MRPV 092200Z 28006KT 9999 SCT025 OVC100 25/20 A2993 RN NE E VCSH BKN020=
200907092300 METAR MRPV 092300Z 27003KT 9999 SCT010TCU BKN020 24/20 A2994 TEMPO RASH SE S VCSH BKN020=
200907100000 METAR MRPV 100000Z NIL=
200907100100 METAR MRPV NIL=
200907100200 METAR MRPV NIL=
200907100300 METAR MRPV NIL=
200907100400 METAR MRPV NIL=
200907100500 METAR MRPV NIL=
200907100600 METAR MRPV NIL=
200907100700 METAR MRPV NIL=
200907100800 METAR MRPV NIL=
200907100900 METAR MRPV NIL=
200907101000 METAR MRPV NIL=
200907101100 METAR MRPV NIL=
200907101200 METAR MRPV 101200Z 10008KT CAVOK 22/16 A2998 RMK TRACE SC SCT120 BKN250 NOSIG=
200907101300 METAR MRPV 101300Z 12007KT CAVOK 22/16 A2999 RMK TRAZAS SC BKN120 NOSIG=
200907101400 METAR MRPV 101400Z 11008KT CAVOK 23/16 A2999 TRACE SCT BKN120 NOSIG=
200907101500 METAR MRPV 101500Z 12010KT CAVOK 25/16 A3000 TRAZAS SCT BKN120 NOSIG=
200907101600 METAR MRPV 101600Z 08016KT 9999 SCT030 BKN120 24/17 A3002 TEMPO BKN025=
200907101700 METAR MRPV 101700Z 09009KT 9999 SCT030 BKN120 26/18 A3002 NOSIG=
200907101800 METAR MRPV 101800Z 10008KT 9999 SCT035 BKN120 27/18 A3000 TEMPO 28006KT BKN030=
200907101900 METAR MRPV 101900Z 08012KT 9999 FEW020 SCT035 BKN120 26/18 A2997 TEMPO BKN030=
200907102000 METAR MRPV 102000Z 08014KT 9999 SCT015TCU BKN0265 26/18 A2996 RASH NW N E TEMPO VCSH BKN015=
200907102100 METAR MRPV 102100Z 07013KT 9999 3000NW TSRA SCT005 BKN015 22/20 A2996 RMK BECMG 3000 TSRA=
200907102200 METAR MRPV 102200Z 00000KT 3000 BR VCSH SCT007 BKN012 21/19 A2998 RETS BECMG 2000 +TSRA=
200907102300 METAR MRPV 102300Z 00000KT 3000 -RABR SCT006 BKN015 20/19 A2999 TEMPO 5000 BR=
200907110000 METAR MRPV 110000Z 00000KT 9999 SCT020 OVC100 20/19 A2998 NOSIG=
200907110100 METAR MRPV NIL=
200907110200 METAR MRPV NIL=
200907110300 METAR MRPV NIL=
200907110400 METAR MRPV NIL=
200907110500 METAR MRPV NIL=
200907110600 METAR MRPV NIL=
200907110700 METAR MRPV NIL=
200907110800 METAR MRPV NIL=
200907110900 METAR MRPV NIL=
200907111000 METAR MRPV NIL=
200907111100 METAR MRPV NIL=
200907111200 METAR MRPV 111200Z 09003KT CAVOK 18/18 A3000 RMK TRACE SC BKN130 DU PISTA 09=
200907111300 METAR MRPV 111300Z 03004KT CAVOK 21/17 A3001 RMK TRACE SC BKN130 NOSIG=
200907111400 METAR MRPV 111400Z 12009KT CAVOK 22/16 A3001 RMK TRACE SC BKN120 NOSIG=
200907111500 METAR MRPV 111500Z 11010KT CAVOK 22/16 A3003 RMK TRACE SC OVC120 NOSIG=
200907111600 METAR MRPV 111600Z 09014KT CAVOK 23/16 A3004 RMK TRACE SC OVC120 RMK RAFAGAS 20KT NOSIG=
200907111700 METAR MRPV 111700Z 09009KT CAVOK 25/17 A3003 RMK TRACE SC BKN120 NOSIG=
200907111800 METAR MRPV 111800Z 08017KT 9999 FEW035 BKN120 25/18 A3001 NOSIG=
200907111900 METAR MRPV 111900Z 08015KT 9999 SCT030 BKN120 24/18 A2999 NOSIG=
200907112000 METAR MRPV 112000Z 08011KT CAVOK SCT035 BKN120 26/16 A2998 NOSIG=
200907112100 METAR MRPV 112100Z 10009KT CAVOK 25/17 A2996 RMK TRACE SC BKN120 NOSIG=
200907112200 METAR MRPV 112200Z 09012KT CAVOK 24/15 A2996 RMK TRACE SC OVC120 NOSIG=
200907112300 METAR MRPV 112300Z 10009KT CAVOK 24/14 A2995 RMK TRACE SC SCT130 BKN250 NOSIG=
200907120000 METAR MRPV NIL=
200907120100 METAR MRPV NIL=
200907120200 METAR MRPV NIL=
200907120300 METAR MRPV NIL=
200907120400 METAR MRPV NIL=
200907120500 METAR MRPV NIL=
200907120600 METAR MRPV NIL=
200907120700 METAR MRPV NIL=
200907120800 METAR MRPV NIL=
200907120900 METAR MRPV NIL=
200907121000 METAR MRPV NIL=
200907121100 METAR MRPV NIL=
200907121200 METAR MRPV 121200Z 14006KT CAVOK 20/15 A2998 TRACE SCT SCT300 NOSIG=
200907121300 METAR MRPV 121300Z 11010KT CAVOK 23/15 A3000 RMK TRACE SC AC SCT300 VL MZ VTO 15KT NOSIG=
200907121400 METAR MRPV 121400Z 10009KT CAVOK 24/16 A3001 RMK TRACE CU SC SCT300 VL MX VTO 16KT NOSIG=
200907121500 METAR MRPV 121500Z 08012KT CAVOK 25/17 A3000 RMK TRACE CU SC AC FEW300 VL MX VTO 17KT NOSIG=
200907121600 METAR MRPV 121600Z 08015KT 9999 FEW045 26/17 A3001 RMK TRACE AC CI NOSIG=
200907121700 METAR MRPV 121700Z 07014KT 9999 FEW040 SCT300 26/18 A3000 RMK VL MX VTO 20KT NOSIG=
200907121800 METAR MRPV 121800Z 08014KT 9999 SCT040 27/18 A2999 RMK VL MX VTO 19KT NOSIG=
200907121900 METAR MRPV 121900Z 09012KT 9999 FEW035 BKN250 27/18 A2996 NOSIG=
200907122000 METAR MRPV 122000Z 07017KT 9999 BKN035 27/18 A2996 RMK VL MX VTO 23KT NOSIG=
200907122100 METAR MRPV 122100Z 07014G24KT 9999 SCT030 SCT250 26/18 A2995 NOSIG=
200907122200 METAR MRPV 122200Z 07014KT 9999 SCT030 BKN250 23/17 A2995 RMK VEL MAX VTO 19KT TCU DST S NOSIG=
200907122300 METAR MRPV 122300Z 08012KT 9999 FEW030 BKN250 24/18 A2996 RMK DZ DST NE VEL MAX VTO 20KT NOSIG=
200907130000 METAR MRPV NIL=
200907130100 METAR MRPV NIL=
200907130200 METAR MRPV NIL=
200907130300 METAR MRPV NIL=
200907130400 METAR MRPV NIL=
200907130500 METAR MRPV NIL=
200907130600 METAR MRPV NIL=
200907130700 METAR MRPV NIL=
200907130800 METAR MRPV NIL=
200907130900 METAR MRPV NIL=
200907131000 METAR MRPV NIL=
200907131100 METAR MRPV NIL=
200907131200 METAR MRPV 131200Z 12011KT 9999 FEW025 BKN130 21/17 A2999 RMK CB DST S SW RN N NE NOSIG=
200907131300 METAR MRPV 131300Z 12012KT 9999 FEW025 BKN130 22/18 A2999 RMK CB DST SW NOSI G=
200907131400 METAR MRPV 131400Z 11010KT 9999 SCT025 BKN130 23/18 A3000 RMK CB DST SW RN N NOSIG=
200907131500 METAR MRPV 131500Z 08015KT 9999 FEW040 SCT120 BKN250 24/17 A2999 RMK RN N NE NOSIG=
200907131600 METAR MRPV 131600Z 07013KT 9999 BKN035 SCT120 24/18 A3000 RMK VEL MAX VTO 18KT RN DST N NE NOSIG=
200907131700 METAR MRPV 131700Z 014KT 9999 FEW030 BKN250 25/17 A2997 RMK VEL MAX VTO 22KT FEW120 LGT HZ ARND NOSIG=
200907131800 METAR MRPV 131800Z 08015KT 9999 SCT035 BKN120 25/17 A2995 LGT HZ ARND NOSIG=
200907131900 METAR MRPV 131900Z 07014KT 9999 SCT040 SCT250 27/17 A2993 RMK FEW120 LGT HZ ARND NOSIG=
200907132000 METAR MRPV 132000Z 08014KT 9999 BKN030 SCT250 26/18 A2992 RN DST NE LGT HZ ARND VEL MAX VTO 22KT NOSIG=
200907132100 METAR MRPV 132100Z 08015KT 9999 SCT035 SCT120 25/17 A2991 RMK HZ LGT ARND NOSIG=
200907132200 METAR MRPV 132200Z 08010KT 9999 BKN025 SCT100 24/18 A2992 RMK DZ DST N NE NOSIG=
200907132300 METAR MRPV 132300Z 09010KT 9999 DZ FEW020 BKN030 23/18 A2994 RMK RN DST N NE NOSIG=
200907140000 METAR MRPV NIL=
200907140100 METAR MRPV NIL=
200907140200 METAR MRPV NIL=
200907140300 METAR MRPV NIL=
200907140400 METAR MRPV NIL=
200907140500 METAR MRPV NIL=
200907140600 METAR MRPV NIL=
200907140700 METAR MRPV NIL=
200907140800 METAR MRPV NIL=
200907140900 METAR MRPV NIL=
200907141000 METAR MRPV NIL=
200907141100 METAR MRPV NIL=
200907141200 METAR MRPV 141200Z 10011KT CAVOK 20/15 A2999 RMK TRACE SC BKN250 CB DST SW VL MX VTO 18KT NOSIG=
200907141300 METAR MRPV 141300Z 10015G25KT CAVOK 21/15 A3001 RMK TRACE SC SCT250 NOSIG=
200907141400 METAR MRPV 141400Z 08018KT CAVOK 23/15 A3001 RMK TRACE CU SC BKN250 VEL.MAX.VTO 24KT HZY NOSIG=
200907141500 METAR MRPV 141500Z 07016KT CAVOK 24/16 A3001 RMK TRACE SC AC BKN250 VEL.MAX.VTO 24KT NOSIG=
200907141600 METAR MRPV 141600Z 07015KT CAVOK 25/16 A3002 RMK TRACE CU SC BKN250 VEL.MAX.VTO 22KT LGT POLVO DST ARND NOSIG=
200907141700 METAR MRPV 141700Z 07014KT CAVOK 26/16 A3000 RMK TRACE CU AC SCT250 VEL MAX WIND 20 KTS NOSIG=
200907141800 METAR MRPV 141800Z 07015KT 9999 FEW045 SCT250 25/17 A3000 RMK VEL MAX=
200907141900 METAR MRPV 141900Z 06013KT 9999 FEW040 SCT250 26/17 A2998 RMK VEL MAX=
200907142000 METAR MRPV 142000Z 06013KT 9999 FEW040 SCT080 26/17 A2997 RMK VEL MAX=
200907142100 METAR MRPV 142100Z 07012KT 9999 FEW045 BKN250 26/16 A2996 FEW120 TCU SW NOSIG=
200907142200 METAR MRPV 142200Z 07010KT 9999 FEW045 BKN250 26/16 A2994 FEW130 MAX/=
200907142300 METAR MRPV 142300Z 07011KT 9999 FEW045 BKN250 25/17 A2995 TRACE AC CI TCU SW DZ NE NOSIG=
200907150000 METAR MRPV 150000Z NIL=
200907150100 METAR MRPV NIL=
200907150200 METAR MRPV NIL=
200907150300 METAR MRPV NIL=
200907150400 METAR MRPV NIL=
200907150500 METAR MRPV NIL=
200907150600 METAR MRPV NIL=
200907150700 METAR MRPV NIL=
200907150800 METAR MRPV NIL=
200907150900 METAR MRPV NIL=
200907151000 METAR MRPV NIL=
200907151100 METAR MRPV NIL=
200907151200 METAR MRPV 151200Z 13006KT CAVOK 20/13 A2999 RMK TRACE SC AC SCT300 CB DST SW NOSIG=
200907151300 METAR MRPV 151300Z 11006KT 9999 SCT040 SCT300 23/15 A3001 DZ N NE CB DST SW NOSIG=
200907151400 METAR MRPV 151400Z 09010KT 9999 FEW040 SCT300 23/16 A3002 TCU N NE SW DZ NW MAX WIND 15KT NOSIG=
200907151500 METAR MRPV 151500Z 09013KT 9999 SCT035 BKN250 25/17 A3004 CB N NE E DZ NW N NE MAX/WIND 18KT NOSIG=
200907151600 METAR MRPV 151600Z 09008KT 9999 BKN035 SCT250 23/17 A3006 RN N NE E CB NE SW NOSIG=
200907151700 METAR MRPV 151700Z 09011KT 9999 SCT040 OVC120 22/18 A3004 RERA NOSIG=
200907151800 METAR MRPV 151800Z 12005KT CAVOK 27/17 A3001 TRACE SCT OVC120 NOSIG=
200907151900 METAR MRPV 151900Z 08014KT 9999 FEW030 OVC120 24/18 A3001 NOSIG=
200907152000 METAR MRPV 152000Z 07009KT 9999 SCT030 OVC120 24/18 A3001 NOSIG=
200907152100 METAR MRPV 152100Z 10004KT 9999 FEW030 OVC120 25/18 A2999 NOSIG=
200907152200 METAR MRPV 152200Z 00000KT CAVOK 24/17 A2997 RMK TRACE SC OVC120 NOSIG=
200907152300 METAR MRPV 152300Z 00000KT 9999 SCT040 OVC120 24/18 A2998 NOSIG=
200907160000 METAR MRPV 160000Z 00000KT 9999 4000SW BR FEW010 SCT040 OVC120 23/18 A2997 RMK TEMPO 5000 BR=
200907160100 METAR MRPV NIL=
200907160200 METAR MRPV NIL=
200907160300 METAR MRPV NIL=
200907160400 METAR MRPV NIL=
200907160500 METAR MRPV NIL=
200907160600 METAR MRPV NIL=
200907160700 METAR MRPV NIL=
200907160800 METAR MRPV NIL=
200907160900 METAR MRPV NIL=
200907161000 METAR MRPV NIL=
200907161100 METAR MRPV NIL=
200907161200 METAR MRPV 161200Z 09017KT 9999 SCT030 22/17 A2999 RMK DZ DST NE VEL. MAX.VTO 25KT NOSIG=
200907161300 METAR MRPV 161300Z 11008KT 9999 SCT030 24/18 A2999 RMK DZ NE NOSIG=
200907161400 METAR MRPV 161400Z 10015KT 9999 SCT030 24/18 A2999 RMK RAFAGAS 22KT NOSIG=
200907161500 METAR MRPV 161500Z 11011KT 9999 SCT030 25/18 A2999 RMK RAFAGAS 18KT NOSIG=
200907161600 METAR MRPV 161600Z 07015G25KT 9999 SCT030 26/18 A2998 NOSIG=
200907161700 METAR MRPV 161700Z 08015KT 9999 SCT030 27/18 A2996 NOSIG=
200907161800 METAR MRPV 161800Z 07017KT 9999 SCT030 26/18 A2994 RMK RAFAGAS 25KT DZ NE NOSIG=
200907161900 METAR MRPV 161900Z 07013G23KT 9999 SCT035 26/18 A2993 NOSIG=
200907162000 METAR MRPV 162000Z 06016KT 9999 SCT030 27/17 A2991 NOSIG=
200907162100 METAR MRPV 162100Z 08013KT 9999 SCT030 27/18 A2991 RMK RAFAGAS 22KT NOSIG=
200907162200 METAR MRPV 162200Z 06015KT 9999 SCT030 26717 A2991 NOSIG=
200907162300 METAR MRPV 162300Z 07012KT 9999 SCT030 26717 A2992 RMK RAFAGAS 19KT NOSIG=
200907170000 METAR MRPV NIL=
200907170100 METAR MRPV NIL=
200907170200 METAR MRPV NIL=
200907170300 METAR MRPV NIL=
200907170400 METAR MRPV NIL=
200907170500 METAR MRPV NIL=
200907170600 METAR MRPV NIL=
200907170700 METAR MRPV NIL=
200907170800 METAR MRPV NIL=
200907170900 METAR MRPV NIL=
200907171000 METAR MRPV NIL=
200907171100 METAR MRPV NIL=
200907171200 METAR MRPV 171200Z 171200Z11006KT 9999 SCT030 22/17 A2995 NOSIG=
200907171300 METAR MRPV 171300Z 10007KT 9999 SCT030 23/17 A2996 NOSIG=
200907171400 METAR MRPV 171400Z 09013KT 9999 SCT030 24/18 A2996 RMK DU W NOSIG=
200907171500 METAR MRPV 171500Z 07014KT 9999 SCT030 24/18 A2997 RMK VL MX VTO 20KT NOSIG=
200907171600 METAR MRPV 171600Z 07009KT 9999 SCT030 26/18 A2995 NOSIG=
200907171700 METAR MRPV 171700Z 08015KT 9999 SCT020 BKN035 25/19 A2997 RMK DZ NE VL MX VTO 20KT TEMPO BKN020=
200907171800 METAR MRPV 171800Z 09008KT 9999 -RA SCT020 BKN040 24/19 A2996 RMK RASH W TEMPO BKN020 RA=
200907171900 METAR MRPV 171900Z 08013KT 9999 SCT030 25/18 A2993 RERA NOSIG=
200907172000 METAR MRPV 172000Z 07013KT 9999 SCT020 BKN120 25/18 A2991 NOSIG=
200907172100 METAR MRPV 172100Z 06015KT 9999 SCT020 BKN120 26/18 A2991 RMK DZ NE NOSIG=
200907172200 METAR MRPV 172200Z 08015KT 9999 SCT020 BKN120 26/18 A2991 VEL MAX VTO 23KT NOSIG=
200907172300 METAR MRPV 172300Z 08010KT 9999 SCT020 BKN120 24/18 A2993 NOSIG=
200907180000 METAR MRPV 180000Z NIL=
200907180100 METAR MRPV NIL=
200907180200 METAR MRPV NIL=
200907180300 METAR MRPV NIL=
200907180400 METAR MRPV NIL=
200907180500 METAR MRPV NIL=
200907180600 METAR MRPV NIL=
200907180700 METAR MRPV NIL=
200907180800 METAR MRPV NIL=
200907180900 METAR MRPV NIL=
200907181000 METAR MRPV NIL=
200907181100 METAR MRPV NIL=
200907181200 METAR MRPV 181200Z 12007KT 9999 SCT035 BKN100 21/18 A2997 RN DST ARND PISTA MOJADA NOSIG=
200907181300 METAR MRPV 181300Z 10009KT 9999 SCT035 BKN100 22/18 A3000 RMK VEL MAX VTO 16KT RN DST ARND NOSIG=
200907181400 METAR MRPV 181400Z 10011KT 9999 SCT035 BKN100 22/18 A3001 RN NW N NE NOSIG=
200907181500 METAR MRPV 181500Z 08012KT 9999 FEW030 OVC120 23/19 A3001 RMK DZ DST N NE VEL MAX VTO 17KTS NOSIG=
200907181600 METAR MRPV 181600Z 08014KT 9999 -RA FEW030 OVC120 23/19 A3001 NOSIG=
200907181700 METAR MRPV 181700Z 09011KT 9999 SCT030 BKN120 25/19 A3000 RERA RMK VEL MAX VTO 16KT DZ NE NOSIG=
200907181800 METAR MRPV 181800Z 08014KT 9999 SCT025 BKN120 25/19 A2998 RMK DZ DST NE NOSI G=
200907181900 METAR MRPV 181900Z 10008KT 9999 SCT030 BKN120 24/18 A2998 RMK DZ DST N NE VEL MAX VTO 13KT NOSIG=
200907182000 METAR MRPV 182000Z 08011KT 9999 FEW040 SCT120 BKN250 26/19 A2995 VEL MAX VTO 16KT NOSIG=
200907182100 METAR MRPV 182100Z 08009KT 9999 FEW040 BKN250 27/28 A2997 RMK FEW130 DZ DST N NE TCU DST SW W NOSIG=
200907182200 METAR MRPV 182200Z 06007KT 9999 FEW040 BKN250 27/19 A2992 RMK TCU RN DST N CB DST NE E VEL.MAX.VTO 12KT NOSIG=
200907182300 METAR MRPV 182300Z 07010KT 9999 VCTS FEW015CB SCT025TCU SCT035 25/19 A2994 RMK VIS 8000 N NE VEL.MAX.VTO 16KT NOSIG=
200907190000 METAR MRPV NIL=
200907190100 METAR MRPV NIL=
200907190200 METAR MRPV NIL=
200907190300 METAR MRPV NIL=
200907190400 METAR MRPV NIL=
200907190500 METAR MRPV NIL=
200907190600 METAR MRPV NIL=
200907190700 METAR MRPV NIL=
200907190800 METAR MRPV NIL=
200907190900 METAR MRPV NIL=
200907191000 METAR MRPV NIL=
200907191100 METAR MRPV NIL=
200907191200 METAR MRPV NIL=
200907191300 METAR MRPV 191300Z 08015KT 9999 SCT035 BKN120 21/17 A3002 RMK RN DST N NE CB DST N VEL.MAX.VTO 22KT TEMPO -RA=
200907191400 METAR MRPV 191400Z 09012KT CAVOK 22/17 A3004 RERA RMK TRACE SC SCT090 BKN120 CB DST NE VEL.MAX.VTO 17KT NOSIG=
200907191500 METAR MRPV 191500Z 10018G28KT CAVOK 23/16 A3004 RMK TRACE SC SCT100 BKN130 NOSIG=
200907191600 METAR MRPV 191600Z 11012KT CAVOK 23/17 A3004 RMK TRACE SC SCT100 SCT130 VEL.MAX.VTO 20KT NOSIG=
200907191700 METAR MRPV 191700Z 11013KT 9999 FEW035 SCT100 BKN130 24/17 A3004 RMK VEL.MAX.VTO 19KT NOSIG=
200907191800 METAR MRPV 191800Z 08016KT CAVOK 24/17 A3002 RMK TRACE SC SCT100 BKN130 VEL.MAX.VTO 21KT=
200907191900 METAR MRPV 191900Z 08017KT 9999 FEW035 SCT120 BKN250 25/18 A2999 RMK VEL.MAX.VTO 23KT NOSIG=
200907192000 METAR MRPV 192000Z COR 08009KT 9999 FEW035 SCT130 BKN250 26/17 A2997 VEL MAX VIENTO 14KTS CB DIST S SW=
200907192100 METAR MRPV 192100Z 07012KT 9999 FEW030 SCT120 BKN250 25/17 A2998 DZ N CB SW S NOSIG MAX WIND 17KT=
200907192200 METAR MRPV 192200Z 08012KT 9999 SCT030 BKN120 23/17 A2997 DZ NE MAX=
200907192300 METAR MRPV 192300Z 09014KT 9999 FEW025 OVC120 23/17 A2996 DZ NE NOSIG=
200907200000 METAR MRPV 200000Z NIL=
200907200100 METAR MRPV NIL=
200907200200 METAR MRPV NIL=
200907200300 METAR MRPV NIL=
200907200400 METAR MRPV NIL=
200907200500 METAR MRPV NIL=
200907200600 METAR MRPV NIL=
200907200700 METAR MRPV NIL=
200907200800 METAR MRPV NIL=
200907200900 METAR MRPV NIL=
200907201000 METAR MRPV NIL=
200907201100 METAR MRPV NIL=
200907201200 METAR MRPV 201200Z 12014KT CAVOK 20/15 A2999 RMK TRACE SC BKN250 CB DST S DZ N NOSIG=
200907201300 METAR MRPV 201300Z 12011KT CAVOK 22/16 A2997 TRACE SCT BKN250 MAX/=
200907201400 METAR MRPV 201400Z 12012KT 9999 FEW040 BKN250 23/17 A2998 TRACE AC NOSIG=
200907201500 METAR MRPV 201500Z 12013G23KT 9999 FEW040 BKN250 25/16 A2999 TRACE AC DZ N=
200907201600 METAR MRPV NIL=
200907201700 METAR MRPV 201700Z 09014KT 9999 SCT040 BKN250 26/17 A2999 DZ N MAX/=
200907201800 METAR MRPV 201800Z 07014KT 9999 FEW030 SCT040 BKN250 25/17 A2998 DZ N NE NOSIG=
200907201900 METAR MRPV 201900Z 07020KT 9999 FEW030 SCT040 BKN250 24/17 A2997 RN N NE E TEMPO RA=
200907202000 METAR MRPV 202000Z 10016KT 9999 FEW030 BKN040 23/17 A2996 RN N NE E SE MAX/WIND 22KT TEMPO -RA=
200907202100 METAR MRPV 202100Z 09013KT 9999 FEW030 BKN040 23/16 A2996 RMK RN N NE RAFAGA S DE 18KT NOSIG=
200907202200 METAR MRPV 202200Z 12010KT 9999 FEW035 BKN130 22/16 A2994 RMK RN N NE RAFAGA S 17KT=
200907202300 METAR MRPV 202300Z 10012KT 9999 FEW030 BKN130 22/17 A2995 RMK RN NE NOSIG=
200907210000 METAR MRPV 210000Z 10012KT CAVOK 22/15 A2997 RMK OVC120 TRACE SC NOSIG=
200907210100 METAR MRPV NIL=
200907210200 METAR MRPV NIL=
200907210300 METAR MRPV NIL=
200907210400 METAR MRPV NIL=
200907210500 METAR MRPV NIL=
200907210600 METAR MRPV NIL=
200907210700 METAR MRPV NIL=
200907210800 METAR MRPV NIL=
200907210900 METAR MRPV NIL=
200907211000 METAR MRPV NIL=
200907211100 METAR MRPV NIL=
200907211200 METAR MRPV 211200Z 13007KT CAVOK 20/14 A2995 RMK TRACE SC BKN250=
200907211300 METAR MRPV 211300Z 12008KT CAVOOK 22/15 A2996 RMK TRACE SC BKN250 NOSIG=
200907211400 METAR MRPV 211400Z 11007KT CAVOK 24/15 A2997 RMK TRACE SC BKN250 NOSIG=
200907211500 METAR MRPV 211500Z 09007KT CAVOK 26/15 A2999 RMK TRACE SC BKN250 DU APROXIMA CION 09 NOSIG=
200907211600 METAR MRPV 211600Z 30006KT 9999 FEW040 BKN250 25/17 A3000 NOSIG=
200907211700 METAR MRPV 211700Z 29006KT 9999 SCT035 BKN250 27/18 A2999 NOSIG=
200907211800 METAR MRPV 211800Z 28008KT 9999 SCT025 BKN040 25/18 A2997 TEMPO BKN020=
200907211900 METAR MRPV 211900Z 28009KT 9999 SCT025TCU BKN040 25719 A2996 RMK RASH NW N TEMPO BKN020 RA=
200907212000 METAR MRPV 212000Z 29009KT 9999 SCT025 BKN040 24/18 A2994 RMK SH N NE TEMPO BKN020=
200907212100 METAR MRPV 212100Z 30008KT 9999 VCSH SCT020TCU BKN040 24/18 A2994 RMK VIS E 6000 TEMPO 6000 RA=
200907212200 METAR MRPV 212200Z 31003KT 3000 RA BR SCT006 BKN012 21/19 A2994 RMK TEMPO 5000 RA BR=
200907212300 METAR MRPV 212300Z 00000KT 6000 VCFG SCT015 BKN030 20/18 A2996 TEMPO UNL=
200907220000 METAR MRPV NIL=
200907220100 METAR MRPV NIL=
200907220200 METAR MRPV NIL=
200907220300 METAR MRPV NIL=
200907220400 METAR MRPV NIL=
200907220500 METAR MRPV NIL=
200907220600 METAR MRPV NIL=
200907220700 METAR MRPV NIL=
200907220800 METAR MRPV NIL=
200907220900 METAR MRPV NIL=
200907221000 METAR MRPV NIL=
200907221100 METAR MRPV NIL=
200907221200 METAR MRPV 221200Z 11005KT 9999 SCT025 BKN250 21/17 A2997 NOSIG=
200907221300 METAR MRPV 221300Z 13007KT 9999 SCT025 BKN120 21/18 A2999 NOSIG=
200907221400 METAR MRPV 221400Z 11007KT 9999 SCT025 BKN120 23/18 A3000 NOSIG=
200907221500 METAR MRPV 221500Z 10008KT 9999 SCT025 BKN120 24/18 A3001 NOSIG=
200907221600 METAR MRPV 221600Z 12008KT 9999 SCT035 SCT120 BKN250 26/18 A3001 NOSIG=
200907221700 METAR MRPV 221700Z 09011KT 9999 SCT030 BKN250 26/18 A3001 TEMPO BKN020=
200907221800 METAR MRPV 221800Z 09005KT 9999 SCT030 BKN250 28/18 A2999 NOSIG=
200907221900 METAR MRPV 221900Z 29009KT 9999 SCT015 BKN040 26/21 A2997 RMK RASH NW N NE E TEMPO BKN020 VCSH=
200907222000 METAR MRPV 222000Z 29008KT 9999 4000N VCSH FEW008 SCT012TCU BKN030 23/21 A2997 TEMPO 3000 010CB=
200907222100 METAR MRPV 222100Z 28007KT 4000 BR SCT004 BKN010 23/20 A2996 TEMPO 3000 BR=
200907222200 METAR MRPV 222200Z 27005KT 7000 3000SW VCFG SCT006 BKN015 23/21 A2994 TEMPO 9999=
200907222300 METAR MRPV 222300Z 28006KT 7000 3000W VCFG BR FEW005 SCT010 BKN020 22/20 A2995 RMK TEMPO 3000=
200907230000 METAR MRPV 230000Z NIL=
200907230100 METAR MRPV NIL=
200907230200 METAR MRPV NIL=
200907230300 METAR MRPV NIL=
200907230400 METAR MRPV NIL=
200907230500 METAR MRPV NIL=
200907230600 METAR MRPV NIL=
200907230700 METAR MRPV NIL=
200907230800 METAR MRPV NIL=
200907230900 METAR MRPV NIL=
200907231000 METAR MRPV NIL=
200907231100 METAR MRPV NIL=
200907231200 METAR MRPV 231200Z 09004KT 9999 FEW035 SCT250 21/17 A2997 NOSIG=
200907231300 METAR MRPV 231300Z 13004KT 9999 FEW030 SCT120 BKN250 23/17 A2998 NOSIG=
200907231400 METAR MRPV 231400Z 10007KT CAVOK 23/17 A2999 TRACE SCT BKN120 NOSIG=
200907231500 METAR MRPV 231500Z 10008KT 9999 FEW030 BKN120 24/17 A3001 NOSIG=
200907231600 METAR MRPV 231600Z 11007KT 9999 SCT035 BKN120 25/18 A3000 RMK TCU RN DST E TEMPO 6000 VCSH=
200907231700 METAR MRPV 231700Z 12006KT 9999 2000E RA SCT020 OVC100 23/18 A3001 TEMPO 3000 RA=
200907231800 METAR MRPV 231800Z 12006KT 9999 FEW015TCU SCT025 OVC100 24/19 A2998 RERA RASH DST E BKN020=
200907231900 METAR MRPV 231900Z 12004KT 9999 SCT025 BKN120 25/19 A2995 NOSIG=
200907232000 METAR MRPV 232000Z 07009KT 9999 SCT030 BKN120 2/18 A2992 NOSIG=
200907232100 METAR MRPV 232100Z 08009KT 9999 SCT030 SCT120 BKN270 25/18 A2991 NOSIG=
200907232200 METAR MRPV 232200Z 08009KT 9999 SCT025 BKN120 25/18 A2991 NOSIG=
200907232300 METAR MRPV 232300Z 08010KT 9999 3000S VCSH SCT020TCU BKN100 24/18 A2993 TEMPO BKN020=
200907240000 METAR MRPV NIL=
200907240100 METAR MRPV NIL=
200907240200 METAR MRPV NIL=
200907240300 METAR MRPV NIL=
200907240400 METAR MRPV NIL=
200907240500 METAR MRPV NIL=
200907240600 METAR MRPV NIL=
200907240700 METAR MRPV NIL=
200907240800 METAR MRPV NIL=
200907240900 METAR MRPV NIL=
200907241000 METAR MRPV NIL=
200907241100 METAR MRPV NIL=
200907241200 METAR MRPV 241200Z 07006KT 9999 SCT035 SCT250 26/22 A2976 RMK RN DST NE=
200907241300 METAR MRPV 241300Z 12006KT 9999 FEW030 SCT040 21/17 A2997 RMK FEW250 CB DST N S NOSIG=
200907241400 METAR MRPV 241400Z 09006KT 9999 FEW040 BKN250 23/18 A2996 RMK CB DST N HZ DST W NOSIG=
200907241500 METAR MRPV 241500Z 07009KT 9999 FEW030 SCT040 BKN250 25/18 A2998 RMK VEL.MAX.VTO 14KT NOSIG=
200907241600 METAR MRPV 241600Z 07012KT 9999 SCT035 BKN250 24/18 A2998 NOSIG=
200907241700 METAR MRPV 241700Z 08010KT 9999 -RA SCT035 BKN250 23/19 A2997 NOSIG=
200907241800 METAR MRPV 241800Z 07010KT 9999 FEW035 BKN250 25/18 A2995 RERA NOSIG=
200907241900 METAR MRPV 241900Z 09005KT CAVOK 26/18 A2993 RMK FEW130 BKN250 NOSIG=
200907242000 METAR MRPV 242000Z 07009KT 9999 FEW035 BKN250 27/18 A2990 RMK FEW130 NOSIG=
200907242100 METAR MRPV 242100Z 07011KT 9999 SCT030 BKN250 26/18 A2990 NOSIG=
200907242200 METAR MRPV 242200Z 07010KT 9999 FEW030 SCT040 25/19 A2991 RN NW NOSIG=
200907242300 METAR MRPV 242300Z 07006KT 9999 FEW030 SCT040 25/18 A2991 RN NW NOSIG=
200907250000 METAR MRPV 250000Z NIL=
200907250100 METAR MRPV NIL=
200907250200 METAR MRPV NIL=
200907250300 METAR MRPV NIL=
200907250400 METAR MRPV NIL=
200907250500 METAR MRPV NIL=
200907250600 METAR MRPV NIL=
200907250700 METAR MRPV NIL=
200907250800 METAR MRPV NIL=
200907250900 METAR MRPV NIL=
200907251000 METAR MRPV NIL=
200907251100 METAR MRPV NIL=
200907251200 METAR MRPV 251200Z 12006KT 9999 FEW025 BKN250 21/17 A2996 RMK FEW140 NOSIG=
200907251300 METAR MRPV 251300Z 13004KT CAVOK 21/17 A2997 FEW130 BKN250 TRACE SC HZ W NOSIG=
200907251400 METAR MRPV 251400Z 11006KT CAVOK 22/17 A2997 FEW130 BKN250 TRACE SCT HZ W NOSIG=
200907251500 METAR MRPV 251500Z 11007KT 9999 FEW025 BKN250 22/18 A2999 FEW130 NOSIG=
200907251600 METAR MRPV 251600Z 12008KT 9999 FEW025 BKN250 23/18 A2999 TRACE AC NOSIG=
200907251700 METAR MRPV 251700Z 11006KT CAVOK 25/18 A2995 FEW130 BKN250 TRACE SCT NOSIG=
200907251800 METAR MRPV 251800Z 09005KT CAVOK 26/18 AFEW130 OVC250 TRACE SCT NOSIG=
200907251900 METAR MRPV 251900Z 08012KT 9999 FEW040 OVC250 26/18 A2993 FEW130 NOSIG=
200907252000 METAR MRPV 252000Z 08009KT 9999 SCT040 OVC250 26/18 A2993 NOSIG=
200907252100 METAR MRPV 252100Z 24005KT 9999 FEW020 SCT030 BKN250 25/21 A2992 NOSIG=
200907252200 METAR MRPV 252200Z 28008KT 9999 FEW010 SCT020 BKN050 23/21 A2993 NOSIG=
200907252300 METAR MRPV 252300Z 27005KT 6000 3000NE VCFG FEW008 BKN020 22/20 A2996 NOSIG=
200907260000 METAR MRPV NIL=
200907260100 METAR MRPV NIL=
200907260200 METAR MRPV NIL=
200907260300 METAR MRPV NIL=
200907260400 METAR MRPV NIL=
200907260500 METAR MRPV NIL=
200907260600 METAR MRPV NIL=
200907260700 METAR MRPV NIL=
200907260800 METAR MRPV NIL=
200907260900 METAR MRPV NIL=
200907261000 METAR MRPV NIL=
200907261100 METAR MRPV NIL=
200907261200 METAR MRPV 261200Z 13007KT CAVOK 22/16 A2999 RMK TRACE SC AC BKN250 NOSIG=
200907261300 METAR MRPV 261300Z 12004KT CAVOK 23/17 A3000 RMK TRACE SC BKN250 NOSIG=
200907261400 METAR MRPV 261400Z 08012KT 9999 FEW040 BKN250 24/17 A3001 NOSIG=
200907261500 METAR MRPV 261500Z 08011KT 9999 FEW040 BKN250 25/17 A3002 NOSIG=
200907261600 METAR MRPV 261600Z 08011KT 9999 FEW040 BKN250 27/18 A3002 NOSIG=
200907261700 METAR MRPV 261700Z 06013KT 9999 SCT035 BKN250 27/18 A3000 NOSIG=
200907261800 METAR MRPV 261800Z 06012KT 9999 FEW025 SCT035 26/18 A2998 NOSIG=
200907261900 METAR MRPV 261900Z 07011KT 9999 SCT030 28/18 A2996 RMK TRACE CI RAFAGAS 19KT NOSIG=
200907262000 METAR MRPV 262000Z 06012KT 9999 RA FEW020 BKN030 25/19 A2996 RMK RAFAGAS 19KT NOSIG=
200907262100 METAR MRPV 262100Z 07016KT 9999 SCT030 BKN140 23/19 A2995 RMK RN DST N NOSIG=
200907262200 METAR MRPV 262200Z 08012KT 9999 FEW020 SCT030 BKN250 24/18 A2993 RMK RN N NE NOSIG=
200907262300 METAR MRPV 262300Z 07012KT 9999 FEW020 SCT030 BKN150 23/18 A2994 RMK RN N NE NOSIG=
200907270000 METAR MRPV 270000Z 08011KT 9999 FEW020 SCT030 BKN150 23/18 A2995 RMK RN N NE NOSIG=
200907270100 METAR MRPV NIL=
200907270200 METAR MRPV NIL=
200907270300 METAR MRPV NIL=
200907270400 METAR MRPV NIL=
200907270500 METAR MRPV NIL=
200907270600 METAR MRPV NIL=
200907270700 METAR MRPV NIL=
200907270800 METAR MRPV NIL=
200907270900 METAR MRPV NIL=
200907271000 METAR MRPV NIL=
200907271100 METAR MRPV NIL=
200907271200 METAR MRPV NIL=
200907271300 METAR MRPV 271300Z 10015KT 9999 SCT030 22/16 A2999 RMK DU 09 DZ N NE VL MX VTO 22KT NOSIG=
200907271400 METAR MRPV 271400Z 09013KT 9999 SCT035 24/17 A3000 RMK VL MX VTO 19KT DU 09 DZ NE NOSIG=
200907271500 METAR MRPV 271500Z 08015KT 9999 SCT030 24/16 A3001 RMK VL MX VTO 22KT NOSIG=
200907271600 METAR MRPV 271600Z 07016KT 9999 SCT030 25/16 A3000 RMK VL MX VTO 23KT NOSIG=
200907271700 METAR MRPV 271700Z 07016KT 9999 SCT030 26/16 A2998 RMK VL MX VTO 24KT NOSIG=
200907271800 METAR MRPV 271800Z 07008KT 9999 SCT030 26/16 A2996 NOSIG=
200907271900 METAR MRPV 271900Z 06015KT 9999 SCT030 BKN250 27/17 A2994 NOSIG=
200907272000 METAR MRPV 272000Z 07018KT 9999 SCT035 BKN250 27/17 A2993 RMK VL MX VTO 26KT NOSIG=
200907272100 METAR MRPV 272100Z 07017KT 9999 SCT035 BKN250 26/17 A2991 NOSIG=
200907272200 METAR MRPV 272200Z 08014KT 9999 SCT030 BKN250 25/18 A2991 NOSIG=
200907272300 METAR MRPV 272300Z 2723000 07013KT 9999 SCT035 BKN250 24/17 A2992 RMK VEL MAX VTO 20KT NOSIG=
200907272345 METAR MRPV 272345Z 07014KT 9999 SCT030 BKN250 24/16 A2993 VEL MAX VTO 20KT NOSIG=
200907280000 METAR MRPV NIL=
200907280100 METAR MRPV NIL=
200907280200 METAR MRPV NIL=
200907280300 METAR MRPV NIL=
200907280400 METAR MRPV NIL=
200907280500 METAR MRPV NIL=
200907280600 METAR MRPV NIL=
200907280700 METAR MRPV NIL=
200907280800 METAR MRPV NIL=
200907280900 METAR MRPV NIL=
200907281000 METAR MRPV NIL=
200907281100 METAR MRPV NIL=
200907281200 METAR MRPV 281200Z 12015KT CAVOK 21/16 A2993 RMK TRACE SC BKN250 VEL MAX WIND 22 KTS NOSIG=
200907281300 METAR MRPV 281300Z 12011KT CAVOK 22/16 A2995 TRACE SCT BKN250 VEL MAX VTO 18KT NOSIG=
200907281400 METAR MRPV 281400Z 09015KT CAVOK 24/16 A2996 RMK TRACE SC BKN250 VEL MAX VTO 22KT NOSIG=
200907281500 METAR MRPV 281500Z 08016KT 9999 FEW040 BKN250 24/16 A2997 RMK DUST APCH RNY 09 NOSIG=
200907281600 METAR MRPV 281600Z 08014KT 9999 FEW040 BKN250 26/17 A2995 RMK DUST APCH RNY 09 NOSIG=
200907281700 METAR MRPV 281700Z 07014KT 9999 FEW040 BKN250 26/17 A2995 RMK DUST APCH 09 NOSIG=
200907281800 METAR MRPV 281800Z 09015KT 9999 SCT035 SCT250 27/17 A2993 RMK VEL MAX VTO 22KT NOSIG=
200907281900 METAR MRPV 281900Z 07012KT 9999 SCT030 27/18 A2990 NOSIG=
200907282000 METAR MRPV 282000Z 06008KT 9999 SCT035 BKN250 27/18 A2989 VEL MAX VTO 16KT NOSIG=
200907282100 METAR MRPV 282100Z 08013KT 9999 SCT030 BKN250 27/18 A2988 RMK VEL. MAX.VTO 18KT NOSIG=
200907282200 METAR MRPV 282200Z 08011KT 9999 SCT030 BKN250 27/18 A2988 NOSIG=
200907282300 METAR MRPV 282300Z 07010KT 9999 SCT025 BKN250 26/18 A2990 NOSIG=
200907290000 METAR MRPV NIL=
200907290100 METAR MRPV NIL=
200907290200 METAR MRPV NIL=
200907290300 METAR MRPV NIL=
200907290400 METAR MRPV NIL=
200907290500 METAR MRPV NIL=
200907290600 METAR MRPV NIL=
200907290700 METAR MRPV NIL=
200907290800 METAR MRPV NIL=
200907290900 METAR MRPV NIL=
200907291000 METAR MRPV NIL=
200907291100 METAR MRPV NIL=
200907291200 METAR MRPV 291200Z 10006KT 9999 FEW030 BKN250 21/17 A2995 RMK DU 09 DZ N NOSIG=
200907291300 METAR MRPV 291300Z 12005KT 9999 SCT030 BKN250 22/17 A2995 RMK CB DST SW POLVO APROXIMACION PISTA 09 NOSIG=
200907291400 METAR MRPV 291400Z 12007KT 9999 SCT030 24/18 A2995 RMK CB DST SW POLVO APROXIMACION PISTA 09 NOSIG=
200907291500 METAR MRPV 291500Z 09010KT 9999 SCT030 26/18 A2995 RMK CB DST N W POLVO APROXIMACION PISTA 09 NOSIG=
200907291600 METAR MRPV 291600Z 06012KT 9999 SCT040 27/18 A2995 NOSIG=
200907291700 METAR MRPV 291700Z 08013KT 9999 SCT030 SCT120 26/18 A2994 NOSIG=
200907291800 METAR MRPV 291800Z 08009KT 9999 -RA SCT025 BKN040 27/18 A2992 RASH NE TEMPO BKN020=
200907291900 METAR MRPV NIL=
200907292000 METAR MRPV 292000Z 09011KT 9999 SCT030 BKN100 26/18 A2990 RN AMD RASH NE DIST NOSIG=
200907292100 METAR MRPV 292100Z 07008KT 9999 SCT025 BKN120 26/18 A2989 RASH W NW NOSIG=
200907292200 METAR MRPV 292200Z 00000KT 9999 SCT020 BKN100 26/18 A2989 NOSIG=
200907292300 METAR MRPV 292300Z 08010KT 9999 SCT020 BKN100 25/18 A2991 NOSIG=
200907300000 METAR MRPV 300000Z 00000KT 9999 BKN030 SCT100 24/18 A2993 TEMPO CAVOK=
200907300100 METAR MRPV 300100Z 11004KT 9999 SCT030 BKN100 23/18 A2995 LTNG S TEMPO CAVOK=
200907300200 METAR MRPV 300200Z 10004KT 9999 FEW025 BKN100 23/18 A2996 TRAZAS ST=
200907300300 METAR MRPV NIL=
200907300400 METAR MRPV NIL=
200907300500 METAR MRPV NIL=
200907300600 METAR MRPV NIL=
200907300700 METAR MRPV NIL=
200907300800 METAR MRPV NIL=
200907300900 METAR MRPV NIL=
200907301000 METAR MRPV NIL=
200907301100 METAR MRPV NIL=
200907301200 METAR MRPV 301200Z 13004KT CAVOK 21/17 A2995 RMK TRACE SC BKN100 SCT250 CB DST N NE SW NOSIG=
200907301300 METAR MRPV 301300Z 10006KT 9999 FEW035 BKN100 22/17 A2996 RMK CB DST N/NE/SW NOSIG=
200907301400 METAR MRPV 301400Z 12008KT 9999 FEW035 BKN250 25/18 A2997 CB N NE SW MAX/ WIND 14KT=
200907301500 METAR MRPV 301500Z 08004KT 9999 FEW035 BKN250 26/18 A2998 CB NE TRAZAS AC CC NOSIG=
200907301600 METAR MRPV NIL=
200907301700 METAR MRPV 301700Z 00000KT 5000 -RA VCSH FEW015TCU BKN030 22/20 A3002 VSBY S UNL TS SW=
200907301800 METAR MRPV 301800Z 00000KT 8000 -RA SCT020 BKN100 21/20 A2999 VSBY W 6KM TEMPO UNL=
200907301900 METAR MRPV 301900Z 12006KT 9999 -RA OVC100 22/19 A2996 TRAZAS SCT/ST TEMPO CAVOK=
200907302000 METAR MRPV 302000Z 14003KT 9999 VCFG FEW005 SCT090 BKN120 24/18 A2995 RERA VSBY W 6KM NOSIG=
200907302100 METAR MRPV 302100Z 28005KT 9999 VCFG FEW004 SCT120 BKN250 23/20 A2994 RMK VIS SW W NW 6000 RAFAGAS 10KT TEMPO 5000 BR SCT004=
200907302200 METAR MRPV 302200Z 28008KT 6000 VCFG FEW003 SCT015 BKN250 23/20 A2993 RMK VIS SE UNL TEMPO 4000 BR=
200907302300 METAR MRPV 302300Z 00000KT 9999 VCFG FEW006 OVC120 22/20 A2994 RMK VIS SW NE 7000 TEMPO -RA=
200907302345 METAR MRPV 302345Z 28003KT 6000 -RA VCFG FEW005 SCT018 BKN120 22/20 A2996 RMK VIS S SE UNL TEMPO 4000 BR=
200907310000 METAR MRPV NIL=
200907310100 METAR MRPV NIL=
200907310200 METAR MRPV NIL=
200907310300 METAR MRPV NIL=
200907310400 METAR MRPV NIL=
200907310500 METAR MRPV NIL=
200907310600 METAR MRPV NIL=
200907310700 METAR MRPV NIL=
200907310800 METAR MRPV NIL=
200907310900 METAR MRPV NIL=
200907311000 METAR MRPV NIL=
200907311100 METAR MRPV NIL=
200907311200 METAR MRPV 311200Z 14005KT CAVOK 20/16 A3000 RMK TRACE SC SCT120 SCT250=
200907311300 METAR MRPV 311300Z 12005KT CAVOK 23/17 A3000 SCT120 TRAZAS CI NOSIG=
200907311400 METAR MRPV 311400Z 11008KT CAVOK 24/17 A3001 RMK TRAZAS SC/AC SCT250 NOSIG=
200907311500 METAR MRPV 311500Z 10006KT CAVOK 26/17 A3003 RMK TRAZAS SC FEW140 SCT250=
200907311600 METAR MRPV 311600Z 29003KT CAVOK 28/17 A3002 RMK TRACE CU SCT250 NOSIG=
200907311700 METAR MRPV 311700Z 28008KT 9999 FEW030 SCT250 26/20 A3001 RMK VEL MAX WIND 13 KTS=
200907311800 METAR MRPV 311800Z 28007KT 9999 FEW020TCU FEW035 SCT250 27/20 A3000 TEMPO 8000 VCSH=
200907311900 METAR MRPV NIL=
200907312000 METAR MRPV 312000Z 00000KT 9999 VCSH FEW015TCU BKN025 21/18 A2999 RERA RMK VIS W 6 KM=
200907312100 METAR MRPV 312100Z 00000KT 9999 SCT030 BKN100 22/19 A2997 RMK RASH DST W RN DST E NOSIG=
200907312200 METAR MRPV 312200Z 27003KT 8000 VCFG FEW010 SCT030 BKN100 22/19 A2999 RMK RN SCT ARND V CHECK TEXT NEW ENDING ADDED KATLYTAA=
200907312300 METAR MRPV 312300Z 00000KT 7000 VCFG FEW008 BKN020 21/19 A2999 RERA RMKTEMPO 5000 BR BKN010=
200908010000 METAR MRPV 010000Z NIL=
200908010100 METAR MRPV NIL=
200908010200 METAR MRPV NIL=
200908010300 METAR MRPV NIL=
200908010400 METAR MRPV NIL=
200908010500 METAR MRPV NIL=
200908010600 METAR MRPV NIL=
200908010700 METAR MRPV NIL=
200908010800 METAR MRPV NIL=
200908010900 METAR MRPV NIL=
200908011000 METAR MRPV NIL=
200908011100 METAR MRPV NIL=
200908011200 METAR MRPV 011200Z 12006KT 9999 FEW030 BKN250 21/17 A2998 NOSIG=
200908011300 METAR MRPV 011300Z 12006KT 9999 SCT030 BKN250 22/17 A3000 RMK VL VTO MX 13KT DZ DST NE NOSIG=
200908011400 METAR MRPV 011400Z 10009KT 9999 SCT030 BKN250 23/18 A3001 RMK VL MX VTO 14KT DZ DST NE NOSIG=
200908011500 METAR MRPV 011500Z 08009KT 9999 FEW035 BKN250 25/18 A3001 NOSIG=
200908011600 METAR MRPV 011600Z 06009KT 9999FEW030 BKN250 27/18 A3000 NOSIG=
200908011700 METAR MRPV 011700Z 07009KT 9999 BKN040 SCT300 26/18 A2999 RMK VL MX VTO 15KT DZ DST N NE NOSIG=
200908011800 METAR MRPV 011800Z 05010KT 9999 BKN035 27/19 A2997 RMK RN DST W N TCU DST SE S VL MX VTO 17KT NOSIG=
200908011900 METAR MRPV 011900Z 07009KT 9999 BKN035 27/18 A2995 RMK CB DST N TCU DST S SE NW VL MX VTO 14KT NOSIG=
200908012000 METAR MRPV 012000Z 07011KT 9999 FEW040 SCT120 BKN250 28/22 A2993 RMK CB DARH NW NOSIG=
200908012100 METAR MRPV 012100Z 07010KT 9999 VCFG FEW006 BKN250 27/18 A2991 RMK FEW040 VEL MAX VTO 18KT VIS W 7KMS CB DST NE SE DZ N NOSIG=
200908012200 METAR MRPV 012200Z 30004KT 9999 VCFG FEW008 SCT035 BKN250 25/21 A2991 RMK VIS W 7KMS CB DST NE TCU DST SW TEMPO 8000=
200908012300 METAR MRPV 012300Z 00000KT 9999 -RA VCFG FEW006 SCT020 BKN250 24/20 A2993 VIS NW 6KMS TEMPO 8000=
200908020000 METAR MRPV NIL=
200908020100 METAR MRPV NIL=
200908020200 METAR MRPV NIL=
200908020300 METAR MRPV NIL=
200908020400 METAR MRPV NIL=
200908020500 METAR MRPV NIL=
200908020600 METAR MRPV NIL=
200908020700 METAR MRPV NIL=
200908020800 METAR MRPV NIL=
200908020900 METAR MRPV NIL=
200908021000 METAR MRPV NIL=
200908021100 METAR MRPV NIL=
200908021200 METAR MRPV 021200Z 09016KT 9999 FEW035 SCT120 BKN250 22/16 A2994 RMK DZ DST NE VEL.MAX.VTO 22KT NOSIG=
200908021300 METAR MRPV 021300Z 10013KT 9999 FEW030 SCT120 BKN250 22/16 A2995 RMK VEL.MAX.VTO 19KT NOSIG=
200908021400 METAR MRPV 021400Z 09016KT 9999 FEW030 BKN250 23/16 A2996 RMK VEL.MAX.VTO 25KT NOSIG=
200908021500 METAR MRPV 021500Z 08016KT 9999 FEW030 BKN250 24/16 A2998 NOSIG=
200908021600 METAR MRPV 021600Z 07016KT 9999 FEW030 BKN250 25/16 A29996 RMK VEL.MAX.VTO 24KT NOSIG=
200908021700 METAR MRPV 021700Z 08016KT 9999 FEW030 BKN250 26/17 A2997 RMK VEL.MAX.VTO 25KT NOSIG=
200908021800 METAR MRPV 021800Z 06017KT 9999 SCT030 BKN250 25/17 A2997 RMK VEL MAX.=
200908021900 METAR MRPV 021900Z 07016KT 9999 SCT030 BKN120 24/17 A2996 RMK DZ DST NE E NOSIG=
200908022000 METAR MRPV 022000Z 07014KT 9999 SCT025 BKN250 24/17 A2993 RMK DZ DST N NE NOSIG=
200908022100 METAR MRPV 022100Z 07014KT 9999 FEW030 BKN120 25/16 A2991 NOSIG=
200908022200 METAR MRPV 022200Z 08016KT 9999 FEW030 BKN250 24/16 A2990 NOSIG=
200908022300 METAR MRPV 022300Z 09016KT 9999 FEW025 BKN250 23/17 A2990 RMK DZ NE VEL MAX VTO 22KT NOSIG=
200908022345 METAR MRPV 022345Z 10013KT 9999 FEW025 BKN250 23/17 A2991 NOSIG=
200908030000 METAR MRPV NIL=
200908030100 METAR MRPV NIL=
200908030200 METAR MRPV NIL=
200908030300 METAR MRPV NIL=
200908030400 METAR MRPV NIL=
200908030500 METAR MRPV NIL=
200908030600 METAR MRPV NIL=
200908030700 METAR MRPV NIL=
200908030800 METAR MRPV NIL=
200908030900 METAR MRPV NIL=
200908031000 METAR MRPV NIL=
200908031100 METAR MRPV NIL=
200908031200 METAR MRPV 031200Z 09014KT 9999 FEW020 BKN250 22/17 A2994 RMK VL MX VTO 20KT DZ NE NOSIG=
200908031300 METAR MRPV 031300Z 10012KT 9999 SCT020 BKN250 22/18 A2996 RMK DZ DST NE NOSIG=
200908031400 METAR MRPV 031400Z 09009KT 9999 SCT020 BKN120 23/18 A2998 RMK DZ DST N NE NOSIG=
200908031500 METAR MRPV 031500Z 09011KT 9999 SCT020 BKN120 24/18 A2998 NOSIG=
200908031600 METAR MRPV 031600Z 09014KT 9999 SCT030 BKN120 25/18 A2998 RMK VEL.MAX VTO 20KT NOSIG=
200908031700 METAR MRPV 031700Z 07014KT 9999 SCT025 BKN120 25/18 A2997 RMK VEL.MAX.VTO 20KT NOSIG=
200908031800 METAR MRPV 031800Z 06011KT 9999 SCT020 OVC100 26/19 A2995 RMK VEL.MAX.VTO 20KT NOSIG=
200908031900 METAR MRPV 031900Z 07014KT 9999 SCT020 BKN100 27/19 A2992 RMK DZ DST NE VEL.MAX.VTO 21KT TEMPO BKN020=
200908032000 METAR MRPV 032000Z 06011KT 9999 SCT020 BKN100 26/19 A2991 RMK VEL.MAX.VTO 17KT TEMPO BKN020=
200908032100 METAR MRPV 032100Z 08012KT 9999 SCT020 BKN100 26/19 A2988 NOSIG=
200908032200 METAR MRPV 032200Z 07012KT 9999 SCT020 BKN100 25/19 A2988 DZ NE NOSIG=
200908032300 METAR MRPV 032300Z 08015KT 9999 SCT020 BKN100 23/19 A2989 DZ NE NOSIG=
200908040000 METAR MRPV 040000Z NIL=
200908040100 METAR MRPV NIL=
200908040200 METAR MRPV NIL=
200908040300 METAR MRPV NIL=
200908040400 METAR MRPV NIL=
200908040500 METAR MRPV NIL=
200908040600 METAR MRPV NIL=
200908040700 METAR MRPV NIL=
200908040800 METAR MRPV NIL=
200908040900 METAR MRPV NIL=
200908041000 METAR MRPV NIL=
200908041100 METAR MRPV NIL=
200908041200 METAR MRPV 041200Z 11006KT 9999 FEW020 SCT120 BKN250 22/18 A2995 PCPN DST N CB DST S SW=
200908041300 METAR MRPV 041300Z 09010KT 9999 FEW020 SCT120 BKN250 23/18 A2996 RN N CB SW NOSIG=
200908041400 METAR MRPV 041400Z 10013KT 9999 FEW020 SCT120 BKN250 25/19 A2995 RN N CB SW MAX WIND 18KT NOSIG=
200908041500 METAR MRPV 041500Z 10012G22KT 9999 FEW020 SCT120 BKN250 26/19 A2997 RN N NOSIG=
200908041600 METAR MRPV 041600Z 08015G25KT 9999 FEW020 SCT120 BKN250 26/19 A2996 RN N NOSIG=
200908041700 METAR MRPV 041700Z 08012G22KT 9999 FEW020 SCT120 BKN250 26/18 A2994 RN NOSIG=
200908041800 METAR MRPV 041800Z 07012G22KT 9999 FEW020 BKN250 26/18 A2994 RN N NOSIG=
200908041900 METAR MRPV 041900Z 07010G20KT 9999 FEW020 BKN250 27/19 A2992 RN N NENSIG=
200908042000 METAR MRPV 042000Z 08010G20KT 9999 FEW020 BKN250 26/18 A2992 RN N NOSIG=
200908042100 METAR MRPV 042100Z 08010G20KT 9999 -RA SCT020 SCT120 23/18 A2989 NOSIG=
200908042200 METAR MRPV 042200Z 08010G20KT 9999 FEW020 SCT120 BKN250 23/18 A2989 RMK RN CUADRANTE N NOSIG=
200908042300 METAR MRPV 042300Z 08010G20KT 9999 FEW015 SCT120 BKN250 23/18 A2990 RMK RN N NE NOSIG=
200908050000 METAR MRPV NIL=
200908050100 METAR MRPV NIL=
200908050200 METAR MRPV NIL=
200908050300 METAR MRPV NIL=
200908050400 METAR MRPV NIL=
200908050500 METAR MRPV NIL=
200908050600 METAR MRPV NIL=
200908050700 METAR MRPV NIL=
200908050800 METAR MRPV NIL=
200908050900 METAR MRPV NIL=
200908051000 METAR MRPV NIL=
200908051100 METAR MRPV NIL=
200908051200 METAR MRPV 051200Z 12008KT CAVOK 21/17 A2991 RMK TRACE SC SCT090 BKN120=
200908051300 METAR MRPV 051300Z 12009G19KT 9999 FEW035 SCT090 BKN120 22/18 A2994 RMK RN DST N NW NE TEMPO -RA=
200908051400 METAR MRPV 051400Z 1206KT CAVOK 23/18 A2994 RMK TRACE SC SCT090 BKN120 TEMPO -RA=
200908051500 METAR MRPV 051500Z 11013KT CAVOK 23/18 A2993 RMK TRACE SC SCT090 BKN120 RAFA GAS 19KT TEMPO -RA=
200908051600 METAR MRPV 051600Z 08007KT 9999 FEW035 OVC120 24/18 A2998 RMK RAFAGAS 14KT NOSIG=
200908051700 METAR MRPV 051700Z 08005KT 9999 SCT035 BKN120 25720 A2998 NOSIG=
200908051800 METAR MRPV 051800Z 08005KT 9999 SCT035 BKN120 25/18 A2997 NOSIG=
200908051900 METAR MRPV 051900Z 98994KT 9999 BKN040 SCT120 26/18 A2996 RMK VIS NE 8000MTS TEMPO -RA=
200908052000 METAR MRPV 052000Z 26004KT 9999 VCSH FEW004 SCT035 BKN120 24/19 A2994 RMK VIS W NW 6000 TEMPO 8000=
200908052100 METAR MRPV 052100Z 30006KT 8000 VCSH FEW005 FEW015TCU BKN120 23/21 A2993 RMK VIS E SE SW UNL TEMPO 5000 RA BKN015=
200908052200 METAR MRPV 052200Z 29004KT 9999 VCSH FEW015TCU SCT030 BKN120 23/19 A2993 RMK VIS E SE 7000 NOSIG=
200908052300 METAR MRPV 052300Z 30002KT 9999 -RA BKN030 SCT100 22/18 A2994 NOSIG=
200908060000 METAR MRPV NIL=
200908060100 METAR MRPV NIL=
200908060200 METAR MRPV NIL=
200908060300 METAR MRPV NIL=
200908060400 METAR MRPV NIL=
200908060500 METAR MRPV NIL=
200908060600 METAR MRPV NIL=
200908060700 METAR MRPV NIL=
200908060800 METAR MRPV NIL=
200908060900 METAR MRPV NIL=
200908061000 METAR MRPV NIL=
200908061100 METAR MRPV NIL=
200908061200 METAR MRPV 061200Z 10013KT CAVOK 22/18 A2994 TRAZAS SCT SCT100 SCT250 MAX/ WIND 18KT NOSIG=
200908061300 METAR MRPV 061300Z 12009KT CAVOK 22/18 A2997 RMK TRACE SC CI BKN VL MX 14KT NOSIG=
200908061400 METAR MRPV 061400Z 10010KT CAVOK 23/18 A2999 RMK TRACE SC BKN090 VL MX VTO N0SIG=
200908061500 METAR MRPV 061500Z 09013KT CAVOK 23/18 A3001 RMK TRACE SC SCT080 BKN100 RN DST NW TEMPO -RA=
200908061600 METAR MRPV 061600Z 08012KT CAVOK 24/18 A3002 RMK TRACE SC SCT080 BKN100 RN DST NE TEMPO -RA=
200908061700 METAR MRPV 061700Z 10009KT 9999 FEW040 BKN100 26/18 A3000 RMK RN DST NW NE NOSIG=
200908061800 METAR MRPV 061800Z 07019G29KT 9999 3000E RA SCT015TCU BKN030 22/18 A2999 TEMPO 5000=
200908061900 METAR MRPV 061900Z 08005KT 8000 3500W -RA VCSH FEW015TCU FEW035 BKN100 20/17 A2999 TEMPO 24005=
200908062000 METAR MRPV 062000Z 10009KT 9999 +DZ SCT030 BKN100 22/19 A2996 RMK RASH DST W VL MX VTO 14KT NOSIG=
200908062100 METAR MRPV 062100Z 10007KT 9999 BKN025 SCT100 22/18 A2996 REDZ RMK RASH DST W DZ DST NE TEMPO 24006=
200908062200 METAR MRPV 062200Z 00000KT 9999 BKN025 SCT100 22/17 A2996 RMK RASH SE TEMPO 24005KT=
200908062300 METAR MRPV 062300Z 13005KT 9999 FEW030 SCT080 BKN100 21/18 A2997 RMK VEL MAX VTO 10KT RN E SE TEMPO -RA=
200908070000 METAR MRPV NIL=
200908070100 METAR MRPV NIL=
200908070200 METAR MRPV NIL=
200908070300 METAR MRPV NIL=
200908070400 METAR MRPV NIL=
200908070500 METAR MRPV NIL=
200908070600 METAR MRPV NIL=
200908070800 METAR MRPV NIL=
200908070900 METAR MRPV NIL=
200908071000 METAR MRPV NIL=
200908071100 METAR MRPV NIL=
200908071200 METAR MRPV 071200Z 12011KT CAVOK 21/16 A2997 RMK TRACE SC FEW120 SCT250 VEL MAX WIND 17 KTS NOSIG=
200908071300 METAR MRPV 071300Z 12009G19KT CAVOK 22/16 A3000 TRACE SCT CI BKN120 NOSIG=
200908071400 METAR MRPV 071400Z 11009KT CAVOK 23/17 A3003 RMK TRACE SC CI BKN120 DZ DST NE NOSIG=
200908071500 METAR MRPV 071500Z 09011KT 9999 FEW030 24/17 A3003 RMK FEW120 DZ NE NOSIG=
200908071600 METAR MRPV 071600Z 09012KT 9999 SCT035 BKN120 25/17 A3004 RMK RN DST NE TCU NW DST VEL MAX VTO 18KT NOSIG=
200908071700 METAR MRPV 071700Z 07011KT 9999 SCT030 BKN120 26/17 A3003 RMK RN DST NE NOSI G=
200908071800 METAR MRPV 071800Z 07009KT 9999 BKN035 SCT100 24/17 A3002 RMK RN DST NE E VEL MAX VTO 14KT TEMPO -RA=
200908071900 METAR MRPV 071900Z 07007KT 9999 BKN035 SCT100 25/18 A2999 RMK DZ N E QDS NOSIG=
200908072000 METAR MRPV 072000Z 06008KT 9999 DZ BKN030 SCT100 24/16 A2998 RMK RN DST E NE VEL MAX VTO 13KT TEMPO 8000=
200908072100 METAR MRPV 072100Z 13004KT 5000 BR VCSH FEW005 SCT015CB BKN030 23/18 A2998 REDZ VIS 9999 NE SW TEMPO 24006KT BKN010=
200908072200 METAR MRPV 072200Z 00000KT 9999 4000W -RA BR FEW003 SCT030 BKN100 22/19 A2998 NOSIG=
200908072300 METAR MRPV 072300Z 29006KT 3500 BR SCT002 BKN012 21/20 A2999 RMK VIS 9999 SE NOSIG=
200908080000 METAR MRPV NIL=
200908080100 METAR MRPV NIL=
200908080200 METAR MRPV NIL=
200908080300 METAR MRPV NIL=
200908080400 METAR MRPV NIL=
200908080500 METAR MRPV NIL=
200908080600 METAR MRPV NIL=
200908080700 METAR MRPV NIL=
200908080800 METAR MRPV NIL=
200908080900 METAR MRPV NIL=
200908081000 METAR MRPV NIL=
200908081100 METAR MRPV NIL=
200908081200 METAR MRPV 081200Z 11009KT CAVOK 21/16 A3002 RMK TRACE SC BKN120 CB DST SW W NOSIG=
200908081300 METAR MRPV 081300Z 10012KT CAVOK 21/17 A3003 RMK TRACE SC BKN120 CB DST W NOSIG=
200908081400 METAR MRPV 081400Z 09012KT 9999 SCT040 BKN120 22/17 A3005 RMK POLVO APROXIMACION PISTA 09 NOSIG=
200908081500 METAR MRPV 081500Z 10011KT 9999 SCT040 BKN120 24/17 A3006 RMK POLVO APROXIMACION PISTA 09 NOSIG=
200908081600 METAR MRPV 081600Z 08011KT 9999 SCT035 BKN120 24/17 A3006 NOSIG=
200908081700 METAR MRPV 081700Z 08009KT 9999 SCT035 BKN120 25/17 A3005 NOSIG=
200908081800 METAR MRPV 081800Z 09012KT 9999 SCT030 BKN120 26/18 A3004 NOSIG=
200908081900 METAR MRPV 081900Z 06010KT 9999 SCT030 BKN100 26/18 A3001 NOSIG=
200908082000 METAR MRPV 082000Z 06006KT 9999 SCT025 BKN100 27/17 A2999 NOSIG=
200908082100 METAR MRPV 082100Z 12007KT 9999 SCT020 BKN100 25/20 A2998 TCU RN N TEMPO BKN020=
200908082200 METAR MRPV 082200Z 29005KT 9999 SCT020TCU BKN100 24/20 A2998 TEMPO BKN020=
200908090000 METAR MRPV 090000Z NIL=
200908090100 METAR MRPV NIL=
200908090200 METAR MRPV NIL=
200908090400 METAR MRPV NIL=
200908090500 METAR MRPV NIL=
200908090600 METAR MRPV NIL=
200908090700 METAR MRPV NIL=
200908090800 METAR MRPV NIL=
200908090900 METAR MRPV NIL=
200908091000 METAR MRPV NIL=
200908091100 METAR MRPV NIL=
200908091200 METAR MRPV 091200Z 10011KT 9999 FEW020 SCT040 BKN100 20/17 A3002 VEL MAX VTO 18KT TEMPO CAVOK=
200908091300 METAR MRPV NIL=
200908091400 METAR MRPV 091400Z 10013KT 9999 FEW020 SCT100 BKN250 22/17 A3003 MAX=
200908091500 METAR MRPV 091500Z 09012KT 9999 FEW030 SCT120 BKN250 23/18 A3005 NOSIG=
200908091600 METAR MRPV 091600Z 06011KT 9999 FEW025 BKN250 24/18 A3004 NOSIG=
200908091700 METAR MRPV 091700Z 07011KT 9999 SCT030 BKN120 24/18 A3004 DZ NE NOSIG=
200908091800 METAR MRPV 091800Z 08009KT 999 -RA SCT020 BKN100 22/18 A3004 TEMPO BKN020 RA=
200908091900 METAR MRPV 091900Z 09007KT 9999 -RA SCT020 OVC100 21/19 A3001 NOSIG=
200908092000 METAR MRPV 092000Z 10007KT 9999 -RA SCT020 OVC100 20/18 A3000 NOSIG=
200908092100 METAR MRPV 092100Z 11006KT 9999 SCT020 OVC100 22/18 A3000 RERA NOSIG=
200908092200 METAR MRPV 092200Z 00000KT 9999 SCT040 OVC100 22/18 A2998 NOSIG=
200908092300 METAR MRPV 092300Z 11003KT CAVOK 23/17 A2999 RMK TRACE SC OVC120 NOSIG=
200908100000 METAR MRPV NIL=
200908100100 METAR MRPV NIL=
200908100200 METAR MRPV NIL=
200908100300 METAR MRPV NIL=
200908100500 METAR MRPV NIL=
200908100600 METAR MRPV NIL=
200908100700 METAR MRPV NIL=
200908100800 METAR MRPV NIL=
200908100900 METAR MRPV NIL=
200908101000 METAR MRPV NIL=
200908101100 METAR MRPV NIL=
200908101200 METAR MRPV 101200Z 11010KT 9999 FEW025 SCT120 BKN250 20/17 A3001 NOSIG=
200908101300 METAR MRPV 101300Z 09014KT 9999 FEW020 SCT120 BKN250 21/16 A302 NOSIG=
200908101400 METAR MRPV 101400Z 11013KT 9999 SCT020 BKN100 21/17 A3004 RMK FU SW DU APROXIMACION 09 NOSIG=
200908101500 METAR MRPV 101500Z 10011KT 9999 SCT025 BKN100 22/17 A3006 RMK DZ N NE DU APROXIMACION 09 NOSIG=
200908101600 METAR MRPV 101600Z 10013KT 9999 SCT020 BKN100 22/17 A3005 RMK DZ E NOSIG=
200908101700 METAR MRPV 101700Z 07013KT 9999 SCT020 BKN100 23/17 A3004 RMK DZ NE NOSIG=
200908101800 METAR MRPV 101800Z 08014KT 9999 SCT020 BKN120 22/16 A3003 NOSIG=
200908101900 METAR MRPV 101900Z 08006KT 9999 SCT025 BKN100 23/16 A3002 NOSIG=
200908102000 METAR MRPV 102000Z 08012KT 9999 SCT025 BKN100 24/16 A2999 NOSIG=
200908102100 METAR MRPV 102100Z 07014KT 9999 SCT020 BKN100 23/17 A2998 NOSIG=
200908102200 METAR MRPV 102200Z 08016KT 9999 SCT025 BKN100 22/17 A2997 RMK DZ N NOSIG=
200908102300 METAR MRPV 102300Z 08012KT 9999 SCT020 BKN120 22/16 A2999 NOSIG=
200908110000 METAR MRPV 110000Z 08012KT 9999 SCT020 BKN120 22/16 A2999 RMK DZ N NOSIG=
200908110100 METAR MRPV NIL=
200908110200 METAR MRPV NIL=
200908110300 METAR MRPV NIL=
200908110400 METAR MRPV NIL=
200908110600 METAR MRPV NIL=
200908110700 METAR MRPV NIL=
200908110800 METAR MRPV NIL=
200908110900 METAR MRPV NIL=
200908111000 METAR MRPV NIL=
200908111100 METAR MRPV NIL=
200908111200 METAR MRPV 111200Z 12008KT 9999 NSC 20/16 A2998 TRACE SCT/AC/CI MAX/=
200908111300 METAR MRPV 111300Z 12009KT 9999 NSC 22/17 A3000 RMK TRACE CU CI NOSIG=
200908111400 METAR MRPV 111400Z 10011KT 9999 NSC 24/17 A3001 RMK TRACE CU AC CI VL MX VTO 17KT NOSIG=
200908111500 METAR MRPV 111500Z 09010KT 9999 NSC 25/17 A3001 RMK TRACE CU CI VL MX VTO 16KT NOSIG=
200908111600 METAR MRPV 111600Z 08018KT CAVOK 25/18 A3000 RMK FEW250 TRACE CU AC VL MX VTO 25KT=
200908111700 METAR MRPV 111700Z 08010KT 9999 FEW045 SCT250 28/18 A2999 RMK TRACE AC VL MX VTO 19KT NOSIG=
200908111800 METAR MRPV 111800Z 07013KT 9999 FEW035 27/18 A2998 RMK FEW250 VL MX VTO 18KT NOSIG=
200908111900 METAR MRPV 111900Z 06011KT 9999 SCT040 28/18 A2996 RMK VL MX VTO 16KT NOSIG=
200908112000 METAR MRPV 112000Z 08013KT 9999 FEW020 BKN040 28/18 A2994 RMK CB DST S TCU DST W VL MX VTO 18KT NOSIG=
200908112100 METAR MRPV 112100Z 06012KT 9999 -RA FEW015TCU BKN035 26/18 A2994 TEMPO 8000 VCSH=
200908112200 METAR MRPV 112200Z 11010KT 7000 RA VCSH FEW010CB SCT015TCU BKN030 23/19 A2994 RMK VIS S UNL VEL MAX VTO 16KT TEMPO 5000=
200908112300 METAR MRPV 112300Z 11005KT 9999 -RA VCSH FEW010TCU SCT025 BKN100 22/19 A2998 RMK WET RWY VIS WSW 7KMS TS DST W NOSIG=
200908120000 METAR MRPV NIL=
200908120100 METAR MRPV NIL=
200908120200 METAR MRPV NIL=
200908120300 METAR MRPV NIL=
200908120400 METAR MRPV NIL=
200908120500 METAR MRPV NIL=
200908120600 METAR MRPV NIL=
200908120700 METAR MRPV NIL=
200908120800 METAR MRPV NIL=
200908120900 METAR MRPV NIL=
200908121000 METAR MRPV NIL=
200908121100 METAR MRPV NIL=
200908121200 METAR MRPV NIL=
200908121300 METAR MRPV 121300Z 10011KT CAVOK 22/18 A2998 TRACE CI SCT AC FEW250 VEL MAX VTO 16KT NOSIG=
200908121400 METAR MRPV 121400Z 10010KT CAVOK 24/18 A3000 TRACE CU CI SCT120 VEL MAX VTO 16KT DZ DST NE NOSIG=
200908121500 METAR MRPV 121500Z 07014KT 9999 FEW030 SCT300 25/18 A3000 RMK DZ DST NE VEL MAX VTO 22KT NOSIG=
200908121600 METAR MRPV 121600Z 06013KT 9999 FEW035 26/18 A3000 TRACE AC CI VEL MAX VTO 20KT NOSIG=
200908121700 METAR MRPV 121700Z 06014KT 9999 SCT035 27/18 A2999 RMK VEL MAX VTO 20KT NOSI G=
200908121800 METAR MRPV 121800Z 06013KT 9999 BKN040 27/18 A2998 RMK VEL MAX VTO 18KT NOSIG=
200908121900 METAR MRPV 121900Z 07013KT 9999 BKN035 27/18 A2996 RMK VEL MAX VTO 19KT NOSI G=
200908122000 METAR MRPV NIL=
200908122100 METAR MRPV 122100Z 07011KT 9999 FEW045 SCT300 28/17 A2992 RMK VEL. MAX.VTO 18KT CB DST SW W NOSIG=
200908122200 METAR MRPV 122200Z 08014KT 9999 FEW040 BKN300 27/17 A2992 RMK TCU DST SW VEL.MAX.VTO 20KT NOSIG=
200908122300 METAR MRPV 122300Z 09010KT 9999 FEW045 BKN300 26/17 A2993 RMK TCU DST SW VEL.MAX.VTO 16KT NOSIG=
200908130000 METAR MRPV NIL=
200908130100 METAR MRPV NIL=
200908130200 METAR MRPV NIL=
200908130300 METAR MRPV NIL=
200908130400 METAR MRPV NIL=
200908130500 METAR MRPV NIL=
200908130600 METAR MRPV NIL=
200908130700 METAR MRPV NIL=
200908130800 METAR MRPV NIL=
200908130900 METAR MRPV NIL=
200908131100 METAR MRPV NIL=
200908131200 METAR MRPV 131200Z 1404KT CAVOK 21/17 A2985 RMK TRACE SC SCT250 CB DST NW NOSIG=
200908131300 METAR MRPV 131300Z 12009KT CAVOK 23/17 A2999 RMK TRACE CU SC CB DST SW BKN250 NOSIG=
200908131400 METAR MRPV 131400Z 11006KT CAVOK 24/17 A3000 RMK TRACE CU BKN250 CB DST N NOSIG=
200908131500 METAR MRPV 131500Z 08010KT CAVOK 26/16 A3001 RMK TRACE CU BKN250 CB DST N VEL.MAX.VTO 15KT NOSIG=
200908131600 METAR MRPV 131600Z 07009KT CAVOK 27/17 A2999 RMK TRACE CU BKN250 TCU DST SW VEL.MAX.VTO 14KT NOSIG=
200908131700 METAR MRPV 131700Z 06011KT CAVOK 28/17 A2997 RMK TRACE CU BKN250 NOSIG=
200908131800 METAR MRPV 131800Z 07012KT 9999 SCT045 BKN250 29/17 A2996 RMK TCU DST SW VEL.MAX.VTO 18KT NOSIG=
200908131900 METAR MRPV 131900Z 08014KT 9999 SCT045 BKN250 29/18 A2995 RMK TCU DST SW W NOSIG=
200908132000 METAR MRPV 132000Z 06012KT 9999 FEW045 BKN250 28/17 A2992 RMK CB DST E S VEL.MAX.VTO 17KT NOSIG=
200908132100 METAR MRPV 132100Z 06012KT 9999 FEW040 BKN250 27/18 A2991 TCU W NE SE DZ N MAX/ WIND 18KT=
200908132200 METAR MRPV 132200Z 07008KT 9999 VCSH FEW015TCU SCT030 BKN250 27/19 A2991 VSBY W 6KM RN SE TS W TEMPO 6000 VCSH=
200908132300 METAR MRPV 132300Z 08006KT 9999 VCFG FEW010 FEW015TCU SCT030 24/19 A2993 VSBY NW 7KM SCT250 TEMPO 8000 VCFG=
200908140000 METAR MRPV NIL=
200908140100 METAR MRPV NIL=
200908140200 METAR MRPV NIL=
200908140300 METAR MRPV NIL=
200908140400 METAR MRPV NIL=
200908140500 METAR MRPV NIL=
200908140600 METAR MRPV NIL=
200908140700 METAR MRPV NIL=
200908140800 METAR MRPV NIL=
200908140900 METAR MRPV NIL=
200908141000 METAR MRPV NIL=
200908141100 METAR MRPV NIL=
200908141200 METAR MRPV 141200Z 12006KT CAVOK 22/17 A2996 RMK TRACE SC BKN250 NOSIG=
200908141300 METAR MRPV 141300Z 11006KT CAVOK 22/17 A2997 TRACE SCT BKN250 NOSIG=
200908141400 METAR MRPV 141400Z 10010KT CAVOK 24/18 A2985 TRACE SCT BKN250 DU W NOSIG=
200908141500 METAR MRPV 141500Z 08015KT 9999 FEW030 BKN250 24/18 A2999 NOISG=
200908141600 METAR MRPV 141600Z 08015KT 9999 SCT025 BKN250 24/18 A3001 NOSIG=
200908141700 METAR MRPV NIL=
200908141800 METAR MRPV 141800Z 09011KT 9999 -RA SCT020 BKN100 23/17 A2999 TEMPO 020 RA=
200908141900 METAR MRPV 141900Z 09013KT 9999 SCT025 BKN120 24/17 A2998 RERA NOSIG=
200908142000 METAR MRPV 142000Z 07011KT 9999 FEW035 BKN120 24/17 A2995 NOSIG=
200908142100 METAR MRPV 142100Z 08008KT 9999 FEW035 SCT120 BKN250 24/16 A2994 NOSIG=
200908142200 METAR MRPV 142200Z 08010KT 9999 FEW040 SCT120 BKN250 24/17 A2994 NOSIG=
200908142300 METAR MRPV 142300Z 08008KT 9999 FEW040 SCT120 BKN250 24/17 A2994 NOSIG=
200908150000 METAR MRPV NIL=
200908150100 METAR MRPV NIL=
200908150200 METAR MRPV NIL=
200908150300 METAR MRPV NIL=
200908150400 METAR MRPV NIL=
200908150500 METAR MRPV NIL=
200908150600 METAR MRPV NIL=
200908150700 METAR MRPV NIL=
200908150800 METAR MRPV NIL=
200908150900 METAR MRPV NIL=
200908151000 METAR MRPV NIL=
200908151100 METAR MRPV NIL=
200908151200 METAR MRPV 151200Z 13006KT CAVOK 20/15 A2996 RMK TRACE SC BKN250 LINEA CB DST S SW W NOSIG=
200908151300 METAR MRPV 151300Z 11007KT CAVOK 21/15 A2996 RMK TRACE SC BKN250 CB DST S SW W NOSIG=
200908151400 METAR MRPV 151400Z 11006KT CAVOK 24/15 A2998 RMK TRACE SC BKN250 CB DST S SW NOSIG=
200908151500 METAR MRPV 151500Z 12006KT CAVOK 26/16 A2999 RMK TRACE SC BKN250 CB DST SW NOSIG=
200908151600 METAR MRPV 151600Z 00000KT 9999 FEW040 BKN250 27/15 A2999 RMK CB DST SW NOSI G=
200908151700 METAR MRPV 151700Z 29008KT 9999 SCT040 BKN250 27/16 A2998 NOSIG=
200908151800 METAR MRPV 151800Z 24007KT 9999 SCT025 BKN250 27/19 A2995 TCU RN SW TEMPO BKN025=
200908151900 METAR MRPV 151900Z 26007KT 9999 SCT020 BKN100 25/18 A2993 RMK TCU RN E W TEMPO BKN020=
200908152000 METAR MRPV 152000Z 28006KT 9999 SCT025 BKN100 25/19 A2991 NOSIG=
200908152100 METAR MRPV 152100Z 28012KT 9999 SCT020 BKN100 23/20 A2991 TEMPO BKN020 -RA=
200908152200 METAR MRPV 152200Z 28011KT 5000 SCT006 BKN012 BKN012 22/20 A2992 TEMPO 3000 BKN010=
200908152300 METAR MRPV 152300Z 29008KT 6000 -RA BR SCT010 BKN020 21/20 A2993 TEMPO 3000 BKN010=
200908160000 METAR MRPV 160000Z 31004KT 3000 BR BKN010 21/20 A2994 TEMPO 2000 BR=
200908160100 METAR MRPV NIL=
200908160200 METAR MRPV NIL=
200908160300 METAR MRPV NIL=
200908160400 METAR MRPV NIL=
200908160500 METAR MRPV NIL=
200908160600 METAR MRPV NIL=
200908160700 METAR MRPV NIL=
200908160800 METAR MRPV NIL=
200908160900 METAR MRPV NIL=
200908161000 METAR MRPV NIL=
200908161100 METAR MRPV NIL=
200908161200 METAR MRPV 161200Z 00000KT CAVOK18/18 A2997 TRACE SCT SCT120 BKN250 CB SW NOSIG=
200908161300 METAR MRPV 161300Z 0003KT CAVOK 20/17 A2999 RMK TRACE SC BKN250 NOSIG=
200908161400 METAR MRPV 161400Z 12006KT CAVOK 23/17 A2999 RMK TRACE SC BKN250 NOSIG=
200908161500 METAR MRPV 161500Z 11009KT CAVOK 25/17 A2998 RMK TRACE SC BKN250 NOSIG=
200908161600 METAR MRPV 161600Z 07012KT 9999 FEW040 BKN250 25/17 A2999 NOSIG=
200908161700 METAR MRPV 161700Z 06011KT 9999 SCT030 BKN250 27/18 A2999 NOSIG=
200908161800 METAR MRPV 161800Z 08012KT 9999 SCT035 BKN250 26/18 A2998 NOSIG=
200908161900 METAR MRPV NIL=
200908162000 METAR MRPV 162000Z 08009KT 9999 SCT030 BKN100 26/18 A2992 RMK CB TS SW NOSIG=
200908162100 METAR MRPV 162100Z 00000KT 9999 FEW020TCU SCT030 BKN100 24/20 A2990 TEMPO BKN020=
200908162200 METAR MRPV 162200Z 31004KT 7000 -RA SCT006 BKN020 22/19 A2992 TEMPO 5000=
200908162300 METAR MRPV 162300Z 00000KT 6000 2000 RA BR SCT004 BKN010 22/20 A2993 TEMPO 3000 RA=
200908162345 METAR MRPV 162345Z 00000KT 9999 -RA SCT020 BKN100 20/19 A2993 NOSIG=
200908170000 METAR MRPV NIL=
200908170100 METAR MRPV NIL=
200908170200 METAR MRPV NIL=
200908170300 METAR MRPV NIL=
200908170400 METAR MRPV NIL=
200908170500 METAR MRPV NIL=
200908170600 METAR MRPV NIL=
200908170700 METAR MRPV NIL=
200908170800 METAR MRPV NIL=
200908170900 METAR MRPV NIL=
200908171000 METAR MRPV NIL=
200908171100 METAR MRPV NIL=
200908171200 METAR MRPV 171200Z 00000KT CAVOK 19/17 A2998 RMK TRACE SC SCT250 CB SW NOSIG=
200908171300 METAR MRPV 171300Z 12004KT 9999 FEW030 SCT250 21/17 A2998 RMK CB DST SW TEMPO 24006KT=
200908171400 METAR MRPV 171400Z 14005KT CAVOK 24/18 A2999 RMK TRACE CU SCT250 CB DST SW TEMPO 24006KT=
200908171500 METAR MRPV 171500Z 08010KT 9999 FEW030 SCT250 25/18 A3001 RMK CB DST S SW TEMPO 24006KT=
200908171600 METAR MRPV 171600Z 09010KT 9999 FEW030 SCT250 27/18 A3001 RMK CB DST SW FEW100 BECMG 24006KT=
200908171700 METAR MRPV 171700Z 25005KT 9999 SCT030 SCT250 27/20 A2999 RMK PCPN DST E CB DST SW NOSIG=
200908171800 METAR MRPV 171800Z 27010KT 9999 -RA SCT020TCU SCT250 25/20 A2998 RMK BECMG 6000=
200908171900 METAR MRPV 171900Z 060V24005KT 5000 -TSRA SCT015CB BKN020 25/21 A2995 TEMPO 3000=
200908171901 METAR MRPV 171901Z COR 06005KT 060V240 6000 -TSRA SCT015CB BKN020 25/21 A2995 TEMPO 3000=
200908172000 METAR MRPV 172000Z 30005KT 6000 VCSH FEW010CB BKN020 22/19 A2994 RMK TS DST N RETS NOSIG=
200908172100 METAR MRPV 172100Z VRB02KT 8000 VCFG FEW004 BKN020 23/19 A2994 NOSIG=
200908172200 METAR MRPV 172200Z 26004KT 5000 2000NW BR SCT002 BKN015 21/19 A2993 RMK TEMPO 3000 -RA BR=
200908172300 METAR MRPV 172300Z VRB02KT 3000 BR SCT001 BKN012 21/20 A2995 NOSIG=
200908180000 METAR MRPV NIL=
200908180100 METAR MRPV NIL=
200908180200 METAR MRPV NIL=
200908180300 METAR MRPV NIL=
200908180400 METAR MRPV NIL=
200908180500 METAR MRPV NIL=
200908180600 METAR MRPV NIL=
200908180700 METAR MRPV NIL=
200908180800 METAR MRPV NIL=
200908180900 METAR MRPV NIL=
200908181000 METAR MRPV NIL=
200908181100 METAR MRPV NIL=
200908181200 METAR MRPV 181200Z 12008KT 9999 FEW020 BKN250 21/16 A2995 RMK CB DST SW NOSIG=
200908181300 METAR MRPV 181300Z 09009KT 9999 FEW020 BKN250 21/17 A2997 RMK CB DST SW VEL.MAX.VTO 14KT NOSIG=
200908181400 METAR MRPV 181400Z 08011KT CAVOK 23/17 A2999 RMK TRACE CU SC BKN250 CB DST SW NOSIG=
200908181500 METAR MRPV 181500Z 08010KT 9999 FEW025 BKN250 25/17 A3000 RMK CB DST SW NOSIG=
200908181600 METAR MRPV 181600Z 09005KT 9999 FEW025 BKN250 26/17 A2999 RMK CB DST SW POLVO APROXIMACION PISTA 09 BECMG 24006KT=
200908181700 METAR MRPV 181700Z 24006KT 9999 FEW015TCU BKN030 27/17 A2998 RMK POLVO APROXIMACION PISTA 09 NOSIG=
200908181800 METAR MRPV 181800Z 27008KT 9999 FEW012TCU BKN030 25/20 A2996 BECMG 6000 VCSH=
200908181900 METAR MRPV 181900Z 28007KT 9999 SCT010TCU BKN030 26/20 A2993 RMK RN DST N BECMG 6000 VCSH=
200908182000 METAR MRPV 182000Z 28010KT 9999 4000NE VCSH SCT010TCU BKN030 26/21 A2991 BECMG 3000 RA=
200908182100 METAR MRPV 182100Z 29010KT 9999 4000NE VCSH SCT010TCU BKN030 26/21 A2989 BECMG 5000 RA=
200908182200 METAR MRPV 182200Z 27010KT 5000 +SHRA SCT008TCU BKN015 23/20 A2989 MAX/ WIND 15KT BECMG 3000 +SHRA=
200908182300 METAR MRPV 182300Z 26008KT 6000 -RA SCT002 BKN020 22/20 A2991 TCU E TEMPO 3000 BKN012=
200908190000 METAR MRPV 190000Z NIL=
200908190100 METAR MRPV NIL=
200908190200 METAR MRPV NIL=
200908190300 METAR MRPV NIL=
200908190400 METAR MRPV NIL=
200908190500 METAR MRPV NIL=
200908190600 METAR MRPV NIL=
200908190700 METAR MRPV NIL=
200908190800 METAR MRPV NIL=
200908190900 METAR MRPV NIL=
200908191000 METAR MRPV NIL=
200908191100 METAR MRPV NIL=
200908191200 METAR MRPV 191200Z 07002KT 9999 FEW025 BKN250 20/17 A2993 RMK CB DST SW NOSIG=
200908191300 METAR MRPV 191300Z 12005KT CAVOK 21/17 A2995 TRACE SCT FEW120 BKN250 CB S SW NOSIG=
200908191400 METAR MRPV 191400Z 11007KT CAOK 23/17 A2997 TRACE CU SCT120 SCT250 CB SW MAX/ WIND 12KT NOSIG=
200908191500 METAR MRPV 191500Z 12008KT 9999 FEW025 SCT120 25/17 A2998 CB S SW NOSIG=
200908191600 METAR MRPV 191600Z 07008KT 9999 FEW020 SCT250 26/18 A2998 CB SW FEW120 NOSIG=
200908191700 METAR MRPV 191700Z 07007KT 9999 4000NE VCSH SCT020 BKN030 27/17 A2996 BECMG 22006=
200908191800 METAR MRPV 191800Z 25005KT 9999 4000NE VCSH SCT015TCU BKN030 27/20 A2993 DU PIST 09 BECMG 6000 RA=
200908191900 METAR MRPV 191900Z 08008KT 9999 4000NE VCSH FEW010CB BKN025TCU 26/19 A2991 MAX/ WIND 15KT BECMG 5000 +SHRA=
200908192000 METAR MRPV 192000Z VRB02KT 5000 2000NW RA VCSH FEW010CB BKN015 22/20 A2992 TEMPO 3000 +RA=
200908192100 METAR MRPV 192100Z 12004KT 5000 2000NW RA BR FEW002 BKN015 21/19 A2991 NOSIG=
200908192200 METAR MRPV 192200Z 07004KT 6000 2000NW RA BR FEW002 BKN020 21/19 A2991 NOSIG=
200908192300 METAR MRPV 192300Z 11005KT 7000 RA SCT020 OVC100 20/19 A2991 RMK PISTA MOJAD A NOSIG=
200908200000 METAR MRPV NIL=
200908200100 METAR MRPV NIL=
200908200200 METAR MRPV NIL=
200908200300 METAR MRPV NIL=
200908200400 METAR MRPV NIL=
200908200500 METAR MRPV NIL=
200908200600 METAR MRPV NIL=
200908200700 METAR MRPV NIL=
200908200800 METAR MRPV NIL=
200908200900 METAR MRPV NIL=
200908201000 METAR MRPV NIL=
200908201100 METAR MRPV NIL=
200908201200 METAR MRPV 201200Z 12009KT CAVOK 21/17 A2995 RMK TRACE SC BKN140 SCT250 VEL.MAX.VTO 14KT NOSIG=
200908201300 METAR MRPV 201300Z 12007KT 9999 FEW025 SCT140 21/17 A2997 RMK SCT250 RN E SE RAFAGAS 14KT NOSIG=
200908201400 METAR MRPV 201400Z 10006KT CAVOK 22/17 A2999 RMK TRACE SC CI BKN130 RAFAGAS 12KT NOSIG=
200908201500 METAR MRPV 201500Z 12007KT 9999 FEW030 BKN120 23/17 A3001 RMK CB DST SW NOSI G=
200908201600 METAR MRPV 201600Z 08012KT 9999 FEW030 BKN120 25/18 A3001 NOSIG=
200908201700 METAR MRPV 201700Z 07010KT 9999 SCT030 BKN120 26718 A2999 NOSIG=
200908201800 METAR MRPV 201800Z 09006KT 9999 SCT030 BKN120 27/17 A2996 NOSIG=
200908201900 METAR MRPV 201900Z 08008KT 9999 FEW020TCU SCT030 BKN100 28/18 A2992 RMK TCU RN E TEMPO 25006KT BKN020=
200908202000 METAR MRPV 202000Z 27007KT 9999 VCSH SCT010TCU BKN020 24/19 A2990 RMK VIS N 5000 TEMPO 5000 RA=
200908202100 METAR MRPV 202100Z 07006KT 5000 +RA SCT006 BKN010 23/19 A2992 YEMPO 2000 TSRA=
200908202200 METAR MRPV 202200Z 00000KT 3000 -RA BR SCT003 BKN010 20/19 A2993 NOSIG=
200908202300 METAR MRPV 202300Z 14003KT 5000 BR SCT006 BKN015 20/19 A2995 RMK VIS S N 3000 DUE SCT RN TEMPO 3000 RA BR=
200908210000 METAR MRPV 210000Z 10004KT 6000 -RA BR SCT008 BKN015 20/18 A2996 TEMPO 8000 BKN020=
200908210100 METAR MRPV NIL=
200908210200 METAR MRPV NIL=
200908210300 METAR MRPV NIL=
200908210400 METAR MRPV NIL=
200908210500 METAR MRPV NIL=
200908210600 METAR MRPV NIL=
200908210700 METAR MRPV NIL=
200908210800 METAR MRPV NIL=
200908210900 METAR MRPV NIL=
200908211000 METAR MRPV NIL=
200908211100 METAR MRPV NIL=
200908211200 METAR MRPV 211200Z 10011KT CAVOK 21/16 A2996 TRACE SCT BKN120 SCT250 NOSIG=
200908211300 METAR MRPV 211300Z 11010KT CAVOK 22/17 A2998 RMK TRACE SC SCT120 BKN250 NOSIG=
200908211400 METAR MRPV 211400Z 11010KT 9999 FEW035 BKN250 22/17 A3001 RMK FEW120 TCU DST SW NOSIG=
200908211500 METAR MRPV 211500Z 08013KT 9999 FEW035 SCT120 BKN250 24/17 A3000 NOSIG=
200908211600 METAR MRPV 211600Z 08011KT 9999 SCT040 SCT250 26/16 A2999 NOSIG=
200908211700 METAR MRPV 211700Z 07009KT 9999 SCT040 SCT250 27/17 A2998 NOSIG=
200908211800 METAR MRPV 211800Z 07012KT 9999 SCT030 SCT250 27/17 A2981 NOSIG=
200908211900 METAR MRPV 211900Z 06011KT 9999 FEW025 SCT040 27/17 A2993 NOSIG=
200908212000 METAR MRPV 212000Z 07013KT 9999 SCT030 SCT120 27/18 A2990 NOSIG=
200908212100 METAR MRPV 212100Z 09013KT 9999 SCT020TCU BKN040 25/17 A2989 RMK RN DST NW N TEMPO 7000 VCSH BKN020=
200908212200 METAR MRPV 212200Z 09012KT 9999 SCT010TCU BKN020 25/18 A2989 CB RASH DST NW TEMPO 7000 VCSH=
200908212300 METAR MRPV 212300Z 17003KT 2000 +RA SCT010TCU BKN020 23/20 A2991 TEMPO 5000=
200908212345 METAR MRPV 212345Z 07004KT 9999 4000NW BR SCT010TCU BKN020 22/19 A2991 TEMPO 5000 BR BKN010=
200908220000 METAR MRPV NIL=
200908220100 METAR MRPV NIL=
200908220200 METAR MRPV NIL=
200908220300 METAR MRPV NIL=
200908220400 METAR MRPV NIL=
200908220600 METAR MRPV NIL=
200908220700 METAR MRPV NIL=
200908220800 METAR MRPV NIL=
200908221000 METAR MRPV NIL=
200908221100 METAR MRPV NIL=
200908221200 METAR MRPV 221200Z 00000KT CAVOK 19/17 A2997 RMK TRACE SC BKN120 TCU DST SW DU APROXIMACION 09 NOSIG=
200908221300 METAR MRPV 221300Z 09004KT CAVOK 21/17 A2999 RMK TRACE SC BKN120 DUST APCH RNY09 NOSIG=
200908221400 METAR MRPV 221400Z 11007KT CAVOK 23/16 A3001 RMK TRACE SC BKN120=
200908221500 METAR MRPV 221500Z 11008KT 9999 SCT030 SCT120 25/17 A3002 RMK DUST W NOSIG=
200908221600 METAR MRPV 221600Z 08011KT 9999 SCT030 26/17 A3001 NOSIG=
200908221700 METAR MRPV 221700Z 08008KT 9999 BKN030 27/18 A3000 NOSIG=
200908221800 METAR MRPV 221800Z 10008KT 9999 SCT035 28/18 A2996 RMK CB DST NE NOSIG=
200908221900 METAR MRPV 221900Z 09010KT 9999 FEW025 SCT040 28/18 A2992 NOSIG=
200908222000 METAR MRPV 222000Z 08012KT 9999 SCT020 BKN040 27/18 A2990 RN DST N NOSIG=
200908222100 METAR MRPV 222100Z 07014KT 9999 4000NW TS VCSH SCT010CB BKN020 25/18 A2990 TEMPO TSRA BKN020=
200908222200 METAR MRPV 222200Z 06007KT 9999 SCT020 BKN100 24/18 A2990 RMK CB SHRA DST W NOSIG=
200908222300 METAR MRPV 222300Z 09009KT 9999 SCT012 BKN020 23/18 A2993 TEMPO 8000=
200908230000 METAR MRPV NIL=
200908230100 METAR MRPV NIL=
200908230200 METAR MRPV NIL=
200908230400 METAR MRPV NIL=
200908230500 METAR MRPV NIL=
200908230600 METAR MRPV NIL=
200908230700 METAR MRPV NIL=
200908230800 METAR MRPV NIL=
200908230900 METAR MRPV NIL=
200908231000 METAR MRPV NIL=
200908231100 METAR MRPV NIL=
200908231200 METAR MRPV 231200Z 11010KT CAVOK 20/14 A2994 RMK CB DST S BKN250=
200908231300 METAR MRPV 231300Z 10010KT CAVOK 22/14 A2995 RMK CB DST S BKN250 NOSIG=
200908231400 METAR MRPV 231400Z 10011KT CAVOK 23/15 A2996 RMK CB DST S VEL.MAX/VTO 17KT BKN250 NOSIG=
200908231500 METAR MRPV 231500Z 10010G20KT CAVOK 23/16 A2997 RMK CB DST S BKN250 TRACE SC NOSIG=
200908231600 METAR MRPV 231600Z 08010G20KT 9999 FEW025 BKN250 23/16 A2998 NOSIG=
200908231700 METAR MRPV 231700Z 08010G20KT 9999 FEW025 SCT120 BKN250 22/17 A2997 RMK RN DST NE NW NOSIG=
200908231800 METAR MRPV 231800Z 09010G20KT 9999 FEW025 SCT120 BKN250 22/17 A2995 RMK RN DST NE NOSIG=
200908231900 METAR MRPV 231900Z 08010G20KT 9999 FEW025 SCT120 BKN250 24/17 A2994 RMK RN DST NE NOSIG=
200908232000 METAR MRPV 232000Z 08010G20KT 9999 FEW025 BKN250 26/17 A2992 RMK RN DST NE NOSIG=
200908232100 METAR MRPV 232100Z 07010KT 9999 FEW025 BKN250 25/17 A2989 NOSIG=
200908232200 METAR MRPV 232200Z 07010KT 9999 FEW025 BKN250 26/17 A2988 RN NE=
200908232300 METAR MRPV 232300Z 07010KT 9999 SCT020 BKN250 24/17 A2990 RN NE NOSIG=
200908240000 METAR MRPV NIL=
200908240100 METAR MRPV NIL=
200908240200 METAR MRPV NIL=
200908240300 METAR MRPV NIL=
200908240400 METAR MRPV NIL=
200908240500 METAR MRPV NIL=
200908240600 METAR MRPV NIL=
200908240700 METAR MRPV NIL=
200908240800 METAR MRPV NIL=
200908240900 METAR MRPV NIL=
200908241000 METAR MRPV NIL=
200908241100 METAR MRPV NIL=
200908241200 METAR MRPV 241200Z 12005KT CAVOK 21/17 A2992 RMK TRACE SC AC BKN250 NOSIG=
200908241300 METAR MRPV 241300Z 11007KT CAVOK 22/17 A2992 TRACE CU BKN250 MAX/ WIND 14KT NOSIG=
200908241400 METAR MRPV 241400Z 09011KT CAVOK 24/17 A2993 TRACE CU SCT AC BKN250 DU PIST 09 MAX/ WIND 16KT NOSIG=
200908241500 METAR MRPV 241500Z 07010G20KT 9999 FEW025 BKN250 25/17 A2996 DU PISTA 09 NOSIG=
200908241600 METAR MRPV 241600Z 08010G20KT 9999 SCT025 BKN250 26/17 A2995 DU PISTA 09 NOSIG=
200908241700 METAR MRPV 241700Z 08010KT 9999 FEW025 BKN250 27/17 A2994 NOSIG=
200908241800 METAR MRPV 241800Z 07010KT 9999 FEW025 BKN250 28/17 A2993 RN NE MAX=
200908241900 METAR MRPV 241900Z 06010KT 9999 FEW025 BKN250 27/17 A2991 RN NE MAX=
200908242000 METAR MRPV 242000Z 06012KT 9999 SCT022 BKN250 26/16 A2989 RN NE NOSIG=
200908242100 METAR MRPV 242100Z 08010G20KT 9999 -RA SCT020 OVC250 24/18 A2989 NOSIG=
200908242200 METAR MRPV 242200Z 09010G20KT 9999 FEW020 SCT120 BKN250 22/18 A2989 RMK RN N NE BECMG -RA=
200908242300 METAR MRPV 242300Z 08010KT 9999 SCT018 SCT120 BKN250 22/16 A2989 RMK RN N NE TEMPO -RA=
200908250000 METAR MRPV NIL=
200908250100 METAR MRPV NIL=
200908250200 METAR MRPV NIL=
200908250300 METAR MRPV NIL=
200908250400 METAR MRPV NIL=
200908250500 METAR MRPV NIL=
200908250600 METAR MRPV NIL=
200908250700 METAR MRPV NIL=
200908250800 METAR MRPV NIL=
200908250900 METAR MRPV NIL=
200908251000 METAR MRPV NIL=
200908251100 METAR MRPV NIL=
200908251200 METAR MRPV 251200Z 00000KT CAVOK 20/17 A2991 RMK TRACE SC BKN100 POLVO APROXIMACION PISTA 09 NOSIG=
200908251300 METAR MRPV 251300Z 00000KT CAVOK 20/18 A2994 RMK TRACE SC SCT100 BKN250 DU LEVE ARND TEMPO 24003KT=
200908251400 METAR MRPV 251400Z 00000KT CAVOK 22/18 A2995 RMK TRACE SC BKN10 SCT250 DU APRXIMACION 09 TEMPO 24005KT=
200908251500 METAR MRPV 251500Z 00000KT 9999 -RA FEW025 SCT120 BKN250 23/18 A2995 RMK 5000 W DUE HZ DU APROXIMACION 09 TEMPO 24005KT=
200908251600 METAR MRPV 251600Z 28006KT 5000 2000NW -RA BR SCT002 BKN015 21/20 A2996 BECM G 3000=
200908251700 METAR MRPV 251700Z 27004KT 5000 -DZ BR SCT002 BKN015 22/19 A2995 BECMG 3000=
200908251800 METAR MRPV 251800Z 00000KT 6000 -DZ VCFG SCT004 BKN020 24/20 A2993 NOSIG=
200908251900 METAR MRPV 251900Z 00000KT 6000 -RA VCFG SCT005 BKN025 24/20 NOSIG=
200908252000 METAR MRPV 252000Z 28006KT 5000 BR SCT002 BKN020 23/20 A2989 BECMG 3000=
200908252100 METAR MRPV 252100Z 27005KT 5000 SCT002 BKN020 23/19 A2987 BECMG 3000 -RA=
200908252200 METAR MRPV 252200Z 27007KT 6000 VCFG SCT004 BKN020 23/19 A2988 NOSIG=
200908252300 METAR MRPV 252300Z 28009KT 7000 VCFG SCT004 BKN020 22/19 A2989 NOSIG=
200908260000 METAR MRPV NIL=
200908260100 METAR MRPV NIL=
200908260200 METAR MRPV NIL=
200908260300 METAR MRPV NIL=
200908260400 METAR MRPV NIL=
200908260500 METAR MRPV NIL=
200908260600 METAR MRPV NIL=
200908260700 METAR MRPV NIL=
200908260800 METAR MRPV NIL=
200908260900 METAR MRPV NIL=
200908261000 METAR MRPV NIL=
200908261100 METAR MRPV NIL=
200908261200 METAR MRPV 261200Z 14004KT 9999 FEW020 21/18 A2995 TRACE CI DU PISTA 09 NOSIG=
200908261300 METAR MRPV 261300Z 14004KT 9999 FEW025 22/18 A2997 RMK TRACE CI NOSIG=
200908261400 METAR MRPV 261400Z 11007KT 9999 FEW025 24/18 A2997 RMK TRACE CI NOSIG=
200908261500 METAR MRPV 261500Z 08008KT 9999 FEW030 24/18 A2997 NOSIG=
200908261600 METAR MRPV 261600Z 08008KT 9999 FEW030 26/18 A2998 NOSIG=
200908261700 METAR MRPV 261700Z 09010KT 9999 SCT030 26/17 A2997 NOSIG=
200908261800 METAR MRPV 261800Z 07008KT 9999 FEW012 SCT030 27/19 A2996 NOSIG=
200908261900 METAR MRPV 261900Z 24008KT 9999 FEW010 SCT025 27/21 A2994 RMK TEMPO BKN020=
200908262000 METAR MRPV 262000Z 17003KT 9999 FEW010 SCT020 27/21 A2993 NOSIG=
200908262100 METAR MRPV 262100Z 27006KT 9999 SCT010TCU BKN020 25/21 A2991 TEMPO 7000 VCSH BKN015=
200908262200 METAR MRPV 262200Z 26010KT 9000 4000 VCSH SCT010CB BKN015 24/21 A2992 TEMPO 6000 VCSH BKN010=
200908262300 METAR MRPV 262300Z 30003KT 7000 2000 BR VCSH SCT006 BKN010 23/21 A2993 TEMPO 5000 BR=
200908270000 METAR MRPV NIL=
200908270100 METAR MRPV NIL=
200908270200 METAR MRPV NIL=
200908270300 METAR MRPV NIL=
200908270400 METAR MRPV NIL=
200908270500 METAR MRPV NIL=
200908270600 METAR MRPV NIL=
200908270700 METAR MRPV NIL=
200908270800 METAR MRPV NIL=
200908270900 METAR MRPV NIL=
200908271000 METAR MRPV NIL=
200908271100 METAR MRPV NIL=
200908271200 METAR MRPV 271200Z 08012KT CAVOK 22/17 A2995 RMK SCT120 SCT250 CB DST N E TCU SW NOSIG=
200908271300 METAR MRPV 271300Z 10009KT CAVOK 23/18 A2997 RMK TRACE SC SCT250 CB DST N VEL MAX VTO 15KT NOSIG=
200908271400 METAR MRPV 271400Z 10014KT CAVOK 24/17 A2997 BKN250 CB DST NNW TCU DST SW VEL MAX VTO 20KT NOSIG=
200908271500 METAR MRPV 271500Z 08014KT 9999 FEW030 BKN250 25/18 A2999 NOSIG=
200908271600 METAR MRPV 271600Z 06011KT 9999 SCT030 BKN250 26/18 A2999 NOSIG=
200908271700 METAR MRPV 271700Z 07011KT 9999 SCT030 SCT120 BKN250 27/18 A2998 TEMPO 28006KT=
200908271800 METAR MRPV 271800Z 08013KT 9999 SCT040 OVC120 25/18 A2997 NOSIG=
200908271900 METAR MRPV 271900Z 08008KT CAVOK 24/18 A2993 RMK TRACE SC BKN120 NOSIG=
200908272000 METAR MRPV 272000Z 00000KT CAVOK 27/18 A2991 SCT120 BKN250 TEMPO 29006KT=
200908272100 METAR MRPV 272100Z 06010KT 9999 FEW030 SCT120 BKN250 26/18 A2991 NOSIG=
200908272200 METAR MRPV 272200Z 08011KT 9999 SCT030 BKN250 25/18 A2990 NOSIG=
200908272300 METAR MRPV 272300Z 08011KT 9999 SCT020 BKN250 25/18 A2990 NOSIG=
200908280000 METAR MRPV 280000Z 08012KT 9999 SCT025 BKN250 24/19 A2992 NOSIG=
200908280100 METAR MRPV NIL=
200908280200 METAR MRPV NIL=
200908280300 METAR MRPV NIL=
200908280400 METAR MRPV NIL=
200908280500 METAR MRPV NIL=
200908280600 METAR MRPV NIL=
200908280700 METAR MRPV NIL=
200908280800 METAR MRPV NIL=
200908280900 METAR MRPV NIL=
200908281000 METAR MRPV NIL=
200908281100 METAR MRPV NIL=
200908281200 METAR MRPV 281200Z 10005KT 9999 FEW030 SCT120 BKN250 21/18 A2995 RMK CB DST NW NE SW NOSIG=
200908281300 METAR MRPV 281300Z 13006KT 9999 FEW030 BKN250 22/18 A2997 RMK CB DST NE E SW NOSIG=
200908281400 METAR MRPV 281400Z 14005KT CAVOK 23/18 A2997 RMK SCT120 BKN250 CB DST N NE E TCU DST SW NOSIG=
200908281500 METAR MRPV 281500Z 11007KT 9999 SCT030 SCT120 BKN250 23/18 A2999 RMK CB DST SW NOSIG=
200908281600 METAR MRPV 281600Z 13004KT 9999 FEW035 BKN120 24/18 A3000 NOSIG=
200908281700 METAR MRPV 281700Z 10005KT 9999 SCT030 BKN250 27/18 A2998 NOSIG=
200908281800 METAR MRPV 281800Z 25006KT 9999 SCT030 BKN120 26/19 A2995 RMK RN DST N TEMPO 6000 -RA VCSH=
200908281900 METAR MRPV 281900Z 06011KT 9999 VCTS VCSH SCT015CB BKN025 24/17 A2995 RMK VEL.MAX.VTO 19KT TEMPO RA BKN020=
200908282000 METAR MRPV 282000Z 10009KT 9999 FEW035 BKN100 22/17 A2993 NOSIG=
200908282100 METAR MRPV 282100Z 10006KT CAVOK 23/17 A2991 BKN100 NOSIG=
200908282200 METAR MRPV 282200Z 13004KT 9999 FEW030 BKN100 23/17 A2994 NOSIG=
200908282300 METAR MRPV 282300Z 00000KT CAVOK 21/18 A2997 BKN120 NOSIG=
200908290000 METAR MRPV 290000Z NIL=
200908290100 METAR MRPV NIL=
200908290200 METAR MRPV NIL=
200908290300 METAR MRPV NIL=
200908290400 METAR MRPV NIL=
200908290500 METAR MRPV NIL=
200908290600 METAR MRPV NIL=
200908290700 METAR MRPV NIL=
200908290800 METAR MRPV NIL=
200908290900 METAR MRPV NIL=
200908291100 METAR MRPV NIL=
200908291200 METAR MRPV 291200Z 00000KT FEW010 BKN100 20/17 A3000 HZ ARND NOSIG=
200908291300 METAR MRPV 291300Z 12004KT CAVOK 21/17 A3000 OVC120 HZY NOSIG=
200908291400 METAR MRPV 291400Z 12010KT CAVOK 23/17 A3002 OVC120 HZY RN NE NOSIG=
200908291500 METAR MRPV 291500Z 10010KT 9999 FEW010 BKN120 24/18 A3003 HZ W NOSIG=
200908291600 METAR MRPV 291600Z 09011KT 9999 FEW020 BKN120 25/18 A3001 RN NE MAX=
200908291700 METAR MRPV 291700Z 07010KT 9999 FEW020 SCT120 BKN250 25/17 A3001 NOSIG=
200908291800 METAR MRPV 291800Z 07010G20KT 9999 FEW020 SCT120 BKN250 24/16 A2999 RN NE NOSIG=
200908291900 METAR MRPV 291900Z 07011G21KT 9999 FEW020 SCT120 BKN250 24/16 A2997 RN NE TCU S NOSIG=
200908292000 METAR MRPV 292000Z 08012G22KT 9999 FEW020 SCT120 BKN250 23/16 A2997 TCU SW RN NE NOSIG=
200908292100 METAR MRPV 292100Z 09010G20KT 9999 FEW020 SCT120 BKN250 22/16 A2995 RMK RN NE NOSIG=
200908292200 METAR MRPV 292200Z 09010G20KT 9999 FEW020 SCT120 BKN250 22/16 A2995 RMK RN DST NE E NOSIG=
200908292300 METAR MRPV 292300Z 10010KT 9999 FEW020 SCT120 BKN250 22/17 A2997 RMKRN DST NE E NOSIG=
200908300000 METAR MRPV NIL=
200908300100 METAR MRPV NIL=
200908300200 METAR MRPV NIL=
200908300300 METAR MRPV NIL=
200908300400 METAR MRPV NIL=
200908300500 METAR MRPV NIL=
200908300600 METAR MRPV NIL=
200908300700 METAR MRPV NIL=
200908300800 METAR MRPV NIL=
200908300900 METAR MRPV NIL=
200908301000 METAR MRPV NIL=
200908301200 METAR MRPV 301200Z 10010KT CAVOK 21/15 A2997 RMK TRACE SC BKN100 VEL.MAX.VTO 18KT RN DST NE NOSIG=
200908301300 METAR MRPV 301300Z 11012KT 9999 FEW012 BKN120 22/16 A2999 RMK RN NE RAFAGAS 17KT NOSIG=
200908301400 METAR MRPV 301400Z 10010G20KT 9999 FEW012 BKN120 22/16 A3003 RMKRN NE NOSIG=
200908301500 METAR MRPV 301500Z 10010G20KT 9999 FEW020 BKN120 23/16 A3004 NOSIG=
200908301600 METAR MRPV 301600Z 08010KT 9999 FEW020 BKN120 25/16 A3002 RMK RAFAGAS 15KT NOSIG=
200908301700 METAR MRPV 301700Z 09010KT 9999 FEW020 BKN120 27/17 A3000 RMKCB DST SW NOSIG RAFAGAS 15KT=
200908301800 METAR MRPV 301800Z 09010KT 9999 SCT025 SCT120 25/17 A2998 RMK CB DST SW NOSI G=
200908301900 METAR MRPV NIL=
200908302000 METAR MRPV 302000Z 09010KT 9999 FEW020 SCT030 BKN120 24/16 A2994 BECMG -RA=
200908302100 METAR MRPV 302100Z 09010KT 9999 4000NE VCSH SCT020 BKN030 24/16 A2995 RMK VL MX VTO 15KT BECMG -RA=
200908302200 METAR MRPV 302200Z 09008KT 9999 4000NE VCSH SCT020 BKN030 23/17 A2995 RMK RN DST E BECMG -RA=
200908302300 METAR MRPV 302300Z 00000KT 6000 VCFG SCT002 BKN020 21/19 A2996 NOSIG=
200908310000 METAR MRPV 310000Z NIL=
200908310100 METAR MRPV NIL=
200908310200 METAR MRPV NIL=
200908310300 METAR MRPV NIL=
200908310400 METAR MRPV NIL=
200908310500 METAR MRPV NIL=
200908310600 METAR MRPV NIL=
200908310700 METAR MRPV NIL=
200908310800 METAR MRPV NIL=
200908310900 METAR MRPV NIL=
200908311000 METAR MRPV NIL=
200908311100 METAR MRPV NIL=
200908311200 METAR MRPV 311200Z 13003KT CAVOK 20/17 A2998 SCT120 CB DST SW=
200908311300 METAR MRPV 311300Z 11007KT 9999 FEW035 22/17 A2999 RMK FEW120 VL MX VTO 12KT NOSIG=
200908311400 METAR MRPV 311400Z 10010KT 9999 FEW040 23/18 A3002 RMK FEW120 VL MX VTO 17KT NOSIG=
200908311500 METAR MRPV 311500Z 09010KT 9999 FEW030 25/18 A3003 RMK FEW120 NOSIG=
200908311600 METAR MRPV 311600Z 08010KT 9999 FEW040 26/17 A3003 RMK FEW250 NOSIG=
200908311700 METAR MRPV 311700Z 15003KT 9999 SCT040 27/17 A3001 RMK TCU DST E TEMPO 24006KT=
200908311800 METAR MRPV 311800Z 28009KT 9999 FEW020TCU SCT035 27/18 A2998 RMK RN DST NE TEMPO 8000 VCSH=
200908311900 METAR MRPV 311900Z 28010KT 9999 4000NE VCSH FEW015TCU SCT030 25/19 A2997 RMK RASH NW SSW SE BECMG 5000 +RA=
200908312000 METAR MRPV 312000Z 29009KT 9999 3000NW -RA VCTS FEW010CB SCT030 BKN100 24/20 A2995 BECMG 5000 +SHRA=
200908312100 METAR MRPV 312100Z VRB02KT 5000 -RA BR FEW004 BKN020 21/20 A2996 NOSIG=
200908312200 METAR MRPV 312200Z 27004KT 3000 -RA BR SCT001 BKN010 21/20 A2995 NOSIG=
200908312300 METAR MRPV 312300Z 00000KT 5000 2000NW -RA BR SCT002 BKN015 21/20 A2997=
200909010000 METAR MRPV NIL=
200909010100 METAR MRPV NIL=
200909010200 METAR MRPV NIL=
200909010300 METAR MRPV NIL=
200909010400 METAR MRPV NIL=
200909010500 METAR MRPV NIL=
200909010600 METAR MRPV NIL=
200909010700 METAR MRPV NIL=
200909010800 METAR MRPV NIL=
200909010900 METAR MRPV NIL=
200909011000 METAR MRPV NIL=
200909011100 METAR MRPV NIL=
200909011200 METAR MRPV 011200Z 12007KT CAVOK 21/17 A2998 RMK SCT300 CB DST N RAFAGAS 12KT NOSIG=
200909011300 METAR MRPV 011300Z 12008KT CAVOK 22/17 A3001 RMK SCT250 NOSIG=
200909011400 METAR MRPV NIL=
200909011500 METAR MRPV 011500Z 07013KT 9999 FEW040 SCT250 25/18 A3002 NOSIG=
200909011600 METAR MRPV 011600Z 06011KT 9999 FEW040 SCT250 26/17 A3003 NOSIG=
200909011700 METAR MRPV 011700Z 06011KT 9999 SCT035 BKN250 27/17 A3002 VEL MAX VTO 17KT NOSIG=
200909011800 METAR MRPV 011800Z 07008KT 9999 SCT035 BKN250 27/18 A3000 NOSIG=
200909011900 METAR MRPV 011900Z 06007KT 9999 SCT030 BKN100 27/17 A2998 RMK RASH NE NOSIG=
200909012000 METAR MRPV 012000Z 06006KT 9999 SCT020TCU BKN100 26/18 A2996 RMK RASH N NE W TEMPO 28006KT=
200909012100 METAR MRPV 012100Z 08003KT 9999 4000SW BR SCT020TCU BKN100 25/18 A2996 TEMPO BKN020=
200909012200 METAR MRPV 012200Z 06009KT 9999 SCT020 BKN100 25/17 A2994 NOSIG=
200909012300 METAR MRPV 012300Z 06006KT 9999 SCT030 BKN250 25/26 A2995 NOSIG=
200909020000 METAR MRPV NIL=
200909020100 METAR MRPV NIL=
200909020200 METAR MRPV NIL=
200909020300 METAR MRPV NIL=
200909020400 METAR MRPV NIL=
200909020500 METAR MRPV NIL=
200909020600 METAR MRPV NIL=
200909020700 METAR MRPV NIL=
200909020800 METAR MRPV NIL=
200909020900 METAR MRPV NIL=
200909021000 METAR MRPV NIL=
200909021100 METAR MRPV NIL=
200909021200 METAR MRPV 021200Z 09010KT CAVOK 21/16 A2998 RMK SCT300 NOSIG=
200909021300 METAR MRPV 021300Z 10009KT CAVOK 22/16 A3000 RMK SCT300 NOSIG=
200909021400 METAR MRPV 021400Z 09014KT CAVOK 24/16 A3000 RMK FEW300 NOSIG=
200909021500 METAR MRPV 021500Z 06013KT CAVOK 25/16 A3000 RMK FEW300 NOSIG=
200909021600 METAR MRPV 021600Z 06014KT 9999 FEW040 26/17 A3001 NOSIG=
200909021700 METAR MRPV 021700Z 07013KT 9999 FEW040 27/17 A3000 NOSIG=
200909021800 METAR MRPV 021800Z 08012KT 9999 SCT035 26/18 A2997 NOSIG=
200909021900 METAR MRPV 021900Z 07011KT 9999 SCT030 28/18 A2994 NOSIG=
200909022000 METAR MRPV 022000Z 07011KT 9999 SCT030 28/18 A2994 NOSIG=
200909022100 METAR MRPV 022100Z 08014KT 9999 SCT020 BKN035 26/18 A2992 TEMPO BKN025=
200909022200 METAR MRPV 022200Z 08012KT 9999 BKN020 26/18 A2991 CB SE E NOSIG=
200909022300 METAR MRPV 022300Z 10013KT 9999 SCT020 BKN040 25/19 A2992 CB N NE E SW RN N=
200909030000 METAR MRPV NIL=
200909030100 METAR MRPV NIL=
200909030200 METAR MRPV NIL=
200909030300 METAR MRPV NIL=
200909030400 METAR MRPV NIL=
200909030500 METAR MRPV NIL=
200909030600 METAR MRPV NIL=
200909030700 METAR MRPV NIL=
200909030800 METAR MRPV NIL=
200909030900 METAR MRPV NIL=
200909031000 METAR MRPV NIL=
200909031100 METAR MRPV NIL=
200909031200 METAR MRPV 031200Z 10011KT CAVOK 21/17 A2996 RMK SCT100 BKN250 VEL MAX VTO 16KT NOSIG=
200909031300 METAR MRPV 031300Z 11007KT CAVOK 22/16 A2998 SCT100 BKN250 NOSIG=
200909031400 METAR MRPV 031400Z 10013KT CAVOK 23/16 A2998 SCT120 BKN250 VEL MAX/ 21KT NOSIG=
200909031500 METAR MRPV 031500Z 08014KT CAVOK 24/16 A3000 BKN120 SCT250 NOSIG=
200909031600 METAR MRPV 031600Z 07011KT 9999 FEW040 SCT120 BKN250 25/16 A3001 NOSIG=
200909031700 METAR MRPV 031700Z 05009KT 9999 FEW040 SCT120 BKN250 27/16 A3000 NOSIG=
200909031800 METAR MRPV 031800Z 06009KT 9999 FEW040 SCT120 BKN250 28/17 A2997 NOSIG=
200909031900 METAR MRPV 031900Z 07010KT 9999 SCT035 BKN250 28/17 A2994 MAX. WIND 17KT NOSIG=
200909032000 METAR MRPV 032000Z 08014KT 9999 SCT035 BKN250 27/17 A2993 NOSIG=
200909032100 METAR MRPV 032100Z 06012KT 9999 SCT030 BKN250 28/18 A2991 NOSIG=
200909032200 METAR MRPV 032200Z 08011KT 9999 FEW015TCU SCT020 BKN100 26/18 A2992 RMKCB RASH N TEMPO BKN020=
200909032300 METAR MRPV 032300Z 26003KT 9999 4000SW VCFG SCT012TCU BKN020 24/21 A2993 TEMPO 5000 VCSH=
200909040000 METAR MRPV NIL=
200909040100 METAR MRPV NIL=
200909040200 METAR MRPV NIL=
200909040300 METAR MRPV NIL=
200909040400 METAR MRPV NIL=
200909040500 METAR MRPV NIL=
200909040600 METAR MRPV NIL=
200909040700 METAR MRPV NIL=
200909040800 METAR MRPV NIL=
200909040900 METAR MRPV NIL=
200909041000 METAR MRPV NIL=
200909041100 METAR MRPV NIL=
200909041200 METAR MRPV 041200Z 12009KT CAVOK 21/16 A2995 RMK BKN250 VEL.MAX.VTO 17KT NOSIG=
200909041300 METAR MRPV 041300Z 12008KT CAVOK 23/17 A2996 RMK SCT250 RAFAGAS 13KT NOSIG=
200909041400 METAR MRPV 041400Z 11008KT CAVOK 25/18 A2998 RMK FWE130 FEW250 RAFAGAS 16KT NOSIG=
200909041500 METAR MRPV 041500Z 08007KT CAVOK 26/18 A2999 RMK BKN120 RAFAGAS 12KT NOSIG=
200909041600 METAR MRPV 041600Z 08010KT 9999 FEW035 BKN120 26/18 A2999 RMK TCU E TEMPO 24006=
200909041700 METAR MRPV 041700Z 09012KT 9999 SCT030 SCT120 26719 A2997 RMK RN NE E TEMPO 24006KT=
200909041800 METAR MRPV NIL=
200909041900 METAR MRPV 041900Z 11010KT 9999 SCT020 SCT030 26/18 A2992 RMK TCU SW W RN E NE W NOSIG=
200909042000 METAR MRPV 042000Z 12010KT 9999 4000E -RA VCSH SCT010 BKN020 22/20 A2992 NOSIG=
200909042100 METAR MRPV 042100Z 20004KT 9999 3000W -RA BR SCT002 BKN020 22/20 A2993 BECMG 5000 BR=
200909042200 METAR MRPV 042200Z 29006KT 3000 BR SCT001 BKN010 21/20 A2993 NOSIG=
200909042300 METAR MRPV 042300Z 00000KT 5000 -RA BR SCT002 BKN015 21/20 A2993 TEMPO 3000 BR=
200909050000 METAR MRPV NIL=
200909050100 METAR MRPV NIL=
200909050200 METAR MRPV NIL=
200909050300 METAR MRPV NIL=
200909050400 METAR MRPV NIL=
200909050500 METAR MRPV NIL=
200909050600 METAR MRPV NIL=
200909050700 METAR MRPV NIL=
200909050800 METAR MRPV NIL=
200909050900 METAR MRPV NIL=
200909051000 METAR MRPV NIL=
200909051100 METAR MRPV NIL=
200909051200 METAR MRPV 051200Z 11010KT 9999 SCT025 BKN100 22/17 A2996 CB SW RN E MAX WIND 16KT NOSIG=
200909051300 METAR MRPV 051300Z 12010KT 9999 SCT025 BKN100 22/17 A2997 RMK RN DST NE CB DST SW NOSIG=
200909051400 METAR MRPV 051400Z 12010KT 9999 SCT025 BKN100 22/17 A2997 RMK RN DST NE CB DST SW NOSIG=
200909051500 METAR MRPV 051500Z 10012KT 9999 FEW025 BKN120 25/18 A3001 RMK RN DST NE CB DST SW NOSIG=
200909051600 METAR MRPV 051600Z 10010KT 9999 FEW025 SCT120 27/18 A3001 RMK RN DST NE BECMG 22006KT=
200909051700 METAR MRPV 051700Z 29005KT 9999 SCT022 BKN120 26/19 A3001 RMK TCU N S NOSIG=
200909051800 METAR MRPV 051800Z 27010KT 9999 FEW015TCU BKN120 27/20 A2997 NOSIG=
200909051900 METAR MRPV 051900Z 28010KT 9999 4000 N VCSH SCT012TCU SCT030 26/20 A2995 TS N NE BECMG 4000 +SHRA=
200909052000 METAR MRPV 052000Z 03009KT 030V160KT 9999 2000 NE -TSRA SCT010CB BKN025 24/19 A2994 TEMPO 3000 TSRA=
200909052100 METAR MRPV 052100Z 00000KT 6000 2000NW -RA VCTS FEW010CB BKN025 20/19 A2994 RETS NOSIG=
200909052200 METAR MRPV 052200Z 00000KT 9999 FEW020 SCT120 BKN250 21/19 A2994 TCU N NE SW RN W NOSIG=
200909052300 METAR MRPV 052300Z VRB02KT 9999 SCT015 BKN250 22/20 A2994 CB DST N W RN NE HZ W NOSIG=
200909060000 METAR MRPV NIL=
200909060100 METAR MRPV NIL=
200909060200 METAR MRPV NIL=
200909060300 METAR MRPV NIL=
200909060400 METAR MRPV NIL=
200909060500 METAR MRPV NIL=
200909060600 METAR MRPV NIL=
200909060700 METAR MRPV NIL=
200909060800 METAR MRPV NIL=
200909060900 METAR MRPV NIL=
200909061000 METAR MRPV NIL=
200909061100 METAR MRPV NIL=
200909061200 METAR MRPV 061200Z 09007KT CAVOK 21/17 A2999 RMK FEW120 FEW250 NOSIG=
200909061300 METAR MRPV 061300Z 11008KT CAVOK 22/18 A3001 RMK SCT250 NOSIG=
200909061400 METAR MRPV 061400Z 12010KT 9999 FEW025 BKN250 23/18 A3004 RMK CB DST SW NW NOSIG=
200909061500 METAR MRPV 061500Z 08010KT 9999 FEW025 BKN250 26/19 A3004 RMK VEL.MAX.VTO 16KT CB DST SW NW RN DST ENE HZ W NOSIG=
200909061600 METAR MRPV 061600Z 07010KT 9999 FEW020 SCT250 26/18 A3004 RMK CB DST N NW VEL.MAX.VTO. 15KT NOSIG=
200909061700 METAR MRPV 061700Z 07010KT 9999 FEW015TCU FEW025 27/18 A3003 RMK CB DST SW NW NOSIG=
200909061800 METAR MRPV 061800Z 07010KT 9999 SCT015TCU 28/18 A3001 RMK CB DST SW NW RN DST NE N NW NOSIG=
200909061900 METAR MRPV 061900Z 07010KT 9999 SCT015TCU SCT250 27/19 A2999 RN DST NE NOSIG=
200909062000 METAR MRPV 062000Z 08010KT 9999 SCT015TCU SCT250 27/19 A2996 RMK RN DST NE VEL.MAX.VTO 16KT NOSIG=
200909062100 METAR MRPV 062100Z 07010KT 9999 SCT015TCU SCT250 28/19 A2995 RMK PCPN DST NE BECMG 24006KT=
200909062200 METAR MRPV 062200Z 28004KT 9999 FEW008 SCT015 BKN250 27/21 A2993 RN NE BECMG 5000 BR=
200909062300 METAR MRPV 062300Z 07012KT 9999 FEW004 SCT015 BKN250 25/17 A2994 RMK PCPN DST E NE NOSIG=
200909070000 METAR MRPV NIL=
200909070100 METAR MRPV NIL=
200909070200 METAR MRPV NIL=
200909070300 METAR MRPV NIL=
200909070400 METAR MRPV NIL=
200909070500 METAR MRPV NIL=
200909070600 METAR MRPV NIL=
200909070700 METAR MRPV NIL=
200909070800 METAR MRPV NIL=
200909070900 METAR MRPV NIL=
200909071000 METAR MRPV NIL=
200909071100 METAR MRPV NIL=
200909071200 METAR MRPV 071200Z 13006KT 9999 FEW025 SCT300 21/17 A2997 RMK TCU DST WNW NOSIG=
200909071300 METAR MRPV 071300Z 14005KT 9999 NSC 23/17 A2999 TRACE CU SCT CI CB DST W NW VEL/MAX/VTO 11KT NOSIG=
200909071400 METAR MRPV 071400Z 11007KT 9999 NSC 25/18 A3000 RMK TRACE CU SC CI CB DST NW N NOSIG=
200909071500 METAR MRPV 071500Z 07011KT 9999 FEW035 SCT250 26/17 A3000 RMK CB DST NW NOSIG=
200909071600 METAR MRPV 071600Z 05011KT 9999 SCT030 27/18 A2999 NOSIG=
200909071700 METAR MRPV 071700Z 06009KT 9999 SCT030 28/17 A2999 NOSIG=
200909071800 METAR MRPV 071800Z 07014KT 9999 SCT030 29/18 A2994 NOSIG=
200909071900 METAR MRPV 071900Z 06013KT 9999 FEW035 SCT130 34/22 A2975=
200909072000 METAR MRPV 072000Z 07012KT 9999 SCT030 SCT250 29/18 A2989=
200909072100 METAR MRPV NIL=
200909072200 METAR MRPV 072200Z 08010KT 9999 BKN040 29/18 A2988 NOSIG=
200909072300 METAR MRPV 072300Z 06005KT 9999 4000N VCFG SCT012 BKN020 28/18 A2988 TEMPO 6000 VCFG=
200909080000 METAR MRPV 080000Z NIL=
200909080100 METAR MRPV NIL=
200909080200 METAR MRPV NIL=
200909080300 METAR MRPV NIL=
200909080400 METAR MRPV NIL=
200909080500 METAR MRPV NIL=
200909080600 METAR MRPV NIL=
200909080700 METAR MRPV NIL=
200909080800 METAR MRPV NIL=
200909080900 METAR MRPV NIL=
200909081000 METAR MRPV NIL=
200909081100 METAR MRPV NIL=
200909081200 METAR MRPV 081200Z 11005KT CAVOK 21/17 A2993 RMK BKN250 NOSIG=
200909081300 METAR MRPV 081300Z 10008KT CAVOK 23/17 A2996 CB S SCT250 NOSIG=
200909081400 METAR MRPV 081400Z 08013KT CAVOK 24/18 A2996 SCT250 CB SW DZ N NE NOSIG=
200909081500 METAR MRPV 081500Z 07013KT 9999 SCT035 26/18 A2997 CB N NOSIG=
200909081600 METAR MRPV 081600Z 07012KT 9999 SCT035 26/18 A2997 CB N NOSIG=
200909081700 METAR MRPV 081700Z 08012KT 9999 SCT035 28/18 A2994 NOSIG=
200909081800 METAR MRPV 04010KT 9999 BKN035 27/18 A2994 DU PIST 09 NOSIG=
200909081900 METAR MRPV 081900Z 08011KT 9999 FEW020 SCT035 28/18 A2991 NOSIG=
200909082000 METAR MRPV 082000Z 08011KT 9999 SCT025 BKN100 25/19 A2990 TEMPO BKN020=
200909082100 METAR MRPV 082100Z 09012KT 9999 SCT030 SCT100 27/18 A2987 NOSIG=
200909082200 METAR MRPV 082200Z 06010KT 9999 SCT030 BKN100 25/17 A2988 NOSIG=
200909082300 METAR MRPV 082300Z 31003KT 9999 4000SW BR FEW010 SCT020 BKN100 23/21 A2990 TEMPO 4000 BR=
200909090000 METAR MRPV NIL=
200909090100 METAR MRPV NIL=
200909090200 METAR MRPV NIL=
200909090300 METAR MRPV NIL=
200909090400 METAR MRPV NIL=
200909090500 METAR MRPV NIL=
200909090600 METAR MRPV NIL=
200909090700 METAR MRPV NIL=
200909090800 METAR MRPV NIL=
200909090900 METAR MRPV NIL=
200909091000 METAR MRPV NIL=
200909091100 METAR MRPV NIL=
200909091200 METAR MRPV 091200Z 12007KT CAVOK 21/17 A2994 RMK BKN300 NOSIG=
200909091300 METAR MRPV 091300Z 10008KT CAVOK 23/17 A2997 RMK BKN300 TCU NE SW RAFAGAS 13KT NOSIG=
200909091400 METAR MRPV 091400Z 10010KT 9999 SCT035 SCT300 24/17 A2999 RMKRN N NE RAFAGAS 17KT NOSIG=
200909091500 METAR MRPV 091500Z 09011KT 9999 SCT035 24/16 A3000 NOSIG=
200909091600 METAR MRPV 091600Z 07013KT 9999 SCT035 25/17 A2999 NOSIG=
200909091700 METAR MRPV 091700Z 05010KT 9999 SCT035 27/17 A2999 NOSIG=
200909091800 METAR MRPV 091800Z 10008KT 9999 SCT035 28/17 A2996 NOSIG=
200909091900 METAR MRPV 091900Z 08009KT 9999 SCT035 28/16 A2993 NOSIG=
200909092000 METAR MRPV 092000Z 08011KT 9999 SCT030 28/16 A2992 RMK TCU DST S SW W NOSIG=
200909092100 METAR MRPV 092100Z 08010KT 9999 FEW020 SCT035 28/16 A2990 NOSIG=
200909092200 METAR MRPV 092200Z 23005KT 9999 FEW020 SCT030 28/20 A2990 RMK CB ST RN N TEMPO 5000 VCSH=
200909092300 METAR MRPV 092300Z 28008KT 8000 3000NW VCTS VCSH FEW010CB SCT020 BKN100 23/20 A2993 TEMPO 4000 RA=
200909100000 METAR MRPV 100000Z 26002KT 6000 2000NW BR SCT010 BKN020 21/20 A2995 TEMPO 5000 BR=
200909100100 METAR MRPV NIL=
200909100200 METAR MRPV NIL=
200909100300 METAR MRPV NIL=
200909100400 METAR MRPV NIL=
200909100500 METAR MRPV NIL=
200909100600 METAR MRPV NIL=
200909100700 METAR MRPV NIL=
200909100800 METAR MRPV NIL=
200909100900 METAR MRPV NIL=
200909101000 METAR MRPV NIL=
200909101100 METAR MRPV 101100Z 13005KT CAVOK 20/16 A2999 FEW250 TCU SW NOSIG=
200909101200 METAR MRPV NIL=
200909101300 METAR MRPV 101300Z 13006KT 9999 NSC 22/16 A3000 RMK TRACE CU CI CB DST SW HZ LGT ARND NOSIG=
200909101400 METAR MRPV 101400Z 11008KT 9999 NSC 23/15 A3001 RMK TRACE CU CI HZ LGT W NOSIG=
200909101500 METAR MRPV 101500Z 09012KT 9999 FEW025 25/15 A3002 RMK HZ W FU NW DU 09 NOSIG=
200909101600 METAR MRPV 101600Z 09010KT 9999 FEW025 26/16 A3000 RMK HZ LGT W BECMG 24006KT=
200909101700 METAR MRPV 101700Z 11008KT 9999 FEW025 28/16 A2998 RMK HZ W BECMG 24006KT=
200909101800 METAR MRPV 101800Z 27007KT 9999 SCT025 27/19 A2997 RMK HZ W NOSIG=
200909101900 METAR MRPV 101900Z 29006KT 9999 FEW015TCU SCT025 27/18 A2995 RMK HZ W RN NE N SW BECMG 6000 RA=
200909102000 METAR MRPV 102000Z 30006KT 9999 SCT015TCU BKN025 26/19 A2992 HZ W RN NE/N/SW BECMG 6KMS RA=
200909102100 METAR MRPV 102100Z 09010KT 7000 3000NW -TSRA VCSH SCT010CB BKN020 23 17 A2994 RMK BECMG 3000 TSRA=
200909102200 METAR MRPV 102200Z 25004KT 3000 -RA BR SCT001 BKN012 21/19 A2998 NOSIG=
200909102300 METAR MRPV 102300Z VRB02KT 3000 -RA BR SCT001 BKN010 20/19 A2999 NOSIG=
200909110000 METAR MRPV NIL=
200909110100 METAR MRPV NIL=
200909110200 METAR MRPV NIL=
200909110300 METAR MRPV NIL=
200909110400 METAR MRPV NIL=
200909110500 METAR MRPV NIL=
200909110600 METAR MRPV NIL=
200909110700 METAR MRPV NIL=
200909110800 METAR MRPV NIL=
200909110900 METAR MRPV NIL=
200909111000 METAR MRPV NIL=
200909111100 METAR MRPV NIL=
200909111200 METAR MRPV 111200Z 00000KT CAVOK 19/18 A3003 RMK FEW130 BKN250 CB DST S SW HZ LEVE W NOSIG=
200909111300 METAR MRPV 111300Z 00000KT CAVOK 21/18 A3004 RMK FEW120 BKN250 TCU DST SW HZ W TEMPO 24006KT=
200909111400 METAR MRPV 111400Z 10006KT CAVOK 24/18 A3005 RMK BKN120 SCT250 TCU DST SW HZ W TEMPO 24006KT=
200909111500 METAR MRPV 111500Z 11008KT 9999 FEW030 SCT120 BKN250 25/17 A3004 RMK CB DST SW HZ W NOSIG=
200909111600 METAR MRPV 111600Z 08004KT 9999 FEW030 SCT120 BKN250 27/18 A3004 RMK HZ W TCU SW TEMPO 22006KT=
200909111700 METAR MRPV 111700Z 27010KT 9999 SCT012TCU SCT030 26/18 A3003 PCPN DST N NE HZ W RN DST SW NOSIG=
200909111800 METAR MRPV 111800Z 29010KT 9999 -RA FEW010TCU SCT030 BKN250 23/20 A3000 RMK LOW ST W QUAD DUST RNY 09 TEMPO 6000 RA=
200909111900 METAR MRPV 111900Z 27010KT 8000 -RA SCT010TCU BKN025 23/20 A2998 RMK LOW ST W DUST IN APCH RNY 09 TEMPO 6000=
200909112000 METAR MRPV 112000Z 27004KT 5000 RA BR SCT002 BKN015 21/19 A2999 TEMPO 3000 -RA BR=
200909112100 METAR MRPV 112100Z 28012KT 3000 -RA BR SCT001 BKN012 20/19 A3000 RMK TS DST SW W NOSIG=
200909112200 METAR MRPV 112200Z 26004KT 5000 -RA BR SCT001 BKN015 19/18 A3002 RMK TS DST S SW TEMPO 3000 -RA BR=
200909112300 METAR MRPV 112300Z 00000KT 5000 -RA BR SCT004 BKN020 19/18 A3003 NOSIG=
200909120000 METAR MRPV NIL=
200909120100 METAR MRPV NIL=
200909120200 METAR MRPV NIL=
200909120300 METAR MRPV NIL=
200909120400 METAR MRPV NIL=
200909120500 METAR MRPV NIL=
200909120600 METAR MRPV NIL=
200909120700 METAR MRPV NIL=
200909120800 METAR MRPV NIL=
200909120900 METAR MRPV NIL=
200909121000 METAR MRPV NIL=
200909121100 METAR MRPV NIL=
200909121200 METAR MRPV 121200Z 14006KT CAVOK 20/17 A3001 RMK BKN120 NOSIG=
200909121300 METAR MRPV 121300Z 08010KT CAVOK 22/18 A3003 RMK SCT120 POLVO APROXIMACION PISTA 09 HZ W NOSIG=
200909121400 METAR MRPV 121400Z 10010KT CAVOK 23/18 A3004 RMK BKN120 NOSIG=
200909121500 METAR MRPV 121500Z 09012KT 9999 FEW030 SCT120 BKN250 25/18 A3004 RMK RN DST NE NOSIG=
200909121600 METAR MRPV 121600Z 07010KT 9999 FEW030 BKN250 26/17 A3004 RMK VEL.MAX.VTO 16KT RN DST NE NOSIG=
200909121700 METAR MRPV 121700Z 08010KT 9999 FEW030 BKN250 27/17 A3003 RMK RN DST NE VEL.MAX.VTO 15KT NOSIG=
200909121800 METAR MRPV 121800Z 07010KT 9999 FEW025 BKN250 28/17 A3000 RMK TCU DST SW NW NOSIG=
200909121900 METAR MRPV 121900Z 10010KT 9999 SCT022 BKN250 29/18 A2996 RMK TCU DST SW NW BECMG 24006KT=
200909122000 METAR MRPV 122000Z 10012KT 9999 SCT015TCU BKN250 28/17 A2995 RMK VEL.MAX VTO 17KT BECMG 25006KT=
200909122100 METAR MRPV 122100Z 07010KT 9999 SCT015TCU BKN250 27/17 A2998 RMK RN DST SE/NE TEMPO 25006KT=
200909122200 METAR MRPV 122200Z 28008KT 9999 4000NW VCSH SCT002 SCT012TCU BKN250 24/21 A2996 DU PIST 09 TEMPO 5000 -RA BR=
200909122300 METAR MRPV 122300Z 27007KT 4000 BR SCT001 BKN015 22/21 A2998 VSBY SE S UNL NOSIG=
200909130000 METAR MRPV 130000Z NIL=
200909130100 METAR MRPV NIL=
200909130200 METAR MRPV NIL=
200909130300 METAR MRPV NIL=
200909130400 METAR MRPV NIL=
200909130500 METAR MRPV NIL=
200909130600 METAR MRPV NIL=
200909130700 METAR MRPV NIL=
200909130800 METAR MRPV NIL=
200909130900 METAR MRPV NIL=
200909131000 METAR MRPV NIL=
200909131100 METAR MRPV NIL=
200909131200 METAR MRPV 131200Z 12007KT CAVOK 21/16 A3000 RMK SCT120 BKN250 NOSIG=
200909131300 METAR MRPV 131300Z 13007KT CAVOK 22/16 A3002 RMK SCT120 BKN250 NOSIG=
200909131400 METAR MRPV 131400Z 131400Z11008KT CAVOK 24/17 A3004 SCT250 NOSIG=
200909131500 METAR MRPV 131500Z 09010KT CAVOK 25/17 A3005 SCT120 NOSIG=
200909131600 METAR MRPV 131600Z 12003KT 9999 FEW035 SCT120 27/18 A3006 TEMPO 29006=
200909131700 METAR MRPV 131700Z 29010KT 9999 SCT035 BKN120 27/19 A3003 TEMPO BKN025=
200909131800 METAR MRPV 131800Z 27011KT 9999 SCT020TCU BKN100 26/20 A3003 CB RASH E NW TEMPO 6000 VCSH=
200909131900 METAR MRPV 131900Z 29008KT 9999 VCSH SCT020 BKN100 24/19 A3001 VSBY NE E 6KM DUE VCTSRA=
200909132000 METAR MRPV 132000Z 27005KT 9999 SCT020 BKN100 26/19 A2988 RN E NOSIG=
200909132100 METAR MRPV 132100Z 31004KT 9999 VCSH SCT020TCU BKN100 27/19 A2995 RMK RASH N NE E VIS E 6000MTS NOSIG=
200909132200 METAR MRPV 132200Z 00000KT 8000 3000SW -TSRA SCT010CB BKN020 23/19 A2994 RMK TEMPO 9999=
200909132300 METAR MRPV 132300Z 00000KT 9999 VCSH SCT015 BKN100 23/21 A2995 RMK RASH SW VIS W 5000 MTS NOSIG=
200909140000 METAR MRPV NIL=
200909140100 METAR MRPV NIL=
200909140200 METAR MRPV NIL=
200909140300 METAR MRPV NIL=
200909140400 METAR MRPV NIL=
200909140500 METAR MRPV NIL=
200909140600 METAR MRPV NIL=
200909140700 METAR MRPV NIL=
200909140800 METAR MRPV NIL=
200909140900 METAR MRPV NIL=
200909141000 METAR MRPV NIL=
200909141100 METAR MRPV NIL=
200909141200 METAR MRPV 141200Z 10006KT FEW030 BKN250 20/17 A3002 RMK TCU DST N CB DST S NOSIG=
200909141300 METAR MRPV 141300Z 13004KT 9999 FEW030 BKN250 23/18 A3004 NOSIG=
200909141400 METAR MRPV 141400Z 08009KT 9999 SCT035 BKN250 23/18 A3006 RMK RAFAGAS 15KT NOSIG=
200909141500 METAR MRPV 141500Z 08012KT 9999 SCT040 BKN250 25/18 A3006 RMK RAFAGAS 19KT NOSIG=
200909141600 METAR MRPV NIL=
200909141700 METAR MRPV 141700Z 07009KT 9999 SCT040 28/18 A3006 NOSIG=
200909141800 METAR MRPV 141800Z 05006KT 9999 FEW020 SCT035 28/17 A3002 RMK TEMPO 29008KT=
200909141900 METAR MRPV 141900Z 07008KT 9999 SCT030 28/18 A2999 RMK TCU DST N NOSIG=
200909142000 METAR MRPV 142000Z 06012KT 9999 FEW020 SCT035 28/18 A2996 RMK CB DST RASH NW NOSIG=
200909142100 METAR MRPV 142100Z 05012KT 9999 SCT030 BKN100 28/18 A2995 NOSIG=
200909142200 METAR MRPV 142200Z 08013KT 9999 SCT020 BKN100 26/18 A2995 NOSIG=
200909142300 METAR MRPV 142300Z 10008KT 9999 VCSH SCT020 SCT120 BKN250 24/18 A2996 RMK CB RASH N VIS N 5000MTS TEMPO 5000 VCSH=
200909150000 METAR MRPV NIL=
200909150100 METAR MRPV NIL=
200909150200 METAR MRPV NIL=
200909150300 METAR MRPV NIL=
200909150400 METAR MRPV NIL=
200909150500 METAR MRPV NIL=
200909150600 METAR MRPV NIL=
200909150700 METAR MRPV NIL=
200909150800 METAR MRPV NIL=
200909150900 METAR MRPV NIL=
200909151000 METAR MRPV NIL=
200909151100 METAR MRPV NIL=
200909151200 METAR MRPV 151200Z 11008KT CAVOK 20/15 A3002 FEW250 CB DST SW NOSIG=
200909151300 METAR MRPV 151300Z 11007KT CAVOK 22/16 A3002 RMK FEW250 CB DST S SW NOSIG=
200909151400 METAR MRPV 151400Z 11006KT CAVOK 24/13 A3004 RMK CB SW FEW250 NOSIG=
200909151500 METAR MRPV 151500Z 10008KT CAVOK 26/12 A3004 RMK FEW250 CB SW NOSIG=
200909151600 METAR MRPV 151600Z 09006KT 9999 FEW040 28/10 A3005 TEMPO 29006KT=
200909151700 METAR MRPV 151700Z 28010KT 9999 SCT040 27/19 A3003 NOSIG=
200909151800 METAR MRPV 151800Z 28010KT 9999 SCT035 26/20 A3001 NOSIG=
200909151900 METAR MRPV 151900Z 28010KT 9999 SCT035 27/20 A2999 NOSIG=
200909152000 METAR MRPV 152000Z 27008KT 9999 SCT035 27/20 A2996 NOSIG=
200909152100 METAR MRPV 152100Z 27007KT 9999 FEW020 SCT035 26/21 A2995 RMK TCU ARND NOSIG=
200909152200 METAR MRPV 152200Z 26006KT 9999 SCT020 BKN030 25/20 A2995 CB RASH DST N TEMPO BKN020=
200909152300 METAR MRPV 152300Z 27005KT 9000 3000N -RA BR SCT007CB BKN015 24/21 A2997 TEMPO RA BR BKN010=
200909152345 METAR MRPV 152345Z 30005KT 8000 3000N BR SCT010 SCT020 23/21 A2999 RERA TEMPO 6000 VCFG=
200909160000 METAR MRPV NIL=
200909160100 METAR MRPV NIL=
200909160200 METAR MRPV NIL=
200909160300 METAR MRPV NIL=
200909160500 METAR MRPV NIL=
200909160600 METAR MRPV NIL=
200909160700 METAR MRPV NIL=
200909160800 METAR MRPV NIL=
200909160900 METAR MRPV NIL=
200909161000 METAR MRPV NIL=
200909161100 METAR MRPV NIL=
200909161200 METAR MRPV 161200Z 10003KT CAVOK 19/15 A3000 RMK SCT120 SCT250 NOSIG=
200909161300 METAR MRPV 161300Z 00000KT CAVOK 21/16 A3002 FEW120 BKN250 POLVO PISTA 09 TEMPO 25005KT=
200909161400 METAR MRPV 161400Z 12005KT CAVOK 25/15 A3003 BKN250 TEMPO 24005KT=
200909161500 METAR MRPV 161500Z 10010KT CAVOK 26/17 A3003 RMK BKN250 HZ W BECMG 23006KT=
200909161600 METAR MRPV 161600Z 09008KT 9999 FEW030 BKN250 27/15 A3003 RMK HZ W BECMG 23006KT=
200909161700 METAR MRPV 161700Z 08008KT 9999 FEW030 BKN250 28/15 A3001 RMK HZ W TCU DST SW NW BECMG 23006KT=
200909161900 METAR MRPV 161900Z 26007KT 9999 SCT025TCU BKN250 26/19 A2996 RMK PCPN CB DS NW TEMPO 8000 VCSH=
200909162000 METAR MRPV 162000Z 26010KT 9999 FEW025TCU BKN250 25/20 A2993 RMK PCPN DST NW TEMPO 4000 VCSH=
200909162100 METAR MRPV 162100Z 28012KT 9999 4000NW VCSH FEW010TCU BKN022 25/20 A2991 BECMG 6000 +SHRA=
200909162200 METAR MRPV 162200Z 28010KT 4000 BR SCT002 BKN014 23/20 A2993 RMK VEL.MAX. VTO 15KT NOSIG=
200909162300 METAR MRPV 162300Z 27010KT 3000 -RA BR SCT001 BKN010 21/20 A2995 NOSIG=
200909170000 METAR MRPV NIL=
200909170100 METAR MRPV NIL=
200909170200 METAR MRPV NIL=
200909170300 METAR MRPV NIL=
200909170400 METAR MRPV NIL=
200909170500 METAR MRPV NIL=
200909170600 METAR MRPV NIL=
200909170700 METAR MRPV NIL=
200909170800 METAR MRPV NIL=
200909170900 METAR MRPV NIL=
200909171000 METAR MRPV NIL=
200909171100 METAR MRPV NIL=
200909171200 METAR MRPV 171200Z 00000KT CAVOK 19/17 A3000 RMK SCT250 HZ ARND NOSIG=
200909171300 METAR MRPV 171300Z 00000KT CAVOK 21/18 A3002 RMK FEW100 SCT250 HZY TEMPO 24005KT=
200909171400 METAR MRPV 171400Z 00000KT 9999 SCT030 SCT250 23/18 A3003 RMK VIS 8000W HZ HZY TEMPO 24005KT=
200909171500 METAR MRPV 171500Z 28005KT 5000 BR SCT008 SCT250 23/20 A3004 BECMG 3000 BR=
200909171600 METAR MRPV 171600Z 27005KT 5000 BR SCT010 SCT250 24/19 A3003 NOSIG=
200909171700 METAR MRPV 171700Z 26005KT 7000 FEW035 SCT250 26/19 A3002 RMK HZ ARND TCU DST NE E SE S NOSIG=
200909171800 METAR MRPV 171800Z 28009KT 9999 FEW025TCU FEW035 SCT250 26/20 A2998 RMK HZY SHRA DST NE VIS 8000W HZ NOSIG=
200909171900 METAR MRPV 171900Z 28008KT 8000 3000NE VCSH FEW010TCU FEW030 SCT250 25/20 A2995 RMK HZ ARND NOSIG=
200909172000 METAR MRPV 172000Z 26009KT 7000 3000NW VCSH FEW010TCU BKN025 26/20 A2992 RMK HZ ARND VEL.MAX.VTO 14KT NOSIG=
200909172100 METAR MRPV 172100Z 11008KT 2000 TSRA SCT005CB BKN015 22/19 A2992 TEMPO 5000=
200909172200 METAR MRPV 172200Z 29005KT 3000 DZ BR SCT001 BKN012 21/20 A2974 NOSIG=
200909180000 METAR MRPV 180000Z NIL=
200909180100 METAR MRPV NIL=
200909180200 METAR MRPV NIL=
200909180300 METAR MRPV NIL=
200909180400 METAR MRPV NIL=
200909180500 METAR MRPV NIL=
200909180600 METAR MRPV NIL=
200909180700 METAR MRPV NIL=
200909180800 METAR MRPV NIL=
200909180900 METAR MRPV NIL=
200909181000 METAR MRPV NIL=
200909181100 METAR MRPV NIL=
200909181200 METAR MRPV 181200Z 12002KT CAVOK 20/17 A2997 RMK SCT250 VIS W 8KMS DUE HZ CB DST SW NOSIG=
200909181300 METAR MRPV 181300Z 11003KT CAVOK 22/17 A2998 RMK SCT250 VIS W 6KM DUE HZ TEMPO 24006KT=
200909181400 METAR MRPV 181400Z 11004KT CAVOK 23/17 A3000 SCT110 SCT250 VIS W 7KM DUE HZ TEMPO 24006KT=
200909181500 METAR MRPV 181500Z 12008KT CAVOK 25/16 A2999 HZ W FEW110 FEW250 NOSIG=
200909181600 METAR MRPV 181600Z 08012KT CAVOK 27/16 A2998 SCT250 HZ W NOSIG=
200909181700 METAR MRPV 181700Z 08010KT 9999 FEW030 BKN250 27/17 A2997HZ W NOSIG=
200909181800 METAR MRPV 181800Z 23005KT 9999 FEW025TCU BKN250 28/16 A2995 HZ W RN=
200909181900 METAR MRPV 181900Z 27010KT 9999 SCT020TCU BKN030 25/20 A2993 RN DIST NE SW LINE CB ALNG NW AND W VEL MAX VIENTO 15KTS BECMG 6000 +SHRA=
200909182000 METAR MRPV 182000Z 29010KT 9999 SCT020TCU BKN250 23/19 A2992 RN NE NW LINE CB SW TO W BECMG 3000 VCSH=
200909182100 METAR MRPV 182100Z 28008KT 9999 SCT004 BKN250 23/20 A2991 RMK RN NE SE NW TCU N E W BECMG 5000 BR=
200909182200 METAR MRPV 182200Z 27008KT 8000 VCFG SCT004 BKN250 23/20 A2991 RMK RN CUANDR ANTE E BECMG 5000 BR=
200909182300 METAR MRPV 182300Z 28008KT 5000 BR SCT002 BKN020 23/20 A2993 RMK RN E TSTM E NE BECMG 3000 BR=
200909190000 METAR MRPV NIL=
200909190100 METAR MRPV NIL=
200909190200 METAR MRPV NIL=
200909190300 METAR MRPV NIL=
200909190400 METAR MRPV NIL=
200909190500 METAR MRPV NIL=
200909190600 METAR MRPV NIL=
200909190700 METAR MRPV NIL=
200909190800 METAR MRPV NIL=
200909190900 METAR MRPV NIL=
200909191000 METAR MRPV NIL=
200909191100 METAR MRPV NIL=
200909191200 METAR MRPV 191200Z 11005KT CAVOK 21/17 A2997 RMK SCT250 CB DST SW POLVO APROXIMACION PISTA 09 NOSIG=
200909191300 METAR MRPV 191300Z 11009KT CAVOK 22/17 A2998 RMK SCT250 DU APROXIMACION PISTA 09 NOSIG=
200909191400 METAR MRPV 191400Z 10008KT CAVOK 25/17 A2998 RMK SCT250 NOSIG=
200909191500 METAR MRPV 191500Z 08012KT 9999 FEW040 SCT250 25/18 A3000 NOSIG=
200909191600 METAR MRPV 191600Z 09010KT 9999 FEW040 SCT250 26/18 A3001 RMK DU APROXIMACIO N 09 NOSIG=
200909191700 METAR MRPV 191700Z 08010KT 9999 SCT040 BKN250 27/18 A2999 RMK DU W NOSIG=
200909191800 METAR MRPV 191800Z 07011KT 9999 SCT040 BKN250 27/18 A2996 RMK TCU DST S NOSI G=
200909191900 METAR MRPV 191900Z 08011KT 9999 BKN030 2818 A2993 RMK TCU CB ARND TEMPO 2900 6KT=
200909192000 METAR MRPV 192000Z 29004KT 8000 SCT020CB BKN030 25/21 A2992 RMK CB RASH ARND TEMPO VCSH=
200909192100 METAR MRPV 192100Z 08005KT 9999 2000N TSRA SCT010CB BKN020 21/19 A2995 TEMPO 5000 VCSH=
200909192200 METAR MRPV 192200Z 00000KT 4000 RA BR SCT008 BKN015 20/18 A2997 RMK VIS N 2000 DUE RASH TEMPO 3000 RA=
200909192300 METAR MRPV 192300Z 07006KT 9999 3000NW -RA BR FEW010 OVC100 20/19 A2994 TEMPO CAVOK=
200909200000 METAR MRPV 200000Z 10005KT CAVOK 20/19 A2992 RMK OVC100 NOSIG=
200909200100 METAR MRPV NIL=
200909200200 METAR MRPV NIL=
200909200300 METAR MRPV NIL=
200909200400 METAR MRPV NIL=
200909200500 METAR MRPV NIL=
200909200600 METAR MRPV NIL=
200909200700 METAR MRPV NIL=
200909200800 METAR MRPV NIL=
200909200900 METAR MRPV NIL=
200909201000 METAR MRPV NIL=
200909201100 METAR MRPV NIL=
200909201200 METAR MRPV 201200Z 11007KT 9999 SCT030 BKN250 21/17 A2997 NOSIG=
200909201300 METAR MRPV 201300Z 11007KT 9999 SCT030 BKN250 22/18 A2999 NOSIG=
200909201400 METAR MRPV 201400Z 09009KT 9999 FEW040 BKN250 24/18 A3001 NOSIG=
200909201500 METAR MRPV 201500Z 07008KT 9999 FEW040 BKN250 26/18 A3002 NOSIG=
200909201600 METAR MRPV 201600Z 06013KT 9999 SCT035 26/18 A3002 NOSIG=
200909201700 METAR MRPV 201700Z 07012KT 9999 FEW030 BKN250 26/19 A3000 NOSIG=
200909201800 METAR MRPV 201800Z 07007KT 9999 SCT040 BKN250 28/19 A2997 NOSIG=
200909201900 METAR MRPV 201900Z 08010KT 9999 SCT040 BKN250 29/18 A2993 NOSIG=
200909202000 METAR MRPV NIL=
200909202100 METAR MRPV 202100Z 06012KT 9999 SCT040 BKN250 27/17 A2989 NOSIG=
200909202200 METAR MRPV 202200Z 08007KT 9999 SCT040 BKN250 26/17 A2989 TCU DST SW NOSIG=
200909202300 METAR MRPV 202300Z 10007KT 9999 SCT030 BKN250 25/17 A2991 NOSIG=
200909210000 METAR MRPV 210000Z NIL=
200909210100 METAR MRPV NIL=
200909210200 METAR MRPV NIL=
200909210300 METAR MRPV NIL=
200909210400 METAR MRPV NIL=
200909210500 METAR MRPV NIL=
200909210600 METAR MRPV NIL=
200909210700 METAR MRPV NIL=
200909210800 METAR MRPV NIL=
200909210900 METAR MRPV NIL=
200909211000 METAR MRPV NIL=
200909211100 METAR MRPV NIL=
200909211200 METAR MRPV 211200Z 13005KT 9999 FEW040 BKN250 21/17 A2996 NOSIG=
200909211300 METAR MRPV 211300Z 13005KT 9999 FEW040 BKN250 22/17 A2998 NOSIG=
200909211400 METAR MRPV 211400Z 09012KT 9999 FEW040 BKN250 24/18 A2999 NOSIG=
200909211500 METAR MRPV 211500Z 08015KT 9999 FEW040 BKN250 25/18 A2998 NOSIG=
200909211600 METAR MRPV 211600Z 07015KT 9999 SCT040 BKN250 27/17 A2997 NOSIG=
200909211700 METAR MRPV 211700Z 07011KT 9999 SCT040 BKN250 28/17 A2995 NOSIG=
200909211800 METAR MRPV 211800Z 07011KT 9999 SCT040 OVC250 28/18 A2993 NOSIG=
200909211900 METAR MRPV 211900Z 08013KT 9999 SCT040 OVC250 28/18 A2990 NOSIG=
200909212000 METAR MRPV 212000Z 08010KT 9999 SCT040 OVC250 28/18 A2988 NOSIG=
200909212100 METAR MRPV 212100Z 07015KT 9999 BKN030 OVC250 27/17 A2988 NOSIG=
200909212200 METAR MRPV 212200Z 08012KT 9999 SCT030 OVC250 26/17 A2989 NOSIG=
200909212300 METAR MRPV 212300Z 08008KT 9999 SCT045 OVC250 25/17 A2991 NOSIG=
200909220000 METAR MRPV NIL=
200909220100 METAR MRPV NIL=
200909220200 METAR MRPV NIL=
200909220300 METAR MRPV NIL=
200909220400 METAR MRPV NIL=
200909220500 METAR MRPV NIL=
200909220600 METAR MRPV NIL=
200909220700 METAR MRPV NIL=
200909220800 METAR MRPV NIL=
200909220900 METAR MRPV NIL=
200909221000 METAR MRPV NIL=
200909221100 METAR MRPV NIL=
200909221200 METAR MRPV 221200Z 11009KT CAVOK 21/16 A2990 RMK SCT120 BKN250 VL MX VTO 16KT NOSIG=
200909221300 METAR MRPV 221300Z 12006KT CAVOK 22/17 A2994 RMK FEW120 BKN250 VEL MAX IND 12KT NOSIG=
200909221400 METAR MRPV 221400Z 13007KT CAVOK 23/17 A2996 RMK BKN250 NOSIG=
200909221500 METAR MRPV 221500Z 09011KT 9999 FEW030 BKN250 25/18 A2994 RMK VEL.MAX.VTO 16KT NOSIG=
200909221600 METAR MRPV 221600Z 08013KT 9999 FEW030 BKN250 26/18 A2994 RMK VEL.MAX.VTO 18KT RN DST NE NOSIG=
200909221700 METAR MRPV 221700Z 07010KT 9999 FEW030 BKN250 27/18 A2994 RMK RN DST NE NOSIG=
200909221800 METAR MRPV 221800Z 09010KT 9999 SCT025 BKN250 28/18 A2991 RMK RN DST NE BECMG 23006KT=
200909221900 METAR MRPV 221900Z 08008KT 9999 SCT025 BKN250 28/17 A2988 RMK RN DST NE BECMG 23006KT=
200909222000 METAR MRPV 222000Z 07008KT 9999 SCT025 BKN250 27/18 A2986 RMK RN DST E NW BECMG 23006KT=
200909222100 METAR MRPV 222100Z 24006KT 9999 SCT020 BKN030 26/21 A2985 RN W NW BECMG 6000 -RA=
200909222200 METAR MRPV 222200Z 30006KT 5000 BR SCT002 BKN012 24/21 A2986 RN W NW BECMG 3000 -RA BR=
200909222300 METAR MRPV 222300Z 27008KT 3000 -RA BR SCT001 BKN010 21/20 A2989 TS S SW NOSIG=
200909230000 METAR MRPV NIL=
200909230100 METAR MRPV NIL=
200909230200 METAR MRPV NIL=
200909230300 METAR MRPV NIL=
200909230400 METAR MRPV NIL=
200909230500 METAR MRPV NIL=
200909230600 METAR MRPV NIL=
200909230700 METAR MRPV NIL=
200909230800 METAR MRPV NIL=
200909230900 METAR MRPV NIL=
200909231000 METAR MRPV NIL=
200909231100 METAR MRPV NIL=
200909231200 METAR MRPV 231200Z 10002KT CAVOK 19/17 A2989 RMK SCT120 BKN250 DUST=
200909231300 METAR MRPV 231300Z 11003KT CAVOK 22/18 A2991 SCT120 BKN250 DU PIST 09 NOSIG=
200909231400 METAR MRPV 231400Z 11005KT CAVOK 24/17 A2990 BKN250 NOSIG=
200909231500 METAR MRPV 231500Z 11008KT 9999 FEW030 BKN250 26/18 A2991 MAX WIND13KT NOSIG=
200909231600 METAR MRPV 231600Z 09011KT 9999 SCT030 BKN250 27/18 A2992 NOSIG=
200909231700 METAR MRPV 231700Z 08008KT 9999 FEW015 SCT030 BKN250 28/19 A2991 RN NE MAX WIND 13KT BECMG 25006=
200909231800 METAR MRPV 231800Z 11004KT 9999 SCT025 BKN250 26/20 A2987 HZ W RN NE BECMG 23007=
200909231900 METAR MRPV 231900Z 28010KT 8000 VCFG SCT015TCU BKN030 25/21 A2985 TS N RN NE E BECMG 5000 -RA BR=
200909232000 METAR MRPV NIL=
200909232100 METAR MRPV 232100Z VRB02KT 5000 TSRA FEW010 BKN020 20/19 A2985 TEMPO 3000 -RABR=
200909232200 METAR MRPV 232200Z 00000KT 8000 -RA VCFG FEW010 OVC090 20/19 A2986 NOSIG=
200909232300 METAR MRPV 232300Z 00000KT 8000 -RA VCFG SCT010 OVC090 20/19 A2986 RMK TSTM DST SE NOSIG=
200909232345 SPECI MRPV 232345Z 00000KT 6000 -RA VCFG SCT010 OVC090 20/19 A2988 RMK LTNG DST SW NOSIG=
200909240000 METAR MRPV NIL=
200909240100 METAR MRPV NIL=
200909240200 METAR MRPV NIL=
200909240300 METAR MRPV NIL=
200909240400 METAR MRPV NIL=
200909240500 METAR MRPV NIL=
200909240600 METAR MRPV NIL=
200909240700 METAR MRPV NIL=
200909240800 METAR MRPV NIL=
200909240900 METAR MRPV NIL=
200909241000 METAR MRPV NIL=
200909241100 METAR MRPV NIL=
200909241200 METAR MRPV 241200Z 00000KT CAVOK 20/18 A2988 RMK CB DST SW W POLVO APROXIMACION PISTA 09 BKN100 NOSIG=
200909241300 METAR MRPV 241300Z 00000KT CAVOK 21/18 A2990 RMK BKN120 SCT250 CB DST SW TEMPO 25005KT=
200909241400 METAR MRPV 241400Z 00000KT CAVOK 23/19 A2992 RMK BKN120 TEMPO 24005KT=
200909241500 METAR MRPV 241500Z 00000KT 9999 FEW030 SCT120 BKN250 25/18 A2993 RMK DU APROXIMACION 09 HZ W NW TEMPO 24005KT=
200909241600 METAR MRPV 241600Z 27005KT 9999 FEW030 SCT120 BKN250 25/19 A2992 RMK DU APROXIMACION 09 HZ NW W TCU N NOSIG=
200909241700 METAR MRPV 241700Z 28006KT 9999 FEW020TCU SCT120 BKN250 25/19 A2991 RMK DU APROXIMACION 09 HZ W NW TEMPO 4000 VCSH=
200909241800 METAR MRPV 241800Z 28008KT 9999 4000NE VCSH FEW012TCU BKN030 24/20 A2990 RMK DU APROXIMACION 09 BECMG 5000 -RA VCTS=
200909241900 METAR MRPV 241900Z 29004KT 5000 2000NW -RA VCSH FEW008CB BKN020 22/20 A2987 RMK TSTM N BECMG 3000 -RA BR=
200909242000 METAR MRPV 242000Z VRB02KT 9999 4000NE VCSH SCT010 BKN250 23/20 A2986 RMK CB NW NOSIG=
200909242100 METAR MRPV 242100Z 24004KT 9999 FEW010 SCT025 BKN120 23/20 A2984 RMK LOW ST W BECMG 5000 BR=
200909242200 METAR MRPV 242200Z 27006KT 3000 BR SCT001 BKN012 22/20 A2985 NOSIG=
200909242300 METAR MRPV 242300Z 26004KT 1000 +SHRA SCT001 OVC008 20/19 A2988 RETS NOSIG=
200909250000 METAR MRPV 250000Z 00000KT 5000 -RA BR SCT002 BKN015 20/19 A2989 NOSIG=
200909250100 METAR MRPV NIL=
200909250200 METAR MRPV NIL=
200909250300 METAR MRPV NIL=
200909250400 METAR MRPV NIL=
200909250500 METAR MRPV NIL=
200909250600 METAR MRPV NIL=
200909250700 METAR MRPV NIL=
200909250800 METAR MRPV NIL=
200909250900 METAR MRPV NIL=
200909251000 METAR MRPV NIL=
200909251100 METAR MRPV NIL=
200909251200 METAR MRPV 251200Z 12005KT CAVOK 20/17N A2993 BKN250 NOSIG=
200909251300 METAR MRPV 251300Z 12004KT CAVOK 22/17 A2994 RMK BKN250 NOSIG=
200909251400 METAR MRPV 251400Z 09008KT CAVOK 24/18 A2995 RMK BKN250 VL MX VTO 13KT NOSIG=
200909251500 METAR MRPV 251500Z 09013KT 9999 SCT030 BKN250 26/18 A2996 NOSIG=
200909251600 METAR MRPV 251600Z 10008KT 9999 SCT030 BKN250 25/18 A2997 NOSIG=
200909251700 METAR MRPV 251700Z 09008KT 9999 SCT030 SCT120 BKN250 27/18 A2996 NOSIG=
200909251800 METAR MRPV NIL=
200909251900 METAR MRPV 251900Z 27007KT 9999 SCT025 BKN100 25/21 A2990 RMK RN N NE DU 09 TEMPO BKN020=
200909252000 METAR MRPV 252000Z 29008KT 9999 SCT010TCU BKN020 25/21 A2990 RMK RN N NE TEMPO 5000 VCSH=
200909252100 METAR MRPV 252100Z 28005KT 9999 SCT020 BKN100 25/21 A2988 NOSIG RN DST N/NE=
200909252200 METAR MRPV 252200Z 28007KT 7000 3000SW BR FEW007 SCT012TCU BKN030 24/21 A2988 TEMPO 3000 BR=
200909252300 METAR MRPV 252300Z 00000KT 5000 BR SCT005 BKN015 23/21 A2991 RERA TEMPO 4000 BR=
200909252345 METAR MRPV 252345Z 00000KT 7000 3000N BR SCT010 BKN025 23/21 A2992 TEMPO 6000 VCFG=
200909260000 METAR MRPV NIL=
200909260100 METAR MRPV NIL=
200909260200 METAR MRPV NIL=
200909260300 METAR MRPV NIL=
200909260400 METAR MRPV NIL=
200909260500 METAR MRPV NIL=
200909260600 METAR MRPV NIL=
200909260700 METAR MRPV NIL=
200909260800 METAR MRPV NIL=
200909260900 METAR MRPV NIL=
200909261000 METAR MRPV NIL=
200909261100 METAR MRPV NIL=
200909261200 METAR MRPV 261200Z 10007KT 9999 FEW025 BKN250 22/17 A2995 RMK CB DST SW DU APROXIMACION 09 NOSIG=
200909261300 METAR MRPV 261300Z 13004KT CAVOK 22/17 A2996 RMK BKN250 CB SW NOSIG=
200909261400 METAR MRPV 261400Z 13007KT 9999 FEW030 BKN250 24/17 A2998 NOSIG=
200909261500 METAR MRPV 261500Z 09010KT 9999 SCT030 BKN250 24/18 A2999 RMK DUST APCH 09 NOSIG=
200909261600 METAR MRPV 261600Z 09009KT 9999 SCT020 BKN100 25/18 A2999 TEMPO 29006=
200909261700 METAR MRPV 261700Z 10010KT 9999 SCT030 SCT120 24/17 A2998 PCPN DST N TEMPO BKN020=
200909261800 METAR MRPV 261800Z 08006KT 9999 SCT030 BKN250 27/16 A2994 NOSIG=
200909261900 METAR MRPV 261900Z 07003KT 9999 SCT035 BKN250 29/16 A2990 RMK CB DST S SW NOSIG=
200909262000 METAR MRPV 262000Z 07004KT 9999 SCT035 BKN250 30/16 A2988 TEMPO 31005=
200909262100 METAR MRPV 262100Z 05009KT 9999 SCT040 BKN250 27/16 A2989 NOSIG=
200909262200 METAR MRPV 262200Z 07011KT 9999 SCT030 SCT120 BKN250 26/15 A2990 RMK CB SHRA DST W NOSIG=
200909262300 METAR MRPV 262300Z 09010KT 9999 FEW030 SCT120 BKN250 25/16 A2991 NOSIG=
200909270000 METAR MRPV NIL=
200909270100 METAR MRPV NIL=
200909270200 METAR MRPV NIL=
200909270300 METAR MRPV NIL=
200909270400 METAR MRPV NIL=
200909270500 METAR MRPV NIL=
200909270600 METAR MRPV NIL=
200909270700 METAR MRPV NIL=
200909270800 METAR MRPV NIL=
200909270900 METAR MRPV NIL=
200909271000 METAR MRPV NIL=
200909271100 METAR MRPV NIL=
200909271200 METAR MRPV 271200Z 11004KT CAVOK 20/16 A2994 RMK OVC120 NOSIG=
200909271300 METAR MRPV 271300Z 13007KT CAVOK 22/16 A2995 RMK OVC130 NOSIG=
200909271400 METAR MRPV 271400Z 13007KT CAVOK 23/16 A2999 RMK SCT120 BKN250 NOSIG=
200909271500 METAR MRPV 271500Z 09009KT CAVOK 25/17 A2997 RMK SCT120 BKN250 NOSIG=
200909271600 METAR MRPV 271600Z 08012KT 9999 FEW030 BKN250 26/17 A2998 NOSIG=
200909271700 METAR MRPV 271700Z 08009KT 9999 FEW030 BKN250 28/17 A2995 NOSIG=
200909271800 METAR MRPV 271800Z 07009KT 9999 SCT030 SCT120 BKN250 28/18 A2992 NOSIG=
200909271900 METAR MRPV 271900Z 08012KT 9999 FEW015TCU SCT025 BKN250 28/19 A2989 RMK CB RN DST E TEMPO 4000 VCSH=
200909272000 METAR MRPV 272000Z 08018KT 9999 SCT010CB BKN025 24/18 A2988 RMK DST CB SHRA W NW E TEMPO 4000 VCSH=
200909272100 METAR MRPV NIL=
200909272200 METAR MRPV 272200Z 11012KT 9999 SCT020 BKN250 23/17 A2988 NOSIG=
200909272300 METAR MRPV 272300Z 10007KT 9999 FEW020 SCT100 BKN250 22/17 A2992 NOSIG=
200909280000 METAR MRPV 280000Z NIL=
200909280100 METAR MRPV NIL=
200909280200 METAR MRPV NIL=
200909280300 METAR MRPV NIL=
200909280400 METAR MRPV NIL=
200909280500 METAR MRPV NIL=
200909280600 METAR MRPV NIL=
200909280700 METAR MRPV NIL=
200909280800 METAR MRPV NIL=
200909280900 METAR MRPV NIL=
200909281000 METAR MRPV NIL=
200909281100 METAR MRPV NIL=
200909281200 METAR MRPV 281200Z 12006KT CAVOK 21/17 A2997 BKN120 NOSIG=
200909281300 METAR MRPV 281300Z 10013KT CAVOK 23/16 A2997 FEW120 WIND MAX/18KT NOSIG=
200909281400 METAR MRPV 281400Z 09010KT CAVOK 25/17 A2999 FEW130 NOSIG=
200909281500 METAR MRPV 281500Z 09012KT 9999 FEW030 26/17 A3001 DU PISTA 09 NOSIG=
200909281600 METAR MRPV 281600Z 08010KT 9999 FE030 27/18 A3000 NOSIG=
200909281700 METAR MRPV 281700Z 09008KT 9999 FEW030 28/17 A2997 RN NE BECMG 24006=
200909281800 METAR MRPV 281800Z 10005KT 9999 SCT030 29/17 A2993 RN NE NW BECMG 24006=
200909281900 METAR MRPV 281900Z 08007KT 9999 4000NE VCSH SCT015TCU BKN030 28/17 A2991 RN W NW BECMG 24006=
200909282000 METAR MRPV NIL=
200909282100 METAR MRPV 282100Z 23004KT 6000 VCFG SCT002 BKN015 22/19 A2992 RMK BECMG 3000 BR=
200909282200 METAR MRPV 282200Z 00000KT 5000 -RA BR SCT010 BKN100 22/19 A2994 RMK BECMG 3000 -RA BR=
200909282300 METAR MRPV 282300Z 13007KT 3000 RA FEW020 OVC080 21/19 A2995 NOSIG=
200909290000 METAR MRPV NIL=
200909290100 METAR MRPV NIL=
200909290200 METAR MRPV NIL=
200909290300 METAR MRPV NIL=
200909290400 METAR MRPV NIL=
200909290500 METAR MRPV NIL=
200909290600 METAR MRPV NIL=
200909290700 METAR MRPV NIL=
200909290800 METAR MRPV NIL=
200909290900 METAR MRPV NIL=
200909291000 METAR MRPV NIL=
200909291100 METAR MRPV NIL=
200909291200 METAR MRPV 291200Z 11006KT CAVOK 20/17 A2998 RMK FEW120 BKN250 CB DST S SW W NOSIG=
200909291300 METAR MRPV 291300Z 10004KT CAVOK 21/18 A3001 RMK FW120 BKN250 CBDST S SW NOSIG=
200909291400 METAR MRPV 291400Z 11010KT CAVOK 23/18 A3002 RMK SCT120 SCT250 NOSIG=
200909291500 METAR MRPV 291500Z 07010KT CAVOK 25/18 A3001 RMK SCT120 SCT250 NOSIG=
200909291600 METAR MRPV 291600Z 07008KT 9999 FEW030 SCT120 26/19 A3000 RMK FEW250 TEMPO 24005KT=
200909291700 METAR MRPV 291700Z 00000KT 9999 FEW030 SCT100 27/18 A2998 RMK FEW250 DU APROXIMACION 09 TCU N E SE TEMPO 24005KT=
200909291800 METAR MRPV 291800Z 28010KT 9999 FEW015TCU BKN030 26/21 A2995 RAFAGAS 15KT=
200909291900 METAR MRPV 291900Z 28010KT 9999 FEW012TCU BKKN030 26/20 A2993 RMK RN N NE NOSIG=
200909292000 METAR MRPV 292000Z 29008KT 9999 4000 NW VCTS FEW010CB SCT030 BKN250 24/20 A2993 RMK BECMG 6000 -RA=
200909292100 METAR MRPV 292100Z 06004KT 8000 VCFG SCT010 BKN020 23/18 A2991 RMK PCPN E SE BECMG 6000 -RA=
200909292200 METAR MRPV 292200Z 00000KT 8000 -RA VCFG SCT010 BKN250 23/20 A2991 NOSIG=
200909292300 METAR MRPV 292300Z 00000KT 9999 FEW010 SCT030 BKN250 24/20 A2992 RMK PCPN E NOSIG=
200909300000 METAR MRPV NIL=
200909300100 METAR MRPV NIL=
200909300200 METAR MRPV NIL=
200909300300 METAR MRPV NIL=
200909300400 METAR MRPV NIL=
200909300500 METAR MRPV NIL=
200909300600 METAR MRPV NIL=
200909300700 METAR MRPV NIL=
200909300800 METAR MRPV NIL=
200909300900 METAR MRPV NIL=
200909301000 METAR MRPV NIL=
200909301100 METAR MRPV NIL=
200909301200 METAR MRPV 301200Z 12004KT CAVOK 21/16 A2997 BKN250 CB N NE S NOSIG=
200909301300 METAR MRPV 301300Z 11009KT CAVOK 22/17 A2999 RMK BKN250 VL MX VTO 15KT NOSIG=
200909301400 METAR MRPV 301400Z 08012KT CAVOK 24/17 A3000 RMK BKN250=
200909301500 METAR MRPV 301500Z 08010KT 9999 FEW030 BKN250 26/17 A3001 RMK VL MX VTO 15KT NOSIG=
200909301600 METAR MRPV 301600Z 08010KT 9999 FEW030 BKN250 27/18 A3000 RMK VL MX VTO 15KT=
200909301700 METAR MRPV 301700Z 07010KT 9999 FEW025 BKN250 27/17 A2997 RMK DU 09 NOSIG=
200909301800 METAR MRPV 301800Z 08007KT 9999 SCT025 BKN250 29/17 A2993 NOSIG=
200909301900 METAR MRPV 301900Z 07010KT 9999 SCT025 BKN250 29/18 A2992 RMK VL MX VTO 15KT TCU NE NW NOSIG=
200909302000 METAR MRPV 302000Z 07006KT 9999 SCT022 BKN250 29/18 A2989 RMK TCU NE NE TEMPO 23006KT=
200909302100 METAR MRPV 302100Z 25008KT 9999 SCT020TCU BKN250 27/21 A2988 BECMG 4000 VCSH=
200909302200 METAR MRPV 302200Z 27007KT 7000 VCFG FEW004 SCT010TCU BKN025 26/22 A2989 RN N VIS BECMG 4000 BR=
200909302300 METAR MRPV 302300Z 00000KT 5000 BR SCT002 BKN015 24/20 A2991 TEMPO 3000 -RA BR=
200910010000 METAR MRPV NIL=
200910010100 METAR MRPV NIL=
200910010200 METAR MRPV NIL=
200910010300 METAR MRPV NIL=
200910010400 METAR MRPV NIL=
200910010500 METAR MRPV NIL=
200910010600 METAR MRPV NIL=
200910010700 METAR MRPV NIL=
200910010800 METAR MRPV NIL=
200910010900 METAR MRPV NIL=
200910011000 METAR MRPV NIL=
200910011100 METAR MRPV NIL=
200910011200 METAR MRPV 011200Z 12005KT CAVOK 21/17 A2995 RMK FEW120 BKN250 NOSIG=
200910011300 METAR MRPV 011300Z 11008KT CAVOK 23/18 A2997 RMK BKN250 VEL MAX VTO 15KT NOSIG=
200910011400 METAR MRPV 011400Z 11007KT 9999 FEW030 SCT250 25/18 A3000 NOSIG=
200910011500 METAR MRPV 011500Z 09012KT 9999 FEW025 BKN250 26/18 A2999 NOSIG=
200910011600 METAR MRPV 011600Z 08013KT 9999 BKN020 25/18 A2999 NOSIG=
200910011700 METAR MRPV 011700Z 10009KT 9999 BKN020 26/19 A2997 NOSIG=
200910011800 METAR MRPV 011800Z 09010KT 9999 SCT025 BKN250 28/18 A2994 DUST IN APCH RNY 09 NOSIG=
200910011900 METAR MRPV 011900Z 07010KT 9999 SCT025 BKN250 28/18 A2991 NOSIG=
200910012000 METAR MRPV NIL=
200910012100 METAR MRPV 012100Z 08012KT 9999 SCT025 BKN250 25/18 A2989 RMK SHRA DST NE E TEMPO VCSH=
200910012200 METAR MRPV 012200Z 09010KT 9999 SCT025 BKN120 25/19 A2988 NOSIG=
200910012300 METAR MRPV 012300Z 09010KT 9999 SCT030 BKN120 24/18 A2989 NOSIG=
200910020000 METAR MRPV NIL=
200910020100 METAR MRPV NIL=
200910020200 METAR MRPV NIL=
200910020300 METAR MRPV NIL=
200910020400 METAR MRPV NIL=
200910020500 METAR MRPV NIL=
200910020600 METAR MRPV NIL=
200910020700 METAR MRPV NIL=
200910020800 METAR MRPV NIL=
200910020900 METAR MRPV NIL=
200910021000 METAR MRPV NIL=
200910021100 METAR MRPV NIL=
200910021200 METAR MRPV 021200Z 13003KT 9999 FEW030 SCT120 BKN250 22/17 A2995 NOSIG=
200910021300 METAR MRPV 021300Z 12004KT CAVOK 22/17 A2997 RMK SCT120 BKN250 NOSIG=
200910021400 METAR MRPV 021400Z 13002KT CAVOK 24/18 A2997 RMK SCT120 BKN250 NOSIG=
200910021500 METAR MRPV 021500Z 30005KT 9999 FEW020 SCT120 BKN250 23/19 A2999 NOSIG=
200910021600 METAR MRPV 021600Z 00000KT 9999 SCT020 BKN250 26/19 A2998 NOSIG=
200910021700 METAR MRPV 021700Z 29007KT 9999 SCT020 SCT120 BKN250 25/20 A2996 NOSIG=
200910021800 METAR MRPV 021800Z 28008KT 9999 BKN020 26/20 A2994 NOSIG=
200910021900 METAR MRPV 021900Z 28012KT 9999 VCSH SCT015CB BKN025 25/20 A2990 RMK CB SHRA N NE E VIS 6000E TEMPO 3000 VCSH=
200910022000 METAR MRPV 022000Z 29009KT 9999 3000N VCSH SCT012 BKN020 24/19 A2990 TEMPO 3000 RA=
200910022100 METAR MRPV 022100Z 30006KT 9999 4000N BR SCT008 BKN020 23/21 A2988 RERA TEMPO 3000 BR=
200910022200 METAR MRPV 022200Z 27005KT 8000 VCFG SCT008 BKN015 24/20 A2989 VSBY N 5KM TEMPO 4000 BR=
200910022300 METAR MRPV 022300Z 28004KT 6000 VCFG SCT005 BKN015 23/21 A2990 VSBY N 3KMTEMPO 4000 BR=
200910030000 METAR MRPV NIL=
200910030100 METAR MRPV NIL=
200910030200 METAR MRPV NIL=
200910030300 METAR MRPV NIL=
200910030400 METAR MRPV NIL=
200910030500 METAR MRPV NIL=
200910030600 METAR MRPV NIL=
200910030700 METAR MRPV NIL=
200910030800 METAR MRPV NIL=
200910030900 METAR MRPV NIL=
200910031000 METAR MRPV NIL=
200910031100 METAR MRPV NIL=
200910031200 METAR MRPV 031200Z 12005KT 9999 FEW025 BKN250 21/17 A2995 NOSIG=
200910031300 METAR MRPV 031300Z 12005KT 9999 FEW025 BKN250 23/18 A2997 NOSIG=
200910031400 METAR MRPV 031400Z 09008KT 9999 FEW025 SCT250 25/18 A2997 NOSIG=
200910031500 METAR MRPV 031500Z 10007KT 9999 SCT030 25/17 A2999 NOSIG=
200910031600 METAR MRPV 031600Z 13002KT 9999 SCT030 27/18 A2998 TEMPO 31006KT=
200910031700 METAR MRPV 031700Z 29006KT 9999 FEW020 SCT035 25/20 A2996 TEMPO BKN020=
200910031800 METAR MRPV 031800Z 27006KT 9999 SCT025 BKN040 25/21 A2994 RMK CB RASH N NE E TEMPO BKN020=
200910031900 METAR MRPV 031900Z 28005KT 9999 SCT008 BKN020 26/20 A2992 RMK RN DST NW N NOSIG=
200910032000 METAR MRPV 032000Z 28008KT 9999 SCT007 BKN020 26/21 A2988 RMK CB RASH NW N NE NOSIG=
200910032100 METAR MRPV 032100Z 28008KT 9999 3000 N VCSH SCT008TCU BKN020 23/22 A2988 TEMPO 4000 RA BR=
200910032200 METAR MRPV 032200Z 28007KT 7000 3000NW BR SCT006 BKN015 22/21 A2988 TEMPO 3000 RA BR=
200910032300 METAR MRPV 032300Z 29007KT 9999 4000N BR SCT015 BKN030 22/20 A2989 NOSIG=
200910040000 METAR MRPV NIL=
200910040100 METAR MRPV NIL=
200910040200 METAR MRPV NIL=
200910040300 METAR MRPV NIL=
200910040400 METAR MRPV NIL=
200910040500 METAR MRPV NIL=
200910040600 METAR MRPV NIL=
200910040700 METAR MRPV NIL=
200910040800 METAR MRPV NIL=
200910040900 METAR MRPV NIL=
200910041000 METAR MRPV NIL=
200910041100 METAR MRPV NIL=
200910041200 METAR MRPV 041200Z 14005KT CAVOK 20/17 A2992 RMK FEW120 NOSIG=
200910041300 METAR MRPV 041300Z 12008KT CAVOK 22/17 A2994 RMK FEW120 NOSIG=
200910041400 METAR MRPV 041400Z 10010KT CAVOK 23/18 A2995 RMK FEW120 NOSIG=
200910041500 METAR MRPV 041500Z 09010KT 9999 FEW030 25718 A2997 NOSIG=
200910041520 METAR MRPV 041520Z 26004KT 9999 SCT030 26/19 A2998 NOSIG=
200910041600 METAR MRPV NIL=
200910041700 METAR MRPV 041700Z 27007KT 9999 SCT025 SCT250 26/20 A2996 RN NW ENE NOSIG=
200910041800 METAR MRPV 041800Z 27006KT 9999 FEW012TCU SCT030 BKN250 25/20 A2994 RN N NE BECMG 5000 VCSH=
200910041900 METAR MRPV 041900Z 28007KT 9999 FEW010TCU SCT025 BKN250 24/21 A2991 BECMG 5000 -RA BR=
200910042000 METAR MRPV 042000Z 25007KT 4000 BR SCT002 BKN014 23/21 A2990 NOSIG=
200910042100 METAR MRPV 042100Z 27006KT 5000 BR SCT002 BKN015 24/21 A2988 BECMG 3000 -RA BR=
200910042200 METAR MRPV 042200Z 28010KT 4000 BR SCT002 BKN012 24/21 A2989 NOSIG=
200910042300 METAR MRPV 042300Z 28010KT 3000 -RA BR SCT 002 BKN015 22/20 A2991 NOSIG=
200910050000 METAR MRPV NIL=
200910050100 METAR MRPV NIL=
200910050200 METAR MRPV NIL=
200910050300 METAR MRPV NIL=
200910050400 METAR MRPV NIL=
200910050500 METAR MRPV NIL=
200910050600 METAR MRPV NIL=
200910050700 METAR MRPV NIL=
200910050800 METAR MRPV NIL=
200910050900 METAR MRPV NIL=
200910051000 METAR MRPV NIL=
200910051100 METAR MRPV NIL=
200910051200 METAR MRPV 051200Z 08002KT CAVOK 19/18 A2995 RMK BKN250 NOSIG=
200910051300 METAR MRPV 051300Z 00000KT CAVOK 21/18 A2996 RMK BKN250 TEMPO 24006KT=
200910051400 METAR MRPV 051400Z 00000KT CAVOK 25/18 A2996 RMK SCT250 HZ W TEMPO 24006KT=
200910051500 METAR MRPV 051500Z 26004KT 9999 FEW030 BKN250 26/18 A2997 RMK DU 09 HZ W NOSIG=
200910051600 METAR MRPV 051600Z 27007KT 9999 FEW030 BKN120 26/18 A2998 NOSIG=
200910051700 METAR MRPV 051700Z 28012KT 9999 FEW030 SCT120 26/18 A2996 RMK DU 09 TCU DST NE NW NOSIG=
200910051800 METAR MRPV 051800Z 28011KT 9999 SCT015TCU SCT250 26/18 A2993 RMK VL MX VTO 16KT PCPN E NE DU 09 NOSIG=
200910051900 METAR MRPV 051900Z 28012KT 9999 SCT012TCU SCT250 26/20 A2990 RMK RN E VL MX VTO 17KT BECMG RA=
200910052000 METAR MRPV 052000Z 28010KT 5000 -TSRA FEW010CB BKN020 23/21 A2989 BECMG 3000 TSRA=
200910052100 METAR MRPV 052100Z 28008KT 3000 -RA BR SCT002 BKN015 22/20 A2990 TS DST N NW BECMG 5000 -RA BR=
200910052200 METAR MRPV 052200Z 00000KT 5000 -RA BR SCT001 BKN015 21/20 A2991 NOSIG=
200910052300 METAR MRPV 052300Z 00000KT 4000 RA BR SCT001 BKN014 21/20 A2994 NOSIG=
200910060000 METAR MRPV NIL=
200910060100 METAR MRPV NIL=
200910060200 METAR MRPV NIL=
200910060300 METAR MRPV NIL=
200910060400 METAR MRPV NIL=
200910060500 METAR MRPV NIL=
200910060600 METAR MRPV NIL=
200910060700 METAR MRPV NIL=
200910060800 METAR MRPV NIL=
200910060900 METAR MRPV NIL=
200910061000 METAR MRPV NIL=
200910061100 METAR MRPV NIL=
200910061200 METAR MRPV 061200Z 09007KT CAVOK 20/17 A2994 RMK BKN120 NOSIG=
200910061300 METAR MRPV 061300Z 12004KT CAVOK 21/17 A2997 RMK BKN120 NOSIG=
200910061400 METAR MRPV 061400Z 10005KT CAVOK 23/17 A2998 BKN120 NOSIG=
200910061500 METAR MRPV 061500Z 12006KT CAVOK 26/17 A2999 RMK CB DST SW DUST APCH RNY 09 BECMG 24006KT=
200910061600 METAR MRPV NIL=
200910061700 METAR MRPV 061700Z 29010KT 9999 SCT015TCU 25/19 A2999 RMK CB DST N NE PCPN DST N NE NOSIG=
200910061800 METAR MRPV 061800Z 28005KT 9999 4000NW -RA VCSH SCT010TCU BKN025 22/20 A2998 CB DST N NE BECMG 6000 RA=
200910061900 METAR MRPV 061900Z VRB02KT 9999 FEW010TCU BKN025 23/20 A2995 NOSIG=
200910062000 METAR MRPV 062000Z 00000KT 9999 FEW010 SCT025 BKN100 23/20 A2994 RMK RN DST E S NOSIG=
200910062100 METAR MRPV 062100Z 29004KT 9999 4000NW BR FEW002 SCT025 BKN100 22/20 A2994 RN DST N NW NOSIG=
200910062200 METAR MRPV 062200Z 29005KT 3000 RA BR SCT001 OVC012 20/19 A2995 BECMG 5000 -RA BR BKN015=
200910062300 METAR MRPV 062300Z 00000KT 6000 2000NW RA BR FEW004 BKN025 20/20 A2995 NOSIG=
200910070000 METAR MRPV NIL=
200910070100 METAR MRPV NIL=
200910070200 METAR MRPV NIL=
200910070300 METAR MRPV NIL=
200910070400 METAR MRPV NIL=
200910070500 METAR MRPV NIL=
200910070600 METAR MRPV NIL=
200910070700 METAR MRPV NIL=
200910070800 METAR MRPV NIL=
200910070900 METAR MRPV NIL=
200910071000 METAR MRPV NIL=
200910071100 METAR MRPV NIL=
200910071200 METAR MRPV 071200Z 11009KT 9999 FEW030 SCT120 21/17 A2999 RMK VL MX VTO 15KT NOSIG=
200910071300 METAR MRPV 071300Z 11009KT 9999 FEW030 SCT120 22/17 A3001 RMK VEL.MAX.VTO17KT NOSIG=
200910071400 METAR MRPV 071400Z 10010KT 9999 FEW035 BKN120 23/18 A3003 RMK VEL. MAX.VTO 16KT NOSIG=
200910071500 METAR MRPV 071500Z 08010KT 9999 SCT030 BKN120 24/18 A3003 RMK POLVO APROXIMACION PISTA 09 NOSIG=
200910071600 METAR MRPV 071600Z 07013KT 9999 SCT030 BKN120 26/18 A3003 RMK POLVO APROXIMACION PISTA 09 NOSIG=
200910071700 METAR MRPV 071700Z 07011KT 9999 SCT035 BKN120 27/18 A3002 NOSIG=
200910071800 METAR MRPV 071800Z 07011KT 9999 SCT030 BKN120 28/19 A3000 POLVO APROXIMACION PISTA 09=
200910071900 METAR MRPV 071900Z 07008KT 9999 SCT030 BKN120 27/18 A2998 RMK POLVO APROXIMACION PISTA 09 NOSIG=
200910072000 METAR MRPV 072000Z 06009KT 9999 SCT035 28/18 A2995 NOSIG=
200910072100 METAR MRPV 072100Z 08008KT 9999 BKN030 28/18 A2994 NOSIG=
200910072200 METAR MRPV 072200Z 07008KT 9999 SCT035 26/18 A2994 NOSIG=
200910072300 METAR MRPV 072300Z 06008KT 9999 SCT025 25/17 A2996 NOSIG=
200910080000 METAR MRPV NIL=
200910080100 METAR MRPV 080100Z NIL=
200910080200 METAR MRPV NIL=
200910080300 METAR MRPV NIL=
200910080400 METAR MRPV NIL=
200910080500 METAR MRPV NIL=
200910080600 METAR MRPV NIL=
200910080700 METAR MRPV NIL=
200910080800 METAR MRPV NIL=
200910080900 METAR MRPV NIL=
200910081000 METAR MRPV NIL=
200910081100 METAR MRPV NIL=
200910081200 METAR MRPV 081200Z 11011KT CAVOK 22/17 A2997 RMK SCT250 VEL MAX VTO 18KT NOSIG=
200910081300 METAR MRPV 081300Z 09016KT CAVOK 23/17 A2997 BKN250 VEL/MAX VIENTO 24 NUDOS NOSIG=
200910081400 METAR MRPV 081400Z 10012KT CAVOK 25/17 A2999 BKN250 CB DST SW VEL/MAX/VIENTO 19NUDOS NOSIG=
200910081500 METAR MRPV 081500Z 08017KT 9999 FEW040 BKN250 25/18 A3000 NOSIG=
200910081600 METAR MRPV 081600Z 08015KT 9999 FEW035 BKN250 26/18 A3000 NOSIG=
200910081700 METAR MRPV 081700Z 08012KT 9999 SCT035 BKN250 27/19 A2999 POLVO EN LA PISTA 09 NOSIG=
200910081800 METAR MRPV 081800Z 08011KT 9999 BKN025 26/18 A2997 RN DST N/NE TEMPO BKN020=
200910081900 METAR MRPV 081900Z 08012KT 9999 BKN025 25/18 A2996 RN DST E NOSIG=
200910082000 METAR MRPV 082000Z 08012KT 9999 BKN025 OVC120 25/18 A2994 RN NW/N NOSIG=
200910082100 METAR MRPV 082100Z 08012KT 9999 SCT010TCU BKN020 24/18 A2994 RMK RN N NE E TEMPO 5000 VCSH=
200910082200 METAR MRPV 082200Z 10006KT 9999 4000NW BR SCT007 BKN015 23/19 A2994 TEMPO 3000 BR=
200910082300 METAR MRPV 082300Z 09010KT 9999 SCT012 BKN025 23/18 A2994 NOSIG=
200910090000 METAR MRPV NIL=
200910090100 METAR MRPV NIL=
200910090200 METAR MRPV NIL=
200910090300 METAR MRPV NIL=
200910090400 METAR MRPV NIL=
200910090500 METAR MRPV NIL=
200910090600 METAR MRPV NIL=
200910090700 METAR MRPV NIL=
200910090800 METAR MRPV NIL=
200910090900 METAR MRPV NIL=
200910091000 METAR MRPV NIL=
200910091100 METAR MRPV NIL=
200910091200 METAR MRPV 091200Z 00000KT CAVOK 21/17 A2994 RMK SCT120 BKN250 NOSIG=
200910091300 METAR MRPV 091300Z 00000KT CAVOK 22/17 A2996 RMK SCT090 BKN120 NOSIG=
200910091400 METAR MRPV 091400Z 00000KT CAVOK 23/18 A3000 RMK BKN090 SCT120 DU APROXIMACI ON 09 TEMPO 24005KT=
200910091500 METAR MRPV 091500Z 00000KT CAVOK 24/18 A3000 RMK OVC120 DU W TEMPO 27006KT=
200910091600 METAR MRPV 091600Z 30003KT 999 SCT025 OVC120 24/19 A3000 DU APROXIMACION 09 TEMPO BKN020=
200910091700 METAR MRPV 091700Z 29004KT 9999 SCT030 OVC120 24/19 A2998 RMK TEMPO BKN020=
200910091800 METAR MRPV 091800Z 00000KT 9999 FEW020 SCT035 OVC120 26/19 A2998 TEMPO 28006 KT=
200910091900 METAR MRPV 091900Z 29003KT 9999 SCT020 OVC120 24/20 A2992 RMK RN SE VIS N 5000MTS DUE ST TEMPO BKN020=
200910092000 METAR MRPV 092000Z 28003KT 9999 FEW015TCU SCT025 OVC100 24/20 A2990 RN N NE E VIS 6000 DUE ST RN TEMPO BKN020=
200910092100 METAR MRPV 092100Z 28005KT 9999 SCT025 OVC120 24/20 A2989 RMK VIS N 6000 DUE ST RN NOSIG=
200910092200 METAR MRPV 092200Z 29005KT 9999 BKN020 OVC100 24/20 A2990 RMK CB RASH N NE E TEMPO 5000 VCSH=
200910092300 METAR MRPV 092300Z 17002KT 6000 2000N +RA SCT010 BKN020 21/19 A2992 TEMPO 4000 RA BR=
200910100000 METAR MRPV 100000Z NIL=
200910100100 METAR MRPV NIL=
200910100200 METAR MRPV NIL=
200910100300 METAR MRPV NIL=
200910100400 METAR MRPV NIL=
200910100500 METAR MRPV NIL=
200910100600 METAR MRPV NIL=
200910100700 METAR MRPV NIL=
200910100800 METAR MRPV NIL=
200910100900 METAR MRPV NIL=
200910101000 METAR MRPV NIL=
200910101100 METAR MRPV NIL=
200910101200 METAR MRPV 101200Z 12005KT CAVOK 21/18 A2999 BKN110 NOSIG=
200910101300 METAR MRPV 101300Z 13008KT 9999 FEW030 BKN110 22/19 A3001 NOSIG=
200910101400 METAR MRPV 101400Z 11010G20KT 9999 FEW030 BKN110 24/18 A3002 RMK DU 09=
200910101500 METAR MRPV 101500Z 12008KT 9999 FEW030 BKN110 26/18 A3002 RMK DU 09 NOSIG=
200910101600 METAR MRPV 101600Z 24006KT 9999 SCT025 BKN110 27/18 A3001 RMK DU 09 NOSIG=
200910101700 METAR MRPV 101700Z 27010KT 9999 SCT015 25/20 A2999 NOSIG=
200910101800 METAR MRPV 101800Z 27010KT 9999 FEW010CB SCT020 26/20 A2997 RMK VL MX VTO 15KR RN N NE BECMG 7000 -RA=
200910101900 METAR MRPV 101900Z 30008KT 9999 FEW010CB BKN025 24/21 A2996 RMK PCPN N NE NOSIG=
200910102000 METAR MRPV 102000Z 30008KT 9999 SCT010 BKN020 24/21 A2994 RMK RN N NE E BECMG -RA=
200910102100 METAR MRPV 102100Z 22005KT 3000 -TSRA SCT005CB BKN015 22/21 A2994 WET RNWY NOSIG=
200910102200 METAR MRPV 102200Z 00000KT 6000 -RA VCFG SCT002 BKN018 21/20 A2995 TS DST N BECMG 3000 BR=
200910102300 METAR MRPV 102300Z 00000KT 5000 2000E -RA BR SCT002 BKN015 21/19 A2996 BECMG 3000 BR=
200910110000 METAR MRPV NIL=
200910110100 METAR MRPV NIL=
200910110200 METAR MRPV NIL=
200910110300 METAR MRPV NIL=
200910110400 METAR MRPV NIL=
200910110500 METAR MRPV NIL=
200910110600 METAR MRPV NIL=
200910110800 METAR MRPV NIL=
200910110900 METAR MRPV NIL=
200910111000 METAR MRPV NIL=
200910111100 METAR MRPV NIL=
200910111200 METAR MRPV 111200Z 11006KT CAVOK 21/17 A2999 RMK BKN250 NOSIG=
200910111300 METAR MRPV 111300Z 11012KT CAVOK 23/18 A3000 RMK VEL.MAX.VTO 16KT BKN250 NOSIG=
200910111400 METAR MRPV 111400Z 09010G20KT 9999 FEW030 BKN250 24/18 A3002 RMK RN DST NE NOSIG=
200910111500 METAR MRPV 111500Z 07015G25KT 9999 SCT030 SCT250 24/18 A3003 RMK RN DST NE NOSIG=
200910111600 METAR MRPV 111600Z 06010G20KT 9999 SCT025 SCT250 25/18 A3003 RMK RN DST NE NOSIG=
200910111700 METAR MRPV 111700Z 08010KT 9999 SCT020 SCT030 25/18 A3001 RMK RN DST NE NOSIG=
200910111800 METAR MRPV 111800Z 08010KT 9999 SCT020 SCT030 26/18 A2998 RMK RN DST NE NOSIG=
200910111900 METAR MRPV 111900Z 07010G20KT 9999 BKN025 27/18 A2995 RMK RN NE NOSIG=
200910112000 METAR MRPV 112000Z 08010G20KT 9999 BKN025 27/18 A2993 RMK RN NE NOSIG=
200910112100 METAR MRPV 112100Z 08010KT 9999 FEW015 SCT030 BKN250 26/18 A2993 RN DST NE NOSIG=
200910112200 METAR MRPV 112200Z 07010G20KT 9999 FEW010TCU SCT030 BKN250 27/18 A2994 TS DST ESE PCN DST NE NOSIG=
200910112300 METAR MRPV 112300Z 09010KT 9999 FEW012TCU SCT030 BKN250 23/18 A2996 PCPN DST NE VEL MAX VTO 15KT NOSIG=
200910112345 METAR MRPV 112345Z 09010G20KT 9999 FEW010 SCT030 BKN250 22/18 A2998 RN NE NOSIG=
200910120000 METAR MRPV NIL=
200910120100 METAR MRPV NIL=
200910120200 METAR MRPV NIL=
200910120300 METAR MRPV NIL=
200910120400 METAR MRPV NIL=
200910120500 METAR MRPV NIL=
200910120600 METAR MRPV NIL=
200910120700 METAR MRPV NIL=
200910120800 METAR MRPV NIL=
200910120900 METAR MRPV NIL=
200910121000 METAR MRPV NIL=
200910121100 METAR MRPV NIL=
200910121200 METAR MRPV 121200Z 12008KT 5000 2000N RA SCT010 OVC090 19/16 A2999 BECMG 3000 +SHRA=
200910121300 METAR MRPV 121300Z 11010KT 6000 2000NW RA OVC100 18/17 A3003 NOSIG=
200910121400 METAR MRPV 121400Z 11010KT 9999 -RA FEW015 OVC100 20/17 A3002 NOSIG=
200910121500 METAR MRPV 121500Z VRB02KT CAVOK 21/18 A3000 RERA RMK OVC120 NOSIG=
200910121600 METAR MRPV 121600Z 08010KT CAVOK 23/17 A3000 RMK SCT120 BKN250 VEL.MAX.VTO 15KT NOSIG=
200910121700 METAR MRPV 121700Z 08015G25KT 9999 FEW025 BKN250 24/17 A2998 RMK RN DST NE POLVO APROXIMACION PISTA 09 NOSIG=
200910121800 METAR MRPV 121800Z 08012G22KT 9999 SCT020 SCT250 25/17 A2995 RMK RN DST NE POLVO APROXIMACION PISTA 09 NOSIG=
200910121900 METAR MRPV 121900Z 08010G20KT 9999 SCT020 SCT250N 24/17 A2995 NOSIG=
200910122000 METAR MRPV 122000Z 09010KT 9999 SCT020 SCT250 24/18 A2992 RMK VEL.MAX.=
200910122100 METAR MRPV 122100Z 08010G20KT 9999 SCT020 BKN250 24/18 A2990 RN DST NE NOSIG=
200910122200 METAR MRPV 122200Z 08010KT 9999 SCT020 BKN250 23/17 A2992 RN DST NE CB DST W NOSIG=
200910122300 METAR MRPV 122300Z 09010KT 9999 FEW015 SCT120 BKN250 23/17 A2993 RN DST NE CB DST W VEL/MAX/VT0 16NUDOS NOSIG=
200910130000 METAR MRPV 130000Z 08010KT 9999 SCT010 BKN250 22/17 A2995 RN NE NOSIG=
200910130100 METAR MRPV NIL=
200910130200 METAR MRPV NIL=
200910130300 METAR MRPV NIL=
200910130400 METAR MRPV NIL=
200910130500 METAR MRPV NIL=
200910130600 METAR MRPV NIL=
200910130700 METAR MRPV NIL=
200910130800 METAR MRPV NIL=
200910130900 METAR MRPV NIL=
200910131000 METAR MRPV NIL=
200910131100 METAR MRPV NIL=
200910131200 METAR MRPV 131200Z 14006KT CAVOK 20/15 A2997 RMK BKN250 VEL MAX VTO 11KT NOSIG=
200910131300 METAR MRPV 131300Z 13006KT CAVOK 21/16 A3000 FEW130 BKN250 NOSIG=
200910131400 METAR MRPV 131400Z 10012KT CAVOK 23/16 A3001 SCT130 BKN250 VEL/MAX/VTO 19NUD OS HZ DST N NOSIG=
200910131500 METAR MRPV 131500Z 07013KT CAVOK 24/16 A3001 SCT120 BKN250 VEL/MAX/VTO 20NUD OS NOSIG=
200910131600 METAR MRPV 131600Z 07015KT 9999 FEW035 SCT120 BKN250 26/16 A2999 VEL/MAX/VTO 21 NUDOS NOSIG=
200910131700 METAR MRPV 131700Z 06013KT 9999 SCT030 BKN250 26/16 A2996 NOSIG=
200910131800 METAR MRPV 131800Z 08013KT 9999 SCT035 BKN120 25/16 A2994 NOSIG=
200910131900 METAR MRPV 131900Z 08008KT 9999 BKN030 27/17 A2991 RN E CB NE/E NOSIG=
200910132000 METAR MRPV 132000Z 08011KT 9999 SCT012CB BKN025 26/17 A2989 CB/RN NW/N VIS N 5KMS TEMPO 5000 VCSH=
200910132100 METAR MRPV 132100Z 08013KT 9999 SCT015 BKN025 25/18 A2988 RMK CB SH W NW NOSIG=
200910132200 METAR MRPV 132200Z 30003KT 9999 -RA SCT010TCU BKN020 22/18 A2993 RMK CB RASH NW VIS 5000MTS TEMPO 4000 RA=
200910132300 METAR MRPV 132300Z 00000KT 9999 SCT010 BKN020 21/19 A2995 RERA TEMPO BKN010=
200910140000 METAR MRPV NIL=
200910140100 METAR MRPV NIL=
200910140200 METAR MRPV NIL=
200910140300 METAR MRPV NIL=
200910140400 METAR MRPV NIL=
200910140500 METAR MRPV NIL=
200910140600 METAR MRPV NIL=
200910140700 METAR MRPV NIL=
200910140800 METAR MRPV NIL=
200910140900 METAR MRPV NIL=
200910141000 METAR MRPV NIL=
200910141100 METAR MRPV NIL=
200910141200 METAR MRPV 141200Z 00000KT 9999 SCT040 BKN120 18/16 A3001 NOSIG=
200910141300 METAR MRPV 141300Z 00000KT 9999 FEW040 BKN120 21/18 A3002 NOSIG=
200910141400 METAR MRPV 141400Z 00000KT 9999 SCT030 BKN120 23/18 A3003 RMK TCU DST W NOSI G=
200910141500 METAR MRPV 141500Z 26002KT 9999 SCT025 BKN120 25718 A3004 RMK TCU W NOSIG=
200910141600 METAR MRPV 141600Z 31002KT 9999 SCT025 BKN120 25718 A3002 NOSIG=
200910141700 METAR MRPV 141700Z 27003KT 9999 SCT025 OVC100 25/18 A3001 RMK SCT TCU ARND NOSIG=
200910141800 METAR MRPV 141800Z 28010KT 9999 4000N VCSH FEW005TCU SCT015 BKN020 224/20 A2999 RMK RASH NW N NE E TEMPO 3000 BKN010=
200910141900 METAR MRPV 141900Z 29010KT 3000 1000N RA BR VCSH SCT006CB BKN010 21/19 A2998 TS NE SE TEMPO 2000 TSRA BKN010CB=
200910142000 METAR MRPV 142000Z 00000KT 3000 -RA BR SCT008 OVC020 20/19 A2997 RMK TS SE S TEMPO 2000 RA BR=
200910142100 METAR MRPV 142100Z 11003KT 9999 -RA VCFG FEW012 OVC100 20/18 A2995 TEMPO 6000 VCFG=
200910142200 METAR MRPV 142200Z 00000KT CAVOK 20/19 A2995 RMK OVC120 NOSIG=
200910142300 METAR MRPV 142300Z 08003KT CAVOK 21/18 A2996 RMK OVC120 NOSIG=
200910150000 METAR MRPV 150000Z NIL=
200910150100 METAR MRPV NIL=
200910150200 METAR MRPV NIL=
200910150300 METAR MRPV NIL=
200910150400 METAR MRPV NIL=
200910150500 METAR MRPV NIL=
200910150600 METAR MRPV NIL=
200910150700 METAR MRPV NIL=
200910150800 METAR MRPV NIL=
200910150900 METAR MRPV NIL=
200910151000 METAR MRPV NIL=
200910151100 METAR MRPV NIL=
200910151200 METAR MRPV 151200Z 12006KT 9999 NSC 19/16 A2996 TRAZAS CU AC CB DST SW NOSIG=
200910151300 METAR MRPV 151300Z 10004KT 9999 NSC 21/16 A2996 RMK TRACE CU CI NOSIG=
200910151400 METAR MRPV 151400Z 12002KT CAVOK 24/16 A2998 RMK FEW250 TEMPO 24006KT=
200910151500 METAR MRPV 151500Z 00000KT CAVOK 26/17 A3000 RMK SCT250 TEMPO 28006KT=
200910151600 METAR MRPV 151600Z 28006KT 9999 FEW040 25/17 A2999 NOSIG=
200910151700 METAR MRPV 151700Z 29008KT 9999 SCT035 26/19 A2996 NOSIG=
200910151800 METAR MRPV 151800Z 28004KT 9999 BKN040 26/19 A2993 RMK TCU N S SW NOSIG=
200910151900 METAR MRPV 151900Z 28006KT 9999 FEW015TCU BKN030 25/20 A2991 RMK TCU SCT ARND TEMPO BKN020=
200910152000 METAR MRPV 152000Z 00000KT 9999 RA SCT020TCU BKN030 26/19 A2989 RMK DU 09 CB RASH SW NOSIG=
200910152100 METAR MRPV 152100Z 28005KT 9999 VCSH FEW012 SCT035 24/20 A2988 RERA VIS NW N 6KMS NOSIG=
200910152200 METAR MRPV 152200Z 29004KT 9999 VCFG FEW010 SCT020 24/20 A2989 RMK VIS N 6KMS TEMPO BKN020=
200910152300 METAR MRPV 152300Z 29004KT 9999 4000N BR SCT004 BKN250 22/20 A2990 TEMPO 4000 BKN006=
200910152345 METAR MRPV 152345Z 30002KT 5000 BR SCT007 BKN250 22/19 A2991 TEMPO 7000=
200910160000 METAR MRPV NIL=
200910160100 METAR MRPV NIL=
200910160200 METAR MRPV NIL=
200910160300 METAR MRPV NIL=
200910160400 METAR MRPV NIL=
200910160500 METAR MRPV NIL=
200910160600 METAR MRPV NIL=
200910160700 METAR MRPV NIL=
200910160800 METAR MRPV NIL=
200910160900 METAR MRPV NIL=
200910161000 METAR MRPV NIL=
200910161100 METAR MRPV NIL=
200910161200 METAR MRPV 161200Z 12008KT CAVOK 20/16 A2995 RMK BKN250 RAFAGAS 13KT NOSIG=
200910161300 METAR MRPV 161300Z 13007KT CAVOK 21/16 A2998 RMK BKN250 VEL MAX VTO 12KT NOSIG=
200910161400 METAR MRPV 161400Z 10011KT CAVOK 23/16 A2997 RMK SCT250 VEL MAX VTO 18KT NOSIG=
200910161500 METAR MRPV 161500Z 08012KT CAVOK 24/16 A2998 RMK FEW250 NOSIG=
200910161600 METAR MRPV 161600Z 08005KT CAVOK 26/16 A2997 RMK FEW250 VEL MAX VTO 10KT BECMG FM1637 25006KT=
200910161700 METAR MRPV NIL=
200910161800 METAR MRPV 161800Z 28007KT 9999 FEW020 BKN040 25/19 A2992 NOSIG=
200910161900 METAR MRPV 161900Z 30006KT 9999 FEW020TCU BKN030 26/19 A2990 RMK PCPN DST NW BECMG -RA=
200910162000 METAR MRPV 162000Z 29010KT 9999 FEW012TCU BKN025 24/20 A2988 RMK DUST PISTA 09 BECMG -RA=
200910162100 METAR MRPV 162100Z 00000KT 9999 FEW010CB BKN025 23/20 A2988 RMK RN DST NW POLVO APROXIMACION PISTA 09 BECMG 5000 -TSRA=
200910162200 METAR MRPV 162200Z 28006KT 6000 VCFG SCT001 BKN015 21/19 A2990 RMK VIS 9999 E SE BECMG 3000 BR=
200910162300 METAR MRPV 162300Z 30004KT 3000 BR SCT001 BKN010 20/19 A2992 NOSIG=
200910170000 METAR MRPV NIL=
200910170100 METAR MRPV NIL=
200910170200 METAR MRPV NIL=
200910170300 METAR MRPV NIL=
200910170400 METAR MRPV NIL=
200910170500 METAR MRPV NIL=
200910170600 METAR MRPV NIL=
200910170700 METAR MRPV NIL=
200910170800 METAR MRPV NIL=
200910170900 METAR MRPV NIL=
200910171000 METAR MRPV NIL=
200910171100 METAR MRPV NIL=
200910171200 METAR MRPV 171200Z 11010KT CAVOK 21/16 A2997 RMK VL MX VTO 15KT BKN250=
200910171300 METAR MRPV 171300Z 11010KT 9999 FEW030 BKN250 22/16 A2998 RMK VEL.MAX.VTO 16KT NOSIG=
200910171400 METAR MRPV 171400Z 10010G20KT 9999 FEW030 BKN250 23/16 A3001 NOSIG=
200910171500 METAR MRPV 171500Z 09011G21KT 9999 FEW030 BKN250 24/15 A3002 RMK RN DST NE NOSIG=
200910171600 METAR MRPV 171600Z 07010G20KT 9999 SCT030 BKN250 26/15 A3002 RMK RN DST NE NOSIG=
200910171700 METAR MRPV 171700Z 07010G20KT 9999 SCT030 BKN250 26/16 A3000 RMK RN DST NE NOSIG=
200910171800 METAR MRPV 171800Z 07010G20KT 9999 SCT030 BKN250 27/16 A2997 RMK RN DST NE NOSIG=
200910171900 METAR MRPV 171900Z 08010G20KT 9999 SCT030 BKN250 27/16 A2995 RMK RN DST NE NOSIG=
200910172000 METAR MRPV 172000Z 07010G20KT 9999 FEW020TCU SCT030 BKN250 27/16 A2992 RMK RN DST NE NW NOSIG=
200910172100 METAR MRPV 172100Z 07010KT 9999 SCT015TCU BKN030 25/17 A2992 RN DST NE/NW BECMG 23007KT=
200910172200 METAR MRPV 172200Z 06010KT 9999 SCT15TCU BKN030 24/16 A2992 RN NE/NW BECMG 23007KT=
200910172300 METAR MRPV 172300Z VRB02KT 9999 4000NW BR FEW002 SCT010 BKN025 22/18 A2995 RN NE/NW BECMG 6000 -RA=
200910180000 METAR MRPV NIL=
200910180100 METAR MRPV NIL=
200910180200 METAR MRPV NIL=
200910180300 METAR MRPV NIL=
200910180400 METAR MRPV NIL=
200910180500 METAR MRPV NIL=
200910180600 METAR MRPV NIL=
200910180700 METAR MRPV NIL=
200910180800 METAR MRPV NIL=
200910180900 METAR MRPV NIL=
200910181000 METAR MRPV NIL=
200910181100 METAR MRPV NIL=
200910181200 METAR MRPV 181200Z 10010KT 9999 FEW025 BKN250 21/16 A2997 RMK PCPN DST NE NOSIG=
200910181300 METAR MRPV 181300Z 10012KT 9999 FEW025 BKN250 21/17 A3000 RN DST NE NOSIG=
200910181400 METAR MRPV 181400Z 11010KT 9999 FEW025 BKN250 22717 A3001 RN NE NOSIG=
200910181500 METAR MRPV 181500Z 10010KT 9999 FEW025 BKN250 24/16 A3002 RN NE NOSIG=
200910181600 METAR MRPV 181600Z 11010KT 9999 FEW025 BKN250 26/17 A3002=
200910181700 METAR MRPV 181700Z 07008KT 9999 FEW025 BKN250 27/17 A3000 RN TCU NE BECMG 24006KT=
200910181800 METAR MRPV 181800Z 27012KT 9999 SCT020TCU BKN250 25/20 A2997 RN DST NE NOSIG=
200910181900 METAR MRPV 181900Z 28010KT 9999 FEW010CB SCT020 BKN250 26/19 A2994 RN DST NE/E BECMG 5000 -TSRA=
200910182000 METAR MRPV 182000Z 29009KT 9000 4000NE -RA VCSH FEW010CB BKN020 24/20 A2992 BECMG 5000 SHRA=
200910182100 METAR MRPV 182100Z 29009KT 8000 3000NE VCSH SCT008 BKN025 23/19 A2991 RMK BECMG 5000 -RA BR=
200910182200 METAR MRPV 182200Z 30005KT 8000 3000NW VCSH SCT010 BKN025 22/19 A2992 BECMG 5000 RA BR=
200910182300 METAR MRPV 182300Z 31005KT 5000 -RA BR SCT001 BKN015 21/19 A2995 RMK TEMPO 3000 -RA BR BKN012=
200910190000 METAR MRPV NIL=
200910190100 METAR MRPV NIL=
200910190200 METAR MRPV NIL=
200910190300 METAR MRPV NIL=
200910190400 METAR MRPV NIL=
200910190500 METAR MRPV NIL=
200910190600 METAR MRPV NIL=
200910190700 METAR MRPV NIL=
200910190800 METAR MRPV NIL=
200910190900 METAR MRPV NIL=
200910191000 METAR MRPV NIL=
200910191100 METAR MRPV NIL=
200910191200 METAR MRPV 191200Z 00000KT 9999 VCFG SCT0080 BKN250 17/17 A2993 RMK VIS 7000W NOSIG=
200910191300 METAR MRPV 191300Z 00000KT CAVOK 19/17 A2994 RMK BKN250 CB DST SW DELGADO BANCO FG W NOSIG=
200910191400 METAR MRPV 191400Z 00000KT CAVOK 22/18 A2995 RMK BKN250 HZ W CB SW DU APROXI MACION 09 TEMPO 24005KT=
200910191500 METAR MRPV 191500Z 28003KT 9999 FEW030 BKN250 24/19 A2996 NOSIG=
200910191600 METAR MRPV 191600Z 30005KT 9999 SCT030 BKN250 26/19 A2996 RMK TCU DST N E DU APROXIMACION 09 NOSIG=
200910191700 METAR MRPV 191700Z 24002KT 9999 FEW015 SCT035 BKN250 26/19 A2993 NOSIG=
200910191800 METAR MRPV 191800Z 08009KT 9999 SCT020TCU BKN035 26/18 A2990 RMK RN N E TEMP O BKN020=
200910191900 METAR MRPV 191900Z 09010KT 9999 1000N +RA VCTS SCT010CB BKN025 22/19 A2990 TEMPO 2000 RA=
200910192000 METAR MRPV 192000Z 00000KT 9999 3000SW -RA VCTS SCT015CB OVC020 20/19 A2989 TEMPO 9999=
200910192100 METAR MRPV 192100Z 30004KT 9999 3000SW BR FEW010 SCT020 BKN100 20/19 A2988 TEMPO 4000 BR=
200910192200 METAR MRPV 192200Z 00000KT 9999 2000W BR FEW007 SCT020 BKN100 21/19 A2988 TEMPO 5000 BR=
200910192300 METAR MRPV 192300Z 00000KT 5000 2000W BR FEW006 SCT012 BKN020 20/19 A2989 RMK VIS N UNL NOSIG=
200910200000 METAR MRPV NIL=
200910200100 METAR MRPV NIL=
200910200200 METAR MRPV NIL=
200910200300 METAR MRPV NIL=
200910200400 METAR MRPV NIL=
200910200500 METAR MRPV NIL=
200910200600 METAR MRPV NIL=
200910200700 METAR MRPV NIL=
200910200800 METAR MRPV NIL=
200910200900 METAR MRPV NIL=
200910201000 METAR MRPV NIL=
200910201100 METAR MRPV NIL=
200910201200 METAR MRPV 201200Z 00000KT 4000 BR FEW001 SCT006 19/18 A2991 SCT120 TEMPO 6000 VCFG=
200910201300 METAR MRPV 201300Z 00000KT 9999 VCFG FEW002 BKN250 20/20 A2992 RMK VIS N NW W 7000 DU 09 TEMPO 24008KT=
200910201400 METAR MRPV 201400Z 00000KT 9999 FEW010 SCT250 22/19 A2994 RMK DELGADOS BANCOS DE NIEBLA W N TEMPO 24006KT=
200910201500 METAR MRPV 201500Z 30003KT 9000 3000SW BR SCT010 BKN250 23/18 A2995 RMK DU 09 TEMPO BKN010=
200910201600 METAR MRPV 201600Z 29003KT 8000 VCFG SCT010 BKN025 23/19 A2995 RMK DU 09 TEMPO 5000 BR=
200910201700 METAR MRPV 201700Z 29006KT 8000 VCFG SCT010 BKN025 23/19 A2992 TEMPO BKN015=
200910201800 METAR MRPV 201800Z 28007KT 8000 VCSH FEW007 SCT015 BKN025 23/20 A2989 RMK VIS N 5000 TEMPO 5000 VCSH BKN010=
200910201900 METAR MRPV 201900Z 30006KT 9999 FEW010TCU BKN020 25/19 A2986 RMK SH DST SE W NW TEMPO 5000 SHRA VCTS FEW008CB BKN010TCU=
200910202000 METAR MRPV 202000Z 28009KT 7000 3000N RA SCT008TCU BKN015 22/20 A2984 TEMPO 4000 RA BR=
200910202100 METAR MRPV 202100Z 27003KT 3000 RA BR SCT006 BKN010 21/20 A2984 RMK VIS W 6KMS TEMPO 5000 BKN015=
200910202200 METAR MRPV 202200Z 29006KT 2000 -RA BR SCT004 BKN010 20/20 A2985 NOSIG=
200910202300 METAR MRPV 202300Z 29005KT 4000BR SCT002 BKN006 20/19 A2989 RMK VIS NW UNL NOSIG=
200910210000 METAR MRPV NIL=
200910210100 METAR MRPV NIL=
200910210200 METAR MRPV NIL=
200910210300 METAR MRPV NIL=
200910210400 METAR MRPV NIL=
200910210500 METAR MRPV NIL=
200910210600 METAR MRPV NIL=
200910210700 METAR MRPV NIL=
200910210800 METAR MRPV NIL=
200910210900 METAR MRPV NIL=
200910211000 METAR MRPV NIL=
200910211100 METAR MRPV NIL=
200910211200 METAR MRPV 211200Z 00000KT 3000 1000SW BR FEW001 BKN006 19/19 A2992 NOSIG=
200910211300 METAR MRPV 211300Z 00000KT 4000 1500SW BR FEW001 BKN012 20/20 A2995 TEMPO 5000 BR=
200910211400 METAR MRPV 211400Z 00000KT 8000 VCFG SCT010 SCT020 22/19 A2995 RMK VIS NE E 5KMS DUST IN APCH RNY 09 TEMPO 24005KT 9999=
200910211500 METAR MRPV 211500Z 00000KT 7000 VCFG SCT006 BKN015 22/19 A2996 RMK DUST APCH RNY 09 VIS W UNL TEMPO 28006=
200910211600 METAR MRPV 211600Z 00000KT 5000 BR SCT006 OVC100 22/20 A2996 VIS SW 3KMS DUST W TEMPO 28006KT=
200910211700 METAR MRPV 211700Z 27003KT 5000 BR SCT006 BKN100 22/20 A2994 VIS SW 3KMS TEMPO BKN020=
200910211800 METAR MRPV 211800Z 26004KT 7000 VCFG SCT005 BKN015 23/20 A2992 VIS S SW 4KMS TEMPO 4000 BKN010=
200910211900 METAR MRPV 211900Z 16003KT 5000 DZ BR SCT005 BKN010 22/20 A2989 RMK VIS SW 3KMS TEMPO 3000 RA=
200910212000 METAR MRPV 212000Z 28005KT 3000 RA BR SCT003 OVC010 21/20 A2987 TEMPO 2000 RA=
200910212100 METAR MRPV 212100Z 00000KT 2000 BR SCT003BKN010 20/20 A2986 NOSIG=
200910212200 METAR MRPV 212200Z 28005KT 2000 BR SCT002 OVC008 20/19 A2987 NOSIG=
200910212300 METAR MRPV 212300Z 00000KT 4000 BR SCT002 OVC010 20/19 A2988 TEMPO 6000 VCFG=
200910220000 METAR MRPV 220000Z NIL=
200910220100 METAR MRPV NIL=
200910220200 METAR MRPV NIL=
200910220300 METAR MRPV NIL=
200910220400 METAR MRPV NIL=
200910220500 METAR MRPV NIL=
200910220600 METAR MRPV NIL=
200910220700 METAR MRPV NIL=
200910220800 METAR MRPV NIL=
200910220900 METAR MRPV NIL=
200910221000 METAR MRPV NIL=
200910221100 METAR MRPV NIL=
200910221200 METAR MRPV 221200Z 00000KT 9999 4000E BR FEW001 SCT 35 BKN100 20/19 A2992 RMK DU 09 NOSIG=
200910221300 METAR MRPV 221300Z 00000KT 7000 VCFG FEW001 BKN100 20/20 A2994 RMK VIS E 4KM DUE FOG VIS N/SE UNL TEMPO 24003KT 5000 BR BKN010=
200910221400 METAR MRPV 221400Z 00000KT 6000 VCFG FEW001 BKN100 21/20 A2996 RMK VIS QUADNT S UNL POCVO EN LAS SERCANIAS DE LA PISTA 09 TEMPO 24003KT 5000 BR BKN010=
200910221500 METAR MRPV 221500Z 00000KT 8000 VCFG SCT006 BKN120 23/19 A2998 RMK POLVO EL LA PISTA 09 BECMG 24006=
200910221600 METAR MRPV 221600Z 26005KT 8000 VCFG SCT008 SCT120 23/20 A2996 RMK POLVO PISTA 09 NOSIG=
200910221700 METAR MRPV 221700Z 27008KT 8000 VCFG SCT010 BKN120 22/19 A2995 NOSIG=
200910221800 METAR MRPV 221800Z 29008KT 5000 -RA BR SCT002 BKN015 22/20 A2993 BECMG 3000 BR -RA=
200910221900 METAR MRPV 221900Z 29005KT 5000 -RA BR SCT002 BKN015 21/19 A2991 BECMG 3000 -RA BR=
200910222000 METAR MRPV 222000Z 24004KT 7000 -RA VCFG SCT006 BKN020 22/20 A2987 NOSIG=
200910222100 METAR MRPV 222100Z 27005KT 3000 BR SCT001 BKN012 21/20 A2987 NOSIG=
200910222200 METAR MRPV 222200Z 32004KT 6000 VCFG SCT002 BKN020 21/19 A2987 NOSIG=
200910222300 METAR MRPV 222300Z 00000KT 6000 DZ VCFG SCT005 OVC120 21/19 A2987 NOSIG=
200910230000 METAR MRPV NIL=
200910230100 METAR MRPV NIL=
200910230200 METAR MRPV NIL=
200910230300 METAR MRPV NIL=
200910230400 METAR MRPV NIL=
200910230500 METAR MRPV NIL=
200910230600 METAR MRPV NIL=
200910230700 METAR MRPV NIL=
200910230800 METAR MRPV NIL=
200910230900 METAR MRPV NIL=
200910231000 METAR MRPV NIL=
200910231100 METAR MRPV NIL=
200910231200 METAR MRPV 231200Z 00000KT CAVOK 20/19 A2990 RMK DUST APCH RNY09 BKN090 NOSIG=
200910231300 METAR MRPV 231300Z 08003KT CAVOK 21/19 A2991 POLVO APROX/09 BKN090 TEMPO 24004KT=
200910231400 METAR MRPV 231400Z 00000KT CAVOK 22/19 A2994 LIGERA HZ NW POLVO APROX/09 BKN090 24004KT=
200910231500 METAR MRPV 231500Z 28005KT 9999 4000NW BR FEW020 BKN100 23/19 A2996 POLVO APROX/09 NOSIG=
200910231600 METAR MRPV 231600Z 28007KT 8000 VCFG SCT015 BKN030 23/19 A2995 POLVO APROX. 09 BECMG 5000 -RA BR=
200910231700 METAR MRPV 231700Z 24005KT 8000 -DZ VCFG SCT015 BKN030 23/20 A2993 POLVO APROX/09 BECMG 5000 -RA BR=
200910231800 METAR MRPV 231800Z 26006KT 9999 SCT012TCU BKN100 25/20 A2989 BECMG CHECK TEXT NEW ENDING ADDED KATLYTAA=
200910231900 METAR MRPV 231900Z 26005KT 9999 SCT015TCU SCT100 24/20 A2987 RN DST N NE SW BECMG -RA=
200910232000 METAR MRPV 232000Z 27008KT 9999 3000S BR FEW010CB BKN020 23/20 A2984 RN N NW BECMG 5000 +SHRA=
200910232100 METAR MRPV 232100Z 28010KT 5000 BR SCT002 BKN015 23/20 A2983 RMK RN N NE E ST MOVIENDOSE DE W A E BECMG 3000 RA BR=
200910232200 METAR MRPV 232200Z 28010KT 5000 2000NW -RA VCSH SCT002 BKN015 21/20 A2985 RMK ST MOVIENDOSE DE W A E BECMG 3000 -RA BR=
200910232300 METAR MRPV 232300Z 32006KT 3000 -RA BR SCT001 OVC008 20/20 A2989 NOSIG=
200910240000 METAR MRPV NIL=
200910240100 METAR MRPV NIL=
200910240200 METAR MRPV NIL=
200910240300 METAR MRPV NIL=
200910240400 METAR MRPV NIL=
200910240500 METAR MRPV NIL=
200910240600 METAR MRPV NIL=
200910240700 METAR MRPV NIL=
200910240800 METAR MRPV NIL=
200910240900 METAR MRPV NIL=
200910241000 METAR MRPV NIL=
200910241100 METAR MRPV NIL=
200910241200 METAR MRPV 241200Z 00000KT CAVOK 19/18 A2994 RMK BKN090 NOSIG=
200910241300 METAR MRPV 241300Z 06006KT CAVOK 19/18 A2995 RMK SCT100 OVC250 NOSIG=
200910241400 METAR MRPV 241400Z 00000KT CAVOK 21/18 RMK FEW100 OVC250 NOSIG=
200910241500 METAR MRPV 241500Z 24004KT CAVOK 22/19 A2997 RMK CB DST W FEW100 OVC250=
200910241600 METAR MRPV 241600Z 29007KT 9999 FEW020 SCT100 BKN250 23/19 A2997 RMK CB DST N HZ N NOSIG=
200910241700 METAR MRPV 241700Z 27005KT 9999 SCT020 BKN250 24/19 A2995 RMK HZ N RN NE NOSIG=
200910241800 METAR MRPV 241800Z 27007KT 9999 SCT020TCU BKN250 24/19 A2991 RMK RN NE BECMG 4000 VCSH=
200910241900 METAR MRPV 241900Z 28008KT 9999 4000NE VCSH SCT015TCU BKN030 25/19 A2988 BECMG 6000 -RA=
200910242000 METAR MRPV 242000Z 27010KT 9999 SCT010TCU BKN025 24/19 A2986 RMK RN NE SE BECMG 5000 -RA BR=
200910242100 METAR MRPV 242100Z 28010KT 9999 SCT010TCU BKN025 23/19 A2086 RMK PCPN NE SE BECMG 5000 -RA BR=
200910242200 METAR MRPV 242200Z 27009KT 9999 SCT010 BKN025 22/20 A2986 RMK BECMG 5000 -RA BR=
200910242300 METAR MRPV 242300Z 27008KT 9999 SCT010 BKN025 21/19 A2988 RMK RN DST N S BECMEG 5000 -RA BR=
200910250000 METAR MRPV 250000Z NIL=
200910250100 METAR MRPV NIL=
200910250200 METAR MRPV NIL=
200910250300 METAR MRPV NIL=
200910250400 METAR MRPV NIL=
200910250500 METAR MRPV NIL=
200910250600 METAR MRPV NIL=
200910250700 METAR MRPV NIL=
200910250800 METAR MRPV NIL=
200910250900 METAR MRPV NIL=
200910251000 METAR MRPV NIL=
200910251100 METAR MRPV NIL=
200910251200 METAR MRPV 251200Z 00000KT 9999 SCT040 BKN120 20/19 A2993 NOSIG=
200910251300 METAR MRPV 251300Z 00000KT 9999 FEW030 BKN120 22/20 A2993 NOSIG=
200910251400 METAR MRPV 251400Z 26003KT 9999 4000SW BR FEW020 BKN120 22/19 A2996 NOSIG=
200910251500 METAR MRPV 251500Z 26004KT 9999 VCFG SCT020 23/20 A2998 RMK FEW120 VIS SW 5000 NOSIG=
200910251600 METAR MRPV 251600Z 29007KT 9999 SCT020 24/20 A2997 NOSIG=
200910251700 METAR MRPV 251700Z 29009KT 9999 FEW020 SCT035 24/20 A2995 RMK TCU DST ARND NOSIG=
200910251800 METAR MRPV 251800Z 28011KT 9999 VCTS VCSH SCT015CB BKN025 25/18 A2992 RMK VIS NE 5000 TEMPO BKN020=
200910251900 METAR MRPV 251900Z 27005KT 9999 VCTS VCSH SCT010CB SCT020 BKN100 25/18 A2990 RMK RASH NE E VIS 6000 TEMPO BKN020CB=
200910252000 METAR MRPV 252000Z 29004KT 9999 4000N VCSH SCT010CB SCT020 BKN100 24/19 A2988 TEMPO 3000 SHRA=
200910252100 METAR MRPV 252100Z 00000KT 9999 -RA VCSH FEW010TCU SCT025 OVC100 23/20 A2988 RMK VIS NW 5KMS TEMPO 5000 RA=
200910252200 METAR MRPV 252200Z 23003KT 5000 BR SCT006 BKN020 22/20 A2988 RERA TEMPO 3000 BR=
200910252300 METAR MRPV 252300Z 00000KT 4000 BR SCT005 BKN010 21/20 A2990 VIS NW UNL TEMPO 2000 BR=
200910252345 METAR MRPV 252345Z 00000KT 4000 BR SCT003 BKN007 21/20 A2990 RMK VIS W NW UNLTD TEMPO 2000 BR=
200910260000 METAR MRPV NIL=
200910260100 METAR MRPV NIL=
200910260200 METAR MRPV NIL=
200910260300 METAR MRPV NIL=
200910260400 METAR MRPV NIL=
200910260500 METAR MRPV NIL=
200910260600 METAR MRPV NIL=
200910260700 METAR MRPV NIL=
200910260800 METAR MRPV NIL=
200910260900 METAR MRPV NIL=
200910261000 METAR MRPV NIL=
200910261100 METAR MRPV NIL=
200910261200 METAR MRPV 261200Z 09004KT 9999 FEW030 19/18 A2993 RMK DU APROXIMACION 09 HZ CB SW NOSIG=
200910261300 METAR MRPV 261300Z 14004KT 9999 FEW035 22/18 A2994 HZY FEW120 CB DST SW TEMPO 24004KT=
200910261400 METAR MRPV 261400Z 12004KT 9999 NSC 24/18 A2995 RMK CB DST SW HZY TRACE CU AC TEMPO 24004KT=
200910261500 METAR MRPV 261500Z 28003KT 9999 FEW025 25/20 A2997 RMK LGT HZ W DUST IN APCH RNY 09 NOSIG=
200910261600 METAR MRPV 261600Z 27003KT 9999 SCT025 25/20 A2996 LGT HZ W NOSIG=
200910261700 METAR MRPV 261700Z 27006KT 9999 BR SCT020 25/21 A2995 RMK SCT TCU ARND VIS N 5KMS TEMPO 5000=
200910261800 METAR MRPV 261800Z 27008KT 9000 BR SCT010TCU BKN020 24/20 A2991 VIS N 5KMS TEMPO BKN020=
200910261900 METAR MRPV 261900Z 29011KT 9999 4000N BR VCSH SCT010TCU BKN 020 25/21 A2989 RMK RASH N NE E TEMPO 5000 VCSH=
200910262000 METAR MRPV 262000Z 29008KT 9999 3000 TSRA BKN010CB 25/21 A2988 TEMPO 2000 SHRA=
200910262100 METAR MRPV 262100Z NIL=
200910262200 METAR MRPV 262200Z 00000KT 9999 SCT015 BKN100 21/20 A2988 RERA RMK RASH W/NW NOSIG=
200910262300 METAR MRPV 262300Z 28003KT 5000 BR SCT005 BKN012 22/20 A2991 RMK VIS N/SE/S UNL TEMPO 3000 BR BKN005=
200910270000 METAR MRPV NIL=
200910270100 METAR MRPV NIL=
200910270200 METAR MRPV NIL=
200910270300 METAR MRPV NIL=
200910270400 METAR MRPV NIL=
200910270500 METAR MRPV NIL=
200910270600 METAR MRPV NIL=
200910270700 METAR MRPV NIL=
200910270800 METAR MRPV NIL=
200910270900 METAR MRPV NIL=
200910271000 METAR MRPV NIL=
200910271100 METAR MRPV NIL=
200910271200 METAR MRPV 271200Z 04002KT CAVOK 19/17 A2994 RMK SCT300 DU 09 CB DST S SW W TEMPO 24005KT=
200910271300 METAR MRPV 271300Z 110003KT CAVOK 22/17 A2996 RMK SCT300 CB DST S/W TEMPO 24005KT=
200910271400 METAR MRPV 271400Z 08013KT CAVOK 23/17 A2996 RMK FEW250 CB DST S NOSIG=
200910271500 METAR MRPV 271500Z 11010KT CAVOK 25/18 A2996 RMK SCT250 NOSIG=
200910271600 METAR MRPV 271600Z 08011KT 9999 FEW035 BKN250 26/18 A2995 RMK POLVO PROXIMACION PISTA 09 NOSIG=
200910271700 METAR MRPV 271700Z 05002KT 9999 SCT035 BKN250 27/18 A2991 RMK POLVO PROXIMACION PISTA 09 NOSIG=
200910271800 METAR MRPV 271800Z 26005KT 9999 FEW020TCU SCT030 BKN250 26/21 A2990 RMK POLVO PROXIMACION PISTA 09 TEMPO BKN020=
200910271900 METAR MRPV 271900Z 25002KT 4000NW VCSH SCT010TCU BKN025 26/20 A2988 TEMPO BKN015=
200910272000 METAR MRPV 272000Z 28007KT 4000 VCSH SCT006TCU BKN01525/22 A2986 RMK VIS E/SE UNL TEMPO 2000 RA BKN010=
200910272100 METAR MRPV 272100Z 28008KT 4000 BR VCSH SCT004 BKN012 24/21 A2985 TEMPO 2000 RA BR=
200910272200 METAR MRPV 272200Z 25003KT 3000 RA BR SCT003 BKN010 23/21 A2985 TEMPO 2000 RA BR BKN006=
200910272300 METAR MRPV 272300Z 00000KT 3000 TSRA SCT005 SCT010CB BKN020 20/19 A2988 VIS E 9999 TEMPO 6000 -RA BR=
200910280000 METAR MRPV NIL=
200910280100 METAR MRPV NIL=
200910280200 METAR MRPV NIL=
200910280300 METAR MRPV NIL=
200910280400 METAR MRPV NIL=
200910280500 METAR MRPV NIL=
200910280600 METAR MRPV NIL=
200910280700 METAR MRPV NIL=
200910280800 METAR MRPV NIL=
200910280900 METAR MRPV NIL=
200910281000 METAR MRPV NIL=
200910281100 METAR MRPV NIL=
200910281200 METAR MRPV 281200Z 12005KT CAVOK 21/18 A2992 RMK BKN250 CBS DST ARND NOSIG=
200910281300 METAR MRPV 281300Z 12005KT CAVOK 22/18 A2995 RMK FEW120 BKN250 CB DST NW/N/NE/S/SW RN DST N/NE NOSIG=
200910281400 METAR MRPV 281400Z 12005KT CAVOK 22/18 A2994 RMK SCT100 BKN250 CB DST N NE NOSIG=
200910281500 METAR MRPV 281500Z 06006KT CAVOK 24/18 A2994 RMK RN DST NE DU PISTA 09 SCT100 BKN250 BECMG 23005KT=
200910281600 METAR MRPV 281600Z 07008KT 9999 FEW030 BKN250 26/18 A2993 POLVO APROX 09 BECMG 23005KT=
200910281700 METAR MRPV 281700Z 07010KT 9999 FEW030 BKN250 26/16 A2991 POLVO APROB 09 BECMG 23005KT=
200910281800 METAR MRPV 281800Z 08010KT 9999 FEW020TCU BKN030 27/18 A2989 VEL/MAX VTO 16NUDOS RN DST N POLVO APROX/09 NOSIG=
200910281900 METAR MRPV 281900Z 08010KT 9999 SCT015TCU OVC025 25/18 A2987 RN N NE NW BECM G 23005KT 5000 -RA=
200910282000 METAR MRPV 282000Z 13009KT 9999 8000NW VCSH FEW010CB SCT030 BKN250 24/20 A2985 VIS W 8KMS BECMG 23005KT 5000 -RA=
200910282100 METAR MRPV 282100Z 08010KT 9999 FEW015TCU OVC250 25/18 A2984 RMK RN NW NOSIG=
200910282200 METAR MRPV 282200Z 08008KT 9999 -RA SCT010 BKN025 26/19 A2986 BECMG 23006KT=
200910282300 METAR MRPV 282300Z 10010KT 5000 -RA BR SCT001 OVC020 22/19 A2987 RMK VL MX VTO 15KT=
200910290000 METAR MRPV 290000Z NIL=
200910290100 METAR MRPV NIL=
200910290200 METAR MRPV NIL=
200910290300 METAR MRPV NIL=
200910290400 METAR MRPV NIL=
200910290500 METAR MRPV NIL=
200910290600 METAR MRPV NIL=
200910290700 METAR MRPV NIL=
200910290800 METAR MRPV NIL=
200910290900 METAR MRPV NIL=
200910291000 METAR MRPV NIL=
200910291100 METAR MRPV NIL=
200910291200 METAR MRPV 291200Z 00000KT 6000 VCFG FEW002 SCT013 20/19 A2995 RMK VIS QUAND S UNL POLVO PROXIMACION PISTA 09 TEMPO 9999=
200910291300 METAR MRPV 291300Z 00000KT 9999 VCFG SCT015 BKN250 20/18 A2997 RMK VIS E SE SW 7000 DU APROXIMACION 09 TEMPO 24005KT=
200910291400 METAR MRPV 291400Z 07003KT CAVOK 22/18 A2998 RMK BKN250 HZ ARND DU APROXIMAC ION 09 TEMPO 24005KT=
200910291500 METAR MRPV 291500Z 09004KT 9999 FEW030 BKN250 25/18 A2997 RMK HZ LEVE ARND DU APROXIMACION 09 BECMG 24005KT=
200910291600 METAR MRPV 291600Z 07008KT 9999 SCT025 BKN250 27/17 A2995 HZ ARND DU APROXIM ACION 09 BECMG 24005KT=
200910291700 METAR MRPV 291700Z 10006KT 9999 SCT020TCU BKN250 28/18 A2995 RMK HZ ARND BECMG 24005KT=
200910291800 METAR MRPV 291800Z 28010KT 9999 4000NE VCSH SCT015TCU SCT100 BKN250 25/20 A2990 NOSIG=
200910291900 METAR MRPV 291900Z 28012KT 9999 4000 NE VCSH FEW010CB BKN022 25/20 A2987 RMK BECMG 5000 TSRA=
200910292000 METAR MRPV 292000Z 06008KT 5000 -TSRA SCT008CB BKN015 21/19 A2987 NOSIG=
200910292100 METAR MRPV 292100Z 00000KT 5000 -RA SCT004 BKN015 21/20 A2987 NOSIG=
200910292200 METAR MRPV 292200Z 00000KT 5000 2000NE VCTS FEW004CB BKN014 21/20 A2989 TEMP O 3000 -RA=
200910292300 METAR MRPV 292300Z 00000KT 3000 -RA VCFG FEW002CB OVC012 20/19 A2991 NOSIG=
200910300000 METAR MRPV NIL=
200910300100 METAR MRPV NIL=
200910300200 METAR MRPV NIL=
200910300300 METAR MRPV NIL=
200910300400 METAR MRPV NIL=
200910300500 METAR MRPV NIL=
200910300600 METAR MRPV NIL=
200910300700 METAR MRPV NIL=
200910300800 METAR MRPV NIL=
200910300900 METAR MRPV NIL=
200910301000 METAR MRPV NIL=
200910301100 METAR MRPV NIL=
200910301200 METAR MRPV 301200Z 00000KT 9999 3000W BR BKN120 18/18 A2994 POLVO APROX/09 NOSIG=
200910301300 METAR MRPV 301300Z 00000KT 9999 2500W BR BKN120 19/18 A2996 RMK DU 09 TEMPO 24004KT 4000 BR=
200910301400 METAR MRPV 301400Z 00000KT 8000 VCFG FEW006 21/18 A2997 RMK VIS W NW 4000 FEW120 TEMPO 24004KT UNL=
200910301500 METAR MRPV 301500Z 27007KT 7000 VCFG SCT010 22/19 A2998 RMK UNL W NOSIG=
200910301600 METAR MRPV 301600Z 27007KT 8000 VCFG SCT010 23/19 A2999 RMK UNL W NOSIG=
200910301700 METAR MRPV 301700Z 28008KT 8000 VCFG SCT012 24/19 A2996 RMK UNL W TCU W NOSIG=
200910301800 METAR MRPV 301800Z 27010KT 9999 FEW015TCU SCT030 25/19 A2994 RMK PCPN NE SE NOSIG=
200910301900 METAR MRPV 301900Z 27010KT 9999 FEW015TCU SCT030 25/20 A2991 RMK PCPN DST NE NOSIG=
200910302000 METAR MRPV 302000Z 27008KT 9999 SCT012TCU BKN030 24/20 A2988 RMK PCPN NE SE NOSIG=
200910302100 METAR MRPV 302100Z 28009KT 9999 SCT012TCU SCT030 24/20 A2987 PCPN DST NE SE NOSIG=
200910302200 METAR MRPV 302200Z 28012KT 9999 FEW010CB SCT110 23/20 A2988 RMK TS DST E NOSIG=
200910302300 METAR MRPV 302300Z 27012KT 6000 VCFG FEW002 FEW008CB 22/20 A2990 TEMPO 3000BR=
200910310000 METAR MRPV NIL=
200910310100 METAR MRPV NIL=
200910310200 METAR MRPV NIL=
200910310300 METAR MRPV NIL=
200910310400 METAR MRPV NIL=
200910310500 METAR MRPV NIL=
200910310600 METAR MRPV NIL=
200910310700 METAR MRPV NIL=
200910310800 METAR MRPV NIL=
200910310900 METAR MRPV NIL=
200910311000 METAR MRPV NIL=
200910311100 METAR MRPV NIL=
200910311200 METAR MRPV 311200Z 00000KT 999 VCFG FEW010 SCT025 BKN120 19/18 A2998 RMK DU AROXIMACION 09 VIS S 5000MTS NOSIG=
200910311300 METAR MRPV 311300Z 00000KT 9999 SCT040 BKN120 20/19 A2999 DUST IN APCH RNY 09 NOSIG=
200910311400 METAR MRPV 311400Z 00000KT 9999 SCT025 BKN120 21/18 A3001 RMK DUST IN APCH RNY 09 NOSIG=
200910311500 METAR MRPV 311500Z 00000KT 9999 SCT025 BKN120 24/19 A3002 NOSIG=
200910311600 METAR MRPV 311600Z 32005KT 9999 SCT030 BKN120 25/17 A3000 NOSIG=
200910311700 METAR MRPV 311700Z 27004KT 9999 SCT030 BKN120 25/18 A2999 NOSIG=
200910311800 METAR MRPV 311800Z 28007KT 9999 SCT025 BKN120 25/19 A2996 NOSIG=
200910311900 METAR MRPV 311900Z 27007KT 9999 4000 SW BR SCT012 BKN100 24/20 A2994 TEMPO 3000 BR=
200910312000 METAR MRPV 312000Z 28008KT 9999 SCT025 BKN120 25/20 A2990 NOSIG=
200910312100 METAR MRPV 312100Z 28008KT 9999 FEW020 SCT030 25/19 A2988 RMK TCU/RN N NOSIG=
200910312200 METAR MRPV 312200Z 29009KT 9999 SCT025 24/20 A2989 RMK TCU/RN N/NE NOSIG=
200910312300 METAR MRPV 312300Z 28008KT 9999 SCT025 23/20 A2992 RMK CB W/N/NE=
200911010000 METAR MRPV NIL=
200911010100 METAR MRPV NIL=
200911010200 METAR MRPV NIL=
200911010300 METAR MRPV NIL=
200911010400 METAR MRPV NIL=
200911010500 METAR MRPV NIL=
200911010600 METAR MRPV NIL=
200911010700 METAR MRPV NIL=
200911010800 METAR MRPV NIL=
200911010900 METAR MRPV NIL=
200911011000 METAR MRPV NIL=
200911011100 METAR MRPV NIL=
200911011200 METAR MRPV 011200Z 00000KT 9999 4000SW BR SCT007 BKN020 18/17 A2997 NOSIG=
200911011300 METAR MRPV 011300Z 00000KT 9999 VCFG SCT010 BKN025 20/18 A2999 RMK VIS S/SW 6KM NOSIG=
200911011400 METAR MRPV 011400Z 00000KT 9999 SCT020 22/18 A3000 NOSIG=
200911011500 METAR MRPV 011500Z 00000KT 9999 SCT020 24/18 A3001 NOSIG=
200911011600 METAR MRPV 011600Z 27004KT 9999 SCT020 26/19 A2999 NOSIG=
200911011700 METAR MRPV 011700Z 27006KT 9999 SCT025 26/19 A2997 TEMPO BKN020=
200911011800 METAR MRPV 011800Z 29010KT 9999 SCT025 26/20 A2994 NOSIG=
200911011900 METAR MRPV 011900Z 28011KT 9999 FEW020 SCT035 26/20 A2990 NOSIG=
200911012000 METAR MRPV 012000Z 28012KT 9999 FEW015TCU SCT025 25/20 A2989 RMK TCU ARND TEMPO BKN020=
200911012100 METAR MRPV 012100Z 28011KT 8000 3000SW BR SCT004 BKN020 22/20 A2988 TEMPO 2000 BR BKN010=
200911012200 METAR MRPV 012200Z 30008KT 9999 FEW010 SCT025 22/19 A2990 NOSIG=
200911012300 METAR MRPV 012300Z 29009KT 8000 3000SW BR SCT005 BKN020 21/19 A2991 TEMPO BKN010=
200911020000 METAR MRPV NIL=
200911020100 METAR MRPV NIL=
200911020200 METAR MRPV NIL=
200911020300 METAR MRPV NIL=
200911020400 METAR MRPV NIL=
200911020500 METAR MRPV NIL=
200911020600 METAR MRPV NIL=
200911020700 METAR MRPV NIL=
200911020800 METAR MRPV NIL=
200911020900 METAR MRPV NIL=
200911021000 METAR MRPV NIL=
200911021100 METAR MRPV NIL=
200911021200 METAR MRPV 021200Z 00000KT CAVOK 18/18 A2998 RMK BKN120 DUST NEAR APCH RNWY 09 CB DST SW NOSIG=
200911021300 METAR MRPV 021300Z 00000KT CAVOK 20/19 A3000 BKN120 POLVO APROX 09 TEMPO 24005KT=
200911021400 METAR MRPV 021400Z 00000KT CAVOK 22/18 A3001 SCT120 POLVO APROX 09 TEMPO 24005KT=
200911021500 METAR MRPV 021500Z 31005KT 9999 FEW025 SCT120 23/18 A3001 NOSIG=
200911021600 METAR MRPV 021600Z 28005KT 9999 SCT020 BKN120 25/18 A3001 NOSIG=
200911021700 METAR MRPV 021700Z 28009KT 9999 SCT030 25/18 A2998 TCU DST N NE NOSIG=
200911021800 METAR MRPV 021800Z 28010KT 9999 4000N -RA VCSH SCT010CB BKN025 24/20 A2996 TEMPO 4000 VCSH BKN020=
200911021900 METAR MRPV 021900Z 32005KT 7000 -RA BKN006 22/20 A2993 TEMPO 3000 BR BKN010=
200911022000 METAR MRPV 022000Z 00000KT 9999 RA SCT006TCU BKN020 22/19 A2991 TEMPO 6000 BKN012=
200911022100 METAR MRPV 022100Z 28007KT 1000 -RA BR OVC001 21/20 A2991 NOSIG=
200911022200 METAR MRPV 022200Z 27008KT 0500 FG VV///001 20/20 A2992 NOSIG=
200911022300 METAR MRPV 022300Z 29003KT 1000 -RA BR OVC001 20/19 A2994 NOSIG=
200911030000 METAR MRPV NIL=
200911030100 METAR MRPV NIL=
200911030200 METAR MRPV NIL=
200911030300 METAR MRPV NIL=
200911030400 METAR MRPV NIL=
200911030500 METAR MRPV NIL=
200911030600 METAR MRPV NIL=
200911030700 METAR MRPV NIL=
200911030800 METAR MRPV NIL=
200911030900 METAR MRPV NIL=
200911031000 METAR MRPV NIL=
200911031100 METAR MRPV NIL=
200911031200 METAR MRPV 031200Z 10002KT CAVOK 18/15 A2996 RMK BKN200 TEMPO 24004KT=
200911031300 METAR MRPV 031300Z 11005KT CAVOK 19/16 A2998 RK BKN200 TEMPO 24004KT=
200911031400 METAR MRPV 031400Z 12004KT CAVOK 23/17 A3000 RMK SCT200 TEMPO 24004KT=
200911031500 METAR MRPV 031500Z 12008KT CAVOK 24/16 A2995 RMK BKN250 BECMG 24006KT=
200911031600 METAR MRPV 031600Z 11007KT 9999 FEW030 BKN250 26/17 A2998 RMK BECMG 24006KT=
200911031700 METAR MRPV 031700Z 26008KT 9999 FEW030 BKN250 26/19 A2996 RMK DU APROXIMACIO N 09 NOSIG=
200911031800 METAR MRPV 031800Z 27010KT 9999 SCT020TCU SCT250 26719 A2994 RMK DU AROXIMAC ION 09 RN NE NOSIG=
200911031900 METAR MRPV 031900Z 28012KT 9999 VCTS SCT015CB BKN030 25720 A2992 RMK 6000MTS N BECMG 6000 -TS RA=
200911032000 METAR MRPV 032000Z 30010KT 9999 3000N VCTS SCT010CB BKN020 23/19 A2992 RMK BECMG 6000 -TS RA=
200911032100 METAR MRPV 032100Z VRB02KT 3000 -TSRA SCT004CB BKN012 21/20 A2991 BECMG 5000 -RA=
200911032200 METAR MRPV 032200Z 28004KT 5000 -RA BR SCT002 BKN015 22/20 A2992 NOSIG=
200911032300 METAR MRPV 032300Z 28008KT 3000 BR SCT001 BKN010 21/20 A2993 NOSIG=
200911040000 METAR MRPV 040000Z NIL=
200911040100 METAR MRPV NIL=
200911040200 METAR MRPV NIL=
200911040300 METAR MRPV NIL=
200911040400 METAR MRPV NIL=
200911040500 METAR MRPV NIL=
200911040600 METAR MRPV NIL=
200911040700 METAR MRPV NIL=
200911040800 METAR MRPV NIL=
200911040900 METAR MRPV NIL=
200911041000 METAR MRPV NIL=
200911041100 METAR MRPV NIL=
200911041200 METAR MRPV 041200Z 00000KT 8000 VCFG FEW008 BKN015 19/18 A2999 VIS E KMS POLVO APROX/ 09 TEMPO 24004KT=
200911041300 METAR MRPV 041300Z 00000KT 6000 VCFG SCT006 BKN015 19/19 A3001 DU APP09 TEMPO 4000 -RA BR BKN008=
200911041400 METAR MRPV 041400Z 00000KT 8000 VCFG FEW006 SCT018 BKN100 20/19 A3003 DU NEAR APP09 TEMPO 5000 BR=
200911041500 METAR MRPV 041500Z 28004KT 6000 VCFG SCT002 BKN020 22/19 A3004 FU APROX 09 TEMPO 5000 BR=
200911041600 METAR MRPV 041600Z 28005KT 7000 VCFG SCT002 BKN025 22/19 A3004 RMK FU AP 09 TEMPO 5000 -RA=
200911041700 METAR MRPV NIL=
200911041800 METAR MRPV 041800Z 28006KT 9999 SCT015CB BKN250 24/19 A2999 FU AP 09 BCMG 4000 -TSVCSH=
200911041900 METAR MRPV 041900Z 26006KT 9999 SCT015TCU BKN250 25/19 A2996 BCMG 4000=
200911042000 METAR MRPV 042000Z 29010KT 9999 SCT015TCU BKN250 23/20 A2993 BCMG 4000=
200911042100 METAR MRPV 042100Z 28006KT 2000 +RA BR SCT001 BKN008 21/19 A2993 NOSG=
200911042200 METAR MRPV 042200Z 27008KT 5000 -RA BR SCT001 BKN015 20/19 A2995 RMK LOW ST MOVNG W TO E TEMPO -RA BR BKN010=
200911042300 METAR MRPV 042300Z 29007KT 5000 -RA BR SCT001 BKN015 20/19 A2997 TEMPO RA BR=
200911050000 METAR MRPV=
200911050100 METAR MRPV NIL=
200911050200 METAR MRPV NIL=
200911050300 METAR MRPV NIL=
200911050400 METAR MRPV NIL=
200911050500 METAR MRPV NIL=
200911050600 METAR MRPV NIL=
200911050700 METAR MRPV NIL=
200911050800 METAR MRPV NIL=
200911050900 METAR MRPV NIL=
200911051000 METAR MRPV NIL=
200911051100 METAR MRPV NIL=
200911051200 METAR MRPV 051200Z 00000KT 4000 BR FEW002 BKN010 19/18 A3002 TEMPO 24004KT=
200911051300 METAR MRPV 051300Z 00000KT 3500 BR SCT002 BKN012 19/19 A3004 TEMPO 24004KT=
200911051400 METAR MRPV 051400Z 00000KT 3500 BR SCT002 BKN010 20/19 A3005 TEMPO 24004KT 5000 -RA=
200911051500 METAR MRPV 051500Z 27004KT 5000 BR SCT001 BKN015 21/19 A3005 LOW ST MOV W TO E BECMG 3000 BR=
200911051600 METAR MRPV 051600Z 27005KT 6000 VCFG SCT004 BKN018 23/19 A3006 ST MOV W TO E NOSIG=
200911051700 METAR MRPV 051700Z 26006KT 8000 VCFG SCT008 BKN020 23/20 A3004 RMK TCU W NW N NOSIG=
200911051800 METAR MRPV 051800Z 27010KT 9999 FEW012TCU SCT030 BKN250 24/19 A3001 BECMG VCSH=
200911051900 METAR MRPV 051900Z 29010KT 9999 SCT010TCU BKN250 25/19 A2998 BECMG 4000 VCSH=
200911052000 METAR MRPV 052000Z 27010KT 9999 SCT010TCU BKN250 25/19 A2996 RMK PCPN DST N SW BECMG 4000 VCSH=
200911052100 METAR MRPV 052100Z 29007KT 8000 -RA VCFG SCT008 BKN025 22/20 A2995 BECMG 4000 BR=
200911052200 METAR MRPV 052200Z 28004KT 5000 -RA BR SCT001 BKN015 20/19 A2997 RMK CONDICIONES MUY VARIABLES BECMG 3000 -RA BR=
200911052300 METAR MRPV 052300Z 30003KT 9999 SCT002 BKN100 21/19 A2997 RMK TCU W/NW/N NOSIG=
200911060000 METAR MRPV 060000Z NIL=
200911060100 METAR MRPV NIL=
200911060200 METAR MRPV NIL=
200911060300 METAR MRPV NIL=
200911060400 METAR MRPV NIL=
200911060500 METAR MRPV NIL=
200911060600 METAR MRPV NIL=
200911060700 METAR MRPV NIL=
200911060800 METAR MRPV NIL=
200911060900 METAR MRPV NIL=
200911061000 METAR MRPV NIL=
200911061100 METAR MRPV NIL=
200911061200 METAR MRPV 061200Z 00000KT 9999 4000SE BR FEW002 SCT008 19/18 A2999 RMK DU 09 NOSIG=
200911061300 METAR MRPV 061300Z 07003KT 9999 NSC 20/18 A3001 RMK TRAZAS ST POLVO EN LA PROXIMACION PISTA 09 TEMPO 24004=
200911061400 METAR MRPV 061400Z 00000KT 9999 NSC 23/19 A3002 RMK TRAZAS CU/CC POLVO PROXIMACION PISTA 09 TEMPO 24004KT=
200911061500 METAR MRPV 061500Z 08003KT 9999 FEW030 24/18 A3003 RMK POLVO PROXIMACION PISTA 09 NOSIG=
200911061600 METAR MRPV 061600Z 27007KT 9999 SCT025 25/19 A3003 RMK POLVO PROXIMACION PISTA 09 NOSIG=
200911061700 METAR MRPV 061700Z 28008KT 9999 SCT030 25/18 A3002 RMK POLVO PROXIMACION PISTA 09 NOSIG=
200911061800 METAR MRPV 061800Z 28009KT 9999 SCT020 25/18 A2998 RMK POLVO PROXIMACION PISTA 09 NOSIG=
200911061900 METAR MRPV 061900Z 28009KT 9999 SCT025 25/20 A2995 RMK TCU/RN S/SW NOSIG=
200911062000 METAR MRPV 062000Z 27009KT 9999 4000SW -RA VCSH FEW010TCU BKN020 23/20 A2994 TEMPO 4000 VCSH=
200911062100 METAR MRPV 062100Z 29011KT 3000 -RA BR SCT007 BKN015 21/20 A2994 VIS E W 6KM TEMPO 5000 BKN020=
200911062200 METAR MRPV 062200Z 27010KT 5000 BR SCT006 BKN020 21/19 A2994 TEMPO 3000 BR=
200911062300 METAR MRPV 062300Z 28008KT 4000 BR SCT006 BKN020 20/19 A2995 TEMPO 3000 BR BKN010=
200911070000 METAR MRPV NIL=
200911070100 METAR MRPV 070100Z NIL=
200911070200 METAR MRPV NIL=
200911070300 METAR MRPV NIL=
200911070400 METAR MRPV NIL=
200911070500 METAR MRPV NIL=
200911070600 METAR MRPV NIL=
200911070700 METAR MRPV NIL=
200911070800 METAR MRPV NIL=
200911070900 METAR MRPV NIL=
200911071000 METAR MRPV NIL=
200911071100 METAR MRPV NIL=
200911071200 METAR MRPV 071200Z 00000KT 9999 NSC 18/17 A2997 TRACE SCT DUST W TCU DST SW W NOSIG=
200911071300 METAR MRPV 071300Z 00000KT 9999 4000W BR FEW005 19/17 A2998 POLVO APROX/09 CB SW TEMPO 9999=
200911071400 METAR MRPV 071400Z 00000KT CAVOK 21/18 A2998 SCT300 CB SW POLVO W NOSIG=
200911071500 METAR MRPV 071500Z 00000KT 9999 FEW035 SCT300 24/17 A2999 CB DST SW TEMPO 28006KT=
200911071600 METAR MRPV 071600Z 28007KT 9999 SCT030 FEW300 24/19 A2998 POLVO APROX/09 CB DST SW NOSIG=
200911071700 METAR MRPV 071700Z 28010KT 9999 SCT030 24/19 A2997 NOSIG=
200911071800 METAR MRPV 071800Z 28012KT 9999 BKN025 25/20 A2993 SCT TCU ARND RASH NE E TEMPO 5000 VCSH=
200911071900 METAR MRPV 071900Z 28009KT 9999 SCT010CB BKN020 24/20 A2992 CB RASH E TEMPO 5000 VCSH=
200911072000 METAR MRPV 072000Z 26005KT 9999 SCT010CB BKN020 23/20 A2990 CB RASH E SE TEMPO 5000 VCSH=
200911072100 METAR MRPV 072100Z 29009KT 9999 4000W BR SCT010CB BKN020 22/19 A2990 CB RASH NW N NE E SE TEMPO 4000 VCSH=
200911072200 METAR MRPV 072200Z 29006KT 3000 BR SCT002 BKN010 20/19 A2991 RMK TEMPO 5000 BR=
200911072300 METAR MRPV 072300Z 27003KT 3000 BR SCT002 BKN008 20/19 A2993 NOSIG=
200911080000 METAR MRPV NIL=
200911080100 METAR MRPV NIL=
200911080200 METAR MRPV NIL=
200911080300 METAR MRPV NIL=
200911080400 METAR MRPV NIL=
200911080500 METAR MRPV NIL=
200911080600 METAR MRPV NIL=
200911080700 METAR MRPV NIL=
200911080800 METAR MRPV NIL=
200911080900 METAR MRPV NIL=
200911081000 METAR MRPV NIL=
200911081100 METAR MRPV NIL=
200911081200 METAR MRPV 081200Z 12006KT 9999 NSC 19/16 A2994 RMK TRAZAS ST/SC NOSIG=
200911081300 METAR MRPV 081300Z 00000KT 9999 NSC 21/18 A2996 RMK FG W TRACE ST SC NOSIG=
200911081400 METAR MRPV 081400Z 25002KT 9999 FEW025 21/18 A2999 RMK FG W NOSIG=
200911081500 METAR MRPV 081500Z 00000KT 9999 SCT030 23/18 A2999 TEMPO 28006KT=
200911081600 METAR MRPV 081600Z 28003KT 9999 SCT025 24/20 A2990 NOSIG=
200911081700 METAR MRPV 081700Z 27004KT 9999 FEW020 SCT035 25/20 A2995 NOSIG=
200911081800 METAR MRPV 081800Z 27004KT 9999 FEW015TCU SCT025 25/20 A2993 RMK TCU DST N NOSIG=
200911081900 METAR MRPV 081900Z 00000KT 9999 FEW012TCU SCT025 27/20 A2990 RMK CB RASH W NW N E TEMPO 5000 VCSH=
200911082000 METAR MRPV 082000Z 28008KT 9999 SCT010TCU BKN025 24/19 A2988 RMK TCU CB SCT ARND NOSIG=
200911082100 METAR MRPV 082100Z 27005KT 9999 4000SW BR SCT010 BKN020 23/20 A2988 TEMPO 3000 BR=
200911082200 METAR MRPV 082200Z 28005KT 5000 BR SCT010 BKN015 22/19 A2988 TEMPO 3000 BR BKN010=
200911082300 METAR MRPV 082300Z 27004KT 3000 BR SCT005 BKN010 21/20 A2991 TEMPO 2000 RA BR BKN006=
200911090000 METAR MRPV NIL=
200911090100 METAR MRPV NIL=
200911090200 METAR MRPV NIL=
200911090300 METAR MRPV NIL=
200911090400 METAR MRPV NIL=
200911090500 METAR MRPV NIL=
200911090600 METAR MRPV NIL=
200911090700 METAR MRPV NIL=
200911090800 METAR MRPV NIL=
200911090900 METAR MRPV NIL=
200911091000 METAR MRPV NIL=
200911091100 METAR MRPV NIL=
200911091200 METAR MRPV 091200Z 12007KT 9999 FEW030 SCT090 21/16 A2994 VEL/MAX VTO 12NUDO S CB DST SW NOSIG=
200911091300 METAR MRPV 091300Z 11006KT CAVOK 22/17 A2996 RMK BKN090 NOSIG=
200911091400 METAR MRPV 091400Z 10010KT CAVOK 24/17 A2996 RMK SCT100 NOSIG=
200911091500 METAR MRPV 091500Z 07006KT CAVOK 25/17 A2998 RMK SCT120 TEMPO 24004KT=
200911091600 METAR MRPV 091600Z 08010KT 9999 SCT040 SCT120 25/17 A2997 RMK POLVO APROXIMACION PISTA 09 TEMPO 24004KT=
200911091700 METAR MRPV 091700Z 11006KT 9999 BKN035 27/18 A2994 RMK DU 09 TEMPO 24004=
200911091800 METAR MRPV 091800Z 30004KT 9999 FEW020 BKN030 25/20 A2992 RMK DU 09 RN DST N NW BECMG -RA=
200911091900 METAR MRPV 091900Z 29006KT 9999 FEW020 BKN030 26/20 A2988 RMK DU 09 PCPN NE BECMG -RA=
200911092000 METAR MRPV 092000Z 24004KT 9999 SCT015 BKN030 26/20 A2987 RMK PCPN NE BECMG -RA=
200911092100 METAR MRPV 092100Z 08008KT 9999 SCT012 BKN025 25/19 A2986 RMK RN NE NW BECMG -RA=
200911092200 METAR MRPV 092200Z VRB02KT 3000 -RA BR SCT001 BKN012 22/21 A2987 BECMG 5000 -RA BR=
200911092300 METAR MRPV 092300Z 32004KT 3000 -RA BR SCT001 BKN012 22/21 A2988 NOSIG=
200911100000 METAR MRPV NIL=
200911100100 METAR MRPV NIL=
200911100200 METAR MRPV NIL=
200911100300 METAR MRPV NIL=
200911100400 METAR MRPV NIL=
200911100500 METAR MRPV NIL=
200911100600 METAR MRPV NIL=
200911100700 METAR MRPV NIL=
200911100800 METAR MRPV NIL=
200911100900 METAR MRPV NIL=
200911101000 METAR MRPV NIL=
200911101100 METAR MRPV NIL=
200911101200 METAR MRPV 101200Z 11010KT 9999 FEW025 SCT100 BKN250 21/17 A2992 RMK DZ NW N NE E RAFAGAS 18KT NOSIG=
200911101300 METAR MRPV 101300Z 10008KT 9999 FEW025 BKN100 22/18 A2994 RMK DZ DST NE E DUST APCH RNY 09 VEL MAX VTO 14KT NOSIG=
200911101400 METAR MRPV 101400Z 10011KT 9999 FEW015 BKN100 22/18 A2996 RMK PCPN DST NE E VEL MAX VTO 16KT DUST APCH RNY 09 NOSIG=
200911101500 METAR MRPV 101500Z 09012KT 9999 FEW015 BKN030 24/18 A2997 RMK VEL MAX VTO 17KT PCPN DST N NE DUST APCH RNY 09 NOSIG=
200911101600 METAR MRPV 101600Z 08012LT 9999 SCT015 BKN250 25/18 A2997 RMK PCPN DST N NE VEL MAX VTO 17KT DUST IN APCH RNY 09 NOSIG=
200911101601 METAR MRPV 101601Z COR 08012KT 9999 SCT015 BKN250 25/18 A2997 RMK PCPN DST N NE VEL MAX VTO 17KT DUST IN APCH RNY 09 NOSIG=
200911101700 METAR MRPV 101700Z 08010KT 9999 SCT015 BKN250 25/18 A2994 RMK VEL MAX VTO 15KT DUST IN APCH RNY 09 RN N NE NOSIG=
200911101800 METAR MRPV 101800Z 08011KT 9999 SCT015 BKN250 24/18 A2991 RMK VEL MAX VTO 16KT PCPN DST NE NOSIG=
200911101900 METAR MRPV 101900Z 08008KT 9999 SCT020 BKN250 25/18 A2989 RMK RN NE NOSIG=
200911102000 METAR MRPV 102000Z 07010KT 9999 SCT020 BKN250 25/17 A2987 RMK PCPN DST NE VEL MAX VTO 15KT NOSIG=
200911102100 METAR MRPV 102100Z 09010KT 9999 SCT020 BKN030 24/17 A2986 RMK NE NOSIG=
200911102200 METAR MRPV 102200Z 10010KT 9999 SCT015 BKN030 23/17 A2987 RMK RN N/NE NOSIG=
200911102300 METAR MRPV 102300Z 09010KT 9999 SCT012 BKN250 22/17 A2989 RMK RN NE NOSIG=
200911110000 METAR MRPV 110000Z NIL=
200911110100 METAR MRPV NIL=
200911110200 METAR MRPV NIL=
200911110300 METAR MRPV NIL=
200911110400 METAR MRPV NIL=
200911110500 METAR MRPV NIL=
200911110600 METAR MRPV NIL=
200911110700 METAR MRPV NIL=
200911110800 METAR MRPV NIL=
200911110900 METAR MRPV NIL=
200911111000 METAR MRPV NIL=
200911111100 METAR MRPV NIL=
200911111200 METAR MRPV 111200Z 12007KT CAVOK 20/17 A2992 RMK FEW140 BKN250 VL MX VTO 12KT NOSIG=
200911111300 METAR MRPV 111300Z 14005KT CAVOK 22/16 A2994 RMK BKN250 TCU DST SE NOSIG=
200911111400 METAR MRPV 111400Z 12007KT CAVOK 23/17 A2995 RMK BKN250 TCU DST SE CB DST SW VEL.MAX.VTO. 12KT NOSIG=
200911111500 METAR MRPV 111500Z 09010KT 9999 FEW030 SCT120 BKN250 25/17 A2997 RMK VLO.MAX.VTO. 16KT POLVO EN PISTA 09 NOSIG=
200911111600 METAR MRPV 111600Z 08010KT 9999 FEW030 BKN250 26/17 A2995 RMK VEL.MAX. VTO16KT DU NR RWY09 CB DST SW NOSIG=
200911111700 METAR MRPV 111700Z 07015KT 9999 FEW025 BKN120 26/18 A2992 RMK RN N/NE DU NR RWY09 NOSIG=
200911111800 METAR MRPV 111800Z 07015KT 9999 FEW025 SCT250 26/18 A2988 RMK VEL MAX. VTO 20KT RN DST NE/NW TCU DST W/NW NOSIG=
200911111900 METAR MRPV 111900Z 08010G20KT 9999 SCT015 BKN030 26/18 A2986 RMK RN NE/NW TCU SW/W NOSIG=
200911112000 METAR MRPV 112000Z 11010G20KT 8000 -RA VCSH SCT012 BKN025 23/18 A2985 RMK VIS 5000E TCU DST W NW NOSIG=
200911112100 METAR MRPV 112100Z 10010KT 9999 SCT015 BKN120 22/18 A2985 RMK RN DST SE NW LOW CLOUS DST W=
200911112200 METAR MRPV 112200Z 08008KT 9999 FEW020 BKN250 24/17 A2985 RMK DST LOW CLOUS S NW NOSIG=
200911112300 METAR MRPV 112300Z 09008KT 9999 FEW015 BKN250 23/17 A2987 RMK RN DST NE NOSIG=
200911120000 METAR MRPV NIL=
200911120100 METAR MRPV 120100Z NIL=
200911120200 METAR MRPV NIL=
200911120300 METAR MRPV NIL=
200911120400 METAR MRPV NIL=
200911120500 METAR MRPV NIL=
200911120600 METAR MRPV NIL=
200911120700 METAR MRPV NIL=
200911120800 METAR MRPV NIL=
200911120900 METAR MRPV NIL=
200911121000 METAR MRPV NIL=
200911121100 METAR MRPV NIL=
200911121200 METAR MRPV 121200Z 14007KT 9999 SCT025 BKN300 20/16 A2990 VMV 12KT DZ DST N NE E NOSIG=
200911121300 METAR MRPV 121300Z 10011KT 9999 FEW030 SCT300 22/17 A2992 RMK FEW130 DZ DST N NE NOSIG=
200911121400 METAR MRPV 121400Z 10012KT 9999 FEW030 BKN100 23/17 A2994 RMK DZ DST N NE E VEL.MAX.VTO 18KT NOSIG=
200911121500 METAR MRPV 121500Z 10013KT 9999 SCT020 BKN100 23/17 A2994 RMK VEL.MAX.VTO 18KT SHRA DST E NOSIG=
200911121600 METAR MRPV 121600Z 10012KT 9999 SCT020 BKN120 24/17 A2992 RMK VEL.MAX.VTO 19KT NOSIG=
200911121700 METAR MRPV 121700Z 09015KT 9999 SCT025 BKN120 25/17 A2989 RMK DZ DST N NOSIG=
200911121800 METAR MRPV 121800Z 08014KT 9999 SCT020 BKN100 25/18 A2987 RMK CHECK TEXT NEW ENDING ADDED KATLYTAA=
200911121900 METAR MRPV 121900Z 08011KT 9999 SCT020 BKN100 26/18 A2984 RM DZ N NE NOSIG=
200911122000 METAR MRPV 122000Z 09009KT 9999 SCT020 BKN100 24/18 A2983 RMK DZ N NE NOSIG=
200911122100 METAR MRPV 122100Z 08012KT 9999 SCT025 BKN100 24/18 A2982 RMK RN E NOSIG=
200911122200 METAR MRPV 122200Z 08011KT 9999 SCT015 BKN100 23/18 A2983 RMK RN N NE E NOSI G=
200911122300 METAR MRPV 122300Z 09011KT 9999 3000S VCSH FEW010 SCT020 BKN100 22/18 A2986 TEMPO 3000 RA BKN015=
200911130000 METAR MRPV NIL=
200911130100 METAR MRPV NIL=
200911130200 METAR MRPV NIL=
200911130300 METAR MRPV NIL=
200911130400 METAR MRPV NIL=
200911130500 METAR MRPV NIL=
200911130600 METAR MRPV NIL=
200911130700 METAR MRPV NIL=
200911130800 METAR MRPV NIL=
200911130900 METAR MRPV NIL=
200911131000 METAR MRPV NIL=
200911131100 METAR MRPV NIL=
200911131200 METAR MRPV 131200Z 10013KT 9999 FEW012 SCT120 18/15 A2991 RMK VEL.MAX.VTO. 18KT RN DST N/NE/E/SE NOSIG=
200911131300 METAR MRPV 131300Z 10014KT 9999 FEW015 SCT120 BKN250 20/16 A2994 RMK RAFGAS 19KT DZ N NE E SE NOSIG=
200911131400 METAR MRPV 131400Z 10014KT 9999 FEW025 BKN120 21/16 A2995 RMK GUST 24KT DZ N NW NE E SE NOSIG=
200911131500 METAR MRPV 131500Z 09014KT 9999 SCT020 BKN100 21/16 A2997 RMK DZ NE NOSIG=
200911131600 METAR MRPV 131600Z 09014KT 9999 SCT020 BKN100 20/16 A2998 NOSIG=
200911131700 METAR MRPV 131700Z 08016KT 9999 SCT020 BKN100 21/14 A2997 RMK RN DST S NOSIG=
200911131800 METAR MRPV 131800Z 09012KT 9999 SCT020 BKN100 21/15 A2999 RMK RN E SE S NOSIG=
200911131900 METAR MRPV 131900Z 12007KT 9999 SCT025 BKN120 23/16 A2992 NOSIG=
200911132000 METAR MRPV 132000Z 12009KT 9999 SCT020 BKN100 22/16 A2989 NOSIG=
200911132100 METAR MRPV 132100Z 09010KT 9999 SCT025 BKN100 23/17 A2989 NOSIG=
200911132200 METAR MRPV 132200Z 09014KT 9999 SCT025 BKN100 22/16 A2989 NOSIG=
200911132300 METAR MRPV 132300Z 11009KT 9999 SCT020 OVC100 21/16 A2991 RMK DZ N/E NOSIG=
200911140000 METAR MRPV NIL=
200911140100 METAR MRPV NIL=
200911140200 METAR MRPV NIL=
200911140300 METAR MRPV NIL=
200911140400 METAR MRPV NIL=
200911140500 METAR MRPV NIL=
200911140600 METAR MRPV NIL=
200911140700 METAR MRPV NIL=
200911140800 METAR MRPV NIL=
200911140900 METAR MRPV NIL=
200911141000 METAR MRPV NIL=
200911141100 METAR MRPV NIL=
200911141200 METAR MRPV 141200Z 11002KT 9999 SCT040 BKN120 20/17 A2993 RMK DZ DST N NE NOSIG=
200911141300 METAR MRPV 141300Z 10003KT 9999 SCT035 BKN100 22/18 A2995 RMK RN N DZ E NOSI G=
200911141400 METAR MRPV 141400Z 12004KT 9999 SCT015 BKN100 22/18 A2997 RMK DZ N NE S NOSIG=
200911141500 METAR MRPV 141500Z 10008KT 9999 -RA SCT010 OVC100 21/18 A3000 TEMPO BKN015=
200911141600 METAR MRPV 141600Z 11006KT 9999 4000N RA SCT012 OVC100 21/18 A3000 NOSIG=
200911141700 METAR MRPV 141700Z 10004KT 9999 SCT020 OVC100 22/19 A2997 RMK RERA ST NE N VIS 5000N NOSIG=
200911141800 METAR MRPV 141800Z 09008KT 9999 SCT020 OVC100 22/19 A2995 RMK DZ DTS NE NOSIG=
200911141900 METAR MRPV 141900Z 11008KT 9999 SCT020 BKN100 24/19 A2992 RMK RN NE S NOSIG=
200911142000 METAR MRPV 142000Z 10007KT 9999 SCT015TCU BKN100 25/18 A2989 RKM RASH DST E SE NOSIG=
200911142100 METAR MRPV 142100Z 11010KT 9999 SCT010TCU BKN025 23/18 A2990 RASH NE E SE S NOSIG=
200911142200 METAR MRPV 142200Z 11008KT 9999 FEW010 SCT020 OVC100 22/18 A2992 RMK RN DST N NE E SE NOSIG=
200911142300 METAR MRPV 142300Z 12006KT 7000 2000 +RA BR SCT010 BKN020 21/19 A2994 TEMPO 3000 RA=
200911150000 METAR MRPV NIL=
200911150100 METAR MRPV NIL=
200911150200 METAR MRPV NIL=
200911150300 METAR MRPV NIL=
200911150400 METAR MRPV NIL=
200911150500 METAR MRPV NIL=
200911150600 METAR MRPV NIL=
200911150700 METAR MRPV NIL=
200911150800 METAR MRPV NIL=
200911150900 METAR MRPV NIL=
200911151000 METAR MRPV NIL=
200911151100 METAR MRPV NIL=
200911151200 METAR MRPV 151200Z 10009KT CAVOK 20/17 A2996 RMK RN N NE BKN120 NOSIG=
200911151300 METAR MRPV 151300Z 11008KT 9999 FEW030 BKN120 21/18 A2998 RMK PCPN DST NE NOSIG=
200911151400 METAR MRPV 151400Z 10008KT 9999 FEW030 BKN120 23/18 A2999 RMK PCPN DST NE NOSIG=
200911151500 METAR MRPV 151500Z 10008KT 9999 FEW030 BKN250 25/18 A3000 RMK PCPN DST NE NOSIG=
200911151600 METAR MRPV 151600Z 09008KT 9999 FEW030 BKN250 24/18 A2998 RN DST N NE=
200911151700 METAR MRPV 151700Z 07008KT 9999 FEW030 SCT120 BKN250 23/18 A2998 RN DST N NE NOSIG=
200911151800 METAR MRPV 151800Z 07004KT 9999 SCT020 BKN030 24/18 A2995 PCPN DST NE BECMG 24006KT=
200911151900 METAR MRPV 151900Z 08010KT 9999 SCT020 BKN030 24/18 A2993 RMK RN N NE=
200911152000 METAR MRPV 152000Z 10010KT 9999 SCT020 BKN030 23/18 A2992 RMK RN DST N NE NOSIG=
200911152100 METAR MRPV 152100Z 09012KT 9999 SCT020 BKN120 24/18 A2990 RMK RN N/NE NOSIG=
200911152200 METAR MRPV 152200Z 09012KT 9999 SCT020 BKN120 23/18 A2989 RMK RN N/NE NOSIG=
200911152300 METAR MRPV 152300Z 09010G20KT 9999 SCT012 BKN120 22/18 A2991 RMK RN N/NE NOSIG=
200911160000 METAR MRPV 160000Z NIL=
200911160100 METAR MRPV NIL=
200911160200 METAR MRPV NIL=
200911160300 METAR MRPV NIL=
200911160400 METAR MRPV NIL=
200911160500 METAR MRPV NIL=
200911160600 METAR MRPV NIL=
200911160700 METAR MRPV NIL=
200911160800 METAR MRPV NIL=
200911160900 METAR MRPV NIL=
200911161000 METAR MRPV NIL=
200911161100 METAR MRPV NIL=
200911161200 METAR MRPV 161200Z 13006KT 9999 FEW015 BKN025 21/18 A2993 RMK DZ NW/NE/N NOSIG=
200911161300 METAR MRPV 161300Z 12006KT 9999 -DZ BKN028 22/18 A2995 RMK RN DST QUAND N VOL.MAX.VTO. 11KT NOSIG=
200911161400 METAR MRPV 161400Z 11007KT 9999 BKN028 SCT100 23/18 A2997 RMK RN DST W/NW/N/NE NOSIG=
200911161500 METAR MRPV 161500Z 11006KT 9999 FEW020 SCT100 BKN250 25/19 A2997 RMK RN DST N/NE VOL.MAX.VTO. 12KT NOSIG=
200911161600 METAR MRPV 161600Z 08010KT 9999 FEW020 BKN250 25/19 A2997 RMK VOL.MAX.VTO. 16KT RN N/NE NOSIG=
200911161700 METAR MRPV 161700Z 07010KT 9999 FEW015 BKN030 26/19 A2995 RMK VOL.MAX.VTO. 15KT RN N/NE NOSIG=
200911161800 METAR MRPV 161800Z 08010G20KT 9999 FEW015 BKN030 26/19 A2993 RMK RN N/NE/SE NOSIG=
200911161900 METAR MRPV 161900Z 08010KT 9999 FEW015 BKN030 26/19 A2990 RMK VOL.MAX.VOT.15KT RN DST N/NE NOSIG=
200911162000 METAR MRPV 162000Z 08010KT 9999 FEW015 SCT030 27/18 A2989 RMK CB/TCU DST NW NOSIG=
200911162100 METAR MRPV 162100Z 06010KT 9999 FEW015 SCT030 27/18 A2987 RMK TCU CB DST NW RN DST N NE NOSIG=
200911162200 METAR MRPV 162200Z 07010KT 9999 4000W BR FEW012 SCT025 BKN250 25/18 A2988 RMK RN DST N NE ST QUAD W NOSIG=
200911162300 METAR MRPV 162300Z VRB02KT 8000 3000NW -RA BR SCT002 BKN020 21/19 A2990=
200911170000 METAR MRPV NIL=
200911170100 METAR MRPV NIL=
200911170200 METAR MRPV NIL=
200911170300 METAR MRPV NIL=
200911170400 METAR MRPV NIL=
200911170500 METAR MRPV NIL=
200911170600 METAR MRPV NIL=
200911170700 METAR MRPV NIL=
200911170800 METAR MRPV NIL=
200911170900 METAR MRPV NIL=
200911171000 METAR MRPV NIL=
200911171100 METAR MRPV NIL=
200911171200 METAR MRPV 171200Z 09014KT 9999 FEW020 20/17 A2995 RMK PCPN DST NE VEL MAX VTO 20KT FEW120 NOSIG=
200911171300 METAR MRPV 171300Z 11010KT 9999 FEW025 21/17 A2996 RMK VEL.MAX. VT0 17KT NOSIG=
200911171400 METAR MRPV 171400Z 11007KT 9999 SCT025 22/18 A2999 RMK VEL.MAX.VTO.12KT=
200911171500 METAR MRPV 171500Z 09010G20KT 9999 SCT020 SCT120 23/18 A2999 RMK RN DST NE NOSIG=
200911171600 METAR MRPV 171600Z 09011G21KT 9999 SCT020 SCT120 23/16 A2999 RMK RN DST NE NOSIG=
200911171700 METAR MRPV 171700Z 09010G20KT 9999 SCT015 SCT030 22/15 A2998 RMK RN DST NE E NOSIG=
200911171800 METAR MRPV 171800Z 08010G20KT 9999 SCT015 SCT030 22/14 A2996 RMK RN NE E NOSIG=
200911171900 METAR MRPV 171900Z 10010G20KT 9999 SCT015 BKN120 23/14 A2984 RMK RN DST N E NOSIG=
200911172000 METAR MRPV 172000Z 12010G20KT 9999 SCT015 BKN120 22/16 A2992 RMK RN DST NE E SE NOSIG=
200911172100 METAR MRPV 172100Z 11010G20KT 9999 SCT015 BKN120 21/16 A2992 RMK RN NE E BECMG -RA=
200911172200 METAR MRPV 172200Z 11010G20KT 9999 SCT015 BKN120 21/16 A2991 RMK RN NE E BECMG -RA=
200911172300 METAR MRPV 172300Z 090G20KT 9999 SCT015 BKN120 20/15 A2993 RMK RN N E E DST BECMG -RA=
200911180000 METAR MRPV NIL=
200911180100 METAR MRPV NIL=
200911180155 METAR MRPV=
200911180200 METAR MRPV 180200Z NIL=
200911180300 METAR MRPV NIL=
200911180400 METAR MRPV NIL=
200911180500 METAR MRPV NIL=
200911180600 METAR MRPV NIL=
200911180700 METAR MRPV NIL=
200911180800 METAR MRPV NIL=
200911180900 METAR MRPV NIL=
200911181000 METAR MRPV NIL=
200911181100 METAR MRPV NIL=
200911181200 METAR MRPV 181200Z 11012KT 9999 FEW015 19/15 A2997 RMK DZ DST NW/N/NE VEL.MAX.VTO. 18KT NOSIG=
200911181300 METAR MRPV 181300Z 11014KT 9999 FEW015 20/13 A29999 RK DZ N NE RAFAGAS 21KT NOSIG=
200911181400 METAR MRPV 181400Z 11015KT 9999 SCT020 20/14 A3000 RMK DZ N NE SE E=
200911181500 METAR MRPV 181500Z 10014KT 9999 FEW020 SCT250 22/16 A3001 RMK VEL MAX VTO 21KT NOSIG=
200911181600 METAR MRPV 181600Z 11012G22KT 9999 FEW020 SCT130 23/16 A2998 NOSIG=
200911181700 METAR MRPV 181700Z 10014KT 9999 SCT020 BKN120 24/17 A2998 RMK GUST 22KT NOSIG=
200911181800 METAR MRPV 181800Z 09018KT 9999 SCT020 BKN250 23/17 A2995 RMK GUST 23KT NOSIG=
200911181900 METAR MRPV 181900Z 09015KT 9999 SCT020 BKN100 22/17 A2993 NOSIG=
200911182000 METAR MRPV 182000Z 08015KT 9999 SCT020 BKN250 23/17 A2991 NOSIG=
200911182100 METAR MRPV 182100Z 08016KT 9999 SCT020 BKN250 22/17 A2990 NOSIG=
200911182200 METAR MRPV 182200Z 07016KT 9999 SCT020 BKN150 22/17 A2990 NOSIG=
200911182300 METAR MRPV 182300Z 07016KT 9999 SCT020 BKN250 21/17 A2992 RMK RN DZ N/NE/E NOSIG=
200911190000 METAR MRPV NIL=
200911190100 METAR MRPV 190100Z NIL=
200911190200 METAR MRPV NIL=
200911190300 METAR MRPV NIL=
200911190400 METAR MRPV NIL=
200911190500 METAR MRPV NIL=
200911190600 METAR MRPV NIL=
200911190700 METAR MRPV NIL=
200911190800 METAR MRPV NIL=
200911190900 METAR MRPV NIL=
200911191000 METAR MRPV NIL=
200911191100 METAR MRPV NIL=
200911191200 METAR MRPV NIL=
200911191300 METAR MRPV NIL=
200911191400 METAR MRPV 191400Z 11009KT 9999 SCT025 22/18 A2995 RMK DZ DST NW/NE/N/E VEL MAX VTO 14KTS=
200911191500 METAR MRPV 191500Z 10010KT 9999 SCT020 23/18 A2996 RMK DZ N/NE/NW/E VEL MAX VTO 16KTS=
200911191600 METAR MRPV 191600Z 11012KT 9999 SCT020 24/18 A2992 RMK DZ NE/NW/E/N NOSIG=
200911191700 METAR MRPV 191700Z 09011KT 9999 SCT025 24/20 A2993 RMK DZ N/NE/E NOSIG=
200911191800 METAR MRPV 191800Z 08016KT 9999 SCT025 25/18 A2991 RMK DZ N/NE NOSIG=
200911191900 METAR MRPV 191900Z 07017KT 9999 FEW025 SCT035 23/18 A2989 RMK DZ N/NE NOSIG=
200911192000 METAR MRPV 192000Z 08016KT 9999 FEW020 SCT030 23/17 A2986 RMK DZ N NE NOSIG=
200911192100 METAR MRPV 192100Z 07017KT 9999 FEW025 SCT035 22/17 A2986 RMK DZ N NE VEL MAX VTO 25KT NOSIG=
200911192200 METAR MRPV 192200Z 08016KT 9999 SCT020 21/16 A2987 RMK DZ NE NOSIG=
200911192300 METAR MRPV NIL=
200911200000 METAR MRPV NIL=
200911200100 METAR MRPV NIL=
200911200200 METAR MRPV 200200Z 08010KT 9999 25/19 A2976=
200911200300 METAR MRPV NIL=
200911200400 METAR MRPV NIL=
200911200500 METAR MRPV NIL=
200911200600 METAR MRPV NIL=
200911200700 METAR MRPV NIL=
200911200800 METAR MRPV NIL=
200911200900 METAR MRPV NIL=
200911201000 METAR MRPV NIL=
200911201100 METAR MRPV NIL=
200911201200 METAR MRPV 201200Z 14006KT 9999 FEW030 20/16 A2992 RMK DZ N NE SE GUST 12KT NOSIG=
200911201300 METAR MRPV 201300Z 13007KT 9999 FEW025 BKN100 21/17 A2994 RMK DZ DST NW N NE E NOSIG=
200911201400 METAR MRPV 201400Z 13009KT 9999 FEW030 SCT100 21/17 A2995 RMK DZ NW N NE E VEL MAX VTO 14KT NOSIG=
200911201500 METAR MRPV 201500Z 10014KT 9999 FEW025 SCT100 22/17 A2995 RMK DZ DST N NE NOSIG=
200911201600 METAR MRPV 201600Z 10009G19KT 9999 FEW040 SCT025 BKN100 22/17 A2994 RMK DZ DST NE N E NOSIG=
200911201700 METAR MRPV 201700Z 11011KT 9999 SCT020 BKN100 23/17 A2992 RMK RN E SE S DZ DST N NW NE TEMPO VCSH=
200911201800 METAR MRPV 201800Z 11012KT 9999 SCT020 BKN100 24/18 A2990 RMK DZ NW N NE VEL MAX VTO 18KT NOSIG=
200911201900 METAR MRPV NIL=
200911202000 METAR MRPV NIL=
200911202100 METAR MRPV NIL=
200911202200 METAR MRPV NIL=
200911202300 METAR MRPV NIL=
200911210000 METAR MRPV NIL=
200911210001 METAR MRPV 210001Z NIL=
200911210100 METAR MRPV NIL=
200911210200 METAR MRPV NIL=
200911210300 METAR MRPV NIL=
200911210400 METAR MRPV NIL=
200911210500 METAR MRPV NIL=
200911210600 METAR MRPV NIL=
200911210700 METAR MRPV NIL=
200911210800 METAR MRPV NIL=
200911210900 METAR MRPV NIL=
200911211000 METAR MRPV NIL=
200911211100 METAR MRPV NIL=
200911211200 METAR MRPV 211200Z 12010KT 9999 FEW010 21/17 A2991 RMK RN DST N=
200911211300 METAR MRPV 211300Z 10010KT 9999 FEW010 21/18 A2992 RMK VEL.MAX.VTO.15KT RN NE NOSIG=
200911211400 METAR MRPV 211400Z 10011G21KT 9999 FEW010 22/18 A2994 RMK PCPN DST SE NOSIG=
200911211500 METAR MRPV 211500Z 10011G21 9999 22/18 A2994 RMK RN DST NE NOSIG=
200911211600 METAR MRPV 211600Z 09016G26KT 9999 SCT010 24/18 A2994 RMK RN DST NE DU NR APCH RYW27 NOSIG=
200911211700 METAR MRPV 211700Z 10012G25KT 9999 SCT010 24/18 A2992 RMK RN DST NE DU NR APCH RWY27 NOSIG=
200911211800 METAR MRPV 211800Z 07012G22 9999 SCT010 24/18 A2991 RMK RN DST NE DU NR APCH RWY27 NOSIG=
200911211900 METAR MRPV 211900Z 08010G20KT 9999 SCT010 24/18 A2989 RMK RN NE DU NR APCH RWY27 NOSIG=
200911212000 METAR MRPV 212000Z 08012G22KT 9999 BKN022 23/17 A2988 RMK RN DST NE NOSIG=
200911212100 METAR MRPV 212100Z 08012G22KT 9999 FEW022 23/16 A2987 RMK RN DST NE NOSIG=
200911212200 METAR MRPV 212200Z 08010G20KT 9999 FEW022 23/17 A2987 RMK RN DST NE NOSIG=
200911212300 METAR MRPV 212300Z 08010G20KT 9999 BKN022 22/17 A2988 RMK RN NE NOSIG=
200911220000 METAR MRPV NIL=
200911220100 METAR MRPV NIL=
200911220200 METAR MRPV NIL=
200911220300 METAR MRPV NIL=
200911220400 METAR MRPV NIL=
200911220500 METAR MRPV NIL=
200911220600 METAR MRPV NIL=
200911220700 METAR MRPV NIL=
200911220800 METAR MRPV NIL=
200911220900 METAR MRPV NIL=
200911221000 METAR MRPV NIL=
200911221100 METAR MRPV NIL=
200911221200 METAR MRPV 221200Z 10010KT 9999 SCT020 22/18 A2992 RMK PCPN DST NE NOSIG=
200911221300 METAR MRPV 221300Z 11014KT 9999 SCT020 22/18 A2994 RMK RN DST NE NOSIG=
200911221400 METAR MRPV 221400Z 11010KT 9999 FEW020 SCT100 24/18 A2995 RMK VEL.MAX VTO 16KT RN DST NE TU/APP/07 NOSIG=
200911221500 METAR MRPV 221500Z 09010KT 9999 FEW020 SCT100 24/18 A2995 RMK RN DST N NE VEL.MAX.VTO 16KT NOSIG=
200911221600 METAR MRPV 221600Z 09010G20KT 9999 FEW012 SCT100 24/19 A2994 RMK RN DST QUAD N NOSIG=
200911221700 METAR MRPV 221700Z 08012G22KT 9999 SCT010 BKN030 24/18 A2994 RMK RN DST QUAD N E NOSIG=
200911221800 METAR MRPV 221800Z 11010KT 6000 RA SCT002 BKN018 22/19 A2992 BECMG 3000 RA=
200911221900 METAR MRPV 221900Z 08010G20KT 9999 FEW010 BKN100 23/19 A2989 RERA RMK RN DST NE NOSIG=
200911222000 METAR MRPV 222000Z 10010G20KT 9999 SCT010 SCT120 26/19 A2987 RN N NE E NOSIG=
200911222100 METAR MRPV 222100Z 10010G20KT 5000 RA SCT010 OVC100 22/18 A2987 BECMG 3000 RA=
200911222200 METAR MRPV 222200Z 11012KT 8000 -RA SCT010 OVC120 21/19 A2988 NOSIG=
200911222300 METAR MRPV 222300Z 09010KT 7000 RA SCT010 OVC100 21/19 A2990 RMK GUST 15KT NOSIG=
200911230000 METAR MRPV NIL=
200911230100 METAR MRPV NIL=
200911230200 METAR MRPV NIL=
200911230300 METAR MRPV NIL=
200911230400 METAR MRPV NIL=
200911230500 METAR MRPV NIL=
200911230600 METAR MRPV NIL=
200911230700 METAR MRPV NIL=
200911230800 METAR MRPV NIL=
200911230900 METAR MRPV NIL=
200911231000 METAR MRPV NIL=
200911231100 METAR MRPV NIL=
200911231200 METAR MRPV 231200Z 11012KT 9999 FEW015 SCT120 22/17 A2993 RMK RN NE NOSIG=
200911231300 METAR MRPV 231300Z 14010KT 9999 FEW015 SCT120 22/18 A2995 VIENTO CRUZADO EN PISTA RN NE NOSIG=
200911231400 METAR MRPV 231400Z 09010KT 9999 SCT012 23/18 A2998 RMK RN NE NOSIG=
200911231500 METAR MRPV 231500Z 09010KT 9999 SCT012 25/19 A2997 RMK RAFAGAS 15KT DU APROX IMACION 09 RN NE NOSIG=
200911231600 METAR MRPV 231600Z 09010KT 9999 SCT010 BKN030 24/18 A2998 RMK RN NE SE GUS HVH659 231557 GG EGZZMCAR KILNABXD KWBCYMYX MDSDYMYX MKJKYMYX MPZZMAMX 231600 MNMGYMYX=
200911231700 METAR MRPV 231700Z 08010G20KT 999 SCT015 26/18 A2995 RMK DU APROXIMACION 09 RN NE TCU NW NOSIG=
200911231800 METAR MRPV 231800Z 09010G20KT 9999 SCT012 SCT030 25/19 A2993 RMK DU AROXIMAC ION 09 Y 27 TCU NW W RN NE NOSIG=
200911231900 METAR MRPV 231900Z 10010KT 9999 FEW012 SCT030 27/18 A2989 RMK DU APROXIMACION 27 TCU W NW RN NE NOSIG=
200911232000 METAR MRPV 232000Z 08010KT 9999 SCT012 SCT030 26/19 A2987 RMK VEL MAX=
200911232100 METAR MRPV 232100Z 10012KT 9999 SCT012 BKN030 25/18 A2986 RMK TCU N/NE RN N/SE DU PISTA 09 NOSIG=
200911232200 METAR MRPV 232200Z 11012KT 9999 SCT010 BKN030 23/18 A2988 RMK RN N/E TCU N/W TEMPO 6000 RA=
200911232300 METAR MRPV 232300Z 10010KT 8000 -RA SCT010 BKN030 22/18 A2978 NOSIG=
200911240000 METAR MRPV NIL=
200911240100 METAR MRPV 240100Z NIL=
200911240200 METAR MRPV 240200Z NIL=
200911240300 METAR MRPV NIL=
200911240400 METAR MRPV NIL=
200911240500 METAR MRPV NIL=
200911240600 METAR MRPV NIL=
200911240700 METAR MRPV NIL=
200911240800 METAR MRPV NIL=
200911240900 METAR MRPV NIL=
200911241000 METAR MRPV NIL=
200911241100 METAR MRPV NIL=
200911241200 METAR MRPV 241200Z 10003KT 9999 FEW020 SCT120 BKN250 21/17 A2992 RMK DZ DST NE NOSIG=
200911241300 METAR MRPV 241300Z 11006KT 9999 FEW020 SCT120 BKN250 21/18 A2994 RMK RN DST NE NOSIG=
200911241400 METAR MRPV 241400Z 12004KT 9999 FEW020 SCT120 BKN250 23/18 A2996 NOSIG=
200911241500 METAR MRPV 241500Z 11007KT 9999 FEW020 SCT130 BKN250 24/19 A2996 NOSIG=
200911241600 METAR MRPV 241600Z 09008KT 9999 FEW020 BKN120 25/29 A2995 RMK FEW250 NOSIG=
200911241700 METAR MRPV 241700Z 10003KT 9999 FEW020 BKN150 26/18 A2993 NOSIG=
200911241800 METAR MRPV 241800Z 33006KT 9999 SCT020 BKN250 27/20 A2989 RMK FEW110 NOSIG=
200911241900 METAR MRPV 241900Z 28012KT 9999 SCT020 BKN250 25/20 A2987 RMK RN DST E NOSIG=
200911242000 METAR MRPV 242000Z 28011KT 9999 SCT020 BKN100 24/19 A2985 RMK RN DST N NE NOSIG=
200911242100 METAR MRPV 242100Z 29010KT 3000 1000E TSRA SCT006CB SCT015 BKN100 29/20 A2985 TEMPO 2000 RA BKN012=
200911242200 METAR MRPV 242200Z 08003KT 2000 -TSRA SCT005CB OVC010 21/20 A2987 TEMPO 1000 RA BR=
200911242300 METAR MRPV 242300Z 08003KT 5000 VCTS VCSH SCT010CB BKN020 21/19 A2989 RERA TEMPO 9999=
200911250000 METAR MRPV NIL=
200911250100 METAR MRPV NIL=
200911250200 METAR MRPV 250200Z NIL=
200911250300 METAR MRPV NIL=
200911250400 METAR MRPV NIL=
200911250500 METAR MRPV NIL=
200911250600 METAR MRPV NIL=
200911250700 METAR MRPV NIL=
200911250800 METAR MRPV NIL=
200911250900 METAR MRPV NIL=
200911251000 METAR MRPV NIL=
200911251100 METAR MRPV NIL=
200911251200 METAR MRPV 251200Z 00000KT CAVOK 19/18 A2992 RMK SCT120 BKN250 NOSIG=
200911251300 METAR MRPV 251300Z 00000KT CAVOK 19/18 A2993 RMK SCT120 BKN250 FU W=
200911251400 METAR MRPV 251400Z 00000KT CAVOK 22/18 A2995 RMK FEW130 BKN250 HZ DST W TEMPO 24006KT=
200911251500 METAR MRPV 251500Z 05003KT CAVOK 23/18 A2996 RMK BKN250 HZ W TEMPO 24006KT=
200911251600 METAR MRPV 251600Z VRB04KT 9999 FEW020 OVC250 24/18 A2996 TEMPO 24006KT=
200911251700 METAR MRPV 251700Z 27006KT 9999 FEW020 OVC250 23/20 A2994 RMK LGT HZ ARND=
200911251800 METAR MRPV 251800Z 27008KT 9999 FEW010 SCT020 OVC250 22/20 A2992 RMK HZ ARN=
200911251900 METAR MRPV 251900Z 28008KT 9999 FEW010 SCT020 BKN250 23/19 A2989 NOSIG=
200911252000 METAR MRPV NIL=
200911252100 METAR MRPV 252100Z 27006KT 9000 4000S VCFG SCT015 BKN250 23/20 A2986 NOSIG=
200911252200 METAR MRPV 252200Z 29003KT 7000 3000SW BR SCT010 BKN025 22/20 A2986 TEMPO 3000BR=
200911252300 METAR MRPV 252300Z 28003KT 4000 BR SCT006 BKN015 22/20 A2988 TEMPO 3000 BR=
200911260000 METAR MRPV 260000Z NIL=
200911260100 METAR MRPV NIL=
200911260200 METAR MRPV NIL=
200911260300 METAR MRPV NIL=
200911260400 METAR MRPV NIL=
200911260500 METAR MRPV NIL=
200911260600 METAR MRPV NIL=
200911260700 METAR MRPV NIL=
200911260800 METAR MRPV NIL=
200911260900 METAR MRPV NIL=
200911261000 METAR MRPV NIL=
200911261100 METAR MRPV NIL=
200911261200 METAR MRPV 261200Z 11006KT CAVOK 21/17 A2989 RMK DU PISTA 09 BKN250 NOSIG=
200911261300 METAR MRPV 261300Z 12005KT CAVOK 22/18 A2992 RMK BKN120 NOSIG=
200911261400 METAR MRPV 261400Z 13006KT 9999 FEW030 BKN120 23/18 A2995 NOSIG=
200911261500 METAR MRPV 261500Z 09010KT 9999 SCT030 BKN120 25/18 A2995 NOSIG=
200911261600 METAR MRPV 261600Z 09008KT 9999 SCT030 BKN120 26/18 A2995 NOSIG=
200911261700 METAR MRPV 261700Z 07007KT 9999 SCT030 BKN120 27/18 A2993 RMK TCU DST E NOSIG=
200911261800 METAR MRPV 261800Z 25003KT 9999 SCT030 BKN120 26/20 A2989 RMK TCU/RN N/E NOSIG=
200911261900 METAR MRPV 261900Z 27009KT 9999 SCT020TCU BKN100 26/21 A2986 RMK RASH N/NE/E TEMPO 7000 VCSH=
200911262000 METAR MRPV 26200Z 29006KT 7000 3000S -TSRA SCT005CB BKN012 24/21 A2984 TEMPO 4000 RA=
200911262100 METAR MRPV 262100Z 24002KT 5000 BR SCT003 BKN012 22/21 A2989 RETS RMK VIS 8000 SE E TEMPO 7000 BKN015=
200911262200 METAR MRPV 262200Z 00000KT 6000 VCFG SCT012 BKN020 22/20 A2985 NOSIG=
200911262300 METAR MRPV 262300Z 0000KT 6000 -RA VCFG SCT005 BKN020 22/20 A2988 RMK VIS 9999 SW W TEMPO 5000 BR=
200911270000 METAR MRPV 270000Z 00000KT 6000 VCFG SCT005 BKN035 22/20 A2987 NOSIG=
200911270100 METAR MRPV NIL=
200911270200 METAR MRPV NIL=
200911270300 METAR MRPV NIL=
200911270400 METAR MRPV NIL=
200911270500 METAR MRPV NIL=
200911270600 METAR MRPV NIL=
200911270700 METAR MRPV NIL=
200911270800 METAR MRPV NIL=
200911270900 METAR MRPV NIL=
200911271000 METAR MRPV NIL=
200911271100 METAR MRPV NIL=
200911271200 METAR MRPV 271200Z 10010KT 9999 FEW030 BKN250 21/17 A2993 CB LTNG DST SW PCPN NE NOSIG=
200911271300 METAR MRPV 271300Z 10010G20KT 9999 FEW025 BKN250 22/17 A2995 RMK RN DST N NE NOSIG=
200911271400 METAR MRPV 271400Z 11010G20KT 9999 SCT022 BKN250 22/18 A2997 RMK RN DST N NE NOSIG=
200911271500 METAR MRPV 271500Z 08010G20KT 9999 FEW020 BKN030 22/18 A2999 RMK RN DST N NE BECMG 6000 -RA=
200911271600 METAR MRPV 271600Z 08010G20KT 9999 SCT020 BKN250 24/17 A2997 RMK RN DST N NE NOSIG=
200911271700 METAR MRPV 271700Z 08010G20KT 9999 FEW020 BKN250 23/18 A2996 RMK RN DST N NE NOSIG=
200911271800 METAR MRPV 271800Z 07010G20KT 9999 -RA SCT018 BKN250 23/19 A2994 NOSIG=
200911271900 METAR MRPV 271900Z 08010G20KT 9999 SCT018 BKN250 23/18 A2992 RMK RN DST N NE NOSIG=
200911272000 METAR MRPV 272000Z 08010G20KT 9999 SCT015 BKN250 23/18 A2992 RMK RN DST N NE NOSIG=
200911272100 METAR MRPV 272100Z 09010G20KT 9999 SCT015 BKN030 23/18 A2988 RMK RN DST N NE NOSIG=
200911272200 METAR MRPV 272200Z 08010G20KT 9999 SCT015 BKN030 22/17 A2988 RMK RN N NE NOSIG=
200911272300 METAR MRPV 272300Z 08011G21KT 9999 SCT012 BKN030 21/16 A2990 RMK RN N NE NOSIG=
200911280000 METAR MRPV NIL=
200911280100 METAR MRPV NIL=
200911280200 METAR MRPV NIL=
200911280300 METAR MRPV NIL=
200911280400 METAR MRPV NIL=
200911280500 METAR MRPV NIL=
200911280600 METAR MRPV NIL=
200911280700 METAR MRPV NIL=
200911280800 METAR MRPV NIL=
200911280900 METAR MRPV NIL=
200911281000 METAR MRPV NIL=
200911281100 METAR MRPV NIL=
200911281200 METAR MRPV 281200Z 10012KT 9999 SCT020 BKN250 21/15 A2995 RMK RN NE NOSIG=
200911281300 METAR MRPV 281300Z 11010G20KT 99999 SCT020 BKN250 21/16 A2996 RMK RN N NE NOSIG=
200911281400 METAR MRPV 281400Z 09010G20KT 9999 SCT020 BKN250 21/17 A2999 RMK RN DST N NE NOSIG=
200911281500 METAR MRPV 281500Z 10010G20KT 9999 SCT015 BKN250 21/16 A3000 RMK RN DST N NE NOSIG=
200911281600 METAR MRPV 281600Z 09010G20KT 9999 SCT015 BKN250 22/17 A2999 RMK RN DST N NE BECMG -RA=
200911281700 METAR MRPV 281700Z 09011G21KT 9999 SCT015 BKN250 22/16 A2998 RMK RN DST N NE BECMG -RA=
200911281800 METAR MRPV 281800Z 09010G20KT 9999 SCT015 BKN250 23/17 A2995 RMK RN DST N NE NOSIG=
200911281900 METAR MRPV 281900Z 08010G20KT 9999 FEW015 BKN250 23/17 A2992 RMK RN DST N NE NOSIG=
200911282000 METAR MRPV 282000Z 09010G20KT 9999 FEW015 BKN250 23/17 A2990 RMK RN DST N NE NOSIG=
200911282100 METAR MRPV 282100Z 08010G20KT 9999 FEW015 BKN250 24/17 A2989 RMK RN DST N/NE NOSIG=
200911282200 METAR MRPV 282200Z 09010G20KT 9999 FEW012 BKN250 22/17 A2989 RMK RN DST N/NE NOSIG=
200911282300 METAR MRPV 282300Z 10010KT 9999 FEW010 BKN250 22/17 A2991 RMK RN DST N/NE TCU SW NOSIG=
200911282335 METAR MRPV 282335Z 10010KT 9999 FEW010 BKN250 22/16 A2994 RMK RN DST N/NE TCU SW NOSIG=
200911290000 METAR MRPV NIL=
200911290100 METAR MRPV NIL=
200911290200 METAR MRPV NIL=
200911290300 METAR MRPV NIL=
200911290400 METAR MRPV NIL=
200911290500 METAR MRPV NIL=
200911290600 METAR MRPV NIL=
200911290700 METAR MRPV NIL=
200911290800 METAR MRPV NIL=
200911290900 METAR MRPV NIL=
200911291000 METAR MRPV NIL=
200911291100 METAR MRPV NIL=
200911291200 METAR MRPV 291200Z 11010KT CAVOK 19/14 A2997 RMK RN DST NE BKN250 NOSIG=
200911291300 METAR MRPV 291300Z 11012KT CAVOK 20/15 A2998 RMK RN DST NE BKN250 NOSIG=
200911291400 METAR MRPV 291400Z 10010KT CAVOK 22/15 A3000 RMK DZ DST NE BKN250 NOSIG=
200911291500 METAR MRPV 291500Z 08010G20KT CAVOK 24/18 A3000 RMK RN DST NE BKN250 NOSIG=
200911291600 METAR MRPV 291600Z 08011G21KT CAVOK 25/16 A2999 RMK RN DST NE BKN250 NOSIG=
200911291700 METAR MRPV 291700Z 08010G20KT 9999 FEW030 BKN250 26/17 A2998 RMK RN DST NE NOSIG=
200911291800 METAR MRPV 291800Z 08010KT 9999 FEW030 BKN250 26/17 A2996 RMK RN DST NE NOSI G=
200911291900 METAR MRPV 291900Z 07010G20KT 9999 FEW030 BKN250 25/16 A2994 RMK NR DST NE NOSIG=
200911292000 METAR MRPV 292000Z 07010G20KT 9999 FEW025 BKN250 26/17 A2991 RMK RN DST NE NOSIG=
200911292100 METAR MRPV 292100Z 08010G20KT 9999 SCT025 BKN250 25/16 A2991 RMK RN NE TCU DIST SW NOSIG=
200911292200 METAR MRPV 292200Z 07010G20KT 9999 SCT025 BKN250 23/16 A2991 RMK PCPN DST NE TCU SW NOSIG=
200911292300 METAR MRPV 292300Z 09010G20KT 9999 FEW020 BKN250 22/16 A2993 RN NE TCU SW NOSIG=
200911300000 METAR MRPV NIL=
200911300100 METAR MRPV NIL=
200911300200 METAR MRPV NIL=
200911300300 METAR MRPV NIL=
200911300400 METAR MRPV NIL=
200911300500 METAR MRPV NIL=
200911300600 METAR MRPV NIL=
200911300700 METAR MRPV NIL=
200911300800 METAR MRPV NIL=
200911300900 METAR MRPV NIL=
200911301000 METAR MRPV NIL=
200911301100 METAR MRPV NIL=
200911301200 METAR MRPV 301200Z 12007KT CAVOK 19/14 A2996 RMK SCT250 NOSIG=
200911301300 METAR MRPV 301300Z 11009KT 9999 NSC 22/15 A2998 RMK TRACE SC CI NOSIG=
200911301400 METAR MRPV 301400Z 11009KT 9999 NSC 22/15 A2998 RMK TRACE SC CI NOSIG=
200911301500 METAR MRPV 301500Z 08013KT 9999 NSC 24/14 A2998 RMK TRACE SC CI VEL MAX VTO 18KT NOSIG=
200911301600 METAR MRPV 301600Z 06012KT 9999 NSC 24/14 A2998 RMK TRACE SC NOSIG=
200911301700 METAR MRPV 301700Z 08011KT 9999 FEW040 26/16 A2995 RMK DUST APCH 09 NOSIG=
200911301800 METAR MRPV 301800Z 08009KT 9999 FEW040 27/16 A2993 NOSIG=
200911301900 METAR MRPV 301900Z 09009KT 9999 SCT040 27/16 A2990 NOSIG=
200911302000 METAR MRPV 302000Z 07011KT 9999 SCT040 26/18 A2988 NOSIG=
200911302100 METAR MRPV NIL=
200911302200 METAR MRPV 302200Z 09013KT 9999 SCT020 BKN100 23/18 A2988 RMK RN DST NW NOSIG=
200911302300 METAR MRPV 302300Z 09010KT 9999 SCT020 BKN100 22/17 A2990 NOSIG=
200912010000 METAR MRPV 010000Z NIL=
200912010100 METAR MRPV NIL=
200912010200 METAR MRPV NIL=
200912010300 METAR MRPV NIL=
200912010400 METAR MRPV NIL=
200912010500 METAR MRPV NIL=
200912010600 METAR MRPV NIL=
200912010700 METAR MRPV NIL=
200912010800 METAR MRPV NIL=
200912010900 METAR MRPV NIL=
200912011000 METAR MRPV NIL=
200912011100 METAR MRPV NIL=
200912011200 METAR MRPV 011200Z 11006KT 9999 FEW040 20/16 A2993 NOSIG=
200912011300 METAR MRPV 011300Z 10008KT 9999 FEW030 21/16 A2995 NOSIG=
200912011400 METAR MRPV 011400Z 09009KT 9999 FEW030 23/17 A2996 RMK DU NR APCH 09 NOSIG=
200912011500 METAR MRPV 011500Z 08013KT 9999 SCT030 23/17 A2997 RMK DU NR APCH 09 DZ DST NE NOSIG=
200912011600 METAR MRPV 011600Z 10011KT 9999 SCT030 24/17 A2996 NOSIG=
200912011700 METAR MRPV 011700Z 08013KT 9999 BKN025 24/17 A2995 RMK DU NR APCH 09 NOSIG=
200912011800 METAR MRPV 011800Z 08011KT 9999 BKN020 25/17 A2991 NOSIG=
200912011900 METAR MRPV 011900Z 07010KT 9999 BKN020 24/18 A2980 RMK DU NR APCH 09 NOSIG=
200912012000 METAR MRPV 012000Z 08010KT 9999 BKN025 26/18 A2985 NOSIG=
200912012100 METAR MRPV 012100Z 08009KT 9999 BKN030 26/18 A2982 NOSIG=
200912012200 METAR MRPV 012200Z 10006KT 9999 FEW020 SCT035 24/18 A2983 NOSIG=
200912012300 METAR MRPV 012300Z 10009KT 9999 SCT015TCU BKN030 24/18 A2984 RMK TCU RN DST E=
200912020000 METAR MRPV NIL=
200912020100 METAR MRPV NIL=
200912020200 METAR MRPV NIL=
200912020300 METAR MRPV NIL=
200912020400 METAR MRPV NIL=
200912020500 METAR MRPV NIL=
200912020600 METAR MRPV NIL=
200912020700 METAR MRPV NIL=
200912020800 METAR MRPV NIL=
200912020900 METAR MRPV NIL=
200912021000 METAR MRPV NIL=
200912021100 METAR MRPV NIL=
200912021200 METAR MRPV 021200Z 11002KT 9999 NSC 19/16 A2990 TRACE SC CI TCU DST SW POLVO APROXIMACION PISTA 09 NOSIG=
200912021300 METAR MRPV 021300Z 00000KT 9999 NSC 22/16 A2992 RMK TRACE SC NOSIG=
200912021400 METAR MRPV 021400Z 14003KT 9999 NSC 24/16 A2994 RMK TRACE SC NOSIG=
200912021500 METAR MRPV 021500Z 10002KT 9999 NSC 26/17 A2995 RMK TRACE SC NOSIG=
200912021600 METAR MRPV 021600Z 00000KT 9999 FEW030 27/17 A2993 NOSIG=
200912021700 METAR MRPV 021700Z 28006KT 9999 FEW020 SCT035 26/18 A2992 NOSIG=
200912021800 METAR MRPV 021800Z 27006KT 9999 SCT020 BKN035 25/20 A2989 RMK POLVO APROXIMACION PISTA 09=
200912021900 METAR MRPV 021900Z 28009KT 9999 SCT025 BKN100 25/20 A2987 NOSIG=
200912022000 METAR MRPV 022000Z 28008KT 9999 SCT015 BKN100 25/20 A2986 RMK DZ DST N NE NOSIG=
200912022100 METAR MRPV 022100Z 260005KT 9999 SCT020 BKN100 24/21 A2986 RMK DZ DST NE NOSIG=
200912022200 METAR MRPV 022200Z 28008KT 9999 SCT015TCU BKN030 24/21 A2986 RMK DZ DST NE NOSIG=
200912022300 METAR MRPV 022300Z 27004KT 7000 3000S BR SCT001 BKN015 23/21 A2988 TEMPO 5000 BR=
200912030000 METAR MRPV 030000Z NIL=
200912030100 METAR MRPV NIL=
200912030200 METAR MRPV NIL=
200912030300 METAR MRPV NIL=
200912030400 METAR MRPV NIL=
200912030500 METAR MRPV NIL=
200912030600 METAR MRPV NIL=
200912030700 METAR MRPV NIL=
200912030800 METAR MRPV NIL=
200912030900 METAR MRPV NIL=
200912031000 METAR MRPV NIL=
200912031100 METAR MRPV NIL=
200912031200 METAR MRPV 031200Z 11008KT 9999 FEW030 21/17 A2993 NOSIG=
200912031300 METAR MRPV 031300Z 11010KT 9999 FEW030 21/17 A2995 RMK CB DST N PCPN DST NE NOSIG=
200912031400 METAR MRPV 031400Z 11010KT 9999 FEW030 22/18 A2996 RMK PCPN DST NE NOSIG=
200912031500 METAR MRPV 031500Z 07010KT 9999 FEW030 25/18 A2996 RMK PCPN DST NE VEL MAX VTO 16KT NOSIG=
200912031600 METAR MRPV NIL=
200912031700 METAR MRPV 031700Z 08010G20KT 9999 BKN025 24/18 A2996 RMK PCPN DST NE NOSIG=
200912031800 METAR MRPV 031800Z 07010G20KT 9999 SCT025 27/18 A2993 RMK RN DST NE DU NR APCH 09 NOSIG=
200912031900 METAR MRPV 031900Z 08010G20KT 9999 SCT025 27/17 A2990 RMK RN DST NE DU NR APCH RWY09 NOSIG=
200912032000 METAR MRPV 032000Z 07010G20KT 9999 SCT025 28/17 A2987 RMK RN NE DU NR APCH RWY09=
200912032100 METAR MRPV 032100Z 07011KT 9999 SCT025 27/17 A2987 RMK RN DST NE VEL MAX VTO 17KTS DU PISTA 09 NOSIG=
200912032200 METAR MRPV 032200Z 08010KT 9999 FEW025 27/17 A2987 RMK RN DST NE VEL MAX 15KTS NOSIG=
200912032300 METAR MRPV 032300Z 08010KT 9999 FEW020 25/17 A2985 RMK RN DST NOSIG=
200912040000 METAR MRPV NIL=
200912040100 METAR MRPV NIL=
200912040200 METAR MRPV NIL=
200912040300 METAR MRPV NIL=
200912040400 METAR MRPV NIL=
200912040500 METAR MRPV NIL=
200912040600 METAR MRPV NIL=
200912040700 METAR MRPV NIL=
200912040800 METAR MRPV NIL=
200912040900 METAR MRPV NIL=
200912041000 METAR MRPV NIL=
200912041100 METAR MRPV NIL=
200912041200 METAR MRPV 041200Z 12012KT 9999 SCT030 22/17 A2993 RMK RN DST N NE=
200912041300 METAR MRPV 041300Z 11012KT 9999 SCT030 22/18 A295 RMK RN DST N/NE VEL MAX VTO 17KS NOSIG=
200912041400 METAR MRPV 041400Z 10010KT 9999 SCT030 24/18 A2996 RMK RN DST N/NE NOSIG=
200912041500 METAR MRPV 041500Z 07010G20KT 9999 SCT030 24/18 A2996 RMK RN DST N/NE DU PISTA 09 NOSIG=
200912041600 METAR MRPV 041600Z 08012G22KT 9999 SCT030 24/17 A2996 RMK RN DST N/NE DU PIST 09 NOSIG=
200912041700 METAR MRPV 041700Z NIL=
200912041800 METAR MRPV 041800Z 08010G20KT 9999 SCT030 26/17 A2993=
200912041900 METAR MRPV 041900Z 07012G22KT 9999 SCT030 27/17 A2989 RMK DZ DST NE DU PISTA 09 NOSIG=
200912042000 METAR MRPV 042000Z 06010G20KT 9999 SCT030 26/17 A2987 RN NE POLVO APROX/09 NOSIG=
200912042100 METAR MRPV 042100Z 08010G20KT 9999 SCT030 27/18 A2987 RMK RN DST NE DUST APCH RNY09 NOSIG=
200912042200 METAR MRPV 042200Z 07010G20KT 9999 SCT030 25/18 A2988 RMK PCPN NE NOSIG=
200912042300 METAR MRPV 042300Z 09010G20KT 9999 SCT020 23/17 A2990 RMK PCPN DST N NE=
200912042345 METAR MRPV 042345Z 07010G20KT 9999 SCT020 22/16 A2991 PCPN DST N NE=
200912050000 METAR MRPV NIL=
200912050100 METAR MRPV NIL=
200912050200 METAR MRPV NIL=
200912050300 METAR MRPV NIL=
200912050400 METAR MRPV NIL=
200912050500 METAR MRPV NIL=
200912050600 METAR MRPV NIL=
200912050700 METAR MRPV NIL=
200912050800 METAR MRPV NIL=
200912050900 METAR MRPV NIL=
200912051000 METAR MRPV NIL=
200912051100 METAR MRPV NIL=
200912051200 METAR MRPV 051200Z 12012KT 9999 FEW030 20/15 A2997 RMK RN DST NE NOSIG=
200912051300 METAR MRPV NIL=
200912051400 METAR MRPV 051400Z 10012KT 9999 NSC 23/16 A3000 RMK TRACE SC NOSIG=
200912051500 METAR MRPV 051500Z 09012KT 9999 NSC 25/16 A2999 RMK TRACE SC VEL MAX VTO 17KT=
200912051600 METAR MRPV 051600Z 07010G20KT NSC 26/18 A2998 RMK TRACE SC NOSIG=
200912051700 METAR MRPV 051700Z 07010KT 9999 NSC 27/15 A2996 RMK TRACE SC DUST APCH RNY09 NOSIG=
200912051800 METAR MRPV 051800Z 07013G23KT 9999 FEW020 27/17 A2994 RMK DUST IN APCH RNY 09 NOSIG=
200912051900 METAR MRPV 051900Z 06010G20KT 9999 FEW022 27/16 A2992 RMK DUST IN APCH RNY 09 NOSIG=
200912052000 METAR MRPV 052000Z 07010G20KT 9999 FEW022 28/17 A2990 NOSIG=
200912052100 METAR MRPV 052100Z 06010G20KT 9999 SCT022 25/18 A2990 RMK RN NE NOSIG=
200912052200 METAR MRPV 052200Z 08013G23KT 9999 SCT022 24/18 A2991 RMK RN NE NOSIG=
200912052300 METAR MRPV 052300Z 09014G24KT 9999 BKN022 21/16 A2994 RMK RN NE NOSIG=
200912060000 METAR MRPV 060000Z NIL=
200912060100 METAR MRPV NIL=
200912060200 METAR MRPV NIL=
200912060300 METAR MRPV NIL=
200912060400 METAR MRPV NIL=
200912060500 METAR MRPV NIL=
200912060600 METAR MRPV NIL=
200912060700 METAR MRPV NIL=
200912060800 METAR MRPV NIL=
200912060900 METAR MRPV NIL=
200912061000 METAR MRPV NIL=
200912061100 METAR MRPV NIL=
200912061200 METAR MRPV 061200Z 12010KT 9999 FEW030 21/16 A2998 RMK DZ DST NE NOSIG=
200912061300 METAR MRPV 061300Z 10007KT 9999 FEW030 21/16 A3000 NOSIG=
200912061400 METAR MRPV 061400Z 10011KT 9999 FEW030 23/17 A3002 NOSIG=
200912061500 METAR MRPV 061500Z 07012KT 9999 SCT030 24/17 A3002 NOSIG=
200912061600 METAR MRPV 061600Z 07013KT 9999 BKN025 24/17 A3002 RMK DZ NE/E NOSIG=
200912061700 METAR MRPV 061700Z 07016KT 9999 SCT025 26/17 A2999 NOSIG=
200912061800 METAR MRPV 061800Z 08015KT 9999 SCT025 24/18 A2997 NOSIG=
200912061900 METAR MRPV 061900Z 07015KT 9999 SCT025 24/17 2995 NOSIG=
200912062000 METAR MRPV 062000Z 07013KT 9999 SCT025 24/17 A2994 NOSIG=
200912062100 METAR MRPV 062100Z 08015KT 9999 SCT025 24/17 A2992 NOSIG=
200912062200 METAR MRPV 062200Z 07012KT 9999 SCT025 23/16 A2993 NOSIG=
200912062300 METAR MRPV 062300Z 07012KT 9999 SCT025 23/15 A2994 RMK DZ DST N NOSIG=
200912070000 METAR MRPV NIL=
200912070100 METAR MRPV NIL=
200912070200 METAR MRPV NIL=
200912070300 METAR MRPV NIL=
200912070400 METAR MRPV NIL=
200912070500 METAR MRPV NIL=
200912070600 METAR MRPV NIL=
200912070700 METAR MRPV NIL=
200912070800 METAR MRPV NIL=
200912070900 METAR MRPV NIL=
200912071000 METAR MRPV NIL=
200912071100 METAR MRPV NIL=
200912071200 METAR MRPV 071200Z 10010KT 9999 NSC 19/14 A3001 RMK TRACE SC CI NOSIG=
200912071300 METAR MRPV 071300Z 11010KT 9999 NSC 21/14 A3002 RMK TRACE SC CI=
200912071400 METAR MRPV 071400Z 11007KT 9999 NSC 22/15 A3005 RMK TRACE SC NOSIG=
200912071500 METAR MRPV NIL=
200912071600 METAR MRPV 071600Z 08015KT 9999 FEW030 23/16 A3003 NOSIG=
200912071700 METAR MRPV 071700Z 07013KT 9999 SCT030 25/16 A3002 NOSIG=
200912071800 METAR MRPV 071800Z 08013KT 9999 SCT030 25/15 A3000 NOSIG=
200912071900 METAR MRPV 071900Z 07015KT 9999 SCT030 25/13 A2997 NOSIG=
200912072000 METAR MRPV 072000Z 08015KT 9999 SCT030 26/16 A2995 NOSIG=
200912072100 METAR MRPV 072100Z 08015KT 9999 SCT030 25/14 A2995 NOSIG=
200912072200 METAR MRPV 072200Z 08014KT 9999 SCT030 SCT120 23/15 A2995 NOSIG=
200912072300 METAR MRPV 072300Z 12006KT 9999 FEW030 SCT120 23/16 A2997 NOSIG=
200912080000 METAR MRPV NIL=
200912080100 METAR MRPV NIL=
200912080200 METAR MRPV NIL=
200912080300 METAR MRPV NIL=
200912080400 METAR MRPV NIL=
200912080500 METAR MRPV NIL=
200912080600 METAR MRPV NIL=
200912080700 METAR MRPV NIL=
200912080800 METAR MRPV NIL=
200912080900 METAR MRPV NIL=
200912081000 METAR MRPV NIL=
200912081100 METAR MRPV NIL=
200912081200 METAR MRPV 081200Z 12008KT CAVOK 20/14 A3000 RMK BKN120 NOSIG=
200912081300 METAR MRPV 081300Z 12008KT CAVOK 21/15 A3002 RMK BKN120 NOSIG=
200912081400 METAR MRPV 081400Z 10010KT CAVOK 22/15 A3003 RMK FEW120 NOSIG=
200912081500 METAR MRPV 081500Z 09011KT CAVOK 24/15 A3003 RMK SCT120 DU NR APCH RWY09 NOSIG=
200912081600 METAR MRPV 081600Z 07009KT 9999 FEW030 SCT120 25/15 A3002 RMK DU NR APCH 09 NOSIG=
200912081700 METAR MRPV 081700Z 07008KT SCT030 BKN120 26/15 A2999 RMK DU NR APCH 09 NOSIG=
200912081800 METAR MRPV 081800Z 07014KT 9999 SCT035 BKN120 25/16 A2997 NOSIG=
200912081900 METAR MRPV 081900Z 08010KT 9999 SCT035 BKN120 24/16 A2995 NOSIG=
200912082000 METAR MRPV 082000Z 08015KT 9999 SCT025 BKN120 22/15 A2994 RMK RN SE E DZ DST N=
200912082100 METAR MRPV 082100Z 08010KT 9999 SCT025 BKN120 23/16 A2993 NOSIG=
200912082200 METAR MRPV 082200Z 09012KT 9999 SCT030 BKN120 23/16 A2993 NOSIG=
200912082300 METAR MRPV 082300Z 11009KT 9999 SCT025 BKN120 22/16 A2994 NOSIG=
200912090000 METAR MRPV NIL=
200912090100 METAR MRPV NIL=
200912090200 METAR MRPV NIL=
200912090300 METAR MRPV NIL=
200912090400 METAR MRPV NIL=
200912090500 METAR MRPV NIL=
200912090600 METAR MRPV NIL=
200912090700 METAR MRPV NIL=
200912090800 METAR MRPV NIL=
200912090900 METAR MRPV NIL=
200912091000 METAR MRPV NIL=
200912091100 METAR MRPV NIL=
200912091200 METAR MRPV 091200Z 13007KT 9999 FEW030 20/16 A2996 RMK VIENTO CRUZADO PISTA NOSIG=
200912091300 METAR MRPV 091300Z 13009KT 9999 FEW030 21/15 A2998 RMK VIENTO CRUZADO PISTA NOSIG=
200912091400 METAR MRPV 091400Z 11010KT CAVOK 28/22 A2989 RMK FEW090 NOSIG=
200912091500 METAR MRPV 091500Z 11010KT CAVOK 23/16 A3000 RMK FEW090 NOSIG=
200912091600 METAR MRPV 091600Z 08010KT 9999 FEW030 26/16 A2998 RMK TRACE SC POLVO PISTA 09=
200912091700 METAR MRPV 091700Z 08010KT 9999 FEW030 27/16 A2996 RMK RN DST NE NOSIG=
200912091800 METAR MRPV 091800Z 09008KT 9999 SCT025 27/16 A2995 RMK RN DST N/NE BECMG 24006KT=
200912091900 METAR MRPV 091900Z 09006KT 9999 FEW015TCU SCT030 27/18 A2992 RMK RN QUAD N BECMG 24006KT=
200912092000 METAR MRPV 092000Z 09008KT 9999 FEW015TCU SCT030 28/18 A2989 RN DIST NE NW BECMG 24006KT=
200912092100 METAR MRPV 092100Z 08010KT 9999 FEW015TCU BKN030 26/17 A2988 RMK PCPN DST W NW BECMG 24006KT=
200912092200 METAR MRPV 092200Z 08010KT 9999 SCT010TCU BKN030 25/17 A2988 PCPN DST NE NW BECMG 24006KT=
200912092300 METAR MRPV 092300Z 25004KT 9999 SCT008 BKN025 23/20 A2990 RMK PCN DST W NW NOSIG=
200912100000 METAR MRPV NIL=
200912100100 METAR MRPV 100100Z NIL=
200912100200 METAR MRPV NIL=
200912100300 METAR MRPV NIL=
200912100400 METAR MRPV NIL=
200912100500 METAR MRPV NIL=
200912100600 METAR MRPV NIL=
200912100700 METAR MRPV NIL=
200912100800 METAR MRPV NIL=
200912100900 METAR MRPV NIL=
200912101000 METAR MRPV NIL=
200912101100 METAR MRPV NIL=
200912101200 METAR MRPV 101200Z 11005KT CAVOK 19/16 A2996 RMK RN DST NE DU NR APCH 09 SCT250 NOSIG=
200912101300 METAR MRPV 101300Z 10008KT CAVOK 22/16 A2998 RMK FEW250 PCPN DS NE NOSIG=
200912101400 METAR MRPV 101400Z 11010KT 9999 FEW025 22/16 A3000 PCPN DST NE FEW250 NOSIG=
200912101500 METAR MRPV 101500Z 11010KT 9999 FEW025 SCT250 25/16 A3000 RMK PCPN DST NE NOSIG=
200912101600 METAR MRPV 101600Z 09010KT 9999 FEW030 SCT250 26/16 A2999 RMK PCPN DST NE NOSIG=
200912101700 METAR MRPV 101700Z 09010KT 9999 FEW030 27/17 A2996 NOSIG=
200912101800 METAR MRPV 101800Z 09008KT 9999 SCT020 SCT030 28/16 A2994 PCPN DST NE NW NOSIG=
200912101900 METAR MRPV 101900Z 08010KT 9999 SCT020 BKN030 25/18 A2993 RMK BECMG 24006KT -RA=
200912102000 METAR MRPV 102000Z 08010KT 9999 SCT020 BKN030 26/18 A2990 RN ALNG QUAD N HZ ARND BECMG 24006KT 9999 -RA=
200912102100 METAR MRPV 102100Z 09010KT 9999 SCT020 BKN250 26/18 2989 RMK RN NE/NW NOSIG=
200912102200 METAR MRPV 102200Z 09010KT 9999 SCT010TCU SCT030 25/18 A2989 RMK RN QUAND N RN W CB DST QUAND W NOSIG=
200912102300 METAR MRPV 102300Z 08012KT 9999 SCT010 BKN030 24/17 A2991 RMK RN NE/NW CB SW/W NOSIG=
200912110000 METAR MRPV 110000Z NIL=
200912110100 METAR MRPV NIL=
200912110200 METAR MRPV NIL=
200912110300 METAR MRPV NIL=
200912110400 METAR MRPV NIL=
200912110500 METAR MRPV NIL=
200912110600 METAR MRPV NIL=
200912110700 METAR MRPV NIL=
200912110800 METAR MRPV NIL=
200912110900 METAR MRPV NIL=
200912111000 METAR MRPV NIL=
200912111100 METAR MRPV NIL=
200912111200 METAR MRPV 111200Z 08011KT 9999 SCT025 21/17 A2996 RMK RN DST N/E VEL MAX VTO 16KTS NOSIG=
200912111300 METAR MRPV 111300Z 10012G22KT 9999 SCT025 22/17 A2999 RMK FEW090 RN N/NE POLVO PROXIMACION PISTA 09 NOSIG=
200912111400 METAR MRPV 111400Z 09015G25KT 9999 FEW020 23/16 A3001 RMK FEW090 RN NE NOSIG=
200912111500 METAR MRPV 111500Z 08015G25KT 9999 FEW020 24/16 A3002 RMK NE POLVO APROXIMACION PISTA 09 NOSIG=
200912111600 METAR MRPV 111600Z 07015G25KT 9999 SCT020 26/16 A3002 RMK RN NE POLVO PROXIMACION PISTA 09 NOSIG=
200912111700 METAR MRPV 111700Z 07015G25KT 9999 FEW022 26/16 A3000 RMK NE POLVO PROXIMIDAD PISTA 09 NOSIG=
200912111800 METAR MRPV 111800Z 07015G25KT 9999 FEW022 27/15 A2997 RMK RN NE POLVO PROXIMACION PISTA 09 NOSIG=
200912111900 METAR MRPV 111900Z 07013G23KT 9999 FEW025 26/16 A2994 RMK RN NE POLVO PROXIMACION PISTA 09 TCU DST NW NOSIG=
200912112000 METAR MRPV 112000Z 07013G23KT 9999 FEW025 26/17 A2992 RMK RN NE TCU DST SW/W NOSIG=
200912112100 METAR MRPV 112100Z 07011G21KT 9999 SCT025 25/16 A2993 RMK RN DST NE TCU DST SW W NOSIG=
200912112200 METAR MRPV 112200Z 08010G20KT 9999 SCT020 24/14 A2994 RMK RN DST NE TCU DST SW NOSIG=
200912112300 METAR MRPV 112300Z 09010G20KT 9999 FEW020 23/16 A2995 RMK RN DST N NE=
200912120000 METAR MRPV NIL=
200912120100 METAR MRPV NIL=
200912120200 METAR MRPV NIL=
200912120300 METAR MRPV NIL=
200912120400 METAR MRPV NIL=
200912120500 METAR MRPV NIL=
200912120600 METAR MRPV NIL=
200912120700 METAR MRPV NIL=
200912120800 METAR MRPV NIL=
200912120900 METAR MRPV NIL=
200912121000 METAR MRPV NIL=
200912121100 METAR MRPV NIL=
200912121200 METAR MRPV 121200Z 11010KT 9999 NSC 19/14 A3000 TRACE SC CI NOSIG=
200912121300 METAR MRPV 121300Z 11011KT 9999 NSC 21/14 A3001 RMK TRACE SC CI NOSIG=
200912121400 METAR MRPV 121400Z 10012KT 9999 NSC 22/15 A3002 RMK TRACE SC VEL.MAX.VTO 20KT NOSIG=
200912121500 METAR MRPV 121500Z 08014KT CAVOK 24/15 A3002 RMK SCT250 NOSIG=
200912121600 METAR MRPV 121600Z 07016KT 9999 FEW030 SCT250 24/15 A3001 RMK VEL.MAX.VTO 23KT NOSIG=
200912121700 METAR MRPV 121700Z 07015KT 9999 FEW030 SCT250 26/16 A2999 NOSIG=
200912121800 METAR MRPV NIL=
200912121900 METAR MRPV 121900Z 07011KT 9999 SCT035 26/16 A2994 RMK VEL MAX WIND 20 KTS=
200912122000 METAR MRPV 122000Z 07012KT 9999 SCT030 SCT250 25/17 A2992 NOSIG=
200912122100 METAR MRPV 122100Z 07015KT 9999 FEW020 SCT035 24/16 A2992 NOSIG=
200912122200 METAR MRPV 122200Z 08010KT 9999 BKN025 A2992 RMK RN DST E NOSIG=
200912122300 METAR MRPV 122300Z 10008KT 9999 FEW020 SCT035 22/17 A2994 NOSIG=
200912130000 METAR MRPV NIL=
200912130100 METAR MRPV NIL=
200912130200 METAR MRPV NIL=
200912130300 METAR MRPV NIL=
200912130400 METAR MRPV NIL=
200912130500 METAR MRPV NIL=
200912130600 METAR MRPV NIL=
200912130700 METAR MRPV NIL=
200912130800 METAR MRPV NIL=
200912130900 METAR MRPV NIL=
200912131000 METAR MRPV NIL=
200912131100 METAR MRPV NIL=
200912131200 METAR MRPV 131200Z 11009KT 9999 FEW030 21/16 A2993 NOSIG=
200912131300 METAR MRPV 131300Z 11011KT 9999 SCT030 22/17 A2995 NOSIG=
200912131400 METAR MRPV 131400Z 10012KT 9999 SCT030 23/17 A2997 NOSIG=
200912131500 METAR MRPV 131500Z 08015KT 9999 SCT025 23/17 A2997 NOSIG=
200912131600 METAR MRPV 131600Z 08014KT 9999 SCT020 23/18 A2997 NOSIG=
200912131700 METAR MRPV 131700Z 09015KT 9999 BKN025 24/17 A2996 NOSIG=
200912131800 METAR MRPV 131800Z 08011KT 9999 SCT020 BKN120 26/18 A2992 NOSIG=
200912131900 METAR MRPV 131900Z 07012KT 9999 BKN030 27/17 A2989 NOSIG=
200912132000 METAR MRPV 132000Z 07010KT 9999 BKN030 26/18 A2986 NOSIG=
200912132100 METAR MRPV 132100Z 07013KT 9999 SCT020 BKN040 24/18 A2985 RMK DZ N NOSIG=
200912132200 METAR MRPV 132200Z 07009KT 9999 SCT020 BKN040 24/18 A2985 RMK DZ N NE NOSIG=
200912132300 METAR MRPV 132300Z 09011KT 9999 SCT020 BKN040 23/18 A2986 RMK DZ N NE NOSIG=
200912140000 METAR MRPV 140000Z NIL=
200912140100 METAR MRPV NIL=
200912140200 METAR MRPV NIL=
200912140300 METAR MRPV NIL=
200912140400 METAR MRPV NIL=
200912140500 METAR MRPV NIL=
200912140600 METAR MRPV NIL=
200912140700 METAR MRPV NIL=
200912140800 METAR MRPV NIL=
200912140900 METAR MRPV NIL=
200912141000 METAR MRPV NIL=
200912141100 METAR MRPV NIL=
200912141200 METAR MRPV 141200Z 09016KT 9999 FEW025 SCT120 21/16 A2988 RMK DZ DST NW N NE E VL MX VTO 23KT NOSIG=
200912141300 METAR MRPV 141300Z 10016KT 9999 FEW030 SCT120 21/16 A2991 RMK DZ N NE VL MX VTO 23KT NOSIG=
200912141400 METAR MRPV 141400Z 10019G29KT 9999 FEW030 22/16 A2993 RMK DZ DST N NE NOSIG=
200912141500 METAR MRPV 141500Z 10014KT 9999 SCT020 23/16 A2995 RMK DZ NE VL MX VTO 21KT NOSIG=
200912141600 METAR MRPV 141600Z 08018KT 9999 SCT030 24/17 A2994 RMK DZ NE VL MX VTO 24KT NOSIG=
200912141700 METAR MRPV 141700Z 07018KT 9999 SCT025 24/17 A2992 RMK DZ NE VL MX VTO 25KT NOSIG=
200912141800 METAR MRPV 141800Z 08019KT 9999 SCT030 25/17 A2989 RMK DZ NE VL MX VTO 27KT NOSIG=
200912141900 METAR MRPV 141900Z 08016KT 9999 SCT030 24/17 A2987 RMK VL MX VTO 23KT NOSIG=
200912142000 METAR MRPV 142000Z 07018KT 9999 SCT030 25/17 A2984 RMK VL MX VTO 25KT NOSIG=
200912142100 METAR MRPV NIL=
200912142200 METAR MRPV 142200Z 08015KT 9999 SCT020 23/17 A2985 RMK VEL MAX VTO 22KT DZ NE NOSIG=
200912142300 METAR MRPV 142300Z 10014KT 9999 SCT025 22/17 A2986 RMK DZ DST NE NOSIG=
200912150000 METAR MRPV NIL=
200912150100 METAR MRPV NIL=
200912150200 METAR MRPV NIL=
200912150300 METAR MRPV NIL=
200912150400 METAR MRPV NIL=
200912150500 METAR MRPV NIL=
200912150600 METAR MRPV NIL=
200912150700 METAR MRPV NIL=
200912150800 METAR MRPV NIL=
200912150900 METAR MRPV NIL=
200912151000 METAR MRPV NIL=
200912151100 METAR MRPV NIL=
200912151200 METAR MRPV 151200Z 11010G20KT 9999 FEW025 20/16 A2989 RMK PCPN NE CB DST SW NOSIG=
200912151300 METAR MRPV NIL=
200912151400 METAR MRPV 151400Z 11010KT 9999 FEW025 22/16 A2993 RMK RN DST N NE NOSIG=
200912151500 METAR MRPV 151500Z 09010G20KT 9999 SCT015 22/17 A2994 RMK PCPN DST N NE E NOSIG=
200912151600 METAR MRPV 151600Z 09010G20KT SCT015 22/17 A2993 RMK RN N NE NOSIG=
200912151700 METAR MRPV 151700Z 09010G20KT 9999 SCT015 23/16 A2993 RMK RN N NE NOSIG=
200912151800 METAR MRPV 151800Z 09010G20KT 9999 SCT020 23/17 A2990 RMK RN NE NOSIG=
200912151900 METAR MRPV 151900Z 10010G20KT 9999 SCT020 25/17 A2987 RMK PCPN DST NE NOSIG=
200912152000 METAR MRPV 152000Z 08010G20KT SCT020 BKN250 24/18 A2986 RMK PCPN E NE DST NOSIG=
200912152100 METAR MRPV 152100Z 09010G20KT 9999 SCT020 BKN250 24/18 A2985 RMK RN NE NOSIG=
200912152200 METAR MRPV 152200Z 10010G20KT 9999 SCT020 BKN250 24/18 A2985 RMK RN NE NOSIG=
200912152300 METAR MRPV 152300Z 11010G20KT 9999 SCT015 BKN150 22/18 A2985 RMK RN NE NOSIG=
200912160000 METAR MRPV 160000Z NIL=
200912160100 METAR MRPV NIL=
200912160200 METAR MRPV NIL=
200912160300 METAR MRPV NIL=
200912160400 METAR MRPV NIL=
200912160500 METAR MRPV NIL=
200912160600 METAR MRPV NIL=
200912160700 METAR MRPV NIL=
200912160800 METAR MRPV NIL=
200912160900 METAR MRPV NIL=
200912161000 METAR MRPV NIL=
200912161100 METAR MRPV NIL=
200912161200 METAR MRPV 161200Z 12010KT 9999 SCT012 SCT100 21/16 A2994 RMK PCPN N NE E NOSIG=
200912161300 METAR MRPV 161300Z 12010KT 9999 SCT010 BKN250 21/17 A2995 RMK RN N/NE/E NOSIG=
200912161400 METAR MRPV 161400Z 11010KT 9999 FEW020 BKN250 22/17 A2997 RMK RN N/NE/E NOSIG=
200912161500 METAR MRPV 161500Z 09010G20KT 9999 FEW020 BKN250 23/18 A2998 RMK RN N/NE/E NOSIG=
200912161600 METAR MRPV 161600Z 07012G22KT 9999 FEW020 BKN250 24/18 A2995 RMK RN DST N/NE/E NOSIG=
200912161700 METAR MRPV 161700Z 09012G23KT 9999 FEW020 BKN250 24/17 A2993 RMK N/NE/E NOSIG=
200912161800 METAR MRPV 161800Z 08010G20KT 9999 FEW020 BKN250 25/18 A2993 RMK RN N/NE/E NOSIG=
200912161900 METAR MRPV 161900Z 09010G20KT 9999 FEW020 BKN250 24/18 A2989 RMK RN DST N/NE/E NOSIG=
200912162000 METAR MRPV 162000Z 08010G20KT 9999 SCT020 BKN250 24/18 A2980 RMK RN DST N/NE/E NOSIG=
200912162100 METAR MRPV 162100Z 08010G20KT 9999 FEW020 BKN250 25/18 A2987 RMK RN DST N NE NOSIG=
200912162200 METAR MRPV 162200Z 08010G20KT 9999 FEW020 BKN250 23/18 A2987 RMK RN DST N NE NOSIG=
200912162300 METAR MRPV 162300Z 09010KT 9999 FEW020 BKN250 22/18 A2988 RMK RN DST N NE VEL.MAX.VTO 15KT NOSIG=
200912170000 METAR MRPV NIL=
200912170100 METAR MRPV NIL=
200912170200 METAR MRPV NIL=
200912170300 METAR MRPV NIL=
200912170400 METAR MRPV NIL=
200912170500 METAR MRPV NIL=
200912170600 METAR MRPV NIL=
200912170700 METAR MRPV NIL=
200912170800 METAR MRPV NIL=
200912170900 METAR MRPV NIL=
200912171000 METAR MRPV NIL=
200912171100 METAR MRPV NIL=
200912171200 METAR MRPV 171200Z 11010KT CAVOK 20/14 A2992 RMK FEW250 NOSIG=
200912171300 METAR MRPV 171300Z 10010KT CAVOK 21/14 A2993 RMK FEW250 NOSIG=
200912171400 METAR MRPV 171400Z 10010KT CAVOK 23/15 A2995 RMK FEW250 VEL.MAX.VTO 15KT NOSIG=
200912171500 METAR MRPV 171500Z 10010KT 9999 NSC 24/15 A2995 RMK VEL 15KT TRACE SC NOSIG=
200912171600 METAR MRPV 171600Z 08010KT 9999 NSC 25/15 A2994 RMK VEL MAX WIND 15 KTS=
200912171700 METAR MRPV 171700Z 08012KT 9999 FEW030 26/16 A2993 RMK VEL MAX WIND 17 KTS TCU S/SW NOSIG=
200912171800 METAR MRPV 171800Z 09010KT 9999 FEW030 27/16 A2990 TCU S SW VEL MAX=
200912171900 METAR MRPV 171900Z 08012KT FEW030 27/17 A2988 RMK TCU DST S SW VEL.MAX.VTO 17KT NOSIG=
200912172000 METAR MRPV 172000Z 08012KT 9999 FEW020TCU 26/17 A2985 RMK RN DST NE VEL.MAX.VTO 17KT NOSIG=
200912172100 METAR MRPV 172100Z 09010KT 9999 SCT020TCU 26/17 A2984 RMK VEL MAX VTO 15KT RN DST NE NOSIG=
200912172200 METAR MRPV 172200Z 08011KT 9999 FEW020 SCT250 24/16 A2985 RMK RN DST NE CB DST S SW VEL MAX VTO 16KT NOSIG=
200912172300 METAR MRPV 172300Z 09012KT 9999 FEW020 SCT120 22/17 A2986 RMK CB DST S SW RN DST NE NOSIG=
200912180000 METAR MRPV NIL=
200912180100 METAR MRPV NIL=
200912180200 METAR MRPV NIL=
200912180300 METAR MRPV NIL=
200912180400 METAR MRPV NIL=
200912180500 METAR MRPV NIL=
200912180600 METAR MRPV NIL=
200912180700 METAR MRPV NIL=
200912180800 METAR MRPV NIL=
200912180900 METAR MRPV NIL=
200912181000 METAR MRPV NIL=
200912181100 METAR MRPV NIL=
200912181200 METAR MRPV 181200Z 11002KT CAVOK 19/14 A2990 RMK FEW250 NOSIG=
200912181300 METAR MRPV 181300Z 12005KT CAVOK 20/14 A2991 RMK FEW250 TEMPO 24005KT=
200912181400 METAR MRPV 181400Z 11008KT 9999 NSC 23/14 A2993 RMK CB DST S VEL MAX VTO 13KT TRACE CU SI NOSIG=
200912181500 METAR MRPV 181500Z 09008KT 9999 NSC 25/14 A2995 RMK VEL MAX VOT 12KT TRACE CU/CI CB DST S NOSIG=
200912181600 METAR MRPV 181600Z 08009KT 9999 NSC 27/14 A2993 RMK TRACE CU CI TCU DST SE SW NOSIG=
200912181700 METAR MRPV 181700Z 09005KT 9999 FEW040 27/13 A2991 TEMPO 24006KT=
200912181800 METAR MRPV 181800Z 28008KT 9999 FEW040 27/19 A2989 RMK TCU DST SE NOSIG=
200912181900 METAR MRPV 181900Z 27008KT 9999 SCT040 SCT250 27/19 A2986 RMK TCU DST S/SW=
200912182000 METAR MRPV 182000Z 26007KT 9999 FEW030 BKN250 25/20 A2986 RMK TCU DST SW VEL MAX VOT 14KT NOSIG=
200912182100 METAR MRPV 182100Z 29008KT 9999 FEW015 SCT120 BKN250 24/21 A2986 NOSIG=
200912182200 METAR MRPV 182200Z 28004KT 9999 FEW009 SCT015 23/20 A2998 RMK HZ DST W N SCT120 NOSIG=
200912182300 METAR MRPV 182300Z 09008KT 9999 FEW010TCU SCT025 BKN120 23/17 A2990 RMK RN DST N HZ DST W=
200912190000 METAR MRPV NIL=
200912190100 METAR MRPV NIL=
200912190200 METAR MRPV NIL=
200912190300 METAR MRPV NIL=
200912190400 METAR MRPV NIL=
200912190500 METAR MRPV NIL=
200912190600 METAR MRPV NIL=
200912190700 METAR MRPV NIL=
200912190800 METAR MRPV NIL=
200912190900 METAR MRPV NIL=
200912191000 METAR MRPV NIL=
200912191100 METAR MRPV NIL=
200912191200 METAR MRPV 191200Z 12007KT CAVOK 20/16 A2997 RMK FEW120 BKN250 GUST 13KT NOSIG=
200912191300 METAR MRPV 191300Z 12008KT CAVOK 21/16 A2998 RMK BKN120 SCT250 VL MX VTO 13KT NOSIG=
200912191400 METAR MRPV 191400Z 11009KT CAVOK 22/16 A3000 RMK BKN120 SCT250 VL MX VTO 16KT NOSIG=
200912191500 METAR MRPV=
200912191600 METAR MRPV 191600Z 10010KT CAVOK 25/16 A2999 RMK SCT120 BKN250 VL MX VTO 17KT NOSIG=
200912191700 METAR MRPV 191700Z 09015KT 9999 FEW045 SCT120 26/16 A2998 RMK SCT250 VL MX VTO 20KT NOSIG=
200912191800 METAR MRPV 191800Z 12011KT 9999 FEW045 BKN250 26/17 A2995 RMK VL MX VTO 16KT NOSIG=
200912191900 METAR MRPV 191900Z 08016KT 9999 FEW045 SCT040 BKN250 27/17 A2993 NOSIG=
200912192000 METAR MRPV 192000Z 09015KT 9999 FEW040 BKN250 26/18 A2992 RMK FEW140 VL MX VTO 20KT NOSIG=
200912192100 METAR MRPV 192100Z 09017KT 9999 SCT035 SCT250 25/18 A2991 RMK TCU DST N NOSIG=
200912192200 METAR MRPV 192200Z 08014KT 9999 FEW018 SCT030 BKN120 23/17 A2993 RMK TCU DST SW VEL MAX VTO 19KT NOSIG=
200912192300 METAR MRPV 192300Z 10010KT 9999 FEW006 SCT030 BKN120 22/17 A2995 VIS W 6KMS DUE ST AND RN VEL MAX VTO 16KT NOSIG=
200912200000 METAR MRPV NIL=
200912200100 METAR MRPV NIL=
200912200200 METAR MRPV NIL=
200912200300 METAR MRPV NIL=
200912200400 METAR MRPV NIL=
200912200500 METAR MRPV NIL=
200912200600 METAR MRPV NIL=
200912200700 METAR MRPV NIL=
200912200800 METAR MRPV NIL=
200912200900 METAR MRPV NIL=
200912201000 METAR MRPV NIL=
200912201100 METAR MRPV NIL=
200912201200 METAR MRPV 201200Z 14007KT 9999 FEW030 BKN250 20/16 A3002 NOSIG=
200912201300 METAR MRPV 201300Z 09012KT 9999 FEW030 BKN250 21/16 A3003 VEL MAX VTO 18KT NOSIG=
200912201400 METAR MRPV 201400Z 08012KT CAVOK 22/17 A3004 RMK BKN250 VEL MAX VTO 17KT NOSIG=
200912201500 METAR MRPV 201500Z 08013KT 9999 FEW035 SCT120 BKN250 23/17 A3005 NOSIG=
200912201600 METAR MRPV 201600Z 09011KT 9999 SCT040 BKN250 24/17 A3005 NOSIG=
200912201700 METAR MRPV 201700Z 09012KT 9999 FEW035 BKN250 25/17 A3003 RMK DZ DST NW NOSIG=
200912201800 METAR MRPV 201800Z 09009KT 9999 BKN030 24/17 A3003 RMK DZ DST NW NE VEL MAX VTO 14KT NOSIG=
200912201900 METAR MRPV 201900Z 10009KT 9999 BKN030 24/17 A2999 RMK DZ DST N NE TEMPO -RA=
200912202000 METAR MRPV 202000Z 10006KT 9999 FEW015 BKN030 23/17 A2996 RMK DZ N QUAD TEMPO -RA=
200912202100 METAR MRPV 202100Z 09011KT 9999 BKN030 SCT250 24/17 A2996 NOSIG=
200912202200 METAR MRPV 202200Z 08011KT 9999 FEW020 BKN250 25/17 A2996 RMK TCU DST SW NOSIG=
200912202300 METAR MRPV 202300Z 09008KT 9999 FEW010 SCT030 BKN250 22/17 A2998 RMK TCU DST SW/W VEL.MAX.VTO. 13KT NOSIG=
200912210000 METAR MRPV 210000Z NIL=
200912210100 METAR MRPV NIL=
200912210200 METAR MRPV NIL=
200912210300 METAR MRPV NIL=
200912210400 METAR MRPV NIL=
200912210500 METAR MRPV NIL=
200912210600 METAR MRPV NIL=
200912210700 METAR MRPV NIL=
200912210800 METAR MRPV NIL=
200912210900 METAR MRPV NIL=
200912211000 METAR MRPV NIL=
200912211100 METAR MRPV NIL=
200912211200 METAR MRPV 211200Z 09005KT CAVOK 20/16 A3004 RMK OVC120 DU 09 NOSIG=
200912211300 METAR MRPV 211300Z 11005KT 9999 FEW020 OVC120 21/17 A3006 RN NE POLVO PROXIMACION 09 NOSIG=
200912211400 METAR MRPV 211400Z 10004KT 9999 -RA FEW020 OVC120 21/17 A3009 RMK POLVO PROXIMACION 09 NOSIG=
200912211500 METAR MRPV 211500Z 11006KT 9999 FEW020 BKN120 21/17 A3010 RMK RN QUANDS N/E POLVO PROXIMACION 09 NOSIG=
200912211600 METAR MRPV 211600Z 09006KT 9999 FEW020 SCT120 BKN250 22/17 A3009 RMK RN QUANDS N/E POLVO PROXIMACION 09 CB DST NW NOSIG=
200912211700 METAR MRPV 211700Z 11006KT 9999 FEW020 SCT120 BKN250 23/18 A3007 RMK RN N/NE CB SW DST SW POLVO PROXIMACION 09 NOSIG=
200912211800 METAR MRPV 211800Z 09010KT 9999 FEW020 BKN250 23/17 A3004 RMK POLVO PROXIMACION 09 RN NE NOSIG=
200912211900 METAR MRPV 211900Z 08012KT 9999 FEW020 BKN250 23/16 A3000 RMK POLVO APROXIMACION 09 RN NE/NW NOSIG=
200912212000 METAR MRPV 212000Z 08010G20KT 9999 FEW020 SCT120 BKN250 23/16 A2998 RMK RN DST N/NW NOSIG=
200912212100 METAR MRPV 212100Z 09010G20KT 9999 FEW020 SCT120 BKN250 23/16 A2998 RMK RN N E NOSIG=
200912212200 METAR MRPV 212200Z 09010KT 9999 FEW020 SCT120 BKN250 22/16 A2999 RMK RN NE GUST 15KT NOSIG=
200912212300 METAR MRPV 212300Z 10014KT 9999 FEW012 SCT120 BKN250 21/16 A3000 RMK RN NE NOSIG=
200912220000 METAR MRPV NIL=
200912220100 METAR MRPV NIL=
200912220200 METAR MRPV NIL=
200912220300 METAR MRPV NIL=
200912220400 METAR MRPV NIL=
200912220500 METAR MRPV NIL=
200912220600 METAR MRPV NIL=
200912220700 METAR MRPV NIL=
200912220800 METAR MRPV NIL=
200912220900 METAR MRPV NIL=
200912221000 METAR MRPV NIL=
200912221100 METAR MRPV NIL=
200912221200 METAR MRPV 221200Z 11005KT CAVOK 18/15 A3001 BKN120 NOSIG=
200912221300 METAR MRPV 221300Z 11007KT CAVOK 20/15 A3002 RMK SCT120 NOSIG=
200912221400 METAR MRPV 221400Z 13006KT CAVOK 22/16 A3004 RMK FEW140 NOSIG=
200912221500 METAR MRPV 221500Z 12009KT CAVOK 23/16 A3006 RMK SCT140 GUST 14KT=
200912221600 METAR MRPV 221600Z 14007KT CAVOK 25716 A3004 RMK SCT140 NOSIG=
200912221700 METAR MRPV 221700Z 10006KT 9999 FEW040 BKN120 26/16 A3003 RMK TCU DST S TEMP O 24006KT=
200912221800 METAR MRPV 221800Z 11004KT 9999 FEW040 BKN120 27/17 A3000 RMK TEMPO 24006KT=
200912221900 METAR MRPV 221900Z 08004KT 9999 FEW025 SCT040 26717 A2996 RMK TEMPO 24006KT=
200912222000 METAR MRPV 222000Z 27007KT 9999 FEW025 SCT040 25718 A2995 RMK TCU DST S SW NOSIG=
200912222100 METAR MRPV 222100Z 26006KT 9999 FEW025 SCT035 24/19 A2994 RMK TCU DST NE/S/SW NOSIG=
200912222200 METAR MRPV 222200Z 27007KT 9999 FEW015 FEW030 SCT120 24/20 A2994 RMK LGT HZ ARND NOSIG=
200912222300 METAR MRPV 222300Z 28008KT 9999 FEW012TCU SCT025 22/19 A2996 RMK VIS NE/E/SE 8000 DUE RN/HZ TEMPO 8000 -RA=
200912230000 METAR MRPV NIL=
200912230100 METAR MRPV NIL=
200912230200 METAR MRPV NIL=
200912230300 METAR MRPV NIL=
200912230400 METAR MRPV NIL=
200912230500 METAR MRPV NIL=
200912230600 METAR MRPV NIL=
200912230700 METAR MRPV NIL=
200912230800 METAR MRPV NIL=
200912230900 METAR MRPV NIL=
200912231000 METAR MRPV NIL=
200912231100 METAR MRPV NIL=
200912231200 METAR MRPV 231200Z 07003KT 9999 SKC 20/15 A3000 NOSIG=
200912231300 METAR MRPV 231300Z 10008KT 9999 SKC 21/15 A3001 NOSIG=
200912231400 METAR MRPV 231400Z 09008KT 9999 SKC 22/16 A3002 RMK DU NR APCH09 HZ QUAD W NOSIG=
200912231500 METAR MRPV 231500Z 07008KT 9999 NSC 24/16 A3002 RMK TRACE SC DU NR APCH09 HZ QUADW NOSIG=
200912231600 METAR MRPV 231600Z 07007KT 9999 FEW030 26/16 A3002 RMK DU NR APCH09 HZ QUAD W NOSIG=
200912231700 METAR MRPV 231700Z 26005KT 9999 FEW030 26/17 A2999 RMK DU NR APCH09 HZ DST W NOSIG=
200912231800 METAR MRPV 231800Z 27010KT 9999 SCT025 26/18 A2998 RMK TCU DST S DU NR APCH09 HZ QUAD W NOSIG=
200912231900 METAR MRPV 231900Z 26010KT 9999 SCT025TCU 27/19 A2994 RMK HZ W NOSIG=
200912232000 METAR MRPV 232000Z 26010KT 9999 SCT025TCU 27/18 A2992 RMK HZ W NOSIG=
200912232100 METAR MRPV 232100Z 28008KT 9999 FEW020TCU BKN025 2991 RMK HZ W NOSIG=
200912232200 METAR MRPV 232200Z 26006KT 9999 SCT010TCU BKN020 24/20 A2991 RMK HZ W BECMG 6000 -RA=
200912232300 METAR MRPV 232300Z 22005KT 4000 -RA SCT002 BKN012 22/20 A2993 RMK ST LOW DE W A E VIS E UNL TEMPO 5000 -RA BKN015=
200912240000 METAR MRPV NIL=
200912240100 METAR MRPV NIL=
200912240200 METAR MRPV NIL=
200912240300 METAR MRPV NIL=
200912240400 METAR MRPV NIL=
200912240500 METAR MRPV NIL=
200912240600 METAR MRPV NIL=
200912240700 METAR MRPV NIL=
200912240800 METAR MRPV NIL=
200912240900 METAR MRPV NIL=
200912241000 METAR MRPV NIL=
200912241100 METAR MRPV NIL=
200912241200 METAR MRPV 241200Z 00000KT CAVOK 16/15 A2998 RMK DU 09 SCT250 NOSIG=
200912241300 METAR MRPV 241300Z 00000KT 9999 NSC 18/16 A3001 RMK TRACE SC DU 09 BECMG 24006KT=
200912241400 METAR MRPV 241400Z 00000KT 9999 NSC 22/17 A3002 RMK DU 09 HZ W TRACE SC BECMG 24006KT=
200912241500 METAR MRPV 241500Z 00000KT 9999 FEW030 24/18 A3003 RMK HZ W DU 09 BECMG 24006KT=
200912241600 METAR MRPV 241600Z 24006KT 9999 FEW030 25/18 A3002 RMK HZ W DU 09 NOSIG=
200912241700 METAR MRPV 241700Z 27008KT 9999 SCT025 25/18 A3001 RMK HZ W N DU 09 TCU N NOSIG=
200912241800 METAR MRPV 241800Z 27010KT 9999 SCT025 26/19 A2998 RMK HZ N W TCU N NOSIG=
200912241900 METAR MRPV 241900Z 26008KT 9999 SCT025TCU 26/20 A2995 RMK HZ W N NOSIG=
200912242000 METAR MRPV 242000Z 28010KT 9999 SCT025TCU 26/20 A2993 RMK HZ W N VL MX VTO 15KT NOSIG=
200912242100 METAR MRPV 242100Z 28010KT 8000 VCFG SCT022TCU 26/20 A2992 CB DST S SW NOSIG=
200912242200 METAR MRPV 242200Z 26008KT 6000 VCFG SCT002 BKN018 23/20 A2993 RMK CB DST S SW BECMG 4000 -RA BR BKN012=
200912242300 METAR MRPV 242300Z 29010KT 5000 BR SCT002 BKN015 23/20 A2995 RMK CB DST S SW BECMG 3000 -RA BR BKN012=
200912242345 METAR MRPV 242345Z 27008KT 3000 BR SCT002 BKN01222/20 A2995 CB S SW NOSIG=
200912250000 METAR MRPV NIL=
200912250100 METAR MRPV NIL=
200912250200 METAR MRPV NIL=
200912250300 METAR MRPV NIL=
200912250400 METAR MRPV NIL=
200912250500 METAR MRPV NIL=
200912250600 METAR MRPV NIL=
200912250700 METAR MRPV NIL=
200912250800 METAR MRPV NIL=
200912250900 METAR MRPV NIL=
200912251000 METAR MRPV NIL=
200912251100 METAR MRPV NIL=
200912251200 METAR MRPV 251200Z 00000KT 9999 NSC 18/15 A2998 RMK TRACE SC/SI LGT HZ ARND NOSIG=
200912251300 METAR MRPV 251300Z 08005KT 9999 NSC 19/16 A2999 RMK TRACE SC LGT HZ W NOSIG=
200912251400 METAR MRPV 251400Z 10003KT 9999 NSC 24/17 A3000 RMK TRACE SC TEMPO 24006KT=
200912251500 METAR MRPV 251500Z 28004KT 9999 NSC 25/18 A3001 RMK TRACE CU HZ W NOSIG=
200912251600 METAR MRPV 251600Z 28006KT 9999 NSC 25/19 A3002 RMK TRACE CU HZ N NOSIG=
200912251700 METAR MRPV 251700Z 28008KT 9999 NSC 26/19 A3000 LGT HZ ARND TRACE CU NOSIG=
200912251800 METAR MRPV 251800Z 26006KT 9999 FEW040 27/17 A2997 RMK HZY NOSIG=
200912251900 METAR MRPV 251900Z 26007KT 9999 SCT035 26/21 A2995 RMK HZY TCU DST NE E SE NOSIG=
200912252000 METAR MRPV 252000Z 29010KT 9999 FEW020 SCT030 26/21 A2993 TCU DST NE E SE HZY VELM MAX VTO 15KT NOSIG=
200912252100 METAR MRPV 252100Z 26006KT 9999 -RA VCFG FEW10CB FEW015TCU BKN020 25/20 A2993 RMK VIS N 6KM RWMPO 8000 VCSH=
200912252200 METAR MRPV 252200Z 00000KT 9999 FEW015 SCT030 23/18 A2995 RMK VIS 8KM DUE RN NOSIG=
200912252300 METAR MRPV 252300Z 00000KT 9999 FEW015 SCT030 23/19 A2996 RMK RN/HZ DST W NOSIG=
200912260000 METAR MRPV 260000Z NIL=
200912260100 METAR MRPV NIL=
200912260200 METAR MRPV NIL=
200912260300 METAR MRPV NIL=
200912260400 METAR MRPV NIL=
200912260500 METAR MRPV NIL=
200912260600 METAR MRPV NIL=
200912260700 METAR MRPV NIL=
200912260800 METAR MRPV NIL=
200912260900 METAR MRPV NIL=
200912261000 METAR MRPV NIL=
200912261100 METAR MRPV NIL=
200912261200 METAR MRPV 261200Z 08010KT 9999 FEW045 27/16 A2993 RMK TCU DST SW NOSIG=
200912261300 METAR MRPV 261300Z 11011KT 9999 SCT030 21/16 A3001 RMK VEL.MAX.VTO. 17KT NOSIG=
200912261400 METAR MRPV 261400Z 09014KT 9999 FEW035 22/16 A3003 RMK VEL.MAX.VTO. 19KT POLVO PROXIMACION PISTA 09 NOSIG=
200912261500 METAR MRPV 261500Z 08014KT 9999 NSC 23/16 A3003 RMK VEL.MAX.VTO. 21KT NOSIG=
200912261600 METAR MRPV 261600Z 08015KT 9999 NSC 24/16 A3003 RMK TRAZAS CUSC NOSIG=
200912261700 METAR MRPV 261700Z 08014KT 9999 NSC 26/16 A3001 RMK TRAZAS CU VEL.MAX.VTO. 20KT NOSIG=
200912261800 METAR MRPV 261800Z 07014KT 9999 FEW048 26/16 A3000 RMK VEL.MAX.VTO. 19KT NOSIG=
200912261900 METAR MRPV 261900Z 08012KT 9999 FEW045 27/16 A2997 NOSIG=
200912262000 METAR MRPV 262000Z 08011KT 9999 FEW045 27/16 A2995 NOSIG=
200912262100 METAR MRPV NIL=
200912262200 METAR MRPV 262200Z 08012KT 9999 FEW040 26/17 A2993 RMK VEL MAX.VTO 17KT TCU DST SW W NOSIG=
200912262300 METAR MRPV 262300Z 10009KT 9999 FEW035 24/17 A2995 RMK VEL.MAX.VTO 15KT TCU DST W SW NOSIG=
200912270000 METAR MRPV NIL=
200912270100 METAR MRPV NIL=
200912270200 METAR MRPV NIL=
200912270300 METAR MRPV NIL=
200912270400 METAR MRPV NIL=
200912270500 METAR MRPV NIL=
200912270600 METAR MRPV NIL=
200912270700 METAR MRPV NIL=
200912270800 METAR MRPV NIL=
200912270900 METAR MRPV NIL=
200912271000 METAR MRPV NIL=
200912271100 METAR MRPV NIL=
200912271200 METAR MRPV 271200Z 11008KT CAVOK 18/14 A3001 RMK FEW250 NOSIG=
200912271300 METAR MRPV 271300Z 13008KT CAVOK 20/15 A3002 RMK VIENTO CRUZADO PISTA FEW250 NOSIG=
200912271400 METAR MRPV 271400Z 12010KT CAVOK 22/15 A3005 RMK VIENTO CRUZADO PISTA CB DST SW FEW250 NOSIG=
200912271500 METAR MRPV 271500Z 10010KT CAVOK 24/14 A3006 RMK FEW250 NOSIG=
200912271600 METAR MRPV 271600Z 07010KT CAVOK 26/16 A3005 RMK FEW250 NOSIG=
200912271700 METAR MRPV 271700Z 08010KT 9999 FEW030 SCT250 26/15 A3004 RMK VEL.MAX.VTO 15KT NOSIG=
200912271800 METAR MRPV NIL=
200912271900 METAR MRPV 271900Z 07012KT 9999 FEW030 SCT250 27/16 A3004 NOSIG=
200912272000 METAR MRPV 272000Z 08010KT 9999 SCT030 BKN250 27/16 A2997 NOSIG=
200912272100 METAR MRPV 272100Z 07010KT 9999 SCT030 BKN250 26/16 A2995 RMK PCPN N/NE VEL MAX VTO 15KT NOSIG=
200912272200 METAR MRPV 272200Z 08008KT 9999 SCT020 BKN250 26/17 A2995 RMK PCPN DST NE/E TCU DST NW SW BECMG 24006KT=
200912272300 METAR MRPV 272300Z 08008KT 9999 VCFG SCT015 BKN250 23/17 A2996 RMK RN DST N/NE TCU QUAD W VIS 6000W NOSIG=
200912280000 METAR MRPV NIL=
200912280100 METAR MRPV NIL=
200912280200 METAR MRPV NIL=
200912280300 METAR MRPV NIL=
200912280400 METAR MRPV NIL=
200912280500 METAR MRPV NIL=
200912280600 METAR MRPV NIL=
200912280700 METAR MRPV NIL=
200912280800 METAR MRPV NIL=
200912280900 METAR MRPV NIL=
200912281000 METAR MRPV NIL=
200912281100 METAR MRPV NIL=
200912281200 METAR MRPV 281200Z 12010KT 9999 NSC 19/13 A3005 RMK TRAZAS SC VTO. CRUZADO EN PISTA NOSIG=
200912281300 METAR MRPV 281300Z 10010KT 9999 NSC 19/14 A3007 RMK TRACE SC NOSIG=
200912281400 METAR MRPV 281400Z 11010KT 9999 NSC 21/13 A3009 RMK TRACE SC NOSIG=
200912281500 METAR MRPV 281500Z 11010KT 9999 NSC 24/11 A3010 RMK VEL MAX VTO 15KT TRACE SC NOSIG=
200912281600 METAR MRPV 281600Z 07016G26KT 9999 FEW030 25/11 A3009 NOSIG=
200912281700 METAR MRPV 281700Z 06012G22KT 9999 FEW030 25/11 A3008 NOSIG=
200912281800 METAR MRPV 281800Z 07010G20KT 9999 FEW030 26/13 A3006 NOSIG=
200912281900 METAR MRPV 281900Z 06010G20KT 9999 FEW030 26/14 A3002 NOSIG=
200912282000 METAR MRPV 282000Z 06010G20KT 9999 FEW030 26/14 A2999 RMK TCU DST SSW NOSIG=
200912282100 METAR MRPV 282100Z 06011G21KT 9999 SCT025 25/14 A2998 RMK TCU DST S SW NOSIG=
200912282200 METAR MRPV 282200Z 07012G22KT 9999 SCT025 23/16 A2998 RMK TCU S W NOSIG=
200912282300 METAR MRPV 282300Z 07011G21KT 9999 SCT020 22/15 A2998 NOSIG=
200912290000 METAR MRPV NIL=
200912290100 METAR MRPV NIL=
200912290200 METAR MRPV NIL=
200912290300 METAR MRPV NIL=
200912290400 METAR MRPV NIL=
200912290500 METAR MRPV NIL=
200912290600 METAR MRPV NIL=
200912290700 METAR MRPV NIL=
200912290800 METAR MRPV NIL=
200912290900 METAR MRPV NIL=
200912291000 METAR MRPV NIL=
200912291100 METAR MRPV NIL=
200912291200 METAR MRPV NIL=
200912291300 METAR MRPV 291300Z 13010KT 9999 SCT015 20/15 A3003 RMK RN N NE NW NOSIG=
200912291400 METAR MRPV 291400Z 10010G20KT 9999 BKN025 22/16 A3005 RMK RN N NE NW NOSIG=
200912291500 METAR MRPV 291500Z 08012G22KT 9999 BKN025 22/17 A3007 RMK RN NW N NE E NOSIG=
200912291600 METAR MRPV 291600Z 09015G25KT 9999 BKN025 23/17 A3006 RMK RN DST NW N NE E NOSIG=
200912291700 METAR MRPV 291700Z 09015G25KT 9999 BKN025 23/16 A3005 RMK RN DST NW N NE E NOSIG=
200912291800 METAR MRPV 291800Z 08015G25KT 9999 FEW020 SCT250 25/15 A3000 RMK RN N NE NOSIG=
200912291900 METAR MRPV 291900Z 06015G25KT 9999 FEW020 SCT250 25/15 A2998 RMK RN N NE NOSIG=
200912292000 METAR MRPV 292000Z 08015G25KT 9999 FEW020 SCT250 24/15 A2995 RMK RN NE NOSIG=
200912292100 METAR MRPV 292100Z 07012G22KT 9999 FEW025 BKN250 23/15 A2995 PCPN DST NE NOSIG=
200912292200 METAR MRPV 292200Z 07010G20KT 9999 FEW025 BKN250 23/15 A2995 PCPN DST NE TCU DST W NOSIG=
200912292300 METAR MRPV 292300Z 06010G20KT 9999 FEW025 BKN250 22/15 A2997 PCPN NE NOSIG=
200912300000 METAR MRPV NIL=
200912300100 METAR MRPV NIL=
200912300200 METAR MRPV NIL=
200912300300 METAR MRPV NIL=
200912300400 METAR MRPV NIL=
200912300500 METAR MRPV NIL=
200912300600 METAR MRPV NIL=
200912300700 METAR MRPV NIL=
200912300800 METAR MRPV NIL=
200912300900 METAR MRPV NIL=
200912301000 METAR MRPV NIL=
200912301100 METAR MRPV NIL=
200912301200 METAR MRPV 301200Z 09015KT 9999 NSC 19/14 A3002 RMK TRACE SC NOSIG=
200912301300 METAR MRPV 301300Z 11012KT 9999 NSC 20/14 A3005 RMK TRACE CU SC VEL MAX VTO 18KT NOSIG=
200912301400 METAR MRPV 301400Z 10015KT 9999 NSC 21/13 A3007 RMK TRACE CU SC VEL MAX VTO 22KT NOSIG=
200912301500 METAR MRPV 301500Z 10017KT 9999 NSC 23/13 A3007 RMK TRACE CU SC VEL MAX VTO 22KT NOSIG=
200912301600 METAR MRPV NIL=
200912301700 METAR MRPV 301700Z 07019KT 9999 FEW045 25/15 A3004 RMK VEL MAX VTO 25KT NOSIG=
200912301800 METAR MRPV 301800Z 07017KT 9999 FEW045 25/15 A3002 RMK FEW120 VEL MAX VTO 26KT NOSIG=
200912301900 METAR MRPV 301900Z 09012KT 9999 BKN040 23/16 A3001 RMK DZ DST N NE VEL MAX VTO 18KT NOSIG=
200912302000 METAR MRPV 302000Z 09013KT 9999 SCT040 24/15 A2997 VEL MAX VTO 20KT NOSIG=
200912302100 METAR MRPV 302100Z 07017KT CAVOK 25/13 A2995 RMK FEW120 VEL.MAX.VOT. 24KT NOSIG=
200912302200 METAR MRPV 302200Z 07018KT 9999 NSC 24/14 A2995 RMK TRAZAS CU/AC VEL.MAX.VTO.25KT NOSIG=
200912302300 METAR MRPV 302300Z 07015KT 9999 NSC 23/15 A2996 RMK TRAZA SCUSC VEL.MAX.VTO. 20KT NOSIG=
200912310000 METAR MRPV 310000Z NIL=
200912310100 METAR MRPV NIL=
200912310200 METAR MRPV NIL=
200912310300 METAR MRPV NIL=
200912310400 METAR MRPV NIL=
200912310500 METAR MRPV NIL=
200912310600 METAR MRPV NIL=
200912310700 METAR MRPV NIL=
200912310800 METAR MRPV NIL=
200912310900 METAR MRPV NIL=
200912311000 METAR MRPV NIL=
200912311100 METAR MRPV NIL=
200912311200 METAR MRPV 311200Z 12008KT 9999 NSC 19/15 A3001 RMK TRACE SC NOSIG=
200912311300 METAR MRPV 311300Z 12008KT 9999 FEW030 20/16 A3004 RMK VEL.MAX.VTO. 14KT NOSIG=
200912311400 METAR MRPV 311400Z 10013KT 9999 BKN035 21/16 A3006 RMK DZ N/NE SOBRE LA CORDILLERA VEL.MAX.VTO 18KT NOSIG=
200912311500 METAR MRPV 311500Z 08017KT 9999 SCT035 21/16 A3006 RMK VEL.MAX.VTO. 22KT NOSIG=
200912311600 METAR MRPV 311600Z 08016KT 9999 FEW035 23/16 A3006 NOSIG=
200912311700 METAR MRPV 311700Z 08016KT 9999 BKN035 23/16 A3004 RMK DZ DST NE VEL.MAX.VTO. 21KT NOSIG=
200912311800 METAR MRPV 311800Z 08015KT 9999 BKN030 23/15 A3003 RMK VEL.MAX.VTO. 22KT NOSIG=
200912311900 METAR MRPV 311900Z 07016KT 9999 FEW040 SCT120 25/16 A3000 RMK VEL.MAX.VTO. 21KT NOSIG=
200912312000 METAR MRPV 312000Z 09014KT 9999 FEW040 25/16 A2997 RMK FEW120 VEL. MAX. VTO. 20KT NOSIG=
200912312100 METAR MRPV 312100Z 08014KT 9999 SCT045 25/16 A2997 RMK VEL MAX.VTO 20KT NOSIG=
200912312200 METAR MRPV 312200Z 07016KT 9999 FEW045 24/16 A2997 RMK VEL. MAX.VTO 22KT NOSIG=
200912312300 METAR MRPV 312300Z 09011KT 9999 SCT045 23/16 A2998 NOSIG=
