201001010000 METAR MRPV NIL=
201001010100 METAR MRPV NIL=
201001010200 METAR MRPV NIL=
201001010300 METAR MRPV NIL=
201001010400 METAR MRPV NIL=
201001010500 METAR MRPV NIL=
201001010600 METAR MRPV NIL=
201001010700 METAR MRPV NIL=
201001010800 METAR MRPV NIL=
201001010900 METAR MRPV NIL=
201001011000 METAR MRPV NIL=
201001011100 METAR MRPV NIL=
201001011200 METAR MRPV 011200Z 11007KT 9999 FEW030 19/15 A2999 NOSIG=
201001011300 METAR MRPV 011300Z 14005KT 9999 NSC 21/16 A3001 RMK TRACE SC VEL.MAX.VTO 12KT NOSIG=
201001011400 METAR MRPV 011400Z 09013KT 9999 FEW030 22/17 A3002 RMK DZ DST N NE VEL.MAX.VTO 19KT NOSIG=
201001011500 METAR MRPV 011500Z 06016KT 9999 FEW035 22/17 A3003 RMK DZ DST N NE VEL.MAX.VTO 22KT NOSIG=
201001011600 METAR MRPV 011600Z 07015KT 9999 SCT035 23/16 A3003 RMK DZ DST NE VEL.MAX.VTO 22KT NOSIG=
201001011700 METAR MRPV 011700Z 08014KT 9999 SCT030 25/16 A3002 RMK DZ DST NE NOSIG=
201001011800 METAR MRPV 011800Z 07014G24KT 9999 SCT035 25/15 A2999 NOSIG=
201001011900 METAR MRPV 011900Z 06014KT 9999 SCT040 25/14 A2997 RMK VEL. MAX VTO 22KT NOSIG=
201001012000 METAR MRPV 012000Z 06015KT 9999 SCT045 25/13 A2994 RMK VEL MAX.VTO 20KT NOSIG=
201001012100 METAR MRPV 012100Z 11013KT 9999 SCT045 24/15 A2994 RMK VEL MAX VTO 19KT NOSIG=
201001012200 METAR MRPV 012200Z 09011KT 9999 BKN040 24/16 A2995 RMK VEL MAX VTO 18KT NOSIG=
201001012300 METAR MRPV 012300Z 11009KT 9999 FEW045 22/16 A2994 RMK VEL MAX VTO 19KT NOSIG=
201001020000 METAR MRPV NIL=
201001020100 METAR MRPV NIL=
201001020200 METAR MRPV NIL=
201001020300 METAR MRPV NIL=
201001020400 METAR MRPV NIL=
201001020500 METAR MRPV NIL=
201001020600 METAR MRPV NIL=
201001020700 METAR MRPV NIL=
201001020800 METAR MRPV NIL=
201001020900 METAR MRPV NIL=
201001021000 METAR MRPV NIL=
201001021100 METAR MRPV NIL=
201001021200 METAR MRPV 021200Z NIL=
201001021300 METAR MRPV 021300Z 10010KT 9999 FEW030 20/14 A2997 RMK PCPN NE VEL MAX VTO 16KT NOSIG=
201001021400 METAR MRPV 021400Z 100G20KT 9999 FEW030 21/15 A2998 RMK PCPN DST NE NOSIG=
201001021500 METAR MRPV 021500Z 08015G25KT 9999 FEW030 22/15 A2999 RMK PCPN DST NE/SE NOSIG=
201001021600 METAR MRPV 021600Z 08015G25KT 9999 FEW030 24/15 A2996 RMK RN DST NE NOSIG=
201001021700 METAR MRPV 021700Z 07016G26KT 9999 FEW030 24/16 A2997 RMK RN DST NE NOSIG=
201001021800 METAR MRPV 021800Z 07015G25KT 9999 FEW030 24/16 A2993 RMK RN DST NE NOSIG=
201001021900 METAR MRPV 021900Z 07016G26KT 9999 SCT030 24/16 A2990 RMK RN DST NE NOSIG=
201001022000 METAR MRPV 022000Z 07016G26KT 9999 SCT030 23/15 A2988 RMK RN DST NE NOSIG=
201001022100 METAR MRPV 022100Z 08020G30KT 9999 SCT030 23/15 A2986 RMK PCPN NE NOSIG=
201001022200 METAR MRPV NIL=
201001022300 METAR MRPV 022300Z 10014G24KT 9999 FEW030 22/15 A2987 RMK PCPN DST NE NOSIG=
201001030000 METAR MRPV NIL=
201001030100 METAR MRPV NIL=
201001030200 METAR MRPV NIL=
201001030300 METAR MRPV NIL=
201001030400 METAR MRPV NIL=
201001030500 METAR MRPV NIL=
201001030600 METAR MRPV NIL=
201001030700 METAR MRPV NIL=
201001030800 METAR MRPV NIL=
201001030900 METAR MRPV NIL=
201001031000 METAR MRPV NIL=
201001031100 METAR MRPV NIL=
201001031200 METAR MRPV NIL=
201001031300 METAR MRPV 031300Z 10010G20KT CAVOK 19/15 A2992 RMK SCT250 RN DST NE NOSIG=
201001031400 METAR MRPV 031400Z 10010G20KT CAVOK 21/15 A2994 RMK DZ DST NE SCT250 NOSIG=
201001031500 METAR MRPV 031500Z 08013G23KT 9999 FEW030 SCT250 22/16 A2995 RMK RN DST NE NOSIG=
201001031600 METAR MRPV 031600Z 07013G23KT 9999 FEW030 SCT250 23/16 A2995 RMK RN DST NE NOSIG=
201001031700 METAR MRPV 031700Z 07015G25KT 9999 FEW030 SCT250 24/16 A2992 RMK RN DST NE NOSIG=
201001031800 METAR MRPV 031800Z 07012G22KT 9999 FEW030 24/16 A2991 RMK RN DST NE NOSIG=
201001031900 METAR MRPV 031900Z 08012G22KT 9999 FEW030 25/16 A2989 RMK RN DST NE NOSIG=
201001032000 METAR MRPV 032000Z 08010G20KT 9999 FEW030 25/15 A2986=
201001032100 METAR MRPV 032100Z 08012G22KT 9999 FEW030 24/15 A2985 RMK PCPN DST NE TCU S NOSIG=
201001032200 METAR MRPV 032200Z 07010G20KT 9999 FEW020 24/16 A2986 PCPN NE NOSIG=
201001032300 METAR MRPV 032300Z 08010G20KT 9999 FEW020 22/15 A2987 PCPN NE NOSIG=
201001032345 METAR MRPV 032345Z 08010G20KT 9999 FEW020 20/14 A2990 RMK PCPN NE NOSIG=
201001040000 METAR MRPV NIL=
201001040100 METAR MRPV NIL=
201001040200 METAR MRPV NIL=
201001040300 METAR MRPV NIL=
201001040400 METAR MRPV NIL=
201001040500 METAR MRPV NIL=
201001040600 METAR MRPV NIL=
201001040700 METAR MRPV NIL=
201001040800 METAR MRPV NIL=
201001040900 METAR MRPV NIL=
201001041000 METAR MRPV NIL=
201001041100 METAR MRPV NIL=
201001041200 METAR MRPV 041200Z 12010KT 9999 NSC 18/10 A2992 RMK TRACE SC NOSIG=
201001041300 METAR MRPV NIL=
201001041400 METAR MRPV 041400Z 11010KT 9999 NSC 23/12 A2996 RMK TRACE SC NOSIG=
201001041500 METAR MRPV NIL=
201001041600 METAR MRPV 041600Z 08013G23KT 9999 NSC 26/14 A2997 RMK TRACE SC NOSIG=
201001041700 METAR MRPV 041700Z 07013G23KT 9999 NSC 26/14 A2996 RMK TRACE SC CU=
201001041800 METAR MRPV 041800Z 08012G22KT 9999 NSC 27/15 A2993 RMK TRACE SC CU NOSIG=
201001041900 METAR MRPV 041900Z 07010G20KT 9999 NSC 28/15 A2991 RMK TRACE SC CU NOSIG=
201001042000 METAR MRPV 042000Z 06012G22KT 9999 FEW030 26/15 A2989 RMK TCU S NOSIG=
201001042100 METAR MRPV NIL=
201001042200 METAR MRPV 042200Z 08010G20KT 9999 FEW030 25/15 A2989 RMK TCU S NOSIG=
201001042300 METAR MRPV 042300Z 08011G21KT 9999 FEW030 24/16 A2991 RMK TCU S NOSIG=
201001050000 METAR MRPV 050000Z NIL=
201001050100 METAR MRPV NIL=
201001050200 METAR MRPV NIL=
201001050300 METAR MRPV NIL=
201001050400 METAR MRPV NIL=
201001050500 METAR MRPV NIL=
201001050600 METAR MRPV NIL=
201001050700 METAR MRPV NIL=
201001050800 METAR MRPV NIL=
201001050900 METAR MRPV NIL=
201001051000 METAR MRPV NIL=
201001051100 METAR MRPV NIL=
201001051200 METAR MRPV 051200Z 12010KT 9999 NSC 19/14 A3000 RMK TRACE SC CI VL MX VTO 16KT NOSIG=
201001051300 METAR MRPV 051300Z 11010KT 9999 NSC 20/14 A3002 RMK TRACE CU SC VEL MAX WIND 16 KTS=
201001051400 METAR MRPV 051400Z 11010KT 9999 NSC 20/15 A3004 RMK TRAZAS CU VEL.MAX.VTO. 15KT NOSIG=
201001051500 METAR MRPV 051500Z 08014KT 9999 NSC 24/15 A3004 RMK TRAZAS CUSC NOSIG=
201001051600 METAR MRPV 051600Z 08015KT 9999 NSC 25/15 A3003 RMK TRAZAS CUSC VEL.MAX.VTO. 20KT DZ DST N NOSIG=
201001051700 METAR MRPV 051700Z 07015KT CAVOK 25/16 A3001 RMK FEW130 DZ DST N NOSIG=
201001051800 METAR MRPV 051800Z 07015KT 9999 FEW045 25/16 A2999 RMK FEW130 VEL.MAX.VTO. 22KT NOSIG=
201001051900 METAR MRPV 051900Z 08014KT 9999 FEW040 26/16 A2997 RMK FEW120 VEL.MAX.VTO. 20KT NOSIG=
201001052000 METAR MRPV 052000Z 08014KT 9999 FEW035 26/17 A2995 RMK FEW120 TCU DST SW NOSIG=
201001052100 METAR MRPV 052100Z 08015KT 9999 FEW030 25/17 A2994 RMK TCU DST SW NOSIG=
201001052200 METAR MRPV 052200Z 08015KT 9999 SCT030 25/17 A2994 RMK VEL. MAX.VTO 20KT DZ DST N NE NOSIG=
201001052300 METAR MRPV 052300Z 08014KT 9999 SCT025 SCT100 22/17 A2996 RMK DZ DST NW N NE FU SE STN NOSIG=
201001060000 METAR MRPV NIL=
201001060100 METAR MRPV 060100Z NIL=
201001060200 METAR MRPV 060200Z NIL=
201001060300 METAR MRPV NIL=
201001060400 METAR MRPV NIL=
201001060500 METAR MRPV NIL=
201001060600 METAR MRPV NIL=
201001060700 METAR MRPV NIL=
201001060800 METAR MRPV NIL=
201001060900 METAR MRPV NIL=
201001061000 METAR MRPV NIL=
201001061100 METAR MRPV NIL=
201001061200 METAR MRPV 061200Z 11010KT 9999 FEW025 19/16 A3001 RMK DZ DST N NE VEL MAX VTO 17KT NOSIG=
201001061300 METAR MRPV 061300Z 11010KT 9999 SCT025 20/16 A3003 RMK VEL.MAX VTO 15KT DZ DST NW N NE E NOSIG=
201001061400 METAR MRPV 061400Z 10013KT 9999 SCT030 21/16 A3004 RMK DZ DST NW N NE E VEL.MAX.VTO 20KT NOSIG=
201001061500 METAR MRPV 061500Z 11011KT 9999 FEW025 BKN035 22/17 A3006 RMK VEL. MAX.VTO 19KT DZ DST NW N NE E NOSIG=
201001061600 METAR MRPV 061600Z 11013KT 9999 BKN025 22/16 A3004 RMK VEL.MAX.VTO 18KT FEW100 DZ DST NW HASTA SE NOSIG=
201001061700 METAR MRPV 061700Z 08018KT 9999 SCT020 SCT100 23/16 A3002 RMK DZ DST DESDE NW HASTA E VEL.MAX.VTO 24KT NOSIG=
201001061800 METAR MRPV 061800Z 09016KT 9999 SCT020 SCT120 24/16 A3000 RMK DZ DST DESDE NW HASTA E VEL.MAX.VTO 22KT NOSIG=
201001061900 METAR MRPV 061900Z 09013KT 9999 BKN025 SCT100 23/16 A2998 RMK VEL.MAX.VTO 21KT DZ DST DESDE NW HASTZ E NOSIG=
201001062000 METAR MRPV 062000Z 10011G21KT 9999 SCT030 SCT100 24/16 A2996 RMK DZ DST DESDE NW HASTA E TEMPO -DZ=
201001062100 METAR MRPV 062100Z 09012KT 9999 FEW035 SCT100 23/17 A2994 RMK DZ DST S NW TO E VEL MAX VTO 19KT NOSIG=
201001062200 METAR MRPV 062200Z 09017KT 9999 SCT030 23/16 A2993 RMK FEW100 DZ DST NW/N/NE TEMPO -DZ=
201001062300 METAR MRPV 062300Z 08016KT 9999 FEW030 21/16 A2994 RMK VEL MAX VTO 23KT DZ DST NW TO E NOSIG=
201001070000 METAR MRPV NIL=
201001070100 METAR MRPV NIL=
201001070200 METAR MRPV NIL=
201001070300 METAR MRPV NIL=
201001070400 METAR MRPV NIL=
201001070500 METAR MRPV NIL=
201001070600 METAR MRPV NIL=
201001070700 METAR MRPV NIL=
201001070800 METAR MRPV NIL=
201001070900 METAR MRPV NIL=
201001071000 METAR MRPV NIL=
201001071100 METAR MRPV NIL=
201001071200 METAR MRPV 071200Z 09012KT 9999 SCT030 19/16 A2996 RMK DZ DST N/NE/E VEL.MAX.VTO. 19KT V. TURRIALBA ERUPCION CENIZA NOSIG=
201001071300 METAR MRPV 071300Z 10011KT 9999 SCT035 20/16 A2999 RMK DZ DST NE VEL MAX VTO 17KT V.TURRIALBA ERUPCION CENIZA NOSIG=
201001071400 METAR MRPV 071400Z 10011KT 9999 FEW035 21/16 A3000 RMK VEL MAX VTO 17KT V.TURRIALBA ERUPCION CENIZA NOSIG=
201001071500 METAR MRPV 071500Z 07015KT 9999 FEW035 23/16 A3000 RMK VEL MAX VTO 22KT DZ N/NE V.TURRIALBA ERUPCION /10.0N-83.8W/ CENIZA 15NM ESE FROM TIO VOR NOSIG=
201001071600 METAR MRPV 071600Z 07015KT 9999 FEW040 23/16 A3000 RMK DZ DST NW/NE VEL MAX VTO 23KT V.TURRIABA ERUPCION /10.0N-83.8 W ELEV 3329M/ NOSIG=
201001071700 METAR MRPV 071700Z 07016KT 9999 FEW030 25/15 A2998 RMK FEW070 V.TURRIALVA ERUPCION /10.0-83.8W ELEV/3329M/ CENIZA 15NM ESE FROM TIO VOR NOSIG=
201001071800 METAR MRPV 071800Z 08015KT 9999 FEW040 25/14 A2996 RMK VEL MAX VTO 23KT V.TURRIALBA ERUPCION /10.0N-83.8W ELEV/3329M / 15NM ESE FROM TIO VOR NOSIG=
201001071900 METAR MRPV 071900Z 07016KT CAVOK 25/15 A2994 RMK SCT070 VEL MAX VTO 21KT V.TURRIALBA ERUPCION /10.0N-83.8W ELEV/3329M/ CENIZA 15NM ESE FROM TIO VOR NOSIG=
201001072000 METAR MRPV 072000Z 07016KT CAVOK 25/16 A2991 RMK SCT070 NOSIG=
201001072100 METAR MRPV 072100Z 07015KT 9999 FEW045 25/16 A2990 RMK FEW080 VL MX VTO 21KT NOSIG=
201001072200 METAR MRPV 072200Z 07018KT CAVOK 24/15 A2990 RMK FEW090 VL MX VTO 26KT NOSIG=
201001072300 METAR MRPV 072300Z 08017KT 9999 FEW035 SCT090 23/15 A2991 RMK VL MX VTO 22KT NOSIG=
201001080000 METAR MRPV NIL=
201001080100 METAR MRPV NIL=
201001080200 METAR MRPV NIL=
201001080300 METAR MRPV NIL=
201001080400 METAR MRPV NIL=
201001080500 METAR MRPV NIL=
201001080600 METAR MRPV NIL=
201001080700 METAR MRPV NIL=
201001080800 METAR MRPV NIL=
201001080900 METAR MRPV NIL=
201001081000 METAR MRPV NIL=
201001081100 METAR MRPV NIL=
201001081200 METAR MRPV 081200Z 11010G20KT CAVOK 20/16 A2997 RMK PCPN NE TRACE SC FEW090 NOSIG=
201001081300 METAR MRPV 081300Z 11010G20KT CAVOK 20/16 A2999 RMK TRACE SC FEW090 RN DST NE NOSIG=
201001081400 METAR MRPV 081400Z 09015G25KT 9999 FEW030 22/16 A2999 RMK RN DST NE NOSIG=
201001081500 METAR MRPV 081500Z 08015G25KT 9999 FEW030 23/17 A3007 RMK RN DST NE NOSIG=
201001081600 METAR MRPV 081600Z 8015G25KT 9999 FEW030 24/17 A3000 RMK RN DST NE NOSIG=
201001081700 METAR MRPV 081700Z 08016G26KT 9999 FEW020 BKN250 25/17 A2999 RMK RN DST NE NOSIG=
201001081800 METAR MRPV 081800Z 08016G26KT 9999 FEW020 BKN250 24/17 A2997 RMK RN DST NE=
201001081900 METAR MRPV 081900Z 09015G25KT 9999 FEW020 BKN250 24/17 A2995 RMK RN DST NE NOSIG=
201001082000 METAR MRPV 082000Z 07018G28KT 9999 FEW020 BKN250 24/17 A2994 RMK RN DST NE NOSIG=
201001082100 METAR MRPV 082100Z 08015G25KT 9999 FEW020 24/17 A2992 RMK FEW090 PCPN DST NE NOSIG=
201001082200 METAR MRPV 082200Z 07015G25KT 9999 FEW020 23/16 A2992 RMK DZ DST N NE NOSIG=
201001082300 METAR MRPV 082300Z 08010G20KT 9999 FEW020 22/17 A2993 RMK DZ DST N NE NOSIG=
201001090000 METAR MRPV NIL=
201001090100 METAR MRPV NIL=
201001090200 METAR MRPV NIL=
201001090300 METAR MRPV NIL=
201001090400 METAR MRPV NIL=
201001090500 METAR MRPV NIL=
201001090600 METAR MRPV NIL=
201001090700 METAR MRPV NIL=
201001090800 METAR MRPV NIL=
201001090900 METAR MRPV NIL=
201001091000 METAR MRPV NIL=
201001091100 METAR MRPV NIL=
201001091200 METAR MRPV 091200Z 10011G21KT CAVOK 19/14 A2996 RMK FEW250 NOSIG=
201001091300 METAR MRPV 091300Z 10011G21KT CAVOK 20/14 A2998 RMK FEW250 NOSIG=
201001091400 METAR MRPV 091400Z 09012G22KT CAVOK 21/14 A2999 RMK BKN250 NOSIG=
201001091500 METAR MRPV 091500Z 08012G22KT CAVOK 23/13 A3001 RMK BKN250 NOSIG=
201001091600 METAR MRPV 091600Z 08010G20KT CAVOK 25/12 A3001 RMK BKN250 NOSIG=
201001091700 METAR MRPV 091700Z 07010G20KT CAVOK 25/15 A2999 RMK SCT250 NOSIG=
201001091800 METAR MRPV 091800Z 08010G20KT 27/15 A2996 RMK SCT250 NOSIG=
201001091900 METAR MRPV 091900Z 08010G20KT CAVOK 27/15 A2993 RMK FEW250 NOSIG=
201001092000 METAR MRPV 092000Z 07011G21KT 9999 FEW030 26/17 A2992 NOSIG=
201001092100 METAR MRPV 092100Z 07014G24KT 9999 FEW030 25/17 A2990 NOSIG=
201001092200 METAR MRPV 092200Z 08010G20KT 9999 SCT025 24/17 A2991 RMK RN N/NE NOSIG=
201001092300 METAR MRPV 092300Z 092300Z08010G20KT 9999 BKN025 22/17 A2993 RMK RN NE NOSIG=
201001100000 METAR MRPV 100000Z NIL=
201001100100 METAR MRPV NIL=
201001100200 METAR MRPV NIL=
201001100300 METAR MRPV NIL=
201001100400 METAR MRPV NIL=
201001100500 METAR MRPV NIL=
201001100600 METAR MRPV NIL=
201001100700 METAR MRPV NIL=
201001100800 METAR MRPV NIL=
201001100900 METAR MRPV NIL=
201001101000 METAR MRPV NIL=
201001101100 METAR MRPV NIL=
201001101200 METAR MRPV 101200Z 10015G25KT 9999 4000E DZ FEW010 OVC100 20/16 A2998=
201001101300 METAR MRPV 101300Z 11015G25KT 9999 4000NE VCSH FEW004 OVC100 19/15 A3001 NOSIG=
201001101400 METAR MRPV 101400Z 11015G25KT 9999 4000NE VCSH FEW004 BKN100 21/16 A3004 NOSIG=
201001101500 METAR MRPV 101500Z 10016G26KT 9999 4000NE VCSH SCT008 BKN100 21/15 A3006 NOSIG=
201001101600 METAR MRPV 101600Z 09017G27KT 9999 4000NE VCSH SCT010 BKN110 22/16 A3006 NOSIG=
201001101700 METAR MRPV 101700Z 09015G25KT 9999 4000NE VCSH SCT010 BKN110 23/17 A3004 NOSIG=
201001101800 METAR MRPV 101800Z 09015G25KT 9999 4000NE VCSH FEW010 BKN120 23/17 A3000 RMK RN DST N/E=
201001101900 METAR MRPV 101900Z 10015G25KT 9999 4000NE VCSH FEW010 BKN110 23/16 A2999 RN DST N/E NOSIG=
201001102000 METAR MRPV 102000Z 10015G25KT 9999 SCT010 BKN120 23/16 A2997 RMK RN QUANDS N/E NOSIG=
201001102100 METAR MRPV 102100Z 09014G24KT 9999 FEW015 BKN120 23/16 A2996 RMK RN DST N NE E SE NOSIG=
201001102200 METAR MRPV 102200Z 08018G28KT 9999 FEW015 SCT120 22/16 A2997 RMK RN DST N NE E NOSIG=
201001102300 METAR MRPV 102300Z 09012G22KT 9999 4000NE VCSH SCT004 OVC250 20/16 A2997 RMK RN DST QUAD N E NOSIG=
201001110000 METAR MRPV NIL=
201001110100 METAR MRPV NIL=
201001110200 METAR MRPV NIL=
201001110300 METAR MRPV NIL=
201001110400 METAR MRPV NIL=
201001110500 METAR MRPV NIL=
201001110600 METAR MRPV NIL=
201001110700 METAR MRPV NIL=
201001110800 METAR MRPV NIL=
201001110900 METAR MRPV NIL=
201001111000 METAR MRPV NIL=
201001111100 METAR MRPV NIL=
201001111200 METAR MRPV 111200Z 11016KT 9999 -DZ FEW020 19/15 A3001 RMK VIS NE E 6KMS DUE RN VIS MAX VTO 21KT NOSIG=
201001111300 METAR MRPV 111300Z 11014KT 9999 -DZ FEW020 BKN250 19/15 A3004 RMK VEL.MAX.VTO 21KT VIS 7000 NE E SE RN NOSIG=
201001111400 METAR MRPV 111400Z 10015KT 9999 -DZ FEW025 BKN250 20/15 A3006 RMK VIS 7000 NE E SE RA VEL.MAX.VTO 22KT NOSIG=
201001111500 METAR MRPV 111500Z 11017KT 9999 -DZ FEW020 SCT250 21/15 A3008 RMK VEL.MAX.VTO 23KT VIS 8000 NE E RA NOSIG=
201001111600 METAR MRPV 111600Z 10018G28KT 9999 FEW020 BKN250 22/15 A3007 RMK VIS 8000 NE E RA RN DST NW N SE NOSIG=
201001111700 METAR MRPV 111700Z 10019KT 9999 -DZ FEW030 BKN250 22/15 A3006 RMK VIS 7000 NE E SE RA VEL.MAX.VTO 27KT NOSIG=
201001111800 METAR MRPV 111800Z 10020G31KT 9999 -DZ FEW030 BKN250 22/15 A3004 RMK VIS 8000 NE E NOSIG=
201001111900 METAR MRPV 111900Z 10021KT 9999 -DZ FEW025 BKN250 21/15 A3002 RMK VEL MAX 29KTS VIS NE E 8 KMS DUE RN=
201001112000 METAR MRPV 112000Z 10021KT 9999 -DZ FEW030 BKN250 22/15 A3000 VIS NE E 8 KTS DUE RN VEL MAX WIND 27 KTS NOSIG=
201001112100 METAR MRPV 112100Z 09020G30KT 9999 -DZ FEW030 SCT250 21/15 A2998 RMK FEW120 VIS N/NE 8000 RA NOSIG=
201001112200 METAR MRPV 112200Z 10016KT 9999 -DZ FEW030 SCT250 20/15 A2998 RMK VIS 8000NE RA VEL MAX VTO 23KT FEW120 NOSIG=
201001112300 METAR MRPV 112300Z 10017G28KT 9999 -DZ FEW020 BKN250 19/15 A3000 RMK VIS NE/E 7000 RA NOSIG=
201001120000 METAR MRPV NIL=
201001120100 METAR MRPV NIL=
201001120200 METAR MRPV NIL=
201001120300 METAR MRPV NIL=
201001120400 METAR MRPV NIL=
201001120500 METAR MRPV NIL=
201001120600 METAR MRPV NIL=
201001120700 METAR MRPV NIL=
201001120800 METAR MRPV NIL=
201001120900 METAR MRPV NIL=
201001121000 METAR MRPV NIL=
201001121100 METAR MRPV NIL=
201001121200 METAR MRPV 121200Z 10015KT 9999 FEW015 BKN100 A3005 RMK RN DESDE NW HASTA EL SE VEL.MAX.VTO. 22KT NOSIG=
201001121300 METAR MRPV 121300Z 10013KT 9999 FEW020 BKN100 18/13 A3007 RMK PCPN DST NW TO SE VEL MAX VTO 21KT NOSIG=
201001121400 METAR MRPV 121400Z 10017KT 9999 FEW020 SCT250 18/13 A3010 RMK VEL MAX VTO 25KT DZ DST N/NE/E FEW120 NOSIG=
201001121500 METAR MRPV 121500Z 08020KT 9999 SCT020 BKN250 19/13 A3011 RMK DZ DST N/NE/E/SE NOSIG=
201001121600 METAR MRPV 121600Z 09018KT 9999 SCT020 BKN250 19/13 A3011 RMK VEL MAX VTO 24KT DZ DST N/NE/SE NOSIG=
201001121700 METAR MRPV 121700Z 09018G28KT 9999 SCT020 BKN250 20/13 A3009 RMK DZ DST NE/SE NOSIG=
201001121800 METAR MRPV 121800Z 09018KT 9999 SCT020 BKN250 20/14 A3007 RMK VEL MAX VTO 24KT DZ DST N/NE NOSIG=
201001121900 METAR MRPV 121900Z 10016KT 9999 SCT020 BKN250 21/14 A3009 RMK VEL MAX VTO 22KT DZ DST N/NE NOSIG=
201001122000 METAR MRPV 122000Z 09017G27KT 9999 SCT020 BKN250 21/14 A3001 RMK DZ DST N/NE NOSIG=
201001122100 METAR MRPV 122100Z 10016G26KT 9999 SCT020 BKN250 20/14 A2999 RMK DZ N NE NOSIG=
201001122200 METAR MRPV 122200Z 11016KT 9999 SCT020 BKN250 20/14 A2998 RMK DZ N NE NOSIG=
201001122300 METAR MRPV 122300Z 10016KT 9999 SCT015 BKN250 23/15 A2999 RMK DZ N NE E VL MX VTO 23KT NOSIG=
201001130000 METAR MRPV NIL=
201001130100 METAR MRPV NIL=
201001130200 METAR MRPV NIL=
201001130300 METAR MRPV NIL=
201001130400 METAR MRPV NIL=
201001130500 METAR MRPV NIL=
201001130600 METAR MRPV NIL=
201001130700 METAR MRPV NIL=
201001130800 METAR MRPV NIL=
201001130900 METAR MRPV NIL=
201001131000 METAR MRPV NIL=
201001131100 METAR MRPV NIL=
201001131200 METAR MRPV 131200Z 11012KT 9999 FEW025 SCT250 18/14 A3005 RMK VL MX VTO 20KT VIS NE 6000 DUE RN DZ NW N E NOSIG=
201001131300 METAR MRPV 131300Z 11014KT 9999 FEW020 18/14 A3006 RMK VEL.MAX.VTO 22KT VIS 7000 NE RA DZ DST NW N E NOSIG=
201001131400 METAR MRPV 131400Z 09017KT 9999 FEW025 19/15 A3008 RMK VEL.MAX. VTO 24KT DZ DST DESDE NW HASTA E NOSIG=
201001131500 METAR MRPV 131500Z 10014KT 9999 FEW025 21/15 A3008 RMK VEL.MAX. VTO. 20KT DZ DST N NE NOSIG=
201001131600 METAR MRPV 131600Z 09014KT 9999 FEW025 21/15 A3008 RMK VEL.MAX VTO. 23KT DZ DST N NE NOSIG=
201001131700 METAR MRPV 131700Z 08019G29KT 9999 SCT025 21/15 A3005 RMK DZ DST N NE NOSIG=
201001131800 METAR MRPV 131800Z 08018G28KT 9999 SCT020 22/15 A3002 RMK DZ DST NE NOSIG=
201001131900 METAR MRPV 131900Z 08020G30KT 9999 SCT020 23/15 A2998 RMK DZ DST N NE NOSIG=
201001132000 METAR MRPV 132000Z 08023KT 9999 SCT020 22/16 A2996 RMK VEL.MAX.VTO 29KT DZ DST N NE NOSIG=
201001132100 METAR MRPV 132100Z 08022KT 9999 SCT020 22/15 A2995 RMK VEL MAX VTO 29 KT DZ DST N NE E NOSIG=
201001132200 METAR MRPV 132200Z 08022G32KT 9999 SCT020 21/15 A2994 RMK DZ DST N NE E NOSIG=
201001132300 METAR MRPV 132300Z 10016KT 9999 SCT020 20/15 A2996 RMK VEL MAX VTO 25KT DZ N NE NOSIG=
201001132345 METAR MRPV 132345Z 10018G28KT 9999 SCT020 20/15 A2996 RMK DZ DST N NE NOSIG=
201001140000 METAR MRPV NIL=
201001140100 METAR MRPV NIL=
201001140200 METAR MRPV NIL=
201001140300 METAR MRPV NIL=
201001140400 METAR MRPV NIL=
201001140500 METAR MRPV NIL=
201001140600 METAR MRPV NIL=
201001140700 METAR MRPV NIL=
201001140800 METAR MRPV NIL=
201001140900 METAR MRPV NIL=
201001141000 METAR MRPV NIL=
201001141100 METAR MRPV NIL=
201001141200 METAR MRPV 141200Z 09013KT 9999 FEW030 18/15 A3000 RMK VEL MAX VTO 19KT DZ DST N/NE NOSIG=
201001141300 METAR MRPV 141300Z 10011KT 9999 FEW030 19/15 A3002 DST DZ N NE VEL MAX VTO 16KT NOSIG=
201001141400 METAR MRPV 141400Z 10013KT 9999 FEW025 20/15 A3004 DZ N NE E VEL MAX VTO 19KT NOSIG=
201001141500 METAR MRPV 141500Z 09016KT 9999 FEW025 22/16 A3005 22=
201001141600 METAR MRPV 141600Z 10016KT 9999 FEW025 22/16 A3004 RMK VEL MAX VTO 22KT DZ N NE NOSIG=
201001141700 METAR MRPV 141700Z 09016KT 9999 FEW025 23/16 A3002 VEL MAX VTO 24KT PCPN DST N NE NOSIG=
201001141800 METAR MRPV 141800Z 09015KT 9999 FEW025 24/16 A2999 RMK PCPN DST N NE VEL MAX VTO 20KT NOSIG=
201001141900 METAR MRPV 141900Z 08017KT 9999 FEW025 25/16 A2997 VL MAX VTO 22KTS RN N NE DIST NOSIG=
201001142000 METAR MRPV 142000Z 08017KT 9999 FEW025 24/17 A2994 RN NE NOSIG=
201001142100 METAR MRPV 142100Z 08015KT 9999 FEW025 24/16 A2994 RMK VEL.MAX.VTO.23KT RN NE NOSIG=
201001142200 METAR MRPV 142200Z 09015KT 9999 FEW025 23/16 A2994 RMK RN NE NOSIG=
201001142300 METAR MRPV 142300Z 08014KT 9999 FEW020 22/16 A2996 RMK RN NE NOSIG=
201001150000 METAR MRPV 150000Z NIL=
201001150100 METAR MRPV NIL=
201001150200 METAR MRPV NIL=
201001150300 METAR MRPV NIL=
201001150400 METAR MRPV NIL=
201001150500 METAR MRPV NIL=
201001150600 METAR MRPV NIL=
201001150700 METAR MRPV NIL=
201001150800 METAR MRPV NIL=
201001150900 METAR MRPV NIL=
201001151000 METAR MRPV NIL=
201001151100 METAR MRPV NIL=
201001151200 METAR MRPV 151200Z 12007KT 9999 NSC 20/14 A2998 RMK TRACE SC NOSIG=
201001151300 METAR MRPV 151300Z 12006KT 9999 NSC 20/14 A3000 RMK TRAZAS SC NOSIG=
201001151400 METAR MRPV 151400Z 11009KT 9999 NSC 22/15 A3001 RMK TRAZAS SC NOSIG=
201001151500 METAR MRPV 151500Z 07011KT 9999 NSC 24/14 A3002 RMK TRAZAS SC VEL.MAX.VTO. 16KT NOSIG=
201001151600 METAR MRPV 151600Z 08011KT 9999 NSC 25/15 A3001 RMK TRAZAS SC VEL.MAX.VTO.16KT NOSIG=
201001151700 METAR MRPV NIL=
201001151800 METAR MRPV 151800Z 08012KT 9999 NSC 27/15 A2996 RMK TRAZAS SC VEL.MAX.VTO. 17KT NOSIG=
201001151900 METAR MRPV 151900Z 07013KT 9999 FEW030 27/16 A2994 NOSIG=
201001152000 METAR MRPV NIL=
201001152100 METAR MRPV 152100Z 08013KT 9999 FEW030 26/17 A2991 NOSIG=
201001152200 METAR MRPV 152200Z 08012KT 9999 FEW030 25/17 A2991 RMK VEL. MAX.VTO 17KT NOSIG=
201001152300 METAR MRPV 152300Z 08011KT 9999 FEW030 24/17 A2993 RMK VEL.MAX.VTO 16KT NOSIG=
201001160000 METAR MRPV NIL=
201001160100 METAR MRPV NIL=
201001160200 METAR MRPV NIL=
201001160300 METAR MRPV NIL=
201001160400 METAR MRPV NIL=
201001160500 METAR MRPV NIL=
201001160600 METAR MRPV NIL=
201001160700 METAR MRPV NIL=
201001160800 METAR MRPV NIL=
201001160900 METAR MRPV NIL=
201001161000 METAR MRPV NIL=
201001161100 METAR MRPV NIL=
201001161200 METAR MRPV 161200Z 12010KT 9999 NSC 19/15 A2996 RMK TRACE SC NOSIG=
201001161300 METAR MRPV 161300Z 13008KT 9999 NSC 21/15 A2998 RMK TRACE SC VTO. CRUZADO PISTA NOSIG=
201001161400 METAR MRPV 161400Z 12010KT 9999 NSC 23/16 A3000 RMK TRACE SC VTO CRUZADO PISTA NOSIG=
201001161500 METAR MRPV 161500Z 10010KT 9999 NSC 24/15 A3000 RMK TRACE SC NOSIG=
201001161600 METAR MRPV 161600Z 10012KT 9999 NSC 26/17 A3000 RMK TRACE SC SIGNIFICANT VOLCANIC ACT TURRIALBA RDO 20NM COOR 10.1N 83.5W.SFC 12000 FT NOSIG=
201001161700 METAR MRPV 161700Z 08011KT 9999 NSC 27/16 A2999 RMK TRACE SC VEL.MAX.VTO 16KT SIFNIFICANT VOLCANIC ACTIVITY TURRIALBA RDO 20NM CENTERED COOR 10.1 N 83.5 W FRON SCR TO 12000 FT NOSIG=
201001161800 METAR MRPV 161800Z 8011KT 9999 FEW030 28/17 A2996 RMK VEL.MAX.VTO 16KT SIFNIFICANT VOLCANIC ACTIVITY TURRIALBA RDO 20NM CENTERED COOR 10.1 N 83.5 W FRON SCR TO 12000 FT NOSIG=
201001161900 METAR MRPV 161900Z 08010KT 9999 FEW030 28/17 A2994 RMK VEL.MAX.VTO 15KT SIFNIFICANT VOLCANIC ACTIVITY TURRIALBA RDO 20NM CENTERED COOR 10.1 N 83.5 W FRON SCR TO 12000 FT NOSIG=
201001162000 METAR MRPV 162000Z 08010KT 9999 FEW030 28/17 A2993 RMK SIFNIFICANT VOLCANIC ACTIVITY TURRIALBA RDO 20NM CENTERED COOR 10.1 N 83.5 W FRON SCR TO 12000 FT NOSIG=
201001162100 METAR MRPV NIL=
201001162200 METAR MRPV 162200Z 08010KT 9999 FEW015TCU 25/17 A2992 RMK SIGNIFICANT VOLCANIC ACT TURRIALBA RDO 20NM CENTERED COOR 10.1N 83.5W FROM SCR TO 12000FT VEL MAX VTO 15KT NOSIG=
201001162300 METAR MRPV 162300Z 08012KT 9999 FEW020 24/18 A2993 RMK SIGNIFICANT VOLCANIC ACT TURRIALBA RDO 20NM CENTERED COOR 10.1N 83.5W FROM SCR TO 12000FT HZ ARND NOSIG=
201001170000 METAR MRPV NIL=
201001170100 METAR MRPV NIL=
201001170200 METAR MRPV NIL=
201001170300 METAR MRPV NIL=
201001170400 METAR MRPV NIL=
201001170500 METAR MRPV NIL=
201001170600 METAR MRPV NIL=
201001170700 METAR MRPV NIL=
201001170800 METAR MRPV NIL=
201001170900 METAR MRPV NIL=
201001171000 METAR MRPV NIL=
201001171100 METAR MRPV NIL=
201001171200 METAR MRPV 171200Z 10009KT 9999 FEW025 20/15 A3001 NOSIG=
201001171300 METAR MRPV 171300Z 10010KT 9999 FEW020 20/15 A3003 RMK SIGNIFICANT VOLCANIC ACT TURRUALBA RDO 20NM CENTERED COOR 10.1N 83.5W FROM SCR TO 12000FT TRACE SC NOSIG=
201001171400 METAR MRPV 171400Z 11011KT 9999 FEW020 22/16 A3004 RMK SIGNIFICANT VOLCANIC ACT TURRIALBA RDO 20NM CENTERED COOR 10.1N 83.5W FROM SCR TO 12000FT NOSIG=
201001171500 METAR MRPV 171500Z 09019KT 9999 FEW020 23/15 A3005 RMK SIGNIFICANT VOLCANIC ACT TURRIALBA RDO 20NM CENTERED COOR 10.1N 83.5W FROM SFC 12000FT VEL MAX VTO 26KT NOSIG=
201001171600 METAR MRPV 171600Z 08019KT 9999 FEW030 23/16 A3006 RMK SIGNIFICANT VOLCANIC ACT TURRIALBA RDO 20NM CENTERED COOR 10.1N 83.5W FROM SFC TO 12000FT VEL MAX VTO 24KT NOSIG=
201001171700 METAR MRPV 171700Z 07018KT 9999 FEW030 24/15 A3004 RMK SIGNIFICANT VOLCANIC ACT TURRIALBA RDO 20NM CENTERED COOR 10.1N 83.5W FROM SFC TO 12000FT VEL MAX VTO 24KT NOSIG=
201001171800 METAR MRPV 171800Z 07017KT 9999 FEW030 30/23 A2995 RMK SIGNIFICANT VOLCANIC ACT TURRIALBA RDO 20NM CENTERED COOR 10.1N 83.5W FROM SFC TO 12000FT VEL MAX VTO 26KT NOSIG=
201001171900 METAR MRPV 171900Z 07016KT 9999 FEW040 25/15 A2999 RMK SIGNIFICANT VOLCANIC ACT TURRIALBA RDO 20NM CENTERED COOR 10.1N 83.5W FROM SFC TO 12000FT VEL MAX VTO 24KT NOSIG=
201001172000 METAR MRPV 172000Z 07013KT 9999 FEW040 25/16 A2996 RMK SIGNIFICANT VOLCANIC ACT TURRIALBA RDO 20NM CENTERED COOR 10.1N 83.5W FROM SFC TO 12000FT VEL MAX VTO 19KT NOSIG=
201001172100 METAR MRPV 172100Z 07014KT 9999 SCT040 26/15 A2996 RMK SIGNIFICANT VOLCANIC ACT TURRIALBA RDO 20NM CENTERED COORR 10.1N 83.5W FROM TO 12000FT NOSIG=
201001172200 METAR MRPV 172200Z 07011KT 9999 SCT030 24/16 A2995 RMK SIGNIFICANT VOLCANIC ACT TURRIALBA RDO 20NM CENTERED COOR.10.1N 83.5W FROM TO 12000FT VL MX VTO 18KT NOSIG=
201001172300 METAR MRPV 172300Z 08009KT 9999 SCT030 24/15 A2996 RMK SIGNIFICANT VOLCANIC ACT TURRIALBA RDO 20NM CENTERED COOR.10.1N 83.5W FROM TO 12000FT VL MX VTO 15KT NOSIG=
201001172345 METAR MRPV 172345Z 08011KT 9999 SCT030 23/16 A2997 RMK SIGNIFICANT VOLCANIC ACT TURRIALBA RDO 20NM CENTERED COOR.10.1N 83.5W FROM TO 12000FT NOSIG=
201001180000 METAR MRPV NIL=
201001180100 METAR MRPV NIL=
201001180200 METAR MRPV NIL=
201001180300 METAR MRPV NIL=
201001180400 METAR MRPV NIL=
201001180500 METAR MRPV NIL=
201001180600 METAR MRPV NIL=
201001180700 METAR MRPV NIL=
201001180800 METAR MRPV NIL=
201001180900 METAR MRPV NIL=
201001181000 METAR MRPV NIL=
201001181100 METAR MRPV NIL=
201001181200 METAR MRPV 181200Z 09017KT 9999 FEW030 20/16 A3000 RMK SIGNIFICANT VOLCANIC ACT TURRIALBA RDO 20NM CENTERED COOR.10.1N 83.5W FROM TO 12000FT VL MX VTO 25KT NOSIG=
201001181300 METAR MRPV NIL=
201001181400 METAR MRPV 181400Z 11014KT 9999 FEW030 22/16 A30005 RMK VEL.MAX.VTO 20KT SIGNIFICANT VOLCANIC ACT TURRIALBA RDO 20NM CENTERED COOR.10.1N 83.5W FROM TO 12000FT NOSIG=
201001181500 METAR MRPV 181500Z 09015KT 9999 FEW030 22/17 A3006 RMK VEL.MAX.VTO.21KT SIGNIFICANT VOLCANIC ACT TURRIALBA RDO 20NM CENTERED COOR.10.1N 83.5W FROM TO 12000FT=
201001181600 METAR MRPV 181600Z 07016KT 9999 SCT030 26/16 A3006 RMK VEL.MAX.VTO. 22KT SIGNIFICANT VOLCANIC ACT TURRIALBA RDO 20NM CENTERED COOR.10.1N 83.5W FROM TO 12000FT NOSIG=
201001181700 METAR MRPV 181700Z 06014KT 9999 SCT040 24/16 A3004 RMK VEL.MAX.VTO 22KT SIGNIFICANT VOLCANIC ACT TURRIALBA RDO 20NM CENTERED COOR.10.1N 83.5W FROM TO 12000FT NOSIG=
201001181800 METAR MRPV 181800Z 07014KT 9999 SCT035 25/15 A3002 RMK VEL.MAX.VTO 20KT SIGNIFICANT VOLCANIC ACT TURRIALBA RDO 20NM CENTERED COOR.10.1N 83.5W FROM TO 12000FT NOSIG=
201001181900 METAR MRPV 181900Z 07013KT 9999 SCT035 26/15 A2999 RMK VEL.MAX.VTO 19KT SIGNIFICANT VOLCANIC ACT TURRIALBA RDO 20NM CENTERED COOR.10.1N 83.5W FROM TO 12000FT NOSIG=
201001182000 METAR MRPV 182000Z 07012KT 9999 SCT035 26/16 A2996 RMK VEL.MAX.VTO 18KT SIGNIFICANT VOLCANIC ACT TURRIALBA RDO 20NM CENTERED COOR.10.1N 83.5W FROM TO 12000FT NOSIG=
201001182100 METAR MRPV 182100Z 06012KT 9999 SCT030 26/16 A2996 RMK VEL MAX VTO 19KT SIGNIFICANT VOLCANIC ACT TURRIALBA RDO 20NM CENTERED COOR.10.1N 83.5W FROM TO 12000FT NOSIG=
201001182200 METAR MRPV 182200Z 07012KT 9999 SCT030 26/16 A2995 RMK SIGNIFICANT VOLCANIC ACT TURRIALBA RDO 20NM CENTERED COOR.10.1N83.5W FROM TO 12000FT NOSIG=
201001182300 METAR MRPV 182300Z 07011KT 9999 SCT025 23/16 A2996 RMK SIGNIFICANT VOLCANIC ACT TURRIALBA RDO 20NM CENTERED COOR.10.1N 83.5W FROM TO 12000FT NOSIG=
201001182345 METAR MRPV 182345Z 10010KT 9999 SCT025 22/16 A2996 RMK SIGNIFICANT VOLCANIC ACT TURRIALBA RDO 20NM CENTERED COOR.10.1N 83.5W FROM TO 12000FT NOSIG=
201001190000 METAR MRPV NIL=
201001190100 METAR MRPV NIL=
201001190200 METAR MRPV NIL=
201001190300 METAR MRPV NIL=
201001190400 METAR MRPV NIL=
201001190500 METAR MRPV NIL=
201001190600 METAR MRPV NIL=
201001190700 METAR MRPV NIL=
201001190800 METAR MRPV NIL=
201001190900 METAR MRPV NIL=
201001191000 METAR MRPV NIL=
201001191100 METAR MRPV NIL=
201001191200 METAR MRPV 191200Z 12009KT 9999 FEW025 BKN250 19/15 A3000 RMK SINIFICANT ACT VOLCANIC RDO 20 NM CENTERED COOR 10.1 N 83.5 W FROM TO 12000 FT VEL MAX VTO 16KT NOSIG=
201001191300 METAR MRPV 191300Z 13006KT 9999 FEW030 SCT250 20/14 A3002 RMK VEL MAX VTO 15KT SIGNIFICANT VOLCANIC ACT RDO 20NM CENTERED COOR.10.1N 83.5W FROM TO 12000FT NOSIG=
201001191400 METAR MRPV 191400Z 10010KT 9999 FEW030 22/15 A3003 RMK SIGNIFICANT VOLCANIC ACT RDO 20NM CENTERED COOR.10.1N 83.5W FROM TO 12000FT NOSIG=
201001191500 METAR MRPV 191500Z 09014KT 9999 FEW030 23/15 A3003 RMK VEL MAX VTO 20KT NOSIG=
201001191600 METAR MRPV 191600Z 08016KT 9999 FEW030 24/15 A3002 NOSIG=
201001191700 METAR MRPV 191700Z 08016KT 9999 NSC 24/14 A2999 RMK TRACE SC NOSIG=
201001191800 METAR MRPV 191800Z 08013KT 9999 NSC 25/15 A2997 TRACE SCT NOSIG=
201001191900 METAR MRPV 191900Z 08014KT 9999 NSC 25/15 A2995 TRACE CU NOSIG=
201001192000 METAR MRPV 192000Z 08012KT 9999 NSC 26/15 A2993 RMK TRACE CU NOSIG=
201001192100 METAR MRPV 192100Z 08013KT 9999 FEW040 25/15 A2990 NOSIG=
201001192200 METAR MRPV 192200Z 08012KT 9999 FEW035 25/16 A2991 NOSIG=
201001192300 METAR MRPV 192300Z 08013KT 9999 SCT020 23/16 A2992 NOSIG=
201001200000 METAR MRPV 200000Z NIL=
201001200100 METAR MRPV NIL=
201001200200 METAR MRPV NIL=
201001200300 METAR MRPV NIL=
201001200400 METAR MRPV NIL=
201001200500 METAR MRPV NIL=
201001200600 METAR MRPV NIL=
201001200700 METAR MRPV NIL=
201001200800 METAR MRPV NIL=
201001200900 METAR MRPV NIL=
201001201000 METAR MRPV NIL=
201001201100 METAR MRPV NIL=
201001201200 METAR MRPV 201200Z 13012KT 9999 FEW025 19/14 A2992 RMK VTO CRUZADO EN PISTA NOSIG=
201001201300 METAR MRPV 201300Z 11010KT 9999 FEW025 20/15 A2995 RMK VTO.CRUZADO EN PISTA NOSIG=
201001201400 METAR MRPV 201400Z 12010G20KT 9999 FEW025 22/15 A2997 RMK SIGNIFICANT VOLCANIC ACTIVITY TURRIALBA RDO 20NM CENTERED COOR 10.0N 83.8W FRONT TO 1200FT=
201001201500 METAR MRPV 201500Z 10010G20KT 9999 FEW025 24/14 A2999 NOSIG=
201001201600 METAR MRPV 201600Z 09010G20KT 9999 FEW025 26/15 A2997 NOSIG=
201001201700 METAR MRPV 201700Z 08012KT 9999 FEW025 27/16 A2995 RMK VEL.MAX.VTO. 17KT POLVO EN CABECERA PISTA 09 NOSIG=
201001201800 METAR MRPV 201800Z 08013KT 9999 FEW025 28/16 A2992 RMK VEL.MAX.VTO. 18KT POLVO CABECERA PISTA 09 NOSIG=
201001201900 METAR MRPV 201900Z 08012KT 9999 FEW025 27/16 A2989 RMK PLVO CABECERA PISTA 09 NOSIG=
201001202000 METAR MRPV 202000Z NIL=
201001202100 METAR MRPV 202100Z 07010G20KT 9999 FEW025 26716 A2985 NOSIG=
201001202200 METAR MRPV 202200Z 07010G20KT 9999 FEW025 25/16 A2986 NOSIG=
201001202300 METAR MRPV 202300Z 08010KT 9999 SCT025 24/16 A2987 RMK GUST 15KT=
201001210000 METAR MRPV NIL=
201001210100 METAR MRPV NIL=
201001210200 METAR MRPV NIL=
201001210300 METAR MRPV NIL=
201001210400 METAR MRPV NIL=
201001210500 METAR MRPV NIL=
201001210600 METAR MRPV NIL=
201001210700 METAR MRPV NIL=
201001210800 METAR MRPV NIL=
201001210900 METAR MRPV NIL=
201001211000 METAR MRPV NIL=
201001211100 METAR MRPV NIL=
201001211200 METAR MRPV 211200Z 12010KT 9999 NSC 20/15 A2991 TRACE SCT=
201001211300 METAR MRPV 211300Z 11010KT 9999 NSC 21/15 A2993 RMK TRACE SC NOSIG=
201001211400 METAR MRPV 211400Z 10010KT 9999 NSC 22/15 A2995 RMK TRACE SC NOSIG=
201001211500 METAR MRPV 211500Z 10010KT 9999 SKC 24/15 A2995 NOSIG=
201001211600 METAR MRPV 211600Z 10010KT 9999 SKC 26/15 A2995 NOSIG=
201001211700 METAR MRPV 211700Z 09010KT 9999 SKC 28/15 A2993 NOSIG=
201001211800 METAR MRPV 211800Z 09010KT 9999 NSC 28/15 A2990 RMK TRACE SC NOSIG=
201001211900 METAR MRPV 211900Z 10008KT 9999 NSC 29/14 A2989 RMK TRACE CU DU AROXIMACION 09 NOSIG=
201001212000 METAR MRPV 212000Z 09007KT 9999 FEW030 29/14 A2987 RMK DU APROXIMACION 09 CHECK TEXT NEW ENDING ADDED KATLYTAA=
201001212100 METAR MRPV 212100Z 07008KT 9999 SCT022TCU 27/15 A2986 BECMG 24006KT=
201001212200 METAR MRPV NIL=
201001212300 METAR MRPV 212300Z 09008KT 9999 SCT015 24/17 A2989 RMK HZ QUAD W NOSIG=
201001220000 METAR MRPV NIL=
201001220100 METAR MRPV NIL=
201001220200 METAR MRPV NIL=
201001220300 METAR MRPV NIL=
201001220400 METAR MRPV NIL=
201001220500 METAR MRPV NIL=
201001220600 METAR MRPV NIL=
201001220700 METAR MRPV NIL=
201001220800 METAR MRPV NIL=
201001220900 METAR MRPV NIL=
201001221000 METAR MRPV NIL=
201001221100 METAR MRPV NIL=
201001221200 METAR MRPV 221200Z 10005KT 9999 SKC 18/14 A2993 NOSIG=
201001221300 METAR MRPV 221300Z 10006KT 9999 SKC 20/14 A2996 NOSIG=
201001221400 METAR MRPV 221400Z 11005KT 9999 SKC 23/15 A2997 NOSIG=
201001221500 METAR MRPV 221500Z 10006KT 9999 SKC 25/14 A2998 RMK HZ W NOSIG=
201001221600 METAR MRPV 221600Z 08006KT 9999 SKC 27/14 A2998 RMK HZ W NOSIG=
201001221700 METAR MRPV 221700Z VRB02KT 9999 SKC 29/14 A2996 RMK HZ W BECMG 24006KT=
201001221800 METAR MRPV 221800Z 24006KT 9999 NSC 29/16 A2994 RMK HZ QUAD W/N TRACE SC NOSIG=
201001221900 METAR MRPV 221900Z 25008KT 9999 FEW035 30/23 A2982 RMK HZ QUAD N/W DU NR APCH 09 NOSIG=
201001222000 METAR MRPV 222000Z 25008KT 9999 FEW030 28/17 A2990 RMK HZ ARND=
201001222100 METAR MRPV 222100Z 26009KT 7000 VCFG FEW022 28/18 A2989 RMK DU APROXIMACION 09 NOSIG=
201001222200 METAR MRPV 222200Z 26008KT 6000 VCFG FEW020 27/19 A2990 RMK DU AROXIMACION 09 NOSIG=
201001222300 METAR MRPV 222300Z 27007KT 6000 VCFG FEW015 25/19 A2992 RMK DU APROXIMACION 09 NOSIG=
201001230000 METAR MRPV NIL=
201001230100 METAR MRPV NIL=
201001230200 METAR MRPV NIL=
201001230300 METAR MRPV NIL=
201001230400 METAR MRPV NIL=
201001230500 METAR MRPV NIL=
201001230600 METAR MRPV NIL=
201001230700 METAR MRPV NIL=
201001230800 METAR MRPV NIL=
201001230900 METAR MRPV NIL=
201001231000 METAR MRPV NIL=
201001231100 METAR MRPV NIL=
201001231200 METAR MRPV 231200Z 00000KT 9999 SKC 18/16 A2996 RMK HZ LGT ARND DU 09 NOSIG=
201001231300 METAR MRPV 231300Z 00000KT 9999 SKC 20/16 A2997 RMK HZ ARND DU 09 NOSIG=
201001231400 METAR MRPV 231400Z 00000KT 9999 SKC 22/16 A2998 RMK HZ ARND NOSIG=
201001231500 METAR MRPV 231500Z 08005KT 9999 SKC 24/16 A2999 RMK HZ ARND DU 09 NOSIG=
201001231600 METAR MRPV 231600Z 00000KT 9999 SKC 27/16 A2998 RMK DU 09 NOSIG=
201001231700 METAR MRPV 231700Z 28003KT 9999 SKC 27/17 A2996 RMK TRACE SC CU HZ ARND NOSIG=
201001231800 METAR MRPV 231800Z 28003KT 9999 4000N HZ FEW040 28/17 A2993 NOSIG=
201001231900 METAR MRPV 231900Z 26005KT 9999 4000N HZ SCT040 28/18 A2989 NOSIG=
201001232000 METAR MRPV 232000Z 26006KT 9999 4000N HZ SCT040 28/18 A2987 NOSIG=
201001232100 METAR MRPV 232100Z 28012KT 7000 3000N HZ SCT030 27/19 A2986 NOSIG=
201001232200 METAR MRPV 232200Z 28008KT 7000 3000N HZ FEW015 SCT025 25/19 A2987 TEMPO 5000 HZ=
201001232300 METAR MRPV 232300Z 28005KT 5000 HZ SCT010 BKN020 24/20 A2989 TEMPO 4000 RA HZ BKN010=
201001232345 METAR MRPV 232345Z 27003KT 5000 SCT003 BKN020 23/20 A2990 TEMPO 4000 HZ RA=
201001240000 METAR MRPV NIL=
201001240100 METAR MRPV NIL=
201001240200 METAR MRPV NIL=
201001240300 METAR MRPV NIL=
201001240400 METAR MRPV NIL=
201001240500 METAR MRPV NIL=
201001240600 METAR MRPV NIL=
201001240700 METAR MRPV NIL=
201001240800 METAR MRPV NIL=
201001240900 METAR MRPV NIL=
201001241000 METAR MRPV NIL=
201001241100 METAR MRPV NIL=
201001241200 METAR MRPV 241200Z 00000KT 9999 FEW030 18/15 A2993 RMK HZ ARND NOSIG=
201001241300 METAR MRPV 241300Z 09004KT 9999 FEW030 19/16 A2994 RMK HZY NOSIG=
201001241400 METAR MRPV 241400Z 08002KT 9999 NSC 22/17 A2996 TRACE SCT HZY=
201001241500 METAR MRPV 241500Z 00000KT 9999 NSC 25/16 A2997 TRACE SCT HZY NOSIG=
201001241600 METAR MRPV 241600Z 00000KT 9999 FEW040 27/17 A2996 HZY TEMPO 28004KT=
201001241700 METAR MRPV 241700Z 08003KT 9999 SCT035 27/16 A2995 RMK HZY NOSIG=
201001241800 METAR MRPV 241800Z 00000KT 9999 SCT030 27/17 A2992 RMK HZY TEMPO 28004KT=
201001241900 METAR MRPV 241900Z 00000KT 9999 FEW020 SCT035 27/17 A2989 HZY NOSIG=
201001242000 METAR MRPV 242000Z 08010KT 9999 4000 VCSH SCT010CB BKN020 26/17 A2987 HZY TEMPO 4000 SH=
201001242100 METAR MRPV 242100Z 22004KT 9999 4000N VCSH SCT010TCU BKN025 23/18 A2987 RMK HZY NOSIG=
201001242200 METAR MRPV 242200Z 24002KT 9999 SCT020 BKN035 23/18 A2988 RMK HZY NOSIG=
201001242300 METAR MRPV 242300Z 00000KT 9999 SCT030 BKN120 22/18 A2988 RMK HZ ARND NOSIG=
201001250000 METAR MRPV 250000Z NIL=
201001250100 METAR MRPV NIL=
201001250200 METAR MRPV NIL=
201001250300 METAR MRPV NIL=
201001250400 METAR MRPV NIL=
201001250500 METAR MRPV NIL=
201001250600 METAR MRPV NIL=
201001250700 METAR MRPV NIL=
201001250800 METAR MRPV NIL=
201001250900 METAR MRPV NIL=
201001251000 METAR MRPV NIL=
201001251100 METAR MRPV NIL=
201001251200 METAR MRPV 251200Z 00000KT 9999 SKC 17/14 A2994 RMK TRACE CI DU 09 HZ LGT ARND NOSIG=
201001251300 METAR MRPV 251300Z 00000KT 9999 NSC 19/14 A2996 RMK TRAZAS SC POLVO W HZ LGT ARND NOSIG=
201001251400 METAR MRPV 251400Z 11002KT 9999 NSC 22/16 A2998 RMK TRAZAS SC POLVO W HZ LGT ARND NOSIG=
201001251500 METAR MRPV 251500Z 08008KT 9999 NSC 24/15 A2999 RMK TRAZAS SC/CI POLVO W HZY NOSIG=
201001251600 METAR MRPV 251600Z 08009KT 9999 NSC 26/15 A2999 RMK TRAZAS SC/CI HZY NOSIG=
201001251700 METAR MRPV 251700Z 08010KT 9999 FEW040 27/16 A2997 RMK HZY NOSIG=
201001251800 METAR MRPV 251800Z 08009KT 9999 SCT040 27/15 A2995 RMK HZ LGT ARND NOSIG=
201001251900 METAR MRPV 251900Z 07007KT 9999 SCT040 28/16 A2992 RMK HZ LGT ARND NOSIG=
201001252000 METAR MRPV 252000Z 08012KT 9999 SCT020 BKN035 27/16 A2990 RMK HZY NOSIG=
201001252100 METAR MRPV 252100Z 08012KT 9999 BKN030 26/16 A2989 RMK HZ ARND=
201001252200 METAR MRPV 252200Z 07009KT 9999 BKN030 26/16 A2989 RMK HZ ARND NOSIG=
201001252300 METAR MRPV 252300Z 08012KT 9999 BKN025 24/17 A2990 RMK HZ ARND NOSIG=
201001260000 METAR MRPV NIL=
201001260100 METAR MRPV NIL=
201001260200 METAR MRPV NIL=
201001260300 METAR MRPV NIL=
201001260400 METAR MRPV NIL=
201001260500 METAR MRPV NIL=
201001260600 METAR MRPV NIL=
201001260700 METAR MRPV NIL=
201001260800 METAR MRPV NIL=
201001260900 METAR MRPV NIL=
201001261000 METAR MRPV NIL=
201001261100 METAR MRPV NIL=
201001261200 METAR MRPV 261200Z 10010G20KT SKC 19/15 A2995 NOSIG=
201001261300 METAR MRPV 261300Z 09010G20KT 9999 SKC 21/14 A2999 NOSIG=
201001261400 METAR MRPV 261400Z 09010G20KT 9999 NSC 22/15 A3001 RMK TRACE SC NOSIG=
201001261500 METAR MRPV 261500Z 09015G25KT 9999 NSC 23/14 A3002 RMK TRACE SC NOSIG=
201001261600 METAR MRPV 261600Z 08010G20KT 9999 NSC 24/13 A3000 RMK TRACE SC NOSIG=
201001261700 METAR MRPV 261700Z 07012G22KT 9999 NSC 24/13 A3000 RMK TRACE SC NOSIG=
201001261800 METAR MRPV 261800Z 06010G20KT 9999 NSC 25/12 A2998 RMK TRACE SC NOSIG=
201001261900 METAR MRPV 261900Z 06010G20KT 9999 NSC 25/12 A2994 TRACE SCT NOSIG=
201001262000 METAR MRPV 262000Z 06010G20KT 9999 NSC 26/14 A2992=
201001262100 METAR MRPV 262100Z 07010G20KT 9999 FEW030 25/14 A2991 NOSIG=
201001262200 METAR MRPV 262200Z 07010G20KT 9999 FEW025 24/14 A2992 NOSIG=
201001262300 METAR MRPV 262300Z 08010G20KT 9999 FEW020 22/14 A2992 RMK DU NR APCH 09 NOSIG=
201001270000 METAR MRPV NIL=
201001270100 METAR MRPV NIL=
201001270200 METAR MRPV NIL=
201001270300 METAR MRPV NIL=
201001270400 METAR MRPV NIL=
201001270500 METAR MRPV NIL=
201001270600 METAR MRPV NIL=
201001270700 METAR MRPV NIL=
201001270800 METAR MRPV NIL=
201001270900 METAR MRPV NIL=
201001271000 METAR MRPV NIL=
201001271100 METAR MRPV NIL=
201001271200 METAR MRPV 271200Z 10012KT 9999 NSC 18/12 A2997 RMK RN NE TRAZAS SC NOSIG=
201001271300 METAR MRPV 271300Z 09010G20KT 9999 NSC 19/13 A2997 RMK PCPN DST NE TRACE SC NOSIG=
201001271400 METAR MRPV 271400Z 08010G20KT 9999 NSC 20/13 A3000 RMK PCPN DST NE TRACE SC NOSIG=
201001271500 METAR MRPV 271500Z 18010G20KT 9999 NSC 21/14 A3001 RMK PCPN DST NE DU NR APCH 09 NOSIG=
201001271600 METAR MRPV 271600Z 08010G20KT 9999 FEW030 22/14 A3001 RMK RN DST NE NOSIG=
201001271700 METAR MRPV 271700Z 07010G20KT 9999 FEW030 22/15 A2999 RMK PCPN DST NE DU NR APCH 09 NOSIG=
201001271800 METAR MRPV 271800Z 08010G20KT 9999 SCT024 22/15 A2997 RMK PCPN DST NE NOSIG=
201001271900 METAR MRPV 271900Z 08010G20KT 9999 SCT022 21/13 A2996 RMK PCPN DST NE DU NR APCH 09 NOSIG=
201001272000 METAR MRPV 272000Z 08013G23KT 9999 SCT022 22/11 A2993 RMK PCPN DST NE DU APCH 09 NOSIG=
201001272100 METAR MRPV 272100Z 07010G20KT 9999 SCT022 22/11 A2993 RMK PCPN DST NE NOSIG=
201001272200 METAR MRPV 272200Z 08010G20KT 9999 FEW025 SCT250 23/13 A2993 RMK PCPN DST NE=
201001272300 METAR MRPV 272300Z 09010G20KT 9999 FEW020 SCT250 21/12 A2994 RMK PCPN DST NE NOSIG=
201001280000 METAR MRPV NIL=
201001280100 METAR MRPV NIL=
201001280200 METAR MRPV NIL=
201001280300 METAR MRPV NIL=
201001280400 METAR MRPV NIL=
201001280500 METAR MRPV NIL=
201001280600 METAR MRPV NIL=
201001280700 METAR MRPV NIL=
201001280800 METAR MRPV NIL=
201001280900 METAR MRPV NIL=
201001281000 METAR MRPV NIL=
201001281100 METAR MRPV NIL=
201001281200 METAR MRPV 281200Z 11010KT 9999 FEW012 18/13 A2995 RMK VL MX VTO 15KT PCPN DST NE NOSIG=
201001281300 METAR MRPV 281300Z 11010KT 9999 FEW015 19/13 A2997 RMK GUST 15KT RN NE NOSIG=
201001281400 METAR MRPV 281400Z 10010KT 9999 FEW015 21/13 A2998=
201001281500 METAR MRPV 281500Z 09010G20KT 9999 FEW018 22/13 A2999 NOSIG=
201001281600 METAR MRPV 281600Z 08010G20KT 9999 FEW020 24/13 A2999 NOSIG=
201001281700 METAR MRPV 281700Z 08010G20KT 9999 NSC 25713 A2997 RMK TRACE SC RN NE NOSIG=
201001281800 METAR MRPV 281800Z 07010G20KT 9999 NSC 25/14 A2994 RMK TRACE SC NOSIG=
201001281900 METAR MRPV 281900Z 07010G20KT 9999 FEW020 26/14 A2991=
201001282000 METAR MRPV 282000Z 07013G23KT 9999 FEW020 25/14 A2989=
201001282100 METAR MRPV 282100Z 08010G20KT 9999 FEW020 25/14 A2988 RMK DZ N NE NOSIG=
201001282200 METAR MRPV 282200Z 07010G20KT 9999 FEW020 24/14 A2987 RMK PCPN DST N NE NOSI G=
201001282300 METAR MRPV 282300Z 08010G20KT 9999 FEW020 23/14 A2989 RMK PCPN DST N NE NOSIG=
201001290000 METAR MRPV NIL=
201001290100 METAR MRPV NIL=
201001290200 METAR MRPV NIL=
201001290300 METAR MRPV NIL=
201001290400 METAR MRPV NIL=
201001290500 METAR MRPV NIL=
201001290600 METAR MRPV NIL=
201001290700 METAR MRPV NIL=
201001290800 METAR MRPV NIL=
201001290900 METAR MRPV NIL=
201001291000 METAR MRPV NIL=
201001291100 METAR MRPV NIL=
201001291200 METAR MRPV 291200Z 11010KT 9999 NSC 20/14 A2991 RMK TRACE SC LGT HZ W NOSIG=
201001291300 METAR MRPV 291300Z 11011KT 9999 NSC 20/14 A2992 RMK TRACE SC LGT HZ W NOSIG=
201001291400 METAR MRPV 291400Z 10011KT 9999 FEW035 22/15 A2993 NOSIG=
201001291500 METAR MRPV 291500Z 08013KT 9999 FEW040 23/15 A2995 RMK VEL MAX VTO NOSIG=
201001291600 METAR MRPV 291600Z 08012KT 9999 FEW040 24/15 A2995 RMK VEL MAX VTO 18KT NOSIG=
201001291700 METAR MRPV 291700Z 07012KT 9999 FEW040 26/15 A2994 NOSIG=
201001291800 METAR MRPV 291800Z 07012KT 9999 SCT040 26/16 A2990 RMK VEL MAX VTO 18KT NOSIG=
201001291900 METAR MRPV 291900Z 08014KT 9999 SCT040 26/17 A2988 RMK VEL MAX VTO 20KT NOSIG=
201001292000 METAR MRPV 292000Z 08013KT 9999 SCT030 26/17 A2985 RMK VEL MAX VTO 18KT NOSIG=
201001292100 METAR MRPV 292100Z 08010KT 9999 SCT025 24/16 A2985 NOSIG=
201001292200 METAR MRPV 292200Z 08013KT 9999 SCT020 24/17 A2984 NOSIG=
201001292300 METAR MRPV NIL=
201001300000 METAR MRPV 300000Z NIL=
201001300100 METAR MRPV NIL=
201001300200 METAR MRPV NIL=
201001300300 METAR MRPV NIL=
201001300400 METAR MRPV NIL=
201001300500 METAR MRPV NIL=
201001300600 METAR MRPV NIL=
201001300700 METAR MRPV NIL=
201001300800 METAR MRPV NIL=
201001300900 METAR MRPV NIL=
201001301000 METAR MRPV NIL=
201001301100 METAR MRPV NIL=
201001301200 METAR MRPV 301200Z 11008KT 9999 FEW020 20/16 A2988 NOSIG=
201001301300 METAR MRPV 301300Z 11010KT 9999 FEW020 20/16 A2989 NOSIG=
201001301400 METAR MRPV 301400Z 11008KT 9999 FEW020 22/16 A2990 NOSIG=
201001301500 METAR MRPV 301500Z 10011KT 9999 FEW020 24/16 A2992 NOSIG=
201001301600 METAR MRPV 301600Z 09011KT 9999 FEW020 25/16 A2991 NOSIG=
201001301700 METAR MRPV 301700Z 09012KT 9999 SCT035 26/17 A2991 NOSIG=
201001301800 METAR MRPV 301800Z 08012KT 9999 SCT035 26/16 A2989=
201001301900 METAR MRPV 301900Z 07011KT 9999 SCT030 26/16 A2986 NOSIG=
201001302000 METAR MRPV 302000Z 08010KT 9999 SCT030 27/16 A2984 NOSIG=
201001302100 METAR MRPV 302100Z 07012KT 9999 SCT035 25/16 A2982 NOSIG=
201001302200 METAR MRPV 302200Z 08011KT 9999 FEW030 25/16 A2983 NOSIG=
201001302300 METAR MRPV 302300Z 08012KT 9999 FEW040 24/16 A2983 NOSIG=
201001310000 METAR MRPV NIL=
201001310100 METAR MRPV NIL=
201001310200 METAR MRPV 310200Z 00000KT CAVOK 28/18 A2969 RMK FEW250=
201001310300 METAR MRPV NIL=
201001310400 METAR MRPV NIL=
201001310500 METAR MRPV NIL=
201001310600 METAR MRPV NIL=
201001310700 METAR MRPV NIL=
201001310800 METAR MRPV NIL=
201001310900 METAR MRPV NIL=
201001311000 METAR MRPV NIL=
201001311100 METAR MRPV NIL=
201001311200 METAR MRPV 311200Z 12008KT 9999 NSC 20/15 A2989 NOSIG=
201001311300 METAR MRPV 311300Z 11011KT 9999 NSC 21/16 A2991 RMK TRACE SC NOSIG=
201001311400 METAR MRPV 311400Z 10012KT 9999 NSC 22/17 A2992 RMK TRACE SC NOSIG=
201001311500 METAR MRPV 311500Z 08014KT 9999 NSC 23/17 A2992 RMK TRACE SC NOSIG=
201001311600 METAR MRPV 311600Z 09013KT 9999 FEW040 25717 A2992 NOSIG=
201001311700 METAR MRPV 311700Z 06013KT 9999 SCT040 26/17 A2992 NOSIG=
201001311800 METAR MRPV 311800Z 08012KT 9999 SCT040 27/17 A2989 NOSIG=
201001311900 METAR MRPV 311900Z 08011KT 9999 SCT040 27/17 A2987 NOSIG=
201001312000 METAR MRPV 312000Z 08012KT 9999 SCT040 27/17 A2985 NOSIG=
201001312100 METAR MRPV 312100Z 08011KT 9999 FEW020 SCT035 25718 A2985 RMK TCU DST SW E SE NOSIG=
201001312200 METAR MRPV 312200Z 08012KT 9999 FEW020 BKN035 24/17 A2985 RMK DZ NE NOSIG=
201001312300 METAR MRPV 312300Z 08012KT 9999 SCT020 BKN250 24/17 A2985 NOSIG=
201002010000 METAR MRPV NIL=
201002010100 METAR MRPV NIL=
201002010200 METAR MRPV NIL=
201002010300 METAR MRPV NIL=
201002010400 METAR MRPV NIL=
201002010500 METAR MRPV NIL=
201002010600 METAR MRPV NIL=
201002010700 METAR MRPV NIL=
201002010800 METAR MRPV NIL=
201002010900 METAR MRPV NIL=
201002011000 METAR MRPV NIL=
201002011100 METAR MRPV NIL=
201002011200 METAR MRPV 011200Z 07010G20KT 9999 NSC 21/16 A2993 RMK TRAZAS SC RN DST NNE NOSIG=
201002011300 METAR MRPV 011300Z 11010G20KT 9999 FEW030 22/17 A2994 RMK RN DST NE NOSIG=
201002011400 METAR MRPV 011400Z 09015G25KT 9999 FEW030 23/17 A2995 RMK RN DST NE NOSIG=
201002011500 METAR MRPV 011500Z 09015G26KT 9999 FEW030 24/17 A2996 RMK RN DST N/NE NOSIG=
201002011600 METAR MRPV 011600Z 08016G26KT 9999 FEW030 24/18 A2995 RMK RN DST NE NOSIG=
201002011700 METAR MRPV 011700Z 08015G25KT 9999 FEW030 25/18 A2992 RMK RN DST NE NOSIG=
201002011800 METAR MRPV 011800Z 08013G23KT 9999 FEW030 25/18 A2990 RMK RN DST NE NOSIG=
201002011900 METAR MRPV 011900Z 07014G24KT 9999 FEW030 25/15 A2985 RMK RN DST NE NOSIG=
201002012000 METAR MRPV 012000Z 09012G22KT 9999 FEW025 26/18 A2986 RMK RN DST NE NOSIG=
201002012100 METAR MRPV 012100Z 08012G22KT 9999 FEW025 26/18 A2985 RMK PCPN E NE N CHECK TEXT NEW ENDING ADDED KATLYTAA=
201002012200 METAR MRPV 012200Z 08012G22KT 9999 FEW020 24/18 A2985 RMK PCPN DST NE E=
201002012300 METAR MRPV 012300Z 0010G20KT 9999 FEW018 23/17 A2986 RMK PCPN DST NE E NOSIG=
201002020000 METAR MRPV NIL=
201002020100 METAR MRPV NIL=
201002020200 METAR MRPV NIL=
201002020300 METAR MRPV NIL=
201002020400 METAR MRPV NIL=
201002020500 METAR MRPV NIL=
201002020600 METAR MRPV NIL=
201002020700 METAR MRPV NIL=
201002020800 METAR MRPV NIL=
201002020900 METAR MRPV NIL=
201002021000 METAR MRPV NIL=
201002021100 METAR MRPV NIL=
201002021200 METAR MRPV 021200Z 12010G20KT 9999 FEW020 21/17 A2990 RMK RN DST NE NOSIG=
201002021300 METAR MRPV 021300Z 11010G20KT 9999 FEW020 2/16 A2990 RMK RN NE NOSIG=
201002021400 METAR MRPV 021400Z 09011G21KT 9999 SCT020 23/17 A2992 RMK RN NE NOSIG=
201002021500 METAR MRPV 021500Z 08010G20KT 9999 FEW025 24/17 A2992 RMK RN NE NOSIG=
201002021600 METAR MRPV 021600Z 09012G22KT 9999 FEW025 24/17 A2992 RMK RN NE NOSIG=
201002021700 METAR MRPV 021700Z 06010G20KT 9999 SCT025 25/17 A2991 RN NE NOSIG=
201002021800 METAR MRPV 021800Z 07015G25KT 9999 FEW025 25/18 A2989 RMK RN NE NOSIG=
201002021900 METAR MRPV 021900Z 06010G20KT 9999 FEW025 27/17 A2986=
201002022000 METAR MRPV 022000Z 07010G20KT 9999 FEW025 26/18 A2984=
201002022100 METAR MRPV 022100Z 07012G22KT 9999 FEW025 25/15 A2984 RN NE NOSIG=
201002022200 METAR MRPV 022200Z 07010G20KT 9999 FEW020 23/18 A2985 RN NE=
201002022300 METAR MRPV 022300Z 08010G20KT 9999 FEW020 23/17 A2986 RN NE NOSIG=
201002030000 METAR MRPV NIL=
201002030100 METAR MRPV NIL=
201002030200 METAR MRPV NIL=
201002030300 METAR MRPV NIL=
201002030400 METAR MRPV NIL=
201002030500 METAR MRPV NIL=
201002030600 METAR MRPV NIL=
201002030700 METAR MRPV NIL=
201002030800 METAR MRPV NIL=
201002030900 METAR MRPV NIL=
201002031000 METAR MRPV NIL=
201002031100 METAR MRPV NIL=
201002031200 METAR MRPV 031200Z 08011G21KT 9999 FEW030 21/15 A2990 RMK PCPN DST NE DU NR APCH 09 NOSIG=
201002031300 METAR MRPV 031300Z 11010G20KT 9999 FEW030 21/16 A2993 RN NE DU APP09 NOSIG=
201002031359 METAR MRPV 041400Z 09010G20KT 9999 FEW030 23/15 A2994 RN NE DU APP09 NOSIG=
201002031400 METAR MRPV NIL=
201002031500 METAR MRPV 031500Z 07014G24KT 9999 FEW030 23/16 A2995 RN NE DU APP 09 NOSIG=
201002031600 METAR MRPV 031600Z 08012G22KT 9999 FEW030 25/17 A2996 RN NE DU APP09 NOSIG=
201002031700 METAR MRPV 031700Z 08012G22KT 9999 SCT025 25/17 A2994 RN NE NOSIG=
201002031800 METAR MRPV 031800Z 07012G22KT 9999 FEW025 25/16 A2991 RN NE NOSIG=
201002031900 METAR MRPV 031900Z 06010G20KT 9999 FEW025 25/18 A2989 RN NE NOSIG=
201002032000 METAR MRPV 032000Z 07014G24KT 9999 FEW025 27/16 A2986 RN NE=
201002032100 METAR MRPV 032100Z 07016G26KT 9999 FEW025 26/16 A2984 RMK RN NE NOSIG=
201002032200 METAR MRPV 032200Z 07015G25KT 9999 FEW025 25/17 A2984 RMK RN NE NOSIG=
201002032300 METAR MRPV 032300Z 08013G23KT 9999 FEW025 24/17 A2987 RMK RN NE NOSIG=
201002040000 METAR MRPV 040000Z NIL=
201002040100 METAR MRPV NIL=
201002040200 METAR MRPV NIL=
201002040300 METAR MRPV NIL=
201002040400 METAR MRPV NIL=
201002040500 METAR MRPV NIL=
201002040600 METAR MRPV NIL=
201002040700 METAR MRPV NIL=
201002040800 METAR MRPV NIL=
201002040900 METAR MRPV NIL=
201002041000 METAR MRPV NIL=
201002041100 METAR MRPV NIL=
201002041200 METAR MRPV 041200Z 11009KT 9999 NSC 20/15 A2993 RMK TRACE SC NOSIG=
201002041300 METAR MRPV 041300Z 12007KT 9999 NSC 21/15 A2994 RMK TRAZAS SC NOSIG=
201002041400 METAR MRPV 041400Z 11009KT 9999 NSC 23/16 A2996 RMK TRAZAS SC NOSIG=
201002041500 METAR MRPV 041500Z 10011KT 9999 NSC 24/16 A2996 NOSIG=
201002041600 METAR MRPV 041600Z 08016KT 9999 NSC 26/15 A2995 RMK TRAZAS SC NOSIG=
201002041700 METAR MRPV 041700Z 10014KT 9999 NSC 27/14 A2995 RMK TRAZAS SC NOSIG=
201002041800 METAR MRPV 041800Z 08016KT 9999 NSC 28/15 A2992 RMK TRAZAS SC NOSIG=
201002041900 METAR MRPV 041900Z 08012KT 9999 FEW040 28/15 A2990 NOSIG=
201002042000 METAR MRPV 042000Z 08014KT 9999 FEW040 28/16 A2987 NOSIG=
201002042100 METAR MRPV 042100Z 08016KT 9999 FEW035 27/16 A2986 NOSIG=
201002042200 METAR MRPV 042200Z 08015KT 9999 SCT030 26/17 A2988 NOSIG=
201002042300 METAR MRPV 042300Z 10011KT 9999 FEW025 24/17 A2989 NOSIG=
201002050000 METAR MRPV NIL=
201002050100 METAR MRPV NIL=
201002050200 METAR MRPV NIL=
201002050300 METAR MRPV NIL=
201002050400 METAR MRPV NIL=
201002050500 METAR MRPV NIL=
201002050600 METAR MRPV NIL=
201002050700 METAR MRPV NIL=
201002050800 METAR MRPV NIL=
201002050900 METAR MRPV NIL=
201002051000 METAR MRPV NIL=
201002051100 METAR MRPV NIL=
201002051200 METAR MRPV 051200Z 12007KT CAVOK 19/14 A2998 BKN300 NOSIG=
201002051300 METAR MRPV 051300Z 12007KT 9999 1000W FU 20/15 A2999 RMK TEMPO CAVOK SCT300=
201002051400 METAR MRPV 051400Z 13004KT CAVOK 23/15 A3001 RMK SCT300 NOSIG=
201002051500 METAR MRPV 051500Z 12006KT CAVOK 26/14 A3001 RMK SCT300 NOSIG=
201002051600 METAR MRPV 051600Z 00000KT CAVOK 30/10 A3001 RMK FEW300 NOSIG=
201002051700 METAR MRPV 051700Z 28003KT CAVOK 30/09 A2999 RMK FEW300 NOSIG=
201002051800 METAR MRPV 051800Z 25007KT 9999 NSC 31/10 A2995 RMK TRACE CI SC NOSIG=
201002051900 METAR MRPV 051900Z 28011KT 9999 NSC 30/12 A2993 RMK TRACE SC CI=
201002052000 METAR MRPV 052000Z 29010KT 9999 FEW040 28/19 A2991 NOSIG=
201002052100 METAR MRPV 052100Z 28011KT CAVOK 30/12 A2989 RMK FEW300 NOSIG=
201002052200 METAR MRPV 052200Z 28008KT 9999 FEW035 SCT300 29/15 A2989 NOSIG=
201002052300 METAR MRPV 052300Z 28007KT 9999 FEW040 SCT300 28/17 A2990 NOSIG=
201002060000 METAR MRPV NIL=
201002060100 METAR MRPV NIL=
201002060200 METAR MRPV NIL=
201002060300 METAR MRPV NIL=
201002060400 METAR MRPV NIL=
201002060500 METAR MRPV NIL=
201002060600 METAR MRPV NIL=
201002060700 METAR MRPV NIL=
201002060800 METAR MRPV NIL=
201002060900 METAR MRPV NIL=
201002061000 METAR MRPV NIL=
201002061100 METAR MRPV NIL=
201002061200 METAR MRPV 061200Z 13007KT 9999 NSC 19/14 A2995 RMK TRAZAS SC/CI HZ W NOSIG=
201002061300 METAR MRPV 061300Z 14007KT CAVOK 20/14 A2997 RMK SCT300 NOSIG=
201002061400 METAR MRPV 061400Z 14011KT CAVOK 22/14 A2999 RMK BKN300 NOSIG=
201002061500 METAR MRPV 061500Z 12010KT CAVOK 26/10 A3001 RMK BKN300 NOSIG=
201002061600 METAR MRPV 061600Z 09015KT CAVOK 28/01 A3000 RMK BKN300 NOSIG=
201002061700 METAR MRPV 061700Z 10009KT CAVOK 28/08 A2998 RMK BKN300 NOSIG=
201002061800 METAR MRPV 061800Z 08011KT CAVOK 30/00 A2995 RMK BKN300 NOSIG=
201002061900 METAR MRPV NIL=
201002062000 METAR MRPV 062000Z 08013KT 9999 FEW040 BKN300 30/06 A2990 NOSIG=
201002062100 METAR MRPV 062100Z 08014KT 9999 FEW040 BKN300 29/09 A2989 RMK HZ W NOSIG=
201002062200 METAR MRPV 062200Z 07014KT 9999 FEW040 BKN300 27/11 A2989 RMK HZ W NOSIG=
201002062300 METAR MRPV 062300Z 08012KT 9999 FEW040 BKN300 27/12 A2991 NOSIG=
201002070000 METAR MRPV NIL=
201002070100 METAR MRPV NIL=
201002070200 METAR MRPV NIL=
201002070300 METAR MRPV NIL=
201002070400 METAR MRPV NIL=
201002070500 METAR MRPV NIL=
201002070600 METAR MRPV NIL=
201002070700 METAR MRPV NIL=
201002070800 METAR MRPV NIL=
201002070900 METAR MRPV NIL=
201002071000 METAR MRPV NIL=
201002071100 METAR MRPV NIL=
201002071200 METAR MRPV 071200Z 12008KT 9999 FEW018 20/15 A2996 RMK PCPN NE HZ W NOSIG=
201002071300 METAR MRPV 071300Z 10008KT 9999 FEW018 20/15 A2998 RMK RN NE HZ W NOSIG=
201002071400 METAR MRPV 071400Z 10010KT 9999 FEW018 21/16 A2993 RMK RN NE HZ W NOSIG=
201002071500 METAR MRPV 071500Z 10010KT 9999 SCT015 22/15 A3000 RMK GUST 15KT=
201002071600 METAR MRPV 071600Z 09010KT 9999 SCT020 23/15 A3000 RMK GUST 15KT=
201002071700 METAR MRPV 071700Z 09010KT 9999 SCT020 24/15 A2999 RMK GUST 15KT NOSIG=
201002071800 METAR MRPV 071800Z 08012KT 9999 SCT020 26/15 A2997 RMK GUST 17KT=
201002071900 METAR MRPV 071900Z 09012KT 9999 SCT030 26/16 A2994 RMK GUST 18KT NOSIG=
201002072000 METAR MRPV 072000Z 07012KT 9999 SCT030 26/16 A2990 NOSIG=
201002072100 METAR MRPV 072100Z 08012KT 9999 FEW015 SCT025 24/16 A2989=
201002072200 METAR MRPV 072200Z 08013KT 9999 SCT015 BKN025 23/16 A2989 NOSIG=
201002072300 METAR MRPV 072300Z 08013KT 9999 SCT012 BKN025 22/16 A2990 NOSIG=
201002072355 METAR MRPV 08000Z NIL=
201002080000 METAR MRPV NIL=
201002080100 METAR MRPV 080100Z NIL=
201002080200 METAR MRPV NIL=
201002080300 METAR MRPV NIL=
201002080400 METAR MRPV NIL=
201002080500 METAR MRPV NIL=
201002080600 METAR MRPV NIL=
201002080700 METAR MRPV NIL=
201002080800 METAR MRPV NIL=
201002080900 METAR MRPV NIL=
201002081000 METAR MRPV NIL=
201002081100 METAR MRPV NIL=
201002081200 METAR MRPV 081200Z 09005KT 9999 DZ OVC090 20/16 A2998 RMK VIS E 8KM DUE RN NOSIG=
201002081300 METAR MRPV 081300Z 11007KT 9999 DZ OVC090 20/16 A2999 SCT PCPN ARND NOSIG=
201002081400 METAR MRPV 081400Z 10006KT CAVOK 20/17 A3002 REDZ SCT080 BKN100 VIS W 5KM DUE RN AND HZ=
201002081500 METAR MRPV 081500Z 12008KT 6000 DZ SCT010 BKN080 21/17 A3003 NOSIG=
201002081600 METAR MRPV 081600Z 10008KT 8000 -DZ SCT010 BKN090 22/17 A3003 NOSIG=
201002081700 METAR MRPV 081700Z 10010KT 9999 FEW012 BKN100 24/17 A3000 REDZ RN NE NW DIST=
201002081800 METAR MRPV 081800Z 09011KT 9999 SCT012 BKN100 25/17 A2998 RN DIST E NE NW NOSIG=
201002081900 METAR MRPV 081900Z 09010KT 8000 -DZ SCT010 BKN090 24/17 A2996 NOSIG=
201002082000 METAR MRPV 082000Z 08008KT 9999 SCT010 BKN090 24/17 A2993 RMK RN NE/NW NOSIG=
201002082100 METAR MRPV 082100Z 10008KT 9999 FEW010 BKN090 24/17 A2992 RMK RN QUAND E NOSIG=
201002082200 METAR MRPV 082200Z 08006KT 9999 FEW010 BKN100 24/17 A2992 RMK RN DST NE NOSIG=
201002082300 METAR MRPV 082300Z 07008KT 9999 FEW020 BKN100 24/17 A2992 RMK RN N/NE/E NOSIG=
201002090000 METAR MRPV 090000Z NIL=
201002090100 METAR MRPV NIL=
201002090200 METAR MRPV NIL=
201002090300 METAR MRPV NIL=
201002090400 METAR MRPV NIL=
201002090500 METAR MRPV NIL=
201002090600 METAR MRPV NIL=
201002090700 METAR MRPV NIL=
201002090800 METAR MRPV NIL=
201002090900 METAR MRPV NIL=
201002091000 METAR MRPV NIL=
201002091100 METAR MRPV NIL=
201002091200 METAR MRPV 091200Z 00000KT CAVOK 18/16 A2998 RMK FEW120 DU 09 HZ W NOSIG=
201002091300 METAR MRPV 091300Z 00000KT CAVOK 20/17 A3001 RMK SCT120 POLVO PROXIMACION PISTA 09 HZ W CB DST SW NOSIG=
201002091400 METAR MRPV 091400Z 00000KT CAVOK 24/17 A3002 RMK FEW120 POLVO PROXIMACION PISTA 09 HZ W NOSIG=
201002091500 METAR MRPV 091500Z 00000KT 9999 FEW030 25/17 A3003 RMK HZ W POLVO PROXIMACION PISTA 09 NOSIG=
201002091600 METAR MRPV 091600Z 23004KT 9999 FEW030 27/18 A3001 RMK HZ W POLVO PROXIMACION PISTA 09 NOSIG=
201002091700 METAR MRPV 091700Z 21004KT 9999 FEW030 29/17 A2999 RMK HZ W NOSIG=
201002091800 METAR MRPV 091800Z 24004KT 9999 SCT030 29/17 A2996 RMK HZ W NOSIG=
201002091900 METAR MRPV 091900Z 26008KT 9999 SCT030 29/18 A2994 RMK HZ W TCU E/NE/N NOSIG=
201002092000 METAR MRPV 092000Z 27009KT 9999 SCT025TCU 28/19 A2990 RMK HZ W NOSIG=
201002092100 METAR MRPV 092100Z 26010KT 9999 SCT022TCU 28/20 A2989 RMK 6000 W DUE HZ BECM G 7000 VCFG=
201002092200 METAR MRPV 092200Z VRB02KT 8000 VCFG BKN020 22/20 A2990 NOSIG=
201002092300 METAR MRPV 092300Z VRB02KT 9999 BKN020 22/20 A2991 RMK HZ N W NOSIG=
201002100000 METAR MRPV NIL=
201002100100 METAR MRPV NIL=
201002100200 METAR MRPV NIL=
201002100300 METAR MRPV NIL=
201002100400 METAR MRPV NIL=
201002100500 METAR MRPV NIL=
201002100600 METAR MRPV NIL=
201002100700 METAR MRPV NIL=
201002100800 METAR MRPV NIL=
201002100900 METAR MRPV NIL=
201002101000 METAR MRPV NIL=
201002101100 METAR MRPV NIL=
201002101200 METAR MRPV 101200Z 10011KT 9999 NSC 21/16 A2993 TRACE SCT CI CB DIST S NOSIG=
201002101300 METAR MRPV 101300Z 10012KT 9999 NSC 21/17 A2996 RK TRACE SCT CI NOSIG=
201002101400 METAR MRPV 101400Z 10012KT 9999 NSC 22/17 A2997 RMK TRACE SC GUST 17KT NOSIG=
201002101500 METAR MRPV 101500Z 10012KT 9999 NSC 24/16 A2998 RMK TRACE SC NOSIG=
201002101600 METAR MRPV 101600Z 08016KT 9999 NSC 25/17 A2997 RMK TRACE SC NOSIG=
201002101700 METAR MRPV 101700Z 09015KT 9999 FEW040 27/16 A2995 RMK GUST 21KT NOSIG=
201002101800 METAR MRPV 101800Z 06018KT 9999 SCT040 27/16 A2993 RMK GUST 26KT NOSIG=
201002101900 METAR MRPV 101900Z 08016KT 9999 FEW040 27/16 A2990 RMK GUST 22KT=
201002102000 METAR MRPV 102000Z 07017KT 9999 SCT040 27/16 A2988 RMK GUST 23KT NOSIG=
201002102100 METAR MRPV 102100Z 08016KT 9999 SCT030 27/16 A2986 RMK VEL MAX VTO 22KT NOSIG=
201002102200 METAR MRPV 102200Z 07016KT 9999 FEW035 SCT250 26/16 A2986 NOSIG=
201002102300 METAR MRPV 102300Z 08013KT FEW035 SCT250 25/16 A2987 RMK VEL MAX VTO 20KT NOSIG=
201002110000 METAR MRPV NIL=
201002110100 METAR MRPV NIL=
201002110200 METAR MRPV NIL=
201002110300 METAR MRPV NIL=
201002110400 METAR MRPV NIL=
201002110500 METAR MRPV NIL=
201002110600 METAR MRPV NIL=
201002110700 METAR MRPV NIL=
201002110800 METAR MRPV NIL=
201002110900 METAR MRPV NIL=
201002111000 METAR MRPV NIL=
201002111100 METAR MRPV NIL=
201002111200 METAR MRPV 111200Z 10007KT 9999 FEW030 20/15 A2993 RMK VEL.MAX.VTO. 12KT NOSIG=
201002111300 METAR MRPV 111300Z 09015KT 9999 FEW030 21/15 A2993 NOSIG=
201002111400 METAR MRPV 111400Z 09012KT 9999 SCT030 22/15 A2995 RMK VEL MAX VTO 17KT NOSIG=
201002111500 METAR MRPV 111500Z 06013KT 9999 SCT020 23/15 A2996 RMK VEL MAX VTO 21KT NOSIG=
201002111600 METAR MRPV 111600Z 07012KT 9999 SCT025 23/15 A2996 NOSIG=
201002111700 METAR MRPV 111700Z 08015KT 9999 SCT025 24/14 A2993 RMK VEL MAX VTO 22KT NOSIG=
201002111800 METAR MRPV 111800Z 07014KT 9999 SCT030 24/16 A2991 NOSIG=
201002111900 METAR MRPV 111900Z 06014KT 9999 SCT020 24/16 A2989 RMK VEL MAX VTO 21KT DZ DST NE NOSIG=
201002112000 METAR MRPV 112000Z 08015KT 9999 SCT025 25/16 A2986 RMK DZ DST NE NOSIG=
201002112100 METAR MRPV 112100Z 07016KT 9999 SCT020 24/15 A2985 RMK DZ DST NE NOSIG=
201002112200 METAR MRPV 112200Z 08018KT 9999 FEW020 SCT035 23/15 A2986 RMK VL MX VTO 24KT DZ NE NOSIG=
201002112300 METAR MRPV 112300Z 08014KT 9999 FEW020 SCT035 22/15 A2988 RMK DZ NE NOSIG=
201002120000 METAR MRPV NIL=
201002120100 METAR MRPV NIL=
201002120200 METAR MRPV NIL=
201002120300 METAR MRPV NIL=
201002120400 METAR MRPV NIL=
201002120500 METAR MRPV NIL=
201002120600 METAR MRPV NIL=
201002120700 METAR MRPV NIL=
201002120800 METAR MRPV NIL=
201002120900 METAR MRPV NIL=
201002121000 METAR MRPV NIL=
201002121100 METAR MRPV NIL=
201002121200 METAR MRPV 121200Z 09004KT CAVOK 18/10 A2989 RMK BKN100 NOSIG=
201002121300 METAR MRPV 121300Z 00000KT CAVOK 20/11 A2993 RMK BKN100 NOSIG=
201002121400 METAR MRPV 121400Z 00000KT CAVOK 22/09 A2994 RMK BKN100 NOSIG=
201002121500 METAR MRPV 121500Z 00000KT CAVOK 23/11 A2996 RMK BKN100 NOSIG=
201002121600 METAR MRPV 121600Z 28003KT 9999 FEW040 SCT120 26/12 A2996 NOSIG=
201002121700 METAR MRPV 121700Z 27003KT 9999 FEW035 SCT120 26/17 A2993 NOSIG=
201002121800 METAR MRPV 121800Z 27006KT 9999 FEW040 BKN120 27/19 A2991 NOSIG=
201002121900 METAR MRPV 121900Z 26006KT 9999 SCT035 BKN120 28/19 A2988 RMK TCU DST SW NOSIG=
201002122000 METAR MRPV 122000Z 25004KT 9999 SCT020 BKN120 25/20 A2987 RK TCU RN SW TEMPO BKN020=
201002122100 METAR MRPV 122100Z 27004KT 9999 4000SW VCSH SCT012TCU BKN020 24/19A2986 TEMPO 4000=
201002122200 METAR MRPV 122200Z 00000KT 9999 4000N VCSH FEW010 SCT015TCU BKN100 24/19 A2987 TEMPO BKN010=
201002122300 METAR MRPV 122300Z 00000KT 9999 4000N VCFG FEW007 SCT015TCU BKN030 23/18 A2988 TEMPO BKN010=
201002130000 METAR MRPV 130000Z NIL=
201002130100 METAR MRPV NIL=
201002130200 METAR MRPV NIL=
201002130300 METAR MRPV NIL=
201002130400 METAR MRPV NIL=
201002130500 METAR MRPV NIL=
201002130600 METAR MRPV NIL=
201002130700 METAR MRPV NIL=
201002130800 METAR MRPV NIL=
201002130900 METAR MRPV NIL=
201002131000 METAR MRPV NIL=
201002131100 METAR MRPV NIL=
201002131200 METAR MRPV 131200Z 10008KT 8000 3000NW VCFG BR FEW008 BKN250 21/16 A2993 NOSIG=
201002131300 METAR MRPV 131300Z 11008KT 7000 3000W VCFG BR FEW008 BKN110 22/18 A2995=
201002131400 METAR MRPV 131400Z 10010KT 7000 3000NW VCFG BR FEW010 BKN110 23/17 A2996 NOSIG=
201002131500 METAR MRPV 131500Z 10020KT 8000 3000W VCFG BR FEW010 SCT110 25/17 A2997 RN NE NOSIG=
201002131600 METAR MRPV 131600Z 09020KT 9999 FEW015 SCT110 26/15 A2998 RN NE VIS W 5KM DUE HZ NOSIG=
201002131700 METAR MRPV 131700Z 07010G20KT 9999 SCT018 27/14 A2996 RN NE NOSIG=
201002131800 METAR MRPV 131800Z 08010G20KT 9999 SCT018 SCT250 27/15 A2994 VIS W 5KM DUE HZ RN NE NOSIG=
201002131900 METAR MRPV 131900Z 08014G24KT 9999 SCT018 SCT250 26/17 A2991 RN NE TCU NW NOSIG=
201002132000 METAR MRPV 132000Z 08012G22KT 9999 SCT018 SCT250 24/15 A2990 RN NE TCU SW NW NOSIG=
201002132100 METAR MRPV 132100Z 08013G23KT 9999 FEW015 BKN030 23/15 A2988 RMK RN DST E/NE/NW NOSIG=
201002132200 METAR MRPV 132200Z 10011G21KT 9999 SCT010 BKN030 22/16 A2989 RMK RN QUAND E NOSIG=
201002132300 METAR MRPV 132300Z 10010G20KT 9999 SCT010 BKN030 21/15 A2992 RMK RN N/NE/E NOSIG=
201002140000 METAR MRPV 140000Z NIL=
201002140100 METAR MRPV NIL=
201002140200 METAR MRPV NIL=
201002140300 METAR MRPV NIL=
201002140400 METAR MRPV NIL=
201002140500 METAR MRPV NIL=
201002140600 METAR MRPV NIL=
201002140700 METAR MRPV NIL=
201002140800 METAR MRPV NIL=
201002140900 METAR MRPV NIL=
201002141000 METAR MRPV NIL=
201002141100 METAR MRPV NIL=
201002141200 METAR MRPV 141200Z 10010G20KT 9999 FEW010 OVC250 20/15 A2995 RMK PCPN N NE SE NOSIG=
201002141300 METAR MRPV 141300Z 10010G20KT 9999 FEW010 BKN250 20/16 A2996 RMK RN DST SE/N E=
201002141400 METAR MRPV 141400Z 10010G20KT 9999 FEW015 BKN250 22/16 A2996 RMK RN N/NE NOSIG=
201002141500 METAR MRPV 141500Z 10010G20KT 9999 FEW015 BKN250 23/16 A2998 RMK RN N/NE NOSIG=
201002141600 METAR MRPV 141600Z 10010G20KT 9999 FEW015 BKN250 24/16 A2998 RMK RN N/NE NOSIG=
201002141700 METAR MRPV 141700Z 10010G20KT 9999 FEW015 BKN250 24/17 A2998 RMK RN N/NE NOSIG=
201002141800 METAR MRPV 141800Z 10011G21KT 9999 FEW020 BKN250 25/17 A2996 RMK RN N/NE NOSIG=
201002141900 METAR MRPV 141900Z 09010G20KT 9999 SCT015 BKN250 24/17 A2994 RMK RN N/NE NOSIG=
201002142000 METAR MRPV 142000Z 10010G20KT 9999 FEW010 SCT030 BKN250 24/17 A2992 RMK RN N/NE NOSIG=
201002142100 METAR MRPV 142100Z 10010G20KT 9999 FEW010 SCT030 BKN250 24/17 A2990 RMK RN NE NOSIG=
201002142200 METAR MRPV 142200Z 09010G20KT 9999 FEW010 SCT030 BKN250 23/17 A2989 RMK RN NE NOSIG=
201002142300 METAR MRPV 142300Z 11010KT 9999 FEW010 SCT030 BKN250 22/17 A2990 RMK RN NE NOSIG=
201002150000 METAR MRPV NIL=
201002150100 METAR MRPV NIL=
201002150200 METAR MRPV NIL=
201002150300 METAR MRPV NIL=
201002150400 METAR MRPV NIL=
201002150500 METAR MRPV NIL=
201002150600 METAR MRPV NIL=
201002150700 METAR MRPV NIL=
201002150800 METAR MRPV NIL=
201002150900 METAR MRPV NIL=
201002151000 METAR MRPV NIL=
201002151100 METAR MRPV NIL=
201002151200 METAR MRPV 151200Z 11009KT CAVOK 20/16 A2995 SCT120 VEL MX VT0 14KTS NOSIG=
201002151300 METAR MRPV 151300Z 12007KT CAVOK 21/17 A2996 RMK SCT120 SCT250 RMK=
201002151400 METAR MRPV 151400Z 12011KT CAVOK 23/17 A2997 RMK BKN140 GUST 16KT NOSIG=
201002151500 METAR MRPV 151500Z 11010KT 9999 FEW030 24/17 A2998 RMK RN NE E GUST 16KT=
201002151600 METAR MRPV 151600Z 08010KT 9999 FEW030 26/17 A2999 RMK GUST 15KT RN NE E NOSIG=
201002151700 METAR MRPV 151700Z 09010KT 9999 FEW030 26/17 A2997 RMK RN NE E GUST 15KT DU APROXIMACION 09=
201002151800 METAR MRPV 151800Z 08010KT 9999 FEW030 27/16 A2994 RMK RN NE GUST 15KT NOSIG=
201002151900 METAR MRPV 151900Z 07010KT 9999 FEW030 28/17 A2992 RMK RN NE TCU S SW NOSIG=
201002152000 METAR MRPV 152000Z 07010KT 9999 SCT020 SCT100 27/17 A2989 RMK TCU SW W RN NE GUST 15KT NOSIG=
201002152100 METAR MRPV 152100Z 08010KT 9999 SCT020 SCT100 25/17 A2989 RMK RN DST NE TCU DST SW/NW NOSIG=
201002152200 METAR MRPV 152200Z 08012KT 9999 FEW015 SCT100 BKN250 24/17 A2988 RMK CB DST W/NW RN DST NE NOSIG=
201002152300 METAR MRPV 152300Z 08010KT 9999 FEW010 BKN100 23/17 A2989 RMK VEL MAX VTO 15KT RN DST NE NOSIG=
201002160000 METAR MRPV NIL=
201002160100 METAR MRPV NIL=
201002160200 METAR MRPV NIL=
201002160300 METAR MRPV NIL=
201002160400 METAR MRPV NIL=
201002160500 METAR MRPV NIL=
201002160600 METAR MRPV NIL=
201002160700 METAR MRPV NIL=
201002160800 METAR MRPV NIL=
201002160900 METAR MRPV NIL=
201002161000 METAR MRPV NIL=
201002161100 METAR MRPV NIL=
201002161200 METAR MRPV 161200Z 09011KT CAVOK 21/16 A2994 RMK BKN120 VEL.MAX.VTO.16KT NOSIG=
201002161300 METAR MRPV 161300Z 09016KT 9999 NSC 22/16 A2996 TRAZAS SCT/AC VEL/MAX VIENTO 23NUDOS NOSIG=
201002161400 METAR MRPV 161400Z 08014KT 9999 NSC 23/17 A2998 RMK TRACE SC VEL MAX VTO 21KT NOSIG=
201002161500 METAR MRPV 161500Z 08018KT 9999 FEW035 24/16 A3000 NOSIG=
201002161600 METAR MRPV 161600Z 07013KT 9999 FEW035 25/16 A3000 NOSIG=
201002161700 METAR MRPV 161700Z 06015KT 9999 FEW040 26/16 A2998 NOSIG=
201002161800 METAR MRPV 161800Z 06014KT 9999 SCT030 26/15 A2996 RMK VEL MAX VTO 22KT NOSIG=
201002161900 METAR MRPV 161900Z 07015KT SCT030 27/16 A2993 NOSIG=
201002162000 METAR MRPV 162000Z 07014KT 9999 SCT035 27/16 A2990 RMK VEL MAX VTO 20KT NOSIG=
201002162100 METAR MRPV 162100Z 06014KT 9999 SCT030 27/17 A2988 RMK VL MX VTO 20KT NOSIG=
201002162200 METAR MRPV 162200Z 09012KT 9999 SCT030 26/17 A2988 NOSIG=
201002162300 METAR MRPV 162300Z 08014KT 9999 SCT030 24/18 A2989 NOSIG=
201002170000 METAR MRPV NIL=
201002170100 METAR MRPV NIL=
201002170200 METAR MRPV NIL=
201002170300 METAR MRPV NIL=
201002170400 METAR MRPV NIL=
201002170500 METAR MRPV NIL=
201002170600 METAR MRPV NIL=
201002170700 METAR MRPV NIL=
201002170800 METAR MRPV NIL=
201002170900 METAR MRPV NIL=
201002171000 METAR MRPV NIL=
201002171100 METAR MRPV NIL=
201002171200 METAR MRPV 171200Z 11011KT 9999 FEW025 20/16 A2994 RMK DZ NE GUST 16KT NOSIG=
201002171300 METAR MRPV 171300Z 10011KT 9999 FEW030 21/16 A2996 RMK DZ DST NE NOSIG=
201002171400 METAR MRPV 171400Z 10013KT 9999 NSC 22/16 A2997 RMK TRACE SC VL MX VTO 19KT NOSIG=
201002171500 METAR MRPV 171500Z 08015KT 9999 FEW030 23/17 A2998 RMK VL MX VTO 22KT NOSIG=
201002171600 METAR MRPV 171600Z 07017KT 9999 SCT030 24/17 A2999 RMK DZ NE NOSIG=
201002171700 METAR MRPV 171700Z 07014KT 9999 SCT030 25/17 A2997 RMK DZ N NE NOSIG=
201002171800 METAR MRPV 171800Z 08015KT 9999 SCT025 26/17 A2995 RMK DZ N NE NOSIG=
201002171900 METAR MRPV 171900Z 08013KT 9999 BKN025 26/17 A2994 RMK DZ N NE E NOSIG=
201002172000 METAR MRPV 172000Z 09013KT 9999 FEW020 BKN035 24/17 A2992 RMK VL MX VTO 20KT PCPN NW N NE E BKN020=
201002172100 METAR MRPV 172100Z 08015KT 9999 FEW020 BKN030 24/17 A2990 RN NW N NE E NOSIG=
201002172200 METAR MRPV 172200Z 10010KT 9999 FEW020 BKN030 23/17 A2991 RN N NE NOSIG=
201002172300 METAR MRPV 172300Z 09015KT 9999 BKN020 22/16 A2992 RN NW N NE VEL/MAX VIENTO 22NUDOS NOSIG=
201002180000 METAR MRPV NIL=
201002180100 METAR MRPV NIL=
201002180200 METAR MRPV NIL=
201002180300 METAR MRPV NIL=
201002180400 METAR MRPV NIL=
201002180500 METAR MRPV NIL=
201002180600 METAR MRPV NIL=
201002180700 METAR MRPV NIL=
201002180800 METAR MRPV NIL=
201002180900 METAR MRPV NIL=
201002181000 METAR MRPV NIL=
201002181100 METAR MRPV NIL=
201002181200 METAR MRPV 181200Z 09012KT 9999 SCT030 20/16 A2996 RMK DZ DST NW/N/NE NOSIG=
201002181300 METAR MRPV 181300Z 11010KT 9999 FEW030 20/16 A2997 DZ NW/NE/E/N NOSIG=
201002181400 METAR MRPV 181400Z 09014KT 9999 FEW030 22/17 A2998 DZ NW NE VEL MAX VTO 19KTS NOSIG=
201002181500 METAR MRPV 181500Z 07016KT 9999 FEW030 22/16 2998 DZ N NE VEL MAX VTO 22KTS NOSIG=
201002181600 METAR MRPV 181600Z 07015KT 9999 SCT025 23/16 A2998 DZ NE N VEL MAX VTO 21KT S NOSIG=
201002181700 METAR MRPV 181700Z 07016KT 9999 SCT025 24/16 A2997 DZ N NE VEL MAX VTO 22KTS NOSIG=
201002181800 METAR MRPV 181800Z 07018KT 9999 SCT030 24/18 A2994 DZ N NE NOSIG=
201002181900 METAR MRPV 111900Z 09012KT 9999 FEW025 BKN035 24/17 A2992 VT MAX 18KTS RN N NE NOSIG=
201002182000 METAR MRPV 182000Z 08015KT 9999 FEW020 BKN035 24/16 A2989 RN DIST N NE VEL MAX 21 KTS NOSIG=
201002182100 METAR MRPV 182100Z 07015KT 9999 BKN025 24/16 A2989 RMK RN N/NE NOSIG=
201002182200 METAR MRPV 182200Z 09014KT 9999 BKN025 24/17 A2987 RMK RN N/NE/E NOSIG=
201002182300 METAR MRPV NIL=
201002190000 METAR MRPV 190000Z NIL=
201002190100 METAR MRPV NIL=
201002190200 METAR MRPV NIL=
201002190300 METAR MRPV NIL=
201002190400 METAR MRPV NIL=
201002190500 METAR MRPV NIL=
201002190600 METAR MRPV NIL=
201002190700 METAR MRPV NIL=
201002190800 METAR MRPV NIL=
201002190900 METAR MRPV NIL=
201002191000 METAR MRPV NIL=
201002191100 METAR MRPV NIL=
201002191200 METAR MRPV NIL=
201002191300 METAR MRPV 191300Z 11013KT 9999 FEW025 21/16 A2997 RMK DZ DST E VEL MAX VTO 18KTS NOSIG=
201002191400 METAR MRPV 191400Z 09015KT 9999 FEW030 22/17 A2999 RMK DZ DST N/NE VEL.MAX.VTO. 23KT NOSIG=
201002191500 METAR MRPV 191500Z 08015G25KT 9999 FEW020 23/17 A3001 RMK RN DST N/NE NOSIG=
201002191600 METAR MRPV 191600Z 08014G24KT 9999 FEW020 24/17 A3000 RMK RN NE NOSIG=
201002191700 METAR MRPV 191700Z 08012G22KT 9999 FEW022 25/17 A2999 RMK RN N/NE NOSIG=
201002191800 METAR MRPV 191800Z 08014G24KT 9999 FEW022 26/18 A2996 RMK RN N/NE NOSIG=
201002191900 METAR MRPV 191900Z 08014G24KT 9999 FEW022 24/18 A2994 RMK RN N/NE NOSIG=
201002192000 METAR MRPV 192000Z 09012G22KT 9999 SCT025 23/18 A2992 RMK RN N/NE NOSIG=
201002192100 METAR MRPV 192100Z 08013G23KT 9999 SCT025 23/18 A2990 RMK RN NE E NOSIG=
201002192200 METAR MRPV 192200Z 08010G20KT 9999 SCT025 22/17 A2992 RMK RN NE NOSIG=
201002192300 METAR MRPV 192300Z 11010G20KT 99999 BKN022 22/17 A2993 RMK RN NE NOSIG=
201002200000 METAR MRPV NIL=
201002200100 METAR MRPV NIL=
201002200200 METAR MRPV NIL=
201002200300 METAR MRPV NIL=
201002200400 METAR MRPV NIL=
201002200500 METAR MRPV NIL=
201002200600 METAR MRPV NIL=
201002200700 METAR MRPV NIL=
201002200800 METAR MRPV NIL=
201002200900 METAR MRPV NIL=
201002201000 METAR MRPV NIL=
201002201100 METAR MRPV NIL=
201002201200 METAR MRPV 201200Z 10010KT 9999 FEW010 OVC110 21/17 A2997 RN NE NOSIG=
201002201300 METAR MRPV 201300Z 10010G20KT 9999 FEW010 OVC110 22/16 A2999 NOSIG=
201002201400 METAR MRPV 201400Z 11012KT 9999 FEW010 OVC110 22/17 A3000 NOSIG=
201002201500 METAR MRPV 201500Z 09010G20KT 9999 FEW020 OVC110 24/17 A3001 NOSIG=
201002201600 METAR MRPV 201600Z 07010G20KT 9999 FEW020 BKN120 25/17 A3001 NOSIG=
201002201700 METAR MRPV 201700Z 08010G20KT 9999 FEW020 SCT120 BKN250 26/18 A3000 NOSIG=
201002201800 METAR MRPV 201800Z 08010G20KT 9999 FEW020 SCT120 BKN250 27/17 A2997 NOSIG=
201002201900 METAR MRPV 201900Z 08010G20KT 9999 FEW020 SCT120 BKN250 28/18 A2994 NOSIG=
201002202000 METAR MRPV 202000Z 08010G20KT 9999 FEW020 SCT120 BKN250 27/18 A2992 NOSIG=
201002202100 METAR MRPV 202100Z 08010G20KT 9999 FEW020 SCT120 BKN250 26/18 A2991 RMK PCPN DST NE NOSIG=
201002202200 METAR MRPV 202200Z 08010G20KT 9999 FEW020 SCT120 BKN250 25/18 A2991 RMK PCPN DST NE NOSIG=
201002202300 METAR MRPV 202300Z 09010G20KT 9999 SCT020 BKN250 24/18 A2992 RMK PCPN DST NE NOSIG=
201002210000 METAR MRPV NIL=
201002210100 METAR MRPV NIL=
201002210200 METAR MRPV NIL=
201002210300 METAR MRPV NIL=
201002210400 METAR MRPV NIL=
201002210500 METAR MRPV NIL=
201002210600 METAR MRPV NIL=
201002210700 METAR MRPV NIL=
201002210800 METAR MRPV NIL=
201002210900 METAR MRPV NIL=
201002211000 METAR MRPV NIL=
201002211100 METAR MRPV NIL=
201002211200 METAR MRPV 211200Z 11010KT 9999 FEW015 SCT250 20/16 A2996 RMK RN NE NOSIG=
201002211300 METAR MRPV 211300Z 12010KT 9999 FEW020 22/16 A2998 RMK RN DST NE NOSIG=
201002211400 METAR MRPV 211400Z 11010KT 9999 NSC 24/16 A3000 RMK TRACE SC PCPN DST NE NOSIG=
201002211500 METAR MRPV 211500Z 11010KT 9999 NSC 25/16 A3000 RMK PCPN DST NE NOSIG=
201002211600 METAR MRPV 211600Z 07010KT 9999 NSC 27/16 A3000 RMK PCPN DST NE HZ QUAD W NOSIG=
201002211700 METAR MRPV 211700Z 09010KT 9999 FEW030 SCT250 28/17 A2997 RMK HZ DST W PCPN DST NE NOSIG=
201002211800 METAR MRPV 211800Z 07010KT 9999 FEW030 SCT250 29/17 A2995 RMK RN DST NE NOSIG=
201002211900 METAR MRPV 211900Z 07010KT 9999 FEW025 BKN250 29/18 A2991 RMK RN DST NE NOSIG=
201002212000 METAR MRPV 212000Z 08010KT 9999 SCT020TCU SCT250 28/18 A2989 RMK RN DST NE NOSIG=
201002212100 METAR MRPV 212100Z 10008KT 9999 SCT020TCU BKN250 21/18 A2988 RMK PCPN DST NE HZ W BECMG 24006KT=
201002212200 METAR MRPV NIL=
201002212300 METAR MRPV 212300Z 09010KT 9999 FEW010 BKN030 23/18 A2991 RMK PCPN HZ W TEMPO -RA=
201002220000 METAR MRPV NIL=
201002220100 METAR MRPV NIL=
201002220200 METAR MRPV NIL=
201002220300 METAR MRPV NIL=
201002220400 METAR MRPV NIL=
201002220500 METAR MRPV NIL=
201002220600 METAR MRPV NIL=
201002220700 METAR MRPV NIL=
201002220800 METAR MRPV NIL=
201002220900 METAR MRPV NIL=
201002221000 METAR MRPV NIL=
201002221100 METAR MRPV NIL=
201002221200 METAR MRPV 221200Z 00000KT CAVOK 19/17 A2992 RMK FEW120 SCT250 NOSIG=
201002221300 METAR MRPV 221300Z 07003KT CAVOK 21/17 A2993 RMK BKN250 HZ W NOSIG=
201002221400 METAR MRPV 221400Z 00000KT CAVOK 25718 A2994 RMK BKN250 HZ W TEMPO 26006KT=
201002221500 METAR MRPV 221500Z 28002KT CAVOK 27/18 A2995 RMK BKN250 HZ ARND NOSIG=
201002221600 METAR MRPV 221600Z 28005KT CAVOK 28/19 A2994 RMK BKN250 HZ ARND NOSIG=
201002221700 METAR MRPV 221700Z 30009KT 9999 SCT030 BKN250 29/19 A2993 RMK HZ ARND NOSIG=
201002221800 METAR MRPV 221800Z 28011KT 9999 SCT030 BKN250 29/19 A2991 RMK HZ ARND NOSIG=
201002221900 METAR MRPV 221900Z 25009KT 9999 SCT030 SCT250 29/19 A2990 RMK HZ ARND=
201002222000 METAR MRPV 222000Z 26009KT 9999 SCT030 29/21 A2987 RMK TCU SCT ARND HZ NOSIG=
201002222100 METAR MRPV 222100Z 28013KT 9999 SCT025TCU BKN040 27/21 A2986 RN N NE HZ ARND NOSIG=
201002222200 METAR MRPV 222200Z 29010KT 9999 SCT020TCU BKN035 25/21 A2997 RN N NE E NOSIG=
201002222300 METAR MRPV 222300Z 28010KT 8000 VCFG FEW010 SCT020 BKN040 24/21 A2988 RN N NE E NOSIG=
201002230000 METAR MRPV 230000Z 28008KT 9000 4000S BR SCT006 BKN020 24/21 A2989 TEMPO 4000 BKN010=
201002230100 METAR MRPV NIL=
201002230200 METAR MRPV NIL=
201002230300 METAR MRPV NIL=
201002230400 METAR MRPV NIL=
201002230500 METAR MRPV NIL=
201002230600 METAR MRPV NIL=
201002230700 METAR MRPV NIL=
201002230800 METAR MRPV NIL=
201002230900 METAR MRPV NIL=
201002231000 METAR MRPV NIL=
201002231100 METAR MRPV NIL=
201002231200 METAR MRPV 231200Z 00000KT 6000 VCFG FEW005 BKN100 20/19 A2994 RMK HZY TEMPO 24005KT=
201002231300 METAR MRPV 231300Z 00000KT 9000 4000W BR FEW005 BKN100 22/19 A2994 HZ ARND TEMPO 24005KT=
201002231400 METAR MRPV 231400Z 00000KT 8000 BKN100 24/19 A2995 VS W 5KM DUE HZ HZY TEMPO 24005KT=
201002231500 METAR MRPV 231500Z 27002KT 8000 BKN100 26/18 A2996 HZ ARND NOSIG=
201002231600 METAR MRPV 231600Z 28005KT 8000 FEW035 SCT100 BKN250 28/17 A2999 HZ ARND NOSIG=
201002231700 METAR MRPV 231700Z 26004KT 9999 SCT035 BKN100 28/18 A2995 HZ ARND NOSIG=
201002231800 METAR MRPV 231800Z 26008KT 9999 SCT030 BKN250 28/19 A2993 DU APP09 HZY NOSIG=
201002231900 METAR MRPV 231900Z 28010KT 9999 SCT030 BKN250 28/19 A2991 HZ ARND NOSIG=
201002232000 METAR MRPV 232000Z 27011KT 9999 SCT030 BKN250 29/19 A2988 HZ ARND TCU SCT ARND NOSIG=
201002232100 METAR MRPV 232100Z 26009KT 9999 SCT030 BKN100 28/19 A2987 RMK HZ ARND TCU SCTD ARND NOSIG=
201002232200 METAR MRPV 232200Z 27010KT 9999 SCT025 BKN100 27/18 A2987 RMK HZ ARND TCU/RASHSW NOSIG=
201002232300 METAR MRPV 232300Z 26005KT 9999 FEW015 SCT025 OVC100 24/19 A2989 RMK HZ ARND=
201002240000 METAR MRPV 240000Z NIL=
201002240100 METAR MRPV NIL=
201002240200 METAR MRPV NIL=
201002240300 METAR MRPV NIL=
201002240400 METAR MRPV NIL=
201002240500 METAR MRPV NIL=
201002240600 METAR MRPV NIL=
201002240700 METAR MRPV NIL=
201002240800 METAR MRPV NIL=
201002240900 METAR MRPV NIL=
201002241000 METAR MRPV NIL=
201002241100 METAR MRPV NIL=
201002241200 METAR MRPV 241200Z 00000KT 8000 3500E VCFH BR FEW006 BKN250 21/20 A2997 RMK VIS SE S W 4000 VIS NW N NE UNL HZ ARND TEMPO 24005KT=
201002241300 METAR MRPV 241300Z 00000KT 9999 4000W BR FEW008 BKN090 21/20 A3001 RMK HZ ARND POLVO CERCANIAS PISTA 09 TEMPO 24005KT=
201002241400 METAR MRPV 241400Z 00000KT 7000 3000W VCFG BR FEW005 BKN090 23/20 A3003 RMK HZY POLVO CERCANIAS PISTA 09 VIS N/NE UNL TEMPO 24005KT=
201002241500 METAR MRPV 241500Z 29002KT 9999 FEW015 BKN100 24/19 A3002 RMK HZ ARND NOSIG=
201002241600 METAR MRPV 241600Z 28003KT 9999 SCT020 BKN250 26/19 A3003 RMK HZ ARND NOSIG=
201002241700 METAR MRPV 241700Z 27006KT 9999 SCT030 BKN100 27/17 A3001 RMK HZ ARND NOSIG=
201002241800 METAR MRPV 241800Z 27009KT 9999 FEW035 SCT100 BKN250 27/19 A2999 RMK HZ ARND NOSIG=
201002241900 METAR MRPV 241900Z 28011KT 9999 SCT030 BKN250 26/20 A2997 RMK HZ ARND NOSIG=
201002242000 METAR MRPV 242000Z 28010KT 9999 SCT030 BKN250 27/20 A2994 RMK HZ ARND NOSIG=
201002242100 METAR MRPV 242100Z 27011KT 9999 BKN025 BKN250 26/20 A2991 RMK HZ ARND NOSIG=
201002242200 METAR MRPV 242200Z 28009KT 9999 SCT025 BKN100 25720 A2992 RMK HA ARND NOSIG=
201002242300 METAR MRPV 242300Z 28005KT 9999 SCT020 BKN040 24/20 A2993 RMK HZ ARND RNDST SE NOSIG=
201002250000 METAR MRPV NIL=
201002250100 METAR MRPV NIL=
201002250200 METAR MRPV NIL=
201002250300 METAR MRPV NIL=
201002250400 METAR MRPV NIL=
201002250500 METAR MRPV NIL=
201002250600 METAR MRPV NIL=
201002250700 METAR MRPV NIL=
201002250800 METAR MRPV NIL=
201002250900 METAR MRPV NIL=
201002251000 METAR MRPV NIL=
201002251100 METAR MRPV NIL=
201002251200 METAR MRPV 251200Z 10010KT 8000 FEW015 BKN250 22/18 A3000 RMK VIS NE W 4KM DUE HZ VL MX VTO 15KTS HZY NOSIG=
201002251300 METAR MRPV 251300Z 10009KT 9999 FEW020 SCT300 23/18 A3001 RMK VIS E W 6000 MTS HZ ARND GUST 16KT=
201002251400 METAR MRPV 251400Z 10011KT 8000 FEW025 24/18 A3004 RMK VIS E W 5000MTS DUE HZ RN DST E HZ ARND NOSIG=
201002251500 METAR MRPV 251500Z 11010KT 8000 3000 NE VCFG BR FEW010 BKN250 24/18 A3006 GUST 16KT NOSIG=
201002251600 METAR MRPV NIL=
201002251640 METAR MRPV 251640Z 10012G22KT 8000 1000E RA FEW010 BKN030 24/19 A3005 BECMG 4000 RA=
201002251700 METAR MRPV 251700Z 10010G20KT 4000 1000E +SHRA SCT010 BKN022 21/19 A3006 BECMG 6000 RA=
201002251800 METAR MRPV 251800Z 10010G20KT 3000 +SHRA SCT010 BKN020 21/19 A3005 BECMG 6000 -RA=
201002251900 METAR MRPV 251900Z 09012KT 6000 -RA FEW010 SCT025 BKN120 23/19 A3002 NOSIG=
201002252000 METAR MRPV 252000Z 12010KT 4000 RA FEW010 BKN020 21/19 A3000 BECMG 5000 -RA=
201002252100 METAR MRPV 252100Z 12010KT 5000 -RA FEW010 SCT020 BKN100 21/19 A2988 CONDICIONES VARIABLES/ PISTA MOJADA/ BECMG 4 KM -RA=
201002252200 METAR MRPV 252200Z 12010KT 6000 -RA FEW010 BKN090 21/19 A2997 RMK VEL MAX VTO 16KT BECMG 4000 -RA=
201002252300 METAR MRPV 252300Z 10010KT 8000 -RA FEW010 BKN100 21/18 A2998 RMK RWY WET NOSIG=
201002260000 METAR MRPV NIL=
201002260100 METAR MRPV NIL=
201002260200 METAR MRPV NIL=
201002260300 METAR MRPV NIL=
201002260400 METAR MRPV NIL=
201002260500 METAR MRPV NIL=
201002260600 METAR MRPV NIL=
201002260700 METAR MRPV NIL=
201002260800 METAR MRPV NIL=
201002260900 METAR MRPV NIL=
201002261000 METAR MRPV NIL=
201002261100 METAR MRPV NIL=
201002261200 METAR MRPV 261200Z 10009KT 9999 SCT020 SCT250 20/16 A2998 RMK DZ DST N/NE/E VEL.MAX.VTO. 14KT NOSIG=
201002261300 METAR MRPV 261300Z 11010KT 9999 FEW025 SCT110 20/16 A2999 RMK DZ DST N/NE/E NOSIG=
201002261400 METAR MRPV 261400Z 11008KT 9999 SCT025 BKN250 21/17 A3002 RMK DZ DST N/NE/E VEL MAX VTO 14KT NOSIG=
201002261500 METAR MRPV 261500Z 10010G20KT 9999 FEW020 SCT110 23/17 A3003 RMK RN DST N/NE NOSIG=
201002261600 METAR MRPV 261600Z 11010KT 9999 FEW020 SCT110 23/17 A3004 RMK VEL MAX VTO 16KT RN DST NE/E NOSIG=
201002261700 METAR MRPV 261700Z 09010G20KT 9999 FEW020 SCT110 25/18 A3001 RMK RN DST NE NOSIG=
201002261800 METAR MRPV 261800Z 10010G20KT 9999 FEW020 SCT110 26/18 A2998 RMK RN DST NE NOSIG=
201002261900 METAR MRPV 261900Z 11010KT 9999 FEW020 SCT110 26/18 A2996 RMK RN DST NE NOSIG=
201002262000 METAR MRPV 262000Z 10010KT 9999 FEW020 SCT110 28/18 A2993 RMK RN DST NE NOSIG=
201002262100 METAR MRPV 262100Z VRB02KT 9999 SCT010 BKN030 27/18 A2992 RMK RN NE BECMG 24006KT=
201002262200 METAR MRPV 262200Z 24006KT 9999 4000W BR SCT008 BKN025 24/20 A2993 RMKRN NE BECMG 6000 -RA VCFG=
201002262300 METAR MRPV 262300Z 27008KT 6000 VCFG SCT002 BKN015 23/20 A2995 RMK RN NE TEMPO 3000 -RA BR=
201002270000 METAR MRPV NIL=
201002270100 METAR MRPV NIL=
201002270200 METAR MRPV NIL=
201002270300 METAR MRPV NIL=
201002270400 METAR MRPV NIL=
201002270500 METAR MRPV NIL=
201002270600 METAR MRPV NIL=
201002270700 METAR MRPV NIL=
201002270800 METAR MRPV NIL=
201002270900 METAR MRPV NIL=
201002271000 METAR MRPV NIL=
201002271100 METAR MRPV NIL=
201002271200 METAR MRPV NIL=
201002271300 METAR MRPV 271300Z 00000KT CAVOK 21/19 A2999 RMK HZ ARND DU 09 BKN120 NOSIG=
201002271400 METAR MRPV 271400Z 00000KT CAVOK 23/18 A3001 RMK HZ ARND DU09 BKN120 NOSIG=
201002271500 METAR MRPV 271500Z VRB03KT CAVOK 25/18 A3003 RMK HZ ARND DU09 BKN120 NOSIG=
201002271600 METAR MRPV 271600Z 05004KT CAVOK 27/18 A3002 RMK VIS W 5000 DUE HZ BKN120 HZ ARND=
201002271700 METAR MRPV 271700Z 10010KT 9000 FEW030 BKN250 28/18 A3000 RMK VL MX VTO 16KT VIS W 5000 NOSIG=
201002271800 METAR MRPV 271800Z 08010KT 9999 3000 NE VCSH SCT025 BKN250 27/18 A2998 RMK VIS 5000 W HZ ARND NOSIG=
201002271900 METAR MRPV 271900Z 08010KT 9000 3000NE VCSH SCT020 BKN250 27/17 A2996 RMK HZ ARND VIS W 5000 NOSIG=
201002272000 METAR MRPV 272000Z 09010KT 7000 2000NE VCFG VCSH SCT010TCU SCT030 27/19 A2995 BECMG 5000 -RA BR=
201002272100 METAR MRPV 272100Z 08010KT 7000 2000NE VCFG VCSH SCT020TCU SCT030 28/18 A2991 BECMG 5000 -RABR=
201002272200 METAR MRPV 272200Z 07010G20KT 5000 2000NE BR VCSH SCT010TCU SCT030 26/17 A2992 BECMG 3000 SHRA=
201002272300 METAR MRPV 272300Z 09011KT 5000 2000NE BR VCSH SCT010 SCT030 25/17 A2995 VT MAX 17KTS BECMG 3000 RA=
201002272356 METAR MRPV 280000Z NIL=
201002280000 METAR MRPV NIL=
201002280100 METAR MRPV NIL=
201002280200 METAR MRPV NIL=
201002280300 METAR MRPV NIL=
201002280400 METAR MRPV NIL=
201002280500 METAR MRPV NIL=
201002280600 METAR MRPV NIL=
201002280700 METAR MRPV NIL=
201002280800 METAR MRPV NIL=
201002280900 METAR MRPV NIL=
201002281000 METAR MRPV NIL=
201002281100 METAR MRPV NIL=
201002281200 METAR MRPV 281200Z 10012KT 9999 SCT020 BKN250 21/17 A3000 RMK VEL MAX VTO 20KT DZ DST N/NE NOSIG=
201002281300 METAR MRPV 281300Z 10013KT 9999 SCT020 SCT250 21/17 A3001 VEL MAX VTO 22KTS DZ CHECK TEXT NEW ENDING ADDED KATLYTAA=
201002281400 METAR MRPV 281400Z 08014KT 9999 BKN020 22/17 A3003 VEL MX 21KTS DZ N NE NOSIG=
201002281500 METAR MRPV 281500Z 08017KT 9999 SCT020 23/17 A3003 DZ N NE VEL MX 24KTS NOSIG=
201002281600 METAR MRPV 281600Z 08018KT 9999 SCT020 23/17 A3003 DZ N NE VEL MAX 24KTS NOSIG=
201002281700 METAR MRPV 281700Z 08021KT 9999 SCT020 24/16 A3001 VEL MAX VTO 30KTS DZ N NE NOSIG=
201002281800 METAR MRPV 281800Z 07020G30KT 9999 SCT020 24/17 A3000 DZ N NE NOSIG=
201002281900 METAR MRPV 281900Z 07020G30KT 9999 FEW020 SCT035 25/17 A2997 DZ N NE NOSIG=
201002282000 METAR MRPV NIL=
201002282100 METAR MRPV 282100Z 09018KT 9999 BKN020 23/16 A2993 RMK VEL.MAX.VTO. 26KT DZ DST NE NOSIG=
201002282200 METAR MRPV 202200Z 09015KT 9999 FEW020 SCT035 22/16 A2993 RMK VEL.MAX.VTO. 22KT DZ NE NOSIG=
201002282300 METAR MRPV 282300Z 08019KT 9999 SCT020 SCT150 21/15 A2995 RMK VEL.MAX.VTO. 26KT DZ NE NOSIG=
201003010000 METAR MRPV 010000Z NIL=
201003010100 METAR MRPV NIL=
201003010200 METAR MRPV NIL=
201003010300 METAR MRPV NIL=
201003010400 METAR MRPV NIL=
201003010500 METAR MRPV NIL=
201003010600 METAR MRPV NIL=
201003010700 METAR MRPV NIL=
201003010800 METAR MRPV NIL=
201003010900 METAR MRPV NIL=
201003011000 METAR MRPV NIL=
201003011100 METAR MRPV NIL=
201003011200 METAR MRPV 011200Z 12010KT 9999 FEW030 21/17 A2997 RMK FEW120 DZ DST NE VL MX VTO 18KT NOSIG=
201003011300 METAR MRPV 011300Z 12007KT 9999 FEW030 21/17 A2997 RMK FEW120 VEL MAX VIENTO 12KT NOSIG=
201003011400 METAR MRPV 011400Z 12011KT CAVOK 23/17 A2999 RMK FEW120 FEW250 VEL.MAX.VTO. 19KT NOSIG=
201003011500 METAR MRPV 011500Z 09011KT 9999 FEW030 24/17 A3000 NOSIG=
201003011600 METAR MRPV 011600Z 11012KT 9999 FEW030 25/17 A3002 NOSIG=
201003011700 METAR MRPV 011700Z 11011KT 9999 FEW030 26/18 A3000 NOSIG=
201003011800 METAR MRPV 011800Z 09010KT 9999 SCT035 27/18 A2997 NOSIG=
201003011900 METAR MRPV 01900Z 06010KT 9999 SCT035 28/18 A2995 RMK TCU DST S NOSIG=
201003012000 METAR MRPV 012000Z 08010KT 9999 FEW020TCU SCT035 28/18 A2992 RMK CB/RASH S TEMPO 24006KT=
201003012100 METAR MRPV 012100Z 09007KT 9999 4000SW TSRA FEW010CB SCT020 BKN100 26/18 A2991 TEMPO 5000 SH BKN010=
201003012200 METAR MRPV 012200Z 00000KT 9999 RA SCT010 BKN030 22/20 A2993 TEMPO BKN010=
201003012300 METAR MRPV 012300Z 00000KT 9999 BKN020 OVC100 22/20 A2993 NOSIG=
201003020000 METAR MRPV NIL=
201003020100 METAR MRPV NIL=
201003020200 METAR MRPV NIL=
201003020300 METAR MRPV NIL=
201003020400 METAR MRPV NIL=
201003020500 METAR MRPV NIL=
201003020600 METAR MRPV NIL=
201003020700 METAR MRPV NIL=
201003020800 METAR MRPV NIL=
201003020900 METAR MRPV NIL=
201003021000 METAR MRPV NIL=
201003021100 METAR MRPV NIL=
201003021200 METAR MRPV 021200Z 10002KT CAVOK 18/17 A2995 BKN250 LGT HZ ARND NOSIG=
201003021300 METAR MRPV 021300Z 09003KT 9999 NSC 21/17 A2997 RMK TRACE CI HZ LEVE ARND DU APROXIMACION 09 TEMPO 24005KT=
201003021400 METAR MRPV 021400Z 00000KT 9999 SKC 25/18 A2999 RMK HZ LEVE ARND DU APROXIMA CION 09 TEMPO 24005KT=
201003021500 METAR MRPV 021500Z 00000KT 9999 SKC 27/17 A2999 HZ ARND TRACE SCT CI NOSIG=
201003021600 METAR MRPV 021600Z 00000KT 9999 FEW040 29/17 A2998 RMK HZ ARND TEMPO 24006KT=
201003021700 METAR MRPV 021700Z 27007KT 9999 SCT040 29/18 A2997 RMK HZ ARND NOSIG=
201003021800 METAR MRPV 021800Z 27009KT 9999 SCT040 29/16 A2995 RMK HZ ARND NOSIG=
201003021900 METAR MRPV 021900Z 28010KT 9999 SCT040 30/17 A2992 RMK HZ ARND=
201003022000 METAR MRPV 022000Z 25007KT 9999 SCT040 29/20 A2990 RMK TCU SCT ARND HZ ARND NOSIG=
201003022100 METAR MRPV 022100Z 27010KT 9999 SCT040 28/21 A2989 RMK TCU SCT ARND RN DST SE VEL MAX VTO 17KT NOSIG=
201003022200 METAR MRPV 022200Z 27010KT 9999 FEW025TCU SCT040 25/20 A2991 RMK VEL MAX VTO 16KT TCU SCT ARND NOSIG=
201003022300 METAR MRPV 022300Z 27008KT 9999 BKN025 25/19 A2993 RMK HZ LGT ARND NOSIG=
201003030000 METAR MRPV NIL=
201003030100 METAR MRPV NIL=
201003030200 METAR MRPV NIL=
201003030300 METAR MRPV NIL=
201003030400 METAR MRPV NIL=
201003030500 METAR MRPV NIL=
201003030600 METAR MRPV NIL=
201003030700 METAR MRPV NIL=
201003030800 METAR MRPV NIL=
201003030900 METAR MRPV NIL=
201003031000 METAR MRPV NIL=
201003031100 METAR MRPV NIL=
201003031200 METAR MRPV 031200Z 10009KT 9999 FEW030 SCT250 22/17 A2997 DZ N NE E VEL MX 14KTS NOSIG=
201003031300 METAR MRPV 031300Z 10008KT 9999 FEW030 SCT250 22/17 A2999 RMK LGT HZ ARND DZ DST NE VEL MAX VTO 13KT NOSIG=
201003031400 METAR MRPV 031400Z 10012KT 9999 SCT030 23/17 A3001 RMK LGT HZ ARND VEL MAX VTO 18KT DZ DST N/NE NOSIG=
201003031500 METAR MRPV 031500Z 07010G20KT 9999 FEW012 BKN030 23/17 A3003 RMK RN DST N/NE NOSIG=
201003031600 METAR MRPV 031600Z 07010G20KT 9999 FEW015 SCT030 24/16 A3003 RMK RN DST N/NE NOSIG=
201003031700 METAR MRPV 031700Z 07011G21KT 9999 FEW015 SCT030 26/16 A3003 RMK RN DST NE NOSIG=
201003031800 METAR MRPV 031800Z 10010G20KT 9999 FEW015 SCT030 26/17 A3000 RMK RN DST NE/E NOSIG=
201003031900 METAR MRPV 031900Z 08010G20KT 9999 FEW015 SCT030 26/17 A2998 RMK RN DST NE/E NOSIG=
201003032000 METAR MRPV 032000Z 09010G20KT FEW015 SCT030 27/17 A2995 RMK RN DST NE NOSIG=
201003032100 METAR MRPV 032100Z 10010G20KT 9999 FEW015 SCT030 26/17 A2995 RMK RN NE TCU DST N NOSIG=
201003032200 METAR MRPV 032200Z 08010G20KT 9999 FEW015 SCT030 25/17 A2995 RMK PCPN NE TCU N NOSIG=
201003032300 METAR MRPV 032300Z 09010G20KT 9999 SCT015 BKN030 24/17 A2996 RMK PCPN N NE NOSIG=
201003040000 METAR MRPV 040000Z NIL=
201003040100 METAR MRPV NIL=
201003040200 METAR MRPV NIL=
201003040300 METAR MRPV NIL=
201003040400 METAR MRPV NIL=
201003040500 METAR MRPV NIL=
201003040600 METAR MRPV NIL=
201003040700 METAR MRPV NIL=
201003040800 METAR MRPV NIL=
201003040900 METAR MRPV NIL=
201003041000 METAR MRPV NIL=
201003041100 METAR MRPV NIL=
201003041200 METAR MRPV 041200Z 11012KT 9999 FEW025 SCT250 21/17 A2999 RMK DZ DST N NE E VEL.MAX.VTO 19KT NOSIG=
201003041300 METAR MRPV 041300Z 10010KT 9999 FEW025 SCT250 21/17 A3001 RMK DZ N NE E VL MX VTO 16KT DU 09 NOSIG=
201003041400 METAR MRPV 041400Z 12011KT 9999 FEW025 23/17 A3003 RMK DZ N NE FEW250 VL MX VTO 18KT NOSIG=
201003041500 METAR MRPV 041500Z 11010G20KT 9999 FEW015 SCT250 23/17 A3004 RMK RZ N NE NOSIG=
201003041600 METAR MRPV 041600Z 10010G20KT 9999 SCT015 24/17 A3004 RMK RN DST NE NOSIG=
201003041700 METAR MRPV 041700Z 11010G20KT 9999 SCT020 24/17 A3002 RMK RN N NE NOSIG=
201003041800 METAR MRPV 041800Z 10010G20KT 9999 SCT020 24/17 A3000 RMK RN DST N NE NOSIG=
201003041900 METAR MRPV 041900Z 09014G24KT 9999 SCT020 25/17 A2998 RMK RN DST N NE NOSIG=
201003042000 METAR MRPV 042000Z 09012G22KT 9999 FEW015 BKN030 25/17 A2996 RMK DZ N NE NOSIG=
201003042100 METAR MRPV 042100Z 10010G20KT 9999 FEW015 SCT030 25/17 A2994 RN NE NOSIG=
201003042200 METAR MRPV 042200Z 09010G20KT 9999 FEW012 SCT030 25/17 A2994 RN NE E NOSIG=
201003042300 METAR MRPV 042300Z 10010G20KT 9999 FEW012 SCT030 23/17 A2995 RN NE NOSIG=
201003050000 METAR MRPV 050000Z NIL=
201003050100 METAR MRPV 050100Z NIL=
201003050200 METAR MRPV NIL=
201003050300 METAR MRPV NIL=
201003050400 METAR MRPV NIL=
201003050500 METAR MRPV NIL=
201003050600 METAR MRPV NIL=
201003050700 METAR MRPV NIL=
201003050800 METAR MRPV NIL=
201003050900 METAR MRPV NIL=
201003051000 METAR MRPV NIL=
201003051100 METAR MRPV NIL=
201003051200 METAR MRPV 051200Z 11011KT 9999 FEW025 SCT250 21/16 A3000 RMK DZ DST N/NE/E VEL MAX VTO 18KT NOSIG=
201003051300 METAR MRPV 051300Z 11012KT 9999 FEW025 BKN250 21/16 A3001 DZ N NE E VEL MAX VTO 18KTS NOSIG=
201003051400 METAR MRPV 051400Z 11013KT 9999 SCT025 SCT250 22/16 A3001 DZ N NE E VEL MX 20KTS NOSIG=
201003051500 METAR MRPV 051500Z 12010G20KT 9999 SCT015 BKN250 22/17 A3003 RN NE N NOSIG=
201003051600 METAR MRPV 051600Z 10013G23KT 9999 SCT015 SCT250 23/16 A3002 RN DIST N NE NOSIG=
201003051700 METAR MRPV 051700Z 10010G20KT 9999 SCT015 SCT250 23/17 A3001 RN N NE=
201003051800 METAR MRPV 051800Z 09013G23KT 9999 FEW012 SCT030 25/17 A2998 RN N NE NOSIG=
201003051900 METAR MRPV 051900Z 09010G20KT 9999 FEW012 SCT030 24/17 A2996 RN NE TCU DST SW NOSIG=
201003052000 METAR MRPV 052000Z 10012G22KT 9999 FEW012 SCT030 24/17 A2995 RN NE NOSIG=
201003052100 METAR MRPV 052100Z 10011G21KT 9999 FEW012 SCT030 24/17 A2993 RMK RN DST NE=
201003052200 METAR MRPV 052200Z 11010G20KT 9999 FEW010 SCT030 23/17 A2991 RMK RN DST NE NOSIG=
201003052300 METAR MRPV 052300Z 10012G22KT 9999 SCT010 SCT030 22/17 A2992 RMK RN DST NE NOSIG=
201003060000 METAR MRPV NIL=
201003060100 METAR MRPV NIL=
201003060200 METAR MRPV NIL=
201003060300 METAR MRPV NIL=
201003060400 METAR MRPV NIL=
201003060500 METAR MRPV NIL=
201003060600 METAR MRPV NIL=
201003060700 METAR MRPV NIL=
201003060800 METAR MRPV NIL=
201003060900 METAR MRPV NIL=
201003061000 METAR MRPV NIL=
201003061100 METAR MRPV NIL=
201003061200 METAR MRPV 061200Z 11012KT 9999 SCT020 BKN250 18/15 A2988 RMK VL MX VTO 18KT=
201003061300 METAR MRPV 061300Z 11012KT 9999 SCT020 BKN250 19/15 A2999 RMK VEL. MAX. VTO 18KT NOSIG=
201003061400 METAR MRPV 061400Z 11012KT 9999 SCT020 BKN250 20/15 A3001 RMK VEL.MAX.VTO 19KT NOSIG=
201003061500 METAR MRPV 061500Z 08018KT 9999 SCT025 BKN250 25/15 A3002 RMK VEL.MAX/VTO 24KT NOSIG=
201003061600 METAR MRPV 061600Z 10013KT 9999 SCT030 BKN250 23/16 A3002 RMK VEL.MAX.MAX 20KT NOSIG=
201003061700 METAR MRPV 061700Z 08017KT 9999 FEW025 BKN250 24/16 A2999 RMK VEL.MAX.VTO 26KT NOSIG=
201003061800 METAR MRPV 061800Z 08018KT 9999 FEW030 BKN250 25/16 A2995 RMK VEL.MAX.VTO.24KT NOSIG=
201003061900 METAR MRPV 061900Z 08019KT 9999 FEW035 BKN250 25/16 A2996 RMK VEL.MAX.VTO 26KT NOSIG=
201003062000 METAR MRPV 062000Z 08016KT 9999 FEW035 BKN250 25/16 A2994 VEL/MAX VIENTO 22NUDOS=
201003062100 METAR MRPV 062100Z 09016KT 9999 SCT030 BKN250 23/15 A2993 RMK GUST 25KT NOSI G=
201003062200 METAR MRPV 062200Z 10013KT 9999 SCT020 BKN250 22/15 A2994 RMK GUST 22KT NOSI G=
201003062300 METAR MRPV 062300Z 11014KT 9999 SCT020 BKN250 21/16 A2996 RMK DZ NE=
201003070000 METAR MRPV NIL=
201003070100 METAR MRPV NIL=
201003070300 METAR MRPV NIL=
201003070400 METAR MRPV NIL=
201003070500 METAR MRPV NIL=
201003070600 METAR MRPV NIL=
201003070700 METAR MRPV NIL=
201003070800 METAR MRPV NIL=
201003070900 METAR MRPV NIL=
201003071000 METAR MRPV NIL=
201003071100 METAR MRPV NIL=
201003071200 METAR MRPV 071200Z 11012KT 9999 SCT020 BKN300 18/14 A2999 RMK VEL.MAX.VTO.20KT NOSIG=
201003071300 METAR MRPV 071300Z 10013KT 9999 SCT020 BKN300 19/14 A3001 RMK GUST 20KT NOSI G=
201003071400 METAR MRPV 071400Z 11010KT 9999 FEW020 SCT300 20/14 A3004 RMK GUST 17KT NOSIG=
201003071500 METAR MRPV 071500Z 11012KT 9999 SCT020 21/15 A3005 RMK GUST 18KT NOSIG=
201003071600 METAR MRPV 071600Z 10012KT 9999 SCT020 22/15 A3004 RMK GUST 20KT NOSIG=
201003071700 METAR MRPV 071700Z 08016KT 9999 SCT030 23/15 A3002 RMK GUST 22KT NOSIG=
201003071800 METAR MRPV 071800Z 08017KT 9999 FEW030 23/15 A3000 RMK GUST 26KT NOSIG=
201003071900 METAR MRPV 071900Z 08017KT 9999 FEW030 24/15 A2997 RMK GUST 24KT NOSIG=
201003072000 METAR MRPV 072000Z 08015KT 9999 SCT030 25/15 A2996 RMK 24KT NOSIG=
201003072100 METAR MRPV 072100Z 09013KT 9999 SCT030 23/15 A2996 RMK VEL MAX VTO 19KT NOSIG=
201003072200 METAR MRPV 072200Z 10013KT 9999 SCT025 21/15 A2995 RMK VEL MAX VTO 20KT DZ DST NE NOSIG=
201003072300 METAR MRPV 072300Z 10015KT 9999 SCT020 22/15 A2996 RMK VEL MAX VTO 22KT DZ DST NE NOSIG=
201003080000 METAR MRPV NIL=
201003080100 METAR MRPV NIL=
201003080200 METAR MRPV NIL=
201003080300 METAR MRPV NIL=
201003080400 METAR MRPV NIL=
201003080500 METAR MRPV NIL=
201003080600 METAR MRPV NIL=
201003080700 METAR MRPV NIL=
201003080800 METAR MRPV NIL=
201003080900 METAR MRPV NIL=
201003081000 METAR MRPV NIL=
201003081100 METAR MRPV NIL=
201003081200 METAR MRPV 081200Z 12010KT 9999 FEW030 SCT300 19/15 A2999 RMK VEL.MAX.VTO 17KT DZ DST NE NOSIG=
201003081259 METAR MRPV 031300Z 12011KT 9999 FEW025 20/15 A3000 RMK VEL MAX VTO 16KT DZ DST NE NOSIG=
201003081300 METAR MRPV NIL=
201003081400 METAR MRPV 081400Z 11013KT 9999 FEW030 SCT300 21/15 A3002 RMK DZ DST NE NOSIG=
201003081500 METAR MRPV 081500Z 10011KT 9999 FEW025 SCT300 21/15 A3003 RMK VEL MAX VTO 18KT NOSIG=
201003081600 METAR MRPV 081600Z 08014KT 9999 FEW030 SCT300 23/15 A3002 RMK VEL MAX VTO 20KT NOSIG=
201003081700 METAR MRPV 081700Z 08016KT 9999 FEW030 SCT300 24/15 A2999 RMK VEL MAX VTO 22KT NOSIG=
201003081800 METAR MRPV 081800Z 08015KT 9999 FEW030 SCT300 25/15 A2997 RMK VEL MAX 23KT NOSIG=
201003081900 METAR MRPV 081900Z 08015KT CAVOK 25/16 A2993 RMK SCT300 VEL MAX VTO 20KT NOSIG=
201003082000 METAR MRPV 082000Z 08016KT CAVOK 25/16 A2991 RMK SCT300 NOSIG=
201003082100 METAR MRPV 082100Z 08016KT 9999 FEW030 SCT300 25/16 A2990 NOSIG=
201003082200 METAR MRPV 082200Z 09014KT 9999 FEW030 SCT300 24/16 A2990 NOSIG=
201003082300 METAR MRPV 082300Z 09012KT 9999 FEW030 BKN300 22/16 A2991 NOSIG=
201003090000 METAR MRPV NIL=
201003090100 METAR MRPV NIL=
201003090200 METAR MRPV NIL=
201003090300 METAR MRPV NIL=
201003090400 METAR MRPV NIL=
201003090500 METAR MRPV NIL=
201003090600 METAR MRPV NIL=
201003090700 METAR MRPV NIL=
201003090800 METAR MRPV NIL=
201003090900 METAR MRPV NIL=
201003091000 METAR MRPV NIL=
201003091100 METAR MRPV NIL=
201003091200 METAR MRPV 091200Z 11006KT CAVOK 18/14 A2996 RMK FEW250 NOSIG=
201003091300 METAR MRPV 091300Z 11005KT CAVOK 20/14 A2998 RMK FEW250 NOSIG=
201003091400 METAR MRPV 091400Z 08006KT CAVOK 22/14 A2998 RMK FEW250 HZ KGT W NOSIG=
201003091500 METAR MRPV 091500Z 06004KT CAVOK 23/15 A2998 RMK HZ LGT W FEW250 BECMG 24006KT=
201003091600 METAR MRPV 091600Z 28002KT CAVOK 28/15 A2997 RMK FEW250 HZ LGT W NOSIG=
201003091700 METAR MRPV 091700Z 29003KT CAVOK 30/16 A2994 RMK FEW250 HZ LGT ARND NOSIG=
201003091800 METAR MRPV 091800Z 28008KT CAVOK 30/15 A2992 RMK BKN300 HZ LGT ARND VL MX VTO 15KT NOSIG=
201003091900 METAR MRPV 091900Z 27010KT 9999 FEW030 SCT300 31/18 A2989 RMK VL MX VTO 15KT HZ LGT W NOSIG=
201003092000 METAR MRPV 092000Z 27010KT 9999 FEW030 BKN300 30/19 A2988 RMK VL MX VTO 15KT HZ W NOSIG=
201003092100 METAR MRPV 092100Z 26010KT 9999 SCT030 30/19 A2986 HZ ARND NOSIG=
201003092200 METAR MRPV NIL=
201003092300 METAR MRPV 092300Z 28010KT 7000 VCFG SCT020 26/20 A2988 BECMG 5000 BR VEL MX 15KTS=
201003100000 METAR MRPV 100000Z NIL=
201003100100 METAR MRPV 100100Z NIL=
201003100200 METAR MRPV 100200Z NIL=
201003100300 METAR MRPV NIL=
201003100400 METAR MRPV NIL=
201003100500 METAR MRPV NIL=
201003100600 METAR MRPV NIL=
201003100700 METAR MRPV NIL=
201003100800 METAR MRPV NIL=
201003100900 METAR MRPV NIL=
201003101000 METAR MRPV NIL=
201003101100 METAR MRPV NIL=
201003101200 METAR MRPV 101200Z 00000KT 9999 VCFG FEW030 SCT090 19/17 A2996 RMK VIS SE 6KM DU APCH 09 HZ ARND NOSIG=
201003101300 METAR MRPV 101300Z 00000KT 9999 VCFG SCT090 20/17 A2998 VIS E 7KM HZY DU NEAR APP09 TEMPO 24005KT=
201003101400 METAR MRPV 101400Z 00000KT 9000 NSC 23/18 A2998 TRACE SCT AC VS E W 6KM DUE HZ HZY DU APP09 TEMPO 24005KT=
201003101500 METAR MRPV 101500Z 25004KT 8000 VCFG FEW030 26/17 A2999 NOSIG=
201003101600 METAR MRPV 101600Z 24004KT 8000 VCFG FEW030 28/17 A2999 NOSIG=
201003101700 METAR MRPV 101700Z 27007KT 9999 FEW025 28/17 A2997 VS E 6KM DUE HZ NOSIG=
201003101800 METAR MRPV 101800Z 25004KT 9999 FEW022 30/17 A2994 VIS E 6KM DUE HZ NOSIG=
201003101900 METAR MRPV 101900Z 27010KT 9000 FEW022 30/18 A2991 HZ ARND NOSIG=
201003102000 METAR MRPV 102000Z 27010KT 9999 SCT022 29/18 A2988 RMK ARND NOSIG=
201003102100 METAR MRPV 102100Z 27010KT 9000 FEW015TCU SCT030 29/19 A2988 RMK HZ ARND VEL.MAX.VTO 15KT NOSIG=
201003102200 METAR MRPV 102200Z 24008KT 9999 FEW012TCU SCT030 29/19 A2988 RMK HZ ARND RN DST E NOSIG=
201003102300 METAR MRPV 102300Z 26008KT 8000 VCFG FEW010 BKN030 26/19 A2990 NOSIG=
201003110000 METAR MRPV NIL=
201003110100 METAR MRPV NIL=
201003110200 METAR MRPV NIL=
201003110300 METAR MRPV NIL=
201003110400 METAR MRPV NIL=
201003110500 METAR MRPV NIL=
201003110600 METAR MRPV NIL=
201003110700 METAR MRPV NIL=
201003110800 METAR MRPV NIL=
201003110900 METAR MRPV NIL=
201003111000 METAR MRPV NIL=
201003111100 METAR MRPV NIL=
201003111200 METAR MRPV 111200Z 08002KT 9999 FEW030 SCT100 19/17 A2997 RMK VIS W 5000 DUE HZ DU 09 HZ ARND NOSIG=
201003111300 METAR MRPV 111300Z 00000KT 8000 3500W HZ NSC 20/17 A2999 RMK TRACE SC CI TEMPO 24005KT=
201003111400 METAR MRPV 111400Z 00000KT 8000 3500W HZ NSC 23/18 A3000 RMK TRACE SC POLVO APROXIMACION PISTA 09 TEMPO 24005KT=
201003111500 METAR MRPV 111500Z VRB02KT 8000 3500W HZ FEW030 26/17 A3000 BECMG 24006KT=
201003111600 METAR MRPV 111600Z 26008KT 8000 3500E HZ FEW030 27/18 A3000 NOSIG=
201003111700 METAR MRPV 111700Z 27006KT 8000 3500E HZ SCT025 28/18 A2998 NOSIG=
201003111800 METAR MRPV 111800Z 26010KT 8000 3500E HZ SCT025 29/18 A2996 NOSIG=
201003111900 METAR MRPV 111900Z 25008KT 8000 3500E HZ SCT025 28/18 A2992 RMK TCU DST SW NE NOSIG=
201003112000 METAR MRPV 112000Z 26008KT 8000 3500E HZ SCT022 27/19 A2989 TCU N NE NOSIG=
201003112100 METAR MRPV 112100Z 25010KT 8000 3500E HZ FEW010TCU SCT030 28/18 A2987 NOSIG=
201003112200 METAR MRPV 112200Z 27010KT 8000 3500E HZ SCT010TCU SCT030 26/19 A2987 BECMG 4000 VCSH=
201003112300 METAR MRPV 112300Z 26008KT 9000 4000E HZ FEW010TCU SCT030 25/19 A2988 BECMG 4000 VCSH=
201003120000 METAR MRPV NIL=
201003120100 METAR MRPV NIL=
201003120200 METAR MRPV NIL=
201003120300 METAR MRPV NIL=
201003120400 METAR MRPV NIL=
201003120500 METAR MRPV NIL=
201003120600 METAR MRPV NIL=
201003120700 METAR MRPV NIL=
201003120800 METAR MRPV NIL=
201003120900 METAR MRPV NIL=
201003121000 METAR MRPV NIL=
201003121100 METAR MRPV NIL=
201003121200 METAR MRPV 121200Z 00000KT 9000 4000W HZ BKN250 20/19 A2996 DU APP09=
201003121300 METAR MRPV 121300Z 08002KT 9000 4000W HZ BKN250 21/19 A2998 RMK DU APROXIMAC ION 09 TEMPO 24005KT=
201003121400 METAR MRPV 121400Z 07002KT 9999 4000W HZ BKN250 23/19 A2999 RMK DU APROXIMAC ION 09 TEMPO 24005KT=
201003121500 METAR MRPV 121500Z 00000KT CAVOK 26/19 A2999 RMK BKN250 DU HZ W TEMPO 24005K T=
201003121600 METAR MRPV 121600Z 25003KT 9999 FEW040 BKN250 28/17 A2999 NOSIG=
201003121700 METAR MRPV 121700Z 26007KT 9999 FEW040 BKN250 29/17 A2996 NOSIG=
201003121800 METAR MRPV 121800Z 27009KT 9999 SCT040 BKN250 30/17 A2993 NOSIG=
201003121900 METAR MRPV 121900Z 27008KT 9999 FEW040 BKN250 31/18 A2990 NOSIG=
201003122000 METAR MRPV 122000Z 27010KT 9999 SCT040 BKN250 30/19 A2987 NOSIG=
201003122100 METAR MRPV NIL=
201003122200 METAR MRPV 122200Z 27011KT 9999 SCT035 28/19 A2987 NOSIG=
201003122300 METAR MRPV 122300Z 26006KT 9999 SCT025 BKN250 26/20 A2988 HZ ARND NOSIG=
201003130000 METAR MRPV NIL=
201003130100 METAR MRPV NIL=
201003130200 METAR MRPV NIL=
201003130300 METAR MRPV NIL=
201003130400 METAR MRPV NIL=
201003130500 METAR MRPV NIL=
201003130600 METAR MRPV NIL=
201003130700 METAR MRPV NIL=
201003130800 METAR MRPV NIL=
201003130900 METAR MRPV NIL=
201003131000 METAR MRPV NIL=
201003131100 METAR MRPV NIL=
201003131200 METAR MRPV 131200Z 00000KT 1000 BR VV///001 20/20 A2997 TEMPO 3000 BR=
201003131300 METAR MRPV 131300Z 00000KT 5000 BR SCT015 BKN250 21/21 A2999 TEMPO 9999=
201003131400 METAR MRPV 131400Z 00000KT 9999 FEW035 SCT250 25/20 A3000 RMK HZ LGT ARND NOSIG=
201003131500 METAR MRPV 131500Z 00000KT 9999 SCT040 28/18 3000 RMK HZ ARND DU W TEMPO 24006KT=
201003131600 METAR MRPV 131600Z 22002KT 9999 SCT040 29/18 A2998 RMK HZ ARND NOSIG=
201003131700 METAR MRPV 131700Z 29003KT 9999 BKN035 29/19 A2996 NOSIG=
201003131800 METAR MRPV 131800Z 26009KT 9999 FEW015 BKN025 29/19 A2993 RMK HZ LGT ARND VIS N 5KM DUE ST/HZ NOSIG=
201003131900 METAR MRPV 131900Z 26010KT 9999 4000N HZ SCT010 BKN020 27/20 A2991 TEMPO 3000=
201003132000 METAR MRPV 132000Z 25007KT 9000 4000N HZ BR SCT008 BKN020 26/20 A2990 NOSIG=
201003132100 METAR MRPV 132100Z 27003KT 9000 SCT010 BKN020 25/17 A2989 RMK HZ ARND NOSIG=
201003132200 METAR MRPV 132200Z 00000KT 9999 SCT015 BKN100 26/17 A2989 RMK RN DST E NOSIG=
201003132300 METAR MRPV 132300Z 09010KT 9999 SCT025 BKN100 25/16 A2989 RMK RN DST E NOSIG=
201003140000 METAR MRPV 140000Z 09014KT 9999 SCT015 BKN030 24/16B A2991 RMK HZ ARND NOSIG=
201003140100 METAR MRPV NIL=
201003140200 METAR MRPV NIL=
201003140300 METAR MRPV NIL=
201003140400 METAR MRPV NIL=
201003140500 METAR MRPV NIL=
201003140600 METAR MRPV NIL=
201003140700 METAR MRPV NIL=
201003140800 METAR MRPV NIL=
201003140900 METAR MRPV NIL=
201003141000 METAR MRPV NIL=
201003141100 METAR MRPV NIL=
201003141200 METAR MRPV 141200Z 11007KT 9999 FEW035 BKN250 22/17 A2996 RMK HZ ARND NOSIG=
201003141300 METAR MRPV 141300Z 10007KT 9999 FEW030 BKN250 23/18 A2997 RMK HZ ARND NOSIG=
201003141400 METAR MRPV 141400Z 09010KT 9999 FEW030 SCT250 24/18 A2994 RMK HZ ARND NOSIG=
201003141500 METAR MRPV 141500Z 08014KT 9999 FEW030 BKN250 26/18 A3000 RMK HZ ARND=
201003141600 METAR MRPV 141600Z 07011KT 9999 FEW030 BKN250 27/18 A3000 RMK GUST 18KT HZ ARND NOSIG=
201003141700 METAR MRPV 141700Z 07010KT 9999 SCT040 BKN250 29/17 A2998 RMK GUST 18KT HZ LEVE ARND NOSIG=
201003141800 METAR MRPV 141800Z 07011KT 9999 SCT035 SCT250 30/18 A2997 RMK HZ ARND NOSIG=
201003141900 METAR MRPV 141900Z 08003KT 9999 SCT030 SCT250 30/18 A2995 RMK HZ ARND TEMPO 24005KT=
201003142000 METAR MRPV 142000Z 19003KT 9999 SCT030 BKN250 29/18 A2993 RMK HZ LEVE ARND NOSIG=
201003142100 METAR MRPV 142100Z 20002KT 9999 FEW012 SCT030 BKN250 28/20 A2993 HZY NOSIG=
201003142200 METAR MRPV 142200Z 26007KT 8000 HZ/BR FEW010TCU SCT025 BKN250 26/21 A2992 TEMPO 6000 BKN020=
201003142300 METAR MRPV 142300Z 26005KT 9000 4000N HZ/BR SCT010TCU BKN250 26/21 A2993 NOSIG=
201003150000 METAR MRPV 150000Z NIL=
201003150100 METAR MRPV NIL=
201003150200 METAR MRPV NIL=
201003150300 METAR MRPV NIL=
201003150400 METAR MRPV NIL=
201003150500 METAR MRPV NIL=
201003150600 METAR MRPV NIL=
201003150700 METAR MRPV NIL=
201003150800 METAR MRPV NIL=
201003150900 METAR MRPV NIL=
201003151000 METAR MRPV NIL=
201003151100 METAR MRPV NIL=
201003151200 METAR MRPV 151200Z 12008KT CAVOK 22/17 A2998 RMK BKN250 HZ W NOSIG=
201003151300 METAR MRPV 151300Z 12008KT CAVOK 23/A2999 BKN250 VEL MX VTO 15KTS VIS W 8KM HZ NOSIG=
201003151400 METAR MRPV 151400Z 11008KT CAVOK 24/18 A3000 OVC250 VEL MX 15KT HZ LGT W NOSIG=
201003151500 METAR MRPV 151500Z 09010KT 9999 FEW030 BKN250 27/18 A3002 HZY VEL MX 17KTS NOSIG=
201003151600 METAR MRPV 151600Z 08014KT 9999 FEW030 BKN250 27/18 A3002 HZY NOSIG=
201003151700 METAR MRPV 151700Z 07011KT 9999 FEW030 BKN250 28/18 A3000 VEL MX 16KTS LGT HZ NOSIG=
201003151800 METAR MRPV 151800Z 07021KT 9999 FEW035 BKN250 29/18 A2997 VEL MX 17KTS LGT RN DIST NE TCU SW NOSIG=
201003151900 METAR MRPV 151900Z 08012KT 9999 FEW022 BKN250 30/18 A2993 RMK VEL MAX VTO 18KTS RN DST NE TCU SW NOSIG=
201003152000 METAR MRPV 152000Z 08010G20KT 9999 SCT020TCU BKN250 30/18 A2992 RMK RN DST NE HZ ARND NOSIG=
201003152100 METAR MRPV 152100Z 06013KT 9999 SCT020TCU BKN250 28/17 A2990 RMK HZ=
201003152200 METAR MRPV 152200Z 08012KT 9999 SCT020 BKN250 28/17 A2990 RMK HZ LEVE ARND RN DST NE NOSIG=
201003152300 METAR MRPV 152300Z 09010KT 8000 SCT015 SCT250 26/17 A2991 RMK HZ ARND RN DST NE NOSIG=
201003160000 METAR MRPV NIL=
201003160100 METAR MRPV NIL=
201003160200 METAR MRPV NIL=
201003160300 METAR MRPV NIL=
201003160400 METAR MRPV NIL=
201003160500 METAR MRPV NIL=
201003160600 METAR MRPV NIL=
201003160700 METAR MRPV NIL=
201003160800 METAR MRPV NIL=
201003160900 METAR MRPV NIL=
201003161000 METAR MRPV NIL=
201003161100 METAR MRPV NIL=
201003161200 METAR MRPV 161200Z 10007KT CAVOK 20/16 A2998 RMK BKN250 HZ W DU 09 NOSIG=
201003161300 METAR MRPV 161300Z 11007KT CAVOK 21/16 A3000 RMK BKN250 VEL.MAX. VTO 13KT HZ LEVE ARND NOSIG=
201003161400 METAR MRPV 161400Z 09012KT CAVOK 23/16 A3001 RMK BKN250 VEL.MAX.VTO 17KT HZ LEVE W=
201003161500 METAR MRPV 161500Z 07017KT CAVOK 25/15 A3001 RMK BKN250 VEL.MAX.VTO 22KT HZ LEVE ARND NOSIG=
201003161600 METAR MRPV 161600Z 07011G21KT CAVOK 26/15 A3001 RMK BKN250 HZ W NOSIG=
201003161700 METAR MRPV 161700Z 06012G22KT CAVOK 27/15 A2999 RMK BKN250 HZ W NOSIG=
201003161800 METAR MRPV 161800Z 06010G20KT CAVOK 28/15 A2997 RMK BKN250 HZ W NOSIG=
201003161900 METAR MRPV 161900Z 07010G20KT CAVOK 29/16 A2993 RMK BKN250 HZ W NOSIG=
201003162000 METAR MRPV 162000Z 06010G20KT CAVOK 28/15 A2992 RMK BKN250 HZ W NOSIG=
201003162100 METAR MRPV 162100Z 07010G20KT CAVOK 28/16 A2989 RMK HZ W BKN250 NOSIG=
201003162200 METAR MRPV 162200Z 06010G20KT CAVOK 28/16 A2989 RMK BKN250 HZ LEVE ARND NOSI G=
201003162300 METAR MRPV 162300Z 07010G20KT 9999 FEW010 BKN250 26/16 A2991 HZ W NOSIG=
201003162345 METAR MRPV 162345Z 07010G20KT 9999 FEW010 BKN250 23/16 A2993 RMK HZ W NOSIG=
201003170000 METAR MRPV NIL=
201003170100 METAR MRPV NIL=
201003170200 METAR MRPV NIL=
201003170300 METAR MRPV NIL=
201003170400 METAR MRPV NIL=
201003170500 METAR MRPV NIL=
201003170600 METAR MRPV NIL=
201003170700 METAR MRPV NIL=
201003170800 METAR MRPV NIL=
201003170900 METAR MRPV NIL=
201003171000 METAR MRPV NIL=
201003171100 METAR MRPV NIL=
201003171200 METAR MRPV 171200Z 14008KT CAVOK 18/14 A2999 BKN250 VIENTO CRUZADO EN PISTA NOSIG=
201003171300 METAR MRPV 171300Z 12011KT CAVOK 20/14 A3002 RMK HZ W BKN250 NOSIG=
201003171400 METAR MRPV 171400Z 11010KT CAVOK 22/14 A3004 RMK BKN250 HZ LGT ARND NOSIG=
201003171500 METAR MRPV 171500Z 11010KT CAVOK 24/14 A3005 RMK BKN250 HZ LGT ARND NOSIG=
201003171600 METAR MRPV 171600Z 08010KT CAVOK 26/14 A3004 RMK BKN250 HZ LGT ARND NOSIG=
201003171700 METAR MRPV 171700Z 08010G20KT CAVOK 26/14 A3002 RMK BKN250 HZ LGT ARND NOSIG=
201003171800 METAR MRPV 171800Z 08011G21KT CAVOK 28/15 A2999 RMK BKN250 HZ LGT ARND NOSIG=
201003171900 METAR MRPV 171900Z 08010G20KT 9999 FEW030 BKN250 28/15 A2997 RMK LGT HZ ARND NOSIG=
201003172000 METAR MRPV 172000Z 08014KT 9999 FEW025 BKN250 27/15 A2995 RMK HZ LGT ARND NOSIG=
201003172100 METAR MRPV 172100Z 08010G20KT 9999 FEW025 BKN250 27/15 A2994 RMK HZ=
201003172200 METAR MRPV 172200Z 08010G20KT 9999 FEW015 BKN250 26/15 A2993 HZ ARND NOSIG=
201003172300 METAR MRPV 172300Z 08010G20KT 8000 VCFG FEW010 OVC250 24/15 A2994 RMK HZ ARND=
201003180000 METAR MRPV NIL=
201003180100 METAR MRPV NIL=
201003180200 METAR MRPV NIL=
201003180300 METAR MRPV NIL=
201003180400 METAR MRPV NIL=
201003180500 METAR MRPV NIL=
201003180600 METAR MRPV NIL=
201003180700 METAR MRPV NIL=
201003180800 METAR MRPV NIL=
201003180900 METAR MRPV NIL=
201003181000 METAR MRPV NIL=
201003181100 METAR MRPV NIL=
201003181200 METAR MRPV 181200Z 11008KT CAVOK 20/12 A3003 RMK SCT100 BKN250 NOSIG=
201003181300 METAR MRPV 181300Z 11009KT CAVOK 22/13 A3003 RMK FEW100 BKN250 VEL MAX VTO 14KT CB DST S/SW NOSIG=
201003181400 METAR MRPV 181400Z 10011KT CAVOK 23/13 A3004 RMK BKN250 VEL MAX VTO 16KT CB DST S HZ W NOSIG=
201003181500 METAR MRPV 181500Z 09013KT 9999 FEW040 BKN250 24/14 A3005 RMK VEL MAX VTO 19KT HZ DST W CB DST S NOSIG=
201003181600 METAR MRPV 181600Z 07018KT 9999 FEW045 SCT100 BKN250 25/14 A3005 RMK VEL MAX VTO 23KT HZ DST QUAD W NOSIG=
201003181700 METAR MRPV 181700Z 06016KT 9999 SCT045 SCT100 25/14 A3004 RMK VEL MAX VTO 23KT FEW250 NOSIG=
201003181800 METAR MRPV 181800Z 06011KT 9999 SCT045 BKN100 27/14 A3003 RMK VEL MAX VTO 18KT LGT HZ ARND NOSIG=
201003181900 METAR MRPV 181900Z 05013KT 9999 FEW045 BKN250 26/14 A3001 RMK VEL MAX VTO 18KT LGT HZ ARND NOSIG=
201003182000 METAR MRPV 182000Z 06015KT 9999 SCT045 BKN250 26/15 A2997 RMK VEL MAX VTO 23KT LGT HZ ARND NOSIG=
201003182100 METAR MRPV 182100Z 06013KT 9999 SCT040 BKN250 26/15 A2995 RMK GUST 19KT HZ ARND NOSIG=
201003182200 METAR MRPV 182200Z 08012KT 9999 FEW040 BKN120 25/16 A2995 RMK GUST 18KT HZ LEVE ARND NOSIG=
201003182300 METAR MRPV 182300Z 10012KT 9999 FEW035 SCT120 BKN250 25/16 A2995 RMK=
201003190000 METAR MRPV NIL=
201003190100 METAR MRPV NIL=
201003190200 METAR MRPV NIL=
201003190300 METAR MRPV NIL=
201003190400 METAR MRPV NIL=
201003190500 METAR MRPV NIL=
201003190600 METAR MRPV NIL=
201003190700 METAR MRPV NIL=
201003190800 METAR MRPV NIL=
201003190900 METAR MRPV NIL=
201003191000 METAR MRPV NIL=
201003191100 METAR MRPV NIL=
201003191200 METAR MRPV 191200Z 10012KT 9999 FEW025 BKN120 21/16 A3001 RMK VL VTO 20KT DZ N NE E NOSIG=
201003191300 METAR MRPV 191300Z 11013KT 9999 FEW025 BKN120 21/17 A3002 RMK VL MX VTO 19KT DZ NE N NE E TEMPO DZ=
201003191400 METAR MRPV 191400Z 11014G24KT 9999 FEW030 SCT120 22/16 A3004 RMK DZ DST NW N NE E TEMPO DZ=
201003191500 METAR MRPV 191500Z 10014G25KT 9999 FEW025 23/16 A3003 RMK DZ DST N NE E NOSIG=
201003191600 METAR MRPV 191600Z 10015KT 9999 SCT030 23/17 A3004 RMK VL MX VTO 22KT DZ DST N NE E NOSIG=
201003191700 METAR MRPV 191700Z 09017G27KT 9999 SCT030 24/17 A3002 RMK DZ N NE NOSIG=
201003191800 METAR MRPV 191800Z 08018KT 9999 SCT030 25/17 A2999 RMK VL MX VTO 23KT DZ N NE NOSIG=
201003191900 METAR MRPV 191900Z 10013KT 9999 SCT030 26/17 A2998 RMK DZ DST N NE VL MX VTO 18KT NOSIG=
201003192000 METAR MRPV 192000Z 09012KT 9999 SCT030 26/17 A2996 RMK VL MX VTO 18KT DZ DST N NE E NOSIG=
201003192100 METAR MRPV 192100Z 10013KT 9999 BKN030 25/17 A2995 RMK VEL MAX VTO 18KT DZ DST N NE NOSIG=
201003192200 METAR MRPV 192200Z 08017KT 9999 SCT030 25/17 A2993 RMK VEL MAX VTO 23KT DZ N NE E NOSIG=
201003192300 METAR MRPV 192300Z 08017KT 9999 SCT030 SCT250 23/17 A2994 RMK DZ N NE VEL MAX VTO 22KT NOSIG=
201003200000 METAR MRPV NIL=
201003200100 METAR MRPV NIL=
201003200200 METAR MRPV NIL=
201003200300 METAR MRPV NIL=
201003200400 METAR MRPV NIL=
201003200500 METAR MRPV NIL=
201003200600 METAR MRPV NIL=
201003200700 METAR MRPV NIL=
201003200800 METAR MRPV NIL=
201003200900 METAR MRPV NIL=
201003201000 METAR MRPV NIL=
201003201100 METAR MRPV NIL=
201003201200 METAR MRPV 201200Z 11009KT 9999 FEW030 BKN250 21/17 A2997 RMK DZ DST=
201003201300 METAR MRPV 201300Z 10008KT 9999 FEW030 SCT300 22/17 A2999 RMK VEL MAX VTO 15KT NOSIG=
201003201400 METAR MRPV 201400Z 11010KT CAVOK 23/17 A3000 RMK SCT300 DZ DST NE VEL MAX VTO 15KT=
201003201500 METAR MRPV 201500Z 09013KT CAVOK 25/17 A3001 RMK SCT300 VEL MAX VTO 19KT NOSIG=
201003201600 METAR MRPV 201600Z 08012KT CAVOK 27/17 A3001 RMK SCT300 DZ DST NE VEL MAX VTO 18KT NOSIG=
201003201700 METAR MRPV 201700Z 08011KT 9999 SCT040 SCT300 27/17 A3000 VEL MAX VTO 16KT FEW080 NOSIG=
201003201701 METAR MRPV 201701Z 08011KT 9999 SCT040 SCT300 27/17 A3000 VEL MAX VTO 16KT FEW080 NOSIG=
201003201800 METAR MRPV 201800Z 09007KT 9999 FEW045 29/18 A2997 RMK FEW080 VEL MAX VTO 14KT DVLPNG CU ARND NOSIG=
201003201900 METAR MRPV 201900Z 08010KT 9999 FEW045 SCT080 27/18 A2996 RMK TCU DST SE SW NOSIG=
201003202000 METAR MRPV 202000Z 08008KT 9999 FEW020TCU FEW040 SCT080 29/18 A2994 VEL MAX VTO 14KT NOSIG=
201003202100 METAR MRPV 202100Z 08010KT 9999 FEW020TCU SCT035 SCT080 27/18 A2993 NOSIG=
201003202200 METAR MRPV 202200Z 00000KT 9999 FEW020TCU BKN030 26/18 A2993 TEMPO 25004KT=
201003202300 METAR MRPV 202300Z 12003KT 9999 FEW015 BKN025 25/19 A2994 RMK RN DST N NOSIG=
201003210000 METAR MRPV NIL=
201003210100 METAR MRPV NIL=
201003210200 METAR MRPV NIL=
201003210300 METAR MRPV NIL=
201003210400 METAR MRPV NIL=
201003210500 METAR MRPV NIL=
201003210600 METAR MRPV NIL=
201003210700 METAR MRPV NIL=
201003210800 METAR MRPV NIL=
201003210900 METAR MRPV NIL=
201003211000 METAR MRPV NIL=
201003211100 METAR MRPV NIL=
201003211200 METAR MRPV 211200Z 11010KT CAVOK 21/19 A2997 RMK BKN250 NOSIG=
201003211300 METAR MRPV 211300Z 10010KT 9999 FEW025 BKN250 23/18 A2999 NOSIG=
201003211400 METAR MRPV 211400Z 09010G20KT 9999 FEW025 BKN250 25/18 A3000 NOSIG=
201003211500 METAR MRPV 211500Z 08013G23KT 9999 FEW025 BKN250 26/17 A3001 NOSIG=
201003211600 METAR MRPV 211600Z 07012G22KT 9999 FEW025 BKN250 27/18 A3002 NOSIG=
201003211700 METAR MRPV 211700Z 07010G20KT 9999 FEW025 BKN250 28/18 A3000 NOSIG=
201003211800 METAR MRPV 211800Z 06010G20KT 9999 FEW025 BKN250 28/18 A2996 NOSIG=
201003211900 METAR MRPV 211900Z 08010G20KT 9999 SCT025 BKN250 29/18 A2994 NOSIG=
201003212000 METAR MRPV 212000Z 08010KT 9999 SCT025 BKN250 29/19 A2991 NOSIG=
201003212100 METAR MRPV 212100Z 08010G20KT 9999 FEW015 BKN030 28/18 A2989 RMK RN NE TCU N NOSIG=
201003212200 METAR MRPV 212200Z 10010G20KT 9999 FEW012TCU BKN030 25/18 A2989 RMK RN NE NOSIG=
201003212300 METAR MRPV 212300Z 10010G20KT 9999 SCT010 BKN030 24/16 A2992 RMKRN NE NOSIG=
201003220000 METAR MRPV NIL=
201003220100 METAR MRPV NIL=
201003220200 METAR MRPV NIL=
201003220300 METAR MRPV NIL=
201003220400 METAR MRPV NIL=
201003220500 METAR MRPV NIL=
201003220600 METAR MRPV NIL=
201003220700 METAR MRPV NIL=
201003220800 METAR MRPV NIL=
201003220900 METAR MRPV NIL=
201003221000 METAR MRPV NIL=
201003221100 METAR MRPV NIL=
201003221200 METAR MRPV 221200Z 09010G20KT 9999 FEW010 BKN250 22/18 A2998 RMK PCPN DST N NE NOSIG=
201003221300 METAR MRPV 221300Z 10010G20KT 9999 FEW010 BKN250 223/18 A2999 RMK RN N NE NOSIG=
201003221400 METAR MRPV 221400Z 09012G22KT 9999 FEW012 BKN250 24/19 A3000 RMK RN N NE NOSIG=
201003221500 METAR MRPV 221500Z 08012G22KT 9999 FEW012 BKN250 25/18 A3002 RMK RN N NE NOSIG=
201003221600 METAR MRPV 221600Z 07011G21KT 9999 FEW015 BKN250 26/18 A3002 RMK RN N NE NOSIG=
201003221700 METAR MRPV 221700Z 08013G23KT 9999 FEW015 BKN250 26/18 A3002=
201003221800 METAR MRPV 221800Z 09012G22KT 9999 FEW015 BKN250 27/18 A2998 RMK RN N NE NOSIG=
201003221900 METAR MRPV 221900Z 08010G20KT 9999 FEW012 BKN250 27/18 A2996=
201003222000 METAR MRPV 222000Z 08010G20KT 9999 SCT012 BKN250 27/18 A2994 RMK RN N NE E NOSIG=
201003222100 METAR MRPV 222100Z 07010G20KT 9999 SCT010 BKN030 24/18 A2994 RMK PCPN DST NE BECMG -RA=
201003222200 METAR MRPV 222200Z 08010G20KT 9999 SCT010 BKN030 24/18 A2991 RMK RN DST N/NE/E BECMG -RA=
201003222300 METAR MRPV 222300Z 07010G20KT 9999 -RA SCT010 BKN030 21/18 A2996 RMK RN DST N/NE NOSIG=
201003230000 METAR MRPV NIL=
201003230100 METAR MRPV NIL=
201003230200 METAR MRPV NIL=
201003230300 METAR MRPV NIL=
201003230400 METAR MRPV NIL=
201003230500 METAR MRPV NIL=
201003230600 METAR MRPV NIL=
201003230700 METAR MRPV NIL=
201003230800 METAR MRPV NIL=
201003230900 METAR MRPV NIL=
201003231000 METAR MRPV NIL=
201003231100 METAR MRPV NIL=
201003231200 METAR MRPV 2312 CHECK TEXT NEW ENDING ADDED KATLYTAA=
201003231300 METAR MRPV 231300Z 09012G22KT 9999 SCT010 BKN250 21/17 A2996 RMK PCPN DST N/NE NOSIG=
201003231400 METAR MRPV 231400Z 09014G24KT 9999 SCT010 BKN250 22/16 A2997 RMK PCPN DST N/NE NOSIG=
201003231500 METAR MRPV 231500Z 07016G26KT 9999 SCT010 BKN250 22/16 A3000 RMK RN DST N/NE NOSIG=
201003231600 METAR MRPV 231600Z 07020G30KT 9999 FEW015 BKN250 23/14 A3000 RMK RN DST N/NE NOSIG=
201003231700 METAR MRPV 231700Z 08015G25KT 9999 9999 FEW020 BKN250 24/15 A2999 RMK RN DST N/NE NOSIG=
201003231800 METAR MRPV 231800Z 08020G30KT 9999 FEW020 BKN250 25/16 A2997 RMK RN DST N/NE NOSIG=
201003231900 METAR MRPV 231900Z 07015G25KT 9999 FEW015 BKN250 24/17 A2995 RMK RN DST N/NE NOSIG=
201003232000 METAR MRPV 232000Z 07010G20KT 9999 FEW015 BKN250 24/17 A2993 RMK RN DST N/NE NOSIG=
201003232100 METAR MRPV 232100Z 06010G20KT 9999 SCT015 SCT250 24/17 A2991 RMK PCPN DST N NE NOSIG=
201003232200 METAR MRPV 232200Z 07010G20KT 9999 FEW012 BKN250 23/17 A2989 RMK PCPN N NE NOSIG=
201003232300 METAR MRPV 232300Z 08010G20KT 9999 -RA FEW010 BKN250 22/17 A2990 NOSIG=
201003240000 METAR MRPV NIL=
201003240100 METAR MRPV NIL=
201003240200 METAR MRPV NIL=
201003240300 METAR MRPV NIL=
201003240400 METAR MRPV NIL=
201003240500 METAR MRPV NIL=
201003240600 METAR MRPV NIL=
201003240700 METAR MRPV NIL=
201003240800 METAR MRPV NIL=
201003240900 METAR MRPV NIL=
201003241000 METAR MRPV NIL=
201003241100 METAR MRPV NIL=
201003241200 METAR MRPV 241200Z 11009KT CAVOK 18/13 A2995 RMK BKN250 NOSIG=
201003241300 METAR MRPV 241300Z 10012KT CAVOK 20/14 A2996 RMK FEW250 VL MX VTO 17KT NOSIG=
201003241400 METAR MRPV 241400Z 09013KT CAVOK 22/14 A2998 RMK FEW250 VL MX VTO 19KT NOSIG=
201003241500 METAR MRPV 241500Z 07012KT CAVOK 24/15 A2998 RMK FEW250 VL MX VTO 17KT NOSIG=
201003241600 METAR MRPV 241600Z 07017KT 9999 NSC 25/16 A2998 NOSIG=
201003241700 METAR MRPV 241700Z 07012KT CAVOK 26/16 A2992 RMK FEW250 VL MX VTO 19KT NOSIG=
201003241800 METAR MRPV 241800Z 07015KT 9999 FEW045 SCT250 26/16 A2994 RMK VL MX VTO 21KT NOSIG=
201003241900 METAR MRPV 241900Z 08014KT 9999 FEW045 BKN250 27/17 A2991 NOSIG=
201003242000 METAR MRPV 242000Z 08013KT 9999 FEW045 SCT250 27/17 A2989 RMK TCU DST S SW VL MX VTO 19KT NOSIG=
201003242100 METAR MRPV 242100Z 08016KT 9999 FEW045 27/18 A2987 RMK TCU DST S SW NOSIG=
201003242200 METAR MRPV 242200Z 08014KT 9999 FEW040 26/17 A2987 RMK TCU DST SW NOSIG=
201003242300 METAR MRPV 242300Z 08016KT 9999 FEW035 23/17 A2988 RMK TCU DST SW VEL MAX VTO 21KT NOSIG=
201003250000 METAR MRPV NIL=
201003250100 METAR MRPV NIL=
201003250200 METAR MRPV 250200Z NIL=
201003250300 METAR MRPV NIL=
201003250400 METAR MRPV NIL=
201003250500 METAR MRPV NIL=
201003250600 METAR MRPV NIL=
201003250700 METAR MRPV NIL=
201003250800 METAR MRPV NIL=
201003250900 METAR MRPV NIL=
201003251000 METAR MRPV NIL=
201003251100 METAR MRPV NIL=
201003251200 METAR MRPV 251200Z 11005KT CAVOK 20/16 A2998 RMK SCT300 NOSIG=
201003251300 METAR MRPV 251300Z 11007KT 9999 NSC 21/16 A3000 NOSIG=
201003251400 METAR MRPV 251400Z 09011KT 9999 NSC 23/16 A3001 RMK VEL MAX VTO 17KT HZ W NOSIG=
201003251500 METAR MRPV 251500Z 10008KT 9999 NSC 25/16 A3003 RMK LGT HZ W NOSIG=
201003251600 METAR MRPV 251600Z 07011KT 9999 FEW040 26/16 A3003 NOSIG=
201003251700 METAR MRPV 251700Z 10006KT 9999 SCT040 27/16 A3001 RMK VEL MAX VTO 12KT NOSIG=
201003251800 METAR MRPV 251800Z 11002KT 9999 SCT040 29/16 A2998 RMK TEMPO 24005KT 9999 BKN025=
201003251900 METAR MRPV 251900Z 06006KT 9999 FEW025 BKN040 30/16 A2995 RMK TCU DST S TEMPO 24005KT=
201003252000 METAR MRPV 252000Z 08007KT 9999 FEW025 SCT040 28/17 A2996 TEMPO 24005KT=
201003252100 METAR MRPV 252100Z 00000KT 9999 FEW020 BKN040 28/17 A2992 RMK TCU DST S SW TEMPO 24005KT=
201003252200 METAR MRPV 252200Z 11003KT 9999 FEW020TCU BKN035 27/17 A2991 NOSIG=
201003252300 METAR MRPV 252300Z 09007KT 9999 FEW020 SCT035 25/18 A2993 RMK VEL.MAX.VTO 12KT LEVE HZ ARND NOSIG=
201003260000 METAR MRPV NIL=
201003260100 METAR MRPV NIL=
201003260200 METAR MRPV NIL=
201003260300 METAR MRPV NIL=
201003260400 METAR MRPV NIL=
201003260500 METAR MRPV NIL=
201003260600 METAR MRPV NIL=
201003260700 METAR MRPV NIL=
201003260800 METAR MRPV NIL=
201003260900 METAR MRPV NIL=
201003261000 METAR MRPV NIL=
201003261100 METAR MRPV NIL=
201003261200 METAR MRPV 261200Z 13003KT 9999 NSC 20/17 A2998 RMK HZ ARND N0SIG=
201003261300 METAR MRPV 261300Z 12007KT CAVOK 22/16 A3000 RMK FEW100 HZ LEVE ARND=
201003261400 METAR MRPV 261400Z 10009KT 9999 FEW040 24/16 A3002 RMK HZ LEVE ARND=
201003261500 METAR MRPV 261500Z 09009KT 9999 FEW040 26/16 A3002 RMK GUST 14KT VIS W 8000MTS DUE HZ=
201003261600 METAR MRPV 261600Z 12006KT 9999 FEW040 27/16 A3001 RMK VIS W 7000MTS DUE HZ HZ LEVE ARND=
201003261700 METAR MRPV 261700Z 11011KT 9999 FEW045 28/15 A2999 RMK HZ LEVE NOSIG=
201003261800 METAR MRPV 261800Z 08011KT 9999 SCT045 28/15 A2996 RMK HZ ARND GUST 16KT NOSIG=
201003261900 METAR MRPV 261900Z 08011KT 9999 FEW045 29/16 A2992 RMK GUST 17KT HZ ARND NOSIG=
201003262000 METAR MRPV 262000Z 09013KT 9999 BKN040 28/17 A2991 RMK GUST 18KT HZ ARND=
201003262100 METAR MRPV 262100Z 07015KT 9999 FEW040 28/17 A2989 RMK FEW080 VEL.MAX.VTO 23KT TCU DST S SW HZ LEVE ARND NOSIG=
201003262200 METAR MRPV 262200Z 08015KT 9999 SH FEW015TCU FEW040 27/17 A2989 RMK VIS 6000 SW=
201003262300 METAR MRPV 262300Z 09013KT 9999 FEW030 24/18 A2991 RMK CB DST SW FEW080 VEL.MAX.VTO 18KT VIS 7000E HZ DIST HZ ARND NOSIG=
201003270000 METAR MRPV NIL=
201003270100 METAR MRPV NIL=
201003270200 METAR MRPV NIL=
201003270300 METAR MRPV NIL=
201003270400 METAR MRPV NIL=
201003270500 METAR MRPV NIL=
201003270600 METAR MRPV NIL=
201003270700 METAR MRPV NIL=
201003270800 METAR MRPV NIL=
201003270900 METAR MRPV NIL=
201003271000 METAR MRPV NIL=
201003271100 METAR MRPV NIL=
201003271200 METAR MRPV 271200Z 11010KT 9999 FEW015 BKN250 20/15 A2998 NOSIG=
201003271300 METAR MRPV 271300Z 10010KT 9999 FEW015 SCT250 22/16 A3000 RMK DU APROXIMACIO N 09=
201003271400 METAR MRPV 271400Z 10010KT 9999 FEW015 SCT250 24/16 A3001 RMK DU APROXIMACIO N 09 GUST 15KT NOSIG=
201003271500 METAR MRPV 271500Z 07010G20KT 9999 FEW015 ST250 25716 A3003 RMK DU APROXIMACION 09 NOSIG=
201003271600 METAR MRPV 271600Z 07010G20KT 9999 FEW015 26/15 A3002 RMK DU APROXIMACION 09 NOSIG=
201003271700 METAR MRPV 271700Z 07010G20KT 9999 FEW015 28/15 A3000 DU APROXIMACION 09 NOSIG=
201003271800 METAR MRPV 271800Z 06010G20KT 9999 FEW015 29/15 A2997 NOSIG=
201003271900 METAR MRPV 271900Z 05010G20KT 9999 FEW020 28/15 A2994 NOSIG=
201003272000 METAR MRPV 272000Z 07010G20KT 9999 FEW020 29/14 A2991 NOSIG=
201003272100 METAR MRPV 272100Z 06010G20KT 9999 FEW020 28/14 A2988 NOSIG=
201003272200 METAR MRPV 272200Z 07010G20KT 9999 FEW020 27/15 A2988 NOSIG=
201003272300 METAR MRPV 272300Z 08010G20KT 9999 FEW020 26/15 A2990 NOSIG=
201003280000 METAR MRPV NIL=
201003280100 METAR MRPV NIL=
201003280200 METAR MRPV NIL=
201003280300 METAR MRPV NIL=
201003280400 METAR MRPV NIL=
201003280500 METAR MRPV NIL=
201003280600 METAR MRPV NIL=
201003280700 METAR MRPV NIL=
201003280800 METAR MRPV NIL=
201003280900 METAR MRPV NIL=
201003281000 METAR MRPV NIL=
201003281100 METAR MRPV NIL=
201003281200 METAR MRPV 281200Z 10012KT CAVOK 20/13 A2995 RMK SCT250 NOSIG=
201003281300 METAR MRPV 281300Z 09010KT CAVOK 21/13 A2997 RMK VEL MAX VTO 15KT SCT250 NOSIG=
201003281400 METAR MRPV 281400Z 10010G20KT CAVOK 23/14 A2998 RMK SCT250 NOSIG=
201003281500 METAR MRPV 281500Z 08010G20KT CAVOK 24/13 A2997 RMK SCT250 NOSIG=
201003281600 METAR MRPV 281600Z 08010G20KT CAVOK 26/13 A2997 RMK SCT250 NOSIG=
201003281700 METAR MRPV 281700Z 08010KT CAVOK 27/13 A2995 RMK SCT250 NOSIG=
201003281800 METAR MRPV 281800Z 09010KT 9999 FEW030 29/13 A2992 NOSIG=
201003281900 METAR MRPV 281900Z 09010KT 9999 FEW030 30/14 A2989 NOSIG=
201003282000 METAR MRPV 282000Z 25006KT 9999 SCT025 29/17 A2986 NOSIG=
201003282100 METAR MRPV 282100Z 27008KT 9999 SCT022TCU 28/19 A2984 NOSIG=
201003282200 METAR MRPV 282200Z 26008KT 9999 SCT020TCU 27/20 A2984 RMK BECMG 8000=
201003282300 METAR MRPV 282300Z 25008KT 9999 SCT020 26/19 A2985 RMK BECMG 8000MTS DUE VCSH NOSIG=
201003290000 METAR MRPV NIL=
201003290100 METAR MRPV NIL=
201003290200 METAR MRPV NIL=
201003290300 METAR MRPV NIL=
201003290400 METAR MRPV NIL=
201003290500 METAR MRPV NIL=
201003290600 METAR MRPV NIL=
201003290700 METAR MRPV NIL=
201003290800 METAR MRPV NIL=
201003290900 METAR MRPV NIL=
201003291000 METAR MRPV NIL=
201003291100 METAR MRPV NIL=
201003291200 METAR MRPV 291200Z 12010KT CAVOK 19/13 A2993 RMK FEW250 NOSIG=
201003291300 METAR MRPV 291300Z 13010KT 9999 SKC 21/14 A2994 NOSIG=
201003291400 METAR MRPV NIL=
201003291500 METAR MRPV 291500Z 09010G20KT 9999 SKC 26/14 A2996 NOSIG=
201003291600 METAR MRPV 291600Z 07010G20KT 9999 FEW030 27/14 A2996 NOSIG=
201003291700 METAR MRPV 291700Z 08010G20KT 9999 FEW030 28/15 A2994 NOSIG=
201003291800 METAR MRPV 291800Z 08010G20KT 9999 FEW030 28/16 A2992 NOSIG=
201003291900 METAR MRPV 291900Z 07011G21KT 9999 FEW030 29/16 A2990 RMK TCU S NOSIG=
201003292000 METAR MRPV 292000Z 08012G22KT 9999 FEW030 28/15 A2987 RMK TCU S NOSIG=
201003292100 METAR MRPV 292100Z 08010G20KT 9999 FEW035 29/15 A2985 RMK CB DST S NOSIG=
201003292200 METAR MRPV NIL=
201003292300 METAR MRPV 292300Z 06010G20KT 9999 SCT020 24/17 A2987 PCPN N NE TCU S BECMG VCSH=
201003300000 METAR MRPV NIL=
201003300100 METAR MRPV NIL=
201003300200 METAR MRPV NIL=
201003300300 METAR MRPV NIL=
201003300400 METAR MRPV NIL=
201003300500 METAR MRPV NIL=
201003300600 METAR MRPV NIL=
201003300700 METAR MRPV NIL=
201003300800 METAR MRPV NIL=
201003300900 METAR MRPV NIL=
201003301000 METAR MRPV NIL=
201003301100 METAR MRPV NIL=
201003301200 METAR MRPV 301200Z 11009KT CAVOK 20/14 A2996 BKN250 VEL/MAX VIENTO 14NUDOS=
201003301300 METAR MRPV 301300Z 12010KT CAVOK 21/15 A2999 RMK BKN250 VEL MAX VTO 16KT NOSIG=
201003301400 METAR MRPV 301400Z 09014KT CAVOK 22/15 A3000 RMK BKN250 VEL MAX VTO 21KT NOSIG=
201003301500 METAR MRPV 301500Z 07016G26KT CAVOK 24/13 A3002 RMK BKN250 NOSIG=
201003301600 METAR MRPV 301600Z 07017KT CAVOK 25/13 A3002 RMK BKN250 VEL MAX VTO 23KT NOSIG=
201003301700 METAR MRPV 301700Z 07017KT CAVOK 23/13 A3002 RMK BKN250 VEL MAX VTO 24KT NOSIG=
201003301800 METAR MRPV 301800Z 06013KT CAVOK 27/14 A3001 RMK BKN250 VEL MAX VTO 21KT HZ DST W NOSIG=
201003301900 METAR MRPV 301900Z 06015KT 9999 FEW045 BKN250 27/14 A2998 RMK VEL MAX VTO 23KT NOSIG=
201003302000 METAR MRPV 302000Z 06013KT 9999 FEW045 BKN250 27/12 A2995 RMK VEL MAX VTO 21KT TCU DST SW NOSIG=
201003302100 METAR MRPV 302100Z 05011KT 9999 FEW045 SCT250 27/13 A2994 RMK VEL. MAX.VTO 18KT TCU DST SW NOSIG=
201003302200 METAR MRPV 302200Z 06014KT 9999 FEW040 27/17 A2994 RMK FEW250 VEL.MAX. VTO 19KT NOSIG=
201003302300 METAR MRPV 302300Z 08014KT 9999 FEW040 24/15 A2996 RMK VEL.MAX.VTO 20KT HZ LEVE ARND NOSIG=
201003310000 METAR MRPV NIL=
201003310100 METAR MRPV NIL=
201003310200 METAR MRPV NIL=
201003310300 METAR MRPV NIL=
201003310400 METAR MRPV NIL=
201003310500 METAR MRPV NIL=
201003310600 METAR MRPV NIL=
201003310700 METAR MRPV NIL=
201003310800 METAR MRPV NIL=
201003310900 METAR MRPV NIL=
201003311000 METAR MRPV NIL=
201003311100 METAR MRPV NIL=
201003311200 METAR MRPV 311200Z 12010KT CAVOK 21/16 A3000 RMK VL MX VTO 16KT DZ DST NE BKN120 NOSIG=
201003311300 METAR MRPV 311300Z 12008KT CAVOK 22/15 A3002 RMK BKN250 DZ DST NE NOSIG=
201003311400 METAR MRPV 311400Z 09016KT CAVOK 23/17 A3003 RMK SCT250 DZ DST NE VEL.MAX.VTO 22KT NOSIG=
201003311500 METAR MRPV 311500Z 08016G26KT 9999 SCT040 SCT250 24/17 A3003 RMK DZ DST NE E NOSIG=
201003311600 METAR MRPV 311600Z 07016KT 9999 FEW040 SCT250 25/18 A3003 RMK VEL. MAX.VTO 24KT DZ DST N NE NOSIG=
201003311700 METAR MRPV 311700Z 08018KT 9999 SCT040 SCT250 26/18 A3002 RMK VEL.MAX.VTO 24KT DZ DST NE N NOSIG=
201003311800 METAR MRPV 311800Z 07015KT 9999 FEW040 BKN250 26/18 A3001 RMK DZ DST NE VEL.MAX.VTO 22KT NOSIG=
201003311900 METAR MRPV 311900Z 08015KT 9999 SCT030 BKN250 27/18 A2999 RMK DZ DST NE E NOSIG=
201003312000 METAR MRPV 312000Z 08016KT 9999 BKN030 SCT250 25/18 A2998 RMK DZ DST N NE E NOSIG=
201003312100 METAR MRPV 312100Z 08014KT 9999 SCT025 BKN250 25/18 A2997 RMK DZ DST N/NE VEL MAX VTO 20KT NOSIG=
201003312200 METAR MRPV 312200Z 10011KT 9999 BKN030 SCT250 26/18 A2997 RMK DZ DST NW/N/NE VEL MAX VTO 16KT NOSIG=
201003312300 METAR MRPV 312300Z 10011KT 9999 BKN030 SCT250 24/18 A2997 RMK DZ DST N/NE VEL MAX VTO 17KT NOSIG=
201004010000 METAR MRPV NIL=
201004010100 METAR MRPV NIL=
201004010200 METAR MRPV NIL=
201004010300 METAR MRPV NIL=
201004010400 METAR MRPV NIL=
201004010500 METAR MRPV NIL=
201004010600 METAR MRPV NIL=
201004010700 METAR MRPV NIL=
201004010800 METAR MRPV NIL=
201004010900 METAR MRPV NIL=
201004011000 METAR MRPV NIL=
201004011100 METAR MRPV NIL=
201004011200 METAR MRPV NIL=
201004011208 METAR MRPV 011208Z 12008KT CAVOK 21/15 A3000 RMK BKN120 VEL MAX VTO 15KT NOSIG=
201004011300 METAR MRPV 011300Z 12009KT CAVOK 21/15 A3001 RMK FEW120 FEW250 GUST 14KT NOSIG=
201004011400 METAR MRPV 011400Z 19913G23KT CAVOK 23/16 A3004 RMK FEW250 NOSIG=
201004011500 METAR MRPV 011500Z 09016KT CAVOK 25/15 A3003 RMK SCT250 GUST 21KT NOSIG=
201004011600 METAR MRPV 011600Z 07017KT CAVOK 26/15 A3002 RMK SCT250=
201004011700 METAR MRPV 011700Z 07014KT 9999 FEW045 27/16 A3002 RMK FEW250 GUST 20KT NOSI G=
201004011800 METAR MRPV 011800Z 08012KT 9999 FEW045 SCT250 28/16 A2998 RMK GUST 17KT TCU SE NOSIG=
201004011900 METAR MRPV 011900Z 08013KT 9999 FEW045 SCT100 28717 A2995 RMK FEW250 TCU SW NOSIG=
201004012000 METAR MRPV 012000Z 08016KT 9999 FEW045 SCT090 27717 A2992 RMK GUST 23KT TCU S SW HZ LEVE ARND FEW250 NOSIG=
201004012100 METAR MRPV 012100Z 08014KT 9999 FEW040 BKN090 27/18 A2991 RMK VEL MAX VTO 20KT TCU DST S/SW LGT HZ ARND NOSIG=
201004012200 METAR MRPV 012200Z 08015KT 9999 FEW040 SCT090 BKN250 25/18 A2991 RMK VEL MAX VTO 20KT DZ DST NE TCU DST SW NOSIG=
201004012300 METAR MRPV 012300Z 07014KT 9999 SCT035 BKN250 24/18 A2992 RMK DZ DST NE/NE NOSIG=
201004020000 METAR MRPV NIL=
201004020100 METAR MRPV NIL=
201004020200 METAR MRPV NIL=
201004020300 METAR MRPV NIL=
201004020400 METAR MRPV NIL=
201004020500 METAR MRPV NIL=
201004020600 METAR MRPV NIL=
201004020700 METAR MRPV NIL=
201004020800 METAR MRPV NIL=
201004020900 METAR MRPV NIL=
201004021000 METAR MRPV NIL=
201004021100 METAR MRPV NIL=
201004021200 METAR MRPV NIL=
201004021300 METAR MRPV 021300Z 11012KT 9999 FEW030 23/17 A2995 NOSIG=
201004021400 METAR MRPV 021400Z 08012KT 9999 FEW030 25/18 A2996 NOSIG=
201004021500 METAR MRPV 021500Z 07010G20KT 9999 FEW030 25/18 A2997 NOSIG=
201004021600 METAR MRPV 021600Z 07010G20KT 9999 FEW030 27/18 A2997 NOSIG=
201004021700 METAR MRPV 021700Z 07010G20KT 9999 FEW030 28/18 A2996 RMK PCPN DST NE TCU DST SSW NOSIG=
201004021800 METAR MRPV 021800Z 08010G20KT 9999 SCT030 29/18 A2994 RMK TCU SW/W RN DST NE NOSIG=
201004021900 METAR MRPV 021900Z 08012G22KT 9999 FEW020TCU SCT030 29/18 A2991 RMK RN DST NE NOSIG=
201004022000 METAR MRPV NIL=
201004022100 METAR MRPV NIL=
201004022200 METAR MRPV 022200Z 08010G20KT 9999 SCT015TCU BKN030 24/18 A2990 RMK RN NW N NE E NOSIG=
201004022300 METAR MRPV 022300Z 08010G20KT 9999 SCT010 BKN030 23/18 A2991 RMK RN NW N NE E NOSIG=
201004030000 METAR MRPV 030000Z 08010G20KT 9999 SCT020 BKN030 21/18 A2992 RMK RN N NE E BECMG -RA=
201004030100 METAR MRPV NIL=
201004030200 METAR MRPV NIL=
201004030300 METAR MRPV NIL=
201004030400 METAR MRPV NIL=
201004030500 METAR MRPV NIL=
201004030600 METAR MRPV NIL=
201004030700 METAR MRPV NIL=
201004030800 METAR MRPV NIL=
201004030900 METAR MRPV NIL=
201004031000 METAR MRPV NIL=
201004031100 METAR MRPV NIL=
201004031200 METAR MRPV 031200Z 11010G20KT 9999 FEW010 BKN250 21/17 A2992 RMK RN NE NOSIG=
201004031300 METAR MRPV 031300Z 10010G20KT 9999 FEW010 BKN250 22/18 A2994 RMK PCPN DST NE NOSIG=
201004031400 METAR MRPV 031400Z 11010G20KT 9999 FEW010 BKN250 23/18 A2995 RMK PCPN DST NE NOSIG=
201004031500 METAR MRPV 031500Z 08010G20KT 9999 FEW010 BKN250 24/17 A2996 RMK PCPN DST NE NOSIG=
201004031600 METAR MRPV 031600Z 10010G20KT 9999 FEW010 BKN250 24/17 A2996 RMK PCPN DST NE NOSIG=
201004031700 METAR MRPV 031700Z 09010G20KT 9999 FEW010 BKN250 25/18 A2996 RMK PCPN DST NE NOSIG=
201004031800 METAR MRPV 031800Z 08010G20KT 9999 FEW010 BKN250 26/18 A2993 RMK PCPN DST NE NOSIG=
201004031900 METAR MRPV 031900Z 07010G20KT 9999 SCT012TCU BKN250 27/18 A2991 RMK PCPN DST NE NOSIG=
201004032000 METAR MRPV 032000Z 08010G20KT 9999 SCT012TCU BKN250 28/18 A2988 RMK PCPN DST NE CB S SW NOSIG=
201004032100 METAR MRPV 032100Z 08010G20KT 9999 FEW012TCU BKN250 26/18 A2987 RMK RN DST NE CB DST S SE TS DST S NOSIG=
201004032200 METAR MRPV 032200Z 09010G20KT 9999 FEW010 BKN250 25/17 A2988 PCPN DST N NE TCU S SW NOSIG=
201004032300 METAR MRPV 032300Z 09010G20KT 9999 SCT010 BKN250 24/17 A2989 RMK PCPN DST N NE NOSIG=
201004040000 METAR MRPV NIL=
201004040100 METAR MRPV 040100Z NIL=
201004040200 METAR MRPV NIL=
201004040300 METAR MRPV NIL=
201004040400 METAR MRPV NIL=
201004040500 METAR MRPV NIL=
201004040600 METAR MRPV NIL=
201004040700 METAR MRPV NIL=
201004040800 METAR MRPV NIL=
201004040900 METAR MRPV NIL=
201004041000 METAR MRPV NIL=
201004041100 METAR MRPV NIL=
201004041200 METAR MRPV 041200Z 12010KT CAVOK 20/14 A2995 RMK OVC250 NOSIG=
201004041300 METAR MRPV 041300Z 12012KT CAVOK 21/14 A2996 RMK BKN250 NOSIG=
201004041400 METAR MRPV 041400Z 10014KT CAVOK 22/14 A2998 RMK BKN250 NOSIG=
201004041500 METAR MRPV 041500Z 10010KT CAVOK 24/14 A2999 RMK BKN250 VEL MAX VTO 15KT NOSIG=
201004041600 METAR MRPV 041600Z 07010KT CAVOK 27/12 A2998 RMK BKN250 VEL MAX VTO 15KT NOSIG=
201004041700 METAR MRPV 041700Z 07011KT CAVOK 29/06 A2997 RMK BKN250 TCU DST SW NOSIG=
201004041800 METAR MRPV 041800Z 06010KT CAVOK 29/09 A2995 RMK BKN250 TCU DST SW=
201004041900 METAR MRPV 041900Z 08010KT 9999 FEW030 BKN250 30/09 A2992 TCU DST SW NOSIG=
201004042000 METAR MRPV 042000Z 06010KT 9999 FEW025 BKN250 29/10 A2990 TCU SW NOSIG=
201004042100 METAR MRPV 042100Z 06010KT 9999 FEW020TCU BKN250 28/15 A2989 RMK VEL.MAX. VTO 15KT RN DST NE NOSIG=
201004042200 METAR MRPV 042200Z 07010KT 9999 FEW020TCU BKN250 27/16 A2989 RMK RN DST NE NOSIG=
201004042300 METAR MRPV 042300Z 11004KT 9999 SCT015 BKN250 26/16 A2991 RMK HZ QUAD W BECMG 22006KT=
201004050000 METAR MRPV NIL=
201004050100 METAR MRPV NIL=
201004050200 METAR MRPV NIL=
201004050300 METAR MRPV NIL=
201004050400 METAR MRPV NIL=
201004050500 METAR MRPV NIL=
201004050600 METAR MRPV NIL=
201004050700 METAR MRPV NIL=
201004050800 METAR MRPV NIL=
201004050900 METAR MRPV NIL=
201004051000 METAR MRPV NIL=
201004051100 METAR MRPV NIL=
201004051200 METAR MRPV 051200Z 12009KT CAVOK 20/14 A3000 RMK BKN250 CB DST SW VL MX VTO 14KT NOSIG=
201004051300 METAR MRPV 051300Z 12008KT CAVOK 21/14 A3002 RMK BKN250 VEL.MAX. VTO 13KT NOSIG=
201004051400 METAR MRPV 051400Z 11010KT CAVOK 23/14 A3002 RMK BKN250 NOSIG=
201004051500 METAR MRPV 051500Z 11009KT CAVOK 26/12 A3002 RMK BKN250 RMK VEL.MAX.VTO 15KT NOSIG=
201004051600 METAR MRPV 051600Z 09013KT CAVOK 28/10 A3002 RMK BKN250 VEL. MAX.VTO 19KT NOSIG=
201004051700 METAR MRPV 051700Z 07005KT CAVOK 29/11 A3001 RMK BKN250 VEL.MAX.VTO 12KT TEMPO 24005KT=
201004051800 METAR MRPV 051800Z 08006KT CAVOK 31/10 A2998 RMK BKN250 RMK TEMPO 24005KT=
201004051900 METAR MRPV 051900Z 07008KT CAVOK 30/12 A2995 RMK BKN250 VEL.MAX. VTO 14KT TEMPO 24005KT=
201004052000 METAR MRPV 052000Z 30003KT 9999 SCT045 BKN250 30/14 A2993 NOSIG=
201004052100 METAR MRPV 052100Z 20007KT 9999 FEW030 SCT045 28/17 A2992 RMK SCT250 TCU DST SE SW GUST 13KT=
201004052200 METAR MRPV 052200Z 08007KT 9999 FEW025 SCT040 26/18 A2993 RK TCU N NE SE SW FEW250 HZ ARND NOSIG=
201004052300 METAR MRPV 052300Z 10003KT 9999 FEW040 BKN250 27/18 A2993 TMK TCU DST SW S NE VIS N 6000MTS DUE HZ NOSIG=
201004060000 METAR MRPV NIL=
201004060100 METAR MRPV NIL=
201004060200 METAR MRPV NIL=
201004060300 METAR MRPV NIL=
201004060400 METAR MRPV NIL=
201004060500 METAR MRPV NIL=
201004060600 METAR MRPV NIL=
201004060700 METAR MRPV NIL=
201004060800 METAR MRPV NIL=
201004060900 METAR MRPV NIL=
201004061000 METAR MRPV NIL=
201004061100 METAR MRPV NIL=
201004061200 METAR MRPV 061200Z 11009KT CAVOK 20/15 A2998 RMK BKN250 LGT HZ ARND NOSIG=
201004061300 METAR MRPV 061300Z 12009KT CAVOK 22/15 A2998 RMK BKN250 HZY GUST 15KT NOSIG=
201004061400 METAR MRPV 061400Z 11009KT CAVOK 24/16 A3001 RMK BKN250 HZY=
201004061500 METAR MRPV 061500Z 09012KT CAVOK 25/16 A3002 RMK BKN250 HZY GUST 18KT VIS W 6KMS DUE HZ NOSIG=
201004061600 METAR MRPV 061600Z 07012KT CAVOK 27/16 A3000 RMK BKN250 HZ ARND GUST 17KT NOSIG=
201004061700 METAR MRPV 061700Z 08008KT 9999 FEW045 BKN250 28/16 A2999 RMK HZY VIS W 7000 DUE HZ GUST 15KT=
201004061800 METAR MRPV 061800Z 08010KT 9999 FEW045 SCT250 29/16 A2997 RMK HZY GUST 15KT NOSIG=
201004061900 METAR MRPV 061900Z 08009KT 9999 FEW045 SCT250 30/16 A2994 RMK TCU SW W VIS W 6000MTS DUE HZ HZY TEMPO 24005KT=
201004062000 METAR MRPV 062000Z 26009KT 8000 3500W HZ FEW020TCU SCT040 26/20 A2992=
201004062100 METAR MRPV 062100Z 27010KT 6000 FEW020TCU SCT035 20/19 A2991 RMK VIS E/S UNLM 5KM W HZY VEL MAX VTO 15KT NOSIG=
201004062200 METAR MRPV 062200Z 25005KT 5000 HZ VCSH SCT020TCU BKN035 26/19 A2991 RMK VIS S UNLM HZ SH DST SE 8KM NOSIG=
201004062300 METAR MRPV 062300Z 10008KT 5000 SHRA SCT015TCU BKN025 22/19 A2994 RMK VIS S UNLM VIS N/NE 3KM VEL MAX VTO 14KT HZY TEMPO 8000=
201004070000 METAR MRPV NIL=
201004070100 METAR MRPV NIL=
201004070200 METAR MRPV NIL=
201004070300 METAR MRPV NIL=
201004070400 METAR MRPV NIL=
201004070500 METAR MRPV NIL=
201004070600 METAR MRPV NIL=
201004070700 METAR MRPV NIL=
201004070800 METAR MRPV NIL=
201004070900 METAR MRPV NIL=
201004071000 METAR MRPV NIL=
201004071100 METAR MRPV NIL=
201004071200 METAR MRPV 071200Z 07003KT CAVOK 21/17 A2994 RMK BKN250 HZ W POLVO PROXIMACION PISTA 09 NOSIG=
201004071300 METAR MRPV 071300Z 12005KT CAVOK 23/16 A2996 RMK HZ W SCT250 NOSIG=
201004071400 METAR MRPV 071400Z 11007KT CAVOK 25/16 A2997 RMK FEW250 HZ QUAD W NOSIG=
201004071500 METAR MRPV 071500Z 10006KT 9999 NSC 27/16 A2998 RMK HZ QUAD W TEMPO 30005KT=
201004071600 METAR MRPV 071600Z 10006KT 9999 NSC 27/16 A2998 RMK VIS 8KM W DUE HZ TEMPO 24005KT=
201004071700 METAR MRPV 071700Z 07009KT 9999 FEW045 29/16 A2996 RMK VIS W 6KM DUE HZ VEL MAX VTO 15KT TEMPO 24005KT=
201004071800 METAR MRPV 071800Z 07011KT 9999 FEW045 29/17 A2995 RMK VIS 6KM W DUE HZ TEMPO 24005KT=
201004071900 METAR MRPV 071900Z 07004KT 9999 SCT045 30/16 A2991 MRK VIS 6KM W DUE HZ TEMPO 24005KT=
201004072000 METAR MRPV 072000Z 27004KT 9999 FEW025TCU SCT045 28/19 A2989 RMK VIS W 6KM DUE HZ LGT HZ ARND TEMPO 8000 -RA VCSH SCT015CB=
201004072100 METAR MRPV 072100Z 25003KT 9999 SH FEW020TCU BKN040 27/19 A2987 RMK LGT HZ ARND VIS 6KM NNE DUE SH TEMPO 8000 SCT010CB=
201004072200 METAR MRPV 072200Z 25006KT 8000 3500NE HZ SCT015TCU BKN035 26/20 A2989 RMK HZY VIS S UNL TEMPO 5000=
201004072300 METAR MRPV 072300Z 08004KT 9999 4000N RA FEW015TCU BKN030 23/20 A2990 RMK HZ LGT ARND DST NOSIG=
201004080000 METAR MRPV 080000Z NIL=
201004080100 METAR MRPV NIL=
201004080200 METAR MRPV NIL=
201004080300 METAR MRPV NIL=
201004080400 METAR MRPV NIL=
201004080500 METAR MRPV NIL=
201004080600 METAR MRPV NIL=
201004080700 METAR MRPV NIL=
201004080800 METAR MRPV NIL=
201004080900 METAR MRPV NIL=
201004081000 METAR MRPV NIL=
201004081100 METAR MRPV NIL=
201004081200 METAR MRPV 081200Z 10008KT CAVOK 21/16 A2994 RMK SCT250 MOSIG=
201004081300 METAR MRPV 081300Z 09010KT 8000 FEW020 SCT250 22/16 A2995 RMK HZ ARND NOSIG=
201004081400 METAR MRPV 081400Z 09010KT 8000 FEW020 SCT250 24/16 A2998 RMK VEL.MAX.VTO. 15KT HZ ARND NOSIG=
201004081500 METAR MRPV 081500Z 08010KT 8000 FEW020 26/17 A2999 RMK HZ ARND NOSIG=
201004081600 METAR MRPV 081600Z 07010KT 8000 FEW020 27/17 A2998 RMK HZ ARN NOSIG=
201004081700 METAR MRPV 081700Z 07010KT 9999 BKN030 28/17 A2997 RMK HZ ARND NOSIG=
201004081800 METAR MRPV 081800Z 27010KT 9999 FEW015TCU BKN030 27/19 A2995 RMK HZ ARND NOSIG=
201004081900 METAR MRPV 081900Z 28008KT 8000 FEW012TCU BKN030 29/19 A2991 RMK HZ ARND BECMG -RA=
201004082000 METAR MRPV NIL=
201004082100 METAR MRPV 082100Z 00000KT 5000 2000N -RA SCT008 BKN015 21/20 A2991 RMK TS NW W NOSIG=
201004082200 METAR MRPV 082200Z VRB02KT 6000 -RA SCT008 BKN018 22/21 A2990 NOSIG=
201004082300 METAR MRPV 082300Z 08006KT 5000 BR SCT008 BKN020 23/20 A2989 RERA NOSIG=
201004090000 METAR MRPV 090000Z NIL=
201004090100 METAR MRPV NIL=
201004090200 METAR MRPV 090200Z NIL=
201004090300 METAR MRPV NIL=
201004090400 METAR MRPV NIL=
201004090500 METAR MRPV NIL=
201004090600 METAR MRPV NIL=
201004090700 METAR MRPV NIL=
201004090800 METAR MRPV NIL=
201004090900 METAR MRPV NIL=
201004091000 METAR MRPV NIL=
201004091100 METAR MRPV NIL=
201004091200 METAR MRPV 091200Z 12010KT 9999 FEW025 BKN250 21/16 A2998 NOSIG=
201004091300 METAR MRPV 091300Z 10010KT 9999 FEW025 SCT250 22/16 A3000 RMK VEL MAX VTO 15KT=
201004091400 METAR MRPV 091400Z 09011KT 9999 FEW025 24/17 A3003 RMK VEL MAX VTO 15KT NOSI G=
201004091500 METAR MRPV 091500Z 09013G23KT 9999 SCT022 25/17 A3003 RMK NOSIG=
201004091600 METAR MRPV 091600Z 09012G22KT 9999 SCT022 25/17 A3003 RMK NOSIG=
201004091700 METAR MRPV 091700Z 10010G20KT 9999 SCT022 26/17 A3002 NOSIG=
201004091800 METAR MRPV 091800Z 08010G20KT 9999 SCT022 28/18 A2999 RMK TCU DST NW NOSIG=
201004091900 METAR MRPV 091900Z 07011G21KT 9999 SCT022 27/18 A2996 RMK PCPN DST NE NOSIG=
201004092000 METAR MRPV 092000Z 07013G23KT 9999 SCT022 BKN250 26/17 A2994 RMK PCPN DST NE NOSIG=
201004092100 METAR MRPV 092100Z 08012G22KT 9999 SCT022 BKN250 26/16 A2993 RMK RN DST NE SW NOSIG=
201004092200 METAR MRPV 092200Z 09010G20KT 9999 SCT020 BKN250 24/16 A2994 RMK RN DST NE NOSIG=
201004092300 METAR MRPV 092300Z 10010G20KT 9999 FEW018 OVC250 23/16 A2996 RMK RN DST NE NOSIG=
201004100000 METAR MRPV NIL=
201004100100 METAR MRPV NIL=
201004100200 METAR MRPV NIL=
201004100300 METAR MRPV NIL=
201004100400 METAR MRPV NIL=
201004100500 METAR MRPV NIL=
201004100600 METAR MRPV NIL=
201004100700 METAR MRPV NIL=
201004100800 METAR MRPV NIL=
201004100900 METAR MRPV NIL=
201004101000 METAR MRPV NIL=
201004101100 METAR MRPV NIL=
201004101200 METAR MRPV 101200Z 12010KT 9999 FEW025 SCT250 21/16 A3003 RMK DZT NE RN NOSIG=
201004101300 METAR MRPV 101300Z 11010KT 9999 FEW025 SCT250 22/16 A3004 RMK RN DST NE NOSIG=
201004101400 METAR MRPV 101400Z 10010KT 9999 FEW020 BKN250 24/17 A3005 RMK RN DST E NOSIG=
201004101500 METAR MRPV 101500Z 07010G20KT 9999 FEW020 BKN250 25/17 A3006 RMK RN DST NE NOSIG=
201004101600 METAR MRPV 101600Z 08011G21KT 9999 FEW020 BKN250 25/17 A3005 RMK RN DST NE=
201004101700 METAR MRPV 101700Z 08010G20KT 9999 SCT020 BKN250 25/17 A3005 RMK RN DST NE NOSIG=
201004101800 METAR MRPV 101800Z 08010G20KT 9999 SCT020 BKN250 26/18 A3003 RMK RN DST NE NOSIG=
201004101900 METAR MRPV 101900Z 08011G21KT 9999 SCT020 BKN250 27/17 A3000 RMK RN DST NE NOSIG=
201004102000 METAR MRPV NIL=
201004102100 METAR MRPV 102100Z 07014G24KT 9999 FEW015 SCT030 BKN250 25/17 A2997 RMK RN NE NOSIG=
201004102200 METAR MRPV 102200Z 08010G20KT 9999 FEW015 SCT030 BKN250 24/17 A2996 RMK RN NE NOSIG=
201004102300 METAR MRPV 102300Z 10010G20KT 9999 FEW010 BKN030 23/17 A2998 RMK RN NE BECMG -RA=
201004110000 METAR MRPV NIL=
201004110100 METAR MRPV NIL=
201004110200 METAR MRPV NIL=
201004110300 METAR MRPV NIL=
201004110400 METAR MRPV NIL=
201004110500 METAR MRPV NIL=
201004110600 METAR MRPV NIL=
201004110700 METAR MRPV NIL=
201004110800 METAR MRPV NIL=
201004110900 METAR MRPV NIL=
201004111000 METAR MRPV NIL=
201004111100 METAR MRPV NIL=
201004111200 METAR MRPV 111200Z 10008KT SCT030 SCT100 21/17 A2998 RMK PCPN DST NW N NE NOSIG=
201004111201 METAR MRPV 111201Z 10008KT 9999 SCT030 SCT100 21/17 A2998 RMK PCPN DST NW N NE NOSIG=
201004111300 METAR MRPV 111300Z 12008KT 9999 SCT030 SCT100 22/17 A3000 RMK DZ NW N NE DST NOSIG=
201004111400 METAR MRPV 111400Z 10010KT 99999 FEW030 SCT100 23/17 A3002 RMK DZ DST N NE GUST 15KT FEW250 NOSIG=
201004111500 METAR MRPV 111500Z 08016KT 9999 SCT035 SCT100 23/17 A3003 RMK DZ N NE DST GUST 22KT NOSIG=
201004111600 METAR MRPV 111600Z 08015KT 9999 FEW030 BKN250 24/17 A3002 RMK DZ NE=
201004111700 METAR MRPV 111700Z 08015KT 9999 FEW030 SCT100 26/17 A3000 RMK SCT250 DZ NW N NE GUST 21KT NOSIG=
201004111800 METAR MRPV 111800Z 08016KT 9999 FEW035 BKN100 26/17 A2998 RMK DZ NW N NE GUST 21KT NOSIG=
201004111900 METAR MRPV 111900Z 08016KT 9999 SCT025 SCT100 27/17 A2996 RMK DZ NW N NE NOSIG=
201004112000 METAR MRPV 112000Z 07017KT 9999 SCT025 SCT100 26/17 A2994 RMK DZ N NE DST GUST 22KT NOSIG=
201004112100 METAR MRPV 112100Z 06016G26KT 9999 FEW025 SCT100 25/17 A2994 RMK SCT250 DZ DST N NOSIG=
201004112200 METAR MRPV 112200Z 08013KT 9999 FEW030 BKN100 24/17 A2993 RMK FEW250 VEL MAX VTO 19KT DZ DST N/NE NOSIG=
201004112300 METAR MRPV 112300Z 09010KT 9999 SCT030 BKN100 23/17 A2992 RMK DZ DST NW/N/NE VEL MAX VTO 18KT NOSIG=
201004120000 METAR MRPV NIL=
201004120100 METAR MRPV NIL=
201004120200 METAR MRPV NIL=
201004120300 METAR MRPV NIL=
201004120400 METAR MRPV NIL=
201004120500 METAR MRPV NIL=
201004120600 METAR MRPV NIL=
201004120700 METAR MRPV NIL=
201004120800 METAR MRPV NIL=
201004120900 METAR MRPV NIL=
201004121000 METAR MRPV NIL=
201004121100 METAR MRPV NIL=
201004121200 METAR MRPV 121200Z 09014KT 9999 FEW030 SCT100 BKN250 21/17 A2996 RMK VEL.MAX.VTO 19KT DZ DST NE NOSIG=
201004121300 METAR MRPV 121300Z 09011KT CAVOK 22/16 A2997 RMK VEL MAX VTO 18KT DZ DST N/NE FEW120 BKN250 NOSIG=
201004121400 METAR MRPV 121400Z 08016KT CAVOK 23/17 A2999 RMK BKN250 DZ DST NE VEL MAX VTO 21KT NOSIG=
201004121500 METAR MRPV 121500Z 07016KT 9999 FEW045 BKN250 25/17 A3000 RMK DZ DST NE VEL MAX VTO 21KT NOSIG=
201004121600 METAR MRPV 121600Z 07014KT 9999 FEW045 BKN250 25/17 A2998 NOSIG=
201004121700 METAR MRPV 121700Z 08013KT 9999 FEW045 SCT250 26/17 A2996 RMK FEW090 NOSIG=
201004121800 METAR MRPV 121800Z 08015KT 9999 BKN040 27/17 A2995 RMK VEL MAX VTO 20KT NOSIG=
201004121900 METAR MRPV 121900Z 08017KT 9999 SCT040 BKN250 26/18 A2993 RMK TCU DST SW NOSIG=
201004122000 METAR MRPV 122000Z 07016KT 9999 FEW040 SCT250 27/17 A2990 RMK CB DST SW NOSIG=
201004122100 METAR MRPV 122100Z 08013KT 9999 FEW045 27/16 A2988 RMK TCU DST SW FEW250 NOSIG=
201004122200 METAR MRPV 122200Z 08015KT 9999 FEW035 SCT100 24/18 A2988 RMK SCT250 CB DST S NOSIG=
201004122300 METAR MRPV NIL=
201004130000 METAR MRPV 130000Z=
201004130100 METAR MRPV NIL=
201004130200 METAR MRPV NIL=
201004130300 METAR MRPV NIL=
201004130400 METAR MRPV NIL=
201004130500 METAR MRPV NIL=
201004130600 METAR MRPV NIL=
201004130700 METAR MRPV NIL=
201004130800 METAR MRPV NIL=
201004130900 METAR MRPV NIL=
201004131000 METAR MRPV NIL=
201004131100 METAR MRPV NIL=
201004131200 METAR MRPV 131200Z 10010KT 9999 SCT020 BKN250 20/16 A2994 NOSIG=
201004131300 METAR MRPV 131300Z 11008KT 9999 SCT025 BKN250 22/17 A2996 NOSIG=
201004131400 METAR MRPV 131400Z 10011KT 9999 SCT020 BKN250 23/17 A2999 NOSIG=
201004131500 METAR MRPV 131500Z 10011KT 9999 SCT025 BKN250 24/16 A3000 NOSIG=
201004131600 METAR MRPV 131600Z 10010KT 9999 SCT025 BKN250 26/16 A2999 NOSIG=
201004131700 METAR MRPV 131700Z 08016KT 9999 SCT025 BKN250 27/16 A2998 RMK VEL.MAX.VTO. 21KT NOSIG=
201004131800 METAR MRPV 131800Z 08014KT 9999 SCT030 BKN250 26/17 A2996 NOSIG=
201004131900 METAR MRPV 131900Z 10010KT 9999 FEW020TCU SCT035 BKN120 28/17 A2993 RMK RN N NOSIG=
201004132000 METAR MRPV 132000Z 08014KT 9999 FEW020TCU SCT030 BKN120 25/17 A2990 RMK TS DST S TEMPO BKN020=
201004132100 METAR MRPV 132100Z 08013KT 9999 FEW010TCU SCT025 BKN120 24/17 A2990 TEMPO BKN020=
201004132200 METAR MRPV 132200Z 07008KT 9999 SCT020TCU BKN120 24/17 A2990 NOSIG=
201004132300 METAR MRPV 132300Z 08011KT 9999 SCT025 BKN100 24/17 A2991 NOSIG=
201004140000 METAR MRPV 140000Z NIL=
201004140100 METAR MRPV 140100Z=
201004140200 METAR MRPV NIL=
201004140300 METAR MRPV NIL=
201004140400 METAR MRPV NIL=
201004140500 METAR MRPV NIL=
201004140600 METAR MRPV NIL=
201004140700 METAR MRPV NIL=
201004140800 METAR MRPV NIL=
201004140900 METAR MRPV NIL=
201004141000 METAR MRPV NIL=
201004141100 METAR MRPV NIL=
201004141200 METAR MRPV 141200Z 10010KT 9999 FEW025 BKN250 21/16 A2999 RMK BC DST SWW NOSIG=
201004141300 METAR MRPV NIL=
201004141400 METAR MRPV 141400Z 11010KT CAVOK 23/16 A3003 RMK BKN250 NOSIG=
201004141500 METAR MRPV 141500Z 10010KT CAVOK 24/16 A3004 BKN250 NOSIG=
201004141600 METAR MRPV 141600Z 09010KT 9999 FEW030 BKN250 25/16 A3003 NOSIG=
201004141700 METAR MRPV 141700Z 06008KT 9999 FE030 BKN250 27/16 A3003 BECMG 24006KT=
201004141800 METAR MRPV 141800Z 24006KT 9999 FEW025 OVC250 25/18 A3002 NOSIG=
201004141900 METAR MRPV 141900Z VRB02KT 9999 FEW025 SCT120 BKN250 27/17 A2998 NOSIG=
201004142000 METAR MRPV 142000Z 27008KT 9999 FEW025 SCT120 BKN250 28/16 A2996 NOSIG=
201004142100 METAR MRPV 142100Z VRB02KT 9999 FEW020 SCT120 BKN250 27/18 A2994 RMK HZ ARND NOSIG=
201004142200 METAR MRPV 142200Z 07008KT 9999 FEW020 SCT120 BKN250 26/18 A2993 RMK HZ ARND VIS 5000 SW HZ=
201004142300 METAR MRPV 142300Z 09010KT 9999 SCT020 OVC100 24/17 A2993 RMK HZ ARND NOSIG=
201004150000 METAR MRPV NIL=
201004150100 METAR MRPV NIL=
201004150200 METAR MRPV NIL=
201004150300 METAR MRPV NIL=
201004150400 METAR MRPV NIL=
201004150500 METAR MRPV NIL=
201004150600 METAR MRPV NIL=
201004150700 METAR MRPV NIL=
201004150800 METAR MRPV NIL=
201004150900 METAR MRPV NIL=
201004151000 METAR MRPV NIL=
201004151100 METAR MRPV NIL=
201004151200 METAR MRPV 151200Z 13005KT CAVOK 21/16 A2998 RMK BKN120 CB DST S/SW NOSIG=
201004151300 METAR MRPV 151300Z 12006KT CAVOK 22/16 A3000 RMK BKN120 CB DST SW HZ=
201004151400 METAR MRPV 151400Z 13006KT CAVOK 25/16 A3001 RMK SCT120 SCT250 HZ QUAD W VEL.MAX.VTO 13KT NOSIG=
201004151500 METAR MRPV 151500Z 10008KT 9999 FEW030 SCT250 25/16 A3003 RMK HZ W NOSIG=
201004151600 METAR MRPV 151600Z 08012KT 9999 FEW030 SCT250 27/17 A3002 NOSIG=
201004151700 METAR MRPV 151700Z 07010KT 9999 SCT025 SCT250 28/17 A3001 RMK VEL.MAX.VTO 15KT NOSIG=
201004151800 METAR MRPV 151800Z 09006KT 9999 SCT020TCU SCT250 29/17 A2998 RMK HZ W BECMG 24006KT=
201004151900 METAR MRPV 151900Z 08010KT 9999 SCT020TCU SCT250 28/17 A2996 RMK HZ W BECNG 24006KT=
201004152000 METAR MRPV 152000Z 08008KT 9999 SCT020TCU SCT250 29/17 A2993 RMK VIS 5000NW HZ BECMG 24006KT=
201004152100 METAR MRPV 152100Z 29010KT 3000 TSRA SCT008CB BKN020 21/20 A2996 BECMG 5000 -RA=
201004152200 METAR MRPV 152200Z VRB02KT 5000 2000N -RA SCT002 BKN018 21/20 A2995 NOSIG=
201004152300 METAR MRPV 152300Z 00000KT 6000 2000N -RA BR SCT002 BKN020 22/20 A2996 NOSIG=
201004160000 METAR MRPV NIL=
201004160100 METAR MRPV NIL=
201004160200 METAR MRPV NIL=
201004160300 METAR MRPV NIL=
201004160400 METAR MRPV NIL=
201004160500 METAR MRPV NIL=
201004160600 METAR MRPV NIL=
201004160700 METAR MRPV NIL=
201004160800 METAR MRPV NIL=
201004160900 METAR MRPV NIL=
201004161000 METAR MRPV NIL=
201004161100 METAR MRPV NIL=
201004161200 METAR MRPV 161200Z 00000KT CAVOK 20/16 A2998 RMK FEW250 DUST APCH RNY 09 LGT HZ ARND NOSIG=
201004161300 METAR MRPV 161300Z 12005KT CAVOK 23/16 A3000 RMK SCT250 HZ ARND NOSIG=
201004161400 METAR MRPV 161400Z 12005KT 9999 NSC 25/16 A2999 HZ LGT ARND NOSIG=
201004161500 METAR MRPV 161500Z 10010KT 9999 FEW030 27/15 A2999 NOSIG=
201004161600 METAR MRPV 161600Z 07010KT 9999 FEW030 28/16 A2999 RMK GUST 16KT NOSIG=
201004161700 METAR MRPV 161700Z 07010KT 9999 FEW030 28/16 A2999 RMK GUST 16KT NOSIG=
201004161800 METAR MRPV 161800Z 07010KT 9999 SCT030TCU 29/18 A2995 BECMG 25007KT=
201004161900 METAR MRPV 161900Z 25007KT 9999 VCTS FEW010CB SCT030TCU 27/20 A2993 RMK CB DST SW BECMG 8000 VCSH=
201004162000 METAR MRPV 162000Z 25008KT 8000 FEW010CB BKN025 25/20 A2992 RMK HZ ARND BECMG 5000 SHRA=
201004162100 METAR MRPV 162100Z 10010KT 2000 +TSRA SCT008CB BKN012 20/19 A2993 BECMG 5000 -RA BKN015=
201004162200 METAR MRPV 162200Z VRB02KT 6000 -RA SCT004 BKN020 20/18 A2992 NOSIG=
201004162300 METAR MRPV 162300Z 12004KT 8000 3000NW -RABR FEW006 SCT020 BKN120 21/19 A2994 NOSIG=
201004170000 METAR MRPV NIL=
201004170100 METAR MRPV NIL=
201004170200 METAR MRPV NIL=
201004170300 METAR MRPV NIL=
201004170400 METAR MRPV NIL=
201004170500 METAR MRPV NIL=
201004170600 METAR MRPV NIL=
201004170700 METAR MRPV NIL=
201004170800 METAR MRPV NIL=
201004170900 METAR MRPV NIL=
201004171000 METAR MRPV NIL=
201004171100 METAR MRPV NIL=
201004171200 METAR MRPV 171200Z 00000KT CAVOK 20/17 A2998 RMK BKN120 NOSIG=
201004171300 METAR MRPV 171300Z 00000KT CAVOK 20/17 A3001 RMK BKN120 DU APCH 09 NOSIG=
201004171400 METAR MRPV 171400Z 12003KT 9999 FEW012 OVC120 20/18 A3003 NOSIG=
201004171500 METAR MRPV 171500Z 00000KT 9000 -RA FEW010 OVC100 20/18 A3005 RMK TEMPO 7000BR=
201004171600 METAR MRPV 171600Z 12002KT 8000 4000N -RA BR FEW010 OVC100 20/18 A3005 NOSIG=
201004171700 METAR MRPV 171700Z 10003KT 9999 4000NW -RA FEW012 OVC100 21/18 A3002 NOSIG=
201004171800 METAR MRPV 171800Z 27005KT 3000 -RA BR SCT006 BKN020 21/20 A3003 TEMPO 1000 BR=
201004171900 METAR MRPV 171900Z 12003KT 9999 FEW015 OVC100 22/19 A2997 NOSIG=
201004172000 METAR MRPV 172000Z 13003KT 9999 FEW010 BKN120 25/17 A2992 RMK TCU DST E/SE NOSIG=
201004172100 METAR MRPV 172100Z 25006KT 9999 FEW010 BKN100 23/20 A2992 RMK VIS 5KM=
201004172200 METAR MRPV 172200Z 28008KT 4000 BR SCT010 BKN100 23/19 A2993 TEMPO 2000 BR=
201004172300 METAR MRPV 172300Z 30003KT 5000 BR FEW017 SCT100 BKN250 21/18 A2994 NOSIG=
201004180000 METAR MRPV 180000Z NIL=
201004180100 METAR MRPV NIL=
201004180200 METAR MRPV NIL=
201004180300 METAR MRPV NIL=
201004180400 METAR MRPV NIL=
201004180500 METAR MRPV NIL=
201004180600 METAR MRPV NIL=
201004180700 METAR MRPV NIL=
201004180800 METAR MRPV NIL=
201004180900 METAR MRPV NIL=
201004181000 METAR MRPV NIL=
201004181100 METAR MRPV NIL=
201004181200 METAR MRPV 181200Z 00000KT CAVOK 17/14 A2999 RMK SCT300 NOSIG=
201004181300 METAR MRPV 181300Z 14003KT CAVOK 22/15 A3000 RMK SCT300 TEMPO 24006KT=
201004181400 METAR MRPV 181400Z 21002KT CAVOK 25/16 A3001 RMK FEW300 NOSIG=
201004181500 METAR MRPV 181500Z 18003KT CAVOK 28/15 A3001 RMK FEW300 NOSIG=
201004181600 METAR MRPV 181600Z 06003KT 9999 FEW040 28/16 A3000 NOSIG=
201004181700 METAR MRPV 181700Z 28007KT 9999 FEW040 28/17 A3000 NOSIG=
201004181800 METAR MRPV 181800Z 28009KT 9999 SCT030 29/18 A2998 NOSIG=
201004181900 METAR MRPV 181900Z 28011KT 9999 SCT035 29/19 A2995 NOSIG=
201004182000 METAR MRPV 182000Z 27008KT 9999 SCT030 29/19 A2994 RMK TCU SCTD ARND NOSIG=
201004182100 METAR MRPV 182100Z 27009KT 9999 BR SCT025TCU BKN100 28/20 A2993 VIS NW 5KMS NOSIG=
201004182200 METAR MRPV 182200Z 24004KT 9999 SCT020TCU BKN100 27/20 A2993 RN DST E NOSIG=
201004182300 METAR MRPV 182300Z 09007KT 9999 SCT020 BKN100 25/19 A2994 NOSIG=
201004182345 METAR MRPV 182345Z 08006KT 9999 SCT015 BKN100 24/19 A2995 NOSIG=
201004190000 METAR MRPV NIL=
201004190100 METAR MRPV 190100Z NIL=
201004190200 METAR MRPV NIL=
201004190300 METAR MRPV NIL=
201004190400 METAR MRPV NIL=
201004190500 METAR MRPV NIL=
201004190600 METAR MRPV NIL=
201004190700 METAR MRPV NIL=
201004190800 METAR MRPV NIL=
201004190900 METAR MRPV NIL=
201004191000 METAR MRPV NIL=
201004191100 METAR MRPV NIL=
201004191200 METAR MRPV 191200Z 13004KT CAVOK 22/16 A3000 RMK SCT120 BKN250 CB DST SW LGT HZ ARND NOSIG=
201004191300 METAR MRPV 191300Z 11009KT CAVOK 24/16 A3001 RMK SCT250 LGT HZ ARND VEL MAX VTO 15KT NOSIG=
201004191400 METAR MRPV 191400Z 10011KT CAVOK 25/17 A3003 RMK FEW250 LGT HZ ARND VEL MAX VTO 16KT NOSIG=
201004191500 METAR MRPV 191500Z 07013KT CAVOK 26/17 A3004 RMK SCT130 BKN250 NOSIG=
201004191600 METAR MRPV 191600Z 05009KT CAVOK 27/16 A3005 RMK SCT130 BKN250 VEL MAX VTO 16KT NOSIG=
201004191700 METAR MRPV 191700Z 06010KT 9999 FEW040 SCT130 BKN250 28/16 A3004 VEL MAX VTO 16KT NOSIG=
201004191800 METAR MRPV 191800Z 06008KT 9999 SCT040 BKN130 29/17 A3001 NOSIG=
201004191900 METAR MRPV 191900Z 08004KT 9999 SCT040 BKN130 30/17 A2998 TEMPO 24006KT=
201004192000 METAR MRPV 192000Z 10004KT 9999 SCT040 SCT130 BKN250 30/17 A2995 TEMPO 24006KT=
201004192100 METAR MRPV 192100Z 26005KT 9000 4000N RA SCT020TCU BKN120 28/20 A2993 TEMPO 5000 SHRA=
201004192200 METAR MRPV 192200Z 12002KT 3000 TSRA SCT010CB BKN020 22/18 A2998 TEMPO 2000 SHRA=
201004192300 METAR MRPV 192300Z 25003KT 9999 4000SW RA BR SCT025 OVC100 20/19 A2999 TEMPO 9999 RA=
201004200000 METAR MRPV NIL=
201004200100 METAR MRPV NIL=
201004200200 METAR MRPV NIL=
201004200300 METAR MRPV NIL=
201004200400 METAR MRPV NIL=
201004200500 METAR MRPV NIL=
201004200600 METAR MRPV NIL=
201004200700 METAR MRPV NIL=
201004200800 METAR MRPV NIL=
201004200900 METAR MRPV NIL=
201004201000 METAR MRPV NIL=
201004201100 METAR MRPV NIL=
201004201200 METAR MRPV 201200Z 00000KT 9999 4000W HZ BKN250 19/17 A3002 RMK POLVO PROXIMACION PISTA 09 NOSIG=
201004201300 METAR MRPV 201300Z 07003KT 9999 4000W HZ BKN250 21/18 A3004 RMK POLVO APROXIMACION PISTA 09 NOSIG=
201004201400 METAR MRPV 201400Z 00000KT 7000 3000W HZ 24/19 A3005 RMK VIS 9999 S N TEMPO 06004KT=
201004201500 METAR MRPV 201500Z VRB02KT 7000 3000W HZ FEW030 SCT250 26/18 A3005 RMK POLVO APROXIMACION PISTA 09 TEMPO 24006KT=
201004201600 METAR MRPV 201600Z 24004KT 8000 FEW030 SCT250 28/17 A3004 RMK POLVO APROXIMACION PISTA 09 HZ ARND NOSIG=
201004201700 METAR MRPV 201700Z 27008KT 8000 SCT025 BKN250 29/18 A3002 RMK HZ ARND NOSIG=
201004201800 METAR MRPV 201800Z 27008KT 7000 SCT020 BKN250 28/18 A3000 RMK HZ ARND NOSIG=
201004201900 METAR MRPV 201900Z 25006KT 7000 3000N HZ FEW010TCU SCT020 BKN250 28/18 S2998 BECMG -RA=
201004202000 METAR MRPV 202000Z 22004KT 7000 3000N HZ FEW010TCU SCT020 BKN250 28/18 A2995 BECMG -RA=
201004202100 METAR MRPV 202100Z 27006KT 6000 2000N HZ SCT015 BKN250 27/20 A2994 BECMG -RA=
201004202200 METAR MRPV 202200Z VRB02KT 5000 2000NW -RA HZ SCT010 BKN020 25/19 A2993 BECM G 3000 -RA HZ=
201004202300 METAR MRPV 202300Z VRB02KT 5000 2000NW -RA HZ SCT010 BKN020 24/20 A2995 RMK BECMG 3000 -RA HZ=
201004210000 METAR MRPV NIL=
201004210100 METAR MRPV NIL=
201004210200 METAR MRPV NIL=
201004210300 METAR MRPV NIL=
201004210400 METAR MRPV NIL=
201004210500 METAR MRPV NIL=
201004210600 METAR MRPV NIL=
201004210700 METAR MRPV NIL=
201004210800 METAR MRPV NIL=
201004210900 METAR MRPV NIL=
201004211000 METAR MRPV NIL=
201004211100 METAR MRPV NIL=
201004211200 METAR MRPV 211200Z 13007KT CAVOK 22/16 A2997 RMK BKN250 LGT HZ W VEL MAX VTO 12KT NOSIG=
201004211300 METAR MRPV 211300Z 12007KT CAVOK 23/16 A2998 RMK BKN250 NOSIG=
201004211400 METAR MRPV 211400Z 11009KT CAVOK 25/15 A2999 FEW140 BKN250 HZ W NOSIG=
201004211500 METAR MRPV 211500Z 08010KT CAVOK 26/15 A3000 RMK GUST 15KT HZ W BKN250 NOSIG=
201004211600 METAR MRPV 211600Z 08010KT CAVOK 28/16 A3000 RMK GUST 15KT BKN250 HZ W NOSIG=
201004211700 METAR MRPV 211700Z 08010KT 9999 FEW030 BKN140 29/16 A2999 RMK HZ W NOSIG=
201004211800 METAR MRPV 211800Z 07004KT 9999 FEW030 SCT140 BKN250 30/16 A2996 RMK HZ W BECMG 24006KT=
201004211900 METAR MRPV 211900Z 20004KT 9999 FEW030 SCT120 BKN250 31/15 A2993 RMK HZ W NOSIG=
201004212000 METAR MRPV 212000Z 25007KT 9999 FEW015TCU SCT120 BKN250 28/20 A2990 RMK HZ ARND NOSIG=
201004212100 METAR MRPV 212100Z 07008KT 8000 SCT010TCU BKN250 28/18 A2990 RMK HZ ARND BECMG 5000=
201004212200 METAR MRPV 212200Z 31008KT 8000 2000NW +RA VCTS FEW010CB BKN030 25/18 A2991 RMK HZ ARND BECMG 5000 -RA=
201004212300 METAR MRPV 212300Z 28005KT 9999 FEW015 BKN250 24/19 A2991 RMK HZ ARND NOSIG=
201004220000 METAR MRPV NIL=
201004220100 METAR MRPV NIL=
201004220200 METAR MRPV NIL=
201004220300 METAR MRPV NIL=
201004220400 METAR MRPV NIL=
201004220500 METAR MRPV NIL=
201004220600 METAR MRPV NIL=
201004220700 METAR MRPV NIL=
201004220800 METAR MRPV NIL=
201004220900 METAR MRPV NIL=
201004221000 METAR MRPV NIL=
201004221100 METAR MRPV NIL=
201004221200 METAR MRPV 221200Z 13006KT CAVOK 22/15 A2993 RMK OVC300 HZ W NOSIG=
201004221300 METAR MRPV 221300Z 11007KT CAVOK 24/17 A2995 RMK BKN300 NOSIG=
201004221400 METAR MRPV 221400Z 10011KT CAVOK 25/16 A2996 RMK BKN250 VEL MAX VTO 16KT NOSIG=
201004221500 METAR MRPV 221500Z 07012KT CAVOK 27/17 A2997 RMK BKN250 HZ QUAD W NOSIG=
201004221600 METAR MRPV 221600Z 07010KT CAVOK 27/17 A2996 RMK BKN250 HZ QUAD W NOSIG=
201004221700 METAR MRPV 221700Z 08010KT CAVOK 29/17 A2994 RMK BKN250 VEL MAX VTO 16KT HZ W NOSIG=
201004221800 METAR MRPV 221800Z 08010KT 9999 FEW030 BKN250 30/17 A2992 RMK HZ DST W BECMG 24007KT=
201004221900 METAR MRPV 221900Z 07008KT 9999 FEW030 SCT250 31/18 A2989 RMK HZ QUAD W BECMG 24007KT=
201004222000 METAR MRPV 222000Z 08010KT 9999 FEW030 BKN250 A2987 RMK HZ QUAD W NOSIG=
201004222100 METAR MRPV 22Z100Z 23008KT 9999 SCT025TCU BKN250 29/20 A2986 RMK HZ ARND NOSIG=
201004222200 METAR MRPV 222200Z 36010KT 360V070 7000 SCT015TCU BKN250 27/20 A2987 RMK HZ ARND NOSIG=
201004222300 METAR MRPV 222300Z 27006KT 6000 SCT010 BKN025 25/21 A2988 RMK HZ ARND NOSIG=
201004230000 METAR MRPV 230000Z NIL=
201004230100 METAR MRPV NIL=
201004230200 METAR MRPV NIL=
201004230300 METAR MRPV NIL=
201004230400 METAR MRPV NIL=
201004230500 METAR MRPV NIL=
201004230600 METAR MRPV NIL=
201004230700 METAR MRPV NIL=
201004230800 METAR MRPV NIL=
201004230900 METAR MRPV NIL=
201004231000 METAR MRPV NIL=
201004231100 METAR MRPV NIL=
201004231200 METAR MRPV 231200Z 10007KT CAVOK 22/17 A2993 RMK FEW120 BKN250 NOSIG=
201004231300 METAR MRPV 231300Z 12007KT CAVOK 23/17 A2994 RMK BKN250 NOSIG=
201004231400 METAR MRPV 231400Z 10010KT 9999 FEW045 BKN250 24/19 A2997 RMK FEW150 VEL.MAX.VTO 16KT NOSIG=
201004231500 METAR MRPV 231500Z 08011KT 9999 SCT035 BKN250 26/18 A2998 NOSIG=
201004231600 METAR MRPV 231600Z 08010KT 9999 FEW035 BKN120 28/19 A2996 NOSIG=
201004231700 METAR MRPV 231700Z 07010KT 9999 SCT030 BKN120 27/19 A2995 NOSIG=
201004231800 METAR MRPV 231800Z 08012KT 9999 SCT025 BKN120 27/19 A2994 NOSIG=
201004231900 METAR MRPV 231900Z 09009KT 9999 SCT030 BKN120 28/20 A2991 RMK RN DST=
201004232000 METAR MRPV 232000Z 08013KT 9999 SCT025 BKN100 27/19 A2989 RMK RN DST NW NOSIG=
201004232100 METAR MRPV 232100Z 06012KT 9999 SCT030 BKN100 28/19 A2988 NOSIG=
201004232200 METAR MRPV 232200Z 09012KT 5000 SHRA SCT010TCU BKN100 27/20 A2988 TEMPO 3000 SHRA=
201004232300 METAR MRPV 232300Z 07009KT 9999 -RA SCT020 OVC100 24/20 A2990 NOSIG=
201004240000 METAR MRPV NIL=
201004240100 METAR MRPV NIL=
201004240200 METAR MRPV NIL=
201004240300 METAR MRPV NIL=
201004240400 METAR MRPV NIL=
201004240500 METAR MRPV NIL=
201004240600 METAR MRPV NIL=
201004240700 METAR MRPV NIL=
201004240800 METAR MRPV NIL=
201004240900 METAR MRPV NIL=
201004241000 METAR MRPV NIL=
201004241100 METAR MRPV NIL=
201004241200 METAR MRPV 241200Z 11006KT CAVOK 22/17 A2995 RMK SCT120 OVC250 NOSIG=
201004241300 METAR MRPV 241300Z 10010KT CAVOK 24/17 A2996 RMK SCT130 BKN250 NOSIG=
201004241400 METAR MRPV 241400Z 09009KT 9999 FEW030 SCT130 BKN250 25/18 A2999 NOSIG=
201004241500 METAR MRPV 241500Z 09009KT 9999 FEW030 SCT130 BKN250 26/18 A3001 NOSIG=
201004241600 METAR MRPV 241600Z 12002KT 9999 FEW035 BKN250 28/18 A2999 NOSIG=
201004241700 METAR MRPV 241700Z 10005KT 9999 SCT035 BKN250 30/18 A2997 NOSIG=
201004241800 METAR MRPV 241800Z 26005KT 9999 SCT030 BKN120 29/19 A2995 NOSIG=
201004241900 METAR MRPV 241900Z 25006KT 9999 FEW015TCU SCT030 BKN120 28/21 A2995 NOSIG=
201004242000 METAR MRPV 242000Z 28009KT 9999 SCT020TCU BKN120 27/21 A2991 NOSIG=
201004242100 METAR MRPV 242100Z 26008KT 9000 4000W SHRA FEW010TCU SCT020 BKN100 26/22 A2992 TEMPO 6000 BKN010CB=
201004242200 METAR MRPV 242200Z 00000KT 9000 3000NW BR SCT006 BKN015 24/22 A2992 TEMPO 4000 BR RA=
201004242300 METAR MRPV 242300Z 28007KT 2000 BR BKN010 OVC020 22/21 A2994 TEMPO 1000BR=
201004250000 METAR MRPV NIL=
201004250100 METAR MRPV NIL=
201004250200 METAR MRPV NIL=
201004250300 METAR MRPV NIL=
201004250400 METAR MRPV NIL=
201004250500 METAR MRPV NIL=
201004250600 METAR MRPV NIL=
201004250700 METAR MRPV NIL=
201004250800 METAR MRPV NIL=
201004250900 METAR MRPV NIL=
201004251000 METAR MRPV NIL=
201004251100 METAR MRPV NIL=
201004251200 METAR MRPV 251200Z 00000KT 9999 4000S BR FEW010 SCT015 BKN250 21/20 A2996 TEMPO 9999=
201004251300 METAR MRPV 251300Z 16002KT 9999 FEW015 SCT120 BKN250 22/21 A2999 NOSIG=
201004251400 METAR MRPV 251400Z 09006KT CAVOK 25/20 A3000 RMK SCT130 BKN250 NOSIG=
201004251500 METAR MRPV 251500Z 10005KT 9999 FEW035 SCT130 BKN250 27/19 A2998 NOSIG=
201004251600 METAR MRPV 251600Z 27003KT 9999 SCT035 BKN120 28/21 A2996 NOSIG=
201004251700 METAR MRPV 251700Z 27006KT 9999 SCT030 BKN120 29/20 A2996 NOSIG=
201004251800 METAR MRPV 251800Z 00000KT 9999 3000S TSRA SCT010CB SCT020 BKN100 28/20 A2995 TEMPO 6000 BKN010CB=
201004251900 METAR MRPV 251900Z 00000KT 9999 SCT025 BKN100 26/22 A2993 RERA NOSIG=
201004252000 METAR MRPV 252000Z 10003KT 8000 3000S SHRA SCT010 BKN100 26/20 A2990 TEMPO 6000 BKN010=
201004252100 METAR MRPV 252100Z 00000KT 9999 4000W RA BR FEW010 SCT015 BKN100 24/21 A2990 NOSIG=
201004252200 METAR MRPV 252200Z 29005KT 8000 3000 NW RA BR SCT006 BKN010 22/20 A2992 TEMP O 5000 BR=
201004252300 METAR MRPV 252300Z 00000KT 9999 FEW015 OVC100 21/20 A2992 RERA NOSIG=
201004260000 METAR MRPV NIL=
201004260100 METAR MRPV NIL=
201004260200 METAR MRPV NIL=
201004260300 METAR MRPV NIL=
201004260400 METAR MRPV NIL=
201004260500 METAR MRPV NIL=
201004260600 METAR MRPV NIL=
201004260700 METAR MRPV NIL=
201004260800 METAR MRPV NIL=
201004260900 METAR MRPV NIL=
201004261000 METAR MRPV NIL=
201004261100 METAR MRPV NIL=
201004261200 METAR MRPV 261200Z 11003KT CAVOK 22/18 A2995 RMK BKN120 NOSIG=
201004261300 METAR MRPV 261300Z 11008KT CAVOK 24/18 A2995 RMK FEW120 BKN250 NOSIG=
201004261400 METAR MRPV 261400Z 11007KT CAVOK 26/18 A2997 RMK BKN250 HZ W NOSIG=
201004261500 METAR MRPV 261500Z 08010KT CAVOK 29/18 A2996 RMK BKN250 HZ W NOSIG=
201004261600 METAR MRPV 261600Z 08010KT CAVOK 29/18 A2995 RMK BKN250 HZ W GUST 15KT NOSIG=
201004261700 METAR MRPV 261700Z 07010KT 9999 FEW030 BKN250 30/19 A2995 RMK HZ W NOSIG=
201004261800 METAR MRPV 261800Z 07008KT 9999 FEW030 BKN250 30/18 A2993 RMK HZ W TCU NE NW BECMG 24006KT=
201004261900 METAR MRPV 261900Z 27010KT 9999 TSRA FEW015CB SCT030 BKN250 27/22 A2990 BECMG 5000 TSRA=
201004262000 METAR MRPV 262000Z 28012KT 9999 TSRA SCT010CB BKN030 26/18 A2989 RMK HZ ARND BECMG 5000 TSRA=
201004262100 METAR MRPV 262100Z 27010KT 8000 3000E TSRA SCT010CB BKN030 24/21 A2990 RMK HZ DST W BECMG 5000 TSRA=
201004262200 METAR MRPV 262200Z VRB02KT 7000 -RA SCT008 BKN025 23/21 A2991 RMK HZ ARND BECMG 5000 BKN015TCU=
201004262300 METAR MRPV 262300Z 00000KT 5000 -RA BR SCT002 BKN015 22/21 A2993 BECMG 3000 BR=
201004270000 METAR MRPV NIL=
201004270100 METAR MRPV NIL=
201004270200 METAR MRPV NIL=
201004270300 METAR MRPV NIL=
201004270400 METAR MRPV NIL=
201004270500 METAR MRPV NIL=
201004270600 METAR MRPV NIL=
201004270700 METAR MRPV NIL=
201004270800 METAR MRPV NIL=
201004270900 METAR MRPV NIL=
201004271000 METAR MRPV NIL=
201004271100 METAR MRPV NIL=
201004271200 METAR MRPV 271200Z 08003KT 9999 SCT040 SCT250 21/19 A2998 RMK FEW100 CB DST SW NOSIG=
201004271300 METAR MRPV 271300Z 07003KT 9999 SCT040 BKN100 22/20 A3001 RMK DU NR APCH 09 FU SE NOSIG=
201004271400 METAR MRPV 271400Z 13004KT 9999 FEW040 BKN100 24/19 A3002 RMK LGT HZ ARND TEMPO 24005KT=
201004271500 METAR MRPV 271500Z 12006KT 8000 FEW030 SCT100 BKN250 26/19 A3004 RMK HZ ARND BECMG 22006KT=
201004271600 METAR MRPV 271600Z 08007KT 8000 FEW040 SCT100 BKN250 28/19 A3003 HZ ARND TEMPO 24005KT=
201004271700 METAR MRPV 271700Z 32004KT 7000 FEW025 SCT040 27/21 A3001 HZY SCT250 NOSIG=
201004271800 METAR MRPV 271800Z 27010KT 8000 3000NE SHRA FEW010CB SCT030 BKN250 27/20 A2999 HZ ARND BECMG 7000 -RA=
201004271900 METAR MRPV 271900Z 29010KT 8000 3000NE SHRA FEW010CB SCT030 BKN250 26/20 A2997 RMK HZ ARND NOSIG=
201004272000 METAR MRPV 272000Z 29010KT 8000 3000N TSRA FEW010CB BKN025 25/20 A2996 BECMG 5000 TSRA=
201004272100 METAR MRPV 272100Z 31005KT 5000W 2000W +SHRA SCT002 BKN015 22/20 A2994 BECMG 2000 +SHRA=
201004272200 METAR MRPV 272200Z 30004KT 4000 -RA BR SCT001 BKN012 22/21 A2995 BECMG 5000 BKN015=
201004272300 METAR MRPV 272300Z 00000KT 3000 -RA BR SCT001 SCT010 21/20 A2997 NOSIG=
201004280000 METAR MRPV 280000Z NIL=
201004280100 METAR MRPV NIL=
201004280200 METAR MRPV NIL=
201004280300 METAR MRPV NIL=
201004280400 METAR MRPV NIL=
201004280500 METAR MRPV NIL=
201004280600 METAR MRPV NIL=
201004280700 METAR MRPV NIL=
201004280800 METAR MRPV NIL=
201004280900 METAR MRPV NIL=
201004281000 METAR MRPV NIL=
201004281100 METAR MRPV NIL=
201004281200 METAR MRPV 281200Z 00000KT CAVOK 20/19 A3001 RMK FEW130 BKN250 POLVO PISTA 09 HZ LGT ARND NOSIG=
201004281300 METAR MRPV 281300Z 09002KT CAVOK 21/19 A3003 RMK SCT130 BKN250 POLVO PROXIMACION PISTA 09 LGT HZ ARND NOSIG=
201004281400 METAR MRPV 281400Z 10004KT 8000 FEW040 BKN250 25/20 A3005 RMK FEW120 HZ ARND NOSIG=
201004281500 METAR MRPV 281500Z 09012KT 8000 SCT030 BKN250 26/20 A3006 RMK HZ ARND NOSIG=
201004281600 METAR MRPV NIL=
201004281700 METAR MRPV NIL=
201004281800 METAR MRPV 281800Z 08008KT 8000 SCT015TCU SCT030 BKN250 29/19 A3001 RMK HZ ARND BECMG 24006KT=
201004281900 METAR MRPV 281900Z 26010KT 8000 VCTS SCT010CB BKN025 25/21 A2999 RMK HZ ARND BECMG 5000 TSRA=
201004282000 METAR MRPV 282000Z 29010KT 7000 3000NW SHRA FEW004 SCT010CB BKN020 23/19 A2998 RMK VEL.MAX.VTO. 15KT RASH NW HZ ARND BECMG 5000 TSRA=
201004282100 METAR MRPV 282100Z 27007KT 4000 SHRA BR SCT002 OVC010 22/20 A2998 NOSIG=
201004282200 METAR MRPV 282200Z 26004KT 4000 -RA BR SCT001 BKN010 22/20 A2998 NOSIG=
201004282300 METAR MRPV 282300Z 27005KT 4000 -RA BR SCT001 BKN010 21/20 A3000 NOSIG=
201004290000 METAR MRPV NIL=
201004290100 METAR MRPV NIL=
201004290200 METAR MRPV NIL=
201004290300 METAR MRPV NIL=
201004290400 METAR MRPV NIL=
201004290500 METAR MRPV NIL=
201004290600 METAR MRPV NIL=
201004290700 METAR MRPV NIL=
201004290800 METAR MRPV NIL=
201004290900 METAR MRPV NIL=
201004291000 METAR MRPV NIL=
201004291100 METAR MRPV NIL=
201004291200 METAR MRPV 291200Z 00000KT 3000 BR SCT001 BKN006 20/19 A3004 RMK VIS S UNLM TEMPO 5000=
201004291300 METAR MRPV 291300Z 00000KT 9999 4000NE BR FEW001 BKN250 21/20 A3005 DUST NEAR APCH RNY09 FEW120 TEMPO 07004KT=
201004291400 METAR MRPV 291400Z 10003KT 9999 FEW002 BKN250 23/20 A3005 RMK VIS W 6KMS DUE HZ HZY 24006KT=
201004291500 METAR MRPV 291500Z 10006KT 9999 FEW025 BKN090 26/19 A3005 HZY NOSIG=
201004291600 METAR MRPV 291600Z 07008KT 9999 FEW035 BKN100 26/19 A3005 RMK HZY NOSIG=
201004291700 METAR MRPV 291700Z 12003KT 9999 SCT035 BKN100 29/19 A3003 TEMPO 24006KT=
201004291800 METAR MRPV 291800Z 27006KT 5000 SHRA HZ SCT015TCU BKN030 27/22 A3003 VIS SW 3KMS VIS E UNL TEMPO 3000 TSRA BKN010CB=
201004291900 METAR MRPV 291900Z 28011KT 9000 4000N RA BR SCT012TCU BKN020 21/19 A3000 TEMPO 5000 RA BR=
201004292000 METAR MRPV 292000Z 32003KT 8000 3000S RA BR FEW008 SCT010 OVC100 22/20 A2999 TEMPO 4000 BR=
201004292100 METAR MRPV 292100Z 00000KT 2000 RA BR BKN010 OVC100 22/20 A2999 TEMPO 1000 RA BR=
201004292200 METAR MRPV 292200Z 00000KT 9000 4000S BR SCT015 OVC100 22/20 A2998 TEMPO 9999=
201004292300 METAR MRPV 292300Z 11002KT 9999 SCT035 OVC100 22/19 A2997 NOSIG=
201004300000 METAR MRPV NIL=
201004300100 METAR MRPV NIL=
201004300200 METAR MRPV NIL=
201004300300 METAR MRPV NIL=
201004300400 METAR MRPV NIL=
201004300500 METAR MRPV NIL=
201004300600 METAR MRPV NIL=
201004300700 METAR MRPV NIL=
201004300800 METAR MRPV NIL=
201004300900 METAR MRPV NIL=
201004301000 METAR MRPV NIL=
201004301100 METAR MRPV NIL=
201004301200 METAR MRPV 301200Z 00000KT CAVOK 20/18 A2999 RMK SCT120 BKN250 CB DST=
201004301300 METAR MRPV 301300Z 07002KT CAVOK 23/18 A3001 RMK FEW120 BKN250 CB DST SW NOSIG=
201004301400 METAR MRPV 301400Z 11004KT CAVOK 26/18 A3000 RMK BKN250 HZ W NOSIG=
201004301500 METAR MRPV 301500Z 31004KT 9999 FEW040 BKN250 27/19 A3001 RMK FEW130 NOSIG=
201004301600 METAR MRPV 301600Z 28009KT 9999 FEW040 BKN250 26/21 A3001 NOSIG=
201004301700 METAR MRPV 301700Z 27008KT 9999 FEW040 BKN250 26/21 A3001 RMK TCU DST NE E SE S NOSIG=
201004301800 METAR MRPV 301800Z 27009KT 9999 4000NE SHRA VCSH SCT020TCU BKN030 25/21 A2997 RMK VEL.MAX.VTO 12KT TEMPO 5000 TSRA BKN015CB=
201004301900 METAR MRPV 301900Z 30005KT 9999 -RA VCSH SCT015TCU BKN030 24/22 A2995 TEMPO 5000 TSRA=
201004302000 METAR MRPV 302000Z 27003KT 4000 TSRA SCT004CB BKN008 23/21 A2993 RMK VIS 9999 NW NOSIG=
201004302100 METAR MRPV 302100Z 20002KT 2000 TSRA BKN003 OVC010 20/20 A2993 TEMPO 4000 BR=
201004302200 METAR MRPV 302200Z 00000KT 0500 FG VV/// 20/20 A2994 NOSIG=
201004302300 METAR MRPV 302300Z 00000KT 0500 RA FG OVC001 20/20 A2995 NOSIG=
201005010000 METAR MRPV NIL=
201005010100 METAR MRPV NIL=
201005010200 METAR MRPV NIL=
201005010300 METAR MRPV NIL=
201005010400 METAR MRPV NIL=
201005010500 METAR MRPV NIL=
201005010600 METAR MRPV NIL=
201005010700 METAR MRPV NIL=
201005010800 METAR MRPV NIL=
201005010900 METAR MRPV NIL=
201005011000 METAR MRPV NIL=
201005011100 METAR MRPV NIL=
201005011200 METAR MRPV 011200Z 00000KT 9999 FEW035 BKN120 19/18 A2999 RMK CBS DST SW W NOSIG=
201005011300 METAR MRPV 011300Z 07002KT CAVOK 21/19 A3000 RMK SCT120 BKN250 CB SW W NOSIG=
201005011400 METAR MRPV 011400Z 00000KT CAVOK 25/19 A3000 RMK BKN250 NOSIG=
201005011500 METAR MRPV 011500Z 28005KT 9999 FEW035 OVC250 25/19 A3002 NOSIG=
201005011600 METAR MRPV 011600Z 27006KT 9999 SCT030 OVC250 25/20 A3002 NOSIG=
201005011700 METAR MRPV 011700Z 29007KT 9999 SCT030 BKN250 26/19 A3001 NOSIG=
201005011800 METAR MRPV 011800Z 27008KT 9999 SCT030 BKN250 26/20 A3000 NOSIG=
201005011900 METAR MRPV 011900Z 28008KT 9999 SCT025 BKN250 27/19 A2997 NOSIG=
201005012000 METAR MRPV 012000Z 28008KT 9999 SCT025 BKN120 26/21 A2994 NOSIG=
201005012100 METAR MRPV 012100Z 27010KT 9999 SCT030 BKN100 25/21 A2993 NOSIG=
201005012200 METAR MRPV 012200Z 26007KT 9999 SCT008 BKN020 24/21 A2992 TEMPO 5000 BR BKN0 10=
201005012300 METAR MRPV 012300Z 27008KT 9000 4000N BR SCT008 BKN015 23/20 A2994 TEMPO 4000 BR BKN008=
201005020000 METAR MRPV NIL=
201005020100 METAR MRPV NIL=
201005020200 METAR MRPV NIL=
201005020300 METAR MRPV NIL=
201005020400 METAR MRPV NIL=
201005020500 METAR MRPV NIL=
201005020600 METAR MRPV NIL=
201005020700 METAR MRPV NIL=
201005020800 METAR MRPV NIL=
201005020900 METAR MRPV NIL=
201005021000 METAR MRPV NIL=
201005021100 METAR MRPV NIL=
201005021200 METAR MRPV 021200Z 07004KT CAVOK 21/20 A3000 RMK SCT120 OVC250 HZ ARND NOSIG=
201005021300 METAR MRPV 021300Z VRB02KT 8000 3000SE -RA BR SCT010 SCT120 OVC250 21/20 A3002 RMK HZ ARND BECMG 24006KT=
201005021400 METAR MRPV 021400Z 10008KT 9999 SCT010 SCT120 BKN250 23/19 A3004 RMK HZ ARND NOSIG=
201005021500 METAR MRPV 021500Z 07008KT 9999 SCT015 BKN250 25/19 A3003 RMK HZ ARND NOSIG=
201005021600 METAR MRPV NIL=
201005021700 METAR MRPV 021700Z 08011KT 9999 FEW015 BKN250 27/19 A3001 RMK VEL MAX VTO 16KT NOSIG=
201005021800 METAR MRPV 021800Z 08010KT 9999 FEW015 BKN250 28/19 A2999 RMK TCU DST E/SW HZ ARND NOSIG=
201005021900 METAR MRPV 021900Z 08010KT 9999 SCT010TCU BKN250 28/19 A2997 RMK RN DST NE NOSIG=
201005022000 METAR MRPV 022000Z 12006KT 8000 3000NW SHRA FEW008CB BKN025 25/20 A2996 BECM G 24008KT 5000 -RA=
201005022100 METAR MRPV 022100Z 09006KT 5000 2000W -RABR SCT001 BKN020 25/19 A2996 RMK VIS SE S UNL BECMG 24008KT 3000 -RABR=
201005022200 METAR MRPV 022200Z VRB02KT 4000 -RABR SCT001 BKN014 21/20 A2997 RMK BECMG 5000 -RA BR=
201005022300 METAR MRPV 022300Z 00000KT 8000 3000W -RA BR FEW001 BKN250 22/21 A2997 RMK ST W NOSIG=
201005030000 METAR MRPV NIL=
201005030100 METAR MRPV NIL=
201005030200 METAR MRPV NIL=
201005030300 METAR MRPV NIL=
201005030400 METAR MRPV NIL=
201005030500 METAR MRPV NIL=
201005030600 METAR MRPV NIL=
201005030700 METAR MRPV NIL=
201005030800 METAR MRPV NIL=
201005030900 METAR MRPV NIL=
201005031000 METAR MRPV NIL=
201005031100 METAR MRPV NIL=
201005031200 METAR MRPV 031200Z 00000KT CAVOK 18/17 A3001 RMK SCT250 CB DST NE DU 09 NOSIG=
201005031300 METAR MRPV 031300Z 11004KT CAVOK 22/18 A3001 RMK BKN250 CB NE TCU N DU APROXIMACION 09 HZ W NOSIG=
201005031400 METAR MRPV 031400Z 11009KT CAVOK 23/17 A3001 RMK BKN250 TCU NW HZ W NOSIG=
201005031500 METAR MRPV 031500Z 11011KT CAVOK 25/18 A3001 RMK TCU DST W BKN250 HZ W GUST 16KT NOSIG=
201005031600 METAR MRPV 031600Z 09012KT CAVOK 27/19 A3001 RMK BKN250 GUST 17KT DZ NE DST=
201005031700 METAR MRPV 031700Z 07010G20KT 9999 SCT030 SCT250 27/19 A3001 RMK HZ NE NOSIG=
201005031800 METAR MRPV 031800Z 07011G21KT 9999 SCT030 BKN250 27/19 A3000 RMK TCU N RN NE NOSIG=
201005031900 METAR MRPV 031900Z 07010G20KT 9999 FEW015TCU SCT030 BKN250 27/18 A2998 RMK RN NE NOSIG=
201005032000 METAR MRPV 032000Z 08012KT 9999 FEW015TCU SCT030 BKN250 27/18 A2995 RMK GUST 17KT RN NE N NOSIG=
201005032100 METAR MRPV 032100Z 08012KT 9999 3000N SHRA SCT015TCU SCT030 BKN250 27/18 A2995 NOSIG=
201005032200 METAR MRPV 032200Z 08012KT 9999 SCT010TCU SCT020 BKN250 24/18 A2995 NOSIG=
201005032300 METAR MRPV 032300Z 08012KT 9999 3000NW -TSRA FEW008CB BKN025 23/15 A2995 NOSIG=
201005032345 METAR MRPV 032345Z 07012KT 9999 SHRA SCT010 BKN025 22/15 A2998 RASH SW W NW NOSIG=
201005040000 METAR MRPV NIL=
201005040100 METAR MRPV NIL=
201005040200 METAR MRPV NIL=
201005040300 METAR MRPV NIL=
201005040400 METAR MRPV NIL=
201005040500 METAR MRPV NIL=
201005040600 METAR MRPV NIL=
201005040700 METAR MRPV NIL=
201005040800 METAR MRPV NIL=
201005040900 METAR MRPV NIL=
201005041000 METAR MRPV NIL=
201005041100 METAR MRPV NIL=
201005041200 METAR MRPV 041200Z 00000KT CAVOK 18/15 A3000 RMK SCT120 BKN250 DU NR APCH09 HZ QUAD W TEMPO 12005KT=
201005041300 METAR MRPV 041300Z 07007KT CAVOK 22/15 A3002 RMK FEW120 BKN250 LGT HZ ARND DUST APCH RNY09 NOSIG=
201005041400 METAR MRPV 041400Z 12007KT CAVOK 25/16 A3002 RMK BKN250 LGT HZ ARND VEL MX VTO 13KT NOSIG=
201005041500 METAR MRPV 041500Z 09010KT CAVOK 26/16 A3002 RMK FEW120 BKN250 HZ W DUST APCH RNY 09 NOSIG=
201005041600 METAR MRPV 041600Z 09010KT CAVOK 27/16 A3001 RMK FEW120 BKN250 VEL MAX VTO 15KT HZ W DUST APCH RNY 09 NOSIG=
201005041700 METAR MRPV 041700Z 08008KT 9999 FEW030 BKN250 28/16 A2998 HZ W DUST APCH RNY 09 BECMG 24006KT=
201005041800 METAR MRPV 041800Z 06010KT 9999 FEW020TCU BKN250 27/15 A2998 HZ W DUST=
201005041900 METAR MRPV 041900Z 09012KT 9999 SCT020TCU BKN250 27/17 A2996 RMK VTO VEL MAX 17KT HZ W PCPN E SE NOSIG=
201005042000 METAR MRPV 042000Z 08010KT 9999 FEW020TCU BKN250 27/17 A2993 RMK VEL MAX VTO 15KT HZ W NOSIG=
201005042100 METAR MRPV 042100Z 08010G20KT 9999 SCT012TCU BKN250 25/18 A2990 HZ W NOSIG=
201005042200 METAR MRPV 042200Z 08010KT 9999 4000NW TSRA FEW010CB SCT025 BKN250 24/17 A2991 RMK HZ W NOSIG=
201005042300 METAR MRPV 042300Z VRB02KT 8000 3000NW BR SCT003 BKN020 24/19 A2993 RETS RMK HZ QUAD W BECMG 24006KT=
201005050000 METAR MRPV NIL=
201005050100 METAR MRPV NIL=
201005050200 METAR MRPV NIL=
201005050300 METAR MRPV NIL=
201005050400 METAR MRPV NIL=
201005050500 METAR MRPV NIL=
201005050600 METAR MRPV NIL=
201005050700 METAR MRPV NIL=
201005050800 METAR MRPV NIL=
201005050900 METAR MRPV NIL=
201005051000 METAR MRPV NIL=
201005051100 METAR MRPV NIL=
201005051200 METAR MRPV 051200Z 14003KT 9999 SCT030 SCT250 20/16 A3000 NOSIG=
201005051300 METAR MRPV 051300Z 051300Z11006KT 9999 FEW030 SCT250 22/16 A3000 NOSIG=
201005051400 METAR MRPV 051400Z 12010KT CAVOK 24/16 A3001 RMK FEW250 VEL.MAX.VTO 15KT NOSIG=
201005051500 METAR MRPV 051500Z 10008KT 9999 FEW040 25/17 A3001 NOSIG=
201005051600 METAR MRPV 051600Z 10009KT 9999 BKN040 26/16 A3001 NOSIG=
201005051700 METAR MRPV 051700Z 08008KT 9999 BKN035 28/16 A2999 TEMPO 24006KT=
201005051800 METAR MRPV 051800Z 27008KT 9999 SCT020 BKN040 26/19 A2998 POLVO APROXIMACION PISTA 09 NOSIG=
201005051900 METAR MRPV 051900Z 28009KT 9999 BKN030 26/19 A2995 NOSIG=
201005052000 METAR MRPV 052000Z 27009KT 9999 TSSH FEW015CB BKN030 27/20 A2992 TEMPO 5000 TSSH BKN010CB=
201005052100 METAR MRPV 052100Z 14004KT 9999 TSRA SCT015CB BKN025 24/16 A2991 RMK TEMPO 5000 BKN010CB=
201005052200 METAR MRPV 052200Z 10002KT 3000 SHRA SCT010 BKN020 24/19 A2992 RMK VIS W NW 9000MTS TEMPO 3000=
201005052300 METAR MRPV 052300Z 26002KT 7000 3000S TSRA BR SCT007 BKN015CB 21/20 A2994 TEMPO 4000 RA BR BKN006=
201005060000 METAR MRPV NIL=
201005060100 METAR MRPV NIL=
201005060200 METAR MRPV NIL=
201005060300 METAR MRPV NIL=
201005060400 METAR MRPV NIL=
201005060500 METAR MRPV NIL=
201005060600 METAR MRPV NIL=
201005060700 METAR MRPV NIL=
201005060800 METAR MRPV NIL=
201005060900 METAR MRPV NIL=
201005061000 METAR MRPV NIL=
201005061100 METAR MRPV NIL=
201005061200 METAR MRPV 061200Z 12006KT 9999 NSC 20/16 A2998 NOSIG=
201005061300 METAR MRPV 061300Z 10008KT CAVOK 22/16 A2997 RMK SCT300 NOSIG=
201005061400 METAR MRPV 061400Z 10012KT 9999 NSC 24/17 A2998 RMK GUST 17KT DU APROXIMACIO N 09 NOSIG=
201005061500 METAR MRPV 061500Z 08011KT 9999 FEW040 26/16 A2999 NOSIG=
201005061600 METAR MRPV 061600Z 06011KT 9999 FEW040 26/16 A2999 RMK DU W NOSIG=
201005061700 METAR MRPV 061700Z 08011KT 9999 FEW045 29/17 A2998 RMK DU W NOSIG=
201005061800 METAR MRPV 061800Z 08011KT 9999 SCT040 28/17 A2997 NOSIG=
201005061900 METAR MRPV 061900Z 08014KT 9999 BKN030 26718 A2994 NOSIG=
201005062000 METAR MRPV 062000Z 07013KT 9999 SCT020 BKN035 27/18 A2991 RMK TCU RN DST E NOSIG=
201005062100 METAR MRPV 062100Z 07012KT 9999 SCT020TCU BKN035 26/18 A2990 RMK TCU/RN DST W/NE/N NOSIG=
201005062200 METAR MRPV 062200Z 08013KT 9999 VCSH SCT020TCU BKN040 34/18 A2991 RMK TCU/SH/RN DST NW/NE/N NOSIG=
201005062300 METAR MRPV 062300Z 09009KT 9999 FEW015 SCT020 BKN100 23/17 A2993 NOSIG=
201005070000 METAR MRPV NIL=
201005070100 METAR MRPV NIL=
201005070200 METAR MRPV NIL=
201005070300 METAR MRPV NIL=
201005070400 METAR MRPV NIL=
201005070500 METAR MRPV NIL=
201005070600 METAR MRPV NIL=
201005070700 METAR MRPV NIL=
201005070800 METAR MRPV NIL=
201005070900 METAR MRPV NIL=
201005071000 METAR MRPV NIL=
201005071100 METAR MRPV NIL=
201005071200 METAR MRPV 071200Z 12007KT 9999 NSC 20/15 A2996 NOSIG=
201005071300 METAR MRPV 071300Z 10009KT 9999 FEW040 22/16 A2998 RMK VEL MAX VTO 14KT NOSIG=
201005071400 METAR MRPV 071400Z 07014KT 9999 FEW035 23/17 A3000 RMK VEL MAX VTO 19KT NOSIG=
201005071500 METAR MRPV 071500Z 07014G24KT 9999 FEW035 25/16 A2999 NOSIG=
201005071600 METAR MRPV 071600Z 07014KT 9999 SCT030 25/17 A2999 RMK VEL MAX VTO 20KT NOSIG=
201005071700 METAR MRPV 071700Z 08014KT 9999 SCT030 25/17 A3000 NOSIG=
201005071800 METAR MRPV 071800Z 08013KT 9999 SCT030 26/18 A2997 RMK DZ DST N/NE NOSIG=
201005071900 METAR MRPV 071900Z 06014KT 9999 SCT035 BKN250 27/18 A2994 RMK VEL MAX VTO 19KT DZ DST NE NOSIG=
201005072000 METAR MRPV 072000Z 07013KT 9999 SCT020 BKN100 24/18 A2993 RMK DZ DST NE NOSIG=
201005072100 METAR MRPV 072100Z 09012KT 9999 SCT020 BKN100 23/18 A2992 NOSIG=
201005072200 METAR MRPV 072200Z 08011KT 9999 SCT020 24/18 A2991 NOSIG=
201005072300 METAR MRPV 072300Z 09013KT 9999 SCT020 BKN040 23/17 A2993 NOSIG=
201005080000 METAR MRPV 080000Z NIL=
201005080100 METAR MRPV NIL=
201005080200 METAR MRPV NIL=
201005080300 METAR MRPV NIL=
201005080400 METAR MRPV NIL=
201005080500 METAR MRPV NIL=
201005080600 METAR MRPV NIL=
201005080700 METAR MRPV NIL=
201005080800 METAR MRPV NIL=
201005080900 METAR MRPV NIL=
201005081000 METAR MRPV NIL=
201005081100 METAR MRPV NIL=
201005081200 METAR MRPV 081200Z 10012KT 9999 FEW030 BKN250 21/16 A2997 NOSIG=
201005081300 METAR MRPV 081300Z 10010KT 9999 FEW030 SCT120 23/17 A2998 RN DST NE NOSIG=
201005081400 METAR MRPV 081400Z 09010G20KT 9999 FEW030 23/17 A3000 RM NE NOSIG=
201005081500 METAR MRPV 081500Z 07010G20KT 9999 FEW030 25/17 A3000 RMK RN NE NOSIG=
201005081600 METAR MRPV 081600Z 07010G20KT 9999 FEW030 SCT250 26/17 A3000 RN NE NOSIG=
201005081700 METAR MRPV 081700Z 07010G20KT 9999 FEW030 SCT250 27/18 A2999 RMK RN NE DU AROXIMACION 09 NOSIG=
201005081800 METAR MRPV 081800Z 08010G20KT 9999 SCT025 26/18 A2998 RMK RN NE NOSIG=
201005081900 METAR MRPV 081900Z 07011G21KT 9999 FEW030 27/18 A2996 RMK RN NE NOSIG=
201005082000 METAR MRPV 082000Z 07010G20KT 9999 FEW030 26/18 A2994 RMK RN NE NOSIG=
201005082100 METAR MRPV 082100Z 08010G20KT 9999 FEW030 SCT250 27/17 A2993 RMK CB DST SW RN SW=
201005082200 METAR MRPV 082200Z 07010G20KT 9999 SCT030 SCT250 27/17 A2993 RMK PCPN DST NE NOSIG=
201005082300 METAR MRPV 082300Z 09012KT 9999 SCT020 SCT250 26/17 A2995 PCPN DST NE NOSIG=
201005082345 METAR MRPV 082345Z 09012KT 9999 SCT020 BKN250 23/18 A2996 NOSIG=
201005090000 METAR MRPV NIL=
201005090100 METAR MRPV NIL=
201005090200 METAR MRPV 090200Z NIL=
201005090300 METAR MRPV NIL=
201005090400 METAR MRPV NIL=
201005090500 METAR MRPV NIL=
201005090600 METAR MRPV NIL=
201005090700 METAR MRPV NIL=
201005090800 METAR MRPV NIL=
201005090900 METAR MRPV NIL=
201005091000 METAR MRPV NIL=
201005091100 METAR MRPV NIL=
201005091200 METAR MRPV 091200Z 09010G20KT 9999 FEW030 21/16 A2999 RN DST NE NOSIG=
201005091300 METAR MRPV 091300Z 09015G25KT 9999 FEW030 22/17 A3003 RMK DZ DST NE NOSIG=
201005091400 METAR MRPV 091400Z 09015KT 9999 FEW030 24/16 A3004 DZ DST NE NOSIG=
201005091500 METAR MRPV 091500Z 09015G25KT 9999 FEW030 25/17 A3004 DZ DST NE NOSIG=
201005091600 METAR MRPV 091600Z 08016G26KT 9999 SCT025 25/18 A3004 DZ DST NE NOSIG=
201005091700 METAR MRPV 091700Z 08015G25KT 9999 SCT025 26/17 A3002 DZ DST NE NOSIG=
201005091800 METAR MRPV 091800Z 08012G22KT 9999 SCT022 26/18 A3000 RMK DZ DST NE NOSIG=
201005091900 METAR MRPV NIL=
201005092000 METAR MRPV 092000Z 09012G22KT 9999 SCT022 28/18 A2995 NOSIG=
201005092100 METAR MRPV 092100Z 07013G23KT 9999 SCT022 26/18 A2994 RMK RN DST NE NOSIG=
201005092200 METAR MRPV 092200Z 07014G24KT 9999 SCT020 26/18 A2994 RMK RN DST NE NOSIG=
201005092300 METAR MRPV 092300Z 08011G21KT 9999 FEW020 25/18 A2996 RMK RN DST NE=
201005100000 METAR MRPV NIL=
201005100100 METAR MRPV NIL=
201005100200 METAR MRPV NIL=
201005100300 METAR MRPV NIL=
201005100400 METAR MRPV NIL=
201005100500 METAR MRPV NIL=
201005100600 METAR MRPV NIL=
201005100700 METAR MRPV NIL=
201005100800 METAR MRPV NIL=
201005100900 METAR MRPV NIL=
201005101000 METAR MRPV NIL=
201005101100 METAR MRPV NIL=
201005101200 METAR MRPV 101200Z 12009KT 9999 FEW030 BKN250 22/17 A2997 RMK DZ DST N NE VL MX VTO 16KT NOSIG=
201005101300 METAR MRPV 101300Z 12011KT 9999 SCT025 BKN250 22/17 A3000 RMK DZ DST N NE VEL.MAX.VTO 17KT NOSIG=
201005101400 METAR MRPV 101400Z 09014KT 9999 SCT030 SCT100 22/17 A3002 RMK FEW250 DZ DST N NE VEL.MAX.VTO 22KT NOSIG=
201005101500 METAR MRPV 101500Z 10010G20KT 9999 FEW030 BKN250 24/15 A3001 RMK RN DST N NE NOSIG=
201005101600 METAR MRPV 101600Z 10010G20KT 9999 FEW030 BKN250 25/15 A3001 RMK RN DST NE NOSIG=
201005101700 METAR MRPV 101700Z 08011G21KT 9999 FEW030 BKN250 26/16 A2998 RMK RN DST NE NOSIG=
201005101800 METAR MRPV 101800Z 07017KT 9999 FEW030 BKN250 27/17 A2997 RMK RN DST NE VEL.MAX.VTO 22KT NOSIG=
201005101900 METAR MRPV 101900Z 07010G20KT 9999 FEW030 BKN250 27/18 A2996 RMK RN DST NE NOSIG=
201005102000 METAR MRPV 102000Z 08010G20KT 9999 FEW030 BKN250 26/17 A2993 RMK RN DST NE NOSIG=
201005102100 METAR MRPV 102100Z 07010G20KT 9999 FEW030 BKN250 25/17 A2992 RMK RN NE NOSIG=
201005102200 METAR MRPV 102200Z 07010G20KT 9999 FEW025 BKN250 24/17 A2993 RMK RN NE CB DST SW NOSIG=
201005102300 METAR MRPV 102300Z 08010G20KT 9999 FEW020 BKN250 23/18 A2994 RMK RN NE NOSIG=
201005110000 METAR MRPV NIL=
201005110100 METAR MRPV NIL=
201005110200 METAR MRPV NIL=
201005110300 METAR MRPV NIL=
201005110400 METAR MRPV NIL=
201005110500 METAR MRPV NIL=
201005110600 METAR MRPV NIL=
201005110700 METAR MRPV NIL=
201005110800 METAR MRPV NIL=
201005110900 METAR MRPV NIL=
201005111000 METAR MRPV NIL=
201005111100 METAR MRPV NIL=
201005111200 METAR MRPV 111200Z 11011KT 9999 FEW025 BKN250 21/18 A2995 DZ DST N NE VEL MAX VTO 18KT NOSIG=
201005111300 METAR MRPV 111300Z 10011KT 9999 FEW030 SCT100 22/18 A2998 RMK SCT250 DZ NE GUST16KT NOSIG=
201005111400 METAR MRPV 111400Z 09015KT 9999 FEW030 SCT250 24/18 A2998 RMK DZ N NE GUST 21KT NOSIG=
201005111500 METAR MRPV 111500Z 07016KT 9999 SCT025 BKN250 24/18 A2999 RMK DZ DST N NOSIG=
201005111600 METAR MRPV 111600Z 09016KT 9999 BKN025 24/18 A2999 RMK DZ NE NOSIG=
201005111700 METAR MRPV 111700Z 07017KT 9999 BKN025 25/19 A2998 RMK DZ N NE NOSIG=
201005111800 METAR MRPV 111800Z 08018KT 9999 FEW020 BKN035 26/18 A2996 RMK DZ N NE NOSIG=
201005111900 METAR MRPV 111900Z 07016KT 9999 SCT020 BKN040 26718 A2994 RMK DZ N NE NOSIG=
201005112000 METAR MRPV 112000Z 08017KT 9999 SCT020TCU BKN040 25/18 A2992 RMK DZ N NE NOSIG=
201005112100 METAR MRPV 112100Z 08015KT 9999 SCT010TCU BKN035 24/17 A2991 RMK DZ DST N/NE NOSIG=
201005112200 METAR MRPV 112200Z 09012KT 9999 SCT035 BKN100 24/17 A2991 NOSIG=
201005112300 METAR MRPV 112300Z 07012KT 9999 SCT030 BKN100 24/16 A2992 NOSIG=
201005120000 METAR MRPV NIL=
201005120100 METAR MRPV NIL=
201005120200 METAR MRPV NIL=
201005120300 METAR MRPV NIL=
201005120400 METAR MRPV NIL=
201005120500 METAR MRPV NIL=
201005120600 METAR MRPV NIL=
201005120700 METAR MRPV NIL=
201005120800 METAR MRPV NIL=
201005120900 METAR MRPV NIL=
201005121000 METAR MRPV NIL=
201005121100 METAR MRPV NIL=
201005121200 METAR MRPV 121200Z 10009KT FEW025 BKN250 21/17 A2992 RMK RN DST ENE NOSIG=
201005121300 METAR MRPV 121300Z 09014KT 9999 FEW030 BKN250 22/17 A2994 RMK DZ DST NE VEL MAX VTO 21KT NOSIG=
201005121400 METAR MRPV 121400Z 09015KT 9999 FEW035 BKN250 23/17 A2995 RMK FEW100 DZ DST NE VEL MAX VTO 21KT NOSIG=
201005121500 METAR MRPV 121500Z 07014KT CAVOK 24/16 A2995 RMK SCT100 BKN250 VEL MAX VTO 22KT NOSIG=
201005121600 METAR MRPV 121600Z 08015KT 9999 SCT030 BKN100 24/17 A2995 NOSIG=
201005121700 METAR MRPV 121700Z 07013KT 9999 FEW040 BKN100 26/17 A2995 RMK VEL MAX VTO 21KT NOSIG=
201005121800 METAR MRPV 121800Z 07014KT 9999 FEW040 BKN100 26/17 A2993 NOSIG=
201005121900 METAR MRPV 121900Z 07014KT 9999 FEW040 SCT120 BKN250 28/17 A2991 RMK VEL MAX VTO 22KT NOSIG=
201005122000 METAR MRPV 122000Z 06014KT 9999 FEW040 BKN250 27/17 A2988 RMK VEL MAX VTO 20KT NOSIG=
201005122100 METAR MRPV 122100Z 07013KT 9999 FEW040 BKN250 27/18 A2987 NOSIG=
201005122200 METAR MRPV 122200Z 07011KT 9999 FEW035 BKN250 26/17 A2987 NOSIG=
201005122300 METAR MRPV 122300Z 07011KT 9999 SCT040 BKN250 BKN250 25/18 A2989 NOSIG=
201005130000 METAR MRPV 130000Z 07011KT 9999 SCT40 BKN250 24/18 A2990 NOSIG=
201005130100 METAR MRPV NIL=
201005130200 METAR MRPV NIL=
201005130300 METAR MRPV NIL=
201005130400 METAR MRPV NIL=
201005130500 METAR MRPV NIL=
201005130600 METAR MRPV NIL=
201005130700 METAR MRPV NIL=
201005130800 METAR MRPV NIL=
201005130900 METAR MRPV NIL=
201005131000 METAR MRPV NIL=
201005131100 METAR MRPV NIL=
201005131200 METAR MRPV 131200Z 09013KT 9999 FEW025 BKN250 21/17 A2994 RMK FEW120 DZ N NE VL MX VTO 20KT NOSIG=
201005131300 METAR MRPV 131300Z 10010KT 9999 SCT025 SCT100 22/17 A2996 RMK DZ N NE GUST16 KT FEW250 NOSIG=
201005131400 METAR MRPV 131400Z 10011KT 9999 SCT035 SCT100 23/17 A2997 NOSIG=
201005131500 METAR MRPV 131500Z 09015KT 9999 SCT030 BKN100 24/17 A2998 RMK GUST 21KT NOSI G=
201005131600 METAR MRPV 131600Z 08016KT 9999 SCT030 BKN100 26/18 A2996 RMK GUST 21KT NOSIG=
201005131700 METAR MRPV 131700Z 07012KT 9999 SCT030 BKN120 27/18 A2994 NOSIG=
201005131800 METAR MRPV 131800Z 07014KT 9999 SCT035 BKN120 27/17 A2994 NOSIG=
201005131900 METAR MRPV 131900Z 06014KT 9999 SCT030 BKN120 27/18 A2992 RMK GUST 22KT NOSI G=
201005132000 METAR MRPV 132000Z 06012KT 9999 SCT030 BKN120 28/17 A2990 RMK GUST 18KT NOSIG=
201005132100 METAR MRPV 132100Z 07010KT 9999 SCT030 BKN120 27/17 A2989 NOSIG=
201005132200 METAR MRPV 132200Z 06012KT 9999 SCT030 BKN120 26/18 A2989 NOSIG=
201005132300 METAR MRPV 132300Z 08012KT 9999 SCT030 BKN130 25/18 A2991 RMK DZ DST N NE NOSIG=
201005132345 METAR MRPV 132345Z 07012KT 9999 SCT020 BKN120 24/18 A2992 DZ N NE NOSIG=
201005140000 METAR MRPV NIL=
201005140100 METAR MRPV NIL=
201005140200 METAR MRPV NIL=
201005140300 METAR MRPV NIL=
201005140400 METAR MRPV NIL=
201005140500 METAR MRPV NIL=
201005140600 METAR MRPV NIL=
201005140700 METAR MRPV NIL=
201005140800 METAR MRPV NIL=
201005140900 METAR MRPV NIL=
201005141000 METAR MRPV NIL=
201005141100 METAR MRPV NIL=
201005141200 METAR MRPV 141200Z 11010KT 9999 FEW030 SCT250 22/18 A2997 RMK DZ DST N/NE/E GUST 16KT NOSIG=
201005141300 METAR MRPV 141300Z 10010KT CAVOK 23/18 A2998 RMK FEW250 DZ DST NE VEL MAX VTO 15KT NOSIG=
201005141400 METAR MRPV 141400Z 08014KT 9999 FEW040 24/18 A2999 RMK FEW120 DZ N NE NOSIG=
201005141500 METAR MRPV 141500Z 07010G20KT 9999 SCT025 25/18 A3002 RMK PCPN DST N NE=
201005141600 METAR MRPV 141600Z 07010G20KT 9999 SCT025 26/18 A3001 RMK PCPN N NE NOSIG=
201005141700 METAR MRPV 141700Z 07017KT 9999 DZ BKN040 26/18 A3002 VEL MAX VTO 23KT NOSIG=
201005141800 METAR MRPV 141800Z 07012G22KT 9999 DZ SCT030 SCT100 26/18 A3000 FU NW TCU SW NOSIG=
201005141900 METAR MRPV 141900Z 07010G20KT 9999 SCT030 SCT100 25/18 A2997 REDZ PCPN DST NE E TCU W SW=
201005142000 METAR MRPV 142000Z 11010KT 9999 FEW030 BKN120 26/18 A2996 RN NE E TCU SW W NOSIG=
201005142100 METAR MRPV 142100Z 10010KT 9999 FEW030 BKN120 26/17 A2994 RMK RN DST NE DST TCU SW W NOSIG=
201005142200 METAR MRPV 142200Z 13006KT 9999 FEW030 SCT120 BKN250 26/16 A2993 RMK TCU DST SW W BECMG 24006KT=
201005142300 METAR MRPV 142300Z 13004KT 9999 FEW010 SCT120 BKN250 25/16 A2993 RMK TCU DST SW W BECMG 24006KT=
201005150000 METAR MRPV NIL=
201005150100 METAR MRPV NIL=
201005150200 METAR MRPV NIL=
201005150300 METAR MRPV NIL=
201005150400 METAR MRPV NIL=
201005150500 METAR MRPV NIL=
201005150600 METAR MRPV NIL=
201005150700 METAR MRPV NIL=
201005150800 METAR MRPV NIL=
201005150900 METAR MRPV NIL=
201005151000 METAR MRPV NIL=
201005151100 METAR MRPV NIL=
201005151200 METAR MRPV 151200Z 13010KT CAVOK 21/16 A2996 RMK SCT120 BKN250 RN DST E NOSIG=
201005151300 METAR MRPV 151300Z 11010KT CAVOK 22/16 A2998 RMK RN DST NE SCT120 BKN250 NOSIG=
201005151400 METAR MRPV 151400Z 12010KT CAVOK 24/17 A2999 RMK RN DST NE SCT120 BKN250 NOSIG=
201005151500 METAR MRPV 151500Z 07010KT CAVOK 27/18 A2999 RMK VEL.MAX.VTO 15KT RN DST NE SCT120 BKN250 NOSIG=
201005151600 METAR MRPV 151600Z 08010G20KT 9999 FEW030 SCT120 BKN250 27/18 A2999 RMK RN DST NE NOSIG=
201005151700 METAR MRPV 151700Z 08010KT 9999 FEW030 BKN250 28/18 A2998 RMK VEL.MAX.VTO 15KT RN DST NE NOSIG=
201005151800 METAR MRPV NIL=
201005151900 METAR MRPV 151900Z 10005KT 9999 SCT025 BKN250 28/19 A2996 RMK RN DST NE BECMG 24006KT=
201005152000 METAR MRPV 152000Z 26007KT 8000 SCT020 SCT120 BKN250 24/21 A2996 RMK RN DST N HZ ARND BECMG -RA=
201005152100 METAR MRPV 152100Z 27010KT 5000 BR SCT002 BKN018 24721 A2994 RMK HZ ARND VIS SE UNL BECMG 4000 -RA BR=
201005152200 METAR MRPV 152200Z 30005KT 8000 FEW010 SCT020 BKN100 24/20 A2994 RMK HZ ARND VIS SE UNL BECMG 5000 -RA BR=
201005152300 METAR MRPV 152300Z 28004KT 7000 FEW008 FEW010TCU BKN100 23/20 A2994 RMK HZ ARND BECMG 5000 -RA BR=
201005160000 METAR MRPV NIL=
201005160100 METAR MRPV NIL=
201005160200 METAR MRPV NIL=
201005160300 METAR MRPV NIL=
201005160400 METAR MRPV NIL=
201005160500 METAR MRPV NIL=
201005160600 METAR MRPV NIL=
201005160700 METAR MRPV NIL=
201005160800 METAR MRPV NIL=
201005160900 METAR MRPV NIL=
201005161000 METAR MRPV NIL=
201005161100 METAR MRPV NIL=
201005161200 METAR MRPV 161200Z 10004KT CAVOK 20/17 A2998 RMK FEW120 BKN250 CB DST SW NOSIG=
201005161300 METAR MRPV 161300Z 07006KT CAVOK 22/17 A2999 RMK CB DST SW FU NW FEW120 BKN2 50 NOSIG=
201005161400 METAR MRPV 161400Z 09008KT CAVOK 25/16 A2999 RMK CB DST SW FEW120 BKN250 NOSIG=
201005161500 METAR MRPV 161500Z 09006KT CAVOK 28716 A3000 RMK CB DST SW FEW120 BKN250 NOSIG=
201005161600 METAR MRPV 161600Z 08010KT 9999 FEW030 SCT120 BKN250 29/17 A2998 RMK CB DST SW NOSIG=
201005161700 METAR MRPV 161700Z 08012KT 9999 FEW030 BKN250 29/17 A2999 RMK GUST 17KT CB DST SW NOSIG=
201005161800 METAR MRPV NIL=
201005161900 METAR MRPV 161900Z 28008KT 9999 FEW010CB BKN030 27/20 A2996 RMK BECMG 6000 VCSHTS=
201005162000 METAR MRPV 162000Z 26006KT 7000 3000NW TSSHRA FEW008CB BKN020 24/21 A2995 BECMG 3000 +TSSHRA=
201005162100 METAR MRPV 162100Z 29008KT 4000 1000N TSRA FEW002 FEW008CB BKN014 22/21 A2994 NOSIG=
201005162200 METAR MRPV 162200Z 28010KT 1000 TSRA SCT002CB BKN010 21/20 A2996 NOSIG=
201005162300 METAR MRPV 162300Z VRB02KT 2000 +SHRA SCT001 OVC010 21/20 A2998 NOSIG=
201005170000 METAR MRPV NIL=
201005170100 METAR MRPV NIL=
201005170200 METAR MRPV NIL=
201005170300 METAR MRPV NIL=
201005170400 METAR MRPV NIL=
201005170500 METAR MRPV NIL=
201005170600 METAR MRPV NIL=
201005170700 METAR MRPV NIL=
201005170800 METAR MRPV NIL=
201005170900 METAR MRPV NIL=
201005171000 METAR MRPV NIL=
201005171100 METAR MRPV NIL=
201005171200 METAR MRPV 171200Z 00000KT CAVOK 19/18 A2999 RMK CB DST SW NE SCT250 NOSIG=
201005171300 METAR MRPV 171300Z 00000KT CAVOK 22/19 A3001 RMK CB DST SW SCT250 DU NR APCH09 NOSIG=
201005171400 METAR MRPV 171400Z 03002KT CAVOK 24/19 A3000 RMK SCT250 CB DST NE NOSIG=
201005171500 METAR MRPV 171500Z 30002KT 9999 SCT030 BKN250 26/19 A3000 RMK DU NR APCH09 DZ DST N NOSIG=
201005171600 METAR MRPV 171600Z 26004KT 9999 SCT030 BKN250 26/19 A3001 RMK DU NR APCH09 NOSIG=
201005171700 METAR MRPV 171700Z 27008KT 9999 SCT020 BKN100 26/20 A3000 RMK DU NR APCH09 NOSIG=
201005171800 METAR MRPV 171800Z 29004KT 9999 FEW020 SCT035 BKN100 27/20 A2997 RMK DU W NOSIG=
201005171900 METAR MRPV 171900Z 28012KT 9999 SCT020TCU BKN100 28/21 A2994 RMK RN DST N/NE NOSIG=
201005172000 METAR MRPV 172000Z 28012KT 9999 SCT020TCU BKN100 26/21 A2992 RMK SH DST S RN DST N/NE NOSIG=
201005172100 METAR MRPV 172100Z 28010KT 9999 SCT020TCU BKN100 25/21 A2991 RMK RASH N NE E NOSIG=
201005172200 METAR MRPV 172200Z 28009KT 9000 4000N VCSH FEW010 SCT020TCU BKN100 25/21 A2991 TEMPO 5000=
201005172300 METAR MRPV 172300Z 28011KT 7000N BR VCFG SCT005 BKN020 24/22 A2992 TEMPO 3000 BKN010=
201005180000 METAR MRPV 180000Z 29007KT 7000 BR VCSH BKN004 OVC020 23/22 A2993 TEMPO 8000 SH=
201005180100 METAR MRPV NIL=
201005180200 METAR MRPV NIL=
201005180300 METAR MRPV NIL=
201005180400 METAR MRPV NIL=
201005180500 METAR MRPV NIL=
201005180600 METAR MRPV NIL=
201005180700 METAR MRPV NIL=
201005180800 METAR MRPV NIL=
201005180900 METAR MRPV NIL=
201005181000 METAR MRPV NIL=
201005181100 METAR MRPV NIL=
201005181200 METAR MRPV 181200Z 00000KT CAVOK 19/19 A2997 RMK BKN250 CB DST N NE FG W NOSIG=
201005181300 METAR MRPV 181300Z 14005KT CAVOK 24/19 A2998 RMK SCT250 HZ W NOSIG=
201005181400 METAR MRPV 181400Z 08009KT CAVOK 25/19 A2999 RMK SCT250 HZ W CB DST N NOSIG=
201005181500 METAR MRPV 181500Z 10010KT 9999 FEW030 SCT250 26719 A2999 RMK CB DST N NOSIG=
201005181600 METAR MRPV 181600Z 08010KT 9999 SCT030 SCT250 28/18 A2998 NOSIG=
201005181700 METAR MRPV 181700Z 09007KT 9999 SCT030 BKN250 30/19 A2997 NOSIG=
201005181800 METAR MRPV 181800Z 08007KT 9999 SCT030 BKN250 29/19 A2995 RMK RN DST N NOSIG=
201005181900 METAR MRPV 181900Z 09006KT 9999 SCT035 BKN250 29/19 A2992 NOSIG=
201005182000 METAR MRPV 182000Z 25004KT 9999 FEW020 SCT030 BKN250 28/22 A2990 NOSIG=
201005182100 METAR MRPV NIL=
201005182200 METAR MRPV 182200Z 00000KT 5000 TSRA BR SCT010CB BKN020 23/22 A2989 TEMPO 9999=
201005182300 METAR MRPV NIL=
201005182345 METAR MRPV 182345Z 00000KT 9999 SCT020 OVC120 22/20 A2992 RETS NOSIG=
201005190000 METAR MRPV NIL=
201005190100 METAR MRPV NIL=
201005190200 METAR MRPV NIL=
201005190300 METAR MRPV NIL=
201005190400 METAR MRPV NIL=
201005190500 METAR MRPV NIL=
201005190600 METAR MRPV NIL=
201005190700 METAR MRPV NIL=
201005190800 METAR MRPV NIL=
201005190900 METAR MRPV NIL=
201005191000 METAR MRPV NIL=
201005191100 METAR MRPV NIL=
201005191200 METAR MRPV 191200Z 12002KT CAVOK 22/18 A2994 RMK SCT120 BKN250 CB DST W DU W NOSIG=
201005191300 METAR MRPV 191300Z 14002KT CAVOK 24/19 A2996 RMK OVC250 NOSIG=
201005191400 METAR MRPV 191400Z 09008KT CAVOK 26/18 A2996 RMK SCT120 BKN250 NOSIG=
201005191500 METAR MRPV NIL=
201005191600 METAR MRPV 191600Z 06006KT 9999 SCT040 BKN250 28/19 A2995 NOSIG=
201005191700 METAR MRPV 191700Z 12003KT 9999 SCT030 BKN100 27/21 A2996 TEMPO 24006KT=
201005191800 METAR MRPV 191800Z 26009KT 9999 FEW012TCU SCT030 BKN100 27/20 A2994 NOSIG=
201005191900 METAR MRPV 191900Z 28008KT 9999 SHRA SCT012CB BKN100 28/21 A2991 VIS N 6KMS NOSIG=
201005192000 METAR MRPV 192000Z 29008KT 9999 SHRA SCT015 BKN100 27/21 A2989 VIS W N 6KMS NOSIG=
201005192100 METAR MRPV 192100Z 28004KT 9999 4000NW TSRA SCT010 SCT015CB BKN100 26/21 A2989 TEMPO 5000 VCSH=
201005192200 METAR MRPV 192200Z 31003KT 8000 SCT010TCU BKN030 24/21 A2999 RETS NOSIG=
201005192300 METAR MRPV 192300Z 31002KT 7000 3000S BR SCT007 BKN012 23/21 A2992 TEMPO 3000 RA BR=
201005200000 METAR MRPV NIL=
201005200100 METAR MRPV NIL=
201005200200 METAR MRPV NIL=
201005200300 METAR MRPV NIL=
201005200400 METAR MRPV NIL=
201005200500 METAR MRPV NIL=
201005200600 METAR MRPV NIL=
201005200700 METAR MRPV NIL=
201005200800 METAR MRPV NIL=
201005200900 METAR MRPV NIL=
201005201000 METAR MRPV NIL=
201005201100 METAR MRPV NIL=
201005201200 METAR MRPV 201200Z 00000KT 6000 -RA VCFG BKN018 SCT100 21/20 A2995 RMK RN ARND NOSIG=
201005201300 METAR MRPV 201300Z 00000KT 5000 BR FEW002 SCT015 BKN100 21/20 A2996 RMK VIS 9999N 4000W TEMPO 8000 -RA=
201005201400 METAR MRPV 201400Z 10004KT 6000 BKN110 23/20 A2998 RMK FG HZ ARND VIS 9999 QUAD S NOSIG=
201005201500 METAR MRPV 201500Z 12002KT 7000 FEW015 BKN120 24/20 A2999 RMK HZ DST ARND TEMPO 24005KT=
201005201600 METAR MRPV 201600Z 16002KT 7000 +RA FEW008 BKN120 26/19 A2998 TEMPO 24005KT=
201005201700 METAR MRPV 201700Z 07004KT 7000 RA BKN120 26/20 A2996 RMK VIS 9999 S 4000 NE TEMPO 24005KT=
201005201800 METAR MRPV 201800Z 09007KT 4000 -RA DZ SCT010 BKN100 23/20 A2998 TEMPO 8000=
201005201900 METAR MRPV 201900Z 10003KT 6000 -RA DZ FEW008 BKN100 23/20 A2997 RMK VIS 4000 NE W VIS 9999 S TEMPO 24005KT 8000=
201005202000 METAR MRPV 202000Z 00000KT 9999 -DZ OVC100 24/21 A2994 RMK VIS 6000 E W FG TEMPO 24005KT=
201005202100 METAR MRPV 202100Z 00000KT 7000 3000W -DZ BR FEW005 BKN100 24/20 A2994 TEMPO 24005KT=
201005202200 METAR MRPV 202200Z 28002KT 3500 BR FEW002 BKN100 23/21 A2994 RMK VIS S UNL NOSIG=
201005202300 METAR MRPV 202300Z 00000KT 3500 BR SCT005 BKN100 22/21 A2995 RMK VIS S SW 2000MTS TEMPO -RA=
201005210000 METAR MRPV NIL=
201005210100 METAR MRPV NIL=
201005210200 METAR MRPV NIL=
201005210300 METAR MRPV NIL=
201005210400 METAR MRPV NIL=
201005210500 METAR MRPV NIL=
201005210600 METAR MRPV NIL=
201005210700 METAR MRPV NIL=
201005210800 METAR MRPV NIL=
201005210900 METAR MRPV NIL=
201005211000 METAR MRPV NIL=
201005211100 METAR MRPV NIL=
201005211200 METAR MRPV 211200Z 00000KT CAVOK 21/18 A2998 RMK SCT120 DUST APCH RNY 09 HZ W NOSIG=
201005211300 METAR MRPV 211300Z 00000KT CAVOK 22/20 A3000 RMK FEW120 DU APROXIMACION 09 HZY NOSIG=
201005211400 METAR MRPV 211400Z 00000KT 9999 FEW007 SCT120 23/20 A3001 RMK VIS 7000 W HZY DU APROXIMACION 09 TEMPO 24005KT=
201005211500 METAR MRPV 211500Z 26003KT 9999 FEW030 25/20 A3001 RMK HZ ARN VIS W 7000MTS FEW120 NOSIG=
201005211600 METAR MRPV 211600Z 27006KT 9999 FEW030 SCT250 26720 A2999 RMK VIS N W 6000MT S HZY NOSIG=
201005211700 METAR MRPV 211700Z 27011KT 7000 SCT030 25721 A2999 RMK HZ ARND TEMPO 5000 RA=
201005211800 METAR MRPV 211800Z 26007KT 6000 FEW010 BKN025 25/20 A2998 RMK HZ ARND VIS S UNL GUST 14KT TEMPO 5000 RA=
201005211900 METAR MRPV 211900Z 28011KT 6000 SH SCT020TCU BKN025 26/19 A2996 HZ ARND TEMPO 4000 TSRA BKN010CN=
201005212000 METAR MRPV 212000Z 31006KT 6000 2500NE +SHRA SCT008CB BKN025 25/20 A2995 RMK HZ LGT ARND TEMPO 3000 TSRA BKN010CB=
201005212100 METAR MRPV 212100Z 31002KT 6000 -RA FEW012CB BKN025 24/20 A2994 RESH RMK HZY VIS S/SW UNLD NOSIG=
201005212200 METAR MRPV 212200Z 00000KT 5000 RA HZ FEW002 FEW010TCU BKN020 23/20 A2993 NOSIG=
201005212300 METAR MRPV 212300Z 00000KT 4000 RA HZ SCT015 BKN100 23/20 A2993=
201005220000 METAR MRPV NIL=
201005220100 METAR MRPV NIL=
201005220200 METAR MRPV NIL=
201005220300 METAR MRPV NIL=
201005220400 METAR MRPV NIL=
201005220500 METAR MRPV NIL=
201005220600 METAR MRPV NIL=
201005220700 METAR MRPV NIL=
201005220800 METAR MRPV NIL=
201005220900 METAR MRPV NIL=
201005221000 METAR MRPV NIL=
201005221100 METAR MRPV NIL=
201005221200 METAR MRPV 221200Z 10002KT CAVOK 21/19 A2995 RMK SCT120 BKN250 HZ LEVE ARND POLVO APROXIMACION PISTA 09 NOSIG=
201005221300 METAR MRPV 221300Z 00000KT CAVOK 23/20 A2996 SCT120 BKN250 HZY POLVO APRX.09 TEMPO 24004KT=
201005221400 METAR MRPV 221400Z 29004KT 6000 SCT025 BKN250 23/20 A2998 HZY POLVO APROX/09 NOSIG=
201005221500 METAR MRPV 221500Z 27003KT 6000 FEW005 SCT020 BKN250 23/20 A3000 HZY VIS S UNLD TCU DST E NOSIG=
201005221600 METAR MRPV 221600Z 28002KT 7000 FEW025 SCT250 25/20 A2999 RMK HZY VIS S UNLD NOSIG=
201005221700 METAR MRPV 221700Z 27006KT 6000 FEW010 BKN025 26/21 A2997 HZY VIS S=
201005221800 METAR MRPV 221800Z 27007KT 8000 VCSH FEW025 SCT250 26/21 A2995 HZY SH SE TCU DST NNE E TEMPO 5000 SHRA=
201005221900 METAR MRPV 221900Z 26007KT 7000 SCT025 SCT100 26/21 A2992 HZY RN DST E TCU DST SE TEMPO 5000 SHRA=
201005222000 METAR MRPV 222000Z 26004KT 6000 2500NE SH VCTS SCT010CB SCT100 25/21 A2989 RMK TS DST NE TEMPO 3000 TSRA BKN010CB=
201005222100 METAR MRPV 222100Z 00000KT 8000 350NE RA VCSH FEW010CB SCT020 BKN100 25/21 A2987 RESH NOSIG=
201005222200 METAR MRPV 222200Z 15002KT 7000 3000NE +TSRA SCT010CB BKN100 25/21 A2987 RMK CB LINE MOVIENDOSE E TO W TEMPO 3000 TSRA BKN010CB=
201005222300 METAR MRPV 222300Z 12002KT 4000 SHRA SCT010CB BKN100 24/20 A2987 RMK VIS S SE UNL LINE CB MOVIENDOSE DE E AL O TEMPO TSRA BKN010CB=
201005230000 METAR MRPV 230000Z 00000KT 4000 +RA FEW010CB SCT025 BKN100 24/20 A2989 RMK VIS SE UNL TEMPO TSRA=
201005230100 METAR MRPV NIL=
201005230200 METAR MRPV NIL=
201005230300 METAR MRPV NIL=
201005230400 METAR MRPV NIL=
201005230500 METAR MRPV NIL=
201005230600 METAR MRPV NIL=
201005230700 METAR MRPV NIL=
201005230800 METAR MRPV NIL=
201005230900 METAR MRPV NIL=
201005231000 METAR MRPV NIL=
201005231100 METAR MRPV NIL=
201005231200 METAR MRPV 231200Z 00000KT 2000 BR SCT005 BKN120 21/20 A2993 TEMPO 4000 BR=
201005231300 METAR MRPV 231300Z 00000KT 9999 4000NW BR SCT010 BKN120 21/20 A2994 RMK TEMP O 9999=
201005231400 METAR MRPV 231400Z 00000KT 6000 VCFG FEW012 BKN120 24/20 A2994 RMK TEMPO 5000 BR=
201005231500 METAR MRPV 231500Z 27003KT 5000 BR SCT012 BKN120 24/21 A2995 RMK TEMPO 4000 BR BKN010=
201005231600 METAR MRPV 231600Z 28005KT 9999 SCT020 BKN120 26/20 A2995 NOSIG=
201005231700 METAR MRPV 231700Z 06008KT 9999 SCT020 BKN040 26/20 A2992 NOSIG=
201005231800 METAR MRPV 231800Z 27008KT 9999 SCT020TCU BKN040 26/21 A2990 RMK TCU SH E NOSIG=
201005231900 METAR MRPV 231900Z 28012KT 9999 SCT020TCU BKN035 26/22 A2987 RMK CB RASH NE E SE NOSIG=
201005232000 METAR MRPV 232000Z 27011KT 2000 RA BR SCT005 BKN010 22/21 A2986 TEMPO 1000 RA BR=
201005232100 METAR MRPV 232100Z 28006KT 2000 RA BR SCT003 BKN010 22/21 A2986 NOSIG=
201005232200 METAR MRPV 232200Z 19003KT 1000 RA BR OVC002 21/20 A2987 RMK NOSIG=
201005232300 METAR MRPV 232300Z 00000KT 1000 RA BR OVC002 21/20 A2988 NOSIG=
201005240000 METAR MRPV NIL=
201005240100 METAR MRPV NIL=
201005240200 METAR MRPV NIL=
201005240300 METAR MRPV NIL=
201005240400 METAR MRPV NIL=
201005240500 METAR MRPV NIL=
201005240600 METAR MRPV NIL=
201005240700 METAR MRPV NIL=
201005240800 METAR MRPV NIL=
201005240900 METAR MRPV NIL=
201005241000 METAR MRPV NIL=
201005241100 METAR MRPV NIL=
201005241200 METAR MRPV 241200Z 31003KT 1000 RA BR VV//002 20/19 A2993 NOSIG=
201005241300 METAR MRPV 241300Z 00000KT 9000 2000 -RA BR SCT003 BKN010 20/19 A2993 DUST W TEMPO 9999=
201005241400 METAR MRPV 241400Z 00000KT 9999 3000S BR FEW006 SCT020 BKN100 21/20 A2995 RMK DUST W NOSIG=
201005241500 METAR MRPV 241500Z 28002KT 9000 4000S BR SCT010 BKN100 22/20 A2996 RMK DUST IN APCH RNY09 NOSIG=
201005241600 METAR MRPV 241600Z 30006KT 9999 SCT010 BKN030 23/20 A2996 RMK DUST W NOSIG=
201005241700 METAR MRPV 241700Z 29004KT 9999 SCT010 BKN040 24/20 A2995 RMK DUST IN APCH RNY09 NOSIG=
201005241800 METAR MRPV 241800Z 28008KT 9999 SCT010 BKN030 24/20 A2993 NOSIG=
201005241900 METAR MRPV 241900Z 27009KT 9999 4000SW BR SCT010 BKN035 24/20 A2991 FG SW S NOSIG=
201005242000 METAR MRPV 242000Z 28009KT 4000 RA BR SCT003 BKN008 22/21 A2989 TEMPO 2000 RA BR=
201005242100 METAR MRPV 242100Z 00000KT 4000 RA BR SCT005 BKN010 22/20 A2988 RMK TEMPO 3000 RA BR=
201005242200 METAR MRPV 242200Z 30008KT 4000 BR SCT004 BKN010 22/21 A2988 TEMPO 3000 BR=
201005242300 METAR MRPV 242300Z 30005KT 3000 BR OVC002 21/20 A2989 RMK VIS 5000 S NW SE NOSIG=
201005250000 METAR MRPV NIL=
201005250100 METAR MRPV NIL=
201005250200 METAR MRPV NIL=
201005250300 METAR MRPV NIL=
201005250400 METAR MRPV NIL=
201005250500 METAR MRPV NIL=
201005250600 METAR MRPV NIL=
201005250700 METAR MRPV NIL=
201005250800 METAR MRPV NIL=
201005250900 METAR MRPV NIL=
201005251000 METAR MRPV NIL=
201005251100 METAR MRPV NIL=
201005251200 METAR MRPV 251200Z 00000KT 5000 RA FEW005 SCT015 BKN020 19/19 A2992 NOSIG=
201005251300 METAR MRPV 251300Z 00000KT 4000 RA SCT006 BKN018 20/19 A2995 RMK VIS 9999 NW W NOSIG=
201005251400 METAR MRPV 251400Z 00000KT 9999 SCT015 BKN100 21/19 A2997 RMK VIS 6000 NE E NOSIG=
201005251500 METAR MRPV 251500Z 00000KT 9999 FEW015 BKN110 22/19 A2998 NOSIG=
201005251600 METAR MRPV 251600Z 00000KT 9999 FEW015 BKN120 23/19 A2998 NOSIG=
201005251700 METAR MRPV 251700Z 30007KT 9999 SCT015 BKN020 23/19 A2997 NOSIG=
201005251800 METAR MRPV 251800Z 28007KT 9999 SCT010 BKN020 23/19 A2997 NOSIG=
201005251900 METAR MRPV 251900Z 28006KT 9999 SCT008 BKN120 23/19 A2995 NOSIG=
201005252000 METAR MRPV 252000Z 27006KT 9999 4000S BR SCT005 BKN015 23/19 A2993 NOSIG=
201005252100 METAR MRPV 252100Z 27008KT 9999 SCT010 BKN025 22/19 A2991 NOSIG=
201005252200 METAR MRPV 252200Z 28008KT 9999 4000S BR FEW004 SCT008 BKN020 22/19 A2991 NOSIG=
201005252300 METAR MRPV 252300Z 28004KT 9000 4000S BR SCT006 BKN012 22/19 A2993 TEMPO 4000 BKN010=
201005260000 METAR MRPV NIL=
201005260100 METAR MRPV NIL=
201005260200 METAR MRPV NIL=
201005260300 METAR MRPV NIL=
201005260400 METAR MRPV NIL=
201005260500 METAR MRPV NIL=
201005260600 METAR MRPV NIL=
201005260700 METAR MRPV NIL=
201005260800 METAR MRPV NIL=
201005260900 METAR MRPV NIL=
201005261000 METAR MRPV NIL=
201005261100 METAR MRPV NIL=
201005261200 METAR MRPV 261200Z 00000KT 1500 -RA DZ BR SCT001 BKN005 20/19 A2998 NOSIG=
201005261300 METAR MRPV 261300Z 00000KT 3000 -RA DZ BR SCT001 BKN008 20/19 A3000 RMK VIS 5KM E MEJORANDO TEMPO 5000=
201005261400 METAR MRPV 261400Z 00000KT 4000 -RA DZ BR SCT002 BKN008 20/19 A3001 RMK VIS E 5KM VIS 3KM SW/W TEMPO 24004KT 5000=
201005261500 METAR MRPV 261500Z 31002KT 6000 -RA FEW002 BKN015 21/20 A3002 RMK VIS 3KM SW NOSIG=
201005261600 METAR MRPV 261600Z 00000KT 3500 1500S RA BR SCT002 BKN008 21/20 A3002 NOSIG=
201005261700 METAR MRPV 261700Z 31003KT 2500 RA BR SCT001 BKN008 21/20 A3001 NOSIG=
201005261800 METAR MRPV 261800Z 29011KT 6000 -RA FEW002 SCT015 BKN100 21/20 A3000 NOSIG=
201005261900 METAR MRPV 261900Z 26008KT 9999 SCT030 BKN100 23/18 A2999 RMK VEL MAX VTO 14KT NOSIG=
201005262000 METAR MRPV 262000Z 28011KT 9999 4000NE +DZ SCT030 BKN100 22/19 A2996 TEMPO 5000 BR BKN010=
201005262100 METAR MRPV 262100Z 31005KT 6000 -RA FEW005 BKN015 21/19 A2996 RMK VIS S UNL TEMPO 4000 BR BKN010=
201005262200 METAR MRPV 262200Z 32003KT 7000 -DZ FEW004 SCT015 BKN100 22/19 A2994 RMK VIS S UNL NOSIG=
201005262300 METAR MRPV 262300Z 31002KT 6000 -RA DZ SCT004 BKN010 21/19 A2995 NOSIG=
201005270000 METAR MRPV NIL=
201005270100 METAR MRPV NIL=
201005270200 METAR MRPV NIL=
201005270300 METAR MRPV NIL=
201005270400 METAR MRPV NIL=
201005270500 METAR MRPV NIL=
201005270600 METAR MRPV NIL=
201005270700 METAR MRPV NIL=
201005270800 METAR MRPV NIL=
201005270900 METAR MRPV NIL=
201005271000 METAR MRPV NIL=
201005271100 METAR MRPV NIL=
201005271200 METAR MRPV 271200Z 00000KT 9999 FEW020 SCT100 BKN250 20/19 A3000 RMK POLVO APROXIMACION PISTA 09 CB DST SW NOSIG=
201005271300 METAR MRPV 271300Z 00000KT CAVOK 22/18 A3001 RMK FEW120 BKN250 CB DST S/SW DU NR APCH 09 NOSIG=
201005271400 METAR MRPV 271400Z 00000KT CAVOK 24/19 A3003 RMK BKN120 LGT HZ W TEMPO 24006KT=
201005271500 METAR MRPV 271500Z 28005KT 9999 FEW020 BKN120 24/19 A3004 RMK CB DST SW/ NOSIG=
201005271600 METAR MRPV 271600Z 29014KT 9999 FEW015 SCT020 BKN120 24/19 A3005 NOSIG=
201005271700 METAR MRPV 271700Z 29012KT 5000 -RA FEW008 BKN018 21/20 A3005 NOSIG=
201005271800 METAR MRPV 271800Z 26005KT 2000 RA SCT006 BKN015 21/20 A3004 TEMPO 5000 RA=
201005271900 METAR MRPV 271900Z 28008KT 9999 SCT015 BKN120 23/20 A3001 RERA NOSIG=
201005272000 METAR MRPV 272000Z 24006KT 9999 RA FEW005 SCT010 BKN120 23/20 A3000 RMK ST LOW MOVE W TO E TEMPO BR BKN010=
201005272100 METAR MRPV 272100Z 29008KT 9000 SCT006 BKN015 23/20 A2999 RMK LOW ST MOVIENDOSE W TO E TEMPO 5000 BR BKN010=
201005272200 METAR MRPV 272200Z 28011KT 7000 SCT006 BKN015 22/19 A2999 RMK TEMPO 5000 RA BR BKN010=
201005272300 METAR MRPV 272300Z 29006KT 6000 SCT004 BKN008 21/19 A3000 RMK ST FG TEMPO RA=
201005280000 METAR MRPV 280000Z 00000KT 9999 FEW005 BKN100 21/19 A3000 RMK FEW010 ST S TEMPO RA=
201005280100 METAR MRPV NIL=
201005280200 METAR MRPV NIL=
201005280300 METAR MRPV NIL=
201005280400 METAR MRPV NIL=
201005280500 METAR MRPV NIL=
201005280600 METAR MRPV NIL=
201005280700 METAR MRPV NIL=
201005280800 METAR MRPV NIL=
201005280900 METAR MRPV NIL=
201005281000 METAR MRPV NIL=
201005281100 METAR MRPV NIL=
201005281200 METAR MRPV 281200Z 00000KT 9999 FEW020 SCT120 BKN250 19/18 A3004 RMK ST E NOSIG=
201005281300 METAR MRPV 281300Z 00000KT CAVOK 20/19 A3006 RK BKN140 SCT250 TEMPO 24004KT=
201005281400 METAR MRPV 281400Z 00000KT CAVOK 22/18 A3008 RMK FEW100 SCT140 BKN250 TEMPO 24004KT=
201005281500 METAR MRPV 281500Z 29005KT 9999 SCT020 BKN250 23/18 A3009 NOSIG=
201005281600 METAR MRPV 281600Z 31006KT 9999 SCT020 SCT250 23/19 A3009 RMK FEW120 NOSIG=
201005281700 METAR MRPV 281700Z 29009KT 9999 SCT025 24/19 A3009 RMK GUST14KT NOSIG=
201005281800 METAR MRPV 281800Z 30008KT 9999 SCT035 26/19 A3006 RMK GUST 13KT FEW120=
201005281900 METAR MRPV 281900Z 28009KT 9999 FEW040 ST250 27/18 A3004 RMK CB DST E SE GUST 14KT NOSIG=
201005282000 METAR MRPV 282000Z 28009KT 9999 FEW045 BKN250 27/18 A3001 RMK GUST 14KT CB DST SE NOSIG=
201005282100 METAR MRPV 282100Z 28010KT 9999 SCT045 SCT250 26/19 A3000 RMK CB DST NE TCU DST SW NOSIG=
201005282200 METAR MRPV 282200Z 27010KT 9999 FEW006 BKN015 24/20 A3000 MOVING ST W TO E TEMPO 5000 BKN012=
201005282300 METAR MRPV 282300Z 28011KT 8000 VCFG SCT005 SCT010 23/20 A3000 TEMPO 5000 BR BKN010=
201005290000 METAR MRPV NIL=
201005290100 METAR MRPV NIL=
201005290200 METAR MRPV NIL=
201005290300 METAR MRPV NIL=
201005290400 METAR MRPV NIL=
201005290500 METAR MRPV NIL=
201005290600 METAR MRPV NIL=
201005290700 METAR MRPV NIL=
201005290800 METAR MRPV NIL=
201005290900 METAR MRPV NIL=
201005291000 METAR MRPV NIL=
201005291100 METAR MRPV NIL=
201005291200 METAR MRPV 291200Z 00000KT 9999 3000S BR FEW010 SCT020 20/19 A3005 TEMPO 5000 BR=
201005291300 METAR MRPV 291300Z 00000KT 9999 4000SW BR FEW010 SCT020 BKN250 22/19 A3007 TEMPO 9999=
201005291400 METAR MRPV 291400Z 00000KT 9999 FEW012 SCT020 BKN250 23/18 A3008 RMK VIS SE S SW 6KMS DUE LOW ST NOSIG=
201005291500 METAR MRPV 291500Z 28003KT 9999 SCT015 BKN250 24/18 A3008 VIS SW 6KMS DUE LOW ST NOSIG=
201005291600 METAR MRPV 291600Z 26004KT 9999 SCT015 BKN025 23/19 A3007 NOSIG=
201005291700 METAR MRPV 291700Z 26004KT 9999 BKN020 24/19 A3007 NOSIG=
201005291800 METAR MRPV 291800Z 27009KT 9999 SCT020 BKN100 24/20 A3005 NOSIG=
201005291900 METAR MRPV 291900Z 28010KT 9999 BKN020 25/20 A3003 NOSIG=
201005292000 METAR MRPV 292000Z 28010KT 9999 FEW012 SCT020 24/20 A3000 NOSIG=
201005292100 METAR MRPV 292100Z 29007KT 9000 3000SW BR SCT007 BKN020 23/20 A2999 TEMPO 5000 BR=
201005292200 METAR MRPV 292200Z 26006KT 8000 3000S BR SCT006 BKN020 23/20 A2999 TEMPO 4000BR=
201005292300 METAR MRPV 292300Z 27005KT 8000 3000S BR SCT007 BKN020 22/20 A3000 NOSIG=
201005300000 METAR MRPV NIL=
201005300100 METAR MRPV NIL=
201005300200 METAR MRPV NIL=
201005300300 METAR MRPV NIL=
201005300400 METAR MRPV NIL=
201005300500 METAR MRPV NIL=
201005300600 METAR MRPV NIL=
201005300700 METAR MRPV NIL=
201005300800 METAR MRPV NIL=
201005300900 METAR MRPV NIL=
201005301000 METAR MRPV NIL=
201005301100 METAR MRPV NIL=
201005301200 METAR MRPV 301200Z 00000KT CAVOK 18/17 A3005 RMK BKN130 NOSIG=
201005301300 METAR MRPV 301300Z 00000KT CAVOK 20/19 A3007 RMK BKN130 NOSIG=
201005301400 METAR MRPV 301400Z 00000KT 9999 SCT012 SCT120 22/18 A3008 TEMPO 24006KT=
201005301500 METAR MRPV 301500Z 28002KT 9999 SCT020 22/18 A3009 NOSIG=
201005301600 METAR MRPV 301600Z 29004KT 9999 SCT020 24/18 A3008 NOSIG=
201005301700 METAR MRPV 301700Z 27004KT 9999 SCT025 25/18 A3007 NOSIG=
201005301800 METAR MRPV 301800Z 28006KT 9999 SCT025 25/18 A3006 NOSIG=
201005301900 METAR MRPV 301900Z 28008KT 9999 SCT025 25/19 A3004 NOSIG=
201005302000 METAR MRPV 302000Z 27008KT 9999 SCT030 26/19 A3002 NOSIG=
201005302100 METAR MRPV 302100Z 27010KT 9999 SCT030 26/20 A3002 NOSIG=
201005302200 METAR MRPV 302200Z 28009KT 9999 SCT030 BKN080 25/20 A3001 NOSIG=
201005302300 METAR MRPV 302300Z 28010KT 8000 3000S BR FEW005 SCT020 23/20 A3002 RMK TEMPO 4000 BR=
201005310000 METAR MRPV NIL=
201005310100 METAR MRPV NIL=
201005310200 METAR MRPV NIL=
201005310300 METAR MRPV NIL=
201005310400 METAR MRPV NIL=
201005310500 METAR MRPV NIL=
201005310600 METAR MRPV NIL=
201005310700 METAR MRPV NIL=
201005310800 METAR MRPV NIL=
201005310900 METAR MRPV NIL=
201005311000 METAR MRPV NIL=
201005311100 METAR MRPV NIL=
201005311200 METAR MRPV 311200Z 12003KT 9999 2000SW BR FEW006 BKN250 21/18 A3006 TEMPO 9999=
201005311300 METAR MRPV 311300Z 28002KT 9999 FEW020 BKN250 20/18 A3009 RMK HZ LEVE ARND NOSIG=
201005311400 METAR MRPV 311400Z 00000KT CAOK 24/18 A3009 RMK BKN250 NOSIG=
201005311500 METAR MRPV 311500Z 27005KT 9999 FEW020 BKN250 24/19 A3010 RMK HZ ARND NOSIG=
201005311600 METAR MRPV 311600Z 28006KT 9999 SCT020 BKN250 25/20 A3010 NOSIG=
201005311700 METAR MRPV 311700Z 27008KT 9999 SCT020 BKN250 25720 A3009 RMK HZ LEVE ARND NOSIG=
201005311800 METAR MRPV 311800Z 27008KT 9999 SCT030 OVC250 26/20 A3007 RMK HZ ARND NOSIG=
201005311900 METAR MRPV 311900Z 27009KT 9999 4000N BR FEW012 SCT020 BKN250 26/21 A3006 NOSIG=
201005312000 METAR MRPV 312000Z 27009KT 9000 SCT015 BKN030 25721 A3005 RMK RN DST NE E TEMPO 6000 VCSH=
201005312100 METAR MRPV 312100Z 29006KT 7000 VCSH SCT010 BKN025 24/21 A3005 TEMPO 5000 RA=
201005312200 METAR MRPV 312200Z 31003KT 4000 BR VCSH BKN010 23/21 A3003 TEMPO 3000 RA=
201005312300 METAR MRPV 312300Z 00000KT 4000 BR SCT003 BKN010 23/21 A3004 NOSIG=
201006010000 METAR MRPV NIL=
201006010100 METAR MRPV NIL=
201006010200 METAR MRPV NIL=
201006010300 METAR MRPV NIL=
201006010400 METAR MRPV NIL=
201006010500 METAR MRPV NIL=
201006010600 METAR MRPV NIL=
201006010700 METAR MRPV NIL=
201006010800 METAR MRPV NIL=
201006010900 METAR MRPV NIL=
201006011000 METAR MRPV NIL=
201006011100 METAR MRPV NIL=
201006011200 METAR MRPV 011200Z 14003KT CAVOK 21/18 A3004 RMK SCT250 HZ QUAD W CB DST S SW NOSIG=
201006011300 METAR MRPV 011300Z 13004KT CAVOK 23/18 A3006 FEW150 FEW250 HZ W CB DST S NOSIG=
201006011400 METAR MRPV 011400Z 12004KT 9999 NSC 25/18 A3007 RMK VIS 7KM DUE HZ DU NR APCH09 CB DST SW NOSIG=
201006011500 METAR MRPV 011500Z 07010KT 9999 FEW045 26/18 A3008 RMK VIS 6KM W DUE HZ DU NR APCH 09 TEMPO 24005KT=
201006011600 METAR MRPV 011600Z 06009KT 9999 FEW045 27/18 A3007 RMK VIS 6KM W DUE HZ FEW140 VEL MAX VTO 14KT NOSIG=
201006011700 METAR MRPV 011700Z 06011KT 9999 FEW045 28/18 A3006 RMK HZ QUAD W NOSIG=
201006011800 METAR MRPV 011800Z 06010KT 9999 FEW045 SCT250 29/18 A3003 RMK HZ QUAD W TEMPO 24004KT=
201006011900 METAR MRPV 011900Z 19006KT 9999 SCT040 SCT250 27/21 A3001 RMK VIS W 6KM DUE HZ NOSIG=
201006012000 METAR MRPV 012000Z 27007KT 7000 FEW015TCU BKN030 26/21 A2998 RMK VIS E/SE/S UNLD HZ ARND TEMPO 5000 SHRA=
201006012035 METAR MRPV 012035Z 24003KT 4000 SHRA SCT010TCU BKN018 25/22 A2999 NOSIG=
201006012100 METAR MRPV 012100Z 00000KT 4000 RA FEW010TCU BKN020 24/22 A2998 RMK VIS SE S UNL TS DST S TEMPO 6000=
201006012200 METAR MRPV 012200Z 12009KT 9999 4000W -RA BR FEW005 SCT030 22/19 A2986 RMK VL MX VTO 14KT SCT100 NOSIG=
201006012300 METAR MRPV 012300Z 09005KT 9999 FEW025 BKN100 23/19 A2998 RMK VIS W NW 7000 DUE ST FG NOSIG=
201006020000 METAR MRPV NIL=
201006020100 METAR MRPV NIL=
201006020200 METAR MRPV NIL=
201006020300 METAR MRPV NIL=
201006020400 METAR MRPV NIL=
201006020500 METAR MRPV NIL=
201006020600 METAR MRPV NIL=
201006020700 METAR MRPV NIL=
201006020800 METAR MRPV NIL=
201006020900 METAR MRPV NIL=
201006021000 METAR MRPV NIL=
201006021100 METAR MRPV NIL=
201006021200 METAR MRPV 021200Z 12005KT CAVOK 22/17 A2999 RMK BKN120 NOSIG=
201006021300 METAR MRPV 021300Z 12007KT CAVOK 23/18 A3001 RMK FEW120 SCT250 CB DST N NOSI G=
201006021400 METAR MRPV 021400Z 08012KT CAVOK 25/18 A3001 RMK FEW120 SCT250 NOSIG=
201006021500 METAR MRPV 021500Z 10005KT CAVOK 26/18 A3001 RMK BKN120 TEMPO 24006KT=
201006021600 METAR MRPV 021600Z 12003KT 9999 SCT025 SCT120 29/18 A2999 RMK TEMPO 24006KT=
201006021700 METAR MRPV NIL=
201006021800 METAR MRPV 021800Z 28006KT 9999 FEW010TCU BKN030 25/22 A2997 RERA RMK RN DST CUADRANTE N TEMPO 8000 SHRA=
201006021900 METAR MRPV 021900Z 27008KT 9999 SCT010TCU BKN025 24/21 A2996 RMK VIS NE N NE 8000MTS DUE RN TEMPO 5000 SHRA=
201006022000 METAR MRPV 022000Z 29007KT 3000 +RA SCT006 BKN010 23/21 A2995 RMK VIS E 1500 MTS NOSIG=
201006022100 METAR MRPV 022100Z 00000KT 7000 3000W -RA BR SCT003 BKN015 22/21 A2993 RMK ST MOV FM W TO E TS DST SE TEMPO BKN010=
201006022200 METAR MRPV 022200Z 00000KT 4000 -RA BR SCT002 BKN010 22/21 A2993 VIS W 6KMS TS E MOV TO W TEMPO 3000 TSRA SCT010CB=
201006022300 METAR MRPV 022300Z 00000KT 6000 -RA FEW006 BKN015 22/20 A2995 RMK VIS SE UNL SW 3KMS TEMPO BKN010=
201006030000 METAR MRPV NIL=
201006030100 METAR MRPV NIL=
201006030200 METAR MRPV NIL=
201006030300 METAR MRPV NIL=
201006030400 METAR MRPV NIL=
201006030500 METAR MRPV NIL=
201006030600 METAR MRPV NIL=
201006030700 METAR MRPV NIL=
201006030800 METAR MRPV NIL=
201006030900 METAR MRPV NIL=
201006031000 METAR MRPV NIL=
201006031100 METAR MRPV NIL=
201006031200 METAR MRPV 031200Z 00000KT 9999 2000W BKN008 19/19 A2998 TEMPO 4000=
201006031300 METAR MRPV 031300Z 00000KT 3000 BR SCT001 BKN120 20/19 A3001 RMK VIS N UNL TEMPO 5000=
201006031400 METAR MRPV 031400Z 00000KT 7000 FEW006 BKN120 22/19 A3001 RMK VIS N UNL THING FG ARND BECMG 9999=
201006031500 METAR MRPV 031500Z 00000KT CAVOK 24/19 A3000 RMK BKN130 SCT250 TEMPO 24005KT=
201006031600 METAR MRPV 031600Z 00000KT 9999 FEW030 BKN120 27/19 A3000 TEMPO 30006KT=
201006031700 METAR MRPV 031700Z 27006KT 9999 FEW015TCU SCT030 BKN120 25/20 A3000 RMK LGT HZ ARND TEMPO 8000 RA=
201006031800 METAR MRPV 031800Z 27003KT 9999 VCSH FEW015TCU BKN030 24/20 A2998 VIS N 8KMS TEMPO 5000 SHRA=
201006031900 METAR MRPV 031900Z 27004KT 9999 RA SCT010TCU BKN025 24/21 A2997 RMK VIS N 8KMS DUE HZ TEMPO 5000 SHRA=
201006032000 METAR MRPV 032000Z 28010KT 9999 VCSH SCT010TCU BKN020 24/21 A2995 RMK VIS NE SE 8KMS TEMPO 5000 SHRA=
201006032100 METAR MRPV 032100Z 28009KT 7000 3000NE SHRA FEW002 FEW010CB BKN020 24/21 A2994 VEL/MAX/VTO 14KT VIS 9999 SE TEMPO 3000 TSRA=
201006032200 METAR MRPV 032200Z 28009KT 3500 DZ BR VCTS OVC006 22/21 A2995 RESH TS SE NOSIG=
201006032300 METAR MRPV 032300Z 28007KT 1500 RA BR OVC005 21/20 A2998 NOSIG=
201006040000 METAR MRPV NIL=
201006040100 METAR MRPV NIL=
201006040200 METAR MRPV NIL=
201006040300 METAR MRPV NIL=
201006040400 METAR MRPV NIL=
201006040500 METAR MRPV NIL=
201006040600 METAR MRPV NIL=
201006040700 METAR MRPV NIL=
201006040800 METAR MRPV NIL=
201006040900 METAR MRPV NIL=
201006041000 METAR MRPV NIL=
201006041100 METAR MRPV NIL=
201006041200 METAR MRPV 041200Z 00000KT CAVOK 18/17 A3002 RMK SCT120 BKN250 DU 09 NOSIG=
201006041300 METAR MRPV 041300Z 00000KT CAVOK 21/17 A3004 RMK SCT120 BKN250 POLVO APROXIMACION PISTA 09 NOSIG=
201006041400 METAR MRPV 041400Z 00000KT CAVOK 23/17 A3005 RMK BKN250 POLVO APROXIMACION PISTA 09 TEMPO 24006KT=
201006041500 METAR MRPV 041500Z 29003KT CAVOK 24/18 A3006 RMK BKN250 POLVO APROXIMACION PISTA 09 NOSIG=
201006041600 METAR MRPV 041600Z 29004KT 9999 FEW030 BKN250 25/18 A3007 NOSIG=
201006041700 METAR MRPV 041700Z 27005KT 9999 FEW020 SCT035 25/20 A3007 NOSIG=
201006041800 METAR MRPV 041800Z 27004KT 9999 SCT020 BKN035 25/20 A3006 NOSIG=
201006041900 METAR MRPV 041900Z 27006KT 9999 SCT020TCU BKN035 25/20 A3004 NOSIG=
201006042000 METAR MRPV 042000Z 26005KT 9999 SCT015TCU BKN030 25/21 A3001 NOSIG=
201006042100 METAR MRPV 042100Z 28005KT 9999 SCT020 BKN040 25720 A3000 NOSIG=
201006042200 METAR MRPV 042200Z 27004KT 9999 FEW007TCU SCT015 BKN040 24/20 A2999 RMK TEMP O BKN015=
201006042300 METAR MRPV 042300Z 26005KT 7000 3000S BR SCT004 BKN012 23/20 A2999 TEMPO 3000 BR=
201006050000 METAR MRPV NIL=
201006050100 METAR MRPV NIL=
201006050200 METAR MRPV NIL=
201006050300 METAR MRPV NIL=
201006050400 METAR MRPV NIL=
201006050500 METAR MRPV NIL=
201006050600 METAR MRPV NIL=
201006050700 METAR MRPV NIL=
201006050800 METAR MRPV NIL=
201006050900 METAR MRPV NIL=
201006051000 METAR MRPV NIL=
201006051100 METAR MRPV NIL=
201006051200 METAR MRPV 051200Z 12006KT 9999 FEW030 SCT250 22/17 A3002 CB DST N NOSIG=
201006051300 METAR MRPV 051300Z 13005KT 9999 FEW040 24/18 A3004 RMK DU NR APCH09 CB DST NW/N NOSIG=
201006051400 METAR MRPV 051400Z 10007KT 9999 FEW030 25/18 A3004 RMK CB DST N NOSIG=
201006051500 METAR MRPV 051500Z 07009KT 9999 FEW030 27/18 A3006 RMK DU W NOSIG=
201006051600 METAR MRPV 051600Z 07007KT 9999 FEW040 SCT250 28/18 A3004 NOSIG=
201006051700 METAR MRPV 051700Z 06010KT 9999 SCT035 BKN250 28/18 A3003 NOSIG=
201006051800 METAR MRPV 051800Z 06008KT 9999 SCT035 BKN280 28/19 A3001 NOSIG=
201006051900 METAR MRPV 051900Z 06007KT 9999 SCT035 BKN250 29/18 A2999 NOSIG=
201006052000 METAR MRPV 052000Z 27005KT 9999 FEW015 SCT025 BKN100 26/22 A2997 TEMPO 7000 BR=
201006052100 METAR MRPV 052100Z 27006KT 9999 FEW008 SCT020 BKN100 25/22 A2996 NOSIG=
201006052200 METAR MRPV 052200Z 07007KT 9999 FEW010 SCT020 BKN100 25/19 A2996 RMK RN DST N/NE NOSIG=
201006052300 METAR MRPV 052300Z 08009KT 9999 SCT020 BKN100 24/18 A2996 RMK DZ DST NE NOSIG=
201006060000 METAR MRPV NIL=
201006060100 METAR MRPV NIL=
201006060200 METAR MRPV NIL=
201006060300 METAR MRPV NIL=
201006060400 METAR MRPV NIL=
201006060500 METAR MRPV NIL=
201006060600 METAR MRPV NIL=
201006060700 METAR MRPV NIL=
201006060800 METAR MRPV NIL=
201006060900 METAR MRPV NIL=
201006061000 METAR MRPV NIL=
201006061100 METAR MRPV NIL=
201006061200 METAR MRPV 061200Z 12003KT 9999 SCT035 OVC100 21/18 A3001 RMK RN DST NW=
201006061300 METAR MRPV 061300Z 13006KT 9999 SCT035 OVC100 22/18 A3001 NOSIG=
201006061400 METAR MRPV 061400Z 12005KT 9999 SCT025 OVC100 23/18 A3005 NOSIG=
201006061500 METAR MRPV 061500Z 10005KT 9999 SCT020 OVC100 24/19 A3005 NOSIG=
201006061600 METAR MRPV 061600Z 08006KT 9999 4000N RA SCT010 OVC100 24/19 A3005 TEMPO 4000 RA=
201006061700 METAR MRPV 061700Z 12005KT 6000 RA SCT020 OVC100 20/18 A3005 NOSIG=
201006061800 METAR MRPV 061800Z 12005KT 9000 RA SCT030 OVC100 20/18 A3002 NOSIG=
201006061900 METAR MRPV 061900Z 12007KT 9999 SCT030 OVC100 22/19 A2999 RERA NOSIG=
201006062000 METAR MRPV 062000Z 11009KT 9999 FEW040 OVC100 24/18 A2997 NOSIG=
201006062100 METAR MRPV 062100Z 13005KT CAVOK 25/18 A2991 RMK OVC120 NOSIG=
201006062200 METAR MRPV 062200Z 10008KT 9999 FEW030 OVC120 24/18 A2993 NOSIG=
201006062300 METAR MRPV 062300Z 14003KT CAVOK 24/18 A2993 RMK OVC120 NOSIG=
201006070000 METAR MRPV 070000Z 11003KT CAVOK 24/18 A2994 RMK OVC120 NOSIG=
201006070100 METAR MRPV NIL=
201006070200 METAR MRPV NIL=
201006070300 METAR MRPV NIL=
201006070400 METAR MRPV NIL=
201006070500 METAR MRPV NIL=
201006070600 METAR MRPV NIL=
201006070700 METAR MRPV NIL=
201006070800 METAR MRPV NIL=
201006070900 METAR MRPV NIL=
201006071000 METAR MRPV NIL=
201006071100 METAR MRPV NIL=
201006071200 METAR MRPV 071200Z 00000KT CAVOK 18/15 A3000 RMK BKN250 NOSIG=
201006071300 METAR MRPV 071300Z 12005KT CAVOK 22/16 A3002 RMK BKN250 NOSIG=
201006071400 METAR MRPV 071400Z 10011KT CAVOK 25718 A3002 RMK BKN250 GUST 16KT NOSIG=
201006071500 METAR MRPV 071500Z 09014KT 9999 FEW035 BKN250 25718 A3005 RMK FEW120 NOSIG=
201006071600 METAR MRPV 071600Z 08012KT 9999 FEW040 BKN250 25/18 A3003 RMK GUST 18KT NOSI G=
201006071700 METAR MRPV 071700Z 08011KT 9999 FEW035 BKN250 27/18 A3001 NOSIG=
201006071800 METAR MRPV 071800Z 08012KT 9999 FEW045 BKN250 27/18 A3000 RMK FEW120 NOSIG=
201006071900 METAR MRPV 071900Z 07009KT 9999 SCT045 BKN250 28/17 A2999 RMK GUST 15KT TCU DST W NOSIG=
201006072000 METAR MRPV 072000Z 07011KT 9999 FEW040 BKN250 27/17 A2997 RMK FEW120 TCU ST W=
201006072100 METAR MRPV 072100Z 00000KT CAVOK 27/16 A2994 RMK SCT100 BKN250 TCU DST W NW TEMPO 30005KT=
201006072200 METAR MRPV 072200Z 29010KT 9999 DZ FEW004 SCT012 BKN100 23/21 A2998 RMK VIS W NW N NE 8KMS DUE HZ TEMPO 5000 RA BR BKN010=
201006072300 METAR MRPV 072300Z 31004KT 5000 BR FEW004 SCT012 BKN100 23/21 A3000 REDZ HZY TEMPO 3000 +RA BKN010=
201006080000 METAR MRPV NIL=
201006080100 METAR MRPV NIL=
201006080200 METAR MRPV NIL=
201006080300 METAR MRPV NIL=
201006080400 METAR MRPV NIL=
201006080500 METAR MRPV NIL=
201006080600 METAR MRPV NIL=
201006080700 METAR MRPV NIL=
201006080800 METAR MRPV NIL=
201006080900 METAR MRPV NIL=
201006081000 METAR MRPV NIL=
201006081100 METAR MRPV NIL=
201006081200 METAR MRPV 081200Z 00000 9999 FEW002 BKN120 19/17 A3004 RMK VIS 6KM WE DUE ST HZ FG NOSIG=
201006081300 METAR MRPV 081300Z 00000KT 9999 4000W BR SCT100 BKN280 20/17 A3006 RMK DUST IN APCH RNY 09 NOSIG=
201006081400 METAR MRPV 081400Z 00000KT 9999 4000W BR BKN120 SCT250 22/18 A3006 RMK LGT HZ ARND NOSIG=
201006081500 METAR MRPV 081500Z 00000KT 9999 VCFG SCT120 BKN250 24/17 A3007 RMK VIS W NW N NE 8KMS HZY NOSIG=
201006081600 METAR MRPV 081600Z 28006KT 8000 VCFG FEW015 BKN250 24/19 A3008 RMK VIS S UNLTD FEW120 LGT HZ ARND=
201006081700 METAR MRPV 081700Z 28007KT 7000 FEW015 BKN250 25/20 A3001 FEW030 FEW120 HZY VIS S UNL NOSIG=
201006081800 METAR MRPV 081800Z 27009KT 7000 FEW018TCU SCT030 BKN250 25/20 A3006 HZY PCPN DST SE E TEMPO 5000 SHRA=
201006081900 METAR MRPV 081900Z 27007KT 8000 SH FEW012TCU SCT025 BKN100 25/20 A3003 VIS S UNLTD TEMPO 5000 TSRA SCT010CB=
201006082000 METAR MRPV 082000Z 27006KT 7000 -RA FEW008 SCT015 BKN100 24/20 RESH A3002 VIS E 5KMS TEMPO 5000 SH=
201006082100 METAR MRPV 082100Z 27003KT 7000 RA FEW005 SCT015 BKN025 22/20 A3002 VIS 4000 SW W TEMPO 4000 BR BKN010=
201006082200 METAR MRPV 082200Z 00000KT 6000 RA DZ FEW002 BKN015 21/20 A3002 RMK VIS 4000 W SW TEMPO 4000 BR BKN010=
201006082300 METAR MRPV 082300Z 00000KT 7000 3000W -RA BR FEW001 BKN015 21/20 A3004 RMK VIS 9999 SE NOSIG=
201006090000 METAR MRPV NIL=
201006090100 METAR MRPV NIL=
201006090200 METAR MRPV NIL=
201006090300 METAR MRPV NIL=
201006090400 METAR MRPV NIL=
201006090500 METAR MRPV NIL=
201006090600 METAR MRPV NIL=
201006090700 METAR MRPV NIL=
201006090800 METAR MRPV NIL=
201006090900 METAR MRPV NIL=
201006091000 METAR MRPV NIL=
201006091100 METAR MRPV NIL=
201006091200 METAR MRPV 091200Z 10005KT CAVOK 22/17 A3005 RMK BKN120 SCT250 DU 09 NOSIG=
201006091300 METAR MRPV 091300Z 13006KT CAVOK 22/17 A3006 RMK SCT120 BKN250 VEL.MAX.VTO 12KT NOSIG=
201006091400 METAR MRPV 091400Z 12010KT CAVOK 24/18 A3007 RMK FEW120 BKN250 VEL.MAX VTO 15KT NOSIG=
201006091500 METAR MRPV 091500Z 09008KT CAVOK 26/18 A3008 RMK FEW120 BKN250 NOSIG=
201006091600 METAR MRPV 091600Z 11003KT 9999 FEW045 BKN250 28/18 A3007 RMK HZ QUAD W TEMPO 24005KT=
201006091700 METAR MRPV 091700Z 27007KT 9999 SCT045 SCT250 25/21 A3006 RMK VEL. MAX.VTO 13KT HZ W NW N NOSIG=
201006091800 METAR MRPV 091800Z 28008KT 9999 SCT035 SCT250 26/21 A3005 RMK VIS 8000N HZ TCU DST E N RN DST ESE NOSIG=
201006091900 METAR MRPV 091900Z 28010KT 9999 4000NW +RA VCTS VCSH FEW008CB BKN015 24/21 A3004 RETS TS S/NW TEMPO 4000 TSRA BKN010CB=
201006092000 METAR MRPV 092000Z 28006KT 4000 -RA BR SCT002 BKN007 23/21 A3003 RMK VIS 2500W VIS 9999E NOSIG=
201006092100 METAR MRPV 092100Z 26002KT 7000 SHRA VCTS FEW005CB BKN015 22/20 A3002 RMK VIS S UNL TS NW TEMPO 4000 BKN010=
201006092200 METAR MRPV 092200Z 00000KT 4000 RA VCSH BR FEW002 BKN015 21/19 A3002 RMK VIS N 6000 NOSIG=
201006092300 METAR MRPV 092300Z 00000KT 3500 -RA BR FEW002 SCT010 BKN100 21/20 A3003 RMK VIS SE UNL TS DST N NOSIG=
201006100000 METAR MRPV NIL=
201006100100 METAR MRPV NIL=
201006100200 METAR MRPV NIL=
201006100300 METAR MRPV NIL=
201006100400 METAR MRPV NIL=
201006100500 METAR MRPV NIL=
201006100600 METAR MRPV NIL=
201006100700 METAR MRPV NIL=
201006100800 METAR MRPV NIL=
201006100900 METAR MRPV NIL=
201006101000 METAR MRPV NIL=
201006101100 METAR MRPV NIL=
201006101200 METAR MRPV 101200Z 00000KT 9999 FEW040 BKN100 19/19 A3004 RMK DUST IN APCH RNY 09 NOSIG=
201006101300 METAR MRPV 101300Z 08002KT 9999 FEW015 BKN100 20/19 A307 RMK FG NE E VIS 6KMS NOSIG=
201006101400 METAR MRPV NIL=
201006101500 METAR MRPV 101500Z 11005KT CAVOK 23/18 A3007 RMK SCT080 BKN120 NOSIG=
201006101600 METAR MRPV 101600Z 12004KT CAVOK 23/18 A3007 RMK SCT080 BKN120 NOSIG=
201006101700 METAR MRPV 101700Z 10007KT 9999 FEW035 OVC100 26/17 A3005 NOSIG=
201006101800 METAR MRPV 101800Z 08005KT 9999 FEW040 BKN120 27/18 A3003 NOSIG=
201006101900 METAR MRPV 101900Z 08009KT 9999 4000N SHRA FEW010CB SCT040 OVC100 26/18 A3001 TEMPO 5000 RA=
201006102000 METAR MRPV 102000Z 09008KT 9999 SCT020TCU OVC100 25/19 A2999 RMK RN E SW W NOSIG=
201006102100 METAR MRPV 102100Z 09011KT 9999 SCT030 OVC100 24/18 A2996 RMK RN DST SE NOSIG=
201006102200 METAR MRPV 102200Z 07015KT 2000 +RA BR SCT003 OVC012 22/18 A2997 TEMPO 1000 RA BR BKN010=
201006102300 METAR MRPV 102300Z 12003KT 9999 SCT012 OVC100 21/19 A3000 RMK VIS 5KM N DUE BC FG NOSIG=
201006110000 METAR MRPV NIL=
201006110100 METAR MRPV NIL=
201006110200 METAR MRPV 110200Z 15005KT 9999 FEW020 BKN120 25/24 A2986=
201006110300 METAR MRPV NIL=
201006110400 METAR MRPV NIL=
201006110500 METAR MRPV NIL=
201006110600 METAR MRPV NIL=
201006110700 METAR MRPV NIL=
201006110800 METAR MRPV NIL=
201006110900 METAR MRPV NIL=
201006111000 METAR MRPV NIL=
201006111100 METAR MRPV NIL=
201006111200 METAR MRPV 111200Z 11005KT 9999 FEW030 SCT120 20/16 A3002 RMK CB DST S SW NOSIG=
201006111300 METAR MRPV 111300Z 12005KT 9999 FEW040 BKN120 22/17 A3003 RMK CB DST SW NOSIG=
201006111400 METAR MRPV 111400Z 00000KT CAVOK 24/17 A3004 RMK BKN120 NOSIG=
201006111500 METAR MRPV 111500Z 10002KT CAVOK 24/17 A3005 RMK DU W NOSIG=
201006111600 METAR MRPV 111600Z 25004KT 9999 FEW035 BKN120 24/18 A3004 RMK DU W NOSIG=
201006111700 METAR MRPV 111700Z 28005KT 9999 SCT025 BKN120 24/18 A3004 RMK DU W NOSIG=
201006111800 METAR MRPV 111800Z 27005KT 9999 SCT020 BKN120 28/19 A3003 NOSIG=
201006111900 METAR MRPV 111900Z 27006KT 9999 FEW010TCU SCT020 BKN100 26/20 A3001 NOSIG=
201006112000 METAR MRPV 112000Z 27009KT 9999 FEW010TCU SCT025 BKN100 25/20 A2998 NOSIG=
201006112100 METAR MRPV 112100Z 27009KT 9999 VCSH SCT020TCU BKN100 24/20 A2998 RMK RASH E SE N NOSIG=
201006112200 METAR MRPV 112200Z 29008KT 9999 VCSH SCT020TCU BKN100 23/20 A2998 RMK RASH NE E SE NOSIG=
201006112300 METAR MRPV 112300Z 32002KT 7000 3000W RA BR SCT002 BKN010 22/20 A2999 TEMPO 3000 RA BR=
201006120000 METAR MRPV 120000Z 27004KT 2000 RA BR SCT002 OVC010 21/20 A3001 TEMPO 0800 FG=
201006120100 METAR MRPV NIL=
201006120200 METAR MRPV NIL=
201006120300 METAR MRPV NIL=
201006120400 METAR MRPV NIL=
201006120500 METAR MRPV NIL=
201006120600 METAR MRPV NIL=
201006120700 METAR MRPV NIL=
201006120800 METAR MRPV NIL=
201006120900 METAR MRPV NIL=
201006121000 METAR MRPV NIL=
201006121100 METAR MRPV NIL=
201006121200 METAR MRPV 121200Z 00000KT CAVOK 18/17 A3003 RMK FEW250 DW W NOSIG=
201006121300 METAR MRPV 121300Z 12005KT CAVOK 22/17 A3004 RMK FEW300 NOSIG=
201006121400 METAR MRPV 121400Z 12005KT CAVOK 24/18 A3005 RMK FEW300 NOSIG=
201006121500 METAR MRPV 121500Z 00000KT 9999 FEW040 26717 A3006 TEMPO 24006=
201006121600 METAR MRPV 121600Z 28005KT 9999 SCT035 26/20 A3006 NOSIG=
201006121700 METAR MRPV 121700Z 27006KT 9999 SCT035 26/20 A3003 NOSIG=
201006121800 METAR MRPV 121800Z 28009KT 9999 SH FEW020CB SCT035 26/21 A3002 RMK CB RSH N E VIS N 5KMS TEMPO BKN020CB=
201006121900 METAR MRPV 121900Z 30006KT 4000 TSRA FEW004 SCT008CB BKN020 24/20 A3003 RMK VIS NW W UNL NOSIG=
201006122000 METAR MRPV 122000Z 00000KT 7000 TSRA SCT006 BKN015CB 22/21 A3001 NOSIG=
201006122100 METAR MRPV 122100Z 00000KT 5000 TSRA BR SCT010CB BKN020 21/19 A3001 NOSIG=
201006122200 METAR MRPV 122200Z 00000KT 9000 4000NW TSRA SCT010CB BKN020 21/20 A3002=
201006122300 METAR MRPV 122300Z 09002KT 4000 TSRA BR SCT004 SCT008CB BKN015 21/19 A3003 NOSIG=
201006130000 METAR MRPV NIL=
201006130100 METAR MRPV NIL=
201006130200 METAR MRPV NIL=
201006130300 METAR MRPV NIL=
201006130400 METAR MRPV NIL=
201006130500 METAR MRPV NIL=
201006130600 METAR MRPV NIL=
201006130700 METAR MRPV NIL=
201006130800 METAR MRPV NIL=
201006130900 METAR MRPV NIL=
201006131000 METAR MRPV NIL=
201006131100 METAR MRPV NIL=
201006131200 METAR MRPV 131200Z 10003KT 9999 FEW035 SCT250 19/16 A3000 RMK CB DST S/SW NOSIG=
201006131300 METAR MRPV 131300Z 10006KT CAVOK 21/17 A3000 RMK CB DST N S SCT250 NOSIG=
201006131400 METAR MRPV 131400Z 11007KT CAVOK 24/17 A3002 RMK SCT250 DZ NE CB DST S N VEL MAX VTO 13KT=
201006131500 METAR MRPV 131500Z 08010KT CAVOK 25/18 A3002 RMK DZ DST NE BKN070 FEW250 NOSIG=
201006131600 METAR MRPV 131600Z 21005KT 9999 RA DZ FEW032 BKN070 24/19 A3003 RMK VIS W NW 8KMS NOSIG=
201006131700 METAR MRPV 131700Z 31007KT 9999 RADZ SCT020 BKN090 23/19 A3003 VIS W NW N NE 7KMS NOSIG=
201006131800 METAR MRPV 131800Z 31005KT 7000 DZ FEW015 BKN090 23/19 A3003 RERA RMK TEMPO 5000 RA=
201006131900 METAR MRPV 131900Z 00000KT 7000 -RA DZ SCT025 BKN100 24/20 A3001 TEMPO 5000=
201006132000 METAR MRPV 132000Z 00000KT 9999 FEW040 BKN120 25/19 A2998 RERA RMK VIS W NW N 8KMS DUE RA DZ NOSIG=
201006132100 METAR MRPV 132100Z 06008KT 9999 4000W -RA DZ FEW015 BKN120 24/18 A2997 RMK VIS 6000 N TEMPO 5000=
201006132200 METAR MRPV 132200Z 10005KT 9999 RA DZ FEW020 BKN120 23/18 A2998 RMK VIS 5000 NE E NOSIG=
201006132300 METAR MRPV 132300Z 00000KT 9999 -RA OVC120 21/19 A2998 RMK VIS 5000 N NE NW TCU DST WSW NOSIG=
201006140000 METAR MRPV NIL=
201006140100 METAR MRPV NIL=
201006140200 METAR MRPV NIL=
201006140300 METAR MRPV NIL=
201006140400 METAR MRPV NIL=
201006140500 METAR MRPV NIL=
201006140600 METAR MRPV NIL=
201006140700 METAR MRPV NIL=
201006140800 METAR MRPV NIL=
201006140900 METAR MRPV NIL=
201006141000 METAR MRPV NIL=
201006141100 METAR MRPV NIL=
201006141200 METAR MRPV 141200Z 11006KT CAVOK 21/17 A2999 RMK BKN120 DU 09 NOSIG=
201006141300 METAR MRPV 141300Z 07006KT CAVOK 23/18 A2999 RMK SCT120 SCT250 POLVO APROXIMACION PISTA 09 NOSIG=
201006141400 METAR MRPV 141400Z 11007KT 9999 FEW030 BKN250 24/18 A2998 RMK POLVO APROXIMACION PISTA 09 RN DST NE NOSIG=
201006141500 METAR MRPV 141500Z 10010KT 9999 FEW030 BKN250 26/18 A2998 NOSIG=
201006141600 METAR MRPV 141600Z 08010KT 9999 SCT025 SCT120 27/18 A2999 RMK TCU DST W 24006KT=
201006141700 METAR MRPV 141700Z 07010KT 9999 SCT022TCU SCT120 28/17 A2997 RMK RN DST NE BECMG 24006KT=
201006141800 METAR MRPV 141800Z 29008KT 9999 2000N TS RA SCT018CB BKN030 26/20 A2997 BECMG 5000 +TS SHRA=
201006141900 METAR MRPV 141900Z 30005KT 8000 3000W -TSRA FEW015CB BKN030 23/20 A2996=
201006142000 METAR MRPV 142000Z 28006KT 5000 2000N -RA BR SCT001 BKN015 23/21 A2994 TEMPO 3000 BR=
201006142100 METAR MRPV 142100Z 27008KT 5000 2000W -RA BR SCT01 BKN015 24/20 A2993 BECMG 3000 BR=
201006142200 METAR MRPV 142200Z 29008KT 5000 2000W -RA BR SCT001 BKN015 22/20 A2992 RMK TS DST NE TEMPPO 3000 BR=
201006142300 METAR MRPV 142300Z 31006KT 2000 RA BR SCT001 BKN010 20/19 A2994 NOSIG=
201006150000 METAR MRPV NIL=
201006150100 METAR MRPV NIL=
201006150200 METAR MRPV NIL=
201006150300 METAR MRPV NIL=
201006150400 METAR MRPV NIL=
201006150500 METAR MRPV NIL=
201006150600 METAR MRPV NIL=
201006150700 METAR MRPV NIL=
201006150800 METAR MRPV NIL=
201006150900 METAR MRPV NIL=
201006151000 METAR MRPV NIL=
201006151100 METAR MRPV NIL=
201006151200 METAR MRPV 151200Z 00000KT 9999 4000E BR SCT090 BKN120 19/19 A2999 NOSIG=
201006151300 METAR MRPV 151300Z 00000KT CAVOK 20/19 RMK OVC100 FG S DU APROXIMACION 09 NOSIG=
201006151400 METAR MRPV 151400Z 00000KT FEW012 BKN100 22/19 A3001 RMK VIS E 6KMS DUE FG DU APROXIMACION 09 TEMPO 05005KT=
201006151500 METAR MRPV 151500Z 00000KT 9999 FEW020 BKN250 24719 A3001 RMK DU APROXIMACION 09 HZ ARND BECMG 24006KT=
201006151600 METAR MRPV 151600Z 07005KT 9999 SCT025 BKN250 26719 A3001 RMK DU APROXIMACIO N 09 HZ W BECMG 24006KT=
201006151700 METAR MRPV 151700Z 08006KT 9999 SCT022 SCT250 27/19 A3000 RMK TCU NW HZ W BECMG 24006KT=
201006151800 METAR MRPV 151800Z 27012KT 9999 FEW012CB BKN025 24/12 A2999 RASH DST SE W BECMG -TSRA=
201006151900 METAR MRPV 151900Z 28010KT 4000 TSRA SCT008CB BKN015 23/21 A2999 NOSIG=
201006152000 METAR MRPV 152000Z 00000KT 5000 -RA BR SCT001 BKN015 22/20 A2998 RETS NOSIG=
201006152100 METAR MRPV 152100Z 27004KT 4000 -RA BR SCT001 BKN012 21/20 A2996 BECMG 5000 BKN015=
201006152200 METAR MRPV 152200Z 09004KT 6000 2000NW -RA BR SCT001 BKN015 21/20 A2997=
201006152300 METAR MRPV 152300Z 00000KT 4000 -RA BR SCT001 BKN013 21/20 A2998 NOSIG=
201006160000 METAR MRPV NIL=
201006160100 METAR MRPV NIL=
201006160200 METAR MRPV NIL=
201006160300 METAR MRPV NIL=
201006160400 METAR MRPV NIL=
201006160500 METAR MRPV NIL=
201006160600 METAR MRPV NIL=
201006160700 METAR MRPV NIL=
201006160800 METAR MRPV NIL=
201006160900 METAR MRPV NIL=
201006161000 METAR MRPV NIL=
201006161100 METAR MRPV NIL=
201006161200 METAR MRPV 161200Z 12005KT CAVOK 21/17 A3001 RMK FEW120 BKN250 CB DST N NW SW NOSIG=
201006161300 METAR MRPV 161300Z 12008KT CAVOK 22/17 A3002 RMK BKN250 TCU N NE E SW NOSIG=
201006161400 METAR MRPV 161400Z 11006KT CAVOK 23/18 A3004 RMK BKN250 CB DST E SW VEL MAX WIND 12KTS NOSIG=
201006161500 METAR MRPV 161500Z 08012KT 9999 FEW035 BKN250 25/18 A3005 CB DST SW NOSIG=
201006161600 METAR MRPV 161600Z 08010KT 9999 SCT030 BKN140 25/18 A3005 NOSIG=
201006161700 METAR MRPV 161700Z 08010KT 9999 SCT030 BKN140 25/18 A3004 NOSIG=
201006161800 METAR MRPV 161800Z 07010KT 9999 SCT030 BKN140 26/19 A3003 NOSIG=
201006161900 METAR MRPV 161900Z 09010KT 9999 SCT030 BKN120 26/19 A3001 NOSIG=
201006162000 METAR MRPV 162000Z 06011KT 9999 SH FEW012TCU SCT020 BKN100 25/18 A2999 RMK SH N E VIS N 6 KMS NOSIG=
201006162100 METAR MRPV 162100Z 09009KT 6000 RA BR FEW005 SCT015 BKN100 21/18 A2999 RETS TEMPO UNL=
201006162200 METAR MRPV 162200Z 10004KT 9999 VCSH FEW006 SCT010 BKN100 22/18 A3000 RMK RASH NW N NE NOSIG=
201006162300 METAR MRPV 162300Z 12005KT 9999 -RA SCT025 OVC100 20/18 A3002 NOSIG=
201006170000 METAR MRPV 170000Z 11008KT 9999 RA FEW040 OVC100 20/17 A3001 NOSIG=
201006170100 METAR MRPV NIL=
201006170200 METAR MRPV NIL=
201006170300 METAR MRPV NIL=
201006170400 METAR MRPV NIL=
201006170500 METAR MRPV NIL=
201006170600 METAR MRPV NIL=
201006170700 METAR MRPV NIL=
201006170800 METAR MRPV NIL=
201006170900 METAR MRPV NIL=
201006171000 METAR MRPV NIL=
201006171100 METAR MRPV NIL=
201006171200 METAR MRPV 171200Z 00000KT CAVOK 19/16 A3001 RMK FEW090 BKN250 CB DST SW DU 09 NOSIG=
201006171300 METAR MRPV 171300Z 00000KT CAVOK 20/17 A3007 RMK DU APROXIMACION 09 BKN100 NOSIG=
201006171400 METAR MRPV 171400Z 11002KT CAVOK 23/16 A3003 RMK BKN100 DU APROXIMACION 09 NOSIG=
201006171500 METAR MRPV 171500Z 11004KT CAVOK 24/16 A3004 RMK SCT100 BKN140 NOSIG=
201006171600 METAR MRPV 171600Z 09010KT CAVOK 25/16 A3003 RMK BKN120 NOSIG=
201006171700 METAR MRPV 171700Z 08010KT 9999 FEW040 BKN120 25/16 A3004 NOSIG=
201006171800 METAR MRPV 171800Z 09007KT 9999 FEW040 SCT120 BKN250 26/17 A3002 NOSIG=
201006171900 METAR MRPV 171900Z 07006KT 9999 FEW040 SCT120 BKN250 26/17 A3000 RMK TCU RN DST NW NOSIG=
201006172000 METAR MRPV 172000Z 20003KT 9999 SCT040 OVC120 25/20 A2998 RMK TEMPO 24006KT=
201006172100 METAR MRPV 172100Z 00000KT 9999 SCT040 OVC120 25/20 A2997 NOSIG=
201006172200 METAR MRPV 172200Z 00000KT 9999 FEW030 OVC120 24/20 A2996 NOSIG=
201006172300 METAR MRPV 172300Z 08008KT 9999 VCFG FEW025 OVC120 25/17 A2996 VIS 7KMS W NW N NOSIG=
201006180000 METAR MRPV NIL=
201006180100 METAR MRPV NIL=
201006180200 METAR MRPV NIL=
201006180300 METAR MRPV NIL=
201006180400 METAR MRPV NIL=
201006180500 METAR MRPV NIL=
201006180600 METAR MRPV NIL=
201006180700 METAR MRPV NIL=
201006180800 METAR MRPV NIL=
201006180900 METAR MRPV NIL=
201006181000 METAR MRPV NIL=
201006181100 METAR MRPV NIL=
201006181200 METAR MRPV 181200Z 12006KT 9999 FEW030 SCT250 21/17 A3001 RMK CB SW=
201006181300 METAR MRPV 181300Z 11007KT CAVOK 23/17 A3001 RMK FEW140 FEW250 CB DST SW VEL MAX VTO 13KT NOSIG=
201006181400 METAR MRPV 181400Z 12005KT CAVOK 23/17 A3002 RMK CB DST SW SCT140 FEW250 NOSIG=
201006181500 METAR MRPV 181500Z 11004KT CAVOK 26/17 A3001 RMK FEW140 SCT250 CB DST SW NOSIG=
201006181600 METAR MRPV 181600Z 10008KT 9999 FEW040 SCT250 27/16 A3001 NOSIG=
201006181700 METAR MRPV 181700Z 07012KT 9999 SCT030 27/16 A3000 RMK TCU RN E TEMPO BKN020=
201006181800 METAR MRPV 181800Z 08011KT 9999 VCSH BKN030 26/18 A3000 CB DST S E TCU VIS 8KMS NW NOSIG=
201006181900 METAR MRPV 181900Z 00000KT 9999 FEW020 BKN030 27/17 A2997 RMK RASH W NOSIG=
201006182000 METAR MRPV 182000Z 26007KT 9000 4000N SHRA SCT004TCU BKN015 24/21 A2996 TEMPO 3000 TSRA=
201006182100 METAR MRPV 182100Z 29005KT 2000 TSRA SCT006CB OVC010 20/19 A2998 TEMPO 4000 TSRA=
201006182200 METAR MRPV 182200Z 00000KT 4000 -TSRA BR SCT004 OVC015 20/19 A2997 TEMPO 2000 BKN010=
201006182300 METAR MRPV 182300Z 00000KT 4000 RA BR SCT006 OVC010 20/19 A3003 NOSIG=
201006190000 METAR MRPV NIL=
201006190100 METAR MRPV NIL=
201006190200 METAR MRPV NIL=
201006190300 METAR MRPV NIL=
201006190400 METAR MRPV NIL=
201006190500 METAR MRPV NIL=
201006190600 METAR MRPV NIL=
201006190700 METAR MRPV NIL=
201006190800 METAR MRPV NIL=
201006190900 METAR MRPV NIL=
201006191000 METAR MRPV NIL=
201006191100 METAR MRPV NIL=
201006191200 METAR MRPV 191200Z 00000KT 5000 -RA BR SCT001 BKN015 20/19 A3005 NOSIG=
201006191300 METAR MRPV 191300Z 00000KT 5000 -RA BR SCT001 BKN015 20/19 A3007=
201006191400 METAR MRPV 191400Z 10004KT 6000 -RA SCT002 OVC090 20/19 A3008 NOSIG=
201006191500 METAR MRPV 191500Z 12004KT 8000 -RA SCT008 SCT100 BKN250 22/19 A3006 TEMPO 9999=
201006191600 METAR MRPV 191600Z 05005KT 9999 FEW010 SCT100 BKN250 24/19 A3004 RERA NOSIG=
201006191700 METAR MRPV 191700Z 09010KT 9999 SCT020 BKN250 26/18 A3002 NOSIG=
201006191800 METAR MRPV 191800Z 08012KT 9999 SCT020 BKN250 26/18 A3001 RMK VEL.MAX. VTO 18KT NOSIG=
201006191900 METAR MRPV 191900Z 08010KT 9999 SCT020 BKN250 26/18 A2998 RMK VEL.MAX.VTO 15KT NOSIG=
201006192000 METAR MRPV 192000Z 09010KT 9999 3000NE -RA SCT015 SCT100 BKN250 24/18 A2998 RMK VEL.MAX.VTO 15KT BECMG 5000 RA=
201006192100 METAR MRPV 192100Z 10010KT 9999 -RA SCT015 BKN100 20/19 A2997 NOSIG=
201006192200 METAR MRPV 192200Z 08012KT 9999 3000NW -RA SCT015 BKN100 221/18 A2996 RMK GUST 18KT NOSIG=
201006192300 METAR MRPV 192300Z 09010KT 9999 4000E RA SCT010 OVC100 21/17 A2999 TEMPO 5000 +RA=
201006200000 METAR MRPV NIL=
201006200100 METAR MRPV NIL=
201006200200 METAR MRPV NIL=
201006200300 METAR MRPV NIL=
201006200400 METAR MRPV NIL=
201006200500 METAR MRPV NIL=
201006200600 METAR MRPV NIL=
201006200700 METAR MRPV NIL=
201006200800 METAR MRPV NIL=
201006200900 METAR MRPV NIL=
201006201000 METAR MRPV NIL=
201006201100 METAR MRPV NIL=
201006201200 METAR MRPV 201200Z 00000KT CAVOK 18/17 A2998 RMK CB DST SW SCT100 SCT250 NOSIG=
201006201300 METAR MRPV 201300Z 00000KT CAVOK 21/16 A3001 RMK SCT250 CB SW NOSIG=
201006201400 METAR MRPV 201400Z 00000KT CAVOK 23/17 A3001 RMK SCT100 SCT250 RMK CB DST SW NOSIG=
201006201500 METAR MRPV 201500Z 27004KT 9999 FEW030 BKN250 23/18 A3000 RMK CB DST SW NOSI G=
201006201600 METAR MRPV 201600Z 26006KT 9999 FEW030 BKN250 25/18 A3000 RMK TCU S SW NOSIG=
201006201700 METAR MRPV 201700Z 28010KT 9999 SCT025 BKN250 25/20 A2999 RMK TCU S NOSIG=
201006201800 METAR MRPV 201800Z 27010KT 9999 SCT020TCU BKN250 25/18 A2998 BECMG=
201006201900 METAR MRPV 201900Z 28010KT 9999 SCT020TCU BKN250 24/19 A2996 RMK GUST 15KT RA SE BECMG VCSH=
201006202000 METAR MRPV 202000Z 29008KT 9999 -RA SCT020TCU BKN250 24/19 A2994 BECMG 7000 SHRA=
201006202100 METAR MRPV 202100Z 28010KT 9999 SCT020TCU BKN250 24/19 A2992 RERA BECMG -RA VCSH=
201006202200 METAR MRPV 202200Z 28011KT 6000 2000N BR SCT001 BKN015 22/20 A2992 VEL MAX WIND 16KT BECMG 3KMS BE BKN012=
201006202300 METAR MRPV 202300Z 29008KT 3000 RA BR SCT001 OVC010 21/20 A2995 NOSIG=
201006202358 METAR MRPV 210000Z NIL=
201006210000 METAR MRPV NIL=
201006210100 METAR MRPV NIL=
201006210200 METAR MRPV NIL=
201006210300 METAR MRPV NIL=
201006210400 METAR MRPV NIL=
201006210500 METAR MRPV NIL=
201006210600 METAR MRPV NIL=
201006210700 METAR MRPV NIL=
201006210800 METAR MRPV NIL=
201006210900 METAR MRPV NIL=
201006211000 METAR MRPV NIL=
201006211100 METAR MRPV NIL=
201006211200 METAR MRPV 211200Z 00000KT CAVOK 19/18 A3001 RMK BKN120 POLVO APROXIMACION PISTA 09 NOSIG=
201006211300 METAR MRPV 211300Z 00000KT CAVOK 20/19 A3003 RMK BKN120 CB DST SW DU 09 TEMPO 24005KT=
201006211400 METAR MRPV 211400Z 00000KT CAVOK 21/19 A3003 RMK BKN120 CB DST SW DU 09 TEMPO 24005KT=
201006211500 METAR MRPV 211500Z 00000KT CAVOK 24/19 A3003 RMK BKN120 SCT250 CB DST SW ST W TEMPO 24005KT=
201006211600 METAR MRPV 211600Z 27005KT 9999 FEW010 BKN250 24/19 A3002 RMK FEW030 NOSIG=
201006211700 METAR MRPV 211700Z 27007KT 9999 SCT030 SCT120 24/19 A3002 RMK TCU DST SE FEW250 NOSIG=
201006211800 METAR MRPV 211800Z 27010KT 9999 SCT025 SCT250 24/20 A3000 RMK TCU DST SE NOSIG=
201006211900 METAR MRPV 211900Z 27008KT 9999 SCT030 SCT250 25/20 A2998 RMK FEW120 TEMPO 5000 SHRA=
201006212000 METAR MRPV 212000Z 25010KT 9999 FEW015CB SCT020TCU BKN030 25/20 A2996 BECMG 5000 TS SHRA=
201006212100 METAR MRPV 212100Z 27010KT 9999 SCT008 BKN030 25/21 A2995 RMK RASH DST E BECMG 5000 -RA BR BKN018=
201006212200 METAR MRPV 212200Z 28010KT 9999 SCT008 BKN030 23/20 A2995 RM RN DST W BECMG 5000 -RA BR BKN018=
201006212300 METAR MRPV 212300Z 29008KT 9999 FEW002 SCT030 BKN250 23/19 A2995 RMK CB W BECMG 5000 -RA BR BKN018=
201006220000 METAR MRPV 220000Z 29010KT 8000 3000N -RA BR SCT006 BKN025 22/19 A2997 NOSIG=
201006220100 METAR MRPV NIL=
201006220200 METAR MRPV NIL=
201006220300 METAR MRPV NIL=
201006220400 METAR MRPV NIL=
201006220500 METAR MRPV NIL=
201006220600 METAR MRPV NIL=
201006220700 METAR MRPV NIL=
201006220800 METAR MRPV NIL=
201006220900 METAR MRPV NIL=
201006221000 METAR MRPV NIL=
201006221100 METAR MRPV NIL=
201006221200 METAR MRPV 221200Z 00000KT 9999 4000W BR SCT120 20/19 A3002 VIS E 6KM PISTA HUM NOSIG=
201006221300 METAR MRPV NIL=
201006221400 METAR MRPV 221400Z 13003KT CAVOK 24/19 A3001 RMK FEW120 BKN250 TEMPO 24004KT=
201006221500 METAR MRPV 221500Z 11007KT CAVOK 26/18 A3001 RMK SCT120 BKN250 CB DST E N NW TEMPO 24004KT=
201006221600 METAR MRPV 221600Z 07006KT 9999 SCT035 28/20 A3001 RMK TCU DST N E NOSIG=
201006221700 METAR MRPV 221700Z 27009KT 9999 FEW012TCU SCT020 25/21 A3001 RMK RASH NW N VIS 5KMS TEMPO BKN015=
201006221800 METAR MRPV 221800Z 29011KT 9999 TS SH RA SCT010CB SCT025 26/21 A3000 RMK VIS NW 5KMS TEMPO 5000 TSRA=
201006221900 METAR MRPV 221900Z 29013KT 7000 TS SHRA SCT010CB BKN020 26/20 A2998 TEMPO 5000 TSRA BKN010=
201006222000 METAR MRPV 222000Z 29009KT 5000 SHRA VCTS SCT006 SCT010CB 23/21 A2998 RMK VIS S W NW UNL TEMPO 3000 TSRA=
201006222100 METAR MRPV NIL=
201006222200 METAR MRPV 222200Z 00000KT 3000 BR SCT003 BKN010 22/20 A2998 RMK VIS S S 5KMS NOSIG=
201006222300 METAR MRPV 222300Z 30003KT 3000 BR SCT004 BKN010 21/20 A2999 TEMPO 5000 BKN015=
201006222345 METAR MRPV 222345Z 28003KT 2000 BR BKN002 OVC010 21/20 A3001 NOSIG=
201006230000 METAR MRPV NIL=
201006230100 METAR MRPV NIL=
201006230200 METAR MRPV NIL=
201006230300 METAR MRPV NIL=
201006230400 METAR MRPV NIL=
201006230500 METAR MRPV NIL=
201006230600 METAR MRPV NIL=
201006230700 METAR MRPV NIL=
201006230800 METAR MRPV NIL=
201006230900 METAR MRPV NIL=
201006231000 METAR MRPV NIL=
201006231100 METAR MRPV NIL=
201006231200 METAR MRPV 231200Z 09002KT 9999 3000W BR SCT250 18/18 A3000 CB DST ARND BANC O ST W=
201006231300 METAR MRPV 231300Z 11007KT CAVOK 22/18 A3002 RMK FEW130 SCT250 VEL MAX VTO 12KT CB DST S W NW NOSIG=
201006231400 METAR MRPV 231400Z 11008KT CAVOK 23/19 A3002 RMK BKN250 CB DST N W VEL MAX VTO 13KT NOSIG=
201006231500 METAR MRPV 231500Z 12007KT 9999 FEW040 BKN250 25/18 A3002 RMK HZ W NOSIG=
201006231600 METAR MRPV 231600Z 27003KT 9999 SCT020 BKN250 24/19 A3002 HZY VIS W 8KMS TEMPO BKN020=
201006231700 METAR MRPV 231700Z 28005KT 8000 BKN025 25/20 A3002 RMK DUST IN APCH 09 HZY NOSIG=
201006231800 METAR MRPV 231800Z 29003KT 9999 FEW040 BKN250 26/20 A3000 RMK VIS NW W 8KMS DUE HZ=
201006231900 METAR MRPV 231900Z 28005KT 9999 SHRA FEW010TCU SCT030 27/21 A2997 RMK VIS W NE 5KMS DUE HZ VEL MAX VTO 11KT TEMPO 6000=
201006231902 METAR MRPV 231902Z 28005KT 9999 SH FEW010TCU SCT030 27/21 A2997 RMK VIS W 5KMS DUE HZ VIS NE 5KM VEL MAX VTO 11KT TEMPO 6000=
201006232000 METAR MRPV 232000Z 28011KT 8000 TS SHRA SCT010CB BKN020 26/20 A2995 RMK VIS N NE 5KMS TEMPO 5000 BKN010=
201006232100 METAR MRPV 232100Z 28008KT 6000 TS SHRA SCT015CB BKN025 24/20 A2996 TEMPO 4000 BKN015=
201006232200 METAR MRPV 232200Z 00000KT 9000 4000S TS SHRA SCT003CB BKN010 24/21 A2995 NOSIG=
201006232300 METAR MRPV 232300Z 14003KT 8000 BR SCT015 BKN100 23/19 A2995 RMK VIS 4000SW NOSIG=
201006240000 METAR MRPV NIL=
201006240100 METAR MRPV NIL=
201006240200 METAR MRPV NIL=
201006240300 METAR MRPV NIL=
201006240400 METAR MRPV NIL=
201006240500 METAR MRPV NIL=
201006240600 METAR MRPV NIL=
201006240700 METAR MRPV NIL=
201006240800 METAR MRPV NIL=
201006240900 METAR MRPV NIL=
201006241000 METAR MRPV NIL=
201006241100 METAR MRPV NIL=
201006241200 METAR MRPV 241200Z 11004KT CAVOK 21/18 A2996 RMK SCT300 CB DST SW W HZ LGT ARND NOSIG=
201006241300 METAR MRPV 241300Z 00000KT CAVOK 23/18 A2997 RMK FEW300 HYZ VIS 6000SW HZ TEMPO 24004KT=
201006241400 METAR MRPV 241400Z 30004KT 5000 HZ FEW002 22/20 A2999 RMK VIS 9999 S SE TEMPO 4000=
201006241500 METAR MRPV 241500Z 00000KT 5000 HZ FEW004 24/20 A3000 RMK VIS 8000S TEMPO 7000=
201006241600 METAR MRPV 241600Z 28004KT 6000 SCT020 26/20 A3000 RMK VIS. REDUCIDA HZ TEMPO 9999=
201006241700 METAR MRPV 241700Z 27007KT 8000 FEW015 27/20 A2998 RMK VEL.MAX.VTO 12KT VIS. REDUCIDA HZ NOSIG=
201006241800 METAR MRPV 241800Z 26007KT 8000 SCT020 27/21 A2996 RMK VIS REDUCIDA HZ NOSIG=
201006241900 METAR MRPV 241900Z 28008KT 8000 SCT020 27/20 A2993 RMK TCU N HZY ARND=
201006242000 METAR MRPV 242000Z 28008KT 8000 SCT020 27/20 A2991 RMK VIS 9999 S HYZ VEL.MAX.VTO 13KT NOSIG=
201006242100 METAR MRPV 242100Z 27007KT 8000 VCSH SCT020 27/21 A2989 RMK HZ ARND CB S NW TEMPO 6000=
201006242200 METAR MRPV 242200Z 27007KT 8000 SCT020 26/21 A2988 RMK HZ VIS S UNL NOSIG=
201006242300 METAR MRPV 242300Z 29009KT 9000 4000N BR SCT020 25/21 A2990 RMK HZ ARND NOSI G=
201006250000 METAR MRPV NIL=
201006250100 METAR MRPV NIL=
201006250200 METAR MRPV NIL=
201006250300 METAR MRPV NIL=
201006250400 METAR MRPV NIL=
201006250500 METAR MRPV NIL=
201006250600 METAR MRPV NIL=
201006250700 METAR MRPV NIL=
201006250800 METAR MRPV NIL=
201006250900 METAR MRPV NIL=
201006251000 METAR MRPV NIL=
201006251100 METAR MRPV NIL=
201006251200 METAR MRPV 251200Z 00000KT 9999 SCT035 SCT080 20/20 A2995 RMK HZY TCU DST SW NOSIG=
201006251300 METAR MRPV 251300Z 08004KT CAVOK 22/20 A2995 RMK BKN250 CB SSW HZ ARND DU APROXIMACION 09 NOSIG=
201006251400 METAR MRPV 251400Z 00000KT CAVOK 26/19 A2996 RMK CB DST SW HZ ARND BKN250 TEMPO 24005KT=
201006251500 METAR MRPV 251500Z 26004KT 9000 3000N BR SCT020 BKN250 26/21 A2996 DU APROXI MACION 09 NOSIG=
201006251600 METAR MRPV 251600Z 25008KT 8000 3000N BR SCT015 BKN030 25/20 A2998 RMK DU APROXIMACION 09 BECMG 5000 RA BR=
201006251700 METAR MRPV 251700Z 28007KT 7000 3000N BR SCT015 BKN030 26/20 A2995 RMK DU APROXIMACION 09 BECMG 5000 -RA BR=
201006251800 METAR MRPV 251800Z 27010KT 7000 3000N BR SCT012 BKN030 27/21 A2994 RMK GUST 16KT BECMG 5000 -RA BR=
201006251900 METAR MRPV 251900Z 27010KT 5000 -RA BR SCT002 BKN020 26/20 A2992 RMK=
201006252000 METAR MRPV 252000Z 28010KT 5000 -TSRA SCT004CB BKN015 26/20 A2991 RMK BECMG 3000 TSRA=
201006252100 METAR MRPV 252100Z 28008KT 5000 -TSRA SCT004CB BKN015 23/20 A2990 BECMG 3000 TSRA=
201006252200 METAR MRPV 252200Z 28008KT 5000 -RA BR SCT002 BKN015 22/20 A2990 BECMG 3000 -RA BR RETS=
201006252300 METAR MRPV 252300Z 27008KT 3000 -RA BR SCT001 BKN010 21/20 A2993 NOSIG=
201006260000 METAR MRPV NIL=
201006260100 METAR MRPV NIL=
201006260200 METAR MRPV NIL=
201006260300 METAR MRPV NIL=
201006260400 METAR MRPV NIL=
201006260500 METAR MRPV NIL=
201006260600 METAR MRPV NIL=
201006260700 METAR MRPV NIL=
201006260800 METAR MRPV NIL=
201006260900 METAR MRPV NIL=
201006261000 METAR MRPV NIL=
201006261100 METAR MRPV NIL=
201006261200 METAR MRPV 261200Z 00000KT 2500 -RA BR SCT001 OVC008 20/19 A2999 RMK POLVO APROXIMACION PISTA 09 NOSIG=
201006261300 METAR MRPV 261300Z 28004KT 2000 -RA BR SCT001 OVC005 20/20 A3000 NOSIG=
201006261400 METAR MRPV 261400Z 00000KT 3000 -RA BR SCT001 BKN006 20/20 A3002 NOSIG=
201006261500 METAR MRPV 261500Z 00000KT 5000 -RA BR SCT002 BKN015 21/20 A3002 BECGM 7000 -RA=
201006261600 METAR MRPV 261600Z VRB02KT 7000 2000S -RA BR SCT002 BKN018 22/19 A3002 NOSIG=
201006261700 METAR MRPV 261700Z 29004KT 8000 3000S BR SCT002 BKN020 23/19 A3001 RERA NOSIG=
201006261800 METAR MRPV 261800Z 27006KT 8000 SCT004 BKN025 23/20 A2998 RMK HZ NOSIG=
201006261900 METAR MRPV 261900Z 28006KT 8000 SCT004 BKN025 24/19 A2997 HZ ARND NOSIG=
201006262000 METAR MRPV 262000Z 24010KT 5000 2000N -RA BR SCT001 BKN015 22/20 A2995 TEMPO 3000 RA BR BKN012=
201006262100 METAR MRPV 262100Z 25008KT 1000 RA BR SCT001 OVC005 20/19 A2995 NOSIG=
201006262200 METAR MRPV 262200Z VRB02KT 6000 2000N -RA BR SCT002 BKN020 21/20 A2995 NOSIG=
201006262300 METAR MRPV 262300Z 29006KT 5000 2000NW -RA BR SCT001 BKN015 21/20 A2994 TEMPO 3000 -RABR BKN012=
201006270000 METAR MRPV 270000Z 28005KT 3000 -RA BR SCT001 BKN012 20/20 A2994 NOSIG=
201006270100 METAR MRPV NIL=
201006270200 METAR MRPV NIL=
201006270300 METAR MRPV NIL=
201006270400 METAR MRPV NIL=
201006270500 METAR MRPV NIL=
201006270600 METAR MRPV NIL=
201006270700 METAR MRPV NIL=
201006270800 METAR MRPV NIL=
201006270900 METAR MRPV NIL=
201006271000 METAR MRPV NIL=
201006271100 METAR MRPV NIL=
201006271200 METAR MRPV 271200Z 09003KT CAVOK 18/17 A2997 RMK FEW120 OVC250 NOSIG=
201006271300 METAR MRPV 271300Z 10004KT CAVOK 20/18 A2998 RMK FEW120 OVC250 NOSIG=
201006271400 METAR MRPV 271400Z 10003KT CAVOK 22/18 A2998 RMK BKN250 NOSIG=
201006271500 METAR MRPV 271500Z 26004KT CAVOK 23/19 A2998 RMK BKN250 NOSIG=
201006271600 METAR MRPV 271600Z 27006KT CAVOK 23/19 A2999 RMK BKN250 NOSIG=
201006271700 METAR MRPV 271700Z 26006KT CAVOK 24/18 A2999 RMK FEW120 BKN250 NOSIG=
201006271800 METAR MRPV 271800Z 29006KT 9999 FEW030 SCT120 BKN250 25/19 A2998 RMK CB E NE=
201006271900 METAR MRPV 271900Z 27007KT 9999 FEW030 SCT120 BKN250 26/19 A2995 RMK CB DST E NOSIG=
201006272000 METAR MRPV 272000Z 28008KT 9999 FEW030 SCT120 BKN250 27/18 A2993 RMK CB NW NOSIG=
201006272100 METAR MRPV 272100Z 28008KT 9999 FEW025 SCT120 BKN250 26/20 A2992 RMK CB DST NW W RN DST NW NOSIG=
201006272200 METAR MRPV 272200Z 28008KT 8000 SCT002 BKN020 24/20 A2993 HZ ARND TS DST N NW BECMG 5000 BR=
201006272300 METAR MRPV 272300Z 30006KT 3000 -RA BR SCT001 BKN010 22/20 A2995 NOSIG=
201006280000 METAR MRPV NIL=
201006280100 METAR MRPV NIL=
201006280200 METAR MRPV NIL=
201006280300 METAR MRPV NIL=
201006280400 METAR MRPV NIL=
201006280500 METAR MRPV NIL=
201006280600 METAR MRPV NIL=
201006280700 METAR MRPV NIL=
201006280800 METAR MRPV NIL=
201006280900 METAR MRPV NIL=
201006281000 METAR MRPV NIL=
201006281100 METAR MRPV NIL=
201006281200 METAR MRPV 281200Z 00000KT 9999 4000W BR FEW005 BKN120 20/19 A2998 RMK DU AROXIMACION 09 NOSIG=
201006281300 METAR MRPV 281300Z 00000KT CAVOK 21/20 A3000 RMK OVC120 THING FG DST W N DUST IN APCH RNY 09 NOSIG=
201006281400 METAR MRPV 281400Z 00000KT 9999 FEW006 BKN120 22/20 A3000 RMK THIN FG W DUST NEAR APCH RNY 09 TEMPO 24006KT=
201006281500 METAR MRPV 281500Z 00000KT 9999 FEW008 BKN100 23/20 A3000 DUST W TEMPO 24006KT=
201006281600 METAR MRPV 281600Z 28003KT 9999 FEW010 BKN100 24/19 A3000 RMK DUST W VIS N 6KMS DUE LOW ST NOSIG=
201006281700 METAR MRPV 281700Z 27003KT 9999 SCT020 BKN100 24/20 A3003 NOSIG=
201006281800 METAR MRPV 281800Z 31003KT 7000 SCT015 BKN100 24/20 A2998 RMK VIS RED POR ST TEMPO 5000 BR=
201006281900 METAR MRPV 281900Z 00000KT 9999 SCT020 BKN100 25/19 A2996 RN S NOSIG=
201006282000 METAR MRPV 282000Z 00000KT 9999 SCT025 BKN100 26/19 A2995 NOSIG=
201006282100 METAR MRPV 282100Z 27003KT 9999 SCT020 OVC100 25/20 A2993 RN DST E NOSIG=
201006282200 METAR MRPV 282200Z 27004KT 9999 FEW015 SCT025 OVC100 24/19 A2992 RMK RN DST E NOSIG=
201006282300 METAR MRPV 282300Z 27007KT 6000 VCSH SCT002 BKN010TCU 22/20 A2994 TEMPO 3000 RA BR=
201006290000 METAR MRPV NIL=
201006290100 METAR MRPV NIL=
201006290200 METAR MRPV NIL=
201006290300 METAR MRPV NIL=
201006290400 METAR MRPV NIL=
201006290500 METAR MRPV NIL=
201006290600 METAR MRPV NIL=
201006290700 METAR MRPV NIL=
201006290800 METAR MRPV NIL=
201006290900 METAR MRPV NIL=
201006291000 METAR MRPV NIL=
201006291100 METAR MRPV NIL=
201006291200 METAR MRPV 291200Z 11002KT CAVOK 20/18 A2999 RMK OVC100 DU 09 NOSIG=
201006291300 METAR MRPV 291300Z 12006KT CAVOK 22/17 A3000 RMK BKN120 SCT250 VEL.MAX. VTO 12KT NOSIG=
201006291400 METAR MRPV 291400Z 11010KT CAVOK 24/17 A3002 RMK FEW120 BKN250 NOSIG=
201006291500 METAR MRPV 291500Z 08010KT CAVOK 26/18 A3002 RMK FEW120 BKN250 NOSIG=
201006291600 METAR MRPV 291600Z 08008KT CAVOK 27/18 A3000 FEW120 BKN250 RMK VEL. MAX.VTO 16KT NOSIG=
201006291700 METAR MRPV 291700Z 08006KT CAVOK 29/18 A2999 RMK BKN30 HVH688 291700 FF MUHAZQZX 291703 MHCCZQZX /FPL-AAL958-IM -B763/M-SS/S -SEGU1657 -N0478F340 SPP UA321 CISNA UG439 SELEK UL345 UVA UG448 MTH -KMIA -0/=
201006291800 METAR MRPV 291800Z 25003KT 9999 VCSH FEW020TCU FEW035 SCT300 28/20 A2997 RMK RN DST SE NOSIG=
201006291900 METAR MRPV 291900Z 00000KT 9999 3000SW TS SHRA SCT010CB BKN020 26/20 A2997 TEMPO 5000=
201006292000 METAR MRPV 292000Z 29006KT 9999 3000NW TSSHRA FEW010CB OVC020 21/18 A3000 NOSIG=
201006292100 METAR MRPV 292100Z 00000KT 9999 SCT015 OVC100 20/19 A2998 RMK TCU RN E VIS NW 5000 DUE ST LOW NOSIG=
201006292200 METAR MRPV 292200Z 00000KT 9999 SCT035 BKN100 21/19 A2997 NOSIG=
201006292300 METAR MRPV 292300Z 00000KT 9999 FEW015 OVC100 22/19 A2997 NOSIG=
201006300000 METAR MRPV NIL=
201006300100 METAR MRPV NIL=
201006300200 METAR MRPV NIL=
201006300300 METAR MRPV NIL=
201006300400 METAR MRPV NIL=
201006300500 METAR MRPV NIL=
201006300600 METAR MRPV NIL=
201006300700 METAR MRPV NIL=
201006300800 METAR MRPV NIL=
201006300900 METAR MRPV NIL=
201006301000 METAR MRPV NIL=
201006301100 METAR MRPV NIL=
201006301200 METAR MRPV 301200Z 00000KT CAVOK 20/17 A2999 BKN250 NOSIG=
201006301300 METAR MRPV 301300Z 12004KT CAVOK 22/17 A3000 RMK BKN250 NOSIG=
201006301400 METAR MRPV 301400Z 10007KT CAVOK 25/17 A3000 RMK BKN250 NOSIG=
201006301500 METAR MRPV 301500Z 10008KT CAVOK 26/17 A3000 RMK BKN300 NOSIG=
201006301600 METAR MRPV 301600Z 11005KT CAVOK 27/17 A2999 RMK SCT300 NOSIG=
201006301700 METAR MRPV 301700Z 29006KT 9999 FEW040 BKN250 26/20 A2999 NOSIG=
201006301800 METAR MRPV 301800Z 27008KT 9999 FEW020TCU SCT035 27/21 A3000=
201006301900 METAR MRPV 301900Z 28008KT 9999 TSVCSH FEW010CB BKN035 25/20 A2999 RMK VIS NW 6000 NOSIG=
201006302000 METAR MRPV 302000Z 28008KT 9999 FEW015TCU BKN025 25/21 A2998 RETS RMK HZ ARND NOSIG=
201006302100 METAR MRPV 302100Z 28009KT 9999 SCT015 BKN100 25/21 A2997 RMK HYZ TCU RN DIST NE E VIS 7000 NW N NOSIG=
201006302200 METAR MRPV 302200Z 30006KT 9999 4000SW BR FEW007 SCT015 BKN100 24/20 A2996 TEMPO 6000=
201006302300 METAR MRPV 302300Z 26003KT 6000 BR SCT010 BKN020 24/20 A2996 RMK VIS 3000 SW TEMPO 3000 BR=
201007010000 METAR MRPV NIL=
201007010100 METAR MRPV NIL=
201007010200 METAR MRPV NIL=
201007010300 METAR MRPV NIL=
201007010400 METAR MRPV NIL=
201007010500 METAR MRPV NIL=
201007010600 METAR MRPV NIL=
201007010700 METAR MRPV NIL=
201007010800 METAR MRPV NIL=
201007010900 METAR MRPV NIL=
201007011000 METAR MRPV NIL=
201007011100 METAR MRPV NIL=
201007011200 METAR MRPV 011200Z 12003KT CAVOK 21/17 A2999 RMK FEW120 BKN200 NOSIG=
201007011300 METAR MRPV 011300Z 11005KT CAVOK 22/18 A3000 BKN200 NOSIG=
201007011400 METAR MRPV 011400Z 12008KT 9999 FEW030 BKN200 23/18 A3002 NOSIG=
201007011500 METAR MRPV 011500Z 08010KT 9999 FEW030 BKN250 25/18 A3002 RN DST NE NOSIG=
201007011600 METAR MRPV 011600Z 08010KT 9999 FEW035 BKN250 26/18 A3002 VEL/MAX VIENTO 16KT NOSIG=
201007011700 METAR MRPV 011700Z 08010KT 9999 SCT035 BKN250 27/17 A3001 NOSIG=
201007011800 METAR MRPV 011800Z 06006KT 9999 FEW045 BKN250 29/17 A2999 RMK FEW100 VEL.MAX VIENTO 11NUDOS=
201007011900 METAR MRPV 011900Z 06012KT 9999 SCT015CB BKN250 27/17 A2998 RN DST NW NOSIG=
201007012000 METAR MRPV 012000Z 08010KT 8000 2000E RA FEW010TCU SCT020 BKN100 26/18 A2996 BECMG 5000 +RA VEL/MAX VIENTO 15KMS=
201007012100 METAR MRPV 012100Z 10010KT 9999 4000NW -RA FEW010 SCT020 BKN100 23/19 A2994 NOSIG=
201007012200 METAR MRPV 012200Z 09010KT 9999 4000W BR FEW002 SCT020 BKN100 23/18 A2995 RMK TS DST W NOSIG=
201007012300 METAR MRPV 012300Z 28005KT 5000 2000W -RA BR SCT001 BKN012 22/20 A2998=
201007020000 METAR MRPV 020000Z 29005KT 1000 -RA BR SCT001 BKN005 21/20 A2998 NOSIG=
201007020100 METAR MRPV NIL=
201007020200 METAR MRPV NIL=
201007020300 METAR MRPV NIL=
201007020400 METAR MRPV NIL=
201007020500 METAR MRPV NIL=
201007020600 METAR MRPV NIL=
201007020700 METAR MRPV NIL=
201007020800 METAR MRPV NIL=
201007020900 METAR MRPV NIL=
201007021000 METAR MRPV NIL=
201007021100 METAR MRPV NIL=
201007021200 METAR MRPV 021200Z 00000KT CAVOK 20/17 A2997 RMK BKN250 DU 09 HZ W NOSIG=
201007021300 METAR MRPV 021300Z 13002KT 9999 4000SW BR BKN300 23/18 A2997 RMK VIS W 6KMS DUE HZ NOSIG=
201007021400 METAR MRPV 021400Z 28006KT 9999 4000SW BR FEW004 SCT130 BKN300 22/19 A3001 RMK VIS W 5000MTS DUE HZ=
201007021500 METAR MRPV 021500Z 28008KT 8000 3000NW BR SCT002 SCT120 BKN300 22/19 A3001 RMK DU APROXIMACION 09=
201007021600 METAR MRPV 021600Z 29008KT 9999 4000NE BR SCT002 BKN300 24/19 A2999 NOSIG=
201007021700 METAR MRPV 021700Z 29005KT 7000 FEW015 SCT030 24/19 A3000 RMK GUST 10KT HZ ARND RN DST SE NE BECMG 5000 SHRA BKN015TCU=
201007021800 METAR MRPV 021800Z 26004KT 9999 -SHRA SCT015TCU SCT025 25/19 A2997 RMK VIS SE NE 7KMS BECMG 5000=
201007021900 METAR MRPV 021900Z VRB02KT 2000 TS SHRA SCT001 BKN012 22/20 A2997 NOSIG=
201007022000 METAR MRPV 022000Z VRB02KT 5000 2000NW -TSRA FEW004CB BKN015 21/20 A2996 NOSIG=
201007022100 METAR MRPV 022100Z 10004KT 6000 2000NE RA SCT002 BKN018 21/19 A2993 NOSIG=
201007022200 METAR MRPV 022200Z VRB02KT 5000 2000NW RA SCT001 BKN015 20/18 A2997 NOSIG=
201007022300 METAR MRPV 022300Z 09005KT 6000 +RA SCT008 OVC090 20/18 A2996 NOSIG=
201007030000 METAR MRPV NIL=
201007030100 METAR MRPV NIL=
201007030200 METAR MRPV NIL=
201007030300 METAR MRPV NIL=
201007030400 METAR MRPV NIL=
201007030500 METAR MRPV NIL=
201007030600 METAR MRPV NIL=
201007030700 METAR MRPV NIL=
201007030800 METAR MRPV NIL=
201007030900 METAR MRPV NIL=
201007031000 METAR MRPV NIL=
201007031100 METAR MRPV NIL=
201007031200 METAR MRPV 031200Z 00000KT CAVOK 19/16 A2996 RMK FEW120 BKN250 NOSIG=
201007031300 METAR MRPV 031300Z 00000KT CAVOK 20/16 A2997 RMK FU NW SCT120 BKN250 NOSIG=
201007031400 METAR MRPV 031400Z 00000KT CAVOK 21/17 A3001 RMK SCT120 BKN250 BECMG 25006KT=
201007031500 METAR MRPV 031500Z 25006KT CAVOK 23/17 A3002 RMK BKN120 CB DST SW NOSIG=
201007031600 METAR MRPV 031600Z 26006KT 9999 FEW030 BKN120 24/18 A3002 TCU SW W NOSIG=
201007031700 METAR MRPV 031700Z 28008KT 9999 FEW030 BKN250 25/18 A3001 RMK TCU SW NW NOSIG=
201007031800 METAR MRPV 031800Z 27008KT 9999 SCT025 BKN250 25/19 A2999 RMK TCU LINE SW NW NOSIG=
201007031900 METAR MRPV 031900Z 26008KT 9999 SCT025 BKN250 26/19 A2997 TCU SW NW NOSIG=
201007032000 METAR MRPV NIL=
201007032100 METAR MRPV 032100Z 27010KT 9999 SCT022 BKN250 25/20 A2994 RMK CB DST SE SW NOSIG=
201007032200 METAR MRPV 032200Z 28012KT 9999 SCT004 BKN020 24/21 A2995 RMK RN DST SE TS DST SW BECMG 5000BR=
201007032300 METAR MRPV 032300Z 27007KT 9999 SCT008 BKN022 22/20 A2996 RMK TS DST W RN DST SE BECMG 5000BR=
201007040000 METAR MRPV NIL=
201007040100 METAR MRPV NIL=
201007040200 METAR MRPV NIL=
201007040300 METAR MRPV NIL=
201007040400 METAR MRPV NIL=
201007040500 METAR MRPV NIL=
201007040600 METAR MRPV NIL=
201007040700 METAR MRPV NIL=
201007040800 METAR MRPV NIL=
201007040900 METAR MRPV NIL=
201007041000 METAR MRPV NIL=
201007041100 METAR MRPV NIL=
201007041200 METAR MRPV 041200Z 00000KT 9999 SCT020 OVC100 20/19 A3005 NOSIG=
201007041300 METAR MRPV 041300Z 12003KT CAVOK 21/19 A3004 RMK BKN120 NOSIG=
201007041400 METAR MRPV 041400Z 09002KT CAVOK 23/18 A3004 RMK SCT120 BKN250 NOSIG=
201007041500 METAR MRPV 041500Z 30003KT 9999 FEW020 SCT120 BKN250 24/20 A3004 NOSIG=
201007041600 METAR MRPV 041600Z 29008KT 9999 SCT020 BKN250 24/19 A3005=
201007041700 METAR MRPV 041700Z 28008KT 9999 SCT020 BKN250 25/20 A3004=
201007041800 METAR MRPV 041800Z 28011KT 9999 SCT020 BKN120 26/20 A3002 NOSIG=
201007041900 METAR MRPV 041900Z 29012KT 9999 SCT020TCU BKN100 26/21 A3001 RMK CB SHRA DST SE NOSIG=
201007042000 METAR MRPV 042000Z 28012KT 9999 SCT012CB BKN030 26/21 A3001 RMK SHRA DST SE NOSIG=
201007042100 METAR MRPV 042100Z 28012KT 9999 SCT010TCU BKN030 25/21 A3000 RMK RASH S SE NOSIG=
201007042200 METAR MRPV 042200Z 29010KT 9999 VCSH FEQW010 SCT015 BKN030 23/20 A2999 RMK VIS N 5KMS TEMPO 6000 VCSH=
201007042300 METAR MRPV 042300Z 31006KT 8000 3000N RA BR SCT003 BKN010 22/20 A3002 TEMPO 3000=
201007050000 METAR MRPV NIL=
201007050100 METAR MRPV NIL=
201007050200 METAR MRPV NIL=
201007050300 METAR MRPV NIL=
201007050400 METAR MRPV NIL=
201007050500 METAR MRPV NIL=
201007050600 METAR MRPV NIL=
201007050700 METAR MRPV NIL=
201007050800 METAR MRPV NIL=
201007050900 METAR MRPV NIL=
201007051000 METAR MRPV NIL=
201007051100 METAR MRPV NIL=
201007051200 METAR MRPV 051200Z 08004KT CAVOK 19/18 A3000 RMK FEW100 BKN120 NOSIG=
201007051300 METAR MRPV 051300Z 00000KT CAVOK 21/18 A3003 RMK SCT120 BKN250 DU APROXIMACI ON 09 NOSIG=
201007051400 METAR MRPV 051400Z 00000KT CAVOK 23/18 A3004 RMK BKN120 SCT250 DU AROXIMACIO N 09=
201007051500 METAR MRPV 051500Z 00000KT CAVOK 26/17 A3004 RMK SCT120 BKN250 DU APROXIMACI ON 09 TEMPO 24006KT=
201007051600 METAR MRPV 051600Z 00000KT 9999 FEW030 BKN250 26/19 A3003 RMK BECMG SCT030=
201007051700 METAR MRPV 051700Z 27004KT 9999 SCT040 BKN130 26/19 A3003 HZ W NOSIG=
201007051800 METAR MRPV 051800Z 27005KT 9999 RA SCT020 BKN120 25/19 A3002 RMK VIS N 5KMS NOSIG=
201007051900 METAR MRPV 051900Z 27004KT 9999 SCT020 OVC100 24/20 A3000 NOSIG=
201007052000 METAR MRPV 052000Z 26005KT 9999 RA FEW008 SCT030 OVC100 25/21 A2997 RMK VIS 3KMS N NOSIG=
201007052100 METAR MRPV 052100Z 28008KT 9999 RA SCT010 BKN060 23/20 A2996 RMK VIS 6KMS NE/N/NW TEMPO 6000=
201007052200 METAR MRPV 052200Z 28006KT 6000 VCSH FEW010 SCT020 OVC100 23/20 A2996 RMK TEMPO 4000=
201007052300 METAR MRPV 052300Z 27004KT 6000 RA BR SCT004 BKN015 22/20 A2992 RMK TEMPO 4000=
201007060000 METAR MRPV NIL=
201007060100 METAR MRPV NIL=
201007060200 METAR MRPV NIL=
201007060300 METAR MRPV NIL=
201007060400 METAR MRPV NIL=
201007060500 METAR MRPV NIL=
201007060600 METAR MRPV NIL=
201007060700 METAR MRPV NIL=
201007060800 METAR MRPV NIL=
201007060900 METAR MRPV NIL=
201007061000 METAR MRPV NIL=
201007061100 METAR MRPV NIL=
201007061200 METAR MRPV 061200Z 13006KT CAVOK 21/17 A2996 RMK SCT120 SCT250 CB DST SW NOSIG=
201007061300 METAR MRPV 061300Z 00000KT CAVOK 23/18 A2999 RMK FEW120 BKN250 TCU DST DU 09 NOSIG=
201007061400 METAR MRPV 061400Z 11005KT CAVOK 25/18 A3001 RMK FEW130 BKN250 CB DST SW TEMPO 24004KT=
201007061500 METAR MRPV 061500Z 28005KT 9999 FEW035 BKN250 24/19 A3001 NOSIG=
201007061600 METAR MRPV 061600Z 28008KT 9999 SCT030 BKN250 24/19 A3001 NOSIG=
201007061700 METAR MRPV 061700Z 27010KT 9999 VCSH SCT030 BKN250 25/19 A3001 RMK VIS E 8KM NOSIG=
201007061800 METAR MRPV 061800Z 30008KT 9999 VCSH FEW020TCU SCT080 BKN250 25/19 A2999 RMK VIS E 8000 NOSIG=
201007061900 METAR MRPV 061900Z 28009KT 9999 VCSH SCT020 BKN100 25/20 A2997 RMK VIS 8KM E NOSIG=
201007062000 METAR MRPV 062000Z 29006KT 9000 SH SCT020TCU BKN100 26/20 A2994 RMK VIS N 6000 NOSIG=
201007062100 METAR MRPV 062100Z 29009KT 8000 SW FEW010TCU SCT020 BKN100 24/20 A2992 RMK VIS NW 6000 TEMPO 5000=
201007062200 METAR MRPV 062200Z 24004KT 5000 TSSHRA SCT004CB BKN010 22/20 A2992 RMK TEMPO 3000=
201007062300 METAR MRPV 062300Z 00000KT 2000 RABR OVC002 20/20 A2995 NOSIG=
201007070000 METAR MRPV 070000Z 00000KT 3000 RABR OVC003 21/20 A2997 NOSIG=
201007070100 METAR MRPV NIL=
201007070200 METAR MRPV NIL=
201007070300 METAR MRPV NIL=
201007070400 METAR MRPV NIL=
201007070500 METAR MRPV NIL=
201007070600 METAR MRPV NIL=
201007070700 METAR MRPV NIL=
201007070800 METAR MRPV NIL=
201007070900 METAR MRPV NIL=
201007071000 METAR MRPV NIL=
201007071100 METAR MRPV NIL=
201007071200 METAR MRPV 071200Z 00000KT 5000 BR FEW004 SCT120 20/19 A2998 RMK VIS W 4000 PISTA HUM DU 09 SCT250 TEMPO 8000=
201007071300 METAR MRPV 071300Z 00000KT 7000 SCT015 20/19 A3000 RMK SCT250 FG ARND VIS W UNL TEMPO 24004KT=
201007071400 METAR MRPV 071400Z 00000KT 9999 FEW010 BKN250 23/19 A3000 RMK FEW130 TEMPO 24004KT=
201007071500 METAR MRPV 071500Z 00000KT 9999 FEW015 BKN080 24/19 A3001 RMK DU APROXIMACIO N 09 BECMG 24004KT=
201007071600 METAR MRPV 071600Z 27006KT 9999 FEW010 BKN025 23/19 A3002 RMK HZ ARND=
201007071700 METAR MRPV 071700Z 30005KT 9999 RA FEW010 SCT025 2/19 A3002 RMK VIS E 5KM TEMPO 8000 SH=
201007071800 METAR MRPV 071800Z 27010KT 8000 -RA SCT004 BKN020 22/20 A3000 BECMG 5000 SH=
201007071900 METAR MRPV 071900Z 29008KT 3000 -RABR SCT001 BKN012 21/20 A2999 NOSIG=
201007072000 METAR MRPV 072000Z 28008KT 6000 RA SCT002 BKN018 23/19 A2997 BECMG 3000 -RA BR BKN012=
201007072100 METAR MRPV 072100Z 30007KT 7000 SCT004 BKN025 23/19 A2995 RERA RMK RA E TCU LINE W NOSIG=
201007072200 METAR MRPV 072200Z 28008KT 8000 SCT002 BKN025 22/20 A2995 RMK LINE TCU W LINE RA QUAD E NOSIG=
201007072300 METAR MRPV 072300Z 28008KT 1000 -RA BR SCT001 OVC005 20/19 A2997 NOSIG=
201007072345 METAR MRPV 072345Z 28008KT 1000 -RA BR SCT001 OVC004 20/19 A2998=
201007080000 METAR MRPV NIL=
201007080100 METAR MRPV NIL=
201007080200 METAR MRPV NIL=
201007080300 METAR MRPV NIL=
201007080400 METAR MRPV NIL=
201007080500 METAR MRPV NIL=
201007080600 METAR MRPV NIL=
201007080700 METAR MRPV NIL=
201007080800 METAR MRPV NIL=
201007080900 METAR MRPV NIL=
201007081000 METAR MRPV NIL=
201007081100 METAR MRPV NIL=
201007081200 METAR MRPV 081200Z 00000KT CAVOK 19/19 A2999 RMK BKN120 POLVO APROXIMACION PISTA 09 PISTA HUMEDA NOSIG=
201007081300 METAR MRPV 081300Z 00000KT CAVOK 20/19 A3001 RMK BKN120 DUST APCH RNY 09 WET RNY TEMPO 24004KT=
201007081400 METAR MRPV 081400Z 00000KT 9999 4000W BR BKN120 22/18 A3001 RMK DUST APCH RNY 09 TNG FG SW W NW TEMPO 24004KT=
201007081500 METAR MRPV 081500Z 26005KT 7000 2000N BR FEW002 SCT120 BKN250 21/19 A3003 DUST RNY09 BECMG 4000 BR=
201007081600 METAR MRPV 081600Z 27004KT 7000 2000N BR SCT004 BKN250 23/19 A3003 NOSIG=
201007081700 METAR MRPV 081700Z 25006KT 7000 3000N BR SCT002 BKN250 23/19 A3003=
201007081800 METAR MRPV 081800Z 27006KT 7000 3000NE SH FEW004 SCT120 BKN250 24/19 A3000 NOSIG=
201007081900 METAR MRPV 081900Z 27008KT 8000 3000 NE SW SCT010TCU SCT120 BKN250 25/20 A2998 NOSIG=
201007082000 METAR MRPV 082000Z 26008KT 8000 3000 SE SW SCT008CB BKN250 25/20 A2996 BECMG 5KM -TSRA=
201007082100 METAR MRPV 082100Z 24006KT 9000 4000 NE SH FEW010CB BKN250 24/19 A2994 NOSIG=
201007082200 METAR MRPV 082200Z 29005KT 9999 4000 NE -RA SCT010 BKN250 24/19 A2993 NOSIG=
201007082300 METAR MRPV 082300Z 26007KT 4000 -RA BR SCT001 BKN014 21/20 A2994 TEMPO 3KM -RA BR BKN012=
201007090000 METAR MRPV NIL=
201007090100 METAR MRPV NIL=
201007090200 METAR MRPV NIL=
201007090300 METAR MRPV NIL=
201007090400 METAR MRPV NIL=
201007090500 METAR MRPV NIL=
201007090600 METAR MRPV NIL=
201007090700 METAR MRPV NIL=
201007090800 METAR MRPV NIL=
201007090900 METAR MRPV NIL=
201007091000 METAR MRPV NIL=
201007091100 METAR MRPV NIL=
201007091200 METAR MRPV 091200Z 11004KT CAVOK 21/17 A2998 RMK BKN250 CB DST NE DU 09 NOSIG=
201007091300 METAR MRPV 091300Z 13003KT CAVOK 22/17 A2999 RMK BKN250=
201007091400 METAR MRPV 091400Z 12011KT CAVOK A3001 RMK BKN250 VEL.MAX.VTO 16KT CB DST ESE NOSIG=
201007091500 METAR MRPV 091500Z 08010KT 9999 FEW025 BKN250 26/17 A3000 NOSIG=
201007091600 METAR MRPV 091600Z 07011KT 9999 SCT025 BKN250 26/17 A3001 RMK VEL.MAX.VTO 16KT NOSIG=
201007091700 METAR MRPV 091700Z 07010KT 9999 SCT025 BKN250 27/18 A2998 NOSIG=
201007091800 METAR MRPV 091800Z 07008KT 9999 FEW015TCU SCT030 BKN250 28/18 A2997 BECMG 25006KT VCSH=
201007091900 METAR MRPV 091900Z 06010KT 9999 4000 N SHRA FEW015TCU SCT030 BKN250 27/19 A2995 BECMG 25006KT=
201007092000 METAR MRPV 092000Z 07010KT 9999 4000 NE SHRA FEW015TCU SCT030 BKN250 28/19 A2992 RMK TCU DST S BECMG 28006KT=
201007092100 METAR MRPV 092100Z 30004KT 130V300 7000 3000 W -TSRA SCT008 BKN018 24/21 A2991 BECMG 3000 +TSRA=
201007092200 METAR MRPV 092200Z 27006KT 7000 FEW010CB BKN020 23/20 A2991 RETS TS DST W BECMG 4000 BR BKN012=
201007092300 METAR MRPV 092300Z 27005KT 3000 BR SCT001 BKN014 22/20 A2992 BECMG 5KM BR BKN015=
201007092345 METAR MRPV 092345Z 29004KT 2000 BR SCT001 OVC004 22/20 A2993 NOSIG=
201007100000 METAR MRPV NIL=
201007100100 METAR MRPV NIL=
201007100200 METAR MRPV NIL=
201007100300 METAR MRPV NIL=
201007100400 METAR MRPV NIL=
201007100500 METAR MRPV NIL=
201007100600 METAR MRPV NIL=
201007100700 METAR MRPV NIL=
201007100800 METAR MRPV NIL=
201007100900 METAR MRPV NIL=
201007101000 METAR MRPV NIL=
201007101100 METAR MRPV NIL=
201007101200 METAR MRPV 101200Z 00000KT CAVOK 20/17 A2996 RMK SCT120 BKN250 DUST APCH09 NOSIG=
201007101300 METAR MRPV 101300Z 00000KT CAVOK 21/18 A2998 RMK SCT120 BKN250 NOSIG=
201007101400 METAR MRPV 101400Z 00000KT CAVOK 23/18 A2998 RMK BKN250 TEMPO 24006KT=
201007101500 METAR MRPV 101500Z 00000KT CAVOK 26/18 A2999 RMK SCT120 BKN250 DU APROXIMACI ON 09 TEMPO 24006KT=
201007101600 METAR MRPV 101600Z 00000KT 9999 FEW040 BKN120 27/18 A2998 RMK DU W TEMPO 24006KT=
201007101700 METAR MRPV 101700Z 27004KT 9999 SCT030 BKN120 26/19 A2998 NOSIG=
201007101800 METAR MRPV 101800Z 28008KT 9999 SCT030 BKN100 26/20 A2997 RMK TCU RA E TEMPO BKN015 VCSH=
201007101900 METAR MRPV 101900Z 04007KT 3000 SHRA SCT008 BKN010 20/19 A2995 VIS E UNL TEMPO 5000=
201007102000 METAR MRPV 102000Z 00000KT 9999 FEW010CB SCT020 BKN100 21/19 A2995 RASH E NOSIG=
201007102100 METAR MRPV 102100Z 16003KT 4000 TSRA BR SCT007 BKN015 21/19 A2996 TEMPO 3000=
201007102200 METAR MRPV 102200Z 25004KT 2000 TSRA BR SCT005CB OVC010 20/19 A2998 TEMPO 4000=
201007102300 METAR MRPV 102300Z 00000KT 9999 SCT025 OVC100 19/18 A2998 NOSIG=
201007102352 METAR MRPV 110000Z NIL=
201007110000 METAR MRPV NIL=
201007110100 METAR MRPV NIL=
201007110200 METAR MRPV NIL=
201007110300 METAR MRPV NIL=
201007110400 METAR MRPV NIL=
201007110500 METAR MRPV NIL=
201007110600 METAR MRPV NIL=
201007110700 METAR MRPV NIL=
201007110800 METAR MRPV NIL=
201007110900 METAR MRPV NIL=
201007111000 METAR MRPV NIL=
201007111100 METAR MRPV NIL=
201007111200 METAR MRPV 111200Z 08003KT CAVOK 18/17 A2997 RMK SCT120 BKN250 NOSIG=
201007111300 METAR MRPV 111300Z 00000KT CAVOK 19/18 A2999 RMK BKN250 CB DST SW/W NOSIG=
201007111400 METAR MRPV 111400Z 00000KT CAVOK 22/18 A2999 RMK BKN250 NOSIG=
201007111500 METAR MRPV 111500Z 29003KT CAVOK 24/19 A3002 RMK BKN250 NOSIG=
201007111600 METAR MRPV 111600Z 15003KT 9999 SCT035 BKN250 25/19 A3001 NOSIG=
201007111700 METAR MRPV 111700Z 27005KT 9999 SCT030 BKN250 25/19 A2995 NOSIG=
201007111800 METAR MRPV 111800Z 29007KT 9999 VCSH SCT030 BKN250 26/20 A2998 TCU DISPERSO RA DST NE NOSIG=
201007111900 METAR MRPV 111900Z 29009KT 9999 VCSH SCT025 SCT100 BKN250 25/20 A2996 RMK CB SHRA DST NE NOSIG=
201007112000 METAR MRPV NIL=
201007112100 METAR MRPV 112100Z 27009KT 7000 SH FEW006 SCT010TCU BKN025 24/21 A2992 RMK VIS S W UNL TEMPO 4000=
201007112200 METAR MRPV 112200Z 28007KT 7000 TSSHRA FEW004 SCT010CB OVC100 22/20 A2992 TEMPO 5000=
201007112300 METAR MRPV 112300Z 05003KT 1000 +TSRABR SCT001 OVC010 20/19 A2996 NOSIG=
201007120000 METAR MRPV 120000Z 31004KT 1000 TS RABR SCT001 SCT010CB OVC015 20/19 A2977 NOSIG=
201007120100 METAR MRPV NIL=
201007120200 METAR MRPV NIL=
201007120300 METAR MRPV NIL=
201007120400 METAR MRPV NIL=
201007120500 METAR MRPV NIL=
201007120600 METAR MRPV NIL=
201007120700 METAR MRPV NIL=
201007120800 METAR MRPV NIL=
201007120900 METAR MRPV NIL=
201007121000 METAR MRPV NIL=
201007121100 METAR MRPV NIL=
201007121200 METAR MRPV 121200Z 11003KT CAVOK 19/18 A2977 RMK OVC130 NOSIG=
201007121300 METAR MRPV 121300Z 10003KT CAVOK 20/18 A2998 RMK SCT120 OVC250 NOSIG=
201007121400 METAR MRPV 121400Z 09003KT CAVOK 24/17 A2997 RMK BKN250 DU 09 TEMPO 24006KT=
201007121500 METAR MRPV 121500Z 29008KT 9999 FEW040 BKN250 22/18 A3000 NOSIG=
201007121600 METAR MRPV 121600Z 28006KT 9999 SCT030 BKN250 23/18 A3001 NOSIG=
201007121700 METAR MRPV 121700Z 29006KT 9999 VCSH SCT025 BKN100 24/18 A3001 NOSIG=
201007121800 METAR MRPV 121800Z 28004KT 9999 VCSH SCT020 BKN100 24/18 A3000 TEMPO 7000 SH=
201007121900 METAR MRPV 121900Z 00000KT 9999 VCSH FEW010TCU SCT020 OVC100 24/18 A2999 RMK SH DST NW N NE E NOSIG=
201007122000 METAR MRPV 122000Z 06006KT 7000 3000 SW SHRA FEW010TCU BKN020 22/17 A2997 TEMPO 5000=
201007122100 METAR MRPV NIL=
201007122200 METAR MRPV 122200Z 00000KT 9999 FEW025 BKN100 22/18 A2996 NOSIG=
201007122300 METAR MRPV 122300Z 00000KT 8000 3000SW BR FEW006 SCT020 OVC100 22/19 A2997 TEMPO 5000=
201007122345 METAR MRPV 122345Z 00000KT 9999 FEW020 OVC100 22/20 A2998 NOSIG=
201007130000 METAR MRPV NIL=
201007130100 METAR MRPV NIL=
201007130200 METAR MRPV NIL=
201007130300 METAR MRPV NIL=
201007130400 METAR MRPV NIL=
201007130500 METAR MRPV NIL=
201007130600 METAR MRPV NIL=
201007130700 METAR MRPV NIL=
201007130800 METAR MRPV NIL=
201007130900 METAR MRPV NIL=
201007131000 METAR MRPV NIL=
201007131100 METAR MRPV NIL=
201007131200 METAR MRPV 131200Z 13010KT 9999 FEW030 OVC120 21/16 A2998 RMK VIENTO CRUZADO EN PISTA RA NE NOSIG=
201007131300 METAR MRPV 131300Z 09010KT 9999 FEW025 BKN120 22/17 A2998 RMK RN DST NE NOSIG=
201007131400 METAR MRPV 131400Z 08010KT 9999 FEW020 BKN120 BKN250 23/17 A2999 RMK PCPN DST NE CB DST SW VEL MAX VTO 16KT NOSIG=
201007131500 METAR MRPV 131500Z 08008KT 9999 SCT020 BKN030 24/17 A3002 RMK PCPN DST NE DUST RNY09=
201007131600 METAR MRPV NIL=
201007131700 METAR MRPV 131700Z 07004KT 9999 SCT020 BKN250 20/17 A3000 RMK RA DST NE BECMG 25006KT=
201007131800 METAR MRPV 131800Z 25004KT 9999 SCT015 BKN030 26/18 A2999 RMK RA DST N NE NOSIG=
201007131900 METAR MRPV 131900Z 27008KT 9999 3000N RA SCT010 BKN025 24/20 A2997 BECMG 6KM SHRA=
201007132000 METAR MRPV 132000Z 26008KT 5000 2000NW -SHRA SCT002 BKN015 21/19 A2995 NOSIG=
201007132100 METAR MRPV 132100Z 00000KT 2000 -RA BR SCT001 BKN008 21/20 A2995 RMK VARIABLE CONDITIONS NOSIG=
201007132200 METAR MRPV 132200Z 12004KT 5000 2000NW -RA BR SCT001 BKN015 20/19 A2993 NOSIG=
201007132300 METAR MRPV 132300Z 13006KT 9999 3000N -RA BR FEW002 SCT020 BKN120 20/18 A2994 NOSIG=
201007140000 METAR MRPV NIL=
201007140100 METAR MRPV NIL=
201007140200 METAR MRPV NIL=
201007140300 METAR MRPV NIL=
201007140400 METAR MRPV NIL=
201007140500 METAR MRPV NIL=
201007140600 METAR MRPV NIL=
201007140700 METAR MRPV NIL=
201007140800 METAR MRPV NIL=
201007140900 METAR MRPV NIL=
201007141000 METAR MRPV NIL=
201007141100 METAR MRPV NIL=
201007141200 METAR MRPV 141200Z 11007KT 9999 SCT010 BKN250 20/16 A2999 RMK RA DST NE NW NOSIG=
201007141300 METAR MRPV 141300Z 11008KT 9999 SCT012 BKN250 21/17 A3000 RMK RN DST QUAD N=
201007141400 METAR MRPV 141400Z 11010KT 9999 SCT015 BKN250 22/17 A3003 RMK VEL.MAX.VTO 15KT RA QUAD N NOSIG=
201007141500 METAR MRPV 141500Z 07014G24KT 9999 FEW015 BKN250 24/16 A3003 RMK RA DST NW NOSIG=
201007141600 METAR MRPV 141600Z 10011G21KT 9999 FEW020 BKN250 24/15 A3003 RMK RA DST NE NOSIG=
201007141700 METAR MRPV 141700Z 12010KT 9999 FEW020 BKN250 25/16 A3000 RN DST NE=
201007141800 METAR MRPV 141800Z 12010KT CAVOK 24/15 A2998 RMK SCT120 BKN250 NOSIG=
201007141900 METAR MRPV 141900Z 10008KT 9999 FEW020 SCT120 BKN250 25/16 A2998 RMK RA DST NE BECMG 25006KT=
201007142000 METAR MRPV 142000Z 09008KT 9999 FEW020 SCT120 BKN250 24/16 A2996 RMK RA DST NE TCU DST SW W BECMG 27006KT=
201007142100 METAR MRPV 142100Z 10004KT 9999 FEW020 SCT120 BKN250 25/16 A2995 RMK RN DST NE BECMG 25006KT=
201007142200 METAR MRPV 142200Z 09008KT 9999 FEW020 SCT120 BKN250 24/15 A2996 RMK RN NE NOSIG=
201007142300 METAR MRPV 142300Z 09008KT 9999 FEW020 SCT120 BKN250 23/16 A2997 RMK RA NE NOSIG=
201007150000 METAR MRPV NIL=
201007150100 METAR MRPV NIL=
201007150200 METAR MRPV NIL=
201007150300 METAR MRPV NIL=
201007150400 METAR MRPV NIL=
201007150500 METAR MRPV NIL=
201007150600 METAR MRPV NIL=
201007150700 METAR MRPV NIL=
201007150800 METAR MRPV NIL=
201007150900 METAR MRPV NIL=
201007151000 METAR MRPV NIL=
201007151100 METAR MRPV NIL=
201007151200 METAR MRPV 151200Z 00000KT 9999 FEW030 BKN250 18/15 A2998 RMK PCPN DST NE DUST APCH RNY09 NOSIG=
201007151300 METAR MRPV 151300Z 12006KT 9999 FEW030 BKN250 21/16 A2998 RMK RN NE NOSIG=
201007151400 METAR MRPV 151400Z 10010KT 9999 FEW030 BKN250 22/17 A3000 RMK RN NE NOSIG=
201007151500 METAR MRPV 151500Z 12010KT 5000 2000NE SHRA SCT010 BKN080 21/18 A3002 TEMPO 3000 +SHRA=
201007151600 METAR MRPV 151600Z 09010KT 5000 2000E RA SCT010 BKN080 21/18 A3003 RMK TEMPO 3000 +SHRA VIS W UNL=
201007151700 METAR MRPV 151700Z 10008KT 6000 2000NE -RA SCT008 BKN080 21/18 A3002 NOSIG=
201007151800 METAR MRPV 151800Z 11010KT 7000 3000NE -RA SCT010 SCT100 BKN250 22/18 A3001 NOSIG=
201007151900 METAR MRPV 151900Z 11008KT 9999 3000NE -RA SCT010 SCT100 BKN250 23/18 A2999=
201007152000 METAR MRPV 152000Z 12008KT 9999 SCT010 BKN250 23/17 A2996 RERA NOSIG=
201007152100 METAR MRPV 152100Z 10006KT 9999 SCT010 BKN250 23/18 A2996 RA DST NE NOSIG=
201007152200 METAR MRPV 152200Z 10009KT 9999 -RA FEW002 SCT010 BKN250 22/18 A2996 RMK RA DST NE BECMG 25006KT=
201007152300 METAR MRPV 152300Z VRB02KT 9999 -RA FEW002 SCT010 BKN250 22/18 A2997 RMK BECMG 25006KT=
201007160000 METAR MRPV NIL=
201007160100 METAR MRPV NIL=
201007160200 METAR MRPV NIL=
201007160300 METAR MRPV NIL=
201007160400 METAR MRPV NIL=
201007160500 METAR MRPV NIL=
201007160600 METAR MRPV NIL=
201007160700 METAR MRPV NIL=
201007160800 METAR MRPV NIL=
201007160900 METAR MRPV NIL=
201007161000 METAR MRPV NIL=
201007161100 METAR MRPV NIL=
201007161200 METAR MRPV 161200Z 00000KT 3000 BR SCT001 OVC010 19/19 A3001 RMK POLVO APROXIMACION PISTA 09 TEMPO 5000 BR=
201007161300 METAR MRPV 161300Z 00000KT 2000 BR BKN001 OVC010 20/19 A3004 RMK DU 09 NOSIG=
201007161400 METAR MRPV 161400Z 00000KT 4000 BR BKN003 OVC020 21/19 A3004 RMK DU 09 TEMPO 6000=
201007161500 METAR MRPV 161500Z 27004KT 5000 BR SCT003 BKN015 21/19 A3006 TEMPO 7000=
201007161600 METAR MRPV 161600Z 28006KT 6000 VCFG SCT004 BKN015 22/19 A3005 NOSIG=
201007161700 METAR MRPV 161700Z 26004KT 6000 DZ SCT005 BKN020 20/18 A3005 NOSIG=
201007161800 METAR MRPV 161800Z 29005KT 6000 VCFG SCT005 BKN020 22/19 A3004 NOSIG=
201007161900 METAR MRPV 161900Z 27008KT 1000 RABR OVC001 20/19 A3003 NOSIG=
201007162000 METAR MRPV 162000Z 27008KT 4000 RABR SCT003 BKN010 20/19 A3001 TEMPO 6000=
201007162100 METAR MRPV 162100Z 29007KT 5000 BR SCT004 BKN015 21/19 A3000 NOSIG=
201007162200 METAR MRPV 162200Z 30006KT 6000 VCFG SCT006 BKN015 22/18 A2999 NOSIG=
201007162300 METAR MRPV 162300Z 29004KT 5000 BR SCT003 BKN010 21/19 A3000 NOSIG=
201007170000 METAR MRPV 170000Z 28006KT 3000BR SCT002 BKN006 20/19 A3001 TEMPO 1000 OVC001=
201007170100 METAR MRPV NIL=
201007170200 METAR MRPV NIL=
201007170300 METAR MRPV NIL=
201007170400 METAR MRPV NIL=
201007170500 METAR MRPV NIL=
201007170600 METAR MRPV NIL=
201007170700 METAR MRPV NIL=
201007170800 METAR MRPV NIL=
201007170900 METAR MRPV NIL=
201007171000 METAR MRPV NIL=
201007171100 METAR MRPV NIL=
201007171200 METAR MRPV 171200Z 00000KT 2000 BR BKN001 OVC010 19/18 A3005 RMK VIS NW 6000 TEMPO 4000=
201007171300 METAR MRPV 171300Z 00000KT 3000 BR BKN002 OVC100 19/19 A3007 RMK DU W NOSIG=
201007171400 METAR MRPV 171400Z 00000KT 5000 BR FEW002 SCT008 BKN015 20/18 A3008 TEMPO 7000=
201007171500 METAR MRPV 171500Z 00000KT 8000 3000S BR SCT005 BKN020 22/18 A3009 NOSIG=
201007171600 METAR MRPV 171600Z 27003KT 9000 4000 SW BR SCT008 BKKN025 22/19 A3009 NOSIG=
201007171700 METAR MRPV 171700Z 00000KT 9999 SCT020 BKN100 23/19 A3007 NOSIG=
201007171800 METAR MRPV 171800Z 24004KT 9999 SCT025 BKN100 25/19 A3004 NOSIG=
201007171900 METAR MRPV 171900Z 26005KT 9999 FEW010 SCT020 BKN100 24/19 A3002 TEMPO 7 HVH994 171900 GG EGZZMCAR KWBCYMYX KWBCYZYX MKJPYMYX MUHAYMYX SBBRYZYX SPIMYZYX SVMIMAMX TJSJYMYX 171900 MZBZZQZX=
201007172000 METAR MRPV 172000Z 28010KT 9999 SCT015 BKN100 23/20 A3001 NOSIG=
201007172100 METAR MRPV NIL=
201007172200 METAR MRPV 172200Z 29008KT 7000 3000S BR SCT002 BKN015 21/20 A3000 TEMPO BKN020=
201007172300 METAR MRPV 172300Z 29008KT 3000 BR SCT002 OVC010 21/19 A3001 NOSIG=
201007172345 METAR MRPV 172345Z 29007KT 3000 BR BKN002 OVC010 20/19 A3001 NOSIG=
201007180000 METAR MRPV NIL=
201007180100 METAR MRPV NIL=
201007180200 METAR MRPV NIL=
201007180300 METAR MRPV NIL=
201007180400 METAR MRPV NIL=
201007180500 METAR MRPV NIL=
201007180600 METAR MRPV NIL=
201007180700 METAR MRPV NIL=
201007180800 METAR MRPV NIL=
201007180900 METAR MRPV NIL=
201007181000 METAR MRPV NIL=
201007181100 METAR MRPV NIL=
201007181200 METAR MRPV 181200Z 09002KT CAVOK 20/19 A3005 RMK FEW100 OVC140 NOSIG=
201007181300 METAR MRPV 181300Z 11003KT CAVOK 20/19 A3006 RMK OVC140 NOSIG=
201007181400 METAR MRPV 181400Z 24002KT 9999 3000W BR FEW003 BKN140 22/20 A3006 TEMPO 5000=
201007181500 METAR MRPV 181500Z 27003KT 5000 BR SCT004 BKN130 22/20 A3007 RMK VIS E SE UN TEMPO 8000=
201007181600 METAR MRPV 181600Z 28003KT 7000 SCT010 BKN120 23/20 A3007 RMK VIS RED DUE LOW ST NOSIG=
201007181700 METAR MRPV 181700Z 28005KT 8000 VCFG FEW006 SCT010 BKN100 23/20 A3007 NOSIG=
201007181800 METAR MRPV 181800Z 28008KT 8000 SCT006 BKN100 23/20 A3005 VIS RED DUE LOW ST ARND NOSIG=
201007181900 METAR MRPV 181900Z 29007KT 8000 SCT010 BKN100 24/20 A3003 NOSIG=
201007182000 METAR MRPV 182000Z 28008KT 8000 SCT012 BKN100 24/20 A3000 NOSIG=
201007182100 METAR MRPV 182100Z 27008KT 7000 3000SW BR SCT003 BKN015 24/21 A2998 TEMPO 4000 BR=
201007182200 METAR MRPV 182200Z 28011KT 4000 BR BKN002 OVC010 22/20 A2999 TEMPO 2000=
201007182300 METAR MRPV 182300Z 25006KT 2000 BR BKN001 OVC010 20/19 A3001 NOSIG=
201007190000 METAR MRPV 190000Z 26004KT 3000 RA BR BKN002 OVC010 20/19 A3001 NOSIG=
201007190100 METAR MRPV NIL=
201007190200 METAR MRPV NIL=
201007190300 METAR MRPV NIL=
201007190400 METAR MRPV NIL=
201007190500 METAR MRPV NIL=
201007190600 METAR MRPV NIL=
201007190700 METAR MRPV NIL=
201007190800 METAR MRPV NIL=
201007190900 METAR MRPV NIL=
201007191000 METAR MRPV NIL=
201007191100 METAR MRPV NIL=
201007191200 METAR MRPV 191200Z 00000KT 3000 -RA BR SCT001 BKN120 19/19 A3003 BECMG 5000 BR=
201007191300 METAR MRPV 191300Z 09004KT 9999 FEW010 SCT120 BKN250 21/20 A3003 RMK POLVO APROXIMACION PISTA 09 NOSIG=
201007191400 METAR MRPV 191400Z 13008KT 9999 FEW020 SCT120 BKN250 23/18 A3004 RMK VTO.CRUZADO.PISTA POLVO.APROX.R09=
201007191500 METAR MRPV 191500Z 12006KT 9999 FEW020 SCT120 BKN250 25/17 A3005 RMK POLVO.CABECERA.RO9 CB DST SW BECMG 24006KT=
201007191600 METAR MRPV 191600Z 27008KT 8000 3000NW BR FEW010 SCT120 BKN250 24/20 A3005 RMK POLVO.APROX.RO9 CB DST SW=
201007191700 METAR MRPV 191700Z 28008KT 8000 SCT010TCU BKN250 25/20 A3004 RMK HZ ARND POLVO APROXIMACION PISTA 09 CB DST SW NOSIG=
201007191800 METAR MRPV 191800Z 27010KT 7000 3000N BR SCT010TCU BKN025 25/21 A3003 BECMG 5000 RA BR=
201007191900 METAR MRPV 191900Z 27008KT 5000 2000N BR SCT008TCU BKN015 24/20 A3001 BECMG 3KM -RA BR=
201007192000 METAR MRPV 192000Z 26004KT 5000 2000N BR SCT008TCU BKN015 24/21 A2998 BECMG 3KM -RA BR=
201007192100 METAR MRPV 192100Z 27007KT 6000 2500N BR SCT010 BKN020 24/20 A2996 BECMG 3000 -RA BR=
201007192200 METAR MRPV 192200Z 28008KT 5000 2000N BR SCT002 BKN015 24/21 A2995 BECMG 3000 -RA BR=
201007192300 METAR MRPV 192300Z 27008KT 3000 -RA BR SCT001 BKN012 22/20 A2997 NOSIG=
201007200000 METAR MRPV NIL=
201007200100 METAR MRPV NIL=
201007200200 METAR MRPV NIL=
201007200300 METAR MRPV NIL=
201007200400 METAR MRPV NIL=
201007200500 METAR MRPV NIL=
201007200600 METAR MRPV NIL=
201007200700 METAR MRPV NIL=
201007200800 METAR MRPV NIL=
201007200900 METAR MRPV NIL=
201007201000 METAR MRPV NIL=
201007201100 METAR MRPV NIL=
201007201200 METAR MRPV 201200Z 08003KT CAVOK 19/18 A3003 RMK SCT120 BKN250=
201007201300 METAR MRPV 201300Z 11002KT CAVOK 22/18 A3003 RMK SCT120 BKN250 NOSIG=
201007201400 METAR MRPV 201400Z 10002KT CAVOK 24/18 A3003 RMK FEW120 BKN250 NOSIG=
201007201500 METAR MRPV 201500Z 30006KT CAVOK 23/19 A3004 RMK BKN250 NOSIG=
201007201600 METAR MRPV 201600Z 29007KT 9999 FEW020 BKN250 25/20 A3004 NOSIG=
201007201700 METAR MRPV 201700Z 27010KT 9999 FEW020 BKN250 26/20 A3003 NOSIG=
201007201800 METAR MRPV 201800Z 27015KT 9999 FEW015TCU SCT020 BKN250 26/20 A3002 NOSIG=
201007201900 METAR MRPV 201900Z 28012KT 8000 3000N VCTS FEW002 FEW008CB BKN025 24/21 A3002 RMK TS NE=
201007202000 METAR MRPV 202000Z 28008KT 8000 3000N -TSRA FEW002 FEW008 BKN020 25721 A3002 BECMG 3000=
201007202100 METAR MRPV 202100Z 27008KT 8000 3000N -RA SCT004 BKN020 24/21 A2998 BECMG 3000 -RA BR=
201007202200 METAR MRPV 202200Z 27010KT 8000 3000W RA FEW008TCU BKN025 24/20 A2998 BECMG 3000 -RA BR=
201007202300 METAR MRPV 202300Z 28010KT 3000 -TSRA BR FEW001 FEW005CB BKN012 22/21 A2997 NOSIG=
201007210000 METAR MRPV NIL=
201007210100 METAR MRPV NIL=
201007210200 METAR MRPV NIL=
201007210300 METAR MRPV NIL=
201007210400 METAR MRPV NIL=
201007210500 METAR MRPV NIL=
201007210600 METAR MRPV NIL=
201007210700 METAR MRPV NIL=
201007210800 METAR MRPV NIL=
201007210900 METAR MRPV NIL=
201007211000 METAR MRPV NIL=
201007211100 METAR MRPV NIL=
201007211200 METAR MRPV 211200Z 10003KT CAVOK 18/15 A3001 RMK FEW250 POLVO APROXIMACION PISTA 09 NOSIG=
201007211300 METAR MRPV 211300Z VRB02KT CAVOK 21/17 A3001 POLVO 09 FEW250 NOSIG=
201007211400 METAR MRPV 211400Z 10008KT CAVOK 24/16 A3001 FEW250 NOSIG POLVO 09=
201007211500 METAR MRPV 211500Z 24008KT CAVOK 22/18 A3003 POLVO 09 SCT250 NOSIG=
201007211600 METAR MRPV 211600Z 27006KT 9999 FEW030 SCT250 24/19 A3005 TCU N NW NOSIG=
201007211700 METAR MRPV 211700Z 28007KT 9999 FEW030 SCT250 25/19 A3004 TCU DST N E NOSIG=
201007211800 METAR MRPV 211800Z 28012KT 9999 SCT015TCU BKN250 25/19 A3003 BECMG=
201007211900 METAR MRPV 211900Z 28010KT 9999 3000NE SHRA FEW010CB FEW020 BKN250 26/20 A3001 BECMG -TSRA=
201007212000 METAR MRPV 212000Z VRB02KT 2000 +TSRA SCT002CB BKN010 22/21 A3001 BECMG 5000 -TSRA=
201007212100 METAR MRPV 212100Z 05006KT 8000 2000NW -RA BR SCT004 BKN025 20/19 A3000 RETS NOSIG=
201007212200 METAR MRPV 212200Z 00000KT 9999 4000NW -RA BR SCT010 BKN250 21/19 A2999=
201007212300 METAR MRPV 212300Z 26005KT 8000 3000NW SCT002 BKN020 21/20 A3000 BECMG 3000 BR BKN012=
201007220000 METAR MRPV 220000Z 00000KT 9999 SCT010 BKN250 22/20 A3000 NOSIG=
201007220100 METAR MRPV NIL=
201007220200 METAR MRPV NIL=
201007220300 METAR MRPV NIL=
201007220400 METAR MRPV NIL=
201007220500 METAR MRPV NIL=
201007220600 METAR MRPV NIL=
201007220700 METAR MRPV NIL=
201007220800 METAR MRPV NIL=
201007220900 METAR MRPV NIL=
201007221000 METAR MRPV NIL=
201007221100 METAR MRPV NIL=
201007221200 METAR MRPV 221200Z 00000KT CAVOK 19/17 A3001 RMK SCT300 HZ W NOSIG=
201007221300 METAR MRPV 221300Z 11002KT CAVOK 22/18 A3003 RMK SCT300 HZ DU W NOSIG=
201007221400 METAR MRPV 221400Z 00000KT CAVOK 24/19 A3004 RMK SCT300 DU 09 HZ LGT W NOSIG=
201007221500 METAR MRPV NIL=
201007221600 METAR MRPV 221600Z 27004KT 9999 SCT035 26/19 A3005 RMK HZ ARND DU 09 NOSIG=
201007221700 METAR MRPV 221700Z 28006KT 9999 SCT030 SCT300 26/20 A3003 RMK DU W TCU E HZ ARND NOSIG=
201007221800 METAR MRPV 221800Z 27007KT 9999 FEW015TCU SCT025 26/20 A3002 RMK TCU RASH DST E NOSIG=
201007221900 METAR MRPV 221900Z 26003KT 9000 4000N SHRA FEW015TCU SCT025 24/21 A3000=
201007222000 METAR MRPV 222000Z 26007KT 9999 4000N SHRA FEW010TCU SCT020 27/21 A2998=
201007222100 METAR MRPV 222100Z 29008KT 7000 TS SHRA FEW010CB SCT015 BKN030 26/21 A2996 TEMPO 5000=
201007222200 METAR MRPV 222200Z 26006KT 6000 TS SHRA SCT008CB BKN015 24/21 A2994 TEMPO 3000=
201007222300 METAR MRPV 222300Z 30003KT 1000 +TSRA BKN001CB SCT010 22/20 A2997 NOSIG=
201007230000 METAR MRPV NIL=
201007230100 METAR MRPV NIL=
201007230200 METAR MRPV NIL=
201007230300 METAR MRPV NIL=
201007230400 METAR MRPV NIL=
201007230500 METAR MRPV NIL=
201007230600 METAR MRPV NIL=
201007230700 METAR MRPV NIL=
201007230800 METAR MRPV NIL=
201007230900 METAR MRPV NIL=
201007231000 METAR MRPV NIL=
201007231100 METAR MRPV NIL=
201007231200 METAR MRPV 231200Z 00000KT 9999 FEW030 SCT300 18/17 A3002 RMK HZ ARND=
201007231300 METAR MRPV 231300Z 00000KT CAVOK 21/17 A3002 SCT300 RMK TCU DST SW HZY NOSIG=
201007231400 METAR MRPV 231400Z 00000KT CAVOK 22/18 A3003 SCT300 HZY TCU DST SW TEMPO 24004KT=
201007231500 METAR MRPV 231500Z 26004KT 9999 FEW030 SCT300 23/18 A3005 HZY NOSIG=
201007231600 METAR MRPV 231600Z 27003KT 9999 SCT035 SCT300 26/18 A3004 HZY NOSIG=
201007231700 METAR MRPV 231700Z 26005KT 9999 SCT035 26/20 A3003 RMK LGT HZ ARND NOSIG=
201007231800 METAR MRPV 231800Z 28009KT 9999 FEW020 SCT030 26/21 A3002 HZY NOSIG=
201007231900 METAR MRPV 231900Z 29009KT 9999 SH FEW015TCU SCT025 25/21 A3001 RMK RASH N NE TEMPO 5000=
201007232000 METAR MRPV 232000Z 27010KT 8000 3000N SHRA FEW010TCU SCT020 26/20 A2997 TEMPO 5000=
201007232100 METAR MRPV 232100Z 26004KT 3000 TSRA SCT003CB BKN010 23/21 A2997 NOSIG=
201007232200 METAR MRPV 232200Z 00000KT 5000 RA BR SCT002 BKN010 21/20 A2997 TEMPO 7000=
201007232300 METAR MRPV 232300Z 27004KT 2000 BR SCT002 BKN007 22/20 A2998 NOSIG=
201007240000 METAR MRPV 240000Z 31002KT 2000 BR SCT002 OVC010 21/21 A2999 NOSIG=
201007240100 METAR MRPV NIL=
201007240200 METAR MRPV NIL=
201007240300 METAR MRPV NIL=
201007240400 METAR MRPV NIL=
201007240500 METAR MRPV NIL=
201007240600 METAR MRPV NIL=
201007240700 METAR MRPV NIL=
201007240800 METAR MRPV NIL=
201007240900 METAR MRPV NIL=
201007241000 METAR MRPV NIL=
201007241100 METAR MRPV NIL=
201007241200 METAR MRPV 241200Z 12006KT CAVOK 21/17 A2999 RMK BKN250 CB DST SW NOSIG=
201007241300 METAR MRPV 241300Z 12004KT CAVOK 22/17 A3001 RMK BKN250 NOSIG=
201007241400 METAR MRPV 241400Z 09010KT CAVOK 24/17 A3002 RMK BKN250 NOSIG=
201007241500 METAR MRPV 241500Z 07007KT CAVOK 25/17 A3003 RMK BKN250 NOSIG=
201007241600 METAR MRPV 241600Z 08004KT 9999 FEW040 BKN250 27/17 A3003 NOSIG=
201007241700 METAR MRPV 241700Z 11002KT 9999 SCT030 BKN250 28/17 A3002 TEMPO 24004KT=
201007241800 METAR MRPV 241800Z 29007KT 9999 FEW020 SCT035 27/20 A3000 NOSIG=
201007241900 METAR MRPV 241900Z 29008KT 9999 SH SCT020TCU BKN035 27/20 A2999 RMK TCU SH N VIS 6KM NOSIG=
201007242000 METAR MRPV 242000Z 29009KT 9999 VCSH BKN025 26/21 A2996 NOSIG=
201007242100 METAR MRPV 242100Z 28008KT 9999 SCT010TCU BKN025 26/22 A2994 NOSIG=
201007242200 METAR MRPV 242200Z 27008KT 9999 4000SW TS VCSH SCT010CB BKN025 25/22 A2994 TEMPO 6000=
201007242300 METAR MRPV 242300Z 28011KT 4000 SHRA BR SCT003 BKN010 22/21 A2996 TEMPO 3000=
201007250000 METAR MRPV NIL=
201007250100 METAR MRPV NIL=
201007250200 METAR MRPV NIL=
201007250300 METAR MRPV NIL=
201007250400 METAR MRPV NIL=
201007250500 METAR MRPV NIL=
201007250600 METAR MRPV NIL=
201007250700 METAR MRPV NIL=
201007250800 METAR MRPV NIL=
201007250900 METAR MRPV NIL=
201007251000 METAR MRPV NIL=
201007251100 METAR MRPV NIL=
201007251200 METAR MRPV 251200Z 09008KT CAVOK 21/17 A2998 RMK CB DST NW W SW FEW080 BKN250 NOSIG=
201007251300 METAR MRPV 251300Z 12005KT CAVOK 23/17 A2999 RMK CB SW BKN250 BECMG 24006KT=
201007251400 METAR MRPV 251400Z 10004KT CAVOK 25/17 A2999 RMK CB DST SW BKN250 BECMG 2400 7KT=
201007251500 METAR MRPV 251500Z 07007KT 9999 FEW030 BKN250 26/18 A3001 RMK CB DST SW BECM G 24006KT=
201007251600 METAR MRPV 251600Z 30004KT 9999 SCT030 SCT250 25/19 A3000 RMK CB DST SW NOSI G=
201007251700 METAR MRPV 251700Z 07010KT 9999 SCT030 SCT250 28/17 A2999 RMK TCU DST W SW BECMG 24006KT=
201007251800 METAR MRPV 251800Z 07008KT 9999 SCT025 SCT250 28/18 A2998 RMK LINE TCU SW BECMG 24006KT=
201007251900 METAR MRPV 251900Z 07013KT 9999 FEW010TCU BKN030 26/18 A2994 RMK GUST 19KT RA N NE E NOSIG=
201007252000 METAR MRPV NIL=
201007252100 METAR MRPV NIL=
201007252200 METAR MRPV NIL=
201007252300 METAR MRPV NIL=
201007260000 METAR MRPV NIL=
201007260100 METAR MRPV NIL=
201007260200 METAR MRPV NIL=
201007260300 METAR MRPV NIL=
201007260400 METAR MRPV NIL=
201007260500 METAR MRPV NIL=
201007260600 METAR MRPV NIL=
201007260700 METAR MRPV NIL=
201007260800 METAR MRPV NIL=
201007260900 METAR MRPV NIL=
201007261000 METAR MRPV NIL=
201007261100 METAR MRPV NIL=
201007261200 METAR MRPV 261200Z VRB2KT CAVOK 19/17 A2995 RMK POLVO.CABEC.RWY09 CB DST SW FEW090 BKN250 NOSIG=
201007261300 METAR MRPV 261300Z 00000KT CAVOK 26/17 A2992 RMK POLVO PISTA 09 CB DST SW FEW090 BKN250 BECMG 25006KT=
201007261400 METAR MRPV 261400Z 00000KT CAVOK 23/18 A3000 RMK POLVO PIST0 09 CB DST SW FEW090 BKN250 BECMG 25006KT=
201007261500 METAR MRPV 261500Z VRB02KT 9999 FEW030 SCT250 25/17 A3000 RMK POLVO PISTA 09 CB DST SW BECMG 25006KT=
201007261600 METAR MRPV 261600Z 25006KT 9999 SCT025 BKN250 25/18 A3001 POLVO PISTA 09 NOSIG=
201007261700 METAR MRPV 261700Z 27008KT 9999 SCT035 BKN250 26/16 A3000 RMK POLVO PISTA 09 CB DST SW NOSIG=
201007261800 METAR MRPV 261800Z 28010KT 9999 FEW010TCU SCT025 BKN250 26/20 A2998 BECMG VCTS SH=
201007261900 METAR MRPV 261900Z 27008KT 9999 2000N SHRA FEW010CB SCT025 BKN250 24/20 A2996 RMK BECMG -TSRA SH=
201007262000 METAR MRPV 262000Z 29005KT 9999 -TSRA FEW010CB SCT025 BKN250 24/20 A2995 RMK BECMG 5000 -TSRA=
201007262100 METAR MRPV 262100Z 25004KT 5000 -TARA SCT004VB BKN015 24/21 A2994 BECMG 3000 -RA BR BKN012=
201007262200 METAR MRPV 262200Z VRB02KT 5000 2000W -RA BR FEW001 BKN015 21/20 A2994 NOSIG=
201007262300 METAR MRPV 262300Z VRB02KT 5000 2000W -RA BR SCT001 BKN015 21/20 A2994 VIS E UNL NOSIG=
201007262355 METAR MRPV 270000Z NIL=
201007270000 METAR MRPV NIL=
201007270100 METAR MRPV NIL=
201007270200 METAR MRPV NIL=
201007270300 METAR MRPV NIL=
201007270400 METAR MRPV NIL=
201007270500 METAR MRPV NIL=
201007270600 METAR MRPV NIL=
201007270700 METAR MRPV NIL=
201007270800 METAR MRPV NIL=
201007270900 METAR MRPV NIL=
201007271000 METAR MRPV NIL=
201007271100 METAR MRPV NIL=
201007271200 METAR MRPV 271200Z 10005KT CAOK 20/18 A2995 RMK CB DST N NW DU APROXIMACION 09 HZ ARND BKN250 NOSIG=
201007271300 METAR MRPV 271300Z VRB02KT CAVOK 21/18 A2998 RMK DU 09 HZ ARND BECMG 25006KT=
201007271400 METAR MRPV 271400Z VRB02KT CAVOK 22/18 A2999 DU 09 HX ARND BKN250 BECMG 25006KT=
201007271500 METAR MRPV 271500Z VRB03KT CAVOK 24/18 A2999 RMK HZ ARND BKN250 BECMG 25006KT=
201007271600 METAR MRPV 271600Z 08006KT CAVOK 25/17 A3000 RMK DU 09 HZ W BECMG 25006KT=
201007271700 METAR MRPV 271700Z 08008KT 9999 FEW030 BKN250 25/18 A2999 RMK DU 09 HZ W N BECMG 25006KT=
201007271800 METAR MRPV 271800Z 27008KT 8000 3000NW HZ FEW010TCU BKN250 24/20 A3000 RMK DU 09 BECMG 5000 -RA BR=
201007271900 METAR MRPV 271900Z 27008KT 8000 3000NW HZ SCT010TCI BKN250 24/22 A2998 BECMG 5000 -RA BR=
201007272000 METAR MRPV 272000Z 25004KT 8000 3000NW HZ SCT008TCU BKN250 24/20 A2996 BECMG 5000 -RA BR=
201007272100 METAR MRPV 272100Z 26005KT 7000 2000NW SHRA FEW002 SCT010TCU BKN020 23/21 A2994 BECMG 4000 +SHRA=
201007272200 METAR MRPV 272200Z 27006KT 5000 2000NW -RA BR SCT001 BKN015 22/21 A2995 BECMG 3000 -RA BR=
201007272300 METAR MRPV 272300Z 27004KT 5000 2000NW -RA BR SCT001 BKN020 22/20 A2995 BECMG 2000 -RA BR=
201007272345 METAR MRPV 272345Z 00000KT 8000 3000NW -RA BR SCT002 BKN020 22/20 A2997=
201007280000 METAR MRPV NIL=
201007280100 METAR MRPV NIL=
201007280200 METAR MRPV NIL=
201007280300 METAR MRPV NIL=
201007280400 METAR MRPV NIL=
201007280500 METAR MRPV NIL=
201007280600 METAR MRPV NIL=
201007280700 METAR MRPV NIL=
201007280800 METAR MRPV NIL=
201007280900 METAR MRPV NIL=
201007281000 METAR MRPV NIL=
201007281100 METAR MRPV NIL=
201007281200 METAR MRPV 281200Z 00000KT 3000 BR SCT001 BKN010 20/19 RMK DU APROXIMACION TEMPO 6000=
201007281300 METAR MRPV 281300Z 00000KT 9999 SCT010 BKN040 20/19 A3004 RMK DUST W NOSIG=
201007281400 METAR MRPV 281400Z 12005KT 9999 SCT020 BKN100 22/18 A3003 NOSIG=
201007281500 METAR MRPV 281500Z 11009KT 9999 SCT020 BKN100 23/18 A3002 NOSIG=
201007281600 METAR MRPV 281600Z 10010KT 9999 SCT020 BKN100 24/18 A3003 NOSIG=
201007281700 METAR MRPV 281700Z 08010KT 9999 SCT025 BKN120 25/18 A3002 NOSIG=
201007281800 METAR MRPV 281800Z 08007KT 9999 SCT020 BKN120 25/18 A3001 NOSIG=
201007281900 METAR MRPV 281900Z 07009KT 9999 FEW015 SCT020 BKN100 26/19 A2998 NOSIG=
201007282000 METAR MRPV 282000Z 29004KT 9999 SHRA FEW010TCU SCT020 BKN100 25/21 A2997 RN DST N TEMPO 6000 SH BKN015=
201007282100 METAR MRPV 282100Z 29004KT 8000 3000N SHRA SCT010CB BKN020 23/21 A2997 TEMPO 5000=
201007282200 METAR MRPV NIL=
201007282210 METAR MRPV 282210Z 30004KT 3000 BR SCT002 BKN010 22/20 A2997 RMK VIS E SE S 8KM TEMPO 2000=
201007282300 METAR MRPV 282300Z 00000KT 2000 BR SCT002 BKN008 21/20 A2999 NOSIG=
201007290000 METAR MRPV 290000Z 00000KT 3000 BR SCT002 BKN006 21/20 A3000=
201007290100 METAR MRPV NIL=
201007290200 METAR MRPV NIL=
201007290300 METAR MRPV NIL=
201007290400 METAR MRPV NIL=
201007290500 METAR MRPV NIL=
201007290600 METAR MRPV NIL=
201007290700 METAR MRPV NIL=
201007290800 METAR MRPV NIL=
201007290900 METAR MRPV NIL=
201007291000 METAR MRPV NIL=
201007291100 METAR MRPV NIL=
201007291200 METAR MRPV 291200Z 00000KT CAVOK 18/17 A3005 RMK SCT130 BKN250 CB DST S NOSIG=
201007291300 METAR MRPV 291300Z 09004KT CAVOK 21/17 A3005 RMK SCT130 BKN250 CB DST S NOSIG=
201007291400 METAR MRPV 291400Z 12003KT CAVOK 25/17 A3005 RMK SCT140 BKN250 NOSIG=
201007291500 METAR MRPV 291500Z 10006KT CAVOK 26/17 A3005 RMK BKN140 NOSIG=
201007291600 METAR MRPV 291600Z 08010KT 9999 SCT040 BKN120 26/17 A3005 NOSIG=
201007291700 METAR MRPV 291700Z 08012KT 9999 BKN030 28/17 A3004 NOSIG=
201007291800 METAR MRPV 291800Z 28005KT 9999 TS SHRA FEW015CB BKN025 26/19 A3003 RMK CB SH VIS 6KM N TEMPO 6000=
201007291900 METAR MRPV 291900Z 28007KT 9999 SCT020TCU BKN035 25/20 A3001 RETSRA RMK RA S NOSIG=
201007292000 METAR MRPV 292000Z 29007KT 6000 -RA SCT015 BKN100 22/20 A2999 TEMPO 8000=
201007292100 METAR MRPV 292100Z 30004KT 3000 SHRA BR SCT002 BKN008 22/21 A3000 NOSIG=
201007292200 METAR MRPV 292200Z 28005KT 3000 BR SCT001 OVC007 21/20 A2999 NOSIG=
201007292300 METAR MRPV 292300Z 00000KT 4000 RA BR SCT005 BKN010 20/19 A3000 NOSIG=
201007300000 METAR MRPV NIL=
201007300100 METAR MRPV NIL=
201007300200 METAR MRPV NIL=
201007300300 METAR MRPV NIL=
201007300400 METAR MRPV NIL=
201007300500 METAR MRPV NIL=
201007300600 METAR MRPV NIL=
201007300700 METAR MRPV NIL=
201007300800 METAR MRPV NIL=
201007300900 METAR MRPV NIL=
201007301000 METAR MRPV NIL=
201007301100 METAR MRPV NIL=
201007301200 METAR MRPV 301200Z 09006KT CAVOK 19/18 A2999 RMK BKN250 NOSIG=
201007301300 METAR MRPV 301300Z 12007KT CAVOK 21/17 A3000 RMK SCT100 BKN120 NOSIG=
201007301400 METAR MRPV 301400Z 11006KT CAVOK 23/17 A3000 RMK SCT120 BKN250 NOSIG=
201007301500 METAR MRPV 301500Z 12004KT CAVOK 26/17 A3001 RMK BKN250 TEMPO 24004KT=
201007301600 METAR MRPV 301600Z 10007KT 9999 FEW040 BKN250 26/17 A3003 RMK CB DST S TEMPO 24004KT=
201007301700 METAR MRPV 301700Z 28010KT 9999 SCT035 BKN250 25/20 A3001 NOSIG=
201007301800 METAR MRPV 301800Z 27007KT 9999 SCT030 BKN250 25/20 A3000=
201007301900 METAR MRPV 301900Z 28008KT 9999 SCT020 BKN040 25/20 A2998 NOSIG=
201007302000 METAR MRPV 302000Z 28008KT 3000N TSSHRA SCT004CB BKN010 24/21 A2997 TEMPO 3000=
201007302100 METAR MRPV 302100Z 28006KT 5000 BR SCT004 BKN010 22/20 A2996 TEMPO DST NE=
201007302200 METAR MRPV 302200Z 27007KT 7000 3000N BR SCT006 BKN015 22/20 A2995 TEMPO 5000 BKN008=
201007302300 METAR MRPV 302300Z 32002KT 5000 BR SCT005 BKN015 22/20 A2997 NOSIG=
201007310000 METAR MRPV 310000Z 31003KT 4000 SCT002 BKN010 22/20 A2997 NOSIG=
201007310100 METAR MRPV NIL=
201007310200 METAR MRPV NIL=
201007310300 METAR MRPV NIL=
201007310400 METAR MRPV NIL=
201007310500 METAR MRPV NIL=
201007310600 METAR MRPV NIL=
201007310700 METAR MRPV NIL=
201007310800 METAR MRPV NIL=
201007310900 METAR MRPV NIL=
201007311000 METAR MRPV NIL=
201007311100 METAR MRPV NIL=
201007311200 METAR MRPV 311200Z 00000KT CAVOK 19/18 A2994 RMK POLVO.CABEC.R09 CB DST SW FEW090 BKN250=
201007311300 METAR MRPV 311300Z 08004KT CAVOK 20/18 A2996 RMK DUST PISTA09 CB DST SW FEW0 90 BKN250=
201007311400 METAR MRPV 311400Z 12009KT CAVOK 22/18 A2997 RMK CB S SW DST BKN250 NOSIG=
201007311500 METAR MRPV 311500Z 09010KT 9999 FEW030 OVC250 23/18 A2998 RMK RN DST N NE NOSIG=
201007311600 METAR MRPV 311600Z 10008KT 5000 2000N SHRA SCT020 BKN030 22/18 A2999 NOSIG=
201007311700 METAR MRPV 311700Z 10008KT 9999 -RA SCT015 BKN250 23/19 A2996 NOSGI=
201007311800 METAR MRPV 311800Z 10010KT 9999 FEW010 BKN250 25/19 A2995 NOSIG=
201007311900 METAR MRPV 311900Z 10010KT 9999 FEW010 BKN250 26/18 A2992 RMK RN DST NE NOSIG=
201007312000 METAR MRPV 312000Z 09010KT 9999 SCT012 BKN250 25/18 A2989 RMK RN DST NE TCU W NOSIG=
201007312100 METAR MRPV 312100Z 08010KT 9999 SCT012 BKN250 26/18 A2989 RMK PCPN DST NE NOSIG=
201007312200 METAR MRPV 312200Z 06010KT 9999 SCT012 BKN250 26/18 A2988 RMK PCPN DST NE TCU FDST NW SW NOSIG=
201007312300 METAR MRPV 312300Z 08010KT 9999 3000N RA SCT010 BKN250 24/18 A2989 RMK TCU W BECMG 6000 SHRA=
201008010000 METAR MRPV 010000Z 09003KT 9999 4000NW RA SCT008 BKN250 23/18 A2991 NOSIG=
201008010100 METAR MRPV NIL=
201008010200 METAR MRPV NIL=
201008010300 METAR MRPV NIL=
201008010400 METAR MRPV NIL=
201008010500 METAR MRPV NIL=
201008010600 METAR MRPV NIL=
201008010700 METAR MRPV NIL=
201008010800 METAR MRPV NIL=
201008010900 METAR MRPV NIL=
201008011000 METAR MRPV NIL=
201008011100 METAR MRPV NIL=
201008011200 METAR MRPV 011200Z 12004KT CAVOK 18/16 A2992 RMK RA NE BKN250 NOSIG=
201008011300 METAR MRPV 011300Z 13007KT CAVOK 20/17 A2993 RMK BKN250 PCPN DST NE NOSIG=
201008011400 METAR MRPV 011400Z 12010KT CAVOK 22/16 A2996 RMK PCPN NE FEW100 BKN250 NOSIG=
201008011500 METAR MRPV 011500Z 10010KT CAVOK 24/16 A2995 RMK RA NE FEW100 BKN250 NOSIG=
201008011600 METAR MRPV 011600Z 11006KT 9999 FEW030 BKN250 25/17 A2995 RMK PCPN NE BECMG 24006KTKT=
201008011700 METAR MRPV NIL=
201008011800 METAR MRPV 011800Z 09010KT 9999 FEW030 BKN250 26/18 A2992 RMK PCPN DST NE BECMG 24006KT=
201008011900 METAR MRPV 011900Z 08010KT 9999 FEW030 BKN250 26/18 A2989 RMK PCPN NE BECMG 24006KT=
201008012000 METAR MRPV 012000Z 07007KT 9999 FEW030 BKN250 26/18 A2986 RMK PCPN NE BECMG 24006KT=
201008012100 METAR MRPV 012100Z 27008KT 9999 FEW004 SCT025 BKN250 24/20 A2986 RMK PCPN DST NE CB DST S NOSIG=
201008012200 METAR MRPV 012200Z 28008KT 9999 RA FEW004 SCT020 BKN250 24/20 A2986 RMK VIS E NE 5KMS CB DST S NOSIG=
201008012300 METAR MRPV 012300Z 29006KT 4000 1000 TSRA SCT002CB SCT020 BKN250 22/20 A2987 VIS W UNLT TEMPO 5000 TSRA=
201008020000 METAR MRPV NIL=
201008020100 METAR MRPV NIL=
201008020200 METAR MRPV NIL=
201008020300 METAR MRPV NIL=
201008020400 METAR MRPV NIL=
201008020500 METAR MRPV NIL=
201008020600 METAR MRPV NIL=
201008020700 METAR MRPV NIL=
201008020800 METAR MRPV NIL=
201008020900 METAR MRPV NIL=
201008021000 METAR MRPV NIL=
201008021100 METAR MRPV NIL=
201008021200 METAR MRPV 021200Z 00000KT CAVOK 19/18 A2994 RMK SCT200 BKN250=
201008021300 METAR MRPV 021300Z VRB02KT 9999 4000W -RA BR FEW002 BKN120 20/18 A2998 BECMG -RA BR=
201008021400 METAR MRPV 021400Z 00000KT 4000 -RA BR SCT002 BKN014 20/19 A2999 BECMG 5000=
201008021500 METAR MRPV 021500Z 26003KT 5000 -RA BR SCT002 BKN015 21/19 A3000 RMK COND VRBS NOSIG=
201008021600 METAR MRPV 021600Z 27005KT 6000 2000 -RA BR SCT002 BKN016 22/19 A2999 NOSIG=
201008021700 METAR MRPV 021700Z 26006KT 7000 -RA SCT004 BKN020 22/19 A2999 NOSIG=
201008021800 METAR MRPV 021800Z 27006KT 6000 2000N -RA BR SCT002 BKN016 22/19 A2997 RMK CND VRBS TEMPO 4000 BR BKN012=
201008021900 METAR MRPV 021900Z 28004KT 8000 SCT004 BKN020 23/19 A2994 HZY NOSIG=
201008022000 METAR MRPV 022000Z 27006KT 9999 FEW006 BKN030 24/19 A2992 NOSIG=
201008022100 METAR MRPV 022100Z 24006KT 9999 SCT004 BKN030 23/20 A2992 RMK BECMG 5000 -RA BR=
201008022200 METAR MRPV 022200Z 28006KT 9999 SCT004 BKN020 23/20 A2992 RMK BECMG 5000 -RA BR=
201008022300 METAR MRPV 022300Z 26004KT 8000 3000SW BR SCT002 BKN025 22/20 A2994 BECMG 5000 -RA BR=
201008030000 METAR MRPV 030000Z 27004KT 3000 BR SCT001 BKN012 21/20 A2995 NOSIG=
201008030100 METAR MRPV NIL=
201008030200 METAR MRPV NIL=
201008030300 METAR MRPV NIL=
201008030400 METAR MRPV NIL=
201008030500 METAR MRPV NIL=
201008030600 METAR MRPV NIL=
201008030700 METAR MRPV NIL=
201008030800 METAR MRPV NIL=
201008030900 METAR MRPV NIL=
201008031000 METAR MRPV NIL=
201008031100 METAR MRPV NIL=
201008031200 METAR MRPV 031200Z 11006KT 9999 FEW025 BKN120 21/18 A2999 NOSIG=
201008031300 METAR MRPV 031300Z 11005KT CAVOK 22/18 A2998 RMK BKN250 NOSIG=
201008031400 METAR MRPV 031400Z 09006KT CAVOK 24/18 A2999 RMK BKN250 NOSIG=
201008031500 METAR MRPV 031500Z 08008KT 9999 SCT030 BKN250 26/18 A3000 NOSIG=
201008031600 METAR MRPV 031600Z 07011KT 9999 SCT030 BKN250 27/18 A3001 NOSIG=
201008031700 METAR MRPV 031700Z 08010KT 9999 SCT020TCU SCT100 BKN250 26/19 A3000 TEMPO BKN015=
201008031800 METAR MRPV 031800Z 10007KT 9999 SCT025 BKN120 26/19 A2999 RMK TCU RA N NOSIG=
201008031900 METAR MRPV 031900Z 09009KT 9999 SCT030 BKN100 26/19 A2998 NOSIG=
201008032000 METAR MRPV 032000Z 09008KT 9999 SCT030 BKN100 26/19 A2996 NOSIG=
201008032100 METAR MRPV 032100Z 08011KT 9999 4000N BR FEW006 SCT020 OVC100 24/18 A2995 TEMPO 5000=
201008032200 METAR MRPV 032200Z 07004KT 9999 4000N FEW007 OVC100 25/18 A2994 NOSIG=
201008032300 METAR MRPV 032300Z 28004KT 3000 BR SCT002 OVC010 22/21 A2995 NOSIG=
201008040000 METAR MRPV 040000Z 28003KT 2000 BR SCT001 OVC006 22/21 A2996 NOSIG=
201008040100 METAR MRPV NIL=
201008040200 METAR MRPV NIL=
201008040300 METAR MRPV NIL=
201008040400 METAR MRPV NIL=
201008040500 METAR MRPV NIL=
201008040600 METAR MRPV NIL=
201008040700 METAR MRPV NIL=
201008040800 METAR MRPV NIL=
201008040900 METAR MRPV NIL=
201008041100 METAR MRPV NIL=
201008041200 METAR MRPV 041200Z 12006KT CAVOK 20/16 RMK SCT120 BKN250 CB DST SSW NOSIG=
201008041300 METAR MRPV 041300Z 12008KT CAVOK 21/16 A2997 RMK BKN250 CB DST S SW NOSIG=
201008041400 METAR MRPV 041400Z 12005KT CAVOK 24/17 A2998 RMK BKN250 CB DST SW NOSIG=
201008041500 METAR MRPV 041500Z 10006KT 9999 FEW030 BKN250 26/16 A2998 RMK CB DST SW NW NOSIG=
201008041600 METAR MRPV 041600Z 07002KT CAVOK 27/16 A2997 RMK BKN250 TEMPO 24004KT=
201008041700 METAR MRPV 041700Z 07012KT 9999 SCT040 BKN250 25/17 A2997 NOSIG=
201008041800 METAR MRPV 041800Z 05005KT 9999 FEW035 SCT100 BKN250 27/18 A2995 RMK TCU RA N NOSIG=
201008041900 METAR MRPV 041900Z 29008KT 9999 SCT020TCU BKN100 26/20 A2993 NOSIG=
201008042000 METAR MRPV 042000Z 29010KT 9999 SCT020 BKN100 25721 A2991 NOSIG=
201008042100 METAR MRPV 042100Z 28010KT 9999 FEW010 SCT020 BKN100 24/20 A2991 RMK VIS 6KM N DUE ST NOSIG=
201008042200 METAR MRPV 042200Z 30004KT 9999 4000SW BR FEW010 SCT020 OVC100 24/19 A2990 TEMPO 3000=
201008042300 METAR MRPV 042300Z 29004KT 8000 3000N FEW006 SCT015CB OVC100 23/21 A2992 TEMPO 3000=
201008050000 METAR MRPV NIL=
201008050100 METAR MRPV NIL=
201008050200 METAR MRPV NIL=
201008050300 METAR MRPV NIL=
201008050400 METAR MRPV NIL=
201008050500 METAR MRPV NIL=
201008050600 METAR MRPV NIL=
201008050700 METAR MRPV NIL=
201008050800 METAR MRPV NIL=
201008050900 METAR MRPV NIL=
201008051000 METAR MRPV NIL=
201008051100 METAR MRPV NIL=
201008051200 METAR MRPV 051200Z 10002KT CAVOK 20/17 A2995 RMK BKN250 HZY POLVO W NOSIG=
201008051201 METAR MRPV NIL=
201008051300 METAR MRPV 051300Z 09004KT CAVOK 21/18 A2995 RMK BKN250 DU W HZ LGT ARND NOSIG=
201008051400 METAR MRPV 051400Z 12002KT CAVOK 24/18 A2995 RMK BKN250 LGT HZ ARND TEMPO 24004KT=
201008051500 METAR MRPV 051500Z 08010KT 9999 FEW040 SCT250 26/18 A2996 NOSIG=
201008051600 METAR MRPV 051600Z 11004KT 9999 SCT035 28/17 A2997 RMK LGT HZ ARND NOSIG=
201008051700 METAR MRPV 051700Z 27009KT 9999 FEW020 SCT035 26/19 A2996 RMK TCU/RN DST N RN DST S NOSIG=
201008051800 METAR MRPV 051800Z 27010KT 9999 FEW020TCU SCT035 26/20 A2994 RMK TCU/RN DST N NOSIG=
201008051900 METAR MRPV 051900Z 27008KT 9999 TS SHRA FEW015CB SCT025 BKN100 24/14 A2992 TEMPO 5000=
201008052000 METAR MRPV 052000Z 27008KT 9000 4000SW SHRA FEW010 SCT015TCU BKN100 23/20 A2991 TEMPO 5000=
201008052100 METAR MRPV 052100Z 27008KT 2000 RA BR SCT002 BKN010 23/19 A2991 NOSIG=
201008052200 METAR MRPV 052200Z 00000KT 3000 TSRA SCT001 OVC008 20/19 A2994 NOSIG=
201008052300 METAR MRPV 052300Z 00000KT 3000 +RA BR SCT002 OVC010 20/19 A2995 NOSIG=
201008060000 METAR MRPV 060000Z 00000KT 3000 RA BR SCT001 OVC010 20/19 A2996 NOSIG=
201008060100 METAR MRPV NIL=
201008060200 METAR MRPV NIL=
201008060300 METAR MRPV NIL=
201008060400 METAR MRPV NIL=
201008060500 METAR MRPV NIL=
201008060600 METAR MRPV NIL=
201008060700 METAR MRPV NIL=
201008060800 METAR MRPV NIL=
201008060900 METAR MRPV NIL=
201008061000 METAR MRPV NIL=
201008061100 METAR MRPV NIL=
201008061200 METAR MRPV 061200Z 00000KT CAVOK 18/17 A2998 BKN250 CB DST SW POLVO APROX.09 NOSIG=
201008061300 METAR MRPV 061300Z 00000KT CAVOK 20/18 A3001 RMK BKN250 HZ W DU 09 NOSIG=
201008061400 METAR MRPV 061400Z 00000KT 9999 FEW005 BKN250 23/18 A3002 RMK HZ W DU 09 FEW120 BECMG 24004KT=
201008061500 METAR MRPV 061500Z 00000KT 9999 FEW008 BKN250 24/19 A3001 RMK FEW150 HZ W DU 09 TEMPO 24004KT=
201008061600 METAR MRPV 061600Z 00000KT 9999 FEW030 BKN250 26/19 A3001 TEMPO 24004KT=
201008061700 METAR MRPV 061700Z 28008KT 9999 FEW030 26/19 A3000 RMK FEW250 TCU DST W NW SE NOSIG=
201008061800 METAR MRPV 061800Z 28012KT 9999 FEW015TCU SCT030 26/20 A3000 RMK VL MX VTO 17KT TEMPO 8000 VCSH=
201008061900 METAR MRPV 061900Z 28010KT 9999 RA FEW007 FEW010TCU BKN030 24/21 A2998 RESH RMK VIS E NE 7000 TEMPO 5000 +RA BKN010=
201008062000 METAR MRPV 062000Z 28010KT 6000 RADZ FEW004 BKN015 23/21 A2997 TEMPO 4000 BR=
201008062100 METAR MRPV 062100Z 30006KT 6000 -DZ FEW006 BKN012 22/20 A2995 TEMPO 4000 BR=
201008062200 METAR MRPV 062200Z 29009KT 7000 FEW007 BKN020 23/20 A2993 RMK DST E SE VIS W UNLTD TEMPO BKN012=
201008062300 METAR MRPV 062300Z 29007KT 5000 -DZ BR VCTS FEW003 SCT010 BKN100 22/20 A2997 RMK TS N VIS W 4KMS TEMPO 4000 BR BKN010=
201008070000 METAR MRPV NIL=
201008070100 METAR MRPV NIL=
201008070200 METAR MRPV NIL=
201008070300 METAR MRPV NIL=
201008070400 METAR MRPV NIL=
201008070500 METAR MRPV NIL=
201008070600 METAR MRPV NIL=
201008070700 METAR MRPV NIL=
201008070800 METAR MRPV NIL=
201008070900 METAR MRPV NIL=
201008071000 METAR MRPV NIL=
201008071100 METAR MRPV NIL=
201008071200 METAR MRPV 071200Z 00000KT CAVOK 17/16 A3001 RMK BKN250 TCU DST SW NOSIG=
201008071300 METAR MRPV 071300Z 00000KT CAVOK 19/18 A3003 RMK BKN250 TCU DST SW NOSIG=
201008071400 METAR MRPV 071400Z 10002KT CAVOK 23/18 A3002 RMK BKN250 TEMPO 24004KT=
201008071500 METAR MRPV 071500Z 00000KT CAVOK 25/18 A3002 RMK BKN250 DUST NEAR APCH RNY 09 TEMPO 24007KT=
201008071600 METAR MRPV 071600Z 28005KT 9999 FEW040 BKN250 25/19 A3002 RMK DUST=
201008071700 METAR MRPV 071700Z 26004KT 9999 FEW020 SCT040 26/20 A3001 NOSIG=
201008071800 METAR MRPV 071800Z 26003KT 9999 FEW015 BKN030 23/19 A3000 RMK RN DST NW TEMPO 8000 SHRA=
201008071900 METAR MRPV 071900Z 29005KT 3500 -DZ BR SCT001 BKN005 23/21 A2999 RMK VIS E UNL NOSIG=
201008072000 METAR MRPV 072000Z 28004KT 4500 RA BR SCT003 BKN012 22/21 A2999 RMK SE UNLTD CONDNS VRBLS NOSIG=
201008072100 METAR MRPV 072100Z 00000KT 5000 -RA BR FEW003 SCT010 BKN015 21/20 A2997 RMK VIS S UNL VIS W 4KM=
201008072200 METAR MRPV 072200Z 00000KT 5000 -RA BR FEW003 BKN020 21/20 A2997 RMK VIS NW W 4KM VIS S UNL TEMPO 7000=
201008072300 METAR MRPV 072300Z 00000KT 4000 -RA BR SCT003 BKN012 21/20 A2998 NOSIG=
201008080000 METAR MRPV 080000Z 00000KT 4000 -RA BR SCT003 BKN015 21/20 A2999 RMK WET RWY NOSIG=
201008080100 METAR MRPV NIL=
201008080200 METAR MRPV NIL=
201008080300 METAR MRPV NIL=
201008080400 METAR MRPV NIL=
201008080500 METAR MRPV NIL=
201008080600 METAR MRPV NIL=
201008080700 METAR MRPV NIL=
201008080800 METAR MRPV NIL=
201008080900 METAR MRPV NIL=
201008081000 METAR MRPV NIL=
201008081100 METAR MRPV NIL=
201008081200 METAR MRPV 081200Z 00000KT 2000 BR VV002 19/19 A3001 RMK VIS E 4KM NOSIG=
201008081300 METAR MRPV 081300Z 00000KT 3500 BR SCT001 BKNOO8 20/19 A3003 TEMPO 5000=
201008081400 METAR MRPV 081400Z 00000KT 6000 SCT005 BKN018 21/20 A3004 RMK FG ARND TEMPO 24004KT 8000 VCFG=
201008081500 METAR MRPV 081500Z 00000KT 9999 VCFG FEW010 BKN250 23/19 A3004 RMK VIS QUAD W 8KM TEMPO 24004KT=
201008081600 METAR MRPV 081600Z 28002KT 9999 VCFG FEW030 26/20 A3002 RMK FEW130 FG W NOSIG=
201008081700 METAR MRPV 081700Z 27007KT 9999 FEW015TCU BKN030 25/21 A3000 RMK HZY ARND NOSIG=
201008081800 METAR MRPV 081800Z 27006KT 9999 FEW015TCU BKN030 25/21 A3000 RMK VIS N NE 8KM RA HZY ARND TEMPO 7000 SHRA=
201008081900 METAR MRPV 081900Z 28008KT 9999 RA SCT015TCU BKN030 25/20 A2997 RMK VIS N NE 8KM HZ TEMPO 5000 SHRA=
201008082000 METAR MRPV 082000Z 27007KT 5000 SHRA FEW006 FEW012CB BKN020 24/21 A2996 RMK VIS SE S UNL VIS W 4KM VEL.MAX.VTO 13KT TEMPO 3000 TSRA BKN010CB=
201008082100 METAR MRPV 082100Z 31006KT 2000 TSRA BKN005CB SCT008 21/20 A2996 NOSIG=
201008082200 METAR MRPV 082200Z 00000KT 3500 -RA BR SCT001 BKN010 19/19 A2997 RMK VIS E SE 5000 NOSIG=
201008082300 METAR MRPV 082300Z 00000KT 8000 VCFG FEW002 BKN100 20/19 A2997 RMK FEW020 VIS SW W 5000 TEMPO UNL=
201008090000 METAR MRPV NIL=
201008090100 METAR MRPV NIL=
201008090200 METAR MRPV NIL=
201008090300 METAR MRPV NIL=
201008090400 METAR MRPV NIL=
201008090500 METAR MRPV NIL=
201008090600 METAR MRPV NIL=
201008090700 METAR MRPV NIL=
201008090800 METAR MRPV NIL=
201008090900 METAR MRPV NIL=
201008091000 METAR MRPV NIL=
201008091100 METAR MRPV NIL=
201008091200 METAR MRPV 091200Z 00000KT CAVOK 19/18 A2998 RMK BKN100 OVC250 DUST W NOSIG=
201008091300 METAR MRPV 091300Z 00000KT CAVOK 20/19 A2998 RMK SCT100 BKN130 DU APROXIMACI ON 09 NOSIG=
201008091400 METAR MRPV 091400Z 11005KT CAVOK 22/18 A2998 RMK OVC120 DU AROXIMACION 09 NOSIG=
201008091500 METAR MRPV 091500Z 10009KT CAVOK 24/18 A3001 RMK SCT080 OVC130 NOSIG=
201008091600 METAR MRPV 091600Z 07010KT 9999 FEW040 SCT100 BKN250 24/18 A3002 NOSIG=
201008091700 METAR MRPV 091700Z 10008KT 9999 SCT035 OVC100 25/18 A3001 NOSIG=
201008091800 METAR MRPV 091800Z 11004KT 9999 SCT030 BKN120 26/18 A2999 TEMPO 24006KT=
201008091900 METAR MRPV 091900Z 12003KT 9999 FEW035 SCT100 BKN250 27/18 A2996 TEMPO 24004 KT=
201008092000 METAR MRPV 092000Z 28010KT 9999 SCT030 BKN120 26/21 A2993 NOSIG=
201008092100 METAR MRPV 092100Z 27009KT 9999 SH SCT020 BKN120 26/21 A2993 RKM VIS 6KM N NOSIG=
201008092200 METAR MRPV 092200Z 27003KT 7000 3000N RA BR SCT004 BKN015 23/21 A2993 NOSIG=
201008092300 METAR MRPV 092300Z 29006KT 2000 BR SCT001 BKN007 22/22 A2994 NOSIG=
201008100000 METAR MRPV NIL=
201008100100 METAR MRPV NIL=
201008100200 METAR MRPV NIL=
201008100300 METAR MRPV NIL=
201008100400 METAR MRPV NIL=
201008100500 METAR MRPV NIL=
201008100600 METAR MRPV NIL=
201008100700 METAR MRPV NIL=
201008100800 METAR MRPV NIL=
201008100900 METAR MRPV NIL=
201008101000 METAR MRPV NIL=
201008101100 METAR MRPV NIL=
201008101200 METAR MRPV 101200Z 30003KT 9999 FEW020 BKN250 21/20 A2999 RMK POLVO.CABECERA.RWY09 NOSIG=
201008101300 METAR MRPV 101300Z 00000KT 9999 FEW020 BKN250 24/19 A2999 RMK CB DST=
201008101400 METAR MRPV 101400Z 00000KT 9999 4000SW BR FEW020 BKN250 25/19 A3000 RMK DU/HZ W NOSIG=
201008101500 METAR MRPV 101500Z 00000KT 9999 FEW020 BKN250 26/19 A3000 RMK HZ W NOSIG=
201008101600 METAR MRPV 101600Z 30009KT 9999 SCT030 BKN250 26/21 A2999 RMK HZ ARND NOSIG=
201008101700 METAR MRPV 101700Z 28008KT 9999 FEW020 SCT035 26/21 A2998 RMK TCU DST=
201008101800 METAR MRPV 101800Z 29009KT 9999 4000N SHRA SCT008CB BKN030 26/21 A2998 TEMPO 5000=
201008101900 METAR MRPV 101900Z 28009KT 3000 TS SHRA SCT006CB BKN015 23/21 A2996 RMK VIS 6KM W TEMPO 2000=
201008102000 METAR MRPV 102000Z 00000KT 9999 4000N RABR SCT008 BKN020 21/19 A2987 NOSIG=
201008102100 METAR MRPV 102100Z 00000KT 9999 FEW030 SCT100 BKN250 21/19 A2995 RERA RMK SH DST NW W NOSIG=
201008102200 METAR MRPV 102200Z 00000KT 9999 SCT030 BKN250 23/20 A2993 NOSIG=
201008102300 METAR MRPV 102300Z 00000KT 9999 SCT020 BKN250 22/20 A2995 NOSIG=
201008110000 METAR MRPV 110000Z 00000KT 7000 3000SW BR FEW007 SCT020 BKN250 22/20 A2997 NOSIG=
201008110100 METAR MRPV NIL=
201008110200 METAR MRPV NIL=
201008110300 METAR MRPV NIL=
201008110400 METAR MRPV NIL=
201008110500 METAR MRPV NIL=
201008110600 METAR MRPV NIL=
201008110700 METAR MRPV NIL=
201008110800 METAR MRPV NIL=
201008110900 METAR MRPV NIL=
201008111000 METAR MRPV NIL=
201008111100 METAR MRPV NIL=
201008111200 METAR MRPV 111200Z 00000KT 2000 BR SCT002 OVC100 19/19 A3000 TEMPO 5000=
201008111300 METAR MRPV 111300Z 00000KT 3000 BR SCT002 OVC010 20/19 A3002 TEMPO 5000=
201008111400 METAR MRPV 111400Z 00000KT 6000 SCT006 BKN020 21/19 A3004 RMK ST ARND TEMPO UNL=
201008111500 METAR MRPV 111500Z 00000KT 6000 SCT005 BKN015 22/19 A3005 NOSIG=
201008111600 METAR MRPV 111600Z 26007KT 7000 SH SCT006TCU BKN020 22/19 A3004 RMK CB SH N NE E SE TEMPO 5000=
201008111700 METAR MRPV 111700Z 26003KT 9000 SCT007 BKN020 23/20 A3002 NOSIG=
201008111800 METAR MRPV 111800Z 26002KT 8000 VCSH SCT009 BKN020 25/20 A3001 NOSIG=
201008111900 METAR MRPV 111900Z 27004KT 9999 4000W SCT010 BKN020 25/19 A2998 RMK SH W TEMPO 5000=
201008112000 METAR MRPV 112000Z 27004KT 9999 4000N SH SCT010 BKN020 25/19 A2998 TEMPO 3000=
201008112100 METAR MRPV 112100Z 00000KT 5000 RA BR SCT006 BKN015 21/20 A2997 NOSIG=
201008112200 METAR MRPV 112200Z 28003KT 9000 3000S BR SCT006 BKN015 20/18 A2998=
201008112300 METAR MRPV 222300Z 31003KT 9000 3000S BR FEW003 SCT006 BKN015 19/18 A3000 NOSIG=
201008112345 METAR MRPV 112345Z 33004KT 4000 BR SCT003 BKN008 20/18 A3001 NOSIG=
201008120000 METAR MRPV NIL=
201008120100 METAR MRPV NIL=
201008120200 METAR MRPV NIL=
201008120300 METAR MRPV NIL=
201008120400 METAR MRPV NIL=
201008120500 METAR MRPV NIL=
201008120600 METAR MRPV NIL=
201008120700 METAR MRPV NIL=
201008120800 METAR MRPV NIL=
201008120900 METAR MRPV NIL=
201008121000 METAR MRPV NIL=
201008121100 METAR MRPV NIL=
201008121200 METAR MRPV 121200Z 00000KT 9999 1000W BR SCT120 BKN250 19/18 A3001 TEMPO 4000 BR=
201008121300 METAR MRPV 121300Z 00000KT CAVOK 20/19 A3001 RMK FEW130 BKN250 LGT HZ ARND DUST IN APCH RNY09 NOSIG=
201008121400 METAR MRPV 121400Z 12002KT 9999 FEW003 BKN250 24/18 A3002 RMK FEW130 DUST APCH RNY 09 VIS W 5KMS TEMPO 24004KT=
201008121500 METAR MRPV 121500Z 07008KT 9999 FEW010 SCT120 25/18 A3002 RMK SCT250 VIS W 7KMS DUE HZ AND FG HZY DUST RNY 09 TEMPO 24004KT=
201008121600 METAR MRPV 121600Z 20005KT 9999 FEW040 BKN120 24/20 A3002 RMK TCU DST E LGT HZ ARND VIS W 7KMS DUE HZ FG NOSIG=
201008121700 METAR MRPV 121700Z 28003KT 9999 FEW040 BKN120 25/20 A3002 VIS W N 7KMS HUE HZ HZY NOSIG=
201008121800 METAR MRPV 121800Z 28008KT 9999 FEW020TCU BKN035 25/20 A3000 RMK VIS N 6KMS DUE HZ LGT HZ ARND TEMPO 8000 VCSH=
201008121900 METAR MRPV 121900Z 27006KT 9999 VCSH SCT015TCU BKN030 23/21 A2999 RMK VIS NNE 8KMS VIS W NW N 7KMS DUE HZ TEMPO 5000 SHRA BKN015TCU=
201008122000 METAR MRPV 122000Z 17002KT 9999 SH VCTS FEW006CB BKN020 20/19 A2997 RMK VIS SW W NW 6KMS TS S NOSIG=
201008122100 METAR MRPV 122100Z 00000KT 5000 BR FEW003 BKN100 21/20 A2996 RMK VIS SW W 4000 VIS E SE S UNL TEMPO 3000 BR BKN010=
201008122200 METAR MRPV 122200Z 27002KT 5000 BR FEW003 FEW010TCU BKN100 22/21 A2994 RMK VIS SW W NW 4000 VIS SE UNL TEMPO 4000 RA BR BKN010=
201008122300 METAR MRPV 122300Z 00000KT 6000 BCFG FEW003 BKN100 22/21 A2995 RMK VIS E SE S UNL VIS SW W NW 4000 FEW025 TEMPO 4000 BR=
201008130000 METAR MRPV 130000Z 28002KT 4000 BR SCT001 BKN006 22/21 A2997 RMK VIS E 5KM TEMPO RA=
201008130001 METAR MRPV NIL=
201008130100 METAR MRPV NIL=
201008130200 METAR MRPV NIL=
201008130300 METAR MRPV NIL=
201008130400 METAR MRPV NIL=
201008130500 METAR MRPV NIL=
201008130600 METAR MRPV NIL=
201008130700 METAR MRPV NIL=
201008130800 METAR MRPV NIL=
201008130900 METAR MRPV NIL=
201008131000 METAR MRPV NIL=
201008131100 METAR MRPV NIL=
201008131200 METAR MRPV 131200Z 00000KT 999 FEW030 BKN100 20/19 A2998 RMK DU 09 PISTA HUM NOSIG=
201008131300 METAR MRPV 131300Z 00000KT 9999 SCT030 BKN100 20/19 A3001 RMK POLVO.APROX.RWY09 TEMPO -RA=
201008131400 METAR MRPV 131400Z 00000KT 9999 FEW030 SCT080 BKN100 22/19 A3002 RMK POLVO.APROX.RWY09 TEMPO -RA=
201008131500 METAR MRPV 131500Z 00000KT 9999 FEW005 BKN100 23/18 A3003 RMK FEW035 VIS W 7KM FG TEMPO 24004KT -RA=
201008131600 METAR MRPV 131600Z 27004KT 8000 DZ VCFG SCT030 BKN100 23/20 A3003 RMK HZ ARND TEMPO 5000 -RA=
201008131700 METAR MRPV 131700Z 28002KT 7000 -RA SCT030 BKN100 23/20 A3002 RMK VIS SE S UNL HZ FG ARND TEMPO 5000 BR=
201008131800 METAR MRPV 131800Z 00000KT 7000 -RA FEW008 SCT020 BKN100 23/19 A3001 RMK TCU DST SW VIS SE S UNL TEMPO 5000 BR BKN010=
201008131900 METAR MRPV 131900Z 09009KT 9999 -RADZ SCT030 BKN100 21/19 A2999 RMK VIS NE 6KM W NW 7KM FG MAX.WIND.SPEED 13KT NOSIG=
201008132000 METAR MRPV 132000Z 07005KT 9999 FEW010 BKN120 24/19 A2997 RMK FEW035 RA DST N E VIS W 7KM FG NOSIG=
201008132100 METAR MRPV NIL=
201008132200 METAR MRPV 132200Z 00000KT 9999 VCFG FEW008 BKN120 25/18 A2993 RMK VIS SW W NW N 8KMS FEW040 NOSIG=
201008132300 METAR MRPV 132300Z 28006KT 3500 -DZ BR SCT002 BKN006 22/20 A2994 RMK VIS E SE UNL NOSIG=
201008140000 METAR MRPV NIL=
201008140100 METAR MRPV NIL=
201008140200 METAR MRPV NIL=
201008140300 METAR MRPV NIL=
201008140400 METAR MRPV NIL=
201008140500 METAR MRPV NIL=
201008140600 METAR MRPV NIL=
201008140700 METAR MRPV NIL=
201008140800 METAR MRPV NIL=
201008140900 METAR MRPV NIL=
201008141000 METAR MRPV NIL=
201008141100 METAR MRPV NIL=
201008141200 METAR MRPV 141200Z 00000KT 9999 VCFG FEW130 SCT250 18/17 A3000 RMK VIS W 8KMS DUST APCH RNY09 NOSIG=
201008141300 METAR MRPV 141300Z 00000KT 9999 4000W HZ FEW120 SCT250 20/18 A3001 RMK DU APROXIMACION 09 NOSIG=
201008141400 METAR MRPV 141400Z 00000KT 9999 FEW008 21/18 A3002 RMK VIS SW W NW 6KMS DUE HZ FG FEW150 FEW280 TEMPO 24004KT=
201008141500 METAR MRPV 141500Z 28004KT 6000 FEW008 23/19 A3003 RMK FEW015 VIS SE S SW UNL HZ FG ARND TEMPO 5000 BR=
201008141600 METAR MRPV 141600Z 29006KT 9999 FEW008 SCT020 24/19 A3004 RMK VIS N NE E 7KMS DUE HZ NOSIG=
201008141700 METAR MRPV 141700Z 28007KT 9999 FEW010 SCT025 25/20 A3003 RMK VIS N NE E 8KMS DUE HZ GUST 12KT NOSIG=
201008141800 METAR MRPV 141800Z 27008KT 9999 SCT025 25720 A3003 RMK VIS NE E 8KMS DUE HZ NOSIG=
201008141900 METAR MRPV 141900Z 26006KT 9999 BKN025 24/19 A3001 TEMPO 8000 VCSH=
201008142000 METAR MRPV 142000Z 27009KT 9999 FEW015 BKN025 24/19 A300 RMK VIS NE E 8KMS DUE RA TEMPO 6KMS SHRA=
201008142100 METAR MRPV 142100Z 29007KT 9999 SHRA VCTS FEW010CB SCT025 BKN100 23/19 A2999 RMK VIS NE/E 7KM TS NE TEMPO 5000 TSRA SCT010CB=
201008142200 METAR MRPV 142200Z 28006KT 9999 VCSH FEW010TCU SCT025 BKN100 23/20 A2998 RESHRA RMK VIS N/E 8KM TEMPO 5000 SHRA=
201008142300 METAR MRPV 142300Z 28004KT 6000 RA FEW006 SCT100 23/20 A3001 RMK VIS SE/S/SW UNLD FEW015 FG ARND TEMPO 5000 BR=
201008142345 METAR MRPV 142345Z 28004KT 5000 RA VCSH FEW006TCU SCT020 BKN100 22/20 A3001 RMK VIS SE/S UNLD -SH N/NE/NW NOSIG=
201008150000 METAR MRPV NIL=
201008150100 METAR MRPV NIL=
201008150200 METAR MRPV NIL=
201008150300 METAR MRPV NIL=
201008150400 METAR MRPV NIL=
201008150500 METAR MRPV NIL=
201008150600 METAR MRPV NIL=
201008150700 METAR MRPV NIL=
201008150800 METAR MRPV NIL=
201008150900 METAR MRPV NIL=
201008151000 METAR MRPV NIL=
201008151100 METAR MRPV NIL=
201008151200 METAR MRPV 151200Z 00000KT 6000 BCFG FEW005 BKN150 18/18 A3006 RMK HZ W CB DST N NOSIG=
201008151300 METAR MRPV 151300Z 00000KT CAVOK 20/18 A3007 RMK SCT250 NOSIG=
201008151400 METAR MRPV 151400Z 00000KT CAVOK 23/18 A3007 RMK SCT250 NOSIG=
201008151500 METAR MRPV 151500Z 30003KT CAVOK 24/19 A3007 RMK SCT250 NOSIG=
201008151600 METAR MRPV 151600Z 29005KT 9999 SCT030 SCT250 25/20 A3006 NOSIG=
201008151700 METAR MRPV 151700Z 28007KT 9999 SH BKN030 26/20 A3005 RMK TCU/RN DST E NOSIG=
201008151800 METAR MRPV 151800Z 26006KT 6000 SHRA FEW010CB SCT020 BKN100 26/21 A3004 TEMPO 4000=
201008151900 METAR MRPV 151900Z 19002KT 3000 TS SHRA SCT007CB BKN015 22/20 A3002 RMK TEMPO 5000=
201008152000 METAR MRPV 152000Z 28006KT 4000 TS RA BR SCT002 SCT006CB BKN012 23/21 A3000 TEMPO 2000=
201008152100 METAR MRPV 152100Z 30004KT 2000 RA BR SCT002 BKN010 21/20 A2998 NOSIG=
201008152200 METAR MRPV 152200Z 00000KT 2000 TS SHRA SCT001 BKN007 22/20 A2997 NOSIG=
201008152300 METAR MRPV 152300Z 00000KT 3000 RA BR SCT003 BKN012 21/20 A2999 TEMPO 6000=
201008160000 METAR MRPV 160000Z 00000KT 2000 RA BR SCT001 BKN006 21/20 A3000 NOSIG=
201008160100 METAR MRPV NIL=
201008160200 METAR MRPV NIL=
201008160300 METAR MRPV NIL=
201008160400 METAR MRPV NIL=
201008160500 METAR MRPV NIL=
201008160600 METAR MRPV NIL=
201008160700 METAR MRPV NIL=
201008160800 METAR MRPV NIL=
201008160900 METAR MRPV NIL=
201008161000 METAR MRPV NIL=
201008161100 METAR MRPV NIL=
201008161200 METAR MRPV 161200Z 00000KT CAVOK 18/17 A3001 RMK SCT120 BKN250 CB DST SW W DU 09 NOSIG=
201008161300 METAR MRPV 161300Z 00000KT CAVOK 19/17 A3002 BKN250 CB DST SW DU APROXIMACION 09 NOSIG=
201008161400 METAR MRPV 161400Z 13003KT CAVOK 23/18 A3002 RMK BKN250 NOSIG=
201008161500 METAR MRPV 161500Z 10005KT 9999 FEW030 SCT140 BKN250 25/18 A3005 NOSIG=
201008161600 METAR MRPV 161600Z 09010KT 9999 VCSH SCT030 BKN120 25/18 A3004 RMK TCU RA DST E NOSIG=
201008161700 METAR MRPV 161700Z 13003KT 9999 FEW010 SCT020 BKN120 23/18 A3004 NOSIG=
201008161800 METAR MRPV 161800Z 11010KT 9999 3000SW SHRA SCT010TCU BKN100 22/17 A3005 TEMPO 5000=
201008161900 METAR MRPV 161900Z 11008KT 9999 SCT035 BKN120 22/16 A3002 RERA NOSIG=
201008162000 METAR MRPV 162000Z 10006KT 9999 SCT040 BKN120 22/16 A2999 NOSIG=
201008162100 METAR MRPV 162100Z 13004KT CAVOK 24/15 A2996 RMK OVC120 NOSIG=
201008162200 METAR MRPV 162200Z 00000KT CAVOK 25/15 A2996 RMK SCT100 OVC130 NOSIG=
201008162300 METAR MRPV 162300Z 28005KT 9999 FEW030 SCT100 OVC130 22/19 A2999 NOSIG=
201008170000 METAR MRPV NIL=
201008170100 METAR MRPV NIL=
201008170200 METAR MRPV NIL=
201008170300 METAR MRPV NIL=
201008170400 METAR MRPV NIL=
201008170500 METAR MRPV NIL=
201008170600 METAR MRPV NIL=
201008170700 METAR MRPV NIL=
201008170800 METAR MRPV NIL=
201008170900 METAR MRPV NIL=
201008171000 METAR MRPV NIL=
201008171100 METAR MRPV NIL=
201008171200 METAR MRPV 171200Z 00000KT 4000 BR SCT003 BKN015 18/17 A3000 RMK DU NR APCH 09 TEMPO 5000=
201008171300 METAR MRPV NIL=
201008171400 METAR MRPV 171400Z 00000KT 9999 FEW015 SCT035 BKN120 21/18 A3006 NOSIG=
201008171500 METAR MRPV 171500Z 00000KT 9999 FEW020 SCT035 BKN120 22/18 A3007 NOSIG=
201008171600 METAR MRPV 171600Z 00000KT 9999 SCT030 25/18 A3005 NOSIG=
201008171700 METAR MRPV 171700Z 30002KT 9999 SCT030 BKN100 26/18 A3002 NOSIG=
201008171800 METAR MRPV 171800Z 30005KT 9999 SCT025 BKN100 26/19 A3002 RMK CB DST SE S NOSIG=
201008171900 METAR MRPV 171900Z 00000KT 9999 SCT020 BKN100 25/19 A2999 NOSIG=
201008172000 METAR MRPV 172000Z 27006KT 9999 VCSH SCT020TCU BKN100 24/20 A2998 CB RASH N NE NOSIG=
201008172100 METAR MRPV 172100Z 27009KT 9999 SHRA SCT006CB SCT015 BKN100 24/20 A2996 RMK VIS 6KM N NE E CB SH NOSIG=
201008172200 METAR MRPV 172200Z 25008KT 7000 SHRA SCT003 SCT006CB BKN100 22/18 A2999 TEMPO 5000=
201008172300 METAR MRPV 172300Z 34004KT 4000 RA BR SCT002 BKN010 20/19 A3001 TEMPO 2000=
201008180000 METAR MRPV 180000Z 31003KT 4000 RA BR SCT001 BKN006 20/19 A3004 RMK VIS NW N 8KM NOSIG=
201008180100 METAR MRPV NIL=
201008180200 METAR MRPV NIL=
201008180300 METAR MRPV NIL=
201008180400 METAR MRPV NIL=
201008180500 METAR MRPV NIL=
201008180600 METAR MRPV NIL=
201008180700 METAR MRPV NIL=
201008180800 METAR MRPV NIL=
201008180900 METAR MRPV NIL=
201008181000 METAR MRPV NIL=
201008181100 METAR MRPV NIL=
201008181200 METAR MRPV 181200Z 00000KT 6000 BKN010 19/18 A3000 RMK VIS W 4000 ST HZ ARND TEMPO 8000=
201008181300 METAR MRPV 181300Z 00000KT 9999 BR FEW006 SCT120 19/18 A3008 RMK VIS SW W 5KM TEMPO 24004KT=
201008181400 METAR MRPV 181400Z 00000KT CAVOK 22/17 A3009 RMK SCT120 SCT250 HZ QUAD W DUST.NEAR.RWY09 TEMPO 24004KT=
201008181500 METAR MRPV 181500Z 00000KT CAVOK 22/18 A3009 RMK BKN120 SCT250 DUST.NEAR.RWY09 TEMPO 24004KT=
201008181600 METAR MRPV 181600Z 00000KT CAVOK 24/17 A3009 RMK FEW120 BKN250 DUST.NEAR.RWY09 TEMPO 24004KT=
201008181700 METAR MRPV 181700Z 00000KT 9999 FEW040 BKN250 26/15 A3008 RMK HUMO E DUST.NEAR.RWY09 TEMPO 24004KT=
201008181800 METAR MRPV 181800Z 27004KT 9999 FEW040 BKN250 26/15 A3006 RMK DUST.NEAR.RWY09 TCU DST WNW NOSIG=
201008181900 METAR MRPV 181900Z 28008KT 9999 FEW025TCU FEW040 SCT250 26/17 A3002 RMK HZ QUAD W DUST.NEAR.RWY09 TEMPO 8000 VCSH=
201008182000 METAR MRPV 182000Z 27008KT 9999 FEW020TCU FEW035 SCT250 26/20 A2999 RMK HZ QUAD N MAX.WND.SPD 14KT TEMPO 7000 SHRA=
201008182100 METAR MRPV 182100Z 28010KT 9999 VCSH FEW015TCU FEW030 SCT250 24/20 A2998 RMK CB RASH NW TEMPO 7000 SHRA=
201008182200 METAR MRPV 182200Z 27008KT 9999 SHRA FEW007 FEW010CB SCT015TCU 23/20 A2999 RMK VIS N 6KMS GUST 13KT TEMPO 5000 TSRA=
201008182300 METAR MRPV 182300Z 30005KT 8000 SHRA FEW008CB FEW012TCU BKN100 22/19 A3000 RMK VIS N 5KMS VIS SE S SW UNL TEMPO 5KMS=
201008190000 METAR MRPV NIL=
201008190100 METAR MRPV NIL=
201008190200 METAR MRPV NIL=
201008190300 METAR MRPV NIL=
201008190400 METAR MRPV NIL=
201008190500 METAR MRPV NIL=
201008190600 METAR MRPV NIL=
201008190700 METAR MRPV NIL=
201008190800 METAR MRPV NIL=
201008190900 METAR MRPV NIL=
201008191000 METAR MRPV NIL=
201008191100 METAR MRPV NIL=
201008191200 METAR MRPV 191200Z 00000KT 5000 BR FEW001 SCT120 BKN250 18/17 A3000 RMK VIS S SW UNL THIN FG BANK ARND TEMPO 8000=
201008191300 METAR MRPV 191300Z 00000KT 9999 4000W BR SCT120 SCT250 19/18 A3001 RMK HZ ARND DU APROXIMACION 09 TEMPO 24004KT=
201008191400 METAR MRPV 191400Z 00000KT 9999 FEW003 BKN120 22/17 A3002 RMK VIS W 6KMS DUE FG DU APROXIMACION 09 HZ ARND TEMPO 24004KT=
201008191500 METAR MRPV 191500Z 27002KT 9999 4000W BR BKN120 24/18 A3003 RMK HZ ARND TEMP O 8KMS VCFG=
201008191600 METAR MRPV 191600Z 27003KT 9000 BKN120 23/19 RMK VIS W 6KMS HZ ARND TEMPO 6KMS=
201008191700 METAR MRPV 191700Z 28005KT 9999 FEW040 SCT120 25718 A302 RMK SCT250 VIS W 7KMS DUE HZ NOSIG=
201008191800 METAR MRPV 191800Z 29006KT 9999 FEW040 BKN250 26/18 A2999 RMK CB DST NE NW TCU DST S VIS NW N NE 7KMS DUE HZ GUST 11KT TEMPO 6000=
201008191900 METAR MRPV 191900Z 29008KT 7000 FEW020TCU FEW030 BKN250 26/20 A2996 RMK VIS S UNL HZ ARND GUST 14KT TEMPO 5000 SHRA=
201008192000 METAR MRPV 192000Z 27007KT 7000 FEW015TCU BKN250 24/21 A2993 RMK HZ ARND TEMPO 5000 SHRA=
201008192100 METAR MRPV 192100Z 26007KT 6000 VCSH FEW010CB SCT020TCU SCT250 25/20 A2991 RMK HZ ARND SH DST 10KM N VEL MAX VTO 13KT VIS SE/S=
201008192200 METAR MRPV 192200Z 28008KT 4000 SHRA VCTS FEW002 FEW008CB BKN010 23/21 A2991 RMK VIS SE 6KM TS NW TEMPO 2000 TSRA BKN010CB=
201008192300 METAR MRPV 192300Z 27011KT 3000 RA BR SCT001 BKN007 21/20 A2995 RESHRA RMK VEL MAX VTO 16KT NOSIG=
201008200000 METAR MRPV NIL=
201008200100 METAR MRPV NIL=
201008200200 METAR MRPV NIL=
201008200300 METAR MRPV NIL=
201008200400 METAR MRPV NIL=
201008200500 METAR MRPV NIL=
201008200600 METAR MRPV NIL=
201008200700 METAR MRPV NIL=
201008200800 METAR MRPV NIL=
201008200900 METAR MRPV NIL=
201008201000 METAR MRPV NIL=
201008201100 METAR MRPV NIL=
201008201200 METAR MRPV 201200Z 00000KT 9999 3000SW BR OVC100 19/17 A2996 RMK DUST.NEAR.RWY09 TEMPO 5000 BR=
201008201300 METAR MRPV 201300Z 00000KT 9999 4000NE BR OVC100 19/18 A2998 RMK DU NR APCH 09 LGT HZ ARND TEMPO 24004KT=
201008201400 METAR MRPV 201400Z 11002KT CAVOK 22/17 A2997 RMK DU NR APCH 09 SCT100 BKN250 TEMPO 24004KT=
201008201500 METAR MRPV 201500Z 09006KT CAVOK 24/17 A2996 RMK DU NR APCH RWY09 FEW120 BKN250 NOSIG=
201008201600 METAR MRPV 201600Z 00000KT CAVOK 26/17 A2997 RMK DU NR APCH RWY09 BKN120 TEMPO 24005KT=
201008201700 METAR MRPV 201700Z 29011KT 9999 FEW040 BKN120 24/19 A2999 RMK DU NR APCH RWY09 LGT HZ ARND=
201008201800 METAR MRPV 201800Z 29012KT 9999 VCSH FEW010CB FEW030TCU SCT100 25/19 A2996 RMK DU NR APCH RWY09 VIS QUAD N 8KM VEL MAX VTO 17KT TEMPO 5000 SHRA VCTS=
201008201900 METAR MRPV 201900Z 32005KT 4500 SHRA FEW007 FEW010CB FEW015TCU BKN100 22/19 A2994 RMK WT RWY NOSIG=
201008202000 METAR MRPV 202000Z 30005KT 5000 SHRA SCT007 FEW010CB BKN015 23/20 23/20 A2992 RMK VIS W 4KM TEMPO 3000 BR BKN010=
201008202100 METAR MRPV 202100Z 31003KT 4000 SHRA SCT002 BKN008 21/20 A2991 RMK VIS W 5000 NOSIG=
201008202200 METAR MRPV 202200Z 00000KT 3000 RA BR VCTS SCT001 BKN005 20/20 A2991 RMK OCACIONAL TS S NOSIG=
201008202300 METAR MRPV 202300Z 00000KT 1500 +RA VV002 19/18 A2999 NOSIG=
201008210000 METAR MRPV 210000Z 10003KT 3000 +RA BR SCT001 BKN007 19/18 A2996 NOSIG=
201008210100 METAR MRPV NIL=
201008210200 METAR MRPV NIL=
201008210300 METAR MRPV NIL=
201008210400 METAR MRPV NIL=
201008210500 METAR MRPV NIL=
201008210600 METAR MRPV NIL=
201008210700 METAR MRPV NIL=
201008210800 METAR MRPV NIL=
201008210900 METAR MRPV NIL=
201008211000 METAR MRPV NIL=
201008211100 METAR MRPV NIL=
201008211200 METAR MRPV 211200Z 00000KT CAVOK 18/18 A2997 RMK SCT120 BKN250 DU APROXIMACI ON 09 NOSIG=
201008211300 METAR MRPV 211300Z 11005KT CAVOK 20/17 A2999 RMK SCT120 BKN250 NOSIG=
201008211400 METAR MRPV 211400Z 10005KT CAVOK 22/17 A3003 RMK SCT250 NOSIG=
201008211500 METAR MRPV 211500Z 00000KT 9999 FEW025 SCT250 25/17 A3001 NOSIG=
201008211600 METAR MRPV 211600Z 28008KT 9999 SCT030 SCT150 24/19 A3002 NOSIG=
201008211700 METAR MRPV 211700Z 28008KT 9999 SCT025 BKN120 24/19 A3001 NOSIG=
201008211800 METAR MRPV 211800Z 28010KT 9999 SCT020TCU BKN100 25/19 A2998 RMK TEMPO BKN020=
201008211900 METAR MRPV 211900Z 28009KT 9999 SH SCT020 BKN100 24/20 A2996 RMK CB RASH E VIS 7000 TEMPO 5000=
201008212000 METAR MRPV 212000Z 28013KT 9999 4000S SHRA FEW006TCU SCT015 BKN100 24/20 A2994 TEMPO 3000=
201008212100 METAR MRPV 212100Z 27006KT 5000 BR SCT002 BKN015 22/20 A2994 RERA TEMPO 7000=
201008212200 METAR MRPV 212200Z 27006KT 6000 SHRA SCT004 BKN020 22/20 A2994 RMK VIS W NW UNLTD NOSIG=
201008212300 METAR MRPV 212300Z 29006KT 7000 3000S BR SCT006 BKN020 22/19 A2995 NOSIG=
201008220000 METAR MRPV NIL=
201008220100 METAR MRPV NIL=
201008220200 METAR MRPV NIL=
201008220300 METAR MRPV NIL=
201008220400 METAR MRPV NIL=
201008220500 METAR MRPV NIL=
201008220600 METAR MRPV NIL=
201008220700 METAR MRPV NIL=
201008220800 METAR MRPV NIL=
201008220900 METAR MRPV NIL=
201008221000 METAR MRPV NIL=
201008221100 METAR MRPV NIL=
201008221200 METAR MRPV 221200Z 00000KT CAVOK 19/18 A3001 RMK BKN120 NOSIG=
201008221300 METAR MRPV 221300Z 00000KT CAVOK 21/18 A3004 RMK BKN120 NOSIG=
201008221400 METAR MRPV 221400Z 00000KT CAVOK 22/18 A3005 BKN120 TEMPO 24004KT=
201008221500 METAR MRPV 221500Z 28002KT 9999 FEW030 BKN120 24/19 A3005 NOSIG ACTIVITY ASH E DUE VOLCANO TURRIALBA=
201008221600 METAR MRPV 221600Z 29003KT 9999 SCT025 BKN100 24/18 A3005 NOSIG=
201008221700 METAR MRPV 221700Z 30004KT 9999 SCT025 BKN100 25/19 A3003 NOSIG=
201008221800 METAR MRPV 221800Z 25004KT 9999 SH SCT020 BKN100 25/19 A3001 CB SH SE VIS 7KMS NOSIG=
201008221900 METAR MRPV 221900Z 26003KT 9999 VCSH SCT020 BKN100 26/18 A2998 RMK SH DST E NOSIG=
201008222000 METAR MRPV 222000Z 25006KT 9999 3000S SHRA FEW006 SCT010TCU BKN100 24/19 A2997 TEMPO 4000=
201008222100 METAR MRPV 222100Z 13003KT 9999 4000S RA BR SCT010 OVC100 22/19 A2997 NOSIG=
201008222200 METAR MRPV 222200Z 00000KT 9000 3000N TS SHRA SCT003 SCT008CB OVC100 22/20 A2997 TEMPO 3000=
201008222300 METAR MRPV 222300Z 00000KT 7000 RA BR SCT010 OVC100 20/19 A2999 RMK ST N NE VIS 5KM NOSIG=
201008230000 METAR MRPV 230000Z 00000KT 9999 RA SCT020 OVC100 20/19 A3000 NOSIG=
201008230100 METAR MRPV NIL=
201008230200 METAR MRPV NIL=
201008230300 METAR MRPV NIL=
201008230400 METAR MRPV NIL=
201008230500 METAR MRPV NIL=
201008230600 METAR MRPV NIL=
201008230700 METAR MRPV NIL=
201008230800 METAR MRPV NIL=
201008230900 METAR MRPV NIL=
201008231000 METAR MRPV NIL=
201008231100 METAR MRPV NIL=
201008231200 METAR MRPV 231200Z 11005KT CAVOK 20/16 A3002 RMK SCT120 BKN250 CB DST N NE E NOSIG=
201008231300 METAR MRPV 231300Z 12006KT CAVOK 22/17 A3003 RMK SCT120 BKN250 CB DST NE N NOSIG=
201008231400 METAR MRPV 231400Z 13007KT CAVOK 23/17 A3003 RMK BKN250 NOSIG=
201008231500 METAR MRPV 231500Z 13006KT CAVOK 25/17 A3003 RMK BKN250 NOSIG=
201008231600 METAR MRPV 231600Z 10010KT CAVOK 26/17 A3002 RMK BKN250 NOSIG=
201008231700 METAR MRPV 231700Z 08005KT 9999 FEW030 BKN250 27/17 A3001 NOSIG=
201008231800 METAR MRPV 231800Z 04003KT 9999 SCT035 BKN250 28/15 A2998 NOSIG=
201008231900 METAR MRPV 231900Z 27008KT 9999 FEW015TCU SCT030 BKN100 26/22 A2997 NOSIG=
201008232000 METAR MRPV 232000Z 28012KT 9999 4000NW TS SHRA SCT006CB BKN010 24/21 A2997 TEMPO 3000=
201008232100 METAR MRPV 232100Z 19006KT 8000 3000SW TSRA BR SCT015CB BKN100 20/18 A2997 NOSIG=
201008232200 METAR MRPV NIL=
201008232300 METAR MRPV 232300Z 00000KT 9999 SCT035 OVC100 21/19 A2998 NOSIG=
201008240000 METAR MRPV NIL=
201008240100 METAR MRPV NIL=
201008240200 METAR MRPV NIL=
201008240300 METAR MRPV NIL=
201008240400 METAR MRPV NIL=
201008240500 METAR MRPV NIL=
201008240600 METAR MRPV NIL=
201008240700 METAR MRPV NIL=
201008240800 METAR MRPV NIL=
201008240900 METAR MRPV NIL=
201008241000 METAR MRPV NIL=
201008241100 METAR MRPV NIL=
201008241200 METAR MRPV 241200Z 10002KT CAVOK 20/17 A2994 RMK BKN250 HZ W NOSIG=
201008241300 METAR MRPV 241300Z 00000KT CAVOK 23/19 A2997 RMK HZ W BKN250 NOSIG=
201008241400 METAR MRPV 241400Z 00000KT CAVOK 24/18 A2999 RMK FEW140 BKN250 HZ W TEMPO 24004KT=
201008241500 METAR MRPV 241500Z 29004KT CAVOK 24/19 A3000 RMK SCT250 HZ LEVE ARND NOSIG=
201008241600 METAR MRPV 241600Z 29006KT 9999 FEW040 SCT250 25/20 A3000 RMK TCU DST E HZ W NOSIG=
201008241700 METAR MRPV 241700Z 27006KT 8000 FEW020TCU SCT035 25/20 A3000 RMK VIS 8KMS DUE HZ TEMPO 8000 SHRA=
201008241800 METAR MRPV 241800Z 31006KT 4000 SHRA VCTS SCT010CB BKN025 24/21 A2999 RMK TS SW NOSIG=
201008241900 METAR MRPV 241900Z 00000KT 7000 -RA FEW006 FEW010CB BKN030 23/20 A2996 RESHR A VIS SE S UNL N NW 5KMS NOSIG=
201008242000 METAR MRPV 242000Z 31005KT 6000 SHRA FEW005 FEW010TCU BKN015 24/21 A2994 RMK VIS SE UNL TEMPO 4KMS SHRA=
201008242100 METAR MRPV 242100Z 00000KT 3000 +RA BR SCT002 BKN006 21/20 A2995 TEMPO 5000=
201008242200 METAR MRPV 242200Z 13004KT 5000 RA BR FEW002 SCT010 BKN015 20/20 A2995 RMK VIS SW W 4000 TS DST W TEMPO 4000 BR=
201008242300 METAR MRPV 242300Z 12002KT 6000 RA FEW005 SCT015 BKN100 20/19 A2996 RMK VIS SE S SW UNL TEMPO 8000=
201008250000 METAR MRPV 250000Z 00000KT 9999 -RA FEW004 BKN100 20/19 A2996 RMK VIS SW W 6KM DUE FG RA NOSIG=
201008250100 METAR MRPV NIL=
201008250200 METAR MRPV NIL=
201008250300 METAR MRPV NIL=
201008250400 METAR MRPV NIL=
201008250500 METAR MRPV NIL=
201008250600 METAR MRPV NIL=
201008250700 METAR MRPV NIL=
201008250800 METAR MRPV NIL=
201008250900 METAR MRPV NIL=
201008251000 METAR MRPV NIL=
201008251100 METAR MRPV NIL=
201008251200 METAR MRPV 251200Z VRB02KT CAVOK 18/16 A2998 RMK SCT250 CB DST S SW=
201008251300 METAR MRPV 251300Z 12008KT CAVOK 22/17 A3000 RMK SCT250 NOSIG=
201008251400 METAR MRPV 251400Z 11008KT CAVOK 24/17 A3002 RMK SCT250 BECMG 24006KT=
201008251500 METAR MRPV 251500Z VRB02KT 9999 FEW030 SCT250 26/17 A3003 BECMG 24006KT=
201008251600 METAR MRPV 251600Z 28008KT 9999 FEW030 SCT250 25/19 A3004 RMK DU NR APCH RWY09 NOSIG=
201008251700 METAR MRPV 251700Z 28010KT 9999 SCT025 SCT250 26/19 A3002 RMK DU NR APCH RWY09 BECMG VCSH=
201008251800 METAR MRPV 251800Z 29008KT 9999 FEW015TCU SCT025 26/20 A2999 RMK DU NR APCH RWY09 BECMG VCTS SH=
201008251900 METAR MRPV 251900Z 27010KT 9999 FEW012CB SCT025 26/20 A2996 RMK RN DST NE BECMG VCTS SH=
201008252000 METAR MRPV 252000Z 15010KT 8000 1000E TSRA SCT005CB BKN025 25/21 A2994 BECMG 5000 TSRA=
201008252100 METAR MRPV 252100Z 25008KT 7000 2000N -TSRA FEW004CB BKN025 25/21 A2994 BECM G 4000 -TSRA=
201008252200 METAR MRPV 252200Z 00000KT 6000 2000N -RA BR SCT002 BKN250 24/21 A2992 NOSIG=
201008252300 METAR MRPV NIL=
201008260000 METAR MRPV NIL=
201008260100 METAR MRPV NIL=
201008260200 METAR MRPV NIL=
201008260300 METAR MRPV NIL=
201008260400 METAR MRPV NIL=
201008260500 METAR MRPV NIL=
201008260600 METAR MRPV NIL=
201008260700 METAR MRPV NIL=
201008260800 METAR MRPV NIL=
201008260900 METAR MRPV NIL=
201008261000 METAR MRPV NIL=
201008261100 METAR MRPV NIL=
201008261200 METAR MRPV 261200Z 00000KT 6000 -DZ FEW004 BKN015 20/20 A2999 TEMPO 4KMS BR BKN010=
201008261300 METAR MRPV 261300Z 00000KT 5000 BR FEW003 BKN015 21/20 A3001 RMK VIS E 4KMS VIS N 7KMS TEMPO 4000 -RA BR=
201008261400 METAR MRPV 261400Z 00000KT 8000 VCFG FEW009 SCT250 23/20 A3002 FEW020 DUST AP 09 TEMPO 28004KT 9999=
201008261500 METAR MRPV NIL=
201008261600 METAR MRPV 261600Z 00000KT 9999 FEW025 BKN100 26/19 A3000 RMK TCU DST W LGT HZ ARND TEMPO 24004KT=
201008261700 METAR MRPV 261700Z 28004KT 9999 FEW025TCU BKN250 27/20 A3000 RMK LGT HZ ARND NOSIG=
201008261800 METAR MRPV 261800Z 26008KT 9999 VCSH FEW015TCU FEW030 SCT250 27/20 A2998 RMK LGT HZ ARND VIS SE 8KMS VEL MAX VTO 13KT TEMPO 5000 SHRA VCTS=
201008261900 METAR MRPV 261900Z 25008KT 9999 4000E SHRA FEW010CB FEW030 BKN250 26/21 A2994 RMK BECMG 5000 -TSRA=
201008262000 METAR MRPV 262000Z 09004KT 090V180 9999 4000NE SHRA FEW010CB BKN025 27/20 A2992 BECMG 5000 -TSRA=
201008262100 METAR MRPV 262100Z 06004KT 3000 +SHRA SCT002 BKN018 22/21 A2992 BECMG 5000 -RA BR=
201008262200 METAR MRPV 262200Z 28008KT 3000 TSRA SCT002CB BKN012 22/21 A2992 RMK BECMG 3000 -RA BR=
201008262300 METAR MRPV NIL=
201008270000 METAR MRPV NIL=
201008270100 METAR MRPV NIL=
201008270200 METAR MRPV NIL=
201008270300 METAR MRPV NIL=
201008270400 METAR MRPV NIL=
201008270500 METAR MRPV NIL=
201008270600 METAR MRPV NIL=
201008270700 METAR MRPV NIL=
201008270800 METAR MRPV NIL=
201008270900 METAR MRPV NIL=
201008271000 METAR MRPV NIL=
201008271100 METAR MRPV NIL=
201008271200 METAR MRPV 271200Z 00000KT 4000 BR FEW002 SCT010 BKN100 20/19 A2997 RMK VIS N UNLD DU NR APCH RWY09 TEMPO 6000=
201008271300 METAR MRPV 271300Z 00000KT CAVOK 20/20 A2998 BKN100 THIN FG BANK S SW DUST APCH RNY/09 TEMPO 24004KT=
201008271400 METAR MRPV 271400Z 00000KT CAVOK 23/19 A3000 RMK DUST APCH RNY/09 OVC100 HZ W TEMPO 24004KT=
201008271500 METAR MRPV 271500Z 00000KT 9999 FEW020 BKN100 24/19 A3001 DU NEAR APCH RNY/0 9 VIS W 6KMS DUE HZ TEMPO 24004KT=
201008271600 METAR MRPV 271600Z 27002KT 9999 FEW025 BKN100 24/19 A3001 RMK HZ W NOSIG=
201008271700 METAR MRPV 271700Z 29003KT 9999 FEW030 BKN100 25/20 A3000 VIS E 7KMS DUE HZ NOSIG=
201008271800 METAR MRPV 271800Z 28007KT 9999 VCSH FEW025TCU SCT120 BKN250 25/20 A2998 RMK SH SE LGT HZ ARND TEMPO 5000 SHRA=
201008271900 METAR MRPV 271900Z 28009KT 9999 SH FEW010 SCT020TCU BKN120 24/20 A2995 VIS E 7KMS TEMPO 5000=
201008272000 METAR MRPV 272000Z 29007KT 9999 SH FEW010 SCT015TCU BKN100 24/20 A2992 RASH VIS 6 KMS E SE S TEMPO 5000=
201008272100 METAR MRPV 272100Z 28011KT 9000 4000S SHRA BR FEW003 SCT010TCU BKN100 24/20 A2991 TEMPO 4000=
201008272200 METAR MRPV 272200Z 27007KT 4000 RA BR SCT002 BKN008 22/21 A2991 TEMPO 6000=
201008272300 METAR MRPV 272300Z 29008KT 3000 RA BR SCT002 BKN008 22/20 A2992 TEMPO 2000=
201008280000 METAR MRPV 280000Z 29008KT 3000 BR SCT001 BKN010 21/20 A2993 NOSIG=
201008280100 METAR MRPV NIL=
201008280200 METAR MRPV NIL=
201008280300 METAR MRPV NIL=
201008280400 METAR MRPV NIL=
201008280500 METAR MRPV NIL=
201008280600 METAR MRPV NIL=
201008280700 METAR MRPV NIL=
201008280800 METAR MRPV NIL=
201008280900 METAR MRPV NIL=
201008281000 METAR MRPV NIL=
201008281100 METAR MRPV NIL=
201008281200 METAR MRPV NIL=
201008281300 METAR MRPV 281300Z 31002KT 1000 BR OVC002 20/20 A2999 NOSIG=
201008281400 METAR MRPV 281400Z 00000KT 5000 BR SCT003 BKN010 21/20 A3001 RMK VIS 3KM S BCFG DUST W TEMPO 6000=
201008281500 METAR MRPV 281500Z 00000KT 9999 SCT020 BKN100 23/19 A3001 NOSIG=
201008281600 METAR MRPV 281600Z 08003KT 9999 SCT025 BKN120 25/19 A2999 NOSIG=
201008281700 METAR MRPV 281700Z 08008KT 9999 SCT020 BKN100 27/18 A2996 RMK TCU DST S SW NOSIG=
201008281800 METAR MRPV 281800Z 26008KT 9999 4000N SHRA FEW010CB SCT020 BKN100 26/22 A2993 TEMPO 5000=
201008281900 METAR MRPV 281900Z 26006KT 9999 4000N SHRA SCT006TCU BKN100 24/19 A2992 TEMPO 5000=
201008282000 METAR MRPV 282000Z 29010KT 7000 3000N TS SHRA SCT003 SCT010CB BKN100 22/20 A2991 TEMPO 4000=
201008282100 METAR MRPV 282100Z 29008KT 2000 BR SCT001 OVC100 21/19 A2992 NOSIG=
201008282200 METAR MRPV 282200Z 29006KT 1000 RA BR SCT001 OVC006 20/19 A2992 NOSIG=
201008282300 METAR MRPV 282300Z 00000KT 1000 RA BR SCT001 OVC006 20/19 A2994 NOSIG=
201008290000 METAR MRPV NIL=
201008290100 METAR MRPV NIL=
201008290200 METAR MRPV NIL=
201008290300 METAR MRPV NIL=
201008290400 METAR MRPV NIL=
201008290500 METAR MRPV NIL=
201008290600 METAR MRPV NIL=
201008290700 METAR MRPV NIL=
201008290800 METAR MRPV NIL=
201008290900 METAR MRPV NIL=
201008291000 METAR MRPV NIL=
201008291100 METAR MRPV NIL=
201008291200 METAR MRPV 291200Z 00000KT CAVOK 19/18 A2995 RMK BKN120 NOSIG=
201008291300 METAR MRPV 291300Z 00000KT CAVOK 20/18 A2998 RMK BKN120 NOSIG=
201008291400 METAR MRPV 291400Z 00000KT CAVOK 21/18 A2999 RMK BKN120 NOSIG=
201008291500 METAR MRPV 291500Z 00000KT CAVOK 22/18 A3000 RMK BKN120 TEMPO 24004KT=
201008291600 METAR MRPV 291600Z 29004KT 9999 FEW030 BKN130 22/18 A3001 NOSIG=
201008291700 METAR MRPV 291700Z 29003KT 9999 SCT030 BKN130 24/19 A3001 NOSIG=
201008291800 METAR MRPV 291800Z 26004KT 9999 SCT025 BKN120 25/20 A2999=
201008291900 METAR MRPV 291900Z 28008KT 9999 FEW010TCU SCT025 BKN120 25/20 A2996 NOSIG=
201008292000 METAR MRPV NIL=
201008292100 METAR MRPV 292100Z 28008KT 3000 RA BR SCT003 BKN010 21/20 A2994 RMK VIS 8KM E TEMPO 5000=
201008292200 METAR MRPV 292200Z 27003KT 7000 3000N BR FEW004 SCT010 BKN100 21/20 A2994 NOSIG=
201008292300 METAR MRPV 292300Z 00000KT 2000 RA BR SCT001 OVC006 21/20 A2994 NOSIG=
201008300000 METAR MRPV NIL=
201008300100 METAR MRPV NIL=
201008300200 METAR MRPV NIL=
201008300300 METAR MRPV NIL=
201008300400 METAR MRPV NIL=
201008300500 METAR MRPV NIL=
201008300600 METAR MRPV NIL=
201008300700 METAR MRPV NIL=
201008300800 METAR MRPV NIL=
201008300900 METAR MRPV NIL=
201008301000 METAR MRPV NIL=
201008301100 METAR MRPV NIL=
201008301200 METAR MRPV NIL=
201008301300 METAR MRPV 301300Z 12008KT 9999 FEW020 BKN250 22/18 A3003 RMK HZ QUAD W NOSIG=
201008301400 METAR MRPV 301400Z 10010KT 9999 FEW020 BKN250 24/18 A3003 RMK HZ W/NE NOSIG=
201008301500 METAR MRPV 301500Z 08010KT 9999 FEW020 BKN250 25/18 A3004 RMK HZ W/NE DU NR APCH RWY09 NOSIG=
201008301600 METAR MRPV 301600Z 08012KT 9999 FEW020 BKN250 26/18 A3004 RMK HZ W/NE NOSIG=
201008301700 METAR MRPV 301700Z 08010KT 9999 FEW020 BKN250 28/18 A3002 RMK HZ W PCPN DST NE TCU DST SE NOSIG=
201008301800 METAR MRPV 301800Z 12008KT 9999 3000NE SHRA SCT012TCU BKN250 28/18 A3000 BECMG 24006KT=
201008301900 METAR MRPV 301900Z 10008KT 9999 3000NE SHRA SCT010TCU FEW020CB BKN250 25/20 A2998 RMK TS DST S HZ W BECMG 24006KT=
201008302000 METAR MRPV 302000Z 25010KT 8000 3000NW SHRA FEW008TCU FEW010CB BKN250 25/22 A2996 RMK TS DST W BECMG 6000 -TSRA=
201008302100 METAR MRPV 302100Z 24004KT 6000 2000NE -TSRA FEW002 FEW010CB BKN020 25/21 A2995 RMK BECMG 3000 -RA BR HZ W=
201008302200 METAR MRPV 302200Z NIL=
201008302300 METAR MRPV 302300Z 27004KT 7000 2000N -RA BR FEW004 SCT020 BKN250 24/20 A2994 RMK HZ W NOSIG=
201008310000 METAR MRPV NIL=
201008310100 METAR MRPV NIL=
201008310200 METAR MRPV NIL=
201008310300 METAR MRPV NIL=
201008310400 METAR MRPV NIL=
201008310500 METAR MRPV NIL=
201008310600 METAR MRPV NIL=
201008310700 METAR MRPV NIL=
201008310800 METAR MRPV NIL=
201008310900 METAR MRPV NIL=
201008311000 METAR MRPV NIL=
201008311100 METAR MRPV NIL=
201008311200 METAR MRPV 311200Z 12008KT CAVOK 21/16 A2998 RMK BKN250 NOSIG=
201008311300 METAR MRPV 311300Z 14008KT CAVOK 22/17 A2999 RMK BKN250 NOSIG=
201008311400 METAR MRPV 311400Z 14010KT CAVOK 24/17 A2999 RMK BKN250 NOSIG=
201008311500 METAR MRPV 311500Z 10010KT CAVOK 26/17 A2998 RMK VL MX VTO 15KT DU 09 BKN250=
201008311600 METAR MRPV NIL=
201008311700 METAR MRPV 311700Z 08010KT 9999 FEW030 BKN250 27/17 A2998 RMK DU 09 VL MX VTO 15KT TCU DST SW W NW NOSIG=
201008311800 METAR MRPV 311800Z 09010KT 9999 SCT030 BKN250 28/17 A2996 RMK TCU DST SW W NW NOSIG=
201008311840 SPECI MRPV 311840Z 29006KT 9999 SCT025TCU BKN250 27/21 A2993 RMK RA DST N NE NOSIG=
201008311900 METAR MRPV 311900Z 27011KT 9999 SCT025TCU BKN250 27/21 A2993 RMK VL MX VTO 16KT CB DST SW BECMG VCSHTS=
201008312000 METAR MRPV 312000Z 28010KT 8000 2000N -TSRA SCT010CB BKN020 25/22 A2989 BECMG 3000 +TSRA=
201008312100 METAR MRPV 312100Z 28006KT 5000 2000W -TSRA SCT002 FEW008CB BKN015 19/17 A2994 TEMPO 3000 -RA BR BKN012=
201008312200 METAR MRPV 312200Z 00000KT 8000 3000N -RA SCT002 BKN020 20/19 A2994 BECMG 4000 -RA BR=
201008312300 METAR MRPV 312300Z VRB02KT 8000 3000NE -RA BR SCT002 BKN017 21/19 A2994 BECMG 4000 -RA BR=
201009010000 METAR MRPV NIL=
201009010100 METAR MRPV NIL=
201009010200 METAR MRPV NIL=
201009010300 METAR MRPV NIL=
201009010400 METAR MRPV NIL=
201009010500 METAR MRPV NIL=
201009010600 METAR MRPV NIL=
201009010700 METAR MRPV NIL=
201009010800 METAR MRPV NIL=
201009010900 METAR MRPV NIL=
201009011000 METAR MRPV NIL=
201009011100 METAR MRPV NIL=
201009011200 METAR MRPV 011200Z 00000KT 9999 FEW004 SCT090 BKN250 18/17 A2997 RMK DU NR RWY09 RN DST N/NE NOSIG=
201009011300 METAR MRPV 011300Z VRB02KT 9999 FEW008 SCT090 BKN250 20/18 A2999 RMK VIS E 6KMS DUE DUST RNY09 NOSIG=
201009011400 METAR MRPV 011400Z VRB02KT 9999 FEW010 BKN250 24/19 A2999 RMK VIS E 6KMS DUE HZ DU RNY 09=
201009011500 METAR MRPV 011500Z 24006KT 9999 SCT020 SCT250 24/19 2999 RMK DU RNY/09 LGT HZ ARND NOSIG=
201009011600 METAR MRPV 011600Z 27007KT 9999 SCT020 BKN250 25/19 2998 DU RNY/09 LGT HZ ARND NOSIG=
201009011700 METAR MRPV 011700Z 28008KT 9999 SCT020 BKN250 25/19 A2997 RMK HZY TCU N NE SSW NOSIG=
201009011800 METAR MRPV 011800Z 28010KT 9999 SCT020TCU SCT250 26/17 A2995 RMK CB DST SE NOSIG=
201009011900 METAR MRPV 011900Z 36010KT 9999 VCSH FEW015CB SCT025TCU 26/21 A2992 BECMG -TSRA RASH SW SE=
201009011901 METAR MRPV 011901Z 26010KT 9999 VCSH FEW015CB SCT025TCU 26/21 A2992 BECMG -TSRA RASH SW SE=
201009012000 METAR MRPV 012000Z 26010KT 9999 4000E -TSRA SCT010CB BKN030 25/21 A2991 BECMG 5000 -TSRA=
201009012100 METAR MRPV 012100Z 27010KT 7000 3000 TSRA SCT008CB BKN020 22/20 A2990 BECMG 3KM +TSRA=
201009012200 METAR MRPV 012200Z 17008KT 1500 -TSRA BR SCT001 FEW004CB BKN006 20/19 A2992 NOSIG=
201009012300 METAR MRPV 012300Z 30006KT 1500 -TSRA BR SCT001 FEW004CB BKN006 20/19 A2994 NOSIG=
201009020000 METAR MRPV 020000Z VRB02KT 2000 -TSRA BR SCT002 FEW004CB BKN006 20/19 A2996=
201009020100 METAR MRPV NIL=
201009020200 METAR MRPV NIL=
201009020300 METAR MRPV NIL=
201009020400 METAR MRPV NIL=
201009020500 METAR MRPV NIL=
201009020600 METAR MRPV NIL=
201009020700 METAR MRPV NIL=
201009020800 METAR MRPV NIL=
201009020900 METAR MRPV NIL=
201009021000 METAR MRPV NIL=
201009021100 METAR MRPV NIL=
201009021200 METAR MRPV 021200Z 00000KT 9999 4000E -RA BR SCT002 BKN080 19/18 A3000 RMK DU 09 NOSIG=
201009021300 METAR MRPV 021300Z 27004KT 7000 3000NE -RA BR SCT002 BKN018 20/18 A3002 RMK DU NR RWY09 VIS NW UNL BECMG 3KM -RA BR BKN012=
201009021400 METAR MRPV 021400Z 28004KT 5000 2000NE -RA BR SCT001 BKN015 20/19 A3006 RMK DU NR RWYO9 BECMG 3KM -RA BR BKN012=
201009021500 METAR MRPV 021500Z 25003KT 8000 3000NE BR SCT002 BKN020 22/20 A3007 RMK DU NR RWY09 NOSIG=
201009021600 METAR MRPV 021600Z 27004KT 9999 SCT010 SCT080 BKN250 24/18 A3006 RMK DU NR RWY09 NOSIG=
201009021700 METAR MRPV 021700Z 28010KT 9999 SCT010 BKN020 25/19 A3006 RMK DU NR RWY09 NOSIG=
201009021800 METAR MRPV 021800Z 27008KT 9999 FEW008TCU SCT020 BKN250 24/20 A3004 RMK DU NR RWY09 RA E SE NOSIG=
201009021900 METAR MRPV 021900Z 28010KT 8000 3000SE SH SCT008TCU BKN020 23/20 A3002 RMK MX.WND.SPD.15KT DU NR RWY09 BECMG 6KM SHRA=
201009022000 METAR MRPV 022000Z 27010KT 3000 -RA BR SCT001 BKN008 21/20 A3001 BECMG 5000 -RA BR=
201009022100 METAR MRPV 022100Z 29010KT 4000 -RA BR SCT001 BKN012 21/19 A3000 RMK BECMG 5KMS -RA BR BKN015=
201009022200 METAR MRPV 022200Z 28010KT 4000 -RA BR SCT001 BKN012 22/19 A3000 BECMG 5000 -RA BR BKN015=
201009022300 METAR MRPV 022300Z 28010KT 1500 -RA BR SCT001 OVC004 20/19 A3002 NOSIG=
201009030000 METAR MRPV NIL=
201009030100 METAR MRPV NIL=
201009030200 METAR MRPV NIL=
201009030300 METAR MRPV NIL=
201009030400 METAR MRPV NIL=
201009030500 METAR MRPV NIL=
201009030600 METAR MRPV NIL=
201009030700 METAR MRPV NIL=
201009030800 METAR MRPV NIL=
201009030900 METAR MRPV NIL=
201009031000 METAR MRPV NIL=
201009031100 METAR MRPV NIL=
201009031200 METAR MRPV 031200Z 00000KT 9999 4000NW BR SCT030 BKN100 19/19 A3006 DUST RNY 09 NOSIG=
201009031300 METAR MRPV 031300Z 00000KT 5000 2000W BR SCT001 BKN100 20/19 A3009 RMK DU AROXIMACION 09 TEMPO UNL=
201009031400 METAR MRPV 031400Z 00000KT 8000 3000NW BVFG SCT001 SCT100 BKN250 20/19 A3011 DU APROXIMACION 09 TEMPO UNL=
201009031500 METAR MRPV 031500Z 00000KT 9999 FEW002 SCT100 BKN250 22/19 A3012 RMK DU APROXIMACION 09 NOSIG=
201009031600 METAR MRPV 031600Z 27004KT 7000 3000NW BCFG SCT002 BKN030 23/19 A3012 RMK DU APROXIMACION 09 BECMG 5000 BR=
201009031700 METAR MRPV 031700Z 27005KT 6000 BCFG SCT002 BKN025 23/20 A3011 RMK DU APROXI MACION 09 BECMG 5000 BR=
201009031800 METAR MRPV 031800Z 26006KT 8000 BCFG VCSH SCT004 BKN025 24/19 A3008 RMK DU APROXIMACION 09 RASH DST SE BECMG 5000 SH BR=
201009031900 METAR MRPV 031900Z 23004KT 9999 3000NE -TSRA FEW008CB SCT025 BKN250 23/19 A3006 BECMG 5000 -TSRA=
201009032000 METAR MRPV 032000Z 10004KT 9999 3000NE SHRA FEW010TCU SCT025 BKN250 22/18 A3004 RMK BECMG 5000 SHRA=
201009032100 METAR MRPV 032100Z 12004KT 8000 3000NE -SHRA SCT010 BKN100 22/19 A3003 NOSIG=
201009032200 METAR MRPV 032200Z 24005KT 3000 -RA BR SCT001 BKN012 21/20 A3003 NOSIG=
201009032300 METAR MRPV 032300Z 29004KT 2000 -RA BR SCT001 OVC004 20/20 A3005 NOSIG=
201009040000 METAR MRPV 040000Z NIL=
201009040100 METAR MRPV NIL=
201009040200 METAR MRPV NIL=
201009040300 METAR MRPV NIL=
201009040400 METAR MRPV NIL=
201009040500 METAR MRPV NIL=
201009040600 METAR MRPV NIL=
201009040700 METAR MRPV NIL=
201009040800 METAR MRPV NIL=
201009040900 METAR MRPV NIL=
201009041000 METAR MRPV NIL=
201009041100 METAR MRPV NIL=
201009041200 METAR MRPV 041200Z 00000KT CAVOK 19/17 A3005 RMK OVC100 DU NR RWY09 NOSIG=
201009041300 METAR MRPV 041300Z 00000KT CAVOK 20/18 A3006 RMK DU NR APCH RWY09 BKN100 NOSIG=
201009041400 METAR MRPV 041400Z 00000KT CAVOK 23/17 A3008 RMK DU NR APCH RWY09 NOSIG=
201009041500 METAR MRPV 041500Z 27004KT CAVOK 24/18 A3008 RMK DU NR APCH RWY09 BKN100 NOSIG=
201009041600 METAR MRPV 041600Z 28008KT CAVOK 25/19 A3008 RMK SCT100 BKN250 DU NR APCH RWY09 NOSIG=
201009041700 METAR MRPV 041700Z 27010KT 9999 FEW030 SCT120 BKN250 25/19 A3007 NOSIG=
201009041800 METAR MRPV 041800Z 28010KT 9999 FEW020TCU BKN120 25/19 A3006 NOSIG=
201009041900 METAR MRPV 041900Z 27010KT 9999 2500NE -TSRA FEW008CB SCT0120 BKN250 24/20 A3002 BECMG 5000 -TSRA=
201009042000 METAR MRPV 042000Z 28008KT 9999 3000NE SHRA FEW008CB SCT020TCU BKN250 24/20 A3000 BECMG 5000 SHRA=
201009042100 METAR MRPV 042100Z 27010KT 9999 2000N -TSRA FEW008CB BKN022 24/20 A2998 BECM5000 -TSRA=
201009042200 METAR MRPV 042200Z 30006KT 4000 -TSRA BR FEW002 BKN013 22/20 A2998 NOSIG=
201009042300 METAR MRPV 042300Z 28006KT 2000 -TSRA BR SCT002CB BKN006 21/20 A3000=
201009050000 METAR MRPV 050000Z 24009KT 9999 4000SW RA FEW008 SCT020 BKN100 25/24 A2987=
201009050100 METAR MRPV NIL=
201009050200 METAR MRPV NIL=
201009050300 METAR MRPV NIL=
201009050400 METAR MRPV NIL=
201009050500 METAR MRPV NIL=
201009050600 METAR MRPV NIL=
201009050700 METAR MRPV NIL=
201009050800 METAR MRPV NIL=
201009050900 METAR MRPV NIL=
201009051000 METAR MRPV NIL=
201009051100 METAR MRPV NIL=
201009051200 METAR MRPV 051200Z 35003KT 9999 FEW010 BKN130 23/23 A2985 RMK CB DST E=
201009051300 METAR MRPV 051300Z 11008KT 9999 FEW020 SCT100 BKN250 21/17 A3001 NOSIG=
201009051400 METAR MRPV 051400Z 14008KT 9999 FEW020 SCT100 BKN250 23/18 A3002 NOSIG=
201009051500 METAR MRPV 051500Z 12010KT 9999 FEW020 BKN250 25/17 A3001 NOSIG=
201009051600 METAR MRPV 051600Z 08010KT 9999 FEW020 BKN250 26/18 A3001 NOSIG=
201009051700 METAR MRPV 051700Z 09010KT 9999 FEW020 BKN250 27/18 A3000 RMK VL MX VTO 15KT TCU N NOSIG=
201009051800 METAR MRPV 051800Z 07010KT 9999 SCT010TCU BKN250 27/18 A2996 BECMG 24006KT VCTSRA=
201009051900 METAR MRPV 051900Z 08006KT 9999 4000W -TSRA SCT010CB BKN250 28/18 A2992 BECMG 24006KT 6000 -TSRA=
201009052000 METAR MRPV 052000Z 29010KT 8000 2000SE -TSRA BR SCT002 FEW006CB BKN015 21/19 A2993 BECMG 3000 -TSRA BR BKN012=
201009052100 METAR MRPV 052100Z 30004KT 2500 -RA BR SCT001 OVC006 20/19 A2994 NOSIG=
201009052200 METAR MRPV 052200Z VRB02KT 4000 -RA BR FEW001 SCT10 BKN090 20/19 A2994 BECMG 5000 -RA BR BKN020=
201009052300 METAR MRPV 052300Z 00000KT 4000 -RA BR FEW002 SCT006 BKN100 20/18 A2995 BECMG 5000=
201009060000 METAR MRPV NIL=
201009060100 METAR MRPV NIL=
201009060200 METAR MRPV NIL=
201009060300 METAR MRPV NIL=
201009060400 METAR MRPV NIL=
201009060500 METAR MRPV NIL=
201009060600 METAR MRPV NIL=
201009060700 METAR MRPV NIL=
201009060800 METAR MRPV NIL=
201009060900 METAR MRPV NIL=
201009061000 METAR MRPV NIL=
201009061100 METAR MRPV NIL=
201009061200 METAR MRPV 061200Z 09005KT CAVOK 19/17 A2999 RMK CB DST SW BKN250 DU NR APCH RWY09 NOSIG=
201009061300 METAR MRPV 061300Z 12004KT CAVOK 21/17 A3001 BKN250 DU RNY09 CB DST SW NOSIG=
201009061400 METAR MRPV 061400Z 08004KT CAVOK 24/18 A3003 RMK BECMG 27006KT=
201009061500 METAR MRPV 061500Z 27006KT 9999 FEW025 BKN250 23/19 A3003 DU RNY/09 CB DST SW HZ ARND HZY=
201009061600 METAR MRPV 061600Z 28010KT 9999 FEW012TCU BKN250 24/20 A3005 HZ ARND DU RNY/09 NOSIG=
201009061700 METAR MRPV 061700Z 27010KT 9999 4000SE SHRA SCT008TCU BKN025 26/18 A3004 DU RNY09 HZ ARND BECMG 6000 SHRA=
201009061800 METAR MRPV 061800Z 23008KT 3000 RA BR SCT002 BKN020 21/19 A3004 DU RN/09 VIS W UNL BECMG 5000 -RA BR=
201009061900 METAR MRPV 061900Z 00000KT 3000 -RA BR SCT002 BKN015 21/20 A3002 BECMG 5000=
201009062000 METAR MRPV 062000Z 00000KT 5000 2000N -RA BR SCT002 BKN020 21/20 A3000 NOSIG=
201009062100 METAR MRPV 062100Z 33004KT 5000 -RA BR FEW001 SCT006 BKN015 21/19 A2999 NOSIG=
201009062200 METAR MRPV 062200Z 00000KT 6000 BCFG FEW002 BKN020 21/19 A2998 NOSIG=
201009062300 METAR MRPV 062300Z 00000KT 9999 FEW004 BKN020 21/19 A3000 NOSIG=
201009070000 METAR MRPV 070000Z 00000KT 9999 4000E -SHRA FEW004 SCT100 BKN250 21/19 A3001 NOSIG=
201009070100 METAR MRPV 070100Z NIL=
201009070200 METAR MRPV NIL=
201009070300 METAR MRPV NIL=
201009070400 METAR MRPV NIL=
201009070500 METAR MRPV NIL=
201009070600 METAR MRPV NIL=
201009070700 METAR MRPV NIL=
201009070800 METAR MRPV NIL=
201009070900 METAR MRPV NIL=
201009071000 METAR MRPV NIL=
201009071100 METAR MRPV NIL=
201009071200 METAR MRPV 071200Z 00000KT CAVOK 19/18 A3005 RMK DU 09 OVC100 NOSIG=
201009071300 METAR MRPV 071300Z VRB02KT CAVOK 20/19 A3006 RMK DU NR RWY09 BKN100 NOSIG=
201009071400 METAR MRPV 071400Z 24004KT 6000 2000W BCFG SCT001 BKN100 21/19 A3008 RMK DU NR RWY09 NOSIG=
201009071500 METAR MRPV 071500Z 27007KT 5000 BR SCT001 BKN015 22/19 A3010 RMK DU NR RWY09 NOSIG=
201009071600 METAR MRPV 071600Z 28005KT 6000 BCFG SCT001 BKN100 23/19 A3009 RMK DU NR RWY09 NOSIG=
201009071700 METAR MRPV 071700Z 27005KT 8000 BCFG SCT002 BKN250 25/20 A3008 RMK DU NR RWY09 NOSIG=
201009071800 METAR MRPV 071800Z 25010KT 9999 SCT012TCU BKN250 26/20 A3005 RMK BECMG VCSH VCTS DU NR RWY09=
201009071900 METAR MRPV 071900Z 28010KT 9999 3000E TSRA FEW006CB SCT025 BKN250 25/20 A3002 BECMG 5000 TSRA=
201009072000 METAR MRPV 072000Z 27008KT 9999 2000SE TSRA FEW002CB SCT020 BKN250 23/20 A3001 BECMG 5000 TSRA=
201009072100 METAR MRPV 072100Z 12004KT 7000 3000W -RA BR SCT001 BKN020 20/19 A3000 RETS NOSIG=
201009072200 METAR MRPV 072200Z VRB02KT 7000 3000W -RA BR SCT001 BKN020 22/19 A3000 NOSIG=
201009072300 METAR MRPV 072300Z 28003KT 6000 2000N -RA BR SCT002 BKN09000 -TSRA BKN018 FEW025CB BKN090 28/23 Q1013 A2991 CB/TS/LTNG/SMC N=
201009080000 METAR MRPV NIL=
201009080100 METAR MRPV NIL=
201009080200 METAR MRPV NIL=
201009080300 METAR MRPV NIL=
201009080400 METAR MRPV NIL=
201009080500 METAR MRPV NIL=
201009080600 METAR MRPV NIL=
201009080700 METAR MRPV NIL=
201009080800 METAR MRPV NIL=
201009080900 METAR MRPV NIL=
201009081000 METAR MRPV NIL=
201009081100 METAR MRPV NIL=
201009081200 METAR MRPV 081200Z 10007KT CAVOK 20/18 A3002 RMK BKN250 DU RNY/09 NOSIG=
201009081300 METAR MRPV 081300Z 11008KT CAVOK 22/17 A3004 RMK DU APROXIMACION BKN250=
201009081400 METAR MRPV 081400Z 12010KT 9999 FEW025 BKN250 23/17 A3005 RMK DU APROXIMACIO N 09 NOSIG=
201009081500 METAR MRPV 081500Z 09012KT 9999 FEW025 BKN250 25/18 A3006 RMK DU AROXIMACION 09 NOSIG=
201009081600 METAR MRPV 081600Z 10012KT 9999 FEW025 BKN250 26718 A3005 RMK DU APROXIMACIO N 09 NOSIG=
201009081700 METAR MRPV 081700Z 10008KT 9999 4000NE RA FEW015TCU SCT030 BKN250 28/18 A3004 RMK CB DST NE BECMG 25006KT VCTS VCSH=
201009081800 METAR MRPV 081800Z 25006KT 9999 FEW015TCU SCT030 BKN250 25/20 A3002 RMK CB DST E NE DU APROXIMACION 09 CB DST E NE BECMG VCTS VCSH=
201009081900 METAR MRPV 081900Z 27010KT 9999 3000NW SHRA FEW008 SCT030 BKN250 25/21 A3000 BECMG 5000 -TSRA=
201009082000 METAR MRPV 082000Z 29010KT 9999 3000NE TSRA FEW006CB BKN030 24/21 A2999 BECM G 5000 -TSRA=
201009082100 METAR MRPV 082100Z 28008KT 6000 2000E TSRA SCT002CB BKN020 23/21 A2996 BECMG 3000 +TSRA=
201009082200 METAR MRPV 082200Z VRB02KT 5000 2000W TSRA BR SCT002CB BKN012 20/19 A2997 RMK VIS SE UNLD BECMG 6000 -RA BR BKN015=
201009082300 METAR MRPV 082300Z VRB02KT 6000 2000NW -RA BR SCT002 BKN020 20/19 A2998=
201009090000 METAR MRPV NIL=
201009090100 METAR MRPV NIL=
201009090200 METAR MRPV NIL=
201009090300 METAR MRPV NIL=
201009090400 METAR MRPV NIL=
201009090500 METAR MRPV NIL=
201009090600 METAR MRPV NIL=
201009090700 METAR MRPV NIL=
201009090800 METAR MRPV NIL=
201009090900 METAR MRPV NIL=
201009091000 METAR MRPV NIL=
201009091100 METAR MRPV NIL=
201009091200 METAR MRPV 091200Z 00000KT 3000 BR SCT001 BKN012 18/18 A3003 BECMG 5000 BR BKN015=
201009091300 METAR MRPV 091300Z VRB02KT 6000 2000SE BR SCT001 BKN015 20/18 A3005 RMK DU NR APCH RWY09 VIS NW UNLD BECMG 9999=
201009091400 METAR MRPV 091400Z 00000KT 9999 FEW004 BKN100 21/17 A3006 RMK DU NR APCH RWY09 NOSIG=
201009091500 METAR MRPV 091500Z 00000KT 9999 FEW002 BKN100 23/18 A3007 RMK DU NR APCH RWY09 HZ ARND NOSIG=
201009091600 METAR MRPV 091600Z 00000KT 9999 FEW010 BKN100 24/18 A3005 RMK DU NR APCH RWY09 HZ ARND NOSIG=
201009091700 METAR MRPV 091700Z 28004KT 9999 FEW010 BKN100 26/18 A3003 RMK DU NR APCH RWY09 HZ ARND NOSIG=
201009091800 METAR MRPV 091800Z 27010KT 9999 3000NE -SHRA FEW015TCU SCT100 26/20 A3000 RMK HZ ARND BECMG VCTS VCSH=
201009091900 METAR MRPV 091900Z 28010G20KT 8000 3000NE +SHRA FEW008CB BKN025 26/20 A2998 RMK HZ ARND BECMG 5000 -TSRA=
201009092000 METAR MRPV 092000Z 27010KT 5000 2000N -TSRA SCT002CB BKN015 23/20 A2996 RMK VEL MAX VTO 16KT BECMG 3000 -TSRA BR=
201009092100 METAR MRPV 092100Z 27010KT 5000 1000N -TSRA SCT002 BKN015 21/19 A2997 BECMG 3000 -TSRA BR=
201009092200 METAR MRPV 092200Z 25004KT 5000 -RA BR SCT002 BKN018 20/19 A2997 BECMG 3000 -RA BR=
201009092300 METAR MRPV 092300Z VRB02KT 9999 4000SE -RA FEW002 SCT020 BKN250 20/19 A2998 RMK CB DST E NOSIG=
201009100000 METAR MRPV NIL=
201009100100 METAR MRPV NIL=
201009100200 METAR MRPV NIL=
201009100300 METAR MRPV NIL=
201009100400 METAR MRPV NIL=
201009100500 METAR MRPV NIL=
201009100600 METAR MRPV NIL=
201009100700 METAR MRPV NIL=
201009100800 METAR MRPV NIL=
201009100900 METAR MRPV NIL=
201009101000 METAR MRPV NIL=
201009101100 METAR MRPV NIL=
201009101200 METAR MRPV 101200Z 07005KT CAVOK 19/17 A2998 RMK HZ ARND FEW100 FEW250 NOSIG=
201009101300 METAR MRPV 101300Z 11005KT CAVOK 22/17 A3000 RMK HZ ARND FEW250 NOSIG=
201009101400 METAR MRPV 101400Z 12010KT CAVOK 24/18 A3001 RMK HZ W FEW250 NOSIG=
201009101500 METAR MRPV 101500Z 12008KT 9999 FEW022 26/17 A3001 RMK HZ W BECMG 25005KT=
201009101600 METAR MRPV 101600Z 10006KT 9999 FEW022 28/17 A3000 RMK HZ W BECMG 25005KT=
201009101700 METAR MRPV 101700Z 27010KT 9999 4000N SHRA SCT018TCU 26/21 A2999 RMK HZ W BECMG VCSH=
201009101800 METAR MRPV 101800Z 28010KT 9999 4000E -TSRA SCT010CB 26/21 A2998 BECMG 6000 +TSRA=
201009101900 METAR MRPV 101900Z VRB02KT 3000 TSRA SCT002CB BKN012 22/20 A2998 RMK BECMG 5000 -TSRA BR=
201009102000 METAR MRPV 102000Z 00000KT 3000 -RA BR SCT001 BKN012 21/20 A2997 NOSIG=
201009102100 METAR MRPV 102100Z VRB02KT 5000 -RA BR SCT002 BKN015 21/19 A2995 BECMG 3000 -RA BR BKN012=
201009102200 METAR MRPV 102200Z 00000KT 5000 -RA BR SCT002 BKN015 22/20 A2994 BECMG 3000 -RA BR BKN012=
201009102300 METAR MRPV 102300Z 00000KT 8000 3000NW -RA BR FEW002 SCT020 BKN100 21/20 A2994 TCU LINE E SE SSE BECMG 3000 -RA BR=
201009110000 METAR MRPV NIL=
201009110100 METAR MRPV NIL=
201009110200 METAR MRPV NIL=
201009110300 METAR MRPV NIL=
201009110400 METAR MRPV NIL=
201009110500 METAR MRPV NIL=
201009110600 METAR MRPV NIL=
201009110700 METAR MRPV NIL=
201009110800 METAR MRPV NIL=
201009110900 METAR MRPV NIL=
201009111000 METAR MRPV NIL=
201009111100 METAR MRPV NIL=
201009111200 METAR MRPV 111200Z 00000KT 9999 FEW020 SCT250 17/17 A2996 RMK CB DST SW NOSIG=
201009111300 METAR MRPV 111300Z 10005KT 9999 FEW020 SCT250 21/17 A2997 CB DST SW NW NOSIG=
201009111400 METAR MRPV 111400Z 13010KT 9999 FEW020 SCT250 24/17 A2999 RMK CB DST SW VTO CRUZADO EN PISTA NOSIG=
201009111500 METAR MRPV 111500Z 11010KT 9999 FEW020 SCT250 26/17 A2999 NOSIG=
201009111600 METAR MRPV 111600Z 12008KT 9999 FEW020 SCT250 27/18 A2998 BECMG 24006KT=
201009111700 METAR MRPV 111700Z 24006KT 9999 SCT020TCU SCT030 29/18 A2997 BECMG=
201009111800 METAR MRPV 111800Z 27012KT 9999 4000N SHRA FEW010CB SCT030 26/20 A2994 BECMG -TSRA=
201009111900 METAR MRPV 111900Z 18006KT 2000 TSRA SCT002CB BKN010 22/19 A2994 BECMG 5KM -RA BR=
201009112000 METAR MRPV 112000Z 30008KT 2500 -TSRA SCT001 FEW004 BKN012 20/19 A2993 BECMG 5000 -RABR=
201009112100 METAR MRPV 112100Z 28007KT 4000 -RA BR SCT001 BKN014 21/20 A2991 BECMG 5000 -RA BR=
201009112200 METAR MRPV 112200Z 28006KT 5000 -RA BR SCT002 BKN020 23/20 A2991 BECMG 3000 -RA BR=
201009112300 METAR MRPV 112300Z 27005KT 6000 2000SE -RA BR SCT002 BKN020 22/20 A2991 RMK TCU E BECMG 3000 -RA BR=
201009120000 METAR MRPV 120000Z 28006KT 3000 -RA BR SCT001 BKN015 22/20 A2992 NOSIG=
201009120100 METAR MRPV NIL=
201009120200 METAR MRPV NIL=
201009120300 METAR MRPV NIL=
201009120400 METAR MRPV NIL=
201009120500 METAR MRPV NIL=
201009120600 METAR MRPV NIL=
201009120700 METAR MRPV NIL=
201009120800 METAR MRPV NIL=
201009120900 METAR MRPV NIL=
201009121000 METAR MRPV NIL=
201009121100 METAR MRPV NIL=
201009121200 METAR MRPV 121200Z 00000KT 5000 2000E -RA BR SCT001 BKN015 18/17 A2997 TEMPO 3000 BR=
201009121300 METAR MRPV 121300Z 12004KT 9999 4000E BR FEW002 SCT250 20/18 A2998 RMK HZ QUAD W NOSIG=
201009121400 METAR MRPV 121400Z 10005KT CAVOK 23/18 A2998 RMK HZY QUAD W CB DST SW SCT250 NOSIG=
201009121500 METAR MRPV 121500Z 11008KT 9999 FEW030 25/17 A2998 RMK HZY QUAD W NOSIG=
201009121600 METAR MRPV 121600Z 08008KT 9999 SCT025 27/17 A2998 RMK HZ QUAD W BECMG 23007KT=
201009121700 METAR MRPV 121700Z 27010KT 9999 SCT025 26/19 A2996 RMK HZ W TCU N BECMG VCSH=
201009121800 METAR MRPV 121800Z 26010KT 9999 3000NE SHRA FEW010TCU FEW025 25/21 A2995 RMK HZ W BECMG VCTS=
201009121900 METAR MRPV 121900Z 27010KT 8000 2000N SHRA FEW008CB BKN025 25/21 A2991 BECMG 6000 -TSRA=
201009122000 METAR MRPV 122000Z 29010KT 3000 -TSRA SCT002CB BKN015 23/21 A2991 BECMG 5000 -RA BR=
201009122100 METAR MRPV 122100Z 31005KT 5000 2000NW -RA BR SCT002 BKN015 BECMG 3000 -RA BR=
201009122200 METAR MRPV 122200Z 32007KT 5000 2000NW -RA BR SCT002 BKN015 21/19 A2990 BECM G 3000 -RA BR=
201009122300 METAR MRPV 122300Z 32006KT 3000 -TSRA BR SCT001 FEW005CB BKN012 21/19 A2993 NOSIG=
201009130000 METAR MRPV NIL=
201009130100 METAR MRPV NIL=
201009130200 METAR MRPV NIL=
201009130300 METAR MRPV NIL=
201009130400 METAR MRPV NIL=
201009130500 METAR MRPV NIL=
201009130600 METAR MRPV NIL=
201009130700 METAR MRPV NIL=
201009130800 METAR MRPV NIL=
201009130900 METAR MRPV NIL=
201009131000 METAR MRPV NIL=
201009131100 METAR MRPV NIL=
201009131200 METAR MRPV 131200Z 00000KT CAVOK 18/17 A2995 RMK BKN100 NOSIG=
201009131300 METAR MRPV 131300Z 00000KT CAVOK 28/18 A2996 RMK BKN100 NOSIG=
201009131400 METAR MRPV 131400Z 26004KT 9999 FEW030 BKN250 23/18 A2998 RMK DU APROXIMACIO N 09 NOSIG=
201009131500 METAR MRPV NIL=
201009131600 METAR MRPV 131600Z 28007KT 9999 FEW030 SCT250 24/18 A2997 RMK DU APROXIMACIO N 09 NOSIG=
201009131700 METAR MRPV 131700Z 27008KT 9999 SCT022TCU 25/18 A2995 RMK DU APROXIMACION 09 BECMG VCTS VCSH=
201009131800 METAR MRPV 131800Z 27010KT 9999 SCT020TCU 26/20 A2993 RMK DU APROXIMACION 09 BECMG VCTS VCSH=
201009131900 METAR MRPV 131900Z 27012KT 9999 4000E SHRA FEW010CB SCT030TCU 26/21 A2990 RMK DU APROXIMACION 09 BECMG -TSRA SH=
201009132000 METAR MRPV 132000Z 26010KT 8000 3000E TSRA SCT006CB BKN020 24/21 A2989 BECMG 3000 +TSRA=
201009132100 METAR MRPV 132100Z 08007KT 2000 -TSRA SCT002CB BKN010 21/19 A2989 BECMG 5000 -RA BR BKN015=
201009132200 METAR MRPV 132200Z 08003KT 4000 -RA BR SCT002 BKN014 21/18 A2989 BECMG 5000 -RA BR BKN015=
201009132300 METAR MRPV 132300Z 00000KT 3000 -RA BR SCT001 OVC008 20/19 A2992 NOSIG=
201009140000 METAR MRPV NIL=
201009140100 METAR MRPV NIL=
201009140200 METAR MRPV NIL=
201009140300 METAR MRPV NIL=
201009140400 METAR MRPV NIL=
201009140500 METAR MRPV NIL=
201009140600 METAR MRPV NIL=
201009140700 METAR MRPV NIL=
201009140800 METAR MRPV NIL=
201009140900 METAR MRPV NIL=
201009141000 METAR MRPV NIL=
201009141100 METAR MRPV NIL=
201009141200 METAR MRPV 141200Z 00000KT CAVOK 18/17 A2994 FEW120 SCT300 TCU DIST SW NOSIG=
201009141300 METAR MRPV 141300Z 00000KT CAVOK 21/18 A2996 RMK FEW120 FEW300 TCU DST SW HZ W DU NR APCH RWY09 TEMPO 24004KT=
201009141400 METAR MRPV 141400Z 00000KT CAVOK 23/18 A2998 RMK FEW120 FEW300 DU NR APCH RWY09 TCU DST SW TEMPO 24005KT=
201009141500 METAR MRPV 141500Z 30005KT 9999 FEW025 SCT300 24/18 A2999 RMK FEW130 NOSIG=
201009141600 METAR MRPV 141600Z 27006KT 9999 FEW030 BKN250 25/18 A2999 NOSIG=
201009141700 METAR MRPV 141700Z 29007KT 9999 FEW020TCU FEW030 BKN250 25/19 A2998 RMK TCU/RN DST SSE VEL MAX VTO 12KT TEMPO 8000 VCSH=
201009141800 METAR MRPV 141800Z 28008KT 9999 VCSH FEW025 SCT120 BKN250 25/20 A2996 RMK SH ESE TEMPO 5000 SHRA SCT010CB=
201009141900 METAR MRPV 141900Z 28007KT 9999 VCSH FEW020TCU SCT030 BKN250 25/20 A2993 RMK SH QUAD E VEL MAX VTO 12KT TEMPO 5000 SHRA SCT010CB=
201009142000 METAR MRPV 142000Z 27009KT 8000 SHRA FEW015TCU BKN025 24/20 A2991 RMK VIS E 6KM TEMPO 5000 -SHRA SCT010CB=
201009142100 METAR MRPV 142100Z 28010KT 5000 SHRA FEW006 FEW010CB SCT015 21/20 A2991 RMK VIS 3000NW 9999 S SCT100 VEL MAX VTO 15KT TEMPO 3000 RA BR BKN010=
201009142200 METAR MRPV 142200Z 00000KT 5000 RA BR FEW004 FEW004CB 21/20 2992 RMK TEMPO 3000 RA BR=
201009142300 METAR MRPV 142300Z 00000KT 5000 RA BR FEW 004 FEW010CB 21 20 A2992 TEMPO 3000 RA BR=
201009150000 METAR MRPV NIL=
201009150100 METAR MRPV NIL=
201009150200 METAR MRPV NIL=
201009150300 METAR MRPV NIL=
201009150400 METAR MRPV NIL=
201009150500 METAR MRPV NIL=
201009150600 METAR MRPV NIL=
201009150700 METAR MRPV NIL=
201009150800 METAR MRPV NIL=
201009150900 METAR MRPV NIL=
201009151000 METAR MRPV NIL=
201009151100 METAR MRPV NIL=
201009151200 METAR MRPV 151200Z 00000KT 9999 4000W BR FEW120 SCT250 18/17 A2996 NOSIG=
201009151300 METAR MRPV 151300Z 00000KT CAVOK 22/18 A2997 RMK FEW250 HZ W TEMPO 24004KT=
201009151400 METAR MRPV 151400Z 00000KT CAVOK 23/18 A2999 RMK SCT250 TEMPO 24004KT=
201009151500 METAR MRPV 151500Z 30003KT CAVOK 25/18 A3000 RMK BKN250 NOSIG=
201009151600 METAR MRPV 151600Z 30006KT 9999 FEW040 BKN250 25/19 A2999 NOSIG=
201009151700 METAR MRPV 151700Z 29006KT 9999 FEW025 BKN250 25/20 A2998 NOSIG=
201009151800 METAR MRPV 151800Z 28007KT 9999 SCT030 26/20 A2996 RMK TCU DST S SE VL MX VTO 12KT NOSIG=
201009151900 METAR MRPV 151900Z 28009KT 9999 VCTS VCSH FEW010CB BKN025 26/21 A2994 RMK TS SHRA SE TEMPO 8000=
201009152000 METAR MRPV 152000Z 28006KT 9999 RA FEW006 FEW010CB BKN025 24/21 A2993 RESH RMK VIS E 6000 TEMPO 6000=
201009152100 METAR MRPV 152100Z 30006KT 9999 -RA FEW010TCU FEW025 SCT100 24/18 A2990=
201009152200 METAR MRPV 152200Z 28005KT 9999 FEW006 SCT100 23/20 A2990 RMK FEW025 FEW250 CB DST E SE NOSIG=
201009152300 METAR MRPV 152300Z 28004KT 8000 3500SW VCSH BR FEW005 FEW010TCU SCT100 23/20 A2992 RMK SH E VIS S SE UNL TEMPO 5000 BR=
201009160000 METAR MRPV NIL=
201009160100 METAR MRPV NIL=
201009160200 METAR MRPV NIL=
201009160300 METAR MRPV NIL=
201009160400 METAR MRPV NIL=
201009160500 METAR MRPV NIL=
201009160600 METAR MRPV NIL=
201009160700 METAR MRPV NIL=
201009160800 METAR MRPV NIL=
201009160900 METAR MRPV NIL=
201009161000 METAR MRPV NIL=
201009161100 METAR MRPV NIL=
201009161200 METAR MRPV 161200Z 00000KT CAVOK 19/17 A2994 RMK OVC200 LGT HZ ARND DU NR APCH RWY09 NOSIG=
201009161300 METAR MRPV 161300Z 00000KT CAVOK 21/18 A2996 RMK OVC200 HZY THIN FG BANK SW TEMPO 24004KT=
201009161400 METAR MRPV 161400Z 00000KT 9999 4000W HZ OVC200 22/18 A2998 RMK HZY TEMPO 24004KT=
201009161500 METAR MRPV 161500Z 28004KT 9999 4000W HZ OVC200 22/19 A2999 HZY NOSIG=
201009161600 METAR MRPV 161600Z 00000KT 9999 4000W HZ FEW030 BKN250 25/20 A2999 HZY TEMPO 24006KT=
201009161700 METAR MRPV 161700Z 26002KT 9000 4000W HZ FEW030 BKN250 26/20 A2996 HZY NOSIG=
201009161800 METAR MRPV 161800Z 29006KT 7000 FEW030 BKN250 26/21 A2994 RMK RN DST E VIS S UNL HZY NOSIG=
201009161900 METAR MRPV 161900Z 28009KT 9000 RA FEW015TCU BKN030 25/20 A2991 RMK HZY VIS NW 7KMS DUE RN TEMPO 5000 SHRA=
201009162000 METAR MRPV 162000Z 00000KT 8000 3000SW -RA VCTS FEW010CB BKN020 20/19 A2989 RETS TS SW TEMPO 9999=
201009162100 METAR MRPV 162100Z 00000KT 7000 3000W BR FEW003 SCT015 BKN250 21/20 A2988 RMK VIS S UNL TEMPO 5000 BR BKN010=
201009162200 METAR MRPV 162200Z 27002KT 3000 -RA BR SCT002 BKN010 23/21 A2989 RMK TS DST S NOSIG=
201009162300 METAR MRPV 162300Z 00000KT 9999 RA VCTS FEW010CB SCT015 BKN100 20/19 A2991 RMK TS W VIS W NW N 5000 NOSIG=
201009170000 METAR MRPV 170000Z 00000KT 8000 -RA VCSH FEW005 BKN100 20/20 A2991 RMK LTNG W DST VIS S SE UNL NOSIG=
201009170100 METAR MRPV 170100Z NIL=
201009170200 METAR MRPV NIL=
201009170300 METAR MRPV NIL=
201009170400 METAR MRPV NIL=
201009170500 METAR MRPV NIL=
201009170600 METAR MRPV NIL=
201009170700 METAR MRPV NIL=
201009170800 METAR MRPV NIL=
201009170900 METAR MRPV NIL=
201009171000 METAR MRPV NIL=
201009171100 METAR MRPV NIL=
201009171200 METAR MRPV 171200Z VRB02KT CAVOK 19/16 A2989 RMK BKN250 NOSIG=
201009171300 METAR MRPV 171300Z 14007KT CAVOK 21/16 A2992 RMK CROSS.WIND.ON.RWY BKN250 NOSIG=
201009171400 METAR MRPV 171400Z 14006KT CAVOK 25/17 A2994 RMK CROSS.WIND.ON.RWY BKN250 NOSIG=
201009171500 METAR MRPV 171500Z 11010KT CAVOK 26/18 A2996 RMK BKN250 NOSIG=
201009171600 METAR MRPV 171600Z 09012KT 9999 FEW030 BKN250 26/17 A2996 RMK MAX.WND.SPD.17KT NOSIG=
201009171700 METAR MRPV 171700Z 10010KT 9999 FEW030 BKN250 26/17 A2993 RMK MX.WND.SPD.16KT NOSIG=
201009171800 METAR MRPV 171800Z 07012KT 9999 FEW030 BKN250 27/17 A2991 NOSIG=
201009171900 METAR MRPV 171900Z 07010KT 9999 FEW030 BKN250 27/18 A2989 BECMG 24006KT VCSH=
201009172000 METAR MRPV 172000Z 24008KT 9999 3000N BCFG SCT002 BKN250 24/21 A2987 BECMG 5000 BR BKN015=
201009172100 METAR MRPV 172100Z 27008KT 8000 3000N BCFG SCT002 BKN020 23/20 A2987 RMK BECMG 5000 -RA BR BKN015=
201009172200 METAR MRPV 172200Z 28010KT 5000 2000N -RA BR SCT001 BKN015 22/20 A2987 RMK BECMG 3000 -RA BR BKN012=
201009172300 METAR MRPV 172300Z 29008KT 1000 -RA BR SCT001 OVC004 21/20 A2990 NOSIG=
201009180000 METAR MRPV NIL=
201009180100 METAR MRPV NIL=
201009180200 METAR MRPV NIL=
201009180300 METAR MRPV NIL=
201009180400 METAR MRPV NIL=
201009180500 METAR MRPV NIL=
201009180600 METAR MRPV NIL=
201009180700 METAR MRPV NIL=
201009180800 METAR MRPV NIL=
201009180900 METAR MRPV NIL=
201009181000 METAR MRPV NIL=
201009181100 METAR MRPV NIL=
201009181200 METAR MRPV 181200Z VRB02KT CAVOK 19/18 A2996 RMK FEW080 FEW250 DU RNY09 HZY NOSIG=
201009181300 METAR MRPV 181300Z 09004KT CAVOK 21/18 A2997 RMK DU APROXIMACION 09 HZ ARND FEW250 NOSIG=
201009181400 METAR MRPV 181400Z VRB02KT CAVOK 24/18 A2999 RMK DU APROXIMACION 09 HZ ARND CB DST SW FEW250 NOSIG=
201009181500 METAR MRPV 181500Z 27004KT 9999 FEW030 25/17 A2999 RMK DU APROXIMACION 09 CB DST SW NOSIG=
201009181600 METAR MRPV 181600Z 26008KT 9999 SCT030TCU 25/18 A2999 BECMG VCSH=
201009181700 METAR MRPV 181700Z 27008KT 9999 SCT015TCU 25/18 A2997 RMK CB DST SW BECMG VCTS VCSH=
201009181800 METAR MRPV 181800Z 27012KT 9999 4000E SHRA FEW010CB SCT025TCU 25719 A2994 BECMG 5000 -TSRA=
201009181900 METAR MRPV 181900Z 25008KT 9999 4000E SHRA FEW010CB BKN025 24/20 A2992 RMK BECMG 5000 -TSRA=
201009182000 METAR MRPV 182000Z 27012KT 5000 2000N -RA BR SCT001 FEW006CB BKN015 23/20 A2990 BECMG 3000 -TSRA=
201009182100 METAR MRPV 182100Z 28007KT 1000 -TSRA SCT001 FEW004CB OVC005 21/20 A2990 BECMG 5000 -RABR=
201009182200 METAR MRPV 182200Z 30004KT 3000 -RA BR SCT001 BKN012 20/19 A2991 BECMG 5000 -RA BR=
201009182300 METAR MRPV 182300Z VRB02KT 5000 2000W -RA BR SCT001 BKN015 20/19 A2998 BECMG 3000 -RA BR=
201009190000 METAR MRPV NIL=
201009190100 METAR MRPV NIL=
201009190200 METAR MRPV NIL=
201009190300 METAR MRPV NIL=
201009190400 METAR MRPV NIL=
201009190500 METAR MRPV NIL=
201009190600 METAR MRPV NIL=
201009190700 METAR MRPV NIL=
201009190800 METAR MRPV NIL=
201009190900 METAR MRPV NIL=
201009191000 METAR MRPV NIL=
201009191100 METAR MRPV NIL=
201009191200 METAR MRPV 191200Z 00000KT CAVOK 19/18 A3001 RMK SCT100 BKN250 NOSIG=
201009191300 METAR MRPV 191300Z 00000KT CAVOK 19/18 A3001 RMK SCT100 BKN250 NOSIG=
201009191400 METAR MRPV 191400Z 00000KT 9999 FEW008 SCT100 BKN250 23/19 A3004 RMK CB DST W NOSIG=
201009191500 METAR MRPV 191500Z 00000KT 9999 FEW010 SCT100 BKN250 24/18 A3008 RMK CB DST W NOSIG=
201009191600 METAR MRPV 191600Z 27008KT 9999KT FEW025 SCT100 BKN250 24/19 A3004 CB DST SW NOSIG=
201009191700 METAR MRPV 191700Z 28010KT 9999 SCT020 SCT100 BKN250 24/19 A3004 RMK CB DST W NOSIG=
201009191800 METAR MRPV 191800Z 27010KT 9999 SCT020TCU BKN250 24/20 A3000 RMK PCPN DST NE BECMG VCTS VCSH=
201009191900 METAR MRPV 191900Z 28012KT 9999 VCSH FEW010CB BKN025 25/20 A2996 BECMG -TSRA=
201009192000 METAR MRPV 192000Z 29010KT 9999 4000E -TSRA FEW008CB BKN025 23/20 A2995 BECM G 5000 -TSRA BR=
201009192100 METAR MRPV 192100Z 28010KT 9999 -TSRA FEW006CB BKN025 23/20 A2994 RMK VIS 5000 E NE DUE RASH TEMPO 5000 -RA BR=
201009192200 METAR MRPV 192200Z 28010KT 3000 -RA BR SCT001 BKN012 22/20 A2996 NOSIG=
201009192300 METAR MRPV 192300Z 00000KT 6000 -RA SCT002 BKN020 21/19 A2998 NOSIG=
201009200000 METAR MRPV 200000Z 10004KT 8000 -RA FEW002 BKN100 20/19 A2999 NOSIG=
201009200100 METAR MRPV NIL=
201009200200 METAR MRPV NIL=
201009200300 METAR MRPV NIL=
201009200400 METAR MRPV NIL=
201009200500 METAR MRPV NIL=
201009200600 METAR MRPV NIL=
201009200700 METAR MRPV NIL=
201009200800 METAR MRPV NIL=
201009200900 METAR MRPV NIL=
201009201000 METAR MRPV NIL=
201009201100 METAR MRPV NIL=
201009201200 METAR MRPV 201200Z 00000KT CAVOK 19/18 A3000 RMK BKN120 DU 09 NOSIG=
201009201300 METAR MRPV 201300Z 00000KT CAVOK 20/19 A3002 RMK SCT120 FEW250 DU APROXIMACI ON 09 TCU SW HZ W TEMPO 24004KT=
201009201400 METAR MRPV 201400Z 00000KT CAVOK 23/18 A3003 RMK TCU SW SCT250 DU APROXIMACI ON 09 TEMPO 24004KT=
201009201500 METAR MRPV 201500Z 29003KT 9999 FEW030 SCT250 24/18 A3002 RMK DU APROXIMACIO N 09 NOSIG=
201009201600 METAR MRPV 201600Z 28006KT 9999 FEW030 SCT250 29/19 A3001 RMK DU APROXIMACIO N 09 NOSIG=
201009201700 METAR MRPV 201700Z 27008KT 9999 FEW025 SCT250 25720 A2999 RMK TCU S DU APROX IMACION 09 NOSIG=
201009201800 METAR MRPV 201800Z 28013KT 9999 FEW030 SCT250 26/20 A2996 RMK GUST 18KT TCU NE SE CB NW NOSIG=
201009201900 METAR MRPV 201900Z 27011KT 9999 VCSH FEW020TCU FEW035 SCT250 27/20 A2991 RMK CB SH NW GUST 16KT TEMPO 7000 SHRA=
201009202000 METAR MRPV 202000Z 29011KT 5000 SHRA VCTS FEW006 SCT010CB BKN020 23/21 A2991 RMK VIS SE S UNL GUST 16KT TEMPO 3000 TSRA BKN010CB TS NW=
201009202100 METAR MRPV 202100Z 29007KT 4000 SHRA BR SCT002 BKN012 20/19 A2992 RMK VEL MAX VTO 14 VIS N UNL S SW 3KMS TEMPO 7000=
201009202200 METAR MRPV 202200Z 28008KT 2000 +RA BR SCT001 BKN005 20/19 A2993 RMK VEL MAX VTO 13KT NOSIG=
201009202300 METAR MRPV 202300Z 00000KT 4000 RA BR SCT001 BKN008 19/19 A2994 NOSIG=
201009210000 METAR MRPV NIL=
201009210100 METAR MRPV NIL=
201009210200 METAR MRPV NIL=
201009210300 METAR MRPV NIL=
201009210400 METAR MRPV NIL=
201009210500 METAR MRPV NIL=
201009210600 METAR MRPV NIL=
201009210700 METAR MRPV NIL=
201009210800 METAR MRPV NIL=
201009210900 METAR MRPV NIL=
201009211000 METAR MRPV NIL=
201009211100 METAR MRPV NIL=
201009211200 METAR MRPV 211200Z 00000KT CAVOK 17/16 A2997 RMK SCT120 CB DST S/SW/W DU NR APCH RWY09 NOSIG=
201009211300 METAR MRPV 211300Z 00000KT CAVOK 19/18 A2999 RMK BKN120 DU APCH RNY/09 CB DST S TEMPO 24004KT=
201009211400 METAR MRPV 211400Z 00000KT 9999 FEW025 SCT120 22/17 A3000 DU NEAAR APCH RNY/09 TEMPO 24004KT=
201009211500 METAR MRPV 211500Z 28005KT 9999 FEW030 23/18 A3001 RMK FEW120 FEW250 NOSIG=
201009211600 METAR MRPV 211600Z 29005KT 9999 SCT025 23/18 A3001 FEW120 TCU DST S DU NEAR APCH RNY/09 NOSIG=
201009211700 METAR MRPV 211700Z 28007KT 9999 SCT025 24/19 A2999 RMK FEW120 RN DST NW N VEL MAX VTO 12KT TEMPO 8000 VCSH=
201009211800 METAR MRPV 211800Z 29010KT 9999 SHRA SCT015TCU SCT025 25/19 A2996 RMK VIS N 6KMS VEL MAX VTO 15KT TEMPO 5000 SHRA=
201009211900 METAR MRPV 211900Z 29006KT 4000 RA VCTS SCT008CB BKN015 22/20 A2995 RMK TS NW TEMPO 2000 TSRA BKN008CB=
201009212000 METAR MRPV 212000Z 30003KT 4000 -RA BR SCT001 BKN008 21/20 A2993 RMK VIS E 6KMS NOSIG=
201009212100 METAR MRPV 212100Z 28004KT 4000 -RA BR SCT002 BKN015 20/19 A2994 NOSIG=
201009212200 METAR MRPV 27002KT 3500 -RA BR SCT002 BKN007 20/19 A2992 NOSIG=
201009212201 METAR MRPV 212201Z 27002KT 3500 -RA BR SCT002 BKN007 20/19 A2992 NOSIG=
201009212300 METAR MRPV 212300Z 29005KT 3000 -RA BR SCT001 BKN006 19/19 A2995 NOSIG=
201009220000 METAR MRPV 220000Z 29002KT 4000 -DZ BR SCT003 BKN010 19/18 A//// NOSIG=
201009220100 METAR MRPV NIL=
201009220200 METAR MRPV NIL=
201009220300 METAR MRPV NIL=
201009220400 METAR MRPV NIL=
201009220500 METAR MRPV NIL=
201009220600 METAR MRPV NIL=
201009220700 METAR MRPV NIL=
201009220800 METAR MRPV NIL=
201009220900 METAR MRPV NIL=
201009221000 METAR MRPV NIL=
201009221100 METAR MRPV NIL=
201009221200 METAR MRPV 221200Z 00000KT CAVOK 17/16 A2996 RMK FEW250 TCU DST SW DU 09 NOSIG=
201009221300 METAR MRPV 221300Z 00000KT CAVOK 20/17 A2998 RMK SCT300 DU.NR.RWY09 TCU DST SW TEMPO 24004KT=
201009221400 METAR MRPV 221400Z 26002KT CAVOK 22/17 A3000 RMK SCT300 CB DST SW DU.NR.RWY09 NOSIG=
201009221500 METAR MRPV 221500Z 00000KT CAVOK 23/18 A3000 RMK SCT300 DU.NR.RWY09 CB DST SW TEMPO 24006KT=
201009221600 METAR MRPV 221600Z 27006KT 9999 FEW030 SCT250 24/19 A2999 NOSIG=
201009221700 METAR MRPV 221700Z 29009KT 9999 FEW020TCU SCT030 SCT250 24/19 A2998 RMK RA DST NE TEMPO 8000 VCSH=
201009221800 METAR MRPV 221800Z 26006KT 9999 RA FEW015TCU BKN030 24/20 A2996 RMK VIS 6KM NE MX.WND.SPD.11KT TEMPO 8000 SHRA=
201009221900 METAR MRPV 221900Z 28007KT 9999 VCSH FEW015TCU BKN030 24/19 A2994 RERA RMK SH SE N TEMPO 7000 SHRA=
201009222000 METAR MRPV 222000Z 28005KT 9999 VCSH SCT010CB BKN025 24/20 A2991 RMK SH SE W TEMPO 6000 SHRA=
201009222100 METAR MRPV NIL=
201009222200 METAR MRPV 222200Z 29007KT 4000 RA BR FEW003 FEW008TCU BKN012 22/20 A2990 RMK ST MOVIENDOSE DE W A E NOSIG=
201009222300 METAR MRPV 222300Z 27006KT 4000 +RA BR SCT001 BKN005 21/20 A2991 NOSIG=
201009230000 METAR MRPV NIL=
201009230100 METAR MRPV NIL=
201009230200 METAR MRPV NIL=
201009230300 METAR MRPV NIL=
201009230400 METAR MRPV NIL=
201009230500 METAR MRPV NIL=
201009230600 METAR MRPV NIL=
201009230700 METAR MRPV NIL=
201009230800 METAR MRPV NIL=
201009230900 METAR MRPV NIL=
201009231000 METAR MRPV NIL=
201009231100 METAR MRPV NIL=
201009231200 METAR MRPV 231200Z 00000KT 5000 -RA BR SCT001 BKN015 19/18 A2998 TEMPO 3000 -RA BR BKN012=
201009231300 METAR MRPV 231300Z 00000KT 5000 2000N BR SCT001 BKN015 19/19 A2999 RMK DU APROXIMACION 09 NOSIG=
201009231400 METAR MRPV 231400Z 00000KT 6000 2000NW -RA BR SCT001 BKN020 2/18 A3001 RMK DU APROXIMACION 09 BECMG 24006KT=
201009231500 METAR MRPV 231500Z 24004KT 5000 2000NW -RA BR SCT001 BKN015 22/19 A3002 RMK DU APROXIMACION 09 NOSIG=
201009231600 METAR MRPV 231600Z 28006KT 6000 2000NW BR SCT001 BKN020 23/19 A3001 RMK DU APROXIMACION 0 HVH701 231555 GG EGZZMCAR KILNABXD KWBCYMYX MDSDYMYX MKJKYMYX MPZZMAMX 231555 MNMGYMYX=
201009231700 METAR MRPV NIL=
201009231800 METAR MRPV 231800Z 28010KT 9999 SCT012TCU BKN030 24/19 A2996 BECMG=
201009231900 METAR MRPV 231900Z 27010KT 9999 SCT010TCU BKN030 24/20 A2993 BECMG=
201009232000 METAR MRPV 232000Z 28012KT 7000 2000NW -RA BR FEW02 SCT008TCU BKN020 22/19 A2991 BECMG 3000 -RA BR=
201009232100 METAR MRPV 232100Z 29012KT 7000 3000NW -RA BR SCT009 BKN018 22/19 A2989 BECM G 3000 -RA BR=
201009232200 METAR MRPV 232200Z 28012KT 3000 -RA BR SCT001 BKN012 21/19 A2990 NOSIG=
201009232300 METAR MRPV 232300Z 30006KT 5000 -RA BR SCT001 BKN015 20/19 A2992 RMK BECMG 3000 -RA BR BKN012=
201009240000 METAR MRPV NIL=
201009240100 METAR MRPV NIL=
201009240200 METAR MRPV NIL=
201009240300 METAR MRPV NIL=
201009240400 METAR MRPV NIL=
201009240500 METAR MRPV NIL=
201009240600 METAR MRPV NIL=
201009240700 METAR MRPV NIL=
201009240800 METAR MRPV NIL=
201009240900 METAR MRPV NIL=
201009241000 METAR MRPV NIL=
201009241100 METAR MRPV NIL=
201009241200 METAR MRPV 241200Z 29003KT 2500 -RA BR SCT001 OVC004 19/18 A2996 NOSIG=
201009241300 METAR MRPV 241300Z 29003KT 3000 -RA BR SCT001 OVC006 19/19 A2998 BECMG 5000 -RA BR BKN015=
201009241400 METAR MRPV 241400Z 28003KT 5000 2000SE -RA BR SCT015 21/19 A2998 NOSIG=
201009241500 METAR MRPV 241500Z 26003KT 5000 2000SE -RA BR SCT001 BKN018 22/19 A2999 RMK DU NR APCH RWY09 NOSIG=
201009241600 METAR MRPV 241600Z 27008KT 5000 -RA BR SCT002 BKN015 22/19 A2999 RMK DU NR APCH RWY09 NOSIG=
201009241700 METAR MRPV 241700Z 29008KT 6000 2000N -RA BR SCT002 BKN018 23/20 A2998 RMK DU NR APCH RWY09 NOSIG=
201009241800 METAR MRPV 241800Z 27012KT 7000 3000NW -RA SCT002 BKN020 30/20 A2995 NOSIG=
201009241900 METAR MRPV 241900Z 27010KT 7000 -RA SCT002 BKN018 23/19 A2992 RMK VEL MAX VTO 15KT NOSIG=
201009242000 METAR MRPV 242000Z 28010KT 2000 -RA BR SCT001 BKN012 22/20 A2990 RMK VEL MAX VTO 15 BECMG 5000=
201009242100 METAR MRPV 242100Z 29010KT 5000 -RA BR SCT001 BKN015 22/19 A2989 BECMG 3000 -RA BR=
201009242200 METAR MRPV 242200Z 31007KT 3000 -RA BR SCT001 BKN008 21/19 A2988 BECMG 5000 -RA BR=
201009242300 METAR MRPV 242300Z 29010KT 1000 RA BR SCT001 OVC004 20/19 A2990 NOSIG=
201009250000 METAR MRPV 250000Z 27008KT 1000 RA BR SCT001 OVC004 20/19 A2991 NOSIG=
201009250100 METAR MRPV NIL=
201009250200 METAR MRPV NIL=
201009250300 METAR MRPV NIL=
201009250400 METAR MRPV NIL=
201009250500 METAR MRPV NIL=
201009250600 METAR MRPV NIL=
201009250700 METAR MRPV NIL=
201009250800 METAR MRPV NIL=
201009250900 METAR MRPV NIL=
201009251000 METAR MRPV NIL=
201009251100 METAR MRPV NIL=
201009251200 METAR MRPV 251200Z 00000KT 2000 -RA BR SCT001 OVC004 19/18 A2995 NOSIG=
201009251300 METAR MRPV 251300Z 00000KT 3000 -RA BR SCT001 BKN012 19/19 A2997 RMK VIS NW UNL BECMG 5000 -RA BR BKN015=
201009251400 METAR MRPV 251400Z 00000KT 4000 -RA BR SCT001 BKN013 20/19 A2999 RMK VISUNL NW BECMG 5000 -RA BR BKN015=
201009251500 METAR MRPV 251500Z 00000KT 5000 2000N -RA BR SCT001 BKN015 21/19 A3001 RMK VIS UNL NW DU 09 NOSIG=
201009251600 METAR MRPV 251600Z VRB02KT 9999 FEW010 SCT100 BKN250 22/19 A3000 RMK DU 09 NOSIG=
201009251700 METAR MRPV 251700Z VRB02KT 9999 FEW012 SCT100 BKN250 23/19 A2999 RMK DU 09 NOSIG=
201009251800 METAR MRPV 251800Z 28010KT 8000 3000NW -RA BR SCT002 BKN020 22/20 A2999 BECMG 5000 -RA BR=
201009251900 METAR MRPV 251900Z 29008KT 9999 SCT008 BKN250 21/19 A2997 BECMG 5000 -RA BR=
201009252000 METAR MRPV 252000Z 31006KT 9999 -RA SCT010 SCT100 BKN250 21/18 A2994 BECMG 5000 -RA BR=
201009252100 METAR MRPV 252100Z 00000KT 9999 -RA FEW008 SCT100 BKN250 21/18 A2992=
201009252200 METAR MRPV 252200Z 00000KT CAVOK 21/17 A2992 SCT100 BKN250 NOSIG=
201009252300 METAR MRPV 252300Z 26006KT 9999 SCT002 SCT120 BKN250 20/19 A2992 BECMG 5000 -RA BR=
201009260000 METAR MRPV NIL=
201009260100 METAR MRPV NIL=
201009260200 METAR MRPV NIL=
201009260300 METAR MRPV NIL=
201009260400 METAR MRPV NIL=
201009260500 METAR MRPV NIL=
201009260600 METAR MRPV NIL=
201009260700 METAR MRPV NIL=
201009260800 METAR MRPV NIL=
201009260900 METAR MRPV NIL=
201009261000 METAR MRPV NIL=
201009261100 METAR MRPV NIL=
201009261200 METAR MRPV 261200Z 26003KT 1500 -RA BR SCT001 BKN004 17/17 A3001 NOSIG=
201009261300 METAR MRPV 261300Z 00000KT 2000 -RA BR SCT001 BKN005 18/17 A3002 TEMPO 24006KT=
201009261400 METAR MRPV NIL=
201009261500 METAR MRPV 261500Z 06002KT 9999 VCFG FEW004 SCT015 BKN090 19/18 A3003 RMK VIS SW 8KMS WET RNY TEMPO 24006KT=
201009261600 METAR MRPV 261600Z 00000KT 9999 VCFG FEW010 BKN090 21/17 A3004 RMK FG E N WET RNY TEMPO 24006KT=
201009261700 METAR MRPV 261700Z 27002KT 9999 SCT015 BKN100 22/18 A3002 TEMPO 8000 RA VCFG BKN015=
201009261800 METAR MRPV 261800Z 27002KT 9999 SCT015 BKN100 22/18 A3002 TEMPO 8000 RA VCFG BKN015=
201009261801 METAR MRPV 261801Z 28006KT 9999 SCT008 BKN015 21/18 A3001 TEMPO 5000 RA BR BKN010=
201009261900 METAR MRPV 261900Z 28008KT 2500 +DZ BR SCT001 BKN004 19/18 A2999 NOSIG=
201009262000 METAR MRPV 262000Z 27004KT 4000 RA BR SCT002 BKN006 29718 A2998 TEMPO 5000=
201009262100 METAR MRPV 262100Z 00000KT 9999 4000SW -RA BR FEW004 BKN100 19/18 A2995 RMK WET RWY FEW015 NOSIG=
201009262200 METAR MRPV 262200Z 14002KT 9999 FEW010 SCT090 BKN120 19/18 A2998 RMK WET RWY NOSIG=
201009262300 METAR MRPV 262300Z 00000KT 9999 -RA OVC120 19/18 A2994 RMK WET RWY NOSIG=
201009270000 METAR MRPV 270000Z NIL=
201009270100 METAR MRPV NIL=
201009270200 METAR MRPV NIL=
201009270300 METAR MRPV NIL=
201009270400 METAR MRPV NIL=
201009270500 METAR MRPV NIL=
201009270600 METAR MRPV NIL=
201009270700 METAR MRPV NIL=
201009270800 METAR MRPV NIL=
201009270900 METAR MRPV NIL=
201009271000 METAR MRPV NIL=
201009271100 METAR MRPV NIL=
201009271200 METAR MRPV 271200Z 00000KT 5000 BR SCT003 BKN010 18/18 A2998 RMK VIS S SE UNL TEMPO 3000 VCFG BKN015=
201009271300 METAR MRPV 271300Z 00000KT 6000 BCFG FEW003 BKN015 19/18 A3001 VIS S UNL TEMPO 8000 VCFG=
201009271400 METAR MRPV 271400Z 00000KT 9999 VCFG FEW006 BKN120 21/19 A3002 RMK VIS N NW W 8KM TEMPO 24004KT=
201009271500 METAR MRPV 271500Z 29003KT 9999 BKN020 22/19 A3003 RMK DU.NR.RWY09 NOSIG=
201009271600 METAR MRPV 271600Z 28006KT 9999 SCT020 23/19 A3002 RMK DU NR RWY09 FEW250 NOSIG=
201009271700 METAR MRPV 271700Z 28006KT 9999 FEW015TCU BKN020 24/20 A3001 RMK RA DST S SW TEMPO 8000 RA VCFG=
201009271800 METAR MRPV 271800Z 26006KT 9999 -RA FEW010TCU BKN020 23/20 A3000 RMK VIS 7KM N TEMPO 8000 RA VCSH BKN015=
201009271900 METAR MRPV 271900Z 28008KT 9999 SHRA FEW015TCU SCT025 23/20 A2996 RMK VIS SW W 7KM TEMPO 5000 RA BR BKN015=
201009272000 METAR MRPV 272000Z 28012KT 2000 RA BR SCT001 BKN004 20/19 A2997 RESH RMK TS DST S TEMPO 5000=
201009272100 METAR MRPV 272100Z 31006KT 2000 -RA BR SCT001 BKN005 20/19 A2995 NOSIG=
201009272200 METAR MRPV 272200Z 28004KT 0500 FG VV/// 20/19 A2997 NOSIG=
201009272300 METAR MRPV 272300Z 28005KT 1500 BR SCT001 BKN004 19/19 A2998 NOSIG=
201009280000 METAR MRPV NIL=
201009280100 METAR MRPV NIL=
201009280200 METAR MRPV NIL=
201009280300 METAR MRPV NIL=
201009280400 METAR MRPV NIL=
201009280500 METAR MRPV NIL=
201009280600 METAR MRPV NIL=
201009280700 METAR MRPV NIL=
201009280800 METAR MRPV NIL=
201009280900 METAR MRPV NIL=
201009281000 METAR MRPV NIL=
201009281100 METAR MRPV NIL=
201009281200 METAR MRPV 281200Z 00000KT 1500 +DZ BR SCT001 BKN004 19/19 A2995 WET RNY NOSIG=
201009281300 METAR MRPV 281300Z 00000KT 2500 DZ BR SCT001 BKN005 19/19 A2998 RMK WET RNY TEMPO 24006KT 4000=
201009281400 METAR MRPV 281400Z 29004KT 2500 1000S BR SCT001 BKN006 20/19 A3000 REDZ RMK WET RWY VIS N 5KM TEMPO 4000=
201009281500 METAR MRPV 281500Z 29009KT 3500 1000SW DZ BR FEW001 BKN007 21/20 A3000 RMK WET RWY OCNLS BRKS OVR HD TEMPO 5000=
201009281600 METAR MRPV 281600Z 29009KT 5000 DZ BR FEW002 BKN010 22/20 A2990 RMK CONDICIONES VRBLS TEMPO BKN015=
201009281700 METAR MRPV 281700Z 28008KT 9999 SCT030 25/19 A3004 RMK TCU DST S VEL.MAX.VTO 14KT NOSIG=
201009281800 METAR MRPV 281800Z 28010KT 9999 SHRA FEW006 BKN018 22/20 A2992 RMK VIS SW/W 6KM TEMPO 5000 SHRA BKN010=
201009281900 METAR MRPV 281900Z 29007KT 7000 BCFG FEW005 SCT010 BKN120 23/20 A2988 TEMPO 4000 BR BKN010=
201009282000 METAR MRPV 282000Z 28010KT VCSH FEW007 FEW015TCU 24/20 A2984 RMK VIS W 8KM NOSIG=
201009282040 METAR MRPV 282040Z 29012G22KT 2500 SHRA SCT005CB BKN008 22/20 A2984 NOSIG=
201009282100 METAR MRPV 282100Z 25005KT 2500 RA BR SCT001 BKN005 20/19 A2985 RESH PISTA MOJADA NOSIG=
201009282200 METAR MRPV 282200Z 29012KT 3000 -RA BR SCT001 BKN005 20/20 A2984 RMK WET RWY TEMPO 0800 FG VV///=
201009282300 METAR MRPV 282300Z 30008KT 2000 RA BR SCT001 BKN004 20/19 A2996 RMK WET RWY GUST 13KT NOSIG=
201009290000 METAR MRPV NIL=
201009290100 METAR MRPV NIL=
201009290200 METAR MRPV NIL=
201009290300 METAR MRPV NIL=
201009290400 METAR MRPV NIL=
201009290500 METAR MRPV NIL=
201009290600 METAR MRPV NIL=
201009290700 METAR MRPV NIL=
201009290800 METAR MRPV NIL=
201009290900 METAR MRPV NIL=
201009291000 METAR MRPV NIL=
201009291100 METAR MRPV NIL=
201009291200 METAR MRPV 291200Z 00000KT 2500 RA BR SCT001 OVC004 19/19 A2993 RMK DU NR RWY09 NOSIG=
201009291300 METAR MRPV 291300Z 00000KT 2500 -RA BR SCT001 OVC004 19/19 A2995 RMK DU NR APCH RWY09 BECMG 5000 -RA BR BKN015=
201009291400 METAR MRPV 291400Z 29005KT 1000 -RA BR SCT001 OVC002 20/19 A2997 RMK DU NR APCH RWY09 BECMG 5000 -RA BR BKN015=
201009291500 METAR MRPV 291500Z 29008KT 2500 -RA BR SCT001 OVC008 20/20 A2998 RMK DU NR APCH RWY09 BECMG 5000 -RABR BKN015=
201009291600 METAR MRPV 291600Z 29008KT 2500 -RA BR SCT001 OVC008 20/19 A2999 RMK DU NR APCH RWY09 BECMG 5000 -RA BR BKN015=
201009291700 METAR MRPV 291700Z 29007KT 5000 2000NW -RA BR SCT001 BKN015 20/19 A2998 RMK DU NR APCH RWY09 NOSIG=
201009291800 METAR MRPV 291800Z 27007KT 2000 -RA BR SCT001 BKN008 20/20 A2995 NOSIG=
201009291900 METAR MRPV 291900Z 29010KT 3000 -RA BR SCT001 BKN010 21/20 A2992 RMK CONDICIONES MUY VARIABLES BECMG 5000 -RA BR BKN015=
201009292000 METAR MRPV 292000Z 29010KT 5000 2000N -RA BR SCT001 BKN015 21/20 A2989 RMK CONDICIONES MUY VARIABLES TEMPO 3000 -RA BR=
201009292100 METAR MRPV 292100Z 28008KT 2000 -RA BR SCT001 BKN004 20/19 A2989 RMK CONDICIONES MUY VARIABLES TEMPO 5000 -RA BR=
201009292200 METAR MRPV 292200Z 28008KT 1000 -RA BR SCT001 OVC002 20/20 A2990 NOSIG=
201009292300 METAR MRPV 292300Z 29008KT 1000 -RA BR OVC002 19/19 A2990 NOSIG=
201009300000 METAR MRPV NIL=
201009300100 METAR MRPV NIL=
201009300200 METAR MRPV NIL=
201009300300 METAR MRPV NIL=
201009300400 METAR MRPV NIL=
201009300500 METAR MRPV NIL=
201009300600 METAR MRPV NIL=
201009300700 METAR MRPV NIL=
201009300800 METAR MRPV NIL=
201009300900 METAR MRPV NIL=
201009301000 METAR MRPV NIL=
201009301100 METAR MRPV NIL=
201009301200 METAR MRPV 301200Z 00000KT 2000 -RA BR SCT001 OVC004 19/19 A2997 RMK DU APROXIMACION 09 NOSIG=
201009301300 METAR MRPV 301300Z 00000KT 1500 -RA BR SCT001 OVC002 19/19 A3001 POLVO APROXIMACION PISTA 09 NOSIG=
201009301400 METAR MRPV 301400Z 00000KT 4000 -RA BR SCT001 BKN012 20/20 A3003 RMK POLVO APROXIMACION PISTA 09 BECMG 5000 -RA BR=
201009301500 METAR MRPV 301500Z 00000KT 6000 -RA SCT001 BKN018 22/20 A3003 RMK POLVO APROXIMACION PISTA 09 NOSIG=
201009301600 METAR MRPV NIL=
201009301700 METAR MRPV NIL=
201009301800 METAR MRPV 301800Z 26006KT 7000 -RA SCT002 BKN020 24/19 A2999 NOSIG=
201009301900 METAR MRPV 301900Z 27007KT 9999 SCT010 BKN025 24/20 A2995 RMK CB DST NE E W NOSIG=
201009302000 METAR MRPV 302000Z 28008KT 9999 SCT010 BKN025 23/20 A2994 RMK CB DST NE E W NOSIG=
201009302100 METAR MRPV 302100Z 29010KT 7000 3000NW -RA BR SCT002 BKN015 22/20 A2993 RMK CB DST NE E W BECMG 3000-RA BR BKN012=
201009302200 METAR MRPV 302200Z 29008KT 1000 RA BR OVC002 20/20 A2996 NOSIG=
201009302300 METAR MRPV 302300Z 00000KT 4000 -RA BR SCT001 BKN014 19/18 A2997 NOSIG=
201010010000 METAR MRPV NIL=
201010010100 METAR MRPV NIL=
201010010200 METAR MRPV NIL=
201010010300 METAR MRPV NIL=
201010010400 METAR MRPV NIL=
201010010500 METAR MRPV NIL=
201010010600 METAR MRPV NIL=
201010010700 METAR MRPV NIL=
201010010800 METAR MRPV NIL=
201010010900 METAR MRPV NIL=
201010011000 METAR MRPV NIL=
201010011100 METAR MRPV NIL=
201010011200 METAR MRPV 011200Z 11004KT 9999 FEW030 SCT100 BKN250 19/18 A2999 RMK DU NR APCH RWY09 NOSIG=
201010011300 METAR MRPV 011300Z 24006KT 8000 2000W BCFG FEW001 SCT250 21/18 A3000 DU APCH RNY/09 HZY NOSIG=
201010011400 METAR MRPV 011400Z 27004KT 0800 FG BKN001 20/19 A3002 RMK DUST APCH RNY/09 BECMG 5000 BKN015=
201010011500 METAR MRPV 011500Z 26004KT 5000 2000N BR SCT001 BKN015 23/20 A3003 DU IN APCH RNY/09 NOSIG=
201010011600 METAR MRPV 011600Z 29004KT 8000 3000N BCFG SCT010 BKN250 25/19 A3003 RMK HZY CB DST W NW NOSIG=
201010011700 METAR MRPV 011700Z 28008KT 9999 4000N BCFG SCT010 BKN250 26/19 A3000 RMK CB DST W NW=
201010011800 METAR MRPV 011800Z 27012KT 9999 SCT010 BKN250 26/20 A2997 BECMG VCTS=
201010011900 METAR MRPV 011900Z 28010KT 9999 SCT010 BKN250 26/20 A2994 BECMG VCTS=
201010012000 METAR MRPV 012000Z 28010KT 9999 3000N -TSRA SCT010CB SCT100 BKN250 24/20 A2993 BECMG 5000 -TSRA=
201010012100 METAR MRPV 012100Z 07004KT 5000 SHRA BR SCT002 BKN015 21/19 A2992 BECMG 3000 -RA BR=
201010012200 METAR MRPV 012200Z VRB02KT 4000 -RA BR SCT001 BKN012 21/20 A2494 NOSIG=
201010012300 METAR MRPV 012300Z VRB02KT 5000 2000NW SCT001 BKN015 21/20 A2994 TEMPO 3000 -RA BR=
201010020000 METAR MRPV NIL=
201010020100 METAR MRPV NIL=
201010020200 METAR MRPV NIL=
201010020300 METAR MRPV NIL=
201010020400 METAR MRPV NIL=
201010020500 METAR MRPV NIL=
201010020600 METAR MRPV NIL=
201010020700 METAR MRPV NIL=
201010020800 METAR MRPV NIL=
201010020900 METAR MRPV NIL=
201010021000 METAR MRPV NIL=
201010021100 METAR MRPV NIL=
201010021200 METAR MRPV 021200Z 00000KT CAVOK 18/17 A2998 RMK SCT120 BKB250 CB DST NE E E TCU DST SW POLVO APROXIMACION PISTA 09 NOSIG=
201010021300 METAR MRPV 021300Z 09002KT CAVOK 20/17 A2998 BKN250 CB NE TCU DIST SW DU NEAR APP09 TEMPO 24005KT=
201010021400 METAR MRPV 021400Z 09002KT CAVOK 22/17 A3000 FEW120 BKN250 TCU DIST SW TEMPO 24005KT=
201010021500 METAR MRPV 021500Z 00000KT CAVOK 24/18 A3001 RMK BKN200 HZ W TEMPO 24003KT=
201010021600 METAR MRPV 021600Z 26003KT 9999 FEW030 BKN200 25/19 A3000 RMK VIS 7KM W HZ NOSIG=
201010021700 METAR MRPV 021700Z 28004KT 9999 FEW030 BKN250 26/20 A2997 RMK LGT HZ ARND NOSIG=
201010021800 METAR MRPV 021800Z 28008KT 9999 FEW030 BKN250 26/20 A2994 RMK TCU DST S HZY ARND TEMPO 8000 VCSH=
201010021900 METAR MRPV 021900Z 27008KT 9999 VCSH FEW012TCU SCT025 BKN250 26/21 A2991 RMK HZY SH SE VEK MAX VTO 13KT TEMPO 5000 SHRA=
201010022000 METAR MRPV 022000Z 28010KT 8000 VCSH FEW010TCU SCT025 BKN100 25/21 A2998 RMK LGT HZ ARND TEMPO 5000 SHRA=
201010022100 METAR MRPV 022100Z 27009KT 2500 SHRA BR SCT001 BKN004 22/21 A2988 RMK TS DST S GUST 17KT NOSIG=
201010022200 METAR MRPV 022200Z 28006KT 2000 +RA BR VCTS SCT001 BKN004 21/20 A2992 RMK TS SW W WT RWY NOSIG=
201010022300 METAR MRPV 022300Z 00000KT 2500 RA BR VCTS SCT001 BKN006 19/19 A2995 RMK WT RWY TS W NOSIG=
201010030000 METAR MRPV NIL=
201010030100 METAR MRPV NIL=
201010030200 METAR MRPV NIL=
201010030300 METAR MRPV NIL=
201010030400 METAR MRPV NIL=
201010030500 METAR MRPV NIL=
201010030600 METAR MRPV NIL=
201010030700 METAR MRPV NIL=
201010030800 METAR MRPV NIL=
201010030900 METAR MRPV NIL=
201010031000 METAR MRPV NIL=
201010031100 METAR MRPV NIL=
201010031200 METAR MRPV 031200Z 00000KT 9999 FEW025 SCT070 BKN090 19/18 A3001 RMK DZ N NOSIG=
201010031300 METAR MRPV NIL=
201010031400 METAR MRPV 031400Z 08003KT CAVOK 21/18 A3004 RMK BKN090 SCT250 CB DST SW NOSIG=
201010031500 METAR MRPV 031500Z 09002KT CAVOK 24/19 A3004 RMK FEW100 BKN250 TCU DST SW TEMPO 28004KT=
201010031600 METAR MRPV 031600Z 08005KT 9999 FEW035 BKN100 26/18 A3003 RMK TCU DST S TEMP O 28005KT=
201010031700 METAR MRPV 031700Z 08009KT 9999 FEW015TCU SCT030 SCT100 24/18 A3000 RMK RA DST NW TEMPO 28005KT=
201010031800 METAR MRPV 031800Z 06004KT 9999 3000NE RA VCTS FEW010CB BKN018 21/19 A2999 RMK RWY WATER PATCHES -TS NE TEMPO 24004KT=
201010031900 METAR MRPV 031900Z 00000KT 7000 3000W RA VCTS FEW015CB BKN018 20/19 A2995 RMK WET RWY OCNL TS W NW CONDICIONES VARIABLES VIS S SW UNL TEMPO 24004KT=
201010032000 METAR MRPV 032000Z 00000KT 8000 3500W RA VCTS FEW005 BKN015 21/20 A2993 RMK WET RWY OCNL TS W TEMPO 5000 RA BKN010=
201010032100 METAR MRPV 032100Z 30006KT 4000 -RA BR SCT002 BKN006 21/20 A2993 RMK WET RWY VIS E/SE 6KM NOSIG=
201010032200 METAR MRPV 032200Z 28006KT 2000 1000SW -RA BR SCT001 BKN004 20/20 A2994 RMK WET RWY NOSIG=
201010032300 METAR MRPV 032300Z 30004KT 2500 -RA BR SCT001 BKN004 20/19 A2996 RMK WET RWY NOSIG=
201010040000 METAR MRPV NIL=
201010040100 METAR MRPV NIL=
201010040200 METAR MRPV NIL=
201010040300 METAR MRPV NIL=
201010040400 METAR MRPV NIL=
201010040500 METAR MRPV NIL=
201010040600 METAR MRPV NIL=
201010040700 METAR MRPV NIL=
201010040800 METAR MRPV NIL=
201010040900 METAR MRPV NIL=
201010041000 METAR MRPV NIL=
201010041100 METAR MRPV NIL=
201010041200 METAR MRPV 041200Z 13006KT CAVOK 19/15 A3000 RMK RA DST NE FEW120 BKN250 NOSIG=
201010041300 METAR MRPV 041300Z 13006KT CAVOK 21/15 A3003 RMK VEL MAX VTO 12KT SCT120 SCT250 NOSIG=
201010041400 METAR MRPV 041400Z 13005KT CAVOK 22/15 A3004 RMK VEL MAX VTO 10KT BKN120 SCT250 NOSIG=
201010041500 METAR MRPV NIL=
201010041600 METAR MRPV 041600Z 11009KT 9999 FEW040 BKN250 25/16 A3004 RMK VEL MAX VTO 14KT LGT HZ W NOSIG=
201010041700 METAR MRPV 041700Z 08012KT 9999 FEW040 BKN250 24/16 A3003 RMK VEL MAX VTO 17KT LGT HZ ARND=
201010041800 METAR MRPV 041800Z 08013KT 9999 FEW040 BKN250 25/17 A2998 RMK LGT HZ W NOSIG=
201010041900 METAR MRPV 041900Z 07011KT 9999 FEW040 BKN250 24/18 A2996 RMK TCU DST N VEL MAX VTO 17KT NOSIG=
201010042000 METAR MRPV 042000Z 08012KT 9999 VCSH BKN035 SCT250 24/17 A2994 RMK SH WNW VEL MAX VTO 18KT NOSIG=
201010042100 METAR MRPV 042100Z 08011KT 9999 FEW012 SCT035 BKN100 23/17 A2994 RMK VEL.MAX.VTO 16KT NOSIG=
201010042200 METAR MRPV 042200Z 08012KT 9999 FEW010 SCT025 BKN100 22/17 A2996 RMK RN DST N NW NOSIG=
201010042300 METAR MRPV 042300Z 08008KT 9999 BCFG BKN030 SCT100 22/17 A2997 RMK VIS 7000 N NW RN DST SE NOSIG=
201010050000 METAR MRPV NIL=
201010050100 METAR MRPV NIL=
201010050200 METAR MRPV NIL=
201010050300 METAR MRPV NIL=
201010050400 METAR MRPV NIL=
201010050500 METAR MRPV NIL=
201010050600 METAR MRPV NIL=
201010050700 METAR MRPV NIL=
201010050800 METAR MRPV NIL=
201010050900 METAR MRPV NIL=
201010051000 METAR MRPV NIL=
201010051100 METAR MRPV NIL=
201010051200 METAR MRPV NIL=
201010051300 METAR MRPV 051300Z 10010KT 9999 SCT015 OVC120 20/16 A3003 RMK POLVO APROXIMACION PISTA 09 RN DST N NE NOSIG=
201010051400 METAR MRPV 051400Z 10012KT 9999 SCT020 SCT120 BKN250 22/26 A3004 RMK POLVO APROXIMACION PISTA 09 RN DST NE NOSIG=
201010051500 METAR MRPV 051500Z 09012KT 9999 SCT020 SCT120 BKN250 23/17 A3005 RN DST NE NOSIG=
201010051600 METAR MRPV NIL=
201010051700 METAR MRPV 051700Z 07011KT 9999 SCT020 SCT120 BKN250 25/17 A3002 RMK RN DST NE VEL.MAX.VTO 16KT NOSIG=
201010051800 METAR MRPV 051800Z 08012KT 9999 SCT020 SCT120 BKN250 24/16 A2999 RMK RN DST NE VEL.MAX.VTO 17KT NOSIG=
201010051900 METAR MRPV 051900Z 08012KT 9999 SCT020 BKN250 24/16 A2996 RMK VEL.MAX.VTO 17KT RN DST NE NOSIG=
201010052000 METAR MRPV 052000Z 08010KT 9999 SCT020 BKN250 25/17 A2994 RNK RN DST NE NOSIG=
201010052100 METAR MRPV 052100Z 08012KT 9999 SCT012 SCT120 BKN250 24/17 A2993 RMK PCPN DST NE NOSIG=
201010052200 METAR MRPV 052200Z 09012KT 9999 SCT010 SCT120 BKN250 23/16 A2994 PCPN DST NE NOSIG=
201010052300 METAR MRPV 052300Z 24006KT 9999 3000NW -RA BR FEW002 SCT120 BKN250 22/19 A2997 BECMG 5000 -RA BR=
201010052345 METAR MRPV 052345Z 00000KT 9999 1000N -RA BR SCT002 BKN120 22/17 A2998 TEMPO 5000 -RA BR=
201010060000 METAR MRPV NIL=
201010060100 METAR MRPV NIL=
201010060200 METAR MRPV NIL=
201010060300 METAR MRPV NIL=
201010060400 METAR MRPV NIL=
201010060500 METAR MRPV NIL=
201010060600 METAR MRPV NIL=
201010060700 METAR MRPV NIL=
201010060800 METAR MRPV NIL=
201010060900 METAR MRPV NIL=
201010061000 METAR MRPV NIL=
201010061100 METAR MRPV NIL=
201010061200 METAR MRPV 061200Z 09012KT 9999 SCT030 BKN100 21/16 A2999 RMK PCPN DST NE NOSIG=
201010061300 METAR MRPV 061300Z 10012KT 9999 FEW030 SCT100 BKN250 22/16 A3002 RMK PCPN DST NE NOSIG=
201010061400 METAR MRPV 061400Z 09012KT 9999 FEW030 SCT100 BKN250 23/17 A3004 RMK PCPN DST NE NOSIG=
201010061500 METAR MRPV 061500Z 08010KT 9999 FEW030 SCT120 BKN250 24/17 A3004 RN DUST IN APCH RNY/09 NOSIG=
201010061600 METAR MRPV 061600Z 08010KT 9999 FEW025 BKN250 26/17 A3003 RMK RN DST NE DU APCH RNY/09 NOSIG=
201010061601 METAR MRPV 061601Z 08010KT 9999 FEW025 BKN250 26/17 A3003 RMK RN DST NE DU APCH RNY/09 NOSIG=
201010061700 METAR MRPV 061700Z 08010KT 9999 FEW025 BKN250 26/17 A3003 RMK RN DST NE DU APCH RNY/09 NOSIG=
201010061701 METAR MRPV 061701Z 10010KT 9999 SCT020TCU SCT120 BKN250 27/17 A3001 RMK PCPN NE DU APCH RNY/09 NOSIG=
201010061800 METAR MRPV 061800Z 09010KT 9999 SCT015TCU SCT120 BKN250 26/18 A2997 RMK RN DST NW N DU APCH RNY/09 BECMG 24006KT VCSH=
201010061900 METAR MRPV 061900Z 27010KT 6000 2000N SHRA SCT010TCU BKN020 22/20 A2996 BECMG 3000 -RA BR=
201010062000 METAR MRPV 062000Z 26007KT 8000 3000NW SHRA SCT010TCU BKN030 23/20 A2994 BECMG 5000 -RA BR=
201010062100 METAR MRPV 062100Z 27008KT 5000 1000NW -RA BR SCT001 BKN015 23/20 A2993 RMK BECMG 3000 -RA BR BKN012=
201010062200 METAR MRPV 062200Z VRB02KT 4000 -TSRA BR SCT001 FEW008CB BKN014 21/19 A2993 BECMG 5000 -RA BR=
201010062300 METAR MRPV 062300Z VRB02KT 5000 -TSRA BR SCT001 FEW010CB BKN015 21/20 A2995 BECMG 3000 -RA BR=
201010070000 METAR MRPV 070000Z NIL=
201010070100 METAR MRPV NIL=
201010070200 METAR MRPV NIL=
201010070300 METAR MRPV NIL=
201010070400 METAR MRPV NIL=
201010070500 METAR MRPV NIL=
201010070600 METAR MRPV NIL=
201010070700 METAR MRPV NIL=
201010070800 METAR MRPV NIL=
201010070900 METAR MRPV NIL=
201010071000 METAR MRPV NIL=
201010071100 METAR MRPV NIL=
201010071200 METAR MRPV 071200Z 10010KT 9999 FEW012 BKN110 20/17 A2999 RMK POLVO APROX.PISTA 09 RN DST NE NOSIG=
201010071300 METAR MRPV 071300Z 10010KT 9999 4000NE SH RA SCT010 BKN100 21/16 A3001 RMK MX WND SPD 15KT DU NR RWY09 NOSIG=
201010071400 METAR MRPV 071400Z 11010G20KT 9999 4000NE SH RA SCT010 BKN100 22/16 A3003 RMK DU NR RWY09 NOSIG=
201010071500 METAR MRPV 071500Z 09014G24KT 9999 4000NE SHRA SCT008 23/16 A3003 RMK DU NR RWY09 NOSIG=
201010071600 METAR MRPV 071600Z 09013G23KT 9999 4000NE SHRA SCT012 23/16 A3004 RMK DU NR RWY09 NOSIG=
201010071700 METAR MRPV 071700Z 08011G21KT 9999 SCT012 25/16 A3002 RMK DU NR RWY09 NOSIG=
201010071800 METAR MRPV 071800Z 09010G20KT 9999 SCT015 26/14 A3000 NOSIG=
201010071900 METAR MRPV 071900Z 08010G20KT 9999 SCT015 SCT100 27/16 A2997 NOSIG=
201010072000 METAR MRPV 072000Z 09010KT 9999 SCT015 SCT100 26/16 A2994 RMK MX WND SPD 15KT NOSIG=
201010072100 METAR MRPV 072100Z 10010KT 9999 SCT020 SCT250 26/16 A2993 RMK CB DST SW NOSI G=
201010072200 METAR MRPV 072200Z 08012KT 9999 FEW020 BKN250 24/16 A2994 RMK GUST 17KT CB DST S SW NOSIG=
201010072300 METAR MRPV 072300Z 08010KT 9999 SCT020 BKN250 23/17 A2996 RMK RA QUAD E GUST 15KT=
201010080000 METAR MRPV NIL=
201010080100 METAR MRPV NIL=
201010080200 METAR MRPV NIL=
201010080300 METAR MRPV NIL=
201010080400 METAR MRPV NIL=
201010080500 METAR MRPV NIL=
201010080600 METAR MRPV NIL=
201010080700 METAR MRPV NIL=
201010080800 METAR MRPV NIL=
201010080900 METAR MRPV NIL=
201010081000 METAR MRPV NIL=
201010081100 METAR MRPV NIL=
201010081200 METAR MRPV 081200Z 09008KT 9999 SCT030 21/17 A3001 RMK DZ DST NW N NE E NOSI G=
201010081300 METAR MRPV 081300Z 09014KT 9999 FEW030 21/17 A3003 RMK DZ NE E FEW080 NOSIG=
201010081400 METAR MRPV 081400Z 11009KT 9999 RA SCT030 22/17 A3006 RMK VIS E SE 7000 DZ NW N NE GUST 15KT NOSIG=
201010081500 METAR MRPV 081500Z 11011KT 9999 SCT035 SCT250 23/17 A3006 RERA RMK VIS E 8KMS DUE RA DZ NW N NE GUST 17KT NOSIG=
201010081600 METAR MRPV 081600Z 11012KT 9999 SCT030 SCT250 23/17 A3004 RMK DZ DST NW N NE E GUST 19KT NOSIG=
201010081700 METAR MRPV 081700Z 09015KT 9999 FEW035 SCT250 24/17 A3004 RMK DZ DST NW N NE GUST 21KT NOSIG=
201010081800 METAR MRPV 081800Z 09012KT 9999 FEW040 BKN250 26/18 A3000 RMK DZ NW NE GUST 20KT NOSIG=
201010081900 METAR MRPV 081900Z 09014KT 9999 BKN035 25/18 A2997 RMK DZ DST NE GUST 20KT NOSIG=
201010082000 METAR MRPV 082000Z 09013KT 9999 FEW010 BKN035 25718 A2995 RMK DZ DST N NE TCU DST SW GUST 18KT NOSIG=
201010082100 METAR MRPV NIL=
201010082200 METAR MRPV 082200Z 09014KT 9999 VCSH VCFG FEW005 FEW010TCU SCT030 24/18 A2996 RMK VIS W/NW/N 8KM VEL MAX VTO 19KT NOSIG=
201010082300 METAR MRPV 082300Z 10008KT 9999 BCFG FEW010 BKN025 22/18 A2998 RERA RMK VIS W/NW 7KM NOSIG=
201010090000 METAR MRPV NIL=
201010090100 METAR MRPV NIL=
201010090200 METAR MRPV NIL=
201010090300 METAR MRPV NIL=
201010090400 METAR MRPV NIL=
201010090500 METAR MRPV NIL=
201010090600 METAR MRPV NIL=
201010090700 METAR MRPV NIL=
201010090800 METAR MRPV NIL=
201010090900 METAR MRPV NIL=
201010091000 METAR MRPV NIL=
201010091100 METAR MRPV NIL=
201010091200 METAR MRPV 091200Z 10014KT 9999 FEW030 BKN250 19/15 A3000 RMK FEW090 DZ NW N NE MX WND SPD 20KT NOSIG=
201010091300 METAR MRPV 091300Z 10013KT 9999 FEW025 BKN250 21/15 A3003 RMK VEL MAX VTO 18KT DZ DST NW/N/NE/E NOSIG=
201010091400 METAR MRPV 091400Z 10012KT 9999 FEW030 BKN250 22/16 A3004 RMK DZ DST NE VEL MAX VTO 17KT NOSIG=
201010091500 METAR MRPV 091500Z 09015KT 9999 FEW030 BKN300 23/16 A3006 RMK DZ DST N VEL MAX VTO 23KT NOSIG=
201010091600 METAR MRPV 091600Z 10012KT 9999 FEW035 BKN300 25/17 A3004 RMK VEL MAX VTO 17KT DU NR APCH RWY09 NOSIG=
201010091700 METAR MRPV 091700Z 09012KT 9999 FEW040 SCT300 26/17 A3002 RMK DU NR APCH RWY09 VEL MAX VTO 18KT NOSIG=
201010091800 METAR MRPV 091800Z 08014KT 9999 FEW040 SCT250 26/17 A3000 RMK FEW080 VEL MAX VTO 19KT NOSIG=
201010091900 METAR MRPV 091900Z 08013KT 9999 FEW040 SCT250 25/17 A2997 NOSIG=
201010092000 METAR MRPV 092000Z 08013KT 9999 FEW035 SCT090 25/17 A2994 RMK TCU DST S/SW LGT HZ ARND NOSIG=
201010092100 METAR MRPV 092100Z 09015KT 9999 VCSH FEW030 SCT090 24/17 A2994 RMK CB SHRA DST SW VEL.MAX.VTO 21KT HZ LEVE ARND NOSIG=
201010092200 METAR MRPV 092200Z 09013KT 9999 SCT025 SCT090 22/17 A2996 RMK DZ DST NE E TCU DST SW VEL.MAX.VTO 19KT NOSIG=
201010092300 METAR MRPV 092300Z 09014KT 9999 SCT025 BKN090 21/16 A2998 RMK RN DST NE E VEL.MAX.VTO 22KT NOSIG=
201010100000 METAR MRPV NIL=
201010100100 METAR MRPV NIL=
201010100200 METAR MRPV NIL=
201010100300 METAR MRPV NIL=
201010100400 METAR MRPV NIL=
201010100500 METAR MRPV NIL=
201010100600 METAR MRPV NIL=
201010100700 METAR MRPV NIL=
201010100800 METAR MRPV NIL=
201010100900 METAR MRPV NIL=
201010101000 METAR MRPV NIL=
201010101100 METAR MRPV NIL=
201010101200 METAR MRPV 101200Z 10010KT 9999 SCT010 21/13 A3000 NOSIG=
201010101300 METAR MRPV 101300Z 12010KT 9999 FEW015 SCT250 22/14 A3000 RMK VEL.MAX.VTO 15KT NOSIG=
201010101400 METAR MRPV 101400Z 10010KT 9999 FEW015 SCT250 24/16 A3002 NOSIG=
201010101500 METAR MRPV 101500Z 09010G20KT 9999 FEW015 SCT250 22/14 A3002 NOSIG=
201010101600 METAR MRPV 101600Z 09010G20KT 9999 FEW020 SCT250 25/16 A3001 NOSIG=
201010101700 METAR MRPV 101700Z 08012KT 9999 FEW020 SCT250 26/16 A2998 NOSIG=
201010101800 METAR MRPV 101800Z 08010KT 9999 FEW020 SCT250 27/17 A2996 RMK VEL.MAX.VTO 15KT NOSIG=
201010101900 METAR MRPV 101900Z 07010KT 9999 FEW020 BKN250 27/16 A2992 NOSIG=
201010102000 METAR MRPV 102000Z 07010KT 9999 SCT020 BKN250 26/17 A2990 RMK VEL.MAX.VTO 16KT NOSIG=
201010102100 METAR MRPV 102100Z 09012KT 9999 SCT020 BKN250 25/17 A2989 RMK VEL MAX VTO 17KT NOSIG=
201010102200 METAR MRPV 102200Z 09012KT 9999 FEW002 SCT120 BKN250 24/17 A2989 RMK PCPN DST SW VEL MAX VTO 17KT NOSIG=
201010102300 METAR MRPV 102300Z 09010KT 9999 4000NE SHRA FEW002 SCT120 BKN250 23/17 A2991 BECMG 24006KT=
201010102345 METAR MRPV 102345Z 08008KT 9999 3000N SHRA SCT002 SCT120 BKN250 22/17 A2993 BECMG 24006KT=
201010110000 METAR MRPV NIL=
201010110100 METAR MRPV NIL=
201010110200 METAR MRPV NIL=
201010110300 METAR MRPV NIL=
201010110400 METAR MRPV NIL=
201010110500 METAR MRPV NIL=
201010110600 METAR MRPV NIL=
201010110700 METAR MRPV NIL=
201010110800 METAR MRPV NIL=
201010110900 METAR MRPV NIL=
201010111000 METAR MRPV NIL=
201010111100 METAR MRPV NIL=
201010111200 METAR MRPV 111200Z 12008KT 9999 FEW020 SCT250 21/16 A2997 RMK RN DST NE NOSIG=
201010111300 METAR MRPV 111300Z 12010KT CAVOK 22/16 A2998 RMK SCT250 PCPN NE DST NOSIG=
201010111400 METAR MRPV 111400Z 10010KT CAVOK 24/17 A3000 RMK PCPN DST NE SCT250 NOSIG=
201010111500 METAR MRPV 111500Z 09012KT 9999 FEW020 SCT250 26/16 A3000 RMK PCPN DST NE NOSIG=
201010111600 METAR MRPV 111600Z 08008KT 9999 FEW020 SCT250 27/16 A2999 PCPN DST NE BECMG 24006KT=
201010111700 METAR MRPV 111700Z 10006KT 9999 FEW020 SCT250 29/16 A2995 BECMG 24006KT=
201010111800 METAR MRPV 111800Z 27012KT 9999 FEW015TCU BKN030 26/20 A2993 BECMG=
201010111900 METAR MRPV 111900Z 28010KT 9999 FEW015TCU SCT030 26/20 A2991 VMV 16KT BECMG VCTS VCSH=
201010112000 METAR MRPV 112000Z 27010KT 9999 3000N SHRA FEW010 BKN030 26/21 A2988 BECMG 6000 -TSRA=
201010112100 METAR MRPV 112100Z 26008KT 3000 -TSRA BR SCT001 FEW008CB BKN012 23/21 A2989 NOSIG=
201010112200 METAR MRPV 112200Z VRB02KT 5000 2000NW -RA BR SCT001 BKN015 20/20 A2991 BECMG 3000 -RA BR=
201010112300 METAR MRPV 112300Z 00000KT 3000 -RA BR SCT001 BKN012 21/20 A2992 NOSIG=
201010120000 METAR MRPV 120000Z 00000KT 3000 -RA BR SCT001 BKN012 21/20 A2993 NOSIG=
201010120100 METAR MRPV NIL=
201010120200 METAR MRPV NIL=
201010120300 METAR MRPV NIL=
201010120400 METAR MRPV NIL=
201010120500 METAR MRPV NIL=
201010120600 METAR MRPV NIL=
201010120700 METAR MRPV NIL=
201010120800 METAR MRPV NIL=
201010120900 METAR MRPV NIL=
201010121000 METAR MRPV NIL=
201010121100 METAR MRPV NIL=
201010121200 METAR MRPV 121200Z 09006KT CAVOK 21/17 A2996 RMK SCT250 POLVO APROX. PISTA 09 NOSIG=
201010121300 METAR MRPV 121300Z 11010KT CAVOK 23/18 A2997 RMK DU NR RWY09 SCT250 NOSIG=
201010121400 METAR MRPV 121400Z 11012KT 9999 FEW020 SCT250 24/18 A2998 RMK DU NR RWY09 NOSIG=
201010121500 METAR MRPV 121500Z 07010KT 9999 FEW025 SCT250 26/18 A2999 RMK MX WND SPD 15KT DU NR RWY09 NOSIG=
201010121600 METAR MRPV 121600Z 08010KT 9999 FEW025 SCT250 27/18 A2998 RMK DU NR RWY09 NOSIG=
201010121700 METAR MRPV 121700Z 07010KT 9999 FEW015TCU SCT030 28/18 A2997 RMK DU NR RWY09 BECMG 25008KT=
201010121800 METAR MRPV 121800Z 06008KT 9999 FEW015TCU SCT030 27/19 A2994 RMK DU RWY09 RA DST NW BECMG 25008KT=
201010121900 METAR MRPV 121900Z 09012KT 9999 FEW012TCU SCT030 28/18 A2990 RMK RA DST NW BECMG 25008KT=
201010122000 METAR MRPV 122000Z 05010KT 9999 3000NE SHRA FEW010CB BKN025 26/21 A2989 BECMG 25008KT 5000 -TSRA=
201010122100 METAR MRPV 122100Z 08010KT 9999 30000 NW -TSRA FEW008CB BKN025 26/19 A2988RM K BECMG 25008KT 6000 SHRA=
201010122200 METAR MRPV 122200Z 27004KT 3000 -TSRA BR SCT001 FEW008CB BKN012 23/21 A2991 NOSIG=
201010122300 METAR MRPV 122300Z VRB02KT 3000 -RA BR SCT001 BKN012 22/21 A2993=
201010130000 METAR MRPV NIL=
201010130100 METAR MRPV NIL=
201010130200 METAR MRPV NIL=
201010130300 METAR MRPV NIL=
201010130400 METAR MRPV NIL=
201010130500 METAR MRPV NIL=
201010130600 METAR MRPV NIL=
201010130700 METAR MRPV NIL=
201010130800 METAR MRPV NIL=
201010130900 METAR MRPV NIL=
201010131000 METAR MRPV NIL=
201010131100 METAR MRPV NIL=
201010131200 METAR MRPV 131200Z 08004KT 9999 FEW004 BKN250 21/18 A2996 RMK DU APCH RNY 09 PCPN DST NE CB DST SW NW NOSIG=
201010131300 METAR MRPV 131300Z 12005KT 9999 FEW010 SCT250 23/18 A2998 RMK DU APROXIMACIO N 09 CB DST W NOSIG=
201010131400 METAR MRPV 131400Z 11010KT 9999 SCT010 BKN250 24/18 A2999 RMK DU APROXIMACIO N 09 CB DST NW NOSIG=
201010131500 METAR MRPV NIL=
201010131600 METAR MRPV 131600Z 06010KT 9999 SCT010 BKN030 25/18 A3002 RMK RA DST NE NOSI G=
201010131700 METAR MRPV 131700Z 09011KT 9999 SCT010 BKN250 27/18 A2998 RMK CB NW NOSIG=
201010131800 METAR MRPV 131800Z 07010KT 9999 SCT010TCU SCT030 BKN250 28/19 A2995 RMK CB RA DST NW NOSIG=
201010131900 METAR MRPV 131900Z 09009KT 9999 SCT010TCU SCT030 BKN250 26/19 A2993 RMK CB NW RA NE NW BECMG 25007KT=
201010132000 METAR MRPV 132000Z 05010KT 9999 SCT010TCU BKN030 27/18 A2991 RMK BECMG 25007 KT=
201010132100 METAR MRPV 132100Z 10005KT 9999 4000NE SHRA SCT010TCU BKN030 26/18 A2990 BECMG 24006KT VCSH VCTS=
201010132200 METAR MRPV 132200Z 08010KT 9999 3000NE SHRA SCT010TCU BKN030 24/18 A2992 NOSIG=
201010132300 METAR MRPV 132300Z 10010KT 9999 FEW008 SCT030 BKN250 23/18 A2993 RMK RN DST NE NOSIG=
201010140000 METAR MRPV NIL=
201010140100 METAR MRPV NIL=
201010140200 METAR MRPV NIL=
201010140300 METAR MRPV NIL=
201010140400 METAR MRPV NIL=
201010140500 METAR MRPV NIL=
201010140600 METAR MRPV NIL=
201010140700 METAR MRPV NIL=
201010140800 METAR MRPV NIL=
201010140900 METAR MRPV NIL=
201010141000 METAR MRPV NIL=
201010141100 METAR MRPV NIL=
201010141200 METAR MRPV 141200Z 10010KT 9999 3000NE SHRA SCT010 BKN250 21/18 A2998 NOSIG=
201010141300 METAR MRPV 141300Z 10010G20KT 9999 3000NE SHRA SCT010 BKN250 22/16 A3001 NOSIG=
201010141400 METAR MRPV 141400Z 09015G25KT 9999 SCT015 BKN250 21/15 A3001 RMK CAUTION HIGH WINDS DZ DST NE NOSIG=
201010141500 METAR MRPV 141500Z 08018G28KT FEW012 BKN250 22/18 A3001 RMK CAUTION HIGH WINDS NOSIG=
201010141600 METAR MRPV 141600Z 10010G20KT 9999 FEW012 BKN250 24/17 A3001 RMK CAUTION HIGH WINDS NOSIG=
201010141700 METAR MRPV 141700Z 08015G25KT 9999 FEW012 BKN250 24/17 A3000 RMK CAUTION HIGH WINDS NOSIG=
201010141800 METAR MRPV 141800Z 07014G24KT 9999 SCT012 BKN250 23/16 A2998 RMK CAUTION HIGH WINDS NOSIG=
201010141900 METAR MRPV 141900Z 1010G20KT 9999 SCT012 BKN250 24/16 A2995 RMK CAUTION HIGH WINDS RN DST NE NOSIG=
201010142000 METAR MRPV 142000Z 08015G25KT 9999 SCT012 BKN250 24/16 A2992 RMK CAUTION HIGH WINDS RN DST NE NOSIG=
201010142100 METAR MRPV 142100Z 10010G20KT 9999 3000NE SHRA SCT012 BKN250 23/17 A2992 RMK PRECAUCION POR VIENTOS FUERTES NOSIG=
201010142200 METAR MRPV 142200Z 11010G20KT 9999 3000NE SHRA SCT012 BKN250 22/17 A2993 RMK PRECAUCION POR VIENTOS FUERTES NOSIG=
201010142300 METAR MRPV 142300Z 10010G20KT 9999 FEW012 BKN250 20/17 A2994 RMK PRECAUCION POR VIENTOS FUERTES NOSIG=
201010150000 METAR MRPV NIL=
201010150100 METAR MRPV NIL=
201010150200 METAR MRPV NIL=
201010150300 METAR MRPV NIL=
201010150400 METAR MRPV NIL=
201010150500 METAR MRPV NIL=
201010150600 METAR MRPV NIL=
201010150700 METAR MRPV NIL=
201010150800 METAR MRPV NIL=
201010150900 METAR MRPV NIL=
201010151000 METAR MRPV NIL=
201010151100 METAR MRPV NIL=
201010151200 METAR MRPV 151200Z 10012KT 9999 FEW010 SCT120 BKN250 20/16 A2998 RMK RA NE CB DST N NOSIG=
201010151300 METAR MRPV 151300Z 09012KT 9999 SCT015 BKN250 21/17 A3001 RMK POLVO APROX.PISTA 09 RN DST N CB DST NW NOSIG=
201010151400 METAR MRPV 151400Z 09010KT 9999 4000NE SHRA SCT015 BKN020 23/17 A3001 RMK CB DST NW SW POLVO APROX.PISTA 09 NOSIG=
201010151500 METAR MRPV 151500Z 09010G20KT 9999 FEW012 BKN250 25/18 A3000 RMK CB DST NW RN DST NE POLVO APROX.PISTA 09 NOSIG=
201010151600 METAR MRPV 151600Z 07010G20KT 9999 SCT015 BKN250 25/17 A3000 RMK RN DST NE NOSIG=
201010151700 METAR MRPV 151700Z 08011KT 9999 SCT015 BKN030 25/18 A3000 RMK RN DST NE NOSIG=
201010151800 METAR MRPV 151800Z 11012KT 9999 SCT015 BKN030 25/18 A2997 RMK RN DST NE NOSIG=
201010151900 METAR MRPV 151900Z 10012KT 9999 3000E SHRA SCT010 BKN030 23/18 A2995 RMK BECMG 6000 SHRA=
201010152000 METAR MRPV 152000Z 10010KT 7000 3000E SHRA SCT010 BKN020 21/19 A2994 NOSIG=
201010152100 METAR MRPV 152100Z 13006KT 8000 3000 NE SHRA SCT010 BKN020 21/19 A2994 NOSIG=
201010152200 METAR MRPV 152200Z 12004KT 7000 3000NE SHRA SCT010 BKN020 21/18 A2995 NOSIG=
201010152300 METAR MRPV 152300Z 12010KT 8000 3000E SHRA SCT010 BKN100 20/18 A2994 NOSIG=
201010160000 METAR MRPV NIL=
201010160100 METAR MRPV 160100Z NIL=
201010160200 METAR MRPV NIL=
201010160300 METAR MRPV NIL=
201010160400 METAR MRPV NIL=
201010160500 METAR MRPV NIL=
201010160600 METAR MRPV NIL=
201010160700 METAR MRPV NIL=
201010160800 METAR MRPV NIL=
201010160900 METAR MRPV NIL=
201010161000 METAR MRPV NIL=
201010161100 METAR MRPV NIL=
201010161200 METAR MRPV 161200Z 10010KT CAVOK 20/14 A3000 RMK BKN100 NOSIG=
201010161300 METAR MRPV 161300Z 12010KT CAVOK 21/16 A3002 RMK BKN100=
201010161400 METAR MRPV 161400Z 12010KT CAVOK 22/15 A3004 RMK BKN100 NOSIG=
201010161500 METAR MRPV 161500Z 10012KT CAVOK 23/15 A3005 RMK SCT100 BKN250=
201010161600 METAR MRPV 161600Z 09008KT 9999 FEW020 SCT100 BKN250 24/16 A3005 NOSIG=
201010161700 METAR MRPV 161700Z 08010KT 9999 SCT020 BKN250 25/17 A3003 BECMG 24008KT=
201010161800 METAR MRPV 161800Z 07010KT 9999 SCT020 BKN250 24/16 A3001 RN DST E SE BECMG 24008KT=
201010161900 METAR MRPV 161900Z 07010KT 9999 SCT020 BKN250 23/16 A2999 BECMG 24008KT=
201010162000 METAR MRPV 162000Z 08010KT 9999 SCT020 BKN250 25/16 A2996 MRK RN DST NE BECMG 24006KT=
201010162100 METAR MRPV 162100Z 07010KT 9999 FEW002 BKN030 22/17 A2997 RMK RA DST NE NW BECMG 29008KT=
201010162200 METAR MRPV 162200Z 07010KT 9999 FEW008 BKN030 22/16 A2997 RMK RA CB DST W BECMG 24008KT=
201010162300 METAR MRPV 162300Z 08008KT 9999 FEW002 SCT020 BKN250 22/16 A2999 RMK CB RA DST W BECMG 24008KT=
201010170000 METAR MRPV 170000Z NIL=
201010170100 METAR MRPV NIL=
201010170200 METAR MRPV NIL=
201010170300 METAR MRPV NIL=
201010170400 METAR MRPV NIL=
201010170500 METAR MRPV NIL=
201010170600 METAR MRPV NIL=
201010170700 METAR MRPV NIL=
201010170800 METAR MRPV NIL=
201010170900 METAR MRPV NIL=
201010171000 METAR MRPV NIL=
201010171100 METAR MRPV NIL=
201010171200 METAR MRPV 171200Z 11012KT 9999 FEW015 BKN100 19/15 A3003 NOSIG=
201010171300 METAR MRPV 171300Z 11010KT 9999 FEW015 BKN100 20/16 A3005 RMK MX WND SPD 15KT RA DST NE=
201010171400 METAR MRPV NIL=
201010171500 METAR MRPV 171500Z 12010KT 9999 FEW015 BKN100 23/16 A3008 RMK MX WND SPD 15KT RA DST NE NOSIG=
201010171600 METAR MRPV 171600Z 09010KT 9999 FEW015 BKN100 23/16 A3006 RMK MX WND SPD 15KT RA DST NE NOSIG=
201010171700 METAR MRPV 171700Z 08012KT 9999 FEW015 SCT100 BKN250 24/16 A3004 RMK RA DST NE TCU DST W NOSIG=
201010171800 METAR MRPV 171800Z 09010KT 9999 FEW015 OVC250 24/16 A3002 NOSIG=
201010171900 METAR MRPV 171900Z 10006KT 9999 FEW012 OVC250 25/17 A2999 RMK RA DST NE BECMG 24008KT=
201010172000 METAR MRPV 172000Z 27008KT 9999 FEW002 BKN022 22/19 A2997 RMK RA DST N NE BECMG 5000 -RA BR BKN015=
201010172100 METAR MRPV 172100Z 27010KT 5000 -RA BR SCT002 BKN015 21/19 A2996 RMK BECMG 3000 -RA BR=
201010172200 METAR MRPV 172200Z 28004KT 5000 2000NW -RA BR SCT002 BKN015 21/19 A2997 BECM G 3000 -RA BR=
201010172300 METAR MRPV 172300Z 10004KT 5000 2000NW -RA BR SCT002 BKN015 20/17 A2999=
201010180000 METAR MRPV NIL=
201010180100 METAR MRPV NIL=
201010180200 METAR MRPV NIL=
201010180300 METAR MRPV NIL=
201010180400 METAR MRPV NIL=
201010180500 METAR MRPV NIL=
201010180600 METAR MRPV NIL=
201010180700 METAR MRPV NIL=
201010180800 METAR MRPV NIL=
201010180900 METAR MRPV NIL=
201010181000 METAR MRPV NIL=
201010181100 METAR MRPV NIL=
201010181200 METAR MRPV 181200Z 00000KT 5000 -RA BR SCT002 BKN015 19/17 A3002 RMK DU APCH RNY/09 NOSIG=
201010181300 METAR MRPV 181300Z 00000KT 8000 2000NE BCFG FEW002 SCT100 BKN250 21/18 A3005 RMK DU APROXIMACION 09 NOSIG=
201010181400 METAR MRPV 181400Z 17003KT 9999 FEW030 SCT100 25/22 A2992=
201010181500 METAR MRPV 181500Z 27004KT 9999 SCT008 SCT025 24/18 A3006 RMK DU APROXIMACIO N 09 NOSIG=
201010181600 METAR MRPV 181600Z 28006KT 9999 SCT008 SCT025 24/19 A3004 RMK DU APROXIMACIO N NOSIG=
201010181700 METAR MRPV 181700Z 27010KT 9999 FEW008TCU BKN025 24/19 A3002 RMK DU APROXIMA CION 09 BECMG VCTS VCSH=
201010181800 METAR MRPV 181800Z 28010KT 9999 FEW010TCU SCT025 25/19 A3000 BECMG=
201010181900 METAR MRPV 181900Z 27010KT 9999 SCT010TCU BKN025 24/19 A2997 BECMG=
201010182000 METAR MRPV 182000Z 28010KT 9999 SCT004TCU BKN025 2419 A2996 RMK CB DSTE BECM G VCSH VCTS=
201010182100 METAR MRPV 182100Z 27012KT 9999 FEW004TCU BKN025 23/20 A2994 RMK CB DST E BECMG VCTS VCSH=
201010182200 METAR MRPV 182200Z 28012KT 6000 2000N BCFG SCT002 BKN015 21/19 A2994 RMK CB DST E BECMG 3000 -RA BR=
201010182300 METAR MRPV 182300Z 28008KT 3000 -RA BR SCT001 BKN010 21/19 A2995 NOSIG=
201010190000 METAR MRPV NIL=
201010190100 METAR MRPV NIL=
201010190200 METAR MRPV NIL=
201010190300 METAR MRPV NIL=
201010190400 METAR MRPV NIL=
201010190500 METAR MRPV NIL=
201010190600 METAR MRPV NIL=
201010190700 METAR MRPV NIL=
201010190800 METAR MRPV NIL=
201010190900 METAR MRPV NIL=
201010191000 METAR MRPV NIL=
201010191100 METAR MRPV NIL=
201010191200 METAR MRPV 191200Z 00000KT 4000 -RA BR SCT001 BKN008 19/18 A3003 NOSIG=
201010191300 METAR MRPV 191300Z 00000KT 6000 2000N BCFG FEW001 BKN020 21/18 A3005 RMK DU NR APCH RWY09 BECMG 9999=
201010191400 METAR MRPV 191400Z 191403KT 9999 FEW006 SCT030 23/20 A3009 RMK SCT080 VIS 8KM SW DUE LOW ST NOSIG=
201010191500 METAR MRPV 191500Z 27004KT 8000 3000NW BCFG SCT002 BKN020 22/19 A3006 RMK DU NR APCH RWY09 BECMG 5000=
201010191600 METAR MRPV 191600Z 28010KT 8000 3000NW BCFG SCT002 BKN020 23/19 A3005 RMK DU NR APCH RWY09 BECMG 5000=
201010191700 METAR MRPV 191700Z 28010KT 8000 FEW006 BKN025 24/19 A3004 RMK HZ ARND BECMG 9999=
201010191800 METAR MRPV 191800Z 28010KT 8000 SCT004 BKN025 23/19 A3001 RMK HZ ARND NOSIG=
201010191900 METAR MRPV 191900Z 29010KT 8000 FEW004TCU BKN025 25/20 A2999 RMK HZ ARND BECMG VCTS VCSH=
201010192000 METAR MRPV 192000Z 28012KT 9999 FEW006TCU BKN025 23/20 A2996 BECMG=
201010192100 METAR MRPV 192100Z 27010KT 9999 VCSH SCT008TCU BKN025 24/19 A2995 RMK VEL.MAX.VTO 15KT VCSH E SE BECMG SHRA=
201010192200 METAR MRPV 192200Z 28010KT 9999 VCSH SCT008TCU SCT250 23/19 A2995 RMK VEL.MAX.VTO 15KT VCSH E ESE BECMG SHRA=
201010192300 METAR MRPV 192300Z 29008KT 3000 -RA BR SCT001 BKN012 21/20 A2997 NOSIG=
201010200000 METAR MRPV NIL=
201010200100 METAR MRPV NIL=
201010200200 METAR MRPV NIL=
201010200300 METAR MRPV NIL=
201010200400 METAR MRPV NIL=
201010200500 METAR MRPV NIL=
201010200600 METAR MRPV NIL=
201010200700 METAR MRPV NIL=
201010200800 METAR MRPV NIL=
201010200900 METAR MRPV NIL=
201010201000 METAR MRPV NIL=
201010201100 METAR MRPV NIL=
201010201200 METAR MRPV 201200Z 00000KT 9999 4000E BR FEW250 18/17 A3002 RMK DU APROXIMAC ION PISTA 09 NOSIG=
201010201300 METAR MRPV 201300Z 00000KT CAVOK 21/18 A3004 RMK FEW250 POLVO APROX.PISTA 09 HZ W=
201010201400 METAR MRPV 201400Z 00000KT 9999 NSC 23/18 A3005 RMK HZ LEVE ARND POLVO APROX.PISTA 09 TEMPO 24005KT=
201010201500 METAR MRPV 201500Z 28003KT 9999 FEW035 24/18 A3005 RMK HZ LEVE ARND POLVO APROX.PISTA 09 NOSIG=
201010201600 METAR MRPV 201600Z 29006KT 9999 FEW030 25/19 A3005 NOSIG=
201010201700 METAR MRPV NIL=
201010201800 METAR MRPV 201800Z 29009KT 9999 SCT035 26/19 A3000 RMK TCU DST SW NOSIG=
201010201900 METAR MRPV 201900Z 28010KT 9999 FEW020TCU BKN030 26/20 A2997 RMK VEL.MAX.VTO 15KT TEMPO 8000 VCSH=
201010202000 METAR MRPV 202000Z 27006KT 9999 VCSH SCT035 26/19 A2993 RMK TCU SHRA SE VEL.MAX.VTO 12KT TEMPO 8000 SHRA=
201010202100 METAR MRPV 202100Z 28009KT 9999 VCSH FEW015TCU FEW030 26/20 A2993 RMK SH NW NOSIG=
201010202200 METAR MRPV 202200Z 28009KT 9999 FEW012CB BKN020 24/20 A2994 RMK TEMPO 5000 -RA BR BKN012=
201010202300 METAR MRPV 202300Z 28010KT 8000 VCFG FEW005 FEW010TCU BKN018 22/19 A2997 RMK VIS S 5KMS TEMPO 5000 -RA BR BKN012=
201010210000 METAR MRPV NIL=
201010210100 METAR MRPV NIL=
201010210200 METAR MRPV NIL=
201010210300 METAR MRPV NIL=
201010210400 METAR MRPV NIL=
201010210500 METAR MRPV NIL=
201010210600 METAR MRPV NIL=
201010210700 METAR MRPV NIL=
201010210800 METAR MRPV NIL=
201010210900 METAR MRPV NIL=
201010211000 METAR MRPV NIL=
201010211100 METAR MRPV NIL=
201010211200 METAR MRPV 211200Z 00000KT 4000 BR FEW002 SCT008 19/18 A3001 RMK VIS 3KM S/SW/W TEMPO BKN008=
201010211300 METAR MRPV 211300Z 00000KT 9999 4000W BR FEW002 SCT250 21/19 A3003 RMK FEW12 0 TEMPO 24005KT=
201010211400 METAR MRPV 211400Z 00000KT 9999 BCFG FEW003 SCT120 22/19 A3004 VIS W NW NE 6KMS TEMPO 24005KT=
201010211500 METAR MRPV 211500Z 06002KT 9999 VCFG FEW005 BKN100 24/18 A3005 RMK FEW040 VIS W 8KMS TEMPO 24004KT=
201010211600 METAR MRPV 211600Z 24005KT 9999 FEW040 SCT100 26/17 A3003 RMK VIS SW W 7KMS DUE HZ HZY TCU DST S NOSIG=
201010211700 METAR MRPV 211700Z 28007KT 7000 FEW020TCU FEW030 25/20 A3000 RMK HZ ARND NOSIG=
201010211800 METAR MRPV 211800Z 27004KT 7000 SCT015TCU BKN025 24/20 A2997 RERA HZY TEMPO 5000 SHRA=
201010211900 METAR MRPV 211900Z 29007KT 8000 SHRA VCTS SCT012TCU BKN020 24/21 A2994 TS N VIS N NW 5000 KMS TEMPO 3000 TSRA SCT010CB=
201010212000 METAR MRPV 212000Z 24006KT 3000 SHRA VCTS SCT007CB BKN010 20/19 A2993 RETS RMK TS W PISTA HUMEDA NOSIG=
201010212100 METAR MRPV 212100Z 00000KT 9999 4000W -RA BR FEW003 BKN018 20/19 A2992 RMK TS DST SW WET RWY NOSIG=
201010212200 METAR MRPV 212200Z 00000KT 9999 SHRA FEW010TCU FEW040 SCT120 21/20 A2992 RMK VIS 7KM S SW WT RWY NOSIG=
201010212300 METAR MRPV 212300Z 30002KT 4000 BR SCT003 BKN010 21/20 A2994 RMK VIS S UNL NOSIG=
201010220000 METAR MRPV 220000Z NIL=
201010220100 METAR MRPV NIL=
201010220200 METAR MRPV NIL=
201010220300 METAR MRPV NIL=
201010220400 METAR MRPV NIL=
201010220500 METAR MRPV NIL=
201010220600 METAR MRPV NIL=
201010220700 METAR MRPV NIL=
201010220800 METAR MRPV NIL=
201010220900 METAR MRPV NIL=
201010221000 METAR MRPV NIL=
201010221100 METAR MRPV NIL=
201010221200 METAR MRPV 221200Z 08005KT 9999 SCT030 BKN100 20/15 A3000 RMK RN DST NE E PISTA HUMEDA NOSIG=
201010221300 METAR MRPV 221300Z 09011KT 9999 FEW040 BKN100 20/16 A3003 RMK RA DST E SE WT RWY NOSIG=
201010221400 METAR MRPV 221400Z 00000KT 9999 FEW035 BKN100 22/16 A3005 RMK RA DST N NE E SE TEMPO -RA=
201010221500 METAR MRPV 221500Z 11006KT 9999 FEW040 BKN100 23/17 A3006 RMK RA DST NE ESE TEMPO -RA=
201010221600 METAR MRPV 221600Z 11010KT CAVOK 22/16 A3006 RMK SCT070 BKN100 RA DST E TEMPO -RA=
201010221700 METAR MRPV 221700Z 09010KT CAVOK 23/16 A3004 RMK SCT080 BKN100 NOSIG=
201010221800 METAR MRPV 221800Z 08011KT 9999 FEW040 SCT120 25/16 A2999 RMK SCT250 TEMPO 28004KT=
201010221900 METAR MRPV 221900Z 07012KT 9999 SCT040 BKN100 24/16 A2997 RMK MX WND SPD 17KT NOSIG=
201010222000 METAR MRPV 222000Z 08014KT 9999 SCT040 BKN100 24/16 A2995 RMK RA DST E NOSIG=
201010222100 METAR MRPV 222100Z 09013KT 9999 FEW030 BKN100 24/15 A2993 RMK RA E SE GUST 18KT NOSIG=
201010222200 METAR MRPV 222200Z 10011KT 9999 SCT030 BKN100 22/15 A2994 RMK VIS E SE 8KMS DUE RA TCU DST SW W TEMPO RA=
201010222300 METAR MRPV 222300Z 12006KT 9999 FEW035 SCT090 BKN120 21/16 A2996 RMK RA DST GUST 12KT TEMPO -RA=
201010230000 METAR MRPV NIL=
201010230100 METAR MRPV NIL=
201010230200 METAR MRPV NIL=
201010230300 METAR MRPV NIL=
201010230400 METAR MRPV NIL=
201010230500 METAR MRPV NIL=
201010230600 METAR MRPV NIL=
201010230700 METAR MRPV NIL=
201010230800 METAR MRPV NIL=
201010230900 METAR MRPV NIL=
201010231000 METAR MRPV NIL=
201010231100 METAR MRPV NIL=
201010231200 METAR MRPV 231200Z 00000KT CAVOK 16/14 A3000 RMK CB DST SW SCT250 NOSIG=
201010231300 METAR MRPV 231300Z 12004KT CAVOK 24/14 A3002 RMK CB DST SW BKN250 BCMG 25006 KT=
201010231400 METAR MRPV NIL=
201010231500 METAR MRPV 231500Z 25006KT 9999 FEW030 BKN250 23/17 A3004 RMK CB DST S NOSIG=
201010231600 METAR MRPV 231600Z 28006KT 9999 SCT020 BBKN250 24/17 A3004 BECMG VCSH=
201010231700 METAR MRPV NIL=
201010231800 METAR MRPV 231800Z 26010KT 9999 4000NE SHRA SCT012TCU BKN250 24/20 A2999 BECMG 6000 +SHRA=
201010231900 METAR MRPV 231900Z 28008KT 9999 3000NE SHRA FEW010CB BKN030 23/19 A2996 RMK BECMG 5000 TS SHRA=
201010232000 METAR MRPV 232000Z VRB02KT 5000 2000W -RA BR FEW010CB BKN020 22/19 A2995 RMK BECMG 3000 -RA BR=
201010232100 METAR MRPV 232100Z 28004KT 2000 RA BR SCT001 BKN008 20/19 A2995 BECMG 5000 -RA BR=
201010232200 METAR MRPV 232200Z 00000KT 5000 2000NW -RA BR SCT002 BKN015 20/19 A2994=
201010232300 METAR MRPV 232300Z 00000KT 7000 3000W -RA BR FEW002 BKN020 20/18 A2996 NOSIG=
201010240000 METAR MRPV NIL=
201010240100 METAR MRPV NIL=
201010240200 METAR MRPV NIL=
201010240300 METAR MRPV NIL=
201010240400 METAR MRPV NIL=
201010240500 METAR MRPV NIL=
201010240600 METAR MRPV NIL=
201010240700 METAR MRPV NIL=
201010240800 METAR MRPV NIL=
201010240900 METAR MRPV NIL=
201010241000 METAR MRPV NIL=
201010241100 METAR MRPV NIL=
201010241200 METAR MRPV 241200Z 00000KT 9999 FEW030 SCT120 BKN250 19/18 A3000 RMK CB DST SW NOSIG=
201010241300 METAR MRPV 241300Z 10004KT CAVOK 21/18 A3001 RMK CB DST SW/W SCT120 BKN250=
201010241400 METAR MRPV 241400Z 10006KT CAVOK 24/17 A3000 RMK FEW120 BKN250 CB DST W NOSIG=
201010241500 METAR MRPV 241500Z 12007KT 9999 FEW030 BKN250 26/18 A3001 RMK CB DST W NOSIG=
201010241600 METAR MRPV 241600Z 08008KT 9999 SCT020 BKN250 27/17 A3000 RMK TCU DST S/SW/NW BECMG 25006KT=
201010241700 METAR MRPV 241700Z 27010KT 9999 VCSH FEW012TCU SCT030 FEW250 24/20 A2999 RMK SH DST NE BECMG VCTS=
201010241800 METAR MRPV 241800Z 28012KT 9999 4000NE SHRA FEW010CB BKN030 24/20 A2996 BECM G 3000NE -TSRA=
201010241900 METAR MRPV 241900Z 26008KT 2000 -TSRA SCT004CB BKN015 22/20 A2995 BECMG 5000 -RA BR=
201010242000 METAR MRPV 242000Z VRB02KT 5000 -TSRA BR FEW008CB BKN015 20/19 A2993 NOSIG=
201010242100 METAR MRPV 242100Z VRB02KT 7000 3000 NE -SHRA SCT002 BKN020 21/19 A2991=
201010242200 METAR MRPV 242200Z 28005KT 5000 2000N -RA BR SCT001 BKN015 21/19 A2992 BECMG 3000 -RA BR BKN012=
201010242300 METAR MRPV 242300Z 28003KT 1000 -RA BR SCT001 OVC004 20/20 A2994 NOSIG=
201010250000 METAR MRPV NIL=
201010250100 METAR MRPV NIL=
201010250200 METAR MRPV NIL=
201010250300 METAR MRPV NIL=
201010250400 METAR MRPV NIL=
201010250500 METAR MRPV NIL=
201010250600 METAR MRPV NIL=
201010250700 METAR MRPV NIL=
201010250800 METAR MRPV NIL=
201010250900 METAR MRPV NIL=
201010251000 METAR MRPV NIL=
201010251100 METAR MRPV NIL=
201010251200 METAR MRPV 251200Z 00000KT CAVOK 17/16 A2996 RMK CB DST SW SCT250 NOSIG=
201010251300 METAR MRPV 251300Z VRB02KT CAVOK 19/18 A2998 RMK FEW250 CB DST SW NOSIG=
201010251400 METAR MRPV 251400Z 00000KT CAVOK 22/17 A2998 RMK FEW250 NOSIG=
201010251500 METAR MRPV 251500Z VRB02KT 9999 FEW020 SCT250 25/18 A2997 BECMG 25006KT=
201010251600 METAR MRPV 251600Z 28010KT 9999 SCT010 25/19 A2997 BECMG VCSH=
201010251700 METAR MRPV 251700Z 27010KT 9999 4000NE SHRA FEW020TCU SCT030 24/20 A2995 BECMG VCTS=
201010251800 METAR MRPV 251800Z 27011KT 9999 4000NE SHRA FEW010CB SCT030 24/20 A2993 BECMG -TSRA=
201010251900 METAR MRPV 251900Z 28010KT 9999 4000NE SHRA FEW010CB BKN030 24/20 A2991 RMK BECMG -TSRA=
201010252000 METAR MRPV 252000Z 26008KT 5000 2000NE -TSRA BR FEW004CB BKN015 23/21 A2991 RMK BECMG 3000 -TSRA BR BKN012=
201010252100 METAR MRPV 252100Z 28010KT 5000 2000N -TS RA BR FEW002CB BKN015 22/20 A2988 BECMG 3000-RA BR=
201010252200 METAR MRPV 252200Z 30008KT 4000 -RA BR SCT002 BKN014 20/19 A2989 BECMG 5000 -RA BR BKN015=
201010252300 METAR MRPV 252300Z 28006KT 2000 -RA BR SCT001 OVC004 20/19 A2991 NOSIG=
201010260000 METAR MRPV NIL=
201010260100 METAR MRPV NIL=
201010260200 METAR MRPV NIL=
201010260300 METAR MRPV NIL=
201010260400 METAR MRPV NIL=
201010260500 METAR MRPV NIL=
201010260600 METAR MRPV NIL=
201010260700 METAR MRPV NIL=
201010260800 METAR MRPV NIL=
201010260900 METAR MRPV NIL=
201010261000 METAR MRPV NIL=
201010261100 METAR MRPV NIL=
201010261200 METAR MRPV 261200Z 00000KT CAVOK 18/17 A2995 RMK SCT250 TCU DST W/SW HZ W NOSIG=
201010261300 METAR MRPV 261300Z 00000KT CAVOK 20/18 A2997 RMK SCT300 HZ W TCU SW TEMPO 24005KT=
201010261400 METAR MRPV 261400Z 08006 CAVOK 24/18 A2998 RMK HZ W SCT300 TCU W NOSIG=
201010261401 METAR MRPV 261401Z 08006KT CAVOK 24/18 A2998 RMK HZ W SCT300 TCU W NOSIG=
201010261500 METAR MRPV NIL=
201010261600 METAR MRPV 261600Z 27006KT 9999 SCT030 24/20 A2999 RMK VIS W NW 8KMS DUE HZ NOSIG=
201010261700 METAR MRPV 261700Z 28011KT 9999 SCT030 25/20 A2998 RMK VIS N 8KMS DUE HZ NOSIG=
201010261800 METAR MRPV 261800Z 28011KT 9999 FEW015TCU SCT025 25/20 A2996 VIS N 8KMS DUE HZ TEMPO 8000 VCSH=
201010261900 METAR MRPV 261900Z 27008KT 9999 VCSH FEW012CB SCT025 24/19 A2993 RMK RASH W SW VIS N 8KMS DUE HZ RN SE S TEMPO 6000 SHRA=
201010262000 METAR MRPV 262000Z 26002KT 9999 3000NE -RA FEW010 SCT020 23/20 A2991 RN ARND TEMPO 6000 RA=
201010262100 METAR MRPV 262100Z 06004KT 3000 RA FEW005 SCT020 SCT080 21/19 A2993 RMK VIS S UNL TEMPO 2000 RA=
201010262200 METAR MRPV 262200Z 32003KT 8000 -RA FEW006 SCT020 SCT080 20/18 A2992 TEMPO 6000 -RA=
201010262300 METAR MRPV 262300Z 00000KT 9999 FEW006 SCT025 SCT250 20/18 A2993 RERA RMK CB DST N NOSIG=
201010270000 METAR MRPV 270000Z NIL=
201010270100 METAR MRPV NIL=
201010270200 METAR MRPV NIL=
201010270300 METAR MRPV NIL=
201010270400 METAR MRPV NIL=
201010270500 METAR MRPV NIL=
201010270600 METAR MRPV NIL=
201010270700 METAR MRPV NIL=
201010270800 METAR MRPV NIL=
201010270900 METAR MRPV NIL=
201010271000 METAR MRPV NIL=
201010271100 METAR MRPV NIL=
201010271200 METAR MRPV NIL=
201010271300 METAR MRPV NIL=
201010271400 METAR MRPV NIL=
201010271500 METAR MRPV 271500Z 00000KT CAVOK 24/18 A3004 RMK BKN250 LGT HZ ARND TEMPO 24005KT=
201010271600 METAR MRPV 271600Z 26002KT 9999 FEW045 BKN250 25/17 A3004 RMK HZY ARND NOSIG=
201010271700 METAR MRPV 271700Z 27006KT 9999 FEW040 BKN300 25/19 A3003 NOSIG=
201010271800 METAR MRPV 271800Z 27008KT 9999 FEW020TCU BKN035 25/20 A3000 RMK MX WND SPD 13KT TEMPO 8000 VCSH BKN015TCU=
201010271900 METAR MRPV 271900Z 27005KT 9999 SCT015TCU BKN025 24/21 A2997 TEMPO 6000 SHRA BKN015TCU=
201010272000 METAR MRPV 272000Z 27005KT 9999 VCSH FEW015TCU BKN025 24/20 A2995 RMK SH SE NE TEMPO 6000 SHRA=
201010272100 METAR MRPV 272100Z 26005KT 7000 -RA VCSH BCFG FEW006 FEW010 BKN020 23/20 A2994 RMK RASH DST SE TEMPO 5000 SHRA BR BKN010=
201010272200 METAR MRPV 272200Z 28006KT 4000 RA BR SCT002 BKN006 22/20 A2995 NOSIG=
201010272300 METAR MRPV 272300Z 28004KT 3500 -RA BR SCT002 BKN006 21/20 A2998 NOSIG=
201010280000 METAR MRPV NIL=
201010280100 METAR MRPV NIL=
201010280200 METAR MRPV NIL=
201010280300 METAR MRPV NIL=
201010280400 METAR MRPV NIL=
201010280500 METAR MRPV NIL=
201010280600 METAR MRPV NIL=
201010280700 METAR MRPV NIL=
201010280800 METAR MRPV NIL=
201010280900 METAR MRPV NIL=
201010281000 METAR MRPV NIL=
201010281100 METAR MRPV NIL=
201010281200 METAR MRPV 281200Z 11006KT CAVOK 20/16 A2998 RMK BKN250 CB DST S NOSIG=
201010281300 METAR MRPV 281300Z 11004KT CAVOK 21/16 A3000 RMK BKN250 CB DST S NS=
201010281400 METAR MRPV 281400Z 08007KT CAVOK 24/17 A3001 RMK BKN250 CB DST S SE NOSIG=
201010281500 METAR MRPV 281500Z 07011KT 9999 FEW045 BKN250 25/17 A3002 RMK CB DST N GUST 16KT NOSIG=
201010281600 METAR MRPV 281600Z 06008KT 9999 BKN045 SCT250 25/17 A3002 RMK GUST 13KT NOSI G=
201010281700 METAR MRPV 281700Z 08009KT 9999 BKN040 SCT250 25/18 A3000 RMK RA NE TEMPO RA=
201010281800 METAR MRPV 281800Z 06010KT 9999 SCT040 BKN250 26/18 A2997 RMK CB DST NE DZ N NE E TEMPO RA=
201010281900 METAR MRPV 281900Z 07010KT 9999 -RA FEW005 BKN030 25/18 A3000 RMK VIS NE 7000 GUST 15KT NOSIG=
201010282000 METAR MRPV 282000Z 08012KT 9999 FEW008 SCT025 BKN100 25/18 A2992 RMK CB DST NE DZ DST N NE TEMPO RA=
201010282100 METAR MRPV 282100Z 06007KT 9999 FEW012 SCT025 BKN040 24/18 A2992 RMK DZ DST N NE TEMPO 30003KT=
201010282200 METAR MRPV 282200Z 09004KT 9999 -DZ FEW010 BKN025 23/18 A2991 RMK RA DST NE TEMPO 24004KT=
201010282300 METAR MRPV 282300Z 10005KT 9999 VCFG SCT025 BKN250 23/17 A2991 RMK VIS 8000 NW TEMPO 24003KT=
201010290000 METAR MRPV 290000Z NIL=
201010290100 METAR MRPV NIL=
201010290200 METAR MRPV NIL=
201010290300 METAR MRPV NIL=
201010290400 METAR MRPV NIL=
201010290500 METAR MRPV NIL=
201010290600 METAR MRPV NIL=
201010290700 METAR MRPV NIL=
201010290800 METAR MRPV NIL=
201010290900 METAR MRPV NIL=
201010291000 METAR MRPV NIL=
201010291100 METAR MRPV NIL=
201010291200 METAR MRPV 291200Z 12012KT CAVOK 19/16 A2996 RMK BKN250 NOSIG=
201010291300 METAR MRPV 291300Z 12012KT CAVOK 21/16 A2998 RMK BKN250 NOSIG=
201010291400 METAR MRPV 291400Z 12010KT CAVOK 23/17 A2998 RMK VL MX VTO 16KT BKN250 NOSIG=
201010291500 METAR MRPV 291500Z 11010KT 9999 FEW025 BKN250 25/17 A3001 NOSIG=
201010291600 METAR MRPV 291600Z 08010KT 9999 FEW025 BKN250 25/16 A3001 RMK VL MX VTO 15KT NOSIG=
201010291700 METAR MRPV 291700Z 27008KT 9999 SCT025 BKN250 25/19 A2999 BECMG VCSH=
201010291800 METAR MRPV 291800Z 25007KT 9999 4000E SHRA FEW010TCU SCT025 BKN250 25/19 A2996 BECMG VCTS=
201010291900 METAR MRPV 291900Z 11006KT 9999 FEW010TCU SCT025 BKN250 26/18 A2993 NOSIG=
201010292000 METAR MRPV 292000Z 07008KT 9999 2000NW TSRA FEW008CB BKN030 25/18 A2991=
201010292100 METAR MRPV 292100Z 07008KT 9999 4000NW -SHRA SCT010 BKN250 23/18 A2990 NOSIG=
201010292200 METAR MRPV 292200Z 08010KT 9999 SCT010 BKN250 22/17 A2991 RMK TS DST SW RN DST E NOSIG=
201010292300 METAR MRPV 292300Z 09010KT 9999 4000NE RA SCT008 BKN030 22/17 A2995 NOSIG=
201010300000 METAR MRPV NIL=
201010300100 METAR MRPV NIL=
201010300200 METAR MRPV NIL=
201010300300 METAR MRPV NIL=
201010300400 METAR MRPV NIL=
201010300500 METAR MRPV NIL=
201010300600 METAR MRPV NIL=
201010300700 METAR MRPV NIL=
201010300800 METAR MRPV NIL=
201010300900 METAR MRPV NIL=
201010301000 METAR MRPV NIL=
201010301100 METAR MRPV NIL=
201010301200 METAR MRPV 301200Z 10010KT 9999 4000NE -SHRA SCT010 BKN250 21/16 A2998 NOSIG=
201010301300 METAR MRPV 301300Z 09012KT 9999 FEW010 BKN250 22/17 A3000 RMK POLVO APROX. PISTA 09 RN DST NE NOSIG=
201010301400 METAR MRPV NIL=
201010301500 METAR MRPV 301500Z 09012KT 9999 FEW012 BKN250 24/18 A3003 RMK POLVO APROX. PISTA 09 VEL.MAX.VTO. 17KT RN DST NE NOSIG=
201010301600 METAR MRPV 301600Z 08012KT 9999 RA SCT010 BKN030 23/17 A3002 RMK VEL.MAX.VTO 17KT RN NE NOSIG=
201010301700 METAR MRPV 301700Z 09010KT 9999 SCT010 BKN030 23/18 A3000 RMK CB DST W RN DST NE VEL.MAX.VTO. 15KT NOSIG=
201010301800 METAR MRPV 301800Z 07011KT 9999 SCT020 BKN250 26/18 A2996 RMK VEL.MAX.VTO. 16KT CB DST W RN DST NE NOSIG=
201010301900 METAR MRPV 301900Z 08010KT 9999 SCT015 BKN250 27/18 A2992 RMK CB DST W RN DST NE NOSIG=
201010302000 METAR MRPV 302000Z 09010KT 9999 4000NE SHRA SCT012 BKN030 25/18 A2991 RMK TCU DST SW NW NOSIG=
201010302100 METAR MRPV 302100Z 09010KT 8000 3000NW -SHRA FEW010TCU BKN025 22/19 A2990 RMK BECMG 5000 SHRA=
201010302200 METAR MRPV 302200Z 09008KT 9999 3000NW -RA FEW004 BKN025 22/18 A2991 BECMG 24006KT=
201010302300 METAR MRPV 302300Z 22004KT 8000 2000W VCFG BCFG SCT001 BKN020 21/20 A2993 BECMG 2000 -RA BR BKN012=
201010302345 METAR MRPV 302345Z 28004KT 2000 -RA BR SCT001 BKN010 20/20 A2994 NOSIG=
201010310000 METAR MRPV NIL=
201010310100 METAR MRPV NIL=
201010310200 METAR MRPV NIL=
201010310300 METAR MRPV NIL=
201010310400 METAR MRPV NIL=
201010310500 METAR MRPV NIL=
201010310600 METAR MRPV NIL=
201010310700 METAR MRPV NIL=
201010310800 METAR MRPV NIL=
201010310900 METAR MRPV NIL=
201010311000 METAR MRPV NIL=
201010311100 METAR MRPV NIL=
201010311200 METAR MRPV 311200Z 11010KT 9999 FEW020 20/16 A2999 RMK RA DST NE NOSIG=
201010311300 METAR MRPV 311300Z 12010KT 9999 FEW020 22/16 A3000 PCPN DST NE NOSIG=
201010311400 METAR MRPV 311400Z 10010KT 9999 FEW020 23/17 A3002 VMV 15KT RN NE NOSIG=
201010311500 METAR MRPV 311500Z 09010KT 9999 FEW020 SCT100 25/18 A3003 RMK PCPN DST NE NOSIG=
201010311600 METAR MRPV 311600Z 09004KT 9999 SCT020 25/17 A3003 RMK RN NE BECMG 24006KT=
201010311700 METAR MRPV 311700Z 08008KT 9999 FEW020TCU SCT030 27/17 A2999 RN NE DST BECMG 24006KT VCSH=
201010311800 METAR MRPV NIL=
201010311900 METAR MRPV 311900Z 29007KT 9999 2000NW SHRA FEW010TCU BKN025 22/19 A2995 BECMG 6000 SHRA VCTS=
201010312000 METAR MRPV 312000Z 27010KT 9999 3000NE SHRA FEW010TCU SCT025 BKN250 23/19 A2992 BECMG 6000 SHRA VCTS=
201010312100 METAR MRPV 312100Z 30006KT 9999 3000NE SHRA SCT008 SCT025 BKN250 29/19 A2991 BECMG 6000 SHRA VCTS=
201010312200 METAR MRPV 312200Z 29010KT 5000 -RA BR SCT001 BKN015 22/20 A2993 BECMG 3000 -RA BR=
201010312300 METAR MRPV 312300Z 29004KT 5000 -RA BR SCT001 BKN015 21/20 A2997 BECMG 3000 -RA BR BKN012=
201011010000 METAR MRPV 010000Z NIL=
201011010100 METAR MRPV 010100Z NIL=
201011010200 METAR MRPV NIL=
201011010300 METAR MRPV NIL=
201011010400 METAR MRPV NIL=
201011010500 METAR MRPV NIL=
201011010600 METAR MRPV NIL=
201011010700 METAR MRPV NIL=
201011010800 METAR MRPV NIL=
201011010900 METAR MRPV NIL=
201011011000 METAR MRPV NIL=
201011011100 METAR MRPV NIL=
201011011200 METAR MRPV 011200Z 00000KT CAVOK 19/17 A3004 RMK BKN120 BCFG SW W NOSIG=
201011011300 METAR MRPV 011300Z 12003KT CAVOK 22/17 A3006 RMK SCT120 HZY ARND NOSIG=
201011011400 METAR MRPV 011400Z 11002KT CAVOK 23/17 A3007 RMK SCT120 SCT250 HZ W NOSIG=
201011011500 METAR MRPV 011500Z 11002KT CAVOK 23/17 A3007 RMK SCT120 HZ W=
201011011600 METAR MRPV 011600Z 27007KT 9999 FEW040 BKN250 25/19 A3006 RMK HZY ARND DUST RWY O9 NOSIG=
201011011700 METAR MRPV 011700Z 27008KT 9999 FEW035 BKN250 25/20 A3004 RMK TCU RA DST E HZY ARND VIS 8KM N HZ NOSIG=
201011011800 METAR MRPV 011800Z 28011KT 9999 SHRA FEW010CB FEW015TCU BKN025 26/20 A3001 RMK VIS NW N 7KM MX WND SPD 17KT TEMPO 6000 SHRA=
201011011900 METAR MRPV 011900Z 29010KT 7000 SHRA VCTS FEW012CB SCT015TCU BKN025 24/20 A3000 RMK VIS NE 4KM S UNL TS S TEMPO 5000=
201011012000 METAR MRPV 012000Z 29007KT 6000 SHRA FEW008TCU SCT020 SCT120 24/20 A2997 RMK VIS S UNL WET RWY NOSIG=
201011012100 METAR MRPV 012100Z 29007KT 5000 RA BR SCT003 BKN012 22/20 A2996 RMK VIS S UNL TEMPO 3000 RA BR BKN005=
201011012200 METAR MRPV NIL=
201011012300 METAR MRPV 012300Z 28006KT 3000 BR SCT001 BKN005 20/19 A3001 TEMPO RA=
201011020000 METAR MRPV NIL=
201011020100 METAR MRPV NIL=
201011020200 METAR MRPV NIL=
201011020300 METAR MRPV NIL=
201011020400 METAR MRPV NIL=
201011020500 METAR MRPV NIL=
201011020600 METAR MRPV NIL=
201011020700 METAR MRPV NIL=
201011020800 METAR MRPV NIL=
201011020900 METAR MRPV NIL=
201011021000 METAR MRPV NIL=
201011021100 METAR MRPV NIL=
201011021200 METAR MRPV 021200Z 00000KT 9999 BCFG FEW030 BKN080 18/17 A3002 VIS W 6KMS DU 09 NOSIG=
201011021300 METAR MRPV 021300Z 00000KT 9999 4000W BR FEW001 BKN090 20/18 A3004 RMK DU APROXIMACION 09 TEMPO 24005KT 6000 BCFG=
201011021400 METAR MRPV 021400Z 00000KT 5000 BR FEW001 BKN018 21/19 A3006 RMK DU NR APCH RWY09 TEMPO 24005KT=
201011021500 METAR MRPV 021500Z 28003KT 4000 BR SCT002 BKN013 21/19 A3006 REDZ RMK DU NR APCH RWY 09 NOSIG=
201011021600 METAR MRPV 021600Z 27002KT 7000 3000SW VCFG BR SCT005 BKN018 21/19 A3005 RMK VIS SE UNL NOSIG=
201011021700 METAR MRPV 021700Z 27005KT 7000 -RA BCFG FEW004 BKN018 22/19 A3002 RMK VIS S UNL TEMPO 5000 RA BR BKN012=
201011021800 METAR MRPV 021800Z 28004KT 6000 -RA BCFG FEW003 BKN018 22/19 A2999 RMK VIS E 8000 TEMPO 5000 RA BR BKN010=
201011021900 METAR MRPV 021900Z 28006KT 5000 RA BR FEW002 BKN015 22/20 A2996 RMK VIS 7KM E VIS 4KM W TEMPO 4000 RA BR BKN010=
201011022000 METAR MRPV 022000Z 28010KT 3000 -RA BR SCT001 BKN007 21/20 A2993 NOSIG=
201011022100 METAR MRPV 022100Z 28011KT 2000 RADZ BR VV002 20/19 A2993 NOSIG=
201011022200 METAR MRPV 022200Z 27008KT 1500 DZ BR VV002 20/19 A2993 RMK VL MX VTO 13KT TEMPO 3000=
201011022300 METAR MRPV 022300Z 29006KT 9999 RA BR VV003 19/19 A2996 NOSIG=
201011030000 METAR MRPV NIL=
201011030100 METAR MRPV NIL=
201011030200 METAR MRPV NIL=
201011030300 METAR MRPV NIL=
201011030400 METAR MRPV NIL=
201011030500 METAR MRPV NIL=
201011030600 METAR MRPV NIL=
201011030700 METAR MRPV NIL=
201011030800 METAR MRPV NIL=
201011030900 METAR MRPV NIL=
201011031000 METAR MRPV NIL=
201011031100 METAR MRPV NIL=
201011031200 METAR MRPV 031200Z 00000KT 1500 RA BR VV003 19/19 A2997 RMK WET RWY NOSIG=
201011031300 METAR MRPV 031300Z 00000KT 2500 RA BR SCT001 BKN005 19/19 A2999 RMK PISTA HUMEDA TEMPO 24005KT=
201011031400 METAR MRPV 031400Z 00000KT 4000 -RA BR SCT001 BKN007 19/19 A3000 RMK PISTA HUMEDA VIS E 6000 TEMPO 24004KT=
201011031500 METAR MRPV 031500Z 00000KT 7000 3000SW -RA BR FEW002 SCT012 BKN100 19/19 A3001 RMK PISTA HUMEDA NOSIG=
201011031600 METAR MRPV 031600Z 28003KT 190V280 6000 DZ VCFG SCT004 BKN015 20/19 A2999 RMK PISTA HUMEDAVIS 4000 SW W TEMPO 4000 RA BR BKN010=
201011031700 METAR MRPV 031700Z 29005KT 6000 BCFG SCT005 BKN012 21/19 A2997 RMK VIS SW W 4000 TEMPO 4000 RA BR=
201011031800 METAR MRPV 031800Z 28007KT 7000 3000SW BCFG BR SCT005 BKN015 22/20 A2994 TEMPO RA BR BKN010=
201011031900 METAR MRPV 031900Z 29009KT 4000 DZ BR VCSH SCT003 BKN008 22/19 A2990 RMK RASH N NOSIG=
201011032000 METAR MRPV 032000Z 28008KT 2500 DZ BR VV004 20/20 A2988 NOSIG=
201011032100 METAR MRPV 032100Z 29008KT 3000 DZ BR SCT001 BKN005 21/20 A2987 NOSIG=
201011032200 METAR MRPV 032200Z 30006KT 2500 -RA BR VV003 20/19 A2987 NOSIG=
201011032300 METAR MRPV 032300Z 29008KT 1500 -RA BR VV002 20/19 A2988 NOSIG=
201011040000 METAR MRPV NIL=
201011040100 METAR MRPV NIL=
201011040200 METAR MRPV NIL=
201011040300 METAR MRPV NIL=
201011040400 METAR MRPV NIL=
201011040500 METAR MRPV NIL=
201011040600 METAR MRPV NIL=
201011040700 METAR MRPV NIL=
201011040800 METAR MRPV NIL=
201011040900 METAR MRPV NIL=
201011041000 METAR MRPV NIL=
201011041100 METAR MRPV NIL=
201011041200 METAR MRPV 041200Z 00000KT 4000 -RA BR SCT001 BKN012 18/18 A2994 NOSIG=
201011041300 METAR MRPV 041300Z 00000KT 4000 -RA BR SCT001 BKN012 19/19 A2996 RMK POLVO APROX.PISTA 09 BECMG 5000 -RA BR BKN015=
201011041400 METAR MRPV 041400Z 00000KTE 5000 2000NE RA BR SCT002 BKN015 19/19 A2998 BECMG 9999=
201011041500 METAR MRPV 041500Z 28003KT 8000 3000NE -RA BR SCT002 SCT020 BKN250 21/19 A2998 POLVO APROX/ PISTA 09 BECMG 9999=
201011041600 METAR MRPV 041600Z 27004KT 9999 SCT002 BKN020 23/19 A2998 RMK DU NR APCH RYW09 NOSIG=
201011041700 METAR MRPV 041700Z 25007KT 9999 SCT002 BKN020 24/19 A2996 NOSIG=
201011041800 METAR MRPV 041800Z 27008KT 9999 FEW002 SCT020 BKN250 23/19 A2992 RMK RN DST SE NOSIG=
201011041900 METAR MRPV 041900Z 28010KT 9999 FEW004 BKN020 24/18 A2989 RMK RN DST S SE NOSIG=
201011042000 METAR MRPV 042000Z 29010KT 5000 2000NW -RA BR SCT002 BKN015 22/20 A2987 RMK VERY VARIABLE CONDITIONS BECMG 3000 -RA BR=
201011042100 METAR MRPV 042100Z 28010KT 3000 -RA BR SCT001 BKN012 21/19 A2987 COND MUY VRBLS BECMG 5000 -RA BR=
201011042200 METAR MRPV 042200Z 28008KT 1500 -RA BR SCT001 OVC004 20/19 A2988 NOSIG=
201011042300 METAR MRPV 042300Z 32003KT 4000 -RA BR SCT001 BKN015 20/19 A2990 NOSIG=
201011042345 METAR MRPV 042345Z 27004KT 2000 -RA BR SCT001 OVC004 20/19 A2991 NOSIG=
201011050000 METAR MRPV NIL=
201011050100 METAR MRPV NIL=
201011050200 METAR MRPV NIL=
201011050300 METAR MRPV NIL=
201011050400 METAR MRPV NIL=
201011050500 METAR MRPV NIL=
201011050600 METAR MRPV NIL=
201011050700 METAR MRPV NIL=
201011050800 METAR MRPV NIL=
201011050900 METAR MRPV NIL=
201011051000 METAR MRPV NIL=
201011051100 METAR MRPV NIL=
201011051200 METAR MRPV 051200Z 00000KT 1500 -RA BR SCT001 BKN005 20/19 A2998 NOSIG=
201011051300 METAR MRPV 051300Z 00000KT 3000 -RA BR SCT001 BKN012 20/19 A2999 RMK DU APCH RNY/09 BECMG 5000 -RA BR BKN015=
201011051400 METAR MRPV 051400Z 00000KT 2000 RA BR SCT001 BKN004 20/19 A3002 NOSIG=
201011051500 METAR MRPV 051500Z 00000KT 2000 RA BR SCT001 BKN004 20/20 A3003 NOSIG=
201011051600 METAR MRPV 051600Z 00000KT 3000 RA BR SCT001 BKN015 21/20 A3003 BECMG 5000 -RA BR=
201011051700 METAR MRPV 051700Z 12006KT 5000 1000NW RA BR SCT004 BKN015 20/18 A3000 BECMG 3000 -RA BR=
201011051800 METAR MRPV 051800Z 12004KT 6000 2000NW -RA BR SCT002 BKN020 21/19 A2997 RMK COND VRBLS BECMG -RA BR=
201011051900 METAR MRPV 051900Z VRB02KT RA BR SCT002 BKN012 21/19 A2996 RMK COND=
201011051901 METAR MRPV 051901Z COR VRB02KT 2000 RA BR SCT002 BKN012 21/19 A2996 RMK COND VRBL BECMG 5000 -RA BR=
201011052000 METAR MRPV 052000Z 13005KT 3000 RA BR FEW002 SCT012 BKN100 20/19 A2995 COND VRBLS BECMG 5000 -RA BR=
201011052100 METAR MRPV 052100Z 10006KT 4000 -RA BR SCT004 OVC100 20/18 A2994 BECMG 5000 -RA BR=
201011052200 METAR MRPV 052200Z 12007KT 1500 SHRA SCT010 OVC100 18/17 A2996 BECMG 5000 -RA BR=
201011052300 METAR MRPV 052300Z 11007KT 1000 +SHRA SCT010 OVC070 18/17 A2998 NOSIG=
201011060000 METAR MRPV 060000Z NIL=
201011060100 METAR MRPV NIL=
201011060200 METAR MRPV NIL=
201011060300 METAR MRPV NIL=
201011060400 METAR MRPV NIL=
201011060500 METAR MRPV NIL=
201011060600 METAR MRPV NIL=
201011060700 METAR MRPV NIL=
201011060800 METAR MRPV NIL=
201011060900 METAR MRPV NIL=
201011061000 METAR MRPV NIL=
201011061100 METAR MRPV NIL=
201011061200 METAR MRPV 061200Z 13012KT 9999 FEW010 SCT120 BKN250 18/15 A3006 RMK VTO.CRUZADO PISTA RN DST N NE NOSIG=
201011061300 METAR MRPV 061300Z 10012KT 9999 SCT020 BKN250 19/15 A3008 VEL/MX VT 17KTS RN DIST N NE NOSIG=
201011061400 METAR MRPV 061400Z 10012G22KT 9999 4000NE SHRA SCT010 BKN250 19/15 A3010 NOSIG=
201011061500 METAR MRPV 061500Z 10010G20KT 9999 4000NE SHRA SCT008 SCT250 20/15 A3010 NOSIG=
201011061600 METAR MRPV 061600Z 10014G24KT 9999 4000NE SHRA SCT008 SCT250 20/15 A3009 NOSIG=
201011061700 METAR MRPV 061700Z 10012G22KT 9999 4000NE SHRA FEW010 SCT250 22/16 A3008 NOSIG=
201011061800 METAR MRPV 061800Z 09014G24KT 9999 FEW010 SCT250 22/16 A3005 RMK PREC DST N NE NOSIG=
201011061900 METAR MRPV 061900Z 10012G22KT 9999 FEW008 SCT250 21/15 A3002 RMK RA NE NOSIG=
201011062000 METAR MRPV NIL=
201011062100 METAR MRPV 062100Z 06012G22KT 9999 FEW010 BKN120 21/15 A3000 RMK RA N NE NOSIG=
201011062200 METAR MRPV 062200Z 09010G20KT 9999 4000NE SHRA FEW010 BKN120 20/15 A3000 NOSIG=
201011062300 METAR MRPV 062300Z 10010G20KT 9999 4000NE SHRA FEW008 BKN100 19/14 A3002 NOSIG=
201011070000 METAR MRPV NIL=
201011070100 METAR MRPV NIL=
201011070200 METAR MRPV NIL=
201011070300 METAR MRPV NIL=
201011070400 METAR MRPV NIL=
201011070500 METAR MRPV NIL=
201011070600 METAR MRPV NIL=
201011070700 METAR MRPV NIL=
201011070800 METAR MRPV NIL=
201011070900 METAR MRPV NIL=
201011071000 METAR MRPV NIL=
201011071100 METAR MRPV NIL=
201011071200 METAR MRPV 071200Z 09017G28KT 9999 FEW025 SCT120 18/14 A3003 RMK DZ NW N NE E NOSIG=
201011071300 METAR MRPV 071300Z 09021KT 9999 FEW025 BKN120 18/14 A3005 VEL/MAX VIENTO 26NUDOS DZ NW N NE E NOSIG=
201011071400 METAR MRPV 071400Z 09015KT 9999 FEW030 BKN120 19/15 A3007 RMK DZ NW N NE E GUST 20KT NOSIG=
201011071500 METAR MRPV 071500Z 10014KT 9999 FEW030 BKN120 20/14 A3007 RMK DZ DST N NE E GUST 20KT NOSIG=
201011071600 METAR MRPV 071600Z 09014KT 9999 SCT030 BKN120 20/15 A3007 RMK DZ N NE E GUST 22KT NOSIG=
201011071700 METAR MRPV 071700Z 10014G24KT 9999 FEW035 SCT250 21/15 A3005 RMK DZ DST NW N NE E FEW120 NOSIG=
201011071800 METAR MRPV 071800Z 09017KT 9999 FEW025 BKN250 21/15 A3003 RMK DZ DST NW N NE E GUST 25KT FEW120 NOSIG=
201011071900 METAR MRPV 071900Z 10014KT 9999 FEW030 BKN250 22/15 A3000 RMK DZ DST NE E SE GUST 21KT FEW120 NOSIG=
201011072000 METAR MRPV 072000Z 10013KT 9999 -RA FEW020 BKN250 21/15 A2998 RMK RA NE E SE GUST 21KT NOSIG=
201011072100 METAR MRPV 072100Z 10011KT 9999 RA FEW020 BKN250 21/14 A2998 RMK VIS SE 7000 FEW120 NOSIG=
201011072200 METAR MRPV 072200Z 09015KT 9999 -RA BKN020 SCT250 20/14 A2999 RMK VL MX VTO 22KT VIS NE 7000 NOSIG=
201011072300 METAR MRPV 072300Z 10013KT 9999 -RA SCT025 BKN250 19/15 A3000 RMK VL MX VTO 20KT VIS NE 6000 DZ DST NW N NOSIG=
201011080000 METAR MRPV NIL=
201011080100 METAR MRPV NIL=
201011080200 METAR MRPV NIL=
201011080300 METAR MRPV NIL=
201011080400 METAR MRPV NIL=
201011080500 METAR MRPV NIL=
201011080600 METAR MRPV NIL=
201011080700 METAR MRPV NIL=
201011080800 METAR MRPV NIL=
201011080900 METAR MRPV NIL=
201011081000 METAR MRPV NIL=
201011081100 METAR MRPV NIL=
201011081200 METAR MRPV 081200Z 10012KT 9999 BKN025 SCT120 17/14 A2999 RMK DZ DST NE VL MX VTO 19KT NOSIG=
201011081300 METAR MRPV 081300Z 10013KT 9999 BKN020 18/13 A3001 RMK DZ DST NE MAX WND SPD 20KT FEW120 NOSIG=
201011081400 METAR MRPV 081400Z 10013KT 9999 BKN020 18/13 A3003 RMK DZ DST N NE MAX WND SPD 19KT NOSIG=
201011081500 METAR MRPV 081500Z 10012KT 9999 SCT025 18/13 A3005 RMK DZ N NE E MAX WND SPD 20KT NOSIG=
201011081600 METAR MRPV 081600Z 10011G21KT 9999 SCT030 20/14 A3004 RMK DZ DST N NE NOSIG=
201011081700 METAR MRPV 081700Z 10013KT 9999 SCT030 21/13 A3002 RMK DZ DST NE MAX WND SPD 20KT NOSIG=
201011081800 METAR MRPV 081800Z 11012KT 9999 SCT030 22/13 A2999 RMK MAX WND SPD 20KT NOSIG=
201011081900 METAR MRPV 081900Z 10010KT 9999 SCT035 22/13 A2997 RMK MAX WND SPD 16KT NOSIG=
201011082000 METAR MRPV 082000Z 10012KT 9999 FEW040 23/14 A2994 RMK MAX WND SPD 19KT NOSIG=
201011082100 METAR MRPV 082100Z 12013KT 9999 FEW035 21/14 A2993 RMK VEL.MAX.VTO 18KT NOSIG=
201011082200 METAR MRPV 082200Z 11009KT 9999 FEW030 22/15 A2994 RMK VEL MAX VTO 14KT NOSIG=
201011082300 METAR MRPV 082300Z 11008KT 9999 FEW030 20/13 A2996 RMK RN DST NE NOSIG=
201011090000 METAR MRPV NIL=
201011090100 METAR MRPV NIL=
201011090200 METAR MRPV NIL=
201011090300 METAR MRPV NIL=
201011090400 METAR MRPV NIL=
201011090500 METAR MRPV NIL=
201011090600 METAR MRPV NIL=
201011090700 METAR MRPV NIL=
201011090800 METAR MRPV NIL=
201011090900 METAR MRPV NIL=
201011091000 METAR MRPV NIL=
201011091100 METAR MRPV NIL=
201011091200 METAR MRPV 091200Z 13007KT CAVOK 17/12 A2997 RMK SCT070 NOSIG=
201011091300 METAR MRPV 091300Z 12007KT CAVOK 20/13 A2998 RMK SCT08 NOSIG=
201011091400 METAR MRPV 091400Z 10009KT CAVOK 21/13 A3000 RMK SCT090 NOSIG=
201011091500 METAR MRPV 091500Z 09012KT CAVOK 22/13 A3000 RMK BKN090 VEL. MAX.VTO 18KT NOSIG=
201011091600 METAR MRPV 091600Z 09009KT CAVOK 23/14 A2999 RMK BKN090 VEL.MAX.VTO 15KT NOSIG=
201011091700 METAR MRPV 091700Z 09011KT CAVOK 24/15 A2997 RMK BKN090 NOSIG=
201011091800 METAR MRPV 091800Z 08010KT 9999 FEW045 BKN090 24/15 A2994 NOSIG=
201011091900 METAR MRPV 091900Z 09010KT 9999 FEW035 BKN090 24/16 A2997 NOSIG=
201011092000 METAR MRPV 092000Z 07010KT 9999 FEW040 BKN090 24/16 A2990 RMK POLVO APROX.PISTA 09 NOSIG=
201011092100 METAR MRPV 092100Z 08012KT 9999 SCT035 BKN100 22/16 A2989 NOSIG=
201011092200 METAR MRPV 092200Z 10011KT 9999 BKN030 SCT100 21/16 A2990 RMK DZ DST SE S NOSIG=
201011092300 METAR MRPV 092300Z 10009KT 9999 FEW040 SCT120 BKN250 21/16 A2990 RMK RN DST E DZ DST SW NOSIG=
201011100000 METAR MRPV NIL=
201011100100 METAR MRPV 100100Z NIL=
201011100200 METAR MRPV NIL=
201011100300 METAR MRPV NIL=
201011100400 METAR MRPV NIL=
201011100500 METAR MRPV NIL=
201011100600 METAR MRPV NIL=
201011100700 METAR MRPV NIL=
201011100800 METAR MRPV NIL=
201011100900 METAR MRPV NIL=
201011101000 METAR MRPV NIL=
201011101100 METAR MRPV NIL=
201011101200 METAR MRPV 101200Z 12010KT 9999 SCT030 BKN250 19/14 A2996 NOSIG=
201011101300 METAR MRPV 101300Z 11010KT 9999 SCT025 BKN250 20/14 A2998 NOSIG=
201011101400 METAR MRPV NIL=
201011101500 METAR MRPV 101500Z 09010KT 9999 FEW020 SCT120 BKN250 22/15 A3000 RMK DU APCH RNY/09 PCPN DST NE NOSIG=
201011101600 METAR MRPV 101600Z 09010KT 9999 FEW020 SCT120 BKN250 23/15 A2999 VEL MX VTO 15KT DU APCH RNY/09 PCPN DST SE NOSIG=
201011101700 METAR MRPV 101700Z 10010KT 9999 FEW020 SCT120 BKN250 24/16 A2997 RMK DU APCH RNY/09 PCPN DST E SE NOSIG=
201011101800 METAR MRPV 101800Z 10008KT 9999 FEW020 SCT120 BKN250 25/16 A2995 DU APCH RNY/09 RN DST N NE BECMG 24006KT=
201011101900 METAR MRPV 101900Z 27007KT 5000 2000NE SHRA SCT020 BKN100 22/19 A2994 BCMG 3000 RA BR=
201011102000 METAR MRPV 102000Z VRB02KT 9999 4000NE SHRA SCT020 BKN100 24/18 A2991 NOSIG=
201011102100 METAR MRPV 102100Z 10008KT 5000 2000E SHRA SCT004 BKN020 21/18 A2992 BECMG 3000 -RA BR=
201011102200 METAR MRPV 102200Z 10008KT 5000 2000N -RA BR SCT004 BKN020 21/17 A2993 BECMG 3000 -RA BR=
201011102300 METAR MRPV 102300Z 08005KT 8000 3000NW -RA BR SCT004 BKN100 21/17 A2994 NOSIG=
201011110000 METAR MRPV 110000Z NIL=
201011110100 METAR MRPV 110100Z NIL=
201011110200 METAR MRPV 110200Z NIL=
201011110300 METAR MRPV NIL=
201011110400 METAR MRPV NIL=
201011110500 METAR MRPV NIL=
201011110600 METAR MRPV NIL=
201011110700 METAR MRPV NIL=
201011110800 METAR MRPV NIL=
201011110900 METAR MRPV NIL=
201011111000 METAR MRPV NIL=
201011111100 METAR MRPV NIL=
201011111200 METAR MRPV 111200Z 10010KT 9999 SCT010 BKN030 19/15 A3000 RMK RN DST QUAD E VEL.MAX.VTO 15KT NOSIG=
201011111300 METAR MRPV 111300Z 11010KT 9999 SCT010 BKN030 20/16 A3002 RMK RA DST E MAX WND SPD 15KT NOSIG=
201011111400 METAR MRPV 111400Z 12010KT 9999 SCT010 BKN100 21/16 A3003 RMK RA DST QUAD E MAX WND SPD 15KT NOSIG=
201011111500 METAR MRPV 111500Z 10010KT 9999 FEW010 SCT100 BKN250 22/16 A3004 RMK MAX WND SPD 15KT RA DST E NOSIG=
201011111600 METAR MRPV 111600Z 09010KT 9999 FEW010 BKN250 23/17 A3004 RMK MAX WND SPD 16KT RA DST NE NOSIG=
201011111700 METAR MRPV 111700Z 08012KT 9999 FEW010 BKN250 24/17 A3002 RMK RA DST NE NOSIG=
201011111800 METAR MRPV 111800Z 10010KT 9999 FEW010 SCT030 BKN250 25/17 A3000 RMK RA DST NE MAX WND SPD 15KT BECMG VCSH=
201011111900 METAR MRPV 111900Z 08010KT 9999 VCSH FEW010TCU BKN030 25/17 A2998 RMK SH DST E RA DST W BECMG 5000 -SHRA=
201011112000 METAR MRPV 112000Z 23005KT 9999 SCT004 BKN030 22/19 A2998 RMK RA DST N BECMG 5000 -SHRA=
201011112100 METAR MRPV 112100Z 09010KT 8000 3000SE SHRA SCT006 BKN020 22/16 A2997 RMK BECMG 5000 SHRA GUST 16KT=
201011112200 METAR MRPV 112200Z 09012KT 8000 3000SE SHRA SCT004 BKN020 21/16 A2999 NOSIG=
201011112300 METAR MRPV 112300Z 10010KT 9999 SCT004 BKN020 20/16 A3001 RMK RA N NE NOSIG=
201011120000 METAR MRPV NIL=
201011120100 METAR MRPV NIL=
201011120200 METAR MRPV NIL=
201011120300 METAR MRPV NIL=
201011120400 METAR MRPV NIL=
201011120500 METAR MRPV NIL=
201011120600 METAR MRPV NIL=
201011120700 METAR MRPV NIL=
201011120800 METAR MRPV NIL=
201011120900 METAR MRPV NIL=
201011121000 METAR MRPV NIL=
201011121100 METAR MRPV NIL=
201011121200 METAR MRPV 121200Z 12010KT CAVOK 19/15 A3004 RMK SCT250 NOSIG=
201011121300 METAR MRPV 121300Z 14008KT CAVOK 20/15 A3005 RMK SCT250 VIENTO CRUZADO EN PISTA NOSIG=
201011121400 METAR MRPV 121400Z 12010KT CAVOK 23/15 A3005 RMK SCT250 VIENTO CRUZADO EN PISTA NOSIG=
201011121500 METAR MRPV 121500Z 10010G20KT 9999 FEW022 SCT250 24/16 A3005 NOSIG=
201011121600 METAR MRPV NIL=
201011121700 METAR MRPV 121700Z 10012KT 9999 FEW020 SCT030 26/16 A3003 NOSIG=
201011121800 METAR MRPV 121800Z 09010KT 9999 4000E SHRA FEW015 BKN030 25/16 A3002 RMK DU APROXIMACION 09 NOSIG=
201011121900 METAR MRPV 121900Z 10010KT 9999 4000E -SHRA FEW010 SCT030 BKN100 23/17 A3001 NOSIG=
201011122000 METAR MRPV 122000Z 09010KT 9999 4000E -SHRA FEW010 SCT030 BKN100 24/17 A2999 RMK GUST 15KT NOSIG=
201011122100 METAR MRPV 122100Z 10010KT 9999 FEW010 SCT030 BKN100 24/16 A2997 NOSIG=
201011122200 METAR MRPV 122200Z 11010KT 9999 FEW010 SCT030 BKN100 23/16 A2990 NOSIG=
201011122300 METAR MRPV 122300Z 08008KT 9999 3000W -RA BR FEW001 SCT025 BKN100 22/18 A3000 BECMG 24007KT 5000 -RA BR=
201011130000 METAR MRPV NIL=
201011130100 METAR MRPV NIL=
201011130200 METAR MRPV NIL=
201011130300 METAR MRPV NIL=
201011130400 METAR MRPV NIL=
201011130500 METAR MRPV NIL=
201011130600 METAR MRPV NIL=
201011130700 METAR MRPV NIL=
201011130800 METAR MRPV NIL=
201011130900 METAR MRPV NIL=
201011131000 METAR MRPV NIL=
201011131100 METAR MRPV NIL=
201011131200 METAR MRPV 131200Z 09008KT 9999 -RA FEW035 BKN080 20/16 A3004 RMK VIS NE 6000 DZ DST N E SE VL MX VTO 13KT NOSIG=
201011131300 METAR MRPV 131300Z 11007KT 9999 -RA FEW030 BKN080 20/16 A3005 RMK VIS NE 6 KM, DZ DIST N NOSIG=
201011131400 METAR MRPV 131400Z 10006KT 9999 RA FEW030 BKN090 21/16 A3006 RMK VIS SE7 KM NOSIG=
201011131500 METAR MRPV 131500Z 09013KT 9999 FEW035 BKN250 23/16A3006 RMK FEW100 VEL MAX VIENTO 18KT NOSIG=
201011131600 METAR MRPV 131600Z 08009KT 9999 FEW035 BKN100 22/15 A3006 RMK DZ DST NE E NOSIG=
201011131700 METAR MRPV 131700Z 09013KT 9999 FEW030 BKN100 22/16 A3003 RMK DZ E MAX WND SPD 18KT NOSIG=
201011131800 METAR MRPV 131800Z 09010KT 9999 DZ BKN030 SCT100 20/16 A3002 RMK MAX WND SPD 15KT NOSIG=
201011131900 METAR MRPV 131900Z 09013KT 9999 4000SE RA BKN030 SCT100 21/15 A2999 RMK MAX WND SPD 20KT NOSIG=
201011132000 METAR MRPV 132000Z 11008KT 9999 RA SCT030 BKN100 21/17 A2997 RMK VIS NE 6KM MAX WND SPD 13KT NOSIG=
201011132100 METAR MRPV 132100Z 10007KT 9999 4000NE -RA DZ BKN025 SCT100 20/16 A2997=
201011132200 METAR MRPV 132200Z 12008KT 9999 4000NE -RA DZ VCSH FEW030 BKN090 20/15 A2996 SHRA SE NOSIG=
201011132300 METAR MRPV 132300Z 11011KT 9999 FEW025 BKN090 19/15 A2998 RMK DZ DST NW NE VEL.MAX.VTO. 16KT NOSIG=
201011140000 METAR MRPV NIL=
201011140100 METAR MRPV NIL=
201011140200 METAR MRPV NIL=
201011140300 METAR MRPV NIL=
201011140400 METAR MRPV NIL=
201011140500 METAR MRPV NIL=
201011140600 METAR MRPV NIL=
201011140700 METAR MRPV NIL=
201011140800 METAR MRPV NIL=
201011140900 METAR MRPV NIL=
201011141000 METAR MRPV NIL=
201011141100 METAR MRPV NIL=
201011141200 METAR MRPV 141200Z 13007KT 9999 FEW030 SCT120 BKN250 19/15 A3001 RMK DZ NE GUST 12KT NOSIG=
201011141300 METAR MRPV 141300Z 12006KT 9999 FEW030 BKN120 20/18 A3004 RMK VEL.MAX.VTO 13KT NOSIG=
201011141400 METAR MRPV 141400Z 13005KT CAVOK 20/15 A3005 RMK BKN120 NOSIG=
201011141500 METAR MRPV 141500Z 11009KT CAVOK 22/14 A3007 RMK BKN120 VE.MAX/VTO 14KT NOSI G=
201011141600 METAR MRPV 141600Z 08012KT CAVOK 23/15 A3005 RMK SCT120 NOSIG=
201011141700 METAR MRPV 141700Z 11006KT 9999 FEW045 26/14 A3002 RMK FEW120 FEW250 VEL.AMX.VTO 12KT TEMPO 24004KT=
201011141800 METAR MRPV 141800Z 09007KT 9999 FEW0465 SCT120 26/15 A2999 RMK TCU DST S VEL.MAX.VTO 13KT TEMPO 24004KT=
201011141900 METAR MRPV 141900Z 08012KT 9999 SCT040 SCT100 26/13 A2997 RMK TCU DST S SW TEMPO 24004KT=
201011142000 METAR MRPV 142000Z 10008KT 9999 BKN040 SCT100 24/12 A2995 RMK TCU DST S SW TEMPO 24004KT=
201011142100 METAR MRPV 142100Z 10013KT 9999 VCSH FEW008 FEW015TCU BKN090 22/15 A2994 RMK SHRA SW VEL MAX VTO 18KT NOSIG=
201011142200 METAR MRPV 142200Z 08011KT 9999 BCFG FEW002 BKN090 22/14 A2997 RMK VIS W 6KMS TCU DST SW NOSIG=
201011142300 METAR MRPV 142300Z 07009KT 9999 BCFG FEW030 BKN090 21/14 A2999 RMK VIS W NW 6KMS NOSIG=
201011150000 METAR MRPV 150000Z NIL=
201011150100 METAR MRPV NIL=
201011150200 METAR MRPV NIL=
201011150300 METAR MRPV NIL=
201011150400 METAR MRPV NIL=
201011150500 METAR MRPV NIL=
201011150600 METAR MRPV NIL=
201011150700 METAR MRPV NIL=
201011150800 METAR MRPV NIL=
201011150900 METAR MRPV NIL=
201011151000 METAR MRPV NIL=
201011151100 METAR MRPV NIL=
201011151200 METAR MRPV 151200Z 12004KT CAVOK 19/11 A2999 RMK BKN120 NOSIG=
201011151300 METAR MRPV 151300Z 00000KT CAVOK 20/13 A3002 RMK BKN120 TEMPO 24004KT=
201011151400 METAR MRPV 151400Z 11005KT CAVOK 23/11 A3003 RMK FEW120 LGT HZ W NOSIG=
201011151500 METAR MRPV 151500Z 14003KT CAVOK 26/11 A3002 RMK LGT HZ W FEW140 TEMPO 24005KT=
201011151600 METAR MRPV 151600Z 08004KT 9999 NSC 27/10 A3002 TEMPO 24005KT=
201011151700 METAR MRPV 151700Z 29007KT CAVOK 26/15 A3000 RMK SCT120 NOSIG=
201011151800 METAR MRPV 151800Z 27007KT 9999 FEW040 BKN120 25/16 A2998 RMK TCU DST SE NOSIG=
201011151900 METAR MRPV 151900Z 27007KT 9999 FEW040 SCT120 25/18 A2995 RMK VEL MAX=
201011152000 METAR MRPV 152000Z 27008KT 9999 FEW040 BKN120 24/19 A2993 RMK VEL MAX 13 KTS TCU E SW=
201011152100 METAR MRPV 152100Z 27008KT 9999 FEW030 BKN100 24/19 A2993 RMK MAX WND SPD 13KT TCU DST SE S SW HZY ARND TEMPO 8000 VCSH SCT015TCU=
201011152200 METAR MRPV 152200Z 27005KT 8000 VCSH FEW005 FEW012TCU BKN100 22/19 A2994 RMK ST HZ ARND SHRA SE CB DST S TEMPO 6000 SHRA=
201011152300 METAR MRPV 152300Z 29004KT 6000 SHRA FEW002 FEW008CB BKN012 21/19 A2997 RMK VIS 4KM NE HZY ARND TEMPO 4000 BR=
201011160000 METAR MRPV 160000Z NIL=
201011160100 METAR MRPV NIL=
201011160200 METAR MRPV NIL=
201011160300 METAR MRPV NIL=
201011160400 METAR MRPV NIL=
201011160500 METAR MRPV NIL=
201011160600 METAR MRPV NIL=
201011160700 METAR MRPV NIL=
201011160800 METAR MRPV NIL=
201011160900 METAR MRPV NIL=
201011161000 METAR MRPV NIL=
201011161100 METAR MRPV NIL=
201011161200 METAR MRPV 161200Z 09004KT CAVOK 17/15 A3001 RMK FEW120 BKN250 CB DST SW POLVO APROX.PISTA 09 NOSIG=
201011161300 METAR MRPV 161300Z 00000KT 8000 FEW010 BKN250 19/16 A3003 RMK LGT HZ ARND BECMG 24007KT=
201011161400 METAR MRPV 161400Z VRB02KT 8000 FEW010 BKN250 22/16 A3005 RMK LGT HZ ARND BECMG 24007KT=
201011161500 METAR MRPV 161500Z 27008KT 8000 FEW010 BKN250 22/18 A3005 RMK LGT HZ ARND NOSIG=
201011161600 METAR MRPV 161600Z 27008KT 7000 SCT010 BKN250 23/18 A3005 RMK LGT HZ ARND NOSIG=
201011161700 METAR MRPV 161700Z 27009KT 7000 SCT010 SCT120 BKN250 23/18 A3002 RMK LGT HZ ARND NOSIG=
201011161800 METAR MRPV 161800Z 28010KT 8000 SCT010 BKN250 24/17 A2999 RMK LGT HZ ARND BECMG VCSH=
201011161900 METAR MRPV 161900Z 28010KT 9000 SCT010 BKN250 26/16 A2996 RMK LGT HZ ARND BECMG VCSH=
201011162000 METAR MRPV 162000Z 27010KT 9999 SCT010 BKN250 26/17 A2992 RMK TCU N NE BECMG VCSH=
201011162100 METAR MRPV 162100Z 28010KT 9999 3000NW BCFG SCT010TCU SCT250 23/19 A2993 RMK BECMG VCSH BR=
201011162200 METAR MRPV 162200Z 27010KT 9999 SCT010TCU SCT250 25/19 A2992 BECMG=
201011162300 METAR MRPV 162300Z 27010KT 8000 3000NW BR SCT002 SCT250 21/18 A2995 RMK HZ ARND BECMG 5KMS BR=
201011170000 METAR MRPV NIL=
201011170100 METAR MRPV NIL=
201011170200 METAR MRPV NIL=
201011170300 METAR MRPV NIL=
201011170400 METAR MRPV NIL=
201011170500 METAR MRPV NIL=
201011170600 METAR MRPV NIL=
201011170700 METAR MRPV NIL=
201011170800 METAR MRPV NIL=
201011170900 METAR MRPV NIL=
201011171000 METAR MRPV NIL=
201011171100 METAR MRPV NIL=
201011171200 METAR MRPV 171200Z 00000KT 2000 -RA BR SCT001 OVC004 18/17 A3002 BECMG 5000 -RA BR BKN015=
201011171300 METAR MRPV 171300Z 00000KT 3000 -RA BR SCT001 BKN100 19/18 A3005 RMK BECMG 5000 BR=
201011171400 METAR MRPV 171400Z 00000KT 5000 2000N BR BCFG SCT001 BKN100 20/17 A3007 RMK DU APROXIMACION 09 BECMG UNL=
201011171500 METAR MRPV 171500Z VRB02KT 6000 2000NE BCFG FEW001 SCT010 23/17 A3008 RMK HZ ARND DU APROXIMACION 09 BECMG UNL=
201011171600 METAR MRPV 171600Z 27005KT 5000 2000NE BR BCFG FEW001 BKN015 23/17 A3007 RMK DU NR APCH 09 BECMG 3000 BR=
201011171700 METAR MRPV 171700Z 17008KT 6000 2000NE BCFG SCT002 BKN018 23/17 A3005 RMK HZ ARND DU APROXIMACION 09 NOSIG=
201011171800 METAR MRPV 171800Z 27005KT 5000 2000NE BR BCFG FEW001 BKN015 23/17 A3007 RMK DU NR APCH 09 BECMG 3000 BR=
201011171900 METAR MRPV 171900Z 28010KT 6000 2000NE BCFG SCT002 BKN018 24/18 A2999 RMK HZ ARND DU APROXIMACION 09 NOSIG=
201011172000 METAR MRPV 172000Z 27010KT 5000 2000NE BR SHRA SCT004TCU BKN018 23/18 A2997 NOSIG=
201011172100 METAR MRPV 172100Z 26008KT 5000 2000NE BR SHRA FEW004TCU BKN018 22/18 A2996 NOSIG=
201011172200 METAR MRPV 172200Z 24004KT 5000 2000NE BR SHRA SCT002 BKN015 21/18 A2997 BECMG 3000 -RA BR BKN012=
201011172300 METAR MRPV 172300Z 00000KT 5000 -RA BR SCT002 BKN015 21/18 A2998 RMK BECMG 3000 -RA BR BKN012=
201011180000 METAR MRPV NIL=
201011180100 METAR MRPV NIL=
201011180200 METAR MRPV NIL=
201011180300 METAR MRPV NIL=
201011180400 METAR MRPV NIL=
201011180500 METAR MRPV NIL=
201011180600 METAR MRPV NIL=
201011180700 METAR MRPV NIL=
201011180800 METAR MRPV NIL=
201011180900 METAR MRPV NIL=
201011181000 METAR MRPV NIL=
201011181100 METAR MRPV NIL=
201011181200 METAR MRPV 181200Z 00000KT 9999 2000W BCFG FEW001 SCT250 18/16 A3002 RMK BCFG W BECMG 5000 BR=
201011181300 METAR MRPV 181300Z 00000KT 5000 2000NE BR BCFG SCT001 19/16 A3005 NOSIG=
201011181400 METAR MRPV 181400Z 29003KT 5000 2000NE BR BCFG FEW001 21/17 A3007 NOSIG=
201011181500 METAR MRPV 181500Z 27005KT 5000 2000NE BR BCFG FEW001 SCT100 22/18 A3007 NOSIG=
201011181600 METAR MRPV 181600Z 27008KT 5000 2000NE BR BCFG FEW001 SCT100 24/18 A3006 NOSIG=
201011181700 METAR MRPV 181700Z 28008KT 7000 3000NW BCFG SCT008 SCT100 25/18 A3004 RMK HZY NOSIG=
201011181800 METAR MRPV 181800Z 26008KT 7000 3000NW BCFG FEW002 SCT012TCU BKN022 24/19 A3001 RMK HZ ARND BECMG VCSH=
201011181900 METAR MRPV 181900Z 27008KT 6000 2000NE SHRA FEW002 SCT012TCU BKN022 23/20 A2998 RMK HZ ARND BECMG 5000 -SHRA BR=
201011182000 METAR MRPV 182000Z 27004KT 5000 2000N -RA BR SCT002 BKN020 22/20 A2997 BECMG 3000 -RA BR=
201011182100 METAR MRPV 182100Z 27005KT 5000 -RA BR SCT002 BKN018 22/20 A2995 BECMG 3000 -RA BR=
201011182200 METAR MRPV 182200Z 28006KT 5000 2000NW -RA BR SCT002 BKN018 21/19 A2995 BECMG 3000 -RA BR=
201011182300 METAR MRPV 182300Z 28004KT 3000 -RA BR SCT001 BKN012 21/19 A2996 NOSIG=
201011190000 METAR MRPV NIL=
201011190100 METAR MRPV NIL=
201011190200 METAR MRPV NIL=
201011190300 METAR MRPV NIL=
201011190400 METAR MRPV NIL=
201011190500 METAR MRPV NIL=
201011190600 METAR MRPV NIL=
201011190700 METAR MRPV NIL=
201011190800 METAR MRPV NIL=
201011190900 METAR MRPV NIL=
201011191000 METAR MRPV NIL=
201011191100 METAR MRPV NIL=
201011191200 METAR MRPV 191200Z 12007KT CAVOK 20/15 A2998 RMK SCT100 BKN250 HZ LEVE ARND CB DST SW NOSIG=
201011191300 METAR MRPV 191300Z 00000KT CAVOK 21/15 A3001 RMK SCT100 SCT250 CB DST SW HZ LEVE ARND TEMPO 11010KT=
201011191400 METAR MRPV 191400Z 00000KT 9999 FEW035 SCT120 20/16 A3004 RMK SCT250 HZY POLVO APROX. PISTA 09 VIS 7000W HZ TEMPO 07008KT=
201011191500 METAR MRPV 191500Z 00000KT 9999 FEW035 BKN120 22/17 A3004 RMK VIS 6000 HZY POLVO APROX.PISTA 09 TEMPO 07008KT=
201011191600 METAR MRPV 191600Z 00000KT 9999 FEW030 SCT120 24/17 A3003 RMK VIS 6KM W HZ HZY TEMPO 07008KT=
201011191700 METAR MRPV 191700Z 10009KT 9999 FEW040 SCT120 26/16 A3000 RMK VIS 6000W HZ HZY NOSIG=
201011191800 METAR MRPV 191800Z 06006KT 9999 FEW020 SCT040 27/16 A2997 RMK VIS 6000W HZ HZY NOSIG=
201011191900 METAR MRPV 191900Z 08003KT 9999 HZ FEW020 SCT040 26/16 A2993 RMK VIS 5000W HZ TCU DST SSW NOSIG=
201011192000 METAR MRPV 192000Z 24003KT 9999 HZ FEW020TCU BKN035 26/20 A2991 RMK VIS 5000 W HZ HZY TCU DST SW TEMPO 06006KT=
201011192100 METAR MRPV 192100Z 27008KT 9999 4000NW HZ VCSH FEW015TCU SCT030 24/20 A2990 RMK SHRA N HZY NOSIG=
201011192200 METAR MRPV 192200Z 28007KT 6000 -RADZ FEW005 FEW010CB BKN015 23/20 A2991 RMK VIS N 5KMS DUE HZ VIS SE E UNL TEMPO 8000 RA BKN010=
201011192300 METAR MRPV 192300Z 00000KT 4000 -RA BR HZ SCT002 BKN008 21/20 A2994 NOSIG=
201011200000 METAR MRPV NIL=
201011200100 METAR MRPV NIL=
201011200200 METAR MRPV NIL=
201011200300 METAR MRPV NIL=
201011200400 METAR MRPV NIL=
201011200500 METAR MRPV NIL=
201011200600 METAR MRPV NIL=
201011200700 METAR MRPV NIL=
201011200800 METAR MRPV NIL=
201011200900 METAR MRPV NIL=
201011201000 METAR MRPV NIL=
201011201100 METAR MRPV NIL=
201011201200 METAR MRPV 201200Z 10009KT 9999 -RA DZ BKN025 SCT100 20/20 A2999 RMK VIS NE 6000=
201011201300 METAR MRPV 201300Z 12007KT 9999 -RA SCT020 SCT100 21/17 A3002 NOSIG=
201011201400 METAR MRPV 201400Z 10004KT 9999 FEW025 22/17 A3003 RMK FEW250 DZ N NE CB DST SW=
201011201500 METAR MRPV 201500Z 08011KT 9999 SCT030 SCT250 23/17 A3005 RMK VEL MAX VTO 16KT CB DST N NE NOSIG=
201011201600 METAR MRPV 201600Z 06011KT 9999 SCT030 SCT250 24/17 A3004 VEL MX VTO 16KT DZ N NE NOSIG=
201011201700 METAR MRPV 201700Z 07012KT 9999 SCT030 SCT100 23/17 A3002 RMK DZ DST N NE NOSIG=
201011201800 METAR MRPV 201800Z 07013KT 9999 BKN035 SCT100 24/17 A3000 RMK TCU DST W DZ NW N NE VEL MAX VTO 20KT NOSIG=
201011201900 METAR MRPV 201900Z 07009KT 9999 BKN025 SCT100 22/17 A2998 RMK VEL MAX VTO 16KT DZ N NE E S DU NEAR APCH RNY/09 NOSIG=
201011202000 METAR MRPV 202000Z 08013KT 9999 DZ BKN030 21/16 A2997 RMK VEL MX VTO 18KT TCU DST SW NOSIG=
201011202100 METAR MRPV 202100Z 09013KT 9999 SCT030 SCT090 22/14 A2995 REDZ RMK TCU SW MAX WND SPD 18KT NOSIG=
201011202200 METAR MRPV 202200Z 09009KT 9999 SCT025 23/15 A2996 RMK MAX WND SPD 14KT FEW100 FEW300 TCU DST SW NOSIG=
201011202300 METAR MRPV 202300Z 12003KT 9999 SCT035 21/15 A2998 RMK CB DST SW NOSIG=
201011210000 METAR MRPV 210000Z NIL=
201011210100 METAR MRPV NIL=
201011210200 METAR MRPV NIL=
201011210300 METAR MRPV NIL=
201011210400 METAR MRPV NIL=
201011210500 METAR MRPV NIL=
201011210600 METAR MRPV NIL=
201011210700 METAR MRPV NIL=
201011210800 METAR MRPV NIL=
201011210900 METAR MRPV NIL=
201011211000 METAR MRPV NIL=
201011211100 METAR MRPV NIL=
201011211200 METAR MRPV 211200Z 14002KT 9999 SCT035 20/16 A3001 RMK FEW100 DZ DST NE NOSIG=
201011211300 METAR MRPV 211300Z 10005KT 9999 FEW040 SCT250 21/16 A3005 RMK FEW120 DZ NW N NE NOSIG=
201011211400 METAR MRPV 211400Z 08010KT 9999 FEW040 BKN070 22/17 A3006 RMK DZ DST NW N NE MAX WND SPD 15KT NOSIG=
201011211500 METAR MRPV 211500Z 07005KT 9999 -RADZ SCT040 BKN070 22/17 A3008 RMK VIS NE 6KM NOSIG=
201011211600 METAR MRPV 211600Z 13002KT 9999 -DZ FEW040 BKN080 23/17 A3007 NOSIG=
201011211700 METAR MRPV 211700Z 13005KT 4000 RADZ BKN030 SCT090 21/18 A3005 RMK VIS W UNL TEMPO 6000=
201011211800 METAR MRPV 211800Z 13005KT 9999 DZ BR FEW001 SCT025 BKN090 20/18 A3003 RMK VIS NW N 5KM WET RWY NOSIG=
201011211900 METAR MRPV 211900Z 10011KT 9999 -RADZ SCT030 BKN090 21/17 A2999 RMK VIS NE 5 KMS VEL MAX WIND 18 KT CHECK TEXT NEW ENDING ADDED KATLYTAA=
201011212000 METAR MRPV 212000Z 10008KT 9999 4000NE RA DZ SCT030 BKN090 19/16 A3000 RMK VIS E SE 5 KMS RWY WET TEMPO 7000 RA=
201011212100 METAR MRPV 212100Z 11006KT 9999 4000NE -RA DZ FEW030 BKN090 20/17 A2999 RMK VIS E SE 6000 GUST 12KT TEMPO 7000 RA=
201011212200 METAR MRPV 212200Z 12005KT 9999 4000NE -RA DZ OVC090 19/17 A2999 RMK WET RWY VIS E 6KMS TEMPO 7KMS RA=
201011212300 METAR MRPV 212300Z 11009KT 9999 -RA DZ OVC090 19/17 A3000 RMK VIS E SE 7KMS WET RWY NOSIG=
201011220000 METAR MRPV NIL=
201011220100 METAR MRPV NIL=
201011220200 METAR MRPV NIL=
201011220300 METAR MRPV NIL=
201011220400 METAR MRPV NIL=
201011220500 METAR MRPV NIL=
201011220600 METAR MRPV NIL=
201011220700 METAR MRPV NIL=
201011220800 METAR MRPV NIL=
201011220900 METAR MRPV NIL=
201011221000 METAR MRPV NIL=
201011221100 METAR MRPV NIL=
201011221200 METAR MRPV 221200Z 10009KT 9999 FEW010 BKN250 19/16 A2999 NOSIG=
201011221300 METAR MRPV 221300Z 11010KT 9999 FEW010 BKN250 20/16 A2999 NOSIG=
201011221400 METAR MRPV 221400Z 09010G20KT 9999 FEW010 BKN250 22/16 A2999 RA DST NE NOSIG=
201011221500 METAR MRPV 221500Z 08010G20KT 9999 SCT010 BKN250 23/16 A3001 RMK RA DST NE NOSIG=
201011221600 METAR MRPV 221600Z 07010G20KT 9999 SCT010 BKN250 23/15 A3001 RMK RA NE NOSIG=
201011221700 METAR MRPV 221700Z 06010G20KT 9999 SCT010 BKN250 24/16 A3000 RMK RA DST NE VIENTO CRUZADO EN PISTA NOSIG=
201011221800 METAR MRPV 221800Z 06012KT 9999 FEW010 SCT120 BKN250 25/17 A2996 RMK VIENTO CRUZADO EN PISTA RA NE NOSIG=
201011221900 METAR MRPV 221900Z 07010KT 9999 FEW006 BKN030 24/17 A2995 RMK VIENTO CRUZADO EN PISTA GUST 16KT RA DST NE NOSIG=
201011222000 METAR MRPV 222000Z 07012KT 9999 FEW010 BKN030 23/17 A2992 RMK RA N NE VIENTO CRUZADO EN PISTA NOSIG=
201011222100 METAR MRPV 222100Z 08010KT 9999 SCT010 BKN030 23/18 A2992 RMK RA DST N SE NOSIG=
201011222200 METAR MRPV 222200Z 10010KT 9999 SCT010 BKN030 22/17 A2994 RMK RA DST N SE S NOSIG=
201011222300 METAR MRPV 222300Z 10006KT 5000 -RA SCT008 BKN020 20/18 A2995 BECMG 3000 -RA=
201011230000 METAR MRPV NIL=
201011230100 METAR MRPV NIL=
201011230200 METAR MRPV NIL=
201011230300 METAR MRPV NIL=
201011230400 METAR MRPV NIL=
201011230500 METAR MRPV NIL=
201011230600 METAR MRPV NIL=
201011230700 METAR MRPV NIL=
201011230800 METAR MRPV NIL=
201011230900 METAR MRPV NIL=
201011231000 METAR MRPV NIL=
201011231100 METAR MRPV NIL=
201011231200 METAR MRPV 231200Z 09010KT 9999 SCT008 BKN250 20/16 A2994 RMK PCPN DST QUAD N NOSIG=
201011231300 METAR MRPV 231300Z 09012KT 9999 SCT010 BKN250 21/17 A2995 RMK RA DST N NOSIG=
201011231400 METAR MRPV 231400Z 10010KT 9999 SCT010 BKN250 21/17 A2997 RMK RA DST N NOSIG=
201011231500 METAR MRPV 231500Z 09010KT 9999 SCT010 BKN250 22/17 A2997 RMK RA N DU 09 NOSIG=
201011231600 METAR MRPV 231600Z 10010KT 9999 SCT010 BKN250 22/17 A2997 RMK RA N NOSIG=
201011231700 METAR MRPV 231700Z 09010KT 9999 SCT010 BKN250 24/18 A2995 RMK RA NE DU 09 NOSIG=
201011231800 METAR MRPV NIL=
201011231900 METAR MRPV 231900Z 15008KT 7000 2000NE -RA SCT010 BKN030 22/18 A2991 RMK VIS UNL W NOSIG=
201011232000 METAR MRPV 232000Z 14008KT 6000 2000NE RADZ SCT008 OVC100 20/18 A2990 RMK VIS W UNL BECMG 3000 SHRA=
201011232100 METAR MRPV 232100Z 12009KT 7000 3000NE RA DZ SCT008 OVC100 20/18 A2988 RMK VIS 9999 W NOSIG=
201011232200 METAR MRPV 232200Z 10010KT 9999 -RA FEW012 SCT100 BKN250 20/16 A2988 NOSIG=
201011232300 METAR MRPV 232300Z 11010KT 9999 -RA FEW012 SCT100 BKN250 20/16 A2990 NOSIG=
201011240000 METAR MRPV NIL=
201011240100 METAR MRPV NIL=
201011240200 METAR MRPV NIL=
201011240300 METAR MRPV NIL=
201011240400 METAR MRPV NIL=
201011240500 METAR MRPV NIL=
201011240600 METAR MRPV NIL=
201011240700 METAR MRPV NIL=
201011240800 METAR MRPV NIL=
201011240900 METAR MRPV NIL=
201011241000 METAR MRPV NIL=
201011241100 METAR MRPV NIL=
201011241200 METAR MRPV 241200Z 12008KT 9999 FEW012 BKN250 18/15 A2992 RMK VIENTO CRUZADO EN PISTA RA NE NOSIG=
201011241300 METAR MRPV 241300Z 14009KT 9999 FEW012 SCT100 BKN250 20/15 A2994 RMK RN DST NE NOSIG=
201011241400 METAR MRPV 241400Z 12008KT 9999 FEW012 SCT100 BKN250 22/16 A2996 RMK RN DST NE NOSIG=
201011241500 METAR MRPV 241500Z 09010G20KT 9999 FEW012 SCT100 BKN250 24/17 A2997 RMK RN DST NE POLVO APROX.PISTA 09 NOSIG=
201011241600 METAR MRPV 241600Z 07010G20KT 9999 FEW012 SCT100 BKN250 25/16 A2995 RN DST NE NOSIG=
201011241700 METAR MRPV 241700Z 07012KT 9999 SCT010TCU BKN250 26/16 A2993 RMK RN DST NE NOSIG=
201011241800 METAR MRPV 241800Z 10006KT 9999 SCT010TCU BKN250 27/16 A2990 RMK RN DST NE NOSIG=
201011241900 METAR MRPV 241900Z 27010KT 9999 SCT010TCU BKN030 24/19 A2987 RMK RN DST NE BECMG VCSH=
201011242000 METAR MRPV 242000Z 27010KT 9999 SCT010 TCU BKN030 25/19 A2984 RMK CB DST NW BECMG VCSH=
201011242100 METAR MRPV 242100Z 24006KT 5000 1000SW -SHRA FEW002TCU SCT010 BKN015 21/20 A2984 BECMG -RA BR=
201011242200 METAR MRPV 242200Z 30003KT 5000 2000N -RA BR SCT001 BKN015 21/20 A2986 BECMG 3000 -RA BR=
201011242300 METAR MRPV 242300Z VRB02KT 4000 -RA BR SCT001 BKN012 20/19 A2987 NOSIG=
201011250000 METAR MRPV NIL=
201011250100 METAR MRPV NIL=
201011250200 METAR MRPV NIL=
201011250300 METAR MRPV NIL=
201011250400 METAR MRPV NIL=
201011250500 METAR MRPV NIL=
201011250600 METAR MRPV NIL=
201011250700 METAR MRPV NIL=
201011250800 METAR MRPV NIL=
201011250900 METAR MRPV NIL=
201011251000 METAR MRPV NIL=
201011251100 METAR MRPV NIL=
201011251200 METAR MRPV 251200Z 12003KT CAVOK 18/17 A2999 RMK FEW080 SCT300 CB DST SW NOSIG=
201011251300 METAR MRPV 251300Z 13004KT CAVOK 19/16 A2996 RMK CB DST SW FEW100 FEW250 NOSIG=
201011251400 METAR MRPV 251400Z 12005KT CAVOK 22/17 A2998 RMK BKN120 CB DST SW DZ DST NE NOSIG=
201011251500 METAR MRPV 251500Z 08010KT CAVOK 23/17 A2997 RMK DZ DST NE BKN120 NOSIG=
201011251600 METAR MRPV 251600Z 10009KT 9999 FEW040 25/18 A2997 RMK FEW250 VEL MAX VTO 17KT NOSIG=
201011251700 METAR MRPV 251700Z 08010KT 9999 BKN040 26/17 A2996 RMK DZ DST N BECMG 28005KT=
201011251800 METAR MRPV 251800Z 07008KT 9999 BKN035 26/17 A2993 RMK TCU RN DST NW DZ E HZ W TEMPO 28005KT=
201011251900 METAR MRPV 251900Z 13003KT 9999 FEW020TCU BKN035 26/17 A2991 RMK RN DST E BECMG 28005KT=
201011252000 METAR MRPV 252000Z 35002KT 9999 RA FEW020TCU BKN035 24/20 A2989 RMK VIS E N NW 7KMS TEMPO 8000 -SHRA=
201011252100 METAR MRPV 252100Z 08003KT 6000 RA VCSH SCT015TCU BKN030 23/18 A2989 RMK SHRA SE VIS S UNL TEMPO 4000 SHRA BR BKN015=
201011252200 METAR MRPV 252200Z 10003KT 8000 RA FEW004 BKN020 21/18 A2989 RESHRA RMK VIS W 5KM VIS QUAD S UNL WET RWY NOSIG=
201011252300 METAR MRPV 252300Z 11005KT 4000 -RADZ BR FEW002 BKN015 20/18 A2993 RMK WET RWY TEMPO 6000=
201011260000 METAR MRPV 260000Z NIL=
201011260100 METAR MRPV NIL=
201011260200 METAR MRPV NIL=
201011260300 METAR MRPV NIL=
201011260400 METAR MRPV NIL=
201011260500 METAR MRPV NIL=
201011260600 METAR MRPV NIL=
201011260700 METAR MRPV NIL=
201011260800 METAR MRPV NIL=
201011260900 METAR MRPV NIL=
201011261000 METAR MRPV NIL=
201011261100 METAR MRPV 261100Z 00000KT CAVOK 19/17 A2995 RMK FEW120 CB DST SW W POLVO APROX. PISTA 09 NOSIG=
201011261200 METAR MRPV NIL=
201011261300 METAR MRPV 261300Z 00000KT CAVOK 21/17 A2998 RMK FEW120 DU NR RWY09 HZ W CB DST SW W NOSIG=
201011261400 METAR MRPV 261400Z 00000KT CAVOK 22/17 A2999 RMK FEW120 CB DST S SW W HZ W DU NR RWY09 TEMPO 24007KT=
201011261500 METAR MRPV 261500Z 10002KT 9999 FEW035 25/17 A2998 RMK CB DST SW W DU NR RWYO9 TEMPO 24004KT=
201011261600 METAR MRPV 261600Z 00000KT 9999 FEW040 26/17 A2999 RMK HZ QUAD W TEMPO 24004KT=
201011261700 METAR MRPV 261700Z 27005KT 9999 FEW025 BKN040 24/19 A2997 RMK TCU DST N S NOSIG=
201011261800 METAR MRPV 261800Z 28003KT 9999 FEW020TCU BKN035 26/18 A2994 RMK HZ N W TEMPO 8000 VCSH=
201011261900 METAR MRPV 261900Z 25002KT 9999 RA SCT015TCU BKN030 24/20 A2991 RMK VIS NW 7KM TEMPO 6000 SHRA=
201011262000 METAR MRPV 262000Z 29004KT 9999 SHRA VCTS FEW008CB BKN015 22/20 A2990 RETS RMK VIS NW 5KM FLASHING TS NW TEMPO 6000 TSRA BKN012=
201011262100 METAR MRPV 262100Z 00000KT 7000 RA BCFG FEW005 FEW008TCU BKN015 22/19 A2990 RMK VIS SE S UNL TEMPO BKN012=
201011262200 METAR MRPV 262200Z 00000KT 6000 -RA BCFG SCT005 FEW010TCU BKN015 22/20 A2991 RMK VIS SE S UNL TEMPO 24004KT 5000 RA BR BKN012=
201011262300 METAR MRPV 262300Z 00000KT 6000 RA VCSH BCFG FEW004 BKN020 21/19 A2993 RMK VIS S SW UNL SHRA E NOSIG=
201011270000 METAR MRPV NIL=
201011270100 METAR MRPV NIL=
201011270200 METAR MRPV NIL=
201011270300 METAR MRPV NIL=
201011270400 METAR MRPV NIL=
201011270500 METAR MRPV NIL=
201011270600 METAR MRPV NIL=
201011270700 METAR MRPV NIL=
201011270800 METAR MRPV NIL=
201011270900 METAR MRPV NIL=
201011271000 METAR MRPV NIL=
201011271100 METAR MRPV NIL=
201011271200 METAR MRPV 271200Z 13004KT CAVOK 20/17 A2997 RMK SCT120 NOSIG=
201011271300 METAR MRPV 271300Z 11007KT 9999 NSC 21/17 A2998 RMK CB DST SW NOSIG=
201011271400 METAR MRPV 271400Z 09010KT 9999 FEW030 24/17 A3000 RMK DZ NE GUST 15KT NOSIG=
201011271500 METAR MRPV 271500Z 09010KT 9999 FEW035 25/18 A3000 RMK DZ DST N NE=
201011271600 METAR MRPV 271600Z 07013KT 9999 BKN020 25/18 A2999 PCPN DST NW N NE TCU DST N TEMPO -RA=
201011271700 METAR MRPV 271700Z 08013KT 9999 RA FEW020 BKN030 24/18 A2999 RMK GUST 18KT VIS W NW NE 7KMS TEMPO 8KMS RA=
201011271800 METAR MRPV 271800Z 10009KT 9999 4000S RA DZ FEW015 BKN030 23/18 A2997 RMK VIS E NE 7KMS NOSIG=
201011271900 METAR MRPV 271900Z 06013KT 9999 FEW030 BKN100 23/17 A2994 RERA RMK=
201011272000 METAR MRPV 272000Z 07015KT 9999 FEW025 BKN100 23/16 A2992 RMK GUST 23KT DZ DST N NE NOSIG=
201011272100 METAR MRPV 272100Z 08012KT 9999 SCT030 SCT100 23/16 A2991 RMK DZ DST NE VL MX VTO 18KT NOSIG=
201011272200 METAR MRPV 272200Z 07010KT 9999 SCT025 BKN100 22/16 A2993 RMK DZ DST NE NOSIG=
201011272300 METAR MRPV 272300Z 08012KT 9999 SCT030 SCT100 22/17 A2993 RMK DZ DST N NE NOSIG=
201011280000 METAR MRPV NIL=
201011280100 METAR MRPV NIL=
201011280200 METAR MRPV NIL=
201011280300 METAR MRPV NIL=
201011280400 METAR MRPV NIL=
201011280500 METAR MRPV NIL=
201011280600 METAR MRPV NIL=
201011280700 METAR MRPV NIL=
201011280800 METAR MRPV NIL=
201011280900 METAR MRPV NIL=
201011281000 METAR MRPV NIL=
201011281100 METAR MRPV NIL=
201011281200 METAR MRPV 281200Z 10012KT 9999 SCT020 BKN250 20/16 A2999 RMK RA DST NE NOSIG=
201011281300 METAR MRPV 281300Z 10006KT 9999 SCT020 BKN250 21/17 A3001 RMK RA DST NE NOSIG=
201011281400 METAR MRPV 281400Z 08012KT 9999 SCT020 BKN250 22/17 A3002 RMK RA DST NE NOSIG=
201011281500 METAR MRPV 281500Z 09010KT 9999 SCT020 BKN250 24/17 A3002 RMK RA DST NE NOSIG=
201011281600 METAR MRPV 281600Z 09012KT 9999 SCT010 BKN030 23/17 A3002 RMK RA NE NOSIG=
201011281700 METAR MRPV 281700Z 08010KT 9999 SCT010 BKN030 23/17 A3001 RMK VL MX VTO 15KT RA NE NOSIG=
201011281800 METAR MRPV 281800Z 07010KT 9999 SCT015 BKN100 24/17 A2997 RMK RA NE NOSIG=
201011281900 METAR MRPV 281900Z 09010KT 9999 SCT012 SCT100 27/17 A2994 RMK RA NE NOSIG=
201011282000 METAR MRPV 282000Z 08010KT 9999 FEW010TCU SCT100 27/16 A2991 RMK RN DST NE BECMG 24006KT VCSH=
201011282100 METAR MRPV 282100Z 27010KT 9999 VCSH SCT010TCU SCT030 24/20 A2991 BECMG 5000 -SHRA=
201011282200 METAR MRPV 282200Z 27008KT 9999 3000N -RA SCT002 SCT010TCU 23/20 A2992 BECMG 5000 -SHRA BR=
201011282300 METAR MRPV 282300Z 28007KT 8000 3000N -RA BR SCT002 BKN020 22/19 A2993 BECMG 5000 -RA BR=
201011290000 METAR MRPV NIL=
201011290100 METAR MRPV NIL=
201011290200 METAR MRPV NIL=
201011290300 METAR MRPV NIL=
201011290400 METAR MRPV NIL=
201011290500 METAR MRPV NIL=
201011290600 METAR MRPV NIL=
201011290700 METAR MRPV NIL=
201011290800 METAR MRPV NIL=
201011290900 METAR MRPV NIL=
201011291000 METAR MRPV NIL=
201011291100 METAR MRPV NIL=
201011291200 METAR MRPV 291200Z 13010KT 9999 FEW010 20/17 A2995 RMK VIENTO CRUZADO EN PISTA RA NE E NOSIG=
201011291300 METAR MRPV 291300Z 12008KT 9999 SCT010 21/17 A2998 RMK RN DST NE NOSIG=
201011291400 METAR MRPV 291400Z NIL=
201011291500 METAR MRPV 291500Z 09010KT 9999 SCT010 23/18 A3000 RMK RN DST NE VEL.MAX. VTO 16KT NOSIG=
201011291600 METAR MRPV 291600Z 07010KT 9999 SCT010 24/17 A3000 RMK RN DST NE VEL.MAX.VTO 16KT=
201011291700 METAR MRPV 291700Z 11010KT 9999 FEW020 BKN030 23/18 A2998 RMK RN DST NE TCU DSTW NOSIG=
201011291800 METAR MRPV 291800Z 10012KT 8000 2000E RA SCT008 BKN020 21/18 A2996 BECMG 3000 RA=
201011291900 METAR MRPV 291900Z 09010KT 9999 FEW010 SCT030 24/18 A2992 RMK TCU DST W NOSIG=
201011292000 METAR MRPV 292000Z 08010KT 9999 FEW010 SCT030 26/18 A2989 RMK VEL MAX VTO 16KT RN DST NE TCU DST QUAD W NOSIG=
201011292100 METAR MRPV 292100Z 08012KT 9999 FEW010 BKN030 26/17 A3988 RMK VEL MAX VTO 16KT LINEA DE TCU CDTE W PCPN DST NE DU APROX PISTA/09=
201011292200 METAR MRPV 292200Z 08010KT 9999 FEW010 BKN030 23/17 A2989 RMK VEL MAX VTO 16KT TUC W QD NOSIG=
201011292300 METAR MRPV 292300Z 08010KT 9999 FEW010 BKN030 22/17 A2990 RMK RN DST NE CB DST W QD NOSIG=
201011300000 METAR MRPV NIL=
201011300100 METAR MRPV NIL=
201011300200 METAR MRPV NIL=
201011300300 METAR MRPV NIL=
201011300400 METAR MRPV NIL=
201011300500 METAR MRPV NIL=
201011300600 METAR MRPV NIL=
201011300700 METAR MRPV NIL=
201011300800 METAR MRPV NIL=
201011300900 METAR MRPV NIL=
201011301000 METAR MRPV NIL=
201011301100 METAR MRPV NIL=
201011301200 METAR MRPV 301200Z 13010KT 8000 2000NE RA SCT010 BKN025 20/18 A2990 BECMG 5000 RA=
201011301300 METAR MRPV 301300Z 12010KT 5000 2000NE -RA SCT010 BKN020 20/18 A2993 RMK VTO CZDO EN PISTA BECMG 3000 RA=
201011301400 METAR MRPV 301400Z 12006KT 9999 2000NE -RA FEW010 SCT120 BKN250 21/18 A2993 RMK VTO CZDO EN PISTA DU APX/09 BECMG 5000 -RA=
201011301500 METAR MRPV 301500Z 11010KT 9999 2000NE -RA FEW010 SCT120 BKN250 23/18 A2994 RMK VTO CZDO EN PISTA DU APROX/09 BECMG 5000=
201011301600 METAR MRPV 301600Z 11010KT 9999 3000NE -RA SCT008 BKN030 25/18 A2994 RMK VTO CZDO PISTA BECMG 5000=
201011301700 METAR MRPV 301700Z 12010KT 8000 2000NE -RA SCT008 BKN025 24/19 A2993 RMK VTO CZDO PISTA BECMG 5000 -RA=
201011301800 METAR MRPV 301800Z 11010KT 3000 RA SCT004 BKN015 22/19 A2992 VTO CZDO EN PISTA BECMG 5000 -RA=
201011301900 METAR MRPV 301900Z 13008KT 8000 2000NW -RA SCT006 BKN030 22/19 A2990 RMK VIENTO CRUZADO BECMG 3000 -RA=
201011302000 METAR MRPV 302000Z 12006KT 9999 3000NE -RA SCT008 BKN030 23/19 A2986 RMK VIENTO CRUZADO EN PISTA BECMG 24006KT=
201011302100 METAR MRPV 302100Z 07006KT 9999 3000NE -RA SCT010 BKN030 22/19 A2987 RMK CROSS WIND BECMG 24006KT=
201011302200 METAR MRPV 302200Z 11007KT 9999 2000NW -RA BCFG FEW002 SCT030 BKN100 22/19 A2987 RMK CROSS WIND BECMG 24006KT=
201011302300 METAR MRPV 302300Z 10008KT 9999 2000NW -RA BCFG FEW002 BKN020 21/18 A2989 BECMG 24006KT=
201012010000 METAR MRPV 010000Z NIL=
201012010100 METAR MRPV NIL=
201012010200 METAR MRPV NIL=
201012010300 METAR MRPV NIL=
201012010400 METAR MRPV NIL=
201012010500 METAR MRPV NIL=
201012010600 METAR MRPV NIL=
201012010700 METAR MRPV NIL=
201012010800 METAR MRPV NIL=
201012010900 METAR MRPV NIL=
201012011000 METAR MRPV NIL=
201012011100 METAR MRPV NIL=
201012011200 METAR MRPV 011200Z 00000KT 4000 RA BR FEW003 BKN015 19/19 A2996 RMK VIS 9999 S TEMPO 5000=
201012011300 METAR MRPV 011300Z 00000KT 7000 RA BKN020 SCT100 19/19 A2997 RMK VIS E S UNL VIS NE NW W 5KM TEMPO 9999=
201012011400 METAR MRPV 011400Z 00000KT 3000 RA BR BKN008 SCT100 19/18 A3001 RMK WET RWY TEMPO 07006KT 5000 RA BKN015=
201012011500 METAR MRPV 011500Z 13008KT 7000 -RA BKN020 SCT100 20/19 A3000 RMK VIS E 5KM VIS SW UNL NOSIG=
201012011600 METAR MRPV 011600Z 13004KT 9999 4000NE -RA SCT020 BKN100 20/19 A2999 RMK VIS E SE 6KM WET RWY NOSIG=
201012011700 METAR MRPV 011700Z 11006KT 9999 4000NE -RA FEW025 SCT090 BKN100 21/18 A2997 RMK VIS E SE 8KM WET RWY NOSIG=
201012011800 METAR MRPV 011800Z 11008KT 4000 RA BKN010 SCT100 20/18 A2996 RMK WET RWY NOSIG=
201012011900 METAR MRPV 011900Z 10008KT 4000 RA BKN010 SCT100 19/17 A2994 RMK VIS SW UNL MAX WND SPD 15KT WET RWY NOSIG=
201012012000 METAR MRPV 012000Z 11008KT 8000 3500NE -RA FEW025 SCT080 BKN100 19/17 A2991 RMK VIS S UNL WET RWY NOSIG=
201012012100 METAR MRPV 012100Z 10012KT 9999 4000NE -RA FEW020 BKN100 20/17 A2989 RMK VEL MAX VTO 17KT VIS E/SE 6KM WET RWY NOSIG=
201012012200 METAR MRPV 012200Z 11010KT 7000 3000NE RA FEW020 BKN100 20/17 A2990 RMK WET RWY VEL MAX VTO 15KT NOSIG=
201012012300 METAR MRPV 012300Z 12008KT 9999 4000NE -RA FEW020 BKN100 19/17 A2993 RMK VEL MAX VTO 16KT VIS E/NW 7KM WET RWY NOSIG=
201012020000 METAR MRPV NIL=
201012020100 METAR MRPV NIL=
201012020200 METAR MRPV NIL=
201012020300 METAR MRPV NIL=
201012020400 METAR MRPV NIL=
201012020500 METAR MRPV NIL=
201012020600 METAR MRPV NIL=
201012020700 METAR MRPV NIL=
201012020800 METAR MRPV NIL=
201012020900 METAR MRPV NIL=
201012021000 METAR MRPV NIL=
201012021100 METAR MRPV NIL=
201012021200 METAR MRPV 021200Z 13005KT 9999 4000NE -RA SCT020 BKN100 19/17 A2997 WET RNY NOSIG=
201012021300 METAR MRPV 021300Z 11009KT 9999 4000NE -RA FEW025 SCT080 BKN100 20/16 A2999 RMK WET RWY NOSIG=
201012021400 METAR MRPV 021400Z 12007KT 9999 4000NE -RA FEW030 BKN100 20/16 A3003 RMK WET RWY NOSIG=
201012021500 METAR MRPV 021500Z 11008KT 9999 4000NE -RA FEW030 SCT080 BKN100 21/16 A3003 NOSIG=
201012021600 METAR MRPV 021600Z 10007KT 9999 4000NE -RADZ FEW030 SCT080 BKN100 21/17 A3003 RMK VEL MAX VTO 15KT NOSIG=
201012021700 METAR MRPV 021700Z 10009KT 9999 -RA SCT030 BKN100 22/17 A3000 RMK VIS NE 6KM NOSIG=
201012021800 METAR MRPV 021800Z 12007KT 9999 FEW030 BKN100 22/17 A2997 RMK PCPN DST N/NE VEL MAX VTO 15KT NOSIG=
201012021900 METAR MRPV 021900Z 12008KT 9999 SCT030 BKN120 23/17 A2994 RMK RN DST NW N NE E NOSIG=
201012022000 METAR MRPV 022000Z 08009KT 9999 -DZ SCT030 BKN120 22/17 A2993 RMK PCPN DST NW/NE VEL MAX VTO 17KT NOSIG=
201012022100 METAR MRPV 022100Z 10011KT 9999 4000NE -RA SCT025 BKN100 22/17 A2992 RMK VL MX VTO 17KT NOSIG=
201012022200 METAR MRPV 022200Z 10011KT 9999 4000NE RA FEW025 BKN100 21/17 A2992 RMK VL MX VTO 16KT NOSIG=
201012022300 METAR MRPV 022300Z 12007KT 9999 4000NE RA FEW030 BKN100 20/16 A2994 NOSIG=
201012030000 METAR MRPV NIL=
201012030100 METAR MRPV NIL=
201012030200 METAR MRPV NIL=
201012030300 METAR MRPV NIL=
201012030400 METAR MRPV NIL=
201012030500 METAR MRPV NIL=
201012030600 METAR MRPV NIL=
201012030700 METAR MRPV NIL=
201012030800 METAR MRPV NIL=
201012030900 METAR MRPV NIL=
201012031000 METAR MRPV NIL=
201012031100 METAR MRPV NIL=
201012031200 METAR MRPV 031200Z 12008KT CAVOK 18/13 A2999 RMK SCT300 DZ DST NE CB DST SE NOSIG=
201012031300 METAR MRPV 031300Z 12007KT CAVOK 20/14 A3001 RMK SCT300 DZ DST NE VL MX VTO 12KT NOSIG=
201012031400 METAR MRPV 031400Z 08005KT CAVOK 22/14 A3001 RMK FEW250 VL MX VTO 20KT NOSIG=
201012031500 METAR MRPV 031500Z 08015KT CAVOK 22/15 A3002 RMK SCT250 VL MX VTO 20KT NOSIG=
201012031600 METAR MRPV 031600Z 08016KT 9999 FEW045 SCT250 23/15 A3003 RMK VL MX VTO 24KT NOSIG=
201012031700 METAR MRPV 031700Z 07015KT 9999 FEW045 SCT300 24/14 A3001 RMK DZ DST N DU 09 VL MX VTO 21KT NOSIG=
201012031800 METAR MRPV 031800Z 08013KT 9999 FEW045 SCT300 25/14 A2997 RMK DU 09 VL MX VTO 19KT NOSIG=
201012031900 METAR MRPV 031900Z 06015KT 9999 FEW045 SCT300 24/16 A2995 RMK VL MX VTO 21KT DU 09 NOSIG=
201012032000 METAR MRPV NIL=
201012032100 METAR MRPV 032100Z 08014KT 9999 SCT040 24/16 A2992 RMK POLVO APROX. PISTA 09 NOSIG=
201012032200 METAR MRPV 032200Z 09013KT 9999 SCT035 22/16 A2003 RMK VEL.MAX.VTO 18KT POLVO APROX. PISTA 09 NOSIG=
201012032300 METAR MRPV 032300Z 10010KT 9999 -RA SCT025 21/16 A2995 RMK VEL. MAX.VTO 15KT VIS 7000 NE E RA NOSIG=
201012040000 METAR MRPV NIL=
201012040100 METAR MRPV NIL=
201012040200 METAR MRPV NIL=
201012040300 METAR MRPV NIL=
201012040400 METAR MRPV NIL=
201012040500 METAR MRPV NIL=
201012040600 METAR MRPV NIL=
201012040700 METAR MRPV NIL=
201012040800 METAR MRPV NIL=
201012040900 METAR MRPV NIL=
201012041000 METAR MRPV NIL=
201012041100 METAR MRPV NIL=
201012041200 METAR MRPV 041200Z 11010KT 9999 FEW020 SCT250 19/14 A3000 RMK VEL MAX VTO 15KT NOSIG=
201012041300 METAR MRPV 041300Z 09010KT 9999 FEW020 SCT250 20/14 A3003 RNK VEL.MAX.VTO 16KT RN DST NE NOSIG=
201012041400 METAR MRPV 041400Z 09012KT 9999 FEW020 SCT250 21/14 A3004 RMK RN DST N NE NOSIG=
201012041500 METAR MRPV 041500Z 07013G23KT 9999 FEW020 SCT250 22/15 A3009 RMK RN DST N NE=
201012041600 METAR MRPV 041600Z 06010G20KT 9999 FEW020 SCT250 23/15 A3004 RMK RN DST NE NOSIG=
201012041700 METAR MRPV 041700Z 06010G20KT 9999 SCT020 SCT250 23/16 A3003 RMK RN DST N NE NOSIG=
201012041800 METAR MRPV 041800Z 07010G20KT 9999 SCT020 SCT250 23/16 A3000 RMK RN DST N NE NOSIG=
201012041900 METAR MRPV NIL=
201012042000 METAR MRPV 042000Z 07010G20KT 9999 SCT020 SCT250 24/16 A2995 RMK DST N NE=
201012042100 METAR MRPV 042100Z 07010G20KT 9999 SCT020 SCT250 22/16 A2994 RMK RN DST NE NOSIG=
201012042200 METAR MRPV 042200Z 08010G20KT 9999 SCT020 SCT250 22/16 A2995 RMK PCPN DST NE NOSIG=
201012042300 METAR MRPV 042300Z 09010KT 9999 SCT020 SCT250 21/15 A2997 RMK PCPN DST NE NOSIG=
201012050000 METAR MRPV NIL=
201012050100 METAR MRPV NIL=
201012050200 METAR MRPV NIL=
201012050300 METAR MRPV NIL=
201012050400 METAR MRPV NIL=
201012050500 METAR MRPV NIL=
201012050600 METAR MRPV NIL=
201012050700 METAR MRPV NIL=
201012050800 METAR MRPV NIL=
201012050900 METAR MRPV NIL=
201012051000 METAR MRPV NIL=
201012051100 METAR MRPV NIL=
201012051200 METAR MRPV 051200Z 12008KT 9999 SKC 19/13 A3001 RMK VEL MAX VTO 14KT NOSIG=
201012051300 METAR MRPV NIL=
201012051400 METAR MRPV 051400Z 08014KT 9999 SKC 21/14 A3003 RMK VEL MAX VTO 20KT=
201012051500 METAR MRPV 051500Z 07014KT 9999 SKC 22/13 A3003 RMK VEL MAX VTO 12KT NOSIG=
201012051600 METAR MRPV 051600Z 07013KT 9999 FEW030 24/14 A3003 RMK VEL MAX VTO 19KT NOSI G=
201012051700 METAR MRPV 051700Z 06010KT 9999 FEW030 24/14 A3001=
201012051800 METAR MRPV 051800Z 06011KT 9999 FEW030 25/14 A2999 NOSIG=
201012051900 METAR MRPV 051900Z 07010G20KT 9999 FEW025 25/14 A2996 RMK TCU DST SW NOSIG=
201012052000 METAR MRPV 052000Z 06012KT 9999 FEW025 26/15 A2993 RMK VEL MAX 17KT TCU DST SW NOSIG=
201012052100 METAR MRPV 052100Z 05010G20KT 9999 FEW025 25/14 A2992 RMK CROSS WIND NOSIG=
201012052200 METAR MRPV 052200Z 06010G20KT 9999 SCT020 24/15 A2993 RMK CROSS WIND NOSIG=
201012052300 METAR MRPV 052300Z 06010G20KT 9999 SCT020 22/15 A2994 RMK CROSS WIND NOSIG=
201012052358 METAR MRPV 060000Z NIL=
201012060000 METAR MRPV NIL=
201012060100 METAR MRPV NIL=
201012060200 METAR MRPV NIL=
201012060300 METAR MRPV NIL=
201012060400 METAR MRPV NIL=
201012060500 METAR MRPV NIL=
201012060600 METAR MRPV NIL=
201012060700 METAR MRPV NIL=
201012060800 METAR MRPV NIL=
201012060900 METAR MRPV NIL=
201012061000 METAR MRPV NIL=
201012061100 METAR MRPV NIL=
201012061200 METAR MRPV 061200Z 10010KT 9999 FEW020 SCT030 20/15 A3002 RMK MAX WND SPD 15KT NOSIG=
201012061300 METAR MRPV 061300Z 10012KT 9999 FEW025 SCT035 20/15 A3003 RMK MAX WND SPD 19KT NOSIG=
201012061400 METAR MRPV 061400Z 09014KT 9999 FEW025 SCT035 21/15 A3004 RMK MAX WND SPD 21KT NOSIG=
201012061500 METAR MRPV 061500Z 07015KT 9999 SCT030 22/16 A3005 RMK MAX WND SPD 21KT RA N NOSIG=
201012061600 METAR MRPV 061600Z 06015KT 9999 FEW020 SCT030 22/16 A3005 RMK MAX WND SPD 20KT RA N NOSIG=
201012061700 METAR MRPV 061700Z 08015KT 9999 FEW020 SCT030 23/16 A3003 RMK MAX WND SPD 19KT RA N NOSIG=
201012061800 METAR MRPV 061800Z 08014KT 9999 FEW020 SCT030 23/16 A3000 RMK MAX WND SPD 20KT NOSIG=
201012061900 METAR MRPV 061900Z 07015KT 9999 FEW020 BKN030 23/16 A2998 RMK MAX WND SPD 23KT RA N NOSIG=
201012062000 METAR MRPV 062000Z 06014G24KT 9999 FEW020 SCT030 23/16 A2996=
201012062100 METAR MRPV 062100Z 07010G20KT 9999 SCT025 23/16 A2994 RMK RN DST N/NE NOSIG=
201012062200 METAR MRPV 062200Z 07010G20KT 9999 SCT025 22/16 A2994 RMK PCPN DST N/NE NOSIG=
201012062300 METAR MRPV 062300Z 07010G20KT 9999 BKN020 21/16 A2996 RMK RN DST QUAD N NOSIG=
201012070000 METAR MRPV NIL=
201012070100 METAR MRPV NIL=
201012070200 METAR MRPV NIL=
201012070300 METAR MRPV NIL=
201012070400 METAR MRPV NIL=
201012070500 METAR MRPV NIL=
201012070600 METAR MRPV NIL=
201012070700 METAR MRPV NIL=
201012070800 METAR MRPV NIL=
201012070900 METAR MRPV NIL=
201012071000 METAR MRPV NIL=
201012071100 METAR MRPV NIL=
201012071200 METAR MRPV 071200Z 10016KT 9999 RA FEW030 BKN100 16/11 A3003 RMK VIS NE E SE 7KMS VEL MAX VTO 24KT NOSIG=
201012071300 METAR MRPV 071300Z 09025KT 9999 FEW030 SCT100 16/11 A3006 RERA RMK PCPN DST NW N NE E SE NOSIG=
201012071400 METAR MRPV 071400Z 09018KT 9999 FEW040 BKN100 18/11 A3008 RMK DZ DST=
201012071500 METAR MRPV 071500Z 09021KT 9999 FEW045 BKN100 20/09 A3009 RMK VEL MAX VTO 28KT DZ DST NE SE NOSIG=
201012071600 METAR MRPV 071600Z 09022KT 9999 FEW045 BKN100 20/09 A3008 NOSIG=
201012071700 METAR MRPV 071700Z 10017KT 9999 FEW030 SCT120 21/09 A3007 RMK VEL MAX VTO 25KT NOSIG=
201012071800 METAR MRPV 071800Z 08018KT 9999 FEW030 SCT120 22/11 A3003 RMK VEL MAX VTO 23KT NOSIG=
201012071900 METAR MRPV 071900Z 10013KT 9999 FEW035 SCT120 22/12 A3000 RMK DZ DST N/NE VEL MAX VTO 18KT NOSIG=
201012072000 METAR MRPV 072000Z 09015KT 9999 FEW040 SCT120 21/13 A2998 RMK DZ DST NE VEL MAX VTO 20KT NOSIG=
201012072100 METAR MRPV 072100Z 08016KT 9999 FEW045 BKN120 22/14 A2997 RMK DZ DST N NE NOSIG=
201012072200 METAR MRPV 072200Z 08018KT 9999 FEW040 SCT120 21/15 A2998 RMK DZ DST N NE VL MX VTO 23KT NOSIG=
201012072300 METAR MRPV 072300Z 0015KT 9999 FEW035 SCT120 20/15 A2999 RMK DZ DST N NE VL MX VTO 21KT NOSIG=
201012080000 METAR MRPV NIL=
201012080100 METAR MRPV NIL=
201012080200 METAR MRPV NIL=
201012080300 METAR MRPV NIL=
201012080400 METAR MRPV NIL=
201012080500 METAR MRPV NIL=
201012080600 METAR MRPV NIL=
201012080700 METAR MRPV NIL=
201012080800 METAR MRPV NIL=
201012080900 METAR MRPV NIL=
201012081000 METAR MRPV NIL=
201012081100 METAR MRPV NIL=
201012081200 METAR MRPV 081200Z 10008KT 9999 FEW035 SCT100 18/13 A3001 NOSIG=
201012081300 METAR MRPV 081300Z 10008KT 9999 FEW040 BKN100 19/14 A3003 NOSIG=
201012081400 METAR MRPV 081400Z 09010KT 9999 FEW040 BKN100 21/14 A3005 NOSIG=
201012081500 METAR MRPV 081500Z 11008KT 9999 FEW040 BKN100 21/14 A3005 RMK VL MX VTO 13KT NOSIG=
201012081600 METAR MRPV 081600Z 08011KT CAVOK 22/15 A3005 RMK BKN100 VL MX VTO 18KT NOSIG=
201012081700 METAR MRPV 081700Z 08015KT CAVOK 23/15 A3003 RMK BKN100 NOSIG=
201012081800 METAR MRPV 081800Z 08014KT 9999 FEW040 BKN100 23/16 A3001 RMK DU 09 NOSIG=
201012081900 METAR MRPV 081900Z 09014KT 9999 SCT035 BKN100 22/17 A2998 RMK PCPN DST NE CU DES SW NOSIG=
201012082000 METAR MRPV 082000Z 08011KT 9999 FEW035 SCT090 BKN120 22/16 A2996 RMK RN DST NE TCU DST SW NOSIG=
201012082100 METAR MRPV 082100Z 08010KT CAVOK 22/16 A2996 RMK SCT090 BKN120 DZ DST NE VEL.MAX.VTO 15KT NOSIG=
201012082200 METAR MRPV 082200Z 08012KT CAVOK 21/16 A2995 RMK SCT090 BKN120 NOSIG=
201012082300 METAR MRPV 082300Z 08011KT 9999 SCT030 BKN100 21/16 A2996 RMK DZ DST NE NOSIG=
201012090000 METAR MRPV NIL=
201012090100 METAR MRPV NIL=
201012090200 METAR MRPV NIL=
201012090300 METAR MRPV NIL=
201012090400 METAR MRPV NIL=
201012090500 METAR MRPV NIL=
201012090600 METAR MRPV NIL=
201012090700 METAR MRPV NIL=
201012090800 METAR MRPV NIL=
201012090900 METAR MRPV NIL=
201012091000 METAR MRPV NIL=
201012091100 METAR MRPV NIL=
201012091200 METAR MRPV 091200Z 11010KT 9999 FEW035 BKN100 19/16 A3000 RMK DZ DST NW N NE E NOSIG=
201012091300 METAR MRPV 091300Z 12009KT 9999 RA FEW030 BKN120 20/16 A3002 RMK VIS 6000NE DZ DST NW N E VEL.MAX.VTO 14KT NOSIG=
201012091400 METAR MRPV 091400Z 10013KT 9999 RA FEW025 SCT120 20/16 A3002 RMK VIS 7000 NE E DZ DST NW N VEL.MAX.VTO 19KT=
201012091500 METAR MRPV 091500Z 09016KT 9999 FEW025 BKN120 22/15 A3003 RERA VIS 8000 NE E SE DZ DST NW N VEL/MAX/VTO 22KT=
201012091600 METAR MRPV 091600Z 09018KT 9999 FEW025 22/15 A3003 RMK FEW120 VEL.MAX.VTO 24KT RN DST NW HASTZ SE NOSIG=
201012091700 METAR MRPV 091700Z 09018KT 9999 FEW030 SCT120 23/15 A3001 VEL/MAX/VTO 24KT RN DST NW HASTA SE NOSIG=
201012091800 METAR MRPV 091800Z 09019KT 9999 FEW030 BKN120 22/14 A2998 RMK VEL.MAX.VTO 25KT DZ DST NW NE E SE NOSIG=
201012091900 METAR MRPV 091900Z 09012KT 9999 FEW025 SCT120 21/15 A2998 RMK DZ DST NE SE VEL.MAX.VTO 29KT NOSIG=
201012092000 METAR MRPV 092000Z 09020KT 9999 FEW025 BKN100 20/14 A2998 RMK DZ DST NE E VEL.MAX.VTO 28KT NOSIG=
201012092100 METAR MRPV 092100Z 07020KT 9999 FEW030 BKN100 20/14 A2997 RMK VEL MAX VTO 25KT RN DST SE NOSIG=
201012092200 METAR MRPV 092200Z 08016KT 9999 FEW025 BKN100 20/13 A2996 RMK VEL MAX VTO 22KT RN DST SE NOSIG=
201012092300 METAR MRPV 092300Z 09019KT 9999 FEW025 BKN100 19/14 A2997 RMK RN DST SE EL MAX VTO 25KT NOSIG=
201012092345 METAR MRPV 092345Z 08016KT 9999 FEW020 BKN100 19/14 A2999 RMK DZ DST N NE E SE NOSIG=
201012100000 METAR MRPV NIL=
201012100100 METAR MRPV NIL=
201012100200 METAR MRPV NIL=
201012100300 METAR MRPV NIL=
201012100400 METAR MRPV NIL=
201012100500 METAR MRPV NIL=
201012100600 METAR MRPV NIL=
201012100700 METAR MRPV NIL=
201012100800 METAR MRPV NIL=
201012100900 METAR MRPV NIL=
201012101000 METAR MRPV NIL=
201012101100 METAR MRPV NIL=
201012101200 METAR MRPV 101200Z 10015G25KT 9999 SCT020 18/13 A2999 RMK PCPN DST N NE E NOSIG=
201012101300 METAR MRPV 101300Z 10010G20KT 9999 SCT012 19/13 A3001 RMK RN DST N NE NOSIG=
201012101400 METAR MRPV 101400Z 11010G20KT 9999 SCT012 18/14 A3003 RMK PCPN DST N NE NOSI G=
201012101500 METAR MRPV 101500Z 10010G20KT 9999 SCT015 19/14 A3004 RMK PCPN DST N NE NOSIG=
201012101600 METAR MRPV 101600Z 08010G20KT 9999 SCT015 21/14 A3003 RMK N N NE NOSIG=
201012101700 METAR MRPV 101700Z 09010G20KT 9999 SCT015 20/14 A3002 RMK PCPN DST N NE NOSIG=
201012101800 METAR MRPV 101800Z 10010G20KT 9999 SCT015 22/15 A2999 RMK PCPN DST N NE NOSIG=
201012101900 METAR MRPV 101900Z 08011G21KT 9999 SCT020 22/15 A2996 RMK PCPN DST NE NOSIG=
201012102000 METAR MRPV 102000Z 09010G20KT 9999 BKN025 21/14 A2995 RMK PCPN NE NOSIG=
201012102100 METAR MRPV 102100Z 08010G20KT 9999 BKN030 20/15 A2995 RMK PCPN DST N NE NOSIG=
201012102200 METAR MRPV 102200Z 08010G20KT 9999 BKN030 20/15 A2995 RMK RA DST NE N NOSIG=
201012102300 METAR MRPV 102300Z 09010G20KT 9999 BKN030 19/14 A2996 RMK RA DST NE N NOSIG=
201012110000 METAR MRPV 110000Z NIL=
201012110100 METAR MRPV NIL=
201012110200 METAR MRPV NIL=
201012110300 METAR MRPV NIL=
201012110400 METAR MRPV NIL=
201012110500 METAR MRPV NIL=
201012110600 METAR MRPV NIL=
201012110700 METAR MRPV NIL=
201012110800 METAR MRPV NIL=
201012110900 METAR MRPV NIL=
201012111000 METAR MRPV NIL=
201012111100 METAR MRPV NIL=
201012111200 METAR MRPV 111200Z 09010G20KT 9999 FEW020 16/12 A3000 RMK RN DST NE E SE NOSIG=
201012111300 METAR MRPV 111300Z 10010G20KT 9999 FEW012 17/13 A3002 RMK RA DST NE E SE NOSIG=
201012111400 METAR MRPV 111400Z 09010G20KT 9999 SCT010 18/13 A3003 RMK RA DST NE E SE NOSIG=
201012111500 METAR MRPV 111500Z 10010G20KT 9999 SCT010 20/14 A3004 RMK RA DST NE E SE NOSIG=
201012111600 METAR MRPV 111600Z 09010G20KT 9999 SCT010 21/14 A3003 RMK RA DST NE E NOSIG=
201012111700 METAR MRPV 111700Z 08010G20KT 9999 SCT010 24/14 A3000 RMK RA DST NE NOSIG=
201012111800 METAR MRPV 111800Z 09010G20KT 9999 SCT015 25/16 A2998 RMK RA DST NE NOSIG=
201012111900 METAR MRPV 111900Z 09010G20KT 9999 SCT020 25/16 A2995 RMK RA DST NE TCU SW NOSIG=
201012112000 METAR MRPV 112000Z 08010KT 9999 SCT025 25/16 A2994 RMK MAX WND SPD 15KT RA DST NE TCU S SW NOSIG=
201012112100 METAR MRPV 112100Z 07010KT 9999 SCT025 23/16 A2993 RMK VEL MAX VTO 15KT PCPN DST NE TCU DST S SW NOSIG=
201012112200 METAR MRPV 112200Z 08010KT 9999 SCT025 23/16 A2994 RMK PCPN DST NE TCU DST S/SW NOSIG=
201012112300 METAR MRPV 112300Z 08011KT 9999 SCT010 22/16 A2994 RMK VEL MAX VTO 16KT PCPN DST NE/E NOSIG=
201012120000 METAR MRPV NIL=
201012120100 METAR MRPV NIL=
201012120200 METAR MRPV NIL=
201012120300 METAR MRPV NIL=
201012120400 METAR MRPV NIL=
201012120500 METAR MRPV NIL=
201012120600 METAR MRPV NIL=
201012120700 METAR MRPV NIL=
201012120800 METAR MRPV NIL=
201012120900 METAR MRPV NIL=
201012121000 METAR MRPV NIL=
201012121100 METAR MRPV NIL=
201012121200 METAR MRPV 121200Z 11010KT 9999 SCT020 20/16 A2998 RMK PCPN DST N NE NOSIG=
201012121300 METAR MRPV 121300Z 11010KT 9999 SCT020 21/16 A3000 RMK RN DST NE NOSIG=
201012121400 METAR MRPV 121400Z 12008KT 9999 FEW020 SCT250 23/16 A3002 RMK RN DST NE NOSIG=
201012121500 METAR MRPV 121500Z 12008KT 9999 FEW020 SCT250 25/16 A3002 RMK RN DST NE BECMG 24006KT=
201012121600 METAR MRPV 121600Z 11006KT 9999 SCT020 26/16 A3001 RN DST NE BECMG 24006KT=
201012121700 METAR MRPV 121700Z 08010KT 9999 SCT020 25/16 A2999 NOSIG=
201012121800 METAR MRPV 121800Z 08008KT 9999 FEW010TCU BKN030 25/17 A2997 BECMG 24006KT VCSH=
201012121900 METAR MRPV 121900Z 13008KT SCT010TCU BKN030 25/17 A2994 RMK RN DST NE CROSS WIND BECMG 24006KT VCSH=
201012122000 METAR MRPV 122000Z 24006KT 9999 FEW010TCU BKN030 25/19 A2992 BECMG -RA VCSH=
201012122100 METAR MRPV 122100Z 27008KT 9999 VCSH SCT010TCU BKN025 24/19 A2992 RMK RASH NE BECMG -RA=
201012122200 METAR MRPV 122200Z 08008KT 9999 VCSH SCT010 BKN025 23/17 A2992 RMK RASH DST NNE BECMG -RA=
201012122300 METAR MRPV 122300Z 09010KT 9999 SCT010 BKN025 21/17 A2994 NOSIG=
201012130000 METAR MRPV NIL=
201012130100 METAR MRPV NIL=
201012130200 METAR MRPV NIL=
201012130300 METAR MRPV NIL=
201012130400 METAR MRPV NIL=
201012130500 METAR MRPV NIL=
201012130600 METAR MRPV NIL=
201012130700 METAR MRPV NIL=
201012130800 METAR MRPV NIL=
201012130900 METAR MRPV NIL=
201012131000 METAR MRPV NIL=
201012131100 METAR MRPV NIL=
201012131200 METAR MRPV 131200Z 11012KT 9999 RA SCT030 19/15 A2998 RMK VIS NE 6KM DZ NW N E MAX WND SPD 16KT NOSIG=
201012131300 METAR MRPV 131300Z 09016KT 9999 RA FEW025 19/14 A2999 RMK VIS NE E 7000 FEW100 VL MX VTO 22KT DZ DST NE N NOSIG=
201012131400 METAR MRPV 131400Z 08017KT 9999 RA SCT030 20/15 A3001 RMK VIS NE 6000 VL MX VTO 22KT PCPC DST NW N SE NOSIG=
201012131500 METAR MRPV NIL=
201012131600 METAR MRPV 131600Z 09014KT 9999 FEW025 SCT090 22/15 A3002 RERA RMK VIS NE E SE 8000 VL MX VTO 20KT NOSIG=
201012131700 METAR MRPV 131700Z 09019KT 9999 RA FEW025 23/15 A2999 RMK VIS NE 7000 DZ NW N VL MX VTO 24KT NOSIG=
201012131800 METAR MRPV 131800Z 08016KT 9999 RA FEW030 23/15 A2997 RMK VIS 7000 NE DZ DST NW N W VL MX VTO 23KT NOSIG=
201012131900 METAR MRPV 131900Z 09015KT 9999 RA SCT025 23/16 A2993 RMK VIS NE E SE 6KMS DZ DST NW N NOSIG=
201012132000 METAR MRPV 132000Z 08019KT 9999 RA FEW025 SCT250 22/15 A2991 RMK VIS NE E SE 7KMS DZ N NW VEL MAX WIND 24KT NOSIG=
201012132100 METAR MRPV 132100Z 07020KT 9999 RA FEW025 SCT090 19/14 A2992 RMK VEL.MAX.VTO 25KT VIS 7000 SE DZ DST NW N NE NOSIG=
201012132200 METAR MRPV 132200Z 08019KT 9999 FEW025 BKN090 19/13 A2993 RERA RMK VIS 8000 SE NE DZ DST NW N VEL.MAX.VTO 27KT NOSIG=
201012132300 METAR MRPV 132300Z 09017KT 9999 RA DZ FEW025 BKN090 18/13 A2997 RMK VIS 6000 NE VEL.MAX.VTO 23KT DZ DST NW N NOSIG=
201012140000 METAR MRPV NIL=
201012140100 METAR MRPV NIL=
201012140200 METAR MRPV NIL=
201012140300 METAR MRPV NIL=
201012140400 METAR MRPV NIL=
201012140500 METAR MRPV NIL=
201012140600 METAR MRPV NIL=
201012140700 METAR MRPV NIL=
201012140800 METAR MRPV NIL=
201012140900 METAR MRPV NIL=
201012141000 METAR MRPV NIL=
201012141100 METAR MRPV NIL=
201012141200 METAR MRPV 141200Z 09018KT 9999 RA SCT025 15/10 A3000 RMK VIS NE/E 7KM DZ DST NW/N VEL MAX VTO 23KT NOSIG=
201012141300 METAR MRPV 141300Z 10015G25KT 9999 DZ SCT020 SCT100 16/10 A3003 RERA VIS 7000 NE E NOSIG=
201012141400 METAR MRPV 141400Z 09016KT 9999 DZ SCT025 SCT100 16/10 A3005 RMK VEL.MAX.VTO 22KT RN DST SE NE NOSIG=
201012141500 METAR MRPV 141500Z 09017KT 9999 SCT030 SCT100 17/10 A3005 REDZ RMK DZ DST NE VEL.MAX.VTO 24KT NOSIG=
201012141600 METAR MRPV 141600Z 08019KT 9999 BKN035 SCT250 18/10 A3005 RMK VEL.MAX.VTO 26KT RN DST ESE NOSIG=
201012141700 METAR MRPV 141700Z 09018KT 9999 SCT030 SCT250 19/10 A3002 RMK VEL.MAX.VTO.24KT NOSIG=
201012141800 METAR MRPV 141800Z 09019KT 9999 BKN030 SCT250 19/10 A2999 RMK VEL.MAX.VTO 25KT NOSIG=
201012141900 METAR MRPV 141900Z 09017KT 9999 BKN030 SCT250 18/11 A2996 DZ DST NE/E VEL/MA X VIENTO 23 NUDOS NOSIG=
201012142000 METAR MRPV 142000Z 10014KT 9999 BKN025 18/11 A2996 VEL/MAX VIENTO 21NUDO DZ DST NE E NOSIG=
201012142100 METAR MRPV 142100Z 10014G24KT 9999 BKN025 SCT250 18/12 A2996 RMK DZ DST NE NOSIG=
201012142200 METAR MRPV 142200Z 10014KT 9999 SCT020 SCT250 18/12 A2995 RMK DZ DST NE E VEL MAX VTO 20KT NOSIG=
201012142300 METAR MRPV 142300Z 11012KT 9999 SCT030 SCT250 16/12 A2997 RMK DZ DST NW NE=
201012150000 METAR MRPV NIL=
201012150100 METAR MRPV 150100Z NIL=
201012150200 METAR MRPV NIL=
201012150300 METAR MRPV NIL=
201012150400 METAR MRPV NIL=
201012150500 METAR MRPV NIL=
201012150600 METAR MRPV NIL=
201012150700 METAR MRPV NIL=
201012150800 METAR MRPV NIL=
201012150900 METAR MRPV NIL=
201012151000 METAR MRPV NIL=
201012151100 METAR MRPV NIL=
201012151200 METAR MRPV 151200Z 11010KT 9999 BKN020 SCT100 17/13 A2997 RMK DZ DST NW NE E VL MX VTO 15KT NOSIG=
201012151300 METAR MRPV 151300Z 11012KT 9999 SCT020 BKN100 17/13 A2999 RMK DZ DST NW NE NOSIG=
201012151400 METAR MRPV 151400Z 11011KT 9999 BKN025 SCT100 18/13 A3000 RMK DZ DST NE VEL MAX VTO 17KT=
201012151500 METAR MRPV 151500Z 10011KT 9999 SCT025 SCT120 18/13 A3000 RMK VEL MAX VTO 16KT NOSIG=
201012151600 METAR MRPV 151600Z 10012KT 9999 FEW035 BKN120 19/12 A3000 NOSIG=
201012151700 METAR MRPV 151700Z 09013KT 9999 FEW040 BKN120 22/13 A2998 NOSIG=
201012151800 METAR MRPV 151800Z 08013KT 9999 FEW035 BKN120 22/14 A2996 NOSIG=
201012151900 METAR MRPV 151900Z 10010KT 9999 FEW035 BKN120 22/14 A2993 NOSIG=
201012152000 METAR MRPV 152000Z 09012KT 9999 FEW040 BKN120 22/14 A2991 RMK DZ DST NE NOSIG=
201012152100 METAR MRPV 152100Z 09012KT 9999 CAVOK 20/14 A2992 RMK OVC120 DZ NE NOSIG=
201012152200 METAR MRPV 152200Z 09012KT CAVOK 19/14 A2993 RMK SCT100 BKN130 NOSIG=
201012152300 METAR MRPV 152300Z 10009KT CAVOK 19/14 A2993 RMK OVC130 MAX WND SPD 14KT NOSIG=
201012160000 METAR MRPV NIL=
201012160100 METAR MRPV NIL=
201012160200 METAR MRPV NIL=
201012160300 METAR MRPV NIL=
201012160400 METAR MRPV NIL=
201012160500 METAR MRPV NIL=
201012160600 METAR MRPV NIL=
201012160700 METAR MRPV NIL=
201012160800 METAR MRPV NIL=
201012160900 METAR MRPV NIL=
201012161000 METAR MRPV NIL=
201012161100 METAR MRPV NIL=
201012161200 METAR MRPV 161200Z 12012KT 9999 FEW004 SCT120 BKN250 18/14 A2996 RMK RN DST NE NOSIG=
201012161300 METAR MRPV 161300Z 11010KT 9999 FEW004 SCT120 BKN250 19/15 A2998 RMK PCPN DST NE NOSIG=
201012161400 METAR MRPV 161400Z 12010KT 9999 FEW004 SCT120 BKN250 20/15 A3000 RMK CROSS WIND MAX WND SPD 15KT PCPN DST E NE NOSIG=
201012161500 METAR MRPV 161500Z 11010KT 9999 FEW010 BKN250 22/15 A3000 RMK RA DST E NE NOSIG=
201012161600 METAR MRPV 161600Z 10010KT 9999 FEW010 BKN250 23/16 A3000 RMK MAX WND SPD 15KT RA DST NE NOSIG=
201012161700 METAR MRPV 161700Z 10010KT 9999 FEW010 BKN250 24/16 A2998 RMK RA DST NE NOSIG=
201012161800 METAR MRPV 161800Z 08010KT 9999 FEW012 BKN250 25/16 A2996 RMK RA DST NE NOSIG=
201012161900 METAR MRPV 161900Z 07010KT 9999 SCT012 BKN250 25/16 A2993 RMK RA DST NE NOSIG=
201012162000 METAR MRPV 162000Z 12004KT 9999 SCT012 BKN250 25/16 A2991 RMK RA DST NE TCU S SW BECMG 24007KT=
201012162100 METAR MRPV 162100Z 25004KT 9999 SCT012TCU BKN250 24/18 A2991 BECMG=
201012162200 METAR MRPV 162200Z 08008KT 9999 FEW010TCU BKN030 23/16 A2992 NOSIG=
201012162300 METAR MRPV 162300Z 08009KT 9999 SCT008 BKN025 21/16 A2994 NOSIG=
201012170000 METAR MRPV NIL=
201012170100 METAR MRPV NIL=
201012170200 METAR MRPV NIL=
201012170300 METAR MRPV NIL=
201012170400 METAR MRPV NIL=
201012170500 METAR MRPV NIL=
201012170600 METAR MRPV NIL=
201012170700 METAR MRPV NIL=
201012170800 METAR MRPV NIL=
201012170900 METAR MRPV NIL=
201012171000 METAR MRPV NIL=
201012171100 METAR MRPV NIL=
201012171200 METAR MRPV 171200Z 09004KT 9999 FEW010 SCT250 16/14 A3000 NOSIG=
201012171300 METAR MRPV 171300Z 09004KT 9999 FEW010 SCT250 19/15 A3001 NOSIG=
201012171400 METAR MRPV 171400Z 13008KT 9999 FEW020 BKN250 21/15 A3003 RMK VIENTO CRUSADO NOSIG=
201012171500 METAR MRPV 171500Z 09008KT 9999 FEW020 23/15 A3004 NOSIG=
201012171600 METAR MRPV 171600Z VRB02KT 9999 FEW020 SCT250 25/15 A3004 BECMG 24006KT=
201012171700 METAR MRPV 171700Z 26006KT 9999 SCT020 SCT250 26/15 A3002 RMK DU NR APCH RWY09 NOSIG=
201012171800 METAR MRPV 171800Z 27008KT 9999 SCT020 SCT250 25/16 A2998 RMK DU NR APCH RWY09 NOSIG=
201012171900 METAR MRPV 171900Z 28010KT 9999 SCT020 SCT250 26/17 A2995 RMK DU NR APCH RWY 09 NOSIG=
201012172000 METAR MRPV 172000Z 28010KT 9999 FEW010TCU SCT025 25/19 A2993 RMK VEL MAX VTO 15KT DU NR RWY09 BECMG VCSH=
201012172100 METAR MRPV 172100Z 27012KT 9999 FEW010TCU SCT025 24/19 A2992 BECMG=
201012172200 METAR MRPV 172200Z 26010KT 9999 FEW010TCU SCT025 23/19 A2994 RMK BECMG=
201012172300 METAR MRPV 172300Z 29010KT 9999 3000NE VCFG SCT002 BKN020 21/18 A2996 BECMG 5000 -RA BR=
201012180000 METAR MRPV NIL=
201012180100 METAR MRPV NIL=
201012180200 METAR MRPV NIL=
201012180300 METAR MRPV NIL=
201012180400 METAR MRPV NIL=
201012180500 METAR MRPV NIL=
201012180600 METAR MRPV NIL=
201012180700 METAR MRPV NIL=
201012180800 METAR MRPV NIL=
201012180900 METAR MRPV NIL=
201012181000 METAR MRPV NIL=
201012181100 METAR MRPV NIL=
201012181200 METAR MRPV 181200Z 00000KT CAVOK 15/13 A2999 RMK DUST RWY09 BKN250 NOSIG=
201012181300 METAR MRPV 181300Z 00000KT CAVOK 17/14 A3000 RMK BKN250 POLVO APROX.PISTA 09=
201012181400 METAR MRPV 181400Z 07003KT CAVOK 20/14 A3002 RMK BKN250 POLVO APROX.PISTA 09 HZ W NOSIG=
201012181500 METAR MRPV 181500Z 09005KT 9999 FEW025 BKN250 22/15 A3002 RMK FU NW HZ QUAD W NOSIG=
201012181600 METAR MRPV 181600Z 24004KT 9999 FEW025 BKN250 26/15 A3000 RMK HZY W NOSIG=
201012181700 METAR MRPV NIL=
201012181800 METAR MRPV 181800Z 24008KT 9999 SCT020 BKN250 27/16 A2994 RMK HZ W NOSIG=
201012181900 METAR MRPV 181900Z 27010KT 9999 SCT020 BKN250 27/16 A2991 RMK HZ W TCU SW NE NOSIG=
201012182000 METAR MRPV 182000Z 27010KT 9999 FEW012TCU BKN250 26/18 A2989 HZ W BECMG=
201012182100 METAR MRPV 182100Z 27010KT 9999 FEW012TCU BKN250 24/21 A2988 RMK HZ W BECMG VCSH=
201012182200 METAR MRPV 182200Z 26010KT 9999 3000NE VCFG SCT010TCU BKN250 22/19 A2989 RMK HZ W N BECMG 5000 BR=
201012182300 METAR MRPV 182300Z 27007KT 5000 2000NE -RA BR SCT001 BKN015 21/19 A2991 BECMG 3000 -RA BR=
201012190000 METAR MRPV NIL=
201012190100 METAR MRPV NIL=
201012190200 METAR MRPV NIL=
201012190300 METAR MRPV NIL=
201012190400 METAR MRPV NIL=
201012190500 METAR MRPV NIL=
201012190600 METAR MRPV NIL=
201012190700 METAR MRPV NIL=
201012190800 METAR MRPV NIL=
201012190900 METAR MRPV NIL=
201012191000 METAR MRPV NIL=
201012191100 METAR MRPV NIL=
201012191200 METAR MRPV 191200Z 12004KT CAVOK 18/14 A2997 RMK BKN250 TCU DST SW NOSIG=
201012191300 METAR MRPV 191300Z 14006KT CAVOK 19/15 A2998 RMK SCT250 VEL MAX VTO 11KT TCU DST SW NOSIG=
201012191400 METAR MRPV 191400Z 12007KT CAVOK 21/15 A3000 RMK SCT250 CB DST SW VEL MAX VTO 13KT NOSIG=
201012191500 METAR MRPV 191500Z 08011KT 9999 FEW045 BKN250 22/16 A3000 RMK CB DST SW NOSIG=
201012191600 METAR MRPV 191600Z 07010KT CAVOK 23/15 A3000 RMK BKN250 CB DSPNG DST TO S SW NOSIG=
201012191700 METAR MRPV 191700Z 07008KT 9999 FEW045 BKN250 25/15 A2998 RMK VEL MAX VTO 13KT NOSIG=
201012191800 METAR MRPV 191800Z 08010KT 9999 SCT035 25/16 A2996 RMK VEL MAX 15KT TCU DST NW NOSIG=
201012191900 METAR MRPV 191900Z 08009KT 9999 FEW025TCU SCT035 BKN250 26/16 A2994 RMK HZ ARND NOSIG=
201012192000 METAR MRPV 192000Z 08013KT 9999 FEW040 BKN250 26/15 A2989 HZ LGT ARND VEL MAX WIND 18 KTS NOSIG=
201012192100 METAR MRPV 192100Z 08010KT 9999 FEW020TCU BKN040 25/15 A2990 RMK HZ ARND NOSIG=
201012192200 METAR MRPV 192200Z 08010KT 9999 SCT040 BKN250 24/15 A2989 RMK HZ LEVE ARND CB DST NNE NOSIG=
201012192300 METAR MRPV 192300Z 08011KT SHRA FEW015TCU SCT035 BKN250 23/16 A2992 RMK HZ LEVE ARND VIS 6000N NOSIG=
201012200000 METAR MRPV NIL=
201012200100 METAR MRPV NIL=
201012200200 METAR MRPV NIL=
201012200300 METAR MRPV NIL=
201012200400 METAR MRPV NIL=
201012200500 METAR MRPV NIL=
201012200600 METAR MRPV NIL=
201012200700 METAR MRPV NIL=
201012200800 METAR MRPV NIL=
201012200900 METAR MRPV NIL=
201012201000 METAR MRPV NIL=
201012201100 METAR MRPV NIL=
201012201200 METAR MRPV 201200Z 12009KT 9999 SCT030 BKN120 19/15 A2999 RMK VL MX VTO 14KT DZ DST NW N NE E NOSIG=
201012201300 METAR MRPV 201300Z 08014KT 9999 FEW025 BKN250 19/14 A3000 RMK DZ DST NW N NE E SE FEW120 NOSIG=
201012201400 METAR MRPV 201400Z 08013KT 9999 SCT035 SCT120 20/14 A3003 RMK RN DST SE VEL MAX VTO 18KT=
201012201500 METAR MRPV 201500Z 10007KT 9999 SCT030 SCT120 21/15 A3004 RMK DZ DST N NE VEL MAX VTO 15KT NOSIG=
201012201600 METAR MRPV 201600Z 10012KT 9999 BKN030 21/14 A3004 RMK DZ DST N NE VEL MAX VTO NOSIG=
201012201601 METAR MRPV 201601Z 10012KT 9999 BKN030 21/14 A3004 RMK DZ DST N NE VEL MAX VTO 18KT NOSIG=
201012201700 METAR MRPV 201700Z 11009KT 9999 SCT030 22/15 A3003 RMK DZ DST NE VEL MAX VTO 15KT FEW120 FEW250 NOSIG=
201012201800 METAR MRPV 201800Z 09016KT 9999 BKN025 21/15 A3002 RMK DZ N NE VEL MAX VTO 21KT NOSIG=
201012201900 METAR MRPV 201900Z 10012KT 9999 SCT020 SCT100 21/15 A2999 RMK DZ DST NE VEL MAX VTO 17KT NOSIG=
201012202000 METAR MRPV 202000Z 09014KT 9999 SCT020 BKN250 20/14 A2998 RMK DZ DST NE VEL MAX VTO 19KT NOSIG=
201012202100 METAR MRPV 202100Z 09015KT 9999 SCT025 BKN250 21/10 A2996 RMK MAX WND SPD 21KT NOSIG=
201012202200 METAR MRPV 202200Z 08014KT 9999 SCT025 BKN250 19/12 A2997 RMK DZ DST NE NOSIG=
201012202300 METAR MRPV 202300Z 09012KT 9999 SCT030 SCT060 19/13 A2998 NOSIG=
201012210000 METAR MRPV 210000Z NIL=
201012210100 METAR MRPV NIL=
201012210200 METAR MRPV NIL=
201012210300 METAR MRPV NIL=
201012210400 METAR MRPV NIL=
201012210500 METAR MRPV NIL=
201012210600 METAR MRPV NIL=
201012210700 METAR MRPV NIL=
201012210800 METAR MRPV NIL=
201012210900 METAR MRPV NIL=
201012211000 METAR MRPV NIL=
201012211100 METAR MRPV NIL=
201012211200 METAR MRPV 211200Z 11008KT 9999 NSC 17/12 A3001 RMK VEL.MAX.VTO 13KT NOSIG=
201012211300 METAR MRPV 211300Z 11010KT 9999 NSC 18/12 A3002 RMK MAX WND SPD 15KT NOSIG=
201012211400 METAR MRPV 211400Z 10012KT 9999 NSC 20/12 A3005 RMK MAX WND SPD 18KT NOSIG=
201012211500 METAR MRPV 211500Z 08015KT 9999 FEW045 21/11 A3004 RMK MAX WND SPD 21KT NOSIG=
201012211600 METAR MRPV 211600Z 07016G26KT 9999 FEW045 22/12 A3005 NOSIG=
201012211700 METAR MRPV 211700Z 07014KT 9999 FEW045 22/13 A3003 NOSIG=
201012211800 METAR MRPV 211800Z 07014KT 9999 FEW040 24/13 A3001 RMK MAX WND SPD 21KT NOSIG=
201012211900 METAR MRPV 211900Z 07014KT 9999 FEW045 24/13 A2999 RMK MAX WND SPD 21KT NOSIG=
201012212000 METAR MRPV 212000Z 06014KT 9999 FEW050 24/12 A2997 RMK VEL MAX VTO 21KT NOSIG=
201012212100 METAR MRPV 212100Z 07012KT 9999 FEW045 24/13 A2997 RMK VEL MAX VTO 17KT NOSIG=
201012212200 METAR MRPV 212200Z 07013KT 9999 NSC 23/12 A2997 NOSIG=
201012212300 METAR MRPV 212300Z 07012G22KT 9999 FEW035 21/13 A2999 NOSIG=
201012220000 METAR MRPV NIL=
201012220100 METAR MRPV NIL=
201012220200 METAR MRPV NIL=
201012220300 METAR MRPV NIL=
201012220400 METAR MRPV NIL=
201012220500 METAR MRPV NIL=
201012220600 METAR MRPV NIL=
201012220700 METAR MRPV NIL=
201012220800 METAR MRPV NIL=
201012220900 METAR MRPV NIL=
201012221000 METAR MRPV NIL=
201012221100 METAR MRPV NIL=
201012221200 METAR MRPV 221200Z 09010G20KT 9999 FEW020 17/13 A3004 RMK RN DST NE NOSIG=
201012221300 METAR MRPV 221300Z 11012KT 9999 FEW020 18/13 A3005 RMK RN DST NE NOSIG=
201012221400 METAR MRPV 221400Z 10010G20KT 9999 FEW020 20/14 A3007 RMK RN DST NE NOSIG=
201012221500 METAR MRPV 221500Z 10012KT 9999 FEW020 22/15 A3007 RMK RN DST NE NOSIG=
201012221600 METAR MRPV 221600Z 08015KT 9999 FEW020 23/15 A3006 RMK RN DST NE NOSIG=
201012221700 METAR MRPV 221700Z 08013KT 9999 FEW020 24/15 A3004 RMK RN DST NE NOSIG=
201012221800 METAR MRPV 221800Z 09010G20KT 9999 FEW020 24/15 A3002 RMK RN DST NE NOSIG=
201012221900 METAR MRPV 221900Z 10010G20KT 9999 SCT020 24/15 A2999 RMK PCPN DST NE NOSIG=
201012222000 METAR MRPV 222000Z 09010G20KT 9999 SCT020 23/15 A2998 RMK RN DST NE NOSIG=
201012222100 METAR MRPV 222100Z 10010G20KT 9999 SCT020 23/15 A2996 RMK RA DST NE NOSIG=
201012222200 METAR MRPV 222200Z 09010G20KT 9999 SCT020 22/15 A2997 RMK PCPN DST NE NOSIG=
201012222300 METAR MRPV 222300Z 10010G20KT 9999 SCT015 20/15 A2999 RMK RA DST NE NOSIG=
201012230000 METAR MRPV NIL=
201012230100 METAR MRPV NIL=
201012230200 METAR MRPV NIL=
201012230300 METAR MRPV NIL=
201012230400 METAR MRPV NIL=
201012230500 METAR MRPV NIL=
201012230600 METAR MRPV NIL=
201012230700 METAR MRPV NIL=
201012230800 METAR MRPV NIL=
201012230900 METAR MRPV NIL=
201012231000 METAR MRPV NIL=
201012231100 METAR MRPV NIL=
201012231200 METAR MRPV 231200Z 11012KT 9999 FEW012 18/13 A3003 RMK RA DST NE NOSIG=
201012231300 METAR MRPV 231300Z 10010KT 9999 FEW012 19/14 A3004 RMK RA DST NE NOSIG=
201012231400 METAR MRPV 231400Z 10010KT 9999 FEW012 19/15 A3006 RMK VL MX VTO 16KT RA DST NE NOSIG=
201012231500 METAR MRPV 231500Z 09012KT 9999 FEW012 20/15 A3006 RMK VL MX VTO 17KT RA DST NE NOSIG=
201012231600 METAR MRPV 231600Z 08012KT 9999 FEW012 22/15 A3005 RMK VL MX VTO 17KT RA DST NE NOSIG=
201012231700 METAR MRPV 231700Z 08012KT 9999 FEW015 23/15 A3003 RMK VL MX VTO 17KT RA DST NE NOSIG=
201012231800 METAR MRPV 231800Z 07012KT 9999 FEW015 24/15 A3001 RMK VL MX VTO 17KT RA DST NE NOSIG=
201012231900 METAR MRPV 231900Z 07010G20KT 9999 FEW015 24/15 A2999 RN DST NE NOSIG=
201012232000 METAR MRPV 232000Z 07010G20KT 9999 FEW010 BKN030 23/15 A2997 RN NE NOSIG=
201012232100 METAR MRPV 232100Z 08010KT 9999 FEW010 BKN030 22/15 A2996 RMK VEL.MAX.VTO 16KT RN DST NE NOSIG=
201012232200 METAR MRPV 232200Z 08010KT 9999 FEW010 BKN030 21/15 A2996 RMK VEL.MAX.VTO 15KT RN DST NE NOSIG=
201012232300 METAR MRPV 232300Z 08010KT 9999 FEW010 SCT030 20/15 A2996 RMK RN DST NE N=
201012240000 METAR MRPV 240000Z NIL=
201012240100 METAR MRPV NIL=
201012240200 METAR MRPV NIL=
201012240300 METAR MRPV NIL=
201012240400 METAR MRPV NIL=
201012240500 METAR MRPV NIL=
201012240600 METAR MRPV NIL=
201012240700 METAR MRPV NIL=
201012240800 METAR MRPV NIL=
201012240900 METAR MRPV NIL=
201012241000 METAR MRPV NIL=
201012241100 METAR MRPV NIL=
201012241200 METAR MRPV 241200Z 09010G20KT 9999 FEW012 18/14 A2995 RMK PCPN DST NE NOSIG=
201012241300 METAR MRPV 241300Z 10010G20KT 9999 FEW012 19/14 A2998 RMK RN DST NE NOSIG=
201012241400 METAR MRPV 241400Z 11010G20KT 9999 FEW012 20/14 A3000 RMK RN DST NE NOSIG=
201012241500 METAR MRPV 241500Z 09012G22KT 9999 FEW015 21/15 A3000 RMK RN DST NE NOSIG=
201012241600 METAR MRPV 241600Z 10010G20KT 9999 SCT015 22/15 A3000 RMK RN DST NE NOSIG=
201012241700 METAR MRPV 241700Z 08010G20KT 9999 SCT015 23/16 A2999 RMK RN DST NE NOSIG=
201012241800 METAR MRPV 241800Z 10010G20KT 9999 FEW010 SCT030 22/16 A2997 RMK RN DST NE NOSIG=
201012241900 METAR MRPV 241900Z 10010G20KT 9999 2000NE -SHRA FEW010 BKN030 22/16 A2994 NOSIG=
201012242000 METAR MRPV 242000Z 09010G20KT 9999 2000NE -SHRA FEW010 BKN030 22/16 A2992 NOSIG=
201012242100 METAR MRPV 242100Z 09010G20KT 9999 2000NE -SHRA FEW010 BKN030 22/16 A2991 NOSIG=
201012242200 METAR MRPV 242200Z 11010G20KT 9999 2000NE -SHRA FEW010 BKN030 21/16 A2992 NOSIG=
201012242300 METAR MRPV 242300Z 10010KT 9999 3000NE RA FEW010 BKN030 21/16 A2993 NOSIG=
201012242345 METAR MRPV 242345Z 08010G20KT 9999 3000NE RA SCT010 BKN025 20/16 A2993 NOSIG=
201012250000 METAR MRPV NIL=
201012250100 METAR MRPV NIL=
201012250200 METAR MRPV NIL=
201012250300 METAR MRPV NIL=
201012250400 METAR MRPV NIL=
201012250500 METAR MRPV NIL=
201012250600 METAR MRPV NIL=
201012250700 METAR MRPV NIL=
201012250800 METAR MRPV NIL=
201012250900 METAR MRPV NIL=
201012251000 METAR MRPV NIL=
201012251100 METAR MRPV NIL=
201012251200 METAR MRPV 251200Z 10006KT 9999 SCT030 19/16 A2996 RMK DZ NW N NE NOSIG=
201012251300 METAR MRPV 251300Z 13006KT 9999 SCT030 21/16 A2999 RMK DZ DST NW N NE E FEW120 NOSIG=
201012251400 METAR MRPV 251400Z 13006KT 9999 SCT030 21/16 A2999 RMK DZ DST NW N NE E FEW120 NOSIG=
201012251500 METAR MRPV 251500Z 10010KT 9999 RA SCT030 SCT080 23/16 A2999 RMK VIS NE 6KMS DZ NW N E NOSIG=
201012251600 METAR MRPV 251600Z 09012KT 9999 -RADZ SCT030 BKN090 22/16 A3000 RMK VEL MAX VTO 19KT VIS NE 8KMS NOSIG=
201012251700 METAR MRPV 251700Z 10007KT 9999 SCT030 SCT090 23/16 A2998 RMK DZ NW N VEL MAX VTO 12KT NOSIG=
201012251800 METAR MRPV 251800Z 09012KT 9999 SCT030 SCT100 24/17 A2996 RMK DZ N NE E NOSIG=
201012251900 METAR MRPV 251900Z 11010KT 9999 BKN030 24/17 A2993 RMK DZ DST N NE VEL MAX VTO 15KT NOSIG=
201012252000 METAR MRPV 252000Z 09010KT 9999 SCT030 24/17 A2991 RMK FEW100 DZ N NE NOSIG=
201012252100 METAR MRPV 252100Z 08011KT 9999 FEW020 BKN035 24/17 A2991 RMK DZ DST NW N MAX WND SPD 17KT NOSIG=
201012252200 METAR MRPV 252200Z 09010KT 9999 FEW025 SCT035 23/16 A2991 RMK DZ DST NW N NE NOSIG=
201012252300 METAR MRPV 252300Z 09009KT 9999 FEW025 22/16 A2993 RMK DZ DST NW N NE MAX WND SPD 14KT FEW080 NOSIG=
201012260000 METAR MRPV 260000Z NIL=
201012260100 METAR MRPV NIL=
201012260200 METAR MRPV NIL=
201012260300 METAR MRPV NIL=
201012260400 METAR MRPV NIL=
201012260500 METAR MRPV NIL=
201012260600 METAR MRPV NIL=
201012260700 METAR MRPV NIL=
201012260800 METAR MRPV NIL=
201012260900 METAR MRPV NIL=
201012261000 METAR MRPV NIL=
201012261100 METAR MRPV NIL=
201012261200 METAR MRPV 261200Z 08017KT 9999 4000NE -RADZ FEW030 BKN100 21/14 A3002 RMK MAX WND 22KT NOSIG=
201012261300 METAR MRPV 261300Z 09018KT 7000 3000NE -RADZ SCT030 BKN100 16/12 A3004 RMK VIS S UNL MAX WND WPD 25KT NOSIG=
201012261400 METAR MRPV 261400Z 09014KT 9999 4000NE -RA FEW030 BKN100 17/13 A3006 RMK MAX WND SPD 19KT NOSIG=
201012261500 METAR MRPV 261500Z 10015G25KT 9999 4000NE -RADZ SCT025 BKN100 18/13 A3006 NOSIG=
201012261600 METAR MRPV 261600Z 08020G30KT 9999 4000NE -RADZ FEW025 BKN100 20/13 A3007 NOSIG=
201012261700 METAR MRPV 261700Z 09017G27KT 9999 4000NE -RADZ SCT020 BKN100 20/13 A3004 NOSIG=
201012261800 METAR MRPV 261800Z 08017KT 9999 4000NE -RADZ FEW030 BKN100 21/14 A3002 RMK MAX WND 22KT NOSIG=
201012261900 METAR MRPV 261900Z 10016G26KT 9999 4000NE -RADZ FEW030 BKN100 20/14 A3000 NOSIG=
201012262000 METAR MRPV 262000Z 09016KT 9999 4000NE -RADZ SCT020 BKN100 20714 A2998 VEL/M AX VIENTO 23NUDOS NOSIG=
201012262100 METAR MRPV 262100Z 07020KT 9999 4000NE -RADZ SCT030 BKN100 18/13 A2999 RMK VEL MAX VTO 26KT=
201012262200 METAR MRPV 262200Z 10016KT 9999 -RADZ FEW025 BKN100 18/12 A3000 RMK VEL MAX VTO 24KT VIS NE 6KM NOSIG=
201012262300 METAR MRPV 262300Z 10018G28KT 9999 4000NE -RADZ FEW020 BKN100 17/12 A3002 NOSIG=
201012270000 METAR MRPV NIL=
201012270100 METAR MRPV NIL=
201012270200 METAR MRPV NIL=
201012270300 METAR MRPV NIL=
201012270400 METAR MRPV NIL=
201012270500 METAR MRPV NIL=
201012270600 METAR MRPV NIL=
201012270700 METAR MRPV NIL=
201012270800 METAR MRPV NIL=
201012270900 METAR MRPV NIL=
201012271000 METAR MRPV NIL=
201012271100 METAR MRPV NIL=
201012271200 METAR MRPV 271200Z 11012KT 9999 4000NE -RA DZ SCT025 18/13 A3004 RMK VEL MAX VTO 17KT NOSIG=
201012271300 METAR MRPV 271300Z 10015KT 9999 4000NE -RADZ FEW020 18/13 A3006 NOSIG=
201012271400 METAR MRPV 271400Z 10012KT 9999 -RADZ SCT030 19/13 A3007 RMK VEL MAX VTO 17KT VIS NE 6KM NOSIG=
201012271500 METAR MRPV 271500Z 10014KT 9999 -RADZ FEW030 20/14 A3008 RMK VIS NE 7KM VEL MAX VTO 21KT NOSIG=
201012271600 METAR MRPV 271600Z 11013KT 9999 -RADZ FEW025 21/15 A3007 RMK FEW120 VIS NE 7KM VEL MAX VTO 19KT NOSIG=
201012271700 METAR MRPV 271700Z 09016KT 9999 DZ FEW030 20/15 A3005 RMK VIS NE 8KM VEL MAX VTO 22KT NOSIG=
201012271800 METAR MRPV 271800Z 08015KT 9999 SCT030 21/15 A3003 RMK VIS NE 7KM VEL MAX VTO 22KT NOSIG=
201012271900 METAR MRPV 271900Z 08019KT 9999 DZ SCT030 22/15 A2999 RMK VEL MAX VTO 26KT NOSIG=
201012272000 METAR MRPV 272000Z 08016KT 9999 DZ FEW030 SCT120 22/15 A2997 RMK VEL MAX VTO 24KT NOSIG=
201012272100 METAR MRPV 272100Z 10012KT 9999 -RADZ FEW035 BKN120 21/15 A2997 RMK VL MX VTO 17KT VIS NE 5000 NOSIG=
201012272200 METAR MRPV 272200Z 09015KT 9999 4000NE RADZ FEW025 BKN120 19/14 A2997 RMK VL MX VTO 23KT VIS E 6000 NOSIG=
201012272300 METAR MRPV 272300Z 08019KT 9999 4000NR RADZ FEW020 BKN120 18/13 A3000 RMK VIS E SE 7000 VL MX VTO 24KT NOSIG=
201012280000 METAR MRPV NIL=
201012280100 METAR MRPV NIL=
201012280200 METAR MRPV NIL=
201012280300 METAR MRPV NIL=
201012280400 METAR MRPV NIL=
201012280500 METAR MRPV NIL=
201012280600 METAR MRPV NIL=
201012280700 METAR MRPV NIL=
201012280800 METAR MRPV NIL=
201012280900 METAR MRPV NIL=
201012281000 METAR MRPV NIL=
201012281100 METAR MRPV NIL=
201012281200 METAR MRPV 281200Z 11013G23KT 9999 FEW010 17/14 A2998 RMK PCPN DST N NE NOSIG=
201012281300 METAR MRPV 281300Z 11012KT 9999 3000NE -SHRA FEW010 18/14 A3001 NOSIG=
201012281400 METAR MRPV 281400Z 10010G20KT 9999 4000 -SHRA SCT010 19/14 A3003 NOSIG=
201012281500 METAR MRPV 281500Z 09012G22KT 9999 4000NE -SHRA FEW010 20/14 A3003 NOSIG=
201012281600 METAR MRPV 281600Z 09016G26KT 9999 3000NE -SHRA FEW010 21/14 A3003 NOSIG=
201012281700 METAR MRPV 281700Z 10015G25KT 9999 3000NE -SHRA FEW010 22/15 A3000 NOSIG=
201012281800 METAR MRPV 281800Z 09016G26KT 9999 3000NE -SHRA FEW010 SCT100 23/15 A2998 NOSIG=
201012281900 METAR MRPV 281900Z 09015G25KT 9999 3000NE SCT010 22/14 A2995 NOSIG=
201012282000 METAR MRPV 282000Z 08013G23KT 9999 3000NE -SHRA SCT010 21/14 A2994 NOSIG=
201012282100 METAR MRPV 282100Z 10012G22KT 9999 3000NE -SHRA FEW010 SCT100 20/15 A2993=
201012282200 METAR MRPV 282200Z 09010G20KT 9999 3000NE -SHRA FEW010 SCT100 20/14 A2992=
201012282300 METAR MRPV 282300Z 10010G20KT 9999 3000NE -SHRA FEW010 SCT100 19/15 A2993=
201012290000 METAR MRPV NIL=
201012290100 METAR MRPV NIL=
201012290200 METAR MRPV NIL=
201012290300 METAR MRPV NIL=
201012290400 METAR MRPV NIL=
201012290500 METAR MRPV NIL=
201012290600 METAR MRPV NIL=
201012290700 METAR MRPV NIL=
201012290800 METAR MRPV NIL=
201012290900 METAR MRPV NIL=
201012291000 METAR MRPV NIL=
201012291100 METAR MRPV NIL=
201012291200 METAR MRPV 291200Z 11010KT 9999 FEW012 18/14 A2992 RMK RN DST N/NE VEL MAX VTO 15KT NOSIG=
201012291300 METAR MRPV 291300Z 11010KT 9999 4000NE -SHRA SCT012 19/15 A2994 NOSIG=
201012291400 METAR MRPV 291400Z 11010G20KT 9999 4000NE -SHRA SCT012 19/15 A2996 NOSIG=
201012291500 METAR MRPV 291500Z 10010G20KT 9999 4000NE -SHRA SCT012 20/15 A2996 NOSIG=
201012291600 METAR MRPV 291600Z 11010G20KT 9999 4000NE -SHRA SCT012 21/15 A2995=
201012291700 METAR MRPV 291700Z 09010G20KT 9999 4000NE -SHRA SCT012 23/16 A2993 NOSIG=
201012291800 METAR MRPV 291800Z 08015G25KT 9999 SCT012 24/16 A2990 RMK RN DST N NE NOSIG=
201012291900 METAR MRPV 291900Z 08010G20KT 9999 SCT015 25/16 A2989 RN DST N NE NOSIG=
201012292000 METAR MRPV 292000Z 10010G20KT 9999 SCT015 22/16 A2987 RN N NE NOSIG=
201012292100 METAR MRPV 292100Z 08010G20KT 9999 SCT015 24/16 A2985 RMK PCPN DST N NE NOSIG=
201012292200 METAR MRPV 292200Z 07010G20KT 9999 SCT015 SCT250 24/16 A2986 RMK PCPN NE NOSIG=
201012292300 METAR MRPV 292300Z 10012KT 9999 SCT015 SCT250 22/16 A2987 RMK RN DST N NE NOSIG=
201012292345 METAR MRPV 292345Z 09010KT 9999 SCT015 SCT250 20/15 A2998=
201012300000 METAR MRPV NIL=
201012300100 METAR MRPV NIL=
201012300200 METAR MRPV NIL=
201012300300 METAR MRPV NIL=
201012300400 METAR MRPV NIL=
201012300500 METAR MRPV NIL=
201012300600 METAR MRPV NIL=
201012300700 METAR MRPV NIL=
201012300800 METAR MRPV NIL=
201012300900 METAR MRPV NIL=
201012301000 METAR MRPV NIL=
201012301100 METAR MRPV NIL=
201012301200 METAR MRPV 301200Z 11008KT 9999 FEW020 19/16 A2994 RMK RA DST NE NOSIG=
201012301300 METAR MRPV 301300Z 13008KT 9999 FEW020 21/18 A2996 RMK VTO CZDO EN PISTA PCPN DST NE NOSIG=
201012301400 METAR MRPV 301400Z 10010KT 9999 FEW020 23/17 A2997 RMK VTO CZDO PISTA DZ NE NOSIG=
201012301500 METAR MRPV 301500Z 07012KT 9999 FEW020 24/16 A2998 RMK VEL MAX VTO 16KT NOSIG=
201012301600 METAR MRPV 301600Z 07010KT 9999 FEW020 24/17 A2998 RMK RN DST NE VEL MAX VTO 15KT NOSIG=
201012301700 METAR MRPV 301700Z 08010KT 9999 FEW020 27/16 A2997 RMK RN DST NE NOSIG=
201012301800 METAR MRPV 301800Z 06011KT 9999 FEW020 26/16 A2994 RMK VELM MAX VTO 16KT PCPN DST NE NOSIG=
201012301900 METAR MRPV 301900Z 06010KT 9999 FEW020 26/16 A2991 RMK VEL MAX VTO 16KT NOSIG=
201012302000 METAR MRPV 302000Z 07011KT 9999 SCT020 26/17 A2988 RMK VEL MAX VTO 16KT NOSI G=
201012302100 METAR MRPV 302100Z 08013KT 9999 FEW004 SCT010 24/17 A2986 RMK RA DST NE NOSIG=
201012302200 METAR MRPV 302200Z 10012KT 9999 3000NE -SHRA FEW004 BKN025 22/17 A2987 NOSIG=
201012302300 METAR MRPV 302300Z 11008KT 5000 1000N -RADZ FEW004 BKN020 20/18 A2990 BECMG 3000 -RA=
201012310000 METAR MRPV 310000Z NIL=
201012310100 METAR MRPV NIL=
201012310200 METAR MRPV NIL=
201012310300 METAR MRPV NIL=
201012310400 METAR MRPV NIL=
201012310500 METAR MRPV NIL=
201012310600 METAR MRPV NIL=
201012310700 METAR MRPV NIL=
201012310800 METAR MRPV NIL=
201012310900 METAR MRPV NIL=
201012311000 METAR MRPV NIL=
201012311100 METAR MRPV NIL=
201012311200 METAR MRPV 311200Z 12006KT 9999 FEW020 SCT250 20/16 A2995 RMK DZ DST NE NOSIG=
201012311300 METAR MRPV 311300Z 12005KT 9999 FEW020 BKN250 20/16 A2998 RMK DZ DST NE NOSIG=
201012311400 METAR MRPV 311400Z 09008KT 9999 SCT025 BKN250 21/15 A3000 RMK MAX WND SPD 14KT NOSIG=
201012311500 METAR MRPV 311500Z 09011KT 9999 FEW030 BKN250 22/16 A3000 RMK FEW120 MAX WND 16KT NOSIG=
201012311600 METAR MRPV 311600Z 07013KT 9999 FEW040 SCT250 24/16 A3000 RMK MAX WND 18KT NOSIG=
201012311700 METAR MRPV 311700Z 07013KT 9999 SCT045 SCT250 25/15 A2999 RMK MAX WND 18KT NOSIG=
201012311800 METAR MRPV 311800Z 06012KT 9999 FEW045 25/15 A2996 RMK FEW250 MAX WND 18KT NOSIG=
201012311900 METAR MRPV 311900Z 06012KT 9999 FEW045 26/15 A2993 RMK VEL MAX WIND 18 KTS NOSIG=
201012312000 METAR MRPV 312000Z 08012KT 9999 SCT045 26/16 A2991 RMK VEL MAX VTO 17KT NOSIG=
201012312100 METAR MRPV 312100Z 08012KT 9999 FEW045 26/17 A2989 RMK VEL MAX VTO 17KT CU DLPNG DST W NOSIG=
201012312200 METAR MRPV 312200Z 08011KT 9999 -RADZ BKN035 24/17 A2990 RMK VIS NE NOSIG=
201012312300 METAR MRPV 312300Z 09011KT 9999 BKN030 23/17 A2992 RMK RA DST W NE VEL MAX VTO 16KT NOSIG=
