201701010000 METAR MRPV 010000Z 10009KT 9999 SCT030 BKN100 21/14 A3002 NOSIG=
201701010100 METAR MRPV NIL=
201701010200 METAR MRPV NIL=
201701010300 METAR MRPV NIL=
201701010400 METAR MRPV NIL=
201701010500 METAR MRPV NIL=
201701010600 METAR MRPV NIL=
201701010700 METAR MRPV NIL=
201701010800 METAR MRPV NIL=
201701010900 METAR MRPV NIL=
201701011000 METAR MRPV NIL=
201701011100 METAR MRPV NIL=
201701011200 METAR MRPV 011200Z 11009KT 9999 FEW035 SCT200 20/14 A3002 NOSIG=
201701011300 METAR MRPV 011300Z 10011KT 9999 FEW035 BKN200 21/14 A3004 NOSIG=
201701011400 METAR MRPV 011400Z 09014KT 9999 FEW040 SCT250 23/14 A3006 NOSIG=
201701011500 METAR MRPV 011500Z 06016G26KT 9999 FEW035 SCT200 23/14 A3007 NOSIG=
201701011600 METAR MRPV 011600Z 06015KT 9999 FEW040 BKN200 24/14 A3006 NOSIG=
201701011700 METAR MRPV 011700Z 06016KT 9999 FEW040 BKN200 24/15 A3006 NOSIG=
201701011800 METAR MRPV 011800Z 09013KT 9999 BKN035 24/15 A3004 NOSIG=
201701011900 METAR MRPV 011900Z 09012KT 9999 FEW040 BKN080 24/15 A3002 NOSIG=
201701012000 METAR MRPV 012000Z 08013KT 9999 FEW035 SCT120 BKN200 25/15 A2999 NOSIG=
201701012100 METAR MRPV 012100Z 09010KT 9999 FEW035 SCT100 BKN200 24/16 A2998 NOSIG=
201701012200 METAR MRPV 012200Z 08011KT 9999 SCT035 BKN080 24/16 A2999 NOSIG=
201701012300 METAR MRPV 012300Z 06007KT 9999 4500W RA FEW035 BKN050 21/18 A3001 NOSIG=
201701020000 METAR MRPV 020000Z 08006KT 9999 FEW025 BKN100 20/16 A3003 RERA NOSIG=
201701020100 METAR MRPV NIL=
201701020200 METAR MRPV NIL=
201701020300 METAR MRPV NIL=
201701020400 METAR MRPV NIL=
201701020500 METAR MRPV NIL=
201701020600 METAR MRPV NIL=
201701020700 METAR MRPV NIL=
201701020800 METAR MRPV NIL=
201701020900 METAR MRPV NIL=
201701021000 METAR MRPV NIL=
201701021100 METAR MRPV NIL=
201701021200 METAR MRPV 021200Z 10011KT 9999 FEW035 BKN200 20/15 A3002 NOSIG=
201701021300 METAR MRPV 021300Z 08014KT 9999 FEW030 BKN200 21/15 A3004 NOSIG=
201701021400 METAR MRPV 021400Z 08015KT 9999 FEW035 BKN200 22/16 A3006 NOSIG=
201701021500 METAR MRPV 021500Z 07017G27KT 9999 SCT035 SCT200 23/16 A3007 NOSIG=
201701021600 METAR MRPV 021600Z 07015G25KT 9999 SCT035 24/16 A3006 NOSIG=
201701021700 METAR MRPV 021700Z 07015KT 9999 FEW035 SCT100 23/16 A3005 NOSIG=
201701021800 METAR MRPV 021800Z 07016G26KT 9999 FEW035 SCT140 25/15 A3002 NOSIG=
201701021900 METAR MRPV 021900Z 07015KT 9999 FEW025 SCT080 24/16 A3000 NOSIG=
201701022000 METAR MRPV 022000Z 05013KT 9999 FEW020 SCT080 24/16 A2997 NOSIG=
201701022100 METAR MRPV 022100Z 06013G23KT 9999 SCT020 SCT080 23/16 A2996 NOSIG=
201701022200 METAR MRPV 022200Z 07012KT 9999 BKN020 22/16 A2996 NOSIG=
201701022300 METAR MRPV 022300Z 06014KT 9999 BKN020 22/15 A2997 NOSIG=
201701030000 METAR MRPV 030000Z 07014KT 9999 FEW040 21/15 A2998 NOSIG=
201701030100 METAR MRPV NIL=
201701030200 METAR MRPV NIL=
201701030300 METAR MRPV NIL=
201701030400 METAR MRPV NIL=
201701030500 METAR MRPV NIL=
201701030600 METAR MRPV NIL=
201701030700 METAR MRPV NIL=
201701030800 METAR MRPV NIL=
201701030900 METAR MRPV NIL=
201701031000 METAR MRPV NIL=
201701031100 METAR MRPV NIL=
201701031200 METAR MRPV 031200Z 10012KT CAVOK 19/13 A2998 NOSIG=
201701031300 METAR MRPV 031300Z 12010KT CAVOK 20/13 A3000 NOSIG=
201701031400 METAR MRPV 031400Z 10014KT CAVOK 22/14 A3002 NOSIG=
201701031500 METAR MRPV 031500Z 09018G28KT 9999 FEW035 SCT300 22/15 A3003 NOSIG=
201701031600 METAR MRPV 031600Z 08018KT 9999 FEW035 SCT250 24/15 A3002 NOSIG=
201701031700 METAR MRPV 031700Z 07020KT 9999 VA FEW035 SCT180 23/13 A3000 NOSIG=
201701031800 METAR MRPV 031800Z 07019G30KT 9999 VA FEW035 23/14 A2999 NOSIG=
201701031900 METAR MRPV 031900Z 08015KT 9999 VA FEW040 25/13 A2996 NOSIG=
201701032000 METAR MRPV 032000Z 07015KT 9999 FEW040 25/12 A2995 REVA NOSIG=
201701032100 METAR MRPV 032100Z 07014KT 9999 FEW040 25/11 A2993 NOSIG=
201701032200 METAR MRPV 032200Z 07013KT 9999 VCVA NSC 25/13 A2992 NOSIG=
201701032300 METAR MRPV 032300Z 07013KT CAVOK 23/13 A2994 NOSIG=
201701040000 METAR MRPV 040000Z 09011KT CAVOK 21/13 A2995 NOSIG=
201701040100 METAR MRPV NIL=
201701040200 METAR MRPV NIL=
201701040300 METAR MRPV NIL=
201701040400 METAR MRPV NIL=
201701040500 METAR MRPV NIL=
201701040600 METAR MRPV NIL=
201701040700 METAR MRPV NIL=
201701040800 METAR MRPV NIL=
201701040900 METAR MRPV NIL=
201701041000 METAR MRPV NIL=
201701041100 METAR MRPV NIL=
201701041200 METAR MRPV 041200Z 13008KT 9999 VA NSC 18/10 A2997 NOSIG=
201701041300 METAR MRPV 041300Z 12008KT 9999 VA NSC 20/11 A2999 NOSIG=
201701041400 METAR MRPV 041400Z 12010KT 9999 VA NSC 23/11 A3001 NOSIG=
201701041500 METAR MRPV 041500Z 0901525KT 9999 VA NSC 23/13 A3001 NOSIG=
201701041600 METAR MRPV 041600Z 07015KT 9999 VCVA NSC 25/12 A3000 NOSIG=
201701041700 METAR MRPV 041700Z 08011KT 9999 VCVA NSC 26/12 A2999 NOSIG=
201701041800 METAR MRPV 041800Z 08010KT CAVOK 27/11 A2996 NOSIG=
201701041900 METAR MRPV 041900Z 07010KT CAVOK 28/09 A2992 NOSIG=
201701042000 METAR MRPV 042000Z 07013KT CAVOK 28/13 A2991 NOSIG=
201701042100 METAR MRPV 042100Z 07013KT 9999 FEW045 27/14 A2991 NOSIG=
201701042200 METAR MRPV 042200Z 08012KT 9999 FEW040 26/12 A2992 NOSIG=
201701042300 METAR MRPV 042300Z 08012KT CAVOK 24/13 A2993 NOSIG=
201701050000 METAR MRPV 050000Z 08011KT CAVOK 22/12 A2995 NOSIG=
201701050100 METAR MRPV NIL=
201701050200 METAR MRPV NIL=
201701050300 METAR MRPV NIL=
201701050400 METAR MRPV NIL=
201701050500 METAR MRPV NIL=
201701050600 METAR MRPV NIL=
201701050700 METAR MRPV NIL=
201701050800 METAR MRPV NIL=
201701050900 METAR MRPV NIL=
201701051000 METAR MRPV NIL=
201701051100 METAR MRPV NIL=
201701051200 METAR MRPV 051200Z 10012KT CAVOK 19/13 A2999 NOSIG=
201701051300 METAR MRPV 051300Z 12008KT CAVOK 19/13 A3001 NOSIG=
201701051400 METAR MRPV 051400Z 08017KT CAVOK 21/14 A3003 NOSIG=
201701051500 METAR MRPV 051500Z 07013KT 9999 VCVA NSC 23/14 A3004 NOSIG=
201701051600 METAR MRPV 051600Z 07014KT 9999 VA NSC 24/14 A3003 NOSIG=
201701051700 METAR MRPV 051700Z 06014KT 9999 VA NSC 25/14 A3000 NOSIG=
201701051800 METAR MRPV 051800Z 06015KT 9999 VCVA NSC 25/13 A2998 NOSIG=
201701051900 METAR MRPV 051900Z 06013KT 9999 FEW040 26/15 A2995 NOSIG=
201701052000 METAR MRPV 052000Z 06012KT 9999 FEW040 25/15 A2992 NOSIG=
201701052100 METAR MRPV 052100Z 07011KT 9999 FEW045 26/15 A2992 NOSIG=
201701052200 METAR MRPV 052200Z 08013KT 9999 FEW040 SCT080 25/15 A2992 NOSIG=
201701052300 METAR MRPV 052300Z 08009KT 9999 FEW030 SCT100 22/16 A2994 NOSIG=
201701060000 METAR MRPV 060000Z 10008KT 9999 FEW030 SCT100 22/16 A2996 NOSIG=
201701060100 METAR MRPV NIL=
201701060200 METAR MRPV NIL=
201701060300 METAR MRPV NIL=
201701060400 METAR MRPV NIL=
201701060500 METAR MRPV NIL=
201701060600 METAR MRPV NIL=
201701060700 METAR MRPV NIL=
201701060800 METAR MRPV NIL=
201701060900 METAR MRPV NIL=
201701061000 METAR MRPV NIL=
201701061100 METAR MRPV NIL=
201701061200 METAR MRPV 061200Z 12010KT CAVOK 18/13 A2998 NOSIG=
201701061300 METAR MRPV 061300Z 11009KT CAVOK 20/13 A3001 NOSIG=
201701061400 METAR MRPV 061400Z 10012KT CAVOK 21/13 A3003 NOSIG=
201701061500 METAR MRPV 061500Z 08011KT 9999 VCVA NSC 23/13 A3003 NOSIG=
201701061600 METAR MRPV 061600Z 06010KT 9999 VA NSC 24/12 A3003 NOSIG=
201701061700 METAR MRPV 061700Z 10009KT CAVOK 25/13 A3002 REVA NOSIG=
201701061800 METAR MRPV 061800Z 09007KT 9999 FEW040 BKN200 26/13 A3000 NOSIG=
201701061900 METAR MRPV 061900Z 07010KT 9999 FEW040 BKN200 26/13 A2998 NOSIG=
201701062000 METAR MRPV 062000Z COR 08013KT 9999 VCVA FEW045 BKN200 26/13 A2996 NOSIG=
201701062100 METAR MRPV 062100Z 07011KT 9999 VCVA FEW045 BKN200 26/14 A2995 NOSIG=
201701062200 METAR MRPV 062200Z 08012KT 9999 VA FEW030 BKN200 24/14 A2995 NOSIG=
201701062300 METAR MRPV 062300Z 09009KT 9999 VCVA FEW025 BKN200 23/14 A2997 NOSIG=
201701070000 METAR MRPV 070000Z 10009KT 9999 VCVA FEW025 BKN200 22/14 A2998 NOSIG=
201701070100 METAR MRPV NIL=
201701070200 METAR MRPV NIL=
201701070300 METAR MRPV NIL=
201701070400 METAR MRPV NIL=
201701070500 METAR MRPV NIL=
201701070600 METAR MRPV NIL=
201701070700 METAR MRPV NIL=
201701070800 METAR MRPV NIL=
201701070900 METAR MRPV NIL=
201701071000 METAR MRPV NIL=
201701071100 METAR MRPV NIL=
201701071200 METAR MRPV 071200Z 12009KT CAVOK 18/12 A3007 NOSIG=
201701071300 METAR MRPV 071300Z 12007KT CAVOK 20/12 A3009 NOSIG=
201701071400 METAR MRPV 071400Z 11009KT CAVOK 22/12 A3011 NOSIG=
201701071500 METAR MRPV 071500Z 11012KT CAVOK 24/12 A3010 NOSIG=
201701071600 METAR MRPV 071600Z 09017KT CAVOK 24/12 A3010 NOSIG=
201701071700 METAR MRPV 071700Z 07017KT CAVOK 25/12 A3008 NOSIG=
201701071800 METAR MRPV 071800Z 06014KT 9999 FEW045 SCT200 25/13 A3006 NOSIG=
201701071900 METAR MRPV 071900Z 06014KT 9999 VCVA FEW045 BKN200 25/13 A3003 NOSIG=
201701072000 METAR MRPV 072000Z 07013KT 9999 FEW045 BKN200 26/13 A3000 NOSIG=
201701072100 METAR MRPV 072100Z 06013KT 9999 FEW045 BKN200 26/13 A3000 NOSIG=
201701072200 METAR MRPV 072200Z 06015G25KT 9999 VCVA FEW035 SCT200 24/13 A3001 NOSIG=
201701072300 METAR MRPV 072300Z 06015KT 9999 FEW035 SCT200 23/14 A3001 NOSIG=
201701080000 METAR MRPV 080000Z 09014KT 9999 FEW035 SCT200 21/15 A3004 NOSIG=
201701080100 METAR MRPV NIL=
201701080200 METAR MRPV NIL=
201701080300 METAR MRPV NIL=
201701080400 METAR MRPV NIL=
201701080500 METAR MRPV NIL=
201701080600 METAR MRPV NIL=
201701080700 METAR MRPV NIL=
201701080800 METAR MRPV NIL=
201701080900 METAR MRPV NIL=
201701081000 METAR MRPV NIL=
201701081100 METAR MRPV NIL=
201701081200 METAR MRPV 081200Z 11009KT 9999 RA FEW030 SCT120 20/15 A3007 NOSIG=
201701081300 METAR MRPV 081300Z 08016KT 9999 RA FEW025 SCT120 19/16 A3010 NOSIG=
201701081400 METAR MRPV 081400Z 09015G25KT 9999 4000N RA FEW025 SCT100 21/16 A3011 NOSIG=
201701081500 METAR MRPV 081500Z 09014KT 1000 RA FEW020 OVC060 20/17 A3012 NOSIG=
201701081600 METAR MRPV 081600Z 09016G26KT 9999 4500 RA FEW020 SCT060 22/17 A3010 NOSIG=
201701081700 METAR MRPV 081700Z 09015KT 5000 RA FEW015 SCT060 24/16 A3009 NOSIG=
201701081800 METAR MRPV 081800Z 08019G31KT 9999 4500 RA FEW020 BKN060 23/16 A3008 NOSIG=
201701081900 METAR MRPV 081900Z 08016G26KT 9999 -RA SCT020 22/17 A3006 NOSIG=
201701082000 METAR MRPV 082000Z 08019G29KT 4000 RA BKN020 22/17 A3003 NOSIG=
201701082016 METAR MRPV 082016Z 08020G30KT 9999 -RA SCT020 SCT100 21/16 A3003 NOSIG=
201701082100 METAR MRPV 082100Z 08017KT 9999 FEW020 21/16 A3003 NOSIG=
201701082200 METAR MRPV 082200Z 09015KT 9999 RA SCT020 22/16 A3001 NOSIG=
201701082300 METAR MRPV 082300Z 07021G31KT 9999 SCT030B SCT070 20/15 A3004 RERA NOSIG=
201701090000 METAR MRPV 090000Z 08017KT 9999 FEW020 SCT070 19/14 A3006 NOSIG=
201701090100 METAR MRPV NIL=
201701090200 METAR MRPV NIL=
201701090300 METAR MRPV NIL=
201701090400 METAR MRPV NIL=
201701090500 METAR MRPV NIL=
201701090600 METAR MRPV NIL=
201701090700 METAR MRPV NIL=
201701090800 METAR MRPV NIL=
201701090900 METAR MRPV NIL=
201701091000 METAR MRPV NIL=
201701091100 METAR MRPV NIL=
201701091200 METAR MRPV 091200Z 08020G32KT 9999 -RA FEW020 SCT100 19/13 A3006 NOSIG=
201701091300 METAR MRPV 091300Z COR 09019G30KT 9999 SCT025 19/14 A3009 NOSIG=
201701091400 METAR MRPV 091400Z 07020G31KT 9999 FEW025 19/13 A3012 NOSIG=
201701091500 METAR MRPV 091500Z 08018G28KT 9999 FEW030 21/12 A3013 NOSIG=
201701091600 METAR MRPV 091600Z 07020G30KT 9999 SCT030 21/13 A3012 NOSIG=
201701091700 METAR MRPV 091700Z 06023G33KT 9999 SCT030 21/14 A3010 NOSIG=
201701091800 METAR MRPV 091800Z 07025G35KT 9999 FEW030 23/12 A3007 NOSIG=
201701091900 METAR MRPV 091900Z 07025G35KT 9999 SCT030 22/13 A3005 NOSIG=
201701092000 METAR MRPV 092000Z 08023G39KT 9999 FEW030 24/13 A3002 NOSIG=
201701092100 METAR MRPV 092100Z 08022G34KT 9999 SCT030 21/13 A3002 NOSIG=
201701092200 METAR MRPV 092200Z 08020G30KT 9999 FEW035 21/13 A3001 NOSIG=
201701092300 METAR MRPV 092300Z 09016KT 9999 SCT025 21/13 A3002 NOSIG=
201701100000 METAR MRPV 100000Z 09017G28KT 9999 FEW025 20/13 A3005 NOSIG=
201701100100 METAR MRPV NIL=
201701100200 METAR MRPV NIL=
201701100300 METAR MRPV NIL=
201701100400 METAR MRPV NIL=
201701100500 METAR MRPV NIL=
201701100600 METAR MRPV NIL=
201701100700 METAR MRPV NIL=
201701100800 METAR MRPV NIL=
201701100900 METAR MRPV NIL=
201701101000 METAR MRPV NIL=
201701101100 METAR MRPV NIL=
201701101200 METAR MRPV 101200Z 10014KT 9999 FEW015 19/14 A3001 NOSIG=
201701101300 METAR MRPV 101300Z 09013KT 9999 FEW025 20/14 A3003 NOSIG=
201701101400 METAR MRPV 101400Z 10013KT 9999 FEW030 21/14 A3006 NOSIG=
201701101500 METAR MRPV 101500Z 09016G26KT 9999 SCT030 21/15 A3006 NOSIG=
201701101600 METAR MRPV 101600Z 09016G26KT 9999 FEW030 22/13 A3006 NOSIG=
201701101700 METAR MRPV 101700Z 07021G32KT 9999 SCT040 23/14 A3003 NOSIG=
201701101800 METAR MRPV 101800Z 08022G33KT 9999 SCT040 23/13 A3001 NOSIG=
201701101900 METAR MRPV 101900Z 07019KT 9999 SCT040 23/15 A3000 NOSIG=
201701102000 METAR MRPV 102000Z 09017KT 9999 SCT035 22/14 A2997 NOSIG=
201701102100 METAR MRPV 102100Z 09018G28KT 9999 SCT035 23/14 A2996 NOSIG=
201701102200 METAR MRPV 102200Z 07019KT 9999 FEW035 BKN100 22/15 A2996 NOSIG=
201701102300 METAR MRPV 102300Z 09015KT 9999 FEW030 BKN100 21/15 A2997 NOSIG=
201701110000 METAR MRPV 110000Z 08015G26KT 9999 FEW030 BKN100 20/15 A2999 NOSIG=
201701110100 METAR MRPV NIL=
201701110200 METAR MRPV NIL=
201701110300 METAR MRPV NIL=
201701110400 METAR MRPV NIL=
201701110500 METAR MRPV NIL=
201701110600 METAR MRPV NIL=
201701110700 METAR MRPV NIL=
201701110800 METAR MRPV NIL=
201701110900 METAR MRPV NIL=
201701111000 METAR MRPV NIL=
201701111100 METAR MRPV NIL=
201701111200 METAR MRPV 111200Z 09015G25KT 9999 FEW015 19/14 A3001 NOSIG=
201701111300 METAR MRPV 111300Z 08020G30KT 9999 FEW030 20/13 A3002 NOSIG=
201701111400 METAR MRPV 111400Z 08022KT 9999 FEW030 21/14 A3004 NOSIG=
201701111500 METAR MRPV 111500Z 07018KT 9999 FEW035 22/14 A3004 NOSIG=
201701111600 METAR MRPV 111600Z 07016KT 9999 FEW040 24/14 A3004 NOSIG=
201701111700 METAR MRPV 111700Z 06015G25KT 9999 SCT040 24/15 A3002 NOSIG=
201701111800 METAR MRPV 111800Z 06015G25KT 9999 SCT040 24/15 A3002 NOSIG=
201701111900 METAR MRPV 111900Z 07017KT 9999 FEW045 25/14 A2998 NOSIG=
201701112000 METAR MRPV 112000Z 07017KT 9999 FEW045 25/14 A2996 NOSIG=
201701112100 METAR MRPV 112100Z 07017KT 9999 FEW045 25/14 A2995 NOSIG=
201701112200 METAR MRPV 112200Z 08017KT CAVOK 24/14 A2994 NOSIG=
201701112300 METAR MRPV 112300Z 07015KT CAVOK 23/14 A2996 NOSIG=
201701120000 METAR MRPV 120000Z 07014KT 9999 FEW030 21/14 A2998 NOSIG=
201701120100 METAR MRPV NIL=
201701120200 METAR MRPV NIL=
201701120300 METAR MRPV NIL=
201701120400 METAR MRPV NIL=
201701120500 METAR MRPV NIL=
201701120600 METAR MRPV NIL=
201701120700 METAR MRPV NIL=
201701120800 METAR MRPV NIL=
201701120900 METAR MRPV NIL=
201701121000 METAR MRPV NIL=
201701121100 METAR MRPV NIL=
201701121200 METAR MRPV 121200Z 09016KT 9999 FEW035 19/13 A3001 NOSIG=
201701121300 METAR MRPV 121300Z 08017KT 9999 FEW040 20/13 A3004 NOSIG=
201701121400 METAR MRPV 121400Z 11011KT 9999 FEW040 22/13 A3005 NOSIG=
201701121500 METAR MRPV 121500Z 08017KT 9999 FEW040 23/13 A3006 NOSIG=
201701121600 METAR MRPV 121600Z 08017KT 9999 FEW040 24/14 A3006 NOSIG=
201701121700 METAR MRPV 121700Z 07018KT 9999 FEW045 25/14 A3005 NOSIG=
201701121800 METAR MRPV 121800Z 06017KT 9999 FEW045 25/14 A3004 NOSIG=
201701121900 METAR MRPV 121900Z 06017KT 9999 FEW045 25/13 A3001 NOSIG=
201701122000 METAR MRPV 122000Z 07016KT 9999 FEW045 25/13 A2999 NOSIG=
201701122100 METAR MRPV 122100Z 05014G24KT 9999 VCVA FEW040 25/14 A2998 NOSIG=
201701122200 METAR MRPV 122200Z 06016G26KT 9999 FEW040 23/13 A2998 NOSIG=
201701122300 METAR MRPV 122300Z 06015KT 9999 FEW030 22/14 A2998 NOSIG=
201701130000 METAR MRPV 130000Z 07016G26KT 9999 FEW025 21/14 A3000 NOSIG=
201701130100 METAR MRPV NIL=
201701130200 METAR MRPV NIL=
201701130300 METAR MRPV NIL=
201701130400 METAR MRPV NIL=
201701130500 METAR MRPV NIL=
201701130600 METAR MRPV NIL=
201701130700 METAR MRPV NIL=
201701130800 METAR MRPV NIL=
201701130900 METAR MRPV NIL=
201701131000 METAR MRPV NIL=
201701131100 METAR MRPV NIL=
201701131200 METAR MRPV 131200Z 08015G25KT 9999 FEW040 19/14 A3003 NOSIG=
201701131300 METAR MRPV 131300Z 09012KT 9999 FEW035 20/14 A3005 NOSIG=
201701131400 METAR MRPV 131400Z 08018KT 9999 FEW035 20/14 A3008 NOSIG=
201701131500 METAR MRPV 131500Z 09016KT 9999 SCT030 21/14 A3009 NOSIG=
201701131600 METAR MRPV 131600Z 08016KT 9999 SCT040 22/14 A3009 NOSIG=
201701131700 METAR MRPV 131700Z 08014KT 9999 SCT035 23/// A3006 NOSIG=
201701131800 METAR MRPV 131800Z 07017KT 9999 FEW040 24/14 A3003 NOSIG=
201701131900 METAR MRPV 131900Z 07016KT 9999 FEW035 24/// A3002 NOSIG=
201701132000 METAR MRPV 132000Z COR 08015KT 9999 SCT035 25/15 A3001 NOSIG=
201701132100 METAR MRPV 132100Z 09012KT 9999 SCT025 SCT080 23/16 A3001 NOSIG=
201701132200 METAR MRPV 132200Z 08015G27KT 9999 SCT025 SCT080 23/15 A3000 NOSIG=
201701132300 METAR MRPV 132300Z 08019G29KT 9999 +RA SCT025 BKN080 21/15 A3001 NOSIG=
201701140000 METAR MRPV 140000Z 09012G24KT 9999 RA SCT025 SCT100 20/15 A3002 NOSIG=
201701140100 METAR MRPV NIL=
201701140200 METAR MRPV NIL=
201701140300 METAR MRPV NIL=
201701140400 METAR MRPV NIL=
201701140500 METAR MRPV NIL=
201701140600 METAR MRPV NIL=
201701140700 METAR MRPV NIL=
201701140800 METAR MRPV NIL=
201701140900 METAR MRPV NIL=
201701141000 METAR MRPV NIL=
201701141100 METAR MRPV NIL=
201701141200 METAR MRPV 141200Z 11017G29KT 9999 FEW025 18/12 A3004 NOSIG=
201701141300 METAR MRPV 141300Z 09021G33KT 9999 FEW025 18/10 A3007 NOSIG=
201701141400 METAR MRPV 141400Z 11015G25KT 9999 FEW025 19/09 A3009 NOSIG=
201701141500 METAR MRPV 141500Z 10017G27KT 9999 FEW025 20/11 A3010 NOSIG=
201701141600 METAR MRPV 141600Z 06021G32KT 9999 FEW030 21/12 A3009 NOSIG=
201701141700 METAR MRPV 141700Z 07020G36KT 9999 SCT030 22/10 A3007 NOSIG=
201701141800 METAR MRPV 141800Z 07021G32KT 9999 SCT030 22/10 A3005 NOSIG=
201701141900 METAR MRPV 141900Z 07019G29KT 9999 SCT030 23/11 A3003 NOSIG=
201701142000 METAR MRPV 142000Z 08018KT 9999 SCT030 21/13 A3001 NOSIG=
201701142100 METAR MRPV 142100Z 08021G33KT 9999 SCT030 20/12 A3001 NOSIG=
201701142200 METAR MRPV 142200Z 08018G28KT 9999 FEW035 21/11 A3000 NOSIG=
201701142300 METAR MRPV 142300Z 11018G28KT 9999 FEW035 20/12 A3002 NOSIG=
201701142356 METAR MRPV 150000Z 10013G26KT 9999 FEW045 SCT200 19/11 A3004 NOSIG=
201701150000 METAR MRPV 150000Z 10013G26KT 9999 FEW045 SCT200 19/11 A3004 NOSIG=
201701150100 METAR MRPV NIL=
201701150200 METAR MRPV NIL=
201701150300 METAR MRPV NIL=
201701150400 METAR MRPV NIL=
201701150500 METAR MRPV NIL=
201701150600 METAR MRPV NIL=
201701150700 METAR MRPV NIL=
201701150800 METAR MRPV NIL=
201701150900 METAR MRPV NIL=
201701151000 METAR MRPV NIL=
201701151100 METAR MRPV NIL=
201701151200 METAR MRPV 151200Z COR 11013KT 9999 FEW030 BKN200 18/12 A3003 NOSIG=
201701151300 METAR MRPV 151300Z 10012KT 9999 FEW035 BKN200 19/12 A3005 NOSIG=
201701151400 METAR MRPV 151400Z 10013KT 9999 FEW035 BKN200 20/12 A3007 NOSIG=
201701151500 METAR MRPV 151500Z 08018KT 9999 FEW035 BKN200 21/13 A3009 NOSIG=
201701151600 METAR MRPV 151600Z 08016KT 9999 FEW030 BKN200 23/12 A3009 NOSIG=
201701151700 METAR MRPV 151700Z 09013KT 9999 FEW045 BKN200 24/12 A3005 NOSIG=
201701151800 METAR MRPV 151800Z 07016KT CAVOK 25/11 A3000 NOSIG=
201701151900 METAR MRPV 151900Z 06017KT CAVOK 24/10 A2999 NOSIG=
201701152000 METAR MRPV 152000Z 06015KT CAVOK 25/11 A2997 NOSIG=
201701152100 METAR MRPV 152100Z 06014KT 9999 FEW045 SCT200 24/12 A2996 NOSIG=
201701152200 METAR MRPV 152200Z 06015KT 9999 FEW040 SCT200 23/13 A2996 NOSIG=
201701152300 METAR MRPV 152300Z 06013KT CAVOK 22/12 A2997 NOSIG=
201701152359 METAR MRPV 160000Z 07014KT 9999 FEW040 20/13 A2998 NOSIG=
201701160000 METAR MRPV 160000Z 07014KT 9999 FEW040 20/13 A2998 NOSIG=
201701160100 METAR MRPV NIL=
201701160200 METAR MRPV NIL=
201701160300 METAR MRPV NIL=
201701160400 METAR MRPV NIL=
201701160500 METAR MRPV NIL=
201701160600 METAR MRPV NIL=
201701160700 METAR MRPV NIL=
201701160800 METAR MRPV NIL=
201701160900 METAR MRPV NIL=
201701161000 METAR MRPV NIL=
201701161100 METAR MRPV NIL=
201701161200 METAR MRPV 161200Z 11011KT CAVOK 18/11 A3001 NOSIG=
201701161300 METAR MRPV 161300Z 11009KT CAVOK 20/10 A3005 NOSIG=
201701161400 METAR MRPV 161400Z 09015KT CAVOK 21/10 A3005 NOSIG=
201701161500 METAR MRPV 161500Z 08015KT CAVOK 23/10 A3006 NOSIG=
201701161600 METAR MRPV 161600Z 07013KT CAVOK 24/11 A3005 NOSIG=
201701161700 METAR MRPV 161700Z 06014KT CAVOK 24/12 A3004 NOSIG=
201701161800 METAR MRPV 161800Z 06016KT CAVOK 25/12 A3002 NOSIG=
201701161900 METAR MRPV 161900Z 06013KT 9999 FEW045 25/12 A2998 NOSIG=
201701162000 METAR MRPV 162000Z 06016KT 9999 FEW045 25/12 A2996 NOSIG=
201701162100 METAR MRPV 162100Z 05012KT 9999 FEW040 25/12 A2994 NOSIG=
201701162200 METAR MRPV 162200Z 06015KT 9999 FEW040 24/13 A2996 NOSIG=
201701162300 METAR MRPV 162300Z 06013KT 9999 FEW040 22/12 A2996 NOSIG=
201701162356 METAR MRPV 170000Z 06011KT 9999 FEW030 20/13 A2999 NOSIG=
201701170000 METAR MRPV 170000Z 06011KT 9999 FEW030 20/13 A2999 NOSIG=
201701170100 METAR MRPV NIL=
201701170200 METAR MRPV NIL=
201701170300 METAR MRPV NIL=
201701170400 METAR MRPV NIL=
201701170500 METAR MRPV NIL=
201701170600 METAR MRPV NIL=
201701170700 METAR MRPV NIL=
201701170800 METAR MRPV NIL=
201701170900 METAR MRPV NIL=
201701171000 METAR MRPV NIL=
201701171100 METAR MRPV NIL=
201701171200 METAR MRPV 171200Z 14006KT CAVOK 17/12 A3002 NOSIG=
201701171300 METAR MRPV 171300Z 13006KT CAVOK 19/11 A3004 NOSIG=
201701171400 METAR MRPV 171400Z 13006KT CAVOK 22/11 A3006 NOSIG=
201701171500 METAR MRPV 171500Z 07012KT CAVOK 24/11 A3007 NOSIG=
201701171600 METAR MRPV 171600Z 06012KT CAVOK 25/11 A3006 NOSIG=
201701171700 METAR MRPV 171700Z 07015KT 9999 FEW045 25/13 A3006 NOSIG=
201701171800 METAR MRPV 171800Z 07014KT 9999 FEW045 25/13 A3004 NOSIG=
201701171900 METAR MRPV 171900Z 07015G27KT 9999 FEW040 26/13 A3001 NOSIG=
201701172000 METAR MRPV 172000Z 05015KT 9999 FEW040 25/12 A2999 NOSIG=
201701172100 METAR MRPV 172100Z 06014KT 9999 FEW040 25/13 A2998 NOSIG=
201701172200 METAR MRPV 172200Z 06015G25KT 9999 FEW035 23/15 A2998 NOSIG=
201701172300 METAR MRPV NIL=
201701180000 METAR MRPV 180000Z 07014KT 9999 FEW030 20/14 A3003 NOSIG=
201701180100 METAR MRPV NIL=
201701180200 METAR MRPV NIL=
201701180300 METAR MRPV NIL=
201701180400 METAR MRPV NIL=
201701180500 METAR MRPV NIL=
201701180600 METAR MRPV NIL=
201701180700 METAR MRPV NIL=
201701180800 METAR MRPV NIL=
201701180900 METAR MRPV NIL=
201701181000 METAR MRPV NIL=
201701181100 METAR MRPV NIL=
201701181200 METAR MRPV 181200Z 12010KT 9999 FEW040 18/12 A3006 NOSIG=
201701181300 METAR MRPV 181300Z 11010KT 9999 FEW035 19/13 A3008 NOSIG=
201701181400 METAR MRPV 181400Z 09015KT 9999 FEW035 21/12 A3009 NOSIG=
201701181500 METAR MRPV 181500Z 08018KT CAVOK 23/12 A3009 NOSIG=
201701181600 METAR MRPV 181600Z 08017KT CAVOK 24/12 A3008 NOSIG=
201701181700 METAR MRPV 181700Z 06017KT CAVOK 24/12 A3007 NOSIG=
201701181800 METAR MRPV 181800Z 06016KT 9999 FEW045 SCT200 25/11 A3004 NOSIG=
201701181900 METAR MRPV 181900Z 07014KT CAVOK 26/11 A3001 NOSIG=
201701182000 METAR MRPV 182000Z 06014KT CAVOK 26/11 A2998 NOSIG=
201701182100 METAR MRPV 182100Z 06014KT 9999 FEW045 BKN200 25/12 A2998 NOSIG=
201701182200 METAR MRPV 182200Z 06014KT 9999 FEW045 BKN200 24/11 A2998 NOSIG=
201701182300 METAR MRPV 182300Z 06013KT 9999 FEW035 SCT250 23/11 A3000 NOSIG=
201701190000 METAR MRPV 190000Z 07011KT 9999 FEW030 21/11 A3002 NOSIG=
201701190100 METAR MRPV NIL=
201701190200 METAR MRPV NIL=
201701190300 METAR MRPV NIL=
201701190400 METAR MRPV NIL=
201701190500 METAR MRPV NIL=
201701190600 METAR MRPV 190600Z 10011KT CAVOK ?19/13 A3002 NOSIG=
201701190700 METAR MRPV NIL=
201701190800 METAR MRPV NIL=
201701190900 METAR MRPV NIL=
201701191000 METAR MRPV NIL=
201701191100 METAR MRPV NIL=
201701191200 METAR MRPV 191200Z 11007KT CAVOK 18/10 A3002 NOSIG=
201701191300 METAR MRPV 191300Z 13006KT CAVOK 20/07 A3004 NOSIG=
201701191400 METAR MRPV 191400Z 10010KT CAVOK 23/10 A3006 NOSIG=
201701191500 METAR MRPV 191500Z 09010G21KT CAVOK 24/09 A3007 NOSIG=
201701191600 METAR MRPV 191600Z 07009KT CAVOK 26/09 A3007 NOSIG=
201701191700 METAR MRPV 191700Z 06007KT CAVOK 27/09 A3005 NOSIG=
201701191800 METAR MRPV 191800Z 09008KT 9999 FEW045 27/10 A3002 NOSIG=
201701191900 METAR MRPV 191900Z 08010KT 9999 FEW040 27/12 A2999 BECMG 27010KT=
201701192000 METAR MRPV 192000Z 13003KT 9999 FEW030 28/11 A2997 NOSIG=
201701192100 METAR MRPV 192100Z 26008KT 9999 FEW030 27/16 A2996 NOSIG=
201701192200 METAR MRPV 192200Z 26008KT 9999 FEW030 SCT080 25/17 A2998 NOSIG=
201701192300 METAR MRPV 192300Z 24004KT 9999 SCT030 22/17 A3000 NOSIG=
201701200000 METAR MRPV 200000Z 27007KT 9999 SCT035 SCT080 21/17 A3001 NOSIG=
201701200100 METAR MRPV NIL=
201701200200 METAR MRPV NIL=
201701200300 METAR MRPV NIL=
201701200400 METAR MRPV NIL=
201701200500 METAR MRPV NIL=
201701200600 METAR MRPV NIL=
201701200700 METAR MRPV NIL=
201701200800 METAR MRPV NIL=
201701200900 METAR MRPV NIL=
201701201000 METAR MRPV NIL=
201701201100 METAR MRPV NIL=
201701201200 METAR MRPV 201200Z 07007KT CAVOK 18/12 A3006 NOSIG=
201701201300 METAR MRPV 201300Z 14003KT CAVOK 19/13 A3008 NOSIG=
201701201400 METAR MRPV 201400Z 11004KT CAVOK 22/12 A3009 NOSIG=
201701201500 METAR MRPV 201500Z 11005KT CAVOK 24/12 A3010 NOSIG=
201701201600 METAR MRPV 201600Z 11002KT CAVOK 25/12 A3009 NOSIG=
201701201700 METAR MRPV 201700Z 31003KT 9999 FEW045 27/12 A3007 BECMG 27006KT=
201701201705 METAR MRPV 201705Z 27006KT 9999 FEW045 27/12 A3006 NOSIG=
201701201800 METAR MRPV 201800Z 26009KT 9999 FEW045 27/13 A3004 NOSIG=
201701201900 METAR MRPV NIL=
201701202000 METAR MRPV NIL=
201701202100 METAR MRPV NIL=
201701202200 METAR MRPV NIL=
201701202300 METAR MRPV 202300Z 27011KT 9999 FEW030 22/18 A3002 NOSIG=
201701210000 METAR MRPV NIL=
201701210100 METAR MRPV NIL=
201701210200 METAR MRPV NIL=
201701210300 METAR MRPV NIL=
201701210400 METAR MRPV NIL=
201701210500 METAR MRPV NIL=
201701210600 METAR MRPV NIL=
201701210700 METAR MRPV NIL=
201701210800 METAR MRPV NIL=
201701210900 METAR MRPV NIL=
201701211000 METAR MRPV NIL=
201701211100 METAR MRPV NIL=
201701211200 METAR MRPV 211200Z 10004KT CAVOK 16/12 A3012 NOSIG=
201701211300 METAR MRPV 211300Z 09007KT CAVOK 17/13 A3013 NOSIG=
201701211400 METAR MRPV 211400Z 13003KT CAVOK 22/13 A3014 NOSIG=
201701211500 METAR MRPV 211500Z 14004KT CAVOK 25/12 A3014 NOSIG=
201701211600 METAR MRPV 211600Z COR 10004KT CAVOK 26/09 A3014 BECMG 27005KT=
201701211630 METAR MRPV 211630Z 28006KT CAVOK 27/10 A3013 NOSIG=
201701211700 METAR MRPV 211700Z 31006KT CAVOK 27/10 A3012 NOSIG=
201701211800 METAR MRPV 211800Z 29008KT CAVOK 27/12 A3009 NOSIG=
201701211900 METAR MRPV 211900Z 28012KT CAVOK 27/14 A3005 NOSIG=
201701212000 METAR MRPV 212000Z 27010KT CAVOK 26/16 A3003 NOSIG=
201701212100 METAR MRPV 212100Z 27011KT 9999 FEW045 26/17 A3002 NOSIG=
201701212200 METAR MRPV 212200Z 27011KT 9999 FEW045 24/17 A3002 NOSIG=
201701212300 METAR MRPV 212300Z 28010KT CAVOK 23/17 A3002 NOSIG=
201701220000 METAR MRPV 220000Z 28008KT 9999 FEW035 21/17 A3005 NOSIG=
201701220100 METAR MRPV NIL=
201701220200 METAR MRPV NIL=
201701220300 METAR MRPV NIL=
201701220400 METAR MRPV NIL=
201701220500 METAR MRPV NIL=
201701220600 METAR MRPV NIL=
201701220700 METAR MRPV NIL=
201701220800 METAR MRPV NIL=
201701220900 METAR MRPV NIL=
201701221000 METAR MRPV NIL=
201701221100 METAR MRPV NIL=
201701221200 METAR MRPV 221200Z 00000KT 9999 FEW045 17/14 A3007 NOSIG=
201701221300 METAR MRPV 221300Z 07003KT CAVOK 19/14 A3010 NOSIG=
201701221400 METAR MRPV 221400Z VRB01KT CAVOK 22/14 A3012 NOSIG=
201701221500 METAR MRPV 221500Z 25002KT 9999 FEW030 23/14 A3012 NOSIG=
201701221600 METAR MRPV 221600Z 26003KT CAVOK 24/13 A3010 NOSIG=
201701221700 METAR MRPV 221700Z 29006KT CAVOK 25/14 A3008 NOSIG=
201701221800 METAR MRPV 221800Z 28010KT CAVOK 26/13 A3005 NOSIG=
201701221900 METAR MRPV 221900Z 28010KT 9999 FEW045 26/12 A3002 NOSIG=
201701222000 METAR MRPV 222000Z 27009KT 9999 FEW045 27/12 A2999 NOSIG=
201701222100 METAR MRPV 222100Z 28011KT 9999 FEW040 26/12 A2998 NOSIG=
201701222200 METAR MRPV 222200Z 27013KT 9999 FEW040 25/15 A2999 NOSIG=
201701222300 METAR MRPV 222300Z 28011KT 9999 FEW040 23/15 A3001 NOSIG=
201701230000 METAR MRPV 230000Z 29008KT 9999 FEW040 21/15 A3002 NOSIG=
201701230100 METAR MRPV NIL=
201701230200 METAR MRPV NIL=
201701230300 METAR MRPV NIL=
201701230400 METAR MRPV NIL=
201701230500 METAR MRPV NIL=
201701230600 METAR MRPV NIL=
201701230700 METAR MRPV NIL=
201701230800 METAR MRPV NIL=
201701230900 METAR MRPV NIL=
201701231000 METAR MRPV NIL=
201701231100 METAR MRPV NIL=
201701231200 METAR MRPV NIL=
201701231300 METAR MRPV NIL=
201701231400 METAR MRPV NIL=
201701231500 METAR MRPV NIL=
201701231600 METAR MRPV 231600Z 31003KT CAVOK 25/6 A3009 NOSIG=
201701231700 METAR MRPV 231700Z 27005KT CAVOK 27/6 A3007 NOSIG=
201701231800 METAR MRPV 231800Z 27008KT CAVOK 27/8 A3004 NOSIG=
201701231900 METAR MRPV 231900Z 27010KT 9999 FEW045 27/11 A3001 NOSIG=
201701232000 METAR MRPV 232000Z 28012KT 9999 FEW045 27/15 A2998 NOSIG=
201701232100 METAR MRPV 232100Z 26009KT 9999 FEW025 SCT045 26/17 A2998 NOSIG=
201701232200 METAR MRPV 232200Z 27008KT 9999 FEW025 SCT045 24/17 A2999 NOSIG=
201701232300 METAR MRPV 232300Z 28008KT 9999 SCT040 23/17 A3001 NOSIG=
201701232356 METAR MRPV 240000Z 28003KT 9999 FEW025 BKN045 22/16 A3004 NOSIG=
201701240000 METAR MRPV 240000Z 28003KT 9999 FEW025 BKN045 22/16 A3004 NOSIG=
201701240100 METAR MRPV NIL=
201701240200 METAR MRPV NIL=
201701240300 METAR MRPV NIL=
201701240400 METAR MRPV NIL=
201701240500 METAR MRPV NIL=
201701240600 METAR MRPV NIL=
201701240700 METAR MRPV NIL=
201701240800 METAR MRPV NIL=
201701240900 METAR MRPV NIL=
201701241000 METAR MRPV NIL=
201701241100 METAR MRPV NIL=
201701241200 METAR MRPV 241200Z 13006KT CAVOK 17/08 A3008 NOSIG=
201701241300 METAR MRPV 241300Z 13011KT CAVOK 19/10 A3010 NOSIG=
201701241400 METAR MRPV 241400Z 11008KT CAVOK 22/09 A3011 NOSIG=
201701241500 METAR MRPV 241500Z 09012KT CAVOK 24/11 A3011 NOSIG=
201701241600 METAR MRPV 241600Z 06013KT CAVOK 24/10 A3011 NOSIG=
201701241700 METAR MRPV 241700Z 07012KT CAVOK 26/10 A3009 NOSIG=
201701241800 METAR MRPV 241800Z 06009KT 9999 FEW045 26/11 A3007 NOSIG=
201701241900 METAR MRPV 241900Z COR 08009G19KT 9999 FEW045 26/11 A3003 NOSIG=
201701242000 METAR MRPV 242000Z 09010KT 9999 FEW045 27/11 A3000 NOSIG=
201701242100 METAR MRPV 242100Z COR 07009KT 9999 FEW045 26/12 A2999 BECMG 27010KT=
201701242200 METAR MRPV 242200Z 08011KT 9999 FEW035 24/13 A3000 NOSIG=
201701242300 METAR MRPV 242300Z 09009KT 9999 FEW030 23/13 A3002 NOSIG=
201701250000 METAR MRPV 250000Z 09011KT 9999 -RA FEW025 21/14 A3004 NOSIG=
201701250100 METAR MRPV NIL=
201701250200 METAR MRPV NIL=
201701250300 METAR MRPV NIL=
201701250400 METAR MRPV NIL=
201701250500 METAR MRPV NIL=
201701250600 METAR MRPV NIL=
201701250700 METAR MRPV NIL=
201701250800 METAR MRPV NIL=
201701250900 METAR MRPV NIL=
201701251000 METAR MRPV NIL=
201701251100 METAR MRPV NIL=
201701251200 METAR MRPV 251200Z 11008KT 9999 FEW035 17/12 A3007 NOSIG=
201701251300 METAR MRPV 251300Z 12010KT 9999 FEW040 19/12 A3009 NOSIG=
201701251400 METAR MRPV 251400Z 12009KT 9999 FEW030 20/12 A3011? NOSIG=
201701251500 METAR MRPV 251500Z 08013KT 9999 SCT030 21/13 A3012? NOSIG=
201701251600 METAR MRPV 251600Z 10011KT 9999 SCT035 21/13 A3012? NOSIG=
201701251700 METAR MRPV 251700Z 09010KT 9999 SCT040 23/13 A3010? NOSIG=
201701251800 METAR MRPV 251800Z 07011KT 9999 FEW045 25/12 A3005 NOSIG=
201701251900 METAR MRPV 251900Z 09011KT 9999 FEW040 26/12 A3002 NOSIG=
201701252000 METAR MRPV 252000Z 07013KT 9999 FEW035 26/13 A2999 NOSIG=
201701252100 METAR MRPV 252100Z 08011G21KT 9999 SCT030 24/13 A2999 NOSIG=
201701252200 METAR MRPV 252200Z 09012KT 9999 FEW030 24/14 A2998 NOSIG=
201701252300 METAR MRPV 252300Z 10009KT 9999 FEW030 22/14 A2999 NOSIG=
201701260000 METAR MRPV 260000Z 09011KT 9999 FEW030 20/14 A3001 NOSIG=
201701260100 METAR MRPV NIL=
201701260200 METAR MRPV NIL=
201701260300 METAR MRPV NIL=
201701260400 METAR MRPV NIL=
201701260500 METAR MRPV NIL=
201701260600 METAR MRPV NIL=
201701260700 METAR MRPV NIL=
201701260800 METAR MRPV NIL=
201701260900 METAR MRPV NIL=
201701261000 METAR MRPV NIL=
201701261100 METAR MRPV NIL=
201701261200 METAR MRPV 261200Z 12011KT CAVOK 18/12 A3007 NOSIG=
201701261300 METAR MRPV 261300Z 11010KT CAVOK 19/12 A3010 NOSIG=
201701261400 METAR MRPV 261400Z 12009KT CAVOK 21/12 A3012 NOSIG=
201701261500 METAR MRPV 261500Z 07012KT CAVOK 24/10 A3013 NOSIG=
201701261600 METAR MRPV 261600Z 08013KT CAVOK 25/10 A3012 NOSIG=
201701261700 METAR MRPV 261700Z 07009KT CAVOK 27/10 A3009 NOSIG=
201701261800 METAR MRPV 261800Z 07011KT CAVOK 27/10 A3007 NOSIG=
201701261900 METAR MRPV 261900Z 08013KT CAVOK 28/12 A3005 NOSIG=
201701262000 METAR MRPV 262000Z 07014KT CAVOK 26/12 A3003 NOSIG=
201701262100 METAR MRPV 262100Z 08012KT CAVOK 27/13 A3001 NOSIG=
201701262200 METAR MRPV 262200Z 08013KT CAVOK 26/13 A3001 NOSIG=
201701262300 METAR MRPV 262300Z 08013KT 9999 FEW040 24/13 A3003 NOSIG=
201701270000 METAR MRPV 270000Z 08013KT 9999 FEW035 22/13 A3004 NOSIG=
201701270100 METAR MRPV NIL=
201701270200 METAR MRPV NIL=
201701270300 METAR MRPV NIL=
201701270400 METAR MRPV NIL=
201701270500 METAR MRPV NIL=
201701270600 METAR MRPV NIL=
201701270700 METAR MRPV NIL=
201701270800 METAR MRPV NIL=
201701270900 METAR MRPV NIL=
201701271000 METAR MRPV NIL=
201701271100 METAR MRPV NIL=
201701271200 METAR MRPV 271200Z 12007KT CAVOK 19/12 A3006 NOSIG=
201701271300 METAR MRPV 271300Z 12007KT CAVOK 20/13 A3008 NOSIG=
201701271400 METAR MRPV 271400Z 10012KT CAVOK 22/12 A3010 NOSIG=
201701271500 METAR MRPV 271500Z 08017KT CAVOK 23/13 A3010 NOSIG=
201701271600 METAR MRPV 271600Z COR 07017G27KT 9999 VCVA FEW045 24/14 A3010 NOSIG=
201701271700 METAR MRPV 271700Z COR 08019KT 9999 VCVA FEW045 25/14 A3008 NOSIG=
201701271800 METAR MRPV 271800Z 06017G27KT 9999 FEW045 25/14 A3006 NOSIG=
201701271900 METAR MRPV 271900Z 06018KT 9999 FEW045 26/14 A3003 NOSIG=
201701272000 METAR MRPV 272000Z 07011KT 9999 FEW040 27/14 A3000 NOSIG=
201701272100 METAR MRPV 272100Z 07016KT 9999 FEW040 26/15 A2998 NOSIG=
201701272200 METAR MRPV 272200Z 07015G26KT 9999 FEW035 25/15 A2999 NOSIG=
201701272300 METAR MRPV 272300Z 08017G27KT 9999 FEW030 23/15 A2999 NOSIG=
201701280000 METAR MRPV 280000Z 08015KT 9999 FEW025 22/15 A3001 NOSIG=
201701280100 METAR MRPV NIL=
201701280200 METAR MRPV NIL=
201701280300 METAR MRPV NIL=
201701280400 METAR MRPV NIL=
201701280500 METAR MRPV NIL=
201701280600 METAR MRPV NIL=
201701280700 METAR MRPV NIL=
201701280800 METAR MRPV NIL=
201701280900 METAR MRPV NIL=
201701281000 METAR MRPV NIL=
201701281100 METAR MRPV NIL=
201701281200 METAR MRPV 281200Z 10009KT CAVOK 19/13 A3003 NOSIG=
201701281300 METAR MRPV 281300Z 09014G24KT CAVOK 21/13 A3004 NOSIG=
201701281400 METAR MRPV 281400Z 07018KT CAVOK 22/13 A3006 NOSIG=
201701281500 METAR MRPV 281500Z 06018KT CAVOK 23/13 A3006 NOSIG=
201701281600 METAR MRPV 281600Z 06016G26KT CAVOK 24/13 A3006 NOSIG=
201701281700 METAR MRPV 281700Z 06020G30KT CAVOK 24/12 A3005 NOSIG=
201701281800 METAR MRPV 281800Z 06016G26KT 9999 FEW045 25/12 A3003 NOSIG=
201701281900 METAR MRPV 281900Z 06017G27KT 9999 FEW045 26/13 A3000 NOSIG=
201701282000 METAR MRPV 282000Z 07017G27KT 9999 FEW040 26/14 A2998 NOSIG=
201701282100 METAR MRPV 282100Z 06015G25KT 9999 FEW035 24/13 A2998 NOSIG=
201701282200 METAR MRPV 282200Z 07021KT 9999 SCT035 22/13 A2999 NOSIG=
201701282300 METAR MRPV 282300Z 08017KT 9999 SCT040 22/12 A3000 NOSIG=
201701282359 METAR MRPV 290000Z 09016G26KT 9999 FEW045 20/12 A3002 NOSIG=
201701290000 METAR MRPV 290000Z 09016G26KT 9999 FEW045 20/12 A3002 NOSIG=
201701290100 METAR MRPV NIL=
201701290200 METAR MRPV NIL=
201701290300 METAR MRPV NIL=
201701290400 METAR MRPV NIL=
201701290500 METAR MRPV NIL=
201701290600 METAR MRPV NIL=
201701290700 METAR MRPV NIL=
201701290800 METAR MRPV NIL=
201701290900 METAR MRPV NIL=
201701291000 METAR MRPV NIL=
201701291100 METAR MRPV NIL=
201701291200 METAR MRPV 291200Z 10013KT CAVOK 19/12 A3005 NOSIG=
201701291300 METAR MRPV 291300Z 08017KT CAVOK 20/12 A3006 NOSIG=
201701291400 METAR MRPV 291400Z 09017KT CAVOK 22/12 A3009 NOSIG=
201701291500 METAR MRPV 291500Z 08019KT CAVOK 23/10 A3009 NOSIG=
201701291600 METAR MRPV 291600Z 07017KT CAVOK 24/11 A3009 NOSIG=
201701291700 METAR MRPV 291700Z 06018G29KT CAVOK 24/11 A3007 NOSIG=
201701291800 METAR MRPV 291800Z 07020KT CAVOK 25/11 A3005 NOSIG=
201701291900 METAR MRPV 291900Z 07018KT 9999 FEW045 25/11 A3004 NOSIG=
201701292000 METAR MRPV 292000Z 06017KT 9999 FEW045 25/11 A3003 NOSIG=
201701292100 METAR MRPV 292100Z 08018KT 9999 FEW045 25/11 A3002 NOSIG=
201701292200 METAR MRPV 292200Z 08017KT 9999 SCT040 24/13 A3004 NOSIG=
201701292300 METAR MRPV 292300Z 09014KT 9999 FEW040 23/13 A3004 NOSIG=
201701292357 METAR MRPV 300000Z 11014KT 9999 FEW040 21/13 A3006 NOSIG=
201701300000 METAR MRPV 300000Z 11014KT 9999 FEW040 21/13 A3006 NOSIG=
201701300100 METAR MRPV NIL=
201701300200 METAR MRPV NIL=
201701300300 METAR MRPV NIL=
201701300400 METAR MRPV NIL=
201701300500 METAR MRPV NIL=
201701300600 METAR MRPV NIL=
201701300700 METAR MRPV NIL=
201701300800 METAR MRPV NIL=
201701300900 METAR MRPV NIL=
201701301000 METAR MRPV NIL=
201701301100 METAR MRPV NIL=
201701301200 METAR MRPV 301200Z 10016KT 9999 FEW045 20/11 A3010 NOSIG=
201701301300 METAR MRPV 301300Z 10016G26KT 9999 FEW045 SCT120 20/11 A3012 NOSIG=
201701301400 METAR MRPV 301400Z 10015G25KT CAVOK 22/11 A3013 NOSIG=
201701301500 METAR MRPV 301500Z 08019G29KT CAVOK 23/11 A3013 NOSIG=
201701301600 METAR MRPV 301600Z 07018G28KT CAVOK 23/12 A3012 NOSIG=
201701301700 METAR MRPV 301700Z 07020G30KT CAVOK 24/13 A3010 NOSIG=
201701301800 METAR MRPV 301800Z 07019G31KT 9999 FEW045 SCT200 24/13 A3008 NOSIG=
201701301900 METAR MRPV 301900Z 06021KT 9999 FEW035 SCT140 23/13 A3007 NOSIG=
201701302000 METAR MRPV 302000Z 07020KT 9999 FEW035 SCT200 24/14 A3005 NOSIG=
201701302100 METAR MRPV 302100Z 06021G38KT 9999 FEW035 SCT200 22/11 A3004 NOSIG=
201701302200 METAR MRPV 302200Z 06020KT 9999 FEW035 SCT200 22/12 A3005 NOSIG=
201701302300 METAR MRPV 302300Z 07020G30KT 9999 SCT030 SCT200 21/10 A3006 NOSIG=
201701310000 METAR MRPV 310000Z 08020KT 9999 SCT030 SCT200 19/12 A3008 NOSIG=
201701310100 METAR MRPV NIL=
201701310200 METAR MRPV NIL=
201701310300 METAR MRPV NIL=
201701310400 METAR MRPV NIL=
201701310500 METAR MRPV NIL=
201701310600 METAR MRPV NIL=
201701310700 METAR MRPV NIL=
201701310800 METAR MRPV NIL=
201701310900 METAR MRPV NIL=
201701311000 METAR MRPV NIL=
201701311100 METAR MRPV NIL=
201701311200 METAR MRPV 311200Z 08017G27KT 9999 FEW040 SCT120 19/14 A3008 NOSIG=
201701311300 METAR MRPV 311300Z 09020KT 9999 FEW040 SCT140 20/13 A3010 NOSIG=
201701311400 METAR MRPV 311400Z 09016G26KT 9999 FEW040 SCT180 21/13 A3012 NOSIG=
201701311500 METAR MRPV COR 311500Z 07021G32KT 9999 FEW045 SCT200 21/14 A3012 WSR09 NOSIG=
201701311600 METAR MRPV 311600Z 07021G31KT 9999 FEW025 BKN180 22/14 A3011 WSR09 NOSIG=
201701311700 METAR MRPV 311700Z 07020G30KT 9999 SCT030 BKN200 23/15 A3010 WSR09 NOSIG=
201701311800 METAR MRPV 311800Z 07018G28KT 9999 FEW025 BKN180 23/13 A3007 WSR09 NOSIG=
201701311900 METAR MRPV 311900Z 07019G30KT 9999 SCT025 SCT180 23/13 A3005 WSR09 NOSIG=
201701312000 METAR MRPV 312000Z 06020KT 9999 FEW025 SCT200 24/13 A3002 WSR09 NOSIG=
201701312100 METAR MRPV 312100Z 07018G28KT 9999 FEW045 SCT180 23/13 A3001 NOSIG=
201701312200 METAR MRPV 312200Z 07015G25KT 9999 FEW045 SCT180 23/14 A3002 NOSIG=
201701312300 METAR MRPV 312300Z 09011KT 9999 FEW035 BKN180 21/15 A3002 NOSIG=
201702010000 METAR MRPV 010000Z 07015G25KT 9999 FEW030 BKN160 20/15 A3004 NOSIG=
201702010100 METAR MRPV NIL=
201702010200 METAR MRPV NIL=
201702010300 METAR MRPV NIL=
201702010400 METAR MRPV NIL=
201702010500 METAR MRPV NIL=
201702010600 METAR MRPV NIL=
201702010700 METAR MRPV NIL=
201702010800 METAR MRPV NIL=
201702010900 METAR MRPV NIL=
201702011000 METAR MRPV NIL=
201702011100 METAR MRPV NIL=
201702011200 METAR MRPV 011200Z 11010KT 9999 FEW025 19/15 A3005 NOSIG=
201702011300 METAR MRPV 011300Z 11013KT 9999 FEW030 19/15 A3005 NOSIG=
201702011400 METAR MRPV 011400Z 08019KT 9999 FEW035 21/13 A3007 NOSIG=
201702011500 METAR MRPV 011500Z 07017KT 9999 FEW040 23/13 A3009 NOSIG=
201702011600 METAR MRPV 011600Z 06017G27KT 9999 FEW030 24/14 A3008 NOSIG=
201702011700 METAR MRPV 011700Z 06017KT 9999 FEW035 25/14 A3007 NOSIG=
201702011800 METAR MRPV 011800Z 07017KT 9999 FEW035 25/15 A3003 NOSIG=
201702011900 METAR MRPV 011900Z 05017G28KT 9999 SCT030 24/14 A3002 NOSIG=
201702012000 METAR MRPV 012000Z 06019KT 9999 FEW030 24/14 A2999 NOSIG=
201702012100 METAR MRPV 012100Z 06017G27KT 9999 FEW030 24/15 A2998 NOSIG=
201702012200 METAR MRPV 012200Z 07018G28KT 9999 FEW030 23/15 A2999 NOSIG=
201702012300 METAR MRPV 012300Z 07016G28KT 9999 FEW030 22/13 A3000 NOSIG=
201702020000 METAR MRPV 020000Z 07016KT 9999 FEW025 BKN200 20/14 A3003 NOSIG=
201702020100 METAR MRPV NIL=
201702020200 METAR MRPV NIL=
201702020300 METAR MRPV NIL=
201702020400 METAR MRPV NIL=
201702020500 METAR MRPV NIL=
201702020600 METAR MRPV NIL=
201702020700 METAR MRPV NIL=
201702020800 METAR MRPV NIL=
201702020900 METAR MRPV NIL=
201702021000 METAR MRPV NIL=
201702021100 METAR MRPV NIL=
201702021200 METAR MRPV 021200Z 10015KT CAVOK 19/12 A3004 NOSIG=
201702021300 METAR MRPV 021300Z 10016KT 9999 VCVA FEW040 20/12 A3005 NOSIG=
201702021400 METAR MRPV 021400Z 09017KT 9999 VCVA FEW040 21/12 A3007 NOSIG=
201702021500 METAR MRPV 021500Z 07021G31KT 9999 VCVA FEW035 22/12 A3008 NOSIG=
201702021600 METAR MRPV 021600Z 07016G27KT 9999 FEW045 23/13 A3008 NOSIG=
201702021700 METAR MRPV 021700Z COR 07021G33KT 9999 VCVA FEW040 24/12 A3006 NOSIG=
201702021800 METAR MRPV 021800Z 07020G30KT 9999 VCVA FEW040 25/12 A3004 REVA NOSIG=
201702021900 METAR MRPV 021900Z 07019KT 9999 FEW035 25/13 A3001 NOSIG=
201702022000 METAR MRPV 022000Z 05015G25KT 9999 FEW035 24/12 A2999 NOSIG=
201702022100 METAR MRPV 022100Z 07021G32KT 9999 FEW035 23/12 A2998 NOSIG=
201702022200 METAR MRPV 022200Z 07023KT 9999 SCT030 22/12 A2999 NOSIG=
201702022300 METAR MRPV 022300Z 07020KT 9999 FEW035 21/11 A3001 NOSIG=
201702030000 METAR MRPV 030000Z 08019G29KT 9999 FEW030 20/12 A3002 NOSIG=
201702030100 METAR MRPV NIL=
201702030200 METAR MRPV NIL=
201702030300 METAR MRPV NIL=
201702030400 METAR MRPV NIL=
201702030500 METAR MRPV NIL=
201702030600 METAR MRPV NIL=
201702030700 METAR MRPV NIL=
201702030800 METAR MRPV NIL=
201702030900 METAR MRPV NIL=
201702031000 METAR MRPV NIL=
201702031100 METAR MRPV NIL=
201702031200 METAR MRPV 031200Z 10013G23KT CAVOK 19/11 A3003 NOSIG=
201702031300 METAR MRPV 031300Z 10012G22KT CAVOK 20/11 A3005 NOSIG=
201702031400 METAR MRPV NIL=
201702031500 METAR MRPV 031500Z 08019KT CAVOK 23/12 A3009 NOSIG=
201702031600 METAR MRPV 031600Z 07016G26KT CAVOK 25/10 A3007 NOSIG=
201702031700 METAR MRPV 031700Z 06017KT CAVOK 25/12 A3005 NOSIG=
201702031800 METAR MRPV 031800Z 06016G26KT 9999 FEW045 25/13 A3003 NOSIG=
201702031900 METAR MRPV 031900Z 06016KT 9999 FEW040 26/14 A3001 NOSIG=
201702032000 METAR MRPV 032000Z 06016KT 9999 SCT045 25/14 A2998 NOSIG=
201702032100 METAR MRPV 032100Z 06018G28KT 9999 FEW040 24/13 A2997 NOSIG=
201702032200 METAR MRPV 032200Z 08017G27KT 9999 FEW040 23/13 A2998 NOSIG=
201702032300 METAR MRPV 032300Z 08018G28KT 9999 FEW040 22/13 A3000 NOSIG=
201702040000 METAR MRPV 040000Z 08017KT 9999 FEW040 21/13 A3001 NOSIG=
201702040100 METAR MRPV NIL=
201702040200 METAR MRPV NIL=
201702040300 METAR MRPV NIL=
201702040400 METAR MRPV NIL=
201702040500 METAR MRPV NIL=
201702040600 METAR MRPV NIL=
201702040700 METAR MRPV NIL=
201702040800 METAR MRPV NIL=
201702040900 METAR MRPV NIL=
201702041000 METAR MRPV NIL=
201702041100 METAR MRPV NIL=
201702041200 METAR MRPV 041200Z 12011G21KT 9999 SCT025 19/12 A3003 NOSIG=
201702041300 METAR MRPV 041300Z 12011KT 9999 FEW030 19/11 A3005 NOSIG=
201702041400 METAR MRPV 041400Z 10012KT CAVOK 22/10 A3008 NOSIG=
201702041500 METAR MRPV 041500Z 09012KT CAVOK 24/10 A3008 NOSIG=
201702041600 METAR MRPV 041600Z 07015G25KT CAVOK 24/11 A3007 NOSIG=
201702041700 METAR MRPV 041700Z 07016KT CAVOK 25/12 A3005 NOSIG=
201702041800 METAR MRPV 041800Z 06017KT CAVOK 25/12 A3001 NOSIG=
201702041900 METAR MRPV 041900Z 07019G29KT CAVOK 25/13 A2998 NOSIG=
201702042000 METAR MRPV 042000Z 07019G29KT 9999 FEW045 24/14 A2995 NOSIG=
201702042100 METAR MRPV 042100Z 07017KT 9999 FEW040 24/15 A2993 NOSIG=
201702042200 METAR MRPV 042200Z 07016G26KT 9999 FEW030 23/15 A2994 NOSIG=
201702042300 METAR MRPV 042300Z 08016G26KT 9999 FEW030 22/15 A2995 NOSIG=
201702050000 METAR MRPV 050000Z 09019G30KT 9999 FEW030 20/15 A2997 NOSIG=
201702050100 METAR MRPV NIL=
201702050200 METAR MRPV NIL=
201702050300 METAR MRPV NIL=
201702050400 METAR MRPV NIL=
201702050500 METAR MRPV NIL=
201702050600 METAR MRPV NIL=
201702050700 METAR MRPV NIL=
201702050800 METAR MRPV NIL=
201702050900 METAR MRPV NIL=
201702051000 METAR MRPV NIL=
201702051100 METAR MRPV NIL=
201702051200 METAR MRPV 051200Z 10013G23KT 9999 FEW025 21/14 A3001 NOSIG=
201702051300 METAR MRPV 051300Z 09015G28KT 9999 FEW030 21/14 A3002 NOSIG=
201702051400 METAR MRPV 051400Z 09015KT 9999 FEW030 21/15 A3004 NOSIG=
201702051500 METAR MRPV 051500Z 06017KT 9999 FEW030 23/15 A3005 NOSIG=
201702051600 METAR MRPV 051600Z 08016KT 9999 FEW035 23/15 A3005 NOSIG=
201702051700 METAR MRPV 051700Z 07019KT 9999 FEW030 25/16 A3001 NOSIG=
201702051800 METAR MRPV 051800Z 07019KT 9999 FEW030 SCT080 24/16 A2999 NOSIG=
201702051900 METAR MRPV 051900Z 09017KT 9999 FEW030 SCT080 24/16 A2996 NOSIG=
201702052000 METAR MRPV 052000Z 08018KT 9999 SCT025 SCT080 23/15 A2993 NOSIG=
201702052100 METAR MRPV 052100Z 09013KT 9999 SCT025 24/15 A2992 NOSIG=
201702052200 METAR MRPV 052200Z 09018G28KT 9999 FEW030 24/14 A2992 NOSIG=
201702052300 METAR MRPV 052300Z 08021G32KT 9999 FEW025 22/15 A2994 NOSIG=
201702060000 METAR MRPV 060000Z 09017G27KT 9999 FEW035 21/14 A2997 NOSIG=
201702060100 METAR MRPV NIL=
201702060200 METAR MRPV NIL=
201702060300 METAR MRPV NIL=
201702060400 METAR MRPV NIL=
201702060500 METAR MRPV NIL=
201702060600 METAR MRPV NIL=
201702060700 METAR MRPV NIL=
201702060800 METAR MRPV NIL=
201702060900 METAR MRPV NIL=
201702061000 METAR MRPV NIL=
201702061100 METAR MRPV NIL=
201702061200 METAR MRPV 061200Z 10013KT 9999 FEW025 20/14 A3001 NOSIG=
201702061300 METAR MRPV 061300Z 08019KT 9999 FEW030 20/14 A3004 NOSIG=
201702061400 METAR MRPV 061400Z 10014G24KT 9999 FEW035 21/14 A3005 NOSIG=
201702061500 METAR MRPV 061500Z 07017G27KT 9999 FEW040 23/14 A3005 NOSIG=
201702061600 METAR MRPV 061600Z 07019KT 9999 SCT045 23/14 A3005 NOSIG=
201702061700 METAR MRPV 061700Z 07019KT 9999 SCT045 25/14 A3002 NOSIG=
201702061800 METAR MRPV 061800Z 07018G28KT 9999 SCT040 25/15 A3000 NOSIG=
201702061900 METAR MRPV 061900Z 08021G31KT 9999 SCT030 24/15 A2997 NOSIG=
201702062000 METAR MRPV 062000Z 07018G29KT 9999 FEW035 24/15 A2996 NOSIG=
201702062100 METAR MRPV 062100Z 06016G29KT 9999 SCT035 24/14 A2995 NOSIG=
201702062200 METAR MRPV 062200Z 07017KT 9999 SCT035 24/15 A2995 NOSIG=
201702062300 METAR MRPV 062300Z 08018G28KT 9999 FEW035 23/14 A2995 NOSIG=
201702070000 METAR MRPV 070000Z 08019KT 9999 FEW035 21/15 A2996 NOSIG=
201702070100 METAR MRPV NIL=
201702070200 METAR MRPV NIL=
201702070300 METAR MRPV NIL=
201702070400 METAR MRPV NIL=
201702070500 METAR MRPV NIL=
201702070600 METAR MRPV NIL=
201702070700 METAR MRPV NIL=
201702070800 METAR MRPV NIL=
201702070900 METAR MRPV NIL=
201702071000 METAR MRPV NIL=
201702071100 METAR MRPV NIL=
201702071200 METAR MRPV 071200Z 11010G20KT 9999 FEW025 20/15 A3000 NOSIG=
201702071300 METAR MRPV 071300Z 09014G24KT 9999 -DZ SCT025 20/15 A3008 NOSIG=
201702071400 METAR MRPV 071400Z 10014KT 9999 FEW020 21/15 A3004 NOSIG=
201702071500 METAR MRPV 071500Z 09017KT 9999 FEW025 21/15 A3005 NOSIG=
201702071600 METAR MRPV 071600Z 07016G26KT 9999 SCT025 22/14 A3005 NOSIG=
201702071700 METAR MRPV 071700Z 07018KT 9999 SCT030 24/15 A3004 NOSIG=
201702071800 METAR MRPV 071800Z 08015G25KT 9999 SCT025 24/15 A3001 NOSIG=
201702071900 METAR MRPV 071900Z 08020KT 9999 FEW045 26/15 A2996 NOSIG=
201702072000 METAR MRPV 072000Z 06018KT 9999 FEW030 25/15 A2993 NOSIG=
201702072100 METAR MRPV 072100Z 08019KT 9999 FEW035 25/15 A2992 NOSIG=
201702072200 METAR MRPV 072200Z 08017KT 9999 FEW035 25/16 A2996 NOSIG=
201702072300 METAR MRPV 072300Z 08017KT 9999 FEW025 23/15 A2993 NOSIG=
201702080000 METAR MRPV 080000Z 09013KT 9999 FEW025 21/15 A2994 NOSIG=
201702080100 METAR MRPV NIL=
201702080200 METAR MRPV NIL=
201702080300 METAR MRPV NIL=
201702080400 METAR MRPV NIL=
201702080500 METAR MRPV NIL=
201702080600 METAR MRPV NIL=
201702080700 METAR MRPV NIL=
201702080800 METAR MRPV NIL=
201702080900 METAR MRPV NIL=
201702081000 METAR MRPV NIL=
201702081100 METAR MRPV NIL=
201702081200 METAR MRPV 081200Z 08017KT 9999 FEW035 25/16 A2996 NOSIG=
201702081300 METAR MRPV 081300Z 11010KT 9999 FEW030 20/13 A3002 NOSIG=
201702081400 METAR MRPV 081400Z 10012KT CAVOK 22/13 A3004 NOSIG=
201702081500 METAR MRPV 081500Z 07015KT CAVOK 24/13 A3003 NOSIG=
201702081600 METAR MRPV 081600Z 08015KT CAVOK 25/12 A3003 NOSIG=
201702081700 METAR MRPV 081700Z 07015KT CAVOK 26/13 A3002 NOSIG=
201702081800 METAR MRPV 081800Z 07014KT CAVOK 27/13 A3000 NOSIG=
201702081900 METAR MRPV 081900Z 08015KT 9999 FEW045 BKN200 28/13 A2997 NOSIG=
201702082000 METAR MRPV 082000Z 08013KT 9999 FEW045 BKN200 28/13 A2994 NOSIG=
201702082100 METAR MRPV 082100Z 07017KT 9999 FEW045 BKN200 27/14 A2993 NOSIG=
201702082200 METAR MRPV 082200Z 08015KT 9999 FEW035 BKN200 26/15 A2994 NOSIG=
201702082300 METAR MRPV 082300Z 09013KT 9999 FEW035 BKN200 24/15 A2996 NOSIG=
201702090000 METAR MRPV 090000Z 09010KT 9999 FEW030 BKN200 23/15 A2998 NOSIG=
201702090100 METAR MRPV NIL=
201702090200 METAR MRPV NIL=
201702090300 METAR MRPV NIL=
201702090400 METAR MRPV NIL=
201702090500 METAR MRPV NIL=
201702090600 METAR MRPV NIL=
201702090700 METAR MRPV NIL=
201702090800 METAR MRPV NIL=
201702090900 METAR MRPV NIL=
201702091000 METAR MRPV NIL=
201702091100 METAR MRPV NIL=
201702091200 METAR MRPV 091200Z 11012KT 9999 BKN015 21/15 A3005 NOSIG=
201702091300 METAR MRPV 071300Z 10008G28KT 9999 FEW025 21/15 A3007 NOSIG=
201702091400 METAR MRPV 091400Z 08014KT 9999 FEW025 23/15 A3008 NOSIG=
201702091500 METAR MRPV 091500Z 07016KT 9999 FEW035 23/15 A3010 NOSIG=
201702091600 METAR MRPV 091600Z 06018KT 9999 FEW040 24/15 A3009 NOSIG=
201702091700 METAR MRPV 091700Z 06017KT CAVOK 26/14 A3007 NOSIG=
201702091800 METAR MRPV 091800Z 06017KT 9999 FEW035 26/14 A3004? NOSIG=
201702091900 METAR MRPV 091900Z 06016KT 9999 FEW040 27/14 A3002? NOSIG=
201702092000 METAR MRPV 092000Z 06018G28KT 9999 FEW035 27/14 A2999 NOSIG=
201702092100 METAR MRPV 092100Z COR 07015KT 9999 FEW035 26/14 A2999 NOSIG=
201702092200 METAR MRPV 092200Z 06016KT 9999 FEW035 25/15 A2999 NOSIG=
201702092300 METAR MRPV 092300Z 07013KT 9999 FEW035 24/15 A3001 NOSIG=
201702100000 METAR MRPV 100000Z 07016KT 9999 FEW035 22/16 A3003 NOSIG=
201702100100 METAR MRPV NIL=
201702100200 METAR MRPV NIL=
201702100300 METAR MRPV NIL=
201702100400 METAR MRPV NIL=
201702100500 METAR MRPV NIL=
201702100600 METAR MRPV NIL=
201702100700 METAR MRPV NIL=
201702100800 METAR MRPV NIL=
201702100900 METAR MRPV NIL=
201702101000 METAR MRPV NIL=
201702101100 METAR MRPV NIL=
201702101200 METAR MRPV 101200Z 10013KT 9999 FEW030 SCT200 20/14 A3011 NOSIG=
201702101300 METAR MRPV 101300Z 10013G25KT 9999 FEW030 21/14 A3013 NOSIG=
201702101400 METAR MRPV 101400Z 09016KT 9999 FEW035 SCT200 22/14 A3015 NOSIG=
201702101500 METAR MRPV 101500Z 09016KT 9999 FEW035 24/13 A3015 NOSIG=
201702101600 METAR MRPV 101600Z 07018KT 9999 FEW035 24/14 A3014 NOSIG=
201702101640 METAR MRPV 101640Z 07018KT 9999 FEW035 24/14 A3014 NOSIG=
201702101700 METAR MRPV 101700Z 07019G31KT 9999 FEW035 25/14 A3012 NOSIG=
201702101800 METAR MRPV 101800Z 06021G31KT 9999 FEW045 26/14 A3009 NOSIG=
201702101900 METAR MRPV 101900Z 07023G35KT 9999 SCT040 25/14 A3007 NOSIG=
201702102000 METAR MRPV 102000Z 09017G27KT 9999 FEW040 SCT080 24/14 A3006 NOSIG=
201702102100 METAR MRPV 102100Z 07020G33KT 9999 FEW040 24/14 A3005 NOSIG=
201702102200 METAR MRPV 102200Z 06020G33KT 9999 FEW035 23/14 A3004 NOSIG=
201702102300 METAR MRPV 102300Z 07021G34KT 9999 FEW040 22/14 A3005 NOSIG=
201702110000 METAR MRPV 110000Z 09015G25KT 9999 FEW040 21/14 A3006 NOSIG=
201702110100 METAR MRPV NIL=
201702110200 METAR MRPV NIL=
201702110300 METAR MRPV NIL=
201702110400 METAR MRPV NIL=
201702110500 METAR MRPV NIL=
201702110600 METAR MRPV NIL=
201702110700 METAR MRPV NIL=
201702110800 METAR MRPV NIL=
201702110900 METAR MRPV NIL=
201702111000 METAR MRPV NIL=
201702111100 METAR MRPV NIL=
201702111200 METAR MRPV 111200Z 11018G28KT CAVOK 19/07 A3007 NOSIG=
201702111300 METAR MRPV 111300Z 09017G27KT CAVOK 20/07 A3009 NOSIG=
201702111400 METAR MRPV 111400Z 10015G25KT CAVOK 22/08 A3010 NOSIG=
201702111500 METAR MRPV 111500Z 08018G28KT CAVOK 24/10 A3011 NOSIG=
201702111600 METAR MRPV 111600Z 07020G30KT CAVOK 24/07 A3010 NOSIG=
201702111700 METAR MRPV 111700Z 08020G31KT CAVOK 26/08 A3008 NOSIG=
201702111800 METAR MRPV 111800Z 07020G33KT CAVOK 25/10 A3006 NOSIG=
201702111900 METAR MRPV 111900Z 06023G36KT CAVOK 24/11 A3003 NOSIG=
201702112000 METAR MRPV 112000Z 06022G32KT CAVOK 25/11 A3001 NOSIG=
201702112100 METAR MRPV 112100Z 06021G31KT CAVOK 24/11 A3000 NOSIG=
201702112200 METAR MRPV 112200Z 06023G33KT 9999 FEW045 23/10 A3000 NOSIG=
201702112300 METAR MRPV 112300Z 06021G33KT 9999 FEW045 22/10 A3000 NOSIG=
201702120000 METAR MRPV 120000Z 07020KT CAVOK 20/10 A3003 NOSIG=
201702120100 METAR MRPV NIL=
201702120200 METAR MRPV NIL=
201702120300 METAR MRPV NIL=
201702120400 METAR MRPV NIL=
201702120500 METAR MRPV NIL=
201702120600 METAR MRPV NIL=
201702120700 METAR MRPV NIL=
201702120800 METAR MRPV NIL=
201702120900 METAR MRPV NIL=
201702121000 METAR MRPV NIL=
201702121100 METAR MRPV NIL=
201702121200 METAR MRPV 121200Z 11012KT CAVOK 17/11 A3005 NOSIG=
201702121300 METAR MRPV 121300Z 12011G22KT CAVOK 19/10 A3005 NOSIG=
201702121400 METAR MRPV 121400Z 10014KT CAVOK 20/10 A3007 NOSIG=
201702121500 METAR MRPV 121500Z 07020G30KT CAVOK 22/10 A3007 NOSIG=
201702121600 METAR MRPV 121600Z 07019KT CAVOK 23/12 A3008 NOSIG=
201702121700 METAR MRPV 121700Z 07018KT CAVOK 24/13 A3007 NOSIG=
201702121800 METAR MRPV 121800Z 08017KT 9999 FEW035 25/13 A3004 NOSIG=
201702121900 METAR MRPV 121900Z 06020G31KT 9999 FEW025 23/14 A3002 NOSIG=
201702122000 METAR MRPV 122000Z 08018KT 9999 SCT025 22/14 A3000 NOSIG=
201702122100 METAR MRPV 122100Z 09016KT 9999 SCT025 22/14 A2999 NOSIG=
201702122200 METAR MRPV 122200Z 07019KT 9999 SCT025 22/13 A2999 NOSIG=
201702122300 METAR MRPV 122300Z 09020KT 9999 SCT025 SCT200 20/13 A3001 NOSIG=
201702130000 METAR MRPV 130000Z 08019KT 9999 SCT025 SCT200 19/12 A3003 NOSIG=
201702130100 METAR MRPV NIL=
201702130200 METAR MRPV NIL=
201702130300 METAR MRPV NIL=
201702130400 METAR MRPV NIL=
201702130500 METAR MRPV NIL=
201702130600 METAR MRPV NIL=
201702130700 METAR MRPV NIL=
201702130800 METAR MRPV NIL=
201702130900 METAR MRPV NIL=
201702131000 METAR MRPV NIL=
201702131100 METAR MRPV NIL=
201702131200 METAR MRPV 131200Z 10010KT 9999 FEW040 18/12 A3004 NOSIG=
201702131300 METAR MRPV 131300Z 12010KT 9999 FEW040 19/12 A3005 NOSIG=
201702131400 METAR MRPV 131400Z 10012KT CAVOK 21/12 A3007 NOSIG=
201702131500 METAR MRPV 131500Z 08017KT CAVOK 23/13 A3007 NOSIG=
201702131600 METAR MRPV 131600Z 07013G23KT CAVOK 23/13 A3007 NOSIG=
201702131700 METAR MRPV 131700Z 07013KT 9999 FEW045 25/13 A3006 NOSIG=
201702131800 METAR MRPV 131800Z 08014KT 9999 FEW040 26/12 A3003 NOSIG=
201702131900 METAR MRPV 131900Z 07011KT 9999 FEW045 27/13 A3001 NOSIG=
201702132000 METAR MRPV 132000Z COR 07011KT 9999 FEW025TCU FEW040 27/13 A2997 NOSIG=
201702132100 METAR MRPV 132100Z 07014KT 9999 FEW030 27/13 A2996 NOSIG=
201702132200 METAR MRPV 132200Z 08013KT 9999 FEW030 26/13 A2995 NOSIG=
201702132300 METAR MRPV 132300Z 09013KT 9999 FEW030 24/14 A2996 NOSIG=
201702140000 METAR MRPV 140000Z 08017KT 9999 FEW030 21/14 A2998 NOSIG=
201702140100 METAR MRPV NIL=
201702140200 METAR MRPV NIL=
201702140300 METAR MRPV NIL=
201702140400 METAR MRPV NIL=
201702140500 METAR MRPV NIL=
201702140600 METAR MRPV NIL=
201702140700 METAR MRPV NIL=
201702140800 METAR MRPV NIL=
201702140900 METAR MRPV NIL=
201702141000 METAR MRPV NIL=
201702141100 METAR MRPV NIL=
201702141200 METAR MRPV 141200Z 13007KT CAVOK 17/12 A3005 NOSIG=
201702141300 METAR MRPV 141300Z 09009KT CAVOK 18/13 A3006 NOSIG=
201702141400 METAR MRPV 141400Z 11009KT 9999 FEW045 21/13 A3007 NOSIG=
201702141500 METAR MRPV 141500Z 13006KT 9999 FEW040 24/13 A3009 NOSIG=
201702141600 METAR MRPV 141600Z 11006KT 9999 FEW040 26/13 A3009 NOSIG=
201702141700 METAR MRPV 141700Z COR 04004KT 9999 FEW045 SCT080 27/12 A3006 NOSIG=
201702141719 METAR MRPV 141719Z 24006KT 9999 SCT045 27/12 A3004 NOSIG=
201702141800 METAR MRPV 141800Z 25006KT 9999 SCT045 27/13 A3002 NOSIG=
201702141900 METAR MRPV 141900Z 26009KT 9999 SCT045 28/13 A3000 NOSIG=
201702142000 METAR MRPV 142000Z 26011KT 9999 SCT045 28/15 A2996 NOSIG=
201702142100 METAR MRPV 142100Z 24007KT 9999 SCT040 27/15 A2996 NOSIG=
201702142200 METAR MRPV 142200Z 25007KT 9999 BKN035 26/15 A2997 NOSIG=
201702142300 METAR MRPV 142300Z 25006KT 9999 BKN030 24/14 A2999 NOSIG=
201702150000 METAR MRPV 150000Z 25005KT 9999 BKN030 22/15 A3001 NOSIG=
201702150100 METAR MRPV NIL=
201702150200 METAR MRPV NIL=
201702150300 METAR MRPV NIL=
201702150400 METAR MRPV NIL=
201702150500 METAR MRPV NIL=
201702150600 METAR MRPV NIL=
201702150700 METAR MRPV NIL=
201702150800 METAR MRPV NIL=
201702150900 METAR MRPV NIL=
201702151000 METAR MRPV NIL=
201702151100 METAR MRPV NIL=
201702151200 METAR MRPV 151200Z 13002KT CAVOK 16/12 A3007 NOSIG=
201702151300 METAR MRPV 151300Z 13002KT CAVOK 19/12 A3009 NOSIG=
201702151400 METAR MRPV 151400Z 12003KT CAVOK 22/12 A3010 NOSIG=
201702151500 METAR MRPV 151500Z 10002KT CAVOK 25/12 A3010 NOSIG=
201702151600 METAR MRPV 151600Z VRB02KT CAVOK 26/11 A3011 NOSIG=
201702151700 METAR MRPV 151700Z 30005KT CAVOK 27/11 A3009 NOSIG=
201702151800 METAR MRPV 151800Z 29007KT CAVOK 27/12 A3005 NOSIG=
201702151900 METAR MRPV 151900Z 25008KT 9999 FEW040 28/13 A3003 NOSIG=
201702152000 METAR MRPV 152000Z 25007KT 9999 FEW040 28/13 A3001 NOSIG=
201702152100 METAR MRPV 152100Z 26010KT 9999 FEW040 26/16 A3000 NOSIG=
201702152200 METAR MRPV 152200Z 26008KT 9999 SCT040 25/16 A3002 NOSIG=
201702152300 METAR MRPV 152300Z 24007KT 9999 SCT040 25/15 A3003 NOSIG=
201702160000 METAR MRPV 160000Z 28006KT 9999 FEW035 23/15 A3004 NOSIG=
201702160100 METAR MRPV NIL=
201702160200 METAR MRPV NIL=
201702160300 METAR MRPV NIL=
201702160400 METAR MRPV NIL=
201702160500 METAR MRPV NIL=
201702160600 METAR MRPV NIL=
201702160700 METAR MRPV NIL=
201702160800 METAR MRPV NIL=
201702160900 METAR MRPV NIL=
201702161000 METAR MRPV NIL=
201702161100 METAR MRPV NIL=
201702161200 METAR MRPV 161200Z 14003KT CAVOK 17/13 A3011 NOSIG=
201702161300 METAR MRPV 161300Z 14003KT CAVOK 21/13 A3013 NOSIG=
201702161400 METAR MRPV 161400Z 11006KT CAVOK 23/13 A3014 NOSIG=
201702161500 METAR MRPV 161500Z 11004KT CAVOK 26/10 A3015 NOSIG=
201702161600 METAR MRPV 161600Z 13005KT CAVOK 27/6 A3014 NOSIG=
201702161700 METAR MRPV 161700Z 07014KT CAVOK 29/4 A3011 NOSIG=
201702161800 METAR MRPV 161800Z 06007KT CAVOK 29/7 A3009 NOSIG=
201702161900 METAR MRPV 161900Z 27005KT 9999 FEW045 27/11 A3006 NOSIG=
201702162000 METAR MRPV 162000Z 23004KT 9999 FEW045 29/13 A3004 NOSIG=
201702162100 METAR MRPV 162100Z 08009KT 9999 FEW045 SCT070 26/12 A3002 NOSIG=
201702162200 METAR MRPV 162200Z 08011KT 9999 FEW045 SCT070 25/13 A3002 NOSIG=
201702162300 METAR MRPV 162300Z 08008KT 9999 FEW040 SCT060 24/13 A3004 NOSIG=
201702170000 METAR MRPV 170000Z 14003KT 9999 FEW040 SCT070 22/14 A3006 NOSIG=
201702170100 METAR MRPV NIL=
201702170200 METAR MRPV NIL=
201702170300 METAR MRPV NIL=
201702170400 METAR MRPV NIL=
201702170500 METAR MRPV NIL=
201702170600 METAR MRPV NIL=
201702170700 METAR MRPV NIL=
201702170800 METAR MRPV NIL=
201702170900 METAR MRPV NIL=
201702171000 METAR MRPV NIL=
201702171100 METAR MRPV NIL=
201702171200 METAR MRPV 171200Z 12004KT CAVOK 17/12 A3012 NOSIG=
201702171300 METAR MRPV 171300Z 13003KT CAVOK 19/12 A3014 NOSIG=
201702171400 METAR MRPV 171400Z 11008KT CAVOK 23/04 A3015 NOSIG=
201702171500 METAR MRPV 171500Z 10008KT CAVOK 25/04 A3015 NOSIG=
201702171600 METAR MRPV 171600Z 08010KT CAVOK 26/08 A3014 NOSIG=
201702171700 METAR MRPV 171700Z 35005KT 9999 FEW045 27/09 A3012 NOSIG=
201702171800 METAR MRPV 171800Z 26008KT 9999 FEW045 26/13 A3009 NOSIG=
201702171900 METAR MRPV 171900Z 25007KT 9999 SCT045 27/14 A3007 NOSIG=
201702172000 METAR MRPV 172000Z 08004KT 9999 FEW045 SCT060 25/14 A3005 NOSIG=
201702172100 METAR MRPV 172100Z 09009KT 9999 SCT045 24/13 A3003 NOSIG=
201702172200 METAR MRPV 172200Z 09010KT 9999 SCT035 23/12 A3003 NOSIG=
201702172300 METAR MRPV 172300Z 08012KT 9999 SCT035 22/12 A3004 NOSIG=
201702180000 METAR MRPV 180000Z 08012KT 9999 SCT040 21/13 A3006 NOSIG=
201702180100 METAR MRPV NIL=
201702180200 METAR MRPV NIL=
201702180300 METAR MRPV NIL=
201702180400 METAR MRPV NIL=
201702180500 METAR MRPV NIL=
201702180600 METAR MRPV NIL=
201702180700 METAR MRPV NIL=
201702180800 METAR MRPV NIL=
201702180900 METAR MRPV NIL=
201702181000 METAR MRPV NIL=
201702181100 METAR MRPV NIL=
201702181200 METAR MRPV 181200Z 12003KT CAVOK 16/11 A3008 NOSIG=
201702181300 METAR MRPV COR 181300Z 06005KT CAVOK 19/12 A3007? NOSIG=
201702181400 METAR MRPV 181400Z 10007KT CAVOK 22/11 A3010 NOSIG=
201702181500 METAR MRPV 181500Z 13005KT CAVOK 24/11 A3011 NOSIG=
201702181600 METAR MRPV 181600Z 11004KT CAVOK 26/10 A3010 NOSIG=
201702181700 METAR MRPV 181700Z 08005KT CAVOK 27/10 A3007 BECMG 27005KT=
201702181800 METAR MRPV 181800Z 30008KT 9999 FEW045 27/11 A3004 NOSIG=
201702181900 METAR MRPV 181900Z 27005KT 9999 FEW045 28/12 A3002 NOSIG=
201702182000 METAR MRPV 182000Z 24006KT 9999 SCT045 29/14 A3000 NOSIG=
201702182017 METAR MRPV 182017Z 11007KT 9999 SCT040 25/14 A2999 NOSIG=
201702182100 METAR MRPV 182100Z 08011KT 9999 RA SCT035 24/14 A2998 NOSIG=
201702182200 METAR MRPV 182200Z VRB02KT 9999 4000NW -RA SCT030 SCT080 21/17 A2999 NOSIG=
201702182250 METAR MRPV 182250Z 30002KT 5000 DZ BKN025 20/17 A3000 BECMG 3000=
201702182300 METAR MRPV 182300Z COR 27003KT 3000 RA BKN020 20/18 A3002 NOSIG=
201702182334 METAR MRPV 182334Z 29001KT 1500 RA BKN015 19/17 A3003 NOSIG=
201702190000 METAR MRPV 190000Z 05001KT 1500 RA BKN015 19/17 A3004 NOSIG=
201702190100 METAR MRPV NIL=
201702190200 METAR MRPV NIL=
201702190300 METAR MRPV NIL=
201702190400 METAR MRPV NIL=
201702190500 METAR MRPV NIL=
201702190600 METAR MRPV NIL=
201702190700 METAR MRPV NIL=
201702190800 METAR MRPV NIL=
201702190900 METAR MRPV NIL=
201702191000 METAR MRPV NIL=
201702191100 METAR MRPV NIL=
201702191200 METAR MRPV 191200Z 14003KT CAVOK 16/10 A3007 NOSIG=
201702191300 METAR MRPV 191300Z 11005KT CAVOK 18/09 A3009 NOSIG=
201702191400 METAR MRPV 191400Z 13007KT CAVOK 22/09 A3011 NOSIG=
201702191500 METAR MRPV 191500Z 11007KT CAVOK 23/10 A3011 NOSIG=
201702191600 METAR MRPV 191600Z 10008KT CAVOK 25/11 A3011 NOSIG=
201702191700 METAR MRPV 191700Z 08009KT CAVOK 26/12 A3008 NOSIG=
201702191800 METAR MRPV 191800Z 06011KT 9999 FEW045 27/12 A3005 NOSIG=
201702191900 METAR MRPV 191900Z 08009KT 9999 FEW045 28/12 A3002 NOSIG=
201702192000 METAR MRPV 192000Z 08011KT 9999 SCT040 26/13 A3000 NOSIG=
201702192100 METAR MRPV 192100Z 07013KT 9999 FEW040 26/14 A2999 NOSIG=
201702192200 METAR MRPV 192200Z 08014KT 9999 SCT035 24/14 A2999 NOSIG=
201702192300 METAR MRPV 192300Z 09013KT 9999 BKN030 22/14 A3000 NOSIG=
201702200000 METAR MRPV 200000Z 09012KT 3000 BKN030 21/15 A3003 NOSIG=
201702200100 METAR MRPV NIL=
201702200200 METAR MRPV NIL=
201702200300 METAR MRPV NIL=
201702200400 METAR MRPV NIL=
201702200500 METAR MRPV NIL=
201702200600 METAR MRPV NIL=
201702200700 METAR MRPV NIL=
201702200800 METAR MRPV NIL=
201702200900 METAR MRPV NIL=
201702201000 METAR MRPV NIL=
201702201100 METAR MRPV NIL=
201702201200 METAR MRPV 201200Z 11007KT CAVOK 19/13 A3008 NOSIG=
201702201300 METAR MRPV 201300Z 10007KT CAVOK 20/13 A3010 NOSIG=
201702201400 METAR MRPV 201400Z 11007KT CAVOK 23/14 A3011 NOSIG=
201702201500 METAR MRPV 201500Z 07010KT CAVOK 24/13 A3011 NOSIG=
201702201600 METAR MRPV 201600Z 08010KT CAVOK 27/13 A3010 NOSIG=
201702201700 METAR MRPV 201700Z 07011KT 9999 FEW045 27/13 A3008 NOSIG=
201702201800 METAR MRPV 201800Z 08009KT 9999 FEW045 27/13 A3006 NOSIG=
201702201900 METAR MRPV 201900Z 08005KT 9999 SCT045 28/13 A3003 BECMG 27008KT=
201702202000 METAR MRPV 202000Z 07006KT 9999 BKN040 27/14 A3001 BECMG 27006KT=
201702202100 METAR MRPV 202100Z 26003KT 9999 BKN045 25/15 A3000 NOSIG=
201702202200 METAR MRPV 202200Z 27007KT 9999 BKN040 24/16 A3000 NOSIG=
201702202300 METAR MRPV 202300Z 23003KT 9999 BKN030 23/17 A3002 NOSIG=
201702210000 METAR MRPV 210000Z 27004KT 9999 VCSH FEW020TCU BKN025 22/16 A3004 NOSIG=
201702210100 METAR MRPV NIL=
201702210200 METAR MRPV NIL=
201702210300 METAR MRPV NIL=
201702210400 METAR MRPV NIL=
201702210500 METAR MRPV NIL=
201702210600 METAR MRPV NIL=
201702210700 METAR MRPV NIL=
201702210800 METAR MRPV NIL=
201702210900 METAR MRPV NIL=
201702211000 METAR MRPV NIL=
201702211100 METAR MRPV NIL=
201702211200 METAR MRPV 211200Z 11006KT CAVOK 20/14 A3007 NOSIG=
201702211300 METAR MRPV 211300Z 10007KT CAVOK 21/14 A3008 NOSIG=
201702211400 METAR MRPV 211400Z 10009KT CAVOK 23/14 A3008 NOSIG=
201702211500 METAR MRPV 211500Z 13006KT CAVOK 26/12 A3010 NOSIG=
201702211600 METAR MRPV 211600Z VRB02KT 9999 FEW045 28/12 A3009 NOSIG=
201702211700 METAR MRPV 211700Z 25006KT 9999 FEW045 28/14 A3007 NOSIG=
201702211800 METAR MRPV 211800Z 29010KT 9999 FEW045 28/14 A3004 NOSIG=
201702211900 METAR MRPV 211900Z 28012KT 9999 FEW045 29/14 A3001 NOSIG=
201702212000 METAR MRPV 212000Z 27012KT 9999 FEW045 28/16 A2998 NOSIG=
201702212100 METAR MRPV 212100Z 26007KT 9999 SCT045 28/17 A2997 NOSIG=
201702212200 METAR MRPV 212200Z 11004KT 9999 BKN040 26/16 A2999 NOSIG=
201702212300 METAR MRPV 212300Z 09009KT 9999 BKN035 23/16 A3000 NOSIG=
201702220000 METAR MRPV 220000Z 10007KT 9999 -DZ BKN030 22/16 A3001 NOSIG=
201702220100 METAR MRPV NIL=
201702220200 METAR MRPV NIL=
201702220300 METAR MRPV NIL=
201702220400 METAR MRPV NIL=
201702220500 METAR MRPV NIL=
201702220600 METAR MRPV NIL=
201702220700 METAR MRPV NIL=
201702220800 METAR MRPV NIL=
201702220900 METAR MRPV NIL=
201702221000 METAR MRPV NIL=
201702221100 METAR MRPV NIL=
201702221200 METAR MRPV 221200Z 07005KT CAVOK 17/13 A3002 NOSIG=
201702221300 METAR MRPV 221300Z 00000KT CAVOK 20/13 A3004 NOSIG=
201702221400 METAR MRPV 221400Z 33001KT CAVOK 22/13 A3005 NOSIG=
201702221500 METAR MRPV 221500Z 31003KT CAVOK 24/13 A3006 NOSIG=
201702221600 METAR MRPV 221600Z 28006KT CAVOK 26/14 A3005 NOSIG=
201702221700 METAR MRPV 221700Z 25007KT 9999 FEW045 27/12 A3002 NOSIG=
201702221800 METAR MRPV 221800Z 25007KT 9999 FEW045 28/11 A3000 NOSIG=
201702221900 METAR MRPV 221900Z 27009G20KT 9999 FEW045 28/12 A2997 NOSIG=
201702222000 METAR MRPV 222000Z 25007G17KT 9999 FEW045 28/13 A2995 NOSIG=
201702222100 METAR MRPV 222100Z 26008KT 9999 FEW040 29/14 A2994 NOSIG=
201702222200 METAR MRPV 222200Z 24007KT 9999 FEW040 28/17 A2994 NOSIG=
201702222300 METAR MRPV 222300Z 26007KT 9999 FEW040 25/17 A2996 NOSIG=
201702230000 METAR MRPV 230000Z 27007KT 9999 FEW040 23/18 A2997 NOSIG=
201702230100 METAR MRPV NIL=
201702230200 METAR MRPV NIL=
201702230300 METAR MRPV NIL=
201702230400 METAR MRPV NIL=
201702230500 METAR MRPV NIL=
201702230600 METAR MRPV NIL=
201702230700 METAR MRPV NIL=
201702230800 METAR MRPV NIL=
201702230900 METAR MRPV NIL=
201702231000 METAR MRPV NIL=
201702231100 METAR MRPV NIL=
201702231200 METAR MRPV 231200Z 08006KT CAVOK 17/14 A3002 NOSIG=
201702231300 METAR MRPV 231300Z 08005KT CAVOK 19/14 A3003 NOSIG=
201702231400 METAR MRPV 231400Z 12002KT CAVOK 24/14 A3004 BECMG 27005KT=
201702231500 METAR MRPV 231500Z 09002KT CAVOK 25/13 A3004 TEMPO 27005KT=
201702231600 METAR MRPV 231600Z 27004KT 9999 FEW045 26/11 A3002 NOSIG=
201702231700 METAR MRPV 231700Z 28008KT 9999 FEW045 27/12 A3001 NOSIG=
201702231800 METAR MRPV 231800Z 27010KT 9999 FEW045 28/13 A2999 NOSIG=
201702231900 METAR MRPV 231900Z 26010KT 9999 FEW040 28/14 A2996 NOSIG=
201702232000 METAR MRPV 232000Z 27011KT 9999 FEW035 28/15 A2993 NOSIG=
201702232100 METAR MRPV 232100Z 26011G21KT 9999 FEW030 SCT080 27/16 A2993 NOSIG=
201702232200 METAR MRPV 232200Z COR 26009KT CAVOK 25/16 A2993 NOSIG=
201702232300 METAR MRPV 232300Z 26007KT 9999 FEW040 BKN200 25/16 A2994 NOSIG=
201702240000 METAR MRPV 240000Z 29008KT 9999 SCT035 SCT200 23/16 A2995 NOSIG=
201702240100 METAR MRPV NIL=
201702240200 METAR MRPV NIL=
201702240300 METAR MRPV NIL=
201702240400 METAR MRPV NIL=
201702240500 METAR MRPV NIL=
201702240600 METAR MRPV NIL=
201702240700 METAR MRPV NIL=
201702240800 METAR MRPV NIL=
201702240900 METAR MRPV NIL=
201702241000 METAR MRPV NIL=
201702241100 METAR MRPV NIL=
201702241200 METAR MRPV 241200Z 08003KT CAVOK 17/14 A3002 NOSIG=
201702241300 METAR MRPV 241300Z 09004KT CAVOK 19/14 A3004 NOSIG=
201702241400 METAR MRPV 241400Z 06003KT CAVOK 22/15 A3005 NOSIG=
201702241500 METAR MRPV 241500Z 36003KT CAVOK 25/14 A3006 NOSIG=
201702241600 METAR MRPV 241600Z 29007KT 9999 FEW045 25/14 A3005 NOSIG=
201702241700 METAR MRPV 241700Z 27010KT 9999 FEW045 27/14 A3004 NOSIG=
201702241800 METAR MRPV 241800Z 27011KT 9999 FEW045 27/15 A3001 NOSIG=
201702241900 METAR MRPV 241900Z 26011G21KT 9999 FEW040 27/16 A2999 NOSIG=
201702242000 METAR MRPV 242000Z 26010KT 9999 FEW040 27/16 A2997 NOSIG=
201702242100 METAR MRPV 242100Z 26010G20KT 9999 SCT035 27/17 A2995 NOSIG=
201702242200 METAR MRPV 242200Z 28014KT 9999 FEW035 26/17 A2995 NOSIG=
201702242300 METAR MRPV 242300Z 28013KT 9999 FEW035 24/17 A2995 NOSIG=
201702250000 METAR MRPV 250000Z 28010KT 9999 FEW040 SCT200 23/16 A2997 NOSIG=
201702250100 METAR MRPV NIL=
201702250200 METAR MRPV NIL=
201702250300 METAR MRPV NIL=
201702250400 METAR MRPV NIL=
201702250500 METAR MRPV NIL=
201702250600 METAR MRPV NIL=
201702250700 METAR MRPV NIL=
201702250800 METAR MRPV NIL=
201702250900 METAR MRPV NIL=
201702251000 METAR MRPV NIL=
201702251100 METAR MRPV NIL=
201702251200 METAR MRPV 251200Z 11003KT CAVOK 18/13 A3004 NOSIG=
201702251300 METAR MRPV 251300Z 12006KT CAVOK 20/13 A3006 NOSIG=
201702251400 METAR MRPV 251400Z 13006KT CAVOK 24/14 A3007 NOSIG=
201702251500 METAR MRPV 251500Z 09007KT 9999 4500NW FEW045 25/14 A3007 NOSIG=
201702251600 METAR MRPV 251600Z VRB02KT 9999 4500NW FEW045 27/12 A3007 BECMG 27008KT=
201702251610 METAR MRPV 251610Z 28010KT 9999 4500NW FEW045 27/14 A3007 NOSIG=
201702251700 METAR MRPV 251700Z COR 29009KT 9999 FEW045 28/14 A3005 NOSIG=
201702251800 METAR MRPV 251800Z 28010KT 9999 FEW040 28/14 A3002 NOSIG=
201702251900 METAR MRPV 251900Z 26008KT 9999 FEW045 29/13 A3000 NOSIG=
201702252000 METAR MRPV 252000Z 28011KT 9999 FEW045 28/15 A2998 NOSIG=
201702252100 METAR MRPV 252100Z 27010KT 9999 FEW045 28/14 A2996 NOSIG=
201702252200 METAR MRPV 252200Z 28011KT 9999 SCT045 27/15 A2996 NOSIG=
201702252300 METAR MRPV 252300Z 25007KT 9999 SCT045 26/16 A2997 NOSIG=
201702260000 METAR MRPV 260000Z 27004KT 9999 FEW025TCU FEW045 23/16 A3000 NOSIG=
201702260100 METAR MRPV NIL=
201702260200 METAR MRPV NIL=
201702260300 METAR MRPV NIL=
201702260400 METAR MRPV NIL=
201702260500 METAR MRPV NIL=
201702260600 METAR MRPV NIL=
201702260700 METAR MRPV NIL=
201702260800 METAR MRPV NIL=
201702260900 METAR MRPV NIL=
201702261000 METAR MRPV NIL=
201702261100 METAR MRPV NIL=
201702261200 METAR MRPV 261200Z 11004KT CAVOK 19/13 A3005 NOSIG=
201702261300 METAR MRPV 261300Z 14005KT CAVOK 20/13 A3008 NOSIG=
201702261400 METAR MRPV 261400Z 11008KT 9999 FEW040 24/13 A3010 NOSIG=
201702261500 METAR MRPV 261500Z 07012KT 9999 FEW045 25/13 A3011 NOSIG=
201702261600 METAR MRPV 261600Z 07012KT 9999 FEW040 26/13 A3010 NOSIG=
201702261700 METAR MRPV 261700Z 07014KT 9999 FEW045 SCT250 27/11 A3008 NOSIG=
201702261800 METAR MRPV NIL=
201702261900 METAR MRPV 261900Z 06013KT 9999 FEW045 28/11 A3002 NOSIG=
201702262000 METAR MRPV 262000Z 08012KT 9999 FEW045 28/12 A3000 NOSIG=
201702262100 METAR MRPV 262100Z 07016KT 9999 FEW045 27/13 A2998 NOSIG=
201702262200 METAR MRPV 262200Z 06019KT 9999 FEW045 25/09 A2998 NOSIG=
201702262300 METAR MRPV 262300Z 09015KT 9999 FEW045 24/11 A3001 NOSIG=
201702270000 METAR MRPV 270000Z 09011KT 9999 FEW045 22/12 A3002 NOSIG=
201702270100 METAR MRPV NIL=
201702270200 METAR MRPV NIL=
201702270300 METAR MRPV NIL=
201702270400 METAR MRPV NIL=
201702270500 METAR MRPV NIL=
201702270600 METAR MRPV NIL=
201702270700 METAR MRPV NIL=
201702270800 METAR MRPV NIL=
201702270900 METAR MRPV NIL=
201702271000 METAR MRPV NIL=
201702271100 METAR MRPV NIL=
201702271200 METAR MRPV 271200Z 13006KT CAVOK 18/07 A3008 NOSIG=
201702271300 METAR MRPV 271300Z 12010KT CAVOK 19/08 A3009 NOSIG=
201702271400 METAR MRPV 271400Z 10013KT CAVOK 22/09 A3010 NOSIG=
201702271500 METAR MRPV 271500Z 08013KT CAVOK 23/08 A3011 NOSIG=
201702271600 METAR MRPV 271600Z 08016KT CAVOK 25/10 A3010 NOSIG=
201702271700 METAR MRPV 271700Z 07014KT CAVOK 25/11 A3009 NOSIG=
201702271800 METAR MRPV 271800Z 07014G26KT 9999 FEW045 26/12 A3007 NOSIG=
201702271900 METAR MRPV 271900Z 07014KT 9999 FEW045 26/11 A3005 NOSIG=
201702272000 METAR MRPV 272000Z 07016KT 9999 FEW040 26/11 A3002 NOSIG=
201702272100 METAR MRPV 272100Z 08018KT 9999 FEW040 25/12 A3001 NOSIG=
201702272200 METAR MRPV 272200Z 08018KT 9999 FEW040 24/13 A3001 NOSIG=
201702272300 METAR MRPV 272300Z 07012KT 9999 FEW030 23/13 A3002 NOSIG=
201702280000 METAR MRPV 280000Z 07017KT 9999 FEW030 20/13 A3004 NOSIG=
201702280100 METAR MRPV NIL=
201702280200 METAR MRPV NIL=
201702280300 METAR MRPV NIL=
201702280400 METAR MRPV NIL=
201702280500 METAR MRPV NIL=
201702280600 METAR MRPV NIL=
201702280700 METAR MRPV NIL=
201702280800 METAR MRPV NIL=
201702280900 METAR MRPV NIL=
201702281000 METAR MRPV NIL=
201702281100 METAR MRPV NIL=
201702281200 METAR MRPV 281200Z 12012KT CAVOK 19/09 A3006 NOSIG=
201702281300 METAR MRPV 281300Z 11010KT CAVOK 20/09 A3009 NOSIG=
201702281400 METAR MRPV 281400Z 09014KT CAVOK 22/09 A3010 NOSIG=
201702281500 METAR MRPV 281500Z 10014G24KT CAVOK 24/10 A3011 NOSIG=
201702281600 METAR MRPV 281600Z 07016KT CAVOK 26/09 A3011 NOSIG=
201702281700 METAR MRPV 281700Z 06016KT CAVOK 26/11 A3009 NOSIG=
201702281800 METAR MRPV 281800Z 06015G25KT CAVOK 27/11 A3007 NOSIG=
201702281900 METAR MRPV 281900Z 07017KT 9999 FEW045 26/13 A3003 NOSIG=
201702282000 METAR MRPV 282000Z 07016KT 9999 FEW045 26/14 A3002 NOSIG=
201702282100 METAR MRPV 282100Z 07017KT 9999 FEW040 26/13 A3000 NOSIG=
201702282200 METAR MRPV 282200Z 07016KT 9999 FEW040 25/14 A3000 NOSIG=
201702282300 METAR MRPV 282300Z 07016KT 9999 FEW035 23/14 A3000 NOSIG=
201703010000 METAR MRPV 010000Z 08014KT 9999 FEW035 21/14 A3001 NOSIG=
201703010100 METAR MRPV NIL=
201703010200 METAR MRPV NIL=
201703010300 METAR MRPV NIL=
201703010400 METAR MRPV NIL=
201703010500 METAR MRPV NIL=
201703010600 METAR MRPV NIL=
201703010700 METAR MRPV NIL=
201703010800 METAR MRPV NIL=
201703010900 METAR MRPV NIL=
201703011000 METAR MRPV NIL=
201703011100 METAR MRPV NIL=
201703011200 METAR MRPV 011200Z COR 09015KT 9999 FEW035 20/13 A3002 NOSIG=
201703011300 METAR MRPV 011300Z 08017G27KT 9999 FEW030 20/13 A3004 NOSIG=
201703011400 METAR MRPV 011400Z 08018G29KT 9999 FEW030 22/14 A3007 NOSIG=
201703011500 METAR MRPV 011500Z 07017G27KT 9999 FEW030 23/14 A3008 NOSIG=
201703011600 METAR MRPV 011600Z 06016G26KT 9999 FEW040 25/13 A3008 NOSIG=
201703011700 METAR MRPV 011700Z 08016G26KT 9999 FEW035 26/12 A3006 NOSIG=
201703011730 METAR MRPV 011730Z 06016G26KT 9999 SCT030 27/12 A3008 NOSIG=
201703011800 METAR MRPV 011800Z 06018G28KT 9999 SCT030 26/12 A3004 NOSIG=
201703011900 METAR MRPV 011900Z 07019KT 9999 FEW030 27/12 A3001 NOSIG=
201703012000 METAR MRPV 012000Z 06021G31KT 9999 FEW030 25/14 A2999 NOSIG=
201703012100 METAR MRPV 012100Z 06015G25KT 9999 FEW035 25/13 A2997 NOSIG=
201703012200 METAR MRPV 012200Z 06017KT 9999 FEW035 24/13 A2997 NOSIG=
201703012300 METAR MRPV 012300Z 07015KT 9999 FEW035 23/13 A2998 NOSIG=
201703020000 METAR MRPV NIL=
201703020100 METAR MRPV NIL=
201703020200 METAR MRPV NIL=
201703020300 METAR MRPV NIL=
201703020400 METAR MRPV NIL=
201703020500 METAR MRPV NIL=
201703020600 METAR MRPV NIL=
201703020700 METAR MRPV NIL=
201703020800 METAR MRPV NIL=
201703020900 METAR MRPV NIL=
201703021000 METAR MRPV NIL=
201703021100 METAR MRPV NIL=
201703021200 METAR MRPV 021200Z 11011KT CAVOK 18/12 A3001 NOSIG=
201703021300 METAR MRPV 021300Z 10014KT CAVOK 20/13 A3003 NOSIG=
201703021400 METAR MRPV 021400Z 11010KT 9999 FEW035 SCT120 21/11 A3004 NOSIG=
201703021500 METAR MRPV 021500Z 08020KT 9999 FEW045 SCT120 22/13 A3005 NOSIG=
201703021600 METAR MRPV 021600Z 08018KT 9999 FEW040 BKN120 23/13 A3006 NOSIG=
201703021700 METAR MRPV 021700Z 08016KT 9999 FEW040 BKN120 23/13 A3005 NOSIG=
201703021800 METAR MRPV 021800Z 08020KT 9999 SCT040 24/14 A3004 NOSIG=
201703021900 METAR MRPV 021900Z 09015G29KT 9999 FEW035 SCT100 23/13 A3002 NOSIG=
201703022000 METAR MRPV 022000Z 08020G30KT 9999 FEW035 25/13 A2998 NOSIG=
201703022100 METAR MRPV 022100Z COR 08020G30KT 9999 FEW035 25/11 A2996 NOSIG=
201703022200 METAR MRPV 022200Z 08020KT 9999 SCT035 24/13 A2998 NOSIG=
201703022300 METAR MRPV 022300Z 08018KT 9999 FEW035 22/12 A2999 NOSIG=
201703030000 METAR MRPV 030000Z 08020KT 9999 FEW030 20/12 A3002 NOSIG=
201703030100 METAR MRPV NIL=
201703030200 METAR MRPV NIL=
201703030300 METAR MRPV NIL=
201703030400 METAR MRPV NIL=
201703030500 METAR MRPV NIL=
201703030600 METAR MRPV NIL=
201703030700 METAR MRPV NIL=
201703030800 METAR MRPV NIL=
201703030900 METAR MRPV NIL=
201703031000 METAR MRPV NIL=
201703031100 METAR MRPV NIL=
201703031200 METAR MRPV 031200Z 10014KT 9999 FEW035 19/11 A3005 NOSIG=
201703031300 METAR MRPV 031300Z 12014KT 9999 FEW030 20/11 A3006 NOSIG=
201703031400 METAR MRPV 031400Z 10016KT 9999 FEW040 21/11 A3009 NOSIG=
201703031500 METAR MRPV 031500Z 07020KT 9999 FEW040 22/12 A3009 NOSIG=
201703031600 METAR MRPV 031600Z 07019G29KT 9999 FEW045 24/12 A3009 NOSIG=
201703031700 METAR MRPV 031700Z 06016G26KT 9999 FEW035 SCT100 23/13 A3008 NOSIG=
201703031800 METAR MRPV 031800Z 07020G30KT 9999 FEW030 24/13 A3005 NOSIG=
201703031900 METAR MRPV 031900Z 07017G31KT 9999 BKN030 21/12 A3005 NOSIG=
201703032000 METAR MRPV 032000Z 08019G31KT 9999 SCT045 24/12 A3000 NOSIG=
201703032100 METAR MRPV 032100Z 08019G30KT 9999 SCT045 24/12 A2999 NOSIG=
201703032200 METAR MRPV 032200Z 08022KT 9999 SCT030 23/13 A2999 NOSIG=
201703032300 METAR MRPV 032300Z 11013KT 9999 FEW030 22/12 A3001 NOSIG=
201703040000 METAR MRPV 040000Z 09020G30KT 9999 FEW030 21/13 A3002 NOSIG=
201703040100 METAR MRPV NIL=
201703040200 METAR MRPV NIL=
201703040300 METAR MRPV NIL=
201703040400 METAR MRPV NIL=
201703040500 METAR MRPV NIL=
201703040600 METAR MRPV NIL=
201703040700 METAR MRPV NIL=
201703040800 METAR MRPV NIL=
201703040900 METAR MRPV NIL=
201703041000 METAR MRPV NIL=
201703041100 METAR MRPV NIL=
201703041200 METAR MRPV 041200Z 10014G25KT 9999 RA SCT030 SCT100 20/13 A3005 NOSIG=
201703041300 METAR MRPV 041300Z 09016G26KT 9999 RA FEW030 SCT140 19/13 A3007 NOSIG=
201703041400 METAR MRPV 041400Z 09019G30KT 9999 -RA FEW030 21/13 A3008 NOSIG=
201703041500 METAR MRPV 041500Z 10016G27KT 9999 DZ FEW030 21/13 A3005 NOSIG=
201703041600 METAR MRPV 041600Z 08021G32KT 9999 FEW035 22/12 A3008 NOSIG=
201703041700 METAR MRPV 041700Z 07021G31KT 9999 SCT030 23/12 A3007 NOSIG=
201703041800 METAR MRPV 041800Z 08024G34KT 9999 SCT030 23/11 A3005 NOSIG=
201703041900 METAR MRPV 041900Z 07023G33KT 9999 SCT045 24/12 A3002 NOSIG=
201703042000 METAR MRPV 042000Z 07025G38KT 9999 SCT035 22/11 A3000 NOSIG=
201703042100 METAR MRPV 042100Z 08021G32KT 9999 SCT040 22/11 A2999 NOSIG=
201703042200 METAR MRPV 042200Z 07025KT 9999 SCT040 22/12 A2999 NOSIG=
201703042300 METAR MRPV 042300Z 10018G30KT 9999 SCT030 20/11 A3000 NOSIG=
201703050000 METAR MRPV 050000Z 10016G28KT 9999 FEW035 19/12 A3001 NOSIG=
201703050100 METAR MRPV NIL=
201703050200 METAR MRPV NIL=
201703050300 METAR MRPV NIL=
201703050400 METAR MRPV NIL=
201703050500 METAR MRPV NIL=
201703050600 METAR MRPV NIL=
201703050700 METAR MRPV NIL=
201703050800 METAR MRPV NIL=
201703050900 METAR MRPV NIL=
201703051000 METAR MRPV NIL=
201703051100 METAR MRPV NIL=
201703051200 METAR MRPV 051200Z 11016G28KT CAVOK 19/10 A3002 NOSIG=
201703051300 METAR MRPV 051300Z 11014G24KT CAVOK 20/10 A3003 NOSIG=
201703051400 METAR MRPV 051400Z 10015G25KT CAVOK 21/11 A3005 NOSIG=
201703051500 METAR MRPV 051500Z 07020G30KT CAVOK 22/12 A3005 NOSIG=
201703051600 METAR MRPV 051600Z 07020G30KT CAVOK 23/11 A3006 NOSIG=
201703051700 METAR MRPV 051700Z 07020KT CAVOK 24/11 A3003 NOSIG=
201703051800 METAR MRPV 051800Z 07021G32KT CAVOK 25/10 A3002 NOSIG=
201703051900 METAR MRPV 051900Z 07019G32KT 9999 FEW045 26/07 A2999 NOSIG=
201703052000 METAR MRPV 052000Z 07020G32KT 9999 FEW045 25/09 A2997 NOSIG=
201703052100 METAR MRPV 052100Z 07017G30KT 9999 FEW045 26/10 A2995 NOSIG=
201703052200 METAR MRPV 052200Z 08019KT 9999 FEW045 24/12 A2995 NOSIG=
201703052300 METAR MRPV 052300Z 07017KT 9999 SCT045 23/13 A2996 NOSIG=
201703052305 MRPV AD WRNG 2 VALID 060000/062400 SFC WSPD 20KT MAX 30 FCST NC=
201703060000 METAR MRPV 060000Z 10011KT 9999 FEW040 BKN200 20/14 A2998 NOSIG=
201703060100 METAR MRPV NIL=
201703060200 METAR MRPV NIL=
201703060300 METAR MRPV NIL=
201703060400 METAR MRPV NIL=
201703060500 METAR MRPV NIL=
201703060600 METAR MRPV NIL=
201703060700 METAR MRPV NIL=
201703060800 METAR MRPV NIL=
201703060900 METAR MRPV NIL=
201703061000 METAR MRPV NIL=
201703061100 METAR MRPV NIL=
201703061200 METAR MRPV 061200Z 11011KT 9999 FEW030 19/13 A3000 NOSIG=
201703061300 METAR MRPV 061300Z 11012KT 9999 FEW025 20/14 A3002 NOSIG=
201703061400 METAR MRPV 061400Z 10011KT 9999 FEW035 21/14 A3002 NOSIG=
201703061500 METAR MRPV 061500Z 05012G22KT CAVOK 31/17 A2983 NOSIG=
201703061600 METAR MRPV 061600Z 09017KT 9999 SCT030 SCT100 23/15 A3004 NOSIG=
201703061700 METAR MRPV 061700Z 08019G29KT 9999 SCT030 SCT100 24/14 A3003 NOSIG=
201703061800 METAR MRPV 061800Z 08017KT 9999 BKN025 SCT100 22/14 A3002 NOSIG=
201703061900 METAR MRPV 061900Z 07019G31KT 9999 SCT030 BKN100 23/14 A2999 NOSIG=
201703062000 METAR MRPV 062000Z 07019G29KT 9999 SCT025 BKN100 22/13 A2999 NOSIG=
201703062100 METAR MRPV 062100Z 08018G28KT 9999 SCT030 BKN100 21/14 A2997 NOSIG=
201703062200 METAR MRPV 062200Z 10014KT 9999 SCT035 BKN120 22/13 A2997 NOSIG=
201703062300 METAR MRPV 062300Z 08015KT 9999 FEW040 BKN120 21/12 A2997 NOSIG=
201703070000 METAR MRPV 070000Z 08018KT 9999 FEW040 BKN120 20/13 A2999 NOSIG=
201703070100 METAR MRPV NIL=
201703070200 METAR MRPV NIL=
201703070300 METAR MRPV NIL=
201703070400 METAR MRPV NIL=
201703070500 METAR MRPV NIL=
201703070600 METAR MRPV NIL=
201703070700 METAR MRPV NIL=
201703070800 METAR MRPV NIL=
201703070900 METAR MRPV NIL=
201703071000 METAR MRPV NIL=
201703071100 METAR MRPV NIL=
201703071200 METAR MRPV 071200Z 09015KT 9999 FEW030 20/14 A3003 NOSIG=
201703071300 METAR MRPV 071300Z 11015G25KT 9999 FEW030 20/14 A3006 NOSIG=
201703071400 METAR MRPV 071400Z 08018KT 9999 FEW035 22/13 A3007 NOSIG=
201703071500 METAR MRPV 071500Z 07019KT 9999 FEW040 23/13 A3009 NOSIG=
201703071600 METAR MRPV 071600Z 07017KT 9999 FEW040 24/14 A3009 NOSIG=
201703071700 METAR MRPV 071700Z 07018G29KT 9999 FEW045 26/12 A3007 NOSIG=
201703071800 METAR MRPV 071800Z 07018G29KT 9999 FEW045 26/12 A3005 NOSIG=
201703071900 METAR MRPV 071900Z 06016KT 9999 FEW045 SCT200 27/12 A3003 NOSIG=
201703072000 METAR MRPV 072000Z 06016KT 9999 FEW040 BKN200 26/13 A3001 NOSIG=
201703072100 METAR MRPV 072100Z 06019KT 9999 FEW035 SCT200 26/13 A2999 NOSIG=
201703072200 METAR MRPV 072200Z 06016KT 9999 FEW035 BKN200 25/14 A2999 NOSIG=
201703072300 METAR MRPV 072300Z 08015KT 9999 FEW035 BKN200 24/15 A3001 NOSIG=
201703080000 METAR MRPV 080000Z 07017KT 9999 FEW030 BKN200 22/14 A3003 NOSIG=
201703080100 METAR MRPV NIL=
201703080200 METAR MRPV NIL=
201703080300 METAR MRPV NIL=
201703080400 METAR MRPV NIL=
201703080500 METAR MRPV NIL=
201703080600 METAR MRPV NIL=
201703080700 METAR MRPV NIL=
201703080800 METAR MRPV NIL=
201703080900 METAR MRPV NIL=
201703081000 METAR MRPV NIL=
201703081100 METAR MRPV NIL=
201703081200 METAR MRPV 081200Z 110127KT 9999 FEW035 19/13 A3006 NOSIG=
201703081300 METAR MRPV 081300Z 10013G24KT 9999 FEW030 20/13 A3008 NOSIG=
201703081400 METAR MRPV 081400Z 09019KT 9999 FEW035 22/13 A3010 NOSIG=
201703081500 METAR MRPV 081500Z 08019KT 9999 FEW045 23/12 A3010 NOSIG=
201703081600 METAR MRPV 081600Z 06020G30KT 9999 FEW045 24/12 A3010 NOSIG=
201703081700 METAR MRPV 081700Z 07021KT 9999 FEW045 26/12 A3008 NOSIG=
201703081800 METAR MRPV 081800Z 06020G30KT 9999 FEW045 26/12 A3007 NOSIG=
201703081900 METAR MRPV 081900Z 05017KT 9999 FEW035 26/12 A3004 NOSIG=
201703082000 METAR MRPV 082000Z 06017KT 9999 FEW035 26/13 A3000 NOSIG=
201703082100 METAR MRPV 082100Z 06016G26KT 9999 FEW035 SCT200 24/14 A2998 NOSIG=
201703082200 METAR MRPV 082200Z 05015G28KT 9999 FEW035 SCT080 23/14 A2998 NOSIG=
201703082300 METAR MRPV 082300Z 08017KT 9999 FEW035 SCT120 23/13 A2999 NOSIG=
201703090000 METAR MRPV 090000Z 07017G27KT 9999 FEW035 21/14 A2999 NOSIG=
201703090100 METAR MRPV NIL=
201703090200 METAR MRPV NIL=
201703090300 METAR MRPV NIL=
201703090400 METAR MRPV NIL=
201703090500 METAR MRPV NIL=
201703090600 METAR MRPV NIL=
201703090700 METAR MRPV NIL=
201703090800 METAR MRPV NIL=
201703090900 METAR MRPV NIL=
201703091000 METAR MRPV NIL=
201703091100 METAR MRPV NIL=
201703091200 METAR MRPV 091200Z 09015KT 9999 FEW035 19/13 A3004 NOSIG=
201703091300 METAR MRPV 091300Z 08016KT 9999 FEW035 20/14 A3005 NOSIG=
201703091400 METAR MRPV 091400Z 08019KT 9999 FEW035 22/13 A3006 NOSIG=
201703091500 METAR MRPV 091500Z 08018KT 9999 FEW035 24/14 A3007 NOSIG=
201703091600 METAR MRPV 091600Z 07019G30KT 9999 FEW040 24/13 A3006 NOSIG=
201703091700 METAR MRPV 091700Z 07020KT CAVOK 25/13 A3004 NOSIG=
201703091800 METAR MRPV 091800Z 06016G30KT CAVOK 26/13 A3002 NOSIG=
201703091900 METAR MRPV 091900Z 06016KT 9999 FEW045 27/12 A2999 NOSIG=
201703092000 METAR MRPV 092000Z 06015KT 9999 FEW045 27/13 A2996 NOSIG=
201703092100 METAR MRPV 092100Z 07012KT 9999 FEW045 27/13 A2993 NOSIG=
201703092200 METAR MRPV 092200Z 08014G24KT 9999 FEW040 26/14 A2994 NOSIG=
201703092300 METAR MRPV 092300Z 08015G25KT 9999 SCT035 24/14 A2994 NOSIG=
201703100000 METAR MRPV 100000Z 08015KT 9999 SCT025 22/14 A2997 NOSIG=
201703100100 METAR MRPV NIL=
201703100200 METAR MRPV NIL=
201703100300 METAR MRPV NIL=
201703100400 METAR MRPV NIL=
201703100500 METAR MRPV NIL=
201703100600 METAR MRPV NIL=
201703100700 METAR MRPV NIL=
201703100800 METAR MRPV NIL=
201703100900 METAR MRPV NIL=
201703101000 METAR MRPV NIL=
201703101100 METAR MRPV NIL=
201703101200 METAR MRPV 101200Z 10011KT 9999 FEW030 SCT200 19/14 A3003 NOSIG=
201703101300 METAR MRPV 101300Z 09012KT 9999 FEW025 SCT060 20/14 A3005 NOSIG=
201703101400 METAR MRPV 101400Z 09016KT 9999 FEW030 BKN200 21/13 A3006 NOSIG=
201703101500 METAR MRPV 101500Z 06018G29KT 9999 FEW030 BKN200 23/12 A3008 NOSIG=
201703101600 METAR MRPV 101600Z 07017G27KT CAVOK 24/12 A3008 NOSIG=
201703101700 METAR MRPV 101700Z 07016KT CAVOK 26/13 A3006 NOSIG=
201703101800 METAR MRPV 101800Z 06014G25KT 9999 FEW035 27/14 A3002 NOSIG=
201703101900 METAR MRPV 101900Z 06016KT 9999 FEW040 26/14 A3000 NOSIG=
201703102000 METAR MRPV 102000Z 07015KT 9999 SCT035 26/14 A2997 NOSIG=
201703102100 METAR MRPV 102100Z 06014G24KT 9999 FEW035 BKN250 25/14 A2997 NOSIG=
201703102200 METAR MRPV 102200Z 08019KT 9999 FEW030 BKN250 24/14 A2996 NOSIG=
201703102300 METAR MRPV 102300Z 08013KT 9999 FEW025 SCT250 23/14 A2997 NOSIG=
201703110000 METAR MRPV 110000Z 09012KT 9999 FEW030 SCT250 21/14 A2999 NOSIG=
201703110100 METAR MRPV NIL=
201703110200 METAR MRPV NIL=
201703110300 METAR MRPV NIL=
201703110400 METAR MRPV NIL=
201703110500 METAR MRPV NIL=
201703110600 METAR MRPV NIL=
201703110700 METAR MRPV NIL=
201703110800 METAR MRPV NIL=
201703110900 METAR MRPV NIL=
201703111000 METAR MRPV NIL=
201703111100 METAR MRPV NIL=
201703111200 METAR MRPV 111200Z 12009KT CAVOK 19/11 A3004 NOSIG=
201703111300 METAR MRPV 111300Z 12011KT CAVOK 20/12 A3006 NOSIG=
201703111400 METAR MRPV 111400Z 12010KT CAVOK 22/12 A3007 NOSIG=
201703111500 METAR MRPV 111500Z 10011KT CAVOK 25/12 A3010 NOSIG=
201703111600 METAR MRPV 111600Z 07014KT CAVOK 25/12 A3010 NOSIG=
201703111700 METAR MRPV 111700Z 05010KT CAVOK 27/12 A3000 NOSIG=
201703111800 METAR MRPV 111800Z 06010KT 9999 FEW045 28/12 A3005 NOSIG=
201703111900 METAR MRPV 111900Z 07013KT 9999 FEW045 28/12 A3002 NOSIG=
201703112000 METAR MRPV 112000Z 08013KT 9999 FEW045 29/12 A2998 NOSIG=
201703112100 METAR MRPV 112100Z 07015KT 9999 FEW035 28/13 A2997 NOSIG=
201703112200 METAR MRPV 112200Z 08014KT 9999 FEW035 27/14 A2997 NOSIG=
201703112300 METAR MRPV 112300Z COR 08014KT 9999 FEW035 SCT200 25/15 A2998 NOSIG=
201703120000 METAR MRPV 120000Z 09016KT 9999 FEW030 SCT200 22/15 A2998 NOSIG=
201703120100 METAR MRPV NIL=
201703120200 METAR MRPV NIL=
201703120300 METAR MRPV NIL=
201703120400 METAR MRPV NIL=
201703120500 METAR MRPV NIL=
201703120600 METAR MRPV NIL=
201703120700 METAR MRPV NIL=
201703120800 METAR MRPV NIL=
201703120900 METAR MRPV NIL=
201703121000 METAR MRPV NIL=
201703121100 METAR MRPV NIL=
201703121200 METAR MRPV 121200Z 11009KT 9999 FEW030 19/13 A3005 NOSIG=
201703121300 METAR MRPV 121300Z 10010KT CAVOK 21/13 A3006 NOSIG=
201703121400 METAR MRPV 121400Z 08017KT CAVOK 22/13 A3007 NOSIG=
201703121500 METAR MRPV 121500Z 07014KT CAVOK 24/13 A3007 NOSIG=
201703121600 METAR MRPV 121600Z 07011KT CAVOK 26/13 A3005 NOSIG=
201703121700 METAR MRPV 121700Z 08016KT CAVOK 27/13 A3004 NOSIG=
201703121800 METAR MRPV 121800Z 07013KT CAVOK 28/12 A3002 NOSIG=
201703121900 METAR MRPV 121900Z 07013KT 9999 FEW040 28/12 A2998 NOSIG=
201703122000 METAR MRPV 122000Z 07015KT 9999 FEW040 29/12 A2996 NOSIG=
201703122100 METAR MRPV 122100Z 07016KT 9999 FEW040 28/12 A2996 NOSIG=
201703122200 METAR MRPV 122200Z 08015KT 9999 FEW040 BKN200 25/13 A2995 NOSIG=
201703122300 METAR MRPV 122300Z 08014KT 9999 FEW040 SCT200 24/14 A2996 NOSIG=
201703130000 METAR MRPV 130000Z 09010KT 9999 FEW035 BKN200 23/14 A3000 NOSIG=
201703130100 METAR MRPV NIL=
201703130200 METAR MRPV NIL=
201703130300 METAR MRPV NIL=
201703130400 METAR MRPV NIL=
201703130500 METAR MRPV NIL=
201703130600 METAR MRPV NIL=
201703130700 METAR MRPV NIL=
201703130800 METAR MRPV NIL=
201703130900 METAR MRPV NIL=
201703131000 METAR MRPV NIL=
201703131100 METAR MRPV NIL=
201703131200 METAR MRPV 131200Z 11011KT CAVOK 18/12 A3002 NOSIG=
201703131300 METAR MRPV 131300Z 12011KT CAVOK 20/11 A3003 NOSIG=
201703131400 METAR MRPV 131400Z 10010KT CAVOK 23/10 A3004 NOSIG=
201703131500 METAR MRPV 131500Z 09012KT CAVOK 25/10 A3004 NOSIG=
201703131600 METAR MRPV 131600Z 07011KT CAVOK 27/10 A3003 NOSIG=
201703131700 METAR MRPV 131700Z 07014KT CAVOK 27/11 A3002 NOSIG=
201703131800 METAR MRPV 131800Z 09013KT CAVOK 28/11 A2999 NOSIG=
201703131900 METAR MRPV 131900Z 07012KT 9999 FEW040 28/12 A2996 NOSIG=
201703132000 METAR MRPV 132000Z 08012KT 9999 FEW040 28/13 A2994 NOSIG=
201703132100 METAR MRPV 132100Z 08015KT 9999 FEW040 28/14 A2992 NOSIG=
201703132200 METAR MRPV 132200Z 08015KT 9999 FEW040 SCT200 26/14 A2992 NOSIG=
201703132300 METAR MRPV 132300Z 07015KT 9999 FEW040 BKN200 25/14 A2994 NOSIG=
201703140000 METAR MRPV 140000Z 09011KT 9999 FEW030 22/15 A2996 NOSIG=
201703140100 METAR MRPV NIL=
201703140200 METAR MRPV NIL=
201703140300 METAR MRPV NIL=
201703140400 METAR MRPV NIL=
201703140500 METAR MRPV NIL=
201703140600 METAR MRPV NIL=
201703140700 METAR MRPV NIL=
201703140800 METAR MRPV NIL=
201703140900 METAR MRPV NIL=
201703141000 METAR MRPV NIL=
201703141100 METAR MRPV NIL=
201703141200 METAR MRPV 141200Z 11009KT CAVOK 20/12 A3006 NOSIG=
201703141300 METAR MRPV 141300Z 11012KT CAVOK 20/13 A3009 NOSIG=
201703141400 METAR MRPV 141400Z 10011KT CAVOK 23/13 A3011 NOSIG=
201703141500 METAR MRPV 141500Z 09015KT CAVOK 25/12 A3013 NOSIG=
201703141600 METAR MRPV 141600Z 07012KT CAVOK 26/12 A3012 NOSIG=
201703141700 METAR MRPV 141700Z 07013G24KT CAVOK 27/12 A3010 NOSIG=
201703141800 METAR MRPV 141800Z 08015KT 9999 FEW045 29/12 A3008 NOSIG=
201703141900 METAR MRPV 141900Z 08016KT 9999 FEW045 28/12 A3006 NOSIG=
201703142000 METAR MRPV 142000Z 07017KT 9999 FEW045 28/13 A3002 NOSIG=
201703142100 METAR MRPV 142100Z COR 07017KT 9999 VCSH FEW020TCU FEW035 SCT200 27/14 A3001 NOSIG=
201703142200 METAR MRPV 142200Z COR 07017KT 9999 VCSH FEW020TCU FEW035 SCT200 24/14 A3001 NOSIG=
201703142300 METAR MRPV 142300Z 07016KT 9999 VCSH FEW020TCU FEW030 SCT100 23/14 A3003 NOSIG=
201703150000 METAR MRPV 150000Z 11009KT 9999 FEW035 SCT100 BKN200 22/14 A3005 NOSIG=
201703150100 METAR MRPV NIL=
201703150200 METAR MRPV NIL=
201703150300 METAR MRPV NIL=
201703150400 METAR MRPV NIL=
201703150500 METAR MRPV NIL=
201703150600 METAR MRPV NIL=
201703150700 METAR MRPV NIL=
201703150800 METAR MRPV NIL=
201703150900 METAR MRPV NIL=
201703151000 METAR MRPV NIL=
201703151100 METAR MRPV NIL=
201703151200 METAR MRPV 151200Z 08017KT 9999 SCT030 BKN200 20/14 A3008 NOSIG=
201703151300 METAR MRPV 151300Z 09015KT 9999 FEW030 BKN200 20/14 A3010 NOSIG=
201703151400 METAR MRPV 151400Z 09015KT 9999 FEW035 BKN200 22/14 A3012 NOSIG=
201703151500 METAR MRPV 151500Z 09017KT 9999 FEW035 SCT200 23/11 A3013 NOSIG=
201703151600 METAR MRPV 151600Z 07015KT 9999 FEW030 SCT080 24/13 A3013 NOSIG=
201703151700 METAR MRPV 151700Z COR 07016G27KT 9999 FEW040 BKN100 24/13 A3012 NOSIG=
201703151800 METAR MRPV 151800Z 07015KT 9999 FEW035 BKN070 24/14 A3010 NOSIG=
201703151900 METAR MRPV 151900Z 05015KT 9999 FEW035 SCT160 26/11 A3008 NOSIG=
201703152000 METAR MRPV 152000Z 07017KT 9999 FEW035 SCT100 BKN200 26/12 A3006 NOSIG=
201703152100 METAR MRPV 152100Z 06014G24KT 9999 FEW045 BKN200 25/14 A3004 NOSIG=
201703152200 METAR MRPV 152200Z 06016G27KT 9999 FEW035 BKN200 24/13 A3004 NOSIG=
201703152300 METAR MRPV 152300Z 07014KT 9999 FEW030 BKN200 23/13 A3006 NOSIG=
201703160000 METAR MRPV 160000Z 09011G21KT 9999 FEW030 BKN200 21/13 A3008 NOSIG=
201703160100 METAR MRPV NIL=
201703160200 METAR MRPV NIL=
201703160300 METAR MRPV NIL=
201703160400 METAR MRPV NIL=
201703160500 METAR MRPV NIL=
201703160600 METAR MRPV NIL=
201703160700 METAR MRPV NIL=
201703160800 METAR MRPV NIL=
201703160900 METAR MRPV NIL=
201703161000 METAR MRPV NIL=
201703161100 METAR MRPV NIL=
201703161200 METAR MRPV 161200Z 11008KT 9999 FEW040 19/11 A3009 NOSIG=
201703161300 METAR MRPV 161300Z 10014G24KT 9999 FEW040 20/13 A3011 NOSIG=
201703161400 METAR MRPV 161400Z 08016KT 9999 FEW045 SCT250 22/13 A3011 NOSIG=
201703161500 METAR MRPV 161500Z 07017KT CAVOK 23/13 A3012 NOSIG=
201703161600 METAR MRPV 161600Z 07017G30KT CAVOK 24/13 A3012 NOSIG=
201703161700 METAR MRPV 161700Z 06015KT 9999 FEW045 26/13 A3010 NOSIG=
201703161800 METAR MRPV 161800Z 06016G26KT CAVOK 27/12 A3008 NOSIG=
201703161900 METAR MRPV 161900Z 07014KT 9999 FEW045 28/13 A3006 NOSIG=
201703162000 METAR MRPV 162000Z 07015KT 9999 FEW045 27/12 A3002 NOSIG=
201703162100 METAR MRPV 162100Z 06015KT 9999 FEW045 26/13 A3000 NOSIG=
201703162200 METAR MRPV 162200Z 06014G25KT 9999 FEW035 25/15 A3001 NOSIG=
201703162300 METAR MRPV 162300Z 09015KT 9999 SCT035 SCT200 22/14 A3003 NOSIG=
201703170000 METAR MRPV 170000Z 10012KT 9999 BKN035 SCT080 21/14 A3006 NOSIG=
201703170100 METAR MRPV NIL=
201703170200 METAR MRPV NIL=
201703170300 METAR MRPV NIL=
201703170400 METAR MRPV NIL=
201703170500 METAR MRPV NIL=
201703170600 METAR MRPV NIL=
201703170700 METAR MRPV NIL=
201703170800 METAR MRPV NIL=
201703170900 METAR MRPV NIL=
201703171000 METAR MRPV NIL=
201703171100 METAR MRPV NIL=
201703171200 METAR MRPV 171200Z 10014G24KT 9999 FEW035 BKN250 19/12 A3009 NOSIG=
201703171300 METAR MRPV 171300Z 10012KT 9999 FEW035 BKN250 20/12 A3011 NOSIG=
201703171400 METAR MRPV 171400Z 08018G28KT 9999 FEW035 BKN250 22/12 A3013 NOSIG=
201703171500 METAR MRPV 171500Z 08022KT 9999 FEW040 SCT250 23/12 A3012 NOSIG=
201703171600 METAR MRPV 171600Z 08018G29KT 9999 FEW045 SCT250 25/11 A3012 NOSIG=
201703171700 METAR MRPV 171700Z 07018G28KT 9999 FEW045 SCT200 24/12 A3011 NOSIG=
201703171800 METAR MRPV 171800Z 06017G27KT 9999 FEW045 SCT200 27/10 A3007 NOSIG=
201703171900 METAR MRPV 171900Z 05018G28KT 9999 FEW045 BKN200 26/10 A3005 NOSIG=
201703172000 METAR MRPV 172000Z 06017KT 9999 FEW045 BKN200 26/10 A3003 NOSIG=
201703172100 METAR MRPV 172100Z 05018KT 9999 FEW045 SCT200 25/12 A3002 NOSIG=
201703172200 METAR MRPV 172200Z 06013KT 9999 BKN045 24/13 A3002 NOSIG=
201703172300 METAR MRPV 172300Z 08011KT 9999 BKN035 22/14 A3004 NOSIG=
201703180000 METAR MRPV 180000Z 08016KT 9999 SCT040 21/14 A3004 NOSIG=
201703180100 METAR MRPV NIL=
201703180200 METAR MRPV NIL=
201703180300 METAR MRPV NIL=
201703180400 METAR MRPV NIL=
201703180500 METAR MRPV NIL=
201703180600 METAR MRPV NIL=
201703180700 METAR MRPV NIL=
201703180800 METAR MRPV NIL=
201703180900 METAR MRPV NIL=
201703181000 METAR MRPV NIL=
201703181100 METAR MRPV NIL=
201703181200 METAR MRPV 181200Z 11008KT 9999 FEW035 SCT100 19/15 A3007 NOSIG=
201703181300 METAR MRPV 181300Z 08011KT 9999 FEW030 SCT100 21/14 A3010 NOSIG=
201703181400 METAR MRPV 181400Z 07014KT 9999 FEW035 SCT100 23/14 A3011 NOSIG=
201703181500 METAR MRPV 181500Z 07016G26KT 9999 FEW030 SCT100 24/14 A3011 NOSIG=
201703181600 METAR MRPV 181600Z 07016G28KT 9999 FEW025 SCT100 24/15 A3012 NOSIG=
201703181700 METAR MRPV 181700Z 07017KT 9999 BKN030 SCT100 23/13 A3011 NOSIG=
201703181800 METAR MRPV 181800Z 10013KT 9999 SCT30 SCT100 24/14 A3008 NOSIG=
201703181900 METAR MRPV 181900Z 07017G29KT 9999 FEW045 SCT100 26/14 A3005 NOSIG=
201703182000 METAR MRPV 182000Z 06017KT 9999 FEW040 SCT100 26/12 A3002 NOSIG=
201703182100 METAR MRPV 182100Z 06018KT 9999 FEW040 25/12 A3001 NOSIG=
201703182200 METAR MRPV 182200Z 06015G25KT 9999 FEW040 25/12 A3002 NOSIG=
201703182300 METAR MRPV 182300Z 06015KT 9999 FEW035 24/13 A3003 NOSIG=
201703190000 METAR MRPV 190000Z 07016KT 9999 FEW035 22/13 A3004 NOSIG=
201703190100 METAR MRPV NIL=
201703190200 METAR MRPV NIL=
201703190300 METAR MRPV NIL=
201703190400 METAR MRPV NIL=
201703190500 METAR MRPV NIL=
201703190600 METAR MRPV NIL=
201703190700 METAR MRPV NIL=
201703190800 METAR MRPV NIL=
201703190900 METAR MRPV NIL=
201703191000 METAR MRPV NIL=
201703191100 METAR MRPV NIL=
201703191200 METAR MRPV 191200Z 10014KT 9999 FEW030 19/11 A3008 NOSIG=
201703191300 METAR MRPV 191300Z 08019KT 9999 FEW030 20/13 A3010 NOSIG=
201703191400 METAR MRPV 191400Z 08020KT CAVOK 22/13 A3011 NOSIG=
201703191500 METAR MRPV 191500Z 07019G29KT CAVOK 23/12 A3012 NOSIG=
201703191600 METAR MRPV 191600Z 26023G34KT CAVOK 24/11 A3011 NOSIG=
201703191700 METAR MRPV 191700Z 06022G32KT CAVOK 25/11 A3009 NOSIG=
201703191800 METAR MRPV 191800Z 06019G29KT CAVOK 25/10 A3007 NOSIG=
201703191900 METAR MRPV 191900Z 06018G31KT CAVOK 26/10 A3006 NOSIG=
201703192000 METAR MRPV 192000Z 05016KT CAVOK 27/11 A3002 NOSIG=
201703192100 METAR MRPV 192100Z 05017KT CAVOK 26/12 A3001 NOSIG=
201703192200 METAR MRPV 192200Z 06016KT 9999 FEW040 SCT100 25/13 A3002 NOSIG=
201703192300 METAR MRPV 192300Z 06014G24KT 9999 FEW035 SCT100 BKN250 23/12 A3003 NOSIG=
201703200000 METAR MRPV 200000Z 06015KT 9999 FEW040 BKN200 21/13 A3005 NOSIG=
201703200100 METAR MRPV NIL=
201703200200 METAR MRPV NIL=
201703200300 METAR MRPV NIL=
201703200400 METAR MRPV NIL=
201703200500 METAR MRPV NIL=
201703200600 METAR MRPV NIL=
201703200700 METAR MRPV NIL=
201703200800 METAR MRPV NIL=
201703200900 METAR MRPV NIL=
201703201000 METAR MRPV NIL=
201703201100 METAR MRPV NIL=
201703201200 METAR MRPV 201200Z 08017KT 9999 FEW035 19/13 A3009 RMK VEL MAX VTO 23KT - FEW250 - DU NR APCH RWY09 - NOSIG=
201703201300 METAR MRPV 201300Z 08019KT 9999 FEW035 20/13 A3011 NOSIG=
201703201400 METAR MRPV 201400Z 08020KT CAVOK 21/12 A3012 NOSIG=
201703201500 METAR MRPV 201500Z 07022KT CAVOK 23/11 A3012 NOSIG=
201703201600 METAR MRPV 201600Z 06017G27KT CAVOK 24/11 A3012 NOSIG=
201703201700 METAR MRPV 201700Z 06019KT CAVOK 25/11 A3009 NOSIG=
201703201800 METAR MRPV 201800Z 06017G27KT 9999 FEW045 26/11 A3008 NOSIG=
201703201900 METAR MRPV 201900Z 05015G26KT 9999 FEW045 26/11 A3005 NOSIG=
201703202000 METAR MRPV 202000Z 06016KT 9999 FEW045 27/12 A3002 NOSIG=
201703202100 METAR MRPV 202100Z 07017KT 9999 FEW045 26/12 A3001 NOSIG=
201703202200 METAR MRPV 202200Z 06016KT 9999 FEW040 25/13 A3002 NOSIG=
201703202300 METAR MRPV 202300Z 06014KT 9999 FEW035 23/13 A3003 NOSIG=
201703210000 METAR MRPV 210000Z 08010KT 9999 FEW030 22/13 A3004 NOSIG=
201703210100 METAR MRPV NIL=
201703210200 METAR MRPV NIL=
201703210300 METAR MRPV NIL=
201703210400 METAR MRPV NIL=
201703210500 METAR MRPV NIL=
201703210600 METAR MRPV NIL=
201703210700 METAR MRPV NIL=
201703210800 METAR MRPV NIL=
201703210900 METAR MRPV NIL=
201703211000 METAR MRPV NIL=
201703211100 METAR MRPV NIL=
201703211200 METAR MRPV 211200Z 12010KT 9999 SCT030 19/14 A3008 NOSIG=
201703211300 METAR MRPV 211300Z 11009KT 9999 SCT030 20/14 A3010 NOSIG=
201703211400 METAR MRPV 211400Z 11011KT 9999 FEW030 23/15 A3011 NOSIG=
201703211500 METAR MRPV 211500Z 11013KT 9999 FEW030 SCT100 24/15 A3011 NOSIG=
201703211600 METAR MRPV 211600Z 09014KT 9999 FEW030 25/15 A3010 NOSIG=
201703211700 METAR MRPV 211700Z 08018KT 9999 FEW040 SCT100 27/14 A3008 NOSIG=
201703211800 METAR MRPV 211800Z 09016KT 9999 FEW040 27/15 A3005 NOSIG=
201703211900 METAR MRPV 211900Z 09015G25KT 9999 FEW025 BKN100 25/15 A3003 NOSIG=
201703212000 METAR MRPV 212000Z 10015KT 9999 FEW030 BKN100 24/15 A3002 NOSIG=
201703212100 METAR MRPV 212100Z 10012KT 9999 FEW020 BKN100 24/15 A3000 NOSIG=
201703212200 METAR MRPV 212200Z 11012KT 9999 DZ SCT020 BKN090 24/15 A2999 NOSIG=
201703212300 METAR MRPV 212300Z 09010G20KT 9999 -DZ FEW015 BKN080 21/16 A3001 NOSIG=
201703220000 METAR MRPV 220000Z 09014KT 9999 FEW010 BKN080 21/14 A3004 NOSIG=
201703220100 METAR MRPV NIL=
201703220200 METAR MRPV NIL=
201703220300 METAR MRPV NIL=
201703220400 METAR MRPV NIL=
201703220500 METAR MRPV NIL=
201703220600 METAR MRPV NIL=
201703220700 METAR MRPV NIL=
201703220800 METAR MRPV NIL=
201703220900 METAR MRPV NIL=
201703221000 METAR MRPV NIL=
201703221100 METAR MRPV NIL=
201703221200 METAR MRPV 221200Z 11013KT 9999 FEW030 BKN100 20/14 A3005 NOSIG=
201703221300 METAR MRPV 221300Z 11010KT 9999 FEW030 BKN100 22/14 A3005 NOSIG=
201703221400 METAR MRPV 221400Z 10014KT 9999 FEW030 SCT200 22/15 A3006 NOSIG=
201703221500 METAR MRPV 221500Z 10014KT 9999 FEW030 SCT200 24/15 A3007 NOSIG=
201703221600 METAR MRPV 221600Z 09012KT 9999 BKN030 SCT100 23/15 A3008 NOSIG=
201703221700 METAR MRPV 221700Z 11011KT 9999 SCT030 SCT100 24/15 A3006 NOSIG=
201703221800 METAR MRPV 221800Z 08016KT 9999 SCT030 SCT100 23/14 A3005 NOSIG=
201703221900 METAR MRPV 221900Z 07017KT 9999 FEW040 BKN100 25/14 A3002 NOSIG=
201703222000 METAR MRPV 222000Z 06013KT 9999 FEW035 SCT100 BKN200 25/14 A2999 NOSIG=
201703222100 METAR MRPV 222100Z 07016KT 9999 FEW035 BKN120 25/14 A2998 NOSIG=
201703222200 METAR MRPV 222200Z 09013KT 9999 SCT030 BKN120 24/15 A2999 NOSIG=
201703222300 METAR MRPV 222300Z 08014KT 9999 SCT030 BKN100 23/15 A3000 NOSIG=
201703230000 METAR MRPV 230000Z 09015KT 9999 SCT035 BKN100 21/15 A3002 NOSIG=
201703230100 METAR MRPV NIL=
201703230200 METAR MRPV NIL=
201703230300 METAR MRPV NIL=
201703230400 METAR MRPV NIL=
201703230500 METAR MRPV NIL=
201703230600 METAR MRPV NIL=
201703230700 METAR MRPV NIL=
201703230800 METAR MRPV NIL=
201703230900 METAR MRPV NIL=
201703231000 METAR MRPV NIL=
201703231100 METAR MRPV NIL=
201703231200 METAR MRPV 231200Z 11010KT 9999 FEW025 BKN090 19/14 A3007 NOSIG=
201703231300 METAR MRPV 231300Z 11011KT 9999 FEW020 BKN090 19/14 A3010 NOSIG=
201703231400 METAR MRPV 231400Z 10015KT 9999 FEW025 SCT120 21/14 A3011 NOSIG=
201703231500 METAR MRPV 231500Z 09014G24KT 9999 FEW025 23/14 A3012 NOSIG=
201703231600 METAR MRPV 231600Z 08019KT 9999 FEW030 24/14 A3012 NOSIG=
201703231700 METAR MRPV 231700Z 09019KT 9999 SCT025 25/14 A3009 NOSIG=
201703231800 METAR MRPV 231800Z 10013KT 9999 BKN025 SCT080 23/14 A3008 NOSIG=
201703231900 METAR MRPV 231900Z 08019KT 9999 SCT025 25/14 A3004 NOSIG=
201703232000 METAR MRPV 232000Z 08018G30KT 9999 FEW020 SCT120 24/14 A3002 NOSIG=
201703232100 METAR MRPV 232100Z 09018KT 9999 FEW020 23/14 A3001 NOSIG=
201703232200 METAR MRPV 232200Z 08017KT 9999 SCT020 SCT100 23/13 A3002 NOSIG=
201703232300 METAR MRPV 232300Z 09016KT 9999 SCT020 21/14 A3003 NOSIG=
201703240000 METAR MRPV 240000Z 09013KT 9999 RA SCT010 20/14 A3006 NOSIG=
201703240100 METAR MRPV NIL=
201703240200 METAR MRPV NIL=
201703240300 METAR MRPV NIL=
201703240400 METAR MRPV NIL=
201703240500 METAR MRPV NIL=
201703240600 METAR MRPV NIL=
201703240700 METAR MRPV NIL=
201703240800 METAR MRPV NIL=
201703240900 METAR MRPV NIL=
201703241000 METAR MRPV NIL=
201703241100 METAR MRPV NIL=
201703241200 METAR MRPV 241200Z 10015KT 9999 SCT020 18/13 A3009 NOSIG=
201703241300 METAR MRPV 241300Z 090153KT 9999 SCT020 19/12 A3011 NOSIG=
201703241400 METAR MRPV 241400Z 09015G25KT 9999 FEW020 21/13 A3013 NOSIG=
201703241500 METAR MRPV 241500Z 09019G29KT 9999 FEW020 22/13 A3014 NOSIG=
201703241600 METAR MRPV 241600Z 07019KT 9999 SCT025 22/13 A3013 NOSIG=
201703241700 METAR MRPV 241700Z 08017KT 9999 FEW025 SCT100 23/14 A3012 NOSIG=
201703241800 METAR MRPV 241800Z 07016KT CAVOK 25/13 A3009 NOSIG=
201703241900 METAR MRPV 241900Z 09014G24KT 9999 FEW030 25/14 A3007 NOSIG=
201703242000 METAR MRPV 242000Z 09014KT 9999 FEW035 SCT080 25/14 A3004 NOSIG=
201703242100 METAR MRPV 242100Z 08016KT 9999 FEW030 SCT100 24/14 A3002 NOSIG=
201703242200 METAR MRPV 242200Z 09016KT 9999 BKN025 23/14 A3002 NOSIG=
201703242300 METAR MRPV 242300Z 08016KT 9999 BKN030 22/15 A3003 NOSIG=
201703250000 METAR MRPV 250000Z 08014KT 9999 BKN020 21/15 A3004 NOSIG=
201703250100 METAR MRPV NIL=
201703250200 METAR MRPV NIL=
201703250300 METAR MRPV NIL=
201703250400 METAR MRPV NIL=
201703250500 METAR MRPV NIL=
201703250600 METAR MRPV NIL=
201703250700 METAR MRPV NIL=
201703250800 METAR MRPV NIL=
201703250900 METAR MRPV NIL=
201703251000 METAR MRPV NIL=
201703251100 METAR MRPV NIL=
201703251200 METAR MRPV 251200Z 13009KT CAVOK 18/12 A3006 NOSIG=
201703251300 METAR MRPV 251300Z 12010KT CAVOK 20/12 A3008 NOSIG=
201703251400 METAR MRPV 251400Z 10014KT CAVOK 22/13 A3009 NOSIG=
201703251500 METAR MRPV 251500Z 08019KT CAVOK 24/13 A3010 NOSIG=
201703251600 METAR MRPV 251600Z 07016KT CAVOK 25/13 A3010 NOSIG=
201703251700 METAR MRPV 251700Z 08015KT 9999 FEW045 26/14 A3008 NOSIG=
201703251800 METAR MRPV 251800Z 08015KT 9999 FEW045 27/14 A3005 NOSIG=
201703251900 METAR MRPV 251900Z 07013KT 9999 FEW040 27/14 A3002 NOSIG=
201703252000 METAR MRPV 252000Z 08013KT 9999 FEW040 28/14 A2999 NOSIG=
201703252100 METAR MRPV 252100Z 07015KT 9999 FEW040 28/14 A2997 NOSIG=
201703252200 METAR MRPV 252200Z 08017KT 9999 VCSH FEW030TCU 26/15 A2996 NOSIG=
201703252300 METAR MRPV 252300Z 08014KT 9999 VCSH FEW030TCU 24/15 A2998 NOSIG=
201703260000 METAR MRPV 260000Z 09011KT 9999 FEW035 22/15 A3000 NOSIG=
201703260100 METAR MRPV NIL=
201703260200 METAR MRPV NIL=
201703260300 METAR MRPV NIL=
201703260400 METAR MRPV NIL=
201703260500 METAR MRPV NIL=
201703260600 METAR MRPV NIL=
201703260700 METAR MRPV NIL=
201703260800 METAR MRPV NIL=
201703260900 METAR MRPV NIL=
201703261000 METAR MRPV NIL=
201703261100 METAR MRPV NIL=
201703261200 METAR MRPV 261200Z 12007KT CAVOK 20/13 A3004 NOSIG=
201703261300 METAR MRPV 261300Z 12008KT CAVOK 21/13 A3007 NOSIG=
201703261400 METAR MRPV 261400Z 11010KT CAVOK 23/14 A3009 NOSIG=
201703261500 METAR MRPV 261500Z 08010KT CAVOK 25/14 A3008 NOSIG=
201703261600 METAR MRPV 261600Z 08012KT 9999 FEW045 BKN250 26/13 A3008 NOSIG=
201703261700 METAR MRPV 261700Z 09010KT 9999 FEW045 BKN250 28/13 A3006 NOSIG=
201703261800 METAR MRPV 261800Z 06007KT 9999 SCT045 SCT250 29/12 A3003 BECMG 24006KT=
201703261900 METAR MRPV 261900Z 20003KT 9999 SCT045 SCT250 28/13 A3000 NOSIG=
201703262000 METAR MRPV 262000Z 15006KT 9999 BKN045 27/14 A2998 TEMPO 26005KT=
201703262100 METAR MRPV 262100Z 10005KT 9999 FEW025TCU BKN045 25/15 A2997 NOSIG=
201703262200 METAR MRPV 262200Z 08010KT 9999 -SHRA FEW020TCU BKN030 24/16 A2997 NOSIG=
201703262300 METAR MRPV NIL=
201703270000 METAR MRPV 270000Z 10007KT 9999 BKN020 21/16 A3001 NOSIG=
201703270100 METAR MRPV NIL=
201703270200 METAR MRPV NIL=
201703270300 METAR MRPV NIL=
201703270400 METAR MRPV NIL=
201703270500 METAR MRPV NIL=
201703270600 METAR MRPV NIL=
201703270700 METAR MRPV NIL=
201703270800 METAR MRPV NIL=
201703270900 METAR MRPV NIL=
201703271000 METAR MRPV NIL=
201703271100 METAR MRPV NIL=
201703271200 METAR MRPV 271200Z 12008KT CAVOK 19/12 A3004 NOSIG=
201703271300 METAR MRPV 271300Z 11008KT CAVOK 20/12 A3006 NOSIG=
201703271400 METAR MRPV 271400Z 11009KT CAVOK 22/10 A3008 NOSIG=
201703271500 METAR MRPV 271500Z 07012KT CAVOK 25/09 A3008 NOSIG=
201703271600 METAR MRPV 271600Z 09007KT CAVOK 26/10 A3008 NOSIG=
201703271700 METAR MRPV 271700Z 06006KT 9999 FEW045 28/10 A3005 BECMG 28005KT=
201703271800 METAR MRPV 271800Z 17002KT 9999 SCT045 29/10 A3002 NOSIG=
201703271900 METAR MRPV 271900Z 25007KT 9999 SCT045 29/12 A2999 NOSIG=
201703272000 METAR MRPV 272000Z 28010KT 9999 SCT045 29/13 A2995 NOSIG=
201703272100 METAR MRPV 272100Z 26008KT 9999 SCT045 27/17 A2994 NOSIG=
201703272200 METAR MRPV 272200Z 12005KT 9999 SCT045 26/15 A2994 NOSIG=
201703272300 METAR MRPV 272300Z 09009KT 9999 BKN040 23/15 A2996 NOSIG=
201703280000 METAR MRPV 280000Z 09007KT 9999 BKN040 22/16 A2998 NOSIG=
201703280100 METAR MRPV NIL=
201703280200 METAR MRPV NIL=
201703280300 METAR MRPV NIL=
201703280400 METAR MRPV NIL=
201703280500 METAR MRPV NIL=
201703280600 METAR MRPV NIL=
201703280700 METAR MRPV NIL=
201703280800 METAR MRPV NIL=
201703280900 METAR MRPV NIL=
201703281000 METAR MRPV NIL=
201703281100 METAR MRPV NIL=
201703281200 METAR MRPV 281200Z 15004KT CAVOK 17/10 A3004 NOSIG=
201703281300 METAR MRPV 281300Z 14004KT CAVOK 20/09 A3006 NOSIG=
201703281400 METAR MRPV 281400Z 09006KT CAVOK 23/10 A3007 NOSIG=
201703281500 METAR MRPV 281500Z 25002KT CAVOK 26/20 A3007 NOSIG=
201703281600 METAR MRPV 281600Z VRB02KT CAVOK 28/11 A3005 TEMPO 24005KT=
201703281700 METAR MRPV 281700Z 26007KT CAVOK 28/11 A3003 NOSIG=
201703281800 METAR MRPV 281800Z 27007KT 9999 FEW045 29/12 A3001 NOSIG=
201703281900 METAR MRPV 281900Z 28009G19KT 9999 FEW045 30/12 A2998 NOSIG=
201703282000 METAR MRPV 282000Z 24006G16KT 9999 SCT045 30/14 A2995 NOSIG=
201703282100 METAR MRPV 282100Z 23007KT 9999 SCT035 27/15 A2995 NOSIG=
201703282200 METAR MRPV 282200Z 26009KT 9999 SCT035 26/14 A2995 NOSIG=
201703282300 METAR MRPV 282300Z 26007KT 9999 BKN040 26/14 A2997 NOSIG=
201703290000 METAR MRPV 290000Z 25005KT 9999 SCT040 SCT080 24/14 A2998 NOSIG=
201703290100 METAR MRPV NIL=
201703290200 METAR MRPV NIL=
201703290300 METAR MRPV NIL=
201703290400 METAR MRPV NIL=
201703290500 METAR MRPV NIL=
201703290600 METAR MRPV NIL=
201703290700 METAR MRPV NIL=
201703290800 METAR MRPV NIL=
201703290900 METAR MRPV NIL=
201703291000 METAR MRPV NIL=
201703291100 METAR MRPV NIL=
201703291200 METAR MRPV 291200Z 13005KT CAVOK 19/11 A3002 NOSIG=
201703291300 METAR MRPV 291300Z 14005KT CAVOK 21/11 A3003 NOSIG=
201703291400 METAR MRPV 291400Z 12006KT CAVOK 24/11 A3005 NOSIG=
201703291500 METAR MRPV 291500Z 08009KT CAVOK 26/12 A3005 NOSIG=
201703291600 METAR MRPV 291600Z 08006KT CAVOK 27/10 A3004 NOSIG=
201703291700 METAR MRPV 291700Z 01003KT CAVOK 28/11 A3002 BECMG 25006KT=
201703291800 METAR MRPV 291800Z 27006KT CAVOK 30/10 A2999 NOSIG=
201703291900 METAR MRPV 291900Z 25009KT 9999 FEW045 BKN250 30/10 A2997 NOSIG=
201703292000 METAR MRPV 292000Z 25010KT 9999 FEW040 BKN250 30/13 A2995 NOSIG=
201703292100 METAR MRPV 292100Z 24007KT 9999 FEW040 BKN100 27/15 A2995 NOSIG=
201703292200 METAR MRPV 292200Z 22005KT 9999 SCT040 SCT100 27/16 A2996 NOSIG=
201703292300 METAR MRPV 292300Z 26006KT 9999 FEW040 BKN100 26/13 A2996 NOSIG=
201703300000 METAR MRPV 300000Z 26005KT 9999 FEW040 BKN250 24/14 A2997 NOSIG=
201703300100 METAR MRPV NIL=
201703300200 METAR MRPV NIL=
201703300300 METAR MRPV NIL=
201703300400 METAR MRPV NIL=
201703300500 METAR MRPV NIL=
201703300600 METAR MRPV NIL=
201703300700 METAR MRPV NIL=
201703300800 METAR MRPV NIL=
201703300900 METAR MRPV NIL=
201703301000 METAR MRPV NIL=
201703301100 METAR MRPV NIL=
201703301200 METAR MRPV 301200Z 15002KT CAVOK 17/13 A3005 NOSIG=
201703301300 METAR MRPV 301300Z 10004KT CAVOK 21/13 A3005 NOSIG=
201703301400 METAR MRPV 301400Z 09005KT CAVOK 24/13 A3007 NOSIG=
201703301500 METAR MRPV 301500Z 35002KT CAVOK 27/05 A3007 NOSIG=
201703301600 METAR MRPV 301600Z 25006KT CAVOK 28/04 A3005 NOSIG=
201703301700 METAR MRPV 301700Z 26006KT CAVOK 29/04 A3004 NOSIG=
201703301800 METAR MRPV 301800Z 28005G15KT CAVOK 30/01 A3001 NOSIG=
201703301900 METAR MRPV 301900Z 27008KT 9999 FEW045 30/09 A2998 NOSIG=
201703302000 METAR MRPV 302000Z 28011KT 9999 FEW040 29/10 A2996 NOSIG=
201703302100 METAR MRPV 302100Z 27011KT 9999 FEW040 29/12 A2995 NOSIG=
201703302200 METAR MRPV 302200Z 27011KT 9999 FEW040 28/13 A2995 NOSIG=
201703302300 METAR MRPV 302300Z 27010KT 9999 FEW040 SCT100 26/14 A2997 NOSIG=
201703310000 METAR MRPV 310000Z 27008KT 9999 FEW040 BKN250 24/15 A2997 NOSIG=
201703310100 METAR MRPV NIL=
201703310200 METAR MRPV NIL=
201703310300 METAR MRPV NIL=
201703310400 METAR MRPV NIL=
201703310500 METAR MRPV NIL=
201703310600 METAR MRPV NIL=
201703310700 METAR MRPV NIL=
201703310800 METAR MRPV NIL=
201703310900 METAR MRPV NIL=
201703311000 METAR MRPV NIL=
201703311100 METAR MRPV NIL=
201703311200 METAR MRPV 311200Z 08002KT CAVOK 18/14 A3003 NOSIG=
201703311300 METAR MRPV 311300Z 36001KT CAVOK 21/14 A3004 NOSIG=
201703311400 METAR MRPV 311400Z 12007KT CAVOK 24/13 A3006 NOSIG=
201703311500 METAR MRPV 311500Z 09010KT CAVOK 26/13 A3006 NOSIG=
201703311600 METAR MRPV 311600Z 07009KT 9999 FEW045 27/13 A3004 NOSIG=
201703311700 METAR MRPV 311700Z 07008KT 9999 FEW045 29/13 A3003 NOSIG=
201703311800 METAR MRPV 311800Z 04005KT 9999 FEW045 30/11 A3000 NOSIG=
201703311830 METAR MRPV 311830Z 22003KT 9999 FEW045 29/14 A2998 NOSIG=
201703311900 METAR MRPV 311900Z 26008KT 9999 SCT045 28/16 A2997 NOSIG=
201703312000 METAR MRPV 312000Z 26007KT 9999 SCT045 27/17 A2995 NOSIG=
201703312100 METAR MRPV 312100Z 27011KT 9999 SCT035 28/17 A2995 NOSIG=
201703312200 METAR MRPV 312200Z 26010KT 9999 SCT040 26/17 A2994 NOSIG=
201703312300 METAR MRPV 312300Z 27007KT 9999 FEW035 SCT070 24/18 A2996 NOSIG=
201704010000 METAR MRPV 010000Z 29004KT 9999 SCT030 SCT060 24/17 A2999 NOSIG=
201704010100 METAR MRPV NIL=
201704010200 METAR MRPV NIL=
201704010300 METAR MRPV NIL=
201704010400 METAR MRPV NIL=
201704010500 METAR MRPV NIL=
201704010600 METAR MRPV NIL=
201704010700 METAR MRPV NIL=
201704010800 METAR MRPV NIL=
201704010900 METAR MRPV NIL=
201704011000 METAR MRPV NIL=
201704011100 METAR MRPV NIL=
201704011200 METAR MRPV 011200Z 09005KT CAVOK 17/11 A3007 NOSIG=
201704011300 METAR MRPV 011300Z 09006KT 9999 VCVA NSC 20/11 A3008 NOSIG=
201704011400 METAR MRPV 011400Z 10006KT 9999 VCVA NSC 24/11 A3010 NOSIG=
201704011500 METAR MRPV 011500Z 11007KT CAVOK 26/10 A3010 NOSIG=
201704011600 METAR MRPV 011600Z 12006KT CAVOK 28/10 A3008 NOSIG=
201704011700 METAR MRPV 011700Z 03005KT CAVOK 29/09 A3005 NOSIG=
201704011800 METAR MRPV 011800Z 34004KT CAVOK 31/07 A3001 NOSIG=
201704011830 METAR MRPV 011830Z 09007KT CAVOK 31/09 A2999 NOSIG=
201704011900 METAR MRPV 011900Z 08013KT CAVOK 30/11 A2998 NOSIG=
201704012000 METAR MRPV 012000Z COR 08018KT 9999 FEW035 28/15 A2997 NOSIG=
201704012100 METAR MRPV 012100Z 09015KT 9999 FEW030 SCT080 27/14 A2997 NOSIG=
201704012200 METAR MRPV 012200Z 08014KT 9999 BKN035 26/15 A2998 NOSIG=
201704012300 METAR MRPV 012300Z 09012KT 9999 FEW035 BKN080 24/15 A3000 NOSIG=
201704020000 METAR MRPV 020000Z 08012KT 9999 FEW035 BKN080 23/15 A3002 NOSIG=
201704020100 METAR MRPV NIL=
201704020200 METAR MRPV NIL=
201704020300 METAR MRPV NIL=
201704020400 METAR MRPV NIL=
201704020500 METAR MRPV NIL=
201704020600 METAR MRPV NIL=
201704020700 METAR MRPV NIL=
201704020800 METAR MRPV NIL=
201704020900 METAR MRPV NIL=
201704021000 METAR MRPV NIL=
201704021100 METAR MRPV NIL=
201704021200 METAR MRPV 021200Z 13008KT CAVOK 20/13 A3003 NOSIG=
201704021300 METAR MRPV 021300Z 12009KT CAVOK 22/17 A3006 NOSIG=
201704021400 METAR MRPV 021400Z 10010KT CAVOK 25/12 A3006 NOSIG=
201704021500 METAR MRPV 021500Z 08012KT CAVOK 26/12 A3005 NOSIG=
201704021600 METAR MRPV 021600Z 09011KT CAVOK 29/14 A3003 NOSIG=
201704021700 METAR MRPV 021700Z 08007KT 9999 FEW045 SCT100 30/12 A3002 NOSIG=
201704021715 METAR MRPV 021715Z 08007KT 9999 SCT045 30/12 A3001 NOSIG=
201704021800 METAR MRPV 021800Z 26010KT 9999 FEW025TCU SCT045 27/17 A3000 NOSIG=
201704021900 METAR MRPV 021900Z 06009KT 8000 3000N SHRA VCTS SCT020CB SCT030 19/18 A3001 NOSIG=
201704022000 METAR MRPV 022000Z 24003KT 8000 RA VCTS FEW010CB FEW010 SCT070 21/19 A3001 RESHRA NOSIG=
201704022100 METAR MRPV 022100Z 35003KT 9999 -RA FEW030 BKN100 21/18 A2999 NOSIG=
201704022200 METAR MRPV 022200Z 29002KT 9999 FEW005 SCT030 BKN100 21/18 A3001 NOSIG=
201704022300 METAR MRPV 022300Z 09003KT 9999 -DZ FEW005 SCT080 BKN100 21/19 A3000 NOSIG=
201704030000 METAR MRPV 030000Z 10007KT 9999 FEW040 BKN100 21/17 A2998 NOSIG=
201704030100 METAR MRPV NIL=
201704030200 METAR MRPV NIL=
201704030300 METAR MRPV NIL=
201704030400 METAR MRPV NIL=
201704030500 METAR MRPV NIL=
201704030600 METAR MRPV NIL=
201704030700 METAR MRPV NIL=
201704030800 METAR MRPV NIL=
201704030900 METAR MRPV NIL=
201704031000 METAR MRPV NIL=
201704031100 METAR MRPV NIL=
201704031200 METAR MRPV 031200Z 08003KT CAVOK 19/16 A3001 NOSIG=
201704031300 METAR MRPV 031300Z 09004KT CAVOK 21/16 A3003 NOSIG=
201704031400 METAR MRPV 031400Z 13007KT CAVOK 26/15 A3003 NOSIG=
201704031500 METAR MRPV 031500Z 10006KT CAVOK 27/14 A3002 NOSIG=
201704031600 METAR MRPV 031600Z 07009KT CAVOK 28/15 A3002 NOSIG=
201704031700 METAR MRPV 031700Z 06005KT CAVOK 29/15 A2999 NOSIG=
201704031800 METAR MRPV 031800Z 36006KT 9999 FEW045 31/15 A2995 NOSIG=
201704031900 METAR MRPV 031900Z 07010KT 9999 FEW045 30/15 A2992 NOSIG=
201704032000 METAR MRPV 032000Z 26005KT 9999 SCT045 SCT100 28/18 A2990 NOSIG=
201704032100 METAR MRPV 032100Z 06012KT 9999 TSRA SCT030CB BKN100 25/17 A2992 NOSIG=
201704032200 METAR MRPV 032200Z 05006G16KT 9999 VCSH FEW020CB FEW030 BKN100 24/17 A2992 RETSRA NOSIG=
201704032300 METAR MRPV 032300Z 09010KT 9999 FEW035 BKN120 24/17 A2993 NOSIG=
201704040000 METAR MRPV 040000Z 10010KT 9999 FEW040 BKN120 23/17 A2993 NOSIG=
201704040100 METAR MRPV NIL=
201704040200 METAR MRPV NIL=
201704040300 METAR MRPV NIL=
201704040400 METAR MRPV NIL=
201704040500 METAR MRPV NIL=
201704040600 METAR MRPV NIL=
201704040700 METAR MRPV NIL=
201704040800 METAR MRPV NIL=
201704040900 METAR MRPV NIL=
201704041000 METAR MRPV NIL=
201704041100 METAR MRPV NIL=
201704041200 METAR MRPV 041200Z 12008KT 9999 FEW025 BKN250 21/15 A2995 NOSIG=
201704041300 METAR MRPV 041300Z 12006KT 9999 FEW020 BKN250 22/15 A3000 NOSIG=
201704041400 METAR MRPV 041400Z 07011KT 9999 FEW045 BKN250 25/15 A3001 NOSIG=
201704041500 METAR MRPV 041500Z 07009KT CAVOK 26/15 A3001 NOSIG=
201704041600 METAR MRPV 041600Z 06012KT 9999 FEW045 BKN250 28/14 A3001 NOSIG=
201704041700 METAR MRPV 041700Z 06011KT 9999 FEW045 BKN250 28/14 A3000 NOSIG=
201704041800 METAR MRPV 041800Z 06014KT 9999 FEW045 BKN250 29/14 A2997 NOSIG=
201704041900 METAR MRPV 041900Z 08013KT 9999 FEW045 30/14 A2993 NOSIG=
201704042000 METAR MRPV 042000Z 07016KT 8000 FEW025TCU FEW035 SCT070 30/14 A2990 NOSIG=
201704042100 METAR MRPV 042100Z 09014KT 8000 FEW030 BKN070 27/15 A2990 NOSIG=
201704042200 METAR MRPV 042200Z 09011KT 9000 FEW030 SCT070 25/16 A2992 NOSIG=
201704042300 METAR MRPV 042300Z 34006KT 9999 FEW030 BKN080 23/17 A2995 NOSIG=
201704050000 METAR MRPV 050000Z 27002KT 8000 SCT030 BKN200 23/17 A2997 NOSIG=
201704050100 METAR MRPV NIL=
201704050200 METAR MRPV NIL=
201704050300 METAR MRPV NIL=
201704050400 METAR MRPV NIL=
201704050500 METAR MRPV NIL=
201704050600 METAR MRPV NIL=
201704050700 METAR MRPV NIL=
201704050800 METAR MRPV NIL=
201704050900 METAR MRPV NIL=
201704051000 METAR MRPV NIL=
201704051100 METAR MRPV NIL=
201704051200 METAR MRPV 051200Z 13007KT CAVOK 21/14 A3001 NOSIG=
201704051300 METAR MRPV 051300Z 12008KT CAVOK 22/14 A3003 NOSIG=
201704051400 METAR MRPV 051400Z 11009KT CAVOK 23/15 A3004 NOSIG=
201704051500 METAR MRPV 051500Z 09011KT 9999 FEW040 BKN200 24/15 A3004 NOSIG=
201704051600 METAR MRPV 051600Z 07014KT 9999 FEW040 BKN200 25/15 A3003 NOSIG=
201704051700 METAR MRPV 051700Z 06013G25KT 9999 FEW040 BKN200 26/14 A3002 NOSIG=
201704051800 METAR MRPV 051800Z 06014KT 9999 FEW040 BKN200 27/14 A3000 NOSIG=
201704051900 METAR MRPV 051900Z 05013KT 9999 FEW045 BKN200 28/13 A2998 NOSIG=
201704052000 METAR MRPV 052000Z 07013KT 9999 FEW045 BKN200 27/13 A2995 NOSIG=
201704052100 METAR MRPV 052100Z 06013KT CAVOK 27/13 A2994 NOSIG=
201704052200 METAR MRPV 052200Z 07013KT CAVOK 26/13 A2994 NOSIG=
201704052300 METAR MRPV 052300Z 08011KT 9999 FEW035 SCT100 BKN200 24/14 A2996 NOSIG=
201704060000 METAR MRPV 060000Z 07012KT 9999 FEW030 BKN200 23/14 A2998 NOSIG=
201704060100 METAR MRPV NIL=
201704060200 METAR MRPV NIL=
201704060300 METAR MRPV NIL=
201704060400 METAR MRPV NIL=
201704060500 METAR MRPV NIL=
201704060600 METAR MRPV NIL=
201704060700 METAR MRPV NIL=
201704060800 METAR MRPV NIL=
201704060900 METAR MRPV NIL=
201704061000 METAR MRPV NIL=
201704061100 METAR MRPV NIL=
201704061200 METAR MRPV 061200Z 11008KT 9999 FEW030 21/15 A3004 NOSIG=
201704061300 METAR MRPV 061300Z 12010KT 9999 FEW030 22/15 A3006 NOSIG=
201704061400 METAR MRPV 061400Z COR 10014KT 9999 FEW030 SCT060 23/16 A3009 NOSIG=
201704061500 METAR MRPV 061500Z 08015KT 9999 FEW030 SCT060 23/16 A3009 NOSIG=
201704061600 METAR MRPV 061600Z 11012KT 9999 FEW035 SCT080 25/15 A3008 NOSIG=
201704061700 METAR MRPV 061700Z 07017KT 9999 FEW035 26/15 A3006 NOSIG=
201704061800 METAR MRPV 061800Z 07014KT 9999 FEW045 28/15 A3003 NOSIG=
201704061900 METAR MRPV 061900Z 06013KT 9999 FEW040 29/15 A3000 NOSIG=
201704062000 METAR MRPV 062000Z 08017KT 9999 FEW040 28/15 A2998 NOSIG=
201704062100 METAR MRPV 062100Z 08014KT 9999 FEW040 29/15 A2995 NOSIG=
201704062200 METAR MRPV 062200Z 07013KT 9999 FEW040 28/16 A2995 NOSIG=
201704062300 METAR MRPV 062300Z 07015KT 9999 FEW035 25/17 A2996 NOSIG=
201704070000 METAR MRPV 070000Z 08014KT 9999 FEW030 24/16 A2998 NOSIG=
201704070100 METAR MRPV NIL=
201704070200 METAR MRPV NIL=
201704070300 METAR MRPV NIL=
201704070400 METAR MRPV NIL=
201704070500 METAR MRPV NIL=
201704070600 METAR MRPV NIL=
201704070700 METAR MRPV NIL=
201704070800 METAR MRPV NIL=
201704070900 METAR MRPV NIL=
201704071000 METAR MRPV NIL=
201704071100 METAR MRPV NIL=
201704071200 METAR MRPV 071200Z 10014KT 9999 SCT030 21/16 A3004 NOSIG=
201704071300 METAR MRPV 071300Z 09016G26KT 9999 FEW025 22/15 A3006 NOSIG=
201704071400 METAR MRPV 071400Z 09016KT 9999 FEW025 23/16 A3008 NOSIG=
201704071500 METAR MRPV 071500Z 10015KT 9999 FEW025 24/16 A3008 NOSIG=
201704071600 METAR MRPV 071600Z 08019KT 9999 FEW035 24/15 A3009 NOSIG=
201704071700 METAR MRPV 071700Z 08019KT 9999 FEW035 24/13 A3008 NOSIG=
201704071800 METAR MRPV 071800Z 07019G30KT 9999 FEW040 26/14 A3006 NOSIG=
201704071900 METAR MRPV 071900Z 07019KT 9999 FEW045 27/14 A3001 NOSIG=
201704072000 METAR MRPV 072000Z 08017KT 9999 SCT045 27/14 A2998 NOSIG=
201704072100 METAR MRPV 072100Z 08018KT 9999 FEW045 26/14 A2997 NOSIG=
201704072200 METAR MRPV 072200Z 07017KT 9999 FEW035 25/14 A2996 NOSIG=
201704072300 METAR MRPV 072300Z 07015KT 9999 FEW035 24/14 A2998 NOSIG=
201704080000 METAR MRPV 080000Z 08014KT 9999 FEW035 22/14 A2999 NOSIG=
201704080100 METAR MRPV NIL=
201704080200 METAR MRPV NIL=
201704080300 METAR MRPV NIL=
201704080400 METAR MRPV NIL=
201704080500 METAR MRPV NIL=
201704080600 METAR MRPV NIL=
201704080700 METAR MRPV NIL=
201704080800 METAR MRPV NIL=
201704080900 METAR MRPV NIL=
201704081000 METAR MRPV NIL=
201704081100 METAR MRPV NIL=
201704081200 METAR MRPV 081200Z 10012KT 9999 FEW030 BKN200 20/14 A3002 NOSIG=
201704081300 METAR MRPV 081300Z 10014KT 9999 FEW030 BKN200 21/14 A3005 NOSIG=
201704081400 METAR MRPV 081400Z 08019KT 9999 FEW025 SCT200 21/14 A3007 NOSIG=
201704081500 METAR MRPV 081500Z 08021G31KT 9999 FEW025 SCT180 22/13 A3008 NOSIG=
201704081600 METAR MRPV 081600Z 07019G32KT 9999 FEW030 SCT080 22/12 A3006 NOSIG=
201704081700 METAR MRPV 081700Z 08018G28KT 9999 SCT030 SCT200 23/12 A3007 NOSIG=
201704081800 METAR MRPV 081800Z 08016KT 9999 FEW035 BKN200 24/13 A3006 NOSIG=
201704081900 METAR MRPV 081900Z 08017KT 9999 FEW020TCU FEW035 25/13 A3003 NOSIG=
201704082000 METAR MRPV 082000Z 09016G26KT 9999 SCT035 SCT100 24/14 A3001 NOSIG=
201704082100 METAR MRPV 082100Z 08017KT 9999 FEW040 SCT100 23/12 A2999 NOSIG=
201704082200 METAR MRPV 082200Z 09019KT 9999 FEW040 BKN100 22/10 A2999 NOSIG=
201704082300 METAR MRPV 082300Z 09011KT 9999 FEW030 BKN200 22/12 A2999 NOSIG=
201704090000 METAR MRPV 090000Z 08013KT 9999 FEW030 BKN200 21/11 A3000 NOSIG=
201704090100 METAR MRPV NIL=
201704090200 METAR MRPV NIL=
201704090300 METAR MRPV NIL=
201704090400 METAR MRPV NIL=
201704090500 METAR MRPV NIL=
201704090600 METAR MRPV NIL=
201704090700 METAR MRPV NIL=
201704090800 METAR MRPV NIL=
201704090900 METAR MRPV NIL=
201704091000 METAR MRPV NIL=
201704091100 METAR MRPV NIL=
201704091200 METAR MRPV 091200Z 12010KT CAVOK 19/09 A3002 NOSIG=
201704091300 METAR MRPV 091300Z 12008KT CAVOK 21/10 A3003 NOSIG=
201704091400 METAR MRPV 091400Z 09012KT CAVOK 23/11 A3006 NOSIG=
201704091500 METAR MRPV 091500Z 08014KT CAVOK 24/12 A3005 NOSIG=
201704091600 METAR MRPV 091600Z 07015KT CAVOK 25/13 A3005 NOSIG=
201704091700 METAR MRPV 091700Z 08014KT 9999 FEW045 SCT100 BKN200 26/13 A3005 NOSIG=
201704091800 METAR MRPV 091800Z 07015KT 9999 FEW035 BKN160 25/14 A3004 NOSIG=
201704091900 METAR MRPV 091900Z 08017KT 9999 FEW020TCU FEW035 26/14 A3001 NOSIG=
201704092000 METAR MRPV 092000Z 07017KT 9999 FEW0040 SCT120 25/14 A2998 NOSIG=
201704092100 METAR MRPV 092100Z 07016KT 9999 FEW045 SCT250 25/13 A2996 NOSIG=
201704092200 METAR MRPV 092200Z 08018KT 9999 FEW040 BKN250 24/12 A2998 NOSIG=
201704092300 METAR MRPV 092300Z 08015KT 9999 FEW040 BKN120 23/13 A2999 NOSIG=
201704100000 METAR MRPV 100000Z 09012KT 9999 FEW035 BKN120 21/13 A3001 NOSIG=
201704100100 METAR MRPV NIL=
201704100200 METAR MRPV NIL=
201704100300 METAR MRPV NIL=
201704100400 METAR MRPV NIL=
201704100500 METAR MRPV NIL=
201704100600 METAR MRPV NIL=
201704100700 METAR MRPV NIL=
201704100800 METAR MRPV NIL=
201704100900 METAR MRPV NIL=
201704101000 METAR MRPV NIL=
201704101100 METAR MRPV NIL=
201704101200 METAR MRPV 101200Z 11009G19KT CAVOK 19/08 A3001 NOSIG=
201704101300 METAR MRPV 101300Z 11012KT CAVOK 20/08 A3004 NOSIG=
201704101400 METAR MRPV 101400Z 11012KT CAVOK 22/09 A3006 NOSIG=
201704101500 METAR MRPV 101500Z 09014G24KT CAVOK 24/09 A3006 NOSIG=
201704101600 METAR MRPV 101600Z 07012KT CAVOK 25/08 A3004 NOSIG=
201704101700 METAR MRPV 101700Z 07011KT CAVOK 27/08 A3003 NOSIG=
201704101800 METAR MRPV 101800Z 09012G23KT CAVOK 27/10 A3000 NOSIG=
201704101900 METAR MRPV 101900Z 07012KT CAVOK 27/11 A2998 NOSIG=
201704102000 METAR MRPV 102000Z 07017KT 9999 FEW040 BKN200 27/12 A2996 NOSIG=
201704102100 METAR MRPV 102100Z 08016KT 9999 FEW040 BKN200 27/12 A2996 NOSIG=
201704102200 METAR MRPV 102200Z 07016KT 9999 FEW040 SCT250 26/14 A2994 NOSIG=
201704102300 METAR MRPV 102300Z 08012KT 9999 FEW040 SCT250 23/13 A2995 NOSIG=
201704110000 METAR MRPV 110000Z 08013KT 9999 FEW040 SCT250 22/15 A2998 NOSIG=
201704110100 METAR MRPV NIL=
201704110200 METAR MRPV NIL=
201704110300 METAR MRPV NIL=
201704110400 METAR MRPV NIL=
201704110500 METAR MRPV NIL=
201704110600 METAR MRPV NIL=
201704110700 METAR MRPV NIL=
201704110800 METAR MRPV NIL=
201704110900 METAR MRPV NIL=
201704111000 METAR MRPV NIL=
201704111100 METAR MRPV NIL=
201704111200 METAR MRPV 111200Z 11008KT CAVOK 19/12 A3002 NOSIG=
201704111300 METAR MRPV 111300Z 10011KT CAVOK 22/12 A3004 NOSIG=
201704111400 METAR MRPV 111400Z 07015KT CAVOK 24/12 A3005 NOSIG=
201704111500 METAR MRPV 111500Z 07013KT CAVOK 25/11 A3005 NOSIG=
201704111600 METAR MRPV 111600Z 06015KT CAVOK 25/11 A3004 NOSIG=
201704111700 METAR MRPV 111700Z 06014KT CAVOK 26/13 A3004 NOSIG=
201704111800 METAR MRPV 111800Z 07013KT 9999 FEW045 SCT250 27/13 A3001 NOSIG=
201704111900 METAR MRPV 111900Z 07016KT 9999 FEW045 27/13 A2998 NOSIG=
201704112000 METAR MRPV 112000Z 07017KT 9999 FEW045 27/13 A2995 NOSIG=
201704112100 METAR MRPV 112100Z 08017KT 9999 FEW045 26/13 A2993 NOSIG=
201704112200 METAR MRPV 112200Z 07017KT 9999 FEW045 25/12 A2994 NOSIG=
201704112300 METAR MRPV 112300Z 07014KT 9999 FEW040 24/13 A2995 NOSIG=
201704120000 METAR MRPV 120000Z 09013KT 9999 FEW040 22/13 A2998 NOSIG=
201704120100 METAR MRPV NIL=
201704120200 METAR MRPV NIL=
201704120300 METAR MRPV NIL=
201704120400 METAR MRPV NIL=
201704120500 METAR MRPV NIL=
201704120600 METAR MRPV NIL=
201704120700 METAR MRPV NIL=
201704120800 METAR MRPV NIL=
201704120900 METAR MRPV NIL=
201704121000 METAR MRPV NIL=
201704121100 METAR MRPV NIL=
201704121200 METAR MRPV 121200Z 13007KT CAVOK 19/12 A3000 NOSIG=
201704121300 METAR MRPV 121300Z 10009KT CAVOK 21/12 A3002 NOSIG=
201704121400 METAR MRPV 121400Z 08015KT CAVOK 23/11 A3003 NOSIG=
201704121500 METAR MRPV 121500Z 07016KT CAVOK 25/11 A3003 NOSIG=
201704121600 METAR MRPV 121600Z 06013KT CAVOK 26/12 A3002 NOSIG=
201704121700 METAR MRPV 121700Z 07012KT CAVOK 27/13 A3001 NOSIG=
201704121800 METAR MRPV 121800Z 07012KT CAVOK 27/13 A2998 NOSIG=
201704121900 METAR MRPV 121900Z 07013KT 9999 FEW045 SCT200 28/13 A2996 NOSIG=
201704122000 METAR MRPV 122000Z 07015KT 9999 FEW035 SCT200 28/13 A2993 NOSIG=
201704122100 METAR MRPV 122100Z 08015KT 9999 FEW035 SCT200 27/14 A2993 NOSIG=
201704122200 METAR MRPV 122200Z 08019KT 9999 FEW035 SCT200 26/14 A2993 NOSIG=
201704122300 METAR MRPV 122300Z 08015KT 9999 FEW035 BKN200 23/15 A2995 NOSIG=
201704130000 METAR MRPV 130000Z 08015KT 9999 FEW035 BKN200 22/15 A2997 NOSIG=
201704130100 METAR MRPV NIL=
201704130200 METAR MRPV NIL=
201704130300 METAR MRPV NIL=
201704130400 METAR MRPV NIL=
201704130500 METAR MRPV NIL=
201704130600 METAR MRPV NIL=
201704130700 METAR MRPV NIL=
201704130800 METAR MRPV NIL=
201704130900 METAR MRPV NIL=
201704131000 METAR MRPV NIL=
201704131100 METAR MRPV NIL=
201704131200 METAR MRPV 131200Z 10011KT CAVOK 20/14 A3000 NOSIG=
201704131300 METAR MRPV 131300Z 10011KT CAVOK 21/14 A3001 NOSIG=
201704131400 METAR MRPV 131400Z 09016KT CAVOK 23/13 A3002 NOSIG=
201704131500 METAR MRPV 131500Z 07015KT 9999 FEW045 24/14 A3002 NOSIG=
201704131600 METAR MRPV 131600Z 06013KT CAVOK 26/13 A3001 NOSIG=
201704131700 METAR MRPV 131700Z 06015KT CAVOK 26/14 A3000 NOSIG=
201704131800 METAR MRPV 131800Z 07015KT CAVOK 28/14 A2998 NOSIG=
201704131900 METAR MRPV 131900Z COR 07017KT 9999 FEW025TCU FEW040 27/15 A2996 NOSIG=
201704132000 METAR MRPV 132000Z 07016KT 9999 FEW025 27/15 A2993 NOSIG=
201704132100 METAR MRPV 132100Z 08014KT 9999 FEW035 27/15 A2991 NOSIG=
201704132200 METAR MRPV 132200Z 08014KT 9999 FEW030 SCT080 26/16 A2991 NOSIG=
201704132300 METAR MRPV 132300Z 07014KT 9999 SCT030 SCT080 24/15 A2994 NOSIG=
201704140000 METAR MRPV 140000Z 08018KT 9999 SCT025 SCT080 22/16 A2996 NOSIG=
201704140100 METAR MRPV NIL=
201704140200 METAR MRPV NIL=
201704140300 METAR MRPV NIL=
201704140400 METAR MRPV NIL=
201704140500 METAR MRPV NIL=
201704140600 METAR MRPV NIL=
201704140700 METAR MRPV NIL=
201704140800 METAR MRPV NIL=
201704140900 METAR MRPV NIL=
201704141000 METAR MRPV NIL=
201704141100 METAR MRPV NIL=
201704141200 METAR MRPV 141200Z 10013KT 9999 FEW025 20/15 A2999 NOSIG=
201704141300 METAR MRPV 141300Z 10012KT 9999 FEW025 22/15 A3001 NOSIG=
201704141400 METAR MRPV 141400Z 08018KT 9999 FEW030 22/15 A3002 NOSIG=
201704141500 METAR MRPV 141500Z 07019G29KT 9999 FEW030 24/15 A3002 NOSIG=
201704141600 METAR MRPV 141600Z 06017KT 9999 FEW030 25/15 A3003 NOSIG=
201704141700 METAR MRPV 141700Z 10013G23KT 9999 FEW030 SCT070 25/15 A3002 NOSIG=
201704141800 METAR MRPV 141800Z 10012KT 9999 FEW025 SCT070 24/16 A3000 NOSIG=
201704141900 METAR MRPV 141900Z 07018KT 9999 BKN025 24/16 A2998 NOSIG=
201704142000 METAR MRPV 142000Z 09016KT 9999 BKN025 23/16 A2996 NOSIG=
201704142100 METAR MRPV 142100Z 08016G26KT 9999 BKN020 22/16 A2996 NOSIG=
201704142200 METAR MRPV 142200Z 09019KT 9999 SCT020 SCT070 21/16 A2996 NOSIG=
201704142300 METAR MRPV 142300Z 10011G21KT 9999 FEW020 SCT070 21/15 A2997 NOSIG=
201704150000 METAR MRPV 150000Z 09013KT 9999 FEW030 21/14 A2998 NOSIG=
201704150100 METAR MRPV NIL=
201704150200 METAR MRPV NIL=
201704150300 METAR MRPV NIL=
201704150400 METAR MRPV NIL=
201704150500 METAR MRPV NIL=
201704150600 METAR MRPV NIL=
201704150700 METAR MRPV NIL=
201704150800 METAR MRPV NIL=
201704150900 METAR MRPV NIL=
201704151000 METAR MRPV NIL=
201704151100 METAR MRPV NIL=
201704151200 METAR MRPV 151200Z 08017KT 9999 FEW030 20/14 A2998 NOSIG=
201704151300 METAR MRPV 151300Z 10011KT 9999 FEW030 21/15 A3001 NOSIG=
201704151400 METAR MRPV 151400Z 08016KT 9999 FEW035 23/15 A3003 NOSIG=
201704151500 METAR MRPV 151500Z 07016KT 9999 FEW030 24/15 A3003 NOSIG=
201704151600 METAR MRPV 151600Z 07016G26KT 9999 FEW030 25/15 A3003 NOSIG=
201704151700 METAR MRPV 151700Z 07017KT 9999 FEW035 27/15 A3001 NOSIG=
201704151800 METAR MRPV 151800Z 08017KT 9999 FEW035 27/16 A2999 NOSIG=
201704151900 METAR MRPV 151900Z 07019G30KT 9999 FEW020TCU FEW030 26/16 A2997 NOSIG=
201704152000 METAR MRPV 152000Z 07017KT 9999 FEW030 27/16 A2994 NOSIG=
201704152100 METAR MRPV 152100Z 07016G26KT 9999 FEW030 26/16 A2993 NOSIG=
201704152200 METAR MRPV 152200Z 08019KT 9999 BKN030 24/16 A2994 NOSIG=
201704152300 METAR MRPV 152300Z 09017KT 9999 SCT025 24/16 A2994 NOSIG=
201704160000 METAR MRPV 160000Z 09015KT 9999 FEW030 SCT070 22/16 A2997 NOSIG=
201704160100 METAR MRPV NIL=
201704160200 METAR MRPV NIL=
201704160300 METAR MRPV NIL=
201704160400 METAR MRPV NIL=
201704160500 METAR MRPV NIL=
201704160600 METAR MRPV NIL=
201704160700 METAR MRPV NIL=
201704160800 METAR MRPV NIL=
201704160900 METAR MRPV NIL=
201704161000 METAR MRPV NIL=
201704161100 METAR MRPV NIL=
201704161200 METAR MRPV 161200Z 11014KT 9999 FEW025 21/15 A3000 NOSIG=
201704161300 METAR MRPV 161300Z 10014KT 9999 FEW025 22/15 A3002 NOSIG=
201704161400 METAR MRPV 161400Z 08020KT 9999 FEW025 22/15 A3005 NOSIG=
201704161500 METAR MRPV 161500Z 10016KT 9999 FEW025 24/16 A3005 NOSIG=
201704161600 METAR MRPV 161600Z 09019KT 9999 FEW030 SCT250 24/16 A3004 NOSIG=
201704161700 METAR MRPV 161700Z 07019KT 9999 SCT030 SCT250 25/16 A3003 NOSIG=
201704161800 METAR MRPV 161800Z 08014KT 9999 FEW025 BKN250 25/16 A3002 NOSIG=
201704161900 METAR MRPV 161900Z 08015KT 9999 FEW030 BKN200 26/15 A3000 NOSIG=
201704162000 METAR MRPV 162000Z 08014KT 9999 FEW035 BKN200 26/16 A2998 NOSIG=
201704162100 METAR MRPV 162100Z 08013KT 9999 FEW035 BKN200 27/16 A2996 NOSIG=
201704162200 METAR MRPV 162200Z 09011KT 9999 FEW020TCU FEW035 BKN200 24/16 A2997 NOSIG=
201704162300 METAR MRPV 162300Z 10013KT 9999 FEW035 BKN080 23/16 A2998 NOSIG=
201704162356 METAR MRPV 170000Z 10008KT 9999 FEW025 BKN080 23/16 A3001 NOSIG=
201704170000 METAR MRPV 170000Z 10008KT 9999 FEW025 BKN080 23/16 A3001 NOSIG=
201704170100 METAR MRPV NIL=
201704170200 METAR MRPV NIL=
201704170300 METAR MRPV NIL=
201704170400 METAR MRPV NIL=
201704170500 METAR MRPV NIL=
201704170600 METAR MRPV NIL=
201704170700 METAR MRPV NIL=
201704170800 METAR MRPV NIL=
201704170900 METAR MRPV NIL=
201704171000 METAR MRPV NIL=
201704171100 METAR MRPV NIL=
201704171200 METAR MRPV 171200Z 13007KT 9999 FEW030 20/15 A3001 NOSIG=
201704171300 METAR MRPV 171300Z 11010KT 9999 FEW030 23/15 A3004 NOSIG=
201704171400 METAR MRPV 171400Z 07015KT 9999 FEW035 24/15 A3005 NOSIG=
201704171500 METAR MRPV 171500Z 08016KT 9999 FEW035 25/15 A3006 NOSIG=
201704171600 METAR MRPV 171600Z 07017KT 9999 FEW040 26/16 A3004 NOSIG=
201704171700 METAR MRPV 171700Z 07017KT 9999 FEW035 27/16 A3003 NOSIG=
201704171800 METAR MRPV 171800Z 08014KT 9999 FEW035 28/16 A3000 NOSIG=
201704171900 METAR MRPV 171900Z 06014KT 9999 FEW045 28/16 A2997 NOSIG=
201704172000 METAR MRPV 172000Z 07016KT 9999 FEW035 SCT060 29/16 A2993 NOSIG=
201704172100 METAR MRPV 172100Z 09016KT 9999 RA VCTS VCSH SCT025CB BKN040 26/16 A2993 NOSIG=
201704172200 METAR MRPV 172200Z 09010KT 9999 -RA VCTS FEW020CB BKN100 23/17 A2996 NOSIG=
201704172300 METAR MRPV 172300Z 11007KT 9999 -DZ FEW035 BKN100 22/17 A2998 NOSIG=
201704172356 METAR MRPV 180000Z 11008KT 9999 SCT030 BKN200 22/17 A3000 NOSIG=
201704180000 METAR MRPV 180000Z 11008KT 9999 SCT030 BKN200 22/17 A3000 NOSIG=
201704180100 METAR MRPV NIL=
201704180200 METAR MRPV NIL=
201704180300 METAR MRPV NIL=
201704180400 METAR MRPV NIL=
201704180500 METAR MRPV NIL=
201704180600 METAR MRPV NIL=
201704180700 METAR MRPV NIL=
201704180800 METAR MRPV NIL=
201704180900 METAR MRPV NIL=
201704181000 METAR MRPV NIL=
201704181100 METAR MRPV NIL=
201704181200 METAR MRPV 181200Z 14005KT CAVOK 21/14 A3002 NOSIG=
201704181300 METAR MRPV 181300Z 11008KT CAVOK 23/14 A3005 NOSIG=
201704181400 METAR MRPV 181400Z 09009KT CAVOK 26/14 A3005 NOSIG=
201704181500 METAR MRPV 181500Z 09008KT 9999 FEW040 SCT300 27/14 A3005 NOSIG=
201704181600 METAR MRPV 181600Z 25005KT 9999 SCT045 28/15 A3004 NOSIG=
201704181700 METAR MRPV 181700Z 28008KT 9999 SCT045 27/16 A3002 NOSIG=
201704181800 METAR MRPV 181800Z 28013KT 9999 FEW040 BKN150 27/16 A3001 NOSIG=
201704181900 METAR MRPV 181900Z 29012KT 9999 SCT030TCU SCT120 28/16 A2999 NOSIG=
201704182000 METAR MRPV 182000Z 25008KT 9999 FEW025TCU FEW030 28/17 A2996 NOSIG=
201704182100 METAR MRPV 182100Z COR 26008KT 9999 -SHRA SCT025TCU FEW030 27/17 A2996 NOSIG=
201704182200 METAR MRPV 182200Z COR 28005KT 9999 RA VCSH FEW025TCU FEW035 SCT080 24/19 A2996 RESHRA NOSIG=
201704182300 METAR MRPV 182300Z COR 33003KT 9999 VCTS FEW025CB BKN075 22/16 A2998 RERA NOSIG=
201704190000 METAR MRPV 190000Z 26001KT 4000 RA FEW025 BKN085 22/18 A3000 NOSIG=
201704190100 METAR MRPV NIL=
201704190200 METAR MRPV NIL=
201704190300 METAR MRPV NIL=
201704190400 METAR MRPV NIL=
201704190500 METAR MRPV NIL=
201704190600 METAR MRPV NIL=
201704190700 METAR MRPV NIL=
201704190800 METAR MRPV NIL=
201704190900 METAR MRPV NIL=
201704191000 METAR MRPV NIL=
201704191100 METAR MRPV NIL=
201704191200 METAR MRPV 191200Z 09003KT CAVOK 21/16 A3002 NOSIG=
201704191300 METAR MRPV 191300Z 12005KT CAVOK 23/16 A3004 NOSIG=
201704191400 METAR MRPV 191400Z 08009KT CAVOK 25/16 A3004 NOSIG=
201704191500 METAR MRPV 191500Z 10007KT 9999 FEW045 27/15 A3005 NOSIG=
201704191600 METAR MRPV 191600Z 30002KT 9999 SCT045 28/14 A3004 NOSIG=
201704191700 METAR MRPV 191700Z 28010KT 9999 FEW040 SCT250 28/17 A3003 NOSIG=
201704191800 METAR MRPV 191800Z 28012KT 9999 VCSH SCT025CB FEW040 BKN250 28/18 A3000 TEMPO SHRA=
201704191808 METAR MRPV 191808Z 28009KT 9999 4500E -TSRA SCT025CB FEW040 BKN250 28/18 A3000 NOSIG=
201704191850 METAR MRPV 191850Z 07011KT 9999 3000N -TSRA SCT025CB BKN045 23/17 A3000 NOSIG=
201704191900 METAR MRPV 191900Z 03008KT 9999 2000N -TSRA SCT025CB BKN040 23/16 A2999 NOSIG=
201704192000 METAR MRPV 192000Z 14003KT 2000 -TSRA BKN020CB 18/17 A3000 NOSIG=
201704192100 METAR MRPV 192100Z 13006KT 9999 FEW010 SCT025 BKN060 20/17 A2998 RERA NOSIG=
201704192200 METAR MRPV 192200Z 10005KT 8000 -RA BKN025 19/17 A3000 NOSIG=
201704192300 METAR MRPV 192300Z 11006KT 9999 -RA FEW010 SCT025 BKN100 19/17 A3001 NOSIG=
201704200000 METAR MRPV 200000Z COR 11008KT 9999 RA SCT025 BKN100 20/17 A3003 NOSIG=
201704200100 METAR MRPV NIL=
201704200200 METAR MRPV NIL=
201704200300 METAR MRPV NIL=
201704200400 METAR MRPV NIL=
201704200500 METAR MRPV NIL=
201704200600 METAR MRPV NIL=
201704200700 METAR MRPV NIL=
201704200800 METAR MRPV NIL=
201704200900 METAR MRPV NIL=
201704201000 METAR MRPV NIL=
201704201100 METAR MRPV NIL=
201704201200 METAR MRPV 201200Z 08005KT 9999 BKN035 19/17 A3005 NOSIG=
201704201300 METAR MRPV 201300Z 09003KT 9999 SCT035 BKN070 20/17 A3007 NOSIG=
201704201400 METAR MRPV 201400Z 12004KT 9999 FEW035 BKN070 22/16 A3008 NOSIG=
201704201500 METAR MRPV 201500Z 06002KT 9999 FEW035 SCT160 BKN200 27/15 A3007 NOSIG=
201704201600 METAR MRPV 201600Z 27008KT 9999 FEW045 BKN200 26/17 A3006 NOSIG=
201704201700 METAR MRPV 201700Z 27010KT 9999 FEW040 BKN200 26/17 A3006 NOSIG=
201704201800 METAR MRPV 201800Z 28012KT 9999 SCT035 BKN200 26/18 A3004 NOSIG=
201704201900 METAR MRPV 201900Z 29012KT 9999 FEW030 BKN200 26/17 A3001 NOSIG=
201704202000 METAR MRPV 202000Z 28011KT 9999 FEW030 BKN200 25/18 A2999 NOSIG=
201704202100 METAR MRPV 202100Z 27010KT 9999 FEW030 BKN200 25/18 A2998 NOSIG=
201704202200 METAR MRPV 202200Z 25005KT 9999 FEW030 BKN200 24/18 A2997 NOSIG=
201704202300 METAR MRPV 202300Z 29006KT 9999 FEW025 SCT140 BKN200 23/18 A2998 NOSIG=
201704210000 METAR MRPV 210000Z 29011KT 8000 FEW010 SCT020 21/18 A3001 TEMPO 5000 BR=
201704210100 METAR MRPV NIL=
201704210200 METAR MRPV NIL=
201704210300 METAR MRPV NIL=
201704210400 METAR MRPV NIL=
201704210500 METAR MRPV NIL=
201704210600 METAR MRPV NIL=
201704210700 METAR MRPV NIL=
201704210800 METAR MRPV NIL=
201704210900 METAR MRPV NIL=
201704211000 METAR MRPV NIL=
201704211100 METAR MRPV NIL=
201704211200 METAR MRPV 211200Z 02001KT 8000 FEW035 BKN200 18/15 A3002 NOSIG=
201704211300 METAR MRPV 211300Z 11005KT 9999 FEW035 BKN200 22/15 A3003 NOSIG=
201704211400 METAR MRPV 211400Z 13005KT 9999 FEW045 BKN200 25/15 A3005 NOSIG=
201704211500 METAR MRPV 211500Z 10007KT 9999 FEW035 BKN200 27/14 A3004 NOSIG=
201704211600 METAR MRPV 211600Z 32003KT 9999 FEW035 BKN200 28/13 A3003 BECMG 27008KT=
201704211700 METAR MRPV 211700Z 26009KT 9999 FEW045 BKN200 27/18 A3002 NOSIG=
201704211800 METAR MRPV 211800Z 28007KT 9999 FEW040 BKN200 27/17 A2998 NOSIG=
201704211900 METAR MRPV 211900Z 28009KT 9999 FEW035 BKN250 28/17 A2995 NOSIG=
201704212000 METAR MRPV 212000Z 26009KT 9999 FEW035 BKN250 28/18 A2992 NOSIG=
201704212100 METAR MRPV 212100Z 26009KT 9999 FEW035 BKN300 28/18 A2991 NOSIG=
201704212200 METAR MRPV 212200Z 25007KT 9999 FEW020TCU FEW035 SCT300 27/18 A2991 NOSIG=
201704212300 METAR MRPV 212300Z 29009KT 9999 FEW040 SCT250 26/18 A2992 NOSIG=
201704220000 METAR MRPV 220000Z 29008KT 9999 FEW035 BKN250 23/19 A2996 NOSIG=
201704220100 METAR MRPV NIL=
201704220200 METAR MRPV NIL=
201704220300 METAR MRPV NIL=
201704220400 METAR MRPV NIL=
201704220500 METAR MRPV NIL=
201704220600 METAR MRPV NIL=
201704220700 METAR MRPV NIL=
201704220800 METAR MRPV NIL=
201704220900 METAR MRPV NIL=
201704221000 METAR MRPV NIL=
201704221100 METAR MRPV NIL=
201704221200 METAR MRPV 221200Z 07001KT CAVOK 19/16 A2999 NOSIG=
201704221300 METAR MRPV 221300Z 05005KT CAVOK 23/16 A3001 NOSIG=
201704221400 METAR MRPV 221400Z 28003KT 9000 FEW035 BKN250 25/16 A3003 NOSIG=
201704221500 METAR MRPV 221500Z 28006KT 9999 FEW035 BKN300 26/17 A3002 NOSIG=
201704221600 METAR MRPV 221600Z 27008KT 9999 FEW035 BKN300 27/17 A3002 NOSIG=
201704221700 METAR MRPV 221700Z 28009KT 9999 FEW035 BKN300 28/18 A3000 NOSIG=
201704221800 METAR MRPV 221800Z 27009KT 9999 SCT035 BKN300 28/18 A2998 NOSIG=
201704221900 METAR MRPV 221900Z 25008KT 9999 SCT035 28/18 A2994 NOSIG=
201704222000 METAR MRPV 222000Z 26008KT 9999 FEW035 28/19 A2992 NOSIG=
201704222100 METAR MRPV 222100Z 25008KT 9999 FEW035 28/18 A2992 NOSIG=
201704222200 METAR MRPV 222200Z 26008KT 9999 SCT035 27/19 A2991 NOSIG=
201704222300 METAR MRPV 222300Z 27011KT 9000 FEW030 BKN120 24/20 A2993 NOSIG=
201704230000 METAR MRPV 230000Z 29010KT 7000 SCT010 SCT040 23/20 A2995 NOSIG=
201704230100 METAR MRPV NIL=
201704230200 METAR MRPV NIL=
201704230300 METAR MRPV NIL=
201704230400 METAR MRPV NIL=
201704230500 METAR MRPV NIL=
201704230600 METAR MRPV NIL=
201704230700 METAR MRPV NIL=
201704230800 METAR MRPV NIL=
201704230900 METAR MRPV NIL=
201704231000 METAR MRPV NIL=
201704231100 METAR MRPV NIL=
201704231200 METAR MRPV 231200Z 07004KT 9999 FEW040 BKN200 20/17 A2999 NOSIG=
201704231300 METAR MRPV 231300Z 33001KT 8000 FEW045 BKN200 22/17 A3002 NOSIG=
201704231400 METAR MRPV 231400Z 11005KT 8000 FEW045 BKN200 26/16 A3002 NOSIG=
201704231500 METAR MRPV 231500Z 10004KT 9999 FEW040 BKN200 28/15 A3002 NOSIG=
201704231600 METAR MRPV 231600Z 27006KT 9999 SCT040 BKN250 27/18 A3001 NOSIG=
201704231700 METAR MRPV 231700Z 28008KT 9999 FEW040 BKN250 27/18 A3000 NOSIG=
201704231800 METAR MRPV 231800Z 28012KT 9000 FEW035 BKN300 28/18 A2997 NOSIG=
201704231900 METAR MRPV 231900Z 28015KT 9000 FEW040 28/19 A2994 NOSIG=
201704232000 METAR MRPV 232000Z 26008KT 8000 SCT030TCU 29/18 A2992 NOSIG=
201704232100 METAR MRPV 232100Z 33009KT 9999 SCT020CB BKN040 26/16 A2992 NOSIG=
201704232200 METAR MRPV 232200Z 24004KT 4000 TSRA SCT015CB BKN040 22/19 A2993 NOSIG=
201704232300 METAR MRPV 232300Z 13001KT 9999 RA VCTS FEW025CB BKN040 21/17 A2996 NOSIG=
201704240000 METAR MRPV 240000Z 06004KT 9999 FEW015 BKN040 21/16 A2997 NOSIG=
201704240100 METAR MRPV NIL=
201704240200 METAR MRPV NIL=
201704240300 METAR MRPV NIL=
201704240400 METAR MRPV NIL=
201704240500 METAR MRPV NIL=
201704240600 METAR MRPV NIL=
201704240700 METAR MRPV NIL=
201704240800 METAR MRPV NIL=
201704240900 METAR MRPV NIL=
201704241000 METAR MRPV NIL=
201704241100 METAR MRPV NIL=
201704241200 METAR MRPV 241200Z 12007KT CAVOK 21/14 A3000 NOSIG=
201704241300 METAR MRPV 241300Z 14006KT 9999 FEW045 SCT200 23/15 A3002 NOSIG=
201704241400 METAR MRPV 241400Z 10010KT 9999 FEW045 SCT250 25/14 A3003 NOSIG=
201704241500 METAR MRPV 241500Z 08014KT 9999 FEW045 SCT250 27/15 A3003 NOSIG=
201704241600 METAR MRPV 241600Z 08009KT 9999 FEW045 SCT250 28/15 A3002 NOSIG=
201704241700 METAR MRPV 241700Z 07009KT 9999 FEW045 SCT250 29/14 A3000 NOSIG=
201704241800 METAR MRPV 241800Z 09006KT 9999 FEW040 30/15 A2998 NOSIG=
201704241900 METAR MRPV 241900Z 24005G16KT 9999 FEW040 28/18 A2994 NOSIG=
201704242000 METAR MRPV 242000Z 32006KT 5000 SHRA SCT025TCU FEW040 24/19 A2994 NOSIG=
201704242100 METAR MRPV 242100Z 29011KT 5000 2000NW RA BR VCTS BKN010 SCT020CB 24/21 A2994 NOSIG=
201704242200 METAR MRPV 242200Z 06004KT 4500 -RA BR BKN012 SCT020 22/19 A2995 RESHRA NOSIG=
201704242300 METAR MRPV 242300Z 31003KT 3000 RA BR BKN010 21/20 A2997 NOSIG=
201704250000 METAR MRPV 250000Z 09005KT 6000 -RA BCFG BKN020 21/17 A3000 NOSIG=
201704250100 METAR MRPV NIL=
201704250200 METAR MRPV NIL=
201704250300 METAR MRPV NIL=
201704250400 METAR MRPV NIL=
201704250500 METAR MRPV NIL=
201704250600 METAR MRPV NIL=
201704250700 METAR MRPV NIL=
201704250800 METAR MRPV NIL=
201704250900 METAR MRPV NIL=
201704251000 METAR MRPV NIL=
201704251100 METAR MRPV NIL=
201704251200 METAR MRPV 251200Z 12008KT CAVOK 21/15 A2999 NOSIG=
201704251300 METAR MRPV 251300Z 11008KT CAVOK 23/14 A3002 NOSIG=
201704251400 METAR MRPV 251400Z 11007KT CAVOK 25/14 A3004 NOSIG=
201704251500 METAR MRPV 251500Z 08010KT CAVOK 27/14 A3004 NOSIG=
201704251600 METAR MRPV 251600Z 07006KT 9999 FEW040 28/14 A3004 NOSIG=
201704251700 METAR MRPV 251700Z 27008KT 9999 SCT035 SCT250 27/18 A3003 NOSIG=
201704251800 METAR MRPV 251800Z 28009KT 9999 BKN035 26/18 A3001 NOSIG=
201704251900 METAR MRPV 251900Z 28009KT 9999 RA BKN035 27/18 A2998 NOSIG=
201704252000 METAR MRPV 252000Z 25005KT 3000 -RA VCTS SCT025CB SCT070 25/19 A2996 RESHRA NOSIG=
201704252100 METAR MRPV 252100Z 32004KT 5000 -RA SCT015 BKN070 22/18 A2998 NOSIG=
201704252200 METAR MRPV 252200Z COR 29007KT 5000 -RA BCFG FEW010 BKN035 22/19 A2996 NOSIG=
201704252300 METAR MRPV 252300Z 35002KT 5000 BR FEW010 BKN100 23/18 A2997 RERA NOSIG=
201704260000 METAR MRPV 260000Z COR 28004KT 5000 BR FEW010 BKN035 22/18 A2999 NOSIG=
201704260100 METAR MRPV NIL=
201704260200 METAR MRPV NIL=
201704260300 METAR MRPV NIL=
201704260400 METAR MRPV NIL=
201704260500 METAR MRPV NIL=
201704260600 METAR MRPV NIL=
201704260700 METAR MRPV NIL=
201704260800 METAR MRPV NIL=
201704260900 METAR MRPV NIL=
201704261000 METAR MRPV NIL=
201704261100 METAR MRPV NIL=
201704261200 METAR MRPV 261200Z 07003KT 5000 BR NSC 19/17 A2999 NOSIG=
201704261300 METAR MRPV 261300Z 09002KT 4500 BR NSC 21/17 A3000 NOSIG=
201704261400 METAR MRPV 261400Z 03001KT 5000 HZ FEW030 BKN200 24/17 A3002 TEMPO 32003KT=
201704261500 METAR MRPV 261500Z 25004KT 5000 HZ FEW030 BKN250 25/17 A3002 NOSIG=
201704261600 METAR MRPV 261600Z 33003KT 5000 HZ FEW030 BKN250 27/17 A3001 NOSIG=
201704261700 METAR MRPV 261700Z 27008KT 5000 HZ FEW030 BKN250 27/17 A2999 NOSIG=
201704261800 METAR MRPV 261800Z 28009KT 5000 HZ SCT030 BKN250 28/18 A2997 NOSIG=
201704261900 METAR MRPV 261900Z COR 27014KT 5000 HZ VCTS FEW030CB BKN250 27/18 A2995 NOSIG=
201704262000 METAR MRPV 262000Z COR 24006KT 3000 HZ -SHRA SCT025TCU BKN080 24/19 A2996 NOSIG=
201704262100 METAR MRPV 262100Z 28005KT 5000 HZ SCT030 BKN100 24/18 A2993 RESHRA NOSIG=
201704262200 METAR MRPV 262200Z 27006KT 3000 1000W RA BR FEW005 SCT010 BKN025 22/19 A2995 NOSIG=
201704262300 METAR MRPV 262300Z 29007KT 3000 -RA BR VCTS FEW005 BKN025 22/19 A2996 NOSIG=
201704270000 METAR MRPV 270000Z 30006KT 2000 RA BR VCTS FEW005 BKN020 21/20 A2998 NOSIG=
201704270100 METAR MRPV NIL=
201704270200 METAR MRPV NIL=
201704270300 METAR MRPV NIL=
201704270400 METAR MRPV NIL=
201704270500 METAR MRPV NIL=
201704270600 METAR MRPV NIL=
201704270700 METAR MRPV NIL=
201704270800 METAR MRPV NIL=
201704270900 METAR MRPV NIL=
201704271000 METAR MRPV NIL=
201704271100 METAR MRPV NIL=
201704271200 METAR MRPV 271200Z 11002KT 8000 NSC 19/17 A2999 NOSIG=
201704271300 METAR MRPV 271300Z 11003KT 5000 2000NW HZ NSC 21/17 A3001 NOSIG=
201704271400 METAR MRPV 271400Z 09006KT 5000 HZ FEW035 BKN200 25/16 A3002 NOSIG=
201704271500 METAR MRPV 271500Z 13003KT 7000 FEW030 SCT120 26/16 A3002 NOSIG=
201704271600 METAR MRPV 271600Z 27007KT 7000 FEW035 SCT140 25/18 A3002 NOSIG=
201704271700 METAR MRPV 271700Z 34004KT 270V340 5000 HZ FEW035 BKN200 28/17 A3000 NOSIG=
201704271800 METAR MRPV 271800Z 27009KT 5000 HZ SCT035 BKN200 27/18 A2999 NOSIG=
201704271900 METAR MRPV 271900Z 28012KT 7000 SCT035 BKN200 27/19 A2995 NOSIG=
201704272000 METAR MRPV 272000Z 27009KT 7000 FEW035 BKN200 28/19 A2992 NOSIG=
201704272100 METAR MRPV 272100Z 29011KT 4000 RA VCTS FEW025CB FEW030 BKN200 25/21 A2993 NOSIG=
201704272200 METAR MRPV 272200Z 33005KT 4500 -RA FEW010 SCT020 BKN200 22/19 A2992 BECMG 5000=
201704272300 METAR MRPV 272300Z 30003KT 4000 BR FEW010 BKN020 22/21 A2993 NOSIG=
201704280000 METAR MRPV 280000Z 00000KT 3000 BR FEW007 BKN015 23/21 A2995 NOSIG=
201704280100 METAR MRPV NIL=
201704280200 METAR MRPV NIL=
201704280300 METAR MRPV NIL=
201704280400 METAR MRPV NIL=
201704280500 METAR MRPV NIL=
201704280600 METAR MRPV NIL=
201704280700 METAR MRPV NIL=
201704280800 METAR MRPV NIL=
201704280900 METAR MRPV NIL=
201704281000 METAR MRPV NIL=
201704281100 METAR MRPV NIL=
201704281200 METAR MRPV 281200Z 14007KT CAVOK 20/15 A2999 NOSIG=
201704281300 METAR MRPV 281300Z 11006KT CAVOK 22/15 A3001 NOSIG=
201704281400 METAR MRPV 281400Z 12009KT CAVOK 24/15 A3001 NOSIG=
201704281500 METAR MRPV 281500Z 08010KT CAVOK 26/15 A3000 NOSIG=
201704281600 METAR MRPV 281600Z 07008KT 9999 FEW045 BKN200 29/15 A3000 NOSIG=
201704281700 METAR MRPV 281700Z 08006KT 9999 FEW045 BKN200 29/15 A2997 NOSIG=
201704281800 METAR MRPV 281800Z 10003KT 9999 FEW045 BKN200 30/15 A2995 BECMG 26008KT=
201704281900 METAR MRPV 281900Z 26006KT 9999 FEW040 BKN200 28/19 A2993 NOSIG=
201704282000 METAR MRPV 282000Z 28012KT 9999 SCT040 BKN200 29/20 A2992 NOSIG=
201704282100 METAR MRPV 282100Z 27014KT 9999 -TSRA FEW020CB SCT035 SCT200 25/20 A2992 RESHRA TEMPO 5000=
201704282200 METAR MRPV 282200Z 30008KT 3000 -RA BR SCT005 BKN010 23/21 A2994 NOSIG=
201704282300 METAR MRPV 282300Z 27007KT 4500 BR SCT007 SCT020 22/21 A2996 BECMG 5000=
201704290000 METAR MRPV 290000Z 27003KT 4000 BR FEW007 BKN015 22/20 A2998 NOSIG=
201704290100 METAR MRPV NIL=
201704290200 METAR MRPV NIL=
201704290300 METAR MRPV NIL=
201704290400 METAR MRPV NIL=
201704290500 METAR MRPV NIL=
201704290600 METAR MRPV NIL=
201704290700 METAR MRPV NIL=
201704290800 METAR MRPV NIL=
201704290900 METAR MRPV NIL=
201704291000 METAR MRPV NIL=
201704291100 METAR MRPV NIL=
201704291200 METAR MRPV NIL=
201704291300 METAR MRPV NIL=
201704291400 METAR MRPV 291400Z 08013KT 9999 FEW035 BKN250 25/17 A3004 NOSIG=
201704291500 METAR MRPV 291500Z 07016KT CAVOK 26/16 A3003 NOSIG=
201704291600 METAR MRPV 291600Z 07014KT 9999 FEW045 BKN250 26/16 A3003 NOSIG=
201704291700 METAR MRPV 291700Z 07015KT 9999 FEW040 BKN250 27/17 A3001 NOSIG=
201704291800 METAR MRPV 291800Z 07014KT 9999 FEW040 BKN250 28/17 A2999 NOSIG=
201704291900 METAR MRPV 291900Z 07010KT 9999 SCT040 29/17 A2996 NOSIG=
201704292000 METAR MRPV 292000Z 08009KT 9999 VCTS FEW025CB SCT040 SCT100 28/17 A2995 NOSIG=
201704292100 METAR MRPV 292100Z 28004KT 9999 4000W BCFG FEW002 SCT035 BKN120 22/17 A2996 RESHRA BECMG 5000 BR BKN010=
201704292200 METAR MRPV 292200Z 28007KT 7000 RA VCFG BKN030 SCT120 22/19 A2997 NOSIG=
201704292300 METAR MRPV 292300Z 12003KT 4000 1500E +RA BR BKN020 21/19 A3001 NOSIG=
201704300000 METAR MRPV 300000Z 19002KT 9999 -DZ BKN035 21/19 A3003 RERA NOSIG=
201704300100 METAR MRPV NIL=
201704300200 METAR MRPV NIL=
201704300300 METAR MRPV NIL=
201704300400 METAR MRPV NIL=
201704300500 METAR MRPV NIL=
201704300600 METAR MRPV NIL=
201704300700 METAR MRPV NIL=
201704300800 METAR MRPV NIL=
201704300900 METAR MRPV NIL=
201704301000 METAR MRPV NIL=
201704301100 METAR MRPV NIL=
201704301200 METAR MRPV 301200Z 13006KT CAVOK 22/16 A3002 NOSIG=
201704301300 METAR MRPV 301300Z 12009KT CAVOK 23/16 A3004 NOSIG=
201704301400 METAR MRPV 301400Z 12009KT CAVOK 24/15 A3005 NOSIG=
201704301500 METAR MRPV 301500Z 08014KT CAVOK 26/16 A3004 NOSIG=
201704301600 METAR MRPV 301600Z 07011KT CAVOK 27/16 A3004 NOSIG=
201704301700 METAR MRPV 301700Z 08005KT 9999 FEW040 BKN200 28/15 A3002 NOSIG=
201704301800 METAR MRPV 301800Z 06005KT 9999 FEW040 SCT100 BKN200 28/15 A3001 BECMG 29005KT=
201704301900 METAR MRPV 301900Z 33004KT 9999 FEW040 SCT100 BKN200 28/18 A2999 NOSIG=
201704302000 METAR MRPV 302000Z 28011KT 9999 FEW035 SCT060 BKN200 27/19 A2997 NOSIG=
201704302100 METAR MRPV 302100Z COR 27009KT 9999 4500N SHRA SCT030TCU BKN200 26/19 A2996 NOSIG=
201704302200 METAR MRPV 302200Z 32004KT 2000 -RA FEW005 SCT035 BKN200 23/21 A2997 RESHRA NOSIG=
201704302300 METAR MRPV 302300Z COR 28002KT 2500 RA VCTS FEW015CB SCT030 SCT080 22/20 A2999 NOSIG=
201705010000 METAR MRPV 010000 04001KT 3000 BR FEW005 BKN030 21/20 A2999 RERA NOSIG=
201705010100 METAR MRPV NIL=
201705010200 METAR MRPV NIL=
201705010300 METAR MRPV NIL=
201705010400 METAR MRPV NIL=
201705010500 METAR MRPV NIL=
201705010600 METAR MRPV NIL=
201705010700 METAR MRPV NIL=
201705010800 METAR MRPV NIL=
201705010900 METAR MRPV NIL=
201705011000 METAR MRPV NIL=
201705011100 METAR MRPV NIL=
201705011200 METAR MRPV 011200Z 08006KT CAVOK 19/16 A3005 NOSIG=
201705011205 METAR MRPV 011200 08006KT CAVOK 19/16 A3005 NOSIG=
201705011300 METAR MRPV 011300Z 13006KT 9999 FEW035 BKN200 23/16 A3005 NOSIG=
201705011400 METAR MRPV 011400Z 11008KT CAVOK 25/15 A3005 NOSIG=
201705011500 METAR MRPV 011500Z 11008KT CAVOK 27/15 A3004 NOSIG=
201705011600 METAR MRPV 011600Z 10011KT 9999 FEW045 SCT250 28/14 A3004 NOSIG=
201705011700 METAR MRPV 011700Z 07008KT 9999 FEW045 SCT250 29/14 A3002 NOSIG=
201705011800 METAR MRPV 011800Z 28006KT 9999 FEW045 BKN250 28/18 A3000 NOSIG=
201705011900 METAR MRPV 011900Z 27010KT 9999 SCT035 29/20 A2997 NOSIG=
201705012000 METAR MRPV 012000Z 28014KT 9999 3000N -SHRA SCT020TCU FEW035 SCT120 25/19 A2996 BECMG 5000=
201705012100 METAR MRPV 012100Z COR 24002KT 5000 -TSRA FEW010CB SCT035 BKN080 20/18 A2997 NOSIG=
201705012200 METAR MRPV 012200Z 03003KT 9999 4500N FEW010 SCT060 BKN200 21/18 A2996 NOSIG=
201705012300 METAR MRPV 012300Z COR 13001KT 9999 4500N VCFG FEW010 BKN020 21/18 A2997 NOSIG=
201705020000 METAR MRPV 020000Z 32002KT 5000 BR FEW010 BKN030 22/19 A2998 NOSIG=
201705020100 METAR MRPV NIL=
201705020200 METAR MRPV NIL=
201705020300 METAR MRPV NIL=
201705020400 METAR MRPV NIL=
201705020500 METAR MRPV NIL=
201705020600 METAR MRPV NIL=
201705020700 METAR MRPV NIL=
201705020800 METAR MRPV NIL=
201705020900 METAR MRPV NIL=
201705021000 METAR MRPV NIL=
201705021100 METAR MRPV NIL=
201705021200 METAR MRPV NIL=
201705021300 METAR MRPV NIL=
201705021400 METAR MRPV 021400Z 12003KT 9999 FEW035 BKN200 25/16 A3007 NOSIG=
201705021500 METAR MRPV 021500Z 36004KT 9999 SCT035 BKN120 24/18 A3008 NOSIG=
201705021600 METAR MRPV 021600Z 29006KT 8000 SCT035 BKN120 24/18 A3007 NOSIG=
201705021700 METAR MRPV 021700Z 28004KT 8000 SCT035 BKN100 26/19 A3005 NOSIG=
201705021800 METAR MRPV 021800Z 08012KT 9999 FEW035 BKN100 26/16 A3002 NOSIG=
201705021900 METAR MRPV 021900Z 08016KT 9999 FEW035 SCT100 BKN200 25/17 A3001 NOSIG=
201705022000 METAR MRPV 022000Z COR 08016KT 9999 FEW035 SCT120 BKN200 25/16 A2999 NOSIG=
201705022100 METAR MRPV 022100Z 09014KT 9999 FEW040 BKN120 24/16 A2998 NOSIG=
201705022200 METAR MRPV 022200Z 09010KT 9999 FEW040 SCT070 BKN160 24/16 A2997 NOSIG=
201705022300 METAR MRPV 022300Z 10007KT CAVOK 24/15 A2996 NOSIG=
201705030000 METAR MRPV 030000Z 10005KT 9999 VCFG FEW010 BKN160 24/15 A2997 NOSIG=
201705030100 METAR MRPV NIL=
201705030200 METAR MRPV NIL=
201705030300 METAR MRPV NIL=
201705030400 METAR MRPV NIL=
201705030500 METAR MRPV NIL=
201705030600 METAR MRPV NIL=
201705030700 METAR MRPV NIL=
201705030800 METAR MRPV NIL=
201705030900 METAR MRPV NIL=
201705031000 METAR MRPV NIL=
201705031100 METAR MRPV NIL=
201705031200 METAR MRPV 031200Z 14006KT 9999 FEW035 SCT200 21/15 A3001 NOSIG=
201705031300 METAR MRPV 031300Z 14007KT 9999 FEW035 BKN200 23/15 A3003 NOSIG=
201705031400 METAR MRPV 031400Z 08010KT CAVOK 25/15 A3002 NOSIG=
201705031500 METAR MRPV 031500Z COR 08010KT 9999 FEW045 BKN200 26/16 A3003 NOSIG=
201705031600 METAR MRPV 031600Z 08009KT 9999 FEW040 SCT200 28/15 A3003 NOSIG=
201705031700 METAR MRPV 031700Z 29007KT 9999 FEW040 BKN200 28/17 A3001 NOSIG=
201705031800 METAR MRPV 031800Z 30010KT 9999 SCT035 SCT200 27/18 A2999 NOSIG=
201705031900 METAR MRPV 031900Z COR 28008KT 9999 4500N RA VCTS FEW015CB SCT030 SCT080 23/19 A2997 RETSRA NOSIG=
201705032000 METAR MRPV 032000Z COR 31005KT 9999 BCFG VCTS FEW005 SCT025CB BKN080 23/19 A2996 RETSRA NOSIG=
201705032100 METAR MRPV 032100Z 25003KT 9999 FEW010 SCT015 BKN100 23/19 A2995 NOSIG=
201705032200 METAR MRPV 032200Z 31004KT 9999 SCT030 BKN100 22/18 A2995 NOSIG=
201705032300 METAR MRPV 032300Z 30003KT 3000 BR BKN005 21/19 A2997 NOSIG=
201705040000 METAR MRPV 040000Z 00000KT 9999 BKN010 21/19 A2999 NOSIG=
201705040100 METAR MRPV NIL=
201705040200 METAR MRPV NIL=
201705040300 METAR MRPV NIL=
201705040400 METAR MRPV NIL=
201705040500 METAR MRPV NIL=
201705040600 METAR MRPV NIL=
201705040700 METAR MRPV NIL=
201705040800 METAR MRPV NIL=
201705040900 METAR MRPV NIL=
201705041000 METAR MRPV NIL=
201705041100 METAR MRPV NIL=
201705041200 METAR MRPV 041200Z 10006KT CAVOK 22/15 A2998 NOSIG=
201705041300 METAR MRPV 041300Z 11007KT CAVOK 24/14 A3000 NOSIG=
201705041400 METAR MRPV 041400Z 11007KT CAVOK 26/14 A3000 NOSIG=
201705041500 METAR MRPV 041500Z 08006KT CAVOK 27/15 A3000 NOSIG=
201705041600 METAR MRPV 041600Z 02003KT CAVOK 28/15 A2999 RMK FEW050 BKN250 BECMG 26005KT=
201705041700 METAR MRPV 041700Z 28011KT 9999 FEW040 SCT250 27/18 A2998 NOSIG=
201705041800 METAR MRPV 041800Z 27013KT 9999 BKN035 26/20 A2997 BECMG SHRA SCT025TCU=
201705041900 METAR MRPV 041900Z 24006KT 9999 VCSH SCT025CB SCT040 25/18 A2995 NOSIG=
201705042000 METAR MRPV 042000Z 26008KT 8000 -DZ BCFG SCT005 BKN100 22/20 A2994 BECMG BKN008=
201705042100 METAR MRPV 042100Z 28006KT 8000 -RA BCFG FEW005 SCT040 BKN100 22/19 A2994 RETS NOSIG=
201705042200 METAR MRPV 042200Z 27006KT 4000 -RA BR BKN002 SCT100 21/20 A2993 NOSIG=
201705042300 METAR MRPV 042300Z 30006KT 4000 1500E -RA BR BKN002 21/20 A2994 NOSIG=
201705050000 METAR MRPV 050000Z 29004KT 4000 BR BKN004 22/20 A2993 NOSIG=
201705050100 METAR MRPV NIL=
201705050200 METAR MRPV NIL=
201705050300 METAR MRPV NIL=
201705050400 METAR MRPV NIL=
201705050500 METAR MRPV NIL=
201705050600 METAR MRPV NIL=
201705050700 METAR MRPV NIL=
201705050800 METAR MRPV NIL=
201705050900 METAR MRPV NIL=
201705051000 METAR MRPV NIL=
201705051100 METAR MRPV NIL=
201705051200 METAR MRPV 051200Z 11006KT CAVOK 21/16 A2997 NOSIG=
201705051300 METAR MRPV 051300Z 08005KT CAVOK 23/17 A2996 NOSIG=
201705051400 METAR MRPV 051400Z 12007KT CAVOK 24/16 A3000 NOSIG=
201705051500 METAR MRPV 051500Z 07009KT 9999 FEW040 BKN120 27/16 A3001 NOSIG=
201705051600 METAR MRPV 051600Z 26005KT 9999 FEW045 BKN120 25/18 A3001 NOSIG=
201705051700 METAR MRPV 051700Z 27007KT 9999 FEW030 BKN100 24/18 A3001 NOSIG=
201705051800 METAR MRPV 051800Z 29008KT 9999 SCT025 BKN100 24/19 A2999 NOSIG=
201705051900 METAR MRPV 051900Z 27012KT 9999 VCSH SCT020TCU BKN100 24/19 A2996 TEMPO SHRA=
201705052000 METAR MRPV 052000Z 29005KT 4000 -TSRA SCT015CB BKN100 23/19 A2995 NOSIG=
201705052100 METAR MRPV 052100Z 32003KT 4000 -RA FEW020 BKN100 23/20 A2994 NOSIG=
201705052200 METAR MRPV 052200Z 05003KT 7000 BCFG FEW010 BKN100 22/20 A2994 NOSIG=
201705052300 METAR MRPV 052300Z 11008KT 9999 VCFG FEW003 SCT020 BKN100 22/18 A2995 NOSIG=
201705060000 METAR MRPV COR 060000Z 12008KT 9999 +DZ FEW020 BKN100 21/18 A2998 NOSIG=
201705060100 METAR MRPV NIL=
201705060200 METAR MRPV NIL=
201705060300 METAR MRPV NIL=
201705060400 METAR MRPV NIL=
201705060500 METAR MRPV NIL=
201705060600 METAR MRPV NIL=
201705060700 METAR MRPV NIL=
201705060800 METAR MRPV NIL=
201705060900 METAR MRPV NIL=
201705061000 METAR MRPV NIL=
201705061100 METAR MRPV NIL=
201705061200 METAR MRPV 061200Z 13004KT CAVOK 21/16 A3001 NOSIG=
201705061300 METAR MRPV 061300Z 14003KT CAVOK 21/16 A3003 NOSIG=
201705061400 METAR MRPV 061400Z 11008KT CAVOK 22/16 A3005 NOSIG=
201705061500 METAR MRPV 061500Z 13004KT CAVOK 24/16 A3006 NOSIG=
201705061600 METAR MRPV 061600Z 12006KT 9999 FEW040 BKN200 26/16 A3004 NOSIG=
201705061700 METAR MRPV 061700Z 25006KT 9999 SCT040 BKN200 27/17 A3003 NOSIG=
201705061800 METAR MRPV 061800Z 30009KT 9999 SCT040 BKN200 27/18 A3001 NOSIG=
201705061900 METAR MRPV 061900Z 26009KT 9999 FEW010 BKN035 26/19 A2998 NOSIG=
201705062000 METAR MRPV 062000Z COR 27008KT 9999 4500N SHRA BKN025TCU SCT100 24/16 A2995 NOSIG=
201705062100 METAR MRPV 062100Z 32005KT 3000 RA FEW010 SCT020 BKN060 23/19 A2995 NOSIG=
201705062200 METAR MRPV 062200Z 32003KT 1500 +RA SCT005 BKN030 21/19 A2997 RETSRA NOSIG=
201705062300 METAR MRPV 062300Z 28005KT 1500 +RA BR BKN005 20/19 A2999 NOSIG=
201705070000 METAR MRPV 070000Z 32004KT 1500 +RA BR BKN005 20/19 A3001 NOSIG=
201705070100 METAR MRPV NIL=
201705070200 METAR MRPV NIL=
201705070300 METAR MRPV NIL=
201705070400 METAR MRPV NIL=
201705070500 METAR MRPV NIL=
201705070600 METAR MRPV NIL=
201705070700 METAR MRPV NIL=
201705070800 METAR MRPV NIL=
201705070900 METAR MRPV NIL=
201705071000 METAR MRPV NIL=
201705071100 METAR MRPV NIL=
201705071200 METAR MRPV 071200Z 07004KT 9999 FEW040 BKN200 20/16 A3002 NOSIG=
201705071300 METAR MRPV 071300Z 12004KT 9999 FEW030 SCT200 23/16 A3003 NOSIG=
201705071400 METAR MRPV 071400Z 12006KT 9999 FEW030 SCT200 24/16 A3005 NOSIG=
201705071500 METAR MRPV 071500Z 11008KT 9999 FEW040 25/15 A3005 NOSIG=
201705071600 METAR MRPV 071600Z 09009KT 9999 FEW040 26/16 A3005 NOSIG=
201705071700 METAR MRPV 071700Z 09005KT 9999 FEW040 28/16 A3003 NOSIG=
201705071800 METAR MRPV 071800Z 26008KT 9999 SCT035 BKN080 25/18 A3000 NOSIG=
201705071900 METAR MRPV 071900Z 28010KT 9999 VCSH FEW010TCU SCT025 BKN070 25/18 A2998 NOSIG=
201705072000 METAR MRPV 072000Z COR 29008KT 5000 2000NE -TSRA FEW010CB SCT025 BKN050 21/19 A2997 NOSIG=
201705072100 METAR MRPV 072100Z 35004KT 5000 -RA BR FEW010 SCT015 BKN030 21/19 A2997 RESHRA NOSIG=
201705072200 METAR MRPV 072200Z 17001KT 3000 RA FEW010 SCT030 BKN080 20/19 A2997 NOSIG=
201705072300 METAR MRPV 072300Z 07002KT 8000 -RA BCFG FEW010 SCT035 BKN100 20/19 A2997 NOSIG=
201705080000 METAR MRPV 080000Z 13004KT 5000 RA FEW010 BKN080 20/18 A2999 NOSIG=
201705080100 METAR MRPV NIL=
201705080200 METAR MRPV NIL=
201705080300 METAR MRPV NIL=
201705080400 METAR MRPV NIL=
201705080500 METAR MRPV NIL=
201705080600 METAR MRPV NIL=
201705080700 METAR MRPV NIL=
201705080800 METAR MRPV NIL=
201705080900 METAR MRPV NIL=
201705081000 METAR MRPV NIL=
201705081100 METAR MRPV NIL=
201705081200 METAR MRPV 081200Z 05003KT CAVOK 19/18 A3001 OSIG=
201705081300 METAR MRPV 081300Z 08003KT CAVOK 20/19 A3002 NOSIG=
201705081400 METAR MRPV 081400Z 14005KT CAVOK 24/17 A3001 NOSIG=
201705081500 METAR MRPV 081500Z 11007KT CAVOK 26/16 A3002 NOSIG=
201705081600 METAR MRPV 081600Z 08007KT 9999 FEW045 SCT120 26/16 A3002 NOSIG=
201705081700 METAR MRPV 081700Z 29011KT 9999 SCT035 SCT200 26/18 A3000 NOSIG=
201705081800 METAR MRPV 081800Z 27010KT 9999 SCT030 SCT160 26/19 A2998 NOSIG=
201705081900 METAR MRPV 081900Z 27013KT 9999 SCT040 SCT200 25/18 A2995 NOSIG=
201705082000 METAR MRPV 082000Z 29011KT 9999 VCTS FEW020CB SCT035 SCT100 23/18 A2994 NOSIG=
201705082100 METAR MRPV 082100Z 31006KT 5000 RA SCT015 BKN100 21/19 A2993 NOSIG=
201705082200 METAR MRPV 082200Z 36004KT 3000 RA BR BKN010 SCT100 20/19 A2993 NOSIG=
201705082300 METAR MRPV 082300Z 35002KT 3000 RA BR BKN005 20/19 A2996 RETSRA NOSIG=
201705090000 METAR MRPV 090000Z 29005KT 3000 -RA BR BKN005 20/19 A2999 NOSIG=
201705090100 METAR MRPV NIL=
201705090200 METAR MRPV NIL=
201705090300 METAR MRPV NIL=
201705090400 METAR MRPV NIL=
201705090500 METAR MRPV NIL=
201705090600 METAR MRPV NIL=
201705090700 METAR MRPV NIL=
201705090800 METAR MRPV NIL=
201705090900 METAR MRPV NIL=
201705091000 METAR MRPV NIL=
201705091100 METAR MRPV NIL=
201705091200 METAR MRPV 091200Z 13003KT CAVOK 19/18 A3001 NOSIG=
201705091300 METAR MRPV 091300Z 10004KT CAVOK 22/18 A3002 NOSIG=
201705091400 METAR MRPV 091400Z 11003KT 9999 FEW030 BKN250 25/16 A3004 NOSIG=
201705091500 METAR MRPV 091500Z 28007KT 9999 FEW030 BKN200 24/17 A3005 NOSIG=
201705091600 METAR MRPV 091600Z 29007KT 9999 FEW025 BKN200 25/17 A3005 NOSIG=
201705091700 METAR MRPV 091700Z 28009KT 9999 FEW025 SCT100 25/16 A3005 NOSIG=
201705091800 METAR MRPV 091800Z 27010KT 9999 FEW020 BKN250 25/19 A3003 NOSIG=
201705091900 METAR MRPV 091900Z 26009KT 9999 FEW020 SCT100 25/17 A3001 NOSIG=
201705092000 METAR MRPV 092000Z 29009KT 9999 FEW020 SCT200 25/18 A2998 NOSIG=
201705092100 METAR MRPV 092100Z 29010KT 9999 FEW025 SCT180 26/17 A2996 NOSIG=
201705092200 METAR MRPV 092200Z 27008KT 9999 FEW020 BKN160 24/18 A2996 NOSIG=
201705092300 METAR MRPV 092300Z COR 28009KT 9999 VCSH FEW020TCU SCT080 BKN200 23/19 A2997 NOSIG=
201705100000 METAR MRPV 100000Z 30006KT 9999 -RA BR FEW010 BKN120 22/19 A3000 NOSIG=
201705100100 METAR MRPV NIL=
201705100200 METAR MRPV NIL=
201705100300 METAR MRPV NIL=
201705100400 METAR MRPV NIL=
201705100500 METAR MRPV NIL=
201705100600 METAR MRPV NIL=
201705100700 METAR MRPV NIL=
201705100800 METAR MRPV NIL=
201705100900 METAR MRPV NIL=
201705101000 METAR MRPV NIL=
201705101100 METAR MRPV NIL=
201705101200 METAR MRPV 101200Z 10002KT CAVOK 19/17 A3003 NOSIG=
201705101300 METAR MRPV 101300Z 13003KT CAVOK 22/17 A3004 NOSIG=
201705101400 METAR MRPV 101400Z 08006KT CAVOK 24/17 A3005 NOSIG=
201705101500 METAR MRPV 101500Z 08008KT CAVOK 26/17 A3005 NOSIG=
201705101600 METAR MRPV 101600Z 09005KT 9999 FEW040 SCT200 27/17 A3005 NOSIG=
201705101700 METAR MRPV 101700Z 08008KT 9999 FEW040 BKN200 28/17 A3004 BECMG 26005KT=
201705101800 METAR MRPV 101800Z 26005KT 9999 FEW040 SCT100 BKN200 27/18 A3003 NOSIG=
201705101900 METAR MRPV 101900Z 29009KT 9999 SCT030TCU BKN200 25/19 A3001 NOSIG=
201705102000 METAR MRPV 102000Z 27007KT 7000 RA SCT030TCU BKN120 24/20 A3001 RMK TEMPO SHRA=
201705102100 METAR MRPV 102100Z 14001KT 4000 -TSRA FEW010CB BKN010 21/19 A3001 TEMPO 5000=
201705102200 METAR MRPV 102200Z 14001KT 9999 FEW020 BKN100 22/20 A3000 NOSIG=
201705102300 METAR MRPV 102300Z 28005KT 8000 VCFG FEW035 BKN100 21/20 A3001 NOSIG=
201705110000 METAR MRPV 110000Z 30003KT 4000 BR BKN008 21/20 A3003 NOSIG=
201705110100 METAR MRPV NIL=
201705110200 METAR MRPV NIL=
201705110300 METAR MRPV NIL=
201705110400 METAR MRPV NIL=
201705110500 METAR MRPV NIL=
201705110600 METAR MRPV NIL=
201705110700 METAR MRPV NIL=
201705110800 METAR MRPV NIL=
201705110900 METAR MRPV NIL=
201705111000 METAR MRPV NIL=
201705111100 METAR MRPV NIL=
201705111200 METAR MRPV 111200Z 11004KT 9999 FEW040 BKN100 21/16 A3002 NOSIG=
201705111300 METAR MRPV 111300Z 11007KT 9999 FEW040 BKN100 23/16 A3003 NOSIG=
201705111400 METAR MRPV 111400Z 09005KT 9999 FEW040 SCT100 25/17 A3005 TEMPO 28004KT=
201705111500 METAR MRPV 111500Z 28006KT 9999 FEW035 BKN060 22/18 A3006 NOSIG=
201705111600 METAR MRPV 111600Z 28009KT 9999 BKN040 23/15 A3006 NOSIG=
201705111700 METAR MRPV 111700Z 28009KT 9999 BKN030 25/18 A3006 NOSIG=
201705111800 METAR MRPV 111800Z 28010KT 9999 SCT030 SCT200 25/19 A3004 NOSIG=
201705111900 METAR MRPV 111900Z 27010KT 9999 FEW030 BKN200 25/18 A3002 NOSIG=
201705112000 METAR MRPV 112000Z 29008KT 9999 VCSH FEW020TCU FEW035 BKN100 26/18 A2999 NOSIG=
201705112100 METAR MRPV 112100Z 29010KT 9999 -RA FEW015 BKN045 23/19 A2998 NOSIG=
201705112200 METAR MRPV 112200Z 31008KT 6000 BCFG BKN008 22/20 A2998 NOSIG=
201705112300 METAR MRPV 112300Z 31006KT 4500 BR FEW002 BKN006 22/20 A2999 NOSIG=
201705120000 METAR MRPV 120000Z 27006KT 5000 BR BKN006 21/20 A3001 NOSIG=
201705120100 METAR MRPV NIL=
201705120200 METAR MRPV NIL=
201705120300 METAR MRPV NIL=
201705120400 METAR MRPV NIL=
201705120500 METAR MRPV NIL=
201705120600 METAR MRPV NIL=
201705120700 METAR MRPV NIL=
201705120800 METAR MRPV NIL=
201705120900 METAR MRPV NIL=
201705121000 METAR MRPV NIL=
201705121100 METAR MRPV NIL=
201705121200 METAR MRPV 121200Z 00000KT 9999 BCFG NSC 20/18 A3003 NOSIG=
201705121300 METAR MRPV 121300Z 27003KT 9999 BCFG FEW010 SCT120 BKN200 21/18 A3004 NOSIG=
201705121400 METAR MRPV 121400Z 28003KT 9999 4500NW BCFG SCT008 BKN120 22/18 A3006 NOSIG=
201705121500 METAR MRPV 121500Z 31001KT 9999 SCT015 BKN120 24/18 A3006 NOSIG=
201705121600 METAR MRPV 121600Z 16001KT 9999 FEW030 BKN120 26/17 A3004 NOSIG=
201705121700 METAR MRPV 121700Z 11008KT 9999 FEW035 BKN120 26/17 A3004 NOSIG=
201705121800 METAR MRPV 121800Z 28010KT 9999 SCT015 BKN100 26/19 A3003 TEMPO BKN015=
201705121900 METAR MRPV 121900Z 27011KT 9000 FEW010 SCT020 BKN100 23/19 A3001 NOSIG=
201705122000 METAR MRPV 122000Z 29009KT 9999 4000E TSRA FEW010 SCT020CB BKN060 22/20 A3000 BECMG 4000=
201705122100 METAR MRPV 122100Z 23002KT 4000 -RA BR SCT005 BKN020CB 21/20 A3000 RETS NOSIG=
201705122200 METAR MRPV 122200Z 00000KT 4000 -RA BR SCT005 BKN080 21/20 A3000 NOSIG=
201705122300 METAR MRPV 122300Z 29001KT 4500 BR SCT005 SCT020 21/20 A3000 NOSIG=
201705130000 METAR MRPV 130000Z 31001KT 4000 BR FEW005 SCT015 BKN060 21/20 A3001 NOSIG=
201705130100 METAR MRPV NIL=
201705130200 METAR MRPV NIL=
201705130300 METAR MRPV NIL=
201705130400 METAR MRPV NIL=
201705130500 METAR MRPV NIL=
201705130600 METAR MRPV NIL=
201705130700 METAR MRPV NIL=
201705130800 METAR MRPV NIL=
201705130900 METAR MRPV NIL=
201705131000 METAR MRPV NIL=
201705131100 METAR MRPV NIL=
201705131200 METAR MRPV 131200Z VRB02KT 3000 RA BR FEW005 BKN030 19/19 A3005 NOSIG=
201705131300 METAR MRPV 131300Z 09003KT 5000 RA BR FEW005 SCT010 BKN025 20/19 A3007 NOSIG=
201705131400 METAR MRPV 131400Z 10003KT 5000 +RA BR FEW035 BKN060 20/19 A3007 NOSIG=
201705131500 METAR MRPV 131500Z 25002KT 9999 4000W RA BCFG FEW005 BKN100 20/19 A3010 NOSIG=
201705131600 METAR MRPV 131600Z 27001KT 2500 -RA BR FEW005 BKN060 20/19 A3010 NOSIG=
201705131700 METAR MRPV 131700Z 16002KT 9999 4000NW -RA BCFG FEW005 SCT080 BKN200 21/20 A3007 NOSIG=
201705131800 METAR MRPV 131800Z 11004KT 9999 VCFG NSC 24/18 A3004 NOSIG=
201705131900 METAR MRPV 131900Z 27010KT 4000 BR BKN002 SCT100 24/20 A3004 NOSIG=
201705132000 METAR MRPV 132000Z 29010KT 9999 SCT015 BKN100 23/18 A3003 NOSIG=
201705132100 METAR MRPV 132100Z 28009KT 9999 BKN015 SCT120 22/18 A3001 NOSIG=
201705132200 METAR MRPV 132200Z 29005KT 9999 FEW015 BKN200 23/17 A2999 NOSIG=
201705132300 METAR MRPV 132300Z 27002KT 9999 FEW015 SCT040 BKN200 23/18 A2998 NOSIG=
201705140000 METAR MRPV 140000Z 27004KT 9999 FEW025 BKN080 21/18 A3000 NOSIG=
201705140100 METAR MRPV NIL=
201705140200 METAR MRPV NIL=
201705140300 METAR MRPV NIL=
201705140400 METAR MRPV NIL=
201705140500 METAR MRPV NIL=
201705140600 METAR MRPV NIL=
201705140700 METAR MRPV NIL=
201705140800 METAR MRPV NIL=
201705140900 METAR MRPV NIL=
201705141000 METAR MRPV NIL=
201705141100 METAR MRPV NIL=
201705141200 METAR MRPV 141200Z 28001KT 9999 FEW035 SCT200 20/19 A3005 NOSIG=
201705141300 METAR MRPV 141300Z 08002KT 9999 FEW035 BKN200 23/18 A3007 NOSIG=
201705141400 METAR MRPV 141400Z 08003KT CAVOK 25/17 A3007 BECMG 27006KT=
201705141500 METAR MRPV 141500Z 27004KT 9999 FEW035 BKN200 27/18 A3007 NOSIG=
201705141600 METAR MRPV 141600Z 27007KT 9999 FEW035 SCT200 27/18 A3007 NOSIG=
201705141700 METAR MRPV 141700Z 27009KT 9999 FEW025 BKN200 27/19 A3006 NOSIG=
201705141800 MRPV 141800Z COR 27013KT 9999 FEW025TCU SCT100 27/21 A3004 NOSIG=
201705141900 METAR MRPV 141900Z 27011KT 9999 -TSRA FEW030 BKN100 24/20 A3003 NOSIG=
201705142000 METAR MRPV 142000Z 29007KT 8000 SCT030 BKN100 24/20 A3002 NOSIG=
201705142100 METAR MRPV 142100Z 30006KT 8000 BKN025 SCT100 24/19 A3000 NOSIG=
201705142200 METAR MRPV 142200Z VRB01KT 9999 FEW020 BKN200 25/19 A2998 NOSIG=
201705142300 METAR MRPV 142300Z 29003KT 9999 FEW030 BKN200 25/18 A2999 NOSIG=
201705150000 METAR MRPV 150000Z 28005KT 5000 HZ FEW020 BKN200 23/21 A2999 BECMG BR=
201705150100 METAR MRPV NIL=
201705150200 METAR MRPV NIL=
201705150300 METAR MRPV NIL=
201705150400 METAR MRPV NIL=
201705150500 METAR MRPV NIL=
201705150600 METAR MRPV NIL=
201705150700 METAR MRPV NIL=
201705150800 METAR MRPV NIL=
201705150900 METAR MRPV NIL=
201705151000 METAR MRPV NIL=
201705151100 METAR MRPV NIL=
201705151200 METAR MRPV 151200Z 11001KT 5000 BR FEW005 SCT025 BKN200 21/19 A3006 NOSIG=
201705151300 METAR MRPV 151300Z 13003KT 5000 BR FEW030 SCT080 BKN200 22/18 A3007 NOSIG=
201705151400 METAR MRPV 151400Z 28003KT 130V340 6000 BCFG FEW010 BKN160 24/18 A3009 NOSIG=
201705151500 METAR MRPV 151500Z 28005KT 3000 BR FEW010 BKN100 24/20 A3009 NOSIG=
201705151530 METAR MRPV 151530Z COR 28006KT 5000 2000NW BR FEW020 BKN100 24/19 A3010 NOSIG=
201705151600 METAR MRPV 151600Z 28007KT 5000 2000NW BR FEW020 BKN180 25/19 A3010 NOSIG=
201705151700 METAR MRPV 151700Z 26005KT 5000 BR FEW025 BKN200 26/19 A3007 NOSIG=
201705151800 METAR MRPV 151800Z 29009KT 8000 SCT030 BKN200 27/19 A3004 NOSIG=
201705151900 METAR MRPV 151900Z 27010KT 8000 BKN030 SCT200 27/19 A3000 NOSIG=
201705152000 METAR MRPV 152000Z 28012KT 9999 BKN035 SCT200 26/20 A2997 NOSIG=
201705152100 METAR MRPV 152100Z 28010KT 9999 SCT035 BKN200 24/20 A2995 NOSIG=
201705152200 METAR MRPV 152200Z 30011KT 9999 FEW010 BKN020 23/20 A2996 NOSIG=
201705152300 METAR MRPV 152300Z 29009KT 9999 DZ FEW010 BKN040 22/20 A2998 NOSIG=
201705160000 METAR MRPV 160000Z 29009KT 4000 RA BR FEW005CB BKN008 21/20 A3002 NOSIG=
201705160100 METAR MRPV NIL=
201705160200 METAR MRPV NIL=
201705160300 METAR MRPV NIL=
201705160400 METAR MRPV NIL=
201705160500 METAR MRPV NIL=
201705160600 METAR MRPV NIL=
201705160700 METAR MRPV NIL=
201705160800 METAR MRPV NIL=
201705160900 METAR MRPV NIL=
201705161000 METAR MRPV NIL=
201705161100 METAR MRPV NIL=
201705161200 METAR MRPV 161200Z 25001KT 5000 BR FEW010 SCT035 BKN100 20/19 A3005 BECMG 9999=
201705161300 METAR MRPV 161300Z 25002KT 5000 BR FEW010 BKN015 21/20 A3001 NOSIG=
201705161400 METAR MRPV 161400Z 32002KT 6000 VCFG FEW010 BKN100 23/19 A3008 NOSIG=
201705161500 METAR MRPV 161500Z 34003KT 6000 FEW010 SCT100 25/20 A3007 NOSIG=
201705161600 METAR MRPV 161600Z 29002KT 8000 FEW030 SCT250 27/18 A3006 NOSIG=
201705161700 METAR MRPV 161700Z 28010KT 9999 FEW035 SCT250 27/18 A3005 NOSIG=
201705161800 METAR MRPV 161800Z 26010KT 9999 VCSH FEW020TCU SCT035 27/20 A3002 NOSIG=
201705161900 METAR MRPV 161900Z 28011KT 9999 -SHRA SCT030TCU SCT100 BKN200 27/19 A2999 NOSIG=
201705162000 METAR MRPV 162000Z 28009KT 9999 -RA VCTS SCT025CB BKN100 26/18 A2997 NOSIG=
201705162100 METAR MRPV 162100Z 24003KT 9999 SHRA VCTS SCT025CB BKN100 25/19 A2996 TEMPO TSRA=
201705162200 METAR MRPV 162200Z 27010KT 9999 -SHRA VCTS SCT025CB BKN100 23/20 A2996 NOSIG=
201705162300 METAR MRPV 162300Z 29009KT 7000 RA BKN012 SCT100 22/20 A2999 TEMPO BKN010=
201705170000 METAR MRPV 170000Z 31004KT 5000 RA BR SCT007CB BKN100 21/20 A3002 NOSIG=
201705170100 METAR MRPV NIL=
201705170200 METAR MRPV NIL=
201705170300 METAR MRPV NIL=
201705170400 METAR MRPV NIL=
201705170500 METAR MRPV NIL=
201705170600 METAR MRPV NIL=
201705170700 METAR MRPV NIL=
201705170800 METAR MRPV NIL=
201705170900 METAR MRPV NIL=
201705171000 METAR MRPV NIL=
201705171100 METAR MRPV NIL=
201705171200 METAR MRPV 171200Z 09002KT 9999 VCFG FEW015 BKN120 20/19 A3002 NOSIG=
201705171300 METAR MRPV 171300Z 06005KT CAVOK 22/19 A3003 NOSIG=
201705171400 METAR MRPV 171400Z 08003KT 9999 FEW030 SCT120 25/19 A3004 NOSIG=
201705171500 METAR MRPV 171500Z 29001KT 9999 SCT035 BKN200 26/17 A3005 NOSIG=
201705171600 METAR MRPV 171600Z 26006KT 9999 RA SCT035 SCT080 25/18 A3005 NOSIG=
201705171700 METAR MRPV 171700Z 26002KT 9999 -DZ SCT030 SCT080 24/19 A3004 RERA NOSIG=
201705171800 METAR MRPV 171800Z 28009KT 9999 SHRA SCT030TCU SCT080 26/19 A3001 NOSIG=
201705171900 METAR MRPV 171900Z 28004KT 9999 RA VCTS FEW025CB BKN100 23/19 A2999 NOSIG=
201705172000 METAR MRPV 172000Z 26007KT 2500 +SHRA BKN020TCU 22/19 A2998 NOSIG=
201705172100 METAR MRPV 172100Z 29010KT 9999 FEW005 SCT030 BKN100 22/19 A2997 RESHRA NOSIG=
201705172200 METAR MRPV 172200Z 29006KT 4000 BR BKN010 21/19 A2999 NOSIG=
201705172300 METAR MRPV 172300Z 29003KT 5000 RA BR BKN010 21/20 A3000 NOSIG=
201705180000 METAR MRPV 180000Z 00000KT 5000 RA BR BKN010 21/20 A3002 NOSIG=
201705180100 METAR MRPV NIL=
201705180200 METAR MRPV NIL=
201705180300 METAR MRPV NIL=
201705180400 METAR MRPV NIL=
201705180500 METAR MRPV NIL=
201705180600 METAR MRPV NIL=
201705180700 METAR MRPV NIL=
201705180800 METAR MRPV NIL=
201705180900 METAR MRPV NIL=
201705181000 METAR MRPV NIL=
201705181100 METAR MRPV NIL=
201705181200 METAR MRPV 181200Z 11003KT CAVOK 19/17 A2998 NOSIG=
201705181300 METAR MRPV 181300Z 30004KT CAVOK 21/16 A3000 NOSIG=
201705181400 METAR MRPV 181400Z 33003KT CAVOK 24/16 A3000 NOSIG=
201705181500 METAR MRPV 181500Z 29003KT CAVOK 27/15 A3000 NOSIG=
201705181600 METAR MRPV 181600Z 28003KT 9999 FEW040 27/17 A2999 NOSIG=
201705181700 METAR MRPV 181700Z 27007KT 9999 FEW040 26/18 A2997 NOSIG=
201705181800 METAR MRPV 181800Z 27009KT 9999 FEW025TCU FEW035 27/20 A2996 NOSIG=
201705181900 METAR MRPV 181900Z 27011KT 9999 FEW030TCU FEW035 27/20 A2993 NOSIG=
201705182000 METAR MRPV 182000Z 28013KT 9999 VCTS VCSH SCT025CB FEW035 27/20 A2990 BECMG TSRA=
201705182100 METAR MRPV 182100Z 11008KT 4000 -TSRA SCT010CB BKN020 21/17 A2991 NOSIG=
201705182200 METAR MRPV 182200Z 08001KT 5000 RA FEW015 BKN100 20/19 A2992 NOSIG=
201705182300 METAR MRPV 182300Z 03003KT 9000 VCFG NSC 21/20 A2992 NOSIG=
201705190000 METAR MRPV 190000Z 23002KT 2000 BR SCT001 BKN100 21/20 A2994 NOSIG=
201705190100 METAR MRPV NIL=
201705190200 METAR MRPV NIL=
201705190300 METAR MRPV NIL=
201705190400 METAR MRPV NIL=
201705190500 METAR MRPV NIL=
201705190600 METAR MRPV NIL=
201705190700 METAR MRPV NIL=
201705190800 METAR MRPV NIL=
201705190900 METAR MRPV NIL=
201705191000 METAR MRPV NIL=
201705191100 METAR MRPV NIL=
201705191200 METAR MRPV 191200Z 15001KT CAVOK 20/16 A2993 NOSIG=
201705191300 METAR MRPV 191300Z 02002KT CAVOK 22/16 A2995 NOSIG=
201705191400 METAR MRPV 191400Z 29005KT CAVOK 24/16 A2996 NOSIG=
201705191500 METAR MRPV 191500Z 29005KT 9999 FEW035 25/18 A2996 NOSIG=
201705191600 METAR MRPV 191600Z 27007KT 9999 FEW035 25/18 A2994 NOSIG=
201705191700 METAR MRPV 191700Z 27008KT 9999 FEW035 26/19 A2992 NOSIG=
201705191800 METAR MRPV 191800Z 27009KT 9999 FEW035 26/19 A2999 NOSIG=
201705191900 METAR MRPV 191900Z 28012KT 9999 FEW020 SCT035 27/20 A2987 TEMPO SHRA FEW020TCU=
201705192000 METAR MRPV 192000Z 25005KT 9999 RA VCTS FEW020CB SCT035 SCT100 26/20 A2985 BECMG TS=
201705192100 METAR MRPV 192100Z 35005KT 4000 -TSRA FEW005 SCT010CB SCT025 22/18 A2987 NOSIG=
201705192200 METAR MRPV 192200Z 05004KT 1500 TSRA BKN005CB 19/18 A2990 NOSIG=
201705192300 METAR MRPV 192300Z 09003KT 6000 -RA BCFG FEW005 BKN060 19/18 A2989 RETS NOSIG=
201705200000 METAR MRPV 200000Z 12002KT 9999 -RA FEW045 BKN090 20/19 A2990 NOSIG=
201705200100 METAR MRPV NIL=
201705200200 METAR MRPV NIL=
201705200300 METAR MRPV NIL=
201705200400 METAR MRPV NIL=
201705200500 METAR MRPV NIL=
201705200600 METAR MRPV NIL=
201705200700 METAR MRPV NIL=
201705200800 METAR MRPV NIL=
201705200900 METAR MRPV NIL=
201705201000 METAR MRPV NIL=
201705201100 METAR MRPV NIL=
201705201200 METAR MRPV 201200Z 10005KT CAVOK 20/16 A2992 NOSIG=
201705201300 METAR MRPV 201300Z 08009KT 9999 BCFG FEW025 BKN200 22/17 A2995 NOSIG=
201705201400 METAR MRPV 201400Z 10009KT 9999 FEW030 BKN200 24/17 A2996 NOSIG=
201705201500 METAR MRPV 201500Z 12010KT 9999 FEW035 BKN200 25/16 A2995 NOSIG=
201705201600 METAR MRPV 201600Z 08012KT 9999 FEW035 BKN200 27/16 A2995 NOSIG=
201705201700 METAR MRPV 201700Z 09009KT 9999 FEW035 SCT200 28/17 A2994 NOSIG=
201705201800 METAR MRPV 201800Z 08012KT 9999 SCT035 SCT200 28/17 A2993 NOSIG=
201705201900 METAR MRPV 201900Z 07012KT 9999 SCT020CB 28/17 A2991 TEMPO TSRA=
201705202000 METAR MRPV 202000Z 07005KT 9999 VCTS SCT020CB FEW100 27/17 A2988 NOSIG=
201705202100 METAR MRPV 202100Z 28013KT 9999 SHRA VCTS FEW005 SCT020CB SCT035 22/19 A2990 NOSIG=
201705202200 METAR MRPV 202200Z 00000KT 9999 RA FEW005 BKN100 20/18 A2989 RESHRA NOSIG=
201705202300 METAR MRPV 202300Z 16001KT 8000 RA SCT030 BKN100 20/19 A2992 NOSIG=
201705210000 METAR MRPV 210000Z 15002KT 8000 RA BKN030 SCT100 20/19 A2995 NOSIG=
201705210100 METAR MRPV NIL=
201705210200 METAR MRPV NIL=
201705210300 METAR MRPV NIL=
201705210400 METAR MRPV NIL=
201705210500 METAR MRPV NIL=
201705210600 METAR MRPV NIL=
201705210700 METAR MRPV NIL=
201705210800 METAR MRPV NIL=
201705210900 METAR MRPV NIL=
201705211000 METAR MRPV NIL=
201705211100 METAR MRPV NIL=
201705211200 METAR MRPV 211200Z COR 00000KT 2000 BCFG FEW005 SCT060 BKN200 20/19 A3003 BECMG 5000=
201705211300 METAR MRPV 211300Z 13005KT 9999 3000 BCFG FEW005 SCT060 BKN200 21/19 A3003 NOSIG=
201705211400 METAR MRPV 211400Z 11006KT 9999 BCFG FEW005 SCT100 BKN200 22/17 A3003 NOSIG=
201705211500 METAR MRPV 211500Z 12007KT 9999 VCFG FEW035 SCT100 BKN200 24/17 A3003 NOSIG=
201705211600 METAR MRPV 211600Z 09008KT 9999 FEW035 SCT140 BKN200 25/17 A3002 NOSIG=
201705211700 METAR MRPV 211700Z 10009KT 9999 FEW035 BKN160 26/17 A3001 NOSIG=
201705211800 METAR MRPV 211800Z 08006KT 9999 SCT035 BKN160 26/17 A3001 NOSIG=
201705211900 METAR MRPV 211900Z 34006KT 9999 4000W TSRA FEW020CB SCT040 BKN120 25/18 A2999 NOSIG=
201705212000 METAR MRPV 212000Z 35003KT 9999 RA FEW010 SCT030 BKN100 22/19 A2998 NOSIG=
201705212100 METAR MRPV 212100Z 23002KT 3000 RA BR BKN012 21/18 A2999 NOSIG=
201705212200 METAR MRPV 212200Z 32002KT 4000 RA BR BKN005 19/19 A2999 NOSIG=
201705212300 METAR MRPV 212300Z 32002KT 4000 RA BR BKN005 20/19 A3002 NOSIG=
201705220000 METAR MRPV NIL=
201705220100 METAR MRPV NIL=
201705220200 METAR MRPV NIL=
201705220300 METAR MRPV NIL=
201705220400 METAR MRPV NIL=
201705220500 METAR MRPV NIL=
201705220600 METAR MRPV NIL=
201705220700 METAR MRPV NIL=
201705220800 METAR MRPV NIL=
201705220900 METAR MRPV NIL=
201705221000 METAR MRPV NIL=
201705221100 METAR MRPV NIL=
201705221200 METAR MRPV 221200Z 09001KT CAVOK 20/18 A3003 NOSIG=
201705221300 METAR MRPV 221300Z 12007KT CAVOK 23/16 A3005 NOSIG=
201705221400 METAR MRPV 221400Z 11005KT CAVOK 25/16 A3006 NOSIG=
201705221500 METAR MRPV 221500Z 29007KT 9999 FEW035 SCT100 25/17 A3007 NOSIG=
201705221600 METAR MRPV 221600Z 28009KT 9999 FEW030 SCT100 26/18 A3008 NOSIG=
201705221700 METAR MRPV 221700Z 27010KT 9999 SCT030 SCT100 24/18 A3006 NOSIG=
201705221800 METAR MRPV 221800Z 28008KT 9999 4000E RA SCT025 BKN100 24/19 A3005 NOSIG=
201705221900 METAR MRPV 221900Z 26005KT 9999 -RA SCT020 BKN030 23/20 A3002 NOSIG=
201705222000 METAR MRPV 222000Z 26006KT 7000 BKN007 22/20 A3000 NOSIG=
201705222100 METAR MRPV 222100Z 28006KT 5000 BCFG SCT002 BKN100 22/19 A2999 NOSIG=
201705222200 METAR MRPV 222200Z 30004KT 6000 BCFG FEW005 SCT008 BKN100 22/19 A3000 NOSIG=
201705222300 METAR MRPV 222300Z 30003KT 7000 -DZ BCFG FEW004 SCT010 BKN100 21/19 A3001 NOSIG=
201705230000 METAR MRPV 230000Z 11001KT 8000 BCFG FEW007 BKN100 21/20 A3003 NOSIG=
201705230100 METAR MRPV NIL=
201705230200 METAR MRPV NIL=
201705230300 METAR MRPV NIL=
201705230400 METAR MRPV NIL=
201705230500 METAR MRPV NIL=
201705230600 METAR MRPV NIL=
201705230700 METAR MRPV NIL=
201705230800 METAR MRPV NIL=
201705230900 METAR MRPV NIL=
201705231000 METAR MRPV NIL=
201705231100 METAR MRPV NIL=
201705231200 METAR MRPV 231200Z 12003KT CAVOK 20/17 A2999 NOSIG=
201705231300 METAR MRPV 231300Z 11006KT CAVOK 23/15 A3000 NOSIG=
201705231400 METAR MRPV 231400Z 10006KT CAVOK 26/14 A3002 NOSIG=
201705231500 METAR MRPV 231500Z 06008KT CAVOK 26/16 A3002 NOSIG=
201705231600 METAR MRPV 231600Z 06004KT CAVOK 27/16 A3001 NOSIG=
201705231700 METAR MRPV 231700Z 28009KT CAVOK 27/17 A3001 NOSIG=
201705231800 METAR MRPV 231800Z 27008KT 9999 SCT035 SCT250 26/19 A3001 NOSIG=
201705231900 METAR MRPV 231900Z 27009KT 9999 SCT035 SCT070 26/19 A2998 NOSIG=
201705232000 METAR MRPV 232000Z 28011KT 9999 SCT030 BKN160 27/20 A2996 NOSIG=
201705232100 METAR MRPV 232100Z 25006KT 9999 3000S -TSRA SCT020CB BKN040 26/20 A2994 NOSIG=
201705232200 METAR MRPV 232200Z 28005KT 5000 2000N -TSRA FEW005 FEW020CB SCT040 22/19 A2995 NOSIG=
201705232300 METAR MRPV 232300Z 34002KT 9999 4000N -RA BCFG FEW005 SCT020 BKN100 21/19 A2996 RETSRA NOSIG=
201705240000 METAR MRPV 240000Z 30002KT 5000 -RA BR FEW005 BKN015 21/19 A2998 NOSIG=
201705240100 METAR MRPV NIL=
201705240200 METAR MRPV NIL=
201705240300 METAR MRPV NIL=
201705240400 METAR MRPV NIL=
201705240500 METAR MRPV NIL=
201705240600 METAR MRPV NIL=
201705240700 METAR MRPV NIL=
201705240800 METAR MRPV NIL=
201705240900 METAR MRPV NIL=
201705241000 METAR MRPV NIL=
201705241100 METAR MRPV NIL=
201705241200 METAR MRPV COR 241200Z 12007KT CAVOK 21/17 A2999 NOSIG=
201705241300 METAR MRPV 241300Z 11008KT CAVOK 23/16 A3001 NOSIG=
201705241400 METAR MRPV 241400Z 10009KT CAVOK 25/16 A3002 NOSIG=
201705241500 METAR MRPV 241500Z 06010KT CAVOK 26/17 A3001 NOSIG=
201705241600 METAR MRPV 241600Z 10007KT CAVOK 28/17 A3000 NOSIG=
201705241700 METAR MRPV 241700Z 04003KT CAVOK 29/16 A2998 BECMG 28005KT=
201705241800 METAR MRPV 241800Z 27014KT 9999 FEW030 SCT200 27/20 A2998 NOSIG=
201705241900 METAR MRPV 241900Z 28014KT 9999 SCT025TCU SCT200 27/19 A2996 NOSIG=
201705242000 METAR MRPV 242000Z 25003KT 9999 2500E -TSRA FEW015CB SCT020 SCT060 23/21 A2996 NOSIG=
201705242100 METAR MRPV 242100Z 30005KT 9999 4000NW -RA BCFG VCTS FEW015 SCT030 BKN100 23/21 A2993 RETSRA NOSIG=
201705242200 MRPV 242200Z 29005KT 5000 BR SCT010 BKN040 23/21 A2994 NOSIG=
201705242300 MRPV 242300Z 27003KT 5000 2000N -RA BR SCT005 BKN040 23/21 A2994 NOSIG=
201705250000 METAR MRPV 250000Z 29003KT 3000 BR SCT005 BKN010 22/21 A2997 NOSIG=
201705250100 METAR MRPV NIL=
201705250200 METAR MRPV NIL=
201705250300 METAR MRPV NIL=
201705250400 METAR MRPV NIL=
201705250500 METAR MRPV NIL=
201705250600 METAR MRPV NIL=
201705250700 METAR MRPV NIL=
201705250800 METAR MRPV NIL=
201705250900 METAR MRPV NIL=
201705251000 METAR MRPV NIL=
201705251100 METAR MRPV NIL=
201705251200 MRPV 251200Z 09009KT 9999 VCFG FEW020 SCT070 BKN200 22/18 A2998 NOSIG=
201705251300 METAR MRPV 251300Z 13006KT 9999 BCFG FEW030 SCT050 BKN200 23/18 A3000 NOSIG=
201705251400 METAR MRPV 251400Z 13006KT 9999 FEW030 SCT100 BKN200 24/18 A3000 NOSIG=
201705251500 METAR MRPV 251500Z 11013KT 9999 FEW035 SCT140 25/17 A3002 NOSIG=
201705251600 METAR MRPV 251600Z 07011KT 9999 FEW035 SCT140 26/17 A3002 NOSIG=
201705251700 METAR MRPV 251700Z 08009KT CAVOK 28/18 A3000 NOSIG=
201705251800 METAR MRPV 251800Z 06010KT 9999 FEW035 SCT100 BKN200 29/18 A2998 NOSIG=
201705251900 METAR MRPV 251900Z 07008KT 9999 FEW040 BKN200 30/18 A2995 NOSIG=
201705252000 METAR MRPV 252000Z 27013KT 9999 FEW025CB SCT040 BKN200 28/20 A2993 NOSIG=
201705252100 METAR MRPV 252100Z 31007KT 7000 RA FEW005 BKN010TCU 24/20 A2994 NOSIG=
201705252200 METAR MRPV 252200Z 24003KT 4500 HZ FEW003 SCT010CB SCT030 23/21 A2994 RETS NOSIG=
201705252300 METAR MRPV 252300Z 25002KT 5000 HZ SCT005 BKN200 24/21 A2995 TEMPO BKN005=
201705260000 METAR MRPV 260000Z 26002KT 5000 HZ BKN020 23/21 A2997 NOSIG=
201705260100 METAR MRPV NIL=
201705260200 METAR MRPV NIL=
201705260300 METAR MRPV NIL=
201705260400 METAR MRPV NIL=
201705260500 METAR MRPV NIL=
201705260600 METAR MRPV NIL=
201705260700 METAR MRPV NIL=
201705260800 METAR MRPV NIL=
201705260900 METAR MRPV NIL=
201705261000 METAR MRPV NIL=
201705261100 METAR MRPV NIL=
201705261200 METAR MRPV 261200Z 00000KT 9000 FEW025 BKN120 21/19 A3005 NOSIG=
201705261300 METAR MRPV 261300Z 00000KT CAVOK 22/19 A3007 NOSIG=
201705261400 METAR MRPV 261400Z 29001KT CAVOK 23/19 A3009 NOSIG=
201705261500 METAR MRPV 261500Z 28003KT 9999 FEW030 SCT120 BKN200 24/19 A3010 NOSIG=
201705261600 METAR MRPV 261600Z 27004KT 9999 FEW030 BKN120 24/19 A3010 NOSIG=
201705261700 METAR MRPV 261700Z 27006KT 9999 FEW030 BKN120 25/19 A3009 NOSIG=
201705261800 METAR MRPV 261800Z 26006KT 7000 SCT040 BKN120 24/19 A3007 NOSIG=
201705261900 METAR MRPV 261900Z 25003KT 7000 FEW010 SCT040 BKN120 24/18 A3005 NOSIG=
201705262000 METAR MRPV 262000Z 28004KT 7000 SCT030 BKN120 26/18 A3002 NOSIG=
201705262100 METAR MRPV 262100Z 24004KT 7000 SCT020TCU BKN120 24/19 A3000 BECMG 5000=
201705262200 METAR MRPV 262200Z 17002KT 5000 BR FEW005 SCT025 BKN120 23/21 A3001 NOSIG=
201705262300 METAR MRPV 262300Z 12003KT 9999 BCFG FEW003 BKN100 23/20 A3002 NOSIG=
201705270000 METAR MRPV 270000Z 12006KT 9999 -RA BCFG FEW010 SCT050 BKN100 22/18 A3005 NOSIG=
201705270100 METAR MRPV NIL=
201705270200 METAR MRPV NIL=
201705270300 METAR MRPV NIL=
201705270400 METAR MRPV NIL=
201705270500 METAR MRPV NIL=
201705270600 METAR MRPV NIL=
201705270700 METAR MRPV NIL=
201705270800 METAR MRPV NIL=
201705270900 METAR MRPV NIL=
201705271000 METAR MRPV NIL=
201705271100 METAR MRPV NIL=
201705271200 METAR MRPV 271200Z 11006KT 9999 BCFG FEW005 BKN120 22/17 A3005 NOSIG=
201705271300 METAR MRPV 271300Z 13004KT 9999 VCFG FEW030 BKN100 23/17 A3007 NOSIG=
201705271400 METAR MRPV 271400Z 11006KT CAVOK 23/17 A3007 NOSIG=
201705271500 METAR MRPV 271500Z 12005KT 9999 FEW035 BKN140 26/17 A3007 NOSIG=
201705271600 METAR MRPV 271600Z 09008KT 9999 FEW030 SCT140 27/18 A3006 NOSIG=
201705271700 METAR MRPV 271700Z 29007KT 9999 SCT035 SCT080 25/19 A3006 NOSIG=
201705271800 METAR MRPV 271800Z 08003KT 070V280 9999 FEW030 SCT080 27/18 A3006 NOSIG=
201705271900 METAR MRPV 271900Z 27005KT 270V320 9999 FEW030 SCT080 27/19 A3002 NOSIG=
201705272000 METAR MRPV 272000Z 28006KT 9999 SCT035 SCT250 28/20 A3001 NOSIG=
201705272100 METAR MRPV 272100Z 27010KT 9999 VCSH FEW025TCU SCT035 SCT250 27/20 A2999 NOSIG=
201705272200 METAR MRPV 272200Z 28011KT 9999 TSRA BKN008 23/21 A3000 TEMPO 5000 BR=
201705272300 METAR MRPV 272300Z 31002KT 9999 -RA BKN025 21/18 A3003 NOSIG=
201705280000 METAR MRPV 280000Z 34002KT 9999 BKN010 21/18 A3004 NOSIG=
201705280100 METAR MRPV NIL=
201705280200 METAR MRPV NIL=
201705280300 METAR MRPV NIL=
201705280400 METAR MRPV NIL=
201705280500 METAR MRPV NIL=
201705280600 METAR MRPV NIL=
201705280700 METAR MRPV NIL=
201705280800 METAR MRPV NIL=
201705280900 METAR MRPV NIL=
201705281000 METAR MRPV NIL=
201705281100 METAR MRPV NIL=
201705281200 METAR MRPV 281200Z 10006KT 9999 FEW040 BKN120 21/17 A3004 NOSIG=
201705281300 METAR MRPV 281300Z 11009KT 9999 FEW025 SCT120 BKN200 22/17 A3005 NOSIG=
201705281400 METAR MRPV 281400Z 09013KT 9999 FEW025 SCT120 BKN200 23/16 A3005 NOSIG=
201705281500 METAR MRPV 281500Z 08013KT 9999 FEW025 SCT120 BKN200 23/15 A3007 NOSIG=
201705281600 METAR MRPV 281600Z 08012KT 9999 FEW030 BKN100 24/17 A3008 NOSIG=
201705281700 METAR MRPV 281700Z 08009KT 9999 SCT040 BKN120 26/17 A3006 NOSIG=
201705281800 METAR MRPV 281800Z 08007KT 9999 FEW040 BKN120 26/17 A3004 NOSIG=
201705281900 METAR MRPV 281900Z 08004KT 9999 -RA FEW030 BKN070 24/17 A3003 BECMG 24006KT=
201705282000 METAR MRPV 282000Z 23001KT 6000 RA VCTS FEW020CB BKN030 SCT100 22/19 A3003 TEMPO BKN012=
201705282100 METAR MRPV 282100Z 28001KT 5000 RA BR BKN012 20/19 A3004 NOSIG=
201705282200 METAR MRPV 282200Z 03002KT 9999 FEW005 SCT030 BKN100 20/19 A3004 NOSIG=
201705282300 METAR MRPV 282300Z 28005KT 3000 RA BR BKN005 20/19 A3006 NOSIG=
201705290000 METAR MRPV 290000Z 00000KT 3000 RA BR SCT005 BKN100 20/19 A3008 NOSIG=
201705290100 METAR MRPV NIL=
201705290200 METAR MRPV NIL=
201705290300 METAR MRPV NIL=
201705290400 METAR MRPV NIL=
201705290500 METAR MRPV NIL=
201705290600 METAR MRPV NIL=
201705290700 METAR MRPV NIL=
201705290800 METAR MRPV NIL=
201705290900 METAR MRPV NIL=
201705291000 METAR MRPV NIL=
201705291100 METAR MRPV NIL=
201705291200 METAR MRPV 291200Z 12006KT 9999 FEW030 BKN100 20/16 A3006 NOSIG=
201705291300 METAR MRPV 291300Z 11007KT CAVOK 21/16 A3007 NOSIG=
201705291400 METAR MRPV 291400Z 11009KT 9999 FEW025 BKN100 23/16 A3009 NOSIG=
201705291500 METAR MRPV 291500Z 09009KT 9999 FEW035 BKN100 23/16 A3010 NOSIG=
201705291600 METAR MRPV 291600Z 08008KT CAVOK 26/16 A3009 NOSIG=
201705291700 METAR MRPV 291700Z 08007KT CAVOK 26/16 A3008 NOSIG=
201705291800 METAR MRPV 291800Z 30003KT 9999 FEW040 BKN100 27/18 A3007 NOSIG=
201705291900 METAR MRPV 291900Z 27010KT 9999 SCT035 BKN120 27/19 A3004 NOSIG=
201705292000 METAR MRPV 292000Z 27011KT 9999 VCTS FEW020CB SCT030 BKN120 24/19 A3002 TEMPO 5000 TSRA=
201705292100 METAR MRPV 292100Z 26004KT 8000 SHRA VCTS SCT015CB BKN040 23/19 A3002 BECMG 5000=
201705292200 METAR MRPV 292200Z 33006KT 5000 RA BR BKN003 SCT010 21/18 A3003 NOSIG=
201705292300 METAR MRPV 292300Z 17001KT 7000 TSRA SCT015CB BKN100 20/19 A3005 NOSIG=
201705300000 MRPV 300000Z 16002KT 8000 DZ FEW020 BKN100 20/19 A3005 RETSRA NOSIG=
201705300100 METAR MRPV NIL=
201705300200 METAR MRPV NIL=
201705300300 METAR MRPV NIL=
201705300400 METAR MRPV NIL=
201705300500 METAR MRPV NIL=
201705300600 METAR MRPV NIL=
201705300700 METAR MRPV NIL=
201705300800 METAR MRPV NIL=
201705300900 METAR MRPV NIL=
201705301000 METAR MRPV NIL=
201705301100 METAR MRPV NIL=
201705301200 METAR MRPV 301200Z 12006KT 9999 FEW030 SCT250 20/16 A3005 NOSIG=
201705301300 METAR MRPV 301300Z 12006KT 9999 FEW035 SCT250 23/17 A3008 NOSIG=
201705301400 METAR MRPV 301400Z 11006KT 9999 FEW030 SCT250 25/16 A3008 NOSIG=
201705301500 METAR MRPV 301500Z 10008KT 9999 FEW040 BKN200 25/16 A3008 NOSIG=
201705301600 METAR MRPV 301600Z 08010KT 9999 FEW040 BKN200 25/16 A3008 NOSIG=
201705301700 METAR MRPV 301700Z 08005G16KT 9999 FEW040 BKN120 27/16 A3007 BECMG 27005KT=
201705301800 METAR MRPV 301800Z 08004KT 9999 FEW040 SCT070 BKN200 28/17 A3004 NOSIG=
201705301900 MRPV 301900Z VRB02KT 9999 FEW025 SCT070 BKN200 26/19 A3002 NOSIG=
201705302000 METAR MRPV 302000Z 28003KT 9999 4000NW SHRA FEW015TCU SCT035 BKN080 24/20 A3001 NOSIG=
201705302100 METAR MRPV 302100Z 27005KT 3000 -TSRA BR SCT003 BKN015CB 21/19 RESHRA A3003 NOSIG=
201705302120 METAR MRPV 302120Z 28006KT 5000 BR SCT003 BKN020 21/19 A3003 RETSRA NOSIG=
201705302200 METAR MRPV 302200Z 29003KT 3000 BR SCT003 BKN010 21/19 A3004 NOSIG=
201705302300 MRPV 302300Z 25003KT 5000 2000NE -RA BR SCT005 BKN015 21/19 A3005 NOSIG=
201705310000 METAR MRPV 310000Z 00000KT 2500 +RA BR SCT005 BKN020 21/19 A3007 NOSIG=
201705310100 METAR MRPV NIL=
201705310200 METAR MRPV NIL=
201705310300 METAR MRPV NIL=
201705310400 METAR MRPV NIL=
201705310500 METAR MRPV NIL=
201705310600 METAR MRPV NIL=
201705310700 METAR MRPV NIL=
201705310800 METAR MRPV NIL=
201705310900 METAR MRPV NIL=
201705311000 METAR MRPV NIL=
201705311100 METAR MRPV NIL=
201705311200 METAR MRPV 311200Z 10005KT CAVOK 21/16 A3004 NOSIG=
201705311300 METAR MRPV 311300Z 11006KT 9999 FEW040 SCT200 22/17 A3005 NOSIG=
201705311400 METAR MRPV 311400Z 11009KT 9999 FEW035 24/17 A3007 NOSIG=
201705311500 METAR MRPV 311500Z 08009KT 9999 FEW035 25/16 A3007 NOSIG=
201705311600 METAR MRPV 311600Z 08008KT 9999 FEW040 26/17 A3006 NOSIG=
201705311700 METAR MRPV 311700Z 07006KT 9999 FEW040 27/16 A3004 NOSIG=
201705311800 METAR MRPV 311800Z 08009KT 9999 SCT045 28/17 A3002 NOSIG=
201705311900 METAR MRPV 311900Z 08005KT 9999 FEW025TCU SCT045 27/17 A3000 NOSIG=
201705312000 MRPV 312000Z 28012KT 9999 280V060 FEW025TCU SCT035 26/19 A2998 NOSIG=
201705312100 METAR MRPV 312100Z COR 30006KT 3000 1000 -TSRA SCT010CB SCT020 21/18 A2999 NOSIG=
201705312200 METAR MRPV 312200Z 30001KT 5000 2000S -RA BCFG FEW005 SCT030 BKN100 21/19 A3001 RETSRA NOSIG=
201705312300 METAR MRPV 312300Z 31001KT 5000 BCFG FEW010 SCT025 BKN090 21/20 A3002 RERA NOSIG=
201706010000 METAR MRPV 010000Z 00000KT 9999 VCFG FEW035 SCT060 BKN100 21/20 A3002 NOSIG=
201706010100 METAR MRPV NIL=
201706010200 METAR MRPV NIL=
201706010300 METAR MRPV NIL=
201706010400 METAR MRPV NIL=
201706010500 METAR MRPV NIL=
201706010600 METAR MRPV NIL=
201706010700 METAR MRPV NIL=
201706010800 METAR MRPV NIL=
201706010900 METAR MRPV NIL=
201706011000 METAR MRPV NIL=
201706011100 METAR MRPV NIL=
201706011200 METAR MRPV 011200Z 13003KT CAVOK 20/18 A3004 NOSIG=
201706011300 METAR MRPV 011300Z 13007KT 9999 FEW040 BKN080 21/17 A3007 NOSIG=
201706011400 METAR MRPV 011400Z 11009KT 9999 FEW035 SCT090 22/17 A3006 NOSIG=
201706011500 METAR MRPV 011500Z 07006KT CAVOK 23/17 A3003 NOSIG=
201706011600 METAR MRPV 011600Z 11009KT 9999 FEW035 BKN120 23/17 A3002 NOSIG=
201706011700 METAR MRPV 011700Z 08016KT CAVOK 27/17 A3002 NOSIG=
201706011800 METAR MRPV 011800Z 07012KT 9999 FEW035 SCT080 28/17 A3000 NOSIG=
201706011900 METAR MRPV 011900Z 08010KT 9999 FEW040 BKN080 27/17 A2998 NOSIG=
201706012000 METAR MRPV 012000Z 01007KT 9999 SCT035 SCT080 27/19 A2996 BECMG 28006KT=
201706012100 METAR MRPV 012100Z 27010KT 9999 BKN025 25/19 A2996 NOSIG=
201706012200 METAR MRPV 012200Z 30012KT 4000 TSRA FEW015CB SCT020 SCT100 20/17 A2998 TEMPO 5000=
201706012300 METAR MRPV 012300Z 28004KT 9999 BKN010 SCT100 20/18 A2997 NOSIG=
201706020000 METAR MRPV 020000Z 06001KT 9999 BKN010 21/20 A2998 NOSIG=
201706020100 METAR MRPV NIL=
201706020200 METAR MRPV NIL=
201706020300 METAR MRPV NIL=
201706020400 METAR MRPV NIL=
201706020500 METAR MRPV NIL=
201706020600 METAR MRPV NIL=
201706020700 METAR MRPV NIL=
201706020800 METAR MRPV NIL=
201706020900 METAR MRPV NIL=
201706021000 METAR MRPV NIL=
201706021100 METAR MRPV NIL=
201706021200 METAR MRPV 021200Z 12005KT CAVOK 20/18 A3001 NOSIG=
201706021300 METAR MRPV 021300Z 11007KT CAVOK 23/16 A3002 NOSIG=
201706021400 METAR MRPV 021400Z 11008KT 9999 FEW040 BKN200 25/16 A3003 NOSIG=
201706021500 METAR MRPV 021500Z 09009KT CAVOK 25/16 A3003 NOSIG=
201706021600 METAR MRPV 021600Z 08011KT 9999 FEW035 BKN200 26/17 A3003 NOSIG=
201706021700 METAR MRPV 021700Z 08011KT 9999 FEW035 BKN200 26/17 A3002 NOSIG=
201706021800 METAR MRPV 021800Z 08013KT 9999 FEW035 BKN200 26/17 A2999 NOSIG=
201706021900 METAR MRPV 021900Z 09008KT 9999 FEW040 OVC200 27/17 A2997 NOSIG=
201706022000 METAR MRPV 022000Z 07004KT 9999 FEW040 BKN200 28/17 A2995 BECMG 32005KT=
201706022100 METAR MRPV 022100Z 27007KT 8000 SCT025 BKN200 25/20 A2993 NOSIG=
201706022200 METAR MRPV 022200Z 27008KT 6000 FEW010 SCT020 BKN200 24/21 A2994 NOSIG=
201706022300 METAR MRPV 022300Z 28006KT 4000 BR SCT003 BKN008 23/21 A2995 NOSIG=
201706030000 METAR MRPV 030000Z 28007KT 2500 BR BKN005 22/21 A2998 NOSIG=
201706030100 METAR MRPV NIL=
201706030200 METAR MRPV NIL=
201706030300 METAR MRPV NIL=
201706030400 METAR MRPV NIL=
201706030500 METAR MRPV NIL=
201706030600 METAR MRPV NIL=
201706030700 METAR MRPV NIL=
201706030800 METAR MRPV NIL=
201706030900 METAR MRPV NIL=
201706031000 METAR MRPV NIL=
201706031100 METAR MRPV NIL=
201706031200 METAR MRPV 031200Z 02001KT 8000 FEW025 BKN100 20/18 A3000 NOSIG=
201706031300 METAR MRPV 031300Z 04003KT 9999 FEW035 BKN100 22/18 A3001 NOSIG=
201706031400 METAR MRPV 031400Z 06003KT 9999 FEW035 BKN120 25/17 A3001 NOSIG=
201706031500 METAR MRPV 031500Z 29005KT 9999 FEW030 BKN120 24/19 A3003 NOSIG=
201706031600 METAR MRPV 031600Z 27004KT 9999 4000NW FEW030 BKN120 26/19 A3002 NOSIG=
201706031700 METAR MRPV 031700Z 31005KT 9999 4000NW FEW035 BKN120 26/18 A3000 NOSIG=
201706031800 METAR MRPV 031800Z 26004KT 9999 4000NW BKN030 SCT100 24/19 A3001 NOSIG=
201706031900 METAR MRPV 031900Z 29003KT 9999 4500NW FEW030 BKN100 25/19 A2997 RMK HVY HZ ARND - NOSIG=
201706032000 MRPV 032000Z 28010KT 6000 FEW005 BKN015 24/20 A2996 BECMG BKN010=
201706032100 METAR MRPV 032100Z 29009KT 6000 BKN010 SCT200 24/20 A2997 NOSIG=
201706032200 METAR MRPV 032200Z 26004KT 8000 BKN012 SCT200 23/20 A2995 NOSIG=
201706032300 METAR MRPV 032300Z 26003KT 8000 FEW020 BKN200 23/20 A2995 NOSIG=
201706040000 METAR MRPV 04000Z 28004KT 6000 FEW005 BKN200 24/20 A2996 TEMPO BKN005=
201706040100 METAR MRPV NIL=
201706040200 METAR MRPV NIL=
201706040300 METAR MRPV NIL=
201706040400 METAR MRPV NIL=
201706040500 METAR MRPV NIL=
201706040600 METAR MRPV NIL=
201706040700 METAR MRPV NIL=
201706040800 METAR MRPV NIL=
201706040900 METAR MRPV NIL=
201706041000 METAR MRPV NIL=
201706041100 METAR MRPV NIL=
201706041200 METAR MRPV 041200Z 11006KT 9999 FEW020 BKN100 22/18 A2998 NOSIG=
201706041300 METAR MRPV 041300Z 09011KT 9999 FEW020 BKN100 22/18 A2997 NOSIG=
201706041400 METAR MRPV 041400Z 07013KT 9999 FEW025 SCT100 24/18 A2999 NOSIG=
201706041500 METAR MRPV 041500Z 080123KT 9999 FEW030 SCT100 25/18 A3000 NOSIG=
201706041600 METAR MRPV 041600Z 08012KT 9999 SCT035 27/18 A2999 NOSIG=
201706041700 METAR MRPV 041700Z 08012KT 9999 SCT030 27/18 A2998 NOSIG=
201706041800 METAR MRPV 041800Z 07010KT 9999 FEW035 28/18 A2995 NOSIG=
201706041900 METAR MRPV 041900Z 10007KT 9999 SCT040 SCT080 29/18 A2993 NOSIG=
201706042000 METAR MRPV 042000Z 09011KT 9999 -DZ FEW015 SCT035 28/18 A2991 NOSIG=
201706042100 METAR MRPV 042100Z 28010KT 9999 FEW015 SCT035 BKN200 27/20 A2992 NOSIG=
201706042200 METAR MRPV 042200Z 28010KT 9999 SCT020TCU SCT200 26/19 A2992 NOSIG=
201706042300 METAR MRPV 042300Z 31005KT 9999 VCFG BKN020 23/20 A2994 RERA NOSIG=
201706050000 METAR MRPV 050000Z 31005KT 9999 VCFG SCT020 BKN200 22/20 A2996 NOSIG=
201706050100 METAR MRPV NIL=
201706050200 METAR MRPV NIL=
201706050300 METAR MRPV NIL=
201706050400 METAR MRPV NIL=
201706050500 METAR MRPV NIL=
201706050600 METAR MRPV NIL=
201706050700 METAR MRPV NIL=
201706050800 METAR MRPV NIL=
201706050900 METAR MRPV NIL=
201706051000 METAR MRPV NIL=
201706051100 METAR MRPV NIL=
201706051200 METAR MRPV 051200Z 12007KT 9999 VCFG FEW025 BKN200 21/17 A2996 NOSIG=
201706051300 METAR MRPV 051300Z 13005KT 9999 FEW035 SCT180 22/17 A2999 NOSIG=
201706051400 METAR MRPV 051400Z 10009KT 9999 FEW035 SCT200 25/18 A3000 NOSIG=
201706051500 METAR MRPV 051500Z 08006KT 9999 FEW030 SCT080 26/17 A3000 NOSIG=
201706051600 METAR MRPV 051600Z 09005KT 9999 FEW035 SCT120 27/17 A3000 BECMNG 27006=
201706051700 METAR MRPV 051700Z 29007KT 9999 FEW040 BKN100 26/18 A2999 NOSIG=
201706051800 METAR MRPV 051800Z COR 29011KT 9999 SCT035 BKN200 27/19 A2998 NOSIG=
201706051900 METAR MRPV 051900Z 27013KT 9999 RA VCTS VCSH SCT020CB FEW040 BKN100 26/19 A2996 TEMPO TSRA=
201706052000 METAR MRPV 052000Z 01003KT 4000 TSRA SCT015CB BKN100 22/20 A2994 NOSIG=
201706052100 METAR MRPV 052100Z 18004KT 4000 -TSRA FEW020CB BKN100 20/19 A2995 NOSIG=
201706052200 METAR MRPV 052200Z 26001KT 9000 4000W -RA BCFG FEW002 SCT005 BKN100 21/20 A2995 BECMG BKN005=
201706052300 METAR MRPV 052300Z 26003KT 0400 -DZ FG VV/// 21/20 A2996 NOSIG=
201706060000 METAR MRPV 060000Z 08002KT 5000 BCFG FEW003 BKN020 21/20 A2999 NOSIG=
201706060100 METAR MRPV NIL=
201706060200 METAR MRPV NIL=
201706060300 METAR MRPV NIL=
201706060400 METAR MRPV NIL=
201706060600 METAR MRPV NIL=
201706060700 METAR MRPV NIL=
201706060800 METAR MRPV NIL=
201706060900 METAR MRPV NIL=
201706061000 METAR MRPV NIL=
201706061100 METAR MRPV NIL=
201706061200 METAR MRPV 061200Z 11004KT 8000 BCFG SCT008 BKN120 20/19 A3002 NOSIG=
201706061300 METAR MRPV 061300Z 10003KT CAVOK 22/18 A3004 NOSIG=
201706061400 METAR MRPV 061400Z 13005KT 9999 FEW035 BKN200 25/17 A3003 NOSIG=
201706061500 METAR MRPV 061500Z 08013KT CAVOK 26/17 A3003 NOSIG=
201706061600 METAR MRPV 061600Z 07012KT 9999 FEW045 BKN250 27/17 A3002 NOSIG=
201706061700 METAR MRPV 061700Z 07008KT 9999 FEW040 BKN250 29/18 A3000 NOSIG=
201706061800 METAR MRPV 061800Z 05006KT 9999 SCT040 SCT250 29/17 A2999 BECMG 29006KT=
201706061900 METAR MRPV 061900Z 28006KT 9999 BKN030 27/20 A2997 NOSIG=
201706062000 MRPV 062000Z 26006KT 9999 -SHRA FEW020TCU SCT035 BKN100 25/21 A2995 NOSIG=
201706062100 METAR MRPV 062100Z 31007KT 7000 -TSRA FEW015CB SCT020 SCT100 22/19 A2996 NOSIG=
201706062200 METAR MRPV 062200Z VRB02KT 9999 BCFG FEW010 SCT025 BKN100 24/19 A2997 RETSRA NOSIG=
201706062300 METAR MRPV 062300Z 13002KT 9999 -RA SCT025 BKN100 22/19 A2997 NOSIG=
201706070000 METAR MRPV 070000Z 08002KT 9999 4000 NW VCFG FEW025 SCT100 BKN200 22/20 A2998 RERA NOSIG=
201706070100 METAR MRPV NIL=
201706070200 METAR MRPV NIL=
201706070300 METAR MRPV NIL=
201706070400 METAR MRPV NIL=
201706070500 METAR MRPV NIL=
201706070600 METAR MRPV NIL=
201706070700 METAR MRPV NIL=
201706070800 METAR MRPV NIL=
201706070900 METAR MRPV NIL=
201706071000 METAR MRPV NIL=
201706071100 METAR MRPV NIL=
201706071200 METAR MRPV 071200Z 31004KT 0500 FG VV/// 19/18 A3006 NOSIG=
201706071300 METAR MRPV 071300Z 31001KT 5000 1500S PRFG SCT005 BKN020 20/19 A3008 NOSIG=
201706071400 METAR MRPV 071400Z 29001KT 9999 4000S BCFG FEWT005 BKN025 21/19 A3008 NOSIG=
201706071500 METAR MRPV 071500Z VRB02KT 9999 FEW015 BKN200 24/18 A3009 NOSIG=
201706071600 METAR MRPV 071600Z 30004KT 9999 SCT025 SCT200 25/18 A3008 NOSIG=
201706071700 METAR MRPV 071700Z 27008KT 9999 SCT025 BKN200 25/19 A3007 NOSIG=
201706071800 METAR MRPV 071800Z 30008KT 9999 SCT025 BKN180 26/18 A3006 NOSIG=
201706071900 METAR MRPV 071900Z 26004KT 9999 SCT025 SCT180 25/18 A3004 NOSIG=
201706072000 METAR MRPV 072000Z 26005KT 9999 FEW030 BKN100 25/19 A3001 NOSIG=
201706072100 METAR MRPV 072100Z 27007KT 9999 FEW030 BKN120 26/19 A2998 NOSIG=
201706072200 METAR MRPV 072200Z 28004KT 9999 RA VCTS FEW020CB FEW030 BKN120 25/19 A2999 TEMPO TSRA=
201706072300 METAR MRPV 072300Z 10003KT 5000 -RA FEW015CB FEW020 BKN120 23/21 A3001 RETSRA NOSIG=
201706080000 METAR MRPV 080000Z 32003KT 5000 TSRA FEW010 FEW015CB BKN120 22/20 A3003 NOSIG=
201706080100 METAR MRPV NIL=
201706080200 METAR MRPV NIL=
201706080300 METAR MRPV NIL=
201706080400 METAR MRPV NIL=
201706080500 METAR MRPV NIL=
201706080600 METAR MRPV NIL=
201706080700 METAR MRPV NIL=
201706080800 METAR MRPV NIL=
201706080900 METAR MRPV NIL=
201706081000 METAR MRPV NIL=
201706081100 METAR MRPV NIL=
201706081200 METAR MRPV 081200Z COR VRB02KT 5000 2000NW BR FEW005 BKN030 20/18 A3006 NOSIG=
201706081300 METAR MRPV 081300Z 21002KT 3000 BR SCT005 BKN070 21/19 A3008 BECMG 5000=
201706081400 METAR MRPV 081400Z 35001KT 5000 BCFG SCT010 BKN200 24/19 A3009 NOSIG=
201706081500 METAR MRPV 081500Z 27005KT 5000 FEW010 SCT025 BKN160 24/19 A3009 NOSIG=
201706081600 METAR MRPV 081600Z 28008KT 8000 SCT025 BKN200 25/19 A3008 NOSIG=
201706081700 METAR MRPV 081700Z 28007KT 8000 SCT025 SCT180 26/19 A3007 NOSIG=
201706081800 METAR MRPV 081800Z COR 28010KT 8000 3500NE -SHRA VCTS SCT020TCU BKN100 25/19 A3004 RETSRA NOSIG=
201706081900 METAR MRPV 081900Z 36006KT 8000 +TSRA BKN020CB SCT100 24/19 A3004 NOSIG=
201706082000 METAR MRPV 082000Z 30002KT 6000 -RA BKN020 SCT100 22/19 A3002 RETSRA NOSIG=
201706082100 METAR MRPV 082100Z 29007KT 3000 BR BKN008 SCT100 22/20 A3001 NOSIG=
201706082200 METAR MRPV 082200Z 29007KT 2000 BR BKN004 21/20 A3000 NOSIG=
201706082300 METAR MRPV 082300Z 36001KT 2000 -TSRA BR BKN003CB 20/19 A3005 NOSIG=
201706090000 METAR MRPV 090000Z 08003KT 2000 BR BKN004 20/19 A3005 RETSRA NOSIG=
201706090100 METAR MRPV NIL=
201706090200 METAR MRPV NIL=
201706090300 METAR MRPV NIL=
201706090400 METAR MRPV NIL=
201706090500 METAR MRPV NIL=
201706090600 METAR MRPV NIL=
201706090700 METAR MRPV NIL=
201706090800 METAR MRPV NIL=
201706090900 METAR MRPV NIL=
201706091000 METAR MRPV NIL=
201706091100 METAR MRPV NIL=
201706091200 METAR MRPV 091200Z 11002KT CAVOK 19/17 A3004 NOSIG=
201706091300 METAR MRPV 091300Z 08002KT CAVOK 20/18 A3005 NOSIG=
201706091400 METAR MRPV 091400Z 11004KT CAVOK 23/17 A3007 NOSIG=
201706091500 METAR MRPV 091500Z 28004KT CAVOK 24/18 A3007 NOSIG=
201706091600 METAR MRPV 091600Z 28006KT 9999 FEW045 SCT120 25/18 A3007 NOSIG=
201706091700 METAR MRPV 091700Z 28007KT 9999 SCT040 26/18 A3006 NOSIG=
201706091800 METAR MRPV 091800Z 27008KT 9999 -RA VCSH FEW020TCU SCT040 26/19 A3004 NOSIG=
201706091900 METAR MRPV 091900Z 27007KT 9999 -SHRA FEW020TCU FEW035 SCT100 24/20 A3003 NOSIG=
201706092000 METAR MRPV 092000Z 28008KT 9999 BKN020 25/19 A3000 NOSIG=
201706092100 METAR MRPV 092100Z 25007KT 9999 FEW010TCU BKN025 25/20 A2997 TEMPO RA=
201706092200 METAR MRPV 092200Z 27010KT 3000 -DZ BR FEW002 BKN007 21/20 A2998 NOSIG=
201706092300 METAR MRPV 092300Z 27007KT 0300 -RA FG VV/// 20/19 A3000 RETS NOSIG=
201706100000 METAR MRPV 100000Z 30004KT 4000 -DZ BR BKN005 20/19 A3001 NOSIG=
201706100100 METAR MRPV NIL=
201706100200 METAR MRPV NIL=
201706100300 METAR MRPV NIL=
201706100400 METAR MRPV NIL=
201706100500 METAR MRPV NIL=
201706100600 METAR MRPV NIL=
201706100700 METAR MRPV NIL=
201706100800 METAR MRPV NIL=
201706100900 METAR MRPV NIL=
201706101000 METAR MRPV NIL=
201706101100 METAR MRPV NIL=
201706101200 METAR MRPV 101200Z VRB02KT 5000 -DZ BR FEW005 BKN100 19/19 A3005 NOSIG=
201706101300 METAR MRPV 101300Z 12005KT CAVOK 21/18 A3003 RMK BKN100 NOSIG=
201706101400 METAR MRPV 101400Z 14003KT 9999 FEW025 BKN100 24/16 A3005 NOSIG=
201706101500 METAR MRPV 101500Z 30008KT 9999 BKN035 22/19 A3008 NOSIG=
201706101600 METAR MRPV 101600Z 30007KT 9999 BKN020 24/18 A3008 NOSIG=
201706101700 METAR MRPV 101700Z 27007KT 9999 BKN020 SCT100 24/18 A3007 NOSIG=
201706101800 METAR MRPV 101800Z 27008KT 9999 SCT025 BKN100 24/19 A3006 NOSIG=
201706101900 METAR MRPV 101900Z 27008KT 9999 FEW020 BKN100 24/18 A3004 NOSIG=
201706102000 METAR MRPV 102000Z 27008KT 9999 RA FEW010 SCT020 BKN100 23/19 A3002 NOSIG=
201706102100 METAR MRPV 102100Z 26007KT 9000 -DZ VCFG FEW010 BKN100 23/19 A3000 RERA NOSIG=
201706102200 METAR MRPV 102200Z 29009KT 4000 BR BKN005 SCT100 23/20 A3001 REDZ NOSIG=
201706102300 METAR MRPV 102300Z 29009KT 1500 RA BR BKN001 20/19 A3003 NOSIG=
201706110000 METAR MRPV 110000Z 31005KT 0800 RA FG VV/// 20/19 A3004 NOSIG=
201706110100 METAR MRPV NIL=
201706110200 METAR MRPV NIL=
201706110300 METAR MRPV NIL=
201706110400 METAR MRPV NIL=
201706110500 METAR MRPV NIL=
201706110600 METAR MRPV NIL=
201706110700 METAR MRPV NIL=
201706110800 METAR MRPV NIL=
201706110900 METAR MRPV NIL=
201706111000 METAR MRPV NIL=
201706111100 METAR MRPV NIL=
201706111200 METAR MRPV 111200Z 30001KT 0800 FG VV/// 19/18 A3007 NOSIG=
201706111300 METAR MRPV 111300Z 10001KT 7000 BCFG FEW008 BKN120 19/19 A3008 NOSIG=
201706111400 METAR MRPV 111400Z 07003KT 9999 FEW030 BKN100 20/19 A3009 NOSIG=
201706111500 METAR MRPV 111500Z 11006KT 9999 FEW030 BKN120 21/18 A3009 NOSIG=
201706111600 METAR MRPV 111600Z 12009KT 9999 FEW030 BKN120 22/18 A3008 NOSIG=
201706111700 METAR MRPV 111700Z 12010KT 9999 FEW035 BKN120 23/18 A3008 NOSIG=
201706111800 METAR MRPV 111800Z 09010KT 9999 FEW025 BKN120 23/18 A3008 NOSIG=
201706111900 METAR MRPV 111900Z 09008KT 9999 FEW025 BKN140 24/18 A3006 NOSIG=
201706112000 METAR MRPV 112000Z 09005KT 9999 FEW035 BKN160 25/18 A3003 NOSIG=
201706112100 METAR MRPV 112100Z 06006KT 9999 VCFG FEW010 BKN160 25/18 A3002 NOSIG=
201706112200 METAR MRPV 112200Z 30004KT 9999 VCFG FEW015 SCT080 BKN160 24/19 A3001 NOSIG=
201706112300 METAR MRPV 112300Z 25004KT 9999 4000W BCFG FEW005 SCT080 BKN160 23/20 A3002 NOSIG=
201706120000 METAR MRPV 120000Z 29006KT 2500 BR SCT005 BKN160 22/20 A3003 NOSIG=
201706120100 METAR MRPV NIL=
201706120200 METAR MRPV NIL=
201706120300 METAR MRPV NIL=
201706120400 METAR MRPV NIL=
201706120500 METAR MRPV NIL=
201706120600 METAR MRPV NIL=
201706120700 METAR MRPV NIL=
201706120800 METAR MRPV NIL=
201706120900 METAR MRPV NIL=
201706121000 METAR MRPV NIL=
201706121100 METAR MRPV NIL=
201706121200 METAR MRPV 121200Z 12009KT CAVOK 21/16 A3001 NOSIG=
201706121300 METAR MRPV 121300Z 12009KT CAVOK 22/16 A3000 NOSIG=
201706121400 METAR MRPV 121400Z 11009KT CAVOK 23/16 A3001 NOSIG=
201706121500 METAR MRPV 121500Z 07017KT 9999 FEW035 BKN120 24/16 A3003 NOSIG=
201706121600 METAR MRPV 121600Z 07014KT 9999 FEW035 BKN200 26/16 A3003 NOSIG=
201706121700 METAR MRPV 121700Z COR 05012KT 9999 FEW035 BKN200 27/15 A3002 NOSIG=
201706121800 METAR MRPV 121800Z 08013KT 9999 FEW035 BKN200 27/17 A3000 NOSIG=
201706121900 METAR MRPV 121900Z 09009KT 9999 FEW040 BKN200 27/17 A2998 NOSIG=
201706122000 METAR MRPV 122000Z 08012KT 9999 FEW040 BKN200 28/17 A2995 NOSIG=
201706122100 METAR MRPV 122100Z 09009KT 9999 FEW010 SCT100 BKN200 27/16 A2993 NOSIG=
201706122200 METAR MRPV 122200Z 25007KT 9999 4000NW RA SCT010TCU BKN040 23/20 A2994 NOSIG=
201706122300 MRPV 122300Z 35003KT 9999 VCSH FEW010TCU SCT100 SCT200 22/20 A2994 RERA NOSIG=
201706130000 METAR MRPV 130000Z 32002KT 5000 BR BKN004 21/20 A2996 NOSIG=
201706130100 METAR MRPV NIL=
201706130200 METAR MRPV NIL=
201706130300 METAR MRPV NIL=
201706130400 METAR MRPV NIL=
201706130500 METAR MRPV NIL=
201706130600 METAR MRPV NIL=
201706130700 METAR MRPV NIL=
201706130800 METAR MRPV NIL=
201706130900 METAR MRPV NIL=
201706131000 METAR MRPV NIL=
201706131100 METAR MRPV NIL=
201706131200 METAR MRPV 131200Z 32001KT 8000 VCFG FEW002 BKN020 19/18 A3002 NOSIG=
201706131300 METAR MRPV 131300Z 08001KT 9999 FEW002 BKN100 21/18 A3003 NOSIG=
201706131400 METAR MRPV 131400Z 09005KT 9999 FEW035 BKN100 24/17 A3002 NOSIG=
201706131500 METAR MRPV 131500Z 08010KT 9999 FEW030 BKN100 24/17 A3003 NOSIG=
201706131600 METAR MRPV 131600Z 09007KT 9999 FEW030TCU BKN100 26/16 A3001 NOSIG=
201706131700 METAR MRPV 131700Z 08012KT 9999 FEW040 BKN100 26/16 A3001 NOSIG=
201706131800 METAR MRPV 131800Z 09011KT 9999 FEW040 BKN100 25/16 A2999 NOSIG=
201706131900 METAR MRPV 131900Z 11010KT 9999 FEW035 SCT100 24/16 A2997 NOSIG=
201706132000 METAR MRPV 132000Z 10008KT 9999 FEW035 BKN120 24/15 A2997 NOSIG=
201706132100 METAR MRPV 132100Z 09009KT 9999 SCT035 BKN100 24/15 A2995 NOSIG=
201706132200 METAR MRPV 132200Z 08012KT 9999 FEW035 BKN140 24/15 A2994 NOSIG=
201706132300 METAR MRPV 132300Z VRB02KT 9999 FEW010 SCT035 BKN120 22/19 A2997 NOSIG=
201706140000 METAR MRPV 140000Z 30001KT 9999 VCFG FEW010 SCT035 BKN100 21/19 A2998 NOSIG=
201706140100 METAR MRPV NIL=
201706140200 METAR MRPV NIL=
201706140300 METAR MRPV NIL=
201706140400 METAR MRPV NIL=
201706140500 METAR MRPV NIL=
201706140600 METAR MRPV NIL=
201706140700 METAR MRPV NIL=
201706140800 METAR MRPV NIL=
201706140900 METAR MRPV NIL=
201706141000 METAR MRPV NIL=
201706141100 METAR MRPV NIL=
201706141200 METAR MRPV 141200Z 12004KT CAVOK 20/16 A3000 NOSIG=
201706141300 METAR MRPV 141300Z 09004KT CAVOK 22/16 A3001 NOSIG=
201706141400 METAR MRPV 141400Z 13004KT CAVOK 25/15 A3002 NOSIG=
201706141500 METAR MRPV 141500Z 29008KT 9999 FEW040 BKN120 23/17 A3003 NOSIG=
201706141600 METAR MRPV 141600Z 28010KT 9999 FEW030 BKN120 25/17 A3004 NOSIG=
201706141700 METAR MRPV 141700Z 28011KT 9999 SCT030 BKN120 24/17 A3003 NOSIG=
201706141800 METAR MRPV 141800Z 29010KT 9999 FEW015 SCT030 BKN120 23/18 A3004 NOSIG=
201706141900 METAR MRPV 141900Z 28010KT 9999 SCT015 BKN080 24/18 A3002 NOSIG=
201706142000 METAR MRPV 142000Z 28009KT 9999 SCT015 BKN060 23/19 A3000 RERA NOSIG=
201706142054 METAR MRPV 142054Z 28010KT 9999 BKN010 22/19 A2999 NOSIG=
201706142100 METAR MRPV 142100Z 28010KT 9999 BKN010 22/19 A2999 NOSIG=
201706142200 METAR MRPV 142200Z 29005KT 4000 -RA BR BKN004 20/19 A2998 NOSIG=
201706142300 METAR MRPV 142300Z 30004KT 5000 BR BKN004 20/19 A3000 NOSIG=
201706150000 METAR MRPV NIL=
201706150100 METAR MRPV NIL=
201706150200 METAR MRPV NIL=
201706150300 METAR MRPV NIL=
201706150400 METAR MRPV NIL=
201706150500 METAR MRPV NIL=
201706150600 METAR MRPV NIL=
201706150700 METAR MRPV NIL=
201706150800 METAR MRPV NIL=
201706150900 METAR MRPV NIL=
201706151000 METAR MRPV NIL=
201706151100 METAR MRPV NIL=
201706151200 METAR MRPV 151200Z 00000KT 4000 BR SCT035 BKN100 19/18 A3005 NOSIG=
201706151300 METAR MRPV 151300Z 32003KT 4000 HZ SCT010 BKN250 20/19 A3006 BECMG 5000=
201706151400 METAR MRPV 151400Z 30004KT 8000 FEW010 BKN100 22/18 A3007 NOSIG=
201706151500 METAR MRPV 151500Z 27005KT 8000 FEW015 BKN100 23/18 A3008 NOSIG=
201706151600 METAR MRPV 151600Z 30004KT 9999 FEW025 BKN200 25/18 A3006 NOSIG=
201706151700 METAR MRPV 151700Z 26009KT 8000 BKN025 SCT200 25/18 A3005 NOSIG=
201706151800 METAR MRPV 151800Z 27007KT 9999 SCT035 BKN100 25/19 A3004 RERA NOSIG=
201706151900 METAR MRPV 151900Z 28009KT 9999 SCT030 SCT100 25/19 A3002 NOSIG=
201706152000 METAR MRPV 152000Z 27011KT 9999 RA SCT025 SCT100 25/19 A2999 NOSIG=
201706152100 METAR MRPV 152100Z 27014KT 6000 -RA BCFG BKN006 SCT020 22/21 A2999 NOSIG=
201706152200 METAR MRPV 152200Z 29011KT 0400 FG VV/// 21/20 A3001 NOSIG=
201706152300 METAR MRPV 152300Z 21004KT 2500 -RA BR SCT002 BKN008 20/19 A3002 REFG NOSIG=
201706160000 METAR MRPV 160000Z 28005KT 1500 -RA BR OVC002 20/20 A3004 NOSIG=
201706160100 METAR MRPV NIL=
201706160200 METAR MRPV NIL=
201706160300 METAR MRPV NIL=
201706160400 METAR MRPV NIL=
201706160500 METAR MRPV NIL=
201706160600 METAR MRPV NIL=
201706160700 METAR MRPV NIL=
201706160800 METAR MRPV NIL=
201706160900 METAR MRPV NIL=
201706161000 METAR MRPV NIL=
201706161100 METAR MRPV NIL=
201706161200 METAR MRPV 161200Z 30006KT 4000 DZ BR SCT002 BKN100 19/19 A3008 BECMG BKN002=
201706161300 METAR MRPV 161300Z 32004KT 9999 SCT002 BKN100 20/19 A3008 NOSIG=
201706161400 METAR MRPV 161400Z 28004KT 9999 FEW005 BKN100 21/17 A3010 NOSIG=
201706161500 METAR MRPV 161500Z 28005KT 9999 FEW020 BKN100 23/17 A3010 NOSIG=
201706161600 METAR MRPV 161600Z 29006KT 9999 FEW020 BKN100 24/16 A3008 NOSIG=
201706161700 METAR MRPV 161700Z 32004KT 9999 FEW025 BKN100 25/16 A3006 NOSIG=
201706161800 METAR MRPV 161800Z 27006KT 9999 FEW025 BKN100 25/17 A3006 NOSIG=
201706161900 METAR MRPV 161900Z 28009KT 9999 SCT025 BKN100 25/17 A3003 NOSIG=
201706162000 METAR MRPV 162000Z 29005KT 9999 FEW020 BKN100 25/17 A3001 NOSIG=
201706162100 METAR MRPV 162100Z 29009KT 9999 FEW020 BKN100 25/17 A2999 NOSIG=
201706162200 METAR MRPV 162200Z 28011KT 9999 FEW010 BKN100 23/18 A2999 NOSIG=
201706162300 METAR MRPV 162300Z 29010KT 9999 SCT008 BKN080 22/19 A2999 BECMG BKN010=
201706170000 METAR MRPV 170000Z 29007KT 7000 BCFG SCT005 BKN015 20/19 A3001 NOSIG=
201706170100 METAR MRPV NIL=
201706170200 METAR MRPV NIL=
201706170300 METAR MRPV NIL=
201706170400 METAR MRPV NIL=
201706170500 METAR MRPV NIL=
201706170600 METAR MRPV NIL=
201706170700 METAR MRPV NIL=
201706170800 METAR MRPV NIL=
201706170900 METAR MRPV NIL=
201706171000 METAR MRPV NIL=
201706171100 METAR MRPV NIL=
201706171200 METAR MRPV 171200Z 00000KT CAVOK 19/18 A3004 NOSIG=
201706171300 METAR MRPV 171300Z 09002KT CAVOK 20/18 A3004 NOSIG=
201706171400 METAR MRPV 171400Z 14002KT CAVOK 23/17 A3004 NOSIG=
201706171500 METAR MRPV 171500Z 25002KT CAVOK 26/16 A3005 NOSIG=
201706171600 METAR MRPV 171600Z 28012KT 9999 FEW035 BKN200 26/17 A3005 NOSIG=
201706171700 METAR MRPV 171700Z 28014KT 9999 FEW030 SCT200 26/17 A3004 NOSIG=
201706171800 METAR MRPV 171800Z 28013KT 9999 FEW025 SCT200 26/18 A3007 NOSIG=
201706171900 METAR MRPV 171900Z 29013KT 9999 VCSH FEW015TCU FEW030 SCT100 26/19 A2999 NOSIG=
201706172000 METAR MRPV 172000Z 28015KT 9999 BCFG VCSH FEW010TCU SCT010 BKN080 25/19 A2998 NOSIG=
201706172100 METAR MRPV 172100Z COR 28014KT 9999 VCSH SCT020TCU BKN120 26/18 A2995 A2998 NOSIG=
201706172200 METAR MRPV 172200Z 27010KT 5000 RA BCFG FEW010 SCT035 BKN100 24/18 A2996 RESHRA NOSIG=
201706172210 MRPV 172210Z 27011KT 1000 +RA BR BKN005 21/20 A2998 NOSIG=
201706172300 METAR MRPV 172300Z 29006KT 3000 RA BR BKN005 20/19 A2999 NOSIG=
201706180000 METAR MRPV 180000Z 32003KT 3000 -RA BR SCT005 BKN025 20/19 A3001 NOSIG=
201706180100 METAR MRPV NIL=
201706180200 METAR MRPV NIL=
201706180300 METAR MRPV NIL=
201706180400 METAR MRPV NIL=
201706180500 METAR MRPV NIL=
201706180600 METAR MRPV NIL=
201706180700 METAR MRPV NIL=
201706180800 METAR MRPV NIL=
201706180900 METAR MRPV NIL=
201706181000 METAR MRPV NIL=
201706181100 METAR MRPV NIL=
201706181200 METAR MRPV 181200Z 13001KT CAVOK 19/17 A2995 NOSIG=
201706181300 METAR MRPV 181300Z 06002KT CAVOK 20/18 A2997 NOSIG=
201706181400 METAR MRPV 181400Z 00000KT CAVOK 22/17 A3001 NOSIG=
201706181500 METAR MRPV 181500Z 26007KT 9999 FEW030 BKN120 23/17 A3003 NOSIG=
201706181600 METAR MRPV 181600Z 30007KT 9999 FEW020 BKN120 23/18 A3003 NOSIG=
201706181700 METAR MRPV 181700Z 31005KT 9999 FEW025 BKN120 23/17 A3002 NOSIG=
201706181800 METAR MRPV 181800Z 27008KT 9999 FEW025 BKN120 25/18 A3000 NOSIG=
201706181900 METAR MRPV 181900Z 29010KT 9999 FEW025 BKN140 25/19 A2997 NOSIG=
201706182000 METAR MRPV 182000Z 29010KT 9999 FEW010 SCT030 BKN140 24/19 A2995 NOSIG=
201706182100 METAR MRPV 182100Z 27007KT 9999 FEW015 SCT080 BKN160 26/18 A2993 NOSIG=
201706182200 METAR MRPV 182200Z 27011KT 9999 FEW015 SCT030 BKN100 24/19 A2993 NOSIG=
201706182300 METAR MRPV 182300Z 27012KT 5000 2000S RA SCT020 BKN080 22/19 A2995 NOSIG=
201706190000 MRPV 190000Z 31006KT 3000 RA BR SCT005 BKN035 20/19 A2998 NOSIG=
201706190100 METAR MRPV NIL=
201706190200 METAR MRPV NIL=
201706190300 METAR MRPV NIL=
201706190400 METAR MRPV NIL=
201706190500 METAR MRPV NIL=
201706190600 METAR MRPV NIL=
201706190700 METAR MRPV NIL=
201706190800 METAR MRPV NIL=
201706190900 METAR MRPV NIL=
201706191000 METAR MRPV NIL=
201706191100 METAR MRPV NIL=
201706191200 METAR MRPV 191200Z 12004KT CAVOK 20/16 A2998 NOSIG=
201706191300 METAR MRPV 191300Z 25004KT 9999 BCFG FEW010 SCT070 BKN160 20/17 A3001 NOSIG=
201706191400 METAR MRPV 191400Z 30005KT 9999 BCFG FEW010 SCT100 BKN180 21/17 A3002 NOSIG=
201706191500 METAR MRPV 191500Z 28006KT 9999 FEW020 SCT160 BKN200 22/18 A3002 NOSIG=
201706191600 METAR MRPV 191600Z 27006KT 9999 FEW030 BKN200 24/17 A3001 NOSIG=
201706191700 METAR MRPV 191700Z 30006KT 9999 FEW035 BKN200 26/15 A2999 NOSIG=
201706191800 METAR MRPV 191800Z 28008KT 9999 FEW035 BKN200 26/17 A2998 NOSIG=
201706191900 METAR MRPV 191900Z 28012KT 9999 FEW020TCU FEW020 BKN200 25/19 A2997 NOSIG=
201706192000 METAR MRPV 192000Z 27010KT 9999 FEW020TCU SCT020 SCT200 23/19 A2996 NOSIG=
201706192100 METAR MRPV 192100Z 27006KT 9999 BKN020 22/19 A2995 NOSIG=
201706192200 METAR MRPV 192200Z 31002KT 8000 -RA SCT020 BKN100 22/19 A2997 NOSIG=
201706192239 METAR MRPV 192239Z 20002KT 8000 TSRA FEW005 FEW015CB BKN100 21/20 A2997 NOSIG=
201706192300 METAR MRPV 192300Z 10005KT 4000 RA SCT030 BKN100 21/19 A2999 RETSRA NOSIG=
201706200000 METAR MRPV 200000Z 08008KT 8000 RA BKN100 21/17 A2999 NOSIG=
201706200100 METAR MRPV NIL=
201706200200 METAR MRPV NIL=
201706200300 METAR MRPV NIL=
201706200400 METAR MRPV NIL=
201706200500 METAR MRPV NIL=
201706200600 METAR MRPV NIL=
201706200700 METAR MRPV NIL=
201706200800 METAR MRPV NIL=
201706200900 METAR MRPV NIL=
201706201000 METAR MRPV NIL=
201706201100 METAR MRPV NIL=
201706201200 METAR MRPV 201200Z 11008KT CAVOK 21/14 A2997 NOSIG=
201706201300 METAR MRPV 201300Z 11006KT CAVOK 22/15 A2999 NOSIG=
201706201400 METAR MRPV 201400Z 12007KT CAVOK 23/15 A3000 NOSIG=
201706201500 METAR MRPV 201500Z 12008KT 9999 FEW035 BKN200 24/15 A3002 NOSIG=
201706201600 METAR MRPV 201600Z 10010KT 9999 FEW040 OVC200 25/16 A3002 NOSIG=
201706201700 METAR MRPV 201700Z 09012KT CAVOK 26/16 A3001 NOSIG=
201706201800 METAR MRPV 201800Z 06007KT CAVOK 27/16 A2999 NOSIG=
201706201900 METAR MRPV 201900Z 27010KT 9999 FEW030 BKN200 25/18 A2997 NOSIG=
201706202000 METAR MRPV 202000Z 28007KT 9999 FEW030 BKN200 25/19 A2994 NOSIG=
201706202100 METAR MRPV 202100Z 25006KT 9999 SCT030 SCT080 24/19 A2993 NOSIG=
201706202200 METAR MRPV 202200Z 26007KT 8000 VCTS FEW020CB SCT030 BKN200 23/19 A2994 NOSIG=
201706202300 MRPV 202300Z 21003KT 2500 RA BR FEW005 BKN015 22/18 A2995 RESHRA NOSIG=
201706210000 METAR MRPV 210000Z VRB02KT 3000 -TSRA BR FEW005 BKN015CB 21/19 A2999 NOSIG=
201706210100 METAR MRPV NIL=
201706210200 METAR MRPV NIL=
201706210300 METAR MRPV NIL=
201706210400 METAR MRPV NIL=
201706210500 METAR MRPV NIL=
201706210600 METAR MRPV NIL=
201706210700 METAR MRPV NIL=
201706210800 METAR MRPV NIL=
201706210900 METAR MRPV NIL=
201706211000 METAR MRPV NIL=
201706211100 METAR MRPV NIL=
201706211200 METAR MRPV 211200Z 17001KT CAVOK 19/18 A2998 NOSIG=
201706211300 METAR MRPV 211300Z 08004KT 9999 FEW035 BKN200 20/19 A2999 NOSIG=
201706211400 METAR MRPV 211400Z 12003KT 9999 FEW035 BKN200 21/18 A3000 NOSIG=
201706211500 METAR MRPV 211500Z 10006KT CAVOK 23/17 A3002 NOSIG=
201706211600 METAR MRPV 211600Z 11007KT 9999 FEW035 SCT120 BKN200 24/17 A3003 NOSIG=
201706211700 METAR MRPV 211700Z 08011KT 9999 SCT035 BKN200 26/16 A3001 NOSIG=
201706211800 METAR MRPV 211800Z 08009KT 9999 RA SCT035 BKN100 24/16 A3000 NOSIG=
201706211900 METAR MRPV 211900Z 12006KT 9999 FEW030 BKN100 24/17 A2999 RERA BECMG 28005KT=
201706212000 METAR MRPV 212000Z 35005KT 9999 VCFG FEW010 SCT030 BKN100 23/19 A2997 NOSIG=
201706212100 METAR MRPV 212100Z 27005KT 8000 FEW030 BKN200 24/19 A2995 NOSIG=
201706212200 METAR MRPV 212200Z 28008KT 8000 3000E VCFG SCT030 BKN200 24/19 A2995 NOSIG=
201706212300 METAR MRPV 212300Z 27008KT 9999 SCT020 BKN250 23/19 A2996 NOSIG=
201706220000 METAR MRPV 220000Z 29007KT 9999 SCT002 BKN250 21/19 A2998 NOSIG=
201706220100 METAR MRPV NIL=
201706220200 METAR MRPV NIL=
201706220300 METAR MRPV NIL=
201706220400 METAR MRPV NIL=
201706220500 METAR MRPV NIL=
201706220600 METAR MRPV NIL=
201706220700 METAR MRPV NIL=
201706220800 METAR MRPV NIL=
201706220900 METAR MRPV NIL=
201706221000 METAR MRPV NIL=
201706221100 METAR MRPV NIL=
201706221200 METAR MRPV 221200Z 14003KT CAVOK 20/18 A3000 NOSIG=
201706221300 METAR MRPV 221300Z 33002KT CAVOK 21/18 A3002 NOSIG=
201706221400 METAR MRPV 221400Z 07003KT CAVOK 23/17 A3004 NOSIG=
201706221500 METAR MRPV 221500Z 35002KT 9999 FEW020 OVC100 23/17 A3004 NOSIG=
201706221600 METAR MRPV 221600Z 11001KT 9999 FEW025 OVC100 25/17 A3005 NOSIG=
201706221700 METAR MRPV 221700Z 30002KT 9999 FEW035 OVC100 26/17 A3004 NOSIG=
201706221800 METAR MRPV 221800Z 27007KT 9999 FEW020 OVC100 24/18 A3002 NOSIG=
201706221900 METAR MRPV 221900Z 27005KT 9999 FEW035 BKN120 24/19 A3000 NOSIG=
201706222000 METAR MRPV 222000Z 29007KT 9999 FEW030 BKN120 25/20 A2999 NOSIG=
201706222100 METAR MRPV 222100Z 30009KT 9000 4000E TSRA BKN012CB SCT100 23/20 A2999 TEMPO 3000=
201706222200 METAR MRPV 222200Z 05006KT 5000 -RA SCT010 BKN025 19/17 A3000 RETSRA NOSIG=
201706222300 METAR MRPV 222300Z 09001KT 8000 -DZ VCFG FEW030 BKN100 20/19 A3001 NOSIG=
201706230000 METAR MRPV 230000Z 19001KT 9999 -DZ VCFG FEW010 BKN100 20/19 A3002 NOSIG=
201706230100 METAR MRPV NIL=
201706230200 METAR MRPV NIL=
201706230300 METAR MRPV NIL=
201706230400 METAR MRPV NIL=
201706230500 METAR MRPV NIL=
201706230600 METAR MRPV NIL=
201706230700 METAR MRPV NIL=
201706230800 METAR MRPV NIL=
201706230900 METAR MRPV NIL=
201706231000 METAR MRPV NIL=
201706231100 METAR MRPV NIL=
201706231200 METAR MRPV 231200Z 08003KT 9999 FEW040 19/16 A3002 NOSIG=
201706231300 METAR MRPV 231300Z 12002KT CAVOK 23/17 A3002 NOSIG=
201706231400 METAR MRPV 231400Z 08005KT CAVOK 25/15 A3002 NOSIG=
201706231500 METAR MRPV 231500Z 27006KT 9999 FEW035 24/18 A3002 NOSIG=
201706231600 METAR MRPV 231600Z 29008KT 9999 FEW035 25/18 A3002 NOSIG=
201706231700 METAR MRPV 231700Z 30005KT 9999 SCT035 25/18 A3002 NOSIG=
201706231800 METAR MRPV 231800Z 29008KT 9999 BKN035 25/19 A3001 NOSIG=
201706231900 METAR MRPV 231900Z 28009KT 9999 FEW020TCU BKN030 26/19 A2999 NOSIG=
201706232000 METAR MRPV 232000Z 27008KT 9999 BKN030 25/20 A2997 NOSIG=
201706232100 METAR MRPV 232100Z 27008KT 9999 SCT025TCU SCT030 25/19 A2995 NOSIG=
201706232200 METAR MRPV 232200Z 27008KT 9999 BKN025 25/19 A2995 NOSIG=
201706232300 METAR MRPV 232300Z 27008KT 5000 HZ BKN008 SCT080 23/20 A2996 NOSIG=
201706240000 METAR MRPV 240000Z 26002KT 5000 -RA HZ SCT008 BKN100 22/20 A2998 NOSIG=
201706240100 METAR MRPV NIL=
201706240200 METAR MRPV NIL=
201706240300 METAR MRPV NIL=
201706240400 METAR MRPV NIL=
201706240500 METAR MRPV NIL=
201706240600 METAR MRPV NIL=
201706240700 METAR MRPV NIL=
201706240800 METAR MRPV NIL=
201706240900 METAR MRPV NIL=
201706241000 METAR MRPV NIL=
201706241100 METAR MRPV NIL=
201706241200 METAR MRPV 241200Z 12005KT 9999 FEW030 BKN250 21/16 A3001 NOSIG=
201706241300 METAR MRPV 241300Z 13005KT CAVOK 22/16 A3002 NOSIG=
201706241400 METAR MRPV 241400Z 10008KT 9999 FEW025 BKN250 23/17 A3004 NOSIG=
201706241500 METAR MRPV 241500Z 11009KT 9999 FEW040 SCT100 24/17 A3004 NOSIG=
201706241600 METAR MRPV 241600Z 08011KT 9999 BKN030 SCT250 24/17 A3006 NOSIG=
201706241700 METAR MRPV 241700Z 13007KT 9999 SCT040 BKN200 26/17 A3003 NOSIG=
201706241800 METAR MRPV 241800Z 06008KT 9999 RA BKN100 25/17 A3003 NOSIG=
201706241900 METAR MRPV 241900Z 06009KT 9999 FEW020 BKN100 23/17 A3001 RERA NOSIG=
201706242000 METAR MRPV 242000Z 06010KT 9999 FEW025 BKN100 26/17 A2998 NOSIG=
201706242100 METAR MRPV 242100Z 06008KT 9999 FEW035 SCT100 28/16 A2997 NOSIG=
201706242200 METAR MRPV 242200Z 05006KT 9999 BKN030 SCT250 26/17 A2995 NOSIG=
201706242300 METAR MRPV 242300Z 30005KT 3000 -RA BR BKN010 22/21 A2997 NOSIG=
201706250000 METAR MRPV 250000Z 10005KT 9999 FEW008TCU SCT020 SCT090 22/21 A2998 NOSIG=
201706250100 METAR MRPV NIL=
201706250200 METAR MRPV NIL=
201706250300 METAR MRPV NIL=
201706250400 METAR MRPV NIL=
201706250500 METAR MRPV NIL=
201706250600 METAR MRPV NIL=
201706250700 METAR MRPV NIL=
201706250800 METAR MRPV NIL=
201706250900 METAR MRPV NIL=
201706251000 METAR MRPV NIL=
201706251100 METAR MRPV NIL=
201706251200 METAR MRPV 251200Z 12009G20KT CAVOK 21/13 A3003 NOSIG=
201706251300 METAR MRPV 251300Z 12010KT 9999 FEW035 BKN200 22/14 A3004 NOSIG=
201706251400 METAR MRPV 251400Z 11012G23KT 9999 FEW035 BKN200 23/16 A3005 NOSIG=
201706251500 METAR MRPV 251500Z 07013KT 9999 FEW035 BKN200 25/16 A3006 NOSIG=
201706251600 METAR MRPV 251600Z 08015KT 9999 FEW035 BKN200 25/15 A3006 NOSIG=
201706251700 METAR MRPV 251700Z 08013KT 9999 FEW035 BKN200 27/15 A3005 NOSIG=
201706251800 METAR MRPV 251800Z 08015KT 9999 FEW040 BKN250 28/15 A3004 NOSIG=
201706251900 METAR MRPV 251900Z 07011KT 9999 FEW040 SCT250 28/14 A3001 NOSIG=
201706252000 METAR MRPV 252000Z 09008KT 9999 FEW035 SCT200 28/15 A2998 NOSIG=
201706252100 METAR MRPV 252100Z 08012KT 9999 FEW035 BKN200 28/16 A2997 NOSIG=
201706252200 METAR MRPV 252200Z 07010KT 9999 FEW035 BKN200 28/17 A2996 NOSIG=
201706252300 METAR MRPV 252300Z 32005KT 9999 FEW020TCU SCT035 24/19 A2997 NOSIG=
201706260000 METAR MRPV 260000Z 32003KT 9999 BKN020 23/19 A3000 NOSIG=
201706260100 METAR MRPV NIL=
201706260200 METAR MRPV NIL=
201706260300 METAR MRPV NIL=
201706260400 METAR MRPV NIL=
201706260500 METAR MRPV NIL=
201706260600 METAR MRPV NIL=
201706260700 METAR MRPV NIL=
201706260800 METAR MRPV NIL=
201706260900 METAR MRPV NIL=
201706261000 METAR MRPV NIL=
201706261100 METAR MRPV NIL=
201706261200 METAR MRPV 261200Z 12009KT CAVOK 21/15 A3003 NOSIG=
201706261300 METAR MRPV 261300Z 12006KT 9999 FEW035 BKN090 21/16 A3005 NOSIG=
201706261400 METAR MRPV 261400Z 09005KT CAVOK 22/16 A3006 NOSIG=
201706261500 METAR MRPV 261500Z 09004KT CAVOK 23/16 A3006 NOSIG=
201706261600 METAR MRPV 261600Z 35002KT 9999 FEW040 SCT120 25/16 A3006 BECMG 27008KT=
201706261700 METAR MRPV 261700Z COR 07004KT 9999 FEW040 BKN160 28/15 A3004 NOSIG=
201706261800 METAR MRPV 261800Z 07010KT 9999 FEW035 BKN140 27/15 A3002 NOSIG=
201706261900 METAR MRPV 261900Z 08012KT 9999 FEW035 SCT090 BKN120 26/14 A3001 NOSIG=
201706262000 METAR MRPV 262000Z 09014KT 9999 -RA FEW035 BKN100 24/16 A3000 REDZ NOSIG=
201706262100 METAR MRPV 262100Z 08010KT 9999 FEW025 BKN100 24/16 A2999 NOSIG=
201706262200 METAR MRPV 262200Z 09009KT 9999 -RA FEW025 BKN100 24/15 A2999 NOSIG=
201706262300 METAR MRPV 262300Z 12011KT 9999 FEW010 SCT030 BKN120 23/16 A3000 NOSIG=
201706270000 METAR MRPV 270000Z 08010KT 9999 FEW0100 BKN110 22/16 A3001 NOSIG=
201706270100 METAR MRPV NIL=
201706270200 METAR MRPV NIL=
201706270300 METAR MRPV NIL=
201706270400 METAR MRPV NIL=
201706270500 METAR MRPV NIL=
201706270600 METAR MRPV NIL=
201706270700 METAR MRPV NIL=
201706270800 METAR MRPV NIL=
201706270900 METAR MRPV NIL=
201706271000 METAR MRPV NIL=
201706271100 METAR MRPV NIL=
201706271200 METAR MRPV 271200Z 08006KT CAVOK 20/16 A3002 NOSIG=
201706271300 METAR MRPV 271300Z 11009KT CAVOK 21/15 A3004 NOSIG=
201706271400 METAR MRPV 271400Z 12009KT 9999 FEW035 BKN200 23/15 A3004 NOSIG=
201706271500 METAR MRPV 271500Z 11009KT 9999 SCT035 SCT200 24/15 A3006 NOSIG=
201706271600 METAR MRPV 271600Z 11006KT 9999 FEW040 SCT200 25/15 A3006 NOSIG=
201706271700 METAR MRPV 271700Z 07008KT 9999 FEW040 SCT200 26/15 A3005 NOSIG=
201706271800 METAR MRPV 271800Z 10003KT 9999 SCT040 BKN120 27/14 A3003 BECMG 28005KT=
201706271900 METAR MRPV 271900Z 25004KT 9999 SCT035 BKN120 24/18 A3001 BECMG RA=
201706272000 METAR MRPV 272000Z 31006KT 9999 -RA FEW010TCU FEW020 BKN120 22/18 A3000 NOSIG=
201706272100 METAR MRPV 272100Z 27007KT 9999 VCFG FEW010 SCT020 BKN120 23/20 A2998 NOSIG=
201706272200 METAR MRPV 272200Z 27006KT 9999 VCFG FEW010 SCT030 BKN120 22/19 A2998 NOSIG=
201706272300 METAR MRPV 272300Z 29007KT 5000 BR SCT005 BKN013 21/20 A3001 NOSIG=
201706272325 METAR MRPV 272325Z 30005KT 5000 BR SCT005 BKN015 21/19 A3001 NOSIG=
201706280000 METAR MRPV 280000Z 28005KT 4500 BR SCT005 BKN010 21/19 A3002 NOSIG=
201706280100 METAR MRPV NIL=
201706280200 METAR MRPV NIL=
201706280300 METAR MRPV NIL=
201706280400 METAR MRPV NIL=
201706280500 METAR MRPV NIL=
201706280600 METAR MRPV NIL=
201706280700 METAR MRPV NIL=
201706280800 METAR MRPV NIL=
201706280900 METAR MRPV NIL=
201706281000 METAR MRPV NIL=
201706281100 METAR MRPV NIL=
201706281200 METAR MRPV 281200Z 10005KT 9999 FEW035 BKN250 20/17 A3002 NOSIG=
201706281300 METAR MRPV 281300Z 12008KT 9999 FEW035 BKN250 21/16 A3003 NOSIG=
201706281400 METAR MRPV 281400Z 14006KT 9999 FEW035 BKN250 24/16 A3002 NOSIG=
201706281500 METAR MRPV 281500Z 14004KT 9999 FEW030 BKN250 25/17 A3003 BECMG 22003KT=
201706281600 METAR MRPV 281600Z 27006KT 190V280 9999 SCT0350 SCT200 25/17 A3004 NOSIG=
201706281700 METAR MRPV 281700Z 27010KT 9999 SCT035 BKN200 26/18 A3004 NOSIG=
201706281800 METAR MRPV 281800Z 29007KT 9999 VCTS SCT030CB BKN200 25/18 A3002 TEMPO TSRA=
201706281900 METAR MRPV 281900Z 17005KT 0500 TSRA VV/// 20/18 A3002 NOSIG=
201706282000 METAR MRPV 282000Z 02002KT 8000 -TSRA FEW006 FEW020CB BKN100 20/18 A3000 NOSIG=
201706282100 METAR MRPV 282100Z 20001KT 9999 BCFG FEW010 BKN100 21/18 A3000 RETSRA NOSIG=
201706282200 METAR MRPV 282200Z 29004KT 5000 -RA BR BKN007 SCT100 21/19 A3001 NOSIG=
201706282300 METAR MRPV 282300Z 32004KT 5000 2000E -RA BR FEW004 SCT008 BKN080 20/19 A3002 NOSIG=
201706290000 METAR MRPV 290000Z 13001KT 8000 VCFG FEW005 SCT020 BKN100 19/18 A3003 NOSIG=
201706290100 METAR MRPV NIL=
201706290200 METAR MRPV NIL=
201706290300 METAR MRPV NIL=
201706290400 METAR MRPV NIL=
201706290500 METAR MRPV NIL=
201706290600 METAR MRPV NIL=
201706290700 METAR MRPV NIL=
201706290800 METAR MRPV NIL=
201706290900 METAR MRPV NIL=
201706291000 METAR MRPV NIL=
201706291100 METAR MRPV NIL=
201706291200 METAR MRPV 291200Z 11009KT 9999 FEW025 BKN200 21/16 A3003 NOSIG=
201706291300 METAR MRPV 291300Z 09010KT 9999 FEW025 BKN200 23/16 A3005 NOSIG=
201706291400 METAR MRPV 291400Z 09017KT 9999 FEW020 SCT060 BKN140 23/17 A3005 NOSIG=
201706291500 METAR MRPV 291500Z 08015KT 9999 FEW030 SCT060 23/16 A3005 NOSIG=
201706291600 METAR MRPV 291600Z 07013KT 9999 SCT025 SCT100 23/16 A3005 NOSIG=
201706291700 METAR MRPV 291700Z 07014KT 9999 FEW025 BKN120 24/16 A3005 NOSIG=
201706291800 METAR MRPV 291800Z 10010KT 9999 SCT030 BKN100 24/16 A3005 NOSIG=
201706291900 METAR MRPV 291900Z 09009KT 9999 FEW035 BKN100 25/15 A3003 NOSIG=
201706292000 METAR MRPV 292000Z 07013KT 9999 FEW040 BKN100 25/15 A3001 NOSIG=
201706292100 METAR MRPV 292100Z 08009KT 9999 FEW040 BKN100 25/15 A3000 NOSIG=
201706292200 METAR MRPV 292200Z 08008KT CAVOK 25/14 A2999 NOSIG=
201706292300 METAR MRPV 292300Z 10008KT CAVOK 23/16 A3000 NOSIG=
201706300000 METAR MRPV 300000Z 09007KT 9999 VCFG NSC 22/16 A3000 NOSIG=
201706300100 METAR MRPV NIL=
201706300200 METAR MRPV NIL=
201706300300 METAR MRPV NIL=
201706300400 METAR MRPV NIL=
201706300500 METAR MRPV NIL=
201706300600 METAR MRPV NIL=
201706300700 METAR MRPV NIL=
201706300800 METAR MRPV NIL=
201706300900 METAR MRPV NIL=
201706301000 METAR MRPV NIL=
201706301100 METAR MRPV NIL=
201706301200 METAR MRPV 301200Z 10007KT CAVOK 20/15 A3000 NOSIG=
201706301300 METAR MRPV 301300Z 14005KT CAVOK 22/15 A3001 NOSIG=
201706301400 METAR MRPV 301400Z 13007KT CAVOK 24/15 A3003 NOSIG=
201706301500 METAR MRPV 301500Z 10007KT CAVOK 26/15 A3004 NOSIG=
201706301600 METAR MRPV 301600Z 31004KT 9999 FEW040 BKN200 26/17 A3006 NOSIG=
201706301700 METAR MRPV 301700Z 30006KT 9999 SCT045 BKN200 27/18 A3004 NOSIG=
201706301800 METAR MRPV 301800Z 26006KT 9999 SCT035 BKN200 27/19 A3002 NOSIG=
201706301900 METAR MRPV 301900Z 26006KT 9999 FEW035 BKN200 27/19 A2998 NOSIG=
201706302000 METAR MRPV 302000Z 27008KT 9999 SCT030 BKN200 27/19 A2995 NOSIG=
201706302100 METAR MRPV 302100Z COR 26004KT 9999 BKN030 24/21 A2995 RERA NOSIG=
201706302200 METAR MRPV 302200Z 28009KT 9999 BCFG FEW010 SCT025 BKN200 24/21 A2996 NOSIG=
201706302300 MRPV 302300Z 27007KT 5000 2500N BR SCT010 BKN025 23/21 A2997 NOSIG=
201707010000 METAR MRPV 010000Z COR 26004KT 1000 FG BKN005 21/20 A3000 NOSIG=
201707010100 METAR MRPV NIL=
201707010200 METAR MRPV NIL=
201707010300 METAR MRPV NIL=
201707010400 METAR MRPV NIL=
201707010500 METAR MRPV NIL=
201707010600 METAR MRPV NIL=
201707010700 METAR MRPV NIL=
201707010800 METAR MRPV NIL=
201707010900 METAR MRPV NIL=
201707011000 METAR MRPV NIL=
201707011100 METAR MRPV NIL=
201707011200 METAR MRPV 011200Z 10001KT 9999 FEW040 BKN100 19/17 A3001 NOSIG=
201707011300 METAR MRPV 011300Z 09004KT 9999 FEW040 BKN140 21/16 A3003 NOSIG=
201707011400 METAR MRPV 011400Z 03002KT CAVOK 21/17 A3005 NOSIG=
201707011500 METAR MRPV 011500Z 24001KT 9999 FEW035 SCT120 BKN200 22/16 A3005 NOSIG=
201707011600 METAR MRPV 011600Z 09009KT 9999 FEW040 SCT140 BKN200 25/17 A3005 NOSIG=
201707011700 METAR MRPV 011700Z 06008KT 9999 FEW045 SCT100 BKN200 25/16 A3005 NOSIG=
201707011800 METAR MRPV 011800Z 29009KT 9999 FEW040 SCT100 BKN200 25/19 A3004 NOSIG=
201707011900 METAR MRPV 011900Z 28005KT 9999 FEW035 BKN120 25/19 A3000 NOSIG=
201707012000 METAR MRPV 012000Z 27006KT 9999 FEW035 BKN120 25/19 A2999 NOSIG=
201707012100 METAR MRPV 012100Z 29008KT 9999 FEW035 BKN200 25/18 A2998 NOSIG=
201707012200 METAR MRPV 012200Z 30005KT 9999 SCT020 BKN200 25/19 A2999 NOSIG=
201707012300 METAR MRPV 012300Z 27006KT 9999 SCT015 BKN100 23/19 A3001 NOSIG=
201707020000 METAR MRPV 020000Z 26002KT 9999 SCT020 BKN120 22/20 A3003 NOSIG=
201707020100 METAR MRPV NIL=
201707020200 METAR MRPV NIL=
201707020300 METAR MRPV NIL=
201707020400 METAR MRPV NIL=
201707020500 METAR MRPV NIL=
201707020600 METAR MRPV NIL=
201707020700 METAR MRPV NIL=
201707020800 METAR MRPV NIL=
201707020900 METAR MRPV NIL=
201707021000 METAR MRPV NIL=
201707021100 METAR MRPV NIL=
201707021200 METAR MRPV 021200Z 11007KT 9999 FEW035 BKN090 22/15 A3004 NOSIG=
201707021300 METAR MRPV 021300Z 14007KT 9999 FEW030 SCT100 BKN200 21/16 A3005 NOSIG=
201707021400 METAR MRPV 021400Z 11009KT 9999 FEW035 BKN100 22/15 A3008 NOSIG=
201707021500 METAR MRPV 021500Z 08012KT 9999 VCFG FEW030 BKN100 23/16 A3008 NOSIG=
201707021600 METAR MRPV 021600Z 07018KT 9999 FEW030 BKN100 23/16 A3010 NOSIG=
201707021700 METAR MRPV 021700Z 08015KT 9999 FEW030 SCT120 BKN200 23/16 A3010 NOSIG=
201707021800 METAR MRPV 021800Z COR 08016KT 9999 FEW030 BKN120 23/17 A3009 NOSIG=
201707021900 METAR MRPV 021900Z 10009KT CAVOK 24/15 A3006 NOSIG=
201707022000 METAR MRPV 022000Z 10007KT CAVOK 24/15 A2996 NOSIG=
201707022100 METAR MRPV 022100Z 10017G27KT CAVOK 25/14 A2996 NOSIG=
201707022200 METAR MRPV 022200Z 08015KT CAVOK 25/15 A2997 NOSIG=
201707022300 METAR MRPV 022300Z 06009KT 9999 FEW040 SCT100 BKN025 25/14 A2999 NOSIG=
201707030000 METAR MRPV 030000Z 03004KT 9999 SCT030 SCT100 22/18 A3001 NOSIG=
201707030100 METAR MRPV NIL=
201707030200 METAR MRPV NIL=
201707030300 METAR MRPV NIL=
201707030400 METAR MRPV NIL=
201707030500 METAR MRPV NIL=
201707030600 METAR MRPV NIL=
201707030700 METAR MRPV NIL=
201707030800 METAR MRPV NIL=
201707030900 METAR MRPV NIL=
201707031000 METAR MRPV NIL=
201707031100 METAR MRPV NIL=
201707031200 METAR MRPV 031200Z 13006KT CAVOK 20/14 A3002 NOSIG=
201707031300 METAR MRPV 031300Z 12009KT CAVOK 21/15 A3001 NOSIG=
201707031400 METAR MRPV 031400Z 15009KT CAVOK 22/15 A3003 NOSIG=
201707031500 METAR MRPV 031500Z 11008KT CAVOK 24/15 A3005 NOSIG=
201707031600 METAR MRPV 031600Z 08011KT CAVOK 25/15 A3004 NOSIG=
201707031700 METAR MRPV 031700Z 07011KT 9999 FEW035 BKN200 26/16 A3001 NOSIG=
201707031800 METAR MRPV 031800Z 05011KT 9999 FEW040 BKN200 27/15 A3000 NOSIG=
201707031900 METAR MRPV 031900Z 05006KT 9999 FEW045 BKN200 28/16 A2998 NOSIG=
201707032000 METAR MRPV 032000Z 28006KT 9999 BKN045 SCT120 27/19 A2996 NOSIG=
201707032100 METAR MRPV 032100Z 26007KT 9999 SCT040 26/19 A2995 NOSIG=
201707032200 METAR MRPV 032200Z 30009KT 9999 VCSH SCT020TCU BKN035 24/18 A2996 NOSIG=
201707032300 METAR MRPV 032300Z 29001KT 9999 SCT020 BKN080 20/18 A3001 RESHRA NOSIG=
201707040000 METAR MRPV 040000Z 29001KT 9999 -DZ FEW010 SCT020 BKN080 20/18 A3003 NOSIG=
201707040100 METAR MRPV NIL=
201707040200 METAR MRPV NIL=
201707040300 METAR MRPV NIL=
201707040400 METAR MRPV NIL=
201707040500 METAR MRPV NIL=
201707040600 METAR MRPV NIL=
201707040700 METAR MRPV NIL=
201707040800 METAR MRPV NIL=
201707040900 METAR MRPV NIL=
201707041000 METAR MRPV NIL=
201707041100 METAR MRPV NIL=
201707041200 METAR MRPV 041200Z 08004KT 9999 FEW040 SCT160 BKN200 20/16 A3003 NOSIG=
201707041300 METAR MRPV 041300Z 13005KT CAVOK 23/17 A3004 NOSIG=
201707041400 METAR MRPV 041400Z 29004KT CAVOK 25/16 A3004 NOSIG=
201707041500 METAR MRPV 041500Z 27007KT 9999 FEW040 SCT160 BKN200 24/17 A3005 NOSIG=
201707041600 METAR MRPV 041600Z 29008KT 9999 FEW030 BKN160 24/17 A3005 NOSIG=
201707041700 METAR MRPV 041700Z 28011KT 9999 SCT030 25/18 A3005 NOSIG=
201707041800 METAR MRPV 041800Z COR 28009KT 9999 SHRA BKN015TCU SCT090 23/19 A3004 RETSRA NOSIG=
201707041900 METAR MRPV 041900Z 28006KT 4500 -RA BR SCT005 BKN100 22/20 A3002 RETSRA NOSIG=
201707042000 METAR MRPV 042000Z 26003KT 8000 VCFG FEW007 SCT010TCU BKN100 22/20 A3000 TEMPO RA=
201707042100 METAR MRPV 042100Z 35007KT 2000 +TSRA BKN015CB 19/18 A3001 NOSIG=
201707042200 METAR MRPV 042200Z 08003KT 6000 RA FEW010 BKN100 20/19 A3002 RETSRA NOSIG=
201707042300 METAR MRPV 042300Z 12003KT 9999 RA FEW030 BKN100 20/19 A3001 NOSIG=
201707050000 METAR MRPV 050000Z 11011KT 9999 FEW030 BKN100 20/17 A3002 RERA NOSIG=
201707050100 METAR MRPV NIL=
201707050200 METAR MRPV NIL=
201707050300 METAR MRPV NIL=
201707050400 METAR MRPV NIL=
201707050500 METAR MRPV NIL=
201707050600 METAR MRPV NIL=
201707050700 METAR MRPV NIL=
201707050800 METAR MRPV NIL=
201707050900 METAR MRPV NIL=
201707051000 METAR MRPV NIL=
201707051100 METAR MRPV NIL=
201707051200 METAR MRPV COR 051200Z 12008KT 9999 FEW025 21/16 A3003 NOSIG=
201707051300 METAR MRPV 051300Z 13005KT CAVOK 23/16 A3003 NOSIG=
201707051400 METAR MRPV 051400Z 13006KT CAVOK 24/16 A3005 NOSIG=
201707051500 METAR MRPV 051500Z 06010KT 9999 FEW025 BKN080 25/16 A3007 NOSIG=
201707051600 METAR MRPV 051600Z 07007KT 9999 FEW035 SCT080 BKN200 26/16 A3007 NOSIG=
201707051700 METAR MRPV 051700Z 08009KT 9999 SCT035 BKN060 25/17 A3006 NOSIG=
201707051800 METAR MRPV 051800Z 32008KT 9999 SCT035 BKN060 24/19 A3005 NOSIG=
201707051900 METAR MRPV 051900Z COR 06008KT 2000 RA BKN030 22/19 A3006 NOSIG=
201707052000 METAR MRPV 052000Z COR 13005KT 9999 SCT020 BKN100 22/18 A3003 NOSIG=
201707052100 METAR MRPV 052100Z 09009KT 9999 SCT025 BKN100 22/17 A3003 NOSIG=
201707052200 METAR MRPV 052200Z 11005KT 9999 FEW035 BKN100 22/17 A3003 NOSIG=
201707052300 METAR MRPV 052300Z COR 11007KT 9999 -RA FEW040 BKN080 22/17 A3001 NOSIG=
201707060000 METAR MRPV 060000Z 10008KT 9999 FEW040 SCT080 BKN160 22/16 A3001 RERA NOSIG=
201707060100 METAR MRPV NIL=
201707060200 METAR MRPV NIL=
201707060300 METAR MRPV NIL=
201707060400 METAR MRPV NIL=
201707060500 METAR MRPV NIL=
201707060600 METAR MRPV NIL=
201707060700 METAR MRPV NIL=
201707060800 METAR MRPV NIL=
201707060900 METAR MRPV NIL=
201707061000 METAR MRPV NIL=
201707061100 METAR MRPV NIL=
201707061200 METAR MRPV 061200Z 12006KT 9999 FEW035 BKN200 21/16 A3002 NOSIG=
201707061300 METAR MRPV 061300Z 07010KT 9999 FEW035 BKN250 22/16 A3004 NOSIG=
201707061400 METAR MRPV 061400Z 08012KT 9999 FEW035 BKN250 24/16 A3007 NOSIG=
201707061500 METAR MRPV 061500Z 08008KT CAVOK 26/16 A3008 NOSIG=
201707061600 METAR MRPV 061600Z 11005KT CAVOK 27/15 A3007 NOSIG=
201707061700 METAR MRPV 061700Z 33004KT 9999 SCT035 SCT200 28/15 A3005 NOSIG=
201707061800 METAR MRPV 061800Z 29010KT 9999 FEW015TCU FEW030 SCT100 26/18 A3004 NOSIG=
201707061900 METAR MRPV 061900Z 25004KT 9999 RA FEW020TCU SCT030 BKN100 24/19 A3003 NOSIG=
201707062000 METAR MRPV 062000Z 31001KT 9999 FEW030 SCT120 26/19 A3000 RERA NOSIG=
201707062100 METAR MRPV 062100Z 32003KT 9999 FEW030 27/18 A2996 NOSIG=
201707062200 METAR MRPV 062200Z 08008KT 9999 SCT030 BKN200 27/17 A2995 NOSIG=
201707062300 METAR MRPV 062300Z 07014KT 9999 4500SW -RA FEW005CB SCT030 BKN100 21/17 A2998 NOSIG=
201707070000 METAR MRPV 070000Z 10008KT 9999 VCFG SCT030 BKN080 22/17 A3002 RERA NOSIG=
201707070100 METAR MRPV NIL=
201707070200 METAR MRPV NIL=
201707070300 METAR MRPV NIL=
201707070400 METAR MRPV NIL=
201707070500 METAR MRPV NIL=
201707070600 METAR MRPV NIL=
201707070700 METAR MRPV NIL=
201707070800 METAR MRPV NIL=
201707070900 METAR MRPV NIL=
201707071000 METAR MRPV NIL=
201707071100 METAR MRPV NIL=
201707071200 METAR MRPV 071200Z 14006KT 9999 FEW040 SCT120 BKN200 21/16 A3002 NOSIG=
201707071300 METAR MRPV 071300Z 13006KT 9999 FEW035 BKN200 22/16 A3003 NOSIG=
201707071400 METAR MRPV 071400Z 13008KT 9999 FEW040 SCT100 BKN200 24/16 A3006 NOSIG=
201707071500 METAR MRPV 071500Z 09007KT 9999 FEW035 SCT130 25/17 A3007 NOSIG=
201707071600 METAR MRPV 071600Z 09010KT 9999 FEW035 BKN120 26/17 A3006 NOSIG=
201707071700 MRPV 071700Z 27006KT 9999 FEW035 BKN140 27/16 A3006 NOSIG=
201707071800 METAR MRPV 071800Z 28009KT 9999 VCSH SCT030 BKN060 26/19 A3004 NOSIG=
201707071900 METAR MRPV 071900Z 27007KT 9999 BKN025 SCT200 24/19 A3001 NOSIG=
201707072000 METAR MRPV 072000Z 29008KT 2000 TSRA FEW015CB BKN015 22/19 A3003 RESHRA NOSIG=
201707072100 METAR MRPV 072100Z 14003KT 9000 RA SCT025 BKN100 20/19 A3002 NOSIG=
201707072200 METAR MRPV 072200Z 01002KT 5000 RA BR SCT015 BKN100 20/19 A3003 NOSIG=
201707072300 METAR MRPV 072300Z 10003KT 7000 -RA SCT015 BKN100 20/19 A3004 NOSIG=
201707080000 METAR MRPV 080000Z 09005KT 8000 -RA OVC100 21/19 A3006 NOSIG=
201707080100 METAR MRPV NIL=
201707080200 METAR MRPV NIL=
201707080300 METAR MRPV NIL=
201707080400 METAR MRPV NIL=
201707080500 METAR MRPV NIL=
201707080600 METAR MRPV NIL=
201707080700 METAR MRPV NIL=
201707080800 METAR MRPV NIL=
201707080900 METAR MRPV NIL=
201707081000 METAR MRPV NIL=
201707081100 METAR MRPV NIL=
201707081200 METAR MRPV 081200Z 12008KT 9999 FEW030 SCT100 21/15 A3004 NOSIG=
201707081300 METAR MRPV 081300Z 11009KT 9999 FEW025 SCT250 22/15 A3006 NOSIG=
201707081400 METAR MRPV 081400Z 11010KT 9999 FEW030 BKN250 23/16 A3009 NOSIG=
201707081500 METAR MRPV 081500Z 08016KT 9999 FEW035 SCT250 24/16 A3009 NOSIG=
201707081600 METAR MRPV 081600Z 08016KT 9999 FEW045 SCT200 25/16 A3008 NOSIG=
201707081700 METAR MRPV 081700Z 08012KT 9999 FEW035 BKN200 25/17 A3008 NOSIG=
201707081800 METAR MRPV 081800Z 07011KT 9999 SCT030 BKN120 25/17 A3007 NOSIG=
201707081900 METAR MRPV 081900Z 08012KT 9999 SCT035 BKN120 27/17 A3004 NOSIG=
201707082000 METAR MRPV 082000Z 08005KT CAVOK 26/16 A3000 NOSIG=
201707082100 METAR MRPV 082100Z 08003KT 9999 FEW035 BKN200 27/16 A2998 NOSIG=
201707082200 METAR MRPV 082200Z 03004KT 9999 FEW035 BKN200 24/17 A3000 NOSIG=
201707082300 METAR MRPV 082300Z 02009KT 9999 FEW030 BKN100 24/16 A3001 NOSIG=
201707090000 METAR MRPV 090000Z 07005KT 9999 SCT025 BKN100 23/16 A3004 NOSIG=
201707090100 METAR MRPV NIL=
201707090200 METAR MRPV NIL=
201707090300 METAR MRPV NIL=
201707090400 METAR MRPV NIL=
201707090500 METAR MRPV NIL=
201707090600 METAR MRPV NIL=
201707090700 METAR MRPV NIL=
201707090800 METAR MRPV NIL=
201707090900 METAR MRPV NIL=
201707091000 METAR MRPV NIL=
201707091100 METAR MRPV NIL=
201707091200 METAR MRPV 091200Z 12010KT 9999 FEW030 BKN200 21/16 A3003 NOSIG=
201707091300 METAR MRPV 091300Z 11008KT 9999 FEW030 BKN200 21/16 A3004 NOSIG=
201707091400 METAR MRPV 091400Z 10013G23KT 9999 FEW030 BKN100 23/17 A3005 NOSIG=
201707091500 METAR MRPV 091500Z 08013KT 9999 FEW035 BKN100 23/17 A3005 NOSIG=
201707091600 METAR MRPV 091600Z 08013KT 9999 FEW030 BKN100 24/16 A3005 NOSIG=
201707091700 METAR MRPV 091700Z 09010KT 9999 FEW040 BKN100 24/16 A3006 NOSIG=
201707091800 METAR MRPV 091800Z 08012KT 9999 FEW025 SCT100 BKN200 24/15 A3004 NOSIG=
201707091900 METAR MRPV 091900Z 09014KT 9999 FEW035 BKN100 24/14 A3001 NOSIG=
201707092000 METAR MRPV 092000Z 08014KT 9999 FEW040 BKN100 23/15 A3001 NOSIG=
201707092100 METAR MRPV 092100Z 10007KT CAVOK 23/16 A2998 NOSIG=
201707092200 METAR MRPV 092200Z 10008KT CAVOK 23/16 A2994 NOSIG=
201707092300 METAR MRPV 092300Z 08014KT 9999 FEW030 OVC120 23/16 A2997 NOSIG=
201707100000 METAR MRPV 100000Z 11010KT 9999 FEW035 BKN120 22/17 A3000 NOSIG=
201707100100 METAR MRPV NIL=
201707100200 METAR MRPV NIL=
201707100300 METAR MRPV NIL=
201707100400 METAR MRPV NIL=
201707100500 METAR MRPV NIL=
201707100600 METAR MRPV NIL=
201707100700 METAR MRPV NIL=
201707100800 METAR MRPV NIL=
201707100900 METAR MRPV NIL=
201707101000 METAR MRPV NIL=
201707101100 METAR MRPV NIL=
201707101200 METAR MRPV 101200Z 12007KT 9999 FEW045 SCT100 BKN200 21/15 A3001 NOSIG=
201707101300 METAR MRPV 101300Z 12008KT 9999 FEW030 BKN100 21/16 A3004 NOSIG=
201707101400 METAR MRPV 101400Z 11009KT 9999 FEW035 BKN100 22/15 A3005 NOSIG=
201707101500 METAR MRPV 101500Z 10011KT 9999 FEW035 BKN100 23/16 A3006 NOSIG=
201707101600 METAR MRPV 101600Z 10012KT 9999 SCT030 SCT100 24/17 A3006 NOSIG=
201707101700 METAR MRPV 101700Z 10012KT 9999 FEW030 SCT100 BKN200 24/17 A300 NOSIG=
201707101800 METAR MRPV 101800Z 07013KT 9999 -RA SCT030 BKN200 23/16 A3005 NOSIG=
201707101900 METAR MRPV 101900Z 08013KT 9999 FEW040 BKN200 25/16 A3003 NOSIG=
201707102000 METAR MRPV 102000Z 11007KT 9999 FEW040 BKN120 24/15 A3002 NOSIG=
201707102100 METAR MRPV 102100Z 08010KT 9999 FEW040 BKN120 24/15 A3001 NOSIG=
201707102200 METAR MRPV 102200Z 08009KT CAVOK 24/15 A3001 NOSIG=
201707102300 METAR MRPV 102300Z 08007KT CAVOK 23/15 A3001 NOSIG=
201707110000 METAR MRPV 110000Z 10005KT 9999 FEW030 BKN120 22/15 A3003 NOSIG=
201707110100 METAR MRPV NIL=
201707110200 METAR MRPV NIL=
201707110300 METAR MRPV NIL=
201707110400 METAR MRPV NIL=
201707110500 METAR MRPV NIL=
201707110600 METAR MRPV NIL=
201707110700 METAR MRPV NIL=
201707110800 METAR MRPV NIL=
201707110900 METAR MRPV NIL=
201707111000 METAR MRPV NIL=
201707111100 METAR MRPV NIL=
201707111200 METAR MRPV 111200Z 13002KT 5000 BR FEW040 BKN100 20/18 A3004 NOSIG=
201707111300 METAR MRPV 111300Z 07005KT CAVOK 21/17 A3005 NOSIG=
201707111400 METAR MRPV 111400Z 10004KT CAVOK 22/17 A3005 NOSIG=
201707111500 METAR MRPV 111500Z 13007KT 9999 FEW040 SCT120 BKN200 25/16 A3005 NOSIG=
201707111600 METAR MRPV 111600Z 10009KT 9999 FEW040 BKN120 25/16 A3004 NOSIG=
201707111700 METAR MRPV 111700Z 09013KT 9999 FEW035 BKN120 26/15 A3004 NOSIG=
201707111800 METAR MRPV 111800Z 08016KT 9999 FEW040 BKN120 26/16 A3002 NOSIG=
201707111900 METAR MRPV 111900Z COR 08014KT 9999 VCTS SCT035 BKN120 26/16 A3000 NOSIG=
201707112000 METAR MRPV 112000Z COR 09017KT 9999 -RA VCTS VCSH FEW020TCU BKN035 24/16 A2998 NOSIG=
201707112100 METAR MRPV 112100Z 10008KT 8000 RA FEW020 BKN040 22/16 A2999 NOSIG=
201707112200 METAR MRPV 112200Z 11010KT 9999 -RA FEW010 SCT035 BKN100 21/16 A3001 NOSIG=
201707112300 METAR MRPV 112300Z 12008KT 9999 -RA FEW010 BKN100 20/17 A3002 NOSIG=
201707120000 METAR MRPV 120000Z 11006KT 9999 FEW010 BKN100 21/17 A3002 RERA NOSIG=
201707120100 METAR MRPV NIL=
201707120200 METAR MRPV NIL=
201707120300 METAR MRPV NIL=
201707120400 METAR MRPV NIL=
201707120500 METAR MRPV NIL=
201707120600 METAR MRPV NIL=
201707120700 METAR MRPV NIL=
201707120800 METAR MRPV NIL=
201707120900 METAR MRPV NIL=
201707121000 METAR MRPV NIL=
201707121100 METAR MRPV NIL=
201707121200 METAR MRPV 121200Z 11003KT 9999 FEW030 SCT045 19/17 A3004 NOSIG=
201707121300 METAR MRPV 121300Z 12003KT CAVOK 20/16 A3004 NOSIG=
201707121400 METAR MRPV 121400Z 09006KT CAVOK 24/15 A3004 NOSIG=
201707121500 METAR MRPV 121500Z 08006KT CAVOK 25/15 A3004 NOSIG=
201707121600 METAR MRPV 121600Z 27008KT 9999 FEW040 SCT140 BKN200 25/17 A3005 NOSIG=
201707121700 METAR MRPV 121700Z 28012KT 9999 FEW035 BKN200 25/17 A3005 NOSIG=
201707121800 METAR MRPV 121800Z COR 26010KT 9999 SCT035 SCT200 25/18 A3005 NOSIG=
201707121900 METAR MRPV 121900Z 28012KT 9999 SHRA FEW020TCU SCT020 BKN200 25/19 A3003 NOSIG=
201707122000 METAR MRPV 122000Z 14004KT 3000 SHRA FEW020TCU BKN020 20/18 A3003 NOSIG=
201707122100 METAR MRPV 122100Z 13002KT 7000 RA FEW030 BKN100 20/19 A3002 NOSIG=
201707122200 METAR MRPV 122200Z 08005KT CAVOK 20/19 A3001 RERA NOSIG=
201707122300 METAR MRPV 122300Z 14004KT CAVOK 21/18 A3003 NOSIG=
201707130000 METAR MRPV 130000Z 11007KT 9999 FEW040 BKN100 21/17 A3003 NOSIG=
201707130100 METAR MRPV NIL=
201707130200 METAR MRPV NIL=
201707130300 METAR MRPV NIL=
201707130400 METAR MRPV NIL=
201707130500 METAR MRPV NIL=
201707130600 METAR MRPV NIL=
201707130700 METAR MRPV NIL=
201707130800 METAR MRPV NIL=
201707130900 METAR MRPV NIL=
201707131000 METAR MRPV NIL=
201707131100 METAR MRPV NIL=
201707131200 METAR MRPV 131200Z 12005KT 9999 FEW035 BKN120 20/16 A3007 NOSIG=
201707131300 METAR MRPV 131300Z 11009KT 9999 FEW035 SCT120 21/16 A3008 NOSIG=
201707131400 METAR MRPV 131400Z 11007KT 9999 FEW030 BKN120 22/16 A3010 NOSIG=
201707131500 METAR MRPV 131500Z 10009KT 9999 FEW035 BKN140 24/16 A3011 NOSIG=
201707131600 METAR MRPV 131600Z 06008KT 9999 FEW035 SCT140 25/17 A3011 NOSIG=
201707131700 METAR MRPV 131700Z 08009KT 9999 FEW035 BKN200 26/16 A3010 NOSIG=
201707131800 METAR MRPV 131800Z 10004KT 9999 FEW045 BKN120 27/16 A3007 NOSIG=
201707131900 METAR MRPV 131900Z 07005KT 9999 SCT035 BKN100 28/16 A3006 NOSIG=
201707132000 METAR MRPV 132000Z 26009KT 9999 BKN035 SCT200 24/19 A3004 NOSIG=
201707132100 METAR MRPV 132100Z 28011KT 9999 VCFG BKN004 22/20 A3004 NOSIG=
201707132200 METAR MRPV 132200Z 29004KT 9999 -RA SCT010 BKN100 19/18 A3004 RETSRA NOSIG=
201707132300 METAR MRPV 132300Z 36002KT 9999 FEW030 SCT090 BKN100 19/18 A3005 NOSIG=
201707140000 METAR MRPV 140000Z 00000KT 9999 -RA SCT005 BKN100 20/19 A3007 NOSIG=
201707140100 METAR MRPV NIL=
201707140200 METAR MRPV NIL=
201707140300 METAR MRPV NIL=
201707140400 METAR MRPV NIL=
201707140500 METAR MRPV NIL=
201707140600 METAR MRPV NIL=
201707140700 METAR MRPV NIL=
201707140800 METAR MRPV NIL=
201707140900 METAR MRPV NIL=
201707141000 METAR MRPV NIL=
201707141100 METAR MRPV NIL=
201707141200 METAR MRPV 141200Z 13018KT 9999 FEW030 BKN200 21/15 A3008 NOSIG=
201707141300 METAR MRPV 141300Z 10008KT 9999 FEW030 BKN200 22/16 A3009 NOSIG=
201707141400 METAR MRPV 141400Z 08013KT 9999 FEW035 SCT160 BKN200 22/16 A3010 NOSIG=
201707141500 METAR MRPV 141500Z 07012KT CAVOK 24/16 A3011 NOSIG=
201707141600 METAR MRPV 141600Z 06012KT CAVOK 25/16 A3010 NOSIG=
201707141700 METAR MRPV 141700Z 06015KT 9999 FEW030 BKN140 24/16 A3011 NOSIG=
201707141800 METAR MRPV 141800Z 08011KT 9999 FEW030 BKN130 24/16 A3012 NOSIG=
201707141900 METAR MRPV 141900Z 08011KT 9999 SCT035 BKN130 25/15 A3010 NOSIG=
201707142000 METAR MRPV 142000Z 07010KT 9999 FEW035 SCT130 25/15 A3008 NOSIG=
201707142100 METAR MRPV 142100Z 10003KT 9999 FEW035 SCT130 28/15 A3006 TEMPO 33003KT=
201707142200 METAR MRPV 142200Z 07006KT 9999 FEW035 SCT110 BKN200 26/14 A3006 NOSIG=
201707142300 METAR MRPV 142300Z 29010KT 9999 FEW025 BKN200 24/20 A3007 NOSIG=
201707150000 METAR MRPV 150000Z 28004KT 9999 FEW015 SCT020 BKN200 22/19 A3008 NOSIG=
201707150100 METAR MRPV NIL=
201707150200 METAR MRPV NIL=
201707150300 METAR MRPV NIL=
201707150400 METAR MRPV NIL=
201707150500 METAR MRPV NIL=
201707150600 METAR MRPV NIL=
201707150700 METAR MRPV NIL=
201707150800 METAR MRPV NIL=
201707150900 METAR MRPV NIL=
201707151000 METAR MRPV NIL=
201707151100 METAR MRPV NIL=
201707151200 METAR MRPV 151200Z 11009KT 9999 FEW040 BKN100 21/14 A3010 NOSIG=
201707151300 METAR MRPV 151300Z 10007KT CAVOK 22/14 A3011 NOSIG=
201707151400 METAR MRPV 151400Z 08014KT CAVOK 23/14 A3011 NOSIG=
201707151500 METAR MRPV 151500Z 08018KT CAVOK 25/14 A3011 NOSIG=
201707151600 METAR MRPV 151600Z 06012KT CAVOK 26/12 A3010 NOSIG=
201707151700 METAR MRPV 151700Z 07014KT CAVOK 26/14 A3009 NOSIG=
201707151800 METAR MRPV 151800Z 06015KT 9999 FEW045 SCT250 26/15 A3009 NOSIG=
201707151900 METAR MRPV 151900Z 07014KT 9999 FEW040 SCT200 26/15 A3007 NOSIG=
201707152000 METAR MRPV 152000Z 05011KT 9999 FEW040 BKN200 27/16 A3003 NOSIG=
201707152100 METAR MRPV 152100Z 07009KT 9999 FEW045 BKN200 26/16 A3003 NOSIG=
201707152200 METAR MRPV 152200Z 08008KT 9999 FEW040 BKN200 25/16 A3004 NOSIG=
201707152300 METAR MRPV 152300Z 36006KT 9999 FEW035 BKN200 23/18 A3004 NOSIG=
201707160000 METAR MRPV 160000Z 26003KT 9999 SCT015 BKN200 21/19 A3005 NOSIG=
201707160100 METAR MRPV NIL=
201707160200 METAR MRPV NIL=
201707160300 METAR MRPV NIL=
201707160400 METAR MRPV NIL=
201707160500 METAR MRPV NIL=
201707160600 METAR MRPV NIL=
201707160700 METAR MRPV NIL=
201707160800 METAR MRPV NIL=
201707160900 METAR MRPV NIL=
201707161000 METAR MRPV NIL=
201707161100 METAR MRPV NIL=
201707161200 METAR MRPV 161200Z 12004KT CAVOK 20/15 A3007 NOSIG=
201707161300 METAR MRPV 161300Z 36003KT CAVOK 20/15 A3007 NOSIG=
201707161400 METAR MRPV 161400Z 11007KT 9999 FEW040 SCT100 23/15 A3008 NOSIG=
201707161500 METAR MRPV 161500Z 07011KT 9999 FEW040 SCT120 24/16 A3010 NOSIG=
201707161600 METAR MRPV 161600Z 08010KT 9999 FEW030 SCT100 25/16 A3008 NOSIG=
201707161700 METAR MRPV 161700Z 08009KT 9999 FEW035 SCT250 26/15 A3006 NOSIG=
201707161800 METAR MRPV 161800Z 08009KT 9999 SCT045 SCT100 28/15 A3003 NOSIG=
201707161900 METAR MRPV 161900Z 05011KT 9999 FEW040 SCT080 BKN200 27/15 A3002 NOSIG=
201707162000 METAR MRPV 162000Z 05010KT 9999 SCT040 SCT120 26/15 A3000 NOSIG=
201707162100 METAR MRPV 162100Z 27009KT 9999 SCT035 SCT120 24/19 A2999 NOSIG=
201707162200 METAR MRPV 162200Z 28010KT 8000 BKN008 23/20 A3000 NOSIG=
201707162300 METAR MRPV 162300Z 28005KT 8000 BKN008 22/19 A3000 NOSIG=
201707170000 METAR MRPV 170000Z 28003KT 4500 BR FEW005 BKN030 21/19 A3002 NOSIG=
201707170100 METAR MRPV NIL=
201707170200 METAR MRPV NIL=
201707170300 METAR MRPV NIL=
201707170400 METAR MRPV NIL=
201707170500 METAR MRPV NIL=
201707170600 METAR MRPV NIL=
201707170700 METAR MRPV NIL=
201707170800 METAR MRPV NIL=
201707170900 METAR MRPV NIL=
201707171000 METAR MRPV NIL=
201707171100 METAR MRPV NIL=
201707171200 METAR MRPV 171200Z 13005KT CAVOK 20/16 A3000 NOSIG=
201707171300 METAR MRPV 171300Z 12006KT 9999 FEW035 SCT200 22/16 A3002 NOSIG=
201707171400 METAR MRPV 171400Z 09007KT CAVOK 24/15 A3003 NOSIG=
201707171500 METAR MRPV 171500Z 06007KT CAVOK 26/15 A3003 NOSIG=
201707171600 METAR MRPV 171600Z 27009KT 9999 FEW045 BKN200 27/16 A3002 NOSIG=
201707171700 METAR MRPV 171700Z 27011KT 9999 FEW035 SCT200 29/18 A3001 NOSIG=
201707171800 METAR MRPV 171800Z 28011KT 9999 FEW025TCU SCT035 SCT200 26/19 A3000 NOSIG=
201707171900 METAR MRPV 171900Z 27010KT 9999 FEW025TCU FEW030 SCT200 26/19 A2998 NOSIG=
201707172000 METAR MRPV 172000Z 28012KT 9999 FEW035 BKN200 26/18 A2996 NOSIG=
201707172100 METAR MRPV 172100Z 28009KT 9999 TSRA SCT020CB BKN200 25/18 A2995 TEMPO 5000=
201707172200 METAR MRPV 172200Z 30007KT 8000 -DZ FEW005 SCT008 BKN100 22/20 A2995 RETSRA NOSIG=
201707172300 METAR MRPV 172300Z 29008KT 2000 RA BR OVC002 20/20 A2999 NOSIG=
201707180000 METAR MRPV 180000Z 13002KT 5000 BCFG SCT003 BKN040 19/18 A3002 RERA NOSIG=
201707180100 METAR MRPV NIL=
201707180200 METAR MRPV NIL=
201707180300 METAR MRPV NIL=
201707180400 METAR MRPV NIL=
201707180500 METAR MRPV NIL=
201707180600 METAR MRPV NIL=
201707180700 METAR MRPV NIL=
201707180800 METAR MRPV NIL=
201707180900 METAR MRPV NIL=
201707181000 METAR MRPV NIL=
201707181100 METAR MRPV NIL=
201707181200 METAR MRPV 181200Z 13006KT 9999 FEW030 BKN200 21/16 A3003 NOSIG=
201707181300 METAR MRPV 181300Z 13007KT 9999 FEW035 BKN200 22/16 A3005 NOSIG=
201707181400 METAR MRPV 181400Z 13008KT 9999 FEW035 SCT120 BKN200 24/16 A3005 NOSIG=
201707181500 METAR MRPV 181500Z 08012KT 9999 FEW035 SCT120 BKN200 24/16 A3004 NOSIG=
201707181600 METAR MRPV 181600Z 06012KT 9999 SCT030 SCT120 24/16 A3006 NOSIG=
201707181700 METAR MRPV 181700Z 10008KT 9999 SCT035 BKN100 23/17 A3007 NOSIG=
201707181800 METAR MRPV 181800Z 08011KT 9999 FEW040 BKN200 25/17 A3005 NOSIG=
201707181900 METAR MRPV 181900Z 08013KT 9999 SCT040 BKN120 24/17 A3003 NOSIG=
201707182000 METAR MRPV 182000Z 07010KT 9999 FEW030 SCT120 24/16 A3002 NOSIG=
201707182100 METAR MRPV 182100Z 07011KT 9999 FEW035 BKN200 24/15 A3000 NOSIG=
201707182200 METAR MRPV 182200Z 06011KT 9999 FEW030 BKN200 24/15 A2998 NOSIG=
201707182300 METAR MRPV 182300Z 06012KT 9999 FEW030 BKN200 23/15 A3000 NOSIG=
201707190000 METAR MRPV 190000Z 07009KT 9999 FEW035 BKN200 22/14 A3003 NOSIG=
201707190100 METAR MRPV NIL=
201707190200 METAR MRPV NIL=
201707190300 METAR MRPV NIL=
201707190400 METAR MRPV NIL=
201707190500 METAR MRPV NIL=
201707190600 METAR MRPV NIL=
201707190700 METAR MRPV NIL=
201707190800 METAR MRPV NIL=
201707190900 METAR MRPV NIL=
201707191000 METAR MRPV NIL=
201707191100 METAR MRPV NIL=
201707191200 METAR MRPV 191200Z 16001KT CAVOK 18/16 A3003 NOSIG=
201707191300 METAR MRPV 191300Z 14004KT 9999 FEW035 BKN140 21/15 A3006 NOSIG=
201707191400 METAR MRPV 191400Z 11007KT 9999 FEW035 BKN120 22/15 A3008 NOSIG=
201707191500 METAR MRPV 191500Z 12004KT 9999 FEW040 SCT120 BKN200 25/16 A3008 NOSIG=
201707191600 METAR MRPV 191600Z 03005KT 9999 FEW040 BKN120 25/16 A3008 NOSIG=
201707191700 METAR MRPV 191700Z 09006KT 9999 FEW035 SCT100 BKN200 26/17 A3007 NOSIG=
201707191800 METAR MRPV 191800Z 13002KT 9999 FEW035 SCT090 BKN200 26/16 A3006 NOSIG=
201707191900 METAR MRPV 191900Z 08010KT 9999 SCT030 BKN200 25/16 A3005 NOSIG=
201707192000 METAR MRPV 192000Z 08011KT 9999 4000E RA FEW020TCU SCT030 SCT070 24/16 A3005 NOSIG=
201707192100 METAR MRPV 192100Z 17003KT CAVOK 21/19 A2999 NOSIG=
201707192200 METAR MRPV 192200Z 30002KT 9999 FEW005 OVC100 22/18 A3001 NOSIG=
201707192300 METAR MRPV 192300Z 11007KT 9999 FEW030 OVC100 22/16 A3001 NOSIG=
201707200000 METAR MRPV 200000Z COR 27003KT 1000 BR FEW001 BKN010 22/20 A3003 NOSIG=
201707200100 METAR MRPV NIL=
201707200200 METAR MRPV NIL=
201707200300 METAR MRPV NIL=
201707200400 METAR MRPV NIL=
201707200500 METAR MRPV NIL=
201707200600 METAR MRPV NIL=
201707200700 METAR MRPV NIL=
201707200800 METAR MRPV NIL=
201707200900 METAR MRPV NIL=
201707201000 METAR MRPV NIL=
201707201100 METAR MRPV NIL=
201707201200 METAR MRPV 201200Z 12006KT 9999 FEW030 SCT250 21/16 A3004 NOSIG=
201707201300 METAR MRPV 201300Z 11008KT 9999 FEW030 SCT250 23/16 A3005 NOSIG=
201707201400 METAR MRPV 201400Z 08012KT 9999 FEW040 SCT100 24/17 A3007 NOSIG=
201707201500 METAR MRPV NIL=
201707201600 METAR MRPV NIL=
201707201700 METAR MRPV NIL=
201707201800 METAR MRPV NIL=
201707201900 METAR MRPV 201900Z 07009KT 9999 SCT030 BKN200 26/17 A3002 NOSIG=
201707202000 METAR MRPV 202000Z 06012KT 9999 FEW030 BKN200 26/16 A2999 NOSIG=
201707202100 METAR MRPV 202100Z 06010KT 9999 FEW030 SCT100 BKN200 27/16 A2997 NOSIG=
201707202200 METAR MRPV 202200Z 28008KT 8000 3000NW VCFG FEW010 BKN030 23/20 NOSIG=
201707202300 METAR MRPV 202300Z 28006KT 4500 -RA BR FEW005 BKN010 22/20 A3000 NOSIG=
201707210000 METAR MRPV 210000Z 27003KT 1000 BR FEW001 BKN010 22/20 A3003 NOSIG=
201707210100 METAR MRPV NIL=
201707210200 METAR MRPV NIL=
201707210300 METAR MRPV NIL=
201707210400 METAR MRPV NIL=
201707210500 METAR MRPV NIL=
201707210600 METAR MRPV NIL=
201707210700 METAR MRPV NIL=
201707210800 METAR MRPV NIL=
201707210900 METAR MRPV NIL=
201707211000 METAR MRPV NIL=
201707211100 METAR MRPV NIL=
201707211200 METAR MRPV 211200Z 12003KT CAVOK 19/16 A3001 NOSIG=
201707211300 METAR MRPV 211300Z 12007KT CAVOK 22/16 A3002 NOSIG=
201707211400 METAR MRPV 211400Z 10010G20KT 9999 FEW035 BKN200 23/17 A3006 NOSIG=
201707211500 METAR MRPV 211500Z 13004KT 9999 SCT040 BKN200 25/16 A3007 NOSIG=
201707211600 METAR MRPV 211600Z 30009KT 9999 FEW040 BKN200 24/18 A3008 NOSIG=
201707211700 METAR MRPV 211700Z 28007KT 9999 SCT030 SCT200 25/19 A3006 NOSIG=
201707211800 METAR MRPV 211800Z 01003KT 9999 FEW030 SCT100 26/18 A3003 NOSIG=
201707211900 METAR MRPV 211900Z 09005KT 9999 FEW040 SCT100 27/16 A3001 NOSIG=
201707212000 METAR MRPV 212000Z 28012KT 9999 SCT035 BKN200 25/19 A2999 NOSIG=
201707212100 METAR MRPV 212100Z 07004KT 4000 TSRA BKN010CB SCT030 21/17 A3001 NOSIG=
201707212200 METAR MRPV 212200Z 32004KT 9999 FEW004 BKN030 20/18 A3004 NOSIG=
201707212300 METAR MRPV 212300Z 12005KT 9999 FEW025 BKN100 20/19 A3003 NOSIG=
201707220000 METAR MRPV 220000Z 10011KT 9999 FEW035 BKN100 21/17 A3003 NOSIG=
201707220100 METAR MRPV NIL=
201707220200 METAR MRPV NIL=
201707220300 METAR MRPV NIL=
201707220400 METAR MRPV NIL=
201707220500 METAR MRPV NIL=
201707220600 METAR MRPV NIL=
201707220700 METAR MRPV NIL=
201707220800 METAR MRPV NIL=
201707220900 METAR MRPV NIL=
201707221000 METAR MRPV NIL=
201707221100 METAR MRPV NIL=
201707221200 METAR MRPV 221200Z 10008KT 9999 FEW025 21/16 A3003 NOSIG=
201707221300 METAR MRPV 221300Z 08013KT 9999 FEW025 21/16 A3005 NOSIG=
201707221400 METAR MRPV 221400Z 08015KT 9999 SCT030 22/15 A3006 NOSIG=
201707221500 METAR MRPV 221500Z 09010G20KT 9999 SCT030 SCT100 22/16 A3008 NOSIG=
201707221600 METAR MRPV 221600Z 09009KT 9999 BKN035 23/14 A3008 NOSIG=
201707221700 METAR MRPV 221700Z 09010KT 9999 FEW040 SCT080 25/16 A3007 NOSIG=
201707221800 METAR MRPV 221800Z 08008KT 9999 FEW045 SCT300 26/16 A3004 NOSIG=
201707221900 METAR MRPV 221900Z 07010KT 9999 FEW045 SCT300 27/16 A3002 NOSIG=
201707222000 METAR MRPV 222000Z 07009KT 9999 SCT030 SCT200 27/16 A2999 NOSIG=
201707222100 METAR MRPV 222100Z 09008KT 9999 FEW035 BKN080 26/17 A2998 NOSIG=
201707222200 METAR MRPV 222200Z 06011G22KT 9999 3000N +RA FEW035 BKN080 24/18 A2997 TEMPO 3000=
201707222300 METAR MRPV 222300Z 26002KT 8000 BCFG BKN005 SCT030 22/19 A3002 NOSIG=
201707230000 METAR MRPV 230000Z 00000KT 9999 BCFG FEW003 SCT030 BKN200 22/20 A3004 NOSIG=
201707230100 METAR MRPV NIL=
201707230200 METAR MRPV NIL=
201707230300 METAR MRPV NIL=
201707230400 METAR MRPV NIL=
201707230500 METAR MRPV NIL=
201707230600 METAR MRPV NIL=
201707230700 METAR MRPV NIL=
201707230800 METAR MRPV NIL=
201707230900 METAR MRPV NIL=
201707231000 METAR MRPV NIL=
201707231100 METAR MRPV NIL=
201707231200 METAR MRPV 231200Z 11008KT 9999 FEW020 20/16 A3000 NOSIG=
201707231300 METAR MRPV 231300Z 11007KT 9999 FEW020 22/16 A3003 NOSIG=
201707231400 METAR MRPV 231400Z 10009KT 9999 FEW035 23/17 A3003 NOSIG=
201707231500 METAR MRPV 231500Z 08013KT 9999 FEW040 24/17 A3003 NOSIG=
201707231600 METAR MRPV 231600Z 10009KT 9999 BKN040 24/17 A3004 NOSIG=
201707231700 METAR MRPV 231700Z 08011KT 9999 BKN040 24/17 A3004 NOSIG=
201707231800 METAR MRPV 231800Z 07009KT 9999 SCT040 26/17 A3001 NOSIG=
201707231900 METAR MRPV 231900Z 07009KT 9999 SCT035 SCT100 25/17 A3000 NOSIG=
201707231913 METAR MRPV 231913Z 08011KT 9999 RA SCT035 SCT100 25/17 A2999 NOSIG=
201707232000 METAR MRPV 232000Z 08008KT 9999 -RA VCSH FEW015TCU SCT030 BKN100 25/17 A2998 NOSIG=
201707232100 METAR MRPV 232100Z 08011G21KT 9999 4000S SHRA SCT15TCU FEW100 BKN200 25/17 A2997 NOSIG=
201707232200 METAR MRPV 232200Z 07009KT 9999 FEW010 SCT035 BKN100 24/17 A2997 RESHRA NOSIG=
201707232300 METAR MRPV 232300Z 09004KT 9999 FEW015 SCT030 BKN070 24/17 A2999 NOSIG=
201707240000 METAR MRPV 240000Z 09005KT 9999 FEW010 BKN070 23/17 A3001 NOSIG=
201707240100 METAR MRPV NIL=
201707240200 METAR MRPV NIL=
201707240300 METAR MRPV NIL=
201707240400 METAR MRPV NIL=
201707240500 METAR MRPV NIL=
201707240600 METAR MRPV NIL=
201707240700 METAR MRPV NIL=
201707240800 METAR MRPV NIL=
201707240900 METAR MRPV NIL=
201707241000 METAR MRPV NIL=
201707241100 METAR MRPV NIL=
201707241200 METAR MRPV 241200Z 12006KT 9999 FEW040 BKN200 20/16 A3001 NOSIG=
201707241300 METAR MRPV 241300Z 14005KT 9999 FEW040 BKN200 21/17 A3003 NOSIG=
201707241400 METAR MRPV 241400Z 12007KT 9999 FEW040 BKN200 23/16 A3003 NOSIG=
201707241500 METAR MRPV 241500Z 09011KT CAVOK 25/16 A3003 NOSIG=
201707241600 METAR MRPV 241600Z 07015KT 9999 FEW040 BKN200 25/16 A3004 NOSIG=
201707241700 METAR MRPV 241700Z 06009KT 9999 SCT035 BKN200 25/17 A3004 NOSIG=
201707241800 METAR MRPV 241800Z 07008KT 9999 SCT035 SCT110 26/16 A3003 NOSIG=
201707241900 METAR MRPV 241900Z 06012KT 9999 FEW035 BKN100 26/17 A3001 NOSIG=
201707242000 METAR MRPV 242000Z 07012KT 9999 FEW040 SCT100 BKN200 27/17 A2999 NOSIG=
201707242100 METAR MRPV 242100Z 08012KT 9999 FEW035 SCT100 BKN200 25/17 A2999 NOSIG=
201707242200 METAR MRPV 242200Z 07011KT 9999 FEW030 SCT120 BKN200 24/16 A2998 NOSIG=
201707242300 METAR MRPV 242300Z 09009KT 9999 VCFG FEW040 BKN120 23/16 A2998 NOSIG=
201707250000 METAR MRPV 250000Z 09009KT 9999 VCFG FEW040 SCT120 BKN200 23/16 A3000 NOSIG=
201707250100 METAR MRPV NIL=
201707250200 METAR MRPV NIL=
201707250300 METAR MRPV NIL=
201707250400 METAR MRPV NIL=
201707250500 METAR MRPV NIL=
201707250600 METAR MRPV NIL=
201707250700 METAR MRPV NIL=
201707250800 METAR MRPV NIL=
201707250900 METAR MRPV NIL=
201707251000 METAR MRPV NIL=
201707251100 METAR MRPV NIL=
201707251200 METAR MRPV 251200Z 10011KT 9999 RA FEW030 BKN100 21/16 A3001 NOSIG=
201707251300 METAR MRPV 251300Z 12010KT 9999 -RA FEW030 BKN100 21/16 A3002 NOSIG=
201707251400 METAR MRPV 251400Z 10009KT 9999 -RA FEW030 BKN100 21/17 A3005 NOSIG=
201707251500 METAR MRPV 251500Z 10009KT 9999 FEW035 BKN100 21/17 A3005 NOSIG=
201707251600 METAR MRPV 251600Z 11009KT 9999 -RA FEW040 BKN100 22/17 A3006 NOSIG=
201707251700 METAR MRPV 251700Z 11008KT 9999 -RA NSC 22/17 A3004 NOSIG=
201707251800 METAR MRPV 251800Z 10012KT CAVOK 24/17 A3001 NOSIG=
201707251900 METAR MRPV 251900Z 08014KT 9999 FEW035 BKN100 24/17 A2999 NOSIG=
201707252000 METAR MRPV 252000Z 07013KT 9999 FEW040 SCT120 BKN200 25/17 A2998 NOSIG=
201707252100 METAR MRPV 252100Z 06009KT 9999 FEW035 SCT120 BKN200 26/17 A2998 NOSIG=
201707252200 METAR MRPV 252200Z 08011KT 9999 FEW040 SCT120 BKN200 25/17 A2997 NOSIG=
201707252300 METAR MRPV 252300Z 08010KT 9999 FEW030 SCT120 BKN200 25/17 A2997 NOSIG=
201707260000 METAR MRPV 260000Z 10008KT 9999 FEW030 BKN120 24/17 A3000 NOSIG=
201707260100 METAR MRPV NIL=
201707260200 METAR MRPV NIL=
201707260300 METAR MRPV NIL=
201707260400 METAR MRPV NIL=
201707260500 METAR MRPV NIL=
201707260600 METAR MRPV NIL=
201707260700 METAR MRPV NIL=
201707260800 METAR MRPV NIL=
201707260900 METAR MRPV NIL=
201707261000 METAR MRPV NIL=
201707261100 METAR MRPV NIL=
201707261200 METAR MRPV 261200Z 13005KT 9999 FEW035 BKN220 21/16 A2998 NOSIG=
201707261300 METAR MRPV 261300Z 11006KT 9999 FEW040 SCT220 22/16 A3000 NOSIG=
201707261400 METAR MRPV 261400Z 09010KT 9999 FEW030 BKN110 23/16 A3002 NOSIG=
201707261500 METAR MRPV 261500Z 08012KT 9999 FEW030 BKN110 24/15 A3003 NOSIG=
201707261600 METAR MRPV 261600Z 09009KT 9999 FEW030 BKN110 24/15 A3004 NOSIG=
201707261700 METAR MRPV 261700Z 09012KT 9999 FEW035 BKN120 26/15 A3002 NOSIG=
201707261800 METAR MRPV 261800Z 07013KT 9999 FEW040 BKN120 26/16 A3001 NOSIG=
201707261900 METAR MRPV 261900Z 06014KT 9999 SCT035 BKN120 25/15 A3000 NOSIG=
201707262000 METAR MRPV 262000Z 09011KT 9999 SCT030 BKN120 25/16 A2997 NOSIG=
201707262100 METAR MRPV 262100Z 08010KT 9999 SCT040 BKN100 25/15 A2997 NOSIG=
201707262200 METAR MRPV 262200Z 08011KT 9999 FEW035 BKN100 24/15 A2997 NOSIG=
201707262300 METAR MRPV 262300Z 08012KT 9999 SCT035 BKN100 23/14 A2999 NOSIG=
201707270000 METAR MRPV 270000Z 09007KT 9999 FEW002 BKN120 22/16 A3002 NOSIG=
201707270100 METAR MRPV NIL=
201707270200 METAR MRPV NIL=
201707270300 METAR MRPV NIL=
201707270400 METAR MRPV NIL=
201707270500 METAR MRPV NIL=
201707270600 METAR MRPV NIL=
201707270700 METAR MRPV NIL=
201707270800 METAR MRPV NIL=
201707270900 METAR MRPV NIL=
201707271000 METAR MRPV NIL=
201707271100 METAR MRPV NIL=
201707271200 METAR MRPV 271200Z 10006KT 9999 FEW020 21/15 A3001 NOSIG=
201707271300 METAR MRPV 271300Z 12009KT 9999 FEW025 23/15 A3003 NOSIG=
201707271400 METAR MRPV 271400Z 08016KT 9999 FEW035 24/16 A3003 NOSIG=
201707271500 METAR MRPV 271500Z 07013KT 9999 FEW035 BKN250 25/16 A3003 NOSIG=
201707271600 METAR MRPV 271600Z 07012KT 9999 FEW045 BKN250 26/16 A3002 NOSIG=
201707271700 METAR MRPV 271700Z 07011G21KT 9999 FEW045 SCT200 27/16 A3000 NOSIG=
201707271800 METAR MRPV 271800Z 06010KT 9999 FEW045 SCT200 28/16 A2999 NOSIG=
201707271900 METAR MRPV 271900Z 05011KT 9999 SCT035 SCT250 27/16 A2998 NOSIG=
201707272000 METAR MRPV 272000Z 06013KT 9999 BKN040 26/16 A2996 NOSIG=
201707272100 METAR MRPV 272100Z 08011KT 9999 -RA FEW010 BKN035 24/18 A2995 NOSIG=
201707272200 METAR MRPV 272200Z 06010KT 9999 FEW010 SCT030 BKN200 24/16 A2996 NOSIG=
201707272300 METAR MRPV 272300Z 08008KT 9999 SCT030 BKN120 24/16 A2998 NOSIG=
201707280000 METAR MRPV 280000Z 09010KT 9999 VCFG FEW025 BKN120 23/17 A2999 NOSIG=
201707280100 METAR MRPV NIL=
201707280200 METAR MRPV NIL=
201707280300 METAR MRPV NIL=
201707280400 METAR MRPV NIL=
201707280500 METAR MRPV NIL=
201707280600 METAR MRPV NIL=
201707280700 METAR MRPV NIL=
201707280800 METAR MRPV NIL=
201707280900 METAR MRPV NIL=
201707281000 METAR MRPV NIL=
201707281100 METAR MRPV NIL=
201707281200 METAR MRPV 281200Z 09011KT 9999 FEW025 SCT140 21/16 A3001 NOSIG=
201707281300 METAR MRPV 281300Z 09010T 9999 FEW030 BKN220 23/17 A3001 NOSIG=
201707281400 METAR MRPV 281400Z 06012KT 9999 SCT020 SCT100 23/17 A3004 NOSIG=
201707281500 METAR MRPV 281500Z 08014KT 9999 FEW020 SCT140 BKN220 25/17 A3004 NOSIG=
201707281600 METAR MRPV 281600Z 07012KT 9999 SCT030 SCT220 25/17 A3004 NOSIG=
201707281700 METAR MRPV 281700Z 08012KT 9999 FEW035 SCT100 BKN200 26/17 A3001 NOSIG=
201707281800 METAR MRPV 281800Z 08011KT 9999 FEW035 SCT100 BKN200 27/17 A2999 NOSIG=
201707281900 METAR MRPV 281900Z 08015KT 9999 SCT030 BKN200 25/17 A2997 NOSIG=
201707282000 METAR MRPV 282000Z 09012KT 9999 RA VCFG FEW020 BKN100 24/16 A2997 NOSIG=
201707282100 METAR MRPV 282100Z 10010KT 9999 VCFG FEW030 BKN100 23/17 A2996 RERA NOSIG=
201707282200 METAR MRPV 282200Z 09010KT 9999 -RA FEW025 BKN100 22/17 A2998 NOSIG=
201707282300 METAR MRPV 282300Z 13006KT 9999 -RA FEW035 BKN100 22/17 A2999 NOSIG=
201707290000 METAR MRPV 290000Z 10010KT 9999 -RA FEW025 BKN100 22/17 A3000 NOSIG=
201707290100 METAR MRPV NIL=
201707290200 METAR MRPV NIL=
201707290300 METAR MRPV NIL=
201707290400 METAR MRPV NIL=
201707290500 METAR MRPV NIL=
201707290600 METAR MRPV NIL=
201707290700 METAR MRPV NIL=
201707290800 METAR MRPV NIL=
201707290900 METAR MRPV NIL=
201707291000 METAR MRPV NIL=
201707291100 METAR MRPV NIL=
201707291200 METAR MRPV 291200Z 13007KT 9999 FEW035 SCT120 21/16 A3001 NOSIG=
201707291300 METAR MRPV 291300Z 11008KT 9999 FEW030 SCT250 22/16 A3002 NOSIG=
201707291400 METAR MRPV 291400Z 11008KT 9999 FEW030 SCT250 24/16 A3006 NOSIG=
201707291500 METAR MRPV 291500Z 09009KT CAVOK 23/16 A3006 NOSIG=
201707291600 METAR MRPV 291600Z 07004KT CAVOK 25/17 A3007 BECMG 27005KT=
201707291700 METAR MRPV 291700Z 06003KT 9999 FEW040 BKN120 26/16 A3006 NOSIG=
201707291800 METAR MRPV 291800Z 29007KT 9999 SCT035 BKN120 26/18 A3002 NOSIG=
201707291900 METAR MRPV 291900Z 29003KT 9999 SCT035 BKN120 27/19 A3000 NOSIG=
201707292000 METAR MRPV 292000Z 27009KT 9999 BKN035 SCT120 26/20 A2998 NOSIG=
201707292100 METAR MRPV 292100Z 24003KT 9999 VCSH SCT015TCU SCT025 24/19 A2997 TEMPO SHRA=
201707292200 METAR MRPV 292200Z 33003KT 8000 -RA FEW010 SCT020 BKN060 23/20 A2998 NOSIG=
201707292300 METAR MRPV 292300Z 15004KT 9999 -RA BCFG FEW010 SCT035 BKN100 21/19 A3000 NOSIG=
201707300000 METAR MRPV 300000Z 11005KT 9999 -RA NSC 21/18 A3003 NOSIG=
201707300100 METAR MRPV NIL=
201707300200 METAR MRPV NIL=
201707300300 METAR MRPV NIL=
201707300400 METAR MRPV NIL=
201707300500 METAR MRPV NIL=
201707300600 METAR MRPV NIL=
201707300700 METAR MRPV NIL=
201707300800 METAR MRPV NIL=
201707300900 METAR MRPV NIL=
201707301000 METAR MRPV NIL=
201707301100 METAR MRPV NIL=
201707301200 METAR MRPV 301200Z 13006KT 9999 FEW040 SCT120 BKN200 20/15 A3003 NOSIG=
201707301300 METAR MRPV 301300Z 12008KT 9999 FEW040 SCT120 BKN200 22/15 A3005 NOSIG=
201707301400 METAR MRPV 301400Z 11008KT 9999 FEW040 SCT120 BKN200 24/15 A3006 NOSIG=
201707301500 METAR MRPV 301500Z 28004KT CAVOK 24/17 A3008 NOSIG=
201707301600 METAR MRPV 301600Z 30006KT CAVOK 24/18 A3008 NOSIG=
201707301700 METAR MRPV 301700Z 34002KT 9999 FEW040 BKN200 26/17 A3006 NOSIG=
201707301800 METAR MRPV 301800Z 16003KT 9999 BKN040 SCT200 26/19 A3003 NOSIG=
201707301900 METAR MRPV 301900Z 29008KT 9999 BKN040 SCT200 26/19 A3002 NOSIG=
201707302000 METAR MRPV 302000Z 28009KT 9999 3000W SHRA VCTS FEW010CB SCT020 BKN100 23/20 A3000 RERA TEMPO 4000=
201707302100 METAR MRPV 302100Z 31007KT 7000 BCFG FEW005 BKN015 22/20 A3000 NOSIG=
201707302200 METAR MRPV 302200Z 27006KT 3500 RA BR FEW005 BKN010 21/20 A3001 NOSIG=
201707302300 METAR MRPV 302300Z 29010KT 3000 TSRA FEW005 BKN010CB 19/19 A3004 NOSIG=
201707310000 METAR MRPV 310000Z 31003KT 100V330 4000 -TSRA SCT010CB BKN020 19/18 A3007 NOSIG=
201707310100 METAR MRPV NIL=
201707310200 METAR MRPV NIL=
201707310300 METAR MRPV NIL=
201707310400 METAR MRPV NIL=
201707310500 METAR MRPV NIL=
201707310600 METAR MRPV NIL=
201707310700 METAR MRPV NIL=
201707310800 METAR MRPV NIL=
201707310900 METAR MRPV NIL=
201707311000 METAR MRPV NIL=
201707311100 METAR MRPV NIL=
201707311200 METAR MRPV 311200Z 12002KT 9999 FEW045 SCT110 BKN250 18/17 A3006 NOSIG=
201707311300 METAR MRPV 311300Z VRB02KT CAVOK 20/17 A3007 NOSIG=
201707311400 METAR MRPV 311400Z 29004KT CAVOK 21/17 A3009 NOSIG=
201707311500 METAR MRPV 311500Z 30003KT 9999 FEW035 SCT110 BKN220 22/17 A3009 NOSIG=
201707311600 METAR MRPV 311600Z 27004KT 9999 FEW030 SCT140 BKN200 24/16 A3009 NOSIG=
201707311700 METAR MRPV 311700Z 29006KT 9999 -RA SCT030 BKN120 23/17 A3009 NOSIG=
201707311800 METAR MRPV 311800Z 28009KT 9999 SCT030 BKN200 24/18 A3008 NOSIG=
201707311900 METAR MRPV 311900Z 31006KT 9999 SHRA FEW020TCU BKN025 26/18 A3006 NOSIG=
201707312000 METAR MRPV 312000Z 28007KT 9999 SCT025 BKN100 24/18 A3003 RESHRA NOSIG=
201707312100 METAR MRPV 312100Z 29007KT 9999 SHRA FEW015TCU BKN015 21/19 A3004 NOSIG=
201707312200 METAR MRPV 312200Z 30006KT 2000 RA BR VCTS VV///CB 20/19 A3005 NOSIG=
201707312300 METAR MRPV 312300Z 30005KT 4000 -RA BR BKN012 18/17 A3008 NOSIG=
201708010000 METAR MRPV 010000Z 15009KT 9999 -DZ FEW002 BKN100 18/17 A3010 NOSIG=
201708010100 METAR MRPV NIL=
201708010200 METAR MRPV NIL=
201708010300 METAR MRPV NIL=
201708010400 METAR MRPV NIL=
201708010500 METAR MRPV NIL=
201708010600 METAR MRPV NIL=
201708010700 METAR MRPV NIL=
201708010800 METAR MRPV NIL=
201708010900 METAR MRPV NIL=
201708011000 METAR MRPV NIL=
201708011100 METAR MRPV NIL=
201708011200 METAR MRPV 011200Z 14004KT CAVOK 19/17 A3008 NOSIG=
201708011300 METAR MRPV 011300Z 11007KT CAVOK 21/16 A3010 NOSIG=
201708011400 METAR MRPV 011400Z 12007KT 9999 FEW040 BKN120 23/16 A3012 NOSIG=
201708011500 METAR MRPV 011500Z 07009KT 9999 FEW040 BKN120 23/16 A3011 NOSIG=
201708011600 METAR MRPV 011600Z 07012KT 9999 FEW040 BKN140 25/16 A3011 NOSIG=
201708011700 METAR MRPV 011700Z 08013KT 9999 FEW040 BKN200 26/16 A3009 NOSIG=
201708011800 METAR MRPV 011800Z 07012KT 9999 FEW040 BKN200 27/16 A3007 NOSIG=
201708011900 METAR MRPV 011900Z 08006KT 9999 SCT040 BKN200 28/16 A3005 BECMG 28005KT=
201708012000 METAR MRPV 012000Z 26005KT 9999 -RA SCT035 SCT200 24/19 A3003 NOSIG=
201708012100 METAR MRPV 012100Z 32006KT 9999 -TSRA FEW020CB BKN020 22/19 A3004 NOSIG=
201708012200 METAR MRPV 012200Z 00000KT 9999 FEW010 BKN100 21/17 A3004 RETSRA NOSIG=
201708012300 METAR MRPV 012300Z 03001KT 9999 FEW010 BKN100 21/18 A3006 NOSIG=
201708020000 METAR MRPV 020000Z 00000KT 9999 FEW010 BKN100 21/18 A3007 NOSIG=
201708020100 METAR MRPV NIL=
201708020200 METAR MRPV NIL=
201708020300 METAR MRPV NIL=
201708020400 METAR MRPV NIL=
201708020500 METAR MRPV NIL=
201708020600 METAR MRPV NIL=
201708020700 METAR MRPV NIL=
201708020800 METAR MRPV NIL=
201708020900 METAR MRPV NIL=
201708021000 METAR MRPV NIL=
201708021100 METAR MRPV NIL=
201708021200 METAR MRPV 021200Z 13006KT CAVOK 20/15 A3008 NOSIG=
201708021300 METAR MRPV 021300Z 13006KT CAVOK 22/15 A3010 NOSIG=
201708021400 METAR MRPV 021400Z 12009KT CAVOK 23/15 A3011 NOSIG=
201708021500 METAR MRPV 021500Z 10008KT CAVOK 25/15 A3012 NOSIG=
201708021600 METAR MRPV 021600Z 07005KT CAVOK 27/16 A3011 NOSIG=
201708021700 METAR MRPV 021700Z 07009KT 9999 FEW045 BKN250 27/16 A3009 NOSIG=
201708021800 METAR MRPV 021800Z 07015KT 9999 FEW035 BKN250 27/17 A3006 NOSIG=
201708021900 METAR MRPV 021900Z 07016KT 9999 FEW030 SCT250 25/17 A3006 NOSIG=
201708022000 METAR MRPV 022000Z 06015KT 9999 SCT035 BKN200 25/16 A3003 NOSIG=
201708022100 METAR MRPV 022100Z 06015KT 9999 FEW035 BKN200 25/16 A3002 NOSIG=
201708022200 METAR MRPV 022200Z 08012KT 9999 FEW035 BKN200 25/15 A3001 NOSIG=
201708022300 METAR MRPV 022300Z 08013KT 9999 FEW040 SCT120 BKN200 23/16 A3000 NOSIG=
201708030000 METAR MRPV 030000Z 08013KT 9999 FEW040 SCT120 BKN200 23/16 A3001 NOSIG=
201708030100 METAR MRPV NIL=
201708030200 METAR MRPV NIL=
201708030300 METAR MRPV NIL=
201708030400 METAR MRPV NIL=
201708030500 METAR MRPV NIL=
201708030600 METAR MRPV NIL=
201708030700 METAR MRPV NIL=
201708030800 METAR MRPV NIL=
201708030900 METAR MRPV NIL=
201708031000 METAR MRPV NIL=
201708031100 METAR MRPV NIL=
201708031200 METAR MRPV 031200Z 12008KT CAVOK 21/14 A3006 NOSIG=
201708031300 METAR MRPV 031300Z 09013KT CAVOK 22/15 A3008 NOSIG=
201708031400 METAR MRPV 031400Z 08014KT CAVOK 24/15 A3009 NOSIG=
201708031500 METAR MRPV 031500Z 07013KT CAVOK 24/16 A3010 NOSIG=
201708031600 METAR MRPV 031600Z 06011KT 9999 FEW030 BKN070 24/16 A3010 NOSIG=
201708031700 METAR MRPV 031700Z 07012KT 9999 FEW025 BKN070 24/17 A3009 NOSIG=
201708031800 METAR MRPV 031800Z 08011KT 9999 FEW040 BKN080 26/17 A3006 NOSIG=
201708031900 METAR MRPV 031900Z 07011KT 9999 BKN040 25/17 A3005 NOSIG=
201708032000 METAR MRPV 032000Z 10008G18KT 9999 SCT040 SCT100 26/17 A3001 NOSIG=
201708032100 METAR MRPV 032100Z 07011KT 9999 SCT040 27/16 A2999 NOSIG=
201708032200 METAR MRPV 032200Z 05010KT 9999 SCT035 25/16 A2999 NOSIG=
201708032300 METAR MRPV 032300Z 07009KT 9999 FEW035 SCT080 25/17 A3000 NOSIG=
201708040000 METAR MRPV 040000Z 08006KT 9999 FEW008 SCT030 24/17 A3001 NOSIG=
201708040100 METAR MRPV NIL=
201708040200 METAR MRPV NIL=
201708040300 METAR MRPV NIL=
201708040400 METAR MRPV NIL=
201708040500 METAR MRPV NIL=
201708040600 METAR MRPV NIL=
201708040700 METAR MRPV NIL=
201708040800 METAR MRPV NIL=
201708040900 METAR MRPV NIL=
201708041000 METAR MRPV NIL=
201708041100 METAR MRPV NIL=
201708041200 METAR MRPV 041200Z 05001KT CAVOK 19/17 A3004 NOSIG=
201708041300 METAR MRPV 041300Z 09001KT CAVOK 23/16 A3005 NOSIG=
201708041400 METAR MRPV 041400Z 10007KT CAVOK 25/15 A3007 NOSIG=
201708041500 METAR MRPV 041500Z 10007KT 9999 FEW040 SCT200 26/16 A3007 NOSIG=
201708041600 METAR MRPV 041600Z 08007KT 9999 FEW040 SCT080 27/17 A3007 NOSIG=
201708041700 METAR MRPV 041700Z 08008KT 9999 FEW035 SCT080 BKN200 27/17 A3007 NOSIG=
201708041800 METAR MRPV 041800Z 28009KT 9999 BKN040 27/19 A3005 NOSIG=
201708041900 METAR MRPV 041900Z 28010KT 9999 SCT035 SCT200 27/20 A3003 NOSIG=
201708042000 METAR MRPV 042000Z 29009KT 9999 SCT025TCU BKN200 26/19 A3001 TEMPO SHRA=
201708042100 METAR MRPV 042100Z 29012KT 9999 VCSH FEW020TCU SCT030 BKN200 24/18 A3001 NOSIG=
201708042200 METAR MRPV 042200Z 30008KT 9999 SHRA VCTS FEW020CB SCT030 BKN120 22/18 A3003 NOSIG=
201708042300 METAR MRPV 042300Z 29002KT 8000 -RA BCFG FEW010 SCT020 BKN100 22/19 A3004 NOSIG=
201708050000 METAR MRPV 050000Z 30004KT 6000 BCFG FEW007 BKN010 21/19 A3006 NOSIG=
201708050100 METAR MRPV NIL=
201708050200 METAR MRPV NIL=
201708050300 METAR MRPV NIL=
201708050400 METAR MRPV NIL=
201708050500 METAR MRPV NIL=
201708050600 METAR MRPV NIL=
201708050700 METAR MRPV NIL=
201708050800 METAR MRPV NIL=
201708050900 METAR MRPV NIL=
201708051000 METAR MRPV NIL=
201708051100 METAR MRPV NIL=
201708051200 METAR MRPV 051200Z 00000KT CAVOK 18/16 A3004 NOSIG=
201708051300 METAR MRPV 051300Z 02001KT 9999 FEW030 22/17 A3006 NOSIG=
201708051400 METAR MRPV 051400Z 01001KT 9999 FEW025 24/17 A3007 NOSIG=
201708051500 METAR MRPV 051500Z 36002KT 9999 FEW035 25/16 A3006 NOSIG=
201708051600 METAR MRPV 051600Z 28004KT 9999 FEW040 26/17 A3006 NOSIG=
201708051700 METAR MRPV 051700Z 27007KT 9999 SCT040 25/17 A3005 NOSIG=
201708051800 METAR MRPV 051800Z 28010KT 9999 -SHRA SCT020TCU SCT040 24/19 A3002 NOSIG=
201708051900 METAR MRPV 051900Z 30007KT 9999 SHRA VCTS FEW015CB SCT035 SCT100 25/21 A3001 NOSIG=
201708052000 METAR MRPV 052000Z 30009KT 6000 BKN010 24/20 A2998 NOSIG=
201708052100 METAR MRPV 052100Z 29010KT 9000 4000E RA VCTS SCT010CB BKN050 22/20 A29978 TEMPO 4000 TS=
201708052200 METAR MRPV 052200Z 14004KT 4000 TSRA FEW008CB BKN015 20/18 A2998 NOSIG=
201708052300 METAR MRPV 052300Z 00000KT 3000 TSRA VV///CB 19/19 A3003 NOSIG=
201708060000 METAR MRPV 060000Z 33003KT 5000 RA BR FEW005 SCT020 BKN100 19/18 A3003 NOSIG=
201708060100 METAR MRPV NIL=
201708060200 METAR MRPV NIL=
201708060300 METAR MRPV NIL=
201708060400 METAR MRPV NIL=
201708060500 METAR MRPV NIL=
201708060600 METAR MRPV NIL=
201708060700 METAR MRPV NIL=
201708060800 METAR MRPV NIL=
201708060900 METAR MRPV NIL=
201708061000 METAR MRPV NIL=
201708061100 METAR MRPV NIL=
201708061200 METAR MRPV 061200Z VRB02KT CAVOK 18/17 A2999 NOSIG=
201708061300 METAR MRPV 061300Z VRB01KT CAVOK 21/18 A3002 NOSIG=
201708061400 METAR MRPV 061400Z 32002KT 9999 FEW008 BKN200 22/18 A3004 NOSIG=
201708061500 METAR MRPV 061500Z 25002KT 9999 FEW020 BKN200 23/17 A3003 NOSIG=
201708061600 METAR MRPV 061600Z 26005KT 9999 FEW025 BKN220 25/17 A3003 NOSIG=
201708061700 METAR MRPV 061700Z 27007KT 9999 FEW030 BKN220 25/17 A3003 NOSIG=
201708061800 METAR MRPV 061800Z 28009KT 9999 SCT035 BKN250 26/17 A3001 NOSIG=
201708061900 METAR MRPV 061900Z 28007KT 9999 SCT025 BKN250 26/17 A2999 NOSIG=
201708062000 METAR MRPV 062000Z 25007KT 9999 FEW030 SCT200 26/18 A2997 NOSIG=
201708062100 METAR MRPV 062100Z 26006KT 9999 SCT025 BKN200 25/19 A2996 NOSIG=
201708062200 METAR MRPV 062200Z 27009KT 9999 FEW005 SCT025 BKN200 23/19 A2995 NOSIG=
201708062300 METAR MRPV 062300Z 29007KT 9999 BKN008 22/20 A2997 NOSIG=
201708070000 METAR MRPV 070000Z 24003KT 4000 RA BR SCT004 BKN100 22/20 A3000 NOSIG=
201708070100 METAR MRPV NIL=
201708070200 METAR MRPV NIL=
201708070300 METAR MRPV NIL=
201708070400 METAR MRPV NIL=
201708070500 METAR MRPV NIL=
201708070600 METAR MRPV NIL=
201708070700 METAR MRPV NIL=
201708070800 METAR MRPV NIL=
201708070900 METAR MRPV NIL=
201708071000 METAR MRPV NIL=
201708071100 METAR MRPV NIL=
201708071200 METAR MRPV 071200Z 24002KT CAVOK 19/17 A3002 NOSIG=
201708071300 METAR MRPV 071300Z VRB02KT CAVOK 21/18 A3003 NOSIG=
201708071400 METAR MRPV 071400Z 00000KT CAVOK 22/17 A3005 NOSIG=
201708071500 METAR MRPV 071500Z 00000KT CAVOK 24/16 A3005 NOSIG=
201708071600 METAR MRPV 071600Z 30003KT CAVOK 26/16 A3004 NOSIG=
201708071700 METAR MRPV 071700Z 25005KT 9999 FEW040 BKN200 26/17 A3004 NOSIG=
201708071800 METAR MRPV 071800Z 28008KT 9999 FEW020TCU FEW040 BKN200 27/17 A3001 NOSIG=
201708071900 METAR MRPV 071900Z 27009KT 9999 FEW025TCU SCT030 SCT200 27/20 A2999 NOSIG=
201708072000 METAR MRPV 072000Z 28012KT 9999 4500NE +TSRA SCT020CB SCT030 SCT200 25/20 A2997 TEMPO 3000=
201708072100 METAR MRPV 072100Z 00000KT 6000 -RA BCFG FEW002 SCT008CB BKN120 22/21 A2996 TEMPO 5000 BR BKN010=
201708072200 METAR MRPV COR 072200Z 10005KT 9999 +RA SCT020 BKN100 21/20 A2997 NOSIG=
201708072300 METAR MRPV 072300Z 00000KT 9999 -DZ NSC 20/19 A2996 NOSIG=
201708080000 METAR MRPV 080000Z 08001KT 9999 VCFG FEW040 BKN100 21/19 A2998 NOSIG=
201708080100 METAR MRPV NIL=
201708080200 METAR MRPV NIL=
201708080300 METAR MRPV NIL=
201708080400 METAR MRPV NIL=
201708080500 METAR MRPV NIL=
201708080600 METAR MRPV NIL=
201708080700 METAR MRPV NIL=
201708080800 METAR MRPV NIL=
201708080900 METAR MRPV NIL=
201708081000 METAR MRPV NIL=
201708081100 METAR MRPV NIL=
201708081200 METAR MRPV 081200Z 12006KT CAVOK 21/16 A3000 NOSIG=
201708081300 METAR MRPV 081300Z 10007KT CAVOK 23/16 A3001 NOSIG=
201708081400 METAR MRPV 081400Z 11008KT CAVOK 24/16 A3002 NOSIG=
201708081500 METAR MRPV 081500Z 08015KT 9999 FEW040 BKN200 25/16 A3005 NOSIG=
201708081600 METAR MRPV 081600Z 06011KT 9999 FEW040 BKN200 26/16 A3005 NOSIG=
201708081700 METAR MRPV 081700Z 07009KT 9999 FEW040 BKN200 26/16 A3004 NOSIG=
201708081800 METAR MRPV 081800Z 08005KT CAVOK 27/16 A3001 BECMG 28005KT=
201708081900 METAR MRPV 081900Z 06007KT CAVOK 27/17 A2998 NOSIG=
201708082000 METAR MRPV 082000Z 09007KT 9999 FEW035 BKN200 28/17 A2995 NOSIG=
201708082100 METAR MRPV 082100Z 17005KT 9999 SCT035 BKN200 26/17 A2994 NOSIG=
201708082200 METAR MRPV 082200Z 12006KT 9999 FEW035 BKN200 26/17 A2995 NOSIG=
201708082300 METAR MRPV 082300Z 08008KT 9999 FEW040 BKN200 25/16 A2995 NOSIG=
201708090000 METAR MRPV 090000Z 28003KT 9999 -RA FEW010 BKN200 23/21 A2997 NOSIG=
201708090100 METAR MRPV NIL=
201708090200 METAR MRPV NIL=
201708090300 METAR MRPV NIL=
201708090400 METAR MRPV NIL=
201708090500 METAR MRPV NIL=
201708090600 METAR MRPV NIL=
201708090700 METAR MRPV NIL=
201708090800 METAR MRPV NIL=
201708090900 METAR MRPV NIL=
201708091000 METAR MRPV NIL=
201708091100 METAR MRPV NIL=
201708091200 METAR MRPV NIL=
201708091300 METAR MRPV 091300Z 31004KT 9999 FEW030 BKN200 21/18 A3005 NOSIG=
201708091400 METAR MRPV 091400Z 30004KT 9999 FEW030 BKN200 22/18 A3007 NOSIG=
201708091500 METAR MRPV 091500Z 31002KT 9999 FEW040 BKN200 24/18 A3007 NOSIG=
201708091600 METAR MRPV 091600Z 09007KT CAVOK 26/16 A3005 NOSIG=
201708091700 METAR MRPV 091700Z 07007KT 9999 FEW030 BKN120 26/16 A3004 NOSIG=
201708091800 METAR MRPV 091800Z 30006KT 9999 FEW035 BKN120 25/19 A3004 NOSIG=
201708091900 METAR MRPV 091900Z 28006KT 9999 FEW035 BKN200 24/19 A3003 NOSIG=
201708092000 METAR MRPV 092000Z 28007KT 9999 FEW025 BKN200 24/19 A3001 NOSIG=
201708092100 METAR MRPV 092100Z 30005KT 9999 -RA FEW020 BKN120 23/20 A3000 NOSIG=
201708092200 METAR MRPV 092200Z 29007KT 9999 FEW007 BKN100 22/20 A3001 NOSIG=
201708092300 METAR MRPV 092300Z 31005KT 8000 VCFG FEW007 SCT010 BKN100 22/19 A3003 NOSIG=
201708100000 METAR MRPV 100000Z 31004KT 5000 -RA BR OVC005 21/20 A3006 NOSIG=
201708100100 METAR MRPV NIL=
201708100200 METAR MRPV NIL=
201708100300 METAR MRPV NIL=
201708100400 METAR MRPV NIL=
201708100500 METAR MRPV NIL=
201708100600 METAR MRPV NIL=
201708100700 METAR MRPV NIL=
201708100800 METAR MRPV NIL=
201708100900 METAR MRPV NIL=
201708101000 METAR MRPV NIL=
201708101100 METAR MRPV NIL=
201708101200 METAR MRPV 101200Z 11002KT CAVOK 17/16 A3005 NOSIG=
201708101300 METAR MRPV 101300Z 00000KT CAVOK 21/16 A3008 NOSIG=
201708101400 METAR MRPV 101400Z VRB02KT 9999 FEW040 BKN200 23/16 A3010 NOSIG=
201708101500 METAR MRPV 101500Z 28006KT 9999 FEW040 SCT140 BKN250 23/17 A3011 NOSIG=
201708101600 METAR MRPV 101600Z 34002KT 9999 FEW035 SCT120 BKN200 25/17 A3012 NOSIG=
201708101700 METAR MRPV 101700Z 07009KT 9999 FEW040 BKN200 26/17 A3010 NOSIG=
201708101800 METAR MRPV 101800Z 10009KT 9999 FEW035 BKN200 26/14 A3007 NOSIG=
201708101900 METAR MRPV 101900Z 07009KT 9999 FEW040 BKN200 27/14 A3005 NOSIG=
201708102000 METAR MRPV 102000Z 08006KT 9999 FEW040 BKN200 26/15 A3002 NOSIG=
201708102100 METAR MRPV 102100Z 29007KT 9999 FEW040 BKN200 24/19 A3001 NOSIG=
201708102200 METAR MRPV 102200Z 25005KT 9999 SCT015TCU SCT040 SCT200 24/20 A3002 NOSIG=
201708102300 METAR MRPV 102300Z 26004KT 9999 FEW015 SCT030 BKN200 22/19 A3004 NOSIG=
201708110000 METAR MRPV 110000Z 26003KT 6000 BCFG FEW005 SCT100 BKN200 21/19 A3007 NOSIG=
201708110100 METAR MRPV NIL=
201708110200 METAR MRPV NIL=
201708110300 METAR MRPV NIL=
201708110400 METAR MRPV NIL=
201708110500 METAR MRPV NIL=
201708110600 METAR MRPV NIL=
201708110700 METAR MRPV NIL=
201708110800 METAR MRPV NIL=
201708110900 METAR MRPV NIL=
201708111000 METAR MRPV NIL=
201708111100 METAR MRPV NIL=
201708111200 METAR MRPV 111200Z 11001KT 9999 FEW035 SCT120 BKN200 18/17 A3008 NOSIG=
201708111300 METAR MRPV 111300Z 11008KT 9999 FEW035 SCT120 BKN200 21/16 A3009 NOSIG=
201708111400 METAR MRPV 111400Z 12008KT 9999 FEW035 BKN180 23/16 A3011 NOSIG=
201708111500 METAR MRPV 111500Z 10010G21KT 9999 FEW035 BKN200 24/16 A3011 NOSIG=
201708111600 METAR MRPV 111600Z 08015KT 9999 FEW030 BKN200 24/16 A3010 NOSIG=
201708111700 METAR MRPV 111700Z 08013KT 9999 FEW035 BKN200 25/16 A3008 NOSIG=
201708111800 METAR MRPV 111800Z 07008KT 9999 FEW040 BKN200 27/16 A3005 NOSIG=
201708111900 METAR MRPV 111900Z 05012KT 9999 FEW045 BKN220 28/16 A3004 NOSIG=
201708112000 METAR MRPV 112000Z 05012KT 9999 SCT035 SCT250 26/16 A3002 NOSIG=
201708112100 METAR MRPV 112100Z 06013KT 9999 DZ SCT030 SCT070 25/15 A3001 NOSIG=
201708112200 METAR MRPV 112200Z 06013KT 9999 FEW010 BKN025 23/15 A3001 NOSIG=
201708112300 METAR MRPV 112300Z 08007KT 9999 BCFG FEW007 SCT025 BKN120 23/15 A3003 RERA NOSIG=
201708120000 METAR MRPV 120000Z 29005KT 5000 BR BKN010 21/19 A3004 NOSIG=
201708120100 METAR MRPV NIL=
201708120200 METAR MRPV NIL=
201708120300 METAR MRPV NIL=
201708120400 METAR MRPV NIL=
201708120500 METAR MRPV NIL=
201708120600 METAR MRPV NIL=
201708120700 METAR MRPV NIL=
201708120800 METAR MRPV NIL=
201708120900 METAR MRPV NIL=
201708121000 METAR MRPV NIL=
201708121100 METAR MRPV NIL=
201708121200 METAR MRPV 121200Z 11010KT CAVOK 20/15 A3002 NOSIG=
201708121300 METAR MRPV 121300Z 10008KT 9999 FEW040 BKN200 21/15 A3005 NOSIG=
201708121400 METAR MRPV 121400Z 09011KT 9999 FEW040 SCT160 23/15 A3006 NOSIG=
201708121500 MRPV 121500Z 09011KT 9999 FEW035 BKN140 25/16 A3005 NOSIG=
201708121600 METAR MRPV 121600Z 07012KT 9999 FEW035 BKN120 25/16 A3006 NOSIG=
201708121700 METAR MRPV 121700Z COR 07010KT 9999 4000S +RA SCT030 SCT100 25/14 A3006 RESHRA NOSIG=
201708121800 METAR MRPV 121800Z 06011KT 9999 SCT035 SCT120 25/14 A3004 RERA NOSIG=
201708121900 METAR MRPV 121900Z 06010G20KT 9999 BKN035 25/13 A3001 NOSIG=
201708122000 METAR MRPV 122000Z 06010G20KT 9999 SCT030 BKN200 25/14 A3000 NOSIG=
201708122100 METAR MRPV 122100Z 08011KT 9999 RA BKN035 SCT080 24/15 A3000 NOSIG=
201708122200 METAR MRPV 122200Z 15005KT 9999 -RA SCT040 BKN100 19/18 A3000 NOSIG=
201708122300 METAR MRPV 122300Z 14002KT CAVOK 20/18 A3001 NOSIG=
201708130000 METAR MRPV 130000Z 30002KT 9999 SCT005 BKN100 20/18 A3002 NOSIG=
201708130100 METAR MRPV NIL=
201708130200 METAR MRPV NIL=
201708130300 METAR MRPV NIL=
201708130400 METAR MRPV NIL=
201708130500 METAR MRPV NIL=
201708130600 METAR MRPV NIL=
201708130700 METAR MRPV NIL=
201708130800 METAR MRPV NIL=
201708130900 METAR MRPV NIL=
201708131000 METAR MRPV NIL=
201708131100 METAR MRPV NIL=
201708131200 METAR MRPV 131200Z 10007KT 9999 -RA NSC 20/14 A3002 NOSIG=
201708131300 METAR MRPV 131300Z VRB02KT 9999 4000N -RA FEW025 BKN100 19/17 A3006 NOSIG=
201708131400 METAR MRPV 131400Z 01001KT 9999 BCFG FEW010 BKN120 20/18 A3006 RERA NOSIG=
201708131500 METAR MRPV 131500Z 25001KT 9999 FEW035 BKN120 24/16 A3006 NOSIG=
201708131600 METAR MRPV 131600Z 09004KT 9999 FEW035 SCT160 BKN200 26/15 A3006 NOSIG=
201708131700 METAR MRPV 131700Z 06005KT 9999 FEW030 BKN120 25/15 A3006 NOSIG=
201708131800 METAR MRPV 131800Z 25005KT 9999 FEW030 BKN110 26/18 A3002 NOSIG=
201708131900 METAR MRPV 131900Z 26008KT 9999 SCT030 BKN080 25/19 A3001 NOSIG=
201708132000 METAR MRPV 132000Z 27011KT 9999 FEW020TCU FEW035 SCT100 25/19 A2999 NOSIG=
201708132100 METAR MRPV 132100Z 29011KT 9999 BKN025 23/19 A2998 NOSIG=
201708132200 METAR MRPV 132200Z 06005KT 9999 SCT010 SCT050 20/18 A2999 NOSIG=
201708132300 METAR MRPV 132300Z 05002KT 9999 BKN015 21/19 A2999 NOSIG=
201708140000 METAR MRPV 140000Z 31002KT 9999 BKN010 22/19 A3001 NOSIG=
201708140100 METAR MRPV NIL=
201708140200 METAR MRPV NIL=
201708140300 METAR MRPV NIL=
201708140400 METAR MRPV NIL=
201708140500 METAR MRPV NIL=
201708140600 METAR MRPV NIL=
201708140700 METAR MRPV NIL=
201708140800 METAR MRPV NIL=
201708140900 METAR MRPV NIL=
201708141000 METAR MRPV NIL=
201708141100 METAR MRPV NIL=
201708141200 METAR MRPV 141200Z 12006KT CAVOK 21/15 A3002 NOSIG=
201708141300 METAR MRPV 141300Z 12006KT CAVOK 22/15 A3002 NOSIG=
201708141400 METAR MRPV 141400Z 09011KT 9999 FEW035 24/16 A3003 NOSIG=
201708141500 METAR MRPV 141500Z 08011KT 9999 FEW040 26/16 A3003 NOSIG=
201708141600 METAR MRPV 141600Z 07010KT 9999 FEW045 27/16 A3002 NOSIG=
201708141700 METAR MRPV 141700Z 06010KT 9999 FEW045 28/16 A3001 NOSIG=
201708141800 METAR MRPV 141800Z 06011KT 9999 SCT035 28/16 A3000 NOSIG=
201708141900 METAR MRPV 141900Z 32004KT 9999 SCT040 27/19 A2997 NOSIG=
201708142000 METAR MRPV 142000Z 26007KT 9999 BKN035 25/20 A2995 NOSIG=
201708142100 METAR MRPV COR 142100Z 28010KT 9999 FEW010 SCT030 BKN200 24/20 A2994 BECMG BKN010=
201708142110 METAR MRPV 142110Z 29010KT 9999 BKN010 SCT025 23/20 A2995 NOSIG=
201708142200 METAR MRPV 142200Z 27008KT 8000 BKN010 22/20 A2996 NOSIG=
201708142300 METAR MRPV 142300Z 23001KT 5000 BR BKN005 22/20 A2998 NOSIG=
201708150000 METAR MRPV 150000Z 08014KT 9999 VCFG FEW035 BKN200 22/17 A2997 NOSIG=
201708150100 METAR MRPV NIL=
201708150200 METAR MRPV NIL=
201708150300 METAR MRPV NIL=
201708150400 METAR MRPV NIL=
201708150500 METAR MRPV NIL=
201708150600 METAR MRPV NIL=
201708150700 METAR MRPV NIL=
201708150800 METAR MRPV NIL=
201708150900 METAR MRPV NIL=
201708151000 METAR MRPV NIL=
201708151100 METAR MRPV NIL=
201708151200 METAR MRPV 151200Z 10009KT 9999 FEW025 21/16 A3000 NOSIG=
201708151300 METAR MRPV 151300Z 09012KT 9999 FEW035 23/15 A3002 NOSIG=
201708151400 METAR MRPV 151400Z 07015KT 9999 FEW040 BKN200 23/15 A3002 NOSIG=
201708151500 METAR MRPV 151500Z 07015G25KT CAVOK 25/15 A3003 NOSIG=
201708151600 METAR MRPV 151600Z 07015KT CAVOK 26/16 A3003 NOSIG=
201708151700 METAR MRPV 151700Z 08011KT 9999 FEW045 BKN250 26/16 A3002 NOSIG=
201708151800 METAR MRPV 151800Z 07011KT 9999 FEW040 BKN200 27/17 A3001 NOSIG=
201708151900 METAR MRPV 151900Z 07010KT 9999 FEW040 BKN100 26/16 A3000 NOSIG=
201708152000 METAR MRPV 152000Z 09009KT 9999 FEW035 BKN100 26/16 A2998 NOSIG=
201708152100 METAR MRPV 152100Z 06008KT 9999 FEW040 BKN200 26/15 A2996 NOSIG=
201708152200 METAR MRPV 152200Z 29007KT 9999 SCT040 BKN200 26/18 A2997 NOSIG=
201708152300 METAR MRPV 152300Z 27006KT 9999 BKN020 SCT200 23/18 A3000 NOSIG=
201708160000 METAR MRPV 160000Z 25002KT 9999 VCFG FEW020 BKN200 22/19 A3001 NOSIG=
201708160100 METAR MRPV NIL=
201708160200 METAR MRPV NIL=
201708160300 METAR MRPV NIL=
201708160400 METAR MRPV NIL=
201708160500 METAR MRPV NIL=
201708160600 METAR MRPV NIL=
201708160700 METAR MRPV NIL=
201708160800 METAR MRPV NIL=
201708160900 METAR MRPV NIL=
201708161000 METAR MRPV NIL=
201708161100 METAR MRPV NIL=
201708161200 METAR MRPV 161200Z 09009KT 9999 SCT030 BKN200 21/16 A3004 NOSIG=
201708161300 METAR MRPV 161300Z 08012KT 9999 FEW030 BKN200 23/16 A3008 NOSIG=
201708161400 METAR MRPV 161400Z 09013KT 9999 FEW030 SCT200 24/16 A3004 NOSIG=
201708161500 METAR MRPV 161500Z 08013KT 9999 FEW040 BKN200 24/16 A3006 NOSIG=
201708161600 METAR MRPV 161600Z 08010KT 9999 FEW040 SCT120 BKN200 25/16 A3005 NOSIG=
201708161700 METAR MRPV 161700Z 06007KT 9999 SCT040 BKN120 25/16 A3006 NOSIG=
201708161800 METAR MRPV 161800Z 06009KT 9999 FEW040 BKN120 25/15 A3004 NOSIG=
201708161900 METAR MRPV 161900Z 09008KT 9999 FEW035 BKN160 27/16 A3002 NOSIG=
201708162000 METAR MRPV 162000Z 34004KT 090V350 9999 FEW045 SCT080 BKN160 28/15 A2999 NOSIG=
201708162100 METAR MRPV 162100Z 10004KT 9999 4000NE RA FEW015 SCT040 BKN100 24/20 A3000 NOSIG=
201708162200 METAR MRPV 162200Z 14005KT 9999 FEW040 SCT100 BKN200 23/18 A2999 NOSIG=
201708162300 METAR MRPV 162300Z 13005KT 9999 FEW010 SCT045 BKN100 23/17 A3001 NOSIG=
201708170000 METAR MRPV 170000Z 33004KT 8000 3500W BCFG FEW005 SCT035 BKN200 22/20 A3003 NOSIG=
201708170100 METAR MRPV NIL=
201708170200 METAR MRPV NIL=
201708170300 METAR MRPV NIL=
201708170400 METAR MRPV NIL=
201708170500 METAR MRPV NIL=
201708170600 METAR MRPV NIL=
201708170700 METAR MRPV NIL=
201708170800 METAR MRPV NIL=
201708170900 METAR MRPV NIL=
201708171000 METAR MRPV NIL=
201708171100 METAR MRPV NIL=
201708171200 METAR MRPV 171200Z 10010KT 9999 FEW030 BKN100 22/16 A3003 NOSIG=
201708171300 METAR MRPV COR 171300Z 07014G25KT 9999 RA FEW025 BKN100 20/15 A3008 NOSIG=
201708171400 METAR MRPV 171400Z 09015KT 9999 -RA FEW025 BKN100 20/15 A3008 NOSIG=
201708171500 METAR MRPV 171500Z 09016KT 9999 FEW030 BKN100 21/13 A3009 NOSIG=
201708171600 METAR MRPV 171600Z 09015KT 9999 FEW035 BKN100 23/14 A3007 NOSIG=
201708171700 METAR MRPV 171700Z 07017KT 9999 FEW030 BKN100 24/13 A3006 NOSIG=
201708171800 METAR MRPV 171800Z 09012KT 9999 FEW035 SCT100 BKN200 26/14 A3003 NOSIG=
201708171900 METAR MRPV 171900Z 09013KT 9999 FEW040 SCT100 BKN200 26/15 A3000 NOSIG=
201708172000 METAR MRPV 172000Z 07015KT 9999 FEW035 SCT120 BKN200 27/14 A2999 NOSIG=
201708172100 METAR MRPV 172100Z 08016KT 9999 FEW035 BKN120 26/13 A2998 NOSIG=
201708172200 METAR MRPV 172200Z 08016KT CAVOK 24/14 A2997 NOSIG=
201708172300 METAR MRPV 172300Z 07016KT 9999 FEW035 BKN140 23/14 A2999 NOSIG=
201708180000 METAR MRPV 180000Z 08011KT 9999 FEW035 SCT160 BKN200 22/14 A3000 NOSIG=
201708180100 METAR MRPV NIL=
201708180200 METAR MRPV NIL=
201708180300 METAR MRPV NIL=
201708180400 METAR MRPV NIL=
201708180500 METAR MRPV NIL=
201708180600 METAR MRPV NIL=
201708180700 METAR MRPV NIL=
201708180800 METAR MRPV NIL=
201708180900 METAR MRPV NIL=
201708181000 METAR MRPV NIL=
201708181100 METAR MRPV NIL=
201708181200 METAR MRPV 181200Z 13006KT CAVOK 20/14 A3000 NOSIG=
201708181300 METAR MRPV 181300Z 13006KT CAVOK 21/15 A3003 NOSIG=
201708181400 METAR MRPV 181400Z 11009KT 9999 FEW040 SCT100 BKN200 23/16 A3004 NOSIG=
201708181500 METAR MRPV 181500Z 09013KT 9999 FEW040 BKN200 25/16 A3004 NOSIG=
201708181600 METAR MRPV 181600Z 08011KT 9999 FEW045 BKN200 26/17 A3003 NOSIG=
201708181700 METAR MRPV 181700Z 07010KT 9999 FEW040 SCT100 27/17 A3002 NOSIG=
201708181800 METAR MRPV 181800Z 08009KT 9999 FEW045 BKN080 25/16 A3001 NOSIG=
201708181900 METAR MRPV 181900Z 07008KT 9999 SCT035 BKN200 27/17 A3000 NOSIG=
201708182000 METAR MRPV 182000Z 10004KT 9999 SCT030 BKN200 26/17 A2998 NOSIG=
201708182100 METAR MRPV 182100Z 07008KT 9999 FEW020TCU SCT035 BKN200 26/17 A2997 NOSIG=
201708182200 METAR MRPV 182200Z 31006KT 9999 FEW010 SCT030 BKN200 24/19 A2997 NOSIG=
201708182300 METAR MRPV 182300Z 29007KT 9999 BKN005 22/20 A2998 NOSIG=
201708190000 METAR MRPV 190000Z 29003KT 5000 RA BR BKN004 21/20 A3001 NOSIG=
201708190100 METAR MRPV NIL=
201708190200 METAR MRPV NIL=
201708190300 METAR MRPV NIL=
201708190400 METAR MRPV NIL=
201708190500 METAR MRPV NIL=
201708190600 METAR MRPV NIL=
201708190700 METAR MRPV NIL=
201708190800 METAR MRPV NIL=
201708190900 METAR MRPV NIL=
201708191000 METAR MRPV NIL=
201708191100 METAR MRPV NIL=
201708191200 METAR MRPV 191200Z 12007KT 9999 4500NW -RA FEW040 BKN100 21/16 A2999 NOSIG=
201708191300 METAR MRPV 191300Z COR 12008G18KT 9999 FEW040 SCT120 BKN200 22/17 A2999 RERA NOSIG=
201708191400 METAR MRPV 191400Z 10012KT 9999 FEW035 BKN200 22/17 A3002 NOSIG=
201708191500 METAR MRPV 191500Z 08011KT 9999 FEW035 BKN200 25/17 A3002 NOSIG=
201708191600 METAR MRPV 191600Z 08011KT 9999 SCT035 SCT120 25/17 A3001 NOSIG=
201708191700 METAR MRPV 191700Z 10008KT 9999 SCT035 BKN120 25/17 A3000 NOSIG=
201708191800 METAR MRPV 191800Z 07007KT 9999 3000E -RA SCT030 BKN120 22/19 A3000 NOSIG=
201708191900 METAR MRPV 191900Z 15007KT 9999 FEW030 BKN080 21/18 A2997 RETSRA NOSIG=
201708192000 METAR MRPV 192000Z 10008KT 9999 FEW025 BKN080 26/17 A2994 NOSIG=
201708192100 METAR MRPV 192100Z 06011KT 9999 SCT025 BKN200 26/16 A2990 NOSIG=
201708192200 METAR MRPV 192200Z 09008KT 9999 BKN030 SCT200 25/17 A2991 NOSIG=
201708192300 METAR MRPV 192300Z 33003KT 9999 -RA BKN015 SCT200 22/19 A2993 NOSIG=
201708200000 METAR MRPV 200000Z 10006KT 9999 SCT015 SCT200 22/17 A2995 NOSIG=
201708200100 METAR MRPV NIL=
201708200200 METAR MRPV NIL=
201708200300 METAR MRPV NIL=
201708200400 METAR MRPV NIL=
201708200500 METAR MRPV NIL=
201708200600 METAR MRPV NIL=
201708200700 METAR MRPV NIL=
201708200800 METAR MRPV NIL=
201708200900 METAR MRPV NIL=
201708201000 METAR MRPV NIL=
201708201100 METAR MRPV NIL=
201708201200 METAR MRPV 201200Z 04001KT 8000 BCFG SCT002 BKN250 18/17 A3001 NOSIG=
201708201300 METAR MRPV 201300Z 08002KT 8000 BCFG SCT002 SCT030 20/17 A3003 NOSIG=
201708201400 METAR MRPV 201400Z 33001KT 9000 SCT020 SCT250 21/18 A3005 NOSIG=
201708201500 METAR MRPV 201500Z 28008KT 9999 SCT020 SCT250 22/17 A3005 NOSIG=
201708201600 METAR MRPV 201600Z 32004KT 9999 SCT020 BKN250 24/17 A3005 NOSIG=
201708201700 METAR MRPV 201700Z 27005KT 9999 FEW030 BKN200 25/17 A3003 NOSIG=
201708201800 METAR MRPV NIL=
201708201900 METAR MRPV 201900Z 27005KT 9999 -SHRA FEW020TCU FEW035 BKN200 24/18 A2998 NOSIG=
201708202000 METAR MRPV 202000Z 22001KT 9999 4000N SHRA VCTS SCT020CB BKN120 23/19 A2996 NOSIG=
201708202100 METAR MRPV 202100Z 27005KT 9999 -TSRA FEW005 BKN015CB SCT040 22/20 A2996 NOSIG=
201708202200 METAR MRPV 202200Z 32003KT 8000 -RA BCFG FEW006 SCT040 BKN100 21/19 A2997 RETSRA NOSIG=
201708202300 METAR MRPV 202300Z 27002KT 8000 -RA BCFG SCT005 BKN100 20/19 A2999 NOSIG=
201708210000 METAR MRPV 210000Z 27002KT 5000 BR SCT004 BKN100 20/19 A3001 NOSIG=
201708210100 METAR MRPV NIL=
201708210200 METAR MRPV NIL=
201708210300 METAR MRPV NIL=
201708210400 METAR MRPV NIL=
201708210500 METAR MRPV NIL=
201708210600 METAR MRPV NIL=
201708210700 METAR MRPV NIL=
201708210800 METAR MRPV NIL=
201708210900 METAR MRPV NIL=
201708211000 METAR MRPV NIL=
201708211100 METAR MRPV NIL=
201708211200 METAR MRPV 211200Z 14002KT CAVOK 18/17 A3003 NOSIG=
201708211300 METAR MRPV 211300Z 12002KT CAVOK 23/16 A3005 NOSIG=
201708211400 METAR MRPV 211400Z 35004KT CAVOK 23/16 A3006 NOSIG=
201708211500 METAR MRPV 211500Z 27006KT 9999 FEW030 BKN100 23/17 A3007 NOSIG=
201708211600 METAR MRPV 211600Z 29009KT 9999 FEW030 BKN100 24/17 A3006 NOSIG=
201708211700 METAR MRPV 211700Z 27004KT 9999 FEW030 25/18 A3005 NOSIG=
201708211800 METAR MRPV 211800Z 27008KT 9999 FEW025TCU FEW030 27/18 A3002 NOSIG=
201708211900 METAR MRPV 211900Z 28012KT 9999 FEW025TCU SCT040 26/19 A3001 NOSIG=
201708212000 METAR MRPV 212000Z 28009KT 9999 VCSH SCT020TCU BKN040 25/20 A2999 NOSIG=
201708212100 METAR MRPV 212100Z 26007KT 8000 VCTS VCSH BKN012CB 23/20 A2998 NOSIG=
201708212200 METAR MRPV 212200Z 01006KT 3500 -TSRA SCT010CB BKN100 20/19 A3001 NOSIG=
201708212300 METAR MRPV 212300Z 07003KT 9999 -RA BCFG FEW010TCU SCT035 BKN100 20/19 A3003 NOSIG=
201708220000 METAR MRPV 220000Z 13002KT 9999 BKN025 20/19 A3004 NOSIG=
201708220100 METAR MRPV NIL=
201708220200 METAR MRPV NIL=
201708220300 METAR MRPV NIL=
201708220400 METAR MRPV NIL=
201708220500 METAR MRPV NIL=
201708220600 METAR MRPV NIL=
201708220700 METAR MRPV NIL=
201708220800 METAR MRPV NIL=
201708220900 METAR MRPV NIL=
201708221000 METAR MRPV NIL=
201708221100 METAR MRPV NIL=
201708221200 METAR MRPV 221200Z 11002KT CAVOK 17/16 A3005 NOSIG=
201708221300 METAR MRPV 221300Z 10005KT CAVOK 21/16 A3007 NOSIG=
201708221400 METAR MRPV 221400Z 11006KT CAVOK 24/15 A3007 NOSIG=
201708221500 METAR MRPV 221500Z 09009KT CAVOK 25/15 A3006 NOSIG=
201708221600 METAR MRPV 221600Z 06009KT CAVOK 27/16 A3006 NOSIG=
201708221700 METAR MRPV 221700Z 08010KT 9999 FEW045 28/17 A3005 NOSIG=
201708221800 METAR MRPV 221800Z 07011KT 9999 FEW045 27/16 A3004 NOSIG=
201708221900 METAR MRPV 221900Z 27004KT 9999 FEW020TCU FEW045 SCT100 26/18 A3002 NOSIG=
201708222000 METAR MRPV 222000Z COR 26006KT 9999 4000N SHRA VCTS FEW015CB FEW35 BKN100 26/20 A3000 BECMG 5000=
201708222100 METAR MRPV 222100Z 26007KT 9999 -RA BKN015 FEW025 23/20 A3001 RESHRA NOSIG=
201708222200 METAR MRPV 222200Z 28006KT 2000 BR BKN005 21/20 A3001 NOSIG=
201708222300 METAR MRPV 222300Z 29006KT 4500 BR SCT005 BKN030 21/20 A3001 NOSIG=
201708230000 METAR MRPV 230000Z COR 32002KT 4500 BR SCT010 BKN035 21/20 A3002 NOSIG=
201708230100 METAR MRPV NIL=
201708230200 METAR MRPV NIL=
201708230300 METAR MRPV NIL=
201708230400 METAR MRPV NIL=
201708230500 METAR MRPV NIL=
201708230600 METAR MRPV NIL=
201708230700 METAR MRPV NIL=
201708230800 METAR MRPV NIL=
201708230900 METAR MRPV NIL=
201708231000 METAR MRPV NIL=
201708231100 METAR MRPV NIL=
201708231200 METAR MRPV 231200Z 13004KT CAVOK 19/15 A3001 NOSIG=
201708231300 METAR MRPV 231300Z 13007KT CAVOK 22/16 A3002 NOSIG=
201708231400 METAR MRPV 231400Z 10011KT CAVOK 24/15 A3002 NOSIG=
201708231500 METAR MRPV 231500Z 07012KT CAVOK 25/15 A3002 NOSIG=
201708231600 METAR MRPV 231600Z 06007KT CAVOK 26/16 A3000 NOSIG=
201708231700 METAR MRPV 231700Z 05008KT 9999 FEW045 BKN200 27/15 A3000 NOSIG=
201708231800 METAR MRPV 231800Z 08010KT 9999 FEW040 BKN080 26/16 A2999 NOSIG=
201708231900 METAR MRPV 231900Z 07005KT 9999 VCTS FEW020CB FEW040 BKN100 24/18 A2996 RERA NOSIG=
201708232000 METAR MRPV 232000Z 28013KT 9999 BCFG VCSH FEW010 FEW015TCU SCT035 BKN080 24/20 A2994 NOSIG=
201708232100 METAR MRPV 232100Z 24004KT 3000 +RA BCFG VCTS SCT005 SCT010CB BKN030 19/18 A2998 RETSRA NOSIG=
201708232200 METAR MRPV 232200Z VRB02KT 5000 2000N RA BR FEW005 SCT035 BKN080 20/19 A2996 NOSIG=
201708232300 METAR MRPV 232300Z 06003KT 9999 BCFG FEW010 SCT035 BKN100 21/20 A2996 RERA NOSIG=
201708240000 METAR MRPV 240000Z 12004KT 9999 FEW010 SCT060 BKN120 20/19 A2994 NOSIG=
201708240100 METAR MRPV NIL=
201708240200 METAR MRPV NIL=
201708240300 METAR MRPV NIL=
201708240400 METAR MRPV NIL=
201708240500 METAR MRPV NIL=
201708240600 METAR MRPV NIL=
201708240700 METAR MRPV NIL=
201708240800 METAR MRPV NIL=
201708240900 METAR MRPV NIL=
201708241000 METAR MRPV NIL=
201708241100 METAR MRPV NIL=
201708241200 METAR MRPV 241200Z 12001KT 5000 DZ BR FEW005 BKN020 19/18 A2998 NOSIG=
201708241230 METAR MRPV 241230Z 08004KT 9999 BCFG FEW010 SCT035 BKN100 19/18 A2999 NOSIG=
201708241300 METAR MRPV 241300Z 07004KT 9999 BCFG FEW010 SCT070 BKN120 20/19 A3000 NOSIG=
201708241400 METAR MRPV 241400Z 11004KT 9999 FEW030 SCT080 BKN140 22/18 A3001 NOSIG=
201708241500 METAR MRPV 241500Z 12003KT 9999 FEW035 BKN080 24/17 A3002 NOSIG=
201708241600 METAR MRPV 241600Z 31004KT 9999 FEW035 BKN080 25/16 A3002 NOSIG=
201708241700 METAR MRPV 241700Z 27009KT 9999 SCT035 BKN120 23/17 A3001 NOSIG=
201708241800 METAR MRPV 241800Z 26009KT 9999 -DZ SCT035 BKN120 24/16 A3000 TEMPO SHRA=
201708241900 METAR MRPV 241900Z 31008KT 9999 RA FEW020 BKN100 22/17 A2999 NOSIG=
201708242000 METAR MRPV 242000Z 33003KT 4000 +DZ BR FEW005 SCT010 BKN100 21/18 A2997 NOSIG=
201708242100 METAR MRPV 242100Z 33005KT 2500 RA BR BKN005 20/18 A2997 REDZ NOSIG=
201708242200 METAR MRPV 242200Z 26001KT 5000 BR FEW002 SCT020 BKN080 19/18 A2997 NOSIG=
201708242300 METAR MRPV 242300Z 14001KT 4500 -RA BR FEW004 BKN080 19/18 A2998 NOSIG=
201708250000 METAR MRPV 250000Z 12002KT 9999 -RA FEW010 BKN100 19/18 A2999 NOSIG=
201708250100 METAR MRPV NIL=
201708250200 METAR MRPV NIL=
201708250300 METAR MRPV NIL=
201708250400 METAR MRPV NIL=
201708250500 METAR MRPV NIL=
201708250600 METAR MRPV NIL=
201708250700 METAR MRPV NIL=
201708250800 METAR MRPV NIL=
201708250900 METAR MRPV NIL=
201708251000 METAR MRPV NIL=
201708251100 METAR MRPV NIL=
201708251200 METAR MRPV 251200Z 14004KT CAVOK 19/16 A3000 NOSIG=
201708251300 METAR MRPV 251300Z 14004KT CAVOK 21/16 A3003 NOSIG=
201708251400 METAR MRPV 251400Z 28010KT CAVOK 21/17 A3006 NOSIG=
201708251500 METAR MRPV 251500Z 29010KT 9999 SCT020 SCT120 23/18 A3007 NOSIG=
201708251600 METAR MRPV 251600Z 29008KT 9999 SCT020 23/17 A3007 NOSIG=
201708251700 METAR MRPV 251700Z 27008KT 9999 SCT020 25/17 A3006 NOSIG=
201708251800 METAR MRPV 251800Z 28010KT 9999 SCT025 SCT100 25/18 A3005 NOSIG=
201708251900 METAR MRPV 251900Z 27011KT 9999 RA SCT025 BKN120 24/18 A3002 NOSIG=
201708251935 METAR MRPV 251935Z 27009KT 9999 4000E -TSRA FEW020CB SCT035 BKN120 23/19 NOSIG=
201708252000 METAR MRPV 252000Z 27009KT 9999 SHRA FEW020CB SCT030 22/19 A3000 RETSRA NOSIG=
201708252100 METAR MRPV 252100Z 26002KT 9999 -TSRA FEW005 FEW010CB SCT010 BKN100 21/19 A3000 NOSIG=
201708252200 METAR MRPV 252200Z 08004KT 9999 4000N RA FEW008 BKN015 21/19 A3000 NOSIG=
201708252300 METAR MRPV 252300Z 12003KT 5000 RA FEW030 BKN100 19/18 A3003 RETSRA NOSIG=
201708260000 METAR MRPV 260000Z 12002KT 5000 -RA NSC 20/19 A3007 NOSIG=
201708260100 METAR MRPV NIL=
201708260200 METAR MRPV NIL=
201708260300 METAR MRPV NIL=
201708260400 METAR MRPV NIL=
201708260500 METAR MRPV NIL=
201708260600 METAR MRPV NIL=
201708260700 METAR MRPV NIL=
201708260800 METAR MRPV NIL=
201708260900 METAR MRPV NIL=
201708261000 METAR MRPV NIL=
201708261100 METAR MRPV NIL=
201708261200 METAR MRPV 261200Z 11011KT CAVOK 21/15 A3004 NOSIG=
201708261300 METAR MRPV 261300Z 12011KT 9999 FEW040 SCT100 21/15 A3006 NOSIG=
201708261400 METAR MRPV 261400Z 11011KT CAVOK 22/16 A3007 NOSIG=
201708261500 METAR MRPV 261500Z 09013KT 9999 FEW040 SCT100 23/16 A3008 NOSIG=
201708261600 METAR MRPV 261600Z 06011KT 9999 FEW030 25/15 A3007 NOSIG=
201708261700 METAR MRPV 261700Z 06010KT 9999 SCT040 SCT250 26/15 A3006 NOSIG=
201708261800 METAR MRPV 261800Z 07011KT 9999 FEW040 SCT080 26/15 A3004 NOSIG=
201708261900 METAR MRPV 261900Z 08010KT 9999 SCT040 BKN200 26/16 A3002 NOSIG=
201708262000 METAR MRPV 262000Z 10008KT 9999 FEW040 BKN080 24/16 A3001 NOSIG=
201708262100 METAR MRPV 262100Z 07011KT 9999 SCT040 BKN120 24/16 A3001 NOSIG=
201708262200 METAR MRPV 262200Z 10007KT 9999 SCT040 BKN100 23/16 A3003 NOSIG=
201708262300 METAR MRPV 262300Z 11007KT CAVOK 23/15 A2998 NOSIG=
201708270000 METAR MRPV 270000Z 06006KT CAVOK 22/15 A2998 NOSIG=
201708270100 METAR MRPV NIL=
201708270200 METAR MRPV NIL=
201708270300 METAR MRPV NIL=
201708270400 METAR MRPV NIL=
201708270500 METAR MRPV NIL=
201708270600 METAR MRPV NIL=
201708270700 METAR MRPV NIL=
201708270800 METAR MRPV NIL=
201708270900 METAR MRPV NIL=
201708271000 METAR MRPV NIL=
201708271100 METAR MRPV NIL=
201708271200 METAR MRPV 271200Z 12007KT CAVOK 20/15 A3001 NOSIG=
201708271300 METAR MRPV 271300Z 09012KT CAVOK 22/16 A3002 NOSIG=
201708271400 METAR MRPV 271400Z 08012KT CAVOK 24/16 A3002 NOSIG=
201708271500 METAR MRPV 271500Z 07012KT CAVOK 25/15 A3001 NOSIG=
201708271600 METAR MRPV 271600Z 06014KT 9999 FEW040 BKN250 26/15 A3002 NOSIG=
201708271700 METAR MRPV 271700Z 06011KT CAVOK 27/15 A3003 NOSIG=
201708271800 METAR MRPV 271800Z 05010KT 9999 FEW045 SCT250 28/16 A3000 NOSIG=
201708271900 METAR MRPV 271900Z 06013KT 9999 FEW045 BKN200 27/14 A2997 NOSIG=
201708272000 METAR MRPV 272000Z 06012KT 9999 FEW040 BKN080 25/16 A2996 NOSIG=
201708272100 METAR MRPV 272100Z 08008KT 9999 FEW030 BKN100 24/16 A2996 NOSIG=
201708272200 METAR MRPV 272200Z 10007KT 9999 FEW040 BKN100 24/15 A2997 NOSIG=
201708272300 METAR MRPV 272300Z 30004KT 9999 FEW008 BKN100 22/19 A2998 TEMPO BKN008=
201708280000 METAR MRPV 280000Z 29007KT 8000 VCFG BKN008 SCT100 21/19 A3000 NOSIG=
201708280100 METAR MRPV NIL=
201708280200 METAR MRPV NIL=
201708280300 METAR MRPV NIL=
201708280400 METAR MRPV NIL=
201708280500 METAR MRPV NIL=
201708280600 METAR MRPV NIL=
201708280700 METAR MRPV NIL=
201708280800 METAR MRPV NIL=
201708280900 METAR MRPV NIL=
201708281000 METAR MRPV NIL=
201708281100 METAR MRPV NIL=
201708281200 METAR MRPV 281200Z 13007KT CAVOK 20/14 A3001 NOSIG=
201708281300 METAR MRPV 281300Z 10012KT CAVOK 22/15 A3002 NOSIG=
201708281400 METAR MRPV 281400Z 11011KT CAVOK 23/15 A3004 NOSIG=
201708281500 METAR MRPV 281500Z 07010KT CAVOK 25/14 A3005 NOSIG=
201708281600 METAR MRPV 281600Z 06007KT CAVOK 26/14 A3004 NOSIG=
201708281700 METAR MRPV 281700Z 06007KT 9999 FEW035 BKN200 27/14 A3003 BECMG 26006KT=
201708281800 METAR MRPV 281800Z 29008KT 9999 SCT040 BKN200 26/17 A3001 NOSIG=
201708281900 METAR MRPV 281900Z 29007KT 9999 FEW040 SCT120 BKN200 25/19 A2999 NOSIG=
201708282000 METAR MRPV 282000Z 28011KT 9999 FEW015CB FEW040 BKN200 24/19 A2997 BECMG TSRA=
201708282100 METAR MRPV 282100Z 28012KT 9999 FEW010 BKN120 23/18 A2998 NOSIG=
201708282200 METAR MRPV 282200Z 29009KT 9000 VCFG FEW010 SCT025 BKN100 22/17 A2998 NOSIG=
201708282300 METAR MRPV 282300Z 29009KT 4000 RA BR SCT002 BKN008 20/19 A3000 NOSIG=
201708290000 METAR MRPV 290000Z 28005KT 4000 -DZ BR BKN005 19/19 A3004 RERA NOSIG=
201708290100 METAR MRPV NIL=
201708290200 METAR MRPV NIL=
201708290300 METAR MRPV NIL=
201708290400 METAR MRPV NIL=
201708290500 METAR MRPV NIL=
201708290600 METAR MRPV NIL=
201708290700 METAR MRPV NIL=
201708290800 METAR MRPV NIL=
201708290900 METAR MRPV NIL=
201708291000 METAR MRPV NIL=
201708291100 METAR MRPV NIL=
201708291200 METAR MRPV 291200Z 14005KT CAVOK 19/17 A3004 NOSIG=
201708291300 METAR MRPV 291300Z 12004KT CAVOK 22/16 A3007 NOSIG=
201708291400 METAR MRPV 291400Z 13006KT CAVOK 24/15 A3008 NOSIG=
201708291500 METAR MRPV 291500Z 10009KT 9999 FEW040 26/15 A3008 NOSIG=
201708291600 METAR MRPV 291600Z 31004KT 9999 FEW040 BKN120 25/18 A3009 NOSIG=
201708291700 METAR MRPV 291700Z 29007KT 9999 SCT035 BKN100 24/18 A3008 NOSIG=
201708291800 METAR MRPV 291800Z 27006KT 9999 FEW035 SCT100 24/18 A3005 NOSIG=
201708291900 METAR MRPV 291900Z 27008KT 9999 FEW015TCU FEW030 SCT100 25/18 A3002 NOSIG=
201708292000 METAR MRPV 292000Z 27009KT 9999 SCT030 SCT100 24/19 A3000 NOSIG=
201708292100 METAR MRPV 292100Z 27010KT 5000 SHRA BCFG SCT010 FEW015TCU BKN040 23/19 A2999 NOSIG=
201708292200 METAR MRPV 292200Z 26006KT 0500 -RA FG OVC002 20/19 A3000 NOSIG=
201708292300 METAR MRPV 292300Z 27005KT 2500 TSRA BR SCT015CB BKN020 29/18 A3003 NOSIG=
201708300000 METAR MRPV 300000Z 24004KT 2500 TSRA FEW010CB SCT015 BKN030 19/18 A3005 NOSIG=
201708300100 METAR MRPV NIL=
201708300200 METAR MRPV NIL=
201708300300 METAR MRPV NIL=
201708300400 METAR MRPV NIL=
201708300500 METAR MRPV NIL=
201708300600 METAR MRPV NIL=
201708300700 METAR MRPV NIL=
201708300800 METAR MRPV NIL=
201708300900 METAR MRPV NIL=
201708301000 METAR MRPV NIL=
201708301100 METAR MRPV NIL=
201708301200 METAR MRPV 301200Z VRB02KT CAVOK 20/16 A3004 NOSIG=
201708301300 METAR MRPV 301300Z 30004KT CAVOK 21/15 A3006 NOSIG=
201708301400 METAR MRPV 301400Z 28005KT CAVOK 22/16 A3007 NOSIG=
201708301500 METAR MRPV 301500Z 29005KT 9999 FEW035 BKN200 24/17 A3006 NOSIG=
201708301600 METAR MRPV 301600Z 28007KT 9999 FEW035 BKN200 24/18 A3007 NOSIG=
201708301700 METAR MRPV 301700Z 28008KT 9999 SCT040 BKN200 25/17 A3005 NOSIG=
201708301800 METAR MRPV 301800Z 28009KT 9999 SCT035 BKN100 25/19 A3004 NOSIG=
201708301900 METAR MRPV 301900Z 28010KT 9999 SCT030 SCT300 25/17 A3001 NOSIG=
201708302000 METAR MRPV 302000Z 27009KT 9999 VCSH FEW020TCU BKN030 24/18 A2999 NOSIG=
201708302040 METAR MRPV 302040Z 11001KT 3000 TSRA FEW015CB BKN025 22/20 A3000 NOSIG=
201708302100 METAR MRPV 302100Z 11001KT 3000 TSRA FEW015CB BKN025 22/20 A3000 NOSIG=
201708302200 METAR MRPV 302200Z 29007KT 5000 BR BKN005 21/20 A2999 RETSRA NOSIG=
201708302300 METAR MRPV 302300Z 30002KT 8000 FEW002 BKN025 20/19 A3001 NOSIG=
201708310000 METAR MRPV 310000Z 26003KT 9999 SCT030 BKN100 20/18 A3003 RETSRA NOSIG=
201708310100 METAR MRPV NIL=
201708310200 METAR MRPV NIL=
201708310300 METAR MRPV NIL=
201708310400 METAR MRPV NIL=
201708310500 METAR MRPV NIL=
201708310600 METAR MRPV NIL=
201708310700 METAR MRPV NIL=
201708310800 METAR MRPV NIL=
201708310900 METAR MRPV NIL=
201708311000 METAR MRPV NIL=
201708311100 METAR MRPV NIL=
201708311200 METAR MRPV 311200Z 15006KT 9999 -RA FEW035 OVC120 20/16 A3004 NOSIG=
201708311300 METAR MRPV 311300Z 13007KT 9999 RA FEW040 BKN120 21/16 A3006 NOSIG=
201708311400 METAR MRPV 311400Z 12007KT 9999 -RA SCT035 BKN120 21/17 A3008 NOSIG=
201708311500 METAR MRPV 311500Z 11009KT 9999 FEW035 SCT090 BKN120 23/17 A3009 NOSIG=
201708311600 METAR MRPV 311600Z 12006KT 9999 FEW035 SCT080 BKN160 24/17 A3008 NOSIG=
201708311700 METAR MRPV 311700Z 08010KT 9999 FEW040 BKN160 25/16 A3007 NOSIG=
201708311800 METAR MRPV 311800Z 08006KT 9999 FEW045 BKN120 26/16 A3004 NOSIG=
201708311900 METAR MRPV 311900Z 05003KT 9999 FEW040 SCT160 27/16 A3000 BECMG 22005KT=
201708312000 METAR MRPV 312000Z 09006KT 9999 FEW040 BKN120 28/15 A2997 NOSIG=
201708312100 METAR MRPV 312100Z 28007KT 9999 FEW015 SCT035 BKN120 25/20 A2996 NOSIG=
201708312200 METAR MRPV 312200Z 27007KT 9999 FEW003 SCT015 23/20 A2997 TEMPO BKN010=
201708312300 METAR MRPV 312300Z 08007KT 9999 270V080 4000N -RA BCFG FEW002 SCT010 BKN120 22/18 A2999 NOSIG=
201709010000 METAR MRPV 010000Z 09006KT 9999 BCFG FEW002 SCT030 BKN100 22/16 A3003 NOSIG=
201709010100 METAR MRPV NIL=
201709010200 METAR MRPV NIL=
201709010300 METAR MRPV NIL=
201709010400 METAR MRPV NIL=
201709010500 METAR MRPV NIL=
201709010600 METAR MRPV NIL=
201709010700 METAR MRPV NIL=
201709010800 METAR MRPV NIL=
201709010900 METAR MRPV NIL=
201709011000 METAR MRPV NIL=
201709011100 METAR MRPV NIL=
201709011200 METAR MRPV 011200Z 06006KT CAVOK 21/15 A3005 NOSIG=
201709011300 METAR MRPV 011300Z 11003KT CAVOK 23/15 A3008 NOSIG=
201709011400 METAR MRPV 011400Z 30004KT CAVOK 24/16 A3010 NOSIG=
201709011500 METAR MRPV 011500Z 28003KT CAVOK 25/16 A3010 NOSIG=
201709011600 METAR MRPV 011600Z 28005KT 9999 FEW035 26/16 A3009 NOSIG=
201709011700 METAR MRPV 011700Z 28007KT 9999 FEW035 BKN250 27/18 A3007 NOSIG=
201709011800 METAR MRPV 011800Z 27011KT 9999 SCT040 SCT250 26/19 A3006 NOSIG=
201709011900 METAR MRPV 011900Z 29014KT 9999 SCT035 SCT200 27/19 A3003 NOSIG=
201709012000 METAR MRPV 012000Z 29013KT 9999 FEW040 BKN200 27/19 A3001 NOSIG=
201709012100 METAR MRPV 012100Z 27009KT 9999 FEW035 BKN200 26/19 A3001 NOSIG=
201709012200 METAR MRPV 012200Z 28010KT 9999 VCSH FEW020TCU FEW035 BKN200 25/19 A3000 NOSIG=
201709012300 METAR MRPV 012300Z 27007KT 8000 -RA SCT010CB SCT100 SCT200 22/20 A3002 NOSIG=
201709020000 METAR MRPV 020000Z 26003KT 8000 VCFG FEW010 SCT020 BKN200 22/20 A3004 NOSIG=
201709020100 METAR MRPV NIL=
201709020200 METAR MRPV NIL=
201709020300 METAR MRPV NIL=
201709020400 METAR MRPV NIL=
201709020500 METAR MRPV NIL=
201709020600 METAR MRPV NIL=
201709020700 METAR MRPV NIL=
201709020800 METAR MRPV NIL=
201709020900 METAR MRPV NIL=
201709021000 METAR MRPV NIL=
201709021100 METAR MRPV NIL=
201709021200 METAR MRPV 021200Z 12006KT CAVOK 21/16 A3006 NOSIG=
201709021300 METAR MRPV 021300Z 12008KT CAVOK 23/16 A3008 NOSIG=
201709021400 METAR MRPV 021400Z 10010KT CAVOK 26/16 A3009 NOSIG=
201709021500 METAR MRPV 021500Z 07013KT CAVOK 26/16 A3009 NOSIG=
201709021600 METAR MRPV 021600Z 06007KT CAVOK 28/16 A3008 NOSIG=
201709021700 METAR MRPV 021700Z 04008KT 9999 FEW040 30/16 A3007 NOSIG=
201709021800 METAR MRPV 021800Z 28008KT 9999 VCTS FEW020CB SCT035 26/19 A3006 NOSIG=
201709021900 METAR MRPV 021900Z 30011KT 9999 VCSH FEW020TCU SCT040 BKN200 25/19 A3002 NOSIG=
201709022000 METAR MRPV 022000Z 28008KT 9999 VCTS FEW015CB SCT030 BKN100 25/20 A3002 NOSIG=
201709022100 METAR MRPV 022100Z 26004KT 9999 VCFG SCT010CB BKN020 23/20 A3001 TEMPO TSRA=
201709022200 METAR MRPV 022200Z 11007KT 9999 VCTS FEW008CB SCT030 BKN100 24/17 A3002 NOSIG=
201709022300 METAR MRPV 022300Z 02003KT 9999 FEW040 BKN100 20/17 A3004 NOSIG=
201709030000 METAR MRPV 030000Z 22003KT 9999 BCFG FEW025 BKN100 21/17 A3008 NOSIG=
201709030100 METAR MRPV NIL=
201709030200 METAR MRPV NIL=
201709030300 METAR MRPV NIL=
201709030400 METAR MRPV NIL=
201709030500 METAR MRPV NIL=
201709030600 METAR MRPV NIL=
201709030700 METAR MRPV NIL=
201709030800 METAR MRPV NIL=
201709030900 METAR MRPV NIL=
201709031000 METAR MRPV NIL=
201709031100 METAR MRPV NIL=
201709031200 METAR MRPV 031200Z 26002KT 9999 SCT030 BKN200 20/17 A3005 NOSIG=
201709031300 METAR MRPV 031300Z 11005KT 9999 FEW035 SCT100 BKN200 22/16 A3007 NOSIG=
201709031400 METAR MRPV 031400Z 12005KT 9999 FEW030 BKN100 24/16 A3009 NOSIG=
201709031500 METAR MRPV 031500Z 07007KT 9999 FEW040 SCT100 BKN200 26/16 A3009 NOSIG=
201709031600 METAR MRPV COR 031600Z 08007KT 9999 FEW040 BKN200 27/17 A3008 NOSIG=
201709031700 METAR MRPV 031700Z 07004KT 9999 SCT040 BKN200 27/16 A3007 BECMG 25005KT=
201709031800 METAR MRPV 031800Z 27008KT 9999 SCT040 BKN200 26/19 A3005 NOSIG=
201709031900 METAR MRPV 031900Z 27008KT 9999 SCT035 BKN200 26/20 A3003 NOSIG=
201709032000 METAR MRPV 032000Z 26006KT 9999 RA FEW015 BKN035 24/20 A3001 NOSIG=
201709032100 METAR MRPV 032100Z 28007KT 2000 BR VCTS BKN005 FEW010CB 22/20 A3001 NOSIG=
201709032200 METAR MRPV 032200Z COR 26004KT 9999 VCFG FEW010 SCT020 BKN100 22/20 A3001 NOSIG=
201709032300 METAR MRPV 032300Z 30005KT 9999 3500 RA BCFG FEW010 SCT035 BKN100 22/20 A3003 NOSIG=
201709040000 METAR MRPV 040000Z 30004KT 3000 BR SCT010 SCT035 21/20 A3006 RERA NOSIG=
201709040100 METAR MRPV NIL=
201709040200 METAR MRPV NIL=
201709040300 METAR MRPV NIL=
201709040400 METAR MRPV NIL=
201709040500 METAR MRPV NIL=
201709040600 METAR MRPV NIL=
201709040700 METAR MRPV NIL=
201709040800 METAR MRPV NIL=
201709040900 METAR MRPV NIL=
201709041000 METAR MRPV NIL=
201709041100 METAR MRPV NIL=
201709041200 METAR MRPV 041200Z 12007KT CAVOK 21/16 A3004 NOSIG=
201709041300 METAR MRPV 041300Z 11007KT CAVOK 22/16 A3005 NOSIG=
201709041400 METAR MRPV 041400Z 09012KT 9999 FEW040 BKN200 24/16 A3007 NOSIG=
201709041500 METAR MRPV 041500Z 08011KT 9999 FEW045 BKN250 26/16 A3007 NOSIG=
201709041600 METAR MRPV 041600Z 06013KT CAVOK 27/16 A3008 NOSIG=
201709041700 METAR MRPV 041700Z 06008KT 9999 FEW045 BKN200 27/16 A3007 NOSIG=
201709041800 METAR MRPV 041800Z 04006KT 9999 SCT045 BKN200 27/16 A3005 BECMG 26008KT=
201709041900 METAR MRPV 041900Z 27009KT 9999 FEW010 SCT040 BKN200 25/20 A3003 NOSIG=
201709042000 METAR MRPV 042000Z 27007KT 9999 FEW010 FEW015TCU BKN200 25/20 A3000 NOSIG=
201709042100 METAR MRPV 042100Z 27009KT 9999 SCT010TCU BKN200 24/20 A3000 TEMPO BKN010=
201709042200 METAR MRPV 042200Z 27008KT 5000 -TSRA BR SCT002 BKN004CB 21/20 A3002 NOSIG=
201709042300 METAR MRPV 042300Z 31004KT 4000 TSRA BR SCT001 BKN004CB 21/20 A3003 NOSIG=
201709050000 METAR MRPV 050000Z 33003KT 4500 BR SCT002 BKN008 21/20 A3003 NOSIG=
201709050100 METAR MRPV NIL=
201709050200 METAR MRPV NIL=
201709050300 METAR MRPV NIL=
201709050400 METAR MRPV NIL=
201709050500 METAR MRPV NIL=
201709050600 METAR MRPV NIL=
201709050700 METAR MRPV NIL=
201709050800 METAR MRPV NIL=
201709050900 METAR MRPV NIL=
201709051000 METAR MRPV NIL=
201709051100 METAR MRPV NIL=
201709051200 METAR MRPV 051200Z 12007KT 9999 BKN035 21/15 A3004 NOSIG=
201709051241 METAR MRPV 051241Z 12004KT 9999 SCT035 SCT200 21/16 A3007 NOSIG=
201709051300 METAR MRPV 051300Z 11006KT 9999 FEW030 SCT160 23/16 A3007 NOSIG=
201709051400 METAR MRPV 051400Z 08004KT 9999 FEW040 BKN200 24/15 A3009 NOSIG=
201709051500 METAR MRPV 051500Z 33002KT 9999 FEW040 BKN200 25/15 A3008 NOSIG=
201709051600 METAR MRPV 051600Z 26005KT 9999 FEW040 BKN200 26/16 A3006 NOSIG=
201709051700 METAR MRPV 051700Z 22003KT 9999 SCT045 BKN200 28/16 A3005 NOSIG=
201709051800 METAR MRPV 051800Z COR 25005KT 250V070 RA 9999 FEW015TCU BKN040 25/19 A3004 NOSIG=
201709051900 METAR MRPV 051900Z 06011KT VCTS 9999 FEW010CB FEW035 SCT060 24/16 A3003 RERA NOSIG=
201709052000 METAR MRPV 052000Z 28005KT 8000 BCFG FEW005 BKN015 21/18 A3004 NOSIG=
201709052100 METAR MRPV 052100Z 26002KT 4000 BR FEW005 SCT020 BKN100 21/17 A3003 NOSIG=
201709052200 METAR MRPV 052200Z 29002KT 6000 BCFG FEW005 BKN100 21/18 A3001 NOSIG=
201709052300 METAR MRPV 052300Z 00000KT 9999 FEW010 BKN100 21/18 A3000 NOSIG=
201709060000 METAR MRPV 060000Z 30004KT 9999 FEW005 BKN100 20/18 A3002 NOSIG=
201709060100 METAR MRPV NIL=
201709060200 METAR MRPV NIL=
201709060300 METAR MRPV NIL=
201709060400 METAR MRPV NIL=
201709060500 METAR MRPV NIL=
201709060600 METAR MRPV NIL=
201709060700 METAR MRPV NIL=
201709060800 METAR MRPV NIL=
201709060900 METAR MRPV NIL=
201709061000 METAR MRPV NIL=
201709061100 METAR MRPV NIL=
201709061200 METAR MRPV 061200Z 11008KT CAVOK 20/15 A3001 NOSIG=
201709061300 METAR MRPV 061300Z 10010KT 9999 FEW040 SCT250 22/15 A3004 NOSIG=
201709061400 METAR MRPV 061400Z 07012KT 9999 FEW040 SCT250 24/16 A3006 NOSIG=
201709061500 METAR MRPV 061500Z 07010KT CAVOK 25/15 A3006 NOSIG=
201709061600 METAR MRPV 061600Z 08009KT CAVOK 27/16 A3005 NOSIG=
201709061700 METAR MRPV 061700Z COR 07005KT CAVOK 28/16 A3003 BECMG 26008KT=
201709061802 METAR MRPV 061802Z 27010KT 9999 SCT035 BKN200 27/19 A3001 NOSIG=
201709061900 METAR MRPV 061900Z 28013KT 9999 FEW020TCU FEW035 BKN250 27/19 A2999 NOSIG=
201709062000 METAR MRPV 062000Z 28012KT 9999 4000NW TSRA SCT015CB FEW030 SCT250 25/20 A2998 NOSIG=
201709062100 METAR MRPV 062100Z 29009KT 3000 TSRA FEW005 FEW012CB BKN012 22/21 A2997 NOSIG=
201709062200 METAR MRPV 062200Z 27005KT 5000 -RA BR BKN004 21/20 A2998 RETSRA NOSIG=
201709062300 METAR MRPV 062300Z 31004KT 5000 -RA BCFG FEW004 BKN014 21/20 A2999 NOSIG=
201709070000 METAR MRPV 070000Z 31002KT 6000 BCFG BKN012 21/20 A3002 NOSIG=
201709070100 METAR MRPV NIL=
201709070200 METAR MRPV NIL=
201709070300 METAR MRPV NIL=
201709070400 METAR MRPV NIL=
201709070500 METAR MRPV NIL=
201709070600 METAR MRPV NIL=
201709070700 METAR MRPV NIL=
201709070800 METAR MRPV NIL=
201709070900 METAR MRPV NIL=
201709071000 METAR MRPV NIL=
201709071100 METAR MRPV NIL=
201709071200 METAR MRPV 071200Z 10003KT 9999 FEW035 BKN100 20/17 A3002 NOSIG=
201709071300 METAR MRPV 071300Z 12007KT 9999 FEW035 BKN300 22/17 A3004 NOSIG=
201709071400 METAR MRPV 071400Z 08014KT CAVOK 24/15 A3005 NOSIG=
201709071500 METAR MRPV 071500Z 08013KT CAVOK 26/15 A3005 NOSIG=
201709071600 METAR MRPV 071600Z 08013KT 9999 FEW045 BKN250 27/15 A3005 NOSIG=
201709071700 METAR MRPV 071700Z 06009KT 9999 SCT045 SCT300 28/16 A3004 NOSIG=
201709071800 METAR MRPV 071800Z 08008KT 9999 FEW045 BKN250 28/16 A3001 NOSIG=
201709071900 METAR MRPV 071900Z 08011KT 9999 FEW040 SCT120 BKN200 29/16 A2997 NOSIG=
201709072000 METAR MRPV COR 072000Z 27010KT 9999 SCT035 BKN120 25/20 A2996 NOSIG=
201709072100 METAR MRPV 072100Z 28008KT 9999 FEW010 SCT035 BKN120 24/20 A2997 NOSIG=
201709072200 METAR MRPV 072200Z 30005KT 9999 FEW010 SCT030 BKN120 24/20 A2996 NOSIG=
201709072300 METAR MRPV 072300Z 08001KT 9999 4000NW BCFG FEW005 BKN120 21/19 A2997 RESHRA NOSIG=
201709080000 METAR MRPV 080000Z 33002KT 5000 BR SCT010 BKN200 22/21 A2999 NOSIG=
201709080100 METAR MRPV NIL=
201709080200 METAR MRPV NIL=
201709080300 METAR MRPV NIL=
201709080400 METAR MRPV NIL=
201709080500 METAR MRPV NIL=
201709080600 METAR MRPV NIL=
201709080700 METAR MRPV NIL=
201709080800 METAR MRPV NIL=
201709080900 METAR MRPV NIL=
201709081000 METAR MRPV NIL=
201709081100 METAR MRPV NIL=
201709081200 METAR MRPV 081200Z 13005KT CAVOK 21/16 A3000 NOSIG=
201709081300 METAR MRPV 081300Z 11008KT CAVOK 21/16 A3000 NOSIG=
201709081400 METAR MRPV 081400Z 09007KT CAVOK 26/15 A3002 NOSIG=
201709081500 METAR MRPV 081500Z 07005KT CAVOK 26/15 A3003 BECMG 28005KT=
201709081600 METAR MRPV 081600Z 27008KT CAVOK 25/18 A3003 NOSIG=
201709081700 METAR MRPV 081700Z 27010KT 9999 FEW035 26/18 A3002 NOSIG=
201709081800 METAR MRPV 081800Z 28009KT 9999 BKN030 25/18 A2999 NOSIG=
201709081900 METAR MRPV 081900Z 28011KT 9999 SCT030 SCT200 25/18 A2997 NOSIG=
201709082000 METAR MRPV 082000Z 26009KT 9999 VCSH FEW020TCU FEW030 BKN120 25/19 A2993 TEMPO SHRA=
201709082100 METAR MRPV 082100Z 29009KT 2000 -TSRA VV/// 22/20 A2995 NOSIG=
201709082200 METAR MRPV 082200Z 17002KT 3500 -DZ BR FEW002 BKN005 20/19 A2997 RETSRA NOSIG=
201709082300 METAR MRPV COR 082300Z 09003KT 1000 +RA BR VV/// 20/19 A2997 NOSIG=
201709090000 METAR MRPV 090000Z 08001KT 8000 RA BCFG VCTS FEW010CB BKN100 20/19 A2998 NOSIG=
201709090100 METAR MRPV NIL=
201709090200 METAR MRPV NIL=
201709090300 METAR MRPV NIL=
201709090400 METAR MRPV NIL=
201709090500 METAR MRPV NIL=
201709090600 METAR MRPV NIL=
201709090700 METAR MRPV NIL=
201709090800 METAR MRPV NIL=
201709090900 METAR MRPV NIL=
201709091000 METAR MRPV NIL=
201709091100 METAR MRPV NIL=
201709091200 METAR MRPV COR 091200Z 08003KT CAVOK 18/16 A3001 NOSIG=
201709091300 METAR MRPV 091300Z 08004KT 9999 FEW025 BKN200 20/16 A3002 NOSIG=
201709091400 METAR MRPV 091400Z 34001KT 9999 FEW030 BKN200 23/16 A3004 NOSIG=
201709091500 METAR MRPV 091500Z 28005KT 9999 FEW030 BKN250 23/16 A3004 NOSIG=
201709091600 METAR MRPV 091600Z 28008KT 9999 FEW035 SCT250 24/17 A3004 NOSIG=
201709091700 METAR MRPV 091700Z 29009KT 9999 FEW035 SCT100 BKN250 24/17 A3002 NOSIG=
201709091800 METAR MRPV 091800Z 27005KT 9999 FEW030 BKN100 25/16 A2999 NOSIG=
201709091900 METAR MRPV 091900Z 25004KT 9999 FEW025 BKN100 25/17 A2996 NOSIG=
201709092000 METAR MRPV 092000Z 27007KT 9999 FEW035 SCT080 BKN200 26/17 A2994 NOSIG=
201709092100 METAR MRPV 092100Z 27008KT 9999 SHRA FEW025TCU FEW035 SCT100 BKN200 24/16 A2993 NOSIG=
201709092136 METAR MRPV 092136Z COR 20004KT 2500 RA FEW010 SCT035 SCT200 23/20 A2993 RESHRA NOSIG=
201709092200 METAR MRPV 092200Z 18002KT 4500 RA FEW015 SCT035 21/20 A2995 NOSIG=
201709092300 METAR MRPV 092300Z 29007KT 2500 -RA BR BKN010 FEW035 21/20 A2997 NOSIG=
201709100000 METAR MRPV 100000Z 29001KT 4000 +RA BR VCTS SCT010 BKN025 20/19 A3001 NOSIG=
201709100100 METAR MRPV NIL=
201709100200 METAR MRPV NIL=
201709100300 METAR MRPV NIL=
201709100400 METAR MRPV NIL=
201709100500 METAR MRPV NIL=
201709100600 METAR MRPV NIL=
201709100700 METAR MRPV NIL=
201709100800 METAR MRPV NIL=
201709100900 METAR MRPV NIL=
201709101000 METAR MRPV NIL=
201709101100 METAR MRPV NIL=
201709101200 METAR MRPV 101200Z 08001KT 9999 BKN020 17/16 A3003 NOSIG=
201709101300 METAR MRPV 101300Z 08003KT 9999 SCT025 BKN200 19/16 A3004 NOSIG=
201709101400 METAR MRPV 101400Z 09003KT 9999 FEW025 SCT100 BKN200 22/15 A3005 NOSIG=
201709101500 METAR MRPV 101500Z 36001KT 9999 FEW030 SCT120 BKN200 24/15 A3005 NOSIG=
201709101600 METAR MRPV 101600Z 28006KT 9999 FEW030 BKN120 24/16 A3005 NOSIG=
201709101700 METAR MRPV 101700Z 26007KT 9999 FEW030 BKN100 24/17 A3004 NOSIG=
201709101800 METAR MRPV 101800Z 27008KT 9999 FEW025 BKN100 24/18 A3001 NOSIG=
201709101900 METAR MRPV 101900Z 28015KT 9999 FEW025 BKN100 23/17 A3000 NOSIG=
201709102000 METAR MRPV 102000Z 29011KT 9999 RA FEW020 SCT030 BKN120 22/17 A2999 NOSIG=
201709102100 METAR MRPV 102100Z 29006KT 8000 -RA FEW010 SCT030 BKN100 22/18 A2998 NOSIG=
201709102126 METAR MRPV 102126Z 27007KT 5000 -RA BCFG FEW005 SCT030 BKN100 20/18 A2999 NOSIG=
201709102200 METAR MRPV 102200Z 34003KT 6000 -RA BCFG FEW005 SCT030 BKN100 20/18 A2999 NOSIG=
201709102300 METAR MRPV 102300Z 31003KT 9999 -RA BCFG SCT010 BKN100 20/18 A3000 NOSIG=
201709110000 METAR MRPV 110000Z 31001KT 9999 -RA BCFG SCT010 BKN100 20/18 A3002 NOSIG=
201709110100 METAR MRPV NIL=
201709110200 METAR MRPV NIL=
201709110300 METAR MRPV NIL=
201709110400 METAR MRPV NIL=
201709110500 METAR MRPV NIL=
201709110600 METAR MRPV NIL=
201709110700 METAR MRPV NIL=
201709110800 METAR MRPV NIL=
201709110900 METAR MRPV NIL=
201709111000 METAR MRPV NIL=
201709111100 METAR MRPV NIL=
201709111200 METAR MRPV 111200Z 08002KT CAVOK 18/18 A3001 NOSIG=
201709111300 METAR MRPV 111300Z 08006KT CAVOK 22/17 A3003 NOSIG=
201709111400 METAR MRPV 111400Z 27004KT 9999 FEW015 SCT140 BKN200 22/17 A3005 NOSIG=
201709111500 METAR MRPV 111500Z 28004KT 9999 FEW020 SCT100 BKN200 23/17 A3006 NOSIG=
201709111600 METAR MRPV 111600Z 28008KT 9999 SCT020 24/18 A3006 NOSIG=
201709111700 METAR MRPV 111700Z 29009KT 9999 SCT035 STC120 25/18 A3005 NOSIG=
201709111800 METAR MRPV 111800Z 28012KT 9999 SCT030 STC080 25/18 A3003 NOSIG=
201709111900 METAR MRPV 111900Z 28013KT 9999 FEW025TCU BKN030 24/18 A3001 NOSIG=
201709112000 METAR MRPV 112000Z 29013KT 9999 FEW0015 BKN030 23/19 A3000 NOSIG=
201709112047 METAR MRPV 112047Z 28011KT 5000 BR BKN004 21/20 A2999 NOSIG=
201709112100 METAR MRPV 112100Z 28011KT 5000 BR BKN004 21/20 A2999 NOSIG=
201709112200 METAR MRPV 112200Z 27010KT 3000 BR BKN003 20/19 A3001 NOSIG=
201709112300 METAR MRPV 112300Z 30005KT 2000 BR BKN002 19/19 A3002 NOSIG=
201709120000 METAR MRPV 120000Z 28005KT 2000 BR BKN004 19/19 A3004 NOSIG=
201709120100 METAR MRPV NIL=
201709120200 METAR MRPV NIL=
201709120300 METAR MRPV NIL=
201709120400 METAR MRPV NIL=
201709120500 METAR MRPV NIL=
201709120600 METAR MRPV NIL=
201709120700 METAR MRPV NIL=
201709120800 METAR MRPV NIL=
201709120900 METAR MRPV NIL=
201709121000 METAR MRPV NIL=
201709121100 METAR MRPV NIL=
201709121200 METAR MRPV 121200Z 09003KT CAVOK 18/17 A3004 NOSIG=
201709121300 METAR MRPV 121300Z 12001KT 9999 FEW040 SCT120 20/18 A3006 NOSIG=
201709121400 METAR MRPV 121400Z 31001KT 9999 BCFG FEW020 BKN250 23/17 A3007 NOSIG=
201709121500 METAR MRPV 121500Z 28009KT 9999 FEW025 SCT250 22/17 A3008 NOSIG=
201709121600 METAR MRPV 121600Z 28007KT 9999 FEW030 BKN250 24/18 A3007 NOSIG=
201709121700 METAR MRPV 121700Z 28008KT 9999 FEW035 BKN200 25/18 A3005 NOSIG=
201709121800 METAR MRPV 121800Z 27009KT 9999 SCT035 BKN200 25/19 A3003 NOSIG=
201709121900 METAR MRPV 121900Z 27011KT 9999 FEW030 BKN250 26/18 A3001 NOSIG=
201709122000 METAR MRPV 122000Z 27008KT 9999 -TSRA FEW015CB SCT020 BKN100 23/20 A3000 NOSIG=
201709122100 METAR MRPV 122100Z 28010KT 9999 FEW005 SCT020 BKN100 22/20 A2999 NOSIG=
201709122200 METAR MRPV 122200Z 28008KT 9999 BKN010 21/19 A3000 NOSIG=
201709122300 METAR MRPV 122300Z 28004KT 5000 BR BKN004 21/19 A3002 NOSIG=
201709130000 METAR MRPV 130000Z 26003KT 8000 BKN008 21/19 A3003 NOSIG=
201709130100 METAR MRPV NIL=
201709130200 METAR MRPV NIL=
201709130300 METAR MRPV NIL=
201709130400 METAR MRPV NIL=
201709130500 METAR MRPV NIL=
201709130600 METAR MRPV NIL=
201709130700 METAR MRPV NIL=
201709130800 METAR MRPV NIL=
201709130900 METAR MRPV NIL=
201709131000 METAR MRPV NIL=
201709131100 METAR MRPV NIL=
201709131200 METAR MRPV 131200Z 10009KT 9999 FEW035 BKN250 21/15 A3004 NOSIG=
201709131300 METAR MRPV 131300Z 10009KT 9999 FEW035 BKN250 23/15 A3007 NOSIG=
201709131400 METAR MRPV 131400Z 09009KT 9999 FEW035 SCT220 BKN300 24/16 A3006 NOSIG=
201709131500 METAR MRPV 131500Z 07012KT 9999 FEW040 SCT220 BKN300 26/15 A3007 NOSIG=
201709131600 METAR MRPV 131600Z 05009KT 9999 FEW040 BKN250 26/15 A3009 NOSIG=
201709131700 METAR MRPV 131700Z 06008KT 9999 SCT045 BKN250 28/15 A3007 NOSIG=
201709131800 METAR MRPV 131800Z 08010KT 9999 SCT040 BKN250 28/16 A3005 NOSIG=
201709131900 METAR MRPV 131900Z 07010KT 9999 SCT040 BKN250 29/16 A3002 NOSIG=
201709132000 METAR MRPV 132000Z 08010KT 9999 SCT040 BKN200 28/16 A3000 NOSIG=
201709132100 METAR MRPV 132100Z 27008KT 9999 SCT040 BKN200 26/20 A3000 NOSIG=
201709132200 METAR MRPV 132200Z 28010KT 9999 SCT040 BKN200 25/19 A3001 NOSIG=
201709132300 METAR MRPV 132300Z 29007KT 9999 FEW030 BKN200 23/19 A3001 NOSIG=
201709140000 METAR MRPV 140000Z 28006KT 8000 VCFG FEW007 BKN015 22/20 A3006 NOSIG=
201709140100 METAR MRPV NIL=
201709140200 METAR MRPV NIL=
201709140300 METAR MRPV NIL=
201709140400 METAR MRPV NIL=
201709140500 METAR MRPV NIL=
201709140600 METAR MRPV NIL=
201709140700 METAR MRPV NIL=
201709140800 METAR MRPV NIL=
201709140900 METAR MRPV NIL=
201709141000 METAR MRPV NIL=
201709141100 METAR MRPV NIL=
201709141200 METAR MRPV 141200Z 10010KT CAVOK 22/15 A3006 NOSIG=
201709141300 METAR MRPV 141300Z 11006KT CAVOK 22/15 A3008 NOSIG=
201709141400 METAR MRPV 141400Z 12005KT CAVOK 23/16 A3009 NOSIG=
201709141500 METAR MRPV 141500Z 11005KT 9999 FEW035 SCT120 BKN200 25/15 A3010 BECMG 29005KT=
201709141600 METAR MRPV 141600Z 30005KT 9999 FEW040 BKN200 25/18 A3010 NOSIG=
201709141700 METAR MRPV 141700Z 29006KT 9999 FEW040 BKN200 26/18 A3007 NOSIG=
201709141800 METAR MRPV 141800Z 29008KT 9999 -RA SCT030 BKN200 26/19 A3004 NOSIG=
201709141900 METAR MRPV 141900Z 03002KT 9999 -DZ VCTS SCT025CB BKN100 23/19 A3001 RERA NOSIG=
201709142000 METAR MRPV 142000Z 27006KT 9999 SCT010 BKN100 23/20 A2998 BECMG BKN010=
201709142100 METAR MRPV 142100Z 21002KT 2500 +RA VV/// 21/20 A3000 NOSIG=
201709142200 METAR MRPV 142200Z 27001KT 5000 RA BR FEW002 SCT005CB BKN025 20/19 A3003 RETSRA BECMG BKN005=
201709142300 METAR MRPV 142300Z 29007KT 0500 -DZ FG BKN001 SCT010 19/19 A3004 RERA NOSIG=
201709150000 METAR MRPV 150000Z 18001KT 8000 BCFG FEW005 BKN080 19/19 A3006 NOSIG=
201709150100 METAR MRPV NIL=
201709150200 METAR MRPV NIL=
201709150300 METAR MRPV NIL=
201709150400 METAR MRPV NIL=
201709150500 METAR MRPV NIL=
201709150600 METAR MRPV NIL=
201709150700 METAR MRPV NIL=
201709150800 METAR MRPV NIL=
201709150900 METAR MRPV NIL=
201709151000 METAR MRPV NIL=
201709151100 METAR MRPV NIL=
201709151200 METAR MRPV 151200Z 11006KT CAVOK 20/16 A3003 NOSIG=
201709151300 METAR MRPV 151300Z 10007KT CAVOK 21/16 A3006 NOSIG=
201709151400 METAR MRPV 151400Z 11008KT CAVOK 23/16 A3006 NOSIG=
201709151500 METAR MRPV 151500Z 10009KT CAVOK 25/17 A3006 NOSIG=
201709151600 METAR MRPV 151600Z 08012KT CAVOK 26/17 A3006 NOSIG=
201709151700 METAR MRPV 151700Z 07003KT 9999 FEW045 SCT100 BKN200 27/16 A3005 NOSIG=
201709151800 METAR MRPV 151800Z 27007KT 9999 -RA SCT035 BKN100 24/19 A3003 NOSIG=
201709151900 METAR MRPV 151900Z 29009KT 9999 -RA VCSH FEW020TCU FEW035 BKN100 24/18 A3001 NOSIG=
201709152000 METAR MRPV 152000Z 29006KT 9999 -RA BCFG FEW010 FEW015TCU SCT035 23/20 A3000 NOSIG=
201709152100 METAR MRPV 152100Z 27008KT 9999 4000S BCFG FEW010 SCT030 BKN070 23/20 A2999 NOSIG=
201709152200 METAR MRPV 152200Z 25003KT 9999 FEW010 SCT035 BKN080 23/20 A2998 NOSIG=
201709152300 METAR MRPV 152300Z 25002KT 9999 FEW015 SCT040 BKN160 23/20 A2999 NOSIG=
201709160000 METAR MRPV 160000Z 11001KT 9999 FEW020 SCT035 BKN200 22/19 A3001 NOSIG=
201709160100 METAR MRPV NIL=
201709160200 METAR MRPV NIL=
201709160300 METAR MRPV NIL=
201709160400 METAR MRPV NIL=
201709160500 METAR MRPV NIL=
201709160600 METAR MRPV NIL=
201709160700 METAR MRPV NIL=
201709160800 METAR MRPV NIL=
201709160900 METAR MRPV NIL=
201709161000 METAR MRPV NIL=
201709161100 METAR MRPV NIL=
201709161200 METAR MRPV 161200Z 11007KT CAVOK 19/14 A3001 NOSIG=
201709161300 METAR MRPV 161300Z 14005KT CAVOK 22/14 A3002 NOSIG=
201709161400 METAR MRPV 161400Z 09012KT CAVOK 24/16 A3005 NOSIG=
201709161500 METAR MRPV 161500Z 08011KT CAVOK 25/15 A3006 NOSIG=
201709161600 METAR MRPV 161600Z 08011KT 9999 FEW045 BKN200 27/16 A3004 NOSIG=
201709161700 METAR MRPV 161700Z 09008KT 9999 FEW045 SCT100 BKN200 28/16 A3002 NOSIG=
201709161800 METAR MRPV 161800Z 27009KT 9999 SCT040 SCT080 26/19 A3000 NOSIG=
201709161900 METAR MRPV 161900Z COR 27008KT 9999 -SHRA FEW020TCU SCT035 SCT080 25/19 A2996 NOSIG=
201709162000 METAR MRPV 162000Z 23006KT 9999 2000S -TSRA FEW010CB BKN030 19/18 A2997 NOSIG=
201709162100 METAR MRPV 162100Z 30002KT 9999 -RA BCFG FEW010 SCT025 BKN100 21/19 A2996 RETSRA NOSIG=
201709162200 METAR MRPV 162200Z 27007KT 2000 -RA BR BKN010 FEW030 20/19 A2997 NOSIG=
201709162300 METAR MRPV 162300Z 31002KT 2000 BR BKN010 SCT030 20/19 A2999 RERA NOSIG=
201709170000 METAR MRPV 170000Z 28003KT 5000 +RA BR FEW005 SCT020 BKN080 20/19 A3003 NOSIG=
201709170100 METAR MRPV NIL=
201709170200 METAR MRPV NIL=
201709170300 METAR MRPV NIL=
201709170400 METAR MRPV NIL=
201709170500 METAR MRPV NIL=
201709170600 METAR MRPV NIL=
201709170700 METAR MRPV NIL=
201709170800 METAR MRPV NIL=
201709170900 METAR MRPV NIL=
201709171000 METAR MRPV NIL=
201709171100 METAR MRPV NIL=
201709171200 METAR MRPV 171200Z 12003KT CAVOK 17/17 A3001 NOSIG=
201709171300 METAR MRPV 171300Z COR VRB02KT CAVOK 20/17 A3004 NOSIG=
201709171400 METAR MRPV 171400Z 14002KT 9999 FEW040 SCT200 24/17 A3005 NOSIG=
201709171500 METAR MRPV 171500Z 29002KT 9999 FEW040 SCT140 26/16 A3005 NOSIG=
201709171600 METAR MRPV 171600Z 25007KT 9999 FEW045 SCT100 BKN200 25/17 A3005 NOSIG=
201709171700 METAR MRPV 171700Z 26010KT 9999 FEW040 BKN120 24/18 A3004 NOSIG=
201709171800 METAR MRPV 171800Z 29012KT 9999 VCSH FEW020TCU BKN035 26/18 A3001 NOSIG=
201709171900 METAR MRPV 171900Z 27010KT 9999 RA BKN030 23/19 A2999 NOSIG=
201709172000 METAR MRPV 172000Z 31003KT 9999 -RA FEW005 BKN100 21/19 A2998 NOSIG=
201709172100 METAR MRPV 172100Z 30006KT 9999 FEW005 SCT030 BKN100 22/20 A2997 NOSIG=
201709172200 METAR MRPV 172200Z 30005KT 3000 RA BR BKN015 21/20 A2998 NOSIG=
201709172300 METAR MRPV 172300Z 36003KT 3000 RA BR BKN005 20/19 A3001 NOSIG=
201709180000 METAR MRPV 180000Z 03004KT 5000 RA BCFG SCT005 BKN100 19/18 A3003 NOSIG=
201709180100 METAR MRPV NIL=
201709180200 METAR MRPV NIL=
201709180300 METAR MRPV NIL=
201709180400 METAR MRPV NIL=
201709180500 METAR MRPV NIL=
201709180600 METAR MRPV NIL=
201709180700 METAR MRPV NIL=
201709180800 METAR MRPV NIL=
201709180900 METAR MRPV NIL=
201709181000 METAR MRPV NIL=
201709181100 METAR MRPV NIL=
201709181200 METAR MRPV 181200Z 13002KT CAVOK 18/17 A3001 NOSIG=
201709181300 METAR MRPV 181300Z 08006KT CAVOK 19/17 A3003 NOSIG=
201709181400 METAR MRPV 181400Z VRB02KT CAVOK 21/16 A3005 NOSIG=
201709181500 METAR MRPV 181500Z 28008KT 9999 BCFG FEW010 SCT035 BKN180 21/18 A3008 NOSIG=
201709181600 METAR MRPV 181600Z 29005KT 9999 BCFG FEW010 SCT040 BKN140 22/17 A3009 NOSIG=
201709181700 METAR MRPV 181700Z 29005KT 9999 FEW040 BKN140 23/16 A3007 NOSIG=
201709181800 METAR MRPV 181800Z 05001KT 9999 FEW025 BKN140 25/16 A3004 NOSIG=
201709181900 METAR MRPV 181900Z 03002KT 9999 FEW030 SCT100 BKN140 26/16 A2999 NOSIG=
201709182000 METAR MRPV 182000Z 34003KT 9999 FEW030 SCT100 BKN140 27/16 A2996 NOSIG=
201709182100 METAR MRPV 182100Z 26008KT 9999 FEW002 BKN100 24/20 A2995 NOSIG=
201709182200 METAR MRPV 182200Z 30008KT 9999 SCT002 BKN015 23/20 A2996 NOSIG=
201709182300 METAR MRPV 182300Z 29009KT 9999 FEW005 BKN010 21/20 A2999 NOSIG=
201709190000 METAR MRPV 190000Z 27006KT 9999 BKN004 20/20 A3002 NOSIG=
201709190100 METAR MRPV NIL=
201709190200 METAR MRPV NIL=
201709190300 METAR MRPV NIL=
201709190400 METAR MRPV NIL=
201709190500 METAR MRPV NIL=
201709190600 METAR MRPV NIL=
201709190700 METAR MRPV NIL=
201709190800 METAR MRPV NIL=
201709190900 METAR MRPV NIL=
201709191000 METAR MRPV NIL=
201709191100 METAR MRPV NIL=
201709191200 METAR MRPV 191200Z 00000KT 9999 VCFG NSC 19/18 A3004 NOSIG=
201709191300 METAR MRPV 191300Z 07003KT CAVOK 21/18 A3005 NOSIG=
201709191400 METAR MRPV 191400Z 33001KT 9999 FEW030 BKN250 24/18 A3007 NOSIG=
201709191500 METAR MRPV 191500Z 02002KT 9999 FEW035 BKN250 26/16 A3008 NOSIG=
201709191600 METAR MRPV 191600Z 28007KT 9999 FEW040 BKN250 26/16 A3008 NOSIG=
201709191700 METAR MRPV 191700Z 27007KT 9999 FEW040 BKN250 27/17 A3006 NOSIG=
201709191800 METAR MRPV 191800Z 24006KT 9999 VCSH FEW025TCU SCT040 BKN200 26/18 A3003 NOSIG=
201709191900 METAR MRPV 191900Z 26008KT 9999 FEW020TCU FEW025 BKN200 25/19 A3000 NOSIG=
201709192000 METAR MRPV 192000Z 29005KT 9999 4000S RA FEW020TCU BKN025 23/19 A2999 NOSIG=
201709192100 METAR MRPV 192100Z 29009KT 4000 RA BR BKN012 22/20 A2998 NOSIG=
201709192200 METAR MRPV 192200Z 28009KT 3000 RA BR BKN002 21/20 A3001 NOSIG=
201709192300 METAR MRPV 192300Z VRB02KT 4000 RA BR FEW002 SCT090 BKN100 20/19 A3003 NOSIG=
201709200000 METAR MRPV 200000Z 31001KT 8000 RA VCFG SCT010 BKN100 19/18 A3007 NOSIG=
201709200100 METAR MRPV NIL=
201709200200 METAR MRPV NIL=
201709200300 METAR MRPV NIL=
201709200400 METAR MRPV NIL=
201709200500 METAR MRPV NIL=
201709200600 METAR MRPV NIL=
201709200700 METAR MRPV NIL=
201709200800 METAR MRPV NIL=
201709200900 METAR MRPV NIL=
201709201000 METAR MRPV NIL=
201709201100 METAR MRPV NIL=
201709201200 METAR MRPV 201200Z 35002KT CAVOK 18/17 A3005 NOSIG=
201709201300 METAR MRPV 201300Z 14001KT 9999 FEW020 BKN100 19/17 A3006 NOSIG=
201709201400 METAR MRPV 201400Z 12003KT CAVOK 22/16 A3006 NOSIG=
201709201500 METAR MRPV 201500Z 12003KT CAVOK 24/15 A3007 NOSIG=
201709201600 METAR MRPV 201600Z 28008KT CAVOK 25/17 A3008 NOSIG=
201709201700 METAR MRPV 201700Z 28009KT 9999 FEW035 BKN250 25/17 A3005 NOSIG=
201709201800 METAR MRPV 201800Z 28012KT 9999 FEW040 BKN250 29/19 A3003 NOSIG=
201709201900 METAR MRPV 201900Z 28013KT 9999 SCT030 BKN200 25/19 A3001 NOSIG=
201709202000 METAR MRPV 202000Z 29010KT 9999 SCT030 BKN100 25/19 A2998 NOSIG=
201709202100 METAR MRPV 202100Z 28010KT 9999 VCSH FEW025TCU SCT030 BKN200 25/19 A2997 NOSIG=
201709202200 METAR MRPV 202200Z 28008KT 9999 FEW015 FEW025TCU BKN200 23/19 A2997 NOSIG=
201709202300 METAR MRPV 202300Z 31005KT 8000 RA BCFG FEW002 BKN010 22/19 A2999 NOSIG=
201709210000 METAR MRPV 210000Z 33002KT 8000 BCFG VCTS BKN010CB 21/20 A3001 NOSIG=
201709210100 METAR MRPV NIL=
201709210200 METAR MRPV NIL=
201709210300 METAR MRPV NIL=
201709210400 METAR MRPV NIL=
201709210500 METAR MRPV NIL=
201709210600 METAR MRPV NIL=
201709210700 METAR MRPV NIL=
201709210800 METAR MRPV NIL=
201709210900 METAR MRPV NIL=
201709211000 METAR MRPV NIL=
201709211100 METAR MRPV NIL=
201709211200 METAR MRPV 211200Z 12005KT CAVOK 21/17 A3001 NOSIG=
201709211300 METAR MRPV 211300Z 11006KT CAVOK 21/17 A3002 NOSIG=
201709211400 METAR MRPV 211400Z 13006KT 9999 FEW030 23/17 A3004 NOSIG=
201709211500 METAR MRPV 211500Z 13005KT 9999 FEW035 SCT250 25/17 A3004 NOSIG=
201709211600 METAR MRPV 211600Z 08005KT 9999 FEW040 SCT250 27/16 A3003 NOSIG=
201709211700 METAR MRPV 211700Z 29008KT 100V300 9999 SCT040 SCT090 27/19 A3001 NOSIG=
201709211800 METAR MRPV 211800Z 28010KT 9999 FEW040 BKN200 25/18 A2999 NOSIG=
201709211900 METAR MRPV 211900Z 28012KT 9999 SCT025 BKN200 26/19 A2997 NOSIG=
201709212000 METAR MRPV 212000Z 27009KT 9999 VCTS VCSH FEW020CB FEW035 BKN200 25/18 A2995 BECMG SHRA=
201709212100 METAR MRPV 212100Z 27009KT 9999 FEW020 SCT040 BKN100 25/19 A2993 NOSIG=
201709212200 METAR MRPV 212200Z 24002KT 9999 -DZ VCFG FEW008 SCT020 BKN100 24/18 A2994 NOSIG=
201709212300 METAR MRPV NIL=
201709220000 METAR MRPV 220000Z 32004KT 8000 BCFG FEW005 BKN014 21/19 A2998 NOSIG=
201709220100 METAR MRPV NIL=
201709220200 METAR MRPV NIL=
201709220300 METAR MRPV NIL=
201709220400 METAR MRPV NIL=
201709220500 METAR MRPV NIL=
201709220600 METAR MRPV NIL=
201709220700 METAR MRPV NIL=
201709220800 METAR MRPV NIL=
201709220900 METAR MRPV NIL=
201709221000 METAR MRPV NIL=
201709221100 METAR MRPV NIL=
201709221200 METAR MRPV 221200Z 12001KT 9999 SCT035 19/18 A2999 NOSIG=
201709221300 METAR MRPV 221300Z 17001KT 9999 FEW035 SCT120 21/20 A3001 NOSIG=
201709221400 METAR MRPV 221400Z 11002KT CAVOK 24/17 A3001 NOSIG=
201709221500 METAR MRPV 221500Z 26007KT 9999 FEW035 24/18 A3001 NOSIG=
201709221600 METAR MRPV 221600Z 28009KT 9999 FEW030 25/18 A3001 NOSIG=
201709221700 METAR MRPV 221700Z 27010KT 9999 FEW035 BKN100 26/19 A3000 NOSIG=
201709221800 METAR MRPV 221800Z 28009KT 9999 FEW025TCU SCT035 BKN100 26/18 A2998 NOSIG=
201709221900 METAR MRPV 221900Z 27008KT 9999 VCSH FEW020TCU SCT035 26/18 A2995 NOSIG=
201709222000 METAR MRPV 222000Z COR 25007KT 9999 4500SE SHRA FEW020TCU BKN030 25/19 A2992 NOSIG=
201709222100 METAR MRPV 222100Z COR 10005KT 5000 +RA VCTS FEW015CB SCT025 BKN100 20/19 A2992 RESHRA NOSIG=
201709222200 METAR MRPV 222200Z 10004KT 9999 -RA BCFG FEW010 SCT035 BKN100 21/19 A2992 NOSIG=
201709222300 METAR MRPV 222300Z VRB02KT 9999 BCFG FEW010 SCT040 BKN100 21/19 A2994 NOSIG=
201709230000 METAR MRPV 230000Z 32002KT 5000 2000W RA BCFG SCT010 SCT040 21/20 A2996 NOSIG=
201709230100 METAR MRPV NIL=
201709230200 METAR MRPV NIL=
201709230300 METAR MRPV NIL=
201709230400 METAR MRPV NIL=
201709230500 METAR MRPV NIL=
201709230600 METAR MRPV NIL=
201709230700 METAR MRPV NIL=
201709230800 METAR MRPV NIL=
201709230900 METAR MRPV NIL=
201709231000 METAR MRPV NIL=
201709231100 METAR MRPV NIL=
201709231200 METAR MRPV 231200Z 10002KT CAVOK 18/17 A2999 NOSIG=
201709231300 METAR MRPV 231300Z 10005KT 9999 FEW040 SCT120 BKN200 21/16 A3000 NOSIG=
201709231400 METAR MRPV 231400Z 10004KT 9999 FEW040 BKN200 23/16 A3000 NOSIG=
201709231500 METAR MRPV 231500Z 20002KT CAVOK 26/15 A3000 NOSIG=
201709231600 METAR MRPV 231600Z 29007KT 300V220 9999 SCT040 BKN200 26/17 A3002 NOSIG=
201709231700 METAR MRPV 231700Z 27011KT 9999 SCT035 SCT100 25/19 A3001 NOSIG=
201709231800 METAR MRPV 231800Z 29009KT 9999 FEW015TCU FEW035 BKN200 27/19 A2997 NOSIG=
201709231900 METAR MRPV 231900Z 28012KT 9999 VCSH FEW020TCU FEW030 BKN250 26/19 A2995 NOSIG=
201709232000 METAR MRPV 232000Z 28018KT 9999 VCSH FEW020TCU BKN020 23/20 A2993 NOSIG=
201709232100 METAR MRPV 232100Z 28010KT 8000 -RA BCFG BKN005 21/20 A2995 NOSIG=
201709232200 METAR MRPV 232200Z 33005KT 8000 -RA FEW010CB SCT010 SCT060 20/19 A2997 NOSIG=
201709232300 METAR MRPV 232300Z 13002KT 9999 -RA FEW010 SCT100 20/19 A2998 NOSIG=
201709240000 METAR MRPV 240000Z 13002KT 9999 -RA FEW010 BKN100 20/18 A2999 NOSIG=
201709240100 METAR MRPV NIL=
201709240200 METAR MRPV NIL=
201709240300 METAR MRPV NIL=
201709240400 METAR MRPV NIL=
201709240500 METAR MRPV NIL=
201709240600 METAR MRPV NIL=
201709240700 METAR MRPV NIL=
201709240800 METAR MRPV NIL=
201709240900 METAR MRPV NIL=
201709241000 METAR MRPV NIL=
201709241100 METAR MRPV NIL=
201709241200 METAR MRPV 241200Z 12003KT 9999 RA FEW035 BKN200 19/19 A2999 NOSIG=
201709241300 METAR MRPV 241300Z 12003KT 9999 FEW040 BKN200 22/18 A3000 RERA NOSIG=
201709241400 METAR MRPV 241400Z 11007KT CAVOK 25/16 A3002 NOSIG=
201709241500 METAR MRPV 241500Z 07008KT 9999 FEW045 SCT100 BKN200 26/16 A3003 NOSIG=
201709241600 METAR MRPV 241600Z COR 29009KT 9999 FEW025 SCT120 BKN250 25/19 A3004 NOSIG=
201709241700 METAR MRPV 241700Z COR 28015KT 9999 SCT020 SCT060 25/20 A3002 NOSIG=
201709241800 METAR MRPV 241800Z 28013KT 9999 FEW015 BKN025 24/20 A2999 NOSIG=
201709241900 METAR MRPV 241900Z 28010KT 9999 SCT010 SCT100 23/19 A2996 NOSIG=
201709242000 METAR MRPV 242000Z 25003KT 3000 TSRA BR FEW015CB BKN015 21/19 A2998 NOSIG=
201709242100 METAR MRPV 242100Z 01002KT 4000 SCT010 BKN100 20/19 A2998 RETSRA NOSIG=
201709242200 METAR MRPV 242200Z 03002KT 8000 -RA SCT010 BKN100 20/19 A2999 NOSIG=
201709242300 METAR MRPV 242300Z 14001KT 9999 -RA FEW010 BKN100 20/19 A3000 NOSIG=
201709250000 METAR MRPV 250000Z 11001KT 9999 -RA FEW010 BKN100 20/19 A3002 NOSIG=
201709250100 METAR MRPV NIL=
201709250200 METAR MRPV NIL=
201709250300 METAR MRPV NIL=
201709250400 METAR MRPV NIL=
201709250500 METAR MRPV NIL=
201709250600 METAR MRPV NIL=
201709250700 METAR MRPV NIL=
201709250800 METAR MRPV NIL=
201709250900 METAR MRPV NIL=
201709251000 METAR MRPV NIL=
201709251100 METAR MRPV NIL=
201709251200 METAR MRPV 251200Z 16001KT CAVOK 18/16 A3000 NOSIG=
201709251300 METAR MRPV 251300Z 07001KT CAVOK 20/16 A3001 NOSIG=
201709251400 METAR MRPV 251400Z 06002KT CAVOK 24/16 A3001 NOSIG=
201709251500 METAR MRPV 251500Z 13002KT CAVOK 27/15 A3002 NOSIG=
201709251600 METAR MRPV 251600Z 27008KT CAVOK 25/18 A3003 NOSIG=
201709251700 METAR MRPV 251700Z 27008KT 9999 FEW035 BKN200 26/18 A3001 NOSIG=
201709251800 METAR MRPV 251800Z 27009KT 9999 SHRA FEW020TCU SCT030 BKN200 25/19 A2999 NOSIG=
201709251900 METAR MRPV 251900Z 17003KT 9999 4500SW -TSRA SCT020CB BKN100 20/18 A2998 NOSIG=
201709252000 METAR MRPV 252000Z 00000KT 9999 4500SW -DZ BCFG SCT008 BKN040 22/19 A2996 RETSRA BECMG BKN008=
201709252100 METAR MRPV 252100Z 25002KT 9999 FEW015 SCT120 BKN200 22/20 A2994 NOSIG=
201709252200 METAR MRPV 252200Z 28005KT 9999 FEW015 BKN120 22/18 A2994 NOSIG=
201709252300 METAR MRPV 252300Z 29008KT 8000 VCFG BKN007 21/19 A2997 NOSIG=
201709260000 METAR MRPV 260000Z 28006KT 5000 BR BKN005 20/19 A3000 NOSIG=
201709260100 METAR MRPV NIL=
201709260200 METAR MRPV NIL=
201709260300 METAR MRPV NIL=
201709260400 METAR MRPV NIL=
201709260500 METAR MRPV NIL=
201709260600 METAR MRPV NIL=
201709260700 METAR MRPV NIL=
201709260800 METAR MRPV NIL=
201709260900 METAR MRPV NIL=
201709261000 METAR MRPV NIL=
201709261100 METAR MRPV NIL=
201709261200 METAR MRPV 261200Z 09003KT CAVOK 19/19 A2997 NOSIG=
201709261300 METAR MRPV 261300Z 10005KT CAVOK 22/19 A2999 NOSIG=
201709261400 METAR MRPV 261400Z 08003KT CAVOK 25/17 A3000 NOSIG=
201709261500 METAR MRPV 261500Z 05002KT 9999 FEW040 BKN200 27/16 A3000 NOSIG=
201709261600 METAR MRPV COR 261600Z 07003KT 9999 FEW040 BKN200 27/16 A3001 BECMG 27005KT=
201709261700 METAR MRPV 261700Z 28012KT 9999 FEW025TCU FEW040 BKN200 26/18 A2999 NOSIG=
201709261800 METAR MRPV 261800Z 29011KT 9999 SHRA SCT020TCU FEW040 BKN100 24/18 A2998 TEMPO 5000=
201709261900 METAR MRPV 261900Z 26003KT 9999 RA VCTS SCT020CB BKN100 22/18 A2998 RESHRA NOSIG=
201709262000 METAR MRPV 262000Z 05001KT 6000 RA FEW010 SCT015 BKN100 22/19 A2996 NOSIG=
201709262100 METAR MRPV 262100Z 30007KT 5000 RA BR BKN014 21/20 A2995 NOSIG=
201709262200 METAR MRPV 262200Z 36005KT 3000 RA BR BKN004 20/19 A2996 NOSIG=
201709262300 METAR MRPV 262300Z 26001KT 5000 RA BR BKN010 20/19 A2998 NOSIG=
201709270000 METAR MRPV 270000Z 00000KT 9999 -RA FEW008 BKN100 20/19 A2999 NOSIG=
201709270100 METAR MRPV NIL=
201709270200 METAR MRPV NIL=
201709270300 METAR MRPV NIL=
201709270400 METAR MRPV NIL=
201709270500 METAR MRPV NIL=
201709270600 METAR MRPV NIL=
201709270700 METAR MRPV NIL=
201709270800 METAR MRPV NIL=
201709270900 METAR MRPV NIL=
201709271000 METAR MRPV NIL=
201709271100 METAR MRPV NIL=
201709271200 METAR MRPV 271200Z 00000KT CAVOK 17/17 A2999 NOSIG=
201709271300 METAR MRPV 271300Z 09002KT CAVOK 19/18 A3000 NOSIG=
201709271400 METAR MRPV 271400Z 28001KT CAVOK 22/17 A3002 NOSIG=
201709271500 METAR MRPV 271500Z 30006KT 9999 FEW030 SCT120 BKN200 22/18 A3004 NOSIG=
201709271600 METAR MRPV 271600Z 30007KT 9999 FEW025 SCT120 24/17 A3002 NOSIG=
201709271700 METAR MRPV 271700Z 26003KT 9999 FEW025 SCT120 25/17 A3000 NOSIG=
201709271800 METAR MRPV 271800Z 28005KT 9999 FEW035 SCT120 26/18 A2997 NOSIG=
201709271900 METAR MRPV 271900Z COR 28007KT 9999 VCTS FEW015CB FEW035 SCT200 27/18 A2993 NOSIG=
201709272000 METAR MRPV 272000Z 28011KT 9999 SHRA FEW015TCU SCT035 26/19 A2992 NOSIG=
201709272100 METAR MRPV 272100Z 23004KT 9999 +RA VCTS FEW015CB BKN035 23/19 A2993 NOSIG=
201709272200 METAR MRPV 272200Z 04003KT 010V120 9999 -RA FEW020 SCT035 BKN100 20/17 A2995 NOSIG=
201709272300 METAR MRPV 272300Z COR 14001KT 5000 -RA BR VCTS SCT005 BKN060 20/19 A2996 NOSIG=
201709280000 METAR MRPV 280000Z VRB02KT 5000 +RA BR SCT010 BKN045 20/20 A3000 NOSIG=
201709280100 METAR MRPV NIL=
201709280200 METAR MRPV NIL=
201709280300 METAR MRPV NIL=
201709280400 METAR MRPV NIL=
201709280500 METAR MRPV NIL=
201709280600 METAR MRPV NIL=
201709280700 METAR MRPV NIL=
201709280800 METAR MRPV NIL=
201709280900 METAR MRPV NIL=
201709281000 METAR MRPV NIL=
201709281100 METAR MRPV NIL=
201709281200 METAR MRPV 281200Z 00000KT CAVOK 18/17 A2999 NOSIG=
201709281300 METAR MRPV 281300Z 00000KT CAVOK 20/18 A3001 NOSIG=
201709281400 METAR MRPV 281400Z 32001KT CAVOK 22/17 A3002 NOSIG=
201709281500 METAR MRPV 281500Z 26004KT 9999 FEW035 BKN200 23/18 A3003 NOSIG=
201709281600 METAR MRPV 281600Z 29005KT 9999 FEW035 BKN200 25/17 A3002 NOSIG=
201709281700 METAR MRPV 281700Z 28006KT 9999 FEW030 BKN200 26/17 A2999 NOSIG=
201709281800 METAR MRPV 281800Z 26008KT 9999 FEW035 BKN200 26/19 A2996 NOSIG=
201709281900 METAR MRPV 281900Z 27011KT 9999 VCTS VCSH FEW025CB FEW035 SCT200 26/19 A2992 TEMPO SHRA=
201709282000 METAR MRPV 282000Z 28010KT 9999 VCSH FEW020TCU SCT035 BKN100 24/20 A2990 RESHRA NOSIG=
201709282100 METAR MRPV 282100Z 28006KT 9999 DZ VCTS FEW004 SCT020CB BKN100 23/19 A2992 NOSIG=
201709282200 METAR MRPV 282200Z 11005KT 9000 4000E RA BCFG FEW004 SCT010 BKN090 20/19 A2994 NOSIG=
201709282300 METAR MRPV 282300Z 10002KT 5000 -RA BR VCTS FEW008 SCT020CB BKN100 20/19 A2996 NOSIG=
201709290000 METAR MRPV 290000Z VRB01KT 9999 -RA FEW010 SCT020 BKN100 20/19 A2998 NOSIG=
201709290100 METAR MRPV NIL=
201709290200 METAR MRPV NIL=
201709290300 METAR MRPV NIL=
201709290400 METAR MRPV NIL=
201709290500 METAR MRPV NIL=
201709290600 METAR MRPV NIL=
201709290700 METAR MRPV NIL=
201709290800 METAR MRPV NIL=
201709290900 METAR MRPV NIL=
201709291000 METAR MRPV NIL=
201709291100 METAR MRPV NIL=
201709291200 METAR MRPV 291200Z 07002KT CAVOK 18/17 A2998 NOSIG=
201709291300 METAR MRPV 291300Z 11005KT CAVOK 22/17 A3000 NOSIG=
201709291400 METAR MRPV 291400Z 28007KT 9999 FEW040 OVC200 22/17 A3004 NOSIG=
201709291500 METAR MRPV 291500Z COR 32006KT 9999 SCT030 BKN200 23/18 A3004 NOSIG=
201709291600 METAR MRPV 291600Z 30007KT 9999 SCT030 BKN200 24/19 A3003 NOSIG=
201709291700 METAR MRPV 291700Z 28009KT 9999 SCT030 BKN200 24/18 A3001 NOSIG=
201709291800 METAR MRPV 291800Z 27007KT 9999 SCT030 BKN200 25/18 A2998 NOSIG=
201709291900 METAR MRPV 291900Z 06008KT 9999 SHRA FEW020TCU FEW030 BKN200 26/18 A2994 NOSIG=
201709292000 METAR MRPV 292000Z 27008KT 9999 -RA FEW020 SCT030 BKN200 27/19 A2992 NOSIG=
201709292100 METAR MRPV 292100Z 27009KT 9999 FEW035 BKN200 24/18 A2991 NOSIG=
201709292200 METAR MRPV 292200Z 29013KT 8000 RA FEW030 BKN140 22/19 A2993 NOSIG=
201709292300 METAR MRPV 292300Z 29010KT 5000 BR BKN015 SCT100 21/20 A2994 BECMG BKN010=
201709300000 METAR MRPV 300000Z 29008KT 5000 RA BR BKN010 20/20 A2999 NOSIG=
201709300100 METAR MRPV NIL=
201709300200 METAR MRPV NIL=
201709300300 METAR MRPV NIL=
201709300400 METAR MRPV NIL=
201709300500 METAR MRPV NIL=
201709300600 METAR MRPV NIL=
201709300700 METAR MRPV NIL=
201709300800 METAR MRPV NIL=
201709300900 METAR MRPV NIL=
201709301000 METAR MRPV NIL=
201709301100 METAR MRPV NIL=
201709301200 METAR MRPV 301200Z 10003KT CAVOK 17/17 A2997 NOSIG=
201709301300 METAR MRPV 301300Z 08006KT CAVOK 20/18 A2998 NOSIG=
201709301400 METAR MRPV 301400Z 13004KT CAVOK 24/17 A3000 NOSIG=
201709301500 METAR MRPV 301500Z 20005KT 9999 FEW045 BKN200 27/15 A3001 NOSIG=
201709301600 METAR MRPV 301600Z 27012KT 9999 FEW045 BKN200 24/18 A3001 NOSIG=
201709301700 METAR MRPV 301700Z 29011KT 9999 SCT035 BKN200 24/19 A3000 NOSIG=
201709301800 METAR MRPV 301800Z 28008KT 9999 SCT025 BKN080 24/18 A2997 NOSIG=
201709301900 METAR MRPV 301900Z 27010KT 9999 FEW030 SCT100 25/19 A2995 NOSIG=
201709302000 METAR MRPV 302000Z 28011KT 9999 SHRA VCTS FEW020CB SCT030 SCT100 26/18 A2992 NOSIG=
201709302100 METAR MRPV 302100Z 31008KT 3000 SHRA SCT015CB BKN100 22/18 A2992 NOSIG=
201709302200 METAR MRPV 302200Z 27004KT 6000 -RA FEW010 BKN100 22/19 A2993 NOSIG=
201709302300 METAR MRPV 302300Z 27008KT 3000 RA BR BKN002 21/20 A2994 NOSIG=
201710010000 METAR MRPV 010000Z 29006KT 5000 -TSRA FEW005CB BKN005 20/19 A2996 RERA NOSIG=
201710010100 METAR MRPV NIL=
201710010200 METAR MRPV NIL=
201710010300 METAR MRPV NIL=
201710010400 METAR MRPV NIL=
201710010500 METAR MRPV NIL=
201710010600 METAR MRPV NIL=
201710010700 METAR MRPV NIL=
201710010800 METAR MRPV NIL=
201710010900 METAR MRPV NIL=
201710011000 METAR MRPV NIL=
201710011100 METAR MRPV NIL=
201710011200 METAR MRPV 011200Z 35001KT 5000 BR FEW010 BKN100 19/18 A2998 NOSIG=
201710011300 METAR MRPV 011300Z 00000KT 5000 BR SCT010 BKN100 19/19 A3000 NOSIG=
201710011400 METAR MRPV 011400Z 00000KT 9999 SCT010 SCT100 21/20 A3001 NOSIG=
201710011500 METAR MRPV 011500Z 28004KT 9999 SCT010 BKN200 22/18 A3002 NOSIG=
201710011600 METAR MRPV 011600Z 30006KT 9999 SCT010 SCT200 22/18 A3002 NOSIG=
201710011700 METAR MRPV 011700Z 30006KT 9999 SCT015 BKN200 23/17 A2999 NOSIG=
201710011800 METAR MRPV 011800Z 29008KT 9999 SCT015 BKN200 25/18 A2996 NOSIG=
201710011900 METAR MRPV 011900Z 28010KT 9999 SCT030 SCT200 25/17 A2992 NOSIG=
201710012000 METAR MRPV 012000Z 27009KT 9999 4000SW BCFG FEW008 SCT025 BKN100 23/19 A2990 TEMPO 5000 RA=
201710012100 METAR MRPV 012100Z 27007KT 9999 VCSH FEW025TCU BKN100 21/19 A2989 NOSIG=
201710012200 METAR MRPV 012200Z 29008KT 9999 -RA BCFG FEW010TCU BKN080 21/19 A2989 NOSIG=
201710012300 METAR MRPV 012300Z 28010KT 9999 FEW010 BKN080 21/19 A2990 NOSIG=
201710020000 METAR MRPV 020000Z 30005KT 8000 VCFG BKN005 SCT100 20/19 A2992 NOSIG=
201710020100 METAR MRPV NIL=
201710020200 METAR MRPV NIL=
201710020300 METAR MRPV NIL=
201710020400 METAR MRPV NIL=
201710020500 METAR MRPV NIL=
201710020600 METAR MRPV NIL=
201710020700 METAR MRPV NIL=
201710020800 METAR MRPV NIL=
201710020900 METAR MRPV NIL=
201710021000 METAR MRPV NIL=
201710021100 METAR MRPV NIL=
201710021200 METAR MRPV 021200Z 12003KT 9999 -RA BCFG FEW015 BKN150 19/18 A2998 NOSIG=
201710021300 METAR MRPV 021300Z 14003KT 9999 VCFG FEW015 BKN150 19/18 A3000 NOSIG=
201710021400 METAR MRPV 021400Z 07003KT 9999 -RA FEW040 BKN150 20/19 A3002 NOSIG=
201710021500 METAR MRPV 021500Z 08001KT 9999 FEW035 SCT150 BKN200 24/17 A3002 BECMG 26006KT=
201710021600 METAR MRPV 021600Z 31003KT 9999 FEW040 SCT150 BKN200 23/16 A3002 NOSIG=
201710021700 METAR MRPV 021700Z 25002KT 9999 FEW040 BKN150 25/16 A3000 NOSIG=
201710021800 METAR MRPV 021800Z 27009KT 9999 FEW040 BKN160 24/16 A2998 NOSIG=
201710021900 METAR MRPV 021900Z 28008KT 9999 SCT040 BKN120 25/17 A2995 NOSIG=
201710022000 METAR MRPV 022000Z 27008KT 9999 FEW030 BKN120 24/18 A2993 NOSIG=
201710022100 METAR MRPV 022100Z 28007KT 9999 FEW020 BKN120 23/18 A2991 NOSIG=
201710022200 METAR MRPV 022200Z 25006KT 9999 SCT015 BKN120 21/18 A2992 BECMG BKN010=
201710022300 METAR MRPV 022300Z 27007KT 8000 VCFG BKN006 21/19 A2995 NOSIG=
201710030000 METAR MRPV 030000Z 25003KT 5000 BR OVC004 20/19 A2997 NOSIG=
201710030100 METAR MRPV NIL=
201710030200 METAR MRPV NIL=
201710030300 METAR MRPV NIL=
201710030400 METAR MRPV NIL=
201710030500 METAR MRPV NIL=
201710030600 METAR MRPV NIL=
201710030700 METAR MRPV NIL=
201710030800 METAR MRPV NIL=
201710030900 METAR MRPV NIL=
201710031000 METAR MRPV NIL=
201710031100 METAR MRPV NIL=
201710031200 METAR MRPV 031200Z 12001KT 9999 BCFG NSC 19/19 A2999 NOSIG=
201710031300 METAR MRPV 031300Z 12001KT CAVOK 20/20 A2999 NOSIG=
201710031400 METAR MRPV 031400Z 11001KT CAVOK 22/19 A3001 NOSIG=
201710031500 METAR MRPV 031500Z 19001KT CAVOK 22/17 A3002 NOSIG=
201710031600 METAR MRPV 031600Z 31002KT CAVOK 22/20 A3003 NOSIG=
201710031700 METAR MRPV 031700Z 05002KT 9999 VCFG FEW025 BKN120 23/17 A3003 NOSIG=
201710031800 METAR MRPV 031800Z 04003KT CAVOK 24/16 A3001 NOSIG=
201710031900 METAR MRPV 031900Z 07005KT 9999 FEW025 BKN120 25/16 A2997 NOSIG=
201710032000 METAR MRPV 032000Z 28006KT 9999 FEW025 BKN120 23/20 A2994 NOSIG=
201710032100 METAR MRPV 032100Z 27008KT 9999 FEW025 BKN120 23/17 A2993 NOSIG=
201710032200 METAR MRPV 032200Z 28008KT 8000 BCFG FEW015 SCT035 BKN120 22/19 A2993 NOSIG=
201710032300 METAR MRPV 032300Z 29007KT 3000 -RA BR SCT010 BKN025 21/20 A2996 NOSIG=
201710040000 METAR MRPV 040000Z 28004KT 5000 BCFG FEW005 BKN025 20/19 A2998 RERA NOSIG=
201710040100 METAR MRPV NIL=
201710040200 METAR MRPV NIL=
201710040300 METAR MRPV NIL=
201710040400 METAR MRPV NIL=
201710040500 METAR MRPV NIL=
201710040600 METAR MRPV NIL=
201710040700 METAR MRPV NIL=
201710040800 METAR MRPV NIL=
201710040900 METAR MRPV NIL=
201710041000 METAR MRPV NIL=
201710041100 METAR MRPV NIL=
201710041200 METAR MRPV 041200Z 00000KT 9999 VCFG FEW030 BKN120 19/18 A2997 NOSIG=
201710041300 METAR MRPV 041300Z 00000KT 9999 VCFG FEW035 BKN100 20/19 A2998 NOSIG=
201710041400 METAR MRPV 041400Z 30001KT 8000 VCFG SCT010 BKN200 22/19 A2999 NOSIG=
201710041500 METAR MRPV 041500Z 26005KT 9000 RA VCFG SCT020 BKN100 21/18 A3001 NOSIG=
201710041600 METAR MRPV 041600Z 27010KT 9000 SCT007 BKN015 22/19 A3000 BECMG BKN010=
201710041700 METAR MRPV 041700Z 26008KT 9000 4000N RA SCT015 BKN080 22/18 A2998 TEMPO 5000=
201710041800 METAR MRPV 041800Z 27009KT 9000 SCT010 BKN100 22/18 A2995 RERA NOSIG=
201710041900 METAR MRPV 041900Z 28013KT 9000 4000N SCT015 BKN100 23/19 A2991 NOSIG=
201710041952 METAR MRPV 041952Z 27014KT 4000 BR BKN015 STC080 22/19 A2990 NOSIG=
201710042000 METAR MRPV 042000Z 27015KT 4000 -RA BR BKN015 STC025 22/19 A2990 NOSIG=
201710042100 METAR MRPV 042100Z 25007KT 1500 +RA BR BKN005 STC015 19/18 A2991 NOSIG=
201710042200 METAR MRPV 042200Z 27007KT 4000 -RA BR SCT010 BKN025 19/19 A2990 NOSIG=
201710042300 METAR MRPV 042300Z 26008KT 2000 RA BR SCT005 BKN010 19/19 A2992 NOSIG=
201710050000 METAR MRPV 050000Z 26006KT 4000 RA BR SCT005 BKN010 19/19 A2993 NOSIG=
201710050100 METAR MRPV NIL=
201710050200 METAR MRPV NIL=
201710050300 METAR MRPV NIL=
201710050400 METAR MRPV NIL=
201710050500 METAR MRPV NIL=
201710050600 METAR MRPV NIL=
201710050700 METAR MRPV NIL=
201710050800 METAR MRPV NIL=
201710050900 METAR MRPV NIL=
201710051000 METAR MRPV NIL=
201710051100 METAR MRPV NIL=
201710051200 METAR MRPV 051200Z 29008KT 1500 -RA BR BKN005 SCT010 18/17 A2995 NOSIG=
201710051219 METAR MRPV 051219Z 29012KT 1000 +RA FG OVC002 18/18 A2996 NOSIG=
201710051300 METAR MRPV 051300Z 29010KT 2000 RA BR BKN005 SCT010 18/18 A2997 NOSIG=
201710051400 METAR MRPV 051400Z 29011KT 2000 RA BR BKN005 SCT010 18/18 A2999 NOSIG=
201710051500 METAR MRPV 051500Z 29013KT 2000 +RA BR OVC005 18/18 A3000 NOSIG=
201710051600 METAR MRPV 051600Z 28016KT 3000 +RA BR BKN005 OVC010 18/18 A3001 NOSIG=
201710051700 METAR MRPV 051700Z 29010KT 2000 RA BR SCT005 BKN010 19/18 A2999 NOSIG=
201710051737 METAR MRPV 051737Z 30008KT 5000 -RA BCFG SCT015 BKN025 20/18 A2997 NOSIG=
201710051800 METAR MRPV 051800Z COR 29012KT 4000 -RA BCFG SCT010 BKN025 19/18 A2996 BECMG 2000=
201710051805 METAR MRPV 051805Z COR 29012KT 3000 RA BR SCT005 BKN010 19/18 A2996 NOSIG=
201710051900 METAR MRPV 051900Z 28014KT 3000 -RA BR SCT010 BKN025 19/18 A2995 NOSIG=
201710052000 METAR MRPV 052000Z 27009KT 4500 RA BR FEW005 SCT010 BKN030 19/16 A2993 NOSIG=
201710052100 METAR MRPV 052100Z 29011G21KT 3000 RA BR BKN004 18/17 A2993 NOSIG=
201710052200 METAR MRPV 052200Z 23007KT 6000 DZ BCFG FEW002 SCT025 BKN100 17/16 A2995 RERA NOSIG=
201710052300 METAR MRPV 052300Z 33006KT 9999 DZ FEW005 SCT020 BKN100 18/16 A2995 NOSIG=
201710060000 METAR COR MRPV 060000Z 32007KT 9999 BCFG FEW005 BKN020 18/16 A2995 REDZ NOSIG=
201710060100 METAR MRPV NIL=
201710060200 METAR MRPV NIL=
201710060300 METAR MRPV NIL=
201710060400 METAR MRPV NIL=
201710060500 METAR MRPV NIL=
201710060600 METAR MRPV NIL=
201710060700 METAR MRPV NIL=
201710060800 METAR MRPV NIL=
201710060900 METAR MRPV NIL=
201710061000 METAR MRPV NIL=
201710061100 METAR MRPV NIL=
201710061200 METAR MRPV 061200Z 01001KT 9999 BCFG FEW015 BKN035 18/17 A3002 NOSIG=
201710061300 METAR MRPV 061300Z 33003KT 9999 BCFG FEW015 SCT030 BKN120 19/17 A3005 NOSIG=
201710061400 METAR MRPV 061400Z 29007KT 9999 FEW020 BKN120 21/17 A3006 NOSIG=
201710061500 METAR MRPV 061500Z 29008KT 9999 SCT025 BKN120 22/16 A3008 NOSIG=
201710061600 METAR MRPV 061600Z 28007KT 9999 FEW030 BKN120 23/16 A3008 NOSIG=
201710061700 METAR MRPV 061700Z 28004KT 9999 FEW035 BKN140 25/15 A3007 NOSIG=
201710061800 METAR MRPV 061800Z 22003KT 9999 SCT035 BKN120 25/14 A3004 NOSIG=
201710061900 METAR MRPV 061900Z 25008KT 9999 SCT035 BKN200 24/15 A3003 NOSIG=
201710062000 METAR MRPV 062000Z 22005KT 9999 SCT040 SCT140 26/14 A3001 NOSIG=
201710062100 METAR MRPV 062100Z 25005KT 9999 SCT035 BKN140 24/14 A3000 NOSIG=
201710062200 METAR MRPV 062200Z 27006KT 9999 FEW030 BKN110 23/14 A3001 NOSIG=
201710062300 METAR MRPV 062300Z 28007KT 9999 FEW030 BKN100 22/16 A3002 NOSIG=
201710070000 METAR MRPV 070000Z 29008KT 9999 FEW030 BKN100 21/17 A3004 NOSIG=
201710070100 METAR MRPV NIL=
201710070200 METAR MRPV NIL=
201710070300 METAR MRPV NIL=
201710070400 METAR MRPV NIL=
201710070500 METAR MRPV NIL=
201710070600 METAR MRPV NIL=
201710070700 METAR MRPV NIL=
201710070800 METAR MRPV NIL=
201710070900 METAR MRPV NIL=
201710071000 METAR MRPV NIL=
201710071100 METAR MRPV NIL=
201710071200 METAR MRPV 071200Z 10002KT CAVOK 17/14 A3005 NOSIG=
201710071300 METAR MRPV 071300Z VRB01KT CAVOK 19/16 A3006 NOSIG=
201710071400 METAR MRPV 071400Z 02002KT CAVOK 21/14 A3007 NOSIG=
201710071500 METAR MRPV 071500Z 28004KT CAVOK 26/14 A3009 NOSIG=
201710071600 METAR MRPV 071600Z 27007KT CAVOK 26/15 A3008 NOSIG=
201710071700 METAR MRPV 071700Z 28009KT CAVOK 27/15 A3006 NOSIG=
201710071800 METAR MRPV 071800Z 27010KT CAVOK 27/17 A3004 NOSIG=
201710071900 METAR MRPV 071900Z 28012KT 9999 FEW040 27/19 A3007 NOSIG=
201710072000 METAR MRPV 072000Z 29013KT 9999 FEW035 26/19 A3000 NOSIG=
201710072100 METAR MRPV 072100Z 28010KT 9999 FEW025TCU BKN200 24/19 A3000 NOSIG=
201710072200 METAR MRPV 072200Z 29009KT 9999 SCT010 BKN200 23/19 A3001 NOSIG=
201710072300 METAR MRPV 072300Z 29007KT 8000 VCFG BKN008 22/19 A3004 NOSIG=
201710080000 METAR MRPV 080000Z 27005KT 5000 BR BKN008 21/20 A3005 NOSIG=
201710080100 METAR MRPV NIL=
201710080200 METAR MRPV NIL=
201710080300 METAR MRPV NIL=
201710080400 METAR MRPV NIL=
201710080500 METAR MRPV NIL=
201710080600 METAR MRPV NIL=
201710080700 METAR MRPV NIL=
201710080800 METAR MRPV NIL=
201710080900 METAR MRPV NIL=
201710081000 METAR MRPV NIL=
201710081100 METAR MRPV NIL=
201710081200 METAR MRPV 081200Z 12004KT 9999 FEW030 BKN220 21/17 A3004 NOSIG=
201710081300 METAR MRPV 081300Z 14005KT 9999 FEW035 BKN220 22/17 A3006 NOSIG=
201710081400 METAR MRPV 081400Z 11006KT 9999 FEW035 BKN200 24/17 A3008 NOSIG=
201710081500 METAR MRPV 081500Z 10008KT 9999 FEW045 BKN200 26/16 A3008 NOSIG=
201710081600 METAR MRPV 081600Z 08009KT 9999 FEW045 BKN220 27/16 A3007 BECMG 29008KT=
201710081700 METAR MRPV 081700Z 25003KT 9999 SCT045 SCT200 26/19 A3005 NOSIG=
201710081800 METAR MRPV 081800Z 28008KT 9999 FEW040 SCT200 26/20 A3002 NOSIG=
201710081900 METAR MRPV 081900Z 29011KT 9999 SCT030 SCT200 26/20 A2999 NOSIG=
201710082000 METAR MRPV 082000Z 27008KT 9999 SCT010TCU SCT100 26/20 A2996 NOSIG=
201710082100 METAR MRPV 082100Z 24008KT 5000 -TSRA BKN008CB SCT100 23/21 A2994 NOSIG=
201710082200 METAR MRPV 082200Z 26005KT 1000 -TSRA BR VV/// 21/20 A2997 NOSIG=
201710082300 METAR MRPV 082300Z 07004KT 9000 -RA VCTS VCSH FEW010CB SCT020 BKN100 19/18 A2999 RETSRA NOSIG=
201710090000 METAR MRPV 090000Z 19001KT 9000 -RA NSC 19/19 A3001 NOSIG=
201710090100 METAR MRPV NIL=
201710090200 METAR MRPV NIL=
201710090300 METAR MRPV NIL=
201710090400 METAR MRPV NIL=
201710090500 METAR MRPV NIL=
201710090600 METAR MRPV NIL=
201710090700 METAR MRPV NIL=
201710090800 METAR MRPV NIL=
201710090900 METAR MRPV NIL=
201710091000 METAR MRPV NIL=
201710091100 METAR MRPV NIL=
201710091200 METAR MRPV 091200Z 04004KT CAVOK 19/17 A3002 NOSIG=
201710091300 METAR MRPV 091300Z 14006KT CAVOK 20/16 A3002 NOSIG=
201710091400 METAR MRPV 091400Z 10013KT CAVOK 23/15 A3003 NOSIG=
201710091500 METAR MRPV 091500Z 07012KT CAVOK 23/14 A3004 NOSIG=
201710091600 METAR MRPV 091600Z 11006KT CAVOK 25/15 A3002 NOSIG=
201710091700 METAR MRPV 091700Z 12005KT CAVOK 27/15 A2999 NOSIG=
201710091800 METAR MRPV 091800Z 09011KT CAVOK 28/15 A2996 NOSIG=
201710091900 METAR MRPV 091900Z 30008KT 9999 VCSH SCT020TCU BKN030 24/19 A2995 NOSIG=
201710092000 METAR MRPV 092000Z 27003KT 9999 SCT010 BKN040 23/19 A2992 BECMG BKN010=
201710092100 METAR MRPV 092100Z 11008KT 9999 -RA BKN040 23/16 A2992 NOSIG=
201710092200 METAR MRPV 092200Z 06009KT 5000 +RA FEW040 BKN100 21/17 A2995 NOSIG=
201710092300 METAR MRPV 092300Z 13003KT 9999 VCFG NSC 20/18 A2994 RERA NOSIG=
201710100000 METAR MRPV 100000Z 27002KT 9999 VCFG FEW030 BKN100 20/18 A2995 NOSIG=
201710100100 METAR MRPV NIL=
201710100200 METAR MRPV NIL=
201710100300 METAR MRPV NIL=
201710100400 METAR MRPV NIL=
201710100500 METAR MRPV NIL=
201710100600 METAR MRPV NIL=
201710100700 METAR MRPV NIL=
201710100800 METAR MRPV NIL=
201710100900 METAR MRPV NIL=
201710101000 METAR MRPV NIL=
201710101100 METAR MRPV NIL=
201710101200 METAR MRPV 101200Z 14004KT CAVOK 20/15 A2997 NOSIG=
201710101300 METAR MRPV 101300Z 10005KT CAVOK 21/15 A3000 NOSIG=
201710101400 METAR MRPV 101400Z 13005KT CAVOK 23/14 A3000 NOSIG=
201710101500 METAR MRPV 101500Z 12004KT CAVOK 25/14 A3001 NOSIG=
201710101600 METAR MRPV 101600Z 09011KT CAVOK 26/14 A3000 NOSIG=
201710101700 METAR MRPV 101700Z 09005KT CAVOK 27/15 A2998 NOSIG=
201710101800 METAR MRPV 101800Z 27006KT 9999 FEW045 SCT200 26/18 A2996 NOSIG=
201710101900 METAR MRPV 101900Z 28005KT 9999 FEW045 BKN200 26/18 A2993 NOSIG=
201710102000 METAR MRPV 102000Z 27006KT 9999 SCT040 SCT200 26/18 A2990 NOSIG=
201710102100 METAR MRPV 102100Z 25004KT 3000 -RA BCFG VCTS FEW010CB FEW015 BKN030 22/20 A2930 NOSIG=
201710102200 METAR MRPV 102200Z COR 02003KT 100V190 5000 +RA VCTS FEW010CB SCT030 BKN070 21/19 A2993 RETSRA NOSIG=
201710102300 METAR MRPV 102300Z 17001KT 9999 BCFG FEW010 SCT035 BKN080 19/18 A2995 RERA NOSIG=
201710110000 METAR MRPV 110000Z 06002KT 9999 FEW010 SCT025 BKN080 19/18 A2996 NOSIG=
201710110100 METAR MRPV NIL=
201710110200 METAR MRPV NIL=
201710110300 METAR MRPV NIL=
201710110400 METAR MRPV NIL=
201710110500 METAR MRPV NIL=
201710110600 METAR MRPV NIL=
201710110700 METAR MRPV NIL=
201710110800 METAR MRPV NIL=
201710110900 METAR MRPV NIL=
201710111000 METAR MRPV NIL=
201710111100 METAR MRPV NIL=
201710111200 METAR MRPV 111200Z 10003KT CAVOK 18/16 A2997 NOSIG=
201710111300 METAR MRPV 111300Z 08002KT CAVOK 20/16 A2999 NOSIG=
201710111400 METAR MRPV 111400Z 05003KT 9999 FEW040 BKN220 24/15 A3001 NOSIG=
201710111500 METAR MRPV 111500Z 09005KT 9999 FEW040 BKN250 25/15 A3001 NOSIG=
201710111600 METAR MRPV 111600Z 28002KT 9999 SCT045 BKN250 26/14 A3000 NOSIG=
201710111700 METAR MRPV 111700Z 26007KT 9999 SCT045 BKN250 25/18 A2998 NOSIG=
201710111800 METAR MRPV 111800Z 26006KT 9999 SCT040 BKN200 26/17 A2995 NOSIG=
201710111900 METAR MRPV 111900Z 26007KT 9999 FEW020TCU FEW035 BKN250 27/19 A2993 NOSIG=
201710112000 METAR MRPV 112000Z 26009KT 9999 FEW020TCU SCT035 SCT250 26/19 A2991 NOSIG=
201710112100 METAR MRPV 112100Z 26007KT 9999 VCTS FEW015CB SCT025 23/20 A2991 NOSIG=
201710112200 METAR MRPV 112200Z COR 31005KT 9999 -SHRA FEW010TCU BKN030 23/19 A2993 RETSRA NOSIG=
201710112300 METAR MRPV 112300Z 28004KT 5000 -RA BR SCT010 BKN030 22/20 A2994 RESHRA NOSIG=
201710120000 METAR MRPV 120000Z 34004KT 4000 -RA BR BKN010 SCT030 21/18 A2996 NOSIG=
201710120100 METAR MRPV NIL=
201710120200 METAR MRPV NIL=
201710120300 METAR MRPV NIL=
201710120400 METAR MRPV NIL=
201710120500 METAR MRPV NIL=
201710120600 METAR MRPV NIL=
201710120700 METAR MRPV NIL=
201710120800 METAR MRPV NIL=
201710120900 METAR MRPV NIL=
201710121000 METAR MRPV NIL=
201710121100 METAR MRPV NIL=
201710121200 METAR MRPV 121200Z 00000KT 9999 FEW040 BKN200 18/16 A2998 NOSIG=
201710121300 METAR MRPV 121300Z 11007KT 9999 FEW045 BKN200 23/14 A2999 NOSIG=
201710121400 METAR MRPV 121400Z 11008KT CAVOK 25/15 A3000 NOSIG=
201710121500 METAR MRPV 121500Z 09013KT CAVOK 26/13 A2999 NOSIG=
201710121600 METAR MRPV 121600Z 07008KT CAVOK 27/13 A2998 NOSIG=
201710121700 METAR MRPV 121700Z 27006KT 270V060 9999 FEW035 SCT200 26/18 A2997 NOSIG=
201710121800 METAR MRPV 121800Z 29009KT 9999 SCT035 SCT250 26/18 A2995 NOSIG=
201710121900 METAR MRPV 121900Z 29008KT 9999 FEW025TCU SCT030 SCT250 26/19 A2993 TEMPO SHRA=
201710122000 METAR MRPV 122000Z 35008KT 4000 -TSRA SCT020CB BKN030 22/19 A2992 NOSIG=
201710122100 METAR MRPV 122100Z 20002KT 9999 -TSRA FEW010CB SCT030 BKN100 19/18 A2992 NOSIG=
201710122200 METAR MRPV 122200Z 11004KT 9999 BCFG FEW005 SCT030 BKN100 21/19 A2992 RETSRA NOSIG=
201710122300 METAR MRPV 122300Z 33004KT 100V350 9999 FEW020 SCT030 BKN120 20/19 A2994 NOSIG=
201710130000 METAR MRPV 130000Z 36001KT 9999 FEW035 BKN120 21/19 A2995 NOSIG=
201710130100 METAR MRPV NIL=
201710130200 METAR MRPV NIL=
201710130300 METAR MRPV NIL=
201710130400 METAR MRPV NIL=
201710130500 METAR MRPV NIL=
201710130600 METAR MRPV NIL=
201710130700 METAR MRPV NIL=
201710130800 METAR MRPV NIL=
201710130900 METAR MRPV NIL=
201710131000 METAR MRPV NIL=
201710131100 METAR MRPV NIL=
201710131200 METAR MRPV 131200Z 14005KT CAVOK 20/15 A2998 NOSIG=
201710131300 METAR MRPV 131300Z 13006KT 9999 FEW040 BKN200 21/15 A3000 NOSIG=
201710131400 METAR MRPV 131400Z 10010G20KT 9999 FEW040 BKN220 23/15 A3002 NOSIG=
201710131500 METAR MRPV 131500Z 08013KT 9999 FEW040 BKN220 25/16 A3003 NOSIG=
201710131600 METAR MRPV 131600Z 08009KT 9999 FEW040 BKN220 26/16 A3001 NOSIG=
201710131700 METAR MRPV 131700Z 07009KT 9999 FEW045 BKN250 28/16 A2997 NOSIG=
201710131800 METAR MRPV 131800Z 07009KT 9999 FEW040 BKN250 28/16 A2997 NOSIG=
201710131900 METAR MRPV 131900Z 05008KT 9999 SCT040 BKN200 28/16 A2994 NOSIG=
201710132000 METAR MRPV 132000Z 06008KT 9999 SCT035 BKN200 27/16 A2993 NOSIG=
201710132100 METAR MRPV 132100Z 27006KT 9999 SCT035 BKN200 25/20 A2993 NOSIG=
201710132200 METAR MRPV 132200Z 26005KT 9999 4500SW BCFG SCT005 BKN030 23/21 A2993 TEMPO 5000 BKN005=
201710132300 METAR MRPV 132300Z 30004KT 6000 BCFG FEW002 SCT005TCU BKN120 22/21 A2995 NOSIG=
201710140000 METAR MRPV 140000Z 27002KT 8000 VCFG BKN005 SCT100 21/20 A2997 NOSIG=
201710140100 METAR MRPV NIL=
201710140200 METAR MRPV NIL=
201710140300 METAR MRPV NIL=
201710140400 METAR MRPV NIL=
201710140500 METAR MRPV NIL=
201710140600 METAR MRPV NIL=
201710140700 METAR MRPV NIL=
201710140800 METAR MRPV NIL=
201710140900 METAR MRPV NIL=
201710141000 METAR MRPV NIL=
201710141100 METAR MRPV NIL=
201710141200 METAR MRPV 141200Z 11007KT 9999 FEW040 BKN200 21/16 A2998 NOSIG=
201710141300 METAR MRPV 141300Z 11007KT 9999 FEW040 BKN220 23/16 A3000 NOSIG=
201710141400 METAR MRPV 141400Z 07013KT 9999 FEW030 BKN250 24/16 A3002 NOSIG=
201710141500 METAR MRPV 141500Z 07011KT 9999 FEW030 SCT250 25/16 A3003 NOSIG=
201710141600 METAR MRPV 141600Z 07012KT 9999 FEW040 SCT250 26/16 A3003 NOSIG=
201710141700 METAR MRPV 141700Z 08010KT 9999 SCT040 BKN200 27/17 A3001 NOSIG=
201710141800 METAR MRPV 141800Z 06011KT 9999 SCT040 BKN200 28/16 A2999 NOSIG=
201710141900 METAR MRPV 141900Z 05011KT 9999 SCT040 BKN200 28/16 A2996 NOSIG=
201710142000 METAR MRPV 142000Z 05011KT 9999 FEW040 BKN200 27/16 A2994 NOSIG=
201710142100 METAR MRPV 142100Z 27006KT 9999 FEW010 SCT030 BKN200 26/20 A2993 NOSIG=
201710142200 METAR MRPV 142200Z 27006KT 9999 4000W BCFG FEW005 SCT030 BKN200 24/20 A2993 BECMG BKN005=
201710142300 METAR MRPV 142300Z 27003KT 8000 BCFG FEW002 BKN005 22/21 A2996 NOSIG=
201710150000 METAR MRPV 150000Z 28004KT 4000 BR FEW001 BKN005 22/21 A2998 NOSIG=
201710150100 METAR MRPV NIL=
201710150200 METAR MRPV NIL=
201710150300 METAR MRPV NIL=
201710150400 METAR MRPV NIL=
201710150500 METAR MRPV NIL=
201710150600 METAR MRPV NIL=
201710150700 METAR MRPV NIL=
201710150800 METAR MRPV NIL=
201710150900 METAR MRPV NIL=
201710151000 METAR MRPV NIL=
201710151100 METAR MRPV NIL=
201710151200 METAR MRPV 151200Z 12007KT CAVOK 21/14 A2998 NOSIG=
201710151300 METAR MRPV 151300Z 08019KT CAVOK 23/14 A3000 NOSIG=
201710151400 METAR MRPV 151400Z 08012KT CAVOK 24/15 A3002 NOSIG=
201710151500 METAR MRPV 151500Z 07010KT 9999 FEW045 BKN200 26/14 A3003 NOSIG=
201710151600 METAR MRPV 151600Z 06011KT 9999 FEW045 BKN200 26/15 A3003 NOSIG=
201710151700 METAR MRPV 151700Z 06011KT 9999 FEW040 BKN200 26/15 A3001 NOSIG=
201710151800 METAR MRPV 151800Z 06010KT 9999 FEW045 BKN200 27/15 A2998 NOSIG=
201710151900 METAR MRPV 151900Z 06010KT 9999 FEW045 BKN200 28/16 A2995 NOSIG=
201710152000 METAR MRPV 152000Z 07012KT 9999 SCT035 BKN200 26/16 A2993 NOSIG=
201710152100 METAR MRPV 152100Z 05007KT 9999 FEW035 BKN200 26/16 A2992 NOSIG=
201710152200 METAR MRPV 152200Z 06009KT 9999 SCT035 BKN200 24/16 A2992 NOSIG=
201710152300 METAR MRPV 152300Z 07009KT 9999 FEW025 SCT080 24/16 A2995 NOSIG=
201710160000 METAR MRPV 160000Z 08007KT 9999 FEW025 SCT080 23/17 A2996 NOSIG=
201710160100 METAR MRPV NIL=
201710160200 METAR MRPV NIL=
201710160300 METAR MRPV NIL=
201710160400 METAR MRPV NIL=
201710160500 METAR MRPV NIL=
201710160600 METAR MRPV NIL=
201710160700 METAR MRPV NIL=
201710160800 METAR MRPV NIL=
201710160900 METAR MRPV NIL=
201710161000 METAR MRPV NIL=
201710161100 METAR MRPV NIL=
201710161200 METAR MRPV 161200Z 13006KT 9999 FEW010 21/15 A2999 NOSIG=
201710161300 METAR MRPV 161300Z 11010KT CAVOK 23/16 A3001 NOSIG=
201710161400 METAR MRPV 161400Z 09012KT 9999 FEW045 24/16 A3002 NOSIG=
201710161500 METAR MRPV 161500Z 07011KT 9999 FEW040 26/16 A3003 NOSIG=
201710161600 METAR MRPV 161600Z 07012KT 9999 FEW045 27/16 A3001 NOSIG=
201710161700 METAR MRPV 161700Z 07013KT 9999 FEW045 28/16 A2998 NOSIG=
201710161800 METAR MRPV 161800Z 06014KT 9999 FEW045 28/15 A2995 NOSIG=
201710161900 METAR MRPV 161900Z 05007KT 9999 FEW045 29/15 A2993 NOSIG=
201710162000 METAR MRPV 162000Z 06010KT 9999 SCT045 29/15 A2990 NOSIG=
201710162100 METAR MRPV 162100Z 31004KT 9999 SCT040 27/20 A2990 NOSIG=
201710162200 METAR MRPV 162200Z 28009KT 9999 FEW035 25/21 A2991 NOSIG=
201710162300 METAR MRPV 162300Z 27004KT 8000 SCT020 SCT250 23/21 A2993 NOSIG=
201710170000 METAR MRPV 170000Z VRB02KT 8000 FEW020 SCT250 22/21 A2995 NOSIG=
201710170100 METAR MRPV NIL=
201710170200 METAR MRPV NIL=
201710170300 METAR MRPV NIL=
201710170400 METAR MRPV NIL=
201710170500 METAR MRPV NIL=
201710170600 METAR MRPV NIL=
201710170700 METAR MRPV NIL=
201710170800 METAR MRPV NIL=
201710170900 METAR MRPV NIL=
201710171000 METAR MRPV NIL=
201710171100 METAR MRPV NIL=
201710171200 METAR MRPV 171200Z 13008KT CAVOK 21/15 A2999 NOSIG=
201710171300 METAR MRPV 171300Z 12009KT CAVOK 22/14 A3001 NOSIG=
201710171400 METAR MRPV 171400Z 11011KT CAVOK 24/13 A3002 NOSIG=
201710171500 METAR MRPV 171500Z 08012KT CAVOK 25/13 A3004 NOSIG=
201710171600 METAR MRPV 171600Z 09011KT CAVOK 27/13 A3003 NOSIG=
201710171700 METAR MRPV 171700Z 08010KT CAVOK 27/14 A3001 NOSIG=
201710171800 METAR MRPV 171800Z 07012KT CAVOK 27/15 A2998 NOSIG=
201710171900 METAR MRPV 171900Z 08014KT CAVOK 25/16 A2997 NOSIG=
201710172000 METAR MRPV 172000Z 08011KT 9999 FEW030 SCT080 BKN120 24/16 A2997 NOSIG=
201710172100 METAR MRPV 172100Z 13005KT CAVOK 24/15 A2994 NOSIG=
201710172200 METAR MRPV 172200Z 14006KT CAVOK 24/15 A2991 NOSIG=
201710180000 METAR MRPV 180000Z 08013KT CAVOK 22/14 A2995 NOSIG=
201710180100 METAR MRPV NIL=
201710180200 METAR MRPV NIL=
201710180300 METAR MRPV NIL=
201710180400 METAR MRPV NIL=
201710180500 METAR MRPV NIL=
201710180600 METAR MRPV NIL=
201710180700 METAR MRPV NIL=
201710180800 METAR MRPV NIL=
201710180900 METAR MRPV NIL=
201710181000 METAR MRPV NIL=
201710181100 METAR MRPV NIL=
201710181200 METAR MRPV 181200Z 11007KT CAVOK 21/15 A2999 NOSIG=
201710181300 METAR MRPV 181300Z 12007KT CAVOK 23/14 A3001 NOSIG=
201710181400 METAR MRPV 181400Z 09015KT 9999 FEW045 BKN220 25/17 A3002 NOSIG=
201710181500 METAR MRPV 181500Z 08016KT 9999 FEW040 BKN250 24/17 A3006 NOSIG=
201710181600 METAR MRPV 181600Z 09011KT 9999 FEW035 BKN250 24/17 A3006 NOSIG=
201710181700 METAR MRPV 181700Z 14007KT 9999 FEW035 BKN200 26/16 A3001 NOSIG=
201710181800 METAR MRPV 181800Z 15008KT CAVOK 29/16 A2995 NOSIG=
201710181900 METAR MRPV 181900Z 13005KT CAVOK 29/15 A2993 NOSIG=
201710182000 METAR MRPV 182000Z 07013KT FEW040 BKN100 26/14 A2993 NOSIG=
201710182100 METAR MRPV 182100Z 03004KT 9999 FEW030 BKN100 27/15 A2992 BECMG 29005KT=
201710182200 METAR MRPV 182200Z 27004KT 9999 FEW035 BKN100 23/20 A2994 NOSIG=
201710182300 METAR MRPV 182300Z 28002KT 9999 FEW020 SCT030 BKN100 23/20 A2996 NOSIG=
201710190000 METAR MRPV 190000Z 07005KT 9999 SCT020 BKN100 23/16 A2998 NOSIG=
201710190100 METAR MRPV NIL=
201710190200 METAR MRPV NIL=
201710190300 METAR MRPV NIL=
201710190400 METAR MRPV NIL=
201710190500 METAR MRPV NIL=
201710190600 METAR MRPV NIL=
201710190700 METAR MRPV NIL=
201710190800 METAR MRPV NIL=
201710190900 METAR MRPV NIL=
201710191000 METAR MRPV NIL=
201710191100 METAR MRPV NIL=
201710191200 METAR MRPV 191200Z 12006KT 9999 FEW030 BKN200 21/16 A2999 NOSIG=
201710191300 METAR MRPV 191300Z 11010KT 9999 FEW025 BKN180 23/17 A3001 NOSIG=
201710191400 METAR MRPV 191400Z 11009KT 9999 FEW020 BKN180 23/17 A3003 NOSIG=
201710191500 METAR MRPV 191500Z 10010KT 9999 FEW035 SCT110 BKN200 24/15 A3004 NOSIG=
201710191600 METAR MRPV 191600Z 11011KT 9999 FEW045 SCT090 BKN200 24/15 A3003 NOSIG=
201710191700 METAR MRPV 191700Z 09009KT CAVOK 26/14 A3000 NOSIG=
201710191800 METAR MRPV 191800Z 08015KT CAVOK 24/13 A2998 NOSIG=
201710191900 METAR MRPV 191900Z 09008KT CAVOK 25/13 A2995 NOSIG=
201710192000 METAR MRPV 192000Z 10009KT CAVOK 26/14 A2993 NOSIG=
201710192100 METAR MRPV 192100Z 09005KT CAVOK 26/13 A2991 TEMPO 25005KT=
201710192200 METAR MRPV 192200Z 29010KT 9999 4000SW BCFG SCT005 BKN100 23/20 A2994 BECMG BKN005=
201710192300 METAR MRPV 192300Z 31004KT 8000 VCFG SCT005 BKN100 22/20 A2997 NOSIG=
201710200000 METAR MRPV 200000Z 29003KT 8000 VCFG BKN015 21/20 A2997 NOSIG=
201710200100 METAR MRPV NIL=
201710200200 METAR MRPV NIL=
201710200300 METAR MRPV NIL=
201710200400 METAR MRPV NIL=
201710200500 METAR MRPV NIL=
201710200600 METAR MRPV NIL=
201710200700 METAR MRPV NIL=
201710200800 METAR MRPV NIL=
201710200900 METAR MRPV NIL=
201710201000 METAR MRPV NIL=
201710201100 METAR MRPV NIL=
201710201200 METAR MRPV 201200Z 13007KT 9999 FEW035 21/16 A2998 NOSIG=
201710201300 METAR MRPV 201300Z 12007KT CAVOK 23/17 A2999 NOSIG=
201710201400 METAR MRPV 201400Z 12011KT CAVOK 25/16 A3000 NOSIG=
201710201500 METAR MRPV 201500Z 08012KT 9999 FEW040 BKN200 26/17 A3001 NOSIG=
201710201600 METAR MRPV 201600Z 08012KT 9999 FEW040 BKN200 28/16 A3000 NOSIG=
201710201700 METAR MRPV 201700Z 09005KT 9999 SCT040 BKN200 28/16 A2998 NOSIG=
201710201800 METAR MRPV 201800Z 26007KT 9999 SCT040 BKN200 26/19 A2994 NOSIG=
201710201900 METAR MRPV 201900Z 29007KT 9999 FEW020TCU SCT040 SCT250 26/19 A2992 TEMPO SHRA=
201710202000 METAR MRPV 202000Z 32009KT 9999 SHRA FEW010 SCT20TCU SCT250 23/16 A2991 NOSIG=
201710202100 METAR MRPV 202100Z 29003KT 9999 -RA FEW010 SCT30 BKN120 22/17 A2990 RESHRA NOSIG=
201710202200 METAR MRPV 202200Z 29006KT 9999 VCFG FEW008 SCT100 BKN200 21/17 A2991 NOSIG=
201710202300 METAR MRPV 202300Z 00000KT 9999 FEW030 SCT100 BKN200 21/17 A2992 NOSIG=
201710210000 METAR MRPV 210000Z 31003KT 8000 FEW030 BKN100 21/17 A2993 NOSIG=
201710210100 METAR MRPV NIL=
201710210200 METAR MRPV NIL=
201710210300 METAR MRPV NIL=
201710210400 METAR MRPV NIL=
201710210500 METAR MRPV NIL=
201710210600 METAR MRPV NIL=
201710210700 METAR MRPV NIL=
201710210800 METAR MRPV NIL=
201710210900 METAR MRPV NIL=
201710211000 METAR MRPV NIL=
201710211100 METAR MRPV NIL=
201710211200 METAR MRPV 211200Z 05003KT CAVOK 19/17 A2998 NOSIG=
201710211300 METAR MRPV 211300Z 09007KT CAVOK 21/16 A2999 NOSIG=
201710211400 METAR MRPV 211400Z 12004KT CAVOK 24/17 A3000 NOSIG=
201710211500 METAR MRPV 211500Z 04005KT CAVOK 26/17 A3002 NOSIG=
201710211600 METAR MRPV 211600Z 27004KT 9999 SCT040 BKN100 25/19 A3002 NOSIG=
201710211700 METAR MRPV 211700Z 29006KT 9999 SCT040 BKN200 26/19 A2998 NOSIG=
201710211800 METAR MRPV 211800Z 29007KT 9999 SCT035 BKN200 27/18 A2995 NOSIG=
201710211900 METAR MRPV 211900Z 28008KT 9999 FEW025TCU SCT035 BKN200 26/19 A2992 NOSIG=
201710212000 METAR MRPV 212000Z 27010KT 9999 4000N -TSRA FEW010 SCT020CB SCT200 26/20 A2991 NOSIG=
201710212100 METAR MRPV 212100Z 28006KT 9999 -RA VCTS FEW010CB BKN025 23/20 A2991 RETSRA NOSIG=
201710212200 METAR MRPV 212200Z 27003KT 9000 FEW010 SCT020 BKN100 23/20 A2992 NOSIG=
201710212300 METAR MRPV 212300Z COR 31003KT 2000 FG FEW005 SCT020 21/20 A2995 RERA NOSIG=
201710220000 METAR MRPV 220000Z 24001KT 3500 FG FEW005 BKN020 21/21 A2996 NOSIG=
201710220100 METAR MRPV NIL=
201710220200 METAR MRPV NIL=
201710220300 METAR MRPV NIL=
201710220400 METAR MRPV NIL=
201710220500 METAR MRPV NIL=
201710220600 METAR MRPV NIL=
201710220700 METAR MRPV NIL=
201710220800 METAR MRPV NIL=
201710220900 METAR MRPV NIL=
201710221000 METAR MRPV NIL=
201710221100 METAR MRPV NIL=
201710221200 METAR MRPV 221200Z 12001KT 9999 FEW035 BKN200 19/18 A2999 NOSIG=
201710221300 METAR MRPV 221300Z 08004KT CAVOK 23/17 A3001 RMK BKN200 - NOSIG=
201710221400 METAR MRPV 221400Z 00000KT CAVOK 23/17 A3003 NOSIG=
201710221500 METAR MRPV 221500Z 27005KT CAVOK 23/18 A3005 NOSIG=
201710221600 METAR MRPV 221600Z 34002KT CAVOK 24/18 A3004 NOSIG=
201710221700 METAR MRPV 221700Z 26004KT 9999 FEW030 SCT120 BKN200 25/18 A3003 NOSIG=
201710221800 METAR MRPV 221800Z 28005KT 9999 FEW035 BKN200 25/18 A2999 NOSIG=
201710221900 METAR MRPV 221900Z 28007KT 9999 FEW035 BKN200 25/19 A2996 NOSIG=
201710222000 METAR MRPV 222000Z 28012KT 9999 -TSRA FEW010CB FEW025 BKN200 25/19 A2993 NOSIG=
201710222100 METAR MRPV 222100Z 28008KT 9999 SCT025 BKN200 25/18 A2992 RETSRA NOSIG=
201710222200 METAR MRPV 222200Z 27008KT 9999 SCT025 BKN200 24/18 A2993 NOSIG=
201710222300 METAR MRPV 222300Z 30005KT 9999 FEW020 SCT120 BKN200 22/19 A2995 NOSIG=
201710230000 METAR MRPV 230000Z 30005KT 9999 FEW020 BKN120 22/20 A2997 NOSIG=
201710230100 METAR MRPV NIL=
201710230200 METAR MRPV NIL=
201710230300 METAR MRPV NIL=
201710230400 METAR MRPV NIL=
201710230500 METAR MRPV NIL=
201710230600 METAR MRPV NIL=
201710230700 METAR MRPV NIL=
201710230800 METAR MRPV NIL=
201710230900 METAR MRPV NIL=
201710231000 METAR MRPV NIL=
201710231100 METAR MRPV NIL=
201710231200 METAR MRPV 231200Z COR 32002KT 9999 2500 PRFG FEW005 BKN200 21/20 A2999 NOSIG=
201710231300 METAR MRPV 231300Z 31002KT 9999 3000 PRFG FEW005 BKN200 22/20 A2999 NOSIG=
201710231400 METAR MRPV 231400Z 27004KT 6000 BCFG FEW005 SCT030 BKN200 23/19 A3002 NOSIG=
201710231500 METAR MRPV 231500Z 27002KT 9999 FEW035 SCT160 BKN200 25/19 A3002 NOSIG=
201710231600 METAR MRPV 231600Z 31002KT 9999 SCT035 BKN200 27/18 A3001 NOSIG=
201710231700 METAR MRPV 231700Z 28006KT 9999 VCTS FEW015CB SCT030 BKN120 26/18 A2999 NOSIG=
201710231800 METAR MRPV 231800Z 25006KT 9999 VCTS FEW015CB SCT025 BKN100 25/20 A2996 NOSIG=
201710231900 METAR MRPV 231900Z 29011KT 9999 FEW020 SCT100 BKN220 24/19 A2993 NOSIG=
201710232000 METAR MRPV 232000Z 27010KT 5000 BR FEW005 BKN012 23/20 A2992 NOSIG=
201710232100 METAR MRPV 232100Z 29007KT 5000 RA BR VCTS FEW005 SCT010CB BKN120 23/20 A2991 NOSIG=
201710232200 METAR MRPV 232200Z 28007KT 4500 BR FEW005 BKN015 22/20 A2992 RERA NOSIG=
201710232300 METAR MRPV 232300Z 29006KT 4000 BR BCFG FEW003 SCT010 BKN100 21/20 A2994 NOSIG=
201710240000 METAR MRPV 240000Z 04008KT 4000 RA BR VCTS SCT002 BKN008CB 20/18 A2996 NOSIG=
201710240100 METAR MRPV NIL=
201710240200 METAR MRPV NIL=
201710240300 METAR MRPV NIL=
201710240400 METAR MRPV NIL=
201710240500 METAR MRPV NIL=
201710240600 METAR MRPV NIL=
201710240700 METAR MRPV NIL=
201710240800 METAR MRPV NIL=
201710240900 METAR MRPV NIL=
201710241000 METAR MRPV NIL=
201710241100 METAR MRPV NIL=
201710241200 METAR MRPV 241200Z VRB02KT CAVOK 20/19 A2998 NOSIG=
201710241300 METAR MRPV 241300Z VRB02KT 9999 FEW020 SCT120 BKN200 21/20 A3001 NOSIG=
201710241400 METAR MRPV 241400Z 29002KT 9999 FEW020 BKN200 24/18 A3002 NOSIG=
201710241500 METAR MRPV 241500Z COR 27005KT 9000 SCT020 BKN200 23/18 A3003 NOSIG=
201710241600 METAR MRPV 241600Z 28006KT 9999 SCT025 BKN200 24/19 A3002 NOSIG=
201710241700 METAR MRPV 241700Z 27007KT 9999 SCT020 BKN220 25/18 A2999 NOSIG=
201710241800 METAR MRPV 241800Z 26010KT 9999 FEW015 SCT025 BKN220 25/19 A2996 NOSIG=
201710241900 METAR MRPV 241900Z 28010KT 9999 FEW030 SCT090 BKN200 24/19 A2993 NOSIG=
201710242000 METAR MRPV 242000Z 27011KT 9999 -RA SCT015 BKN140 23/19 A2992 NOSIG=
201710242100 METAR MRPV 242100Z 28011KT 8000 -DZ VCFG SCT010 BKN030 21/19 A2991 NOSIG=
201710242200 METAR MRPV 242200Z 29009KT 8000 BCFG FEW003 BKN007 20/19 A2994 NOSIG=
201710242300 METAR MRPV 242300Z 30004KT 9999 -RA BCFG FEW003 BKN007 20/19 A2995 NOSIG=
201710250000 METAR MRPV 250000Z 00000KT 9999 BCFG FEW003 SCT010 BKN020 20/19 A2996 NOSIG=
201710250100 METAR MRPV NIL=
201710250200 METAR MRPV NIL=
201710250300 METAR MRPV NIL=
201710250400 METAR MRPV NIL=
201710250500 METAR MRPV NIL=
201710250600 METAR MRPV NIL=
201710250700 METAR MRPV NIL=
201710250800 METAR MRPV NIL=
201710250900 METAR MRPV NIL=
201710251000 METAR MRPV NIL=
201710251100 METAR MRPV NIL=
201710251200 METAR MRPV 251200Z VRB01KT 5000 BR FEW010 BKN035 20/19 A2999 NOSIG=
201710251300 METAR MRPV 251300Z 00000KT 4000 BR FEW003 BKN010 20/20 A3002 NOSIG=
201710251400 METAR MRPV 251400Z 30003KT 6000 BCFG SCT005 BKN020 20/19 A3003 NOSIG=
201710251500 METAR MRPV 251500Z 28005KT 7000 BCFG SCT010 BKN030 21/19 A3004 NOSIG=
201710251600 METAR MRPV 251600Z 28007KT 4000 +DZ BR SCT005 BKN010 20/19 A3005 NOSIG=
201710251700 METAR MRPV 251700Z 31004KT 3500 -RA BR SCT002 BKN005 21/19 A3003 NOSIG=
201710251800 METAR MRPV 251800Z 30008KT 4000 -RA BR SCT002 BKN004 20/19 A2999 NOSIG=
201710251900 METAR MRPV 251900Z 30009KT 4000 1500NE RA BR SCT005 BKN040 20/18 A2997 NOSIG=
201710252000 METAR MRPV 252000Z 33005KT 5000 -DZ BR SCT002 BKN005 20/19 A2996 RERA NOSIG=
201710252100 METAR MRPV 252100Z 01005KT 8000 -RA VCFG SCT005 BKN040 20/18 A2995 NOSIG=
201710252200 METAR MRPV 252200Z 28005KT 9999 VCFG FEW010 BKN045 20/18 A2997 NOSIG=
201710252300 METAR MRPV 252300Z 30002KT 9999 VCFG SCT010 BKN030 19/18 A2999 NOSIG=
201710260000 METAR MRPV 260000Z 34001KT 140V350 9999 VCFG SCT010 BKN030 19/18 A3000 NOSIG=
201710260100 METAR MRPV NIL=
201710260200 METAR MRPV NIL=
201710260300 METAR MRPV NIL=
201710260400 METAR MRPV NIL=
201710260500 METAR MRPV NIL=
201710260600 METAR MRPV NIL=
201710260700 METAR MRPV NIL=
201710260800 METAR MRPV NIL=
201710260900 METAR MRPV NIL=
201710261000 METAR MRPV NIL=
201710261100 METAR MRPV NIL=
201710261200 METAR MRPV 261200Z 13002KT CAVOK 18/18 A3000 NOSIG=
201710261300 METAR MRPV 261300Z 10002KT CAVOK 20/17 A3001 NOSIG=
201710261400 METAR MRPV 261400Z 12002KT CAVOK 23/15 A3002 NOSIG=
201710261500 METAR MRPV 261500Z 27006KT 5000 DZ FEW020 BKN060 20/17 A3005 RERA TEMPO 4000=
201710261600 METAR MRPV 261600Z VRB02KT 9999 FEW035 BKN100 22/18 A3003 NOSIG=
201710261700 METAR MRPV 261700Z 29003KT 9999 FEW035 BKN100 24/17 A3000 NOSIG=
201710261800 METAR MRPV 261800Z 27007KT 9999 FEW035 BKN100 24/17 A2997 NOSIG=
201710261900 METAR MRPV 261900Z 28012KT 9999 FEW030 BKN100 23/17 A2995 NOSIG=
201710262000 METAR MRPV 262000Z 30004KT 9999 FEW015 BKN100 22/18 A2993 RERA NOSIG=
201710262100 METAR MRPV 262100Z 28007KT 9999 SCT010 BKN100 22/18 A2992 BECMG BKN010=
201710262200 METAR MRPV 262200Z 27008KT 3000 RA BR BKN003 20/19 A2994 NOSIG=
201710262300 METAR MRPV 262300Z 29009KT 3000 RA BR BKN003 19/18 A2996 NOSIG=
201710270000 METAR MRPV 270000Z 27009KT 5000 RA BR BKN003 19/18 A2996 NOSIG=
201710270100 METAR MRPV NIL=
201710270200 METAR MRPV NIL=
201710270300 METAR MRPV NIL=
201710270400 METAR MRPV NIL=
201710270500 METAR MRPV NIL=
201710270600 METAR MRPV NIL=
201710270700 METAR MRPV NIL=
201710270800 METAR MRPV NIL=
201710270900 METAR MRPV NIL=
201710271000 METAR MRPV NIL=
201710271100 METAR MRPV NIL=
201710271200 METAR MRPV 271200Z 10001KT 9999 FEW035 BKN012 18/17 A2999 NOSIG=
201710271300 METAR MRPV 271300Z 00000KT 9999 FEW035 BKN120 20/19 A3001 NOSIG=
201710271400 METAR MRPV 271400Z 01001KT 9999 FEW030 BKN120 22/19 A3003 NOSIG=
201710271500 METAR MRPV 271500Z 29007KT 9999 RA FEW002 SCT015 BKN100 20/19 A3005 NOSIG=
201710271600 METAR MRPV 271600Z 00000KT 3000 RA BR BKN005 20/18 A3005 NOSIG=
201710271700 METAR MRPV 271700Z 30001KT 8000 BCFG SCT008 BKN100 23/18 A3002 NOSIG=
201710271800 METAR MRPV 271800Z 32003KT 8000 BKN020 23/18 A2999 NOSIG=
201710271900 METAR MRPV 271900Z 30008KT 9999 SCT020 BKN250 24/19 A2995 NOSIG=
201710272000 METAR MRPV 272000Z 28013KT 9999 FEW030 SCT120 BKN250 25/17 A2993 NOSIG=
201710272100 METAR MRPV 272100Z 28013KT 9999 SCT025 BKN200 24/19 A2994 NOSIG=
201710272200 METAR MRPV 272200Z 29011KT 4000 DZ BR BKN003 18/17 A3001 RERA NOSIG=
201710272300 METAR MRPV 272300Z 30005KT 4000 DZ BR BKN004 18/17 A3002 NOSIG=
201710280000 METAR MRPV 280000Z 01002KT 4500 -RA BR BKN005 18/17 A3004 NOSIG=
201710280100 METAR MRPV NIL=
201710280200 METAR MRPV NIL=
201710280300 METAR MRPV NIL=
201710280400 METAR MRPV NIL=
201710280500 METAR MRPV NIL=
201710280600 METAR MRPV NIL=
201710280700 METAR MRPV NIL=
201710280800 METAR MRPV NIL=
201710280900 METAR MRPV NIL=
201710281000 METAR MRPV NIL=
201710281100 METAR MRPV NIL=
201710281200 METAR MRPV 281200Z 12001KT 9999 -RA NSC 18/18 A3004 NOSIG=
201710281300 METAR MRPV 281300Z 26006KT 0100 -RA FG VV/// 18/18 A3007 NOSIG=
201710281400 METAR MRPV 281400Z 28002KT 9999 4000S -RA BCFG SCT002 BKN100 19/18 A3009 NOSIG=
201710281500 METAR MRPV 281500Z 17001KT 9999 VCFG FEW007 SCT120 BKN200 22/17 A3010 NOSIG=
201710281600 METAR MRPV 281600Z 27004KT 9999 FEW025 BKN120 24/17 A3010 NOSIG=
201710281700 METAR MRPV 281700Z 27009KT 9999 FEW035 BKN100 23/16 A3009 NOSIG=
201710281800 METAR MRPV 281800Z 27008KT 9999 FEW030 BKN100 23/16 A3006 NOSIG=
201710281900 METAR MRPV 281900Z 24005KT 9999 FEW040 BKN120 24/15 A3003 NOSIG=
201710282000 METAR MRPV 282000Z 26004KT CAVOK 24/14 A3001 NOSIG=
201710282100 METAR MRPV 282100Z 27007KT 9999 FEW040 BKN100 23/16 A3001 NOSIG=
201710282200 METAR MRPV 282200Z 29005KT 9999 FEW035 BKN100 23/15 A3003 NOSIG=
201710282300 METAR MRPV 282300Z 34002KT 9999 VCFG FEW010 BKN080 22/15 A3004 NOSIG=
201710290000 METAR MRPV 290000Z 15001KT CAVOK 20/17 A3005 NOSIG=
201710290100 METAR MRPV NIL=
201710290200 METAR MRPV NIL=
201710290300 METAR MRPV NIL=
201710290400 METAR MRPV NIL=
201710290500 METAR MRPV NIL=
201710290600 METAR MRPV NIL=
201710290700 METAR MRPV NIL=
201710290800 METAR MRPV NIL=
201710290900 METAR MRPV NIL=
201710291000 METAR MRPV NIL=
201710291100 METAR MRPV NIL=
201710291200 METAR MRPV 291200Z 09001KT CAVOK 17/16 A3008 NOSIG=
201710291300 METAR MRPV 291300Z 07002KT CAVOK 19/17 A3010 NOSIG=
201710291400 METAR MRPV 291400Z VRB02KT CAVOK 21/16 A3010 NOSIG=
201710291500 METAR MRPV 291500Z 30002KT CAVOK 24/16 A3010 NOSIG=
201710291600 METAR MRPV 291600Z 29007KT CAVOK 25/17 A3008 NOSIG=
201710291700 METAR MRPV 291700Z 27008KT CAVOK 26/16 A3006 NOSIG=
201710291800 METAR MRPV 291800Z 28008KT 9999 FEW020TCU FEW045 SCT180 26/18 A3003 NOSIG=
201710291900 METAR MRPV 291900Z COR 26007KT 9999 FEW020TCU SCT035 26/19 A3000 NOSIG=
201710292000 METAR MRPV 292000Z 27008KT 9999 FEW025TCU SCT030 SCT200 25/18 A2997 RESHRA NOSIG=
201710292100 METAR MRPV 292100Z 26008KT 9999 SHRA VCTS SCT020CB BKN035 24/19 A2998 TEMPO TS=
201710292200 METAR MRPV 292200Z 27006KT 8000 RA FEW008 SCT010 SCT080 22/20 A3001 NOSIG=
201710292300 METAR MRPV 292300Z 27001KT 9999 SCT010 BKN020 22/19 A3002 NOSIG=
201710300000 METAR MRPV 300000Z 12002KT 9999 BKN030 21/18 A3003 NOSIG=
201710300100 METAR MRPV NIL=
201710300200 METAR MRPV NIL=
201710300300 METAR MRPV NIL=
201710300400 METAR MRPV NIL=
201710300500 METAR MRPV NIL=
201710300600 METAR MRPV NIL=
201710300700 METAR MRPV NIL=
201710300800 METAR MRPV NIL=
201710300900 METAR MRPV NIL=
201710301000 METAR MRPV NIL=
201710301100 METAR MRPV NIL=
201710301200 METAR MRPV 301200Z 14003KT CAVOK 19/15 A3006 NOSIG=
201710301300 METAR MRPV 301300Z 00000KT CAVOK 21/16 A3001 NOSIG=
201710301400 METAR MRPV 301400Z 09006KT CAVOK 24/15 A3007 NOSIG=
201710301500 METAR MRPV 301500Z 12005KT 9999 FEW040 SCT100 BKN200 25/16 A3008 NOSIG=
201710301600 METAR MRPV 301600Z 26004KT 9999 SCT035 BKN200 24/17 A3009 NOSIG=
201710301700 METAR MRPV 301700Z COR 09008KT 9999 SCT035 BKN080 24/16 A3006 NOSIG=
201710301800 METAR MRPV 301800Z 07004KT 9999 FEW035 BKN100 24/16 A3004 NOSIG=
201710301900 METAR MRPV 301900Z 28004KT 9999 SCT030 BKN090 23/18 A3002 NOSIG=
201710302000 METAR MRPV 302000Z 32002KT 9999 SCT035 BKN090 24/18 A2999 NOSIG=
201710302100 METAR MRPV 302100Z 08009KT 9999 FEW030 BKN090 23/16 A2999 NOSIG=
201710302200 METAR MRPV 302200Z 09007KT 9999 FEW015TCU FEW035 BKN100 22/16 A2999 NOSIG=
201710302300 METAR MRPV 302300Z 10003KT 9999 FEW010 BKN100 22/16 A3002 NOSIG=
201710310000 METAR MRPV 310000Z VRB02KT 9999 FEW030 BKN100 20/18 A3003 NOSIG=
201710310100 METAR MRPV NIL=
201710310200 METAR MRPV NIL=
201710310300 METAR MRPV NIL=
201710310400 METAR MRPV NIL=
201710310500 METAR MRPV NIL=
201710310600 METAR MRPV NIL=
201710310700 METAR MRPV NIL=
201710310800 METAR MRPV NIL=
201710310900 METAR MRPV NIL=
201710311000 METAR MRPV NIL=
201710311100 METAR MRPV NIL=
201710311200 METAR MRPV 311200Z 13007KT 9999 SCT035 20/15 A3004 NOSIG=
201710311300 METAR MRPV 311300Z 11006KT 9999 FEW035 21/15 A3006 NOSIG=
201710311400 METAR MRPV 311400Z 12007KT 9999 FEW040 24/16 A3007 NOSIG=
201710311500 METAR MRPV 311500Z 08007KT 9999 FEW040 25/16 A3008 NOSIG=
201710311600 METAR MRPV 311600Z VRB02KT 9999 SCT040 SCT100 26/17 A3007 BECMG 29010KT=
201710311700 METAR MRPV 311700Z 27007KT 9999 SCT035 SCT090 24/17 A3004 NOSIG=
201710311800 METAR MRPV 311800Z 26006KT 9999 SHRA SCT015TCU SCT100 24/19 A3002 TEMPO 5000 TSRA SCT015CB=
201710311900 METAR MRPV 311900Z 33003KT 5000 RA SCT010TCU BKN020 22/20 A3001 NOSIG=
201710312000 METAR MRPV 312000Z 30001KT 8000 -RA VCFG SCT010 BKN100 22/20 A2999 NOSIG=
201710312100 METAR MRPV 312100Z 00000KT 9999 4000W RA BCFG FEW001 SCT015 BKN100 22/20 A2999 NOSIG=
201710312200 METAR MRPV 312200Z 31001KT 9999 4500W RA BCFG FEW001 SCT008 BKN100 21/20 A2999 NOSIG=
201710312300 METAR MRPV 312300Z 00000KT 9999 BCFG SCT020 BKN100 20/19 A2999 NOSIG=
201711010000 METAR MRPV 010000Z 12002KT 9999 FEW030 SCT100 20/18 A2999 NOSIG=
201711010100 METAR MRPV NIL=
201711010200 METAR MRPV NIL=
201711010300 METAR MRPV NIL=
201711010400 METAR MRPV NIL=
201711010500 METAR MRPV NIL=
201711010600 METAR MRPV NIL=
201711010700 METAR MRPV NIL=
201711010800 METAR MRPV NIL=
201711010900 METAR MRPV NIL=
201711011000 METAR MRPV NIL=
201711011100 METAR MRPV NIL=
201711011200 METAR MRPV 011200Z 12006KT 9999 FEW035 20/15 A3002 NOSIG=
201711011300 METAR MRPV 011300Z 13006KT 9999 FEW035 22/15 A3004 NOSIG=
201711011400 METAR MRPV 011400Z 12007KT 9999 FEW040 24/15 A3005 NOSIG=
201711011500 METAR MRPV 011500Z 08011KT 9999 FEW035 SCT250 25/15 A3006 NOSIG=
201711011600 METAR MRPV 011600Z 07007KT 9999 FEW035 SCT250 26/15 A3006 BECMG 29005KT=
201711011700 METAR MRPV 011700Z 08010KT 9999 SCT035 27/15 A3003 NOSIG=
201711011800 METAR MRPV 011800Z 28009KT 9999 BKN040 24/18 A3002 NOSIG=
201711011900 METAR MRPV 011900Z 28007KT 9999 BKN030 SCT080 24/18 A2999 NOSIG=
201711012000 METAR MRPV 012000Z 29004KT 9999 BKN030 SCT080 25/18 A2996 NOSIG=
201711012100 METAR MRPV 012100Z 26004KT 9999 SCT030 SCT080 25/19 A2994 NOSIG=
201711012200 METAR MRPV 012200Z 26005KT 9999 BKN035 SCT080 24/19 A2995 NOSIG=
201711012300 METAR MRPV 012300Z 27004KT 8000 VCFG SCT010 SCT030 22/20 A2996 NOSIG=
201711020000 METAR MRPV 020000Z 21001KT 9999 VCFG FEW002 BKN030 21/20 A2996 NOSIG=
201711020100 METAR MRPV NIL=
201711020200 METAR MRPV NIL=
201711020300 METAR MRPV NIL=
201711020400 METAR MRPV NIL=
201711020500 METAR MRPV NIL=
201711020600 METAR MRPV NIL=
201711020700 METAR MRPV NIL=
201711020800 METAR MRPV NIL=
201711020900 METAR MRPV NIL=
201711021000 METAR MRPV NIL=
201711021100 METAR MRPV NIL=
201711021200 METAR MRPV 021200Z 11007KT 9999 FEW040 BKN200 21/15 A3003 NOSIG=
201711021300 METAR MRPV 021300Z 12006KT 9999 FEW035 BKN200 22/15 A3005 NOSIG=
201711021400 METAR MRPV 021400Z 11007KT CAVOK 23/15 A3005 NOSIG=
201711021500 METAR MRPV 021500Z 08012KT 9999 FEW040 SCT120 BKN200 24/15 A3006 NOSIG=
201711021600 METAR MRPV 021600Z 07013KT 9999 FEW035 SCT120 BKN200 25/16 A3007 NOSIG=
201711021700 METAR MRPV 021700Z 10011KT 9999 FEW035 BKN120 24/16 A3005 NOSIG=
201711021800 METAR MRPV 021800Z 07012KT 9999 FEW035 SCT080 BKN120 24/16 A3004 NOSIG=
201711021900 METAR MRPV 021900Z 07012KT CAVOK 24/16 A3000 NOSIG=
201711022000 METAR MRPV 022000Z 07013KT 9999 FEW030 SCT100 BKN200 24/16 A2999 NOSIG=
201711022100 METAR MRPV 022100Z 08009KT 9999 FEW035 SCT100 BKN200 24/16 A2998 NOSIG=
201711022200 METAR MRPV 022200Z 07010KT 9999 SCT035 BKN100 24/16 A2999 NOSIG=
201711022300 METAR MRPV 022300Z 08007KT 9999 SCT025 BKN100 23/16 A3001 NOSIG=
201711030000 METAR MRPV 030000Z 09007KT 9999 VCFG FEW025 SCT100 22/16 A3002 NOSIG=
201711030100 METAR MRPV NIL=
201711030200 METAR MRPV NIL=
201711030300 METAR MRPV NIL=
201711030400 METAR MRPV NIL=
201711030500 METAR MRPV NIL=
201711030600 METAR MRPV NIL=
201711030700 METAR MRPV NIL=
201711030800 METAR MRPV NIL=
201711030900 METAR MRPV NIL=
201711031000 METAR MRPV NIL=
201711031100 METAR MRPV NIL=
201711031200 METAR MRPV 031200Z 11009KT 9999 FEW035 SCT200 21/16 A3003 NOSIG=
201711031300 METAR MRPV 031300Z 10008KT 9999 FEW035 SCT200 23/16 A3003 NOSIG=
201711031400 METAR MRPV 031400Z 12007KT 9999 FEW035 BKN200 25/16 A3006 NOSIG=
201711031500 METAR MRPV 031500Z 07012KT 9999 FEW030 SCT120 BKN200 25/17 A3008 NOSIG=
201711031600 METAR MRPV 031600Z 07010KT 9999 FEW040 SCT120 BKN200 27/17 A3006 NOSIG=
201711031700 METAR MRPV 031700Z 04010KT 9999 SCT040 SCT080 27/16 A3005 NOSIG=
201711031800 METAR MRPV 031800Z 07008KT 9999 SCT040 SCT080 28/16 A3001 NOSIG=
201711031900 METAR MRPV 031900Z 28006KT 9999 FEW035 SCT080 27/18 A2998 NOSIG=
201711032000 METAR MRPV 032000Z 27009KT 9999 SCT035 BKN200 27/18 A2996 NOSIG=
201711032100 METAR MRPV 032100Z 27008KT 9999 SCT035 BKN200 26/19 A2995 NOSIG=
201711032200 METAR MRPV 032200Z 28009KT 9999 FEW010 SCT025 BKN200 24/19 A2997 NOSIG=
201711032234 METAR MRPV 032234Z 27007KT 9000 4000S BR BKN010 22/20 A2998 NOSIG=
201711032300 METAR MRPV 032300Z 27007KT 4000 BR BKN010 22/20 A2999 NOSIG=
201711040000 METAR MRPV 040000Z 29006KT 3000 BR BKN010 21/20 A3001 NOSIG=
201711040100 METAR MRPV NIL=
201711040200 METAR MRPV NIL=
201711040300 METAR MRPV NIL=
201711040400 METAR MRPV NIL=
201711040500 METAR MRPV NIL=
201711040600 METAR MRPV NIL=
201711040700 METAR MRPV NIL=
201711040800 METAR MRPV NIL=
201711040900 METAR MRPV NIL=
201711041000 METAR MRPV NIL=
201711041100 METAR MRPV NIL=
201711041200 METAR MRPV 041200Z 12007KT 9999 FEW040 SCT080 BKN250 21/16 A3002 NOSIG=
201711041300 METAR MRPV 041300Z 11006KT 9999 FEW040 SCT140 BKN250 21/16 A3002 NOSIG=
201711041400 METAR MRPV 041400Z 07007KT 9999 FEW045 SCT100 BKN250 24/15 A3004 NOSIG=
201711041500 METAR MRPV 041500Z 11007KT CAVOK 27/14 A3004 NOSIG=
201711041600 METAR MRPV 041600Z 07007KT CAVOK 27/15 A3004 NOSIG=
201711041700 METAR MRPV 041700Z 28011KT 9999 SCT035 BKN200 24/18 A3001 NOSIG=
201711041800 METAR MRPV 041800Z 26007KT 9999 -RA SCT035 BKN120 24/17 A2998 NOSIG=
201711041900 METAR MRPV 041900Z 28010KT 9999 FEW010 SCT030 BKN100 24/18 A2998 NOSIG=
201711042000 METAR MRPV 042000Z 28011KT 9999 FEW020 SCT035 BKN160 24/18 A2997 NOSIG=
201711042100 METAR MRPV 042100Z 28008KT 9999 VCSH SCT020TCU SCT080 SCT200 23/19 A2996 NOSIG=
201711042200 METAR MRPV 042200Z 26003KT 9999 -SHRA SCT020TCU BKN120 22/19 A2996 RERA NOSIG=
201711042300 METAR MRPV 042300Z 06003KT 9999 +RA VCFG FEW002 SCT010 BKN040 20/19 A2998 NOSIG=
201711050000 METAR MRPV 050000Z 01001KT 9999 VCFG FEW010 BKN035 20/20 A2999 NOSIG=
201711050100 METAR MRPV NIL=
201711050200 METAR MRPV NIL=
201711050300 METAR MRPV NIL=
201711050400 METAR MRPV NIL=
201711050500 METAR MRPV NIL=
201711050600 METAR MRPV NIL=
201711050700 METAR MRPV NIL=
201711050800 METAR MRPV NIL=
201711050900 METAR MRPV NIL=
201711051000 METAR MRPV NIL=
201711051100 METAR MRPV NIL=
201711051200 METAR MRPV 051200Z 12008KT 9999 FEW040 SCT080 BKN250 20/14 A3001 NOSIG=
201711051300 METAR MRPV 051300Z 11007KT CAVOK 21/15 A3004 NOSIG=
201711051400 METAR MRPV 051400Z 10006KT CAVOK 23/16 A3006 NOSIG=
201711051500 METAR MRPV 051500Z 05006KT 9999 FEW040 BKN250 25/16 A3006 NOSIG=
201711051600 METAR MRPV 051600Z 28008KT 280V030 9999 SCT035 BKN200 24/16 A3007 NOSIG=
201711051700 METAR MRPV 051700Z 27006KT 9999 SCT035 SCT120 23/17 A3005 NOSIG=
201711051800 METAR MRPV 051800Z 11006KT 9999 -RA BKN025 24/17 A3003 NOSIG=
201711051900 METAR MRPV 051900Z 09011KT 9999 FEW035 BKN140 27/17 A2998 NOSIG=
201711052000 METAR MRPV 052000Z 08012KT 9999 SCT035 BKN140 26/15 A2997 NOSIG=
201711052100 METAR MRPV 052100Z 07011KT 9999 RA SCT030 BKN060 25/15 A2996 NOSIG=
201711052200 METAR MRPV 052200Z 08010KT 9999 FEW030 BKN100 23/16 A2998 RERA NOSIG=
201711052300 METAR MRPV 052300Z 08007KT 9999 SCT025 BKN120 22/16 A2999 NOSIG=
201711060000 METAR MRPV 060000Z 09007KT 9999 FEW010 BKN120 21/16 A3001 NOSIG=
201711060100 METAR MRPV NIL=
201711060200 METAR MRPV NIL=
201711060300 METAR MRPV NIL=
201711060400 METAR MRPV NIL=
201711060500 METAR MRPV NIL=
201711060600 METAR MRPV NIL=
201711060700 METAR MRPV NIL=
201711060800 METAR MRPV NIL=
201711060900 METAR MRPV NIL=
201711061000 METAR MRPV NIL=
201711061100 METAR MRPV NIL=
201711061200 METAR MRPV 061200Z 09005KT 9999 FEW035 20/16 A3001 NOSIG=
201711061300 METAR MRPV 061300Z VRB02KT CAVOK 22/17 A3002 NOSIG=
201711061400 METAR MRPV 061400Z 11012KT CAVOK 23/15 A3007 NOSIG=
201711061500 METAR MRPV 061500Z 08012KT CAVOK 25/15 A3007 NOSIG=
201711061600 METAR MRPV 061600Z 06013KT 9999 FEW045 26/14 A3007 NOSIG=
201711061700 METAR MRPV 061700Z 07011KT 9999 FEW040 27/13 A3005 NOSIG=
201711061800 METAR MRPV 061800Z 09010KT 9999 SCT045 27/15 A3001 NOSIG=
201711061900 METAR MRPV 061900Z 07006KT 9999 SCT045 27/15 A2999 NOSIG=
201711062000 METAR MRPV 062000Z 09006KT 9999 FEW020CB FEW020TCU FEW040 26/16 A2996 NOSIG=
201711062100 METAR MRPV 062100Z 28012KT 9999 4000NE SHRA SCT020TCU SCT020 25/19 A2997 NOSIG=
201711062200 METAR MRPV 062200Z 21002KT 9999 FEW035 BKN100 21/19 A2998 NOSIG=
201711062300 METAR MRPV 062300Z 20001KT 9999 FEW035 BKN100 20/19 A2999 NOSIG=
201711070000 METAR MRPV 070000Z 34002KT 9999 FEW020 BKN100 20/19 A3000 NOSIG=
201711070100 METAR MRPV NIL=
201711070200 METAR MRPV NIL=
201711070300 METAR MRPV NIL=
201711070400 METAR MRPV NIL=
201711070500 METAR MRPV NIL=
201711070600 METAR MRPV NIL=
201711070700 METAR MRPV NIL=
201711070800 METAR MRPV NIL=
201711070900 METAR MRPV NIL=
201711071000 METAR MRPV NIL=
201711071100 METAR MRPV NIL=
201711071200 METAR MRPV 071200Z 12008KT CAVOK 19/14 A3001 NOSIG=
201711071300 METAR MRPV 071300Z 12008G18KT CAVOK 22/14 A3004 NOSIG=
201711071400 METAR MRPV 071400Z 09009KT CAVOK 23/14 A3004 NOSIG=
201711071500 METAR MRPV 071500Z 08011KT CAVOK 24/15 A3005 NOSIG=
201711071600 METAR MRPV 071600Z 07013KT 9999 FEW045 BKN200 26/16 A3003 NOSIG=
201711071700 METAR MRPV 071700Z 05009KT 9999 SCT045 SCT100 27/16 A3001 NOSIG=
201711071800 METAR MRPV 071800Z 05009KT 9999 FEW045 BKN250 26/14 A2998 NOSIG=
201711071900 METAR MRPV 071900Z 09010KT 9999 SCT040 BKN250 28/16 A2995 NOSIG=
201711072000 METAR MRPV 072000Z 10008KT 9999 FEW040 SCT100 BKN250 27/15 A2992 NOSIG=
201711072100 METAR MRPV 072100Z 31006KT 9999 BKN035 24/19 A2992 NOSIG=
201711072200 METAR MRPV 072200Z 01001KT 8000 BCFG BKN025 23/19 A2994 NOSIG=
201711072300 METAR MRPV 072300Z 11004KT 9999 -RA FEW010 SCT030 BKN100 21/17 A2996 NOSIG=
201711080000 METAR MRPV 080000Z 09009KT 9999 SCT015 20/16 A2997 NOSIG=
201711080100 METAR MRPV NIL=
201711080200 METAR MRPV NIL=
201711080300 METAR MRPV NIL=
201711080400 METAR MRPV NIL=
201711080500 METAR MRPV NIL=
201711080600 METAR MRPV NIL=
201711080700 METAR MRPV NIL=
201711080800 METAR MRPV NIL=
201711080900 METAR MRPV NIL=
201711081000 METAR MRPV NIL=
201711081100 METAR MRPV NIL=
201711081200 METAR MRPV 081200Z 10010KT 9999 FEW030 BKN200 21/15 A2997 NOSIG=
201711081300 METAR MRPV 081300Z 09011KT 9999 FEW035 BKN200 21/14 A2998 NOSIG=
201711081400 METAR MRPV 081400Z 11013KT 9999 FEW030 BKN200 22/15 A2999 NOSIG=
201711081500 METAR MRPV 081500Z 08015G28KT 9999 FEW035 BKN200 24/15 A3001 NOSIG=
201711081600 METAR MRPV 081600Z 08016KT 9999 FEW035 BKN200 24/15 A3000 NOSIG=
201711081700 METAR MRPV 081700Z 08014KT 9999 FEW035 BKN200 24/14 A2998 NOSIG=
201711081800 METAR MRPV 081800Z 07013KT 9999 FEW035 BKN200 26/15 A2995 NOSIG=
201711081900 METAR MRPV 081900Z COR 08013KT 9999 SCT035 BKN200 26/15 A2993 NOSIG=
201711082000 METAR MRPV 082000Z 09012KT 9999 FEW010TCU FEW035 BKN200 25/14 A2991 NOSIG=
201711082100 METAR MRPV 082100Z 08014KT 9999 FEW035 BKN200 24/15 A2990 NOSIG=
201711082200 METAR MRPV 082200Z 09012KT 9999 FEW035 BKN200 23/14 A2991 NOSIG=
201711082300 METAR MRPV 082300Z 08010KT 9999 FEW035 BKN200 22/15 A2992 NOSIG=
201711090000 METAR MRPV 090000Z 10009G19KT 9999 SCT025 BKN200 21/15 A2994 NOSIG=
201711090100 METAR MRPV NIL=
201711090200 METAR MRPV NIL=
201711090300 METAR MRPV NIL=
201711090400 METAR MRPV NIL=
201711090500 METAR MRPV NIL=
201711090600 METAR MRPV NIL=
201711090700 METAR MRPV NIL=
201711090800 METAR MRPV NIL=
201711090900 METAR MRPV NIL=
201711091000 METAR MRPV NIL=
201711091100 METAR MRPV NIL=
201711091200 METAR MRPV 091200Z 11006KT CAVOK 20/14 A2997 NOSIG=
201711091300 METAR MRPV 091300Z 12007KT 9999 FEW035 BKN120 20/14 A2998 NOSIG=
201711091400 METAR MRPV 091400Z 12007KT CAVOK 21/13 A3000 NOSIG=
201711091500 METAR MRPV 091500Z 12010KT FEW035 SCT100 BKN200 23/14 A3001 NOSIG=
201711091600 METAR MRPV 091600Z 10010KT CAVOK 25/14 A3001 NOSIG=
201711091700 METAR MRPV 091700Z 10009KT CAVOK 26/14 A2997 NOSIG=
201711091800 METAR MRPV 091800Z 08010KT 9999 FEW035 SCT060 BKN200 27/16 A2995 NOSIG=
201711091900 METAR MRPV 091900Z 06008KT 9999 SCT040 BKN080 25/16 A2993 NOSIG=
201711092000 METAR MRPV 092000Z 09006KT 9999 SCT030 BKN080 23/16 A2992 NOSIG=
201711092100 METAR MRPV 092100Z 09007KT 9999 SCT030 BKN080 23/16 A2993 NOSIG=
201711092200 METAR MRPV 092200Z 07009KT 9999 FEW010 BKN030 21/15 A2994 NOSIG=
201711092300 METAR MRPV 092300Z 08011KT 9999 BKN030 SCT100 21/14 A2994 NOSIG=
201711100000 METAR MRPV 100000Z 08010KT 9999 FEW030 BKN100 20/15 A2997 NOSIG=
201711100100 METAR MRPV NIL=
201711100200 METAR MRPV NIL=
201711100300 METAR MRPV NIL=
201711100400 METAR MRPV NIL=
201711100500 METAR MRPV NIL=
201711100600 METAR MRPV NIL=
201711100700 METAR MRPV NIL=
201711100800 METAR MRPV NIL=
201711100900 METAR MRPV NIL=
201711101000 METAR MRPV NIL=
201711101100 METAR MRPV NIL=
201711101200 METAR MRPV 101200Z 12005KT CAVOK 19/13 A2998 NOSIG=
201711101300 METAR MRPV 101300Z 12006KT CAVOK 22/13 A3000 NOSIG=
201711101400 METAR MRPV 101400Z 09011KT CAVOK 23/14 A3000 NOSIG=
201711101500 METAR MRPV 101500Z 08010KT CAVOK 25/15 A3000 NOSIG=
201711101600 METAR MRPV 101600Z 06008KT CAVOK 26/13 A2999 NOSIG=
201711101700 METAR MRPV 101700Z 05003KT 090V180 CAVOK 27/13 A2996 NOSIG=
201711101800 METAR MRPV 101800Z 26007KT CAVOK 27/16 A2993 NOSIG=
201711101900 METAR MRPV 101900Z 28009KT 9999 FEW040 BKN250 27/16 A2991 NOSIG=
201711102000 METAR MRPV 102000Z 27009KT 9999 FEW040 BKN250 26/17 A2989 NOSIG=
201711102100 METAR MRPV 102100Z 26007KT 9999 FEW045 BKN200 25/18 A2988 NOSIG=
201711102200 METAR MRPV 102200Z 26006KT 9999 SCT020 BKN200 23/18 A2990 NOSIG=
201711102300 METAR MRPV 102300Z 27007KT 8000 BCFG BKN014 22/19 A2992 NOSIG=
201711110000 METAR MRPV 110000Z 28008KT 8000 BCFG BKN014 21/20 A2994 NOSIG=
201711110100 METAR MRPV NIL=
201711110200 METAR MRPV NIL=
201711110300 METAR MRPV NIL=
201711110400 METAR MRPV NIL=
201711110500 METAR MRPV NIL=
201711110600 METAR MRPV NIL=
201711110700 METAR MRPV NIL=
201711110800 METAR MRPV NIL=
201711110900 METAR MRPV NIL=
201711111000 METAR MRPV NIL=
201711111100 METAR MRPV NIL=
201711111200 METAR MRPV 111200Z 11007KT CAVOK 20/14 A2997 NOSIG=
201711111300 METAR MRPV 111300Z 12003KT CAVOK 21/14 A2998 NOSIG=
201711111400 METAR MRPV 111400Z 12006KT CAVOK 22/13 A2998 NOSIG=
201711111500 METAR MRPV 111500Z 08010KT CAVOK 25/14 A2998 NOSIG=
201711111600 METAR MRPV 111600Z 07011KT 9999 FEW040 BKN200 26/16 A2997 NOSIG=
201711111700 METAR MRPV 111700Z 08010KT 9999 FEW040 SCT200 27/15 A2994 NOSIG=
201711111800 METAR MRPV 111800Z 29008KT 280V040 9999 SCT040 SCT200 26/16 A2991 NOSIG=
201711111900 METAR MRPV 111900Z 26006KT 9999 SCT040 SCT200 26/18 A2990 NOSIG=
201711112000 METAR MRPV 112000Z 26004KT 9999 SCT030 SCT200 25/17 A2988 NOSIG=
201711112100 METAR MRPV 112100Z 26004KT 9999 BKN035 SCT200 25/19 A2987 NOSIG=
201711112200 METAR MRPV 112200Z 29006KT 9999 BKN020 SCT200 23/20 A2988 REDZ NOSIG=
201711112300 METAR MRPV 112300Z 31002KT 9999 SCT015 SCT020 22/20 A2989 NOSIG=
201711120000 METAR MRPV 120000Z 33002KT 9999 FEW015 SCT020 22/20 A2992 NOSIG=
201711120100 METAR MRPV NIL=
201711120200 METAR MRPV NIL=
201711120300 METAR MRPV NIL=
201711120400 METAR MRPV NIL=
201711120500 METAR MRPV NIL=
201711120600 METAR MRPV NIL=
201711120700 METAR MRPV NIL=
201711120800 METAR MRPV NIL=
201711120900 METAR MRPV NIL=
201711121000 METAR MRPV NIL=
201711121100 METAR MRPV NIL=
201711121200 METAR MRPV 121200Z 00000KT CAVOK 18/17 A2996 NOSIG=
201711121300 METAR MRPV 121300Z 11002KT CAVOK 21/16 A2997 NOSIG=
201711121400 METAR MRPV 121400Z 35001KT 9999 FEW010 BKN200 22/17 A2998 NOSIG=
201711121500 METAR MRPV 121500Z 29006KT 9999 FEW015 BKN200 24/17 A2999 NOSIG=
201711121600 METAR MRPV 121600Z 28008KT 9999 SCT015 SCT200 24/17 A2998 NOSIG=
201711121700 METAR MRPV 121700Z 29008KT 9999 SCT015 SCT200 24/17 A2997 NOSIG=
201711121800 METAR MRPV 121800Z 29009KT 9999 SCT025 BKN200 25/17 A2994 NOSIG=
201711121900 METAR MRPV 121900Z 28008KT 9999 SCT035 SCT080 26/18 A2991 NOSIG=
201711122000 METAR MRPV 122000Z 27010KT 9999 SCT035 BKN200 25/18 A2989 NOSIG=
201711122100 METAR MRPV 122100Z 28012KT 9999 FEW035 BKN200 24/17 A2988 NOSIG=
201711122200 METAR MRPV 122200Z 28012KT 9999 FEW035 BKN200 25/19 A2988 NOSIG=
201711122300 METAR MRPV 122300Z 29010KT 8000 SCT002 BKN005 22/20 A2990 NOSIG=
201711130000 METAR MRPV 130000Z 28008KT 8000 BKN005 21/20 A2993 NOSIG=
201711130100 METAR MRPV NIL=
201711130200 METAR MRPV NIL=
201711130300 METAR MRPV NIL=
201711130400 METAR MRPV NIL=
201711130500 METAR MRPV NIL=
201711130600 METAR MRPV NIL=
201711130700 METAR MRPV NIL=
201711130800 METAR MRPV NIL=
201711130900 METAR MRPV NIL=
201711131000 METAR MRPV NIL=
201711131100 METAR MRPV NIL=
201711131200 METAR MRPV NIL=
201711131300 METAR MRPV 131300Z 09006KT CAVOK 24/15 A2997 NOSIG=
201711131400 METAR MRPV 131400Z 12007KT CAVOK 24/15 A2998 NOSIG=
201711131500 METAR MRPV 131500Z 28008KT CAVOK 24/17 A2998 NOSIG=
201711131600 METAR MRPV 131600Z 27006KT CAVOK 25/17 A2997 NOSIG=
201711131700 METAR MRPV 131700Z 28009KT 9999 FEW040 26/18 A2995 NOSIG=
201711131800 METAR MRPV 131800Z 27010KT 9999 FEW035 26/18 A2993 NOSIG=
201711131900 METAR MRPV 131900Z 27010KT 9999 SCT035 BKN200 26/18 A2991 NOSIG=
201711132000 METAR MRPV 132000Z 27007KT 9999 SCT035 BKN200 26/19 A2988 NOSIG=
201711132100 METAR MRPV 132100Z 27011KT 9999 SCT035 SCT100 25/19 A2988 NOSIG=
201711132200 METAR MRPV 132200Z 06005KT 9999 VCTS VCFG FEW005 SCT0015CB BKN040 23/19 A2990 NOSIG=
201711132300 METAR MRPV 132300Z 09004KT 9999 -RA VCFG SCT0015 BKN100 20/19 A2992 RETSRA NOSIG=
201711140000 METAR MRPV 140000Z 16001KT 9999 FEW035 BKN100 21/20 A2993 NOSIG=
201711140100 METAR MRPV NIL=
201711140200 METAR MRPV NIL=
201711140300 METAR MRPV NIL=
201711140400 METAR MRPV NIL=
201711140500 METAR MRPV NIL=
201711140600 METAR MRPV NIL=
201711140700 METAR MRPV NIL=
201711140800 METAR MRPV NIL=
201711140900 METAR MRPV NIL=
201711141000 METAR MRPV NIL=
201711141100 METAR MRPV NIL=
201711141200 METAR MRPV 141200Z 32004KT 2000 BR SCT001 BKN003 19/19 A2998 NOSIG=
201711141300 METAR MRPV 141300Z 00000KT 9999 SCT010 BKN040 20/19 A3000 NOSIG=
201711141400 METAR MRPV 141400Z 33002KT 9999 FEW008 BKN030 20/20 A3002 NOSIG=
201711141500 METAR MRPV 141500Z 29003KT 9999 -RA SCT006 BKN030 21/19 A3004 NOSIG=
201711141600 METAR MRPV 141600Z 25001KT 8000 DZ VCFG FEW006 SCT030 BKN100 22/20 A3003 NOSIG=
201711141700 METAR MRPV 141700Z 17001KT 9999 FEW030 SCT100 BKN200 25/19 A3000 REDZ NOSIG=
201711141800 METAR MRPV 141800Z 27003KT 9999 SCT030 SCT140 25/17 A2996 NOSIG=
201711141900 METAR MRPV 141900Z 24004KT 9999 FEW030 SCT120 BKN200 26/17 A2993 NOSIG=
201711142000 METAR MRPV 142000Z 26004KT 9999 FEW025 BKN200 24/18 A2991 NOSIG=
201711142100 METAR MRPV 142100Z 26006KT 9999 4000S BCFG SCT010 BKN030 23/20 A2990 NOSIG=
201711142200 METAR MRPV 142200Z 27006KT 9999 VCFG FEW010 SCT030 BKN100 21/20 A2991 NOSIG=
201711142300 METAR MRPV 142300Z 29008KT 2000 -RA BR BKN005 21/20 A2994 NOSIG=
201711150000 METAR MRPV 150000Z 29003KT 5000 BCFG FEW005 BKN050 20/20 A2996 NOSIG=
201711150100 METAR MRPV NIL=
201711150200 METAR MRPV NIL=
201711150300 METAR MRPV NIL=
201711150400 METAR MRPV NIL=
201711150500 METAR MRPV NIL=
201711150600 METAR MRPV NIL=
201711150700 METAR MRPV NIL=
201711150800 METAR MRPV NIL=
201711150900 METAR MRPV NIL=
201711151000 METAR MRPV NIL=
201711151100 METAR MRPV NIL=
201711151200 METAR MRPV 151200Z 00000KT 8000 VCFG FEW006 BKN030 20/19 A3000 NOSIG=
201711151300 METAR MRPV 151300Z 16002KT 9999 FEW030 BKN100 20/19 A3003 NOSIG=
201711151400 METAR MRPV 151400Z 16002KT 9999 FEW020 BKN100 22/18 A3003 NOSIG=
201711151500 METAR MRPV 151500Z 25002KT 9999 FEW030 SCT100 BKN200 24/17 A3005 NOSIG=
201711151600 METAR MRPV 151600Z 28006KT 9999 SCT020 BKN100 22/19 A3004 NOSIG=
201711151700 METAR MRPV 151700Z 27008KT 9999 FEW020 BKN100 24/18 A3003 NOSIG=
201711151800 METAR MRPV 151800Z 27009KT 9999 SCT020 BKN100 24/18 A2998 NOSIG=
201711151900 METAR MRPV 151900Z 28012KT 9999 BKN020 SCT100 23/18 A2997 NOSIG=
201711152000 METAR MRPV 152000Z 29010KT 8000 BKN008 FEW080 21/19 A2997 NOSIG=
201711152100 METAR MRPV 152100Z 28007KT 8000 BCFG SCT010 BKN100 22/19 A2996 NOSIG=
201711152200 METAR MRPV 152200Z 29006KT 9000 FEW015 SCT030 BKN100 21/18 A2996 NOSIG=
201711152300 METAR MRPV 152300Z VRB02KT 9999 VCFG FEW015 SCT070 BKN200 21/18 A2998 NOSIG=
201711160000 METAR MRPV 160000Z 28007KT 9999 FEW015 BKN080 20/19 A3000 NOSIG=
201711160100 METAR MRPV NIL=
201711160200 METAR MRPV NIL=
201711160300 METAR MRPV NIL=
201711160400 METAR MRPV NIL=
201711160500 METAR MRPV NIL=
201711160600 METAR MRPV NIL=
201711160700 METAR MRPV NIL=
201711160800 METAR MRPV NIL=
201711160900 METAR MRPV NIL=
201711161000 METAR MRPV NIL=
201711161100 METAR MRPV NIL=
201711161200 METAR MRPV 161200Z VRB02KT 9999 2000SW BCFG FEW005 SCT080 18/16 A3002 NOSIG=
201711161300 METAR MRPV 161300Z 34002KT 9999 FEW030 20/17 A3003 NOSIG=
201711161400 METAR MRPV 161400Z VRB2KT 9999 FEW030 24/16 A3005 NOSIG=
201711161500 METAR MRPV 161500Z 08011KT 9999 FEW030 SCT200 25/16 A3006 NOSIG=
201711161600 METAR MRPV 161600Z 08011KT 9999 FEW030 BKN070 24/16 A3005 NOSIG=
201711161700 METAR MRPV 161700Z 10010KT 9999 SCT035 BKN090 24/16 A3004 NOSIG=
201711161800 METAR MRPV 161800Z 09006KT 9999 SCT030 BKN090 23/17 A3003 NOSIG=
201711161900 METAR MRPV 161900Z 07007KT 9999 SCT030 BKN090 24/17 A3000 NOSIG=
201711162000 METAR MRPV 162000Z 09006KT 9999 SCT035 BKN090 24/16 A2998 TEMPO 27005KT=
201711162100 METAR MRPV 162100Z 26003KT 9999 FEW035 BKN090 24/17 A2997 NOSIG=
201711162200 METAR MRPV 162200Z 25005KT 9999 FEW030 BKN100 22/19 A2997 NOSIG=
201711162300 METAR MRPV 162300Z 10007KT 9999 SCT030 SCT100 22/16 A3000 NOSIG=
201711170000 METAR MRPV 170000Z 08008KT 9999 DZ FEW020 BKN100 21/16 A3003 NOSIG=
201711170100 METAR MRPV NIL=
201711170200 METAR MRPV NIL=
201711170300 METAR MRPV NIL=
201711170400 METAR MRPV NIL=
201711170500 METAR MRPV NIL=
201711170600 METAR MRPV NIL=
201711170700 METAR MRPV NIL=
201711170800 METAR MRPV NIL=
201711170900 METAR MRPV NIL=
201711171000 METAR MRPV NIL=
201711171100 METAR MRPV NIL=
201711171200 METAR MRPV 171200Z 13006KT CAVOK 19/13 A3004 NOSIG=
201711171300 METAR MRPV 171300Z 10010KT CAVOK 21/13 A3006 NOSIG=
201711171400 METAR MRPV 171400Z 09015KT 9999 FEW045 22/13 A3008 NOSIG=
201711171500 METAR MRPV 171500Z 09012KT CAVOK 24/15 A3009 NOSIG=
201711171600 METAR MRPV 171600Z 09012KT 9999 FEW040 24/15 A3008 NOSIG=
201711171700 METAR MRPV 171700Z 08014KT 9999 FEW040 SCT200 25/14 A3007 NOSIG=
201711171800 METAR MRPV 171800Z 07011KT 9999 FEW035 SCT200 25/14 A3003 NOSIG=
201711171900 METAR MRPV 171900Z 08009KT CAVOK 26/15 A3000 NOSIG=
201711172000 METAR MRPV 172000Z 06009KT CAVOK 27/15 A2997 NOSIG=
201711172100 METAR MRPV 172100Z 08011KT 9999 FEW025TCU FEW040 25/14 A2997 NOSIG=
201711172200 METAR MRPV 172200Z 08013KT 9999 FEW040 24/13 A2998 NOSIG=
201711172300 METAR MRPV 172300Z 08012KT 9999 FEW030 22/14 A2999 NOSIG=
201711180000 METAR MRPV 180000Z 08010KT 9999 FEW030 20/13 A3001 NOSIG=
201711180100 METAR MRPV NIL=
201711180200 METAR MRPV NIL=
201711180300 METAR MRPV NIL=
201711180400 METAR MRPV NIL=
201711180500 METAR MRPV NIL=
201711180600 METAR MRPV NIL=
201711180700 METAR MRPV NIL=
201711180800 METAR MRPV NIL=
201711180900 METAR MRPV NIL=
201711181000 METAR MRPV NIL=
201711181100 METAR MRPV NIL=
201711181200 METAR MRPV 181200Z 13007KT CAVOK 18/11 A3001 NOSIG=
201711181300 METAR MRPV 181300Z 14007KT CAVOK 20/10 A3003 NOSIG=
201711181400 METAR MRPV 181400Z 11008KT CAVOK 23/12 A3005 NOSIG=
201711181500 METAR MRPV 181500Z 09010KT CAVOK 24/13 A3005 NOSIG=
201711181600 METAR MRPV 181600Z 08015KT CAVOK 24/13 A3003 NOSIG=
201711181700 METAR MRPV 181700Z 07013KT 9999 FEW040 25/14 A3001 NOSIG=
201711181800 METAR MRPV 181800Z 08008KT 9999 FEW040 26/13 A2998 NOSIG=
201711181900 METAR MRPV 181900Z 28009KT 9999 FEW045 25/15 A2995 NOSIG=
201711182000 METAR MRPV 182000Z 26006KT 9999 FEW035 25/16 A2993 NOSIG=
201711182100 METAR MRPV 182100Z 27009KT 9999 FEW025TCU FEW035 25/17 A2993 NOSIG=
201711182200 METAR MRPV 182200Z 26007KT 9999 SCT020TCU SCT025 22/17 A2993 NOSIG=
201711182300 METAR MRPV 182300Z 19001KT 8000 RA SCT020TCU BKN030 22/17 A2993 NOSIG=
201711190000 METAR MRPV 190000Z 09005KT 9999 -RA BKN030 19/16 A2997 NOSIG=
201711190100 METAR MRPV NIL=
201711190200 METAR MRPV NIL=
201711190300 METAR MRPV NIL=
201711190400 METAR MRPV NIL=
201711190500 METAR MRPV NIL=
201711190600 METAR MRPV NIL=
201711190700 METAR MRPV NIL=
201711190800 METAR MRPV NIL=
201711190900 METAR MRPV NIL=
201711191000 METAR MRPV NIL=
201711191100 METAR MRPV NIL=
201711191200 METAR MRPV 191200Z 13013KT 9999 FEW025 19/14 A3000 NOSIG=
201711191300 METAR MRPV 191300Z 11008KT 9999 FEW025 21/13 A3002 NOSIG=
201711191400 METAR MRPV 191400Z 11010KT CAVOK 22/13 A3003 NOSIG=
201711191500 METAR MRPV 191500Z 08014KT CAVOK 23/13 A3004 NOSIG=
201711191600 METAR MRPV 191600Z 08011KT 9999 FEW040 25/13 A3002 NOSIG=
201711191700 METAR MRPV 191700Z 08011KT 9999 FEW044 26/12 A3000 NOSIG=
201711191800 METAR MRPV 191800Z 08008KT 9999 FEW045 26/13 A2998 NOSIG=
201711191900 METAR MRPV 191900Z 08009KT 9999 SCT045 27/13 A2995 NOSIG=
201711192000 METAR MRPV 192000Z 07008KT 9999 FEW020TCU SCT035 26/13 A2993 BECMG 29005KT=
201711192100 METAR MRPV 192100Z 27007KT 9999 FEW025 BKN090 22/18 A2992 NOSIG=
201711192200 METAR MRPV 192200Z 27006KT 9999 FEW020 SCT035 BKN120 22/18 A2993 NOSIG=
201711192300 METAR MRPV 192300Z 33001KT 9999 SCT025 BKN100 21/18 A2995 NOSIG=
201711192357 METAR MRPV 200000Z 10005KT 9999 FEW010 SCT030 21/16 A2997 NOSIG=
201711200000 METAR MRPV 200000Z 10005KT 9999 FEW010 SCT030 21/16 A2997 NOSIG=
201711200100 METAR MRPV NIL=
201711200200 METAR MRPV NIL=
201711200300 METAR MRPV NIL=
201711200400 METAR MRPV NIL=
201711200500 METAR MRPV NIL=
201711200600 METAR MRPV NIL=
201711200700 METAR MRPV NIL=
201711200800 METAR MRPV NIL=
201711200900 METAR MRPV NIL=
201711201000 METAR MRPV NIL=
201711201100 METAR MRPV NIL=
201711201200 METAR MRPV 201200Z 10011KT 9999 VCFG FEW040 BKN120 19/14 A3000 NOSIG=
201711201300 METAR MRPV 201300Z 10013KT 9999 FEW035 SCT120 21/14 A3002 NOSIG=
201711201400 METAR MRPV 201400Z 09012KT 9999 FEW040 23/14 A3004 NOSIG=
201711201500 METAR MRPV 201500Z 10011KT 9999 FEW040 24/14 A3003 NOSIG=
201711201600 METAR MRPV 201600Z 07015KT 9999 FEW040 24/14 A3002 NOSIG=
201711201700 METAR MRPV 201700Z 09014KT 9999 SCT040 24/15 A3001 NOSIG=
201711201800 METAR MRPV 201800Z 08012KT 9999 FEW040 SCT070 24/15 A2999 NOSIG=
201711201900 METAR MRPV 201900Z 09013KT 9999 FEW035 SCT250 25/16 A2996 NOSIG=
201711202000 METAR MRPV 202000Z 09011KT 9999 SCT035 24/16 A2993 NOSIG=
201711202100 METAR MRPV 202100Z 09010KT 9999 SCT020 BKN090 23/15 A2992 TEMPO 24005KT=
201711202200 METAR MRPV 202200Z 06008KT 9999 -RA BCFG FEW005 BKN025 22/16 A2994 NOSIG=
201711202300 METAR MRPV 202300Z 09012KT 9999 BCFG FEW005 BKN030 21/15 A2996 NOSIG=
201711210000 METAR MRPV 210000Z 07012KT 9999 VCFG FEW007 SCT025 BKN080 21/15 A2997 NOSIG=
201711210100 METAR MRPV NIL=
201711210200 METAR MRPV NIL=
201711210300 METAR MRPV NIL=
201711210400 METAR MRPV NIL=
201711210500 METAR MRPV NIL=
201711210600 METAR MRPV NIL=
201711210700 METAR MRPV NIL=
201711210800 METAR MRPV NIL=
201711210900 METAR MRPV NIL=
201711211000 METAR MRPV NIL=
201711211100 METAR MRPV NIL=
201711211200 METAR MRPV 211200Z 12004KT CAVOK 20/15 A3000 NOSIG=
201711211300 METAR MRPV 211300Z 09008KT CAVOK 21/15 A3001 NOSIG=
201711211400 METAR MRPV 211400Z 08007KT 9999 FEW045 BKN140 23/14 A3004 NOSIG=
201711211500 METAR MRPV 211500Z 01004KT 9999 FEW040 SCT140 25/16 A3004 NOSIG=
201711211600 METAR MRPV 211600Z 26006KT 9999 FEW040 BKN120 25/16 A3004 NOSIG=
201711211700 METAR MRPV 211700Z 28009KT 9999 FEW035 BKN100 24/16 A3002 NOSIG=
201711211800 METAR MRPV 211800Z 27010KT 8000 FEW020TCU FEW035 BKN120 24/18 A2999 NOSIG=
201711211900 METAR MRPV 211900Z 27010KT 8000 FEW015TCU BKN035 23/18 A2997 NOSIG=
201711212000 METAR MRPV 212000Z 29009KT 5000 BCFG FEW010 FEW020TCU BKN030 22/18 A2996 NOSIG=
201711212100 METAR MRPV 212100Z 27004KT 5000 RA SCT015 BKN100 21/18 A2995 NOSIG=
201711212200 METAR MRPV 212200Z 33003KT 9999 4000E -RA SCT010 BKN100 21/19 A2996 NOSIG=
201711212300 METAR MRPV 212300Z 02002KT 4000 RA FEW010 BKN015 21/19 A2997 NOSIG=
201711220000 METAR MRPV 220000Z 14004KT 2000 RA BKN010 19/18 A3000 NOSIG=
201711220100 METAR MRPV NIL=
201711220200 METAR MRPV NIL=
201711220300 METAR MRPV NIL=
201711220400 METAR MRPV NIL=
201711220500 METAR MRPV NIL=
201711220600 METAR MRPV NIL=
201711220700 METAR MRPV NIL=
201711220800 METAR MRPV NIL=
201711220900 METAR MRPV NIL=
201711221000 METAR MRPV NIL=
201711221100 METAR MRPV NIL=
201711221200 METAR MRPV 221200Z 11001KT 9999 VCFG NSC 19/18 A3002 NOSIG=
201711221300 METAR MRPV 221300Z 25001KT 9999 4000W BCFG FEW005 BKN080 20/19 A3003 NOSIG=
201711221400 METAR MRPV 221400Z 31002KT 9999 4000SW BCFG FEW005 BKN120 23/18 A3005 NOSIG=
201711221500 METAR MRPV 221500Z 07007KT 8000 BCFG FEW005 BKN100 24/17 A3007 NOSIG=
201711221600 METAR MRPV 221600Z 27005KT 270V090 9000 4000N FEW025 BKN120 23/19 A3006 NOSIG=
201711221700 METAR MRPV 221700Z 29005KT 9000 4000N FEW030 BKN120 24/18 A3003 NOSIG=
201711221800 METAR MRPV 221800Z 26005KT 9000 VCFG SCT025 BKN100 23/18 A3001 NOSIG=
201711221900 METAR MRPV 221900Z 27009KT 8000 -RA BCFG FEW010 BKN030 22/19 A2999 NOSIG=
201711222000 METAR MRPV 222000Z 24001KT 9000 RA BCFG BKN020 SCT100 21/19 A2997 NOSIG=
201711222100 METAR MRPV 222100Z 27002KT 5000 RA BR BKN014 21/20 A2997 NOSIG=
201711222200 METAR MRPV 222200Z 33001KT 8000 RA FEW010 BKN100 21/20 A2997 NOSIG=
201711222300 METAR MRPV 222300Z 00000KT 9999 FEW005 BKN100 21/19 A2999 RERA NOSIG=
201711230000 METAR MRPV 230000Z 00000KT 9999 FEW010 BKN100 20/19 A3000 NOSIG=
201711230100 METAR MRPV NIL=
201711230200 METAR MRPV NIL=
201711230300 METAR MRPV NIL=
201711230400 METAR MRPV NIL=
201711230500 METAR MRPV NIL=
201711230600 METAR MRPV NIL=
201711230700 METAR MRPV NIL=
201711230800 METAR MRPV NIL=
201711230900 METAR MRPV NIL=
201711231000 METAR MRPV NIL=
201711231100 METAR MRPV NIL=
201711231200 METAR MRPV 231200Z 11010KT 9999 FEW030 BKN100 20/16 A3000 NOSIG=
201711231300 METAR MRPV 231300Z 11008KT 9999 FEW030 BKN110 21/16 A3002 NOSIG=
201711231400 METAR MRPV 231400Z 09015KT 9999 FEW030 SCT120 21/16 A3005 NOSIG=
201711231500 METAR MRPV 231500Z 10011KT 9999 SCT035 24/16 A3004 NOSIG=
201711231600 METAR MRPV 231600Z 09011KT 9999 SCT035 BKN080 23/16 A3004 NOSIG=
201711231700 METAR MRPV 231700Z 08014KT 9999 FEW030 BKN070 25/16 A3002 NOSIG=
201711231800 METAR MRPV 231800Z 11012KT 9999 FEW030 BKN090 25/16 A2998 NOSIG=
201711231900 METAR MRPV 231900Z 10012KT 9999 FEW020TCU FEW030 BKN080 24/16 A2996 NOSIG=
201711232000 METAR MRPV 232000Z 11010KT 9999 RA FEW025 SCT080 BKN100 23/16 A2994 NOSIG=
201711232100 METAR MRPV 232100Z 08014KT 9999 FEW020 SCT080 BKN100 22/16 A2995 NOSIG=
201711232200 METAR MRPV 232200Z 10014KT 9999 +DZ FEW020 SCT080 BKN100 21/16 A2995 NOSIG=
201711232300 METAR MRPV 232300Z 09009KT 9999 FEW010 SCT080 BKN100 21/16 A2997 REDZ NOSIG=
201711240000 METAR MRPV 240000Z 11009KT 9999 DZ FEW015 BKN100 21/16 A3000 NOSIG=
201711240100 METAR MRPV NIL=
201711240200 METAR MRPV NIL=
201711240300 METAR MRPV NIL=
201711240400 METAR MRPV NIL=
201711240500 METAR MRPV NIL=
201711240600 METAR MRPV NIL=
201711240700 METAR MRPV NIL=
201711240800 METAR MRPV NIL=
201711240900 METAR MRPV NIL=
201711241000 METAR MRPV NIL=
201711241100 METAR MRPV NIL=
201711241200 METAR MRPV 241200Z 12008KT 9999 FEW020 SCT100 BKN200 21/15 A3000 NOSIG=
201711241300 METAR MRPV 241300Z 10010G20KT 9999 FEW020 SCT100 BKN200 21/16 A3003 NOSIG=
201711241400 METAR MRPV 241400Z 11010KT 9999 FEW030 SCT250 21/16 A3005 NOSIG=
201711241500 METAR MRPV 241500Z 08012KT 9999 FEW030 BKN100 23/16 A3005 NOSIG=
201711241600 METAR MRPV 241600Z 08011KT 9999 SCT025 BKN100 24/16 A3005 NOSIG=
201711241700 METAR MRPV 241700Z 07012KT 9999 FEW030 BKN100 24/16 A3003 NOSIG=
201711241800 METAR MRPV 241800Z 07010KT 9999 FEW035 BKN100 24/16 A3000 NOSIG=
201711241900 METAR MRPV 241900Z 10010KT 9999 FEW025 BKN100 24/16 A2999 NOSIG=
201711241933 METAR MRPV 241933Z 10010KT 9999 RA VCSH FEW020TCU FEW025 BKN100 24/16 A2997 NOSIG=
201711242000 METAR MRPV 242000Z 11009KT 9999 -RA SCT020 BKN100 23/17 A2997 NOSIG=
201711242100 METAR MRPV 242100Z 10011KT 9999 -RA VCFG SCT020 BKN080 22/16 A2997 NOSIG=
201711242200 METAR MRPV 242200Z 08012KT 9999 FEW035 BKN100 22/16 A2997 NOSIG=
201711242300 METAR MRPV 242300Z 08010KT 9999 SCT030 BKN100 21/16 A2999 NOSIG=
201711250000 METAR MRPV 250000Z 09009KT 9999 SCT030 BKN100 21/15 A3000 NOSIG=
201711250100 METAR MRPV NIL=
201711250200 METAR MRPV NIL=
201711250300 METAR MRPV NIL=
201711250400 METAR MRPV NIL=
201711250500 METAR MRPV NIL=
201711250600 METAR MRPV NIL=
201711250700 METAR MRPV NIL=
201711250800 METAR MRPV NIL=
201711250900 METAR MRPV NIL=
201711251000 METAR MRPV NIL=
201711251100 METAR MRPV NIL=
201711251200 METAR MRPV 251200Z 14004KT 9999 FEW030 BKN090 20/16 A3002 NOSIG=
201711251300 METAR MRPV 251300Z 12006KT 9999 FEW025 BKN090 21/16 A3005 NOSIG=
201711251400 METAR MRPV 251400Z 10008KT 9999 FEW030 BKN090 22/16 A3007 NOSIG=
201711251500 METAR MRPV 251500Z 12008KT 9999 FEW020 BKN100 21/16 A3008 NOSIG=
201711251600 METAR MRPV 251600Z 11009KT 9999 FEW020 BKN100 23/16 A3007 NOSIG=
201711251700 METAR MRPV 251700Z 09010KT 9999 FEW035 BKN100 25/16 A3004 NOSIG=
201711251800 METAR MRPV 251800Z 09007KT 9999 FEW035 BKN100 25/16 A3001 NOSIG=
201711251900 METAR MRPV 251900Z 08007KT 9999 FEW030 BKN120 27/15 A2997 NOSIG=
201711252000 METAR MRPV 252000Z 08010KT 9999 FEW030 BKN120 25/16 A2996 NOSIG=
201711252100 METAR MRPV 252100Z 11005KT 9999 SCT035 BKN080 26/15 A2995 TEMPO 25005KT=
201711252200 METAR MRPV 252200Z 11007KT 9999 FEW020 SCT035 BKN100 24/15 A2995 NOSIG=
201711252300 METAR MRPV 252300Z 09010KT 9999 FEW010 SCT030 BKN100 22/16 A2998 NOSIG=
201711260000 METAR MRPV 260000Z 10005KT 9999 FEW010 SCT030 BKN100 22/16 A3000 NOSIG=
201711260100 METAR MRPV NIL=
201711260200 METAR MRPV NIL=
201711260300 METAR MRPV NIL=
201711260400 METAR MRPV NIL=
201711260500 METAR MRPV NIL=
201711260600 METAR MRPV NIL=
201711260700 METAR MRPV NIL=
201711260800 METAR MRPV NIL=
201711260900 METAR MRPV NIL=
201711261000 METAR MRPV NIL=
201711261100 METAR MRPV NIL=
201711261200 METAR MRPV 261200Z 11010KT 9999 FEW025 20/16 A3000 NOSIG=
201711261300 METAR MRPV 261300Z 10012KT 9999 FEW030 SCT045 21/16 A3003 NOSIG=
201711261400 METAR MRPV 261400Z 09013KT 9999 FEW035 SCT200 22/16 A3005 NOSIG=
201711261500 METAR MRPV 261500Z 07015KT 9999 FEW035 BKN220 24/16 A3004 NOSIG=
201711261600 METAR MRPV 261600Z 08016KT 9999 FEW040 SCT100 BKN250 25/16 A3004 NOSIG=
201711261700 METAR MRPV 261700Z 07012KT 9999 FEW040 SCT100 BKN200 26/16 A3002 NOSIG=
201711261800 METAR MRPV 261800Z 08012KT 9999 FEW040 BKN100 26/16 A2998 NOSIG=
201711261900 METAR MRPV 261900Z 07015KT 9999 FEW035 BKN120 25/16 A2996 NOSIG=
201711262000 METAR MRPV 262000Z COR 07015KT 9999 FEW015 SCT030 BKN100 25/16 A2994 NOSIG=
201711262100 METAR MRPV 262100Z 09009KT 9999 FEW025 BKN120 24/16 A2993 NOSIG=
201711262200 METAR MRPV 262200Z 10006KT 9999 FEW040 BKN100 23/16 A2994 NOSIG=
201711262300 METAR MRPV 262300Z 11008KT 9999 SCT025 BKN100 23/16 A2995 NOSIG=
201711270000 METAR MRPV 270000Z 11007KT 9999 SCT030 BKN100 22/16 A2998 NOSIG=
201711270100 METAR MRPV NIL=
201711270200 METAR MRPV NIL=
201711270300 METAR MRPV NIL=
201711270400 METAR MRPV NIL=
201711270500 METAR MRPV NIL=
201711270600 METAR MRPV NIL=
201711270700 METAR MRPV NIL=
201711270800 METAR MRPV NIL=
201711270900 METAR MRPV NIL=
201711271000 METAR MRPV NIL=
201711271100 METAR MRPV NIL=
201711271200 METAR MRPV 271200Z 09013KT 9999 FEW015 BKN120 20/14 A2996 NOSIG=
201711271300 METAR MRPV 271300Z 10015G25KT 9999 FEW025 BKN120 20/14 A2999 NOSIG=
201711271400 METAR MRPV 271400Z 08016KT 9999 FEW025 BKN100 21/15 A3002 NOSIG=
201711271500 METAR MRPV 271500Z 10012KT 9999 FEW025 BKN120 23/15 A3001 NOSIG=
201711271600 METAR MRPV 271600Z 09015KT 9999 SCT030 BKN120 23/15 A3002 NOSIG=
201711271700 METAR MRPV 271700Z COR 08017KT 9999 SCT030 BKN080 23/15 A2999 NOSIG=
201711271800 METAR MRPV 271800Z 08018KT 9999 FEW035 BKN080 22/14 A2998 NOSIG=
201711271900 METAR MRPV 271900Z 08013KT 9999 FEW035 BKN160 24/14 A2994 NOSIG=
201711272000 METAR MRPV 272000Z 09012KT 9999 FEW040 BKN160 23/14 A2992 NOSIG=
201711272100 METAR MRPV 272100Z 10014KT 9999 FEW035 BKN120 22/15 A2992 NOSIG=
201711272200 METAR MRPV 272200Z 11011KT 9999 FEW020 BKN100 22/15 A2992 NOSIG=
201711272300 METAR MRPV 272300Z 10009KT 9999 SCT030 BKN100 21/15 A2995 NOSIG=
201711280000 METAR MRPV 280000Z 10010KT 9999 FEW025 BKN100 21/15 A2997 NOSIG=
201711280100 METAR MRPV NIL=
201711280200 METAR MRPV NIL=
201711280300 METAR MRPV NIL=
201711280400 METAR MRPV NIL=
201711280500 METAR MRPV NIL=
201711280600 METAR MRPV NIL=
201711280700 METAR MRPV NIL=
201711280800 METAR MRPV NIL=
201711280900 METAR MRPV NIL=
201711281000 METAR MRPV NIL=
201711281100 METAR MRPV NIL=
201711281200 METAR MRPV 281200Z COR 11011KT 9999 SCT030 SCT100 19/15 A2999 NOSIG=
201711281300 METAR MRPV 281300Z 10012KT 9999 FEW030 BKN120 20/15 A3001 NOSIG=
201711281400 METAR MRPV 281400Z 10012KT 9999 FEW030 BKN120 24/15 A3003 NOSIG=
201711281500 METAR MRPV 281500Z 10012KT 9999 -RA FEW025 BKN120 22/16 A3004 NOSIG=
201711281600 METAR MRPV 281600Z 10010G20KT 3500 RA FEW025 BKN100 20/17 A3005 NOSIG=
201711281700 METAR MRPV 281700Z 08011KT 9999 4000E -RA FEW025 SCT060 BKN100 22/17 A3003 NOSIG=
201711281800 METAR MRPV 281800Z 09012KT 9999 FEW020 SCT060 BKN100 22/16 A3001 NOSIG=
201711281900 METAR MRPV 281900Z 09017KT 9999 SCT020 BKN100 23/16 A2997 NOSIG=
201711282000 METAR MRPV 282000Z 09012KT 9999 FEW015 BKN100 23/16 A2996 NOSIG=
201711282100 METAR MRPV 282100Z 09014KT 9999 FEW015 BKN100 23/16 A2995 NOSIG=
201711282200 METAR MRPV 282200Z 10010KT 9999 FEW015 BKN100 23/16 A2995 NOSIG=
201711282300 METAR MRPV 282300Z 10009KT 9999 FEW015 BKN080 21/16 A2997 NOSIG=
201711290000 METAR MRPV 290000Z 11010KT 9999 FEW010 SCT080 21/16 A2999 NOSIG=
201711290100 METAR MRPV NIL=
201711290200 METAR MRPV NIL=
201711290300 METAR MRPV NIL=
201711290400 METAR MRPV NIL=
201711290500 METAR MRPV NIL=
201711290600 METAR MRPV NIL=
201711290700 METAR MRPV NIL=
201711290800 METAR MRPV NIL=
201711290900 METAR MRPV NIL=
201711291000 METAR MRPV NIL=
201711291100 METAR MRPV NIL=
201711291200 METAR MRPV 291200Z 12008KT 9999 SCT030 SCT100 21/17 A3001 NOSIG=
201711291300 METAR MRPV 291300Z 11008KT 9999 SCT030 BKN100 22/17 A3002 NOSIG=
201711291400 METAR MRPV 291400Z 12010KT 9999 FEW030 BKN100 23/17 A3002 NOSIG=
201711291500 METAR MRPV 291500Z 10009KT 9999 FEW025 BKN100 24/17 A3003 NOSIG=
201711291600 METAR MRPV 291600Z 11010KT 9999 DZ SCT025 BKN080 23/17 A3004 NOSIG=
201711291700 METAR MRPV 291700Z 13006KT 5000 RA FEW025 BKN100 21/19 A3003 NOSIG=
201711291800 METAR MRPV 291800Z 09012KT 9999 SCT025 BKN100 22/17 A2999 RERA NOSIG=
201711291900 METAR MRPV 291900Z 06016KT 9999 SCT015 BKN090 21/15 A2997 NOSIG=
201711292000 METAR MRPV 292000Z 07014KT 9999 FEW025 BKN100 21/14 A2997 NOSIG=
201711292100 METAR MRPV 292100Z 11012KT 9999 FEW020 BKN100 22/14 A2996 NOSIG=
201711292200 METAR MRPV 292200Z 11009G19KT 9999 FEW030 BKN100 21/14 A2997 NOSIG=
201711292300 METAR MRPV 292300Z 13007G17KT 9999 FEW035 BKN100 20/13 A2998 NOSIG=
201711300000 METAR MRPV 300000Z 13008KT 9999 FEW020 BKN100 20/14 A2999 NOSIG=
201711300100 METAR MRPV NIL=
201711300200 METAR MRPV NIL=
201711300300 METAR MRPV NIL=
201711300400 METAR MRPV NIL=
201711300500 METAR MRPV NIL=
201711300600 METAR MRPV NIL=
201711300700 METAR MRPV NIL=
201711300800 METAR MRPV NIL=
201711300900 METAR MRPV NIL=
201711301000 METAR MRPV NIL=
201711301100 METAR MRPV NIL=
201711301200 METAR MRPV 301200Z 11011KT 9999 FEW030 20/15 A3001 NOSIG=
201711301300 METAR MRPV 301300Z 09015KT 9999 FEW025 20/15 A3003 NOSIG=
201711301400 METAR MRPV 301400Z 08013KT 9999 FEW030 21/15 A3006 NOSIG=
201711301500 METAR MRPV 301500Z 08017KT 9999 SCT030 22/15 A3007 NOSIG=
201711301600 METAR MRPV 301600Z 11009KT 9999 SCT030 SCT080 22/15 A3006 NOSIG=
201711301700 METAR MRPV 301700Z 08013KT 9999 FEW030 SCT060 23/15 A3002 NOSIG=
201711301800 METAR MRPV 301800Z 07011KT 9999 FEW035 BKN090 25/15 A3000 NOSIG=
201711301900 METAR MRPV 301900Z 06012KT 9999 FEW025 BKN080 23/15 A2998 NOSIG=
201711302000 METAR MRPV 302000Z 07013KT 9999 FEW030 BKN120 24/14 A2995 NOSIG=
201711302100 METAR MRPV 302100Z 08014KT 9999 FEW030 BKN100 24/15 A2995 NOSIG=
201711302200 METAR MRPV 302200Z 08013KT 9999 FEW025 BKN160 22/14 A2996 NOSIG=
201711302300 METAR MRPV 302300Z 10010KT 9999 FEW020 SCT060 BKN120 21/15 A2998 NOSIG=
201712010000 METAR MRPV 010000Z 10008KT 9999 FEW030 BKN100 21/14 A3000 NOSIG=
201712010100 METAR MRPV NIL=
201712010200 METAR MRPV NIL=
201712010300 METAR MRPV NIL=
201712010400 METAR MRPV NIL=
201712010500 METAR MRPV NIL=
201712010600 METAR MRPV NIL=
201712010700 METAR MRPV NIL=
201712010800 METAR MRPV NIL=
201712010900 METAR MRPV NIL=
201712011000 METAR MRPV NIL=
201712011100 METAR MRPV NIL=
201712011200 METAR MRPV 011200Z 09013KT 9999 FEW030 19/13 A3000 NOSIG=
201712011300 METAR MRPV 011300Z 09011KT 9999 FEW030 SCT100 21/14 A3003 NOSIG=
201712011400 METAR MRPV 011400Z 08015KT 9999 FEW030 SCT100 21/15 A3006 NOSIG=
201712011500 METAR MRPV 011500Z 08017KT 9999 FEW030 23/14 A3006 NOSIG=
201712011600 METAR MRPV 011600Z 09016KT 9999 FEW030 SCT090 23/15 A3008 NOSIG=
201712011700 METAR MRPV 011700Z 08017G27KT 9999 FEW030 24/14 A3004 NOSIG=
201712011800 METAR MRPV 011800Z 09016KT 9999 FEW035 SCT100 23/13 A3003 NOSIG=
201712011900 METAR MRPV 011900Z 09013KT 9999 FEW045 BKN160 23/13 A3000 NOSIG=
201712012000 METAR MRPV 012000Z 09015G25KT 9999 FEW045 BKN160 24/13 A2998 NOSIG=
201712012100 METAR MRPV 012100Z 07016KT 9999 FEW045 SCT160 24/12 A2996 NOSIG=
201712012200 METAR MRPV 012200Z 06014KT 9999 FEW040 SCT250 23/12 A2996 NOSIG=
201712012300 METAR MRPV 012300Z 06014KT 9999 FEW040 BKN250 22/12 A2997 NOSIG=
201712020000 METAR MRPV 020000Z 08015KT 9999 FEW040 BKN250 20/12 A2999 NOSIG=
201712020100 METAR MRPV NIL=
201712020200 METAR MRPV NIL=
201712020300 METAR MRPV NIL=
201712020400 METAR MRPV NIL=
201712020500 METAR MRPV NIL=
201712020600 METAR MRPV NIL=
201712020700 METAR MRPV NIL=
201712020800 METAR MRPV NIL=
201712020900 METAR MRPV NIL=
201712021000 METAR MRPV NIL=
201712021100 METAR MRPV NIL=
201712021200 METAR MRPV 021200Z 13007KT CAVOK 18/11 A2999 NOSIG=
201712021300 METAR MRPV 021300Z 10014KT CAVOK 21/10 A3002 NOSIG=
201712021400 METAR MRPV 021400Z 10012KT CAVOK 22/11 A3004 NOSIG=
201712021500 METAR MRPV 021500Z 08012KT CAVOK 24/12 A3004 NOSIG=
201712021600 METAR MRPV 021600Z 06014KT CAVOK 25/11 A3003 NOSIG=
201712021700 METAR MRPV 021700Z 07013KT CAVOK 26/13 A3001 NOSIG=
201712021800 METAR MRPV 021800Z 06014KT CAVOK 25/13 A2999 NOSIG=
201712021900 METAR MRPV 021900Z 07013KT CAVOK 26/12 A2997 NOSIG=
201712022000 METAR MRPV 022000Z 06014KT CAVOK 25/12 A2995 NOSIG=
201712022100 METAR MRPV 022100Z 06014KT CAVOK 25/12 A2994 NOSIG=
201712022200 METAR MRPV 022200Z 06012KT CAVOK 24/13 A2995 NOSIG=
201712022300 METAR MRPV 022300Z 07011KT CAVOK 22/13 A2996 NOSIG=
201712030000 METAR MRPV 030000Z 08013KT CAVOK 21/14 A2997 NOSIG=
201712030100 METAR MRPV NIL=
201712030200 METAR MRPV NIL=
201712030300 METAR MRPV NIL=
201712030400 METAR MRPV NIL=
201712030500 METAR MRPV NIL=
201712030600 METAR MRPV NIL=
201712030700 METAR MRPV NIL=
201712030800 METAR MRPV NIL=
201712030900 METAR MRPV NIL=
201712031000 METAR MRPV NIL=
201712031100 METAR MRPV NIL=
201712031200 METAR MRPV 031200Z 09012KT 9999 FEW025 BKN070 20/15 A2998 NOSIG=
201712031300 METAR MRPV 031300Z 09011KT 9999 FEW035 BKN090 20/15 A2999 NOSIG=
201712031400 METAR MRPV 031400Z 08014KT 9999 FEW030 BKN070 21/15 A3001 NOSIG=
201712031500 METAR MRPV 031500Z 10011KT 9999 FEW035 23/14 A3001 NOSIG=
201712031600 METAR MRPV 031600Z 07016KT 9999 FEW040 SCT090 23/15 A3001 NOSIG=
201712031700 METAR MRPV 031700Z COR 07014KT 9999 FEW035 SCT060 23/15 A2999 NOSIG=
201712031800 METAR MRPV 031800Z 06014KT 9999 SCT035 SCT060 23/15 A2996 NOSIG=
201712031900 METAR MRPV 031900Z 06014KT 9999 FEW035 SCT060 24/15 A2994 NOSIG=
201712032000 METAR MRPV 032000Z 07013KT 9999 FEW035 BKN080 22/14 A2993 NOSIG=
201712032100 METAR MRPV 032100Z 06014KT 9999 FEW030 BKN090 22/14 A2991 NOSIG=
201712032200 METAR MRPV 032200Z 07011KT 9999 FEW030 SCT090 22/15 A2991 NOSIG=
201712032300 METAR MRPV 032300Z 08014KT 9999 SCT025 21/14 A2992 NOSIG=
201712040000 METAR MRPV 040000Z 09015KT 9999 SCT025 20/13 A2994 NOSIG=
201712040100 METAR MRPV NIL=
201712040200 METAR MRPV NIL=
201712040300 METAR MRPV NIL=
201712040400 METAR MRPV NIL=
201712040500 METAR MRPV NIL=
201712040600 METAR MRPV NIL=
201712040700 METAR MRPV NIL=
201712040800 METAR MRPV NIL=
201712040900 METAR MRPV NIL=
201712041000 METAR MRPV NIL=
201712041100 METAR MRPV NIL=
201712041200 METAR MRPV 041200Z 12008KT 9999 FEW040 19/14 A2998 NOSIG=
201712041300 METAR MRPV 041300Z 10011KT 9999 FEW045 20/14 A3000 NOSIG=
201712041400 METAR MRPV 041400Z 10010KT 9999 FEW040 SCT090 21/15 A3003 NOSIG=
201712041500 METAR MRPV 041500Z 08014KT 9999 FEW035 SCT120 22/15 A3002 NOSIG=
201712041600 METAR MRPV 041600Z 06016KT 9999 FEW035 25/14 A3002 NOSIG=
201712041700 METAR MRPV 041700Z 06016KT 9999 FEW035 25/14 A2999 NOSIG=
201712041800 METAR MRPV 041800Z 06015KT 9999 FEW040 25/14 A2997 NOSIG=
201712041900 METAR MRPV 041900Z 06015KT 9999 FEW040 26/14 A2994 NOSIG=
201712042000 METAR MRPV 042000Z 06014KT 9999 FEW040 SCT080 26/15 A2992 NOSIG=
201712042100 METAR MRPV 042100Z 07014G25KT 9999 FEW030 SCT080 24/15 A2991 NOSIG=
201712042200 METAR MRPV 042200Z 08013KT 9999 SCT030 BKN080 23/15 A2992 NOSIG=
201712042300 METAR MRPV 042300Z 08013KT 9999 RA SCT020 BKN060 21/15 A2995 NOSIG=
201712050000 METAR MRPV 050000Z 11010KT 9999 -RA FEW020 BKN100 20/16 A2996 NOSIG=
201712050100 METAR MRPV NIL=
201712050200 METAR MRPV NIL=
201712050300 METAR MRPV NIL=
201712050400 METAR MRPV NIL=
201712050500 METAR MRPV NIL=
201712050600 METAR MRPV NIL=
201712050700 METAR MRPV NIL=
201712050800 METAR MRPV NIL=
201712050900 METAR MRPV NIL=
201712051000 METAR MRPV NIL=
201712051100 METAR MRPV NIL=
201712051200 METAR MRPV 051200Z 12008KT 9999 FEW035 BKN100 21/15 A2999 NOSIG=
201712051300 METAR MRPV 051300Z 08017KT 9999 FEW015 22/16 A3001 NOSIG=
201712051400 METAR MRPV 051400Z 06014KT 9999 FEW020 23/16 A3002 NOSIG=
201712051500 METAR MRPV 051500Z 06016G26KT 9999 FEW025 23/16 A3002 NOSIG=
201712051600 METAR MRPV 051600Z 06013KT 9999 SCT025 SCT080 23/16 A3002 WSR09 NOSIG=
201712051700 METAR MRPV 051700Z 06011KT 9999 SCT025 SCT080 25/16 A3000 WSR09 NOSIG=
201712051800 METAR MRPV 051800Z 09010KT 9999 BKN025 SCT080 24/16 A2998 WSR09 NOSIG=
201712051900 METAR MRPV 051900Z 07015KT 9999 SCT025 BKN080 25/16 A2996 WSR09 NOSIG=
201712052000 METAR MRPV 052000Z 09011KT 9999 BKN030 24/16 A2994 WSR09 NOSIG=
201712052100 METAR MRPV 052100Z 09006KT 9999 BKN040 24/16 A2993 WSR09 NOSIG=
201712052200 METAR MRPV 052200Z 06008KT 9999 BKN030 23/15 A2995 WSR09 NOSIG=
201712052300 METAR MRPV 052300Z 10008KT 9999 BKN035 23/16 A2997 WSR09 NOSIG=
201712060000 METAR MRPV 060000Z 06012KT 5000 RA BKN035 22/16 A3000 WSR09 NOSIG=
201712060100 METAR MRPV NIL=
201712060200 METAR MRPV NIL=
201712060300 METAR MRPV NIL=
201712060400 METAR MRPV NIL=
201712060500 METAR MRPV NIL=
201712060600 METAR MRPV NIL=
201712060700 METAR MRPV NIL=
201712060800 METAR MRPV NIL=
201712060900 METAR MRPV NIL=
201712061000 METAR MRPV NIL=
201712061100 METAR MRPV NIL=
201712061200 METAR MRPV 061200Z 10010KT CAVOK 22/12 A2999 NOSIG=
201712061300 METAR MRPV 061300Z 10011KT CAVOK 22/13 A3000 NOSIG=
201712061400 METAR MRPV 061400Z 08015KT CAVOK 24/15 A2999 NOSIG=
201712061500 METAR MRPV 061500Z 08013KT CAVOK 26/15 A2999 NOSIG=
201712061600 METAR MRPV 061600Z 07011KT CAVOK 27/15 A2997 NOSIG=
201712061700 METAR MRPV 061700Z 07015KT CAVOK 29/13 A2997 NOSIG=
201712061800 METAR MRPV 061800Z 05014KT 9999 FEW040 SCT080 27/15 A2996 NOSIG=
201712061900 METAR MRPV 061900Z 06013KT 9999 FEW040 SCT080 27/15 A2995 NOSIG=
201712062000 METAR MRPV 062000Z 06012KT 9999 SCT040 SCT080 26/15 A2994 NOSIG=
201712062100 METAR MRPV 062100Z 08008KT 9999 FEW040 SCT080 26/16 A2993 NOSIG=
201712062200 METAR MRPV 062200Z 28003KT 9999 FEW020 BKN045 24/20 A2994 NOSIG=
201712062300 METAR MRPV 062300Z 26003KT 9999 SCT010 22/20 A2995 NOSIG=
201712070000 METAR MRPV 070000Z 28005KT 8000 VCFG BKN015 22/20 A2998 NOSIG=
201712070100 METAR MRPV NIL=
201712070200 METAR MRPV NIL=
201712070300 METAR MRPV NIL=
201712070400 METAR MRPV NIL=
201712070500 METAR MRPV NIL=
201712070600 METAR MRPV NIL=
201712070700 METAR MRPV NIL=
201712070800 METAR MRPV NIL=
201712070900 METAR MRPV NIL=
201712071000 METAR MRPV NIL=
201712071100 METAR MRPV NIL=
201712071200 METAR MRPV 071200Z 13004KT 9999 FEW035 19/16 A2998 NOSIG=
201712071300 METAR MRPV 071300Z 12006KT 9999 FEW035 22/15 A2999 NOSIG=
201712071400 METAR MRPV 071400Z 11007KT 9999 FEW040 24/15 A3002 NOSIG=
201712071500 METAR MRPV 071500Z 08008KT CAVOK 24/14 A3003 NOSIG=
201712071600 METAR MRPV 071600Z COR 06004KT 9999 FEW035 SCT200 26/14 A3002 NOSIG=
201712071700 METAR MRPV 071700Z COR 33003KT 050V330 9999 FEW035 26/15 A2998 NOSIG=
201712071800 METAR MRPV 071800Z 26007KT 9999 FEW020TCU FEW035 26/19 A2995 NOSIG=
201712071900 METAR MRPV 071900Z 28011KT 9999 FEW040 BKN200 26/19 A2993 NOSIG=
201712072000 METAR MRPV 072000Z 28013KT 9999 FEW035 BKN250 24/19 A2992 NOSIG=
201712072100 METAR MRPV 072100Z 28012KT 9999 SCT025 BKN200 23/18 A2992 NOSIG=
201712072200 METAR MRPV 072200Z 27009KT 9999 SCT025 BKN080 22/18 A2992 NOSIG=
201712072300 MRPV 072300Z 28010KT 9999 BKN005 20/19 A2994 NOSIG=
201712080000 MRPV 080000Z 30007KT 5000 BR BKN005 20/19 A2996 NOSIG=
201712080100 METAR MRPV NIL=
201712080200 METAR MRPV NIL=
201712080300 METAR MRPV NIL=
201712080400 METAR MRPV NIL=
201712080500 METAR MRPV NIL=
201712080600 METAR MRPV NIL=
201712080700 METAR MRPV NIL=
201712081000 METAR MRPV NIL=
201712081100 METAR MRPV NIL=
201712081200 MRPV 081200Z 25002KT 8000 VCFG FEW040 BKN100 20/18 A3000 NOSIG=
201712081300 MRPV 081300Z 26002KT 5000 BR SCT005 BKN100 2/19 A3003 NOSIG=
201712081400 MRPV 081400Z 00000KT 8000 VCFG FEW035 BKN100 22/18 A3004 NOSIG=
201712081500 METAR MRPV 081500Z 00000KT 8000 VCFG FEW025 BKN100 24/18 A3004 NOSIG=
201712081600 METAR MRPV 081600Z 28003KT 8000 FEW025 BKN100 24/18 A3003 NOSIG=
201712081700 METAR MRPV 081700Z 26005KT 9999 FEW015 SCT090 24/17 A3001 NOSIG=
201712081800 METAR MRPV 081800Z 28006KT 9999 SCT025 25/17 A2998 NOSIG=
201712081900 METAR MRPV 081900Z 26010G20KT 8000 BKN010 SCT100 24/19 A2995 NOSIG=
201712082000 METAR MRPV 082000Z 27008KT 9999 VCSH FEW010TCU SCT015 BKN100 22/19 A2996 NOSIG=
201712082100 METAR MRPV 082100Z 28005KT 9999 SCT015 BKN100 23/18 A2994 NOSIG=
201712082200 METAR MRPV 082200Z 30003KT 9999 SCT020 BKN100 23/18 A2994 NOSIG=
201712082300 METAR MRPV 082300Z 26005KT 8000 BKN008 SCT100 22/19 A2997 NOSIG=
201712090000 METAR MRPV 090000Z 27003KT 8000 VCFG OVC006 20/19 A2998 NOSIG=
201712090100 METAR MRPV NIL=
201712090200 METAR MRPV NIL=
201712090300 METAR MRPV NIL=
201712090400 METAR MRPV NIL=
201712090500 METAR MRPV NIL=
201712090600 METAR MRPV NIL=
201712090700 METAR MRPV NIL=
201712090800 METAR MRPV NIL=
201712090900 METAR MRPV NIL=
201712091000 METAR MRPV NIL=
201712091100 METAR MRPV NIL=
201712091200 METAR MRPV 091200Z 00000KT 8000 VCFG NSC 19/17 A3003 NOSIG=
201712091300 METAR MRPV 091300Z 10001KT 8000 NSC 22/17 A3004 NOSIG=
201712091400 METAR MRPV 091400Z 09001KT CAVOK 24/15 A3007 NOSIG=
201712091500 METAR MRPV 091500Z 29005KT 9999 FEW040 23/17 A3008 NOSIG=
201712091600 METAR MRPV 091600Z 25003KT 8000 SCT035 25/17 A3007 NOSIG=
201712091700 METAR MRPV 091700Z 28007KT 8000 SCT035 26/18 A3006 NOSIG=
201712091800 METAR MRPV 091800Z 26006KT 8000 SCT030 25/18 A3003 NOSIG=
201712091900 METAR MRPV 091900Z 22002KT 8000 -RA FEW020TCU SCT030 BKN100 22/21 A3001 NOSIG=
201712092000 METAR MRPV 092000Z 25001KT 9999 FEW025 BKN030 24/19 A2999 NOSIG=
201712092100 METAR MRPV 092100Z 16001KT 170V320 9999 SCT030 BKN100 22/19 A2998 NOSIG=
201712092200 METAR MRPV 092200Z 08010KT 9999 SCT030 SCT100 23/17 A2999 NOSIG=
201712092300 METAR MRPV 092300Z 09010KT 9999 FEW030 SCT100 23/16 A3000 NOSIG=
201712100000 METAR MRPV 100000Z 10011KT 5000 -RA SCT030 BKN100 20/17 A3003 NOSIG=
201712100100 METAR MRPV NIL=
201712100200 METAR MRPV NIL=
201712100300 METAR MRPV NIL=
201712100400 METAR MRPV NIL=
201712100500 METAR MRPV NIL=
201712100600 METAR MRPV NIL=
201712100700 METAR MRPV NIL=
201712100800 METAR MRPV NIL=
201712100900 METAR MRPV NIL=
201712101000 METAR MRPV NIL=
201712101100 METAR MRPV NIL=
201712101200 METAR MRPV 101200Z 13011G23KT 9999 SCT025 BKN100 18/13 A3005 NOSIG=
201712101300 METAR MRPV 101300Z 12015G25KT 9999 FEW025 SCT100 BKN200 19/13 A3009 NOSIG=
201712101400 METAR MRPV 101400Z 10018G31KT 9999 SCT025 BKN200 19/13 A3012 NOSIG=
201712101500 METAR MRPV 101500Z 11018G30KT 9999 FEW035 SCT100 20/13 A3012 NOSIG=
201712101600 METAR MRPV 101600Z 09021G32KT 9999 FEW030 BKN120 20/12 A3011 NOSIG=
201712101700 METAR MRPV 101700Z 11023G36KT 9999 SCT030 BKN100 20/12 A3009 NOSIG=
201712101800 METAR MRPV 101800Z 10020G35KT 9999 FEW030 SCT100 BKN200 20/12 A3007 NOSIG=
201712101900 METAR MRPV 101900Z 10020G30KT 9999 FEW030 BKN100 19/12 A3006 NOSIG=
201712102000 METAR MRPV 102000Z 11015KT 9999 -RA FEW030 BKN100 19/12 A3005 NOSIG=
201712102100 METAR MRPV 102100Z 10017KT 9999 -RA FEW035 BKN100 19/13 A3006 NOSIG=
201712102200 METAR MRPV 102200Z 09017G27KT 9999 -RA FEW035 BKN100 18/13 A3007 NOSIG=
201712102300 METAR MRPV 102300Z 09017KT 9999 RA FEW030 BKN100 17/13 A3007 NOSIG=
201712110000 METAR MRPV 110000Z 08021KT 9999 -RA FEW025 BKN100 17/13 A3009 NOSIG=
201712110100 METAR MRPV NIL=
201712110200 METAR MRPV NIL=
201712110300 METAR MRPV NIL=
201712110400 METAR MRPV NIL=
201712110500 METAR MRPV NIL=
201712110600 METAR MRPV NIL=
201712110700 METAR MRPV NIL=
201712110800 METAR MRPV NIL=
201712110900 METAR MRPV NIL=
201712111000 METAR MRPV NIL=
201712111100 METAR MRPV NIL=
201712111200 METAR MRPV 111200Z 10018G31KT 9999 SCT030 BKN100 16/10 A3014 NOSIG=
201712111300 METAR MRPV 111300Z 09022G32KT 9999 FEW030 BKN100 16/11 A3015 NOSIG=
201712111400 METAR MRPV 111400Z 09023G35KT 9999 FEW030 BKN100 17/10 A3016 NOSIG=
201712111500 METAR MRPV 111500Z 10017G27KT 9999 FEW025 BKN120 17/10 A3015 NOSIG=
201712111600 METAR MRPV 111600Z 09023KT 9999 FEW025 BKN120 18/10 A3013 NOSIG=
201712111700 METAR MRPV 111700Z 10019G30KT 9999 FEW035 BKN120 18/11 A3012 NOSIG=
201712111800 METAR MRPV 111800Z 09019G33KT 9999 -DZ FEW035 BKN120 17/11 A3008 NOSIG=
201712111900 METAR MRPV 111900Z 09019G32KT 9999 -DZ FEW030 BKN120 18/12 A3005 NOSIG=
201712112000 METAR MRPV 112000Z 10019G30KT 9999 SCT025 BKN100 19/12 A3004 REDZ NOSIG=
201712112100 METAR MRPV 112100Z 10018G31KT 9999 SCT025 BKN120 18/11 A3001 NOSIG=
201712112200 METAR MRPV 112200Z 08018G28KT 9999 DZ SCT020 BKN120 18/14 A3005 NOSIG=
201712112300 METAR MRPV 112300Z 09019KT 9999 SCT020 BKN120 18/13 A3004 REDZ NOSIG=
201712120000 METAR MRPV 120000Z 09016G26KT 9999 FEW020 BKN100 18/13 A3007 NOSIG=
201712120100 METAR MRPV NIL=
201712120200 METAR MRPV NIL=
201712120300 METAR MRPV NIL=
201712120400 METAR MRPV NIL=
201712120500 METAR MRPV NIL=
201712120600 METAR MRPV NIL=
201712120700 METAR MRPV NIL=
201712120800 METAR MRPV NIL=
201712120900 METAR MRPV NIL=
201712121000 METAR MRPV NIL=
201712121100 METAR MRPV NIL=
201712121200 METAR MRPV 121200Z 10019KT 9999 FEW030 BKN100 17/11 A3009 RMK VEL MAX VTO 27KT - DZ N - NOSIG=
201712121300 METAR MRPV 121300Z 09019G31KT 9999 FEW030 BKN100 16/11 A3012 NOSIG=
201712121400 METAR MRPV 121400Z 09019KT 9999 FEW030 BKN120 17/11 A3014 NOSIG=
201712121500 METAR MRPV 121500Z 09018G28KT 9999 -RA FEW025 BKN100 18/11 A3014 NOSIG=
201712121600 METAR MRPV 121600Z 09018KT 9999 -RA FEW025 BKN100 17/12 A3013 NOSIG=
201712121700 METAR MRPV 121700Z 09017KT 9999 -RA FEW035 BKN100 18/12 A3010 NOSIG=
201712121800 METAR MRPV 121800Z 11016G28KT 9999 FEW025 BKN100 19/12 A3007 NOSIG=
201712121900 METAR MRPV 121900Z 09019KT 9999 FEW025 BKN100 19/12 A3005 NOSIG=
201712122000 METAR MRPV 122000Z 09020G30KT 9999 FEW030 BKN100 19/12 A3004 NOSIG=
201712122100 METAR MRPV 122100Z 09017KT 9999 FEW025 BKN100 19/12 A3004 NOSIG=
201712122200 METAR MRPV 122200Z 09019KT 9999 FEW020 BKN100 19/11 A3004 NOSIG=
201712122300 METAR MRPV 122300Z 08020KT 9999 SCT020 SCT100 18/12 A3006 NOSIG=
201712130000 METAR MRPV 130000Z 11013KT 9999 FEW020 SCT100 18/12 A3008 NOSIG=
201712130100 METAR MRPV NIL=
201712130200 METAR MRPV NIL=
201712130300 METAR MRPV NIL=
201712130400 METAR MRPV NIL=
201712130500 METAR MRPV NIL=
201712130600 METAR MRPV NIL=
201712130700 METAR MRPV NIL=
201712130800 METAR MRPV NIL=
201712130900 METAR MRPV NIL=
201712131000 METAR MRPV NIL=
201712131100 METAR MRPV NIL=
201712131200 METAR MRPV 131200Z 10014KT 9999 SCT020 SCT200 17/12 A3009 NOSIG=
201712131300 METAR MRPV 131300Z 10015KT 9999 SCT020 SCT200 17/11 A3011 NOSIG=
201712131400 METAR MRPV 131400Z 09017KT 9999 SCT020 SCT200 18/12 A3012 NOSIG=
201712131500 METAR MRPV 131500Z 08019KT 9999 BKN020 SCT200 18/11 A3012 NOSIG=
201712131600 METAR MRPV 131600Z 09018KT 9999 BKN020 SCT200 18/12 A3012 NOSIG=
201712131700 METAR MRPV 131700Z 09017KT 9999 BKN020 SCT200 18/12 A3010 NOSIG=
201712131800 METAR MRPV 131800Z 08016KT 9999 SCT020 BKN200 19/12 A3007 NOSIG=
201712131900 METAR MRPV 131900Z 09016KT 9999 SCT020 BKN200 19/12 A3005 NOSIG=
201712132000 METAR MRPV 132000Z 08018KT 9999 SCT025 SCT100 20/12 A3002 NOSIG=
201712132100 METAR MRPV 132100Z 10014KT 9999 FEW020 SCT100 19/13 A3002 NOSIG=
201712132200 METAR MRPV 132200Z 09016G26KT 9999 SCT015 18/12 A3002 NOSIG=
201712132300 METAR MRPV 132300Z 10014KT 9999 SCT015 18/12 A3003 NOSIG=
201712140000 METAR MRPV 140000Z 11014G24KT 9999 SCT015 17/13 A3004 NOSIG=
201712140100 METAR MRPV NIL=
201712140200 METAR MRPV NIL=
201712140300 METAR MRPV NIL=
201712140400 METAR MRPV NIL=
201712140500 METAR MRPV NIL=
201712140600 METAR MRPV NIL=
201712140700 METAR MRPV NIL=
201712140800 METAR MRPV NIL=
201712140900 METAR MRPV NIL=
201712141000 METAR MRPV NIL=
201712141100 METAR MRPV NIL=
201712141200 METAR MRPV 141200Z 11013G23KT 9999 FEW015 17/13 A3003 NOSIG=
201712141300 METAR MRPV 141300Z 11012G22KT 9999 FEW020 18/13 A3004 NOSIG=
201712141400 METAR MRPV 141400Z 10013KT 9999 FEW020 19/13 A3006 NOSIG=
201712141500 METAR MRPV 141500Z 11013KT 9999 FEW030 21/13 A3006 NOSIG=
201712141600 METAR MRPV 141600Z 09013KT 9999 FEW030 23/14 A3006 NOSIG=
201712141700 METAR MRPV 141700Z 09012KT 9999 FEW030 24/14 A3003 NOSIG=
201712141800 METAR MRPV 141800Z 08014KT 9999 FEW040 SCT250 26/16 A3000 NOSIG=
201712141900 METAR MRPV 141900Z 07013KT 9999 FEW035 SCT200 25/14 A2998 NOSIG=
201712142000 METAR MRPV 142000Z 09012KT 9999 FEW040 SCT200 26/15 A2996 NOSIG=
201712142100 METAR MRPV 142100Z 09011KT 9999 FEW040 BKN200 25/15 A2995 NOSIG=
201712142200 METAR MRPV 142200Z 08014KT 9999 FEW035 BKN200 23/15 A2996 NOSIG=
201712142300 METAR MRPV 142300Z 07012KT 9999 FEW030 SCT200 22/15 A2998 NOSIG=
201712150000 METAR MRPV 150000Z 09009KT 9999 FEW030 SCT200 21/15 A3000 NOSIG=
201712150100 METAR MRPV NIL=
201712150200 METAR MRPV NIL=
201712150300 METAR MRPV NIL=
201712150400 METAR MRPV NIL=
201712150500 METAR MRPV NIL=
201712150600 METAR MRPV NIL=
201712150700 METAR MRPV NIL=
201712150800 METAR MRPV NIL=
201712150900 METAR MRPV NIL=
201712151000 METAR MRPV NIL=
201712151100 METAR MRPV NIL=
201712151200 METAR MRPV 151200Z 10010KT CAVOK 18/12 A3002 NOSIG=
201712151300 METAR MRPV 151300Z 09010KT CAVOK 20/12 A3005 NOSIG=
201712151400 METAR MRPV 151400Z 08012KT CAVOK 21/12 A3005 NOSIG=
201712151500 METAR MRPV 151500Z 08014KT CAVOK 23/12 A3006 NOSIG=
201712151600 METAR MRPV 151600Z 07012KT CAVOK 24/12 A3006 NOSIG=
201712151700 METAR MRPV 151700Z 07013KT CAVOK 24/13 A3005 NOSIG=
201712151800 METAR MRPV 151800Z 07014KT 9999 FEW040 24/13 A3002 NOSIG=
201712151900 METAR MRPV 151900Z 07014KT 9999 FEW045 SCT080 24/15 A3000 NOSIG=
201712152000 METAR MRPV 152000Z 06014KT 9999 FEW035 BKN080 24/15 A2998 NOSIG=
201712152100 METAR MRPV 152100Z 07016KT 9999 FEW035 23/11 A2997 NOSIG=
201712152200 METAR MRPV 152200Z 07014KT 9999 FEW045 SCT250 22/12 A2997 NOSIG=
201712152300 METAR MRPV 152300Z 08012KT CAVOK 21/12 A2997 NOSIG=
201712160000 METAR MRPV 160000Z 08012KT CAVOK 20/11 A2999 NOSIG=
201712160100 METAR MRPV NIL=
201712160200 METAR MRPV NIL=
201712160300 METAR MRPV NIL=
201712160400 METAR MRPV NIL=
201712160500 METAR MRPV NIL=
201712160600 METAR MRPV NIL=
201712160700 METAR MRPV NIL=
201712160800 METAR MRPV NIL=
201712160900 METAR MRPV NIL=
201712161000 METAR MRPV NIL=
201712161100 METAR MRPV NIL=
201712161200 METAR MRPV 161200Z 12007KT 9999 FEW030 SCT080 19/14 A3003 NOSIG=
201712161300 METAR MRPV 161300Z 13007KT 9999 FEW035 19/14 A3005 NOSIG=
201712161400 METAR MRPV 161400Z 12008KT 9999 FEW035 23/14 A3006 NOSIG=
201712161500 METAR MRPV 161500Z 09013KT 9999 FEW040 24/14 A3005 NOSIG=
201712161600 METAR MRPV 161600Z 07014KT 9999 FEW045 26/14 A3005 NOSIG=
201712161700 METAR MRPV 161700Z 07014G24KT 9999 FEW045 25/14 A3003 NOSIG=
201712161800 METAR MRPV 161800Z COR 07018G30KT 9999 SCT035 25/15 A3000 WSR09 NOSIG=
201712161900 METAR MRPV 161900Z 06019KT 9999 FEW040 25/14 A2998 WSR09 NOSIG=
201712162000 METAR MRPV 162000Z 06016G30KT 9999 FEW040 25/14 A2996 WSR09 NOSIG=
201712162100 METAR MRPV 162100Z 06016G26KT 9999 FEW040 24/15 A2995 WSR09 NOSIG=
201712162200 METAR MRPV 162200Z 07019KT 9999 SCT030 23/15 A2995 WSR09 NOSIG=
201712162300 METAR MRPV 162300Z 07019KT 9999 SCT035 22/13 A2996 WSR09 NOSIG=
201712170000 METAR MRPV 170000Z 09015KT 9999 FEW030 21/14 A2998 WSR09 NOSIG=
201712170100 METAR MRPV NIL=
201712170200 METAR MRPV NIL=
201712170300 METAR MRPV NIL=
201712170400 METAR MRPV NIL=
201712170500 METAR MRPV NIL=
201712170600 METAR MRPV NIL=
201712170700 METAR MRPV NIL=
201712170800 METAR MRPV NIL=
201712170900 METAR MRPV NIL=
201712171000 METAR MRPV NIL=
201712171100 METAR MRPV NIL=
201712171200 METAR MRPV 171200Z COR 13007KT CAVOK 19/10 A3002 NOSIG=
201712171300 METAR MRPV 171300Z 14010G20KT CAVOK 21/11 A3003 NOSIG=
201712171400 METAR MRPV 171400Z COR 10011KT CAVOK 23/11 A3005 WS 09 NOSIG=
201712171500 METAR MRPV 171500Z 09017KT CAVOK 24/11 A3005 WS 09 NOSIG=
201712171600 METAR MRPV 171600Z 08019KT CAVOK 24/12 A3006 WS 09 NOSIG=
201712171700 METAR MRPV 171700Z 07016KT CAVOK 26/12 A3003 WS 09 NOSIG=
201712171800 METAR MRPV 171800Z 07018G28KT CAVOK 26/13 A3000 WS 09 NOSIG=
201712171900 METAR MRPV 171900Z 08019G29KT 9999 FEW045 26/13 A2997 WS 09 NOSIG=
201712172000 METAR MRPV 172000Z 06017KT 9999 FEW040 26/14 A2996 WS 09 NOSIG=
201712172100 METAR MRPV 172100Z 07017G27KT 9999 FEW040 25/14 A2994 WS 09 NOSIG=
201712172200 METAR MRPV 172200Z 07018KT 9999 SCT030 22/15 A2996 WSR09 NOSIG=
201712172300 METAR MRPV 172300Z 09014KT 9999 FEW040 21/14 A2997 WSR09 NOSIG=
201712180000 METAR MRPV 180000Z 07013G23KT 9999 FEW040 21/14 A2999 WSR09 NOSIG=
201712180100 METAR MRPV NIL=
201712180200 METAR MRPV NIL=
201712180300 METAR MRPV NIL=
201712180400 METAR MRPV NIL=
201712180500 METAR MRPV NIL=
201712180600 METAR MRPV NIL=
201712180700 METAR MRPV NIL=
201712180800 METAR MRPV NIL=
201712180900 METAR MRPV NIL=
201712181000 METAR MRPV NIL=
201712181100 METAR MRPV NIL=
201712181200 METAR MRPV 181200Z 13006KT 9999 FEW035 20/13 A3000 NOSIG=
201712181300 METAR MRPV 181300Z 10010KT 9999 FEW035 SCT060 21/14 A3003 NOSIG=
201712181400 METAR MRPV 181400Z 08012KT 9999 FEW035 SCT080 22/14 A3006 NOSIG=
201712181500 METAR MRPV 181500Z 08014KT 9999 FEW040 24/14 A3005 NOSIG=
201712181600 METAR MRPV 181600Z 08015KT 9999 FEW045 24/15 A3005 NOSIG=
201712181700 METAR MRPV 181700Z 08014G24KT 9999 FEW040 SCT060 25/14 A3004 NOSIG=
201712181800 METAR MRPV 181800Z 07014G24KT 9999 FEW035 SCT060 24/14 A3003 NOSIG=
201712181900 METAR MRPV 181900Z 06016G29KT CAVOK 25/13 A3000 NOSIG=
201712182000 METAR MRPV 182000Z 06018G30KT CAVOK 25/13 A2997 NOSIG=
201712182100 METAR MRPV 182100Z 06014G24KT CAVOK 25/12 A2996 NOSIG=
201712182200 METAR MRPV 182200Z 07014KT CAVOK 24/12 A2997 NOSIG=
201712182300 METAR MRPV 182300Z 07013G23KT CAVOK 22/13 A2999 NOSIG=
201712190000 METAR MRPV 190000Z 07012KT CAVOK 22/13 A2999 NOSIG=
201712190100 METAR MRPV NIL=
201712190200 METAR MRPV NIL=
201712190300 METAR MRPV NIL=
201712190400 METAR MRPV NIL=
201712190500 METAR MRPV NIL=
201712190600 METAR MRPV NIL=
201712190700 METAR MRPV NIL=
201712190800 METAR MRPV NIL=
201712190900 METAR MRPV NIL=
201712191000 METAR MRPV NIL=
201712191100 METAR MRPV NIL=
201712191200 METAR MRPV 191200Z 08013KT 9999 FEW040 20/13 A3003 NOSIG=
201712191300 METAR MRPV 191300Z 07014KT 9999 FEW040 20/13 A3006 NOSIG=
201712191400 METAR MRPV 191400Z 07017KT 9999 FEW040 22/14 A3006 NOSIG=
201712191500 METAR MRPV 191500Z 07015KT 9999 FEW045 23/12 A3006 NOSIG=
201712191600 METAR MRPV 191600Z 06016KT CAVOK 25/13 A3005 NOSIG=
201712191700 METAR MRPV 191700Z 05015KT CAVOK 25/13 A3004 NOSIG=
201712191800 METAR MRPV 191800Z 06014KT CAVOK 26/14 A3002 NOSIG=
201712191900 METAR MRPV 191900Z 06016KT CAVOK 26/13 A2999 NOSIG=
201712192000 METAR MRPV 192000Z 05016G26KT 9999 FEW040 25/13 A2997 NOSIG=
201712192100 METAR MRPV 192100Z 05015G26KT 9999 FEW045 25/13 A2996 NOSIG=
201712192200 METAR MRPV 192200Z 06015G25KT 9999 FEW040 23/12 A2997 NOSIG=
201712192300 METAR MRPV 192300Z 07010KT CAVOK 22/13 A2998 NOSIG=
201712200000 METAR MRPV 200000Z 08010KT CAVOK 21/14 A3000 NOSIG=
201712200100 METAR MRPV NIL=
201712200200 METAR MRPV NIL=
201712200300 METAR MRPV NIL=
201712200400 METAR MRPV NIL=
201712200500 METAR MRPV NIL=
201712200600 METAR MRPV NIL=
201712200700 METAR MRPV NIL=
201712200800 METAR MRPV NIL=
201712200900 METAR MRPV NIL=
201712201000 METAR MRPV NIL=
201712201100 METAR MRPV NIL=
201712201200 METAR MRPV 201200Z 11009KT 9999 FEW030 20/14 A3002 NOSIG=
201712201300 METAR MRPV 201300Z 10011G21KT 9999 FEW030 20/14 A3002 NOSIG=
201712201400 METAR MRPV 201400Z 10012G22KT 9999 FEW040 21/14 A3004 NOSIG=
201712201500 METAR MRPV 201500Z 07014KT 9999 FEW040 22/14 A3005 NOSIG=
201712201600 METAR MRPV 201600Z 10011KT 9999 SCT030 22/14 A3006 NOSIG=
201712201700 METAR MRPV 201700Z 08011KT 9999 SCT040 25/14 A3004 NOSIG=
201712201800 METAR MRPV 201800Z 06013KT 9999 SCT045 25/14 A3001 NOSIG=
201712201900 METAR MRPV 201900Z 07014KT 9999 FEW040 26/15 A2998 NOSIG=
201712202000 METAR MRPV 202000Z 07014KT 9999 FEW035 25/15 A2995 NOSIG=
201712202100 METAR MRPV 202100Z 06014KT 9999 FEW035 25/15 A2994 NOSIG=
201712202200 METAR MRPV 202200Z 06013KT 9999 FEW040 24/15 A2993 NOSIG=
201712202300 METAR MRPV 202300Z 07013KT 9999 FEW035 22/15 A2995 NOSIG=
201712210000 METAR MRPV 210000Z COR 09012KT 9999 FEW040 21/15 A2997 NOSIG=
201712210100 METAR MRPV NIL=
201712210200 METAR MRPV NIL=
201712210300 METAR MRPV NIL=
201712210400 METAR MRPV NIL=
201712210500 METAR MRPV NIL=
201712210600 METAR MRPV NIL=
201712210700 METAR MRPV NIL=
201712210800 METAR MRPV NIL=
201712210900 METAR MRPV NIL=
201712211000 METAR MRPV NIL=
201712211100 METAR MRPV NIL=
201712211200 METAR MRPV 211200Z 09013KT 9999 FEW030 19/14 A3002 NOSIG=
201712211300 METAR MRPV 211300Z 08015KT 9999 FEW030 20/14 A3003 NOSIG=
201712211400 METAR MRPV 211400Z 08016G26KT 9999 FEW035 21/14 A3006 NOSIG=
201712211500 METAR MRPV 211500Z 08017KT 9999 SCT040 22/13 A3007 NOSIG=
201712211600 METAR MRPV 211600Z 10013KT 9999 SCT045 22/14 A3007 NOSIG=
201712211700 METAR MRPV 211700Z 06017G27KT CAVOK 24/12 A3004 NOSIG=
201712211800 METAR MRPV 211800Z 07015G25KT CAVOK 25/14 A3001 NOSIG=
201712211900 METAR MRPV 211900Z 07018KT 9999 FEW045 25/14 A2998 NOSIG=
201712212000 METAR MRPV 212000Z 08017G27KT 9999 FEW045 25/14 A2995 NOSIG=
201712212100 METAR MRPV 212100Z 06015KT 9999 FEW045 25/14 A2995 NOSIG=
201712212200 METAR MRPV 212200Z 07014KT 9999 FEW040 BKN080 22/15 A2998 NOSIG=
201712212300 METAR MRPV 212300Z 07014KT 9999 FEW040 SCT080 22/14 A2998 NOSIG=
201712220000 METAR MRPV 220000Z 07015KT 9999 FEW030 20/14 A2999 NOSIG=
201712220100 METAR MRPV NIL=
201712220200 METAR MRPV NIL=
201712220300 METAR MRPV NIL=
201712220400 METAR MRPV NIL=
201712220500 METAR MRPV NIL=
201712220600 METAR MRPV NIL=
201712220700 METAR MRPV NIL=
201712220800 METAR MRPV NIL=
201712220900 METAR MRPV NIL=
201712221000 METAR MRPV NIL=
201712221100 METAR MRPV NIL=
201712221200 METAR MRPV 221200Z 08013KT CAVOK 19/13 A3000 NOSIG=
201712221300 METAR MRPV 221300Z 08015KT CAVOK 20/13 A3001 NOSIG=
201712221400 METAR MRPV 221400Z 08017KT CAVOK 22/12 A3004 NOSIG=
201712221500 METAR MRPV 221500Z 07016KT CAVOK 23/13 A3005 NOSIG=
201712221600 METAR MRPV 221600Z 06015G25KT CAVOK 24/14 A3004 NOSIG=
201712221700 METAR MRPV 221700Z 05015KT 9999 FEW045 25/13 A3003 NOSIG=
201712221800 METAR MRPV 221800Z 06017KT 9999 FEW045 25/12 A3001 NOSIG=
201712221900 METAR MRPV 221900Z 06013G23KT 9999 FEW045 26/12 A2999 NOSIG=
201712222000 METAR MRPV 222000Z 07016KT CAVOK 26/12 A2997 NOSIG=
201712222100 METAR MRPV 222100Z 06015KT CAVOK 25/12 A2996 NOSIG=
201712222200 METAR MRPV 222200Z 06013KT 9999 FEW035 24/13 A2997 NOSIG=
201712222300 METAR MRPV 222300Z 07013G23KT 9999 FEW035 22/14 A2998 NOSIG=
201712230000 METAR MRPV 230000Z 08012KT 9999 FEW030 21/15 A2999 NOSIG=
201712230100 METAR MRPV NIL=
201712230200 METAR MRPV NIL=
201712230300 METAR MRPV NIL=
201712230400 METAR MRPV NIL=
201712230500 METAR MRPV NIL=
201712230600 METAR MRPV NIL=
201712230700 METAR MRPV NIL=
201712230800 METAR MRPV NIL=
201712230900 METAR MRPV NIL=
201712231000 METAR MRPV NIL=
201712231100 METAR MRPV NIL=
201712231200 METAR MRPV 231200Z 09013G25KT 9999 FEW035 20/14 A3002 NOSIG=
201712231300 METAR MRPV 231300Z 08020KT 9999 FEW030 21/13 A3004 NOSIG=
201712231400 METAR MRPV 231400Z 09016G26KT 9999 FEW030 21/14 A3005 NOSIG=
201712231500 METAR MRPV 231500Z 08017KT 9999 FEW040 23/14 A3007 NOSIG=
201712231600 METAR MRPV 231600Z 07015KT CAVOK 25/14 A3006 NOSIG=
201712231700 METAR MRPV 231700Z 08013KT 9999 FEW045 26/13 A3005 NOSIG=
201712231800 METAR MRPV 231800Z 08013KT 9999 FEW045 SCT100 26/14 A3002 NOSIG=
201712231900 METAR MRPV 231900Z 05013KT 9999 FEW040 26/14 A2999 NOSIG=
201712232000 METAR MRPV 232000Z 06014KT 9999 SCT035 25/15 A2997 NOSIG=
201712232100 METAR MRPV 232100Z 06015KT 9999 SCT030 24/15 A2997 NOSIG=
201712232200 METAR MRPV 232200Z 06015KT 9999 FEW030 24/14 A2996 NOSIG=
201712232300 METAR MRPV 232300Z 07017KT 9999 FEW030 22/14 A2997 NOSIG=
201712240000 METAR MRPV 240000Z 09014KT 9999 FEW030 20/14 A2998 NOSIG=
201712240100 METAR MRPV NIL=
201712240200 METAR MRPV NIL=
201712240300 METAR MRPV NIL=
201712240400 METAR MRPV NIL=
201712240500 METAR MRPV NIL=
201712240600 METAR MRPV NIL=
201712240700 METAR MRPV NIL=
201712240800 METAR MRPV NIL=
201712240900 METAR MRPV NIL=
201712241000 METAR MRPV NIL=
201712241100 METAR MRPV NIL=
201712241200 METAR MRPV 241200Z 10010KT CAVOK 19/11 A3002 NOSIG=
201712241300 METAR MRPV 241300Z 08020KT CAVOK 20/11 A3004 NOSIG=
201712241400 METAR MRPV 241400Z 08018KT CAVOK 21/11 A3006 NOSIG=
201712241500 METAR MRPV 241500Z 07015KT CAVOK 23/11 A3007 NOSIG=
201712241600 METAR MRPV 241600Z 06012KT CAVOK 25/11 A3007 NOSIG=
201712241700 METAR MRPV 241700Z 06013G23KT CAVOK 25/12 A3006 NOSIG=
201712241800 METAR MRPV 241800Z 06014KT 9999 FEW045 26/12 A3003 NOSIG=
201712241900 METAR MRPV 241900Z 06015KT 9999 FEW045 25/13 A3000 NOSIG=
201712242000 METAR MRPV 242000Z 06014KT 9999 FEW045 26/13 A2998 NOSIG=
201712242100 METAR MRPV 242100Z 05012G23KT 9999 FEW040 26/13 A2997 NOSIG=
201712242200 METAR MRPV 242200Z 06013KT 9999 FEW035 23/15 A2997 NOSIG=
201712242300 METAR MRPV 242300Z 07013KT 9999 FEW030 SCT060 22/14 A3000 NOSIG=
201712250000 METAR MRPV 250000Z 07010G20KT 9999 FEW025 21/14 A3002 NOSIG=
201712250100 METAR MRPV NIL=
201712250200 METAR MRPV NIL=
201712250300 METAR MRPV NIL=
201712250400 METAR MRPV NIL=
201712250500 METAR MRPV NIL=
201712250600 METAR MRPV NIL=
201712250700 METAR MRPV NIL=
201712250800 METAR MRPV NIL=
201712250900 METAR MRPV NIL=
201712251000 METAR MRPV NIL=
201712251100 METAR MRPV NIL=
201712251200 METAR MRPV 251200Z 11015KT 9999 FEW030 19/13 A3005 NOSIG=
201712251300 METAR MRPV 251300Z 11016G30KT 9999 FEW030 20/14 A3006 NOSIG=
201712251400 METAR MRPV 251400Z 09012KT 9999 FEW030 21/13 A3011 NOSIG=
201712251500 METAR MRPV 251500Z 09018G28KT 9999 FEW030 22/13 A3010 NOSIG=
201712251600 METAR MRPV 251600Z 07020KT 9999 FEW035 24/12 A3010 NOSIG=
201712251700 METAR MRPV 251700Z 08022KT 9999 FEW045 25/12 A3008 NOSIG=
201712251800 METAR MRPV 251800Z 06019G30KT 9999 FEW045 25/12 A3006 NOSIG=
201712251900 METAR MRPV 251900Z 07018G28KT 9999 FEW045 25/12 A3003 NOSIG=
201712252000 METAR MRPV 252000Z 07018G28KT 9999 FEW045 25/11 A3001 NOSIG=
201712252100 METAR MRPV 252100Z 07016G26KT 9999 FEW045 24/11 A3000 NOSIG=
201712252200 METAR MRPV 252200Z 09016G26KT CAVOK 23/12 A3000 NOSIG=
201712252300 METAR MRPV 252300Z 09016KT CAVOK 22/12 A3002 NOSIG=
201712260000 METAR MRPV 260000Z 10011KT CAVOK 21/12 A3003 NOSIG=
201712260100 METAR MRPV NIL=
201712260200 METAR MRPV NIL=
201712260300 METAR MRPV NIL=
201712260400 METAR MRPV NIL=
201712260500 METAR MRPV NIL=
201712260600 METAR MRPV NIL=
201712260700 METAR MRPV NIL=
201712260800 METAR MRPV NIL=
201712260900 METAR MRPV NIL=
201712261000 METAR MRPV NIL=
201712261100 METAR MRPV NIL=
201712261200 METAR MRPV 261200Z 12011KT CAVOK 18/12 A3006 NOSIG=
201712261300 METAR MRPV 261300Z 12012G22KT CAVOK 20/12 A3008 NOSIG=
201712261400 METAR MRPV 261400Z 09017G28KT CAVOK 22/12 A3009 NOSIG=
201712261500 METAR MRPV 261500Z 07017G27KT CAVOK 23/12 A3010 NOSIG=
201712261600 METAR MRPV 261600Z 06015KT CAVOK 23/13 A3011 NOSIG=
201712261700 METAR MRPV 261700Z 07018G32KT CAVOK 24/12 A3008 NOSIG=
201712261800 METAR MRPV 261800Z 06019KT CAVOK 24/12 A3007 NOSIG=
201712261900 METAR MRPV 261900Z 07017G27KT CAVOK 25/13 A3004 NOSIG=
201712262000 METAR MRPV 262000Z 06017G27KT 9999 FEW045 24/13 A3002 NOSIG=
201712262100 METAR MRPV 262100Z 06017KT 9999 FEW045 24/12 A3001 NOSIG=
201712262200 METAR MRPV 262200Z 06017G28KT 9999 FEW035 23/12 A3001 NOSIG=
201712262300 METAR MRPV 262300Z 07013G23KT 9999 FEW040 22/12 A3003 NOSIG=
201712270000 METAR MRPV 270000Z 07016KT 9999 FEW045 20/12 A3005 NOSIG=
201712270100 METAR MRPV NIL=
201712270200 METAR MRPV NIL=
201712270300 METAR MRPV NIL=
201712270400 METAR MRPV NIL=
201712270500 METAR MRPV NIL=
201712270600 METAR MRPV NIL=
201712270700 METAR MRPV NIL=
201712270800 METAR MRPV NIL=
201712270900 METAR MRPV NIL=
201712271000 METAR MRPV NIL=
201712271100 METAR MRPV NIL=
201712271200 METAR MRPV 271200Z 10013G23KT CAVOK 19/12 A3006 NOSIG=
201712271300 METAR MRPV 271300Z 11015KT CAVOK 20/12 A3008 NOSIG=
201712271400 METAR MRPV 271400Z 08017KT CAVOK 21/12 A3010 NOSIG=
201712271500 METAR MRPV 271500Z 07017KT CAVOK 23/12 A3010 NOSIG=
201712271600 METAR MRPV 271600Z 08018KT CAVOK 24/12 A3009 NOSIG=
201712271700 METAR MRPV 271700Z 06017G27KT CAVOK 24/12 A3008 NOSIG=
201712271800 METAR MRPV 271800Z 06017KT 9999 FEW040 24/13 A3006 NOSIG=
201712271900 METAR MRPV 271900Z 07014G24KT 9999 FEW035 SCT080 23/13 A3003 NOSIG=
201712272000 METAR MRPV 272000Z 06014KT 9999 FEW040 25/13 A3000 NOSIG=
201712272100 METAR MRPV 272100Z 05013G23KT 9999 FEW040 24/12 A2999 NOSIG=
201712272200 METAR MRPV 272200Z 06015KT 9999 FEW040 23/13 A2999 NOSIG=
201712272300 METAR MRPV 272300Z 06012KT 9999 FEW035 22/13 A3000 NOSIG=
201712280000 METAR MRPV 280000Z 07013KT 9999 FEW035 20/14 A3001 NOSIG=
201712280100 METAR MRPV NIL=
201712280200 METAR MRPV NIL=
201712280300 METAR MRPV NIL=
201712280400 METAR MRPV NIL=
201712280500 METAR MRPV NIL=
201712280600 METAR MRPV NIL=
201712280700 METAR MRPV NIL=
201712280800 METAR MRPV NIL=
201712280900 METAR MRPV NIL=
201712281000 METAR MRPV NIL=
201712281100 METAR MRPV NIL=
201712281200 METAR MRPV 281200Z 08013KT 9999 FEW035 19/13 A3005 NOSIG=
201712281300 METAR MRPV 281300Z 08014KT 9999 FEW040 20/13 A3006 NOSIG=
201712281400 METAR MRPV 281400Z 08015KT 9999 FEW035 22/13 A3008 NOSIG=
201712281500 METAR MRPV 281500Z 08015KT 9999 FEW040 23/13 A3008 NOSIG=
201712281600 METAR MRPV 281600Z 07016KT CAVOK 24/13 A3007 NOSIG=
201712281700 METAR MRPV 281700Z 05015KT 9999 FEW040 25/13 A3006 NOSIG=
201712281800 METAR MRPV 281800Z 07016KT 9999 SCT035 24/13 A3004 NOSIG=
201712281900 METAR MRPV 281900Z 06014KT 9999 BKN040 25/14 A3001 NOSIG=
201712282000 METAR MRPV 282000Z 07013KT 9999 SCT040 25/14 A2999 NOSIG=
201712282100 METAR MRPV 282100Z 05014KT 9999 SCT035 24/14 A2999 NOSIG=
201712282200 METAR MRPV 282200Z 07010KT 9999 SCT030 SCT100 24/14 A2999 NOSIG=
201712282300 METAR MRPV 282300Z 07011KT 9999 SCT030 22/14 A3001 NOSIG=
201712290000 METAR MRPV 290000Z 11008KT 9999 SCT030 21/15 A3003 NOSIG=
201712290100 METAR MRPV NIL=
201712290200 METAR MRPV NIL=
201712290300 METAR MRPV NIL=
201712290400 METAR MRPV NIL=
201712290500 METAR MRPV NIL=
201712290600 METAR MRPV NIL=
201712290700 METAR MRPV NIL=
201712290800 METAR MRPV NIL=
201712290900 METAR MRPV NIL=
201712291000 METAR MRPV NIL=
201712291100 METAR MRPV NIL=
201712291200 METAR MRPV 291200Z 12009KT CAVOK 19/12 A3004 NOSIG=
201712291300 METAR MRPV 291300Z 13007KT CAVOK 20/12 A3006 NOSIG=
201712291400 METAR MRPV 291400Z 12010KT CAVOK 22/12 A3009 NOSIG=
201712291500 METAR MRPV 291500Z 08013KT CAVOK 23/12 A3009 NOSIG=
201712291600 METAR MRPV 291600Z 07009KT CAVOK 24/13 A3009 NOSIG=
201712291700 METAR MRPV 291700Z 06010KT CAVOK 26/13 A3007 NOSIG=
201712291800 METAR MRPV 291800Z 07011KT CAVOK 27/13 A3004 NOSIG=
201712291900 METAR MRPV 291900Z 05007KT 9999 SCT035 27/13 A3001 NOSIG=
201712292000 METAR MRPV 292000Z 08009KT 9999 BKN040 27/13 A2999 NOSIG=
201712292100 METAR MRPV 292100Z 08011KT 9999 FEW020 BKN035 24/15 A2998 NOSIG=
201712292200 METAR MRPV 292200Z 08011KT 9999 VCSH FEW020TCU BKN035 24/14 A2998 NOSIG=
201712292300 METAR MRPV 292300Z 34005KT 9999 SCT015TCU BKN030 22/18 A3001 NOSIG=
201712300000 METAR MRPV 300000Z 28002KT 8000 VCFG FEW015 BKN020 21/18 A3004 NOSIG=
201712300100 METAR MRPV NIL=
201712300200 METAR MRPV NIL=
201712300300 METAR MRPV NIL=
201712300400 METAR MRPV NIL=
201712300500 METAR MRPV NIL=
201712300600 METAR MRPV NIL=
201712300700 METAR MRPV NIL=
201712300800 METAR MRPV NIL=
201712300900 METAR MRPV NIL=
201712301000 METAR MRPV NIL=
201712301100 METAR MRPV NIL=
201712301200 METAR MRPV 301200Z 09010KT 9999 FEW025 BKN120 20/15 A3006 NOSIG=
201712301300 METAR MRPV 301300Z 11011KT 9999 FEW025 BKN100 21/15 A3008 NOSIG=
201712301400 METAR MRPV 301400Z 10009KT 9999 DZ SCT025 BKN100 21/15 A3011 NOSIG=
201712301500 METAR MRPV 301500Z 13007KT 9999 SCT030 BKN100 22/15 A3011 NOSIG=
201712301600 METAR MRPV 301600Z 10010KT 9999 -DZ SCT030 BKN100 22/15 A3011 NOSIG=
201712301700 METAR MRPV 301700Z 11010KT 9999 SCT025 BKN100 23/15 A3009 NOSIG=
201712301800 METAR MRPV 301800Z 10011KT 9999 SCT025 BKN100 24/15 A3007 NOSIG=
201712301900 METAR MRPV 301900Z 12010KT 9999 -RA SCT030 BKN100 23/16 A3005 NOSIG=
201712302000 METAR MRPV 302000Z 09010KT 9999 SCT030 BKN100 22/16 A3001 NOSIG=
201712302100 METAR MRPV 302100Z 08010KT 9999 SCT025 BKN100 23/15 A2999 NOSIG=
201712302200 METAR MRPV 302200Z 07010KT 9999 SCT025 BKN100 23/14 A3000 NOSIG=
201712302300 METAR MRPV 302300Z 08012KT 9999 FEW025 BKN100 21/15 A3002 NOSIG=
201712310000 METAR MRPV 310000Z 08009KT 9999 FEW025 BKN100 21/15 A3004 NOSIG=
201712310100 METAR MRPV NIL=
201712310200 METAR MRPV NIL=
201712310300 METAR MRPV NIL=
201712310400 METAR MRPV NIL=
201712310500 METAR MRPV NIL=
201712310600 METAR MRPV NIL=
201712310700 METAR MRPV NIL=
201712310800 METAR MRPV NIL=
201712310900 METAR MRPV NIL=
201712311000 METAR MRPV NIL=
201712311100 METAR MRPV NIL=
201712311200 METAR MRPV 311200Z 11009KT 9999 FEW030 BKN100 19/15 A3007 NOSIG=
201712311300 METAR MRPV 311300Z 11011KT 9999 FEW025 BKN100 21/15 A3010 NOSIG=
201712311400 METAR MRPV 311400Z 10011KT 9999 FEW025 BKN100 22/15 A3012 NOSIG=
201712311500 METAR MRPV 311500Z 12007KT 9999 SCT030 BKN100 22/15 A3013 NOSIG=
201712311600 METAR MRPV 311600Z 10010KT 9999 SCT030 BKN100 24/16 A3013 NOSIG=
201712311700 METAR MRPV 311700Z 08017KT 9999 SCT030 BKN100 23/15 A3012 NOSIG=
201712311800 METAR MRPV 311800Z 08014G24KT 9999 -DZ SCT025 BKN100 23/15 A3009 NOSIG=
201712311900 METAR MRPV 311900Z 10011G22KT 9999 FEW025 BKN090 22/14 A3007 NOSIG=
201712312000 METAR MRPV 312000Z 08017G29KT 9999 FEW025 SCT090 24/14 A3004 NOSIG=
201712312100 METAR MRPV 312100Z 07015KT 9999 FEW025 SCT100 22/13 A3002 NOSIG=
201712312200 METAR MRPV 312200Z 07016KT 9999 SCT025 BKN090 21/13 A3004 NOSIG=
201712312300 METAR MRPV 312300Z 08017KT 9999 SCT020 BKN100 20/12 A3007 NOSIG=
