201805010000 METAR MRPV 010000Z 12008KT 9999 FEW030 BKN080 21/14 A3006 NOSIG=
201805010100 METAR MRPV NIL=
201805010200 METAR MRPV NIL=
201805010300 METAR MRPV NIL=
201805010400 METAR MRPV NIL=
201805010500 METAR MRPV NIL=
201805010600 METAR MRPV NIL=
201805010700 METAR MRPV NIL=
201805010800 METAR MRPV NIL=
201805010900 METAR MRPV NIL=
201805011000 METAR MRPV NIL=
201805011100 METAR MRPV NIL=
201805011200 METAR MRPV 011200Z 10012KT CAVOK 20/13 A3006 NOSIG=
201805011300 METAR MRPV 011300Z 11010KT CAVOK 21/14 A3009 NOSIG=
201805011400 METAR MRPV 011400Z 09012KT 9999 FEW040 BKN220 23/14 A3010 NOSIG=
201805011500 METAR MRPV 011500Z 07016KT 9999 FEW045 BKN250 24/13 A3010 NOSIG=
201805011600 METAR MRPV 011600Z 05015KT 9999 FEW040 BKN250 25/14 A3010 NOSIG=
201805011700 METAR MRPV 011700Z 06015KT 9999 FEW040 BKN250 26/12 A3010 NOSIG=
201805011800 METAR MRPV 011800Z 07015KT 9999 FEW045 BKN250 27/13 A3008 NOSIG=
201805011900 METAR MRPV 011900Z 27015KT CAVOK 27/12 A3006 NOSIG=
201805012000 METAR MRPV 012000Z 04013KT 9999 FEW045 SCT250 27/12 A3003 NOSIG=
201805012100 METAR MRPV 012100Z 05013KT CAVOK 26/12 A3002 NOSIG=
201805012200 METAR MRPV 012200Z 05013KT CAVOK 26/11 A3001 NOSIG=
201805012300 METAR MRPV 012300Z 06013KT CAVOK 25/11 A3001 NOSIG=
201805020000 METAR MRPV 020000Z 06009G19KT 9999 FEW040 SCT250 23/12 A3003 NOSIG=
201805020100 METAR MRPV NIL=
201805020200 METAR MRPV NIL=
201805020300 METAR MRPV NIL=
201805020400 METAR MRPV NIL=
201805020500 METAR MRPV NIL=
201805020600 METAR MRPV NIL=
201805020700 METAR MRPV NIL=
201805020800 METAR MRPV NIL=
201805020900 METAR MRPV NIL=
201805021000 METAR MRPV NIL=
201805021100 METAR MRPV NIL=
201805021200 METAR MRPV 021200Z 11009KT 9999 FEW030 20/13 A3005 NOSIG=
201805021300 METAR MRPV 021300Z 11010KT CAVOK 21/12 A3007 NOSIG=
201805021400 METAR MRPV 021400Z 08017KT CAVOK 22/12 A3009 NOSIG=
201805021500 METAR MRPV 021500Z 06015KT CAVOK 23/13 A3010 NOSIG=
201805021600 METAR MRPV 021600Z 07014G24KT CAVOK 25/12 A3010 NOSIG=
201805021700 METAR MRPV 021700Z 06014KT CAVOK 26/12 A3008 NOSIG=
201805021800 METAR MRPV 021800Z 08011KT CAVOK 26/12 A3007 NOSIG=
201805021900 METAR MRPV 021900Z 08012KT 9999 FEW045 28/12 A3003 NOSIG=
201805022000 METAR MRPV 022000Z 07013KT 9999 FEW045 27/12 A3001 NOSIG=
201805022100 METAR MRPV 022100Z 07013KT 9999 FEW045 28/12 A2999 NOSIG=
201805022200 METAR MRPV 022200Z 07011KT 9999 FEW045 27/13 A2998 NOSIG=
201805022300 METAR MRPV 022300Z 07013KT 9999 FEW040 SCT250 25/13 A2999 NOSIG=
201805030000 METAR MRPV 030000Z 09011KT 9999 FEW035 BKN250 23/14 A3001 NOSIG=
201805030100 METAR MRPV NIL=
201805030200 METAR MRPV NIL=
201805030300 METAR MRPV NIL=
201805030400 METAR MRPV NIL=
201805030500 METAR MRPV NIL=
201805030600 METAR MRPV NIL=
201805030700 METAR MRPV NIL=
201805030800 METAR MRPV NIL=
201805030900 METAR MRPV NIL=
201805031000 METAR MRPV NIL=
201805031100 METAR MRPV NIL=
201805031200 METAR MRPV 031200Z 12010KT CAVOK 21/12 A3003 NOSIG=
201805031300 METAR MRPV 031300Z 11011KT CAVOK 22/13 A3005 NOSIG=
201805031400 METAR MRPV 031400Z 09016KT CAVOK 24/14 A3007 NOSIG=
201805031500 METAR MRPV 031500Z 08014KT CAVOK 25/14 A3007 NOSIG=
201805031600 METAR MRPV 031600Z 07016KT CAVOK 26/16 A3007 NOSIG=
201805031700 METAR MRPV 031700Z 07018KT 9999 FEW040 BKN250 25/16 A3007 NOSIG=
201805031800 METAR MRPV 031800Z 08019G29KT 9999 FEW030 BKN250 26/14 A3005 NOSIG=
201805031900 METAR MRPV 031900Z 07015KT 9999 FEW040 BKN200 26/14 A3003 NOSIG=
201805032000 METAR MRPV 032000Z 08019KT 9999 FEW035 BKN200 26/14 A3001 NOSIG=
201805032100 METAR MRPV 032100Z 09016KT 9999 FEW040 BKN200 26/14 A3000 NOSIG=
201805032200 METAR MRPV 032200Z 08016KT 9999 FEW040 BKN200 25/15 A2999 NOSIG=
201805032300 METAR MRPV 032300Z 09012KT 9999 FEW040 BKN200 24/15 A3001 NOSIG=
201805040000 METAR MRPV 040000Z 09012KT CAVOK 22/15 A3003 NOSIG=
201805040100 METAR MRPV NIL=
201805040200 METAR MRPV NIL=
201805040300 METAR MRPV NIL=
201805040400 METAR MRPV NIL=
201805040500 METAR MRPV NIL=
201805040600 METAR MRPV NIL=
201805040700 METAR MRPV NIL=
201805040800 METAR MRPV NIL=
201805040900 METAR MRPV NIL=
201805041000 METAR MRPV NIL=
201805041100 METAR MRPV NIL=
201805041200 METAR MRPV 041200Z 12009KT CAVOK 21/13 A3002 NOSIG=
201805041300 METAR MRPV 04130Z 13008KT CAVOK 22/14 A3003 NOSIG=
201805041400 METAR MRPV 041400Z 11009KT CAVOK 23/14 A3005 NOSIG=
201805041500 METAR MRPV 041500Z 11011KT CAVOK 25/14 A3005 NOSIG=
201805041600 METAR MRPV 041600Z 11011KT CAVOK 25/14 A3005 NOSIG=
201805041700 METAR MRPV 041700Z 11011KT CAVOK 25/14 A3005 NOSIG=
201805041800 METAR MRPV 041800Z 07013KT 9999 FEW045 SCT250 28/14 A2999 NOSIG=
201805041900 METAR MRPV 041900Z 07012KT 9999 FEW045 SCT200 29/14 A2996 NOSIG=
201805042000 METAR MRPV 042000Z 08014KT 9999 FEW040 SCT200 29/15 A2994 NOSIG=
201805042100 METAR MRPV 042100Z 07015KT 9999 SCT040 SCT200 26/14 A2993 NOSIG=
201805042200 METAR MRPV 042200Z 08014KT 9999 FEW025 SCT040 BKN200 26/14 A2993 NOSIG=
201805042300 METAR MRPV 042300Z 08012KT 9999 FEW025 BKN040 24/15 A2995 NOSIG=
201805050000 METAR MRPV 050000Z 10009KT 9999 FEW030 SCT250 23/16 A2997 NOSIG=
201805050100 METAR MRPV NIL=
201805050200 METAR MRPV NIL=
201805050300 METAR MRPV NIL=
201805050400 METAR MRPV NIL=
201805050500 METAR MRPV NIL=
201805050600 METAR MRPV NIL=
201805050700 METAR MRPV NIL=
201805050800 METAR MRPV NIL=
201805050900 METAR MRPV NIL=
201805051000 METAR MRPV NIL=
201805051100 METAR MRPV NIL=
201805051200 METAR MRPV 051200Z 13005KT CAVOK 20/11 A2999 NOSIG=
201805051300 METAR MRPV 051300Z 11008KT CAVOK 22/11 A3001 NOSIG=
201805051400 METAR MRPV 051400Z 10008KT CAVOK 26/08 A3003 NOSIG=
201805051500 METAR MRPV 051500Z 10009KT CAVOK 28/08 A3002 NOSIG=
201805051600 METAR MRPV 051600Z 08005KT CAVOK 29/08 A3001 BECMG 28006KT=
201805051700 METAR MRPV 051700Z 28011KT 9999 FEW040 BKN200 27/16 A3001 NOSIG=
201805051800 METAR MRPV 051800Z 27011KT 9999 FEW040 BKN200 27/16 A3000 NOSIG=
201805051900 METAR MRPV 051900Z 28010KT 9999 SCT040 BKN220 27/17 A2998 NOSIG=
201805052000 METAR MRPV 052000Z 28011KT 9999 SCT040 SCT250 27/17 A2996 NOSIG=
201805052100 METAR MRPV 052100Z 24007KT 9999 SCT040 SCT250 27/17 A2996 NOSIG=
201805052200 METAR MRPV 052200Z 25005KT 9999 RA BKN035 SCT200 25/16 A2996 NOSIG=
201805052300 METAR MRPV 052300Z 33006KT 9999 SCT020 BKN200 23/16 A2999 RERA NOSIG=
201805060000 METAR MRPV 060000Z 07001KT 9999 BKN020 SCT200 23/16 A3002 RERA NOSIG=
201805060100 METAR MRPV NIL=
201805060200 METAR MRPV NIL=
201805060300 METAR MRPV NIL=
201805060400 METAR MRPV NIL=
201805060500 METAR MRPV NIL=
201805060600 METAR MRPV NIL=
201805060700 METAR MRPV NIL=
201805060800 METAR MRPV NIL=
201805060900 METAR MRPV NIL=
201805061000 METAR MRPV NIL=
201805061100 METAR MRPV NIL=
201805061200 METAR MRPV 061200Z 13001KT CAVOK 18/12 A3009 NOSIG=
201805061300 METAR MRPV 061300Z 11005KT CAVOK 23/09 A3009 NOSIG=
201805061400 METAR MRPV 061400Z 09010KT CAVOK 25/10 A3009 NOSIG=
201805061500 METAR MRPV 061500Z 07013KT CAVOK 26/10 A3009 NOSIG=
201805061600 METAR MRPV 061600Z 07011KT CAVOK 27/10 A3009 NOSIG=
201805061700 METAR MRPV 061700Z 06004KT CAVOK 29/10 A3007 BECMG 29005KT=
201805061800 METAR MRPV 061800Z 29008KT CAVOK 28/14 A3004 NOSIG=
201805061900 METAR MRPV 061900Z 24007KT CAVOK 29/15 A3002 NOSIG=
201805062000 METAR MRPV 062000Z 27010KT 9999 SCT035 28/16 A3001 NOSIG=
201805062100 METAR MRPV 062100Z 26009KT 9999 FEW020TCU SCT035 26/17 A3000 NOSIG=
201805062200 METAR MRPV 062200Z 14004KT 9999 BKN035 26/16 A3000 NOSIG=
201805062300 METAR MRPV 062300Z 03005KT 9999 RA BKN035 SCT100 22/16 A3004 NOSIG=
201805070000 METAR MRPV 070000Z 13004KT 9999 BKN035 21/18 A3007 RERA NOSIG=
201805070100 METAR MRPV NIL=
201805070200 METAR MRPV NIL=
201805070300 METAR MRPV NIL=
201805070400 METAR MRPV NIL=
201805070500 METAR MRPV NIL=
201805070600 METAR MRPV NIL=
201805070700 METAR MRPV NIL=
201805070800 METAR MRPV NIL=
201805070900 METAR MRPV NIL=
201805071000 METAR MRPV NIL=
201805071100 METAR MRPV NIL=
201805071200 METAR MRPV NIL=
201805071300 METAR MRPV NIL=
201805071400 METAR MRPV NIL=
201805071500 METAR MRPV NIL=
201805071600 METAR MRPV 071600Z 05007KT CAVOK 27/12 A3012 NOSIG=
201805071700 METAR MRPV 071700Z 09005G15KT CAVOK 28/12 A3011 BECMG 29005KT=
201805071800 METAR MRPV 071800Z 06004KT CAVOK 28/12 A3009 BECMG 29005KT=
201805071900 METAR MRPV 071900Z 21003KT 9999 FEW045 SCT200 27/16 A3006 NOSIG=
201805072000 METAR MRPV 072000Z 27008KT 9999 BKN045 27/17 A3002 NOSIG=
201805072100 METAR MRPV 072100Z 10008KT 3000 1000NW TSRA SCT020CB BKN040 22/16 A3003 NOSIG=
201805072200 METAR MRPV 072200Z 13001KT 5000 +RA BKN025 19/18 A3005 NOSIG=
201805072300 METAR MRPV 072300Z 06005KT 9999 SCT040 BKN100 20/18 A3006 NOSIG=
201805080000 METAR MRPV 080000Z 04001KT 8000 FEW040 BKN100 20/19 A3006 NOSIG=
201805080100 METAR MRPV NIL=
201805080200 METAR MRPV NIL=
201805080300 METAR MRPV NIL=
201805080400 METAR MRPV NIL=
201805080500 METAR MRPV NIL=
201805080600 METAR MRPV NIL=
201805080700 METAR MRPV NIL=
201805080800 METAR MRPV NIL=
201805080900 METAR MRPV NIL=
201805081000 METAR MRPV NIL=
201805081100 METAR MRPV NIL=
201805081200 METAR MRPV 081200Z 10010KT CAVOK 20/12 A3009 NOSIG=
201805081300 METAR MRPV 081300Z 09013KT CAVOK 22/12 A3011 NOSIG=
201805081400 METAR MRPV 081400Z 10013KT 9999 FEW040 23/13 A3013 NOSIG=
201805081500 METAR MRPV 081500Z 07014KT CAVOK 25/13 A3012 NOSIG=
201805081600 METAR MRPV 081600Z 06014KT CAVOK 26/13 A3011 NOSIG=
201805081700 METAR MRPV 081700Z 07014KT CAVOK 26/14 A3010 NOSIG=
201805081800 METAR MRPV 081800Z 09014KT CAVOK 27/14 A3009 NOSIG=
201805081900 METAR MRPV 081900Z 08011KT 9999 FEW045 28/13 A3006 NOSIG=
201805082000 METAR MRPV 082000Z 08012KT 9999 FEW045 28/13 A3003 NOSIG=
201805082100 METAR MRPV 082100Z 07014KT 9999 FEW035 SCT200 27/14 A3001 NOSIG=
201805082200 METAR MRPV 082200Z 07013KT 9999 SCT035 BKN100 25/15 A3001 NOSIG=
201805082300 METAR MRPV 082300Z 08011KT 9999 SCT030 BKN080 23/15 A3004 TEMPO 31005KT=
201805090000 METAR MRPV 090000Z 07007KT 9999 SCT035 SCT080 22/15 A3007 NOSIG=
201805090100 METAR MRPV NIL=
201805090200 METAR MRPV NIL=
201805090300 METAR MRPV NIL=
201805090400 METAR MRPV NIL=
201805090500 METAR MRPV NIL=
201805090600 METAR MRPV NIL=
201805090700 METAR MRPV NIL=
201805090800 METAR MRPV NIL=
201805090900 METAR MRPV NIL=
201805091000 METAR MRPV NIL=
201805091100 METAR MRPV NIL=
201805091200 METAR MRPV 091200Z 10011KT CAVOK 21/12 A3007 NOSIG=
201805091300 METAR MRPV 091300Z 09013KT CAVOK 23/11 A3008 NOSIG=
201805091400 METAR MRPV 091400Z 08014KT CAVOK 24/11 A3009 NOSIG=
201805091500 METAR MRPV 091500Z 07011KT CAVOK 26/11 A3008 NOSIG=
201805091600 METAR MRPV 091600Z 07010KT CAVOK 27/11 A3008 NOSIG=
201805091700 METAR MRPV 091700Z 06009KT CAVOK 28/11 A3007 NOSIG=
201805091800 METAR MRPV 091800Z 35007KT 9999 FEW045 SCT250 28/16 A3005 NOSIG=
201805091900 METAR MRPV 091900Z 28011KT 9999 FEW045 SCT250 28/16 A3004 NOSIG=
201805092000 METAR MRPV 092000Z 27011KT 9999 TSRA FEW025CB SCT040 28/17 A3000 NOSIG=
201805092100 METAR MRPV 092100Z 07005KT 9999 4500NW SHRA VCTS FEW025CB SCT030 BKN100 22/15 A3002 NOSIG=
201805092200 METAR MRPV 092200Z 31004KT 9999 SCT040 BKN100 21/16 A3002 RESHRA NOSIG=
201805092300 METAR MRPV 092300Z 02002KT 9999 SCT040 BKN100 20/17 A3003 NOSIG=
201805100000 METAR MRPV 100000Z 34002KT 9999 FEW035 BKN100 21/16 A3005 NOSIG=
201805100100 METAR MRPV NIL=
201805100200 METAR MRPV NIL=
201805100300 METAR MRPV NIL=
201805100400 METAR MRPV NIL=
201805100500 METAR MRPV NIL=
201805100600 METAR MRPV NIL=
201805100700 METAR MRPV NIL=
201805100800 METAR MRPV NIL=
201805100900 METAR MRPV NIL=
201805101000 METAR MRPV NIL=
201805101100 METAR MRPV NIL=
201805101200 METAR MRPV 101200Z 11009KT CAVOK 21/10 A3007 NOSIG=
201805101300 METAR MRPV 101300Z 11011KT CAVOK 23/10 A3009 NOSIG=
201805101400 METAR MRPV 101400Z 09011KT CAVOK 25/11 A3009 NOSIG=
201805101500 METAR MRPV 101500Z 08011KT CAVOK 25/11 A3010 NOSIG=
201805101600 METAR MRPV 101600Z 07006KT CAVOK 27/10 A3010 BECMG 29005KT=
201805101700 METAR MRPV 101700Z 18003KT CAVOK 28/10 A3008 NOSIG=
201805101800 METAR MRPV 101800Z 28012KT 9999 FEW045 27/15 A3006 NOSIG=
201805101900 METAR MRPV 101900Z 28014KT 9999 FEW045 BKN200 27/16 A3004 NOSIG=
201805102000 METAR MRPV 102000Z 28007KT 9999 -SHRA FEW025TCU SCT040 SCT200 26/16 A3003 TEMPO 5000=
201805102100 METAR MRPV 102100Z 03007KT 9999 3000N SHRA SCT015TCU FEW030 BKN100 18/17 A3003 NOSIG=
201805102200 METAR MRPV 102200Z 06004KT 9999 FEW040 SCT100 BKN200 20/17 A3003 RESHRA NOSIG=
201805102300 METAR MRPV 102300Z 00000KT 9999 FEW040 SCT100 BKN200 20/17 A3004 NOSIG=
201805110000 METAR MRPV 110000Z 26002KT 9999 FEW035 SCT100 BKN200 20/17 A3005 NOSIG=
201805110100 METAR MRPV NIL=
201805110200 METAR MRPV NIL=
201805110300 METAR MRPV NIL=
201805110400 METAR MRPV NIL=
201805110500 METAR MRPV NIL=
201805110600 METAR MRPV NIL=
201805110700 METAR MRPV NIL=
201805110800 METAR MRPV NIL=
201805110900 METAR MRPV NIL=
201805111000 METAR MRPV NIL=
201805111100 METAR MRPV NIL=
201805111200 METAR MRPV 111200Z 13006KT CAVOK 20/14 A3006 NOSIG=
201805111300 METAR MRPV 111300Z 13007KT CAVOK 22/13 A3009 NOSIG=
201805111400 METAR MRPV 111400Z 11008KT CAVOK 24/13 A3010 NOSIG=
201805111500 METAR MRPV 111500Z 08007KT CAVOK 26/11 A3009 NOSIG=
201805111600 METAR MRPV 111600Z 07008KT CAVOK 27/09 A3007 NOSIG=
201805111700 METAR MRPV 111700Z 06008KT 9999 FEW045 BKN200 29/10 A3006 NOSIG=
201805111800 METAR MRPV 111800Z 28011KT 9999 FEW045 SCT200 27/17 A3004 NOSIG=
201805111900 METAR MRPV 111900Z 28009KT 9999 BKN035 25/18 A3003 NOSIG=
201805112000 METAR MRPV 112000Z 24004KT 9999 VCSH FEW025TCU BKN035 24/18 A3002 NOSIG=
201805112100 METAR MRPV 112100Z 28004KT 9999 BKN030 24/18 A3001 NOSIG=
201805112200 METAR MRPV 112200Z 30004KT 9999 SCT030 BKN100 24/17 A3000 NOSIG=
201805112300 METAR MRPV 112300Z 07010KT 9999 SCT025 BKN080 23/17 A3002 NOSIG=
201805120000 METAR MRPV 120000Z 10005KT 9999 VCTS VCFG SCT025CB BKN080 22/16 A3003 NOSIG=
201805120100 METAR MRPV NIL=
201805120200 METAR MRPV NIL=
201805120300 METAR MRPV NIL=
201805120400 METAR MRPV NIL=
201805120500 METAR MRPV NIL=
201805120600 METAR MRPV NIL=
201805120700 METAR MRPV NIL=
201805120800 METAR MRPV NIL=
201805120900 METAR MRPV NIL=
201805121000 METAR MRPV NIL=
201805121100 METAR MRPV NIL=
201805121200 METAR MRPV 121200Z 13008KT 9999 -RA FEW030 BKN100 20/16 A3005 NOSIG=
201805121300 METAR MRPV 121300Z 14007KT 9999 FEW030 SCT090 BKN120 20/16 A3006 NOSIG=
201805121400 METAR MRPV 121400Z 12008KT 9999 FEW040 BKN120 22/16 A3009 NOSIG=
201805121500 METAR MRPV 121500Z 12007KT 9999 FEW035 BKN100 23/16 A3011 NOSIG=
201805121600 METAR MRPV 121600Z 08014KT 9999 RA FEW030 BKN100 22/17 A3011 NOSIG=
201805121700 METAR MRPV 121700Z 10010KT 9999 FEW045 BKN120 23/16 A3009 RERA NOSIG=
201805121800 METAR MRPV 121800Z 09014KT 9999 FEW030 BKN120 23/15 A3006 NOSIG=
201805121900 METAR MRPV 121900Z 08011KT 9999 FEW035 BKN120 24/15 A3005 NOSIG=
201805122000 METAR MRPV 122000Z 11010KT 9999 FEW045 BKN120 24/16 A3001 NOSIG=
201805122100 METAR MRPV 122100Z 09013KT CAVOK 25/15 A2999 NOSIG=
201805122200 METAR MRPV 122200Z 09009KT CAVOK 24/15 A2999 NOSIG=
201805122300 METAR MRPV 122300Z 08015KT 9999 FEW035 BKN120 23/13 A2999 NOSIG=
201805130000 METAR MRPV 130000Z 10006KT CAVOK 22/14 A3002 NOSIG=
201805130100 METAR MRPV NIL=
201805130200 METAR MRPV NIL=
201805130300 METAR MRPV NIL=
201805130400 METAR MRPV NIL=
201805130500 METAR MRPV NIL=
201805130600 METAR MRPV NIL=
201805130700 METAR MRPV NIL=
201805130800 METAR MRPV NIL=
201805130900 METAR MRPV NIL=
201805131000 METAR MRPV NIL=
201805131100 METAR MRPV NIL=
201805131200 METAR MRPV 131200Z 13005KT CAVOK 21/14 A3000 NOSIG=
201805131300 METAR MRPV 131300Z 12008KT CAVOK 23/15 A3003 NOSIG=
201805131400 METAR MRPV 131400Z 10009KT 9999 FEW040 BKN250 26/14 A3005 NOSIG=
201805131500 METAR MRPV 131500Z 06006KT 9999 FEW045 BKN250 27/15 A3005 NOSIG=
201805131600 METAR MRPV 131600Z 06002KT 9999 FEW045 SCT250 28/14 A3006 NOSIG=
201805131700 METAR MRPV 131700Z 28011KT 9999 FEW025TCU FEW045 27/17 A3003 NOSIG=
201805131800 METAR MRPV 131800Z 16003KT 4000 SHRA VCTS SCT010CB SCT015 23/19 A3002 NOSIG=
201805131900 METAR MRPV 131900Z 27004KT 9999 -RA VCTS FEW010CB SCT030 BKN080 19/18 A3004 RETS NOSIG=
201805132000 METAR MRPV 132000Z 09005KT 9999 FEW040 BKN100 21/18 A3000 NOSIG=
201805132100 METAR MRPV 132100Z 10002KT 9999 FEW035 BKN100 22/18 A3000 NOSIG=
201805132200 METAR MRPV 132200Z 32004KT 9999 FEW045 BKN100 20/18 A3001 NOSIG=
201805132300 METAR MRPV 132300Z 25002KT 9999 BCFG FEW010 BKN100 20/18 A3000 NOSIG=
201805140000 METAR MRPV 140000Z 28006KT 8000 BCFG FEW005 BKN008 20/19 A3001 NOSIG=
201805140100 METAR MRPV NIL=
201805140200 METAR MRPV NIL=
201805140300 METAR MRPV NIL=
201805140400 METAR MRPV NIL=
201805140500 METAR MRPV NIL=
201805140600 METAR MRPV NIL=
201805140700 METAR MRPV NIL=
201805140800 METAR MRPV NIL=
201805140900 METAR MRPV NIL=
201805141000 METAR MRPV NIL=
201805141100 METAR MRPV NIL=
201805141200 METAR MRPV 141200Z 00000KT 9999 SCT040 SCT060 18/17 A3006 NOSIG=
201805141300 METAR MRPV 141300Z 00000KT 9999 FEW025 BKN200 21/16 A3007 NOSIG=
201805141400 METAR MRPV 141400Z 36002KT 9999 FEW025 BKN200 23/15 A3008 NOSIG=
201805141500 METAR MRPV 141500Z 00000KT 9999 FEW030 BKN200 24/14 A3008 NOSIG=
201805141600 METAR MRPV 141600Z 33004KT 9999 FEW035 BKN200 24/14 A3008 NOSIG=
201805141700 METAR MRPV 141700Z 26004KT 9999 FEW035 BKN200 25/14 A3006 NOSIG=
201805141800 METAR MRPV 141800Z 31005KT CAVOK 27/14 A3002 NOSIG=
201805141900 METAR MRPV 141900Z 28005KT 9999 FEW045 BKN250 28/15 A2998 NOSIG=
201805142000 METAR MRPV 142000Z 27007KT 9999 FEW045 BKN250 29/15 A2995 NOSIG=
201805142100 METAR MRPV 142100Z 29008KT 9999 VCTS FEW025CB SCT040 SCT200 26/15 A2992 NOSIG=
201805142200 METAR MRPV 142200Z 28010KT 9999 VCSH FEW025CB BKN035 25/15 A2994 NOSIG=
201805142300 METAR MRPV 142300Z 28008KT 9999 4500NW SHRA VCTS SCT020CB BKN035 22/18 A2994 NOSIG=
201805150000 METAR MRPV 150000Z 33004KT 9999 VCFG BKN035 21/18 A2998 RESHRA NOSIG=
201805150100 METAR MRPV NIL=
201805150200 METAR MRPV NIL=
201805150300 METAR MRPV NIL=
201805150400 METAR MRPV NIL=
201805150500 METAR MRPV NIL=
201805150600 METAR MRPV NIL=
201805150700 METAR MRPV NIL=
201805150800 METAR MRPV NIL=
201805150900 METAR MRPV NIL=
201805151000 METAR MRPV NIL=
201805151100 METAR MRPV NIL=
201805151200 METAR MRPV 151200Z 13006KT CAVOK 21/15 A2999 NOSIG=
201805151300 METAR MRPV 151300Z 12005KT CAVOK 22/15 A3000 NOSIG=
201805151400 METAR MRPV 151400Z 14006KT CAVOK 24/15 A3001 NOSIG=
201805151500 METAR MRPV 151500Z 15004KT CAVOK 27/15 A3002 BECMG 28010KT=
201805151600 METAR MRPV 151600Z 29010KT 9999 FEW035 BKN200 24/18 A3004 NOSIG=
201805151700 METAR MRPV 151700Z 28008KT 9999 FEW030 SCT120 BKN200 25/18 A3003 NOSIG=
201805151800 METAR MRPV 151800Z 26007KT 9999 FEW035 SCT120 BKN200 25/17 A3001 NOSIG=
201805151900 METAR MRPV 151900Z 26008KT 9999 SCT035 SCT120 26/17 A2999 NOSIG=
201805152000 METAR MRPV 152000Z 28011KT 9999 FEW035 BKN200 24/18 A2997 NOSIG=
201805152100 METAR MRPV 152100Z 28013KT 9999 VCSH FEW020TCU BKN200 24/17 A2996 NOSIG=
201805152200 METAR MRPV 152200Z 29010KT 9999 FEW015 BKN035 23/18 A2996 NOSIG=
201805152224 METAR MRPV 152224Z 31007KT 9999 RA FEW010 SCT030 BKN080 22/18 A2996 NOSIG=
201805152300 METAR MRPV 152300Z 31005KT 9999 VCFG FEW010 SCT035 BKN080 23/18 A2996 RERA NOSIG=
201805160000 METAR MRPV 160000Z 29005KT 9999 VCFG FEW008 SCT035 BKN100 21/17 A2998 NOSIG=
201805160100 METAR MRPV NIL=
201805160200 METAR MRPV NIL=
201805160300 METAR MRPV NIL=
201805160400 METAR MRPV NIL=
201805160500 METAR MRPV NIL=
201805160600 METAR MRPV NIL=
201805160700 METAR MRPV NIL=
201805160800 METAR MRPV NIL=
201805160900 METAR MRPV NIL=
201805161000 METAR MRPV NIL=
201805161100 METAR MRPV NIL=
201805161200 METAR MRPV 161200Z 00000KT CAVOK 18/16 A3000 NOSIG=
201805161300 METAR MRPV 161300Z 07002KT CAVOK 20/15 A3001 NOSIG=
201805161400 METAR MRPV 161400Z 35003KT CAVOK 23/15 A3002 NOSIG=
201805161500 METAR MRPV 161500Z 26005KT 340V250 CAVOK 25/16 A3002 NOSIG=
201805161600 METAR MRPV 161600Z 27008KT 9999 FEW045 BKN200 24/17 A3001 NOSIG=
201805161700 METAR MRPV 161700Z 28010KT 9999 FEW040 BKN200 25/17 A3000 NOSIG=
201805161800 METAR MRPV 161800Z 28012KT 9999 SCT035 BKN200 25/18 A3000 NOSIG=
201805161900 METAR MRPV 161900Z 27012KT 9999 SCT035 BKN200 25/18 A2998 NOSIG=
201805162000 METAR MRPV 162000Z 26008KT 9000 SCT030TCU BKN200 25/18 A2996 NOSIG=
201805162100 METAR MRPV 162100Z 26007KT 9000 TSRA FEW025CB SCT035 BKN100 24/17 A2994 BECMG 5000=
201805162200 METAR MRPV 162200Z 31007KT 9000 VCTS FEW020CB SCT030 SCT100 23/18 A2993 NOSIG=
201805162300 METAR MRPV 162300Z 32005KT 8000 -TSRA BKN012CB 22/18 A2997 NOSIG=
201805170000 METAR MRPV 170000Z 28004KT 5000 TSRA BKN008CB SCT100 21/19 A3000 NOSIG=
201805170100 METAR MRPV NIL=
201805170200 METAR MRPV NIL=
201805170300 METAR MRPV NIL=
201805170400 METAR MRPV NIL=
201805170500 METAR MRPV NIL=
201805170600 METAR MRPV NIL=
201805170700 METAR MRPV NIL=
201805170800 METAR MRPV NIL=
201805170900 METAR MRPV NIL=
201805171000 METAR MRPV NIL=
201805171100 METAR MRPV NIL=
201805171200 METAR MRPV 171200Z 23001KT 9999 1500NW BCFG NSC 19/18 A2999 NOSIG=
201805171300 METAR MRPV 171300Z 34002KT 9999 BCFG FEW040 SCT120 BKN200 21/18 A3000 NOSIG=
201805171400 METAR MRPV 171400Z 15002KT 9999 FEW030 SCT120 BKN200 25/16 A3001 NOSIG=
201805171500 METAR MRPV 171500Z 09010KT CAVOK 27/14 A3002 NOSIG=
201805171600 METAR MRPV 171600Z 10008KT 9999 FEW040 BKN200 28/15 A3002 BECMG 29009KT=
201805171700 METAR MRPV 171700Z 30007KT 9999 FEW040 SCT150 BKN200 26/17 A3000 NOSIG=
201805171800 METAR MRPV 171800Z 27008KT 9999 FEW040 SCT150 BKN200 26/18 A2997 NOSIG=
201805171900 METAR MRPV 171900Z 28012KT 9999 RA FEW015 FEW020TCU SCT140 BKN200 25/20 A2995 NOSIG=
201805172000 METAR MRPV 172000Z 27013KT 9999 4500SE TSRA FEW015CB FEW035 BKN120 25/19 A2993 NOSIG=
201805172100 METAR MRPV 172100Z 12003KT 9999 4500NW BCFG VCTS SCT010 BKN045 22/16 A2994 RETSRA NOSIG=
201805172200 METAR MRPV 172200Z COR 35004KT 9999 VCSH FEW010TCU SCT030 BKN080 22/17 A2994 RERA NOSIG=
201805172300 METAR MRPV 172300Z 14002KT 9999 FEW015 SCT030 BKN100 22/17 A2995 NOSIG=
201805180000 METAR MRPV 180000Z 25002KT 9999 FEW015 SCT035 BKN100 21/17 A2997 NOSIG=
201805180100 METAR MRPV NIL=
201805180200 METAR MRPV NIL=
201805180300 METAR MRPV NIL=
201805180400 METAR MRPV NIL=
201805180500 METAR MRPV NIL=
201805180600 METAR MRPV NIL=
201805180700 METAR MRPV NIL=
201805180800 METAR MRPV NIL=
201805180900 METAR MRPV NIL=
201805181000 METAR MRPV NIL=
201805181100 METAR MRPV NIL=
201805181200 METAR MRPV 181200Z 08003KT 9999 FEW035 BKN250 20/17 A2999 NOSIG=
201805181300 METAR MRPV 181300Z 10003KT CAVOK 21/16 A2999 NOSIG=
201805181400 METAR MRPV 181400Z 09005KT 9999 FEW030 BKN200 25/16 A3000 BECMG 27005KT=
201805181500 METAR MRPV 181500Z 09013KT 9999 FEW035 BKN200 26/16 A3001 NOSIG=
201805181600 METAR MRPV 181600Z 07007KT 9999 SCT035 BKN200 25/16 A3001 NOSIG=
201805181700 METAR MRPV 181700Z 25004KT 9999 FEW035 BKN200 24/18 A3001 NOSIG=
201805181800 METAR MRPV 181800Z 30008KT 9999 FEW035 BKN200 25/17 A3000 NOSIG=
201805181900 METAR MRPV 181900Z 28009KT 9999 FEW030 BKN200 26/17 A2997 NOSIG=
201805182000 METAR MRPV 182000Z 28010KT 9999 SCT030 BKN200 26/17 A2994 NOSIG=
201805182100 METAR MRPV 182100Z 27009KT 9999 SCT015TCU SCT100 24/17 A2993 NOSIG=
201805182200 METAR MRPV 182200Z 28010KT 9999 SCT015 BKN035 22/20 A2993 NOSIG=
201805182300 METAR MRPV 182300Z 28007KT 9999 FEW010 SCT080 BKN200 22/17 A2995 NOSIG=
201805190000 METAR MRPV 190000Z 26003KT 9999 FEW010 SCT080 BKN200 22/19 A2997 NOSIG=
201805190100 METAR MRPV NIL=
201805190200 METAR MRPV NIL=
201805190300 METAR MRPV NIL=
201805190400 METAR MRPV NIL=
201805190500 METAR MRPV NIL=
201805190600 METAR MRPV NIL=
201805190700 METAR MRPV NIL=
201805190800 METAR MRPV NIL=
201805190900 METAR MRPV NIL=
201805191000 METAR MRPV NIL=
201805191100 METAR MRPV NIL=
201805191200 METAR MRPV 191200Z 00000KT 5000 BR SCT010 BKN035 20/19 A3002 NOSIG=
201805191300 METAR MRPV 191300Z 00000KT 5000 BR FEW010 BKN035 21/19 A3003 NOSIG=
201805191400 METAR MRPV 191400Z 31002KT 5000 BR FEW010 SCT030 BKN100 22/19 A3004 NOSIG=
201805191500 METAR MRPV 191500Z 29003KT 8000 4000 PRFG SCT010 BKN100 23/18 A3005 NOSIG=
201805191600 METAR MRPV 191600Z 30007KT 8000 SCT020 BKN100 24/18 A3006 NOSIG=
201805191700 METAR MRPV 191700Z 28006KT 9999 SCT030 BKN200 25/18 A3004 NOSIG=
201805191800 METAR MRPV 191800Z 28010KT 9999 SCT020 BKN100 25/18 A3002 NOSIG=
201805191900 METAR MRPV 191900Z 28012KT 9999 SCT020 BKN180 24/18 A3000 NOSIG=
201805192000 METAR MRPV 192000Z 29010KT 9999 SCT020 BKN200 25/18 A2997 NOSIG=
201805192100 METAR MRPV 192100Z 28011KT 9999 SCT020 BKN200 26/17 A2996 NOSIG=
201805192200 METAR MRPV 192200Z 28012KT 9999 SCT025 BKN200 25/18 A2994 NOSIG=
201805192300 METAR MRPV 192300Z 29012KT 9999 SCT025 BKN200 23/17 A2997 NOSIG=
201805200000 METAR MRPV 200000Z 28008KT 9999 VCFG FEW008 BKN015 22/18 A2999 NOSIG=
201805200100 METAR MRPV NIL=
201805200200 METAR MRPV NIL=
201805200300 METAR MRPV NIL=
201805200400 METAR MRPV NIL=
201805200500 METAR MRPV NIL=
201805200600 METAR MRPV NIL=
201805200700 METAR MRPV NIL=
201805200800 METAR MRPV NIL=
201805200900 METAR MRPV NIL=
201805201000 METAR MRPV NIL=
201805201100 METAR MRPV NIL=
201805201200 METAR MRPV 201200Z 11002KT 9999 VCFG FEW010 BKN150 18/16 A3003 NOSIG=
201805201300 METAR MRPV 201300Z 07001KT CAVOK 20/16 A3004 NOSIG=
201805201400 METAR MRPV 201400Z COR VRB02KT 9999 FEW025 BKN180 22/16 A3005 NOSIG=
201805201500 METAR MRPV 201500Z 28004KT 9999 FEW030 SCT160 BKN200 23/17 A3006 NOSIG=
201805201600 METAR MRPV 201600Z 31006KT 9999 FEW020 BKN200 24/16 A3006 NOSIG=
201805201700 METAR MRPV 201700Z 28008KT 9999 SCT020 BKN180 24/16 A3005 NOSIG=
201805201800 METAR MRPV 201800Z 28007KT 9999 FEW020 SCT040 BKN200 25/17 A3001 NOSIG=
201805201900 METAR MRPV 201900Z 27011KT 9999 FEW015 SCT035 BKN200 25/18 A2999 NOSIG=
201805202000 METAR MRPV 202000Z 27010KT 9999 FEW030 SCT160 BKN200 24/18 A2998 NOSIG=
201805202100 METAR MRPV 202100Z 30009KT 9999 FEW020 SCT160 BKN200 23/18 A2997 NOSIG=
201805202200 METAR MRPV 202200Z 29011KT 9999 FEW015 BKN140 23/18 A2997 NOSIG=
201805202300 METAR MRPV 202300Z 29007KT 9999 VCFG FEW010 BKN140 22/18 A2999 NOSIG=
201805210000 METAR MRPV 210000Z 31005KT 9999 VCFG FEW008 BKN025 21/18 A3001 NOSIG=
201805210100 METAR MRPV NIL=
201805210200 METAR MRPV NIL=
201805210300 METAR MRPV NIL=
201805210400 METAR MRPV NIL=
201805210500 METAR MRPV NIL=
201805210600 METAR MRPV NIL=
201805210700 METAR MRPV NIL=
201805210800 METAR MRPV NIL=
201805210900 METAR MRPV NIL=
201805211000 METAR MRPV NIL=
201805211100 METAR MRPV NIL=
201805211200 METAR MRPV 211200Z 09001KT 9999 VCFG FEW008 BKN015 20/18 A3000 NOSIG=
201805211300 METAR MRPV 211300Z 08002KT 9999 VCFG FEW010 SCT020 BKN200 21/17 A3002 NOSIG=
201805211400 METAR MRPV 211400Z 05002KT 9999 FEW020 BKN220 24/16 A3003 NOSIG=
201805211500 METAR MRPV 211500Z 31003KT 9999 FEW035 BKN250 25/15 A3002 NOSIG=
201805211600 METAR MRPV 211600Z 25005KT 9999 SCT040 BKN250 26/16 A3001 NOSIG=
201805211700 METAR MRPV 211700Z 27010KT 9999 SCT040 SCT100 25/17 A3000 NOSIG=
201805211800 METAR MRPV 211800Z 28012KT 9999 FEW025CB SCT035 SCT100 27/17 A2998 BECMG SHRA=
201805211900 METAR MRPV 211900Z 28014KT 9999 -TSRA SCT025CB BKN100 25/18 A2997 NOSIG=
201805212000 METAR MRPV 212000Z 14004KT 30000 -TSRA BR BKN010CB 20/19 A2998 NOSIG=
201805212100 METAR MRPV 212100Z 17001KT 5000 RA BR SCT008 BKN035 20/18 A2997 RMK VIS SE UNL - BECMG BKN008=
201805212200 METAR MRPV 212200Z 28004KT 2500 RA BR SCT001 BKN003 20/19 A2998 NOSIG=
201805212300 METAR MRPV 212300Z 00000KT 8000 -RA BCFG FEW005 BKN035 19/18 A2998 NOSIG=
201805220000 METAR MRPV 220000Z 00000KT 9999 VCFG FEW010 BKN100 19/18 A3000 NOSIG=
201805220100 METAR MRPV NIL=
201805220200 METAR MRPV NIL=
201805220300 METAR MRPV NIL=
201805220400 METAR MRPV NIL=
201805220500 METAR MRPV NIL=
201805220600 METAR MRPV NIL=
201805220700 METAR MRPV NIL=
201805220800 METAR MRPV NIL=
201805220900 METAR MRPV NIL=
201805221000 METAR MRPV NIL=
201805221100 METAR MRPV NIL=
201805221200 METAR MRPV 221200Z 00000KT 5000 BR NSC 19/18 A3000 NOSIG=
201805221300 METAR MRPV 221300Z 14001KT 9999 FEW010 SCT100 BKN200 22/19 A3002 NOSIG=
201805221400 METAR MRPV 221400Z 07001KT 9999 FEW035 BKN100 23/17 A3004 NOSIG=
201805221500 METAR MRPV 221500Z 36002KT 9999 SCT030 BKN120 24/17 A3004 NOSIG=
201805221600 METAR MRPV 221600Z 28006KT 9999 SCT030 BKN120 24/16 A3004 NOSIG=
201805221700 METAR MRPV 221700Z 27009KT 9999 RA SCT025 BKN120 24/18 A3002 NOSIG=
201805221800 METAR MRPV 221800Z 28007KT 9999 RA FEW008 SCT020 BKN100 23/19 A3001 NOSIG=
201805221900 METAR MRPV 221900Z 29006KT 9999 -RA FEW008 SCT015 BKN100 22/19 A2999 NOSIG=
201805222000 METAR MRPV 222000Z 03005KT 300V030 9999 3000N +RA FEW008 SCT015 BKN100 21/19 A2997 NOSIG=
201805222100 METAR MRPV 222100Z 28009KT 9999 BCFG FEW005 SCT010 BKN100 22/19 A2996 NOSIG=
201805222200 METAR MRPV 222200Z 29005KT 9999 BCFG FEW005 BKN100 21/19 A2996 NOSIG=
201805222300 METAR MRPV 222300Z 26003KT 9999 BCFG FEW005 SCT020 BKN100 21/19 A2998 NOSIG=
201805230000 METAR MRPV 230000Z 00000KT 9999 BCFG FEW008 BKN120 20/19 A3000 NOSIG=
201805230100 METAR MRPV NIL=
201805230200 METAR MRPV NIL=
201805230300 METAR MRPV NIL=
201805230400 METAR MRPV NIL=
201805230500 METAR MRPV NIL=
201805230600 METAR MRPV NIL=
201805230700 METAR MRPV NIL=
201805230800 METAR MRPV NIL=
201805230900 METAR MRPV NIL=
201805231000 METAR MRPV NIL=
201805231100 METAR MRPV NIL=
201805231200 METAR MRPV 231200Z 09004KT CAVOK 19/16 A3002 NOSIG=
201805231300 METAR MRPV 231300Z VRB01KT CAVOK 20/16 A3004 BECMG 24005KT=
201805231400 METAR MRPV 231400Z 32004KT CAVOK 23/16 A3007 NOSIG=
201805231500 METAR MRPV 231500Z 29009KT 9999 FEW045 SCT250 23/17 A3008 NOSIG=
201805231600 METAR MRPV 231600Z 30006KT 9999 FEW040 SCT250 25/17 A3008 NOSIG=
201805231700 METAR MRPV 231700Z 28008KT 9999 FEW040 26/17 A3006 NOSIG=
201805231800 METAR MRPV 231800Z 28012KT 9999 SCT035 25/18 A3004 NOSIG=
201805231900 METAR MRPV 231900Z 28012KT 9999 RA VCSH FEW015TCU SCT025 25/19 A3002 NOSIG=
201805232000 METAR MRPV 232000Z 27008KT 9999 4500SE SHRA VCTS FEW010 SCT015CB SCT080 24/19 A3000 NOSIG=
201805232100 METAR MRPV 232100Z 14005KT 9999 4000 RA VCTS FEW010CB SCT015 SCT100 22/18 A3001 NOSIG=
201805232200 METAR MRPV 232200Z 14002KT 9999 4000N -RA FEW005 SCT035 SCT100 20/19 A3001 NOSIG=
201805232300 METAR MRPV 232300Z COR 00000KT 9999 4500N RA BCFG FEW005 SCT025 BKN100 21/19 A3002 NOSIG=
201805240000 METAR MRPV 240000Z 24001KT 4500 -RA BR SCT005 BKN035 20/19 A3005 NOSIG=
201805240100 METAR MRPV NIL=
201805240200 METAR MRPV NIL=
201805240300 METAR MRPV NIL=
201805240400 METAR MRPV NIL=
201805240500 METAR MRPV NIL=
201805240600 METAR MRPV NIL=
201805240700 METAR MRPV NIL=
201805240800 METAR MRPV NIL=
201805240900 METAR MRPV NIL=
201805241000 METAR MRPV NIL=
201805241100 METAR MRPV NIL=
201805241200 METAR MRPV 241200Z 00000KT CAVOK 19/18 A3005 NOSIG=
201805241300 METAR MRPV 241300Z 01001KT CAVOK 21/18 A3006 NOSIG=
201805241400 METAR MRPV 241400Z 00000KT CAVOK 24/16 A3007 NOSIG=
201805241500 METAR MRPV 241500Z 30002KT 9999 FEW035 26/16 A3008 NOSIG=
201805241600 METAR MRPV 241600Z 28007KT 9999 FEW035 26/17 A3008 NOSIG=
201805241700 METAR MRPV 241700Z 27009KT 9999 FEW035 26/18 A3006 NOSIG=
201805241800 METAR MRPV 241800Z 27013KT 9999 SCT040 SCT250 26/19 A3005 NOSIG=
201805241900 METAR MRPV 241900Z 29010KT 9999 -TSRA FEW020CB SCT035 27/19 A3003 NOSIG=
201805242000 METAR MRPV 242000Z COR 27010KT 9999 RA FEW020TCU SCT035 SCT140 27/19 A2999 RETS NOSIG=
201805242022 METAR MRPV 242022Z 27010KT 9999 TSRA FEW010CB SCT030 SCT160 26/19 A2998 NOSIG=
201805242100 METAR MRPV 242100Z 28011KT 9999 3000NE TSRA FEW010CB BKN035 25/19 A2998 NOSIG=
201805242200 METAR MRPV 242200Z 04005KT 5000 RA FEW010 BKN025 22/16 A3000 RETS NOSIG=
201805242300 METAR MRPV 242300Z 03005KT 2000 TSRA BR FEW005 SCT010CB BKN020 21/17 A3005 NOSIG=
201805250000 METAR MRPV 250000Z 14002KT 5000 2500NW +RA PRFG SCT010 BKN080 19/18 A3006 RETS NOSIG=
201805250100 METAR MRPV NIL=
201805250200 METAR MRPV NIL=
201805250300 METAR MRPV NIL=
201805250400 METAR MRPV NIL=
201805250500 METAR MRPV NIL=
201805250600 METAR MRPV NIL=
201805250700 METAR MRPV NIL=
201805250800 METAR MRPV NIL=
201805250900 METAR MRPV NIL=
201805251000 METAR MRPV NIL=
201805251100 METAR MRPV NIL=
201805251200 METAR MRPV 251200Z 08001KT CAVOK 18/16 A3002 NOSIG=
201805251300 METAR MRPV 251300Z 11002KT CAVOK 22/16 A3003 NOSIG=
201805251400 METAR MRPV 251400Z 11004KT 9999 FEW045 BKN200 25/15 A3004 NOSIG=
201805251500 METAR MRPV 251500Z 05002KT 9999 FEW045 BKN200 27/16 A3003 NOSIG=
201805251600 METAR MRPV 251600Z 27005KT 9999 FEW045 BKN200 27/16 A3003 NOSIG=
201805251700 METAR MRPV 251700Z 27007KT 9999 FEW035 BKN200 28/16 A3002 NOSIG=
201805251800 METAR MRPV 251800Z 28013KT 9999 SCT035 SCT200 27/18 A3000 NOSIG=
201805251900 METAR MRPV 251900Z 28012KT 9999 SCT030CB SCT100 27/18 A2997 NOSIG=
201805252000 METAR MRPV 252000Z 28010KT 9999 VCTS FEW015 SCT025CB BKN100 26/19 A2995 TEMPO TSRA=
201805252100 METAR MRPV 252100Z 07007KT 9999 TSRA SCT020CB BKN100 24/18 A2994 NOSIG=
201805252200 METAR MRPV 252200Z 17003KT 8000 -RA BCFG FEW001 BKN008 22/19 A2995 RETSRA NOSIG=
201805252300 METAR MRPV 252300Z 29006KT 3000 -RA BR FEW001 OVC003 21/20 A2996 NOSIG=
201805260000 METAR MRPV 260000Z 30003KT 5000 BR BKN005 SCT030 21/19 A2998 NOSIG=
201805260100 METAR MRPV NIL=
201805260200 METAR MRPV NIL=
201805260300 METAR MRPV NIL=
201805260400 METAR MRPV NIL=
201805260500 METAR MRPV NIL=
201805260600 METAR MRPV NIL=
201805260700 METAR MRPV NIL=
201805260800 METAR MRPV NIL=
201805260900 METAR MRPV NIL=
201805261000 METAR MRPV NIL=
201805261100 METAR MRPV NIL=
201805261200 METAR MRPV 261200Z 27002KT 3000 BR BKN005 SCT120 19/18 A3001 NOSIG=
201805261300 METAR MRPV 261300Z 18001KT 9999 BCFG FEW015 SCT120 BKN200 21/18 A3002 NOSIG=
201805261400 METAR MRPV 261400Z 06002KT 9999 FEW035 SCT140 BKN200 23/16 A3003 NOSIG=
201805261500 METAR MRPV 261500Z 32002KT 9999 FEW035 SCT120 25/15 A3004 NOSIG=
201805261600 METAR MRPV 261600Z 33002KT 9999 FEW040 BKN160 26/15 A3003 NOSIG=
201805261700 METAR MRPV 261700Z 31003KT 9999 FEW040 BKN120 26/14 A3002 NOSIG=
201805261800 METAR MRPV 261800Z 28011KT 9999 SCT030 SCT120 27/16 A3000 NOSIG=
201805261900 METAR MRPV 261900Z 25008KT 9999 -RA SCT030 BKN120 23/19 A2997 NOSIG=
201805262000 METAR MRPV 262000Z 27009KT 8000 -RA FEW005 SCT010 BKN120 22/20 A2998 TEMPO BKN010=
201805262100 METAR MRPV 262100Z 27008KT 5000 RA BR SCT005 BKN008 21/20 A2997 NOSIG=
201805262200 METAR MRPV 262200Z 27009KT 3000 -RA BR SCT002 BKN005 20/19 A2997 NOSIG=
201805262300 METAR MRPV 262300Z 30002KT 5000 -RA BR FEW005 BKN013 20/19 A3000 NOSIG=
201805270000 METAR MRPV 270000Z 13001KT 8000 -RA VCFG FEW005 BKN080 20/19 A3002 NOSIG=
201805270100 METAR MRPV NIL=
201805270200 METAR MRPV NIL=
201805270300 METAR MRPV NIL=
201805270400 METAR MRPV NIL=
201805270500 METAR MRPV NIL=
201805270600 METAR MRPV NIL=
201805270700 METAR MRPV NIL=
201805270800 METAR MRPV NIL=
201805270900 METAR MRPV NIL=
201805271000 METAR MRPV NIL=
201805271100 METAR MRPV NIL=
201805271200 METAR MRPV 271200Z 08005KT CAVOK 19/18 A3000 NOSIG=
201805271300 METAR MRPV 271300Z 10003KT CAVOK 21/17 A3002 NOSIG=
201805271400 METAR MRPV 271400Z 04003KT CAVOK 22/17 A3005 NOSIG=
201805271500 METAR MRPV 271500Z 28004KT 340V270 9999 FEW040 BKN140 25/16 A3007 NOSIG=
201805271600 METAR MRPV 271600Z 26008KT 9999 FEW030 BKN140 25/16 A3008 NOSIG=
201805271700 METAR MRPV 271700Z 28009KT 9999 FEW035 BKN140 25/17 A3006 NOSIG=
201805271800 METAR MRPV 271800Z 28006KT 9999 FEW035 BKN140 25/17 A3004 NOSIG=
201805271900 METAR MRPV 271900Z 29008KT 9999 FEW030 BKN120 26/16 A3001 RMK VEL MAX VTO 13KT - NOSIG=
201805272000 METAR MRPV 272000Z 29009KT 9999 VCSH FEW025TCU BKN120 26/18 A2999 NOSIG=
201805272100 METAR MRPV 272100Z 27008KT 9999 -RA VCSH FEW008 SCT015TCU BKN120 22/20 A2999 NOSIG=
201805272200 METAR MRPV 272200Z 29008KT 8000 3500W BCFG FEW001 SCT008 BKN100 21/19 A2999 BECMG BKN008=
201805272300 METAR MRPV 272300Z 30008KT 4000 -DZ BR OVC002 21/20 A3002 RERA NOSIG=
201805280000 METAR MRPV 280000Z 29008KT 4000 -DZ BR OVC002 20/19 A3004 NOSIG=
201805280100 METAR MRPV NIL=
201805280200 METAR MRPV NIL=
201805280300 METAR MRPV NIL=
201805280400 METAR MRPV NIL=
201805280500 METAR MRPV NIL=
201805280600 METAR MRPV NIL=
201805280700 METAR MRPV NIL=
201805280800 METAR MRPV NIL=
201805280900 METAR MRPV NIL=
201805281000 METAR MRPV NIL=
201805281100 METAR MRPV NIL=
201805281200 METAR MRPV 281200Z 09002KT 9999 NSC 21/18 A3003 NOSIG=
201805281300 METAR MRPV 281300Z 10006KT CAVOK 23/16 A3004 NOSIG=
201805281400 METAR MRPV 281400Z 07003KT 9999 FEW035 26/15 A3006 NOSIG=
201805281500 METAR MRPV 281500Z 28007KT 9999 FEW045 25/16 A3007 NOSIG=
201805281600 METAR MRPV 281600Z 28007KT 9999 FEW045 BKN120 26/17 A3006 NOSIG=
201805281700 METAR MRPV 281700Z 28009KT 9999 FEW035 BKN120 26/18 A3005 NOSIG=
201805281800 METAR MRPV 281800Z 27009KT 9999 FEW035 BKN140 26/18 A3003 NOSIG=
201805281900 METAR MRPV 281900Z 29011KT 9999 FEW025 BKN100 25/19 A3002 NOSIG=
201805282000 METAR MRPV 282000Z 28011KT 9999 FEW025TCU BKN100 26/19 A2999 NOSIG=
201805282100 METAR MRPV 282100Z 29010KT 9999 VCSH SCT020CB SCT100 SCT200 25/18 A2997 NOSIG=
201805282200 METAR MRPV 282200Z 28012KT 4500 RA BR OVC003 21/20 A3000 NOSIG=
201805282300 METAR MRPV 282300Z 30005KT 5000 -RA BR OVC003 21/20 A3001 NOSIG=
201805290000 METAR MRPV 290000Z 28006KT 4500 -RA BR SCT005 BKN100 20/19 A3005 NOSIG=
201805290100 METAR MRPV NIL=
201805290200 METAR MRPV NIL=
201805290300 METAR MRPV NIL=
201805290400 METAR MRPV NIL=
201805290500 METAR MRPV NIL=
201805290600 METAR MRPV NIL=
201805290700 METAR MRPV NIL=
201805290800 METAR MRPV NIL=
201805290900 METAR MRPV NIL=
201805291000 METAR MRPV NIL=
201805291100 METAR MRPV NIL=
201805291200 METAR MRPV 291200Z 10004KT 9999 FEW005 SCT250 21/16 A3002 NOSIG=
201805291300 METAR MRPV 291300Z 12005KT CAVOK 23/16 A3003 BECMG 28005KT=
201805291400 METAR MRPV 291400Z 07008KT CAVOK 25/17 A3005 NOSIG=
201805291500 METAR MRPV 291500Z 08006KT CAVOK 26/15 A3005 NOSIG=
201805291600 METAR MRPV 291600Z 08002KT 9999 FEW045 BKN250 28/15 A3005 NOSIG=
201805291700 METAR MRPV 291700Z 27010KT 9999 FEW040 BKN250 26/18 A3004 NOSIG=
201805291800 METAR MRPV 291800Z 27008KT 9999 FEW040 SCT250 26/19 A3002 NOSIG=
201805291900 METAR MRPV 291900Z 26011KT 9999 VCTS FEW020CB FEW035 SCT250 26/20 A2999 NOSIG=
201805292000 METAR MRPV 292000Z 28012KT 9999 VCTS VCSH SCT020CB SCT035 27/20 A2997 TEMPO SHRA=
201805292100 METAR MRPV 292100Z 28006KT 9999 TSRA FEW006 SCT010CB BKN070 24/20 A2996 NOSIG=
201805292200 METAR MRPV 292200Z 04003KT 3000 TSRA FEW002 SCT010CB BKN040 18/18 A3000 NOSIG=
201805292300 METAR MRPV 292300Z 00000KT 5000 RA BR FEW006 FEW010CB SCT040 BKN070 19/18 A3002 RETS NOSIG=
201805300000 METAR MRPV 300000Z 30001KT 4000 RA BR BKN015 19/18 A3006 NOSIG=
201805300100 METAR MRPV NIL=
201805300200 METAR MRPV NIL=
201805300300 METAR MRPV NIL=
201805300400 METAR MRPV NIL=
201805300500 METAR MRPV NIL=
201805300600 METAR MRPV NIL=
201805300700 METAR MRPV NIL=
201805300800 METAR MRPV NIL=
201805300900 METAR MRPV NIL=
201805301000 METAR MRPV NIL=
201805301100 METAR MRPV NIL=
201805301200 METAR MRPV 301200Z 13002KT CAVOK 21/15 A2998 NOSIG=
201805301300 METAR MRPV 301300Z 31004KT CAVOK 22/16 A3002 NOSIG=
201805301400 METAR MRPV 301400Z 32003KT CAVOK 23/16 A3003 NOSIG=
201805301500 METAR MRPV 301500Z 29007KT CAVOK 24/17 A3004 NOSIG=
201805301600 METAR MRPV 301600Z 29007KT 9999 FEW025 BKN120 23/17 A3004 NOSIG=
201805301700 METAR MRPV 301700Z 29009KT 9999 FEW025 BKN120 25/17 A3003 NOSIG=
201805301800 METAR MRPV 301800Z 28008KT 9999 FEW035 BKN120 26/16 A3001 NOSIG=
201805301900 METAR MRPV 301900Z 28007KT 9999 FEW020TCU SCT030 27/17 A2999 NOSIG=
201805302000 METAR MRPV 302000Z 29008KT 9999 VCTS VCSH FEW020TCU SCT030 27/17 A2995 NOSIG=
201805302100 METAR MRPV 302100Z 28007KT 9999 SHRA FEW020TCU SCT030 27/18 A2992 NOSIG=
201805302200 METAR MRPV 302200Z 09011G22KT 0100 +TSRA VV/// 22/20 A2994 NOSIG=
201805302300 METAR MRPV 302300Z COR 34004KT 5000 2000W -TSRA BCFG FEW005 FEW010CB BKN030 21/19 A2996 NOSIG=
201805310000 METAR MRPV 310000Z 29003KT 5000 2000W -RA BCFG FEW005 BKN015 20/19 A2998 RETS NOSIG=
201805310100 METAR MRPV NIL=
201805310200 METAR MRPV NIL=
201805310300 METAR MRPV NIL=
201805310400 METAR MRPV NIL=
201805310500 METAR MRPV NIL=
201805310600 METAR MRPV NIL=
201805310700 METAR MRPV NIL=
201805310800 METAR MRPV NIL=
201805310900 METAR MRPV NIL=
201805311000 METAR MRPV NIL=
201805311100 METAR MRPV NIL=
201805311200 METAR MRPV 311200Z 11007KT 9999 BCFG FEW020 BKN200 21/17 A2998 NOSIG=
201805311300 METAR MRPV 311300Z 11009KT 9999 FEW035 BKN200 23/17 A2997 NOSIG=
201805311400 METAR MRPV 311400Z 10007KT 9999 FEW045 BKN200 25/16 A2997 NOSIG=
201805311500 METAR MRPV 311500Z 08013KT 9999 FEW035 SCT160 BKN200 25/16 A2999 NOSIG=
201805311600 METAR MRPV 311600Z 06009KT 9999 FEW035 BKN160 27/16 A3000 NOSIG=
201805311700 METAR MRPV 311700Z 28009KT 9999 SCT035 BKN160 25/19 A2999 NOSIG=
201805311800 METAR MRPV 311800Z 29009KT 9999 SCT030 SCT200 25/19 A2997 NOSIG=
201805311900 METAR MRPV 311900Z 25004KT 9999 FEW020TCU BKN025 25/19 A2995 NOSIG=
201805312000 METAR MRPV 312000Z 26005KT 9999 VCTS SCT015CB FEW030 24/19 A2993 NOSIG=
201805312100 METAR MRPV 312100Z 31004KT 9999 SHRA SCT015TCU SCT015CB 23/19 A2991 NOSIG=
201805312200 METAR MRPV 312200Z 26003KT 9999 SCT008 BKN015 22/20 A2992 RESHRA NOSIG=
201805312300 METAR MRPV 312300Z 25002KT 9999 FEW008 BKN020 21/19 A2993 NOSIG=
