201901010000 METAR MRPV 010000Z 11010KT 9999 FEW035 20/14 A2995 NOSIG=
201901010100 METAR MRPV NIL=
201901010200 METAR MRPV NIL=
201901010300 METAR MRPV NIL=
201901010400 METAR MRPV NIL=
201901010500 METAR MRPV NIL=
201901010600 METAR MRPV NIL=
201901010700 METAR MRPV NIL=
201901010800 METAR MRPV NIL=
201901010900 METAR MRPV NIL=
201901011000 METAR MRPV NIL=
201901011100 METAR MRPV NIL=
201901011200 METAR MRPV 011200Z 13010KT CAVOK 18/14 A2996 NOSIG=
201901011300 METAR MRPV 011300Z 12010KT 9999 FEW040 20/14 A2998 NOSIG=
201901011400 METAR MRPV 011400Z 12012KT 9999 FEW040 21/15 A3000 NOSIG=
201901011500 METAR MRPV 011500Z 11011KT 9999 FEW045 22/15 A3000 NOSIG=
201901011600 METAR MRPV 011600Z 10012KT 9999 FEW040 23/15 A2999 NOSIG=
201901011700 METAR MRPV 011700Z 10012KT CAVOK 25/14 A2996 NOSIG=
201901011800 METAR MRPV 011800Z 10012KT 9999 FEW045 25/14 A2993 NOSIG=
201901011900 METAR MRPV 011900Z 11014KT 9999 FEW045 25/14 A2990 NOSIG=
201901012000 METAR MRPV 012000Z 11015KT 9999 FEW040 25/14 A2989 NOSIG=
201901012100 METAR MRPV 012100Z 10012KT 9999 FEW040 24/15 A2988 NOSIG=
201901012200 METAR MRPV 012200Z 10011KT 9999 FEW035 24/14 A2990 NOSIG=
201901012300 METAR MRPV 012300Z 11010KT 9999 FEW035 22/14 A2991 WSR09 NOSIG=
201901020000 METAR MRPV 020000Z 11012KT 9999 FEW035 21/15 A2992 WSR09 NOSIG=
201901020100 METAR MRPV NIL=
201901020200 METAR MRPV NIL=
201901020300 METAR MRPV NIL=
201901020400 METAR MRPV NIL=
201901020500 METAR MRPV NIL=
201901020600 METAR MRPV NIL=
201901020700 METAR MRPV NIL=
201901020800 METAR MRPV NIL=
201901020900 METAR MRPV NIL=
201901021000 METAR MRPV NIL=
201901021100 METAR MRPV NIL=
201901021200 METAR MRPV 021200Z 12010KT 9999 FEW030 19/15 A2998 NOSIG=
201901021300 METAR MRPV 021300Z 11014KT 9999 FEW025 20/15 A2999 NOSIG=
201901021400 METAR MRPV 021400Z 10013KT 9999 FEW035 21/15 A3001 NOSIG=
201901021500 METAR MRPV 021500Z 10013KT 9999 FEW035 21/15 A3002 NOSIG=
201901021600 METAR MRPV 021600Z 10014KT 9999 FEW035 23/16 A3001 NOSIG=
201901021700 METAR MRPV 021700Z 11014KT 9999 FEW040 24/16 A2999 NOSIG=
201901021800 METAR MRPV 021800Z 11013KT 9999 FEW030 24/16 A2996 NOSIG=
201901021900 METAR MRPV 021900Z 10013KT 9999 FEW030 22/15 A2994 NOSIG=
201901022000 METAR MRPV 022000Z 10012KT 9999 SCT030 23/16 A2992 NOSIG=
201901022100 METAR MRPV 022100Z 11013KT 9999 FEW030 23/15 A2991 NOSIG=
201901022200 METAR MRPV 022200Z 11014KT 9999 FEW035 22/15 A2992 NOSIG=
201901022300 METAR MRPV 022300Z 11009KT 9999 FEW030 20/15 A2994 NOSIG=
201901030000 METAR MRPV 030000Z 11010KT 9999 FEW030 19/15 A2995 NOSIG=
201901030100 METAR MRPV NIL=
201901030200 METAR MRPV NIL=
201901030300 METAR MRPV NIL=
201901030400 METAR MRPV NIL=
201901030500 METAR MRPV NIL=
201901030600 METAR MRPV NIL=
201901030700 METAR MRPV NIL=
201901030800 METAR MRPV NIL=
201901030900 METAR MRPV NIL=
201901031000 METAR MRPV NIL=
201901031100 METAR MRPV NIL=
201901031200 METAR MRPV 031200Z 14009KT 9999 FEW020 BKN120 19/15 A2998 NOSIG=
201901031300 METAR MRPV 031300Z 14007KT 9999 FEW020 20/14 A3001 NOSIG=
201901031400 METAR MRPV 031400Z 13007KT 9999 FEW025 21/15 A3003 NOSIG=
201901031500 METAR MRPV 031500Z 12012KT 9999 FEW035 22/16 A3004 NOSIG=
201901031600 METAR MRPV 031600Z 11012KT 9999 FEW035 22/16 A3003 NOSIG=
201901031700 METAR MRPV 031700Z 11012KT 9999 FEW040 23/16 A3001 NOSIG=
201901031800 METAR MRPV 031800Z 10013KT 9999 FEW040 24/15 A2999 NOSIG=
201901031900 METAR MRPV 031900Z 10011KT 9999 FEW035 25/15 A2997 NOSIG=
201901032000 METAR MRPV 032000Z 10012KT 9999 FEW035 24/15 A2995 NOSIG=
201901032100 METAR MRPV 032100Z 10010KT 9999 SCT035 24/15 A2996 NOSIG=
201901032200 METAR MRPV 032200Z 12008KT 9999 SCT035 SCT200 23/16 A2997 NOSIG=
201901032300 METAR MRPV 032300Z 12007KT 9999 FEW035 BKN200 22/15 A2999 NOSIG=
201901040000 METAR MRPV 040000Z 13005KT 9999 FEW035 BKN200 21/16 A3001 NOSIG=
201901040100 METAR MRPV NIL=
201901040200 METAR MRPV NIL=
201901040300 METAR MRPV NIL=
201901040400 METAR MRPV NIL=
201901040500 METAR MRPV NIL=
201901040600 METAR MRPV NIL=
201901040700 METAR MRPV NIL=
201901040800 METAR MRPV NIL=
201901040900 METAR MRPV NIL=
201901041000 METAR MRPV NIL=
201901041100 METAR MRPV NIL=
201901041200 METAR MRPV COR 041200Z 12007KT CAVOK 19/14 A3001 NOSIG=
201901041300 METAR MRPV 041300Z 13006KT CAVOK 20/14 A3005 NOSIG=
201901041400 METAR MRPV 041400Z 11008KT CAVOK 22/15 A3007 NOSIG=
201901041500 METAR MRPV 041500Z 11007KT CAVOK 24/15 A3007 NOSIG=
201901041600 METAR MRPV 041600Z 13005KT CAVOK 25/15 A3005 NOSIG=
201901041700 METAR MRPV 041700Z 10009KT 9999 FEW045 26/15 A3004 NOSIG=
201901041800 METAR MRPV 041800Z 10009KT 9999 FEW040 26/15 A3002 NOSIG=
201901041900 METAR MRPV 041900Z 11009KT 9999 FEW040 26/16 A2998 NOSIG=
201901042000 METAR MRPV 042000Z 11009KT 9999 FEW040 26/17 A2996 NOSIG=
201901042100 METAR MRPV 042100Z 10009KT 9999 FEW040 SCT200 26/16 A2996 NOSIG=
201901042200 METAR MRPV 042200Z 11009KT 9999 FEW040 SCT200 25/16 A2997 NOSIG=
201901042300 METAR MRPV 042300Z 11011KT 9999 FEW030 23/16 A2999 NOSIG=
201901050000 METAR MRPV 050000Z 12008KT 9999 FEW025 SCT100 20/16 A3002 NOSIG=
201901050100 METAR MRPV NIL=
201901050200 METAR MRPV NIL=
201901050300 METAR MRPV NIL=
201901050400 METAR MRPV NIL=
201901050500 METAR MRPV NIL=
201901050600 METAR MRPV NIL=
201901050700 METAR MRPV NIL=
201901050800 METAR MRPV NIL=
201901050900 METAR MRPV NIL=
201901051000 METAR MRPV NIL=
201901051100 METAR MRPV NIL=
201901051200 METAR MRPV 051200Z 12007KT 9999 SCT030 20/14 A3006 NOSIG=
201901051300 METAR MRPV 051300Z 13008KT 9999 FEW030 20/15 A3008 NOSIG=
201901051400 METAR MRPV 051400Z 12008KT 9999 SCT035 21/15 A3011 NOSIG=
201901051500 METAR MRPV 051500Z 13007KT 9999 FEW035 22/15 A3011 NOSIG=
201901051600 METAR MRPV 051600Z 09012KT 9999 SCT035 23/15 A3011 NOSIG=
201901051700 METAR MRPV 051700Z 09009KT 9999 SCT030 23/15 A3009 NOSIG=
201901051800 METAR MRPV 051800Z 10010KT 9999 SCT030 SCT060 24/16 A3007 NOSIG=
201901051900 METAR MRPV 051900Z 09013KT 9999 SCT030 24/15 A3004 NOSIG=
201901052000 METAR MRPV 052000Z 10011KT 9999 FEW035 25/16 A3002 NOSIG=
201901052100 METAR MRPV 052100Z 09010KT 9999 SCT030 24/16 A3003 NOSIG=
201901052200 METAR MRPV 052200Z 09010KT 9999 FEW030 23/15 A3003 NOSIG=
201901052300 METAR MRPV 052300Z 09011KT 9999 FEW030 22/15 A3004 NOSIG=
201901060000 METAR MRPV 060000Z 12011KT 9999 FEW030 20/16 A3006 NOSIG=
201901060100 METAR MRPV NIL=
201901060200 METAR MRPV NIL=
201901060300 METAR MRPV NIL=
201901060400 METAR MRPV NIL=
201901060500 METAR MRPV NIL=
201901060600 METAR MRPV NIL=
201901060700 METAR MRPV NIL=
201901060800 METAR MRPV NIL=
201901060900 METAR MRPV NIL=
201901061000 METAR MRPV NIL=
201901061100 METAR MRPV NIL=
201901061200 METAR MRPV 061200Z 12010KT 9999 FEW035 19/14 A3006 NOSIG=
201901061300 METAR MRPV 061300Z 14007KT 9999 VA FEW040 20/13 A3008 NOSIG=
201901061400 METAR MRPV 061400Z 13010KT 9999 VA NSC 21/12 A3009 NOSIG=
201901061500 METAR MRPV 061500Z 11013KT CAVOK 22/14 A3009 REVA NOSIG=
201901061600 METAR MRPV 061600Z 10013KT CAVOK 23/15 A3010 NOSIG=
201901061700 METAR MRPV 061700Z 10013KT 9999 FEW035 23/15 A3008 NOSIG=
201901061800 METAR MRPV 061800Z 09011KT 9999 FEW035 24/15 A3007 NOSIG=
201901061900 METAR MRPV 061900Z 10011KT 9999 FEW035 24/15 A3004 NOSIG=
201901062000 METAR MRPV 062000Z 11012KT 9999 FEW030 SCT070 24/15 A3004 NOSIG=
201901062100 METAR MRPV 062100Z 11010KT 9999 FEW030 SCT070 24/15 A3003 NOSIG=
201901062200 METAR MRPV 062200Z 11010KT 9999 FEW030 23/15 A3004 NOSIG=
201901062300 METAR MRPV 062300Z 13006KT 9999 FEW030 22/15 A3005 NOSIG=
201901070000 METAR MRPV 070000Z 13008KT 9999 FEW030 20/15 A3007 NOSIG=
201901070100 METAR MRPV NIL=
201901070200 METAR MRPV NIL=
201901070300 METAR MRPV NIL=
201901070400 METAR MRPV NIL=
201901070500 METAR MRPV NIL=
201901070600 METAR MRPV NIL=
201901070700 METAR MRPV NIL=
201901070800 METAR MRPV NIL=
201901070900 METAR MRPV NIL=
201901071000 METAR MRPV NIL=
201901071100 METAR MRPV NIL=
201901071200 METAR MRPV 071200Z 15005KT 9999 FEW040 28/13 A3009 NOSIG=
201901071300 METAR MRPV 071300Z 12009KT 9999 FEW040 19/14 A3012 NOSIG=
201901071400 METAR MRPV 071400Z 13007KT 9999 FEW040 SCT200 20/14 A3013 NOSIG=
201901071500 METAR MRPV 071500Z 11008KT CAVOK 22/14 A3013 NOSIG=
201901071600 METAR MRPV NIL=
201901071700 METAR MRPV 071700Z 10009KT 9999 FEW040 24/14 A3010 NOSIG=
201901071800 METAR MRPV 071800Z 11008KT 9999 FEW040 25/15 A3007 NOSIG=
201901071900 METAR MRPV 071900Z 11006KT 9999 FEW045 26/15 A3004 NOSIG=
201901072000 METAR MRPV 072000Z 11005KT 9999 FEW040 26/15 A3003 NOSIG=
201901072100 METAR MRPV 072100Z 11007KT 9999 FEW035 25/15 A3003 NOSIG=
201901072200 METAR MRPV 072200Z 12007KT 9999 FEW040 24/15 A3004 NOSIG=
201901072300 METAR MRPV 072300Z 12007KT 9999 FEW035 SCT180 21/15 A3005 NOSIG=
201901080000 METAR MRPV 080000Z 12007KT 9999 FEW040 SCT200 20/15 A3006 NOSIG=
201901080100 METAR MRPV NIL=
201901080200 METAR MRPV NIL=
201901080300 METAR MRPV NIL=
201901080400 METAR MRPV NIL=
201901080500 METAR MRPV NIL=
201901080600 METAR MRPV NIL=
201901080700 METAR MRPV NIL=
201901080800 METAR MRPV NIL=
201901080900 METAR MRPV NIL=
201901081000 METAR MRPV NIL=
201901081100 METAR MRPV NIL=
201901081200 METAR MRPV 081200Z 14006KT CAVOK 17/12 A3010 NOSIG=
201901081300 METAR MRPV 081300Z 16004KT CAVOK 19/13 A3012 NOSIG=
201901081400 METAR MRPV 081400Z 14007KT CAVOK 20/13 A3014 NOSIG=
201901081500 METAR MRPV 081500Z 13007KT 9999 FEW040 24/13 A3013 NOSIG=
201901081600 METAR MRPV 081600Z 10009KT 9999 FEW040 24/14 A3013 NOSIG=
201901081700 METAR MRPV 081700Z 09014KT 9999 FEW040 26/12 A3010 NOSIG=
201901081800 METAR MRPV 081800Z 08014KT 9999 FEW040 25/14 A3009 NOSIG=
201901081900 METAR MRPV 081900Z 10013KT 9999 FEW035 25/15 A3006 NOSIG=
201901082000 METAR MRPV 082000Z 09017KT 9999 SCT035 25/15 A3005 NOSIG=
201901082100 METAR MRPV 082100Z 09016KT 9999 SCT035 23/15 A3005 NOSIG=
201901082200 METAR MRPV 082200Z 10017KT 9999 SCT035 22/14 A3006 NOSIG=
201901082300 METAR MRPV 082300Z 10014KT 9999 SCT030 21/13 A3008 NOSIG=
201901090000 METAR MRPV 090000Z 12009KT 9999 SCT030 20/13 A3009 NOSIG=
201901090100 METAR MRPV NIL=
201901090200 METAR MRPV NIL=
201901090300 METAR MRPV NIL=
201901090400 METAR MRPV NIL=
201901090500 METAR MRPV NIL=
201901090600 METAR MRPV NIL=
201901090700 METAR MRPV NIL=
201901090800 METAR MRPV NIL=
201901090900 METAR MRPV NIL=
201901091000 METAR MRPV NIL=
201901091100 METAR MRPV NIL=
201901091200 METAR MRPV 091200Z 12009KT 9999 FEW040 SCT070 18/12 A3012 NOSIG=
201901091300 METAR MRPV 091300Z 14007KT 9999 FEW040 18/12 A3014 NOSIG=
201901091400 METAR MRPV 091400Z 14009KT 9999 FEW040 20/13 A3016 NOSIG=
201901091500 METAR MRPV 091500Z 12009KT CAVOK 23/13 A3016 NOSIG=
201901091600 METAR MRPV 091600Z 09011KT CAVOK 24/12 A3014 NOSIG=
201901091700 METAR MRPV 091700Z 07012KT CAVOK 25/12 A3012 NOSIG=
201901091800 METAR MRPV 091800Z 08012KT CAVOK 25/12 A3010 NOSIG=
201901091900 METAR MRPV 091900Z 09011KT CAVOK 25/13 A3006 NOSIG=
201901092000 METAR MRPV 092000Z 09013KT 9999 FEW045 SCT120 26/13 A3005 NOSIG=
201901092100 METAR MRPV 092100Z 09014KT 9999 FEW045 SCT160 25/14 A3005 NOSIG=
201901092200 METAR MRPV 092200Z 09015KT 9999 FEW045 BKN140 24/14 A3005 NOSIG=
201901092300 METAR MRPV 092300Z 10011KT 9999 SCT035 BKN120 22/14 A3007 NOSIG=
201901100000 METAR MRPV 100000Z 12011KT 9999 SCT035 BKN120 21/15 A3009 NOSIG=
201901100100 METAR MRPV NIL=
201901100200 METAR MRPV NIL=
201901100300 METAR MRPV NIL=
201901100400 METAR MRPV NIL=
201901100500 METAR MRPV NIL=
201901100600 METAR MRPV NIL=
201901100700 METAR MRPV NIL=
201901100800 METAR MRPV NIL=
201901100900 METAR MRPV NIL=
201901101000 METAR MRPV NIL=
201901101100 METAR MRPV NIL=
201901101200 METAR MRPV 101200Z 13010KT CAVOK 18/10 A3009 NOSIG=
201901101300 METAR MRPV 101300Z 13010KT CAVOK 18/12 A3011 NOSIG=
201901101400 METAR MRPV 101400Z 13010KT CAVOK 20/12 A3012 NOSIG=
201901101500 METAR MRPV 101500Z 11011KT CAVOK 23/08 A3012 NOSIG=
201901101600 METAR MRPV 101600Z 08016KT CAVOK 24/06 A3012 NOSIG=
201901101700 METAR MRPV 101700Z 09010KT CAVOK 26/10 A3008 NOSIG=
201901101800 METAR MRPV 101800Z 09011KT CAVOK 26/11 A3005 NOSIG=
201901101900 METAR MRPV 101900Z 08014KT CAVOK 26/13 A3002 NOSIG=
201901102000 METAR MRPV 102000Z 07012KT 9999 FEW045 BKN090 25/14 A3001 NOSIG=
201901102100 METAR MRPV 102100Z 09015KT 9999 FEW040 BKN090 25/14 A3001 NOSIG=
201901102200 METAR MRPV 102200Z 08015KT 9999 FEW035 BKN070 24/14 A3002 NOSIG=
201901102300 METAR MRPV 102300Z 07013KT 9999 RA FEW025 BKN070 21/16 A3004 NOSIG=
201901110000 METAR MRPV 110000Z 10010KT 9999 FEW025 BKN090 19/15 A3007 RERA NOSIG=
201901110100 METAR MRPV NIL=
201901110200 METAR MRPV NIL=
201901110300 METAR MRPV NIL=
201901110400 METAR MRPV NIL=
201901110500 METAR MRPV NIL=
201901110600 METAR MRPV NIL=
201901110700 METAR MRPV NIL=
201901110800 METAR MRPV NIL=
201901110900 METAR MRPV NIL=
201901111000 METAR MRPV NIL=
201901111100 METAR MRPV NIL=
201901111200 METAR MRPV 111200Z 12011KT 9999 FEW035 18/13 A3008 NOSIG=
201901111300 METAR MRPV 111300Z 11013KT 9999 FEW040 19/14 A3009 NOSIG=
201901111400 METAR MRPV 111400Z 10014KT 9999 FEW040 20/14 A3011 NOSIG=
201901111500 METAR MRPV 111500Z 09015G25KT 9999 FEW040 21/14 A3012 NOSIG=
201901111600 METAR MRPV 111600Z 07012KT 9999 FEW040 23/14 A3012 NOSIG=
201901111700 METAR MRPV 111700Z 08014KT 9999 FEW040 24/14 A3009 NOSIG=
201901111800 METAR MRPV 111800Z 08015KT 9999 FEW040 24/14 A3007 NOSIG=
201901111900 METAR MRPV 111900Z 09015KT 9999 SCT040 25/14 A3003 NOSIG=
201901112000 METAR MRPV 112000Z 08016KT 9999 FEW035 SCT080 24/15 A3001 NOSIG=
201901112100 METAR MRPV 112100Z 09013KT 9999 FEW040 SCT100 25/14 A3001 NOSIG=
201901112200 METAR MRPV 112200Z 09015KT 9999 FEW035 23/15 A3002 NOSIG=
201901112300 METAR MRPV 112300Z 10011G20KT 9999 FEW030 21/15 A3003 NOSIG=
201901120000 METAR MRPV 120000Z 10010KT 9999 FEW030 20/15 A3004 NOSIG=
201901120100 METAR MRPV NIL=
201901120200 METAR MRPV NIL=
201901120300 METAR MRPV NIL=
201901120400 METAR MRPV NIL=
201901120500 METAR MRPV NIL=
201901120600 METAR MRPV NIL=
201901120700 METAR MRPV NIL=
201901120800 METAR MRPV NIL=
201901120900 METAR MRPV NIL=
201901121000 METAR MRPV NIL=
201901121100 METAR MRPV NIL=
201901121200 METAR MRPV 121200Z 11009KT 9999 FEW035 18/13 A3007 NOSIG=
201901121300 METAR MRPV 121300Z 12010KT 9999 FEW035 18/14 A3009 NOSIG=
201901121400 METAR MRPV 121400Z 11011KT 9999 FEW035 20/14 A3011 NOSIG=
201901121500 METAR MRPV 121500Z 09015KT CAVOK 22/14 A3012 NOSIG=
201901121600 METAR MRPV 121600Z 09015KT 9999 FEW040 23/14 A3012 NOSIG=
201901121700 METAR MRPV 121700Z 09013KT 9999 FEW040 25/14 A3009 NOSIG=
201901121800 METAR MRPV 121800Z 08013KT 9999 FEW040 25/14 A3007 NOSIG=
201901121900 METAR MRPV 121900Z 09014KT 9999 FEW040 25/14 A3004 NOSIG=
201901122000 METAR MRPV 122000Z 08014KT 9999 FEW045 26/14 A3002 NOSIG=
201901122100 METAR MRPV 122100Z 09016KT 9999 FEW045 SCT090 25/15 A3001 NOSIG=
201901122200 METAR MRPV 122200Z 09016KT 9999 FEW025 BKN090 22/14 A3004 NOSIG=
201901122300 METAR MRPV 122300Z 09019KT 9999 FEW020 BKN090 20/15 A3006 NOSIG=
201901130000 METAR MRPV 130000Z 09015KT 9999 FEW020 19/15 A3006 NOSIG=
201901130100 METAR MRPV NIL=
201901130200 METAR MRPV NIL=
201901130300 METAR MRPV NIL=
201901130400 METAR MRPV NIL=
201901130500 METAR MRPV NIL=
201901130600 METAR MRPV NIL=
201901130700 METAR MRPV NIL=
201901130800 METAR MRPV NIL=
201901130900 METAR MRPV NIL=
201901131000 METAR MRPV NIL=
201901131100 METAR MRPV NIL=
201901131200 METAR MRPV 131200Z 14008KT CAVOK 17/12 A3009 NOSIG=
201901131300 METAR MRPV 131300Z 12008KT CAVOK 18/12 A3011 NOSIG=
201901131400 METAR MRPV 131400Z 10015KT CAVOK 20/13 A3013 NOSIG=
201901131500 METAR MRPV 131500Z 09016KT CAVOK 21/13 A3012 NOSIG=
201901131600 METAR MRPV 131600Z 08015KT CAVOK 23/14 A3012 NOSIG=
201901131700 METAR MRPV 131700Z 08016KT 9999 FEW030 23/14 A3010 NOSIG=
201901131800 METAR MRPV 131800Z 09017KT 9999 SCT030 23/14 A3007 NOSIG=
201901131900 METAR MRPV 131900Z 07015G25KT 9999 FEW040 24/13 A3004 NOSIG=
201901132000 METAR MRPV 132000Z 07015KT 9999 FEW040 25/13 A3002 NOSIG=
201901132100 METAR MRPV 132100Z 07016KT 9999 FEW040 24/14 A3002 NOSIG=
201901132200 METAR MRPV 132200Z 07012KT 9999 FEW035 24/14 A3002 NOSIG=
201901132300 METAR MRPV 132300Z 07015G25KT 9999 FEW035 21/13 A3003 NOSIG=
201901140000 METAR MRPV 140000Z 08013KT 9999 FEW030 20/13 A3005 NOSIG=
201901140100 METAR MRPV NIL=
201901140200 METAR MRPV NIL=
201901140300 METAR MRPV NIL=
201901140400 METAR MRPV NIL=
201901140500 METAR MRPV NIL=
201901140600 METAR MRPV NIL=
201901140700 METAR MRPV NIL=
201901140800 METAR MRPV NIL=
201901140900 METAR MRPV NIL=
201901141000 METAR MRPV NIL=
201901141100 METAR MRPV NIL=
201901141200 METAR MRPV 141200Z 13007KT CAVOK 17/10 A3008 NOSIG=
201901141300 METAR MRPV 141300Z 13010KT CAVOK 19/10 A3009 NOSIG=
201901141400 METAR MRPV 141400Z 11013KT 9999 FEW040 21/12 A3011 NOSIG=
201901141500 METAR MRPV 141500Z 08016KT 9999 FEW040 21/12 A3011 NOSIG=
201901141600 METAR MRPV 141600Z 09015KT 9999 FEW045 23/13 A3010 NOSIG=
201901141700 METAR MRPV 141700Z 09017KT 9999 FEW040 24/13 A3008 NOSIG=
201901141800 METAR MRPV 141800Z 08017G27KT 9999 FEW040 24/12 A3007 NOSIG=
201901141900 METAR MRPV 141900Z 08019G30KT CAVOK 25/12 A3004 NOSIG=
201901142000 METAR MRPV 142000Z 07020KT CAVOK 24/13 A3001 NOSIG=
201901142100 METAR MRPV 142100Z 07016KT CAVOK 23/13 A3001 NOSIG=
201901142200 METAR MRPV NIL=
201901142210 METAR MRPV 142210Z 07013KT 9999 FEW045 22/// A3001 NOSIG=
201901142300 METAR MRPV NIL=
201901142310 METAR MRPV 142310Z 09016KT CAVOK 21/13 A3001 NOSIG=
201901150000 METAR MRPV 150000Z 09016G26KT CAVOK 20/12 A3002 NOSIG=
201901150100 METAR MRPV NIL=
201901150200 METAR MRPV NIL=
201901150300 METAR MRPV NIL=
201901150400 METAR MRPV NIL=
201901150500 METAR MRPV NIL=
201901150600 METAR MRPV NIL=
201901150700 METAR MRPV NIL=
201901150800 METAR MRPV NIL=
201901150900 METAR MRPV NIL=
201901151000 METAR MRPV NIL=
201901151100 METAR MRPV NIL=
201901151200 METAR MRPV 151200Z 12010KT CAVOK 18/12 A3006 NOSIG=
201901151300 METAR MRPV 151300Z 14008KT CAVOK 19/11 A3007 NOSIG=
201901151400 METAR MRPV 151400Z 10014KT CAVOK 21/12 A3008 NOSIG=
201901151500 METAR MRPV 151500Z 09019KT CAVOK 23/12 A3008 NOSIG=
201901151600 METAR MRPV 151600Z 08019KT CAVOK 24/13 A3009 NOSIG=
201901151700 METAR MRPV 151700Z 08017KT 9999 FEW040 BKN220 24/14 A3008 NOSIG=
201901151800 METAR MRPV 151800Z 08017G27KT 9999 FEW040 BKN220 25/14 A3006 NOSIG=
201901151900 METAR MRPV 151900Z 08019KT 9999 FEW040 SCT220 25/13 A3003 NOSIG=
201901152000 METAR MRPV 152000Z 08018G28KT 9999 FEW040 SCT220 25/14 A3002 NOSIG=
201901152100 METAR MRPV 152100Z 07019G29KT 9999 FEW040 SCT220 25/13 A3000 NOSIG=
201901152200 METAR MRPV 152200Z 07018G28KT 9999 FEW035 SCT220 24/14 A3000 NOSIG=
201901152300 METAR MRPV 152300Z 07014G24KT 9999 FEW035 OVC220 22/13 A3003 NOSIG=
201901160000 METAR MRPV 160000Z 09018KT 9999 FEW035 BKN200 21/14 A3004 NOSIG=
201901160100 METAR MRPV NIL=
201901160200 METAR MRPV NIL=
201901160300 METAR MRPV NIL=
201901160400 METAR MRPV NIL=
201901160500 METAR MRPV NIL=
201901160600 METAR MRPV NIL=
201901160700 METAR MRPV NIL=
201901160800 METAR MRPV NIL=
201901160900 METAR MRPV NIL=
201901161000 METAR MRPV NIL=
201901161100 METAR MRPV NIL=
201901161200 METAR MRPV 161200Z 11013G23KT CAVOK 18/12 A3007 NOSIG=
201901161300 METAR MRPV 161300Z 11016G26KT CAVOK 19/12 A3009 NOSIG=
201901161400 METAR MRPV 161400Z 09021G31KT CAVOK 20/13 A3012 NOSIG=
201901161500 METAR MRPV 161500Z 09019KT CAVOK 22/12 A3013 NOSIG=
201901161600 METAR MRPV 161600Z 09021G32KT CAVOK 23/12 A3012 NOSIG=
201901161700 METAR MRPV 161700Z 08020G32KT CAVOK 23/14 A3011 NOSIG=
201901161800 METAR MRPV 161800Z 08018G30KT 9999 FEW040 24/14 A3009 NOSIG=
201901161900 METAR MRPV 161900Z 08018G28KT CAVOK 24/13 A3007 NOSIG=
201901162000 METAR MRPV 162000Z 07020G30KT CAVOK 24/14 A3004 NOSIG=
201901162100 METAR MRPV 162100Z 07020G30KT 9999 FEW040 23/15 A3003 NOSIG=
201901162200 METAR MRPV 162200Z 08019KT 9999 FEW040 22/15 A3003 NOSIG=
201901162300 METAR MRPV 162300Z 07018KT 9999 SCT030 21/14 A3005 NOSIG=
201901170000 METAR MRPV NIL=
201901170100 METAR MRPV NIL=
201901170200 METAR MRPV NIL=
201901170300 METAR MRPV NIL=
201901170400 METAR MRPV NIL=
201901170500 METAR MRPV NIL=
201901170600 METAR MRPV NIL=
201901170700 METAR MRPV NIL=
201901170800 METAR MRPV NIL=
201901170900 METAR MRPV NIL=
201901171000 METAR MRPV NIL=
201901171100 METAR MRPV NIL=
201901171200 METAR MRPV 171200Z 11017KT CAVOK 18/13 A3009 NOSIG=
201901171300 METAR MRPV 171300Z 11017G27KT CAVOK 19/13 A3011 NOSIG=
201901171400 METAR MRPV 171400Z 09022G32KT CAVOK 20/12 A3013 NOSIG=
201901171500 METAR MRPV 171500Z 08023G34KT CAVOK 21/12 A3014 WSR09 NOSIG=
201901171600 METAR MRPV 171600Z 08019G29KT CAVOK 23/12 A3014 WSR09 NOSIG=
201901171700 METAR MRPV 171700Z 08019G30KT CAVOK 23/12 A3012 WSR09 NOSIG=
201901171800 METAR MRPV 171800Z 08021G31KT CAVOK 24/12 A3010 WSR09 NOSIG=
201901171900 METAR MRPV 171900Z 07018KT CAVOK 24/13 A3008 WSR09 NOSIG=
201901172000 METAR MRPV 172000Z 07020G30KT CAVOK 24/12 A3005 WSR09 NOSIG=
201901172100 METAR MRPV 172100Z 08018G28KT CAVOK 24/13 A3004 WSR09 NOSIG=
201901172200 METAR MRPV 172200Z 07020G30KT CAVOK 23/12 A3003 WSR09 NOSIG=
201901172300 METAR MRPV 172300Z 08018G28KT CAVOK 22/13 A3004 WSR09 NOSIG=
201901180000 METAR MRPV 180000Z 08019G29KT CAVOK 20/13 A3005 WSR09 NOSIG=
201901180100 METAR MRPV NIL=
201901180200 METAR MRPV NIL=
201901180300 METAR MRPV NIL=
201901180400 METAR MRPV NIL=
201901180500 METAR MRPV NIL=
201901180600 METAR MRPV NIL=
201901180700 METAR MRPV NIL=
201901180800 METAR MRPV NIL=
201901180900 METAR MRPV NIL=
201901181000 METAR MRPV NIL=
201901181100 METAR MRPV NIL=
201901181200 METAR MRPV 181200Z 12012KT CAVOK 18/11 A3007 NOSIG=
201901181300 METAR MRPV 181300Z 12013G23KT CAVOK 19/11 A3009 NOSIG=
201901181400 METAR MRPV 181400Z 11013G23KT CAVOK 21/10 A3010 NOSIG=
201901181500 METAR MRPV 181500Z 11013G23KT CAVOK 23/10 A3011 NOSIG=
201901181600 METAR MRPV 181600Z 09018G29KT CAVOK 25/10 A3009 NOSIG=
201901181700 METAR MRPV 181700Z 08019G29KT CAVOK 25/12 A3008 NOSIG=
201901181800 METAR MRPV 181800Z 07016G26KT CAVOK 25/12 A3005 NOSIG=
201901181900 METAR MRPV 181900Z 07020KT CAVOK 25/12 A3003 NOSIG=
201901182000 METAR MRPV 182000Z 07016G26KT CAVOK 25/11 A3000 NOSIG=
201901182100 METAR MRPV 182100Z 07016KT CAVOK 25/10 A2998 NOSIG=
201901182200 METAR MRPV 182200Z 08017G28KT 9999 FEW045 23/12 A2998 WSR09 NOSIG=
201901182300 METAR MRPV 182300Z 09017G27KT 9999 FEW040 22/13 A3000 WSR09 NOSIG=
201901190000 METAR MRPV 190000Z 11011KT 9999 FEW040 20/13 A3001 WSR09 NOSIG=
201901190100 METAR MRPV NIL=
201901190200 METAR MRPV NIL=
201901190300 METAR MRPV NIL=
201901190400 METAR MRPV NIL=
201901190500 METAR MRPV NIL=
201901190600 METAR MRPV NIL=
201901190700 METAR MRPV NIL=
201901190800 METAR MRPV NIL=
201901190900 METAR MRPV NIL=
201901191000 METAR MRPV NIL=
201901191100 METAR MRPV NIL=
201901191200 METAR MRPV 191200Z 13008KT CAVOK 18/13 A3004 NOSIG=
201901191300 METAR MRPV 191300Z 13010KT CAVOK 19/13 A3005 NOSIG=
201901191400 METAR MRPV 191400Z 11012KT CAVOK 21/14 A3006 NOSIG=
201901191500 METAR MRPV 191500Z 09015KT CAVOK 23/14 A3007 NOSIG=
201901191600 METAR MRPV 191600Z 09014KT CAVOK 24/14 A3006 NOSIG=
201901191700 METAR MRPV 191700Z 08014KT CAVOK 25/14 A3006 NOSIG=
201901191800 METAR MRPV 191800Z 09014KT CAVOK 26/15 A3003 NOSIG=
201901191900 METAR MRPV 191900Z 09012KT CAVOK 26/15 A3000 NOSIG=
201901192000 METAR MRPV 192000Z 09015KT CAVOK 26/15 A2997 NOSIG=
201901192100 METAR MRPV 192100Z 09014KT 9999 FEW040 26/15 A2995 NOSIG=
201901192200 METAR MRPV 192200Z 09015KT CAVOK 24/16 A2995 NOSIG=
201901192300 METAR MRPV 192300Z 10012KT 9999 FEW040 23/15 A2996 NOSIG=
201901200000 METAR MRPV 200000Z 11009KT 9999 FEW035 21/15 A2998 NOSIG=
201901200100 METAR MRPV NIL=
201901200200 METAR MRPV NIL=
201901200300 METAR MRPV NIL=
201901200400 METAR MRPV NIL=
201901200500 METAR MRPV NIL=
201901200600 METAR MRPV NIL=
201901200700 METAR MRPV NIL=
201901200800 METAR MRPV NIL=
201901200900 METAR MRPV NIL=
201901201000 METAR MRPV NIL=
201901201100 METAR MRPV NIL=
201901201200 METAR MRPV 201200Z 13012KT 9999 FEW035 19/14 A3004 NOSIG=
201901201300 METAR MRPV 201300Z 12013G23KT 9999 FEW035 20/14 A3006 NOSIG=
201901201400 METAR MRPV 201400Z 11012KT 9999 FEW040 22/13 A3009 NOSIG=
201901201500 METAR MRPV 201500Z 12014KT 9999 FEW045 22/14 A3009 NOSIG=
201901201600 METAR MRPV 201600Z 08019KT 9999 FEW045 23/15 A3009 NOSIG=
201901201700 METAR MRPV 201700Z 08021G31KT 9999 FEW040 24/16 A3008 NOSIG=
201901201800 METAR MRPV 201800Z 08022G32KT 9999 FEW030 22/15 A3007 NOSIG=
201901201900 METAR MRPV 201900Z 08020KT 9999 FEW030 SCT120 22/15 A3005 NOSIG=
201901202000 METAR MRPV 202000Z 08020G30KT 9999 FEW030 23/15 A3001 NOSIG=
201901202100 METAR MRPV 202100Z 09019G29KT 9999 FEW030 22/14 A3000 NOSIG=
201901202200 METAR MRPV 202200Z 10023G35KT 9999 FEW035 22/14 A3001 NOSIG=
201901202300 METAR MRPV 202300Z 10017G27KT 9999 FEW035 BKN130 21/14 A3003 NOSIG=
201901210000 METAR MRPV 210000Z 11014G27KT 9999 FEW040 BKN120 20/14 A3005 NOSIG=
201901210100 METAR MRPV NIL=
201901210200 METAR MRPV NIL=
201901210300 METAR MRPV NIL=
201901210400 METAR MRPV NIL=
201901210500 METAR MRPV NIL=
201901210600 METAR MRPV NIL=
201901210700 METAR MRPV NIL=
201901210800 METAR MRPV NIL=
201901210900 METAR MRPV NIL=
201901211000 METAR MRPV NIL=
201901211100 METAR MRPV NIL=
201901211200 METAR MRPV 211200Z 10020G31KT 9999 FEW035 SCT110 18/14 A3008 NOSIG=
201901211300 METAR MRPV 211300Z 11018KT 9999 FEW035 BKN110 19/15 A3008 NOSIG=
201901211400 METAR MRPV 211400Z 09018KT 9999 FEW035 BKN110 20/15 A3012 NOSIG=
201901211500 METAR MRPV 211500Z 09023KT 9999 SCT030 21/15 A3012 NOSIG=
201901211600 METAR MRPV 211600Z 11019G32KT 9999 FEW030 SCT120 21/15 A3011 NOSIG=
201901211700 METAR MRPV 211700Z 09021G32KT 9999 SCT025 22/15 A3011 NOSIG=
201901211800 METAR MRPV 211800Z 08022G36KT 9999 SCT030 22/14 A3009 NOSIG=
201901211900 METAR MRPV 211900Z 08019G29KT 9999 FEW040 24/14 A3006 NOSIG=
201901212000 METAR MRPV 212000Z 08022G34KT 9999 FEW040 BKN120 25/14 A3003 NOSIG=
201901212100 METAR MRPV 212100Z 08022G34KT 9999 FEW040 BKN120 25/14 A3003 NOSIG=
201901212200 METAR MRPV 212200Z 09021G31KT 9999 FEW035 BKN120 22/15 A3002 NOSIG=
201901212300 METAR MRPV 212300Z 09024G36KT 9999 FEW030 20/14 A3004 NOSIG=
201901220000 METAR MRPV 220000Z 10023G34KT 9999 FEW035 BKN120 20/12 A3004 NOSIG=
201901220100 METAR MRPV NIL=
201901220200 METAR MRPV NIL=
201901220300 METAR MRPV NIL=
201901220400 METAR MRPV NIL=
201901220500 METAR MRPV NIL=
201901220600 METAR MRPV NIL=
201901220700 METAR MRPV NIL=
201901220800 METAR MRPV NIL=
201901220900 METAR MRPV NIL=
201901221000 METAR MRPV NIL=
201901221100 METAR MRPV NIL=
201901221200 METAR MRPV 221200Z 12015G27KT 9999 FEW040 18/12 A3006 NOSIG=
201901221300 METAR MRPV 221300Z 12013G24KT CAVOK 18/11 A3008 NOSIG=
201901221400 METAR MRPV 221400Z 11014G24KT CAVOK 20/11 A3010 NOSIG=
201901221500 METAR MRPV 221500Z 09021G31KT CAVOK 21/11 A3010 NOSIG=
201901221600 METAR MRPV 221600Z 08019G29KT CAVOK 22/12 A3010 NOSIG=
201901221700 METAR MRPV 221700Z 07021G31KT CAVOK 23/12 A3008 NOSIG=
201901221800 METAR MRPV 221800Z 07020G30KT CAVOK 24/11 A3005 NOSIG=
201901221900 METAR MRPV 221900Z 07018G29KT CAVOK 24/13 A3002 NOSIG=
201901222000 METAR MRPV 222000Z 07020G32KT 9999 FEW040 23/14 A2999 NOSIG=
201901222100 METAR MRPV 222100Z 08017G31KT CAVOK 24/14 A2998 NOSIG=
201901222200 METAR MRPV 222200Z 07018G28KT 9999 FEW035 21/14 A2998 NOSIG=
201901222300 METAR MRPV 222300Z 09016KT 9999 FEW030 20/14 A2999 NOSIG=
201901230000 METAR MRPV 230000Z 11015KT 9999 FEW030 19/14 A3001 NOSIG=
201901230100 METAR MRPV NIL=
201901230200 METAR MRPV NIL=
201901230300 METAR MRPV NIL=
201901230400 METAR MRPV NIL=
201901230500 METAR MRPV NIL=
201901230600 METAR MRPV NIL=
201901230700 METAR MRPV NIL=
201901230800 METAR MRPV NIL=
201901230900 METAR MRPV NIL=
201901231000 METAR MRPV NIL=
201901231100 METAR MRPV NIL=
201901231200 METAR MRPV 231200Z 12012G22KT CAVOK 18/12 A3003 NOSIG=
201901231300 METAR MRPV 231300Z 11011KT CAVOK 19/13 A3005 NOSIG=
201901231400 METAR MRPV 231400Z 11013G23KT CAVOK 20/13 A3006 NOSIG=
201901231500 METAR MRPV 231500Z 09015G25KT CAVOK 22/14 A3007 NOSIG=
201901231600 METAR MRPV 231600Z 09017KT CAVOK 23/14 A3006 NOSIG=
201901231700 METAR MRPV 231700Z 09021KT 9999 FEW030 23/15 A3005 NOSIG=
201901231800 METAR MRPV 231800Z 08017KT 9999 SCT030 22/14 A3004 NOSIG=
201901231900 METAR MRPV 231900Z 09017G29KT 9999 FEW035 23/14 A3001 NOSIG=
201901232000 METAR MRPV NIL=
201901232100 METAR MRPV 232100Z 09018KT 9999 FEW030 23/15 A2998 NOSIG=
201901232200 METAR MRPV 232200Z 11012KT 9999 FEW025 22/15 A2997 NOSIG=
201901232300 METAR MRPV 232300Z 13012KT 9999 FEW030 21/15 A2998 NOSIG=
201901240000 METAR MRPV 240000Z 12013KT 9999 FEW025 21/15 A2999 NOSIG=
201901240100 METAR MRPV NIL=
201901240200 METAR MRPV NIL=
201901240300 METAR MRPV NIL=
201901240400 METAR MRPV NIL=
201901240500 METAR MRPV NIL=
201901240600 METAR MRPV NIL=
201901240700 METAR MRPV NIL=
201901240800 METAR MRPV NIL=
201901240900 METAR MRPV NIL=
201901241000 METAR MRPV NIL=
201901241100 METAR MRPV NIL=
201901241200 METAR MRPV 241200Z 13008KT CAVOK 19/14 A3000 NOSIG=
201901241300 METAR MRPV 241300Z 13009KT CAVOK 20/14 A3003 NOSIG=
201901241400 METAR MRPV 241400Z 12011KT CAVOK 22/14 A3005 NOSIG=
201901241500 METAR MRPV 241500Z 10013KT CAVOK 24/15 A3006 NOSIG=
201901241600 METAR MRPV 241600Z 09012KT CAVOK 25/15 A3005 NOSIG=
201901241700 METAR MRPV 241700Z 10011KT CAVOK 27/16 A3002 NOSIG=
201901241800 METAR MRPV 241800Z 08013KT CAVOK 27/16 A3000 NOSIG=
201901241900 METAR MRPV 241900Z 09012KT 9999 FEW045 27/15 A2998=
201901242000 METAR MRPV 242000Z 09011KT 9999 FEW045 28/16 A2996 NOSIG=
201901242100 METAR MRPV 242100Z 08016KT 9999 FEW040 26/16 A2995 NOSIG=
201901242200 METAR MRPV 242200Z 10013KT 9999 FEW045 25/16 A2995 NOSIG=
201901242300 METAR MRPV 242300Z 09016KT 9999 FEW035 23/16 A2998 NOSIG=
201901250000 METAR MRPV 250000Z 11013G24KT 9999 FEW035 21/17 A3000 NOSIG=
201901250100 METAR MRPV NIL=
201901250200 METAR MRPV NIL=
201901250300 METAR MRPV NIL=
201901250400 METAR MRPV NIL=
201901250500 METAR MRPV NIL=
201901250600 METAR MRPV NIL=
201901250700 METAR MRPV NIL=
201901250800 METAR MRPV NIL=
201901250900 METAR MRPV NIL=
201901251000 METAR MRPV NIL=
201901251100 METAR MRPV NIL=
201901251200 METAR MRPV 251200Z 12013KT 9999 FEW020 20/14 A3005 NOSIG=
201901251300 METAR MRPV 251300Z 10012KT 9999 FEW030 20/15 A3005 NOSIG=
201901251400 METAR MRPV 251400Z 11013KT 9999 FEW025 21/15 A3009 NOSIG=
201901251500 METAR MRPV 251500Z 11016KT 9999 SCT045 22/15 A3010 NOSIG=
201901251600 METAR MRPV 251600Z 08018KT 9999 SCT030 22/15 A3010 NOSIG=
201901251700 METAR MRPV 251700Z 09019KT 9999 SCT035 23/15 A3009 NOSIG=
201901251800 METAR MRPV 251800Z 08020G31KT 9999 SCT035 24/15 A3006 NOSIG=
201901251900 METAR MRPV 251900Z 08017KT 9999 SCT035 24/15 A3004 NOSIG=
201901252000 METAR MRPV 252000Z 09017KT 9999 SCT035 24/15 A3002 NOSIG=
201901252100 METAR MRPV 252100Z 10014KT 9999 SCT035 SCT220 24/16 A3000 NOSIG=
201901252200 METAR MRPV 252200Z 11012KT 9999 FEW030 BKN220 23/16 A3001 NOSIG=
201901252300 METAR MRPV 252300Z 10014KT 9999 SCT030 SCT200 22/16 A3002 NOSIG=
201901260000 METAR MRPV 260000Z 11013KT 9999 FEW025 BKN200 20/15 A3003 NOSIG=
201901260100 METAR MRPV NIL=
201901260200 METAR MRPV NIL=
201901260300 METAR MRPV NIL=
201901260400 METAR MRPV NIL=
201901260500 METAR MRPV NIL=
201901260600 METAR MRPV NIL=
201901260700 METAR MRPV NIL=
201901260800 METAR MRPV NIL=
201901260900 METAR MRPV NIL=
201901261000 METAR MRPV NIL=
201901261100 METAR MRPV NIL=
201901261200 METAR MRPV 261200Z 11011KT 9999 FEW025 19/15 A3004 NOSIG=
201901261300 METAR MRPV 261300Z 11013KT 9999 FEW025 20/15 A3005 NOSIG=
201901261400 METAR MRPV 261400Z 11013KT 9999 FEW040 21/16 A3006 NOSIG=
201901261500 METAR MRPV 261500Z 09017KT 9999 FEW040 22/15 A3007 NOSIG=
201901261600 METAR MRPV 261600Z 09016KT 9999 FEW040 23/16 A3006 NOSIG=
201901261700 METAR MRPV 261700Z 09017KT 9999 FEW040 23/15 A3005 NOSIG=
201901261800 METAR MRPV 261800Z 09016KT 9999 FEW040 24/15 A3002 NOSIG=
201901261900 METAR MRPV 261900Z 08013KT 9999 FEW040 26/15 A2999 NOSIG=
201901262000 METAR MRPV 262000Z 09013KT 9999 FEW040 26/15 A2996 NOSIG=
201901262100 METAR MRPV 262100Z 09015KT 9999 FEW040 26/16 A2994 NOSIG=
201901262200 METAR MRPV 262200Z 09016KT 9999 FEW035 25/16 A2994 NOSIG=
201901262300 METAR MRPV 262300Z 10011KT 9999 FEW035 23/16 A2995 NOSIG=
201901270000 METAR MRPV 270000Z 10014KT 9999 FEW040 21/16 A2997 NOSIG=
201901270100 METAR MRPV NIL=
201901270200 METAR MRPV NIL=
201901270300 METAR MRPV NIL=
201901270400 METAR MRPV NIL=
201901270500 METAR MRPV NIL=
201901270600 METAR MRPV NIL=
201901270700 METAR MRPV NIL=
201901270800 METAR MRPV NIL=
201901270900 METAR MRPV NIL=
201901271000 METAR MRPV NIL=
201901271100 METAR MRPV NIL=
201901271200 METAR MRPV 271200Z 14005KT CAVOK 17/14 A3003 NOSIG=
201901271300 METAR MRPV 271300Z 13006KT CAVOK 18/14 A3005 NOSIG=
201901271400 METAR MRPV 271400Z 13006KT CAVOK 21/14 A3006 NOSIG=
201901271500 METAR MRPV 271500Z 13006KT CAVOK 23/14 A3008 NOSIG=
201901271600 METAR MRPV 271600Z VRB02KT CAVOK 26/12 A3007 TEMPO 32005KT=
201901271633 METAR MRPV 271633Z 24003KT 320V230 CAVOK 27/13 A3005 NOSIG=
201901271700 METAR MRPV 271700Z 33004KT 250V320 CAVOK 28/13 A3004 NOSIG=
201901271800 METAR MRPV 271800Z 29006KT CAVOK 29/15 A3001 NOSIG=
201901271900 METAR MRPV 271900Z 29009G19KT 9999 FEW045 29/16 A2997 NOSIG=
201901272000 METAR MRPV 272000Z 29009KT 9999 FEW045 28/16 A2995 NOSIG=
201901272100 METAR MRPV 272100Z 26009KT 9999 FEW045 28/19 A2993 NOSIG=
201901272200 METAR MRPV 272200Z 27007KT 9999 SCT040 25/20 A2994 NOSIG=
201901272300 METAR MRPV 272300Z 28010KT 9999 FEW020 23/19 A2996 NOSIG=
201901280000 METAR MRPV 280000Z 29009KT 9999 BCFG FEW008 SCT030 22/20 A2999 NOSIG=
201901280100 METAR MRPV NIL=
201901280200 METAR MRPV NIL=
201901280300 METAR MRPV NIL=
201901280400 METAR MRPV NIL=
201901280500 METAR MRPV NIL=
201901280600 METAR MRPV NIL=
201901280700 METAR MRPV NIL=
201901280800 METAR MRPV NIL=
201901280900 METAR MRPV NIL=
201901281000 METAR MRPV NIL=
201901281100 METAR MRPV NIL=
201901281200 METAR MRPV 281200Z 13008KT 9999 FEW035 BKN200 20/15 A3001 NOSIG=
201901281300 METAR MRPV 281300Z 15009KT CAVOK 20/15 A3004 NOSIG=
201901281400 METAR MRPV 281400Z 14008KT CAVOK 23/15 A3006 NOSIG=
201901281500 METAR MRPV 281500Z 12012KT CAVOK 25/12 A3007 NOSIG=
201901281600 METAR MRPV 281600Z 08019G30KT CAVOK 25/14 A3007 NOSIG=
201901281700 METAR MRPV 281700Z 07015G25KT CAVOK 26/14 A3006 NOSIG=
201901281800 METAR MRPV 281800Z 07018G32KT 9999 FEW040 BKN200 26/14 A3004 NOSIG=
201901281900 METAR MRPV 281900Z 08019G29KT 9999 FEW040 SCT200 25/14 A3003 NOSIG=
201901282000 METAR MRPV 282000Z 09018KT 9999 FEW040 26/14 A3003 NOSIG=
201901282100 METAR MRPV 282100Z 10015KT 9999 SCT040 25/15 A3000 NOSIG=
201901282200 METAR MRPV 282200Z 08015KT 9999 BKN035 22/14 A3003 NOSIG=
201901282300 METAR MRPV 282300Z 09016KT 9999 SCT035 22/14 A3003 NOSIG=
201901290000 METAR MRPV 290000Z 10014KT 9999 SCT040 23/19 A3007 NOSIG=
201901290100 METAR MRPV NIL=
201901290200 METAR MRPV NIL=
201901290300 METAR MRPV NIL=
201901290400 METAR MRPV NIL=
201901290500 METAR MRPV NIL=
201901290600 METAR MRPV NIL=
201901290700 METAR MRPV NIL=
201901290800 METAR MRPV NIL=
201901290900 METAR MRPV NIL=
201901291000 METAR MRPV NIL=
201901291100 METAR MRPV NIL=
201901291200 METAR MRPV 291200Z 12007KT CAVOK 19/11 A3003 NOSIG=
201901291300 METAR MRPV 291300Z 12003KT CAVOK 19/12 A3006 NOSIG=
201901291400 METAR MRPV 291400Z 11009KT CAVOK 22/12 A3008 NOSIG=
201901291500 METAR MRPV 291500Z 10011KT CAVOK 24/12 A3008 NOSIG=
201901291600 METAR MRPV 291600Z 10009KT CAVOK 26/13 A3007 NOSIG=
201901291700 METAR MRPV 291700Z 10007KT CAVOK 28/13 A3006 NOSIG=
201901291800 METAR MRPV 291800Z 08009KT CAVOK 29/14 A3003 NOSIG=
201901291900 METAR MRPV 291900Z 09009KT CAVOK 28/15 A3000 NOSIG=
201901292000 METAR MRPV 292000Z 09010KT CAVOK 26/15 A2998 NOSIG=
201901292100 METAR MRPV 292100Z 09010KT 9999 SCT040 26/15 A2998 NOSIG=
201901292200 METAR MRPV 292200Z 09009KT 9999 SCT040 24/16 A2999 NOSIG=
201901292300 METAR MRPV 292300Z 09014KT 9999 SCT040 23/16 A3000 NOSIG=
201901300000 METAR MRPV 300000Z 12010KT 9999 BKN030 22/17 A3003 NOSIG=
201901300100 METAR MRPV NIL=
201901300200 METAR MRPV NIL=
201901300300 METAR MRPV NIL=
201901300400 METAR MRPV NIL=
201901300500 METAR MRPV NIL=
201901300600 METAR MRPV NIL=
201901300700 METAR MRPV NIL=
201901300800 METAR MRPV NIL=
201901300900 METAR MRPV NIL=
201901301000 METAR MRPV NIL=
201901301200 METAR MRPV 301200Z 12010KT 9999 FEW030 18/14 A3004 NOSIG=
201901301300 METAR MRPV 301300Z 11014G25KT 9999 FEW035 SCT200 19/15 A3007 NOSIG=
201901301400 METAR MRPV 301400Z 10014KT 9999 FEW030 BKN200 21/14 A3008 NOSIG=
201901301500 METAR MRPV 301500Z 09017KT 9999 FEW030 BKN200 21/15 A3008 NOSIG=
201901301600 METAR MRPV 301600Z 08016KT 9999 FEW030 BKN200 23/15 A3008 NOSIG=
201901301700 METAR MRPV 301700Z 09019KT 9999 SCT030 22/15 A3008 NOSIG=
201901301800 METAR MRPV 301800Z 09017KT 9999 BKN030 23/14 A3006 NOSIG=
201901301900 METAR MRPV 301900Z 09016KT 9999 SCT030 24/14 A3004 NOSIG=
201901302000 METAR MRPV 302000Z 09016KT 9999 SCT040 24/14 A3001 NOSIG=
201901302100 METAR MRPV 302100Z 11013KT 9999 SCT045 22/14 A3000 NOSIG=
201901302200 METAR MRPV 302200Z 10014KT 9999 SCT045 SCT100 22/13 A3000 NOSIG=
201901302300 METAR MRPV 302300Z 10013KT 9999 SCT035 SCT100 21/13 A3002 NOSIG=
201901310000 METAR MRPV 310000Z 10012KT 9999 FEW035 SCT100 21/13 A3003 NOSIG=
201901310100 METAR MRPV NIL=
201901310200 METAR MRPV NIL=
201901310300 METAR MRPV NIL=
201901310400 METAR MRPV NIL=
201901310500 METAR MRPV NIL=
201901310600 METAR MRPV NIL=
201901310700 METAR MRPV NIL=
201901310800 METAR MRPV NIL=
201901310900 METAR MRPV NIL=
201901311000 METAR MRPV NIL=
201901311100 METAR MRPV NIL=
201901311200 METAR MRPV 311200Z 12013KT CAVOK 19/11 A3007 NOSIG=
201901311300 METAR MRPV 311300Z 12011KT CAVOK 20/11 A3009 NOSIG=
201901311400 METAR MRPV 311400Z 10017KT CAVOK 22/12 A3010 NOSIG=
201901311500 METAR MRPV 311500Z 09014KT CAVOK 24/12 A3011 NOSIG=
201901311600 METAR MRPV 311600Z 08018KT CAVOK 24/12 A3011 NOSIG=
201901311700 METAR MRPV 311700Z 08016G27KT CAVOK 24/14 A3010 NOSIG=
201901311800 METAR MRPV 311800Z 08018KT 9999 FEW045 SCT220 25/14 A3008 NOSIG=
201901311900 METAR MRPV 311900Z 08019KT 9999 FEW045 26/14 A3005 NOSIG=
201901312000 METAR MRPV 312000Z 08019KT 9999 FEW040 25/14 A3004 NOSIG=
201901312100 METAR MRPV 312100Z 08017KT 9999 FEW040 25/14 A3001 NOSIG=
201901312200 METAR MRPV 312200Z 09017KT 9999 SCT030 23/14 A3002 NOSIG=
201901312300 METAR MRPV 312300Z 09015KT 9999 SCT030 SCT250 22/14 A3003 NOSIG=
201902010000 METAR MRPV 010000Z 09015KT 9999 SCT035 21/14 A3004 NOSIG=
201902010100 METAR MRPV NIL=
201902010200 METAR MRPV NIL=
201902010300 METAR MRPV NIL=
201902010400 METAR MRPV NIL=
201902010500 METAR MRPV NIL=
201902010600 METAR MRPV NIL=
201902010700 METAR MRPV NIL=
201902010800 METAR MRPV NIL=
201902010900 METAR MRPV NIL=
201902011000 METAR MRPV NIL=
201902011100 METAR MRPV NIL=
201902011200 METAR MRPV 011200Z 14005KT CAVOK 17/09 A3005 NOSIG=
201902011300 METAR MRPV 011300Z 12004KT CAVOK 18/10 A3006 NOSIG=
201902011400 METAR MRPV 011400Z 11008KT CAVOK 21/08 A3008 NOSIG=
201902011500 METAR MRPV 011500Z 10013KT CAVOK 23/08 A3010 NOSIG=
201902011600 METAR MRPV 011600Z 09013KT CAVOK 24/07 A3009 NOSIG=
201902011700 METAR MRPV 011700Z 08012KT CAVOK 26/09 A3008 NOSIG=
201902011800 METAR MRPV 011800Z 09014KT CAVOK 25/11 A3007 NOSIG=
201902011900 METAR MRPV 011900Z 09011KT CAVOK 26/13 A3004 NOSIG=
201902012000 METAR MRPV 012000Z 08011KT 9999 FEW045 26/13 A3001 NOSIG=
201902012100 METAR MRPV 012100Z 08015KT 9999 FEW045 25/13 A3001 NOSIG=
201902012200 METAR MRPV 012200Z 09014KT 9999 FEW045 SCT200 24/14 A3001 NOSIG=
201902012300 METAR MRPV 012300Z 09012KT 9999 FEW045 SCT200 22/14 A3003 NOSIG=
201902020000 METAR MRPV 020000Z 11008KT 9999 FEW040 BKN200 21/15 A3005 NOSIG=
201902020100 METAR MRPV NIL=
201902020200 METAR MRPV NIL=
201902020300 METAR MRPV NIL=
201902020400 METAR MRPV NIL=
201902020500 METAR MRPV NIL=
201902020600 METAR MRPV NIL=
201902020700 METAR MRPV NIL=
201902020800 METAR MRPV NIL=
201902020900 METAR MRPV NIL=
201902021000 METAR MRPV NIL=
201902021100 METAR MRPV NIL=
201902021200 METAR MRPV 021200Z 11010KT 9999 FEW020 18/14 A3007 NOSIG=
201902021300 METAR MRPV 021300Z 13009KT 9999 FEW030 20/14 A3009 NOSIG=
201902021400 METAR MRPV 021400Z 12010KT 9999 FEW035 21/15 A3010 NOSIG=
201902021500 METAR MRPV 021500Z 11013KT 9999 FEW035 22/15 A3011 NOSIG=
201902021600 METAR MRPV 021600Z 09017KT 9999 FEW040 23/15 A3010 NOSIG=
201902021700 METAR MRPV 021700Z 09018KT 9999 FEW030 24/15 A3008 NOSIG=
201902021800 METAR MRPV 021800Z 10016KT 9999 FEW030 24/16 A3006 NOSIG=
201902021900 METAR MRPV 021900Z 09017KT 9999 FEW035 SCT200 25/15 A3003 NOSIG=
201902022000 METAR MRPV 022000Z 08017KT 9999 FEW035 SCT250 24/15 A3000 NOSIG=
201902022100 METAR MRPV 022100Z 09017G27KT 9999 FEW030 24/15 A2998 NOSIG=
201902022200 METAR MRPV 022200Z 10015KT 9999 FEW035 24/15 A2998 NOSIG=
201902022300 METAR MRPV 022300Z 12013KT 9999 SCT030 SCT200 22/16 A2998 NOSIG=
201902030000 METAR MRPV 030000Z 10014KT 9999 SCT030 SCT200 20/15 A3001 NOSIG=
201902030100 METAR MRPV NIL=
201902030200 METAR MRPV NIL=
201902030300 METAR MRPV NIL=
201902030400 METAR MRPV NIL=
201902030500 METAR MRPV NIL=
201902030600 METAR MRPV NIL=
201902030700 METAR MRPV NIL=
201902030800 METAR MRPV NIL=
201902030900 METAR MRPV NIL=
201902031000 METAR MRPV NIL=
201902031100 METAR MRPV NIL=
201902031200 METAR MRPV 031200Z 10016KT 9999 FEW035 19/13 A3001 NOSIG=
201902031300 METAR MRPV 031300Z 10015KT 9999 FEW035 19/14 A3003 NOSIG=
201902031400 METAR MRPV 031400Z 12012KT 9999 SCT035 20/14 A3004 NOSIG=
201902031500 METAR MRPV 031500Z 09018KT 9999 FEW040 22/14 A3006 NOSIG=
201902031600 METAR MRPV 031600Z 07016KT CAVOK 23/14 A3005 NOSIG=
201902031700 METAR MRPV 031700Z 08015KT 9999 FEW040 24/14 A3004 NOSIG=
201902031800 METAR MRPV 031800Z 08016KT 9999 FEW035 25/14 A3003 NOSIG=
201902031900 METAR MRPV 031900Z 09013KT CAVOK 26/15 A2999 NOSIG=
201902032000 METAR MRPV 032000Z 08016KT CAVOK 26/15 A2997 NOSIG=
201902032100 METAR MRPV 032100Z 09015KT 9999 FEW040 SCT080 25/15 A2995 NOSIG=
201902032200 METAR MRPV 032200Z 10015KT 9999 FEW035 24/15 A2995 NOSIG=
201902032300 METAR MRPV 032300Z 11010KT 9999 FEW040 23/15 A2996 NOSIG=
201902040000 METAR MRPV 040000Z 12009KT 9999 FEW030 21/15 A2998 NOSIG=
201902040100 METAR MRPV NIL=
201902040200 METAR MRPV NIL=
201902040300 METAR MRPV NIL=
201902040400 METAR MRPV NIL=
201902040500 METAR MRPV NIL=
201902040600 METAR MRPV NIL=
201902040700 METAR MRPV NIL=
201902040800 METAR MRPV NIL=
201902040900 METAR MRPV NIL=
201902041000 METAR MRPV NIL=
201902041100 METAR MRPV NIL=
201902041200 METAR MRPV 041200Z 13009KT 9999 FEW030 18/12 A3003 NOSIG=
201902041300 METAR MRPV 041300Z 13010G21KT 9999 FEW030 19/13 A3005 NOSIG=
201902041400 METAR MRPV 041400Z 12011KT 9999 FEW035 21/12 A3007 NOSIG=
201902041500 METAR MRPV 041500Z 09014KT CAVOK 23/13 A3007 NOSIG=
201902041600 METAR MRPV 041600Z 09015KT CAVOK 24/13 A3006 NOSIG=
201902041700 METAR MRPV 041700Z 09015KT CAVOK 25/13 A3004 NOSIG=
201902041800 METAR MRPV 041800Z 08017KT CAVOK 26/14 A3001 NOSIG=
201902041900 METAR MRPV 041900Z 08015KT CAVOK 26/14 A2999 NOSIG=
201902042000 METAR MRPV 042000Z 08016KT CAVOK 26/14 A2997 NOSIG=
201902042100 METAR MRPV 042100Z 08018KT 9999 FEW040 25/15 A2996 NOSIG=
201902042200 METAR MRPV 042200Z 08016KT 9999 FEW035 24/15 A2997 NOSIG=
201902042300 METAR MRPV 042300Z 10013KT 9999 FEW035 22/14 A2997 NOSIG=
201902050000 METAR MRPV 050000Z 11013G24KT 9999 SCT030 21/15 A2999 NOSIG=
201902050100 METAR MRPV NIL=
201902050200 METAR MRPV NIL=
201902050300 METAR MRPV NIL=
201902050400 METAR MRPV NIL=
201902050500 METAR MRPV NIL=
201902050600 METAR MRPV NIL=
201902050700 METAR MRPV NIL=
201902050800 METAR MRPV NIL=
201902050900 METAR MRPV NIL=
201902051000 METAR MRPV NIL=
201902051100 METAR MRPV NIL=
201902051200 METAR MRPV 051200Z 12015G25KT 9999 FEW020 18/13 A3001 NOSIG=
201902051300 METAR MRPV 051300Z 13013KT 9999 FEW035 19/13 A3003 NOSIG=
201902051400 METAR MRPV 051400Z 12015G26KT CAVOK 20/14 A3004 NOSIG=
201902051500 METAR MRPV 051500Z 09019KT CAVOK 22/13 A3006 NOSIG=
201902051600 METAR MRPV 051600Z 08019G30KT 9999 FEW040 23/14 A3007 NOSIG=
201902051700 METAR MRPV 051700Z 07015KT CAVOK 24/13 A3005 NOSIG=
201902051800 METAR MRPV 051800Z 07015KT CAVOK 25/13 A3003 NOSIG=
201902051900 METAR MRPV 051900Z 07017KT CAVOK 25/15 A3001 NOSIG=
201902052000 METAR MRPV 052000Z 08015KT CAVOK 26/14 A2998 NOSIG=
201902052100 METAR MRPV 052100Z 07015G25KT 9999 FEW040 25/14 A2997 NOSIG=
201902052200 METAR MRPV 052200Z 08016G28KT 9999 FEW040 24/14 A2996 NOSIG=
201902052300 METAR MRPV 052300Z 08015G25KT 9999 FEW035 22/14 A2998 NOSIG=
201902060000 METAR MRPV 060000Z 10013KT 9999 FEW035 21/14 A3000 NOSIG=
201902060100 METAR MRPV NIL=
201902060200 METAR MRPV NIL=
201902060300 METAR MRPV NIL=
201902060400 METAR MRPV NIL=
201902060500 METAR MRPV NIL=
201902060600 METAR MRPV NIL=
201902060700 METAR MRPV NIL=
201902060800 METAR MRPV NIL=
201902060900 METAR MRPV NIL=
201902061000 METAR MRPV NIL=
201902061100 METAR MRPV NIL=
201902061200 METAR MRPV 061200Z 12016G26KT CAVOK 18/13 A3002 NOSIG=
201902061300 METAR MRPV 061300Z 11016KT CAVOK 19/13 A3003 NOSIG=
201902061400 METAR MRPV 061400Z 10019KT CAVOK 20/14 A3003 NOSIG=
201902061500 METAR MRPV 061500Z 09023KT CAVOK 21/14 A3004 NOSIG=
201902061600 METAR MRPV 061600Z 08021KT CAVOK 22/14 A3005 NOSIG=
201902061700 METAR MRPV 061700Z 08020KT CAVOK 23/13 A3004 NOSIG=
201902061800 METAR MRPV 061800Z 07019G29KT 9999 FEW040 24/14 A3002 NOSIG=
201902061900 METAR MRPV 061900Z 07019G31KT 9999 FEW035 24/14 A3001 NOSIG=
201902062000 METAR MRPV 062000Z 07017G27KT 9999 FEW035 24/14 A2999 NOSIG=
201902062100 METAR MRPV 062100Z 08014G24KT 9999 FEW035 24/14 A2998 NOSIG=
201902062200 METAR MRPV 062200Z 08015G25KT 9999 FEW030 23/14 A2997 NOSIG=
201902062300 METAR MRPV 062300Z 07016G26KT 9999 FEW030 21/14 A2998 NOSIG=
201902070000 METAR MRPV 070000Z 09013KT 9999 FEW030 20/14 A2999 NOSIG=
201902070100 METAR MRPV NIL=
201902070200 METAR MRPV NIL=
201902070300 METAR MRPV NIL=
201902070400 METAR MRPV NIL=
201902070500 METAR MRPV NIL=
201902070600 METAR MRPV NIL=
201902070700 METAR MRPV NIL=
201902070800 METAR MRPV NIL=
201902070900 METAR MRPV NIL=
201902071000 METAR MRPV NIL=
201902071100 METAR MRPV NIL=
201902071200 METAR MRPV 071200Z 11013KT CAVOK 18/10 A3001 NOSIG=
201902071300 METAR MRPV 071300Z 11015KT CAVOK 19/09 A3003 NOSIG=
201902071400 METAR MRPV 071400Z 11014KT CAVOK 21/10 A3004 NOSIG=
201902071500 METAR MRPV 071500Z 09018KT CAVOK 23/10 A3005 NOSIG=
201902071600 METAR MRPV 071600Z 08013KT CAVOK 25/11 A3005 NOSIG=
201902071700 METAR MRPV 0717700Z 08013KT CAVOK 25/11 A3004 NOSIG=
201902071800 METAR MRPV 071800Z 09015KT CAVOK 26/12 A3001 NOSIG=
201902071900 METAR MRPV 071900Z 09018KT CAVOK 26/14 A2999 NOSIG=
201902072000 METAR MRPV 072000Z 09018G28KT CAVOK 26/14 A2997 NOSIG=
201902072100 METAR MRPV 072100Z 08017KT CAVOK 25/14 A2995 NOSIG=
201902072200 METAR MRPV 072200Z 08016KT 9999 FEW035 24/14 A2995 NOSIG=
201902072300 METAR MRPV 072300Z 09014KT 9999 FEW035 23/14 A2997 NOSIG=
201902080000 METAR MRPV 080000Z 10013KT 9999 FEW030 21/14 A2998 NOSIG=
201902080100 METAR MRPV NIL=
201902080200 METAR MRPV NIL=
201902080300 METAR MRPV NIL=
201902080400 METAR MRPV NIL=
201902080500 METAR MRPV NIL=
201902080600 METAR MRPV NIL=
201902080700 METAR MRPV NIL=
201902080800 METAR MRPV NIL=
201902080900 METAR MRPV NIL=
201902081000 METAR MRPV NIL=
201902081100 METAR MRPV NIL=
201902081200 METAR MRPV 081200Z 11014G24KT CAVOK 18/11 A3002 NOSIG=
201902081300 METAR MRPV 081300Z 11014KT CAVOK 19/11 A3005 NOSIG=
201902081400 METAR MRPV 081400Z 12014KT CAVOK 21/10 A3006 NOSIG=
201902081500 METAR MRPV 081500Z 09017KT CAVOK 23/10 A3007 NOSIG=
201902081600 METAR MRPV 081600Z 08017KT CAVOK 25/11 A3006 NOSIG=
201902081700 METAR MRPV 081700Z 08020KT CAVOK 24/14 A3005 NOSIG=
201902081800 METAR MRPV 081800Z 07021G33KT 9999 FEW035 23/15 A3003 NOSIG=
201902081900 METAR MRPV 081900Z 07022G34KT 9999 FEW035 24/14 A3001 NOSIG=
201902082000 METAR MRPV 082000Z 07019G30KT 9999 FEW035 24/13 A2999 NOSIG=
201902082100 METAR MRPV 082100Z 07018G28KT 9999 FEW035 24/14 A2997 NOSIG=
201902082200 METAR MRPV 082200Z 07019KT 9999 FEW035 23/14 A2997 NOSIG=
201902082300 METAR MRPV 082300Z 08022KT 9999 FEW035 22/14 A2998 NOSIG=
201902090000 METAR MRPV 090000Z 09018KT 9999 FEW035 20/14 A2999 NOSIG=
201902090100 METAR MRPV NIL=
201902090200 METAR MRPV NIL=
201902090300 METAR MRPV NIL=
201902090400 METAR MRPV NIL=
201902090500 METAR MRPV NIL=
201902090600 METAR MRPV NIL=
201902090700 METAR MRPV NIL=
201902090800 METAR MRPV NIL=
201902090900 METAR MRPV NIL=
201902091000 METAR MRPV NIL=
201902091100 METAR MRPV NIL=
201902091200 METAR MRPV 091200Z 12015KT CAVOK 19/10 A3006 NOSIG=
201902091300 METAR MRPV 091300Z 12010KT CAVOK 20/09 A3007 NOSIG=
201902091400 METAR MRPV 091400Z 11015G26KT CAVOK 22/10 A3008 NOSIG=
201902091500 METAR MRPV 091500Z 08023G33KT CAVOK 21/13 A3010 NOSIG=
201902091600 METAR MRPV 091600Z 10022G35KT CAVOK 21/14 A3010 NOSIG=
201902091700 METAR MRPV 091700Z 10022G34KT 9999 FEW035 21/13 A3009 NOSIG=
201902091800 METAR MRPV 091800Z 09022KT 9999 FEW035 24/12 A3006 NOSIG=
201902091900 METAR MRPV 091900Z 07023G34KT 9999 FEW045 23/11 A3003 NOSIG=
201902092000 METAR MRPV 092000Z 08024G32KT CAVOK 24/12 A3001 NOSIG=
201902092100 METAR MRPV 092100Z 07021G34KT CAVOK 24/12 A3001 NOSIG=
201902092200 METAR MRPV 092200Z 08021G32KT CAVOK 23/12 A3000 NOSIG=
201902092300 METAR MRPV 092300Z 09022G33KT CAVOK 22/12 A3001 NOSIG=
201902100000 METAR MRPV 100000Z 10019KT CAVOK 20/13 A3002 NOSIG=
201902100100 METAR MRPV NIL=
201902100200 METAR MRPV NIL=
201902100300 METAR MRPV NIL=
201902100400 METAR MRPV NIL=
201902100500 METAR MRPV NIL=
201902100600 METAR MRPV NIL=
201902100700 METAR MRPV NIL=
201902100800 METAR MRPV NIL=
201902100900 METAR MRPV NIL=
201902101000 METAR MRPV NIL=
201902101100 METAR MRPV NIL=
201902101200 METAR MRPV 101200Z 13011KT 9999 FEW040 18/11 A3005 NOSIG=
201902101300 METAR MRPV 101300Z 13013G24KT 9999 FEW040 19/12 A3006 NOSIG=
201902101400 METAR MRPV 101400Z 10019G33KT CAVOK 21/10 A3007 NOSIG=
201902101500 METAR MRPV 101500Z 08020G30KT CAVOK 22/12 A3008 NOSIG=
201902101600 METAR MRPV 101600Z 08021KT CAVOK 23/13 A3007 NOSIG=
201902101700 METAR MRPV 101700Z 08019KT CAVOK 23/13 A3005 NOSIG=
201902101800 METAR MRPV 101800Z 08019G29KT 9999 FEW040 23/13 A3004 NOSIG=
201902101900 METAR MRPV 101900Z 07018KT 9999 FEW040 24/13 A3002 NOSIG=
201902102000 METAR MRPV 102000Z 07017G27KT CAVOK 25/12 A2998 NOSIG=
201902102100 METAR MRPV 102100Z 07017G27KT CAVOK 24/12 A2997 NOSIG=
201902102200 METAR MRPV 102200Z 08016KT CAVOK 23/13 A2997 NOSIG=
201902102300 METAR MRPV 102300Z 08015KT 9999 FEW040 21/13 A2999 NOSIG=
201902110000 METAR MRPV 110000Z 09014KT 9999 FEW035 20/13 A3000 NOSIG=
201902110100 METAR MRPV NIL=
201902110200 METAR MRPV NIL=
201902110300 METAR MRPV NIL=
201902110400 METAR MRPV NIL=
201902110500 METAR MRPV NIL=
201902110600 METAR MRPV NIL=
201902110700 METAR MRPV NIL=
201902110800 METAR MRPV NIL=
201902110900 METAR MRPV NIL=
201902111000 METAR MRPV NIL=
201902111100 METAR MRPV NIL=
201902111200 METAR MRPV 111200Z 12013KT CAVOK 18/11 A3001 NOSIG=
201902111300 METAR MRPV 111300Z 13011KT CAVOK 19/11 A3003 NOSIG=
201902111400 METAR MRPV 111400Z 11014KT CAVOK 20/11 A3004 NOSIG=
201902111500 METAR MRPV 111500Z 09018KT CAVOK 22/12 A3005 NOSIG=
201902111600 METAR MRPV 111600Z 09016KT CAVOK 24/13 A3003 NOSIG=
201902111700 METAR MRPV 111700Z 08017KT CAVOK 25/13 A3001 NOSIG=
201902111800 METAR MRPV 111800Z 08016KT CAVOK 26/14 A2999 NOSIG=
201902111900 METAR MRPV 111900Z 09014KT 9999 FEW040 26/15 A2996 NOSIG=
201902112000 METAR MRPV 112000Z 09017KT 9999 FEW040 26/15 A2994 NOSIG=
201902112100 METAR MRPV 112100Z 09018KT 9999 FEW040 25/15 A2993 NOSIG=
201902112200 METAR MRPV 112200Z 09018KT 9999 FEW030 24/15 A2993 NOSIG=
201902112300 METAR MRPV 112300Z 09017G27KT 9999 FEW025 21/15 A2995 NOSIG=
201902120000 METAR MRPV 120000Z 11015KT 9999 FEW025 20/15 A2997 NOSIG=
201902120100 METAR MRPV NIL=
201902120200 METAR MRPV NIL=
201902120300 METAR MRPV NIL=
201902120400 METAR MRPV NIL=
201902120500 METAR MRPV NIL=
201902120600 METAR MRPV NIL=
201902120700 METAR MRPV NIL=
201902120800 METAR MRPV NIL=
201902120900 METAR MRPV NIL=
201902121000 METAR MRPV NIL=
201902121100 METAR MRPV NIL=
201902121200 METAR MRPV 121200Z 14008KT CAVOK 18/13 A3001 NOSIG=
201902121300 METAR MRPV 121300Z 13009KT CAVOK 19/12 A3003 NOSIG=
201902121400 METAR MRPV 121400Z 13012KT CAVOK 21/11 A3004 NOSIG=
201902121500 METAR MRPV 121500Z 12012KT CAVOK 23/12 A3006 NOSIG=
201902121600 METAR MRPV 121600Z 10010KT CAVOK 25/11 A3005 NOSIG=
201902121700 METAR MRPV 121700Z 09009KT CAVOK 28/11 A3003 NOSIG=
201902121800 METAR MRPV 121800Z 09009KT CAVOK 28/13 A3000 NOSIG=
201902121900 METAR MRPV 121900Z 08009KT CAVOK 29/12 A2998 NOSIG=
201902122000 METAR MRPV 122000Z 28009KT 9999 FEW040 29/17 A2996 NOSIG=
201902122100 METAR MRPV 122100Z 26008KT 9999 FEW045 28/17 A2995 NOSIG=
201902122200 METAR MRPV 122200Z 27007KT 9999 SCT045 27/18 A2995 NOSIG=
201902122300 METAR MRPV 122300Z 10009KT 9999 SCT035 23/16 A2997 NOSIG=
201902130000 METAR MRPV 130000Z 10012KT 9999 BKN030 22/17 A3000 NOSIG=
201902130100 METAR MRPV NIL=
201902130200 METAR MRPV NIL=
201902130300 METAR MRPV NIL=
201902130400 METAR MRPV NIL=
201902130500 METAR MRPV NIL=
201902130600 METAR MRPV NIL=
201902130700 METAR MRPV NIL=
201902130800 METAR MRPV NIL=
201902130900 METAR MRPV NIL=
201902131000 METAR MRPV NIL=
201902131100 METAR MRPV NIL=
201902131200 METAR MRPV 131200Z 12006KT CAVOK 18/14 A3005 NOSIG=
201902131300 METAR MRPV 131300Z 10011KT CAVOK 19/14 A3008 NOSIG=
201902131400 METAR MRPV 131400Z 10012KT CAVOK 22/14 A3009 NOSIG=
201902131500 METAR MRPV 131500Z 12009KT CAVOK 24/14 A3011 NOSIG=
201902131600 METAR MRPV 131600Z 09014KT CAVOK 25/15 A3010 NOSIG=
201902131700 METAR MRPV 131700Z 09012KT 9999 FEW040 26/14 A3008 NOSIG=
201902131800 METAR MRPV 131800Z 08010KT 9999 FEW040 27/15 A3005 NOSIG=
201902131900 METAR MRPV 131900Z 08014KT 9999 FEW045 28/15 A3002 NOSIG=
201902132000 METAR MRPV 132000Z 10016KT 9999 FEW035 SCT180 28/14 A3000 NOSIG=
201902132100 METAR MRPV 132100Z 09014KT 9999 FEW035 SCT200 27/15 A2999 NOSIG=
201902132200 METAR MRPV 132200Z 08014KT 9999 FEW035 BKN160 26/14 A3000 NOSIG=
201902132300 METAR MRPV 132300Z 09015KT 9999 VCVA FEW035 BKN150 24/14 A3001 NOSIG=
201902140000 METAR MRPV 140000Z 09014KT 9999 VCVA FEW035 BKN080 22/15 A3004 NOSIG=
201902140100 METAR MRPV NIL=
201902140200 METAR MRPV NIL=
201902140300 METAR MRPV NIL=
201902140400 METAR MRPV NIL=
201902140500 METAR MRPV NIL=
201902140600 METAR MRPV NIL=
201902140700 METAR MRPV NIL=
201902140800 METAR MRPV NIL=
201902140900 METAR MRPV NIL=
201902141000 METAR MRPV NIL=
201902141100 METAR MRPV NIL=
201902141200 METAR MRPV 141200Z 12012G22KT CAVOK 20/12 A3006 NOSIG=
201902141300 METAR MRPV 141300Z 11011KT CAVOK 21/13 A3008 NOSIG=
201902141400 METAR MRPV 141400Z 11013KT CAVOK 22/14 A3010 NOSIG=
201902141500 METAR MRPV 141500Z 10015KT CAVOK 24/14 A3010 NOSIG=
201902141600 METAR MRPV 141600Z 09020G30KT CAVOK 25/11 A3010 NOSIG=
201902141700 METAR MRPV 141700Z 07015KT CAVOK 26/13 A3008 NOSIG=
201902141800 METAR MRPV 141800Z 07015KT CAVOK 26/14 A3005 NOSIG=
201902141900 METAR MRPV 141900Z 07015KT CAVOK 27/14 A3003 NOSIG=
201902142000 METAR MRPV 142000Z 07015KT CAVOK 27/14 A3000 NOSIG=
201902142100 METAR MRPV 142100Z 07014KT 9999 FEW045 27/14 A2998 NOSIG=
201902142200 METAR MRPV 142200Z 07015KT 9999 FEW040 26/14 A2998 NOSIG=
201902142300 METAR MRPV 142300Z 07014KT 9999 FEW040 25/15 A3000 NOSIG=
201902150000 METAR MRPV 150000Z 09012KT 9999 FEW035 23/14 A3002 NOSIG=
201902150100 METAR MRPV NIL=
201902150200 METAR MRPV NIL=
201902150300 METAR MRPV NIL=
201902150400 METAR MRPV NIL=
201902150500 METAR MRPV NIL=
201902150600 METAR MRPV NIL=
201902150700 METAR MRPV NIL=
201902150800 METAR MRPV NIL=
201902150900 METAR MRPV NIL=
201902151000 METAR MRPV NIL=
201902151100 METAR MRPV NIL=
201902151200 METAR MRPV 151200Z COR 12012KT 9999 VCVA NSC 20/13 A3002 NOSIG=
201902151300 METAR MRPV 151300Z 12013G23KT 9999 VCVA NSC 21/12 A3005 NOSIG=
201902151400 METAR MRPV 151400Z 12014KT 9999 VCVA NSC 22/13 A3007 NOSIG=
201902151500 METAR MRPV 151500Z 10015KT 9999 VCVA NSC 24/13 A3008 NOSIG=
201902151600 METAR MRPV 151600Z 09015KT 9999 VCVA NSC 25/13 A3008 NOSIG=
201902151700 METAR MRPV 151700Z 09014KT 9999 VCVA NSC 27/13 A3007 NOSIG=
201902151800 METAR MRPV 151800Z 09014KT CAVOK 27/13 A3007 NOSIG=
201902151900 METAR MRPV 151900Z 08012KT CAVOK 28/14 A3000 NOSIG=
201902152000 METAR MRPV 152000Z 09012KT 9999 FEW045 28/15 A2997 NOSIG=
201902152100 METAR MRPV NIL=
201902152200 METAR MRPV 152200Z 08012KT 9999 FEW045 27/15 A2997 NOSIG=
201902152300 METAR MRPV 152300Z 10008KT 9999 FEW045 25/16 A2998 NOSIG=
201902160000 METAR MRPV 160000Z 10008KT 9999 FEW045 22/17 A3001 NOSIG=
201902160100 METAR MRPV NIL=
201902160200 METAR MRPV NIL=
201902160300 METAR MRPV NIL=
201902160400 METAR MRPV NIL=
201902160500 METAR MRPV NIL=
201902160600 METAR MRPV NIL=
201902160700 METAR MRPV NIL=
201902160800 METAR MRPV NIL=
201902160900 METAR MRPV NIL=
201902161000 METAR MRPV NIL=
201902161100 METAR MRPV NIL=
201902161200 METAR MRPV 161200Z 15005KT CAVOK 17/12 A3005 NOSIG=
201902161300 METAR MRPV 161300Z 12004KT CAVOK 19/12 A3007 NOSIG=
201902161400 METAR MRPV 161400Z 12005KT CAVOK 21/13 A3007 NOSIG=
201902161500 METAR MRPV 161500Z COR 15001KT CAVOK 24/13 A3009 BECMG 26005KT=
201902161600 METAR MRPV 161600Z 34003KT 290V010 CAVOK 25/12 A3007 NOSIG=
201902161700 METAR MRPV 161700Z 25004KT 290V350 CAVOK 27/12 A3004 NOSIG=
201902161800 METAR MRPV 161800Z 29007KT CAVOK 28/13 A3002 NOSIG=
201902161900 METAR MRPV 161900Z 26008KT CAVOK 29/15 A2999 NOSIG=
201902162000 METAR MRPV 162000Z 27009KT 9999 FEW045 29/15 A2996 NOSIG=
201902162100 METAR MRPV 162100Z 27009KT 9999 FEW040 28/16 A2996 NOSIG=
201902162200 METAR MRPV 162200Z 25006KT 9999 FEW045 27/16 A2996 NOSIG=
201902162300 METAR MRPV 162300Z 27005KT 9999 FEW040 26/16 A2997 NOSIG=
201902170000 METAR MRPV 170000Z 28006KT 9999 FEW040 24/16 A2999 NOSIG=
201902170100 METAR MRPV NIL=
201902170200 METAR MRPV NIL=
201902170300 METAR MRPV NIL=
201902170400 METAR MRPV NIL=
201902170500 METAR MRPV NIL=
201902170600 METAR MRPV NIL=
201902170700 METAR MRPV NIL=
201902170800 METAR MRPV NIL=
201902170900 METAR MRPV NIL=
201902171000 METAR MRPV NIL=
201902171100 METAR MRPV NIL=
201902171200 METAR MRPV 171200Z 14005KT 9999 FEW035 18/14 A3006 NOSIG=
201902171300 METAR MRPV 171300Z 13007KT CAVOK 20/14 A3009 NOSIG=
201902171400 METAR MRPV 171400Z 16007KT CAVOK 22/14 A3011 NOSIG=
201902171500 METAR MRPV 171500Z 12008KT CAVOK 24/14 A3012 NOSIG=
201902171600 METAR MRPV 171600Z 12006KT CAVOK 26/14 A3012 NOSIG=
201902171700 METAR MRPV 171700Z 08003KT CAVOK 27/13 A3009 BECMG 24005KT=
201902171800 METAR MRPV 171800Z 31003KT CAVOK 28/12 A3005 NOSIG=
201902171900 METAR MRPV 171900Z 27003KT 9999 FEW045 30/13 A3002 NOSIG=
201902172000 METAR MRPV 172000Z 27009G19KT 9999 FEW045 29/14 A2999 NOSIG=
201902172100 METAR MRPV 172100Z 06004KT 180V040 9999 SCT045 28/16 A2998 NOSIG=
201902172200 METAR MRPV 172200Z 29004KT 230V360 9999 SCT045 29/17 A2999 NOSIG=
201902172300 METAR MRPV 172300Z 26005KT 9999 BKN040 26/17 A3000 NOSIG=
201902180000 METAR MRPV 180000Z 10007KT 9999 BKN030 24/17 A3002 NOSIG=
201902180100 METAR MRPV NIL=
201902180200 METAR MRPV NIL=
201902180300 METAR MRPV NIL=
201902180400 METAR MRPV NIL=
201902180500 METAR MRPV NIL=
201902180600 METAR MRPV NIL=
201902180700 METAR MRPV NIL=
201902180800 METAR MRPV NIL=
201902180900 METAR MRPV NIL=
201902181000 METAR MRPV NIL=
201902181100 METAR MRPV NIL=
201902181200 METAR MRPV 181200Z 11008KT CAVOK 19/13 A3005 NOSIG=
201902181300 METAR MRPV 181300Z 13010KT CAVOK 21/14 A3008 NOSIG=
201902181400 METAR MRPV 181400Z 12010KT CAVOK 22/15 A3010 NOSIG=
201902181500 METAR MRPV COR 181500Z 12009KT CAVOK 25/14 A3011 NOSIG=
201902181600 METAR MRPV 181600Z 09009KT 9000 4000W NSC 26/14 A3011 NOSIG=
201902181700 METAR MRPV 181700Z 09010KT 9000 4000NW NSC 28/15 A3009 NOSIG=
201902181800 METAR MRPV 181800Z 09010KT 9000 NSC 28/15 A3005 NOSIG=
201902181900 METAR MRPV 181900Z 10012KT CAVOK 29/15 A3004 NOSIG=
201902182000 METAR MRPV 182000Z 08014KT 9999 FEW045 29/15 A3002 NOSIG=
201902182100 METAR MRPV 182100Z 09016KT 9999 FEW045 28/15 A3000 NOSIG=
201902182200 METAR MRPV 182200Z 09017KT 9999 FEW040 27/16 A3000 NOSIG=
201902182300 METAR MRPV 182300Z 09014KT 9999 FEW040 25/15 A3002 NOSIG=
201902190000 METAR MRPV 190000Z 08014G24KT 9999 FEW035 23/15 A3004 NOSIG=
201902190100 METAR MRPV NIL=
201902190200 METAR MRPV NIL=
201902190300 METAR MRPV NIL=
201902190400 METAR MRPV NIL=
201902190500 METAR MRPV NIL=
201902190600 METAR MRPV NIL=
201902190700 METAR MRPV NIL=
201902190800 METAR MRPV NIL=
201902190900 METAR MRPV NIL=
201902191000 METAR MRPV NIL=
201902191100 METAR MRPV NIL=
201902191200 METAR MRPV 191200Z 13007KT CAVOK 19/13 A3005 NOSIG=
201902191300 METAR MRPV 191300Z 13008KT CAVOK 20/13 A3008 NOSIG=
201902191400 METAR MRPV 191400Z 12011KT CAVOK 21/13 A3010 NOSIG=
201902191500 METAR MRPV 191500Z 11012KT CAVOK 23/13 A3011 NOSIG=
201902191600 METAR MRPV 191600Z 08012KT CAVOK 25/12 A3011 NOSIG=
201902191700 METAR MRPV 191700Z 09012KT CAVOK 26/13 A3009 NOSIG=
201902191800 METAR MRPV 191800Z 09011KT 9999 FEW045 26/13 A3007 NOSIG=
201902191900 METAR MRPV 191900Z 09011KT 9999 FEW045 28/14 A3004 NOSIG=
201902192000 METAR MRPV 192000Z 09013KT 9999 FEW045 26/14 A3001 NOSIG=
201902192100 METAR MRPV 192100Z 09014KT 9999 FEW035 26/15 A2998 NOSIG=
201902192200 METAR MRPV 192200Z 09018KT 9999 FEW040 SCT250 25/15 A2998 NOSIG=
201902192300 METAR MRPV 192300Z 09015KT 9999 FEW035 SCT250 23/15 A2999 NOSIG=
201902200000 METAR MRPV 200000Z 11010KT 9999 FEW035 SCT200 22/15 A3001 NOSIG=
201902200100 METAR MRPV NIL=
201902200200 METAR MRPV NIL=
201902200300 METAR MRPV NIL=
201902200400 METAR MRPV NIL=
201902200500 METAR MRPV NIL=
201902200600 METAR MRPV NIL=
201902200700 METAR MRPV NIL=
201902200800 METAR MRPV NIL=
201902200900 METAR MRPV NIL=
201902201000 METAR MRPV NIL=
201902201100 METAR MRPV NIL=
201902201200 METAR MRPV 201200Z 13006KT CAVOK 19/13 A3003 NOSIG=
201902201300 METAR MRPV 201300Z 12006KT CAVOK 19/13 A3005 NOSIG=
201902201400 METAR MRPV 201400Z 12008KT CAVOK 22/13 A3005 NOSIG=
201902201500 METAR MRPV 201500Z 12009KT CAVOK 24/13 A3006 NOSIG=
201902201600 METAR MRPV 201600Z 09007KT CAVOK 26/13 A3006 NOSIG=
201902201700 METAR MRPV 201700Z 08006KT CAVOK 27/13 A3003 BECMG 32005KT=
201902201800 METAR MRPV 201800Z 27004KT 110V360 9999 SCT045 28/13 A3000 NOSIG=
201902201900 METAR MRPV 201900Z 14002KT 9999 SCT045 28/14 A2997 WSR09 NOSIG=
201902202000 METAR MRPV 202000Z 09010KT 9999 SCT045 26/15 A2996 WSR09 NOSIG=
201902202100 METAR MRPV 202100Z 26007KT 9999 SCT035 28/18 A2994 WSR09 NOSIG=
201902202200 METAR MRPV 202200Z 25006KT 9999 4500NE SHRA FEW025TCU SCT035 26/19 A2995 WSR09 NOSIG=
201902202300 METAR MRPV 202300Z COR 08003KT 9999 4500NE RA FEW030 SCT040 23/16 A2996 WSR09 RERA NOSIG=
201902210000 METAR MRPV 210000Z COR 12005KT 8000 BKN035 22/16 A2997 WSR09 RERA NOSIG=
201902210100 METAR MRPV NIL=
201902210200 METAR MRPV NIL=
201902210300 METAR MRPV NIL=
201902210400 METAR MRPV NIL=
201902210500 METAR MRPV NIL=
201902210600 METAR MRPV NIL=
201902210700 METAR MRPV NIL=
201902210800 METAR MRPV NIL=
201902210900 METAR MRPV NIL=
201902211000 METAR MRPV NIL=
201902211100 METAR MRPV NIL=
201902211200 METAR MRPV 211200Z 13006KT CAVOK 18/14 A3002 NOSIG=
201902211300 METAR MRPV 211300Z 14006KT CAVOK 20/14 A3003 NOSIG=
201902211400 METAR MRPV 211400Z 14007KT CAVOK 23/14 A3004 NOSIG=
201902211500 METAR MRPV 211500Z 13006KT CAVOK 25/13 A3005 NOSIG=
201902211600 METAR MRPV 211600Z 13005KT CAVOK 28/11 A3004 NOSIG=
201902211700 METAR MRPV 211700Z 03005KT CAVOK 29/10 A3002 NOSIG=
201902211800 METAR MRPV 211800Z 10006KT CAVOK 30/10 A2998 NOSIG=
201902211900 METAR MRPV 211900Z 21006KT 080V190 CAVOK 28/14 A2996 NOSIG=
201902212000 METAR MRPV 212000Z 26009KT 9999 SCT045 29/16 A2994 NOSIG=
201902212100 METAR MRPV 212100Z 26008KT 9999 SCT040 28/18 A2993 NOSIG=
201902212200 METAR MRPV 212200Z 14005KT 220V150 9999 SCT040 27/16 A2994 NOSIG=
201902212300 METAR MRPV 212300Z 09011KT 9999 BKN040 24/16 A2995 NOSIG=
201902220000 METAR MRPV 220000Z 09011KT 9999 BKN040 23/17 A2997 NOSIG=
201902220100 METAR MRPV NIL=
201902220200 METAR MRPV NIL=
201902220300 METAR MRPV NIL=
201902220400 METAR MRPV NIL=
201902220500 METAR MRPV NIL=
201902220600 METAR MRPV NIL=
201902220700 METAR MRPV NIL=
201902220800 METAR MRPV NIL=
201902220900 METAR MRPV NIL=
201902221000 METAR MRPV NIL=
201902221100 METAR MRPV NIL=
201902221200 METAR MRPV 221200Z 13008KT 9999 FEW045 20/14 A3003 NOSIG=
201902221300 METAR MRPV 221300Z 13009KT 9999 FEW040 20/14 A3005 NOSIG=
201902221400 METAR MRPV 221400Z 12009KT 9999 FEW035 22/15 A3006 NOSIG=
201902221500 METAR MRPV 221500Z 09018KT 9999 FEW040 23/16 A3007 NOSIG=
201902221600 METAR MRPV 221600Z 11014KT 9999 FEW035 24/16 A3008 NOSIG=
201902221700 METAR MRPV 221700Z 09015KT 9999 FEW045 26/16 A3006 NOSIG=
201902221800 METAR MRPV 221800Z 08018KT 9999 SCT035 25/16 A3002 NOSIG=
201902221900 METAR MRPV 221900Z 09015KT 9999 FEW040 27/16 A3001 NOSIG=
201902222000 METAR MRPV 222000Z 08014KT 9999 FEW040 27/16 A2999 NOSIG=
201902222100 METAR MRPV 222100Z 09015KT 9999 FEW040 27/16 A2997 NOSIG=
201902222200 METAR MRPV 222200Z 09016KT 9999 FEW040 25/17 A2998 NOSIG=
201902222300 METAR MRPV 222300Z 10015KT 9999 FEW035 SCT080 24/17 A3000 NOSIG=
201902230000 METAR MRPV 230000Z 09015KT 9999 FEW035 22/17 A3002 NOSIG=
201902230100 METAR MRPV NIL=
201902230200 METAR MRPV NIL=
201902230300 METAR MRPV NIL=
201902230400 METAR MRPV NIL=
201902230500 METAR MRPV NIL=
201902230600 METAR MRPV NIL=
201902230700 METAR MRPV NIL=
201902230800 METAR MRPV NIL=
201902230900 METAR MRPV NIL=
201902231000 METAR MRPV NIL=
201902231100 METAR MRPV NIL=
201902231200 METAR MRPV 231200Z 13010KT 9999 FEW025 20/16 A3004 NOSIG=
201902231300 METAR MRPV 231300Z 10016KT 9999 FEW025 21/17 A3006 NOSIG=
201902231400 METAR MRPV 231400Z 12011KT 9999 FEW025 21/17 A3007 NOSIG=
201902231500 METAR MRPV 231500Z 10014KT 9999 FEW030 23/16 A3010 NOSIG=
201902231600 METAR MRPV 231600Z 09016KT 9999 SCT035 24/17 A3009 NOSIG=
201902231700 METAR MRPV 231700Z 10014KT 9999 SCT025 25/16 A3007 NOSIG=
201902231800 METAR MRPV 231800Z 10018KT 9999 SCT030 25/17 A3005 NOSIG=
201902231900 METAR MRPV 231900Z 09015KT 9999 FEW035 27/17 A3002 NOSIG=
201902232000 METAR MRPV 232000Z 09018KT 9999 FEW035 SCT200 26/16 A3000 NOSIG=
201902232100 METAR MRPV 232100Z 09018KT 9999 FEW035 24/16 A3000 NOSIG=
201902232200 METAR MRPV 232200Z 10018KT 9999 FEW035 SCT100 22/15 A3001 NOSIG=
201902232300 METAR MRPV 232300Z 11014KT 9999 FEW030 SCT100 22/16 A3003 NOSIG=
201902240000 METAR MRPV 240000Z 10017KT 9999 FEW030 SCT200 21/16 A3004 NOSIG=
201902240100 METAR MRPV NIL=
201902240200 METAR MRPV NIL=
201902240300 METAR MRPV NIL=
201902240400 METAR MRPV NIL=
201902240500 METAR MRPV NIL=
201902240600 METAR MRPV NIL=
201902240700 METAR MRPV NIL=
201902240800 METAR MRPV NIL=
201902240900 METAR MRPV NIL=
201902241000 METAR MRPV NIL=
201902241100 METAR MRPV NIL=
201902241200 METAR MRPV 241200Z 12012KT 9999 FEW025 SCT200 20/15 A3006 NOSIG=
201902241300 METAR MRPV 241300Z 12009KT 9999 FEW025 21/15 A3007 NOSIG=
201902241400 METAR MRPV 241400Z 11015KT 9999 FEW030 21/15 A3009 NOSIG=
201902241500 METAR MRPV 241500Z 10017KT 9999 FEW030 24/14 A3010 NOSIG=
201902241600 METAR MRPV 241600Z 08016KT 9999 FEW040 SCT120 24/14 A3010 NOSIG=
201902241700 METAR MRPV 241700Z 08016KT 9999 FEW045 SCT150 26/15 A3007 NOSIG=
201902241800 METAR MRPV 241800Z 08017G27KT 9999 FEW040 27/15 A3005 NOSIG=
201902241900 METAR MRPV 241900Z 08016KT 9999 FEW045 26/15 A3002 NOSIG=
201902242000 METAR MRPV 242000Z 06016KT 9999 FEW040 SCT250 26/16 A2999 NOSIG=
201902242100 METAR MRPV 242100Z 08017KT 9999 FEW040 SCT250 25/16 A2998 NOSIG=
201902242200 METAR MRPV 242200Z 08017KT 9999 FEW030 BKN250 24/17 A2997 NOSIG=
201902242300 METAR MRPV 242300Z 07014KT 9999 FEW025 SCT250 23/17 A2999 NOSIG=
201902250000 METAR MRPV 250000Z 09014KT 9999 FEW025 BKN050 22/17 A3000 NOSIG=
201902250100 METAR MRPV NIL=
201902250200 METAR MRPV NIL=
201902250300 METAR MRPV NIL=
201902250400 METAR MRPV NIL=
201902250500 METAR MRPV NIL=
201902250600 METAR MRPV NIL=
201902250700 METAR MRPV NIL=
201902250800 METAR MRPV NIL=
201902250900 METAR MRPV NIL=
201902251000 METAR MRPV NIL=
201902251100 METAR MRPV NIL=
201902251200 METAR MRPV 251200Z 11015KT 9999 SCT025 20/15 A3002 NOSIG=
201902251300 METAR MRPV 251300Z 11013KT 9999 FEW025 BKN220 21/15 A3004 NOSIG=
201902251400 METAR MRPV 251400Z 10017KT 9999 FEW035 SCT220 22/16 A3006 NOSIG=
201902251500 METAR MRPV 251500Z 10016KT 9999 FEW035 SCT220 23/16 A3009 NOSIG=
201902251600 METAR MRPV 251600Z 07015KT 9999 FEW040 24/16 A3008 NOSIG=
201902251700 METAR MRPV 251700Z 08019KT 9999 FEW025 SCT060 23/16 A3007 NOSIG=
201902251800 METAR MRPV 251800Z 09018KT 9999 FEW025 BKN090 23/16 A3005 NOSIG=
201902251900 METAR MRPV 251900Z 08020G30KT 9999 FEW030 BKN080 23/16 A3003 NOSIG=
201902252000 METAR MRPV 252000Z 09019KT 9999 SCT030 BKN090 23/15 A3002 NOSIG=
201902252100 METAR MRPV 252100Z 09018KT 9999 SCT030 SCT080 23/15 A3001 NOSIG=
201902252200 METAR MRPV 252200Z 09016G26KT 9999 SCT025 BKN200 22/15 A3000 NOSIG=
201902252300 METAR MRPV 252300Z 09020KT 9999 FEW030 SCT140 BKN200 20/14 A3001 NOSIG=
201902260000 METAR MRPV 260000Z 10019KT 9999 FEW025 SCT160 BKN200 19/14 A3002 NOSIG=
201902260100 METAR MRPV NIL=
201902260200 METAR MRPV NIL=
201902260300 METAR MRPV NIL=
201902260400 METAR MRPV NIL=
201902260500 METAR MRPV NIL=
201902260600 METAR MRPV NIL=
201902260700 METAR MRPV NIL=
201902260800 METAR MRPV NIL=
201902260900 METAR MRPV NIL=
201902261000 METAR MRPV NIL=
201902261100 METAR MRPV NIL=
201902261200 METAR MRPV 261200Z 12015KT 9999 FEW035 BKN220 19/15 A3005 NOSIG=
201902261300 METAR MRPV 261300Z 11017G27KT 9999 FEW030 BKN220 19/14 A3007 NOSIG=
201902261400 METAR MRPV 261400Z 10017G29KT 9999 FEW030 BKN220 20/14 A3010 WSR09 NOSIG=
201902261500 METAR MRPV 261500Z 09020KT 9999 FEW030 BKN220 22/15 A3011 WSR09 NOSIG=
201902261600 METAR MRPV 261600Z 08021KT 9999 FEW035 BKN220 22/14 A3011 WSR09 NOSIG=
201902261700 METAR MRPV 261700Z 08020G31KT 9999 FEW020 BKN080 20/14 A3011 WSR09 NOSIG=
201902261800 METAR MRPV 261800Z 08020G31KT 9999 FEW025 BKN180 22/13 A3008 WSR09 NOSIG=
201902261900 METAR MRPV 261900Z 09020G31KT 9999 FEW035 BKN180 22/12 A3007 NOSIG=
201902262000 METAR MRPV 262000Z 08020KT 9999 SCT035 BKN200 23/12 A3005 NOSIG=
201902262100 METAR MRPV 262100Z 10019KT 9999 SCT035 BKN180 23/13 A3003 NOSIG=
201902262200 METAR MRPV 262200Z COR 09016KT 9999 SCT035 SCT200 21/13 A3004 WSR09 NOSIG=
201902262300 METAR MRPV 262300Z COR 10015KT 9999 FEW035 BKN200 22/13 A3004 WSR09 NOSIG=
201902270000 METAR MRPV 270000Z 10016KT CAVOK 20/13 A3005 NOSIG=
201902270100 METAR MRPV NIL=
201902270200 METAR MRPV NIL=
201902270300 METAR MRPV NIL=
201902270400 METAR MRPV NIL=
201902270500 METAR MRPV NIL=
201902270600 METAR MRPV NIL=
201902270700 METAR MRPV NIL=
201902270800 METAR MRPV NIL=
201902270900 METAR MRPV NIL=
201902271000 METAR MRPV NIL=
201902271100 METAR MRPV NIL=
201902271200 METAR MRPV 271200Z 12011KT 9999 SCT025 SCT200 19/15 A3007 NOSIG=
201902271300 METAR MRPV 271300Z 13010KT 9999 SCT025 SCT200 19/15 A3008 NOSIG=
201902271400 METAR MRPV 271400Z 11012KT 9999 FEW030 20/15 A3010 NOSIG=
201902271500 METAR MRPV 271500Z 08018KT 9999 FEW035 21/15 A3011 NOSIG=
201902271600 METAR MRPV 271600Z 08020KT 9999 SCT025 21/14 A3011 NOSIG=
201902271700 METAR MRPV 271700Z 09021KT 9999 SCT025 22/14 A3009 NOSIG=
201902271800 METAR MRPV 271800Z 09018G28KT 9999 SCT025 24/14 A3008 NOSIG=
201902271900 METAR MRPV 271900Z 09015KT 9999 FEW035 25/14 A3004 NOSIG=
201902272000 METAR MRPV 272000Z 09015KT 9999 FEW030 22/14 A3002 NOSIG=
201902272100 METAR MRPV 272100Z 10016KT 9999 FEW030 SCT220 23/15 A3001 NOSIG=
201902272200 METAR MRPV 272200Z 09017KT 9999 FEW040 BKN220 23/14 A3001 NOSIG=
201902272300 METAR MRPV 272300Z 09017KT 9999 FEW030 SCT220 22/15 A3002 NOSIG=
201902280000 METAR MRPV 280000Z 11013KT 9999 FEW030 21/15 A3004 NOSIG=
201902280100 METAR MRPV NIL=
201902280200 METAR MRPV NIL=
201902280300 METAR MRPV NIL=
201902280400 METAR MRPV NIL=
201902280500 METAR MRPV NIL=
201902280600 METAR MRPV NIL=
201902280700 METAR MRPV NIL=
201902280800 METAR MRPV NIL=
201902280900 METAR MRPV NIL=
201902281000 METAR MRPV NIL=
201902281100 METAR MRPV NIL=
201902281200 METAR MRPV 281200Z 12009KT CAVOK 18/14 A3005 NOSIG=
201902281300 METAR MRPV 281300Z COR 11010KT CAVOK 20/13 A3007 NOSIG=
201902281400 METAR MRPV 281400Z COR 10013KT CAVOK 21/13 A3007 NOSIG=
201902281500 METAR MRPV 281500Z COR 08013KT CAVOK 26/16 A3008 NOSIG=
201902281600 METAR MRPV 281600Z COR 09011KT CAVOK 25/13 A3007 NOSIG=
201902281700 METAR MRPV 281700Z COR 09009KT CAVOK 26/14 A3006 NOSIG=
201902281800 METAR MRPV 281800Z COR 09012KT 9999 FEW045 SCT200 27/14 A3003 NOSIG=
201902281900 METAR MRPV 281900Z COR 08010KT 9999 FEW045 BKN200 28/14 A3000 NOSIG=
201902282000 METAR MRPV 282000Z 09012KT 9999 FEW040 SCT200 27/15 A2998 NOSIG=
201902282100 METAR MRPV 282100Z 09011KT 9999 SCT040 BKN100 26/16 A2997 NOSIG=
201902282200 METAR MRPV 282200Z 09014KT 9999 SCT035 BKN100 24/15 A2997 WSR09 NOSIG=
201902282300 METAR MRPV 282300Z 10011KT 9999 FEW030 BKN100 23/16 A3000 WSR09 NOSIG=
201903010000 METAR MRPV 010000Z 10013KT 9999 SCT025 SCT120 21/16 A3002 NOSIG=
201903010100 METAR MRPV NIL=
201903010200 METAR MRPV NIL=
201903010300 METAR MRPV NIL=
201903010400 METAR MRPV NIL=
201903010500 METAR MRPV NIL=
201903010600 METAR MRPV NIL=
201903010700 METAR MRPV NIL=
201903010800 METAR MRPV NIL=
201903010900 METAR MRPV NIL=
201903011000 METAR MRPV NIL=
201903011100 METAR MRPV NIL=
201903011200 METAR MRPV 011200Z 13007KT CAVOK 19/14 A3007 NOSIG=
201903011300 METAR MRPV 011300Z 12010KT CAVOK 20/14 A3009 NOSIG=
201903011400 METAR MRPV 011400Z 10011KT CAVOK 22/14 A3010 NOSIG=
201903011500 METAR MRPV 011500Z 10012KT CAVOK 24/14 A3011 NOSIG=
201903011600 METAR MRPV 011600Z 08008KT 9999 FEW045 25/15 A3010 NOSIG=
201903011700 METAR MRPV 011700Z 09009KT 9999 FEW040 27/15 A3008 NOSIG=
201903011800 METAR MRPV 011800Z 09007KT 9999 SCT040 28/15 A3005 NOSIG=
201903011900 METAR MRPV 011900Z 10007KT 9999 SCT045 28/15 A3003 NOSIG=
201903012000 METAR MRPV 012000Z 09013KT 9999 SCT045 27/16 A3001 NOSIG=
201903012100 METAR MRPV 012100Z 10012KT 9999 -DZ FEW040 BKN060 24/16 A3000 NOSIG=
201903012200 METAR MRPV 012200Z 14006KT 9999 -DZ FEW035 BKN060 22/18 A3003 NOSIG=
201903012300 METAR MRPV 012300Z 12006KT 9999 FEW030 BKN060 22/17 A3004 NOSIG=
201903020000 METAR MRPV 020000Z 11009KT 9999 FEW025 BKN070 21/16 A3005 NOSIG=
201903020100 METAR MRPV NIL=
201903020200 METAR MRPV NIL=
201903020300 METAR MRPV NIL=
201903020400 METAR MRPV NIL=
201903020500 METAR MRPV NIL=
201903020600 METAR MRPV NIL=
201903020700 METAR MRPV NIL=
201903020800 METAR MRPV NIL=
201903020900 METAR MRPV NIL=
201903021000 METAR MRPV NIL=
201903021100 METAR MRPV NIL=
201903021200 METAR MRPV 021200Z 13007KT CAVOK 18/13 A3007 NOSIG=
201903021300 METAR MRPV 021300Z 13006KT CAVOK 20/13 A3009 NOSIG=
201903021400 METAR MRPV 021400Z 14009KT CAVOK 22/13 A3009 NOSIG=
201903021500 METAR MRPV 021500Z 13009KT CAVOK 25/13 A3010 NOSIG=
201903021600 METAR MRPV 021600Z 09009KT 9999 FEW045 26/14 A3009 NOSIG=
201903021700 METAR MRPV 021700Z 09011KT 9999 FEW045 28/14 A3007 NOSIG=
201903021800 METAR MRPV 021800Z 11007KT 9999 FEW045 29/13 A3004 NOSIG=
201903021900 METAR MRPV 021900Z 09011KT 9999 SCT045 29/14 A3001 NOSIG=
201903022000 METAR MRPV 022000Z 26007KT 9999 SCT045 28/16 A2999 NOSIG=
201903022100 METAR MRPV 022100Z 28010KT 9999 SCT045 SCT200 28/17 A2997 NOSIG=
201903022200 METAR MRPV 022200Z 11007KT 9999 SCT035 SCT100 24/18 A2998 NOSIG=
201903022300 METAR MRPV 022300Z 08007KT 9999 4000N RA BKN030 22/17 A3001 NOSIG=
201903030000 METAR MRPV 030000Z 09010KT 9999 FEW025 BKN080 21/17 A3002 RERA NOSIG=
201903030100 METAR MRPV NIL=
201903030200 METAR MRPV NIL=
201903030300 METAR MRPV NIL=
201903030400 METAR MRPV NIL=
201903030500 METAR MRPV NIL=
201903030600 METAR MRPV NIL=
201903030700 METAR MRPV NIL=
201903030800 METAR MRPV NIL=
201903030900 METAR MRPV NIL=
201903031000 METAR MRPV NIL=
201903031100 METAR MRPV NIL=
201903031200 METAR MRPV 031200Z 12009KT 9999 FEW020 20/16 A3004 NOSIG=
201903031300 METAR MRPV 031300Z 10013KT 9999 FEW020 SCT070 20/16 A3006 NOSIG=
201903031400 METAR MRPV 031400Z 09011KT 9999 FEW025 SCT070 21/16 A3008 NOSIG=
201903031500 METAR MRPV 031500Z 08015KT 9999 FEW030 23/16 A3010 NOSIG=
201903031600 METAR MRPV 031600Z 09011KT 9999 FEW035 BKN100 24/15 A3010 NOSIG=
201903031700 METAR MRPV 031700Z 07011KT 9999 FEW035 BKN120 25/15 A3007 NOSIG=
201903031800 METAR MRPV 031800Z 09010KT 9999 FEW035 BKN120 26/15 A3004 NOSIG=
201903031900 METAR MRPV 031900Z 08009KT 9999 FEW035 BKN140 26/15 A3001 NOSIG=
201903032000 METAR MRPV 032000Z 09014KT 9999 FEW035 SCT140 27/16 A2998 NOSIG=
201903032100 METAR MRPV 032100Z 09011KT 9999 SCT030 BKN100 25/16 A2996 NOSIG=
201903032200 METAR MRPV 032200Z 10010KT 9999 VCTS SCT035 BKN100 24/16 A2996 NOSIG=
201903032300 METAR MRPV 032300Z 10011KT 9999 SCT035 BKN100 23/17 A2998 NOSIG=
201903040000 METAR MRPV 040000Z COR 35003KT 9999 SCT025 BKN080 21/18 A2999 NOSIG=
201903040100 METAR MRPV NIL=
201903040200 METAR MRPV NIL=
201903040300 METAR MRPV NIL=
201903040400 METAR MRPV NIL=
201903040500 METAR MRPV NIL=
201903040600 METAR MRPV NIL=
201903040700 METAR MRPV NIL=
201903040800 METAR MRPV NIL=
201903040900 METAR MRPV NIL=
201903041000 METAR MRPV NIL=
201903041100 METAR MRPV NIL=
201903041200 METAR MRPV 041200Z 15003KT 9999 FEW020 19/15 A3005 NOSIG=
201903041300 METAR MRPV 041300Z 14005KT 9999 FEW030 21/15 A3007 NOSIG=
201903041400 METAR MRPV 041400Z 14008KT 9999 FEW030 22/15 A3009 NOSIG=
201903041500 METAR MRPV 041500Z 15008KT 9999 FEW035 24/16 A3010 NOSIG=
201903041600 METAR MRPV 041600Z 12008KT 9999 FEW040 26/16 A3010 NOSIG=
201903041700 METAR MRPV 041700Z 09012KT 9999 FEW045 26/16 A3007 NOSIG=
201903041800 METAR MRPV 041800Z 10011G21KT 9999 FEW040 28/16 A3004 NOSIG=
201903041900 METAR MRPV 041900Z 09010KT 9999 SCT040 28/16 A3002 NOSIG=
201903042000 METAR MRPV 042000Z 10011KT 9999 SCT035 26/16 A2998 NOSIG=
201903042100 METAR MRPV 042100Z 11012KT 9999 -RA SCT035 SCT120 23/16 A2998 NOSIG=
201903042200 METAR MRPV 042200Z 09017KT 9999 SCT030 24/16 A3000 NOSIG=
201903042300 METAR MRPV 042300Z 11011KT 9999 FEW030 SCT080 22/15 A3001 NOSIG=
201903050000 METAR MRPV 050000Z 11012KT 9999 FEW025 SCT160 20/16 A3003 NOSIG=
201903050100 METAR MRPV NIL=
201903050200 METAR MRPV NIL=
201903050300 METAR MRPV NIL=
201903050400 METAR MRPV NIL=
201903050500 METAR MRPV NIL=
201903050600 METAR MRPV NIL=
201903050700 METAR MRPV NIL=
201903050800 METAR MRPV NIL=
201903050900 METAR MRPV NIL=
201903051000 METAR MRPV NIL=
201903051100 METAR MRPV NIL=
201903051200 METAR MRPV 051200Z 11009KT CAVOK 19/12 A3007 NOSIG=
201903051300 METAR MRPV 051300Z 11010KT CAVOK 20/12 A3008 NOSIG=
201903051400 METAR MRPV 051400Z 11015G25KT CAVOK 21/13 A3010 NOSIG=
201903051500 METAR MRPV 051500Z 09019KT CAVOK 23/14 A3011 NOSIG=
201903051600 METAR MRPV 051600Z 07016KT CAVOK 24/14 A3010 WSR09 NOSIG=
201903051700 METAR MRPV 051700Z 07016KT CAVOK 25/14 A3009 WSR09 NOSIG=
201903051800 METAR MRPV 051800Z 09016KT 9999 FEW040 26/14 A3007 WSR09 NOSIG=
201903051900 METAR MRPV 051900Z 08017KT 9999 FEW040 26/14 A3005 NOSIG=
201903052000 METAR MRPV 052000Z 09018KT 9999 FEW040 26/14 A3002 NOSIG=
201903052100 METAR MRPV 052100Z 09017KT 9999 FEW040 26/14 A3001 NOSIG=
201903052200 METAR MRPV 052200Z 10016KT 9999 FEW030 23/15 A3001 NOSIG=
201903052300 METAR MRPV 052300Z 11013KT 9999 SCT030 23/15 A3002 NOSIG=
201903060000 METAR MRPV 060000Z 11014KT 9999 FEW030 22/15 A3003 RERA NOSIG=
201903060100 METAR MRPV NIL=
201903060200 METAR MRPV NIL=
201903060300 METAR MRPV NIL=
201903060400 METAR MRPV NIL=
201903060500 METAR MRPV NIL=
201903060600 METAR MRPV NIL=
201903060700 METAR MRPV NIL=
201903060800 METAR MRPV NIL=
201903060900 METAR MRPV NIL=
201903061000 METAR MRPV NIL=
201903061100 METAR MRPV NIL=
201903061200 METAR MRPV 061200Z 08018KT 9999 -RA FEW030 19/14 A3006 NOSIG=
201903061300 METAR MRPV 061300Z 09017KT 9999 FEW030 20/14 A3008 NOSIG=
201903061400 METAR MRPV 061400Z 09022G34KT 9999 FEW030 21/14 A3012 NOSIG=
201903061500 METAR MRPV 061500Z 10020G32KT 9999 FEW035 23/14 A3013 NOSIG=
201903061600 METAR MRPV 061600Z COR 08022G36KT 9999 FEW035 24/14 A3013 WSR09 NOSIG=
201903061700 METAR MRPV 061700Z 08024G34KT 9999 FEW045 24/14 A3012 WSR09 NOSIG=
201903061800 METAR MRPV 061800Z 08021G33KT CAVOK 25/12 A3010 WSR09 NOSIG=
201903061900 METAR MRPV 061900Z 08022G34KT CAVOK 25/13 A3007 WSR09 NOSIG=
201903062000 METAR MRPV 062000Z 07021G35KT CAVOK 25/13 A3004 WSR09 NOSIG=
201903062100 METAR MRPV 062100Z 07020G30KT CAVOK 25/14 A3003 WSR09 NOSIG=
201903062200 METAR MRPV 062200Z 07020G30KT CAVOK 24/14 A3002 WSR09 NOSIG=
201903062300 METAR MRPV 062300Z 07017KT 9999 FEW035 23/15 A3003 WSR09 NOSIG=
201903070000 METAR MRPV 070000Z 07019KT 9999 FEW035 SCT250 21/15 A3004 WSR09 NOSIG=
201903070100 METAR MRPV NIL=
201903070200 METAR MRPV NIL=
201903070300 METAR MRPV NIL=
201903070400 METAR MRPV NIL=
201903070500 METAR MRPV NIL=
201903070600 METAR MRPV NIL=
201903070700 METAR MRPV NIL=
201903070800 METAR MRPV NIL=
201903070900 METAR MRPV NIL=
201903071000 METAR MRPV NIL=
201903071100 METAR MRPV NIL=
201903071200 METAR MRPV 071200Z 11014G25KT 9999 FEW030 BKN250 19/14 A3009 NOSIG=
201903071300 METAR MRPV 071300Z 10017G29KT 9999 FEW035 BKN250 20/14 A3011 NOSIG=
201903071400 METAR MRPV 071400Z 09021G31KT 9999 FEW035 BKN250 21/14 A3012 NOSIG=
201903071500 METAR MRPV 071500Z 09017KT 9999 FEW040 BKN250 23/14 A3013 NOSIG=
201903071600 METAR MRPV 071600Z 08020G30KT 9999 FEW045 BKN250 24/14 A3013 NOSIG=
201903071700 METAR MRPV 071700Z 08021G32KT 9999 FEW045 SCT250 24/13 A3011 NOSIG=
201903071800 METAR MRPV 071800Z 07020G31KT 9999 FEW045 SCT250 26/13 A3009 NOSIG=
201903071900 METAR MRPV 071900Z 07021G31KT 9999 FEW045 SCT250 26/13 A3006 NOSIG=
201903072000 METAR MRPV 072000Z 07020G30KT 9999 FEW040 SCT250 26/14 A3004 NOSIG=
201903072100 METAR MRPV 072100Z 07019G34KT 9999 FEW040 SCT250 24/14 A3002 NOSIG=
201903072200 METAR MRPV 072200Z 07018G29KT 9999 FEW035 24/14 A3002 NOSIG=
201903072300 METAR MRPV 072300Z 08018G29KT 9999 FEW035 23/14 A3002 NOSIG=
201903080000 METAR MRPV 080000Z 07015G26KT 9999 FEW035 21/14 A3003 NOSIG=
201903080100 METAR MRPV NIL=
201903080200 METAR MRPV NIL=
201903080300 METAR MRPV NIL=
201903080400 METAR MRPV NIL=
201903080500 METAR MRPV NIL=
201903080600 METAR MRPV NIL=
201903080700 METAR MRPV NIL=
201903080800 METAR MRPV NIL=
201903080900 METAR MRPV NIL=
201903081000 METAR MRPV NIL=
201903081100 METAR MRPV NIL=
201903081200 METAR MRPV 081200Z 12012KT 9999 FEW035 18/14 A3003 NOSIG=
201903081300 METAR MRPV 081300Z 11018G31KT 9999 FEW040 20/13 A3005 NOSIG=
201903081400 METAR MRPV 081400Z 09020G31KT 9999 FEW040 21/13 A3006 NOSIG=
201903081500 METAR MRPV 081500Z 09024G35KT 9999 FEW040 23/13 A3007 NOSIG=
201903081600 METAR MRPV 081600Z 08021G33KT 9999 FEW045 24/13 A3007 WSR09 NOSIG=
201903081700 METAR MRPV 081700Z 08020KT CAVOK 25/12 A3005 WSR09 NOSIG=
201903081800 METAR MRPV 081800Z 08020G33KT CAVOK 25/14 A3002 WSR09 NOSIG=
201903081900 METAR MRPV 081900Z 07019G30KT CAVOK 25/14 A2999 NOSIG=
201903082000 METAR MRPV 082000Z 07020G31KT 9999 FEW045 26/14 A2996 NOSIG=
201903082100 METAR MRPV 082100Z 06019KT 9999 FEW040 24/14 A2994 WSR09 NOSIG=
201903082200 METAR MRPV 082200Z 08019G32KT 9999 FEW040 24/14 A2994 WSR09 NOSIG=
201903082300 METAR MRPV 082300Z 08020G30KT 9999 FEW035 22/14 A2994 WSR09 NOSIG=
201903090000 METAR MRPV 090000Z 09018KT 9999 FEW035 21/14 A2995 WSR09 NOSIG=
201903090100 METAR MRPV NIL=
201903090200 METAR MRPV NIL=
201903090300 METAR MRPV NIL=
201903090400 METAR MRPV NIL=
201903090500 METAR MRPV NIL=
201903090600 METAR MRPV NIL=
201903090700 METAR MRPV NIL=
201903090800 METAR MRPV NIL=
201903090900 METAR MRPV NIL=
201903091000 METAR MRPV NIL=
201903091100 METAR MRPV NIL=
201903091200 METAR MRPV 091200Z 11017G27KT CAVOK 19/11 A2995 NOSIG=
201903091300 METAR MRPV 091300Z 12013KT CAVOK 19/11 A3000 NOSIG=
201903091400 METAR MRPV 091400Z 10018KT CAVOK 21/12 A3002 NOSIG=
201903091500 METAR MRPV 091500Z 09015KT CAVOK 23/12 A3004 NOSIG=
201903091600 METAR MRPV 091600Z 09716G26KT CAVOK 24/13 A3003 NOSIG=
201903091700 METAR MRPV 091700Z 07017KT CAVOK 25/12 A3001 NOSIG=
201903091800 METAR MRPV 091800Z 08017G27KT CAVOK 26/13 A2997 NOSIG=
201903091900 METAR MRPV 091900Z 08017G27KT CAVOK 27/14 A2996 NOSIG=
201903092000 METAR MRPV 092000Z 09019KT CAVOK 26/14 A2994 NOSIG=
201903092100 METAR MRPV 092100Z 08016G26KT CAVOK 26/14 A2992 NOSIG=
201903092200 METAR MRPV 092200Z 09018KT CAVOK 25/14 A2993 NOSIG=
201903092300 METAR MRPV 092300Z 09017G27KT 9999 FEW035 23/14 A2994 NOSIG=
201903100000 METAR MRPV 100000Z 12011KT 9999 FEW035 21/15 A2995 NOSIG=
201903100100 METAR MRPV NIL=
201903100200 METAR MRPV NIL=
201903100300 METAR MRPV NIL=
201903100400 METAR MRPV NIL=
201903100500 METAR MRPV NIL=
201903100600 METAR MRPV NIL=
201903100700 METAR MRPV NIL=
201903100800 METAR MRPV NIL=
201903100900 METAR MRPV NIL=
201903101000 METAR MRPV NIL=
201903101100 METAR MRPV NIL=
201903101200 METAR MRPV 101200Z 12010KT 9999 FEW020 19/15 A3004 NOSIG=
201903101300 METAR MRPV 101300Z 11013G23KT 9999 FEW025 20/15 A3006 NOSIG=
201903101400 METAR MRPV 101400Z 10016KT 9999 FEW035 22/15 A3007 NOSIG=
201903101500 METAR MRPV 101500Z 09015KT 9999 FEW040 24/16 A3008 NOSIG=
201903101600 METAR MRPV 101600Z 09017KT 9999 FEW045 25/15 A3007 NOSIG=
201903101700 METAR MRPV 101700Z 10016KT 9999 FEW035 25/15 A3007 NOSIG=
201903101800 METAR MRPV 101800Z 09018KT 9999 FEW045 25/15 A3004 NOSIG=
201903101900 METAR MRPV 101900Z 09019KT CAVOK 25/16 A3001 NOSIG=
201903102000 METAR MRPV 102000Z 08018KT 9999 FEW040 25/15 A2999 NOSIG=
201903102100 METAR MRPV 102100Z 08018KT 9999 FEW040 SCT200 25/15 A2999 NOSIG=
201903102200 METAR MRPV 102200Z 10015KT 9999 FEW035 24/16 A2999 NOSIG=
201903102300 METAR MRPV 102300Z 10016KT 9999 FEW035 SCT200 22/16 A3001 NOSIG=
201903110000 METAR MRPV 110000Z 12012KT 9999 FEW035 SCT200 21/15 A3001 NOSIG=
201903110100 METAR MRPV NIL=
201903110200 METAR MRPV NIL=
201903110300 METAR MRPV NIL=
201903110400 METAR MRPV NIL=
201903110500 METAR MRPV NIL=
201903110600 METAR MRPV NIL=
201903110700 METAR MRPV NIL=
201903110800 METAR MRPV NIL=
201903110900 METAR MRPV NIL=
201903111000 METAR MRPV NIL=
201903111100 METAR MRPV NIL=
201903111200 METAR MRPV 111200Z 13010KT 9999 FEW035 20/14 A3006 NOSIG=
201903111300 METAR MRPV 111300Z 12011KT 9999 FEW035 20/15 A3008 NOSIG=
201903111400 METAR MRPV 111400Z 11014KT 9999 FEW035 22/15 A3010 NOSIG=
201903111500 METAR MRPV 111500Z 08018KT 9999 FEW035 23/16 A3011 WSR09 NOSIG=
201903111600 METAR MRPV 111600Z 08020G30KT 9999 FEW030 25/16 A3010 WSR09 NOSIG=
201903111700 METAR MRPV 111700Z 09019KT 9999 FEW035 23/15 A3009 WSR09 NOSIG=
201903111800 METAR MRPV 111800Z 08018G28KT 9999 FEW040 25/16 A3006 WSR09 NOSIG=
201903111900 METAR MRPV 111900Z 08020G30KT 9999 FEW040 26/16 A3002 WSR09 NOSIG=
201903112000 METAR MRPV 112000Z 08020KT 9999 FEW035 25/16 A3000 WSR09 NOSIG=
201903112100 METAR MRPV 112100Z 08020KT 9999 SCT025 25/17 A2999 WSR09 NOSIG=
201903112200 METAR MRPV 112200Z 08018G28KT 9999 FEW030 24/17 A2998 WSR09 NOSIG=
201903112300 METAR MRPV 112300Z 08020KT 9999 FEW025 22/17 A2999 WSR09 NOSIG=
201903120000 METAR MRPV NIL=
201903120100 METAR MRPV NIL=
201903120200 METAR MRPV NIL=
201903120300 METAR MRPV NIL=
201903120400 METAR MRPV NIL=
201903120500 METAR MRPV NIL=
201903120600 METAR MRPV NIL=
201903120700 METAR MRPV NIL=
201903120800 METAR MRPV NIL=
201903120900 METAR MRPV NIL=
201903121000 METAR MRPV NIL=
201903121100 METAR MRPV NIL=
201903121200 METAR MRPV 121200Z 09019KT 9999 FEW035 19/15 A3003 NOSIG=
201903121300 METAR MRPV 121300Z 11015G27KT 9999 FEW030 20/14 A3005 NOSIG=
201903121400 METAR MRPV 121400Z COR 09021KT 9999 FEW035 22/14 A3006 NOSIG=
201903121500 METAR MRPV 121500Z 08021KT 9999 FEW035 22/14 A3008 NOSIG=
201903121600 METAR MRPV 121600Z 08019KT 9999 FEW035 23/15 A3008 NOSIG=
201903121700 METAR MRPV 121700Z 08020G31KT 9999 FEW035 25/14 A3006 NOSIG=
201903121800 METAR MRPV 121800Z 08019KT 9999 FEW035 26/14 A3004 NOSIG=
201903121900 METAR MRPV 121900Z 08021G32KT 9999 FEW040 26/15 A3002 WSR09 NOSIG=
201903122000 METAR MRPV 122000Z 08021KT 9999 FEW040 26/15 A2999 WSR09 NOSIG=
201903122100 METAR MRPV 122100Z 09022G32KT 9999 FEW040 25/14 A2997 WSR09 NOSIG=
201903122200 METAR MRPV 122200Z 09018KT 9999 FEW040 25/15 A2996 WSR09 NOSIG=
201903122300 METAR MRPV 122300Z 08019KT 9999 FEW040 23/16 A2998 NOSIG=
201903130000 METAR MRPV 130000Z 08020KT 9999 FEW040 21/15 A2999 NOSIG=
201903130100 METAR MRPV NIL=
201903130200 METAR MRPV NIL=
201903130300 METAR MRPV NIL=
201903130400 METAR MRPV NIL=
201903130500 METAR MRPV NIL=
201903130600 METAR MRPV NIL=
201903130700 METAR MRPV NIL=
201903130800 METAR MRPV NIL=
201903130900 METAR MRPV NIL=
201903131000 METAR MRPV NIL=
201903131100 METAR MRPV NIL=
201903131200 METAR MRPV 131200Z 12009KT CAVOK 18/12 A3001 NOSIG=
201903131300 METAR MRPV 131300Z 11010KT CAVOK 19/13 A3003 NOSIG=
201903131400 METAR MRPV 131400Z 10014KT CAVOK 21/14 A3006 NOSIG=
201903131500 METAR MRPV 131500Z 08014KT CAVOK 23/13 A3006 NOSIG=
201903131600 METAR MRPV 131600Z 07013KT CAVOK 25/13 A3005 NOSIG=
201903131700 METAR MRPV 131700Z 08013KT CAVOK 26/13 A3003 NOSIG=
201903131800 METAR MRPV 131800Z 09014KT CAVOK 26/13 A2999 NOSIG=
201903131900 METAR MRPV 131900Z 09015KT CAVOK 27/13 A2997 NOSIG=
201903132000 METAR MRPV 132000Z 09016KT CAVOK 27/14 A2994 NOSIG=
201903132100 METAR MRPV 132100Z 08016KT 9999 FEW045 SCT080 26/15 A2992 NOSIG=
201903132200 METAR MRPV 132200Z 09016KT 9999 FEW040 SCT100 24/16 A2993 NOSIG=
201903132300 METAR MRPV 132300Z 09016KT 9999 FEW030 BKN100 22/16 A2995 NOSIG=
201903140000 METAR MRPV 140000Z 10013KT 9999 FEW030 SCT045 21/16 A2997 NOSIG=
201903140100 METAR MRPV NIL=
201903140200 METAR MRPV NIL=
201903140300 METAR MRPV NIL=
201903140400 METAR MRPV NIL=
201903140500 METAR MRPV NIL=
201903140600 METAR MRPV NIL=
201903140700 METAR MRPV NIL=
201903140800 METAR MRPV NIL=
201903140900 METAR MRPV NIL=
201903141000 METAR MRPV NIL=
201903141100 METAR MRPV NIL=
201903141200 METAR MRPV 141200Z 12009KT CAVOK 18/12 A3001 NOSIG=
201903141300 METAR MRPV 141300Z 11010KT CAVOK 20/12 A3003 NOSIG=
201903141400 METAR MRPV 141400Z 11012KT CAVOK 22/13 A3005 NOSIG=
201903141500 METAR MRPV 141500Z 10013KT CAVOK 24/13 A3005 NOSIG=
201903141600 METAR MRPV 141600Z 10012KT CAVOK 26/13 A3005 NOSIG=
201903141700 METAR MRPV 141700Z 09013KT 9999 FEW045 27/13 A3003 NOSIG=
201903141800 METAR MRPV 141800Z 09012KT 9999 FEW045 28/14 A3000 NOSIG=
201903141900 METAR MRPV 141900Z 09013KT 9999 FEW045 28/15 A2998 NOSIG=
201903142000 METAR MRPV 142000Z 09014KT 9999 SCT045 27/15 A2996 NOSIG=
201903142100 METAR MRPV 142100Z 10011KT 9999 SCT045 24/15 A2996 NOSIG=
201903142200 METAR MRPV 142200Z 09014KT 9999 SCT040 23/15 A2996 NOSIG=
201903142300 METAR MRPV 142300Z 10014KT 9999 FEW040 BKN070 22/15 A2998 NOSIG=
201903150000 METAR MRPV 150000Z 10014KT 9999 FEW030 SCT070 21/16 A2999 NOSIG=
201903150100 METAR MRPV NIL=
201903150200 METAR MRPV NIL=
201903150300 METAR MRPV NIL=
201903150400 METAR MRPV NIL=
201903150500 METAR MRPV NIL=
201903150600 METAR MRPV NIL=
201903150700 METAR MRPV NIL=
201903150800 METAR MRPV NIL=
201903150900 METAR MRPV NIL=
201903151000 METAR MRPV NIL=
201903151100 METAR MRPV NIL=
201903151200 METAR MRPV 151200Z 13007KT CAVOK 18/13 A3004 NOSIG=
201903151300 METAR MRPV 151300Z 11008KT CAVOK 21/13 A3007 NOSIG=
201903151400 METAR MRPV 151400Z 12010KT CAVOK 23/13 A3008 NOSIG=
201903151500 METAR MRPV 151500Z 10011KT CAVOK 25/14 A3008 NOSIG=
201903151600 METAR MRPV 151600Z 11011KT 080V140 CAVOK 29/15 A3004 NOSIG=
201903151700 METAR MRPV 151700Z 10012KT CAVOK 27/15 A3005 NOSIG=
201903151800 METAR MRPV 151800Z 09015KT CAVOK 27/15 A3003 NOSIG=
201903151900 METAR MRPV 151900Z 08016KT 9999 FEW045 27/15 A3000 NOSIG=
201903152000 METAR MRPV 152000Z 09018KT 9999 SCT040 25/16 A2999 NOSIG=
201903152100 METAR MRPV 152100Z 09019KT 9999 FEW030 SCT080 24/16 A2997 NOSIG=
201903152200 METAR MRPV 152200Z 09018KT 9999 FEW030 SCT100 25/16 A2998 NOSIG=
201903152300 METAR MRPV 152300Z 10015KT 9999 FEW030 SCT200 23/16 A2998 NOSIG=
201903160000 METAR MRPV 160000Z 09015KT 9999 FEW025 SCT200 21/16 A3001 NOSIG=
201903160100 METAR MRPV NIL=
201903160200 METAR MRPV NIL=
201903160300 METAR MRPV NIL=
201903160400 METAR MRPV NIL=
201903160500 METAR MRPV NIL=
201903160600 METAR MRPV NIL=
201903160700 METAR MRPV NIL=
201903160800 METAR MRPV NIL=
201903160900 METAR MRPV NIL=
201903161000 METAR MRPV NIL=
201903161100 METAR MRPV NIL=
201903161200 METAR MRPV 161200Z 13013G23KT 9999 FEW025 20/16 A3002 NOSIG=
201903161300 METAR MRPV 161300Z 11014KT 9999 FEW025 20/16 A3006 NOSIG=
201903161400 METAR MRPV 161400Z 11015G26KT 9999 FEW025 23/16 A3008 NOSIG=
201903161500 METAR MRPV 161500Z 09021KT 9999 FEW030 23/16 A3009 NOSIG=
201903161600 METAR MRPV 161600Z 09020KT 9999 SCT035 23/16 A3008 NOSIG=
201903161700 METAR MRPV 161700Z 08022G34KT 9999 SCT035 24/15 A3007 NOSIG=
201903161800 METAR MRPV 161800Z 08023KT 9999 SCT035 23/15 A3004 NOSIG=
201903161900 METAR MRPV 161900Z 09020G30KT 9999 SCT035 24/15 A3003 NOSIG=
201903162000 METAR MRPV 162000Z 09023KT 9999 SCT030 23/15 A3001 NOSIG=
201903162100 METAR MRPV 162100Z 09020KT 9999 FEW030 24/15 A2999 NOSIG=
201903162200 METAR MRPV 162200Z 09019KT 9999 FEW025 22/15 A2999 NOSIG=
201903162300 METAR MRPV 162300Z 10019KT 9999 FEW030 20/14 A3000 NOSIG=
201903170000 METAR MRPV 170000Z 11013KT 9999 FEW030 SCT200 20/14 A3002 NOSIG=
201903170100 METAR MRPV NIL=
201903170200 METAR MRPV NIL=
201903170300 METAR MRPV NIL=
201903170400 METAR MRPV NIL=
201903170500 METAR MRPV NIL=
201903170600 METAR MRPV NIL=
201903170700 METAR MRPV NIL=
201903170800 METAR MRPV NIL=
201903170900 METAR MRPV NIL=
201903171000 METAR MRPV NIL=
201903171100 METAR MRPV NIL=
201903171200 METAR MRPV 171200Z 11015G26KT 9999 FEW025 21/16 A3000 NOSIG=
201903171300 METAR MRPV 171300Z 11013G25KT 9999 FEW030 21/16 A3003 NOSIG=
201903171400 METAR MRPV 171400Z 10015KT 9999 FEW030 22/16 A3005 NOSIG=
201903171500 METAR MRPV 171500Z 10016KT 9999 FEW030 23/16 A3007 NOSIG=
201903171600 METAR MRPV 171600Z 09019KT 9999 FEW035 SCT080 25/16 A3006 NOSIG=
201903171700 METAR MRPV 171700Z 09020G30KT 9999 SCT035 23/16 A3005 NOSIG=
201903171800 METAR MRPV 171800Z 09020G31KT 9999 FEW035 SCT080 25/16 A3001 NOSIG=
201903171900 METAR MRPV 171900Z 09019G29KT 9999 SCT035 25/16 A2998 NOSIG=
201903172000 METAR MRPV 172000Z 10018G30KT 9999 SCT035 24/16 A2996 NOSIG=
201903172100 METAR MRPV 172100Z 08019KT 9999 SCT035 23/16 A2995 NOSIG=
201903172200 METAR MRPV 172200Z 10016G26KT 9999 SCT025 22/15 A2995 NOSIG=
201903172300 METAR MRPV 172300Z 10017KT 9999 SCT030 21/16 A2995 NOSIG=
201903180000 METAR MRPV 180000Z 10019KT 9999 SCT025 20/15 A2997 NOSIG=
201903180100 METAR MRPV NIL=
201903180200 METAR MRPV NIL=
201903180300 METAR MRPV NIL=
201903180400 METAR MRPV NIL=
201903180500 METAR MRPV NIL=
201903180600 METAR MRPV NIL=
201903180700 METAR MRPV NIL=
201903180800 METAR MRPV NIL=
201903180900 METAR MRPV NIL=
201903181000 METAR MRPV NIL=
201903181100 METAR MRPV NIL=
201903181200 METAR MRPV 181200Z 11009KT 9999 FEW025 18/14 A3004 NOSIG=
201903181300 METAR MRPV 181300Z 11014KT 9999 FEW025 19/14 A3007 NOSIG=
201903181400 METAR MRPV 181400Z 11015G25KT 9999 FEW030 20/14 A3008 NOSIG=
201903181500 METAR MRPV 181500Z 09017KT 9999 FEW035 SCT200 22/14 A3009 NOSIG=
201903181600 METAR MRPV 181600Z 09018KT 9999 FEW045 SCT200 23/15 A3008 NOSIG=
201903181700 METAR MRPV 181700Z 08019KT 9999 SCT040 23/14 A3006 NOSIG=
201903181800 METAR MRPV 181800Z 08020KT 9999 FEW035 BKN200 24/13 A3004 NOSIG=
201903181900 METAR MRPV 181900Z 09018KT 9999 FEW035 BKN200 25/14 A3002 NOSIG=
201903182000 METAR MRPV 182000Z 09017KT 9999 FEW040 BKN200 25/14 A2998 NOSIG=
201903182100 METAR MRPV 182100Z 08018KT 9999 FEW040 BKN200 24/15 A2996 NOSIG=
201903182200 METAR MRPV 182200Z 10016KT 9999 FEW040 BKN200 23/15 A2996 NOSIG=
201903182300 METAR MRPV 182300Z 10015KT 9999 FEW040 BKN200 22/16 A2998 NOSIG=
201903190000 METAR MRPV 190000Z 10013KT 9999 FEW040 OVC200 20/15 A3000 NOSIG=
201903190100 METAR MRPV NIL=
201903190200 METAR MRPV NIL=
201903190300 METAR MRPV NIL=
201903190400 METAR MRPV NIL=
201903190500 METAR MRPV NIL=
201903190600 METAR MRPV NIL=
201903190700 METAR MRPV NIL=
201903190800 METAR MRPV NIL=
201903190900 METAR MRPV NIL=
201903191000 METAR MRPV NIL=
201903191100 METAR MRPV NIL=
201903191200 METAR MRPV 191200Z 13008KT CAVOK 20/14 A3003 NOSIG=
201903191300 METAR MRPV 191300Z 12011KT CAVOK 21/14 A3006 NOSIG=
201903191400 METAR MRPV 191400Z 12011KT CAVOK 22/15 A3008 NOSIG=
201903191500 METAR MRPV 191500Z 11011KT CAVOK 24/15 A3009 NOSIG=
201903191600 METAR MRPV 191600Z 09014KT CAVOK 26/15 A3009 NOSIG=
201903191700 METAR MRPV 191700Z 09014KT 9999 FEW045 BKN200 27/15 A3007 NOSIG=
201903191800 METAR MRPV 191800Z 10012KT 9999 FEW045 BKN200 28/16 A3004 NOSIG=
201903191900 METAR MRPV 191900Z 09012KT 9999 FEW040 BKN200 28/16 A3002 NOSIG=
201903192000 METAR MRPV 192000Z 09013KT 9999 SCT035 28/16 A2999 NOSIG=
201903192100 METAR MRPV 192100Z 11012KT 9999 FEW035 BKN090 25/17 A2998 NOSIG=
201903192200 METAR MRPV 192200Z 09016KT 9999 FEW030 BKN090 24/17 A2999 NOSIG=
201903192300 METAR MRPV 192300Z 11011KT 9999 FEW030 BKN070 22/16 A3001 NOSIG=
201903200000 METAR MRPV 200000Z 12012KT 9999 FEW030 BKN090 21/16 A3003 NOSIG=
201903200100 METAR MRPV NIL=
201903200200 METAR MRPV NIL=
201903200300 METAR MRPV NIL=
201903200400 METAR MRPV NIL=
201903200500 METAR MRPV NIL=
201903200600 METAR MRPV NIL=
201903200700 METAR MRPV NIL=
201903200800 METAR MRPV NIL=
201903200900 METAR MRPV NIL=
201903201000 METAR MRPV NIL=
201903201100 METAR MRPV NIL=
201903201200 METAR MRPV 201200Z 12012KT 9999 FEW025 BKN200 19/15 A3006 NOSIG=
201903201300 METAR MRPV 201300Z 11012KT 9999 FEW030 21/15 A3008 NOSIG=
201903201400 METAR MRPV 201400Z 10018KT 9999 FEW030 22/15 A3010 NOSIG=
201903201500 METAR MRPV 201500Z 10017KT 9999 FEW030 24/16 A3011 NOSIG=
201903201600 METAR MRPV 201600Z 09014KT 9999 FEW030 24/16 A3010 NOSIG=
201903201700 METAR MRPV 201700Z 10017KT 9999 SCT035 25/16 A3007 NOSIG=
201903201800 METAR MRPV 201800Z 10018KT 9999 SCT035 BKN070 24/16 A3006 WSR09 NOSIG=
201903201900 METAR MRPV 201900Z 10016KT 9999 FEW035 BKN070 24/16 A3003 WSR09 NOSIG=
201903202000 METAR MRPV 202000Z 10015KT 9999 FEW035 SCT100 24/16 A3000 WSR09 NOSIG=
201903202100 METAR MRPV 202100Z 12012KT 9999 FEW030 BKN100 24/17 A3000 WSR09 NOSIG=
201903202200 METAR MRPV 202200Z 11015KT 9999 FEW025 BKN100 23/16 A3000 NOSIG=
201903202300 METAR MRPV 202300Z 10017KT 9999 FEW020 SCT200 22/16 A3000 NOSIG=
201903210000 METAR MRPV 210000Z 10014KT 9999 FEW020 SCT090 21/16 A3002 NOSIG=
201903210100 METAR MRPV NIL=
201903210200 METAR MRPV NIL=
201903210300 METAR MRPV NIL=
201903210400 METAR MRPV NIL=
201903210500 METAR MRPV NIL=
201903210600 METAR MRPV NIL=
201903210700 METAR MRPV NIL=
201903210800 METAR MRPV NIL=
201903210900 METAR MRPV NIL=
201903211000 METAR MRPV NIL=
201903211100 METAR MRPV NIL=
201903211200 METAR MRPV 211200Z 12010KT 9999 FEW030 19/14 A3008 NOSIG=
201903211300 METAR MRPV 211300Z 12010KT 9999 FEW030 20/14 A3011 NOSIG=
201903211400 METAR MRPV 211400Z 09015KT 9999 FEW040 22/14 A3011 NOSIG=
201903211500 METAR MRPV 211500Z 08017G27KT 9999 FEW045 23/14 A3012 NOSIG=
201903211600 METAR MRPV 211600Z 08018KT 9999 FEW045 25/14 A3011 NOSIG=
201903211700 METAR MRPV 211700Z 08017G28KT 9999 FEW045 SCT100 24/15 A3009 NOSIG=
201903211800 METAR MRPV 211800Z 09018KT 9999 FEW035 SCT100 25/15 A3007 NOSIG=
201903211900 METAR MRPV 211900Z 09018KT 9999 FEW035 SCT100 25/15 A3003 NOSIG=
201903212000 METAR MRPV 212000Z COR 08019KT 9999 FEW045 BKN250 25/16 A3001 NOSIG=
201903212100 METAR MRPV 212100Z 08020KT 9999 FEW035 BKN250 24/16 A3000 NOSIG=
201903212200 METAR MRPV 212200Z 10021KT 9999 FEW035 SCT200 23/16 A3000 NOSIG=
201903212300 METAR MRPV 212300Z 09019KT 9999 FEW030 22/15 A3001 NOSIG=
201903220000 METAR MRPV 220000Z 10016KT 9999 FEW035 20/14 A3003 NOSIG=
201903220100 METAR MRPV NIL=
201903220200 METAR MRPV NIL=
201903220300 METAR MRPV NIL=
201903220400 METAR MRPV NIL=
201903220500 METAR MRPV NIL=
201903220600 METAR MRPV NIL=
201903220700 METAR MRPV NIL=
201903220800 METAR MRPV NIL=
201903220900 METAR MRPV NIL=
201903221000 METAR MRPV NIL=
201903221100 METAR MRPV NIL=
201903221200 METAR MRPV 221200Z 12014KT 9999 FEW040 19/12 A3009 NOSIG=
201903221300 METAR MRPV 221300Z 11017KT CAVOK 21/10 A3011 NOSIG=
201903221400 METAR MRPV 221400Z 10021KT CAVOK 22/12 A3012 NOSIG=
201903221500 METAR MRPV 221500Z 09019KT CAVOK 24/11 A3013 NOSIG=
201903221600 METAR MRPV 221600Z 09020KT CAVOK 25/12 A3011 NOSIG=
201903221700 METAR MRPV 221700Z 08018KT CAVOK 25/13 A3010 NOSIG=
201903221800 METAR MRPV 221800Z 07019KT CAVOK 25/13 A3007 NOSIG=
201903221900 METAR MRPV 221900Z 07020KT CAVOK 25/13 A3005 NOSIG=
201903222000 METAR MRPV 222000Z 07017G27KT CAVOK 26/13 A3003 NOSIG=
201903222100 METAR MRPV 222100Z 08019KT 9999 FEW040 25/14 A3001 NOSIG=
201903222200 METAR MRPV 222200Z 08017G28KT 9999 FEW035 24/14 A3001 NOSIG=
201903222300 METAR MRPV 222300Z 09018KT 9999 FEW035 22/14 A3003 NOSIG=
201903230000 METAR MRPV 230000Z 11014KT 9999 FEW035 21/15 A3005 NOSIG=
201903230100 METAR MRPV NIL=
201903230200 METAR MRPV NIL=
201903230300 METAR MRPV NIL=
201903230400 METAR MRPV NIL=
201903230500 METAR MRPV NIL=
201903230600 METAR MRPV NIL=
201903230700 METAR MRPV NIL=
201903230800 METAR MRPV NIL=
201903230900 METAR MRPV NIL=
201903231000 METAR MRPV NIL=
201903231100 METAR MRPV NIL=
201903231200 METAR MRPV 231200Z 13010G20KT 9999 FEW045 17/11 A3011 NOSIG=
201903231300 METAR MRPV 231300Z 11012KT CAVOK 19/11 A3013 NOSIG=
201903231400 METAR MRPV 231400Z 13013KT CAVOK 20/11 A3014 NOSIG=
201903231500 METAR MRPV 231500Z 10018KT CAVOK 23/11 A3015 NOSIG=
201903231600 METAR MRPV 231600Z 08017KT CAVOK 25/11 A3014 NOSIG=
201903231700 METAR MRPV 231700Z 07016G26KT CAVOK 25/13 A3013 NOSIG=
201903231800 METAR MRPV 231800Z 09016KT CAVOK 25/14 A3010 WSR09 NOSIG=
201903231900 METAR MRPV 231900Z 09016KT CAVOK 26/14 A3006 WSR09 NOSIG=
201903232000 METAR MRPV 232000Z 09017KT 9999 FEW045 26/15 A3003 WSR09 NOSIG=
201903232100 METAR MRPV 232100Z 08017KT 9999 FEW045 25/15 A3003 WSR09 NOSIG=
201903232200 METAR MRPV 232200Z 09016KT 9999 FEW040 24/15 A3003 WSR09 NOSIG=
201903232300 METAR MRPV 232300Z 09014KT 9999 FEW040 23/15 A3005 WSR09 NOSIG=
201903240000 METAR MRPV 240000Z 10012KT 9999 FEW030 19/14 A3007 WSR09 NOSIG=
201903240100 METAR MRPV NIL=
201903240200 METAR MRPV NIL=
201903240300 METAR MRPV NIL=
201903240400 METAR MRPV NIL=
201903240500 METAR MRPV NIL=
201903240600 METAR MRPV NIL=
201903240700 METAR MRPV NIL=
201903240800 METAR MRPV NIL=
201903240900 METAR MRPV NIL=
201903241000 METAR MRPV NIL=
201903241100 METAR MRPV NIL=
201903241200 METAR MRPV 241200Z 11012KT 9999 FEW045 18/14 A3009 NOSIG=
201903241300 METAR MRPV 241300Z 10015KT 9999 FEW035 20/14 A3011 NOSIG=
201903241400 METAR MRPV 241400Z 10014KT 9999 FEW040 22/14 A3013 NOSIG=
201903241500 METAR MRPV 241500Z 09017KT 9999 FEW040 23/14 A3014 NOSIG=
201903241600 METAR MRPV 241600Z 08018KT 9999 FEW035 23/15 A3013 NOSIG=
201903241700 METAR MRPV 241700Z 08016KT 9999 FEW035 24/15 A3011 NOSIG=
201903241800 METAR MRPV 241800Z 09015G25KT 9999 FEW040 26/15 A3009 NOSIG=
201903241900 METAR MRPV 241900Z 09018KT 9999 FEW040 25/15 A3009 NOSIG=
201903242000 METAR MRPV 242000Z 09015KT 9999 SCT040 24/15 A3003 NOSIG=
201903242100 METAR MRPV 242100Z 10014KT 9999 FEW040 SCT070 24/15 A3002 NOSIG=
201903242200 METAR MRPV 242200Z 09016KT 9999 FEW040 SCT070 23/14 A3002 NOSIG=
201903242300 METAR MRPV 242300Z 10013KT 9999 FEW045 22/14 A3003 NOSIG=
201903250000 METAR MRPV 250000Z 11012KT 9999 FEW040 20/13 A3005 NOSIG=
201903250100 METAR MRPV NIL=
201903250200 METAR MRPV NIL=
201903250300 METAR MRPV NIL=
201903250400 METAR MRPV NIL=
201903250500 METAR MRPV NIL=
201903250600 METAR MRPV NIL=
201903250700 METAR MRPV NIL=
201903250800 METAR MRPV NIL=
201903250900 METAR MRPV NIL=
201903251000 METAR MRPV NIL=
201903251100 METAR MRPV NIL=
201903251200 METAR MRPV 251200Z 12010KT 9999 FEW030 19/15 A3004 NOSIG=
201903251300 METAR MRPV 251300Z 13010KT 9999 FEW030 18/17 A3006 NOSIG=
201903251400 METAR MRPV 251400Z 11013KT 9999 FEW035 22/15 A3007 NOSIG=
201903251500 METAR MRPV 251500Z 10018KT 9999 FEW040 24/14 A3007 NOSIG=
201903251600 METAR MRPV 251600Z 08017G27KT 9999 FEW040 25/16 A3007 NOSIG=
201903251700 METAR MRPV 251700Z 09017KT 9999 SCT030 25/16 A3007 NOSIG=
201903251800 METAR MRPV 251800Z 09020KT 9999 SCT025 24/16 A3006 NOSIG=
201903251900 METAR MRPV 251900Z 08017G27KT 9999 SCT035 25/15 A3002 NOSIG=
201903252000 METAR MRPV 252000Z 09017KT 9999 SCT035 25/16 A3001 NOSIG=
201903252100 METAR MRPV 252100Z 08018KT 9999 SCT035 24/16 A3000 NOSIG=
201903252200 METAR MRPV 252200Z 09017KT 9999 FEW025 SCT035 24/16 A2999 NOSIG=
201903252300 METAR MRPV 252300Z 10017KT 9999 FEW020 22/16 A3000 NOSIG=
201903260000 METAR MRPV 260000Z 10017KT 9999 FEW020 20/16 A3001 NOSIG=
201903260100 METAR MRPV NIL=
201903260200 METAR MRPV NIL=
201903260300 METAR MRPV NIL=
201903260400 METAR MRPV NIL=
201903260500 METAR MRPV NIL=
201903260600 METAR MRPV NIL=
201903260700 METAR MRPV NIL=
201903260800 METAR MRPV NIL=
201903260900 METAR MRPV NIL=
201903261000 METAR MRPV NIL=
201903261100 METAR MRPV NIL=
201903261200 METAR MRPV 261200Z 12011KT 9999 FEW035 19/14 A3003 NOSIG=
201903261300 METAR MRPV 261300Z 13013G23KT 9999 FEW035 20/14 A3005 NOSIG=
201903261400 METAR MRPV 261400Z 09018KT 9999 FEW030 22/14 A3006 NOSIG=
201903261500 METAR MRPV 261500Z 09018G28KT 9999 FEW040 23/14 A3007 NOSIG=
201903261600 METAR MRPV 261600Z 08020KT 9999 FEW035 24/14 A3007 NOSIG=
201903261700 METAR MRPV 261700Z 07019KT 9999 FEW035 24/14 A3005 NOSIG=
201903261800 METAR MRPV 261800Z 08018KT 9999 FEW045 26/14 A3002 NOSIG=
201903261900 METAR MRPV 261900Z 07018G29KT 9999 FEW045 27/15 A3000 NOSIG=
201903262000 METAR MRPV 262000Z 09021KT 9999 FEW035 25/15 A2998 NOSIG=
201903262100 METAR MRPV 262100Z 08020KT 9999 FEW030 24/15 A2997 NOSIG=
201903262200 METAR MRPV 262200Z 08020KT 9999 FEW030 23/15 A2998 NOSIG=
201903262300 METAR MRPV 262300Z 09022KT 9999 FEW035 22/14 A2998 NOSIG=
201903270000 METAR MRPV 270000Z 09018KT 9999 SCT030 20/15 A3001 NOSIG=
201903270100 METAR MRPV NIL=
201903270200 METAR MRPV NIL=
201903270300 METAR MRPV NIL=
201903270400 METAR MRPV NIL=
201903270500 METAR MRPV NIL=
201903270600 METAR MRPV NIL=
201903270700 METAR MRPV NIL=
201903270800 METAR MRPV NIL=
201903270900 METAR MRPV NIL=
201903271000 METAR MRPV NIL=
201903271100 METAR MRPV NIL=
201903271200 METAR MRPV 271200Z 12013KT 9999 FEW035 19/13 A3004 NOSIG=
201903271300 METAR MRPV 271300Z 11013KT 9999 FEW035 20/14 A3007 NOSIG=
201903271400 METAR MRPV 271400Z 08020G31KT 9999 FEW040 21/14 A3008 NOSIG=
201903271500 METAR MRPV 271500Z 07021KT 9999 FEW040 22/14 A3009 NOSIG=
201903271600 METAR MRPV 271600Z 07021G31KT 9999 FEW040 23/14 A3009 NOSIG=
201903271700 METAR MRPV 271700Z 08022KT 9999 FEW035 24/14 A3007 NOSIG=
201903271800 METAR MRPV 271800Z 08020G30KT 9999 FEW035 24/14 A3005 NOSIG=
201903271900 METAR MRPV 271900Z 08021G32KT 9999 FEW035 25/15 A3003 NOSIG=
201903272000 METAR MRPV 272000Z 08021G31KT 9999 FEW035 24/15 A3001 WSR09 NOSIG=
201903272100 METAR MRPV 272100Z 09024G34KT 9999 FEW035 23/15 A2999 WSR09 NOSIG=
201903272200 METAR MRPV 272200Z 09022G33KT 9999 FEW035 22/13 A3000 WSR09 NOSIG=
201903272300 METAR MRPV 272300Z 08020KT 9999 FEW030 21/14 A3001 WSR09 NOSIG=
201903280000 METAR MRPV 280000Z 10020KT 9999 FEW030 20/13 A3003 WSR09 NOSIG=
201903280100 METAR MRPV NIL=
201903280200 METAR MRPV NIL=
201903280300 METAR MRPV NIL=
201903280400 METAR MRPV NIL=
201903280500 METAR MRPV NIL=
201903280600 METAR MRPV NIL=
201903280700 METAR MRPV NIL=
201903280800 METAR MRPV NIL=
201903280900 METAR MRPV NIL=
201903281000 METAR MRPV NIL=
201903281100 METAR MRPV NIL=
201903281200 METAR MRPV 281200Z 12013KT CAVOK 19/13 A3009 NOSIG=
201903281300 METAR MRPV 281300Z 10017KT CAVOK 20/13 A3012 NOSIG=
201903281400 METAR MRPV 281400Z 12011KT CAVOK 22/12 A3012 NOSIG=
201903281500 METAR MRPV 281500Z 08016KT CAVOK 23/13 A3012 NOSIG=
201903281600 METAR MRPV 281600Z 08016KT CAVOK 25/13 A3011 NOSIG=
201903281700 METAR MRPV 281700Z 08017G27KT CAVOK 26/13 A3009 NOSIG=
201903281800 METAR MRPV 281800Z 08016KT 9999 FEW045 BKN250 26/13 A3006 NOSIG=
201903281900 METAR MRPV 281900Z 08018KT CAVOK 26/14 A3004 NOSIG=
201903282000 METAR MRPV 282000Z 08017KT 9999 FEW045 BKN200 27/14 A3002 NOSIG=
201903282100 METAR MRPV 282100Z 09016KT 9999 FEW035 SCT120 BKN200 24/14 A3001 NOSIG=
201903282200 METAR MRPV 282200Z 09019KT 9999 SCT035 BKN200 24/14 A3002 NOSIG=
201903282300 METAR MRPV 282300Z 09017KT 9999 SCT035 BKN200 22/15 A3004 NOSIG=
201903290000 METAR MRPV 290000Z 09016KT 9999 SCT035 BKN200 21/14 A3007 NOSIG=
201903290100 METAR MRPV NIL=
201903290200 METAR MRPV NIL=
201903290300 METAR MRPV NIL=
201903290400 METAR MRPV NIL=
201903290500 METAR MRPV NIL=
201903290600 METAR MRPV NIL=
201903290700 METAR MRPV NIL=
201903290800 METAR MRPV NIL=
201903290900 METAR MRPV NIL=
201903291000 METAR MRPV NIL=
201903291100 METAR MRPV NIL=
201903291200 METAR MRPV 291200Z 13010KT CAVOK 18/12 A3008 NOSIG=
201903291300 METAR MRPV 291300Z 13011KT CAVOK 20/15 A3009 NOSIG=
201903291400 METAR MRPV 291400Z 10016KT CAVOK 22/15 A3010 NOSIG=
201903291500 METAR MRPV 291500Z 09015KT 9999 FEW035 BKN200 24/15 A3010 NOSIG=
201903291600 METAR MRPV 291600Z 08017KT CAVOK 25/16 A3009 NOSIG=
201903291700 METAR MRPV 291700Z 09017KT 9999 FEW040 26/16 A3008 NOSIG=
201903291800 METAR MRPV 291800Z 09014KT 9999 FEW035 27/16 A3004 NOSIG=
201903291900 METAR MRPV 291900Z 08013KT 9999 FEW045 27/16 A3002 NOSIG=
201903292000 METAR MRPV 292000Z 08013KT 9999 FEW040 27/16 A2999 NOSIG=
201903292100 METAR MRPV 292100Z 09011KT 9999 SCT040 27/16 A2997 NOSIG=
201903292200 METAR MRPV 292200Z 09010KT 9999 SCT045 24/16 A2999 NOSIG=
201903292300 METAR MRPV 292300Z 09012KT 9999 FEW035 SCT200 23/16 A3000 NOSIG=
201903300000 METAR MRPV 300000Z 09013KT 9999 FEW035 SCT200 21/16 A3001 NOSIG=
201903300100 METAR MRPV NIL=
201903300200 METAR MRPV NIL=
201903300300 METAR MRPV NIL=
201903300400 METAR MRPV NIL=
201903300500 METAR MRPV NIL=
201903300600 METAR MRPV NIL=
201903300700 METAR MRPV NIL=
201903300800 METAR MRPV NIL=
201903300900 METAR MRPV NIL=
201903301000 METAR MRPV NIL=
201903301100 METAR MRPV NIL=
201903301200 METAR MRPV 301200Z 11013KT 9999 FEW025 20/15 A3004 NOSIG=
201903301300 METAR MRPV 301300Z 12010KT 9999 FEW025 21/15 A3005 NOSIG=
201903301400 METAR MRPV 301400Z 10017KT 9999 FEW035 22/15 A3007 NOSIG=
201903301500 METAR MRPV 301500Z 10015KT 9999 FEW040 24/16 A3007 NOSIG=
201903301600 METAR MRPV 301600Z 12011KT 9999 FEW035 24/16 A3007 NOSIG=
201903301700 METAR MRPV 301700Z 11010KT 9999 FEW045 27/15 A3003 NOSIG=
201903301800 METAR MRPV 301800Z 11011KT CAVOK 27/15 A3001 NOSIG=
201903301900 METAR MRPV 301900Z 08013KT 9999 FEW045 27/16 A3003 NOSIG=
201903302000 METAR MRPV 302000Z 09009KT 9999 FEW045 29/16 A2993 NOSIG=
201903302100 METAR MRPV 302100Z 09012KT 9999 FEW045 28/16 A2991 NOSIG=
201903302200 METAR MRPV 302200Z 09013KT 9999 FEW045 25/16 A2992 NOSIG=
201903302300 METAR MRPV 302300Z 10009KT 9999 FEW040 23/16 A2995 NOSIG=
201903310000 METAR MRPV 310000Z 11008KT 9999 FEW040 22/16 A2997 NOSIG=
201903310100 METAR MRPV NIL=
201903310200 METAR MRPV NIL=
201903310300 METAR MRPV NIL=
201903310400 METAR MRPV NIL=
201903310500 METAR MRPV NIL=
201903310600 METAR MRPV NIL=
201903310700 METAR MRPV NIL=
201903310800 METAR MRPV NIL=
201903310900 METAR MRPV NIL=
201903311000 METAR MRPV NIL=
201903311100 METAR MRPV NIL=
201903311200 METAR MRPV 311200Z 13009KT CAVOK 19/14 A3002 NOSIG=
201903311300 METAR MRPV 311300Z 13010KT 9999 FEW025 21/14 A3005 NOSIG=
201903311400 METAR MRPV 311400Z 11012KT CAVOK 23/15 A3008 NOSIG=
201903311500 METAR MRPV 311500Z 09013KT CAVOK 25/14 A3008 NOSIG=
201903311600 METAR MRPV 311600Z 09012KT CAVOK 26/14 A3007 NOSIG=
201903311700 METAR MRPV 311700Z 09013KT 9999 FEW045 27/14 A3005 NOSIG=
201903311800 METAR MRPV 311800Z 08011KT 9999 FEW045 28/12 A3001 NOSIG=
201903311900 METAR MRPV 311900Z 10007KT 9999 FEW045 29/13 A2998 BECMG 32005KT=
201903312000 METAR MRPV 312000Z 21003KT 9999 SCT045 30/14 A2995 NOSIG=
201903312100 METAR MRPV 312100Z 11005KT 9999 SCT040 28/16 A2995 NOSIG=
201903312200 METAR MRPV 312200Z 07007KT 9999 SCT040 26/16 A2995 NOSIG=
201903312300 METAR MRPV 312300Z 10009KT 9999 BKN040 25/17 A2997 NOSIG=
201904010000 METAR MRPV 010000Z 09009KT 9999 BKN040 23/17 A3000 NOSIG=
201904010100 METAR MRPV NIL=
201904010200 METAR MRPV NIL=
201904010300 METAR MRPV NIL=
201904010400 METAR MRPV NIL=
201904010500 METAR MRPV NIL=
201904010600 METAR MRPV NIL=
201904010700 METAR MRPV NIL=
201904010800 METAR MRPV NIL=
201904010900 METAR MRPV NIL=
201904011000 METAR MRPV NIL=
201904011100 METAR MRPV NIL=
201904011200 METAR MRPV 011200Z 13010KT CAVOK 19/14 A3007 NOSIG=
201904011300 METAR MRPV 011300Z 13011G22KT 9999 FEW025 21/14 A3009 NOSIG=
201904011400 METAR MRPV 011400Z 11011KT 9999 FEW035 23/13 A3012 NOSIG=
201904011500 METAR MRPV 011500Z 09013KT 9999 FEW035 24/13 A3011 NOSIG=
201904011600 METAR MRPV 011600Z 09011KT 9999 FEW045 26/14 A3011 NOSIG=
201904011700 METAR MRPV 011700Z 08012KT 9999 FEW045 28/15 A3009 NOSIG=
201904011800 METAR MRPV 011800Z 09010KT 9999 FEW045 29/15 A3006 NOSIG=
201904011900 METAR MRPV 011900Z 08012KT 9999 FEW045 SCT200 29/15 A3002 NOSIG=
201904012000 METAR MRPV 012000Z 10011KT 9999 SCT045 SCT200 29/15 A3001 NOSIG=
201904012100 METAR MRPV 012100Z 10009KT 9999 FEW045 BKN060 26/16 A3001 TEMPO 24003KT=
201904012200 METAR MRPV 012200Z 12005KT 9999 FEW040 BKN060 26/17 A3000 NOSIG=
201904012300 METAR MRPV 012300Z 13005KT 9999 FEW040 SCT060 BKN200 25/17 A3002 NOSIG=
201904020000 METAR MRPV 020000Z 11007KT 9999 FEW040 BKN200 23/17 A3003 NOSIG=
201904020100 METAR MRPV NIL=
201904020200 METAR MRPV NIL=
201904020300 METAR MRPV NIL=
201904020400 METAR MRPV NIL=
201904020500 METAR MRPV NIL=
201904020600 METAR MRPV NIL=
201904020700 METAR MRPV NIL=
201904020800 METAR MRPV NIL=
201904020900 METAR MRPV NIL=
201904021000 METAR MRPV NIL=
201904021100 METAR MRPV NIL=
201904021200 METAR MRPV 021200Z 14008G18KT 9999 FEW035 20/13 A3009 NOSIG=
201904021300 METAR MRPV 021300Z 11013KT CAVOK 21/14 A3011 NOSIG=
201904021400 METAR MRPV 021400Z 09015KT CAVOK 23/14 A3013 NOSIG=
201904021500 METAR MRPV 021500Z 09014KT CAVOK 25/14 A3013 NOSIG=
201904021600 METAR MRPV 021600Z 08016KT CAVOK 26/14 A3012 NOSIG=
201904021700 METAR MRPV 021700Z 07015KT CAVOK 27/14 A3011 NOSIG=
201904021800 METAR MRPV 021800Z 07014G26KT 9999 FEW045 SCT200 27/14 A3009 NOSIG=
201904021900 METAR MRPV 021900Z 08014KT CAVOK 28/14 A3007 NOSIG=
201904022000 METAR MRPV 022000Z 09014KT CAVOK 29/14 A3004 NOSIG=
201904022100 METAR MRPV 022100Z 08016G26KT CAVOK 27/15 A3003 NOSIG=
201904022200 METAR MRPV 022200Z 08015KT 9999 SCT035 26/15 A3003 NOSIG=
201904022300 METAR MRPV 022300Z 09018KT 9999 SCT040 25/15 A3004 NOSIG=
201904030000 METAR MRPV 030000Z 09014KT 9999 FEW035 23/15 A3002 NOSIG=
201904030100 METAR MRPV NIL=
201904030200 METAR MRPV NIL=
201904030300 METAR MRPV NIL=
201904030400 METAR MRPV NIL=
201904030500 METAR MRPV NIL=
201904030600 METAR MRPV NIL=
201904030700 METAR MRPV NIL=
201904030800 METAR MRPV NIL=
201904030900 METAR MRPV NIL=
201904031000 METAR MRPV NIL=
201904031100 METAR MRPV NIL=
201904031200 METAR MRPV 031200Z 10014KT 9999 FEW040 20/14 A3013 NOSIG=
201904031300 METAR MRPV 031300Z 10016KT 9999 FEW040 21/14 A3016 NOSIG=
201904031400 METAR MRPV 031400Z 09020KT 9999 FEW045 22/13 A3017 NOSIG=
201904031500 METAR MRPV 031500Z 08019G29KT 9999 FEW045 24/13 A3017 NOSIG=
201904031600 METAR MRPV 031600Z 09021KT 9999 FEW045 25/13 A3017 NOSIG=
201904031700 METAR MRPV 031700Z 08021G32KT 9999 FEW045 26/13 A3016 NOSIG=
201904031800 METAR MRPV 031800Z 08020G30KT 9999 FEW040 27/13 A3014 NOSIG=
201904031900 METAR MRPV 031900Z 06018G28KT 9999 FEW045 26/12 A3011 WSR09 NOSIG=
201904032000 METAR MRPV 032000Z 06019G30KT 9999 FEW045 27/13 A3007 WSR09 NOSIG=
201904032100 METAR MRPV 032100Z 07018G28KT 9999 FEW045 27/13 A3005 WSR09 NOSIG=
201904032200 METAR MRPV 032200Z 07015KT 9999 FEW045 25/13 A3005 WSR09 NOSIG=
201904032300 METAR MRPV 032300Z 07014G25KT 9999 FEW045 SCT200 24/14 A3006 WSR09 NOSIG=
201904040000 METAR MRPV 040000Z 09014KT 9999 FEW035 BKN200 22/15 A3008 WSR09 NOSIG=
201904040100 METAR MRPV NIL=
201904040200 METAR MRPV NIL=
201904040300 METAR MRPV NIL=
201904040400 METAR MRPV NIL=
201904040500 METAR MRPV NIL=
201904040600 METAR MRPV NIL=
201904040700 METAR MRPV NIL=
201904040800 METAR MRPV NIL=
201904040900 METAR MRPV NIL=
201904041000 METAR MRPV NIL=
201904041100 METAR MRPV NIL=
201904041200 METAR MRPV 041200Z 11011KT CAVOK 20/14 A3010 NOSIG=
201904041300 METAR MRPV 041300Z 10013KT CAVOK 21/14 A3012 NOSIG=
201904041400 METAR MRPV 041400Z 09017KT 9999 FEW035 BKN180 22/15 A3014 NOSIG=
201904041500 METAR MRPV 041500Z 09015KT 9999 FEW035 BKN200 23/15 A3016 NOSIG=
201904041600 METAR MRPV 041600Z 08016KT FEW045 BKN200 26/15 A3014 NOSIG=
201904041700 METAR MRPV 041700Z 07016KT FEW045 BKN200 25/15 A3013 NOSIG=
201904041800 METAR MRPV 041800Z 09017KT FEW045 BKN200 27/15 A3010 NOSIG=
201904041900 METAR MRPV 041900Z 09017G27KT FEW040 BKN200 27/15 A3008 NOSIG=
201904042000 METAR MRPV 042000Z 08020KT SCT040 BKN200 26/14 A3005 NOSIG=
201904042100 METAR MRPV 042100Z 08016KT FEW040 BKN200 25/14 A3004 NOSIG=
201904042200 METAR MRPV 042200Z 09019KT FEW035 BKN200 24/14 A3004 NOSIG=
201904042300 METAR MRPV 042300Z 08018KT CAVOK 24/14 A3006 NOSIG=
201904050000 METAR MRPV 050000Z 09014KT CAVOK 22/15 A3007 NOSIG=
201904050100 METAR MRPV NIL=
201904050200 METAR MRPV NIL=
201904050300 METAR MRPV NIL=
201904050400 METAR MRPV NIL=
201904050500 METAR MRPV NIL=
201904050600 METAR MRPV NIL=
201904050700 METAR MRPV NIL=
201904050800 METAR MRPV NIL=
201904050900 METAR MRPV NIL=
201904051000 METAR MRPV NIL=
201904051100 METAR MRPV NIL=
201904051200 METAR MRPV 051200Z 10014KT CAVOK 20/13 A3005 NOSIG=
201904051300 METAR MRPV 051300Z 10011KT CAVOK 20/13 A3007 NOSIG=
201904051400 METAR MRPV 051400Z 12012G22KT 9999 FEW035 BKN160 20/14 A3010 NOSIG=
201904051500 METAR MRPV 051500Z 13009KT CAVOK 20/14 A3011 NOSIG=
201904051600 METAR MRPV 051600Z 08012KT CAVOK 22/14 A3011 NOSIG=
201904051700 METAR MRPV 051700Z 08012KT CAVOK 23/14 A3010 NOSIG=
201904051800 METAR MRPV 051800Z 09016KT CAVOK 23/14 A3006 NOSIG=
201904051900 METAR MRPV 051900Z 09009KT CAVOK 24/15 A3003 NOSIG=
201904052000 METAR MRPV 052000Z 09012KT 9999 FEW040 BKN130 25/15 A3001 NOSIG=
201904052100 METAR MRPV 052100Z 10013KT 9999 FEW035 SCT090 BKN100 24/15 A3000 NOSIG=
201904052200 METAR MRPV 052200Z 09014KT 9999 FEW035 OVC140 22/15 A3000 NOSIG=
201904052300 METAR MRPV 052300Z 10011KT 9999 FEW030 BKN140 22/15 A3002 NOSIG=
201904060000 METAR MRPV 060000Z 10010KT CAVOK 21/15 A3003 NOSIG=
201904060100 METAR MRPV NIL=
201904060200 METAR MRPV NIL=
201904060300 METAR MRPV NIL=
201904060400 METAR MRPV NIL=
201904060500 METAR MRPV NIL=
201904060600 METAR MRPV NIL=
201904060700 METAR MRPV NIL=
201904060800 METAR MRPV NIL=
201904060900 METAR MRPV NIL=
201904061000 METAR MRPV NIL=
201904061100 METAR MRPV NIL=
201904061200 METAR MRPV 061200Z 12006KT CAVOK 18/14 A3006 NOSIG=
201904061300 METAR MRPV 061300Z 12009KT CAVOK 21/14 A3008 NOSIG=
201904061400 METAR MRPV 061400Z 14006KT CAVOK 24/15 A3010 NOSIG=
201904061500 METAR MRPV 061500Z 08009KT 9999 FEW045 SCT120 24/15 A3010 NOSIG=
201904061600 METAR MRPV 061600Z 08008KT 9999 FEW045 26/15 A3009 NOSIG=
201904061700 METAR MRPV 061700Z 10003KT 9999 SCT045 28/15 A3006 NOSIG=
201904061800 METAR MRPV 061800Z 25006KT 9999 BKN045 29/15 A3003 NOSIG=
201904061900 METAR MRPV 061900Z 09012KT 9999 BKN045 25/16 A3001 NOSIG=
201904062000 METAR MRPV 062000Z 09014KT 9999 BKN040 23/18 A2999 RERA NOSIG=
201904062100 METAR MRPV 062100Z 26003KT 9999 RA VCTS FEW020CB BKN035 21/18 A3000 RETS NOSIG=
201904062200 METAR MRPV 062200Z 19002KT 9999 FEW035 BKN050 21/19 A3000 RERA NOSIG=
201904062300 METAR MRPV 062300Z 09007KT 9999 FEW035 BKN050 22/18 A3001 NOSIG=
201904070000 METAR MRPV 070000Z 10009KT 9999 FEW025 BKN050 22/17 A3002 NOSIG=
201904070100 METAR MRPV NIL=
201904070200 METAR MRPV NIL=
201904070300 METAR MRPV NIL=
201904070400 METAR MRPV NIL=
201904070500 METAR MRPV NIL=
201904070600 METAR MRPV NIL=
201904070700 METAR MRPV NIL=
201904070800 METAR MRPV NIL=
201904070900 METAR MRPV NIL=
201904071000 METAR MRPV NIL=
201904071100 METAR MRPV NIL=
201904071200 METAR MRPV 071200Z 13007KT 9999 FEW025 20/15 A3006 NOSIG=
201904071300 METAR MRPV 071300Z 12008KT 9999 FEW025 21/16 A3009 NOSIG=
201904071400 METAR MRPV 071400Z 10013KT 9999 FEW040 23/16 A3011 NOSIG=
201904071500 METAR MRPV 071500Z 08013KT 9999 FEW040 25/16 A3011 NOSIG=
201904071600 METAR MRPV 071600Z 09012KT 9999 FEW040 26/16 A3009 NOSIG=
201904071700 METAR MRPV 071700Z 09013KT 9999 FEW040 27/16 A3008 NOSIG=
201904071800 METAR MRPV 071800Z 08013KT 9999 SCT045 27/17 A3005 NOSIG=
201904071900 METAR MRPV 071900Z 09014KT 9999 SCT040 27/17 A3002 NOSIG=
201904072000 METAR MRPV 072000Z 09013KT 9999 SCT040 26/17 A3000 NOSIG=
201904072100 METAR MRPV 072100Z 08012KT 9999 FEW020TCU SCT035 BKN090 26/16 A2999 NOSIG=
201904072200 METAR MRPV 072200Z 08010KT 9999 SCT035 BKN070 24/17 A3000 NOSIG=
201904072300 METAR MRPV 072300Z 10012KT 9999 FEW030 BKN060 23/17 A3001 NOSIG=
201904080000 METAR MRPV 080000Z 09011KT 9999 FEW025 SCT060 BKN100 22/16 A3003 NOSIG=
201904080100 METAR MRPV NIL=
201904080200 METAR MRPV NIL=
201904080300 METAR MRPV NIL=
201904080400 METAR MRPV NIL=
201904080500 METAR MRPV NIL=
201904080600 METAR MRPV NIL=
201904080700 METAR MRPV NIL=
201904080800 METAR MRPV NIL=
201904080900 METAR MRPV NIL=
201904081000 METAR MRPV NIL=
201904081100 METAR MRPV NIL=
201904081200 METAR MRPV 081200Z 13008KT CAVOK 20/13 A3003 NOSIG=
201904081300 METAR MRPV 081300Z 14007KT CAVOK 22/12 A3005 NOSIG=
201904081400 METAR MRPV 081400Z 13009KT CAVOK 24/12 A3007 NOSIG=
201904081500 METAR MRPV 081500Z 12008KT 9999 FEW045 26/13 A3007 NOSIG=
201904081600 METAR MRPV 081600Z 12005KT 9999 FEW045 28/14 A3006 BECMG 29005KT=
201904081700 METAR MRPV 081700Z 10007KT CAVOK 30/14 A3003 NOSIG=
201904081800 METAR MRPV 081800Z 35005KT 080V340 9999 SCT045 29/15 A3001 NOSIG=
201904081900 METAR MRPV 081900Z VRB01KT 9999 BKN045 28/16 A2999 NOSIG=
201904082000 METAR MRPV 082000Z 10007KT 9999 DZ BKN045 27/17 A2997 NOSIG=
201904082100 METAR MRPV 082100Z 12005KT 9999 -RA VCTS FEW020CB FEW020TCU BKN100 22/20 A2998 RESHRA NOSIG=
201904082200 METAR MRPV 082200Z 08005KT 9000 SCT030 BKN100 22/18 A2999 NOSIG=
201904082300 METAR MRPV 082300Z 12005KT 9999 BKN025 22/19 A3000 NOSIG=
201904090000 METAR MRPV 090000Z 15001KT 9999 BKN025 22/19 A3002 NOSIG=
201904090100 METAR MRPV NIL=
201904090200 METAR MRPV NIL=
201904090300 METAR MRPV NIL=
201904090400 METAR MRPV NIL=
201904090500 METAR MRPV NIL=
201904090600 METAR MRPV NIL=
201904090700 METAR MRPV NIL=
201904090800 METAR MRPV NIL=
201904090900 METAR MRPV NIL=
201904091000 METAR MRPV NIL=
201904091100 METAR MRPV NIL=
201904091200 METAR MRPV 091200Z 11005KT CAVOK 21/14 A3003 NOSIG=
201904091300 METAR MRPV 091300Z 07003KT CAVOK 22/13 A3005 NOSIG=
201904091400 METAR MRPV 091400Z 35002KT CAVOK 25/14 A3007 NOSIG=
201904091500 METAR MRPV 091500Z 28005KT CAVOK 25/15 A3007 NOSIG=
201904091600 METAR MRPV 091600Z 27004KT CAVOK 26/16 A3005 NOSIG=
201904091700 METAR MRPV 091700Z 30004KT 010V300 CAVOK 28/15 A3004 NOSIG=
201904091800 METAR MRPV 091800Z 27007KT 9999 SCT045 OVC200 29/16 A3000 NOSIG=
201904091900 METAR MRPV 091900Z 26008KT 9999 SCT045 BKN200 29/18 A2997 NOSIG=
201904092000 METAR MRPV 092000Z COR 26006KT 9999 SHRA VCTS FEW025CB SCT035 SCT200 29/18 A2995 NOSIG=
201904092100 METAR MRPV 092100Z 14006KT 8000 3000E TSRA SCT025CB BKN060 21/19 A2999 NOSIG=
201904092200 METAR MRPV 092200Z 13004KT 9999 SCT030 BKN060 21/19 A3000 RESH NOSIG=
201904092300 METAR MRPV 092300Z VRB02KT 9999 -RA SCT045 BKN100 22/19 A3001 NOSIG=
201904100000 METAR MRPV 100000Z 08004KT 9999 -RA FEW045 BKN100 22/19 A3001 NOSIG=
201904100100 METAR MRPV NIL=
201904100200 METAR MRPV NIL=
201904100300 METAR MRPV NIL=
201904100400 METAR MRPV NIL=
201904100500 METAR MRPV NIL=
201904100600 METAR MRPV NIL=
201904100700 METAR MRPV NIL=
201904100800 METAR MRPV NIL=
201904100900 METAR MRPV NIL=
201904101000 METAR MRPV NIL=
201904101100 METAR MRPV NIL=
201904101200 METAR MRPV 101200Z 10003KT CAVOK 19/17 A3004 NOSIG=
201904101300 METAR MRPV 101300Z 09004KT CAVOK 21/18 A3006 NOSIG=
201904101400 METAR MRPV 101400Z 10004KT 9999 FEW040 BKN200 24/17 A3007 NOSIG=
201904101500 METAR MRPV 101500Z 25002KT 9999 FEW040 BKN200 26/16 A3007 NOSIG=
201904101600 METAR MRPV 101600Z 11002KT 150V240 9999 FEW045 BKN200 27/15 A3006 NOSIG=
201904101700 METAR MRPV 101700Z 27006KT 9999 FEW045 SCT200 29/14 A3004 NOSIG=
201904101800 METAR MRPV 101800Z 26008KT 9999 FEW045 BKN200 29/15 A3001 NOSIG=
201904101900 METAR MRPV 101900Z 25007KT 9999 SCT030 SCT200 29/15 A2998 NOSIG=
201904102000 METAR MRPV 102000Z 29016KT 3000 RA SCT020CB BKN200 23/20 A2996 TEMPO TSRA=
201904102100 METAR MRPV 102100Z 30004KT 9999 SCT025 BKN120 22/19 A2998 RERA NOSIG=
201904102200 METAR MRPV 102200Z 23001KT 9999 FEW040 BKN100 24/18 A2996 NOSIG=
201904102300 METAR MRPV 102300Z 08004KT 9999 FEW020 BKN120 24/18 A2998 NOSIG=
201904110000 METAR MRPV 110000Z 06002KT 9999 FEW035 SCT100 22/18 A3003 NOSIG=
201904110100 METAR MRPV NIL=
201904110200 METAR MRPV NIL=
201904110300 METAR MRPV NIL=
201904110400 METAR MRPV NIL=
201904110500 METAR MRPV NIL=
201904110600 METAR MRPV NIL=
201904110700 METAR MRPV NIL=
201904110800 METAR MRPV NIL=
201904110900 METAR MRPV NIL=
201904111000 METAR MRPV NIL=
201904111100 METAR MRPV NIL=
201904111200 METAR MRPV 111200Z COR 07001KT 9999 FEW015 BKN120 17/15 A3002 NOSIG=
201904111300 METAR MRPV 111300Z 08003KT 9999 FEW015 BKN120 19/16 A3004 NOSIG=
201904111400 METAR MRPV 111400Z 06004KT CAVOK 21/16 A3004 NOSIG=
201904111500 METAR MRPV 111500Z 11004KT CAVOK 24/16 A3005 NOSIG=
201904111600 METAR MRPV 111600Z 30003KT CAVOK 24/18 A3005 NOSIG=
201904111700 METAR MRPV 111700Z 33004KT CAVOK 25/17 A3004 NOSIG=
201904111800 METAR MRPV 111800Z 31003KT 9999 FEW045 BKN180 27/17 A3001 NOSIG=
201904111900 METAR MRPV 111900Z 26007KT 9999 FEW040 BKN180 26/18 A2999 NOSIG=
201904112000 METAR MRPV 112000Z 26007KT 9999 FEW040 BKN180 26/18 A2995 NOSIG=
201904112100 METAR MRPV 112100Z 34005KT CAVOK 26/17 A2994 NOSIG=
201904112200 METAR MRPV 112200Z 29008KT 9999 FEW040 OVC200 25/17 A2994 NOSIG=
201904112300 METAR MRPV 112300Z 30007KT 9999 FEW035 OVC140 24/18 A2996 NOSIG=
201904120000 METAR MRPV 120000Z 01003KT 9999 SCT015 BKN200 23/19 A2998 NOSIG=
201904120100 METAR MRPV NIL=
201904120200 METAR MRPV NIL=
201904120300 METAR MRPV NIL=
201904120400 METAR MRPV NIL=
201904120500 METAR MRPV NIL=
201904120600 METAR MRPV NIL=
201904120700 METAR MRPV NIL=
201904120800 METAR MRPV NIL=
201904120900 METAR MRPV NIL=
201904121000 METAR MRPV NIL=
201904121100 METAR MRPV NIL=
201904121200 METAR MRPV 121200Z 11004KT CAVOK 20/16 A3000 NOSIG=
201904121300 METAR MRPV 121300Z 14006KT CAVOK 22/15 A3000 NOSIG=
201904121400 METAR MRPV 121400Z 15006KT CAVOK 25/15 A3002 NOSIG=
201904121500 METAR MRPV 121500Z 11009KT CAVOK 26/15 A3003 NOSIG=
201904121600 METAR MRPV 121600Z 10009KT CAVOK 28/15 A3002 NOSIG=
201904121700 METAR MRPV 121700Z 08008KT CAVOK 28/16 A3001 NOSIG=
201904121800 METAR MRPV 121800Z 22003KT 9999 SCT045 29/18 A2999 NOSIG=
201904121900 METAR MRPV 121900Z 28010KT 9999 SCT040 SCT200 29/18 A2996 NOSIG=
201904122000 METAR MRPV 122000Z 28007KT 9999 BKN035 28/19 A2993 NOSIG=
201904122100 METAR MRPV 122100Z 21004KT 9999 SCT035TCU SCT200 28/18 A2991 NOSIG=
201904122200 METAR MRPV 122200Z 10005KT 9999 RA VCTS SCT025CB SCT035 26/18 A2992 NOSIG=
201904122300 METAR MRPV 122300Z 03003KT 300V030 9000 VCTS FEW025CB BKN035 23/20 A2995 RERA NOSIG=
201904130000 METAR MRPV 130000Z 34001KT 9000 FEW020 BKN030 24/20 A2997 NOSIG=
201904130100 METAR MRPV NIL=
201904130200 METAR MRPV NIL=
201904130300 METAR MRPV NIL=
201904130400 METAR MRPV NIL=
201904130500 METAR MRPV NIL=
201904130600 METAR MRPV NIL=
201904130700 METAR MRPV NIL=
201904130800 METAR MRPV NIL=
201904130900 METAR MRPV NIL=
201904131000 METAR MRPV NIL=
201904131100 METAR MRPV NIL=
201904131200 METAR MRPV 131200Z 13004KT CAVOK 19/16 A3000 NOSIG=
201904131300 METAR MRPV 131300Z 13008KT CAVOK 22/16 A3001 NOSIG=
201904131400 METAR MRPV 131400Z 11009KT CAVOK 24/16 A3003 NOSIG=
201904131500 METAR MRPV 131500Z 10012KT CAVOK 26/16 A3003 NOSIG=
201904131600 METAR MRPV 131600Z 08010KT CAVOK 27/16 A3002 NOSIG=
201904131700 METAR MRPV 131700Z 10008KT 9999 FEW045 29/16 A3000 NOSIG=
201904131800 METAR MRPV 131800Z 10007KT 9999 FEW045 29/16 A2997 NOSIG=
201904131900 METAR MRPV 131900Z 09011KT 9999 FEW035 30/16 A2995 NOSIG=
201904132000 METAR MRPV 132000Z 09010KT 9999 FEW035 29/16 A2993 NOSIG=
201904132100 METAR MRPV 132100Z 09008KT 9999 SCT035 SCT200 28/17 A2993 NOSIG=
201904132200 METAR MRPV 132200Z 09009KT 9999 SCT035 SCT160 27/17 A2993 NOSIG=
201904132300 METAR MRPV 132300Z 28006KT 150V260 9999 VCTS FEW020CB SCT035 25/20 A2993 NOSIG=
201904140000 METAR MRPV 140000Z 12006KT 9999 FEW020 SCT180 24/18 A2996 NOSIG=
201904140100 METAR MRPV NIL=
201904140200 METAR MRPV NIL=
201904140300 METAR MRPV NIL=
201904140400 METAR MRPV NIL=
201904140500 METAR MRPV NIL=
201904140600 METAR MRPV NIL=
201904140700 METAR MRPV NIL=
201904140800 METAR MRPV NIL=
201904140900 METAR MRPV NIL=
201904141000 METAR MRPV NIL=
201904141100 METAR MRPV NIL=
201904141200 METAR MRPV 141200Z 12002KT CAVOK 19/16 A3002 NOSIG=
201904141300 METAR MRPV 141300Z 12007KT 9999 FEW040 OVC200 23/17 A3003 NOSIG=
201904141400 METAR MRPV 141400Z 12009KT CAVOK 25/16 A3004 NOSIG=
201904141500 METAR MRPV 141500Z 12008KT CAVOK 27/17 A3004 NOSIG=
201904141600 METAR MRPV 141600Z 10010KT 9999 FEW040 BKN200 28/18 A3003 NOSIG=
201904141700 METAR MRPV 141700Z 08011KT 9999 FEW040 BKN200 27/17 A3003 NOSIG=
201904141800 METAR MRPV 141800Z 06006KT 9999 SCT040 SCT200 30/17 A3000 BECMG 30005KT=
201904141900 METAR MRPV 141900Z 28008KT 9999 SCT040 BKN200 29/19 A2998 NOSIG=
201904142000 METAR MRPV 142000Z 26008KT 9999 SCT035 SCT200 28/20 A2994 NOSIG=
201904142100 METAR MRPV 142100Z 26007G17KT 9999 SCT035 SCT200 27/19 A2994 NOSIG=
201904142200 METAR MRPV 142200Z 09011KT 9999 VCTS FEW025CB BKN035 25/18 A2995 NOSIG=
201904142300 METAR MRPV 142300Z 07001KT 9000 -DZ SCT030 BKN060 25/20 A2996 NOSIG=
201904150000 METAR MRPV 150000Z 10005KT 8000 SCT030 BKN080 24/18 A2998 NOSIG=
201904150100 METAR MRPV NIL=
201904150200 METAR MRPV NIL=
201904150300 METAR MRPV NIL=
201904150400 METAR MRPV NIL=
201904150500 METAR MRPV NIL=
201904150600 METAR MRPV NIL=
201904150700 METAR MRPV NIL=
201904150800 METAR MRPV NIL=
201904150900 METAR MRPV NIL=
201904151000 METAR MRPV NIL=
201904151100 METAR MRPV NIL=
201904151200 METAR MRPV 151200Z 12009KT 9999 FEW025 BKN140 22/16 A3003 NOSIG=
201904151300 METAR MRPV 151300Z 11011KT 9999 FEW025 BKN160 23/16 A3005 NOSIG=
201904151400 METAR MRPV 151400Z 08015KT 9999 FEW030 BKN160 24/16 A3007 NOSIG=
201904151500 METAR MRPV 151500Z 07015KT 9999 FEW045 BKN200 25/16 A3008 NOSIG=
201904151600 METAR MRPV 151600Z 07014KT 9999 FEW040 BKN200 26/15 A3008 NOSIG=
201904151700 METAR MRPV 151700Z 07014KT 9999 FEW045 BKN220 27/15 A3007 NOSIG=
201904151800 METAR MRPV 151800Z 08013KT CAVOK 28/15 A3004 NOSIG=
201904151900 METAR MRPV 151900Z 07010KT CAVOK 29/15 A3001 NOSIG=
201904152000 METAR MRPV 152000Z 07013KT CAVOK 29/15 A3000 NOSIG=
201904152100 METAR MRPV 152100Z 06011KT CAVOK 28/15 A2998 NOSIG=
201904152200 METAR MRPV 152200Z 07012KT 9999 FEW045 BKN200 28/14 A2999 NOSIG=
201904152300 METAR MRPV 152300Z 07010KT 9999 FEW045 BKN200 26/13 A3000 NOSIG=
201904160000 METAR MRPV 160000Z 08011KT 9999 FEW045 BKN200 24/14 A3002 NOSIG=
201904160100 METAR MRPV NIL=
201904160200 METAR MRPV NIL=
201904160300 METAR MRPV NIL=
201904160400 METAR MRPV NIL=
201904160500 METAR MRPV NIL=
201904160600 METAR MRPV NIL=
201904160700 METAR MRPV NIL=
201904160800 METAR MRPV NIL=
201904160900 METAR MRPV NIL=
201904161000 METAR MRPV NIL=
201904161100 METAR MRPV NIL=
201904161200 METAR MRPV 161200Z 09019G29KT 9999 FEW040 BKN200 20/15 A3006 NOSIG=
201904161300 METAR MRPV 161300Z 10019G29KT 9999 FEW040 BKN180 21/14 A3006 NOSIG=
201904161400 METAR MRPV 161400Z 10017G28KT 9999 FEW040 BKN180 22/14 A3010 NOSIG=
201904161500 METAR MRPV 161500Z 10017KT 9999 FEW035 BKN200 24/16 A3010 NOSIG=
201904161600 METAR MRPV 161600Z 08017G27KT 9999 SCT035 SCT200 25/16 A3010 NOSIG=
201904161700 METAR MRPV 161700Z 09020G31KT 9999 FEW035 SCT200 25/16 A3009 NOSIG=
201904161800 METAR MRPV 161800Z 08018KT 9999 SCT035 SCT200 26/16 A3006 NOSIG=
201904161900 METAR MRPV 161900Z 10017G27KT 9999 SCT040 26/16 A3003 NOSIG=
201904162000 METAR MRPV 162000Z 07016G27KT 9999 SCT035 25/16 A3002 NOSIG=
201904162100 METAR MRPV 162100Z 10013KT 9999 SCT035 25/16 A3000 NOSIG=
201904162200 METAR MRPV 162200Z 09014KT 9999 FEW040 25/16 A2999 NOSIG=
201904162300 METAR MRPV 162300Z 09015KT 9999 FEW030 BKN200 24/16 A2999 NOSIG=
201904170000 METAR MRPV 170000Z 09012KT 9999 FEW030 BKN200 22/16 A3001 NOSIG=
201904170100 METAR MRPV NIL=
201904170200 METAR MRPV NIL=
201904170300 METAR MRPV NIL=
201904170400 METAR MRPV NIL=
201904170500 METAR MRPV NIL=
201904170600 METAR MRPV NIL=
201904170700 METAR MRPV NIL=
201904170800 METAR MRPV NIL=
201904170900 METAR MRPV NIL=
201904171000 METAR MRPV NIL=
201904171100 METAR MRPV NIL=
201904171200 METAR MRPV 171200Z 15008KT CAVOK 19/13 A3003 NOSIG=
201904171300 METAR MRPV 171300Z 14009KT CAVOK 20/12 A3005 NOSIG=
201904171400 METAR MRPV 171400Z 12011KT CAVOK 22/13 A3005 NOSIG=
201904171500 METAR MRPV 171500Z 09014KT CAVOK 24/13 A3005 NOSIG=
201904171600 METAR MRPV 171600Z 09012KT CAVOK 26/13 A3004 NOSIG=
201904171700 METAR MRPV 171700Z 08013KT CAVOK 27/14 A3003 NOSIG=
201904171800 METAR MRPV 171800Z 09014KT CAVOK 28/14 A3000 NOSIG=
201904171900 METAR MRPV 171900Z 08013KT 9999 FEW045 SCT200 28/15 A2997 NOSIG=
201904172000 METAR MRPV 172000Z 08013KT 9999 FEW045 28/15 A2995 NOSIG=
201904172100 METAR MRPV 172100Z 09013KT 9999 SCT045 26/16 A2994 NOSIG=
201904172200 METAR MRPV 172200Z 10011KT 9999 SCT045 25/16 A2994 NOSIG=
201904172300 METAR MRPV 172300Z 10012KT 9999 FEW030 BKN045 24/16 A2996 NOSIG=
201904180000 METAR MRPV 180000Z 11009KT 9999 SCT030 BKN045 23/17 A2998 NOSIG=
201904180100 METAR MRPV NIL=
201904180200 METAR MRPV NIL=
201904180300 METAR MRPV NIL=
201904180400 METAR MRPV NIL=
201904180500 METAR MRPV NIL=
201904180600 METAR MRPV NIL=
201904180700 METAR MRPV NIL=
201904180800 METAR MRPV NIL=
201904180900 METAR MRPV NIL=
201904181000 METAR MRPV NIL=
201904181100 METAR MRPV NIL=
201904181200 METAR MRPV 181200Z 12009KT 9999 FEW025 SCT250 20/16 A2998 NOSIG=
201904181300 METAR MRPV 181300Z 11008KT 9999 FEW015 SCT250 22/16 A3002 NOSIG=
201904181400 METAR MRPV 181400Z 10010KT CAVOK 24/16 A3003 NOSIG=
201904181500 METAR MRPV 181500Z 08011KT 9999 FEW040 SCT250 25/16 A3003 NOSIG=
201904181600 METAR MRPV 181600Z 08011KT CAVOK 26/16 A3001 NOSIG=
201904181700 METAR MRPV 181700Z 08010KT 9999 FEW045 BKN250 28/17 A3000 NOSIG=
201904181800 METAR MRPV 181800Z 09011KT 9999 FEW045 BKN200 28/17 A2997 NOSIG=
201904181900 METAR MRPV 181900Z 08012KT 9999 SCT040 BKN200 28/17 A2995 NOSIG=
201904182000 METAR MRPV 182000Z 25005KT 9999 DZ SCT035 BKN200 25/20 A2993 NOSIG=
201904182100 METAR MRPV 182100Z 23004KT 9999 -RA SCT020 BKN040 20/19 A2994 RESH NOSIG=
201904182200 METAR MRPV 182200Z 07002KT 9999 RA SCT015 BKN050 21/19 A2994 NOSIG=
201904182300 METAR MRPV 182300Z 15004KT 9999 -RA SCT010 BKN035 20/19 A2996 NOSIG=
201904190000 METAR MRPV 190000Z 15003KT 9999 VCFG FEW005 BKN035 20/19 A2998 NOSIG=
201904190100 METAR MRPV NIL=
201904190200 METAR MRPV NIL=
201904190300 METAR MRPV NIL=
201904190400 METAR MRPV NIL=
201904190500 METAR MRPV NIL=
201904190600 METAR MRPV NIL=
201904190700 METAR MRPV NIL=
201904190800 METAR MRPV NIL=
201904190900 METAR MRPV NIL=
201904191000 METAR MRPV NIL=
201904191100 METAR MRPV NIL=
201904191200 METAR MRPV 191200Z 11005KT 9999 FEW040 SCT100 BKN250 19/16 A3001 NOSIG=
201904191300 METAR MRPV 191300Z 10009KT CAVOK 22/17 A3002 NOSIG=
201904191400 METAR MRPV 191400Z 09007KT CAVOK 24/17 A3005 NOSIG=
201904191500 METAR MRPV 191500Z 08006KT CAVOK 26/17 A3004 NOSIG=
201904191600 METAR MRPV 191600Z 08007KT CAVOK 28/16 A3003 NOSIG=
201904191700 METAR MRPV 191700Z 33003KT 9999 FEW045 SCT200 29/15 A3002 NOSIG=
201904191800 METAR MRPV 191800Z 26007KT 9999 SCT045 SCT200 28/19 A2999 NOSIG=
201904191900 METAR MRPV 191900Z 26009KT 9999 BKN040 SCT200 28/20 A2997 TEMPO RA=
201904192000 METAR MRPV 192000Z 24005KT 9999 SCT035 BKN200 26/19 A2996 NOSIG=
201904192100 METAR MRPV 192100Z 26005KT 9999 SCT025 BKN110 25/19 A2996 NOSIG=
201904192200 METAR MRPV 192200Z 28006KT 9999 SCT030 BKN200 26/19 A2995 NOSIG=
201904192300 METAR MRPV 192300Z 29007KT 9999 SCT030 BKN200 25/19 A2997 NOSIG=
201904200000 METAR MRPV 200000Z 27006KT 9999 BKN030 SCT160 23/20 A3000 NOSIG=
201904200100 METAR MRPV NIL=
201904200200 METAR MRPV NIL=
201904200300 METAR MRPV NIL=
201904200400 METAR MRPV NIL=
201904200500 METAR MRPV NIL=
201904200600 METAR MRPV NIL=
201904200700 METAR MRPV NIL=
201904200800 METAR MRPV NIL=
201904200900 METAR MRPV NIL=
201904201000 METAR MRPV NIL=
201904201100 METAR MRPV NIL=
201904201200 METAR MRPV 201200Z 13006KT CAVOK 21/15 A3006 NOSIG=
201904201300 METAR MRPV 201300Z 11009KT CAVOK 23/14 A3007 NOSIG=
201904201400 METAR MRPV 201400Z 12012KT CAVOK 25/14 A3010 NOSIG=
201904201500 METAR MRPV 201500Z 09017KT 9999 FEW045 BKN200 24/14 A3011 NOSIG=
201904201600 METAR MRPV 201600Z 08019KT 9999 FEW045 BKN180 26/14 A3011 NOSIG=
201904201700 METAR MRPV 201700Z 08017KT 9999 FEW045 BKN200 26/14 A3010 NOSIG=
201904201800 METAR MRPV 201800Z 08015KT 9999 FEW045 BKN200 27/14 A3008 NOSIG=
201904201900 METAR MRPV 201900Z 07015KT 9999 FEW045 OVC200 27/14 A3005 NOSIG=
201904202000 METAR MRPV 202000Z 07016KT CAVOK 26/14 A3003 NOSIG=
201904202100 METAR MRPV 202100Z 08016KT CAVOK 26/14 A3002 NOSIG=
201904202200 METAR MRPV 202200Z 08015KT CAVOK 26/15 A3001 NOSIG=
201904202300 METAR MRPV 202300Z 11012KT 9999 FEW035 OVC200 24/15 A3003 NOSIG=
201904210000 METAR MRPV 210000Z 09012KT 9999 FEW035 OVC200 22/16 A3006 NOSIG=
201904210100 METAR MRPV NIL=
201904210200 METAR MRPV NIL=
201904210300 METAR MRPV NIL=
201904210400 METAR MRPV NIL=
201904210500 METAR MRPV NIL=
201904210600 METAR MRPV NIL=
201904210700 METAR MRPV NIL=
201904210800 METAR MRPV NIL=
201904210900 METAR MRPV NIL=
201904211200 METAR MRPV 211200Z 12010KT CAVOK 19/13 A3008 NOSIG=
201904211300 METAR MRPV 211300Z 12010KT CAVOK 21/12 A3010 NOSIG=
201904211400 METAR MRPV 211400Z 10013KT CAVOK 23/13 A3011 NOSIG=
201904211500 METAR MRPV 211500Z 08015KT CAVOK 24/12 A3012 NOSIG=
201904211600 METAR MRPV 211600Z 08014G24KT CAVOK 26/13 A3011 NOSIG=
201904211700 METAR MRPV 211700Z 08017KT 9999 FEW045 SCT180 27/14 A3010 NOSIG=
201904211800 METAR MRPV 211800Z 09016KT 9999 FEW045 27/16 A3008 NOSIG=
201904211900 METAR MRPV 211900Z 08017KT 9999 FEW040 BKN200 26/17 A3006 NOSIG=
201904212000 METAR MRPV 212000Z 09019KT 9999 FEW040 BKN200 26/16 A3003 NOSIG=
201904212100 METAR MRPV 212100Z 09022KT 9999 FEW040 SCT200 23/15 A3003 NOSIG=
201904212200 METAR MRPV 212200Z 08016KT 9999 FEW035 SCT120 23/13 A3003 NOSIG=
201904212300 METAR MRPV 212300Z 12012KT 9999 FEW035 BKN160 22/13 A3005 NOSIG=
201904220000 METAR MRPV 220000Z 11014KT 9999 FEW035 SCT140 21/13 A3007 NOSIG=
201904220100 METAR MRPV NIL=
201904220200 METAR MRPV NIL=
201904220300 METAR MRPV NIL=
201904220400 METAR MRPV NIL=
201904220500 METAR MRPV NIL=
201904220600 METAR MRPV NIL=
201904220700 METAR MRPV NIL=
201904220800 METAR MRPV NIL=
201904220900 METAR MRPV NIL=
201904221000 METAR MRPV NIL=
201904221100 METAR MRPV NIL=
201904221200 METAR MRPV 221200Z 11013KT 9999 FEW035 19/14 A3007 NOSIG=
201904221300 METAR MRPV 221300Z 13014KT 9999 FEW035 21/14 A3008 NOSIG=
201904221400 METAR MRPV 221400Z 11014KT 9999 FEW035 23/15 A3009 NOSIG=
201904221500 METAR MRPV 221500Z 09019KT 9999 FEW045 23/15 A3011 NOSIG=
201904221600 METAR MRPV 221600Z COR 09019KT 9999 FEW040 24/15 A3011 WSR09 NOSIG=
201904221700 METAR MRPV 221700Z COR 08018G28KT 9999 FEW040 24/15 A3010 WSR09 NOSIG=
201904221800 METAR MRPV 221800Z COR 10017KT 9999 FEW035 SCT100 24/16 A3008 WSR09 NOSIG=
201904221900 METAR MRPV 221900Z 11013KT 9999 FEW035 SCT100 24/14 A3005 WSR09 NOSIG=
201904222000 METAR MRPV 222000Z 08018KT 9999 FEW035 25/15 A3003 WSR09 NOSIG=
201904222100 METAR MRPV 222100Z 09017KT 9999 FEW035 BKN110 24/15 A3002 WSR09 NOSIG=
201904222200 METAR MRPV 222200Z 11014KT 9999 SCT025 SCT120 23/15 A3002 WSR09 NOSIG=
201904222300 METAR MRPV 222300Z 12012KT 9999 FEW025 BKN070 22/14 A3003 WSR09 NOSIG=
201904230000 METAR MRPV 230000Z 10013KT 9999 FEW025 21/14 A3004 WSR09 NOSIG=
201904230100 METAR MRPV NIL=
201904230200 METAR MRPV NIL=
201904230300 METAR MRPV NIL=
201904230400 METAR MRPV NIL=
201904230500 METAR MRPV NIL=
201904230600 METAR MRPV NIL=
201904230700 METAR MRPV NIL=
201904230800 METAR MRPV NIL=
201904230900 METAR MRPV NIL=
201904231000 METAR MRPV NIL=
201904231100 METAR MRPV NIL=
201904231200 METAR MRPV 231200Z 12013KT CAVOK 20/13 A3003 NOSIG=
201904231300 METAR MRPV 231300Z 13013KT CAVOK 20/14 A3006 NOSIG=
201904231400 METAR MRPV 231400Z COR 11015KT CAVOK 22/14 A3008 WSR09 NOSIG=
201904231500 METAR MRPV 231500Z 10016KT CAVOK 23/12 A3008 WSR09 NOSIG=
201904231600 METAR MRPV 231600Z 09015KT CAVOK 25/13 A3008 WSR09 NOSIG=
201904231700 METAR MRPV 231700Z 08015KT CAVOK 26/13 A3006 WSR09 NOSIG=
201904231800 METAR MRPV 231800Z 09015KT CAVOK 27/15 A3004 WSR09 NOSIG=
201904231900 METAR MRPV 231900Z 10010KT CAVOK 27/15 A3001 WSR09 NOSIG=
201904232000 METAR MRPV 232000Z 09014KT 9999 FEW045 BKN200 27/15 A2999 WSR09 NOSIG=
201904232100 METAR MRPV 232100Z 08012KT 9999 FEW045 BKN200 27/15 A2997 WSR09 NOSIG=
201904232200 METAR MRPV 232200Z 09013KT 9999 FEW040 BKN200 25/16 A2997 WSR09 NOSIG=
201904232300 METAR MRPV 232300Z 09012KT 9999 FEW040 BKN080 23/16 A2997 WSR09 NOSIG=
201904240000 METAR MRPV 240000Z 12008KT 9999 FEW040 BKN100 22/16 A2999 WSR09 NOSIG=
201904240100 METAR MRPV NIL=
201904240200 METAR MRPV NIL=
201904240300 METAR MRPV NIL=
201904240400 METAR MRPV NIL=
201904240500 METAR MRPV NIL=
201904240600 METAR MRPV NIL=
201904240700 METAR MRPV NIL=
201904240800 METAR MRPV NIL=
201904240900 METAR MRPV NIL=
201904241000 METAR MRPV NIL=
201904241100 METAR MRPV NIL=
201904241200 METAR MRPV 241200Z 13006KT CAVOK 19/13 A3002 NOSIG=
201904241300 METAR MRPV 241300Z 12010KT CAVOK 21/13 A3005 NOSIG=
201904241400 METAR MRPV 241400Z 12011KT CAVOK 23/14 A3006 NOSIG=
201904241500 METAR MRPV 241500Z 09011KT CAVOK 24/14 A3006 NOSIG=
201904241600 METAR MRPV 241600Z 10007KT CAVOK 27/14 A3005 NOSIG=
201904241700 METAR MRPV 241700Z 08010KT CAVOK 27/15 A3004 NOSIG=
201904241800 METAR MRPV 241800Z 09009KT 9999 FEW045 28/14 A3002 NOSIG=
201904241900 METAR MRPV 241900Z 29007KT 9999 SCT045 28/16 A3000 NOSIG=
201904242000 METAR MRPV 242000Z 09011KT 9999 SCT040 25/16 A2998 NOSIG=
201904242100 METAR MRPV 242100Z 11008KT 9999 -RA SCT035 BKN060 22/17 A2997 NOSIG=
201904242200 METAR MRPV 242200Z 11009KT 9999 SCT035 BKN060 22/17 A2998 NOSIG=
201904242300 METAR MRPV 242300Z 10010KT 9999 SCT035 BKN060 22/16 A2999 NOSIG=
201904250000 METAR MRPV 250000Z 10011KT 9999 SCT030 SCT060 21/16 A3001 NOSIG=
201904250300 METAR MRPV NIL=
201904250400 METAR MRPV NIL=
201904250500 METAR MRPV NIL=
201904250600 METAR MRPV NIL=
201904250700 METAR MRPV NIL=
201904250800 METAR MRPV NIL=
201904250900 METAR MRPV NIL=
201904251000 METAR MRPV NIL=
201904251100 METAR MRPV NIL=
201904251200 METAR MRPV 251200Z 12004KT CAVOK 19/13 A3002 NOSIG=
201904251300 METAR MRPV 251300Z 12005KT 9999 FEW045 BKN220 21/14 A3005 NOSIG=
201904251400 METAR MRPV 251400Z 10006KT 9999 FEW040 BKN220 24/15 A3007 NOSIG=
201904251500 METAR MRPV 251500Z 27003KT 030V300 9999 FEW045 BKN220 26/16 A3006 NOSIG=
201904251600 METAR MRPV 251600Z 35003KT 9999 FEW045 BKN200 26/15 A3005 NOSIG=
201904251700 METAR MRPV 251700Z 32006KT 9999 SCT045 BKN200 27/16 A3004 NOSIG=
201904251800 METAR MRPV 251800Z 26006KT 9999 SCT045 BKN220 28/17 A3002 NOSIG=
201904251900 METAR MRPV 251900Z 27009G19KT 9999 BKN045 28/18 A2998 NOSIG=
201904252000 METAR MRPV 252000Z 26008KT 9999 SCT040 28/18 A2997 NOSIG=
201904252100 METAR MRPV 252100Z 27008KT 9999 SCT040 29/19 A2996 NOSIG=
201904252200 METAR MRPV 252200Z 26006KT 9999 FEW040 SCT220 27/19 A2997 NOSIG=
201904252300 METAR MRPV 252300Z 27008KT 9999 FEW035 SCT220 26/19 A2999 NOSIG=
201904260000 METAR MRPV 260000Z 28006KT 9999 FEW030 24/19 A3001 NOSIG=
201904260100 METAR MRPV NIL=
201904260200 METAR MRPV NIL=
201904260300 METAR MRPV NIL=
201904260400 METAR MRPV NIL=
201904260500 METAR MRPV NIL=
201904260600 METAR MRPV NIL=
201904260700 METAR MRPV NIL=
201904260800 METAR MRPV NIL=
201904260900 METAR MRPV NIL=
201904261000 METAR MRPV NIL=
201904261100 METAR MRPV NIL=
201904261200 METAR MRPV 261200Z 13008KT CAVOK 20/15 A3006 NOSIG=
201904261300 METAR MRPV 261300Z 14006KT CAVOK 22/16 A3008 NOSIG=
201904261400 METAR MRPV 261400Z 11012KT CAVOK 24/16 A3009 NOSIG=
201904261500 METAR MRPV 261500Z 09011KT 9999 FEW045 26/16 A3009 NOSIG=
201904261600 METAR MRPV 261600Z 08009KT 9999 FEW045 27/15 A3007 NOSIG=
201904261700 METAR MRPV 261700Z 07006KT 9999 SCT045 28/14 A3005 BECMG 30005KT=
201904261800 METAR MRPV 261800Z 10007KT 9999 SCT045 29/16 A3003 NOSIG=
201904261900 METAR MRPV 261900Z 23007KT 9999 SCT045 29/17 A3000 NOSIG=
201904262000 METAR MRPV 262000Z 25008KT 9999 SCT035 28/18 A2997 NOSIG=
201904262100 METAR MRPV 262100Z 30008KT 9999 SCT040 27/18 A2997 NOSIG=
201904262200 METAR MRPV 262200Z 28008KT 9999 FEW040 27/19 A2996 NOSIG=
201904262300 METAR MRPV 262300Z 26005KT 9999 FEW045 SCT180 26/19 A2997 NOSIG=
201904270000 METAR MRPV 270000Z 24002KT 9999 FEW045 BKN200 25/19 A2999 NOSIG=
201904270100 METAR MRPV NIL=
201904270200 METAR MRPV NIL=
201904270300 METAR MRPV NIL=
201904270400 METAR MRPV NIL=
201904270500 METAR MRPV NIL=
201904270600 METAR MRPV NIL=
201904270700 METAR MRPV NIL=
201904270800 METAR MRPV NIL=
201904270900 METAR MRPV NIL=
201904271000 METAR MRPV NIL=
201904271100 METAR MRPV NIL=
201904271200 METAR MRPV 271200Z 11011KT 9999 FEW035 SCT120 21/16 A3004 NOSIG=
201904271300 METAR MRPV 271300Z 12009KT 9999 FEW035 BKN180 22/16 A3006 NOSIG=
201904271400 METAR MRPV 271400Z 10013KT 9999 FEW035 SCT120 23/13 A3006 NOSIG=
201904271500 METAR MRPV 271500Z 10011KT 9999 FEW035 BKN200 24/14 A3007 NOSIG=
201904271600 METAR MRPV 271600Z 08013KT 9999 FEW035 BKN200 26/14 A3006 NOSIG=
201904271700 METAR MRPV 271700Z 08011KT CAVOK 26/15 A3004 NOSIG=
201904271800 METAR MRPV 271800Z 08011KT CAVOK 28/16 A3001 NOSIG=
201904271900 METAR MRPV 271900Z 09012KT CAVOK 28/16 A2997 NOSIG=
201904272000 METAR MRPV 272000Z 08013KT 9999 FEW045 BKN200 27/17 A2995 NOSIG=
201904272100 METAR MRPV 272100Z 08013KT 9999 FEW045 BKN200 27/17 A2993 NOSIG=
201904272200 METAR MRPV 272200Z 08014KT 9999 FEW040 BKN200 26/16 A2992 NOSIG=
201904272300 METAR MRPV 272300Z 09012KT 9999 FEW035 BKN220 25/17 A2994 NOSIG=
201904280000 METAR MRPV 280000Z 10010KT 9999 FEW035 BKN220 23/17 A2997 NOSIG=
201904280100 METAR MRPV NIL=
201904280200 METAR MRPV NIL=
201904280300 METAR MRPV NIL=
201904280400 METAR MRPV NIL=
201904280500 METAR MRPV NIL=
201904280600 METAR MRPV NIL=
201904280700 METAR MRPV NIL=
201904280800 METAR MRPV NIL=
201904280900 METAR MRPV NIL=
201904281000 METAR MRPV NIL=
201904281100 METAR MRPV NIL=
201904281200 METAR MRPV 281200Z 11010KT CAVOK 21/15 A3000 NOSIG=
201904281300 METAR MRPV 281300Z 12010KT CAVOK 23/15 A3001 NOSIG=
201904281400 METAR MRPV 281400Z 10010KT CAVOK 25/15 A3003 NOSIG=
201904281500 METAR MRPV 281500Z 08012KT CAVOK 27/15 A3002 NOSIG=
201904281600 METAR MRPV 281600Z 07007KT CAVOK 28/16 A3000 NOSIG=
201904281700 METAR MRPV 281700Z 10008KT CAVOK 29/16 A2999 NOSIG=
201904281800 METAR MRPV 281800Z 08018KT 9999 FEW035 29/18 A2997 NOSIG=
201904281900 METAR MRPV 281900Z 09018KT 9999 SCT035 27/18 A2995 NOSIG=
201904282000 METAR MRPV 282000Z 09015KT 9999 SCT040 26/18 A2994 NOSIG=
201904282100 METAR MRPV 282100Z 08016G26KT 9999 SCT030 SCT080 26/18 A2993 NOSIG=
201904282200 METAR MRPV 282200Z 09013KT 9999 FEW035 SCT100 26/18 A2992 NOSIG=
201904282300 METAR MRPV 282300Z 10012KT 9999 SCT030 25/18 A2993 NOSIG=
201904290000 METAR MRPV 290000Z 10011KT 9999 BKN025 23/18 A2996 NOSIG=
201904290100 METAR MRPV NIL=
201904290200 METAR MRPV NIL=
201904290300 METAR MRPV NIL=
201904290400 METAR MRPV NIL=
201904290500 METAR MRPV NIL=
201904290600 METAR MRPV NIL=
201904290700 METAR MRPV NIL=
201904290800 METAR MRPV NIL=
201904290900 METAR MRPV NIL=
201904291000 METAR MRPV NIL=
201904291100 METAR MRPV NIL=
201904291200 METAR MRPV 291200Z 12011KT 9999 FEW035 22/17 A2998 NOSIG=
201904291300 METAR MRPV 291300Z 11012KT 9999 FEW035 23/18 A3001 NOSIG=
201904291400 METAR MRPV 291400Z 10016KT 9999 FEW035 SCT120 24/17 A3002 NOSIG=
201904291500 METAR MRPV 291500Z 10013KT 9999 FEW035 SCT120 24/18 A3004 NOSIG=
201904291600 METAR MRPV 291600Z 09016G26KT 9999 FEW035 BKN120 27/18 A3004 NOSIG=
201904291700 METAR MRPV 291700Z COR 08018KT 9999 FEW035 SCT120 26/17 A3003 WSR9 NOSIG=
201904291800 METAR MRPV 291800Z 09015KT 9999 FEW035 BKN120 25/18 A3002 WSR09 NOSIG=
201904291900 METAR MRPV 291900Z 10017G27KT 9999 FEW030 BKN120 26/18 A2998 WSR09 NOSIG=
201904292000 METAR MRPV 292000Z 09019KT 9999 FEW030 BKN100 25/17 A2996 REDZ WSR09 NOSIG=
201904292100 METAR MRPV 292100Z 10016KT 9999 DZ FEW030 BKN100 24/18 A2995 WSR09 NOSIG=
201904292200 METAR MRPV 292200Z 10014KT 9999 +DZ FEW030 OVC100 23/18 A2995 WSR09 NOSIG=
201904292300 METAR MRPV 292300Z 12010KT 9999 DZ FEW035 OVC100 22/18 A2998 WSR09 NOSIG=
201904300000 METAR MRPV 300000Z 13007KT 9999 FEW035 BKN100 22/18 A2999 REDZ WSR09 NOSIG=
201904300100 METAR MRPV NIL=
201904300200 METAR MRPV NIL=
201904300300 METAR MRPV NIL=
201904300400 METAR MRPV NIL=
201904300500 METAR MRPV NIL=
201904300600 METAR MRPV NIL=
201904300700 METAR MRPV NIL=
201904300800 METAR MRPV NIL=
201904300900 METAR MRPV NIL=
201904301000 METAR MRPV NIL=
201904301100 METAR MRPV NIL=
201904301200 METAR MRPV 301200Z 12012KT 9999 FEW030 BKN120 22/17 A2999 NOSIG=
201904301300 METAR MRPV 301300Z 11013KT 9999 FEW030 SCT100 23/17 A3001 NOSIG=
201904301400 METAR MRPV 301400Z 09016G26KT 9999 FEW030 BKN220 24/17 A3002 NOSIG=
201904301500 METAR MRPV 301500Z 08017G27KT 9999 FEW040 BKN220 24/17 A3003 WSR09 NOSIG=
201904301600 METAR MRPV 301600Z 08016G27KT 9999 FEW035 BKN250 25/16 A3003 WSR09 NOSIG=
201904301700 METAR MRPV 301700Z 08017KT 9999 FEW040 SCT100 SCT220 26/16 A3003 WSR09 NOSIG=
201904301800 METAR MRPV 301800Z 08015KT 9999 FEW045 SCT100 28/17 A3000 WSR09 NOSIG=
201904301900 METAR MRPV 301900Z 08014KT 9999 FEW040 BKN100 28/17 A2997 WSR09 NOSIG=
201904302000 METAR MRPV 302000Z 09017KT 9999 FEW040 BKN100 25/17 A2995 WSR09 NOSIG=
201904302100 METAR MRPV 302100Z 09017KT 9999 FEW020 SCT060 BKN100 25/16 A2995 NOSIG=
201904302200 METAR MRPV 302200Z 09016KT 9999 FEW040 BKN080 24/16 A2996 NOSIG=
201904302300 METAR MRPV 302300Z 10012KT 9999 FEW035 SCT080 24/17 A2998 NOSIG=
201905010000 METAR MRPV 010000Z 10013KT 9999 FEW020 BKN080 22/16 A3000 NOSIG=
201905010100 METAR MRPV NIL=
201905010200 METAR MRPV NIL=
201905010300 METAR MRPV NIL=
201905010400 METAR MRPV NIL=
201905010500 METAR MRPV NIL=
201905010600 METAR MRPV NIL=
201905010700 METAR MRPV NIL=
201905010800 METAR MRPV NIL=
201905010900 METAR MRPV NIL=
201905011000 METAR MRPV NIL=
201905011100 METAR MRPV NIL=
201905011200 METAR MRPV 011200Z 12009KT 9999 FEW030 OVC200 21/16 A3001 NOSIG=
201905011300 METAR MRPV 011300Z 12010KT CAVOK 22/17 A3003 NOSIG=
201905011400 METAR MRPV 011400Z 09015KT CAVOK 24/17 A3004 NOSIG=
201905011500 METAR MRPV 011500Z 08017KT CAVOK 25/18 A3004 NOSIG=
201905011600 METAR MRPV 011600Z 08017KT 9999 FEW040 26/18 A3003 NOSIG=
201905011700 METAR MRPV 011700Z 08017KT 9999 FEW035 27/18 A3002 NOSIG=
201905011800 METAR MRPV 011800Z 09017KT 9999 SCT040 28/18 A3000 NOSIG=
201905011900 METAR MRPV 011900Z 10018KT 9999 FEW035 BKN070 27/18 A2997 NOSIG=
201905012000 METAR MRPV 012000Z 10016KT 9999 FEW030 SCT070 25/17 A2995 NOSIG=
201905012100 METAR MRPV 012100Z 08014KT 9999 FEW035 BKN080 25/17 A2995 NOSIG=
201905012200 METAR MRPV 012200Z 09013KT 9999 FEW035 SCT080 BKN200 26/17 A2995 NOSIG=
201905012300 METAR MRPV 012300Z 10013KT 9999 SCT035 BKN220 24/18 A2996 NOSIG=
201905020000 METAR MRPV 020000Z 12010KT 9999 FEW030 BKN080 23/18 A2998 NOSIG=
201905020100 METAR MRPV NIL=
201905020200 METAR MRPV NIL=
201905020300 METAR MRPV NIL=
201905020400 METAR MRPV NIL=
201905020500 METAR MRPV NIL=
201905020600 METAR MRPV NIL=
201905020700 METAR MRPV NIL=
201905020800 METAR MRPV NIL=
201905020900 METAR MRPV NIL=
201905021000 METAR MRPV NIL=
201905021100 METAR MRPV NIL=
201905021200 METAR MRPV 021200Z 11012KT 9999 FEW025 22/18 A2999 NOSIG=
201905021300 METAR MRPV 021300Z 11012KT 9999 FEW030 23/18 A3002 NOSIG=
201905021400 METAR MRPV 021400Z 12009KT 9999 FEW025 25/18 A3004 NOSIG=
201905021500 METAR MRPV 021500Z 08014KT 9999 FEW030 24/18 A3005 NOSIG=
201905021600 METAR MRPV 021600Z 10014KT 9999 FEW025 SCT090 25/18 A3004 NOSIG=
201905021700 METAR MRPV 021700Z 09018KT 9999 SCT035 25/18 A3003 NOSIG=
201905021800 METAR MRPV 021800Z 09015KT 9999 SCT035 BKN200 26/18 A3001 NOSIG=
201905021900 METAR MRPV 021900Z 08016KT 9999 SCT035 SCT100 26/18 A2997 NOSIG=
201905022000 METAR MRPV 022000Z 09014KT 9999 SCT040 BKN100 24/18 A2997 NOSIG=
201905022100 METAR MRPV 022100Z 09013KT 9999 SCT040 BKN100 24/18 A2996 NOSIG=
201905022200 METAR MRPV 022200Z 10010KT 9999 FEW035 BKN100 24/18 A2995 NOSIG=
201905022300 METAR MRPV 022300Z 10012KT 9999 FEW025 SCT120 BKN200 24/18 A2996 NOSIG=
201905030000 METAR MRPV 030000Z 12007KT 9999 SCT035 SCT120 23/18 A2998 NOSIG=
201905030100 METAR MRPV NIL=
201905030200 METAR MRPV NIL=
201905030300 METAR MRPV NIL=
201905030400 METAR MRPV NIL=
201905030500 METAR MRPV NIL=
201905030600 METAR MRPV NIL=
201905030700 METAR MRPV NIL=
201905030800 METAR MRPV NIL=
201905030900 METAR MRPV NIL=
201905031000 METAR MRPV NIL=
201905031100 METAR MRPV NIL=
201905031200 METAR MRPV 031200Z 11009KT 9999 FEW035 BKN200 22/17 A2997 NOSIG=
201905031300 METAR MRPV 031300Z 11010KT 9999 FEW030 BKN220 23/18 A2998 NOSIG=
201905031400 METAR MRPV 031400Z 10012KT 9999 SCT035 BKN220 23/18 A3001 NOSIG=
201905031500 METAR MRPV 031500Z 10010KT 9999 SCT035 SCT220 25/17 A3003 NOSIG=
201905031600 METAR MRPV 031600Z 10010KT 9999 FEW035 BKN250 27/17 A3002 NOSIG=
201905031700 METAR MRPV 031700Z 08011KT 9999 FEW035 BKN220 28/16 A3001 NOSIG=
201905031800 METAR MRPV 031800Z 10008KT 9999 FEW035 BKN180 27/16 A2999 NOSIG=
201905031900 METAR MRPV 031900Z 08012KT 9999 FEW030 BKN200 28/17 A2997 NOSIG=
201905032000 METAR MRPV 032000Z 09011KT 9999 FEW030 BKN200 29/17 A2994 NOSIG=
201905032100 METAR MRPV 032100Z 10011KT 9999 FEW030 BKN130 26/17 A2995 NOSIG=
201905032200 METAR MRPV 032200Z 10009KT 9999 FEW030 BKN120 25/17 A2995 NOSIG=
201905032300 METAR MRPV 032300Z 10008KT 9999 -RA FEW030 BKN100 24/18 A2998 NOSIG=
201905040000 METAR MRPV 040000Z 09010KT 9999 FEW030 BKN120 24/18 A2999 NOSIG=
201905040100 METAR MRPV NIL=
201905040200 METAR MRPV NIL=
201905040300 METAR MRPV NIL=
201905040400 METAR MRPV NIL=
201905040500 METAR MRPV NIL=
201905040600 METAR MRPV NIL=
201905040700 METAR MRPV NIL=
201905040800 METAR MRPV NIL=
201905040900 METAR MRPV NIL=
201905041000 METAR MRPV NIL=
201905041100 METAR MRPV NIL=
201905041200 METAR MRPV 041200Z 11010KT CAVOK 21/18 A2999 NOSIG=
201905041300 METAR MRPV 041300Z 12007KT 9999 -DZ FEW040 OVC150 22/17 A3001 NOSIG=
201905041400 METAR MRPV 041400Z 12012KT 9999 FEW040 BKN200 24/18 A3002 NOSIG=
201905041500 METAR MRPV 041500Z 09014KT CAVOK 26/18 A3000 NOSIG=
201905041600 METAR MRPV 041600Z 09015KT CAVOK 26/18 A2999 NOSIG=
201905041700 METAR MRPV 041700Z 09015KT CAVOK 27/18 A2999 NOSIG=
201905041800 METAR MRPV 041800Z 09014KT 9999 FEW045 SCT130 BKN200 27/18 A2998 NOSIG=
201905041900 METAR MRPV 041900Z 09015KT 9999 FEW040 BKN140 28/18 A2995 NOSIG=
201905042000 METAR MRPV 042000Z 09014KT 9999 FEW040 SCT100 BKN200 28/18 A2993 NOSIG=
201905042100 METAR MRPV 042100Z 09013KT 9999 SCT040 SCT200 27/18 A2992 NOSIG=
201905042200 METAR MRPV 042200Z 09017KT 9999 RA SCT035 26/18 A2991 NOSIG=
201905042300 METAR MRPV 042300Z 09012KT 9999 SCT035 24/18 A2993 NOSIG=
201905050000 METAR MRPV 050000Z 09014KT 9999 SCT025 23/17 A2996 NOSIG=
201905050100 METAR MRPV NIL=
201905050200 METAR MRPV NIL=
201905050300 METAR MRPV NIL=
201905050400 METAR MRPV NIL=
201905050500 METAR MRPV NIL=
201905050600 METAR MRPV NIL=
201905050700 METAR MRPV NIL=
201905050800 METAR MRPV NIL=
201905050900 METAR MRPV NIL=
201905051000 METAR MRPV NIL=
201905051100 METAR MRPV NIL=
201905051200 METAR MRPV 051200Z 12006KT CAVOK 22/17 A2998 NOSIG=
201905051300 METAR MRPV 051300Z 13007KT CAVOK 24/17 A2999 NOSIG=
201905051400 METAR MRPV 051400Z 11011KT CAVOK 25/17 A3000 NOSIG=
201905051500 METAR MRPV 051500Z 09013KT CAVOK 27/17 A2999 NOSIG=
201905051600 METAR MRPV 051600Z 10007KT CAVOK 29/17 A2998 NOSIG=
201905051700 METAR MRPV 051700Z 08012KT 9999 FEW045 29/17 A2998 NOSIG=
201905051800 METAR MRPV 051800Z 09009KT 9999 FEW040 SCT060 30/17 A2994 NOSIG=
201905051900 METAR MRPV 051900Z 09011KT 9999 SCT040 SCT080 30/18 A2992 BECMG 26004KT=
201905052000 METAR MRPV 052000Z 09012KT 9999 -TSRA FEW020CB SCT040 28/18 A2990 NOSIG=
201905052100 METAR MRPV 052100Z 36001KT 9999 -TSRA FEW020CB SCT035 25/19 A2990 NOSIG=
201905052200 METAR MRPV 052200Z 11004KT 9999 SCT040 SCT120 26/18 A2990 NOSIG=
201905052300 METAR MRPV 052300Z 10011KT 9999 FEW030 SCT060 BKN200 25/19 A2991 NOSIG=
201905060000 METAR MRPV 060000Z 09011KT 9999 BKN025 24/19 A2992 NOSIG=
201905060100 METAR MRPV NIL=
201905060200 METAR MRPV NIL=
201905060300 METAR MRPV NIL=
201905060400 METAR MRPV NIL=
201905060500 METAR MRPV NIL=
201905060600 METAR MRPV NIL=
201905060700 METAR MRPV NIL=
201905060800 METAR MRPV NIL=
201905060900 METAR MRPV NIL=
201905061000 METAR MRPV NIL=
201905061100 METAR MRPV NIL=
201905061200 METAR MRPV 061200Z 11006KT 9999 FEW035 22/18 A3000 NOSIG=
201905061300 METAR MRPV 061300Z 12011KT 9999 FEW030 24/18 A3002 NOSIG=
201905061400 METAR MRPV 061400Z 10011KT 9999 FEW030 SCT080 25/19 A3004 NOSIG=
201905061500 METAR MRPV 061500Z 10014KT 9999 SCT035 26/19 A3004 NOSIG=
201905061600 METAR MRPV 061600Z 09017KT 9999 FEW025 SCT040 27/18 A3004 NOSIG=
201905061700 METAR MRPV 061700Z 10020KT 9999 FEW030 SCT120 27/18 A3000 NOSIG=
201905061800 METAR MRPV 061800Z 08017KT 9999 FEW030 SCT120 27/19 A3001 NOSIG=
201905061900 METAR MRPV 061900Z 07018KT 9999 FEW030 SCT100 27/18 A2999 NOSIG=
201905062000 METAR MRPV 062000Z 08015KT 9999 FEW030 BKN100 26/18 A2996 NOSIG=
201905062100 METAR MRPV 062100Z 09015KT 9999 FEW025 BKN100 26/18 A2997 WSR09 NOSIG=
201905062200 METAR MRPV 062200Z 09017KT 9999 FEW025 BKN100 25/18 A2996 WSR09 NOSIG=
201905062300 METAR MRPV 062300Z 10014KT 9999 FEW025 BKN100 24/18 A2998 WSR09 NOSIG=
201905070000 METAR MRPV 070000Z 11012KT 9999 FEW025 BKN120 23/18 A3000 WSR09 NOSIG=
201905070100 METAR MRPV NIL=
201905070200 METAR MRPV NIL=
201905070300 METAR MRPV NIL=
201905070400 METAR MRPV NIL=
201905070500 METAR MRPV NIL=
201905070600 METAR MRPV NIL=
201905070700 METAR MRPV NIL=
201905070800 METAR MRPV NIL=
201905070900 METAR MRPV NIL=
201905071000 METAR MRPV NIL=
201905071100 METAR MRPV NIL=
201905071200 METAR MRPV 071200Z 13012KT 9999 FEW025 SCT080 22/18 A3000 NOSIG=
201905071300 METAR MRPV 071300Z 11010KT 9999 FEW030 SCT120 BKN200 23/18 A3003 NOSIG=
201905071400 METAR MRPV 071400Z 10011KT 9999 FEW030 BKN120 25/18 A3004 NOSIG=
201905071500 METAR MRPV 071500Z 10011KT 9999 FEW030 BKN120 24/18 A3005 NOSIG=
201905071600 METAR MRPV 071600Z 10012KT 9999 DZ FEW025 BKN060 25/18 A3007 NOSIG=
201905071700 METAR MRPV 071700Z 14007KT 9999 FEW035 BKN090 25/18 A3006 REDZ NOSIG=
201905071713 METAR MRPV 071713Z 13008KT 9999 DZ FEW035 BKN090 24/18 A3006 NOSIG=
201905071800 METAR MRPV 071800Z 14006KT 9999 FEW035 BKN100 24/19 A3004 REDZ NOSIG=
201905071900 METAR MRPV 071900Z 11012KT 9999 FEW020 BKN080 25/18 A3003 NOSIG=
201905072000 METAR MRPV 072000Z 10011KT 9999 FEW025 SCT070 BKN110 25/18 A3003 NOSIG=
201905072100 METAR MRPV 072100Z 10011KT 9999 -DZ FEW025 SCT070 BKN100 23/19 A3001 NOSIG=
201905072200 METAR MRPV 072200Z 11012KT 9999 SCT040 BKN100 24/18 A3000 NOSIG=
201905072300 METAR MRPV 072300Z 13009KT 9999 FEW020 BKN100 23/18 A3001 NOSIG=
201905080000 METAR MRPV 080000Z 11008KT 9999 SCT040 BKN120 22/18 A3002 NOSIG=
201905080100 METAR MRPV NIL=
201905080200 METAR MRPV NIL=
201905080300 METAR MRPV NIL=
201905080400 METAR MRPV NIL=
201905080500 METAR MRPV NIL=
201905080600 METAR MRPV NIL=
201905080700 METAR MRPV NIL=
201905080800 METAR MRPV NIL=
201905080900 METAR MRPV NIL=
201905081000 METAR MRPV NIL=
201905081100 METAR MRPV NIL=
201905081200 METAR MRPV 081200Z 13007KT 9999 RA FEW035 BKN100 22/18 A2998 NOSIG=
201905081300 METAR MRPV 081300Z 13007KT 9999 FEW035 BKN120 22/18 A3000 RERA NOSIG=
201905081400 METAR MRPV 081400Z 10011KT 9999 FEW035 BKN160 24/18 A3001 NOSIG=
201905081500 METAR MRPV 081500Z 12010KT 9999 FEW030 BKN160 25/18 A3001 NOSIG=
201905081600 METAR MRPV 081600Z 07013KT 5000 RA FEW030 BKN080 21/19 A3003 NOSIG=
201905081700 METAR MRPV 081700Z 11011KT 9999 -RA FEW025 BKN100 23/19 A3002 NOSIG=
201905081800 METAR MRPV 081800Z 09012KT 9999 FEW025 BKN110 24/19 A3000 NOSIG=
201905081900 METAR MRPV 081900Z COR 09014KT 9999 -RA FEW030 BKN120 24/18 A2999 NOSIG=
201905082000 METAR MRPV 082000Z 12009KT 6000 2500N -RA FEW020 BKN080 22/19 A2998 NOSIG=
201905082100 METAR MRPV 082100Z 10007KT 8000 -RA FEW020 BKN100 21/19 A2998 NOSIG=
201905082200 METAR MRPV 082200Z 10010KT 9999 FEW025 BKN120 22/18 A2996 NOSIG=
201905082300 METAR MRPV 082300Z 12008KT 9999 FEW035 BKN120 22/18 A2999 NOSIG=
201905090000 METAR MRPV 090000Z 12008KT 9999 SCT035 BKN120 21/17 A3000 NOSIG=
201905090100 METAR MRPV NIL=
201905090200 METAR MRPV NIL=
201905090300 METAR MRPV NIL=
201905090400 METAR MRPV NIL=
201905090500 METAR MRPV NIL=
201905090600 METAR MRPV NIL=
201905090700 METAR MRPV NIL=
201905090800 METAR MRPV NIL=
201905090900 METAR MRPV NIL=
201905091000 METAR MRPV NIL=
201905091100 METAR MRPV NIL=
201905091200 METAR MRPV 091200Z 13006KT CAVOK 21/17 A3000 NOSIG=
201905091300 METAR MRPV 091300Z 15007KT CAVOK 22/17 A3002 NOSIG=
201905091400 METAR MRPV 091400Z 12007KT CAVOK 24/17 A3002 NOSIG=
201905091500 METAR MRPV 091500Z 08010KT CAVOK 26/18 A3002 NOSIG=
201905091600 METAR MRPV 091600Z 09006KT 9999 FEW045 BKN140 28/17 A3002 NOSIG=
201905091700 METAR MRPV 091700Z 27008KT 9999 FEW045 BKN140 26/19 A3002 NOSIG=
201905091800 METAR MRPV 091800Z 29009KT 9999 SCT035 BKN140 25/19 A3001 NOSIG=
201905091900 METAR MRPV 091900Z 29007KT 9999 -RA SCT035 BKN120 26/19 A2998 NOSIG=
201905092000 METAR MRPV 092000Z 30010KT 9999 4500NW SHRA VCTS FEW020TCU SCT035 SCT060 25/18 A2996 RERA NOSIG=
201905092100 METAR MRPV 092100Z 31007KT 9999 DZ VCTS FEW015CB BKN035 22/19 A2996 RESHRA NOSIG=
201905092200 METAR MRPV 092200Z 30001KT 9999 4000NW -RA FEW015 SCT030 BKN060 21/18 A2997 RESH NOSIG=
201905092300 METAR MRPV 092300Z 32003KT 9999 4500NW -RA VCFG FEW015 BKN035 21/18 A2999 NOSIG=
201905100000 METAR MRPV 100000Z 04001KT 9999 VCFG FEW020 BKN080 20/18 A2999 NOSIG=
201905100100 METAR MRPV NIL=
201905100200 METAR MRPV NIL=
201905100300 METAR MRPV NIL=
201905100400 METAR MRPV NIL=
201905100500 METAR MRPV NIL=
201905100600 METAR MRPV NIL=
201905100700 METAR MRPV NIL=
201905100800 METAR MRPV NIL=
201905100900 METAR MRPV NIL=
201905101000 METAR MRPV NIL=
201905101100 METAR MRPV NIL=
201905101200 METAR MRPV 101200Z 17001KT CAVOK 20/18 A3001 NOSIG=
201905101300 METAR MRPV 101300Z 12005KT 9999 FEW040 SCT200 23/18 A3002 NOSIG=
201905101400 METAR MRPV 101400Z 09013KT 9999 FEW040 BKN180 24/18 A3003 NOSIG=
201905101500 METAR MRPV 101500Z 11009KT 9999 FEW040 BKN200 27/18 A3002 NOSIG=
201905101600 METAR MRPV 101600Z 08005KT 9999 SCT040 BKN120 27/17 A3002 NOSIG=
201905101700 METAR MRPV 101700Z 29007KT 9999 3000NW RA SCT035 BKN060 25/19 A3002 NOSIG=
201905101800 METAR MRPV 101800Z COR 30005KT 9999 3500NW RA VCTS FEW020CB SCT035 BKN060 24/19 A3001 NOSIG=
201905101900 METAR MRPV 101900Z 30003KT 9000 4000E SHRA VCTS FEW015TCU SCT015 BKN080 22/20 A2999 RETS NOSIG=
201905102000 METAR MRPV COR 102000Z 17002KT 9999 PRFG FEW010 SCT035 BKN100 23/19 A2997 RERA NOSIG=
201905102100 METAR MRPV 102100Z 33004KT 120V350 9999 RA BCFG FEW010 SCT040 BKN100 22/20 A2996 NOSIG=
201905102200 METAR MRPV 102200Z 31006KT 9999 BCFG FEW010 SCT040 BKN100 22/19 A2997 RERA NOSIG=
201905102300 METAR MRPV 102300Z 14002KT 9999 FEW040 BKN090 22/18 A2997 NOSIG=
201905110000 METAR MRPV 110000Z 36001KT 9999 BCFG FEW010 BKN100 22/18 A2998 NOSIG=
201905110100 METAR MRPV NIL=
201905110200 METAR MRPV NIL=
201905110300 METAR MRPV NIL=
201905110400 METAR MRPV NIL=
201905110500 METAR MRPV NIL=
201905110600 METAR MRPV NIL=
201905110700 METAR MRPV NIL=
201905110800 METAR MRPV NIL=
201905110900 METAR MRPV NIL=
201905111000 METAR MRPV NIL=
201905111100 METAR MRPV NIL=
201905111200 METAR MRPV 111200Z COR 32003KT 3000 -RA BR BKN015 SCT030 20/18 A3006 A2998 NOSIG=
201905111300 METAR MRPV 111300Z COR 31002KT 5000 -RA BR SCT010 BKN030 20/18 A3007 NOSIG=
201905111400 METAR MRPV 111400Z COR 10002KT 5000 BR FEW010 SCT030 BKN100 21/19 A3008 NOSIG=
201905111500 METAR MRPV 111500Z 06005KT 9999 VCFG SCT020 BKN100 22/18 A3007 NOSIG=
201905111600 METAR MRPV 111600Z 09003KT 9999 FEW035 BKN140 26/18 A3004 NOSIG=
201905111700 METAR MRPV 111700Z 33003KT 9999 FEW040 SCT120 BKN200 28/16 A3002 NOSIG=
201905111800 METAR MRPV 111800Z 09007KT 9999 FEW040 BKN180 28/16 A2999 NOSIG=
201905111900 METAR MRPV 111900Z 27007KT 9999 SCT040 BKN200 28/17 A2997 NOSIG=
201905112000 METAR MRPV 112000Z 26005KT 9999 SCT040 BKN200 28/17 A2995 NOSIG=
201905112100 METAR MRPV 112100Z 28011KT 9999 SCT040 BKN200 28/19 A2993 NOSIG=
201905112200 METAR MRPV 112200Z 29013KT 9999 FEW045 SCT120 BKN200 26/20 A2994 NOSIG=
201905112300 METAR MRPV 112300Z 30006KT 9999 FEW025 BKN120 24/20 A2996 NOSIG=
201905120000 METAR MRPV 120000Z 28005KT 9999 BKN025 23/20 A2998 NOSIG=
201905120100 METAR MRPV NIL=
201905120200 METAR MRPV NIL=
201905120300 METAR MRPV NIL=
201905120400 METAR MRPV NIL=
201905120500 METAR MRPV NIL=
201905120600 METAR MRPV NIL=
201905120700 METAR MRPV NIL=
201905120800 METAR MRPV NIL=
201905120900 METAR MRPV NIL=
201905121000 METAR MRPV NIL=
201905121100 METAR MRPV NIL=
201905121200 METAR MRPV 121200Z 35001KT 9000 4000E BCFG FEW010 BKN120 20/19 A3002 NOSIG=
201905121300 METAR MRPV 121300Z 33003KT 9999 4000N BCFG FEW010 BKN120 20/19 A3004 NOSIG=
201905121400 METAR MRPV 121400Z VRB01KT 9999 FEW025 BKN100 22/18 A3004 NOSIG=
201905121500 METAR MRPV 121500Z 08010KT CAVOK 27/15 A3003 NOSIG=
201905121600 METAR MRPV 121600Z 12004KT CAVOK 28/16 A3002 NOSIG=
201905121700 METAR MRPV 121700Z 28009KT 9999 SCT045 SCT200 28/18 A3001 NOSIG=
201905121800 METAR MRPV 121800Z 28007KT 9999 SCT040 27/19 A3000 NOSIG=
201905121900 METAR MRPV 121900Z 28010KT 9999 SCT040 28/19 A2997 NOSIG=
201905122000 METAR MRPV 122000Z 27010KT 9999 SHRA VCTS FEW025TCU SCT040 28/20 A2996 TEMPO TSRA=
201905122100 METAR MRPV 122100Z 07006KT 9999 2000E TSRA SCT010CB BKN040 23/17 A2997 TEMPO 4000=
201905122200 METAR MRPV 122200Z 35003KT 4500 -TSRA SCT008CB BKN090 19/18 A2999 NOSIG=
201905122300 METAR MRPV 122300Z VRB01KT 9999 4000S -RA VCTS FEW005 FEW020CB BKN100 19/19 A3000 RETS NOSIG=
201905130000 METAR MRPV 130000Z VRB01KT 9999 -RA BCFG FEW030 BKN100 20/19 A3003 NOSIG=
201905130100 METAR MRPV NIL=
201905130200 METAR MRPV NIL=
201905130300 METAR MRPV NIL=
201905130400 METAR MRPV NIL=
201905130500 METAR MRPV NIL=
201905130600 METAR MRPV NIL=
201905130700 METAR MRPV NIL=
201905130800 METAR MRPV NIL=
201905130900 METAR MRPV NIL=
201905131000 METAR MRPV NIL=
201905131100 METAR MRPV NIL=
201905131200 METAR MRPV 131200Z 05003KT 9999 FEW035 20/18 A3004 NOSIG=
201905131300 METAR MRPV 131300Z 10006KT CAVOK 23/18 A3005 NOSIG=
201905131400 METAR MRPV 131400Z 12006KT CAVOK 24/18 A3006 NOSIG=
201905131500 METAR MRPV 131500Z 12009KT 9999 FEW040 26/17 A3006 NOSIG=
201905131600 METAR MRPV 131600Z 09010KT 9999 FEW045 27/17 A3005 NOSIG=
201905131700 METAR MRPV 131700Z 08010KT 9999 SCT045 28/18 A3003 NOSIG=
201905131800 METAR MRPV 131800Z 09006KT 9999 SCT040 29/16 A3001 BECMG 25006KT=
201905131900 METAR MRPV 131900Z 29012KT 9999 FEW025 SCT040 27/20 A2998 NOSIG=
201905132000 METAR MRPV 132000Z 28010KT 9999 RA VCTS SCT025CB SCT040 26/20 A2997 TEMPO TS=
201905132100 METAR MRPV 132100Z 19005KT 9999 RA VCTS FEW020CB SCT035 SCT080 21/19 A2998 NOSIG=
201905132200 METAR MRPV 132200Z 35003KT 9999 SCT035 BKN100 23/20 A2997 RETSRA NOSIG=
201905132300 METAR MRPV 132300Z 31002KT 9999 BCFG FEW030 BKN100 21/20 A3000 NOSIG=
201905140000 METAR MRPV 140000Z 23001KT 9999 SCT035 BKN110 21/19 A3002 NOSIG=
201905140100 METAR MRPV NIL=
201905140200 METAR MRPV NIL=
201905140300 METAR MRPV NIL=
201905140400 METAR MRPV NIL=
201905140500 METAR MRPV NIL=
201905140600 METAR MRPV NIL=
201905140700 METAR MRPV NIL=
201905140800 METAR MRPV NIL=
201905140900 METAR MRPV NIL=
201905141000 METAR MRPV NIL=
201905141100 METAR MRPV NIL=
201905141200 METAR MRPV 141200Z 11006KT CAVOK 21/17 A3003 NOSIG=
201905141300 METAR MRPV 141300Z 10009KT CAVOK 22/18 A3005 NOSIG=
201905141400 METAR MRPV 141400Z 12005KT CAVOK 25/17 A3005 NOSIG=
201905141500 METAR MRPV 141500Z 31007KT 9999 FEW040 BKN200 24/19 A3007 NOSIG=
201905141600 METAR MRPV 141600Z 28010KT 9999 FEW035 SCT220 25/19 A3008 NOSIG=
201905141700 METAR MRPV 141700Z 29011KT 9999 FEW035 BKN200 26/19 A3006 NOSIG=
201905141800 METAR MRPV 141800Z 28009KT 9999 -RA SCT035 BKN160 26/19 A3004 NOSIG=
201905141900 METAR MRPV 141900Z 29009KT 8000 -RA SCT035 BKN200 26/20 A3001 NOSIG=
201905142000 METAR MRPV 142000Z COR 28009KT 8000 3500E SHRA FEW020TCU SCT030 BKN100 26/20 A2998 RERA NOSIG=
201905142100 METAR MRPV 142100Z 36003KT 2000 -SHRA FEW020TCU BKN030 24/21 A2997 NOSIG=
201905142200 METAR MRPV 142200Z 28008KT 2500 -DZ BR FEW010 SCT015 BKN060 20/19 A2998 RERA NOSIG=
201905142300 METAR MRPV 142300Z 04002KT 5000 -DZ BR FEW010 SCT020 BKN060 20/19 A2999 NOSIG=
201905150000 METAR MRPV 150000Z 18001KT 4000 +DZ BR SCT015 BKN030 20/19 A3001 NOSIG=
201905150100 METAR MRPV NIL=
201905150200 METAR MRPV NIL=
201905150300 METAR MRPV NIL=
201905150400 METAR MRPV NIL=
201905150500 METAR MRPV NIL=
201905150600 METAR MRPV NIL=
201905150700 METAR MRPV NIL=
201905150800 METAR MRPV NIL=
201905150900 METAR MRPV NIL=
201905151000 METAR MRPV NIL=
201905151100 METAR MRPV NIL=
201905151200 METAR MRPV 151200Z 08003KT 1000 FG FEW020 OVC250 19/19 A3005 NOSIG=
201905151300 METAR MRPV 151300Z 08002KT 5000 BR NSC 21/19 A3007 NOSIG=
201905151400 METAR MRPV 151400Z 07001KT CAVOK 24/19 A3006 NOSIG=
201905151500 METAR MRPV 151500Z 10006KT CAVOK 27/18 A3004 NOSIG=
201905151600 METAR MRPV 151600Z 08009KT 9999 FEW045 OVC250 28/18 A3004 NOSIG=
201905151700 METAR MRPV 151700Z 29009KT 350V290 9999 FEW045 BKN250 27/20 A3003 NOSIG=
201905151800 METAR MRPV 151800Z 29012KT 9999 SCT035 BKN250 28/21 A3000 NOSIG=
201905151900 METAR MRPV 151900Z 29013KT 8000 3500N TSRA SCT015CB SCT030 25/21 A2998 NOSIG=
201905152000 METAR MRPV 152000Z 09004KT 8000 SHRA FEW020TCU SCT045 BKN080 22/20 A2999 RETS NOSIG=
201905152100 METAR MRPV 152100Z VRB02KT 9999 SCT025 BKN100 23/19 A2998 RESHRA NOSIG=
201905152200 METAR MRPV 152200Z 07001KT 9999 SCT020 BKN045 23/19 A2997 NOSIG=
201905152300 METAR MRPV 152300Z COR 30006KT 2000 -RA BR VCTS FEW005CB BKN010 21/20 A3001 NOSIG=
201905160000 METAR MRPV 160000Z 25003KT 3000 RA VCTS FEW005 SCT030 BKN080 20/19 A3004 RETS NOSIG=
201905160100 METAR MRPV NIL=
201905160200 METAR MRPV NIL=
201905160300 METAR MRPV NIL=
201905160400 METAR MRPV NIL=
201905160500 METAR MRPV NIL=
201905160600 METAR MRPV NIL=
201905160700 METAR MRPV NIL=
201905160800 METAR MRPV NIL=
201905160900 METAR MRPV NIL=
201905161000 METAR MRPV NIL=
201905161100 METAR MRPV NIL=
201905161200 METAR MRPV 161200Z 15002KT CAVOK 19/17 A3004 NOSIG=
201905161300 METAR MRPV 161300Z 13005KT CAVOK 22/16 A3005 NOSIG=
201905161400 METAR MRPV 161400Z 09008KT 9999 FEW045 BKN200 24/18 A3007 NOSIG=
201905161500 METAR MRPV 161500Z 10010KT 9999 FEW045 BKN200 27/17 A3007 NOSIG=
201905161600 METAR MRPV 161600Z 09011KT CAVOK 28/17 A3007 NOSIG=
201905161700 METAR MRPV 161700Z 09009KT CAVOK 28/17 A3005 NOSIG=
201905161800 METAR MRPV 161800Z 09010KT 9999 FEW045 SCT200 29/16 A3003 NOSIG=
201905161900 METAR MRPV 161900Z 10005KT 9999 SCT045 29/17 A3000 BECMG 28005KT=
201905162000 METAR MRPV 162000Z 27013G26KT 9999 4000N TSRA SCT020CB SCT040 25/21 A2996 NOSIG=
201905162100 METAR MRPV 162100Z 29005KT 3000 -TSRA BCFG FEW010 SCT015CB BKN040 21/20 A3000 NOSIG=
201905162200 METAR MRPV 162200Z 29004KT 4000 1500N -RA BCFG VCTS SCT010 BKN030 21/18 A3000 RETS NOSIG=
201905162300 METAR MRPV 162300Z VRB02KT 1000 TSRA FEW015CB SCT025 BKN050 21/20 A3002 NOSIG=
201905170000 METAR MRPV 170000Z 01002KT 5000 FEW010 SCT040 BKN100 20/19 A3002 RETSRA NOSIG=
201905170100 METAR MRPV NIL=
201905170200 METAR MRPV NIL=
201905170300 METAR MRPV NIL=
201905170400 METAR MRPV NIL=
201905170500 METAR MRPV NIL=
201905170600 METAR MRPV NIL=
201905170700 METAR MRPV NIL=
201905170800 METAR MRPV NIL=
201905170900 METAR MRPV NIL=
201905171000 METAR MRPV NIL=
201905171100 METAR MRPV NIL=
201905171200 METAR MRPV 171200Z 12008KT 9999 FEW035 BKN200 21/17 A3002 NOSIG=
201905171300 METAR MRPV 171300Z 14006KT 9999 FEW035 OVC200 23/17 A3003 NOSIG=
201905171400 METAR MRPV 171400Z 12010KT 9999 FEW040 BKN200 25/17 A3004 NOSIG=
201905171500 METAR MRPV 171500Z 09011KT 9999 FEW035 BKN200 26/18 A3004 NOSIG=
201905171600 METAR MRPV 171600Z 07011KT 9999 SCT035 BKN200 27/17 A3004 NOSIG=
201905171700 METAR MRPV 171700Z 09009KT 9999 SCT035 SCT080 28/17 A3002 NOSIG=
201905171800 METAR MRPV 171800Z 09012KT 9999 BKN035 27/17 A3000 NOSIG=
201905171900 METAR MRPV 171900Z 09011KT 9999 SHRA SCT020TCU BKN035 27/18 A2997 NOSIG=
201905172000 METAR MRPV 172000Z 33004KT 2500 1000NW TSRA BKN015CB 21/18 A2999 NOSIG=
201905172100 METAR MRPV 172100Z 09002KT 6000 RA FEW025 OVC080 20/18 A2997 WSR09 NOSIG=
201905172200 METAR MRPV 172200Z 14004KT 9999 -RA FEW010 SCT035 OVC080 21/19 A2997 WSR09 NOSIG=
201905172300 METAR MRPV 172300Z 11004KT 9999 -RA FEW010 OVC080 21/18 A2997 WSR27 NOSIG=
201905180000 METAR MRPV 180000Z 08003KT 9999 FEW035 OVC080 21/19 A2997 WSR27 NOSIG=
201905180100 METAR MRPV NIL=
201905180200 METAR MRPV NIL=
201905180300 METAR MRPV NIL=
201905180400 METAR MRPV NIL=
201905180500 METAR MRPV NIL=
201905180600 METAR MRPV NIL=
201905180700 METAR MRPV NIL=
201905180800 METAR MRPV NIL=
201905180900 METAR MRPV NIL=
201905181000 METAR MRPV NIL=
201905181100 METAR MRPV NIL=
201905181200 METAR MRPV 181200Z VRB01KT 9999 FEW035 BKN200 19/18 A3001 NOSIG=
201905181300 METAR MRPV 181300Z 34002KT 9999 4000W FEW010 BKN200 21/18 A3005 NOSIG=
201905181400 METAR MRPV 181400Z 32004KT 9999 FEW035 SCT120 BKN200 23/18 A3005 NOSIG=
201905181500 METAR MRPV 181500Z 30006KT 9999 4000W FEW035 SCT120 OVC200 23/19 A3005 NOSIG=
201905181600 METAR MRPV 181600Z 25005KT 9999 FEW035 SCT120 OVC200 25/19 A3004 NOSIG=
201905181700 METAR MRPV 181700Z 08007KT 9999 SCT045 SCT200 26/17 A3003 NOSIG=
201905181800 METAR MRPV 181800Z 09004KT 9999 SCT045 SCT200 27/16 A3000 NOSIG=
201905181900 METAR MRPV 181900Z 27007KT 9999 SCT040 BKN200 26/20 A2997 NOSIG=
201905182000 METAR MRPV 182000Z 27005KT 9999 -TSRA FEW010CB SCT035 BKN160 22/19 A2995 NOSIG=
201905182100 METAR MRPV 182100Z 06004KT 280V050 9999 RA BCFG FEW005 SCT040 BKN120 21/18 A2995 NOSIG=
201905182200 METAR MRPV 182200Z 14003KT 5000 RA BR VCTS FEW015CB BKN035 20/18 A2996 NOSIG=
201905182300 METAR MRPV 182300Z 13005KT 8000 RA FEW045 BKN100 19/18 A2997 NOSIG=
201905190000 METAR MRPV 190000Z 11006KT 9999 -RA FEW045 BKN100 20/18 A3000 NOSIG=
201905190100 METAR MRPV NIL=
201905190200 METAR MRPV NIL=
201905190300 METAR MRPV NIL=
201905190400 METAR MRPV NIL=
201905190500 METAR MRPV NIL=
201905190600 METAR MRPV NIL=
201905190700 METAR MRPV NIL=
201905190800 METAR MRPV NIL=
201905190900 METAR MRPV NIL=
201905191000 METAR MRPV NIL=
201905191100 METAR MRPV NIL=
201905191200 METAR MRPV 191200Z 10004KT CAVOK 19/18 A2999 NOSIG=
201905191300 METAR MRPV 191300Z 11006KT CAVOK 22/16 A3000 NOSIG=
201905191400 METAR MRPV 191400Z 10006KT CAVOK 25/17 A3000 NOSIG=
201905191500 METAR MRPV 191500Z 08006KT CAVOK 26/16 A3000 NOSIG=
201905191600 METAR MRPV 191600Z 28011KT 9999 FEW045 25/19 A3002 NOSIG=
201905191700 METAR MRPV 191700Z 28010KT 9999 FEW040 26/19 A3002 NOSIG=
201905191800 METAR MRPV 191800Z 28010KT 9999 SCT040 27/20 A3000 NOSIG=
201905191900 METAR MRPV 191900Z 25006KT 9999 VCSH SCT030TCU SCT100 25/19 A2998 NOSIG=
201905192000 METAR MRPV 192000Z 28007KT 9999 SCT035 SCT120 27/19 A2995 NOSIG=
201905192100 METAR MRPV 192100Z 28009KT 9999 4500SE RA SCT025 BKN100 25/19 A2993 NOSIG=
201905192200 METAR MRPV 192200Z 30011KT 9999 RA FEW005 SCT015 BKN080 22/20 A2994 NOSIG=
201905192300 METAR MRPV 192300Z 32006KT 4500 -RA BR FEW005 BKN010 20/19 A2998 NOSIG=
201905200000 METAR MRPV 200000Z 32004KT 4500 RA BR FEW005 BKN010 20/19 A3000 NOSIG=
201905200100 METAR MRPV NIL=
201905200200 METAR MRPV NIL=
201905200300 METAR MRPV NIL=
201905200400 METAR MRPV NIL=
201905200500 METAR MRPV NIL=
201905200600 METAR MRPV NIL=
201905200700 METAR MRPV NIL=
201905200800 METAR MRPV NIL=
201905200900 METAR MRPV NIL=
201905201000 METAR MRPV NIL=
201905201100 METAR MRPV NIL=
201905201200 METAR MRPV COR 201200Z VRB02KT CAVOK 19/17 A3001 NOSIG=
201905201300 METAR MRPV 201300Z 35001KT CAVOK 21/18 A3003 NOSIG=
201905201400 METAR MRPV 201400Z 30005KT 9999 FEW030 BKN180 22/18 A3004 NOSIG=
201905201500 METAR MRPV 201500Z 36001KT 9999 FEW035 BKN140 25/18 A3004 NOSIG=
201905201600 METAR MRPV 201600Z 34003KT 9999 FEW035 BKN160 26/18 A3003 NOSIG=
201905201700 METAR MRPV 201700Z 28011KT 9999 BKN030 SCT100 25/20 A3003 NOSIG=
201905201800 METAR MRPV 201800Z 29011KT 9999 SHRA VCTS FEW015CB SCT030 BKN140 25/19 A3001 NOSIG=
201905201900 METAR MRPV 201900Z 31007KT 9999 VCSH SCT020TCU BKN140 25/18 A2998 RESHRA NOSIG=
201905202000 METAR MRPV 202000Z 29010KT 9999 RA BKN025 25/19 A2996 NOSIG=
201905202100 METAR MRPV 202100Z 28012KT 9999 SHRA SCT020TCU SCT120 25/19 A2994 NOSIG=
201905202200 METAR MRPV 202200Z 29010KT 9999 SCT020 SCT120 24/19 A2993 NOSIG=
201905202300 METAR MRPV 202300Z 29011KT 9999 -DZ FEW015 SCT030 BKN200 24/20 A2994 NOSIG=
201905210000 METAR MRPV 210000Z 29010KT 8000 BCFG SCT008 BKN120 21/20 A2997 NOSIG=
201905210100 METAR MRPV NIL=
201905210200 METAR MRPV NIL=
201905210300 METAR MRPV NIL=
201905210400 METAR MRPV NIL=
201905210500 METAR MRPV NIL=
201905210600 METAR MRPV NIL=
201905210700 METAR MRPV NIL=
201905210800 METAR MRPV NIL=
201905210900 METAR MRPV NIL=
201905211000 METAR MRPV NIL=
201905211100 METAR MRPV NIL=
201905211200 METAR MRPV 211200Z 14001KT CAVOK 19/18 A2997 NOSIG=
201905211300 METAR MRPV 211300Z VRB02KT 9999 FEW015 SCT120 BKN200 22/18 A3000 NOSIG=
201905211400 METAR MRPV 211400Z 29005KT 9999 SCT015 SCT200 22/18 A3001 NOSIG=
201905211500 METAR MRPV 211500Z 30007KT 9999 SCT015 SCT200 23/18 A3002 NOSIG=
201905211600 METAR MRPV 211600Z 29008KT 9999 SCT020 25/18 A3000 NOSIG=
201905211700 METAR MRPV 211700Z 30010KT 9999 SCT030 26/18 A2998 NOSIG=
201905211800 METAR MRPV 211800Z 29011KT 9999 SCT030 26/19 A2997 NOSIG=
201905211900 METAR MRPV 211900Z 28010KT 9999 SCT030 SCT200 26/19 A2995 NOSIG=
201905212000 METAR MRPV 212000Z 28010KT 9999 SCT025 SCT120 26/21 A2992 NOSIG=
201905212100 METAR MRPV 212100Z 28009KT 5000 +DZ SCT020 BKN060 22/20 A2993 NOSIG=
201905212200 METAR MRPV COR 212200Z 31007KT 4000 DZ BR BKN010 SCT060 21/20 A2993 REDZ NOSIG=
201905212215 METAR MRPV 212215Z 31007KT 2000 DZ BR BKN005 SCT015 21/20 A2993 NOSIG=
201905212300 METAR MRPV 212300Z 31007KT 2000 RA BR BKN005 20/20 A2995 REDZ NOSIG=
201905220000 METAR MRPV 220000Z 29006KT 2000 RA BR BKN010 20/19 A2996 NOSIG=
201905220100 METAR MRPV NIL=
201905220200 METAR MRPV NIL=
201905220300 METAR MRPV NIL=
201905220400 METAR MRPV NIL=
201905220500 METAR MRPV NIL=
201905220600 METAR MRPV NIL=
201905220700 METAR MRPV NIL=
201905220800 METAR MRPV NIL=
201905220900 METAR MRPV NIL=
201905221000 METAR MRPV NIL=
201905221100 METAR MRPV NIL=
201905221200 METAR MRPV 221200Z 34002KT 5000 -DZ BR SCT010 BKN040 19/18 A3002 NOSIG=
201905221300 METAR MRPV 221300Z 32004KT 5000 -DZ BR SCT010 BKN040 19/18 A3003 NOSIG=
201905221400 METAR MRPV 221400Z 34004KT 5000 BR SCT010 BKN080 20/19 A3004 NOSIG=
201905221500 METAR MRPV 221500Z 32005KT 5000 DZ BCFG FEW010 BKN020 21/19 A3006 NOSIG=
201905221600 METAR MRPV 221600Z 30006KT 9999 BCFG SCT015 BKN060 21/19 A3006 REDZ NOSIG=
201905221700 METAR MRPV 221700Z 30007KT 9999 SCT025 BKN080 23/19 A3006 NOSIG=
201905221800 METAR MRPV COR 221800Z 30009KT 9999 SCT020 BKN140 23/19 A3003 NOSIG=
201905221900 METAR MRPV 221900Z 30010KT 9999 4000SW RA BCFG FEW015 BKN040 24/18 A3001 NOSIG=
201905222000 METAR MRPV 222000Z 27007KT 9999 4000N RA BKN025 20/19 A3001 NOSIG=
201905222100 METAR MRPV 222100Z 32008KT 9999 SCT030 SCT140 22/19 A2999 RERA NOSIG=
201905222200 METAR MRPV 222200Z 29009KT 9999 SCT035 BKN140 23/18 A2998 NOSIG=
201905222300 METAR MRPV 222300Z COR 29010KT 3000 RA BR FEW005 BKN035 20/19 A3000 NOSIG=
201905230000 METAR MRPV 230000Z 32004KT 3000 BR SCT005 OVC030 20/19 A3002 RERA NOSIG=
201905230100 METAR MRPV NIL=
201905230200 METAR MRPV NIL=
201905230300 METAR MRPV NIL=
201905230400 METAR MRPV NIL=
201905230500 METAR MRPV NIL=
201905230600 METAR MRPV NIL=
201905230700 METAR MRPV NIL=
201905230800 METAR MRPV NIL=
201905230900 METAR MRPV NIL=
201905231000 METAR MRPV NIL=
201905231100 METAR MRPV NIL=
201905231200 METAR MRPV 231200Z VRB02KT 9999 RA OVC025 19/18 A3002 NOSIG=
201905231300 METAR MRPV 231300Z 11003KT 9999 FEW035 BKN140 21/18 A3004 RERA NOSIG=
201905231400 METAR MRPV 231400Z 09005KT 9999 FEW035 SCT140 BKN200 23/17 A3004 NOSIG=
201905231500 METAR MRPV 231500Z 30003KT 9999 FEW035 BKN200 25/17 A3004 NOSIG=
201905231600 METAR MRPV 231600Z 29007KT 9999 FEW035 BKN200 26/17 A3004 NOSIG=
201905231700 METAR MRPV 231700Z 29008KT 9999 FEW035 SCT160 BKN200 26/18 A3002 NOSIG=
201905231800 METAR MRPV 231800Z 29012KT 9999 FEW035 BKN160 27/20 A3000 NOSIG=
201905231900 METAR MRPV 231900Z 28013KT 9999 RA VCSH FEW020TCU SCT035 BKN140 26/21 A2997 NOSIG=
201905232000 METAR MRPV 232000Z 29012KT 9999 RA BCFG FEW003 SCT035 BKN100 23/20 A2996 NOSIG=
201905232100 METAR MRPV 232100Z 31010KT 9000 3500W RA BCFG FEW003 BKN015 22/21 A2996 NOSIG=
201905232200 METAR MRPV 232200Z 32006KT 9999 4000SW BCFG SCT005 BKN035 21/20 A2996 RERA NOSIG=
201905232300 METAR MRPV 232300Z 26003KT 9999 4000SW BCFG FEW005 SCT015 BKN030 21/20 A2997 NOSIG=
201905240000 METAR MRPV 240000Z 30004KT 9999 -RA BCFG FEW005 SCT030 BKN100 21/19 A2999 NOSIG=
201905240100 METAR MRPV NIL=
201905240200 METAR MRPV NIL=
201905240300 METAR MRPV NIL=
201905240400 METAR MRPV NIL=
201905240500 METAR MRPV NIL=
201905240600 METAR MRPV NIL=
201905240700 METAR MRPV NIL=
201905240800 METAR MRPV NIL=
201905240900 METAR MRPV NIL=
201905241000 METAR MRPV NIL=
201905241100 METAR MRPV NIL=
201905241200 METAR MRPV 241200Z 13001KT 9999 BCFG FEW015 BKN120 19/19 A3000 NOSIG=
201905241300 METAR MRPV 241300Z VRB01KT 9999 FEW025 BKN100 22/19 A3002 NOSIG=
201905241400 METAR MRPV 241400Z 30005KT 9999 4500N RA BCFG FEW020 BKN100 21/19 A3004 NOSIG=
201905241500 METAR MRPV 241500Z 28002KT 9999 SCT025 BKN100 22/19 A3005 RERA NOSIG=
201905241600 METAR MRPV 241600Z 29005KT 9999 FEW025 SCT120 BKN200 24/19 A3003 NOSIG=
201905241700 METAR MRPV 241700Z 33004KT 9999 SCT035 BKN100 26/18 A3002 NOSIG=
201905241800 METAR MRPV 241800Z 27007KT 9999 4000SW RA SCT025 BKN100 25/20 A3001 NOSIG=
201905241900 METAR MRPV 241900Z COR 28008KT 8000 RA SCT035 OVC100 22/20 A3000 NOSIG=
201905242000 METAR MRPV 242000Z 34005KT 7000 -RA BCFG FEW007 OVC080 20/19 A2999 NOSIG=
201905242100 METAR MRPV 242100Z 34003KT 9999 -RA VCFG FEW005 SCT035 BKN100 21/19 A2999 NOSIG=
201905242200 METAR MRPV 242200Z 35002KT 9999 -RA FEW008 OVC100 21/20 A2998 NOSIG=
201905242300 METAR MRPV 242300Z 09002KT 9999 -RA FEW010 OVC100 21/19 A3000 NOSIG=
201905250000 METAR MRPV 250000Z 11002KT 9999 FEW010 OVC100 20/19 A3001 NOSIG=
201905250100 METAR MRPV NIL=
201905250200 METAR MRPV NIL=
201905250300 METAR MRPV NIL=
201905250400 METAR MRPV NIL=
201905250500 METAR MRPV NIL=
201905250600 METAR MRPV NIL=
201905250700 METAR MRPV NIL=
201905250800 METAR MRPV NIL=
201905250900 METAR MRPV NIL=
201905251000 METAR MRPV NIL=
201905251100 METAR MRPV NIL=
201905251200 METAR MRPV 251200Z 10001KT CAVOK 18/16 A2997 NOSIG=
201905251300 METAR MRPV 251300Z 09006KT CAVOK 22/17 A2999 NOSIG=
201905251400 METAR MRPV 251400Z 28005KT 040V300 CAVOK 24/18 A3001 NOSIG=
201905251500 METAR MRPV 251500Z 29005KT 9999 FEW040 SCT140 BKN200 24/18 A3003 NOSIG=
201905251600 METAR MRPV 251600Z 29011KT 9999 SCT030 SCT200 24/19 A3003 NOSIG=
201905251700 METAR MRPV 251700Z 28007KT 9999 SCT035 26/19 A3001 NOSIG=
201905251800 METAR MRPV 251800Z 28007KT 9999 SCT030 26/19 A2999 NOSIG=
201905251900 METAR MRPV 251900Z 28007KT 9999 -RA FEW030 BKN100 25/19 A2997 NOSIG=
201905252000 METAR MRPV 252000Z 29014KT 9999 SCT035 SCT080 25/19 A2995 NOSIG=
201905252100 METAR MRPV 252100Z 29015KT 1500 -RA MIFG BKN004 21/20 A2996 NOSIG=
201905252200 METAR MRPV 252200Z 31006KT 3000 -RA BR FEW001 BKN005 20/19 A2997 NOSIG=
201905252300 METAR MRPV 252300Z 32005KT 4000 -RA BR SCT002 BKN010 20/19 A3000 NOSIG=
201905260000 METAR MRPV 260000Z 32004KT 8000 3500S BCFG BKN008 20/19 A3002 NOSIG=
201905260100 METAR MRPV NIL=
201905260200 METAR MRPV NIL=
201905260300 METAR MRPV NIL=
201905260400 METAR MRPV NIL=
201905260500 METAR MRPV NIL=
201905260600 METAR MRPV NIL=
201905260700 METAR MRPV NIL=
201905260800 METAR MRPV NIL=
201905260900 METAR MRPV NIL=
201905261000 METAR MRPV NIL=
201905261100 METAR MRPV NIL=
201905261200 METAR MRPV 261200Z 31004KT 4500 BR BKN004 19/18 A3004 NOSIG=
201905261300 METAR MRPV 261300Z 31001KT 7000 PRFG SCT005 BKN010 20/18 A3005 NOSIG=
201905261400 METAR MRPV 261400Z 09002KT 9999 SCT010 SCT100 21/19 A3005 NOSIG=
201905261500 METAR MRPV 261500Z 33003KT 100V310 9999 FEW025 BKN100 24/18 A3004 NOSIG=
201905261600 METAR MRPV 261600Z 28003KT 9999 FEW025 BKN100 24/19 A3004 NOSIG=
201905261700 METAR MRPV 261700Z 26005KT 9999 FEW025 BKN100 23/19 A3003 NOSIG=
201905261800 METAR MRPV 261800Z 32006KT 9999 SCT025 BKN100 25/19 A3001 TEMPO RA=
201905261900 METAR MRPV COR 261900Z 29004T 9999 -RA BKN025 SCT100 24/20 A3000 NOSIG=
201905262000 METAR MRPV 262000Z 29008KT 9999 BKN030 SCT080 25/19 A2997 NOSIG=
201905262100 METAR MRPV 262100Z 29011KT 9999 FEW020 SCT030 BKN100 24/19 A2996 NOSIG=
201905262200 METAR MRPV COR 262200Z 28010KT 9999 -RA BCFG FEW015 SCT030 BKN100 23/19 A2998 NOSIG=
201905262300 METAR MRPV 262300Z 29010KT 6000 PRFG SCT015 BKN030 21/19 A2999 NOSIG=
201905270000 METAR MRPV COR 270000Z 29007KT 4000 BR BKN010 SCT030 21/19 A3000 NOSIG=
201905270100 METAR MRPV NIL=
201905270200 METAR MRPV NIL=
201905270300 METAR MRPV NIL=
201905270400 METAR MRPV NIL=
201905270500 METAR MRPV NIL=
201905270600 METAR MRPV NIL=
201905270700 METAR MRPV NIL=
201905270800 METAR MRPV NIL=
201905270900 METAR MRPV NIL=
201905271000 METAR MRPV NIL=
201905271100 METAR MRPV NIL=
201905271200 METAR MRPV COR 271200Z VRB02KT 4000 -RA BCFG FEW005 BKN015 19/19 A3000 NOSIG=
201905271300 METAR MRPV 271300Z 33003KT 3000 -RA BR BKN010 SCT025 19/19 A3004 NOSIG=
201905271400 METAR MRPV 271400Z 13003KT 9999 -RA BCFG FEW010 SCT025 BKN100 20/19 A3004 NOSIG=
201905271500 METAR MRPV 271500Z 30003KT 120V320 9999 -RA BCFG FEW015 SCT040 BKN100 21/20 A3005 NOSIG=
201905271600 METAR MRPV 271600Z 28004KT 4000 DZ BR FEW015 BKN030 21/20 A3006 NOSIG=
201905271700 METAR MRPV COR 271700Z 28007KT 4000 -DZ BR SCT015 BKN030 21/19 A3006 NOSIG=
201905271800 METAR MRPV 271800Z 29006KT 8000 VCFG SCT010 BKN040 22/19 A3003 NOSIG=
201905271900 METAR MRPV 271900Z 28006KT 8000 VCFG SCT010 BKN040 22/19 A3002 NOSIG=
201905272000 METAR MRPV 272000Z 28006KT 8000 VCFG FEW006 BKN012 21/19 A3001 NOSIG=
201905272100 METAR MRPV 272100Z 28008KT 1000 RA BR OVC004 20/19 A3000 NOSIG=
201905272200 METAR MRPV 272200Z 30004KT 9999 4000S -RA BCFG FEW004 BKN010 19/18 A3001 NOSIG=
201905272300 METAR MRPV 272300Z 14004KT 9999 VCFG SCT010 BKN100 19/18 A2998 NOSIG=
201905280000 METAR MRPV 280000Z VRB02KT CAVOK 19/18 A2997 NOSIG=
201905280100 METAR MRPV NIL=
201905280200 METAR MRPV NIL=
201905280300 METAR MRPV NIL=
201905280400 METAR MRPV NIL=
201905280500 METAR MRPV NIL=
201905280600 METAR MRPV NIL=
201905280700 METAR MRPV NIL=
201905280800 METAR MRPV NIL=
201905280900 METAR MRPV NIL=
201905281000 METAR MRPV NIL=
201905281100 METAR MRPV NIL=
201905281200 METAR MRPV 281200Z VRB02KT 9999 VCFG FEW015 BKN200 18/17 A3001 NOSIG=
201905281300 METAR MRPV 281300Z 35001KT 9999 FEW015 SCT140 19/18 A3004 NOSIG=
201905281400 METAR MRPV 281400Z 32003KT 9999 FEW025 BKN180 21/17 A3004 NOSIG=
201905281500 METAR MRPV 281500Z 32003KT 9999 FEW035 BKN200 23/18 A3005 NOSIG=
201905281600 METAR MRPV 281600Z 29005KT 9999 FEW035 SCT140 BKN200 24/18 A3004 NOSIG=
201905281700 METAR MRPV 281700 31007KT 9999 SCT035 BKN120 25/18 A3002 NOSIG=
201905281800 METAR MRPV 281800Z 30011KT 9999 SCT025 BKN080 24/20 A3001 NOSIG=
201905281900 METAR MRPV 281900Z 30012KT 9999 SCT025 BKN100 24/20 A2999 NOSIG=
201905282000 METAR MRPV 282000Z 29009KT 4000 -RA BKN010 21/20 A2998 NOSIG=
201905282100 METAR MRPV 282100Z 34005KT 9999 RA SCT015 BKN080 22/19 A2997 NOSIG=
201905282200 METAR MRPV 282200Z 30007KT 9999 BKN004 21/19 A2997 NOSIG=
201905282300 METAR MRPV 282300Z 30009KT 3000 RA BKN004 SCT100 20/19 A2999 NOSIG=
201905290000 METAR MRPV 290000Z 30009KT 5000 BCFG BKN004 SCT100 20/19 A2999 RERA NOSIG=
201905290100 METAR MRPV NIL=
201905290200 METAR MRPV NIL=
201905290300 METAR MRPV NIL=
201905290400 METAR MRPV NIL=
201905290500 METAR MRPV NIL=
201905290600 METAR MRPV NIL=
201905290700 METAR MRPV NIL=
201905290800 METAR MRPV NIL=
201905290900 METAR MRPV NIL=
201905291000 METAR MRPV NIL=
201905291100 METAR MRPV NIL=
201905291200 METAR MRPV 291200Z 13002KT 9999 -RA FEW030 OVC100 18/18 A3004 NOSIG=
201905291300 METAR MRPV 291300Z VRB02KT 9999 -RA NSC 19/18 A3005 NOSIG=
201905291400 METAR MRPV 291400Z VRB02KT 9999 -RA NSC 20/19 A3007 NOSIG=
201905291500 METAR MRPV 291500Z 14001KT 9999 FEW035 OVC100 22/19 A3007 NOSIG=
201905291600 METAR MRPV 291600Z 26002KT 9999 FEW035 BKN120 24/18 A3006 NOSIG=
201905291700 METAR MRPV 291700Z 28007KT 9999 FEW035 BKN120 24/17 A3005 NOSIG=
201905291800 METAR MRPV 291800Z 29010KT 9999 FEW035 BKN140 24/17 A3005 NOSIG=
201905291900 METAR MRPV 291900Z 30008KT 9999 FEW035 BKN120 24/18 A3003 NOSIG=
201905292000 METAR MRPV 292000Z 28008KT 9999 FEW020 BKN120 23/18 A3001 NOSIG=
201905292100 METAR MRPV 292100Z 29008KT 9999 FEW025 BKN120 24/19 A2999 NOSIG=
201905292200 METAR MRPV 292200Z 31005KT 9999 FEW025 BKN120 24/19 A2997 NOSIG=
201905292300 METAR MRPV 292300Z 26005KT 9999 FEW025 BKN120 23/19 A2998 NOSIG=
201905300000 METAR MRPV 300000Z 28006KT 9999 SCT010 SCT120 21/19 A3001 NOSIG=
201905300100 METAR MRPV NIL=
201905300200 METAR MRPV NIL=
201905300300 METAR MRPV NIL=
201905300400 METAR MRPV NIL=
201905300500 METAR MRPV NIL=
201905300600 METAR MRPV NIL=
201905300700 METAR MRPV NIL=
201905300800 METAR MRPV NIL=
201905300900 METAR MRPV NIL=
201905301000 METAR MRPV NIL=
201905301100 METAR MRPV NIL=
201905301200 METAR MRPV 301200Z 10002KT 9999 FEW045 BKN120 19/18 A3006 NOSIG=
201905301300 METAR MRPV 301300Z 06001KT 9999 FEW030 BKN120 21/18 A3009 NOSIG=
201905301400 METAR MRPV 301400Z VRB01KT 9999 FEW030 BKN120 23/17 A3010 NOSIG=
201905301500 METAR MRPV 301500Z VRB02KT 9999 FEW040 BKN140 24/17 A3010 NOSIG=
201905301600 METAR MRPV 301600Z 29004KT 9999 FEW040 BKN140 26/18 A3009 NOSIG=
201905301700 METAR MRPV 301700Z 03003KT 9999 FEW045 BKN160 28/17 A3007 NOSIG=
201905301800 METAR MRPV 301800Z 27008KT 9999 SHRA SCT020TCU SCT045 27/18 A3005 NOSIG=
201905301807 METAR MRPV 301807Z 28010KT 9999 TSRA SCT015CB SCT045 25/19 A3005 NOSIG=
201905301900 METAR MRPV 301900Z 09008KT 9999 RA BKN025 23/19 A3004 RETS NOSIG=
201905301918 METAR MRPV 301918Z 10009KT 4000 +RA BKN020 21/19 A3004 NOSIG=
201905301935 METAR MRPV 301935Z 11007KT 1500 +RA OVC020 20/19 A3004 NOSIG=
201905301940 METAR MRPV 301940Z 07007KT 0700 TSRA OVC020CB 20/19 A3004 NOSIG=
201905301950 METAR MRPV 301950Z 07009KT 0700 +TSRA OVC020CB 19/19 A3004 NOSIG=
201905302000 METAR MRPV 302000Z 03006KT 1000 +TSRA OVC020CB 20/19 A3003 NOSIG=
201905302100 METAR MRPV 302100Z 20002KT 6000 RA SCT040 BKN080 20/19 A3003 RETS NOSIG=
201905302152 METAR MRPV 302152Z 34003KT 5000 RA SCT040 OVC080 20/19 A3004 NOSIG=
201905302200 METAR MRPV 302200Z 33002KT 5000 RA FEW010 OVC080 20/19 A3004 NOSIG=
201905302230 METAR MRPV 302230Z 12004KT 4000 RA FEW035 OVC100 20/19 A3003 NOSIG=
201905302300 METAR MRPV 302300Z 13005KT 9999 -RA FEW040 OVC120 20/19 A3002 NOSIG=
201905310000 METAR MRPV 310000Z 12004KT CAVOK 20/18 A3002 NOSIG=
201905310100 METAR MRPV NIL=
201905310200 METAR MRPV NIL=
201905310300 METAR MRPV NIL=
201905310400 METAR MRPV NIL=
201905310500 METAR MRPV NIL=
201905310600 METAR MRPV NIL=
201905310700 METAR MRPV NIL=
201905310800 METAR MRPV NIL=
201905310900 METAR MRPV NIL=
201905311000 METAR MRPV NIL=
201905311100 METAR MRPV NIL=
201905311200 METAR MRPV 311200Z 07002KT CAVOK 19/18 A3008 NOSIG=
201905311300 METAR MRPV 311300Z 09001KT CAVOK 20/19 A3009 NOSIG=
201905311400 METAR MRPV 311400Z 11005KT CAVOK 21/18 A3010 NOSIG=
201905311500 METAR MRPV 311500Z 12005KT CAVOK 24/17 A3011 NOSIG=
201905311600 METAR MRPV 311600Z 11005KT CAVOK 26/17 A3010 NOSIG=
201905311700 METAR MRPV 311700Z 10007KT 9999 FEW045 BKN200 28/16 A3008 NOSIG=
201905311800 METAR MRPV 311800Z 29005KT 9999 SCT045 SCT120 28/20 A3006 NOSIG=
201905311900 METAR MRPV 311900Z 29010KT 9999 4500NE TSRA FEW025CB BKN040 26/18 A3004 NOSIG=
201905312000 METAR MRPV 312000Z 05002KT 9999 -RA FEW020 BKN040 23/20 A3003 RETS NOSIG=
201905312100 METAR MRPV 312100Z 29007KT 9999 VCTS VCSH FEW010CB SCT025TCU SCT120 23/21 A3001 NOSIG=
201905312200 METAR MRPV 312200Z 28009KT 9999 3000SW RA BCFG VCTS FEW005 SCT10CB SCT025 23/21 A3000 RESH TEMPO BKN010=
201905312300 METAR MRPV 312300Z 29003KT 8000 -RA BCFG VCTS FEW005 BKN010CB 21/21 A3002 NOSIG=
201906010000 METAR MRPV 010000Z 25001KT 9999 3000W RA BCFG FEW005 BKN010 21/20 A3004 NOSIG=
201906010100 METAR MRPV NIL=
201906010200 METAR MRPV NIL=
201906010300 METAR MRPV NIL=
201906010400 METAR MRPV NIL=
201906010500 METAR MRPV NIL=
201906010600 METAR MRPV NIL=
201906010700 METAR MRPV NIL=
201906010800 METAR MRPV NIL=
201906010900 METAR MRPV NIL=
201906011000 METAR MRPV NIL=
201906011100 METAR MRPV NIL=
201906011200 METAR MRPV 011200Z 07003KT CAVOK 19/17 A3003 NOSIG=
201906011300 METAR MRPV 011300Z 09005KT CAVOK 23/18 A3003 NOSIG=
201906011400 METAR MRPV 011400Z 08007KT CAVOK 25/17 A3005 NOSIG=
201906011500 METAR MRPV 011500Z 28007KT CAVOK 24/19 A3006 NOSIG=
201906011600 METAR MRPV 011600Z 28006KT 9999 FEW045 25/19 A3005 NOSIG=
201906011700 METAR MRPV 011700Z 29008KT 9999 FEW040 27/19 A3004 NOSIG=
201906011800 METAR MRPV 011800Z 29009KT 9999 SCT040 27/19 A3002 NOSIG=
201906011900 METAR MRPV 011900Z 29009KT 9999 FEW020TCU SCT030 26/19 A3000 NOSIG=
201906012000 METAR MRPV 012000Z 27009KT 9999 VCSH SCT020TCU SCT030 27/21 A2998 NOSIG=
201906012100 METAR MRPV 012100Z 27010KT 9999 3000S RA BKN030 25/21 A2996 NOSIG=
201906012200 METAR MRPV 012200Z 28005KT 9999 SCT030 SCT080 24/20 A2996 RERA NOSIG=
201906012300 METAR MRPV 012300Z 29006KT 9999 BCFG VCSH FEW015 SCT020TCU SCT060 24/20 A2997 NOSIG=
201906020000 METAR MRPV COR 020000Z 29004KT 9999 4000N BCFG -RA FEW010 SCT030 22/21 A3000 NOSIG=
201906020100 METAR MRPV NIL=
201906020200 METAR MRPV NIL=
201906020300 METAR MRPV NIL=
201906020400 METAR MRPV NIL=
201906020500 METAR MRPV NIL=
201906020600 METAR MRPV NIL=
201906020700 METAR MRPV NIL=
201906020800 METAR MRPV NIL=
201906020900 METAR MRPV NIL=
201906021000 METAR MRPV NIL=
201906021100 METAR MRPV NIL=
201906021200 METAR MRPV 021200Z 10004KT CAVOK 21/17 A3001 NOSIG=
201906021300 METAR MRPV 021300Z 13007KT CAVOK 23/17 A3001 NOSIG=
201906021400 METAR MRPV 021400Z 11008KT CAVOK 25/17 A3002 NOSIG=
201906021500 METAR MRPV 021500Z 12008KT CAVOK 27/17 A3002 NOSIG=
201906021600 METAR MRPV 021600Z 08008KT CAVOK 28/18 A3003 NOSIG=
201906021700 METAR MRPV 021700Z 04004KT 9999 FEW045 29/17 A3002 BECMG 30005KT=
201906021725 METAR MRPV 021725Z 32008KT 9999 FEW045 26/20 A3001 NOSIG=
201906021800 METAR MRPV 021800Z 29010KT 9999 SCT040 27/20 A3001 NOSIG=
201906021900 METAR MRPV 021900Z 27009KT 9999 SCT035 27/20 A2999 NOSIG=
201906022000 METAR MRPV COR 022000Z 28011KT 9999 FEW020 SCT035 26/21 A2997 NOSIG=
201906022100 METAR MRPV 022100Z 26006KT 9999 -RA FEW020 SCT035 24/22 A2996 NOSIG=
201906022200 METAR MRPV 022200Z 29008KT 9999 SCT030 25/21 A2995 NOSIG=
201906022300 METAR MRPV 022300Z 29008KT 9999 FEW015 BKN035 24/21 A2996 NOSIG=
201906030000 METAR MRPV 030000Z 30005KT 9999 PRFG FEW010 BKN020 23/21 A2997 NOSIG=
201906030100 METAR MRPV NIL=
201906030200 METAR MRPV NIL=
201906030300 METAR MRPV NIL=
201906030400 METAR MRPV NIL=
201906030500 METAR MRPV NIL=
201906030600 METAR MRPV NIL=
201906030700 METAR MRPV NIL=
201906030800 METAR MRPV NIL=
201906030900 METAR MRPV NIL=
201906031000 METAR MRPV NIL=
201906031100 METAR MRPV NIL=
201906031200 METAR MRPV 031200Z 12005KT 9999 FEW040 21/17 A3003 NOSIG=
201906031300 METAR MRPV 031300Z 13007KT 9999 FEW035 23/17 A3005 NOSIG=
201906031400 METAR MRPV 031400Z 11009KT 9999 FEW035 24/18 A3006 NOSIG=
201906031500 METAR MRPV 031500Z 09014KT 9999 FEW040 25/17 A3006 NOSIG=
201906031600 METAR MRPV 031600Z 08010KT 9999 FEW045 27/17 A3006 NOSIG=
201906031700 METAR MRPV 031700Z 08010KT 9999 SCT045 28/17 A3005 NOSIG=
201906031800 METAR MRPV 031800Z 08009KT 9999 FEW045 SCT120 28/17 A3003 NOSIG=
201906031900 METAR MRPV 031900Z 34007KT 9999 SCT045 26/21 A3001 NOSIG=
201906032000 METAR MRPV 032000Z 28012KT 9999 FEW020 BKN045 27/21 A2998 NOSIG=
201906032100 METAR MRPV 032100Z 28009KT 9999 4000NE SHRA SCT015TCU BKN045 24/20 A2997 NOSIG=
201906032200 METAR MRPV 032200Z 19001KT 4000 RA SCT005 BKN030 21/20 A3000 RETS NOSIG=
201906032300 METAR MRPV 032300Z 06001KT 6000 FEW010 BKN030 21/20 A3000 RETSRA NOSIG=
201906040000 METAR MRPV 040000Z 08005KT 9999 BKN035 22/18 A3001 NOSIG=
201906040100 METAR MRPV NIL=
201906040200 METAR MRPV NIL=
201906040300 METAR MRPV NIL=
201906040400 METAR MRPV NIL=
201906040500 METAR MRPV NIL=
201906040600 METAR MRPV NIL=
201906040700 METAR MRPV NIL=
201906040800 METAR MRPV NIL=
201906040900 METAR MRPV NIL=
201906041000 METAR MRPV NIL=
201906041100 METAR MRPV NIL=
201906041200 METAR MRPV 041200Z 13007KT CAVOK 20/16 A3004 NOSIG=
201906041300 METAR MRPV 041300Z 15007KT CAVOK 22/17 A3004 NOSIG=
201906041400 METAR MRPV 041400Z 13009KT CAVOK 24/17 A3007 NOSIG=
201906041500 METAR MRPV 041500Z 12008KT CAVOK 26/17 A3007 NOSIG=
201906041600 METAR MRPV 041600Z 09009KT 9999 FEW045 SCT200 27/18 A3007 NOSIG=
201906041700 METAR MRPV 041700Z 09010KT 9999 FEW035 BKN200 27/18 A3006 NOSIG=
201906041800 METAR MRPV 041800Z 10010KT 9999 SCT035 SCT100 28/19 A3004 NOSIG=
201906041900 METAR MRPV 041900Z 07005KT 9999 SCT045 SCT100 28/18 A3001 BECMG 28007KT=
201906042000 METAR MRPV 042000Z 08009KT 9999 SCT040 SCT080 28/18 A2999 TEMPO 29004KT=
201906042100 METAR MRPV 042100Z 28009KT 9999 4000E RA VCTS SCT010CB BKN040 24/21 A3001 NOSIG=
201906042200 METAR MRPV 042200Z 28006KT 7000 SCT010 BKN025 22/21 A3000 RERA NOSIG=
201906042300 METAR MRPV 042300Z 31003KT 7000 FEW005 OVC080 22/20 A3001 NOSIG=
201906050000 METAR MRPV 050000Z 13007KT 9999 FEW025 SCT100 BKN200 23/19 A3001 NOSIG=
201906050100 METAR MRPV NIL=
201906050200 METAR MRPV NIL=
201906050300 METAR MRPV NIL=
201906050400 METAR MRPV NIL=
201906050500 METAR MRPV NIL=
201906050600 METAR MRPV NIL=
201906050700 METAR MRPV NIL=
201906050800 METAR MRPV NIL=
201906050900 METAR MRPV NIL=
201906051000 METAR MRPV NIL=
201906051100 METAR MRPV NIL=
201906051200 METAR MRPV 051200Z 13006KT 9999 FEW040 BKN200 21/17 A3004 NOSIG=
201906051300 METAR MRPV 051300Z 13007KT 9999 FEW040 BKN200 22/17 A3005 NOSIG=
201906051400 METAR MRPV 051400Z 12006KT CAVOK 23/18 A3007 NOSIG=
201906051500 METAR MRPV 051500Z 11008KT CAVOK 26/18 A3007 NOSIG=
201906051600 METAR MRPV 051600Z 11008KT 9999 FEW040 BKN200 26/19 A3008 NOSIG=
201906051700 METAR MRPV 051700Z 08011KT 9999 FEW040 BKN120 26/18 A3006 NOSIG=
201906051800 METAR MRPV 051800Z 15005KT 9999 FEW040 BKN120 28/18 A3004 NOSIG=
201906051900 METAR MRPV 051900Z 27006KT 050V150 9999 SCT040 BKN120 28/22 A3000 NOSIG=
201906052000 METAR MRPV 052000Z 27006KT 9999 -SHRA SCT025TCU SCT040 25/21 A2999 NOSIG=
201906052100 METAR MRPV 052100Z 33004KT 9999 VCTS BKN020CB SCT045 24/22 A2998 RETSRA NOSIG=
201906052200 METAR MRPV 052200Z 31005KT 9999 BCFG FEW005 BKN015 23/21 A3000 TEMPO BKN010=
201906052300 METAR MRPV 052300Z 29009KT 5000 BR SCT010 SCT030 22/20 A3002 NOSIG=
201906060000 METAR MRPV 060000Z 31006KT 9999 VCFG SCT008 BKN020 22/19 A3003 NOSIG=
201906060100 METAR MRPV NIL=
201906060200 METAR MRPV NIL=
201906060300 METAR MRPV NIL=
201906060400 METAR MRPV NIL=
201906060500 METAR MRPV NIL=
201906060600 METAR MRPV NIL=
201906060700 METAR MRPV NIL=
201906060800 METAR MRPV NIL=
201906060900 METAR MRPV NIL=
201906061000 METAR MRPV NIL=
201906061100 METAR MRPV NIL=
201906061200 METAR MRPV 061200Z 13010KT 9999 FEW025 SCT100 22/17 A2999 NOSIG=
201906061300 METAR MRPV 061300Z 12009KT 9999 FEW035 BKN090 22/17 A3002 NOSIG=
201906061400 METAR MRPV 061400Z 10012KT 9999 -DZ FEW035 BKN100 23/17 A3003 NOSIG=
201906061500 METAR MRPV 061500Z 11013KT 9999 -DZ FEW030 BKN100 23/17 A3006 NOSIG=
201906061600 METAR MRPV 061600Z 13006KT 9999 -DZ SCT030 BKN100 23/18 A3007 NOSIG=
201906061700 METAR MRPV 061700Z 11008KT 9999 -DZ FEW020 OVC100 22/18 A3007 NOSIG=
201906061800 METAR MRPV 061800Z 12007KT 9999 -DZ FEW030 BKN100 23/18 A3005 NOSIG=
201906061900 METAR MRPV 061900Z 10008KT CAVOK 25/18 A3000 NOSIG=
201906062000 METAR MRPV 062000Z 13003KT CAVOK 27/16 A2995 NOSIG=
201906062100 METAR MRPV 062100Z 14003KT CAVOK 27/16 A2994 NOSIG=
201906062200 METAR MRPV 062200Z 09010KT CAVOK 25/18 A2995 NOSIG=
201906062300 METAR MRPV 062300Z 10009KT CAVOK 24/18 A2997 NOSIG=
201906070000 METAR MRPV 070000Z 12004KT 9999 FEW035 OVC200 24/17 A3000 NOSIG=
201906070100 METAR MRPV NIL=
201906070200 METAR MRPV NIL=
201906070300 METAR MRPV NIL=
201906070400 METAR MRPV NIL=
201906070500 METAR MRPV NIL=
201906070600 METAR MRPV NIL=
201906070700 METAR MRPV NIL=
201906070800 METAR MRPV NIL=
201906070900 METAR MRPV NIL=
201906071000 METAR MRPV NIL=
201906071100 METAR MRPV NIL=
201906071200 METAR MRPV 071200Z 12003KT CAVOK 19/16 A3003 NOSIG=
201906071300 METAR MRPV 071300Z 12004KT CAVOK 22/17 A3003 NOSIG=
201906071400 METAR MRPV 071400Z 11003KT CAVOK 24/17 A3003 NOSIG=
201906071500 METAR MRPV 071500Z 15001KT CAVOK 26/16 A3004 NOSIG=
201906071600 METAR MRPV 071600Z 26006KT 9999 FEW040 SCT120 OVC200 25/16 A3003 NOSIG=
201906071700 METAR MRPV 071700Z 29009KT 9999 FEW040 OVC200 26/18 A3003 NOSIG=
201906071800 METAR MRPV 071800Z 30010KT 9999 SCT040 BKN200 26/18 A3001 NOSIG=
201906071900 METAR MRPV 071900Z 28008KT 9999 SCT040 OVC200 26/20 A2999 NOSIG=
201906072000 METAR MRPV 072000Z 28011KT 9999 SCT040 OVC200 26/20 A2996 NOSIG=
201906072100 METAR MRPV 072100Z 28009KT 9999 TSRA BKN020CB SCT200 23/20 A2996 NOSIG=
201906072200 METAR MRPV 072200Z 31008KT 8000 -RA BCFG FEW007 BKN010 22/20 A2998 NOSIG=
201906072300 METAR MRPV 072300Z VRB02KT 4000 -RA BR FEW005 BKN015 20/19 A3001 NOSIG=
201906080000 METAR MRPV 080000Z 34003KT 5000 -RA BR SCT010 BKN040 20/19 A3002 NOSIG=
201906080100 METAR MRPV NIL=
201906080200 METAR MRPV NIL=
201906080300 METAR MRPV NIL=
201906080400 METAR MRPV NIL=
201906080500 METAR MRPV NIL=
201906080600 METAR MRPV NIL=
201906080700 METAR MRPV NIL=
201906080800 METAR MRPV NIL=
201906080900 METAR MRPV NIL=
201906081000 METAR MRPV NIL=
201906081100 METAR MRPV NIL=
201906081200 METAR MRPV 081200Z 05001KT 9999 FEW035 BKN200 18/17 A3003 NOSIG=
201906081300 METAR MRPV 081300Z 09005KT 9999 FEW035 BKN200 22/18 A3004 NOSIG=
201906081400 METAR MRPV 081400Z 33003KT 9999 FEW015 BKN200 23/19 A3005 NOSIG=
201906081500 METAR MRPV 081500Z 31008KT 9999 FEW025 BKN200 23/19 A3006 NOSIG=
201906081600 METAR MRPV 081600Z 30008KT 9999 FEW035 BKN200 24/19 A3005 NOSIG=
201906081700 METAR MRPV 081700Z 28006KT 9999 FEW040 BKN200 25/19 A3004 NOSIG=
201906081800 METAR MRPV 081800Z 28009KT 9999 SCT035 SCT200 26/20 A3002 NOSIG=
201906081900 METAR MRPV 081900Z 29010KT 9999 -RA SCT020TCU SCT035 25/20 A3000 NOSIG=
201906082000 METAR MRPV 082000Z 28009KT 9999 VCSH SCT020TCU SCT035 26/20 A2997 NOSIG=
201906082100 METAR MRPV 082100Z 30015KT 9999 RA FEW010 SCT020TCU BKN050 24/20 A2995 NOSIG=
201906082200 METAR MRPV 082200Z 29008KT 1500 -TSRA BR BKN004CB 21/20 A2997 NOSIG=
201906082300 METAR MRPV 082300Z 31005KT 3000 RA BR BKN004 20/19 A3000 RETS NOSIG=
201906090000 METAR MRPV 090000Z 26002KT 3000 -TSRA BR BKN005CB 20/19 A3002 NOSIG=
201906090100 METAR MRPV NIL=
201906090200 METAR MRPV NIL=
201906090300 METAR MRPV NIL=
201906090400 METAR MRPV NIL=
201906090500 METAR MRPV NIL=
201906090600 METAR MRPV NIL=
201906090700 METAR MRPV NIL=
201906090800 METAR MRPV NIL=
201906090900 METAR MRPV NIL=
201906091000 METAR MRPV NIL=
201906091100 METAR MRPV NIL=
201906091200 METAR MRPV 091200Z 15004KT CAVOK 19/16 A3005 NOSIG=
201906091300 METAR MRPV 091300Z 14005KT CAVOK 21/16 A3006 NOSIG=
201906091400 METAR MRPV 091400Z 12008KT CAVOK 24/17 A3006 NOSIG=
201906091500 METAR MRPV 091500Z 09008KT CAVOK 25/17 A3006 NOSIG=
201906091600 METAR MRPV 091600Z 11007KT CAVOK 26/18 A3006 NOSIG=
201906091700 METAR MRPV 091700Z 07008KT 9999 FEW045 BKN200 27/18 A3004 NOSIG=
201906091800 METAR MRPV COR 091800Z 10006G19KT 9999 VCSH FEW020TCU SCT035 SCT080 27/18 A3004 NOSIG=
201906091900 METAR MRPV 091900Z 01004KT 9999 SCT035 SCT080 27/21 A3002 BECMG 33005KT=
201906092000 METAR MRPV 092000Z 30008KT 9999 4000NW VCTS SCT020CB SCT070 22/28 A3002 RETS NOSIG=
201906092100 METAR MRPV 092100Z 29010KT 4000 RA BR OVC001 22/21 A3002 NOSIG=
201906092200 METAR MRPV 092200Z 31006KT 4000 BR BKN003 21/20 A3001 RERA NOSIG=
201906092300 METAR MRPV 092300Z 31004KT 4000 BR OVC003 21/20 A3002 NOSIG=
201906100000 METAR MRPV 100000Z 29003KT 4000 BR BKN003 21/19 A3004 NOSIG=
201906100100 METAR MRPV NIL=
201906100200 METAR MRPV NIL=
201906100300 METAR MRPV NIL=
201906100400 METAR MRPV NIL=
201906100500 METAR MRPV NIL=
201906100600 METAR MRPV NIL=
201906100700 METAR MRPV NIL=
201906100800 METAR MRPV NIL=
201906100900 METAR MRPV NIL=
201906101000 METAR MRPV NIL=
201906101100 METAR MRPV NIL=
201906101200 METAR MRPV 101200Z 13007KT 9999 FEW035 BKN180 21/17 A3005 NOSIG=
201906101300 METAR MRPV 101300Z 14005KT CAVOK 21/17 A3006 NOSIG=
201906101400 METAR MRPV 101400Z 12006KT CAVOK 22/17 A3007 NOSIG=
201906101500 METAR MRPV 101500Z 12007KT CAVOK 25/17 A3006 NOSIG=
201906101600 METAR MRPV 101600Z 07011KT 9999 FEW040 BKN180 25/17 A3007 NOSIG=
201906101700 METAR MRPV 101700Z 06008KT 9999 FEW035 BKN180 27/17 A3005 NOSIG=
201906101800 METAR MRPV 101800Z 10011KT 9999 SCT030 SCT120 27/18 A3004 NOSIG=
201906101900 METAR MRPV 101900Z COR 30009KT 9999 RA SCT030 SCT100 27/21 A3002 NOSIG=
201906101944 METAR MRPV 101944Z 29010KT 9999 SHRA FEW020TCU BKN040 24/20 A3001 NOSIG=
201906102000 METAR MRPV 102000Z 30009KT 9999 4000NW TSRA SCT020CB BKN040 24/20 A3001 NOSIG=
201906102100 METAR MRPV 102100Z 32006KT 9999 -TSRA SCT020CB BKN080 23/20 A3001 NOSIG=
201906102200 METAR MRPV 102200Z 14004KT 9999 FEW035 BKN120 24/19 A2999 RETSRA NOSIG=
201906102300 METAR MRPV 102300Z 10010KT 9999 FEW035 SCT100 BKN200 24/18 A3002 NOSIG=
201906110000 METAR MRPV 110000Z 10002KT CAVOK 21/18 A3003 RERA NOSIG=
201906110100 METAR MRPV NIL=
201906110200 METAR MRPV NIL=
201906110300 METAR MRPV NIL=
201906110400 METAR MRPV NIL=
201906110500 METAR MRPV NIL=
201906110600 METAR MRPV NIL=
201906110700 METAR MRPV NIL=
201906110800 METAR MRPV NIL=
201906110900 METAR MRPV NIL=
201906111000 METAR MRPV NIL=
201906111100 METAR MRPV NIL=
201906111200 METAR MRPV 111200Z 11003KT 9999 FEW035 SCT120 BKN200 21/17 A3005 NOSIG=
201906111300 METAR MRPV 111300Z 15006KT 9999 FEW035 SCT120 BKN200 22/17 A3005 NOSIG=
201906111400 METAR MRPV 111400Z 13006KT 9999 FEW035 SCT120 BKN200 23/17 A3007 NOSIG=
201906111500 METAR MRPV 111500Z 12009KT 9999 FEW030 SCT120 BKN200 24/17 A3009 NOSIG=
201906111600 METAR MRPV 111600Z 09010KT 9999 FEW040 SCT120 BKN200 24/18 A3008 NOSIG=
201906111700 METAR MRPV 111700Z 10011KT 9999 FEW040 SCT120 OVC200 25/18 A3007 NOSIG=
201906111800 METAR MRPV 111800Z 10008KT 9999 FEW035 SCT120 BKN200 25/19 A3005 NOSIG=
201906111900 METAR MRPV 111900Z 10012KT 9999 -RA FEW010 SCT035 BKN100 25/18 A3002 NOSIG=
201906112000 METAR MRPV 112000Z 10011KT 9999 RA FEW010 SCT030 BKN100 25/18 A2999 NOSIG=
201906112100 METAR MRPV 112100Z 06004KT 9999 -RA FEW007 SCT030 BKN100 25/19 A2999 BECMG 27005KT=
201906112200 METAR MRPV 112200Z 11003KT 010V110 9999 SCT020 BKN120 23/21 A2998 NOSIG=
201906112300 METAR MRPV 112300Z 10014KT 9999 SCT035 BKN120 23/17 A2999 NOSIG=
201906120000 METAR MRPV 120000Z 10011KT 9999 SCT030 BKN100 22/17 A3002 NOSIG=
201906120100 METAR MRPV NIL=
201906120200 METAR MRPV NIL=
201906120300 METAR MRPV NIL=
201906120400 METAR MRPV NIL=
201906120500 METAR MRPV NIL=
201906120600 METAR MRPV NIL=
201906120700 METAR MRPV NIL=
201906120800 METAR MRPV NIL=
201906120900 METAR MRPV NIL=
201906121000 METAR MRPV NIL=
201906121100 METAR MRPV NIL=
201906121200 METAR MRPV 121200Z 08003KT CAVOK 19/16 A3002 NOSIG=
201906121300 METAR MRPV 121300Z 11001KT CAVOK 21/17 A3007 BECMG 32006KT=
201906121400 METAR MRPV 121400Z 31005KT 9999 FEW030 SCT120 BKN200 22/18 A3008 NOSIG=
201906121500 METAR MRPV 121500Z 32005KT 9999 FEW030 BKN120 23/19 A3011 NOSIG=
201906121600 METAR MRPV 121600Z 32003KT 9999 FEW030 SCT140 BKN200 24/18 A3009 NOSIG=
201906121700 METAR MRPV 121700Z 25004KT 330V250 9999 FEW035 SCT080 BKN200 25/19 A3008 NOSIG=
201906121800 METAR MRPV 121800Z 26007KT 9999 4000S RA BKN035 24/20 A3006 NOSIG=
201906121900 METAR MRPV 121900Z 26002KT 9999 RA FEW010 BKN080 22/18 A3005 NOSIG=
201906121925 METAR MRPV 121925Z 29005KT 9999 -RA FEW008 BKN015 22/20 A3006 TEMPO BKN010=
201906122000 METAR MRPV 122000Z 30005KT 8000 RA SCT010 BKN100 21/20 A3006 NOSIG=
201906122100 METAR MRPV 122100Z VRB02KT 5000 RA BR SCT010 OVC100 20/19 A3006 NOSIG=
201906122200 METAR MRPV 122200Z 09002KT 9999 -RA BCFG FEW010 OVC100 20/19 A3005 NOSIG=
201906122300 METAR MRPV 122300Z 15001KT 9999 VCFG FEW010 OVC100 21/19 A3007 NOSIG=
201906130000 METAR MRPV 130000Z 10001KT CAVOK 20/19 A3006 NOSIG=
201906130100 METAR MRPV NIL=
201906130200 METAR MRPV NIL=
201906130300 METAR MRPV NIL=
201906130400 METAR MRPV NIL=
201906130500 METAR MRPV NIL=
201906130600 METAR MRPV NIL=
201906130700 METAR MRPV NIL=
201906130800 METAR MRPV NIL=
201906130900 METAR MRPV NIL=
201906131000 METAR MRPV NIL=
201906131100 METAR MRPV NIL=
201906131200 METAR MRPV 131200Z 12007KT 9999 FEW040 SCT160 20/17 A3005 NOSIG=
201906131300 METAR MRPV 131300Z 13005KT CAVOK 22/17 A3007 NOSIG=
201906131400 METAR MRPV 131400Z 11007KT CAVOK 23/18 A3009 NOSIG=
201906131500 METAR MRPV 131500Z 07008KT 9999 FEW040 SCT120 BKN200 24/18 A3010=
201906131600 METAR MRPV 131600Z 35004KT 9999 FEW035 BKN120 25/19 A3010 NOSIG=
201906131700 METAR MRPV 131700Z 30010KT 9999 BKN025 SCT200 24/20 A3010 NOSIG=
201906131800 METAR MRPV 131800Z 29008KT 9999 BKN025 24/19 A3008 NOSIG=
201906131900 METAR MRPV 131900Z 30006KT 9999 4000NE SHRA FEW020TCU BKN025 23/19 A3006 NOSIG=
201906132000 METAR MRPV 132000Z 26005KT 1500 0500W RA BKN010 SCT020 20/20 A3004 RESH NOSIG=
201906132100 METAR MRPV 132100Z 18004KT 3000 -RA BCFG VCTS FEW010 BKN020 20/19 A3006 NOSIG=
201906132200 METAR MRPV 132200Z 31001KT 3000 -RA BR SCT010 BKN040 20/19 A3006 NOSIG=
201906132300 METAR MRPV 132300Z 24001KT 3000 -RA BR SCT010 BKN040 20/19 A3006 NOSIG=
201906140000 METAR MRPV 140000Z 35002KT 4000 -RA BR SCT010 BKN080 20/19 A3006 NOSIG=
201906140100 METAR MRPV NIL=
201906140200 METAR MRPV NIL=
201906140300 METAR MRPV NIL=
201906140400 METAR MRPV NIL=
201906140500 METAR MRPV NIL=
201906140600 METAR MRPV NIL=
201906140700 METAR MRPV NIL=
201906140800 METAR MRPV NIL=
201906140900 METAR MRPV NIL=
201906141000 METAR MRPV NIL=
201906141100 METAR MRPV NIL=
201906141200 METAR MRPV 141200Z 11009KT 9999 SCT035 BKN060 21/17 A3008 NOSIG=
201906141300 METAR MRPV 141300Z 12009KT 9999 FEW035 SCT080 22/18 A3009 NOSIG=
201906141400 METAR MRPV 141400Z 10014KT 9999 SCT030 SCT100 22/18 A3009 NOSIG=
201906141500 METAR MRPV 141500Z 08017KT 9999 SCT035 SCT120 22/18 A3010 NOSIG=
201906141600 METAR MRPV 141600Z 09016KT 9999 FEW035 BKN100 23/18 A3009 NOSIG=
201906141700 METAR MRPV 141700Z 08014KT 9999 SCT035 SCT100 23/17 A3008 NOSIG=
201906141800 METAR MRPV 141800Z 08010KT 9999 SCT035 BKN100 26/18 A3006 NOSIG=
201906141900 METAR MRPV 141900Z 08012KT 9999 FEW035 SCT140 27/19 A3004 NOSIG=
201906142000 METAR MRPV 142000Z 09013KT 9999 FEW035 BKN140 27/18 A3003 NOSIG=
201906142100 METAR MRPV 142100Z 10009KT 9999 SCT035 BKN120 27/19 A3001 NOSIG=
201906142200 METAR MRPV 142200Z 11008KT 9999 SCT035 SCT120 25/18 A3001 NOSIG=
201906142300 METAR MRPV 142300Z 09009KT 9999 FEW025 SCT120 24/18 A3003 NOSIG=
201906150000 METAR MRPV 150000Z 35003KT 9999 BKN020 22/19 A3005 NOSIG=
201906150100 METAR MRPV NIL=
201906150200 METAR MRPV NIL=
201906150300 METAR MRPV NIL=
201906150400 METAR MRPV NIL=
201906150500 METAR MRPV NIL=
201906150600 METAR MRPV NIL=
201906150700 METAR MRPV NIL=
201906150800 METAR MRPV NIL=
201906150900 METAR MRPV NIL=
201906151000 METAR MRPV NIL=
201906151100 METAR MRPV NIL=
201906151200 METAR MRPV 151200Z 12010KT 9999 FEW035 22/17 A3006 NOSIG=
201906151300 METAR MRPV 151300Z 10014KT 9999 FEW040 23/18 A3007 NOSIG=
201906151400 METAR MRPV 151400Z 09014KT 9999 FEW035 24/18 A3008 NOSIG=
201906151500 METAR MRPV 151500Z 08013KT 9999 FEW035 25/18 A3010 NOSIG=
201906151600 METAR MRPV 151600Z 08012KT 9999 SCT035 25/19 A3009 NOSIG=
201906151700 METAR MRPV 151700Z 09013KT 9999 SCT035 SCT080 26/18 A3007 NOSIG=
201906151800 METAR MRPV 151800Z 08012KT 9999 SCT035 SCT080 26/18 A3005 NOSIG=
201906151900 METAR MRPV 151900Z 08014KT 9999 FEW040 SCT080 BKN200 28/19 A3001 NOSIG=
201906152000 METAR MRPV 152000Z 07014KT 9999 SCT035 BKN200 26/18 A3000 NOSIG=
201906152100 METAR MRPV 152100Z 08012KT 9999 SCT035 BKN200 27/18 A2998 NOSIG=
201906152200 METAR MRPV 152200Z 08011KT 9999 FEW030 SCT080 BKN200 26/18 A2997 NOSIG=
201906152300 METAR MRPV 152300Z 08012KT 9999 FEW010 SCT030 BKN200 25/18 A2999 NOSIG=
201906160000 METAR MRPV 160000Z 09008KT 9999 FEW005 BKN025 24/18 A3001 NOSIG=
201906160100 METAR MRPV NIL=
201906160200 METAR MRPV NIL=
201906160300 METAR MRPV NIL=
201906160400 METAR MRPV NIL=
201906160500 METAR MRPV NIL=
201906160600 METAR MRPV NIL=
201906160700 METAR MRPV NIL=
201906160800 METAR MRPV NIL=
201906160900 METAR MRPV NIL=
201906161000 METAR MRPV NIL=
201906161100 METAR MRPV NIL=
201906161200 METAR MRPV 161200Z 13007KT 9999 FEW035 BKN200 21/17 A3002 NOSIG=
201906161300 METAR MRPV 161300Z 13007KT 9999 FEW035 BKN200 23/17 A3003 NOSIG=
201906161400 METAR MRPV 161400Z 09013KT 9999 FEW035 BKN200 25/18 A3005 NOSIG=
201906161500 METAR MRPV 161500Z 09013KT 9999 FEW035 BKN200 25/18 A3005 NOSIG=
201906161600 METAR MRPV 161600Z 09012KT 9999 FEW040 SCT200 27/18 A3004 NOSIG=
201906161700 METAR MRPV 161700Z 10013KT CAVOK 27/18 A3003 NOSIG=
201906161800 METAR MRPV 161800Z 08012KT 9999 FEW045 BKN200 28/17 A3002 NOSIG=
201906161900 METAR MRPV 161900Z 06010KT 9999 FEW045 BKN200 28/17 A3000 NOSIG=
201906162000 METAR MRPV 162000Z 08010KT 9999 FEW045 BKN200 29/17 A2996 NOSIG=
201906162100 METAR MRPV 162100Z 07010KT 9999 FEW040 BKN200 28/17 A2995 NOSIG=
201906162200 METAR MRPV 162200Z 28008KT 9999 FEW020 BKN200 25/22 A2995 NOSIG=
201906162300 METAR MRPV 162300Z 27006KT 9999 FEW010 SCT035 BKN200 24/21 A2996 NOSIG=
201906170000 METAR MRPV 170000Z 28003KT 9999 SCT010 BKN025 23/21 A2998 NOSIG=
201906170100 METAR MRPV NIL=
201906170200 METAR MRPV NIL=
201906170300 METAR MRPV NIL=
201906170400 METAR MRPV NIL=
201906170500 METAR MRPV NIL=
201906170600 METAR MRPV NIL=
201906170700 METAR MRPV NIL=
201906170800 METAR MRPV NIL=
201906170900 METAR MRPV NIL=
201906171000 METAR MRPV NIL=
201906171100 METAR MRPV NIL=
201906171200 METAR MRPV 171200Z 12009KT 9999 FEW040 SCT100 BKN200 21/17 A3001 NOSIG=
201906171300 METAR MRPV 171300Z 12010G20KT 9999 FEW045 SCT100 BKN200 22/17 A3001 NOSIG=
201906171400 METAR MRPV 171400Z 11010KT CAVOK 23/17 A3002 NOSIG=
201906171500 METAR MRPV 171500Z 09015KT 9999 FEW045 BKN200 24/18 A3004 NOSIG=
201906171600 METAR MRPV 171600Z 08013KT 9999 FEW035 BKN200 25/18 A3004 NOSIG=
201906171700 METAR MRPV 171700Z 09014KT 9999 FEW035 SCT100 BKN200 26/18 A3003 NOSIG=
201906171800 METAR MRPV 171800Z 08012KT 9999 SCT035 BKN200 25/18 A3001 NOSIG=
201906171900 METAR MRPV 171900Z 07013KT 9999 SCT030 BKN140 26/18 A2998 NOSIG=
201906172000 METAR MRPV 172000Z 08014KT 9999 SCT035 BKN200 27/18 A2997 NOSIG=
201906172100 METAR MRPV 172100Z 09011G21KT 9999 SCT035 BKN200 27/18 A2995 NOSIG=
201906172200 METAR MRPV 172200Z 09015KT 9999 SCT030 BKN200 26/18 A2995 NOSIG=
201906172300 METAR MRPV 172300Z 10012KT 9999 FEW025 BKN160 24/18 A2996 NOSIG=
201906180000 METAR MRPV 180000Z 09013G24KT 9999 FEW020 BKN160 23/18 A2997 NOSIG=
201906180100 METAR MRPV NIL=
201906180200 METAR MRPV NIL=
201906180300 METAR MRPV NIL=
201906180400 METAR MRPV NIL=
201906180500 METAR MRPV NIL=
201906180600 METAR MRPV NIL=
201906180700 METAR MRPV NIL=
201906180800 METAR MRPV NIL=
201906180900 METAR MRPV NIL=
201906181000 METAR MRPV NIL=
201906181100 METAR MRPV NIL=
201906181200 METAR MRPV 181200Z 13009KT CAVOK 22/17 A3000 NOSIG=
201906181300 METAR MRPV 181300Z 12009KT CAVOK 23/18 A3001 NOSIG=
201906181400 METAR MRPV 181400Z 09016KT 9999 FEW040 SCT070 BKN200 25/19 A3002 NOSIG=
201906181500 METAR MRPV 181500Z 09012KT 9999 FEW040 SCT200 26/19 A3003 NOSIG=
201906181600 METAR MRPV 181600Z 09016KT 9999 FEW035 SCT100 26/19 A3002 NOSIG=
201906181700 METAR MRPV 181700Z 09015KT 9999 SCT030 26/18 A3002 NOSIG=
201906181800 METAR MRPV 181800Z 08016KT 9999 FEW045 28/18 A3000 NOSIG=
201906181900 METAR MRPV 181900Z 09012KT 9999 FEW035 SCT160 28/19 A2998 NOSIG=
201906182000 METAR MRPV 182000Z 07014KT 9999 SCT035 SCT200 29/19 A2996 NOSIG=
201906182100 METAR MRPV 182100Z 10014KT 9999 SCT035 SCT200 27/19 A2995 NOSIG=
201906182200 METAR MRPV 182200Z 09014KT 9999 VCSH FEW020TCU SCT030 SCT200 26/19 A2995 NOSIG=
201906182300 METAR MRPV 182300Z 09011KT 9999 SCT035 BKN120 24/18 A2999 NOSIG=
201906190000 METAR MRPV 190000Z 10013KT 9999 SCT025 BKN120 23/18 A2998 NOSIG=
201906190100 METAR MRPV NIL=
201906190200 METAR MRPV NIL=
201906190300 METAR MRPV NIL=
201906190400 METAR MRPV NIL=
201906190500 METAR MRPV NIL=
201906190600 METAR MRPV NIL=
201906190700 METAR MRPV NIL=
201906190800 METAR MRPV NIL=
201906190900 METAR MRPV NIL=
201906191000 METAR MRPV NIL=
201906191100 METAR MRPV NIL=
201906191200 METAR MRPV 191200Z 10010KT 9999 FEW035 22/18 A2999 NOSIG=
201906191300 METAR MRPV 191300Z 12008KT 9999 FEW030 23/18 A3001 NOSIG=
201906191400 METAR MRPV 191400Z 08016KT 9999 FEW030 25/18 A3001 NOSIG=
201906191500 METAR MRPV 191500Z 08013KT 9999 FEW040 26/18 A3001 NOSIG=
201906191600 METAR MRPV 191600Z 09012KT 9999 FEW045 28/18 A3001 NOSIG=
201906191700 METAR MRPV 191700Z 08011KT 9999 SCT040 28/18 A3000 NOSIG=
201906191800 METAR MRPV 191800Z 07010KT 9999 SCT040 SCT080 28/19 A2998 NOSIG=
201906191900 METAR MRPV 191900Z 07010KT 9999 SCT040 SCT080 28/20 A2997 RESHRA NOSIG=
201906192000 METAR MRPV 192000Z 05008KT 9999 4500NW RA VCTS SCT035 BKN100 29/19 A2995 NOSIG=
201906192100 METAR MRPV 192100Z 18002KT 9999 -RA BCFG FEW010 SCT035 BKN100 22/21 A2996 NOSIG=
201906192200 METAR MRPV 192200Z 11003KT 9999 SCT035 BKN100 23/20 A2993 NOSIG=
201906192300 METAR MRPV 192300Z 09012KT 9999 SCT030 BKN100 23/19 A2995 NOSIG=
201906200000 METAR MRPV 200000Z 08005KT 9999 SCT030 BKN100 23/19 A2998 NOSIG=
201906200100 METAR MRPV NIL=
201906200200 METAR MRPV NIL=
201906200300 METAR MRPV NIL=
201906200400 METAR MRPV NIL=
201906200500 METAR MRPV NIL=
201906200600 METAR MRPV NIL=
201906200700 METAR MRPV NIL=
201906200800 METAR MRPV NIL=
201906200900 METAR MRPV NIL=
201906201000 METAR MRPV NIL=
201906201100 METAR MRPV NIL=
201906201200 METAR MRPV 201200Z 13004KT CAVOK 22/18 A2996 NOSIG=
201906201300 METAR MRPV 201300Z 14005KT CAVOK 23/18 A2998 NOSIG=
201906201400 METAR MRPV 201400Z 12006KT 9999 FEW025 OVC120 24/18 A3001 NOSIG=
201906201500 METAR MRPV 201500Z 09010KT 9999 FEW030 OVC120 25/19 A3002 NOSIG=
201906201600 METAR MRPV 201600Z 08008KT 9999 SCT040 BKN120 25/19 A3003 NOSIG=
201906201700 METAR MRPV 201700Z 07004KT 9999 SCT040 BKN120 26/18 A3002 NOSIG=
201906201800 METAR MRPV 201800Z 16006KT CAVOK 26/15 A2999 NOSIG=
201906201900 METAR MRPV 201900Z 15007KT 9999 FEW015 SCT030 BKN140 26/15 A3000 NOSIG=
201906202000 METAR MRPV 202000Z 13006KT 9999 SCT035 BKN140 24/18 A3000 NOSIG=
201906202100 METAR MRPV 202100Z 15004KT 9999 SCT035 BKN140 24/18 A2999 NOSIG=
201906202200 METAR MRPV 202200Z 13006KT 9999 SCT030 BKN120 24/17 A2998 NOSIG=
201906202300 METAR MRPV 202300Z 10003KT 9999 BCFG FEW010 SCT080 BKN140 24/18 A2999 BECMG 27006KT=
201906210000 METAR MRPV 210000Z 29005KT 9999 BCFG FEW010 BKN120 22/20 A3001 NOSIG=
201906210100 METAR MRPV NIL=
201906210200 METAR MRPV NIL=
201906210300 METAR MRPV NIL=
201906210400 METAR MRPV NIL=
201906210500 METAR MRPV NIL=
201906210600 METAR MRPV NIL=
201906210700 METAR MRPV NIL=
201906210800 METAR MRPV NIL=
201906210900 METAR MRPV NIL=
201906211000 METAR MRPV NIL=
201906211100 METAR MRPV NIL=
201906211200 METAR MRPV 211200Z 11009KT CAVOK 22/18 A3003 NOSIG=
201906211300 METAR MRPV 211300Z 13008KT 9999 FEW030 BKN090 23/18 A3005 NOSIG=
201906211400 METAR MRPV 211400Z 10011KT 9999 FEW030 SCT090 25/19 A3006 NOSIG=
201906211500 METAR MRPV 211500Z 09012KT 9999 SCT045 SCT090 26/17 A3008 NOSIG=
201906211600 METAR MRPV 211600Z 10010KT 9999 FEW030 BKN090 25/18 A3007 NOSIG=
201906211700 METAR MRPV 211700Z 08013KT CAVOK 26/18 A3004 NOSIG=
201906211800 METAR MRPV 211800Z 09008KT CAVOK 28/17 A3002 NOSIG=
201906211900 METAR MRPV 211900Z 34002KT 9999 FEW030 OVC090 28/16 A3002 NOSIG=
201906212000 METAR MRPV 212000Z 29013KT 9999 SCT030 BKN100 27/21 A3001 NOSIG=
201906212100 METAR MRPV 212100Z 28009KT 9999 SCT025TCU BKN100 26/21 A2999 TEMPO SHRA=
201906212200 METAR MRPV 212200Z 33006KT 9999 4000NW SHRA SCT020TCU SCT040 24/19 A3001 NOSIG=
201906212300 METAR MRPV 212300Z 33004KT 9999 FEW010 BKN080 23/21 A3002 RESHRA NOSIG=
201906220000 METAR MRPV 220000Z 26001KT 9999 BCFG SCT010 BKN080 22/21 A3005 NOSIG=
201906220100 METAR MRPV NIL=
201906220200 METAR MRPV NIL=
201906220300 METAR MRPV NIL=
201906220400 METAR MRPV NIL=
201906220500 METAR MRPV NIL=
201906220600 METAR MRPV NIL=
201906220700 METAR MRPV NIL=
201906220800 METAR MRPV NIL=
201906220900 METAR MRPV NIL=
201906221000 METAR MRPV NIL=
201906221100 METAR MRPV NIL=
201906221200 METAR MRPV 221200Z 14005KT 9999 FEW020 BKN200 22/18 A3006 NOSIG=
201906221300 METAR MRPV 221300Z 12006KT CAVOK 22/18 A3007 NOSIG=
201906221400 METAR MRPV 221400Z 12008KT 9999 FEW035 BKN200 23/18 A3007 NOSIG=
201906221500 METAR MRPV 221500Z 11010KT CAVOK 25/18 A3007 NOSIG=
201906221600 METAR MRPV 221600Z 10010KT 9999 SCT045 BKN200 25/18 A3008 NOSIG=
201906221700 METAR MRPV 221700Z 09013KT 9999 FEW030 BKN200 24/18 A3006 NOSIG=
201906221800 METAR MRPV 221800Z 09012KT CAVOK 25/19 A3005 NOSIG=
201906221900 METAR MRPV 221900Z 10011KT 9999 FEW045 BKN150 27/19 A3003 NOSIG=
201906222000 METAR MRPV 222000Z 08010KT 9999 SCT040 BKN140 27/19 A3002 NOSIG=
201906222100 METAR MRPV 222100Z 08009KT 9999 FEW040 SCT120 BKN200 27/19 A3000 NOSIG=
201906222200 METAR MRPV 222200Z 09011KT 9999 SCT030 SCT120 26/19 A3000 NOSIG=
201906222300 METAR MRPV 222300Z 08007KT 9999 4000NW BCFG FEW010 SCT100 BKN200 25/19 A3001 NOSIG=
201906230000 METAR MRPV 230000Z VRB02KT 9999 3000W BCFG SCT010 BKN025 24/21 A3002 NOSIG=
201906230100 METAR MRPV NIL=
201906230200 METAR MRPV NIL=
201906230300 METAR MRPV NIL=
201906230400 METAR MRPV NIL=
201906230500 METAR MRPV NIL=
201906230600 METAR MRPV NIL=
201906230700 METAR MRPV NIL=
201906230800 METAR MRPV NIL=
201906230900 METAR MRPV NIL=
201906231000 METAR MRPV NIL=
201906231100 METAR MRPV NIL=
201906231200 METAR MRPV 231200Z 12008KT 9999 FEW030 BKN250 22/18 A3005 NOSIG=
201906231300 METAR MRPV 231300Z 10012KT 9999 FEW040 BKN250 23/18 A3006 NOSIG=
201906231400 METAR MRPV 231400Z 09015KT 9999 FEW040 25/18 A3006 NOSIG=
201906231500 METAR MRPV 231500Z 10013G23KT 9999 SCT040 25/17 A3008 WSR09 NOSIG=
201906231600 METAR MRPV 231600Z 07014KT 9999 FEW040 SCT120 26/18 A3007 WSR09 NOSIG=
201906231700 METAR MRPV 231700Z 07014KT 9999 FEW040 SCT100 27/18 A3004 WSR09 NOSIG=
201906231800 METAR MRPV 231800Z 07014KT 9999 SCT040 27/18 A3004 WSR09 NOSIG=
201906231900 METAR MRPV 231900Z 09013KT 9999 SCT035 SCT080 26/18 A3001 WSR09 NOSIG=
201906232000 METAR MRPV 232000Z 07013KT 9999 FEW035 BKN080 25/18 A2999 NOSIG=
201906232100 METAR MRPV 232100Z 08012KT 9999 FEW040 BKN080 26/18 A2999 NOSIG=
201906232200 METAR MRPV 232200Z 08009KT 9999 SCT0335 BKN080 25/18 A3001 NOSIG=
201906232300 METAR MRPV 232300Z 08008KT 9999 FEW0025 BKN090 24/18 A3002 NOSIG=
201906240000 METAR MRPV 240000Z 09006KT 9999 FEW030 BKN100 23/17 A3002 NOSIG=
201906240100 METAR MRPV NIL=
201906240200 METAR MRPV NIL=
201906240300 METAR MRPV NIL=
201906240400 METAR MRPV NIL=
201906240500 METAR MRPV NIL=
201906240600 METAR MRPV NIL=
201906240700 METAR MRPV NIL=
201906240800 METAR MRPV NIL=
201906240900 METAR MRPV NIL=
201906241000 METAR MRPV NIL=
201906241100 METAR MRPV NIL=
201906241200 METAR MRPV 241200Z 13007KT 9999 FEW040 SCT120 OVC200 21/17 A3004 NOSIG=
201906241300 METAR MRPV 241300Z 14007KT CAVOK 22/17 A3007 NOSIG=
201906241400 METAR MRPV 241400Z 12008KT CAVOK 24/18 A3008 NOSIG=
201906241500 METAR MRPV 241500Z 09015KT 9999 FEW040 BKN120 24/18 A3009 NOSIG=
201906241600 METAR MRPV 241600Z 10014KT 9999 SCT030 SCT120 25/18 A3009 NOSIG=
201906241700 METAR MRPV 241700Z 09013KT 9999 SCT025 SCT070 25/18 A3008 NOSIG=
201906241800 METAR MRPV 241800Z 09012KT 9999 SCT040 BKN100 26/17 A3006 NOSIG=
201906241900 METAR MRPV 241900Z 09012KT 9999 FEW040 BKN120 25/16 A3004 NOSIG=
201906242000 METAR MRPV 242000Z 08008KT 9999 FEW030 BKN110 25/17 A3002 NOSIG=
201906242100 METAR MRPV 242100Z 07008KT 9999 SCT040 BKN120 26/17 A3001 NOSIG=
201906242200 METAR MRPV 242200Z 10011KT 9999 SCT035 BKN100 25/17 A3001 NOSIG=
201906242300 METAR MRPV 242300Z 13005KT 9999 FEW020 BKN100 23/18 A3003 NOSIG=
201906250000 METAR MRPV 250000Z 14003KT 9999 -DZ BCFG FEW010 OVC100 22/18 A3005 NOSIG=
201906250100 METAR MRPV NIL=
201906250200 METAR MRPV NIL=
201906250300 METAR MRPV NIL=
201906250400 METAR MRPV NIL=
201906250500 METAR MRPV NIL=
201906250600 METAR MRPV NIL=
201906250700 METAR MRPV NIL=
201906250800 METAR MRPV NIL=
201906250900 METAR MRPV NIL=
201906251000 METAR MRPV NIL=
201906251100 METAR MRPV NIL=
201906251200 METAR MRPV 251200Z 14006KT CAVOK 20/16 A3003 NOSIG=
201906251300 METAR MRPV 251300Z 13007KT CAVOK 22/16 A3006 NOSIG=
201906251400 METAR MRPV 251400Z 11012KT CAVOK 24/17 A3008 NOSIG=
201906251500 METAR MRPV 251500Z 09013KT 9999 FEW045 BKN120 25/16 A3009 NOSIG=
201906251600 METAR MRPV 251600Z 08015KT 9999 FEW045 BKN160 25/18 A3008 NOSIG=
201906251700 METAR MRPV 251700Z 13008KT 9999 SCT040 BKN110 25/17 A3008 NOSIG=
201906251800 METAR MRPV 251800Z 13004KT CAVOK 26/18 A3005 NOSIG=
201906251900 METAR MRPV 251900Z 13004KT 090V160 CAVOK 28/16 A3002 NOSIG=
201906252000 METAR MRPV 252000Z 32005KT 9999 FEW025 SCT120 BKN180 27/21 A3000 NOSIG=
201906252100 METAR MRPV 252100Z 27004KT 9999 SCT030 BKN080 25/20 A3000 NOSIG=
201906252200 METAR MRPV 252200Z 07011KT 9999 TSRA FEW020CB SCT030 BKN080 23/17 A3001 NOSIG=
201906252300 METAR MRPV 252300Z 09010KT 9999 FEW030 BKN060 21/17 A3002 NOSIG=
201906260000 METAR MRPV NIL=
201906260100 METAR MRPV NIL=
201906260200 METAR MRPV NIL=
201906260300 METAR MRPV NIL=
201906260400 METAR MRPV NIL=
201906260500 METAR MRPV NIL=
201906260600 METAR MRPV NIL=
201906260700 METAR MRPV NIL=
201906260800 METAR MRPV NIL=
201906260900 METAR MRPV NIL=
201906261000 METAR MRPV NIL=
201906261100 METAR MRPV NIL=
201906261200 METAR MRPV 261200Z 14006KT 9999 FEW030 20/16 A3002 NOSIG=
201906261300 METAR MRPV 261300Z 12009KT 9999 FEW035 22/16 A3003 NOSIG=
201906261400 METAR MRPV 261400Z 10014KT 9999 FEW035 24/17 A3004 NOSIG=
201906261500 METAR MRPV 261500Z 08014KT 9999 FEW035 BKN110 24/17 A3006 NOSIG=
201906261600 METAR MRPV 261600Z 08014G24KT 9999 FEW035 SCT120 25/17 A3004 NOSIG=
201906261700 METAR MRPV 261700Z 08016G31KT 9999 -DZ SCT025 BKN090 25/16 A3006 NOSIG=
201906261800 METAR MRPV 261800Z 13008KT 9999 FEW045 BKN100 22/15 A3002 NOSIG=
201906261900 METAR MRPV 261900Z 12013KT CAVOK 27/16 A2995 WSR09 NOSIG=
201906262000 METAR MRPV 262000Z 09018KT 9999 FEW040 SCT200 26/16 A2997 WSR09 NOSIG=
201906262100 METAR MRPV 262100Z 08014KT 9999 SCT035 SCT080 24/16 A2996 WSR09 NOSIG=
201906262200 METAR MRPV 262200Z 09017KT 9999 FEW035 SCT180 24/16 A2994 NOSIG=
201906262300 METAR MRPV 262300Z 08013KT 9999 FEW035 BKN200 24/16 A2995 NOSIG=
201906270000 METAR MRPV 270000Z 09014KT 9999 FEW040 BKN200 22/16 A2996 NOSIG=
201906270100 METAR MRPV NIL=
201906270200 METAR MRPV NIL=
201906270300 METAR MRPV NIL=
201906270400 METAR MRPV NIL=
201906270500 METAR MRPV NIL=
201906270600 METAR MRPV NIL=
201906270700 METAR MRPV NIL=
201906270800 METAR MRPV NIL=
201906270900 METAR MRPV NIL=
201906271000 METAR MRPV NIL=
201906271100 METAR MRPV NIL=
201906271200 METAR MRPV 271200Z 13012G22KT 9999 FEW035 SCT120 21/17 A2996 NOSIG=
201906271300 METAR MRPV COR 271300Z 12012KT 9999 SCT030 SCT080 22/17 A2999 NOSIG=
201906271400 METAR MRPV 271400Z 09017KT 9999 -DZ SCT030 23/17 A3001 NOSIG=
201906271500 METAR MRPV 271500Z 10019KT 9999 FEW030 SCT120 24/17 A3001 NOSIG=
201906271600 METAR MRPV 271600Z 08019KT 9999 SCT030 SCT100 25/17 A3001 NOSIG=
201906271700 METAR MRPV 271700Z 09017KT 9999 SCT035 BKN120 24/15 A3000 NOSIG=
201906271800 METAR MRPV 271800Z 09017KT CAVOK 26/15 A2997 NOSIG=
201906271900 METAR MRPV 271900Z 10015KT 9999 FEW045 BKN120 24/16 A2996 NOSIG=
201906272000 METAR MRPV 272000Z 09014KT CAVOK 25/17 A2993 NOSIG=
201906272100 METAR MRPV 272100Z 10012KT 9999 FEW035 OVC120 24/18 A2991 NOSIG=
201906272200 METAR MRPV 272200Z 08012KT 9999 RA SCT035 OVC120 24/17 A2992 NOSIG=
201906272300 METAR MRPV 272300Z 10009KT 9999 FEW025 BKN120 23/17 A2993 RERA NOSIG=
201906280000 METAR MRPV 280000Z 10011KT 9999 FEW025 SCT060 BKN100 22/18 A2995 NOSIG=
201906280100 METAR MRPV NIL=
201906280200 METAR MRPV NIL=
201906280300 METAR MRPV NIL=
201906280400 METAR MRPV NIL=
201906280500 METAR MRPV NIL=
201906280600 METAR MRPV NIL=
201906280700 METAR MRPV NIL=
201906280800 METAR MRPV NIL=
201906280900 METAR MRPV NIL=
201906281000 METAR MRPV NIL=
201906281100 METAR MRPV NIL=
201906281200 METAR MRPV 281200Z 11016KT 9999 FEW035 BKN200 21/16 A2997 NOSIG=
201906281300 METAR MRPV 281300Z 12015G25KT 9999 FEW035 BKN200 22/16 A2998 NOSIG=
201906281400 METAR MRPV 281400Z 10017G28KT 9999 FEW035 BKN200 23/16 A3000 NOSIG=
201906281500 METAR MRPV 281500Z 09018G29KT 9999 FEW040 BKN200 25/16 A3000 NOSIG=
201906281600 METAR MRPV 281600Z 09018G32KT 9999 FEW045 OVC200 26/16 A2999 NOSIG=
201906281700 METAR MRPV 281700Z 09017G27KT 9999 FEW035 BKN200 25/16 A2999 NOSIG=
201906281800 METAR MRPV 281800Z 07019KT 9999 SCT035 BKN200 23/15 A3000 NOSIG=
201906281900 METAR MRPV 281900Z 07016G26KT 9999 FEW040 SCT100 BKN200 24/15 A2998 NOSIG=
201906282000 METAR MRPV 282000Z 09018KT 9999 FEW035 SCT100 BKN200 24/15 A2996 NOSIG=
201906282100 METAR MRPV 282100Z 08015G25KT 9999 FEW035 SCT100 BKN200 25/16 A2994 NOSIG=
201906282200 METAR MRPV 282200Z 08014KT 9999 FEW035 BKN200 24/15 A2995 NOSIG=
201906282300 METAR MRPV 282300Z 11010KT 9999 FEW035 BKN100 23/16 A2996 NOSIG=
201906290000 METAR MRPV 290000Z 11009KT 9999 FEW035 BKN120 22/17 A2997 NOSIG=
201906290100 METAR MRPV NIL=
201906290200 METAR MRPV NIL=
201906290300 METAR MRPV NIL=
201906290400 METAR MRPV NIL=
201906290500 METAR MRPV NIL=
201906290600 METAR MRPV NIL=
201906290700 METAR MRPV NIL=
201906290800 METAR MRPV NIL=
201906290900 METAR MRPV NIL=
201906291000 METAR MRPV NIL=
201906291100 METAR MRPV NIL=
201906291200 METAR MRPV 291200Z 13005KT CAVOK 21/16 A2999 NOSIG=
201906291300 METAR MRPV 291300Z 12007KT CAVOK 21/16 A3002 NOSIG=
201906291400 METAR MRPV 291400Z 11011KT 9999 FEW035 BKN100 22/17 A3004 NOSIG=
201906291500 METAR MRPV 291500Z 10011KT 9999 SCT030 SCT100 23/18 A3005 NOSIG=
201906291600 METAR MRPV 291600Z 09011KT 9999 SCT030 SCT100 25/18 A3005 NOSIG=
201906291700 METAR MRPV 291700Z 09016KT 9999 FEW025 SCT120 BKN200 23/18 A3004 NOSIG=
201906291800 METAR MRPV 291800Z 09015KT 9999 FEW025 BKN100 24/18 A3003 NOSIG=
201906291900 METAR MRPV 291900Z 11012KT 9999 SCT035 BKN090 25/18 A3001 NOSIG=
201906292000 METAR MRPV 292000Z 10012KT 9999 FEW035 SCT090 25/18 A2998 NOSIG=
201906292100 METAR MRPV 292100Z 10012KT 9999 FEW030 BKN090 25/18 A2997 NOSIG=
201906292200 METAR MRPV 292200Z 09015G25KT 9999 SCT025 BKN090 23/18 A2999 NOSIG=
201906292300 METAR MRPV 292300Z 11009KT 9999 FEW020 BKN100 21/18 A3002 REDZ NOSIG=
201906300000 METAR MRPV 300000Z 12008KT 9999 FEW030 BKN120 22/17 A3003 NOSIG=
201906300100 METAR MRPV NIL=
201906300200 METAR MRPV NIL=
201906300300 METAR MRPV NIL=
201906300400 METAR MRPV NIL=
201906300500 METAR MRPV NIL=
201906300600 METAR MRPV NIL=
201906300700 METAR MRPV NIL=
201906300800 METAR MRPV NIL=
201906300900 METAR MRPV NIL=
201906301000 METAR MRPV NIL=
201906301100 METAR MRPV NIL=
201906301200 METAR MRPV 301200Z 13010KT CAVOK 20/16 A3003 NOSIG=
201906301300 METAR MRPV 301300Z 12011KT CAVOK 22/17 A3003 NOSIG=
201906301400 METAR MRPV 301400Z 12006KT 9999 FEW040 24/17 A3006 NOSIG=
201906301500 METAR MRPV 301500Z 10011KT 9999 FEW040 25/18 A3007 NOSIG=
201906301600 METAR MRPV 301600Z 09013KT 9999 FEW040 25/18 A3007 NOSIG=
201906301700 METAR MRPV 301700Z 09009KT 9999 FEW040 27/18 A3005 NOSIG=
201906301800 METAR MRPV 301800Z 09008KT 9999 FEW040 29/17 A3002 NOSIG=
201906301900 METAR MRPV 301900Z 08010KT 9999 SCT045 29/17 A3000 NOSIG=
201906302000 METAR MRPV 302000Z 29011KT 9999 BKN045 26/20 A2998 NOSIG=
201906302100 METAR MRPV 302100Z 25013KT 9999 BKN020 24/21 A2998 TEMPO BKN015=
201906302200 METAR MRPV 302200Z 27002KT 8000 -TSRA VCTS BKN010 22/21 A2999 NOSIG=
201906302300 METAR MRPV 302300Z 28002KT 9999 FEW010 SCT030 BKN100 21/20 A3001 RETSRA NOSIG=
201907010000 METAR MRPV 010000Z 29002KT 9999 FEW015 BKN100 21/20 A3002 NOSIG=
201907010100 METAR MRPV NIL=
201907010200 METAR MRPV NIL=
201907010300 METAR MRPV NIL=
201907010400 METAR MRPV NIL=
201907010500 METAR MRPV NIL=
201907010600 METAR MRPV NIL=
201907010700 METAR MRPV NIL=
201907010800 METAR MRPV NIL=
201907010900 METAR MRPV NIL=
201907011000 METAR MRPV NIL=
201907011100 METAR MRPV NIL=
201907011200 METAR MRPV 011200Z 14006KT 9999 FEW035 BKN200 21/17 A3005 NOSIG=
201907011300 METAR MRPV 011300Z 12009KT 9999 FEW035 BKN120 22/17 A3007 NOSIG=
201907011400 METAR MRPV 011400Z 14007KT 9999 FEW035 BKN160 22/17 A3008 NOSIG=
201907011500 METAR MRPV 011500Z 12010KT 9999 FEW035 BKN160 23/18 A3007 NOSIG=
201907011600 METAR MRPV 011600Z 10011KT 9999 FEW035 SCT120 23/18 A3008 NOSIG=
201907011700 METAR MRPV 011700Z 07013KT 9999 FEW035 BKN160 24/18 A3007 NOSIG=
201907011800 METAR MRPV 011800Z 08014KT 9999 FEW030 BKN120 26/18 A3006 NOSIG=
201907011900 METAR MRPV 011900Z 09008KT 9999 FEW030 OVC140 26/18 A3004 NOSIG=
201907012000 METAR MRPV 012000Z 09011KT 9999 FEW030 OVC140 25/17 A3001 NOSIG=
201907012100 METAR MRPV 012100Z 07011KT 9999 BKN030 SCT140 25/17 A3001 NOSIG=
201907012200 METAR MRPV 012200Z 09014KT 9999 SCT025 SCT120 24/17 A3002 NOSIG=
201907012300 METAR MRPV 012300Z 09011KT 9999 SCT035 BKN140 23/17 A3002 NOSIG=
201907020000 METAR MRPV 020000Z 11006KT 9999 FEW045 OVC140 23/17 A3004 NOSIG=
201907020100 METAR MRPV NIL=
201907020200 METAR MRPV NIL=
201907020300 METAR MRPV NIL=
201907020400 METAR MRPV NIL=
201907020500 METAR MRPV NIL=
201907020600 METAR MRPV NIL=
201907020700 METAR MRPV NIL=
201907020800 METAR MRPV NIL=
201907020900 METAR MRPV NIL=
201907021000 METAR MRPV NIL=
201907021100 METAR MRPV NIL=
201907021200 METAR MRPV 021200Z 11012KT 9999 FEW035 BKN220 21/16 A3003 NOSIG=
201907021300 METAR MRPV 021300Z 11014KT 9999 FEW030 SCT110 BKN220 22/17 A3004 NOSIG=
201907021400 METAR MRPV 021400Z 09014KT 9999 FEW035 SCT250 23/17 A3004 NOSIG=
201907021500 METAR MRPV 021500Z 07014KT 9999 FEW040 BKN250 24/16 A3006 NOSIG=
201907021600 METAR MRPV 021600Z 07011KT 9999 SCT040 25/17 A3007 NOSIG=
201907021700 METAR MRPV 021700Z 08014KT 9999 FEW045 SCT250 26/17 A3007 NOSIG=
201907021800 METAR MRPV 021800Z 09012KT 9999 SCT040 SCT090 25/17 A3005 NOSIG=
201907021900 METAR MRPV 021900Z 08011KT 9999 SCT040 SCT100 25/17 A3004 NOSIG=
201907022000 METAR MRPV 022000Z 09009KT 9999 SCT030 SCT120 27/18 A3000 NOSIG=
201907022015 METAR MRPV 022015Z 08008KT 9999 4500NE -TSRA FEW020CB SCT040 SCT120 27/18 A3000 NOSIG=
201907022100 METAR MRPV 022100Z 05009KT 9999 4000NW -RA FEW020 SCT040 BKN060 19/17 A3000 RETS NOSIG=
201907022200 METAR MRPV 022200Z 14003KT 9999 FEW040 SCT080 BKN140 21/18 A2999 NOSIG=
201907022300 METAR MRPV 022300Z 12001KT 9999 FEW015 SCT080 BKN160 22/18 A2999 NOSIG=
201907030000 METAR MRPV 030000Z 10001KT 350V050 9999 FEW015 SCT035 BKN160 21/19 A3002 NOSIG=
201907030100 METAR MRPV NIL=
201907030200 METAR MRPV NIL=
201907030300 METAR MRPV NIL=
201907030400 METAR MRPV NIL=
201907030500 METAR MRPV NIL=
201907030600 METAR MRPV NIL=
201907030700 METAR MRPV NIL=
201907030800 METAR MRPV NIL=
201907030900 METAR MRPV NIL=
201907031000 METAR MRPV NIL=
201907031100 METAR MRPV NIL=
201907031200 METAR MRPV 031200Z 10011KT 9999 SCT030 SCT100 21/17 A3001 NOSIG=
201907031300 METAR MRPV 031300Z 11009KT 9999 SCT030 BKN120 21/17 A3002 NOSIG=
201907031400 METAR MRPV 031400Z 12011KT 9999 FEW030 BKN120 22/17 A3002 NOSIG=
201907031500 METAR MRPV 031500Z 10013KT 9999 FEW035 BKN140 24/18 A3004 NOSIG=
201907031600 METAR MRPV 031600Z 10014KT 9999 FEW035 BKN160 23/18 A3004 NOSIG=
201907031700 METAR MRPV 031700Z 11012KT 9999 -RA FEW030 SCT100 22/18 A3008 NOSIG=
201907031800 METAR MRPV 031800Z 13012KT 8000 RA FEW025 BKN080 20/18 A3002 NOSIG=
201907031900 METAR MRPV 031900Z 13012KT 7000 +RA FEW030 OVC080 20/18 A3002 NOSIG=
201907032000 METAR MRPV 032000Z 13011KT 9999 RA FEW040 OVC080 19/17 A2999 NOSIG=
201907032100 METAR MRPV 032100Z 12013G23KT 9999 -DZ FEW040 OVC080 20/16 A2997 RERA NOSIG=
201907032200 METAR MRPV 032200Z 10015G25KT 9999 -DZ FEW030 BKN100 21/16 A2997 NOSIG=
201907032300 METAR MRPV 032300Z 10017KT 9999 FEW035 OVC100 21/16 A2997 NOSIG=
201907040000 METAR MRPV 040000Z 12013G23KT 9999 FEW040 OVC100 21/16 A2999 NOSIG=
201907040100 METAR MRPV NIL=
201907040200 METAR MRPV NIL=
201907040300 METAR MRPV NIL=
201907040400 METAR MRPV NIL=
201907040500 METAR MRPV NIL=
201907040600 METAR MRPV NIL=
201907040700 METAR MRPV NIL=
201907040800 METAR MRPV NIL=
201907040900 METAR MRPV NIL=
201907041000 METAR MRPV NIL=
201907041100 METAR MRPV NIL=
201907041200 METAR MRPV 041200Z 11012KT 9999 FEW035 SCT140 21/16 A2997 NOSIG=
201907041300 METAR MRPV 041300Z 10013KT 9999 FEW035 BKN180 22/16 A3000 NOSIG=
201907041400 METAR MRPV 041400Z 09012KT CAVOK 24/15 A3001 NOSIG=
201907041500 METAR MRPV 041500Z 10014KT CAVOK 24/15 A3004 NOSIG=
201907041600 METAR MRPV 041600Z 09018KT CAVOK 24/15 A3005 NOSIG=
201907041700 METAR MRPV 041700Z 09013KT CAVOK 24/16 A3004 NOSIG=
201907041800 METAR MRPV 041800Z 08016G26KT CAVOK 26/15 A3002 NOSIG=
201907041900 METAR MRPV 041900Z 08017KT CAVOK 25/15 A3001 NOSIG=
201907042000 METAR MRPV 042000Z 09016KT CAVOK 25/14 A3000 NOSIG=
201907042100 METAR MRPV 042100Z 08017KT CAVOK 25/14 A2999 WSR09 NOSIG=
201907042200 METAR MRPV 042200Z 08015G25KT 9999 FEW045 OVC200 24/15 A2998 WSR09 NOSIG=
201907042300 METAR MRPV 042300Z 09018KT CAVOK 23/15 A2999 WSR09 NOSIG=
201907050000 METAR MRPV 050000Z 08016KT CAVOK 22/15 A2998 WSR09 NOSIG=
201907050100 METAR MRPV NIL=
201907050200 METAR MRPV NIL=
201907050300 METAR MRPV NIL=
201907050400 METAR MRPV NIL=
201907050500 METAR MRPV NIL=
201907050600 METAR MRPV NIL=
201907050700 METAR MRPV NIL=
201907050800 METAR MRPV NIL=
201907050900 METAR MRPV NIL=
201907051000 METAR MRPV NIL=
201907051100 METAR MRPV NIL=
201907051200 METAR MRPV 051200Z 12010KT CAVOK 19/14 A3005 NOSIG=
201907051300 METAR MRPV 051300Z 13009KT CAVOK 21/13 A3005 NOSIG=
201907051400 METAR MRPV 051400Z 09016KT CAVOK 22/14 A3006 NOSIG=
201907051500 METAR MRPV 051500Z 09017KT CAVOK 23/14 A3006 NOSIG=
201907051600 METAR MRPV 051600Z 08016KT CAVOK 24/15 A3006 NOSIG=
201907051700 METAR MRPV 051700Z 07016KT CAVOK 25/16 A3006 NOSIG=
201907051800 METAR MRPV 051800Z 07011KT CAVOK 26/16 A3004 NOSIG=
201907051900 METAR MRPV 051900Z 08013KT 9999 FEW040 SCT200 27/17 A3004 NOSIG=
201907052000 METAR MRPV 052000Z 07015KT 9999 FEW040 SCT200 25/17 A3002 NOSIG=
201907052100 METAR MRPV 052100Z 07012KT 9999 FEW035 SCT200 25/16 A3001 NOSIG=
201907052200 METAR MRPV 052200Z 07015KT 9999 FEW035 BKN200 25/15 A3001 NOSIG=
201907052300 METAR MRPV 052300Z 07013KT 9999 FEW035 BKN200 23/14 A3002 NOSIG=
201907060000 METAR MRPV 060000Z 09014KT 9999 FEW030 SCT200 22/14 A3003 NOSIG=
201907060100 METAR MRPV NIL=
201907060200 METAR MRPV NIL=
201907060300 METAR MRPV NIL=
201907060400 METAR MRPV NIL=
201907060500 METAR MRPV NIL=
201907060600 METAR MRPV NIL=
201907060700 METAR MRPV NIL=
201907060800 METAR MRPV NIL=
201907060900 METAR MRPV NIL=
201907061000 METAR MRPV NIL=
201907061100 METAR MRPV NIL=
201907061200 METAR MRPV 061200Z 14009KT CAVOK 20/12 A3003 NOSIG=
201907061300 METAR MRPV 061300Z 11007KT CAVOK 22/13 A3005 NOSIG=
201907061400 METAR MRPV 061400Z 10008KT CAVOK 24/12 A3006 NOSIG=
201907061500 METAR MRPV 061500Z 29005KT CAVOK 25/15 A3006 NOSIG=
201907061600 METAR MRPV 061600Z 30004KT CAVOK 26/16 A3005 NOSIG=
201907061700 METAR MRPV 061700Z 30010KT CAVOK 27/17 A3004 NOSIG=
201907061800 METAR MRPV 061800Z 26005KT 9999 FEW045 SCT090 27/17 A3003 NOSIG=
201907061900 METAR MRPV 061900Z 28006KT 9999 SCT045 28/19 A3000 NOSIG=
201907062000 METAR MRPV 062000Z 26006KT 110V270 9999 SCT040 27/18 A2999 NOSIG=
201907062100 METAR MRPV 062100Z 27005KT 9999 BKN040 26/19 A2998 NOSIG=
201907062200 METAR MRPV 062200Z 32003KT 9999 BKN035 26/20 A2998 NOSIG=
201907062300 METAR MRPV 062300Z 10010KT 9999 SCT030 BKN200 25/18 A3000 NOSIG=
201907070000 METAR MRPV 070000Z 10009KT 9999 SCT035 SCT160 24/18 A3003 NOSIG=
201907070100 METAR MRPV NIL=
201907070200 METAR MRPV NIL=
201907070300 METAR MRPV NIL=
201907070400 METAR MRPV NIL=
201907070500 METAR MRPV NIL=
201907070600 METAR MRPV NIL=
201907070700 METAR MRPV NIL=
201907070800 METAR MRPV NIL=
201907070900 METAR MRPV NIL=
201907071000 METAR MRPV NIL=
201907071100 METAR MRPV NIL=
201907071200 METAR MRPV 071200Z 29006KT 170V260 9999 4000W BCFG FEW004 SCT100 BKN250 21/18 A3006 NOSIG=
201907071300 METAR MRPV 071300Z VRB02KT 9999 VCFG FEW035 BKN250 21/19 A3006 NOSIG=
201907071400 METAR MRPV 071400Z 10012KT 9999 FEW035 BKN250 24/18 A3006 NOSIG=
201907071500 METAR MRPV 071500Z 10013KT 9999 FEW035 BKN220 26/18 A3006 NOSIG=
201907071600 METAR MRPV 071600Z 09011KT 9999 FEW040 BKN220 27/17 A3004 NOSIG=
201907071700 METAR MRPV 071700Z 06014KT 9999 SCT040 BKN220 27/17 A3003 NOSIG=
201907071800 METAR MRPV 071800Z 09011KT 9999 SCT035 BKN220 27/18 A3002 NOSIG=
201907071900 METAR MRPV 071900Z 07011KT 9999 BKN035 26/18 A3001 NOSIG=
201907072000 METAR MRPV 072000Z 07013KT 9999 4500E SHRA VCTS FEW020CB FEW035 SCT080 27/18 A2999 NOSIG=
201907072100 METAR MRPV 072100Z 10007KT 9999 -RA VCTS FEW020CB SCT035 SCT100 24/20 A2998 RESH NOSIG=
201907072200 METAR MRPV 072200Z 10007KT 9999 VCTS SCT030 SCT080 24/19 A2998 NOSIG=
201907072300 METAR MRPV 072300Z 11006KT 9999 SCT030 SCT140 24/18 A3000 NOSIG=
201907080000 METAR MRPV 080000Z 29003KT 9999 BCFG FEW010 SCT030 BKN160 22/20 A3001 NOSIG=
201907080100 METAR MRPV NIL=
201907080200 METAR MRPV NIL=
201907080300 METAR MRPV NIL=
201907080400 METAR MRPV NIL=
201907080500 METAR MRPV NIL=
201907080600 METAR MRPV NIL=
201907080700 METAR MRPV NIL=
201907080800 METAR MRPV NIL=
201907080900 METAR MRPV NIL=
201907081000 METAR MRPV NIL=
201907081100 METAR MRPV NIL=
201907081200 METAR MRPV 081200Z 04002KT 9999 4500W BCFG FEW007 OVC020 19/18 A3005 NOSIG=
201907081300 METAR MRPV 081300Z 15002KT 9999 FEW030 BKN200 21/19 A3005 NOSIG=
201907081400 METAR MRPV 081400Z 11005KT 9999 FEW035 BKN200 23/18 A3003 NOSIG=
201907081500 METAR MRPV 081500Z 11010KT 9999 FEW035 BKN200 25/18 A3006 NOSIG=
201907081600 METAR MRPV 081600Z 09008KT 9999 SCT035 BKN200 26/17 A3006 NOSIG=
201907081700 METAR MRPV 081700Z 28009KT 9999 SCT035 BKN200 25/19 A3006 NOSIG=
201907081800 METAR MRPV 081800Z 28011KT 9999 -RA FEW020TCU SCT035 SCT200 25/19 A3004 NOSIG=
201907081900 METAR MRPV 081900Z 32007KT 3000 +RA BCFG FEW015 BKN025 20/19 A3004 RETS NOSIG=
201907082000 METAR MRPV 082000Z 32005KT 5000 BR SCT010 BKN030 20/19 A3004 RERA NOSIG=
201907082100 METAR MRPV 082100Z 29006KT 5000 BR BKN010 SCT035 21/19 A3003 NOSIG=
201907082200 METAR MRPV 082200Z 31006KT 3000 RA BR BKN010 SCT025 20/19 A3003 NOSIG=
201907082300 METAR MRPV 082300Z 31005KT 3000 RA BR BKN005 SCT020 20/19 A3005 NOSIG=
201907090000 METAR MRPV 090000Z 33003KT 5000 -RA BR SCT010 BKN030 19/18 A3008 NOSIG=
201907090100 METAR MRPV NIL=
201907090200 METAR MRPV NIL=
201907090300 METAR MRPV NIL=
201907090400 METAR MRPV NIL=
201907090500 METAR MRPV NIL=
201907090600 METAR MRPV NIL=
201907090700 METAR MRPV NIL=
201907090800 METAR MRPV NIL=
201907090900 METAR MRPV NIL=
201907091000 METAR MRPV NIL=
201907091100 METAR MRPV NIL=
201907091200 METAR MRPV 091200Z 14006KT 9999 FEW035 BKN120 21/17 A3009 NOSIG=
201907091300 METAR MRPV 091300Z 13008KT 9999 FEW025 BKN120 21/17 A3011 NOSIG=
201907091400 METAR MRPV 091400Z 11009KT 9999 FEW035 SCT120 BKN160 22/18 A3012 NOSIG=
201907091500 METAR MRPV 091500Z 12007KT 9999 FEW025 BKN120 23/18 A3012 NOSIG=
201907091600 METAR MRPV 091600Z 13007KT 9999 FEW045 BKN120 24/18 A3012 NOSIG=
201907091700 METAR MRPV 091700Z 09009KT CAVOK 25/17 A3011 NOSIG=
201907091800 METAR MRPV 091800Z 09012KT 9999 FEW035 BKN160 26/17 A3009 NOSIG=
201907091900 METAR MRPV 091900Z 08012KT 9999 RA FEW030 BKN140 24/18 A3007 NOSIG=
201907092000 METAR MRPV 092000Z 14006KT 9999 RA FEW030 BKN140 24/18 A3005 NOSIG=
201907092100 METAR MRPV 092100Z 09012KT 9999 FEW030 BKN120 25/17 A3003 RERA NOSIG=
201907092200 METAR MRPV 092200Z 11007KT 9999 FEW025 BKN120 25/17 A3003 NOSIG=
201907092235 METAR MRPV 092235Z 09012KT 9999 3000N RA SCT030 BKN120 24/17 A3005 NOSIG=
201907092300 METAR MRPV 092300Z 12002KT 9999 SCT030 BKN120 21/18 A3006 RERA NOSIG=
201907100000 METAR MRPV 100000Z 12007KT 9999 FEW030 SCT120 22/17 A3008 NOSIG=
201907100100 METAR MRPV NIL=
201907100200 METAR MRPV NIL=
201907100300 METAR MRPV NIL=
201907100400 METAR MRPV NIL=
201907100500 METAR MRPV NIL=
201907100600 METAR MRPV NIL=
201907100700 METAR MRPV NIL=
201907100800 METAR MRPV NIL=
201907100900 METAR MRPV NIL=
201907101000 METAR MRPV NIL=
201907101100 METAR MRPV NIL=
201907101200 METAR MRPV 101200Z 13008KT 9999 FEW040 SCT120 BKN160 20/16 A3008 NOSIG=
201907101300 METAR MRPV 101300Z 12009KT CAVOK 21/16 A3008 NOSIG=
201907101400 METAR MRPV 101400Z 13008KT CAVOK 21/17 A3008 NOSIG=
201907101500 METAR MRPV 101500Z 14007KT CAVOK 24/16 A3007 NOSIG=
201907101600 METAR MRPV 101600Z 09015KT CAVOK 24/17 A3007 NOSIG=
201907101700 METAR MRPV 101700Z 09012KT CAVOK 26/18 A3006 NOSIG=
201907101800 METAR MRPV 101800Z 09010KT 9999 FEW040 BKN160 26/17 A3004 NOSIG=
201907101900 METAR MRPV 101900Z 10013KT 9999 SCT040 BKN120 26/17 A3003 NOSIG=
201907102000 METAR MRPV 102000Z 10012KT 9999 SCT040 BKN090 25/17 A3003 NOSIG=
201907102100 METAR MRPV 102100Z 34004KT 9999 VCTS FEW010CB BKN030 23/20 A3003 NOSIG=
201907102200 METAR MRPV 102200Z 32004KT 9999 FEW035 SCT090 BKN140 23/19 A3002 NOSIG=
201907102300 METAR MRPV 102300Z 28004KT 9999 4000SW BCFG FEW010 BKN120 22/20 A3003 NOSIG=
201907110000 METAR MRPV 110000Z 30002KT 9999 BCFG FEW008 OVC120 21/19 A3005 NOSIG=
201907110100 METAR MRPV NIL=
201907110200 METAR MRPV NIL=
201907110300 METAR MRPV NIL=
201907110400 METAR MRPV NIL=
201907110500 METAR MRPV NIL=
201907110600 METAR MRPV NIL=
201907110700 METAR MRPV NIL=
201907110800 METAR MRPV NIL=
201907110900 METAR MRPV NIL=
201907111000 METAR MRPV NIL=
201907111100 METAR MRPV NIL=
201907111200 METAR MRPV 111200Z 13009KT CAVOK 21/16 A3002 NOSIG=
201907111300 METAR MRPV 111300Z 11008KT CAVOK 23/17 A3004 NOSIG=
201907111400 METAR MRPV 111400Z 10010KT CAVOK 24/17 A3006 NOSIG=
201907111500 METAR MRPV 111500Z 08012KT 9999 FEW035 SCT140 BKN200 25/16 A3006 NOSIG=
201907111600 METAR MRPV 111600Z 08011KT 9999 FEW045 BKN120 26/17 A3006 NOSIG=
201907111700 METAR MRPV 111700Z 08009KT 9999 FEW045 SCT120 BKN200 27/17 A3003 NOSIG=
201907111800 METAR MRPV 111800Z 07012KT 9999 BKN045 28/17 A3000 NOSIG=
201907111900 METAR MRPV 111900Z 07012KT 9999 BKN045 27/17 A2998 NOSIG=
201907112000 METAR MRPV 112000Z 10007KT 9999 -TSRA FEW010CB BKN100 22/19 A2996 NOSIG=
201907112100 METAR MRPV 112100Z 24002KT 9999 TSRA FEW010CB FEW025 OVC100 23/19 A2997 NOSIG=
201907112200 METAR MRPV 112200Z 31005KT 9999 FEW005 OVC100 21/19 A2997 RETSRA NOSIG=
201907112300 METAR MRPV 112300Z 15001KT 9999 FEW045 OVC100 21/19 A2997 NOSIG=
201907120000 METAR MRPV 120000Z 32004KT 9999 SCT010 OVC100 21/19 A2999 NOSIG=
201907120100 METAR MRPV NIL=
201907120200 METAR MRPV NIL=
201907120300 METAR MRPV NIL=
201907120400 METAR MRPV NIL=
201907120500 METAR MRPV NIL=
201907120600 METAR MRPV NIL=
201907120700 METAR MRPV NIL=
201907120800 METAR MRPV NIL=
201907120900 METAR MRPV NIL=
201907121000 METAR MRPV NIL=
201907121100 METAR MRPV NIL=
201907121200 METAR MRPV 121200Z 14005KT CAVOK 18/16 A2998 NOSIG=
201907121300 METAR MRPV 121300Z 06005KT CAVOK 20/16 A3001 NOSIG=
201907121400 METAR MRPV 121400Z 10012KT CAVOK 21/16 A3001 NOSIG=
201907121500 METAR MRPV 121500Z 14008KT CAVOK 22/16 A3000 NOSIG=
201907121600 METAR MRPV 121600Z 10010KT 9999 FEW040 BKN120 24/17 A3002 NOSIG=
201907121700 METAR MRPV 121700Z 09010KT 9999 SCT040 BKN200 25/17 A3002 NOSIG=
201907121800 METAR MRPV 121800Z 10013KT 9999 RA SCT025 BKN200 22/18 A3001 NOSIG=
201907121900 METAR MRPV 121900Z 10016KT 9999 FEW030 BKN200 25/17 A2998 RERA NOSIG=
201907122000 METAR MRPV 122000Z 12010KT 9999 FEW045 BKN200 27/17 A2995 NOSIG=
201907122100 METAR MRPV 122100Z 14007KT 9999 FEW030 SCT160 BKN200 25/17 A2994 NOSIG=
201907122200 METAR MRPV 122200Z 12008KT 9999 FEW025 BKN160 25/17 A2994 NOSIG=
201907122300 METAR MRPV 122300Z 28009KT 050V290 9999 FEW020 BKN160 23/21 A2994 NOSIG=
201907130000 METAR MRPV 130000Z 30006KT 9999 FEW010 SCT160 BKN200 22/20 A2996 NOSIG=
201907130100 METAR MRPV NIL=
201907130200 METAR MRPV NIL=
201907130300 METAR MRPV NIL=
201907130400 METAR MRPV NIL=
201907130500 METAR MRPV NIL=
201907130600 METAR MRPV NIL=
201907130700 METAR MRPV NIL=
201907130800 METAR MRPV NIL=
201907130900 METAR MRPV NIL=
201907131000 METAR MRPV NIL=
201907131100 METAR MRPV NIL=
201907131200 METAR MRPV 131200Z 15007KT 9999 FEW030 BKN220 20/16 A2999 NOSIG=
201907131300 METAR MRPV 131300Z 13009KT 9999 FEW030 BKN220 21/16 A3002 NOSIG=
201907131400 METAR MRPV 131400Z 12010KT 9999 FEW030 BKN220 23/17 A3002 NOSIG=
201907131500 METAR MRPV 131500Z 08014KT 9999 FEW030 SCT220 24/17 A3004 NOSIG=
201907131600 METAR MRPV 131600Z 10011KT 9999 FEW025 SCT060 24/17 A3003 NOSIG=
201907131700 METAR MRPV 131700Z 08014KT 9999 FEW040 SCT060 25/17 A3002 NOSIG=
201907131800 METAR MRPV 131800Z 07011KT 9999 FEW040 SCT100 26/17 A3000 NOSIG=
201907131900 METAR MRPV 131900Z 08013KT 9999 SCT035 SCT100 26/17 A2998 NOSIG=
201907132000 METAR MRPV 132000Z 09012KT 9999 SCT035 SCT100 26/18 A2996 NOSIG=
201907132100 METAR MRPV 132100Z 10010KT 9999 400NE RA BKN030 SCT080 24/16 A2996 NOSIG=
201907132200 METAR MRPV 132200Z 13007KT 9999 -RA FEW010 BKN030 22/17 A2997 NOSIG=
201907132300 METAR MRPV 132300Z 34002KT 9999 FEW010 BKN060 23/19 A2998 NOSIG=
201907140000 METAR MRPV 140000Z 28002KT 9999 BCFG FEW010 SCT030 BKN060 21/19 A3001 NOSIG=
201907140100 METAR MRPV NIL=
201907140200 METAR MRPV NIL=
201907140300 METAR MRPV NIL=
201907140400 METAR MRPV NIL=
201907140500 METAR MRPV NIL=
201907140600 METAR MRPV NIL=
201907140700 METAR MRPV NIL=
201907140800 METAR MRPV NIL=
201907140900 METAR MRPV NIL=
201907141000 METAR MRPV NIL=
201907141100 METAR MRPV NIL=
201907141200 METAR MRPV 141200Z 10012KT 9999 FEW025 SCT070 BKN250 21/17 A3002 NOSIG=
201907141300 METAR MRPV 141300Z 11011KT 9999 FEW020 BKN250 22/17 A3002 NOSIG=
201907141400 METAR MRPV 141400Z 09012KT 9999 FEW030 BKN220 23/16 A3004 NOSIG=
201907141500 METAR MRPV 141500Z 08014KT 9999 FEW035 BKN200 24/16 A3004 NOSIG=
201907141600 METAR MRPV 141600Z 08011KT 9999 DZ FEW035 OVC100 22/18 A3005 NOSIG=
201907141700 METAR MRPV 141700Z 11009KT 9999 -RA FEW020 OVC100 21/18 A3004 REDZ NOSIG=
201907141800 METAR MRPV 141800Z 09011KT 9999 FEW030 BKN090 23/18 A3001 NOSIG=
201907141900 METAR MRPV 141900Z 09010KT 9999 SCT030 BKN100 24/18 A3000 NOSIG=
201907142000 METAR MRPV 142000Z 11012KT 9999 -RA SCT030 SCT100 24/18 A2999 NOSIG=
201907142100 METAR MRPV 142100Z 10010KT 9999 FEW025 SCT040 BKN110 23/17 A2998 NOSIG=
201907142200 METAR MRPV 142200Z 10012KT 9999 -RA SCT035 BKN120 22/17 A2998 NOSIG=
201907142300 METAR MRPV 142300Z 14005KT 9999 -RA FEW025 BKN140 20/17 A3000 NOSIG=
201907150000 METAR MRPV 150000Z 10005KT 9999 FEW045 BKN120 20/17 A3001 NOSIG=
201907150100 METAR MRPV NIL=
201907150200 METAR MRPV NIL=
201907150300 METAR MRPV NIL=
201907150400 METAR MRPV NIL=
201907150500 METAR MRPV NIL=
201907150600 METAR MRPV NIL=
201907150700 METAR MRPV NIL=
201907150800 METAR MRPV NIL=
201907150900 METAR MRPV NIL=
201907151000 METAR MRPV NIL=
201907151100 METAR MRPV NIL=
201907151200 METAR MRPV 151200Z VRB02KT 190V090 9999 FEW020 SCT035 BKN120 18/17 A3002 NOSIG=
201907151300 METAR MRPV 151300Z 00000KT 9999 FEW035 BKN120 18/17 A3004 NOSIG=
201907151400 METAR MRPV 151400Z 32002KT 9999 FEW040 BKN120 21/18 A3006 NOSIG=
201907151500 METAR MRPV 151500Z 08010KT 9999 FEW035 BKN120 24/17 A3006 NOSIG=
201907151600 METAR MRPV 151600Z 12004KT CAVOK 24/17 A3006 NOSIG=
201907151700 METAR MRPV 151700Z 09010KT CAVOK 24/17 A3004 NOSIG=
201907151800 METAR MRPV 151800Z 09006KT CAVOK 26/17 A3002 NOSIG=
201907151900 METAR MRPV 151900Z 06006KT 9999 SCT045 BKN120 27/17 A2999 NOSIG=
201907152000 METAR MRPV 152000Z 28009KT 9999 BKN045 26/21 A2996 NOSIG=
201907152100 METAR MRPV 152100Z 29009KT 9999 RA FEW010 BKN025 23/21 A2996 NOSIG=
201907152200 METAR MRPV 152200Z 25005KT 3000 RA BR OVC004 21/20 A2996 NOSIG=
201907152300 METAR MRPV 152300Z VRB01KT 5000 RA BCFG SCT010 BKN035 20/19 A3000 RETS NOSIG=
201907160000 METAR MRPV 160000Z 14001KT 9999 FEW035 BKN120 19/18 A3001 RERA NOSIG=
201907160100 METAR MRPV NIL=
201907160200 METAR MRPV NIL=
201907160300 METAR MRPV NIL=
201907160400 METAR MRPV NIL=
201907160500 METAR MRPV NIL=
201907160600 METAR MRPV NIL=
201907160700 METAR MRPV NIL=
201907160800 METAR MRPV NIL=
201907160900 METAR MRPV NIL=
201907161000 METAR MRPV NIL=
201907161100 METAR MRPV NIL=
201907161200 METAR MRPV 161200Z 12011KT 9999 FEW035 BKN140 21/17 A3004 NOSIG=
201907161300 METAR MRPV COR 161300Z 10012KT 9999 FEW030 BKN140 21/17 A3005 NOSIG=
201907161400 METAR MRPV 161400Z 09014KT 9999 FEW035 BKN140 22/16 A3006 NOSIG=
201907161500 METAR MRPV 161500Z 10015KT 9999 FEW035 SCT140 23/17 A3007 NOSIG=
201907161600 METAR MRPV 161600Z 10014G25KT 9999 FEW040 SCT120 24/16 A3008 NOSIG=
201907161700 METAR MRPV 161700Z 08014KT CAVOK 24/16 A3006 NOSIG=
201907161800 METAR MRPV COR 161800Z 09014KT 9999 FEW040 BKN160 25/16 A3004 NOSIG=
201907161900 METAR MRPV 161900Z 10012KT 9999 SCT035 OVC140 24/17 A3003 NOSIG=
201907162000 METAR MRPV 162000Z 09013KT 9999 BKN035 23/16 A3002 NOSIG=
201907162100 METAR MRPV 162100Z 09013KT 9999 SCT035 BKN120 23/16 A3002 NOSIG=
201907162200 METAR MRPV 162200Z 10013KT 9999 FEW040 BKN120 23/15 A3000 NOSIG=
201907162300 METAR MRPV 162300Z 09011KT CAVOK 23/15 A3001 NOSIG=
201907170000 METAR MRPV 170000Z 11010KT CAVOK 22/14 A3003 NOSIG=
201907170100 METAR MRPV NIL=
201907170200 METAR MRPV NIL=
201907170300 METAR MRPV NIL=
201907170400 METAR MRPV NIL=
201907170500 METAR MRPV NIL=
201907170600 METAR MRPV NIL=
201907170700 METAR MRPV NIL=
201907170800 METAR MRPV NIL=
201907170900 METAR MRPV NIL=
201907171000 METAR MRPV NIL=
201907171100 METAR MRPV NIL=
201907171200 METAR MRPV 171200Z 13006KT CAVOK 20/15 A3001 NOSIG=
201907171300 METAR MRPV 171300Z 13006KT CAVOK 23/16 A3002 NOSIG=
201907171400 METAR MRPV 171400Z 09009KT CAVOK 24/16 A3005 NOSIG=
201907171500 METAR MRPV 171500Z 32002KT 9999 FEW040 24/18 A3005 NOSIG=
201907171600 METAR MRPV 171600Z 04005KT 9999 FEW045 26/16 A3005 NOSIG=
201907171700 METAR MRPV 171700Z 09009KT 9999 FEW040 27/17 A3004 NOSIG=
201907171800 METAR MRPV 171800Z 08013KT 9999 SCT040 26/17 A3003 NOSIG=
201907171900 METAR MRPV 171900Z 07007KT 9999 SCT040 28/18 A3001 BECMG 29008KT=
201907172000 METAR MRPV 172000Z 06005KT 9999 SCT040 28/17 A2999 NOSIG=
201907172100 METAR MRPV 172100Z 06007KT 9999 FEW015 SCT040 27/17 A2998 NOSIG=
201907172200 METAR MRPV 172200Z 28005KT 9999 FEW020 SCT040 25/20 A2997 NOSIG=
201907172300 METAR MRPV 172300Z 05006KT 290V050 9999 FEW025 SCT200 25/18 A2998 NOSIG=
201907180000 METAR MRPV 180000Z 32003KT 9999 FEW010 SCT25 23/20 A3000 NOSIG=
201907180100 METAR MRPV NIL=
201907180200 METAR MRPV NIL=
201907180300 METAR MRPV NIL=
201907180400 METAR MRPV NIL=
201907180500 METAR MRPV NIL=
201907180600 METAR MRPV NIL=
201907180700 METAR MRPV NIL=
201907180800 METAR MRPV NIL=
201907180900 METAR MRPV NIL=
201907181000 METAR MRPV NIL=
201907181100 METAR MRPV NIL=
201907181200 METAR MRPV 181200Z 13005KT 9999 3000E RA BKN030 21/16 A3003 NOSIG=
201907181300 METAR MRPV 181300Z 13006KT 9999 -DZ SCT035 BKN100 21/17 A3004 RERA NOSIG=
201907181400 METAR MRPV 181400Z 13006KT 9999 FEW040 BKN100 22/17 A3005 NOSIG=
201907181500 METAR MRPV 181500Z 10010KT 9999 FEW040 BKN100 23/18 A3005 NOSIG=
201907181600 METAR MRPV 181600Z 09014KT 9999 FEW035 SCT090 BKN200 25/18 A3005 NOSIG=
201907181700 METAR MRPV 181700Z 10012KT 9000 4000E +RA SCT035 SCT090 22/18 A3006 NOSIG=
201907181800 METAR MRPV 181800Z 10009KT 9999 RA FEW035 BKN100 21/18 A3002 NOSIG=
201907181900 METAR MRPV 181900Z 10010KT 9999 -RA FEW045 BKN100 20/18 A3003 NOSIG=
201907182000 METAR MRPV 182000Z 11007KT 9999 FEW015 BKN100 21/18 A3002 NOSIG=
201907182100 METAR MRPV 182100Z 09011KT 9999 FEW020 OVC100 22/17 A3000 NOSIG=
201907182200 METAR MRPV 182200Z 11008KT 9999 FEW035 OVC100 22/17 A3000 NOSIG=
201907182300 METAR MRPV 182300Z 10009KT 9999 FEW040 OVC100 22/17 A3000 NOSIG=
201907190000 METAR MRPV 190000Z 13006KT 9999 FEW045 BKN110 21/17 A3000 NOSIG=
201907190100 METAR MRPV NIL=
201907190200 METAR MRPV NIL=
201907190300 METAR MRPV NIL=
201907190400 METAR MRPV NIL=
201907190500 METAR MRPV NIL=
201907190600 METAR MRPV NIL=
201907190700 METAR MRPV NIL=
201907190800 METAR MRPV NIL=
201907190900 METAR MRPV NIL=
201907191000 METAR MRPV NIL=
201907191100 METAR MRPV NIL=
201907191200 METAR MRPV 191200Z 11013KT 9999 FEW040 BKN250 21/17 A3000 NOSIG=
201907191300 METAR MRPV 191300Z 13011KT 9999 FEW030 BKN250 22/17 A3001 NOSIG=
201907191400 METAR MRPV 191400Z 12009KT 9999 FEW045 SCT120 BKN250 23/17 A3003 NOSIG=
201907191500 METAR MRPV 191500Z 09013KT 9999 FEW045 SCT100 24/17 A3003 NOSIG=
201907191600 METAR MRPV 191600Z 09014KT 9999 FEW035 SCT100 25/18 A3003 NOSIG=
201907191700 METAR MRPV 191700Z 09014KT 9999 FEW045 SCT120 26/18 A3001 NOSIG=
201907191800 METAR MRPV 191800Z 08014KT 9999 FEW035 BKN120 26/19 A3000 NOSIG=
201907191900 METAR MRPV 191900Z 08014KT 9999 SCT040 SCT120 26/18 A2999 NOSIG=
201907192000 METAR MRPV 192000Z 09010KT 9999 SCT035 SCT120 26/19 A2997 NOSIG=
201907192100 METAR MRPV 192100Z 24002KT 9999 SCT030 BKN100 25/18 A2994 NOSIG=
201907192200 METAR MRPV 192200Z 25002KT 9999 4000SW BCFG FEW010 SCT030 BKN100 22/19 A2995 NOSIG=
201907192300 METAR MRPV 192300Z 16004KT 9999 FEW030 BKN160 23/19 A2996 NOSIG=
201907200000 METAR MRPV 200000Z 10012KT 9999 FEW035 BKN160 23/18 A2997 NOSIG=
201907200100 METAR MRPV NIL=
201907200200 METAR MRPV NIL=
201907200300 METAR MRPV NIL=
201907200400 METAR MRPV NIL=
201907200500 METAR MRPV NIL=
201907200600 METAR MRPV NIL=
201907200700 METAR MRPV NIL=
201907200800 METAR MRPV NIL=
201907200900 METAR MRPV NIL=
201907201000 METAR MRPV NIL=
201907201100 METAR MRPV NIL=
201907201200 METAR MRPV 201200Z 15006KT 9999 FEW035 21/17 A2998 NOSIG=
201907201300 METAR MRPV 201300Z 13006KT 9999 FEW040 23/17 A3000 NOSIG=
201907201400 METAR MRPV 201400Z 09011KT 9999 FEW040 24/18 A3001 NOSIG=
201907201500 METAR MRPV 201500Z 07013KT 9999 FEW045 25/18 A3001 NOSIG=
201907201600 METAR MRPV 201600Z 08014KT 9999 FEW045 26/18 A3001 NOSIG=
201907201700 METAR MRPV 201700Z 07014KT 9999 FEW035 27/18 A3001 NOSIG=
201907201800 METAR MRPV 201800Z 09015KT 9999 SCT040 27/18 A2999 NOSIG=
201907201900 METAR MRPV 201900Z 07013G24KT 9999 FEW035 28/18 A2996 NOSIG=
201907202000 METAR MRPV 202000Z 08015KT 9999 FEW035 28/18 A2994 NOSIG=
201907202100 METAR MRPV 202100Z 07016G28KT 9999 FEW035 27/18 A2992 NOSIG=
201907202200 METAR MRPV 202200Z 09017KT 9999 FEW035 SCT200 27/19 A2992 NOSIG=
201907202300 METAR MRPV 202300Z 10016KT 9999 FEW035 SCT200 25/18 A2993 NOSIG=
201907210000 METAR MRPV 210000Z 11012KT 9999 FEW040 SCT200 23/18 A2995 NOSIG=
201907210100 METAR MRPV NIL=
201907210200 METAR MRPV NIL=
201907210300 METAR MRPV NIL=
201907210400 METAR MRPV NIL=
201907210500 METAR MRPV NIL=
201907210600 METAR MRPV NIL=
201907210700 METAR MRPV NIL=
201907210800 METAR MRPV NIL=
201907210900 METAR MRPV NIL=
201907211000 METAR MRPV NIL=
201907211100 METAR MRPV NIL=
201907211200 METAR MRPV 211200Z 13007KT 9999 FEW040 SCT180 22/17 A2997 NOSIG=
201907211300 METAR MRPV COR 211300Z 12007KT 9999 FEW035 BKN200 23/17 A3002 NOSIG=
201907211400 METAR MRPV 211400Z 09014KT 9999 FEW035 BKN200 24/17 A3002 NOSIG=
201907211500 METAR MRPV 211500Z 09013KT 9999 FEW040 BKN200 25/18 A3001 NOSIG=
201907211600 METAR MRPV 211600Z 08015G25KT 9999 FEW035 BKN200 25/18 A3001 NOSIG=
201907211700 METAR MRPV 211700Z 07013KT 9999 BKN040 26/18 A3001 NOSIG=
201907211800 METAR MRPV 211800Z 06013KT 9999 SCT035 SCT080 27/18 A3001 NOSIG=
201907211900 METAR MRPV 211900Z 08013KT 9999 FEW040 27/18 A2996 NOSIG=
201907212000 METAR MRPV 212000Z 08014G24KT 9999 FEW040 SCT200 27/17 A2996 NOSIG=
201907212100 METAR MRPV 212100Z 08013KT 9999 FEW040 BKN200 27/17 A2995 NOSIG=
201907212200 METAR MRPV 212200Z 08011KT 9999 FEW040 BKN200 26/18 A2996 NOSIG=
201907212300 METAR MRPV 212300Z 08011KT 9999 FEW035 BKN200 25/18 A2997 NOSIG=
201907220000 METAR MRPV 220000Z 11010KT CAVOK 23/18 A2999 NOSIG=
201907220100 METAR MRPV NIL=
201907220200 METAR MRPV NIL=
201907220300 METAR MRPV NIL=
201907220400 METAR MRPV NIL=
201907220500 METAR MRPV NIL=
201907220600 METAR MRPV NIL=
201907220700 METAR MRPV NIL=
201907220800 METAR MRPV NIL=
201907220900 METAR MRPV NIL=
201907221000 METAR MRPV NIL=
201907221100 METAR MRPV NIL=
201907221200 METAR MRPV 221200Z 11008KT 9999 FEW030 BKN100 21/18 A3001 NOSIG=
201907221300 METAR MRPV 221300Z 13007KT 9999 FEW030 BKN140 22/18 A3001 NOSIG=
201907221400 METAR MRPV 221400Z 14006KT 9999 FEW030 SCT140 23/18 A3002 NOSIG=
201907221500 METAR MRPV 221500Z 09014KT 9999 FEW035 BKN140 23/18 A3005 NOSIG=
201907221600 METAR MRPV 221600Z 08012KT 9999 FEW035 BKN120 25/17 A3005 NOSIG=
201907221700 METAR MRPV 221700Z 09012KT 9999 FEW030 BKN100 22/18 A3005 REDZ NOSIG=
201907221800 METAR MRPV 221800Z 08014G24KT 9999 FEW030 SCT120 BKN200 26/17 A3003 NOSIG=
201907221900 METAR MRPV 221900Z 08015KT 9999 FEW040 SCT100 BKN200 27/16 A3002 NOSIG=
201907222000 METAR MRPV 222000Z 07015KT 9999 FEW040 SCT100 BKN200 26/17 A3001 NOSIG=
201907222100 METAR MRPV 222100Z 07012KT 9999 FEW040 SCT100 BKN200 25/16 A3000 NOSIG=
201907222200 METAR MRPV 222200Z 09008KT 9999 FEW040 BKN200 25/15 A3002 NOSIG=
201907222300 METAR MRPV 222300Z 08008KT 9999 FEW035 OVC200 24/16 A3003 NOSIG=
201907230000 METAR MRPV 230000Z 30004KT 360V300 9999 4000W BCFG SCT008 OVC200 21/19 A3004 NOSIG=
201907230100 METAR MRPV NIL=
201907230200 METAR MRPV NIL=
201907230300 METAR MRPV NIL=
201907230400 METAR MRPV NIL=
201907230500 METAR MRPV NIL=
201907230600 METAR MRPV NIL=
201907230700 METAR MRPV NIL=
201907230800 METAR MRPV NIL=
201907230900 METAR MRPV NIL=
201907231000 METAR MRPV NIL=
201907231100 METAR MRPV NIL=
201907231200 METAR MRPV 231200Z 13006KT 9999 FEW030 SCT100 BKN200 20/17 A3005 NOSIG=
201907231300 METAR MRPV 231300Z 12010KT 9999 FEW030 BKN120 21/17 A3006 NOSIG=
201907231400 METAR MRPV 231400Z 12010KT 9999 FEW025 SCT100 22/17 A3006 NOSIG=
201907231500 METAR MRPV 231500Z 09014KT 9999 FEW035 SCT100 23/17 A3008 NOSIG=
201907231600 METAR MRPV 231600Z 07013KT 9999 FEW035 BKN120 24/17 A3009 NOSIG=
201907231700 METAR MRPV 231700Z 11010KT 9999 FEW040 BKN120 23/17 A3009 NOSIG=
201907231800 METAR MRPV 231800Z 08011KT 9999 FEW045 BKN100 24/15 A3007 NOSIG=
201907231900 METAR MRPV 231900Z 09009KT 9999 FEW045 BKN110 25/15 A3004 NOSIG=
201907232000 METAR MRPV 232000Z 09009KT 9999 FEW040 BKN110 24/16 A3002 NOSIG=
201907232100 METAR MRPV 232100Z 09012KT 9999 FEW035 BKN100 24/16 A3001 NOSIG=
201907232200 METAR MRPV 232200Z 09010KT 9999 FEW035 BKN100 24/16 A3002 NOSIG=
201907232300 METAR MRPV 232300Z 08009KT 9999 FEW030 OVC100 23/16 A3004 NOSIG=
201907240000 METAR MRPV 240000Z 11006KT 9999 FEW030 OVC110 22/16 A3005 NOSIG=
201907240100 METAR MRPV NIL=
201907240200 METAR MRPV NIL=
201907240400 METAR MRPV NIL=
201907240500 METAR MRPV NIL=
201907240600 METAR MRPV NIL=
201907240700 METAR MRPV NIL=
201907240800 METAR MRPV NIL=
201907240900 METAR MRPV NIL=
201907241000 METAR MRPV NIL=
201907241100 METAR MRPV NIL=
201907241200 METAR MRPV 241200Z 07004KT CAVOK 19/16 A3008 NOSIG=
201907241300 METAR MRPV 241300Z 10003KT CAVOK 21/16 A3010 NOSIG=
201907241400 METAR MRPV 241400Z 07004KT 9999 FEW030 BKN200 22/17 A3012 NOSIG=
201907241500 METAR MRPV 241500Z 07003KT 9999 FEW040 BKN200 24/16 A3010 NOSIG=
201907241600 METAR MRPV 241600Z 10007KT 9999 FEW045 BKN200 26/16 A3009 NOSIG=
201907241700 METAR MRPV 241700Z 32005KT 9999 FEW035 OVC200 25/18 A3009 NOSIG=
201907241800 METAR MRPV 241800Z 28005KT 9999 FEW035 OVC200 24/19 A3007 NOSIG=
201907241900 METAR MRPV 241900Z 28005KT 9999 BKN035 SCT200 24/18 A3005 NOSIG=
201907242000 METAR MRPV 242000Z 30008KT 9999 BKN030 SCT200 24/18 A3003 NOSIG=
201907242100 METAR MRPV 242100Z 27005KT 9999 FEW015 SCT030 BKN200 23/20 A3001 NOSIG=
201907242200 METAR MRPV 242200Z 30006KT 9999 FEW010 SCT030 BKN200 22/19 A3002 NOSIG=
201907242300 METAR MRPV 242300Z 29003KT 9999 FEW010 SCT020 BKN200 21/20 A3002 NOSIG=
201907250000 METAR MRPV 250000Z 00000KT 9999 FEW030 SCT110 21/20 A3004 NOSIG=
201907250100 METAR MRPV NIL=
201907250200 METAR MRPV NIL=
201907250300 METAR MRPV NIL=
201907250400 METAR MRPV NIL=
201907250500 METAR MRPV NIL=
201907250600 METAR MRPV NIL=
201907250700 METAR MRPV NIL=
201907250800 METAR MRPV NIL=
201907250900 METAR MRPV NIL=
201907251000 METAR MRPV NIL=
201907251100 METAR MRPV NIL=
201907251200 METAR MRPV 251200Z 13007KT 9999 FEW040 BKN160 21/16 A3005 NOSIG=
201907251300 METAR MRPV 251300Z 11006KT 9999 -DZ NSC 21/16 A3006 NOSIG=
201907251400 METAR MRPV 251400Z 08014KT 9999 FEW030 BKN110 22/17 A3007 NOSIG=
201907251500 METAR MRPV 251500Z 08012KT 9999 FEW040 BKN110 23/17 A3009 NOSIG=
201907251600 METAR MRPV 251600Z 10012KT 9999 FEW040 BKN110 23/16 A3010 NOSIG=
201907251700 METAR MRPV 251700Z 11010KT 9999 FEW040 OVC110 23/17 A3009 NOSIG=
201907251800 METAR MRPV 251800Z 10010KT 9999 FEW035 BKN110 24/17 A3007 NOSIG=
201907251900 METAR MRPV COR 251900Z 08013G23KT 9999 -RA FEW030 BKN100 23/16 A3005 NOSIG=
201907252000 METAR MRPV 252000Z 08014KT 9999 -RA FEW030 BKN100 22/17 A3005 NOSIG=
201907252100 METAR MRPV 252100Z 09012KT 9999 -RA SCT030 BKN100 19/16 A3007 NOSIG=
201907252200 METAR MRPV 252200Z 12007KT 9999 -RA BKN035 19/16 A3005 NOSIG=
201907252300 METAR MRPV 252300Z 11014KT 9999 FEW035 BKN120 20/15 A3005 NOSIG=
201907260000 METAR MRPV 260000Z 11011KT 9999 FEW035 SCT080 BKN120 20/14 A3005 NOSIG=
201907260100 METAR MRPV NIL=
201907260200 METAR MRPV NIL=
201907260300 METAR MRPV NIL=
201907260400 METAR MRPV NIL=
201907260500 METAR MRPV NIL=
201907260600 METAR MRPV NIL=
201907260700 METAR MRPV NIL=
201907260800 METAR MRPV NIL=
201907260900 METAR MRPV NIL=
201907261000 METAR MRPV NIL=
201907261100 METAR MRPV NIL=
201907261200 METAR MRPV 261200Z 14007KT 9999 FEW040 BKN100 20/15 A3006 NOSIG=
201907261300 METAR MRPV 261300Z 10013KT 9999 FEW040 BKN100 20/16 A3010 NOSIG=
201907261400 METAR MRPV 261400Z 11007KT 9999 FEW040 BKN100 21/16 A3010 NOSIG=
201907261500 METAR MRPV 261500Z 10007KT 9999 FEW040 BKN120 23/16 A3011 NOSIG=
201907261600 METAR MRPV 261600Z 10010KT 9999 SCT040 BKN110 23/16 A3012 NOSIG=
201907261700 METAR MRPV 261700Z 08009KT 9999 FEW045 BKN110 23/16 A3011 NOSIG=
201907261800 METAR MRPV 261800Z 09013G23KT CAVOK 26/16 A3007 NOSIG=
201907261900 METAR MRPV 261900Z 07011KT 9999 SCT045 SCT120 26/16 A3005 NOSIG=
201907262000 METAR MRPV 262000Z 08011KT 9999 3500NE -RA BKN035 SCT080 23/17 A3005 NOSIG=
201907262100 METAR MRPV 262100Z 07016KT 9999 -RA BKN040 SCT100 22/16 A3004 NOSIG=
201907262200 METAR MRPV 262200Z 10010KT 9999 -RA FEW040 SCT120 BKN160 21/17 A3004 NOSIG=
201907262300 METAR MRPV 262300Z 11006KT 9999 -RA NSC 20/17 A3003 NOSIG=
201907270000 METAR MRPV 270000Z 14005KT 9999 -RA NSC 20/16 A3004 NOSIG=
201907270100 METAR MRPV NIL=
201907270200 METAR MRPV NIL=
201907270300 METAR MRPV NIL=
201907270400 METAR MRPV NIL=
201907270500 METAR MRPV NIL=
201907270600 METAR MRPV NIL=
201907270700 METAR MRPV NIL=
201907270800 METAR MRPV NIL=
201907270900 METAR MRPV NIL=
201907271000 METAR MRPV NIL=
201907271100 METAR MRPV NIL=
201907271200 METAR MRPV 271200Z 12010KT CAVOK 19/15 A3009 NOSIG=
201907271300 METAR MRPV 271300Z 13007KT CAVOK 20/15 A3012 NOSIG=
201907271400 METAR MRPV 271400Z 14007KT CAVOK 23/15 A3012 NOSIG=
201907271500 METAR MRPV 271500Z 10013KT 9999 FEW040 SCT120 25/15 A3012 NOSIG=
201907271600 METAR MRPV COR 271600Z 09012KT CAVOK 26/16 A3010 NOSIG=
201907271700 METAR MRPV 271700Z 07015KT CAVOK 26/16 A3010 NOSIG=
201907271800 METAR MRPV 271800Z 08015KT 9999 SCT045 SCT180 25/17 A3009 NOSIG=
201907271900 METAR MRPV 271900Z 08013KT 9999 SCT045 SCT100 26/17 A3006 NOSIG=
201907272000 METAR MRPV 272000Z 17006KT CAVOK 27/15 A3001 NOSIG=
201907272100 METAR MRPV 272100Z 15005KT CAVOK 28/15 A3000 NOSIG=
201907272200 METAR MRPV 272200Z 07010KT 9999 FEW015TCU FEW030 SCT100 BKN200 25/16 A3002 NOSIG=
201907272300 METAR MRPV 272300Z 09011KT 9999 FEW030 BKN200 23/17 A3003 NOSIG=
201907280000 METAR MRPV 280000Z 09012KT 9999 FEW035 OVC200 22/17 A3004 NOSIG=
201907280100 METAR MRPV NIL=
201907280200 METAR MRPV NIL=
201907280300 METAR MRPV NIL=
201907280400 METAR MRPV NIL=
201907280500 METAR MRPV NIL=
201907280600 METAR MRPV NIL=
201907280700 METAR MRPV NIL=
201907280800 METAR MRPV NIL=
201907280900 METAR MRPV NIL=
201907281000 METAR MRPV NIL=
201907281100 METAR MRPV NIL=
201907281200 METAR MRPV 281200Z 12008KT 9999 FEW040 21/16 A3006 NOSIG=
201907281300 METAR MRPV 281300Z 11010KT 9999 FEW040 22/16 A3007 NOSIG=
201907281400 METAR MRPV 281400Z 08014KT 9999 FEW040 23/17 A3008 NOSIG=
201907281500 METAR MRPV 281500Z 08013G24KT 9999 FEW035 24/17 A3009 NOSIG=
201907281600 METAR MRPV 281600Z 08011KT 9999 FEW035 26/17 A3009 NOSIG=
201907281700 METAR MRPV 281700Z 07012KT 9999 SCT035 27/17 A3008 NOSIG=
201907281800 METAR MRPV 281800Z 07011KT 9999 FEW040 SCT070 27/17 A3006 NOSIG=
201907281900 METAR MRPV 281900Z 06012KT 9999 FEW035 SCT070 27/17 A3003 NOSIG=
201907282000 METAR MRPV 282000Z 08017G32KT 9999 RA BKN035 26/17 A3002 NOSIG=
201907282100 METAR MRPV 282100Z COR 08018G30KT 9000 4000W RA BKN035 21/15 A3003 WSR09 NOSIG=
201907282200 METAR MRPV 282200Z 10015KT 9999 SCT035 OVC120 22/16 A3003 RERA WSR09 NOSIG=
201907282300 METAR MRPV 282300Z 10014G24KT 9999 DZ NSC 21/16 A3005 WSR09 NOSIG=
201907290000 METAR MRPV 290000Z 11010KT 9999 DZ NSC 21/17 A3007 WSR09 NOSIG=
201907290100 METAR MRPV NIL=
201907290200 METAR MRPV NIL=
201907290300 METAR MRPV NIL=
201907290400 METAR MRPV NIL=
201907290500 METAR MRPV NIL=
201907290600 METAR MRPV NIL=
201907290700 METAR MRPV NIL=
201907290800 METAR MRPV NIL=
201907290900 METAR MRPV NIL=
201907291000 METAR MRPV NIL=
201907291100 METAR MRPV NIL=
201907291200 METAR MRPV 291200Z 12012G22KT 9999 FEW035 21/16 A3003 NOSIG=
201907291300 METAR MRPV 291300Z 09018G28KT 9999 FEW035 22/16 A3004 NOSIG=
201907291400 METAR MRPV 291400Z 10016G26KT 9999 FEW035 23/15 A3006 NOSIG=
201907291500 METAR MRPV 291500Z COR 08019G29KT 9999 FEW040 24/15 A3006 WSR09 NOSIG=
201907291600 METAR MRPV 291600Z 07017G27KT 9999 FEW045 25/15 A3006 WSR09 NOSIG=
201907291700 METAR MRPV 291700Z 08018G28KT CAVOK 26/15 A3005 WSR09 NOSIG=
201907291800 METAR MRPV 291800Z 09018G28KT CAVOK 26/15 A3004 WSR09 NOSIG=
201907291900 METAR MRPV 291900Z 08017G27KT CAVOK 26/14 A3001 WSR09 NOSIG=
201907292000 METAR MRPV 292000Z 08015G25KT CAVOK 27/14 A3000 WSR09 NOSIG=
201907292100 METAR MRPV 292100Z 07015KT CAVOK 26/15 A2998 NOSIG=
201907292200 METAR MRPV 292200Z 07012KT CAVOK 26/14 A2998 NOSIG=
201907292300 METAR MRPV 292300Z 07013KT CAVOK 24/14 A2999 NOSIG=
201907300000 METAR MRPV 300000Z 09011KT 9999 FEW040 BKN200 23/14 A3001 NOSIG=
201907300100 METAR MRPV NIL=
201907300200 METAR MRPV NIL=
201907300300 METAR MRPV NIL=
201907300400 METAR MRPV NIL=
201907300500 METAR MRPV NIL=
201907300600 METAR MRPV NIL=
201907300700 METAR MRPV NIL=
201907300800 METAR MRPV NIL=
201907300900 METAR MRPV NIL=
201907301000 METAR MRPV NIL=
201907301100 METAR MRPV NIL=
201907301200 METAR MRPV 301200Z 12010KT CAVOK 19/13 A3002 NOSIG=
201907301300 METAR MRPV 301300Z 11010G20KT CAVOK 20/14 A3005 NOSIG=
201907301400 METAR MRPV 301400Z 11014KT CAVOK 23/14 A3005 NOSIG=
201907301500 METAR MRPV 301500Z 08015KT CAVOK 24/14 A3007 NOSIG=
201907301600 METAR MRPV 301600Z 08013KT CAVOK 26/15 A3006 NOSIG=
201907301700 METAR MRPV 301700Z 07012KT CAVOK 26/16 A3005 NOSIG=
201907301800 METAR MRPV 301800Z 09014KT 9999 FEW045 SCT200 26/16 A3002 NOSIG=
201907301900 METAR MRPV 301900Z 07013KT 9999 FEW045 BKN200 27/16 A3000 NOSIG=
201907302000 METAR MRPV 302000Z 08015KT 9999 FEW040 BKN200 26/17 A2998 NOSIG=
201907302100 METAR MRPV 302100Z 08013KT 9999 FEW040 BKN200 27/16 A2997 NOSIG=
201907302200 METAR MRPV 302200Z 09010KT 9999 FEW040 BKN200 26/16 A2996 NOSIG=
201907302300 METAR MRPV 302300Z 10012KT 9999 FEW030 BKN200 24/16 A2997 NOSIG=
201907310000 METAR MRPV 310000Z 12009KT 9999 FEW030 BKN200 23/16 A2999 NOSIG=
201907310100 METAR MRPV NIL=
201907310200 METAR MRPV NIL=
201907310300 METAR MRPV NIL=
201907310400 METAR MRPV NIL=
201907310500 METAR MRPV NIL=
201907310600 METAR MRPV NIL=
201907310700 METAR MRPV NIL=
201907310800 METAR MRPV NIL=
201907310900 METAR MRPV NIL=
201907311000 METAR MRPV NIL=
201907311100 METAR MRPV NIL=
201907311200 METAR MRPV 311200Z 11015G25KT CAVOK 20/12 A3001 NOSIG=
201907311300 METAR MRPV 311300Z 11011KT CAVOK 21/13 A3004 NOSIG=
201907311400 METAR MRPV 311400Z 12009KT CAVOK 23/13 A3004 NOSIG=
201907311500 METAR MRPV 311500Z 08013KT CAVOK 25/17 A3002 NOSIG=
201907311600 METAR MRPV 311600Z 11006KT CAVOK 27/14 A3004 NOSIG=
201907311700 METAR MRPV 311700Z 09009KT CAVOK 28/16 A3003 NOSIG=
201907311800 METAR MRPV 311800Z 29005KT CAVOK 27/18 A3001 NOSIG=
201907311900 METAR MRPV 311900Z 28009KT 9999 SCT045 SCT060 26/19 A3000 NOSIG=
201907312000 METAR MRPV 31200Z 30006KT 9999 BKN035 SCT060 25/19 A2999 NOSIG=
201907312100 METAR MRPV 312100Z 24003KT 9999 BKN035 25/19 A2997 NOSIG=
201907312200 METAR MRPV 312200Z 14003KT 9999 BKN035 26/18 A2997 NOSIG=
201907312300 METAR MRPV 312300Z 31006KT 170V290 9999 SCT035 SCT140 23/20 A2997 NOSIG=
201908010000 METAR MRPV 010000Z 28001KT 8000 BKN025 22/20 A3000 NOSIG=
201908010100 METAR MRPV NIL=
201908010200 METAR MRPV NIL=
201908010300 METAR MRPV NIL=
201908010400 METAR MRPV NIL=
201908010500 METAR MRPV NIL=
201908010600 METAR MRPV NIL=
201908010700 METAR MRPV NIL=
201908010800 METAR MRPV NIL=
201908010900 METAR MRPV NIL=
201908011000 METAR MRPV NIL=
201908011100 METAR MRPV NIL=
201908011200 METAR MRPV 011200Z 13007KT 9999 FEW040 BKN250 21/16 A3000 NOSIG=
201908011300 METAR MRPV 011300Z 11010KT 9999 FEW035 SCT250 23/17 A3002 NOSIG=
201908011400 METAR MRPV 011400Z 09015KT 9999 FEW035 SCT250 24/17 A3004 NOSIG=
201908011500 METAR MRPV 011500Z 08014KT 9999 FEW040 SCT250 25/18 A3005 NOSIG=
201908011600 METAR MRPV 011600Z 08011KT CAVOK 26/18 A3005 NOSIG=
201908011700 METAR MRPV 011700Z 06010KT CAVOK 27/17 A3003 NOSIG=
201908011800 METAR MRPV 011800Z 07012KT 9999 FEW045 28/17 A3002 NOSIG=
201908011900 METAR MRPV 011900Z 06011KT 9999 SCT045 SCT200 28/17 A2998 NOSIG=
201908012000 METAR MRPV 012000Z 07010KT 9999 SCT045 SCT200 29/17 A2993 NOSIG=
201908012100 METAR MRPV 012100Z 34004KT 9999 SCT035 27/22 A2995 NOSIG=
201908012200 METAR MRPV 012200Z 27011KT 220V29 9999 FEW020TCU FEW035 SCT080 25/21 A2995 NOSIG=
201908012300 METAR MRPV 012300Z 28004KT 9999 SCT020 SCT060 24/21 A2997 NOSIG=
201908020000 METAR MRPV 020000Z 24002KT 9999 4000W BCFG FEW010 SCT030 BKN100 23/21 A2999 NOSIG=
201908020100 METAR MRPV NIL=
201908020200 METAR MRPV NIL=
201908020300 METAR MRPV NIL=
201908020400 METAR MRPV NIL=
201908020500 METAR MRPV NIL=
201908020600 METAR MRPV NIL=
201908020700 METAR MRPV NIL=
201908020800 METAR MRPV NIL=
201908020900 METAR MRPV NIL=
201908021000 METAR MRPV NIL=
201908021100 METAR MRPV NIL=
201908021200 METAR MRPV 021200Z 12009KT 9999 FEW035 SCT100 BKN200 21/16 A3001 NOSIG=
201908021300 METAR MRPV 021300Z 09011KT 9999 FEW035 SCT120 BKN200 22/16 A3001 NOSIG=
201908021400 METAR MRPV COR 021400Z 10015KT 9999 FEW040 SCT120 BKN200 23/17 A3002 NOSIG=
201908021500 METAR MRPV 021500Z 09012KT 9999 FEW040 BKN200 25/17 A3004 NOSIG=
201908021600 METAR MRPV 021600Z 08012KT 9999 FEW045 BKN200 26/18 A3002 NOSIG=
201908021700 METAR MRPV 021700Z 08012KT 9999 SCT045 BKN200 27/18 A3001 NOSIG=
201908021800 METAR MRPV 021800Z 09007KT 9999 3000NE RA SCT035 BKN100 23/18 A3001 NOSIG=
201908021900 METAR MRPV 021900Z 10008KT 9999 VCTS FEW010CB SCT040 BKN100 27/18 A2998 RERA NOSIG=
201908022000 METAR MRPV 022000Z 29005KT 9999 3000NW RA BKN025 24/21 A2997 BECMG 3000=
201908022100 METAR MRPV 022100Z 29003KT 8000 -RA SCT010 BKN030 22/20 A2999 NOSIG=
201908022200 METAR MRPV 022200Z 30007KT 8000 BKN015 21/19 A2999 NOSIG=
201908022300 METAR MRPV 022300Z 32002KT 9999 FEW015 SCT040 BKN200 21/19 A2999 NOSIG=
201908030000 METAR MRPV 030000Z VRB01KT 9999 FEW025 BKN200 21/19 A3000 NOSIG=
201908030100 METAR MRPV NIL=
201908030200 METAR MRPV NIL=
201908030300 METAR MRPV NIL=
201908030400 METAR MRPV NIL=
201908030500 METAR MRPV NIL=
201908030600 METAR MRPV NIL=
201908030700 METAR MRPV NIL=
201908030800 METAR MRPV NIL=
201908030900 METAR MRPV NIL=
201908031000 METAR MRPV NIL=
201908031100 METAR MRPV NIL=
201908031200 METAR MRPV 031200Z 14007KT 9999 FEW035 SCT100 BKN200 20/17 A3003 NOSIG=
201908031300 METAR MRPV 031300Z 13007KT 9999 FEW035 BKN120 21/17 A3005 NOSIG=
201908031400 METAR MRPV 031400Z 12007KT 9999 FEW035 BKN120 22/17 A3006 NOSIG=
201908031500 METAR MRPV COR 031500Z 12007KT 9999 FEW040 BKN120 23/17 A3006 NOSIG=
201908031600 METAR MRPV 031600Z 10011KT 9999 FEW035 BKN120 24/17 A3007 NOSIG=
201908031700 METAR MRPV 031700Z 11008KT 9999 FEW035 BKN120 23/18 A3006 NOSIG=
201908031800 METAR MRPV 031800Z 11009KT 9999 FEW035 OV100 23/17 A3004 NOSIG=
201908031900 METAR MRPV 031900Z 11009KT CAVOK 23/17 A3001 NOSIG=
201908032000 METAR MRPV 032000Z 11007KT CAVOK 24/17 A3000 NOSIG=
201908032100 METAR MRPV 032100Z 09010KT 9999 DZ NSC 23/17 A3000 NOSIG=
201908032200 METAR MRPV 032200Z 09008KT 9999 -DZ FEW040 OVC100 24/17 A3000 NOSIG=
201908032300 METAR MRPV 032300Z 10006KT CAVOK 23/18 A2999 NOSIG=
201908040000 METAR MRPV 040000Z 10005KT CAVOK 22/17 A3001 NOSIG=
201908040100 METAR MRPV NIL=
201908040200 METAR MRPV NIL=
201908040300 METAR MRPV NIL=
201908040400 METAR MRPV NIL=
201908040500 METAR MRPV NIL=
201908040600 METAR MRPV NIL=
201908040700 METAR MRPV NIL=
201908040800 METAR MRPV NIL=
201908040900 METAR MRPV NIL=
201908041000 METAR MRPV NIL=
201908041100 METAR MRPV NIL=
201908041200 METAR MRPV 041200Z 13006KT 9999 FEW040 BKN120 21/16 A3005 NOSIG=
201908041300 METAR MRPV 041300Z 13009KT 9999 FEW030 BKN120 22/17 A3006 NOSIG=
201908041400 METAR MRPV 041400Z 11010G20KT 9999 FEW025 BKN120 23/18 A3008 NOSIG=
201908041500 METAR MRPV 041500Z 13007KT 9999 SCT030 BKN090 23/17 A3010 NOSIG=
201908041600 METAR MRPV 041600Z 12008KT 9999 SCT030 BKN090 23/17 A3010 NOSIG=
201908041700 METAR MRPV 041700Z 12008KT 9999 SCT030 BKN090 23/17 A3009 NOSIG=
201908041800 METAR MRPV 041800Z 09012KT 9999 FEW040 OVC120 24/18 A3007 NOSIG=
201908041900 METAR MRPV 041900Z 08012KT CAVOK 26/17 A3004 NOSIG=
201908042000 METAR MRPV 042000Z 08010KT CAVOK 24/17 A3001 NOSIG=
201908042100 METAR MRPV 042100Z 08011KT 9999 FEW030 OVC100 25/17 A3000 NOSIG=
201908042200 METAR MRPV 042200Z 09012KT 9999 FEW035 OVC100 25/17 A3000 NOSIG=
201908042300 METAR MRPV 042300Z 07009KT 9999 FEW030 OVC100 24/17 A3001 NOSIG=
201908050000 METAR MRPV 050000Z 10011KT 9999 FEW045 OVC100 23/17 A3001 NOSIG=
201908050100 METAR MRPV NIL=
201908050200 METAR MRPV NIL=
201908050300 METAR MRPV NIL=
201908050400 METAR MRPV NIL=
201908050500 METAR MRPV NIL=
201908050600 METAR MRPV NIL=
201908050700 METAR MRPV NIL=
201908050800 METAR MRPV NIL=
201908050900 METAR MRPV NIL=
201908051000 METAR MRPV NIL=
201908051100 METAR MRPV NIL=
201908051200 METAR MRPV 051200Z 14007KT CAVOK 20/15 A3004 NOSIG=
201908051300 METAR MRPV 051300Z 14005KT CAVOK 21/15 A3006 NOSIG=
201908051400 METAR MRPV 051400Z 13008KT CAVOK 23/16 A3007 NOSIG=
201908051500 METAR MRPV 051500Z 12009KT CAVOK 24/17 A3008 NOSIG=
201908051600 METAR MRPV 051600Z 08014KT CAVOK 25/17 A3007 NOSIG=
201908051700 METAR MRPV 051700Z 09015KT 9999 FEW040 BKN200 26/18 A3006 NOSIG=
201908051800 METAR MRPV 051800Z 09017KT 9999 FEW040 BKN200 27/18 A3005 NOSIG=
201908051900 METAR MRPV 051900Z 10012KT 9999 FEW045 BKN200 27/18 A3002 NOSIG=
201908052000 METAR MRPV 052000Z 07011KT 9999 FEW040 BKN200 27/17 A3001 NOSIG=
201908052100 METAR MRPV 052100Z 09008KT CAVOK 27/18 A2999 NOSIG=
201908052200 METAR MRPV 052200Z 29003KT 9999 FEW030 BKN200 26/20 A2999 NOSIG=
201908052300 METAR MRPV 052300Z 28007KT 9999 FEW010 BKN015 22/20 A3002 NOSIG=
201908060000 METAR MRPV 060000Z 30007KT 9999 SCT015 22/19 A3003 NOSIG=
201908060100 METAR MRPV NIL=
201908060200 METAR MRPV NIL=
201908060300 METAR MRPV NIL=
201908060400 METAR MRPV NIL=
201908060500 METAR MRPV NIL=
201908060600 METAR MRPV NIL=
201908060700 METAR MRPV NIL=
201908060800 METAR MRPV NIL=
201908060900 METAR MRPV NIL=
201908061000 METAR MRPV NIL=
201908061100 METAR MRPV NIL=
201908061200 METAR MRPV 061200Z 10007KT 9999 -DZ FEW035 BKN070 21/17 A3004 NOSIG=
201908061300 METAR MRPV 061300Z 15006KT 9999 -DZ FEW035 BKN070 20/18 A3005 NOSIG=
201908061400 METAR MRPV 061400Z 13004KT 9999 -DZ FEW035 BKN090 20/18 A3007 NOSIG=
201908061500 METAR MRPV COR 061500Z 12009KT 9999 FEW030 BKN100 22/17 A3005 NOSIG=
201908061600 METAR MRPV 061600Z 09014KT 9999 FEW025 BKN100 23/17 A3006 NOSIG=
201908061700 METAR MRPV 061700Z 10011KT 9999 FEW035 BKN120 24/17 A3005 NOSIG=
201908061800 METAR MRPV 061800Z 09012KT 9999 FEW035 BKN120 25/18 A3004 NOSIG=
201908061900 METAR MRPV 061900Z 08011KT 9999 FEW035 BKN140 25/18 A3001 NOSIG=
201908062000 METAR MRPV 062000Z 08008KT 9999 SCT035 BKN120 26/17 A3000 NOSIG=
201908062100 METAR MRPV 062100Z 10007KT 9999 SCT040 BKN120 26/18 A2999 NOSIG=
201908062200 METAR MRPV 062200Z 11007KT 9999 FEW015 SCT035 BKN100 25/17 A2998 NOSIG=
201908062300 METAR MRPV 062300Z 09011KT 9999 3000NW -TSRA FEW010CB SCT035 BKN100 24/17 A3001 RERA NOSIG=
201908070000 METAR MRPV 070000Z 02004KT 320V030 4000 RA BCFG FEW010 SCT025 BKN080 22/20 A3003 NOSIG=
201908070100 METAR MRPV NIL=
201908070200 METAR MRPV NIL=
201908070300 METAR MRPV NIL=
201908070400 METAR MRPV NIL=
201908070500 METAR MRPV NIL=
201908070600 METAR MRPV NIL=
201908070700 METAR MRPV NIL=
201908070800 METAR MRPV NIL=
201908070900 METAR MRPV NIL=
201908071000 METAR MRPV NIL=
201908071100 METAR MRPV NIL=
201908071200 METAR MRPV 071200Z 09007KT CAVOK 19/17 A3005 NOSIG=
201908071300 METAR MRPV 071300Z 16002KT CAVOK 22/18 A3006 NOSIG=
201908071400 METAR MRPV 071400Z 31003KT 9999 FEW030 BKN120 21/18 A3009 NOSIG=
201908071500 METAR MRPV 071500Z 32003KT 9999 FEW035 BKN120 21/18 A3011 NOSIG=
201908071600 METAR MRPV 071600Z 29006KT 9999 FEW020 BKN100 22/17 A3012 NOSIG=
201908071700 METAR MRPV 071700Z 29006KT 9999 FEW020 BKN100 23/18 A3010 NOSIG=
201908071800 METAR MRPV 071800Z 29007KT 9999 SCT025 BKN100 24/18 A3008 NOSIG=
201908071900 METAR MRPV 071900Z 28007KT 9999 4500E -SHRA FEW015TCU SCT025 BKN100 23/18 A3006 NOSIG=
201908072000 METAR MRPV 072000Z 27005KT 2000 RA SCT015 BKN060 21/19 A3005 NOSIG=
201908072100 METAR MRPV 072100Z 36003KT 3000 RA BR SCT005 BKN030 20/19 A3006 NOSIG=
201908072200 METAR MRPV 072200Z 36003KT 3500 -RA BR FEW010 SCT010 BKN060 19/18 A3007 NOSIG=
201908072300 METAR MRPV 072300Z 25001KT 4000 RA BR SCT010 SCT040 19/18 A3009 NOSIG=
201908080000 METAR MRPV 080000Z 00000KT 8000 -RA BCFG FEW010 SCT025 BKN080 19/18 A3009 NOSIG=
201908080100 METAR MRPV NIL=
201908080200 METAR MRPV NIL=
201908080300 METAR MRPV NIL=
201908080400 METAR MRPV NIL=
201908080500 METAR MRPV NIL=
201908080600 METAR MRPV NIL=
201908080700 METAR MRPV NIL=
201908080800 METAR MRPV NIL=
201908080900 METAR MRPV NIL=
201908081000 METAR MRPV NIL=
201908081100 METAR MRPV NIL=
201908081200 METAR MRPV COR 081200Z 07002KT CAVOK 17/16 A3010 NOSIG=
201908081300 METAR MRPV 081300Z 07001KT CAVOK 21/17 A3010 NOSIG=
201908081400 METAR MRPV 081400Z 30002KT CAVOK 23/18 A3011 NOSIG=
201908081500 METAR MRPV 081500Z 28004KT CAVOK 25/18 A3011 NOSIG=
201908081600 METAR MRPV 081600Z 07005KT CAVOK 27/17 A3010 NOSIG=
201908081700 METAR MRPV 081700Z 27009KT 050V280 9999 FEW045 26/19 A3009 NOSIG=
201908081800 METAR MRPV 081800Z 29009KT 9999 SCT030 26/19 A3008 NOSIG=
201908081900 METAR MRPV 081900Z 29011KT 9999 SCT015TCU BKN030 24/20 A3007 NOSIG=
201908082000 METAR MRPV 082000Z 30009KT 9999 -RA VCTS FEW010CB SCT025 BKN040 24/21 A3006 RETS NOSIG=
201908082100 METAR MRPV 082100Z 30008KT 3000 RA BR OVC005 22/21 A3006 RETS NOSIG=
201908082200 METAR MRPV 082200Z 06004KT 4000 TSRA BKN015CB SCT100 21/20 A3005 NOSIG=
201908082300 METAR MRPV 082300Z 36002KT 3000 RA BR OVC004 21/20 A3006 NOSIG=
201908090000 METAR MRPV 090000Z 30002KT 1000 BR OVC004 21/20 A3007 RERA NOSIG=
201908090100 METAR MRPV NIL=
201908090200 METAR MRPV NIL=
201908090300 METAR MRPV NIL=
201908090400 METAR MRPV NIL=
201908090500 METAR MRPV NIL=
201908090600 METAR MRPV NIL=
201908090700 METAR MRPV NIL=
201908090800 METAR MRPV NIL=
201908090900 METAR MRPV NIL=
201908091000 METAR MRPV NIL=
201908091100 METAR MRPV NIL=
201908091200 METAR MRPV 091200Z 12006KT 9999 FEW035 21/17 A3005 NOSIG=
201908091300 METAR MRPV 091300Z 12008KT 9999 FEW035 23/18 A3006 NOSIG=
201908091400 METAR MRPV 091400Z 13007KT 9999 SCT035 23/18 A3009 NOSIG=
201908091500 METAR MRPV 091500Z 08009KT 9999 FEW035 SCT200 26/18 A3009 NOSIG=
201908091600 METAR MRPV 091600Z 08010KT 9999 FEW040 BKN200 26/17 A3008 NOSIG=
201908091700 METAR MRPV 091700Z 07010KT CAVOK 27/17 A3007 NOSIG=
201908091800 METAR MRPV 091800Z 07014KT CAVOK 25/18 A3006 NOSIG=
201908091900 METAR MRPV 091900Z 08011KT 9999 SCT040 SCT100 27/17 A3003 NOSIG=
201908092000 METAR MRPV 092000Z 07008KT 9999 SCT035 26/18 A3001 NOSIG=
201908092100 METAR MRPV 092100Z 06009KT 9999 SCT040 27/18 A2999 TEMPO 28005KT=
201908092200 METAR MRPV 092200Z 30007KT 9999 BKN035 25/21 A3000 NOSIG=
201908092300 METAR MRPV 092300Z 28004KT 9999 BKN020 22/20 A3002 NOSIG=
201908100000 METAR MRPV 100000Z 28003KT 9999 SCT020 BKN200 22/20 A3003 NOSIG=
201908100100 METAR MRPV NIL=
201908100200 METAR MRPV NIL=
201908100300 METAR MRPV NIL=
201908100400 METAR MRPV NIL=
201908100500 METAR MRPV NIL=
201908100600 METAR MRPV NIL=
201908100700 METAR MRPV NIL=
201908100800 METAR MRPV NIL=
201908100900 METAR MRPV NIL=
201908101000 METAR MRPV NIL=
201908101100 METAR MRPV NIL=
201908101200 METAR MRPV 101200Z 13007KT 9999 FEW040 BKN200 21/17 A3003 NOSIG=
201908101300 METAR MRPV 101300Z 14006KT 9999 FEW040 BKN200 22/17 A3005 NOSIG=
201908101400 METAR MRPV 101400Z 10011KT 9999 FEW040 OVC200 22/18 A3005 NOSIG=
201908101500 METAR MRPV 101500Z 09012KT 9999 DZ SCT040 OVC200 24/18 A3005 NOSIG=
201908101600 METAR MRPV 101600Z 08015KT 9999 SCT040 BKN100 25/18 A3006 REDZ NOSIG=
201908101700 METAR MRPV 101700Z 10012KT 9999 SCT040 BKN200 25/19 A3006 NOSIG=
201908101800 METAR MRPV 101800Z 13005KT 9999 BKN035 25/19 A3003 NOSIG=
201908101900 METAR MRPV 101900Z 08010KT 9999 BKN035 26/18 A2999 NOSIG=
201908102000 METAR MRPV 102000Z 12005KT 9999 BKN035 25/18 A2998 NOSIG=
201908102100 METAR MRPV 102100Z 09012KT 9999 FEW020 BKN040 23/18 A2997 NOSIG=
201908102200 METAR MRPV 102200Z 11007KT 9999 BKN035 SCT120 24/18 A2997 NOSIG=
201908102300 METAR MRPV 102300Z 14007KT 9999 -DZ BKN035 23/19 A2999 NOSIG=
201908110000 METAR MRPV 110000Z 11009KT 9999 BKN035 23/18 A3000 NOSIG=
201908110100 METAR MRPV NIL=
201908110200 METAR MRPV NIL=
201908110300 METAR MRPV NIL=
201908110400 METAR MRPV NIL=
201908110500 METAR MRPV NIL=
201908110600 METAR MRPV NIL=
201908110700 METAR MRPV NIL=
201908110800 METAR MRPV NIL=
201908110900 METAR MRPV NIL=
201908111000 METAR MRPV NIL=
201908111100 METAR MRPV NIL=
201908111200 METAR MRPV 111200Z 12005KT CAVOK 22/17 A3003 NOSIG=
201908111300 METAR MRPV 111300Z 12006KT CAVOK 22/17 A3004 NOSIG=
201908111400 METAR MRPV 111400Z 09010KT CAVOK 24/18 A3007 NOSIG=
201908111500 METAR MRPV 111500Z 08012KT CAVOK 25/18 A3007 NOSIG=
201908111600 METAR MRPV 111600Z 08013KT 9999 FEW040 BKN200 26/18 A3008 NOSIG=
201908111700 METAR MRPV 111700Z 09016KT 9999 FEW040 BKN200 27/18 A3004 NOSIG=
201908111800 METAR MRPV 111800Z 08011KT 9999 FEW040 BKN200 28/19 A3001 NOSIG=
201908111900 METAR MRPV 111900Z 08013KT 9999 SCT045 BKN220 27/18 A2999 NOSIG=
201908112000 METAR MRPV 112000Z 07011KT 9999 SCT035 SCT110 27/18 A2998 NOSIG=
201908112100 METAR MRPV 112100Z 05009KT 9999 FEW015 SCT035 26/18 A2997 NOSIG=
201908112200 METAR MRPV 112200Z 07007KT 9999 FEW010 BKN110 26/18 A2995 TEMPO 32005KT=
201908112300 METAR MRPV 112300Z 08007KT 9999 FEW015 BKN200 25/18 A2996 NOSIG=
201908120000 METAR MRPV 120000Z 07010KT 9999 FEW010 SCT020 BKN120 24/18 A3000 NOSIG=
201908120100 METAR MRPV NIL=
201908120200 METAR MRPV NIL=
201908120300 METAR MRPV NIL=
201908120400 METAR MRPV NIL=
201908120500 METAR MRPV NIL=
201908120600 METAR MRPV NIL=
201908120700 METAR MRPV NIL=
201908120800 METAR MRPV NIL=
201908120900 METAR MRPV NIL=
201908121000 METAR MRPV NIL=
201908121100 METAR MRPV NIL=
201908121200 METAR MRPV 121200Z 12017G27KT 9999 -RA FEW035 BKN080 22/17 A3001 NOSIG=
201908121300 METAR MRPV 121300Z 13008G18KT 9999 -RA FEW035 SCT080 BKN120 21/17 A3000 NOSIG=
201908121400 METAR MRPV 121400Z 12011KT CAVOK 23/17 A2998 NOSIG=
201908121500 METAR MRPV 121500Z 09014KT 9999 FEW040 BKN140 22/18 A3005 NOSIG=
201908121600 METAR MRPV 121600Z 10008KT 9999 FEW040 BKN140 23/18 A3006 NOSIG=
201908121700 METAR MRPV 121700Z 10012KT 9999 SCT035 BKN120 23/18 A3005 NOSIG=
201908121800 METAR MRPV 121800Z 10011KT 9999 SCT030 BKN120 23/18 A3003 NOSIG=
201908121900 METAR MRPV 121900Z 08012KT 9999 FEW025 OVC120 24/18 A2997 NOSIG=
201908122000 METAR MRPV 122000Z 09013KT 9999 SCT025 BKN120 24/18 A2995 NOSIG=
201908122100 METAR MRPV 122100Z 10012KT 9999 SCT030 BKN120 24/18 A2996 NOSIG=
201908122200 METAR MRPV 122200Z 11011KT 9999 FEW030 OVC120 23/18 A2995 NOSIG=
201908122300 METAR MRPV 122300Z 09016KT 9999 SCT020 BKN120 22/17 A2998 NOSIG=
201908130000 METAR MRPV 130000Z 11011KT 9999 FEW030 OVC120 21/17 A2999 NOSIG=
201908130100 METAR MRPV NIL=
201908130200 METAR MRPV NIL=
201908130300 METAR MRPV NIL=
201908130400 METAR MRPV NIL=
201908130500 METAR MRPV NIL=
201908130600 METAR MRPV NIL=
201908130700 METAR MRPV NIL=
201908130800 METAR MRPV NIL=
201908130900 METAR MRPV NIL=
201908131000 METAR MRPV NIL=
201908131100 METAR MRPV NIL=
201908131200 METAR MRPV 131200Z 12012KT 9999 FEW025 21/17 A2998 NOSIG=
201908131300 METAR MRPV 131300Z 09014KT 9999 FEW025 21/16 A3000 NOSIG=
201908131400 METAR MRPV 131400Z 11012KT 9999 FEW020 SCT090 22/16 A3002 NOSIG=
201908131500 METAR MRPV 131500Z 10011KT 9999 FEW025 BKN090 23/17 A3003 NOSIG=
201908131600 METAR MRPV 131600Z 12010KT 9999 FEW025 BKN090 23/18 A3001 NOSIG=
201908131700 METAR MRPV 131700Z 11011KT 9999 FEW020 BKN100 25/18 A3001 NOSIG=
201908131800 METAR MRPV 131800Z 13009KT 9999 SCT025 BKN100 23/19 A2999 NOSIG=
201908131900 METAR MRPV 131900Z COR 10013KT 9999 -DZ SCT035 BKN080 23/18 A2998 NOSIG=
201908132000 METAR MRPV 132000Z 08016KT 9999 SCT035 SCT100 25/18 A2995 NOSIG=
201908132100 METAR MRPV 132100Z 11008KT 9999 -RA SCT025 BKN080 23/18 A2996 NOSIG=
201908132200 METAR MRPV 132200Z 11010KT 9999 SCT025 SCT060 23/18 A2996 NOSIG=
201908132300 METAR MRPV 132300Z 11007KT 9999 FEW025 SCT035 BKN100 22/18 A2998 NOSIG=
201908140000 METAR MRPV 140000Z 13005KT 9999 FEW025 SCT035 BKN140 22/18 A3000 NOSIG=
201908140100 METAR MRPV NIL=
201908140200 METAR MRPV NIL=
201908140300 METAR MRPV NIL=
201908140400 METAR MRPV NIL=
201908140500 METAR MRPV NIL=
201908140600 METAR MRPV NIL=
201908140700 METAR MRPV NIL=
201908140800 METAR MRPV NIL=
201908140900 METAR MRPV NIL=
201908141000 METAR MRPV NIL=
201908141100 METAR MRPV NIL=
201908141200 METAR MRPV 141200Z 12007KT 9999 -RA FEW035 SCT125 BKN180 21/17 A3002 NOSIG=
201908141300 METAR MRPV 141300Z 13009KT 9999 RA FEW035 BKN120 21/17 A3003 NOSIG=
201908141400 METAR MRPV 141400Z 12008KT 9999 -DZ FEW030 BKN120 21/18 A3005 RERA NOSIG=
201908141500 METAR MRPV 141500Z 14005KT 9999 -RA FEW040 BKN120 20/18 A3006 NOSIG=
201908141600 METAR MRPV 141600Z 09010KT 5000 RA FEW035 OVC100 20/18 A3008 NOSIG=
201908141700 METAR MRPV 141700Z 13005KT 3000 +RA VCTS FEW040 OVC100 19/17 A3010 NOSIG=
201908141800 METAR MRPV 141800Z COR 11005KT 4000 TSRA FEW015CB OVC120 18/17 A3007 NOSIG=
201908141900 METAR MRPV 141900Z COR 13005KT 6000 RA NSC 18/17 A3004 RETSRA NOSIG=
201908142000 METAR MRPV 142000Z COR 10008KT 9999 DZ NSC 20/17 A2997 RERA NOSIG=
201908142100 METAR MRPV 142100Z 08010KT CAVOK 23/16 A2995 REDZ NOSIG=
201908142200 METAR MRPV 142200Z 11008KT CAVOK 22/16 A2996 NOSIG=
201908142300 METAR MRPV 142300Z 12008KT CAVOK 23/14 A2996 NOSIG=
201908150000 METAR MRPV 150000Z 13007KT CAVOK 22/14 A2998 NOSIG=
201908150100 METAR MRPV NIL=
201908150200 METAR MRPV NIL=
201908150300 METAR MRPV NIL=
201908150400 METAR MRPV NIL=
201908150500 METAR MRPV NIL=
201908150600 METAR MRPV NIL=
201908150700 METAR MRPV NIL=
201908150800 METAR MRPV NIL=
201908150900 METAR MRPV NIL=
201908151000 METAR MRPV NIL=
201908151100 METAR MRPV NIL=
201908151200 METAR MRPV 151200Z 14001KT 9999 FEW035 OVC180 18/16 A3005 NOSIG=
201908151300 METAR MRPV 151300Z 07006KT 9999 FEW040 SCT140 BKN180 19/16 A3008 NOSIG=
201908151400 METAR MRPV 151400Z 09002KT CAVOK 20/17 A3008 NOSIG=
201908151500 METAR MRPV 151500Z 29002KT 9999 BKN035 SCT100 21/17 A3011 NOSIG=
201908151600 METAR MRPV 151600Z COR 29004KT 9999 SCT030 BKN100 21/17 A3011 NOSIG=
201908151700 METAR MRPV 151700Z 00000KT 9999 SCT030 BKN100 21/17 A3011 NOSIG=
201908151800 METAR MRPV 151800Z 30004KT 8000 BCFG FEW015 SCT030 BKN100 21/18 A3009 NOSIG=
201908151900 METAR MRPV 151900Z 32003KT 7000 BCFG FEW015 SCT030 BKN100 22/18 A3007 NOSIG=
201908152000 METAR MRPV 152000Z 10002KT 9000 VCFG FEW010 OVC100 23/18 A3004 NOSIG=
201908152100 METAR MRPV 152100Z 07006KT 9999 BKN030 SCT120 22/16 A3004 NOSIG=
201908152200 METAR MRPV 152200Z 09007KT CAVOK 23/16 A3003 NOSIG=
201908152300 METAR MRPV 152300Z 09006KT 9999 FEW010 OVC100 22/17 A3004 NOSIG=
201908160000 METAR MRPV 160000Z 30005KT 9000 VCFG FEW010 OVC100 20/19 A3006 NOSIG=
201908160100 METAR MRPV NIL=
201908160200 METAR MRPV NIL=
201908160300 METAR MRPV NIL=
201908160400 METAR MRPV NIL=
201908160500 METAR MRPV NIL=
201908160600 METAR MRPV NIL=
201908160700 METAR MRPV NIL=
201908160800 METAR MRPV NIL=
201908160900 METAR MRPV NIL=
201908161000 METAR MRPV NIL=
201908161100 METAR MRPV NIL=
201908161200 METAR MRPV 161200Z 14001KT 9999 4000N -DZ BCFG FEW010 SCT120 OVC200 18/17 A3011 NOSIG=
201908161300 METAR MRPV 161300Z 09003KT 9999 RA BCFG FEW030 BKN120 19/18 A3013 NOSIG=
201908161400 METAR MRPV 161400Z 14002KT 9999 -RA NSC 20/18 A3014 NOSIG=
201908161500 METAR MRPV 161500Z 13002KT CAVOK 21/18 A3014 NOSIG=
201908161600 METAR MRPV 161600Z 09003KT 9999 FEW030 OVC100 23/17 A3014 NOSIG=
201908161700 METAR MRPV 161700Z 35001KT 9999 FEW030 OVC100 24/16 A3014 NOSIG=
201908161800 METAR MRPV 161800Z 33002KT 9999 FEW035 OVC100 25/17 A3012 NOSIG=
201908161900 METAR MRPV 161900Z 31006KT 9999 FEW035C BKN120 25/16 A3009 NOSIG=
201908162000 METAR MRPV 162000Z 29007KT 9999 FEW040 BKN120 26/17 A3006 NOSIG=
201908162100 METAR MRPV 162100Z 29009KT 9999 FEW040 BKN120 26/17 A3005 NOSIG=
201908162200 METAR MRPV 162200Z 28009KT 9999 FEW020 OVC120 24/19 A3004 NOSIG=
201908162300 METAR MRPV 162300Z 28005KT 9999 FEW015 OVC120 22/20 A3006 NOSIG=
201908170000 METAR MRPV 170000Z 30005KT 8000 -RA BCFG BKN010 21/20 A3008 NOSIG=
201908170100 METAR MRPV NIL=
201908170200 METAR MRPV NIL=
201908170300 METAR MRPV NIL=
201908170400 METAR MRPV NIL=
201908170500 METAR MRPV NIL=
201908170600 METAR MRPV NIL=
201908170700 METAR MRPV NIL=
201908170800 METAR MRPV NIL=
201908170900 METAR MRPV NIL=
201908171000 METAR MRPV NIL=
201908171100 METAR MRPV NIL=
201908171200 METAR MRPV 171200Z 14005KT CAVOK 20/17 A3005 NOSIG=
201908171300 METAR MRPV 171300Z 10005KT CAVOK 22/17 A3007 NOSIG=
201908171400 METAR MRPV 171400Z 33003KT CAVOK 24/17 A3009 NOSIG=
201908171500 METAR MRPV 171500Z 14002KT CAVOK 26/17 A3009 NOSIG=
201908171600 METAR MRPV 171600Z 29009KT 9999 FEW045 26/18 A3009 NOSIG=
201908171700 METAR MRPV 171700Z 28008KT 9999 SCT040 SCT100 26/19 A3008 NOSIG=
201908171800 METAR MRPV 171800Z 29012KT 9999 BKN045 26/21 A3007 NOSIG=
201908171900 METAR MRPV 171900Z 30008KT 9999 BKN020 SCT200 23/20 A3004 NOSIG=
201908172000 METAR MRPV 172000Z 30006KT 9999 RA VCTS BKN025CB 24/20 A3002 NOSIG=
201908172100 METAR MRPV 172100Z 06005KT 3000 TSRA BKN025CB 20/19 A3002 NOSIG=
201908172200 METAR MRPV 172200Z 07003KT 3000 TSRA BR BKN015CB 19/18 A3004 NOSIG=
201908172300 METAR MRPV 172300Z 08002KT 5000 -TSRA BR FEW010CB BKN100 19/18 A3005 NOSIG=
201908180000 METAR MRPV 180000Z 12002KT 9999 RA VCFG FEW010 OVC100 19/18 A3006 RETS NOSIG=
201908180100 METAR MRPV NIL=
201908180200 METAR MRPV NIL=
201908180300 METAR MRPV NIL=
201908180400 METAR MRPV NIL=
201908180500 METAR MRPV NIL=
201908180600 METAR MRPV NIL=
201908180700 METAR MRPV NIL=
201908180800 METAR MRPV NIL=
201908180900 METAR MRPV NIL=
201908181000 METAR MRPV NIL=
201908181100 METAR MRPV NIL=
201908181200 METAR MRPV 181200Z 13008KT CAVOK 21/16 A3001 NOSIG=
201908181300 METAR MRPV 181300Z 13009KT CAVOK 22/16 A3002 NOSIG=
201908181400 METAR MRPV 181400Z 12007KT CAVOK 24/17 A3004 NOSIG=
201908181500 METAR MRPV COR 181500Z 31007KT 9999 BCFG FEW015 SCT200 23/19 A3006 NOSIG=
201908181600 METAR MRPV COR 181600Z 29010KT 9999 SCT020 SCT030 23/19 A3007 NOSIG=
201908181700 METAR MRPV 181700Z 28008KT 9999 FEW020 SCT030 24/19 A3006 NOSIG=
201908181800 METAR MRPV 181800Z 27008KT 9999 BKN030 24/18 A3004 NOSIG=
201908181900 METAR MRPV 181900Z 28009KT 9999 SCT030 BKN200 25/19 A3001 NOSIG=
201908182000 METAR MRPV 182000Z 30007KT 9999 SCT030 SCT200 26/19 A2998 NOSIG=
201908182100 METAR MRPV 182100Z 27007KT 9999 VCSH SCT025TCU SCT060 SCT200 24/20 A2997 NOSIG=
201908182200 METAR MRPV 182200Z 29012KT 9999 SCT025TCU BKN160 24/20 A2997 NOSIG=
201908182300 METAR MRPV 182300Z 31005KT 8000 TSRA BKN010CB SCT040 22/20 A2998 NOSIG=
201908190000 METAR MRPV 190000Z 29003KT 5000 -TSRA BR FEW005 BKN010CB 21/20 A3001 NOSIG=
201908190100 METAR MRPV NIL=
201908190200 METAR MRPV NIL=
201908190300 METAR MRPV NIL=
201908190400 METAR MRPV NIL=
201908190500 METAR MRPV NIL=
201908190600 METAR MRPV NIL=
201908190700 METAR MRPV NIL=
201908190800 METAR MRPV NIL=
201908190900 METAR MRPV NIL=
201908191000 METAR MRPV NIL=
201908191100 METAR MRPV NIL=
201908191200 METAR MRPV COR 191200Z 10002KT 9999 FEW030 SCT045 BKN120 18/17 A3001 NOSIG=
201908191300 METAR MRPV 191300Z 12007KT CAVOK 21/17 A3002 NOSIG=
201908191400 METAR MRPV 191400Z 12006KT 9999 FEW030 BKN100 24/18 A3003 NOSIG=
201908191500 METAR MRPV 191500Z 10007KT 9999 FEW035 BKN120 24/18 A3006 NOSIG=
201908191600 METAR MRPV 191600Z 29010KT 9999 FEW035 BKN140 24/19 A3006 NOSIG=
201908191700 METAR MRPV 191700Z 29010KT 9999 FEW035 BKN140 24/19 A3006 NOSIG=
201908191800 METAR MRPV 191800Z 29003KT 9999 SCT030 SCT200 26/20 A3001 NOSIG=
201908191900 METAR MRPV 191900Z 08004KT 310V070 9999 -RA VCTS FEW020CB SCT035 SCT200 26/18 A2998 TEMPO TS=
201908192000 METAR MRPV 192000Z 08011KT 9999 VCTS FEW020CB SCT035 SCT200 25/17 A2997 NOSIG=
201908192100 METAR MRPV 192100Z 11008KT 9999 -RA VCTS FEW010CB FEW035 BKN100 24/16 A2997 NOSIG=
201908192200 METAR MRPV 192200Z 30004KT 9999 BCFG FEW003 SCT025 BKN100 19/18 A3001 NOSIG=
201908192300 METAR MRPV 192300Z 00000KT 5000 -RA BR FEW003 BKN100 19/18 A3001 NOSIG=
201908200000 METAR MRPV 200000Z 29002KT 4500 -RA BR FEW003 BKN015 19/18 A3004 NOSIG=
201908200100 METAR MRPV NIL=
201908200200 METAR MRPV NIL=
201908200300 METAR MRPV NIL=
201908200400 METAR MRPV NIL=
201908200500 METAR MRPV NIL=
201908200600 METAR MRPV NIL=
201908200700 METAR MRPV NIL=
201908200800 METAR MRPV NIL=
201908200900 METAR MRPV NIL=
201908201000 METAR MRPV NIL=
201908201100 METAR MRPV NIL=
201908201200 METAR MRPV 201200Z 13001KT CAVOK 17/16 A3004 NOSIG=
201908201300 METAR MRPV 201300Z 10002KT 9999 FEW045 BKN200 21/17 A3005 NOSIG=
201908201400 METAR MRPV 201400Z 28005KT CAVOK 23/17 A3007 NOSIG=
201908201500 METAR MRPV 201500Z 31006KT CAVOK 22/17 A3007 NOSIG=
201908201600 METAR MRPV 201600Z 30006KT 9999 FEW040 BKN200 24/19 A3007 NOSIG=
201908201700 METAR MRPV 201700Z 29008KT 9999 VCSH FEW020TCU SCT035 SCT200 25/20 A3006 NOSIG=
201908201800 METAR MRPV 201800Z COR 30008KT 9999 -RA FEW015TCU SCT025 SCT080 25/20 A3005 NOSIG=
201908201900 METAR MRPV 201900Z 29008KT 9999 BKN025 24/20 A3003 NOSIG=
201908202000 METAR MRPV 202000Z 28008KT 9999 SCT030 SCT090 25/20 A3001 NOSIG=
201908202100 METAR MRPV 202100Z 29014KT 9999 DZ VCTS FEW015CB BKN025 24/29 A2999 NOSIG=
201908202200 METAR MRPV 202200Z 29013KT 9999 DZ SCT015 SCT030 23/18 A2998 NOSIG=
201908202300 MRPV 202300Z 29009KT 3000 RA BR OVC002 21/19 A3000 NOSIG=
201908210000 METAR MRPV 210000Z 31003KT 4000 +RA BR BKN003 20/19 A3003 NOSIG=
201908210100 METAR MRPV NIL=
201908210200 METAR MRPV NIL=
201908210300 METAR MRPV NIL=
201908210400 METAR MRPV NIL=
201908210500 METAR MRPV NIL=
201908210600 METAR MRPV NIL=
201908210700 METAR MRPV NIL=
201908210800 METAR MRPV NIL=
201908210900 METAR MRPV NIL=
201908211000 METAR MRPV NIL=
201908211100 METAR MRPV NIL=
201908211200 METAR MRPV 211200Z 14006KT 9999 -RA NSC 21/17 A3003 NOSIG=
201908211300 METAR MRPV 211300Z 14006KT 9999 -RA FEW040 BKN120 21/17 A3006 NOSIG=
201908211400 METAR MRPV 211400Z 12008KT 9999 FEW040 BKN120 21/17 A3006 NOSIG=
201908211500 METAR MRPV 211500Z 11007KT CAVOK 22/18 A3009 NOSIG=
201908211600 METAR MRPV 211600Z 09009KT 9999 FEW035 BKN140 23/17 A3009 NOSIG=
201908211700 METAR MRPV COR 211700Z 06006KT 9999 FEW035 BKN140 25/18 A3007 NOSIG=
201908211800 METAR MRPV 211800Z 07004KT CAVOK 26/18 A3004 NOSIG=
201908211900 METAR MRPV 211900Z 27009KT 9999 FEW045 SCT120 25/19 A3002 NOSIG=
201908212000 METAR MRPV 212000Z 29013KT 9999 FEW020TCU SCT040 26/20 A3001 NOSIG=
201908212041 METAR MRPV 212041Z 30010KT 9999 RA FEW015TCU SCT040 25/19 A3000 NOSIG=
201908212100 METAR MRPV 212100Z 31010KT 9999 RA FEW015TCU BKN030 24/20 A3000 NOSIG=
201908212200 METAR MRPV 212200Z 32003KT 9000 4000SW RA BCFG BKN020 22/20 A3001 NOSIG=
201908212300 METAR MRPV 212300Z 27004KT 6000 BCFG FEW010 BKN035 22/21 A3002 RERA NOSIG=
201908220000 METAR MRPV 220000Z 13003KT 9000 4000NW RA BKN020 20/20 A3004 NOSIG=
201908220100 METAR MRPV NIL=
201908220200 METAR MRPV NIL=
201908220300 METAR MRPV NIL=
201908220400 METAR MRPV NIL=
201908220500 METAR MRPV NIL=
201908220600 METAR MRPV NIL=
201908220700 METAR MRPV NIL=
201908220800 METAR MRPV NIL=
201908220900 METAR MRPV NIL=
201908221000 METAR MRPV NIL=
201908221100 METAR MRPV NIL=
201908221200 METAR MRPV 221200Z 12008KT 9999 FEW035 SCT120 BKN200 20/17 A3009 NOSIG=
201908221300 METAR MRPV 221300Z 11009KT 9999 FEW040 BKN180 21/17 A3010 NOSIG=
201908221400 METAR MRPV 221400Z 10013KT 9999 FEW035 BKN180 22/17 A3010 NOSIG=
201908221500 METAR MRPV 221500Z 09013KT 9999 FEW035 BKN200 24/18 A3010 NOSIG=
201908221600 METAR MRPV 221600Z 08009KT CAVOK 25/18 A3007 NOSIG=
201908221700 METAR MRPV 221700Z 08011KT CAVOK 27/17 A3007 NOSIG=
201908221800 METAR MRPV 221800Z 07014KT 9999 FEW35 BKN180 25/16 A3007 NOSIG=
201908221900 METAR MRPV 221900Z 09013KT 9999 FEW035 OVC180 25/17 A3004 NOSIG=
201908222000 METAR MRPV 222000Z 09011KT 9999 FEW030 BKN160 25/17 A3003 NOSIG=
201908222100 METAR MRPV 222100Z 09013KT 9999 SCT035 BKN200 26/18 A3002 NOSIG=
201908222200 METAR MRPV 222200Z 09011KT 9999 SCT030 BKN200 24/18 A3002 NOSIG=
201908222300 METAR MRPV 222300Z 09012KT 9999 FEW040 BKN200 23/18 A3002 NOSIG=
201908230000 METAR MRPV 230000Z 11009KT 9999 FEW040 BKN200 23/18 A3003 NOSIG=
201908230100 METAR MRPV NIL=
201908230200 METAR MRPV NIL=
201908230300 METAR MRPV NIL=
201908230400 METAR MRPV NIL=
201908230500 METAR MRPV NIL=
201908230600 METAR MRPV NIL=
201908230700 METAR MRPV NIL=
201908230800 METAR MRPV NIL=
201908230900 METAR MRPV NIL=
201908231000 METAR MRPV NIL=
201908231100 METAR MRPV NIL=
201908231200 METAR MRPV 231200Z 14006KT CAVOK 20/16 A3007 NOSIG=
201908231300 METAR MRPV 231300Z 12007KT CAVOK 22/17 A3007 NOSIG=
201908231400 METAR MRPV 231400Z 10010G20KT 9999 FEW040 24/17 A3009 NOSIG=
201908231500 METAR MRPV 231500Z 10015KT 9999 FEW040 25/17 A3009 NOSIG=
201908231600 METAR MRPV 231600Z 07011KT 9999 FEW040 26/17 A3008 NOSIG=
201908231700 METAR MRPV 231700Z 07012KT 9999 FEW045 27/17 A3006 NOSIG=
201908231800 METAR MRPV 231800Z 07011KT 9999 FEW040 28/17 A3004 NOSIG=
201908231900 METAR MRPV 231900Z 07013KT 9999 SCT045 28/16 A3002 NOSIG=
201908232000 METAR MRPV 232000Z 07009KT 9999 SCT045 29/17 A3000 NOSIG=
201908232100 METAR MRPV 232100Z 06016KT 9999 SCT045 28/17 A3000 NOSIG=
201908232200 METAR MRPV 232200Z 08011KT 9999 FEW040 SCT200 27/17 A3000 NOSIG=
201908232300 METAR MRPV 232300Z 09011KT 9999 FEW040 BKN200 26/17 A3000 NOSIG=
201908240000 METAR MRPV 240000Z 10008KT 9999 VCFG FEW010 SCT035 24/16 A3002 NOSIG=
201908240100 METAR MRPV NIL=
201908240200 METAR MRPV NIL=
201908240300 METAR MRPV NIL=
201908240400 METAR MRPV NIL=
201908240500 METAR MRPV NIL=
201908240600 METAR MRPV NIL=
201908240700 METAR MRPV NIL=
201908240800 METAR MRPV NIL=
201908240900 METAR MRPV NIL=
201908241000 METAR MRPV NIL=
201908241100 METAR MRPV NIL=
201908241200 METAR MRPV 241200Z 13008KT CAVOK 19/15 A3005 NOSIG=
201908241300 METAR MRPV 241300Z 10013KT 9999 FEW045 BKN220 22/15 A3006 NOSIG=
201908241400 METAR MRPV 241400Z 12011KT 9999 FEW045 SCT220 23/16 A3008 NOSIG=
201908241500 METAR MRPV 241500Z 09016KT 9999 FEW040 SCT220 25/16 A3007 NOSIG=
201908241600 METAR MRPV 241600Z 07012KT 9999 FEW040 26/16 A3007 NOSIG=
201908241700 METAR MRPV 241700Z 07012KT 9999 FEW045 27/16 A3005 NOSIG=
201908241800 METAR MRPV 241800Z 07011KT 9999 FEW045 27/17 A3004 NOSIG=
201908241900 METAR MRPV 241900Z 06011KT 9999 FEW045 SCT250 28/16 A3001 NOSIG=
201908242000 METAR MRPV 242000Z 08009KT 9999 SCT045 29/17 A3000 NOSIG=
201908242100 METAR MRPV 242100Z 08012KT 9999 SCT035 SCT200 28/17 A2999 NOSIG=
201908242200 METAR MRPV 242200Z 08009KT 9999 FEW025TCU FEW035 SCT200 27/18 A2998 NOSIG=
201908242244 METAR MRPV COR 242244Z 07011KT 9999 3000N SHRA VCTS FEW020TCU SCT035 25/17 A3000 NOSIG=
201908242300 METAR MRPV 242300Z 09008KT 9999 3000NE TSRA SCT020CB SCT035 24/17 A3000 NOSIG=
201908250000 METAR MRPV COR 250000Z 11009KT 9999 SCT035 SCT100 23/17 A3002 RETSRA NOSIG=
201908250100 METAR MRPV NIL=
201908250200 METAR MRPV NIL=
201908250300 METAR MRPV NIL=
201908250400 METAR MRPV NIL=
201908250500 METAR MRPV NIL=
201908250600 METAR MRPV NIL=
201908250700 METAR MRPV NIL=
201908250800 METAR MRPV NIL=
201908250900 METAR MRPV NIL=
201908251000 METAR MRPV NIL=
201908251100 METAR MRPV NIL=
201908251200 METAR MRPV 251200Z 12009KT 9999 FEW040 BKN200 21/16 A3001 NOSIG=
201908251300 METAR MRPV 251300Z 14005KT 9999 FEW045 BKN200 21/16 A3003 NOSIG=
201908251400 METAR MRPV 251400Z 14006KT CAVOK 22/16 A3005 NOSIG=
201908251500 METAR MRPV 251500Z 10011KT 9999 FEW035 SCT110 BKN220 25/17 A3005 NOSIG=
201908251600 METAR MRPV 251600Z 09012KT 9999 SCT045 SCT220 26/17 A3006 NOSIG=
201908251700 METAR MRPV 251700Z 07009KT 9999 BKN045 27/17 A3004 NOSIG=
201908251800 METAR MRPV 251800Z 07009KT 9999 SCT035 BKN200 28/18 A3002 NOSIG=
201908251900 METAR MRPV 251900Z 08012KT 9999 SCT035 BKN200 26/17 A3000 NOSIG=
201908252000 METAR MRPV 252000Z 06011KT 9999 RA SCT030 BKN200 25/17 A2999 NOSIG=
201908252100 METAR MRPV 252100Z 10008KT 9999 -RA FEW015 BKN025 25/18 A3000 NOSIG=
201908252200 METAR MRPV 252200Z 15007KT 9999 SCT040 SCT100 21/17 A2999 RERA NOSIG=
201908252300 METAR MRPV 252300Z 14005KT CAVOK 22/15 A2999 NOSIG=
201908260000 METAR MRPV 260000Z 12006KT CAVOK 22/14 A3001 NOSIG=
201908260100 METAR MRPV NIL=
201908260200 METAR MRPV NIL=
201908260300 METAR MRPV NIL=
201908260400 METAR MRPV NIL=
201908260500 METAR MRPV NIL=
201908260600 METAR MRPV NIL=
201908260700 METAR MRPV NIL=
201908260800 METAR MRPV NIL=
201908260900 METAR MRPV NIL=
201908261000 METAR MRPV NIL=
201908261100 METAR MRPV NIL=
201908261200 METAR MRPV 261200Z 15007KT CAVOK 20/15 A3000 NOSIG=
201908261300 METAR MRPV 261300Z 14007KT CAVOK 21/16 A3002 NOSIG=
201908261400 METAR MRPV 261400Z 12009KT CAVOK 23/17 A3003 NOSIG=
201908261500 METAR MRPV 261500Z 08013KT CAVOK 25/17 A3003 NOSIG=
201908261600 METAR MRPV 261600Z 08011KT CAVOK 26/17 A3002 NOSIG=
201908261700 METAR MRPV 261700Z 09008KT CAVOK 27/17 A3000 NOSIG=
201908261800 METAR MRPV 261800Z 31003KT 050V280 9999 FEW035 BKN140 28/16 A3000 NOSIG=
201908261900 METAR MRPV 261900Z 23004KT 9999 SCT040 BKN140 26/19 A2997 NOSIG=
201908262000 METAR MRPV 262000Z COR 05008KT 9999 3000NW TSRA SCT020CB BKN040 26/19 A2996 TEMPO 4000=
201908262100 METAR MRPV 262100Z 25005KT 9999 4000W TSRA FEW015CB FEW025 OVC120 22/17 A2998 NOSIG=
201908262200 METAR MRPV 262200Z 00000KT 9999 FEW020 OVC120 20/17 A2996 RETSRA NOSIG=
201908262300 METAR MRPV 262300Z 14007KT CAVOK 23/18 A2994 NOSIG=
201908270000 METAR MRPV 270000Z 10011KT 9999 FEW030 OVC100 22/18 A2995 NOSIG=
201908270100 METAR MRPV NIL=
201908270200 METAR MRPV NIL=
201908270300 METAR MRPV NIL=
201908270400 METAR MRPV NIL=
201908270500 METAR MRPV NIL=
201908270600 METAR MRPV NIL=
201908270700 METAR MRPV NIL=
201908270800 METAR MRPV NIL=
201908270900 METAR MRPV NIL=
201908271000 METAR MRPV NIL=
201908271100 METAR MRPV NIL=
201908271200 METAR MRPV 271200Z 11012KT 9999 FEW035 SCT200 21/17 A3001 NOSIG=
201908271300 METAR MRPV 271300Z 11010KT 9999 FEW035 BKN180 22/17 A3002 NOSIG=
201908271400 METAR MRPV 271400Z 10013KT 9999 FEW035 BKN200 22/17 A3004 NOSIG=
201908271500 METAR MRPV 271500Z 10014KT 9999 FEW040 BKN200 23/16 A3005 NOSIG=
201908271600 METAR MRPV 271600Z 12012G22KT 9999 FEW035 BKN200 25/17 A3005 NOSIG=
201908271700 METAR MRPV 271700Z 09017KT 9999 FEW040 BKN200 25/16 A3003 NOSIG=
201908271800 METAR MRPV 271800Z 08018KT CAVOK 25/16 A3000 NOSIG=
201908271900 METAR MRPV 271900Z 10012KT CAVOK 27/16 A2997 NOSIG=
201908272000 METAR MRPV 272000Z 08013KT CAVOK 27/16 A2994 NOSIG=
201908272100 METAR MRPV 272100Z 10008KT CAVOK 29/16 A2991 NOSIG=
201908272200 METAR MRPV 272200Z 09011KT CAVOK 29/15 A2991 NOSIG=
201908272300 METAR MRPV 272300Z 08009KT 9999 FEW015 BKN200 26/17 A2993 NOSIG=
201908280000 METAR MRPV 280000Z 06010KT 9999 FEW010 BKN200 24/16 A2993 NOSIG=
201908280100 METAR MRPV NIL=
201908280200 METAR MRPV NIL=
201908280300 METAR MRPV NIL=
201908280400 METAR MRPV NIL=
201908280500 METAR MRPV NIL=
201908280600 METAR MRPV NIL=
201908280700 METAR MRPV NIL=
201908280800 METAR MRPV NIL=
201908280900 METAR MRPV NIL=
201908281000 METAR MRPV NIL=
201908281100 METAR MRPV NIL=
201908281200 METAR MRPV 281200Z 13012G22KT CAVOK 21/15 A3001 NOSIG=
201908281300 METAR MRPV 281300Z 13011G21KT CAVOK 23/13 A3000 NOSIG=
201908281400 METAR MRPV 281400Z 10014KT CAVOK 24/14 A3001 NOSIG=
201908281500 METAR MRPV 281500Z 07019KT 9999 FEW045 SCT250 24/16 A3003 NOSIG=
201908281600 METAR MRPV 281600Z 08019KT 9999 FEW040 SCT250 25/17 A3003 NOSIG=
201908281700 METAR MRPV 281700Z 07017KT 9999 SCT045 SCT250 26/17 A3003 NOSIG=
201908281800 METAR MRPV 281800Z 08015KT 9999 FEW045 SCT250 27/17 A3000 NOSIG=
201908281900 METAR MRPV 281900Z 08014KT 9999 FEW035 SCT250 27/17 A2998 NOSIG=
201908282000 METAR MRPV 282000Z 08014KT 9999 SCT035 26/18 A2997 NOSIG=
201908282100 METAR MRPV 282100Z 07014KT 9999 FEW035 26/18 A2996 NOSIG=
201908282200 METAR MRPV 282200Z 08010KT 9999 FEW030 SCT120 BKN200 25/17 A2997 NOSIG=
201908282300 METAR MRPV 282300Z 09011KT 9999 FEW030 SCT120 BKN200 23/17 A2997 NOSIG=
201908290000 METAR MRPV 290000Z 09009KT 9999 FEW035 OVC200 23/17 A3000 NOSIG=
201908290100 METAR MRPV NIL=
201908290200 METAR MRPV NIL=
201908290300 METAR MRPV NIL=
201908290400 METAR MRPV NIL=
201908290500 METAR MRPV NIL=
201908290600 METAR MRPV NIL=
201908290700 METAR MRPV NIL=
201908290800 METAR MRPV NIL=
201908290900 METAR MRPV NIL=
201908291000 METAR MRPV NIL=
201908291100 METAR MRPV NIL=
201908291200 METAR MRPV 291200Z 13008KT 9999 4000N RA FEW040 BKN200 21/17 A3001 NOSIG=
201908291300 METAR MRPV 291300Z 11007KT 9999 4000NW RA FEW030 SCT100 BKN200 20/17 A3004 NOSIG=
201908291400 METAR MRPV 291400Z COR 11010KT 9999 FEW015 SCT080 BKN200 21/16 A3005 RERA NOSIG=
201908291500 METAR MRPV 291500Z 10013KT 9999 FEW040 SCT110 BKN200 23/17 A3004 NOSIG=
201908291600 METAR MRPV 291600Z 10010KT 9999 SCT030 BKN100 23/17 A3006 NOSIG=
201908291700 METAR MRPV 291700Z 10011KT 9999 SCT030 OVC120 24/17 A3005 NOSIG=
201908291800 METAR MRPV 291800Z 11010KT 9999 FEW030 OVC120 23/17 A3005 NOSIG=
201908291900 METAR MRPV 291900Z 09009KT 9999 FEW035 OVC120 23/17 A3002 NOSIG=
201908292000 METAR MRPV 292000Z 09009KT 9999 -RA FEW035 OVC120 23/18 A3001 NOSIG=
201908292100 METAR MRPV 292100Z 11010KT 9999 FEW030 SCT080 BKN120 23/17 A3000 NOSIG=
201908292200 METAR MRPV 292200Z 12010KT 9999 SCT030 BKN120 22/18 A2998 NOSIG=
201908292300 METAR MRPV 292300Z 11009KT 9999 FEW040 BKN120 22/17 A2998 NOSIG=
201908300000 METAR MRPV 300000Z 12006KT 9999 FEW025 BKN120 21/17 A3000 NOSIG=
201908300100 METAR MRPV NIL=
201908300200 METAR MRPV NIL=
201908300300 METAR MRPV NIL=
201908300400 METAR MRPV NIL=
201908300500 METAR MRPV NIL=
201908300600 METAR MRPV NIL=
201908300700 METAR MRPV NIL=
201908300800 METAR MRPV NIL=
201908300900 METAR MRPV NIL=
201908301000 METAR MRPV NIL=
201908301100 METAR MRPV NIL=
201908301200 METAR MRPV 301200Z 13008KT CAVOK 20/15 A3003 NOSIG=
201908301300 METAR MRPV 301300Z 13009KT 9999 FEW045 SCT100 21/15 A3006 NOSIG=
201908301400 METAR MRPV 301400Z 12010KT CAVOK 22/15 A3006 NOSIG=
201908301500 METAR MRPV 301500Z 10010KT CAVOK 26/16 A3005 NOSIG=
201908301600 METAR MRPV 301600Z 11008KT CAVOK 27/16 A3003 NOSIG=
201908301700 METAR MRPV 301700Z 08007KT 9999 FEW045 28/16 A3003 NOSIG=
201908301800 METAR MRPV 301800Z 28009KT 9999 SCT045 27/18 A3001 NOSIG=
201908301900 METAR MRPV 301900Z 08011KT 280V080 9999 4500N SHRA FEW020TCU SCT035 27/18 A2999 NOSIG=
201908302000 METAR MRPV 302000Z 09014KT 9999 TSRA SCT020CB SCT035 24/18 A2998 NOSIG=
201908302100 METAR MRPV 302100Z 10007KT 9999 VCTS FEW020CB SCT035 SCT120 24/17 A2996 RETSRA NOSIG=
201908302130 METAR MRPV 302130Z 15003KT 080V150 9999 4000S DZ SCT030 SCT120 24/18 A2997 NOSIG=
201908302200 METAR MRPV 302200Z 15005KT 9999 4000SW DZ VCFG SCT030 BKN100 22/19 A2998 NOSIG=
201908302300 METAR MRPV COR 302300Z 18002KT 4000 -TSRA BR FEW010 FEW020CB SCT035 20/19 A3002 NOSIG=
201908310000 METAR MRPV 310000Z 12003KT 9999 FEW035 BKN080 20/19 A3002 RETSRA NOSIG=
201908310100 METAR MRPV NIL=
201908310200 METAR MRPV NIL=
201908310300 METAR MRPV NIL=
201908310400 METAR MRPV NIL=
201908310500 METAR MRPV NIL=
201908310600 METAR MRPV NIL=
201908310700 METAR MRPV NIL=
201908310800 METAR MRPV NIL=
201908310900 METAR MRPV NIL=
201908311000 METAR MRPV NIL=
201908311100 METAR MRPV NIL=
201908311200 METAR MRPV 311200Z 15006KT CAVOK 20/16 A3002 NOSIG=
201908311300 METAR MRPV 311300Z 14007KT CAVOK 22/16 A3003 NOSIG=
201908311400 METAR MRPV 311400Z 13009KT CAVOK 24/16 A3004 NOSIG=
201908311500 METAR MRPV 311500Z 09013KT 9999 FEW045 SCT220 25/16 A3004 NOSIG=
201908311600 METAR MRPV 311600Z 10005KT 9999 FEW045 SCT200 27/17 A3003 NOSIG=
201908311700 METAR MRPV 311700Z 10009KT 9999 FEW045 BKN200 27/17 A3002 NOSIG=
201908311800 METAR MRPV 311800Z 09007KT 9999 SCT040 BKN200 28/17 A3001 NOSIG=
201908311900 METAR MRPV 311900Z 29011KT 9999 SCT035 BKN200 28/19 A2999 NOSIG=
201908312000 MRPV 312000Z 29014KT 9999 4000NW RA SCT020TCU SCT035 26/20 A2996 NOSIG=
201908312004 METAR MRPV 312004Z 29015KT 2000 -TSRA SCT020TCU SCT035 24/21 A2997 NOSIG=
201908312005 METAR MRPV 312005Z COR 29015KT 0500 -TSRA BKN015CB SCT035 24/21 A2998 NOSIG=
201908312100 METAR MRPV 312100Z 13001KT 9999 -TSRA BCFG FEW015 SCT020CB BKN100 20/18 A2999 RERA NOSIG=
201908312200 METAR MRPV 312200Z 32006KT 9999 3000S BCFG SCT010 SCT090 21/20 A2999 NOSIG=
201908312300 METAR MRPV 312300Z 24002KT 9999 4000S BCFG FEW010 SCT035 BKN100 21/19 A3000 NOSIG=
201909010000 METAR MRPV 010000Z 14001KT 9999 SCT030 BKN100 20/19 A3000 NOSIG=
201909010100 METAR MRPV NIL=
201909010200 METAR MRPV NIL=
201909010300 METAR MRPV NIL=
201909010400 METAR MRPV NIL=
201909010500 METAR MRPV NIL=
201909010600 METAR MRPV NIL=
201909010700 METAR MRPV NIL=
201909010800 METAR MRPV NIL=
201909010900 METAR MRPV NIL=
201909011000 METAR MRPV NIL=
201909011100 METAR MRPV NIL=
201909011200 METAR MRPV 011200Z 14007KT 9999 FEW030 BKN200 21/17 A3002 NOSIG=
201909011300 METAR MRPV 011300Z 12007KT 9999 FEW035 BKN200 22/17 A3004 NOSIG=
201909011400 METAR MRPV 011400Z 12007KT 9999 FEW035 BKN200 23/17 A3005 NOSIG=
201909011500 METAR MRPV 011500Z 10008KT CAVOK 25/17 A3006 NOSIG=
201909011600 METAR MRPV 011600Z 08010KT 9999 SCT035 BKN170 26/17 A3007 NOSIG=
201909011700 METAR MRPV 011700Z 09007KT 9999 FEW040 BKN170 26/17 A3006 NOSIG=
201909011800 METAR MRPV 011800Z 30011KT 9999 SCT035 BKN180 25/19 A3003 NOSIG=
201909011900 METAR MRPV 011900Z 29012KT 9999 SCT030 OVC200 25/19 A3002 NOSIG=
201909012000 METAR MRPV 012000Z 30009KT 9999 SCT025 OVC200 25/19 A2998 NOSIG=
201909012100 METAR MRPV 012100Z 27007KT 9999 4000E TSRA SCT010CB SCT025 OVC200 24/19 A2997 TEMPO 3000 BKN008=
201909012200 METAR MRPV 012200Z 06005KT 9999 4000N RA VCTS FEW015CB SCT020 BKN100 20/18 A2999 RETSRA NOSIG=
201909012300 METAR MRPV 012300Z 15002KT 9999 FEW020 OVC100 19/18 A2999 RERA NOSIG=
201909020000 METAR MRPV 020000Z 13002KT 9999 FEW040 OVC100 20/19 A3002 NOSIG=
201909020100 METAR MRPV NIL=
201909020200 METAR MRPV NIL=
201909020300 METAR MRPV NIL=
201909020400 METAR MRPV NIL=
201909020500 METAR MRPV NIL=
201909020600 METAR MRPV NIL=
201909020700 METAR MRPV NIL=
201909020800 METAR MRPV NIL=
201909020900 METAR MRPV NIL=
201909021000 METAR MRPV NIL=
201909021100 METAR MRPV NIL=
201909021200 METAR MRPV 021200Z 12010KT 9999 FEW035 BKN120 21/16 A3000 NOSIG=
201909021300 METAR MRPV 021300Z 12010KT 9999 FEW035 BKN120 22/17 A3001 NOSIG=
201909021400 METAR MRPV 021400Z 10012KT CAVOK 23/17 A3003 NOSIG=
201909021500 METAR MRPV 021500Z 10011KT 9999 FEW040 SCT200 25/18 A3003 NOSIG=
201909021600 METAR MRPV 021600Z 08013KT 9999 FEW035 SCT200 26/17 A3003 NOSIG=
201909021700 METAR MRPV 021700Z 08013KT 9999 FEW035 BKN160 27/18 A3001 NOSIG=
201909021800 METAR MRPV 021800Z 07011KT 9999 FEW035 BKN140 28/17 A2999 NOSIG=
201909021900 METAR MRPV 021900Z 08011KT 9999 FEW020 SCT035 BKN120 27/18 A2998 NOSIG=
201909022000 METAR MRPV 022000Z 06006KT 9999 FEW020 BKN035 27/17 A2995 NOSIG=
201909022100 METAR MRPV 022100Z 33007KT 9999 SCT015 BKN020 25/21 A2994 TEMPO BKN010=
201909022200 METAR MRPV 022200Z 28007KT 7000 RA VCTS FEW010CB BKN025 SCT200 20/19 A2997 NOSIG=
201909022300 METAR MRPV 022300Z 34003KT 4500 BR SCT015 BKN100 20/19 A2998 NOSIG=
201909030000 METAR MRPV 030000Z 23001KT 8000 VCFG BKN020 SCT100 20/19 A2999 NOSIG=
201909030100 METAR MRPV NIL=
201909030200 METAR MRPV NIL=
201909030300 METAR MRPV NIL=
201909030400 METAR MRPV NIL=
201909030500 METAR MRPV NIL=
201909030600 METAR MRPV NIL=
201909030700 METAR MRPV NIL=
201909030800 METAR MRPV NIL=
201909030900 METAR MRPV NIL=
201909031000 METAR MRPV NIL=
201909031100 METAR MRPV NIL=
201909031200 METAR MRPV 031200Z 14003KT CAVOK 19/17 A2998 NOSIG=
201909031300 METAR MRPV 031300Z 15005KT CAVOK 21/17 A2999 NOSIG=
201909031400 METAR MRPV 031400Z 12009KT CAVOK 23/17 A3000 NOSIG=
201909031500 METAR MRPV 031500Z 10010KT CAVOK 25/17 A3001 NOSIG=
201909031600 METAR MRPV 031600Z 08011KT CAVOK 25/17 A3000 NOSIG=
201909031700 METAR MRPV 031700Z 09011KT CAVOK 26/17 A2999 NOSIG=
201909031800 METAR MRPV 031800Z 09008KT 9999 SCT045 27/17 A2997 NOSIG=
201909031900 METAR MRPV 031900Z 09007KT 9999 BKN045 SCT200 27/17 A2994 NOSIG=
201909032000 METAR MRPV 032000Z 07009KT 9999 TSRA SCT020CB SCT035 26/16 A2994 NOSIG=
201909032100 METAR MRPV 032100Z 34004KT 090V350 9999 FEW015 SCT025 BKN100 22/18 A2995 RETSRA NOSIG=
201909032200 METAR MRPV 032200Z 28005KT 9999 FEW025 SCT035 BKN100 23/18 A2995 NOSIG=
201909032300 METAR MRPV 032300Z 29005KT 0800 FG OVC004 20/19 A2997 NOSIG=
201909040000 METAR MRPV 040000Z 14001KT 9999 VCFG SCT025 BKN100 20/19 A2999 NOSIG=
201909040100 METAR MRPV NIL=
201909040200 METAR MRPV NIL=
201909040300 METAR MRPV NIL=
201909040400 METAR MRPV NIL=
201909040500 METAR MRPV NIL=
201909040600 METAR MRPV NIL=
201909040700 METAR MRPV NIL=
201909040800 METAR MRPV NIL=
201909040900 METAR MRPV NIL=
201909041000 METAR MRPV NIL=
201909041100 METAR MRPV NIL=
201909041200 METAR MRPV 041200Z 13005KT CAVOK 20/15 A3003 NOSIG=
201909041300 METAR MRPV 041300Z 15006KT CAVOK 20/16 A3005 NOSIG=
201909041400 METAR MRPV 041400Z 12009KT 9999 FEW040 BKN200 23/16 A3008 NOSIG=
201909041500 METAR MRPV 041500Z 09009KT 9999 FEW045 BKN200 24/16 A3008 NOSIG=
201909041600 METAR MRPV 041600Z 09011KT 9999 FEW035 BKN200 24/16 A3007 NOSIG=
201909041700 METAR MRPV 041700Z 09011KT 9999 FEW040 BKN200 25/17 A3004 NOSIG=
201909041800 METAR MRPV 041800Z 06003KT 110V030 9999 FEW045 BKN200 27/17 A3002 NOSIG=
201909041900 METAR MRPV 041900Z 08011KT 9999 SCT040 BKN200 27/17 A2999 NOSIG=
201909042000 METAR MRPV 042000Z 28006KT 9999 RA BKN040 25/20 A2998 NOSIG=
201909042100 METAR MRPV 042100Z 15002KT 5000 TSRA SCT015CB BKN040 22/18 A3001 NOSIG=
201909042200 METAR MRPV 042200Z COR 30008KT 200V300 3000 -RA BR SCT006 SCT025 OVC100 21/19 A3003 NOSIG=
201909042300 METAR MRPV 042300Z 27002KT 4500 -RA SCT010 SCT070 OVC100 19/18 A3003 BECMG 6000=
201909050000 METAR MRPV 050000Z 28001KT 6000 BCFG FEW010 OVC100 NOSIG=
201909050100 METAR MRPV NIL=
201909050200 METAR MRPV NIL=
201909050300 METAR MRPV NIL=
201909050400 METAR MRPV NIL=
201909050500 METAR MRPV NIL=
201909050600 METAR MRPV NIL=
201909050700 METAR MRPV NIL=
201909050800 METAR MRPV NIL=
201909050900 METAR MRPV NIL=
201909051000 METAR MRPV NIL=
201909051100 METAR MRPV NIL=
201909051200 METAR MRPV 051200Z 15007KT 9999 FEW030 BKN220 21/17 A3004 NOSIG=
201909051300 METAR MRPV 051300Z 12011KT 9999 FEW030 SCT070 22/17 A3008 NOSIG=
201909051400 METAR MRPV 051400Z 10009KT 9999 FEW030 SCT120 23/17 A3011 NOSIG=
201909051500 METAR MRPV 051500Z 10012KT 9999 FEW035 BKN220 25/17 A3011 NOSIG=
201909051600 METAR MRPV 051600Z 08013KT 9999 SCT040 BKN220 25/17 A3011 NOSIG=
201909051700 METAR MRPV 051700Z 08016G26KT 9999 FEW025 BKN070 23/16 A3011 NOSIG=
201909051800 METAR MRPV 051800Z 07015G26KT 9999 FEW010 SCT040 BKN080 24/16 A3009 NOSIG=
201909051900 METAR MRPV 051900Z 10013G23KT 9999 FEW015 SCT030 BKN090 23/16 A3007 NOSIG=
201909052000 METAR MRPV 052000Z 14006KT 9999 SCT040 BKN120 24/16 A3005 NOSIG=
201909052100 METAR MRPV 052100Z 11006KT 9999 FEW030 BKN100 26/15 A3001 NOSIG=
201909052200 METAR MRPV 052200Z 08007KT CAVOK 25/15 A3001 NOSIG=
201909052300 METAR MRPV 052300Z 35004KT CAVOK 24/19 A3001 NOSIG=
201909060000 METAR MRPV 060000Z 24001KT 9999 SCT030 21/20 A3005 NOSIG=
201909060100 METAR MRPV NIL=
201909060200 METAR MRPV NIL=
201909060300 METAR MRPV NIL=
201909060400 METAR MRPV NIL=
201909060500 METAR MRPV NIL=
201909060600 METAR MRPV NIL=
201909060700 METAR MRPV NIL=
201909060800 METAR MRPV NIL=
201909060900 METAR MRPV NIL=
201909061000 METAR MRPV NIL=
201909061100 METAR MRPV NIL=
201909061200 METAR MRPV 061200Z 14006KT CAVOK 19/15 A3004 NOSIG=
201909061300 METAR MRPV 061300Z 13006KT CAVOK 22/15 A3007 NOSIG=
201909061400 METAR MRPV 061400Z 13007KT CAVOK 24/15 A3007 NOSIG=
201909061500 METAR MRPV 061500Z 09010KT 9999 FEW045 BKN220 25/16 A3007 NOSIG=
201909061600 METAR MRPV 061600Z 08008KT CAVOK 26/16 A3007 NOSIG=
201909061700 METAR MRPV 061700Z 03004KT 9999 FEW045 BKN220 28/17 A3005 BECMG 31005KT=
201909061800 METAR MRPV 061800Z 28010KT 9999 SCT040 BKN220 26/19 A3003 NOSIG=
201909061900 METAR MRPV 061900Z 28011KT 9999 SCT030 27/20 A3001 NOSIG=
201909062000 METAR MRPV 062000Z 28009KT 9999 SHRA SCT025TCU SCT040 26/21 A2998 NOSIG=
201909062100 METAR MRPV 062100Z 02004KT 5000 TSRA BKN015CB SCT100 20/20 A2999 NOSIG=
201909062200 METAR MRPV 062200Z 26002KT 8000 -TSRA FEW015CB FEW015 OVC100 21/20 A3001 RESHRA NOSIG=
201909062300 METAR MRPV 062300Z 31004KT 8000 BKN005 21/20 A3002 RETSRA NOSIG=
201909070000 METAR MRPV 070000Z 28004KT 8000 BKN005 21/20 A3005 NOSIG=
201909070100 METAR MRPV NIL=
201909070200 METAR MRPV NIL=
201909070300 METAR MRPV NIL=
201909070400 METAR MRPV NIL=
201909070500 METAR MRPV NIL=
201909070600 METAR MRPV NIL=
201909070700 METAR MRPV NIL=
201909070800 METAR MRPV NIL=
201909070900 METAR MRPV NIL=
201909071000 METAR MRPV NIL=
201909071100 METAR MRPV NIL=
201909071200 METAR MRPV 071200Z 11006KT 9999 FEW040 BKN100 21/17 A3003 NOSIG=
201909071300 METAR MRPV 071300Z 13008KT 9999 FEW030 BKN100 21/17 A3005 NOSIG=
201909071400 METAR MRPV 071400Z 12010KT 9999 FEW040 BKN100 24/18 A3006 NOSIG=
201909071500 METAR MRPV 071500Z 09015KT 9999 FEW030 BKN100 23/18 A3007 NOSIG=
201909071600 METAR MRPV 071600Z 10015KT 9999 FEW030 BKN100 23/18 A3008 NOSIG=
201909071700 METAR MRPV 071700Z 09014KT 9999 SCT040 BKN100 23/18 A3007 NOSIG=
201909071800 METAR MRPV 071800Z 12008KT 9999 FEW035 BKN100 22/18 A3004 NOSIG=
201909071900 METAR MRPV 071900Z 12010KT 9999 SCT030 BKN100 23/17 A3002 NOSIG=
201909072000 METAR MRPV 072000Z 12008KT 9999 BKN025 22/18 A3002 NOSIG=
201909072100 METAR MRPV 072100Z 10011KT 9999 BKN020 22/18 A3001 NOSIG=
201909072200 METAR MRPV 072200Z 09011KT 9999 SCT040 BKN100 23/17 A3000 NOSIG=
201909072300 METAR MRPV 072300Z 09011KT 9999 FEW025 BKN200 23/16 A3001 NOSIG=
201909080000 METAR MRPV 080000Z 09011KT 9999 FEW025 BKN200 23/16 A3001 NOSIG=
201909080100 METAR MRPV NIL=
201909080200 METAR MRPV NIL=
201909080300 METAR MRPV NIL=
201909080400 METAR MRPV NIL=
201909080500 METAR MRPV NIL=
201909080600 METAR MRPV NIL=
201909080700 METAR MRPV NIL=
201909080800 METAR MRPV NIL=
201909080900 METAR MRPV NIL=
201909081000 METAR MRPV NIL=
201909081100 METAR MRPV NIL=
201909081200 METAR MRPV 081200Z 14006KT CAVOK 19/14 A3007 NOSIG=
201909081300 METAR MRPV 081300Z 11009KT CAVOK 22/15 A3009 NOSIG=
201909081400 METAR MRPV 081400Z 14007KT CAVOK 24/14 A3010 NOSIG=
201909081500 METAR MRPV 081500Z 11013KT CAVOK 25/14 A3009 NOSIG=
201909081600 METAR MRPV 081600Z 08014KT CAVOK 27/15 A3009 NOSIG=
201909081700 METAR MRPV 081700Z 08012KT CAVOK 27/16 A3007 NOSIG=
201909081800 METAR MRPV 081800Z 09010KT 9999 FEW045 BKN250 28/17 A3004 NOSIG=
201909081900 METAR MRPV 081900Z 08009KT 9999 SCT045 SCT080 27/17 A3002 NOSIG=
201909082000 METAR MRPV 082000Z 32004KT 9999 BKN035 26/21 A3001 NOSIG=
201909082100 METAR MRPV 082100Z 28010KT 9999 4000NW RA BKN035 26/21 A3001 NOSIG=
201909082200 METAR MRPV 082200Z 29007KT 2000 RA BR BKN004 22/21 A3000 NOSIG=
201909082300 METAR MRPV 082300Z 29003KT 3000 BR BKN004 21/20 A3002 RERA NOSIG=
201909090000 METAR MRPV 090000Z 00000KT 4000 RA BR BKN010 21/20 A3003 NOSIG=
201909090100 METAR MRPV NIL=
201909090200 METAR MRPV NIL=
201909090300 METAR MRPV NIL=
201909090400 METAR MRPV NIL=
201909090500 METAR MRPV NIL=
201909090600 METAR MRPV NIL=
201909090700 METAR MRPV NIL=
201909090800 METAR MRPV NIL=
201909090900 METAR MRPV NIL=
201909091000 METAR MRPV NIL=
201909091100 METAR MRPV NIL=
201909091200 METAR MRPV 091200Z 33003KT 9999 4000W BCFG FEW004 SCT100 OVC200 19/17 A3007 NOSIG=
201909091300 METAR MRPV 091300Z 09003KT CAVOK 20/18 A3008 NOSIG=
201909091400 METAR MRPV 091400Z 28003KT CAVOK 20/18 A3011 NOSIG=
201909091500 METAR MRPV 091500Z 35002KT CAVOK 21/18 A3010 NOSIG=
201909091600 METAR MRPV 091600Z 10006KT CAVOK 23/17 A3010 NOSIG=
201909091700 METAR MRPV 091700Z 28008KT 9999 FEW020 SCT100 BKN200 22/18 A3011 NOSIG=
201909091800 METAR MRPV 091800Z 29005KT 7000 FEW025 OVC200 22/18 A3008 NOSIG=
201909091900 METAR MRPV 091900Z 27003KT 9999 FEW040 OVC200 24/19 A3004 NOSIG=
201909092000 METAR MRPV 092000Z 28006KT 9999 FEW030 OVC200 24/19 A3003 NOSIG=
201909092100 METAR MRPV 092100Z 29007KT 9999 FEW030 OVC200 24/19 A3001 NOSIG=
201909092200 METAR MRPV 092200Z 30005KT 9999 SCT025 OVC200 24/19 A3002 NOSIG=
201909092300 METAR MRPV 092300Z 29003KT 9999 SCT030 OVC200 23/20 A3003 NOSIG=
201909100000 METAR MRPV 100000Z 30002KT 8000 VCFG FEW020 SCT090 BKN200 22/20 A3004 NOSIG=
201909100100 METAR MRPV NIL=
201909100200 METAR MRPV NIL=
201909100300 METAR MRPV NIL=
201909100400 METAR MRPV NIL=
201909100500 METAR MRPV NIL=
201909100600 METAR MRPV NIL=
201909100700 METAR MRPV NIL=
201909100800 METAR MRPV NIL=
201909100900 METAR MRPV NIL=
201909101000 METAR MRPV NIL=
201909101100 METAR MRPV NIL=
201909101200 METAR MRPV 101200Z 13007KT 9999 FEW045 BKN250 20/16 A3006 NOSIG=
201909101300 METAR MRPV 101300Z 14006KT 9999 FEW035 BKN250 21/17 A3007 NOSIG=
201909101400 METAR MRPV 101400Z 12009KT 9999 FEW030 BKN250 22/17 A3009 NOSIG=
201909101500 METAR MRPV 101500Z 14007KT CAVOK 23/17 A3007 NOSIG=
201909101600 METAR MRPV 101600Z 08014KT CAVOK 26/18 A3006 NOSIG=
201909101700 METAR MRPV 101700Z 08013KT 9999 SCT040 SCT250 28/18 A3006 NOSIG=
201909101800 METAR MRPV 101800Z 07012KT 9999 SCT035 SCT250 26/18 A3004 NOSIG=
201909101900 METAR MRPV 101900Z 07011KT 9999 FEW020 BKN090 27/17 A3003 NOSIG=
201909102000 METAR MRPV 102000Z 07014KT 9999 SCT030 BKN100 27/17 A2999 NOSIG=
201909102100 METAR MRPV 102100Z 09012G23KT 9999 FEW025 BKN100 26/18 A2999 NOSIG=
201909102200 METAR MRPV 102200Z 09015G25KT 9999 FEW035 BKN100 25/17 A2999 NOSIG=
201909102300 METAR MRPV 102300Z 09009KT CAVOK 24/17 A2998 NOSIG=
201909110000 METAR MRPV 110000Z 09015KT 9999 FEW035 OVC120 23/17 A3000 NOSIG=
201909110100 METAR MRPV NIL=
201909110200 METAR MRPV NIL=
201909110300 METAR MRPV NIL=
201909110400 METAR MRPV NIL=
201909110500 METAR MRPV NIL=
201909110600 METAR MRPV NIL=
201909110700 METAR MRPV NIL=
201909110800 METAR MRPV NIL=
201909110900 METAR MRPV NIL=
201909111000 METAR MRPV NIL=
201909111100 METAR MRPV NIL=
201909111200 METAR MRPV 111200Z 13006KT CAVOK 21/16 A3001 NOSIG=
201909111300 METAR MRPV 111300Z 11008KT CAVOK 21/16 A3004 NOSIG=
201909111400 METAR MRPV 111400Z 11014KT 9999 FEW035 OVC160 23/16 A3004 NOSIG=
201909111500 METAR MRPV 111500Z 12013KT 9999 FEW040 OVC160 23/17 A3004 NOSIG=
201909111600 METAR MRPV 111600Z 08016KT 9999 FEW035 OVC160 24/17 A3005 NOSIG=
201909111700 METAR MRPV 111700Z 08013KT 9999 FEW035 OVC160 25/18 A3004 NOSIG=
201909111800 METAR MRPV 111800Z 10008KT 9999 FEW045 BKN200 26/18 A2998 NOSIG=
201909111900 METAR MRPV 111900Z 08009KT CAVOK 28/18 A2994 NOSIG=
201909112000 METAR MRPV 112000Z 07012KT CAVOK 26/17 A2993 NOSIG=
201909112100 METAR MRPV 112100Z 07012KT 9999 FEW035 BKN160 25/17 A2994 NOSIG=
201909112200 METAR MRPV 112200Z 09011KT 9999 SCT035 BKN140 25/17 A2995 NOSIG=
201909112300 METAR MRPV 112300Z 09011KT 9999 VCFG SCT035 BKN120 24/17 A2996 NOSIG=
201909120000 METAR MRPV 120000Z 12007KT 9999 SCT040 BKN120 22/17 A2998 NOSIG=
201909120100 METAR MRPV NIL=
201909120200 METAR MRPV NIL=
201909120300 METAR MRPV NIL=
201909120400 METAR MRPV NIL=
201909120500 METAR MRPV NIL=
201909120600 METAR MRPV NIL=
201909120700 METAR MRPV NIL=
201909120800 METAR MRPV NIL=
201909120900 METAR MRPV NIL=
201909121000 METAR MRPV NIL=
201909121100 METAR MRPV NIL=
201909121200 METAR MRPV 121200Z 13004KT 9999 DZ SCT040 BKN120 21/18 A2996 NOSIG=
201909121300 METAR MRPV 121300Z 10003KT 3000 -RA SCT030 BKN100 20/19 A3000 NOSIG=
201909121400 METAR MRPV 121400Z 10006KT 5000 2500N -RA SCT045 BKN100 20/19 A3003 NOSIG=
201909121500 METAR MRPV COR 121500Z 13005KT 8000 RA FEW025 SCT040 OVC100 20/18 A3004 NOSIG=
201909121600 METAR MRPV 121600Z 12008KT 8000 -RA SCT035 OVC120 20/18 A3002 NOSIG=
201909121700 METAR MRPV 121700Z 15003KT 9999 -RA SCT035 BKN120 21/19 A3003 NOSIG=
201909121800 METAR MRPV 121800Z 13007KT 9999 SCT035 BKN100 23/18 A3000 NOSIG=
201909121900 METAR MRPV 121900Z 11011KT 9999 FEW040 OVC110 23/16 A2996 NOSIG=
201909122000 METAR MRPV 122000Z 12008KT CAVOK 23/17 A2993 NOSIG=
201909122100 METAR MRPV 122100Z 07005KT 9999 FEW045 OVC110 24/16 A2992 NOSIG=
201909122200 METAR MRPV 122200Z 13005KT 9999 FEW040 OVC110 23/16 A2993 NOSIG=
201909122300 METAR MRPV 122300Z 11007KT CAVOK 23/17 A2993 NOSIG=
201909130000 METAR MRPV 130000Z 14001KT 9999 BCFG FEW008 OVC110 21/17 A2994 NOSIG=
201909130100 METAR MRPV NIL=
201909130200 METAR MRPV NIL=
201909130300 METAR MRPV NIL=
201909130400 METAR MRPV NIL=
201909130500 METAR MRPV NIL=
201909130600 METAR MRPV NIL=
201909130700 METAR MRPV NIL=
201909130800 METAR MRPV NIL=
201909130900 METAR MRPV NIL=
201909131000 METAR MRPV NIL=
201909131100 METAR MRPV NIL=
201909131200 METAR MRPV 131200Z 12010KT CAVOK 20/16 A2998 NOSIG=
201909131300 METAR MRPV 131300Z 13006KT CAVOK 22/16 A2999 NOSIG=
201909131400 METAR MRPV COR 131400Z 12011KT CAVOK 23/16 A3001 NOSIG=
201909131500 METAR MRPV 131500Z 10013KT CAVOK 25/16 A3002 NOSIG=
201909131600 METAR MRPV 131600Z 10011KT CAVOK 26/14 A3003 NOSIG=
201909131700 METAR MRPV 131700Z 09011KT 9999 FEW030 BKN200 27/15 A3002 NOSIG=
201909131800 METAR MRPV 131800Z 09011KT 9999 FEW040 SCT100 BKN200 26/16 A3001 NOSIG=
201909131900 METAR MRPV 131900Z 09013KT 9999 FEW040 SCT080 BKN200 26/16 A2998 NOSIG=
201909132000 METAR MRPV 132000Z 09012KT 9999 FEW040 SCT100 BKN200 26/17 A2997 NOSIG=
201909132100 METAR MRPV 132100Z 09012KT 9999 FEW030 SCT120 BKN200 24/16 A2997 NOSIG=
201909132200 METAR MRPV 132200Z 11007KT 9999 FEW030 SCT120 BKN200 24/16 A2996 NOSIG=
201909132300 METAR MRPV 132300Z 13005KT CAVOK 23/16 A2997 NOSIG=
201909140000 METAR MRPV 140000Z 28006KT 9999 BCFG SCT010 21/20 A2996 NOSIG=
201909140100 METAR MRPV NIL=
201909140200 METAR MRPV NIL=
201909140300 METAR MRPV NIL=
201909140400 METAR MRPV NIL=
201909140500 METAR MRPV NIL=
201909140600 METAR MRPV NIL=
201909140700 METAR MRPV NIL=
201909140800 METAR MRPV NIL=
201909140900 METAR MRPV NIL=
201909141000 METAR MRPV NIL=
201909141100 METAR MRPV NIL=
201909141200 METAR MRPV 141200Z 10008KT CAVOK 22/15 A3000 NOSIG=
201909141300 METAR MRPV 141300Z 12006KT CAVOK 22/15 A3000 NOSIG=
201909141400 METAR MRPV 141400Z 12003KT CAVOK 23/15 A3002 NOSIG=
201909141500 METAR MRPV 141500Z 30004KT CAVOK 23/18 A3003 NOSIG=
201909141600 METAR MRPV 141600Z 32004KT CAVOK 24/18 A3003 NOSIG=
201909141700 METAR MRPV 141700Z 26005KT CAVOK 24/17 A3002 NOSIG=
201909141800 METAR MRPV 141800Z 29005KT 9999 FEW035 SCT120 BKN160 25/18 A3000 NOSIG=
201909141900 METAR MRPV 141900Z 32003KT 9999 SCT040 SCT100 26/19 A2998 NOSIG=
201909142000 METAR MRPV 142000Z 28008KT 9999 BKN035 24/19 A2997 RERA NOSIG=
201909142100 METAR MRPV 142100Z 27006KT 9999 SCT030 BKN120 25/18 A2997 NOSIG=
201909142200 METAR MRPV 142200Z 29007KT 9999 BCFG FEW010 SCT030 BKN100 23/20 A2998 NOSIG=
201909142300 METAR MRPV 142300Z 30003KT 6000 BCFG SCT010 BKN040 23/20 A2999 NOSIG=
201909150000 METAR MRPV 150000Z 26002KT 5000 BR SCT010 BKN030 22/19 A3001 NOSIG=
201909150100 METAR MRPV NIL=
201909150200 METAR MRPV NIL=
201909150300 METAR MRPV NIL=
201909150400 METAR MRPV NIL=
201909150500 METAR MRPV NIL=
201909150600 METAR MRPV NIL=
201909150700 METAR MRPV NIL=
201909150800 METAR MRPV NIL=
201909150900 METAR MRPV NIL=
201909151000 METAR MRPV NIL=
201909151100 METAR MRPV NIL=
201909151200 METAR MRPV 151200Z 13008KT 9999 FEW040 BKN100 22/17 A2999 NOSIG=
201909151300 METAR MRPV 151300Z 12009KT 9999 FEW030 SCT200 23/18 A3001 NOSIG=
201909151400 METAR MRPV 151400Z 09009KT 9999 FEW040 SCT250 24/18 A3004 NOSIG=
201909151500 METAR MRPV 151500Z 10010KT 9999 FEW040 25/18 A3004 NOSIG=
201909151600 METAR MRPV 151600Z 08011KT 9999 SCT030 SCT090 25/17 A3004 NOSIG=
201909151700 METAR MRPV 151700Z 10007KT 9999 FEW040 BKN090 25/19 A3002 NOSIG=
201909151800 METAR MRPV 151800Z 08006KT 9999 SCT035 BKN100 26/19 A3000 BECMG 30005KT=
201909151900 METAR MRPV 151900Z 31007KT 9999 SCT030 BKN100 25/20 A2996 NOSIG=
201909152000 METAR MRPV 152000Z 36005KT 8000 2000N -TSRA BKN010CB 22/20 A2999 NOSIG=
201909152100 METAR MRPV 152100Z 07004KT 4000 -TSRA SCT015CB BKN090 20/18 A2999 NOSIG=
201909152200 METAR MRPV 152200Z 13003KT 8000 RA FEW035 BKN100 19/18 A2999 NOSIG=
201909152300 METAR MRPV 152300Z 12002KT 9999 -RA FEW005 OVC100 19/18 A3000 NOSIG=
201909160000 METAR MRPV 160000Z 28004KT 010V280 9999 4000N -RA BCFG FEW003 OVC100 20/19 A3002 NOSIG=
201909160100 METAR MRPV NIL=
201909160200 METAR MRPV NIL=
201909160300 METAR MRPV NIL=
201909160400 METAR MRPV NIL=
201909160500 METAR MRPV NIL=
201909160600 METAR MRPV NIL=
201909160700 METAR MRPV NIL=
201909160800 METAR MRPV NIL=
201909160900 METAR MRPV NIL=
201909161000 METAR MRPV NIL=
201909161100 METAR MRPV NIL=
201909161200 METAR MRPV 161200Z 12006KT 9999 FEW040 BKN200 19/16 A3005 NOSIG=
201909161300 METAR MRPV 161300Z 13007KT CAVOK 21/16 A3007 NOSIG=
201909161400 METAR MRPV 161400Z 14004KT CAVOK 21/16 A3009 NOSIG=
201909161500 METAR MRPV 161500Z 12006KT CAVOK 23/16 A3009 NOSIG=
201909161600 METAR MRPV 161600Z 14003KT 9999 FEW045 OVC110 24/16 A3009 NOSIG=
201909161700 METAR MRPV 161700Z 35005KT 9999 FEW045 OVC110 23/18 A3007 NOSIG=
201909161800 METAR MRPV 161800Z 31006KT 9999 FEW040 OVC110 23/18 A3005 NOSIG=
201909161900 METAR MRPV 161900Z 28003KT 9999 BKN020 SCT100 23/18 A3003 NOSIG=
201909162000 METAR MRPV 162000Z 03002KT 9999 SCT045 BKN200 25/18 A3000 NOSIG=
201909162100 METAR MRPV 162100Z 24005KT 9999 -RA SCT045 BKN200 24/19 A3000 NOSIG=
201909162200 METAR MRPV 162200Z 28007KT 9999 FEW020 SCT040 BKN120 22/20 A3000 NOSIG=
201909162300 METAR MRPV 162300Z 30006KT 9999 BCFG SCT010 BKN120 22/20 A3000 NOSIG=
201909170000 METAR MRPV 170000Z 28002KT 9999 BCFG BKN010 21/19 A3001 NOSIG=
201909170100 METAR MRPV NIL=
201909170200 METAR MRPV NIL=
201909170300 METAR MRPV NIL=
201909170400 METAR MRPV NIL=
201909170500 METAR MRPV NIL=
201909170600 METAR MRPV NIL=
201909170700 METAR MRPV NIL=
201909170800 METAR MRPV NIL=
201909170900 METAR MRPV NIL=
201909171000 METAR MRPV NIL=
201909171100 METAR MRPV NIL=
201909171200 METAR MRPV 171200Z 32001KT 0600 FG OVC004 19/19 A3007 NOSIG=
201909171300 METAR MRPV 171300Z 34001KT 5000 BR SCT007 19/19 A3009 NOSIG=
201909171400 METAR MRPV 171400Z 34001KT 9999 VCFG FEW010 23/18 A3010 NOSIG=
201909171500 METAR MRPV 171500Z 01003KT 300V020 9999 FEW035 25/17 A3010 NOSIG=
201909171600 METAR MRPV 171600Z 26005KT 9999 SCT035 25/20 A3010 NOSIG=
201909171700 METAR MRPV 171700Z 09010KT 9999 BKN040 26/17 A3009 NOSIG=
201909171800 METAR MRPV 171800Z 07006KT 9999 SCT040 SCT060 27/18 A3007 NOSIG=
201909171900 METAR MRPV 171900Z 18005KT 270V200 9999 BKN040 26/19 A3002 NOSIG=
201909172000 METAR MRPV 172000Z 26004KT 4000 -RA BR VCTS FEW010 BKN035 23/20 A3002 RESHRA NOSIG=
201909172100 METAR MRPV 172100Z 00000KT 8000 4000NW -RA BCFG VCTS FEW010 SCT030 BKN100 21/19 A3001 NOSIG=
201909172200 METAR MRPV 172200Z 33003KT 3000 -RA BR FEW010 SCT030 BKN060 21/20 A3002 NOSIG=
201909172300 METAR MRPV 172300Z 00000KT 9999 BCFG FEW010 SCT030 BKN100 21/19 A3004 RETSRA NOSIG=
201909180000 METAR MRPV 180000Z 20001KT 9999 BCFG FEW010 SCT030 BKN100 20/19 A3007 NOSIG=
201909180100 METAR MRPV NIL=
201909180200 METAR MRPV NIL=
201909180300 METAR MRPV NIL=
201909180400 METAR MRPV NIL=
201909180500 METAR MRPV NIL=
201909180600 METAR MRPV NIL=
201909180700 METAR MRPV NIL=
201909180800 METAR MRPV NIL=
201909180900 METAR MRPV NIL=
201909181000 METAR MRPV NIL=
201909181100 METAR MRPV NIL=
201909181200 METAR MRPV 181200Z 12008KT 9999 FEW035 BKN220 21/17 A3005 NOSIG=
201909181300 METAR MRPV 181300Z 11010KT 9999 FEW040 BKN220 22/16 A3006 NOSIG=
201909181400 METAR MRPV 181400Z 10013KT 9999 FEW040 BKN220 24/16 A3007 NOSIG=
201909181500 METAR MRPV 181500Z 11011KT CAVOK 25/16 A3007 NOSIG=
201909181600 METAR MRPV 181600Z 09013KT CAVOK 26/16 A3006 NOSIG=
201909181700 METAR MRPV 181700Z 07011KT 9999 FEW045 BKN250 28/17 A3005 NOSIG=
201909181800 METAR MRPV 181800Z 07009KT 9999 FEW045 BKN250 28/17 A3001 NOSIG=
201909181900 METAR MRPV 181900Z 08010KT 9999 FEW045 BKN250 29/17 A2998 NOSIG=
201909182000 METAR MRPV 182000Z 09013KT 9999 SCT040 BKN250 28/18 A2996 NOSIG=
201909182100 METAR MRPV 182100Z 11011KT 9999 SCT035 SCT200 27/17 A2995 NOSIG=
201909182200 METAR MRPV 182200Z 31005KT 9999 SCT035 SCT060 26/21 A2995 NOSIG=
201909182300 METAR MRPV COR 182300Z 01006KT 320V020 3000 -TSRA FEW020CB BKN035 23/21 A2998 NOSIG=
201909190000 METAR MRPV 190000Z 25003KT 9999 -RA SCT035 SCT100 21/20 A3000 NOSIG=
201909190100 METAR MRPV NIL=
201909190200 METAR MRPV NIL=
201909190300 METAR MRPV NIL=
201909190400 METAR MRPV NIL=
201909190500 METAR MRPV NIL=
201909190600 METAR MRPV NIL=
201909190700 METAR MRPV NIL=
201909190800 METAR MRPV NIL=
201909190900 METAR MRPV NIL=
201909191000 METAR MRPV NIL=
201909191100 METAR MRPV NIL=
201909191200 METAR MRPV 191200Z 05002KT 180V040 9999 FEW035 BKN200 17/15 A3003 NOSIG=
201909191300 METAR MRPV 191300Z 03003KT CAVOK 20/15 A3002 NOSIG=
201909191400 METAR MRPV 191400Z 27003KT CAVOK 23/16 A3003 NOSIG=
201909191500 METAR MRPV 191500Z 30005KT CAVOK 24/17 A3003 NOSIG=
201909191600 METAR MRPV 191600Z 29009KT 9999 FEW035 BKN200 25/19 A3003 NOSIG=
201909191700 METAR MRPV 191700Z 28008KT 9999 FEW035 BKN200 25/19 A3001 NOSIG=
201909191800 METAR MRPV 191800Z 28009KT 9999 SCT035 26/19 A2998 NOSIG=
201909191900 METAR MRPV 191900Z 28010KT 9999 SCT035 26/19 A2996 NOSIG=
201909192000 METAR MRPV 192000Z 28010KT 9999 BKN030 26/20 A2993 NOSIG=
201909192100 METAR MRPV 192100Z 30007KT 1500 TSRA BKN015CB 23/20 A2994 NOSIG=
201909192200 METAR MRPV 192200Z 29005KT 4000 TSRA FEW015CB SCT030 OVC100 19/18 A2998 NOSIG=
201909192300 METAR MRPV 192300Z VRB02KT 5000 RA FEW015 SCT100 BKN200 19/18 A2998 NOSIG=
201909200000 METAR MRPV 200000Z 16001KT 5000 BR FEW010 SCT100 19/18 A3000 NOSIG=
201909200100 METAR MRPV NIL=
201909200200 METAR MRPV NIL=
201909200300 METAR MRPV NIL=
201909200400 METAR MRPV NIL=
201909200500 METAR MRPV NIL=
201909200600 METAR MRPV NIL=
201909200700 METAR MRPV NIL=
201909200800 METAR MRPV NIL=
201909200900 METAR MRPV NIL=
201909201000 METAR MRPV NIL=
201909201100 METAR MRPV NIL=
201909201200 METAR MRPV 201200Z 11001KT CAVOK 17/16 A3003 NOSIG=
201909201300 METAR MRPV 201300Z 08004KT CAVOK 20/17 A3005 NOSIG=
201909201400 METAR MRPV 201400Z 07001KT 9999 FEW035 BKN250 23/17 A3005 NOSIG=
201909201500 METAR MRPV 201500Z 24002KT 9999 330V240 FEW035 BKN250 25/17 A3004 NOSIG=
201909201600 METAR MRPV 201600Z 27008KT 9999 SCT035 BKN250 25/18 A3004 NOSIG=
201909201700 METAR MRPV 201700Z 29011KT 9999 SCT035 SCT250 25/18 A3002 NOSIG=
201909201800 METAR MRPV 201800Z 29012KT 9999 SCT035 26/19 A2999 NOSIG=
201909201900 METAR MRPV 201900Z 30012KT 9999 SHRA FEW015TCU SCT040 26/20 A2997 NOSIG=
201909202000 METAR MRPV 202000Z 26008KT 9999 SHRA FEW020TCU SCT030 SCT200 25/19 A2995 NOSIG=
201909202100 METAR MRPV 202100Z 02007KT 3000 TSRA BKN015CB 20/18 A2996 NOSIG=
201909202200 METAR MRPV 202200Z 23002KT 4000 TSRA SCT015CB SCT100 18/18 A2997 NOSIG=
201909202300 METAR MRPV 202300Z 34002KT 4000 -TSRA FEW015CB SCT020 SCT100 19/18 A3000 NOSIG=
201909210000 METAR MRPV 210000Z 03008KT 5000 RA BKN020 SCT100 19/19 A3002 RETSRA NOSIG=
201909210100 METAR MRPV NIL=
201909210200 METAR MRPV NIL=
201909210300 METAR MRPV NIL=
201909210400 METAR MRPV NIL=
201909210500 METAR MRPV NIL=
201909210600 METAR MRPV NIL=
201909210700 METAR MRPV NIL=
201909210800 METAR MRPV NIL=
201909210900 METAR MRPV NIL=
201909211000 METAR MRPV NIL=
201909211100 METAR MRPV NIL=
201909211200 METAR MRPV 211200Z COR 00000KT 9999 BCFG FEW003 BKN100 19/18 A3006 NOSIG=
201909211300 METAR MRPV 211300Z 35001KT 9999 FEW015 BKN100 20/19 A3009 NOSIG=
201909211400 METAR MRPV 211400Z 32004KT 9999 FEW020 BKN100 21/18 A3011 NOSIG=
201909211500 METAR MRPV 211500Z 30004KT 9999 FEW020 BKN100 22/19 A3011 NOSIG=
201909211600 METAR MRPV 211600Z 29007KT 9999 SCT020 24/18 A3010 NOSIG=
201909211700 METAR MRPV 211700Z 30007KT 9999 SCT030 BKN100 24/18 A3007 NOSIG=
201909211800 METAR MRPV 211800Z 29008KT 9999 SCT025 BKN100 25/19 A3004 NOSIG=
201909211900 METAR MRPV 211900Z 28004KT 9999 RA SCT020 BKN100 24/18 A3002 NOSIG=
201909212000 METAR MRPV 212000Z 17002KT 5000 RA BR FEW015 BKN100 21/20 A3001 NOSIG=
201909212100 METAR MRPV 212100Z 08003KT 9999 FEW015 OVC100 23/19 A3000 RERA NOSIG=
201909212200 METAR MRPV 212200Z 28004KT 9999 3000SW RA FEW020 OVC100 21/19 A3001 NOSIG=
201909212300 METAR MRPV 212300Z 29003KT 5000 -RA BR SCT010 OVC100 20/19 A3003 NOSIG=
201909220000 METAR MRPV 220000Z 31003KT 4500 -RA BR OVC010 20/19 A3006 NOSIG=
201909220100 METAR MRPV NIL=
201909220200 METAR MRPV NIL=
201909220300 METAR MRPV NIL=
201909220400 METAR MRPV NIL=
201909220500 METAR MRPV NIL=
201909220600 METAR MRPV NIL=
201909220700 METAR MRPV NIL=
201909220800 METAR MRPV NIL=
201909220900 METAR MRPV NIL=
201909221000 METAR MRPV NIL=
201909221100 METAR MRPV NIL=
201909221200 METAR MRPV 221200Z 09002KT 9999 FEW010 BKN120 18/17 A3007 NOSIG=
201909221300 METAR MRPV 221300Z 13002KT CAVOK 20/18 A3009 NOSIG=
201909221400 METAR MRPV 221400Z 00000KT CAVOK 23/17 A3009 NOSIG=
201909221500 METAR MRPV 221500Z 29004KT 9999 FEW035 SCT100 25/17 A3010 NOSIG=
201909221600 METAR MRPV 221600Z 29008KT 9999 FEW040 SCT100 25/19 A3009 NOSIG=
201909221700 METAR MRPV 221700Z 29010KT 9999 SCT035 25/19 A3008 NOSIG=
201909221800 METAR MRPV 221800Z 29012KT 9999 VCSH FEW015TCU SCT035 25/19 A3004 NOSIG=
201909221900 METAR MRPV 221900Z 24004KT 9999 RA SCT020 BKN090 23/20 A3004 NOSIG=
201909222000 METAR MRPV 222000Z 07004KT 9999 RA SCT010 BKN040 20/18 A3003 NOSIG=
201909222100 METAR MRPV 222100Z 08005KT 9999 FEW010 OVC080 21/19 A3002 RERA NOSIG=
201909222200 METAR MRPV 222200Z 21002KT 9999 FEW010 OVC100 22/18 A3002 NOSIG=
201909222300 METAR MRPV 222300Z 26002KT 9999 FEW010 BKN100 21/18 A3002 NOSIG=
201909230000 METAR MRPV 230000Z 31004KT 9999 BCFG FEW010 OVC100 21/20 A3007 NOSIG=
201909230100 METAR MRPV NIL=
201909230200 METAR MRPV NIL=
201909230300 METAR MRPV NIL=
201909230400 METAR MRPV NIL=
201909230500 METAR MRPV NIL=
201909230600 METAR MRPV NIL=
201909230700 METAR MRPV NIL=
201909230800 METAR MRPV NIL=
201909230900 METAR MRPV NIL=
201909231000 METAR MRPV NIL=
201909231100 METAR MRPV NIL=
201909231200 METAR MRPV 231200Z 09003KT CAVOK 18/17 A3006 NOSIG=
201909231300 METAR MRPV 231300Z 29003KT CAVOK 19/18 A3008 NOSIG=
201909231400 METAR MRPV 231400Z 01001KT CAVOK 22/18 A3009 NOSIG=
201909231500 METAR MRPV 231500Z 26004KT 9999 FEW040 24/19 A3010 NOSIG=
201909231600 METAR MRPV 231600Z 30009KT 9999 FEW040 24/18 A3011 NOSIG=
201909231700 METAR MRPV 231700Z 29009KT 9999 FEW035 SCT080 24/19 A3009 NOSIG=
201909231800 METAR MRPV 231800Z 29009KT 9999 FEW030 BKN090 25/19 A3007 NOSIG=
201909231900 METAR MRPV COR 231900Z 30009KT 9999 SCT030 BKN100 24/20 A3005 RETSRA NOSIG=
201909232000 METAR MRPV COR 232000Z 30010KT 8000 -TSRA FEW020CB SCT025 BKN100 23/17 A3002 NOSIG=
201909232100 METAR MRPV 232100Z 29008KT 8000 -TSRA BCFG SCT010 FEW020CB BKN100 22/20 A3003 NOSIG=
201909232200 METAR MRPV 232200Z 27004KT 4000 -RA BR SCT010 BKN040 20/19 A3004 NOSIG=
201909232300 METAR MRPV 232300Z 28003KT 4000 -RA BR SCT010 BKN080 20/19 A3006 NOSIG=
201909240000 METAR MRPV 240000Z 29001KT 4000 +RA BR SCT010 BKN080 20/19 A3009 NOSIG=
201909240100 METAR MRPV NIL=
201909240200 METAR MRPV NIL=
201909240300 METAR MRPV NIL=
201909240400 METAR MRPV NIL=
201909240500 METAR MRPV NIL=
201909240600 METAR MRPV NIL=
201909240700 METAR MRPV NIL=
201909240800 METAR MRPV NIL=
201909240900 METAR MRPV NIL=
201909241000 METAR MRPV NIL=
201909241100 METAR MRPV NIL=
201909241200 METAR MRPV 241200Z 06003KT CAVOK 17/15 A3006 NOSIG=
201909241300 METAR MRPV 241300Z 07002KT CAVOK 20/16 A3007 NOSIG=
201909241400 METAR MRPV 241400Z 26005KT 9999 FEW015 21/18 A3009 NOSIG=
201909241500 METAR MRPV 241500Z 30008KT 9999 FEW020 23/18 A3010 NOSIG=
201909241600 METAR MRPV 241600Z 29008KT 9999 FEW035 24/18 A3010 NOSIG=
201909241700 METAR MRPV 241700Z 28010KT 9999 FEW030 25/20 A3008 NOSIG=
201909241800 METAR MRPV 241800Z 28013KT 9999 SCT040 26/20 A3005 NOSIG=
201909241900 METAR MRPV 241900Z 29011KT 8000 -TSRA FEW020CB SCT030 26/19 A3003 NOSIG=
201909242000 METAR MRPV 242000Z 29011KT 9000 SCT025 BKN100 24/20 A3002 RESHRA NOSIG=
201909242100 METAR MRPV 242100Z 29010KT 5000 SCT010 BKN025 23/20 A3001 NOSIG=
201909242200 METAR MRPV 242200Z 27007KT 9999 FEW010 SCT030 BKN100 22/19 A3002 NOSIG=
201909242300 METAR MRPV 242300Z 31005KT 9999 BCFG FEW010 SCT030 BKN100 21/19 A3002 NOSIG=
201909250000 METAR MRPV 250000Z 34002KT 5000 BCFG SCT010 BKN030 21/19 A3004 NOSIG=
201909250100 METAR MRPV NIL=
201909250200 METAR MRPV NIL=
201909250300 METAR MRPV NIL=
201909250400 METAR MRPV NIL=
201909250500 METAR MRPV NIL=
201909250600 METAR MRPV NIL=
201909250700 METAR MRPV NIL=
201909250800 METAR MRPV NIL=
201909250900 METAR MRPV NIL=
201909251000 METAR MRPV NIL=
201909251100 METAR MRPV NIL=
201909251200 METAR MRPV COR 251200Z 22001KT BCFG 9999 3000NW FEW015 SCT200 18/17 A3005 NOSIG=
201909251300 METAR MRPV COR 251300Z 26004KT 3000 BR BKN005 SCT010 20/18 A3009 NOSIG=
201909251400 METAR MRPV 251400Z 31007KT 2000 BR BKN005 SCT010 20/19 A3012 NOSIG=
201909251500 METAR MRPV 251500Z 32005KT 3500 BR BKN015 SCT025 21/19 A3013 NOSIG=
201909251600 METAR MRPV 251600Z 30007KT 5000 BR SCT015 SCT035 23/19 A3013 NOSIG=
201909251623 METAR MRPV 251623Z 29012KT 1500 BR BKN005 SCT015 22/19 A3013 NOSIG=
201909251628 METAR MRPV 251628Z 28014KT 0200 FG OVC001 21/19 A3013 NOSIG=
201909251700 METAR MRPV COR 251700Z 28012KT 2500 RA BR BKN005 SCT020 19/18 A3014 NOSIG=
201909251800 METAR MRPV 251800Z 28007KT 2500 RA BR SCT005 BKN015 19/18 A3012 NOSIG=
201909251900 METAR MRPV 251900Z 29007KT 3000 -RA BR BKN007 20/19 A3010 NOSIG=
201909252000 METAR MRPV 252000Z 26001KT 9999 BCFG SCT015 SCT120 21/18 A3004 NOSIG=
201909252100 METAR MRPV 252100Z 12003KT 9999 FEW015 SCT100 24/18 A3001 NOSIG=
201909252200 METAR MRPV 252200Z 16004KT 9999 FEW025 BKN100 23/18 A3000 NOSIG=
201909252300 METAR MRPV 252300Z 15003KT CAVOK 22/18 A2999 NOSIG=
201909260000 METAR MRPV 260000Z 26003KT CAVOK 21/19 A3001 NOSIG=
201909260100 METAR MRPV NIL=
201909260200 METAR MRPV NIL=
201909260300 METAR MRPV NIL=
201909260400 METAR MRPV NIL=
201909260500 METAR MRPV NIL=
201909260600 METAR MRPV NIL=
201909260700 METAR MRPV NIL=
201909260800 METAR MRPV NIL=
201909260900 METAR MRPV NIL=
201909261000 METAR MRPV NIL=
201909261100 METAR MRPV NIL=
201909261200 METAR MRPV 261200Z 00000KT CAVOK 16/15 A3005 NOSIG=
201909261300 METAR MRPV 261300Z 10003KT CAVOK 19/16 A3005 NOSIG=
201909261400 METAR MRPV 261400Z 31002KT 040V310 9999 FEW035 BKN200 22/16 A3007 NOSIG=
201909261500 METAR MRPV 261500Z 35003KT 9999 FEW035 BKN200 23/17 A3007 NOSIG=
201909261600 METAR MRPV 261600Z 30006KT 9999 FEW040 BKN200 24/18 A3006 NOSIG=
201909261700 METAR MRPV 261700Z 28007KT 9999 FEW035 SCT200 25/19 A3004 NOSIG=
201909261800 METAR MRPV 261800Z 27009KT 9999 SCT030 SCT200 25/18 A3001 NOSIG=
201909261900 METAR MRPV 261900Z 29013KT 9999 SCT035 SCT250 25/19 A2999 NOSIG=
201909262000 METAR MRPV 262000Z 28012KT 9999 FEW020TCU FEW035 24/19 A2997 NOSIG=
201909262100 METAR MRPV 262100Z 30012KT 9999 SCT015 24/20 A2995 NOSIG=
201909262200 METAR MRPV 262200Z 28010KT 9999 DZ BKN008 22/20 A2995 NOSIG=
201909262300 METAR MRPV 262300Z COR 30010KT 3000 RA BR OVC004 20/19 A2998 REDZ NOSIG=
201909270000 METAR MRPV 270000Z COR 28011KT 3000 RA BR OVC004 19/18 A3001 REDZ NOSIG=
201909270100 METAR MRPV NIL=
201909270200 METAR MRPV NIL=
201909270300 METAR MRPV NIL=
201909270400 METAR MRPV NIL=
201909270500 METAR MRPV NIL=
201909270600 METAR MRPV NIL=
201909270700 METAR MRPV NIL=
201909270800 METAR MRPV NIL=
201909270900 METAR MRPV NIL=
201909271000 METAR MRPV NIL=
201909271100 METAR MRPV NIL=
201909271200 METAR MRPV 271200Z 10002KT CAVOK 17/17 A3002 NOSIG=
201909271300 METAR MRPV 271300Z 10005KT CAVOK 20/18 A3003 NOSIG=
201909271400 METAR MRPV 271400Z 10005KT CAVOK 24/17 A3005 NOSIG=
201909271500 METAR MRPV 271500Z 14003KT 9999 FEW040 SCT200 26/17 A3005 NOSIG=
201909271600 METAR MRPV 271600Z 28011KT 9999 FEW040 SCT200 25/18 A3006 NOSIG=
201909271700 METAR MRPV 271700Z 30009KT 9999 FEW040 BKN200 25/19 A3004 NOSIG=
201909271800 METAR MRPV 271800Z 28012KT 9999 BKN035 25/20 A3002 NOSIG=
201909271900 METAR MRPV 271900Z 27008KT 9999 4000S +DZ FEW030 BNK060 23/19 A3000 NOSIG=
201909272000 METAR MRPV 272000Z 30005KT 9999 FEW020 BKN100 21/19 A2999 REDZ NOSIG=
201909272100 METAR MRPV 272100Z 30008KT 9999 FEW010 SCT030 BKN100 22/19 A2998 NOSIG=
201909272200 METAR MRPV 272200Z 29009KT 3000 BR BKN004 21/20 A2999 NOSIG=
201909272300 METAR MRPV 272300Z 28006KT 3000 BR OVC004 20/19 A3001 NOSIG=
201909280000 METAR MRPV 280000Z 29006KT 3000 RA BR OVC004 20/19 A3003 NOSIG=
201909280100 METAR MRPV NIL=
201909280200 METAR MRPV NIL=
201909280300 METAR MRPV NIL=
201909280400 METAR MRPV NIL=
201909280500 METAR MRPV NIL=
201909280600 METAR MRPV NIL=
201909280700 METAR MRPV NIL=
201909280800 METAR MRPV NIL=
201909280900 METAR MRPV NIL=
201909281000 METAR MRPV NIL=
201909281100 METAR MRPV NIL=
201909281200 METAR MRPV 281200Z 08002KT 9999 FEW040 SCT100 BKN200 18/18 A3006 NOSIG=
201909281300 METAR MRPV 281300Z 33002KT CAVOK 19/18 A3009 NOSIG=
201909281400 METAR MRPV 281400Z 10002KT CAVOK 21/18 A3010 NOSIG=
201909281500 METAR MRPV 281500Z 14003KT 9999 FEW035 OVC200 24/18 A3010 NOSIG=
201909281600 METAR MRPV 281600Z 09010KT 9999 FEW040 OVC200 25/18 A3010 NOSIG=
201909281700 METAR MRPV 281700Z 09003KT 9999 SCT040 BKN200 26/17 A3008 BECMG 30006KT=
201909281800 METAR MRPV 281800Z 27010KT 9999 FEW020CB SCT040 BKN200 24/20 A3006 NOSIG=
201909281900 METAR MRPV 281900Z 30008KT 9999 VCTS FEW015CB SCT040 BKN100 21/19 A3003 RERA NOSIG=
201909282000 METAR MRPV 282000Z 31006KT 6000 -TSRA BCFG SCT010CB BKN080 20/19 A3003 TEMPO BKN010=
201909282100 METAR MRPV 282100Z VRB01KT 1000 -TSRA BR OVC005CB 20/19 A3005 NOSIG=
201909282200 METAR MRPV 282200Z 34002KT 8000 3500E RA BCFG VCTS FEW004 SCT010CB BKN040 20/19 A3007 RETS NOSIG=
201909282300 METAR MRPV 282300Z 12002KT 9999 RA SCT020 BKN100 19/18 A3006 NOSIG=
201909290000 METAR MRPV 290000Z 11005KT 9999 RA FEW010 OVC100 19/18 A3007 NOSIG=
201909290100 METAR MRPV NIL=
201909290200 METAR MRPV NIL=
201909290300 METAR MRPV NIL=
201909290400 METAR MRPV NIL=
201909290500 METAR MRPV NIL=
201909290600 METAR MRPV NIL=
201909290700 METAR MRPV NIL=
201909290800 METAR MRPV NIL=
201909290900 METAR MRPV NIL=
201909291000 METAR MRPV NIL=
201909291100 METAR MRPV NIL=
201909291200 METAR MRPV 291200Z 12007KT CAVOK 20/17 A3004 NOSIG=
201909291300 METAR MRPV 291300Z 13008KT CAVOK 22/17 A3005 NOSIG=
201909291400 METAR MRPV 291400Z 10015KT 9999 FEW035 BKN220 23/18 A3008 NOSIG=
201909291500 METAR MRPV 291500Z 09011KT 9999 FEW045 BKN220 24/18 A3008 NOSIG=
201909291600 METAR MRPV 291600Z 07012KT 9999 FEW040 SCT220 26/18 A3008 NOSIG=
201909291700 METAR MRPV 291700Z 08010KT 9999 FEW045 SCT200 26/18 A3006 NOSIG=
201909291800 METAR MRPV 291800Z 08010KT 9999 FEW040 SCT200 27/18 A3003 NOSIG=
201909291900 METAR MRPV 291900Z 09012KT 9999 FEW040 BKN200 28/18 A3001 NOSIG=
201909292000 METAR MRPV 292000Z 08013KT 9999 FEW035 BKN200 28/18 A2998 NOSIG=
201909292100 METAR MRPV 292100Z 07009KT 9999 FEW035 BKN200 28/17 A2996 NOSIG=
201909292200 METAR MRPV 292200Z 05008KT 9999 SCT035 BKN200 26/17 A2997 NOSIG=
201909292300 METAR MRPV 292300Z 27005KT 9999 3500W BCFG FEW010 SCT035 23/21 A2999 NOSIG=
201909300000 METAR MRPV 300000Z 27002KT 9999 3500NW BCFG FEW010 SCT035 BKN160 22/21 A3001 NOSIG=
201909300100 METAR MRPV NIL=
201909300200 METAR MRPV NIL=
201909300300 METAR MRPV NIL=
201909300400 METAR MRPV NIL=
201909300500 METAR MRPV NIL=
201909300600 METAR MRPV NIL=
201909300700 METAR MRPV NIL=
201909300800 METAR MRPV NIL=
201909300900 METAR MRPV NIL=
201909301000 METAR MRPV NIL=
201909301100 METAR MRPV NIL=
201909301200 METAR MRPV 301200Z 14006KT CAVOK 20/16 A3002 NOSIG=
201909301300 METAR MRPV 301300Z 13008KT CAVOK 21/16 A3003 NOSIG=
201909301400 METAR MRPV 301400Z 13008KT CAVOK 22/15 A3005 NOSIG=
201909301500 METAR MRPV 301500Z 09012KT CAVOK 22/16 A3007 NOSIG=
201909301600 METAR MRPV 301600Z 08008KT CAVOK 24/16 A3004 NOSIG=
201909301700 METAR MRPV 301700Z 08009KT CAVOK 25/16 A3002 NOSIG=
201909301800 METAR MRPV 301800Z 14007KT CAVOK 26/14 A2998 NOSIG=
201909301900 METAR MRPV 301900Z 10008KT CAVOK 26/15 A2997 NOSIG=
201909302000 METAR MRPV 302000Z 09011KT CAVOK 25/15 A2995 NOSIG=
201909302100 METAR MRPV 302100Z 31005KT 9999 BCFG FEW010 SCT035 BKN160 23/19 A2995 NOSIG=
201909302200 METAR MRPV 302200Z 29004KT 9999 BCFG FEW015 BKN160 23/19 A2995 NOSIG=
201909302300 METAR MRPV 302300Z 16002KT 9999 BCFG FEW010 SCT120 BKN160 22/18 A2995 NOSIG=
201910010000 METAR MRPV 010000Z 29006KT 8000 BCFG FEW010 SCT120 BKN200 21/19 A2996 NOSIG=
201910010100 METAR MRPV NIL=
201910010200 METAR MRPV NIL=
201910010300 METAR MRPV NIL=
201910010400 METAR MRPV NIL=
201910010500 METAR MRPV NIL=
201910010600 METAR MRPV NIL=
201910010700 METAR MRPV NIL=
201910010800 METAR MRPV NIL=
201910010900 METAR MRPV NIL=
201910011000 METAR MRPV NIL=
201910011100 METAR MRPV NIL=
201910011200 METAR MRPV 011200Z VRB02KT 9999 FEW030 SCT120 16/15 A2999 NOSIG=
201910011300 METAR MRPV 011300Z 09003KT CAVOK 19/16 A3000 NOSIG=
201910011400 METAR MRPV 011400Z 10003KT 9999 FEW030 SCT120 21/16 A3001 NOSIG=
201910011500 METAR MRPV 011500Z VRB02KT 9999 FEW035 BKN140 23/17 A3002 NOSIG=
201910011600 METAR MRPV 011600Z 30006KT 9000 FEW030 BKN130 23/17 A3002 NOSIG=
201910011700 METAR MRPV 011700Z 29010KT 9000 FEW030 BKN130 24/18 A3001 NOSIG=
201910011800 METAR MRPV 011800Z 29009KT 8000 FEW030 BKN120 23/18 A2999 NOSIG=
201910011900 METAR MRPV 011900Z 29007KT 8000 FEW025 BKN120 24/18 A2996 NOSIG=
201910012000 METAR MRPV 012000Z 30010KT 8000 FEW025 BKN120 23/18 A2992 NOSIG=
201910012100 METAR MRPV 012100Z 28011KT 7000 SCT015 BKN100 22/19 A2992 NOSIG=
201910012200 METAR MRPV 012200Z COR 28010KT 4500 RA BR OVC008 21/19 A2993 NOSIG=
201910012300 METAR MRPV 012300Z 31007KT 4000 RA BR SCT010 OVC100 20/19 A2994 NOSIG=
201910020000 METAR MRPV 020000Z 31005KT 5000 RA BR SCT010 OVC100 19/18 A2997 NOSIG=
201910020100 METAR MRPV NIL=
201910020200 METAR MRPV NIL=
201910020300 METAR MRPV NIL=
201910020400 METAR MRPV NIL=
201910020500 METAR MRPV NIL=
201910020600 METAR MRPV NIL=
201910020700 METAR MRPV NIL=
201910020800 METAR MRPV NIL=
201910020900 METAR MRPV NIL=
201910021000 METAR MRPV NIL=
201910021100 METAR MRPV NIL=
201910021200 METAR MRPV 021200Z 00000KT 9999 FEW035 BKN120 18/17 A2999 NOSIG=
201910021300 METAR MRPV 021300Z 06002KT 9999 FEW025 SCT160 BKN200 20/17 A3001 NOSIG=
201910021400 METAR MRPV 021400Z 00000KT 9999 FEW030 SCT140 BKN200 23/17 A3002 NOSIG=
201910021500 METAR MRPV 021500Z 33002KT 020V100 9999 FEW030 SCT140 BKN200 23/17 A3003 NOSIG=
201910021600 METAR MRPV 021600Z 29007KT 9999 FEW030 BKN180 24/19 A3003 NOSIG=
201910021700 METAR MRPV 021700Z 29009KT 9999 SCT030 BKN140 24/19 A3002 NOSIG=
201910021800 METAR MRPV 021800Z 28012KT 9999 SCT030 SCT120 23/19 A3000 NOSIG=
201910021900 METAR MRPV 021900Z 30009KT 9999 SCT020 BKN100 23/19 A2998 REDZ NOSIG=
201910022000 METAR MRPV 022000Z 30012KT 9999 4000SE DZ BKN015 22/19 A2996 NOSIG=
201910022100 METAR MRPV 022100Z 30010KT 9999 SCT010 BKN030 21/19 A2997 REDZ NOSIG=
201910022200 METAR MRPV 022200Z 31008KT 9999 SCT015 BKN100 22/18 A2997 NOSIG=
201910022300 METAR MRPV 022300Z 30007KT 9999 BKN020 21/18 A2997 NOSIG=
201910030000 METAR MRPV 030000Z 28008KT 9999 BKN020 21/18 A3001 NOSIG=
201910030100 METAR MRPV NIL=
201910030200 METAR MRPV NIL=
201910030300 METAR MRPV NIL=
201910030400 METAR MRPV NIL=
201910030500 METAR MRPV NIL=
201910030600 METAR MRPV NIL=
201910030700 METAR MRPV NIL=
201910030800 METAR MRPV NIL=
201910030900 METAR MRPV NIL=
201910031000 METAR MRPV NIL=
201910031100 METAR MRPV NIL=
201910031200 METAR MRPV 031200Z 12002KT CAVOK 18/16 A3004 NOSIG=
201910031300 METAR MRPV 031300Z 10004KT CAVOK 20/17 A3005 NOSIG=
201910031400 METAR MRPV 031400Z 12006KT CAVOK 23/17 A3006 NOSIG=
201910031500 METAR MRPV 031500Z 29005KT 060V310 9999 FEW040 BKN200 24/19 A3008 NOSIG=
201910031600 METAR MRPV 031600Z 29007KT 9999 FEW040 SCT100 BKN200 24/19 A3007 NOSIG=
201910031700 METAR MRPV 031700Z COR 31005KT 9999 -RA FEW040 SCT080 BKN200 23/19 A3005 NOSIG=
201910031800 METAR MRPV 031800Z 28005KT 9999 FEW035 SCT080 BKN200 25/19 A3004 NOSIG=
201910031900 METAR MRPV 031900Z 28005KT 9999 BKN030 25/20 A3000 NOSIG=
201910032000 METAR MRPV 032000Z 26007KT 3000 SHRA BKN020TCU 22/20 A3000 NOSIG=
201910032100 METAR MRPV 032100Z 29004KT 020V290 9999 BCFG FEW002 SCT035 BKN140 21/19 A3000 RETSRA NOSIG=
201910032200 METAR MRPV 032200Z 31010KT 4000 BR BKN005 20/19 A3003 NOSIG=
201910032300 METAR MRPV 032300Z 31005KT 5000 BR BKN008 20/19 A3005 RERA NOSIG=
201910040000 METAR MRPV 040000Z 28001KT 9999 BCFG BKN013 20/19 A3007 NOSIG=
201910040100 METAR MRPV NIL=
201910040200 METAR MRPV NIL=
201910040300 METAR MRPV NIL=
201910040400 METAR MRPV NIL=
201910040500 METAR MRPV NIL=
201910040600 METAR MRPV NIL=
201910040700 METAR MRPV NIL=
201910040800 METAR MRPV NIL=
201910040900 METAR MRPV NIL=
201910041000 METAR MRPV NIL=
201910041100 METAR MRPV NIL=
201910041200 METAR MRPV 041200Z 34002KT 9999 FEW035 SCT120 17/16 A3010 NOSIG=
201910041300 METAR MRPV 041300Z VRB01KT 9999 FEW030 19/17 A3011 NOSIG=
201910041400 METAR MRPV 041400Z 12004KT 9999 FEW030 22/17 A3011 NOSIG=
201910041500 METAR MRPV 041500Z COR 12005KT 9999 FEW045 SCT200 25/17 A3011 NOSIG=
201910041600 METAR MRPV 041600Z 07006KT 9999 FEW045 26/17 A3009 BECMG 28005KT=
201910041700 METAR MRPV 041700Z 27006KT 9999 SCT045 26/20 A3006 NOSIG=
201910041800 METAR MRPV 041800Z 28010KT 9999 SCT035 26/20 A3004 NOSIG=
201910041900 METAR MRPV 041900Z 27009KT 9999 SCT035 26/21 A3002 NOSIG=
201910042000 METAR MRPV 042000Z 28012KT 9999 FEW020TCU SCT035 25/21 A3000 TEMPO SHRA=
201910042100 METAR MRPV 042100Z 28012KT 5000 RA BR VCTS FEW003 OVC008CB 22/20 A3000 NOSIG=
201910042200 METAR MRPV 042200Z 28005KT 8000 3000N -TSRA BCFG FEW004 SCT010CB BKN035 21/20 A3002 NOSIG=
201910042300 METAR MRPV 042300Z 08003KT 3000 TSRA FEW010CB OVC100 20/19 A3004 NOSIG=
201910050000 METAR MRPV COR 050000Z 14003KT 7000 RA FEW020 OVC100 19/18 A3006 RETS NOSIG=
201910050100 METAR MRPV NIL=
201910050200 METAR MRPV NIL=
201910050300 METAR MRPV NIL=
201910050400 METAR MRPV NIL=
201910050500 METAR MRPV NIL=
201910050600 METAR MRPV NIL=
201910050700 METAR MRPV NIL=
201910050800 METAR MRPV NIL=
201910050900 METAR MRPV NIL=
201910051000 METAR MRPV NIL=
201910051100 METAR MRPV NIL=
201910051200 METAR MRPV 051200Z 10007KT CAVOK 19/17 A3003 NOSIG=
201910051300 METAR MRPV 051300Z 13008KT CAVOK 22/17 A3003 NOSIG=
201910051400 METAR MRPV 051400Z 12009KT CAVOK 24/17 A3007 NOSIG=
201910051500 METAR MRPV 051500Z 10008KT 9999 FEW035 BKN200 25/17 A3008 NOSIG=
201910051600 METAR MRPV 051600Z 31007KT 9999 SCT040 BKN200 24/19 A3008 NOSIG=
201910051700 METAR MRPV 051700Z 29007KT 9999 SCT035 BKN200 25/19 A3006 NOSIG=
201910051800 METAR MRPV 051800Z 28007KT 9999 RA BKN025 23/20 A3003 NOSIG=
201910051900 METAR MRPV 051900Z 30011KT 9999 RA BKN015TCU FEW080 24/19 A3000 TEMPO SHRA=
201910052000 METAR MRPV 052000Z 19003KT 3000 RA BKN015 20/19 A3000 RESHRA NOSIG=
201910052100 METAR MRPV 052100Z 18001KT 9999 -RA FEW002 SCT030 BKN100 20/19 A3000 NOSIG=
201910052200 METAR MRPV 052200Z 10002KT 5000 RA FEW015 BKN100 19/18 A3001 NOSIG=
201910052300 METAR MRPV 052300Z 09002KT 5000 RA FEW010 BKN100 20/19 A3001 NOSIG=
201910060000 METAR MRPV 060000Z 33003KT 8000 -DZ FEW010 BKN100 20/19 A3003 RERA NOSIG=
201910060100 METAR MRPV NIL=
201910060200 METAR MRPV NIL=
201910060300 METAR MRPV NIL=
201910060400 METAR MRPV NIL=
201910060500 METAR MRPV NIL=
201910060600 METAR MRPV NIL=
201910060700 METAR MRPV NIL=
201910060800 METAR MRPV NIL=
201910060900 METAR MRPV NIL=
201910061000 METAR MRPV NIL=
201910061100 METAR MRPV NIL=
201910061200 METAR MRPV 061200Z 13005KT CAVOK 18/15 A3000 NOSIG=
201910061300 METAR MRPV 061300Z 13008KT CAVOK 21/16 A3001 NOSIG=
201910061400 METAR MRPV 061400Z 23003KT CAVOK 23/18 A3004 NOSIG=
201910061500 METAR MRPV 061500Z 31009KT 9999 FEW020 SCT200 21/18 A3007 NOSIG=
201910061600 METAR MRPV 061600Z 29005KT 9999 SCT025 23/19 A3005 NOSIG=
201910061700 METAR MRPV 061700Z 30007KT 9999 SCT025 24/19 A3003 NOSIG=
201910061800 METAR MRPV 061800Z 27008KT 9999 BKN030 24/19 A3000 NOSIG=
201910061900 METAR MRPV 061900Z 29011KT 9999 SCT035 SCT220 25/18 A2997 NOSIG=
201910062000 METAR MRPV 062000Z 28011KT 9999 -TSRA SCT025CB BKN100 24/18 A2995 NOSIG=
201910062100 METAR MRPV 062100Z 06005KT 9999 RA SCT025 BKN100 22/19 A2996 RETSRA NOSIG=
201910062200 METAR MRPV 062200Z 12005KT 9999 FEW010 SCT090 BKN120 21/18 A2996 RERA NOSIG=
201910062300 METAR MRPV 062300Z 06003KT 9999 FEW010 SCT090 BKN120 21/18 A2999 NOSIG=
201910070000 METAR MRPV 070000Z 00000KT CAVOK 21/19 A2999 NOSIG=
201910070100 METAR MRPV NIL=
201910070200 METAR MRPV NIL=
201910070300 METAR MRPV NIL=
201910070400 METAR MRPV NIL=
201910070500 METAR MRPV NIL=
201910070600 METAR MRPV NIL=
201910070700 METAR MRPV NIL=
201910070800 METAR MRPV NIL=
201910070900 METAR MRPV NIL=
201910071000 METAR MRPV NIL=
201910071100 METAR MRPV NIL=
201910071200 METAR MRPV COR 071200Z VRB02KT CAVOK 17/16 A3001 NOSIG=
201910071300 METAR MRPV 071300Z 10001KT CAVOK 21/17 A3002 NOSIG=
201910071400 METAR MRPV 071400Z 32002KT 9999 FEW040 BKN200 23/17 A3003 NOSIG=
201910071500 METAR MRPV 071500Z 16004KT CAVOK 26/17 A3002 NOSIG=
201910071600 METAR MRPV 071600Z 27003KT CAVOK 26/19 A3001 NOSIG=
201910071700 METAR MRPV 071700Z 30008KT 9999 SCT040 SCT200 26/19 A2999 NOSIG=
201910071800 METAR MRPV 071800Z 28011KT 9999 SCT035 26/20 A2996 NOSIG=
201910071900 METAR MRPV 071900Z 29016KT 9000 4000SE TSRA SCT015CB SCT030 25/20 A2993 TEMPO 4000 BKN015CB=
201910072000 METAR MRPV 072000Z 32004KT 9000 2000W RA VCTS SCT010CB SCT020 20/20 A2994 RETSRA TEMPO BCFG BKN010=
201910072100 METAR MRPV 072100Z 29009KT 5000 -RA BCFG BKN010 21/20 A2994 NOSIG=
201910072200 METAR MRPV 072200Z 31006KT 5000 -RA BCFG BKN008 21/20 A2997 NOSIG=
201910072300 METAR MRPV 072300Z COR 31005KT 8000 3000NW RA BCFG BKN010 20/19 A2996 NOSIG=
201910080000 METAR MRPV 080000Z COR 31005KT 8000 BCFG SCT010 20/18 A2998 RERA NOSIG=
201910080100 METAR MRPV NIL=
201910080200 METAR MRPV NIL=
201910080300 METAR MRPV NIL=
201910080400 METAR MRPV NIL=
201910080500 METAR MRPV NIL=
201910080600 METAR MRPV NIL=
201910080700 METAR MRPV NIL=
201910080800 METAR MRPV NIL=
201910080900 METAR MRPV NIL=
201910081000 METAR MRPV NIL=
201910081100 METAR MRPV NIL=
201910081200 METAR MRPV 081200Z 07002KT 9999 FEW030 BKN120 19/18 A3000 NOSIG=
201910081300 METAR MRPV 081300Z 07004KT 9999 BCFG FEW010 SCT120 BKN200 22/19 A3002 NOSIG=
201910081400 METAR MRPV 081400Z 11006KT 9999 FEW035 SCT120 BKN200 22/18 A3004 NOSIG=
201910081500 METAR MRPV 081500Z 10008KT 9999 FEW035 SCT140 25/18 A3003 NOSIG=
201910081600 METAR MRPV 081600Z 29008KT 160V270 9999 FEW035 BKN180 24/19 A3003 NOSIG=
201910081700 METAR MRPV 081700Z 29006KT 9999 FEW040 SCT080 BKN180 25/20 A2999 NOSIG=
201910081800 METAR MRPV 081800Z 28008KT 9999 FEW030 SCT060 BKN180 25/19 A2997 NOSIG=
201910081900 METAR MRPV 081900Z 28009KT 9999 FEW010TCU SCT035 25/20 A2995 TEMPO TSRA FEW010CB=
201910082000 METAR MRPV 082000Z 29014KT 9999 4000SW RA FEW010 BKN025 24/19 A2993 NOSIG=
201910082100 METAR MRPV 082100Z 29011KT 9999 4000SW RA SCT010 BKN025 22/19 A2994 TEMPO BKN010=
201910082200 METAR MRPV 082200Z 29010KT 6000 -RA BCFG BKN003 21/19 A2995 BECMG OVC003=
201910082300 METAR MRPV 082300Z 33003KT 5000 BCFG BKN010 20/19 A2998 BECMG BKN030=
201910090000 METAR MRPV 090000Z 27001KT 9999 BCFG FEW010 BKN100 20/19 A2999 NOSIG=
201910090100 METAR MRPV NIL=
201910090200 METAR MRPV NIL=
201910090300 METAR MRPV NIL=
201910090400 METAR MRPV NIL=
201910090500 METAR MRPV NIL=
201910090600 METAR MRPV NIL=
201910090700 METAR MRPV NIL=
201910090800 METAR MRPV NIL=
201910090900 METAR MRPV NIL=
201910091000 METAR MRPV NIL=
201910091100 METAR MRPV NIL=
201910091200 METAR MRPV 091200Z 13005KT CAVOK 20/16 A2999 NOSIG=
201910091300 METAR MRPV 091300Z 13007KT CAVOK 21/16 A3003 NOSIG=
201910091400 METAR MRPV 091400Z 11006KT 9999 FEW030 BKN200 24/16 A3004 NOSIG=
201910091500 METAR MRPV 091500Z 29007KT 9999 FEW035 BKN200 24/18 A3003 NOSIG=
201910091600 METAR MRPV 091600Z 30008KT 9999 FEW035 BKN220 24/19 A3003 NOSIG=
201910091700 METAR MRPV 091700Z 29008KT 9999 BKN035 SCT200 25/19 A3001 NOSIG=
201910091800 METAR MRPV 091800Z 18003KT 240V160 9999 3500W -TSRA SCT020CB BKN045 21/20 A3000 NOSIG=
201910091900 METAR MRPV 091900Z 13003KT 5000 RA SCT025 BKN100 21/19 A2998 NOSIG=
201910092000 METAR MRPV 092000Z 12004KT 9999 FEW030 BKN100 23/18 A2995 NOSIG=
201910092100 METAR MRPV 092100Z 14006KT 9999 FEW035 SCT080 BKN200 23/18 A2993 NOSIG=
201910092200 METAR MRPV 092200Z 08003KT 9999 FEW025 BKN100 23/18 A2993 NOSIG=
201910092300 METAR MRPV 092300Z 11003KT 9999 FEW015 BKN100 21/19 A2995 NOSIG=
201910100000 METAR MRPV 100000Z 16003KT 9999 FEW040 OVC100 20/18 A2997 NOSIG=
201910100100 METAR MRPV NIL=
201910100200 METAR MRPV NIL=
201910100300 METAR MRPV NIL=
201910100400 METAR MRPV NIL=
201910100500 METAR MRPV NIL=
201910100600 METAR MRPV NIL=
201910100700 METAR MRPV NIL=
201910100800 METAR MRPV NIL=
201910100900 METAR MRPV NIL=
201910101000 METAR MRPV NIL=
201910101100 METAR MRPV NIL=
201910101200 METAR MRPV 101200Z 13006KT 9999 FEW030 SCT200 20/17 A2998 NOSIG=
201910101300 METAR MRPV 101300Z 15007KT CAVOK 22/17 A2997 NOSIG=
201910101400 METAR MRPV 101400Z 10010KT CAVOK 24/17 A2998 NOSIG=
201910101500 METAR MRPV 101500Z 10008KT 9999 FEW045 SCT200 27/17 A3000 NOSIG=
201910101600 METAR MRPV 101600Z 09009KT 9999 FEW040 SCT200 27/17 A3000 NOSIG=
201910101700 METAR MRPV 101700Z 27008KT 9999 SCT045 26/20 A2996 NOSIG=
201910101800 METAR MRPV 101800Z 33009KT 9999 3000N TSRA SCT015CB BKN030 25/19 A2996 TEMPO 3000=
201910101900 METAR MRPV 101900Z 19003KT 9999 -RA SCT025 BKN100 20/18 A2993 RETS NOSIG=
201910102000 METAR MRPV 102000Z 15001KT 9999 FEW035 BKN080 21/19 A2991 NOSIG=
201910102100 METAR MRPV 102100Z 29006KT 9999 VCFG FEW020 BKN040 22/19 A2991 NOSIG=
201910102200 METAR MRPV 102200Z 32004KT 9999 FEW015 SCT030 BKN100 20/18 A2992 NOSIG=
201910102300 METAR MRPV 102300Z 17001KT 9999 -RA FEW010 BKN100 20/18 A2993 NOSIG=
201910110000 METAR MRPV 110000Z 17001KT 9999 -RA FEW010 BKN040 20/19 A2996 NOSIG=
201910110100 METAR MRPV NIL=
201910110200 METAR MRPV NIL=
201910110300 METAR MRPV NIL=
201910110400 METAR MRPV NIL=
201910110500 METAR MRPV NIL=
201910110600 METAR MRPV NIL=
201910110700 METAR MRPV NIL=
201910110800 METAR MRPV NIL=
201910110900 METAR MRPV NIL=
201910111000 METAR MRPV NIL=
201910111100 METAR MRPV NIL=
201910111200 METAR MRPV 111200Z VRB02KT CAVOK 17/16 A2994 NOSIG=
201910111300 METAR MRPV 111300Z 06001KT CAVOK 20/16 A2997 NOSIG=
201910111400 METAR MRPV 111400Z 28001KT 9999 FEW025 SCT220 22/17 A2999 NOSIG=
201910111500 METAR MRPV 111500Z 33002KT 9999 FEW030 BKN160 24/17 A3001 NOSIG=
201910111600 METAR MRPV 111600Z 03003KT 330V040 9999 SCT035 BKN200 25/17 A2999 NOSIG=
201910111700 METAR MRPV 111700Z 28006KT 9999 SCT030 BKN200 26/18 A2996 NOSIG=
201910111800 METAR MRPV 111800Z 25004KT 9999 -RA BKN030 SCT110 24/19 A2993 NOSIG=
201910111900 METAR MRPV 111900Z 20005KT 8000 -RA FEW030 SCT100 22/18 A2993 NOSIG=
201910112000 METAR MRPV 112000Z 11004KT 4000 -RA SCT025 BKN100 20/18 A2992 NOSIG=
201910112100 METAR MRPV COR 112100Z 13003KT 9999 -RA BCFG FEW020 SCT060 BKN100 20/18 A2992 NOSIG=
201910112200 METAR MRPV COR 112200Z 20001KT 9999 BCFG FEW020 BKN120 21/19 A2992 NOSIG=
201910112300 METAR MRPV 112300Z 27002KT 9999 4000SW BCFG FEW015 SCT045 BKN100 21/19 A2993 NOSIG=
201910120000 METAR MRPV 120000Z 26002KT 9999 4000S BCFG FEW015 SCT045 BKN100 20/19 A2996 NOSIG=
201910120100 METAR MRPV NIL=
201910120200 METAR MRPV NIL=
201910120300 METAR MRPV NIL=
201910120400 METAR MRPV NIL=
201910120500 METAR MRPV NIL=
201910120600 METAR MRPV NIL=
201910120700 METAR MRPV NIL=
201910120800 METAR MRPV NIL=
201910120900 METAR MRPV NIL=
201910121000 METAR MRPV NIL=
201910121100 METAR MRPV NIL=
201910121200 METAR MRPV 121200Z 11002KT CAVOK 17/16 A2997 NOSIG=
201910121300 METAR MRPV 121300Z 11004KT 9999 FEW020 BKN200 20/16 A2998 NOSIG=
201910121400 METAR MRPV 121400Z 32002KT 9999 FEW025 BKN110 22/17 A2999 NOSIG=
201910121500 METAR MRPV 121500Z 29003KT 9999 FEW015 BKN060 22/18 A3000 NOSIG=
201910121600 METAR MRPV 121600Z 27004KT 9999 SCT030 BKN100 23/18 A2999 NOSIG=
201910121700 METAR MRPV 121700Z 29008KT 9999 SCT030 BKN100 23/19 A2998 NOSIG=
201910121800 METAR MRPV 121800Z 28008KT 9999 SCT030 BKN100 23/18 A2995 NOSIG=
201910121900 METAR MRPV COR 121900Z 28010KT DZ 9999 SCT025 SCT080 23/20 A2993 NOSIG=
201910122000 METAR MRPV 122000Z 30010KT 9999 SCT025 SCT120 23/19 A2991 NOSIG=
201910122100 METAR MRPV 122100Z 29009KT 9999 FEW015 SCT025 BKN120 22/19 A2990 NOSIG=
201910122200 METAR MRPV 122200Z 30007KT 5000 DZ SCT010 BKN025 21/19 A2991 NOSIG=
201910122300 METAR MRPV 122300Z 31005KT 3000 PRFG BKN008 20/19 A2993 NOSIG=
201910130000 METAR MRPV 130000Z 30005KT 4000 BR BKN010 20/19 A2995 NOSIG=
201910130100 METAR MRPV NIL=
201910130200 METAR MRPV NIL=
201910130300 METAR MRPV NIL=
201910130400 METAR MRPV NIL=
201910130500 METAR MRPV NIL=
201910130600 METAR MRPV NIL=
201910130700 METAR MRPV NIL=
201910130800 METAR MRPV NIL=
201910130900 METAR MRPV NIL=
201910131000 METAR MRPV NIL=
201910131100 METAR MRPV NIL=
201910131200 METAR MRPV 131200Z 00000KT 9999 FEW040 BKN140 19/18 A2998 NOSIG=
201910131300 METAR MRPV 131300Z VRB02KT 9999 FEW020 BKN120 20/18 A3001 NOSIG=
201910131400 METAR MRPV 131400Z 00000KT 9999 FEW025 BKN120 21/18 A3003 NOSIG=
201910131500 METAR MRPV 131500Z VRB02KT 9999 FEW025 BKN120 22/18 A3004 NOSIG=
201910131600 METAR MRPV 131600Z 33002KT 9999 FEW025 BKN140 24/18 A3003 NOSIG=
201910131700 METAR MRPV 131700Z 33002KT 9999 SCT030 BKN100 25/18 A3001 NOSIG=
201910131800 METAR MRPV 131800Z 28009KT 9999 -RA SCT030 SCT100 23/19 A2999 NOSIG=
201910131900 METAR MRPV 131900Z 32006KT 9999 FEW015 SCT030 BKN100 22/20 A2997 NOSIG=
201910132000 METAR MRPV 132000Z 31004KT 9999 FEW020 SCT035 BKN100 24/19 A2995 NOSIG=
201910132100 METAR MRPV 132100Z 29011KT 9999 FEW020 SCT035 BKN120 23/19 A2994 NOSIG=
201910132200 METAR MRPV 132200Z 31010KT 9999 FEW020 SCT080 BKN120 22/19 A2994 NOSIG=
201910132300 METAR MRPV 132300Z 30007KT 9999 BKN015 21/18 A2997 NOSIG=
201910140000 METAR MRPV 140000Z 29006KT 9999 BKN015 20/18 A2998 NOSIG=
201910140100 METAR MRPV NIL=
201910140200 METAR MRPV NIL=
201910140300 METAR MRPV NIL=
201910140400 METAR MRPV NIL=
201910140500 METAR MRPV NIL=
201910140600 METAR MRPV NIL=
201910140700 METAR MRPV NIL=
201910140800 METAR MRPV NIL=
201910140900 METAR MRPV NIL=
201910141000 METAR MRPV NIL=
201910141100 METAR MRPV NIL=
201910141200 METAR MRPV 141200Z 18001KT 9999 FEW025 BKN120 18/18 A3002 NOSIG=
201910141300 METAR MRPV 141300Z 00000KT 9999 FEW015 OVC120 19/18 A3003 NOSIG=
201910141400 METAR MRPV 141400Z 02001KT 9999 FEW015 BKN120 20/18 A3005 NOSIG=
201910141500 METAR MRPV 141500Z 05002KT 9999 FEW025 BKN120 23/18 A3006 NOSIG=
201910141600 METAR MRPV 141600Z 29008KT 9999 SCT025 BKN140 23/18 A3005 NOSIG=
201910141700 METAR MRPV 141700Z 29009KT 9999 SCT025 23/19 A3003 NOSIG=
201910141800 METAR MRPV 141800Z 28009KT 9999 SCT025 SCT140 24/19 A3001 NOSIG=
201910141900 METAR MRPV 141900Z 28007KT 9999 SCT025 BKN100 23/19 A2998 NOSIG=
201910142000 METAR MRPV 142000Z 29010KT 9999 -DZ FEW010 SCT020 BKN100 22/20 A2997 NOSIG=
201910142100 METAR MRPV 142100Z 29012KT 3000 RA BR BKN004 20/19 A2997 NOSIG=
201910142200 METAR MRPV 142200Z 31008KT 3000 RA BR BKN004 19/19 A3000 NOSIG=
201910142300 METAR MRPV 142300Z 31004KT 4000 RA BR BKN004 19/19 A3001 NOSIG=
201910150000 METAR MRPV 150000Z 34001KT 5000 RA BKN004 19/18 A3004 NOSIG=
201910150100 METAR MRPV NIL=
201910150200 METAR MRPV NIL=
201910150300 METAR MRPV NIL=
201910150400 METAR MRPV NIL=
201910150500 METAR MRPV NIL=
201910150600 METAR MRPV NIL=
201910150700 METAR MRPV NIL=
201910150800 METAR MRPV NIL=
201910150900 METAR MRPV NIL=
201910151000 METAR MRPV NIL=
201910151100 METAR MRPV NIL=
201910151200 METAR MRPV 151200Z 11003KT 9999 RA NSC 18/17 A3007 NOSIG=
201910151300 METAR MRPV 151300Z 10005KT CAVOK 19/17 A3007 RERA NOSIG=
201910151400 METAR MRPV 151400Z 13007KT CAVOK 22/17 A3008 NOSIG=
201910151500 METAR MRPV 151500Z 12007KT CAVOK 24/17 A3010 NOSIG=
201910151600 METAR MRPV 151600Z 08008KT 9999 FEW045 OVC120 25/17 A3009 NOSIG=
201910151700 METAR MRPV 151700Z 30009KT 9999 FEW010 BKN040 22/19 A3010 NOSIG=
201910151800 METAR MRPV 151800Z 29004KT 9999 SCT025 BKN120 22/19 A3007 NOSIG=
201910151900 METAR MRPV 151900Z 29005KT 9999 FEW015 OVC120 22/19 A3004 NOSIG=
201910152000 METAR MRPV 152000Z 28002KT 9999 FEW030 OVC120 23/19 A3002 NOSIG=
201910152100 METAR MRPV 152100Z 10011KT 9999 FEW035 OVC120 24/17 A3001 NOSIG=
201910152200 METAR MRPV 152200Z 09008KT 9999 FEW035 OVC120 23/17 A3000 NOSIG=
201910152300 METAR MRPV 152300Z 09007KT 9999 FEW010 OVC120 22/17 A3001 NOSIG=
201910160000 METAR MRPV 160000Z 12005KT 9999 BCFG FEW008 BKN100 22/17 A3003 NOSIG=
201910160100 METAR MRPV NIL=
201910160200 METAR MRPV NIL=
201910160300 METAR MRPV NIL=
201910160400 METAR MRPV NIL=
201910160500 METAR MRPV NIL=
201910160600 METAR MRPV NIL=
201910160700 METAR MRPV NIL=
201910160800 METAR MRPV NIL=
201910160900 METAR MRPV NIL=
201910161000 METAR MRPV NIL=
201910161100 METAR MRPV NIL=
201910161200 METAR MRPV 161200Z 11003KT CAVOK 17/15 A3004 NOSIG=
201910161300 METAR MRPV 161300Z 12006KT CAVOK 21/15 A3005 NOSIG=
201910161400 METAR MRPV 161400Z 12007KT CAVOK 23/15 A3007 NOSIG=
201910161500 METAR MRPV 161500Z 10013KT CAVOK 25/17 A3009 NOSIG=
201910161600 METAR MRPV 161600Z 10010KT CAVOK 26/16 A3008 NOSIG=
201910161700 METAR MRPV 161700Z 09010KT 9999 FEW045 27/18 A3007 NOSIG=
201910161800 METAR MRPV 161800Z 06011KT 9999 SCT040 27/17 A3005 NOSIG=
201910161900 METAR MRPV 161900Z 07009KT 9999 FEW035 SCT070 26/17 A3003 NOSIG=
201910162000 METAR MRPV 162000Z 06007KT 9999 SCT040 SCT080 27/16 A3001 NOSIG=
201910162100 METAR MRPV 162100Z 28010KT 9999 VCFG FEW007 BKN040 23/20 A3001 NOSIG=
201910162200 METAR MRPV COR 162200Z 29008KT 9999 VCFG FEW007 SCT010 23/20 A3001 TEMPO BKN010=
201910162211 METAR MRPV 162211Z 29008KT 9999 4000W VCFG FEW007 BKN015 22/20 A3001 TEMPO BKN010=
201910162233 METAR MRPV 162233Z 27005KT 7000 BCFG FEW005 BKN010 21/20 A3002 NOSIG=
201910162300 METAR MRPV 162300Z 27004KT 5000 BR FEW005 BKN010 21/20 A3003 NOSIG=
201910162324 METAR MRPV 162324Z 29005KT 4500 -RA FU FEW005 SCT010 BKN035 21/20 A3003 NOSIG=
201910170000 METAR MRPV 170000Z 31003KT 5000 BR FEW005 SCT010 BKN025 21/19 A3004 NOSIG=
201910170100 METAR MRPV NIL=
201910170200 METAR MRPV NIL=
201910170300 METAR MRPV NIL=
201910170400 METAR MRPV NIL=
201910170500 METAR MRPV NIL=
201910170600 METAR MRPV NIL=
201910170700 METAR MRPV NIL=
201910170800 METAR MRPV NIL=
201910170900 METAR MRPV NIL=
201910171000 METAR MRPV NIL=
201910171100 METAR MRPV NIL=
201910171200 METAR MRPV 171200Z 15005KT CAVOK 19/15 A3006 NOSIG=
201910171300 METAR MRPV 171300Z 16005KT CAVOK 21/16 A3007 NOSIG=
201910171400 METAR MRPV 171400Z 14007KT CAVOK 24/16 A3009 NOSIG=
201910171500 METAR MRPV 171500Z 09010KT CAVOK 25/16 A3010 NOSIG=
201910171600 METAR MRPV 171600Z 06007KT CAVOK 26/16 A3009 NOSIG=
201910171700 METAR MRPV 171700Z 02003KT 9999 SCT045 27/16 A3006 NOSIG=
201910171800 METAR MRPV 171800Z 34005KT 9999 SCT045 27/18 A3004 NOSIG=
201910171900 METAR MRPV 171900Z 28008KT 9999 SCT040 25/20 A3001 NOSIG=
201910172000 METAR MRPV 172000Z 28008KT 9999 DZ BKN035 25/20 A2999 NOSIG=
201910172100 METAR MRPV 172100Z 22003KT 9999 BCFG VCTS FEW004 FEW025CB SCT035 20/19 A2999 NOSIG=
201910172200 METAR MRPV 172200Z 34003KT 9999 FEW035 BKN100 20/18 A3000 NOSIG=
201910172300 METAR MRPV 172300Z 00000KT 9999 SCT035 BKN100 20/18 A3001 NOSIG=
201910180000 METAR MRPV 180000Z VRB01KT 9999 FEW010 BKN030 20/19 A3003 NOSIG=
201910180100 METAR MRPV NIL=
201910180200 METAR MRPV NIL=
201910180300 METAR MRPV NIL=
201910180400 METAR MRPV NIL=
201910180500 METAR MRPV NIL=
201910180600 METAR MRPV NIL=
201910180700 METAR MRPV NIL=
201910180800 METAR MRPV NIL=
201910180900 METAR MRPV NIL=
201910181000 METAR MRPV NIL=
201910181100 METAR MRPV NIL=
201910181200 METAR MRPV 181200Z 13006KT CAVOK 19/15 A3005 NOSIG=
201910181300 METAR MRPV 181300Z 16005KT CAVOK 21/16 A3006 NOSIG=
201910181400 METAR MRPV 181400Z 13007KT CAVOK 23/16 A3006 NOSIG=
201910181500 METAR MRPV 181500Z 11009KT CAVOK 25/16 A3006 NOSIG=
201910181600 METAR MRPV 181600Z 08008KT 9999 FEW045 26/16 A3005 NOSIG=
201910181700 METAR MRPV 181700Z 08005KT 9999 SCT045 26/16 A3003 NOSIG=
201910181800 METAR MRPV 181800Z 28006KT 9999 SCT045 SCT090 24/20 A3001 NOSIG=
201910181900 METAR MRPV 181900Z 26004KT 9999 3000N -TSRA FEW020CB SCT035 SCT060 26/20 A2999 NOSIG=
201910182000 METAR MRPV 182000Z 31001KT 5000 RA VCTS SCT025 BKN080 20/18 A2999 RETSRA NOSIG=
201910182100 METAR MRPV 182100Z 19002KT 9999 SCT030 BKN100 21/19 A2998 RERA NOSIG=
201910182200 METAR MRPV 182200Z 28003KT 9999 BCFG FEW010 BKN035 21/19 A2999 NOSIG=
201910182300 METAR MRPV 182300Z VRB02KT 3000 -RA BR SCT010 SCT030 20/19 A3002 NOSIG=
201910190000 METAR MRPV 190000Z 12002KT 5000 -RA BCFG FEW010 BKN035 19/18 A3001 NOSIG=
201910190100 METAR MRPV NIL=
201910190200 METAR MRPV NIL=
201910190300 METAR MRPV NIL=
201910190400 METAR MRPV NIL=
201910190500 METAR MRPV NIL=
201910190600 METAR MRPV NIL=
201910190700 METAR MRPV NIL=
201910190800 METAR MRPV NIL=
201910190900 METAR MRPV NIL=
201910191000 METAR MRPV NIL=
201910191100 METAR MRPV NIL=
201910191200 METAR MRPV 191200Z 10002KT CAVOK 18/16 A3001 NOSIG=
201910191300 METAR MRPV 191300Z 10003KT CAVOK 20/16 A3003 NOSIG=
201910191400 METAR MRPV 191400Z 30002KT 090V360 CAVOK 23/16 A3005 NOSIG=
201910191500 METAR MRPV 191500Z 29008KT 9999 FEW035 24/18 A3006 NOSIG=
201910191600 METAR MRPV 191600Z 28005KT 9999 FEW035 SCT100 23/18 A3005 NOSIG=
201910191700 METAR MRPV COR 191700Z 31005KT 9999 SCT035 25/18 A3003 NOSIG=
201910191800 METAR MRPV 191800Z 30005KT 9999 SCT030 SCT080 26/18 A3000 NOSIG=
201910191900 METAR MRPV 191900Z 27006KT 9999 BKN040 25/19 A2997 NOSIG=
201910192000 METAR MRPV 192000Z 29010KT 9999 SCT020TCU FEW030 25/20 A2995 NOSIG=
201910192100 METAR MRPV 192100Z 29009KT 9999 2000SE RA BKN030 24/19 A2994 NOSIG=
201910192200 METAR MRPV 192200Z 22004KT 9999 RA SCT010 BKN120 22/20 A2995 TEMPO BKN015=
201910192300 METAR MRPV 192300Z 30006KT 4000 BCFG SCT010 BKN030 21/20 A2996 NOSIG=
201910200000 METAR MRPV 200000Z 26002KT 5000 RA OVC025 20/19 A2999 NOSIG=
201910200100 METAR MRPV NIL=
201910200200 METAR MRPV NIL=
201910200300 METAR MRPV NIL=
201910200400 METAR MRPV NIL=
201910200500 METAR MRPV NIL=
201910200600 METAR MRPV NIL=
201910200700 METAR MRPV NIL=
201910200800 METAR MRPV NIL=
201910200900 METAR MRPV NIL=
201910201000 METAR MRPV NIL=
201910201100 METAR MRPV NIL=
201910201200 METAR MRPV 201200Z 07003KT 9999 FEW040 SCT200 16/15 A3005 NOSIG=
201910201300 METAR MRPV 201300Z 08004KT 9999 FEW020 SCT200 19/16 A3006 NOSIG=
201910201400 METAR MRPV 201400Z 07001KT 9999 FEW025 SCT200 22/16 A3006 NOSIG=
201910201500 METAR MRPV 201500Z 36002KT 9999 FEW035 SCT200 24/17 A3006 NOSIG=
201910201600 METAR MRPV 201600Z 28007KT 9999 SCT035 SCT200 24/18 A3006 NOSIG=
201910201700 METAR MRPV COR 201700Z 29010KT 9999 SCT035 BKN200 24/18 A3004 NOSIG=
201910201800 METAR MRPV COR 201800Z 29011KT 9999 SCT025 BKN100 24/18 A3002 NOSIG=
201910201900 METAR MRPV 201900Z 27006KT 9999 FEW020 SCT035 25/19 A2999 NOSIG=
201910202000 METAR MRPV 202000Z 30007KT 9999 4500E RA BKN040 23/19 A2998 NOSIG=
201910202100 METAR MRPV 202100Z 33005KT 9999 -RA SCT025 BKN080 22/19 A2997 NOSIG=
201910202200 METAR MRPV 202200Z 32005KT 4000 +RA BKN015 20/19 A2999 NOSIG=
201910202300 METAR MRPV 202300Z 33003KT 3000 +RA OVC007 19/19 A3002 NOSIG=
201910210000 METAR MRPV 210000Z 02002KT 4500 +RA OVC020 19/19 A3004 NOSIG=
201910210100 METAR MRPV NIL=
201910210200 METAR MRPV NIL=
201910210300 METAR MRPV NIL=
201910210400 METAR MRPV NIL=
201910210500 METAR MRPV NIL=
201910210600 METAR MRPV NIL=
201910210700 METAR MRPV NIL=
201910210800 METAR MRPV NIL=
201910210900 METAR MRPV NIL=
201910211000 METAR MRPV NIL=
201910211100 METAR MRPV NIL=
201910211200 METAR MRPV 211200Z 00000KT 9999 4000W BCFG FEW005 SCT010 BKN100 18/17 A3007 NOSIG=
201910211300 METAR MRPV 211300Z 15002KT 9999 FEW010 BKN100 19/18 A3009 NOSIG=
201910211400 METAR MRPV 211400Z 03001KT 9999 FEW010 BKN100 20/17 A3010 BECMG 30005KT=
201910211500 METAR MRPV 211500Z 29001KT 9999 FEW020 BKN120 22/17 A3011 NOSIG=
201910211600 METAR MRPV 211600Z 28004KT 9999 SCT020 BKN120 23/18 A3012 NOSIG=
201910211700 METAR MRPV 211700Z 28008KT 9999 SCT025 BKN120 23/19 A3011 NOSIG=
201910211800 METAR MRPV 211800Z 29013KT 9999 FEW010 SCT025 BKN120 23/19 A3007 NOSIG=
201910211900 METAR MRPV 211900Z 28010KT 9999 FEW010 SCT025 BKN120 22/19 A3005 NOSIG=
201910212000 METAR MRPV 212000Z 30010KT 9999 FEW010 BKN120 22/19 A3002 NOSIG=
201910212100 METAR MRPV 212100Z 28009KT 9999 FEW025 BKN040 23/18 A3001 NOSIG=
201910212200 METAR MRPV 212200Z 29009KT 9999 FEW025 SCT040 BKN120 22/17 A3003 NOSIG=
201910212300 METAR MRPV 212300Z 27003KT 9999 FEW015 BKN120 21/19 A3004 NOSIG=
201910220000 METAR MRPV 220000Z 29002KT 9999 FEW020 20/18 A3006 NOSIG=
201910220100 METAR MRPV NIL=
201910220200 METAR MRPV NIL=
201910220300 METAR MRPV NIL=
201910220400 METAR MRPV NIL=
201910220500 METAR MRPV NIL=
201910220600 METAR MRPV NIL=
201910220700 METAR MRPV NIL=
201910220800 METAR MRPV NIL=
201910220900 METAR MRPV NIL=
201910221000 METAR MRPV NIL=
201910221100 METAR MRPV NIL=
201910221200 METAR MRPV 221200Z 09003KT CAVOK 18/16 A3006 NOSIG=
201910221300 METAR MRPV 221300Z VRB02KT CAVOK 20/16 A3008 NOSIG=
201910221400 METAR MRPV 221400Z 35002KT CAVOK 23/17 A3008 NOSIG=
201910221500 METAR MRPV 221500Z 29005KT CAVOK 24/17 A3009 NOSIG=
201910221600 METAR MRPV 221600Z 28007KT CAVOK 24/18 A3008 NOSIG=
201910221700 METAR MRPV 221700Z 28008KT 9999 FEW045 25/19 A3007 NOSIG=
201910221800 METAR MRPV 221800Z 28008KT 9999 FEW045 25/19 A3003 NOSIG=
201910221852 METAR MRPV 221852Z 30011KT 9999 TSRA SCT025CB BKN090 24/19 A3002 NOSIG=
201910221900 METAR MRPV 221900Z 30010KT 9999 TSRA SCT025CB BKN090 24/19 A3002 NOSIG=
201910222000 METAR MRPV 222000Z 28006KT 9999 VCTS FEW010 SCT020CB BKN060 22/20 A3000 RETSRA NOSIG=
201910222100 METAR MRPV 222100Z 25003KT 9999 FEW010 SCT030 BKN180 22/19 A2998 NOSIG=
201910222200 METAR MRPV 222200Z 27003KT 9999 -RA FEW010 BKN025 22/19 A3000 NOSIG=
201910222300 METAR MRPV 222300Z 35002KT 9999 -RA SCT010 SCT040 21/20 A3001 NOSIG=
201910230000 METAR MRPV 230000Z 13001KT 9999 BCFG FEW010 BKN040 21/18 A3001 NOSIG=
201910230100 METAR MRPV NIL=
201910230200 METAR MRPV NIL=
201910230300 METAR MRPV NIL=
201910230400 METAR MRPV NIL=
201910230500 METAR MRPV NIL=
201910230600 METAR MRPV NIL=
201910230700 METAR MRPV NIL=
201910230800 METAR MRPV NIL=
201910230900 METAR MRPV NIL=
201910231000 METAR MRPV NIL=
201910231100 METAR MRPV NIL=
201910231200 METAR MRPV 231200Z 14006KT 9999 FEW035 BKN140 19/15 A2999 NOSIG=
201910231300 METAR MRPV 231300Z 14007KT 9999 FEW040 BKN200 20/16 A3000 NOSIG=
201910231400 METAR MRPV 231400Z 11008KT CAVOK 23/16 A3002 NOSIG=
201910231500 METAR MRPV 231500Z 08010KT CAVOK 24/17 A3003 NOSIG=
201910231600 METAR MRPV 231600Z 07011KT 9999 FEW045 SCT100 BKN200 24/17 A3003 NOSIG=
201910231700 METAR MRPV 231700Z 07008KT 9999 -DZ FEW035 BKN100 25/17 A3001 NOSIG=
201910231800 METAR MRPV 231800Z 05007KT 9999 DZ FEW030 OVC100 22/17 A2999 NOSIG=
201910231900 METAR MRPV 231900Z 27001KT 9999 FEW030 BKN100 24/18 A2995 REDZ NOSIG=
201910232000 METAR MRPV 232000Z 29008KT 9999 FEW025 BKN120 25/20 A2993 NOSIG=
201910232100 METAR MRPV 232100Z 28007KT 9999 FEW030 BKN100 23/20 A2992 NOSIG=
201910232200 METAR MRPV 232200Z 26005KT 8000 BCFG FEW010 SCT025 BKN100 22/20 A2992 NOSIG=
201910232300 METAR MRPV 232300Z 32004KT 4000 DZ BR SCT010 BKN025 21/20 A2995 NOSIG=
201910240000 METAR MRPV 240000Z 31003KT 4000 BR SCT010 BKN025 21/19 A2997 REDZ NOSIG=
201910240100 METAR MRPV NIL=
201910240200 METAR MRPV NIL=
201910240300 METAR MRPV NIL=
201910240400 METAR MRPV NIL=
201910240500 METAR MRPV NIL=
201910240600 METAR MRPV NIL=
201910240700 METAR MRPV NIL=
201910240800 METAR MRPV NIL=
201910240900 METAR MRPV NIL=
201910241000 METAR MRPV NIL=
201910241100 METAR MRPV NIL=
201910241200 METAR MRPV 241200Z 15002KT CAVOK 18/16 A2998 NOSIG=
201910241300 METAR MRPV 241300Z 16002KT CAVOK 21/17 A3000 NOSIG=
201910241400 METAR MRPV 241400Z 13006KT CAVOK 24/17 A3001 NOSIG=
201910241500 METAR MRPV 241500Z 06004G14KT 9999 FEW040 BKN200 25/18 A3003 NOSIG=
201910241600 METAR MRPV COR 241600Z 07005KT 9999 FEW040 SCT120 25/17 A3001 NOSIG=
201910241700 METAR MRPV 241700Z 09002KT 110V040 9999 SCT035 SCT100 26/17 A2998 BECMG 32004KT=
201910241800 METAR MRPV 241800Z 29009KT 9999 4000NW SHRA FEW020TCU SCT030 SCT100 25/20 A2995 NOSIG=
201910241900 METAR MRPV 241900Z 29012KT 5000 -RA FEW010 SCT025 BKN100 21/20 A2994 RETS NOSIG=
201910242000 METAR MRPV 242000Z 30008KT 9999 BCFG FEW010 SCT030 BKN100 21/20 A2992 NOSIG=
201910242100 METAR MRPV 242100Z 31007KT 9999 FEW015 SCT035 BKN200 21/19 A2990 NOSIG=
201910242200 METAR MRPV 242200Z 30008KT 9999 BKN015 21/19 A2992 TEMPO BKN010=
201910242300 METAR MRPV 242300Z 36004KT 8000 -RA VCFG BKN010 20/19 A2996 NOSIG=
201910250000 METAR MRPV 250000Z 00000KT 5000 RA BR FEW005 BKN015 20/19 A2999 NOSIG=
201910250100 METAR MRPV NIL=
201910250200 METAR MRPV NIL=
201910250300 METAR MRPV NIL=
201910250400 METAR MRPV NIL=
201910250500 METAR MRPV NIL=
201910250600 METAR MRPV NIL=
201910250700 METAR MRPV NIL=
201910250800 METAR MRPV NIL=
201910250900 METAR MRPV NIL=
201910251000 METAR MRPV NIL=
201910251100 METAR MRPV NIL=
201910251200 METAR MRPV COR 251200Z 13001KT 9999 FEW045 BKN200 18/17 A3002 NOSIG=
201910251300 METAR MRPV 251300Z 10005KT CAVOK 20/17 A3002 NOSIG=
201910251400 METAR MRPV 251400Z 08004KT CAVOK 23/17 A3002 NOSIG=
201910251500 METAR MRPV 251500Z 33004KT 050V350 9999 FEW045 BKN180 25/17 A3004 NOSIG=
201910251600 METAR MRPV 251600Z 28008KT 9999 FEW035 SCT140 25/19 A3002 NOSIG=
201910251700 METAR MRPV 251700Z 29011KT 9999 FEW0020TCU SCT030 25/19 A2999 NOSIG=
201910251800 METAR MRPV 251800Z 29011KT 9999 SCT020TCU SCT030 23/19 A2998 RESHRA NOSIG=
201910251900 METAR MRPV 251900Z 28008KT 9999 SCT025 BKN090 23/19 A2996 NOSIG=
201910252000 METAR MRPV 252000Z 29007KT 9999 SHRA FEW020TCU SCT020 BKN100 23/19 A2994 NOSIG=
201910252100 METAR MRPV 252100Z 29005KT 9999 RA BKN020 SCT100 22/19 A2994 RESHRA NOSIG=
201910252200 METAR MRPV 252200Z 13001KT 5000 FEW008 BKN015 20/18 A2995 TEMPO 9999=
201910252300 METAR MRPV 252300Z 18002KT 5000 RA BKN014 19/18 A2998 NOSIG=
201910260000 METAR MRPV 260000Z 00000KT 5000 RA BKN010 19/19 A3000 NOSIG=
201910260100 METAR MRPV NIL=
201910260200 METAR MRPV NIL=
201910260300 METAR MRPV NIL=
201910260400 METAR MRPV NIL=
201910260500 METAR MRPV NIL=
201910260600 METAR MRPV NIL=
201910260700 METAR MRPV NIL=
201910260800 METAR MRPV NIL=
201910260900 METAR MRPV NIL=
201910261000 METAR MRPV NIL=
201910261100 METAR MRPV NIL=
201910261200 METAR MRPV COR 261200Z 27002KT 0500 BR OVC005 18/17 A3003 NOSIG=
201910261205 MRPV COR 261205Z 27002KT 0400 FG OVC005 18/17 A3003 NOSIG=
201910261300 METAR MRPV 261300Z VRB02KT 2500 BR SCT010 BKN025 18/18 A3005 NOSIG=
201910261400 METAR MRPV 261400Z 27002KT 9999 3500N BCFG SCT010 BKN060 19/18 A3006 NOSIG=
201910261500 METAR MRPV 261500Z 30001KT 9999 SCT025 SCT100 21/18 A3007 NOSIG=
201910261600 METAR MRPV 261600Z 30004KT 030V300 9999 SCT025 SCT100 23/18 A3006 NOSIG=
201910261700 METAR MRPV 261700Z 27004KT 9999 SCT025 SCT140 23/19 A3004 NOSIG=
201910261800 METAR MRPV 261800Z 28004KT 9999 SCT030 SCT140 25/18 A3000 NOSIG=
201910261900 METAR MRPV 261900Z 22003KT 9999 SCT025 SCT140 25/19 A2998 NOSIG=
201910262000 METAR MRPV 262000Z 27008KT 9999 4000S RA SCT020 BKN120 23/20 A2995 NOSIG=
201910262100 METAR MRPV 262100Z 29005KT 8000 RA FEW010 BKN020 21/20 A2997 TEMPO BKN014=
201910262200 METAR MRPV 262200Z 30007KT 5000 BKN002 20/19 A2997 NOSIG=
201910262300 METAR MRPV 262300Z 34002KT 5000 BKN004 20/19 A3000 NOSIG=
201910270000 METAR MRPV 270000Z 14001KT 9999 FEW010 SCT070 20/19 A3000 NOSIG=
201910270100 METAR MRPV NIL=
201910270200 METAR MRPV NIL=
201910270300 METAR MRPV NIL=
201910270400 METAR MRPV NIL=
201910270500 METAR MRPV NIL=
201910270600 METAR MRPV NIL=
201910270700 METAR MRPV NIL=
201910270800 METAR MRPV NIL=
201910270900 METAR MRPV NIL=
201910271000 METAR MRPV NIL=
201910271100 METAR MRPV NIL=
201910271200 METAR MRPV 271200Z 13004KT CAVOK 20/16 A3000 NOSIG=
201910271300 METAR MRPV 271300Z 12006KT CAVOK 21/16 A3001 NOSIG=
201910271400 METAR MRPV 271400Z 13008KT CAVOK 23/16 A3003 NOSIG=
201910271500 METAR MRPV 271500Z 09013KT CAVOK 25/17 A3003 NOSIG=
201910271600 METAR MRPV 271600Z 08008KT CAVOK 26/17 A3001 NOSIG=
201910271700 METAR MRPV 271700Z 09007KT CAVOK 27/18 A2999 NOSIG=
201910271800 METAR MRPV 271800Z 27005KT 9999 FEW045 26/20 A2996 NOSIG=
201910271900 METAR MRPV 271900Z 28007KT 9999 SCT045 26/20 A2993 NOSIG=
201910272000 METAR MRPV 272000Z 28009KT 9999 SCT035 25/20 A2992 NOSIG=
201910272100 METAR MRPV 272100Z 29009KT 9999 SCT030 25/20 A2992 NOSIG=
201910272200 METAR MRPV 272200Z 28007KT 9999 BKN030 23/20 A2993 NOSIG=
201910272300 METAR MRPV 272300Z 27002KT 9999 FEW005 BKN013 22/20 A2995 NOSIG=
201910280000 METAR MRPV 280000Z 32004KT 9999 -RA BKN010 22/21 A2996 NOSIG=
201910280100 METAR MRPV NIL=
201910280200 METAR MRPV NIL=
201910280300 METAR MRPV NIL=
201910280400 METAR MRPV NIL=
201910280500 METAR MRPV NIL=
201910280600 METAR MRPV NIL=
201910280700 METAR MRPV NIL=
201910280800 METAR MRPV NIL=
201910280900 METAR MRPV NIL=
201910281000 METAR MRPV NIL=
201910281100 METAR MRPV NIL=
201910281200 METAR MRPV 281200Z 11005KT 9999 FEW025 SCT250 20/17 A3000 NOSIG=
201910281300 METAR MRPV 281300Z 13006KT 9999 FEW025 SCT250 22/17 A3002 NOSIG=
201910281400 METAR MRPV 281400Z 12006KT 9999 SCT025 SCT250 22/17 A3004 NOSIG=
201910281500 METAR MRPV 281500Z 12005KT 9999 FEW030 SCT070 22/18 A3005 REDZ NOSIG=
201910281600 METAR MRPV 281600Z 16005KT 9999 FEW040 SCT100 24/18 A3004 NOSIG=
201910281700 METAR MRPV 281700Z 08012KT 9999 DZ FEW040 SCT090 26/19 A3002 NOSIG=
201910281800 METAR MRPV 281800Z 09011KT 9999 BKN030 SCT070 25/18 A2999 NOSIG=
201910281900 METAR MRPV 281900Z 12010KT 9999 FEW030 BKN080 26/18 A2995 NOSIG=
201910282000 METAR MRPV 282000Z 12010KT 9999 FEW030 BKN100 24/18 A2995 NOSIG=
201910282100 METAR MRPV 282100Z 12005KT 9999 FEW010 OVC100 23/18 A2994 NOSIG=
201910282200 METAR MRPV 282200Z 10003KT 9999 FEW005 OVC100 23/18 A2994 TEMPO 33005KT=
201910282300 METAR MRPV 282300Z 32003KT 9999 4000W BCFG FEW004 OVC100 21/20 A2994 NOSIG=
201910290000 METAR MRPV 290000Z 12007KT 9999 FEW010 BKN090 22/17 A2996 NOSIG=
201910290100 METAR MRPV NIL=
201910290200 METAR MRPV NIL=
201910290300 METAR MRPV NIL=
201910290400 METAR MRPV NIL=
201910290500 METAR MRPV NIL=
201910290600 METAR MRPV NIL=
201910290700 METAR MRPV NIL=
201910290800 METAR MRPV NIL=
201910290900 METAR MRPV NIL=
201910291000 METAR MRPV NIL=
201910291100 METAR MRPV NIL=
201910291200 METAR MRPV 291200Z 12007KT 9999 FEW035 SCT090 BKN200 20/16 A2999 NOSIG=
201910291300 METAR MRPV 291300Z 11011KT 9999 FEW035 SCT100 21/17 A3001 NOSIG=
201910291400 METAR MRPV 291400Z 11008KT 9999 FEW035 BKN100 22/17 A3002 NOSIG=
201910291500 METAR MRPV 291500Z 08010KT 9999 FEW040 BKN100 23/17 A3004 NOSIG=
201910291600 METAR MRPV 291600Z 10009KT 9999 SCT035 BKN100 22/18 A3004 NOSIG=
201910291700 METAR MRPV 291700Z 08011KT 9999 FEW025 BKN100 23/18 A3002 NOSIG=
201910291800 METAR MRPV 291800Z 07009KT 9999 FEW040 BKN100 24/17 A2999 NOSIG=
201910291900 METAR MRPV COR 291900Z 07012KT 9999 SCT035 BKN140 25/16 A2997 NOSIG=
201910292000 METAR MRPV 292000Z 08009KT 9999 SCT040 BKN140 25/17 A2994 NOSIG=
201910292100 METAR MRPV 292100Z 10006KT 9999 FEW040 BKN140 25/16 A2992 NOSIG=
201910292200 METAR MRPV 292200Z 04002KT CAVOK 25/16 A2992 NOSIG=
201910292300 METAR MRPV 292300Z 29007KT 9999 BCFG FEW010 SCT020 BKN100 22/20 A2993 NOSIG=
201910300000 METAR MRPV 300000Z 30006KT 9999 SCT020 BKN120 21/20 A2995 NOSIG=
201910300100 METAR MRPV NIL=
201910300200 METAR MRPV NIL=
201910300300 METAR MRPV NIL=
201910300400 METAR MRPV NIL=
201910300500 METAR MRPV NIL=
201910300600 METAR MRPV NIL=
201910300700 METAR MRPV NIL=
201910300800 METAR MRPV NIL=
201910300900 METAR MRPV NIL=
201910301000 METAR MRPV NIL=
201910301100 METAR MRPV NIL=
201910301200 METAR MRPV 301200Z 10004KT CAVOK 17/15 A3003 NOSIG=
201910301300 METAR MRPV 301300Z 10005KT CAVOK 19/15 A3003 NOSIG=
201910301400 METAR MRPV 301400Z 15006KT CAVOK 22/16 A3003 NOSIG=
201910301500 METAR MRPV 301500Z 12008KT CAVOK 25/16 A3004 NOSIG=
201910301600 METAR MRPV 301600Z 10009KT 9999 FEW045 BKN200 26/16 A3003 NOSIG=
201910301700 METAR MRPV 301700Z 09009KT 9999 SCT045 BKN220 27/17 A3001 NOSIG=
201910301800 METAR MRPV 301800Z 10009KT 9999 BKN040 25/17 A2998 NOSIG=
201910301900 METAR MRPV 301900Z 10009KT 9999 VCSH SCT020TCU BKN040 25/17 A2995 NOSIG=
201910302000 METAR MRPV 302000Z 07011KT 9999 RA VCTS FEW015TCU BKN035 23/17 A2995 RESHRA NOSIG=
201910302100 METAR MRPV 302100Z 04001KT 5000 2500N RA SCT015 BKN025 20/18 A2997 NOSIG=
201910302200 METAR MRPV 302200Z 29003KT 9999 BCFG FEW015 SCT035 BKN100 20/19 A2997 RERA NOSIG=
201910302300 METAR MRPV 302300Z 25001KT 9999 BCFG FEW010 BKN100 20/19 A2998 NOSIG=
201910310000 METAR MRPV 310000Z 10004KT 9999 FEW025 BKN100 20/18 A2999 NOSIG=
201910310100 METAR MRPV NIL=
201910310200 METAR MRPV NIL=
201910310300 METAR MRPV NIL=
201910310400 METAR MRPV NIL=
201910310500 METAR MRPV NIL=
201910310600 METAR MRPV NIL=
201910310700 METAR MRPV NIL=
201910310800 METAR MRPV NIL=
201910310900 METAR MRPV NIL=
201910311000 METAR MRPV NIL=
201910311100 METAR MRPV NIL=
201910311200 METAR MRPV 311200Z 13008KT CAVOK 22/16 A3001 NOSIG=
201910311300 METAR MRPV 311300Z 13006KT CAVOK 23/16 A3003 NOSIG=
201910311400 METAR MRPV 311400Z 08006KT 9999 FEW035 24/17 A3006 NOSIG=
201910311500 METAR MRPV 311500Z 10005KT 9999 FEW035 25/17 A3007 NOSIG=
201910311600 METAR MRPV 311600Z 08004KT 9999 SCT040 26/17 A3006 NOSIG=
201910311700 METAR MRPV COR 311700Z 29007KT 130V290 9999 SCT035 25/19 A3003 NOSIG=
201910311800 METAR MRPV COR 311800Z 28007KT 9999 SCT035 SCT060 25/20 A3001 NOSIG=
201910311900 METAR MRPV 311900Z COR 29004KT 9999 3000SW RA BKN030 24/20 A2998 NOSIG=
201910312000 METAR MRPV 312000Z 28008KT 9999 FEW010 SCT035 BKN100 24/21 A2996 RERA NOSIG=
201910312100 METAR MRPV 312100Z 26005KT 3000 TSRA BKN010 21/20 A2996 NOSIG=
201910312200 METAR MRPV 312200Z 29007KT 3000 -RA BR OVC004 20/19 A2999 RETSRA NOSIG=
201910312300 METAR MRPV 312300Z 36002KT 4000 -RA BR BKN004 20/19 A3001 NOSIG=
201911010000 METAR MRPV 010000Z 28001KT 4000 -RA BR OVC004 20/19 A3004 NOSIG=
201911010100 METAR MRPV NIL=
201911010200 METAR MRPV NIL=
201911010300 METAR MRPV NIL=
201911010400 METAR MRPV NIL=
201911010500 METAR MRPV NIL=
201911010600 METAR MRPV NIL=
201911010700 METAR MRPV NIL=
201911010800 METAR MRPV NIL=
201911010900 METAR MRPV NIL=
201911011000 METAR MRPV NIL=
201911011100 METAR MRPV NIL=
201911011200 METAR MRPV 011200Z 12007KT 9999 FEW035 BKN100 21/17 A3007 NOSIG=
201911011300 METAR MRPV 011300Z 14009KT 9999 FEW035 BKN110 21/17 A3008 NOSIG=
201911011400 METAR MRPV 011400Z 11011KT 9999 FEW040 BKN160 23/17 A3008 NOSIG=
201911011500 METAR MRPV 011500Z 08013KT CAVOK 25/17 A3008 NOSIG=
201911011600 METAR MRPV 011600Z 07015KT 9999 FEW045 SCT160 25/17 A3007 NOSIG=
201911011700 METAR MRPV 011700Z 07013KT 9999 FEW040 SCT160 26/17 A3005 NOSIG=
201911011800 METAR MRPV 011800Z 07014KT 9999 FEW045 SCT160 27/17 A3003 NOSIG=
201911011900 METAR MRPV 011900Z 07014KT 9999 FEW045 SCT160 27/17 A3001 NOSIG=
201911012000 METAR MRPV 012000Z 07010KT 9999 FEW040 SCT120 26/17 A2999 NOSIG=
201911012100 METAR MRPV 012100Z 06010KT 9999 FEW040 BKN120 25/16 A2998 NOSIG=
201911012200 METAR MRPV 012200Z 06008KT 9999 FEW015 BKN035 24/17 A3000 NOSIG=
201911012300 METAR MRPV 012300Z 08007KT 9999 FEW010 BKN060 23/16 A3002 NOSIG=
201911020000 METAR MRPV 020000Z 10005KT 9999 FEW010 BKN080 22/17 A3003 NOSIG=
201911020100 METAR MRPV NIL=
201911020200 METAR MRPV NIL=
201911020300 METAR MRPV NIL=
201911020400 METAR MRPV NIL=
201911020500 METAR MRPV NIL=
201911020600 METAR MRPV NIL=
201911020700 METAR MRPV NIL=
201911020800 METAR MRPV NIL=
201911020900 METAR MRPV NIL=
201911021000 METAR MRPV NIL=
201911021100 METAR MRPV NIL=
201911021200 METAR MRPV 021200Z 12009KT 9999 FEW045 SCT100 21/16 A3003 NOSIG=
201911021300 METAR MRPV 021300Z 11010KT 9999 FEW035 SCT250 22/17 A3003 NOSIG=
201911021400 METAR MRPV 021400Z 09013KT 9999 FEW035 SCT250 23/17 A3005 NOSIG=
201911021500 METAR MRPV 021500Z 08013KT 9999 FEW040 SCT250 24/17 A3006 NOSIG=
201911021600 METAR MRPV 021600Z 07009KT 9999 FEW035 SCT100 25/18 A3004 NOSIG=
201911021700 METAR MRPV 021700Z 08009KT 9999 RA SCT045 SCT100 26/18 A3003 NOSIG=
201911021800 METAR MRPV 021800Z 09010KT 9999 SCT030 SCT100 26/19 A3000 RERA NOSIG=
201911021900 METAR MRPV 021900Z 07009KT 9999 DZ BKN030 25/17 A2998 NOSIG=
201911022000 METAR MRPV 022000Z 07009KT 9999 SCT040 BKN080 24/18 A2995 REDZ NOSIG=
201911022100 METAR MRPV 022100Z 07007KT 9999 SCT040 BKN080 25/17 A2994 NOSIG=
201911022200 METAR MRPV 022200Z 31005KT 9999 4000N DZ FEW010 BKN035 21/19 A2996 NOSIG=
201911022300 METAR MRPV 022300Z 29002KT 9999 BKN020 21/20 A2998 REDZ NOSIG=
201911030000 METAR MRPV 030000Z 13006KT 9999 BCFG FEW010 BKN080 20/18 A3000 NOSIG=
201911030100 METAR MRPV NIL=
201911030200 METAR MRPV NIL=
201911030300 METAR MRPV NIL=
201911030400 METAR MRPV NIL=
201911030500 METAR MRPV NIL=
201911030600 METAR MRPV NIL=
201911030700 METAR MRPV NIL=
201911030800 METAR MRPV NIL=
201911030900 METAR MRPV NIL=
201911031000 METAR MRPV NIL=
201911031100 METAR MRPV NIL=
201911031200 METAR MRPV 031200Z 14007KT 9999 FEW030 20/16 A3001 NOSIG=
201911031300 METAR MRPV 031300Z 12011KT 9999 FEW040 SCT080 21/16 A3003 NOSIG=
201911031400 METAR MRPV 031400Z 12009KT CAVOK 23/17 A3002 NOSIG=
201911031500 METAR MRPV 031500Z 08014KT 9999 SCT040 23/16 A3004 NOSIG=
201911031600 METAR MRPV 031600Z 07012KT 9999 FEW030 25/16 A3002 NOSIG=
201911031700 METAR MRPV 031700Z 07012KT 9999 FEW035 26/16 A3000 NOSIG=
201911031800 METAR MRPV 031800Z 08012KT 9999 SCT040 26/17 A2997 NOSIG=
201911031900 METAR MRPV 031900Z 09011KT 9999 BKN035 25/17 A2994 NOSIG=
201911032000 METAR MRPV 032000Z 08011KT 9999 -DZ SCT035 BKN080 24/18 A2992 NOSIG=
201911032100 METAR MRPV 032100Z 10012KT 9999 FEW020 BKN060 23/17 A2992 NOSIG=
201911032200 METAR MRPV 032200Z 09009KT 9999 FEW024 SCT060 24/17 A2993 NOSIG=
201911032300 METAR MRPV 032300Z 09007KT 9999 FEW020 BKN040 22/17 A2995 NOSIG=
201911040000 METAR MRPV 040000Z 10011KT 9999 SCT030 21/17 A2995 NOSIG=
201911040100 METAR MRPV NIL=
201911040200 METAR MRPV NIL=
201911040300 METAR MRPV NIL=
201911040400 METAR MRPV NIL=
201911040500 METAR MRPV NIL=
201911040600 METAR MRPV NIL=
201911040700 METAR MRPV NIL=
201911040800 METAR MRPV NIL=
201911040900 METAR MRPV NIL=
201911041000 METAR MRPV NIL=
201911041100 METAR MRPV NIL=
201911041200 METAR MRPV 041200Z 13007KT 9999 FEW035 20/15 A3000 NOSIG=
201911041300 METAR MRPV 041300Z 12009KT 9999 FEW035 21/15 A3001 NOSIG=
201911041400 METAR MRPV 041400Z 10010KT 9999 FEW035 23/17 A3002 NOSIG=
201911041500 METAR MRPV 041500Z 07013KT 9999 FEW040 24/16 A3002 NOSIG=
201911041600 METAR MRPV 041600Z 05012KT 9999 SCT035 25/17 A3001 NOSIG=
201911041700 METAR MRPV 041700Z 08012KT 9999 SCT035 25/17 A3000 NOSIG=
201911041800 METAR MRPV 041800Z 08011KT 9999 SCT040 26/17 A2997 NOSIG=
201911041900 METAR MRPV 041900Z 09010KT 9999 SCT040 SCT120 25/16 A2995 NOSIG=
201911042000 METAR MRPV 042000Z 09010KT 9999 SCT040 25/16 A2992 NOSIG=
201911042100 METAR MRPV 042100Z 10011KT 9999 FEW040 25/16 A2992 NOSIG=
201911042200 METAR MRPV 042200Z 09011KT 9999 FEW040 25/16 A2992 NOSIG=
201911042300 METAR MRPV 042300Z 09012KT 9999 FEW035 SCT120 23/17 A2995 NOSIG=
201911050000 METAR MRPV 050000Z 12009KT 9999 FEW035 SCT100 22/17 A2996 NOSIG=
201911050100 METAR MRPV NIL=
201911050200 METAR MRPV NIL=
201911050300 METAR MRPV NIL=
201911050400 METAR MRPV NIL=
201911050500 METAR MRPV NIL=
201911050600 METAR MRPV NIL=
201911050700 METAR MRPV NIL=
201911050800 METAR MRPV NIL=
201911050900 METAR MRPV NIL=
201911051000 METAR MRPV NIL=
201911051100 METAR MRPV NIL=
201911051200 METAR MRPV 051200Z 13010KT CAVOK 19/13 A2999 NOSIG=
201911051300 METAR MRPV 051300Z 11015KT CAVOK 21/14 A3001 NOSIG=
201911051400 METAR MRPV 051400Z 09015KT CAVOK 23/15 A3002 NOSIG=
201911051500 METAR MRPV 051500Z 08015KT CAVOK 25/16 A3003 NOSIG=
201911051600 METAR MRPV 051600Z 08013KT CAVOK 26/16 A3002 NOSIG=
201911051700 METAR MRPV 051700Z 07014KT 9999 FEW045 26/16 A3000 NOSIG=
201911051800 METAR MRPV 051800Z 07014KT 9999 SCT040 26/16 A2998 WSR09 NOSIG=
201911051900 METAR MRPV 051900Z 08011KT 9999 FEW045 26/17 A2996 WSR09 NOSIG=
201911052000 METAR MRPV 052000Z 07009KT 9999 FEW035 BKN200 27/16 A2993 NOSIG=
201911052100 METAR MRPV 052100Z 08013KT 9999 SCT030 BKN120 25/17 A2994 NOSIG=
201911052200 METAR MRPV 052200Z 08009KT 9999 SCT035 BKN140 24/17 A2995 NOSIG=
201911052300 METAR MRPV 052300Z 09009KT 9999 FEW035 SCT120 BKN200 22/16 A2996 NOSIG=
201911060000 METAR MRPV 060000Z 11005KT 9999 FEW030 SCT200 22/16 A2998 NOSIG=
201911060100 METAR MRPV NIL=
201911060200 METAR MRPV NIL=
201911060300 METAR MRPV NIL=
201911060400 METAR MRPV NIL=
201911060500 METAR MRPV NIL=
201911060600 METAR MRPV NIL=
201911060700 METAR MRPV NIL=
201911060800 METAR MRPV NIL=
201911060900 METAR MRPV NIL=
201911061000 METAR MRPV NIL=
201911061100 METAR MRPV NIL=
201911061200 METAR MRPV 061200Z 12010KT 9999 FEW035 BKN120 21/17 A3001 NOSIG=
201911061300 METAR MRPV 061300Z 12009KT 9999 RA SCT025 BKN080 21/16 A3003 NOSIG=
201911061400 METAR MRPV 061400Z 13008KT 9999 -RA SCT025 BKN100 20/17 A3005 NOSIG=
201911061500 METAR MRPV 061500Z 12010KT 9999 -RA SCT025 BKN100 21/17 A3007 NOSIG=
201911061600 METAR MRPV 061600Z 10012KT 9999 -RA SCT020 BKN100 21/17 A3008 NOSIG=
201911061700 METAR MRPV 061700Z 10015KT 9999 -RA SCT020 BKN120 21/16 A3005 NOSIG=
201911061800 METAR MRPV 061800Z 10015KT 9999 -RA FEW025 BKN120 21/16 A3002 NOSIG=
201911061900 METAR MRPV 061900Z 10017G27KT 9999 -DZ FEW025 OVC120 21/17 A2999 NOSIG=
201911062000 METAR MRPV 062000Z 10013G23KT 9999 FEW035 OVC120 21/16 A2996 NOSIG=
201911062100 METAR MRPV 062100Z 12013G23KT 9999 FEW025 OVC120 21/16 A2995 NOSIG=
201911062200 METAR MRPV 062200Z 12011G21KT 9999 FEW025 OVC120 21/16 A2995 NOSIG=
201911062300 METAR MRPV 062300Z COR 11014KT 9999 FEW035 OVC120 20/16 A2996 NOSIG=
201911070000 METAR MRPV 070000Z 12014G24KT 9999 FEW025 OVC120 21/16 A2997 NOSIG=
201911070100 METAR MRPV NIL=
201911070200 METAR MRPV NIL=
201911070300 METAR MRPV NIL=
201911070400 METAR MRPV NIL=
201911070500 METAR MRPV NIL=
201911070600 METAR MRPV NIL=
201911070700 METAR MRPV NIL=
201911070800 METAR MRPV NIL=
201911070900 METAR MRPV NIL=
201911071000 METAR MRPV NIL=
201911071100 METAR MRPV NIL=
201911071200 METAR MRPV 071200Z 12007KT 9999 SCT030 BKN120 21/17 A2999 NOSIG=
201911071300 METAR MRPV 071300Z 12012KT 9999 FEW025 SCT120 BKN180 21/16 A2999 NOSIG=
201911071400 METAR MRPV 071400Z 10014KT 9999 FEW030 SCT120 BKN200 23/17 A3001 NOSIG=
201911071500 METAR MRPV 071500Z 09013KT 9999 FEW030 BKN120 23/17 A3001 NOSIG=
201911071600 METAR MRPV 071600Z 07013G24KT 9999 SCT030 SCT080 24/17 A3000 NOSIG=
201911071700 METAR MRPV 071700Z 08014KT 9999 SCT030 BKN100 25/16 A2999 NOSIG=
201911071800 METAR MRPV 071800Z 09009G19KT 9999 FEW035 SCT100 BKN200 25/16 A2996 NOSIG=
201911071900 METAR MRPV 071900Z 08013KT 9999 FEW030 SCT080 BKN200 25/17 A2993 NOSIG=
201911072000 METAR MRPV 072000Z 09012KT 9999 FEW025 SCT080 BKN200 24/18 A2992 NOSIG=
201911072100 METAR MRPV 072100Z 10011KT 9999 FEW035 SCT070 BKN200 24/18 A2991 NOSIG=
201911072200 METAR MRPV 072200Z 09015KT 9999 FEW030 SCT070 BKN200 23/18 A2991 NOSIG=
201911072300 METAR MRPV 072300Z 09009KT 9999 FEW035 BKN200 23/17 A2991 NOSIG=
201911080000 METAR MRPV 080000Z 10012KT 9999 FEW025 BKN200 22/17 A2993 NOSIG=
201911080100 METAR MRPV NIL=
201911080200 METAR MRPV NIL=
201911080300 METAR MRPV NIL=
201911080400 METAR MRPV NIL=
201911080500 METAR MRPV NIL=
201911080600 METAR MRPV NIL=
201911080700 METAR MRPV NIL=
201911080800 METAR MRPV NIL=
201911080900 METAR MRPV NIL=
201911081000 METAR MRPV NIL=
201911081100 METAR MRPV NIL=
201911081200 METAR MRPV 081200Z 12010KT 9999 FEW025 BKN110 21/17 A2993 NOSIG=
201911081300 METAR MRPV 081300Z COR 13009KT 9999 FEW025 BKN110 22/17 A2995 NOSIG=
201911081400 METAR MRPV 081400Z 10016G26KT 9999 FEW030 BKN110 23/17 A2997 NOSIG=
201911081500 METAR MRPV 081500Z 09014KT 9999 FEW030 BKN100 23/17 A2998 NOSIG=
201911081600 METAR MRPV 081600Z COR 11014G24KT 9999 DZ FEW035 BKN120 24/17 A2998 NOSIG=
201911081700 METAR MRPV 081700Z 09015G28KT 9999 FEW040 SCT080 BKN120 25/15 A2994 REDZ NOSIG=
201911081800 METAR MRPV 081800Z 09016KT 9999 FEW040 SCT080 BKN200 24/16 A2993 NOSIG=
201911081900 METAR MRPV 081900Z 08017KT 9999 FEW035 OVC110 24/17 A2991 NOSIG=
201911082000 METAR MRPV 082000Z 08013KT 9999 FEW030 SCT110 BKN160 24/17 A2989 NOSIG=
201911082100 METAR MRPV 082100Z 08013KT 9999 FEW035 BKN110 24/17 A2989 NOSIG=
201911082200 METAR MRPV 082200Z 09013KT 9999 FEW040 BKN120 24/17 A2989 NOSIG=
201911082300 METAR MRPV 082300Z 09012KT 9999 FEW040 BKN100 23/17 A2991 NOSIG=
201911090000 METAR MRPV 090000Z 10011KT 9999 FEW040 BKN100 22/17 A2992 NOSIG=
201911090100 METAR MRPV NIL=
201911090200 METAR MRPV NIL=
201911090300 METAR MRPV NIL=
201911090400 METAR MRPV NIL=
201911090500 METAR MRPV NIL=
201911090600 METAR MRPV NIL=
201911090700 METAR MRPV NIL=
201911090800 METAR MRPV NIL=
201911090900 METAR MRPV NIL=
201911091000 METAR MRPV NIL=
201911091100 METAR MRPV NIL=
201911091200 METAR MRPV 091200Z 12012G22KT 9999 DZ FEW030 BKN080 21/17 A2996 NOSIG=
201911091300 METAR MRPV 091300Z 12011KT 9999 FEW030 SCT080 22/17 A2997 REDZ NOSIG=
201911091400 METAR MRPV 091400Z 11014G24KT 9999 FEW035 SCT200 24/17 A2998 WSR09 NOSIG=
201911091500 METAR MRPV 091500Z 11010G20KT 9999 FEW040 SCT200 24/16 A3000 WSR09 NOSIG=
201911091600 METAR MRPV 091600Z 09016G26KT 9999 SCT035 25/17 A3000 WSR09 NOSIG=
201911091700 METAR MRPV 091700Z 08014KT 9999 BKN040 26/17 A2999 WSR09 NOSIG=
201911091800 METAR MRPV 091800Z 12007KT 9999 FEW040 SCT070 25/17 A2997 WSR09 NOSIG=
201911091900 METAR MRPV 091900Z 07013KT 9999 FEW040 BKN080 26/17 A2995 WSR09 NOSIG=
201911092000 METAR MRPV 092000Z 09014KT 9999 FEW035 SCT100 BKN220 26/16 A2993 WSR09 NOSIG=
201911092100 METAR MRPV 092100Z 07012KT 9999 FEW035 SCT100 BKN220 25/17 A2993 WSR09 NOSIG=
201911092200 METAR MRPV 092200Z 08010KT 9999 FEW035 BKN220 24/17 A2994 WSR09 NOSIG=
201911092300 METAR MRPV 092300Z 09011KT 9999 FEW045 BKN220 23/16 A2996 NOSIG=
201911100000 METAR MRPV 100000Z 10009KT 9999 FEW040 22/17 A2998 NOSIG=
201911100100 METAR MRPV NIL=
201911100200 METAR MRPV NIL=
201911100300 METAR MRPV NIL=
201911100400 METAR MRPV NIL=
201911100500 METAR MRPV NIL=
201911100600 METAR MRPV NIL=
201911100700 METAR MRPV NIL=
201911100800 METAR MRPV NIL=
201911100900 METAR MRPV NIL=
201911101000 METAR MRPV NIL=
201911101100 METAR MRPV NIL=
201911101200 METAR MRPV COR 101200Z 13009KT 9999 FEW035 SCT140 20/15 A3002 NOSIG=
201911101300 METAR MRPV 101300Z 12011KT 9999 FEW035 SCT120 21/16 A3004 NOSIG=
201911101400 METAR MRPV 101400Z 13008KT 9999 FEW035 SCT200 23/16 A3004 NOSIG=
201911101500 METAR MRPV COR 101500Z 10015KT 9999 FEW035 BKN180 23/17 A3005 NOSIG=
201911101600 METAR MRPV 101600Z 09016KT 9999 SCT035 SCT140 24/17 A3005 NOSIG=
201911101700 METAR MRPV 101700Z 09014KT 9999 FEW035 BKN140 24/17 A3003 NOSIG=
201911101800 METAR MRPV 101800Z 09009KT 9999 FEW035 BKN120 27/17 A3001 NOSIG=
201911101900 METAR MRPV 101900Z 11008KT 9999 FEW020 BKN120 25/18 A2999 REDZ NOSIG=
201911102000 METAR MRPV 102000Z 10008KT 9999 FEW045 BKN140 25/18 A2995 NOSIG=
201911102100 METAR MRPV 102100Z 10004KT 9999 BKN035 SCT090 24/18 A2995 NOSIG=
201911102200 METAR MRPV 102200Z 09010KT 9999 -DZ FEW020 BKN040 22/18 A2996 NOSIG=
201911102300 METAR MRPV 102300Z 10007KT 9999 FEW010 BKN050 22/18 A2998 NOSIG=
201911110000 METAR MRPV 110000Z 13007KT 9999 FEW020 BKN100 21/18 A3000 NOSIG=
201911110100 METAR MRPV NIL=
201911110200 METAR MRPV NIL=
201911110300 METAR MRPV NIL=
201911110400 METAR MRPV NIL=
201911110500 METAR MRPV NIL=
201911110600 METAR MRPV NIL=
201911110700 METAR MRPV NIL=
201911110800 METAR MRPV NIL=
201911110900 METAR MRPV NIL=
201911111000 METAR MRPV NIL=
201911111100 METAR MRPV NIL=
201911111200 METAR MRPV 111200Z 12006KT CAVOK 20/16 A3000 NOSIG=
201911111300 METAR MRPV 111300Z 12006KT CAVOK 22/17 A3001 NOSIG=
201911111400 METAR MRPV 111400Z 12006KT CAVOK 25/17 A3003 NOSIG=
201911111500 METAR MRPV 111500Z 09009KT 9999 FEW045 SCT120 25/17 A3004 NOSIG=
201911111600 METAR MRPV 111600Z 09003KT 9999 FEW045 SCT140 BKN220 27/16 A3003 NOSIG=
201911111700 METAR MRPV 111700Z 28007KT 9999 SCT045 BKN220 26/18 A3000 NOSIG=
201911111800 METAR MRPV 111800Z 29005KT 9999 FEW030 BKN070 26/19 A2998 NOSIG=
201911111900 METAR MRPV 111900Z 28006KT 9999 VCSH FEW020TCU SCT070 BKN120 24/20 A2997 NOSIG=
201911112000 METAR MRPV COR 112000Z 28007KT 9999 RA BCFG FEW010 SCT020TCU SCT030 23/20 A2995 RESHRA NOSIG=
201911112100 METAR MRPV 112100Z 27001KT 9999 VCFG FEW010 SCT025 BKN100 22/20 A2995 RERA NOSIG=
201911112200 METAR MRPV 112200Z 29006KT 9999 BCFG SCT008 SCT025 21/20 A2996 WSR27 NOSIG=
201911112300 METAR MRPV 112300Z 31004KT 3000 BR SCT005 SCT015 20/19 A2997 WSR27 NOSIG=
201911120000 METAR MRPV 120000Z 15001KT 9999 FEW035 BKN120 21/19 A2999 WSR27 NOSIG=
201911120100 METAR MRPV NIL=
201911120200 METAR MRPV NIL=
201911120300 METAR MRPV NIL=
201911120400 METAR MRPV NIL=
201911120500 METAR MRPV NIL=
201911120600 METAR MRPV NIL=
201911120700 METAR MRPV NIL=
201911120800 METAR MRPV NIL=
201911120900 METAR MRPV NIL=
201911121000 METAR MRPV NIL=
201911121100 METAR MRPV NIL=
201911121200 METAR MRPV 121200Z 12006KT 9999 FEW030 SCT120 20/17 A3001 NOSIG=
201911121300 METAR MRPV 121300Z 10006KT 9999 FEW030 SCT140 21/17 A3002 NOSIG=
201911121400 METAR MRPV 121400Z 09010KT 9999 FEW030 SCT140 23/17 A3004 NOSIG=
201911121500 METAR MRPV 121500Z 09013KT 9999 SCT035 BKN200 23/17 A3004 NOSIG=
201911121600 METAR MRPV 121600Z 10011KT 9999 SCT035 BKN200 24/17 A3004 NOSIG=
201911121700 METAR MRPV 121700Z 09012KT 9999 SCT030 BKN200 26/17 A3003 NOSIG=
201911121800 METAR MRPV 121800Z 09013KT 9999 SCT030 OVC200 26/17 A3000 NOSIG=
201911121900 METAR MRPV 121900Z 07011KT 9999 FEW040 BKN200 27/16 A2996 NOSIG=
201911122000 METAR MRPV 122000Z 10009KT 9999 FEW030 BKN200 25/16 A2995 NOSIG=
201911122100 METAR MRPV 122100Z 08009KT 9999 FEW035 BKN200 25/16 A2995 NOSIG=
201911122200 METAR MRPV 122200Z 10010KT 9999 FEW030 BKN200 25/16 A2995 NOSIG=
201911122300 METAR MRPV 122300Z 11009KT 9999 FEW035 BKN200 22/16 A2997 NOSIG=
201911130000 METAR MRPV 130000Z 10009KT 9999 FEW030 BKN200 21/16 A2999 NOSIG=
201911130100 METAR MRPV NIL=
201911130200 METAR MRPV NIL=
201911130300 METAR MRPV NIL=
201911130400 METAR MRPV NIL=
201911130500 METAR MRPV NIL=
201911130600 METAR MRPV NIL=
201911130700 METAR MRPV NIL=
201911130800 METAR MRPV NIL=
201911130900 METAR MRPV NIL=
201911131000 METAR MRPV NIL=
201911131100 METAR MRPV NIL=
201911131200 METAR MRPV 131200Z 14007KT 9999 FEW045 BKN200 19/14 A3004 NOSIG=
201911131300 METAR MRPV 131300Z 10011KT 9999 FEW045 BKN200 21/14 A3006 NOSIG=
201911131400 METAR MRPV 131400Z 12008KT CAVOK 23/14 A3008 NOSIG=
201911131500 METAR MRPV 131500Z 11009KT CAVOK 24/15 A3008 NOSIG=
201911131600 METAR MRPV 131600Z 11008KT CAVOK 26/16 A3006 NOSIG=
201911131700 METAR MRPV 131700Z 09008KT 9999 FEW040 BKN120 26/16 A3005 NOSIG=
201911131800 METAR MRPV 131800Z 06006KT 9999 SCT035 SCT100 27/15 A3002 NOSIG=
201911131900 METAR MRPV 131900Z 27005KT 9999 FEW045 SCT080 26/18 A2999 NOSIG=
201911132000 METAR MRPV 132000Z 29012KT 9999 FEW020 BKN040 24/19 A2997 NOSIG=
201911132100 METAR MRPV 132100Z 32009KT 9999 RA BKN030 24/19 A2997 RESHRA NOSIG=
201911132200 METAR MRPV 132200Z 34003KT 8000 BCFG DZ BKN025 21/18 A2999 RERA NOSIG=
201911132300 METAR MRPV 132300Z 26004KT 8000 DZ BCFG BKN010 19/18 A3001 NOSIG=
201911140000 METAR MRPV 140000Z VRB01KT 9999 BCFG SCT010 BKN050 20/18 A3003 REDZ NOSIG=
201911140100 METAR MRPV NIL=
201911140200 METAR MRPV NIL=
201911140300 METAR MRPV NIL=
201911140400 METAR MRPV NIL=
201911140500 METAR MRPV NIL=
201911140600 METAR MRPV NIL=
201911140700 METAR MRPV NIL=
201911140800 METAR MRPV NIL=
201911140900 METAR MRPV NIL=
201911141000 METAR MRPV NIL=
201911141100 METAR MRPV NIL=
201911141200 METAR MRPV 141200Z 15004KT CAVOK 20/15 A3005 NOSIG=
201911141300 METAR MRPV 141300Z VRB02KT CAVOK 20/16 A3009 NOSIG=
201911141400 METAR MRPV 141400Z 03003KT CAVOK 22/16 A3011 NOSIG=
201911141500 METAR MRPV 141500Z 28006KT CAVOK 22/17 A3011 NOSIG=
201911141600 METAR MRPV 141600Z 28006KT 9999 FEW045 BKN120 23/17 A3011 NOSIG=
201911141700 METAR MRPV 141700Z 28005KT 9999 FEW045 BKN120 24/18 A3008 NOSIG=
201911141800 METAR MRPV 141800Z 29011KT 9999 SCT035 SCT120 25/19 A3006 NOSIG=
201911141900 METAR MRPV 141900Z 28011KT 9999 RA FEW020TCU SCT040 24/19 A3003 NOSIG=
201911141910 METAR MRPV 141910Z 28009KT 9000 4000NE SHRA SCT020TCU SCT040 23/20 A3003 RERA TEMPO 5000=
201911142000 METAR MRPV 142000Z 29008KT 9999 4500N -DZ FEW025 SCT035 23/20 A3002 RESHRA NOSIG=
201911142100 METAR MRPV 142100Z 24002KT 4500 RA FEW010 BKN035 20/19 A3000 BECMG 7000=
201911142200 METAR MRPV 142200Z 31006KT 5000 DZ BCFG SCT010 BKN025 20/19 A3002 BECMG 4500 BKN010=
201911142300 METAR MRPV 142300Z 29004KT 3000 RA BCFG SCT015 BKN080 20/19 A3004 NOSIG=
201911150000 METAR MRPV 150000Z 33002KT 4000 RA BCFG BKN010 20/19 A3007 NOSIG=
201911150100 METAR MRPV NIL=
201911150200 METAR MRPV NIL=
201911150300 METAR MRPV NIL=
201911150400 METAR MRPV NIL=
201911150500 METAR MRPV NIL=
201911150600 METAR MRPV NIL=
201911150700 METAR MRPV NIL=
201911150800 METAR MRPV NIL=
201911150900 METAR MRPV NIL=
201911151000 METAR MRPV NIL=
201911151100 METAR MRPV NIL=
201911151200 METAR MRPV 151200Z 13005KT CAVOK 19/16 A3005 NOSIG=
201911151300 METAR MRPV 151300Z 14006KT CAVOK 21/17 A3007 NOSIG=
201911151400 METAR MRPV 151400Z 14005KT CAVOK 23/17 A3008 NOSIG=
201911151500 METAR MRPV 151500Z 10011KT 9999 FEW045 BKN200 25/16 A3009 NOSIG=
201911151600 METAR MRPV 151600Z 07008KT 9999 FEW040 BKN200 26/16 A3009 NOSIG=
201911151700 METAR MRPV 151700Z 11005KT 9999 FEW020TCU FEW040 27/16 A3005 NOSIG=
201911151800 METAR MRPV 151800Z 10012KT 9999 RA FEW020TCU SCT040 24/18 A3004 NOSIG=
201911151900 METAR MRPV 151900Z 10010KT 9999 SCT040 BKN080 25/18 A3001 RERA NOSIG=
201911152000 METAR MRPV 152000Z 22003KT 130V220 9999 FEW030 BKN050 25/19 A2998 NOSIG=
201911152100 METAR MRPV 152100Z 29010KT 9999 TSRA SCT020CB SCT045 23/20 A2998 RESHRA TEMPO 5000=
201911152200 METAR MRPV 152200Z 29004KT 9999 BCFG SCT010 BKN060 20/19 A3000 NOSIG=
201911152300 METAR MRPV 152300Z 24001KT 9999 4500N -RA BCFG FEW005 SCT010 BKN060 20/19 A3001 NOSIG=
201911160000 METAR MRPV 160000Z 00000KT 9999 4500N BCFG FEW005 BKN045 20/20 A3002 NOSIG=
201911160100 METAR MRPV NIL=
201911160200 METAR MRPV NIL=
201911160300 METAR MRPV NIL=
201911160400 METAR MRPV NIL=
201911160500 METAR MRPV NIL=
201911160600 METAR MRPV NIL=
201911160700 METAR MRPV NIL=
201911160800 METAR MRPV NIL=
201911160900 METAR MRPV NIL=
201911161000 METAR MRPV NIL=
201911161100 METAR MRPV NIL=
201911161200 METAR MRPV 161200Z 12007KT 9999 FEW040 BKN080 20/16 A3001 NOSIG=
201911161300 METAR MRPV 161300Z 13006KT 9999 FEW040 BKN090 21/17 A3003 NOSIG=
201911161400 METAR MRPV 161400Z 10015KT 9999 FEW035 BKN100 23/17 A3005 NOSIG=
201911161500 METAR MRPV 161500Z 08013KT 9999 FEW035 BKN100 24/17 A3005 NOSIG=
201911161600 METAR MRPV 161600Z 08013KT 9999 FEW040 SCT100 25/18 A3004 NOSIG=
201911161700 METAR MRPV 161700Z 08013KT 9999 FEW035 BKN120 24/17 A3002 NOSIG=
201911161800 METAR MRPV 161800Z 08012KT 9999 FEW040 SCT120 25/17 A3000 NOSIG=
201911161900 METAR MRPV 161900Z 10009KT 9999 SCT035 BKN200 26/17 A2996 NOSIG=
201911162000 METAR MRPV 162000Z 11009KT 9999 -RA SCT030 SCT120 26/18 A2993 NOSIG=
201911162100 METAR MRPV 162100Z 10011KT 9999 VCSH FEW020TCU SCT030 SCT080 25/18 A2992 NOSIG=
201911162200 METAR MRPV 162200Z 12009KT 9999 4500NW BCFG VCTS FEW010 BKN030 24/17 A2995 RESHRA NOSIG=
201911162300 METAR MRPV 162300Z 08006KT 9999 4000NW BCFG FEW010 SCT025 23/17 A2996 NOSIG=
201911170000 METAR MRPV 170000Z 10007KT 9999 FEW010 SCT030 BKN100 22/17 A2997 NOSIG=
201911170100 METAR MRPV NIL=
201911170200 METAR MRPV NIL=
201911170300 METAR MRPV NIL=
201911170400 METAR MRPV NIL=
201911170500 METAR MRPV NIL=
201911170600 METAR MRPV NIL=
201911170700 METAR MRPV NIL=
201911170800 METAR MRPV NIL=
201911170900 METAR MRPV NIL=
201911171000 METAR MRPV NIL=
201911171100 METAR MRPV NIL=
201911171200 METAR MRPV 171200Z 12007KT CAVOK 19/15 A2999 NOSIG=
201911171300 METAR MRPV 171300Z 13009KT 9999 FEW045 SCT090 21/15 A3000 NOSIG=
201911171400 METAR MRPV 171400Z 10006KT 9999 FEW045 SCT090 24/15 A3001 NOSIG=
201911171500 METAR MRPV 171500Z 10011KT 9999 FEW030 BKN090 24/16 A3001 NOSIG=
201911171600 METAR MRPV 171600Z 09013KT 9999 FEW025 BKN090 24/16 A3001 NOSIG=
201911171700 METAR MRPV 171700Z 08009KT 9999 SCT025 BKN090 24/17 A3000 NOSIG=
201911171800 METAR MRPV 171800Z 12011KT 9999 FEW025 BKN090 23/18 A2996 NOSIG=
201911171900 METAR MRPV 171900Z 10012KT 9999 SCT025 BKN100 23/18 A2994 NOSIG=
201911172000 METAR MRPV 172000Z 09013KT 9999 SCT030 SCT200 25/17 A2991 NOSIG=
201911172100 METAR MRPV 172100Z 09014KT 9999 BKN025 SCT100 23/17 A2991 NOSIG=
201911172200 METAR MRPV 172200Z 11012KT 9999 -RA SCT030 BKN120 20/17 A2993 NOSIG=
201911172300 METAR MRPV 172300Z 10008KT 9999 FEW035 SCT120 BKN200 21/17 A2994 NOSIG=
201911180000 METAR MRPV 180000Z 09014KT 9999 FEW035 SCT120 BKN200 21/15 A2997 NOSIG=
201911180100 METAR MRPV NIL=
201911180200 METAR MRPV NIL=
201911180300 METAR MRPV NIL=
201911180400 METAR MRPV NIL=
201911180500 METAR MRPV NIL=
201911180600 METAR MRPV NIL=
201911180700 METAR MRPV NIL=
201911180800 METAR MRPV NIL=
201911180900 METAR MRPV NIL=
201911181000 METAR MRPV NIL=
201911181100 METAR MRPV NIL=
201911181200 METAR MRPV 181200Z 12008KT CAVOK 20/15 A3000 NOSIG=
201911181300 METAR MRPV 181300Z 11003KT 9999 DZ NSC 19/16 A3003 NOSIG=
201911181400 METAR MRPV 181400Z 13004KT 9999 -DZ FEW040 BKN100 20/16 A3005 NOSIG=
201911181500 METAR MRPV 181500Z 12008KT 9999 FEW040 BKN180 23/16 A3005 NOSIG=
201911181600 METAR MRPV 181600Z 11011KT 9999 FEW035 BKN200 25/17 A3004 NOSIG=
201911181700 METAR MRPV 181700Z 08009KT 9999 SCT035 BKN200 26/17 A3001 NOSIG=
201911181800 METAR MRPV 181800Z 09012KT 9999 SCT035 BKN200 25/17 A2998 NOSIG=
201911181900 METAR MRPV 181900Z 09013KT 9999 FEW035 BKN200 26/17 A2995 NOSIG=
201911182000 METAR MRPV 182000Z 09013KT 9999 FEW030 BKN200 26/16 A2994 NOSIG=
201911182100 METAR MRPV 182100Z 07005KT 9999 BKN025 25/17 A2994 BECMG 33005KT=
201911182200 METAR MRPV 182200Z 29006KT 9999 BKN020 21/19 A2996 NOSIG=
201911182300 METAR MRPV 182300Z 29005KT 9999 4000N RA BKN014 20/19 A2999 NOSIG=
201911190000 METAR MRPV 190000Z 31003KT 9999 BKN014 20/18 A3001 RERA NOSIG=
201911190100 METAR MRPV NIL=
201911190200 METAR MRPV NIL=
201911190300 METAR MRPV NIL=
201911190400 METAR MRPV NIL=
201911190500 METAR MRPV NIL=
201911190600 METAR MRPV NIL=
201911190700 METAR MRPV NIL=
201911190800 METAR MRPV NIL=
201911190900 METAR MRPV NIL=
201911191000 METAR MRPV NIL=
201911191100 METAR MRPV NIL=
201911191200 METAR MRPV 191200Z 11009KT 9999 FEW045 BKN200 20/15 A3004 NOSIG=
201911191300 METAR MRPV 191300Z 13006KT 9999 FEW035 SCT160 20/16 A3006 NOSIG=
201911191400 METAR MRPV 191400Z 10010KT 9999 FEW040 BKN140 21/16 A3008 NOSIG=
201911191500 METAR MRPV 191500Z 11010KT 9999 FEW035 BKN140 22/16 A3009 NOSIG=
201911191600 METAR MRPV 191600Z 11010KT 9999 FEW035 BKN140 22/17 A3007 NOSIG=
201911191700 METAR MRPV 191700Z 10014KT 9999 SCT035 BKN120 23/17 A3006 NOSIG=
201911191800 METAR MRPV 191800Z 08010KT 9999 FEW040 BKN120 25/17 A3003 NOSIG=
201911191900 METAR MRPV 191900Z 10008KT 9999 SCT040 BKN120 25/17 A3001 NOSIG=
201911192000 METAR MRPV 192000Z 11010KT 9999 4000N RA BKN025 23/17 A3001 NOSIG=
201911192100 METAR MRPV 192100Z 11008KT 9999 FEW025 BKN120 23/17 A3000 RERA NOSIG=
201911192200 METAR MRPV 192200Z 11014KT 9999 FEW025 BKN120 22/17 A3001 NOSIG=
201911192300 METAR MRPV 192300Z 11011KT 9999 FEW035 OVC120 21/16 A3003 NOSIG=
201911200000 METAR MRPV 200000Z 11008KT 9999 FEW040 OVC120 21/17 A3004 NOSIG=
201911200100 METAR MRPV NIL=
201911200200 METAR MRPV NIL=
201911200300 METAR MRPV NIL=
201911200400 METAR MRPV NIL=
201911200500 METAR MRPV NIL=
201911200600 METAR MRPV NIL=
201911200700 METAR MRPV NIL=
201911200800 METAR MRPV NIL=
201911200900 METAR MRPV NIL=
201911201000 METAR MRPV NIL=
201911201100 METAR MRPV NIL=
201911201200 METAR MRPV 201200Z 13006KT 9999 FEW040 BKN100 20/16 A3005 NOSIG=
201911201300 METAR MRPV 201300Z 13007KT 9999 FEW040 SCT100 21/16 A3007 NOSIG=
201911201400 METAR MRPV 201400Z 12007KT 9999 FEW035 BKN110 22/16 A3009 NOSIG=
201911201500 METAR MRPV 201500Z 08008KT 9999 FEW035 BKN110 23/17 A3011 NOSIG=
201911201600 METAR MRPV 201600Z 07002KT 9999 SCT040 SCT110 25/16 A3009 BECMG 29005KT=
201911201700 METAR MRPV 201700Z 30007KT 9999 -RA SCT040 BKN110 23/18 A3008 NOSIG=
201911201800 METAR MRPV 201800Z 28004KT 9999 FEW035 BKN070 22/19 A3005 NOSIG=
201911201900 METAR MRPV 201900Z 30001KT 9999 SCT025 BKN080 23/18 A3003 NOSIG=
201911202000 METAR MRPV 202000Z VRB02KT 9999 FEW030 BKN100 25/17 A3001 NOSIG=
201911202100 METAR MRPV 202100Z 27005KT 9999 SCT030 24/19 A3001 NOSIG=
201911202200 METAR MRPV 202200Z 28004KT 9999 BKN025 23/18 A3002 TEMPO 15006KT=
201911202300 METAR MRPV 202300Z VRB02KT 9999 BCFG FEW010 SCT030 BKN080 22/17 A3002 NOSIG=
201911210000 METAR MRPV 210000Z 34003KT 9999 BCFG FEW010 20/19 A3006 NOSIG=
201911210100 METAR MRPV NIL=
201911210200 METAR MRPV NIL=
201911210300 METAR MRPV NIL=
201911210400 METAR MRPV NIL=
201911210500 METAR MRPV NIL=
201911210600 METAR MRPV NIL=
201911210700 METAR MRPV NIL=
201911210800 METAR MRPV NIL=
201911210900 METAR MRPV NIL=
201911211000 METAR MRPV NIL=
201911211100 METAR MRPV NIL=
201911211200 METAR MRPV 211200Z 13010KT CAVOK 19/13 A3006 NOSIG=
201911211300 METAR MRPV 211300Z 13009KT CAVOK 20/14 A3009 NOSIG=
201911211400 METAR MRPV 211400Z 10010KT CAVOK 22/14 A3010 NOSIG=
201911211500 METAR MRPV 211500Z 09009KT CAVOK 24/14 A3010 NOSIG=
201911211600 METAR MRPV 211600Z 08010KT CAVOK 25/14 A3009 NOSIG=
201911211700 METAR MRPV 211700Z 07008KT CAVOK 26/15 A3007 NOSIG=
201911211800 METAR MRPV 211800Z 08009KT CAVOK 27/15 A3004 NOSIG=
201911211900 METAR MRPV 211900Z 09007KT 9999 FEW045 27/15 A3001 BECMG 28005KT=
201911212000 METAR MRPV 212000Z 29006KT 9999 FEW045 26/18 A2999 NOSIG=
201911212100 METAR MRPV 212100Z 27004KT 9999 FEW045 24/19 A2998 NOSIG=
201911212200 METAR MRPV 212200Z 28005KT 9999 SCT035 23/19 A3000 NOSIG=
201911212300 METAR MRPV 212300Z 28004KT 9999 SCT035 22/20 A3002 NOSIG=
201911220000 METAR MRPV 220000Z 27003KT 9999 BCFG FEW010 21/19 A3004 NOSIG=
201911220100 METAR MRPV NIL=
201911220200 METAR MRPV NIL=
201911220300 METAR MRPV NIL=
201911220400 METAR MRPV NIL=
201911220500 METAR MRPV NIL=
201911220600 METAR MRPV NIL=
201911220700 METAR MRPV NIL=
201911220800 METAR MRPV NIL=
201911220900 METAR MRPV NIL=
201911221000 METAR MRPV NIL=
201911221100 METAR MRPV NIL=
201911221200 METAR MRPV 221200Z 14006KT CAVOK 18/14 A3005 NOSIG=
201911221300 METAR MRPV 221300Z 14007KT CAVOK 20/14 A3007 NOSIG=
201911221400 METAR MRPV 221400Z 13009KT CAVOK 22/14 A3008 NOSIG=
201911221500 METAR MRPV 221500Z 12007KT CAVOK 25/14 A3008 NOSIG=
201911221600 METAR MRPV 221600Z 09005KT CAVOK 26/14 A3008 NOSIG=
201911221700 METAR MRPV 221700Z 29010KT 9999 FEW040 25/17 A3006 NOSIG=
201911221800 METAR MRPV 221800Z 29011KT 9999 SCT040 25/18 A3003 NOSIG=
201911221900 METAR MRPV 221900Z 30012KT 9999 SCT040 25/18 A3001 NOSIG=
201911222000 METAR MRPV 222000Z 27007KT 9999 SCT035 25/19 A2999 NOSIG=
201911222100 METAR MRPV 222100Z 28009KT 9999 FEW025 SCT035 24/19 A2999 NOSIG=
201911222200 METAR MRPV COR 222200Z 28008KT 9999 RA FEW015 FEW020TCU SCT025 24/19 A2999 NOSIG=
201911222300 METAR MRPV 222300Z 28005KT 6000 BKN020 SCT030 21/19 A3001 NOSIG=
201911230000 METAR MRPV 230000Z 29003KT 6000 BKN020 SCT030 21/19 A3002 NOSIG=
201911230100 METAR MRPV NIL=
201911230200 METAR MRPV NIL=
201911230300 METAR MRPV NIL=
201911230400 METAR MRPV NIL=
201911230500 METAR MRPV NIL=
201911230600 METAR MRPV NIL=
201911230700 METAR MRPV NIL=
201911230800 METAR MRPV NIL=
201911230900 METAR MRPV NIL=
201911231000 METAR MRPV NIL=
201911231100 METAR MRPV NIL=
201911231200 METAR MRPV 231200Z 13009KT 9999 FEW040 19/14 A3004 NOSIG=
201911231300 METAR MRPV 231300Z 13008KT CAVOK 21/13 A3006 NOSIG=
201911231400 METAR MRPV 231400Z 12012KT 9999 FEW040 22/14 A3008 NOSIG=
201911231500 METAR MRPV 231500Z 09012KT 9999 FEW045 24/15 A3009 NOSIG=
201911231600 METAR MRPV 231600Z 07011KT 9999 FEW045 26/14 A3008 NOSIG=
201911231700 METAR MRPV 231700Z 09009KT 9999 FEW045 27/15 A3005 NOSIG=
201911231800 METAR MRPV 231800Z 08005KT 9999 FEW040 27/14 A3003 BECMG 29005KT=
201911231900 METAR MRPV 231900Z 30013KT 9999 FEW035 25/19 A3000 NOSIG=
201911232000 METAR MRPV 232000Z 30009KT 9999 SCT035 26/19 A2998 NOSIG=
201911232100 METAR MRPV 232100Z 28008KT 9999 SCT035 25/19 A2998 NOSIG=
201911232200 METAR MRPV 232200Z 25003KT 9999 BKN035 24/19 A2999 NOSIG=
201911232300 METAR MRPV 232300Z 28004KT 9999 BCFG FEW015 SCT030 22/19 A3000 NOSIG=
201911240000 METAR MRPV 240000Z 00000KT 9999 VCFG FEW015 SCT025 21/19 A3002 NOSIG=
201911240100 METAR MRPV NIL=
201911240200 METAR MRPV NIL=
201911240300 METAR MRPV NIL=
201911240400 METAR MRPV NIL=
201911240500 METAR MRPV NIL=
201911240600 METAR MRPV NIL=
201911240700 METAR MRPV NIL=
201911240800 METAR MRPV NIL=
201911240900 METAR MRPV NIL=
201911241000 METAR MRPV NIL=
201911241100 METAR MRPV NIL=
201911241200 METAR MRPV 241200Z 14005KT CAVOK 19/14 A3004 NOSIG=
201911241300 METAR MRPV 241300Z 14007KT CAVOK 20/14 A3004 NOSIG=
201911241400 METAR MRPV 241400Z 15005KT CAVOK 23/14 A3005 NOSIG=
201911241500 METAR MRPV 241500Z 08010KT CAVOK 25/15 A3005 NOSIG=
201911241600 METAR MRPV 241600Z 08013KT 9999 SCT040 25/15 A3005 NOSIG=
201911241700 METAR MRPV 241700Z 08011KT 9999 FEW040 BKN060 24/16 A3004 NOSIG=
201911241800 METAR MRPV 241800Z 07010KT 9999 FEW040 SCT100 25/16 A3000 NOSIG=
201911241900 METAR MRPV 241900Z 07010KT 9999 FEW045 27/16 A2996 NOSIG=
201911242000 METAR MRPV 242000Z 06012KT 9999 FEW045 25/16 A2995 NOSIG=
201911242100 METAR MRPV 242100Z 08014KT 9999 FEW040 25/16 A2994 NOSIG=
201911242200 METAR MRPV 242200Z 08013KT 9999 SCT040 23/17 A2995 NOSIG=
201911242300 METAR MRPV 242300Z 08014KT 9999 BKN025 21/16 A2996 NOSIG=
201911250000 METAR MRPV 250000Z 09012KT 9999 SCT035 20/15 A2998 NOSIG=
201911250100 METAR MRPV NIL=
201911250200 METAR MRPV NIL=
201911250300 METAR MRPV NIL=
201911250400 METAR MRPV NIL=
201911250500 METAR MRPV NIL=
201911250600 METAR MRPV NIL=
201911250700 METAR MRPV NIL=
201911250800 METAR MRPV NIL=
201911250900 METAR MRPV NIL=
201911251000 METAR MRPV NIL=
201911251100 METAR MRPV NIL=
201911251200 METAR MRPV 251200Z 11012KT 9999 SCT030 20/15 A2998 NOSIG=
201911251300 METAR MRPV 251300Z 13009KT 9999 BKN030 20/16 A3000 NOSIG=
201911251400 METAR MRPV 251400Z 10011KT 9999 SCT025 SCT100 20/15 A3002 NOSIG=
201911251500 METAR MRPV 251500Z 10015KT 9999 SCT030 SCT100 22/16 A3003 NOSIG=
201911251600 METAR MRPV 251600Z 08014KT 9999 SCT025 SCT120 23/16 A3001 NOSIG=
201911251700 METAR MRPV 251700Z 09013KT 9999 SCT030 23/17 A2998 NOSIG=
201911251800 METAR MRPV COR 251800Z 08018KT 9999 FEW030 SCT120 24/17 A2995 NOSIG=
201911251900 METAR MRPV 251900Z 07015G25KT 9999 FEW035 24/17 A2992 NOSIG=
201911252000 METAR MRPV 252000Z 08018KT 9999 FEW035 24/17 A2990 NOSIG=
201911252100 METAR MRPV 252100Z 09014KT 9999 FEW035 SCT120 24/17 A2988 NOSIG=
201911252200 METAR MRPV 252200Z 09012KT 9999 FEW025 SCT120 22/16 A2990 NOSIG=
201911252300 METAR MRPV 252300Z 09012KT 9999 FEW025 21/16 A2990 NOSIG=
201911260000 METAR MRPV 260000Z 09013KT 9999 FEW025 21/16 A2992 NOSIG=
201911260100 METAR MRPV NIL=
201911260200 METAR MRPV NIL=
201911260300 METAR MRPV NIL=
201911260400 METAR MRPV NIL=
201911260500 METAR MRPV NIL=
201911260600 METAR MRPV NIL=
201911260700 METAR MRPV NIL=
201911260800 METAR MRPV NIL=
201911260900 METAR MRPV NIL=
201911261000 METAR MRPV NIL=
201911261100 METAR MRPV NIL=
201911261200 METAR MRPV 261200Z 12010KT CAVOK 20/15 A2994 NOSIG=
201911261300 METAR MRPV 261300Z 11012KT CAVOK 21/14 A2996 NOSIG=
201911261400 METAR MRPV 261400Z 11014G24KT CAVOK 23/15 A2998 NOSIG=
201911261500 METAR MRPV 261500Z 09015G25KT CAVOK 24/15 A2999 NOSIG=
201911261600 METAR MRPV 261600Z 08016KT 9999 FEW040 24/15 A2999 NOSIG=
201911261700 METAR MRPV 261700Z 08013KT 9999 FEW040 26/16 A2996 NOSIG=
201911261800 METAR MRPV 261800Z 09018KT 9999 FEW040 26/17 A2994 NOSIG=
201911261900 METAR MRPV 261900Z 08013KT 9999 FEW040 SCT120 26/17 A2991 NOSIG=
201911262000 METAR MRPV 262000Z 08013KT 9999 FEW045 25/18 A2989 NOSIG=
201911262100 METAR MRPV 262100Z 07012KT 9999 FEW045 25/17 A2987 NOSIG=
201911262200 METAR MRPV 262200Z 08012KT 9999 FEW035 25/17 A2988 NOSIG=
201911262300 METAR MRPV 262300Z 08013KT 9999 FEW025 23/17 A2990 NOSIG=
201911270000 METAR MRPV 270000Z 09011KT 9999 FEW025 22/17 A2992 NOSIG=
201911270100 METAR MRPV NIL=
201911270200 METAR MRPV NIL=
201911270300 METAR MRPV NIL=
201911270400 METAR MRPV NIL=
201911270500 METAR MRPV NIL=
201911270600 METAR MRPV NIL=
201911270700 METAR MRPV NIL=
201911270800 METAR MRPV NIL=
201911270900 METAR MRPV NIL=
201911271000 METAR MRPV NIL=
201911271100 METAR MRPV NIL=
201911271200 METAR MRPV 271200Z 12008KT 9999 DZ BKN025 22/18 A2996 NOSIG=
201911271300 METAR MRPV 271300Z 10010G20KT 9999 FEW025 SCT090 BKN200 23/18 A2998 REDZ NOSIG=
201911271400 METAR MRPV 271400Z 10017G27KT 9999 FEW025 SCT120 BKN200 24/18 A3000 NOSIG=
201911271500 METAR MRPV 271500Z 10014G24KT 9999 FEW040 BKN120 25/18 A3001 NOSIG=
201911271600 METAR MRPV 271600Z 09019G30KT 9999 FEW025 BKN120 25/18 A3000 NOSIG=
201911271700 METAR MRPV 271700Z 10015G25KT 9999 FEW045 BKN100 25/18 A2999 NOSIG=
201911271800 METAR MRPV 271800Z COR 09017KT 9999 FEW045 BKN120 26/17 A2996 WSR09 NOSIG=
201911271900 METAR MRPV 271900Z 09015KT 9999 FEW025 BKN120 24/17 A2997 WSR09 NOSIG=
201911272000 METAR MRPV 272000Z 09015KT 9999 FEW045 BKN120 24/18 A2993 WSR09 NOSIG=
201911272100 METAR MRPV 272100Z 08008KT 9999 FEW040 BKN120 26/18 A2995 WSR09 NOSIG=
201911272200 METAR MRPV 272200Z 09010KT 9999 FEW040 BKN120 25/18 A2994 WSR09 NOSIG=
201911272300 METAR MRPV 272300Z 09009KT 9999 BKN035 SCT110 24/18 A2996 WSR09 NOSIG=
201911280000 METAR MRPV 280000Z 12006KT 9999 SCT030 23/19 A2999 WSR09 NOSIG=
201911280100 METAR MRPV NIL=
201911280200 METAR MRPV NIL=
201911280300 METAR MRPV NIL=
201911280400 METAR MRPV NIL=
201911280500 METAR MRPV NIL=
201911280600 METAR MRPV NIL=
201911280700 METAR MRPV NIL=
201911280800 METAR MRPV NIL=
201911280900 METAR MRPV NIL=
201911281000 METAR MRPV NIL=
201911281100 METAR MRPV NIL=
201911281200 METAR MRPV 281200Z 12007KT 9999 -RA SCT025 BKN100 22/18 A3003 NOSIG=
201911281300 METAR MRPV 281300Z 09008KT 5000 +RA FEW035 BKN100 21/19 A3005 NOSIG=
201911281400 METAR MRPV COR 281400Z 06005KT 130V060 3500 +RA FEW010 OVC080 20/19 A3009 NOSIG=
201911281500 METAR MRPV 281500Z 08006KT 3000 TSRA FEW010 FEW020CB OVC060 20/18 A3011 NOSIG=
201911281600 METAR MRPV 281600Z 10004KT 8000 -RA FEW015 SCT060 BKN100 19/18 A3009 RESHRA NOSIG=
201911281700 METAR MRPV 281700Z 12005KT 9999 -RA SCT030 BKN100 21/19 A3006 NOSIG=
201911281800 METAR MRPV 281800Z 14005KT 9999 -RA SCT030 BKN120 23/19 A3004 NOSIG=
201911281900 METAR MRPV 281900Z 11011KT 9999 FEW030 OVC120 23/18 A3002 NOSIG=
201911282000 METAR MRPV 282000Z 08011KT 9999 SCT035 BKN120 24/19 A3000 NOSIG=
201911282100 METAR MRPV 282100Z 09005KT 9999 -DZ BKN035 SCT120 22/19 A3001 NOSIG=
201911282200 METAR MRPV 282200Z 11007KT 9999 DZ FEW020 BKN035 21/19 A3002 NOSIG=
201911282300 METAR MRPV 282300Z 09004KT 9999 DZ BKN035 21/19 A3003 NOSIG=
201911290000 METAR MRPV 290000Z 14005KT 9999 SCT030 BKN100 21/19 A3004 NOSIG=
201911290100 METAR MRPV NIL=
201911290200 METAR MRPV NIL=
201911290300 METAR MRPV NIL=
201911290400 METAR MRPV NIL=
201911290500 METAR MRPV NIL=
201911290600 METAR MRPV NIL=
201911290700 METAR MRPV NIL=
201911290800 METAR MRPV NIL=
201911290900 METAR MRPV NIL=
201911291000 METAR MRPV NIL=
201911291100 METAR MRPV NIL=
201911291200 METAR MRPV 291200Z 14008KT 9999 FEW035 SCT180 20/15 A3003 NOSIG=
201911291300 METAR MRPV 291300Z 13008KT 9999 SCT035 SCT180 21/17 A3006 NOSIG=
201911291400 METAR MRPV 291400Z 13010KT 9999 SCT030 SCT120 22/17 A3007 NOSIG=
201911291500 METAR MRPV 291500Z 12013KT 9999 SCT025 SCT160 22/17 A3008 NOSIG=
201911291600 METAR MRPV 291600Z 09014KT 9999 SCT030 SCT160 23/17 A3007 NOSIG=
201911291700 METAR MRPV 291700Z 08014KT 9999 FEW040 SCT120 25/18 A3005 NOSIG=
201911291800 METAR MRPV 291800Z 08014KT 9999 DZ BKN040 24/18 A3004 NOSIG=
201911291900 METAR MRPV 291900Z 10011KT 9999 SCT035 BKN080 24/18 A3003 REDZ NOSIG=
201911291913 METAR MRPV 291913Z 09012KT 9999 3500E +DZ SCT035 BKN080 24/18 A3002 NOSIG=
201911292000 METAR MRPV 292000Z 11006KT 9999 -RA SCT030 SCT060 21/18 A3001 REDZ NOSIG=
201911292100 METAR MRPV 292100Z 12008KT 9999 -RA SCT025 SCT060 22/18 A3000 NOSIG=
201911292200 METAR MRPV 292200Z 11007G18KT 9999 BKN025 SCT060 22/17 A2999 NOSIG=
201911292300 METAR MRPV 292300Z 12008KT 9999 SCT030 BKN080 22/17 A3000 NOSIG=
201911300000 METAR MRPV 300000Z 08013KT 9999 SCT030 SCT120 21/16 A3002 NOSIG=
201911300100 METAR MRPV NIL=
201911300200 METAR MRPV NIL=
201911300300 METAR MRPV NIL=
201911300400 METAR MRPV NIL=
201911300500 METAR MRPV NIL=
201911300600 METAR MRPV NIL=
201911300700 METAR MRPV NIL=
201911300800 METAR MRPV NIL=
201911300900 METAR MRPV NIL=
201911301000 METAR MRPV NIL=
201911301100 METAR MRPV NIL=
201911301200 METAR MRPV COR 301200Z 10016KT 9999 FEW035 BKN200 19/15 A3003 NOSIG=
201911301300 METAR MRPV 301300Z 08016KT 9999 FEW035 BKN200 20/14 A3004 NOSIG=
201911301400 METAR MRPV 301400Z 09016KT 9999 FEW030 BKN200 20/15 A3006 NOSIG=
201911301500 METAR MRPV 301500Z 08016G27KT 9999 SCT030 BKN200 21/15 A3006 NOSIG=
201911301600 METAR MRPV 301600Z 08016KT 9999 FEW035 BKN200 23/15 A3006 NOSIG=
201911301700 METAR MRPV 301700Z 08018KT 9999 FEW040 BKN200 23/15 A3003 NOSIG=
201911301800 METAR MRPV 301800Z 08017KT 9999 FEW035 SCT200 25/15 A3000 NOSIG=
201911301900 METAR MRPV 301900Z 08015KT 9999 FEW040 SCT200 25/16 A2997 WSR09 NOSIG=
201911302000 METAR MRPV 302000Z 09011KT 9999 SCT035 24/16 A2996 WSR09 NOSIG=
201911302100 METAR MRPV 302100Z 11008KT 9999 FEW035 24/17 A2995 WSR09 NOSIG=
201911302200 METAR MRPV 302200Z 12008KT 9999 FEW030 24/16 A2994 WSR09 NOSIG=
201911302300 METAR MRPV 302300Z 10011KT 9999 FEW025 22/17 A2995 WSR09 NOSIG=
201912010000 METAR MRPV 010000Z 11010KT 9999 FEW030 22/16 A2996 WSR09 NOSIG=
201912010100 METAR MRPV NIL=
201912010200 METAR MRPV NIL=
201912010300 METAR MRPV NIL=
201912010400 METAR MRPV NIL=
201912010500 METAR MRPV NIL=
201912010600 METAR MRPV NIL=
201912010700 METAR MRPV NIL=
201912010800 METAR MRPV NIL=
201912010900 METAR MRPV NIL=
201912011000 METAR MRPV NIL=
201912011100 METAR MRPV NIL=
201912011200 METAR MRPV 011200Z 13008KT 9999 FEW035 BKN200 19/15 A2999 NOSIG=
201912011300 METAR MRPV 011300Z 11009KT 9999 FEW040 BKN200 20/15 A3001 NOSIG=
201912011400 METAR MRPV 011400Z 11011KT CAVOK 22/15 A3002 NOSIG=
201912011500 METAR MRPV 011500Z 09015KT CAVOK 24/15 A3003 NOSIG=
201912011600 METAR MRPV 011600Z 09010KT CAVOK 25/16 A3003 NOSIG=
201912011700 METAR MRPV 011700Z 09012KT CAVOK 25/16 A3001 NOSIG=
201912011800 METAR MRPV 011800Z 09010KT CAVOK 27/17 A2998 NOSIG=
201912011900 METAR MRPV 011900Z 10010KT 9999 FEW040 27/17 A2996 NOSIG=
201912012000 METAR MRPV 012000Z 10010KT 9999 BKN040 26/17 A2995 NOSIG=
201912012100 METAR MRPV 012100Z 08011KT 9999 SCT035 25/17 A2994 NOSIG=
201912012200 METAR MRPV 012200Z 09011KT 9999 SCT035 24/17 A2994 NOSIG=
201912012300 METAR MRPV 012300Z 09011KT 9999 SCT035 23/17 A2997 NOSIG=
201912020000 METAR MRPV 020000Z 08005KT 9999 SCT030 21/19 A2998 NOSIG=
201912020100 METAR MRPV NIL=
201912020200 METAR MRPV NIL=
201912020300 METAR MRPV NIL=
201912020400 METAR MRPV NIL=
201912020500 METAR MRPV NIL=
201912020600 METAR MRPV NIL=
201912020700 METAR MRPV NIL=
201912020800 METAR MRPV NIL=
201912020900 METAR MRPV NIL=
201912021000 METAR MRPV NIL=
201912021100 METAR MRPV NIL=
201912021200 METAR MRPV 021200Z 14007KT CAVOK 19/15 A3004 NOSIG=
201912021300 METAR MRPV 021300Z 13009KT CAVOK 21/16 A3006 NOSIG=
201912021400 METAR MRPV 021400Z 10010KT CAVOK 23/16 A3008 NOSIG=
201912021500 METAR MRPV 021500Z 09014KT 9999 FEW035 24/16 A3009 NOSIG=
201912021600 METAR MRPV 021600Z 08015G25KT 9999 FEW045 24/16 A3008 NOSIG=
201912021700 METAR MRPV 021700Z 08014KT 9999 SCT040 25/17 A3006 NOSIG=
201912021800 METAR MRPV 021800Z 08014KT 9999 FEW040 SCT100 26/17 A3003 NOSIG=
201912021900 METAR MRPV 021900Z 09015KT 9999 -DZ FEW035 BKN100 24/17 A3001 NOSIG=
201912022000 METAR MRPV 022000Z 09014KT 9999 FEW030 BKN100 25/18 A2999 NOSIG=
201912022100 METAR MRPV 022100Z 07013KT 9999 FEW030 BKN090 24/17 A2998 NOSIG=
201912022200 METAR MRPV 022200Z 09013KT 9999 FEW025 SCT080 23/17 A3000 NOSIG=
201912022300 METAR MRPV 022300Z 09010KT 9999 SCT035 22/17 A3002 NOSIG=
201912030000 METAR MRPV 030000Z 09014KT 9999 SCT030 21/17 A3003 NOSIG=
201912030100 METAR MRPV NIL=
201912030200 METAR MRPV NIL=
201912030300 METAR MRPV NIL=
201912030400 METAR MRPV NIL=
201912030500 METAR MRPV NIL=
201912030600 METAR MRPV NIL=
201912030700 METAR MRPV NIL=
201912030800 METAR MRPV NIL=
201912030900 METAR MRPV NIL=
201912031000 METAR MRPV NIL=
201912031100 METAR MRPV NIL=
201912031200 METAR MRPV 031200Z 12010KT 9999 SCT030 20/16 A3004 NOSIG=
201912031300 METAR MRPV 031300Z 13013KT 9999 FEW030 21/17 A3006 NOSIG=
201912031400 METAR MRPV 031400Z 11015G25KT 9999 FEW030 21/17 A3007 NOSIG=
201912031500 METAR MRPV 031500Z COR 09012G22KT 9999 FEW030 SCT120 22/17 A3009 NOSIG=
201912031600 METAR MRPV 031600Z 09015G25KT 9999 FEW030 BKN120 23/17 A3007 NOSIG=
201912031700 METAR MRPV 031700Z 09017KT 9999 FEW030 BKN120 24/18 A3005 NOSIG=
201912031800 METAR MRPV 031800Z 11011KT 9999 FEW030 BKN120 25/17 A3001 NOSIG=
201912031900 METAR MRPV 031900Z 08018KT 9999 FEW025 BKN110 26/17 A2999 NOSIG=
201912032000 METAR MRPV 032000Z 11011KT 9999 FEW025 BKN110 24/16 A2997 NOSIG=
201912032100 METAR MRPV 032100Z 09013KT 9999 FEW025 BKN100 23/16 A2997 NOSIG=
201912032200 METAR MRPV 032200Z 10012KT 9999 FEW030 BKN110 22/16 A2998 NOSIG=
201912032300 METAR MRPV 032300Z 11006KT 9999 FEW030 BKN080 22/16 A3000 NOSIG=
201912040000 METAR MRPV 040000Z 11008KT 9999 FEW035 BKN100 21/16 A3001 NOSIG=
201912040100 METAR MRPV NIL=
201912040200 METAR MRPV NIL=
201912040300 METAR MRPV NIL=
201912040400 METAR MRPV NIL=
201912040500 METAR MRPV NIL=
201912040600 METAR MRPV NIL=
201912040700 METAR MRPV NIL=
201912040800 METAR MRPV NIL=
201912040900 METAR MRPV NIL=
201912041000 METAR MRPV NIL=
201912041100 METAR MRPV NIL=
201912041200 METAR MRPV 041200Z 13008KT 9999 FEW025 BKN250 18/14 A3004 NOSIG=
201912041300 METAR MRPV 041300Z 13007KT 9999 FEW030 BKN250 20/14 A3007 NOSIG=
201912041400 METAR MRPV 041400Z 14008KT CAVOK 21/14 A3008 NOSIG=
201912041500 METAR MRPV 041500Z 10014KT CAVOK 23/15 A3009 NOSIG=
201912041600 METAR MRPV 041600Z 10011KT CAVOK 24/15 A3007 NOSIG=
201912041700 METAR MRPV 041700Z 09010KT 9999 FEW040 26/16 A3005 NOSIG=
201912041800 METAR MRPV 041800Z 09010KT 9999 FEW045 27/16 A3002 NOSIG=
201912041900 METAR MRPV 041900Z 09011KT 9999 FEW035 SCT100 26/16 A2999 NOSIG=
201912042000 METAR MRPV COR 042000Z 09015KT 9999 FEW035 SCT080 24/16 A2998 NOSIG=
201912042100 METAR MRPV 042100Z 09014KT 9999 SCT030 BKN060 23/16 A2999 NOSIG=
201912042200 METAR MRPV 042200Z 10013KT 9999 SCT035 23/17 A3000 NOSIG=
201912042300 METAR MRPV 042300Z 12010KT 9999 SCT030 22/16 A3001 NOSIG=
201912050000 METAR MRPV 050000Z 11010KT 9999 SCT030 21/16 A3004 NOSIG=
201912050100 METAR MRPV NIL=
201912050200 METAR MRPV NIL=
201912050300 METAR MRPV NIL=
201912050400 METAR MRPV NIL=
201912050500 METAR MRPV NIL=
201912050600 METAR MRPV NIL=
201912050700 METAR MRPV NIL=
201912050800 METAR MRPV NIL=
201912050900 METAR MRPV NIL=
201912051000 METAR MRPV NIL=
201912051100 METAR MRPV NIL=
201912051200 METAR MRPV 051200Z 13010KT 9999 SCT030 20/16 A3004 NOSIG=
201912051300 METAR MRPV 051300Z 11010KT 9999 SCT030 21/17 A3007 NOSIG=
201912051400 METAR MRPV 051400Z 10014KT 9999 FEW035 SCT140 22/17 A3007 NOSIG=
201912051500 METAR MRPV 051500Z 08015KT 9999 FEW035 SCT140 23/16 A3008 NOSIG=
201912051600 METAR MRPV 051600Z 08015KT 9999 SCT035 SCT080 23/17 A3008 NOSIG=
201912051700 METAR MRPV 051700Z 07014G24KT 9999 SCT035 SCT120 24/17 A3007 NOSIG=
201912051800 METAR MRPV 051800Z 08013KT 9999 -RA SCT030 BKN060 23/17 A3005 NOSIG=
201912051900 METAR MRPV 051900Z 09014KT 9999 -RA FEW025 BKN070 23/16 A3003 NOSIG=
201912052000 METAR MRPV 052000Z 09014KT 9999 FEW025 BKN090 24/17 A3001 NOSIG=
201912052100 METAR MRPV 052100Z 08013KT 9999 FEW030 BKN100 23/16 A2999 NOSIG=
201912052200 METAR MRPV 052200Z 0801KT 9999 -RA FEW025 OVC100 21/17 A3001 NOSIG=
201912052300 METAR MRPV 052300Z 09011KT 9999 -DZ FEW020 OVC100 21/17 A3005 NOSIG=
201912060000 METAR MRPV 060000Z 12008KT 9999 -DZ FEW030 OVC100 20/17 A3006 NOSIG=
201912060100 METAR MRPV NIL=
201912060200 METAR MRPV NIL=
201912060300 METAR MRPV NIL=
201912060400 METAR MRPV NIL=
201912060500 METAR MRPV NIL=
201912060600 METAR MRPV NIL=
201912060700 METAR MRPV NIL=
201912060800 METAR MRPV NIL=
201912060900 METAR MRPV NIL=
201912061000 METAR MRPV NIL=
201912061100 METAR MRPV NIL=
201912061200 METAR MRPV 061200Z 11010KT 9999 FEW035 BKN200 21/17 A3007 NOSIG=
201912061300 METAR MRPV 061300Z 13008KT 9999 -RA SCT030 SCT200 22/17 A3009 NOSIG=
201912061400 METAR MRPV 061400Z 12012KT 3000 +RA BKN020 20/17 A3012 NOSIG=
201912061500 METAR MRPV 061500Z 10013KT 8000 -RA SCT020 BKN060 20/17 A3014 NOSIG=
201912061600 METAR MRPV 061600Z 11009KT 8000 -RA SCT030 BKN100 20/18 A3012 NOSIG=
201912061700 METAR MRPV 061700Z 13009KT 8000 -RA SCT030 BKN100 20/17 A3011 NOSIG=
201912061800 METAR MRPV 061800Z 13010KT 9999 -RA FEW035 OVC120 20/17 A3009 NOSIG=
201912061900 METAR MRPV 061900Z 11009KT 9000 -RA FEW025 OVC120 20/17 A3007 NOSIG=
201912062000 METAR MRPV 062000Z 09012KT 9999 -DZ FEW025 OVC120 21/16 A3006 NOSIG=
201912062100 METAR MRPV 062100Z 10011KT 9999 -DZ FEW040 OVC120 21/16 A3005 NOSIG=
201912062200 METAR MRPV 062200Z 09016G26KT 9999 -DZ FEW030 OVC100 21/16 A3005 NOSIG=
201912062300 METAR MRPV 062300Z 12010KT CAVOK 21/15 A3006 NOSIG=
201912070000 METAR MRPV 070000Z 11009KT 9999 FEW045 OVC120 21/15 A3008 NOSIG=
201912070100 METAR MRPV NIL=
201912070200 METAR MRPV NIL=
201912070300 METAR MRPV NIL=
201912070400 METAR MRPV NIL=
201912070500 METAR MRPV NIL=
201912070600 METAR MRPV NIL=
201912070700 METAR MRPV NIL=
201912070800 METAR MRPV NIL=
201912070900 METAR MRPV NIL=
201912071000 METAR MRPV NIL=
201912071100 METAR MRPV NIL=
201912071200 METAR MRPV 071200Z 15006KT 9999 DZ SCT030 BKN100 20/16 A3010 NOSIG=
201912071300 METAR MRPV 071300Z 11007KT 9999 FEW030 SCT100 21/17 A3012 REDZ NOSIG=
201912071400 METAR MRPV 071400Z 09014KT 9999 FEW035 23/17 A3013 NOSIG=
201912071500 METAR MRPV 071500Z 09011KT 9999 SCT035 23/17 A3015 NOSIG=
201912071600 METAR MRPV 071600Z 10011G23KT 9999 SCT035 24/17 A3014 NOSIG=
201912071700 METAR MRPV 071700Z 10010KT 9999 FEW030 SCT100 25/17 A3012 NOSIG=
201912071800 METAR MRPV 071800Z 09014KT 9999 FEW045 SCT100 26/17 A3007 NOSIG=
201912071900 METAR MRPV 071900Z 07012KT 9999 SCT045 SCT100 26/17 A3006 NOSIG=
201912072000 METAR MRPV 072000Z 08012KT 9999 FEW035 BKN100 27/17 A3004 NOSIG=
201912072100 METAR MRPV 072100Z 09012KT 9999 FEW030 BKN100 24/17 A3004 NOSIG=
201912072200 METAR MRPV 072200Z 08013KT 9999 FEW030 BKN100 23/17 A3005 NOSIG=
201912072300 METAR MRPV 072300Z 09011G21KT 9999 FEW030 BKN100 22/16 A3006 NOSIG=
201912080000 METAR MRPV 080000Z 10011KT 9999 FEW030 BKN100 22/17 A3008 NOSIG=
201912080100 METAR MRPV NIL=
201912080200 METAR MRPV NIL=
201912080300 METAR MRPV NIL=
201912080400 METAR MRPV NIL=
201912080500 METAR MRPV NIL=
201912080600 METAR MRPV NIL=
201912080700 METAR MRPV NIL=
201912080800 METAR MRPV NIL=
201912080900 METAR MRPV NIL=
201912081000 METAR MRPV NIL=
201912081100 METAR MRPV NIL=
201912081200 METAR MRPV 081200Z 10017G27KT CAVOK 20/14 A3006 NOSIG=
201912081300 METAR MRPV 081300Z 10016KT CAVOK 20/14 A3008 NOSIG=
201912081400 METAR MRPV 081400Z 10017G27KT CAVOK 22/14 A3011 NOSIG=
201912081500 METAR MRPV 081500Z 08016G26KT CAVOK 23/16 A3011 NOSIG=
201912081600 METAR MRPV 081600Z 07013G23KT 9999 FEW040 BKN200 24/16 A3011 NOSIG=
201912081700 METAR MRPV 081700Z 09014KT 9999 FEW040 SCT080 24/17 A3008 NOSIG=
201912081800 METAR MRPV 081800Z 07015KT 9999 FEW035 SCT080 24/16 A3006 NOSIG=
201912081900 METAR MRPV 081900Z 06012KT 9999 FEW035 SCT070 24/17 A3003 NOSIG=
201912082000 METAR MRPV 082000Z 08014KT 9999 FEW035 SCT070 25/16 A3001 NOSIG=
201912082100 METAR MRPV 082100Z 07013KT 9999 SCT040 24/17 A2999 NOSIG=
201912082200 METAR MRPV 082200Z 07014KT 9999 FEW030 SCT070 24/16 A3000 NOSIG=
201912082300 METAR MRPV 082300Z 09013KT 9999 FEW025 SCT045 21/15 A3001 NOSIG=
201912090000 METAR MRPV 090000Z 09013KT CAVOK 20/13 A3003 NOSIG=
201912090100 METAR MRPV NIL=
201912090200 METAR MRPV NIL=
201912090300 METAR MRPV NIL=
201912090400 METAR MRPV NIL=
201912090500 METAR MRPV NIL=
201912090600 METAR MRPV NIL=
201912090700 METAR MRPV NIL=
201912090800 METAR MRPV NIL=
201912090900 METAR MRPV NIL=
201912091000 METAR MRPV NIL=
201912091100 METAR MRPV NIL=
201912091200 METAR MRPV 091200Z 11010KT 9999 FEW040 20/14 A3003 NOSIG=
201912091300 METAR MRPV 091300Z 10011G21KT 9999 FEW035 20/15 A3005 NOSIG=
201912091400 METAR MRPV 091400Z 11012G23KT 9999 FEW040 22/16 A3005 NOSIG=
201912091500 METAR MRPV 091500Z 09013G23KT 9999 SCT040 22/16 A3006 NOSIG=
201912091600 METAR MRPV 091600Z 09013KT 9999 SCT040 24/16 A3006 NOSIG=
201912091700 METAR MRPV 091700Z 07010G20KT 9999 FEW045 26/16 A3004 NOSIG=
201912091800 METAR MRPV 091800Z 07011KT 9999 SCT045 25/16 A3001 NOSIG=
201912091900 METAR MRPV 091900Z 08011KT 9999 BKN035 24/16 A2998 NOSIG=
201912092000 METAR MRPV 092000Z 09011KT 9999 SCT045 25/16 A2996 NOSIG=
201912092100 METAR MRPV 092100Z 07010KT 9999 BKN045 26/16 A2994 NOSIG=
201912092200 METAR MRPV 092200Z 07011KT 9999 SCT035 25/16 A2994 NOSIG=
201912092300 METAR MRPV 092300Z 07008KT 9999 FEW030 23/16 A2996 NOSIG=
201912100000 METAR MRPV 100000Z 09008KT 9999 FEW035 21/16 A2997 NOSIG=
201912100100 METAR MRPV NIL=
201912100200 METAR MRPV NIL=
201912100300 METAR MRPV NIL=
201912100400 METAR MRPV NIL=
201912100500 METAR MRPV NIL=
201912100600 METAR MRPV NIL=
201912100700 METAR MRPV NIL=
201912100800 METAR MRPV NIL=
201912100900 METAR MRPV NIL=
201912101000 METAR MRPV NIL=
201912101100 METAR MRPV NIL=
201912101200 METAR MRPV 101200Z 12008KT 9999 FEW035 20/15 A3001 NOSIG=
201912101300 METAR MRPV 101300Z 11010KT 9999 FEW035 22/14 A3002 NOSIG=
201912101400 METAR MRPV 101400Z 10011KT 9999 FEW045 23/14 A3004 NOSIG=
201912101500 METAR MRPV 101500Z 09012KT CAVOK 24/15 A3004 NOSIG=
201912101600 METAR MRPV 101600Z 08015KT 9999 FEW045 25/16 A3005 NOSIG=
201912101700 METAR MRPV 101700Z 07014KT 9999 FEW045 25/16 A3003 NOSIG=
201912101800 METAR MRPV 101800Z 08013KT 9999 FEW045 26/16 A3001 NOSIG=
201912101900 METAR MRPV 101900Z 08012KT 9999 FEW045 27/16 A2998 NOSIG=
201912102000 METAR MRPV 102000Z 09012KT 9999 FEW035 26/16 A2996 NOSIG=
201912102100 METAR MRPV 102100Z 07011KT 9999 FEW035 26/16 A2995 NOSIG=
201912102200 METAR MRPV 102200Z 07011KT 9999 FEW040 25/15 A2995 NOSIG=
201912102300 METAR MRPV 102300Z 07010KT 9999 FEW035 BKN200 23/15 A2997 NOSIG=
201912110000 METAR MRPV 110000Z 09009KT 9999 FEW035 BKN200 22/15 A2999 NOSIG=
201912110100 METAR MRPV NIL=
201912110200 METAR MRPV NIL=
201912110300 METAR MRPV NIL=
201912110400 METAR MRPV NIL=
201912110500 METAR MRPV NIL=
201912110600 METAR MRPV NIL=
201912110700 METAR MRPV NIL=
201912110800 METAR MRPV NIL=
201912110900 METAR MRPV NIL=
201912111000 METAR MRPV NIL=
201912111100 METAR MRPV NIL=
201912111200 METAR MRPV 111200Z 13009KT CAVOK 19/14 A3003 NOSIG=
201912111300 METAR MRPV 111300Z 13010KT CAVOK 20/14 A3005 NOSIG=
201912111400 METAR MRPV 111400Z 11014KT CAVOK 22/15 A3008 NOSIG=
201912111500 METAR MRPV 111500Z 08013KT 9999 FEW045 BKN120 22/15 A3008 NOSIG=
201912111600 METAR MRPV 111600Z 08012KT 9999 FEW045 BKN180 23/15 A3009 NOSIG=
201912111700 METAR MRPV 111700Z 07011KT 9999 FEW045 BKN180 24/15 A3006 NOSIG=
201912111800 METAR MRPV 111800Z 08011KT 9999 FEW040 BKN180 24/16 A3005 NOSIG=
201912111900 METAR MRPV 111900Z 08012KT 9999 FEW040 BKN180 25/16 A3002 NOSIG=
201912112000 METAR MRPV 112000Z 11009KT 9999 SCT035 BKN180 24/18 A3000 NOSIG=
201912112100 METAR MRPV 112100Z 10009KT 9999 SCT035 BKN180 24/17 A3000 NOSIG=
201912112200 METAR MRPV 112200Z 09012KT 9999 SCT035 SCT160 23/17 A3000 NOSIG=
201912112300 METAR MRPV 112300Z 11008KT 9999 SCT030 SCT200 22/17 A3001 NOSIG=
201912120000 METAR MRPV 120000Z 11007KT 9999 SCT035 SCT200 21/17 A3001 NOSIG=
201912120100 METAR MRPV NIL=
201912120200 METAR MRPV NIL=
201912120300 METAR MRPV NIL=
201912120400 METAR MRPV NIL=
201912120500 METAR MRPV NIL=
201912120600 METAR MRPV NIL=
201912120700 METAR MRPV NIL=
201912120800 METAR MRPV NIL=
201912120900 METAR MRPV NIL=
201912121000 METAR MRPV NIL=
201912121100 METAR MRPV NIL=
201912121200 METAR MRPV 121200Z 12012KT 9999 FEW030 BKN200 20/16 A3002 NOSIG=
201912121300 METAR MRPV 121300Z 12013G23KT 9999 FEW035 BKN200 21/15 A3004 NOSIG=
201912121400 METAR MRPV 121400Z 10016KT 9999 FEW035 BKN200 23/15 A3006 NOSIG=
201912121500 METAR MRPV 121500Z 09015G25KT 9999 FEW040 BKN200 24/16 A3006 NOSIG=
201912121600 METAR MRPV 121600Z 08014G24KT 9999 SCT035 24/17 A3006 NOSIG=
201912121700 METAR MRPV 121700Z 11012KT 9999 DZ SCT035 SCT060 23/16 A3005 NOSIG=
201912121800 METAR MRPV 121800Z 08016KT 9999 SCT035 SCT200 25/16 A3003 REDZ NOSIG=
201912121900 METAR MRPV 121900Z 09009KT 9999 FEW045 SCT100 25/16 A2999 NOSIG=
201912122000 METAR MRPV 122000Z 08013KT 9999 FEW035 SCT200 24/16 A2998 NOSIG=
201912122100 METAR MRPV 122100Z 09008KT 9999 FEW035 SCT200 24/15 A2996 NOSIG=
201912122200 METAR MRPV 122200Z 08010G20KT 9999 FEW035 SCT200 23/16 A2997 NOSIG=
201912122300 METAR MRPV 122300Z 08015KT 9999 FEW030 BKN200 22/16 A2997 NOSIG=
201912130000 METAR MRPV 130000Z 10013KT 9999 FEW030 BKN200 22/16 A3000 NOSIG=
201912130100 METAR MRPV NIL=
201912130200 METAR MRPV NIL=
201912130300 METAR MRPV NIL=
201912130400 METAR MRPV NIL=
201912130500 METAR MRPV NIL=
201912130600 METAR MRPV NIL=
201912130700 METAR MRPV NIL=
201912130800 METAR MRPV NIL=
201912130900 METAR MRPV NIL=
201912131000 METAR MRPV NIL=
201912131100 METAR MRPV NIL=
201912131200 METAR MRPV 131200Z 10012KT 9999 FEW040 BKN130 20/14 A3000 NOSIG=
201912131300 METAR MRPV 131300Z 12008KT CAVOK 20/14 A3001 NOSIG=
201912131400 METAR MRPV 131400Z 09014G24KT CAVOK 21/14 A3004 NOSIG=
201912131500 METAR MRPV 131500Z 09015KT CAVOK 22/14 A3004 NOSIG=
201912131600 METAR MRPV 131600Z 08014KT CAVOK 23/15 A3004 NOSIG=
201912131700 METAR MRPV 131700Z 06012KT CAVOK 23/14 A3002 NOSIG=
201912131800 METAR MRPV 131800Z 07011KT CAVOK 24/15 A3000 NOSIG=
201912131900 METAR MRPV 131900Z 08011KT 9999 FEW035 BKN180 24/15 A2997 NOSIG=
201912132000 METAR MRPV 132000Z 10009KT 9999 FEW035 BKN180 23/16 A2996 NOSIG=
201912132100 METAR MRPV 132100Z 08009KT 9999 FEW035 BKN200 23/16 A2994 NOSIG=
201912132200 METAR MRPV 132200Z 10008KT 9999 FEW035 OVC200 23/15 A2995 NOSIG=
201912132300 METAR MRPV 132300Z 09010KT 9999 FEW030 OVC200 22/16 A2996 NOSIG=
201912140000 METAR MRPV 140000Z 11007KT 9999 FEW030 OVC200 20/15 A2998 NOSIG=
201912140100 METAR MRPV NIL=
201912140200 METAR MRPV NIL=
201912140300 METAR MRPV NIL=
201912140400 METAR MRPV NIL=
201912140500 METAR MRPV NIL=
201912140600 METAR MRPV NIL=
201912140700 METAR MRPV NIL=
201912140800 METAR MRPV NIL=
201912140900 METAR MRPV NIL=
201912141000 METAR MRPV NIL=
201912141100 METAR MRPV NIL=
201912141200 METAR MRPV 141200Z 12011KT CAVOK 18/12 A3001 NOSIG=
201912141300 METAR MRPV 141300Z 13012KT CAVOK 20/12 A3004 NOSIG=
201912141400 METAR MRPV 141400Z 12011KT CAVOK 22/13 A3006 NOSIG=
201912141500 METAR MRPV 141500Z 11009KT CAVOK 24/12 A3006 NOSIG=
201912141600 METAR MRPV 141600Z 08010KT CAVOK 24/13 A3005 NOSIG=
201912141700 METAR MRPV 141700Z 07006KT CAVOK 26/14 A3003 NOSIG=
201912141800 METAR MRPV 141800Z 13005KT CAVOK 27/14 A3000 NOSIG=
201912141900 METAR MRPV 141900Z 28009KT 9999 SCT045 25/18 A2998 NOSIG=
201912142000 METAR MRPV 142000Z 28009KT 9999 SCT040 26/18 A2997 NOSIG=
201912142100 METAR MRPV 142100Z 27006KT 9999 SCT035 SCT200 25/18 A2996 NOSIG=
201912142200 METAR MRPV 142200Z 28009KT 9999 SCT030 SCT200 23/18 A2996 NOSIG=
201912142300 METAR MRPV 142300Z 27003KT 9999 BKN030 22/18 A2998 NOSIG=
201912150000 METAR MRPV 150000Z 30003KT 9999 BKN035 22/18 A3000 NOSIG=
201912150100 METAR MRPV NIL=
201912150200 METAR MRPV NIL=
201912150300 METAR MRPV NIL=
201912150400 METAR MRPV NIL=
201912150500 METAR MRPV NIL=
201912150600 METAR MRPV NIL=
201912150700 METAR MRPV NIL=
201912150800 METAR MRPV NIL=
201912150900 METAR MRPV NIL=
201912151000 METAR MRPV NIL=
201912151100 METAR MRPV NIL=
201912151200 METAR MRPV 151200Z 13008KT CAVOK 18/14 A3004 NOSIG=
201912151300 METAR MRPV 151300Z 13008KT CAVOK 20/14 A3007 NOSIG=
201912151400 METAR MRPV 151400Z 12010KT CAVOK 22/15 A3008 NOSIG=
201912151500 METAR MRPV 151500Z 09011KT CAVOK 23/15 A3009 NOSIG=
201912151600 METAR MRPV 151600Z 07009KT CAVOK 25/15 A3007 NOSIG=
201912151700 METAR MRPV 151700Z 07007KT CAVOK 26/15 A3004 NOSIG=
201912151800 METAR MRPV 151800Z 08011KT CAVOK 26/15 A3002 NOSIG=
201912151900 METAR MRPV 151900Z 07013KT 9999 FEW045 26/15 A2999 NOSIG=
201912152000 METAR MRPV 152000Z 06012KT 9999 FEW045 26/15 A2997 NOSIG=
201912152100 METAR MRPV 152100Z 06013KT 9999 FEW045 26/14 A2996 NOSIG=
201912152200 METAR MRPV 152200Z 08014KT 9999 FEW040 25/14 A2996 NOSIG=
201912152300 METAR MRPV 152300Z 08010KT 9999 FEW035 23/14 A2998 NOSIG=
201912160000 METAR MRPV 160000Z 10007KT 9999 FEW035 22/14 A2999 NOSIG=
201912160100 METAR MRPV NIL=
201912160200 METAR MRPV NIL=
201912160300 METAR MRPV NIL=
201912160400 METAR MRPV NIL=
201912160500 METAR MRPV NIL=
201912160600 METAR MRPV NIL=
201912160700 METAR MRPV NIL=
201912160800 METAR MRPV NIL=
201912160900 METAR MRPV NIL=
201912161000 METAR MRPV NIL=
201912161100 METAR MRPV NIL=
201912161200 METAR MRPV 161200Z 13008KT CAVOK 19/13 A3003 NOSIG=
201912161300 METAR MRPV 161300Z 13009KT CAVOK 20/13 A3005 NOSIG=
201912161400 METAR MRPV 161400Z 13007KT CAVOK 22/14 A3006 NOSIG=
201912161500 METAR MRPV 161500Z 09012KT CAVOK 24/14 A3006 NOSIG=
201912161600 METAR MRPV 161600Z 09009KT CAVOK 25/14 A3003 NOSIG=
201912161700 METAR MRPV 161700Z 10009KT CAVOK 27/15 A3000 NOSIG=
201912161800 METAR MRPV 161800Z 08009KT 9999 FEW045 27/16 A2998 NOSIG=
201912161900 METAR MRPV 161900Z 07005KT 9999 SCT045 26/17 A2996 NOSIG=
201912162000 METAR MRPV 162000Z 06005KT 9999 FEW045 SCT080 27/16 A2994 NOSIG=
201912162100 METAR MRPV 162100Z 27008KT 9999 FEW040 SCT060 24/19 A2993 NOSIG=
201912162200 METAR MRPV 162200Z 27007KT 8000 BCFG FEW010 SCT040 23/20 A2995 NOSIG=
201912162300 METAR MRPV 162300Z 32005KT 8000 BCFG FEW010 SCT025 BKN060 21/19 A2996 NOSIG=
201912170000 METAR MRPV 170000Z 28002KT 8000 FEW010 SCT025 BKN060 21/18 A2997 NOSIG=
201912170100 METAR MRPV NIL=
201912170200 METAR MRPV NIL=
201912170300 METAR MRPV NIL=
201912170400 METAR MRPV NIL=
201912170500 METAR MRPV NIL=
201912170600 METAR MRPV NIL=
201912170700 METAR MRPV NIL=
201912170800 METAR MRPV NIL=
201912170900 METAR MRPV NIL=
201912171000 METAR MRPV NIL=
201912171100 METAR MRPV NIL=
201912171200 METAR MRPV 171200Z 12008KT 9999 FEW030 20/16 A2999 NOSIG=
201912171300 METAR MRPV 171300Z 12008KT 9999 FEW030 21/16 A3001 NOSIG=
201912171400 METAR MRPV 171400Z 11009KT 9999 FEW035 23/16 A3001 NOSIG=
201912171500 METAR MRPV 171500Z 10012KT 9999 FEW040 24/16 A3001 NOSIG=
201912171600 METAR MRPV 171600Z 08014KT 9999 FEW045 25/16 A2999 NOSIG=
201912171700 METAR MRPV 171700Z 07010KT 9999 FEW040 27/16 A2996 NOSIG=
201912171800 METAR MRPV 171800Z 07012KT 9999 SCT040 27/17 A2994 NOSIG=
201912171900 METAR MRPV 171900Z 10014KT 9999 SCT035 26/17 A2991 NOSIG=
201912172000 METAR MRPV 172000Z 09016KT 9999 SCT035 SCT080 25/16 A2989 NOSIG=
201912172100 METAR MRPV 172100Z 10013KT 9999 SCT035 SCT100 24/17 A2988 NOSIG=
201912172200 METAR MRPV 172200Z 10012KT 9999 SCT025 SCT060 BKN100 23/16 A2998 NOSIG=
201912172300 METAR MRPV 172300Z 09014KT 9999 SCT030 BKN060 23/16 A2992 NOSIG=
201912180000 METAR MRPV 180000Z 09012KT 9999 SCT030 BKN080 22/16 A2994 NOSIG=
201912180100 METAR MRPV NIL=
201912180200 METAR MRPV NIL=
201912180300 METAR MRPV NIL=
201912180400 METAR MRPV NIL=
201912180500 METAR MRPV NIL=
201912180600 METAR MRPV NIL=
201912180700 METAR MRPV NIL=
201912180800 METAR MRPV NIL=
201912180900 METAR MRPV NIL=
201912181000 METAR MRPV NIL=
201912181100 METAR MRPV NIL=
201912181200 METAR MRPV 181200Z 13008KT CAVOK 20/15 A2996 NOSIG=
201912181300 METAR MRPV 181300Z 12008KT 9999 FEW035 BKN140 21/16 A2998 NOSIG=
201912181400 METAR MRPV 181400Z 10012KT 9999 FEW035 BKN160 23/16 A3001 NOSIG=
201912181500 METAR MRPV 181500Z 08013KT 9999 FEW040 BKN160 24/16 A3001 NOSIG=
201912181600 METAR MRPV 181600Z 08015KT CAVOK 24/16 A3000 NOSIG=
201912181700 METAR MRPV 181700Z 08013KT CAVOK 24/16 A2999 NOSIG=
201912181800 METAR MRPV 181800Z 07012KT 9999 FEW040 BKN160 26/15 A2996 NOSIG=
201912181900 METAR MRPV 181900Z 08010KT 9999 FEW045 BKN200 26/16 A2993 NOSIG=
201912182000 METAR MRPV 182000Z 09014KT 9999 FEW040 BKN200 26/16 A2991 NOSIG=
201912182100 METAR MRPV 182100Z 09011KT 9999 FEW045 BKN200 26/16 A2990 NOSIG=
201912182200 METAR MRPV 182200Z 10011KT 9999 SCT035 BKN200 25/16 A2991 NOSIG=
201912182300 METAR MRPV 182300Z 09006KT 9999 BKN035 24/17 A2994 NOSIG=
201912190000 METAR MRPV 190000Z 11009KT 9999 SCT035 22/17 A2995 NOSIG=
201912190100 METAR MRPV NIL=
201912190200 METAR MRPV NIL=
201912190300 METAR MRPV NIL=
201912190400 METAR MRPV NIL=
201912190500 METAR MRPV NIL=
201912190600 METAR MRPV NIL=
201912190700 METAR MRPV NIL=
201912190800 METAR MRPV NIL=
201912190900 METAR MRPV NIL=
201912191000 METAR MRPV NIL=
201912191100 METAR MRPV NIL=
201912191200 METAR MRPV 191200Z 14009KT 9000 -DZ FEW020 SCT080 19/17 A2997 NOSIG=
201912191300 METAR MRPV 191300Z 12008KT 9999 FEW035 SCT080 21/16 A2999 NOSIG=
201912191400 METAR MRPV 191400Z 09012KT 9999 FEW035 SCT080 22/17 A3002 NOSIG=
201912191500 METAR MRPV 191500Z 08016KT 9999 SCT035 22/17 A3003 NOSIG=
201912191600 METAR MRPV 191600Z 10010G20KT 9999 SCT035 23/17 A3002 NOSIG=
201912191700 METAR MRPV 191700Z 12010G20KT 9999 FEW030 SCT070 25/18 A3000 NOSIG=
201912191730 METAR MRPV 191730Z 09011G21KT 9999 4000E +DZ FEW030 SCT070 24/18 A2999 NOSIG=
201912191800 METAR MRPV 191800Z 13008KT 9999 DZ FEW035 BKN070 23/18 A2998 NOSIG=
201912191900 METAR MRPV 191900Z 11012KT 9999 SCT035 BKN070 24/18 A2996 REDZ NOSIG=
201912192000 METAR MRPV 192000Z 09012KT 9999 DZ SCT030 BKN080 24/18 A2996 NOSIG=
201912192100 METAR MRPV 192100Z 10012KT 9999 -DZ FEW025 BKN100 22/17 A2995 NOSIG=
201912192200 METAR MRPV 192200Z 09011KT 9999 FEW030 SCT120 23/17 A2993 NOSIG=
201912192300 METAR MRPV 192300Z 09008KT 9999 BKN030 SCT100 23/16 A2996 NOSIG=
201912200000 METAR MRPV 200000Z 13005KT 9999 BKN030 SCT100 22/17 A2996 NOSIG=
201912200100 METAR MRPV NIL=
201912200200 METAR MRPV NIL=
201912200300 METAR MRPV NIL=
201912200400 METAR MRPV NIL=
201912200500 METAR MRPV NIL=
201912200600 METAR MRPV NIL=
201912200700 METAR MRPV NIL=
201912200800 METAR MRPV NIL=
201912200900 METAR MRPV NIL=
201912201000 METAR MRPV NIL=
201912201100 METAR MRPV NIL=
201912201200 METAR MRPV 201200Z 11008KT 9999 FEW030 SCT100 21/17 A2999 NOSIG=
201912201300 METAR MRPV 201300Z 12007KT 9999 FEW030 SCT100 21/17 A3001 NOSIG=
201912201400 METAR MRPV 201400Z 10013KT 9999 FEW030 SCT060 21/17 A3004 NOSIG=
201912201500 METAR MRPV 201500Z 10013KT 9999 FEW025 SCT100 23/17 A3003 NOSIG=
201912201600 METAR MRPV 201600Z 07013G23KT 9999 FEW035 BKN120 24/17 A3002 NOSIG=
201912201700 METAR MRPV 201700Z 09013G23KT 9999 FEW040 BKN120 25/17 A3000 NOSIG=
201912201800 METAR MRPV 201800Z COR 08014KT 9999 FEW045 BKN120 25/16 A2997 WSR09 NOSIG=
201912201900 METAR MRPV 201900Z 08011KT 9999 FEW035 BKN120 25/16 A2996 NOSIG=
201912202000 METAR MRPV 202000Z 08012KT 9999 FEW040 BKN140 26/16 A2993 NOSIG=
201912202100 METAR MRPV 202100Z 10010KT 9999 FEW035 BKN140 26/16 A2991 NOSIG=
201912202200 METAR MRPV 202200Z 11006KT 9999 SCT030 BKN090 25/16 A2993 NOSIG=
201912202300 METAR MRPV 202300Z 10008KT 9999 FEW010 SCT025 BKN070 23/17 A2995 NOSIG=
201912210000 METAR MRPV 210000Z 12005KT 9999 FEW020 BKN080 22/17 A2997 NOSIG=
201912210100 METAR MRPV NIL=
201912210200 METAR MRPV NIL=
201912210300 METAR MRPV NIL=
201912210400 METAR MRPV NIL=
201912210500 METAR MRPV NIL=
201912210600 METAR MRPV NIL=
201912210700 METAR MRPV NIL=
201912210800 METAR MRPV NIL=
201912210900 METAR MRPV NIL=
201912211000 METAR MRPV NIL=
201912211100 METAR MRPV NIL=
201912211200 METAR MRPV 211200Z 10012KT 9999 FEW035 BKN200 21/17 A2998 NOSIG=
201912211300 METAR MRPV 211300Z 10013KT 9999 FEW030 SCT100 21/17 A3000 NOSIG=
201912211400 METAR MRPV 211400Z 12010G20KT 9999 FEW030 SCT080 22/17 A3003 NOSIG=
201912211500 METAR MRPV 211500Z 09015G25KT 9999 FEW040 BKN100 24/17 A3004 NOSIG=
201912211600 METAR MRPV 211600Z 08014G24KT 9999 FEW040 SCT100 25/17 A3002 NOSIG=
201912211700 METAR MRPV 211700Z 08016G26KT 9999 FEW035 SCT100 26/17 A3000 NOSIG=
201912211800 METAR MRPV 211800Z 07015G25KT 9999 FEW035 SCT120 26/17 A2998 NOSIG=
201912211900 METAR MRPV 211900Z 08014KT 9999 FEW035 SCT120 26/17 A2994 NOSIG=
201912212000 METAR MRPV 212000Z 08012KT 9999 FEW040 BKN090 25/18 A2993 NOSIG=
201912212100 METAR MRPV 212100Z 08012KT 9999 FEW030 SCT100 25/18 A2992 NOSIG=
201912212200 METAR MRPV 212200Z 08015KT 9999 FEW025 BKN100 23/17 A2993 NOSIG=
201912212300 METAR MRPV 212300Z 08010KT 9999 FEW025 BKN100 22/17 A2994 NOSIG=
201912220000 METAR MRPV 220000Z 10011KT 9999 FEW035 SCT100 22/16 A2996 NOSIG=
201912220100 METAR MRPV NIL=
201912220200 METAR MRPV NIL=
201912220300 METAR MRPV NIL=
201912220400 METAR MRPV NIL=
201912220500 METAR MRPV NIL=
201912220600 METAR MRPV NIL=
201912220700 METAR MRPV NIL=
201912220800 METAR MRPV NIL=
201912220900 METAR MRPV NIL=
201912221000 METAR MRPV NIL=
201912221100 METAR MRPV NIL=
201912221200 METAR MRPV 221200Z 12010KT 9999 FEW035 SCT200 21/17 A2998 NOSIG=
201912221300 METAR MRPV 221300Z 12012KT 9999 FEW030 BKN200 22/17 A3000 NOSIG=
201912221400 METAR MRPV 221400Z 09018KT 9999 FEW020 BKN140 21/15 A3003 NOSIG=
201912221500 METAR MRPV 221500Z 10014KT 9999 FEW035 SCT140 BKN180 23/15 A3004 NOSIG=
201912221600 METAR MRPV 221600Z 10010KT 9999 FEW045 SCT100 BKN180 24/15 A3002 NOSIG=
201912221700 METAR MRPV 221700Z 09015KT 9999 FEW040 BKN160 24/14 A3001 NOSIG=
201912221800 METAR MRPV 221800Z 07015G26KT 9999 FEW040 BKN160 24/15 A2999 NOSIG=
201912221900 METAR MRPV 221900Z 07012KT 9999 FEW040 BKN160 25/16 A2997 NOSIG=
201912222000 METAR MRPV 222000Z 07013KT 9999 FEW045 BKN200 26/16 A2994 NOSIG=
201912222100 METAR MRPV 222100Z 07013KT 9999 FEW040 BKN200 25/17 A2993 NOSIG=
201912222200 METAR MRPV 222200Z 08013G23KT 9999 SCT030 BKN120 23/17 A2994 NOSIG=
201912222300 METAR MRPV 222300Z 08014KT 9999 SCT030 BKN080 22/16 A2996 NOSIG=
201912230000 METAR MRPV 230000Z 10010KT 9999 FEW030 BKN120 22/16 A2998 NOSIG=
201912230100 METAR MRPV NIL=
201912230200 METAR MRPV NIL=
201912230300 METAR MRPV NIL=
201912230400 METAR MRPV NIL=
201912230500 METAR MRPV NIL=
201912230600 METAR MRPV NIL=
201912230700 METAR MRPV NIL=
201912230800 METAR MRPV NIL=
201912230900 METAR MRPV NIL=
201912231000 METAR MRPV NIL=
201912231100 METAR MRPV NIL=
201912231200 METAR MRPV 231200Z 14007KT 9999 FEW035 BKN100 21/16 A3000 NOSIG=
201912231300 METAR MRPV 231300Z 13008KT 9999 FEW045 SCT110 22/17 A3002 NOSIG=
201912231400 METAR MRPV 231400Z 13010KT 9999 FEW045 SCT120 22/17 A3005 NOSIG=
201912231500 METAR MRPV 231500Z 12013KT 9999 FEW035 SCT220 23/17 A3006 NOSIG=
201912231600 METAR MRPV 231600Z 09014KT 9999 FEW040 24/17 A3005 NOSIG=
201912231700 METAR MRPV 231700Z 09013KT 9999 FEW035 SCT060 24/18 A3003 NOSIG=
201912231800 METAR MRPV 231800Z 11011KT 9999 FEW035 BKN060 25/18 A3000 NOSIG=
201912231900 METAR MRPV 231900Z 10014KT 9999 SCT030 BKN060 23/17 A2998 NOSIG=
201912232000 METAR MRPV 232000Z 10015KT 9999 RA SCT025 BKN080 23/16 A2998 NOSIG=
201912232100 METAR MRPV 232100Z 10011KT 9999 SCT030 BKN100 22/15 A2997 RERA NOSIG=
201912232200 METAR MRPV 232200Z 10012G23KT 9999 SCT030 BKN080 22/16 A2997 NOSIG=
201912232300 METAR MRPV 232300Z 12009KT 9999 FEW035 SCT100 21/16 A2997 NOSIG=
201912240000 METAR MRPV 240000Z 11011KT 9999 FEW035 SCT100 21/16 A2999 NOSIG=
201912240100 METAR MRPV NIL=
201912240200 METAR MRPV NIL=
201912240300 METAR MRPV NIL=
201912240400 METAR MRPV NIL=
201912240500 METAR MRPV NIL=
201912240600 METAR MRPV NIL=
201912240700 METAR MRPV NIL=
201912240800 METAR MRPV NIL=
201912240900 METAR MRPV NIL=
201912241000 METAR MRPV NIL=
201912241100 METAR MRPV NIL=
201912241200 METAR MRPV 241200Z 12012KT 9999 FEW025 OVC200 20/16 A2999 NOSIG=
201912241300 METAR MRPV 241300Z 12012KT 9999 FEW030 SCT200 21/16 A3002 NOSIG=
201912241400 METAR MRPV 241400Z 11012KT 9999 FEW030 SCT200 22/17 A3003 NOSIG=
201912241500 METAR MRPV 241500Z 11013KT 9999 FEW030 SCT200 24/17 A3005 NOSIG=
201912241600 METAR MRPV 241600Z 09017KT 9999 FEW030 BKN200 24/17 A3003 NOSIG=
201912241700 METAR MRPV 241700Z 09015KT 9999 FEW030 SCT120 25/17 A3002 NOSIG=
201912241800 METAR MRPV 241800Z 09011KT 9999 FEW030 SCT120 26/18 A2999 NOSIG=
201912241900 METAR MRPV 241900Z 09014KT 9999 SCT030 SCT100 24/17 A2996 NOSIG=
201912242000 METAR MRPV 242000Z 12011KT 9999 BKN030 24/18 A2994 NOSIG=
201912242100 METAR MRPV 242100Z 11011KT 9999 BKN030 24/18 A2993 NOSIG=
201912242200 METAR MRPV 242200Z 12010KT 9999 DZ SCT030 SCT080 23/18 A2993 NOSIG=
201912242300 METAR MRPV COR 242300Z 12012KT 9999 FEW030 SCT100 22/17 A2995 REDZ NOSIG=
201912250000 METAR MRPV 250000Z 12012KT 9999 FEW030 SCT100 21/17 A2997 NOSIG=
201912250100 METAR MRPV NIL=
201912250200 METAR MRPV NIL=
201912250300 METAR MRPV NIL=
201912250400 METAR MRPV NIL=
201912250500 METAR MRPV NIL=
201912250600 METAR MRPV NIL=
201912250700 METAR MRPV NIL=
201912250800 METAR MRPV NIL=
201912250900 METAR MRPV NIL=
201912251000 METAR MRPV NIL=
201912251100 METAR MRPV NIL=
201912251200 METAR MRPV 251200Z 12013G24KT 9999 FEW025 20/16 A2997 NOSIG=
201912251300 METAR MRPV 251300Z 12013KT 9999 FEW025 21/16 A2999 NOSIG=
201912251400 METAR MRPV 251400Z 12012KT 9999 FEW025 22/17 A3001 NOSIG=
201912251500 METAR MRPV 251500Z 11012KT 9999 FEW025 24/17 A3003 NOSIG=
201912251600 METAR MRPV 251600Z 12012KT 9999 SCT025 24/17 A3002 NOSIG=
201912251700 METAR MRPV 251700Z 11012KT 9999 SCT025 23/17 A3001 NOSIG=
201912251800 METAR MRPV 251800Z 12010KT 9999 SCT030 24/17 A2998 NOSIG=
201912251900 METAR MRPV 251900Z 11011KT 9999 FEW030 SCT080 25/17 A2996 NOSIG=
201912252000 METAR MRPV 252000Z 11013KT 9999 SCT030 24/17 A2993 NOSIG=
201912252100 METAR MRPV 252100Z 12011G21KT 9999 SCT030 23/17 A2992 NOSIG=
201912252200 METAR MRPV 252200Z 13009KT 9999 SCT030 23/17 A2992 NOSIG=
201912252300 METAR MRPV 252300Z 13010KT 9999 SCT030 22/17 A2993 NOSIG=
201912260000 METAR MRPV 260000Z 13010KT 9999 FEW030 21/17 A2994 NOSIG=
201912260100 METAR MRPV NIL=
201912260200 METAR MRPV NIL=
201912260300 METAR MRPV NIL=
201912260400 METAR MRPV NIL=
201912260500 METAR MRPV NIL=
201912260600 METAR MRPV NIL=
201912260700 METAR MRPV NIL=
201912260800 METAR MRPV NIL=
201912260900 METAR MRPV NIL=
201912261000 METAR MRPV NIL=
201912261100 METAR MRPV NIL=
201912261200 METAR MRPV 261200Z 12012KT 9999 FEW020 21/16 A2996 NOSIG=
201912261300 METAR MRPV 261300Z 12009KT 9999 FEW025 21/17 A2999 NOSIG=
201912261400 METAR MRPV 261400Z 10012KT 9999 FEW030 23/18 A3001 NOSIG=
201912261500 METAR MRPV 261500Z 12011KT 9999 FEW030 24/18 A3002 NOSIG=
201912261600 METAR MRPV 261600Z 13010KT 9999 FEW020 SCT080 25/18 A3000 NOSIG=
201912261700 METAR MRPV 261700Z 11012KT 9999 FEW020 SCT080 26/18 A2999 NOSIG=
201912261800 METAR MRPV 261800Z 11012KT 9999 FEW020 BKN080 25/18 A2997 NOSIG=
201912261900 METAR MRPV 261900Z 11013KT 9999 FEW020 BKN080 25/17 A2995 NOSIG=
201912262000 METAR MRPV 262000Z 12012KT 9999 FEW020 SCT045 26/18 A2993 NOSIG=
201912262100 METAR MRPV 262100Z 12012KT 9999 FEW020 BKN045 25/17 A2993 NOSIG=
201912262200 METAR MRPV 262200Z 10016KT 9999 FEW020 BKN045 23/17 A2994 NOSIG=
201912262300 METAR MRPV 262300Z 11014KT 9999 FEW020 22/17 A2995 NOSIG=
201912270000 METAR MRPV 270000Z 12011KT 9999 FEW020 SCT070 21/17 A2997 NOSIG=
201912270100 METAR MRPV NIL=
201912270200 METAR MRPV NIL=
201912270300 METAR MRPV NIL=
201912270400 METAR MRPV NIL=
201912270500 METAR MRPV NIL=
201912270600 METAR MRPV NIL=
201912270700 METAR MRPV NIL=
201912270800 METAR MRPV NIL=
201912270900 METAR MRPV NIL=
201912271000 METAR MRPV NIL=
201912271100 METAR MRPV NIL=
201912271200 METAR MRPV 271200Z 12011KT 9999 FEW040 20/15 A3000 NOSIG=
201912271300 METAR MRPV 271300Z 11012KT 9999 FEW040 21/15 A3003 NOSIG=
201912271400 METAR MRPV 271400Z 11010KT 9999 FEW045 23/15 A3006 NOSIG=
201912271500 METAR MRPV 271500Z 09010KT CAVOK 25/16 A3006 NOSIG=
201912271600 METAR MRPV 271600Z 08010KT CAVOK 27/16 A3003 NOSIG=
201912271700 METAR MRPV 271700Z 07016KT 9999 FEW040 26/16 A3002 NOSIG=
201912271800 METAR MRPV 271800Z 07017KT 9999 FEW040 26/16 A3000 NOSIG=
201912271900 METAR MRPV 271900Z 09016KT 9999 FEW045 26/16 A2996 NOSIG=
201912272000 METAR MRPV 272000Z 08015KT 9999 FEW040 26/17 A2996 NOSIG=
201912272100 METAR MRPV 272100Z 09016KT 9999 FEW040 26/18 A2995 NOSIG=
201912272200 METAR MRPV 272200Z 09013KT 9999 SCT040 SCT070 25/18 A2996 NOSIG=
201912272300 METAR MRPV 272300Z 10012KT 9999 FEW035 BKN070 23/18 A2998 NOSIG=
201912280000 METAR MRPV 280000Z 10009KT 9999 FEW030 BKN070 22/18 A3001 NOSIG=
201912280100 METAR MRPV NIL=
201912280200 METAR MRPV NIL=
201912280300 METAR MRPV NIL=
201912280400 METAR MRPV NIL=
201912280500 METAR MRPV NIL=
201912280600 METAR MRPV NIL=
201912280700 METAR MRPV NIL=
201912280800 METAR MRPV NIL=
201912280900 METAR MRPV NIL=
201912281000 METAR MRPV NIL=
201912281100 METAR MRPV NIL=
201912281200 METAR MRPV 281200Z 12009KT CAVOK 20/16 A2998 NOSIG=
201912281300 METAR MRPV 281300Z 12010KT CAVOK 22/17 A3000 NOSIG=
201912281400 METAR MRPV 281400Z 13007KT 9999 FEW040 SCT090 23/17 A3004 NOSIG=
201912281500 METAR MRPV 281500Z 11010KT 9999 DZ FEW035 BKN080 22/18 A3007 NOSIG=
201912281600 METAR MRPV 281600Z 11014KT 9999 FEW040 25/19 A3004 NOSIG=
201912281700 METAR MRPV 281700Z 07014KT 9999 FEW045 26/18 A3001 NOSIG=
201912281800 METAR MRPV 281800Z 10014KT 9999 BKN035 25/18 A3000 NOSIG=
201912281900 METAR MRPV 281900Z 08012KT 9999 -RA SCT025 SCT040 24/18 A2998 NOSIG=
201912282000 METAR MRPV 282000Z 09012KT 9999 SCT025 BKN080 25/18 A2996 NOSIG=
201912282100 METAR MRPV 282100Z 09016KT 9999 FEW030 BKN200 25/18 A2995 NOSIG=
201912282200 METAR MRPV 282200Z 09016KT 9999 SCT030 BKN200 24/18 A2995 NOSIG=
201912282300 METAR MRPV 282300Z 09014KT 9999 SCT025 SCT080 23/17 A2996 NOSIG=
201912290000 METAR MRPV 290000Z 07010KT 9999 SCT025 SCT200 22/17 A2997 NOSIG=
201912290100 METAR MRPV NIL=
201912290200 METAR MRPV NIL=
201912290300 METAR MRPV NIL=
201912290400 METAR MRPV NIL=
201912290500 METAR MRPV NIL=
201912290600 METAR MRPV NIL=
201912290700 METAR MRPV NIL=
201912290800 METAR MRPV NIL=
201912290900 METAR MRPV NIL=
201912291000 METAR MRPV NIL=
201912291100 METAR MRPV NIL=
201912291200 METAR MRPV 291200Z 13012KT 9999 FEW040 BKN220 20/16 A2998 NOSIG=
201912291300 METAR MRPV 291300Z 13011KT CAVOK 21/16 A2999 NOSIG=
201912291400 METAR MRPV 291400Z 12011KT 9999 FEW045 SCT220 23/17 A3001 NOSIG=
201912291500 METAR MRPV 291500Z 08014KT 9999 FEW040 SCT220 25/17 A3004 NOSIG=
201912291600 METAR MRPV 291600Z 07011KT 9999 FEW045 SCT220 26/17 A3004 NOSIG=
201912291700 METAR MRPV 291700Z 08013KT 9999 FEW035 BKN200 26/17 A3002 NOSIG=
201912291800 METAR MRPV 291800Z 09010KT 9999 FEW035 BKN200 27/17 A2999 NOSIG=
201912291900 METAR MRPV 291900Z 10011KT 9999 FEW030 BKN200 26/18 A2996 NOSIG=
201912292000 METAR MRPV 292000Z 10012KT 9999 SCT030 BKN180 25/18 A2995 NOSIG=
201912292100 METAR MRPV 292100Z 09014KT 9999 SCT030 BKN180 24/17 A2994 NOSIG=
201912292200 METAR MRPV 292200Z 11009KT 9999 FEW035 BKN200 24/18 A2994 NOSIG=
201912292300 METAR MRPV 292300Z 10010KT 9999 SCT035 BKN200 23/18 A2995 NOSIG=
201912300000 METAR MRPV 300000Z 11012KT 9999 SCT035 BKN200 21/17 A2997 NOSIG=
201912300100 METAR MRPV NIL=
201912300200 METAR MRPV NIL=
201912300300 METAR MRPV NIL=
201912300400 METAR MRPV NIL=
201912300500 METAR MRPV NIL=
201912300600 METAR MRPV NIL=
201912300700 METAR MRPV NIL=
201912300800 METAR MRPV NIL=
201912300900 METAR MRPV NIL=
201912301000 METAR MRPV NIL=
201912301100 METAR MRPV NIL=
201912301200 METAR MRPV 301200Z 12008KT 9999 FEW030 SCT120 BKN200 20/15 A3000 NOSIG=
201912301300 METAR MRPV 301300Z 12006KT 9999 FEW030 BKN150 21/15 A3003 NOSIG=
201912301400 METAR MRPV 301400Z 12007KT CAVOK 22/16 A3006 NOSIG=
201912301500 METAR MRPV 301500Z 09012KT 9999 FEW045 BKN200 24/15 A3006 NOSIG=
201912301600 METAR MRPV 301600Z 09009KT CAVOK 24/15 A3005 NOSIG=
201912301700 METAR MRPV 301700Z 09011KT 9999 FEW045 BKN200 25/15 A3004 NOSIG=
201912301800 METAR MRPV 301800Z 07012KT 9999 FEW045 OVC200 25/15 A3001 NOSIG=
201912301900 METAR MRPV 301900Z 07010G20KT 9999 FEW045 BKN200 27/16 A2997 NOSIG=
201912302000 METAR MRPV 302000Z 08014KT 9999 FEW045 OVC200 27/16 A2995 NOSIG=
201912302100 METAR MRPV 302100Z 08015KT 9999 CAVOK 27/15 A2995 NOSIG=
201912302200 METAR MRPV 302200Z 07014KT 9999 FEW040 SCT120 26/15 A2995 NOSIG=
201912302300 METAR MRPV 302300Z 09010KT 9999 FEW035 SCT120 23/15 A2997 NOSIG=
201912310000 METAR MRPV 310000Z 13006KT 9999 FEW035 SCT120 22/16 A2999 NOSIG=
201912310100 METAR MRPV NIL=
201912310200 METAR MRPV NIL=
201912310300 METAR MRPV NIL=
201912310400 METAR MRPV NIL=
201912310500 METAR MRPV NIL=
201912310600 METAR MRPV NIL=
201912310700 METAR MRPV NIL=
201912310800 METAR MRPV NIL=
201912310900 METAR MRPV NIL=
201912311000 METAR MRPV NIL=
201912311100 METAR MRPV NIL=
201912311200 METAR MRPV 311200Z 13009KT CAVOK 19/15 A3003 NOSIG=
201912311300 METAR MRPV 311300Z 14006KT 9999 FEW040 BKN160 19/14 A3005 NOSIG=
201912311400 METAR MRPV 311400Z 11007KT 9999 FEW035 BKN180 21/15 A3009 NOSIG=
201912311500 METAR MRPV 311500Z 11012KT 9999 FEW040 BKN180 23/15 A3010 NOSIG=
201912311600 METAR MRPV 311600Z 09015KT CAVOK 24/14 A3010 NOSIG=
201912311700 METAR MRPV 311700Z 06015KT 9999 FEW045 BKN200 25/14 A3008 NOSIG=
201912311800 METAR MRPV 311800Z 07013KT CAVOK 25/15 A3005 NOSIG=
201912311900 METAR MRPV 311900Z 08015KT 9999 FEW045 OVC200 24/16 A3003 NOSIG=
201912312000 METAR MRPV 312000Z 07014KT 9999 FEW040 OVC200 25/15 A3001 NOSIG=
201912312100 METAR MRPV 312100Z 08013KT 9999 FEW035 BKN200 24/15 A3000 NOSIG=
201912312200 METAR MRPV 312200Z 08013KT 9999 FEW040 BKN200 23/16 A3000 NOSIG=
201912312300 METAR MRPV 312300Z 07010KT 9999 FEW035 BKN200 23/16 A3001 NOSIG=
