202001010000 METAR MRPV 010000Z 09012KT 9999 FEW035 BKN200 21/15 A3003 NOSIG=
202001010100 METAR MRPV NIL=
202001010200 METAR MRPV NIL=
202001010300 METAR MRPV NIL=
202001010400 METAR MRPV NIL=
202001010500 METAR MRPV NIL=
202001010600 METAR MRPV NIL=
202001010700 METAR MRPV NIL=
202001010800 METAR MRPV NIL=
202001010900 METAR MRPV NIL=
202001011000 METAR MRPV NIL=
202001011100 METAR MRPV NIL=
202001011200 METAR MRPV 011200Z 12009KT CAVOK 19/14 A3003 NOSIG=
202001011300 METAR MRPV 011300Z 13007KT CAVOK 20/14 A3005 NOSIG=
202001011400 METAR MRPV 011400Z 11012KT CAVOK 21/14 A3007 NOSIG=
202001011500 METAR MRPV 011500Z 10014KT CAVOK 23/13 A3008 NOSIG=
202001011600 METAR MRPV 011600Z 08015KT CAVOK 25/13 A3008 NOSIG=
202001011700 METAR MRPV 011700Z 10010KT CAVOK 26/14 A3006 NOSIG=
202001011800 METAR MRPV 011800Z 07007KT CAVOK 26/15 A3003 NOSIG=
202001011900 METAR MRPV 011900Z 09011KT 9999 FEW035 BKN120 26/15 A3000 NOSIG=
202001012000 METAR MRPV 012000Z 10010KT 9999 FEW035 BKN120 26/16 A2998 NOSIG=
202001012100 METAR MRPV 012100Z 09013KT 9999 FEW040 BKN120 25/15 A2997 NOSIG=
202001012200 METAR MRPV 012200Z 09013KT 9999 FEW030 BKN120 24/16 A2997 NOSIG=
202001012300 METAR MRPV 012300Z 11009KT 9999 FEW045 BKN120 23/16 A2998 NOSIG=
202001020000 METAR MRPV 020000Z 11010KT 9999 FEW025 BKN120 22/16 A3000 NOSIG=
202001020100 METAR MRPV NIL=
202001020200 METAR MRPV NIL=
202001020300 METAR MRPV NIL=
202001020400 METAR MRPV NIL=
202001020500 METAR MRPV NIL=
202001020600 METAR MRPV NIL=
202001020700 METAR MRPV NIL=
202001020800 METAR MRPV NIL=
202001020900 METAR MRPV NIL=
202001021000 METAR MRPV NIL=
202001021100 METAR MRPV NIL=
202001021200 METAR MRPV 021200Z 12008KT CAVOK 20/12 A3003 NOSIG=
202001021300 METAR MRPV 021300Z 13010KT CAVOK 20/12 A3005 NOSIG=
202001021400 METAR MRPV 021400Z 12010KT CAVOK 22/12 A3007 NOSIG=
202001021500 METAR MRPV 021500Z 12007KT CAVOK 23/13 A3009 NOSIG=
202001021600 METAR MRPV 021600Z 11009KT CAVOK 24/14 A3008 NOSIG=
202001021700 METAR MRPV 021700Z 11013KT CAVOK 26/14 A3005 NOSIG=
202001021800 METAR MRPV 021800Z 08012KT CAVOK 27/15 A3003 NOSIG=
202001021900 METAR MRPV 021900Z 08010KT 9999 FEW045 BKN200 26/16 A3000 NOSIG=
202001022000 METAR MRPV 022000Z 09009KT 9999 FEW045 BKN200 27/16 A2998 NOSIG=
202001022100 METAR MRPV 022100Z 28003KT 9999 FEW040 BKN200 24/18 A2998 NOSIG=
202001022200 METAR MRPV 022200Z 09012KT 9999 SCT035 BKN200 23/16 A3000 NOSIG=
202001022300 METAR MRPV 022300Z 08008KT 9999 FEW040 OVC200 22/17 A3000 NOSIG=
202001030000 METAR MRPV 030000Z 11007KT 9999 FEW040 SCT120 22/17 A3002 NOSIG=
202001030100 METAR MRPV NIL=
202001030200 METAR MRPV NIL=
202001030300 METAR MRPV NIL=
202001030400 METAR MRPV NIL=
202001030500 METAR MRPV NIL=
202001030600 METAR MRPV NIL=
202001030700 METAR MRPV NIL=
202001030800 METAR MRPV NIL=
202001030900 METAR MRPV NIL=
202001031000 METAR MRPV NIL=
202001031100 METAR MRPV NIL=
202001031200 METAR MRPV 031200Z 14002KT CAVOK 18/15 A3007 NOSIG=
202001031300 METAR MRPV 031300Z 13004KT CAVOK 20/15 A3010 NOSIG=
202001031400 METAR MRPV 031400Z 10006KT CAVOK 21/16 A3012 NOSIG=
202001031500 METAR MRPV 031500Z 11007KT CAVOK 23/15 A3012 NOSIG=
202001031600 METAR MRPV 031600Z 11009KT CAVOK 26/16 A3012 NOSIG=
202001031700 METAR MRPV 031700Z 08007KT 9999 FEW045 SCT190 26/16 A3009 NOSIG=
202001031800 METAR MRPV 031800Z 30005KT 9999 SCT040 28/15 A3007 NOSIG=
202001031900 METAR MRPV 031900Z 25005KT 9999 SCT045 26/18 A3004 NOSIG=
202001032000 METAR MRPV 032000Z 28005KT 9999 FEW025 SCT035 26/19 A3002 NOSIG=
202001032100 METAR MRPV 032100Z 14002KT 9999 FEW025 SCT035 25/19 A3003 NOSIG=
202001032200 METAR MRPV 032200Z 27006KT 9999 FEW025 BKN035 24/19 A3004 NOSIG=
202001032300 METAR MRPV 032300Z 30003KT 9999 FEW025 BKN035 23/19 A3005 NOSIG=
202001040000 METAR MRPV 040000Z 10004KT 230V100 9999 4000N SCT030 SCT120 23/17 A3007 NOSIG=
202001040100 METAR MRPV NIL=
202001040200 METAR MRPV NIL=
202001040300 METAR MRPV NIL=
202001040400 METAR MRPV NIL=
202001040500 METAR MRPV NIL=
202001040600 METAR MRPV NIL=
202001040700 METAR MRPV NIL=
202001040800 METAR MRPV NIL=
202001040900 METAR MRPV NIL=
202001041000 METAR MRPV NIL=
202001041100 METAR MRPV NIL=
202001041200 METAR MRPV 041200Z 13008KT 9999 FEW035 SCT200 19/14 A3012 NOSIG=
202001041300 METAR MRPV 041300Z 13008KT 9999 FEW035 SCT200 21/14 A3014 NOSIG=
202001041400 METAR MRPV 041400Z 10011KT CAVOK 23/13 A3017 NOSIG=
202001041500 METAR MRPV 041500Z 09012KT CAVOK 25/14 A3016 NOSIG=
202001041600 METAR MRPV 041600Z 09014KT CAVOK 26/15 A3015 NOSIG=
202001041700 METAR MRPV 041700Z 07015KT 9999 FEW045 26/16 A3013 NOSIG=
202001041800 METAR MRPV 041800Z 08014G24KT 9999 FEW040 27/15 A3011 NOSIG=
202001041900 METAR MRPV 041900Z 08014KT 9999 FEW040 27/15 A3009 NOSIG=
202001042000 METAR MRPV 042000Z 08012KT 9999 FEW035 27/15 A3007 NOSIG=
202001042100 METAR MRPV 042100Z 09014KT 9999 FEW035 27/15 A3005 NOSIG=
202001042200 METAR MRPV 042200Z 08014KT 9999 FEW035 25/15 A3006 NOSIG=
202001042300 METAR MRPV 042300Z 09013KT 9999 FEW035 24/16 A3008 NOSIG=
202001050000 METAR MRPV 050000Z 11011KT 9999 FEW035 22/16 A3011 NOSIG=
202001050100 METAR MRPV NIL=
202001050200 METAR MRPV NIL=
202001050300 METAR MRPV NIL=
202001050400 METAR MRPV NIL=
202001050500 METAR MRPV NIL=
202001050600 METAR MRPV NIL=
202001050700 METAR MRPV NIL=
202001050800 METAR MRPV NIL=
202001050900 METAR MRPV NIL=
202001051000 METAR MRPV NIL=
202001051100 METAR MRPV NIL=
202001051200 METAR MRPV 051200Z 10018G28KT 9999 FEW025 20/15 A3016 NOSIG=
202001051300 METAR MRPV 051300Z 12014G24KT 9999 SCT030 20/14 A3019 NOSIG=
202001051400 METAR MRPV 051400Z 11014KT 9999 FEW030 21/14 A3021 NOSIG=
202001051500 METAR MRPV 051500Z 10017G27KT 9999 FEW030 23/14 A3021 NOSIG=
202001051600 METAR MRPV 051600Z 09022KT 9999 FEW045 24/13 A3020 NOSIG=
202001051700 METAR MRPV 051700Z 09023G33KT CAVOK 25/13 A3017 NOSIG=
202001051800 METAR MRPV 051800Z 08020G30KT CAVOK 26/13 A3013 NOSIG=
202001051900 METAR MRPV 051900Z 09020G33KT CAVOK 26/12 A3009 NOSIG=
202001052000 METAR MRPV 052000Z 08018G29KT CAVOK 25/14 A3006 NOSIG=
202001052100 METAR MRPV 052100Z 07018G28KT CAVOK 25/14 A3008 NOSIG=
202001052200 METAR MRPV 052200Z 07014G24KT CAVOK 24/15 A3008 NOSIG=
202001052300 METAR MRPV 052300Z 08014G24KT CAVOK 23/16 A3009 NOSIG=
202001060000 METAR MRPV 060000Z 10013KT 9999 FEW045 SCT100 21/17 A3011 NOSIG=
202001060100 METAR MRPV NIL=
202001060200 METAR MRPV NIL=
202001060300 METAR MRPV NIL=
202001060400 METAR MRPV NIL=
202001060500 METAR MRPV NIL=
202001060600 METAR MRPV NIL=
202001060700 METAR MRPV NIL=
202001060800 METAR MRPV NIL=
202001060900 METAR MRPV NIL=
202001061000 METAR MRPV NIL=
202001061100 METAR MRPV NIL=
202001061200 METAR MRPV 061200Z 11012G22KT 9999 FEW040 BKN200 20/13 A3009 NOSIG=
202001061300 METAR MRPV 061300Z 11015G25KT 9999 FEW045 BKN200 21/13 A3011 NOSIG=
202001061400 METAR MRPV 061400Z 11014KT CAVOK 22/13 A3012 NOSIG=
202001061500 METAR MRPV 061500Z 13013G23KT CAVOK 24/14 A3012 NOSIG=
202001061600 METAR MRPV 061600Z 10017KT CAVOK 26/14 A3011 NOSIG=
202001061700 METAR MRPV 061700Z 08016G29KT CAVOK 25/15 A3009 NOSIG=
202001061800 METAR MRPV 061800Z 08018KT 9999 FEW045 SCT200 26/15 A3007 NOSIG=
202001061900 METAR MRPV 061900Z 07018G28KT 9999 FEW045 SCT200 25/15 A3005 NOSIG=
202001062000 METAR MRPV 062000Z 09017G27KT 9999 FEW045 26/15 A3001 NOSIG=
202001062100 METAR MRPV 062100Z 07017G27KT 9999 FEW040 25/15 A3001 NOSIG=
202001062200 METAR MRPV 062200Z 08013G23KT 9999 FEW035 24/15 A3002 NOSIG=
202001062300 METAR MRPV 062300Z 07015G25KT 9999 FEW030 22/15 A3004 NOSIG=
202001070000 METAR MRPV 070000Z 08013G23KT 9999 FEW030 20/15 A3006 NOSIG=
202001070100 METAR MRPV NIL=
202001070200 METAR MRPV NIL=
202001070300 METAR MRPV NIL=
202001070400 METAR MRPV NIL=
202001070500 METAR MRPV NIL=
202001070600 METAR MRPV NIL=
202001070700 METAR MRPV NIL=
202001070800 METAR MRPV NIL=
202001070900 METAR MRPV NIL=
202001071000 METAR MRPV NIL=
202001071100 METAR MRPV NIL=
202001071200 METAR MRPV 071200Z 11011KT CAVOK 18/13 A3006 NOSIG=
202001071300 METAR MRPV 071300Z 13011G21KT CAVOK 20/13 A3008 NOSIG=
202001071400 METAR MRPV 071400Z 10012G22KT CAVOK 20/13 A3011 NOSIG=
202001071500 METAR MRPV 071500Z 10016G26KT CAVOK 22/14 A3012 NOSIG=
202001071600 METAR MRPV 071600Z 08020G30KT 9999 FEW040 24/13 A3012 NOSIG=
202001071700 METAR MRPV 071700Z 07018G28KT 9999 FEW045 24/12 A3011 NOSIG=
202001071800 METAR MRPV 071800Z 07015G25KT 9999 FEW045 24/13 A3008 NOSIG=
202001071900 METAR MRPV 071900Z 07016KT 9999 FEW045 25/11 A3005 NOSIG=
202001072000 METAR MRPV 072000Z 06016G26KT 9999 FEW045 25/12 A3004 NOSIG=
202001072100 METAR MRPV 072100Z 07018KT 9999 FEW045 24/11 A3003 NOSIG=
202001072200 METAR MRPV 072200Z 07017G30KT 9999 FEW040 23/14 A3003 NOSIG=
202001072300 METAR MRPV 072300Z 07016G31KT 9999 FEW040 21/13 A3004 WS R09 NOSIG=
202001080000 METAR MRPV 080000Z 07016KT 9999 FEW035 20/14 A3006 WS R09 NOSIG=
202001080100 METAR MRPV NIL=
202001080200 METAR MRPV NIL=
202001080300 METAR MRPV NIL=
202001080400 METAR MRPV NIL=
202001080500 METAR MRPV NIL=
202001080600 METAR MRPV NIL=
202001080700 METAR MRPV NIL=
202001080800 METAR MRPV NIL=
202001080900 METAR MRPV NIL=
202001081000 METAR MRPV NIL=
202001081100 METAR MRPV NIL=
202001081200 METAR MRPV 081200Z 12010G20KT CAVOK 19/11 A3007 NOSIG=
202001081300 METAR MRPV 081300Z 09020G30KT CAVOK 20/13 A3010 NOSIG=
202001081400 METAR MRPV 081400Z 09014G24KT CAVOK 21/13 A3011 NOSIG=
202001081500 METAR MRPV 081500Z 09017G27KT CAVOK 21/14 A3013 NOSIG=
202001081600 METAR MRPV 081600Z 10020G30KT CAVOK 24/15 A3013 NOSIG=
202001081700 METAR MRPV 081700Z 09016G30KT 9999 FEW040 23/14 A3011 NOSIG=
202001081800 METAR MRPV 081800Z 09020G30KT 9999 FEW040 24/15 A3008 NOSIG=
202001081900 METAR MRPV 081900Z 10016KT 9999 FEW040 24/15 A3004 NOSIG=
202001082000 METAR MRPV 082000Z 10018KT 9999 SCT040 24/16 A3003 NOSIG=
202001082100 METAR MRPV 082100Z 10017KT 9999 SCT035 23/16 A3001 NOSIG=
202001082200 METAR MRPV 082200Z 10014KT 9999 FEW025 SCT100 23/17 A3000 NOSIG=
202001082300 METAR MRPV 082300Z 10020KT 9999 FEW025 21/16 A3000 NOSIG=
202001090000 METAR MRPV 090000Z 10016KT 9999 FEW025 20/16 A3002 NOSIG=
202001090100 METAR MRPV NIL=
202001090200 METAR MRPV NIL=
202001090300 METAR MRPV NIL=
202001090400 METAR MRPV NIL=
202001090500 METAR MRPV NIL=
202001090600 METAR MRPV NIL=
202001090700 METAR MRPV NIL=
202001090800 METAR MRPV NIL=
202001090900 METAR MRPV NIL=
202001091000 METAR MRPV NIL=
202001091100 METAR MRPV NIL=
202001091200 METAR MRPV 091200Z 10016KT 9999 FEW035 20/15 A3005 NOSIG=
202001091300 METAR MRPV 091300Z 10017G27KT 9999 FEW040 21/15 A3007 NOSIG=
202001091400 METAR MRPV 091400Z 10018G29KT 9999 FEW040 22/15 A3009 NOSIG=
202001091500 METAR MRPV 091500Z 09020G32KT 9999 FEW040 23/16 A3010 NOSIG=
202001091600 METAR MRPV 091600Z 09021G32KT 9999 FEW045 24/16 A3008 NOSIG=
202001091700 METAR MRPV 091700Z 08018G28KT 9999 FEW045 25/15 A3005 NOSIG=
202001091800 METAR MRPV 091800Z 08018G28KT 9999 FEW045 25/15 A3002 NOSIG=
202001091900 METAR MRPV 091900Z 07018G30KT 9999 FEW045 26/15 A3000 NOSIG=
202001092000 METAR MRPV 092000Z 07018G29KT 9999 FEW045 25/16 A2997 NOSIG=
202001092100 METAR MRPV 092100Z 09017KT 9999 SCT045 24/14 A2997 NOSIG=
202001092200 METAR MRPV 092200Z 09019KT 9999 FEW045 23/15 A2997 NOSIG=
202001092300 METAR MRPV 092300Z 10013KT 9999 FEW040 23/14 A2997 NOSIG=
202001100000 METAR MRPV 100000Z 10016G26KT 9999 FEW040 21/15 A2998 NOSIG=
202001100100 METAR MRPV NIL=
202001100200 METAR MRPV NIL=
202001100300 METAR MRPV NIL=
202001100400 METAR MRPV NIL=
202001100500 METAR MRPV NIL=
202001100600 METAR MRPV NIL=
202001100700 METAR MRPV NIL=
202001100800 METAR MRPV NIL=
202001100900 METAR MRPV NIL=
202001101000 METAR MRPV NIL=
202001101100 METAR MRPV NIL=
202001101200 METAR MRPV 101200Z 12010KT 9999 FEW040 18/14 A2997 NOSIG=
202001101300 METAR MRPV 101300Z 10016KT 9999 FEW040 20/14 A2999 NOSIG=
202001101400 METAR MRPV 101400Z 10015KT 9999 FEW045 21/12 A3001 NOSIG=
202001101500 METAR MRPV 101500Z 09015G25KT 9999 FEW045 23/13 A3001 NOSIG=
202001101600 METAR MRPV 101600Z 08016KT 9999 FEW045 24/14 A3001 NOSIG=
202001101700 METAR MRPV 101700Z 07018G30KT 9999 FEW045 23/14 A2999 NOSIG=
202001101800 METAR MRPV 101800Z 07018G30KT 9999 FEW045 25/14 A2995 NOSIG=
202001101900 METAR MRPV 101900Z 08019G29KT 9999 FEW045 25/14 A2995 NOSIG=
202001102000 METAR MRPV 102000Z 07014G27KT 9999 FEW045 25/15 A2991 NOSIG=
202001102100 METAR MRPV 102100Z 08014KT 9999 FEW045 25/15 A2990 NOSIG=
202001102200 METAR MRPV 102200Z 07016KT 9999 FEW045 24/16 A2990 WS R09 NOSIG=
202001102300 METAR MRPV 102300Z 08017G27KT 9999 FEW040 22/16 A2990 WS R09 NOSIG=
202001110000 METAR MRPV 110000Z 10014KT 9999 FEW040 21/16 A2991 WS R09 NOSIG=
202001110100 METAR MRPV NIL=
202001110200 METAR MRPV NIL=
202001110300 METAR MRPV NIL=
202001110400 METAR MRPV NIL=
202001110500 METAR MRPV NIL=
202001110600 METAR MRPV NIL=
202001110700 METAR MRPV NIL=
202001110800 METAR MRPV NIL=
202001110900 METAR MRPV NIL=
202001111000 METAR MRPV NIL=
202001111100 METAR MRPV NIL=
202001111200 METAR MRPV 111200Z 12013G23KT 9999 FEW040 20/15 A2997 NOSIG=
202001111300 METAR MRPV 111300Z 12011KT 9999 FEW040 20/14 A2999 NOSIG=
202001111400 METAR MRPV 111400Z 12013G23KT 9999 FEW040 22/14 A3001 NOSIG=
202001111500 METAR MRPV 111500Z 10017KT CAVOK 23/15 A3001 NOSIG=
202001111600 METAR MRPV 111600Z 09014KT CAVOK 25/15 A3000 NOSIG=
202001111700 METAR MRPV 111700Z 09014KT CAVOK 26/15 A2999 NOSIG=
202001111800 METAR MRPV 111800Z 09011KT CAVOK 26/15 A2997 NOSIG=
202001111900 METAR MRPV 111900Z 08014G24KT CAVOK 27/15 A2993 NOSIG=
202001112000 METAR MRPV 112000Z COR 09015KT CAVOK 28/16 A2991 NOSIG=
202001112100 METAR MRPV 112100Z 09016KT CAVOK 26/16 A2990 NOSIG=
202001112200 METAR MRPV 112200Z 08015KT 9999 FEW035 26/17 A2991 NOSIG=
202001112300 METAR MRPV 112300Z 09016KT 9999 FEW030 24/17 A2993 NOSIG=
202001120000 METAR MRPV 120000Z 10011G21KT 9999 FEW030 22/17 A2995 NOSIG=
202001120100 METAR MRPV NIL=
202001120200 METAR MRPV NIL=
202001120300 METAR MRPV NIL=
202001120400 METAR MRPV NIL=
202001120500 METAR MRPV NIL=
202001120600 METAR MRPV NIL=
202001120700 METAR MRPV NIL=
202001120800 METAR MRPV NIL=
202001120900 METAR MRPV NIL=
202001121000 METAR MRPV NIL=
202001121100 METAR MRPV NIL=
202001121200 METAR MRPV 121200Z 12013KT 9999 FEW035 20/16 A3001 NOSIG=
202001121300 METAR MRPV 121300Z 12012G23KT 9999 FEW035 21/16 A3002 NOSIG=
202001121400 METAR MRPV 121400Z 12012G22KT 9999 FEW035 22/16 A3005 NOSIG=
202001121500 METAR MRPV 121500Z 11013G23KT 9999 FEW035 23/17 A3005 NOSIG=
202001121600 METAR MRPV 121600Z 08018KT 9999 SCT035 23/17 A3005 NOSIG=
202001121700 METAR MRPV 121700Z 10016KT 9999 SCT035 23/17 A3004 NOSIG=
202001121800 METAR MRPV 121800Z 08019G29KT 9999 FEW040 24/17 A3001 NOSIG=
202001121900 METAR MRPV 121900Z 10017G27KT 9999 FEW030 25/17 A2997 NOSIG=
202001122000 METAR MRPV 122000Z 08020G30KT 9999 FEW030 25/16 A2994 NOSIG=
202001122100 METAR MRPV 122100Z 07017G27KT 9999 FEW030 24/16 A2994 NOSIG=
202001122200 METAR MRPV 122200Z 09021G31KT 9999 FEW035 24/16 A2993 NOSIG=
202001122300 METAR MRPV 122300Z 10016G26KT 9999 FEW030 22/16 A2994 NOSIG=
202001130000 METAR MRPV 130000Z 10014G24KT 9999 FEW030 21/16 A2997 NOSIG=
202001130100 METAR MRPV NIL=
202001130200 METAR MRPV NIL=
202001130300 METAR MRPV NIL=
202001130400 METAR MRPV NIL=
202001130500 METAR MRPV NIL=
202001130600 METAR MRPV NIL=
202001130700 METAR MRPV NIL=
202001130800 METAR MRPV NIL=
202001130900 METAR MRPV NIL=
202001131000 METAR MRPV NIL=
202001131100 METAR MRPV NIL=
202001131200 METAR MRPV 131200Z 10010G20KT 9999 FEW030 BKN080 20/14 A3001 NOSIG=
202001131300 METAR MRPV 131300Z 11010G20KT 9999 FEW035 20/15 A3003 NOSIG=
202001131400 METAR MRPV 131400Z 10020G30KT 9999 FEW030 21/15 A3005 NOSIG=
202001131500 METAR MRPV 131500Z 09017G28KT 9999 FEW035 SCT100 23/15 A3006 NOSIG=
202001131600 METAR MRPV 131600Z 11017G29KT 9999 FEW040 SCT100 22/14 A3006 NOSIG=
202001131700 METAR MRPV 131700Z 10020G30KT 9999 FEW035 24/16 A3004 NOSIG=
202001131800 METAR MRPV 131800Z 10019G29KT 9999 FEW045 25/14 A3002 NOSIG=
202001131900 METAR MRPV 131900Z 09022G34KT 9999 FEW040 25/14 A2998 NOSIG=
202001132000 METAR MRPV 132000Z 08019G29KT 9999 FEW045 24/15 A2997 NOSIG=
202001132100 METAR MRPV 132100Z 09021KT 9999 FEW045 BKN100 24/15 A2995 NOSIG=
202001132200 METAR MRPV 132200Z 08021KT 9999 FEW035 BKN100 23/15 A2996 NOSIG=
202001132300 METAR MRPV 132300Z 09021KT 9999 FEW040 BKN100 21/15 A2997 NOSIG=
202001140000 METAR MRPV 140000Z 10016G27KT 9999 FEW035 BKN100 21/15 A2999 NOSIG=
202001140100 METAR MRPV NIL=
202001140200 METAR MRPV NIL=
202001140300 METAR MRPV NIL=
202001140400 METAR MRPV NIL=
202001140500 METAR MRPV NIL=
202001140600 METAR MRPV NIL=
202001140700 METAR MRPV NIL=
202001140800 METAR MRPV NIL=
202001140900 METAR MRPV NIL=
202001141000 METAR MRPV NIL=
202001141100 METAR MRPV NIL=
202001141200 METAR MRPV 141200Z 10012G22KT 9999 FEW035 19/15 A3001 NOSIG=
202001141300 METAR MRPV 141300Z 09010G20KT 9999 FEW035 21/15 A3004 NOSIG=
202001141400 METAR MRPV 141400Z 11013KT 9999 FEW030 21/15 A3007 NOSIG=
202001141500 METAR MRPV 141500Z 10014G24KT 9999 FEW035 23/15 A3006 NOSIG=
202001141600 METAR MRPV 141600Z 08017G27KT 9999 FEW045 23/15 A3005 NOSIG=
202001141700 METAR MRPV 141700Z 08018G28KT 9999 FEW040 25/15 A3002 NOSIG=
202001141800 METAR MRPV 141800Z 08020G30KT 9999 FEW040 25/16 A2998 NOSIG=
202001141900 METAR MRPV 141900Z 07019G29KT 9999 FEW045 25/15 A2995 NOSIG=
202001142000 METAR MRPV 142000Z 07019G31KT 9999 FEW045 25/15 A2992 NOSIG=
202001142100 METAR MRPV 142100Z 08020KT 9999 FEW040 24/15 A2991 NOSIG=
202001142200 METAR MRPV 142200Z 08019G30KT 9999 FEW035 23/15 A2990 NOSIG=
202001142300 METAR MRPV 142300Z 11013KT 9999 FEW040 22/16 A2991 NOSIG=
202001150000 METAR MRPV 150000Z 11012KT 9999 FEW035 21/15 A2993 NOSIG=
202001150100 METAR MRPV NIL=
202001150200 METAR MRPV NIL=
202001150300 METAR MRPV NIL=
202001150400 METAR MRPV NIL=
202001150500 METAR MRPV NIL=
202001150600 METAR MRPV NIL=
202001150700 METAR MRPV NIL=
202001150800 METAR MRPV NIL=
202001150900 METAR MRPV NIL=
202001151000 METAR MRPV NIL=
202001151100 METAR MRPV NIL=
202001151200 METAR MRPV 151200Z 11011KT 9999 FEW040 19/14 A2997 NOSIG=
202001151300 METAR MRPV 151300Z 12011G21KT 9999 FEW040 20/15 A2999 NOSIG=
202001151400 METAR MRPV 151400Z 09019KT CAVOK 22/14 A3001 NOSIG=
202001151500 METAR MRPV 151500Z 09018KT 9999 FEW040 23/15 A3003 NOSIG=
202001151600 METAR MRPV 151600Z 09021KT 9999 FEW045 24/15 A3003 NOSIG=
202001151700 METAR MRPV 151700Z COR 08021G34KT 9999 FEW040 25/15 A3000 WS R09 NOSIG=
202001151800 METAR MRPV 151800Z 09019G30KT 9999 FEW035 25/16 A3000 WS R09 NOSIG=
202001151900 METAR MRPV 151900Z 08021G32KT 9999 FEW045 SCT110 24/15 A2997 WS R09 NOSIG=
202001152000 METAR MRPV 152000Z 08019KT 9999 FEW040 SCT110 23/15 A2995 WS R09 NOSIG=
202001152100 METAR MRPV 152100Z 08017KT 9999 FEW035 24/15 A2994 WS R09 NOSIG=
202001152200 METAR MRPV 152200Z 08018G28KT 9999 FEW040 23/15 A2994 WS R09 NOSIG=
202001152300 METAR MRPV 152300Z 08018KT 9999 FEW040 22/15 A2995 WS R09 NOSIG=
202001160000 METAR MRPV 160000Z 08016KT 9999 FEW040 21/15 A2996 WS R09 NOSIG=
202001160100 METAR MRPV NIL=
202001160200 METAR MRPV NIL=
202001160300 METAR MRPV NIL=
202001160400 METAR MRPV NIL=
202001160500 METAR MRPV NIL=
202001160600 METAR MRPV NIL=
202001160700 METAR MRPV NIL=
202001160800 METAR MRPV NIL=
202001160900 METAR MRPV NIL=
202001161000 METAR MRPV NIL=
202001161100 METAR MRPV NIL=
202001161200 METAR MRPV 161200Z 12012KT CAVOK 19/14 A2999 NOSIG=
202001161300 METAR MRPV 161300Z 11014G24KT CAVOK 20/14 A3002 NOSIG=
202001161400 METAR MRPV 161400Z 11014KT CAVOK 21/15 A3003 NOSIG=
202001161500 METAR MRPV 161500Z 09020G30KT 9999 FEW045 23/15 A3004 WS R09 NOSIG=
202001161600 METAR MRPV 161600Z 08019KT 9999 FEW045 25/15 A3004 WS R09 NOSIG=
202001161700 METAR MRPV 161700Z 08019KT 9999 FEW040 25/15 A3002 WS R09 NOSIG=
202001161800 METAR MRPV 161800Z 08018G28KT 9999 FEW040 27/15 A3000 WS R09 NOSIG=
202001161900 METAR MRPV 161900Z 08017G27KT 9999 SCT035 25/16 A2998 WS R09 NOSIG=
202001162000 METAR MRPV 162000Z 09018G31KT 9999 FEW040 25/16 A2995 WS R09 NOSIG=
202001162100 METAR MRPV 162100Z 08015G26KT 9999 FEW035 25/16 A2994 WS R09 NOSIG=
202001162200 METAR MRPV 162200Z 08016KT 9999 FEW035 24/16 A2995 NOSIG=
202001162300 METAR MRPV 162300Z 08015G25KT 9999 FEW035 23/16 A2994 NOSIG=
202001170000 METAR MRPV 170000Z 09017KT 9999 FEW035 22/15 A2996 NOSIG=
202001170100 METAR MRPV NIL=
202001170200 METAR MRPV NIL=
202001170300 METAR MRPV NIL=
202001170400 METAR MRPV NIL=
202001170500 METAR MRPV NIL=
202001170600 METAR MRPV NIL=
202001170700 METAR MRPV NIL=
202001170800 METAR MRPV NIL=
202001170900 METAR MRPV NIL=
202001171000 METAR MRPV NIL=
202001171100 METAR MRPV NIL=
202001171200 METAR MRPV 171200Z 11013KT 9999 FEW035 21/17 A2998 NOSIG=
202001171300 METAR MRPV 171300Z 10016G26KT 9999 FEW035 21/17 A2999 NOSIG=
202001171400 METAR MRPV 171400Z 12012KT 9999 FEW035 22/17 A3002 NOSIG=
202001171500 METAR MRPV 171500Z 10017G28KT 9999 FEW040 24/17 A3002 NOSIG=
202001171600 METAR MRPV 171600Z 09021KT 9999 FEW040 26/17 A3002 NOSIG=
202001171700 METAR MRPV 171700Z COR 08019G29KT 9999 FEW045 SCT100 26/16 A3000 NOSIG=
202001171800 METAR MRPV 171800Z 09019KT 9999 FEW040 SCT080 26/17 A2998 NOSIG=
202001171900 METAR MRPV 171900Z 10012G24KT 9999 FEW040 SCT080 26/17 A2996 NOSIG=
202001172000 METAR MRPV 172000Z 09018G28KT 9999 FEW040 SCT100 26/17 A2993 NOSIG=
202001172100 METAR MRPV 172100Z 10020G30KT 9999 FEW040 26/17 A2991 NOSIG=
202001172200 METAR MRPV 172200Z 10018G28KT 9999 FEW035 23/17 A2992 NOSIG=
202001172300 METAR MRPV 172300Z 10018G28KT 9999 FEW035 23/17 A2992 NOSIG=
202001180000 METAR MRPV 180000Z 10017G27KT 9999 FEW035 22/17 A2993 NOSIG=
202001180100 METAR MRPV NIL=
202001180200 METAR MRPV NIL=
202001180300 METAR MRPV NIL=
202001180400 METAR MRPV NIL=
202001180500 METAR MRPV NIL=
202001180600 METAR MRPV NIL=
202001180700 METAR MRPV NIL=
202001180800 METAR MRPV NIL=
202001180900 METAR MRPV NIL=
202001181000 METAR MRPV NIL=
202001181100 METAR MRPV NIL=
202001181200 METAR MRPV 181200Z 10017KT 9999 FEW035 21/17 A2997 NOSIG=
202001181300 METAR MRPV 181300Z 11012KT 9999 FEW030 SCT080 21/17 A3000 NOSIG=
202001181400 METAR MRPV 181400Z 11014KT 9999 FEW030 SCT100 22/17 A3002 NOSIG=
202001181500 METAR MRPV 181500Z 10016G26KT 9999 SCT025 23/17 A3003 NOSIG=
202001181600 METAR MRPV 181600Z COR 10015KT 9999 SCT030 SCT100 24/17 A3003 NOSIG=
202001181700 METAR MRPV 181700Z 07017G27KT 9999 FEW030 SCT100 25/17 A3001 NOSIG=
202001181800 METAR MRPV 181800Z 09017KT 9999 FEW035 SCT120 26/18 A2998 NOSIG=
202001181900 METAR MRPV 181900Z 11014G24KT 9999 FEW040 SCT100 26/17 A2996 NOSIG=
202001182000 METAR MRPV 182000Z 09016G26KT 9999 FEW040 SCT100 25/17 A2994 WS R09 NOSIG=
202001182100 METAR MRPV 182100Z 09021G31KT 9999 FEW035 SCT080 24/17 A2993 WS R09 NOSIG=
202001182200 METAR MRPV 182200Z 10018G28KT 9999 FEW035 SCT120 23/17 A2994 WS R09 NOSIG=
202001182300 METAR MRPV 182300Z 11014G24KT 9999 FEW035 SCT100 23/17 A2995 WS R09 NOSIG=
202001190000 METAR MRPV 190000Z 11017G27KT 9999 FEW030 SCT100 22/17 A2996 WS R09 NOSIG=
202001190100 METAR MRPV NIL=
202001190200 METAR MRPV NIL=
202001190300 METAR MRPV NIL=
202001190400 METAR MRPV NIL=
202001190500 METAR MRPV NIL=
202001190600 METAR MRPV NIL=
202001190700 METAR MRPV NIL=
202001190800 METAR MRPV NIL=
202001190900 METAR MRPV NIL=
202001191000 METAR MRPV NIL=
202001191100 METAR MRPV NIL=
202001191200 METAR MRPV 191200Z 11010G20KT 9999 FEW025 SCT080 21/17 A2997 NOSIG=
202001191300 METAR MRPV 191300Z 12010KT 9999 FEW035 21/17 A2999 NOSIG=
202001191400 METAR MRPV 191400Z 11010G20KT 9999 FEW025 SCT100 22/17 A3002 NOSIG=
202001191500 METAR MRPV 191500Z 10013G23KT 9999 FEW025 SCT100 24/17 A3003 NOSIG=
202001191600 METAR MRPV 191600Z 09017G27KT 9999 FEW025 SCT100 25/17 A3003 NOSIG=
202001191700 METAR MRPV 191700Z 09019G29KT 9999 FEW025 SCT100 26/17 A3002 NOSIG=
202001191800 METAR MRPV 191800Z 10018G28KT 9999 FEW030 SCT100 24/17 A3000 NOSIG=
202001191900 METAR MRPV 191900Z 08020G31KT 9999 FEW0250 BKN110 24/17 A2997 NOSIG=
202001192000 METAR MRPV 192000Z 10015KT 9999 FEW025 BKN110 24/17 A2995 NOSIG=
202001192100 METAR MRPV 192100Z 10014KT 9999 FEW030 BKN110 23/17 A2995 NOSIG=
202001192200 METAR MRPV 192200Z 10011KT 9999 -DZ FEW030 BKN100 23/18 A2997 NOSIG=
202001192300 METAR MRPV 192300Z 11009KT 9999 FEW035 BKN080 23/17 A2998 NOSIG=
202001200000 METAR MRPV 200000Z 12011KT 9999 FEW035 BKN090 22/17 A3000 NOSIG=
202001200100 METAR MRPV NIL=
202001200200 METAR MRPV NIL=
202001200300 METAR MRPV NIL=
202001200400 METAR MRPV NIL=
202001200500 METAR MRPV NIL=
202001200600 METAR MRPV NIL=
202001200700 METAR MRPV NIL=
202001200800 METAR MRPV NIL=
202001200900 METAR MRPV NIL=
202001201000 METAR MRPV NIL=
202001201100 METAR MRPV NIL=
202001201200 METAR MRPV 201200Z 11011KT 9999 FEW035 OVC100 21/17 A3002 NOSIG=
202001201300 METAR MRPV 201300Z 11010G20KT 9999 FEW025 BKN100 22/17 A3003 NOSIG=
202001201400 METAR MRPV 201400Z 09011G21KT 9999 FEW025 BKN100 22/17 A3007 NOSIG=
202001201500 METAR MRPV 201500Z 08014G24KT 9999 FEW030 BKN100 22/16 A3009 NOSIG=
202001201600 METAR MRPV 201600Z 08019G29KT 9999 FEW030 BKN100 21/14 A3011 NOSIG=
202001201700 METAR MRPV 201700Z 10015G25KT 9999 FEW040 BKN100 25/16 A3008 NOSIG=
202001201800 METAR MRPV 201800Z 10014G24KT 9999 FEW035 BKN100 26/17 A3006 NOSIG=
202001201900 METAR MRPV 201900Z 10017KT 9999 FEW035 BKN100 25/17 A3003 NOSIG=
202001202000 METAR MRPV 202000Z 10016KT 9999 FEW035 BKN100 24/17 A3001 NOSIG=
202001202100 METAR MRPV 202100Z 10016KT 9999 FEW035 BKN100 25/17 A3000 NOSIG=
202001202200 METAR MRPV 202200Z 08019KT 9999 FEW025 BKN100 22/15 A3001 NOSIG=
202001202300 METAR MRPV 202300Z 10014KT 9999 FEW030 BKN100 21/16 A3002 NOSIG=
202001210000 METAR MRPV 210000Z 12012KT 9999 SCT035 BKN100 21/16 A3004 NOSIG=
202001210100 METAR MRPV NIL=
202001210200 METAR MRPV NIL=
202001210300 METAR MRPV NIL=
202001210400 METAR MRPV NIL=
202001210500 METAR MRPV NIL=
202001210600 METAR MRPV NIL=
202001210700 METAR MRPV NIL=
202001210800 METAR MRPV NIL=
202001210900 METAR MRPV NIL=
202001211000 METAR MRPV NIL=
202001211100 METAR MRPV NIL=
202001211200 METAR MRPV 211200Z 11010KT 9999 FEW035 OVC090 20/16 A3006 NOSIG=
202001211300 METAR MRPV 211300Z 11010KT 9999 FEW035 OVC090 21/16 A3009 NOSIG=
202001211400 METAR MRPV 211400Z 12007KT 9999 FEW040 OVC100 21/16 A3010 NOSIG=
202001211500 METAR MRPV 211500Z 10013G23KT 9999 FEW045 OVC100 22/16 A3010 NOSIG=
202001211600 METAR MRPV 211600Z 09017KT 9999 FEW040 OVC100 24/16 A3010 NOSIG=
202001211700 METAR MRPV 211700Z 09016KT 9999 FEW040 OVC100 24/16 A3008 NOSIG=
202001211800 METAR MRPV 211800Z 11012KT 9999 SCT045 BKN120 25/17 A3006 NOSIG=
202001211900 METAR MRPV 211900Z 09015KT 9999 FEW035 BKN120 24/16 A3004 NOSIG=
202001212000 METAR MRPV 212000Z 09016KT 9999 FEW030 BKN120 24/16 A3001 NOSIG=
202001212100 METAR MRPV 212100Z 12012KT 9999 FEW020 BKN120 23/16 A3000 NOSIG=
202001212200 METAR MRPV 212200Z 11013KT 9999 FEW030 BKN120 22/16 A3000 NOSIG=
202001212300 METAR MRPV 212300Z 10016KT 9999 SCT025 BKN120 21/16 A3002 NOSIG=
202001220000 METAR MRPV 220000Z 10016KT 9999 FEW025 BKN100 20/15 A3004 NOSIG=
202001220100 METAR MRPV NIL=
202001220200 METAR MRPV NIL=
202001220300 METAR MRPV NIL=
202001220400 METAR MRPV NIL=
202001220500 METAR MRPV NIL=
202001220600 METAR MRPV NIL=
202001220700 METAR MRPV NIL=
202001220800 METAR MRPV NIL=
202001220900 METAR MRPV NIL=
202001221000 METAR MRPV NIL=
202001221100 METAR MRPV NIL=
202001221200 METAR MRPV 221200Z 10015KT CAVOK 19/14 A3007 NOSIG=
202001221300 METAR MRPV 221300Z 12012KT CAVOK 19/15 A3008 NOSIG=
202001221400 METAR MRPV 221400Z 11013KT 9999 FEW030 BKN120 20/15 A3011 NOSIG=
202001221500 METAR MRPV 221500Z 11013G23KT 9999 FEW035 BKN120 20/14 A3013 NOSIG=
202001221600 METAR MRPV 221600Z 10018KT 9999 FEW030 BKN140 22/14 A3011 NOSIG=
202001221700 METAR MRPV 221700Z 10017KT 9999 FEW030 BKN140 21/13 A3010 NOSIG=
202001221800 METAR MRPV 221800Z 09020KT 9999 FEW030 BKN140 21/14 A3007 NOSIG=
202001221900 METAR MRPV 221900Z 10014G24KT 9999 FEW030 BKN160 22/14 A3005 NOSIG=
202001222000 METAR MRPV 222000Z 10012KT 9999 FEW025 BKN160 22/14 A3001 NOSIG=
202001222100 METAR MRPV 222100Z 10013KT 9999 FEW030 BKN160 22/14 A2999 NOSIG=
202001222200 METAR MRPV 222200Z 11013KT 9999 FEW020 BKN140 20/14 A3001 NOSIG=
202001222300 METAR MRPV 222300Z 11013KT 9999 FEW020 BKN120 20/14 A3001 NOSIG=
202001230000 METAR MRPV 230000Z 12012KT 9999 FEW020 BKN120 19/14 A3003 NOSIG=
202001230100 METAR MRPV NIL=
202001230200 METAR MRPV NIL=
202001230300 METAR MRPV NIL=
202001230400 METAR MRPV NIL=
202001230500 METAR MRPV NIL=
202001230600 METAR MRPV NIL=
202001230700 METAR MRPV NIL=
202001230800 METAR MRPV NIL=
202001230900 METAR MRPV NIL=
202001231000 METAR MRPV NIL=
202001231100 METAR MRPV NIL=
202001231200 METAR MRPV 231200Z 13008KT 9999 FEW040 SCT120 18/15 A3003 NOSIG=
202001231300 METAR MRPV 231300Z 14009KT 9999 FEW040 BKN120 19/15 A3005 NOSIG=
202001231400 METAR MRPV 231400Z 13009KT 9999 FEW035 SCT120 21/16 A3007 NOSIG=
202001231500 METAR MRPV 231500Z 13012KT 9999 FEW040 BKN120 22/16 A3009 NOSIG=
202001231600 METAR MRPV 231600Z 10015KT CAVOK 24/16 A3008 NOSIG=
202001231700 METAR MRPV 231700Z 10012KT CAVOK 25/16 A3005 NOSIG=
202001231800 METAR MRPV 231800Z 10010KT 9999 FEW040 BKN140 26/16 A3003 NOSIG=
202001231900 METAR MRPV 231900Z 20004KT 9999 FEW040 SCT140 27/16 A2999 NOSIG=
202001232000 METAR MRPV 232000Z 27013KT 9999 SCT040 28/18 A2997 NOSIG=
202001232100 METAR MRPV 232100Z 26006KT 9999 SCT035 25/19 A2996 NOSIG=
202001232200 METAR MRPV 232200Z 26005KT 9999 DZ BKN030 25/19 A2998 NOSIG=
202001232300 METAR MRPV 232300Z COR 14004KT 9999 SCT025 23/19 A2999 NOSIG=
202001240000 METAR MRPV 240000Z 11006KT 9999 SCT030 21/17 A3000 NOSIG=
202001240100 METAR MRPV NIL=
202001240200 METAR MRPV NIL=
202001240300 METAR MRPV NIL=
202001240400 METAR MRPV NIL=
202001240500 METAR MRPV NIL=
202001240600 METAR MRPV NIL=
202001240700 METAR MRPV NIL=
202001240800 METAR MRPV NIL=
202001240900 METAR MRPV NIL=
202001241000 METAR MRPV NIL=
202001241100 METAR MRPV NIL=
202001241200 METAR MRPV 241200Z 12012KT CAVOK 19/14 A3004 NOSIG=
202001241300 METAR MRPV 241300Z 13010G20KT CAVOK 20/15 A3007 NOSIG=
202001241400 METAR MRPV 241400Z 13010G20KT 9999 FEW025 21/15 A3008 NOSIG=
202001241500 METAR MRPV 241500Z 12014KT CAVOK 23/15 A3010 NOSIG=
202001241600 METAR MRPV 241600Z 11012KT CAVOK 25/16 A3010 NOSIG=
202001241700 METAR MRPV 241700Z 10016KT CAVOK 26/16 A3008 NOSIG=
202001241800 METAR MRPV 241800Z 09012KT 9999 FEW045 27/16 A3005 NOSIG=
202001241900 METAR MRPV 241900Z 09010G20KT 9999 FEW045 27/16 A3003 NOSIG=
202001242000 METAR MRPV 242000Z 09012KT 9999 FEW040 28/17 A3000 NOSIG=
202001242100 METAR MRPV 242100Z 09009KT 9999 FEW045 27/17 A2998 NOSIG=
202001242200 METAR MRPV 242200Z 09007KT 9999 FEW040 26/17 A2998 NOSIG=
202001242300 METAR MRPV 242300Z 10013KT 9999 FEW035 23/17 A2999 NOSIG=
202001250000 METAR MRPV 250000Z 11013KT 9999 FEW045 22/17 A3002 NOSIG=
202001250100 METAR MRPV NIL=
202001250200 METAR MRPV NIL=
202001250300 METAR MRPV NIL=
202001250400 METAR MRPV NIL=
202001250500 METAR MRPV NIL=
202001250600 METAR MRPV NIL=
202001250700 METAR MRPV NIL=
202001250800 METAR MRPV NIL=
202001250900 METAR MRPV NIL=
202001251000 METAR MRPV NIL=
202001251100 METAR MRPV NIL=
202001251200 METAR MRPV 251200Z COR 12011G21KT 9999 FEW025 18/14 A3007 NOSIG=
202001251300 METAR MRPV 251300Z 12010G20KT 9999 FEW025 19/15 A3010 NOSIG=
202001251400 METAR MRPV 251400Z 12011G21KT 9999 FEW030 20/15 A3013 NOSIG=
202001251500 METAR MRPV 251500Z 09011G21KT 9999 FEW035 21/15 A3014 NOSIG=
202001251600 METAR MRPV 251600Z 09015G25KT 9999 FEW035 23/15 A3013 NOSIG=
202001251700 METAR MRPV 251700Z 10012G22KT 9999 FEW040 24/15 A3011 NOSIG=
202001251800 METAR MRPV 251800Z 10015KT 9999 FEW040 25/15 A3008 NOSIG=
202001251900 METAR MRPV 251900Z 09014KT 9999 FEW045 26/14 A3004 NOSIG=
202001252000 METAR MRPV 252000Z 09012KT 9999 FEW045 26/15 A3001 NOSIG=
202001252100 METAR MRPV 252100Z 08013KT 9999 SCT045 25/15 A3001 NOSIG=
202001252200 METAR MRPV 252200Z 09014KT 9999 FEW035 SCT070 23/15 A3002 NOSIG=
202001252300 METAR MRPV 252300Z 10011KT 9999 FEW030 BKN070 22/15 A3004 NOSIG=
202001260000 METAR MRPV 260000Z 10013KT 9999 FEW030 BKN080 20/15 A3006 NOSIG=
202001260100 METAR MRPV NIL=
202001260200 METAR MRPV NIL=
202001260300 METAR MRPV NIL=
202001260400 METAR MRPV NIL=
202001260500 METAR MRPV NIL=
202001260600 METAR MRPV NIL=
202001260700 METAR MRPV NIL=
202001260800 METAR MRPV NIL=
202001260900 METAR MRPV NIL=
202001261000 METAR MRPV NIL=
202001261100 METAR MRPV NIL=
202001261200 METAR MRPV 261200Z COR 12010KT CAVOK 18/12 A3009 NOSIG=
202001261300 METAR MRPV 261300Z 13009KT CAVOK 18/13 A3011 NOSIG=
202001261400 METAR MRPV 261400Z 11013KT CAVOK 20/13 A3012 NOSIG=
202001261500 METAR MRPV 261500Z 12013G23KT CAVOK 24/13 A3012 NOSIG=
202001261600 METAR MRPV 261600Z 10015KT CAVOK 24/14 A3012 NOSIG=
202001261700 METAR MRPV 261700Z 08010G20KT CAVOK 26/14 A3011 NOSIG=
202001261800 METAR MRPV 261800Z 09009KT CAVOK 27/14 A3007 NOSIG=
202001261900 METAR MRPV 261900Z 10010KT 9999 FEW045 SCT140 27/15 A3004 NOSIG=
202001262000 METAR MRPV 262000Z 09009KT 9999 FEW045 SCT140 27/15 A3002 NOSIG=
202001262100 METAR MRPV 262100Z 06005KT 9999 FEW040 26/17 A3001 NOSIG=
202001262200 METAR MRPV 262200Z 28008KT 9999 SCT040 25/18 A3001 NOSIG=
202001262300 METAR MRPV 262300Z 30009KT 9999 SCT035 24/18 A3003 NOSIG=
202001270000 METAR MRPV 270000Z 29006KT 9999 BKN090 22/18 A3005 NOSIG=
202001270100 METAR MRPV NIL=
202001270200 METAR MRPV NIL=
202001270300 METAR MRPV NIL=
202001270400 METAR MRPV NIL=
202001270500 METAR MRPV NIL=
202001270600 METAR MRPV NIL=
202001270700 METAR MRPV NIL=
202001270800 METAR MRPV NIL=
202001270900 METAR MRPV NIL=
202001271000 METAR MRPV NIL=
202001271100 METAR MRPV NIL=
202001271200 METAR MRPV 271200Z 00000KT 9999 SCT030 19/17 A3008 NOSIG=
202001271300 METAR MRPV 271300Z 09002KT 9999 FEW030 BKN100 19/17 A3009 NOSIG=
202001271400 METAR MRPV 271400Z 10003KT 9999 FEW025 BKN080 22/16 A3012 NOSIG=
202001271500 METAR MRPV 271500Z 12003KT 9999 FEW030 BKN080 23/16 A3013 NOSIG=
202001271600 METAR MRPV 271600Z 09004KT 9999 FEW035 BKN080 23/16 A3012 NOSIG=
202001271700 METAR MRPV 271700Z 21002KT 9999 SCT035 BKN060 24/16 A3012 NOSIG=
202001271800 METAR MRPV 271800Z COR 24003KT 9999 SCT035 BKN060 25/16 A3009 NOSIG=
202001271900 METAR MRPV 271900Z VRB01KT 9999 FEW035 BKN060 26/16 A3007 NOSIG=
202001272000 METAR MRPV 272000Z 32001KT 9999 FEW035 BKN060 26/16 A3003 NOSIG=
202001272100 METAR MRPV 272100Z 27004KT 9999 BKN040 25/17 A3002 NOSIG=
202001272200 METAR MRPV 272200Z 28010KT 9999 BKN035 23/19 A3002 NOSIG=
202001272300 METAR MRPV 272300Z 24005KT 9999 -RA BKN025 21/19 A3004 NOSIG=
202001280000 METAR MRPV 280000Z 31003KT 130V310 9999 -RA BKN020 21/18 A3007 NOSIG=
202001280100 METAR MRPV NIL=
202001280200 METAR MRPV NIL=
202001280300 METAR MRPV NIL=
202001280400 METAR MRPV NIL=
202001280500 METAR MRPV NIL=
202001280600 METAR MRPV NIL=
202001280700 METAR MRPV NIL=
202001280800 METAR MRPV NIL=
202001280900 METAR MRPV NIL=
202001281000 METAR MRPV NIL=
202001281100 METAR MRPV NIL=
202001281200 METAR MRPV 281200Z 00000KT CAVOK 18/17 A3007 NOSIG=
202001281300 METAR MRPV 281300Z 10001KT CAVOK 19/17 A3008 NOSIG=
202001281400 METAR MRPV 281400Z 34001KT 9999 FEW045 BKN120 21/17 A3010 NOSIG=
202001281500 METAR MRPV 281500Z 02001KT 9999 FEW040 SCT180 23/17 A3010 NOSIG=
202001281600 METAR MRPV 281600Z 06004KT 9999 FEW035 SCT140 25/17 A3008 NOSIG=
202001281700 METAR MRPV 281700Z 35004KT 9999 FEW035 SCT120 27/16 A3005 NOSIG=
202001281800 METAR MRPV 281800Z 29005KT 220V290 9999 SCT040 BKN100 28/17 A3002 NOSIG=
202001281900 METAR MRPV 281900Z 27008KT 9999 SHRA SCT025TCU BKN090 24/19 A3001 NOSIG=
202001282000 METAR MRPV 282000Z 28007KT 9999 -RA SCT020 BKN070 22/20 A3000 NOSIG=
202001282100 METAR MRPV 282100Z 28004KT 9999 -RA FEW015 BKN090 21/19 A2999 NOSIG=
202001282200 METAR MRPV 282200Z 25002KT 9999 FEW010 BKN090 21/19 A2999 NOSIG=
202001282300 METAR MRPV 282300Z 29002KT 9999 -RA FEW010 BKN090 21/19 A3000 NOSIG=
202001290000 METAR MRPV 290000Z 31003KT 9999 4500S -RA BCFG BKN010 20/19 A3002 NOSIG=
202001290100 METAR MRPV NIL=
202001290200 METAR MRPV NIL=
202001290300 METAR MRPV NIL=
202001290400 METAR MRPV NIL=
202001290500 METAR MRPV NIL=
202001290600 METAR MRPV NIL=
202001290700 METAR MRPV NIL=
202001290800 METAR MRPV NIL=
202001290900 METAR MRPV NIL=
202001291000 METAR MRPV NIL=
202001291100 METAR MRPV NIL=
202001291200 METAR MRPV 291200Z 07002KT CAVOK 19/18 A3007 NOSIG=
202001291300 METAR MRPV 291300Z 07004KT 9999 BCFG FEW020 BKN100 19/17 A3009 NOSIG=
202001291400 METAR MRPV 291400Z 28001KT 9999 -RA FEW045 SCT100 BKN140 19/18 A3010 NOSIG=
202001291500 METAR MRPV 291500Z VRB02KT 9999 BCFG FEW020 SCT100 BKN140 20/19 A3012 NOSIG=
202001291600 METAR MRPV 291600Z 09006KT 9999 FEW045 BKN120 23/19 A3010 NOSIG=
202001291700 METAR MRPV 291700Z 29003KT 9999 FEW040 BKN120 25/19 A3008 NOSIG=
202001291800 METAR MRPV 291800Z 33002KT 9999 FEW035 BKN120 26/18 A3005 NOSIG=
202001291900 METAR MRPV 291900Z 28008KT 9999 FEW035 BKN120 26/20 A3002 NOSIG=
202001292000 METAR MRPV 292000Z 29012KT 9999 BKN020 24/20 A3001 NOSIG=
202001292100 METAR MRPV 292100Z COR 27008KT 9000 SCT020 OVC070 23/19 A2999 NOSIG=
202001292200 METAR MRPV 292200Z 28006KT 7000 FEW010 SCT025 BKN080 22/19 A3000 NOSIG=
202001292300 METAR MRPV 292300Z 33003KT 7000 FEW015 SCT030 BKN080 22/19 A3000 NOSIG=
202001300000 METAR MRPV 300000Z 18001KT 7000 FEW035 BKN080 21/19 A3001 NOSIG=
202001300100 METAR MRPV NIL=
202001300200 METAR MRPV NIL=
202001300300 METAR MRPV NIL=
202001300400 METAR MRPV NIL=
202001300500 METAR MRPV NIL=
202001300600 METAR MRPV NIL=
202001300700 METAR MRPV NIL=
202001300800 METAR MRPV NIL=
202001300900 METAR MRPV NIL=
202001301000 METAR MRPV NIL=
202001301100 METAR MRPV NIL=
202001301200 METAR MRPV 301200Z 11003KT CAVOK 19/16 A3002 NOSIG=
202001301300 METAR MRPV 301300Z 10005KT CAVOK 20/16 A3004 NOSIG=
202001301400 METAR MRPV 301400Z 12006KT CAVOK 23/16 A3005 NOSIG=
202001301500 METAR MRPV 301500Z 08010KT CAVOK 24/16 A3007 NOSIG=
202001301600 METAR MRPV 301600Z 09007KT CAVOK 27/14 A3006 NOSIG=
202001301700 METAR MRPV 301700Z 11010KT CAVOK 29/08 A3004 NOSIG=
202001301800 METAR MRPV 301800Z 08012KT 9999 FEW040 28/14 A3002 NOSIG=
202001301900 METAR MRPV 301900Z 10012KT 9999 FEW040 29/13 A3000 NOSIG=
202001302000 METAR MRPV 302000Z 08011KT 9999 FEW040 28/15 A2998 NOSIG=
202001302100 METAR MRPV 302100Z 26005KT 9999 FEW030 25/19 A2998 NOSIG=
202001302200 METAR MRPV 302200Z 32004KT 9999 FEW040 25/18 A2998 NOSIG=
202001302300 METAR MRPV 302300Z 28005KT 9999 FEW045 25/19 A2998 NOSIG=
202001310000 METAR MRPV 310000Z 25003KT 9999 FEW040 23/18 A3001 NOSIG=
202001310100 METAR MRPV NIL=
202001310200 METAR MRPV NIL=
202001310300 METAR MRPV NIL=
202001310400 METAR MRPV NIL=
202001310500 METAR MRPV NIL=
202001310600 METAR MRPV NIL=
202001310700 METAR MRPV NIL=
202001310800 METAR MRPV NIL=
202001310900 METAR MRPV NIL=
202001311000 METAR MRPV NIL=
202001311100 METAR MRPV NIL=
202001311200 METAR MRPV 311200Z 14008KT CAVOK 18/13 A3001 NOSIG=
202001311300 METAR MRPV 311300Z 14006KT CAVOK 19/13 A3003 NOSIG=
202001311400 METAR MRPV 311400Z 13010KT CAVOK 21/14 A3006 NOSIG=
202001311500 METAR MRPV 311500Z 11010KT CAVOK 23/13 A3007 NOSIG=
202001311600 METAR MRPV 311600Z 11009KT CAVOK 24/14 A3006 NOSIG=
202001311700 METAR MRPV 311700Z 09011KT CAVOK 25/14 A3005 NOSIG=
202001311800 METAR MRPV 311800Z 09015KT CAVOK 26/14 A3002 NOSIG=
202001311900 METAR MRPV 311900Z 08010KT 9999 FEW045 26/14 A3000 NOSIG=
202001312000 METAR MRPV 312000Z 09011KT 9999 FEW045 27/14 A2999 NOSIG=
202001312100 METAR MRPV 312100Z 09011KT 9999 FEW040 27/15 A2997 NOSIG=
202001312200 METAR MRPV 312200Z 09011KT 9999 FEW045 26/15 A2997 NOSIG=
202001312300 METAR MRPV 312300Z 10011KT 9999 FEW040 25/15 A2998 NOSIG=
202002010000 METAR MRPV 010000Z 11007KT 9999 FEW035 22/16 A3001 NOSIG=
202002010100 METAR MRPV NIL=
202002010200 METAR MRPV NIL=
202002010300 METAR MRPV NIL=
202002010400 METAR MRPV NIL=
202002010500 METAR MRPV NIL=
202002010600 METAR MRPV NIL=
202002010700 METAR MRPV NIL=
202002010800 METAR MRPV NIL=
202002010900 METAR MRPV NIL=
202002011000 METAR MRPV NIL=
202002011100 METAR MRPV NIL=
202002011200 METAR MRPV 011200Z 13006KT CAVOK 18/14 A3007 NOSIG=
202002011300 METAR MRPV 011300Z 15005KT CAVOK 19/14 A3009 NOSIG=
202002011400 METAR MRPV 011400Z 14007KT CAVOK 21/14 A3011 NOSIG=
202002011500 METAR MRPV 011500Z 09012KT CAVOK 23/14 A3012 NOSIG=
202002011600 METAR MRPV 011600Z 09009KT CAVOK 25/14 A3011 NOSIG=
202002011700 METAR MRPV 011700Z 09009KT CAVOK 26/15 A3008 NOSIG=
202002011800 METAR MRPV 011800Z 08011KT CAVOK 27/15 A3005 NOSIG=
202002011900 METAR MRPV 011900Z 11008KT 9999 FEW045 29/15 A3002 NOSIG=
202002012000 METAR MRPV 012000Z 09009KT 9999 SCT045 28/16 A3000 NOSIG=
202002012100 METAR MRPV 012100Z 10013KT 9999 SCT045 26/16 A2999 NOSIG=
202002012200 METAR MRPV 012200Z 10013KT 9999 FEW035 BKN080 24/16 A3001 NOSIG=
202002012300 METAR MRPV 012300Z 10012KT 9999 FEW030 BKN090 23/16 A3002 NOSIG=
202002020000 METAR MRPV 020000Z 11010KT 9999 FEW020 SCT090 21/16 A3004 NOSIG=
202002020100 METAR MRPV NIL=
202002020200 METAR MRPV NIL=
202002020300 METAR MRPV NIL=
202002020400 METAR MRPV NIL=
202002020500 METAR MRPV NIL=
202002020600 METAR MRPV NIL=
202002020700 METAR MRPV NIL=
202002020800 METAR MRPV NIL=
202002020900 METAR MRPV NIL=
202002021000 METAR MRPV NIL=
202002021100 METAR MRPV NIL=
202002021200 METAR MRPV 021200Z 11011KT 9999 FEW030 20/15 A3009 NOSIG=
202002021300 METAR MRPV 021300Z 11011KT 9999 FEW030 21/16 A3011 NOSIG=
202002021400 METAR MRPV 021400Z 10013KT 9999 FEW030 SCT100 22/16 A3012 NOSIG=
202002021500 METAR MRPV 021500Z 09017KT 9999 FEW030 23/16 A3012 NOSIG=
202002021600 METAR MRPV 021600Z 10021KT 9999 FEW025 23/17 A3012 NOSIG=
202002021700 METAR MRPV 021700Z 10022KT 9999 FEW025 24/18 A3010 NOSIG=
202002021800 METAR MRPV 021800Z 08022G36KT 9999 FEW030 SCT110 25/17 A3008 WS R09 NOSIG=
202002021900 METAR MRPV 021900Z 09020G31KT 9999 FEW030 SCT110 25/17 A3005 WS R09 NOSIG=
202002022000 METAR MRPV 022000Z 09021G31KT 9999 FEW035 SCT110 24/17 A3002 WS R09 NOSIG=
202002022100 METAR MRPV 022100Z 09021G31KT 9999 FEW035 BKN100 25/17 A3001 WS R09 NOSIG=
202002022200 METAR MRPV 022200Z 10020G35KT 9999 FEW025 BKN100 23/16 A3001 WS R09 NOSIG=
202002022300 METAR MRPV 022300Z 09018G29KT 9999 FEW030 BKN120 21/16 A3002 WS R09 NOSIG=
202002030000 METAR MRPV 030000Z 09015G25KT 9999 SCT030 21/16 A3003 WS R09 NOSIG=
202002030100 METAR MRPV NIL=
202002030200 METAR MRPV NIL=
202002030300 METAR MRPV NIL=
202002030400 METAR MRPV NIL=
202002030500 METAR MRPV NIL=
202002030600 METAR MRPV NIL=
202002030700 METAR MRPV NIL=
202002030800 METAR MRPV NIL=
202002030900 METAR MRPV NIL=
202002031000 METAR MRPV NIL=
202002031100 METAR MRPV NIL=
202002031200 METAR MRPV 031200Z 10018KT 9999 FEW045 19/14 A3004 NOSIG=
202002031300 METAR MRPV 031300Z 08017KT 9999 FEW045 20/14 A3007 NOSIG=
202002031400 METAR MRPV 031400Z 08020G30KT 9999 FEW040 21/14 A3009 NOSIG=
202002031500 METAR MRPV 031500Z 09016KT 9999 FEW045 23/14 A3011 NOSIG=
202002031600 METAR MRPV 031600Z 06016KT 9999 FEW045 22/15 A3011 NOSIG=
202002031700 METAR MRPV 031700Z 08018KT 9999 FEW045 BKN250 24/15 A3010 NOSIG=
202002031800 METAR MRPV 031800Z 06017KT 9999 FEW045 BKN250 24/16 A3008 NOSIG=
202002031900 METAR MRPV 031900Z 08019KT 9999 FEW045 BKN250 25/15 A3005 NOSIG=
202002032000 METAR MRPV 032000Z 06016KT 9999 SCT040 BKN200 24/17 A3003 NOSIG=
202002032100 METAR MRPV 032100Z 07014KT 9999 SCT035 SCT200 25/16 A3001 NOSIG=
202002032200 METAR MRPV 032200Z 07015G25KT 9999 FEW025 SCT040 BKN200 22/16 A3002 NOSIG=
202002032300 METAR MRPV 032300Z 08017KT 9999 FEW025 OVC200 22/15 A3003 NOSIG=
202002040000 METAR MRPV 040000Z 09014KT 9999 FEW030 BKN200 21/15 A3004 NOSIG=
202002040100 METAR MRPV NIL=
202002040200 METAR MRPV NIL=
202002040300 METAR MRPV NIL=
202002040400 METAR MRPV NIL=
202002040500 METAR MRPV NIL=
202002040600 METAR MRPV NIL=
202002040700 METAR MRPV NIL=
202002040800 METAR MRPV NIL=
202002040900 METAR MRPV NIL=
202002041000 METAR MRPV NIL=
202002041100 METAR MRPV NIL=
202002041200 METAR MRPV 041200Z 13009KT 9999 FEW040 SCT200 18/15 A3005 NOSIG=
202002041300 METAR MRPV 041300Z 13008KT 9999 FEW040 SCT200 19/15 A3007 NOSIG=
202002041400 METAR MRPV 041400Z 13010KT 9999 FEW035 SCT250 22/15 A3009 NOSIG=
202002041500 METAR MRPV 041500Z 10011KT CAVOK 24/15 A3010 NOSIG=
202002041600 METAR MRPV 041600Z 09014KT CAVOK 24/15 A3009 NOSIG=
202002041700 METAR MRPV 041700Z 09016KT 9999 FEW045 BKN200 24/15 A3007 NOSIG=
202002041800 METAR MRPV 041800Z 09017KT 9999 FEW045 BKN200 26/16 A3004 NOSIG=
202002041900 METAR MRPV 041900Z 09018KT 9999 FEW035 SCT200 27/16 A3002 NOSIG=
202002042000 METAR MRPV 042000Z 09015G25KT 9999 FEW035 26/16 A2999 NOSIG=
202002042100 METAR MRPV 042100Z 08015G25KT 9999 FEW035 26/16 A2998 NOSIG=
202002042200 METAR MRPV 042200Z 08013G23KT 9999 FEW035 25/16 A2999 NOSIG=
202002042300 METAR MRPV 042300Z 10010G20KT 9999 FEW035 24/16 A2999 NOSIG=
202002050000 METAR MRPV 050000Z 12010KT 9999 FEW030 22/16 A3002 NOSIG=
202002050100 METAR MRPV NIL=
202002050200 METAR MRPV NIL=
202002050300 METAR MRPV NIL=
202002050400 METAR MRPV NIL=
202002050500 METAR MRPV NIL=
202002050600 METAR MRPV NIL=
202002050700 METAR MRPV NIL=
202002050800 METAR MRPV NIL=
202002050900 METAR MRPV NIL=
202002051000 METAR MRPV NIL=
202002051100 METAR MRPV NIL=
202002051200 METAR MRPV 051200Z 13006KT 9999 FEW040 BKN200 20/15 A3004 NOSIG=
202002051300 METAR MRPV 051300Z 12008KT 9999 FEW040 BKN200 20/15 A3006 NOSIG=
202002051400 METAR MRPV 051400Z 12009KT 9999 FEW035 SCT200 22/15 A3007 NOSIG=
202002051500 METAR MRPV 051500Z 13009KT 9999 FEW040 SCT200 24/15 A3009 NOSIG=
202002051600 METAR MRPV 051600Z 10012KT 9999 FEW040 SCT230 25/15 A3008 NOSIG=
202002051700 METAR MRPV 051700Z 10011KT 9999 FEW040 26/15 A3005 NOSIG=
202002051800 METAR MRPV 051800Z 09012KT 9999 FEW045 26/15 A3002 NOSIG=
202002051900 METAR MRPV 051900Z 08013KT 9999 FEW045 27/16 A2999 NOSIG=
202002052000 METAR MRPV 052000Z 09015KT 9999 FEW045 27/16 A2994 NOSIG=
202002052100 METAR MRPV 052100Z 09013KT 9999 FEW045 27/16 A2992 NOSIG=
202002052200 METAR MRPV 052200Z 09013KT 9999 FEW045 25/16 A2992 NOSIG=
202002052300 METAR MRPV 052300Z 09012KT 9999 FEW030 23/16 A2994 NOSIG=
202002060000 METAR MRPV 060000Z 10011KT 9999 FEW030 22/16 A2996 NOSIG=
202002060100 METAR MRPV NIL=
202002060200 METAR MRPV NIL=
202002060300 METAR MRPV NIL=
202002060400 METAR MRPV NIL=
202002060500 METAR MRPV NIL=
202002060600 METAR MRPV NIL=
202002060700 METAR MRPV NIL=
202002060800 METAR MRPV NIL=
202002060900 METAR MRPV NIL=
202002061000 METAR MRPV NIL=
202002061100 METAR MRPV NIL=
202002061200 METAR MRPV 061200Z 15005KT CAVOK 16/12 A3000 NOSIG=
202002061300 METAR MRPV 061300Z 17002KT CAVOK 18/13 A3002 NOSIG=
202002061400 METAR MRPV 061400Z 14004KT CAVOK 22/14 A3004 NOSIG=
202002061500 METAR MRPV 061500Z 12005KT CAVOK 24/13 A3005 NOSIG=
202002061600 METAR MRPV 061600Z 14003KT 060V140 CAVOK 26/14 A3004 NOSIG=
202002061700 METAR MRPV 061700Z 29008KT CAVOK 28/15 A3002 NOSIG=
202002061800 METAR MRPV 061800Z 25007KT 9999 SCT045 28/16 A2999 NOSIG=
202002061900 METAR MRPV 061900Z 24006KT 9999 SCT045 29/16 A2996 NOSIG=
202002062000 METAR MRPV 062000Z 27009KT 9999 SCT045 28/16 A2993 NOSIG=
202002062100 METAR MRPV 062100Z 25007KT 9999 BKN040 27/17 A2993 NOSIG=
202002062200 METAR MRPV 062200Z 22004KT 9999 SCT035 27/16 A2994 NOSIG=
202002062300 METAR MRPV 062300Z 09007KT 9999 SCT035 25/17 A2995 NOSIG=
202002070000 METAR MRPV 070000Z 10010KT 9999 FEW040 22/17 A2996 NOSIG=
202002070100 METAR MRPV NIL=
202002070200 METAR MRPV NIL=
202002070300 METAR MRPV NIL=
202002070400 METAR MRPV NIL=
202002070500 METAR MRPV NIL=
202002070600 METAR MRPV NIL=
202002070700 METAR MRPV NIL=
202002070800 METAR MRPV NIL=
202002070900 METAR MRPV NIL=
202002071000 METAR MRPV NIL=
202002071100 METAR MRPV NIL=
202002071200 METAR MRPV 071200Z 12003KT CAVOK 16/12 A3002 NOSIG=
202002071300 METAR MRPV 071300Z 09007KT CAVOK 18/12 A3004 NOSIG=
202002071400 METAR MRPV 071400Z VRB02KT CAVOK 21/13 A3005 NOSIG=
202002071500 METAR MRPV 071500Z 36002KT CAVOK 25/15 A3007 NOSIG=
202002071600 METAR MRPV 071600Z 29005KT CAVOK 26/15 A3007 NOSIG=
202002071700 METAR MRPV 071700Z 30005KT CAVOK 28/14 A3005 NOSIG=
202002071800 METAR MRPV 071800Z 30007KT CAVOK 28/14 A3002 NOSIG=
202002071900 METAR MRPV 071900Z 26007KT 9999 FEW045 29/16 A2999 NOSIG=
202002072000 METAR MRPV 072000Z 29011KT 9999 SCT045 28/17 A2997 NOSIG=
202002072100 METAR MRPV 072100Z 24004KT 9999 SCT045 28/18 A2997 NOSIG=
202002072200 METAR MRPV 072200Z 09009KT 9999 SCT035 25/17 A2997 NOSIG=
202002072300 METAR MRPV 072300Z COR 34003KT 070V340 9999 BKN030 23/18 A3000 NOSIG=
202002080000 METAR MRPV 080000Z 09009KT 9999 BKN030 23/17 A3001 NOSIG=
202002080100 METAR MRPV NIL=
202002080200 METAR MRPV NIL=
202002080300 METAR MRPV NIL=
202002080400 METAR MRPV NIL=
202002080500 METAR MRPV NIL=
202002080600 METAR MRPV NIL=
202002080700 METAR MRPV NIL=
202002080800 METAR MRPV NIL=
202002080900 METAR MRPV NIL=
202002081000 METAR MRPV NIL=
202002081100 METAR MRPV NIL=
202002081200 METAR MRPV 081200Z 13009KT 9999 FEW040 18/14 A3009 NOSIG=
202002081300 METAR MRPV 081300Z 13008KT 9999 FEW020 19/13 A3011 NOSIG=
202002081400 METAR MRPV 081400Z 13011KT 9999 FEW030 21/14 A3013 NOSIG=
202002081500 METAR MRPV 081500Z 08017KT CAVOK 23/14 A3013 NOSIG=
202002081600 METAR MRPV 081600Z 07013KT 9999 FEW045 25/13 A3013 NOSIG=
202002081700 METAR MRPV 081700Z 08013KT 9999 FEW045 26/14 A3011 NOSIG=
202002081800 METAR MRPV 081800Z 08014KT 9999 FEW045 26/15 A3008 NOSIG=
202002081900 METAR MRPV 081900Z 08015G26KT 9999 FEW035 26/14 A3006 NOSIG=
202002082000 METAR MRPV 082000Z 08017KT 9999 FEW035 26/15 A3003 NOSIG=
202002082100 METAR MRPV 082100Z 08015G25KT 9999 FEW040 26/14 A3002 NOSIG=
202002082200 METAR MRPV 082200Z 10013KT 9999 FEW035 25/15 A3002 NOSIG=
202002082300 METAR MRPV 082300Z 10013KT 9999 FEW035 23/15 A3003 NOSIG=
202002090000 METAR MRPV 090000Z 10015KT 9999 FEW035 21/15 A3005 NOSIG=
202002090100 METAR MRPV NIL=
202002090200 METAR MRPV NIL=
202002090300 METAR MRPV NIL=
202002090400 METAR MRPV NIL=
202002090500 METAR MRPV NIL=
202002090600 METAR MRPV NIL=
202002090700 METAR MRPV NIL=
202002090800 METAR MRPV NIL=
202002090900 METAR MRPV NIL=
202002091000 METAR MRPV NIL=
202002091100 METAR MRPV NIL=
202002091200 METAR MRPV 091200Z 11008KT 9999 FEW030 SCT050 19/12 A3010 NOSIG=
202002091300 METAR MRPV 091300Z 12010KT 9999 FEW040 19/12 A3013 NOSIG=
202002091400 METAR MRPV 091400Z 13009KT 9999 FEW045 21/12 A3013 NOSIG=
202002091500 METAR MRPV 091500Z 12010KT CAVOK 22/12 A3014 NOSIG=
202002091600 METAR MRPV 091600Z 08019KT CAVOK 24/10 A3013 NOSIG=
202002091700 METAR MRPV 091700Z 07016KT 9999 FEW040 24/13 A3011 NOSIG=
202002091800 METAR MRPV 091800Z 08020KT 9999 FEW045 24/12 A3009 WS R09 NOSIG=
202002091900 METAR MRPV 091900Z 08018G28KT 9999 FEW045 25/11 A3007 WS R09 NOSIG=
202002092000 METAR MRPV 092000Z 07019KT CAVOK 25/12 A3003 WS R09 NOSIG=
202002092100 METAR MRPV 092100Z 08020KT 9999 FEW045 25/13 A3002 WS R09 NOSIG=
202002092200 METAR MRPV 092200Z 08019KT 9999 FEW045 24/13 A3001 NOSIG=
202002092300 METAR MRPV 092300Z 08016G27KT CAVOK 22/13 A3001 NOSIG=
202002100000 METAR MRPV 100000Z 09016G26KT 9999 FEW040 20/13 A3002 NOSIG=
202002100100 METAR MRPV NIL=
202002100200 METAR MRPV NIL=
202002100300 METAR MRPV NIL=
202002100400 METAR MRPV NIL=
202002100500 METAR MRPV NIL=
202002100600 METAR MRPV NIL=
202002100700 METAR MRPV NIL=
202002100800 METAR MRPV NIL=
202002100900 METAR MRPV NIL=
202002101000 METAR MRPV NIL=
202002101100 METAR MRPV NIL=
202002101200 METAR MRPV 101200Z COR 13012G22KT CAVOK 19/10 A3002 NOSIG=
202002101300 METAR MRPV 101300Z COR 13009KT CAVOK 20/10 A3002 NOSIG=
202002101400 METAR MRPV 101400Z 11014KT CAVOK 23/11 A3003 NOSIG=
202002101500 METAR MRPV 101500Z 09017KT CAVOK 25/11 A3004 NOSIG=
202002101600 METAR MRPV 101600Z 08017G27KT CAVOK 26/12 A3003 NOSIG=
202002101700 METAR MRPV 101700Z 09017KT CAVOK 27/13 A3003 NOSIG=
202002101800 METAR MRPV 101800Z 09018KT CAVOK 26/14 A3000 NOSIG=
202002101900 METAR MRPV 101900Z 08016G29KT CAVOK 27/14 A2998 NOSIG=
202002102000 METAR MRPV 102000Z 08018KT CAVOK 27/14 A2995 NOSIG=
202002102100 METAR MRPV 102100Z 07014KT CAVOK 27/15 A2994 NOSIG=
202002102200 METAR MRPV 102200Z 07015KT CAVOK 26/15 A2994 NOSIG=
202002102300 METAR MRPV 102300Z 07012KT 9999 FEW040 24/15 A2995 NOSIG=
202002110000 METAR MRPV 110000Z 08014KT 9999 FEW040 22/15 A2996 NOSIG=
202002110100 METAR MRPV NIL=
202002110200 METAR MRPV NIL=
202002110300 METAR MRPV NIL=
202002110400 METAR MRPV NIL=
202002110500 METAR MRPV NIL=
202002110600 METAR MRPV NIL=
202002110700 METAR MRPV NIL=
202002110800 METAR MRPV NIL=
202002110900 METAR MRPV NIL=
202002111000 METAR MRPV NIL=
202002111100 METAR MRPV NIL=
202002111200 METAR MRPV 111200Z 13010KT 9999 FEW040 19/14 A3002 NOSIG=
202002111300 METAR MRPV 111300Z 12011KT 9999 FEW040 20/13 A3004 NOSIG=
202002111400 METAR MRPV 111400Z 11011KT 9999 FEW040 21/13 A3006 NOSIG=
202002111500 METAR MRPV 111500Z 09016KT 9999 FEW040 23/15 A3007 NOSIG=
202002111600 METAR MRPV 111600Z 08017KT 9999 FEW035 23/15 A3006 NOSIG=
202002111700 METAR MRPV 111700Z 09016KT 9999 FEW035 25/15 A3005 NOSIG=
202002111800 METAR MRPV 111800Z 08020G32KT 9999 FEW035 23/15 A3004 NOSIG=
202002111900 METAR MRPV 111900Z 09020G30KT 9999 FEW035 25/14 A3001 NOSIG=
202002112000 METAR MRPV 112000Z 08017G27KT 9999 FEW040 25/15 A2998 NOSIG=
202002112100 METAR MRPV 112100Z 08014G24KT 9999 FEW040 25/15 A2997 NOSIG=
202002112200 METAR MRPV 112200Z 09015G25KT 9999 FEW035 24/15 A2997 NOSIG=
202002112300 METAR MRPV 112300Z 09017G27KT 9999 FEW030 22/15 A2998 NOSIG=
202002120000 METAR MRPV 120000Z 10017G27KT 9999 FEW030 21/16 A2999 NOSIG=
202002120100 METAR MRPV NIL=
202002120200 METAR MRPV NIL=
202002120300 METAR MRPV NIL=
202002120400 METAR MRPV NIL=
202002120500 METAR MRPV NIL=
202002120600 METAR MRPV NIL=
202002120700 METAR MRPV NIL=
202002120800 METAR MRPV NIL=
202002120900 METAR MRPV NIL=
202002121000 METAR MRPV NIL=
202002121100 METAR MRPV NIL=
202002121200 METAR MRPV 121200Z 11010KT 9999 FEW025 20/15 A3001 NOSIG=
202002121300 METAR MRPV 121300Z 12012KT 9999 FEW030 20/16 A3002 NOSIG=
202002121400 METAR MRPV 121400Z 11012G22KT 9999 FEW030 21/16 A3004 NOSIG=
202002121500 METAR MRPV 121500Z 09014G24KT 9999 FEW040 23/17 A3005 NOSIG=
202002121600 METAR MRPV 121600Z 08014G24KT 9999 FEW030 24/17 A3005 NOSIG=
202002121700 METAR MRPV 121700Z 08015KT 9999 FEW030 25/16 A3004 NOSIG=
202002121800 METAR MRPV 121800Z 09018KT 9999 FEW025 25/16 A3000 NOSIG=
202002121900 METAR MRPV 121900Z 09021KT 9999 FEW025 24/16 A2998 NOSIG=
202002122000 METAR MRPV 122000Z 09016KT 9999 FEW030 25/16 A2996 NOSIG=
202002122100 METAR MRPV 122100Z 08017KT 9999 FEW025 24/15 A2995 NOSIG=
202002122200 METAR MRPV 122200Z 09017KT 9999 FEW025 23/16 A2995 NOSIG=
202002122300 METAR MRPV 122300Z 10015KT 9999 SCT025 21/15 A2996 NOSIG=
202002130000 METAR MRPV 130000Z 11012KT 9999 FEW020 20/14 A2998 NOSIG=
202002130100 METAR MRPV NIL=
202002130200 METAR MRPV NIL=
202002130300 METAR MRPV NIL=
202002130400 METAR MRPV NIL=
202002130500 METAR MRPV NIL=
202002130600 METAR MRPV NIL=
202002130700 METAR MRPV NIL=
202002130800 METAR MRPV NIL=
202002130900 METAR MRPV NIL=
202002131000 METAR MRPV NIL=
202002131100 METAR MRPV NIL=
202002131200 METAR MRPV 131200Z 12010KT 9999 FEW030 19/15 A3000 NOSIG=
202002131300 METAR MRPV 131300Z 12010G20KT 9999 FEW030 20/15 A3002 NOSIG=
202002131400 METAR MRPV 131400Z 10014KT CAVOK 22/15 A3003 NOSIG=
202002131500 METAR MRPV 131500Z 09015KT CAVOK 24/15 A3002 NOSIG=
202002131600 METAR MRPV 131600Z 08018KT CAVOK 25/15 A3003 NOSIG=
202002131700 METAR MRPV 131700Z 08016KT CAVOK 26/16 A3001 NOSIG=
202002131800 METAR MRPV 131800Z 08016G26KT CAVOK 26/16 A2999 NOSIG=
202002131900 METAR MRPV 131900Z 07016KT 9999 FEW045 27/16 A2996 NOSIG=
202002132000 METAR MRPV 132000Z 08018KT 9999 FEW045 27/16 A2994 NOSIG=
202002132100 METAR MRPV 132100Z 08016KT 9999 FEW045 27/17 A2991 NOSIG=
202002132200 METAR MRPV 132200Z 08015KT 9999 FEW040 27/16 A2991 NOSIG=
202002132300 METAR MRPV 132300Z 09014KT 9999 FEW030 24/17 A2994 NOSIG=
202002140000 METAR MRPV 140000Z 11010KT 9999 FEW035 22/17 A2996 NOSIG=
202002140100 METAR MRPV NIL=
202002140200 METAR MRPV NIL=
202002140300 METAR MRPV NIL=
202002140400 METAR MRPV NIL=
202002140500 METAR MRPV NIL=
202002140600 METAR MRPV NIL=
202002140700 METAR MRPV NIL=
202002140800 METAR MRPV NIL=
202002140900 METAR MRPV NIL=
202002141000 METAR MRPV NIL=
202002141100 METAR MRPV NIL=
202002141200 METAR MRPV 141200Z 10014KT 9999 FEW035 20/16 A3002 NOSIG=
202002141300 METAR MRPV 141300Z 08019KT 9999 FEW030 20/16 A3003 NOSIG=
202002141400 METAR MRPV 141400Z 09019G29KT 9999 FEW030 22/16 A3005 NOSIG=
202002141500 METAR MRPV 141500Z 09019KT 9999 FEW030 23/16 A3005 NOSIG=
202002141600 METAR MRPV 141600Z 08018KT 9999 FEW030 23/16 A3006 NOSIG=
202002141700 METAR MRPV 141700Z 09022G33KT 9999 FEW030 25/16 A3003 NOSIG=
202002141800 METAR MRPV 141800Z 08024KT 9999 FEW025 23/15 A3001 NOSIG=
202002141900 METAR MRPV 141900Z 08023G34KT 9999 FEW025 23/15 A2999 WS R09 NOSIG=
202002142000 METAR MRPV 142000Z 07022G36KT 9999 SCT035 24/15 A2997 WS R09 NOSIG=
202002142100 METAR MRPV 142100Z 10018KT 9999 FEW035 24/14 A2998 WS R09 NOSIG=
202002142200 METAR MRPV 142200Z 11017G27KT 9999 FEW030 23/15 A2997 WS R09 NOSIG=
202002142300 METAR MRPV 142300Z 10017KT 9999 FEW025 22/15 A2998 WS R09 NOSIG=
202002150000 METAR MRPV 150000Z 11013G23KT 9999 FEW030 20/14 A3000 WS R09 NOSIG=
202002150100 METAR MRPV NIL=
202002150200 METAR MRPV NIL=
202002150300 METAR MRPV NIL=
202002150400 METAR MRPV NIL=
202002150500 METAR MRPV NIL=
202002150600 METAR MRPV NIL=
202002150700 METAR MRPV NIL=
202002150800 METAR MRPV NIL=
202002150900 METAR MRPV NIL=
202002151000 METAR MRPV NIL=
202002151100 METAR MRPV NIL=
202002151200 METAR MRPV 151200Z 11014KT 9999 FEW040 19/14 A3002 NOSIG=
202002151300 METAR MRPV 151300Z 11013KT CAVOK 20/13 A3004 NOSIG=
202002151400 METAR MRPV 151400Z 10019G30KT CAVOK 22/13 A3005 NOSIG=
202002151500 METAR MRPV 151500Z 09021G31KT CAVOK 23/13 A3007 NOSIG=
202002151600 METAR MRPV 151600Z 08020G36KT CAVOK 24/14 A3007 NOSIG=
202002151700 METAR MRPV 151700Z 07020G30KT CAVOK 24/15 A3005 NOSIG=
202002151800 METAR MRPV 151800Z 08022G34KT 9999 FEW045 25/14 A3002 NOSIG=
202002151900 METAR MRPV 151900Z 07023G34KT 9999 FEW045 26/14 A2999 NOSIG=
202002152000 METAR MRPV 152000Z 07021G31KT 9999 FEW045 25/15 A2996 NOSIG=
202002152100 METAR MRPV 152100Z 08020KT 9999 FEW040 25/15 A2995 NOSIG=
202002152200 METAR MRPV 152200Z 07020KT 9999 FEW035 24/15 A2995 NOSIG=
202002152300 METAR MRPV 152300Z 08020KT 9999 FEW040 22/16 A2995 NOSIG=
202002160000 METAR MRPV 160000Z 08018KT 9999 FEW040 21/16 A2996 NOSIG=
202002160100 METAR MRPV NIL=
202002160200 METAR MRPV NIL=
202002160300 METAR MRPV NIL=
202002160400 METAR MRPV NIL=
202002160500 METAR MRPV NIL=
202002160600 METAR MRPV NIL=
202002160700 METAR MRPV NIL=
202002160800 METAR MRPV NIL=
202002160900 METAR MRPV NIL=
202002161000 METAR MRPV NIL=
202002161100 METAR MRPV NIL=
202002161200 METAR MRPV 161200Z 13011KT 9999 FEW035 SCT160 19/15 A2998 NOSIG=
202002161300 METAR MRPV 161300Z 13014G25KT 9999 FEW030 20/15 A3000 NOSIG=
202002161400 METAR MRPV 161400Z 11015KT 9999 FEW030 SCT140 22/16 A3002 NOSIG=
202002161500 METAR MRPV 161500Z 09017KT 9999 FEW030 23/16 A3003 NOSIG=
202002161600 METAR MRPV 161600Z 09019G29KT 9999 FEW030 24/16 A3002 NOSIG=
202002161700 METAR MRPV 161700Z 09020G32KT 9999 FEW030 24/15 A3000 NOSIG=
202002161800 METAR MRPV 161800Z 10020G30KT 9999 FEW030 24/15 A2999 NOSIG=
202002161900 METAR MRPV 161900Z 09020G30KT 9999 FEW035 25/15 A2994 NOSIG=
202002162000 METAR MRPV 162000Z 09020G32KT 9999 FEW030 24/15 A2992 NOSIG=
202002162100 METAR MRPV 162100Z 09010G20KT 9999 FEW030 25/15 A2991 NOSIG=
202002162200 METAR MRPV 162200Z 11020G32KT 9999 FEW030 23/15 A2992 NOSIG=
202002162300 METAR MRPV 162300Z 10019G32KT 9999 FEW030 21/15 A2992 NOSIG=
202002170000 METAR MRPV 170000Z 10022G32KT 9999 FEW025 20/15 A2993 NOSIG=
202002170100 METAR MRPV NIL=
202002170200 METAR MRPV NIL=
202002170300 METAR MRPV NIL=
202002170400 METAR MRPV NIL=
202002170500 METAR MRPV NIL=
202002170600 METAR MRPV NIL=
202002170700 METAR MRPV NIL=
202002170800 METAR MRPV NIL=
202002170900 METAR MRPV NIL=
202002171000 METAR MRPV NIL=
202002171100 METAR MRPV NIL=
202002171200 METAR MRPV 171200Z 12012KT 9999 FEW045 19/13 A2996 NOSIG=
202002171300 METAR MRPV 171300Z 11013G26KT 9999 FEW040 20/14 A2997 NOSIG=
202002171400 METAR MRPV 171400Z 10017G31KT 9999 FEW045 21/15 A2998 NOSIG=
202002171500 METAR MRPV 171500Z 09020KT 9999 FEW045 22/15 A2999 NOSIG=
202002171600 METAR MRPV 171600Z 08022KT 9999 FEW040 24/15 A2999 NOSIG=
202002171700 METAR MRPV 171700Z 08020G31KT 9999 FEW035 24/16 A2997 NOSIG=
202002171800 METAR MRPV 171800Z 08024G37KT 9999 FEW035 24/16 A2995 NOSIG=
202002171900 METAR MRPV 171900Z 09020G30KT 9999 FEW025 24/16 A2991 WS R09 NOSIG=
202002172000 METAR MRPV 172000Z 08020G30KT 9999 FEW025 24/16 A2990 WS R09 NOSIG=
202002172100 METAR MRPV 172100Z 09020G30KT 9999 FEW025 23/16 A2989 WS R09 NOSIG=
202002172200 METAR MRPV 172200Z 09024G35KT 9999 FEW025 22/15 A2988 WS R09 NOSIG=
202002172300 METAR MRPV 172300Z 10024G34KT 9999 FEW040 22/15 A2989 WS R09 NOSIG=
202002180000 METAR MRPV 180000Z 10023G35KT 9999 FEW040 21/15 A2990 WS R09 NOSIG=
202002180100 METAR MRPV NIL=
202002180200 METAR MRPV NIL=
202002180300 METAR MRPV NIL=
202002180400 METAR MRPV NIL=
202002180500 METAR MRPV NIL=
202002180600 METAR MRPV NIL=
202002180700 METAR MRPV NIL=
202002180800 METAR MRPV NIL=
202002180900 METAR MRPV NIL=
202002181000 METAR MRPV NIL=
202002181100 METAR MRPV NIL=
202002181200 METAR MRPV 181200Z 10017G27KT 9999 FEW025 20/16 A2996 NOSIG=
202002181300 METAR MRPV 181300Z 10019G29KT 9999 FEW025 20/16 A2998 NOSIG=
202002181400 METAR MRPV 181400Z 10018G29KT 9999 FEW035 20/16 A2999 NOSIG=
202002181500 METAR MRPV 181500Z 09021G31KT 9999 FEW035 23/17 A3000 NOSIG=
202002181600 METAR MRPV 181600Z 09022G32KT 9999 FEW035 24/16 A2999 NOSIG=
202002181700 METAR MRPV 181700Z 09026G36KT 9999 FEW025 25/16 A2998 NOSIG=
202002181800 METAR MRPV 181800Z 08022G32KT 9999 FEW035 25/16 A2996 NOSIG=
202002181900 METAR MRPV 181900Z 08023G34KT 9999 FEW040 26/16 A2993 NOSIG=
202002182000 METAR MRPV 182000Z 09022G34KT 9999 FEW035 26/16 A2990 WS R09 NOSIG=
202002182100 METAR MRPV 182100Z 08025KT 9999 FEW040 BKN250 26/16 A2989 WS R09 NOSIG=
202002182200 METAR MRPV 182200Z 09022G32KT 9999 FEW040 BKN250 24/16 A2989 WS R09 NOSIG=
202002182300 METAR MRPV 182300Z 09022G34KT 9999 FEW040 BKN250 23/16 A2991 WS R09 NOSIG=
202002190000 METAR MRPV 190000Z 09023KT 9999 FEW035 22/16 A2992 WS R09 NOSIG=
202002190100 METAR MRPV NIL=
202002190200 METAR MRPV NIL=
202002190300 METAR MRPV NIL=
202002190400 METAR MRPV NIL=
202002190500 METAR MRPV NIL=
202002190600 METAR MRPV NIL=
202002190700 METAR MRPV NIL=
202002190800 METAR MRPV NIL=
202002190900 METAR MRPV NIL=
202002191000 METAR MRPV NIL=
202002191100 METAR MRPV NIL=
202002191200 METAR MRPV 191200Z 11018G31KT 9999 FEW025 20/15 A3000 NOSIG=
202002191300 METAR MRPV 191300Z 10020G32KT 9999 FEW025 21/16 A3001 NOSIG=
202002191400 METAR MRPV 191400Z 11018G32KT 9999 FEW025 22/16 A3004 NOSIG=
202002191500 METAR MRPV 191500Z 09020G32KT 9999 FEW035 23/15 A3005 NOSIG=
202002191600 METAR MRPV 191600Z 08025G35KT 9999 FEW040 25/15 A3005 NOSIG=
202002191700 METAR MRPV 191700Z 08020G30KT CAVOK 26/16 A3003 NOSIG=
202002191800 METAR MRPV 191800Z 08022G36KT 9999 FEW040 26/17 A3002 NOSIG=
202002191900 METAR MRPV 191900Z 08020KT 9999 FEW040 26/17 A3000 NOSIG=
202002192000 METAR MRPV 192000Z 08022KT 9999 FEW040 27/16 A2997 NOSIG=
202002192100 METAR MRPV 192100Z 07022G35KT 9999 FEW035 27/17 A2995 NOSIG=
202002192200 METAR MRPV 192200Z 08021G32KT 9999 FEW035 26/17 A2995 NOSIG=
202002192300 METAR MRPV 192300Z 08022G32KT 9999 FEW030 24/17 A2997 NOSIG=
202002200000 METAR MRPV 200000Z 10017KT 9999 FEW040 23/18 A2997 NOSIG=
202002200100 METAR MRPV NIL=
202002200200 METAR MRPV NIL=
202002200300 METAR MRPV NIL=
202002200400 METAR MRPV NIL=
202002200500 METAR MRPV NIL=
202002200600 METAR MRPV NIL=
202002200700 METAR MRPV NIL=
202002200800 METAR MRPV NIL=
202002200900 METAR MRPV NIL=
202002201000 METAR MRPV NIL=
202002201100 METAR MRPV NIL=
202002201200 METAR MRPV 201200Z 09018G28KT 9999 FEW035 SCT200 20/15 A3000 NOSIG=
202002201300 METAR MRPV 201300Z 10016KT 9999 FEW035 SCT200 21/16 A3002 NOSIG=
202002201400 METAR MRPV 201400Z 10022KT 9999 FEW035 SCT200 22/16 A3002 NOSIG=
202002201500 METAR MRPV 201500Z 08021G32KT 9999 FEW035 SCT200 23/16 A3004 NOSIG=
202002201600 METAR MRPV 201600Z 08021KT 9999 FEW035 SCT200 24/17 A3005 NOSIG=
202002201700 METAR MRPV 201700Z 09018KT 9999 FEW045 BKN180 24/17 A3004 NOSIG=
202002201800 METAR MRPV 201800Z 08019KT 9999 FEW045 BKN180 26/17 A3001 NOSIG=
202002201900 METAR MRPV 201900Z 08020KT 9999 FEW030 BKN200 26/17 A2999 NOSIG=
202002202000 METAR MRPV 202000Z 08015G25KT 9999 FEW035 BKN200 25/17 A2997 NOSIG=
202002202100 METAR MRPV 202100Z 07016KT 9999 FEW025 BKN200 24/17 A2996 NOSIG=
202002202200 METAR MRPV 202200Z 09016G26KT 9999 FEW025 BKN200 24/17 A2996 NOSIG=
202002202300 METAR MRPV 202300Z 09015KT 9999 FEW025 SCT080 BKN200 23/17 A2998 NOSIG=
202002210000 METAR MRPV 210000Z 10014KT 9999 FEW020 SCT200 21/17 A3000 NOSIG=
202002210100 METAR MRPV NIL=
202002210200 METAR MRPV NIL=
202002210300 METAR MRPV NIL=
202002210400 METAR MRPV NIL=
202002210500 METAR MRPV NIL=
202002210600 METAR MRPV NIL=
202002210700 METAR MRPV NIL=
202002210800 METAR MRPV NIL=
202002210900 METAR MRPV NIL=
202002211000 METAR MRPV NIL=
202002211100 METAR MRPV NIL=
202002211200 METAR MRPV 211200Z 09013KT 9999 FEW025 SCT200 19/15 A3006 NOSIG=
202002211300 METAR MRPV 211300Z 10015KT 9999 FEW035 20/14 A3006 NOSIG=
202002211400 METAR MRPV 211400Z 09018KT 9999 FEW030 SCT200 22/15 A3009 NOSIG=
202002211500 METAR MRPV 211500Z 08020KT 9999 FEW035 SCT200 23/15 A3011 NOSIG=
202002211600 METAR MRPV 211600Z 07017KT 9999 FEW035 BKN200 23/15 A3010 NOSIG=
202002211700 METAR MRPV 211700Z 09019G29KT 9999 SCT035 23/16 A3010 WS R09 NOSIG=
202002211800 METAR MRPV 211800Z 07017KT 9999 SCT035 24/14 A3009 WS R09 NOSIG=
202002211900 METAR MRPV 211900Z 08019G29KT 9999 FEW035 25/15 A3006 WS R09 NOSIG=
202002212000 METAR MRPV 212000Z 06015KT 9999 FEW045 26/14 A3004 WS R09 NOSIG=
202002212100 METAR MRPV 212100Z 07015G25KT 9999 FEW045 25/15 A3002 WS R09 NOSIG=
202002212200 METAR MRPV 212200Z 09014KT 9999 FEW035 24/16 A3002 NOSIG=
202002212300 METAR MRPV 212300Z 09014KT 9999 SCT035 23/16 A3002 NOSIG=
202002220000 METAR MRPV 220000Z 10013KT 9999 SCT035 BKN060 21/16 A3004 NOSIG=
202002220100 METAR MRPV NIL=
202002220200 METAR MRPV NIL=
202002220300 METAR MRPV NIL=
202002220400 METAR MRPV NIL=
202002220500 METAR MRPV NIL=
202002220600 METAR MRPV NIL=
202002220700 METAR MRPV NIL=
202002220800 METAR MRPV NIL=
202002220900 METAR MRPV NIL=
202002221000 METAR MRPV NIL=
202002221100 METAR MRPV NIL=
202002221200 METAR MRPV 221200Z 11013KT 9999 FEW040 18/13 A3011 NOSIG=
202002221300 METAR MRPV 221300Z 11012KT 9999 FEW040 19/13 A3012 NOSIG=
202002221400 METAR MRPV 221400Z 12013KT 9999 FEW040 22/12 A3014 NOSIG=
202002221500 METAR MRPV 221500Z 09018KT CAVOK 24/13 A3014 NOSIG=
202002221600 METAR MRPV 221600Z 09020KT CAVOK 24/13 A3015 NOSIG=
202002221700 METAR MRPV 221700Z 09018G29KT CAVOK 25/14 A3013 NOSIG=
202002221800 METAR MRPV 221800Z 07018G29KT 9999 FEW045 26/13 A3011 NOSIG=
202002221900 METAR MRPV 221900Z 07019G29KT 9999 FEW045 26/13 A3008 NOSIG=
202002222000 METAR MRPV 222000Z 08018G28KT 9999 FEW040 26/13 A3004 NOSIG=
202002222100 METAR MRPV 222100Z 07020G30KT 9999 FEW040 25/13 A3004 NOSIG=
202002222200 METAR MRPV 222200Z 07018G28KT 9999 FEW040 25/14 A3004 NOSIG=
202002222300 METAR MRPV 222300Z 08018G28KT 9999 FEW040 23/13 A3005 NOSIG=
202002230000 METAR MRPV 230000Z 08012G22KT 9999 FEW035 21/13 A3006 NOSIG=
202002230100 METAR MRPV NIL=
202002230200 METAR MRPV NIL=
202002230300 METAR MRPV NIL=
202002230400 METAR MRPV NIL=
202002230500 METAR MRPV NIL=
202002230600 METAR MRPV NIL=
202002230700 METAR MRPV NIL=
202002230800 METAR MRPV NIL=
202002230900 METAR MRPV NIL=
202002231000 METAR MRPV NIL=
202002231100 METAR MRPV NIL=
202002231200 METAR MRPV 231200Z 13011KT CAVOK 18/07 A3008 NOSIG=
202002231300 METAR MRPV 231300Z 12010KT CAVOK 19/07 A3010 NOSIG=
202002231400 METAR MRPV 231400Z 11014KT CAVOK 21/08 A3010 NOSIG=
202002231500 METAR MRPV 231500Z 11017KT CAVOK 24/09 A3010 NOSIG=
202002231600 METAR MRPV 231600Z 08018KT CAVOK 24/08 A3009 NOSIG=
202002231700 METAR MRPV 231700Z 07016KT CAVOK 26/09 A3007 NOSIG=
202002231800 METAR MRPV 231800Z 08014KT CAVOK 27/08 A3005 NOSIG=
202002231900 METAR MRPV 231900Z 07016KT CAVOK 27/06 A3003 NOSIG=
202002232000 METAR MRPV 232000Z 07016KT CAVOK 28/08 A3000 NOSIG=
202002232100 METAR MRPV 232100Z 07015G25KT CAVOK 26/11 A3000 NOSIG=
202002232200 METAR MRPV 232200Z 07015KT CAVOK 26/12 A2999 NOSIG=
202002232300 METAR MRPV 232300Z 07013KT CAVOK 24/12 A3001 NOSIG=
202002240000 METAR MRPV 240000Z 09014KT CAVOK 21/13 A3003 NOSIG=
202002240100 METAR MRPV NIL=
202002240200 METAR MRPV NIL=
202002240300 METAR MRPV NIL=
202002240400 METAR MRPV NIL=
202002240500 METAR MRPV NIL=
202002240600 METAR MRPV NIL=
202002240700 METAR MRPV NIL=
202002240800 METAR MRPV NIL=
202002240900 METAR MRPV NIL=
202002241000 METAR MRPV NIL=
202002241100 METAR MRPV NIL=
202002241200 METAR MRPV 241200Z 13012KT CAVOK 18/12 A3005 NOSIG=
202002241300 METAR MRPV 241300Z 13010KT CAVOK 20/12 A3006 NOSIG=
202002241400 METAR MRPV 241400Z 12010KT CAVOK 23/12 A3007 NOSIG=
202002241500 METAR MRPV 241500Z 13010G20KT CAVOK 25/11 A3008 NOSIG=
202002241600 METAR MRPV 241600Z 08013KT CAVOK 26/13 A3007 NOSIG=
202002241700 METAR MRPV 241700Z 08010KT CAVOK 27/13 A3004 NOSIG=
202002241800 METAR MRPV 241800Z 09010KT CAVOK 28/12 A3001 NOSIG=
202002241900 METAR MRPV 241900Z 09008KT 9999 FEW045 28/13 A2999 BECMG 29005KT=
202002242000 METAR MRPV 242000Z 27008KT 9999 SCT045 28/17 A2997 NOSIG=
202002242100 METAR MRPV 242100Z 26007KT 9999 SCT045 28/17 A2996 NOSIG=
202002242200 METAR MRPV 242200Z 28008KT 9999 SCT040 27/17 A2997 NOSIG=
202002242300 METAR MRPV 242300Z 09009KT 9999 SCT035 24/16 A2998 NOSIG=
202002250000 METAR MRPV 250000Z 08005KT 9999 BKN035 23/16 A2999 NOSIG=
202002250100 METAR MRPV NIL=
202002250200 METAR MRPV NIL=
202002250300 METAR MRPV NIL=
202002250400 METAR MRPV NIL=
202002250500 METAR MRPV NIL=
202002250600 METAR MRPV NIL=
202002250700 METAR MRPV NIL=
202002250800 METAR MRPV NIL=
202002250900 METAR MRPV NIL=
202002251000 METAR MRPV NIL=
202002251100 METAR MRPV NIL=
202002251200 METAR MRPV 251200Z 11003KT CAVOK 16/14 A3003 NOSIG=
202002251300 METAR MRPV 251300Z 09007KT CAVOK 19/15 A3004 NOSIG=
202002251400 METAR MRPV 251400Z 11006KT CAVOK 22/15 A3006 NOSIG=
202002251500 METAR MRPV 251500Z 24003KT 9999 FEW040 26/15 A3008 NOSIG=
202002251600 METAR MRPV 251600Z 27005KT 9999 FEW040 25/15 A3009 NOSIG=
202002251700 METAR MRPV 251700Z 29008KT 9999 SCT040 27/16 A3006 NOSIG=
202002251800 METAR MRPV 251800Z 27010KT 9999 SCT040 27/16 A3005 NOSIG=
202002251900 METAR MRPV 251900Z 26008KT 9999 BKN040 27/16 A3003 NOSIG=
202002252000 METAR MRPV 252000Z 26008KT 9999 BKN040 28/17 A2999 NOSIG=
202002252100 METAR MRPV 252100Z 27010KT 9999 BKN040 28/17 A2997 NOSIG=
202002252200 METAR MRPV 252200Z 27010KT 9999 SCT040 26/17 A2998 NOSIG=
202002252300 METAR MRPV 252300Z 28013KT 9999 SCT035 25/16 A2999 NOSIG=
202002260000 METAR MRPV 260000Z 26004KT 9999 BKN040 24/16 A3001 NOSIG=
202002260100 METAR MRPV NIL=
202002260200 METAR MRPV NIL=
202002260300 METAR MRPV NIL=
202002260400 METAR MRPV NIL=
202002260500 METAR MRPV NIL=
202002260600 METAR MRPV NIL=
202002260700 METAR MRPV NIL=
202002260800 METAR MRPV NIL=
202002260900 METAR MRPV NIL=
202002261000 METAR MRPV NIL=
202002261100 METAR MRPV NIL=
202002261200 METAR MRPV 261200Z 12002KT CAVOK 16/13 A3006 NOSIG=
202002261300 METAR MRPV 261300Z 09006KT CAVOK 18/13 A3008 NOSIG=
202002261400 METAR MRPV 261400Z 12004KT CAVOK 23/15 A3010 NOSIG=
202002261500 METAR MRPV 261500Z 36003KT CAVOK 26/13 A3011 NOSIG=
202002261600 METAR MRPV 261600Z 11002KT 9999 FEW045 28/13 A3011 BECMG 29005KT=
202002261700 METAR MRPV 261700Z 29005KT 9999 FEW045 28/12 A3009 NOSIG=
202002261800 METAR MRPV 261800Z 29006KT 9999 FEW045 29/13 A3006 NOSIG=
202002261900 METAR MRPV 261900Z 28010KT 9999 FEW045 30/13 A3004 NOSIG=
202002262000 METAR MRPV 262000Z 27009KT 9999 FEW040 30/15 A3002 NOSIG=
202002262100 METAR MRPV 262100Z 28011KT 9999 SCT040 28/17 A3000 NOSIG=
202002262200 METAR MRPV 262200Z 26007KT 9999 SCT035 SCT140 27/17 A3001 NOSIG=
202002262300 METAR MRPV 262300Z 27008KT 9999 SCT035 BKN160 26/17 A3002 NOSIG=
202002270000 METAR MRPV 270000Z 27007KT 9999 SCT035 BKN140 24/18 A3003 NOSIG=
202002270100 METAR MRPV NIL=
202002270200 METAR MRPV NIL=
202002270300 METAR MRPV NIL=
202002270400 METAR MRPV NIL=
202002270500 METAR MRPV NIL=
202002270600 METAR MRPV NIL=
202002270700 METAR MRPV NIL=
202002270800 METAR MRPV NIL=
202002270900 METAR MRPV NIL=
202002271000 METAR MRPV NIL=
202002271100 METAR MRPV NIL=
202002271200 METAR MRPV 271200Z 12009KT CAVOK 21/16 A3007 NOSIG=
202002271300 METAR MRPV 271300Z 13008KT CAVOK 22/16 A3008 NOSIG=
202002271400 METAR MRPV 271400Z 13011KT CAVOK 24/15 A3009 NOSIG=
202002271500 METAR MRPV 271500Z 12012KT CAVOK 26/15 A3010 NOSIG=
202002271600 METAR MRPV 271600Z 09014KT CAVOK 27/15 A3010 NOSIG=
202002271700 METAR MRPV 271700Z 10017KT CAVOK 29/12 A3008 NOSIG=
202002271800 METAR MRPV 271800Z 09021KT 9999 FEW045 SCT200 27/12 A3006 NOSIG=
202002271900 METAR MRPV 271900Z 09019KT 9999 FEW045 SCT200 27/12 A3005 NOSIG=
202002272000 METAR MRPV 272000Z 06014KT 9999 FEW045 SCT200 28/12 A3004 NOSIG=
202002272100 METAR MRPV 272100Z 07018G30KT 9999 FEW045 27/13 A3002 NOSIG=
202002272200 METAR MRPV 272200Z 08015KT 9999 FEW045 26/15 A3003 NOSIG=
202002272300 METAR MRPV 272300Z 07015KT 9999 FEW035 24/15 A3005 NOSIG=
202002280000 METAR MRPV 280000Z 09014KT 9999 FEW035 22/16 A3006 NOSIG=
202002280100 METAR MRPV NIL=
202002280200 METAR MRPV NIL=
202002280300 METAR MRPV NIL=
202002280400 METAR MRPV NIL=
202002280500 METAR MRPV NIL=
202002280600 METAR MRPV NIL=
202002280700 METAR MRPV NIL=
202002280800 METAR MRPV NIL=
202002280900 METAR MRPV NIL=
202002281000 METAR MRPV NIL=
202002281100 METAR MRPV NIL=
202002281200 METAR MRPV 281200Z 09020KT 9999 FEW040 19/15 A3008 NOSIG=
202002281300 METAR MRPV 281300Z 10017G29KT 9999 FEW035 20/15 A3010 NOSIG=
202002281400 METAR MRPV 281400Z 08019KT 9999 FEW035 22/14 A3011 NOSIG=
202002281500 METAR MRPV 281500Z 08019KT 9999 FEW040 23/14 A3012 NOSIG=
202002281600 METAR MRPV 281600Z 08021KT 9999 FEW045 24/14 A3012 NOSIG=
202002281700 METAR MRPV 281700Z 07022KT 9999 FEW040 24/13 A3011 NOSIG=
202002281800 METAR MRPV 281800Z 08021G33KT 9999 FEW045 25/13 A3009 NOSIG=
202002281900 METAR MRPV 281900Z COR 08020G30KT 9999 FEW040 26/14 A3006 WS R09 NOSIG=
202002282000 METAR MRPV 282000Z 07020G32KT 9999 FEW040 26/13 A3004 WS R09 NOSIG=
202002282100 METAR MRPV 282100Z 07018G28KT 9999 FEW040 25/13 A3003 WS R09 NOSIG=
202002282200 METAR MRPV 282200Z 08017G31KT 9999 FEW040 25/13 A3003 WS R09 NOSIG=
202002282300 METAR MRPV 282300Z 07018G28KT 9999 FEW040 23/14 A3004 WS R09 NOSIG=
202002290000 METAR MRPV 290000Z 07015G25KT 9999 FEW040 21/15 A3005 WS R09 NOSIG=
202002290100 METAR MRPV NIL=
202002290200 METAR MRPV NIL=
202002290300 METAR MRPV NIL=
202002290400 METAR MRPV NIL=
202002290500 METAR MRPV NIL=
202002290600 METAR MRPV NIL=
202002290700 METAR MRPV NIL=
202002290800 METAR MRPV NIL=
202002290900 METAR MRPV NIL=
202002291000 METAR MRPV NIL=
202002291100 METAR MRPV NIL=
202002291200 METAR MRPV 291200Z 11014G25KT 9999 FEW035 20/14 A3011 NOSIG=
202002291300 METAR MRPV 291300Z 13016G26KT 9999 FEW030 20/14 A3012 NOSIG=
202002291400 METAR MRPV 291400Z 13015G26KT 9999 FEW025 22/14 A3015 NOSIG=
202002291500 METAR MRPV 291500Z 10015G25KT 9999 FEW035 24/14 A3015 NOSIG=
202002291600 METAR MRPV 291600Z 09022G32KT 9999 FEW040 25/14 A3015 NOSIG=
202002291700 METAR MRPV 291700Z 07019G31KT 9999 FEW040 26/14 A3014 NOSIG=
202002291800 METAR MRPV 291800Z 08020G33KT 9999 FEW045 26/14 A3010 NOSIG=
202002291900 METAR MRPV 291900Z 08018G29KT CAVOK 27/14 A3007 NOSIG=
202002292000 METAR MRPV 292000Z 07020G32KT CAVOK 26/16 A3005 NOSIG=
202002292100 METAR MRPV 292100Z 08016G26KT 9999 FEW040 25/16 A3002 NOSIG=
202002292200 METAR MRPV 292200Z 07018G28KT 9999 FEW040 23/16 A3003 NOSIG=
202002292300 METAR MRPV 292300Z 10018G28KT 9999 FEW040 22/15 A3005 NOSIG=
202003010000 METAR MRPV 010000Z 09016G26KT 9999 FEW040 21/15 A3005 NOSIG=
202003010100 METAR MRPV NIL=
202003010200 METAR MRPV NIL=
202003010300 METAR MRPV NIL=
202003010400 METAR MRPV NIL=
202003010500 METAR MRPV NIL=
202003010600 METAR MRPV NIL=
202003010700 METAR MRPV NIL=
202003010800 METAR MRPV NIL=
202003010900 METAR MRPV NIL=
202003011000 METAR MRPV NIL=
202003011100 METAR MRPV NIL=
202003011200 METAR MRPV 011200Z 11011G21KT CAVOK 20/14 A3005 NOSIG=
202003011300 METAR MRPV 011300Z 12010G20KT CAVOK 21/13 A3007 NOSIG=
202003011400 METAR MRPV 011400Z 11017G27KT CAVOK 23/13 A3008 NOSIG=
202003011500 METAR MRPV 011500Z 09019G29KT CAVOK 25/13 A3010 NOSIG=
202003011600 METAR MRPV 011600Z 08014G24KT CAVOK 26/14 A3010 NOSIG=
202003011700 METAR MRPV 011700Z 08016G26KT CAVOK 26/15 A3009 NOSIG=
202003011800 METAR MRPV 011800Z 07016G26KT CAVOK 25/15 A3007 NOSIG=
202003011900 METAR MRPV 011900Z 07018G28KT 9999 FEW040 25/15 A3006 NOSIG=
202003012000 METAR MRPV 012000Z 07017KT 9999 FEW040 25/15 A3003 NOSIG=
202003012100 METAR MRPV 012100Z 07017KT 9999 FEW040 25/15 A3001 NOSIG=
202003012200 METAR MRPV 012200Z 07013KT 9999 FEW035 25/15 A3001 NOSIG=
202003012300 METAR MRPV 012300Z 07015KT 9999 FEW030 22/15 A3002 NOSIG=
202003020000 METAR MRPV 020000Z 07014KT 9999 FEW030 21/14 A3003 NOSIG=
202003020100 METAR MRPV NIL=
202003020200 METAR MRPV NIL=
202003020300 METAR MRPV NIL=
202003020400 METAR MRPV NIL=
202003020500 METAR MRPV NIL=
202003020600 METAR MRPV NIL=
202003020700 METAR MRPV NIL=
202003020800 METAR MRPV NIL=
202003020900 METAR MRPV NIL=
202003021000 METAR MRPV NIL=
202003021100 METAR MRPV NIL=
202003021200 METAR MRPV 021200Z 12010G20KT CAVOK 18/11 A3004 NOSIG=
202003021300 METAR MRPV 021300Z 13010G20KT CAVOK 19/11 A3005 NOSIG=
202003021400 METAR MRPV 021400Z 12012G22KT CAVOK 21/10 A3006 NOSIG=
202003021500 METAR MRPV 021500Z 12012G22KT CAVOK 24/10 A3007 NOSIG=
202003021600 METAR MRPV 021600Z 09013KT CAVOK 26/11 A3006 NOSIG=
202003021700 METAR MRPV 021700Z 08014KT CAVOK 27/13 A3004 NOSIG=
202003021800 METAR MRPV 021800Z 08013KT CAVOK 27/13 A3001 NOSIG=
202003021900 METAR MRPV 021900Z 09015KT 9999 FEW045 28/13 A2999 NOSIG=
202003022000 METAR MRPV 022000Z 10014KT 9999 FEW045 28/14 A2997 NOSIG=
202003022100 METAR MRPV 022100Z 09014KT 9999 FEW045 26/15 A2995 NOSIG=
202003022200 METAR MRPV 022200Z 08013KT 9999 FEW045 26/15 A2996 NOSIG=
202003022300 METAR MRPV 022300Z 10012KT 9999 FEW040 24/15 A2998 NOSIG=
202003030000 METAR MRPV 030000Z 10009KT 9999 FEW035 22/15 A2999 NOSIG=
202003030100 METAR MRPV NIL=
202003030200 METAR MRPV NIL=
202003030300 METAR MRPV NIL=
202003030400 METAR MRPV NIL=
202003030500 METAR MRPV NIL=
202003030600 METAR MRPV NIL=
202003030700 METAR MRPV NIL=
202003030800 METAR MRPV NIL=
202003030900 METAR MRPV NIL=
202003031000 METAR MRPV NIL=
202003031100 METAR MRPV NIL=
202003031200 METAR MRPV 031200Z 13009KT CAVOK 19/12 A3001 NOSIG=
202003031300 METAR MRPV 031300Z 14007KT CAVOK 21/13 A3003 NOSIG=
202003031400 METAR MRPV 031400Z 14006KT CAVOK 24/13 A3005 NOSIG=
202003031500 METAR MRPV 031500Z 12009KT CAVOK 26/13 A3006 NOSIG=
202003031600 METAR MRPV 031600Z 09008KT CAVOK 27/14 A3005 NOSIG=
202003031700 METAR MRPV 031700Z COR 10011G21KT CAVOK 28/15 A3001 NOSIG=
202003031800 METAR MRPV 031800Z 09014KT CAVOK 28/15 A3000 NOSIG=
202003031900 METAR MRPV 031900Z 09014KT 9999 FEW045 28/16 A2998 NOSIG=
202003032000 METAR MRPV 032000Z 10015KT 9999 FEW045 27/16 A2996 NOSIG=
202003032100 METAR MRPV 032100Z 09015KT 9999 FEW045 27/17 A2994 NOSIG=
202003032200 METAR MRPV 032200Z 09018KT 9999 FEW040 26/16 A2995 NOSIG=
202003032300 METAR MRPV 032300Z 09016KT 9999 FEW040 25/16 A2997 NOSIG=
202003040000 METAR MRPV 040000Z 11010KT 9999 FEW035 23/16 A2998 NOSIG=
202003040100 METAR MRPV NIL=
202003040200 METAR MRPV NIL=
202003040300 METAR MRPV NIL=
202003040400 METAR MRPV NIL=
202003040500 METAR MRPV NIL=
202003040600 METAR MRPV NIL=
202003040700 METAR MRPV NIL=
202003040800 METAR MRPV NIL=
202003040900 METAR MRPV NIL=
202003041000 METAR MRPV NIL=
202003041100 METAR MRPV NIL=
202003041200 METAR MRPV 041200Z 14008KT CAVOK 19/15 A3002 NOSIG=
202003041300 METAR MRPV 041300Z 14008KT CAVOK 21/14 A3004 NOSIG=
202003041400 METAR MRPV 041400Z 13009KT CAVOK 23/15 A3006 NOSIG=
202003041500 METAR MRPV 041500Z 11013KT CAVOK 26/14 A3006 NOSIG=
202003041600 METAR MRPV 041600Z 11009KT CAVOK 27/15 A3007 NOSIG=
202003041700 METAR MRPV 041700Z 09010KT CAVOK 27/15 A3004 NOSIG=
202003041800 METAR MRPV 041800Z 08013KT CAVOK 28/16 A3002 NOSIG=
202003041900 METAR MRPV 041900Z 09013KT 9999 FEW045 28/16 A2999 NOSIG=
202003042000 METAR MRPV 042000Z 09013KT 9999 FEW045 28/16 A2996 NOSIG=
202003042100 METAR MRPV 042100Z 09013KT 9999 FEW045 28/16 A2996 NOSIG=
202003042200 METAR MRPV 042200Z 10010KT 9999 FEW035 26/16 A2996 NOSIG=
202003042300 METAR MRPV 042300Z 10012KT 9999 FEW035 25/17 A2997 NOSIG=
202003050000 METAR MRPV 050000Z 10013KT 9999 FEW035 23/17 A2998 NOSIG=
202003050100 METAR MRPV NIL=
202003050200 METAR MRPV NIL=
202003050300 METAR MRPV NIL=
202003050400 METAR MRPV NIL=
202003050500 METAR MRPV NIL=
202003050600 METAR MRPV NIL=
202003050700 METAR MRPV NIL=
202003050800 METAR MRPV NIL=
202003050900 METAR MRPV NIL=
202003051000 METAR MRPV NIL=
202003051100 METAR MRPV NIL=
202003051200 METAR MRPV 051200Z 13012KT CAVOK 19/13 A3003 NOSIG=
202003051300 METAR MRPV 051300Z 13013G23KT CAVOK 21/13 A3007 NOSIG=
202003051400 METAR MRPV 051400Z 15011G21KT CAVOK 22/13 A3009 NOSIG=
202003051500 METAR MRPV 051500Z 13010G20KT CAVOK 25/13 A3009 NOSIG=
202003051600 METAR MRPV 051600Z 11014G24KT CAVOK 26/15 A3008 NOSIG=
202003051700 METAR MRPV 051700Z 09016KT CAVOK 26/16 A3005 NOSIG=
202003051800 METAR MRPV 051800Z 08019KT CAVOK 27/15 A3003 NOSIG=
202003051900 METAR MRPV 051900Z 08017G27KT CAVOK 28/15 A3001 NOSIG=
202003052000 METAR MRPV 052000Z 09019KT CAVOK 28/15 A2998 NOSIG=
202003052100 METAR MRPV 052100Z 09021KT CAVOK 28/14 A2997 NOSIG=
202003052200 METAR MRPV 052200Z 09020G30KT CAVOK 26/15 A2997 NOSIG=
202003052300 METAR MRPV 052300Z 09015G25KT CAVOK 25/15 A2999 NOSIG=
202003060000 METAR MRPV 060000Z 10016G26KT CAVOK 22/15 A3000 NOSIG=
202003060100 METAR MRPV NIL=
202003060200 METAR MRPV NIL=
202003060300 METAR MRPV NIL=
202003060400 METAR MRPV NIL=
202003060500 METAR MRPV NIL=
202003060600 METAR MRPV NIL=
202003060700 METAR MRPV NIL=
202003060800 METAR MRPV NIL=
202003060900 METAR MRPV NIL=
202003061000 METAR MRPV NIL=
202003061100 METAR MRPV NIL=
202003061200 METAR MRPV 061200Z 13011KT 9999 FEW040 19/13 A3006 NOSIG=
202003061300 METAR MRPV 061300Z 11013KT 9999 FEW040 19/14 A3009 NOSIG=
202003061400 METAR MRPV 061400Z 10016KT 9999 FEW045 22/14 A3010 NOSIG=
202003061500 METAR MRPV 061500Z 08018G29KT 9999 FEW045 23/15 A3011 NOSIG=
202003061600 METAR MRPV 061600Z 07019G29KT CAVOK 24/15 A3010 NOSIG=
202003061700 METAR MRPV 061700Z 07019G29KT CAVOK 25/15 A3009 NOSIG=
202003061800 METAR MRPV 061800Z 07020G30KT 9999 FEW045 26/14 A3006 NOSIG=
202003061900 METAR MRPV 061900Z 07018G30KT CAVOK 26/14 A3004 NOSIG=
202003062000 METAR MRPV 062000Z 07020G34KT CAVOK 26/14 A3002 NOSIG=
202003062100 METAR MRPV 062100Z 08020G30KT 9999 FEW040 26/15 A3000 NOSIG=
202003062200 METAR MRPV 062200Z 07017G27KT 9999 FEW040 25/14 A3000 NOSIG=
202003062300 METAR MRPV 062300Z 07017G27KT 9999 FEW040 23/15 A3000 NOSIG=
202003070000 METAR MRPV 070000Z 08020G30KT 9999 FEW035 21/15 A3002 NOSIG=
202003070100 METAR MRPV NIL=
202003070200 METAR MRPV NIL=
202003070300 METAR MRPV NIL=
202003070400 METAR MRPV NIL=
202003070500 METAR MRPV NIL=
202003070600 METAR MRPV NIL=
202003070700 METAR MRPV NIL=
202003070800 METAR MRPV NIL=
202003070900 METAR MRPV NIL=
202003071000 METAR MRPV NIL=
202003071100 METAR MRPV NIL=
202003071200 METAR MRPV 071200Z 12010G20KT CAVOK 19/13 A3006 NOSIG=
202003071300 METAR MRPV 071300Z 10018G28KT 9999 FEW035 20/14 A3009 NOSIG=
202003071400 METAR MRPV 071400Z 09015G25KT CAVOK 22/14 A3010 NOSIG=
202003071500 METAR MRPV 071500Z 10017G27KT 9999 FEW045 24/14 A3010 NOSIG=
202003071600 METAR MRPV 071600Z 08021G31KT 9999 FEW030 24/15 A3011 NOSIG=
202003071700 METAR MRPV 071700Z 08021G31KT 9999 FEW035 24/14 A3008 NOSIG=
202003071800 METAR MRPV 071800Z 08021G31KT 9999 FEW035 25/14 A3006 NOSIG=
202003071900 METAR MRPV 071900Z 08020KT 9999 FEW035 25/13 A3003 NOSIG=
202003072000 METAR MRPV 072000Z 08021G32KT 9999 FEW045 25/14 A3001 NOSIG=
202003072100 METAR MRPV NIL=
202003072200 METAR MRPV 072200Z 08019G30KT 9999 FEW045 23/14 A2998 NOSIG=
202003072300 METAR MRPV 072300Z 09018G31KT 9999 FEW040 22/14 A3001 NOSIG=
202003080000 METAR MRPV 080000Z 10015KT 9999 FEW030 21/15 A3002 NOSIG=
202003080100 METAR MRPV NIL=
202003080200 METAR MRPV NIL=
202003080300 METAR MRPV NIL=
202003080400 METAR MRPV NIL=
202003080500 METAR MRPV NIL=
202003080600 METAR MRPV NIL=
202003080700 METAR MRPV NIL=
202003080800 METAR MRPV NIL=
202003080900 METAR MRPV NIL=
202003081000 METAR MRPV NIL=
202003081100 METAR MRPV NIL=
202003081200 METAR MRPV 081200Z 10015G25KT 9999 FEW040 19/14 A3005 NOSIG=
202003081300 METAR MRPV 081300Z 09015G25KT 9999 FEW040 20/14 A3006 NOSIG=
202003081400 METAR MRPV 081400Z 09017G27KT CAVOK 22/13 A3007 NOSIG=
202003081500 METAR MRPV 081500Z 09018G28KT CAVOK 23/14 A3008 NOSIG=
202003081600 METAR MRPV 081600Z 08018G29KT CAVOK 24/14 A3009 NOSIG=
202003081700 METAR MRPV 081700Z 08020G31KT 9999 FEW045 24/14 A3007 NOSIG=
202003081800 METAR MRPV 081800Z 08020G30KT 9999 FEW040 25/14 A3004 NOSIG=
202003081900 METAR MRPV 081900Z 07021KT 9999 FEW040 25/13 A3003 NOSIG=
202003082000 METAR MRPV 082000Z 08022G33KT 9999 FEW040 24/13 A3001 NOSIG=
202003082100 METAR MRPV 082100Z 08022KT 9999 FEW045 25/13 A2998 NOSIG=
202003082200 METAR MRPV 082200Z 07019G29KT 9999 FEW045 24/14 A2999 NOSIG=
202003082300 METAR MRPV 082300Z 08018KT 9999 FEW040 22/14 A3001 NOSIG=
202003090000 METAR MRPV 090000Z 09022KT 9999 FEW035 20/14 A3002 NOSIG=
202003090100 METAR MRPV NIL=
202003090200 METAR MRPV NIL=
202003090300 METAR MRPV NIL=
202003090400 METAR MRPV NIL=
202003090500 METAR MRPV NIL=
202003090600 METAR MRPV NIL=
202003090700 METAR MRPV NIL=
202003090800 METAR MRPV NIL=
202003090900 METAR MRPV NIL=
202003091000 METAR MRPV NIL=
202003091100 METAR MRPV NIL=
202003091200 METAR MRPV 091200Z 11015KT CAVOK 19/13 A3008 NOSIG=
202003091300 METAR MRPV 091300Z 12014KT CAVOK 21/11 A3010 NOSIG=
202003091400 METAR MRPV 091400Z 10017KT CAVOK 23/10 A3010 NOSIG=
202003091500 METAR MRPV 091500Z 08021KT CAVOK 24/12 A3011 NOSIG=
202003091600 METAR MRPV 091600Z 08023G33KT CAVOK 25/13 A3010 NOSIG=
202003091700 METAR MRPV 091700Z 08022G32KT CAVOK 26/13 A3009 NOSIG=
202003091800 METAR MRPV 091800Z 08021G33KT CAVOK 26/13 A3006 NOSIG=
202003091900 METAR MRPV 091900Z 07020G30KT CAVOK 27/13 A3005 NOSIG=
202003092000 METAR MRPV 092000Z 08018G29KT CAVOK 27/14 A3002 NOSIG=
202003092100 METAR MRPV 092100Z 08018G31KT CAVOK 27/14 A3000 NOSIG=
202003092200 METAR MRPV 092200Z 08019G29KT CAVOK 25/13 A2999 NOSIG=
202003092300 METAR MRPV 092300Z 07019G33KT CAVOK 23/14 A3000 NOSIG=
202003100000 METAR MRPV 100000Z 07019KT 9999 FEW045 22/14 A3003 NOSIG=
202003100100 METAR MRPV NIL=
202003100200 METAR MRPV NIL=
202003100300 METAR MRPV NIL=
202003100400 METAR MRPV NIL=
202003100500 METAR MRPV NIL=
202003100600 METAR MRPV NIL=
202003100700 METAR MRPV NIL=
202003100800 METAR MRPV NIL=
202003100900 METAR MRPV NIL=
202003101000 METAR MRPV NIL=
202003101100 METAR MRPV NIL=
202003101200 METAR MRPV 101200Z 11014KT 9999 FEW040 19/14 A3008 NOSIG=
202003101300 METAR MRPV 101300Z 10016KT 9999 FEW040 21/13 A3010 NOSIG=
202003101400 METAR MRPV 101400Z 10017KT CAVOK 23/12 A3011 NOSIG=
202003101500 METAR MRPV 101500Z 08018KT CAVOK 25/12 A3013 NOSIG=
202003101600 METAR MRPV 101600Z 08016KT CAVOK 26/11 A3013 NOSIG=
202003101700 METAR MRPV 101700Z 08018G28KT CAVOK 26/13 A3011 NOSIG=
202003101800 METAR MRPV 101800Z 07016G26KT CAVOK 26/14 A3010 NOSIG=
202003101900 METAR MRPV 101900Z 06016KT CAVOK 27/14 A3008 NOSIG=
202003102000 METAR MRPV 102000Z 07015KT CAVOK 27/13 A3005 NOSIG=
202003102100 METAR MRPV 102100Z 07014KT CAVOK 27/13 A3002 NOSIG=
202003102200 METAR MRPV 102200Z 06017KT 9999 FEW045 25/14 A3002 NOSIG=
202003102300 METAR MRPV 102300Z 08016KT CAVOK 24/14 A3002 NOSIG=
202003110000 METAR MRPV 110000Z 08012KT 9999 FEW045 22/14 A3003 NOSIG=
202003110100 METAR MRPV NIL=
202003110200 METAR MRPV NIL=
202003110300 METAR MRPV NIL=
202003110400 METAR MRPV NIL=
202003110500 METAR MRPV NIL=
202003110600 METAR MRPV NIL=
202003110700 METAR MRPV NIL=
202003110800 METAR MRPV NIL=
202003110900 METAR MRPV NIL=
202003111000 METAR MRPV NIL=
202003111100 METAR MRPV NIL=
202003111200 METAR MRPV 111200Z 10012KT 9999 SCT045 19/15 A3006 NOSIG=
202003111300 METAR MRPV 111300Z 12009KT 9999 FEW045 SCT100 20/15 A3008 NOSIG=
202003111400 METAR MRPV 111400Z 13010G24KT 9999 FEW040 22/14 A3008 NOSIG=
202003111500 METAR MRPV 111500Z 08018KT 9999 FEW045 23/14 A3009 NOSIG=
202003111600 METAR MRPV 111600Z 07018KT 9999 FEW045 24/14 A3009 NOSIG=
202003111700 METAR MRPV 111700Z 07016KT 9999 FEW045 26/14 A3008 NOSIG=
202003111800 METAR MRPV 111800Z 07013KT 9999 SCT045 27/15 A3004 NOSIG=
202003111900 METAR MRPV 111900Z COR 07013KT 9999 FEW045 27/16 A3000 NOSIG=
202003112000 METAR MRPV 112000Z 08015G25KT CAVOK 27/15 A2997 NOSIG=
202003112100 METAR MRPV 112100Z 06016G26KT 9999 FEW040 26/15 A2995 NOSIG=
202003112200 METAR MRPV 112200Z 07015G25KT 9999 FEW040 25/14 A2994 NOSIG=
202003112300 METAR MRPV 112300Z 08013G23KT 9999 FEW035 24/14 A2996 NOSIG=
202003120000 METAR MRPV 120000Z 08010G20KT 9999 FEW035 22/13 A2997 NOSIG=
202003120100 METAR MRPV NIL=
202003120200 METAR MRPV NIL=
202003120300 METAR MRPV NIL=
202003120400 METAR MRPV NIL=
202003120500 METAR MRPV NIL=
202003120700 METAR MRPV NIL=
202003120800 METAR MRPV NIL=
202003120900 METAR MRPV NIL=
202003121000 METAR MRPV NIL=
202003121100 METAR MRPV NIL=
202003121200 METAR MRPV 121200Z 10015G25KT 9999 FEW040 19/14 A2997 NOSIG=
202003121300 METAR MRPV 121300Z 11013KT 9999 FEW040 20/14 A2999 NOSIG=
202003121400 METAR MRPV 121400Z 12014KT 9999 FEW040 22/15 A3001 NOSIG=
202003121500 METAR MRPV 121500Z 09016KT 9999 FEW040 24/15 A3002 NOSIG=
202003121600 METAR MRPV 121600Z 09016KT 9999 SCT040 24/15 A3003 NOSIG=
202003121700 METAR MRPV 121700Z 08020G30KT 9999 SCT035 25/15 A3001 NOSIG=
202003121800 METAR MRPV 121800Z 08016KT 9999 SCT035 26/15 A2999 NOSIG=
202003121900 METAR MRPV 121900Z 08016KT 9999 FEW040 27/15 A2996=
202003122000 METAR MRPV 122000Z 08015G25KT 9999 FEW035 27/15 A2995 NOSIG=
202003122100 METAR MRPV 122100Z 08018KT 9999 FEW040 26/15 A2993 NOSIG=
202003122200 METAR MRPV 122200Z 09018KT 9999 FEW040 25/15 A2994 NOSIG=
202003122300 METAR MRPV 122300Z 08014KT 9999 FEW040 24/16 A2995 NOSIG=
202003130000 METAR MRPV 130000Z 10014KT 9999 FEW030 21/15 A2997 NOSIG=
202003130100 METAR MRPV NIL=
202003130200 METAR MRPV NIL=
202003130300 METAR MRPV NIL=
202003130400 METAR MRPV NIL=
202003130500 METAR MRPV NIL=
202003130600 METAR MRPV NIL=
202003130700 METAR MRPV NIL=
202003130800 METAR MRPV NIL=
202003130900 METAR MRPV NIL=
202003131000 METAR MRPV NIL=
202003131100 METAR MRPV NIL=
202003131200 METAR MRPV 131200Z 12009KT CAVOK 19/14 A3004 NOSIG=
202003131300 METAR MRPV 131300Z 11014KT 9999 FEW030 20/14 A3008 NOSIG=
202003131400 METAR MRPV 131400Z 12013KT 9999 FEW040 22/14 A3008 NOSIG=
202003131500 METAR MRPV 131500Z 09013KT CAVOK 25/14 A3009 NOSIG=
202003131600 METAR MRPV 131600Z 09014KT CAVOK 26/14 A3008 NOSIG=
202003131700 METAR MRPV 131700Z 08010KT 9999 FEW045 27/15 A3007 NOSIG=
202003131800 METAR MRPV 131800Z 09011G23KT 9999 FEW040 28/15 A3004 NOSIG=
202003131900 METAR MRPV 131900Z 09015KT 9999 FEW045 28/16 A3002 NOSIG=
202003132000 METAR MRPV 132000Z 09015KT 9999 FEW045 27/16 A2999 NOSIG=
202003132100 METAR MRPV 132100Z 09018KT 9999 FEW040 SCT250 26/16 A2997 NOSIG=
202003132200 METAR MRPV 132200Z 09017KT 9999 FEW035 SCT250 25/17 A2999 NOSIG=
202003132300 METAR MRPV 132300Z 09015KT 9999 FEW030 SCT250 24/16 A3000 NOSIG=
202003140000 METAR MRPV 140000Z 12012KT 9999 FEW030 SCT250 21/16 A3002 NOSIG=
202003140100 METAR MRPV NIL=
202003140200 METAR MRPV NIL=
202003140300 METAR MRPV NIL=
202003140400 METAR MRPV NIL=
202003140500 METAR MRPV NIL=
202003140600 METAR MRPV NIL=
202003140700 METAR MRPV NIL=
202003140800 METAR MRPV NIL=
202003140900 METAR MRPV NIL=
202003141000 METAR MRPV NIL=
202003141100 METAR MRPV NIL=
202003141200 METAR MRPV 141200Z 10015KT 9999 FEW030 19/15 A3010 NOSIG=
202003141300 METAR MRPV 141300Z 10016KT 9999 FEW025 21/15 A3012 NOSIG=
202003141400 METAR MRPV 141400Z 08018KT 9999 FEW035 22/15 A3013 NOSIG=
202003141500 METAR MRPV 141500Z 08017KT 9999 FEW040 24/15 A3014 NOSIG=
202003141600 METAR MRPV 141600Z 08018G28KT 9999 FEW045 25/15 A3014 NOSIG=
202003141700 METAR MRPV 141700Z 08015G26KT 9999 FEW040 26/15 A3012 NOSIG=
202003141800 METAR MRPV 141800Z 07015KT 9999 FEW045 27/15 A3010 NOSIG=
202003141900 METAR MRPV 141900Z 08016KT 9999 FEW045 27/16 A3007 NOSIG=
202003142000 METAR MRPV 142000Z 09015KT 9999 FEW045 28/15 A3004 NOSIG=
202003142100 METAR MRPV 142100Z 09017KT 9999 FEW045 27/15 A3002 NOSIG=
202003142200 METAR MRPV 142200Z 08017KT 9999 FEW040 25/16 A3003 NOSIG=
202003142300 METAR MRPV 142300Z 09016KT 9999 FEW030 23/16 A3004 NOSIG=
202003150000 METAR MRPV 150000Z 10013KT 9999 FEW030 22/16 A3006 NOSIG=
202003150100 METAR MRPV NIL=
202003150200 METAR MRPV NIL=
202003150300 METAR MRPV NIL=
202003150400 METAR MRPV NIL=
202003150500 METAR MRPV NIL=
202003150600 METAR MRPV NIL=
202003150700 METAR MRPV NIL=
202003150800 METAR MRPV NIL=
202003150900 METAR MRPV NIL=
202003151000 METAR MRPV NIL=
202003151100 METAR MRPV NIL=
202003151200 METAR MRPV 151200Z 13010KT CAVOK 19/13 A3008 NOSIG=
202003151300 METAR MRPV 151300Z 11015KT CAVOK 21/13 A3011 NOSIG=
202003151400 METAR MRPV 151400Z 09016KT CAVOK 23/13 A3012 NOSIG=
202003151500 METAR MRPV 151500Z 08016KT CAVOK 23/14 A3014 NOSIG=
202003151600 METAR MRPV 151600Z 07015KT CAVOK 26/14 A3014 NOSIG=
202003151700 METAR MRPV 151700Z 08017KT 9999 FEW040 26/14 A3010 NOSIG=
202003151800 METAR MRPV 151800Z 08018KT 9999 FEW040 26/15 A3008 NOSIG=
202003151900 METAR MRPV 151900Z 07017KT 9999 FEW045 27/16 A3004 NOSIG=
202003152000 METAR MRPV 152000Z 08016G26KT 9999 FEW040 26/15 A3002 NOSIG=
202003152100 METAR MRPV 152100Z 08017G28KT 9999 FEW040 26/15 A3001 NOSIG=
202003152200 METAR MRPV 152200Z 09021KT 9999 FEW035 24/15 A3002 NOSIG=
202003152300 METAR MRPV 152300Z 07018KT 9999 FEW025 22/15 A3004 NOSIG=
202003160000 METAR MRPV 160000Z 10015KT 9999 FEW030 21/15 A3004 NOSIG=
202003160100 METAR MRPV NIL=
202003160200 METAR MRPV NIL=
202003160300 METAR MRPV NIL=
202003160400 METAR MRPV NIL=
202003160500 METAR MRPV NIL=
202003160600 METAR MRPV NIL=
202003160700 METAR MRPV NIL=
202003160800 METAR MRPV NIL=
202003160900 METAR MRPV NIL=
202003161000 METAR MRPV NIL=
202003161100 METAR MRPV NIL=
202003161200 METAR MRPV 161200Z 12013KT 9999 FEW030 19/15 A3005 NOSIG=
202003161300 METAR MRPV 161300Z 12017KT 9999 FEW030 19/15 A3009 NOSIG=
202003161400 METAR MRPV 161400Z 10020KT 9999 FEW030 21/14 A3010 NOSIG=
202003161500 METAR MRPV 161500Z 09021KT 9999 FEW030 22/13 A3010 NOSIG=
202003161600 METAR MRPV 161600Z 10018KT 9999 FEW040 24/13 A3011 NOSIG=
202003161700 METAR MRPV 161700Z 08018KT 9999 FEW045 25/13 A3009 NOSIG=
202003161800 METAR MRPV 161800Z 08017KT 9999 FEW045 25/14 A3006 NOSIG=
202003161900 METAR MRPV 161900Z 09016KT 9999 FEW040 26/14 A3005 NOSIG=
202003162000 METAR MRPV 162000Z 09017KT 9999 FEW045 26/14 A3002 NOSIG=
202003162100 METAR MRPV 162100Z 08016KT 9999 FEW045 25/14 A3002 NOSIG=
202003162200 METAR MRPV 162200Z 08015KT 9999 FEW045 24/14 A3002 NOSIG=
202003162300 METAR MRPV 162300Z 08016KT 9999 FEW045 23/15 A3003 NOSIG=
202003170000 METAR MRPV 170000Z 11012KT 9999 FEW035 22/15 A3004 NOSIG=
202003170100 METAR MRPV NIL=
202003170200 METAR MRPV NIL=
202003170300 METAR MRPV NIL=
202003170400 METAR MRPV NIL=
202003170500 METAR MRPV NIL=
202003170600 METAR MRPV NIL=
202003170700 METAR MRPV NIL=
202003170800 METAR MRPV NIL=
202003170900 METAR MRPV NIL=
202003171000 METAR MRPV NIL=
202003171100 METAR MRPV NIL=
202003171200 METAR MRPV 171200Z 10016G28KT 9999 FEW045 20/13 A3008 NOSIG=
202003171300 METAR MRPV 171300Z 10016KT 9999 FEW045 20/13 A3009 NOSIG=
202003171400 METAR MRPV 171400Z 09012KT 9999 FEW045 22/13 A3010 NOSIG=
202003171500 METAR MRPV 171500Z 08017KT CAVOK 23/14 A3013 NOSIG=
202003171600 METAR MRPV 171600Z 08017KT CAVOK 25/14 A3013 NOSIG=
202003171700 METAR MRPV 171700Z 07018KT CAVOK 26/14 A3009 NOSIG=
202003171800 METAR MRPV 171800Z 07014KT CAVOK 27/14 A3006 NOSIG=
202003171900 METAR MRPV 171900Z 07014G26KT 9999 FEW040 27/14 A3004 NOSIG=
202003172000 METAR MRPV 172000Z 08013G23KT 9999 FEW040 27/14 A3002 NOSIG=
202003172100 METAR MRPV 172100Z 08015G25KT 9999 FEW040 27/15 A3000 NOSIG=
202003172200 METAR MRPV 172200Z 08016G26KT 9999 FEW040 25/15 A3002 NOSIG=
202003172300 METAR MRPV 172300Z 08012G22KT 9999 FEW040 24/15 A3003 NOSIG=
202003180000 METAR MRPV 180000Z 10010G20KT 9999 FEW030 22/15 A3004 NOSIG=
202003180100 METAR MRPV NIL=
202003180200 METAR MRPV NIL=
202003180300 METAR MRPV NIL=
202003180400 METAR MRPV NIL=
202003180500 METAR MRPV NIL=
202003180600 METAR MRPV NIL=
202003180700 METAR MRPV NIL=
202003180800 METAR MRPV NIL=
202003180900 METAR MRPV NIL=
202003181000 METAR MRPV NIL=
202003181100 METAR MRPV NIL=
202003181200 METAR MRPV 181200Z 12009KT 9999 FEW045 18/12 A3009 NOSIG=
202003181300 METAR MRPV 181300Z 12012KT 9999 FEW040 20/13 A3011 NOSIG=
202003181400 METAR MRPV 181400Z 11011KT CAVOK 21/13 A3012 NOSIG=
202003181500 METAR MRPV 181500Z 09018KT CAVOK 23/14 A3013 NOSIG=
202003181600 METAR MRPV 181600Z 08017KT CAVOK 25/14 A3011 NOSIG=
202003181700 METAR MRPV 181700Z 07016KT CAVOK 25/14 A3010 NOSIG=
202003181800 METAR MRPV 181800Z COR 07016KT 9999 FEW035 26/14 A3007 NOSIG=
202003181900 METAR MRPV 181900Z 08016KT 9999 FEW040 26/14 A3004 NOSIG=
202003182000 METAR MRPV 182000Z 07013G23KT 9999 FEW040 27/14 A3003 NOSIG=
202003182100 METAR MRPV 182100Z 08015G25KT 9999 FEW040 26/14 A3001 NOSIG=
202003182200 METAR MRPV 182200Z 07014G24KT 9999 FEW040 25/14 A3001 NOSIG=
202003182300 METAR MRPV 182300Z 06015G25KT 9999 FEW035 23/14 A3003 NOSIG=
202003190000 METAR MRPV 190000Z 08010G20KT 9999 FEW030 21/14 A3005 NOSIG=
202003190100 METAR MRPV NIL=
202003190200 METAR MRPV NIL=
202003190300 METAR MRPV NIL=
202003190400 METAR MRPV NIL=
202003190500 METAR MRPV NIL=
202003190600 METAR MRPV NIL=
202003190700 METAR MRPV NIL=
202003190800 METAR MRPV NIL=
202003190900 METAR MRPV NIL=
202003191000 METAR MRPV NIL=
202003191100 METAR MRPV NIL=
202003191200 METAR MRPV 191200Z 13008KT CAVOK 18/13 A3009 NOSIG=
202003191300 METAR MRPV 191300Z 10015KT CAVOK 20/12 A3010 NOSIG=
202003191400 METAR MRPV 191400Z 09015G25KT CAVOK 22/11 A3011 NOSIG=
202003191500 METAR MRPV 191500Z 08015G25KT CAVOK 23/13 A3013 NOSIG=
202003191600 METAR MRPV 191600Z 07014G24KT CAVOK 24/14 A3014 NOSIG=
202003191700 METAR MRPV 191700Z 08016G26KT CAVOK 26/13 A3012 NOSIG=
202003191800 METAR MRPV 191800Z 07014KT CAVOK 27/14 A3009 NOSIG=
202003191900 METAR MRPV 191900Z 07013KT 9999 FEW045 27/13 A3005 NOSIG=
202003192000 METAR MRPV 192000Z 08014KT 9999 FEW045 28/14 A3003 NOSIG=
202003192100 METAR MRPV 192100Z 07015KT 9999 FEW045 27/13 A3001 NOSIG=
202003192200 METAR MRPV 192200Z COR 08015KT 9999 FEW045 27/12 A3001 NOSIG=
202003192300 METAR MRPV 192300Z 10014KT 9999 FEW040 25/14 A3003 NOSIG=
202003200000 METAR MRPV 200000Z 11012KT 9999 FEW040 22/16 A3005 NOSIG=
202003200100 METAR MRPV NIL=
202003200200 METAR MRPV NIL=
202003200300 METAR MRPV NIL=
202003200400 METAR MRPV NIL=
202003200500 METAR MRPV NIL=
202003200600 METAR MRPV NIL=
202003200700 METAR MRPV NIL=
202003200800 METAR MRPV NIL=
202003200900 METAR MRPV NIL=
202003201000 METAR MRPV NIL=
202003201100 METAR MRPV NIL=
202003201200 METAR MRPV 201200Z 14009KT CAVOK 18/13 A3014 NOSIG=
202003201300 METAR MRPV 201300Z 13010KT CAVOK 20/14 A3016 NOSIG=
202003201400 METAR MRPV 201400Z 09014G24KT 9999 FEW040 22/14 A3017 NOSIG=
202003201500 METAR MRPV 201500Z 08015KT 9999 FEW040 23/14 A3019 NOSIG=
202003201600 METAR MRPV 201600Z 07014KT CAVOK 24/14 A3018 NOSIG=
202003201700 METAR MRPV 201700Z 07012G22KT 9999 FEW045 SCT080 26/14 A3017 NOSIG=
202003201800 METAR MRPV 201800Z 07013G23KT 9999 FEW040 SCT080 25/15 A3014 NOSIG=
202003201900 METAR MRPV 201900Z 07014KT 9999 FEW040 26/14 A3011 NOSIG=
202003202000 METAR MRPV 202000Z 07013KT 9999 FEW040 26/14 A3007 NOSIG=
202003202100 METAR MRPV 202100Z 08016KT 9999 FEW045 25/14 A3006 NOSIG=
202003202200 METAR MRPV 202200Z 07015KT 9999 FEW040 25/14 A3006 NOSIG=
202003202300 METAR MRPV 202300Z 08014G25KT 9999 FEW040 23/15 A3006 NOSIG=
202003210000 METAR MRPV 210000Z 10012KT 9999 FEW035 22/14 A3008 NOSIG=
202003210100 METAR MRPV NIL=
202003210200 METAR MRPV NIL=
202003210300 METAR MRPV NIL=
202003210400 METAR MRPV NIL=
202003210500 METAR MRPV NIL=
202003210600 METAR MRPV NIL=
202003210700 METAR MRPV NIL=
202003210800 METAR MRPV NIL=
202003210900 METAR MRPV NIL=
202003211000 METAR MRPV NIL=
202003211100 METAR MRPV NIL=
202003211200 METAR MRPV 211200Z 14010KT CAVOK 19/13 A3011 NOSIG=
202003211300 METAR MRPV 211300Z 11013KT CAVOK 20/14 A3013 NOSIG=
202003211400 METAR MRPV 211400Z 11014KT CAVOK 22/14 A3014 NOSIG=
202003211500 METAR MRPV 211500Z 09018KT 9999 FEW045 23/14 A3014 NOSIG=
202003211600 METAR MRPV 211600Z 07019KT 9999 FEW045 24/14 A3014 NOSIG=
202003211700 METAR MRPV 211700Z 07017G28KT 9999 FEW045 25/14 A3013 NOSIG=
202003211800 METAR MRPV 211800Z 08018G29KT 9999 FEW040 25/14 A3011 NOSIG=
202003211900 METAR MRPV 211900Z 07018G31KT 9999 SCT040 26/13 A3007 NOSIG=
202003212000 METAR MRPV 212000Z 07018G28KT 9999 FEW040 26/12 A3004 NOSIG=
202003212100 METAR MRPV 212100Z 06017G27KT 9999 FEW045 26/12 A3001 NOSIG=
202003212200 METAR MRPV 212200Z 07016G26KT 9999 FEW045 25/13 A3001 NOSIG=
202003212300 METAR MRPV 212300Z 07015G25KT 9999 FEW040 23/14 A3002 NOSIG=
202003220000 METAR MRPV 220000Z 07015G26KT 9999 FEW035 21/14 A3003 NOSIG=
202003220100 METAR MRPV NIL=
202003220200 METAR MRPV NIL=
202003220300 METAR MRPV NIL=
202003220400 METAR MRPV NIL=
202003220500 METAR MRPV NIL=
202003220600 METAR MRPV NIL=
202003220700 METAR MRPV NIL=
202003220800 METAR MRPV NIL=
202003220900 METAR MRPV NIL=
202003221000 METAR MRPV NIL=
202003221100 METAR MRPV NIL=
202003221200 METAR MRPV 221200Z 12010KT CAVOK 18/13 A3005 NOSIG=
202003221300 METAR MRPV 221300Z 12010KT CAVOK 20/13 A3007 NOSIG=
202003221400 METAR MRPV 221400Z 09014KT CAVOK 22/12 A3008 NOSIG=
202003221500 METAR MRPV 221500Z 09013KT CAVOK 25/11 A3010 NOSIG=
202003221600 METAR MRPV 221600Z 07015KT CAVOK 25/12 A3009 NOSIG=
202003221700 METAR MRPV 221700Z 07018KT CAVOK 25/13 A3008 NOSIG=
202003221800 METAR MRPV 221800Z 06016KT 9999 FEW045 26/13 A3006 NOSIG=
202003221900 METAR MRPV 221900Z 06013KT 9999 FEW045 26/13 A3003 NOSIG=
202003222000 METAR MRPV 222000Z COR 07017G27KT 9999 FEW035 26/14 A3000 NOSIG=
202003222100 METAR MRPV 222100Z 07017KT 9999 FEW035 27/14 A2999 NOSIG=
202003222200 METAR MRPV 222200Z 08018KT 9999 FEW035 25/14 A2999 NOSIG=
202003222300 METAR MRPV 222300Z 08013KT 9999 FEW040 23/14 A3001 NOSIG=
202003230000 METAR MRPV 230000Z 08013KT 9999 FEW035 22/14 A3003 NOSIG=
202003230100 METAR MRPV NIL=
202003230200 METAR MRPV NIL=
202003230300 METAR MRPV NIL=
202003230400 METAR MRPV NIL=
202003230500 METAR MRPV NIL=
202003230600 METAR MRPV NIL=
202003230700 METAR MRPV NIL=
202003230800 METAR MRPV NIL=
202003230900 METAR MRPV NIL=
202003231000 METAR MRPV NIL=
202003231100 METAR MRPV NIL=
202003231200 METAR MRPV 231200Z 12010KT 9999 SCT035 19/14 A3011 NOSIG=
202003231300 METAR MRPV 231300Z 11013KT 9999 FEW035 20/15 A3013 NOSIG=
202003231400 METAR MRPV 231400Z 09015G25KT 9999 SCT030 20/14 A3015 NOSIG=
202003231500 METAR MRPV 231500Z 09016KT 9999 SCT035 22/13 A3016 NOSIG=
202003231600 METAR MRPV 231600Z 08016KT 9999 FEW045 23/13 A3015 NOSIG=
202003231700 METAR MRPV 231700Z 09014G25KT CAVOK 25/13 A3013 NOSIG=
202003231800 METAR MRPV 231800Z 07017KT CAVOK 25/13 A3010 NOSIG=
202003231900 METAR MRPV 231900Z 07015G25KT CAVOK 26/13 A3008 NOSIG=
202003232000 METAR MRPV 232000Z 09016G26KT 9999 FEW040 26/14 A3006 NOSIG=
202003232100 METAR MRPV 232100Z 08017G27KT 9999 FEW040 25/15 A3004 NOSIG=
202003232200 METAR MRPV 232200Z 09018KT 9999 FEW040 24/15 A3004 NOSIG=
202003232300 METAR MRPV 232300Z 09014G24KT 9999 FEW040 23/15 A3006 NOSIG=
202003240000 METAR MRPV 240000Z 11010G20KT 9999 FEW040 21/15 A3008 NOSIG=
202003240100 METAR MRPV NIL=
202003240200 METAR MRPV NIL=
202003240300 METAR MRPV NIL=
202003240400 METAR MRPV NIL=
202003240500 METAR MRPV NIL=
202003240600 METAR MRPV NIL=
202003240700 METAR MRPV NIL=
202003240800 METAR MRPV NIL=
202003240900 METAR MRPV NIL=
202003241000 METAR MRPV NIL=
202003241100 METAR MRPV NIL=
202003241200 METAR MRPV 241200Z 11011KT 9999 FEW035 19/14 A3010 NOSIG=
202003241300 METAR MRPV 241300Z 11012KT 9999 FEW035 20/15 A3012 NOSIG=
202003241400 METAR MRPV 241400Z 10012KT 9999 FEW035 21/14 A3012 NOSIG=
202003241500 METAR MRPV 241500Z 09014KT 9999 FEW030 23/15 A3013 NOSIG=
202003241600 METAR MRPV 241600Z 09015KT 9999 FEW045 25/15 A3013 NOSIG=
202003241700 METAR MRPV 241700Z 08014G24KT 9999 FEW045 26/15 A3011 NOSIG=
202003241800 METAR MRPV 241800Z 08015KT 9999 FEW035 26/15 A3008 NOSIG=
202003241900 METAR MRPV 241900Z 08017KT 9999 FEW040 27/15 A3006 NOSIG=
202003242000 METAR MRPV 242000Z 09017G27KT 9999 SCT035 26/14 A3003 NOSIG=
202003242100 METAR MRPV 242100Z 09015G26KT 9999 FEW035 SCT100 24/15 A3002 NOSIG=
202003242200 METAR MRPV 242200Z 09017KT 9999 FEW035 BKN080 23/14 A3002 NOSIG=
202003242300 METAR MRPV 242300Z 09017KT 9999 FEW035 SCT100 23/15 A3003 NOSIG=
202003250000 METAR MRPV 250000Z 09013KT 9999 SCT030 21/15 A3004 NOSIG=
202003250100 METAR MRPV NIL=
202003250200 METAR MRPV NIL=
202003250300 METAR MRPV NIL=
202003250400 METAR MRPV NIL=
202003250500 METAR MRPV NIL=
202003250600 METAR MRPV NIL=
202003250700 METAR MRPV NIL=
202003250800 METAR MRPV NIL=
202003250900 METAR MRPV NIL=
202003251000 METAR MRPV NIL=
202003251100 METAR MRPV NIL=
202003251200 METAR MRPV 251200Z 12010KT CAVOK 19/13 A3003 NOSIG=
202003251300 METAR MRPV 251300Z 12010KT CAVOK 20/13 A3005 NOSIG=
202003251400 METAR MRPV 251400Z 11011G21KT CAVOK 22/13 A3006 NOSIG=
202003251500 METAR MRPV 251500Z 10012G22KT CAVOK 25/12 A3006 NOSIG=
202003251600 METAR MRPV 251600Z 09014G24KT CAVOK 26/13 A3006 NOSIG=
202003251700 METAR MRPV 251700Z 09012G22KT CAVOK 26/14 A3004 NOSIG=
202003251800 METAR MRPV 251800Z 09013G23KT 9999 FEW045 27/14 A3002 NOSIG=
202003251900 METAR MRPV 251900Z 09014KT 9999 FEW045 27/15 A2999 NOSIG=
202003252000 METAR MRPV 252000Z 08012KT 9999 FEW045 27/15 A2996 NOSIG=
202003252100 METAR MRPV 252100Z 09014KT 9999 FEW045 27/16 A2994 NOSIG=
202003252200 METAR MRPV 252200Z 10014KT 9999 SCT045 26/16 A2995 NOSIG=
202003252300 METAR MRPV 252300Z 10013KT 9999 SCT035 23/16 A2996 NOSIG=
202003260000 METAR MRPV 260000Z 11011KT 9999 BKN030 22/17 A2998 NOSIG=
202003260100 METAR MRPV NIL=
202003260200 METAR MRPV NIL=
202003260300 METAR MRPV NIL=
202003260400 METAR MRPV NIL=
202003260500 METAR MRPV NIL=
202003260600 METAR MRPV NIL=
202003260700 METAR MRPV NIL=
202003260800 METAR MRPV NIL=
202003260900 METAR MRPV NIL=
202003261000 METAR MRPV NIL=
202003261100 METAR MRPV NIL=
202003261200 METAR MRPV 261200Z 12010G20KT CAVOK 19/15 A3000 NOSIG=
202003261300 METAR MRPV 261300Z 12010KT CAVOK 21/15 A3003 NOSIG=
202003261400 METAR MRPV 261400Z 11012KT CAVOK 22/15 A3004 NOSIG=
202003261500 METAR MRPV 261500Z 09015KT CAVOK 24/15 A3004 NOSIG=
202003261600 METAR MRPV 261600Z 07015G25KT CAVOK 25/15 A3004 NOSIG=
202003261700 METAR MRPV 261700Z 07013KT 9999 FEW040 27/15 A3003 NOSIG=
202003261800 METAR MRPV 261800Z 09015KT 9999 FEW040 28/15 A3000 NOSIG=
202003261900 METAR MRPV 261900Z 09014KT 9999 FEW045 28/15 A2997 NOSIG=
202003262000 METAR MRPV 262000Z 09016KT 9999 FEW040 27/16 A2995 NOSIG=
202003262100 METAR MRPV 262100Z 10015KT 9999 FEW040 27/16 A2993 NOSIG=
202003262200 METAR MRPV 262200Z 10015KT 9999 FEW035 25/16 A2993 NOSIG=
202003262300 METAR MRPV 262300Z 09017KT 9999 SCT035 23/16 A2994 NOSIG=
202003270000 METAR MRPV 270000Z 11013KT 9999 SCT030 21/16 A2995 NOSIG=
202003270100 METAR MRPV NIL=
202003270200 METAR MRPV NIL=
202003270300 METAR MRPV NIL=
202003270400 METAR MRPV NIL=
202003270500 METAR MRPV NIL=
202003270600 METAR MRPV NIL=
202003270700 METAR MRPV NIL=
202003270800 METAR MRPV NIL=
202003270900 METAR MRPV NIL=
202003271000 METAR MRPV NIL=
202003271100 METAR MRPV NIL=
202003271200 METAR MRPV 271200Z 12013KT 9999 FEW035 19/13 A2998 NOSIG=
202003271300 METAR MRPV 271300Z 10016KT 9999 FEW035 21/12 A3000 NOSIG=
202003271400 METAR MRPV 271400Z 09016KT 9999 FEW040 23/12 A3002 NOSIG=
202003271500 METAR MRPV 271500Z 09014KT CAVOK 25/12 A3001 NOSIG=
202003271600 METAR MRPV 271600Z 09012KT CAVOK 26/12 A3001 NOSIG=
202003271700 METAR MRPV 271700Z 08011KT CAVOK 27/13 A3000 NOSIG=
202003271800 METAR MRPV 271800Z 09014KT 9999 FEW045 28/14 A2998 NOSIG=
202003271900 METAR MRPV 271900Z 09013KT 9999 FEW045 28/15 A2995 NOSIG=
202003272000 METAR MRPV 272000Z COR 09012KT 9999 FEW040 28/15 A2993 NOSIG=
202003272100 METAR MRPV 272100Z 08013KT 9999 FEW040 28/15 A2991 NOSIG=
202003272200 METAR MRPV 272200Z 09016KT 9999 FEW035 26/16 A2991 NOSIG=
202003272300 METAR MRPV 272300Z 09015KT 9999 FEW040 24/15 A2993 NOSIG=
202003280000 METAR MRPV 280000Z 10013KT 9999 FEW035 22/16 A2995 NOSIG=
202003280100 METAR MRPV NIL=
202003280200 METAR MRPV NIL=
202003280300 METAR MRPV NIL=
202003280400 METAR MRPV NIL=
202003280500 METAR MRPV NIL=
202003280600 METAR MRPV NIL=
202003280700 METAR MRPV NIL=
202003280800 METAR MRPV NIL=
202003280900 METAR MRPV NIL=
202003281000 METAR MRPV NIL=
202003281100 METAR MRPV NIL=
202003281200 METAR MRPV 281200Z 14007KT CAVOK 19/13 A2998 NOSIG=
202003281300 METAR MRPV 281300Z 14007KT CAVOK 21/12 A3001 NOSIG=
202003281400 METAR MRPV 281400Z 10011KT CAVOK 23/12 A3002 NOSIG=
202003281500 METAR MRPV 281500Z 10009KT CAVOK 25/13 A3003 NOSIG=
202003281600 METAR MRPV 281600Z 09011KT CAVOK 27/13 A3002 NOSIG=
202003281700 METAR MRPV 281700Z 08014KT 9999 FEW045 27/14 A3001 NOSIG=
202003281800 METAR MRPV 281800Z 07013KT 9999 FEW045 27/15 A2998 NOSIG=
202003281900 METAR MRPV 281900Z 08013KT 9999 FEW040 28/15 A2995 NOSIG=
202003282000 METAR MRPV 282000Z 07013KT 9999 FEW040 28/14 A2992 NOSIG=
202003282100 METAR MRPV 282100Z 09013KT 9999 FEW045 28/14 A2990 NOSIG=
202003282200 METAR MRPV 282200Z 09015KT 9999 FEW040 27/15 A2991 NOSIG=
202003282300 METAR MRPV 282300Z 09017KT 9999 SCT035 25/16 A2992 NOSIG=
202003290000 METAR MRPV 290000Z 11008KT 9999 FEW035 SCT080 23/17 A2995 NOSIG=
202003290100 METAR MRPV NIL=
202003290200 METAR MRPV NIL=
202003290300 METAR MRPV NIL=
202003290400 METAR MRPV NIL=
202003290500 METAR MRPV NIL=
202003290600 METAR MRPV NIL=
202003290700 METAR MRPV NIL=
202003290800 METAR MRPV NIL=
202003290900 METAR MRPV NIL=
202003291000 METAR MRPV NIL=
202003291100 METAR MRPV NIL=
202003291200 METAR MRPV 291200Z 09016KT 9999 FEW030 19/16 A3001 NOSIG=
202003291300 METAR MRPV 291300Z 10014KT 9999 FEW025 20/16 A3003 NOSIG=
202003291400 METAR MRPV 291400Z 09017G27KT 9999 FEW025 20/15 A3005 NOSIG=
202003291500 METAR MRPV 291500Z 09015G25KT 9999 SCT025 22/13 A3006 NOSIG=
202003291600 METAR MRPV 291600Z 09017KT 9999 BKN030 23/14 A3007 NOSIG=
202003291700 METAR MRPV 291700Z 08017G27KT 9999 SCT030 24/14 A3006 NOSIG=
202003291800 METAR MRPV 291800Z 08017KT 9999 FEW030 25/14 A3003 NOSIG=
202003291900 METAR MRPV 291900Z 07015G25KT 9999 FEW045 27/14 A3000 NOSIG=
202003292000 METAR MRPV 292000Z 08014G24KT 9999 FEW045 26/15 A2998 NOSIG=
202003292100 METAR MRPV 292100Z 09013G23KT 9999 FEW040 26/15 A2997 NOSIG=
202003292200 METAR MRPV 292200Z 09015G25KT 9999 FEW035 24/15 A2997 NOSIG=
202003292300 METAR MRPV 292300Z 09017KT 9999 FEW040 23/15 A2999 NOSIG=
202003300000 METAR MRPV 300000Z 11010KT 9999 FEW040 21/15 A3001 NOSIG=
202003300100 METAR MRPV NIL=
202003300200 METAR MRPV NIL=
202003300300 METAR MRPV NIL=
202003300400 METAR MRPV NIL=
202003300500 METAR MRPV NIL=
202003300600 METAR MRPV NIL=
202003300700 METAR MRPV NIL=
202003300800 METAR MRPV NIL=
202003300900 METAR MRPV NIL=
202003301000 METAR MRPV NIL=
202003301100 METAR MRPV NIL=
202003301200 METAR MRPV 301200Z 13008KT CAVOK 19/14 A3005 NOSIG=
202003301300 METAR MRPV 301300Z 13011KT CAVOK 21/14 A3006 NOSIG=
202003301400 METAR MRPV 301400Z 12012KT CAVOK 23/14 A3007 NOSIG=
202003301500 METAR MRPV 301500Z 10012KT CAVOK 24/13 A3007 NOSIG=
202003301600 METAR MRPV 301600Z 08016KT CAVOK 26/13 A3006 NOSIG=
202003301700 METAR MRPV 301700Z 08014KT CAVOK 26/13 A3003 NOSIG=
202003301800 METAR MRPV 301800Z 08015KT CAVOK 27/14 A3002 NOSIG=
202003301900 METAR MRPV 301900Z 08016KT CAVOK 27/15 A2999 NOSIG=
202003302000 METAR MRPV 302000Z 08015G25KT 9999 FEW040 27/15 A2996 NOSIG=
202003302100 METAR MRPV 302100Z 09014KT 9999 FEW035 26/16 A2995 NOSIG=
202003302200 METAR MRPV 302200Z 08013KT 9999 FEW035 26/15 A2994 NOSIG=
202003302300 METAR MRPV 302300Z 10015KT 9999 FEW030 24/16 A2996 NOSIG=
202003310000 METAR MRPV 310000Z 12012KT 9999 FEW030 22/16 A2999 NOSIG=
202003310100 METAR MRPV NIL=
202003310200 METAR MRPV NIL=
202003310300 METAR MRPV NIL=
202003310400 METAR MRPV NIL=
202003310500 METAR MRPV NIL=
202003310600 METAR MRPV NIL=
202003310700 METAR MRPV NIL=
202003310800 METAR MRPV NIL=
202003310900 METAR MRPV NIL=
202003311000 METAR MRPV NIL=
202003311100 METAR MRPV NIL=
202003311200 METAR MRPV 311200Z 13011KT CAVOK 20/13 A3000 NOSIG=
202003311300 METAR MRPV 311300Z 12010KT CAVOK 21/14 A3002 NOSIG=
202003311400 METAR MRPV 311400Z 10013KT CAVOK 23/14 A3003 NOSIG=
202003311500 METAR MRPV 311500Z 10012KT CAVOK 25/15 A3003 NOSIG=
202003311600 METAR MRPV 311600Z 09012KT CAVOK 26/14 A3003 NOSIG=
202003311700 METAR MRPV 311700Z 09010G20KT CAVOK 28/12 A3002 NOSIG=
202003311800 METAR MRPV 311800Z 09010KT CAVOK 29/13 A2999 NOSIG=
202003311900 METAR MRPV 311900Z 09015KT 9999 FEW045 29/15 A2996 NOSIG=
202003312000 METAR MRPV 312000Z 09013KT 9999 FEW045 28/15 A2994 NOSIG=
202003312100 METAR MRPV 312100Z 09014KT 9999 VCTS FEW025CB FEW040 BKN110 27/15 A2993 NOSIG=
202003312200 METAR MRPV 312200Z 10011KT 9999 -RA VCTS FEW025CB FEW035 BKN100 24/16 A2995 NOSIG=
202003312300 METAR MRPV 312300Z 11008KT 9999 FEW040 BKN100 23/17 A2996 NOSIG=
202004010000 METAR MRPV 010000Z 12008KT 9999 FEW040 BKN100 23/17 A2998 NOSIG=
202004010100 METAR MRPV NIL=
202004010200 METAR MRPV NIL=
202004010300 METAR MRPV NIL=
202004010400 METAR MRPV NIL=
202004010500 METAR MRPV NIL=
202004010600 METAR MRPV NIL=
202004010700 METAR MRPV NIL=
202004010800 METAR MRPV NIL=
202004010900 METAR MRPV NIL=
202004011000 METAR MRPV NIL=
202004011100 METAR MRPV NIL=
202004011200 METAR MRPV 011200Z 08006KT CAVOK 18/15 A2999 NOSIG=
202004011300 METAR MRPV 011300Z 12006KT CAVOK 21/14 A3000 NOSIG=
202004011400 METAR MRPV 011400Z 13008KT CAVOK 24/16 A3001 NOSIG=
202004011500 METAR MRPV 011500Z 11010KT CAVOK 25/16 A3002 NOSIG=
202004011600 METAR MRPV 011600Z 09014KT CAVOK 27/16 A3002 NOSIG=
202004011700 METAR MRPV 011700Z 09010KT 9999 FEW040 28/16 A3001 NOSIG=
202004011800 METAR MRPV 011800Z 08011KT 9999 SCT035 29/16 A3000 NOSIG=
202004011900 METAR MRPV 011900Z 35003KT 060V350 9999 SCT040 28/17 A2997 NOSIG=
202004012000 METAR MRPV 012000Z 28011KT 9999 RA BKN040 26/18 A2995 NOSIG=
202004012100 METAR MRPV 012100Z 09003KT 9999 RA VCTS SCT025CB SCT090 23/18 A2996 NOSIG=
202004012200 METAR MRPV 012200Z 03003KT 9999 -RA VCTS FEW020CB FEW035 BKN080 20/17 A2997 NOSIG=
202004012300 METAR MRPV 012300Z VRB02KT 9999 -RA FEW040 BKN100 20/18 A2998 NOSIG=
202004020000 METAR MRPV 020000Z 12003KT CAVOK 19/18 A2999 NOSIG=
202004020100 METAR MRPV NIL=
202004020200 METAR MRPV NIL=
202004020300 METAR MRPV NIL=
202004020400 METAR MRPV NIL=
202004020500 METAR MRPV NIL=
202004020600 METAR MRPV NIL=
202004020700 METAR MRPV NIL=
202004020800 METAR MRPV NIL=
202004020900 METAR MRPV NIL=
202004021000 METAR MRPV NIL=
202004021100 METAR MRPV NIL=
202004021200 METAR MRPV 021200Z 09005KT CAVOK 18/14 A3002 NOSIG=
202004021300 METAR MRPV 021300Z 10009KT CAVOK 20/15 A3004 NOSIG=
202004021400 METAR MRPV 021400Z 10012KT CAVOK 22/15 A3005 NOSIG=
202004021500 METAR MRPV 021500Z 12010KT CAVOK 26/13 A3005 NOSIG=
202004021600 METAR MRPV 021600Z 08008KT CAVOK 27/14 A3004 NOSIG=
202004021700 METAR MRPV 021700Z 10007KT CAVOK 28/12 A3003 NOSIG=
202004021800 METAR MRPV 021800Z 31004KT 9999 FEW035 BKN200 28/15 A3000 NOSIG=
202004021900 METAR MRPV 021900Z 30004KT 9999 FEW035 BKN200 29/15 A2997 NOSIG=
202004022000 METAR MRPV 022000Z 09008KT 9999 SCT030 BKN200 29/12 A2995 NOSIG=
202004022100 METAR MRPV 022100Z 22007KT 070V200 9999 FEW025TCU FEW030 BKN200 28/17 A2995 NOSIG=
202004022200 METAR MRPV 022200Z 26007KT 9999 FEW025 SCT030 26/19 A2995 NOSIG=
202004022300 METAR MRPV 022300Z 27008KT 9999 SCT035 BKN200 25/19 A2996 NOSIG=
202004030000 METAR MRPV 030000Z 28004KT 9999 BKN030 24/19 A2999 NOSIG=
202004030100 METAR MRPV NIL=
202004030200 METAR MRPV NIL=
202004030300 METAR MRPV NIL=
202004030400 METAR MRPV NIL=
202004030500 METAR MRPV NIL=
202004030600 METAR MRPV NIL=
202004030700 METAR MRPV NIL=
202004030800 METAR MRPV NIL=
202004030900 METAR MRPV NIL=
202004031000 METAR MRPV NIL=
202004031100 METAR MRPV NIL=
202004031200 METAR MRPV 031200Z 16003KT CAVOK 18/13 A3002 NOSIG=
202004031300 METAR MRPV 031300Z 14006KT CAVOK 21/13 A3003 NOSIG=
202004031400 METAR MRPV 031400Z 10009KT CAVOK 23/13 A3005 NOSIG=
202004031500 METAR MRPV 031500Z 10005KT CAVOK 25/12 A3005 NOSIG=
202004031600 METAR MRPV 031600Z 13003KT 9999 FEW030 27/11 A3003 NOSIG=
202004031700 METAR MRPV 031700Z 06005KT 9999 FEW040 29/06 A3001 NOSIG=
202004031800 METAR MRPV 031800Z 23006KT 9999 FEW040 SCT160 29/13 A2998 NOSIG=
202004031900 METAR MRPV 031900Z 28007KT 9999 FEW040 BKN200 30/16 A2995 NOSIG=
202004032000 METAR MRPV 032000Z 28008KT 9999 SCT035 29/16 A2993 NOSIG=
202004032100 METAR MRPV 032100Z COR 28007KT 9999 SCT035 SCT060 29/18 A2990 NOSIG=
202004032200 METAR MRPV 032200Z COR 13006KT 130V240 9999 RA SCT030 SCT060 24/15 A2993 NOSIG=
202004032300 METAR MRPV 032300Z 12003KT 9999 -RA SCT035 SCT080 23/18 A2994 NOSIG=
202004040000 METAR MRPV 040000Z 12003KT 9999 -RA SCT025 BKN100 22/19 A2996 NOSIG=
202004040100 METAR MRPV NIL=
202004040200 METAR MRPV NIL=
202004040300 METAR MRPV NIL=
202004040400 METAR MRPV NIL=
202004040500 METAR MRPV NIL=
202004040600 METAR MRPV NIL=
202004040700 METAR MRPV NIL=
202004040800 METAR MRPV NIL=
202004040900 METAR MRPV NIL=
202004041000 METAR MRPV NIL=
202004041100 METAR MRPV NIL=
202004041200 METAR MRPV 041200Z 13007KT CAVOK 20/14 A2997 NOSIG=
202004041300 METAR MRPV 041300Z 10010KT CAVOK 21/15 A3000 NOSIG=
202004041400 METAR MRPV 051400Z COR 12011KT CAVOK 24/15 A3004 NOSIG=
202004041500 METAR MRPV 041500Z 09014KT CAVOK 25/15 A3002 NOSIG=
202004041600 METAR MRPV 041600Z 09008KT CAVOK 27/15 A3001 NOSIG=
202004041700 METAR MRPV 041700Z 09008KT CAVOK 28/15 A2999 NOSIG=
202004041800 METAR MRPV 041800Z 09011KT CAVOK 28/15 A2996 NOSIG=
202004041900 METAR MRPV 041900Z 09011KT CAVOK 29/16 A2994 NOSIG=
202004042000 METAR MRPV 042000Z 08010KT 9999 FEW040 30/16 A2991 NOSIG=
202004042100 METAR MRPV 042100Z 08013KT 9999 FEW040 30/16 A2990 NOSIG=
202004042200 METAR MRPV 042200Z 08010KT 9999 FEW040 28/16 A2989 NOSIG=
202004042300 METAR MRPV 042300Z 09009KT 9999 FEW040 26/16 A2990 NOSIG=
202004050000 METAR MRPV 050000Z 10008KT 9999 FEW030 24/16 A2993 NOSIG=
202004050100 METAR MRPV NIL=
202004050200 METAR MRPV NIL=
202004050300 METAR MRPV NIL=
202004050400 METAR MRPV NIL=
202004050500 METAR MRPV NIL=
202004050600 METAR MRPV NIL=
202004050700 METAR MRPV NIL=
202004050800 METAR MRPV NIL=
202004050900 METAR MRPV NIL=
202004051000 METAR MRPV NIL=
202004051100 METAR MRPV NIL=
202004051200 METAR MRPV 051200Z 14006KT CAVOK 20/15 A2999 NOSIG=
202004051300 METAR MRPV 051300Z 14008KT CAVOK 22/15 A3001 NOSIG=
202004051400 METAR MRPV 051400Z COR 12011KT CAVOK 24/15 A3004 NOSIG=
202004051500 METAR MRPV 051500Z COR 09010KT CAVOK 26/15 A3004 NOSIG=
202004051600 METAR MRPV 051600Z COR 11007KT CAVOK 27/14 A3003 NOSIG=
202004051700 METAR MRPV 051700Z 09005KT CAVOK 29/14 A3001 NOSIG=
202004051800 METAR MRPV 051800Z 12006KT CAVOK 31/13 A2997 NOSIG=
202004051900 METAR MRPV 051900Z 09010KT 9999 FEW045 30/15 A2996 NOSIG=
202004052000 METAR MRPV 052000Z 26004KT 150V260 9999 SCT040 30/14 A2994 NOSIG=
202004052100 METAR MRPV 052100Z 27006KT 9999 SCT040 29/19 A2993 NOSIG=
202004052200 METAR MRPV 052200Z 26007KT 9999 BKN035 27/20 A2993 NOSIG=
202004052300 METAR MRPV 052300Z 28007KT 9999 SCT030 26/19 A2995 BECMG 08006KT=
202004060000 METAR MRPV 060000Z VRB02KT 9999 SCT030 25/19 A2998 NOSIG=
202004060100 METAR MRPV NIL=
202004060200 METAR MRPV NIL=
202004060300 METAR MRPV NIL=
202004060400 METAR MRPV NIL=
202004060500 METAR MRPV NIL=
202004060600 METAR MRPV NIL=
202004060700 METAR MRPV NIL=
202004060800 METAR MRPV NIL=
202004060900 METAR MRPV NIL=
202004061000 METAR MRPV NIL=
202004061100 METAR MRPV NIL=
202004061200 METAR MRPV 061200Z 14007KT 9999 FEW035 21/16 A3002 NOSIG=
202004061300 METAR MRPV 061300Z 12011KT 9999 FEW035 23/17 A3003 NOSIG=
202004061400 METAR MRPV 061400Z 12013G23KT 9999 FEW035 24/17 A3006 NOSIG=
202004061500 METAR MRPV 061500Z 09015KT CAVOK 25/17 A3006 NOSIG=
202004061600 METAR MRPV 061600Z 09011G21KT CAVOK 28/13 A3005 NOSIG=
202004061700 METAR MRPV 061700Z 08007KT CAVOK 30/13 A3003 NOSIG=
202004061800 METAR MRPV 061800Z 08011KT CAVOK 30/14 A3002 NOSIG=
202004061900 METAR MRPV 061900Z 09011KT 9999 FEW040 30/16 A2999 NOSIG=
202004062000 METAR MRPV 062000Z 10012KT 9999 FEW040 30/16 A2998 NOSIG=
202004062100 METAR MRPV 062100Z 09011G21KT 9999 FEW040 30/15 A2997 NOSIG=
202004062200 METAR MRPV 062200Z 09013G23KT 9999 FEW030 29/16 A2996 NOSIG=
202004062300 METAR MRPV 062300Z 09016KT 9999 SCT030 26/17 A2998 NOSIG=
202004070000 METAR MRPV 070000Z 09013KT 9999 FEW025 24/17 A3001 NOSIG=
202004070100 METAR MRPV NIL=
202004070200 METAR MRPV NIL=
202004070300 METAR MRPV NIL=
202004070400 METAR MRPV NIL=
202004070500 METAR MRPV NIL=
202004070600 METAR MRPV NIL=
202004070700 METAR MRPV NIL=
202004070800 METAR MRPV NIL=
202004070900 METAR MRPV NIL=
202004071000 METAR MRPV NIL=
202004071100 METAR MRPV NIL=
202004071200 METAR MRPV 071200Z 11010KT 9999 FEW040 22/17 A3006 NOSIG=
202004071300 METAR MRPV 071300Z 11016G26KT 9999 FEW040 23/17 A3007 NOSIG=
202004071400 METAR MRPV 071400Z 08017G27KT 9999 FEW040 24/17 A3010 NOSIG=
202004071500 METAR MRPV 071500Z 08023G33KT 9999 FEW040 25/17 A3011 NOSIG=
202004071600 METAR MRPV 071600Z 09019G29KT 9999 FEW040 25/17 A3011 NOSIG=
202004071700 METAR MRPV 071700Z 09025G35KT 9999 FEW045 27/17 A3009 NOSIG=
202004071800 METAR MRPV 071800Z 08020G30KT 9999 FEW045 27/17 A3007 NOSIG=
202004071900 METAR MRPV 071900Z 07019G29KT 9999 FEW040 27/17 A3004 NOSIG=
202004072000 METAR MRPV 072000Z 08020G31KT 9999 FEW035 27/17 A3002 NOSIG=
202004072100 METAR MRPV 072100Z 09017G27KT 9999 FEW040 27/16 A2999 NOSIG=
202004072200 METAR MRPV 072200Z 08018G28KT 9999 FEW040 27/16 A2998 NOSIG=
202004072300 METAR MRPV 072300Z 08016G26KT 9999 FEW035 25/17 A2999 NOSIG=
202004080000 METAR MRPV 080000Z 09013G23KT 9999 FEW035 23/17 A3001 NOSIG=
202004080100 METAR MRPV NIL=
202004080200 METAR MRPV NIL=
202004080300 METAR MRPV NIL=
202004080400 METAR MRPV NIL=
202004080500 METAR MRPV NIL=
202004080600 METAR MRPV NIL=
202004080700 METAR MRPV NIL=
202004080800 METAR MRPV NIL=
202004080900 METAR MRPV NIL=
202004081000 METAR MRPV NIL=
202004081100 METAR MRPV NIL=
202004081200 METAR MRPV 081200Z 13010KT 9999 FEW035 21/16 A3002 NOSIG=
202004081300 METAR MRPV 081300Z 10016G27KT 9999 FEW035 SCT200 22/16 A3004 NOSIG=
202004081400 METAR MRPV 081400Z 10016KT 9999 FEW045 SCT200 24/17 A3005 NOSIG=
202004081500 METAR MRPV 081500Z 08015G25KT 9999 FEW035 25/17 A3005 NOSIG=
202004081600 METAR MRPV 081600Z 07017KT 9999 FEW035 26/17 A3005 NOSIG=
202004081700 METAR MRPV 081700Z 07016KT 9999 FEW040 28/16 A3005 NOSIG=
202004081800 METAR MRPV 081800Z 07016KT 9999 FEW040 SCT250 28/17 A3003 NOSIG=
202004081900 METAR MRPV 081900Z 07015KT 9999 FEW045 SCT250 28/17 A3001 NOSIG=
202004082000 METAR MRPV 082000Z 06014KT 9999 FEW045 BKN200 29/17 A2997 NOSIG=
202004082100 METAR MRPV 082100Z 07015KT 9999 FEW040 BKN200 28/17 A2996 NOSIG=
202004082200 METAR MRPV 082200Z 09016KT 9999 FEW040 BKN200 27/17 A2996 NOSIG=
202004082300 METAR MRPV 082300Z 09014KT 9999 FEW035 BKN200 25/17 A2998 NOSIG=
202004090000 METAR MRPV 090000Z 09012KT 9999 FEW035 BKN200 24/17 A2999 NOSIG=
202004090100 METAR MRPV NIL=
202004090200 METAR MRPV NIL=
202004090300 METAR MRPV NIL=
202004090400 METAR MRPV NIL=
202004090500 METAR MRPV NIL=
202004090600 METAR MRPV NIL=
202004090700 METAR MRPV NIL=
202004090800 METAR MRPV NIL=
202004090900 METAR MRPV NIL=
202004091000 METAR MRPV NIL=
202004091100 METAR MRPV NIL=
202004091200 METAR MRPV 091200Z 13007KT CAVOK 21/15 A3002 NOSIG=
202004091300 METAR MRPV 091300Z 12010KT CAVOK 22/16 A3003 NOSIG=
202004091400 METAR MRPV 091400Z 09017KT CAVOK 24/16 A3004 NOSIG=
202004091500 METAR MRPV 091500Z 09016KT CAVOK 25/16 A3005 NOSIG=
202004091600 METAR MRPV 091600Z 07013KT CAVOK 27/16 A3003 NOSIG=
202004091700 METAR MRPV 091700Z 08016KT CAVOK 28/16 A3003 NOSIG=
202004091800 METAR MRPV 091800Z 08014KT CAVOK 29/16 A3000 NOSIG=
202004091900 METAR MRPV 091900Z 08013KT CAVOK 29/17 A2997 NOSIG=
202004092000 METAR MRPV 092000Z 07012KT 9999 FEW045 BKN200 29/16 A2996 NOSIG=
202004092100 METAR MRPV 092100Z 09012KT 9999 FEW045 BKN200 28/16 A2994 NOSIG=
202004092200 METAR MRPV 092200Z 09012KT 9999 FEW040 OVC200 28/17 A2993 NOSIG=
202004092300 METAR MRPV 092300Z 10012KT 9999 FEW035 OVC200 26/17 A2994 NOSIG=
202004100000 METAR MRPV 100000Z 11010KT 9999 FEW030 OVC200 24/18 A2996 NOSIG=
202004100100 METAR MRPV NIL=
202004100200 METAR MRPV NIL=
202004100300 METAR MRPV NIL=
202004100400 METAR MRPV NIL=
202004100500 METAR MRPV NIL=
202004100600 METAR MRPV NIL=
202004100700 METAR MRPV NIL=
202004100800 METAR MRPV NIL=
202004100900 METAR MRPV NIL=
202004101000 METAR MRPV NIL=
202004101100 METAR MRPV NIL=
202004101200 METAR MRPV 101200Z 13007KT 9999 FEW030 BKN200 21/16 A3000 NOSIG=
202004101300 METAR MRPV 101300Z 11015KT 9999 FEW030 SCT080 BKN200 22/17 A3002 NOSIG=
202004101400 METAR MRPV 101400Z 11015KT 9999 FEW030 SCT080 BKN200 23/17 A3004 NOSIG=
202004101500 METAR MRPV 101500Z 08014G24KT 9999 FEW040 BKN200 26/18 A3004 NOSIG=
202004101600 METAR MRPV 101600Z 08013G23KT 9999 FEW035 BKN200 26/17 A3003 NOSIG=
202004101700 METAR MRPV 101700Z 08015G28KT 9999 FEW035 BKN200 27/16 A3002 NOSIG=
202004101800 METAR MRPV 101800Z 07011G21KT 9999 FEW040 BKN200 28/16 A3001 NOSIG=
202004101900 METAR MRPV 101900Z 07011KT 9999 FEW040 BKN200 29/16 A2998 NOSIG=
202004102000 METAR MRPV 102000Z 08015KT 9999 FEW040 BKN200 29/16 A2996 NOSIG=
202004102100 METAR MRPV 102100Z 11007KT 9999 FEW040 SCT200 29/17 A2994 NOSIG=
202004102200 METAR MRPV 102200Z 09011KT 9999 FEW040 OVC200 28/16 A2993 NOSIG=
202004102300 METAR MRPV 102300Z 09011KT 9999 FEW040 OVC200 27/17 A2995 NOSIG=
202004110000 METAR MRPV 110000Z 11007KT 9999 FEW030 OVC200 25/16 A2997 NOSIG=
202004110100 METAR MRPV NIL=
202004110200 METAR MRPV NIL=
202004110300 METAR MRPV NIL=
202004110400 METAR MRPV NIL=
202004110500 METAR MRPV NIL=
202004110600 METAR MRPV NIL=
202004110700 METAR MRPV NIL=
202004110800 METAR MRPV NIL=
202004110900 METAR MRPV NIL=
202004111000 METAR MRPV NIL=
202004111100 METAR MRPV NIL=
202004111200 METAR MRPV 111200Z 14005KT CAVOK 20/15 A3005 NOSIG=
202004111300 METAR MRPV 111300Z 13006KT CAVOK 22/15 A3005 NOSIG=
202004111400 METAR MRPV 111400Z 13009KT CAVOK 23/15 A3007 NOSIG=
202004111500 METAR MRPV 111500Z 12009KT CAVOK 25/16 A3006 NOSIG=
202004111600 METAR MRPV 111600Z 08013KT CAVOK 26/16 A3005 NOSIG=
202004111700 METAR MRPV 111700Z 08012KT CAVOK 28/16 A3004 NOSIG=
202004111800 METAR MRPV 111800Z 09010KT CAVOK 28/16 A3001 NOSIG=
202004111900 METAR MRPV 111900Z 08013KT CAVOK 29/16 A2999 NOSIG=
202004112000 METAR MRPV 112000Z 08016KT CAVOK 29/15 A2997 NOSIG=
202004112100 METAR MRPV 112100Z 09014KT 9999 FEW040 29/15 A2997 NOSIG=
202004112200 METAR MRPV 112200Z 08014KT 9999 FEW040 29/16 A2996 NOSIG=
202004112300 METAR MRPV 112300Z 09015KT 9999 FEW040 27/15 A2997 NOSIG=
202004120000 METAR MRPV 120000Z 09012KT 9999 FEW035 SCT200 24/16 A3000 NOSIG=
202004120100 METAR MRPV NIL=
202004120200 METAR MRPV NIL=
202004120300 METAR MRPV NIL=
202004120400 METAR MRPV NIL=
202004120500 METAR MRPV NIL=
202004120600 METAR MRPV NIL=
202004120700 METAR MRPV NIL=
202004120800 METAR MRPV NIL=
202004120900 METAR MRPV NIL=
202004121000 METAR MRPV NIL=
202004121100 METAR MRPV NIL=
202004121200 METAR MRPV 121200Z 14005KT CAVOK 20/16 A3006 NOSIG=
202004121300 METAR MRPV 121300Z 14008KT CAVOK 23/16 A3008 NOSIG=
202004121400 METAR MRPV 121400Z 10013KT CAVOK 25/16 A3010 NOSIG=
202004121500 METAR MRPV 121500Z 07009KT CAVOK 25/15 A3011 NOSIG=
202004121600 METAR MRPV 121600Z 10010KT CAVOK 28/16 A3008 NOSIG=
202004121700 METAR MRPV 121700Z 09007G17KT 9999 FEW045 BKN200 29/16 A3007 NOSIG=
202004121800 METAR MRPV 121800Z 08010G20KT 9999 SCT045 BKN200 29/16 A3006 NOSIG=
202004121900 METAR MRPV 121900Z 09008KT 9999 BKN045 BKN200 27/16 A3005 NOSIG=
202004122000 METAR MRPV 122000Z 10007KT 9999 SCT045 BKN200 28/16 A3001 NOSIG=
202004122100 METAR MRPV 122100Z COR 10009KT 9999 BKN040 SCT200 27/18 A3001 TEMPO 32005KT=
202004122200 METAR MRPV 122200Z 11009KT 9999 RA FEW025 BKN040 24/18 A3001 NOSIG=
202004122300 METAR MRPV 122300Z 28005KT 9999 SCT025 BKN040 22/19 A3005 RERA NOSIG=
202004130000 METAR MRPV 130000Z 27001KT 9999 FEW020 BKN050 22/19 A3007 NOSIG=
202004130100 METAR MRPV NIL=
202004130200 METAR MRPV NIL=
202004130300 METAR MRPV NIL=
202004130400 METAR MRPV NIL=
202004130500 METAR MRPV NIL=
202004130600 METAR MRPV NIL=
202004130700 METAR MRPV NIL=
202004130800 METAR MRPV NIL=
202004130900 METAR MRPV NIL=
202004131000 METAR MRPV NIL=
202004131100 METAR MRPV NIL=
202004131200 METAR MRPV 131200Z 10007KT 9999 4000S BCFG FEW010 SCT100 BKN200 21/18 A3009 NOSIG=
202004131300 METAR MRPV 131300Z 13005KT CAVOK 22/18 A3010 NOSIG=
202004131400 METAR MRPV 131400Z 13008KT CAVOK 25/17 A3011 NOSIG=
202004131500 METAR MRPV 131500Z 09013KT 9999 FEW040 BKN200 27/17 A3011 NOSIG=
202004131600 METAR MRPV 131600Z 08013KT 9999 FEW040 SCT200 28/17 A3009 NOSIG=
202004131700 METAR MRPV 131700Z 08010KT 9999 SCT040 28/17 A3008 NOSIG=
202004131800 METAR MRPV 131800Z 32004KT 9999 BKN040 28/19 A3007 NOSIG=
202004131900 METAR MRPV 131900Z 27006KT 9999 -RA BKN035 SCT090 25/20 A3004 NOSIG=
202004132000 METAR MRPV 132000Z 32008KT 3000 RA VCTS SCT010CB BKN035 20/19 A3004 NOSIG=
202004132100 METAR MRPV 132100Z 26002KT 9999 4000N -RA BCFG FEW003 SCT030 BKN070 20/20 A3004 NOSIG=
202004132200 METAR MRPV 132200Z 32002KT 9999 SCT025 BKN040 21/19 A3004 NOSIG=
202004132300 METAR MRPV 132300Z 30002KT 9999 FEW025 BKN070 22/20 A3005 NOSIG=
202004140000 METAR MRPV 140000Z 32002KT 5000 BR FEW010 BKN070 22/20 A3006 NOSIG=
202004140100 METAR MRPV NIL=
202004140200 METAR MRPV NIL=
202004140300 METAR MRPV NIL=
202004140400 METAR MRPV NIL=
202004140500 METAR MRPV NIL=
202004140600 METAR MRPV NIL=
202004140700 METAR MRPV NIL=
202004140800 METAR MRPV NIL=
202004140900 METAR MRPV NIL=
202004141000 METAR MRPV NIL=
202004141100 METAR MRPV NIL=
202004141200 METAR MRPV 141200Z 12005KT 9999 BCFG FEW015 SCT030 BKN120 22/18 A3008 NOSIG=
202004141300 METAR MRPV 141300Z 12005KT 9999 FEW030 BKN200 23/18 A3010 NOSIG=
202004141400 METAR MRPV 141400Z 11010KT 9999 FEW030 BKN200 25/17 A3011 NOSIG=
202004141500 METAR MRPV 141500Z 08013KT 9999 FEW030 SCT200 26/18 A3010 NOSIG=
202004141600 METAR MRPV 141600Z 08011KT 9999 FEW030 SCT100 25/17 A3010 NOSIG=
202004141700 METAR MRPV 141700Z 07014KT 9999 FEW035 SCT200 27/16 A3008 NOSIG=
202004141800 METAR MRPV 141800Z 08014KT 9999 FEW035 28/15 A3005 NOSIG=
202004141900 METAR MRPV 141900Z 08011KT 9999 FEW045 29/16 A3001 NOSIG=
202004142000 METAR MRPV 142000Z 08013KT 9999 FEW045 SCT090 28/17 A3000 NOSIG=
202004142100 METAR MRPV 142100Z 09014KT 9999 FEW035 SCT100 27/17 A2998 NOSIG=
202004142200 METAR MRPV 142200Z 06013KT 9999 FEW035 BKN100 25/16 A2998 NOSIG=
202004142300 METAR MRPV 142300Z 09011KT 9999 FEW035 SCT100 25/17 A2999 NOSIG=
202004150000 METAR MRPV 150000Z 11010KT 9999 FEW035 23/17 A3001 NOSIG=
202004150100 METAR MRPV NIL=
202004150200 METAR MRPV NIL=
202004150300 METAR MRPV NIL=
202004150400 METAR MRPV NIL=
202004150500 METAR MRPV NIL=
202004150600 METAR MRPV NIL=
202004150700 METAR MRPV NIL=
202004150800 METAR MRPV NIL=
202004150900 METAR MRPV NIL=
202004151000 METAR MRPV NIL=
202004151100 METAR MRPV NIL=
202004151200 METAR MRPV 151200Z 14007KT 9999 FEW040 20/16 A3003 NOSIG=
202004151300 METAR MRPV 151300Z 12008KT CAVOK 21/17 A3006 NOSIG=
202004151400 METAR MRPV 151400Z 13008KT 9999 FEW040 SCT100 24/17 A3007 NOSIG=
202004151500 METAR MRPV 151500Z 10011KT 9999 FEW040 BKN100 26/17 A3007 NOSIG=
202004151600 METAR MRPV 151600Z 08011KT 9999 FEW045 BKN100 26/18 A3007 NOSIG=
202004151700 METAR MRPV 151700Z 08011KT 9999 FEW035 BKN100 26/18 A3007 NOSIG=
202004151800 METAR MRPV 151800Z 09013KT 9999 FEW035 BKN090 26/18 A3003 NOSIG=
202004151900 METAR MRPV 151900Z 09011KT 9999 SHRA FEW020TCU SCT030 27/18 A2999 NOSIG=
202004152000 METAR MRPV 152000Z 08011KT 9999 VCSH FEW020TCU BKN030 27/18 A2998 RERA NOSIG=
202004152100 METAR MRPV 152100Z 09017KT 9999 RA BKN025 25/17 A2997 NOSIG=
202004152200 METAR MRPV 152200Z 09015KT 9999 RA SCT030 SCT080 24/17 A2998 NOSIG=
202004152300 METAR MRPV 152300Z 11011KT 9999 -RA BKN025 23/17 A2998 NOSIG=
202004160000 METAR MRPV 160000Z 11011KT 8000 BKN025 22/17 A3000 NOSIG=
202004160100 METAR MRPV NIL=
202004160200 METAR MRPV NIL=
202004160300 METAR MRPV NIL=
202004160400 METAR MRPV NIL=
202004160500 METAR MRPV NIL=
202004160600 METAR MRPV NIL=
202004160700 METAR MRPV NIL=
202004160800 METAR MRPV NIL=
202004160900 METAR MRPV NIL=
202004161000 METAR MRPV NIL=
202004161100 METAR MRPV NIL=
202004161200 METAR MRPV 161200Z 15006KT 9999 FEW035 21/17 A3008 NOSIG=
202004161300 METAR MRPV 161300Z 11009KT 9999 FEW035 BKN200 22/16 A3009 NOSIG=
202004161400 METAR MRPV 161400Z 08015KT 9999 FEW035 BKN200 23/16 A3011 NOSIG=
202004161500 METAR MRPV 161500Z 08010KT 9999 FEW035 26/16 A3011 NOSIG=
202004161600 METAR MRPV 161600Z 09012KT 9999 SCT030 26/15 A3012 NOSIG=
202004161700 METAR MRPV 161700Z 08014KT 9999 SCT035 27/16 A3010 NOSIG=
202004161800 METAR MRPV 161800Z 07014KT 9999 FEW040 28/16 A3007 NOSIG=
202004161900 METAR MRPV 161900Z 07013G23KT 9999 FEW045 28/16 A3002 NOSIG=
202004162000 METAR MRPV 162000Z 08015G25KT 9999 FEW045 27/15 A3001 NOSIG=
202004162100 METAR MRPV 162100Z 08016G26KT 9999 FEW040 27/15 A3001 NOSIG=
202004162200 METAR MRPV 162200Z 08015G25KT 9999 FEW040 26/14 A3001 NOSIG=
202004162300 METAR MRPV 162300Z 09015KT 9999 FEW035 25/15 A3001 NOSIG=
202004170000 METAR MRPV 170000Z 09014KT 9999 FEW030 23/15 A3003 NOSIG=
202004170100 METAR MRPV NIL=
202004170200 METAR MRPV NIL=
202004170300 METAR MRPV NIL=
202004170400 METAR MRPV NIL=
202004170500 METAR MRPV NIL=
202004170600 METAR MRPV NIL=
202004170700 METAR MRPV NIL=
202004170800 METAR MRPV NIL=
202004170900 METAR MRPV NIL=
202004171000 METAR MRPV NIL=
202004171100 METAR MRPV NIL=
202004171200 METAR MRPV 171200Z 13009KT CAVOK 20/13 A3009 NOSIG=
202004171300 METAR MRPV 171300Z 12011KT CAVOK 21/14 A3011 NOSIG=
202004171400 METAR MRPV 171400Z 09016KT CAVOK 23/14 A3012 NOSIG=
202004171500 METAR MRPV 171500Z 09014KT CAVOK 25/14 A3012 NOSIG=
202004171600 METAR MRPV 171600Z 07015KT CAVOK 26/14 A3012 NOSIG=
202004171700 METAR MRPV 171700Z 07014KT CAVOK 27/14 A3011 NOSIG=
202004171800 METAR MRPV 171800Z 08016KT 9999 FEW045 29/15 A3008 NOSIG=
202004171900 METAR MRPV 171900Z 09016G26KT 9999 FEW045 28/15 A3006 NOSIG=
202004172000 METAR MRPV 172000Z 09012G22KT 9999 FEW045 28/15 A3003 NOSIG=
202004172100 METAR MRPV 172100Z 08016G26KT 9999 FEW040 SCT140 26/17 A3003 NOSIG=
202004172200 METAR MRPV 172200Z 09013G23KT 9999 FEW035 SCT100 25/17 A3003 NOSIG=
202004172300 METAR MRPV 172300Z 09015KT 9999 FEW030 23/16 A3004 NOSIG=
202004180000 METAR MRPV 180000Z 09012KT 9999 FEW035 22/16 A3005 NOSIG=
202004180100 METAR MRPV NIL=
202004180200 METAR MRPV NIL=
202004180300 METAR MRPV NIL=
202004180400 METAR MRPV NIL=
202004180500 METAR MRPV NIL=
202004180600 METAR MRPV NIL=
202004180700 METAR MRPV NIL=
202004180800 METAR MRPV NIL=
202004180900 METAR MRPV NIL=
202004181000 METAR MRPV NIL=
202004181100 METAR MRPV NIL=
202004181200 METAR MRPV 181200Z 14005KT 9999 FEW040 19/15 A3010 NOSIG=
202004181300 METAR MRPV 181300Z 14007KT CAVOK 21/14 A3012 NOSIG=
202004181400 METAR MRPV 181400Z 11016KT CAVOK 23/15 A3013 NOSIG=
202004181500 METAR MRPV 181500Z 11014KT CAVOK 25/14 A3013 NOSIG=
202004181600 METAR MRPV 181600Z 09011KT CAVOK 27/14 A3011 NOSIG=
202004181700 METAR MRPV 181700Z 08014KT CAVOK 27/14 A3010 NOSIG=
202004181800 METAR MRPV 181800Z 07010G20KT 9999 FEW045 27/14 A3007 NOSIG=
202004181900 METAR MRPV 181900Z 09012KT 9999 FEW045 28/15 A3004 NOSIG=
202004182000 METAR MRPV 182000Z 08010KT 9999 SCT045 29/15 A3001 NOSIG=
202004182100 METAR MRPV 182100Z 09013KT 9999 SCT045 28/15 A2999 NOSIG=
202004182200 METAR MRPV 182200Z 08011KT 9999 SCT045 26/16 A3000 NOSIG=
202004182300 METAR MRPV 182300Z 09011KT 9999 SCT040 25/16 A3000 NOSIG=
202004190000 METAR MRPV 190000Z 10010KT 9999 FEW035 23/16 A3003 NOSIG=
202004190100 METAR MRPV NIL=
202004190200 METAR MRPV NIL=
202004190300 METAR MRPV NIL=
202004190400 METAR MRPV NIL=
202004190500 METAR MRPV NIL=
202004190600 METAR MRPV NIL=
202004190700 METAR MRPV NIL=
202004190800 METAR MRPV NIL=
202004190900 METAR MRPV NIL=
202004191000 METAR MRPV NIL=
202004191100 METAR MRPV NIL=
202004191200 METAR MRPV 191200Z 13006KT 9999 FEW045 20/15 A3007 NOSIG=
202004191300 METAR MRPV 191300Z 11008KT CAVOK 22/15 A3009 NOSIG=
202004191400 METAR MRPV 191400Z 12008KT CAVOK 24/14 A3009 NOSIG=
202004191500 METAR MRPV 191500Z 09011KT CAVOK 25/15 A3010 NOSIG=
202004191600 METAR MRPV 191600Z 08012KT CAVOK 27/15 A3009 NOSIG=
202004191700 METAR MRPV 191700Z 07008KT 9999 FEW045 28/14 A3008 NOSIG=
202004191800 METAR MRPV 191800Z 24005KT 9999 SCT040 27/16 A3006 NOSIG=
202004191900 METAR MRPV 191900Z 27006KT 9999 BKN045 26/18 A3002 NOSIG=
202004192000 METAR MRPV 192000Z 22003KT 9999 4000N RA BKN035 26/18 A3000 NOSIG=
202004192100 METAR MRPV 192100Z 06006KT 320V060 9999 4500 RA BKN035 22/18 A2999 NOSIG=
202004192200 METAR MRPV 192200Z COR VRB02KT 9999 -RA BKN040 21/19 A3000 NOSIG=
202004192300 METAR MRPV 192300Z 06001KT 9999 BCFG FEW005 BKN045 21/19 A3000 NOSIG=
202004200000 METAR MRPV 200000Z 25003KT 7000 RA BCFG FEW005 BKN025 20/18 A3003 NOSIG=
202004200100 METAR MRPV NIL=
202004200200 METAR MRPV NIL=
202004200300 METAR MRPV NIL=
202004200400 METAR MRPV NIL=
202004200500 METAR MRPV NIL=
202004200600 METAR MRPV NIL=
202004200700 METAR MRPV NIL=
202004200800 METAR MRPV NIL=
202004200900 METAR MRPV NIL=
202004201000 METAR MRPV NIL=
202004201100 METAR MRPV NIL=
202004201200 METAR MRPV 201200Z 10003KT CAVOK 18/17 A3006 NOSIG=
202004201300 METAR MRPV 201300Z 08005KT CAVOK 21/17 A3008 NOSIG=
202004201400 METAR MRPV 201400Z 07003KT 9999 FEW035 24/16 A3009 BECMG 29005KT=
202004201500 METAR MRPV 201500Z 32001KT 9999 FEW035 26/16 A3009 NOSIG=
202004201600 METAR MRPV 201600Z 32005KT 9999 FEW045 27/17 A3008 NOSIG=
202004201700 METAR MRPV 201700Z 29009KT 9999 FEW045 27/15 A3008 NOSIG=
202004201800 METAR MRPV 201800Z 29009KT 9999 FEW045 28/15 A3005 NOSIG=
202004201900 METAR MRPV 201900Z 28010KT 9999 FEW035 29/17 A3001 NOSIG=
202004202000 METAR MRPV 202000Z 28011KT 9999 4500SE +TSRA FEW025TCU SCT035 29/17 A2999 NOSIG=
202004202100 METAR MRPV 202100Z 10013KT 5000 RA BKN030 SCT060 21/18 A3002 RETSRA NOSIG=
202004202200 METAR MRPV 202200Z 15004KT 9999 -RA SCT035 BKN060 20/19 A3001 NOSIG=
202004202300 METAR MRPV 202300Z 15003KT 9999 -RA FEW020 SCT030 BKN200 22/18 A3001 NOSIG=
202004210000 METAR MRPV 210000Z 12004KT 9999 SCT035 SCT200 22/19 A3002 NOSIG=
202004210100 METAR MRPV NIL=
202004210200 METAR MRPV NIL=
202004210300 METAR MRPV NIL=
202004210400 METAR MRPV NIL=
202004210500 METAR MRPV NIL=
202004210600 METAR MRPV NIL=
202004210700 METAR MRPV NIL=
202004210800 METAR MRPV NIL=
202004210900 METAR MRPV NIL=
202004211000 METAR MRPV NIL=
202004211100 METAR MRPV NIL=
202004211200 METAR MRPV 211200Z 15002KT CAVOK 21/19 A3003 NOSIG=
202004211300 METAR MRPV 211300Z 08008KT CAVOK 21/17 A3007 NOSIG=
202004211400 METAR MRPV 211400Z 30003KT 030V300 CAVOK 24/17 A3008 NOSIG=
202004211500 METAR MRPV 211500Z 28008KT 9999 FEW040 SCT200 24/18 A3009 NOSIG=
202004211600 METAR MRPV 211600Z 27006KT 9999 FEW035 25/18 A3010 NOSIG=
202004211700 METAR MRPV 211700Z COR 29006KT 9999 SCT030 26/18 A3009 NOSIG=
202004211800 METAR MRPV 211800Z 28008KT 9999 BKN030 27/19 A3006 NOSIG=
202004211900 METAR MRPV 211900Z 26006KT 9999 BKN035 27/20 A3004 NOSIG=
202004212000 METAR MRPV 212000Z 27008KT 9999 TSRA FEW020CB BKN035 26/19 A3002 NOSIG=
202004212100 METAR MRPV 212100Z 09004KT 8000 -RA SCT010 BKN035 21/20 A3001 NOSIG=
202004212200 METAR MRPV 212200Z 15001KT 9999 SCT020 BKN080 23/21 A3001 NOSIG=
202004212300 METAR MRPV 212300Z 29003KT 8000 FEW030 BKN120 23/21 A3002 NOSIG=
202004220000 METAR MRPV 220000Z 30002KT 8000 VCFG FEW030 BKN080 22/20 A3004 NOSIG=
202004220100 METAR MRPV NIL=
202004220200 METAR MRPV NIL=
202004220300 METAR MRPV NIL=
202004220400 METAR MRPV NIL=
202004220500 METAR MRPV NIL=
202004220600 METAR MRPV NIL=
202004220700 METAR MRPV NIL=
202004220800 METAR MRPV NIL=
202004220900 METAR MRPV NIL=
202004221000 METAR MRPV NIL=
202004221100 METAR MRPV NIL=
202004221200 METAR MRPV 221200Z 00000KT 9999 4500NW BCFG FEW010 OVC200 17/16 A3009 NOSIG=
202004221300 METAR MRPV 221300Z 10003KT 9999 4500NW BCFG FEW010 BKN200 20/17 A3010 NOSIG=
202004221400 METAR MRPV 221400Z 11010KT 9999 FEW030 BKN200 24/16 A3010 NOSIG=
202004221500 METAR MRPV 221500Z 09012KT 9999 FEW035 BKN200 26/15 A3010 NOSIG=
202004221600 METAR MRPV 221600Z 07015KT 9999 FEW035 BKN200 27/15 A3010 NOSIG=
202004221700 METAR MRPV 221700Z 09012KT 9999 FEW040 BKN200 27/15 A3007 NOSIG=
202004221800 METAR MRPV 221800Z 08013KT 9999 FEW040 OVC200 28/14 A3005 NOSIG=
202004221900 METAR MRPV 221900Z 07011KT 9999 FEW040 BKN200 28/15 A3002 NOSIG=
202004222000 METAR MRPV 222000Z 08013KT 9999 FEW040 BKN200 28/15 A3000 NOSIG=
202004222100 METAR MRPV 222100Z 08014KT 9999 FEW040 OVC200 28/16 A2997 NOSIG=
202004222200 METAR MRPV 222200Z 08011KT 9999 FEW040 OVC200 27/16 A2997 NOSIG=
202004222300 METAR MRPV 222300Z 09013KT 9999 FEW040 OVC200 26/17 A2998 NOSIG=
202004230000 METAR MRPV 230000Z 09010KT 9999 FEW040 OVC200 24/18 A3001 NOSIG=
202004230100 METAR MRPV NIL=
202004230200 METAR MRPV NIL=
202004230300 METAR MRPV NIL=
202004230400 METAR MRPV NIL=
202004230500 METAR MRPV NIL=
202004230600 METAR MRPV NIL=
202004230700 METAR MRPV NIL=
202004230800 METAR MRPV NIL=
202004230900 METAR MRPV NIL=
202004231000 METAR MRPV NIL=
202004231100 METAR MRPV NIL=
202004231200 METAR MRPV 231200Z 12008KT CAVOK 20/12 A3003 NOSIG=
202004231300 METAR MRPV 231300Z 11010KT CAVOK 23/14 A3005 NOSIG=
202004231400 METAR MRPV 231400Z 10011KT CAVOK 24/14 A3006 NOSIG=
202004231500 METAR MRPV 231500Z 09011KT CAVOK 26/16 A3007 NOSIG=
202004231600 METAR MRPV 231600Z 09008KT CAVOK 27/16 A3007 NOSIG=
202004231700 METAR MRPV 231700Z 23002KT 130V230 9999 FEW045 BKN200 28/14 A3006 NOSIG=
202004231800 METAR MRPV 231800Z 26009KT 9999 FEW025TCU FEW035 BKN200 27/18 A3003 NOSIG=
202004231900 METAR MRPV 231900Z 26008KT 9999 FEW020TCU FEW040 SCT080 26/19 A3001 TEMPO SHRA=
202004232000 METAR MRPV 232000Z 27009KT 9999 SCT030 BKN100 26/20 A2999 NOSIG=
202004232100 METAR MRPV 232100Z 28010KT 9999 BKN040 24/20 A2998 NOSIG=
202004232200 METAR MRPV 232200Z 29012KT 9999 BKN040 23/19 A2998 NOSIG=
202004232300 METAR MRPV 232300Z 31006KT 9999 BCFG SCT012 SCT050 22/19 A3000 NOSIG=
202004240000 METAR MRPV 240000Z 31004KT 9999 BCFG SCT010 BKN020 21/19 A3002 NOSIG=
202004240100 METAR MRPV NIL=
202004240200 METAR MRPV NIL=
202004240300 METAR MRPV NIL=
202004240400 METAR MRPV NIL=
202004240500 METAR MRPV NIL=
202004240600 METAR MRPV NIL=
202004240700 METAR MRPV NIL=
202004240800 METAR MRPV NIL=
202004240900 METAR MRPV NIL=
202004241000 METAR MRPV NIL=
202004241100 METAR MRPV NIL=
202004241200 METAR MRPV 241200Z 12004KT 9999 FEW040 BKN070 23/16 A3003 NOSIG=
202004241300 METAR MRPV 241300Z 12008KT 9999 FEW040 BKN080 23/17 A3005 NOSIG=
202004241400 METAR MRPV 241400Z 12009KT 9999 FEW040 BKN080 25/14 A3006 NOSIG=
202004241500 METAR MRPV 241500Z 11011KT 9999 FEW040 27/16 A3007 NOSIG=
202004241600 METAR MRPV 241600Z 09006KT 9999 SCT040 27/17 A3007 NOSIG=
202004241700 METAR MRPV 241700Z 28010KT 9999 SCT040 26/20 A3005 NOSIG=
202004241800 METAR MRPV 241800Z 29010KT 9999 SHRA FEW020TCU SCT035 26/20 A3005 NOSIG=
202004241900 METAR MRPV 241900Z 28008KT 9999 FEW020TCU BKN035 26/20 A3001 NOSIG=
202004242000 METAR MRPV 242000Z 01003KT 290V010 3000 TSRA SCT015CB BKN035 22/20 A3000 NOSIG=
202004242100 METAR MRPV 242100Z 27005KT 9999 -RA VCFG FEW008 BKN040 22/20 A2998 NOSIG=
202004242200 METAR MRPV 242200Z 31003KT 7000 VCFG FEW005 SCT025 BKN080 21/20 A2998 NOSIG=
202004242300 METAR MRPV 242300Z 29002KT 5000 BR BKN013 21/20 A3000 NOSIG=
202004250000 METAR MRPV 250000Z 00000KT 9000 VCFG FEW010 SCT035 BKN100 21/20 A3002 NOSIG=
202004250100 METAR MRPV NIL=
202004250200 METAR MRPV NIL=
202004250300 METAR MRPV NIL=
202004250400 METAR MRPV NIL=
202004250500 METAR MRPV NIL=
202004250600 METAR MRPV NIL=
202004250700 METAR MRPV NIL=
202004250800 METAR MRPV NIL=
202004250900 METAR MRPV NIL=
202004251000 METAR MRPV NIL=
202004251100 METAR MRPV NIL=
202004251200 METAR MRPV 251200Z 11003KT 9999 BCFG FEW010 SCT200 17/15 A3005 NOSIG=
202004251300 METAR MRPV 251300Z 12004KT CAVOK 20/16 A3005 NOSIG=
202004251400 METAR MRPV 251400Z 11007KT CAVOK 24/14 A3007 NOSIG=
202004251500 METAR MRPV 251500Z 09008KT CAVOK 26/15 A3008 NOSIG=
202004251600 METAR MRPV 251600Z 06008KT 9999 FEW045 27/18 A3007 NOSIG=
202004251700 METAR MRPV 251700Z 07010KT 9999 SCT045 28/16 A3006 NOSIG=
202004251800 METAR MRPV 251800Z 06009KT 9999 BKN040 28/15 A3004 NOSIG=
202004251900 METAR MRPV 251900Z COR 06007KT 9999 BKN045 28/17 A3002 BECMG 29005KT=
202004251927 METAR MRPV 251927Z 27007KT 9999 BKN045 26/19 A3001 NOSIG=
202004252000 METAR MRPV 252000Z 29010KT 9999 BKN045 28/19 A3000 NOSIG=
202004252100 METAR MRPV 252100Z 08014KT 9999 FEW030 SCT045 27/16 A2997 NOSIG=
202004252200 METAR MRPV 252200Z 09014KT 9999 FEW030 SCT040 27/16 A2998 NOSIG=
202004252300 METAR MRPV 252300Z 09011KT 9999 FEW025 BKN040 25/20 A3000 NOSIG=
202004260000 METAR MRPV NIL=
202004260100 METAR MRPV NIL=
202004260200 METAR MRPV NIL=
202004260300 METAR MRPV NIL=
202004260400 METAR MRPV NIL=
202004260500 METAR MRPV NIL=
202004260600 METAR MRPV NIL=
202004260700 METAR MRPV NIL=
202004260800 METAR MRPV NIL=
202004260900 METAR MRPV NIL=
202004261000 METAR MRPV NIL=
202004261100 METAR MRPV NIL=
202004261200 METAR MRPV 261200Z 13006KT 9999 FEW020 BKN250 20/15 A3006 NOSIG=
202004261300 METAR MRPV 261300Z 12008KT 9999 FEW035 BKN250 22/15 A3007 NOSIG=
202004261400 METAR MRPV 261400Z 09011KT 9999 FEW040 BKN250 24/16 A3008 NOSIG=
202004261500 METAR MRPV 261500Z 08016G26KT 9999 FEW045 SCT250 25/15 A3008 NOSIG=
202004261600 METAR MRPV 261600Z 08016KT 9999 SCT040 26/15 A3007 NOSIG=
202004261700 METAR MRPV 261700Z 07013KT 9999 SCT040 26/15 A3006 NOSIG=
202004261800 METAR MRPV 261800Z 07017KT 9999 SCT045 26/16 A3004 NOSIG=
202004261900 METAR MRPV 261900Z 07016KT 9999 SCT040 27/15 A3003 NOSIG=
202004262000 METAR MRPV 262000Z 06013KT 9999 FEW040 SCT200 28/14 A3000 NOSIG=
202004262100 METAR MRPV 262100Z 08014KT 9999 FEW040 SCT200 27/15 A2999 NOSIG=
202004262200 METAR MRPV 262200Z 08014KT 9999 FEW035 BKN200 26/16 A2998 NOSIG=
202004262300 METAR MRPV 262300Z 08011KT 9999 FEW040 BKN200 24/15 A2999 NOSIG=
202004270000 METAR MRPV 270000Z 10014KT 9999 FEW035 BKN200 22/16 A3001 NOSIG=
202004270100 METAR MRPV NIL=
202004270200 METAR MRPV NIL=
202004270300 METAR MRPV NIL=
202004270400 METAR MRPV NIL=
202004270500 METAR MRPV NIL=
202004270600 METAR MRPV NIL=
202004270700 METAR MRPV NIL=
202004270800 METAR MRPV NIL=
202004270900 METAR MRPV NIL=
202004271000 METAR MRPV NIL=
202004271100 METAR MRPV NIL=
202004271200 METAR MRPV 271200Z 12009KT 9999 FEW020 BKN080 21/15 A3006 NOSIG=
202004271300 METAR MRPV 271300Z 12009KT 9999 FEW030 BKN100 21/15 A3008 NOSIG=
202004271400 METAR MRPV 271400Z 10015KT 9999 -DZ FEW035 BKN100 22/16 A3011 NOSIG=
202004271500 METAR MRPV 271500Z 10013KT 9999 FEW035 BKN100 23/17 A3010 NOSIG=
202004271600 METAR MRPV 271600Z 10014KT 9999 FEW030 BKN100 24/17 A3010 NOSIG=
202004271700 METAR MRPV 271700Z 11015KT 9999 FEW030 BKN100 24/17 A3009 NOSIG=
202004271800 METAR MRPV 271800Z 08017KT 9999 FEW030 BKN100 24/17 A3007 NOSIG=
202004271900 METAR MRPV 271900Z 08015KT 9999 FEW030 BKN100 25/17 A3004 NOSIG=
202004272000 METAR MRPV 272000Z 09018KT 9999 SCT030 BKN100 24/17 A3003 NOSIG=
202004272100 METAR MRPV 272100Z 11010KT 9999 SCT030 BKN100 23/17 A3002 NOSIG=
202004272200 METAR MRPV 272200Z 10012KT 9999 SCT025 BKN160 23/17 A3002 NOSIG=
202004272300 METAR MRPV 272300Z 10012KT 9999 SCT025 BKN160 23/17 A3003 NOSIG=
202004280000 METAR MRPV 280000Z 09012KT 9999 SCT025 SCT120 22/19 A3005 NOSIG=
202004280100 METAR MRPV NIL=
202004280200 METAR MRPV NIL=
202004280300 METAR MRPV NIL=
202004280400 METAR MRPV NIL=
202004280500 METAR MRPV NIL=
202004280600 METAR MRPV NIL=
202004280700 METAR MRPV NIL=
202004280800 METAR MRPV NIL=
202004280900 METAR MRPV NIL=
202004281000 METAR MRPV NIL=
202004281100 METAR MRPV NIL=
202004281200 METAR MRPV 281200Z 11012KT 9999 -DZ SCT025 BKN100 20/16 A3006 NOSIG=
202004281300 METAR MRPV 281300Z COR 12009KT 9999 DZ FEW025 SCT040 BKN100 20/17 A3008 NOSIG=
202004281400 METAR MRPV 281400Z COR 12013KT 9999 FEW025 SCT040 BKN100 22/17 A3009 REDZ NOSIG=
202004281500 METAR MRPV 281500Z 11013KT 9999 FEW025 SCT040 BKN120 22/17 A3010 NOSIG=
202004281600 METAR MRPV 281600Z 11014KT 9999 DZ FEW030 BKN080 22/17 A3010 NOSIG=
202004281700 METAR MRPV 281700Z 10013KT 9999 DZ SCT030 BKN100 23/18 A3010 NOSIG=
202004281800 METAR MRPV 281800Z 09020KT 9999 SCT030 BKN120 23/17 A3008 REDZ NOSIG=
202004281900 METAR MRPV 281900Z 10012KT 9999 FEW025 OVC100 23/16 A3006 NOSIG=
202004282000 METAR MRPV 282000Z 11010G20KT 9999 FEW030 OVC080 23/16 A3003 NOSIG=
202004282100 METAR MRPV 282100Z 10018KT 9999 FEW035 OVC080 23/17 A3003 NOSIG=
202004282200 METAR MRPV 282200Z 10015KT 9999 FEW030 OVC080 22/16 A3002 NOSIG=
202004282300 METAR MRPV 282300Z 12009KT 9999 FEW030 OVC080 22/16 A3003 NOSIG=
202004290000 METAR MRPV 290000Z 11010KT 9999 FEW030 BKN080 21/16 A3005 NOSIG=
202004290100 METAR MRPV NIL=
202004290200 METAR MRPV NIL=
202004290300 METAR MRPV NIL=
202004290400 METAR MRPV NIL=
202004290500 METAR MRPV NIL=
202004290600 METAR MRPV NIL=
202004290700 METAR MRPV NIL=
202004290800 METAR MRPV NIL=
202004290900 METAR MRPV NIL=
202004291000 METAR MRPV NIL=
202004291100 METAR MRPV NIL=
202004291200 METAR MRPV 291200Z 13009KT CAVOK 21/14 A3003 NOSIG=
202004291300 METAR MRPV 291300Z 14007KT CAVOK 22/15 A3004 NOSIG=
202004291400 METAR MRPV 291400Z 11011KT CAVOK 24/15 A3006 NOSIG=
202004291500 METAR MRPV 291500Z 11009KT CAVOK 26/16 A3006 NOSIG=
202004291600 METAR MRPV 291600Z 10011KT CAVOK 28/16 A3005 NOSIG=
202004291700 METAR MRPV 291700Z 10010KT 9999 SCT045 28/16 A3004 NOSIG=
202004291800 METAR MRPV 291800Z 13004KT 9999 SCT035 SCT060 29/17 A3002 NOSIG=
202004291900 METAR MRPV 291900Z 08009KT 9999 SHRA FEW025TCU SCT035 SCT060 27/17 A3000 NOSIG=
202004292000 METAR MRPV 292000Z COR 25003KT 5000 RA BKN030 22/20 A3000 RESHRA TEMPO 4500=
202004292100 METAR MRPV 292100Z 09008KT 3000 +RA OVC020 20/18 A3001 NOSIG=
202004292200 METAR MRPV 292200Z 15005KT 5000 -RA SCT020 BKN070 20/18 A3001 NOSIG=
202004292300 METAR MRPV 292300Z 11006KT 9999 RA SCT030 OVC100 20/18 A3001 NOSIG=
202004300000 METAR MRPV 300000Z 14006KT 9999 RA FEW040 BKN080 20/18 A3002 NOSIG=
202004300100 METAR MRPV NIL=
202004300200 METAR MRPV NIL=
202004300300 METAR MRPV NIL=
202004300400 METAR MRPV NIL=
202004300500 METAR MRPV NIL=
202004300600 METAR MRPV NIL=
202004300700 METAR MRPV NIL=
202004300800 METAR MRPV NIL=
202004300900 METAR MRPV NIL=
202004301000 METAR MRPV NIL=
202004301100 METAR MRPV NIL=
202004301200 METAR MRPV 301200Z 11004KT CAVOK 20/17 A3004 NOSIG=
202004301300 METAR MRPV 301300Z 12006KT CAVOK 21/17 A3006 NOSIG=
202004301400 METAR MRPV 301400Z 12008KT 9999 FEW040 OVC110 23/17 A3010 NOSIG=
202004301500 METAR MRPV 301500Z 10011KT 9999 FEW040 OVC110 23/18 A3009 NOSIG=
202004301600 METAR MRPV 301600Z 11008KT 9999 FEW040 BKN100 25/18 A3007 NOSIG=
202004301700 METAR MRPV 301700Z 08011KT 9999 FEW040 BKN100 25/18 A3006 NOSIG=
202004301800 METAR MRPV 301800Z 10005KT 9999 FEW040 BKN120 26/18 A3004 NOSIG=
202004301900 METAR MRPV 301900Z 31006KT 9999 FEW035 BKN120 26/19 A3001 NOSIG=
202004302000 METAR MRPV 302000Z VRB02KT 9999 SCT030 BKN100 25/20 A2999 TEMPO RA=
202004302100 METAR MRPV 302100Z 28003KT 9999 RA SCT035 BKN100 25/20 A2998 NOSIG=
202004302200 METAR MRPV 302200Z 05006KT 9999 VCTS SCT020CB BKN040 24/18 A2999 RERA NOSIG=
202004302300 METAR MRPV 302300Z 34002KT 9999 BKN020 23/18 A3000 NOSIG=
202005010000 METAR MRPV 010000Z 10008KT 9999 BKN025 22/18 A3002 NOSIG=
202005010100 METAR MRPV NIL=
202005010200 METAR MRPV NIL=
202005010300 METAR MRPV NIL=
202005010400 METAR MRPV NIL=
202005010500 METAR MRPV NIL=
202005010600 METAR MRPV NIL=
202005010700 METAR MRPV NIL=
202005010800 METAR MRPV NIL=
202005010900 METAR MRPV NIL=
202005011000 METAR MRPV NIL=
202005011100 METAR MRPV NIL=
202005011200 METAR MRPV 011200Z 11013KT 9999 FEW040 BKN120 21/15 A3005 NOSIG=
202005011300 METAR MRPV 011300Z 12009KT CAVOK 30/15 A3007 NOSIG=
202005011400 METAR MRPV 011400Z 12010KT CAVOK 21/15 A3010 NOSIG=
202005011500 METAR MRPV 011500Z 11006KT CAVOK 21/16 A3011 NOSIG=
202005011600 METAR MRPV 011600Z 08012KT CAVOK 22/16 A3011 NOSIG=
202005011700 METAR MRPV 011700Z 09012KT CAVOK 25/16 A3009 NOSIG=
202005011800 METAR MRPV 011800Z 07011KT CAVOK 26/17 A3006 NOSIG=
202005011900 METAR MRPV 011900Z 07013KT 9999 SCT035 OVC200 26/17 A3006 NOSIG=
202005012000 METAR MRPV 012000Z 09011KT 9999 SCT035 BKN200 25/18 A3002 NOSIG=
202005012100 METAR MRPV 012100Z 09013KT 9999 SCT025 OVC200 24/18 A3000 NOSIG=
202005012200 METAR MRPV 012200Z 30004KT 9999 BKN025 24/19 A3001 NOSIG=
202005012300 METAR MRPV 012300Z 10009KT 9999 BKN025 23/18 A3003 NOSIG=
202005020000 METAR MRPV 020000Z 10010KT 9999 SCT025 SCT200 22/18 A3005 NOSIG=
202005020100 METAR MRPV NIL=
202005020200 METAR MRPV NIL=
202005020300 METAR MRPV NIL=
202005020400 METAR MRPV NIL=
202005020500 METAR MRPV NIL=
202005020600 METAR MRPV NIL=
202005020700 METAR MRPV NIL=
202005020800 METAR MRPV NIL=
202005020900 METAR MRPV NIL=
202005021000 METAR MRPV NIL=
202005021100 METAR MRPV NIL=
202005021200 METAR MRPV 021200Z 11013G26KT 9999 FEW030 BKN200 20/14 A3008 NOSIG=
202005021300 METAR MRPV 021300Z 10018KT 9999 FEW030 BKN200 21/14 A3009 NOSIG=
202005021400 METAR MRPV 021400Z 09019KT 9999 FEW030 SCT200 23/14 A3010 NOSIG=
202005021500 METAR MRPV 021500Z 10015G25KT 9999 FEW030 SCT200 24/15 A3012 NOSIG=
202005021600 METAR MRPV 021600Z 10014KT 9999 FEW030 SCT200 25/15 A3012 NOSIG=
202005021700 METAR MRPV 021700Z 10016KT 9999 FEW030 26/16 A3011 NOSIG=
202005021800 METAR MRPV 021800Z 10015KT 9999 SCT030 25/17 A3009 NOSIG=
202005021900 METAR MRPV 021900Z 12009KT 9999 FEW035 25/16 A3006 NOSIG=
202005022000 METAR MRPV 022000Z 08018G28KT 9999 FEW035 SCT120 24/17 A3004 NOSIG=
202005022100 METAR MRPV 022100Z COR 10016KT 9999 FEW035 SCT120 25/16 A3002 NOSIG=
202005022200 METAR MRPV 022200Z 10013KT 9999 FEW035 SCT120 25/17 A3003 NOSIG=
202005022300 METAR MRPV 022300Z 11011KT 9999 SCT035 SCT200 24/18 A3004 NOSIG=
202005030000 METAR MRPV 030000Z 10011KT 9999 SCT035 SCT200 22/17 A3005 NOSIG=
202005030100 METAR MRPV NIL=
202005030200 METAR MRPV NIL=
202005030300 METAR MRPV NIL=
202005030400 METAR MRPV NIL=
202005030500 METAR MRPV NIL=
202005030600 METAR MRPV NIL=
202005030700 METAR MRPV NIL=
202005030800 METAR MRPV NIL=
202005030900 METAR MRPV NIL=
202005031000 METAR MRPV NIL=
202005031100 METAR MRPV NIL=
202005031200 METAR MRPV 031200Z 11009KT 9999 FEW035 21/16 A3005 NOSIG=
202005031300 METAR MRPV 031300Z 12010KT 9999 FEW035 22/16 A3007 NOSIG=
202005031400 METAR MRPV 031400Z 10014KT 9999 FEW040 23/16 A3007 NOSIG=
202005031500 METAR MRPV 031500Z 08015KT 9999 FEW035 23/16 A3007 NOSIG=
202005031600 METAR MRPV 031600Z 08017KT 9999 FEW045 25/16 A3006 NOSIG=
202005031700 METAR MRPV 031700Z 09016KT 9999 SCT040 26/16 A3006 NOSIG=
202005031800 METAR MRPV 031800Z 07014KT 9999 FEW035 BKN200 27/16 A3003 NOSIG=
202005031900 METAR MRPV 031900Z 08013KT 9999 FEW035 BKN200 27/16 A3001 NOSIG=
202005032000 METAR MRPV 032000Z 10011KT 9999 FEW035 BKN200 28/17 A2997 NOSIG=
202005032100 METAR MRPV 032100Z 09014KT 9999 FEW035 OVC180 26/17 A2996 NOSIG=
202005032200 METAR MRPV 032200Z 09015KT 9999 FEW035 BKN200 26/17 A2996 NOSIG=
202005032300 METAR MRPV 032300Z 10013KT 9999 FEW030 OVC200 24/18 A2997 NOSIG=
202005040000 METAR MRPV 040000Z 11011KT 9999 FEW030 SCT100 BKN200 21/17 A2999 NOSIG=
202005040100 METAR MRPV NIL=
202005040200 METAR MRPV NIL=
202005040300 METAR MRPV NIL=
202005040400 METAR MRPV NIL=
202005040500 METAR MRPV NIL=
202005040600 METAR MRPV NIL=
202005040700 METAR MRPV NIL=
202005040800 METAR MRPV NIL=
202005040900 METAR MRPV NIL=
202005041000 METAR MRPV NIL=
202005041100 METAR MRPV NIL=
202005041200 METAR MRPV 041200Z 12010KT 9999 FEW025 BKN200 21/17 A2999 NOSIG=
202005041300 METAR MRPV 041300Z 12010KT 9999 FEW025 BKN200 22/17 A3002 NOSIG=
202005041400 METAR MRPV 041400Z 11012KT 9999 FEW030 BKN200 23/18 A3004 NOSIG=
202005041500 METAR MRPV 041500Z 10014KT 9999 FEW035 BKN200 23/18 A3004 NOSIG=
202005041600 METAR MRPV 041600Z 09014KT 9999 FEW030 SCT160 BKN200 24/18 A3003 NOSIG=
202005041700 METAR MRPV 041700Z 09015KT 9999 FEW030 BKN200 25/17 A3001 NOSIG=
202005041800 METAR MRPV 041800Z 08018KT 9999 FEW035 BKN200 25/18 A3000 NOSIG=
202005041900 METAR MRPV 041900Z 09013KT 9999 FEW040 BKN200 27/18 A2996 NOSIG=
202005042000 METAR MRPV 042000Z 08015KT 9999 FEW040 BKN200 27/17 A2994 NOSIG=
202005042100 METAR MRPV 042100Z 09015KT 9999 SCT035 BKN200 26/17 A2994 NOSIG=
202005042200 METAR MRPV 042200Z 09014G24KT 9999 SCT035 BKN200 25/18 A2993 NOSIG=
202005042300 METAR MRPV 042300Z 10016KT 9999 SCT035 BKN200 23/17 A2995 NOSIG=
202005050000 METAR MRPV 050000Z 10013KT 9999 FEW035 BKN200 23/16 A2998 NOSIG=
202005050100 METAR MRPV NIL=
202005050200 METAR MRPV NIL=
202005050300 METAR MRPV NIL=
202005050400 METAR MRPV NIL=
202005050500 METAR MRPV NIL=
202005050600 METAR MRPV NIL=
202005050700 METAR MRPV NIL=
202005050800 METAR MRPV NIL=
202005050900 METAR MRPV NIL=
202005051000 METAR MRPV NIL=
202005051100 METAR MRPV NIL=
202005051200 METAR MRPV 051200Z 12007KT 9999 SCT025 SCT200 21/17 A2998 NOSIG=
202005051300 METAR MRPV 051300Z 12009KT 9999 FEW030 OVC200 22/17 A3000 NOSIG=
202005051400 METAR MRPV 051400Z 10016KT 9999 FEW030 OVC200 23/16 A3002 NOSIG=
202005051500 METAR MRPV 051500Z 09015KT 9999 FEW035 OVC200 24/17 A3003 NOSIG=
202005051600 METAR MRPV 051600Z 09014KT 9999 FEW035 SCT140 BKN200 25/16 A3002 NOSIG=
202005051700 METAR MRPV 051700Z 08013KT 9999 FEW035 SCT140 BKN200 26/17 A3000 NOSIG=
202005051800 METAR MRPV 051800Z 08012KT CAVOK 27/17 A2999 NOSIG=
202005051900 METAR MRPV 051900Z 09010KT 9999 FEW040 BKN200 28/18 A2996 NOSIG=
202005052000 METAR MRPV 052000Z 09011KT 9999 SCT040 BKN200 28/18 A2994 NOSIG=
202005052100 METAR MRPV 052100Z 10010KT 9999 BKN025 26/18 A2994 NOSIG=
202005052200 METAR MRPV 052200Z 12009KT 9999 -DZ VCTS FEW015CB BKN030 24/18 A2996 NOSIG=
202005052300 METAR MRPV 052300Z 08002KT 9999 BKN030 22/19 A2998 RERA NOSIG=
202005060000 METAR MRPV 060000Z 10009KT 9999 FEW040 BKN200 22/17 A2999 NOSIG=
202005060100 METAR MRPV NIL=
202005060200 METAR MRPV NIL=
202005060300 METAR MRPV NIL=
202005060400 METAR MRPV NIL=
202005060500 METAR MRPV NIL=
202005060600 METAR MRPV NIL=
202005060700 METAR MRPV NIL=
202005060800 METAR MRPV NIL=
202005060900 METAR MRPV NIL=
202005061000 METAR MRPV NIL=
202005061100 METAR MRPV NIL=
202005061200 METAR MRPV 061200Z 12011KT CAVOK 21/16 A3001 NOSIG=
202005061300 METAR MRPV 061300Z 11014G24KT CAVOK 23/16 A3002 NOSIG=
202005061400 METAR MRPV 061400Z 11013G23KT CAVOK 23/16 A3003 NOSIG=
202005061500 METAR MRPV 061500Z 09018KT CAVOK 25/16 A3004 NOSIG=
202005061600 METAR MRPV 061600Z 08013KT CAVOK 26/17 A3002 NOSIG=
202005061700 METAR MRPV 061700Z 08015G25KT CAVOK 26/17 A3002 NOSIG=
202005061800 METAR MRPV 061800Z 08016G26KT 9999 FEW040 OVC200 26/17 A3000 NOSIG=
202005061900 METAR MRPV 061900Z 07014KT 9999 FEW035 BKN200 28/17 A2997 NOSIG=
202005062000 METAR MRPV 062000Z 07017KT 9999 SCT040 BKN200 27/17 A2995 NOSIG=
202005062100 METAR MRPV 062100Z 08014KT 9999 SCT040 BKN200 27/17 A2993 NOSIG=
202005062200 METAR MRPV 062200Z 08012KT 9999 SCT035 BKN200 27/18 A2994 NOSIG=
202005062300 METAR MRPV 062300Z 09012KT 9999 FEW035 BKN090 25/18 A2996 NOSIG=
202005070000 METAR MRPV 070000Z 12006KT 9999 FEW035 SCT090 BKN200 24/17 A2998 NOSIG=
202005070100 METAR MRPV NIL=
202005070200 METAR MRPV NIL=
202005070300 METAR MRPV NIL=
202005070400 METAR MRPV NIL=
202005070500 METAR MRPV NIL=
202005070600 METAR MRPV NIL=
202005070700 METAR MRPV NIL=
202005070800 METAR MRPV NIL=
202005070900 METAR MRPV NIL=
202005071000 METAR MRPV NIL=
202005071100 METAR MRPV NIL=
202005071200 METAR MRPV 071200Z 11011KT 9999 FEW040 SCT120 22/18 A3001 NOSIG=
202005071300 METAR MRPV 071300Z 10015KT 9999 FEW035 SCT120 23/18 A3002 NOSIG=
202005071400 METAR MRPV 071400Z 09011KT 9999 FEW040 SCT100 BKN200 25/18 A3005 NOSIG=
202005071500 METAR MRPV 071500Z 09015KT 9999 FEW040 SCT100 26/17 A3004 NOSIG=
202005071600 METAR MRPV 071600Z 08016KT 9999 FEW040 SCT100 27/17 A3004 NOSIG=
202005071700 METAR MRPV 071700Z 06013G23KT 9999 FEW040 BKN100 29/18 A3003 NOSIG=
202005071800 METAR MRPV 071800Z 09015G25KT 9999 SCT040 BKN100 28/18 A3002 NOSIG=
202005071900 METAR MRPV 071900Z 09016KT 9999 FEW045 BKN100 28/19 A2999 NOSIG=
202005072000 METAR MRPV 072000Z 10015KT 9999 -DZ FEW035 SCT070 BKN100 26/18 A2997 NOSIG=
202005072100 METAR MRPV 072100Z 09016KT 9999 RA FEW025 BKN070 23/19 A2998 NOSIG=
202005072200 METAR MRPV 072200Z 10011KT 9999 RA FEW020 BKN100 22/19 A3001 NOSIG=
202005072300 METAR MRPV 072300Z 11008KT 9999 -RA FEW020 BKN100 21/19 A3001 NOSIG=
202005080000 METAR MRPV 080000Z 12009KT 9999 -RA NSC 22/19 A3001 NOSIG=
202005080100 METAR MRPV NIL=
202005080200 METAR MRPV NIL=
202005080300 METAR MRPV NIL=
202005080400 METAR MRPV NIL=
202005080500 METAR MRPV NIL=
202005080600 METAR MRPV NIL=
202005080700 METAR MRPV NIL=
202005080800 METAR MRPV NIL=
202005080900 METAR MRPV NIL=
202005081000 METAR MRPV NIL=
202005081100 METAR MRPV NIL=
202005081200 METAR MRPV 081200Z 11012KT 9999 SCT020 21/17 A3000 NOSIG=
202005081300 METAR MRPV 081300Z 10014KT 9999 FEW020 SCT045 23/17 A3001 NOSIG=
202005081400 METAR MRPV 081400Z 10015KT 9999 FEW040 SCT110 24/17 A3004 NOSIG=
202005081500 METAR MRPV 081500Z 10012KT 9999 FEW035 SCT120 26/18 A3006 NOSIG=
202005081600 METAR MRPV 081600Z 11009KT 9999 SCT040 BKN120 24/18 A3006 NOSIG=
202005081700 METAR MRPV 081700Z 13008KT 9999 SCT040 BKN120 25/18 A3004 NOSIG=
202005081800 METAR MRPV 081800Z 12008KT 9999 SCT035 BKN100 25/18 A3003 NOSIG=
202005081900 METAR MRPV 081900Z 10011KT 9999 SCT035 BKN100 25/18 A3002 NOSIG=
202005082000 METAR MRPV 082000Z COR 09014KT 9999 SCT035 BKN120 25/18 A2999 NOSIG=
202005082100 METAR MRPV 082100Z 11012KT 9999 FEW035 SCT060 BKN120 24/18 A3000 NOSIG=
202005082200 METAR MRPV 082200Z 09012KT 9999 FEW035 SCT060 BKN120 23/18 A2998 NOSIG=
202005082300 METAR MRPV 082300Z 12008KT 9999 FEW035 SCT060 BKN120 23/18 A2999 NOSIG=
202005090000 METAR MRPV NIL=
202005090100 METAR MRPV NIL=
202005090200 METAR MRPV NIL=
202005090300 METAR MRPV NIL=
202005090400 METAR MRPV NIL=
202005090500 METAR MRPV NIL=
202005090600 METAR MRPV NIL=
202005090700 METAR MRPV NIL=
202005090800 METAR MRPV NIL=
202005090900 METAR MRPV NIL=
202005091000 METAR MRPV NIL=
202005091100 METAR MRPV NIL=
202005091200 METAR MRPV 091200Z 12006KT CAVOK 22/17 A3001 NOSIG=
202005091300 METAR MRPV 091300Z 14006KT CAVOK 23/17 A3003 NOSIG=
202005091400 METAR MRPV 091400Z 13006KT 9999 FEW040 BKN140 25/18 A3005 NOSIG=
202005091500 METAR MRPV 091500Z 09012KT 9999 FEW040 BKN140 26/18 A3003 NOSIG=
202005091600 METAR MRPV NIL=
202005091700 METAR MRPV 091700Z 09013KT 9999 FEW030 BKN140 26/19 A3005 NOSIG=
202005091800 METAR MRPV 091800Z 10009KT 9999 FEW035 SCT120 BKN200 28/19 A3002 NOSIG=
202005091900 METAR MRPV 091900Z COR 12006KT 9999 FEW025TCU FEW035 SCT100 BKN200 28/19 A2999 NOSIG=
202005092000 METAR MRPV 092000Z 09011KT 9999 SCT035 BKN200 28/19 A2996 NOSIG=
202005092044 METAR MRPV 092044Z 31003KT 9999 SCT035 BKN200 29/18 A2995 NOSIG=
202005092100 METAR MRPV 092100Z 26009KT 9999 SCT035 BKN200 27/22 A2995 NOSIG=
202005092200 METAR MRPV 092200Z 27008KT 9999 4500N SHRA SCT020TCU SCT035 27/22 A2995 NOSIG=
202005092300 METAR MRPV 092300Z COR 03006KT 320V030 3000 +SHRA SCT010 BKN020TCU 23/20 A2998 RERA NOSIG=
202005100000 METAR MRPV 100000Z 27004KT 270V180 6000 VCTS -RA SCT015 BKN080 22/20 A3000 RETSRA NOSIG=
202005100100 METAR MRPV NIL=
202005100200 METAR MRPV NIL=
202005100300 METAR MRPV NIL=
202005100400 METAR MRPV NIL=
202005100500 METAR MRPV NIL=
202005100600 METAR MRPV NIL=
202005100700 METAR MRPV NIL=
202005100800 METAR MRPV NIL=
202005100900 METAR MRPV NIL=
202005101000 METAR MRPV NIL=
202005101100 METAR MRPV NIL=
202005101200 METAR MRPV 101200Z 08002KT 9999 FEW030 SCT200 21/18 A3003 NOSIG=
202005101300 METAR MRPV 101300Z 03002KT 9999 FEW030 BKN200 24/18 A3006 NOSIG=
202005101400 METAR MRPV 101400Z 08006KT 9999 FEW035 BKN200 25/18 A3007 NOSIG=
202005101500 METAR MRPV 101500Z 09007KT 9999 FEW035 BKN200 28/18 A3007 NOSIG=
202005101600 METAR MRPV 101600Z 08011KT 9999 FEW035 BKN200 28/18 A3005 NOSIG=
202005101700 METAR MRPV 101700Z 08011KT 9999 SCT035 SCT060 27/19 A3006 NOSIG=
202005101800 METAR MRPV 101800Z 08009KT 9999 SCT035 BKN180 28/19 A3003 NOSIG=
202005101900 METAR MRPV 101900Z 10015KT 9999 BKN040 27/19 A3001 NOSIG=
202005102000 METAR MRPV 102000Z 28010KT 9999 VCTS BKN035 25/21 A3000 NOSIG=
202005102100 METAR MRPV 102100Z 32006KT 9999 BKN030 24/19 A2997 NOSIG=
202005102200 METAR MRPV 102200Z 09012KT 9999 BKN020 24/19 A2997 NOSIG=
202005102300 METAR MRPV 102300Z 11009KT 9999 FEW035 OVC180 24/19 A2998 NOSIG=
202005110000 METAR MRPV 110000Z 09008KT 9999 FEW040 BKN200 23/19 A3001 NOSIG=
202005110100 METAR MRPV NIL=
202005110200 METAR MRPV NIL=
202005110300 METAR MRPV NIL=
202005110400 METAR MRPV NIL=
202005110500 METAR MRPV NIL=
202005110600 METAR MRPV NIL=
202005110700 METAR MRPV NIL=
202005110800 METAR MRPV NIL=
202005110900 METAR MRPV NIL=
202005111000 METAR MRPV NIL=
202005111100 METAR MRPV NIL=
202005111200 METAR MRPV 111200Z 11008KT 9999 FEW035 BKN200 22/18 A3003 NOSIG=
202005111300 METAR MRPV 111300Z 11010KT 9999 FEW035 SCT140 BKN200 24/17 A3007 NOSIG=
202005111400 METAR MRPV 111400Z 12009KT 9999 FEW035 SCT140 BKN200 25/17 A3007 NOSIG=
202005111500 METAR MRPV 111500Z 12012KT 9999 FEW035 BKN160 26/17 A3007 NOSIG=
202005111600 METAR MRPV 111600Z 09015KT 9999 FEW035 SCT160 BKN200 26/17 A3007 NOSIG=
202005111700 METAR MRPV 111700Z 11011KT 9999 FEW035 SCT160 BKN200 27/18 A3006 NOSIG=
202005111800 METAR MRPV 111800Z 10013KT 9999 SCT035 BKN200 27/18 A3004 NOSIG=
202005111900 METAR MRPV 111900Z 09013KT 9999 RA BKN040 25/18 A3003 NOSIG=
202005112000 METAR MRPV 112000Z 09017KT 9999 SCT025 OVC200 26/18 A3002 RERA NOSIG=
202005112100 METAR MRPV 112100Z 08015KT 9999 FEW030 OVC200 25/18 A3000 NOSIG=
202005112200 METAR MRPV 112200Z 14008KT 9999 FEW040 OVC200 25/18 A2999 NOSIG=
202005112300 METAR MRPV 112300Z 10009KT 9999 FEW040 OVC200 25/17 A3001 NOSIG=
202005120000 METAR MRPV 120000Z 12009KT 9999 FEW040 BKN120 24/18 A3003 NOSIG=
202005120100 METAR MRPV NIL=
202005120200 METAR MRPV NIL=
202005120300 METAR MRPV NIL=
202005120400 METAR MRPV NIL=
202005120500 METAR MRPV NIL=
202005120600 METAR MRPV NIL=
202005120700 METAR MRPV NIL=
202005120800 METAR MRPV NIL=
202005120900 METAR MRPV NIL=
202005121000 METAR MRPV NIL=
202005121100 METAR MRPV NIL=
202005121200 METAR MRPV 121200Z 13008KT CAVOK 22/16 A3003 NOSIG=
202005121300 METAR MRPV 121300Z 13009KT CAVOK 23/17 A3005 NOSIG=
202005121400 METAR MRPV 121400Z 12011G21KT CAVOK 24/17 A3007 NOSIG=
202005121500 METAR MRPV 121500Z 09015KT CAVOK 26/17 A3007 NOSIG=
202005121600 METAR MRPV 121600Z 08015KT CAVOK 27/17 A3009 NOSIG=
202005121700 METAR MRPV 121700Z 08012G22KT CAVOK 28/17 A3007 NOSIG=
202005121800 METAR MRPV 121800Z 10010G20KT 9999 FEW040 BKN140 28/17 A3004 NOSIG=
202005121900 METAR MRPV 121900Z 09014KT 9999 FEW045 BKN140 29/17 A3002 NOSIG=
202005122000 METAR MRPV 122000Z 09013KT 9999 FEW045 BKN140 29/17 A3000 TEMPO 30005KT=
202005122100 METAR MRPV 122100Z 09012KT 9999 FEW045 BKN120 28/17 A2998 NOSIG=
202005122200 METAR MRPV 122200Z 08012KT 9999 FEW040 BKN120 27/16 A2999 NOSIG=
202005122300 METAR MRPV 122300Z 09009KT 9999 FEW035 BKN120 27/17 A3001 NOSIG=
202005130000 METAR MRPV 130000Z 33007KT 9999 SCT020 BKN100 22/20 A3005 NOSIG=
202005130100 METAR MRPV NIL=
202005130200 METAR MRPV NIL=
202005130300 METAR MRPV NIL=
202005130400 METAR MRPV NIL=
202005130500 METAR MRPV NIL=
202005130600 METAR MRPV NIL=
202005130700 METAR MRPV NIL=
202005130800 METAR MRPV NIL=
202005130900 METAR MRPV NIL=
202005131000 METAR MRPV NIL=
202005131100 METAR MRPV NIL=
202005131200 METAR MRPV 131200Z 11007KT 9999 FEW040 21/17 A3005 NOSIG=
202005131300 METAR MRPV 131300Z 09011KT 9999 FEW040 22/17 A3006 NOSIG=
202005131400 METAR MRPV 131400Z 08014KT 9999 FEW040 25/17 A3006 NOSIG=
202005131500 METAR MRPV 131500Z 09015KT 9999 FEW040 26/16 A3007 NOSIG=
202005131600 METAR MRPV 131600Z 07014KT 9999 FEW040 27/16 A3005 NOSIG=
202005131700 METAR MRPV 131700Z 08010G20KT 9999 FEW040 27/16 A3005 NOSIG=
202005131800 METAR MRPV 131800Z 09011KT 9999 SCT040 28/16 A3004 NOSIG=
202005131900 METAR MRPV 131900Z 08011KT 9999 SCT045 SCT200 30/15 A3000 NOSIG=
202005132000 METAR MRPV 132000Z 30009KT 9999 SCT040 SCT200 27/21 A2999 NOSIG=
202005132100 METAR MRPV 132100Z 28011KT 9999 SCT030 SCT200 26/20 A2998 TEMPO RA=
202005132200 METAR MRPV 132200Z 30008KT 9999 BKN030 SCT200 25/21 A2998 NOSIG=
202005132300 METAR MRPV 132300Z 28006KT 9999 BKN030 SCT200 24/20 A3000 NOSIG=
202005140000 METAR MRPV 140000Z 30005KT 9999 SCT020 SCT200 23/20 A3002 NOSIG=
202005140100 METAR MRPV NIL=
202005140200 METAR MRPV NIL=
202005140300 METAR MRPV NIL=
202005140400 METAR MRPV NIL=
202005140500 METAR MRPV NIL=
202005140600 METAR MRPV NIL=
202005140700 METAR MRPV NIL=
202005140800 METAR MRPV NIL=
202005140900 METAR MRPV NIL=
202005141000 METAR MRPV NIL=
202005141100 METAR MRPV NIL=
202005141200 METAR MRPV 141200Z 14003KT CAVOK 20/16 A3004 NOSIG=
202005141300 METAR MRPV 141300Z 11009KT 9999 FEW040 BKN100 23/16 A3006 NOSIG=
202005141400 METAR MRPV 141400Z 10009KT 9999 FEW040 SCT100 25/16 A3007 NOSIG=
202005141500 METAR MRPV 141500Z 10006KT 9999 FEW045 SCT100 27/16 A3007 NOSIG=
202005141600 METAR MRPV 141600Z 28010KT 9999 FEW045 SCT100 25/18 A3007 NOSIG=
202005141700 METAR MRPV 141700Z 30009KT 9999 SCT035 26/19 A3005 NOSIG=
202005141800 METAR MRPV 141800Z 27008G19KT 9999 VCSH SCT025TCU SCT060 27/19 A3002 TEMPO RA=
202005141900 METAR MRPV 141900Z 11002KT 180V110 9999 4000NW SCT035 BKN100 21/19 A3003 RERA NOSIG=
202005142000 METAR MRPV 142000Z 08002KT 150V080 9999 SCT030 SCT100 23/20 A3001 NOSIG=
202005142100 METAR MRPV 142100Z 27006KT 9999 BCFG FEW015 SCT030 BKN080 23/20 A3000 NOSIG=
202005142200 METAR MRPV 142200Z 10002KT 9999 SCT030 SCT100 23/20 A2999 NOSIG=
202005142300 METAR MRPV 142300Z 11008KT 9999 SCT035 BKN100 24/19 A2999 NOSIG=
202005150000 METAR MRPV 150000Z 11009KT 9999 SCT030 SCT100 23/18 A3000 NOSIG=
202005150100 METAR MRPV NIL=
202005150200 METAR MRPV NIL=
202005150300 METAR MRPV NIL=
202005150400 METAR MRPV NIL=
202005150500 METAR MRPV NIL=
202005150600 METAR MRPV NIL=
202005150700 METAR MRPV NIL=
202005150800 METAR MRPV NIL=
202005150900 METAR MRPV NIL=
202005151000 METAR MRPV NIL=
202005151100 METAR MRPV NIL=
202005151200 METAR MRPV 151200Z 15006KT CAVOK 20/16 A3001 NOSIG=
202005151300 METAR MRPV 151300Z 14007KT CAVOK 23/16 A3003 NOSIG=
202005151400 METAR MRPV 151400Z 13007KT CAVOK 25/16 A3004 NOSIG=
202005151500 METAR MRPV 151500Z 09008KT 9999 FEW045 26/17 A3004 NOSIG=
202005151600 METAR MRPV 151600Z 08005KT 9999 FEW045 28/16 A3002 NOSIG=
202005151700 METAR MRPV 151700Z 27007KT 360V270 9999 SCT045 27/20 A3000 NOSIG=
202005151800 METAR MRPV 151800Z 28010KT 9999 SCT040 27/20 A2999 NOSIG=
202005151900 METAR MRPV 151900Z 28012KT 9999 SCT035 28/20 A2996 NOSIG=
202005152000 METAR MRPV 152000Z 27010KT 9999 3000N +SHRA VCTS SCT020TCU BKN030 27/19 A2994 NOSIG=
202005152100 METAR MRPV 152100Z 06002KT 8000 +RA BKN025 SCT035 21/18 A2996 RETSRA NOSIG=
202005152200 METAR MRPV 152200Z 33003KT 9999 SCT030 BKN100 22/18 A2999 RERA NOSIG=
202005152300 METAR MRPV 152300Z 30003KT 9999 BKN030 SCT060 21/18 A2996 NOSIG=
202005160000 METAR MRPV 160000Z 29001KT 8000 -RA SCT030 BKN100 22/17 A2999 NOSIG=
202005160100 METAR MRPV NIL=
202005160200 METAR MRPV NIL=
202005160300 METAR MRPV NIL=
202005160400 METAR MRPV NIL=
202005160500 METAR MRPV NIL=
202005160600 METAR MRPV NIL=
202005160700 METAR MRPV NIL=
202005160800 METAR MRPV NIL=
202005160900 METAR MRPV NIL=
202005161000 METAR MRPV NIL=
202005161100 METAR MRPV NIL=
202005161200 METAR MRPV 161200Z 14005KT 9999 FEW035 22/17 A2999 NOSIG=
202005161300 METAR MRPV 161300Z 14005KT 9999 FEW035 23/18 A3001 NOSIG=
202005161400 METAR MRPV 161400Z 09011KT 9999 FEW035 25/17 A3002 NOSIG=
202005161500 METAR MRPV 161500Z 09011KT 9999 FEW045 26/17 A3003 NOSIG=
202005161600 METAR MRPV 161600Z 08010KT 9999 FEW045 27/18 A3002 NOSIG=
202005161700 METAR MRPV 161700Z 07006KT 9999 SCT040 29/18 A3001 NOSIG=
202005161800 METAR MRPV 161800Z 10005KT 9999 SCT040 29/18 A2998 NOSIG=
202005161900 METAR MRPV 161900Z 28011KT 9999 FEW015TCU SCT030 27/21 A2996 NOSIG=
202005162000 METAR MRPV 162000Z 28009KT 9999 4000NW SHRA SCT020TCU BKN030 25/20 A2994 BECMG 4000=
202005162100 METAR MRPV 162100Z 20005KT 1000 TSRA BKN015CB 21/20 A2997=
202005162200 METAR MRPV 162200Z VRB01KT 9999 -RA FEW035 OVC080 21/20 A2996=
202005162300 METAR MRPV 162300Z VRB01KT 9999 FEW035 OVC100 21/20 A2996 NOSIG=
202005170000 METAR MRPV 170000Z VRB02KT 9999 FEW030 OVC100 21/20 A2998 NOSIG=
202005170100 METAR MRPV NIL=
202005170200 METAR MRPV NIL=
202005170300 METAR MRPV NIL=
202005170400 METAR MRPV NIL=
202005170500 METAR MRPV NIL=
202005170600 METAR MRPV NIL=
202005170700 METAR MRPV NIL=
202005170800 METAR MRPV NIL=
202005170900 METAR MRPV NIL=
202005171000 METAR MRPV NIL=
202005171100 METAR MRPV NIL=
202005171200 METAR MRPV 171200Z 14005KT CAVOK 22/16 A2999 NOSIG=
202005171300 METAR MRPV 171300Z 13007KT CAVOK 24/17 A3000 NOSIG=
202005171400 METAR MRPV 171400Z 11009KT CAVOK 26/16 A3002 NOSIG=
202005171500 METAR MRPV 171500Z 11011KT 9999 FEW040 BKN200 27/16 A3002 NOSIG=
202005171600 METAR MRPV 171600Z COR 09013KT 9999 FEW040 BKN250 28/15 A3003 NOSIG=
202005171700 METAR MRPV 171700Z 09012KT 9999 SCT040 28/16 A3003 NOSIG=
202005171800 METAR MRPV 171800Z 10007KT 9999 SCT040 29/18 A3000 NOSIG=
202005171900 METAR MRPV 171900Z 10010KT 9999 BKN040 28/18 A2997 NOSIG=
202005172000 METAR MRPV 172000Z 08006KT 9999 3000N TSRA SCT020CB BKN030 27/18 A2996 BECMG 28006KT 4000=
202005172100 METAR MRPV 172100Z 33004KT 9999 4000W TSRA SCT015CB BKN030 22/17 A2996 NOSIG=
202005172200 METAR MRPV 172200Z 07008KT 9999 RA VCTS FEW010CB BKN025 24/18 A2998 RETSRA NOSIG=
202005172300 METAR MRPV 172300Z 14007KT 9999 RA VCTS FEW020CB OVC100 22/18 A2998 NOSIG=
202005180000 METAR MRPV 180000Z 12007KT 9999 FEW040 OVC100 22/19 A3001 RERA NOSIG=
202005180100 METAR MRPV NIL=
202005180200 METAR MRPV NIL=
202005180300 METAR MRPV NIL=
202005180400 METAR MRPV NIL=
202005180500 METAR MRPV NIL=
202005180600 METAR MRPV NIL=
202005180700 METAR MRPV NIL=
202005180800 METAR MRPV NIL=
202005180900 METAR MRPV NIL=
202005181000 METAR MRPV NIL=
202005181100 METAR MRPV NIL=
202005181200 METAR MRPV 181200Z 09004KT CAVOK 21/18 A3003 NOSIG=
202005181300 METAR MRPV 181300Z 12007KT 9999 FEW040 BKN200 23/18 A3004 NOSIG=
202005181400 METAR MRPV 181400Z 12007KT CAVOK 25/18 A3003 NOSIG=
202005181500 METAR MRPV 181500Z 09010KT 9999 FEW045 SCT140 26/18 A3004 NOSIG=
202005181600 METAR MRPV 181600Z 09010KT 9999 FEW040 BKN140 27/18 A3005 NOSIG=
202005181700 METAR MRPV 181700Z COR 07008KT 9999 SCT045 BKN220 29/17 A3003 BECMG 29008KT=
202005181800 METAR MRPV 181800Z 04007KT 9999 RA BKN040 27/19 A3003 BECMG 29008KT=
202005181900 METAR MRPV 181900Z 24002KT 9999 -RA BKN040 25/19 A2999 NOSIG=
202005182000 METAR MRPV 182000Z 08006KT 4000 TSRA BKN020CB 23/20 A3001 NOSIG=
202005182100 METAR MRPV 182100Z 14005KT 4500 RA BCFG FEW010 SCT030 OVC100 20/19 A3000 RETSRA NOSIG=
202005182200 METAR MRPV 182200Z 13005KT 9999 -RA BCFG FEW010 SCT040 OVC100 21/19 A2998 NOSIG=
202005182300 METAR MRPV 182300Z 26002KT 9999 BCFG FEW010 OVC100 21/19 A2999 NOSIG=
202005190000 METAR MRPV 190000Z VRB02KT 9999 BCFG FEW010 OVC100 21/19 A3002 NOSIG=
202005190100 METAR MRPV NIL=
202005190200 METAR MRPV NIL=
202005190300 METAR MRPV NIL=
202005190400 METAR MRPV NIL=
202005190500 METAR MRPV NIL=
202005190600 METAR MRPV NIL=
202005190700 METAR MRPV NIL=
202005190800 METAR MRPV NIL=
202005190900 METAR MRPV NIL=
202005191000 METAR MRPV NIL=
202005191100 METAR MRPV NIL=
202005191200 METAR MRPV 191200Z 11007KT CAVOK 21/18 A3003 NOSIG=
202005191300 METAR MRPV 191300Z 13006KT CAVOK 22/18 A3004 NOSIG=
202005191400 METAR MRPV 191400Z 14006KT CAVOK 24/18 A3005 NOSIG=
202005191500 METAR MRPV 191500Z 09004KT 9999 FEW040 BKN200 26/19 A3006 NOSIG=
202005191600 METAR MRPV 191600Z 28007KT 9999 FEW035 BKN200 26/20 A3006 NOSIG=
202005191700 METAR MRPV 191700Z 29009KT 9999 FEW035 OVC200 25/20 A3005 NOSIG=
202005191800 METAR MRPV 191800Z 29008KT 9999 SCT030 OVC200 25/20 A3003 NOSIG=
202005191900 METAR MRPV 191900Z 27005KT 9999 FEW020 SCT035 BKN180 25/20 A3000 NOSIG=
202005192000 METAR MRPV 192000Z 29007KT 9999 SCT025 BKN180 25/20 A2997 NOSIG=
202005192100 METAR MRPV 192100Z COR 30007KT 9999 VCTS SCT025CB BKN160 25/19 A2996 TEMPO RA=
202005192200 METAR MRPV 192200Z 13008KT 9999 -RA FEW030 BKN060 23/18 A2996 NOSIG=
202005192300 METAR MRPV 192300Z 10007KT 9999 FEW040 SCT120 BKN200 24/18 A2997 NOSIG=
202005200000 METAR MRPV 200000Z 13004KT 9999 FEW030 BKN120 24/18 A2999 NOSIG=
202005200100 METAR MRPV NIL=
202005200200 METAR MRPV NIL=
202005200300 METAR MRPV NIL=
202005200400 METAR MRPV NIL=
202005200500 METAR MRPV NIL=
202005200600 METAR MRPV NIL=
202005200700 METAR MRPV NIL=
202005200800 METAR MRPV NIL=
202005200900 METAR MRPV NIL=
202005201000 METAR MRPV NIL=
202005201100 METAR MRPV NIL=
202005201200 METAR MRPV 201200Z 13002KT CAVOK 20/19 A3002 NOSIG=
202005201300 METAR MRPV 201300Z 12003KT CAVOK 22/19 A3003 NOSIG=
202005201400 METAR MRPV 201400Z 15003KT 9999 FEW030 BKN110 25/18 A3004 BECMG 30005KT=
202005201500 METAR MRPV 201500Z 30005KT 9999 FEW030 BKN100 24/20 A3005 NOSIG=
202005201600 METAR MRPV 201600Z 36004KT 9999 FEW030 BKN100 27/17 A3005 NOSIG=
202005201700 METAR MRPV 201700Z 27008KT 9999 SCT035 SCT200 27/20 A3003 NOSIG=
202005201800 METAR MRPV 201800Z 28011KT 9999 SCT030 SCT070 26/20 A3002 NOSIG=
202005201900 METAR MRPV 201900Z 27010KT 9999 FEW020CB SCT030 SCT070 25/21 A2999 NOSIG=
202005202000 METAR MRPV 202000Z 29013KT 9999 4500N RA FEW015TCU SCT030 BKN070 24/20 A2997 NOSIG=
202005202052 METAR MRPV 202052Z 30012KT 3000 RA SCT020 BKN060 24/21 A2996 NOSIG=
202005202100 METAR MRPV 202100Z 30012KT 4000 -RA SCT020 BKN060 24/21 A2997 NOSIG=
202005202200 METAR MRPV 202200Z 14002KT 6000 BKN025 SCT060 24/20 A2996 NOSIG=
202005202300 METAR MRPV 202300Z 29008KT 4000 BR BKN010 22/21 A2997 NOSIG=
202005210000 METAR MRPV 210000Z 27003KT 4000 +RA BR BKN008 SCT020 22/21 A3000 NOSIG=
202005210100 METAR MRPV NIL=
202005210200 METAR MRPV NIL=
202005210300 METAR MRPV NIL=
202005210400 METAR MRPV NIL=
202005210500 METAR MRPV NIL=
202005210600 METAR MRPV NIL=
202005210700 METAR MRPV NIL=
202005210800 METAR MRPV NIL=
202005210900 METAR MRPV NIL=
202005211000 METAR MRPV NIL=
202005211100 METAR MRPV NIL=
202005211200 METAR MRPV 211200Z 00000KT 9999 BCFG FEW010 BKN100 20/19 A3003 NOSIG=
202005211300 METAR MRPV 211300Z 33001KT 9999 4000S BCFG FEW007 BKN100 20/19 A3004 NOSIG=
202005211400 METAR MRPV 211400Z 12002KT 9999 FEW025 BKN100 23/19 A3004 NOSIG=
202005211500 METAR MRPV 211500Z 12003KT 9999 FEW025 SCT200 26/19 A3002 NOSIG=
202005211600 METAR MRPV 211600Z 33006KT 9999 FEW040 SCT100 28/17 A3001 NOSIG=
202005211700 METAR MRPV 211700Z 27010KT 9999 SCT030 26/21 A3002 NOSIG=
202005211800 METAR MRPV 211800Z 29014KT 9999 FEW020TCU BKN035 27/21 A3001 NOSIG=
202005211805 METAR MRPV 211805Z 29013KT 9999 4500E +SHRA FEW020TCU BKN035 27/21 A3001 NOSIG=
202005211900 METAR MRPV 211900Z 29012KT 9999 4500E SHRA FEW020TCU BKN030 27/20 A2999 NOSIG=
202005212000 METAR MRPV 212000Z 30008KT 8000 3000SE SHRA SCT010TCU BKN020 24/21 A2999 NOSIG=
202005212100 METAR MRPV 212100Z 12008KT 2500 RA SCT015 BKN025 20/19 A2999 NOSIG=
202005212200 METAR MRPV 212200Z 16002KT 5000 -RA SCT010 BKN020 20/19 A3000 NOSIG=
202005212300 METAR MRPV 212300Z 14001KT 2500 RA SCT010 BKN025 20/19 A3001 NOSIG=
202005220000 METAR MRPV 220000Z 00000KT 5000 -RA BCFG FEW010 SCT025 BKN040 20/19 A3004 NOSIG=
202005220100 METAR MRPV NIL=
202005220200 METAR MRPV NIL=
202005220300 METAR MRPV NIL=
202005220400 METAR MRPV NIL=
202005220500 METAR MRPV NIL=
202005220600 METAR MRPV NIL=
202005220700 METAR MRPV NIL=
202005220800 METAR MRPV NIL=
202005220900 METAR MRPV NIL=
202005221000 METAR MRPV NIL=
202005221100 METAR MRPV NIL=
202005221200 METAR MRPV 221200Z 15001KT CAVOK 20/18 A3002 NOSIG=
202005221300 METAR MRPV 221300Z 14003KT CAVOK 22/18 A3002 NOSIG=
202005221400 METAR MRPV 221400Z 13007KT 9999 FEW045 SCT180 25/18 A3004 NOSIG=
202005221500 METAR MRPV 221500Z 11008KT 9999 FEW045 SCT160 27/19 A3004 NOSIG=
202005221600 METAR MRPV 221600Z 09013KT 9999 FEW040 SCT160 27/18 A3003 NOSIG=
202005221700 METAR MRPV 221700Z 09012KT 9999 FEW045 SCT200 28/18 A3002 NOSIG=
202005221800 METAR MRPV 221800Z 10010KT 9999 FEW035 29/19 A3000 NOSIG=
202005221900 METAR MRPV 221900Z 09008KT 9999 FEW020TCU SCT035 28/18 A2998 NOSIG=
202005222000 METAR MRPV 222000Z 27008KT 9999 TSRA SCT020CB SCT030 SCT100 24/20 A2998 NOSIG=
202005222100 METAR MRPV 222100Z 28004KT 4500 -RA BR VCTS FEW005 BKN015CB 21/20 A3000 RETSRA NOSIG=
202005222200 METAR MRPV 222200Z 08004KT 9999 -RA FEW005 BKN100 20/19 A2998 NOSIG=
202005222300 METAR MRPV 222300Z 09002KT 9999 VCFG FEW005 BKN100 21/20 A2999 NOSIG=
202005230000 METAR MRPV 230000Z 28002KT 9999 FEW005 BKN080 21/20 A3003 NOSIG=
202005230100 METAR MRPV NIL=
202005230200 METAR MRPV NIL=
202005230300 METAR MRPV NIL=
202005230400 METAR MRPV NIL=
202005230500 METAR MRPV NIL=
202005230600 METAR MRPV NIL=
202005230700 METAR MRPV NIL=
202005230800 METAR MRPV NIL=
202005230900 METAR MRPV NIL=
202005231000 METAR MRPV NIL=
202005231100 METAR MRPV NIL=
202005231200 METAR MRPV 231200Z 13003KT CAVOK 21/18 A3004 NOSIG=
202005231300 METAR MRPV 231300Z COR 12002KT CAVOK 23/18 A3006 NOSIG=
202005231400 METAR MRPV 231400Z 14002KT 9999 FEW042 SCT200 25/18 A3006 NOSIG=
202005231500 METAR MRPV 231500Z 04003KT 9999 FEW035 SCT200 26/17 A3007 NOSIG=
202005231600 METAR MRPV 231600Z COR 28007KT 9999 SCT035 SCT200 26/19 A3006 NOSIG=
202005231700 METAR MRPV 231700Z 29007KT 9999 SCT040 BKN200 26/18 A3005 NOSIG=
202005231800 METAR MRPV 231800Z 28009KT 9999 FEW035 BKN200 27/20 A3002 NOSIG=
202005231900 METAR MRPV 231900Z 29009KT 9999 FEW025 27/20 A2999 NOSIG=
202005232000 METAR MRPV 232000Z 28009KT 9999 SCT035 27/21 A2997 NOSIG=
202005232100 METAR MRPV 232100Z 27009KT 9999 SCT040 27/21 A2995 NOSIG=
202005232200 METAR MRPV 232200Z 28011KT 9999 VCTS FEW015CB SCT030 26/21 A2995 TEMPO TSRA=
202005232300 METAR MRPV 232300Z 28009KT 9999 VCTS FEW015CB SCT025 24/22 A2997 NOSIG=
202005240000 METAR MRPV 240000Z COR 30006KT 9999 BKN015 23/21 A3000 RETSRA NOSIG=
202005240100 METAR MRPV NIL=
202005240200 METAR MRPV NIL=
202005240300 METAR MRPV NIL=
202005240400 METAR MRPV NIL=
202005240500 METAR MRPV NIL=
202005240600 METAR MRPV NIL=
202005240700 METAR MRPV NIL=
202005240800 METAR MRPV NIL=
202005240900 METAR MRPV NIL=
202005241000 METAR MRPV NIL=
202005241100 METAR MRPV NIL=
202005241200 METAR MRPV 241200Z 34001KT 9999 BCFG FEW004 SCT200 21/20 A3003 NOSIG=
202005241300 METAR MRPV 241300Z 09005KT CAVOK 24/19 A3003 NOSIG=
202005241400 METAR MRPV 241400Z 15005KT CAVOK 27/19 A3003 NOSIG=
202005241500 METAR MRPV 241500Z 13002KT 9999 FEW040 SCT100 28/19 A3004 NOSIG=
202005241600 METAR MRPV 241600Z 29009KT 9999 SCT035 26/20 A3003 NOSIG=
202005241700 METAR MRPV 241700Z VRB02KT 9999 SCT030 29/19 A3002 NOSIG=
202005241800 METAR MRPV 241800Z 32008KT 9999 SCT035 28/21 A2999 NOSIG=
202005241900 METAR MRPV 241900Z 28012KT 9999 SCT025TCU SCT200 28/22 A2997 TEMPO RA=
202005242000 METAR MRPV 242000Z 05010G20KT 350V050 2500 TSRA SCT015CB BKN035 20/18 A2999 NOSIG=
202005242100 METAR MRPV 242100Z VRB02KT 9999 -RA VCTS FEW020CB FEW030 BKN100 21/19 A2997 NOSIG=
202005242200 METAR MRPV 242200Z 05002KT 9999 FEW020 BKN100 21/20 A2994 NOSIG=
202005242300 METAR MRPV 242300Z 32003KT 9999 BCFG FEW004 BKN080 21/19 A2999 NOSIG=
202005250000 METAR MRPV 250000Z 28003KT 9999 BCFG FEW002 BKN090 21/20 A2999 NOSIG=
202005250100 METAR MRPV NIL=
202005250200 METAR MRPV NIL=
202005250300 METAR MRPV NIL=
202005250400 METAR MRPV NIL=
202005250500 METAR MRPV NIL=
202005250600 METAR MRPV NIL=
202005250700 METAR MRPV NIL=
202005250800 METAR MRPV NIL=
202005250900 METAR MRPV NIL=
202005251000 METAR MRPV NIL=
202005251100 METAR MRPV NIL=
202005251200 METAR MRPV 251200Z VRB01KT CAVOK 20/19 A2998 NOSIG=
202005251300 METAR MRPV 251300Z 03002KT CAVOK 22/20 A3003 NOSIG=
202005251400 METAR MRPV 251400Z VRB01KT 9999 FEW025 SCT200 25/20 A3001 NOSIG=
202005251500 METAR MRPV 251500Z 27003KT 9999 FEW035 BKN200 26/20 A3002 NOSIG=
202005251600 METAR MRPV 251600Z 30004KT 9999 FEW035 OVC200 27/20 A3001 NOSIG=
202005251700 METAR MRPV 251700Z 29011KT 9999 SCT035 OVC200 26/21 A3000 NOSIG=
202005251800 METAR MRPV 251800Z 31008KT 9999 BKN030 26/21 A2999 NOSIG=
202005251900 METAR MRPV 251900Z 30009KT 9999 4000N TSRA SCT020CB SCT035 26/21 A2997 NOSIG=
202005252000 METAR MRPV 252000Z 02005KT 9999 VCSH SCT020TCU SCT090 25/20 A2995 NOSIG=
202005252100 METAR MRPV 252100Z 32005KT 9999 SCT015 BKN090 24/21 A2995 RERA NOSIG=
202005252200 METAR MRPV 252200Z 26003KT 9999 SCT025 BKN100 23/20 A2995 NOSIG=
202005252300 METAR MRPV 252300Z 29006KT 8000 RA FEW008 OVC100 22/20 A2997 NOSIG=
202005260000 METAR MRPV 260000Z VRB01KT 9999 -RA BCFG FEW005 OVC100 21/20 A2999 NOSIG=
202005260100 METAR MRPV NIL=
202005260200 METAR MRPV NIL=
202005260300 METAR MRPV NIL=
202005260400 METAR MRPV NIL=
202005260500 METAR MRPV NIL=
202005260600 METAR MRPV NIL=
202005260700 METAR MRPV NIL=
202005260800 METAR MRPV NIL=
202005260900 METAR MRPV NIL=
202005261000 METAR MRPV NIL=
202005261100 METAR MRPV NIL=
202005261200 METAR MRPV 261200Z 32003KT 9999 4500W BCFG FEW002 BKN200 21/19 A3000 NOSIG=
202005261300 METAR MRPV 261300Z 36002KT 9999 FEW015 BKN200 22/20 A3002 NOSIG=
202005261400 METAR MRPV 261400Z 05004KT 9999 FEW010 BKN200 26/20 A3002 NOSIG=
202005261500 METAR MRPV 261500Z 11006KT 9999 FEW045 BKN200 27/17 A3001 NOSIG=
202005261600 METAR MRPV 261600Z 09005KT 9999 FEW045 SCT120 BKN200 29/17 A3000 NOSIG=
202005261700 METAR MRPV 261700Z 08004KT 9999 SCT045 BKN200 29/18 A3000 NOSIG=
202005261800 METAR MRPV 261800Z 29009KT 9999 FEW025TCU FEW040 SCT200 28/21 A2999 NOSIG=
202005261900 METAR MRPV 261900Z COR 29007KT 9999 4500NE -SHRA VCTS FEW020TCU SCT035 SCT200 28/22 A2995 NOSIG=
202005262000 METAR MRPV 262000Z 29010KT 5000 SHRA VCTS SCT020CB BKN030 25/22 A2994 NOSIG=
202005262100 METAR MRPV 262100Z 30011KT 2500 +RA BKN010 SCT020 22/20 A2995 RESHRA NOSIG=
202005262200 METAR MRPV 262200Z 31004KT 3000 RA BR BKN010 SCT025 21/20 A2995 NOSIG=
202005262300 METAR MRPV 262300Z 01002KT 4000 BR BKN010 SCT025 21/20 A2999 RERA NOSIG=
202005270000 METAR MRPV 270000Z 27002KT 3000 -RA BR BKN010 SCT025 21/20 A3000 NOSIG=
202005270100 METAR MRPV NIL=
202005270200 METAR MRPV NIL=
202005270300 METAR MRPV NIL=
202005270400 METAR MRPV NIL=
202005270500 METAR MRPV NIL=
202005270600 METAR MRPV NIL=
202005270700 METAR MRPV NIL=
202005270800 METAR MRPV NIL=
202005270900 METAR MRPV NIL=
202005271000 METAR MRPV NIL=
202005271100 METAR MRPV NIL=
202005271200 METAR MRPV 271200Z 15005KT CAVOK 22/18 A2998 NOSIG=
202005271300 METAR MRPV 271300Z 10013KT 9999 FEW035 BKN160 23/18 A3000 NOSIG=
202005271400 METAR MRPV 271400Z 10014KT 9999 FEW030 SCT060 BKN200 24/18 A3005 NOSIG=
202005271500 METAR MRPV 271500Z 12008KT 9999 SCT035 BKN200 26/19 A3005 NOSIG=
202005271600 METAR MRPV 271600Z COR 10008KT 9999 FEW035 BKN200 26/19 A3002 BECMG 29005KT=
202005271700 METAR MRPV 271700Z 14004KT 9999 SCT045 BKN200 27/18 A3003 NOSIG=
202005271800 METAR MRPV 271800Z 10004KT 040V100 9999 3000 RA SCT025 BKN035 23/20 A3003 TEMPO 5000=
202005271900 METAR MRPV 271900Z 16003KT 9999 FEW020 SCT100 BKN200 23/20 A3000 RERA NOSIG=
202005272000 METAR MRPV 272000Z 30012KT 9999 FEW010 SCT020 25/21 A2998 NOSIG=
202005272100 METAR MRPV 272100Z 28008KT 4000 -RA BKN010 21/20 A3000 NOSIG=
202005272112 METAR MRPV 272112Z VRB02KT 6000 -RA BKN010 21/20 A3000 NOSIG=
202005272200 METAR MRPV 272200Z VRB02KT 6000 -RA BKN010 21/20 A3000 NOSIG=
202005272300 METAR MRPV 272300Z VRB01KT 4000 -TSRA SCT005 FEW010CB BKN100 20/19 A3003 RERA NOSIG=
202005280000 METAR MRPV 280000Z 06004KT 9999 SCT010 BKN100 20/19 A3004 NOSIG=
202005280100 METAR MRPV NIL=
202005280200 METAR MRPV NIL=
202005280300 METAR MRPV NIL=
202005280400 METAR MRPV NIL=
202005280500 METAR MRPV NIL=
202005280600 METAR MRPV NIL=
202005280700 METAR MRPV NIL=
202005280800 METAR MRPV NIL=
202005280900 METAR MRPV NIL=
202005281000 METAR MRPV NIL=
202005281100 METAR MRPV NIL=
202005281200 METAR MRPV 281200Z 15006KT CAVOK 20/15 A3005 NOSIG=
202005281300 METAR MRPV 281300Z 13005KT CAVOK 21/16 A3005 NOSIG=
202005281400 METAR MRPV 281400Z 12005KT CAVOK 24/16 A3004 NOSIG=
202005281500 METAR MRPV 281500Z 15002KT CAVOK 26/17 A3005 NOSIG=
202005281600 METAR MRPV 281600Z 30009KT CAVOK 25/18 A3005 NOSIG=
202005281700 METAR MRPV 281700Z COR 29008KT 9999 SCT035 25/19 A3004 NOSIG=
202005281800 METAR MRPV 281800Z 28010KT 9999 RA SCT025 BKN140 24/19 A3002 NOSIG=
202005281900 METAR MRPV 281900Z 28009KT 9999 FEW010 SCT025TCU BKN100 23/19 A3001 RERA NOSIG=
202005282000 METAR MRPV 282000Z 32007KT 9999 SCT020 BKN100 23/19 A3001 NOSIG=
202005282100 METAR MRPV 282100Z 06006KT 3000 RA BKN020 20/18 A3000 NOSIG=
202005282200 METAR MRPV 282200Z VRB02KT 3500 RA BKN010 19/19 A3002 NOSIG=
202005282300 METAR MRPV 282300Z 34001KT 3000 RA BR OVC006 20/19 A3003 NOSIG=
202005290000 METAR MRPV 290000Z 29004KT 2000 RA BR OVC008 19/19 A3005 NOSIG=
202005290100 METAR MRPV NIL=
202005290200 METAR MRPV NIL=
202005290300 METAR MRPV NIL=
202005290400 METAR MRPV NIL=
202005290500 METAR MRPV NIL=
202005290600 METAR MRPV NIL=
202005290700 METAR MRPV NIL=
202005290800 METAR MRPV NIL=
202005290900 METAR MRPV NIL=
202005291000 METAR MRPV NIL=
202005291100 METAR MRPV NIL=
202005291200 METAR MRPV 291200Z 00000KT 9999 FEW010 BKN100 19/18 A3005 NOSIG=
202005291300 METAR MRPV 291300Z 00000KT 9999 FEW010 BKN100 19/18 A3007 NOSIG=
202005291400 METAR MRPV 291400Z VRB01KT 9999 BKN020 21/18 A3009 NOSIG=
202005291500 METAR MRPV 291500Z 31003KT 9999 BKN025 21/18 A3009 NOSIG=
202005291600 METAR MRPV 291600Z 31006KT 9999 BKN025 23/18 A3008 NOSIG=
202005291700 METAR MRPV 291700Z 26005KT 9999 RA BKN025 23/20 A3007 NOSIG=
202005291800 METAR MRPV 291800Z 29006KT 9999 BKN020 24/19 A3005 RERA NOSIG=
202005291900 METAR MRPV 291900Z 29007KT 9999 RA BKN020 23/20 A3003 NOSIG=
202005292000 METAR MRPV 292000Z 29009KT 9999 RA FEW015TCU BKN020 25/20 A3003 NOSIG=
202005292100 METAR MRPV 292100Z 28008KT 3000 RA BKN015 22/20 A2999 NOSIG=
202005292200 METAR MRPV 292200Z 30009KT 3000 RA BKN014 21/20 A3000 NOSIG=
202005292300 METAR MRPV 292300Z 31005KT 3000 RA OVC005 20/15 A3003 NOSIG=
202005300000 METAR MRPV 300000Z 31005KT 3000 RA OVC010 20/20 A3004 NOSIG=
202005300100 METAR MRPV NIL=
202005300200 METAR MRPV NIL=
202005300300 METAR MRPV NIL=
202005300400 METAR MRPV NIL=
202005300500 METAR MRPV NIL=
202005300600 METAR MRPV NIL=
202005300700 METAR MRPV NIL=
202005300800 METAR MRPV NIL=
202005300900 METAR MRPV NIL=
202005301000 METAR MRPV NIL=
202005301100 METAR MRPV NIL=
202005301200 METAR MRPV 301200Z 00000KT 9999 SCT008 BKN100 19/19 A3006 NOSIG=
202005301300 METAR MRPV 301300Z 00000KT 9999 FEW008 BKN100 20/18 A3007 NOSIG=
202005301400 METAR MRPV 301400Z 30002KT 9999 BKN025 21/19 A3009 NOSIG=
202005301500 METAR MRPV 301500Z 32002KT 9999 SCT025 BKN070 23/18 A3009 NOSIG=
202005301600 METAR MRPV 301600Z 34001KT 9999 FEW025 BKN200 25/18 A3008 NOSIG=
202005301700 METAR MRPV 301700Z 27009KT 9999 SCT025 BKN100 24/20 A3007 NOSIG=
202005301800 METAR MRPV 301800Z 28006KT 9999 BKN030 26/19 A3005 NOSIG=
202005301900 METAR MRPV 301900Z 26003KT 9999 FEW025 BKN120 23/20 A3003 NOSIG=
202005302000 METAR MRPV 302000Z 28007KT 9999 FEW030 BKN120 24/18 A3001 NOSIG=
202005302100 METAR MRPV 302100Z 28008KT 9999 -RA FEW020 BKN120 23/19 A3000 NOSIG=
202005302200 METAR MRPV 302200Z 31005KT 9999 FEW010 BKN120 22/19 A3001 NOSIG=
202005302300 METAR MRPV 302300Z 33004KT 9999 FEW010 BKN120 21/19 A3003 NOSIG=
202005310000 METAR MRPV 310000Z 34003KT 9999 -RA FEW010 OVC120 21/19 A3005 NOSIG=
202005310100 METAR MRPV NIL=
202005310200 METAR MRPV NIL=
202005310300 METAR MRPV NIL=
202005310400 METAR MRPV NIL=
202005310500 METAR MRPV NIL=
202005310600 METAR MRPV NIL=
202005310700 METAR MRPV NIL=
202005310800 METAR MRPV NIL=
202005310900 METAR MRPV NIL=
202005311000 METAR MRPV NIL=
202005311100 METAR MRPV NIL=
202005311200 METAR MRPV 311200Z 08003KT CAVOK 19/18 A3006 NOSIG=
202005311300 METAR MRPV 311300Z 28002KT CAVOK 21/19 A3009 NOSIG=
202005311400 METAR MRPV 311400Z 25003KT 9999 FEW015 BKN100 21/19 A3010 NOSIG=
202005311500 METAR MRPV 311500Z 30003KT 9999 FEW015 SCT100 22/19 A3012 NOSIG=
202005311600 METAR MRPV 311600Z 30006KT 9999 FEW025 SCT100 24/19 A3011 NOSIG=
202005311700 METAR MRPV 311700Z 29008KT 9999 FEW025 SCT100 25/19 A3010 NOSIG=
202005311800 METAR MRPV 311800Z 29010KT 9999 FEW035 BKN100 25/18 A3008 NOSIG=
202005311900 METAR MRPV 311900Z 28011KT 9999 FEW015 SCT030 BKN100 25/20 A3005 NOSIG=
202005312000 METAR MRPV 312000Z 28007KT 9999 FEW010 SCT030 BKN100 23/19 A3004 NOSIG=
202005312100 METAR MRPV 312100Z 29010KT 9999 BCFG FEW005 BKN100 21/19 A3003 NOSIG=
202005312200 METAR MRPV 312200Z 30009KT 4000 -RA BR FEW003 BKN010 21/19 A3004 NOSIG=
202005312300 METAR MRPV 312300Z 30006KT 4000 -RA BR SCT003 BKN010 20/19 A3004 NOSIG=
202006010000 METAR MRPV 010000Z 32003KT 8000 BCFG FEW003 BKN100 20/19 A3006 NOSIG=
202006010100 METAR MRPV NIL=
202006010200 METAR MRPV NIL=
202006010300 METAR MRPV NIL=
202006010400 METAR MRPV NIL=
202006010500 METAR MRPV NIL=
202006010600 METAR MRPV NIL=
202006010700 METAR MRPV NIL=
202006010800 METAR MRPV NIL=
202006010900 METAR MRPV NIL=
202006011000 METAR MRPV NIL=
202006011100 METAR MRPV NIL=
202006011200 METAR MRPV 011200Z 10001KT CAVOK 19/18 A3006 NOSIG=
202006011300 METAR MRPV 011300Z 13004KT 9999 FEW040 BKN110 22/18 A3008 NOSIG=
202006011400 METAR MRPV 011400Z 12005KT 9999 FEW040 SCT140 25/18 A3009 NOSIG=
202006011500 METAR MRPV 011500Z 13007KT 9999 FEW040 26/18 A3010 NOSIG=
202006011600 METAR MRPV 011600Z 28009KT 9999 SCT045 24/19 A3011 NOSIG=
202006011700 METAR MRPV 011700Z 30007KT 9999 SCT025 BKN100 25/19 A3010 NOSIG=
202006011800 METAR MRPV 011800Z 29008KT 9999 SCT025 BKN100 26/21 A3007 NOSIG=
202006011900 METAR MRPV 011900Z 31008KT 8000 -RA SCT025TCU BKN035 24/21 A3005 NOSIG=
202006012000 METAR MRPV 012000Z 30008KT 8000 RA BKN025 SCT040 23/21 A3003 NOSIG=
202006012100 METAR MRPV 012100Z 26004KT 8000 BCFG FEW005 SCT020 BKN040 22/19 A3001 RERA NOSIG=
202006012200 METAR MRPV 012200Z 28007KT 2000 +RA BR BKN010 SCT020 21/20 A3002 NOSIG=
202006012300 METAR MRPV 012300Z 28003KT 4000 -RA BR SCT005 SCT020 20/20 A3003 NOSIG=
202006020000 METAR MRPV 020000Z 28002KT 2000 -RA BR BKN005 SCT015 20/20 A3006 NOSIG=
202006020100 METAR MRPV NIL=
202006020200 METAR MRPV NIL=
202006020300 METAR MRPV NIL=
202006020400 METAR MRPV NIL=
202006020500 METAR MRPV NIL=
202006020600 METAR MRPV NIL=
202006020700 METAR MRPV NIL=
202006020800 METAR MRPV NIL=
202006020900 METAR MRPV NIL=
202006021000 METAR MRPV NIL=
202006021100 METAR MRPV NIL=
202006021200 METAR MRPV 021200Z 14002KT 9999 FEW035 BKN200 18/17 A3004 NOSIG=
202006021300 METAR MRPV 021300Z 15003KT 9999 FEW045 BKN200 21/18 A3006 NOSIG=
202006021400 METAR MRPV 021400Z 12004KT 9999 FEW040 BKN200 24/17 A3007 NOSIG=
202006021500 METAR MRPV 021500Z 11008KT 9999 FEW040 BKN200 24/18 A3008 NOSIG=
202006021600 METAR MRPV 021600Z COR 11006KT 9999 FEW040 BKN200 25/18 A3009 BECMG 29005KT=
202006021700 METAR MRPV 021700Z VRB02KT 9999 SCT040 BKN200 26/18 A3006 NOSIG=
202006021800 METAR MRPV 021800Z 28004KT 9999 RA FEW025TCU FEW045 BKN200 24/20 A3005 NOSIG=
202006021900 METAR MRPV 021900Z 33007KT 9999 RA FEW025TCU SCT035 SCT200 24/19 A3003 NOSIG=
202006021941 METAR MRPV 021941Z 09005KT 9999 4500W SHRA VCTS FEW025TCU SCT035 SCT080 23/19 A3001 RERA NOSIG=
202006022000 METAR MRPV 022000Z COR 13002KT 9999 4500W SHRA VCTS FEW025TCU SCT035 SCT080 24/19 A3001 NOSIG=
202006022100 METAR MRPV 022100Z 25003KT 9999 -TSRA BCFG FEW025CB SCT035 BKN100 24/19 A2999 RESHRA NOSIG=
202006022200 METAR MRPV 022200Z 30006KT 9999 BCFG SCT010 SCT060 21/19 A3002 RETSRA NOSIG=
202006022300 METAR MRPV 022300Z COR 27002KT 6000 DZ BCFG FEW015 SCT025 BKN100 21/19 A3002 NOSIG=
202006030000 METAR MRPV 030000Z 02002KT 5000 -RA BCFG FEW010 SCT025 BKN080 20/19 A3004 REDZ NOSIG=
202006030100 METAR MRPV NIL=
202006030200 METAR MRPV NIL=
202006030300 METAR MRPV NIL=
202006030400 METAR MRPV NIL=
202006030500 METAR MRPV NIL=
202006030600 METAR MRPV NIL=
202006030700 METAR MRPV NIL=
202006030800 METAR MRPV NIL=
202006030900 METAR MRPV NIL=
202006031000 METAR MRPV NIL=
202006031100 METAR MRPV NIL=
202006031200 METAR MRPV 031200Z 07001KT 9999 0200W BCFG FEW002 BKN200 19/19 A3000 NOSIG=
202006031300 METAR MRPV 031300Z 08003KT CAVOK 22/19 A3002 NOSIG=
202006031400 METAR MRPV 031400Z 15003KT CAVOK 25/18 A3002 NOSIG=
202006031500 METAR MRPV 031500Z COR 01002KT 010V290 9999 FEW045 BKN200 26/19 A3003 NOSIG=
202006031600 METAR MRPV 031600Z 28009KT 9999 FEW040 BKN200 25/19 A3003 NOSIG=
202006031700 METAR MRPV 031700Z 30009KT 9999 SCT035 SCT200 24/19 A3002 NOSIG=
202006031800 METAR MRPV 031800Z 30010KT 9999 SCT030 SCT200 25/20 A2999 NOSIG=
202006031900 METAR MRPV 031900Z 29013KT 9999 FEW020TCU SCT030 BKN200 25/20 A2997 NOSIG=
202006032000 METAR MRPV 032000Z 29013KT 9999 RA SCT020 BKN200 25/20 A2994 NOSIG=
202006032100 METAR MRPV 032100Z 29012KT 9000 RA FEW015CB BKN015 21/20 A2994 RETSRA NOSIG=
202006032200 METAR MRPV 032200Z 31007KT 5000 RA BKN003 20/19 A2996 NOSIG=
202006032300 METAR MRPV 032300Z 33007KT 3000 RA BKN002 19/19 A3000 NOSIG=
202006040000 METAR MRPV 040000Z VRB01KT 9999 RA BKN015 19/18 A3000 NOSIG=
202006040100 METAR MRPV NIL=
202006040200 METAR MRPV NIL=
202006040300 METAR MRPV NIL=
202006040400 METAR MRPV NIL=
202006040500 METAR MRPV NIL=
202006040600 METAR MRPV NIL=
202006040700 METAR MRPV NIL=
202006040800 METAR MRPV NIL=
202006040900 METAR MRPV NIL=
202006041000 METAR MRPV NIL=
202006041100 METAR MRPV NIL=
202006041200 METAR MRPV 041200Z 00000KT 9999 -RA NSC 19/18 A3000 NOSIG=
202006041300 METAR MRPV 041300Z 04001KT CAVOK 20/18 A3001 NOSIG=
202006041400 METAR MRPV 041400Z 25002KT 9999 FEW015 SCT160 BKN200 21/18 A3003 NOSIG=
202006041500 METAR MRPV 041500Z 30003KT 9999 FEW020 SCT140 BKN200 23/18 A3004 NOSIG=
202006041600 METAR MRPV 041600Z 28007KT 9999 FEW020 BKN140 23/19 A3005 NOSIG=
202006041700 METAR MRPV 041700Z 29008KT 9999 SCT020 SCT100 24/19 A3004 NOSIG=
202006041800 METAR MRPV 041800Z COR 29010KT 9999 BKN030 24/19 A3001 NOSIG=
202006041900 METAR MRPV 041900Z 27008KT 9999 FEW020TCU BKN025 24/19 A2998 NOSIG=
202006042000 METAR MRPV 042000Z 29011KT 9999 BKN015 22/20 A2996 NOSIG=
202006042100 METAR MRPV 042100Z 28008KT 8000 -RA BKN012 21/20 A2995 NOSIG=
202006042200 METAR MRPV 042200Z 27005KT 4000 RA BR BKN001 SCT100 20/19 A2997 NOSIG=
202006042300 METAR MRPV 042300Z 30008KT 3000 RA OVC002 20/19 A2998 NOSIG=
202006050000 METAR MRPV 050000Z 31004KT 8000 -RA BKN004 20/19 A3000 NOSIG=
202006050100 METAR MRPV NIL=
202006050200 METAR MRPV NIL=
202006050300 METAR MRPV NIL=
202006050400 METAR MRPV NIL=
202006050500 METAR MRPV NIL=
202006050600 METAR MRPV NIL=
202006050700 METAR MRPV NIL=
202006050800 METAR MRPV NIL=
202006050900 METAR MRPV NIL=
202006051000 METAR MRPV NIL=
202006051100 METAR MRPV NIL=
202006051200 METAR MRPV 051200Z 11004KT 9999 FEW035 19/18 A3004 NOSIG=
202006051300 METAR MRPV 051300Z 09006KT 9999 FEW035 22/18 A3006 NOSIG=
202006051400 METAR MRPV 051400Z 13008KT 9999 FEW045 SCT100 24/18 A3007 NOSIG=
202006051500 METAR MRPV 051500Z 10008KT CAVOK 25/18 A3007 NOSIG=
202006051600 METAR MRPV 051600Z 05004KT CAVOK 26/18 A3005 BECMG 24006KT=
202006051700 METAR MRPV 051700Z 29007KT CAVOK 26/18 A3004 NOSIG=
202006051800 METAR MRPV 051800Z 29009KT 9999 FEW045 BKN120 26/20 A3003 NOSIG=
202006051900 METAR MRPV 051900Z 28011KT 9999 BKN030 SCT120 24/21 A3002 NOSIG=
202006052000 METAR MRPV 052000Z 30011KT 9000 VCFG FEW005 BKN015 23/21 A3001 TEMPO BKN010=
202006052100 METAR MRPV 052100Z 27007KT 8000 -RA VCFG FEW007 BKN020 22/20 A3001 NOSIG=
202006052200 METAR MRPV 052200Z 31003KT 5000 -RA BR FEW005 SCT015 BKN080 21/20 A3002 NOSIG=
202006052300 METAR MRPV 052300Z 01001KT 9999 -RA BCFG FEW008 BKN080 21/20 A3004 NOSIG=
202006060000 METAR MRPV 060000Z 32002KT 9999 -RA BCFG FEW005 SCT010 BKN100 21/20 A3006 NOSIG=
202006060100 METAR MRPV NIL=
202006060200 METAR MRPV NIL=
202006060300 METAR MRPV NIL=
202006060400 METAR MRPV NIL=
202006060500 METAR MRPV NIL=
202006060600 METAR MRPV NIL=
202006060700 METAR MRPV NIL=
202006060800 METAR MRPV NIL=
202006060900 METAR MRPV NIL=
202006061000 METAR MRPV NIL=
202006061100 METAR MRPV NIL=
202006061200 METAR MRPV 061200Z 11004KT CAVOK 19/18 A3004 NOSIG=
202006061300 METAR MRPV 061300Z 14005KT CAVOK 21/18 A3005 NOSIG=
202006061400 METAR MRPV 061400Z 14006KT CAVOK 24/18 A3006 NOSIG=
202006061500 METAR MRPV 061500Z 11009KT 9999 FEW030 SCT250 25/18 A3007 NOSIG=
202006061600 METAR MRPV 061600Z 10005KT 9999 FEW045 BKN250 27/19 A3008 NOSIG=
202006061700 METAR MRPV 061700Z 28009KT 9999 FEW040 BKN250 25/20 A3008 NOSIG=
202006061800 METAR MRPV 061800Z 29009KT 9999 FEW020TCU FEW035 SCT250 26/21 A3006 NOSIG=
202006061900 METAR MRPV 061900Z 30011KT 9999 VCSH SCT020TCU SCT200 26/21 A3004 NOSIG=
202006062000 METAR MRPV 062000Z 26008KT 9999 TSRA SCT015CB BKN080 24/20 A3002 RETS TEMPO 5000=
202006062100 METAR MRPV 062100Z 35005KT 7000 -RA BCFG VCTS FEW005 FEW010CB BKN050 22/20 A3002 RETSRA NOSIG=
202006062200 METAR MRPV 062200Z VRB02KT 9999 -RA BCFG VCTS FEW005 SCT020CB BKN100 21/20 A3004 NOSIG=
202006062300 METAR MRPV 062300Z 04001KT 9999 BCFG FEW007 SCT045 OVC100 21/20 A3004 NOSIG=
202006070000 METAR MRPV 070000Z 10003KT 9999 -RA FEW010 OVC100 21/20 A3005 NOSIG=
202006070100 METAR MRPV NIL=
202006070200 METAR MRPV NIL=
202006070300 METAR MRPV NIL=
202006070400 METAR MRPV NIL=
202006070500 METAR MRPV NIL=
202006070600 METAR MRPV NIL=
202006070700 METAR MRPV NIL=
202006070800 METAR MRPV NIL=
202006070900 METAR MRPV NIL=
202006071000 METAR MRPV NIL=
202006071100 METAR MRPV NIL=
202006071200 METAR MRPV 071200Z 08005KT CAVOK 19/17 A3007 NOSIG=
202006071300 METAR MRPV 071300Z 11006KT CAVOK 22/17 A3008 NOSIG=
202006071400 METAR MRPV 071400Z 12005KT CAVOK 23/17 A3007 NOSIG=
202006071500 METAR MRPV 071500Z 12004KT CAVOK 26/17 A3007 NOSIG=
202006071600 METAR MRPV 071600Z 29009KT CAVOK 26/20 A3008 NOSIG=
202006071700 METAR MRPV 071700Z 29009KT 9999 FEW040 26/20 A3007 NOSIG=
202006071800 METAR MRPV 071800Z 29008KT 9999 FEW040 SCT160 27/20 A3005 NOSIG=
202006071900 METAR MRPV 071900Z 29004KT 9999 FEW025 SCT160 27/19 A3002 NOSIG=
202006072000 METAR MRPV 072000Z 34003KT 9999 -RA SCT030 SCT160 26/21 A2999 RESHRA NOSIG=
202006072100 METAR MRPV 072100Z 27004KT 9999 SCT030 SCT200 27/22 A2997 NOSIG=
202006072200 METAR MRPV 072200Z 31007KT 9999 VCTS FEW010CB SCT035 SCT100 25/20 A2996 NOSIG=
202006072300 METAR MRPV 072300Z 34006KT 9999 -TSRA SCT020CB BKN045 23/19 A2999 NOSIG=
202006080000 METAR MRPV 080000Z 34005KT 5000 TSRA FEW005 SCT010CB BKN045 20/19 A3005 NOSIG=
202006080100 METAR MRPV NIL=
202006080200 METAR MRPV NIL=
202006080300 METAR MRPV NIL=
202006080400 METAR MRPV NIL=
202006080500 METAR MRPV NIL=
202006080600 METAR MRPV NIL=
202006080700 METAR MRPV NIL=
202006080800 METAR MRPV NIL=
202006080900 METAR MRPV NIL=
202006081000 METAR MRPV NIL=
202006081100 METAR MRPV NIL=
202006081200 METAR MRPV 081200Z 00000KT 9999 FEW030 SCT060 BKN110 19/18 A3006 NOSIG=
202006081300 METAR MRPV 081300Z 07003KT 9999 FEW010 BKN200 22/18 A3006 NOSIG=
202006081400 METAR MRPV 081400Z 11002KT 9999 FEW030 BKN200 25/19 A3005 NOSIG=
202006081500 METAR MRPV 081500Z 17002KT 9999 FEW040 BKN200 27/18 A3007 BECMG 29008KT=
202006081600 METAR MRPV 081600Z 30009KT 9999 FEW040 BKN200 25/20 A3007 NOSIG=
202006081700 METAR MRPV 081700Z 30009KT 9999 SCT030 BKN220 26/20 A3005 NOSIG=
202006081800 METAR MRPV 081800Z 33005KT 9999 SCT035 BKN220 26/20 A3003 NOSIG=
202006081900 METAR MRPV 081900Z VRB01KT 9999 SCT035 BKN250 28/20 A3000 NOSIG=
202006082000 METAR MRPV 082000Z 07007KT 9999 SCT040 BKN250 29/17 A2998 NOSIG=
202006082100 METAR MRPV 082100Z 30005KT 040V300 9999 BKN045 SCT250 27/21 A2997 NOSIG=
202006082200 METAR MRPV 082200Z 27005KT 9999 FEW025 BKN035 26/22 A2997 NOSIG=
202006082300 METAR MRPV 082300Z 29006KT 9999 BCFG SCT005 BKN035 23/22 A2998 TEMPO BKN008=
202006090000 METAR MRPV 090000Z 30005KT 3000 BR OVC005 22/21 A2999 NOSIG=
202006090100 METAR MRPV NIL=
202006090200 METAR MRPV NIL=
202006090300 METAR MRPV NIL=
202006090400 METAR MRPV NIL=
202006090500 METAR MRPV NIL=
202006090600 METAR MRPV NIL=
202006090700 METAR MRPV NIL=
202006090800 METAR MRPV NIL=
202006090900 METAR MRPV NIL=
202006091000 METAR MRPV NIL=
202006091100 METAR MRPV NIL=
202006091200 METAR MRPV 091200Z 13006KT 9999 FEW030 BKN250 21/17 A3001 NOSIG=
202006091300 METAR MRPV 091300Z 12010KT 9999 FEW030 BKN200 23/17 A3003 NOSIG=
202006091400 METAR MRPV 091400Z 09009KT 9999 FEW030 BKN200 24/18 A3005 NOSIG=
202006091500 METAR MRPV 091500Z 08010KT 9999 SCT035 BKN200 25/17 A3005 NOSIG=
202006091600 METAR MRPV 091600Z 08011KT 9999 FEW040 BKN200 26/17 A3004 NOSIG=
202006091700 METAR MRPV 091700Z 10007KT CAVOK 28/17 A3002 NOSIG=
202006091800 METAR MRPV 091800Z 07008KT CAVOK 28/17 A3002 NOSIG=
202006091900 METAR MRPV 091900Z 29008KT 9999 FEW020 BKN200 26/20 A3000 NOSIG=
202006092000 METAR MRPV 092000Z 28011KT 9999 FEW020TCU FEW045 BKN200 25/20 A2999 NOSIG=
202006092100 METAR MRPV 092100Z 30010KT 9999 RA FEW020TCU SCT025 SCT200 25/20 A3000 RESHRA NOSIG=
202006092200 METAR MRPV 092200Z 31005KT 9000 RA FEW020CB SCT015 BKN200 20/19 A3001 NOSIG=
202006092300 METAR MRPV 092300Z 30002KT 9999 FEW002 BKN020 21/19 A3002 RERA RERA NOSIG=
202006100000 METAR MRPV 100000Z 29006KT 5000 -RA BKN003 20/19 A3005 NOSIG=
202006100100 METAR MRPV NIL=
202006100200 METAR MRPV NIL=
202006100300 METAR MRPV NIL=
202006100400 METAR MRPV NIL=
202006100500 METAR MRPV NIL=
202006100600 METAR MRPV NIL=
202006100700 METAR MRPV NIL=
202006100800 METAR MRPV NIL=
202006100900 METAR MRPV NIL=
202006101000 METAR MRPV NIL=
202006101100 METAR MRPV NIL=
202006101200 METAR MRPV 101200Z 10004KT CAVOK 18/16 A3005 NOSIG=
202006101300 METAR MRPV 101300Z 07001KT CAVOK 20/17 A3005 NOSIG=
202006101400 METAR MRPV 101400Z 02004KT CAVOK 22/17 A3007 NOSIG=
202006101500 METAR MRPV 101500Z 32004KT CAVOK 24/17 A3009 NOSIG=
202006101600 METAR MRPV 101600Z 32003KT CAVOK 25/19 A3008 NOSIG=
202006101700 METAR MRPV 101700Z 33003KT 9999 FEW045 BKN200 25/19 A3006 NOSIG=
202006101800 METAR MRPV 101800Z 28006KT CAVOK 25/19 A3004 NOSIG=
202006101900 METAR MRPV 101900Z 29008KT 9999 FEW025TCU SCT045 BKN200 26/20 A3003 NOSIG=
202006102000 METAR MRPV 102000Z 30008KT 9999 -RA SCT015 SCT200 23/21 A3002 RESHRA NOSIG=
202006102100 METAR MRPV 102100Z VRB01KT 9999 FEW010 SCT015CB SCT035 22/20 A3002 TEMPO SHRA=
202006102200 METAR MRPV 102200Z VRB02KT 9999 SHRA FEW005 FEW010CB BKN100 21/20 A3002 NOSIG=
202006102300 METAR MRPV 102300Z 15005KT 9999 RA BKN025 SCT100 20/18 A3003 RESHRA NOSIG=
202006110000 METAR MRPV NIL=
202006110100 METAR MRPV NIL=
202006110200 METAR MRPV NIL=
202006110300 METAR MRPV NIL=
202006110400 METAR MRPV NIL=
202006110500 METAR MRPV NIL=
202006110600 METAR MRPV NIL=
202006110700 METAR MRPV NIL=
202006110800 METAR MRPV NIL=
202006110900 METAR MRPV NIL=
202006111000 METAR MRPV NIL=
202006111100 METAR MRPV NIL=
202006111200 METAR MRPV 111200Z 13007KT CAVOK 20/17 A3006 NOSIG=
202006111300 METAR MRPV 111300Z 13006KT CAVOK 22/17 A3008 NOSIG=
202006111400 METAR MRPV 111400Z 10009KT 9999 FEW045 BKN250 24/17 A3008 NOSIG=
202006111500 METAR MRPV 111500Z 10010KT 9999 FEW045 SCT250 26/17 A3008 NOSIG=
202006111600 METAR MRPV 111600Z 09011KT 9999 FEW045 SCT250 26/17 A3007 NOSIG=
202006111700 METAR MRPV 111700Z 08008KT 9999 FEW045 27/17 A3005 NOSIG=
202006111800 METAR MRPV 111800Z 28009KT 9999 FEW025TCU SCT040 26/19 A3003 NOSIG=
202006111900 METAR MRPV 111900Z 30009KT 9999 VCSH SCT020CB SCT030 26/20 A3001 TEMPO TSRA=
202006112000 METAR MRPV 112000Z 33006KT 8000 TSRA FEW010CB SCT015 SCT100 19/18 A3002 TEMPO RA=
202006112100 METAR MRPV 112100Z 10010KT 9999 -RA FEW030 BKN100 21/18 A3001 NOSIG=
202006112200 METAR MRPV 112200Z 10012KT 9999 SCT025 BKN100 21/17 A3001 NOSIG=
202006112300 METAR MRPV 112300Z 11009KT 9999 FEW025 BKN120 22/17 A3002 NOSIG=
202006120000 METAR MRPV 120000Z 09008KT 9999 SCT030 BKN120 21/17 A3004 NOSIG=
202006120100 METAR MRPV NIL=
202006120200 METAR MRPV NIL=
202006120300 METAR MRPV NIL=
202006120400 METAR MRPV NIL=
202006120500 METAR MRPV NIL=
202006120600 METAR MRPV NIL=
202006120700 METAR MRPV NIL=
202006120800 METAR MRPV NIL=
202006120900 METAR MRPV NIL=
202006121000 METAR MRPV NIL=
202006121100 METAR MRPV NIL=
202006121200 METAR MRPV 121200Z 10006KT CAVOK 18/15 A3004 NOSIG=
202006121300 METAR MRPV 121300Z 12007KT CAVOK 22/15 A3004 NOSIG=
202006121400 METAR MRPV 121400Z 13007KT CAVOK 24/15 A3005 NOSIG=
202006121500 METAR MRPV 121500Z 08010KT 9999 FEW045 SCT220 25/16 A3006 BECMG 29005KT=
202006121600 METAR MRPV 121600Z 08008KT 9999 FEW045 26/15 A3006 BECMG 29005KT=
202006121700 METAR MRPV 121700Z 27007KT 9999 SCT040 24/18 A3005 NOSIG=
202006121800 METAR MRPV 121800Z 29006KT 9999 BKN035 26/19 A3003 NOSIG=
202006121900 METAR MRPV 121900Z 29008KT 9999 BKN035 26/20 A2999 NOSIG=
202006122000 METAR MRPV 122000Z 28009KT 9999 BKN035 26/20 A2996 NOSIG=
202006122100 METAR MRPV 122100Z 28008KT 9999 FEW025 SCT120 25/18 A2995 NOSIG=
202006122200 METAR MRPV 122200Z 29010KT 9999 FEW015TCU BKN120 23/19 A2995 NOSIG=
202006122300 METAR MRPV 122300Z 29010KT 9999 4500S SHRA SCT015TCU FEW035 BKN100 22/19 A2997 NOSIG=
202006130000 METAR MRPV 130000Z 18002KT 9999 BCFG FEW005 BKN015 21/18 A2999 NOSIG=
202006130100 METAR MRPV NIL=
202006130200 METAR MRPV NIL=
202006130300 METAR MRPV NIL=
202006130400 METAR MRPV NIL=
202006130500 METAR MRPV NIL=
202006130600 METAR MRPV NIL=
202006130700 METAR MRPV NIL=
202006130800 METAR MRPV NIL=
202006130900 METAR MRPV NIL=
202006131000 METAR MRPV NIL=
202006131100 METAR MRPV NIL=
202006131200 METAR MRPV 131200Z 06002KT 9999 BCFG FEW007 BKN160 19/18 A2999 NOSIG=
202006131300 METAR MRPV 131300Z 35002KT 9999 FEW010 BKN160 21/18 A3001 NOSIG=
202006131400 METAR MRPV 131400Z 20001KT 9999 FEW015 BKN160 23/18 A3001 NOSIG=
202006131500 METAR MRPV 131500Z 28006KT 9999 FEW020 BKN120 22/19 A3002 NOSIG=
202006131600 METAR MRPV 131600Z 31008KT 9999 FEW010 BKN100 23/19 A3002 NOSIG=
202006131700 METAR MRPV 131700Z 28007KT 9999 FEW015 SCT040 BKN100 23/19 A3002 NOSIG=
202006131800 METAR MRPV 131800Z 31006KT 9999 FEW015 SCT030 BKN100 24/19 A2999 NOSIG=
202006131900 METAR MRPV 131900Z 28009KT 9999 FEW010 BKN025 25/20 A2997 NOSIG=
202006132000 METAR MRPV 132000Z 28009KT 6000 BCFG FEW010 BKN025 23/20 A2995 NOSIG=
202006132100 METAR MRPV 132100Z 28009KT 6000 BCFG FEW010 BKN025 22/19 A2995 NOSIG=
202006132200 METAR MRPV 132200Z 29010KT 5000 BCFG FEW008 BKN020 20/18 A2996 NOSIG=
202006132300 METAR MRPV 132300Z 30004KT 4000 -RA BR FEW005 SCT020 BKN100 20/19 A2998 NOSIG=
202006140000 METAR MRPV 140000Z 32003KT 4000 RA BR FEW010 BKN020 20/19 A3000 NOSIG=
202006140100 METAR MRPV NIL=
202006140200 METAR MRPV NIL=
202006140300 METAR MRPV NIL=
202006140400 METAR MRPV NIL=
202006140500 METAR MRPV NIL=
202006140600 METAR MRPV NIL=
202006140700 METAR MRPV NIL=
202006140800 METAR MRPV NIL=
202006140900 METAR MRPV NIL=
202006141000 METAR MRPV NIL=
202006141100 METAR MRPV NIL=
202006141200 METAR MRPV 141200Z 10004KT 9999 BCFG SCT020 19/18 A3002 NOSIG=
202006141300 METAR MRPV 141300Z 06004KT 9999 FEW010 BKN110 20/18 A3003 NOSIG=
202006141400 METAR MRPV 141400Z 11002KT 9999 FEW045 BKN110 22/18 A3005 NOSIG=
202006141500 METAR MRPV 141500Z 33001KT 9999 FEW035 SCT110 24/16 A3005 NOSIG=
202006141600 METAR MRPV 141600Z 29007KT 9999 FEW045 25/20 A3004 NOSIG=
202006141700 METAR MRPV 141700Z 30009KT 9999 FEW040 25/19 A3003 NOSIG=
202006141800 METAR MRPV 141800Z 28008KT 9999 SCT040 26/20 A3001 NOSIG=
202006141900 METAR MRPV 141900Z 28010KT 9999 4500E TSRA FEW020CB FEW035 26/21 A2999 NOSIG=
202006142000 METAR MRPV 142000Z 29007KT 9999 -TSRA SCT020CB SCT030 25/20 A2998 NOSIG=
202006142100 METAR MRPV 142100Z 27004KT 9999 SCT015 SCT080 24/20 A2997 RETSRA NOSIG=
202006142200 METAR MRPV 142200Z 29008KT 8000 BCFG SCT010 BKN020 23/21 A2997 NOSIG=
202006142300 METAR MRPV 142300Z 28008KT 4500 BR SCT008 BKN015 22/20 A2997 NOSIG=
202006150000 METAR MRPV 150000Z 32003KT 4500 BR SCT008 BKN015 21/20 A2999 NOSIG=
202006150100 METAR MRPV NIL=
202006150200 METAR MRPV NIL=
202006150300 METAR MRPV NIL=
202006150400 METAR MRPV NIL=
202006150500 METAR MRPV NIL=
202006150600 METAR MRPV NIL=
202006150700 METAR MRPV NIL=
202006150800 METAR MRPV NIL=
202006150900 METAR MRPV NIL=
202006151000 METAR MRPV NIL=
202006151100 METAR MRPV NIL=
202006151200 METAR MRPV 151200Z 00000KT 9999 BCFG FEW010 BKN200 20/19 A3002 NOSIG=
202006151300 METAR MRPV 151300Z 12006KT 9999 FEW020 BKN200 23/19 A3004 NOSIG=
202006151400 METAR MRPV 151400Z 10012KT 9999 FEW035 BKN200 24/18 A3004 NOSIG=
202006151500 METAR MRPV 151500Z 09011KT 9999 FEW035 SCT160 BKN200 26/19 A3004 NOSIG=
202006151600 METAR MRPV 151600Z 08011KT 9999 SCT035 SCT200 27/19 A3004 NOSIG=
202006151700 METAR MRPV 151700Z 10012KT 9999 BKN035 27/19 A3003 NOSIG=
202006151800 METAR MRPV 151800Z COR 28011KT 9999 TSRA FEW020CB BKN030 24/21 A3001 NOSIG=
202006151900 METAR MRPV 151900Z 30004KT 9999 4000W VCTS FEW010CB BKN025 22/20 A3002 RETSRA NOSIG=
202006152000 METAR MRPV 152000Z 04003KT 9999 -RA BKN015 22/20 A3002 NOSIG=
202006152100 METAR MRPV 152100Z 34002KT 9999 -RA FEW005 SCT015 BKN100 21/20 A3003 NOSIG=
202006152200 METAR MRPV 152200Z 07008KT 9999 -RA FEW010 OVC100 21/19 A3003 NOSIG=
202006152300 METAR MRPV 152300Z 11005KT 9999 -DZ NSC 21/19 A3002 NOSIG=
202006160000 METAR MRPV 160000Z 10006KT CAVOK 21/19 A3001 NOSIG=
202006160100 METAR MRPV NIL=
202006160200 METAR MRPV NIL=
202006160300 METAR MRPV NIL=
202006160400 METAR MRPV NIL=
202006160500 METAR MRPV NIL=
202006160600 METAR MRPV NIL=
202006160700 METAR MRPV NIL=
202006160800 METAR MRPV NIL=
202006160900 METAR MRPV NIL=
202006161000 METAR MRPV NIL=
202006161100 METAR MRPV NIL=
202006161200 METAR MRPV 161200Z 13006KT CAVOK 21/16 A3003 NOSIG=
202006161300 METAR MRPV 161300Z 10007KT CAVOK 22/17 A3004 NOSIG=
202006161400 METAR MRPV 161400Z 12006KT CAVOK 24/18 A3004 NOSIG=
202006161500 METAR MRPV 161500Z 10003KT CAVOK 26/17 A3005 NOSIG=
202006161600 METAR MRPV 161600Z 30010KT 9999 FEW035 BKN200 24/19 A3006 NOSIG=
202006161700 METAR MRPV 161700Z 28009KT 9999 FEW035 BKN200 25/19 A3005 NOSIG=
202006161800 METAR MRPV 161800Z 28009KT 9999 SCT035 26/19 A3004 NOSIG=
202006161900 METAR MRPV 161900Z 28009KT 9999 SHRA FEW020TCU SCT035 26/20 A3001 NOSIG=
202006162000 METAR MRPV 162000Z 28008KT 9999 DZ BKN025 SCT100 26/20 A3000 RESHRA NOSIG=
202006162100 METAR MRPV 162100Z 28006KT 9999 DZ SCT010 BKN100 23/21 A2998 NOSIG=
202006162200 METAR MRPV 162200Z 28006KT 9999 FEW010CB SCT010 BKN100 23/21 A3000 NOSIG=
202006162300 METAR MRPV 162300Z 13005KT 8000 TSRA SCT010CB SCT010 21/20 A3002 NOSIG=
202006170000 METAR MRPV 170000Z 07004KT 4000 RA SCT015 BKN100 20/19 A3005 RETSRA NOSIG=
202006170100 METAR MRPV NIL=
202006170200 METAR MRPV NIL=
202006170300 METAR MRPV NIL=
202006170400 METAR MRPV NIL=
202006170500 METAR MRPV NIL=
202006170600 METAR MRPV NIL=
202006170700 METAR MRPV NIL=
202006170800 METAR MRPV NIL=
202006170900 METAR MRPV NIL=
202006171000 METAR MRPV NIL=
202006171100 METAR MRPV NIL=
202006171200 METAR MRPV 171200Z 10005KT CAVOK 18/17 A3005 NOSIG=
202006171300 METAR MRPV 171300Z 10003KT CAVOK 19/17 A3007 NOSIG=
202006171400 METAR MRPV 171400Z 05001KT CAVOK 22/17 A3008 NOSIG=
202006171500 METAR MRPV 171500Z 31003KT CAVOK 23/17 A3009 NOSIG=
202006171600 METAR MRPV 171600Z 30005KT 9999 FEW030 BKN200 25/18 A3008 NOSIG=
202006171700 METAR MRPV 171700Z 21003KT 9999 FEW045 BKN200 26/18 A3005 NOSIG=
202006171800 METAR MRPV 171800Z 28005KT 9999 FEW045 BKN200 27/18 A3004 NOSIG=
202006171900 METAR MRPV 171900Z 29009KT 9999 4500S RA VCTS SCT025CB SCT045 25/20 A3003 NOSIG=
202006172000 METAR MRPV 172000Z 09003KT 9999 VCSH SCT015TCU FEW035 BKN080 22/21 A3002 RETSRA NOSIG=
202006172100 METAR MRPV 172100Z 34004KT 9999 FEW010 BKN100 23/21 A3000 NOSIG=
202006172200 METAR MRPV 172200Z 28006KT 9999 FEW010 BKN100 23/20 A3000 NOSIG=
202006172300 METAR MRPV 172300Z 29006KT 9999 SCT010 BKN100 22/20 A3001 NOSIG=
202006180000 METAR MRPV 180000Z 28004KT 9999 BCFG FEW008 BKN100 21/20 A3002 NOSIG=
202006180100 METAR MRPV NIL=
202006180200 METAR MRPV NIL=
202006180300 METAR MRPV NIL=
202006180400 METAR MRPV NIL=
202006180500 METAR MRPV NIL=
202006180600 METAR MRPV NIL=
202006180700 METAR MRPV NIL=
202006180800 METAR MRPV NIL=
202006180900 METAR MRPV NIL=
202006181000 METAR MRPV NIL=
202006181100 METAR MRPV NIL=
202006181200 METAR MRPV 181200Z 13005KT CAVOK 21/18 A3000 NOSIG=
202006181300 METAR MRPV 181300Z 10011KT 9999 FEW030 BKN100 22/18 A3004 NOSIG=
202006181400 METAR MRPV 181400Z 11008KT 9999 FEW030 BKN100 22/18 A3005 NOSIG=
202006181500 METAR MRPV 181500Z 10008KT 9999 FEW030 BKN140 23/18 A3004 NOSIG=
202006181600 METAR MRPV 181600Z 10007KT CAVOK 24/18 A3003 NOSIG=
202006181700 METAR MRPV 181700Z 10008KT 9999 FEW040 BKN200 25/17 A3003 NOSIG=
202006181800 METAR MRPV 181800Z 09006KT 9999 FEW035 BKN200 26/17 A3003 NOSIG=
202006181900 METAR MRPV 181900Z 10008KT 9999 SCT035 BKN200 26/17 A3001 NOSIG=
202006182000 METAR MRPV 182000Z 09011KT 9999 SCT035 BKN120 26/18 A2998 NOSIG=
202006182100 METAR MRPV 182100Z 14002KT 9999 SCT040 BKN120 26/17 A2997 NOSIG=
202006182200 METAR MRPV 182200Z 29007KT 9999 FEW015 SCT045 BKN160 25/21 A2997 NOSIG=
202006182300 METAR MRPV 182300Z 29008KT 9999 BCFG BKN010 23/21 A2998 NOSIG=
202006190000 METAR MRPV 190000Z 30004KT 9999 OVC010 22/21 A2998 NOSIG=
202006190100 METAR MRPV NIL=
202006190200 METAR MRPV NIL=
202006190300 METAR MRPV NIL=
202006190400 METAR MRPV NIL=
202006190500 METAR MRPV NIL=
202006190600 METAR MRPV NIL=
202006190700 METAR MRPV NIL=
202006190800 METAR MRPV NIL=
202006190900 METAR MRPV NIL=
202006191000 METAR MRPV NIL=
202006191100 METAR MRPV NIL=
202006191200 METAR MRPV 191200Z COR VRB02KT 9999 BCFG FEW030 OVC100 19/17 A3002 NOSIG=
202006191300 METAR MRPV 191300Z 04003KT CAVOK 19/17 A3002 NOSIG=
202006191400 METAR MRPV 191400Z 13007KT CAVOK 22/17 A3002 NOSIG=
202006191500 METAR MRPV 191500Z 12006KT 9999 FEW030 OVC100 23/17 A3004 NOSIG=
202006191600 METAR MRPV 191600Z 10010KT 9999 FEW035 BKN160 26/18 A3003 NOSIG=
202006191700 METAR MRPV 191700Z 09011KT 9999 SCT040 BKN200 27/18 A3002 NOSIG=
202006191800 METAR MRPV 191800Z 08005KT 9999 BKN045 SCT200 27/18 A3001 NOSIG=
202006191900 METAR MRPV 191900Z 10006KT 9999 4000NW RA BKN035 25/19 A3000 NOSIG=
202006192000 METAR MRPV 192000Z 12006KT 9999 SCT035 SCT200 27/19 A2997 RERA NOSIG=
202006192100 METAR MRPV 192100Z COR 31008KT 9999 BKN025 24/21 A2997 NOSIG=
202006192200 METAR MRPV 192200Z 29007KT 8000 RA BCFG BKN015 SCT020 22/20 A2997 NOSIG=
202006192300 METAR MRPV 192300Z 29006KT 8000 SCT015 BKN030 22/20 A2999 RERA NOSIG=
202006200000 METAR MRPV 200000Z 34002KT 9999 FEW015 SCT030 BKN100 21/19 A3000 NOSIG=
202006200100 METAR MRPV NIL=
202006200200 METAR MRPV NIL=
202006200300 METAR MRPV NIL=
202006200400 METAR MRPV NIL=
202006200500 METAR MRPV NIL=
202006200600 METAR MRPV NIL=
202006200700 METAR MRPV NIL=
202006200800 METAR MRPV NIL=
202006200900 METAR MRPV NIL=
202006201000 METAR MRPV NIL=
202006201100 METAR MRPV NIL=
202006201200 METAR MRPV 201200Z 14006G16KT 9999 FEW040 SCT140 21/17 A2998 NOSIG=
202006201300 METAR MRPV 201300Z 14007KT 9999 FEW035 BKN140 22/17 A3001 NOSIG=
202006201400 METAR MRPV 201400Z 13006KT 9999 -RA FEW035 BKN120 22/17 A3002 NOSIG=
202006201500 METAR MRPV 201500Z 12005KT 9999 -DZ FEW035 BKN120 21/18 A3005 NOSIG=
202006201600 METAR MRPV 201600Z 15005KT 9999 FEW035 OVC100 21/18 A3005 NOSIG=
202006201700 METAR MRPV 201700Z 13005KT 9999 -RA SCT035 OVC090 20/19 A3006 NOSIG=
202006201800 METAR MRPV 201800Z 11005KT 9999 -DZ FEW015 SCT035 BKN100 21/18 A3004 NOSIG=
202006201900 METAR MRPV 201900Z 12006KT 9999 SCT035 BKN100 23/19 A3002 NOSIG=
202006202000 METAR MRPV 202000Z 11005KT 9999 SCT030 BKN100 24/18 A3000 NOSIG=
202006202100 METAR MRPV 202100Z 28006KT 9999 BCFG FEW015 SCT040 BKN100 22/20 A2998 NOSIG=
202006202200 METAR MRPV 202200Z 29008KT 9999 -RA BCFG FEW015 BKN100 21/19 A2998 NOSIG=
202006202300 METAR MRPV 202300Z 27002KT 5000 -RA BR FEW015 BKN100 21/19 A3000 NOSIG=
202006210000 METAR MRPV NIL=
202006210100 METAR MRPV NIL=
202006210200 METAR MRPV NIL=
202006210300 METAR MRPV NIL=
202006210400 METAR MRPV NIL=
202006210500 METAR MRPV NIL=
202006210600 METAR MRPV NIL=
202006210700 METAR MRPV NIL=
202006210800 METAR MRPV NIL=
202006210900 METAR MRPV NIL=
202006211000 METAR MRPV NIL=
202006211100 METAR MRPV NIL=
202006211200 METAR MRPV 211200Z COR 12006KT CAVOK 21/16 A2998 NOSIG=
202006211300 METAR MRPV 211300Z 15004KT CAVOK 22/16 A2999 NOSIG=
202006211400 METAR MRPV 211400Z 11005KT CAVOK 23/17 A3004 NOSIG=
202006211500 METAR MRPV 211500Z 30005KT CAVOK 22/18 A3006 NOSIG=
202006211600 METAR MRPV 211600Z 35003KT 9999 FEW045 BKN200 25/18 A3004 NOSIG=
202006211700 METAR MRPV 211700Z 24003KT 9999 FEW045 SCT080 BKN200 27/19 A3004 NOSIG=
202006211800 METAR MRPV 211800Z 30007KT 9999 BKN035 SCT200 26/20 A3003 NOSIG=
202006211900 METAR MRPV 211900Z 28004KT 9999 RA FEW005 BKN030 25/19 A3001 NOSIG=
202006212000 METAR MRPV 212000Z 28006KT 9999 TSRA SCT015CB BKN015 22/21 A3000 RESHRA NOSIG=
202006212100 METAR MRPV 212100Z 32004KT 9999 SCT005 BKN100 22/21 A2998 RETSRA NOSIG=
202006212200 METAR MRPV 212200Z 13007KT 9999 SHRA FEW010 FEW020TCU BKN100 22/19 A2997 NOSIG=
202006212300 METAR MRPV 212300Z 12005KT 9999 FEW010 SCT040 BKN100 21/19 A2999 NOSIG=
202006220000 METAR MRPV 220000Z 15005KT 9999 SCT010 BKN100 22/18 A3002 NOSIG=
202006220100 METAR MRPV NIL=
202006220200 METAR MRPV NIL=
202006220300 METAR MRPV NIL=
202006220400 METAR MRPV NIL=
202006220500 METAR MRPV NIL=
202006220600 METAR MRPV NIL=
202006220700 METAR MRPV NIL=
202006220800 METAR MRPV NIL=
202006220900 METAR MRPV NIL=
202006221000 METAR MRPV NIL=
202006221100 METAR MRPV NIL=
202006221200 METAR MRPV 221200Z 14005KT 9999 FEW035 BKN120 21/17 A3002 NOSIG=
202006221300 METAR MRPV 221300Z 13005KT 9999 FEW035 SCT120 22/18 A3003 NOSIG=
202006221400 METAR MRPV 221400Z 10010KT 9999 FEW035 SCT140 24/18 A3004 NOSIG=
202006221500 METAR MRPV 221500Z 08013KT 9999 FEW035 SCT160 25/18 A3006 NOSIG=
202006221600 METAR MRPV 221600Z 09012KT 9999 FEW035 SCT120 27/19 A3005 NOSIG=
202006221700 METAR MRPV 221700Z 09011KT 9999 FEW035 SCT200 27/18 A3004 NOSIG=
202006221800 METAR MRPV 221800Z 09008KT 9999 SCT040 28/18 A3002 NOSIG=
202006221900 METAR MRPV 221900Z 10008KT 9999 SCT045 29/18 A3000 NOSIG=
202006222000 METAR MRPV 222000Z 07010KT 9999 BKN040 28/18 A2998 NOSIG=
202006222100 METAR MRPV 222100Z 32006KT 9999 FEW020TCU FEW040 BKN200 24/22 A2998 NOSIG=
202006222200 METAR MRPV 222200Z 29007KT 9999 DZ BKN030 SCT200 24/21 A2999 NOSIG=
202006222300 METAR MRPV 222300Z 30003KT 9999 FEW002 FEW025TCU BKN200 23/21 A3000 NOSIG=
202006230000 METAR MRPV 230000Z 26001KT 9999 FEW025 BKN200 23/18 A3000 NOSIG=
202006230100 METAR MRPV NIL=
202006230200 METAR MRPV NIL=
202006230300 METAR MRPV NIL=
202006230400 METAR MRPV NIL=
202006230500 METAR MRPV NIL=
202006230600 METAR MRPV NIL=
202006230700 METAR MRPV NIL=
202006230800 METAR MRPV NIL=
202006230900 METAR MRPV NIL=
202006231000 METAR MRPV NIL=
202006231100 METAR MRPV NIL=
202006231200 METAR MRPV 231200Z 12008KT 9999 FEW040 BKN200 21/17 A2999 NOSIG=
202006231300 METAR MRPV 231300Z 15008KT 9999 FEW040 SCT100 21/17 A2999 NOSIG=
202006231400 METAR MRPV 231400Z 13008KT 9999 SCT030 BKN100 22/18 A3002 NOSIG=
202006231500 METAR MRPV 231500Z 12007KT 9999 SCT030 BKN120 23/18 A3001 NOSIG=
202006231600 METAR MRPV 231600Z 12006KT 9999 BKN030 23/18 A3002 NOSIG=
202006231700 METAR MRPV 231700Z 11007KT 9999 SCT025 SCT080 24/19 A3000 NOSIG=
202006231800 METAR MRPV 231800Z 08009KT 9999 SCT035 SCT200 27/18 A2996 NOSIG=
202006231900 METAR MRPV 231900Z 10008KT 9999 BKN035 25/18 A2995 NOSIG=
202006232000 METAR MRPV 232000Z 10008KT 9999 FEW020CB FEW030 BKN200 26/18 A2995 NOSIG=
202006232100 METAR MRPV 232100Z 11004KT 9999 BKN035 28/19 A2991 NOSIG=
202006232200 METAR MRPV 232200Z 29009KT 9999 BKN025 24/21 A2992 NOSIG=
202006232300 METAR MRPV 232300Z 29006KT 9999 BKN010 22/21 A2995 NOSIG=
202006240000 METAR MRPV 240000Z 03008KT 9999 RA FEW005 BKN010 21/20 A2998 NOSIG=
202006240100 METAR MRPV NIL=
202006240200 METAR MRPV NIL=
202006240300 METAR MRPV NIL=
202006240400 METAR MRPV NIL=
202006240500 METAR MRPV NIL=
202006240600 METAR MRPV NIL=
202006240700 METAR MRPV NIL=
202006240800 METAR MRPV NIL=
202006240900 METAR MRPV NIL=
202006241000 METAR MRPV NIL=
202006241100 METAR MRPV NIL=
202006241200 METAR MRPV 241200Z 11012KT CAVOK 22/17 A2999 NOSIG=
202006241300 METAR MRPV 241300Z 14006KT 9999 FEW040 SCT140 BKN200 22/17 A3001 NOSIG=
202006241400 METAR MRPV 241400Z 12009KT 9999 FEW040 SCT160 BKN200 23/17 A2999 NOSIG=
202006241500 METAR MRPV 241500Z 10013G23KT 9999 FEW040 BKN160 24/18 A3001 NOSIG=
202006241600 METAR MRPV 241600Z 08011KT 9999 FEW025 BKN100 24/18 A3001 NOSIG=
202006241700 METAR MRPV 241700Z 09012KT 9999 FEW025 BKN100 24/18 A3000 NOSIG=
202006241800 METAR MRPV 241800Z 08012KT 9999 -RA SCT035 BKN100 24/19 A2999 NOSIG=
202006241900 METAR MRPV 241900Z 08006KT 9999 FEW040 BKN200 27/18 A2997 NOSIG=
202006242000 METAR MRPV 242000Z 08007KT 9999 SCT040 BKN200 27/17 A2994 NOSIG=
202006242100 METAR MRPV 242100Z 07005KT 9999 FEW020 BKN200 26/17 A2993 TEMPO 32003KT=
202006242200 METAR MRPV 242200Z 08007KT 9999 FEW020 BKN180 25/17 A2993 NOSIG=
202006242300 METAR MRPV 242300Z 07005KT 9999 FEW005 SCT035 BKN200 24/17 A2995 NOSIG=
202006250000 METAR MRPV 250000Z 30005KT 9999 BCFG FEW005 SCT120 BKN200 21/20 A2996 NOSIG=
202006250100 METAR MRPV NIL=
202006250200 METAR MRPV NIL=
202006250300 METAR MRPV NIL=
202006250400 METAR MRPV NIL=
202006250500 METAR MRPV NIL=
202006250600 METAR MRPV NIL=
202006250700 METAR MRPV NIL=
202006250800 METAR MRPV NIL=
202006250900 METAR MRPV NIL=
202006251000 METAR MRPV NIL=
202006251100 METAR MRPV NIL=
202006251200 METAR MRPV 251200Z 12007KT 9999 FEW040 BKN200 21/17 A3001 NOSIG=
202006251300 METAR MRPV 251300Z 12008KT 9999 FEW040 BKN200 23/17 A3001 NOSIG=
202006251400 METAR MRPV 251400Z COR 09012KT 9999 FEW040 BKN200 23/17 A3003 NOSIG=
202006251500 METAR MRPV 251500Z 09015KT 9999 FEW030 BKN200 22/17 A3003 NOSIG=
202006251600 METAR MRPV 251600Z 07012G22KT 9999 FEW035 BKN200 24/16 A3003 NOSIG=
202006251700 METAR MRPV 251700Z 08015KT 9999 FEW040 BKN200 26/16 A3002 NOSIG=
202006251800 METAR MRPV 251800Z 08014KT 9999 FEW040 BKN200 26/15 A3002 NOSIG=
202006251900 METAR MRPV 251900Z 07015KT 9999 FEW045 BKN200 27/16 A3000 NOSIG=
202006252000 METAR MRPV 252000Z 08014KT 9999 FEW045 BKN200 26/15 A2999 NOSIG=
202006252100 METAR MRPV 252100Z 08014KT 9999 FEW045 BKN200 27/15 A2997 NOSIG=
202006252200 METAR MRPV 252200Z 08015KT 9999 FEW045 BKN200 26/15 A2996 NOSIG=
202006252300 METAR MRPV 252300Z 07012KT 9999 FEW040 BKN200 24/16 A2997 NOSIG=
202006260000 METAR MRPV 260000Z 08010KT 9999 FEW035 BKN200 23/16 A2999 NOSIG=
202006260100 METAR MRPV NIL=
202006260200 METAR MRPV NIL=
202006260300 METAR MRPV NIL=
202006260400 METAR MRPV NIL=
202006260500 METAR MRPV NIL=
202006260600 METAR MRPV NIL=
202006260700 METAR MRPV NIL=
202006260800 METAR MRPV NIL=
202006260900 METAR MRPV NIL=
202006261000 METAR MRPV NIL=
202006261100 METAR MRPV NIL=
202006261200 METAR MRPV 261200Z 12011KT 9999 FEW035 BKN250 21/16 A3001 NOSIG=
202006261300 METAR MRPV 261300Z 12012KT 9999 4500NE FEW035 BKN250 22/16 A3002 NOSIG=
202006261400 METAR MRPV 261400Z COR 10013KT 9999 -RA SCT035 BKN100 22/17 A3006 NOSIG=
202006261500 METAR MRPV 261500Z 11014G24KT 9999 SCT035 SCT120 22/14 A3006 NOSIG=
202006261600 METAR MRPV 261600Z 11011KT 9999 -RA FEW035 SCT120 BKN200 22/18 A3005 NOSIG=
202006261700 METAR MRPV 261700Z 08015KT 9999 FEW035 SCT140 BKN200 25/17 A3003 NOSIG=
202006261800 METAR MRPV 261800Z 09014KT 9999 FEW035 SCT120 BKN200 25/17 A3003 NOSIG=
202006261900 METAR MRPV 261900Z 08011KT 9999 RA BKN035 25/17 A3002 NOSIG=
202006262000 METAR MRPV 262000Z 11008KT 9999 DZ FEW035 BKN100 22/17 A3000 RERA NOSIG=
202006262100 METAR MRPV 262100Z 10009KT 9999 FEW040 SCT060 BKN100 22/17 A2999 REDZ NOSIG=
202006262200 METAR MRPV 262200Z 11007KT 9999 FEW040 BKN120 23/16 A2999 NOSIG=
202006262300 METAR MRPV 262300Z 13006KT 9999 FEW040 BKN120 23/15 A3000 NOSIG=
202006270000 METAR MRPV 270000Z 11009KT CAVOK 22/15 A3000 NOSIG=
202006270100 METAR MRPV NIL=
202006270200 METAR MRPV NIL=
202006270300 METAR MRPV NIL=
202006270400 METAR MRPV NIL=
202006270500 METAR MRPV NIL=
202006270600 METAR MRPV NIL=
202006270700 METAR MRPV NIL=
202006270800 METAR MRPV NIL=
202006270900 METAR MRPV NIL=
202006271000 METAR MRPV NIL=
202006271100 METAR MRPV NIL=
202006271200 METAR MRPV 271200Z 13005KT CAVOK 20/16 A3000 NOSIG=
202006271300 METAR MRPV 271300Z 13005KT CAVOK 20/16 A3000 NOSIG=
202006271400 METAR MRPV 271400Z 13001KT CAVOK 21/18 A3001 NOSIG=
202006271500 METAR MRPV 271500Z COR 30001KT CAVOK 22/17 A3003 BECMG 28004KT=
202006271600 METAR MRPV 271600Z VRB02KT CAVOK 24/17 A3001 NOSIG=
202006271700 METAR MRPV 271700Z 28008KT 9999 FEW035 SCT140 BKN180 25/19 A3000 NOSIG=
202006271800 METAR MRPV 271800Z 28009KT 9999 FEW030 BKN140 23/18 A3000 NOSIG=
202006271900 METAR MRPV 271900Z 30005KT 9999 SCT035 BKN140 24/19 A2999 NOSIG=
202006272000 METAR MRPV 272000Z 31003KT 9999 SCT035 BKN140 24/19 A2996 NOSIG=
202006272100 METAR MRPV 272100Z 27006KT 9999 SCT030 BKN140 24/19 A2995 NOSIG=
202006272200 METAR MRPV 272200Z COR 29007KT 9999 -DZ SCT025 SCT120 23/20 A2994 NOSIG=
202006272300 METAR MRPV 272300Z 14003KT 2000 +RA BKN010 20/19 A2997 NOSIG=
202006280000 METAR MRPV 280000Z 17003KT 4000 TSRA SCT010CB BKN020 20/19 A3000 NOSIG=
202006280100 METAR MRPV NIL=
202006280200 METAR MRPV NIL=
202006280300 METAR MRPV NIL=
202006280400 METAR MRPV NIL=
202006280500 METAR MRPV NIL=
202006280600 METAR MRPV NIL=
202006280700 METAR MRPV NIL=
202006280800 METAR MRPV NIL=
202006280900 METAR MRPV NIL=
202006281000 METAR MRPV NIL=
202006281100 METAR MRPV NIL=
202006281200 METAR MRPV 281200Z 12007KT CAVOK 21/16 A2999 NOSIG=
202006281300 METAR MRPV 281300Z 13007KT 9999 FEW030 BKN100 22/16 A3001 NOSIG=
202006281400 METAR MRPV 281400Z 12008KT CAVOK 23/16 A3001 NOSIG=
202006281500 METAR MRPV 281500Z 10007KT CAVOK 25/17 A3002 NOSIG=
202006281600 METAR MRPV 281600Z 08006KT CAVOK 25/17 A3002 NOSIG=
202006281700 METAR MRPV 281700Z 08008KT CAVOK 26/18 A3000 NOSIG=
202006281800 METAR MRPV 281800Z 10004KT 9999 BKN045 SCT100 26/18 A3000 NOSIG=
202006281900 METAR MRPV 281900Z 18003KT 9999 FEW030 BKN090 27/18 A2996 NOSIG=
202006282000 METAR MRPV 282000Z 12009KT 9999 SCT025 BKN100 26/17 A2994 NOSIG=
202006282100 METAR MRPV 282100Z 26006KT 9999 FEW010 BKN035 23/20 A2993 NOSIG=
202006282200 METAR MRPV 282200Z 29008KT 9999 BKN010 21/20 A2996 NOSIG=
202006282300 METAR MRPV 282300Z 29003KT 9999 FEW005 BKN015 21/19 A2997 NOSIG=
202006290000 METAR MRPV 290000Z VRB01KT 9999 FEW005 BKN100 21/19 A2996 NOSIG=
202006290100 METAR MRPV NIL=
202006290200 METAR MRPV NIL=
202006290300 METAR MRPV NIL=
202006290400 METAR MRPV NIL=
202006290500 METAR MRPV NIL=
202006290600 METAR MRPV NIL=
202006290700 METAR MRPV NIL=
202006290800 METAR MRPV NIL=
202006290900 METAR MRPV NIL=
202006291000 METAR MRPV NIL=
202006291100 METAR MRPV NIL=
202006291200 METAR MRPV 291200Z 13004KT CAVOK 21/17 A3001 NOSIG=
202006291300 METAR MRPV 291300Z VRB02KT CAVOK 21/19 A3003 NOSIG=
202006291400 METAR MRPV 291400Z 33003KT CAVOK 21/19 A3005 NOSIG=
202006291500 METAR MRPV 291500Z 32002KT 9999 FEW030 BKN100 22/19 A3006 NOSIG=
202006291600 METAR MRPV 291600Z 29004KT 9999 FEW025 BKN100 23/19 A3006 NOSIG=
202006291700 METAR MRPV 291700Z 30005KT 9999 FEW030 BKN100 25/19 A3003 NOSIG=
202006291800 METAR MRPV 291800Z 27006KT 9999 SCT040 SCT300 26/20 A3000 NOSIG=
202006291900 METAR MRPV 291900Z 07004KT 9999 FEW035 BKN250 28/18 A2997 NOSIG=
202006292000 METAR MRPV 292000Z 28004KT 9999 FEW025TCU BKN035 26/20 A2995 NOSIG=
202006292100 METAR MRPV 292100Z 34009KT 3000 TSRA SCT005CB BKN005 21/20 A2995 TEMPO RA=
202006292200 METAR MRPV 292200Z 34001KT 9999 -TSRA FEW005CB BKN020 SCT100 20/19 A2998 TEMPO RA=
202006292300 METAR MRPV 292300Z 10002KT 9999 RA VCTS FEW010CB FEW025 BKN100 20/19 A2999 NOSIG=
202006300000 METAR MRPV 300000Z 13005KT 9999 -RA FEW005 SCT030 BKN100 20/19 A3000 NOSIG=
202006300100 METAR MRPV NIL=
202006300200 METAR MRPV NIL=
202006300300 METAR MRPV NIL=
202006300400 METAR MRPV NIL=
202006300500 METAR MRPV NIL=
202006300600 METAR MRPV NIL=
202006300700 METAR MRPV NIL=
202006300800 METAR MRPV NIL=
202006300900 METAR MRPV NIL=
202006301000 METAR MRPV NIL=
202006301100 METAR MRPV NIL=
202006301200 METAR MRPV 301200Z 11009KT 9999 FEW020 BKN090 20/17 A3001 NOSIG=
202006301300 METAR MRPV 301300Z 11010KT 9999 FEW025 BKN100 21/16 A3002 NOSIG=
202006301400 METAR MRPV 301400Z 10013KT 9999 FEW040 BKN100 21/16 A3003 NOSIG=
202006301500 METAR MRPV 301500Z 10013KT 9999 FEW045 BKN110 23/17 A3003 NOSIG=
202006301600 METAR MRPV 301600Z 11011KT 9999 FEW045 BKN120 24/18 A3002 NOSIG=
202006301700 METAR MRPV 301700Z 10011KT 9999 FEW045 SCT120 26/18 A3000 NOSIG=
202006301800 METAR MRPV 301800Z 09013KT 9999 FEW045 BKN120 26/17 A2999 NOSIG=
202006301900 METAR MRPV 301900Z 08013KT 9999 FEW045 BKN120 26/17 A2998 NOSIG=
202006302000 METAR MRPV 302000Z 07008KT 9999 FEW040 BKN120 26/18 A2996 NOSIG=
202006302100 METAR MRPV 302100Z 06011KT 9999 SCT025 BKN100 24/17 A2996 TEMPO RA=
202006302200 METAR MRPV 302200Z 09008KT 9999 -RA BKN045 SCT100 22/18 A2997 NOSIG=
202006302300 METAR MRPV 302300Z 10009KT 9999 -RA FEW040 BKN100 22/17 A2999 NOSIG=
202007010000 METAR MRPV 010000Z 10010KT 9999 -RA FEW045 OVC100 21/17 A3000 NOSIG=
202007010100 METAR MRPV NIL=
202007010200 METAR MRPV NIL=
202007010300 METAR MRPV NIL=
202007010400 METAR MRPV NIL=
202007010500 METAR MRPV NIL=
202007010600 METAR MRPV NIL=
202007010700 METAR MRPV NIL=
202007010800 METAR MRPV NIL=
202007010900 METAR MRPV NIL=
202007011000 METAR MRPV NIL=
202007011100 METAR MRPV NIL=
202007011200 METAR MRPV 011200Z 10007KT CAVOK 20/16 A2998 NOSIG=
202007011300 METAR MRPV 011300Z 13005KT CAVOK 21/16 A2998 NOSIG=
202007011400 METAR MRPV 011400Z 13011KT 9999 FEW035 BKN120 22/15 A3000 NOSIG=
202007011500 METAR MRPV 011500Z 10013KT 9999 FEW040 BKN120 23/15 A3002 NOSIG=
202007011600 METAR MRPV 011600Z 12009KT 9999 FEW040 SCT120 24/16 A3002 NOSIG=
202007011700 METAR MRPV 011700Z 10014KT 9999 FEW045 SCT140 25/16 A3002 NOSIG=
202007011800 METAR MRPV 011800Z 08013KT 9999 FEW040 BKN140 26/16 A3000 NOSIG=
202007011900 METAR MRPV 011900Z 09009KT 9999 FEW045 BKN140 27/17 A2998 NOSIG=
202007012000 METAR MRPV 012000Z 08008KT 9999 SCT045 BKN140 26/17 A2995 NOSIG=
202007012100 METAR MRPV 012100Z 27006KT 9999 FEW010 SCT025 BKN045 22/20 A2995 TEMPO RA=
202007012200 METAR MRPV 012200Z 30009KT 9999 4000N -RA BCFG FEW005 SCT008 BKN030 21/19 A2996 NOSIG=
202007012300 METAR MRPV 012300Z 32002KT 8000 3500W RA BCFG FEW005 BKN030 20/19 A2999 NOSIG=
202007020000 METAR MRPV 020000Z 28001KT 9999 BCFG FEW003 BKN050 19/18 A3000 RERA NOSIG=
202007020100 METAR MRPV NIL=
202007020200 METAR MRPV NIL=
202007020300 METAR MRPV NIL=
202007020400 METAR MRPV NIL=
202007020500 METAR MRPV NIL=
202007020600 METAR MRPV NIL=
202007020700 METAR MRPV NIL=
202007020800 METAR MRPV NIL=
202007020900 METAR MRPV NIL=
202007021000 METAR MRPV NIL=
202007021100 METAR MRPV NIL=
202007021200 METAR MRPV 021200Z 12008KT 9999 FEW035 BKN225 20/16 A3001 NOSIG=
202007021300 METAR MRPV 021300Z 13006KT 9999 FEW035 BKN200 22/16 A3001 NOSIG=
202007021400 METAR MRPV 021400Z 12010KT CAVOK 23/16 A3001 NOSIG=
202007021500 METAR MRPV 021500Z 10009KT CAVOK 25/17 A3003 NOSIG=
202007021600 METAR MRPV 021600Z 09006KT 9999 FEW040 BKN200 26/17 A3003 NOSIG=
202007021700 METAR MRPV 021700Z 07005KT 9999 FEW040 BKN200 26/17 A3001 NOSIG=
202007021800 METAR MRPV 021800Z 29010KT 9999 SCT030 SCT200 25/20 A3000 NOSIG=
202007021900 METAR MRPV 021900Z 28012KT 9999 3000 RA SCT025 SCT080 23/20 A2998 NOSIG=
202007022000 METAR MRPV 022000Z 33010KT 5000 -TSRA FEW020CB SCT030 BKN060 21/19 A2999 NOSIG=
202007022100 METAR MRPV 022100Z 33006KT 8000 BCFG FEW010 BKN025 20/19 A2999 RERA NOSIG=
202007022200 METAR MRPV 022200Z 04002KT 4000 DZ SCT010 BKN025 20/19 A2999 NOSIG=
202007022300 METAR MRPV 022300Z 11002KT 8000 -RA FEW010 SCT025 BKN100 20/19 A2998 NOSIG=
202007030000 METAR MRPV 030000Z 00000KT 9999 BCFG FEW010 SCT100 BKN200 20/19 A3000 NOSIG=
202007030100 METAR MRPV NIL=
202007030200 METAR MRPV NIL=
202007030300 METAR MRPV NIL=
202007030400 METAR MRPV NIL=
202007030500 METAR MRPV NIL=
202007030600 METAR MRPV NIL=
202007030700 METAR MRPV NIL=
202007030800 METAR MRPV NIL=
202007030900 METAR MRPV NIL=
202007031000 METAR MRPV NIL=
202007031100 METAR MRPV NIL=
202007031200 METAR MRPV 031200Z 28002KT 9999 BCFG FEW010 BKN200 19/17 A2999 NOSIG=
202007031300 METAR MRPV 031300Z 02003KT 9999 FEW010 SCT120 BKN200 22/18 A2999 NOSIG=
202007031400 METAR MRPV 031400Z 11008KT CAVOK 24/17 A2999 NOSIG=
202007031500 METAR MRPV 031500Z 10014KT 9999 FEW035 BKN120 24/17 A3002 NOSIG=
202007031600 METAR MRPV 031600Z 10010KT 9999 FEW040 SCT120 26/18 A3001 NOSIG=
202007031700 METAR MRPV 031700Z 10006KT 9999 SCT035 SCT100 27/18 A2999 NOSIG=
202007031800 METAR MRPV 031800Z 09010KT 9999 SCT040 SCT100 27/18 A2998 NOSIG=
202007031900 METAR MRPV 031900Z 08015KT 9999 BKN030 27/18 A2994 NOSIG=
202007032000 METAR MRPV 032000Z 28007KT 9999 BKN025 24/20 A2995 NOSIG=
202007032100 METAR MRPV 032100Z COR 10010KT 8000 -RA VCTS FEW010CB SCT025 BKN100 23/18 A2993 RESHRA NOSIG=
202007032200 METAR MRPV 032200Z 12009KT 5000 -RA BCFG FEW015 SCT030 BKN100 23/18 A2994 NOSIG=
202007032300 METAR MRPV 032300Z 13003KT 3500 BR FEW002 SCT025 BKN100 21/19 A2995 NOSIG=
202007040000 METAR MRPV 040000Z 12003KT 9999 SCT030 BKN100 21/19 A2997 NOSIG=
202007040100 METAR MRPV NIL=
202007040200 METAR MRPV NIL=
202007040300 METAR MRPV NIL=
202007040400 METAR MRPV NIL=
202007040500 METAR MRPV NIL=
202007040600 METAR MRPV NIL=
202007040700 METAR MRPV NIL=
202007040800 METAR MRPV NIL=
202007040900 METAR MRPV NIL=
202007041000 METAR MRPV NIL=
202007041100 METAR MRPV NIL=
202007041200 METAR MRPV 041200Z 13008KT 9999 FEW030 SCT250 21/17 A2998 NOSIG=
202007041300 METAR MRPV 041300Z 11007KT 9999 FEW025 BKN250 23/17 A3000 NOSIG=
202007041400 METAR MRPV 041400Z 09012KT 9999 FEW035 BKN250 24/18 A3000 NOSIG=
202007041500 METAR MRPV 041500Z 09013KT 9999 SCT030 SCT250 24/18 A3002 NOSIG=
202007041600 METAR MRPV 041600Z 09011KT 9999 BKN030 SCT200 24/18 A3003 NOSIG=
202007041700 METAR MRPV 041700Z 09010KT 9999 BKN030 25/18 A3003 NOSIG=
202007041800 METAR MRPV 041800Z 10008KT 9999 SCT035 BKN120 25/18 A3002 NOSIG=
202007041900 METAR MRPV 041900Z 10008KT 9999 SCT035 BKN120 25/18 A2999 NOSIG=
202007042000 METAR MRPV 042000Z 30008KT 9999 SCT030 BKN120 24/20 A2997 NOSIG=
202007042100 METAR MRPV 042100Z 30010KT 9999 RA BKN025 24/20 A2997 NOSIG=
202007042200 METAR MRPV 042200Z 21004KT 5000 RA BKN035 19/19 A2997 RETSRA NOSIG=
202007042300 METAR MRPV 042300Z 00000KT 9999 4000NE RA BKN015 SCT100 20/19 A3000 NOSIG=
202007050000 METAR MRPV 050000Z 32002KT 5000 RA SCT030 BKN100 20/19 A3002 NOSIG=
202007050100 METAR MRPV NIL=
202007050200 METAR MRPV NIL=
202007050300 METAR MRPV NIL=
202007050400 METAR MRPV NIL=
202007050500 METAR MRPV NIL=
202007050600 METAR MRPV NIL=
202007050700 METAR MRPV NIL=
202007050800 METAR MRPV NIL=
202007050900 METAR MRPV NIL=
202007051000 METAR MRPV NIL=
202007051100 METAR MRPV NIL=
202007051200 METAR MRPV 051200Z 15006KT CAVOK 19/16 A3001 NOSIG=
202007051300 METAR MRPV 051300Z 14004KT CAVOK 21/16 A3003 NOSIG=
202007051400 METAR MRPV 051400Z 11007KT CAVOK 23/16 A3004 NOSIG=
202007051500 METAR MRPV 051500Z 10009KT CAVOK 25/17 A3005 NOSIG=
202007051600 METAR MRPV 051600Z 08010KT CAVOK 26/17 A3005 NOSIG=
202007051700 METAR MRPV 051700Z 08010KT CAVOK 28/17 A3002 NOSIG=
202007051800 METAR MRPV 051800Z 07007KT CAVOK 27/17 A3000 NOSIG=
202007051900 METAR MRPV 051900Z 08011KT 9999 SCT040 BKN100 27/18 A2998 NOSIG=
202007052000 METAR MRPV 052000Z 30010KT 9999 BKN035 SCT200 25/19 A2997 NOSIG=
202007052100 METAR MRPV 052100Z 29009KT 9999 FEW015CB BKN025 23/20 A2996 NOSIG=
202007052200 METAR MRPV 052200Z 30006KT 9999 RA BKN005 22/20 A2997 NOSIG=
202007052300 METAR MRPV 052300Z 33003KT 9999 BKN010 22/19 A2999 RERA NOSIG=
202007060000 METAR MRPV 060000Z 30003KT 9999 BKN005 21/20 A3000 NOSIG=
202007060100 METAR MRPV NIL=
202007060200 METAR MRPV NIL=
202007060300 METAR MRPV NIL=
202007060400 METAR MRPV NIL=
202007060500 METAR MRPV NIL=
202007060600 METAR MRPV NIL=
202007060700 METAR MRPV NIL=
202007060800 METAR MRPV NIL=
202007060900 METAR MRPV NIL=
202007061000 METAR MRPV NIL=
202007061100 METAR MRPV NIL=
202007061200 METAR MRPV 061200Z 13007KT 9999 SCT025 SCT100 21/17 A3003 NOSIG=
202007061300 METAR MRPV 061300Z 11007KT 9999 FEW040 SCT100 23/17 A3004 NOSIG=
202007061400 METAR MRPV 061400Z 09012KT 9999 FEW040 SCT110 23/17 A3006 NOSIG=
202007061500 METAR MRPV 061500Z 08011KT 9999 FEW040 BKN200 24/16 A3006 NOSIG=
202007061600 METAR MRPV 061600Z 08011KT 9999 FEW040 BKN200 26/17 A3006 NOSIG=
202007061700 METAR MRPV 061700Z 06010KT 9999 FEW045 BKN200 27/17 A3005 NOSIG=
202007061800 METAR MRPV 061800Z 07010KT 9999 SCT040 BKN200 27/17 A3004 NOSIG=
202007061900 METAR MRPV 061900Z 07010KT 9999 SCT045 BKN200 27/16 A3003 NOSIG=
202007062000 METAR MRPV 062000Z 27004KT 340V270 9999 FEW015 SCT040 BKN200 25/20 A3002 NOSIG=
202007062100 METAR MRPV 062100Z 28009KT 9999 FEW015 SCT035 BKN200 24/20 A3002 NOSIG=
202007062200 METAR MRPV 062200Z 29008KT 9999 FEW010 SCT030 BKN200 23/20 A3001 NOSIG=
202007062300 METAR MRPV 062300Z 27005KT 9999 BCFG FEW005 BKN010 22/20 A3003 NOSIG=
202007070000 METAR MRPV 070000Z 28004KT 8000 BCFG FEW005 BKN010 21/20 A3004 NOSIG=
202007070100 METAR MRPV NIL=
202007070200 METAR MRPV NIL=
202007070300 METAR MRPV NIL=
202007070400 METAR MRPV NIL=
202007070500 METAR MRPV NIL=
202007070600 METAR MRPV NIL=
202007070700 METAR MRPV NIL=
202007070800 METAR MRPV NIL=
202007070900 METAR MRPV NIL=
202007071000 METAR MRPV NIL=
202007071100 METAR MRPV NIL=
202007071200 METAR MRPV 071200Z 12010KT 9999 FEW045 BKN200 20/15 A3004 NOSIG=
202007071300 METAR MRPV 071300Z 12008KT 9999 FEW030 BKN200 22/16 A3005 NOSIG=
202007071400 METAR MRPV 071400Z 10012KT 9999 SCT040 BKN200 20/16 A3006 NOSIG=
202007071500 METAR MRPV 071500Z 10015KT 9999 FEW040 BKN200 24/17 A3006 NOSIG=
202007071600 METAR MRPV 071600Z 08013KT 9999 SCT040 SCT200 25/16 A3007 NOSIG=
202007071700 METAR MRPV 071700Z 09012KT 9999 SCT040 24/17 A3006 NOSIG=
202007071800 METAR MRPV 071800Z 07012KT 9999 FEW035 SCT080 25/17 A3005 NOSIG=
202007071900 METAR MRPV 071900Z 08013KT 9999 FEW035 BKN070 25/16 A3004 NOSIG=
202007072000 METAR MRPV 072000Z 09011KT 9999 FEW035 BKN090 27/18 A3001 NOSIG=
202007072100 METAR MRPV 072100Z 06012KT 9999 FEW030 SCT100 26/17 A3000 NOSIG=
202007072200 METAR MRPV 072200Z 10011KT 9999 FEW030 BKN080 24/17 A3000 NOSIG=
202007072300 METAR MRPV 072300Z 13007KT 9999 FEW025 SCT060 23/17 A2999 NOSIG=
202007080000 METAR MRPV 080000Z 11009KT 9999 FEW020 SCT220 22/17 A3001 NOSIG=
202007080100 METAR MRPV NIL=
202007080200 METAR MRPV NIL=
202007080300 METAR MRPV NIL=
202007080400 METAR MRPV NIL=
202007080500 METAR MRPV NIL=
202007080600 METAR MRPV NIL=
202007080700 METAR MRPV NIL=
202007080800 METAR MRPV NIL=
202007080900 METAR MRPV NIL=
202007081000 METAR MRPV NIL=
202007081100 METAR MRPV NIL=
202007081200 METAR MRPV 081200Z 13008KT 9999 FEW030 BKN100 21/16 A3001 NOSIG=
202007081300 METAR MRPV 081300Z 11011KT 9999 -RA FEW035 SCT100 BKN120 21/16 A3003 NOSIG=
202007081400 METAR MRPV 081400Z 13010G22KT 9999 -RA FEW035 SCT100 BKN120 21/16 A3004 NOSIG=
202007081500 METAR MRPV 081500Z 14009KT 9999 -RA FEW035 OVC120 21/16 A3005 NOSIG=
202007081600 METAR MRPV 081600Z 11015KT 9999 FEW035 OVC120 21/15 A3006 NOSIG=
202007081700 METAR MRPV 081700Z 12005KT 9999 -RA NSC 21/16 A3005 NOSIG=
202007081800 METAR MRPV 081800Z 12007KT CAVOK 23/16 A3001 NOSIG=
202007081900 METAR MRPV 081900Z 09014KT 9999 FEW040 BKN120 25/17 A2999 NOSIG=
202007082000 METAR MRPV 082000Z 11003KT 9999 FEW040 SCT100 BKN120 25/17 A2997 NOSIG=
202007082100 METAR MRPV 082100Z 05008KT 9999 FEW035 BKN120 26/16 A2997 NOSIG=
202007082200 METAR MRPV 082200Z 07008KT 9999 FEW035 SCT120 BKN200 25/16 A2996 NOSIG=
202007082300 METAR MRPV 082300Z 09006KT 9999 FEW035 BKN100 24/16 A2995 NOSIG=
202007090000 METAR MRPV 090000Z 10007KT 9999 VCFG SCT030 BKN100 22/16 A2996 NOSIG=
202007090100 METAR MRPV NIL=
202007090200 METAR MRPV NIL=
202007090300 METAR MRPV NIL=
202007090400 METAR MRPV NIL=
202007090500 METAR MRPV NIL=
202007090600 METAR MRPV NIL=
202007090700 METAR MRPV NIL=
202007090800 METAR MRPV NIL=
202007090900 METAR MRPV NIL=
202007091000 METAR MRPV NIL=
202007091100 METAR MRPV NIL=
202007091200 METAR MRPV 091200Z 13004KT CAVOK 20/16 A2999 NOSIG=
202007091300 METAR MRPV 091300Z 14004KT 9999 FEW040 BKN120 21/16 A3000 NOSIG=
202007091400 METAR MRPV 091400Z 13006KT 9999 FEW030 SCT140 BKN200 22/17 A2999 NOSIG=
202007091500 METAR MRPV 091500Z 10013KT 9999 FEW030 SCT140 BKN200 24/17 A3001 NOSIG=
202007091600 METAR MRPV 091600Z 10010KT 9999 FEW035 BKN200 24/17 A3001 NOSIG=
202007091700 METAR MRPV 091700Z 06002KT 9999 SCT035 BKN160 26/20 A3000 NOSIG=
202007091728 METAR MRPV 091728Z 27002KT 9999 SCT030 BKN140 27/17 A2999 NOSIG=
202007091800 METAR MRPV 091800Z 28010KT 9999 SCT030 BKN120 25/19 A2999 NOSIG=
202007091900 METAR MRPV 091900Z COR 30008KT 9999 DZ SCT025 BKN100 23/18 A2997 NOSIG=
202007092000 METAR MRPV 092000Z 30008KT 8000 -DZ BCFG SCT020 BKN100 22/20 A2997 NOSIG=
202007092100 METAR MRPV 092100Z 29006KT 5000 -RA BCFG SCT020 SCT100 21/19 A2996 NOSIG=
202007092200 METAR MRPV 092200Z 31007KT 8000 FEW020 BKN100 22/19 A2996 NOSIG=
202007092300 METAR MRPV 092300Z 31004KT 9999 BCFG SCT020 BKN100 22/19 A2997 NOSIG=
202007100000 METAR MRPV 100000Z 27002KT 5000 BCFG SCT025 BKN100 21/19 A2998 NOSIG=
202007100100 METAR MRPV NIL=
202007100200 METAR MRPV NIL=
202007100300 METAR MRPV NIL=
202007100400 METAR MRPV NIL=
202007100500 METAR MRPV NIL=
202007100600 METAR MRPV NIL=
202007100700 METAR MRPV NIL=
202007100800 METAR MRPV NIL=
202007100900 METAR MRPV NIL=
202007101000 METAR MRPV NIL=
202007101100 METAR MRPV NIL=
202007101200 METAR MRPV 101200Z 11004KT 9999 FEW030 BKN100 19/17 A3004 NOSIG=
202007101300 METAR MRPV 101300Z 13007KT 9999 FEW030 BKN120 21/18 A3005 NOSIG=
202007101400 METAR MRPV 101400Z 11005KT 9999 FEW040 SCT120 24/17 A3004 NOSIG=
202007101500 METAR MRPV 101500Z 05004KT 9999 FEW040 SCT200 24/18 A3005 NOSIG=
202007101600 METAR MRPV 101600Z 10011KT 9999 FEW035 SCT200 25/18 A3005 NOSIG=
202007101700 METAR MRPV 101700Z 09013KT 9999 SCT020TCU SCT035 26/19 A3004 NOSIG=
202007101800 METAR MRPV 101800Z 29007KT 9999 SCT020TCU SCT035 24/20 A3004 NOSIG=
202007101900 METAR MRPV 101900Z 15007KT 9999 SCT035 BKN200 28/20 A3000 NOSIG=
202007102000 METAR MRPV 102000Z 28007KT 9999 BKN030 25/21 A3001 NOSIG=
202007102100 METAR MRPV 102100Z VRB02KT 9999 SCT020TCU SCT200 24/19 A3001 TEMPO SHRA=
202007102200 METAR MRPV 102200Z 03007KT 9999 BKN030 25/17 A3001 TEMPO RA=
202007102300 METAR MRPV 102300Z 28006KT 9999 SCT030 SCT250 21/19 A3003 NOSIG=
202007110000 METAR MRPV 110000Z 27004KT 9999 BKN010 20/19 A3005 NOSIG=
202007110100 METAR MRPV NIL=
202007110200 METAR MRPV NIL=
202007110300 METAR MRPV NIL=
202007110400 METAR MRPV NIL=
202007110500 METAR MRPV NIL=
202007110600 METAR MRPV NIL=
202007110700 METAR MRPV NIL=
202007110800 METAR MRPV NIL=
202007110900 METAR MRPV NIL=
202007111000 METAR MRPV NIL=
202007111100 METAR MRPV NIL=
202007111200 METAR MRPV 111200Z 11008KT 5000 RA SCT035 BKN100 19/17 A3007 TEMPO 8000=
202007111300 METAR MRPV 111300Z 11007KT 9000 RA NSC 18/17 A3006 BECMG 9999 -RA=
202007111400 METAR MRPV 111400Z 13008KT CAVOK 21/17 A3004 NOSIG=
202007111500 METAR MRPV 111500Z 11013KT CAVOK 23/16 A3004 NOSIG=
202007111600 METAR MRPV 111600Z 10014KT CAVOK 24/17 A3006 NOSIG=
202007111700 METAR MRPV 111700Z 08013KT 9999 FEW035 BKN200 24/15 A3007 NOSIG=
202007111800 METAR MRPV 111800Z 09013KT 9999 FEW035 SCT120 BKN200 24/16 A3004 NOSIG=
202007111900 METAR MRPV 111900Z 09011KT 9999 FEW045 BKN120 24/16 A3003 NOSIG=
202007112000 METAR MRPV 112000Z 08011KT 9999 FEW040 BKN120 25/17 A3002 NOSIG=
202007112100 METAR MRPV 112100Z 10007KT 9999 FEW040 BKN120 25/17 A3000 NOSIG=
202007112200 METAR MRPV 112200Z 08007KT CAVOK 25/16 A3001 NOSIG=
202007112300 METAR MRPV 112300Z 30010KT 9999 FEW020TCU FEW035 BKN200 22/19 A3002 NOSIG=
202007120000 METAR MRPV 120000Z 28004KT 9999 FEW005 BKN100 21/19 A3004 NOSIG=
202007120100 METAR MRPV NIL=
202007120200 METAR MRPV NIL=
202007120300 METAR MRPV NIL=
202007120400 METAR MRPV NIL=
202007120500 METAR MRPV NIL=
202007120600 METAR MRPV NIL=
202007120700 METAR MRPV NIL=
202007120800 METAR MRPV NIL=
202007120900 METAR MRPV NIL=
202007121000 METAR MRPV NIL=
202007121100 METAR MRPV NIL=
202007121200 METAR MRPV 121200Z 15005KT 9999 FEW035 BKN120 20/16 A3004 NOSIG=
202007121300 METAR MRPV 121300Z 12006KT CAVOK 21/16 A3004 NOSIG=
202007121400 METAR MRPV 121400Z 13006KT CAVOK 24/16 A3005 NOSIG=
202007121500 METAR MRPV 121500Z 09012KT 9999 FEW045 BKN200 25/17 A3004 NOSIG=
202007121600 METAR MRPV 121600Z 07009KT 9999 SCT045 SCT100 26/17 A3005 BECMG 29005KT=
202007121700 METAR MRPV 121700Z 09012KT 9999 FEW040 BKN090 25/17 A3005 NOSIG=
202007121800 METAR MRPV 121800Z 10008KT 9999 -RA SCT035 BKN100 24/17 A3004 NOSIG=
202007121900 METAR MRPV 121900Z 10008KT 9999 FEW035 BKN060 25/18 A3001 NOSIG=
202007122000 METAR MRPV 122000Z 12004KT 9999 FEW030 SCT045 BKN080 24/18 A3000 NOSIG=
202007122100 METAR MRPV 122100Z 12008KT 9999 FEW020 BKN100 22/18 A2998 REDZ NOSIG=
202007122200 METAR MRPV 122200Z 09009KT 9999 FEW025 BKN160 22/18 A2997 NOSIG=
202007122300 METAR MRPV 122300Z 13004KT 9999 FEW020 BKN160 23/18 A2997 NOSIG=
202007130000 METAR MRPV 130000Z 32003KT 100V320 9999 VCFG FEW005 BKN160 21/20 A2999 NOSIG=
202007130100 METAR MRPV NIL=
202007130200 METAR MRPV NIL=
202007130300 METAR MRPV NIL=
202007130400 METAR MRPV NIL=
202007130500 METAR MRPV NIL=
202007130600 METAR MRPV NIL=
202007130700 METAR MRPV NIL=
202007130800 METAR MRPV NIL=
202007130900 METAR MRPV NIL=
202007131000 METAR MRPV NIL=
202007131100 METAR MRPV NIL=
202007131200 METAR MRPV 131200Z 13010KT 9999 -RA FEW020 SCT045 BKN120 21/16 A3005 NOSIG=
202007131300 METAR MRPV 131300Z 10012KT 9999 -RA FEW040 OVC120 21/17 A3007 NOSIG=
202007131400 METAR MRPV 131400Z 09008KT 9999 -RA FEW035 OVC120 20/17 A3008 NOSIG=
202007131500 METAR MRPV 131500Z 13007KT 9999 -RA FEW035 OVC120 19/17 A3010 NOSIG=
202007131600 METAR MRPV 131600Z 12007KT 9999 -RA NSC 20/17 A3010 NOSIG=
202007131700 METAR MRPV 131700Z 11008KT 9999 -RA NSC 20/17 A3007 NOSIG=
202007131800 METAR MRPV 131800Z 09008KT 9999 -DZ NSC 22/17 A3006 NOSIG=
202007131900 METAR MRPV 131900Z 11007KT CAVOK 23/15 A3004 NOSIG=
202007132000 METAR MRPV 132000Z 08003KT 9999 FEW015 OVC120 24/15 A3002 TEMPO 32005KT=
202007132100 METAR MRPV 132100Z 31004KT 9999 FEW015 OVC120 22/19 A3001 NOSIG=
202007132200 METAR MRPV 132200Z 20001KT 9999 FEW015 OVC110 22/17 A2999 NOSIG=
202007132300 METAR MRPV 132300Z 30005KT 9999 VCFG FEW007 OVC110 21/19 A3000 NOSIG=
202007140000 METAR MRPV 140000Z 00000KT 9999 VCFG FEW005 OVC100 20/19 A3001 NOSIG=
202007140100 METAR MRPV NIL=
202007140200 METAR MRPV NIL=
202007140300 METAR MRPV NIL=
202007140400 METAR MRPV NIL=
202007140500 METAR MRPV NIL=
202007140600 METAR MRPV NIL=
202007140700 METAR MRPV NIL=
202007140800 METAR MRPV NIL=
202007140900 METAR MRPV NIL=
202007141000 METAR MRPV NIL=
202007141100 METAR MRPV NIL=
202007141200 METAR MRPV 141200Z COR 12006KT 9999 FEW045 SCT080 BKN160 21/17 A3000 NOSIG=
202007141300 METAR MRPV 141300Z COR 11010KT 9999 -RA SCT035 BKN100 20/17 A3003 NOSIG=
202007141400 METAR MRPV 141400Z 12007KT 9999 FEW040 BKN100 22/16 A3002 NOSIG=
202007141500 METAR MRPV 141500Z 10012KT 9999 FEW035 BKN200 24/17 A3003 NOSIG=
202007141600 METAR MRPV 141600Z 09012KT 9999 FEW040 BKN200 25/18 A3002 NOSIG=
202007141700 METAR MRPV 141700Z 08011KT 9999 SCT040 SCT200 26/17 A3003 NOSIG=
202007141800 METAR MRPV 141800Z 07008KT 9999 -DZ SCT035 SCT200 25/17 A3002 NOSIG=
202007141900 METAR MRPV 141900Z 32003KT 9999 -DZ SCT030 SCT060 24/20 A3001 NOSIG=
202007142000 METAR MRPV 142000Z 26004KT 9999 3500SE -RA FEW010 BKN025 23/21 A3000 NOSIG=
202007142100 METAR MRPV 142100Z 20002KT 9999 SCT025 BKN200 24/19 A2999 NOSIG=
202007142200 METAR MRPV 142200Z 31007KT 9999 FEW015 SCT035 BKN120 23/19 A3000 NOSIG=
202007142300 METAR MRPV 142300Z 24002KT 9999 -RA FEW015 SCT030 BKN120 22/19 A3001 NOSIG=
202007150000 METAR MRPV 150000Z 00000KT 9999 -RA SCT030 BKN100 21/19 A3003 NOSIG=
202007150100 METAR MRPV NIL=
202007150200 METAR MRPV NIL=
202007150300 METAR MRPV NIL=
202007150400 METAR MRPV NIL=
202007150500 METAR MRPV NIL=
202007150600 METAR MRPV NIL=
202007150700 METAR MRPV NIL=
202007150800 METAR MRPV NIL=
202007150900 METAR MRPV NIL=
202007151000 METAR MRPV NIL=
202007151100 METAR MRPV NIL=
202007151200 METAR MRPV 151200Z 14005KT 9999 FEW030 BKN200 20/17 A2999 NOSIG=
202007151300 METAR MRPV 151300Z 14005KT 9999 FEW045 SCT200 22/17 A3000 NOSIG=
202007151400 METAR MRPV 151400Z 12005KT CAVOK 25/17 A3003 NOSIG=
202007151500 METAR MRPV 151500Z 30010KT 9999 FEW030 SCT120 23/18 A3005 NOSIG=
202007151600 METAR MRPV 151600Z 31010KT 9999 SCT030 SCT120 24/18 A3005 NOSIG=
202007151700 METAR MRPV 151700Z 30008KT 9999 RA SCT015 BKN100 22/19 A3004 NOSIG=
202007151800 METAR MRPV 151800Z 26002KT 9999 SCT030 BKN120 24/19 A3003 RERA NOSIG=
202007151900 METAR MRPV 151900Z 13005KT 9999 SCT035 BKN100 24/19 A3000 NOSIG=
202007152000 METAR MRPV 152000Z 12006KT 9999 FEW020CB SCT030 SCT120 27/19 A2997 NOSIG=
202007152100 METAR MRPV 152100Z 10011KT 9999 FEW020 SCT030 BKN120 25/18 A2997 NOSIG=
202007152200 METAR MRPV 152200Z 08012KT 9999 SCT030 BKN120 24/17 A2999 NOSIG=
202007152300 METAR MRPV 152300Z 10011KT 9999 BCFG FEW010 SCT030 BKN140 23/16 A2999 NOSIG=
202007160000 METAR MRPV 160000Z 12009KT 9999 FEW030 SCT120 BKN200 22/17 A3000 NOSIG=
202007160100 METAR MRPV NIL=
202007160200 METAR MRPV NIL=
202007160300 METAR MRPV NIL=
202007160400 METAR MRPV NIL=
202007160500 METAR MRPV NIL=
202007160600 METAR MRPV NIL=
202007160700 METAR MRPV NIL=
202007160800 METAR MRPV NIL=
202007160900 METAR MRPV NIL=
202007161000 METAR MRPV NIL=
202007161100 METAR MRPV NIL=
202007161200 METAR MRPV 161200Z 09018KT 9999 FEW035 21/16 A3003 NOSIG=
202007161300 METAR MRPV 161300Z 10016KT 9999 FEW035 22/16 A3004 NOSIG=
202007161400 METAR MRPV 161400Z 09016G26KT 9999 FEW040 23/16 A3005 NOSIG=
202007161500 METAR MRPV 161500Z 08016G28KT 9999 FEW040 24/16 A3005 NOSIG=
202007161600 METAR MRPV 161600Z 07018KT 9999 FEW040 26/16 A3004 NOSIG=
202007161700 METAR MRPV 161700Z 07018KT 9999 FEW045 26/16 A3003 NOSIG=
202007161800 METAR MRPV 161800Z 08017KT 9999 FEW045 26/16 A3002 NOSIG=
202007161900 METAR MRPV 161900Z 07014KT 9999 FEW045 27/16 A3000 NOSIG=
202007162000 METAR MRPV 162000Z 07015G26KT 9999 FEW045 27/15 A2999 NOSIG=
202007162100 METAR MRPV 162100Z 08016KT 9999 FEW045 27/17 A2998 NOSIG=
202007162200 METAR MRPV 162200Z 07014KT 9999 FEW045 26/15 A2995 NOSIG=
202007162300 METAR MRPV 162300Z 07015KT 9999 FEW040 24/16 A2996 NOSIG=
202007170000 METAR MRPV 170000Z 08014G25KT 9999 FEW040 23/15 A2996 NOSIG=
202007170100 METAR MRPV NIL=
202007170200 METAR MRPV NIL=
202007170300 METAR MRPV NIL=
202007170400 METAR MRPV NIL=
202007170500 METAR MRPV NIL=
202007170600 METAR MRPV NIL=
202007170700 METAR MRPV NIL=
202007170800 METAR MRPV NIL=
202007170900 METAR MRPV NIL=
202007171000 METAR MRPV NIL=
202007171100 METAR MRPV NIL=
202007171200 METAR MRPV 171200Z 13008KT CAVOK 20/15 A3001 NOSIG=
202007171300 METAR MRPV 171300Z 12009KT CAVOK 22/15 A3002 NOSIG=
202007171400 METAR MRPV 171400Z 10014KT CAVOK 24/15 A3002 NOSIG=
202007171500 METAR MRPV 171500Z 09015KT CAVOK 25/15 A3003 NOSIG=
202007171600 METAR MRPV 171600Z 09016KT CAVOK 26/15 A3002 NOSIG=
202007171700 METAR MRPV 171700Z 07014KT CAVOK 26/16 A3001 NOSIG=
202007171800 METAR MRPV 171800Z 08016KT CAVOK 27/16 A2999 NOSIG=
202007171900 METAR MRPV 171900Z 07012KT CAVOK 28/17 A2997 NOSIG=
202007172000 METAR MRPV 172000Z 06012KT 9999 FEW045 SCT200 28/16 A2995 NOSIG=
202007172100 METAR MRPV 172100Z 09013KT 9999 FEW035 28/17 A2993 NOSIG=
202007172200 METAR MRPV 172200Z 09015KT 9999 FEW035 SCT100 26/17 A2994 NOSIG=
202007172300 METAR MRPV 172300Z 11011KT 9999 SCT035 SCT200 25/18 A2996 NOSIG=
202007180000 METAR MRPV 180000Z 11012KT 9999 SCT030 SCT060 22/17 A2997 NOSIG=
202007180100 METAR MRPV NIL=
202007180200 METAR MRPV NIL=
202007180300 METAR MRPV NIL=
202007180400 METAR MRPV NIL=
202007180500 METAR MRPV NIL=
202007180600 METAR MRPV NIL=
202007180700 METAR MRPV NIL=
202007180800 METAR MRPV NIL=
202007180900 METAR MRPV NIL=
202007181000 METAR MRPV NIL=
202007181100 METAR MRPV NIL=
202007181200 METAR MRPV 181200Z 13006KT 9999 FEW045 SCT200 20/15 A3001 NOSIG=
202007181300 METAR MRPV 181300Z 12009KT CAVOK 21/15 A3002 NOSIG=
202007181400 METAR MRPV 181400Z 13010KT CAVOK 24/17 A3000 NOSIG=
202007181500 METAR MRPV 181500Z 11010KT CAVOK 25/17 A3000 NOSIG=
202007181600 METAR MRPV 181600Z 08014KT 9999 FEW040 SCT200 26/17 A3002 NOSIG=
202007181700 METAR MRPV 181700Z 09014KT 9999 FEW040 SCT200 27/18 A3001 NOSIG=
202007181800 METAR MRPV 181800Z 08011KT 9999 FEW040 SCT200 27/18 A2999 NOSIG=
202007181900 METAR MRPV 181900Z 08012KT 9999 FEW040 SCT200 28/18 A2997 NOSIG=
202007182000 METAR MRPV 182000Z 07010KT 9999 FEW040 SCT060 29/18 A2995 NOSIG=
202007182100 METAR MRPV 182100Z 08011KT 9999 FEW040 SCT070 26/18 A2994 NOSIG=
202007182200 METAR MRPV 182200Z 31006KT 9999 FEW020 SCT040 BKN080 25/21 A2993 NOSIG=
202007182300 METAR MRPV 182300Z 29006KT 9999 VCFG SCT010 BKN070 23/21 A2995 NOSIG=
202007190000 METAR MRPV 190000Z 11006KT 9999 FEW007 SCT030 BKN110 23/18 A2996 NOSIG=
202007190100 METAR MRPV NIL=
202007190200 METAR MRPV NIL=
202007190300 METAR MRPV NIL=
202007190400 METAR MRPV NIL=
202007190500 METAR MRPV NIL=
202007190600 METAR MRPV NIL=
202007190700 METAR MRPV NIL=
202007190800 METAR MRPV NIL=
202007190900 METAR MRPV NIL=
202007191000 METAR MRPV NIL=
202007191100 METAR MRPV NIL=
202007191200 METAR MRPV 191200Z 14005KT 9999 FEW035 BKN200 21/17 A2996 NOSIG=
202007191300 METAR MRPV 191300Z 12008KT 9999 FEW030 BKN200 23/17 A2998 NOSIG=
202007191400 METAR MRPV 191400Z 10011KT 9999 FEW035 BKN220 24/17 A2997 NOSIG=
202007191500 METAR MRPV 191500Z 08014KT 9999 FEW035 BKN220 25/17 A3000 NOSIG=
202007191600 METAR MRPV 191600Z 07010KT 9999 FEW045 SCT140 BKN250 27/17 A2999 NOSIG=
202007191700 METAR MRPV 191700Z 07012KT 9999 FEW045 BKN250 28/18 A2999 NOSIG=
202007191800 METAR MRPV 191800Z 09012KT 9999 FEW040 BKN220 27/18 A2997 NOSIG=
202007191900 METAR MRPV 191900Z 08011KT 9999 FEW040 SCT060 BKN220 28/18 A2995 NOSIG=
202007192000 METAR MRPV 192000Z 09013KT 9999 SCT035 BKN120 27/18 A2993 NOSIG=
202007192006 METAR MRPV 192006Z 08011KT 9999 +DZ SCT035 BKN120 26/18 A2993 NOSIG=
202007192100 METAR MRPV 192100Z 15005KT 9999 SCT030 BKN120 23/20 A2991 REDZ NOSIG=
202007192200 METAR MRPV 192200Z 36003KT 100V360 9999 FEW010 BKN030 23/20 A2994 NOSIG=
202007192300 METAR MRPV 192300Z 00000KT 9999 FEW030 BKN140 23/20 A2993 NOSIG=
202007200000 METAR MRPV 200000Z 11008KT 9999 SCT035 BKN100 23/19 A2995 NOSIG=
202007200100 METAR MRPV NIL=
202007200200 METAR MRPV NIL=
202007200300 METAR MRPV NIL=
202007200400 METAR MRPV NIL=
202007200500 METAR MRPV NIL=
202007200600 METAR MRPV NIL=
202007200700 METAR MRPV NIL=
202007200800 METAR MRPV NIL=
202007200900 METAR MRPV NIL=
202007201000 METAR MRPV NIL=
202007201100 METAR MRPV NIL=
202007201200 METAR MRPV 201200Z 12009KT 9999 SCT025 BKN100 22/18 A2997 NOSIG=
202007201300 METAR MRPV 201300Z 10013KT 9999 FEW030 SCT100 BKN200 22/18 A2999 NOSIG=
202007201400 METAR MRPV 201400Z 10011KT 9999 FEW030 SCT100 BKN200 23/18 A3000 NOSIG=
202007201500 METAR MRPV 201500Z 08011KT 9999 FEW040 BKN200 25/18 A2999 NOSIG=
202007201600 METAR MRPV 201600Z 08013KT 9999 SCT035 SCT140 25/18 A3000 NOSIG=
202007201700 METAR MRPV 201700Z 08012KT 9999 SCT035 SCT160 26/18 A2998 NOSIG=
202007201800 METAR MRPV 201800Z 07013KT 9999 SCT030 SCT160 27/18 A2997 NOSIG=
202007201900 METAR MRPV 201900Z 09013KT 9999 SCT035 SCT100 28/18 A2995 NOSIG=
202007202000 METAR MRPV 202000Z 07009KT 9999 SCT035 BKN100 28/18 A2994 NOSIG=
202007202100 METAR MRPV 202100Z 11008KT 9999 SCT030 BKN100 27/18 A2991 NOSIG=
202007202200 METAR MRPV 202200Z 10011KT 9999 4500E -SHRA FEW020TCU SCT030 SCT100 26/18 A2990 NOSIG=
202007202300 METAR MRPV 202300Z 32003KT 8000 -SHRA FEW020TCU BKN030 23/20 A2994 NOSIG=
202007210000 METAR MRPV 210000Z 30006KT 9999 4000SE -RA BCFG FEW010 BKN020 22/20 A2996 NOSIG=
202007210100 METAR MRPV NIL=
202007210200 METAR MRPV NIL=
202007210300 METAR MRPV NIL=
202007210400 METAR MRPV NIL=
202007210500 METAR MRPV NIL=
202007210600 METAR MRPV NIL=
202007210700 METAR MRPV NIL=
202007210800 METAR MRPV NIL=
202007210900 METAR MRPV NIL=
202007211000 METAR MRPV NIL=
202007211100 METAR MRPV NIL=
202007211200 METAR MRPV 211200Z 16003KT CAVOK 21/17 A3001 NOSIG=
202007211300 METAR MRPV 211300Z 14003KT CAVOK 21/17 A3001 NOSIG=
202007211400 METAR MRPV 211400Z 11004KT CAVOK 24/18 A3002 NOSIG=
202007211500 METAR MRPV 211500Z 10012KT 9999 FEW040 BKN200 26/18 A3002 NOSIG=
202007211600 METAR MRPV 211600Z 10007KT 9999 FEW040 BKN200 26/17 A3002 NOSIG=
202007211700 METAR MRPV 211700Z 14006KT 9999 FEW040 BKN200 25/17 A3002 NOSIG=
202007211800 METAR MRPV 211800Z 13008KT 9999 SCT040 BKN200 25/17 A3002 NOSIG=
202007211900 METAR MRPV 211900Z 10005KT 9999 SCT040 BKN200 25/18 A3000 NOSIG=
202007212000 METAR MRPV 212000Z 29008KT 9999 SCT040 BKN200 24/20 A2998 NOSIG=
202007212100 METAR MRPV 212100Z 28007KT 9999 SCT030 BKN200 24/20 A2997 NOSIG=
202007212200 METAR MRPV 212200Z 29006KT 9999 SCT030 BKN200 23/20 A2998 NOSIG=
202007212300 METAR MRPV 212300Z 29005KT 8000 -DZ SCT020 BKN100 22/20 A2999 NOSIG=
202007220000 METAR MRPV 220000Z 29006KT 5000 BR FEW010 BKN015 21/20 A3001 NOSIG=
202007220100 METAR MRPV NIL=
202007220200 METAR MRPV NIL=
202007220300 METAR MRPV NIL=
202007220400 METAR MRPV NIL=
202007220500 METAR MRPV NIL=
202007220600 METAR MRPV NIL=
202007220700 METAR MRPV NIL=
202007220800 METAR MRPV NIL=
202007220900 METAR MRPV NIL=
202007221000 METAR MRPV NIL=
202007221100 METAR MRPV NIL=
202007221200 METAR MRPV 221200Z 15001KT CAVOK 18/18 A3002 NOSIG=
202007221300 METAR MRPV 221300Z VRB01KT 9999 FEW005 20/18 A3004 NOSIG=
202007221400 METAR MRPV 221400Z 10005KT CAVOK 24/17 A3003 NOSIG=
202007221500 METAR MRPV 221500Z 08012KT 9999 FEW045 SCT120 25/17 A3004 NOSIG=
202007221600 METAR MRPV 221600Z 09011KT 9999 FEW040 26/17 A3004 NOSIG=
202007221700 METAR MRPV 221700Z 09012KT 9999 SCT040 26/17 A3004 NOSIG=
202007221800 METAR MRPV 221800Z 11005KT 9999 BKN020 25/17 A3004 TEMPO 30005KT=
202007221900 METAR MRPV 221900Z 08011KT 9999 DZ BKN025 SCT100 25/16 A3002 NOSIG=
202007222000 METAR MRPV 222000Z 15006KT 9999 SCT025 BKN100 24/18 A2999 NOSIG=
202007222100 METAR MRPV 222100Z 14006KT 9999 FEW030 BKN120 25/17 A2998 NOSIG=
202007222200 METAR MRPV 222200Z 12006KT 9999 FEW020TCU FEW060 BKN200 25/18 A2998 NOSIG=
202007222300 METAR MRPV 222300Z 30007KT 9999 FEW020 OVC160 23/21 A2999 NOSIG=
202007230000 METAR MRPV 230000Z 30007KT 8000 BCFG OVC005 21/20 A3000 NOSIG=
202007230100 METAR MRPV NIL=
202007230200 METAR MRPV NIL=
202007230300 METAR MRPV NIL=
202007230400 METAR MRPV NIL=
202007230500 METAR MRPV NIL=
202007230600 METAR MRPV NIL=
202007230700 METAR MRPV NIL=
202007230800 METAR MRPV NIL=
202007230900 METAR MRPV NIL=
202007231000 METAR MRPV NIL=
202007231100 METAR MRPV NIL=
202007231200 METAR MRPV 231200Z 13006KT 9999 FEW030 BKN200 20/16 A3002 NOSIG=
202007231300 METAR MRPV 231300Z 14006KT 9999 FEW045 BKN200 22/17 A3001 NOSIG=
202007231400 METAR MRPV 231400Z 12009KT 9999 FEW040 BKN200 24/16 A3002 NOSIG=
202007231500 METAR MRPV 231500Z 09015KT 9999 FEW030 BKN200 25/17 A3003 NOSIG=
202007231600 METAR MRPV 231600Z 07008KT 9999 FEW035 BKN200 26/17 A3003 NOSIG=
202007231700 METAR MRPV 231700Z 08009KT 9999 SCT035 SCT200 26/17 A3001 NOSIG=
202007231800 METAR MRPV 231800Z 09011KT 9999 SCT035 SCT200 26/18 A3000 NOSIG=
202007231900 METAR MRPV 231900Z 07010KT 9999 BKN035 27/17 A2997 NOSIG=
202007232000 METAR MRPV 232000Z 28004KT 9999 RA BKN030 25/21 A2996 NOSIG=
202007232100 METAR MRPV 232100Z 10015KT 3000 -TSRA FEW015CB BKN025 20/19 A2996 TEMPO 5000 -RA=
202007232200 METAR MRPV 232200Z 14005KT 9999 FEW015 BKN030 21/19 A2997 NOSIG=
202007232300 METAR MRPV 232300Z 06001KT 9999 FEW035 BKN060 22/19 A2998 NOSIG=
202007240000 METAR MRPV 240000Z 31006KT 8000 -RA VCFG OVC005 20/19 A3002 NOSIG=
202007240100 METAR MRPV NIL=
202007240200 METAR MRPV NIL=
202007240300 METAR MRPV NIL=
202007240400 METAR MRPV NIL=
202007240500 METAR MRPV NIL=
202007240600 METAR MRPV NIL=
202007240700 METAR MRPV NIL=
202007240800 METAR MRPV NIL=
202007240900 METAR MRPV NIL=
202007241000 METAR MRPV NIL=
202007241100 METAR MRPV NIL=
202007241200 METAR MRPV 241200Z 12003KT 9999 FEW035 SCT080 19/17 A3002 NOSIG=
202007241300 METAR MRPV 241300Z 12003KT 9999 FEW035 BKN110 20/17 A3003 NOSIG=
202007241400 METAR MRPV 241400Z 11005KT 9999 FEW030 BKN120 21/17 A3004 NOSIG=
202007241500 METAR MRPV 241500Z 11007KT 9999 FEW035 BKN120 23/17 A3006 NOSIG=
202007241600 METAR MRPV 241600Z 11007KT 9999 FEW035 BKN120 24/17 A3006 NOSIG=
202007241700 METAR MRPV 241700Z 08008KT 9999 FEW040 BKN140 26/18 A3005 NOSIG=
202007241800 METAR MRPV 241800Z 10012KT 9999 FEW040 BKN140 26/18 A3002 NOSIG=
202007241900 METAR MRPV 241900Z 09011KT 9999 FEW035 BKN110 26/17 A3001 NOSIG=
202007242000 METAR MRPV 242000Z 10011KT 9999 SCT035 BKN110 26/17 A2999 NOSIG=
202007242100 METAR MRPV 242100Z 09009KT 9999 SCT040 SCT160 26/17 A2996 NOSIG=
202007242200 METAR MRPV 242200Z 14005KT 9999 -RA VCTS FEW015CB SCT045 SCT100 21/19 A2998 NOSIG=
202007242300 METAR MRPV 242300Z 32005KT 070V320 9999 VCFG FEW010 BKN080 21/19 A2999 NOSIG=
202007250000 METAR MRPV 250000Z 17001KT 9999 VCFG FEW015 BKN100 20/19 A3000 NOSIG=
202007250100 METAR MRPV NIL=
202007250200 METAR MRPV NIL=
202007250300 METAR MRPV NIL=
202007250400 METAR MRPV NIL=
202007250500 METAR MRPV NIL=
202007250600 METAR MRPV NIL=
202007250700 METAR MRPV NIL=
202007250800 METAR MRPV NIL=
202007250900 METAR MRPV NIL=
202007251000 METAR MRPV NIL=
202007251100 METAR MRPV NIL=
202007251200 METAR MRPV 251200Z 10004KT CAVOK 19/17 A3001 NOSIG=
202007251300 METAR MRPV 251300Z 08002KT 9999 BCFG FEW005 OVC100 20/17 A3003 NOSIG=
202007251400 METAR MRPV 251400Z 28005KT 5000 BR FEW007 OVC100 20/18 A3006 NOSIG=
202007251500 METAR MRPV 251500Z VRB01KT CAVOK 21/18 A3006 NOSIG=
202007251600 METAR MRPV 251600Z VRB02KT CAVOK 25/16 A3004 NOSIG=
202007251700 METAR MRPV 251700Z 10006KT 9999 FEW045 BKN120 26/16 A3002 NOSIG=
202007251800 METAR MRPV 251800Z 09003KT 9999 SCT040 BKN200 27/16 A3000 NOSIG=
202007251900 METAR MRPV 251900Z 28009KT 9999 FEW020 SCT045 BKN200 26/20 A2998 NOSIG=
202007252000 METAR MRPV 252000Z 29008KT 9999 RA VCTS FEW020CB SCT035 SCT120 23/20 A2997 NOSIG=
202007252100 METAR MRPV 252100Z 29012KT 9999 VCTS VCFG FEW010CB SCT035 BKN120 22/20 A2998 RERA NOSIG=
202007252200 METAR MRPV 252200Z 32006KT 3000 RA BR VCTS BKN008CB 20/19 A2998 NOSIG=
202007252300 METAR MRPV 252300Z 34002KT 4000 RA BR FEW003 BKN008 20/19 A3001 NOSIG=
202007260000 METAR MRPV 260000Z 31003KT 4000 -RA BR FEW003 BKN008 20/19 A3003 NOSIG=
202007260100 METAR MRPV NIL=
202007260200 METAR MRPV NIL=
202007260300 METAR MRPV NIL=
202007260400 METAR MRPV NIL=
202007260500 METAR MRPV NIL=
202007260600 METAR MRPV NIL=
202007260700 METAR MRPV NIL=
202007260800 METAR MRPV NIL=
202007260900 METAR MRPV NIL=
202007261000 METAR MRPV NIL=
202007261100 METAR MRPV NIL=
202007261200 METAR MRPV 261200Z COR 13005KT 9999 FEW030 BKN200 19/16 A3004 NOSIG=
202007261300 METAR MRPV 261300Z 11007KT 9999 FEW030 SCT060 19/17 A3006 NOSIG=
202007261400 METAR MRPV 261400Z 14007KT 9999 FEW025 BKN200 22/18 A3006 NOSIG=
202007261500 METAR MRPV 261500Z 09013KT 9999 FEW030 SCT140 24/17 A3008 NOSIG=
202007261600 METAR MRPV 261600Z 12010KT 9999 BKN030 24/18 A3009 NOSIG=
202007261700 METAR MRPV 261700Z 11008KT 9999 SCT035 BKN200 23/18 A3007 NOSIG=
202007261800 METAR MRPV 261800Z 10009KT 9999 VCSH FEW020TCU SCT035 SCT120 26/18 A3005 NOSIG=
202007261900 METAR MRPV 261900Z COR 08011KT 9999 FEW020TCU SCT030 SCT200 25/18 A3002 NOSIG=
202007262000 METAR MRPV 262000Z 30008KT 9999 -RA FEW020TCU SCT030 SCT100 26/19 A3001 NOSIG=
202007262100 METAR MRPV 262100Z 28006KT 9999 BCFG FEW015 BKN030 23/20 A3001 NOSIG=
202007262200 METAR MRPV 262200Z 31007KT 8000 FEW015 SCT030 BKN080 23/20 A2999 NOSIG=
202007262230 METAR MRPV 262230Z 26007KT 5000 -RA FEW015 SCT030 BKN080 23/20 A3001 NOSIG=
202007262300 METAR MRPV 262300Z 28003KT 5000 -RA FEW015 SCT030 BKN100 22/20 A3001 NOSIG=
202007270000 METAR MRPV 270000Z 28003KT 5000 -DZ BCFG FEW005 SCT020 BKN060 21/20 A3002 NOSIG=
202007270100 METAR MRPV NIL=
202007270200 METAR MRPV NIL=
202007270300 METAR MRPV NIL=
202007270400 METAR MRPV NIL=
202007270500 METAR MRPV NIL=
202007270600 METAR MRPV NIL=
202007270700 METAR MRPV NIL=
202007270800 METAR MRPV NIL=
202007270900 METAR MRPV NIL=
202007271000 METAR MRPV NIL=
202007271100 METAR MRPV NIL=
202007271200 METAR MRPV 271200Z VRB02KT 9999 BCFG FEW005 SCT120 18/16 A3006 NOSIG=
202007271300 METAR MRPV 271300Z 11004KT CAVOK 21/16 A3007 NOSIG=
202007271400 METAR MRPV 271400Z 14004KT CAVOK 23/16 A3007 NOSIG=
202007271500 METAR MRPV 271500Z 15004KT CAVOK 24/16 A3008 NOSIG=
202007271600 METAR MRPV 271600Z 10005KT CAVOK 26/16 A3006 NOSIG=
202007271700 METAR MRPV 271700Z 11003KT CAVOK 28/17 A3003 NOSIG=
202007271800 METAR MRPV 271800Z 09005KT CAVOK 28/17 A3001 NOSIG=
202007271900 METAR MRPV 271900Z 28009KT 9999 SCT030 SCT200 26/21 A2999 NOSIG=
202007272000 METAR MRPV 272000Z 29012KT 9999 FEW020TCU SCT030 SCT200 25/20 A2997 NOSIG=
202007272100 METAR MRPV 272100Z COR 27006KT 4000 TSRA FEW015CB BKN025 22/21 A2998 NOSIG=
202007272200 METAR MRPV 272200Z 29005KT 4500 -TSRA BR FEW010CB SCT020 SCT100 22/20 A2999 NOSIG=
202007272300 METAR MRPV 272300Z 04003KT 2000 -TSRA BR BKN005 FEW010CB 20/20 A3002 NOSIG=
202007280000 METAR MRPV 280000Z 11003KT 4500 -TSRA BR FEW005 FEW015CB BKN030 19/18 A3004 NOSIG=
202007280100 METAR MRPV NIL=
202007280200 METAR MRPV NIL=
202007280300 METAR MRPV NIL=
202007280400 METAR MRPV NIL=
202007280500 METAR MRPV NIL=
202007280600 METAR MRPV NIL=
202007280700 METAR MRPV NIL=
202007280800 METAR MRPV NIL=
202007280900 METAR MRPV NIL=
202007281000 METAR MRPV NIL=
202007281100 METAR MRPV NIL=
202007281200 METAR MRPV 281200Z 09003KT CAVOK 18/16 A3004 NOSIG=
202007281300 METAR MRPV 281300Z 09006KT CAVOK 18/17 A3005 NOSIG=
202007281400 METAR MRPV 281400Z 09003KT 9999 FEW040 BKN200 22/17 A3006 NOSIG=
202007281500 METAR MRPV 281500Z 00000KT 9999 FEW030 BKN200 24/17 A3007 NOSIG=
202007281600 METAR MRPV 281600Z 35001KT CAVOK 26/18 A3005 NOSIG=
202007281700 METAR MRPV 281700Z 28006KT 9999 FEW035 BKN200 26/18 A3003 NOSIG=
202007281800 METAR MRPV 281800Z 31010KT 9999 FEW035 BKN200 26/18 A3001 NOSIG=
202007281900 METAR MRPV 281900Z 30011KT 9999 SCT020TCU BKN200 26/19 A2999 TEMPO SHRA=
202007282000 METAR MRPV 282000Z 27006KT 9999 TSRA SCT015CB SCT200 23/18 A2999 TEMPO VRB05KT 5000=
202007282100 METAR MRPV 282100Z 00000KT 9999 RA VCTS FEW010CB FEW035 BKN100 20/18 A2999 RETSRA NOSIG=
202007282200 METAR MRPV 282200Z 13002KT CAVOK 20/18 A2999 RERA NOSIG=
202007282300 METAR MRPV 282300Z 13004KT 9999 FEW035 OVC100 21/18 A3000 NOSIG=
202007290000 METAR MRPV 290000Z 12007KT 9999 SCT030 BKN100 21/18 A3002 NOSIG=
202007290100 METAR MRPV NIL=
202007290200 METAR MRPV NIL=
202007290300 METAR MRPV NIL=
202007290400 METAR MRPV NIL=
202007290500 METAR MRPV NIL=
202007290600 METAR MRPV NIL=
202007290700 METAR MRPV NIL=
202007290800 METAR MRPV NIL=
202007290900 METAR MRPV NIL=
202007291000 METAR MRPV NIL=
202007291100 METAR MRPV NIL=
202007291200 METAR MRPV 291200Z 12011KT 9999 FEW040 20/17 A3002 NOSIG=
202007291300 METAR MRPV 291300Z 13009KT CAVOK 22/17 A3003 NOSIG=
202007291400 METAR MRPV 291400Z 13008KT CAVOK 22/17 A3003 NOSIG=
202007291500 METAR MRPV 291500Z 10009KT CAVOK 24/17 A3004 NOSIG=
202007291600 METAR MRPV 291600Z 09011KT 9999 FEW045 SCT120 27/17 A3007 NOSIG=
202007291700 METAR MRPV 291700Z 07011KT 9999 FEW040 BKN250 27/18 A3003 NOSIG=
202007291800 METAR MRPV 291800Z 09014KT 9999 BKN035 27/18 A3001 NOSIG=
202007291900 METAR MRPV 291900Z 06007KT 9999 SCT040 27/17 A2999 NOSIG=
202007292000 METAR MRPV 292000Z 08011KT 9999 FEW040 BKN250 28/16 A2997 NOSIG=
202007292100 METAR MRPV 292100Z 08012KT 9999 FEW020CB FEW040 SCT250 28/19 A2995 NOSIG=
202007292200 METAR MRPV 292200Z 10009KT 9999 BKN040 25/18 A2995 NOSIG=
202007292300 METAR MRPV 292300Z 07011KT 9999 SCT030 SCT200 24/17 A2996 NOSIG=
202007300000 METAR MRPV 300000Z 08008KT 9999 BKN025 23/17 A2998 NOSIG=
202007300100 METAR MRPV NIL=
202007300200 METAR MRPV NIL=
202007300300 METAR MRPV NIL=
202007300400 METAR MRPV NIL=
202007300500 METAR MRPV NIL=
202007300600 METAR MRPV NIL=
202007300700 METAR MRPV NIL=
202007300800 METAR MRPV NIL=
202007300900 METAR MRPV NIL=
202007301000 METAR MRPV NIL=
202007301100 METAR MRPV NIL=
202007301200 METAR MRPV 301200Z 14009KT 9999 FEW035 BKN200 21/17 A3000 NOSIG=
202007301300 METAR MRPV 301300Z 10006KT 9999 FEW030 BKN200 23/17 A3002 NOSIG=
202007301400 METAR MRPV 301400Z 11010KT 9999 FEW040 SCT220 24/17 A3003 NOSIG=
202007301500 METAR MRPV 301500Z 09012KT 9999 FEW040 SCT250 26/17 A3003 NOSIG=
202007301600 METAR MRPV 301600Z 10012KT 9999 FEW045 27/18 A3003 NOSIG=
202007301700 METAR MRPV 301700Z 07014KT 9999 FEW045 SCT070 27/17 A3002 NOSIG=
202007301800 METAR MRPV 301800Z 07013KT 9999 FEW040 BKN220 28/17 A3000 NOSIG=
202007301900 METAR MRPV 301900Z 08014KT 9999 FEW040 BKN220 28/16 A2997 NOSIG=
202007302000 METAR MRPV 302000Z 07013KT 9999 FEW040 BKN220 28/16 A2995 NOSIG=
202007302100 METAR MRPV 302100Z 06012KT 9999 FEW040 BKN220 27/17 A2994 NOSIG=
202007302200 METAR MRPV 302200Z 07013KT 9999 FEW045 BKN220 27/16 A2992 NOSIG=
202007302300 METAR MRPV 302300Z 07014KT 9999 FEW035 BKN200 25/16 A2994 NOSIG=
202007310000 METAR MRPV 310000Z 11007KT 9999 FEW030 SCT180 23/17 A2995 NOSIG=
202007310100 METAR MRPV NIL=
202007310200 METAR MRPV NIL=
202007310300 METAR MRPV NIL=
202007310400 METAR MRPV NIL=
202007310500 METAR MRPV NIL=
202007310600 METAR MRPV NIL=
202007310700 METAR MRPV NIL=
202007310800 METAR MRPV NIL=
202007310900 METAR MRPV NIL=
202007311000 METAR MRPV NIL=
202007311100 METAR MRPV NIL=
202007311200 METAR MRPV 311200Z 15007KT CAVOK 20/14 A2998 NOSIG=
202007311300 METAR MRPV 311300Z 15007KT CAVOK 21/13 A3000 NOSIG=
202007311400 METAR MRPV 311400Z 12008KT CAVOK 24/15 A3000 NOSIG=
202007311500 METAR MRPV 311500Z 10012KT CAVOK 26/15 A3001 NOSIG=
202007311600 METAR MRPV 311600Z 09013KT CAVOK 27/14 A3000 NOSIG=
202007311700 METAR MRPV 311700Z 08008KT CAVOK 29/15 A2998 NOSIG=
202007311800 METAR MRPV 311800Z 09006KT 9999 FEW045 BKN300 30/15 A2998 BECMG 30005KT=
202007311900 METAR MRPV 311900Z 07009KT 9999 FEW045 BKN300 29/15 A2997 NOSIG=
202007312000 METAR MRPV 312000Z 32006KT 200V320 9999 FEW045 BKN300 28/19 A2996 NOSIG=
202007312100 METAR MRPV 312100Z VRB02KT 9999 FEW045 BKN300 26/20 A2995 NOSIG=
202007312200 METAR MRPV 312200Z 09011KT 9999 FEW040 BKN300 28/17 A2995 NOSIG=
202007312300 METAR MRPV 312300Z 07009KT 9999 FEW040 BKN250 27/16 A2996 NOSIG=
202008010000 METAR MRPV 010000Z 07008KT 9999 FEW035 SCT250 24/18 A2997 NOSIG=
202008010100 METAR MRPV NIL=
202008010200 METAR MRPV NIL=
202008010300 METAR MRPV NIL=
202008010400 METAR MRPV NIL=
202008010500 METAR MRPV NIL=
202008010600 METAR MRPV NIL=
202008010700 METAR MRPV NIL=
202008010800 METAR MRPV NIL=
202008010900 METAR MRPV NIL=
202008011000 METAR MRPV NIL=
202008011100 METAR MRPV NIL=
202008011200 METAR MRPV 011200Z 14006KT CAVOK 19/15 A3000 NOSIG=
202008011300 METAR MRPV 011300Z 14007KT CAVOK 22/15 A3003 NOSIG=
202008011400 METAR MRPV 011400Z 13008KT CAVOK 25/15 A3002 NOSIG=
202008011500 METAR MRPV 011500Z 14007KT CAVOK 27/15 A3002 NOSIG=
202008011600 METAR MRPV 011600Z 11007KT CAVOK 28/15 A3002 NOSIG=
202008011700 METAR MRPV 011700Z 31007KT CAVOK 28/17 A3001 NOSIG=
202008011800 METAR MRPV 011800Z 29008KT CAVOK 28/18 A2999 NOSIG=
202008011900 METAR MRPV 011900Z 27007KT 9999 SCT040 SCT200 28/19 A2997 NOSIG=
202008012000 METAR MRPV 012000Z 27005KT 9999 FEW030 SCT040 BKN200 27/20 A2995 NOSIG=
202008012100 METAR MRPV 012100Z 27009KT 9999 VCSH FEW020TCU FEW030 BKN200 26/20 A2994 NOSIG=
202008012200 METAR MRPV 012200Z 29010KT 8000 SHRA FEW020TCU SCT030 25/20 A2995 NOSIG=
202008012300 METAR MRPV 012300Z 32004KT 5000 -RA FEW015 BKN025 23/21 A2996 RESHRA NOSIG=
202008020000 METAR MRPV 020000Z 17004KT 5000 BCFG FEW015 BKN025 22/19 A2996 NOSIG=
202008020100 METAR MRPV NIL=
202008020200 METAR MRPV NIL=
202008020300 METAR MRPV NIL=
202008020400 METAR MRPV NIL=
202008020500 METAR MRPV NIL=
202008020600 METAR MRPV NIL=
202008020700 METAR MRPV NIL=
202008020800 METAR MRPV NIL=
202008020900 METAR MRPV NIL=
202008021000 METAR MRPV NIL=
202008021100 METAR MRPV NIL=
202008021200 METAR MRPV 021200Z 14007KT CAVOK 21/17 A3000 NOSIG=
202008021300 METAR MRPV 021300Z 14007KT CAVOK 23/17 A3002 NOSIG=
202008021400 METAR MRPV 021400Z 12007KT CAVOK 25/17 A3002 NOSIG=
202008021500 METAR MRPV 021500Z 11009KT CAVOK 27/17 A3002 NOSIG=
202008021600 METAR MRPV 021600Z 08011KT CAVOK 28/17 A3002 NOSIG=
202008021700 METAR MRPV 021700Z 08009KT CAVOK 29/16 A3001 NOSIG=
202008021800 METAR MRPV 021800Z 29011KT 9999 SCT045 SCT250 28/21 A2999 NOSIG=
202008021900 METAR MRPV 021900Z 28009KT 9999 BKN040 SCT200 27/21 A2998 NOSIG=
202008022000 METAR MRPV 022000Z 27006KT 9999 BKN035 26/21 A2997 NOSIG=
202008022100 METAR MRPV 022100Z 32007KT 9999 -SHRA VCTS FEW015TCU BKN025 24/21 A2997 NOSIG=
202008022200 METAR MRPV 022200Z 31008KT 9999 FEW015 SCT025 24/20 A2998 NOSIG=
202008022300 METAR MRPV 022300Z 31005KT 9999 FEW015 SCT025 BKN200 23/20 A2999 NOSIG=
202008030000 METAR MRPV 030000Z 28003KT 9999 BCFG FEW015 SCT025 BKN200 22/20 A3000 NOSIG=
202008030100 METAR MRPV NIL=
202008030200 METAR MRPV NIL=
202008030300 METAR MRPV NIL=
202008030400 METAR MRPV NIL=
202008030500 METAR MRPV NIL=
202008030600 METAR MRPV NIL=
202008030700 METAR MRPV NIL=
202008030800 METAR MRPV NIL=
202008030900 METAR MRPV NIL=
202008031000 METAR MRPV NIL=
202008031100 METAR MRPV NIL=
202008031200 METAR MRPV 031200Z 14006KT CAVOK 21/16 A3004 NOSIG=
202008031300 METAR MRPV 031300Z 11009KT CAVOK 22/15 A3006 NOSIG=
202008031400 METAR MRPV 031400Z 09011KT CAVOK 24/16 A3007 NOSIG=
202008031500 METAR MRPV 031500Z 11008KT CAVOK 26/16 A3007 NOSIG=
202008031600 METAR MRPV 031600Z 08013KT CAVOK 28/17 A3009 NOSIG=
202008031700 METAR MRPV 031700Z 08011KT CAVOK 29/17 A3007 NOSIG=
202008031800 METAR MRPV 031800Z 08007KT CAVOK 29/17 A3006 NOSIG=
202008031900 METAR MRPV 031900Z 09010KT 9999 FEW045 29/17 A3003 NOSIG=
202008032000 METAR MRPV 032000Z 08012KT 9999 BKN045 29/15 A3001 NOSIG=
202008032100 METAR MRPV 032100Z 08010KT 9999 SCT035 BKN200 26/18 A2999 NOSIG=
202008032200 METAR MRPV 032200Z 30008KT 9999 RA BKN010 24/21 A3002 NOSIG=
202008032300 METAR MRPV 032300Z 30007KT 9999 BKN010 21/20 A3002 RERA NOSIG=
202008040000 METAR MRPV 040000Z 28003KT 9999 BKN010 22/20 A3007 NOSIG=
202008040100 METAR MRPV NIL=
202008040200 METAR MRPV NIL=
202008040300 METAR MRPV NIL=
202008040400 METAR MRPV NIL=
202008040500 METAR MRPV NIL=
202008040600 METAR MRPV NIL=
202008040700 METAR MRPV NIL=
202008040900 METAR MRPV NIL=
202008041000 METAR MRPV NIL=
202008041100 METAR MRPV NIL=
202008041200 METAR MRPV 041200Z 12007KT 9999 FEW010 SCT250 20/17 A3004 NOSIG=
202008041300 METAR MRPV 041300Z 14006KT CAVOK 22/17 A3005 NOSIG=
202008041400 METAR MRPV 041400Z 14007KT 9999 FEW030 BKN200 24/17 A3007 NOSIG=
202008041500 METAR MRPV 041500Z 10011KT 9999 FEW030 BKN250 26/17 A3008 NOSIG=
202008041600 METAR MRPV 041600Z 09010KT 9999 FEW040 BKN250 28/17 A3008 NOSIG=
202008041700 METAR MRPV 041700Z 06007KT 9999 FEW040 BKN200 28/17 A3006 NOSIG=
202008041800 METAR MRPV 041800Z 27005KT 9999 SCT035 BKN200 25/20 A3004 NOSIG=
202008041900 METAR MRPV 041900Z 31005KT 9999 SCT035 BKN200 26/20 A3001 NOSIG=
202008042000 METAR MRPV 042000Z 30005KT 9999 BKN035 SCT200 25/21 A3000 NOSIG=
202008042100 METAR MRPV 042100Z 07007KT 9999 BKN030 27/18 A2998 NOSIG=
202008042200 METAR MRPV 042200Z 14007KT 9999 BKN025 SCT100 25/19 A2999 NOSIG=
202008042300 METAR MRPV 042300Z 36007KT 9999 -RA FEW010 SCT030 21/20 A3002 NOSIG=
202008050000 METAR MRPV 050000Z 29008KT 8000 RA BKN005 21/19 A3005 NOSIG=
202008050100 METAR MRPV NIL=
202008050200 METAR MRPV NIL=
202008050300 METAR MRPV NIL=
202008050400 METAR MRPV NIL=
202008050500 METAR MRPV NIL=
202008050600 METAR MRPV NIL=
202008050700 METAR MRPV NIL=
202008050800 METAR MRPV NIL=
202008050900 METAR MRPV NIL=
202008051000 METAR MRPV NIL=
202008051100 METAR MRPV NIL=
202008051200 METAR MRPV 051200Z 14007KT 9999 FEW030 BKN200 19/17 A3002 NOSIG=
202008051300 METAR MRPV 051300Z 11008T 9999 FEW030 OVC200 22/17 A3003 NOSIG=
202008051400 METAR MRPV 051400Z 11010T 9999 FEW030 OVC200 22/17 A3003 NOSIG=
202008051500 METAR MRPV 051500Z 10007T 9999 FEW035 OVC200 25/17 A3004 NOSIG=
202008051600 METAR MRPV 051600Z COR 28010KT 9999 FEW035 OVC200 27/17 A3005 NOSIG=
202008051700 METAR MRPV 051700Z 29010KT 9999 FEW035 BKN200 26/19 A3003 NOSIG=
202008051800 METAR MRPV 051800Z 28009KT 9999 SCT030 BKN200 25/19 A3000 NOSIG=
202008051900 METAR MRPV 051900Z 28008KT 9999 VCSH FEW020TCU SCT030 SCT100 25/20 A2999 NOSIG=
202008052000 METAR MRPV 052000Z 27003KT 3000 SHRA VCTS SCT10TCU BKN020 22/20 A2999 NOSIG=
202008052100 METAR MRPV 052100Z COR 18002KT 4500 RA SCT020 BKN035 20/19 A2998 NOSIG=
202008052200 METAR MRPV 052200Z 31002KT 4000 -RA BR BKN005 SCT010 20/19 A2998 NOSIG=
202008052300 METAR MRPV 052300Z 29001KT 1500 -RA BR BKN005 SCT010 20/20 A3001 NOSIG=
202008060000 METAR MRPV 060000Z 16005KT 4000 RA BR BKN020 20/18 A3003 NOSIG=
202008060100 METAR MRPV NIL=
202008060200 METAR MRPV NIL=
202008060300 METAR MRPV NIL=
202008060400 METAR MRPV NIL=
202008060500 METAR MRPV NIL=
202008060600 METAR MRPV NIL=
202008060700 METAR MRPV NIL=
202008060800 METAR MRPV NIL=
202008060900 METAR MRPV NIL=
202008061000 METAR MRPV NIL=
202008061100 METAR MRPV NIL=
202008061200 METAR MRPV 061200Z 13008KT CAVOK 20/16 A2997 NOSIG=
202008061300 METAR MRPV 061300Z 15007KT CAVOK 21/16 A2999 NOSIG=
202008061400 METAR MRPV 061400Z 15003KT CAVOK 23/16 A3004 NOSIG=
202008061500 METAR MRPV 061500Z 31005KT CAVOK 23/17 A3004 NOSIG=
202008061600 METAR MRPV 061600Z 30003KT CAVOK 25/17 A3003 NOSIG=
202008061700 METAR MRPV 061700Z 28007KT 9999 SCT040 BKN200 25/18 A3003 NOSIG=
202008061800 METAR MRPV 061800Z 28006KT 9999 FEW040 SCT120 BKN200 24/18 A3003 NOSIG=
202008061900 METAR MRPV 061900Z 27006KT 9999 FEW045 BKN200 25/18 A3001 NOSIG=
202008062000 METAR MRPV 062000Z 29009KT 9999 FEW025 BKN120 24/19 A2999 NOSIG=
202008062100 METAR MRPV 062100Z 30007KT 9999 FEW015 BKN120 23/18 A2999 NOSIG=
202008062200 METAR MRPV 062200Z 28005KT 9999 FEW010 BKN120 22/19 A2998 NOSIG=
202008062300 METAR MRPV 062300Z 32003KT 9999 FEW010 BKN120 22/19 A2999 NOSIG=
202008070000 METAR MRPV 070000Z 28004KT 9999 SCT005 BKN120 21/19 A3001 NOSIG=
202008070100 METAR MRPV NIL=
202008070200 METAR MRPV NIL=
202008070300 METAR MRPV NIL=
202008070400 METAR MRPV NIL=
202008070500 METAR MRPV NIL=
202008070600 METAR MRPV NIL=
202008070700 METAR MRPV NIL=
202008070800 METAR MRPV NIL=
202008070900 METAR MRPV NIL=
202008071000 METAR MRPV NIL=
202008071100 METAR MRPV NIL=
202008071200 METAR MRPV 071200Z 14006KT 9999 FEW030 BKN100 20/17 A3003 NOSIG=
202008071300 METAR MRPV 071300Z 13006KT 9999 FEW030 BKN120 21/17 A3003 NOSIG=
202008071400 METAR MRPV 071400Z 13010KT 9999 FEW030 SCT100 BKN120 22/17 A3006 NOSIG=
202008071500 METAR MRPV 071500Z 10011KT 9999 FEW040 BKN120 23/18 A3005 NOSIG=
202008071600 METAR MRPV 071600Z 10011KT 9999 FEW035 BKN120 24/18 A3005 NOSIG=
202008071700 METAR MRPV 071700Z 11011KT 9999 FEW035 BKN120 25/17 A3005 NOSIG=
202008071800 METAR MRPV 071800Z 09011KT 9999 FEW045 SCT100 BKN120 25/17 A3003 NOSIG=
202008071900 METAR MRPV 071900Z 07010KT 9999 FEW035 BKN140 27/18 A3001 NOSIG=
202008072000 METAR MRPV 072000Z 08011KT 9999 FEW035 BKN200 28/18 A2999 NOSIG=
202008072100 METAR MRPV 072100Z 07010KT 9999 SCT035 SCT160 27/17 A2999 NOSIG=
202008072200 METAR MRPV 072200Z 08010KT 9999 SCT035 SCT160 26/18 A2999 NOSIG=
202008072300 METAR MRPV 072300Z 09011KT 9999 SCT030 SCT140 BKN200 25/18 A3000 NOSIG=
202008080000 METAR MRPV 080000Z 05003KT 9999 BCFG FEW005 SCT030 BKN100 23/21 A3003 NOSIG=
202008080100 METAR MRPV NIL=
202008080200 METAR MRPV NIL=
202008080300 METAR MRPV NIL=
202008080400 METAR MRPV NIL=
202008080500 METAR MRPV NIL=
202008080600 METAR MRPV NIL=
202008080700 METAR MRPV NIL=
202008080800 METAR MRPV NIL=
202008080900 METAR MRPV NIL=
202008081000 METAR MRPV NIL=
202008081100 METAR MRPV NIL=
202008081200 METAR MRPV 081200Z 13006KT 9999 FEW040 SCT100 21/16 A3004 NOSIG=
202008081300 METAR MRPV 081300Z 14008KT 9999 SCT035 SCT100 22/17 A3006 NOSIG=
202008081400 METAR MRPV 081400Z 10010KT 9999 FEW035 BKN100 23/17 A3007 NOSIG=
202008081500 METAR MRPV 081500Z 13009KT CAVOK 24/17 A3005 NOSIG=
202008081600 METAR MRPV 081600Z 09014KT 9999 FEW040 SCT120 BKN200 26/17 A3006 NOSIG=
202008081700 METAR MRPV 081700Z 07014G24KT 9999 FEW040 SCT200 26/17 A3004 NOSIG=
202008081800 METAR MRPV 081800Z 07016G26KT 9999 FEW045 BKN140 27/17 A3004 NOSIG=
202008081900 METAR MRPV 081900Z 08015KT 9999 SCT035 BKN120 26/17 A3003 NOSIG=
202008082000 METAR MRPV 082000Z 08020KT 9999 -DZ BKN035 SCT100 21/16 A3003 NOSIG=
202008082100 METAR MRPV 082100Z 10012KT 9999 -RA SCT035 BKN100 20/17 A3002 NOSIG=
202008082200 METAR MRPV 082200Z 14009KT CAVOK 21/15 A2997 NOSIG=
202008082300 METAR MRPV 082300Z 09014KT 9999 FEW035 BKN120 21/15 A3000 NOSIG=
202008090000 METAR MRPV 090000Z 13009KT 9999 FEW035 BKN120 21/15 A3004 NOSIG=
202008090100 METAR MRPV NIL=
202008090200 METAR MRPV NIL=
202008090300 METAR MRPV NIL=
202008090400 METAR MRPV NIL=
202008090500 METAR MRPV NIL=
202008090600 METAR MRPV NIL=
202008090700 METAR MRPV NIL=
202008090800 METAR MRPV NIL=
202008090900 METAR MRPV NIL=
202008091000 METAR MRPV NIL=
202008091100 METAR MRPV NIL=
202008091200 METAR MRPV 091200Z 12008KT 9999 SCT030 21/17 A3003 NOSIG=
202008091300 METAR MRPV 091300Z 12005KT 9999 FEW030 BKN200 22/17 A3006 NOSIG=
202008091400 METAR MRPV 091400Z 13011KT 9999 FEW030 SCT120 BKN200 23/17 A3002 NOSIG=
202008091500 METAR MRPV 091500Z 12013KT 9999 FEW030 SCT120 BKN200 24/17 A3003 NOSIG=
202008091600 METAR MRPV 091600Z 11012G22KT 9999 SCT030 BKN120 24/17 A3006 NOSIG=
202008091700 METAR MRPV 091700Z 08013KT 9999 FEW030 BKN120 23/18 A3006 NOSIG=
202008091800 METAR MRPV 091800Z 09013KT 9999 FEW040 BKN100 25/17 A3003 NOSIG=
202008091900 METAR MRPV 091900Z 07008KT 9999 FEW045 BKN100 25/18 A3000 NOSIG=
202008092000 METAR MRPV 092000Z 08008KT 9999 FEW040 BKN120 26/18 A2998 NOSIG=
202008092100 METAR MRPV 092100Z 07006KT CAVOK 27/17 A2997 NOSIG=
202008092200 METAR MRPV 092200Z 07007KT 9999 FEW025 BKN100 26/15 A2999 NOSIG=
202008092300 METAR MRPV 092300Z 30006KT 9999 FEW045 BKN120 23/20 A3000 NOSIG=
202008100000 METAR MRPV 100000Z 35004KT CAVOK 22/20 A3001 NOSIG=
202008100100 METAR MRPV NIL=
202008100200 METAR MRPV NIL=
202008100300 METAR MRPV NIL=
202008100400 METAR MRPV NIL=
202008100500 METAR MRPV NIL=
202008100600 METAR MRPV NIL=
202008100700 METAR MRPV NIL=
202008100800 METAR MRPV NIL=
202008100900 METAR MRPV NIL=
202008101000 METAR MRPV NIL=
202008101100 METAR MRPV NIL=
202008101200 METAR MRPV 101200Z 09006KT CAVOK 19/17 A2999 NOSIG=
202008101300 METAR MRPV 101300Z 08002KT CAVOK 20/17 A3001 NOSIG=
202008101400 METAR MRPV 101400Z 31002KT CAVOK 22/18 A3002 NOSIG=
202008101500 METAR MRPV 101500Z 29005KT CAVOK 24/18 A3001 NOSIG=
202008101600 METAR MRPV 101600Z 29008KT CAVOK 25/18 A3003 NOSIG=
202008101700 METAR MRPV 101700Z 28008KT 9999 SCT040 BKN200 26/18 A3003 NOSIG=
202008101800 METAR MRPV 101800Z 29006KT 9999 BKN040 SCT200 26/19 A3000 NOSIG=
202008101900 METAR MRPV 101900Z 29009KT 9999 SCT040 BKN200 26/19 A2998 NOSIG=
202008102000 METAR MRPV 102000Z 30008KT 9999 SCT030 SCT200 26/19 A2996 NOSIG=
202008102100 METAR MRPV 102100Z 29008KT 9999 FEW020CB BKN025 24/20 A2994 TEMPO SHRA=
202008102200 METAR MRPV 102200Z 28010KT 9999 RA BKN025 23/20 A2993 NOSIG=
202008102300 METAR MRPV 102300Z 28008KT 9999 RA BKN005 21/20 A2995 NOSIG=
202008110000 METAR MRPV 110000Z VRB02KT 8000 RA BKN010 20/20 A2999 NOSIG=
202008110100 METAR MRPV NIL=
202008110200 METAR MRPV NIL=
202008110300 METAR MRPV NIL=
202008110400 METAR MRPV NIL=
202008110500 METAR MRPV NIL=
202008110600 METAR MRPV NIL=
202008110700 METAR MRPV NIL=
202008110800 METAR MRPV NIL=
202008110900 METAR MRPV NIL=
202008111000 METAR MRPV NIL=
202008111100 METAR MRPV NIL=
202008111200 METAR MRPV 111200Z 09006KT 9999 FEW0285 SCT080 20/18 A2997 NOSIG=
202008111300 METAR MRPV 111300Z 13007KT 9999 FEW035 BKN080 22/18 A2998 NOSIG=
202008111400 METAR MRPV 111400Z 09007KT 9999 FEW030 SCT070 BKN200 24/19 A3000 NOSIG=
202008111500 METAR MRPV 111500Z 09013KT 9999 FEW035 SCT060 BKN200 24/18 A3000 NOSIG=
202008111600 METAR MRPV 111600Z 11009KT 9999 FEW020 SCT040 BKN200 24/19 A3001 NOSIG=
202008111700 METAR MRPV 111700Z 08013KT 9999 SCT035 BKN200 26/19 A3000 NOSIG=
202008111800 METAR MRPV 111800Z 09015KT 9999 FEW025 BKN180 24/19 A2999 NOSIG=
202008111900 METAR MRPV 111900Z 08011KT 9999 SCT035 BKN160 25/18 A2998 NOSIG=
202008112000 METAR MRPV 112000Z 10011KT 9999 FEW030 SCT060 BKN140 24/18 A2996 NOSIG=
202008112100 METAR MRPV 112100Z 11013KT 9999 FEW020 BKN140 22/18 A2995 NOSIG=
202008112200 METAR MRPV 112200Z 08018KT 9999 FEW020 BKN140 21/18 A2996 NOSIG=
202008112300 METAR MRPV 112300Z 10012KT 9999 FEW020 OVC140 22/17 A2996 NOSIG=
202008120000 METAR MRPV 120000Z 10014KT 9999 FEW025 SCT110 21/17 A2997 NOSIG=
202008120100 METAR MRPV NIL=
202008120200 METAR MRPV NIL=
202008120300 METAR MRPV NIL=
202008120400 METAR MRPV NIL=
202008120500 METAR MRPV NIL=
202008120600 METAR MRPV NIL=
202008120700 METAR MRPV NIL=
202008120800 METAR MRPV NIL=
202008120900 METAR MRPV NIL=
202008121000 METAR MRPV NIL=
202008121100 METAR MRPV NIL=
202008121200 METAR MRPV 121200Z 14010KT CAVOK 20/15 A2996 NOSIG=
202008121300 METAR MRPV 121300Z 12014KT CAVOK 22/15 A2997 NOSIG=
202008121400 METAR MRPV 121400Z 11015G25KT CAVOK 23/15 A2999 NOSIG=
202008121500 METAR MRPV 121500Z 08014KT CAVOK 25/15 A3000 NOSIG=
202008121600 METAR MRPV 121600Z 07014KT CAVOK 25/16 A3000 NOSIG=
202008121700 METAR MRPV 121700Z 08014KT CAVOK 26/17 A2999 NOSIG=
202008121800 METAR MRPV 121800Z 07016KT 9999 FEW045 26/17 A2995 NOSIG=
202008121900 METAR MRPV 121900Z 08015KT 9999 FEW045 SCT090 27/18 A2993 NOSIG=
202008122000 METAR MRPV 122000Z 07011KT 9999 SCT040 28/18 A2991 NOSIG=
202008122100 METAR MRPV 122100Z 09013KT 9999 FEW030 BKN050 25/18 A2990 NOSIG=
202008122200 METAR MRPV 122200Z 10012KT 9999 FEW030 BKN070 24/19 A2989 NOSIG=
202008122300 METAR MRPV 122300Z 09010KT 9999 FEW020 BKN040 23/18 A2992 NOSIG=
202008130000 METAR MRPV 130000Z 11006KT 9999 FEW025 BKN050 23/18 A2994 NOSIG=
202008130100 METAR MRPV NIL=
202008130200 METAR MRPV NIL=
202008130300 METAR MRPV NIL=
202008130400 METAR MRPV NIL=
202008130500 METAR MRPV NIL=
202008130600 METAR MRPV NIL=
202008130700 METAR MRPV NIL=
202008130800 METAR MRPV NIL=
202008130900 METAR MRPV NIL=
202008131000 METAR MRPV NIL=
202008131100 METAR MRPV NIL=
202008131200 METAR MRPV 131200Z 13007KT 9999 SCT035 BKN160 21/18 A2994 NOSIG=
202008131300 METAR MRPV 131300Z 14006KT 9999 FEW035 SCT100 BKN160 22/18 A2995 NOSIG=
202008131400 METAR MRPV 131400Z 12004KT 9999 FEW035 BKN120 23/18 A2998 NOSIG=
202008131500 METAR MRPV 131500Z 31002KT 9999 FEW035 BKN120 23/18 A3000 NOSIG=
202008131600 METAR MRPV 131600Z 10011KT 9999 SCT035 BKN120 24/18 A3000 NOSIG=
202008131700 METAR MRPV 131700Z 11014KT 9999 RA FEW030 SCT100 BKN160 22/19 A3001 REDZ NOSIG=
202008131800 METAR MRPV 131800Z 11011KT 9999 FEW030 BKN120 22/17 A2996 RERA NOSIG=
202008131900 METAR MRPV 131900Z 14010KT 9999 FEW035 BKN120 22/17 A2994 NOSIG=
202008132000 METAR MRPV 132000Z 10012KT 9999 FEW035 SCT120 BKN200 23/17 A2994 NOSIG=
202008132100 METAR MRPV 132100Z 07013KT 9999 FEW035 SCT120 BKN200 26/18 A2991 NOSIG=
202008132200 METAR MRPV 132200Z 07010KT 9999 FEW035 SCT120 BKN200 24/17 A2991 NOSIG=
202008132300 METAR MRPV 132300Z 07012KT 9999 FEW035 SCT120 BKN200 23/17 A2990 NOSIG=
202008140000 METAR MRPV 140000Z 10009KT 9999 SCT030 SCT120 22/18 A2993 NOSIG=
202008140100 METAR MRPV NIL=
202008140200 METAR MRPV NIL=
202008140300 METAR MRPV NIL=
202008140400 METAR MRPV NIL=
202008140500 METAR MRPV NIL=
202008140600 METAR MRPV NIL=
202008140700 METAR MRPV NIL=
202008140800 METAR MRPV NIL=
202008140900 METAR MRPV NIL=
202008141000 METAR MRPV NIL=
202008141100 METAR MRPV NIL=
202008141200 METAR MRPV 141200Z 10003KT CAVOK 20/17 A2991 NOSIG=
202008141300 METAR MRPV 141300Z 14008KT 9999 FEW035 BKN120 22/17 A2993 NOSIG=
202008141400 METAR MRPV 141400Z 11008KT 9999 FEW035 SCT120 23/17 A2995 NOSIG=
202008141500 METAR MRPV 141500Z 13006KT 9999 FEW035 BKN120 24/18 A2996 NOSIG=
202008141600 METAR MRPV 141600Z 11006KT CAVOK 24/18 A2996 NOSIG=
202008141700 METAR MRPV 141700Z 33004KT 9999 FEW035 BKN120 26/17 A2996 NOSIG=
202008141800 METAR MRPV 141800Z 28003KT 9999 SCT035 SCT120 25/19 A2994 NOSIG=
202008141900 METAR MRPV 141900Z 30007KT 9999 -SHRA FEW020TCU FEW035 SCT120 25/19 A2992 NOSIG=
202008142000 METAR MRPV 142000Z COR 22002KT 4000 SHRA VCTS SCT020TCU SCT030 24/21 A2990 NOSIG=
202008142100 METAR MRPV 142100Z COR 33005KT 4000 RA BR BKN005 SCT010 21/20 A2990 NOSIG=
202008142200 METAR MRPV 142200Z 31006KT 4000 -RA BR BKN005 SCT010 21/20 A2990 NOSIG=
202008142300 METAR MRPV 142300Z 29003KT 4000 +RA BR BKN005 SCT010 21/20 A2991 NOSIG=
202008150000 METAR MRPV 150000Z 32003KT 4000 RA BR BKN005 SCT010 20/20 A2994 NOSIG=
202008150100 METAR MRPV NIL=
202008150200 METAR MRPV NIL=
202008150300 METAR MRPV NIL=
202008150400 METAR MRPV NIL=
202008150500 METAR MRPV NIL=
202008150600 METAR MRPV NIL=
202008150700 METAR MRPV NIL=
202008150800 METAR MRPV NIL=
202008150900 METAR MRPV NIL=
202008151000 METAR MRPV NIL=
202008151100 METAR MRPV NIL=
202008151200 METAR MRPV 151200Z 11005KT CAVOK 20/16 A2994 NOSIG=
202008151300 METAR MRPV 151300Z 09004KT CAVOK 20/17 A2997 NOSIG=
202008151400 METAR MRPV 151400Z 32005KT CAVOK 20/18 A3001 NOSIG=
202008151500 METAR MRPV 151500Z 30002KT CAVOK 21/18 A3002 NOSIG=
202008151600 METAR MRPV 151600Z 30002KT CAVOK 24/18 A3001 NOSIG=
202008151700 METAR MRPV 151700Z 08014KT 9999 FEW030 BKN120 24/17 A3001 NOSIG=
202008151800 METAR MRPV 151800Z 09012KT 9999 RA SCT050 BKN120 25/18 A2998 NOSIG=
202008151900 METAR MRPV 151900Z 09011KT 9999 RA BKN030 SCT100 23/17 A2997 NOSIG=
202008152000 METAR MRPV 152000Z 10013KT 9999 4000NE RA FEW020 SCT080 BKN120 23/17 A2996 NOSIG=
202008152100 METAR MRPV 152100Z 09015KT 9999 FEW020 SCT080 BKN100 24/17 A2994 RERA NOSIG=
202008152200 METAR MRPV 152200Z 10012KT 9999 DZ FEW015 SCT080 BKN100 22/17 A2995 NOSIG=
202008152300 METAR MRPV 152300Z 13010KT 9999 DZ FEW025 SCT080 BKN100 21/17 A2997 NOSIG=
202008160000 METAR MRPV 160000Z 12007KT 9999 DZ FEW010 SCT070 BKN100 21/18 A3000 NOSIG=
202008160100 METAR MRPV NIL=
202008160200 METAR MRPV NIL=
202008160300 METAR MRPV NIL=
202008160400 METAR MRPV NIL=
202008160500 METAR MRPV NIL=
202008160600 METAR MRPV NIL=
202008160700 METAR MRPV NIL=
202008160800 METAR MRPV NIL=
202008160900 METAR MRPV NIL=
202008161000 METAR MRPV NIL=
202008161100 METAR MRPV NIL=
202008161200 METAR MRPV 161200Z 12008KT CAVOK 20/17 A3001 NOSIG=
202008161300 METAR MRPV 161300Z 12008KT 9999 FEW030 BKN100 21/17 A3003 NOSIG=
202008161400 METAR MRPV 161400Z 12007KT 9999 FEW040 BKN100 22/17 A3003 NOSIG=
202008161500 METAR MRPV 161500Z 13010KT 9999 FEW040 BKN100 23/17 A3004 NOSIG=
202008161600 METAR MRPV 161600Z 09014KT 9999 FEW040 BKN100 25/17 A3004 NOSIG=
202008161700 METAR MRPV 161700Z 09012KT 9999 FEW030 BKN100 24/17 A3004 NOSIG=
202008161800 METAR MRPV 161800Z 09012KT 9999 FEW040 BKN100 25/17 A3002 NOSIG=
202008161900 METAR MRPV 161900Z 11009KT 9999 SCT030 BKN100 25/18 A3000 NOSIG=
202008162000 METAR MRPV 162000Z 10013KT 9999 FEW040 SCT090 BKN200 25/17 A2999 NOSIG=
202008162100 METAR MRPV 162100Z 10012KT 9999 FEW030 SCT060 BKN140 23/17 A2998 NOSIG=
202008162200 METAR MRPV 162200Z 11008KT 9999 FEW030 BKN140 23/17 A2998 NOSIG=
202008162300 METAR MRPV 162300Z 08005KT 9999 FEW030 SCT080 BKN140 23/17 A3000 NOSIG=
202008170000 METAR MRPV 170000Z VRB02KT 9999 FEW010 OVC120 20/19 A3001 NOSIG=
202008170100 METAR MRPV NIL=
202008170200 METAR MRPV NIL=
202008170300 METAR MRPV NIL=
202008170400 METAR MRPV NIL=
202008170500 METAR MRPV NIL=
202008170600 METAR MRPV NIL=
202008170700 METAR MRPV NIL=
202008170800 METAR MRPV NIL=
202008170900 METAR MRPV NIL=
202008171000 METAR MRPV NIL=
202008171100 METAR MRPV NIL=
202008171200 METAR MRPV 171200Z 10010KT CAVOK 20/16 A3004 NOSIG=
202008171300 METAR MRPV 171300Z 11009KT CAVOK 21/15 A3005 NOSIG=
202008171400 METAR MRPV 171400Z 12008KT CAVOK 23/15 A3005 NOSIG=
202008171500 METAR MRPV 171500Z 12008KT CAVOK 26/16 A3007 NOSIG=
202008171600 METAR MRPV 171600Z 09011KT CAVOK 26/16 A3007 NOSIG=
202008171700 METAR MRPV 171700Z 09008KT CAVOK 27/16 A3006 NOSIG=
202008171800 METAR MRPV 171800Z 08006KT 9999 FEW045 BKN220 27/17 A3003 NOSIG=
202008171900 METAR MRPV 171900Z 10009KT 9999 BKN045 29/17 A3001 NOSIG=
202008172000 METAR MRPV 172000Z 33005KT 9999 FEW020 SCT040 26/19 A2999 NOSIG=
202008172100 METAR MRPV 172100Z 35005KT 4500 RA FEW010 BKN045 22/20 A3001 NOSIG=
202008172200 METAR MRPV 172200Z 32005KT 9999 BCFG FEW004 SCT010 BKN080 20/19 A3002 NOSIG=
202008172300 METAR MRPV 172300Z 33002KT 4000 RA BR FEW004 SCT035 BKN090 20/19 A3004 NOSIG=
202008180000 METAR MRPV 180000Z 12004KT 9999 BCFG FEW008 BKN100 20/18 A3004 NOSIG=
202008180100 METAR MRPV NIL=
202008180200 METAR MRPV NIL=
202008180300 METAR MRPV NIL=
202008180400 METAR MRPV NIL=
202008180500 METAR MRPV NIL=
202008180600 METAR MRPV NIL=
202008180700 METAR MRPV NIL=
202008180800 METAR MRPV NIL=
202008180900 METAR MRPV NIL=
202008181000 METAR MRPV NIL=
202008181100 METAR MRPV NIL=
202008181200 METAR MRPV 181200Z 13004KT CAVOK 29/16 A3004 NOSIG=
202008181300 METAR MRPV 181300Z 15005KT 9999 FEW030 SCT110 21/17 A3004 NOSIG=
202008181400 METAR MRPV 181400Z 12011KT 9999 FEW035 SCT160 24/18 A3003 NOSIG=
202008181500 METAR MRPV 181500Z 10013KT 9999 FEW035 SCT160 24/18 A3005 NOSIG=
202008181600 METAR MRPV 181600Z 08012KT 9999 FEW040 BKN200 25/18 A3006 NOSIG=
202008181700 METAR MRPV 181700Z 08012KT 9999 FEW040 BKN200 27/17 A3004 NOSIG=
202008181800 METAR MRPV 181800Z 09016KT 9999 FEW035 BKN200 26/18 A3004 NOSIG=
202008181900 METAR MRPV 181900Z 07011KT 9999 FEW035 BKN200 27/17 A3001 NOSIG=
202008182000 METAR MRPV 182000Z 08012KT 9999 FEW030 BKN110 25/17 A2999 NOSIG=
202008182100 METAR MRPV 182100Z 08007KT 9999 FEW020 BKN110 23/21 A3000 NOSIG=
202008182200 METAR MRPV 182200Z 05003KT 330V050 9999 SCT030 BKN110 24/17 A2999 NOSIG=
202008182300 METAR MRPV 182300Z 13005KT 9999 FEW010 SCT040 BKN120 24/17 A3001 NOSIG=
202008190000 METAR MRPV 190000Z 29005KT 9999 BCFG FEW005 BKN080 21/20 A3001 NOSIG=
202008190100 METAR MRPV NIL=
202008190200 METAR MRPV NIL=
202008190300 METAR MRPV NIL=
202008190400 METAR MRPV NIL=
202008190500 METAR MRPV NIL=
202008190600 METAR MRPV NIL=
202008190700 METAR MRPV NIL=
202008190800 METAR MRPV NIL=
202008190900 METAR MRPV NIL=
202008191000 METAR MRPV NIL=
202008191100 METAR MRPV NIL=
202008191200 METAR MRPV 191200Z 11006KT CAVOK 21/16 A3002 NOSIG=
202008191300 METAR MRPV 191300Z 13007KT CAVOK 21/16 A3004 NOSIG=
202008191400 METAR MRPV 191400Z 13009KT CAVOK 23/16 A3005 NOSIG=
202008191500 METAR MRPV 191500Z 09004KT CAVOK 25/15 A3004 NOSIG=
202008191600 METAR MRPV 191600Z 09009KT CAVOK 27/16 A3002 NOSIG=
202008191700 METAR MRPV 191700Z 05005KT 9999 FEW035 BKN140 28/16 A3002 NOSIG=
202008191800 METAR MRPV 191800Z 28013KT 9999 SCT030 26/21 A3001 NOSIG=
202008191900 METAR MRPV 191900Z 29013KT 9999 FEW020TCU SCT025 24/20 A2999 NOSIG=
202008192000 METAR MRPV 192000Z 29011KT 9999 3000NE -TSRA SHRA SCT015CB SCT020 24/20 A2997 NOSIG=
202008192100 METAR MRPV 192100Z 29011KT 9999 4000N SHRA SCT015TCU SCT025 22/19 A2996 RETSRA NOSIG=
202008192200 METAR MRPV 192200Z 33008KT 4000 -RA SCT015 SCT025 20/19 A2997 RESHRA NOSIG=
202008192300 METAR MRPV 192300Z 33003KT 4000 -RA BR BKN010 SCT025 20/19 A3000 NOSIG=
202008200000 METAR MRPV 200000Z 29006KT 4000 -RA BR VCTS BKN010 SCT025 19/19 A3002 NOSIG=
202008200100 METAR MRPV NIL=
202008200200 METAR MRPV NIL=
202008200300 METAR MRPV NIL=
202008200400 METAR MRPV NIL=
202008200500 METAR MRPV NIL=
202008200600 METAR MRPV NIL=
202008200700 METAR MRPV NIL=
202008200800 METAR MRPV NIL=
202008200900 METAR MRPV NIL=
202008201000 METAR MRPV NIL=
202008201100 METAR MRPV NIL=
202008201200 METAR MRPV 201200Z 19002KT 050V190 9999 FEW015 BKN225 18/17 A3003 NOSIG=
202008201300 METAR MRPV 201300Z 15002KT 9999 FEW030 SCT250 21/18 A3004 NOSIG=
202008201400 METAR MRPV 201400Z 26002KT 9999 FEW030 SCT140 23/18 A3006 NOSIG=
202008201500 METAR MRPV 201500Z 24004KT 9999 FEW035 BKN120 22/18 A3006 NOSIG=
202008201600 METAR MRPV 201600Z 26004KT 9999 FEW035 BKN120 23/18 A3007 NOSIG=
202008201700 METAR MRPV 201700Z 28008KT 9999 DZ SCT030 SCT100 24/19 A3006 NOSIG=
202008201800 METAR MRPV 201800Z 30008KT 9999 SCT030 BKN100 23/19 A3003 REDZ NOSIG=
202008201900 METAR MRPV 201900Z 30008KT 9999 SCT030 BKN100 23/20 A3001 RERA NOSIG=
202008202000 METAR MRPV 202000Z 31009KT 9999 FEW035 SCT120 BKN200 25/19 A2998 NOSIG=
202008202100 METAR MRPV 202100Z 29012KT 9999 FEW020 SCT030 24/18 A2997 NOSIG=
202008202200 METAR MRPV 202200Z 29009KT 9999 SCT030 SCT100 23/18 A2998 NOSIG=
202008202300 METAR MRPV 202300Z 30008KT 8000 BCFG FEW010 SCT025 BKN100 21/19 A3001 NOSIG=
202008210000 METAR MRPV 210000Z 31004KT 5000 -RA BCFG SCT010 SCT025 20/19 A3002 NOSIG=
202008210100 METAR MRPV NIL=
202008210200 METAR MRPV NIL=
202008210300 METAR MRPV NIL=
202008210400 METAR MRPV NIL=
202008210500 METAR MRPV NIL=
202008210600 METAR MRPV NIL=
202008210700 METAR MRPV NIL=
202008210800 METAR MRPV NIL=
202008210900 METAR MRPV NIL=
202008211000 METAR MRPV NIL=
202008211100 METAR MRPV NIL=
202008211200 METAR MRPV 211200Z 00000KT 9999 FEW025 BKN090 19/18 A3002 NOSIG=
202008211300 METAR MRPV 211300Z 00000KT 9999 FEW020 SCT200 20/19 A3004 NOSIG=
202008211400 METAR MRPV 211400Z 31003KT 9999 SCT015 22/20 A3005 NOSIG=
202008211500 METAR MRPV 211500Z 28007KT 9999 FEW010 SCT200 23/19 A3006 NOSIG=
202008211600 METAR MRPV 211600Z 29007KT 9999 SCT015 24/19 A3006 NOSIG=
202008211700 METAR MRPV 211700Z 28007KT 9999 FEW025 SCT250 25/20 A3004 NOSIG=
202008211800 METAR MRPV 211800Z 28009KT 9999 FEW020TCU FEW020 BKN200 25/20 A3002 NOSIG=
202008211900 METAR MRPV 211900Z 30011KT 9999 FEW020CB FEW020 SCT200 25/20 A2998 NOSIG=
202008212000 METAR MRPV 212000Z 31011KT 9999 BKN010 24/20 A2997 TEMPO RA=
202008212100 METAR MRPV 212100Z 29012KT 9999 -DZ OVC004 22/20 A2997 TEMPO RA=
202008212200 METAR MRPV 212200Z 26008KT 3000 RA OVC001 19/18 A2997 NOSIG=
202008212300 METAR MRPV 212300Z 32008KT 4000 RA OVC005 20/19 A3000 NOSIG=
202008220000 METAR MRPV 220000Z 29003KT 5000 RA OVC002 19/18 A3004 NOSIG=
202008220100 METAR MRPV NIL=
202008220200 METAR MRPV NIL=
202008220300 METAR MRPV NIL=
202008220400 METAR MRPV NIL=
202008220500 METAR MRPV NIL=
202008220600 METAR MRPV NIL=
202008220700 METAR MRPV NIL=
202008220800 METAR MRPV NIL=
202008220900 METAR MRPV NIL=
202008221000 METAR MRPV NIL=
202008221100 METAR MRPV NIL=
202008221200 METAR MRPV 221200Z 10009KT CAVOK 18/16 A3000 NOSIG=
202008221300 METAR MRPV 221300Z 10006KT CAVOK 20/17 A3001 NOSIG=
202008221400 METAR MRPV 221400Z 13007KT CAVOK 23/16 A3001 NOSIG=
202008221500 METAR MRPV 221500Z 12010KT CAVOK 26/15 A3002 NOSIG=
202008221600 METAR MRPV 221600Z 04003KT CAVOK 26/18 A3003 BECMG 26005KT=
202008221700 METAR MRPV 221700Z 29011KT 9999 FEW025 BKN200 23/19 A3005 NOSIG=
202008221800 METAR MRPV 221800Z 32006KT 9999 SCT020 BKN200 23/19 A3004 NOSIG=
202008221900 METAR MRPV 221900Z 28006KT 9999 SCT030 SCT100 24/19 A3003 NOSIG=
202008222000 METAR MRPV 222000Z 30009KT 9999 SCT020 BKN100 23/19 A3001 NOSIG=
202008222100 METAR MRPV 222100Z 30008KT 9999 SCT020 BKN100 24/19 A2999 NOSIG=
202008222200 METAR MRPV 222200Z 30006KT 9999 FEW015 BKN100 23/20 A2998 NOSIG=
202008222300 METAR MRPV 222300Z 28007KT 9999 FEW005 BKN015 22/20 A3000 NOSIG=
202008230000 METAR MRPV 230000Z 29007KT 9999 BKN005 21/20 A3003 NOSIG=
202008230100 METAR MRPV NIL=
202008230200 METAR MRPV NIL=
202008230300 METAR MRPV NIL=
202008230400 METAR MRPV NIL=
202008230500 METAR MRPV NIL=
202008230600 METAR MRPV NIL=
202008230700 METAR MRPV NIL=
202008230800 METAR MRPV NIL=
202008230900 METAR MRPV NIL=
202008231000 METAR MRPV NIL=
202008231100 METAR MRPV NIL=
202008231200 METAR MRPV 231200Z VRB01KT 2000 BR OVC008 18/18 A3002 NOSIG=
202008231300 METAR MRPV 231300Z 29001KT 4500 BR SCT005 BKN160 19/18 A3003 BECMG 5000=
202008231400 METAR MRPV 231400Z 35003KT 9999 BCFG SCT010 SCT200 20/18 A3004 NOSIG=
202008231500 METAR MRPV 231500Z 01001KT 9999 FEW045 24/18 A3003 NOSIG=
202008231600 METAR MRPV 231600Z 27007KT 9999 FEW015 SCT045 24/20 A3002 NOSIG=
202008231700 METAR MRPV 231700Z 27007KT 9999 FEW020 SCT035 24/20 A3002 NOSIG=
202008231800 METAR MRPV 231800Z 28011KT 9999 FEW007 BKN015 23/19 A3001 NOSIG=
202008231900 METAR MRPV 231900Z 31009KT 8000 BCFG OVC008 22/19 A3001 NOSIG=
202008232000 METAR MRPV 232000Z 28009KT 4500 BR OVC008 21/20 A2998 NOSIG=
202008232100 METAR MRPV 232100Z 29008KT 3000 -RA BR OVC003 20/20 A2998 NOSIG=
202008232200 METAR MRPV 232200Z 29009KT 1500 -DZ BR OVC002 20/19 A2998 NOSIG=
202008232300 METAR MRPV 232300Z 29005KT 4000 BR OVC005 20/19 A3000 NOSIG=
202008240000 METAR MRPV 240000Z 35002KT 5000 BR FEW003 BKN008 20/19 A3000 NOSIG=
202008240100 METAR MRPV NIL=
202008240200 METAR MRPV NIL=
202008240300 METAR MRPV NIL=
202008240400 METAR MRPV NIL=
202008240500 METAR MRPV NIL=
202008240600 METAR MRPV NIL=
202008240700 METAR MRPV NIL=
202008240800 METAR MRPV NIL=
202008240900 METAR MRPV NIL=
202008241100 METAR MRPV NIL=
202008241200 METAR MRPV 241200Z 27002KT 2000 BR OVC002 19/18 A3002 NOSIG=
202008241300 METAR MRPV 241300Z 26001KT 5000 BR FEW002 BKN008 19/19 A3003 NOSIG=
202008241400 METAR MRPV 241400Z 34001KT 9999 FEW008 SCT020 21/19 A3004 NOSIG=
202008241500 METAR MRPV 241500Z 34003KT 9999 SCT015 SCT200 23/18 A3004 NOSIG=
202008241600 METAR MRPV 241600Z 33005KT 9999 FEW020 SCT035 25/18 A3004 NOSIG=
202008241700 METAR MRPV 241700Z 27006KT 9999 SCT035 SCT200 26/19 A3002 NOSIG=
202008241800 METAR MRPV 241800Z 27008KT 9999 SCT035 25/20 A3001 NOSIG=
202008241900 METAR MRPV 241900Z 29009KT 9999 RA FEW020TCU SCT030 25/19 A2998 NOSIG=
202008242000 METAR MRPV 242000Z 34004KT 5000 RA BR SCT020 BKN050 23/20 A2997 NOSIG=
202008242100 METAR MRPV 242100Z 28009KT 5000 BR BKN010 23/21 A2995 NOSIG=
202008242200 METAR MRPV 242200Z 28007KT 8000 VCFG BKN008 22/20 A2995 NOSIG=
202008242300 METAR MRPV 242300Z 27005KT 7000 BCFG FEW003 BKN008 21/20 A2994 NOSIG=
202008250000 METAR MRPV 250000Z 22002KT 3000 RA BR OVC004 21/20 A2997 NOSIG=
202008250100 METAR MRPV NIL=
202008250200 METAR MRPV NIL=
202008250300 METAR MRPV NIL=
202008250400 METAR MRPV NIL=
202008250500 METAR MRPV NIL=
202008250600 METAR MRPV NIL=
202008250700 METAR MRPV NIL=
202008250800 METAR MRPV NIL=
202008250900 METAR MRPV NIL=
202008251000 METAR MRPV NIL=
202008251100 METAR MRPV NIL=
202008251200 METAR MRPV 251200Z 13008KT CAVOK 20/16 A2995 NOSIG=
202008251300 METAR MRPV 251300Z 15007KT 9999 FEW035 BKN200 22/17 A2996 NOSIG=
202008251400 METAR MRPV 251400Z 13004KT 9999 BCFG FEW005 BKN200 23/17 A2998 NOSIG=
202008251500 METAR MRPV 251500Z 30009KT 9999 BCFG FEW010 BKN200 22/19 A3001 NOSIG=
202008251600 METAR MRPV 251600Z 28008KT 9999 FEW020 BKN200 23/19 A3002 NOSIG=
202008251700 METAR MRPV 251700Z 30006KT 9999 FEW035 BKN200 24/18 A2999 NOSIG=
202008251800 METAR MRPV 251800Z 28007KT 9999 SCT035 BKN200 24/19 A2997 NOSIG=
202008251900 METAR MRPV 251900Z 28008KT 9999 SCT035 BKN100 24/18 A2994 NOSIG=
202008252000 METAR MRPV 252000Z 28006KT 8000 SCT035 BKN100 24/19 A2992 NOSIG=
202008252100 METAR MRPV 252100Z COR 27005KT 6000 SHRA FEW020TCU SCT035 SCT100 24/19 A2991 NOSIG=
202008252200 METAR MRPV 252200Z 01005KT 2000 +TSRA SCT005CB FEW030 SCT100 19/18 A2993 NOSIG=
202008252300 METAR MRPV 252300Z COR 01001KT 4000 -TSRA FEW010 SCT025CB SCT100 19/18 A2995 NOSIG=
202008260000 METAR MRPV 260000Z 30003KT 5000 RA BCFG FEW005 SCT030 BKN100 19/19 A2996 RETSRA NOSIG=
202008260100 METAR MRPV NIL=
202008260200 METAR MRPV NIL=
202008260300 METAR MRPV NIL=
202008260400 METAR MRPV NIL=
202008260500 METAR MRPV NIL=
202008260600 METAR MRPV NIL=
202008260700 METAR MRPV NIL=
202008260800 METAR MRPV NIL=
202008260900 METAR MRPV NIL=
202008261000 METAR MRPV NIL=
202008261100 METAR MRPV NIL=
202008261200 METAR MRPV 261200Z 30004KT 0500 -DZ FG OVC005 19/18 A3001 NOSIG=
202008261300 METAR MRPV 261300Z 31003KT 2000 BR BKN005 19/18 A3002 NOSIG=
202008261400 METAR MRPV 261400Z 28005KT 5000 -DZ BCFG BKN005 20/18 A3003 NOSIG=
202008261500 METAR MRPV 261500Z 30005KT 5000 BCFG SCT010 BKN030 20/18 A3005 NOSIG=
202008261600 METAR MRPV 261600Z 35004KT 8000 SCT010 BKN025 21/18 A3004 NOSIG=
202008261700 METAR MRPV 261700Z 31004KT 9999 BKN015 21/19 A3004 NOSIG=
202008261800 METAR MRPV 261800Z 30007KT 5000 BCFG BKN010 SCT025 21/19 A3003 NOSIG=
202008261900 METAR MRPV 261900Z 30008KT 9999 BKN010 21/19 A3000 NOSIG=
202008262000 METAR MRPV 262000Z 32005KT 6000 -RA SCT010 BKN025 21/18 A2999 NOSIG=
202008262100 METAR MRPV 262100Z 31007KT 9999 3000S -RA BKN010 21/18 A2998 NOSIG=
202008262200 METAR MRPV 262200Z 34003KT 4000 -RA BR BKN010 20/19 A2999 NOSIG=
202008262300 METAR MRPV 262300Z 31005KT 4000 -RA BR BKN008 19/19 A3000 NOSIG=
202008270000 METAR MRPV 270000Z 02002KT 4500 -RA BKN010 19/18 A3002 NOSIG=
202008270100 METAR MRPV NIL=
202008270200 METAR MRPV NIL=
202008270300 METAR MRPV NIL=
202008270400 METAR MRPV NIL=
202008270500 METAR MRPV NIL=
202008270600 METAR MRPV NIL=
202008270700 METAR MRPV NIL=
202008270800 METAR MRPV NIL=
202008270900 METAR MRPV NIL=
202008271000 METAR MRPV NIL=
202008271100 METAR MRPV NIL=
202008271200 METAR MRPV 271200Z 11002KT CAVOK 18/17 A3008 NOSIG=
202008271300 METAR MRPV 271300Z 09003KT CAVOK 19/18 A3009 NOSIG=
202008271400 METAR MRPV 271400Z 12003KT CAVOK 21/18 A3010 NOSIG=
202008271500 METAR MRPV 271500Z 32002KT CAVOK 24/19 A3009 NOSIG=
202008271600 METAR MRPV 271600Z 28005KT CAVOK 23/19 A3009 NOSIG=
202008271700 METAR MRPV 271700Z 29006KT 9999 FEW035 BKN250 24/19 A3007 NOSIG=
202008271800 METAR MRPV 271800Z 28009KT 9999 FEW020TCU FEW030 SCT250 25/20 A3004 NOSIG=
202008271900 METAR MRPV 271900Z 29011KT 9999 BKN020 25/20 A3003 NOSIG=
202008272000 METAR MRPV 272000Z 28009KT 9999 BKN025 25/20 A3001 NOSIG=
202008272100 METAR MRPV 272100Z 28009KT 9999 BKN015 24/20 A3001 NOSIG=
202008272200 METAR MRPV 272200Z 27007KT 9999 OVC008 22/20 A3001 NOSIG=
202008272300 METAR MRPV 272300Z 29008KT 9999 OVC001 20/19 A3002 NOSIG=
202008280000 METAR MRPV 280000Z 32006KT 9999 OVC001 19/19 A3006 NOSIG=
202008280100 METAR MRPV NIL=
202008280200 METAR MRPV NIL=
202008280300 METAR MRPV NIL=
202008280400 METAR MRPV NIL=
202008280500 METAR MRPV NIL=
202008280600 METAR MRPV NIL=
202008280700 METAR MRPV NIL=
202008280800 METAR MRPV NIL=
202008280900 METAR MRPV NIL=
202008281000 METAR MRPV NIL=
202008281100 METAR MRPV NIL=
202008281200 METAR MRPV 281200Z 15008KT CAVOK 19/16 A3008 NOSIG=
202008281300 METAR MRPV 281300Z 12008KT CAVOK 22/17 A3009 NOSIG=
202008281400 METAR MRPV 281400Z 11013KT 9999 FEW045 24/17 A3011 NOSIG=
202008281500 METAR MRPV 281500Z 09013KT CAVOK 25/17 A3011 NOSIG=
202008281600 METAR MRPV 281600Z 08013KT CAVOK 26/17 A3010 NOSIG=
202008281700 METAR MRPV 281700Z 09011KT 9999 FEW040 26/18 A3010 NOSIG=
202008281800 METAR MRPV 281800Z 08006KT 9999 VCSH FEW020TCU SCT045 28/17 A3006 NOSIG=
202008281900 METAR MRPV 281900Z 06009KT 9999 FEW035 BKN100 24/17 A3005 REDZ NOSIG=
202008282000 METAR MRPV 282000Z 10009KT 9999 FEW040 BKN200 25/18 A3002 NOSIG=
202008282100 METAR MRPV 282100Z 09011KT 9999 BKN030 SCT200 25/17 A3002 NOSIG=
202008282200 METAR MRPV 282200Z 15007KT 5000 RA BKN020 SCT100 21/19 A3004 TEMPO 7000=
202008282300 METAR MRPV 282300Z 15007KT 9999 SCT035 BKN200 20/18 A3006 RERA NOSIG=
202008290000 METAR MRPV 290000Z 24002KT 9999 FEW040 BKN100 20/18 A3006 NOSIG=
202008290100 METAR MRPV NIL=
202008290200 METAR MRPV NIL=
202008290300 METAR MRPV NIL=
202008290400 METAR MRPV NIL=
202008290500 METAR MRPV NIL=
202008290600 METAR MRPV NIL=
202008290700 METAR MRPV NIL=
202008290800 METAR MRPV NIL=
202008290900 METAR MRPV NIL=
202008291000 METAR MRPV NIL=
202008291100 METAR MRPV NIL=
202008291200 METAR MRPV 291200Z 00000KT CAVOK 18/16 A3006 NOSIG=
202008291300 METAR MRPV 291300Z 11002KT CAVOK 21/16 A3008 NOSIG=
202008291400 METAR MRPV 291400Z 10001KT CAVOK 22/17 A3010 NOSIG=
202008291500 METAR MRPV 291500Z 08006KT 9999 FEW045 BKN250 25/17 A3009 NOSIG=
202008291600 METAR MRPV 291600Z 08012KT 9999 FEW045 BKN250 26/17 A3009 NOSIG=
202008291700 METAR MRPV 291700Z 08010KT 9999 FEW040 BKN250 27/17 A3007 NOSIG=
202008291800 METAR MRPV 291800Z 07009KT 9999 SCT045 BKN250 28/17 A3005 NOSIG=
202008291900 METAR MRPV 291900Z 07012KT 9999 SCT045 28/17 A3003 NOSIG=
202008292000 METAR MRPV 292000Z 06010KT 9999 SCT035 27/17 A3001 NOSIG=
202008292100 METAR MRPV 292100Z 29012KT 9999 SCT020 SCT035 25/21 A3001 NOSIG=
202008292200 METAR MRPV 292200Z 29008KT 9999 -RA FEW006 BKN015TCU 23/21 A3002 TEMPO BKN010=
202008292300 METAR MRPV 292300Z 25004KT 9999 VCFG FEW005 SCT015 BKN200 22/20 A3004 NOSIG=
202008300000 METAR MRPV 300000Z 31004KT 9999 BCFG FEW002 BKN200 21/19 A3005 NOSIG=
202008300100 METAR MRPV NIL=
202008300200 METAR MRPV NIL=
202008300300 METAR MRPV NIL=
202008300400 METAR MRPV NIL=
202008300500 METAR MRPV NIL=
202008300600 METAR MRPV NIL=
202008300700 METAR MRPV NIL=
202008300800 METAR MRPV NIL=
202008300900 METAR MRPV NIL=
202008301000 METAR MRPV NIL=
202008301100 METAR MRPV NIL=
202008301200 METAR MRPV 301200Z 13008KT 9999 FEW035 20/16 A3003 NOSIG=
202008301300 METAR MRPV 301300Z 13009KT 9999 FEW045 22/16 A3005 NOSIG=
202008301400 METAR MRPV 301400Z 11011KT 9999 FEW035 23/17 A3007 NOSIG=
202008301500 METAR MRPV 301500Z 09013KT 9999 FEW045 24/17 A3008 NOSIG=
202008301600 METAR MRPV 301600Z 07009KT 9999 SCT045 26/16 A3007 NOSIG=
202008301700 METAR MRPV 301700Z 07010KT 9999 BKN040 27/17 A3005 NOSIG=
202008301800 METAR MRPV 301800Z 05011KT 9999 FEW040 SCT090 25/17 A3003 NOSIG=
202008301900 METAR MRPV 301900Z 08013KT 9999 4000S DZ FEW020 BKN040 26/17 A3002 NOSIG=
202008302000 METAR MRPV 302000Z 13010KT 9999 FEW020 SCT060 BKN200 26/13 A2998 NOSIG=
202008302100 METAR MRPV 302100Z 08012KT 9999 FEW045 SCT090 BKN200 25/14 A2998 NOSIG=
202008302200 METAR MRPV 302200Z 09007KT CAVOK 25/14 A2997 NOSIG=
202008302300 METAR MRPV 302300Z 09008KT CAVOK 23/14 A2998 NOSIG=
202008310000 METAR MRPV 310000Z 29005KT 070V290 9999 BCFG FEW002 BKN200 20/18 A3000 NOSIG=
202008310100 METAR MRPV NIL=
202008310200 METAR MRPV NIL=
202008310300 METAR MRPV NIL=
202008310400 METAR MRPV NIL=
202008310500 METAR MRPV NIL=
202008310600 METAR MRPV NIL=
202008310700 METAR MRPV NIL=
202008310800 METAR MRPV NIL=
202008310900 METAR MRPV NIL=
202008311000 METAR MRPV NIL=
202008311100 METAR MRPV NIL=
202008311200 METAR MRPV 311200Z 13007KT 9999 FEW040 19/14 A3004 NOSIG=
202008311300 METAR MRPV 311300Z 15008KT CAVOK 21/15 A3006 NOSIG=
202008311400 METAR MRPV 311400Z 10012KT CAVOK 23/15 A3007 NOSIG=
202008311500 METAR MRPV 311500Z 08012KT CAVOK 24/15 A3007 NOSIG=
202008311600 METAR MRPV 311600Z 07012KT CAVOK 25/15 A3007 NOSIG=
202008311700 METAR MRPV 311700Z 06010KT CAVOK 27/15 A3005 NOSIG=
202008311800 METAR MRPV 311800Z 07012KT CAVOK 27/16 A3002 NOSIG=
202008311900 METAR MRPV 311900Z 07012KT 9999 FEW040 SCT200 27/16 A3000 NOSIG=
202008312000 METAR MRPV 312000Z 07010KT 9999 FEW040 SCT200 28/15 A2997 NOSIG=
202008312100 METAR MRPV 312100Z 28005KT 9999 SCT035 25/20 A2997 NOSIG=
202008312200 METAR MRPV 312200Z 28013KT 9999 SCT035 25/20 A2997 NOSIG=
202008312300 METAR MRPV 312300Z 30008KT 9999 FEW010 SCT025 23/20 A3000 NOSIG=
202009010000 METAR MRPV 010000Z 29004KT 9999 FEW010 SCT020 21/19 A3002 NOSIG=
202009010100 METAR MRPV NIL=
202009010200 METAR MRPV NIL=
202009010300 METAR MRPV NIL=
202009010400 METAR MRPV NIL=
202009010500 METAR MRPV NIL=
202009010600 METAR MRPV NIL=
202009010700 METAR MRPV NIL=
202009010800 METAR MRPV NIL=
202009010900 METAR MRPV NIL=
202009011000 METAR MRPV NIL=
202009011100 METAR MRPV NIL=
202009011200 METAR MRPV 011200Z 15009KT CAVOK 20/14 A3002 NOSIG=
202009011300 METAR MRPV 011300Z 11009KT CAVOK 22/16 A3005 NOSIG=
202009011400 METAR MRPV 011400Z 11010KT CAVOK 23/16 A3006 NOSIG=
202009011500 METAR MRPV 011500Z 08012KT CAVOK 24/16 A3007 NOSIG=
202009011600 METAR MRPV 011600Z 08010KT 9999 FEW045 26/16 A3006 NOSIG=
202009011700 METAR MRPV 011700Z 08010KT 9999 FEW045 26/16 A3006 NOSIG=
202009011800 METAR MRPV 011800Z 07005KT 9999 FEW035 SCT120 28/16 A3002 BECMG 26008KT=
202009011900 METAR MRPV 011900Z 27012KT 9999 FEW035 SCT100 25/18 A2999 NOSIG=
202009012000 METAR MRPV 012000Z 29013KT 9999 SCT030 25/19 A2997 NOSIG=
202009012024 METAR MRPV 012024Z 27010KT 9999 4000N +SHRA FEW020TCU SCT030 24/18 A2997 NOSIG=
202009012038 METAR MRPV 012038Z 29011KT 3500 SHRA FEW020TCU SCT030 23/18 A2998 NOSIG=
202009012100 METAR MRPV 012100Z 34012KT 3000 +RA BKN025 21/18 A2999 RESHRA NOSIG=
202009012200 METAR MRPV 012200Z 31007KT 4500 RA BR SCT005 BKN025 20/19 A3001 NOSIG=
202009012300 METAR MRPV 012300Z 07003KT 5000 -RA BCFG FEW005 SCT025 BKN100 19/18 A3002 NOSIG=
202009020000 METAR MRPV 020000Z 10010KT 5000 -RA BCFG SCT005 SCT050 19/16 A3003 NOSIG=
202009020100 METAR MRPV NIL=
202009020200 METAR MRPV NIL=
202009020300 METAR MRPV NIL=
202009020400 METAR MRPV NIL=
202009020500 METAR MRPV NIL=
202009020600 METAR MRPV NIL=
202009020700 METAR MRPV NIL=
202009020800 METAR MRPV NIL=
202009020900 METAR MRPV NIL=
202009021000 METAR MRPV NIL=
202009021100 METAR MRPV NIL=
202009021200 METAR MRPV 021200Z 15006KT CAVOK 18/15 A2999 NOSIG=
202009021300 METAR MRPV 021300Z 15005KT CAVOK 21/16 A3001 NOSIG=
202009021400 METAR MRPV 021400Z 13007KT CAVOK 24/16 A3002 TEMPO 27005KT=
202009021500 METAR MRPV 021500Z 11007KT CAVOK 25/14 A3002 TEMPO 27005KT=
202009021600 METAR MRPV 021600Z 29004KT CAVOK 25/18 A3002 NOSIG=
202009021700 METAR MRPV 021700Z 29010KT CAVOK 25/19 A3000 NOSIG=
202009021800 METAR MRPV 021800Z 28010KT 9999 FEW035 SCT250 26/18 A2998 NOSIG=
202009021900 METAR MRPV 021900Z 29013KT 9999 FEW20CB FEW035 26/20 A2995 NOSIG=
202009022000 METAR MRPV 022000Z 28009KT 9999 FEW20CB FEW030 BKN120 24/20 A2993 NOSIG=
202009022100 METAR MRPV 022100Z 28006KT 9999 -TSRA SCT20CB SCT020 24/20 A2993 RERA NOSIG=
202009022200 METAR MRPV 022200Z 02005KT 9999 -TSRA FEW015CB BKN015 21/19 A2993 NOSIG=
202009022300 METAR MRPV 022300Z 07004KT 8000 -TSRA FEW005 FEW010CB BKN015 19/18 A2995 NOSIG=
202009030000 METAR MRPV 030000Z VRB02KT 9999 -RA FEW005 SCT080 BKN200 20/18 A2996 RETSRA NOSIG=
202009030100 METAR MRPV NIL=
202009030200 METAR MRPV NIL=
202009030300 METAR MRPV NIL=
202009030400 METAR MRPV NIL=
202009030500 METAR MRPV NIL=
202009030600 METAR MRPV NIL=
202009030700 METAR MRPV NIL=
202009030800 METAR MRPV NIL=
202009030900 METAR MRPV NIL=
202009031000 METAR MRPV NIL=
202009031100 METAR MRPV NIL=
202009031200 METAR MRPV 031200Z 34002KT 0400 FG OVC001 18/18 A2998 NOSIG=
202009031300 METAR MRPV 031300Z 08002KT 4000 BR SCT003 18/18 A2999 BECMG 9999=
202009031400 METAR MRPV 031400Z 07003KT CAVOK 22/17 A3000 NOSIG=
202009031500 METAR MRPV 031500Z 10004KT CAVOK 25/16 A3000 NOSIG=
202009031600 METAR MRPV 031600Z 09009KT CAVOK 26/15 A3000 NOSIG=
202009031700 METAR MRPV 031700Z 07003KT CAVOK 26/16 A2997 NOSIG=
202009031800 METAR MRPV 031800Z 28006KT 9999 SCT030 27/19 A2994 NOSIG=
202009031900 METAR MRPV 031900Z 28011KT 9999 SCT020TCU FEW030 26/21 A2992 TEMPO SHRA=
202009032000 METAR MRPV 032000Z 30015KT 9999 SHRA FEW020TCU SCT035 24/20 A2989 NOSIG=
202009032100 METAR MRPV 032100Z 28010KT 9999 RA BKN025 24/20 A2989 RETSRA NOSIG=
202009032200 METAR MRPV 032200Z 31008KT 4000 RA VCTS FEW008CB BKN008 21/20 A2990 NOSIG=
202009032300 METAR MRPV 032300Z 34004KT 5000 BR OVC002 21/19 A2992 RERA NOSIG=
202009040000 METAR MRPV 040000Z VRB02KT 5000 -RA BKN010 20/20 A2994 NOSIG=
202009040100 METAR MRPV NIL=
202009040200 METAR MRPV NIL=
202009040300 METAR MRPV NIL=
202009040400 METAR MRPV NIL=
202009040500 METAR MRPV NIL=
202009040600 METAR MRPV NIL=
202009040700 METAR MRPV NIL=
202009040800 METAR MRPV NIL=
202009040900 METAR MRPV NIL=
202009041000 METAR MRPV NIL=
202009041100 METAR MRPV NIL=
202009041200 METAR MRPV 041200Z 09005KT CAVOK 18/17 A2996 NOSIG=
202009041300 METAR MRPV 041300Z 10007KT CAVOK 21/17 A2997 NOSIG=
202009041400 METAR MRPV 041400Z 13007KT CAVOK 24/16 A2999 BECMG 24005KT=
202009041500 METAR MRPV 041500Z 10007KT 9999 FEW045 SCT250 25/16 A3001 BECMG 24005KT=
202009041600 METAR MRPV 041600Z 29009KT 9999 FEW030 SCT220 24/18 A3001 NOSIG=
202009041700 METAR MRPV 041700Z 29009KT 9999 SCT035 BKN220 25/19 A3000 NOSIG=
202009041800 METAR MRPV 041800Z 28010KT 9999 SCT040 SCT220 25/19 A2999 NOSIG=
202009041900 METAR MRPV 041900Z 29013KT 9999 VCTS FEW020CB SCT030 SCT180 26/20 A2996 NOSIG=
202009042000 METAR MRPV 042000Z 29009KT 9999 VCTS FEW020CB BKN100 25/20 A2995 NOSIG=
202009042100 METAR MRPV 042100Z 20001KT 9999 -DZ SCT020 SCT040 24/18 A2993 RESHRA NOSIG=
202009042200 METAR MRPV 042200Z 07005KT 9999 TSRA SCT020CB SCT035 SCT100 22/20 A2993 RERA NOSIG=
202009042300 METAR MRPV 042300Z VRB02KT 9999 RA VCTS FEW015CB BKN040 21/18 A2995 RETSRA NOSIG=
202009050000 METAR MRPV 050000Z 00000KT 8000 RA SCT010 BKN040 20/18 A2997 NOSIG=
202009050100 METAR MRPV NIL=
202009050200 METAR MRPV NIL=
202009050300 METAR MRPV NIL=
202009050400 METAR MRPV NIL=
202009050500 METAR MRPV NIL=
202009050600 METAR MRPV NIL=
202009050700 METAR MRPV NIL=
202009050800 METAR MRPV NIL=
202009050900 METAR MRPV NIL=
202009051000 METAR MRPV NIL=
202009051100 METAR MRPV NIL=
202009051200 METAR MRPV 051200Z 12007KT CAVOK 19/17 A3001 NOSIG=
202009051300 METAR MRPV 051300Z 13007KT CAVOK 21/17 A3004 NOSIG=
202009051400 METAR MRPV 051400Z 13007KT CAVOK 23/17 A3006 NOSIG=
202009051500 METAR MRPV 051500Z 14006KT CAVOK 25/17 A3007 NOSIG=
202009051600 METAR MRPV 051600Z 15003KT 9999 FEW040 BKN200 25/16 A3007 NOSIG=
202009051700 METAR MRPV 051700Z 29010KT 9999 FEW040 BKN200 25/20 A3005 NOSIG=
202009051800 METAR MRPV 051800Z 29010KT 9999 FEW030 SCT200 26/19 A3003 NOSIG=
202009051900 METAR MRPV 051900Z 29012KT 9999 SCT030 SCT200 26/20 A2999 NOSIG=
202009052000 METAR MRPV 052000Z 29010KT 9999 BKN035 25/20 A2997 NOSIG=
202009052100 METAR MRPV 052100Z 25005KT 9999 -RA FEW010 SCT020TCU BKN120 22/21 A2996 RESHRA NOSIG=
202009052200 METAR MRPV 052200Z 29008KT 9999 BCFG VCTS FEW007 SCT010CB SCT035 22/21 A2997 TEMPO BKN010=
202009052300 METAR MRPV 052300Z 30007KT 8000 BCFG FEW005 BKN020 22/20 A2999 NOSIG=
202009060000 METAR MRPV 060000Z 31004KT 8000 -RA BCFG VCTS FEW005 BKN025CB 21/19 A3002 NOSIG=
202009060100 METAR MRPV NIL=
202009060200 METAR MRPV NIL=
202009060300 METAR MRPV NIL=
202009060400 METAR MRPV NIL=
202009060500 METAR MRPV NIL=
202009060600 METAR MRPV NIL=
202009060700 METAR MRPV NIL=
202009060800 METAR MRPV NIL=
202009060900 METAR MRPV NIL=
202009061000 METAR MRPV NIL=
202009061100 METAR MRPV NIL=
202009061200 METAR MRPV 061200Z 13005KT 9999 FEW030 BKN250 20/18 A3000 NOSIG=
202009061300 METAR MRPV 061300Z 11008KT CAVOK 22/18 A3000 NOSIG=
202009061400 METAR MRPV 061400Z 12006KT CAVOK 24/18 A3001 NOSIG=
202009061500 METAR MRPV 061500Z 12006KT CAVOK 26/18 A3001 NOSIG=
202009061600 METAR MRPV 061600Z 11005KT 9999 FEW025 SCT250 26/20 A3002 BECMG 28006KT=
202009061700 METAR MRPV 061700Z 28012KT 9999 FEW015 SCT250 25/20 A3002 NOSIG=
202009061800 METAR MRPV 061800Z 31009KT 9999 RA SCT020TCU FEW025 23/20 A3002 NOSIG=
202009061900 METAR MRPV 061900Z 32005KT 9999 RA FEW020TCU SCT030 24/21 A2999 NOSIG=
202009062000 METAR MRPV 062000Z 29004KT 9999 FEW020TCU BKN025 25/20 A2996 NOSIG=
202009062100 METAR MRPV 062100Z 29008KT 9999 BKN020 23/21 A2993 NOSIG=
202009062200 METAR MRPV 062200Z 26006KT 4000 SHRA FEW015TCU BKN015 23/20 A2993 NOSIG=
202009062300 METAR MRPV 062300Z 30005KT 9999 4000S RA SCT005 BKN025 21/20 A2997 NOSIG=
202009070000 METAR MRPV 070000Z 30004KT 9999 FEW005 BKN025 20/19 A2998 NOSIG=
202009070100 METAR MRPV NIL=
202009070200 METAR MRPV NIL=
202009070300 METAR MRPV NIL=
202009070400 METAR MRPV NIL=
202009070500 METAR MRPV NIL=
202009070600 METAR MRPV NIL=
202009070700 METAR MRPV NIL=
202009070800 METAR MRPV NIL=
202009070900 METAR MRPV NIL=
202009071000 METAR MRPV NIL=
202009071100 METAR MRPV NIL=
202009071200 METAR MRPV 071200Z 00000KT 8000 BCFG FEW007 BKN015 19/18 A3000 NOSIG=
202009071300 METAR MRPV 071300Z 29002KT 5000 BR FEW003 BKN008 19/19 A3002 NOSIG=
202009071400 METAR MRPV 071400Z 32003KT 8000 BCFG FEW005 BKN010 20/19 A3004 NOSIG=
202009071500 METAR MRPV 071500Z 29005KT 9999 SCT010 BKN035 21/19 A3003 NOSIG=
202009071600 METAR MRPV 071600Z 28002KT 9999 FEW010 SCT040 BKN200 23/18 A3002 NOSIG=
202009071700 METAR MRPV 071700Z 35003KT 9999 FEW035 BKN250 25/18 A2999 NOSIG=
202009071800 METAR MRPV 071800Z 29006KT 9999 SCT040 BKN250 26/19 A2997 NOSIG=
202009071900 METAR MRPV 071900Z 28007KT 9999 VCTS SCT020CB BKN100 25/20 A2993 TEMPO RA=
202009072000 METAR MRPV 072000Z 09007KT 240V090 3000 TSRA SCT015CB BKN060 21/19 A2993 NOSIG=
202009072100 METAR MRPV 072100Z 10005KT 9999 -RA VCTS BKN010CB SCT070 20/19 A2993 NOSIG=
202009072200 METAR MRPV 072200Z 11004KT 9999 -RA VCFG FEW008 SCT020 BKN060 20/19 A2994 NOSIG=
202009072300 METAR MRPV 072300Z 10004KT 9999 -RA FEW030 OVC080 19/18 A2994 NOSIG=
202009080000 METAR MRPV 080000Z 09004KT 9999 FEW040 OVC070 20/19 A2996 NOSIG=
202009080100 METAR MRPV NIL=
202009080200 METAR MRPV NIL=
202009080300 METAR MRPV NIL=
202009080400 METAR MRPV NIL=
202009080500 METAR MRPV NIL=
202009080600 METAR MRPV NIL=
202009080700 METAR MRPV NIL=
202009080800 METAR MRPV NIL=
202009080900 METAR MRPV NIL=
202009081000 METAR MRPV NIL=
202009081100 METAR MRPV NIL=
202009081200 METAR MRPV 081200Z 13003KT CAVOK 17/16 A2998 NOSIG=
202009081300 METAR MRPV 081300Z 06003KT CAVOK 19/16 A2998 NOSIG=
202009081400 METAR MRPV 081400Z 23002KT CAVOK 24/16 A3000 NOSIG=
202009081500 METAR MRPV 081500Z 32007KT CAVOK 22/18 A3001 NOSIG=
202009081600 METAR MRPV 081600Z 30006KT 9999 FEW040 SCT100 24/18 A3001 NOSIG=
202009081700 METAR MRPV 081700Z 29008KT 9999 FEW045 25/20 A3000 NOSIG=
202009081800 METAR MRPV 081800Z 29010KT 9999 FEW040 25/20 A2998 NOSIG=
202009081900 METAR MRPV 081900Z 28010KT 9999 -TSRA FEW015CB FEW030 25/20 A2995 NOSIG=
202009082000 METAR MRPV 082000Z 03007KT 4000 -TSRA FEW010CB BKN015 21/18 A2995 NOSIG=
202009082100 METAR MRPV 082100Z 08001KT 9999 RA SCT025 SCT050 21/19 A2993 RETSRA NOSIG=
202009082200 METAR MRPV 082200Z 33003KT 9999 SCT015 BKN100 21/19 A2993 RERA NOSIG=
202009082300 METAR MRPV 082300Z 33003KT 9999 FEW005 SCT025 BKN100 21/19 A2995 NOSIG=
202009090000 METAR MRPV 090000Z 27003KT 9999 RA BKN010 20/20 A2997 NOSIG=
202009090100 METAR MRPV NIL=
202009090200 METAR MRPV NIL=
202009090300 METAR MRPV NIL=
202009090400 METAR MRPV NIL=
202009090500 METAR MRPV NIL=
202009090600 METAR MRPV NIL=
202009090700 METAR MRPV NIL=
202009090800 METAR MRPV NIL=
202009090900 METAR MRPV NIL=
202009091000 METAR MRPV NIL=
202009091100 METAR MRPV NIL=
202009091200 METAR MRPV 091200Z 13006KT CAVOK 20/17 A3000 NOSIG=
202009091300 METAR MRPV 091300Z 12006KT CAVOK 21/17 A3003 NOSIG=
202009091400 METAR MRPV 091400Z 12007KT CAVOK 24/17 A3004 NOSIG=
202009091500 METAR MRPV 091500Z 09009KT CAVOK 25/18 A3004 NOSIG=
202009091600 METAR MRPV 091600Z 08005KT CAVOK 26/18 A3004 NOSIG=
202009091700 METAR MRPV 091700Z 28006KT 9999 FEW035 BKN250 26/20 A3004 NOSIG=
202009091800 METAR MRPV 091800Z 29011KT 9999 BKN040 25/20 A3002 NOSIG=
202009091900 METAR MRPV 091900Z 28007KT 9999 VCTS SCT015CB FEW020 23/21 A3001 NOSIG=
202009092000 METAR MRPV 092000Z 30010KT 9999 4000S RA SCT005CB SCT015 19/18 A3001 RETSRA NOSIG=
202009092100 METAR MRPV 092100Z 28006KT 9999 RA FEW005 BKN020 22/21 A2999 NOSIG=
202009092200 METAR MRPV 092200Z 14006KT 3000 TSRA FEW004CB BKN004 19/19 A3001 NOSIG=
202009092300 METAR MRPV 092300Z 08003KT 9999 FEW005 SCT100 20/19 A3001 NOSIG=
202009100000 METAR MRPV 100000Z 13004KT 9999 FEW005 SCT080 20/19 A3002 NOSIG=
202009100100 METAR MRPV NIL=
202009100200 METAR MRPV NIL=
202009100300 METAR MRPV NIL=
202009100400 METAR MRPV NIL=
202009100500 METAR MRPV NIL=
202009100600 METAR MRPV NIL=
202009100700 METAR MRPV NIL=
202009100800 METAR MRPV NIL=
202009100900 METAR MRPV NIL=
202009101000 METAR MRPV NIL=
202009101100 METAR MRPV NIL=
202009101200 METAR MRPV 101200Z 09007KT CAVOK 19/16 A3007 NOSIG=
202009101300 METAR MRPV 101300Z 14006KT CAVOK 22/16 A3008 NOSIG=
202009101400 METAR MRPV 101400Z 14005KT CAVOK 24/17 A3008 NOSIG=
202009101500 METAR MRPV 101500Z 13005KT CAVOK 25/16 A3007 NOSIG=
202009101600 METAR MRPV 101600Z 08011KT 9999 FEW045 BKN220 27/17 A3006 NOSIG=
202009101700 METAR MRPV 101700Z 06008KT 9999 FEW045 BKN220 28/17 A3004 NOSIG=
202009101800 METAR MRPV 101800Z 09007KT 9999 SCT045 BKN200 28/18 A3000 NOSIG=
202009101900 METAR MRPV 101900Z 28006KT 9999 SCT045 SCT200 27/20 A2999 NOSIG=
202009102000 METAR MRPV 102000Z 29013KT 9999 FEW010 BKN030 26/21 A2997 NOSIG=
202009102100 METAR MRPV 102100Z 28008KT 5000 2000E SHRA BKN020TCU 23/22 A2997 NOSIG=
202009102200 METAR MRPV 102200Z 27004KT 9999 SCT010 SCT030 22/21 A2998 NOSIG=
202009102300 METAR MRPV 102300Z 30006KT 9999 BCFG SCT008 SCT030 22/21 A2998 NOSIG=
202009110000 METAR MRPV 110000Z 29005KT 8000 BCFG FEW003 BKN015 21/20 A3000 NOSIG=
202009110100 METAR MRPV NIL=
202009110200 METAR MRPV NIL=
202009110300 METAR MRPV NIL=
202009110400 METAR MRPV NIL=
202009110500 METAR MRPV NIL=
202009110600 METAR MRPV NIL=
202009110700 METAR MRPV NIL=
202009110800 METAR MRPV NIL=
202009110900 METAR MRPV NIL=
202009111000 METAR MRPV NIL=
202009111100 METAR MRPV NIL=
202009111200 METAR MRPV 111200Z 12008KT 9999 FEW015 SCT220 21/16 A3000 NOSIG=
202009111300 METAR MRPV 111300Z COR 13007KT CAVOK 22/17 A3001 NOSIG=
202009111400 METAR MRPV 111400Z 11006KT CAVOK 24/18 A3002 NOSIG=
202009111500 METAR MRPV 111500Z 29010KT 200V290 9999 FEW030 BKN180 23/19 A3004 NOSIG=
202009111600 METAR MRPV 111600Z 29009KT 9999 FEW025 BKN200 24/19 A3004 NOSIG=
202009111700 METAR MRPV 111700Z 25003KT 320V250 9999 FEW040 BKN200 25/19 A3002 NOSIG=
202009111800 METAR MRPV 111800Z 30004KT 9999 SCT035 BKN200 26/20 A2999 NOSIG=
202009111900 METAR MRPV 111900Z 29007KT 9999 BKN035 SCT200 26/20 A2996 NOSIG=
202009112000 METAR MRPV 112000Z 28008KT 9999 FEW020TCU BKN035 26/20 A2994 NOSIG=
202009112100 METAR MRPV 112100Z 02004KT 9999 RA VCTS SCT015CB SCT035 21/20 A2995 NOSIG=
202009112200 METAR MRPV 112200Z 30002KT 9999 VCTS FEW010CB SCT035 BKN060 21/19 A2994 RERA NOSIG=
202009112300 METAR MRPV 112300Z 31004KT 9999 BCFG FEW003 BKN020 20/19 A2994 NOSIG=
202009120000 METAR MRPV 120000Z 29004KT 9999 BCFG BKN010 21/19 A2997 NOSIG=
202009120100 METAR MRPV NIL=
202009120200 METAR MRPV NIL=
202009120300 METAR MRPV NIL=
202009120400 METAR MRPV NIL=
202009120500 METAR MRPV NIL=
202009120600 METAR MRPV NIL=
202009120700 METAR MRPV NIL=
202009120800 METAR MRPV NIL=
202009120900 METAR MRPV NIL=
202009121000 METAR MRPV NIL=
202009121100 METAR MRPV NIL=
202009121200 METAR MRPV 121200Z 15001KT 9999 BCFG FEW005 BKN200 19/19 A2994 NOSIG=
202009121300 METAR MRPV 121300Z 31003KT 9999 BCFG FEW005 SCT200 21/19 A2997 NOSIG=
202009121400 METAR MRPV 121400Z 30006KT 9999 FEW015 SCT200 22/19 A2998 NOSIG=
202009121500 METAR MRPV 121500Z 27005KT 9999 FEW015 SCT040 23/19 A2999 NOSIG=
202009121600 METAR MRPV 121600Z 30002KT 9999 FEW035 SCT200 25/20 A2999 NOSIG=
202009121700 METAR MRPV 121700Z 30006KT 9999 BKN035 26/19 A2997 NOSIG=
202009121800 METAR MRPV 121800Z 28005KT 9999 SCT030 SCT060 27/20 A2993 NOSIG=
202009121900 METAR MRPV 121900Z 28008KT 9999 3500N RA SCT025 SCT040 25/21 A2990 NOSIG=
202009122000 METAR MRPV 122000Z 28009KT 9999 DZ VCTS SCT020 BKN035 23/21 A2990 RERA NOSIG=
202009122100 METAR MRPV 122100Z 30010KT 9999 SHRA VCTS SCT015TCU BKN025 22/19 A2998 REDZ NOSIG=
202009122200 METAR MRPV 122200Z 32006KT 4000 DZ BR VCTS BKN008 21/20 A2990 RESHRA NOSIG=
202009122300 METAR MRPV 122300Z 08003KT 4000 -RA BR BKN010 SCT025 21/20 A2994 REDZ NOSIG=
202009130000 METAR MRPV 130000Z 12003KT 5000 RA SCT010 BKN100 20/19 A2996 NOSIG=
202009130100 METAR MRPV NIL=
202009130200 METAR MRPV NIL=
202009130300 METAR MRPV NIL=
202009130400 METAR MRPV NIL=
202009130500 METAR MRPV NIL=
202009130600 METAR MRPV NIL=
202009130700 METAR MRPV NIL=
202009130800 METAR MRPV NIL=
202009130900 METAR MRPV NIL=
202009131000 METAR MRPV NIL=
202009131100 METAR MRPV NIL=
202009131200 METAR MRPV 131200Z 11004KT CAVOK 18/16 A2998 NOSIG=
202009131300 METAR MRPV 131300Z 10005KT CAVOK 18/17 A2999 NOSIG=
202009131400 METAR MRPV 131400Z 13006KT CAVOK 22/16 A3001 NOSIG=
202009131500 METAR MRPV 131500Z 14006KT CAVOK 23/17 A3001 NOSIG=
202009131600 METAR MRPV 131600Z 09006KT CAVOK 24/18 A3000 NOSIG=
202009131700 METAR MRPV 131700Z 10006KT CAVOK 26/17 A2999 NOSIG=
202009131800 METAR MRPV 131800Z 12004KT CAVOK 27/17 A2997 NOSIG=
202009131900 METAR MRPV 131900Z 30008KT 9999 FEW045 OVC180 26/19 A2996 NOSIG=
202009132000 METAR MRPV 132000Z 28010KT 9999 FEW015 BKN025 24/21 A2994 NOSIG=
202009132100 METAR MRPV 132100Z 29008KT 9999 SCT025 SCT100 23/20 A2993 NOSIG=
202009132200 METAR MRPV 132200Z 29008KT 9999 BKN025 SCT080 22/20 A2994 NOSIG=
202009132300 METAR MRPV 132300Z 28006KT 4000 BR BKN010 SCT020 22/20 A2995 NOSIG=
202009140000 METAR MRPV 140000Z 29006KT 5000 BR BKN010 SCT025 21/20 A2998 NOSIG=
202009140100 METAR MRPV NIL=
202009140200 METAR MRPV NIL=
202009140300 METAR MRPV NIL=
202009140400 METAR MRPV NIL=
202009140500 METAR MRPV NIL=
202009140600 METAR MRPV NIL=
202009140700 METAR MRPV NIL=
202009140800 METAR MRPV NIL=
202009140900 METAR MRPV NIL=
202009141000 METAR MRPV NIL=
202009141100 METAR MRPV NIL=
202009141200 METAR MRPV 141200Z 07002KT CAVOK 20/19 A3005 NOSIG=
202009141300 METAR MRPV 141300Z 08001KT CAVOK 21/19 A3007 TEMPO 29006KT=
202009141400 METAR MRPV 141400Z 07003KT 9999 FEW025 BKN250 24/18 A3009 TEMPO 29006KT=
202009141500 METAR MRPV 141500Z 30002KT 9999 FEW035 BKN250 25/17 A3011 NOSIG=
202009141600 METAR MRPV 141600Z 30008KT 9999 FEW035 BKN250 25/20 A3010 NOSIG=
202009141700 METAR MRPV 141700Z 29006KT 9999 SCT030 BKN250 26/20 A3008 NOSIG=
202009141800 MRPV 141800Z 28008KT 9999 BKN020 SCT250 26/21 A3004 NOSIG=
202009141823 METAR MRPV 141823Z 27010KT 5000 FEW020TCU BKN020 23/21 A3004 NOSIG=
202009141900 METAR MRPV 141900Z 29009KT 4000 TSRA SCT010TCU SCT025 22/21 A3002 RESHRA NOSIG=
202009142000 METAR MRPV 142000Z 31007KT 8000 -RA VCTS FEW005CB BKN010 21/20 A3002 RETSRA NOSIG=
202009142100 METAR MRPV 142100Z 30007KT 5000 -RA BR OVC001 20/20 A3000 NOSIG=
202009142200 METAR MRPV 142200Z 27006KT 5000 -RA OVC001 20/19 A2999 NOSIG=
202009142300 METAR MRPV 142300Z 27003KT 5000 -RA FEW001 SCT015 BKN100 20/19 A3003 NOSIG=
202009150000 METAR MRPV 150000Z 18001KT 8000 RA SCT001 BKN100 20/19 A3006 NOSIG=
202009150100 METAR MRPV NIL=
202009150200 METAR MRPV NIL=
202009150300 METAR MRPV NIL=
202009150400 METAR MRPV NIL=
202009150500 METAR MRPV NIL=
202009150600 METAR MRPV NIL=
202009150700 METAR MRPV NIL=
202009150800 METAR MRPV NIL=
202009150900 METAR MRPV NIL=
202009151000 METAR MRPV NIL=
202009151100 METAR MRPV NIL=
202009151200 METAR MRPV 151200Z 09002KT CAVOK 18/16 A3006 NOSIG=
202009151300 METAR MRPV 151300Z 19001KT CAVOK 20/17 A3008 TEMPO 29006KT=
202009151400 METAR MRPV 151400Z 01001KT CAVOK 23/17 A3010 BECMG 30006KT=
202009151500 METAR MRPV 151500Z 29006KT CAVOK 24/18 A3011 NOSIG=
202009151600 METAR MRPV 151600Z 28007KT 9999 FEW035 SCT120 24/18 A3012 NOSIG=
202009151700 METAR MRPV 151700Z 28007KT 9999 FEW030 25/19 A3010 NOSIG=
202009151800 METAR MRPV 151800Z 28009KT 9999 SHRA VCTS FEW015CB FEW020TCU FEW030 SCT100 26/20 A3007 NOSIG=
202009151900 METAR MRPV 151900Z 30008KT 9999 TSRA FEW010CB SCT010 BKN200 24/21 A3005 RESHRA NOSIG=
202009152000 METAR MRPV 152000Z 28006KT 9999 FEW005 SCT020CB SCT020 24/21 A3004 RETSRA NOSIG=
202009152100 METAR MRPV 152100Z 28007KT 9999 BKN010 22/20 A3002 NOSIG=
202009152200 METAR MRPV 152200Z 05004KT 4000 TSRA BKN015CB 20/19 A3006 NOSIG=
202009152300 METAR MRPV 152300Z 07003KT 9999 -RA SCT010CB BKN200 19/18 A3003 RETSRA NOSIG=
202009160000 METAR MRPV 160000Z 13004KT 9999 -RA SCT030 BKN200 19/18 A3005 NOSIG=
202009160100 METAR MRPV NIL=
202009160200 METAR MRPV NIL=
202009160300 METAR MRPV NIL=
202009160400 METAR MRPV NIL=
202009160500 METAR MRPV NIL=
202009160600 METAR MRPV NIL=
202009160700 METAR MRPV NIL=
202009160800 METAR MRPV NIL=
202009160900 METAR MRPV NIL=
202009161000 METAR MRPV NIL=
202009161100 METAR MRPV NIL=
202009161200 METAR MRPV 161200Z 11002KT 9999 BCFG FEW008 SCT040 BKN200 19/18 A3007 NOSIG=
202009161300 METAR MRPV 161300Z 13006KT 9999 FEW040 BKN200 21/18 A3008 NOSIG=
202009161400 METAR MRPV 161400Z COR 13007KT 9999 FEW040 BKN200 24/18 A3009 NOSIG=
202009161500 METAR MRPV 161500Z 08012KT 9999 SCT040 BKN200 25/17 A3010 NOSIG=
202009161600 METAR MRPV 161600Z 07010KT 9999 FEW040 BKN200 25/18 A3009 NOSIG=
202009161700 METAR MRPV 161700Z 09010KT 9999 FEW040 BKN200 26/18 A3007 NOSIG=
202009161800 METAR MRPV 161800Z 10010KT 9999 FEW040 BKN200 26/18 A3003 NOSIG=
202009161900 METAR MRPV 161900Z 08004KT 9999 FEW035 BKN200 28/18 A2999 NOSIG=
202009162000 METAR MRPV 162000Z 08005KT 9999 FEW030 BKN200 29/17 A2995 NOSIG=
202009162100 METAR MRPV 162100Z 30014KT 9999 FEW010 SCT035 BKN200 26/22 A2995 NOSIG=
202009162200 METAR MRPV 162200Z 31010KT 9999 SCT010 BKN200 23/21 A2997 NOSIG=
202009162300 METAR MRPV 162300Z 30008KT 9999 FEW010 SCT030 22/20 A2998 NOSIG=
202009170000 METAR MRPV 170000Z 01003KT 9999 VCFG FEW008 BKN015 21/19 A3002 NOSIG=
202009170100 METAR MRPV NIL=
202009170200 METAR MRPV 170200Z VRB02KT 9999 FEW030 SCT080 21/21 A3005 NOSIG=
202009170300 METAR MRPV 170300Z 15007KT 9999 FEW040 BKN200 26/25 A2991=
202009170400 METAR MRPV NIL=
202009170500 METAR MRPV NIL=
202009170600 METAR MRPV NIL=
202009170700 METAR MRPV NIL=
202009170800 METAR MRPV NIL=
202009170900 METAR MRPV NIL=
202009171000 METAR MRPV NIL=
202009171100 METAR MRPV NIL=
202009171200 METAR MRPV 171200Z 00000KT 5000 1000E PRFG FEW005 BKN200 18/17 A3004 NOSIG=
202009171300 METAR MRPV 171300Z 05002KT 9999 BCFG FEW010 BKN200 19/17 A3006 NOSIG=
202009171400 METAR MRPV 171400Z 09003KT 9999 FEW035 BKN220 23/17 A3006 NOSIG=
202009171500 METAR MRPV 171500Z 10009KT 9999 FEW045 SCT220 25/17 A3005 NOSIG=
202009171600 METAR MRPV 171600Z 09009KT 9999 SCT040 SCT220 26/17 A3006 NOSIG=
202009171700 METAR MRPV 171700Z 09009KT 9999 SCT045 27/18 A3004 NOSIG=
202009171800 METAR MRPV 171800Z 07010KT 9999 SCT025 SCT040 25/18 A3001 BECMG 29005KT=
202009171900 METAR MRPV 171900Z 29012KT 9999 SCT020 BKN040 25/19 A2999 NOSIG=
202009172000 METAR MRPV 172000Z 29016KT 5000 -RA BR BKN010 SCT035 21/19 A2998 NOSIG=
202009172018 METAR MRPV 172018Z 28010KT 5000 RA BR FEW002 BKN006 20/19 A2998 NOSIG=
202009172031 METAR MRPV 172031Z 31012KT 4000 RA BR BKN002 20/19 A2999 NOSIG=
202009172100 METAR MRPV 172100Z 28011KT 4500 -RA BR BKN003 19/19 A2999 NOSIG=
202009172112 METAR MRPV 172112Z 29011KT 4500 -RA BR SCT003 BKN025 19/19 A2998 NOSIG=
202009172127 METAR MRPV 172127Z 30010KT 5000 BR BKN004 19/18 A2999 NOSIG=
202009172200 METAR MRPV 172200Z 31008KT 4000 -RA BR BKN003 19/18 A2999 NOSIG=
202009172236 METAR MRPV 172236Z 31006KT 5000 BR SCT003 BKN040 19/18 A3001 NOSIG=
202009172300 METAR MRPV 172300Z 32004KT 6000 BCFG SCT003 BKN040 19/18 A3002 NOSIG=
202009180000 METAR MRPV 180000Z 31002KT 9999 BCFG FEW003 BKN040 19/18 A3003 NOSIG=
202009180100 METAR MRPV NIL=
202009180200 METAR MRPV NIL=
202009180300 METAR MRPV NIL=
202009180400 METAR MRPV NIL=
202009180500 METAR MRPV NIL=
202009180600 METAR MRPV NIL=
202009180700 METAR MRPV NIL=
202009180800 METAR MRPV NIL=
202009180900 METAR MRPV NIL=
202009181000 METAR MRPV NIL=
202009181100 METAR MRPV NIL=
202009181200 METAR MRPV 181200Z 11002KT 9999 BCFG FEW005 SCT140 18/17 A3004 NOSIG=
202009181300 METAR MRPV 181300Z 09007KT 9999 FEW005 20/17 A3005 NOSIG=
202009181400 METAR MRPV 181400Z 30003KT 9999 FEW040 23/18 A3006 NOSIG=
202009181500 METAR MRPV 181500Z 27004KT 9999 FEW035 24/18 A3007 NOSIG=
202009181600 METAR MRPV 181600Z 30007KT 9999 FEW040 25/18 A3006 NOSIG=
202009181700 METAR MRPV 181700Z 28007KT 9999 SCT040 26/19 A3004 NOSIG=
202009181800 METAR MRPV 181800Z 28011KT 9999 SCT040 26/21 A3002 NOSIG=
202009181900 METAR MRPV 181900Z 29013KT 9999 VCSH FEW020TCU SCT030 SCT100 25/21 A2998 NOSIG=
202009182000 METAR MRPV 182000Z 30015KT 9999 -RA VCSH FEW020TCU SCT030 SCT100 23/20 A2998 NOSIG=
202009182100 METAR MRPV 182100Z 29011KT 6000 -RA BCFG SCT015 SCT025 22/20 A2998 NOSIG=
202009182200 METAR MRPV 182200Z 28006KT 4000 -RA BR BKN008 21/20 A2998 NOSIG=
202009182300 METAR MRPV 182300Z 24002KT 4000 -RA BR BKN010 SCT020 20/20 A3001 NOSIG=
202009190000 METAR MRPV 190000Z 06003KT 4000 -RA BR BKN010 SCT020 20/18 A3003 NOSIG=
202009190100 METAR MRPV NIL=
202009190200 METAR MRPV NIL=
202009190300 METAR MRPV NIL=
202009190400 METAR MRPV NIL=
202009190500 METAR MRPV NIL=
202009190600 METAR MRPV NIL=
202009190700 METAR MRPV NIL=
202009190800 METAR MRPV NIL=
202009190900 METAR MRPV NIL=
202009191000 METAR MRPV NIL=
202009191100 METAR MRPV NIL=
202009191200 METAR MRPV 191200Z 00000KT CAVOK 18/16 A3003 NOSIG=
202009191300 METAR MRPV 191300Z 20001KT CAVOK 19/17 A3005 NOSIG=
202009191400 METAR MRPV 191400Z 31002KT CAVOK 21/17 A3006 NOSIG=
202009191500 METAR MRPV 191500Z 33003KT 9999 FEW045 24/18 A3005 NOSIG=
202009191600 METAR MRPV 191600Z 28007KT 9999 FEW045 25/19 A3004 NOSIG=
202009191700 METAR MRPV 191700Z 27007KT 9999 FEW040 25/19 A3002 NOSIG=
202009191800 METAR MRPV 191800Z 28009KT 9999 FEW025TCU SCT035 26/20 A3000 NOSIG=
202009191900 METAR MRPV 191900Z 28009KT 9999 4000NE SHRA VCTS SCT020TCU SCT030 24/20 A2997 RETSRA NOSIG=
202009192000 METAR MRPV 192000Z 11005KT 9999 RA VCTS SCT020CB SCT060 21/18 A2996 RETSRA NOSIG=
202009192100 METAR MRPV 192100Z 34004KT 4500 TSRA FEW020CB BKN030 19/18 A2996 NOSIG=
202009192200 METAR MRPV 192200Z 22001KT 5000 -RA SCT025 BKN060 19/18 A2997 RETSRA NOSIG=
202009192300 METAR MRPV 192300Z 10002KT 9999 FEW015 SCT035 BKN100 20/19 A2997 NOSIG=
202009200000 METAR MRPV 200000Z 16001KT 9999 FEW015 SCT035 BKN100 20/19 A2999 NOSIG=
202009200100 METAR MRPV NIL=
202009200200 METAR MRPV NIL=
202009200300 METAR MRPV NIL=
202009200400 METAR MRPV NIL=
202009200500 METAR MRPV NIL=
202009200600 METAR MRPV NIL=
202009200700 METAR MRPV NIL=
202009200800 METAR MRPV NIL=
202009200900 METAR MRPV NIL=
202009201000 METAR MRPV NIL=
202009201100 METAR MRPV NIL=
202009201200 METAR MRPV 201200Z 07003KT CAVOK 19/17 A3001 NOSIG=
202009201300 METAR MRPV 201300Z 11006KT 9999 FEW035 BKN200 21/17 A3002 NOSIG=
202009201400 METAR MRPV 201400Z 12007KT 9999 FEW025 BKN250 23/17 A3004 NOSIG=
202009201500 METAR MRPV 201500Z 10012KT 9999 FEW035 BKN250 24/18 A3004 NOSIG=
202009201600 METAR MRPV 201600Z 08008KT 9999 FEW045 BKN200 25/18 A3004 NOSIG=
202009201700 METAR MRPV 201700Z 09006KT 9999 FEW035 BKN200 27/18 A3001 NOSIG=
202009201800 METAR MRPV 201800Z 08007KT 9999 FEW035 BKN200 27/19 A2998 NOSIG=
202009201900 METAR MRPV 201900Z 09010KT 9999 FEW035 BKN200 27/19 A2995 NOSIG=
202009202000 METAR MRPV 202000Z 09009KT 9999 SHRA SCT015CB BKN030 25/18 A2993 TEMPO TSRA=
202009202100 METAR MRPV 202100Z 10007KT 9999 BKN025 22/18 A2995 RESHRA NOSIG=
202009202200 METAR MRPV 202200Z 33005KT 9999 BKN025 21/19 A2998 NOSIG=
202009202300 METAR MRPV 202300Z 11005KT 9999 SCT025 BKN080 22/17 A2998 NOSIG=
202009210000 METAR MRPV 210000Z 10009KT 9999 SCT030 BKN090 21/17 A2998 NOSIG=
202009210100 METAR MRPV NIL=
202009210200 METAR MRPV NIL=
202009210300 METAR MRPV NIL=
202009210400 METAR MRPV NIL=
202009210500 METAR MRPV NIL=
202009210600 METAR MRPV NIL=
202009210700 METAR MRPV NIL=
202009210800 METAR MRPV NIL=
202009210900 METAR MRPV NIL=
202009211000 METAR MRPV NIL=
202009211100 METAR MRPV NIL=
202009211200 METAR MRPV 211200Z 11008KT CAVOK 20/16 A3001 NOSIG=
202009211300 METAR MRPV 211300Z 12011KT CAVOK 22/15 A3001 NOSIG=
202009211400 METAR MRPV 211400Z 10012KT CAVOK 23/16 A3004 NOSIG=
202009211500 METAR MRPV 211500Z 09013KT CAVOK 25/17 A3004 NOSIG=
202009211600 METAR MRPV 211600Z 07007KT CAVOK 27/17 A3003 NOSIG=
202009211700 METAR MRPV 211700Z 07007KT 9999 FEW045 SCT060 27/18 A3001 NOSIG=
202009211800 METAR MRPV 211800Z 08010KT CAVOK 27/18 A2998 NOSIG=
202009211900 METAR MRPV 211900Z 09008KT 9999 SCT045 SCT250 28/17 A2996 NOSIG=
202009212000 METAR MRPV 212000Z 06009KT 9999 FEW020TCU SCT035 BKN200 27/18 A2994 NOSIG=
202009212100 METAR MRPV 212100Z 33006KT 9999 RA FEW020TCU BKN025 24/21 A2995 TEMPO TSRA BKN014=
202009212200 METAR MRPV 212200Z 13001KT 9999 RA FEW0010 BKN015 22/19 A2996 NOSIG=
202009212300 METAR MRPV 212300Z 29005KT 5000 RA FEW001 BKN010 21/20 A2999 NOSIG=
202009220000 METAR MRPV 220000Z 29005KT 5000 BR OVC001 20/20 A3001 RERA NOSIG=
202009220100 METAR MRPV NIL=
202009220200 METAR MRPV NIL=
202009220300 METAR MRPV NIL=
202009220400 METAR MRPV NIL=
202009220500 METAR MRPV NIL=
202009220600 METAR MRPV NIL=
202009220700 METAR MRPV NIL=
202009220800 METAR MRPV NIL=
202009220900 METAR MRPV NIL=
202009221000 METAR MRPV NIL=
202009221100 METAR MRPV NIL=
202009221200 METAR MRPV 221200Z 12006KT CAVOK 20/17 A3001 NOSIG=
202009221300 METAR MRPV 221300Z 12007KT CAVOK 21/17 A3002 NOSIG=
202009221400 METAR MRPV 221400Z 14007KT 9999 FEW045 SCT220 24/17 A3002 NOSIG=
202009221500 METAR MRPV 221500Z 10011KT 9999 FEW040 SCT220 26/18 A3003 NOSIG=
202009221600 METAR MRPV 221600Z 07007KT 9999 FEW040 SCT100 26/17 A3002 NOSIG=
202009221700 METAR MRPV 221700Z 09006KT 9999 FEW035 BKN070 25/20 A3002 BECMG 29005KT=
202009221800 METAR MRPV 221800Z 28007KT 9999 SCT030 BKN100 26/20 A2999 NOSIG=
202009221900 METAR MRPV 221900Z 28008KT 9999 -RA SCT020TCU SCT030 24/22 A2996 RESHRA NOSIG=
202009222000 METAR MRPV 222000Z 15002KT 9999 FEW010 SCT030 22/20 A2995 RERA NOSIG=
202009222100 METAR MRPV 222100Z 27004KT 9999 VCTS FEW005 FEW010CB SCT025 BKN080 22/21 A2994 NOSIG=
202009222200 METAR MRPV 222200Z 34005KT 6000 BCFG FEW003 SCT010 BKN100 22/20 A2996 TEMPO BKN008=
202009222300 METAR MRPV 222300Z 29006KT 4500 -RA BR FEW004 BKN010 20/19 A2999 NOSIG=
202009230000 METAR MRPV 230000Z 22001KT 5000 -RA BR BKN010 20/19 A3002 NOSIG=
202009230100 METAR MRPV NIL=
202009230200 METAR MRPV NIL=
202009230300 METAR MRPV NIL=
202009230400 METAR MRPV NIL=
202009230500 METAR MRPV NIL=
202009230600 METAR MRPV NIL=
202009230700 METAR MRPV NIL=
202009230800 METAR MRPV NIL=
202009230900 METAR MRPV NIL=
202009231000 METAR MRPV NIL=
202009231100 METAR MRPV NIL=
202009231200 METAR MRPV 231200Z 13007KT CAVOK 20/16 A3000 NOSIG=
202009231300 METAR MRPV 231300Z 15008KT CAVOK 21/16 A3003 NOSIG=
202009231400 METAR MRPV 231400Z 14005KT CAVOK 23/16 A3004 NOSIG=
202009231500 METAR MRPV 231500Z 14004KT 9999 FEW035 BKN120 24/16 A3005 NOSIG=
202009231600 METAR MRPV 231600Z 01003KT 9999 FEW035 BKN120 25/16 A3006 BECMG 30008KT=
202009231700 METAR MRPV 231700Z 29007KT 9999 FEW035 BKN120 23/19 A3005 NOSIG=
202009231800 METAR MRPV 231800Z 29007KT 9999 SCT035 BKN120 25/20 A3002 NOSIG=
202009231900 METAR MRPV 231900Z 29008KT 9999 SCT035 BKN120 25/19 A2999 NOSIG=
202009232000 METAR MRPV 232000Z 30007KT 9999 VCSH SCT025TCU SCT040 BKN200 26/20 A2996 NOSIG=
202009232100 METAR MRPV 232100Z 12004KT 5000 RA VCTS FEW010CB FEW035 BKN100 19/19 A2998 RETSRA NOSIG=
202009232200 METAR MRPV 232200Z 32003KT 8000 -RA FEW010 BKN100 19/19 A2999 NOSIG=
202009232300 METAR MRPV 232300Z 03001KT 5000 RA BR FEW003 SCT010 BKN100 19/19 A3001 NOSIG=
202009240000 METAR MRPV 240000Z 06001KT 5000 RA BR BKN010 19/19 A3004 NOSIG=
202009240100 METAR MRPV NIL=
202009240200 METAR MRPV NIL=
202009240300 METAR MRPV NIL=
202009240400 METAR MRPV NIL=
202009240500 METAR MRPV NIL=
202009240600 METAR MRPV NIL=
202009240700 METAR MRPV NIL=
202009240800 METAR MRPV NIL=
202009240900 METAR MRPV NIL=
202009241000 METAR MRPV NIL=
202009241100 METAR MRPV NIL=
202009241200 METAR MRPV 241200Z 12002KT CAVOK 18/17 A3004 NOSIG=
202009241300 METAR MRPV 241300Z 11003KT CAVOK 20/17 A3005 NOSIG=
202009241400 METAR MRPV 241400Z 31002KT 9999 FEW040 BKN200 23/19 A3007 NOSIG=
202009241500 METAR MRPV 241500Z 29007KT 9999 FEW020 BKN200 23/19 A3009 NOSIG=
202009241600 METAR MRPV 241600Z 29008KT 9999 SCT025 BKN200 24/19 A3009 NOSIG=
202009241700 METAR MRPV 241700Z 29010KT 9999 SCT020 SCT100 23/20 A3009 NOSIG=
202009241800 METAR MRPV 241800Z COR 29007KT 5000 RA BCFG FEW008 SCT020 BKN080 21/20 A3006 NOSIG=
202009241900 METAR MRPV 241900Z 33003KT 5000 -RA VCTS SCT010 BKN060 22/20 A3004 NOSIG=
202009242000 METAR MRPV 242000Z 22003KT 2000 +SHRA SCT010TCU BKN020 21/20 A3003 RERA NOSIG=
202009242100 METAR MRPV 242100Z 19002KT 2000 RA SCT010 BKN020 19/18 A3005 RESHRA NOSIG=
202009242200 METAR MRPV 242200Z 01001KT 2500 -RA BR SCT010 BKN080 19/18 A3006 NOSIG=
202009242300 METAR MRPV 242300Z 15002KT 9999 2000S -RA BCFG FEW010 BKN080 19/18 A3005 NOSIG=
202009250000 METAR MRPV 250000Z 13001KT 9999 -RA BCFG FEW010 BKN080 19/18 A3007 NOSIG=
202009250100 METAR MRPV NIL=
202009250200 METAR MRPV NIL=
202009250300 METAR MRPV NIL=
202009250400 METAR MRPV NIL=
202009250500 METAR MRPV NIL=
202009250600 METAR MRPV NIL=
202009250700 METAR MRPV NIL=
202009250800 METAR MRPV NIL=
202009250900 METAR MRPV NIL=
202009251000 METAR MRPV NIL=
202009251100 METAR MRPV NIL=
202009251200 METAR MRPV 251200Z 10004KT CAVOK 18/17 A3009 NOSIG=
202009251300 METAR MRPV 251300Z 10005KT CAVOK 20/18 A3010 NOSIG=
202009251400 METAR MRPV 251400Z 11007KT CAVOK 23/17 A3011 NOSIG=
202009251500 METAR MRPV 251500Z 11009KT CAVOK 25/16 A3012 NOSIG=
202009251600 METAR MRPV 251600Z 09012KT CAVOK 25/17 A3013 NOSIG=
202009251700 METAR MRPV 251700Z 09011KT CAVOK 26/17 A3011 NOSIG=
202009251800 METAR MRPV 251800Z 08013KT 9999 FEW040 BKN120 24/18 A3008 NOSIG=
202009251900 METAR MRPV 251900Z 09008KT 9999 FEW040 BKN180 26/19 A3006 NOSIG=
202009252000 METAR MRPV 252000Z 29007KT 9999 SCT030 BKN140 24/20 A3004 NOSIG=
202009252100 METAR MRPV 252100Z 28005KT 9999 SHRA FEW020TCU BKN160 24/20 A3002 NOSIG=
202009252200 METAR MRPV 252200Z 20003KT 9999 VCTS FEW020CB SCT035 BKN120 22/18 A3002 RESHRA NOSIG=
202009252300 METAR MRPV 252300Z 12006KT 9999 SCT035 BKN100 22/18 A3005 NOSIG=
202009260000 METAR MRPV 260000Z 09004KT 9999 SCT035 BKN100 22/18 A3008 NOSIG=
202009260100 METAR MRPV NIL=
202009260200 METAR MRPV NIL=
202009260300 METAR MRPV NIL=
202009260400 METAR MRPV NIL=
202009260500 METAR MRPV NIL=
202009260600 METAR MRPV NIL=
202009260700 METAR MRPV NIL=
202009260800 METAR MRPV NIL=
202009260900 METAR MRPV NIL=
202009261000 METAR MRPV NIL=
202009261100 METAR MRPV NIL=
202009261200 METAR MRPV 261200Z 12007KT CAVOK 20/16 A3006 NOSIG=
202009261300 METAR MRPV 261300Z 13008KT CAVOK 21/16 A3008 NOSIG=
202009261400 METAR MRPV 261400Z 10008KT CAVOK 24/16 A3009 NOSIG=
202009261500 METAR MRPV 261500Z 09011KT CAVOK 25/16 A3010 NOSIG=
202009261600 METAR MRPV 261600Z 08012KT CAVOK 25/17 A3010 NOSIG=
202009261700 METAR MRPV 261700Z 10011KT CAVOK 25/17 A3008 NOSIG=
202009261800 METAR MRPV 261800Z 10012KT CAVOK 26/17 A3005 NOSIG=
202009261900 METAR MRPV 261900Z 09011KT CAVOK 26/17 A3002 NOSIG=
202009262000 METAR MRPV 262000Z 09011KT 9999 FEW045 SCT100 25/17 A3000 NOSIG=
202009262100 METAR MRPV 262100Z 11009KT 9999 VCTS FEW020CB SCT025 BKN100 24/18 A2999 NOSIG=
202009262200 METAR MRPV 262200Z 34009KT 9999 BKN025 SCT120 21/17 A3001 RERA NOSIG=
202009262300 METAR MRPV 262300Z VRB01KT 9999 -RA FEW010 SCT015 SCT140 20/18 A3004 NOSIG=
202009270000 METAR MRPV 270000Z VRB02KT 9999 FEW005 BKN080 20/19 A3004 NOSIG=
202009270100 METAR MRPV NIL=
202009270200 METAR MRPV NIL=
202009270300 METAR MRPV NIL=
202009270400 METAR MRPV NIL=
202009270500 METAR MRPV NIL=
202009270600 METAR MRPV NIL=
202009270700 METAR MRPV NIL=
202009270800 METAR MRPV NIL=
202009270900 METAR MRPV NIL=
202009271000 METAR MRPV NIL=
202009271100 METAR MRPV NIL=
202009271200 METAR MRPV 271200Z 13006KT CAVOK 21/16 A3003 NOSIG=
202009271300 METAR MRPV 271300Z 04003KT CAVOK 21/16 A3004 NOSIG=
202009271400 METAR MRPV 271400Z 14004KT CAVOK 22/16 A3006 NOSIG=
202009271500 METAR MRPV 271500Z 08008KT 9999 FEW035 BKN220 25/17 A3007 NOSIG=
202009271600 METAR MRPV 271600Z 07006KT CAVOK 25/17 A3007 TEMPO 27006KT=
202009271700 METAR MRPV 271700Z 11003KT CAVOK 26/17 A3004 NOSIG=
202009271800 METAR MRPV 271800Z 09004KT CAVOK 27/18 A2999 TEMPO 30005KT=
202009271900 METAR MRPV 271900Z 26005KT 9999 SCT040 BKN200 25/19 A2997 NOSIG=
202009272000 METAR MRPV 272000Z 35008KT 9999 RA VCTS FEW020CB SCT035 BKN100 24/19 A2995 NOSIG=
202009272100 METAR MRPV 272100Z 10010KT 9999 -RA BKN020 SCT100 22/17 A2995 NOSIG=
202009272200 METAR MRPV 272200Z 13007KT 9999 RA FEW035 OVC100 21/18 A2995 NOSIG=
202009272300 METAR MRPV 272300Z 13007KT 9999 RA NSC 20/17 A2995 NOSIG=
202009280000 METAR MRPV 280000Z 13006KT 9999 RA NSC 20/16 A2995 NOSIG=
202009280100 METAR MRPV NIL=
202009280200 METAR MRPV NIL=
202009280300 METAR MRPV NIL=
202009280400 METAR MRPV NIL=
202009280500 METAR MRPV NIL=
202009280600 METAR MRPV NIL=
202009280700 METAR MRPV NIL=
202009280800 METAR MRPV NIL=
202009280900 METAR MRPV NIL=
202009281000 METAR MRPV NIL=
202009281100 METAR MRPV NIL=
202009281200 METAR MRPV 281200Z 13009KT CAVOK 20/14 A2997 NOSIG=
202009281300 METAR MRPV 281300Z 10011KT 9999 FEW040 BKN220 20/15 A2999 NOSIG=
202009281400 METAR MRPV 281400Z 10011KT 9999 FEW040 BKN220 23/16 A2999 NOSIG=
202009281500 METAR MRPV 281500Z 10012KT 9999 FEW045 BKN220 24/16 A3000 NOSIG=
202009281600 METAR MRPV 281600Z 08009KT 9999 FEW045 SCT220 25/16 A3000 NOSIG=
202009281700 METAR MRPV 281700Z 07011KT 9999 SCT045 26/17 A2998 NOSIG=
202009281800 METAR MRPV 281800Z 07009KT 9999 SCT045 27/17 A2994 NOSIG=
202009281900 METAR MRPV 281900Z 04006KT 9999 SCT040 SCT110 26/16 A2990 NOSIG=
202009282000 METAR MRPV 282000Z 31003KT 060V310 9999 SCT020 SCT045 25/21 A2986 NOSIG=
202009282100 METAR MRPV 282100Z 01003KT 9999 4000W FEW003 SCT010 BKN040 22/20 A2987 NOSIG=
202009282200 METAR MRPV 282200Z 25004KT 9999 BCFG FEW003 BKN010 20/20 A2989 NOSIG=
202009282300 METAR MRPV 282300Z 14003KT 9999 FEW015 SCT030 BKN100 21/18 A2991 NOSIG=
202009290000 METAR MRPV 290000Z 13004KT 9999 VCFG FEW002 BKN030 21/17 A2994 NOSIG=
202009290100 METAR MRPV NIL=
202009290200 METAR MRPV NIL=
202009290300 METAR MRPV NIL=
202009290400 METAR MRPV NIL=
202009290500 METAR MRPV NIL=
202009290600 METAR MRPV NIL=
202009290700 METAR MRPV NIL=
202009290800 METAR MRPV NIL=
202009290900 METAR MRPV NIL=
202009291000 METAR MRPV NIL=
202009291100 METAR MRPV NIL=
202009291200 METAR MRPV 291200Z 13006KT CAVOK 20/15 A2998 NOSIG=
202009291300 METAR MRPV 291300Z 12007KT CAVOK 21/15 A2998 NOSIG=
202009291400 METAR MRPV 291400Z 13006KT CAVOK 23/16 A2999 NOSIG=
202009291500 METAR MRPV 291500Z 09008KT CAVOK 26/16 A3000 NOSIG=
202009291600 METAR MRPV 291600Z 08007KT 9999 FEW045 BKN160 25/16 A2999 NOSIG=
202009291700 METAR MRPV 291700Z 07007KT 9999 SCT045 BKN160 26/17 A2998 NOSIG=
202009291800 METAR MRPV 291800Z 29007KT 060V290 9999 FEW040 BKN120 25/20 A2995 NOSIG=
202009291900 METAR MRPV 291900Z 29007KT 060V290 9999 FEW040 BKN120 25/20 A2995 NOSIG=
202009292000 METAR MRPV 292000Z 29014KT 9999 2000N +RA VCTS SCT010CB SCT035 22/19 A2992 RESHRA TEMPO 3000=
202009292100 METAR MRPV 292100Z 36003KT 280V360 9999 -RA FEW010 BKN030 19/19 A2993 NOSIG=
202009292200 METAR MRPV 292200Z VRB01KT 9999 -RA FEW008 BKN110 20/19 A2993 NOSIG=
202009292300 METAR MRPV 292300Z 25002KT 9999 -RA BCFG FEW008 SCT030 BKN100 19/18 A2995 NOSIG=
202009300000 METAR MRPV NIL=
202009300100 METAR MRPV NIL=
202009300200 METAR MRPV NIL=
202009300300 METAR MRPV NIL=
202009300400 METAR MRPV NIL=
202009300500 METAR MRPV NIL=
202009300600 METAR MRPV NIL=
202009300700 METAR MRPV NIL=
202009300800 METAR MRPV NIL=
202009300900 METAR MRPV NIL=
202009301000 METAR MRPV NIL=
202009301100 METAR MRPV NIL=
202009301200 METAR MRPV 301200Z 10005KT CAVOK 18/16 A3000 NOSIG=
202009301300 METAR MRPV 301300Z 14006KT CAVOK 21/16 A3001 NOSIG=
202009301400 METAR MRPV 301400Z 12010KT 9999 FEW040 BKN200 23/17 A3003 NOSIG=
202009301500 METAR MRPV 301500Z 11009KT 9999 FEW035 25/17 A3005 NOSIG=
202009301600 METAR MRPV 301600Z 08010KT 9999 SCT035 SCT100 24/16 A3005 NOSIG=
202009301700 METAR MRPV 301700Z 09009KT 9999 SCT035 25/18 A3002 NOSIG=
202009301800 METAR MRPV 301800Z 09011KT 9999 SCT035 SCT100 26/16 A2999 NOSIG=
202009301900 METAR MRPV 301900Z 06008KT 9999 BKN035 SCT080 26/17 A2995 NOSIG=
202009302000 METAR MRPV 302000Z 28011KT 9000 VCSH FEW015 SCT020TCU SCT080 23/20 A2993 NOSIG=
202009302100 METAR MRPV 302100Z 35008KT 2500 TSRA FEW015CB BKN025 18/18 A2996 NOSIG=
202009302200 METAR MRPV NIL=
202009302300 METAR MRPV 302300Z 12005KT 9999 -RA SCT035 BKN100 20/17 A2997 NOSIG=
202010010000 METAR MRPV 010000Z 11005KT 9999 FEW040 BKN100 20/17 A2999 NOSIG=
202010010100 METAR MRPV NIL=
202010010200 METAR MRPV NIL=
202010010300 METAR MRPV NIL=
202010010400 METAR MRPV NIL=
202010010500 METAR MRPV NIL=
202010010600 METAR MRPV NIL=
202010010700 METAR MRPV NIL=
202010010800 METAR MRPV NIL=
202010010900 METAR MRPV NIL=
202010011000 METAR MRPV NIL=
202010011100 METAR MRPV NIL=
202010011200 METAR MRPV 011200Z 00000KT CAVOK 17/16 A2998 NOSIG=
202010011300 METAR MRPV 011300Z 09004KT CAVOK 20/16 A3000 NOSIG=
202010011400 METAR MRPV 011400Z 03002KT 9999 FEW035 BKN200 23/16 A3001 NOSIG=
202010011500 METAR MRPV 011500Z 29003KT 9999 FEW035 BKN200 24/17 A3002 NOSIG=
202010011600 METAR MRPV 011600Z 30005KT 9999 FEW035 BKN200 25/19 A3001 NOSIG=
202010011700 METAR MRPV 011700Z 28003KT 9999 FEW040 BKN200 26/18 A2998 NOSIG=
202010011800 METAR MRPV 011800Z 28009KT 9999 SCT030 SCT200 25/19 A2995 NOSIG=
202010011900 METAR MRPV 011900Z 28010KT 9999 SHRA FEW020TCU FEW030 SCT100 25/20 A2993 NOSIG=
202010012000 METAR MRPV 012000Z 29011KT 9999 4000SE -TSRA FEW010CB SCT025 SCT080 24/20 A2992 RESHRA NOSIG=
202010012100 METAR MRPV 012100Z 15002KT 4000 -RA BCFG SCT008 SCT025 21/19 A2992 NOSIG=
202010012200 METAR MRPV 012200Z 33002KT 9999 -RA BCFG SCT010 BKN025 21/19 A2992 NOSIG=
202010012300 METAR MRPV 012300Z 27005KT 8000 BCFG FEW010 SCT025 BKN100 20/19 A2994 NOSIG=
202010020000 METAR MRPV 020000Z 28005KT 9999 BCFG FEW010 SCT025 BKN100 20/19 A2996 NOSIG=
202010020100 METAR MRPV NIL=
202010020200 METAR MRPV NIL=
202010020300 METAR MRPV NIL=
202010020400 METAR MRPV NIL=
202010020500 METAR MRPV NIL=
202010020600 METAR MRPV NIL=
202010020700 METAR MRPV NIL=
202010020800 METAR MRPV NIL=
202010020900 METAR MRPV NIL=
202010021000 METAR MRPV NIL=
202010021100 METAR MRPV NIL=
202010021200 METAR MRPV 021200Z 12002KT CAVOK 18/17 A2996 NOSIG=
202010021300 METAR MRPV 021300Z 07002KT CAVOK 20/18 A2997 BECMG 26006KT=
202010021400 METAR MRPV 021400Z 28001KT 9999 FEW025 BKN200 23/17 A2999 NOSIG=
202010021500 METAR MRPV 021500Z 28005KT 9999 FEW030 BKN200 24/18 A3000 NOSIG=
202010021600 METAR MRPV 021600Z 26004KT 9999 FEW030 BKN200 24/18 A2999 NOSIG=
202010021700 METAR MRPV 021700Z 30007KT 9999 FEW030 BKN200 25/18 A2997 NOSIG=
202010021800 METAR MRPV 021800Z 30007KT 9999 FEW035 BKN200 26/18 A2993 NOSIG=
202010021900 METAR MRPV 021900Z 26007KT 9999 DZ SCT020 24/20 A2991 NOSIG=
202010022000 METAR MRPV 022000Z 27007KT 9999 RA BKN020 SCT100 22/19 A2989 NOSIG=
202010022100 METAR MRPV 022100Z 28006KT 8000 RA FEW005 FEW020CB BKN100 21/20 A2989 NOSIG=
202010022200 METAR MRPV 022200Z 30006KT 8000 RA BKN005 21/20 A2990 NOSIG=
202010022300 METAR MRPV 022300Z 32005KT 5000 RA BR BKN002 20/19 A2991 NOSIG=
202010030000 METAR MRPV 030000Z 32003KT 5000 RA BR BKN002 20/19 A2994 NOSIG=
202010030100 METAR MRPV NIL=
202010030200 METAR MRPV NIL=
202010030300 METAR MRPV NIL=
202010030400 METAR MRPV NIL=
202010030500 METAR MRPV NIL=
202010030600 METAR MRPV NIL=
202010030700 METAR MRPV NIL=
202010030800 METAR MRPV NIL=
202010030900 METAR MRPV NIL=
202010031000 METAR MRPV NIL=
202010031100 METAR MRPV NIL=
202010031200 METAR MRPV 031200Z 13001KT 9999 FEW002 SCT100 BKN200 18/18 A2997 NOSIG=
202010031300 METAR MRPV 031300Z 15002KT CAVOK 19/18 A2998 NOSIG=
202010031400 METAR MRPV 031400Z 34001KT 9999 FEW020 SCT250 22/18 A2999 NOSIG=
202010031500 METAR MRPV 031500Z 31004KT 9999 FEW020 SCT100 23/18 A3001 NOSIG=
202010031600 METAR MRPV 031600Z 29007KT 9999 FEW015 BKN100 24/17 A3001 NOSIG=
202010031700 METAR MRPV 031700Z 27007KT 9999 FEW020 BKN100 24/18 A3000 NOSIG=
202010031800 METAR MRPV 031800Z 28008KT 9999 FEW015 BKN100 22/18 A2998 NOSIG=
202010031900 METAR MRPV 031900Z 31007KT 9999 FEW015 BKN100 24/18 A2995 NOSIG=
202010032000 METAR MRPV 032000Z 29007KT 9999 DZ FEW020 SCT100 25/18 A2992 NOSIG=
202010032100 METAR MRPV 032100Z 30009KT 9999 FEW010 BKN100 24/19 A2991 REDZ NOSIG=
202010032200 METAR MRPV 032200Z 31007KT 9999 FEW010 SCT060 BKN100 22/19 A2992 TEMPO RA=
202010032300 METAR MRPV 032300Z 30006KT 8000 RA BKN005 20/20 A2993 TEMPO 5000 BR=
202010040000 METAR MRPV 040000Z 30007KT 5000 RA BR BKN005 20/19 A2996 NOSIG=
202010040100 METAR MRPV NIL=
202010040200 METAR MRPV NIL=
202010040300 METAR MRPV NIL=
202010040400 METAR MRPV NIL=
202010040500 METAR MRPV NIL=
202010040600 METAR MRPV NIL=
202010040700 METAR MRPV NIL=
202010040800 METAR MRPV NIL=
202010040900 METAR MRPV NIL=
202010041000 METAR MRPV NIL=
202010041100 METAR MRPV NIL=
202010041200 METAR MRPV 041200Z 09001KT CAVOK 18/18 A3002 NOSIG=
202010041300 METAR MRPV 041300Z 00000KT CAVOK 20/18 A3004 NOSIG=
202010041400 METAR MRPV 041400Z 06004KT CAVOK 22/18 A3004 NOSIG=
202010041500 METAR MRPV 041500Z 19001KT CAVOK 24/16 A3005 NOSIG=
202010041600 METAR MRPV 041600Z 32005KT 9999 FEW040 BKN110 25/17 A3004 NOSIG=
202010041700 METAR MRPV 041700Z 29010KT 9999 FEW035 BKN120 25/18 A3003 NOSIG=
202010041800 METAR MRPV 041800Z 30011KT 9999 FEW015 SCT120 25/20 A3002 NOSIG=
202010041900 METAR MRPV 041900Z 29009KT 9999 FEW030 25/18 A2998 NOSIG=
202010042000 METAR MRPV 042000Z 28010KT 9999 FEW030 26/18 A2996 NOSIG=
202010042100 METAR MRPV 042100Z 28011KT 9999 FEW010 SCT030 24/20 A2995 NOSIG=
202010042200 METAR MRPV 042200Z 26006KT 9999 BCFG SCT008 BKN100 21/20 A2996 NOSIG=
202010042300 METAR MRPV 042300Z 29008KT 8000 BCFG FEW003 SCT010 BKN100 20/19 A2997 NOSIG=
202010050000 METAR MRPV NIL=
202010050100 METAR MRPV NIL=
202010050200 METAR MRPV NIL=
202010050300 METAR MRPV NIL=
202010050400 METAR MRPV NIL=
202010050500 METAR MRPV NIL=
202010050600 METAR MRPV NIL=
202010050700 METAR MRPV NIL=
202010050800 METAR MRPV NIL=
202010050900 METAR MRPV NIL=
202010051000 METAR MRPV NIL=
202010051100 METAR MRPV NIL=
202010051200 METAR MRPV 051200Z 10003KT CAVOK 19/18 A3002 NOSIG=
202010051300 METAR MRPV 051300Z 00000KT 9999 FEW040 BKN110 20/18 A3003 NOSIG=
202010051400 METAR MRPV 051400Z 00000KT 9999 FEW025 SCT110 23/18 A3004 NOSIG=
202010051500 METAR MRPV 051500Z 30005KT 9999 FEW025 25/18 A3004 NOSIG=
202010051600 METAR MRPV 051600Z 27005KT 9999 FEW025 BKN110 24/18 A3004 NOSIG=
202010051700 METAR MRPV 051700Z 29009KT 9999 FEW030 BKN110 26/20 A3002 NOSIG=
202010051800 METAR MRPV 051800Z 29012KT 9999 SCT015 SCT030 BKN100 24/20 A3000 NOSIG=
202010051900 METAR MRPV 051900Z 32008KT 9999 BKN015 SCT100 23/20 A2997 NOSIG=
202010052000 METAR MRPV 052000Z 30007KT 9999 4000W -RA SCT010 BKN100 21/20 A2996 TEMPO BKN010=
202010052100 METAR MRPV 052100Z 35002KT 9999 BCFG FEW002 BKN015 20/19 A2996 NOSIG=
202010052200 METAR MRPV 052200Z 27002KT 9999 BCFG FEW002 SCT010 BKN060 20/19 A2997 NOSIG=
202010052300 METAR MRPV 052300Z 25001KT 9999 -RA BCFG FEW005 OVC100 20/19 A2999 NOSIG=
202010060000 METAR MRPV 060000Z 02001KT 6000 -RA BCFG FEW005 OVC100 20/19 A3000 NOSIG=
202010060100 METAR MRPV NIL=
202010060200 METAR MRPV NIL=
202010060300 METAR MRPV NIL=
202010060400 METAR MRPV NIL=
202010060500 METAR MRPV NIL=
202010060600 METAR MRPV NIL=
202010060700 METAR MRPV NIL=
202010060800 METAR MRPV NIL=
202010060900 METAR MRPV NIL=
202010061000 METAR MRPV NIL=
202010061100 METAR MRPV NIL=
202010061200 METAR MRPV 061200Z COR 11002KT CAVOK 19/18 A2999 NOSIG=
202010061300 METAR MRPV 061300Z 10004KT CAVOK 20/19 A2999 NOSIG=
202010061400 METAR MRPV 061400Z VRB02KT CAVOK 24/18 A3000 NOSIG=
202010061500 METAR MRPV 061500Z 35002KT 9999 FEW030 BKN200 24/18 A3003 NOSIG=
202010061600 METAR MRPV 061600Z 28008KT 9999 FEW030 BKN200 25/19 A3002 NOSIG=
202010061700 METAR MRPV 061700Z 28010KT 9999 FEW020 BKN130 25/19 A3001 NOSIG=
202010061800 METAR MRPV 061800Z 29014KT 9999 4500SE SHRA FEW010TCU FEW015 BKN100 23/19 A2998 NOSIG=
202010061900 METAR MRPV 061900Z VRB02KT 9999 FEW015 BKN100 23/19 A2993 NOSIG=
202010062000 METAR MRPV 062000Z 27008KT 9999 RA SCT020 BKN120 23/20 A2993 NOSIG=
202010062100 METAR MRPV 062100Z 28008KT 9999 4000SW -RA BCFG FEW005 SCT015 BKN030 21/20 A2993 NOSIG=
202010062200 METAR MRPV 062200Z 32005KT 9999 FEW010 BKN140 22/19 A2994 NOSIG=
202010062300 METAR MRPV 062300Z 30004KT 9999 FEW015 BKN100 21/19 A2996 NOSIG=
202010070000 METAR MRPV 070000Z 32003KT 9999 VCFG SCT010 20/19 A2990 NOSIG=
202010070100 METAR MRPV NIL=
202010070200 METAR MRPV NIL=
202010070300 METAR MRPV NIL=
202010070400 METAR MRPV NIL=
202010070500 METAR MRPV NIL=
202010070600 METAR MRPV NIL=
202010070700 METAR MRPV NIL=
202010070800 METAR MRPV NIL=
202010070900 METAR MRPV NIL=
202010071000 METAR MRPV NIL=
202010071100 METAR MRPV NIL=
202010071200 METAR MRPV 071200Z 13001KT CAVOK 19/19 A3000 NOSIG=
202010071300 METAR MRPV 071300Z 24001KT CAVOK 20/18 A3003 NOSIG=
202010071400 METAR MRPV 071400Z 07002KT 9999 FEW035 BKN100 22/18 A3004 NOSIG=
202010071500 METAR MRPV 071500Z 16002KT 9999 FEW040 BKN120 24/19 A3005 BECMG 28003KT=
202010071600 METAR MRPV 071600Z 27006KT 9999 FEW040 BKN100 24/20 A3006 NOSIG=
202010071700 METAR MRPV 071700Z 30009KT 9999 SCT035 25/19 A3003 NOSIG=
202010071800 METAR MRPV 071800Z 27006KT 9999 BCFG FEW010 BKN025 24/20 A3000 NOSIG=
202010071900 METAR MRPV 071900Z 29010KT 9999 SCT020 BKN070 22/20 A2998 NOSIG=
202010072000 METAR MRPV 072000Z 28007KT 7000 -RA BKN014 21/20 A2996 NOSIG=
202010072100 METAR MRPV 072100Z 15002KT 4500 RA FEW025 OVC080 19/18 A2996 BECMG 7000=
202010072200 METAR MRPV 072200Z 12004KT 4500 RA FEW035 OVC080 19/18 A2999 NOSIG=
202010072300 METAR MRPV 072300Z 17001KT 6000 RA FEW035 OVC100 19/19 A3000 NOSIG=
202010080000 METAR MRPV 080000Z 26001KT 6000 RA FEW035 OVC080 19/19 A3001 NOSIG=
202010080100 METAR MRPV NIL=
202010080200 METAR MRPV NIL=
202010080300 METAR MRPV NIL=
202010080400 METAR MRPV NIL=
202010080500 METAR MRPV NIL=
202010080600 METAR MRPV NIL=
202010080700 METAR MRPV NIL=
202010080800 METAR MRPV NIL=
202010080900 METAR MRPV NIL=
202010081000 METAR MRPV NIL=
202010081100 METAR MRPV NIL=
202010081200 METAR MRPV 081200Z 08004KT CAVOK 19/18 A3002 NOSIG=
202010081300 METAR MRPV 081300Z 09007KT CAVOK 21/18 A3005 NOSIG=
202010081400 METAR MRPV 081400Z 13004KT CAVOK 24/17 A3007 BECMG 27005KT=
202010081500 METAR MRPV 081500Z 28008KT CAVOK 22/20 A3008 NOSIG=
202010081600 METAR MRPV 081600Z 29007KT 9999 FEW030 24/18 A3008 NOSIG=
202010081700 METAR MRPV 081700Z 28007KT 9999 SCT035 25/20 A3005 NOSIG=
202010081800 METAR MRPV 081800Z 28011KT 9999 FEW025TCU SCT035 24/20 A3003 NOSIG=
202010081900 METAR MRPV 081900Z 27003KT 9999 3000E RA FEW020 BKN100 22/19 A3001 NOSIG=
202010082000 METAR MRPV 082000Z 21002KT 9999 SCT020 BKN100 22/19 A2999 RERA NOSIG=
202010082100 METAR MRPV 082100Z 28008KT 9999 SHRA FEW020TCU BKN025 21/18 A3000 NOSIG=
202010082200 METAR MRPV 082200Z 33001KT 9999 4000E RA SCT015 BKN100 20/19 A3001 RESHRA NOSIG=
202010082300 METAR MRPV 082300Z 10005KT 5000 RA SCT015 BKN100 19/18 A3004 NOSIG=
202010090000 METAR MRPV 090000Z 09005KT 8000 RA NSC 19/18 A3005 NOSIG=
202010090100 METAR MRPV NIL=
202010090200 METAR MRPV NIL=
202010090300 METAR MRPV NIL=
202010090400 METAR MRPV NIL=
202010090500 METAR MRPV NIL=
202010090600 METAR MRPV NIL=
202010090700 METAR MRPV NIL=
202010090800 METAR MRPV NIL=
202010090900 METAR MRPV NIL=
202010091000 METAR MRPV NIL=
202010091100 METAR MRPV NIL=
202010091200 METAR MRPV 091200Z 12001KT CAVOK 18/17 A3005 NOSIG=
202010091300 METAR MRPV 091300Z 21001KT CAVOK 19/17 A3007 NOSIG=
202010091400 METAR MRPV 091400Z 28004KT CAVOK 22/17 A3009 NOSIG=
202010091500 METAR MRPV 091500Z 27006KT CAVOK 23/18 A3010 NOSIG=
202010091600 METAR MRPV 091600Z 29006KT CAVOK 24/18 A3008 NOSIG=
202010091700 METAR MRPV 091700Z 31005KT 9999 FEW040 25/17 A3006 NOSIG=
202010091800 METAR MRPV 091800Z 28010KT 9999 FEW020CB FEW025TCU 26/17 A3004 NOSIG=
202010091900 METAR MRPV 091900Z 29012KT 9999 SHRA FEW020TCU FEW035 SCT200 24/19 A3001 NOSIG=
202010092000 METAR MRPV 092000Z 31006KT 9999 RA VCTS FEW020CB BKN030 23/19 A3000 TEMPO TSRA=
202010092100 METAR MRPV 092100Z 28003KT 9999 RA FEW010 BKN200 21/20 A2999 NOSIG=
202010092200 METAR MRPV 092200Z 00000KT 9999 FEW010 FEW020TCU BKN100 22/19 A2999 RERA NOSIG=
202010092300 METAR MRPV 092300Z 28002KT 9999 FEW005 FEW020TCU SCT025 22/20 A3002 NOSIG=
202010100000 METAR MRPV 100000Z 22001KT 9999 FEW020 BKN100 21/20 A3004 NOSIG=
202010100100 METAR MRPV NIL=
202010100200 METAR MRPV NIL=
202010100300 METAR MRPV NIL=
202010100400 METAR MRPV NIL=
202010100500 METAR MRPV NIL=
202010100600 METAR MRPV NIL=
202010100700 METAR MRPV NIL=
202010100800 METAR MRPV NIL=
202010100900 METAR MRPV NIL=
202010101000 METAR MRPV NIL=
202010101100 METAR MRPV NIL=
202010101200 METAR MRPV 101200Z 13007KT CAVOK 20/16 A3003 NOSIG=
202010101300 METAR MRPV 101300Z 12007KT CAVOK 22/17 A3004 NOSIG=
202010101400 METAR MRPV 101400Z 10010KT CAVOK 24/17 A3006 NOSIG=
202010101500 METAR MRPV 101500Z 09012KT 9999 FEW045 25/18 A3007 NOSIG=
202010101600 METAR MRPV 101600Z 06005KT 9999 FEW045 27/18 A3005 NOSIG=
202010101700 METAR MRPV 101700Z 12002KT 9999 SCT045 28/18 A3003 BECMG 29005KT=
202010101800 METAR MRPV 101800Z 04005KT 9999 BKN040 26/19 A3002 NOSIG=
202010101900 METAR MRPV 101900Z 28004KT 9999 BKN040 26/19 A2999 NOSIG=
202010102000 METAR MRPV 102000Z 29006KT 9999 FEW020 BKN040 25/21 A2996 NOSIG=
202010102100 METAR MRPV 102100Z 14008KT 9999 4000E RA FEW020 BKN040 22/19 A2996 NOSIG=
202010102200 METAR MRPV 102200Z 15006KT 9999 FEW010 BKN040 22/19 A2997 RERA NOSIG=
202010102300 METAR MRPV 102300Z 10006KT 9999 FEW020 BKN120 22/18 A2998 NOSIG=
202010110000 METAR MRPV 110000Z 10008KT 9999 FEW020 BKN120 21/17 A2998 NOSIG=
202010110100 METAR MRPV NIL=
202010110200 METAR MRPV NIL=
202010110300 METAR MRPV NIL=
202010110400 METAR MRPV NIL=
202010110500 METAR MRPV NIL=
202010110600 METAR MRPV NIL=
202010110700 METAR MRPV NIL=
202010110800 METAR MRPV NIL=
202010110900 METAR MRPV NIL=
202010111000 METAR MRPV NIL=
202010111100 METAR MRPV NIL=
202010111200 METAR MRPV 111200Z 13007KT 9999 FEW045 21/16 A3001 NOSIG=
202010111300 METAR MRPV 111300Z 15009KT 9999 FEW040 21/17 A3001 NOSIG=
202010111400 METAR MRPV 111400Z 10014KT 9999 FEW040 SCT220 23/17 A3002 NOSIG=
202010111500 METAR MRPV 111500Z 07013KT 9999 FEW035 SCT220 24/17 A3003 NOSIG=
202010111600 METAR MRPV 111600Z 09011KT 9999 FEW035 BKN200 25/17 A3003 NOSIG=
202010111700 METAR MRPV 111700Z 08014KT 9999 SCT040 BKN200 26/17 A3000 NOSIG=
202010111800 METAR MRPV 111800Z 07013KT 9999 SCT045 SCT200 28/17 A2996 NOSIG=
202010111900 METAR MRPV 111900Z 07012KT 9999 FEW045 SCT200 28/17 A2994 NOSIG=
202010112000 METAR MRPV 112000Z 07013KT 9999 FEW045 SCT200 28/16 A2992 NOSIG=
202010112100 METAR MRPV 112100Z 07012G22KT 9999 SCT040 SCT200 27/17 A2992 NOSIG=
202010112200 METAR MRPV 112200Z 10011KT 9999 FEW020 BKN040 25/17 A2993 NOSIG=
202010112300 METAR MRPV 112300Z 12008KT 9999 SCT040 SCT200 24/17 A2995 NOSIG=
202010120000 METAR MRPV 120000Z 11008KT 9999 BKN040 23/18 A2996 NOSIG=
202010120100 METAR MRPV NIL=
202010120200 METAR MRPV NIL=
202010120300 METAR MRPV NIL=
202010120400 METAR MRPV NIL=
202010120500 METAR MRPV NIL=
202010120600 METAR MRPV NIL=
202010120700 METAR MRPV NIL=
202010120800 METAR MRPV NIL=
202010120900 METAR MRPV NIL=
202010121000 METAR MRPV NIL=
202010121100 METAR MRPV NIL=
202010121200 METAR MRPV 121200Z 10005KT 9999 SCT040 21/17 A3001 NOSIG=
202010121300 METAR MRPV 121300Z 11006KT 9999 FEW040 23/17 A3002 NOSIG=
202010121400 METAR MRPV 121400Z 15006KT 9999 FEW045 24/17 A3003 NOSIG=
202010121500 METAR MRPV 121500Z 08008KT 9999 FEW045 24/17 A3004 NOSIG=
202010121600 METAR MRPV 121600Z 09007KT 9999 FEW040 OVC120 24/18 A3003 NOSIG=
202010121700 METAR MRPV 121700Z 09008KT 9999 FEW040 OVC120 25/17 A3000 NOSIG=
202010121800 METAR MRPV 121800Z 10010KT 9999 FEW040 OVC100 25/16 A2997 NOSIG=
202010121900 METAR MRPV 121900Z 07008KT CAVOK 26/16 A2994 NOSIG=
202010122000 METAR MRPV 122000Z 08004KT CAVOK 27/13 A2991 NOSIG=
202010122100 METAR MRPV 122100Z 05004KT 9999 FEW040 26/14 A2991 NOSIG=
202010122200 METAR MRPV 122200Z 29009KT 9999 SCT035 23/20 A2992 NOSIG=
202010122300 METAR MRPV 122300Z 30008KT 4500 BR OVC010 21/20 A2995 NOSIG=
202010130000 METAR MRPV 130000Z 29005KT 5000 BR OVC010 21/20 A2997 NOSIG=
202010130100 METAR MRPV NIL=
202010130200 METAR MRPV NIL=
202010130300 METAR MRPV NIL=
202010130400 METAR MRPV NIL=
202010130500 METAR MRPV NIL=
202010130600 METAR MRPV NIL=
202010130700 METAR MRPV NIL=
202010130800 METAR MRPV NIL=
202010130900 METAR MRPV NIL=
202010131000 METAR MRPV NIL=
202010131100 METAR MRPV NIL=
202010131200 METAR MRPV 131200Z 13009KT 9999 FEW045 SCT140 BKN200 21/16 A2999 NOSIG=
202010131300 METAR MRPV 131300Z 12007KT CAVOK 21/16 A3003 NOSIG=
202010131400 METAR MRPV 131400Z 14008KT 9999 FEW040 SCT120 BKN200 22/16 A3005 NOSIG=
202010131500 METAR MRPV 131500Z 11005KT CAVOK 25/16 A3006 NOSIG=
202010131600 METAR MRPV 131600Z 09012KT 9999 BKN040 25/16 A3006 NOSIG=
202010131700 METAR MRPV 131700Z 09009KT 9999 SCT040 BKN140 24/17 A3003 NOSIG=
202010131800 METAR MRPV 131800Z 11005KT 9999 VCSH FEW020TCU SCT035 BKN160 25/17 A3000 NOSIG=
202010131900 METAR MRPV 131900Z 09009KT 9999 SCT035 BKN200 26/17 A2997 NOSIG=
202010132000 METAR MRPV 132000Z 07004KT 9999 SCT035 BKN180 27/17 A2994 NOSIG=
202010132100 METAR MRPV 132100Z 34006KT 9999 2000W +SHRA VCTS SCT010CB SCT030 23/20 A2994 NOSIG=
202010132200 METAR MRPV 132200Z 28004KT 5000 BCFG FEW010 BKN035 20/18 A2995 RETSRA NOSIG=
202010132300 METAR MRPV 132300Z 34005KT 5000 BCFG SCT015 SCT060 21/19 A2998 NOSIG=
202010140000 METAR MRPV 140000Z 33003KT 5000 BCFG SCT015 SCT060 20/19 A3000 NOSIG=
202010140100 METAR MRPV NIL=
202010140200 METAR MRPV NIL=
202010140300 METAR MRPV NIL=
202010140400 METAR MRPV NIL=
202010140500 METAR MRPV NIL=
202010140600 METAR MRPV NIL=
202010140700 METAR MRPV NIL=
202010140800 METAR MRPV NIL=
202010140900 METAR MRPV NIL=
202010141000 METAR MRPV NIL=
202010141100 METAR MRPV NIL=
202010141200 METAR MRPV 141200Z 15008KT CAVOK 20/16 A2997 NOSIG=
202010141300 METAR MRPV 141300Z 14008KT CAVOK 21/16 A2998 NOSIG=
202010141400 METAR MRPV 141400Z 11008KT CAVOK 24/17 A3001 NOSIG=
202010141500 METAR MRPV 141500Z 11009KT CAVOK 24/16 A3001 NOSIG=
202010141600 METAR MRPV 141600Z 07007KT CAVOK 26/16 A3001 TEMPO 29005KT=
202010141700 METAR MRPV 141700Z 28010KT 9999 FEW045 SCT200 25/20 A2999 NOSIG=
202010141800 METAR MRPV 141800Z 29011KT 9999 SCT030 SCT200 25/20 A2996 NOSIG=
202010141900 METAR MRPV 141900Z 28010KT 9999 BKN025 SCT200 25/19 A2994 NOSIG=
202010142000 METAR MRPV 142000Z 35005KT 3000 TSRA FEW010CB BKN015 21/20 A2993 NOSIG=
202010142100 METAR MRPV 142100Z 32004KT 9999 RA BKN005 20/19 A2993 NOSIG=
202010142200 METAR MRPV 142200Z 34001KT 5000 RA SCT005 BKN100 19/19 A2995 NOSIG=
202010142300 METAR MRPV 142300Z 34001KT 9999 -RA SCT005 BKN100 20/18 A2998 NOSIG=
202010150000 METAR MRPV 150000Z 11003KT 9999 -RA FEW005 BKN100 20/19 A2999 NOSIG=
202010150100 METAR MRPV NIL=
202010150200 METAR MRPV NIL=
202010150300 METAR MRPV NIL=
202010150400 METAR MRPV NIL=
202010150500 METAR MRPV NIL=
202010150600 METAR MRPV NIL=
202010150700 METAR MRPV NIL=
202010150800 METAR MRPV NIL=
202010150900 METAR MRPV NIL=
202010151000 METAR MRPV NIL=
202010151100 METAR MRPV NIL=
202010151200 METAR MRPV 151200Z 09007KT CAVOK 18/15 A2997 NOSIG=
202010151300 METAR MRPV 151300Z 14004KT CAVOK 20/16 A2999 NOSIG=
202010151400 METAR MRPV 151400Z 30004KT CAVOK 21/18 A3000 NOSIG=
202010151500 METAR MRPV 151500Z 31006KT CAVOK 22/17 A3001 NOSIG=
202010151600 METAR MRPV 151600Z 29009KT CAVOK 24/18 A3000 NOSIG=
202010151700 METAR MRPV 151700Z 27008KT 9999 SCT040 25/18 A2997 NOSIG=
202010151800 METAR MRPV 151800Z 28007KT 9999 FEW020TCU FEW030 25/18 A2994 NOSIG=
202010151900 METAR MRPV 151900Z 27008KT 9999 4000E SHRA SCT020CB FEW035 25/20 A2991 NOSIG=
202010152000 METAR MRPV 152000Z 32007KT 9999 RA SCT005 BKN100 21/19 A2990 NOSIG=
202010152100 METAR MRPV 152100Z 32006KT 9999 SCT010 BKN100 22/20 A2989 RERA NOSIG=
202010152200 METAR MRPV 152200Z 32004KT 9999 4000E BKN008 21/18 A2990 NOSIG=
202010152300 METAR MRPV 152300Z 12002KT 5000 RA BKN005 SCT100 20/19 A2992 NOSIG=
202010160000 METAR MRPV 160000Z VRB01KT 7000 RA FEW005 BKN100 20/19 A2994 NOSIG=
202010160100 METAR MRPV NIL=
202010160200 METAR MRPV NIL=
202010160300 METAR MRPV NIL=
202010160400 METAR MRPV NIL=
202010160500 METAR MRPV NIL=
202010160600 METAR MRPV NIL=
202010160700 METAR MRPV NIL=
202010160800 METAR MRPV NIL=
202010160900 METAR MRPV NIL=
202010161000 METAR MRPV NIL=
202010161100 METAR MRPV NIL=
202010161200 METAR MRPV 161200Z 14005KT CAVOK 18/16 A2998 NOSIG=
202010161300 METAR MRPV 161300Z 13005KT 9999 FEW020 21/17 A3000 NOSIG=
202010161400 METAR MRPV 161400Z 13009KT 9999 FEW035 23/17 A3001 NOSIG=
202010161500 METAR MRPV 161500Z 10009KT 9999 FEW045 24/17 A3002 NOSIG=
202010161600 METAR MRPV 161600Z 08010KT 9999 FEW040 25/17 A3002 NOSIG=
202010161700 METAR MRPV 161700Z 08007KT 9999 SCT040 26/17 A3000 NOSIG=
202010161800 METAR MRPV 161800Z 09004KT 9999 BKN040 27/17 A2998 NOSIG=
202010161900 METAR MRPV 161900Z 25004KT 320V250 9999 BKN035 26/20 A2995 NOSIG=
202010162000 METAR MRPV 162000Z 27006KT 9999 FEW015TCU BKN035 24/21 A2992 NOSIG=
202010162100 METAR MRPV 162100Z 29010KT 9999 RA BCFG FEW002 SCT015 BKN035 22/20 A2992 TEMPO BKN010=
202010162200 METAR MRPV 162200Z 28008KT 7000 RA BCFG FEW003 BKN010 21/20 A2994 NOSIG=
202010162300 METAR MRPV 162300Z 30003KT 5000 BR FEW003 SCT010 BKN040 20/20 A2995 NOSIG=
202010170000 METAR MRPV 170000Z 35002KT 8000 BCFG SCT005 BKN035 20/20 A2997 NOSIG=
202010170100 METAR MRPV NIL=
202010170200 METAR MRPV NIL=
202010170300 METAR MRPV NIL=
202010170400 METAR MRPV NIL=
202010170500 METAR MRPV NIL=
202010170600 METAR MRPV NIL=
202010170700 METAR MRPV NIL=
202010170800 METAR MRPV NIL=
202010170900 METAR MRPV NIL=
202010171000 METAR MRPV NIL=
202010171100 METAR MRPV NIL=
202010171200 METAR MRPV 171200Z 13008KT 9999 FEW035 SCT200 20/16 A2999 NOSIG=
202010171300 METAR MRPV 171300Z 13008KT 9999 FEW045 BKN200 22/17 A3000 NOSIG=
202010171400 METAR MRPV 171400Z 11011KT 9999 FEW035 BKN200 23/18 A3001 NOSIG=
202010171500 METAR MRPV 171500Z 10013KT 9999 FEW035 BKN200 25/18 A3002 NOSIG=
202010171600 METAR MRPV 171600Z 09013KT 9999 SCT035 BKN200 25/18 A3002 NOSIG=
202010171700 METAR MRPV 171700Z 10014KT 9999 SCT035 SCT220 26/18 A3000 NOSIG=
202010171800 METAR MRPV 171800Z 09013KT 9999 FEW025 BKN045 25/18 A2997 NOSIG=
202010171900 METAR MRPV 171900Z 08013KT 9999 FEW035 BKN060 25/18 A2995 NOSIG=
202010172000 METAR MRPV 172000Z 07013KT 9999 RA FEW020 BKN060 24/18 A2994 NOSIG=
202010172100 METAR MRPV 172100Z 08013KT 9999 FEW020 SCT045 BKN080 23/18 A2992 RERA NOSIG=
202010172200 METAR MRPV 172200Z 13008KT 9999 FEW025 SCT050 BKN100 23/18 A2994 NOSIG=
202010172300 METAR MRPV 172300Z 11008KT 9999 FEW020 SCT080 BKN120 22/17 A2995 NOSIG=
202010180000 METAR MRPV 180000Z 09013KT 9999 FEW030 BKN100 22/17 A2995 NOSIG=
202010180100 METAR MRPV NIL=
202010180200 METAR MRPV NIL=
202010180300 METAR MRPV NIL=
202010180400 METAR MRPV NIL=
202010180500 METAR MRPV NIL=
202010180600 METAR MRPV NIL=
202010180700 METAR MRPV NIL=
202010180800 METAR MRPV NIL=
202010180900 METAR MRPV NIL=
202010181000 METAR MRPV NIL=
202010181100 METAR MRPV NIL=
202010181200 METAR MRPV 181200Z 13009KT 9999 FEW035 BKN200 21/16 A2995 NOSIG=
202010181300 METAR MRPV 181300Z 12008KT CAVOK 22/16 A2998 NOSIG=
202010181400 METAR MRPV 181400Z 12010KT CAVOK 24/17 A2999 NOSIG=
202010181500 METAR MRPV 181500Z 10013KT 9999 FEW040 BKN200 25/17 A3001 NOSIG=
202010181600 METAR MRPV 181600Z 07014KT 9999 FEW035 BKN200 26/16 A3001 NOSIG=
202010181700 METAR MRPV 181700Z 08006KT CAVOK 27/16 A2997 NOSIG=
202010181800 METAR MRPV 181800Z 03002KT 9999 FEW035 BKN200 29/16 A2993 NOSIG=
202010181900 METAR MRPV 181900Z 29009KT 9999 FEW035 BKN200 26/20 A2990 NOSIG=
202010182000 METAR MRPV 182000Z COR 29012KT 9999 4000N SHRA FEW015TCU BKN025 26/20 A2989 NOSIG=
202010182100 METAR MRPV 182100Z 00000KT 4000 -TSRA SCT15CB BKN025 22/20 A2990 NOSIG=
202010182200 METAR MRPV 182200Z 22003KT 4000 TSRA SCT15CB BKN025 20/19 A2992 NOSIG=
202010182300 METAR MRPV 182300Z COR 03002KT 4000 -TSRA BR FEW005 FEW015CB BKN020 20/19 A2993 NOSIG=
202010190000 METAR MRPV 190000Z 19002KT 5000 +RA BCFG FEW010 BKN025 20/19 A2996 RETSRA NOSIG=
202010190100 METAR MRPV NIL=
202010190200 METAR MRPV NIL=
202010190300 METAR MRPV NIL=
202010190400 METAR MRPV NIL=
202010190500 METAR MRPV NIL=
202010190600 METAR MRPV NIL=
202010190700 METAR MRPV NIL=
202010190800 METAR MRPV NIL=
202010191100 METAR MRPV NIL=
202010191200 METAR MRPV 191200Z 09003KT CAVOK 17/16 A2997 NOSIG=
202010191300 METAR MRPV 191300Z 19002KT CAVOK 19/17 A2998 NOSIG=
202010191400 METAR MRPV 191400Z 09005KT CAVOK 23/17 A2997 NOSIG=
202010191500 METAR MRPV 191500Z 11010KT CAVOK 24/17 A2997 NOSIG=
202010191600 METAR MRPV 191600Z 09013KT CAVOK 26/17 A2996 NOSIG=
202010191700 METAR MRPV 191700Z 32007KT 9999 FEW040 OVC200 26/19 A2995 NOSIG=
202010191800 METAR MRPV 191800Z 28009KT 9999 FEW040 OVC200 26/19 A2992 NOSIG=
202010191900 METAR MRPV 191900Z 29012KT 9999 FEW020TCU SCT035 BKN200 25/20 A2988 NOSIG=
202010192000 METAR MRPV 192000Z 30013KT 9999 4000NE SHRA FEW020TCU SCT035 BKN200 25/20 A2987 NOSIG=
202010192100 METAR MRPV 192100Z 31009KT 4000 -TSRA BR FEW008 BKN015CB 22/20 A2989 RESHRA NOSIG=
202010192200 METAR MRPV 192200Z 11005KT 4000 RA BR SCT035 BKN060 19/18 A2991 RETSRA NOSIG=
202010192300 METAR MRPV 192300Z 07004KT 5000 -RA SCT035 BKN060 19/18 A2993 NOSIG=
202010200000 METAR MRPV 200000Z 00000KT 5000 -RA SCT035 BKN060 19/18 A2994 NOSIG=
202010200100 METAR MRPV NIL=
202010200200 METAR MRPV NIL=
202010200300 METAR MRPV NIL=
202010200400 METAR MRPV NIL=
202010200500 METAR MRPV NIL=
202010200600 METAR MRPV NIL=
202010200700 METAR MRPV NIL=
202010200800 METAR MRPV NIL=
202010200900 METAR MRPV NIL=
202010201000 METAR MRPV NIL=
202010201100 METAR MRPV NIL=
202010201200 METAR MRPV 201200Z 07002KT 9999 SCT015 BKN070 18/17 A2997 NOSIG=
202010201300 METAR MRPV 201300Z 33001KT 9999 FEW005 SCT010 BKN070 18/17 A2999 NOSIG=
202010201400 METAR MRPV 201400Z 17001KT 9999 FEW005 BKN100 20/18 A2999 NOSIG=
202010201500 METAR MRPV 201500Z 24002KT 9999 FEW025 BKN250 22/18 A2998 NOSIG=
202010201600 METAR MRPV 201600Z 30008KT 9999 FEW025 BKN250 23/18 A2998 NOSIG=
202010201700 METAR MRPV 201700Z 29007KT 9999 FEW025 SCT250 24/19 A2996 NOSIG=
202010201800 METAR MRPV 201800Z 29006KT 9999 FEW025 SCT250 26/18 A2993 NOSIG=
202010201900 METAR MRPV 201900Z 31010KT 9999 FEW015 BKN200 24/20 A2989 NOSIG=
202010202000 METAR MRPV 202000Z 29011KT 9999 FEW015CB FEW015 SCT200 25/19 A2987 TEMPO TSRA=
202010202100 METAR MRPV 202100Z 28010KT 9999 FEW020TCU SCT025 SCT200 24/20 A2986 NOSIG=
202010202200 METAR MRPV 202200Z 29008KT 4000 RA BKN010 21/20 A2988 NOSIG=
202010202300 METAR MRPV 202300Z 36003KT 5000 RA FEW005 BKN015 21/20 A2989 NOSIG=
202010210000 METAR MRPV 210000Z 03002KT 7000 RA FEW005 BKN100 20/19 A2991 NOSIG=
202010210100 METAR MRPV NIL=
202010210200 METAR MRPV NIL=
202010210300 METAR MRPV NIL=
202010210400 METAR MRPV NIL=
202010210500 METAR MRPV NIL=
202010210600 METAR MRPV NIL=
202010210700 METAR MRPV NIL=
202010210800 METAR MRPV NIL=
202010210900 METAR MRPV NIL=
202010211000 METAR MRPV NIL=
202010211100 METAR MRPV NIL=
202010211200 METAR MRPV 211200Z 20002KT 5000 RA NSC 19/18 A2998 NOSIG=
202010211300 METAR MRPV 211300Z 28002KT 4000 RA BKN004 19/18 A3002 NOSIG=
202010211400 METAR MRPV 211400Z 22002KT 9999 -RA FEW002 BKN100 19/19 A3002 NOSIG=
202010211500 METAR MRPV 211500Z 06001KT 9999 FEW010 BKN100 21/19 A3004 NOSIG=
202010211600 METAR MRPV 211600Z 15003KT 9999 FEW010 BKN100 22/18 A3003 NOSIG=
202010211700 METAR MRPV 211700Z 28004KT 9999 FEW010 BKN100 23/19 A3002 NOSIG=
202010211800 METAR MRPV 211800Z 28004KT 9999 FEW010 BKN100 23/18 A2999 NOSIG=
202010211900 METAR MRPV 211900Z 30008KT 9999 SCT015 BKN120 23/19 A2997 NOSIG=
202010212000 METAR MRPV 212000Z 29008KT 8000 DZ SCT005 BKN120 22/20 A2996 NOSIG=
202010212100 METAR MRPV 212100Z 02002KT 9999 FEW004 BKN100 21/18 A2993 REDZ NOSIG=
202010212200 METAR MRPV 212200Z 29006KT 9999 FEW004 SCT025 BKN100 21/19 A2995 NOSIG=
202010212300 METAR MRPV 212300Z 29006KT 9999 FEW002 BKN010 20/19 A2995 NOSIG=
202010220000 METAR MRPV 220000Z 28005KT 9999 SCT004 BKN100 20/19 A2998 NOSIG=
202010220100 METAR MRPV NIL=
202010220200 METAR MRPV NIL=
202010220300 METAR MRPV NIL=
202010220400 METAR MRPV NIL=
202010220500 METAR MRPV NIL=
202010220600 METAR MRPV NIL=
202010220700 METAR MRPV NIL=
202010220800 METAR MRPV NIL=
202010220900 METAR MRPV NIL=
202010221000 METAR MRPV NIL=
202010221100 METAR MRPV NIL=
202010221200 METAR MRPV 221200Z 12001KT CAVOK 19/18 A3000 NOSIG=
202010221300 METAR MRPV 221300Z 09003KT CAVOK 20/18 A3002 NOSIG=
202010221400 METAR MRPV 221400Z 09002KT CAVOK 23/18 A3002 NOSIG=
202010221500 METAR MRPV 221500Z 28003KT 9999 FEW030 25/18 A3003 NOSIG=
202010221600 METAR MRPV 221600Z 28007KT 9999 FEW035 25/19 A3003 NOSIG=
202010221700 METAR MRPV 221700Z 27007KT 9999 FEW030 25/18 A3000 NOSIG=
202010221800 METAR MRPV 221800Z 28009KT 9999 VCSH FEW025TCU SCT035 26/20 A2998 TEMPO SHRA=
202010221900 METAR MRPV 221900Z 30011KT 9999 VCSH FEW020TCU SCT035 BKN160 24/21 A2997 TEMPO SHRA=
202010222000 METAR MRPV 222000Z 20005KT 9999 -RA SCT010 BKN120 21/19 A2996 NOSIG=
202010222100 METAR MRPV 222100Z 15003KT 9999 FEW015TCU SCT035 SCT200 24/19 A2995 NOSIG=
202010222200 METAR MRPV 222200Z 29008KT 9999 BCFG SCT008 SCT035 22/21 A2994 NOSIG=
202010222300 METAR MRPV 222300Z 28004KT 6000 -RA BCFG FEW003 BKN010 21/20 A2996 NOSIG=
202010230000 METAR MRPV 230000Z 30006KT 2000 BR OVC002 21/20 A2999 NOSIG=
202010230100 METAR MRPV NIL=
202010230200 METAR MRPV NIL=
202010230300 METAR MRPV NIL=
202010230400 METAR MRPV NIL=
202010230500 METAR MRPV NIL=
202010230600 METAR MRPV NIL=
202010230700 METAR MRPV NIL=
202010230800 METAR MRPV NIL=
202010230900 METAR MRPV NIL=
202010231000 METAR MRPV NIL=
202010231100 METAR MRPV NIL=
202010231200 METAR MRPV 231200Z VRB01KT CAVOK 18/17 A3001 NOSIG=
202010231300 METAR MRPV 231300Z VRB02KT CAVOK 21/18 A3003 NOSIG=
202010231400 METAR MRPV 231400Z 12005KT 9999 FEW025 SCT220 25/19 A3005 NOSIG=
202010231500 METAR MRPV 231500Z 26006KT 9999 SCT035 SCT220 23/20 A3006 NOSIG=
202010231600 METAR MRPV 231600Z 30006KT 9999 FEW025 BKN220 23/19 A3006 NOSIG=
202010231700 METAR MRPV 231700Z 28005KT 9999 FEW035 BKN220 25/20 A3003 NOSIG=
202010231800 METAR MRPV 231800Z 29009KT 9999 SCT035 SCT070 26/20 A2999 NOSIG=
202010231900 METAR MRPV 231900Z 33009KT 9999 FEW010 SCT030 BKN100 24/19 A2997 TEMPO RA=
202010232000 METAR MRPV 232000Z 30003KT 9999 -DZ FEW015 SCT030 BKN100 23/19 A2996 NOSIG=
202010232100 METAR MRPV 232100Z 28004KT 9999 FEW015 BKN110 23/19 A2996 NOSIG=
202010232200 METAR MRPV 232200Z 28006KT 9999 BCFG FEW004 BKN010 22/20 A2998 NOSIG=
202010232300 METAR MRPV 232300Z 31004KT 7000 -RA BCFG FEW004 BKN010 21/20 A2998 NOSIG=
202010240000 METAR MRPV 240000Z 31004KT 8000 VCFG BKN008 20/20 A3001 NOSIG=
202010240100 METAR MRPV NIL=
202010240200 METAR MRPV NIL=
202010240300 METAR MRPV NIL=
202010240400 METAR MRPV NIL=
202010240500 METAR MRPV NIL=
202010240600 METAR MRPV NIL=
202010240700 METAR MRPV NIL=
202010240800 METAR MRPV NIL=
202010240900 METAR MRPV NIL=
202010241000 METAR MRPV NIL=
202010241100 METAR MRPV NIL=
202010241200 METAR MRPV 241200Z 10003KT CAVOK 18/17 A3003 NOSIG=
202010241300 METAR MRPV 241300Z 00000KT CAVOK 21/18 A3005 NOSIG=
202010241400 METAR MRPV 241400Z 35002KT 9999 SCT030 BKN200 22/18 A3005 NOSIG=
202010241500 METAR MRPV 241500Z 27006KT 9999 SCT030 BKN200 23/18 A3008 NOSIG=
202010241600 METAR MRPV 241600Z 28006KT 9999 BKN030 25/19 A3007 NOSIG=
202010241700 METAR MRPV 241700Z 27007KT 9999 SCT035 25/18 A3005 NOSIG=
202010241800 METAR MRPV 241800Z 28010KT 9999 SCT030 26/19 A3000 NOSIG=
202010241900 METAR MRPV 241900Z 26007KT 9999 4000NW SHRA FEW025TCU SCT030 25/19 A2997 NOSIG=
202010242000 METAR MRPV 242000Z 28003KT 5000 RA FEW020TCU SCT035 21/20 A2996 NOSIG=
202010242100 METAR MRPV 242100Z 30006KT 9999 FEW015 BKN030 23/20 A2994 NOSIG=
202010242200 METAR MRPV 242200Z 27005KT 9999 2500NE -RA SCT010 BKN020 22/20 A2997 NOSIG=
202010242300 METAR MRPV 242300Z 31003KT 5000 -RA FEW015 BKN060 21/19 A2999 NOSIG=
202010250000 METAR MRPV 250000Z 15003KT 9999 -RA FEW015 BKN060 20/19 A3000 NOSIG=
202010250100 METAR MRPV NIL=
202010250200 METAR MRPV NIL=
202010250300 METAR MRPV NIL=
202010250400 METAR MRPV NIL=
202010250500 METAR MRPV NIL=
202010250600 METAR MRPV NIL=
202010250700 METAR MRPV NIL=
202010250800 METAR MRPV NIL=
202010250900 METAR MRPV NIL=
202010251000 METAR MRPV NIL=
202010251100 METAR MRPV NIL=
202010251200 METAR MRPV 251200Z 09001KT 9999 FEW035 SCT200 19/18 A3004 NOSIG=
202010251300 METAR MRPV 251300Z 11001KT 9999 FEW030 SCT200 20/18 A3006 NOSIG=
202010251400 METAR MRPV 251400Z 05001KT 9999 FEW030 SCT160 BKN200 22/17 A3006 NOSIG=
202010251500 METAR MRPV 251500Z 30002KT 9999 FEW035 SCT140 BKN200 24/16 A3006 NOSIG=
202010251600 METAR MRPV 251600Z 29006KT 9999 FEW035 SCT100 BKN200 24/16 A3006 NOSIG=
202010251700 METAR MRPV 251700Z 27006KT 9999 4000NW RA SCT025 BKN100 25/18 A3004 NOSIG=
202010251800 METAR MRPV 251800Z 28009KT 9999 SCT030 BKN060 23/19 A3001 RERA NOSIG=
202010251900 METAR MRPV 251900Z 30010KT 9999 -RA SCT030 BKN050 24/18 A2997 NOSIG=
202010252000 METAR MRPV 252000Z 32006KT 9999 -RA SCT020 BKN060 21/19 A2996 NOSIG=
202010252100 METAR MRPV 252100Z 30007KT 8000 BKN025 SCT060 23/19 A2994 NOSIG=
202010252200 METAR MRPV 252200Z 30008KT 5000 BKN010 22/19 A2995 NOSIG=
202010252300 METAR MRPV 252300Z 30008KT 3000 BR BKN005 21/19 A2997 NOSIG=
202010260000 METAR MRPV 260000Z 27004KT 3000 +RA BR BKN010 SCT020 20/19 A3000 NOSIG=
202010260100 METAR MRPV NIL=
202010260200 METAR MRPV NIL=
202010260300 METAR MRPV NIL=
202010260400 METAR MRPV NIL=
202010260500 METAR MRPV NIL=
202010260600 METAR MRPV NIL=
202010260700 METAR MRPV NIL=
202010260800 METAR MRPV NIL=
202010260900 METAR MRPV NIL=
202010261000 METAR MRPV NIL=
202010261100 METAR MRPV NIL=
202010261200 METAR MRPV 261200Z 35002KT 4000 BR OVC001 19/18 A3001 NOSIG=
202010261300 METAR MRPV 261300Z 15001KT 6000 BCFG FEW001 BKN015 19/18 A3003 NOSIG=
202010261400 METAR MRPV 261400Z 12003KT 9999 FEW010 SCT100 21/18 A3005 NOSIG=
202010261500 METAR MRPV 261500Z 24002KT 9999 FEW015 SCT100 BKN200 23/18 A3006 NOSIG=
202010261600 METAR MRPV 261600Z 27004KT 9999 FEW015 BKN100 22/18 A3005 NOSIG=
202010261700 METAR MRPV 261700Z 29002KT 9999 FEW012 BKN120 22/19 A3003 NOSIG=
202010261800 METAR MRPV 261800Z 30005KT 9999 FEW015 BKN140 23/18 A3000 NOSIG=
202010261900 METAR MRPV 261900Z 30005KT 9999 FEW015 BKN120 23/17 A2997 NOSIG=
202010262000 METAR MRPV 262000Z 29007KT 9999 FEW010 BKN120 23/17 A2995 NOSIG=
202010262100 METAR MRPV 262100Z 30006KT 9999 FEW010 BKN120 23/18 A2995 NOSIG=
202010262200 METAR MRPV 262200Z 27005KT 9999 FEW008 BKN120 22/19 A2996 NOSIG=
202010262300 METAR MRPV 262300Z 29006KT 9999 FEW005 BKN200 21/20 A2997 NOSIG=
202010270000 METAR MRPV 270000Z 30003KT 9999 FEW005 BKN200 20/19 A2999 NOSIG=
202010270100 METAR MRPV NIL=
202010270200 METAR MRPV NIL=
202010270300 METAR MRPV NIL=
202010270400 METAR MRPV NIL=
202010270500 METAR MRPV NIL=
202010270600 METAR MRPV NIL=
202010270700 METAR MRPV NIL=
202010270800 METAR MRPV NIL=
202010270900 METAR MRPV NIL=
202010271000 METAR MRPV NIL=
202010271100 METAR MRPV NIL=
202010271200 METAR MRPV 271200Z 00000KT CAVOK 17/17 A3000 NOSIG=
202010271300 METAR MRPV 271300Z 32001KT 9999 4000W BCFG FEW001 BKN100 18/18 A3002 NOSIG=
202010271400 METAR MRPV 271400Z 05001KT CAVOK 20/18 A3004 NOSIG=
202010271500 METAR MRPV 271500Z 29002KT CAVOK 23/18 A3005 NOSIG=
202010271600 METAR MRPV 271600Z 02002KT CAVOK 23/18 A3005 NOSIG=
202010271700 METAR MRPV 271700Z 28007KT 9999 FEW020 BKN200 25/20 A3000 NOSIG=
202010271800 METAR MRPV 271800Z 28009KT 9999 FEW040 BKN200 26/20 A2997 NOSIG=
202010271900 METAR MRPV 271900Z 29011KT 9999 SCT025 BKN200 25/21 A2995 NOSIG=
202010272000 METAR MRPV 272000Z 28010KT 9999 SHRA FEW020TCU BKN020 24/21 A2992 NOSIG=
202010272100 METAR MRPV 272100Z 28007KT 9999 -TSRA FEW005 SCT015CB BKN100 22/21 A2992 NOSIG=
202010272200 METAR MRPV 272200Z 30006KT 9000 BKN010 22/21 A2993 RETSRA NOSIG=
202010272300 METAR MRPV 272300Z 30003KT 9999 -RA FEW005 SCT010 SCT050 22/21 A2995 NOSIG=
202010280000 METAR MRPV 280000Z 30004KT 9000 -RA BKN005 21/20 A2998 NOSIG=
202010280100 METAR MRPV NIL=
202010280200 METAR MRPV NIL=
202010280300 METAR MRPV NIL=
202010280400 METAR MRPV NIL=
202010280500 METAR MRPV NIL=
202010280600 METAR MRPV NIL=
202010280700 METAR MRPV NIL=
202010280800 METAR MRPV NIL=
202010280900 METAR MRPV NIL=
202010281000 METAR MRPV NIL=
202010281100 METAR MRPV NIL=
202010281200 METAR MRPV 281200Z 12004KT 9999 BCFG FEW004 SCT035 BKN100 21/18 A2997 NOSIG=
202010281300 METAR MRPV 281300Z 35002KT 9999 VCFG FEW020 SCT035 BKN100 20/19 A3002 NOSIG=
202010281400 METAR MRPV 281400Z 02002KT 9999 FEW030 OVC140 21/19 A3003 NOSIG=
202010281500 METAR MRPV 281500Z 13005KT 9999 FEW035 OVC160 24/18 A3003 NOSIG=
202010281600 METAR MRPV 281600Z 11007KT 9999 FEW040 OVC180 25/19 A3002 NOSIG=
202010281700 METAR MRPV 281700Z 10012KT 9999 FEW045 BKN180 26/18 A2997 NOSIG=
202010281800 METAR MRPV 281800Z 10004KT 9999 FEW030 BKN200 27/18 A2995 NOSIG=
202010281900 METAR MRPV 281900Z 29006KT 040V290 9999 SCT035 BKN200 25/21 A2994 NOSIG=
202010282000 METAR MRPV 282000Z 28010KT 9999 VCTS SCT010CB SCT035 SCT120 23/21 A2993 TEMPO TSRA BKN010CB=
202010282100 METAR MRPV 282100Z 13003KT 9999 FEW035 BKN120 22/20 A2993 NOSIG=
202010282200 METAR MRPV 282200Z 14004KT 9999 BCFG FEW005 SCT080 BKN120 23/20 A2994 NOSIG=
202010282300 METAR MRPV 282300Z 32005KT 7000 BCFG SCT004 BKN010 21/20 A2996 NOSIG=
202010290000 METAR MRPV 290000Z 32002KT 8000 BCFG VCTS FEW004 SCT010CB BKN035 21/21 A2998 NOSIG=
202010290100 METAR MRPV NIL=
202010290200 METAR MRPV NIL=
202010290300 METAR MRPV NIL=
202010290400 METAR MRPV NIL=
202010290500 METAR MRPV NIL=
202010290600 METAR MRPV NIL=
202010290700 METAR MRPV NIL=
202010290800 METAR MRPV NIL=
202010290900 METAR MRPV NIL=
202010291000 METAR MRPV NIL=
202010291100 METAR MRPV NIL=
202010291200 METAR MRPV 291200Z 09006KT 9999 FEW030 BKN200 19/17 A2999 NOSIG=
202010291300 METAR MRPV 291300Z 14004KT 9999 FEW040 BKN200 21/17 A3000 NOSIG=
202010291400 METAR MRPV 291400Z 12006KT CAVOK 23/16 A3001 NOSIG=
202010291500 METAR MRPV 291500Z 12008KT CAVOK 26/18 A3002 NOSIG=
202010291600 METAR MRPV 291600Z 09010KT 9999 FEW045 BKN200 27/16 A3001 NOSIG=
202010291700 METAR MRPV 291700Z 14004KT CAVOK 27/16 A2998 NOSIG=
202010291800 METAR MRPV 291800Z 30007KT 9999 FEW035 BKN200 27/20 A2995 NOSIG=
202010291900 METAR MRPV 291900Z 28010KT 9999 VCTS FEW025CB SCT030 SCT200 26/21 A2992 NOSIG=
202010292000 METAR MRPV 292000Z 32014G25KT 2000 +TSRA SCT010CB BKN030 19/17 A2994 NOSIG=
202010292027 METAR MRPV 292027Z 27003KT 9999 4000SW TSRA FEW010CB SCT030 SCT100 19/18 A2994 NOSIG=
202010292100 METAR MRPV 292100Z 08003KT 9999 RA SCT035 BKN100 19/17 A2993 RETSRA NOSIG=
202010292200 METAR MRPV 292200Z 18001KT 9999 FEW035 BKN100 19/18 A2995 RERA NOSIG=
202010292300 METAR MRPV 292300Z 04001KT 9999 FEW040 BKN100 20/19 A2996 NOSIG=
202010300000 METAR MRPV 300000Z 20002KT 6000 FEW040 BKN100 19/19 A2998 NOSIG=
202010300100 METAR MRPV NIL=
202010300200 METAR MRPV NIL=
202010300300 METAR MRPV NIL=
202010300400 METAR MRPV NIL=
202010300500 METAR MRPV NIL=
202010300600 METAR MRPV NIL=
202010300700 METAR MRPV NIL=
202010300800 METAR MRPV NIL=
202010300900 METAR MRPV NIL=
202010301000 METAR MRPV NIL=
202010301100 METAR MRPV NIL=
202010301200 METAR MRPV 301200Z 00000KT CAVOK 18/17 A3003 NOSIG=
202010301300 METAR MRPV 301300Z 00000KT 9999 FEW020 BKN100 19/17 A3006 NOSIG=
202010301400 METAR MRPV 301400Z VRB01KT CAVOK 21/17 A3007 NOSIG=
202010301500 METAR MRPV 301500Z 34003KT 9999 FEW025 BKN100 22/18 A3008 NOSIG=
202010301600 METAR MRPV 301600Z VRB02KT 9999 FEW030 SCT100 BKN200 24/19 A3007 NOSIG=
202010301700 METAR MRPV 301700Z 26004KT 9999 FEW030 BKN200 23/18 A3005 NOSIG=
202010301800 METAR MRPV 301800Z 31005KT 9999 FEW035 BKN200 25/18 A3001 NOSIG=
202010301900 METAR MRPV 301900Z 28007KT 9999 SCT035 26/19 A2998 NOSIG=
202010302000 METAR MRPV 302000Z 28009KT 9999 SCT030 25/20 A2995 NOSIG=
202010302100 METAR MRPV 302100Z 28012KT 9999 FEW020 BKN035 24/20 A2996 NOSIG=
202010302200 METAR MRPV 302200Z 28005KT 9999 -RA FEW010 SCT020 BKN050 22/20 A2996 NOSIG=
202010302300 METAR MRPV 302300Z 29008KT 9999 -RA FEW010 SCT040 BKN200 21/20 A2998 NOSIG=
202010310000 METAR MRPV 310000Z 32006KT 9999 BCFG SCT008 BKN100 20/20 A3000 NOSIG=
202010310100 METAR MRPV NIL=
202010310200 METAR MRPV NIL=
202010310300 METAR MRPV NIL=
202010310400 METAR MRPV NIL=
202010310500 METAR MRPV NIL=
202010310600 METAR MRPV NIL=
202010310700 METAR MRPV NIL=
202010310800 METAR MRPV NIL=
202010310900 METAR MRPV NIL=
202010311000 METAR MRPV NIL=
202010311100 METAR MRPV NIL=
202010311200 METAR MRPV 311200Z 08004KT 9999 3500N BCFG FEW010 SCT030 BKN200 19/18 A3006 NOSIG=
202010311300 METAR MRPV 311300Z 08005KT 9999 FEW035 BKN200 20/18 A3007 NOSIG=
202010311400 METAR MRPV 311400Z 12006KT 9999 FEW025 BKN200 23/18 A3008 NOSIG=
202010311500 METAR MRPV 311500Z 31008KT 9999 SCT030 SCT200 23/20 A3010 NOSIG=
202010311600 METAR MRPV 311600Z 29008KT 9999 SCT030 23/20 A3009 NOSIG=
202010311700 METAR MRPV 311700Z 29007KT 9999 SCT025 SCT100 24/19 A3006 NOSIG=
202010311800 METAR MRPV 311800Z 28007KT 9999 FEW020 SCT030 25/19 A3003 NOSIG=
202010311900 METAR MRPV 311900Z COR 29008KT 9999 3000E SHRA FEW020TCU SCT030 25/20 A2999 NOSIG=
202010312000 METAR MRPV 312000Z 11004KT 5000 2000NE RA VCTS BKN030 21/20 A2999 RESHRA NOSIG=
202010312003 METAR MRPV 312003Z 05005KT 2000 +RA VCTS BKN030 21/20 A2999 NOSIG=
202010312100 METAR MRPV 312100Z 08006KT 3000 RA VCTS SCT015 BKN030 20/19 A2997 NOSIG=
202010312200 METAR MRPV 312200Z 00000KT 9999 3000NW -RA FEW015 BKN030 20/19 A2998 NOSIG=
202010312300 METAR MRPV 312300Z 34003KT 5000 2000W -RA BC SCT005 BKN025 20/20 A3000 NOSIG=
202011010000 METAR MRPV 010000Z 10004KT 5000 -RA BC BKN008 SCT015 20/18 A3002 NOSIG=
202011010100 METAR MRPV NIL=
202011010200 METAR MRPV NIL=
202011010300 METAR MRPV NIL=
202011010400 METAR MRPV NIL=
202011010500 METAR MRPV NIL=
202011010600 METAR MRPV NIL=
202011010700 METAR MRPV NIL=
202011010800 METAR MRPV NIL=
202011010900 METAR MRPV NIL=
202011011000 METAR MRPV NIL=
202011011100 METAR MRPV NIL=
202011011200 METAR MRPV 011200Z 06001KT 9999 FEW015 BKN090 19/18 A3002 NOSIG=
202011011300 METAR MRPV 011300Z 00000KT 9999 FEW015 BKN090 20/19 A3004 NOSIG=
202011011400 METAR MRPV 011400Z 35002KT 9999 FEW015 SCT080 BKN100 20/18 A3005 NOSIG=
202011011500 METAR MRPV 011500Z 05002KT 9999 FEW020 SCT100 BKN200 23/18 A3005 NOSIG=
202011011600 METAR MRPV 011600Z 01002KT 9999 SCT030 27/17 A3004 NOSIG=
202011011700 METAR MRPV 011700Z 25003KT 9999 FEW020TCU SCT025 SCT200 25/19 A3001 NOSIG=
202011011800 METAR MRPV 011800Z 32004KT 9999 RA FEW020TCU SCT020 SCT120 25/19 A2999 NOSIG=
202011011900 METAR MRPV 011900Z 05003KT 9999 SHRA FEW020TCU BKN020 24/19 A2995 RERA NOSIG=
202011012000 METAR MRPV 012000Z 22003KT 9999 3000S RA SCT008 BKN100 20/19 A2994 NOSIG=
202011012100 METAR MRPV 012100Z 35002KT 9999 -RA FEW040 SCT050 BKN100 20/19 A2994 NOSIG=
202011012200 METAR MRPV 012200Z 28006KT 9999 FEW002 SCT005 BKN100 20/19 A2995 NOSIG=
202011012300 METAR MRPV 012300Z 29007KT 9999 FEW002 SCT005 BKN100 20/19 A2996 NOSIG=
202011020000 METAR MRPV 020000Z 24003KT 4000 RA BR SCT005 BKN100 19/19 A2996 NOSIG=
202011020100 METAR MRPV NIL=
202011020200 METAR MRPV NIL=
202011020300 METAR MRPV NIL=
202011020400 METAR MRPV NIL=
202011020500 METAR MRPV NIL=
202011020600 METAR MRPV NIL=
202011020700 METAR MRPV NIL=
202011020800 METAR MRPV NIL=
202011020900 METAR MRPV NIL=
202011021000 METAR MRPV NIL=
202011021100 METAR MRPV NIL=
202011021200 METAR MRPV 021200Z 30002KT 9000 3000E BCFG FEW001 BKN100 19/18 A2998 NOSIG=
202011021300 METAR MRPV 021300Z 32003KT 9000 3000W BCFG SCT001 BKN100 19/18 A2999 NOSIG=
202011021400 METAR MRPV 021400Z 29005KT 5000 BR OVC004 19/19 A3002 NOSIG=
202011021500 METAR MRPV 021500Z 33004KT 7000 BCFG SCT005 SCT015 20/19 A3003 NOSIG=
202011021600 METAR MRPV 021600Z 32003KT 9999 FEW010 BKN015 21/19 A3002 NOSIG=
202011021700 METAR MRPV 021700Z 30005KT 9999 FEW008 BKN015 22/19 A2999 NOSIG=
202011021745 METAR MRPV 021745Z 27005KT 9999 RA FEW008 BKN015 22/19 A2997 NOSIG=
202011021800 METAR MRPV 021800Z 28006KT 9999 RA SCT005 SCT015 21/19 A2997 NOSIG=
202011021900 METAR MRPV 021900Z 28005KT 9999 -RA FEW005 BKN015 22/20 A2994 NOSIG=
202011022000 METAR MRPV 022000Z 28008KT 9999 FEW005 BKN015 22/19 A2992 NOSIG=
202011022100 METAR MRPV 022100Z 30008KT 9999 RA FEW005 BKN100 22/19 A2991 NOSIG=
202011022200 METAR MRPV 022200Z 30010KT 9999 FEW005 BKN100 21/19 A2991 RERA NOSIG=
202011022300 METAR MRPV 022300Z 30009KT 9999 SCT010 BKN100 20/19 A2994 NOSIG=
202011030000 METAR MRPV 030000Z 30008KT 9999 BKN005 20/19 A2996 NOSIG=
202011030100 METAR MRPV NIL=
202011030200 METAR MRPV NIL=
202011030300 METAR MRPV NIL=
202011030400 METAR MRPV NIL=
202011030500 METAR MRPV NIL=
202011030600 METAR MRPV NIL=
202011030700 METAR MRPV NIL=
202011030800 METAR MRPV NIL=
202011030900 METAR MRPV NIL=
202011031000 METAR MRPV NIL=
202011031100 METAR MRPV NIL=
202011031200 METAR MRPV 031200Z 30006KT 3000 RA BR OVC003 19/18 A2995 NOSIG=
202011031300 METAR MRPV 031300Z 30003KT 4000 -RA BR OVC007 19/18 A2997 NOSIG=
202011031400 METAR MRPV 031400Z 32002KT 3000 -RA BR SCT002 BKN010 19/19 A2998 NOSIG=
202011031500 METAR MRPV 031500Z 32004KT 3000 -RA BR SCT003 BKN010 19/19 A2999 NOSIG=
202011031600 METAR MRPV 031600Z 28006KT 8000 -RA BCFG FEW003 SCT025 BKN120 20/19 A2998 NOSIG=
202011031700 METAR MRPV 031700Z 31006KT 8000 -RA BCFG FEW003 SCT030 BKN100 20/19 A2995 NOSIG=
202011031800 METAR MRPV 031800Z 32006KT 4500 -RA BR FEW003 BKN010 20/20 A2993 NOSIG=
202011031900 METAR MRPV 031900Z 28010KT 3500 -RA BR BKN010 20/19 A2991 NOSIG=
202011032000 METAR MRPV 032000Z 28009KT 8000 BCFG BKN008 20/19 A2990 NOSIG=
202011032100 METAR MRPV 032100Z 28010KT 8000 BCFG BKN006 20/19 A2989 NOSIG=
202011032200 METAR MRPV 032200Z 29009KT 3500 -RA BR BKN003 SCT100 20/19 A2989 NOSIG=
202011032300 METAR MRPV 032300Z 29009KT 3000 BR BKN003 19/19 A2990 NOSIG=
202011040000 METAR MRPV 040000Z 29009KT 0800 -RA FG OVC002 19/19 A2992 NOSIG=
202011040100 METAR MRPV NIL=
202011040200 METAR MRPV NIL=
202011040300 METAR MRPV NIL=
202011040400 METAR MRPV NIL=
202011040500 METAR MRPV NIL=
202011040600 METAR MRPV NIL=
202011040700 METAR MRPV NIL=
202011040800 METAR MRPV NIL=
202011040900 METAR MRPV NIL=
202011041000 METAR MRPV NIL=
202011041100 METAR MRPV NIL=
202011041200 METAR MRPV 041200Z 29010KT 1000 -RA BR OVC002 18/18 A2993 NOSIG=
202011041300 METAR MRPV 041300Z 28011KT 2000 RA BR OVC002 18/18 A2996 NOSIG=
202011041400 METAR MRPV 041400Z 27006KT 7000 2500N -RA BCFG BKN005 18/18 A2998 TEMPO BKN010=
202011041500 METAR MRPV 041500Z 30007KT 3500 -RA BR OVC005 19/19 A2999 NOSIG=
202011041600 METAR MRPV 041600Z 30010KT 8000 -RA BCFG SCT003 BKN010 20/19 A2999 NOSIG=
202011041700 METAR MRPV 041700Z 30009KT 4000 RA BR SCT003 BKN010 20/19 A2997 NOSIG=
202011041800 METAR MRPV 041800Z 29010KT 3500 -RA BR SCT003 BKN010 20/19 A2995 NOSIG=
202011041900 METAR MRPV 041900Z 30007KT 5000 -RA BR FEW005 SCT010 BKN060 20/19 A2992 NOSIG=
202011042000 METAR MRPV 042000Z 30011KT 3500 -RA BR BKN005 19/19 A2991 NOSIG=
202011042100 METAR MRPV 042100Z 33005KT 3500 -DZ BR OVC003 19/19 A2990 NOSIG=
202011042200 METAR MRPV 042200Z 31008KT 2000 -RA BR OVC002 19/19 A2991 NOSIG=
202011042300 METAR MRPV 042300Z 31006KT 3000 -RA BR OVC002 18/18 A2993 NOSIG=
202011050000 METAR MRPV 050000Z 31007KT 2000 -RA BR OVC002 18/18 A2994 NOSIG=
202011050100 METAR MRPV NIL=
202011050200 METAR MRPV NIL=
202011050300 METAR MRPV NIL=
202011050400 METAR MRPV NIL=
202011050500 METAR MRPV NIL=
202011050600 METAR MRPV NIL=
202011050700 METAR MRPV NIL=
202011050800 METAR MRPV NIL=
202011050900 METAR MRPV NIL=
202011051000 METAR MRPV NIL=
202011051100 METAR MRPV NIL=
202011051200 METAR MRPV 051200Z 00000KT 1500 RA BR BKN005 19/18 A2998 NOSIG=
202011051300 METAR MRPV 051300Z 31004KT 1000 RA BR OVC001 19/18 A3000 NOSIG=
202011051400 METAR MRPV 051400Z 32005KT 2000 RA BR OVC005 19/19 A3001 NOSIG=
202011051500 METAR MRPV 051500Z 30004KT 2000 RA BR OVC005 19/19 A3003 NOSIG=
202011051600 METAR MRPV 051600Z 29004KT 2000 RA BR OVC003 20/19 A3002 NOSIG=
202011051700 METAR MRPV 051700Z 30009KT 3000 -RA BR BKN005 20/19 A3000 NOSIG=
202011051800 METAR MRPV 051800Z 30007KT 5000 BR BKN005 SCT010 21/20 A2997 RERA NOSIG=
202011051900 METAR MRPV 051900Z 30008KT 4500 -RA BR BKN005 SCT015 21/20 A2994 NOSIG=
202011052000 METAR MRPV 052000Z 32008KT 3500 RA BR SCT005 BKN010 20/20 A2993 NOSIG=
202011052100 METAR MRPV 052100Z 31005KT 3500 -RA BR BKN005 SCT010 20/19 A2992 NOSIG=
202011052200 METAR MRPV 052200Z 33005KT 4000 -RA BR BKN005 SCT010 20/19 A2993 NOSIG=
202011052300 METAR MRPV 052300Z 33005KT 3500 -RA BR BKN005 SCT010 19/19 A2993 NOSIG=
202011060000 METAR MRPV 060000Z 30007KT 3500 -RA BR BKN005 SCT010 19/19 A2996 NOSIG=
202011060100 METAR MRPV NIL=
202011060200 METAR MRPV NIL=
202011060300 METAR MRPV NIL=
202011060400 METAR MRPV NIL=
202011060500 METAR MRPV NIL=
202011060600 METAR MRPV NIL=
202011060700 METAR MRPV NIL=
202011060800 METAR MRPV NIL=
202011060900 METAR MRPV NIL=
202011061000 METAR MRPV NIL=
202011061100 METAR MRPV NIL=
202011061200 METAR MRPV 061200Z 34001KT 0800 -RA FG OVC001 18/18 A2999 NOSIG=
202011061300 METAR MRPV 061300Z 32002KT 0500 DZ FG OVC001 18/18 A3000 NOSIG=
202011061400 METAR MRPV 061400Z 34002KT 1000 DZ BR OVC002 19/18 A3002 NOSIG=
202011061500 METAR MRPV 061500Z 28001KT 4000 DZ BR BKN005 SCT010 19/19 A3003 NOSIG=
202011061600 METAR MRPV 061600Z 30007KT 4000 DZ BR BKN005 SCT010 20/19 A3002 NOSIG=
202011061700 METAR MRPV 061700Z COR 29009KT 4000 DZ BR SCT005 SCT015 21/19 A2999 BECMG 5000=
202011061800 METAR MRPV 061800Z 28009KT 5000 -DZ BCFG SCT008 SCT015 22/19 A2996 NOSIG=
202011061900 METAR MRPV 061900Z 30013KT 7000 DZ BCFG SCT010 SCT020 22/19 A2994 NOSIG=
202011062000 METAR MRPV 062000Z 28011KT 5000 DZ BCFG SCT008 SCT015 22/19 A2993 NOSIG=
202011062100 METAR MRPV 062100Z 29012KT 5000 DZ BCFG FEW005 BKN015 20/18 A2992 NOSIG=
202011062200 METAR MRPV 062200Z 30013KT 5000 DZ BCFG FEW005 BKN015 19/18 A2994 NOSIG=
202011062300 METAR MRPV 062300Z 31010KT 4000 DZ BR BKN005 SCT010 19/18 A2995 NOSIG=
202011070000 METAR MRPV 070000Z 31008KT 4000 DZ BR BKN005 SCT010 19/18 A2997 NOSIG=
202011070100 METAR MRPV NIL=
202011070200 METAR MRPV NIL=
202011070300 METAR MRPV NIL=
202011070400 METAR MRPV NIL=
202011070500 METAR MRPV NIL=
202011070600 METAR MRPV NIL=
202011070700 METAR MRPV NIL=
202011070800 METAR MRPV NIL=
202011070900 METAR MRPV NIL=
202011071000 METAR MRPV NIL=
202011071100 METAR MRPV NIL=
202011071200 METAR MRPV 071200Z 12002KT 9000 BCFG SCT010 SCT060 17/17 A3002 NOSIG=
202011071300 METAR MRPV 071300Z 12002KT 9999 FEW010 SCT250 18/17 A3003 NOSIG=
202011071400 METAR MRPV 071400Z 31001KT 9999 SCT015 19/17 A3005 NOSIG=
202011071500 METAR MRPV 071500Z 28006KT 9999 SCT015 20/17 A3006 NOSIG=
202011071600 METAR MRPV 071600Z 27003KT 9999 FEW015 22/17 A3006 NOSIG=
202011071700 METAR MRPV 071700Z 26005KT 9999 FEW025 23/18 A3002 NOSIG=
202011071800 METAR MRPV 071800Z 30007KT 9999 FEW015 SCT250 24/18 A2999 NOSIG=
202011071900 METAR MRPV 071900Z 28010KT 9999 FEW025 SCT200 24/18 A2996 NOSIG=
202011072000 METAR MRPV 072000Z 29011KT 9999 FEW025 BKN200 23/19 A2994 NOSIG=
202011072100 METAR MRPV 072100Z 28010KT 9999 FEW015 SCT025 23/19 A2993 NOSIG=
202011072200 METAR MRPV 072200Z 29009KT 9999 BKN010 24/19 A2994 NOSIG=
202011072300 METAR MRPV 072300Z 31007KT 9999 DZ OVC004 20/19 A2995 NOSIG=
202011080000 METAR MRPV 080000Z 31006KT 5000 DZ BR OVC002 19/18 A2997 NOSIG=
202011080100 METAR MRPV NIL=
202011080200 METAR MRPV NIL=
202011080300 METAR MRPV NIL=
202011080400 METAR MRPV NIL=
202011080500 METAR MRPV NIL=
202011080600 METAR MRPV NIL=
202011080700 METAR MRPV NIL=
202011080800 METAR MRPV NIL=
202011080900 METAR MRPV NIL=
202011081000 METAR MRPV NIL=
202011081100 METAR MRPV NIL=
202011081200 METAR MRPV 081200Z 08001KT 9999 BKN025 18/18 A3002 TEMPO 29002KT=
202011081300 METAR MRPV 081300Z 09002KT 9999 FEW025 BKN080 20/18 A3004 TEMPO 29002KT=
202011081400 METAR MRPV 081400Z 13007KT 9999 FEW020 SCT080 22/17 A3006 NOSIG=
202011081500 METAR MRPV 081500Z 01002KT 9999 FEW025 SCT080 22/17 A3007 BECMG 29005KT=
202011081600 METAR MRPV 081600Z 29008KT 9999 FEW020 23/18 A3006 NOSIG=
202011081700 METAR MRPV 081700Z 29009KT 9999 SCT020 25/18 A3004 NOSIG=
202011081800 METAR MRPV 081800Z 28009KT 9999 FEW030 25/19 A3002 NOSIG=
202011081900 METAR MRPV 081900Z 27007KT 9999 SCT035 25/19 A3000 NOSIG=
202011082000 METAR MRPV 082000Z 29011KT 9999 SCT010 24/20 A2998 NOSIG=
202011082100 METAR MRPV 082100Z 28010KT 9999 SCT025 23/20 A2998 NOSIG=
202011082200 METAR MRPV 082200Z 30010KT 9999 FEW005 BKN025 22/19 A2998 NOSIG=
202011082300 METAR MRPV 082300Z 31006KT 9999 OVC003 21/19 A3000 NOSIG=
202011090000 METAR MRPV 090000Z 30004KT 0400 FG OVC002 20/19 A3001 NOSIG=
202011090100 METAR MRPV NIL=
202011090200 METAR MRPV NIL=
202011090300 METAR MRPV NIL=
202011090400 METAR MRPV NIL=
202011090500 METAR MRPV NIL=
202011090600 METAR MRPV NIL=
202011090700 METAR MRPV NIL=
202011090800 METAR MRPV NIL=
202011090900 METAR MRPV NIL=
202011091000 METAR MRPV NIL=
202011091100 METAR MRPV NIL=
202011091200 METAR MRPV 091200Z 11003KT 7000 BCFG FEW003 18/18 A3005 NOSIG=
202011091300 METAR MRPV 091300Z 14002KT 9999 VCFG FEW010 20/18 A3005 NOSIG=
202011091400 METAR MRPV 091400Z 15002KT 9999 FEW015 22/18 A3007 NOSIG=
202011091500 METAR MRPV 091500Z 28005KT 9999 SCT020 23/18 A3007 NOSIG=
202011091600 METAR MRPV 091600Z 28006KT 9999 SCT025 24/19 A3007 NOSIG=
202011091700 METAR MRPV 091700Z 29009KT 9999 SCT030 25/20 A3005 NOSIG=
202011091800 METAR MRPV 091800Z 29009KT 9999 SCT030 25/19 A3003 NOSIG=
202011091900 METAR MRPV 091900Z 28011KT 9999 BKN030 25/20 A2999 NOSIG=
202011092000 METAR MRPV 092000Z 28011KT 9999 FEW010 BKN035 24/20 A2997 NOSIG=
202011092100 METAR MRPV 092100Z 28009KT 9999 FEW010 BKN030 24/20 A2997 NOSIG=
202011092200 METAR MRPV 092200Z 29008KT 9999 SCT010 SCT030 23/20 A2997 NOSIG=
202011092300 METAR MRPV 092300Z 29010KT 8000 VCFG SCT008 SCT030 21/20 A2999 NOSIG=
202011100000 METAR MRPV 100000Z 29008KT 6000 BCFG BKN010 20/19 A3001 NOSIG=
202011100100 METAR MRPV NIL=
202011100200 METAR MRPV NIL=
202011100300 METAR MRPV NIL=
202011100400 METAR MRPV NIL=
202011100500 METAR MRPV NIL=
202011100600 METAR MRPV NIL=
202011100700 METAR MRPV NIL=
202011100800 METAR MRPV NIL=
202011100900 METAR MRPV NIL=
202011101000 METAR MRPV NIL=
202011101100 METAR MRPV NIL=
202011101200 METAR MRPV 101200Z 00000KT 8000 BCFG FEW010 BKN090 19/18 A3006 NOSIG=
202011101300 METAR MRPV 101300Z 05002KT 8000 BCFG FEW010 BKN100 20/18 A3007 NOSIG=
202011101400 METAR MRPV 101400Z VRB01KT 9999 FEW010 BKN120 22/18 A3008 NOSIG=
202011101500 METAR MRPV 101500Z 30007KT 9999 FEW010 SCT020 23/19 A3010 NOSIG=
202011101600 METAR MRPV 101600Z 29009KT 9999 FEW015 SCT020 BKN100 23/19 A3009 NOSIG=
202011101700 METAR MRPV 101700Z 29008KT 9999 FEW015 SCT020 BKN100 24/19 A3006 NOSIG=
202011101800 METAR MRPV 101800Z 29009KT 9999 SCT020 BKN100 25/20 A3003 NOSIG=
202011101900 METAR MRPV 101900Z 29012KT 9999 FEW010 BKN035 25/20 A3000 NOSIG=
202011102000 METAR MRPV 102000Z 28013KT 9999 FEW010 BKN035 24/19 A2997 NOSIG=
202011102100 METAR MRPV 102100Z 28011KT 9999 FEW010 SCT035 BKN090 23/19 A2998 NOSIG=
202011102200 METAR MRPV 102200Z 28008KT 9999 SCT015 BKN090 21/19 A2999 NOSIG=
202011102300 METAR MRPV 102300Z 29006KT 9999 -DZ FEW008 SCT020 BKN080 20/19 A3003 NOSIG=
202011110000 METAR MRPV 110000Z 30004KT 9999 -RA BKN015 20/19 A3005 NOSIG=
202011110100 METAR MRPV NIL=
202011110200 METAR MRPV NIL=
202011110300 METAR MRPV NIL=
202011110400 METAR MRPV NIL=
202011110500 METAR MRPV NIL=
202011110600 METAR MRPV NIL=
202011110700 METAR MRPV NIL=
202011110800 METAR MRPV NIL=
202011110900 METAR MRPV NIL=
202011111000 METAR MRPV NIL=
202011111100 METAR MRPV NIL=
202011111200 METAR MRPV 111200Z 17001KT CAVOK 18/18 A3006 NOSIG=
202011111300 METAR MRPV 111300Z 14002KT CAVOK 20/18 A3008 NOSIG=
202011111400 METAR MRPV 111400Z 32004KT 9999 FEW045 BKN120 21/19 A3010 NOSIG=
202011111500 METAR MRPV 111500Z 32001KT 9999 FEW045 BKN120 23/18 A3011 NOSIG=
202011111600 METAR MRPV 111600Z 35002KT 9999 FEW040 BKN120 25/18 A3009 NOSIG=
202011111700 METAR MRPV 111700Z 26004KT 9999 FEW040 BKN120 24/19 A3008 NOSIG=
202011111800 METAR MRPV 111800Z 28008KT 9000 VCSH FEW025TCU SCT035 BKN100 24/20 A3005 NOSIG=
202011111900 METAR MRPV 111900Z 30009KT 4000 -DZ SCT025 SCT080 23/20 A3003 NOSIG=
202011112000 METAR MRPV 112000Z 28007KT 9999 4000E -DZ BKN020 SCT060 22/20 A3001 NOSIG=
202011112100 METAR MRPV 112100Z 28006KT 8000 BKN025 SCT080 23/20 A3000 NOSIG=
202011112200 METAR MRPV 112200Z 28006KT 5000 BKN020 SCT100 21/20 A3000 NOSIG=
202011112300 METAR MRPV 112300Z 32005KT 5000 SCT010 SCT060 20/19 A3002 NOSIG=
202011120000 METAR MRPV 120000Z 32002KT 5000 SCT010 SCT060 20/19 A3004 NOSIG=
202011120100 METAR MRPV NIL=
202011120200 METAR MRPV NIL=
202011120300 METAR MRPV NIL=
202011120400 METAR MRPV NIL=
202011120500 METAR MRPV NIL=
202011120600 METAR MRPV NIL=
202011120700 METAR MRPV NIL=
202011120800 METAR MRPV NIL=
202011120900 METAR MRPV NIL=
202011121000 METAR MRPV NIL=
202011121100 METAR MRPV NIL=
202011121200 METAR MRPV 121200Z 13008KT 9999 FEW030 BKN200 21/17 A3004 NOSIG=
202011121300 METAR MRPV 121300Z 11010KT 9999 FEW040 BKN200 22/17 A3005 NOSIG=
202011121400 METAR MRPV 121400Z 11009KT 9999 FEW040 BKN200 24/17 A3006 NOSIG=
202011121500 METAR MRPV 121500Z 09009KT CAVOK 25/18 A3006 NOSIG=
202011121600 METAR MRPV 121600Z 07008KT CAVOK 27/17 A3005 NOSIG=
202011121700 METAR MRPV 121700Z 09007KT CAVOK 27/17 A3004 NOSIG=
202011121800 METAR MRPV 121800Z 28009KT 9999 SCT035 26/20 A3001 NOSIG=
202011121900 METAR MRPV 121900Z 28008KT 9999 SCT030 24/20 A2999 NOSIG=
202011122000 METAR MRPV 122000Z 29011KT 9999 2000N SHRA FEW020TCU SCT025 24/20 A2997 NOSIG=
202011122043 METAR MRPV 122043Z 29009KT 4000 BR SHRA SCT010TCU SCT020 23/21 A2997 NOSIG=
202011122100 METAR MRPV 122100Z 29009KT 4000 RA BR BKN010 SCT015 22/21 A2997 RESHRA NOSIG=
202011122200 METAR MRPV 122200Z 28006KT 4500 -RA BR BKN015 22/20 A2998 NOSIG=
202011122300 METAR MRPV 122300Z 32003KT 5000 -DZ BR SCT010 SCT025 22/20 A2998 NOSIG=
202011130000 METAR MRPV 130000Z 33003KT 5000 -DZ BR SCT010 SCT025 21/20 A3002 NOSIG=
202011130100 METAR MRPV NIL=
202011130200 METAR MRPV NIL=
202011130300 METAR MRPV NIL=
202011130400 METAR MRPV NIL=
202011130500 METAR MRPV NIL=
202011130600 METAR MRPV NIL=
202011130700 METAR MRPV NIL=
202011130800 METAR MRPV NIL=
202011130900 METAR MRPV NIL=
202011131000 METAR MRPV NIL=
202011131100 METAR MRPV NIL=
202011131200 METAR MRPV 131200Z 11008KT CAVOK 20/16 A3005 NOSIG=
202011131300 METAR MRPV 131300Z 13006KT CAVOK 20/16 A3006 NOSIG=
202011131400 METAR MRPV 131400Z 12007KT CAVOK 22/16 A3008 NOSIG=
202011131500 METAR MRPV 131500Z 13008KT CAVOK 24/16 A3009 NOSIG=
202011131600 METAR MRPV 131600Z 08011KT CAVOK 27/16 A3008 NOSIG=
202011131700 METAR MRPV 131700Z 29009KT CAVOK 25/19 A3007 NOSIG=
202011131800 METAR MRPV 131800Z 29008KT 9999 BKN045 25/20 A3005 NOSIG=
202011131900 METAR MRPV 131900Z 28007KT 9999 BKN030 26/20 A3003 NOSIG=
202011132000 METAR MRPV 132000Z 25004KT 9999 BKN030 23/20 A3000 NOSIG=
202011132100 METAR MRPV 132100Z 28004KT 9999 FEW020TCU FEW030 23/20 A2998 NOSIG=
202011132200 METAR MRPV 132200Z 32005KT 9999 FEW025TCU SCT025 24/20 A2998 NOSIG=
202011132300 METAR MRPV 132300Z 29008KT 9999 BKN010 22/21 A3000 NOSIG=
202011140000 METAR MRPV 140000Z 32001KT 9999 FEW010 SCT020 21/20 A3003 NOSIG=
202011140100 METAR MRPV NIL=
202011140200 METAR MRPV NIL=
202011140300 METAR MRPV NIL=
202011140400 METAR MRPV NIL=
202011140500 METAR MRPV NIL=
202011140600 METAR MRPV NIL=
202011140700 METAR MRPV NIL=
202011140800 METAR MRPV NIL=
202011140900 METAR MRPV NIL=
202011141000 METAR MRPV NIL=
202011141100 METAR MRPV NIL=
202011141200 METAR MRPV 141200Z 12007KT 9999 BKN035 20/16 A3004 NOSIG=
202011141300 METAR MRPV 141300Z 09006KT 9999 FEW040 SCT080 21/17 A3006 NOSIG=
202011141400 METAR MRPV 141400Z 09003KT 9999 FEW040 SCT070 24/17 A3007 BECMG 29005KT=
202011141500 METAR MRPV 141500Z 28007KT CAVOK 22/18 A3009 NOSIG=
202011141600 METAR MRPV 141600Z 29006KT 9999 RA FEW030 SCT060 BKN100 23/18 A3008 NOSIG=
202011141700 METAR MRPV 141700Z 04003KT 6000 RA FEW008 SCT080 BKN100 20/18 A3007 BECMG 9999=
202011141800 METAR MRPV 141800Z 17003KT 9999 RA FEW030 BKN100 22/19 A3003 NOSIG=
202011141900 METAR MRPV 141900Z 15005KT 9999 FEW035 BKN100 22/19 A3000 RERA NOSIG=
202011142000 METAR MRPV 142000Z 22002KT CAVOK 26/18 A2996 NOSIG=
202011142100 METAR MRPV 142100Z 28005KT 9999 SCT040 SCT200 24/17 A2995 NOSIG=
202011142200 METAR MRPV 142200Z 27008KT 9999 FEW020TCU BKN020 22/20 A2996 NOSIG=
202011142300 METAR MRPV 142300Z 33007KT 4000 SHRA FEW010TCU SCT010 BKN100 19/19 A2999 NOSIG=
202011150000 METAR MRPV 150000Z 04001KT 9999 FEW010 SCT090 19/19 A3001 NOSIG=
202011150100 METAR MRPV NIL=
202011150200 METAR MRPV NIL=
202011150300 METAR MRPV NIL=
202011150400 METAR MRPV NIL=
202011150500 METAR MRPV NIL=
202011150600 METAR MRPV NIL=
202011150700 METAR MRPV NIL=
202011150800 METAR MRPV NIL=
202011150900 METAR MRPV NIL=
202011151000 METAR MRPV NIL=
202011151100 METAR MRPV NIL=
202011151200 METAR MRPV 151200Z 00000KT CAVOK 17/17 A3001 NOSIG=
202011151300 METAR MRPV 151300Z 16001KT CAVOK 20/17 A3002 NOSIG=
202011151400 METAR MRPV 151400Z 27005KT CAVOK 21/18 A3004 NOSIG=
202011151500 METAR MRPV 151500Z 30005KT 9999 FEW035 23/18 A3005 NOSIG=
202011151600 METAR MRPV 151600Z 29007KT 9999 SCT035 23/19 A3004 NOSIG=
202011151700 METAR MRPV 151700Z 27004KT 9999 SCT035 SCT220 25/19 A3003 NOSIG=
202011151800 METAR MRPV 151800Z 29006KT 9999 SCT035 26/19 A3000 NOSIG=
202011151900 METAR MRPV 151900Z 32007KT 9999 3500E -SHRA FEW020TCU BKN035 23/20 A2998 NOSIG=
202011152000 METAR MRPV 152000Z 29007KT 9999 SCT020 SCT070 24/20 A2994 NOSIG=
202011152100 METAR MRPV 152100Z 26007KT 9999 3000N RA SCT020 SCT035 24/20 A2993 NOSIG=
202011152200 METAR MRPV 152200Z 27004KT 9999 FEW010 BKN030 23/21 A2993 RERA NOSIG=
202011152300 METAR MRPV 152300Z 30006KT 9999 3000N RA VCFG SCT010 BKN030 22/20 A2996 TEMPO BKN010=
202011160000 METAR MRPV 160000Z VRB02KT 3000 RA BR VCTS BKN008CB 20/19 A2999 NOSIG=
202011160100 METAR MRPV NIL=
202011160200 METAR MRPV NIL=
202011160300 METAR MRPV NIL=
202011160400 METAR MRPV NIL=
202011160500 METAR MRPV NIL=
202011160600 METAR MRPV NIL=
202011160700 METAR MRPV NIL=
202011160800 METAR MRPV NIL=
202011160900 METAR MRPV NIL=
202011161000 METAR MRPV NIL=
202011161100 METAR MRPV NIL=
202011161200 METAR MRPV 161200Z 08001KT CAVOK 18/17 A2999 NOSIG=
202011161300 METAR MRPV 161300Z 00000KT CAVOK 19/18 A3002 NOSIG=
202011161400 METAR MRPV 161400Z 36002KT CAVOK 21/18 A3002 NOSIG=
202011161500 METAR MRPV 161500Z 29006KT 9999 FEW030 SCT100 BKN200 21/18 A3004 NOSIG=
202011161600 METAR MRPV 161600Z 29008KT 9999 FEW015 SCT100 BKN200 23/18 A3003 NOSIG=
202011161700 METAR MRPV 161700Z 30010KT 9999 FEW035 BKN200 23/18 A3002 NOSIG=
202011161800 METAR MRPV 161800Z 29010KT 9999 SCT020 BKN200 23/19 A2999 NOSIG=
202011161900 METAR MRPV 161900Z 27005KT 9999 SCT025 BKN200 24/18 A2996 NOSIG=
202011162000 METAR MRPV 162000Z 29008KT 9999 SCT030 BKN200 24/19 A2993 NOSIG=
202011162100 METAR MRPV 162100Z 29010KT 9999 FEW010 SCT030 BKN200 22/19 A2992 NOSIG=
202011162200 METAR MRPV 162200Z 30010KT 9999 FEW010 SCT030 BKN160 22/19 A2992 NOSIG=
202011162300 METAR MRPV 162300Z 31008KT 9999 BCFG SCT010 BKN160 21/19 A2994 NOSIG=
202011170000 METAR MRPV 170000Z 30008KT 7000 BCFG BKN010 20/19 A2996 NOSIG=
202011170100 METAR MRPV NIL=
202011170200 METAR MRPV NIL=
202011170300 METAR MRPV NIL=
202011170400 METAR MRPV NIL=
202011170500 METAR MRPV NIL=
202011170600 METAR MRPV NIL=
202011170700 METAR MRPV NIL=
202011170800 METAR MRPV NIL=
202011170900 METAR MRPV NIL=
202011171000 METAR MRPV NIL=
202011171100 METAR MRPV NIL=
202011171200 METAR MRPV 171200Z 30008KT 2000 -RA BR SCT005 BKN015 19/18 A2998 NOSIG=
202011171300 METAR MRPV 171300Z 29008KT 3000 RA BR BKN005 SCT010 19/18 A3000 NOSIG=
202011171400 METAR MRPV 171400Z 29009KT 5000 -RA SCT015 BKN025 20/18 A3002 NOSIG=
202011171500 METAR MRPV 171500Z 29012KT 4000 -RA BR BKN010 SCT015 20/19 A3004 NOSIG=
202011171600 METAR MRPV 171600Z 29008KT 4000 -RA BR BKN010 SCT025 20/19 A3004 NOSIG=
202011171700 METAR MRPV 171700Z 29010KT 4000 -RA BR SCT010 BKN025 20/19 A3003 NOSIG=
202011171800 METAR MRPV 171800Z 29011KT 4000 -RA BR SCT010 BKN040 20/19 A3001 BECMG 5000=
202011171900 METAR MRPV 171900Z 29010KT 9999 4000NW -RA SCT010 SCT060 21/19 A2998 NOSIG=
202011172000 METAR MRPV 172000Z 29013KT 2000 -RA BR BKN008 SCT010 19/19 A2997 NOSIG=
202011172100 METAR MRPV 172100Z 29008KT 4000 -RA BR BKN008 SCT010 20/19 A2996 NOSIG=
202011172200 METAR MRPV 172200Z 29006KT 4000 -RA BR BKN008 SCT015 19/19 A2997 NOSIG=
202011172300 METAR MRPV 172300Z 30007KT 2000 -RA BR BKN005 SCT010 19/18 A2998 NOSIG=
202011180000 METAR MRPV 180000Z 30007KT 2000 -RA BR BKN005 SCT010 19/18 A3000 NOSIG=
202011180100 METAR MRPV NIL=
202011180200 METAR MRPV NIL=
202011180300 METAR MRPV NIL=
202011180400 METAR MRPV NIL=
202011180500 METAR MRPV NIL=
202011180600 METAR MRPV NIL=
202011180700 METAR MRPV NIL=
202011180800 METAR MRPV NIL=
202011180900 METAR MRPV NIL=
202011181000 METAR MRPV NIL=
202011181100 METAR MRPV NIL=
202011181200 METAR MRPV 181200Z 00000KT 2000 BR SCT005 BKN100 17/17 A3005 NOSIG=
202011181300 METAR MRPV 181300Z 00000KT 9999 2000SE BCFG SCT005 BKN100 19/17 A3007 NOSIG=
202011181400 METAR MRPV 181400Z 06002KT 9999 2000S BCFG FEW005 BKN100 20/17 A3007 NOSIG=
202011181500 METAR MRPV 181500Z 03001KT 9999 4000E BCFG FEW010 BKN100 21/16 A3009 NOSIG=
202011181600 METAR MRPV 181600Z 32004KT 9999 FEW010 BKN100 22/17 A3008 NOSIG=
202011181700 METAR MRPV 181700Z 29006KT 9999 FEW015 BKN080 23/18 A3006 NOSIG=
202011181800 METAR MRPV 181800Z 30008KT 9999 SCT020 SCT160 23/18 A3003 NOSIG=
202011181900 METAR MRPV 181900Z 30009KT 9999 SCT025 BKN180 24/18 A3000 NOSIG=
202011182000 METAR MRPV 182000Z 27007KT 9999 SCT030 BKN180 24/19 A2997 NOSIG=
202011182100 METAR MRPV 182100Z COR 27006KT 5000 -RA SCT030 SCT100 21/19 A2997 NOSIG=
202011182200 METAR MRPV 182200Z 30005KT 3000 -DZ BR BKN008 SCT015 21/19 A2998 NOSIG=
202011182300 METAR MRPV 182300Z 29005KT 3000 -DZ BR SCT008 SCT015 20/19 A2999 NOSIG=
202011190000 METAR MRPV 190000Z 28004KT 3000 -DZ BR SCT008 SCT015 20/19 A3001 NOSIG=
202011190100 METAR MRPV NIL=
202011190200 METAR MRPV NIL=
202011190300 METAR MRPV NIL=
202011190400 METAR MRPV NIL=
202011190500 METAR MRPV NIL=
202011190600 METAR MRPV NIL=
202011190700 METAR MRPV NIL=
202011190800 METAR MRPV NIL=
202011190900 METAR MRPV NIL=
202011191000 METAR MRPV NIL=
202011191100 METAR MRPV NIL=
202011191200 METAR MRPV 191200Z 13004KT CAVOK 19/16 A3003 NOSIG=
202011191300 METAR MRPV 191300Z 11004KT CAVOK 20/17 A3005 NOSIG=
202011191400 METAR MRPV 191400Z 15009KT CAVOK 23/17 A3007 NOSIG=
202011191500 METAR MRPV 191500Z 12007KT CAVOK 24/17 A3007 NOSIG=
202011191600 METAR MRPV 191600Z 09011KT 9999 FEW040 BKN120 25/17 A3006 NOSIG=
202011191700 METAR MRPV 191700Z 08009KT 9999 FEW030 BKN140 26/18 A3004 NOSIG=
202011191800 METAR MRPV 191800Z 30004KT 9999 FEW040 BKN160 26/19 A3001 NOSIG=
202011191900 METAR MRPV 191900Z 28008KT 9999 BKN040 25/20 A2998 NOSIG=
202011192000 METAR MRPV 192000Z 28010KT 9999 SHRA FEW020TCU SCT035 SCT120 25/20 A2996 NOSIG=
202011192100 METAR MRPV 192100Z 28004KT 8000 -RA FEW020TCU SCT020 SCT100 22/21 A2996 NOSIG=
202011192200 METAR MRPV 192200Z 26002KT 9999 -RA FEW005 FEW015TCU SCT015 21/21 A2997 NOSIG=
202011192300 METAR MRPV 192300Z 28005KT 3000 BR BKN002 21/20 A2998 NOSIG=
202011200000 METAR MRPV 200000Z 29002KT 5000 BR BKN004 21/20 A3000 NOSIG=
202011200100 METAR MRPV NIL=
202011200200 METAR MRPV NIL=
202011200300 METAR MRPV NIL=
202011200400 METAR MRPV NIL=
202011200500 METAR MRPV NIL=
202011200600 METAR MRPV NIL=
202011200700 METAR MRPV NIL=
202011200800 METAR MRPV NIL=
202011200900 METAR MRPV NIL=
202011201000 METAR MRPV NIL=
202011201100 METAR MRPV NIL=
202011201200 METAR MRPV 201200Z 22001KT CAVOK 19/16 A3002 NOSIG=
202011201300 METAR MRPV 201300Z 11005KT CAVOK 21/17 A3003 NOSIG=
202011201400 METAR MRPV 201400Z 12008KT CAVOK 23/17 A3004 NOSIG=
202011201500 METAR MRPV 201500Z 10010KT 9999 FEW030 SCT090 25/18 A3005 NOSIG=
202011201600 METAR MRPV 201600Z 09013KT 9999 FEW030 SCT090 25/18 A3003 NOSIG=
202011201700 METAR MRPV 201700Z 10014KT 9999 SCT030 SCT070 24/18 A3001 NOSIG=
202011201800 METAR MRPV 201800Z 10011KT 9999 SCT030 SCT070 25/18 A2999 NOSIG=
202011201900 METAR MRPV 201900Z 09012KT 9999 SCT020TCU FEW030 SCT200 26/18 A2996 NOSIG=
202011202000 METAR MRPV 202000Z 34003KT 9999 BKN030 SCT200 24/20 A2995 NOSIG=
202011202100 METAR MRPV 202100Z 11006KT 9999 -RA FEW020TCU FEW025 BKN100 22/18 A2994 NOSIG=
202011202200 METAR MRPV 202200Z 11008KT 9999 FEW025 BKN100 23/17 A2994 NOSIG=
202011202300 METAR MRPV 202300Z 13006KT 9999 FEW035 BKN200 22/17 A2996 NOSIG=
202011210000 METAR MRPV 210000Z 33003KT 9999 FEW005 BKN200 20/19 A2998 NOSIG=
202011210100 METAR MRPV NIL=
202011210200 METAR MRPV NIL=
202011210300 METAR MRPV NIL=
202011210400 METAR MRPV NIL=
202011210500 METAR MRPV NIL=
202011210600 METAR MRPV NIL=
202011210700 METAR MRPV NIL=
202011210800 METAR MRPV NIL=
202011210900 METAR MRPV NIL=
202011211000 METAR MRPV NIL=
202011211100 METAR MRPV NIL=
202011211200 METAR MRPV 211200Z 14005KT 9999 FEW030 BKN200 19/16 A2998 NOSIG=
202011211300 METAR MRPV 211300Z 11006KT 9999 FEW035 BKN200 20/17 A2999 NOSIG=
202011211400 METAR MRPV 211400Z 14010KT 9999 FEW040 BKN200 22/17 A3001 NOSIG=
202011211500 METAR MRPV 211500Z 08007KT 9999 FEW045 SCT090 BKN200 24/17 A3002 NOSIG=
202011211600 METAR MRPV 211600Z 09008KT 9999 FEW045 BKN100 24/17 A3001 NOSIG=
202011211700 METAR MRPV 211700Z 09005KT 9999 FEW045 SCT100 BKN200 26/17 A2998 BECMG 29005KT=
202011211800 METAR MRPV 211800Z 29009KT 9999 SCT030 BKN200 25/20 A2995 NOSIG=
202011211900 METAR MRPV 211900Z 31010KT 9999 FEW020 SCT035 24/20 A2993 NOSIG=
202011212000 METAR MRPV 212000Z 27007KT 9999 RA FEW015 BKN030 22/20 A2991 NOSIG=
202011212100 METAR MRPV 212100Z 33003KT 9999 FEW010 BKN030 22/20 A2991 RERA NOSIG=
202011212200 METAR MRPV 212200Z 34003KT 9999 SCT010 BKN030 21/20 A2993 NOSIG=
202011212300 METAR MRPV 212300Z 33002KT 9999 BCFG SCT010 BKN090 20/20 A2995 NOSIG=
202011220000 METAR MRPV 220000Z 32003KT 8000 BCFG SCT010 BKN090 20/19 A2997 NOSIG=
202011220100 METAR MRPV NIL=
202011220200 METAR MRPV NIL=
202011220300 METAR MRPV NIL=
202011220400 METAR MRPV NIL=
202011220500 METAR MRPV NIL=
202011220600 METAR MRPV NIL=
202011220700 METAR MRPV NIL=
202011220800 METAR MRPV NIL=
202011220900 METAR MRPV NIL=
202011221000 METAR MRPV NIL=
202011221100 METAR MRPV NIL=
202011221200 METAR MRPV 221200Z VRB01KT CAVOK 18/17 A2999 NOSIG=
202011221300 METAR MRPV 221300Z 02002KT CAVOK 19/17 A3002 NOSIG=
202011221400 METAR MRPV 221400Z 00000KT 9999 FEW015 BKN120 21/18 A3003 NOSIG=
202011221500 METAR MRPV 221500Z 31005KT 9999 FEW015 BKN120 22/18 A3004 NOSIG=
202011221600 METAR MRPV 221600Z 28003KT 9999 FEW020 BKN120 23/19 A3002 NOSIG=
202011221700 METAR MRPV 221700Z 27005KT 9999 SCT030 BKN120 23/19 A3000 NOSIG=
202011221800 METAR MRPV 221800Z 27008KT 9999 -DZ SCT030 BKN120 23/19 A2998 NOSIG=
202011221900 METAR MRPV 221900Z 30009KT 9999 FEW025 BKN120 24/18 A2995 NOSIG=
202011222000 METAR MRPV 222000Z 27007KT 9999 -DZ SCT025 BKN120 23/19 A2993 NOSIG=
202011222100 METAR MRPV 222100Z 30009KT 9999 DZ SCT020 BKN100 21/19 A2993 NOSIG=
202011222200 METAR MRPV 222200Z 31006KT 8000 -DZ BCFG FEW005 SCT010 BKN020 20/19 A2995 TEMPO BKN010=
202011222300 METAR MRPV 222300Z 32004KT 8000 BCFG SCT005 BKN010 20/19 A2997 NOSIG=
202011230000 METAR MRPV 230000Z 33003KT 9999 OVC010 20/19 A2998 NOSIG=
202011230100 METAR MRPV NIL=
202011230200 METAR MRPV NIL=
202011230300 METAR MRPV NIL=
202011230400 METAR MRPV NIL=
202011230500 METAR MRPV NIL=
202011230600 METAR MRPV NIL=
202011230700 METAR MRPV NIL=
202011230800 METAR MRPV NIL=
202011230900 METAR MRPV NIL=
202011231000 METAR MRPV NIL=
202011231100 METAR MRPV NIL=
202011231200 METAR MRPV 231200Z VRB02KT 9999 FEW040 SCT140 17/17 A3001 NOSIG=
202011231300 METAR MRPV 231300Z VRB02KT CAVOK 20/18 A3002 NOSIG=
202011231400 METAR MRPV 231400Z 12004KT CAVOK 23/18 A3003 NOSIG=
202011231500 METAR MRPV 231500Z 29005KT 9999 FEW040 24/19 A3004 NOSIG=
202011231600 METAR MRPV 231600Z 28008KT 9999 FEW040 25/19 A3003 NOSIG=
202011231700 METAR MRPV 231700Z 29009KT 9999 SCT035 25/19 A3001 NOSIG=
202011231800 METAR MRPV 231800Z 29008KT 9999 FEW020TCU SCT035 24/19 A2998 NOSIG=
202011231900 METAR MRPV 231900Z 28009KT 9999 FEW020TCU SCT035 25/20 A2996 NOSIG=
202011232000 METAR MRPV 232000Z 29009KT 9999 BKN020 24/20 A2994 NOSIG=
202011232100 METAR MRPV 232100Z 28007KT 9000 BKN020 24/20 A2993 NOSIG=
202011232200 METAR MRPV 232200Z 29007KT 9000 FEW010 BKN020 22/20 A2994 NOSIG=
202011232300 METAR MRPV 232300Z 29004KT 4000 -DZ BR SCT010 SCT020 21/20 A2996 NOSIG=
202011240000 METAR MRPV 240000Z 31003KT 4000 BR SCT010 SCT020 21/20 A2998 NOSIG=
202011240100 METAR MRPV NIL=
202011240200 METAR MRPV NIL=
202011240300 METAR MRPV NIL=
202011240400 METAR MRPV NIL=
202011240500 METAR MRPV NIL=
202011240600 METAR MRPV NIL=
202011240700 METAR MRPV NIL=
202011240800 METAR MRPV NIL=
202011240900 METAR MRPV NIL=
202011241000 METAR MRPV NIL=
202011241100 METAR MRPV NIL=
202011241200 METAR MRPV 241200Z 12007KT 9999 FEW030 SCT100 22/17 A3002 NOSIG=
202011241300 METAR MRPV 241300Z 10014KT 9999 FEW030 SCT120 BKN200 22/18 A3003 NOSIG=
202011241400 METAR MRPV 241400Z 11011KT 9999 SCT030 SCT100 23/18 A3005 NOSIG=
202011241500 METAR MRPV 241500Z 08016KT 9999 FEW035 BKN100 25/18 A3007 NOSIG=
202011241600 METAR MRPV 241600Z 09013KT 9999 FEW035 BKN120 24/18 A3005 NOSIG=
202011241700 METAR MRPV 241700Z 08017KT 9999 FEW035 BKN120 24/18 A3003 NOSIG=
202011241800 METAR MRPV 241800Z 09016KT 9999 FEW030 BKN100 24/17 A3000 NOSIG=
202011241900 METAR MRPV 241900Z 07013KT 9999 FEW030 BKN100 25/18 A2996 NOSIG=
202011242000 METAR MRPV 242000Z 06011KT 9999 SCT030 BKN200 26/19 A2995 NOSIG=
202011242100 METAR MRPV 242100Z 09014KT 9999 SCT030 SCT100 24/18 A2994 NOSIG=
202011242200 METAR MRPV 242200Z 10010KT 9999 BKN025 SCT080 24/19 A2995 NOSIG=
202011242300 METAR MRPV 242300Z 11008KT 9999 FEW010 BKN025 23/18 A2997 NOSIG=
202011250000 METAR MRPV 250000Z 11010KT 9999 4000N FEW010 SCT025 22/18 A3000 NOSIG=
202011250100 METAR MRPV NIL=
202011250200 METAR MRPV NIL=
202011250300 METAR MRPV NIL=
202011250400 METAR MRPV NIL=
202011250500 METAR MRPV NIL=
202011250600 METAR MRPV NIL=
202011250700 METAR MRPV NIL=
202011250800 METAR MRPV NIL=
202011250900 METAR MRPV NIL=
202011251000 METAR MRPV NIL=
202011251100 METAR MRPV NIL=
202011251200 METAR MRPV 251200Z 11007KT CAVOK 20/17 A3001 NOSIG=
202011251300 METAR MRPV 251300Z 11007KT CAVOK 22/17 A3006 NOSIG=
202011251400 METAR MRPV 251400Z 09009KT CAVOK 23/17 A3007 NOSIG=
202011251500 METAR MRPV 251500Z 08008KT CAVOK 25/17 A3007 NOSIG=
202011251600 METAR MRPV 251600Z 07008KT CAVOK 26/17 A3006 NOSIG=
202011251700 METAR MRPV 251700Z 30007KT CAVOK 25/19 A3005 NOSIG=
202011251800 METAR MRPV 251800Z 28007KT 9999 SCT035 BKN200 26/20 A3002 NOSIG=
202011251900 METAR MRPV 251900Z 28005KT 9999 SCT040 BKN200 26/20 A3000 NOSIG=
202011252000 METAR MRPV 252000Z 07007KT 9999 SCT035 BKN200 26/17 A2996 NOSIG=
202011252100 METAR MRPV 252100Z 28007KT 9999 BKN035 SCT200 24/21 A2996 NOSIG=
202011252200 METAR MRPV 252200Z 27002KT 9999 SCT030 SCT200 23/21 A2997 NOSIG=
202011252300 METAR MRPV 252300Z 26003KT 9999 FEW015 BKN035 22/21 A2998 NOSIG=
202011260000 METAR MRPV 260000Z 33002KT 9999 SCT030 SCT200 22/21 A3000 NOSIG=
202011260100 METAR MRPV NIL=
202011260200 METAR MRPV NIL=
202011260300 METAR MRPV NIL=
202011260400 METAR MRPV NIL=
202011260500 METAR MRPV NIL=
202011260600 METAR MRPV NIL=
202011260700 METAR MRPV NIL=
202011260800 METAR MRPV NIL=
202011260900 METAR MRPV NIL=
202011261000 METAR MRPV NIL=
202011261100 METAR MRPV NIL=
202011261200 METAR MRPV 261200Z 13007KT 9999 FEW025 BKN100 20/16 A3001 NOSIG=
202011261300 METAR MRPV 261300Z 13008KT 9999 FEW030 BKN200 20/16 A3003 NOSIG=
202011261400 METAR MRPV 261400Z 12007KT CAVOK 22/16 A3004 NOSIG=
202011261500 METAR MRPV 261500Z 10008KT CAVOK 24/16 A3004 NOSIG=
202011261600 METAR MRPV 261600Z 09009KT CAVOK 26/16 A3003 NOSIG=
202011261700 METAR MRPV 261700Z 06012KT CAVOK 26/17 A3001 NOSIG=
202011261800 METAR MRPV 261800Z 08012KT 9999 SCT040 26/17 A2999 NOSIG=
202011261900 METAR MRPV NIL=
202011262000 METAR MRPV 262000Z 07008KT 9999 FEW035 BKN250 26/17 A2993 NOSIG=
202011262100 METAR MRPV 262100Z 06012KT 9999 FEW035 BKN250 26/17 A2993 NOSIG=
202011262200 METAR MRPV 262200Z 07009KT 9999 FEW025 BKN250 24/17 A2994 NOSIG=
202011262300 METAR MRPV 262300Z 11007KT 9999 SCT045 BKN200 23/20 A2996 NOSIG=
202011270000 METAR MRPV 270000Z 13005KT CAVOK 22/17 A2997 NOSIG=
202011270100 METAR MRPV NIL=
202011270200 METAR MRPV NIL=
202011270300 METAR MRPV NIL=
202011270800 METAR MRPV NIL=
202011270900 METAR MRPV NIL=
202011271000 METAR MRPV NIL=
202011271100 METAR MRPV NIL=
202011271200 METAR MRPV 271200Z 15010KT 9999 FEW045 SCT200 19/15 A3000 NOSIG=
202011271300 METAR MRPV 271300Z 12009KT 9999 FEW045 SCT200 21/16 A3002 NOSIG=
202011271400 METAR MRPV 271400Z 11010KT 9999 FEW045 SCT200 22/16 A3004 NOSIG=
202011271500 METAR MRPV 271500Z 10013KT 9999 FEW035 SCT200 23/17 A3004 NOSIG=
202011271600 METAR MRPV 271600Z 09013KT 9999 FEW035 24/17 A3004 NOSIG=
202011271700 METAR MRPV 271700Z 08010KT 9999 FEW035 26/17 A3002 NOSIG=
202011271800 METAR MRPV 271800Z 08009KT 9999 FEW040 27/17 A2999 NOSIG=
202011271900 METAR MRPV 271900Z 09012KT 9999 SCT035 26/17 A2996 NOSIG=
202011272000 METAR MRPV 272000Z 10009KT 9999 SCT035 SCT220 25/17 A2994 NOSIG=
202011272100 METAR MRPV 272100Z 08013KT 9999 FEW020 SCT030 23/18 A2994 NOSIG=
202011272200 METAR MRPV 272200Z 12010KT 9999 FEW020 BKN060 22/17 A2995 NOSIG=
202011272300 METAR MRPV 272300Z 09007KT 9999 SCT030 BKN080 22/16 A2997 NOSIG=
202011280000 METAR MRPV 280000Z 11008KT 9999 SCT030 SCT090 22/16 A2999 NOSIG=
202011280100 METAR MRPV NIL=
202011280200 METAR MRPV NIL=
202011280300 METAR MRPV NIL=
202011280400 METAR MRPV NIL=
202011280500 METAR MRPV NIL=
202011280600 METAR MRPV NIL=
202011280700 METAR MRPV NIL=
202011280800 METAR MRPV NIL=
202011280900 METAR MRPV NIL=
202011281000 METAR MRPV NIL=
202011281100 METAR MRPV NIL=
202011281200 METAR MRPV 281200Z 12011KT CAVOK 20/15 A3002 NOSIG=
202011281300 METAR MRPV 281300Z 13011KT CAVOK 21/15 A3004 NOSIG=
202011281400 METAR MRPV 281400Z 11014KT 9999 FEW045 22/15 A3006 NOSIG=
202011281500 METAR MRPV 281500Z 08016KT 9999 FEW045 24/15 A3005 NOSIG=
202011281600 METAR MRPV 281600Z 08013KT 9999 FEW045 25/15 A3004 NOSIG=
202011281700 METAR MRPV 281700Z 07011KT 9999 FEW045 26/16 A3003 NOSIG=
202011281800 METAR MRPV 281800Z 09009KT 9999 FEW045 26/15 A3000 NOSIG=
202011281900 METAR MRPV 281900Z 08008KT 9999 FEW045 27/16 A2997 NOSIG=
202011282000 METAR MRPV 282000Z 10007KT 9999 SCT035 27/16 A2995 TEMPO 31005=
202011282100 METAR MRPV 282100Z 27004KT 9999 SCT035 24/20 A2996 NOSIG=
202011282200 METAR MRPV 282200Z 25005KT 9999 BKN035 24/20 A2994 NOSIG=
202011282300 METAR MRPV 282300Z 26003KT 9999 BKN030 22/20 A2996 NOSIG=
202011290000 METAR MRPV 290000Z 34003KT 9999 -DZ BCFG SCT010 BKN030 21/20 A2999 NOSIG=
202011290100 METAR MRPV NIL=
202011290200 METAR MRPV NIL=
202011290300 METAR MRPV NIL=
202011290400 METAR MRPV NIL=
202011290500 METAR MRPV NIL=
202011290600 METAR MRPV NIL=
202011290700 METAR MRPV NIL=
202011290800 METAR MRPV NIL=
202011290900 METAR MRPV NIL=
202011291000 METAR MRPV NIL=
202011291100 METAR MRPV NIL=
202011291200 METAR MRPV 291200Z 12003KT CAVOK 18/15 A3000 NOSIG=
202011291300 METAR MRPV 291300Z 11004KT CAVOK 21/15 A3002 NOSIG=
202011291400 METAR MRPV 291400Z 11009KT CAVOK 23/15 A3004 NOSIG=
202011291500 METAR MRPV 291500Z 11009KT CAVOK 24/16 A3005 NOSIG=
202011291600 METAR MRPV 291600Z 11011KT CAVOK 25/17 A3005 NOSIG=
202011291700 METAR MRPV 291700Z 09011KT CAVOK 26/17 A3004 NOSIG=
202011291800 METAR MRPV 291800Z 09014KT 9999 FEW045 26/17 A3001 NOSIG=
202011291900 METAR MRPV 291900Z 07011KT CAVOK 27/17 A2999 NOSIG=
202011292000 METAR MRPV 292000Z 29009KT 9999 FEW045 BKN200 25/20 A2996 NOSIG=
202011292100 METAR MRPV 292100Z 29008KT 9999 FEW040 BKN200 24/20 A2996 NOSIG=
202011292200 METAR MRPV 292200Z 31010KT 9999 TSRA SCT010CB SCT020 21/21 A2998 RESHRA NOSIG=
202011292300 METAR MRPV 292300Z 28004KT 9999 FEW005 SCT020 21/20 A2998 RERA NOSIG=
202011300000 METAR MRPV 300000Z 28003KT 9999 BKN014 21/20 A3000 NOSIG=
202011300100 METAR MRPV NIL=
202011300200 METAR MRPV NIL=
202011300300 METAR MRPV NIL=
202011300400 METAR MRPV NIL=
202011300500 METAR MRPV NIL=
202011300600 METAR MRPV NIL=
202011300700 METAR MRPV NIL=
202011300800 METAR MRPV NIL=
202011300900 METAR MRPV NIL=
202011301000 METAR MRPV NIL=
202011301100 METAR MRPV NIL=
202011301200 METAR MRPV 301200Z 12010KT 9999 FEW020 SCT110 20/17 A3002 NOSIG=
202011301300 METAR MRPV 301300Z 13009KT CAVOK 21/16 A3004 NOSIG=
202011301400 METAR MRPV 301400Z 13009KT 9999 FEW040 SCT120 23/17 A3005 NOSIG=
202011301500 METAR MRPV 301500Z 12010KT 9999 FEW045 SCT110 24/17 A3007 NOSIG=
202011301600 METAR MRPV 301600Z 10011KT 9999 SCT040 SCT110 25/17 A3006 NOSIG=
202011301700 METAR MRPV 301700Z 09012KT 9999 BKN040 25/18 A3004 NOSIG=
202011301800 METAR MRPV 301800Z 10011KT 9999 FEW025 SCT045 25/17 A3000 NOSIG=
202011301900 METAR MRPV 301900Z 10013KT 9999 -DZ FEW020 BKN090 23/18 A2997 NOSIG=
202011302000 METAR MRPV 302000Z 10011KT 9999 -DZ FEW015 SCT040 BKN090 22/18 A2996 NOSIG=
202011302100 METAR MRPV 302100Z 12010KT 9999 4500SE DZ FEW015 BKN045 22/17 A2995 NOSIG=
202011302200 METAR MRPV 302200Z 11013KT 9999 -DZ FEW020 BKN050 20/16 A2996 NOSIG=
202011302300 METAR MRPV 302300Z 11010KT 9999 FEW020 SCT090 BKN160 20/16 A2997 NOSIG=
202012010000 METAR MRPV 010000Z 12011KT 9999 FEW020 BKN100 20/16 A2999 NOSIG=
202012010100 METAR MRPV NIL=
202012010200 METAR MRPV NIL=
202012010300 METAR MRPV NIL=
202012010400 METAR MRPV NIL=
202012010500 METAR MRPV NIL=
202012010600 METAR MRPV NIL=
202012010700 METAR MRPV NIL=
202012010800 METAR MRPV NIL=
202012010900 METAR MRPV NIL=
202012011000 METAR MRPV NIL=
202012011100 METAR MRPV NIL=
202012011200 METAR MRPV 011200Z 13010KT 9999 FEW035 BKN100 20/16 A3002 NOSIG=
202012011300 METAR MRPV 011300Z 12009KT 9999 FEW025 SCT100 BKN200 21/16 A3004 NOSIG=
202012011400 METAR MRPV 011400Z 12010KT 9999 FEW025 BKN100 21/16 A3007 NOSIG=
202012011500 METAR MRPV 011500Z 11010KT 9999 FEW025 BKN100 22/16 A3008 NOSIG=
202012011600 METAR MRPV 011600Z 12009KT 9999 FEW030 BKN100 24/17 A3008 NOSIG=
202012011700 METAR MRPV 011700Z 12012KT 9999 FEW025 BKN100 25/17 A3005 NOSIG=
202012011800 METAR MRPV 011800Z 13012KT 9999 FEW025 BKN100 24/17 A3001 NOSIG=
202012011900 METAR MRPV 011900Z 11014KT 9999 FEW025 BKN100 25/17 A2999 NOSIG=
202012012000 METAR MRPV 012000Z 09016G26KT 9999 FEW025 BKN120 24/16 A2996 NOSIG=
202012012100 METAR MRPV 012100Z 10013KT 9999 FEW015 BKN100 22/17 A2996 NOSIG=
202012012200 METAR MRPV 012200Z 10014KT 9999 FEW030 BKN100 21/16 A2997 NOSIG=
202012012300 METAR MRPV 012300Z 12011KT 9999 FEW025 BKN100 21/16 A2997 NOSIG=
202012020000 METAR MRPV 020000Z 11011KT 9999 FEW015 BKN100 21/16 A2999 NOSIG=
202012020100 METAR MRPV NIL=
202012020200 METAR MRPV NIL=
202012020300 METAR MRPV NIL=
202012020400 METAR MRPV NIL=
202012020500 METAR MRPV NIL=
202012020600 METAR MRPV NIL=
202012020700 METAR MRPV NIL=
202012020800 METAR MRPV NIL=
202012020900 METAR MRPV NIL=
202012021000 METAR MRPV NIL=
202012021100 METAR MRPV NIL=
202012021200 METAR MRPV 021200Z 08006KT CAVOK 20/16 A2999 NOSIG=
202012021300 METAR MRPV 021300Z 13009KT 9999 FEW030 BKN090 22/17 A3002 NOSIG=
202012021400 METAR MRPV 021400Z 14008KT 9999 FEW030 BKN100 22/17 A3004 NOSIG=
202012021500 METAR MRPV 021500Z 13007KT 9999 FEW030 BKN100 23/17 A3005 NOSIG=
202012021600 METAR MRPV 021600Z 11008KT 9999 FEW035 BKN100 25/17 A3004 NOSIG=
202012021700 METAR MRPV 021700Z 11011KT 9999 RA FEW035 BKN100 24/17 A3003 NOSIG=
202012021800 METAR MRPV 021800Z 36004KT 9999 RA FEW030 BKN100 21/18 A3003 NOSIG=
202012021900 METAR MRPV 021900Z VRB02KT 9999 FEW025 BKN100 23/19 A2998 NOSIG=
202012022000 METAR MRPV 022000Z 11009KT 9999 FEW025 BKN100 24/18 A2996 NOSIG=
202012022100 METAR MRPV 022100Z 12007KT 9999 FEW020TCU FEW020 BKN100 23/18 A2996 NOSIG=
202012022200 METAR MRPV 022200Z 07011G21KT 4000 RA BR BKN010 20/19 A2998 NOSIG=
202012022209 METAR MRPV 022209Z 01005KT 9999 4000W RA SCT015 BKN100 19/19 A2998 NOSIG=
202012022300 METAR MRPV 022300Z 13002KT 9999 FEW010 BKN100 20/19 A2999 NOSIG=
202012030000 METAR MRPV 030000Z 09004KT 9999 FEW010 BKN100 20/18 A3000 NOSIG=
202012030100 METAR MRPV NIL=
202012030200 METAR MRPV NIL=
202012030300 METAR MRPV NIL=
202012030400 METAR MRPV NIL=
202012030500 METAR MRPV NIL=
202012030600 METAR MRPV NIL=
202012030700 METAR MRPV NIL=
202012030800 METAR MRPV NIL=
202012030900 METAR MRPV NIL=
202012031000 METAR MRPV NIL=
202012031100 METAR MRPV NIL=
202012031200 METAR MRPV 031200Z 14006KT CAVOK 20/16 A2999 NOSIG=
202012031300 METAR MRPV 031300Z 14008KT CAVOK 20/16 A3001 NOSIG=
202012031400 METAR MRPV 031400Z 13009KT 9999 FEW035 BKN110 22/17 A3004 NOSIG=
202012031500 METAR MRPV 031500Z 11009KT 9999 FEW035 BKN110 23/17 A3005 NOSIG=
202012031600 METAR MRPV 031600Z 09012KT 9999 FEW040 BKN120 24/17 A3004 NOSIG=
202012031700 METAR MRPV 031700Z 09011KT 9999 FEW035 BKN120 25/17 A3002 NOSIG=
202012031800 METAR MRPV 031800Z 09007KT 9999 SCT040 SCT100 26/17 A2999 NOSIG=
202012031900 METAR MRPV 031900Z 08009KT 9999 FEW020 SCT035 BKN100 26/17 A2995 TEMPO 31005KT=
202012032000 METAR MRPV 032000Z 29010KT 9999 VCSH FEW010TCU SCT030 BKN050 23/19 A2996 TEMPO RA=
202012032100 METAR MRPV 032100Z 32007KT 9999 RA BKN010 20/19 A2996 NOSIG=
202012032200 METAR MRPV 032200Z 31008KT 4500 -RA BR BKN010 SCT030 20/19 A2997 NOSIG=
202012032300 METAR MRPV 032300Z 31004KT 5000 -RA BR OVC005 19/19 A2999 NOSIG=
202012040000 METAR MRPV 040000Z 01003KT 5000 RA BR FEW004 BKN008 19/19 A3001 NOSIG=
202012040100 METAR MRPV NIL=
202012040200 METAR MRPV NIL=
202012040300 METAR MRPV NIL=
202012040400 METAR MRPV NIL=
202012040500 METAR MRPV NIL=
202012040600 METAR MRPV NIL=
202012040700 METAR MRPV NIL=
202012040800 METAR MRPV NIL=
202012040900 METAR MRPV NIL=
202012041000 METAR MRPV NIL=
202012041100 METAR MRPV NIL=
202012041200 METAR MRPV 041200Z 13005KT 9999 FEW020 BKN120 20/17 A3003 NOSIG=
202012041300 METAR MRPV NIL=
202012041400 METAR MRPV 041400Z 13009KT 9999 FEW030 BKN120 22/18 A3007 NOSIG=
202012041500 METAR MRPV 041500Z 12009KT 9999 FEW030 BKN120 23/18 A3007 NOSIG=
202012041600 METAR MRPV 041600Z 08013KT 9999 SCT030 BKN120 23/17 A3006 NOSIG=
202012041700 METAR MRPV 041700Z 09012KT 9999 SCT030 SCT120 24/17 A3004 NOSIG=
202012041800 METAR MRPV 041800Z 09012KT 9999 SCT030 SCT120 24/17 A3002 NOSIG=
202012041900 METAR MRPV 041900Z 09013G23KT 9999 SCT030 26/18 A2998 NOSIG=
202012042000 METAR MRPV 042000Z 09016KT 9999 SCT030 SCT060 24/16 A2997 NOSIG=
202012042100 METAR MRPV 042100Z 09013KT 9999 FEW030 BKN050 22/14 A2997 NOSIG=
202012042200 METAR MRPV 042200Z 11012KT 9999 FEW040 BKN070 22/15 A2997 NOSIG=
202012042300 METAR MRPV 042300Z 11010KT 9999 FEW045 BKN100 21/15 A2999 NOSIG=
202012050000 METAR MRPV 050000Z 13010KT 9999 FEW040 BKN100 21/15 A3001 NOSIG=
202012050100 METAR MRPV NIL=
202012050200 METAR MRPV NIL=
202012050300 METAR MRPV NIL=
202012050400 METAR MRPV NIL=
202012050500 METAR MRPV NIL=
202012050600 METAR MRPV NIL=
202012050700 METAR MRPV NIL=
202012050800 METAR MRPV NIL=
202012050900 METAR MRPV NIL=
202012051000 METAR MRPV NIL=
202012051100 METAR MRPV NIL=
202012051200 METAR MRPV 051200Z 12007KT CAVOK 19/13 A3008 NOSIG=
202012051300 METAR MRPV 051300Z 11007KT CAVOK 19/14 A3009 NOSIG=
202012051400 METAR MRPV 051400Z 14008KT CAVOK 21/15 A3011 NOSIG=
202012051500 METAR MRPV 051500Z 09012KT 9999 FEW045 23/15 A3011 NOSIG=
202012051600 METAR MRPV 051600Z 08010KT CAVOK 24/13 A3010 NOSIG=
202012051700 METAR MRPV 051700Z 07008KT CAVOK 26/14 A3007 NOSIG=
202012051800 METAR MRPV 051800Z COR 08009G19KT CAVOK 26/14 A3004 NOSIG=
202012051900 METAR MRPV 051900Z 09009KT CAVOK 27/14 A3001 NOSIG=
202012052000 METAR MRPV 052000Z 09010G20KT CAVOK 27/15 A2998 NOSIG=
202012052100 METAR MRPV 052100Z 08012KT CAVOK 26/15 A2998 NOSIG=
202012052200 METAR MRPV 052200Z 07010KT 9999 FEW045 25/15 A2998 NOSIG=
202012052300 METAR MRPV 052300Z 09011KT 9999 FEW040 23/14 A2999 NOSIG=
202012060000 METAR MRPV 060000Z 11008KT 9999 FEW035 22/15 A3002 NOSIG=
202012060100 METAR MRPV NIL=
202012060200 METAR MRPV NIL=
202012060300 METAR MRPV NIL=
202012060400 METAR MRPV NIL=
202012060500 METAR MRPV NIL=
202012060600 METAR MRPV NIL=
202012060700 METAR MRPV NIL=
202012060800 METAR MRPV NIL=
202012060900 METAR MRPV NIL=
202012061000 METAR MRPV NIL=
202012061100 METAR MRPV NIL=
202012061200 METAR MRPV 061200Z 14008KT 9999 FEW045 BKN200 18/13 A3001 NOSIG=
202012061300 METAR MRPV 061300Z 13007KT 9999 FEW040 BKN200 21/14 A3005 NOSIG=
202012061400 METAR MRPV 061400Z 09010KT CAVOK 21/15 A3005 NOSIG=
202012061500 METAR MRPV 061500Z 09010KT CAVOK 23/15 A3005 NOSIG=
202012061600 METAR MRPV 061600Z 08007KT CAVOK 25/14 A3004 NOSIG=
202012061700 METAR MRPV 061700Z 09008KT CAVOK 26/15 A3002 NOSIG=
202012061800 METAR MRPV 061800Z 09004KT CAVOK 27/15 A2999 NOSIG=
202012061900 METAR MRPV 061900Z 31004KT CAVOK 26/18 A2996 NOSIG=
202012062000 METAR MRPV 062000Z 29006KT 9999 FEW035 SCT200 26/19 A2994 NOSIG=
202012062100 METAR MRPV 062100Z 29011KT 9999 FEW020 SCT030 25/20 A2995 NOSIG=
202012062200 METAR MRPV 062200Z 28009KT 9999 FEW020 SCT025 23/20 A2996 NOSIG=
202012062300 METAR MRPV 062300Z 20002KT 9999 BKN020 21/20 A2998 NOSIG=
202012070000 METAR MRPV 070000Z 10005KT 9999 BKN020 21/17 A2999 NOSIG=
202012070100 METAR MRPV NIL=
202012070200 METAR MRPV NIL=
202012070300 METAR MRPV NIL=
202012070400 METAR MRPV NIL=
202012070500 METAR MRPV NIL=
202012070600 METAR MRPV NIL=
202012070700 METAR MRPV NIL=
202012070800 METAR MRPV NIL=
202012070900 METAR MRPV NIL=
202012071000 METAR MRPV NIL=
202012071100 METAR MRPV NIL=
202012071200 METAR MRPV 071200Z 12008KT 9999 FEW030 19/16 A3003 NOSIG=
202012071300 METAR MRPV 071300Z 12009KT 9999 FEW025 20/16 A3005 NOSIG=
202012071400 METAR MRPV 071400Z 12011KT CAVOK 22/16 A3007 NOSIG=
202012071500 METAR MRPV 071500Z 09014KT CAVOK 24/16 A3008 NOSIG=
202012071600 METAR MRPV 071600Z 09014KT CAVOK 24/16 A3006 NOSIG=
202012071700 METAR MRPV 071700Z 09016KT CAVOK 25/16 A3005 NOSIG=
202012071800 METAR MRPV 071800Z 08016KT CAVOK 26/17 A3003 NOSIG=
202012071900 METAR MRPV 071900Z 08016KT 9999 FEW035 26/17 A3000 NOSIG=
202012072000 METAR MRPV 072000Z 08014KT 9999 FEW045 26/18 A2998 NOSIG=
202012072100 METAR MRPV 072100Z 10012KT 9999 FEW035 26/18 A2996 NOSIG=
202012072200 METAR MRPV 072200Z 09013KT 9999 FEW025 25/18 A2997 NOSIG=
202012072300 METAR MRPV 072300Z 10015G25KT 9999 BKN025 22/17 A3000 NOSIG=
202012080000 METAR MRPV 080000Z 12008KT 9999 FEW015 BKN070 22/16 A3003 NOSIG=
202012080100 METAR MRPV NIL=
202012080200 METAR MRPV NIL=
202012080300 METAR MRPV NIL=
202012080400 METAR MRPV NIL=
202012080500 METAR MRPV NIL=
202012080600 METAR MRPV NIL=
202012080700 METAR MRPV NIL=
202012080800 METAR MRPV NIL=
202012080900 METAR MRPV NIL=
202012081000 METAR MRPV NIL=
202012081100 METAR MRPV NIL=
202012081200 METAR MRPV 081200Z 12009KT 9999 FEW020 SCT250 20/16 A3008 NOSIG=
202012081300 METAR MRPV 081300Z 11012KT 9999 FEW020 BKN250 21/16 A3011 NOSIG=
202012081400 METAR MRPV 081400Z 13009KT 9999 SCT025 SCT250 21/16 A3014 NOSIG=
202012081500 METAR MRPV 081500Z 09014KT 9999 FEW030 SCT250 22/13 A3013 NOSIG=
202012081600 METAR MRPV 081600Z 09015KT 9999 SCT030 SCT070 21/14 A3013 NOSIG=
202012081700 METAR MRPV 081700Z 09014KT 9999 FEW025 SCT080 23/15 A3010 NOSIG=
202012081800 METAR MRPV 081800Z 09016KT 9999 SCT025 23/15 A3008 NOSIG=
202012081900 METAR MRPV 081900Z 10013KT 9999 FEW025 BKN100 23/16 A3006 NOSIG=
202012082000 METAR MRPV 082000Z 11011G21KT 9999 SCT020 BKN100 22/16 A3005 NOSIG=
202012082100 METAR MRPV 082100Z 09013KT 9999 SCT035 BKN090 21/15 A3006 NOSIG=
202012082200 METAR MRPV 082200Z 13009KT 9999 SCT030 SCT100 21/15 A3006 NOSIG=
202012082300 METAR MRPV 082300Z 12010KT 9999 FEW035 SCT200 20/15 A3008 NOSIG=
202012090000 METAR MRPV 090000Z 11009KT 9999 FEW035 SCT200 19/15 A3010 NOSIG=
202012090100 METAR MRPV NIL=
202012090200 METAR MRPV NIL=
202012090300 METAR MRPV NIL=
202012090400 METAR MRPV NIL=
202012090500 METAR MRPV NIL=
202012090600 METAR MRPV NIL=
202012090700 METAR MRPV NIL=
202012090800 METAR MRPV NIL=
202012090900 METAR MRPV NIL=
202012091000 METAR MRPV NIL=
202012091100 METAR MRPV NIL=
202012091200 METAR MRPV 091200Z 12012KT 9999 FEW035 SCT220 19/15 A3010 NOSIG=
202012091300 METAR MRPV 091300Z 12014KT 9999 FEW030 19/15 A3012 NOSIG=
202012091400 METAR MRPV 091400Z 12012G23KT 9999 FEW035 20/16 A3014 NOSIG=
202012091500 METAR MRPV 091500Z 12016KT 9999 FEW025 21/16 A3013 NOSIG=
202012091600 METAR MRPV 091600Z 10017G27KT 9999 FEW025 22/16 A3014 WS R09 NOSIG=
202012091700 METAR MRPV 091700Z 11016KT 9999 FEW025 SCT160 22/16 A3012 NOSIG=
202012091800 METAR MRPV 091800Z 10021KT 9999 FEW025 SCT090 22/15 A3009 WS R09 NOSIG=
202012091900 METAR MRPV 091900Z 10020KT 9999 FEW025 SCT090 22/14 A3007 WS R09 NOSIG=
202012092000 METAR MRPV 092000Z 10021KT 9999 FEW025 BKN100 21/15 A3004 WS R09 NOSIG=
202012092100 METAR MRPV 092100Z 10020KT 9999 FEW020 SCT060 21/15 A3003 WS R09 NOSIG=
202012092200 METAR MRPV 092200Z 11015KT 9999 FEW020 BKN070 20/16 A3004 NOSIG=
202012092300 METAR MRPV 092300Z 11014KT 9999 -DZ FEW020 BKN070 19/16 A3005 NOSIG=
202012100000 METAR MRPV 100000Z 11011KT 9999 DZ FEW020 BKN080 19/16 A3006 NOSIG=
202012100100 METAR MRPV NIL=
202012100200 METAR MRPV NIL=
202012100300 METAR MRPV NIL=
202012100400 METAR MRPV NIL=
202012100500 METAR MRPV NIL=
202012100600 METAR MRPV NIL=
202012100700 METAR MRPV NIL=
202012100800 METAR MRPV NIL=
202012100900 METAR MRPV NIL=
202012101000 METAR MRPV NIL=
202012101100 METAR MRPV NIL=
202012101200 METAR MRPV 101200Z 11012KT 9999 FEW020 BKN100 19/16 A3004 NOSIG=
202012101300 METAR MRPV 101300Z 10013KT 9999 FEW020 BKN100 19/15 A3006 NOSIG=
202012101400 METAR MRPV 101400Z 11013KT 9999 FEW025 BKN100 20/15 A3008 NOSIG=
202012101500 METAR MRPV 101500Z 11012KT 9999 -DZ FEW025 BKN100 20/17 A3009 NOSIG=
202012101600 METAR MRPV 101600Z 11015KT 9999 DZ FEW020 BKN100 21/17 A3009 NOSIG=
202012101700 METAR MRPV 101700Z 12011KT 9999 -RA FEW020 OVC100 19/17 A3009 REDZ NOSIG=
202012101800 METAR MRPV 101800Z 12009KT 9999 FEW015 BKN100 21/17 A3006 NOSIG=
202012101900 METAR MRPV 101900Z 10014KT 9999 FEW020 BKN100 21/17 A3003 NOSIG=
202012102000 METAR MRPV 102000Z 11013KT 9999 FEW020 BKN100 22/17 A3001 NOSIG=
202012102100 METAR MRPV 102100Z 09013KT 9999 FEW020 BKN110 21/16 A3000 NOSIG=
202012102200 METAR MRPV 102200Z 09016G26KT 9999 FEW025 BKN120 21/16 A2999 NOSIG=
202012102300 METAR MRPV 102300Z 11011KT 9999 FEW030 SCT120 20/17 A3002 NOSIG=
202012110000 METAR MRPV 110000Z 12011G22KT 9999 FEW025 SCT100 20/17 A3003 NOSIG=
202012110100 METAR MRPV NIL=
202012110200 METAR MRPV NIL=
202012110300 METAR MRPV NIL=
202012110400 METAR MRPV NIL=
202012110500 METAR MRPV NIL=
202012110600 METAR MRPV NIL=
202012110700 METAR MRPV NIL=
202012110800 METAR MRPV NIL=
202012110900 METAR MRPV NIL=
202012111000 METAR MRPV NIL=
202012111100 METAR MRPV NIL=
202012111200 METAR MRPV 111200Z 12009KT 9999 FEW030 20/16 A3000 NOSIG=
202012111300 METAR MRPV 111300Z 12010KT 9999 FEW025 21/16 A3002 NOSIG=
202012111400 METAR MRPV 111400Z 11011KT 9999 FEW030 22/16 A3004 NOSIG=
202012111500 METAR MRPV 111500Z 11012KT 9999 FEW030 23/17 A3004 NOSIG=
202012111600 METAR MRPV 111600Z 11013KT 9999 SCT030 22/17 A3004 NOSIG=
202012111700 METAR MRPV 111700Z 08015G26KT 9999 SCT030 SCT080 23/17 A3002 NOSIG=
202012111800 METAR MRPV 111800Z 07015G25KT 9999 SCT030 23/16 A3000 NOSIG=
202012111900 METAR MRPV 111900Z 08016G26KT 9999 SCT030 23/15 A2997 NOSIG=
202012112000 METAR MRPV 112000Z 07015KT 9999 SCT030 23/15 A2996 NOSIG=
202012112100 METAR MRPV 112100Z 08014KT 9999 BKN030 22/15 A2995 NOSIG=
202012112200 METAR MRPV 112200Z 10011KT 9999 FEW0035 22/15 A2996 NOSIG=
202012112300 METAR MRPV 112300Z 10011KT 9999 FEW040 21/15 A2996 NOSIG=
202012120000 METAR MRPV 120000Z 12006KT 9999 FEW040 20/15 A2998 NOSIG=
202012120100 METAR MRPV NIL=
202012120200 METAR MRPV NIL=
202012120300 METAR MRPV NIL=
202012120400 METAR MRPV NIL=
202012120500 METAR MRPV NIL=
202012120600 METAR MRPV NIL=
202012120700 METAR MRPV NIL=
202012120800 METAR MRPV NIL=
202012120900 METAR MRPV NIL=
202012121000 METAR MRPV NIL=
202012121100 METAR MRPV NIL=
202012121200 METAR MRPV 121200Z 13009KT 9999 FEW035 18/14 A3002 NOSIG=
202012121300 METAR MRPV 121300Z 13009KT 9999 FEW035 20/15 A3004 NOSIG=
202012121400 METAR MRPV 121400Z 09015KT 9999 FEW035 21/14 A3004 NOSIG=
202012121500 METAR MRPV 121500Z 09014KT CAVOK 23/14 A3005 NOSIG=
202012121600 METAR MRPV 121600Z 07014KT CAVOK 25/13 A3005 NOSIG=
202012121700 METAR MRPV 121700Z 07013KT CAVOK 26/13 A3003 NOSIG=
202012121800 METAR MRPV 121800Z 06012KT CAVOK 25/13 A3001 NOSIG=
202012121900 METAR MRPV 121900Z 07015KT CAVOK 25/13 A2998 NOSIG=
202012122000 METAR MRPV 122000Z 07015KT CAVOK 26/14 A2995 NOSIG=
202012122100 METAR MRPV 122100Z 07015KT 9999 FEW040 25/15 A2995 NOSIG=
202012122200 METAR MRPV 122200Z 07014KT 9999 FEW035 24/15 A2995 NOSIG=
202012122300 METAR MRPV 122300Z 08013KT 9999 FEW035 22/14 A2996 NOSIG=
202012130000 METAR MRPV 130000Z 10011KT 9999 FEW035 21/15 A2997 NOSIG=
202012130100 METAR MRPV NIL=
202012130200 METAR MRPV NIL=
202012130300 METAR MRPV NIL=
202012130400 METAR MRPV NIL=
202012130500 METAR MRPV NIL=
202012130600 METAR MRPV NIL=
202012130700 METAR MRPV NIL=
202012130800 METAR MRPV NIL=
202012130900 METAR MRPV NIL=
202012131000 METAR MRPV NIL=
202012131100 METAR MRPV NIL=
202012131200 METAR MRPV 131200Z 14008KT CAVOK 18/13 A3002 NOSIG=
202012131300 METAR MRPV 131300Z 13008KT CAVOK 20/14 A3004 NOSIG=
202012131400 METAR MRPV 131400Z 11012KT CAVOK 21/14 A3007 NOSIG=
202012131500 METAR MRPV 131500Z 10014KT CAVOK 22/14 A3007 NOSIG=
202012131600 METAR MRPV 131600Z 08016KT CAVOK 23/15 A3007 NOSIG=
202012131700 METAR MRPV 131700Z 08015KT CAVOK 25/14 A3005 NOSIG=
202012131800 METAR MRPV 131800Z 08015KT CAVOK 26/14 A3002 NOSIG=
202012131900 METAR MRPV 131900Z 08016KT CAVOK 26/14 A2999 NOSIG=
202012132000 METAR MRPV 132000Z 08015KT CAVOK 26/15 A2997 NOSIG=
202012132100 METAR MRPV 132100Z 07015KT CAVOK 25/14 A2997 NOSIG=
202012132200 METAR MRPV 132200Z 08012KT 9999 FEW040 24/14 A2997 NOSIG=
202012132300 METAR MRPV 132300Z 08011KT 9999 FEW035 23/14 A2998 NOSIG=
202012140000 METAR MRPV 140000Z 11007KT 9999 FEW035 21/16 A3001 NOSIG=
202012140100 METAR MRPV NIL=
202012140200 METAR MRPV NIL=
202012140300 METAR MRPV NIL=
202012140400 METAR MRPV NIL=
202012140500 METAR MRPV NIL=
202012140600 METAR MRPV NIL=
202012140700 METAR MRPV NIL=
202012140800 METAR MRPV NIL=
202012140900 METAR MRPV NIL=
202012141000 METAR MRPV NIL=
202012141100 METAR MRPV NIL=
202012141200 METAR MRPV 141200Z 12007KT CAVOK 18/14 A3005 NOSIG=
202012141300 METAR MRPV 141300Z 13010KT CAVOK 20/14 A3006 NOSIG=
202012141400 METAR MRPV 141400Z 12010KT CAVOK 22/14 A3008 NOSIG=
202012141500 METAR MRPV 141500Z 09015KT CAVOK 23/13 A3009 NOSIG=
202012141600 METAR MRPV 141600Z 08014KT CAVOK 24/14 A3008 NOSIG=
202012141700 METAR MRPV 141700Z 07013KT CAVOK 25/15 A3006 NOSIG=
202012141800 METAR MRPV 141800Z 06014KT CAVOK 25/14 A3004 NOSIG=
202012141900 METAR MRPV 141900Z 06016KT CAVOK 25/14 A3002 NOSIG=
202012142000 METAR MRPV 142000Z 08013KT CAVOK 25/14 A2999 NOSIG=
202012142100 METAR MRPV 142100Z 07013KT CAVOK 25/14 A2997 NOSIG=
202012142200 METAR MRPV 142200Z 08015KT CAVOK 24/15 A2999 NOSIG=
202012142300 METAR MRPV 142300Z 08012KT CAVOK 22/15 A3000 NOSIG=
202012150000 METAR MRPV 150000Z 10009KT CAVOK 21/15 A3002 NOSIG=
202012150100 METAR MRPV NIL=
202012150200 METAR MRPV NIL=
202012150300 METAR MRPV NIL=
202012150400 METAR MRPV NIL=
202012150500 METAR MRPV NIL=
202012150600 METAR MRPV NIL=
202012150700 METAR MRPV NIL=
202012150800 METAR MRPV NIL=
202012150900 METAR MRPV NIL=
202012151000 METAR MRPV NIL=
202012151100 METAR MRPV NIL=
202012151200 METAR MRPV 151200Z 14007KT 9999 FEW045 18/13 A3002 NOSIG=
202012151300 METAR MRPV 151300Z 15007KT CAVOK 19/13 A3003 NOSIG=
202012151400 METAR MRPV 151400Z 12009KT CAVOK 22/14 A3004 NOSIG=
202012151500 METAR MRPV 151500Z 10009KT CAVOK 24/14 A3005 NOSIG=
202012151600 METAR MRPV 151600Z 10009KT 9999 FEW045 25/15 A3004 NOSIG=
202012151700 METAR MRPV 151700Z 08010G20KT 9999 FEW045 26/15 A3002 NOSIG=
202012151800 METAR MRPV 151800Z 06011KT 9999 FEW040 26/15 A2999 NOSIG=
202012151900 METAR MRPV 151900Z 07014KT 9999 FEW045 26/16 A2996 NOSIG=
202012152000 METAR MRPV 152000Z 07013KT 9999 FEW040 26/16 A2994 NOSIG=
202012152100 METAR MRPV 152100Z 08010KT 9999 SCT040 26/16 A2993 NOSIG=
202012152200 METAR MRPV 152200Z 09011KT 9999 SCT035 24/17 A2993 NOSIG=
202012152300 METAR MRPV 152300Z 09010KT 9999 SCT035 22/17 A2994 NOSIG=
202012160000 METAR MRPV 160000Z 10008KT 9999 SCT030 21/16 A2995 NOSIG=
202012160100 METAR MRPV NIL=
202012160200 METAR MRPV NIL=
202012160300 METAR MRPV NIL=
202012160400 METAR MRPV NIL=
202012160500 METAR MRPV NIL=
202012160600 METAR MRPV NIL=
202012160700 METAR MRPV NIL=
202012160800 METAR MRPV NIL=
202012160900 METAR MRPV NIL=
202012161000 METAR MRPV NIL=
202012161100 METAR MRPV NIL=
202012161200 METAR MRPV 161200Z 11005KT 9999 FEW030 SCT220 18/15 A3000 NOSIG=
202012161300 METAR MRPV 161300Z 09005KT 9999 FEW020 SCT220 20/15 A3002 NOSIG=
202012161400 METAR MRPV 161400Z 09009KT CAVOK 22/15 A3003 NOSIG=
202012161500 METAR MRPV 161500Z 12005KT 9999 FEW040 SCT250 25/15 A3003 NOSIG=
202012161600 METAR MRPV 161600Z 03004KT 9999 FEW045 26/14 A3003 BECMG 32005KT=
202012161700 METAR MRPV 161700Z 28007KT 9999 FEW045 25/17 A3001 NOSIG=
202012161800 METAR MRPV 161800Z 29006KT 9999 SCT040 25/17 A2998 NOSIG=
202012161900 METAR MRPV 161900Z 29006KT 9999 SCT040 25/17 A2998 NOSIG=
202012162000 METAR MRPV 162000Z 29013KT 9999 SCT040 25/19 A2995 NOSIG=
202012162100 METAR MRPV 162100Z 29010KT 9999 SCT035 25/18 A2994 NOSIG=
202012162200 METAR MRPV 162200Z 27006KT 9999 SCT030 24/18 A2994 NOSIG=
202012162300 METAR MRPV 162300Z 27004KT 9999 BKN030 22/18 A2995 NOSIG=
202012170000 METAR MRPV 170000Z 25001KT 9999 BKN025 22/18 A2998 NOSIG=
202012170100 METAR MRPV NIL=
202012170200 METAR MRPV NIL=
202012170300 METAR MRPV NIL=
202012170400 METAR MRPV NIL=
202012170500 METAR MRPV NIL=
202012170600 METAR MRPV NIL=
202012170700 METAR MRPV NIL=
202012170800 METAR MRPV NIL=
202012170900 METAR MRPV NIL=
202012171000 METAR MRPV NIL=
202012171100 METAR MRPV NIL=
202012171200 METAR MRPV 171200Z COR 14009KT 9999 FEW025 19/15 A3002 NOSIG=
202012171300 METAR MRPV 171300Z 13007KT 9999 FEW035 20/15 A3004 NOSIG=
202012171400 METAR MRPV 171400Z 11009KT 9999 SCT030 21/16 A3007 NOSIG=
202012171500 METAR MRPV 171500Z 08014KT 9999 SCT030 SCT100 23/16 A3007 NOSIG=
202012171600 METAR MRPV 171600Z 09013KT 9999 SCT030 SCT100 23/17 A3007 NOSIG=
202012171700 METAR MRPV 171700Z 09014KT 9999 DZ BKN030 SCT080 22/16 A3006 NOSIG=
202012171800 METAR MRPV 171800Z 08018G28KT 9999 SCT030 BKN080 23/15 A3002 REDZ NOSIG=
202012171900 METAR MRPV 171900Z 07020KT 9999 FEW030 SCT100 24/15 A3002 NOSIG=
202012172000 METAR MRPV 172000Z 08016KT 9999 SCT030 SCT100 23/14 A3000 NOSIG=
202012172100 METAR MRPV 172100Z 08016KT 9999 SCT030 SCT100 22/14 A3000 NOSIG=
202012172200 METAR MRPV 172200Z 09015KT 9999 SCT030 SCT100 23/15 A3000 NOSIG=
202012172300 METAR MRPV 172300Z 11010KT 9999 SCT030 SCT120 21/16 A3002 NOSIG=
202012180000 METAR MRPV 180000Z 10013KT 9999 SCT030 SCT120 20/16 A3003 NOSIG=
202012180100 METAR MRPV NIL=
202012180200 METAR MRPV NIL=
202012180300 METAR MRPV NIL=
202012180400 METAR MRPV NIL=
202012180500 METAR MRPV NIL=
202012180600 METAR MRPV NIL=
202012180700 METAR MRPV NIL=
202012180800 METAR MRPV NIL=
202012180900 METAR MRPV NIL=
202012181000 METAR MRPV NIL=
202012181100 METAR MRPV NIL=
202012181200 METAR MRPV 181200Z 10010KT 9999 FEW035 19/14 A3007 NOSIG=
202012181300 METAR MRPV 181300Z 10011KT 9999 FEW035 20/12 A3006 NOSIG=
202012181400 METAR MRPV 181400Z 11014KT 9999 FEW040 21/15 A3008 NOSIG=
202012181500 METAR MRPV 181500Z 09017KT 9999 SCT035 21/15 A3008 NOSIG=
202012181600 METAR MRPV 181600Z COR 10016G32KT 9999 SCT035 21/15 A3008 NOSIG=
202012181700 METAR MRPV 181700Z COR 08019G29KT 9999 FEW030 23/14 A3006 NOSIG=
202012181800 METAR MRPV 181800Z COR 08020G31KT 9999 FEW035 24/14 A3004 NOSIG=
202012181900 METAR MRPV 181900Z COR 07015G25KT 9999 FEW040 24/14 A3001 NOSIG=
202012182000 METAR MRPV 182000Z 07014G24KT 9999 SCT040 23/15 A3000 NOSIG=
202012182100 METAR MRPV 182100Z 07015KT 9999 FEW040 23/13 A3000 NOSIG=
202012182200 METAR MRPV 182200Z 07015KT CAVOK 24/14 A3000 NOSIG=
202012182300 METAR MRPV 182300Z 08015KT CAVOK 21/14 A3000 NOSIG=
202012190000 METAR MRPV 190000Z 10011KT CAVOK 20/14 A3002 NOSIG=
202012190100 METAR MRPV NIL=
202012190200 METAR MRPV NIL=
202012190300 METAR MRPV NIL=
202012190400 METAR MRPV NIL=
202012190500 METAR MRPV NIL=
202012190600 METAR MRPV NIL=
202012190700 METAR MRPV NIL=
202012190800 METAR MRPV NIL=
202012190900 METAR MRPV NIL=
202012191000 METAR MRPV NIL=
202012191100 METAR MRPV NIL=
202012191200 METAR MRPV 191200Z 11012KT 9999 FEW030 20/16 A3001 NOSIG=
202012191300 METAR MRPV 191300Z 10013KT 9999 FEW025 20/16 A3002 NOSIG=
202012191400 METAR MRPV 191400Z 09014KT 9999 FEW025 21/17 A3005 NOSIG=
202012191500 METAR MRPV 191500Z 08018G29KT 9999 SCT030 23/16 A3005 NOSIG=
202012191600 METAR MRPV 191600Z 08015KT 9999 SCT025 22/16 A3005 NOSIG=
202012191700 METAR MRPV 191700Z 09018KT 9999 SCT025 22/16 A3003 NOSIG=
202012191800 METAR MRPV 191800Z 08022KT 9999 BKN030 22/16 A3000 NOSIG=
202012191900 METAR MRPV 191900Z 09018G28KT 9999 BKN030 22/16 A2998 NOSIG=
202012192000 METAR MRPV 192000Z 09018G28KT 9999 BKN025 21/14 A2996 NOSIG=
202012192100 METAR MRPV 192100Z 08016KT 9999 BKN030 22/14 A2996 NOSIG=
202012192200 METAR MRPV 192200Z 09014KT 9999 FEW030 23/14 A2996 NOSIG=
202012192300 METAR MRPV 192300Z 10011KT 9999 BKN030 22/16 A2997 NOSIG=
202012200000 METAR MRPV 200000Z 10009KT 9999 BKN025 21/15 A2999 NOSIG=
202012200100 METAR MRPV NIL=
202012200200 METAR MRPV NIL=
202012200300 METAR MRPV NIL=
202012200400 METAR MRPV NIL=
202012200500 METAR MRPV NIL=
202012200600 METAR MRPV NIL=
202012200700 METAR MRPV NIL=
202012200800 METAR MRPV NIL=
202012200900 METAR MRPV NIL=
202012201000 METAR MRPV NIL=
202012201100 METAR MRPV NIL=
202012201200 METAR MRPV 201200Z 12010KT 9999 FEW030 20/15 A2999 NOSIG=
202012201300 METAR MRPV 201300Z 11010KT 9999 FEW030 20/15 A3001 NOSIG=
202012201400 METAR MRPV 201400Z 13013KT 9999 FEW030 22/15 A3003 NOSIG=
202012201500 METAR MRPV 201500Z 10018KT 9999 FEW030 23/15 A3004 NOSIG=
202012201600 METAR MRPV 201600Z 09020KT 9999 SCT035 23/15 A3004 NOSIG=
202012201700 METAR MRPV 201700Z 07016KT 9999 FEW040 24/15 A3002 WS R09 NOSIG=
202012201800 METAR MRPV 201800Z 08014G25KT 9999 SCT045 25/15 A2999 WS R09 NOSIG=
202012201900 METAR MRPV 201900Z 08015KT 9999 FEW040 26/16 A2996 NOSIG=
202012202000 METAR MRPV 202000Z 07015G25KT 9999 FEW035 24/15 A2995 NOSIG=
202012202100 METAR MRPV 202100Z 08016KT 9999 SCT030 23/14 A2995 NOSIG=
202012202200 METAR MRPV 202200Z 11012KT 9999 BKN040 22/14 A2995 NOSIG=
202012202300 METAR MRPV 202300Z 11011KT CAVOK 22/15 A2997 NOSIG=
202012210000 METAR MRPV 210000Z 11010KT 9999 FEW040 21/14 A2999 NOSIG=
202012210100 METAR MRPV NIL=
202012210200 METAR MRPV NIL=
202012210300 METAR MRPV NIL=
202012210400 METAR MRPV NIL=
202012210500 METAR MRPV NIL=
202012210600 METAR MRPV NIL=
202012210700 METAR MRPV NIL=
202012210800 METAR MRPV NIL=
202012210900 METAR MRPV NIL=
202012211000 METAR MRPV NIL=
202012211100 METAR MRPV NIL=
202012211200 METAR MRPV 211200Z 13011KT CAVOK 19/13 A3003 NOSIG=
202012211300 METAR MRPV 211300Z 13011KT CAVOK 20/13 A3006 NOSIG=
202012211400 METAR MRPV 211400Z 10019KT CAVOK 21/14 A3007 NOSIG=
202012211500 METAR MRPV 211500Z 09018KT CAVOK 22/14 A3007 NOSIG=
202012211600 METAR MRPV 211600Z 08019KT CAVOK 23/13 A3007 NOSIG=
202012211700 METAR MRPV 211700Z 08015KT CAVOK 24/14 A3006 NOSIG=
202012211800 METAR MRPV 211800Z 07017KT CAVOK 25/14 A3003 NOSIG=
202012211900 METAR MRPV 211900Z 07014G24KT CAVOK 25/14 A3001 NOSIG=
202012212000 METAR MRPV 212000Z 07016KT 9999 FEW045 25/14 A2999 NOSIG=
202012212100 METAR MRPV 212100Z 07015KT 9999 FEW045 25/13 A2998 NOSIG=
202012212200 METAR MRPV 212200Z 07014KT 9999 FEW045 23/14 A2999 NOSIG=
202012212300 METAR MRPV 212300Z 08014G24KT 9999 FEW040 22/15 A3000 NOSIG=
202012220000 METAR MRPV 220000Z 11011KT 9999 FEW040 20/14 A3002 NOSIG=
202012220100 METAR MRPV NIL=
202012220200 METAR MRPV NIL=
202012220300 METAR MRPV NIL=
202012220400 METAR MRPV NIL=
202012220500 METAR MRPV NIL=
202012220600 METAR MRPV NIL=
202012220700 METAR MRPV NIL=
202012220800 METAR MRPV NIL=
202012220900 METAR MRPV NIL=
202012221000 METAR MRPV NIL=
202012221100 METAR MRPV NIL=
202012221200 METAR MRPV 221200Z 13011KT CAVOK 18/13 A3004 NOSIG=
202012221300 METAR MRPV 221300Z 11013KT CAVOK 20/13 A3006 NOSIG=
202012221400 METAR MRPV 221400Z 12013KT CAVOK 21/14 A3008 NOSIG=
202012221500 METAR MRPV 221500Z 08019KT CAVOK 22/14 A3008 NOSIG=
202012221600 METAR MRPV 221600Z 08017KT CAVOK 24/15 A3007 NOSIG=
202012221700 METAR MRPV 221700Z 07017KT 9999 FEW035 24/15 A3007 NOSIG=
202012221800 METAR MRPV 221800Z 07017KT 9999 FEW035 24/16 A3003 NOSIG=
202012221900 METAR MRPV 221900Z 08015G25KT 9999 SCT035 25/16 A3001 NOSIG=
202012222000 METAR MRPV 222000Z 08015KT 9999 BKN030 24/16 A2999 NOSIG=
202012222100 METAR MRPV 222100Z 08014G26KT 9999 BKN030 24/16 A2997 NOSIG=
202012222200 METAR MRPV 222200Z 09014KT 9999 BKN030 22/17 A2998 NOSIG=
202012222300 METAR MRPV 222300Z 09011KT 9999 BKN030 22/17 A2998 NOSIG=
202012230000 METAR MRPV 230000Z 10011KT 9999 BKN020 21/17 A3001 NOSIG=
202012230100 METAR MRPV NIL=
202012230200 METAR MRPV NIL=
202012230300 METAR MRPV NIL=
202012230400 METAR MRPV NIL=
202012230500 METAR MRPV NIL=
202012230600 METAR MRPV NIL=
202012230700 METAR MRPV NIL=
202012230800 METAR MRPV NIL=
202012230900 METAR MRPV NIL=
202012231000 METAR MRPV NIL=
202012231100 METAR MRPV NIL=
202012231200 METAR MRPV 231200Z 11012KT 9999 FEW035 BKN100 21/15 A3004 NOSIG=
202012231300 METAR MRPV 231300Z 13009KT 9999 SCT030 SCT100 21/16 A3006 NOSIG=
202012231400 METAR MRPV 231400Z 13009KT 9999 FEW035 BKN100 21/16 A3007 RERA NOSIG=
202012231500 METAR MRPV 231500Z 11009KT 9999 FEW035 SCT100 22/16 A3007 NOSIG=
202012231600 METAR MRPV 231600Z 12010KT 9999 FEW035 SCT100 23/17 A3007 NOSIG=
202012231700 METAR MRPV 231700Z 13010KT 9999 FEW035 SCT100 25/17 A3005 NOSIG=
202012231800 METAR MRPV 231800Z 08014KT 9999 SCT035 SCT120 24/17 A3002 NOSIG=
202012231900 METAR MRPV 231900Z 08015KT 9999 -DZ SCT035 BKN100 24/19 A2998 NOSIG=
202012232000 METAR MRPV 232000Z 09010KT 9999 4000N DZ SCT035 BKN100 21/19 A2996 NOSIG=
202012232100 METAR MRPV 232100Z 11010KT 6000 -RA SCT030 BKN080 21/18 A2997 REDZ NOSIG=
202012232200 METAR MRPV 232200Z 08014KT 9999 SCT025 BKN080 22/17 A2995 NOSIG=
202012232300 METAR MRPV 232300Z 09014G24KT 9999 SCT030 21/17 A2996 NOSIG=
202012240000 METAR MRPV 240000Z 09017G28KT 9999 SCT030 20/16 A2997 NOSIG=
202012240100 METAR MRPV NIL=
202012240200 METAR MRPV NIL=
202012240300 METAR MRPV NIL=
202012240400 METAR MRPV NIL=
202012240500 METAR MRPV NIL=
202012240600 METAR MRPV NIL=
202012240700 METAR MRPV NIL=
202012240800 METAR MRPV NIL=
202012240900 METAR MRPV NIL=
202012241000 METAR MRPV NIL=
202012241100 METAR MRPV NIL=
202012241200 METAR MRPV 241200Z 10012KT 9999 FEW030 BKN200 19/15 A3002 NOSIG=
202012241300 METAR MRPV 241300Z 10011KT 9999 FEW030 BKN200 19/14 A3004 NOSIG=
202012241400 METAR MRPV 241400Z 09015KT 9999 FEW040 BKN200 21/14 A3006 NOSIG=
202012241500 METAR MRPV 241500Z 09014KT 9999 FEW040 BKN200 23/15 A3005 NOSIG=
202012241600 METAR MRPV 241600Z 09012KT CAVOK 24/14 A3005 NOSIG=
202012241700 METAR MRPV 241700Z 08011KT CAVOK 25/15 A3003 NOSIG=
202012241800 METAR MRPV 241800Z 08009KT CAVOK 26/15 A3000 NOSIG=
202012241900 METAR MRPV 241900Z 09009KT CAVOK 27/15 A2998 NOSIG=
202012242000 METAR MRPV 242000Z 10009KT CAVOK 27/15 A2995 NOSIG=
202012242100 METAR MRPV 242100Z 09009KT CAVOK 27/15 A2995 NOSIG=
202012242200 METAR MRPV 242200Z 08008KT 9999 FEW045 26/13 A2996 NOSIG=
202012242300 METAR MRPV 242300Z 09010KT CAVOK 24/16 A2998 NOSIG=
202012250000 METAR MRPV 250000Z 11007KT CAVOK 22/17 A3000 NOSIG=
202012250100 METAR MRPV NIL=
202012250200 METAR MRPV NIL=
202012250300 METAR MRPV NIL=
202012250400 METAR MRPV NIL=
202012250500 METAR MRPV NIL=
202012250600 METAR MRPV NIL=
202012250700 METAR MRPV NIL=
202012250800 METAR MRPV NIL=
202012250900 METAR MRPV NIL=
202012251000 METAR MRPV NIL=
202012251100 METAR MRPV NIL=
202012251200 METAR MRPV 251200Z 14008KT CAVOK 18/12 A3003 NOSIG=
202012251300 METAR MRPV 251300Z 12008KT CAVOK 20/12 A3005 NOSIG=
202012251400 METAR MRPV 251400Z 11010KT CAVOK 22/13 A3006 NOSIG=
202012251500 METAR MRPV 251500Z 11012KT CAVOK 23/14 A3006 NOSIG=
202012251600 METAR MRPV 251600Z 10018KT CAVOK 24/11 A3005 NOSIG=
202012251700 METAR MRPV 251700Z 08017KT CAVOK 24/15 A3004 NOSIG=
202012251800 METAR MRPV 251800Z 07015KT CAVOK 25/14 A3002 NOSIG=
202012251900 METAR MRPV 251900Z 08018KT CAVOK 24/15 A3000 NOSIG=
202012252000 METAR MRPV 252000Z 07019KT 9999 FEW030 24/15 A2998 NOSIG=
202012252100 METAR MRPV 252100Z 08016KT 9999 SCT025 23/16 A2997 NOSIG=
202012252200 METAR MRPV 252200Z 10014KT 9999 FEW030 22/16 A2997 NOSIG=
202012252300 METAR MRPV 252300Z 10015KT 9999 FEW030 21/16 A2999 NOSIG=
202012260000 METAR MRPV 260000Z 11010KT 9999 FEW020 20/15 A3002 NOSIG=
202012260100 METAR MRPV NIL=
202012260200 METAR MRPV NIL=
202012260300 METAR MRPV NIL=
202012260400 METAR MRPV NIL=
202012260500 METAR MRPV NIL=
202012260600 METAR MRPV NIL=
202012260700 METAR MRPV NIL=
202012260800 METAR MRPV NIL=
202012260900 METAR MRPV NIL=
202012261000 METAR MRPV NIL=
202012261100 METAR MRPV NIL=
202012261200 METAR MRPV 261200Z 13010KT CAVOK 18/13 A3002 NOSIG=
202012261300 METAR MRPV 261300Z 12010KT CAVOK 19/13 A3004 NOSIG=
202012261400 METAR MRPV 261400Z 12011KT CAVOK 20/14 A3005 NOSIG=
202012261500 METAR MRPV 261500Z 12010KT CAVOK 22/14 A3006 NOSIG=
202012261600 METAR MRPV 261600Z 08013KT CAVOK 22/14 A3005 NOSIG=
202012261700 METAR MRPV 261700Z 07013KT CAVOK 24/16 A3004 NOSIG=
202012261800 METAR MRPV 261800Z 07010KT 9999 FEW035 BKN090 24/15 A3002 NOSIG=
202012261900 METAR MRPV 261900Z 09009KT CAVOK 25/14 A2998 NOSIG=
202012262000 METAR MRPV 262000Z 07010KT 9999 FEW040 BKN080 25/15 A2995 NOSIG=
202012262100 METAR MRPV 262100Z 09012KT 9999 FEW035 24/15 A2993 NOSIG=
202012262200 METAR MRPV 262200Z 08010KT 9999 FEW035 BKN080 23/15 A2994 NOSIG=
202012262300 METAR MRPV 262300Z 07006KT 9999 BKN030 23/15 A2995 TEMPO 31005KT=
202012270000 METAR MRPV 270000Z VRB01KT 9999 BKN020 20/19 A2998 BECMG 09008KT=
202012270100 METAR MRPV NIL=
202012270200 METAR MRPV NIL=
202012270300 METAR MRPV NIL=
202012270400 METAR MRPV NIL=
202012270500 METAR MRPV NIL=
202012270600 METAR MRPV NIL=
202012270700 METAR MRPV NIL=
202012270800 METAR MRPV NIL=
202012270900 METAR MRPV NIL=
202012271000 METAR MRPV NIL=
202012271100 METAR MRPV NIL=
202012271200 METAR MRPV 271200Z 09013KT 9999 FEW030 SCT100 19/15 A3000 NOSIG=
202012271300 METAR MRPV 271300Z 11011KT 9999 FEW025 SCT080 19/15 A3003 NOSIG=
202012271400 METAR MRPV 271400Z 10018KT 9999 FEW025 SCT080 20/15 A3004 NOSIG=
202012271500 METAR MRPV 271500Z 09018KT 9999 FEW030 SCT120 21/15 A3005 NOSIG=
202012271600 METAR MRPV 271600Z 10022KT 9999 FEW030 SCT120 22/15 A3004 NOSIG=
202012271700 METAR MRPV 271700Z 10016KT 9999 FEW035 SCT120 23/15 A3003 NOSIG=
202012271800 METAR MRPV 271800Z 08017KT 9999 FEW040 SCT140 24/15 A3000 NOSIG=
202012271900 METAR MRPV 271900Z 08017KT 9999 DZ SCT035 SCT120 23/16 A2998 NOSIG=
202012272000 METAR MRPV 272000Z 09015KT 9999 FEW035 SCT100 23/16 A2996 REDZ NOSIG=
202012272100 METAR MRPV 272100Z 09016KT 9999 SCT035 SCT100 23/16 A2995 NOSIG=
202012272200 METAR MRPV 272200Z 10019KT 9999 SCT030 SCT080 22/16 A2995 NOSIG=
202012272300 METAR MRPV 272300Z 11015G25KT 9999 DZ SCT030 SCT060 21/16 A2997 NOSIG=
202012280000 METAR MRPV 280000Z 11012KT 9999 SCT030 SCT060 20/15 A2999 REDZ NOSIG=
202012280100 METAR MRPV NIL=
202012280200 METAR MRPV NIL=
202012280300 METAR MRPV NIL=
202012280400 METAR MRPV NIL=
202012280500 METAR MRPV NIL=
202012280600 METAR MRPV NIL=
202012280700 METAR MRPV NIL=
202012280800 METAR MRPV NIL=
202012280900 METAR MRPV NIL=
202012281000 METAR MRPV NIL=
202012281100 METAR MRPV NIL=
202012281200 METAR MRPV 281200Z 13008KT 9999 FEW020 SCT250 18/15 A3003 NOSIG=
202012281300 METAR MRPV 281300Z 12010KT 9999 FEW025 SCT250 19/15 A3005 NOSIG=
202012281400 METAR MRPV 281400Z 12010KT 9999 FEW020 20/16 A3007 NOSIG=
202012281500 METAR MRPV 281500Z 12012KT 9999 FEW020 22/16 A3007 NOSIG=
202012281600 METAR MRPV 281600Z 10014KT 9999 FEW015 23/16 A3006 NOSIG=
202012281700 METAR MRPV 281700Z 10014KT 9999 FEW020 SCT080 24/16 A3005 NOSIG=
202012281800 METAR MRPV 281800Z 09016KT 9999 FEW020 SCT080 24/15 A3003 NOSIG=
202012281900 METAR MRPV 281900Z 10014KT 9999 SCT030 SCT080 25/16 A3001 NOSIG=
202012282000 METAR MRPV 282000Z 11010KT 9999 FEW030 BKN060 24/16 A3000 NOSIG=
202012282100 METAR MRPV 282100Z 10013KT 9999 FEW030 BKN100 22/16 A2998 NOSIG=
202012282200 METAR MRPV 282200Z 10013KT 9999 DZ FEW030 BKN100 22/16 A2999 NOSIG=
202012282300 METAR MRPV 282300Z 12010KT 9999 FEW030 BKN100 21/16 A3000 REDZ NOSIG=
202012290000 METAR MRPV 290000Z 10011KT 9999 FEW030 BKN100 20/16 A3001 NOSIG=
202012290100 METAR MRPV NIL=
202012290200 METAR MRPV NIL=
202012290300 METAR MRPV NIL=
202012290400 METAR MRPV NIL=
202012290500 METAR MRPV NIL=
202012290600 METAR MRPV NIL=
202012290700 METAR MRPV NIL=
202012290800 METAR MRPV NIL=
202012290900 METAR MRPV NIL=
202012291000 METAR MRPV NIL=
202012291100 METAR MRPV NIL=
202012291200 METAR MRPV 291200Z 13009KT 9999 FEW030 BKN060 20/16 A3001 NOSIG=
202012291300 METAR MRPV 291300Z 13009KT 9999 FEW030 BKN100 20/16 A3003 NOSIG=
202012291400 METAR MRPV 291400Z 13009KT 9999 FEW030 BKN100 22/16 A3004 NOSIG=
202012291500 METAR MRPV 291500Z 10010KT 9999 SCT030 BKN100 22/16 A3004 NOSIG=
202012291600 METAR MRPV 291600Z 12009KT 9999 FEW030 BKN100 24/17 A3005 NOSIG=
202012291700 METAR MRPV 291700Z 11011KT 9999 FEW030 BKN120 24/16 A3004 NOSIG=
202012291800 METAR MRPV 291800Z 09010KT 9999 FEW035 SCT120 25/16 A3001 NOSIG=
202012291900 METAR MRPV 291900Z 11008KT 9999 FEW035 SCT140 26/16 A2998 NOSIG=
202012292000 METAR MRPV 292000Z 13006KT 9999 FEW040 SCT140 26/16 A2995 NOSIG=
202012292100 METAR MRPV 292100Z 09007KT 9999 SCT030 SCT080 24/15 A2995 NOSIG=
202012292200 METAR MRPV 292200Z 28007KT 9999 SCT030 SCT100 22/19 A2996 NOSIG=
202012292300 METAR MRPV 292300Z 29006KT 9999 FEW015 BKN030 21/19 A2998 NOSIG=
202012300000 METAR MRPV 300000Z 29002KT 9999 FEW015 BKN030 20/18 A2999 NOSIG=
202012300100 METAR MRPV NIL=
202012300200 METAR MRPV NIL=
202012300300 METAR MRPV NIL=
202012300400 METAR MRPV NIL=
202012300500 METAR MRPV NIL=
202012300600 METAR MRPV NIL=
202012300700 METAR MRPV NIL=
202012300800 METAR MRPV NIL=
202012300900 METAR MRPV NIL=
202012301000 METAR MRPV NIL=
202012301100 METAR MRPV NIL=
202012301200 METAR MRPV 301200Z COR 27002KT 9999 FEW015 BKN200 18/14 A3003 NOSIG=
202012301300 METAR MRPV 301300Z VRB02KT CAVOK 20/15 A3005 NOSIG=
202012301400 METAR MRPV 301400Z 07006KT CAVOK 22/14 A3005 NOSIG=
202012301500 METAR MRPV 301500Z 13007KT CAVOK 24/14 A3005 NOSIG=
202012301600 METAR MRPV 301600Z 12006KT CAVOK 25/14 A3005 NOSIG=
202012301700 METAR MRPV 301700Z 32002KT CAVOK 26/17 A3003 NOSIG=
202012301800 METAR MRPV 301800Z 28007KT 9999 SCT045 SCT200 24/17 A3000 NOSIG=
202012301900 METAR MRPV 301900Z 27002KT 9999 SCT035 SCT100 24/18 A2998 NOSIG=
202012302000 METAR MRPV 302000Z 26004KT 9999 FEW025 SCT035 25/19 A2995 NOSIG=
202012302100 METAR MRPV 302100Z 28005KT 9999 BKN025 24/19 A2994 NOSIG=
202012302200 METAR MRPV 302200Z 30008KT 9999 FEW015 BKN025 22/19 A2995 NOSIG=
202012302300 METAR MRPV 302300Z 28006KT 4000 -DZ BR BKN010 21/20 A2997 NOSIG=
202012310000 METAR MRPV 310000Z 29007KT 4000 -RA BR BKN010 20/19 A2999 NOSIG=
202012310100 METAR MRPV NIL=
202012310200 METAR MRPV NIL=
202012310300 METAR MRPV NIL=
202012310400 METAR MRPV NIL=
202012310500 METAR MRPV NIL=
202012310600 METAR MRPV NIL=
202012310700 METAR MRPV NIL=
202012310800 METAR MRPV NIL=
202012310900 METAR MRPV NIL=
202012311000 METAR MRPV NIL=
202012311100 METAR MRPV NIL=
202012311200 METAR MRPV 311200Z 11004KT CAVOK 18/15 A3001 NOSIG=
202012311300 METAR MRPV 311300Z 11004KT CAVOK 20/16 A3002 NOSIG=
202012311400 METAR MRPV 311400Z 11005KT CAVOK 22/15 A3004 NOSIG=
202012311500 METAR MRPV 311500Z 10005KT CAVOK 24/15 A3005 NOSIG=
202012311600 METAR MRPV 311600Z 30006KT 9999 FEW030 23/18 A3005 NOSIG=
202012311700 METAR MRPV 311700Z 29008KT CAVOK 24/18 A3003 NOSIG=
202012311800 METAR MRPV 311800Z 30009KT 9999 FEW040 25/18 A3000 NOSIG=
202012311900 METAR MRPV 311900Z 29009KT 9999 SCT040 25/19 A2997 NOSIG=
202012312000 METAR MRPV 312000Z 29010KT 9999 BKN030 25/19 A2995 NOSIG=
202012312100 METAR MRPV 312100Z 29008KT 9999 BKN030 24/19 A2995 NOSIG=
202012312200 METAR MRPV 312200Z 27004KT 9999 BKN020 23/19 A2996 NOSIG=
202012312300 METAR MRPV 312300Z 27003KT 9999 SCT025 SCT200 22/19 A2998 NOSIG=
