200501010000 METAR MRLB 010000Z NIL=
200501010100 METAR MRLB 010100Z 08015KT 9999 FEW035 SCT250 27/19 A2984=
200501010200 METAR MRLB NIL=
200501010300 METAR MRLB NIL=
200501010400 METAR MRLB NIL=
200501010500 METAR MRLB NIL=
200501010600 METAR MRLB NIL=
200501010700 METAR MRLB NIL=
200501010800 METAR MRLB NIL=
200501010900 METAR MRLB NIL=
200501011000 METAR MRLB NIL=
200501011100 METAR MRLB NIL=
200501011200 METAR MRLB NIL=
200501011300 METAR MRLB 011300Z 03004KT 9999 FEW040 23/20 A2990=
200501011400 METAR MRLB 011400Z 05004KT 9999 FEW040 27/20 A2992=
200501011500 METAR MRLB 011500Z 06016KT 9999 SCT040 30/20 A2994=
200501011600 METAR MRLB 011600Z 07014KT 9999 SCT040 31/20 A2993=
200501011700 METAR MRLB 011700Z 08016KT 9999 SCT040 32/20 A2992=
200501011800 METAR MRLB 011800Z 07014KT 9999 SCT040 32/20 A2990=
200501011900 METAR MRLB 011900Z 06013KT 9999 SCT040 32/20 A2986=
200501012000 METAR MRLB 012000Z 05014KT 9999 FEW040 32/20 A2983=
200501012100 METAR MRLB 012100Z 06012KT 9999 FEW040 31/29 A2982=
200501012200 METAR MRLB 012200Z 05018KT 9999 SCT035 31/20 A2982=
200501012300 METAR MRLB 012300Z 06013KT 9999 FEW040 30/19 A2983=
200501020000 METAR MRLB 020000Z 07013KT 9999 SKC 28/19 A2984=
200501020100 METAR MRLB 020100Z 08010KT 9999 SKC 27/20 A2987=
200501020200 METAR MRLB NIL=
200501020300 METAR MRLB NIL=
200501020400 METAR MRLB NIL=
200501020500 METAR MRLB NIL=
200501020600 METAR MRLB NIL=
200501020700 METAR MRLB NIL=
200501020800 METAR MRLB NIL=
200501020900 METAR MRLB NIL=
200501021000 METAR MRLB NIL=
200501021100 METAR MRLB NIL=
200501021200 METAR MRLB NIL=
200501021300 METAR MRLB 021300Z 00000KT 9999 FEW040 26/20 A2988=
200501021400 METAR MRLB 021400Z 09016KT 9999 FEW040 28/20 A2990=
200501021500 METAR MRLB 021500Z 08014KT 9999 FEW040 30/20 A2991=
200501021600 METAR MRLB 021600Z 08020KT 9999 FEW040 31/20 A2991=
200501021700 METAR MRLB 021700Z 09023KT 9999 SCT040 32/20 A2989=
200501021800 METAR MRLB 021800Z 07021KT 9999 FEW040 32/20 A2987=
200501021900 METAR MRLB 021900Z 08016KT 9999 SCT040 33/20 A2984=
200501022000 METAR MRLB 022000Z 10017KT 9999 SCT040 32/21 A2981=
200501022100 METAR MRLB 022100Z 08015KT 9999 SCT040 32/21 A2980=
200501022200 METAR MRLB 022200Z 08016KT 9999 SCT035 BKN080 29/21 A2981=
200501022300 METAR MRLB 022300Z 08012KT 9999 BKN035 29/21 A2982=
200501030000 METAR MRLB 030000Z 06019KT 9999 BKN035 27/21 A2985=
200501030100 METAR MRLB 030100Z 07025KT 9999 SCT035 27/20 A2986=
200501030200 METAR MRLB NIL=
200501030300 METAR MRLB NIL=
200501030400 METAR MRLB NIL=
200501030500 METAR MRLB NIL=
200501030600 METAR MRLB NIL=
200501030700 METAR MRLB NIL=
200501030800 METAR MRLB NIL=
200501030900 METAR MRLB NIL=
200501031000 METAR MRLB NIL=
200501031100 METAR MRLB NIL=
200501031200 METAR MRLB 031200Z 06017KT 9999 SKC 27/19 A2984=
200501031300 METAR MRLB 031300Z 08017KT CAVOK 27/20 A2985=
200501031400 METAR MRLB 031400Z 08018KT CAVOK 28/20 A2988=
200501031500 METAR MRLB 031500Z 08022KT 9999 FEW035 29/19 A2988=
200501031600 METAR MRLB 031600Z 07020KT 9999 SCT040 30/20 A2989=
200501031700 METAR MRLB 031700Z 07019KT 9999 FEW040 32/21 A2987=
200501031800 METAR MRLB 031800Z 06024KT 9999 FEW035 32/20 A2984=
200501031900 METAR MRLB 031900Z 07022KT 9999 FEW035 32/20 A2982=
200501032000 METAR MRLB 032000Z 07021KT 9999 FEW035 32/19 A2980=
200501032100 METAR MRLB 032100Z 06023KT 9999 FEW035 32/19 A2978=
200501032200 METAR MRLB 032200Z 07018KT 9999 FEW040 31/20 A2978=
200501032300 METAR MRLB 032300Z 07019KT 9999 SCT040 29/20 A2979=
200501040000 METAR MRLB 040000Z 07017KT 9999 FEW035 28/20 A2980=
200501040100 METAR MRLB NIL=
200501040200 METAR MRLB NIL=
200501040300 METAR MRLB NIL=
200501040400 METAR MRLB NIL=
200501040500 METAR MRLB NIL=
200501040600 METAR MRLB NIL=
200501040700 METAR MRLB NIL=
200501040800 METAR MRLB NIL=
200501040900 METAR MRLB NIL=
200501041000 METAR MRLB NIL=
200501041100 METAR MRLB NIL=
200501041200 METAR MRLB 041200Z 27004KT 9999 FEW035 23/19 A2984=
200501041300 METAR MRLB 041300Z 22010KT 9999 FEW040 24/19 A2986=
200501041400 METAR MRLB 041400Z 22013KT CAVOK 27/19 A2988=
200501041500 METAR MRLB 041500Z 27006KT CAVOK 29/19 A2988=
200501041600 METAR MRLB 041600Z 09009KT CAVOK 31/17 A2987=
200501041700 METAR MRLB 041700Z 07013KT 9999 FEW040 32/18 A2985=
200501041800 METAR MRLB 041800Z 27005KT 9999 SCT040 32/18 A2982=
200501041900 METAR MRLB 041900Z 08021KT 9999 SCT040 33/19 A2987=
200501042000 METAR MRLB 042000Z 07019KT 9999 SCT040 31/18 A2976=
200501042100 METAR MRLB 042100Z 07022KT 9999 SCT035 29/19 A2975=
200501042200 METAR MRLB 042200Z 07018KT 9999 SCT035 28/19 A2976=
200501042300 METAR MRLB 042300Z 08022KT 9999 SCT035 27/19 A2976=
200501050000 METAR MRLB 050000Z 08021KT 9999 SCT035 26/19 A2977=
200501050100 METAR MRLB 050100Z 08020KT 9999 SCT035 26/19 A2979=
200501050200 METAR MRLB NIL=
200501050300 METAR MRLB NIL=
200501050400 METAR MRLB NIL=
200501050500 METAR MRLB NIL=
200501050600 METAR MRLB NIL=
200501050700 METAR MRLB NIL=
200501050800 METAR MRLB NIL=
200501050900 METAR MRLB NIL=
200501051000 METAR MRLB NIL=
200501051100 METAR MRLB NIL=
200501051200 METAR MRLB 051200Z 08019KT 9999 FEW040 25/18 A2978=
200501051300 METAR MRLB 051300Z 10014KT 9999 FEW040 25/18 A2981=
200501051400 METAR MRLB 051400Z 10016KT 9999 FEW040 27/18 A2983=
200501051500 METAR MRLB 051500Z 07019KT 9999 FEW040 29/18 A2985=
200501051600 METAR MRLB 051600Z 09016KT 9999 FEW040 30/18 A2984=
200501051700 METAR MRLB 051700Z 09017KT 9999 FEW040 30/18 A2983=
200501051800 METAR MRLB 051800Z 08024KT 9999 FEW040 30/18 A2981=
200501051900 METAR MRLB 051900Z 09018KT 9999 FEW040 31/18 A2978=
200501052000 METAR MRLB 052000Z 08018KT 9999 FEW040 31/18 A2975=
200501052100 METAR MRLB 052100Z 09021KT 9999 FEW045 30/18 A2973=
200501052200 METAR MRLB 052200Z 09015KT CAVOK 30/17 A2971=
200501052300 METAR MRLB 052300Z 08013KT 9999 SKC 29/18 A2973=
200501060000 METAR MRLB 060000Z 05005KT 9999 SKC 28/18 A2975=
200501060100 METAR MRLB NIL=
200501060200 METAR MRLB NIL=
200501060300 METAR MRLB NIL=
200501060400 METAR MRLB NIL=
200501060500 METAR MRLB NIL=
200501060600 METAR MRLB NIL=
200501060700 METAR MRLB NIL=
200501060800 METAR MRLB NIL=
200501060900 METAR MRLB NIL=
200501061000 METAR MRLB NIL=
200501061100 METAR MRLB NIL=
200501061200 METAR MRLB NIL=
200501061300 METAR MRLB 061300Z 00000KT 9999 SKC 21/18 A2980=
200501061400 METAR MRLB 061400Z 23003KT 9999 SKC 26/19 A2982=
200501061500 METAR MRLB 061500Z 07015KT 9999 FEW040 29/19 A2981=
200501061600 METAR MRLB 061600Z 09014KT 9999 FEW040 31/19 A2981=
200501061700 METAR MRLB 061700Z 09016KT 9999 FEW040 32/18 A2980=
200501061800 METAR MRLB 061800Z 10021KT 9999 FEW040 32/19 A2978=
200501061900 METAR MRLB 061900Z 08019KT 9999 FEW040 32/18 A2976=
200501062000 METAR MRLB 062000Z 08017KT CAVOK 32/18 A2974=
200501062100 METAR MRLB 062100Z 07014KT CAVOK 32/19 A2972=
200501062200 METAR MRLB 062200Z 07014KT CAVOK 31/19 A2971=
200501062300 METAR MRLB 062300Z 08014KT 9999 SKC 30/19 A2972=
200501070000 METAR MRLB 070000Z 07009KT 9999 SKC 28/19 A2973=
200501070100 METAR MRLB 070100Z 08012KT 9999 SKC 27/19 A2975=
200501070200 METAR MRLB NIL=
200501070300 METAR MRLB NIL=
200501070400 METAR MRLB NIL=
200501070500 METAR MRLB NIL=
200501070600 METAR MRLB NIL=
200501070700 METAR MRLB NIL=
200501070800 METAR MRLB NIL=
200501070900 METAR MRLB NIL=
200501071000 METAR MRLB NIL=
200501071100 METAR MRLB NIL=
200501071200 METAR MRLB NIL=
200501071300 METAR MRLM NIL=
200501071400 METAR MRLB 071400Z 08015KT 9999 SCK 29/19 A2984=
200501071500 METAR MRLB 071500Z 07024KT 9999 SKC 29/19 A2984=
200501071600 METAR MRLB 071600Z 06024KT 9999 SKC 30/19 A2984=
200501071700 METAR MRLB 071700Z 06020KT 9999 SKC 32/19 A2983=
200501071800 METAR MRLB 071800Z 06023KT 9999 SKC 32/19 A2980=
200501071900 METAR MRLB 071900Z 07020KT 9999 SKC 32/19 A2978=
200501072000 METAR MRLB 072000Z 08019KT 9999 FEW035 31/19 A2976=
200501072100 METAR MRLB 072100Z 07022KT 9999 FEW035 31/19 A2976=
200501072200 METAR MRLB 072200Z 07024KT 9999 FEW040 30/19 A2976=
200501072300 METAR MRLB 072300Z 08017KT 9999 SKC 29/18 A2976=
200501072355 METAR MRLB 080000Z 08018KT CAVOK 28/19 A2978=
200501080000 METAR MRLB 080000Z 08018KT CAVOK 28/19 A2978=
200501080100 METAR MRLB 080100Z 08012KT CAVOK 27/19 A2979=
200501080200 METAR MRLB NIL=
200501080300 METAR MRLB NIL=
200501080400 METAR MRLB NIL=
200501080500 METAR MRLB NIL=
200501080600 METAR MRLB NIL=
200501080700 METAR MRLB NIL=
200501080800 METAR MRLB NIL=
200501080900 METAR MRLB NIL=
200501081000 METAR MRLB NIL=
200501081100 METAR MRLB NIL=
200501081200 METAR MRLB NIL=
200501081300 METAR MRLB 081300Z 09018KT 9999 FEW035 27/19 A2983=
200501081400 METAR MRLB 081400Z 08023KT 9999 FEW035 29/20 A2986=
200501081500 METAR MRLB 081500Z 08016KT 9999 FEW035 30/20 A2986=
200501081600 METAR MRLB 081600Z 07019KT 9999 FEW040 32/20 A2986=
200501081700 METAR MRLB 081700Z 07021KT 9999 SCT040 32/20 A2985=
200501081800 METAR MRLB 081800Z 08022KT 9999 FEW035 33/20 A2983=
200501081900 METAR MRLB 081900Z 07019KT 9999 SCT040 32/20 A2982=
200501082000 METAR MRLB 082000Z 08017KT 9999 SCT040 32/19 A2979=
200501082100 METAR MRLB 082100Z 09018KT 9999 FEW035 SCT250 32/20 A2979=
200501082200 METAR MRLB 082200Z 08018KT 9999 SCT035 SCT250 30/19 A2979=
200501082300 METAR MRLB 082300Z 08019KT 9999 FEW035 SCT140 29/20 A2979=
200501090000 METAR MRLB 090000Z 07016KT 9999 FEW035 SCT130 28/20 A2980=
200501090100 METAR MRLB 090100Z 08019KT 9999 FEW020 BKN130 27/20 A2982=
200501090200 METAR MRLB NIL=
200501090300 METAR MRLB NIL=
200501090400 METAR MRLB NIL=
200501090500 METAR MRLB NIL=
200501090600 METAR MRLB NIL=
200501090700 METAR MRLB NIL=
200501090800 METAR MRLB NIL=
200501090900 METAR MRLB NIL=
200501091000 METAR MRLB NIL=
200501091100 METAR MRLB NIL=
200501091200 METAR MRLB NIL=
200501091300 METAR MRLB 091300Z 03005KT CAVOK 27/19 A2983=
200501091400 METAR MRLB 091400Z 02005KT 9999 FEW035 OVC120 28/19 A2986=
200501091500 METAR MRLB 091500Z 07016KT 9999 FEW035 BKN120 31/19 A2984=
200501091600 METAR MRLB 091600Z 09015KT 9999 FEW035 OVC120 30/19 A 2984=
200501091700 METAR MRLB 091700Z 26010KT 9999 FEW035 OVC120 31/19 A2982=
200501091800 METAR MRLB 091800Z 09019KT 9999 FEW035 BKN130 32/18 A2980=
200501091900 METAR MRLB 091900Z 08019KT 9999 FEW035 BKN130 33/18 A2978=
200501092000 METAR MRLB 092000Z 09024KT 9999 FEW035 BKN130 32/18 A2975=
200501092100 METAR MRLB 092100Z 08021KT CAVOK 31/17 A2975=
200501092200 METAR MRLB 092200Z 07014KT CAVOK 31/18 A2975=
200501092300 METAR MRLB 092300Z 10016KT CAVOK 30/18 A2975=
200501100000 METAR MRLB 100000Z 08018KT CAVOK 29/17 A2977=
200501100200 METAR MRLB NIL=
200501100300 METAR MRLB NIL=
200501100400 METAR MRLB NIL=
200501100500 METAR MRLB NIL=
200501100600 METAR MRLB NIL=
200501100700 METAR MRLB NIL=
200501100800 METAR MRLB NIL=
200501100900 METAR MRLB NIL=
200501101000 METAR MRLB NIL=
200501101100 METAR MRLB NIL=
200501101200 METAR MRLB NIL=
200501101300 METAR MRLB 101300Z 21004KT CAVOK 23/18 A2982=
200501101400 METAR MRLB 101400Z 32006KT CAVOK 28/18 A2987=
200501101500 METAR MRLB 101500Z 19003KT CAVOK 30/18 A2987=
200501101600 METAR MRLB NIL=
200501101700 METAR MRLB 101700Z 08015KT CAVOK 32/17 A2983=
200501101800 METAR MRLB 101800Z 04017KT CAVOK 34/18 A2981=
200501101900 METAR MRLB 101900Z 08016KT CAVOK 33/17 A2979=
200501102000 METAR MRLB 102000Z 07020KT CAVOK 33/18 A2976=
200501102100 METAR MRLB 102100Z 07019KT CAVOK 32/18 A2975=
200501102200 METAR MRLB 102200Z 05011KT CAVOK 31/18 A2975=
200501102300 METAR MRLB 102300Z 09012KT CAVOK 29/17 A2976=
200501110000 METAR MRLB 110000Z 07007KT CAVOK 28/17 A2977=
200501110100 METAR MRLB 110100Z 11011KT CAVOK 27/18 A2979=
200501110200 METAR MRLB NIL=
200501110300 METAR MRLB NIL=
200501110400 METAR MRLB NIL=
200501110500 METAR MRLB NIL=
200501110600 METAR MRLB NIL=
200501110700 METAR MRLB NIL=
200501110800 METAR MRLB NIL=
200501110900 METAR MRLB NIL=
200501111000 METAR MRLB NIL=
200501111100 METAR MRLB NIL=
200501111200 METAR MRLB NIL=
200501111300 METAR MRLB 111300Z 06003KT 9999 FEW030 SCT140 23/19 A2984=
200501111400 METAR MRLB 111400Z 31004KT 9999 FEW035 SCT140 26/19 A2987=
200501111500 METAR MRLB 111500Z 21003KT 9999 FEW035 SCT140 28/19 A2988=
200501111600 METAR MRLB 111600Z 07011KT CAVOK 31/19 A2986=
200501111700 METAR MRLB 111700Z 07013KT 9999 FEW035 BKN140 33/19 A2986=
200501111800 METAR MRLB 111800Z 09014KT 9999 FEW035 BKN140 32/19 A2982=
200501111900 METAR MRLB 111900Z 06019KT 9999 FEW040 BKN130 33/19 A2980=
200501112000 METAR MRLB 112000Z 09014KT 9999 FEW040 BKN130 32/19 A2978=
200501112100 METAR MRLB 112100Z 09019KT 9999 FEW035 OVC130 31/19 A2976=
200501112200 METAR MRLB 112200Z 10012KT 9999 FEW035 BKN130 30/19 A2976=
200501112300 METAR MRLB 112300Z 09011KT 9999 FEW035 SCT130 29/19 A2977=
200501120000 METAR MRLB 120000Z 08010KT 9999 FEW035 BKN130 28/19 A2979=
200501120100 METAR MRLB 120100Z 08013KT 9999 FEW030 BKN130 27/19 A2981=
200501120200 METAR MRLB NIL=
200501120300 METAR MRLB NIL=
200501120400 METAR MRLB NIL=
200501120500 METAR MRLB NIL=
200501120600 METAR MRLB NIL=
200501120700 METAR MRLB NIL=
200501120800 METAR MRLB NIL=
200501120900 METAR MRLB NIL=
200501121000 METAR MRLB NIL=
200501121100 METAR MRLB NIL=
200501121200 METAR MRLB NIL=
200501121300 METAR MRLB 121300Z 00000KT CAVOK 22/19 A2982=
200501121400 METAR MRLB 121400Z 27004KT CAVOK 25/20 A2986=
200501121500 METAR MRLB 121500Z 28004KT CAVOK 28/21 A2987=
200501121600 METAR MRLB 121600Z 06010KT 9999 FEW035 32/20 A2987=
200501121700 METAR MRLB 121700Z 09015KT 9999 SCT035 32/20 A2985=
200501121800 METAR MRLB 121800Z 08018KT 9999 SCT035 33/20 A2982=
200501121900 METAR MRLB 121900Z 09015KT 9999 SCT040 32/21 A2978=
200501122000 METAR MRLB 122000Z 07013KT 9999 SCT040 33/21 A2977=
200501122100 METAR MRLB 122100Z 08020KT 9999 SCT035 32/20 A2975=
200501122200 METAR MRLB 122200Z 09009KT 9999 SCT035 31/21 A2975=
200501122300 METAR MRLB 122300Z 08014KT 9999 FEW035 SCT250 29/21 A2976=
200501130000 METAR MRLB 130000Z 06009KT 9999 FEW030 SCT250 28/20 A2978=
200501130100 METAR MRLB 130100Z 08006KT 9999 FEW030 27/21 A2981=
200501130200 METAR MRLB NIL=
200501130300 METAR MRLB NIL=
200501130400 METAR MRLB NIL=
200501130500 METAR MRLB NIL=
200501130600 METAR MRLB NIL=
200501130700 METAR MRLB NIL=
200501130800 METAR MRLB NIL=
200501130900 METAR MRLB NIL=
200501131000 METAR MRLB NIL=
200501131100 METAR MRLB NIL=
200501131200 METAR MRLB NIL=
200501131300 METAR MRLB 131300Z 00000KT 9999 SKC 22/20 A2984=
200501131400 METAR MRLB 131400Z 00000KT 9999 SKC 26/21 A2987=
200501131500 METAR MRLB 131500Z 29003KT 9999 SKC 28/21 A2989=
200501131600 METAR MRLB 131600Z 04003KT 9999 FEW040 31/21 A2988=
200501131700 METAR MRLB 131700Z 13007KT 9999 SCT040 32/20 A2985=
200501131800 METAR MRLB 131800Z 23003KT 9999 SCT040 33/20 A2982=
200501131900 METAR MRLB 131900Z 19004KT 9999 BKN035 34/20 A2979=
200501132000 METAR MRLB 132000Z 26010KT 9999 BKN035 32/22 A2977=
200501132100 METAR MRLB 132100Z 26008KT 9999 SCT035 32/22 A2976=
200501132200 METAR MRLB 132200Z 28010KT 9999 BKN035 31/21 2976=
200501132300 METAR MRLB 132300Z 29008KT 9999 FEW035 30/22 A2977=
200501140000 METAR MRLB 140000Z 29005KT 9999 FEW035 28/22 A2979=
200501140100 METAR MRLB 140100Z 00000KT 9999 FEW035 27/22 A2982=
200501140200 METAR MRLB NIL=
200501140300 METAR MRLB NIL=
200501140400 METAR MRLB NIL=
200501140500 METAR MRLB NIL=
200501140600 METAR MRLB NIL=
200501140700 METAR MRLB NIL=
200501140800 METAR MRLB NIL=
200501140900 METAR MRLB NIL=
200501141000 METAR MRLB NIL=
200501141100 METAR MRLB NIL=
200501141200 METAR MRLB NIL=
200501141300 METAR MRLB 141300Z 00000KT 9999 SKC 23/21 A2989=
200501141400 METAR MRLB 141400Z 00000KT 9999 SKC 27/22 A2993=
200501141500 METAR MRLB 141500Z 00000KT CAVOK 30/23 A2995=
200501141600 METAR MRLB 141600Z 30007KT 9999 FEW040 26/17 A3011=
200501141700 METAR MRLB 141700Z 25005KT 9999 SCT040 32/22 A2990=
200501141800 METAR MRLB 141800Z 27007KT 9999 SCT040 33/22 A2988=
200501141900 METAR MRLB 141900Z 33008KT 9999 SCT040 34/21 A2983=
200501142000 METAR MRLB 142000Z 06009KT 9999 SCT040 SCT250 33/21 A2981=
200501142200 METAR MRLB 142200Z 07008KT 9999 FEW040 BKN250 32/21 A2980=
200501142300 METAR MRLB 142300Z 08016KT 9999 FEW040 BKN250 30/21 A2980=
200501150000 METAR MRLB 150000Z 06017KT 9999 FEW040 BKN250 28/20 A2981=
200501150100 METAR MRLB 150100Z 08018KT CAVOK 28/20 A2982=
200501150200 METAR MRLB NIL=
200501150300 METAR MRLB NIL=
200501150400 METAR MRLB NIL=
200501150500 METAR MRLB NIL=
200501150600 METAR MRLB NIL=
200501150700 METAR MRLB NIL=
200501150800 METAR MRLB NIL=
200501150900 METAR MRLB NIL=
200501151000 METAR MRLB NIL=
200501151100 METAR MRLB NIL=
200501151200 METAR MRLB NIL=
200501151300 METAR MRLB 151300Z 22009KT 9999 SCT030 BKN250 26/20 A2988=
200501151400 METAR MRLB 151400Z 20007KT 9999 FEW035 BKN140 29/20 A2991=
200501151500 METAR MRLB 151500Z 10012KT 9999 FEW035 BKN140 30/19 A2991=
200501151600 METAR MRLB 151600Z 10003KT 9999 FEW035 OVC140 32/18 A2992=
200501151700 METAR MRLB 151700Z 06016KT 9999 FEW035 BKN140 33/18 A2990=
200501151800 METAR MRLB 151800Z 08013KT 9999 FEW035 BKN140 33/17 A2989=
200501151900 METAR MRLB 151900Z 07014KT 9999 FEW040 SCT130 34/18 A2985=
200501152000 METAR MRLB 152000Z 08014KT 9999 FEW040 SCT130 BKN250 33/19 A2983=
200501152100 METAR MRLB 152100Z 07015KT 9999 SCT035 BKN250 33/19 A2982=
200501152200 METAR MRLB 152200Z 08016KT 9999 SCT035 SCT250 31/19 A2983=
200501152300 METAR MRLB 152300Z 07016KT 9999 FEW035 BKN250 30/20 A2983=
200501160000 METAR MRLB 160000Z 06015KT 9999 SCT035 BKN250 28/19 A2987=
200501160100 METAR MRLB 160100Z 07014KT 9999 SCT030 BKN250 27/20 A2980=
200501160200 METAR MRLB NIL=
200501160300 METAR MRLB NIL=
200501160400 METAR MRLB NIL=
200501160500 METAR MRLB NIL=
200501160600 METAR MRLB NIL=
200501160700 METAR MRLB NIL=
200501160800 METAR MRLB NIL=
200501160900 METAR MRLB NIL=
200501161000 METAR MRLB NIL=
200501161100 METAR MRLB NIL=
200501161200 METAR MRLB NIL=
200501161300 METAR MRLB 161300Z 05010KT 9999 SCT030 BKN250 26/20 A2992=
200501161400 METAR MRLB 161400Z 07011KT 9999 SCT030 BKN140 27/20 A2994=
200501161500 METAR MRLB 161500Z 05004KT 9999 SCT035 OVC140 28/19 A2994=
200501161600 METAR MRLB 161600Z 09015KT 9999 SCT035 BKN140 29/19 A2992=
200501161700 METAR MRLB 161700Z 08016KT 9999 SCT035 SCT140 31/19 A2991=
200501161800 METAR MRLB 161800Z 07022KT 9999 FEW035 SCT140 32/18 A2987=
200501161900 METAR MRLB 161900Z 09012KT 9999 SCT035 BKN130 32/19 A2985=
200501162000 METAR MRLB 162000Z 07015KT 9999 SCT035 BKN130 33/18 A2983=
200501162100 METAR MRLB 162100Z 06016KT 9999 FEW035 BKN130 32/18 A2982=
200501162200 METAR MRLB 162200Z 08017KT 9999 SCT035 SCT130 31/17 A2982=
200501162300 METAR MRLB 162300Z 07017KT 9999 SCT030 BKN250 29/18 A2984=
200501162350 METAR MRLB 170000Z 07014KT 9999 SCT030 BKN250 28/18 A2987=
200501170000 METAR MRLB 170000Z 07014KT 9999 SCT030 BKN250 28/18 A2987=
200501170100 METAR MRLB 170100Z 27005KT 9999 SCT030 BKN250 27/18 A2988=
200501170200 METAR MRLB NIL=
200501170300 METAR MRLB NIL=
200501170400 METAR MRLB NIL=
200501170500 METAR MRLB NIL=
200501170600 METAR MRLB NIL=
200501170700 METAR MRLB NIL=
200501170800 METAR MRLB NIL=
200501170900 METAR MRLB NIL=
200501171000 METAR MRLB NIL=
200501171100 METAR MRLB NIL=
200501171200 METAR MRLB NIL=
200501171300 METAR MRLB 171300Z 20010KT 9999 FEW040 23/16 A2992=
200501171400 METAR MRLB 171400Z 20011KT 9999 FEW040 26/16 A2994=
200501171500 METAR MRLB 171500Z 24011KT 9999 FEW040 28/16 A2995=
200501171600 METAR MRLB 171600Z 24011KT 9999 FEW040 30/16 A2994=
200501171700 METAR MRLB 171700Z 16005KT 9999 FEW040 31/15 A2992=
200501171800 METAR MRLB 171800Z 24007KT 9999 FEW040 32/15 A2988=
200501171900 METAR MRLB 171900Z 10015KT 9999 FEW040 31/15 A2985=
200501172000 METAR MRLB 172000Z 12016KT 9999 FEW040 31/15 A2983=
200501172100 METAR MRLB 172100Z 08014KT CAVOK 32/14 A2982=
200501172200 METAR MRLB 172200Z 08016KT CAVOK 29/15 A2983=
200501172300 METAR MRLB 172300Z 10012KT CAVOK 28/15 A2984=
200501180000 METAR MRLB 180000Z 09010KT CAVOK 27/15 A2986=
200501180100 METAR MRLB 180100Z 10008KT CAVOK 26/15 A2988=
200501180200 METAR MRLB NIL=
200501180300 METAR MRLB NIL=
200501180400 METAR MRLB NIL=
200501180500 METAR MRLB NIL=
200501180600 METAR MRLB NIL=
200501180700 METAR MRLB NIL=
200501180800 METAR MRLB NIL=
200501180900 METAR MRLB NIL=
200501181000 METAR MRLB NIL=
200501181100 METAR MRLB NIL=
200501181200 METAR MRLB NIL=
200501181300 METAR MRLB 181300Z 22006KT CAVOK 22/15 A2991=
200501181400 METAR MRLB 181400Z 24008KT CAVOK 26/15 A2995=
200501181500 METAR MRLB 181500Z 24009KT CAVOK 27/16 A2997=
200501181600 METAR MRLB 181600Z 00000KT 9999 FEW040 29/16 A2995=
200501181700 METAR MRLB 181700Z 27004KT 9999 FEW040 30/16 A2994=
200501181800 METAR MRLB 181800Z 08009KT 9999 FEW040 32/16 A2992=
200501181900 METAR MRLB 181900Z 06010KT 9999 FEW040 32/15 A2988=
200501182000 METAR MRLB 182000Z 12008KT 9999 FEW040 32/15 A2985=
200501182100 METAR MRLB 182100Z 01008KT 9999 FEW040 31/16 A2984=
200501182200 METAR MRLB 182200Z 03005KT CAVOK 31/16 A2984=
200501182300 METAR MRLB 182300Z 00000KT 9999 SKC 29/15 A2986=
200501190000 METAR MRLB 190000Z 00000KT 9999 SKC 27/15 A2987=
200501190100 METAR MRLB 190100Z 04005KT 9999 SKC 26/16 A2987=
200501190200 METAR MRLB NIL=
200501190300 METAR MRLB NIL=
200501190400 METAR MRLB NIL=
200501190500 METAR MRLB NIL=
200501190600 METAR MRLB NIL=
200501190700 METAR MRLB NIL=
200501190800 METAR MRLB NIL=
200501190900 METAR MRLB NIL=
200501191000 METAR MRLB NIL=
200501191100 METAR MRLB NIL=
200501191200 METAR MRLB NIL=
200501191300 METAR MRLB 191300Z 20006KT CAVOK 21/14 A2991=
200501191400 METAR MRLB 191400Z 23009KT CAVOK 26/13 A2994=
200501191500 METAR MRLB 191500Z 23012KT CAVOK 29/12 A2995=
200501191600 METAR MRLB 191600Z 27010KT CAVOK 30/12 A2994=
200501191700 METAR MRLB 191700Z 34005KT CAVOK 31/13 A2993=
200501191800 METAR MRLB 191800Z 10010KT CAVOK 32/14 A2990=
200501191900 METAR MRLB 191900Z 03006KT CAVOK 32/14 A2987=
200501192000 METAR MRLB 192000Z 12009KT CAVOK 32/15 A2983=
200501192100 METAR MRLB 192100Z 14008KT CAVOK 32/16 A2982=
200501192200 METAR MRLB 192200Z 06007KT CAVOK 32/16 A2982=
200501192300 METAR MRLB 192300Z 10008KT CAVOK 29/16 A2985=
200501200000 METAR MRLB 200000Z 21004KT CAVOK 27/16 A2986=
200501200100 METAR MRLB NIL=
200501200200 METAR MRLB NIL=
200501200300 METAR MRLB 200300Z 08016KT 9999 SKC 30/13 A2986=
200501200400 METAR MRLB NIL=
200501200500 METAR MRLB NIL=
200501200600 METAR MRLB NIL=
200501200700 METAR MRLB NIL=
200501200800 METAR MRLB NIL=
200501200900 METAR MRLB NIL=
200501201000 METAR MRLB NIL=
200501201100 METAR MRLB NIL=
200501201200 METAR MRLB NIL=
200501201300 METAR MRLB NIL=
200501201400 METAR MRLB 201400Z 23004KT 9999 SKC 24/15 A2996=
200501201500 METAR MRLB 201500Z 29004KT 9999 SKC 28/14 A2997=
200501201600 METAR MRLB 201600Z 25009KT 9999 SKC 30/14 A2997=
200501201700 METAR MRLB 201700Z 24004KT 9999 SKC 32/13 A2995=
200501201800 METAR MRLB 201800Z 09014KT 9999 SKC 32/12 A2994=
200501201900 METAR MRLB 201900Z 09016KT 9999 SKC 32/13 A2992=
200501202000 METAR MRLB 202000Z 09013KT 9999 SKC 32/14 A2988=
200501202100 METAR MRLB 202100Z 08016KT 9999 SKC 30/13 A2986=
200501202200 METAR MRLB 202200Z 07014KT 9999 SKC 30/14 A2986=
200501202300 METAR MRLB 202300Z 10015KT 9999 SKC 28/14 A2987=
200501210000 METAR MRLB 210000Z 08009KT 9999 SKC 26/15 A2989=
200501210100 METAR MRLB 210100Z 07011KT 9999 SKC 25/15 A2992=
200501210200 METAR MRLB NIL=
200501210300 METAR MRLB NIL=
200501210400 METAR MRLB NIL=
200501210500 METAR MRLB NIL=
200501210600 METAR MRLB NIL=
200501210700 METAR MRLB NIL=
200501210800 METAR MRLB NIL=
200501210900 METAR MRLB NIL=
200501211000 METAR MRLB NIL=
200501211100 METAR MRLB NIL=
200501211200 METAR MRLB NIL=
200501211300 METAR MRLB 211300Z 00000KT CAVOK 20/15 A2995=
200501211400 METAR MRLB 211400Z 00000KT 9999 SKC 23/15 A2997=
200501211500 METAR MRLB 211500Z 22005KT 9999 SKC 26/15 A2999=
200501211600 METAR MRLB 211600Z 00000KT 9999 SKC 28/14 A2998=
200501211700 METAR MRLB 211700Z 00000KT 9999 SKC 32/15 A2996=
200501211800 METAR MRLB 211800Z 08006KT 9999 SKC 33/15 A2993=
200501211900 METAR MRLB 211900Z 10011KT 9999 SKC 32/15 A2991=
200501212000 METAR MRLB 212000Z 09014KT 9999 SKC 32/15 A2988=
200501212200 METAR MRLB 212200Z 08014KT 9999 SKC 30/15 A2986=
200501220000 METAR MRLB 220000Z 08010KT 9999 SKC 27/16 A2988=
200501220100 METAR MRLB 220100Z 09012KT 9999 SKC 25/16 A2990=
200501220200 METAR MRLB NIL=
200501220300 METAR MRLB NIL=
200501220400 METAR MRLB NIL=
200501220500 METAR MRLB NIL=
200501220600 METAR MRLB NIL=
200501220700 METAR MRLB NIL=
200501220800 METAR MRLB NIL=
200501220900 METAR MRLB NIL=
200501221000 METAR MRLB NIL=
200501221100 METAR MRLB NIL=
200501221200 METAR MRLB NIL=
200501221300 METAR MRLB 221300Z 05003KT 9999 SKC 19/15 A2996=
200501221400 METAR MRLB 221400Z 00000KT 9999 SKC 23/16 A2999=
200501221500 METAR MRLB 221500Z 27004KT 9999 SKC 26/15 A3001=
200501221600 METAR MRLB 221600Z 35004KT 9999 SKC 29/14 A2999=
200501221700 METAR MRLB 221700Z 07006KT 9999 SKC 32/13 A2997=
200501221800 METAR MRLB 221800Z 10011KT 9999 SKC 32/13 A2995=
200501221900 METAR MRLB 221900Z 09010KT 9999 SKC 33/15 A2991=
200501222000 METAR MRLB 222000Z 09009KT 9999 SKC 33/16 A2988=
200501222100 METAR MRLB 222100Z 07013KT CAVOK 32/17 A2987=
200501222200 METAR MRLB 222200Z 10009KT CAVOK 32/16 A2986=
200501222300 METAR MRLB 222300Z 07012KT CAVOK 30/17 A2988=
200501230000 METAR MRLB NIL=
200501230100 METAR MRLB 230100Z 08006KT CAVOK 26/16 A2991=
200501230200 METAR MRLB NIL=
200501230300 METAR MRLB NIL=
200501230400 METAR MRLB NIL=
200501230500 METAR MRLB NIL=
200501230600 METAR MRLB NIL=
200501230700 METAR MRLB NIL=
200501230800 METAR MRLB NIL=
200501230900 METAR MRLB NIL=
200501231000 METAR MRLB NIL=
200501231100 METAR MRLB NIL=
200501231200 METAR MRLB NIL=
200501231300 METAR MRLB 231300Z 00000KT 9999 SKC 21/17 A2996=
200501231400 METAR MRLB 231400Z 25003KT 9999 SKC 24/19 A2998=
200501231500 METAR MRLB 231500Z 00000KT 9999 SKC 28/19 A3000=
200501231600 METAR MRLB 231600Z 05003KT 9999 SKC 31/18 A2999=
200501231700 METAR MRLB 231700Z 05006KT 9999 SKC 32/17 A2996=
200501231800 METAR MRLB 231800Z 09011KT 9999 FEW035 34/17 A2993=
200501231900 METAR MRLB 231900Z 10010KT 9999 FEW040 34/16 A2990=
200501232000 METAR MRLB 232000Z 07010KT 9999 SCT040 34/16 A2987=
200501232100 METAR MRLB 232100Z 08011KT 9999 SCT035 32/16 A2986=
200501232200 METAR MRLB 232200Z 06010KT 9999 FEW035 SCT250 33/17 A2986=
200501232300 METAR MRLB 232300Z 09010KT 9999 FEW040 BKN250 31/18 A2988=
200501240000 METAR MRLB 240000Z 07010KT 9999 FEW035 BKN250 28/19 A2990=
200501240100 METAR MRLB NIL=
200501240200 METAR MRLB NIL=
200501240300 METAR MRLB NIL=
200501240400 METAR MRLB NIL=
200501240500 METAR MRLB NIL=
200501240600 METAR MRLB NIL=
200501240700 METAR MRLB NIL=
200501240800 METAR MRLB NIL=
200501240900 METAR MRLB NIL=
200501241000 METAR MRLB NIL=
200501241100 METAR MRLB NIL=
200501241200 METAR MRLB NIL=
200501241300 METAR MRLB 241300Z 00000KT CAVOK 22/18 A3001=
200501241400 METAR MRLB 241400Z 22004KT CAVOK 25/18 A3004=
200501241500 METAR MRLB 241500Z 26006KT CAVOK 28/18 A3005=
200501241600 METAR MRLB 241600Z 33005KT CAVOK 30/16 A3003=
200501241700 METAR MRLB 241700Z 29007KT CAVOK 31/16 A3000=
200501241800 METAR MRLB 241800Z 10006KT CAVOK 34/14 A2996=
200501241900 METAR MRLB 241900Z 09015KT CAVOK 33/14 A2993=
200501242000 METAR MRLB 242000Z 08012KT CAVOK 32/15 A2991=
200501242100 METAR MRLB 242100Z 08014KT CAVOK 32/15 A2990=
200501242200 METAR MRLB 242200Z 08016KT CAVOK 30/16 A2989=
200501242300 METAR MRLB 242300Z 08015KT CAVOK 29/16 A2989=
200501250000 METAR MRLB NIL=
200501250100 METAR MRLB NIL=
200501250200 METAR MRLB NIL=
200501250300 METAR MRLB NIL=
200501250400 METAR MRLB NIL=
200501250500 METAR MRLB NIL=
200501250600 METAR MRLB NIL=
200501250700 METAR MRLB NIL=
200501250800 METAR MRLB NIL=
200501250900 METAR MRLB NIL=
200501251000 METAR MRLB NIL=
200501251100 METAR MRLB NIL=
200501251200 METAR MRLB NIL=
200501251300 METAR MRLB 251300Z 00000KT 9999 SKC 20/16 A2992=
200501251400 METAR MRLB 251400Z 00000KT CAVOK 26/16 A2996=
200501251500 METAR MRLB 251500Z 25007KT 9999 SKC 27/16 A2996=
200501251600 METAR MRLB 251600Z 00000KT 9999 SKC 30/15 A2997=
200501251700 METAR MRLB 251700Z 07011KT 9999 SKC 31/16 A2994=
200501251800 METAR MRLB 251800Z 06017KT CAVOK 32/16 A2992=
200501251900 METAR MRLB 251900Z 08019KT 9999 FEW040 32/16 A2987=
200501252100 METAR MRLB 252100Z 09017KT 9999 FEW040 31/17 A2983=
200501252200 METAR MRLB 252200Z 08012KT 9999 FEW040 31/16 A2983=
200501252300 METAR MRLB 252300Z 09016KT 9999 SKC 30/15 A2982=
200501260000 METAR MRLB 260000Z 09011KT 9999 SKC 28/16 A2982=
200501260100 METAR MRLB 260100Z 09012KT 9999 SKC 27/16 A2984=
200501260200 METAR MRLB NIL=
200501260300 METAR MRLB NIL=
200501260400 METAR MRLB NIL=
200501260500 METAR MRLB NIL=
200501260600 METAR MRLB NIL=
200501260700 METAR MRLB NIL=
200501260800 METAR MRLB NIL=
200501260900 METAR MRLB NIL=
200501261000 METAR MRLB NIL=
200501261100 METAR MRLB NIL=
200501261200 METAR MRLB NIL=
200501261300 METAR MRLB 261300Z 00000KT 9999 SKC 23/17 A2985=
200501261400 METAR MRLB 261400Z 26004KT 9999 SKC 26/18 A2988=
200501261500 METAR MRLB 261500Z 09008KT 9999 SKC 30/17 A2989=
200501261600 METAR MRLB 261600Z 05005KT 9999 SKC 30/17 A2989=
200501261700 METAR MRLB 261700Z 09014KT 9999 SKC 32/19 A2987=
200501261800 METAR MRLB 261800Z 10015KT 9999 SKC 32/17 A2985=
200501261900 METAR MRLB 261900Z 09016KT 9999 FEW040 32/17 A2982=
200501262000 METAR MRLB 262000Z 10016KT 9999 FEW040 32/17 A2980=
200501262100 METAR MRLB 262100Z 08015KT CAVOK 32/17 A2979=
200501262200 METAR MRLB 262200Z 08012KT CAVOK 31/17 A2978=
200501262300 METAR MRLB 262300Z 08015KT 9999 SKC 29/17 A2978=
200501270000 METAR MRLB 270000Z 34003KT 9999 BKN040 SCT080 25/21 A2988=
200501270100 METAR MRLB 270100Z 09011KT 9999 SKC 27/17 A2980=
200501270200 METAR MRLB NIL=
200501270300 METAR MRLB NIL=
200501270400 METAR MRLB NIL=
200501270500 METAR MRLB NIL=
200501270600 METAR MRLB NIL=
200501270700 METAR MRLB NIL=
200501270800 METAR MRLB NIL=
200501270900 METAR MRLB NIL=
200501271000 METAR MRLB NIL=
200501271100 METAR MRLB NIL=
200501271200 METAR MRLB NIL=
200501271300 METAR MRLB 271300Z 00000KT 9999 SKC 23/17 A2988=
200501271500 METAR MRLB 271500Z 28004KT 9999 SKC 27/17 A2992=
200501271600 METAR MRLB 271600Z 26006KT 9999 SKC 30/17 A2991=
200501271700 METAR MRLB 271700Z 28005KT 9999 SKC 31/16 A2988=
200501271800 METAR MRLB 271800Z 03004KT 9999 SKC 33/16 A2985=
200501271900 METAR MRLB 271900Z 10006KT 9999 SKC 34/16 A2983=
200501272000 METAR MRLB 272000Z 10010KT 9999 SKC 34/17 A2980=
200501272100 METAR MRLB NIL=
200501272200 METAR MRLB NIL=
200501272300 METAR MRLB 272300Z 09010KT 9999 SKC 31/17 A2979=
200501280000 METAR MRLB 280000Z 08007KT 9999 SKC 29/17 A2980=
200501280100 METAR MRLB 280100Z 08008KT 9999 SKC 27/18 A2981=
200501280200 METAR MRLB NIL=
200501280300 METAR MRLB NIL=
200501280400 METAR MRLB NIL=
200501280500 METAR MRLB NIL=
200501280600 METAR MRLB NIL=
200501280700 METAR MRLB NIL=
200501280800 METAR MRLB NIL=
200501280900 METAR MRLB NIL=
200501281000 METAR MRLB NIL=
200501281100 METAR MRLB NIL=
200501281200 METAR MRLB NIL=
200501281300 METAR MRLB 281300Z 22006KT 9999 FEW030 SCT140 25/19 A2986=
200501281400 METAR MRLB 281400Z 28005KT 9999 FEW030 SCT140 26/19 A2987=
200501281500 METAR MRLB 281500Z 00000KT 9999 FEW035 SCT140 30/19 A2988=
200501281600 METAR MRLB 281600Z 25004KT 9999 FEW035 BKN140 33/20 A2987=
200501281700 METAR MRLB 281700Z 08017KT 9999 FEW035 BKN250 33/20 A2984=
200501281800 METAR MRLB 281800Z 08020KT 9999 FEW035 BKN250 34/20 A2981=
200501281900 METAR MRLB 281900Z 09016KT 9999 FEW035 SCT130 BKN250 33/20 A2978=
200501282000 METAR MRLB 282000Z 08015KT 9999 FEW035 BKN130 33/20 A2976=
200501282100 METAR MRLB 282100Z 08016KT 9999 FEW035 BKN130 32/19 A2975=
200501282200 METAR MRLB 282200Z 08017KT 9999 FEW035 SCT130 31/19 A2974=
200501282300 METAR MRLB 282300Z 08015KT CAVOK 31/19 A2974=
200501290000 METAR MRLB 290000Z 08012KT CAVOK 28/20 A2976=
200501290100 METAR MRLB 290100Z 09017KT CAVOK 28/19 A2977=
200501290200 METAR MRLB NIL=
200501290300 METAR MRLB NIL=
200501290400 METAR MRLB NIL=
200501290500 METAR MRLB NIL=
200501290600 METAR MRLB NIL=
200501290700 METAR MRLB NIL=
200501290800 METAR MRLB NIL=
200501290900 METAR MRLB NIL=
200501291000 METAR MRLB NIL=
200501291100 METAR MRLB NIL=
200501291200 METAR MRLB NIL=
200501291300 METAR MRLB 291300Z 06007KT CAVOK 26/18 A2984=
200501291400 METAR MRLB 291400Z 05013KT CAVOK 28/19 A2986=
200501291500 METAR MRLB 291500Z 02006KT 9999 FEW040 30/19 A2987=
200501291700 METAR MRLB 291700Z 08021KT 9999 FEW040 SCT250 32/19 A2983=
200501291800 METAR MRLB 291800Z 08022KT 9999 SCT040 33/19 A2982=
200501291900 METAR MRLB 291900Z 06020KT 9999 SCT040 34/18 A2979=
200501292000 METAR MRLB 292000Z 07016KT 9999 FEW040 SCT250 34/19 A2975=
200501292100 METAR MRLB 292100Z 07022KT 9999 FEW040 SCT250 34/18 A2973=
200501292200 METAR MRLB 292200Z 07019KT CAVOK 33/18 A2973=
200501292300 METAR MRLB 292300Z 08017KT CAVOK 31/19 A2974=
200501300000 METAR MRLB 300000Z 08020KT CAVOK 29/19 A2975=
200501300100 METAR MRLB 300100Z 08015KT CAVOK 28/19 A2978=
200501300200 METAR MRLB NIL=
200501300300 METAR MRLB NIL=
200501300400 METAR MRLB NIL=
200501300500 METAR MRLB NIL=
200501300600 METAR MRLB NIL=
200501300700 METAR MRLB NIL=
200501300800 METAR MRLB NIL=
200501300900 METAR MRLB NIL=
200501301000 METAR MRLB NIL=
200501301100 METAR MRLB NIL=
200501301200 METAR MRLB NIL=
200501301300 METAR MRLB 301300Z 07010KT 9999 SKC 26/19 A2982=
200501301400 METAR MRLB 301400Z 06015KT 9999 SKC 29/19 A2984=
200501301500 METAR MRLB 301500Z 06015KT 9999 FEW040 30/19 A2985=
200501301600 METAR MRLB 301600Z 05016KT 9999 FEW040 32/19 A2984=
200501301700 METAR MRLB 301700Z 06016KT 9999 FEW040 33/18 A2983=
200501301800 METAR MRLB 301800Z 05010KT 9999 SCT040 34/18 A2986=
200501301900 METAR MRLB 301900Z 04009KT 9999 SCT040 34/18 A2977=
200501302000 METAR MRLB 302000Z 05014KT 9999 SCT040 33/17 A2974=
200501302100 METAR MRLB 302100Z 04013KT 9999 SCT040 33/18 A2973=
200501302200 METAR MRLB 302200Z 06017KT 9999 SCT040 32/18 A2972=
200501302300 METAR MRLB 302300Z 07015KT 9999 FEW040 31/18 A2974=
200501310000 METAR MRLB 310000Z 07015KT 9999 SKC 29/17 A2975=
200501310100 METAR MRLB NIL=
200501310200 METAR MRLB NIL=
200501310300 METAR MRLB NIL=
200501310400 METAR MRLB NIL=
200501310500 METAR MRLB NIL=
200501310600 METAR MRLB NIL=
200501310700 METAR MRLB NIL=
200501310800 METAR MRLB NIL=
200501310900 METAR MRLB NIL=
200501311000 METAR MRLB NIL=
200501311100 METAR MRLB NIL=
200501311200 METAR MRLB NIL=
200501311300 METAR MRLB 311300Z 05014KT 9999 SKC 26/16 A2981=
200501311400 METAR MRLB 311400Z 06013KT 9999 SKC 28/17 A2983=
200501311500 METAR MRLB 311500Z 08014KT 9999 FEW035 30/17 A2985=
200501311600 METAR MRLB 311600Z 08013KT 9999 FEW040 31/17 A2984=
200501311700 METAR MRLB 311700Z 07019KT 9999 FEW040 31/18 A2982=
200501311800 METAR MRLB 311800Z 06021KT 9999 FEW035 31/17 A2988 NOSIG=
200501311900 METAR MRLB 311900Z 07021KT 9999 FEW040 32/18 A2978=
200501312000 METAR MRLB 312000Z 08017KT 9999 SCT035 32/17 A2975=
200501312100 METAR MRLB 312100Z 07021KT 9999 FEW035 31/18 A2974=
200501312200 METAR MRLB 312200Z 06018KT 9999 FEW035 30/18 A2973=
200501312300 METAR MRLB 312300Z 07015KT CAVOK 29/18 A2973=
200502010000 METAR MRLB 010000Z 08015KT CAVOK 28/18 A2974=
200502010100 METAR MRLB 010100Z 09018KT CAVOK 27/18 A2975=
200502010200 METAR MRLB NIL=
200502010300 METAR MRLB NIL=
200502010400 METAR MRLB NIL=
200502010500 METAR MRLB NIL=
200502010600 METAR MRLB NIL=
200502010700 METAR MRLB NIL=
200502010800 METAR MRLB NIL=
200502010900 METAR MRLB NIL=
200502011000 METAR MRLB NIL=
200502011100 METAR MRLB NIL=
200502011200 METAR MRLB NIL=
200502011300 METAR MRLB 011300Z 05006KT 9999 FEW035 26/18 A2980=
200502011400 METAR MRLB 011400Z 06009KT 9999 FEW035 28/18 A2983=
200502011500 METAR MRLB 011500Z 08017KT 9999 FEW035 30/18 A2983=
200502011600 METAR MRLB 011600Z 09018KT 9999 FEW040 31/18 A2983=
200502011700 METAR MRLB 011700Z 08020KT 9999 FEW040 31/18 A2980=
200502011800 METAR MRLB 011800Z 07020KT 9999 FEW035 31/19 A2979=
200502011900 METAR MRLB 011900Z 08015KT 9999 FEW040 33/18 A2976=
200502012000 METAR MRLB 012000Z 07016KT 9999 FEW040 32/18 A2973=
200502012100 METAR MRLB 012100Z 08017KT 9999 FEW035 31/18 A2972=
200502012200 METAR MRLB 012200Z 08016KT CAVOK 31/18 A2973=
200502012300 METAR MRLB 012300Z 08018KT CAVOK 29/17 A2973=
200502020000 METAR MRLB 020000Z 08015KT CAVOK 27/18 A2975=
200502020100 METAR MRLB 020100Z 08016KT CAVOK 27/17 A2977=
200502020100 METAR MRLB NIL=
200502020200 METAR MRLB NIL=
200502020300 METAR MRLB NIL=
200502020400 METAR MRLB NIL=
200502020500 METAR MRLB NIL=
200502020600 METAR MRLB NIL=
200502020700 METAR MRLB NIL=
200502020800 METAR MRLB NIL=
200502020900 METAR MRLB NIL=
200502021000 METAR MRLB NIL=
200502021100 METAR MRLB NIL=
200502021200 METAR MRLB NIL=
200502021300 METAR MRLB 021300Z 34003KT 9999 SKC 20/17 A2981=
200502021400 METAR MRLB 021400Z 35004KT 9999 SKC 26/18 A2984=
200502021500 METAR MRLB 021500Z 24004KT CAVOK 30/18 A2985=
200502021600 METAR MRLB 021600Z 07019KT 9999 FEW040 31/19 A2985=
200502021700 METAR MRLB 021700Z 06016KT 9999 FEW040 32/19 A2984=
200502021800 METAR MRLB 021800Z 08013KT 9999 FEW040 33/18 A2981=
200502021900 METAR MRLB 021900Z 36015KT 9999 FEW040 34/18 A2978=
200502022000 METAR MRLB 022000Z 07020KT 9999 FEW040 31/19 A2975=
200502022100 METAR MRLB 022100Z 07023KT CAVOK 31/18 A2974=
200502022200 METAR MRLB 022200Z 07021KT 9999 SKC 31/17 A2974=
200502022300 METAR MRLB 022300Z 08020KT 9999 SKC 29/17 A2973=
200502030000 METAR MRLB 030000Z 07017KT 9999 SKC 28/17 A2976=
200502030100 METAR MRLB 030100Z 07016KT 9999 SKC 27/16 A2977=
200502030200 METAR MRLB NIL=
200502030300 METAR MRLB NIL=
200502030400 METAR MRLB NIL=
200502030500 METAR MRLB NIL=
200502030600 METAR MRLB NIL=
200502030700 METAR MRLB NIL=
200502030800 METAR MRLB NIL=
200502030900 METAR MRLB NIL=
200502031000 METAR MRLB NIL=
200502031100 METAR MRLB NIL=
200502031200 METAR MRLB NIL=
200502031300 METAR MRLB 031300Z 06006KT CAVOK 21/17 A2986=
200502031400 METAR MRLB 031400Z 08016KT 9999 FEW040 27/18 A2988=
200502031500 METAR MRLB 031500Z 08015KT 9999 FEW040 30/17 A2989=
200502031600 METAR MRLB 031600Z 08019KT 9999 FEW040 30/17 A2990=
200502031700 METAR MRLB 031700Z 08022KT 9999 FEW040 31/17 A2986=
200502031800 METAR MRLB 031800Z 08021KT 9999 FEW040 31/18 A2985=
200502031900 METAR MRLB 031900Z 08018KT 9999 FEW040 SCT250 31/16 A2982=
200502032000 METAR MRLB 032000Z 08023KT 9999 31/16 A2979=
200502032100 METAR MRLB 032100Z 08020KT 9999 FEW040 31/17 A2978=
200502032300 METAR MRLB 032300Z 07015KT 9999 SKC 28/17 A2975=
200502040000 METAR MRLB 040000Z 07022KT 9999 SKC 27/16 A2979=
200502040100 METAR MRLB 040100Z 07019KT 9999 SKC 26/16 A2980=
200502040200 METAR MRLB NIL=
200502040300 METAR MRLB NIL=
200502040400 METAR MRLB NIL=
200502040500 METAR MRLB NIL=
200502040600 METAR MRLB NIL=
200502040700 METAR MRLB NIL=
200502040800 METAR MRLB NIL=
200502040900 METAR MRLB NIL=
200502041000 METAR MRLB NIL=
200502041100 METAR MRLB NIL=
200502041200 METAR MRLB NIL=
200502041200 METAR MRLB NIL=
200502041300 METAR MRLB 041300Z 00000KT 9999 SKC 24/15 A2989=
200502041400 METAR MRLB 041400Z 00000KT 9999 SKC 27/15 A2991=
200502041500 METAR MRLB 041500Z 11004KT 9999 SKC 28/15 A2991=
200502041600 METAR MRLB 041600Z 03013KT 9999 SKC 32/15 A2990=
200502041700 METAR MRLB 041700Z 07022KT 9999 SKC 31/15 A2986=
200502041800 METAR MRLB 041800Z 06021KT 9999 SKC 32/16 A2983=
200502041900 METAR MRLB 041900Z 08021KT 9999 SKC 31/17 A2981=
200502042000 METAR MRLB 042000Z 08023KT 9999 SKC 31/16 A2979=
200502042100 METAR MRLB 042100Z 08025KT 9999 SKC 31/16 A2977=
200502042200 METAR MRLB 042200Z 06023KT 9999 SKC 30/15 A2976=
200502042300 METAR MRLB 042300Z 07018KT 9999 SKC 29/16 A2978=
200502050000 METAR MRLB 050000Z 08019KT 9999 SKC 27/16 A2979=
200502050100 METAR MRLB 050100Z 08018KT 9999 SKC 26/15 A2981=
200502050200 METAR MRLB NIL=
200502050300 METAR MRLB NIL=
200502050400 METAR MRLB NIL=
200502050500 METAR MRLB NIL=
200502050600 METAR MRLB NIL=
200502050700 METAR MRLB NIL=
200502050800 METAR MRLB NIL=
200502050900 METAR MRLB NIL=
200502051000 METAR MRLB NIL=
200502051100 METAR MRLB NIL=
200502051200 METAR MRLB NIL=
200502051300 METAR MRLB 051300Z 07018KT 9999 SKC 25/11 A2984=
200502051400 METAR MRLB 051400Z 08016KT 9999 SKC 28/12 A2987=
200502051500 METAR MRLB 051500Z 07016KT 9999 SKC 29/11 A2987=
200502051600 METAR MRLB 051600Z 07018KT 9999 SKC 31/12 A2987=
200502051700 METAR MRLB 051700Z 08018KT 9999 SKC 30/18 2986=
200502051800 METAR MRLB 051800Z 08017KT 9999 SKC 31/14 A2983=
200502051900 METAR MRLB 051900Z 07021KT 9999 SKC 32/14 A2980=
200502052000 METAR MRLB 052000Z 08020KT 9999 SKC 31/16 A2978=
200502052100 METAR MRLB 052100Z 07021KT 9999 SKC 31/16 A2977=
200502052200 METAR MRLB 052200Z 08016KT 9999 SKC 30/15 A2976=
200502052300 METAR MRLB 052300Z 08013KT 9999 SKC 29/16 A2978=
200502060000 METAR MRLB 060000Z 08012KT 9999 SKC 26/16 A2979=
200502060100 METAR MRLB 060100Z 07016KT 9999 SKC 26/16 A2980=
200502060200 METAR MRLB NIL=
200502060300 METAR MRLB NIL=
200502060400 METAR MRLB NIL=
200502060500 METAR MRLB NIL=
200502060600 METAR MRLB NIL=
200502060700 METAR MRLB NIL=
200502060800 METAR MRLB NIL=
200502060900 METAR MRLB NIL=
200502061000 METAR MRLB NIL=
200502061100 METAR MRLB NIL=
200502061200 METAR MRLB NIL=
200502061300 METAR MRLB 061300Z 03005KT 9999 SKC 19/14 A2983=
200502061400 METAR MRLB 061400Z 35003KT 9999 SKC 27/15 A2987=
200502061500 METAR MRLB 061500Z 06013KT 9999 SKC 29/15 A2987=
200502061600 METAR MRLB 061600Z 08016KT 9999 SKC 31/14 A2987=
200502061700 METAR MRLB 061700Z 09015KT 9999 SKC 32/14 A2986=
200502061800 METAR MRLB 061800Z 06021KT 9999 SKC 32/14 A2984=
200502061900 METAR MRLB 061900Z 06019KT 9999 SKC 33/15 A2982=
200502062000 METAR MRLB 062000Z 05019KT 9999 SKC 34/14 A2979=
200502062100 METAR MRLB 062100Z 06015KT 9999 SKC 33/14 A2977=
200502062200 METAR MRLB 062200Z 07021KT 9999 SKC 32/15 A2972=
200502062300 METAR MRLB 062300Z 06022KT 9999 SKC 30/15 A2978=
200502070000 METAR MRLB 070000Z 18016KT 9999 SKC 28/16 A2979=
200502070100 METAR MRLB 070100Z 09012KT CAVOK 27/15 A2982=
200502070200 METAR MRLB NIL=
200502070300 METAR MRLB NIL=
200502070400 METAR MRLB NIL=
200502070500 METAR MRLB NIL=
200502070600 METAR MRLB NIL=
200502070700 METAR MRLB NIL=
200502070800 METAR MRLB NIL=
200502070900 METAR MRLB NIL=
200502071000 METAR MRLB NIL=
200502071100 METAR MRLB NIL=
200502071200 METAR MRLB NIL=
200502071300 METAR MRLB 071300Z 00000KT 9999 SKC 23/17 A2984=
200502071400 METAR MRLB 071400Z 06011KT 9999 SKC 27/17 A2985=
200502071500 METAR MRLB 071500Z 07021KT 9999 SKC 29/17 A2986=
200502071600 METAR MRLB 071600Z 08014KT 9999 SKC 31/17 A2985=
200502071700 METAR MRLB 071700Z 08013KT 9999 SKC 32/17 A2983=
200502071800 METAR MRLB 071800Z 09016KT 9999 SKC 32/17 A2981=
200502071900 METAR MRLB 071900Z 09016KT 9999 SKC 32/17 A2981=
200502072000 METAR MRLB 072000Z 08012KT 9999 SKC 32/17 A2977=
200502072100 METAR MRLB 072100Z 08011KT 9999 SKC 32/17 A2974=
200502072200 METAR MRLB 072200Z 09013KT 9999 SKC 31/17 A2974=
200502072300 METAR MRLB 072300Z 09011KT 9999 SKC 30/18 A2975=
200502080000 METAR MRLB 080000Z 09010KT 9999 SKC 27/17 A2976=
200502080100 METAR MRLB 080100Z 08006KT 9999 SKC 26/17 A2978=
200502080200 METAR MRLB NIL=
200502080300 METAR MRLB NIL=
200502080400 METAR MRLB NIL=
200502080500 METAR MRLB NIL=
200502080600 METAR MRLB NIL=
200502080700 METAR MRLB NIL=
200502080800 METAR MRLB NIL=
200502080900 METAR MRLB NIL=
200502081000 METAR MRLB NIL=
200502081100 METAR MRLB NIL=
200502081200 METAR MRLB NIL=
200502081300 METAR MRLB 081300Z 05005KT 9999 SKC 18/15 A2985=
200502081400 METAR MRLB 081400Z 00000KT 9999 SKC 24/17 A2988=
200502081500 METAR MRLB 081500Z 26004KT 9999 SKC 27/17 A2990=
200502081600 METAR MRLB 081600Z 00000KT 9999 SKC 30/16 A2989=
200502081700 METAR MRLB 081700Z 33005KT 9999 SKC 33/15 A2986=
200502081800 METAR MRLB 081800Z 09011KT 9999 SKC 33/17 A2983=
200502081900 METAR MRLB 081900Z 10013KT 9999 SKC 33/16 A2981=
200502082000 METAR MRLB 082000Z 09012KT CAVOK 33/16 A2978=
200502082100 METAR MRLB 082100Z 10009KT CAVOK 33/17 A2976=
200502082200 METAR MRLB 082200Z 09012KT CAVOK 32/16 A2975=
200502082300 METAR MRLB 082300Z 07013KT 9999 SKC 31/16 A2976=
200502090000 METAR MRLB 090000Z 08010KT 9999 SKC 29/16 A2977=
200502090100 METAR MRLB 090100Z 07008KT 9999 SKC 27/16 A2980=
200502090200 METAR MRLB NIL=
200502090300 METAR MRLB NIL=
200502090400 METAR MRLB NIL=
200502090500 METAR MRLB NIL=
200502090600 METAR MRLB NIL=
200502090700 METAR MRLB NIL=
200502090800 METAR MRLB NIL=
200502090900 METAR MRLB NIL=
200502091000 METAR MRLB NIL=
200502091100 METAR MRLB NIL=
200502091200 METAR MRLB NIL=
200502091300 METAR MRLB 091300Z 22003KT CAVOK 22/15 A2981=
200502091400 METAR MRLB 091400Z VRB03KT 9999 SKC 27/15 A2982=
200502091500 METAR MRLB 091500Z 05009KT 9999 SKC 29/15 A2984=
200502091600 METAR MRLB 091600Z 07018KT 9999 SKC 31/15 A2986=
200502091700 METAR MRLB 091700Z 07020KT 9999 SKC 31/15 A2984=
200502091800 METAR MRLB 091800Z 08017KT 9999 SKC 31/16 A2982=
200502091900 METAR MRLB 091900Z 06020KT CAVOK 31/16 A2980=
200502092000 METAR MRLB 092000Z 09015KT CAVOK 31/16 A2977=
200502092100 METAR MRLB 092100Z 08018KT CAVOK 33/16 A2974=
200502092200 METAR MRLB 092200Z 06017KT CAVOK 32/16 A2973=
200502092300 METAR MRLB 092300Z 07017KT CAVOK 30/17 A2974=
200502100000 METAR MRLB 100000Z 06012KT 9999 SKC 28/18 A2976=
200502100100 METAR MRLB 100100Z 08014KT 9999 SKC 27/17 A2978=
200502100200 METAR MRLB NIL=
200502100300 METAR MRLB NIL=
200502100400 METAR MRLB NIL=
200502100500 METAR MRLB NIL=
200502100600 METAR MRLB NIL=
200502100700 METAR MRLB NIL=
200502100800 METAR MRLB NIL=
200502100900 METAR MRLB NIL=
200502101000 METAR MRLB NIL=
200502101100 METAR MRLB NIL=
200502101200 METAR MRLB NIL=
200502101300 METAR MRLB 101300Z 05008KT 9999 SKC 25/16 A2985=
200502101400 METAR MRLB 101400Z 07018KT 9999 SKC 27/15 A2989=
200502101500 METAR MRLB 101500Z 07018KT 9999 SKC 28/15 A2991=
200502101600 METAR MRLB 101600Z 06015KT 9999 SKC 31/15 A2990=
200502101700 METAR MRLB 101700Z 06018KT CAVOK 31/15 A2988=
200502101800 METAR MRLB 101800Z 07020KT CAVOK 31/15 A2986=
200502101900 METAR MRLB 101900Z 08016KT 9999 FEW040 32/16 A2983=
200502102000 METAR MRLB 102000Z 07016KT 9999 FEW040 32/16 A2980=
200502102100 METAR MRLB 102100Z 08017KT 9999 FEW040 32/17 A2979=
200502102200 METAR MRLB 102200Z 07018KT 9999 FEW040 31/17 A2978=
200502110000 METAR MRLB 110000Z 07012KT 9999 SKC 28/17 A2980=
200502110100 METAR MRLB 110100Z 06018KT 9999 SKC 27/17 A2984=
200502110200 METAR MRLB NIL=
200502110300 METAR MRLB NIL=
200502110400 METAR MRLB NIL=
200502110500 METAR MRLB NIL=
200502110600 METAR MRLB NIL=
200502110700 METAR MRLB NIL=
200502110800 METAR MRLB NIL=
200502110900 METAR MRLB NIL=
200502111000 METAR MRLB NIL=
200502111100 METAR MRLB NIL=
200502111200 METAR MRLB NIL=
200502111300 METAR MRLB 111300Z 24006KT 9999 SKC 24/15 A2991=
200502111400 METAR MRLB 111400Z 24008KT 9999 SKC 26/15 A2992=
200502111500 METAR MRLB 111500Z 27008KT 9999 SKC 28/15 A2993=
200502111600 METAR MRLB 111600Z 29007KT SKC 31/15 A2993=
200502111700 METAR MRLB 111700Z 07018KT 9999 SKC 32/15 A2991=
200502111800 METAR MRLB 111800Z 06023KT 9999 SKC 33/15 A2988=
200502111900 METAR MRLB 111900Z 06022KT 9999 SKC 33/16 A2987=
200502112000 METAR MRLB 112000Z 06017KT 9999 SKC 34/16 A2985=
200502112100 METAR MRLB 112100Z 07015KT 9999 SKC 32/17 A2984=
200502112200 METAR MRLB 112200Z 06022KT 9999 SKC 31/16 A2984=
200502112300 METAR MRLB 112300Z 07019KT 9999 SKC 30/16 A2985=
200502120000 METAR MRLB 120000Z 08017KT 9999 SKC 28/18 A2985=
200502120100 METAR MRLB 120100Z 07020KT 9999 SKC 27/18 A2988=
200502120200 METAR MRLB NIL=
200502120300 METAR MRLB NIL=
200502120400 METAR MRLB NIL=
200502120500 METAR MRLB NIL=
200502120600 METAR MRLB NIL=
200502120700 METAR MRLB NIL=
200502120800 METAR MRLB NIL=
200502120900 METAR MRLB NIL=
200502121000 METAR MRLB NIL=
200502121100 METAR MRLB NIL=
200502121200 METAR MRLB NIL=
200502121300 METAR MRLB 121300Z 07022KT 9999 SKC 26/16 A2991=
200502121400 METAR MRLB 121400Z 04012KT 9999 SKC 28/15 A2994=
200502121500 METAR MRLB 121500Z 09015KT 9999 SKC 29/18 A2995=
200502121600 METAR MRLB 121600Z 08018KT CAVOK 31/17 A29/93=
200502121700 METAR MRLB 121700Z 06014KT CAVOK 30/18 A2993=
200502121800 METAR MRLB 121800Z 09024KT CAVOK 30/18 A2988=
200502121900 METAR MRLB 121900Z 09019KT CAVOK 31/17 A2988=
200502122000 METAR MRLB 122000Z 09022KT CAVOK 30/17 A2986=
200502122100 METAR MRLB 122100Z 06022KT CAVOK 31/17 A2985=
200502122200 METAR MRLB 122200Z 06022KT CAVOK 30/17 A2983=
200502122300 METAR MRLB 122300Z 06022KT CAVOK 30/17 A2983=
200502130000 METAR MRLB 130000Z 06019KT CAVOK 27/18 A2985=
200502130100 METAR MRLB 130100Z 07019KT 9999 SKC 26/18 A2987=
200502130200 METAR MRLB NIL=
200502130300 METAR MRLB NIL=
200502130400 METAR MRLB NIL=
200502130500 METAR MRLB NIL=
200502130600 METAR MRLB NIL=
200502130700 METAR MRLB NIL=
200502130800 METAR MRLB NIL=
200502130900 METAR MRLB NIL=
200502131000 METAR MRLB NIL=
200502131100 METAR MRLB NIL=
200502131200 METAR MRLB 131200Z 20005KT CAVOK 21/15 A2989=
200502131300 METAR MRLB 131300Z VRB03KT CAVOK 23/15 A2991=
200502131400 METAR MRLB 131400Z 07013KT 9999 SKC 27/16 A2993=
200502131500 METAR MRLB 131500Z 07012KT CAVOK 28/15 A2994=
200502131600 METAR MRLB 131600Z 07016KT CAVOK 30/15 A2993=
200502131700 METAR MRLB 131700Z 08017KT 9999 SKC 31/16 A2991=
200502131800 METAR MRLB 131800Z 09015KT 9999 SKC 31/16 A2987=
200502131900 METAR MRLB 131900Z 09015KT 9999 SKC 32/16 A2984=
200502132000 METAR MRLB 132000Z 06014KT 9999 SKC 33/17 A2982=
200502132100 METAR MRLB 132100Z 09010KT 9999 SKC 33/17 A2980=
200502132200 METAR MRLB 132200Z 06013KT 9999 SKC 32/17 A2979=
200502132300 METAR MRLB 132300Z 08012KT 9999 SKC 30/17 A2980=
200502140000 METAR MRLB 140000Z 07007KT CAVOK 29/17 A2982=
200502140100 METAR MRLB NIL=
200502140200 METAR MRLB NIL=
200502140300 METAR MRLB NIL=
200502140400 METAR MRLB NIL=
200502140500 METAR MRLB NIL=
200502140600 METAR MRLB NIL=
200502140700 METAR MRLB NIL=
200502140800 METAR MRLB NIL=
200502140900 METAR MRLB NIL=
200502141000 METAR MRLB NIL=
200502141100 METAR MRLB NIL=
200502141200 METAR MRLB NIL=
200502141300 METAR MRLB 141300Z 05004KT 9999 SKC 20/17 A2990=
200502141400 METAR MRLB 141400Z 00000KT 9999 SKC 26/18 A2993=
200502141500 METAR MRLB 141500Z 00000KT 9999 SKC 29/18 A2993=
200502141600 METAR MRLB 141600Z 05013KT 9999 SKC 31/18 A2994=
200502141700 METAR MRLB 141700Z 08013KT CAVOK 32/18 A2992=
200502141800 METAR MRLB 141800Z 09014KT 9999 FEW040 33/18 A2989=
200502141900 METAR MRLB 141900Z 09010KT 9999 FEW040 34/18 A2986=
200502142000 METAR MRLB 142000Z 08016KT 9999 FEW040 34/18 A2983=
200502142100 METAR MRLB 142100Z 07010KT 9999 FEW040 33/18 A2981=
200502142200 METAR MRLB 142200Z 05014KT 9999 FEW040 33/17 A2980=
200502142300 METAR MRLB 142300Z 07010KT 9999 FEW040 32/18 A2980=
200502150100 METAR MRLB 150100Z 09010KT 9999 SKC 28/16 A2983=
200502150200 METAR MRLB NIL=
200502150300 METAR MRLB NIL=
200502150400 METAR MRLB NIL=
200502150500 METAR MRLB NIL=
200502150600 METAR MRLB NIL=
200502150700 METAR MRLB NIL=
200502150800 METAR MRLB NIL=
200502150900 METAR MRLB NIL=
200502151000 METAR MRLB NIL=
200502151100 METAR MRLB NIL=
200502151200 METAR MRLB NIL=
200502151300 METAR MRLB 151300Z 34003KT CAVOK 21/18 A2989=
200502151400 METAR MRLB 151400Z 00000KT CAVOK 24/19 A2990=
200502151500 METAR MRLB 151500Z 28003KT 9999 FEW040 SCT130 28/19 A2992=
200502151600 METAR MRLB 151600Z 00000KT CAVOK 32/18 A2991=
200502151700 METAR MRLB 151700Z 08015KT CAVOK 33/17 A2990=
200502151800 METAR MRLB 151800Z 09016KT 9999 FEW040 33/17 A2986=
200502151900 METAR MRLB 151900Z 09012KT 9999 FEW040 34/17 A2983=
200502152000 METAR MRLB 152000Z 09012KT 9999 FEW040 35/17 A2980=
200502152100 METAR MRLB 152100Z 10013KT 9999 FEW040 34/18 A2979=
200502152200 METAR MRLB 152200Z 09017KT 9999 FEW040 33/18 A2978=
200502152300 METAR MRLB 152300Z 08015KT 9999 SKC 31/17 A2978=
200502160000 METAR MRLB 160000Z 08013KT 9999 SKC 30/18 A2979=
200502160100 METAR MRLB 160100Z 08013KT 9999 SKC 28/18 A2981=
200502160200 METAR MRLB NIL=
200502160300 METAR MRLB NIL=
200502160400 METAR MRLB NIL=
200502160500 METAR MRLB NIL=
200502160600 METAR MRLB NIL=
200502160700 METAR MRLB NIL=
200502160800 METAR MRLB NIL=
200502160900 METAR MRLB NIL=
200502161000 METAR MRLB NIL=
200502161100 METAR MRLB NIL=
200502161200 METAR MRLB NIL=
200502161300 METAR MRLB 161300Z 25004KT 9999 FEW045 21/17 A2984=
200502161400 METAR MRLB 161400Z 00000KT 9999 SKC 26/18 A2988=
200502161500 METAR MRLB 161500Z 00000KT 9999 SKC 28/18 A2988=
200502161600 METAR MRLB 161600Z 07008KT CAVOK 31/18 A2989=
200502161700 METAR MRLB 161700Z 08019KT CAVOK 31/18 A2986=
200502161800 METAR MRLB 161800Z 09016KT 9999 FEW045 32/18 A2984=
200502161900 METAR MRLB 161900Z 08018KT 9999 FEW040 33/18 A2981=
200502162000 METAR MRLB 162000Z 09014KT 9999 SCT040 33/18 A2978=
200502162100 METAR MRLB 162100Z 08017KT 9999 SCT040 33/18 A2977=
200502162200 METAR MRLB 162200Z 09015KT 9999 FEW040 SCT120 32/19 A2977=
200502162300 METAR MRLB 162300Z 07014KT 9999 BKN035 30/19 A2978=
200502170000 METAR MRLB 170000Z 07015KT 9999 SCT035 28/18 A2979=
200502170100 METAR MRLB NIL=
200502170200 METAR MRLB NIL=
200502170300 METAR MRLB NIL=
200502170400 METAR MRLB NIL=
200502170500 METAR MRLB NIL=
200502170600 METAR MRLB NIL=
200502170700 METAR MRLB NIL=
200502170800 METAR MRLB NIL=
200502170900 METAR MRLB NIL=
200502171000 METAR MRLB NIL=
200502171100 METAR MRLB NIL=
200502171200 METAR MRLB NIL=
200502171300 METAR MRLB 171300Z VRB03KT CAVOK 21/18 A2984=
200502171400 METAR MRLB 171400Z 30004KT CAVOK 27/18 A2985=
200502171500 METAR MRLB 171500Z 00000KT 9999 SKC 29/17 A2987=
200502171600 METAR MRLB 171600Z 31005KT CAVOK 32/17 A2986=
200502171700 METAR MRLB 171700Z 08015KT CAVOK 33/16 A2984=
200502171800 METAR MRLB 171800Z 10014KT CAVOK 33/16 A2982=
200502172000 METAR MRLB 172000Z 10017KT CAVOK 33/19 A2976=
200502172100 METAR MRLB 172100Z 08015KT CAVOK 33/18 A2975=
200502172200 METAR MRLB 172200Z 09013KT CAVOK 32/18 A2974=
200502172300 METAR MRLB 172300Z 08013KT 9999 SKC 31/18 A2975=
200502180000 METAR MRLB 180000Z 09013KT 9999 SKC 29/18 A2977=
200502180100 METAR MRLB 180100Z 07012KT 9999 SKC 28/19 A2979=
200502180200 METAR MRLB NIL=
200502180300 METAR MRLB NIL=
200502180400 METAR MRLB NIL=
200502180500 METAR MRLB NIL=
200502180600 METAR MRLB NIL=
200502180700 METAR MRLB NIL=
200502180800 METAR MRLB NIL=
200502180900 METAR MRLB NIL=
200502181000 METAR MRLB NIL=
200502181100 METAR MRLB NIL=
200502181200 METAR MRLB NIL=
200502181300 METAR MRLB 181300Z 22005KT CAVOK 25/19 A2982=
200502181400 METAR MRLB 181400Z 27006KT CAVOK 27/20 A2984=
200502181500 METAR MRLB 181500Z 06013KT CAVOK 31/19 A2984=
200502181600 METAR MRLB 181600Z 08013KT CAVOK 31/19 A2985=
200502181700 METAR MRLB 181700Z 08017KT 9999 FEW040 BKN120 31/19 A2982=
200502181800 METAR MRLB 181800Z 07021KT 9999 FEW040 BKN120 30/19 A2982=
200502181900 METAR MRLB 181900Z 07029KT 9999 FEW045 OVC140 30/19 A2981=
200502182100 METAR MRLB 182100Z 07021KT CAVOK 30/19 A2977=
200502182200 METAR MRLB 182200Z 07024KT CAVOK 31/19 A2975=
200502182300 METAR MRLB 182300Z 07019KT CAVOK 30/19 A2976=
200502190000 METAR MRLB 190000Z 08017KT CAVOK 28/18 A2977=
200502190100 METAR MRLB 190100Z 08018KT CAVOK 27/18 A2978=
200502190200 METAR MRLB NIL=
200502190300 METAR MRLB NIL=
200502190400 METAR MRLB NIL=
200502190500 METAR MRLB NIL=
200502190600 METAR MRLB NIL=
200502190700 METAR MRLB NIL=
200502190800 METAR MRLB NIL=
200502190900 METAR MRLB NIL=
200502191000 METAR MRLB NIL=
200502191100 METAR MRLB NIL=
200502191200 METAR MRLB NIL=
200502191300 METAR MRLB 191300Z 09006KT CAVOK 27/16 A2984=
200502191400 METAR MRLB 191400Z 26004KT CAVOK 27/18 A2989=
200502191500 METAR MRLB 191500Z 26010KT CAVOK 29/18 A2991=
200502191600 METAR MRLB 191600Z 07017KT CAVOK 32/15 A2991=
200502191700 METAR MRLB 191700Z 07017KT 9999 SKC 32/15 A2990=
200502191800 METAR MRLB 191800Z 09018KT 9999 SKC 33/16 A2988=
200502191900 METAR MRLB 191900Z 05021KT 9999 SKC 32/17 A2987=
200502192000 METAR MRLB 192000Z 06020KT 9999 FEW045 32/17 A2984=
200502192100 METAR MRLB 192100Z 07018KT 9999 FEW040 32/17 A2982=
200502192200 METAR MRLB 192200Z 06019KT 9999 SKC 32/17 A2982=
200502192300 METAR MRLB 192300Z 07017KT 9999 SKC 30/17 A2982=
200502200000 METAR MRLB 200000Z 07018KT 9999 SKC 28/17 A2983=
200502200100 METAR MRLB NIL=
200502200200 METAR MRLB NIL=
200502200300 METAR MRLB NIL=
200502200400 METAR MRLB NIL=
200502200500 METAR MRLB NIL=
200502200600 METAR MRLB NIL=
200502200700 METAR MRLB NIL=
200502200800 METAR MRLB NIL=
200502200900 METAR MRLB NIL=
200502201000 METAR MRLB NIL=
200502201100 METAR MRLB NIL=
200502201200 METAR MRLB 201200Z 07018KT CAVOK 26/17 A2986=
200502201300 METAR MRLB 201300Z 08022KT CAVOK 26/17 A2987=
200502201400 METAR MRLB 201400Z 08021KT 9999 SKC 28/17 A2988=
200502201500 METAR MRLB 201500Z 06021G31KT 9999 SKC 29/17 A2991=
200502201600 METAR MRLB 201600Z 06026G37KT 9999 SKC 30/17 A2992=
200502201700 METAR MRLB 201700Z 06023KT 9999 SKC 32/17 A2990=
200502201800 METAR MRLB 201800Z 07018KT CAVOK 33/15 A2988=
200502201900 METAR MRLB 201900Z 07019KT CAVOK 34/15 A2984=
200502202000 METAR MRLB 202000Z 07023KT CAVOK 33/15 A2981=
200502202100 METAR MRLB 202100Z 08022KT CAVOK 34/14 A2978=
200502202200 METAR MRLB 202200Z 07020KT CAVOK 32/15 A2978=
200502202300 METAR MRLB 202300Z 08018KT CAVOK 31/15 A2979=
200502210000 METAR MRLB 210000Z 08015KT CAVOK 29/16 A2981=
200502210100 METAR MRLB NIL=
200502210200 METAR MRLB NIL=
200502210300 METAR MRLB NIL=
200502210400 METAR MRLB NIL=
200502210500 METAR MRLB NIL=
200502210600 METAR MRLB NIL=
200502210700 METAR MRLB NIL=
200502210800 METAR MRLB NIL=
200502210900 METAR MRLB NIL=
200502211000 METAR MRLB NIL=
200502211100 METAR MRLB NIL=
200502211200 METAR MRLB NIL=
200502211300 METAR MRLB 211300Z 04009KT 9999 SKC 24/17 A2988=
200502211400 METAR MRLB 211400Z 00000KT CAVOK 28/18 A2990=
200502211500 METAR MRLB 211500Z 08021KT CAVOK 30/19 A2989=
200502211600 METAR MRLB 211600Z 09018KT CAVOK 31/18 A2990=
200502211700 METAR MRLB 211700Z 10017KT CAVOK 32/18 A2988=
200502211800 METAR MRLB 211800Z 07016KT 9999 FEW040 33/19 A2986=
200502211900 METAR MRLB 211900Z 07017KT CAVOK 33/18 A2983=
200502212000 METAR MRLB NIL=
200502212100 METAR MRLB NIL=
200502212200 METAR MRLB NIL=
200502212300 METAR MRLB NIL=
200502230000 METAR MRLB 230000Z 08017KT CAVOK 29/19 A2979=
200502230100 METAR MRLB 230100Z 08017KT CAVOK 27/19 A2982=
200502230200 METAR MRLB NIL=
200502230300 METAR MRLB NIL=
200502230400 METAR MRLB NIL=
200502230500 METAR MRLB NIL=
200502230600 METAR MRLB NIL=
200502230700 METAR MRLB NIL=
200502230800 METAR MRLB NIL=
200502230900 METAR MRLB NIL=
200502231000 METAR MRLB NIL=
200502231100 METAR MRLB NIL=
200502231200 METAR MRLB NIL=
200502231300 METAR MRLB 231300Z 06009KT 9999 SKC 25/18 A2985=
200502231400 METAR MRLB 231400Z 05010KT 9999 SKC 29/17 A2987=
200502231500 METAR MRLB 231500Z 09017KT 9999 SKC 31/15 A2988=
200502231600 METAR MRLB 231600Z 07020KT CAVOK 31/16 A2989=
200502231700 METAR MRLB 231700Z 07024KT 9999 4000NE FU FEW040 32/16 A2988=
200502231800 METAR MRLB 231800Z 08022KT 9999 FEW040 33/16 A2987=
200502231900 METAR MRLB 231900Z 07019KT 9999 FEW040 33/16 A2984=
200502232000 METAR MRLB 232000Z 06020KT 9999 FEW040 33/16 A2980=
200502232100 METAR MRLB 232100Z 07016KT CAVOK 33/16 A2978=
200502232200 METAR MRLB 232200Z 06021KT 9999 SKC 31/16 A2977=
200502232300 METAR MRLB 232300Z 07019KT 9999 SKC 30/17 A2978=
200502240000 METAR MRLB 240000Z 07014KT 9999 SKC 28/15 A2978=
200502241000 METAR MRLB NIL=
200502240200 METAR MRLB NIL=
200502240300 METAR MRLB NIL=
200502240400 METAR MRLB NIL=
200502240500 METAR MRLB NIL=
200502240600 METAR MRLB NIL=
200502240700 METAR MRLB NIL=
200502240800 METAR MRLB NIL=
200502240900 METAR MRLB NIL=
200502241000 METAR MRLB NIL=
200502241100 METAR MRLB NIL=
200502241200 METAR MRLB NIL=
200502241300 METAR MRLB 241300Z 00000KT 9999 SKC 21/16 A2986=
200502241400 METAR MRLB 241400Z 00000KT 9999 SKC 26/17 A2987=
200502241500 METAR MRLB 241500Z 00000KT 9999 SKC 29/17 A2988=
200502241600 METAR MRLB 241600Z 07011KT 9999 SKC 33/16 A2987=
200502241700 METAR MRLB 241700Z 09012KT 9999 SKC 34/16 A2986=
200502241800 METAR MRLB 241800Z 07004KT CAVOK 36/16 A2983=
200502241900 METAR MRLB 241900Z 13006KT 9999 FEW040 36/17 A2979=
200502242000 METAR MRLB 242000Z 08008KT 9999 FEW040 36/18 A2975=
200502242100 METAR MRLB 242100Z 11007KT 9999 SCT035 35/18 A2973=
200502242200 METAR MRLB 242200Z 05009KT 9999 SCT035 34/18 A2974=
200502242300 METAR MRLB 242300Z 08012KT CAVOK 33/18 A2974=
200502250000 METAR MRLB 250000Z 03006KT 9999 SKC 30/19 A2975=
200502250100 METAR MRLB 250100Z 21004KT 9999 SKC 29/19 A2978=
200502250200 METAR MRLB NIL=
200502250300 METAR MRLB NIL=
200502250400 METAR MRLB NIL=
200502250500 METAR MRLB NIL=
200502250600 METAR MRLB NIL=
200502250700 METAR MRLB NIL=
200502250800 METAR MRLB NIL=
200502250900 METAR MRLB NIL=
200502251000 METAR MRLB NIL=
200502251100 METAR MRLB NIL=
200502251200 METAR MRLB NIL=
200502251300 METAR MRLB 251300Z 00000KT 9999 SKC 22/18 A2984=
200502251400 METAR MRLB 251400Z 00000KT 9999 SKC 26/19 A2987=
200502251500 METAR MRLB 251500Z 00000KT 9999 SKC 30/19 A2988=
200502251600 METAR MRLB 251600Z 00000KT 9999 SKC 33/18 A2987=
200502251700 METAR MRLB 251700Z 11007KT 9999 SKC 35/17 A2985=
200502251800 METAR MRLB 251800Z 04008KT 9999 SKC 36/16 A2981=
200502251900 METAR MRLB 251900Z 09006KT 9999 SKC 36/17 A2978=
200502252000 METAR MRLB 252000Z 26010KT 9999 SKC 35/19 A2974=
200502252100 METAR MRLB 252100Z 28010KT 9999 FEW040 35/20 A2973=
200502252200 METAR MRLB 252200Z 27009KT 9999 FEW040 34/18 A2974=
200502252300 METAR MRLB 252300Z 27007KT 9999 FEW040 33/19 A2976=
200502260000 METAR MRLB 260000Z 22008KT CAVOK 31/18 A2997=
200502260100 METAR MRLB 260100Z 19004KT CAVOK 29/18 A2979=
200502260200 METAR MRLB NIL=
200502260300 METAR MRLB NIL=
200502260400 METAR MRLB NIL=
200502260500 METAR MRLB NIL=
200502260600 METAR MRLB NIL=
200502260700 METAR MRLB NIL=
200502260800 METAR MRLB NIL=
200502260900 METAR MRLB NIL=
200502261000 METAR MRLB NIL=
200502261100 METAR MRLB NIL=
200502261200 METAR MRLB NIL=
200502261300 METAR MRLB 261300Z 00000KT 9999 SKC 24/19 A2988=
200502261400 METAR MRLB 261400Z 00000KT 9999 SKC 28/19 A2989=
200502261500 METAR MRLB 261500Z 04009KT CAVOK 30/19 A2989=
200502261600 METAR MRLB 261600Z 36005KT CAVOK 32/19 A2989=
200502261700 METAR MRLB 261700Z 16004KT 9999 FEW040 33/18 A2987=
200502261800 METAR MRLB 261800Z 10004KT 9999 SCT040 34/18 A2984=
200502261900 METAR MRLB 261900Z 20005KT 9999 BKN040 34/19 A2980=
200502262000 METAR MRLB 262000Z 25012KT 9999 BKN040 36/19 A2978=
200502262100 METAR MRLB 262100Z 30011KT 9999 BKN040 34/20 A2977=
200502262200 METAR MRLB 262200Z 26012KT 9999 BKN040 33/20 A2978=
200502262300 METAR MRLB 262300Z 26013KT 9999 FEW040 31/20 A2978=
200502270100 METAR MRLB 270100Z 24003KT 9999 FEW040 29/20 A2981=
200502270200 METAR MRLB NIL=
200502270300 METAR MRLB NIL=
200502270400 METAR MRLB NIL=
200502270500 METAR MRLB NIL=
200502270600 METAR MRLB NIL=
200502270700 METAR MRLB NIL=
200502270800 METAR MRLB NIL=
200502270900 METAR MRLB NIL=
200502271000 METAR MRLB NIL=
200502271100 METAR MRLB NIL=
200502271200 METAR MRLB NIL=
200502271300 METAR MRLB 271300Z 00000KT CAVOK 22/20 A2989=
200502271400 METAR MRLB 271400Z 14003KT CAVOK 26/20 A2990=
200502271500 METAR MRLB 271500Z 12003KT CAVOK 29/20 A2990=
200502271600 METAR MRLB 271600Z 15003KT CAVOK 33/19 A2990=
200502271700 METAR MRLB 271700Z 21005KT CAVOK 35/18 A2987=
200502271800 METAR MRLB 271800Z 24005KT CAVOK 35/18 A2984=
200502271900 METAR MRLB 271900Z 32005KT CAVOK 33/17 A2980=
200502272000 METAR MRLB 272000Z 27010KT 9999 SKC 36/19 A2977=
200502272100 METAR MRLB 272100Z 29011KT 9999 SKC 35/20 A2976=
200502272200 METAR MRLB 272200Z 26012KT 9999 FEW040 34/20 A2976=
200502272300 METAR MRLB 272300Z 16009KT 9999 SKC 33/19 A2978=
200502280000 METAR MRLB 280000Z 27007KT 9999 SKC 31/19 A2979=
200502280100 METAR MRLB 280100Z 21005KT 9999 SKC 29/19 A2981=
200502280200 METAR MRLB NIL=
200502280300 METAR MRLB NIL=
200502280400 METAR MRLB NIL=
200502280500 METAR MRLB NIL=
200502280600 METAR MRLB NIL=
200502280700 METAR MRLB NIL=
200502280800 METAR MRLB NIL=
200502280900 METAR MRLB NIL=
200502281000 METAR MRLB NIL=
200502281100 METAR MRLB NIL=
200502281200 METAR MRLB NIL=
200502281300 METAR MRLB 281300Z 06004KT CAVOK 22/19 A2988=
200502281400 METAR MRLB 281400Z 00000KT CAVOK 26/20 A2991=
200502281500 METAR MRLB 281500Z 17003KT 9999 SCT040 30/22 A2992=
200502281600 METAR MRLB 281600Z 19007KT 9999 SCT035 32/23 A2991=
200502281700 METAR MRLB 281700Z 17004KT 9999 SCT040 33/22 A2989=
200502281800 METAR MRLB 281800Z 17004KT 9999 BKN040 35/22 A2986=
200502281900 METAR MRLB 281900Z 27009KT 9999 SCT040 34/22 A2983=
200502282000 METAR MRLB 282000Z 30013KT 9999 FEW040 34/23 A2979=
200502282100 METAR MRLB 282100Z 28014KT 9999 FEW035 31/24 A2978=
200502282300 METAR MRLB 282300Z 29013KT 9999 FEW035 29/24 A2981=
200503010000 METAR MRLB 010000Z 28009KT 9999 FEW035 SCT280 27/23 A2983=
200503010100 METAR MRLB 010100Z 27007KT 9999 BKN035 27/23 A2985=
200503010200 METAR MRLB NIL=
200503010300 METAR MRLB NIL=
200503010400 METAR MRLB NIL=
200503010500 METAR MRLB NIL=
200503010600 METAR MRLB NIL=
200503010700 METAR MRLB NIL=
200503010800 METAR MRLB NIL=
200503010900 METAR MRLB NIL=
200503011000 METAR MRLB NIL=
200503011100 METAR MRLB NIL=
200503011200 METAR MRLB NIL=
200503011300 METAR MRLB 011300Z 00000KT CAVOK 24/22 A2990=
200503011400 METAR MRLB 011400Z 00000KT CAVOK 28/22 A2991=
200503011500 METAR MRLB 011500Z 14007KT 9999 FEW035 30/22 A2992=
200503011600 METAR MRLB 011600Z 14004KT 9999 SCT035 33/20 A2991=
200503011700 METAR MRLB 011700Z 22008KT 9999 SCT035 34/20 A2989=
200503011800 METAR MRLB 011800Z 29006KT 9999 SCT035 34/20 A2986=
200503011900 METAR MRLB 011900Z 10007KT 9999 FEW035 36/16 A2983=
200503012000 METAR MRLB 012000Z 10013KT 9999 FEW035 36/18 A2979=
200503012100 METAR MRLB 012100Z 04012KT CAVOK 36/18 A2977=
200503012200 METAR MRLB 012200Z 06015KT CAVOK 35/18 A2977=
200503012300 METAR MRLB 012300Z 05015KT CAVOK 33/18 A2978=
200503020000 METAR MRLB 020000Z 06015KT CAVOK 31/19 A2980=
200503020100 METAR MRLB NIL=
200503020200 METAR MRLB NIL=
200503020300 METAR MRLB NIL=
200503020400 METAR MRLB NIL=
200503020500 METAR MRLB NIL=
200503020600 METAR MRLB NIL=
200503020700 METAR MRLB NIL=
200503020800 METAR MRLB NIL=
200503020900 METAR MRLB NIL=
200503021000 METAR MRLB NIL=
200503021100 METAR MRLB NIL=
200503021200 METAR MRLB NIL=
200503021300 METAR MRLB 021300Z 04004KT 9999 SKC 24/17 A2989=
200503021400 METAR MRLB 021400Z 00000KT 9999 SKC 26/17 A2992=
200503021500 METAR MRLB 021500Z 09009KT CAVOK 31/16 A2993=
200503021600 METAR MRLB 021600Z 11008KT 9999 SKC 33/17 A2993=
200503021700 METAR MRLB 021700Z 13011KT 9999 FEW040 34/16 A2990=
200503021800 METAR MRLB 021800Z 06005KT 9999 FEW040 34/17 A2987=
200503021900 METAR MRLB 021900Z 08008KT 9999 SCT040 35/15 A2993=
200503022000 METAR MRLB 022000Z 26005KT 9999 SCT040 35/17 A2980=
200503022100 METAR MRLB 022100Z 19008KT 9999 SCT040 34/15 A2979=
200503022200 METAR MRLB 022200Z 27008KT 9999 BKN040 33/18 A2979=
200503022300 METAR MRLB 022300Z 00000KT 9999 FEW040 34/17 A2979=
200503030000 METAR MRLB 030000Z 02005KT CAVOK 31/18 A2981=
200503030100 METAR MRLB 030100Z 35003KT CAVOK 29/18 A2984=
200503030200 METAR MRLB NIL=
200503030300 METAR MRLB NIL=
200503030400 METAR MRLB NIL=
200503030500 METAR MRLB NIL=
200503030600 METAR MRLB NIL=
200503030700 METAR MRLB NIL=
200503030800 METAR MRLB NIL=
200503030900 METAR MRLB NIL=
200503031000 METAR MRLB NIL=
200503031100 METAR MRLB NIL=
200503031200 METAR MRLB NIL=
200503031300 METAR MRLB 031300Z 02003KT CAVOK 23/19 A2991=
200503031400 METAR MRLB 031400Z 00000KT CAVOK 26/20 A2993=
200503031500 METAR MRLB 031500Z 28003KT CAVOK 29/19 A2994=
200503031600 METAR MRLB 031600Z 16003KT CAVOK 32/18 A2994=
200503031700 METAR MRLB 031700Z 00000KT 9999 SCT040 BKN250 34/18 A2988=
200503031800 METAR MRLB 031800Z 00000KT 9999 SCT040 BKN250 34/18 A2988=
200503031900 METAR MRLB 031900Z 29008KT 9999 SCT040 BKN250 34/19 A2985=
200503032000 METAR MRLB 032000Z 28012KT 9999 BKN040 OVC250 33/20 A2983=
200503032100 METAR MRLB 032100Z 26011KT 9999 SCT040 OVC250 34/20 A2981=
200503032200 METAR MRLB 032200Z 26010KT 9999 FEW040 OVC250 32/21 A2981=
200503032300 METAR MRLB 032300Z 28012KT 9999 FEW040 BKN250 31/22 A2982=
200503040000 METAR MRLB 040000Z 30009KT CAVOK 28/22 A2984=
200503040100 METAR MRLB NIL=
200503040200 METAR MRLB NIL=
200503040300 METAR MRLB NIL=
200503040400 METAR MRLB NIL=
200503040500 METAR MRLB NIL=
200503040600 METAR MRLB NIL=
200503040700 METAR MRLB NIL=
200503040800 METAR MRLB NIL=
200503040900 METAR MRLB NIL=
200503041000 METAR MRLB NIL=
200503041100 METAR MRLB NIL=
200503041200 METAR MRLB NIL=
200503041300 METAR MRLB 041300Z 02003KT 9999 FEW040 24/21 A2992=
200503041400 METAR MRLB 041400Z 34006KT CAVOK 28/22 A2994=
200503041500 METAR MRLB 041500Z 27005KT CAOK 31/21 A2994=
200503041600 METAR MRLB 041600Z 28007KT CAVOK 31/21 A2994=
200503041700 METAR MRLB 041700Z 00000KT CAVOK 33/21 A2992=
200503041800 METAR MRLB 041800Z 31004KT 9999 FEW040 34/20 A2988=
200503041900 METAR MRLB 041900Z 18013KT 9999 SCT040 34/21 A2985=
200503042000 METAR MRLB 042000Z 28013KT 9999 FEW040 33/20 A2983=
200503042100 METAR MRLB 042100Z 28013KT 9999 SCT040 34/21 A2981=
200503042200 METAR MRLB 042200Z 28014KT 9999 FEW040 31/22 A2979=
200503042300 METAR MRLB 042300Z 28008KT CAVOK 31/23 A2981=
200503050000 METAR MRLB 050000Z 28006KT CAVOK 29/23 A2982=
200503050100 METAR MRLB 050100Z 25003KT CAVOK 28/23 A2986=
200503050200 METAR MRLB NIL=
200503050300 METAR MRLB NIL=
200503050400 METAR MRLB NIL=
200503050500 METAR MRLB NIL=
200503050600 METAR MRLB NIL=
200503050700 METAR MRLB NIL=
200503050800 METAR MRLB NIL=
200503050900 METAR MRLB NIL=
200503051000 METAR MRLB NIL=
200503051100 METAR MRLB NIL=
200503051200 METAR MRLB NIL=
200503051300 METAR MRLB 051300Z 06004KT 9999 SKC 27/20 A2993=
200503051400 METAR MRLB 051400Z 07012KT 9999 SKC 30/19 A2994=
200503051500 METAR MRLB 051500Z 07016KT 9999 SKC 32/19 A2995=
200503051600 METAR MRLB 051600Z 09015KT CAVOK 33/17 A2995=
200503051700 METAR MRLB 051700Z 08017KT CAVOK 34/16 A2993=
200503051800 METAR MRLB 051800Z 08019KT CAVOK 35/17 A2989=
200503051900 METAR MRLB 051900Z 06013KT CAVOK 36/16 A2986=
200503052000 METAR MRLB 052000Z 06015KT 9999 SKC 36/15 A2983=
200503052100 METAR MRLB 052100Z 07013KT CAVOK 37/15 A2982=
200503052200 METAR MRLB 052200Z 06015KT CAVOK 35/16 A2982=
200503052300 METAR MRLB 052300Z 07014KT 9999 SKC 34/17 A2983=
200503060000 METAR MRLB 060000Z 08016KT CAVOK 31/17 A2986=
200503060100 METAR MRLB 060100Z 07013KT 9999 SKC 31/17 A2988=
200503060200 METAR MRLB NIL=
200503060300 METAR MRLB NIL=
200503060400 METAR MRLB NIL=
200503060500 METAR MRLB NIL=
200503060600 METAR MRLB NIL=
200503060700 METAR MRLB NIL=
200503060800 METAR MRLB NIL=
200503060900 METAR MRLB NIL=
200503061000 METAR MRLB NIL=
200503061100 METAR MRLB NIL=
200503061200 METAR MRLB NIL=
200503061300 METAR MRLB 061300Z 00000KT CAVOK 28/18 A2993=
200503061400 METAR MRLB 061400Z 07006KT CAVOK 30/19 A2995=
200503061500 METAR MRLB 061500Z 07013KT CAVOK 33/18 A2995=
200503061600 METAR MRLB 061600Z 06013KT CAVOK 33/18 A2996=
200503061700 METAR MRLB 061700Z 06014KT CAVOK 34/17 A2994=
200503061800 METAR MRLB 061800Z 05013KT CAVOK 35/17 A2991=
200503061900 METAR MRLB 061900Z 08012KT CAVOK 35/18 A2988=
200503062000 METAR MRLB 062000Z 10009KT CAVOK 37/17 A2985=
200503062100 METAR MRLB 062100Z 11011KT 9999 FEW040 BKN250 36/16 A2984=
200503062200 METAR MRLB 062200Z 02009KT 9999 FEW030 BKN250 35/17 A2984=
200503062300 METAR MRLB 062300Z 30010KT 9999 SCT040 BKIN250 30/22 A2987=
200503070000 METAR MRLB 070000Z 29009KT 9999 SCT040 BKN250 29/22 A2989=
200503070100 METAR MRLB NIL=
200503070200 METAR MRLB NIL=
200503070300 METAR MRLB NIL=
200503070400 METAR MRLB NIL=
200503070500 METAR MRLB NIL=
200503070600 METAR MRLB NIL=
200503070700 METAR MRLB NIL=
200503070800 METAR MRLB NIL=
200503070900 METAR MRLB NIL=
200503071000 METAR MRLB NIL=
200503071100 METAR MRLB NIL=
200503071200 METAR MRLB NIL=
200503071300 METAR MRLB 071300Z 04003KT CAVOK 23/20 A2993=
200503071400 METAR MRLB 071400Z 00000KT CAVOK 26/20 A2995=
200503071500 METAR MRLB 071500Z 01004KT CAVOK 29/19 A2996=
200503071600 METAR MRLB 071600Z 10013KT CAVOK 32/15 A2995=
200503071700 METAR MRLB 071700Z 10010KT CAVOK 34/15 A2993=
200503071800 METAR MRLB 071800Z 10007KT CAVOK 34/15 A2991=
200503071900 METAR MRLB 071900Z 09003KT 9999 FEW040 BKN250 35/16 A2987=
200503072000 METAR MRLB 072000Z 14006KT 9999 FEW040 BKN120 36/15 A2985=
200503072100 METAR MRLB 072100Z 28010KT 9999 FEW040 SCT120 34/18 A2983=
200503072200 METAR MRLB 072200Z 29011KT 9999 FEW040 SCT250 32/21 A2982=
200503072300 METAR MRLB 072300Z 30010KT 9999 FEW040 BKN250 29/23 A2983=
200503080000 METAR MRLB 080000Z 29007KT 9999 SCT035 BKN250 29/23 A2985=
200503080100 METAR MRLB 080100Z 26005KT 9999 SCT035 27/22 A2987=
200503080200 METAR MRLB NIL=
200503080300 METAR MRLB NIL=
200503080400 METAR MRLB NIL=
200503080500 METAR MRLB NIL=
200503080600 METAR MRLB NIL=
200503080700 METAR MRLB NIL=
200503080800 METAR MRLB NIL=
200503080900 METAR MRLB NIL=
200503081000 METAR MRLB NIL=
200503081100 METAR MRLB NIL=
200503081200 METAR MRLB NIL=
200503081300 METAR MRLB 081300Z 35003KT CAVOK 25/20 A2994=
200503081400 METAR MRLB 081400Z 00000KT CAVOK 28/22 A2995=
200503081500 METAR MRLB 081500Z 00000KT 9999 FEW035 31/21 A2995=
200503081600 METAR MRLB 081600Z 10003KT 9999 FEW035 31/20 A2994=
200503081700 METAR MRLB 081700Z 24003KT 9999 SCT035 33/19 A2991=
200503081800 METAR MRLB 081800Z 23006KT 9999 SCT035 34/20 A2988=
200503081900 METAR MRLB 081900Z 26008KT 9999 SCT040 34/20 A2984=
200503082000 METAR MRLB 082000Z 29010KT 9999 SCT040 34/20 A2981=
200503082100 METAR MRLB 082100Z 26013KT 9999 FEW040 33/21 A2978=
200503082200 METAR MRLB 082200Z 27011KT 9999 FEW035 SCT250 32/21 A2978=
200503082300 METAR MRLB 082300Z 27009KT 9999 FEW035 SCT250 31/22 A2978=
200503090000 METAR MRLB 090000Z 24008KT 9999 FEW035 BKN250 30/20 A2980=
200503090100 METAR MRLB 090100Z 22006KT 9999 FEW035 BKN250 29/21 A2983=
200503090200 METAR MRLB NIL=
200503090300 METAR MRLB NIL=
200503090400 METAR MRLB NIL=
200503090500 METAR MRLB NIL=
200503090600 METAR MRLB NIL=
200503090700 METAR MRLB NIL=
200503090800 METAR MRLB NIL=
200503090900 METAR MRLB NIL=
200503091000 METAR MRLB NIL=
200503091100 METAR MRLB NIL=
200503091200 METAR MRLB NIL=
200503091300 METAR MRLB 091300Z 04003KT 9999 SCT035 SCT250 27/22 2989=
200503091400 METAR MRLB 091400Z 00000KT 9999 SCT035 BKN250 28/23 A2990=
200503091500 METAR MRLB 091500Z 28009KT 9999 SCT035 OVC250 29/22 A2992=
200503091600 METAR MRLB 091600Z 28011KT 9999 SCT040 BKN250 28/23 A2992=
200503091700 METAR MRLB 091700Z 27006KT 9999 SCT035 BKN140 27/22 A2990=
200503091800 METAR MRLB 091800Z 24011KT 9999 SCT030 BKN130 28/22 A2988=
200503091900 METAR MRLB 091900Z 29008KT 9999 FEW035 OVC130 26/23 A2985=
200503092000 METAR MRLB 092000Z 28006KT 9999 FEW035 BKN130 28/24 A2982=
200503092100 METAR MRLB 092100Z 26009KT 9999 SCT035 BKN130 30/23 A2979=
200503092200 METAR MRLB 092200Z 28008KT 9999 FEW040 OVC140 29/22 A2979=
200503092300 METAR MRLB 092300Z 28007KT 9999 SCT035 BKN140 29/23 A2979=
200503100100 METAR MRLB 100100Z 29003KT 9999 SCT030 SCT130 27/23 A2983=
200503100200 METAR MRLB NIL=
200503100300 METAR MRLB NIL=
200503100400 METAR MRLB NIL=
200503100500 METAR MRLB NIL=
200503100600 METAR MRLB NIL=
200503100700 METAR MRLB NIL=
200503100800 METAR MRLB NIL=
200503100900 METAR MRLB NIL=
200503101000 METAR MRLB NIL=
200503101100 METAR MRLB NIL=
200503101200 METAR MRLB NIL=
200503101300 METAR MRLB 101300Z 00000KT 9999 SKC 23/21 A2986 RMK 8000 FG SW W=
200503101400 METAR MRLB 101400Z 00000KT 9999 FEW004 27/22 A2989 BR S SW=
200503101500 METAR MRLB 101500Z 00000KT 9999 FEW030 29/23 A2990=
200503101600 METAR MRLB 101600Z 27004KT 9999 SCT035 31/22 A2988=
200503101700 METAR MRLB 101700Z 29005KT 9999 SCT035 33/21 A2987=
200503101800 METAR MRLB 101800Z 28007KT 9999 SCT035 34/20 A2984=
200503101900 METAR MRLB 101900Z 27011KT 9999 SCT035 33/21 A2981=
200503102000 METAR MRLB 102000Z 27012KT 9999 SCT040 34/21 A2997=
200503102100 METAR MRLB 102100Z 29011KT 9999 SCT040 33/22 A2975=
200503102200 METAR MRLB 102200Z 28011KT 9999 FEW040 32/21 A2974=
200503102300 METAR MRLB 102300Z 29009KT 9999 FEW040 30/22 A2974=
200503110000 METAR MRLB 110000Z 30006KT 9999 FEW040 SCT130 29/22 A2976=
200503110100 METAR MRLB NIL=
200503110200 METAR MRLB NIL=
200503110300 METAR MRLB NIL=
200503110400 METAR MRLB NIL=
200503110500 METAR MRLB NIL=
200503110600 METAR MRLB NIL=
200503110700 METAR MRLB NIL=
200503110800 METAR MRLB NIL=
200503110900 METAR MRLB NIL=
200503111000 METAR MRLB NIL=
200503111100 METAR MRLB NIL=
200503111200 METAR MRLB NIL=
200503111300 METAR MRLB 111300Z 10006KT CAVOK 27/20 A2988=
200503111400 METAR MRLB 111400Z 08014KT CAVOK 29/20 A2989=
200503111500 METAR MRLB 111500Z 07016KT 9999 FEW040 SCT150 30/20 A2990=
200503111600 METAR MRLB 111600Z 07016KT 9999 FEW040 BKN250 32/20 A2990=
200503111700 METAR MRLB 111700Z 07016KT 9999 FEW040 BKN250 33/20 A2988=
200503111800 METAR MRLB 111800Z 07014KT 9999 FEW040 BKN250 34/19 A2986=
200503111900 METAR MRLB 111900Z 05017KT 9999 FEW040 BKN250 34/20 A2984=
200503112000 METAR MRLB 112000Z 07014KT 9999 FEW040 BKN250 35/20 A2981=
200503112100 METAR MRLB 112100Z 08012KT 9999 FEW040 BKN250 34/19 A2978=
200503112200 METAR MRLB 112200Z 07011KT 9999 FEW040 BKN250 33/20 A2979=
200503112300 METAR MRLB 112300Z 07010KT 9999 SCT045 SCT100 OVC250 32/19 A2980=
200503120000 METAR MRLB 120000Z 06010KT 9999 FEW045 SCT100 OVC270 30/20 A2982=
200503120100 METAR MRLB 120100Z 00000KT CAVOK 29/20 A2984=
200503120200 METAR MRLB NIL=
200503120300 METAR MRLB NIL=
200503120400 METAR MRLB NIL=
200503120500 METAR MRLB NIL=
200503120600 METAR MRLB NIL=
200503120700 METAR MRLB NIL=
200503120800 METAR MRLB NIL=
200503120900 METAR MRLB NIL=
200503121000 METAR MRLB NIL=
200503121100 METAR MRLB NIL=
200503121200 METAR MRLB NIL=
200503121300 METAR MRLB 121300Z 00000KT CAVOK 25/19 A2992=
200503121400 METAR MRLB 121400Z 24004KT CAVOK 28/19 A2993=
200503121500 METAR MRLB 121500Z 23005KT CAVOK 30/18 A2993=
200503121600 METAR MRLB 121600Z 07005KT CAVOK 33/17 A2994=
200503121700 METAR MRLB 121700Z 09016KT CAVOK 34/18 A2991=
200503121800 METAR MRLB 121800Z 09020KT CAVOK 33/17 A2988=
200503121900 METAR MRLB 121900Z 07023KT 9999 FEW035 SCT250 34/18 A2986=
200503122000 METAR MRLB 122000Z 09020KT 9999 SCT035 SCT250 32/19 A2984=
200503122100 METAR MRLB 122100Z 07020KT 9999 SCT035 BKN250 33/20 A2983=
200503122200 METAR MRLB 122200Z 09018KT 9999 SCT035 BKN250 32/19 A2984=
200503122300 METAR MRLB 122300Z 10014KT 9999 FEW035 BKN250 31/19 A2984=
200503130000 METAR MRLB 130000Z 09012KT 9999 FEW035 SCT250 30/18 A2984=
200503130100 METAR MRLB 130100Z 09014KT 9999 SCT035 BKN250 29/19 A2984=
200503130200 METAR MRLB NIL=
200503130300 METAR MRLB NIL=
200503130400 METAR MRLB NIL=
200503130500 METAR MRLB NIL=
200503130600 METAR MRLB NIL=
200503130700 METAR MRLB NIL=
200503130800 METAR MRLB NIL=
200503130900 METAR MRLB NIL=
200503131000 METAR MRLB NIL=
200503131100 METAR MRLB NIL=
200503131200 METAR MRLB NIL=
200503131300 METAR MRLB 131300Z 03005KT CAVOK 25/19 A2990=
200503131400 METAR MRLB 131400Z 35004KT CAVOK 28/20 A2991=
200503131500 METAR MRLB 131500Z 07014KT CAVOK 31/17 A2991=
200503131600 METAR MRLB 131600Z 08014KT CAVOK 33/18 A2992=
200503131700 METAR MRLB 131700Z 08007KT CAVOK 34/18 A2990=
200503131800 METAR MRLB 131800Z 08012KT CAVOK 35/18 A2987=
200503131900 METAR MRLB 131900Z 07010KT CAVOK 34/19 A2984=
200503132000 METAR MRLB 132000Z 07008KT 9999 FEW035 SCT250 34/19 A2980=
200503132100 METAR MRLB 132100Z 06011KT 9999 FEW035 SCT250 35/18 A2977=
200503132200 METAR MRLB 132200Z 04010KT 9999 FEW035 BKN250 35/18 A2977=
200503132300 METAR MRLB 132300Z 28007KT 9999 SCT035 SCT250 31/20=
200503140000 METAR MRLB 140000Z 29007KT 9999 FEW035 BKN250 29/21 A2980=
200503140100 METAR MRLB NIL=
200503140200 METAR MRLB NIL=
200503140300 METAR MRLB NIL=
200503140400 METAR MRLB NIL=
200503140500 METAR MRLB NIL=
200503140600 METAR MRLB NIL=
200503140700 METAR MRLB NIL=
200503140800 METAR MRLB NIL=
200503140900 METAR MRLB NIL=
200503141000 METAR MRLB NIL=
200503141100 METAR MRLB NIL=
200503141200 METAR MRLB NIL=
200503141300 METAR MRLB 141300Z 00000KT CAVOK 22/19 A2986=
200503141400 METAR MRLB 141400Z 3004KT CAVOK 26/19 A2988=
200503141500 METAR MRLB 141500Z 05004KT CAVOK 31/18 A2988=
200503141600 METAR MRLB 141600Z 07013KT CAVOK 33/17 A2987=
200503141700 METAR MRLB 141700Z 07011KT CAVOK 33/18 A2984=
200503141800 METAR MRLB 141800Z 06011KT 9999 FEW040 BKN250 34/18 A2982=
200503141900 METAR MRLB 141900Z 07013KT 9999 SCT040 BKN250 34/18 A2979=
200503142000 METAR MRLB 142000Z 08010KT 9999 FEW040 OVC250 36/16 A2977=
200503142100 METAR MRLB 142100Z 10005KT 9999 FEW040 BKN250 34/16 A2974=
200503142200 METAR MRLB 142200Z 04009KT 9999 FEW040 SCT150 35/17 A2973=
200503142300 METAR MRLB 142300Z 29005KT 9999 FEW040 33/19 A2974=
200503150000 METAR MRLB 150000Z 30006KT 9999 BKN040 30/20 A2976=
200503150100 METAR MRLB NIL=
200503150200 METAR MRLB NIL=
200503150300 METAR MRLB NIL=
200503150400 METAR MRLB NIL=
200503150500 METAR MRLB NIL=
200503150600 METAR MRLB NIL=
200503150700 METAR MRLB NIL=
200503150800 METAR MRLB NIL=
200503150900 METAR MRLB NIL=
200503151000 METAR MRLB NIL=
200503151100 METAR MRLB NIL=
200503151200 METAR MRLB NIL=
200503151300 METAR MRLB 151300Z 00000KT 9999 SKC 26/20 A2983=
200503151400 METAR MRLB 151400Z 09004KT 9999 SKC 28/20 A2985=
200503151500 METAR MRLB 151500Z 07003KT 9999 SKC 31/20 A2986=
200503151600 METAR MRLB 151600Z 09008KT 9999 FEW035 35/19 A2986=
200503151700 METAR MRLB 151700Z 07004KT 9999 FEW035 34/18 A2985=
200503151800 METAR MRLB 151800Z 07010KT 9999 SCT035 37/17 A2981=
200503151900 METAR MRLB 151900Z 04011KT 9999 SCT035 36/17 A2979=
200503152000 METAR MRLB 152000Z 10007KT 9999 SCT035 38/17 A2975=
200503152100 METAR MRLB 152100Z 04013KT 9999 SCT035 35/17 A2973=
200503152200 METAR MRLB 152200Z 04010KT 9999 FEW040 36/16 A2972=
200503152300 METAR MRLB 152300Z 31007KT 9999 FEW040 33/20 A2973=
200503160000 METAR MRLB 160000Z 29005KT 9999 FEW040 30/22 A2975=
200503160100 METAR MRLB 160100Z 30004KT CAVOK 29/23 A2978=
200503160200 METAR MRLB NIL=
200503160300 METAR MRLB NIL=
200503160400 METAR MRLB NIL=
200503160500 METAR MRLB NIL=
200503160600 METAR MRLB NIL=
200503160700 METAR MRLB NIL=
200503160800 METAR MRLB NIL=
200503160900 METAR MRLB NIL=
200503161000 METAR MRLB NIL=
200503161100 METAR MRLB NIL=
200503161200 METAR MRLB NIL=
200503161300 METAR MRLB 161300Z 00000KT CAVOK 25/21 A2986=
200503161400 METAR MRLB 161400Z 00000KT CAVOK 29/21 A2988=
200503161500 METAR MRLB 161500Z 10004KT CAVOK 31/21 A2988=
200503161600 METAR MRLB 161600Z 13009KT 9999 FEW035 BKN250 33/20 A2987=
200503161700 METAR MRLB 161700Z 08007KT 9999 SCT035 BKN250 34/20 A2985=
200503161800 METAR MRLB 161800Z 09004KT 9999 SCT035 BKN250 34/19 A2982=
200503161900 METAR MRLB 161900Z 28011KT 9999 SCT040 SCT250 31/22 A2980=
200503162000 METAR MRLB 162000Z 29011KT 9999 FEW040 SCT250 34/21 A2972=
200503162100 METAR MRLB 162100Z 27012KT 9999 FEW035 SCT250 32/21 A2975=
200503162200 METAR MRLB 162200Z 28010KT 9999 FEW035 SCT250 32/22 A2975=
200503162300 METAR MRLB 162300Z 29011KT 9999 SCT035 BKN250 31/23 A2976=
200503170000 METAR MRLB 170000Z 27008KT 9999 SCT035 BKN250 29/23 A2979=
200503170100 METAR MRLB 170100Z 27006KT 9999 SCT035 BKN250 28/23 A2980=
200503170200 METAR MRLB NIL=
200503170300 METAR MRLB NIL=
200503170400 METAR MRLB NIL=
200503170500 METAR MRLB NIL=
200503170600 METAR MRLB NIL=
200503170700 METAR MRLB NIL=
200503170800 METAR MRLB NIL=
200503170900 METAR MRLB NIL=
200503171000 METAR MRLB NIL=
200503171100 METAR MRLB NIL=
200503171200 METAR MRLB NIL=
200503171300 METAR MRLB 171300Z 08005KT 9999 SCT035 BKN250 26/23 A2988=
200503171400 METAR MRLB 171400Z 10006KT 9999 FEW035 SCT250 29/23 A2990=
200503171500 METAR MRLB 171500Z 16005KT 9999 FEW035 SCT250 31/22 A2989=
200503171600 METAR MRLB 171600Z 00000KT 9999 SCT035 32/22 A2989=
200503171700 METAR MRLB 171700Z 23003KT 9999 SCT035 34/22 A2987=
200503171800 METAR MRLB 171800Z 26005KT 9999 SCT035 35/22 A2984=
200503171900 METAR MRLB 171900Z 29012KT 9999 SCT040 33/22 A2982=
200503172000 METAR MRLB 172000Z 28014KT 9999 FEW040 33/22 A2980=
200503172100 METAR MRLB 172100Z 28010KT 9999 SCT040 34/21 A2979=
200503172200 METAR MRLB 172200Z 27006KT 9999 FEW040 SCT250 34/21 A2978=
200503172300 METAR MRLB 172300Z 28008KT 9999 FEW035 BKN250 31/22 A2979=
200503180000 METAR MRLB 180000Z 28009KT 9999 FEW035 OVC250 28/23 A2982=
200503180100 METAR MRLB 180100Z 27003KT 9999 FEW035 OVC250 28/23 A2983=
200503180200 METAR MRLB NIL=
200503180300 METAR MRLB NIL=
200503180400 METAR MRLB NIL=
200503180500 METAR MRLB NIL=
200503180600 METAR MRLB NIL=
200503180700 METAR MRLB NIL=
200503180800 METAR MRLB NIL=
200503180900 METAR MRLB NIL=
200503181000 METAR MRLB NIL=
200503181100 METAR MRLB NIL=
200503181200 METAR MRLB NIL=
200503181300 METAR MRLB 181300Z 06003KT CAVOK 25/23 A2990=
200503181400 METAR MRLB 181400Z 33003KT CAVOK 28/23 A2991=
200503181500 METAR MRLB 181500Z 32003KT 9999 FEW035 SCT280 31/22 A2992=
200503181600 METAR MRLB 181600Z 03006KT 9999 FEW035 33/21 A2991 NOSIG=
200503181700 METAR MRLB 181700Z 27009KT 9999 BKN035 33/22 A2988 RMK HZ LEVE ARWND=
200503181800 METAR MRLB 181800Z 28009KT 9999 BKN035 34/22 A2984 RMK LEVE HZY=
200503181900 METAR MRLB 181900Z 11009KT 9999 SCT035 35/20 A2981 RMK LEVE HZY=
200503182000 METAR MRLB 182000Z 09009KT 9999 SCT035 35/19 A2979=
200503182100 METAR MRLB 182100Z 06013KT 9999 FEW035 35/18 A2975=
200503182200 METAR MRLB 182200Z 06008KT 9999 FEW040 35/19 A2975=
200503182300 METAR MRLB 182300Z 06012KT 9999 FEW040 BKN270 35/20 A2976=
200503190000 METAR MRLB 190000Z 06011KT 9999 FEW045 BKN280 33/20 A2977=
200503190100 METAR MRLB 190100Z 08006KT CAVOK 32/20 A2979=
200503190200 METAR MRLB NIL=
200503190300 METAR MRLB NIL=
200503190400 METAR MRLB NIL=
200503190500 METAR MRLB NIL=
200503190600 METAR MRLB NIL=
200503190700 METAR MRLB NIL=
200503190800 METAR MRLB NIL=
200503190900 METAR MRLB NIL=
200503191000 METAR MRLB NIL=
200503191100 METAR MRLB NIL=
200503191200 METAR MRLB NIL=
200503191300 METAR MRLB 191300Z 11007KT CAVOK 27/20 A2988=
200503191400 METAR MRLB 191400Z 09012KT CAVOK 30/19 A2990=
200503191500 METAR MRLB 191500Z 08014KT CAVOK 31/19 A2991=
200503191600 METAR MRLB 191600Z 11010KT CAVOK 32/19 A2990=
200503191700 METAR MRLB 191700Z 06013KT CAVOK 35/18 A2988=
200503191800 METAR MRLB 191800Z 07012KT CAVOK 35/18 A2985=
200503191900 METAR MRLB 191900Z 07012KT CAVOK 37/18 A2981=
200503192000 METAR MRLB 192000Z 09012KT CAVOK 36/17 A2980=
200503192100 METAR MRLB 192100Z 07010KT CAVOK 37/17 A2977=
200503192200 METAR MRLB 192200Z 06009KT 9999 FEW040 OVC250 35/18 A2977=
200503192300 METAR MRLB 192300Z 07010KT CAVOK 35/18 A2978=
200503200000 METAR MRLB 200000Z 07006KT CAVOK 33/18 A2980=
200503200100 METAR MRLB NIL=
200503200200 METAR MRLB NIL=
200503200300 METAR MRLB NIL=
200503200400 METAR MRLB NIL=
200503200500 METAR MRLB NIL=
200503200600 METAR MRLB NIL=
200503200700 METAR MRLB NIL=
200503200800 METAR MRLB NIL=
200503200900 METAR MRLB NIL=
200503201000 METAR MRLB NIL=
200503201100 METAR MRLB NIL=
200503201200 METAR MRLB NIL=
200503201300 METAR MRLB 201300Z 28004KT CAVOK 25/20 A2989=
200503201400 METAR MRLB 201400Z 00000KT CAVOK 28/21 A2990=
200503201500 METAR MRLB 201500Z 08009KT CAVOK 32/16 A2990=
200503201600 METAR MRLB 201600Z 09010KT CAVOK 33/20 A2989=
200503201700 METAR MRLB 201700Z 10006KT 9999 FEW030 BKN250 34/20 A2988=
200503201800 METAR MRLB 201800Z 12011KT 9999 FEW035 BKN250 35/19 A2985=
200503201900 METAR MRLB 201900Z 08011KT 9999 SCT035 OVC250 35/19 A2983=
200503202000 METAR MRLB 202000Z 04007KT 9999 SCT035 OVC250 35/19 A2980=
200503202100 METAR MRLB 202100Z 28009KT 9999 SCT035 OVC250 32/20 A2978=
200503202200 METAR MRLB 202200Z 29010KT 9999 FEW035 OVC250 32/22 A2978=
200503202300 METAR MRLB 202300Z 29005KT 9999 SCT035 OVC250 31/22 A2979=
200503210000 METAR MRLB 210000Z 29006KT 9999 SCT035 OVC250 30/23 A2982=
200503210100 METAR MRLB 210100Z 26005KT 9999 SCT030 OVC240 29/22 A2983=
200503210200 METAR MRLB NIL=
200503210300 METAR MRLB NIL=
200503210400 METAR MRLB NIL=
200503210500 METAR MRLB NIL=
200503210600 METAR MRLB NIL=
200503210700 METAR MRLB NIL=
200503210800 METAR MRLB NIL=
200503210900 METAR MRLB NIL=
200503211000 METAR MRLB NIL=
200503211100 METAR MRLB NIL=
200503211200 METAR MRLB NIL=
200503211300 METAR MRLB 211300Z 17003KT CAVOK 26/21 A2984=
200503211400 METAR MRLB 211400Z 19004KT CAVOK 29/21 A2986=
200503211500 METAR MRLB 211500Z 18004KT CAVOK 31/21 A2988=
200503211600 METAR MRLB 211600Z 18006KT CAVOK 33/20 A2987=
200503211700 METAR MRLB 211700Z 06009KT 9999 FEW035 BKN250 35/19 A2984=
200503211800 METAR MRLB 211800Z 16007KT 9999 SCT035 BKN250 35/18 A2980=
200503211900 METAR MRLB 211900Z 29008KT 9999 SCT035 OVC250 32/22 A2997=
200503212000 METAR MRLB 212000Z 28011KT 9999 SCT040 OVC250 31/21 A2974=
200503212100 METAR MRLB 212100Z 27013KT 9999 FEW040 BKN250 32/21 A2972=
200503212300 METAR MRLB 212300Z 26010KT 9999 SCT040 SCT250 31/20 A2973=
200503220000 METAR MRLB NIL=
200503220100 METAR MRLB NIL=
200503220200 METAR MRLB NIL=
200503220300 METAR MRLB NIL=
200503220400 METAR MRLB NIL=
200503220500 METAR MRLB NIL=
200503220600 METAR MRLB NIL=
200503220700 METAR MRLB NIL=
200503220800 METAR MRLB NIL=
200503220900 METAR MRLB NIL=
200503221000 METAR MRLB NIL=
200503221100 METAR MRLB NIL=
200503221200 METAR MRLB NIL=
200503221300 METAR MRLB 221300Z 00000KT CAVOK 25/21 A2982=
200503221400 METAR MRLB 221400Z 00000KT CAVOK 29/21 A2984=
200503221500 METAR MRLB 221500Z 03003KT CAVOK 31/20 A2985=
200503221600 METAR MRLB 221600Z 07009KT 9999 FEW035 33/20 A2985 RMK HZY=
200503221700 METAR MRLB 221700Z 04008KT 9999 SCT035 35/20 A2982 RMK HZY=
200503221800 METAR MRLB 221800Z 12006KT 9999 BKN035 35/18 A2980=
200503221900 METAR MRLB 221900Z 07005KT 9999 SCT035TCU SCT130 34/19 A2978 RMK HZY=
200503222000 METAR MRLB 222000Z 27010KT 9999 FEW030TCU SCT035 33/22 A2976=
200503222100 METAR MRLB 222100Z 27008KT 9999 BKN035 35/21 A2973 RMK LEVE HZY=
200503222200 METAR MRLB 222200Z 28009KT 9999 SCT035 BKN250 34/21 A2973=
200503222300 METAR MRLB 222300Z 17009KT 9999 FEW035TCU BKN040 33/22 A2974=
200503230000 METAR MRLB 230000Z 18010KT 9999 BKN035 OVC250 32/22 A2977=
200503230100 METAR MRLB NIL=
200503230200 METAR MRLB NIL=
200503230300 METAR MRLB NIL=
200503230400 METAR MRLB NIL=
200503230500 METAR MRLB NIL=
200503230600 METAR MRLB NIL=
200503230700 METAR MRLB NIL=
200503230800 METAR MRLB NIL=
200503230900 METAR MRLB NIL=
200503231000 METAR MRLB NIL=
200503231100 METAR MRLB NIL=
200503231200 METAR MRLB NIL=
200503231300 METAR MRLB 231300Z 00000KT CAVOK 26/21 A2985 RMK LEVE HZY=
200503231400 METAR MRLB 231400Z 00000KT CAVOK 28/21 A2987 RMK LEVE HZY=
200503231500 METAR MRLB 231500Z 00000KT CAVOK 31/21 A2989 RMK HZY=
200503231600 METAR MRLB 231600Z 20006KT CAVOK 33/21 A2987 RMK HZY=
200503231700 METAR MRLB 231700Z VRB03KT 9999 BKN035 BKN280 33/20 A2986 RMK HZY=
200503231800 METAR MRLB 231800Z 26007KT 9999 FEW030TCU SCT035 OVC280 33/21 A284 RMK LEVE HZY RN DST SE=
200503231900 METAR MRLB 231900Z 31006KT 9999 FEW030TCU SCT035 OVC280 31/23 A2982 RERA=
200503232000 METAR MRLB 232000Z 33006KT 9999 SCT035 OVC280 32/23 A2979=
200503232100 METAR MRLB 232100Z 10006KT FEW040 BKN140 OVC280 34/22 A2977=
200503232200 METAR MRLB 232200Z 11009KT 9999 FEW040 BKN140 33/21 A2976=
200503232300 METAR MRLB 232300Z 10007KT 9999 FEW040 SCT140 OVC270 32/21 A2978=
200503240000 METAR MRLB 240000Z 11009KT 9999 BKN040 OVC270 32/22 A2979=
200503240100 METAR MRLB 240100Z 11009KT 9999 SCT040 OVC250 30/21 A2980=
200503240200 METAR MRLB NIL=
200503240300 METAR MRLB NIL=
200503240400 METAR MRLB NIL=
200503240500 METAR MRLB NIL=
200503240600 METAR MRLB NIL=
200503240700 METAR MRLB NIL=
200503240800 METAR MRLB NIL=
200503240900 METAR MRLB NIL=
200503241000 METAR MRLB NIL=
200503241100 METAR MRLB NIL=
200503241200 METAR MRLB NIL=
200503241300 METAR MRLB 241300Z 35003KT CAVOK 25/21 A2989=
200503241400 METAR MRLB 241400Z 17003KT CAVOK 28/22 A2990=
200503241500 METAR MRLB 241500Z 36008KT CAVOK 32/21 A2991=
200503241600 METAR MRLB 241600Z 27004KT 9999 FEW035 OVC250 32/21 A2991=
200503241700 METAR MRLB 241700Z 25006KT 9999 SCT035 OVC250 33/21 A2990=
200503241800 METAR MRLB 241800Z 18003KT 9999 SCT035 OVC250 34/20 A2987=
200503241900 METAR MRLB 241900Z 24005KT 9999 SCT040 OVC250 35/21 A2984=
200503242000 METAR MRLB 242000Z 28009KT 9999 FEW040 OVC250 33/22 A2981=
200503242100 METAR MRLB 242100Z 28006KT 9999 SCT035 OVC250 34/21 A2978=
200503242200 METAR MRLB 242200Z 23004KT 9999 SCT035 BKN250 34/21 A2978=
200503242300 METAR MRLB 242300Z 32006KT 9999 SCT035 OVC250 32/21 A2979=
200503250100 METAR MRLB 250100Z 12006KT 9999 SCT035 BKN250 30/22 A2984=
200503250200 METAR MRLB NIL=
200503250300 METAR MRLB NIL=
200503250400 METAR MRLB NIL=
200503250500 METAR MRLB NIL=
200503250600 METAR MRLB NIL=
200503250700 METAR MRLB NIL=
200503250800 METAR MRLB NIL=
200503250900 METAR MRLB NIL=
200503251000 METAR MRLB NIL=
200503251100 METAR MRLB NIL=
200503251200 METAR MRLB NIL=
200503251300 METAR MRLB 251300Z 16003KT CAVOK 25/21 A2988=
200503251400 METAR MRLB 251400Z 00000KT CAVOK 29/22 A2990=
200503251500 METAR MRLB 251500Z 16003KT CAVOK 31/22 A2990=
200503251600 METAR MRLB 251600Z 00000KT CAVOK 34/29 A2989=
200503251700 METAR MRLB 251700Z 05006KT CAVOK 35/19 A2986=
200503251800 METAR MRLB 251800Z 06012KT 9999 FEW035 BKN250 36/19 A2983=
200503251900 METAR MRLB 251900Z 04009KT 9999 SCT040 BKN250 37/19 A2979=
200503252000 METAR MRLB 252000Z 10009KT 9999 FEW040 BKN250 37/19 A2976=
200503252100 METAR MRLB 252100Z 06011KT 9999 SCT035 OVC250 37/19 A2973=
200503252200 METAR MRLB 252200Z 05012KT 9999 FEW035 BKN250 36/20 A2974=
200503252300 METAR MRLB 252300Z 06010KT 9999 FEW035 OVC250 34/20 A2974=
200503260000 METAR MRLB 260000Z 06010KT CAVOK 32/20 A2975=
200503260100 METAR MRLB 260100Z 14003KT CAVOK 31/21 A2979/=
200503260200 METAR MRLB NIL=
200503260300 METAR MRLB NIL=
200503260400 METAR MRLB NIL=
200503260500 METAR MRLB NIL=
200503260600 METAR MRLB NIL=
200503260700 METAR MRLB NIL=
200503260800 METAR MRLB NIL=
200503260900 METAR MRLB NIL=
200503261000 METAR MRLB NIL=
200503261100 METAR MRLB NIL=
200503261200 METAR MRLB NIL=
200503261300 METAR MRLB 261300Z 21005KT CAVOK 25/21 A2983=
200503261400 METAR MRLB 261400Z 11006KT CAVOK 30/21 A2985=
200503261500 METAR MRLB 261500Z 04007KT CAVOK 32/21 A2985=
200503261600 METAR MRLB 261600Z 07008KT 9999 FEW035 BKN250 34/20 A2984=
200503261700 METAR MRLB 261700Z 07016KT 9999 FEW035 BKN250 35/17 A2982=
200503261800 METAR MRLB 261800Z 10009KT 9999 FEW035 BKN250 35/16 A2978=
200503261900 METAR MRLB 261900Z 06010KT 9999 FEW040 OVC250 36/16 A2974=
200503262000 METAR MRLB 262000Z 10012KT 9999 FEW040 BKN250 36/16 A2971=
200503262100 METAR MRLB 262100Z 07010KT 9999 FEW040 BKN250 36/16 A2969=
200503262300 METAR MRLB 262300Z 07010KT 9999 FEW040 BKN250 34/17 A2970=
200503270000 METAR MRLB 270000Z 07013KT 9999 FEW040 BKN250 32/17 A2974=
200503270100 METAR MRLB 270100Z 07011KT 9999 FEW040 BKN250 31/17 A2975=
200503270200 METAR MRLB NIL=
200503270300 METAR MRLB NIL=
200503270400 METAR MRLB NIL=
200503270500 METAR MRLB NIL=
200503270600 METAR MRLB NIL=
200503270700 METAR MRLB NIL=
200503270800 METAR MRLB NIL=
200503270900 METAR MRLB NIL=
200503271000 METAR MRLB NIL=
200503271100 METAR MRLB NIL=
200503271200 METAR MRLB NIL=
200503271300 METAR MRLB 271300Z 00000KT CAVOK 24/17 A2982 RMK HZY=
200503271400 METAR MRLB 271400Z 00000KT CAVOK 27/18 A2983 RMK HZY=
200503271500 METAR MRLB 271500Z 00000KT CAVOK 30/17 A2984 RMK LEVE HZY=
200503271600 METAR MRLB 271600Z 22006KT CAVOK 34/18 A2983 RMK LEVE HZY=
200503271700 METAR MRLB 271700Z 07006KT CAVOK 35/17 A2981=
200503271800 METAR MRLB 271800Z 14008KT 9999 SCT035 BKN250 35/17 A2978=
200503271900 METAR MRLB 271900Z 14004KT 9999 FEW040 SCT130 OVC250 36/18 A2976 RMK HZY=
200503272000 METAR MRLB 272000Z 11009KT 9999 SCT040 BKN130 35/17 A2975=
200503272100 METAR MRLB 272100Z 25013KT 9999 SCT040 BKN130 33/19 A2974=
200503272200 METAR MRLB 272200Z 26009KT 9999 FEW040 SCT130 BKN150 35/19 A2972=
200503272300 METAR MRLB 272300Z 27007KT 9999 SCT040 BKN140 33/20 A2973=
200503280000 METAR MRLB 280000Z 27007KT 9999 SCT035 BKN250 31/21 A2976=
200503280100 METAR MRLB 280100Z 14007KT 9999 SCT040 BKN250 31/21 A2977=
200503280200 METAR MRLB NIL=
200503280300 METAR MRLB NIL=
200503280400 METAR MRLB NIL=
200503280500 METAR MRLB NIL=
200503280600 METAR MRLB NIL=
200503280700 METAR MRLB NIL=
200503280800 METAR MRLB NIL=
200503280900 METAR MRLB NIL=
200503281000 METAR MRLB NIL=
200503281100 METAR MRLB NIL=
200503281200 METAR MRLB NIL=
200503281300 METAR MRLB 281300Z 00000KT CAVOK 27/20 A2986=
200503281400 METAR MRLB 281400Z 00000KT CAVOK 28/21 A2988=
200503281500 METAR MRLB 281500Z 14003KT CAVOK 31/21 A2988=
200503281600 METAR MRLB 281600Z 15008KT CAVOK 33/21 A2987=
200503281700 METAR MRLB 281700Z 12005KT 9999 FEW035 OVC250 33/20 A2986=
200503281800 METAR MRLB 281800Z 04007KT 9999 SCT035 OVC250 35/19 A2982=
200503281900 METAR MRLB 281900Z 28011KT 9999 SCT035 OVC250 32/22 A2980=
200503282000 METAR MRLB 282000Z 29010KT 9999 SCT030 BKN140 30/21 A2979=
200503282100 METAR MRLB 282100Z 28006KT 9999 SCT035 BKN140 28/23 A2978=
200503282200 METAR MRLB 282200Z 07007KT 9999 SCT035 OVC130 28/23 A2977=
200503282300 METAR MRLB 282300Z 22004KT 9999 FEW045 OVC130 29/23 A2978=
200503290000 METAR MRLB 290000Z 12008KT 9999 FEW035 BKN130 29/19 A2980=
200503290100 METAR MRLB NIL=
200503290200 METAR MRLB NIL=
200503290300 METAR MRLB NIL=
200503290400 METAR MRLB NIL=
200503290500 METAR MRLB NIL=
200503290600 METAR MRLB NIL=
200503290700 METAR MRLB NIL=
200503290800 METAR MRLB NIL=
200503290900 METAR MRLB NIL=
200503291000 METAR MRLB NIL=
200503291100 METAR MRLB NIL=
200503291200 METAR MRLB NIL=
200503291300 METAR MRLB 291300Z 00000KT CAVOK 26/23 A2987=
200503291400 METAR MRLB 291400Z 00000KT 9999 FEW035 BKN250 28/24 A2989=
200503291500 METAR MRLB 291500Z 09007KT 9999 FEW035 OVC250 31/23 A2989=
200503291600 METAR MRLB 291600Z 10008KT 9999 FEW035 OVC250 33/21 A2988=
200503291700 METAR MRLB 291700Z 09014KT 9999 SCT035 OVC250 35/20 A2987=
200503291800 METAR MRLB 291800Z 10011KT 9999 SCT035 BKN250 35/19 A2984=
200503291900 METAR MRLB 291900Z 09010KT 9999 SCT030 OVC250 35/19 A2982=
200503292000 METAR MRLB 292000Z 30015KT 9999 SCT030 OVC240 30/24 A2981=
200503292100 METAR MRLB 292100Z 28013KT 9999 SCT035 OVC240 29/23 A2979=
200503292200 METAR MRLB 292200Z 28011KT 9999 SCT035 OVC240 28/23 A2979=
200503292300 METAR MRLB 292300Z 28007KT 9999 SCT035 BKN140 29/23 A2980=
200503300000 METAR MRLB 300000Z 27007KT 9999 SCT030 BKN130 28/24 A2984=
200503300100 METAR MRLB 300100Z 23006KT 9999 SCT030 BKN130 26/23 A2985=
200503300200 METAR MRLB NIL=
200503300300 METAR MRLB NIL=
200503300400 METAR MRLB NIL=
200503300500 METAR MRLB NIL=
200503300600 METAR MRLB NIL=
200503300700 METAR MRLB NIL=
200503300800 METAR MRLB NIL=
200503300900 METAR MRLB NIL=
200503301000 METAR MRLB NIL=
200503301100 METAR MRLB NIL=
200503301200 METAR MRLB NIL=
200503301300 METAR MRLB 301300Z 00000KT CAVOK 23/21 A2987=
200503301400 METAR MRLB 301400Z 28004KT CAVOK 27/21 A2989=
200503301500 METAR MRLB 301500Z 09015KT CAVOK 33/15 A2989=
200503301600 METAR MRLB 301600Z 09015KT CAVOK 33/14 A2988=
200503301700 METAR MRLB 301700Z 09012KT CAVOK 35/14 A2987=
200503301800 METAR MRLB 301800Z 09011KT CAVOK 35/15 A2984=
200503301900 METAR MRLB 301900Z 10009KT CAVOK 37/14 A2981=
200503302000 METAR MRLB 302000Z 09015KT 9999 FEW040 BKN250 36715 A2978=
200503302100 METAR MRLB 302100Z 05009KT CAVOK 36/15 A2976=
200503302200 METAR MRLB 302200Z 08006KT 9999 FEW040 BKN250 35/15 A2976=
200503302300 METAR MRLB 302300Z 07010KT CAVOK 34/13 A2977=
200503310000 METAR MRLB 310000Z 33004KT CAVOK 32/16 A2979=
200503310100 METAR MRLB NIL=
200503310200 METAR MRLB NIL=
200503310300 METAR MRLB NIL=
200503310400 METAR MRLB NIL=
200503310500 METAR MRLB NIL=
200503310600 METAR MRLB NIL=
200503310700 METAR MRLB NIL=
200503310800 METAR MRLB NIL=
200503310900 METAR MRLB NIL=
200503311000 METAR MRLB NIL=
200503311100 METAR MRLB NIL=
200503311200 METAR MRLB NIL=
200503311300 METAR MRLB 311300Z 00000KT CAVOK 24/19 A2986=
200503311400 METAR MRLB 311400Z 00000KT CAVOK 27/19 A2989=
200503311500 METAR MRLB 311500Z 04005KT CAVOK 30/19 A2989=
200503311600 METAR MRLB 311600Z 10004KT CAVOK 32/17 A2987=
200503311700 METAR MRLB 311700Z 09004KT 9999 FEW040 34/16 A2985=
200503311800 METAR MRLB 311800Z 14007KT 9999 SCT035 36/17 A2982=
200503311900 METAR MRLB 311900Z 23008KT 9999 BKN035 36/16 A2979=
200503312000 METAR MRLB 312000Z 17011KT 9999 BKN035 34/19 A2976=
200503312100 METAR MRLB 312100Z 28011KT 9999 BKN035 33/18 A2975=
200503312200 METAR MRLB 312200Z 28011KT 9999 SCT035 34/19 A2974=
200503312300 METAR MRLB 312300Z 28011KT 9999 FEW030TCU SCT035 32/21 A2976=
200504010000 METAR MRLB 010000Z 23008KT 9999 BKN035 OVC280 30/22 A2978=
200504010100 METAR MRLB NIL=
200504010200 METAR MRLB NIL=
200504010300 METAR MRLB NIL=
200504010400 METAR MRLB NIL=
200504010500 METAR MRLB NIL=
200504010600 METAR MRLB NIL=
200504010700 METAR MRLB NIL=
200504010800 METAR MRLB NIL=
200504010900 METAR MRLB NIL=
200504011000 METAR MRLB NIL=
200504011100 METAR MRLB NIL=
200504011200 METAR MRLB NIL=
200504011300 METAR MRLB 011300Z 00000KT CAVOK 26/19 A2987=
200504011400 METAR MRLB 011400Z 0114000 00000KT CAVOK 28/20 A2989=
200504011500 METAR MRLB 011500Z 28003KT CAVOK 31/19 A2989=
200504011600 METAR MRLB 011600Z 19004KT 9999 FEW035 BKN250 33/19 A2988=
200504011700 METAR MRLB 011700Z 00000KT 9999 FEW035 BKN250 35/18 A2985=
200504011800 METAR MRLB 011800Z 00000KT 9999 SCT035 BKN250 35/18 A2983=
200504011900 METAR MRLB 011900Z 27012KT 9999 SCT035 OVC250 34/21 A2981=
200504012000 METAR MRLB NIL=
200504012100 METAR MRLB 012100Z 28014KT 9999 SCT035 OVC250 32/21 A2977=
200504012200 METAR MRLB 012200Z 27012KT 9999 SCT035 BKN250 31/20 A2976=
200504012300 METAR MRLB 012300Z 27010KT 9999 SCT030 OVC240 30/20 A2977=
200504020000 METAR MRLB 020000Z 27005KT 9999 SCT035 OVC240 30/20 A2979=
200504020100 METAR MRLB NIL=
200504020200 METAR MRLB NIL=
200504020300 METAR MRLB NIL=
200504020400 METAR MRLB NIL=
200504020500 METAR MRLB NIL=
200504020600 METAR MRLB NIL=
200504020700 METAR MRLB NIL=
200504020800 METAR MRLB NIL=
200504020900 METAR MRLB NIL=
200504021000 METAR MRLB NIL=
200504021100 METAR MRLB NIL=
200504021200 METAR MRLB NIL=
200504021300 METAR MRLB 021300Z 00000KT CAVOK 26/21 A2986=
200504021400 METAR MRLB 021400Z 34005KT CAVOK 29/22 A2988=
200504021500 METAR MRLB 021500Z 34004KT 9999 FEW035 SCT250 32/21 A2989=
200504021600 METAR MRLB 021600Z 29006KT 9999 FEW035 BKN250 32/23 A2989=
200504021700 METAR MRLB 021700Z 32004KT 9999 SCT035 SCT250 34/22 A2986=
200504021800 METAR MRLB 021800Z 09014KT 9999 FEW035 BKN250 35/19 A2983=
200504021900 METAR MRLB 021900Z 07010KR 9999 SCT035 OVC250 36/18 A2980=
200504022000 METAR MRLB 022000Z 09011KT 9999 SCT035 OVC250 36/18 A2976=
200504022100 METAR MRLB 022100Z 05013KT 9999 SCT035 OVC250 37/17 A2975=
200504022200 METAR MRLB 022200Z 07014KT 9999 FEW035 OVC250 35/18 A2974=
200504022300 METAR MRLB 022300Z 08015KT 9999 FEW035 BKN250 34/19 A2975=
200504030000 METAR MRLB 030000Z 08012KT CAVOK 32/20 A2977=
200504030100 METAR MRLB 030100Z 08013KT CAVOK 31/19 A2979=
200504030200 METAR MRLB NIL=
200504030300 METAR MRLB NIL=
200504030400 METAR MRLB NIL=
200504030500 METAR MRLB NIL=
200504030600 METAR MRLB NIL=
200504030700 METAR MRLB NIL=
200504030800 METAR MRLB NIL=
200504030900 METAR MRLB NIL=
200504031000 METAR MRLB NIL=
200504031100 METAR MRLB NIL=
200504031200 METAR MRLB 031200Z 08014KT 9999 SKC 28/19 A2983=
200504031300 METAR MRLB 031300Z 08017KT 9999 SKC 29/19 A2986=
200504031400 METAR MRLB 031400Z 07020KT 9999 FEW035 30/19 A2989=
200504031500 METAR MRLB 031500Z 07026KT CAVOK 31/19 A2990=
200504031600 METAR MRLB 031600Z 05020KT 9999 FEW035 SCT250 33/20 A2990=
200504031700 METAR MRLB 031700Z 06021KT 9999 FEW035 BKN250 33/19 A2989=
200504031800 METAR MRLB 031800Z 07017KT 9999 FEW035 BKN250 33/19 A2987=
200504031900 METAR MRLB 031900Z 06020KT 9999 FEW035 BKN250 35/19 A2984=
200504032000 METAR MRLB 032000Z 07019KT 9999 FEW035 BKN250 32/20 A2982=
200504032100 METAR MRLB 032100Z 08023KT CAVOK 33/19 A2978=
200504032200 METAR MRLB 032200Z 07021KT CAVOK 33/18 A2978=
200504032300 METAR MRLB 032300Z 07022KT CAVOK 31/18 A2979=
200504040000 METAR MRLB 040000Z 07018KT CAVOK 29/19 A2980=
200504040100 METAR MRLB NIL=
200504040200 METAR MRLB NIL=
200504040300 METAR MRLB NIL=
200504040400 METAR MRLB NIL=
200504040500 METAR MRLB NIL=
200504040600 METAR MRLB NIL=
200504040700 METAR MRLB NIL=
200504040800 METAR MRLB NIL=
200504040900 METAR MRLB NIL=
200504041000 METAR MRLB NIL=
200504041100 METAR MRLB NIL=
200504041200 METAR MRLB 041200Z 02006KT CAVOK 22/18 A2983=
200504041300 METAR MRLB 041300Z 08014KT CAVOK 28/19 A2984=
200504041400 METAR MRLB 041400Z 08017KT 9999 SKC 30/19 A2986=
200504041600 METAR MRLB 041600Z 06020KT CAVOK 32/18 A2986=
200504041700 METAR MRLB 041700Z 06021KT CAVOK 34/16 A2984=
200504041800 METAR MRLB 041800Z 07018KT CAVOK 35/17 A2982=
200504041900 METAR MRLB 041900Z 05016KT 9999 FEW040 35/17 A2978=
200504042000 METAR MRLB 042000Z 07012KT 9999 FEW040 36/17 A2975=
200504042100 METAR MRLB 042100Z 06016KT CAVOK 35/16 A2974=
200504042200 METAR MRLB 042200Z 06016KT CAVOK 34/18 A2972=
200504042300 METAR MRLB 042300Z 07014KT CAVOK 33/17 A2973=
200504050000 METAR MRLB 050000Z 08013KT 9999 SKC 31/18 A2976=
200504050100 METAR MRLB NIL=
200504050200 METAR MRLB NIL=
200504050300 METAR MRLB NIL=
200504050400 METAR MRLB NIL=
200504050500 METAR MRLB NIL=
200504050600 METAR MRLB NIL=
200504050700 METAR MRLB NIL=
200504050800 METAR MRLB NIL=
200504050900 METAR MRLB NIL=
200504051000 METAR MRLB NIL=
200504051100 METAR MRLB NIL=
200504051200 METAR MRLB 051200Z 35005KT 9999 FEW035 BKN250 25/20 A2982=
200504051300 METAR MRLB 051300Z 03008KT 9999 FEW035 SCT140 OVC250 27/20 A2986=
200504051400 METAR MRLB 051400Z 07014KT 9999 SCT035 BKN140 29/20 A2987=
200504051500 METAR MRLB 051500Z 06018KT 9999 FEW030 BKN130 29/20 A2988=
200504051600 METAR MRLB 051600Z 07015KT 9999 FEW030 BKN130 30/19 A2987=
200504051700 METAR MRLB 051700Z 06016KT 9999 FEW035 BKN130 31/19 A2986=
200504051800 METAR MRLB 051800Z 07016KT 9999 FEW035 OVC130 32/19 A2984=
200504051900 METAR MRLB 051900Z 09012KT 9999 FEW035 BKN100 33/19 A2979=
200504052100 METAR MRLB 052100Z 07018KT 9999 FEW035 BKN130 32/18 A2974=
200504052200 METAR MRLB 052200Z 08016KT 9999 FEW035 OVC130 32/18 A2973=
200504052300 METAR MRLB 052300Z 09013KT 9999 FEW035 OVC130 31/19 A2974=
200504060000 METAR MRLB 060000Z 09020KT 9999 FEW035 OVC130 30/19 A2975=
200504060100 METAR MRLB NIL=
200504060200 METAR MRLB NIL=
200504060300 METAR MRLB NIL=
200504060400 METAR MRLB NIL=
200504060500 METAR MRLB NIL=
200504060600 METAR MRLB NIL=
200504060700 METAR MRLB NIL=
200504060800 METAR MRLB NIL=
200504060900 METAR MRLB NIL=
200504061000 METAR MRLB NIL=
200504061100 METAR MRLB NIL=
200504061200 METAR MRLB 061200Z 09013KT CAVOK 28/19 A2979=
200504061300 METAR MRLB NIL=
200504061400 METAR MRLB NIL=
200504061500 METAR MRLB 061500Z 06017KT CAVOK 33/19 A2984=
200504061600 METAR MRLB 061600Z 07015KT CAVOK 34/18 A2985=
200504061700 METAR MRLB 061700Z 07013KT CAVOK 35/18 A2983=
200504061800 METAR MRLB 061800Z 06016KT 9999 FEW035 BKN250 35/19 A2981=
200504061900 METAR MRLB 061900Z 07015KT 9999 FEW040 BKN250 36/19 A2978=
200504062000 METAR MRLB 062000Z 09016KT 9999 FEW040 SCT250 36/17 A2976=
200504062100 METAR MRLB 062100Z 05015KT CAVOK 36/16 A2974=
200504062200 METAR MRLB 062200Z 06017KT CAVOK 35/16 A2975=
200504062300 METAR MRLB 062300Z 07016KT CAVOK 32/18 A2977=
200504070000 METAR MRLB 070000Z 06015KT CAVOK 31/18 A2979=
200504070100 METAR MRLB NIL=
200504070200 METAR MRLB NIL=
200504070300 METAR MRLB NIL=
200504070400 METAR MRLB NIL=
200504070500 METAR MRLB NIL=
200504070600 METAR MRLB NIL=
200504070700 METAR MRLB NIL=
200504070800 METAR MRLB NIL=
200504070900 METAR MRLB NIL=
200504071000 METAR MRLB NIL=
200504071100 METAR MRLB NIL=
200504071200 METAR MRLB 071200Z 00000KT CAVOK 25/20 A2983=
200504071300 METAR MRLB 071300Z 10004KT CAVOK 26/20 A2986 RMK CB DST S/SW=
200504071400 METAR MRLB 071400Z 27003KT CAVOK 28/21 A2987 RMK HZ ARND=
200504071500 METAR MRLB 071500Z 35004KT 9999 FEW040 SCT140 0VC250 30/21 A2989 RMK HZ ARND=
200504071600 METAR MRLB 071600Z 03010KT 9999 FEW040 OVC250 33/20 A2988 RMK HZ LGT ARND=
200504071700 METAR MRLB 071700Z 08019KT 9999 FEW040 BKN250 36/19 A2985 RMK HZ LGT ARND=
200504071800 METAR MRLB 071800Z 08012KT 9999 FEW040 SCT250 35/20 A2983 RMK HZ LGT ARND=
200504071900 METAR MRLB 071900Z 08015KT 9999 FEW040 BKN250 36/19 A2978 RMK HZ LGT ARND CB DST NE=
200504072000 METAR MRLB 072000Z 07019KT 9999 FEW040 BKN250 35/19 A2976=
200504072100 METAR MRLB 072100Z 09015KT 9999 FEW040 SCT130 BKN250 34/20 A2974=
200504072200 METAR MRLB 072200Z 08013KT CAVOK 33/20 A2972=
200504072300 METAR MRLB 072300Z 08014KT 9999 FEW040 SCT120 OVC250 32/20 A2973=
200504080000 METAR MRLB 080000Z 08018KT 9999 SCT040 OVC250 31/20 A2975=
200504080100 METAR MRLB NIL=
200504080200 METAR MRLB NIL=
200504080300 METAR MRLB NIL=
200504080400 METAR MRLB NIL=
200504080500 METAR MRLB NIL=
200504080600 METAR MRLB NIL=
200504080700 METAR MRLB NIL=
200504080800 METAR MRLB NIL=
200504080900 METAR MRLB NIL=
200504081000 METAR MRLB NIL=
200504081100 METAR MRLB NIL=
200504081200 METAR MRLB 081200Z 00000KT CAVOK 24/20 A2979=
200504081300 METAR MRLB 081300Z 13003KT CAVOK 27/21 A2981=
200504081400 METAR MRLB 081400Z VRB03KT CAVOK 30/21 A2982=
200504081500 METAR MRLB 081500Z 08007KT CAVOK 32/20 A2983=
200504081600 METAR MRLB 081600Z 10019KT CAVOK 33/19 A2981=
200504081700 METAR MRLB 081700Z 10012KT CAVOK 34/18 A2981=
200504081800 METAR MRLB 081800Z 10009KT CAVOK 34/19 A2979=
200504081900 METAR MRLB 081900Z 09011KT 9999 FEW040 SCT140 OVC240 35/19 A2977=
200504082000 METAR MRLB 082000Z 11007KT 9999 FEW040 SCT140 OVC230 35/18 A2976=
200504082100 METAR MRLB 082100Z 07011KT CAVOK 34/18 A2975=
200504082200 METAR MRLB 082200Z 10006KT CAVOK 33/18 A2974=
200504082300 METAR MRLB 082300Z 08007KT 9999 FEW040 OVC150 31/19 A2975=
200504090000 METAR MRLB 090000Z 11007KT 9999 SCT040 OVC150 31/19 A2977=
200504090100 METAR MRLB NIL=
200504090200 METAR MRLB NIL=
200504090300 METAR MRLB NIL=
200504090400 METAR MRLB NIL=
200504090500 METAR MRLB NIL=
200504090600 METAR MRLB NIL=
200504090700 METAR MRLB NIL=
200504090800 METAR MRLB NIL=
200504090900 METAR MRLB NIL=
200504091000 METAR MRLB NIL=
200504091100 METAR MRLB NIL=
200504091200 METAR MRLB 091200Z 00000KT CAVOK 23/20 A2978=
200504091300 METAR MRLB 091300Z 05003KT CAVOK 25/21 A2980=
200504091400 METAR MRLB 091400Z 00000KT CAVOK 29/21 A2982=
200504091500 METAR MRLB 091500Z 07008KT CAVOK 32/20 A2982=
200504091600 METAR MRLB 091600Z 07014KT CAVOK 34/18 A2981=
200504091700 METAR MRLB 091700Z 07018KT CAVOK 35/18 A2980=
200504091800 METAR MRLB 091800Z 08014KT 9999 FEW035 BKN250 36/17 A2978=
200504091900 METAR MRLB 091900Z 07014KT 9999 FEW040 SCT250 37/17 A2974=
200504092000 METAR MRLB 092000Z 07011KT 9999 FEW040 SCT250 37/17 A2971=
200504092100 METAR MRLB 092100Z 09008KT 9999 FEW040 BKN250 36/17 A2969=
200504092200 METAR MRLB 092200Z 06013KT 9999 SCT040 BKN250 35/18 A2968=
200504092300 METAR MRLB 092300Z 08008KT 9999 SCT035 OVC250 35/18 A2969=
200504100000 METAR MRLB 100000Z 09007KT 9999 FEW035 OVC250 33/19 A2972=
200504100100 METAR MRLB NIL=
200504100200 METAR MRLB NIL=
200504100300 METAR MRLB NIL=
200504100400 METAR MRLB NIL=
200504100500 METAR MRLB NIL=
200504100600 METAR MRLB NIL=
200504100700 METAR MRLB NIL=
200504100800 METAR MRLB NIL=
200504100900 METAR MRLB NIL=
200504101000 METAR MRLB NIL=
200504101100 METAR MRLB NIL=
200504101200 METAR MRLB 101200Z 04005KT CAVOK 22/19 A2980=
200504101300 METAR MRLB 101300Z 00000KT CAVOK 25/19 A2982=
200504101400 METAR MRLB 101400Z 25003KT CAVOK 28/18 A2984=
200504101500 METAR MRLB 101500Z 00000KT CAVOK 30/18 A2985=
200504101600 METAR MRLB 101600Z 04006KT CAVOK 33/18 A2986=
200504101700 METAR MRLB 101700Z 07003KT CAVOK 34/17 A2981=
200504101800 METAR MRLB 101800Z 26004KT CAVOK 36/17 A2977=
200504101900 METAR MRLB 101900Z 25010KT CAVOK 36/18 A2973=
200504102000 METAR MRLB 102000Z 29010KT 9999 FEW035 BKN250 36/18 A2969=
200504102100 METAR MRLB 102100Z 27008KT 9999 SCT035 OVC150 34/20 A2968=
200504102200 METAR MRLB 102200Z 24006KT 9999 SCT035 OVC250 34/20 A2967=
200504102300 METAR MRLB 102300Z 26008KT 9999 SCT035 OVC240 32/21 A2970=
200504110000 METAR MRLB 110000Z 19008KT 9999 SCT035 OVC240 32/20 A2972=
200504110100 METAR MRLB NIL=
200504110200 METAR MRLB NIL=
200504110300 METAR MRLB NIL=
200504110400 METAR MRLB NIL=
200504110500 METAR MRLB NIL=
200504110600 METAR MRLB NIL=
200504110700 METAR MRLB NIL=
200504110800 METAR MRLB NIL=
200504110900 METAR MRLB NIL=
200504111000 METAR MRLB NIL=
200504111100 METAR MRLB NIL=
200504111200 METAR MRLB NIL=
200504111300 METAR MRLB 111300Z 19003KT CAVOK 28/21 A2980=
200504111400 METAR MRLB 111400Z 20003KT CAVOK 30/22 A2981=
200504111500 METAR MRLB 111500Z 22003KT 9999 FEW035 BKN270 30/22 A2981=
200504111600 METAR MRLB 111600Z 23007KT 9999 FEW035 OVC250 33/21 A2980=
200504111700 METAR MRLB 111700Z 21006KT 9999 SCT035 OVC250 34/21 A2979=
200504111800 METAR MRLB 111800Z 24003KT 9999 SCT035 OVC250 35/20 A2976=
200504111900 METAR MRLB 111900Z 28009KT 9999 BKN035 OVC250 34/21 A2973=
200504112000 METAR MRLB 112000Z 28011KT 9999 SCT035 OVC240 33/22 A2971=
200504112100 METAR MRLB 112100Z 27010KT 9999 FEW035 OVC240 32/23 A2970 HZ ARND=
200504112200 METAR MRLB 112200Z 29009KT 9999 SCT040 OVC150 31/23 A2669 RMK HZ ARND=
200504112300 METAR MRLB 112300Z 29007KT 9999 FEW040 SCT150 OVC250 30/23 A2970 RMK HZ ARND=
200504120000 METAR MRLB 120000Z 31006KT 9999 SCT040 OVC250 29/23 A2971 RMK HZ ARND=
200504120100 METAR MRLB NIL=
200504120200 METAR MRLB NIL=
200504120300 METAR MRLB NIL=
200504120400 METAR MRLB NIL=
200504120500 METAR MRLB NIL=
200504120600 METAR MRLB NIL=
200504120700 METAR MRLB NIL=
200504120800 METAR MRLB NIL=
200504120900 METAR MRLB NIL=
200504121000 METAR MRLB NIL=
200504121100 METAR MRLB NIL=
200504121200 METAR MRLB 121200Z 00000KT CAVOK 24/22 A2978=
200504121300 METAR MRLB 121300Z 36003KT CAVOK 26/23 A2979 RMK HZ ARND SCT150 OVC250=
200504121400 METAR MRLB 121400Z 00000KT CAVOK 29/23 A2981 RMK HZ ARND OVC240=
200504121500 METAR MRLB 121500Z 23004KT 9999 FEW035 OVC250 30/23 A2981 RMK HZ ARND=
200504121600 METAR MRLB 121600Z 25009KT 9999 BKN035 OVC250 32/23 A2981 RMK HZ ARND=
200504121700 METAR MRLB 121700Z 24003KT 9999 SCT035 OVC250 33/22 A2978 RMK HZ ARND=
200504121800 METAR MRLB 121800Z 26006KT 9999 SCT035 OVC250 33/23 A2975 RMK HZ ARND=
200504121900 METAR MRLB 121900Z 28005KT 9999 SCT035 BKN250 35/22 A2972 RMK HZ ARND=
200504122000 METAR MRLB 122000Z 28008KT 9999 SCT035 OVC250 35/22 A2969 RMK HZ ARND=
200504122100 METAR MRLB 122100Z 28011KT 9999 SCT035 OVC250 35/23 A2967=
200504122200 METAR MRLB 122200Z 28010KT 9999 FEW030TCU SCT035 OVC250 32/22 A2967=
200504122300 METAR MRLB 122300Z 27008KT 9999 BKN035 OVC250 31/22 A2968=
200504130000 METAR MRLB 130000Z 22007KT 9999 SCT035 BKN250 31/22 A2970=
200504130100 METAR MRLB NIL=
200504130200 METAR MRLB NIL=
200504130300 METAR MRLB NIL=
200504130400 METAR MRLB NIL=
200504130500 METAR MRLB NIL=
200504130600 METAR MRLB NIL=
200504130700 METAR MRLB NIL=
200504130800 METAR MRLB NIL=
200504130900 METAR MRLB NIL=
200504131000 METAR MRLB NIL=
200504131100 METAR MRLB NIL=
200504131200 METAR MRLB 131200Z 00000KT CAVOK 24/21 A2979=
200504131300 METAR MRLB 131300Z 00000KT CAVOK 26/23 A2982=
200504131400 METAR MRLB 131400Z 16003KT CAVOK 26/23 A2984=
200504131500 METAR MRLB 131500Z 07008KT CAVOK 32/21 A2982=
200504131600 METAR MRLB 131600Z 04010KT 9999 FEW035 BKN250 34/20 A2980=
200504131700 METAR MRLB 131700Z 04009KT 9999 FEW035 BKN250 36/20 A2977=
200504131800 METAR MRLB 131800Z 03009KT 9999 FEW035 OVC250 37/19 A2974=
200504131900 METAR MRLB NIL=
200504132000 METAR MRLB 132000Z 05010KT 9999 FEW035 BKN250 37/18 A2967=
200504132100 METAR MRLB 132100Z 09008KT 9999 FEW035 OVC250 37/18 A2965=
200504132200 METAR MRLB 132200Z 06011KT 9999 FEW035 BKN250 36/18 A2965=
200504132300 METAR MRLB 132300Z 04009KT 9999 FEW035 BKN250 35/19 A2966=
200504140000 METAR MRLB 140000Z 06011KT 9999 FEW035 BKN250 34/19 A2967=
200504140100 METAR MRLB NIL=
200504140200 METAR MRLB NIL=
200504140300 METAR MRLB NIL=
200504140400 METAR MRLB NIL=
200504140500 METAR MRLB NIL=
200504140600 METAR MRLB NIL=
200504140700 METAR MRLB NIL=
200504140800 METAR MRLB NIL=
200504140900 METAR MRLB NIL=
200504141000 METAR MRLB NIL=
200504141100 METAR MRLB NIL=
200504141200 METAR MRLB 141200Z 17004KT CAVOK 24/20 A2978=
200504141300 METAR MRLB NIL=
200504141400 METAR MRLB 141400Z 03004KT CAVOK 26/21 A2981=
200504141500 METAR MRLB 141500Z 32007KT CAVOK 33/20 A2981=
200504141600 METAR MRLB 141600Z 06010KT CAVOK 35/19 A2978=
200504141700 METAR MRLB 141700Z 08015KT 9999 FEW035 SCT250 35/19 A2977=
200504141900 METAR MRLB 141900Z 06012KT 9999 FEW035 SCT250 37/18 A2970=
200504142000 METAR MRLB 142000Z 09012KT 9999 SCT035 SCT250 36/19 A2969=
200504142100 METAR MRLB 142100Z 05014KT 9999 FEW035 BKN250 36/19 A2967=
200504142200 METAR MRLB 142200Z 05013KT 9999 FEW035 BKN250 36/19 A2966=
200504142300 METAR MRLB 142300Z 06012KT 9999 FEW035 SCT250 35/15 A2992=
200504150000 METAR MRLB 150000Z 07015KT 9999 FEW035 SCT250 32/15 A2971=
200504150100 METAR MRLB NIL=
200504150200 METAR MRLB NIL=
200504150300 METAR MRLB NIL=
200504150400 METAR MRLB NIL=
200504150500 METAR MRLB NIL=
200504150600 METAR MRLB NIL=
200504150700 METAR MRLB NIL=
200504150800 METAR MRLB NIL=
200504150900 METAR MRLB NIL=
200504151000 METAR MRLB NIL=
200504151100 METAR MRLB NIL=
200504151200 METAR MRLB 151200Z 00000KT CAVOK 25/17 A2974=
200504151300 METAR MRLB 151300Z 27004KT CAVOK 25/18 A2976=
200504151400 METAR MRLB 151400Z 00000KT CAVOK 30/18 A2979=
200504151500 METAR MRLB 151500Z 34007KT CAVOK 34/18 A2979=
200504151600 METAR MRLB 151600Z 07023KT CAVOK 34/18 A2979=
200504151700 METAR MRLB 151700Z 07022KT CAVOK 35/19 A2978=
200504151800 METAR MRLB 151800Z 07020KT 9999 FEW035 BKN250 36/18 A2975=
200504151900 METAR MRLB 151900Z 06024KT 9999 FEW035 BKN250 36/18 A2973=
200504152000 METAR MRLB 152000Z 07016KT 9999 FEW040 SCT250 37/17 A2970=
200504152100 METAR MRLB 152100Z 05020KT CAVOK 37/19 A2968=
200504152200 METAR MRLB 152200Z 06023KT CAVOK 35/19 A2969=
200504152300 METAR MRLB 152300Z 06021KT CAVOK 34/19 A2971=
200504160000 METAR MRLB 160000Z 07014KT CAVOK 32/19 A2973=
200504160100 METAR MRLB NIL=
200504160200 METAR MRLB NIL=
200504160300 METAR MRLB NIL=
200504160400 METAR MRLB NIL=
200504160500 METAR MRLB NIL=
200504160600 METAR MRLB NIL=
200504160700 METAR MRLB NIL=
200504160800 METAR MRLB NIL=
200504160900 METAR MRLB NIL=
200504161000 METAR MRLB NIL=
200504161100 METAR MRLB NIL=
200504161200 METAR MRLB NIL=
200504161300 METAR MRLB 161300Z 00000KT 9999 SCT040 BKN130 OVC250 30/20 A2977=
200504161400 METAR MRLB 161400Z 00000KT 9999 SCT045 SCT130 OVC250 30/20 A2980=
200504161500 METAR MRLB 161500Z 33011KT CAVOK 33/19 A2980=
200504161600 METAR MRLB 161600Z 06017KT CAVOK 34/19 A2980=
200504161700 METAR MRLB 161700Z 07018KT CAVOK 36/18 A2980=
200504161800 METAR MRLB 161800Z 05017KT 9999 FEW035 BKN250 36/18 A2978=
200504161900 METAR MRLB 161900Z 06022KT 9999 FEW040 SCT130 35/19 A2977=
200504162000 METAR MRLB 162000Z 08023KT 9999 FEW040 SCT250 34/19 A2975=
200504162100 METAR MRLB 162100Z 08016KT CAVOK 35/19 A2972=
200504162200 METAR MRLB 162200Z 08022KT CAVOK 34/20 A2971=
200504162300 METAR MRLB 162300Z 09019KT CAVOK 31/21 A2973 RMK HZ ARND=
200504170000 METAR MRLB 170000Z 09022KT 9999 FEW040 BKN130 30/20 A2978 RMK HZ ARND=
200504170100 METAR MRLB NIL=
200504170200 METAR MRLB NIL=
200504170300 METAR MRLB NIL=
200504170400 METAR MRLB NIL=
200504170500 METAR MRLB NIL=
200504170600 METAR MRLB NIL=
200504170700 METAR MRLB NIL=
200504170800 METAR MRLB NIL=
200504170900 METAR MRLB NIL=
200504171000 METAR MRLB NIL=
200504171100 METAR MRLB NIL=
200504171200 METAR MRLB 171200Z 23006KT CAVOK 26/16 A2983=
200504171300 METAR MRLB 171300Z 27007KT CAVOK 28/16 A2985=
200504171400 METAR MRLB 171400Z 26012KT CAVOK 30/17 A2984=
200504171500 METAR MRLB 171500Z 27008KT CAVOK 31/17 A2985=
200504171600 METAR MRLB 171600Z 25008KT CAVOK 32/17 A2984=
200504171700 METAR MRLB 171700Z 32009KT CAVOK 35/16 A2982=
200504171800 METAR MRLB 171800Z 09015KT CAVOK 36/17 A2981=
200504171900 METAR MRLB 171900Z 09013KT CAVOK 35/17 A2979=
200504172000 METAR MRLB 172000Z 09018KT CAVOK 34/18 A2976=
200504172100 METAR MRLB 172100Z 07016KT CAVOK 35/17 A2975=
200504172200 METAR MRLB 172200Z 070189KT CAVOK 33/17 A2974=
200504172300 METAR MRLB 172300Z 06016KT CAVOK 32/17 A2976=
200504180000 METAR MRLB 180000Z 07018KT CAVOK 30/18 A2979=
200504180100 METAR MRLB NIL=
200504180200 METAR MRLB NIL=
200504180300 METAR MRLB NIL=
200504180400 METAR MRLB NIL=
200504180500 METAR MRLB NIL=
200504180600 METAR MRLB NIL=
200504180700 METAR MRLB NIL=
200504180800 METAR MRLB NIL=
200504180900 METAR MRLB NIL=
200504181000 METAR MRLB NIL=
200504181100 METAR MRLB NIL=
200504181200 METAR MRLB NIL=
200504181300 METAR MRLB 181300Z 25008KT CAVOK 26/18 A2981=
200504181400 METAR MRLB 181400Z 24009KT CAVOK 30/18 A2983=
200504181500 METAR MRLB 181500Z 32006KT CAVOK 32/17 A2984=
200504181600 METAR MRLB 181600Z 28013KT CAVOK 33/17 A2984=
200504181700 METAR MRLB 181700Z 23008KT CAVOK 34/18 A2984=
200504181800 METAR MRLB 181800Z 07017KT 9999 FEW035 BKN250 36/18 A2982=
200504181900 METAR MRLB 181900Z 09015KT 9999 FEW035 OVC250 35/18 A2980=
200504182000 METAR MRLB 182000Z 07013KT 9999 FEW035 OVC250 36/18 A2977=
200504182100 METAR MRLB 182100Z 09012KT CAVOK 35/18 A2976=
200504182300 METAR MRLB 182300Z 08012KT CAVOK 33/19 A2975=
200504190000 METAR MRLB 190000Z 10011KT CAVOK 31/19 A2977=
200504190100 METAR MRLB NIL=
200504190200 METAR MRLB NIL=
200504190300 METAR MRLB NIL=
200504190400 METAR MRLB NIL=
200504190500 METAR MRLB NIL=
200504190600 METAR MRLB NIL=
200504190700 METAR MRLB NIL=
200504190800 METAR MRLB NIL=
200504190900 METAR MRLB NIL=
200504191000 METAR MRLB NIL=
200504191100 METAR MRLB NIL=
200504191200 METAR MRLB 191200Z 27005KT CAVOK 25/18 A2980 RMK HZ ARND FEW140 OVC250=
200504191300 METAR MRLB 191300Z 23003KT CAVOK 27/19 A2983=
200504191400 METAR MRLB 191400Z 21003KT CAVOK 30/19 A2984=
200504191500 METAR MRLB 191500Z 10004KT CAVOK 32/18 A2983=
200504191600 METAR MRLB 191600Z 08014KT CAVOK 34/18 A2983=
200504191700 METAR MRLB 191700Z 08020KT CAVOK 34/19 A2981=
200504191800 METAR MRLB 191800Z 09017KT CAVOK 34/19 A2981=
200504191900 METAR MRLB 191900Z 08014KT CAVOK 35/19 A2978=
200504192000 METAR MRLB 192000Z 09015KT CAVOK 35/20 A2976=
200504192100 METAR MRLB 192100Z 09012KT 9999 FEW040 OVC260 35/20 A2976=
200504192200 METAR MRLB 192200Z 07016KT 9999 FEW040 BKN260 33/20 A2976=
200504192300 METAR MRLB 192300Z 07015KT 9999 SCT045 OVC270 32/19 A2977=
200504200000 METAR MRLB 200000Z 07015KT 9999 FEW045 OVC270 30/19 A2978=
200504200100 METAR MRLB NIL=
200504200200 METAR MRLB NIL=
200504200300 METAR MRLB NIL=
200504200400 METAR MRLB NIL=
200504200500 METAR MRLB NIL=
200504200600 METAR MRLB NIL=
200504200700 METAR MRLB NIL=
200504200800 METAR MRLB NIL=
200504200900 METAR MRLB NIL=
200504201000 METAR MRLB NIL=
200504201100 METAR MRLB NIL=
200504201200 METAR MRLB 201200Z 00000KT CAVOK 22/18 A2980=
200504201300 METAR MRLB 201300Z 00000KT CAVOK 26/19 A2982=
200504201400 METAR MRLB 201400Z 06011KT CAVOK 31/19 A2984=
200504201500 METAR MRLB 201500Z 08012KT CAVOK 33/19 A2985=
200504201600 METAR MRLB 201600Z 10012KT CAVOK 34/19 A2985=
200504201700 METAR MRLB 201700Z 09011KT CAVOK 36/17 A2984=
200504201800 METAR MRLB 201800Z 07012KT 9999 FEW040 BKN270 36/17 A2982=
200504201900 METAR MRLB 201900Z 08008KT 9999 FEW040 BKN250 37/17 A2979=
200504202000 METAR MRLB 202000Z 06016KT 9999 FEW030 BKN250 36/17 A2997=
200504202100 METAR MRLB 202100Z 2021000 08012KT 9999 FEW040 OVC250 37/16 A2975=
200504202200 METAR MRLB 202200Z 10012KT 9999 FEW040 BKN250 37/17 A2979=
200504202300 METAR MRLB 202300Z 11010KT CAVOK 35/18 A2975=
200504210000 METAR MRLB 210000Z 08008KT CAVOK 33/19 A2978=
200504210100 METAR MRLB NIL=
200504210200 METAR MRLB NIL=
200504210300 METAR MRLB NIL=
200504210400 METAR MRLB NIL=
200504210500 METAR MRLB NIL=
200504210600 METAR MRLB NIL=
200504210700 METAR MRLB NIL=
200504210800 METAR MRLB NIL=
200504210900 METAR MRLB NIL=
200504211000 METAR MRLB NIL=
200504211100 METAR MRLB NIL=
200504211200 METAR MRLB 211200Z 00000KT CAVOK 23/19 A2982=
200504211400 METAR MRLB 211400Z 23004KT CAVOK 29/20 A2986=
200504211500 METAR MRLB 211500Z 16006KT CAVOK 31/20 A2986=
200504211600 METAR MRLB 211600Z 15006KT CAVOK 33/20 A2985=
200504211700 METAR MRLB 211700Z 25004KT 9999 FEW035 BKN250 34/19 A2984=
200504211800 METAR MRLB 211800Z 28011KT 9999 FEW035 BKN250 35/20 A2981=
200504211900 METAR MRLB 211900Z 29012KT 9999 FEW040 BKN250 33/21 A2979=
200504212000 METAR MRLB 212000Z 28014KT 9999 SCT040 OVC250 32/21 A2978=
200504212100 METAR MRLB 212100Z 28015KT 9999 FEW035 BKN250 32/21 A2976=
200504212200 METAR MRLB 212200Z 30010KT 9999 SCT035 BKN250 33/21 A2976=
200504212300 METAR MRLB 212300Z 28011KT 9999 FEW035 BKN250 31/21 A2977=
200504220000 METAR MRLB 220000Z 28007KT 9999 FEW035 BKN250 30/22 A2978=
200504220100 METAR MRLB NIL=
200504220200 METAR MRLB NIL=
200504220300 METAR MRLB NIL=
200504220400 METAR MRLB NIL=
200504220500 METAR MRLB NIL=
200504220600 METAR MRLB NIL=
200504220700 METAR MRLB NIL=
200504220800 METAR MRLB NIL=
200504220900 METAR MRLB NIL=
200504221000 METAR MRLB NIL=
200504221100 METAR MRLB NIL=
200504221200 METAR MRLB NIL=
200504221300 METAR MRLB 221300Z 06004KT CAVOK 26/21 A2985=
200504221400 METAR MRLB 221400Z 00000KT CAVOK 30/23 A2988=
200504221500 METAR MRLB 221500Z 23003KT 9999 FEW035 OVC250 31/22 A2989=
200504221600 METAR MRLB 221600Z 24006KT 9999 SCT035 OVC250 33/23 A2987=
200504221700 METAR MRLB 221700Z 26006KT 9999 SCT035 OVC250 34/22 A2984=
200504221800 METAR MRLB 221800Z 26011KT 9999 SCT035 BKN250 34/22 A2983=
200504221900 METAR MRLB 221900Z 30012KT 9999 SCT040 OVC250 34/22 A2982=
200504222000 METAR MRLB 222000Z 28014KT 9999 SCT040 OVC250 33/22 A2998=
200504222100 METAR MRLB 222100Z 28012KT 9999 SCT035 OVC250 32/21 A2978=
200504222200 METAR MRLB 222200Z 27010KT 9999 FEW035 OVC250 30/22 A2977=
200504222300 METAR MRLB 222300Z 26011KT 9999 SCT035 BKN250 30/22 A2977=
200504230000 METAR MRLB 230000Z 27008KT 9999 FEW035 OVC250 29/22 A2981=
200504230100 METAR MRLB NIL=
200504230200 METAR MRLB NIL=
200504230300 METAR MRLB NIL=
200504230400 METAR MRLB NIL=
200504230500 METAR MRLB NIL=
200504230600 METAR MRLB NIL=
200504230700 METAR MRLB NIL=
200504230800 METAR MRLB NIL=
200504230900 METAR MRLB NIL=
200504231000 METAR MRLB NIL=
200504231100 METAR MRLB NIL=
200504231200 METAR MRLB 231200Z 03004KT 9999 SCT040 OVC250 25/22 A2985=
200504231300 METAR MRLB 231300Z 03004KT CAVOK 26/23 A2987=
200504231400 METAR MRLB 231400Z 36004KT CAVOK 28/23 A2989=
200504231600 METAR MRLB 231600Z 00000KT 99999 SCT035 SCT280 32/22 A2988 HZY=
200504231700 METAR MRLB 231700Z 00000KT 9999 BKN035 33/23 A2987 HZY=
200504231800 METAR MRLB 231800Z 29010KT 9999 FEW030 BKN035 33/22 A2985 HZY=
200504231900 METAR MRLB 231900Z 28007KT 9999 SCT035 35/23 A2981 HZY=
200504232000 METAR MRLB 232000Z 26009KT 9999 3000E VCSH TS FEW020CB BKN035 34/23 A2979 HZY=
200504232100 METAR MRLB 232100Z 07007KT 9999 BKN035 BKN120 31/21 A2978 RETS=
200504232200 METAR MRLB 232200Z 07013KT 9999 RA SCT030TCU SCT035 27/22 A2979=
200504232300 METAR MRLB 232300Z 29003KT 9999 SCT040 SCT260 28/24 A2979=
200504240000 METAR MRLB 240000Z 15005KT 9000 FEW040 SCT270 27/24 A2979 CB DST SE=
200504240100 METAR MRLB NIL=
200504240200 METAR MRLB NIL=
200504240300 METAR MRLB NIL=
200504240400 METAR MRLB NIL=
200504240500 METAR MRLB NIL=
200504240600 METAR MRLB NIL=
200504240700 METAR MRLB NIL=
200504240800 METAR MRLB NIL=
200504240900 METAR MRLB NIL=
200504241000 METAR MRLB NIL=
200504241100 METAR MRLB NIL=
200504241200 METAR MRLB 241200Z 00000KT 8000 SCT140 OVC250 24/22 A2989 RKM HZ ARND=
200504241300 METAR MRLB 241300Z 15003KT 9000 SCT130 SCT260 24/22 A2990 HZ=
200504241400 METAR MRLB 241400Z 00000KT CAVOK 28/22 A2991 HZ=
200504241500 METAR MRLB 241500Z 00000KT CAVOK 30/23 A2990 HZ=
200504241600 METAR MRLB 241600Z 05004KT CAVOK 32/22 A2987 RMK HZ ARND=
200504241700 METAR MRLB 241700Z 10007KT CAVOK 35/20 A2986 HZ=
200504241800 METAR MRLB 241800Z 06008KT CAVOK 35/20 A2985 HZ=
200504241900 METAR MRLB 241900Z 24004KT 9999 FEW035 37/18 A2982 HZ=
200504242000 METAR MRLB 242000Z 27012KT 9999 FEW035 35/22 A2980 HZ=
200504242100 METAR MRLB 242100Z 28012KT 9999 FEW035 33/21 A2978=
200504242200 METAR MRLB 242200Z 27012KT 9999 FEW035 33/21 A2978 HZ=
200504242300 METAR MRLB 242300Z 25008KT 9999 FEW035 SCT270 32/21 A2979 HZ=
200504250000 METAR MRLB 250000Z 21004KT 9999 FEW035 BKN270 30/22 A2980 HZ=
200504250100 METAR MRLB NIL=
200504250200 METAR MRLB NIL=
200504250300 METAR MRLB 250300Z 28015KT CAVOK 33/20 A2978=
200504250400 METAR MRLB NIL=
200504250500 METAR MRLB NIL=
200504250600 METAR MRLB NIL=
200504250700 METAR MRLB NIL=
200504250800 METAR MRLB NIL=
200504250900 METAR MRLB NIL=
200504251000 METAR MRLB NIL=
200504251100 METAR MRLB NIL=
200504251200 METAR MRLB 251200Z 16003KT CAVOK 22/19 A2988=
200504251300 METAR MRLB 251300Z 00000KT CAVOK 22/13 A3006=
200504251400 METAR MRLB 251400Z 15003KT CAVOK 28/20 A2992=
200504251600 METAR MRLB 291600Z 08006KT CAVOK 33/17 A2991=
200504251700 METAR MRLB 251700Z 07006KT CAVOK 34/16 A2989=
200504251800 METAR MRLB 251800Z 10004KT CAVOK 35/14 A2986=
200504251900 METAR MRLB 251900Z 18007KT CAVOK 36/15 A2983=
200504252000 METAR MRLB 252000Z 18008KT CAVOK 37/13 A2979=
200504252100 METAR MRLB 252100Z 28015KT CAVOK 33/20 A2978=
200504252200 METAR MRLB 252200Z 19013KT CAVOK 31/22 A2978=
200504252300 METAR MRLB 252300Z 27011KT CAVOK 30/22 A2980=
200504260000 METAR MRLB 260000Z 28010KT 9999 FEW035 OVC250 29/22 A2981=
200504260100 METAR MRLB NIL=
200504260200 METAR MRLB NIL=
200504260300 METAR MRLB NIL=
200504260400 METAR MRLB NIL=
200504260500 METAR MRLB NIL=
200504260600 METAR MRLB NIL=
200504260700 METAR MRLB NIL=
200504260800 METAR MRLB NIL=
200504260900 METAR MRLB NIL=
200504261000 METAR MRLB NIL=
200504261100 METAR MRLB NIL=
200504261200 METAR MRLB 261200Z 05004KT CAVOK 23/20 A2989 HZ=
200504261300 METAR MRLB 261300Z 00000KT CAVOK 25/20 A2991 RMK HZ ARND=
200504261400 METAR MRLB 261400Z 00000KT CAVOK 28/22 A2992 RMK HZY LEVE=
200504261500 METAR MRLB 261500Z 00000KT 9999 FEW030 BKN280 31/23 A2993 RMK HZY=
200504261600 METAR MRLB 261600Z 27008KT 9999 SCT035 32/21 A2992 RMK HZY=
200504261700 METAR MRLB 261700Z 21005KT 9999 SCT035 33/21 A2990=
200504261800 METAR MRLB 261800Z 24005KT 9999 BKN030 34/21 A2987 RMK HZY=
200504261900 METAR MRLB 261900Z 27012KT 9999 SCT035 33/22 A2984 RMK HZY=
200504262000 METAR MRLB 262000Z 27014KT 9999 FEW035 34/22 A2982 RMK HZY=
200504262100 METAR MRLB 262100Z 28015KT 9999 FEW035 32/23 A2982 RMK HZ ARND=
200504262200 METAR MRLB 262200Z 29012KT 9999 SCT035 BKN260 31/23 A2981 RMK HZ ARND CB DST E/SE=
200504262300 METAR MRLB 262300Z 29013KT 9999 SCT035 BKN130 OVC260 29/24 A2981 RMK HZ ARND CB DST SE=
200504270000 METAR MRLB 270000Z 26013KT 9999 SCT030 BKN120 OVC260 29/24 A2984 RMK CB DST E/SE HZ ARND RN DST E/SE=
200504270100 METAR MRLB NIL=
200504270200 METAR MRLB NIL=
200504270300 METAR MRLB NIL=
200504270400 METAR MRLB NIL=
200504270500 METAR MRLB NIL=
200504270600 METAR MRLB NIL=
200504270700 METAR MRLB NIL=
200504270800 METAR MRLB NIL=
200504270900 METAR MRLB NIL=
200504271000 METAR MRLB NIL=
200504271100 METAR MRLB NIL=
200504271200 METAR MRLB NIL=
200504271300 METAR MRLB 271300Z 00000KT 9000 FEW015 BKN250 26/24 A2993 RMK HZ ARND=
200504271400 METAR MRLB 271400Z 00000KT 9999 FEW020 BKN250 28/24 A2994 RMK HZ ARND=
200504271500 METAR MRLB 271500Z 01004KT 9999 FEW030 BKN250 30/22 A2994 RMK HZ ARND=
200504271600 METAR MRLB 271600Z 27008KT 9999 FEW030 BKN250 33/22 A2993 RMK HZ ARND=
200504271700 METAR MRLB 271700Z 27010KT 9999 FEW035 BKN250 33/22 A2991 RMK HZ ARND=
200504271800 METAR MRLB 271800Z 28009KT 9999 FEW035 OVC250 34/22 A2989 RMK HZ ARND=
200504272000 METAR MRLB 272000Z 26011KT 9999 FEW035 OVC250 35/19 A2983 RMK HZ ARND=
200504272100 METAR MRLB 272100Z 28012KT CAVOK 34/18 A2982 HZY=
200504272200 METAR MRLB 272200Z 26012KT CAVOK 32/21 A2982 HZY=
200504272300 METAR MRLB 272300Z 26012KT CAVOK 30/23 A2983 HZY=
200504280000 METAR MRLB 280000Z 28007KT 9999 FEW040 OVC160 29/23 A2986 HZY=
200504280100 METAR MRLB NIL=
200504280200 METAR MRLB NIL=
200504280300 METAR MRLB NIL=
200504280400 METAR MRLB NIL=
200504280500 METAR MRLB NIL=
200504280600 METAR MRLB NIL=
200504280700 METAR MRLB NIL=
200504280800 METAR MRLB NIL=
200504280900 METAR MRLB NIL=
200504281000 METAR MRLB NIL=
200504281100 METAR MRLB NIL=
200504281200 METAR MRLB NIL=
200504281300 METAR MRLB 281300Z 00000KT CAVOK 28/22 A2993 HZY=
200504281400 METAR MRLB 281400Z 13004KT CAVOK 29/22 A2994 HZY=
200504281500 METAR MRLB 281500Z 00000KT CAVOK 31/21 A2994 HZY=
200504281600 METAR MRLB 281600Z 15005KT CAVOK 35/16 A2993 HZY=
200504281700 METAR MRLB 281700Z 08010KT CAVOK 35/14 A2991 HZY=
200504281800 METAR MRLB 281800Z 23004KT CAVOK 37/14 A2989 HZY=
200504281900 METAR MRLB 281900Z 29007KT 9999 FEW040 BKN250 36/17 A2985 HZY=
200504282000 METAR MRLB 282000Z 28007KT 9999 FEW040 BKN250 36/17 A2981 HZY=
200504282100 METAR MRLB 282100Z 26010KT CAVOK 36/17 A2979 HZ ARND=
200504282200 METAR MRLB 282200Z 07010KT CAVOK 36/15 A2978 HZ ARND=
200504282300 METAR MRLB 282300Z 06011KT CAVOK 35/17 A2978=
200504290000 METAR MRLB 290000Z 07012KT CAVOK 33/18 A2980 HZ ARND=
200504290100 METAR MRLB NIL=
200504290200 METAR MRLB NIL=
200504290300 METAR MRLB NIL=
200504290400 METAR MRLB NIL=
200504290500 METAR MRLB NIL=
200504290600 METAR MRLB NIL=
200504290700 METAR MRLB NIL=
200504290800 METAR MRLB NIL=
200504290900 METAR MRLB NIL=
200504291000 METAR MRLB NIL=
200504291100 METAR MRLB NIL=
200504291200 METAR MRLB 291200Z 00000KT CAVOK 24/19 A2986=
200504291300 METAR MRLB 291300Z 27004KT CAVOK 28/20 A2987=
200504291500 METAR MRLB 291500Z 06006KT 9999 FEW035 OVC250 33/21 A2990=
200504291600 METAR MRLB 291600Z 07019KT 9999 SCT035 OVC250 34/20 A2989=
200504291700 METAR MRLB 291700Z 05012KT 9999 SCT035 BKN250 34/20 A2990=
200504291800 METAR MRLB 291800Z 06011KT 9999 FEW035 BKN250 35/21 A2987=
200504291900 METAR MRLB 291900Z 06010KT 9999 SCT035 BKN250 34/20 A2983=
200504292000 METAR MRLB 292000Z 09016KT 9999 FEW035 BKN250 35/19 A2980=
200504292100 METAR MRLB 292100Z 09011KT 9999 FEW035 BKN250 35/18 A2979=
200504292200 METAR MRLB 292200Z 09014KT 9999 FEW035 SCT250 36/18 A2978=
200504292300 METAR MRLB 292300Z 09010KT 9999 FEW035 SCT250 35/16 A2979=
200504300000 METAR MRLB 300000Z 09006KT 9999 FEW035 BKN250 33/19 A2981=
200504300100 METAR MRLB NIL=
200504300200 METAR MRLB NIL=
200504300300 METAR MRLB NIL=
200504300400 METAR MRLB NIL=
200504300500 METAR MRLB NIL=
200504300600 METAR MRLB NIL=
200504300700 METAR MRLB NIL=
200504300800 METAR MRLB NIL=
200504300900 METAR MRLB NIL=
200504301000 METAR MRLB NIL=
200504301100 METAR MRLB NIL=
200504301200 METAR MRLB 301200Z 10003KT CAVOK 24/20 A2989=
200504301300 METAR MRLB 301300Z 00000KT CAVOK 28/21 A2991=
200504301400 METAR MRLB 301400Z 22004KT CAVOK 30/21 A2992=
200504301500 METAR MRLB 301500Z 00000KT CAVOK 32/20 A2992=
200504301600 METAR MRLB 301600Z 12003KT CAVOK 34/18 A2991=
200504301700 METAR MRLB 301700Z 03006KT 9999 FEW035 BKN250 35/18 A2988=
200504301800 METAR MRLB 301800Z 04005KT 9999 FEW035 BKN250 36/17 A2986=
200504301900 METAR MRLB 301900Z 28011KT 9999 SCT035 BKN250 34/20 A2983=
200504302000 METAR MRLB 302000Z 27012KT 9999 SCT035 OVC250 35/19 A2981=
200504302100 METAR MRLB 302100Z 26010KT 9999 SCT035 BKN250 36/20 A2980=
200504302200 METAR MRLB 302200Z 32012KT 9999 SCT035 OVC250 34/22 A2979=
200504302300 METAR MRLB 302300Z 25009KT 9999 SCT035 OVC250 32/23 A2981=
200505010000 METAR MRLB 010000Z 27008KT 9999 FEW035 OVC250 31/23 A2983 RMK HZY=
200505010100 METAR MRLB NIL=
200505010200 METAR MRLB NIL=
200505010300 METAR MRLB NIL=
200505010400 METAR MRLB NIL=
200505010500 METAR MRLB NIL=
200505010600 METAR MRLB NIL=
200505010700 METAR MRLB NIL=
200505010800 METAR MRLB NIL=
200505010900 METAR MRLB NIL=
200505011000 METAR MRLB NIL=
200505011100 METAR MRLB NIL=
200505011200 METAR MRLB 011200Z 00000KT CAVOK 24/21 A2990=
200505011300 METAR MRLB 011300Z 00000KT 9999 FEW020 OVC250 27/21 A2993 RMK CB DST SW=
200505011400 METAR MRLB 011400Z 36004KT 9999 FEW020 OVC250 29/22 A2994=
200505011500 METAR MRLB 011500Z 00000KT 9999 FEW025 OVC250 31/22 A2994=
200505011600 METAR MRLB 011600Z 28005KT 9999 SCT030 OVC250 31/22 A2993=
200505011700 METAR MRLB 011700Z 35005KT 9999 SCT030 OVC250 34/20 A2991=
200505011800 METAR MRLB 011800Z 31006KT 9999 SCT035 OVC250 35/21 A2987=
200505011900 METAR MRLB 011900Z 28007KT 9999 SCT035 OVC250 35/21 A2984=
200505012000 METAR MRLB 012000Z 29013KT 9999 SCT035 OVC250 34/22 A2981=
200505012100 METAR MRLB 012100Z 28013KT 9999 SCT035 OVC250 33/22 A2980=
200505012200 METAR MRLB 012200Z 28013KT 9999 SCT035 OVC250 33/22 A2980=
200505020000 METAR MRLB 020000Z 27006KT 9999 SCT030 OVC250 30/22 A2982 RMK CB DST SE=
200505020100 METAR MRLB NIL=
200505020200 METAR MRLB NIL=
200505020300 METAR MRLB NIL=
200505020400 METAR MRLB NIL=
200505020500 METAR MRLB NIL=
200505020600 METAR MRLB NIL=
200505020700 METAR MRLB NIL=
200505020800 METAR MRLB NIL=
200505020900 METAR MRLB NIL=
200505021000 METAR MRLB NIL=
200505021100 METAR MRLB NIL=
200505021200 METAR MRLB 021200Z 00000KT CAVOK 24/21 A2990=
200505021300 METAR MRLB 021300Z 00000KT CAVOK 28/22 A2992 RMK OVC250=
200505021400 METAR MRLB 021400Z 30004KT CAVOK 29/22 A2993 RMK OVC250=
200505021500 METAR MRLB 021500Z 00000KT 9999 FEW035 OVC250 32/22 A2994=
200505021600 METAR MRLB 021600Z 22004KT 9999 FEW035 OVC250 33/20 A2992=
200505021700 METAR MRLB 021700Z 09013KT 9999 FEW035 OVC250 35/17 A2989=
200505021800 METAR MRLB 021800Z 11007KT 9999 SCT035 OVC250 36/18 A2986=
200505021900 METAR MRLB 021900Z 20003KT 9999 SCT035 OVC250 36/17 A2982 RMK HZ ARND=
200505022000 METAR MRLB 022000Z 27012KT 9999 SCT035 OVC250 35/21 A2980 RMK HZ ARND=
200505022100 METAR MRLB 022100Z 28009KT 9999 FEW035 OVC280 35/21 A2978=
200505022200 METAR MRLB 022200Z 03007KT 9999 FEW035 OVC250 37/18 A2977 HZY=
200505022300 METAR MRLB 022300Z 06013KT 9999 FEW035 OVC250 35/18 A2978 HZY=
200505030000 METAR MRLB 030000Z 06009KT 9999 FEW035 OVC250 34/18 A2980=
200505030100 METAR MRLB NIL=
200505030200 METAR MRLB NIL=
200505030300 METAR MRLB NIL=
200505030400 METAR MRLB NIL=
200505030500 METAR MRLB NIL=
200505030600 METAR MRLB NIL=
200505030700 METAR MRLB NIL=
200505030800 METAR MRLB NIL=
200505030900 METAR MRLB NIL=
200505031000 METAR MRLB NIL=
200505031100 METAR MRLB NIL=
200505031200 METAR MRLB 031200Z 05004KT CAVOK 23/20 A2991=
200505031300 METAR MRLB 031300Z 00000KT 9999 FEW035 OVC250 26/20 A2993=
200505031400 METAR MRLB 031400Z 16005KT 9999 FEW035 OVC250 30/22 A2995=
200505031500 METAR MRLB 031500Z 09004KT 9999 FEW035 OVC250 30/22 A2994 HZY=
200505031600 METAR MRLB 031600Z 24004KT 9999 SCT035 OVC250 33/21 A2993 HZY=
200505031700 METAR MRLB 031700Z 16007KT 9999 SCT035 OVC250 33/21 A2991=
200505031800 METAR MRLB 031800Z 06009KT 9999 FEW035 OVC250 35/19 A2988 HZY=
200505031900 METAR MRLB 031900Z 04004KT 9999 FEW035 BKN250 36/17 A2985=
200505032000 METAR MRLB 032000Z 29008KT 9999 FEW035 OVC240 34/20 A2981 HZY=
200505032100 METAR MRLB 032100Z 26007KT 9999 SCT035 OVC240 34/20 A2980=
200505032200 METAR MRLB 032200Z 10009KT 9999 SCT035 OVC240 35/18 A2980=
200505032300 METAR MRLB 032300Z 06012KT 9999 FEW035 OVC240 33/20 A2981 HZ ARND=
200505040000 METAR MRLB 040000Z 10009KT 9999 SCT035 OVC240 32/19 A2982=
200505040100 METAR MRLB NIL=
200505040200 METAR MRLB NIL=
200505040300 METAR MRLB NIL=
200505040400 METAR MRLB NIL=
200505040500 METAR MRLB NIL=
200505040600 METAR MRLB NIL=
200505040700 METAR MRLB NIL=
200505040800 METAR MRLB NIL=
200505040900 METAR MRLB NIL=
200505041000 METAR MRLB NIL=
200505041100 METAR MRLB NIL=
200505041200 METAR MRLB 041200Z 06004KT CAVOK 23/20 A2991 RMK HZ ARND=
200505041300 METAR MRLB 041300Z 00000KT CAVOK 27/20 A2994 RMK HZY=
200505041400 METAR MRLB 041400Z 12006KT CAVOK 31/20 A2995 HZ=
200505041500 METAR MRLB 041500Z 10008KT CAVOK 33/19 A2994 HZ=
200505041600 METAR MRLB 041600Z 10004KT CAVOK 34/19 A2992=
200505041700 METAR MRLB 041700Z 08005KT 9999 FEW035 BKN250 34/19 A2991=
200505041800 METAR MRLB 041800Z 07010KT 9999 SCT035 BKN250 35/18 A2988 FU E=
200505041900 METAR MRLB 041900Z 13004KT 9999 SCT035 BKN250 36/17 A2985=
200505042000 METAR MRLB 042000Z 28006KT 9999 FEW035 BKN250 35/20 A2982=
200505042100 METAR MRLB 042100Z 29012KT 9999 SCT035 OVC250 35/20 A2979=
200505042200 METAR MRLB 042200Z 29010KT 9999 SCT035 BKN250 32/21 A2980=
200505042300 METAR MRLB 042300Z 29006KT 9999 FEW035 SCT250 32/22 A2981=
200505050000 METAR MRLB 050000Z 25007KT 9999 SCT035 31/22 A2983=
200505050100 METAR MRLB NIL=
200505050200 METAR MRLB NIL=
200505050300 METAR MRLB NIL=
200505050400 METAR MRLB NIL=
200505050500 METAR MRLB NIL=
200505050600 METAR MRLB NIL=
200505050700 METAR MRLB NIL=
200505050800 METAR MRLB NIL=
200505050900 METAR MRLB NIL=
200505051000 METAR MRLB NIL=
200505051100 METAR MRLB NIL=
200505051200 METAR MRLB 051200Z 19003KT CAVOK 24/20 A2990=
200505051300 METAR MRLB 051300Z 15006KT CAVOK 27/20 A2991=
200505051400 METAR MRLB 051400Z 05006KT CAVOK 30/20 A2993=
200505051500 METAR MRLB 051500Z 09014KT 9999 FEW035 OVC250 32/19 A2994=
200505051600 METAR MRLB 051600Z 08011KT 9999 SCT035 OVC250 34/20 A2993=
200505051700 METAR MRLB 051700Z 11008KT 9999 SCT035 OVC250 35/19 A2992=
200505051800 METAR MRLB 051800Z 12012KT 9999 SCT035 OVC250 35/19 A2990=
200505051900 METAR MRLB 051900Z 07003KT 9999 SCT035 OVC250 36/19 A2987=
200505052000 METAR MRLB 052000Z 28010KT 9999 BKN035 OVC250 33/21 A2984=
200505052100 METAR MRLB 052100Z 31011KT 9999 SCT035 OVC250 32/22 A2982=
200505052200 METAR MRLB 052200Z 29008KT 9999 SCT030 OVC250 32/22 A2981=
200505052300 METAR MRLB 052300Z 30005KT 9999 FEW030TCU OVC250 31/23 A2982=
200505060000 METAR MRLB 060000Z 32005KT 9999 FEW025 OVC250 30/22 A2984 RMK RN DST S=
200505060100 METAR MRLB NIL=
200505060200 METAR MRLB NIL=
200505060300 METAR MRLB NIL=
200505060400 METAR MRLB NIL=
200505060500 METAR MRLB NIL=
200505060600 METAR MRLB NIL=
200505060700 METAR MRLB NIL=
200505060800 METAR MRLB NIL=
200505060900 METAR MRLB NIL=
200505061000 METAR MRLB NIL=
200505061100 METAR MRLB NIL=
200505061200 METAR MRLB 061200Z 04004KT CAVOK 23/19 A2987=
200505061300 METAR MRLB 061300Z 00000KT CAVOK 26/20 A2990=
200505061400 METAR MRLB 061400Z 07018KT CAVOK 31/18 A2991=
200505061500 METAR MRLB 061500Z 08014KT 9999 FEW040 SCT250 33/19 A2991=
200505061600 METAR MRLB 061600Z 06016KT 9999 FEW040 SCT250 33/18 A2989=
200505061700 METAR MRLB 061700Z 09013KT 9999 SCT040 SCT250 35/18 A2988=
200505061800 METAR MRLB 061800Z 05013KT 9999 SCT040 SCT250 36/19 A2986=
200505061900 METAR MRLB 061900Z 10012KT 9999 SCT040 BKN250 36/17 A2982=
200505062000 METAR MRLB 062000Z 05016KT 9999 SCT040 BKN250 36/18 A2979=
200505062100 METAR MRLB 062100Z 10012KT 9999 FEW035 SCT100 BKN250 35/26 A2978=
200505062200 METAR MRLB 062200Z 06012KT 9999 FEW035 SCT100 BKN250 35/18 A2976=
200505062300 METAR MRLB 062300Z 08009KT 9999 FEW035 SCT100 34/18 A2977=
200505070000 METAR MRLB 070000Z 07013KT 9999 FEW035 BKN100 32/19 A2979 RMK CB DST E=
200505070100 METAR MRLB NIL=
200505070200 METAR MRLB NIL=
200505070300 METAR MRLB NIL=
200505070400 METAR MRLB NIL=
200505070500 METAR MRLB NIL=
200505070600 METAR MRLB NIL=
200505070700 METAR MRLB NIL=
200505070800 METAR MRLB NIL=
200505070900 METAR MRLB NIL=
200505071000 METAR MRLB NIL=
200505071100 METAR MRLB NIL=
200505071200 METAR MRLB 071200Z 00000KT CAVOK 24/20 A2984=
200505071300 METAR MRLB 071300Z 35004KT CAVOK 28/20 A2986=
200505071400 METAR MRLB 071400Z 28003KT CAVOK 30/20 A2987=
200505071500 METAR MRLB 071500Z 04005KT 9999 FEW035 SCT250 33/20 A2986=
200505071600 METAR MRLB 071600Z 09015KT 9999 FEW035 BKN250 34/20 A2985=
200505071700 METAR MRLB 071700Z 09016KT 9999 SCT035 BKN250 34/20 A2984=
200505071800 METAR MRLB 071800Z 09018KT 9999 SCT035 BKN250 35/19 A2982=
200505071900 METAR MRLB 071900Z 10011KT 9999 SCT035 OVC250 36/20 A2980=
200505072000 METAR MRLB 072000Z 07019KT 9999 SCT035 OVC250 33/19 A2979=
200505072100 METAR MRLB 072100Z 07016KT 9999 SCT035 BKN250 31/21 A2978=
200505072200 METAR MRLB 072200Z 08013KT 9999 SCT035 SCT250 32/21 A2977=
200505072300 METAR MRLB 072300Z 07012KT 9999 FEW035 BKN250 31/20 A2977=
200505080000 METAR MRLB 080000Z 07014KT 9999 FEW035 BKN250 30/20 A2978=
200505080100 METAR MRLB NIL=
200505080200 METAR MRLB NIL=
200505080300 METAR MRLB NIL=
200505080400 METAR MRLB NIL=
200505080500 METAR MRLB NIL=
200505080600 METAR MRLB NIL=
200505080700 METAR MRLB NIL=
200505080800 METAR MRLB NIL=
200505080900 METAR MRLB NIL=
200505081000 METAR MRLB NIL=
200505081100 METAR MRLB NIL=
200505081200 METAR MRLB 081200Z 10003KT 9999 SCT035 BKN250 25/20 A2981=
200505081300 METAR MRLB 081300Z 23004KT 9999 FEW035 SCT250 28/21 A2983=
200505081400 METAR MRLB 081400Z 27004KT 9999 FEW035 BKN250 30/21 A2985=
200505081500 METAR MRLB 081500Z 00000KT 9999 FEW035 BKN250 32/20 A2986=
200505081600 METAR MRLB 081600Z 14005KT 9999 FEW035 SCT140 BKN250 32/20 A2985=
200505081700 METAR MRLB 081700Z 10009KT 9999 SCT035 BKN250 34/20 A2983=
200505081800 METAR MRLB 081800Z 09016KT 9999 SCT035 BKN250 34/20 A2981=
200505081900 METAR MRLB 081900Z 10012KT 9999 SCT035 SCT250 35/21 A2979=
200505082000 METAR MRLB 082000Z 07011KT 9999 SCT035 SCT250 36/21 A2976=
200505082100 METAR MRLB 082100Z 08013KT 9999 FEW035 BKN250 36/20 A2974=
200505082200 METAR MRLB 082200Z 10009KT 9999 FEW035 BKN250 34/19 A2973=
200505082300 METAR MRLB 082300Z 08008KT 9999 SCT035 OVC250 34/20 A2973=
200505090000 METAR MRLB 090000Z 09010KT 9999 SCT035 BKN250 32/20 A2976=
200505090100 METAR MRLB NIL=
200505090200 METAR MRLB NIL=
200505090300 METAR MRLB NIL=
200505090400 METAR MRLB NIL=
200505090500 METAR MRLB NIL=
200505090600 METAR MRLB NIL=
200505090700 METAR MRLB NIL=
200505090800 METAR MRLB NIL=
200505090900 METAR MRLB NIL=
200505091000 METAR MRLB NIL=
200505091100 METAR MRLB NIL=
200505091200 METAR MRLB 091200Z 00000KT 9999 SCT035 OVC250 25/22 A2982=
200505091300 METAR MRLB 091300Z 21003KT 9999 FEW040 OVC250 27/22 A2983=
200505091400 METAR MRLB 091400Z 07007KT 9999 FEW040 OVC250 30/22 A2984=
200505091500 METAR MRLB 091500Z 04006KT 9999 FEW040 OVC250 32/21 A2982=
200505091600 METAR MRLB 091600Z 08013KT 9999 FEW040 BKN250 33/20 A2981=
200505091700 METAR MRLB 091700Z 06015KT 9999 FEW040 BKN250 35/20 A2979=
200505091800 METAR MRLB 091800Z 09011KT 9999 SCT040 BKN250 35/21 A2977=
200505091900 METAR MRLB 091900Z 10013KT 9999 SCT040 BKN250 36/21 A2974=
200505092100 METAR MRLB 092100Z 08012KT 9999 FEW035 SCT120 OVC250 36/21 A2969=
200505092200 METAR MRLB 092200Z 07014KT 9999 FEW030 SCT120 BKN250 34/21 A2970 RMK RN DST SE TCU DST S=
200505092300 METAR MRLB 092300Z 08016KT 9999 FEW030 BKN100 33/20 A2971 RMK CB DST S=
200505100000 METAR MRLB 100000Z 09009KT 9999 FEW030 OVC100 32/21 A2974 RMK RN DST SE/SW/W=
200505100100 METAR MRLB NIL=
200505100200 METAR MRLB NIL=
200505100300 METAR MRLB NIL=
200505100400 METAR MRLB NIL=
200505100500 METAR MRLB NIL=
200505100600 METAR MRLB NIL=
200505100700 METAR MRLB NIL=
200505100800 METAR MRLB NIL=
200505100900 METAR MRLB NIL=
200505101000 METAR MRLB NIL=
200505101100 METAR MRLB NIL=
200505101200 METAR MRLB 101200Z 00000KT CAVOK 23/21 A2975=
200505101300 METAR MRLB 101300Z 35004KT CAVOK 27/22 A2978 RMK OVC250 CB DST SW=
200505101400 METAR MRLB 101400Z 07006KT CAVOK 31/20 A2979 RMK OVC250=
200505101500 METAR MRLB 101500Z 09007KT 9999 FEW040 OVC240 32/20 A2980=
200505101600 METAR MRLB 101600Z 07004KT 9999 SCT040 OVC240 33/20 A2979=
200505101700 METAR MRLB 101700Z 09004KT 9999 BKN035 OVC240 35/20 A2977=
200505101800 METAR MRLB 101800Z 09013KT 9999 SCT035 OVC240 34/20 A2975=
200505101900 METAR MRLB 101900Z 08008KT 9999 SCT035 SCT100 OVC250 35/19 A2972=
200505102000 METAR MRLB 102000Z 29013KT 9999 SCT030 BKN250 32/22 A2971 RMK RN DST NW=
200505102100 METAR MRLB 102100Z 28013KT 9999 SCT030 BKN250 31/22 A2969=
200505102200 METAR MRLB 102200Z 28009KT 9999 SCT030 BKN250 32/21 A2968=
200505102300 METAR MRLB 102300Z 28006KT 9999 SCT030 BKN250 32/21 A2969 RMK RN DST S=
200505110000 METAR MRLB 110000Z 30005KT 9999 SCT030 BKN250 31/22 A2970=
200505110100 METAR MRLB NIL=
200505110200 METAR MRLB NIL=
200505110300 METAR MRLB NIL=
200505110400 METAR MRLB NIL=
200505110500 METAR MRLB NIL=
200505110600 METAR MRLB NIL=
200505110700 METAR MRLB NIL=
200505110800 METAR MRLB NIL=
200505110900 METAR MRLB NIL=
200505111000 METAR MRLB NIL=
200505111100 METAR MRLB NIL=
200505111200 METAR MRLB 111200Z 20005KT CAVOK 26/21 A2971=
200505111300 METAR MRLB 111300Z 23005KT 9999 FEW035 OVC250 27/21 A2973=
200505111400 METAR MRLB 111400Z 25004KT 9999 FEW035 OVC250 30/22 A2975=
200505111500 METAR MRLB 111500Z 05004KT 9999 FEW035 OVC250 32/22 A2975=
200505111600 METAR MRLB 111600Z 08010KT 9999 SCT030 OVC250 35/21 A2973=
200505111700 METAR MRLB 111700Z 13014KT 9999 SCT030 OVC250 34/20 A2972=
200505111800 METAR MRLB 111800Z 07013KT 9999 SCT035 BKN250 35/21 A2972=
200505111900 METAR MRLB 111900Z 09015KT 9999 SCT035 OVC250 35/21 A2969=
200505112000 METAR MRLB 112000Z 07016KT 9999 SCT030 OVC250 34/21 A2967=
200505112100 METAR MRLB 112100Z 08017KT 9999 SCT035 BKN250 33/21 A2965=
200505112200 METAR MRLB 112200Z 09011KT 9999 SCT035 BKN250 33/21 A2965=
200505112300 METAR MRLB 112300Z 09012KT 9999 FEW035 BKN250 32/20 A2967=
200505120000 METAR MRLB 120000Z 09011KT 9999 FEW035 BKN250 32/20 A2967=
200505120100 METAR MRLB NIL=
200505120200 METAR MRLB NIL=
200505120300 METAR MRLB NIL=
200505120400 METAR MRLB NIL=
200505120500 METAR MRLB NIL=
200505120600 METAR MRLB NIL=
200505120700 METAR MRLB NIL=
200505120800 METAR MRLB NIL=
200505120900 METAR MRLB NIL=
200505121000 METAR MRLB NIL=
200505121100 METAR MRLB NIL=
200505121200 METAR MRLB 121200Z 00000KT CAVOK 25/21 A2973=
200505121300 METAR MRLB 121300Z 00000KT CAVOK 28/21 A2974=
200505121400 METAR MRLB 121400Z 26005KT CAVOK 30/22 A2976=
200505121500 METAR MRLB 121500Z 23004KT CAVOK 31/21 A2975=
200505121600 METAR MRLB 121600Z 09012KT 9999 FEW035 OVC250 34/21 A2975=
200505121700 METAR MRLB 121700Z 07017KT 9999 FEW035 BKN250 35/21 A2972=
200505121800 METAR MRLB 121800Z 09011KT 9999 FEW035 BKN250 36/21 A2971=
200505121900 METAR MRLB 121900Z 12012KT 9999 FEW035 OVC250 36/21 A2970=
200505122000 METAR MRLB 122000Z 08012KT 9999 SCT035 BKN250 37/21 A2966=
200505122100 METAR MRLB 122100Z 07013KT 9999 SCT035 BKN250 35/21 A2965=
200505122200 METAR MRLB 122200Z 08013KT 9999 SCT035 OVC250 35/20 A2966=
200505122300 METAR MRLB 122300Z 07013KT 9999 SCT035 BKN250 33/21 A2968=
200505130000 METAR MRLB 130000Z 08012KT 9999 SCT035 OVC250 31/22 A2970=
200505130100 METAR MRLB NIL=
200505130200 METAR MRLB NIL=
200505130300 METAR MRLB NIL=
200505130400 METAR MRLB NIL=
200505130500 METAR MRLB NIL=
200505130600 METAR MRLB NIL=
200505130700 METAR MRLB NIL=
200505130800 METAR MRLB NIL=
200505130900 METAR MRLB NIL=
200505131000 METAR MRLB NIL=
200505131100 METAR MRLB NIL=
200505131200 METAR MRLB 131200Z 00000KT CAVOK 25/22 A2973=
200505131300 METAR MRLB 131300Z 16003KT CAVOK 28/21 A2974=
200505131400 METAR MRLB 131400Z 30004KT CAVOK 30/21 A2975=
200505131500 METAR MRLB 131500Z 24007KT CAVOK 32/21 A2976=
200505131600 METAR MRLB 131600Z 00000KT 9999 SCT035 OVC250 33/21 A2976=
200505131700 METAR MRLB 131700Z 08009KT 9999 SCT035 OVC250 35/20 A2976=
200505131800 METAR MRLB 131800Z 07006KT 9999 SCT035 SCT100 OVC250 35/19 A2979=
200505131900 METAR MRLB 131900Z 05004KT 9999 BKN035 OVC250 34/19 A2971=
200505132000 METAR MRLB 132000Z 07007KT 9999 SCT035 OVC250 36/19 A2967=
200505132100 METAR MRLB 132100Z 09010KT 9999 SCT035 OVC250 37/19 A2965=
200505132200 METAR MRLB 132200Z 09007KT 9999 SCT035 OVC250 36/19 A2965=
200505132300 METAR MRLB 132300Z 08007KT 9999 FEW035 BKN250 35/20 A2966=
200505140000 METAR MRLB 140000Z 11011KT 9999 SCT035 OVC250 33/21 A2967=
200505140100 METAR MRLB NIL=
200505140200 METAR MRLB NIL=
200505140300 METAR MRLB NIL=
200505140400 METAR MRLB NIL=
200505140500 METAR MRLB NIL=
200505140600 METAR MRLB NIL=
200505140700 METAR MRLB NIL=
200505140800 METAR MRLB NIL=
200505140900 METAR MRLB NIL=
200505141000 METAR MRLB NIL=
200505141100 METAR MRLB NIL=
200505141200 METAR MRLB 141200Z 18005KT 9999 FEW040 OVC140 25/23 A2978 RMK CB DST W=
200505141300 METAR MRLB 141300Z 00000KT 9999 FEW040 OVC250 28/23 A2980=
200505141400 METAR MRLB 141400Z 30006KT CAVOK 30/22 A2981=
200505141500 METAR MRLB 141500Z 26009KT 9999 FEW035 OVC130 31/22 A2981=
200505141600 METAR MRLB 141600Z 28007KT 9999 SCT035 OVC240 33/22 A2979=
200505141700 METAR MRLB 141700Z 25009KT 9999 SCT035 OVC240 34/22 A2975=
200505141800 METAR MRLB 141800Z 30007KT 9999 SCT035 OVC250 35/23 A2974=
200505141900 METAR MRLB 141900Z 28013KT 9999 SCT030TCU OVC250 35/23 A2972=
200505142000 METAR MRLB 142000Z 25015KT 9999 SCT030TCU SCT130 OVC250 35/23 A2970=
200505142100 METAR MRLB 142100Z 28012KT 9999 SCT030 BKN130 33/22 A2969 RMK RN DST S=
200505142200 METAR MRLB 142200Z 15008KT 9999 SCT030 BKN130 30/22 A2970 RMK RN DST E/SE/S=
200505142300 METAR MRLB 142300Z 16005KT 9999 SCT030 OVC130 29/23 A2971 RMK RN DST S=
200505150000 METAR MRLB 150000Z 11005KT 9999 SCT035 OVC130 28/23 A2973=
200505150100 METAR MRLB NIL=
200505150200 METAR MRLB NIL=
200505150300 METAR MRLB NIL=
200505150400 METAR MRLB NIL=
200505150500 METAR MRLB NIL=
200505150600 METAR MRLB NIL=
200505150700 METAR MRLB NIL=
200505150800 METAR MRLB NIL=
200505150900 METAR MRLB NIL=
200505151000 METAR MRLB NIL=
200505151100 METAR MRLB NIL=
200505151200 METAR MRLB 151200Z 03005KT 9999 FEW030 BKN130 25/24 A2980=
200505151400 METAR MRLB 151400Z 10003KT 9999 SCT035 OVC130 27/24 A2984=
200505151500 METAR MRLB 151500Z 00000KT 9999 SCT035 OVC140 27/24 A2985 RMK RN DST N/NE=
200505151600 METAR MRLB 151600Z 28005KT 9999 SCT030 OVC140 29/24 A2985 RMK RN DST N=
200505151700 METAR MRLB 151700Z 32008KT 9999 SCT030 OVC130 29/23 A2984 RMK RN DST N/NE=
200505151800 METAR MRLB 151800Z 35007KT 9999 SCT035 OVC130 29/23 A2981=
200505151900 METAR MRLB 151900Z 26003KT 9999 FEW035 BKN140 32/23 2976=
200505152000 METAR MRLB 152000Z 22007KT 9999 SCT035 BKN140 32/23 A2971=
200505152100 METAR MRLB 152100Z 29008KT 9999 SCT030 BKN140 31/23 A2970=
200505152200 METAR MRLB 152200Z 27008KT 9999 SCT035 OVC140 30/23 A2969 RMK RN DST S=
200505152300 METAR MRLB 152300Z 08006KT 9999 FEW025TCU SCT035 OVC140 29/24 A2971 RMK RN DST E SE=
200505160000 METAR MRLB 160000Z 09004KT 9999 SCT030 OVC130 27/24 A2972 RMK RN DST S SE=
200505160100 METAR MRLB NIL=
200505160200 METAR MRLB NIL=
200505160300 METAR MRLB NIL=
200505160400 METAR MRLB NIL=
200505160500 METAR MRLB NIL=
200505160600 METAR MRLB NIL=
200505160700 METAR MRLB NIL=
200505160800 METAR MRLB NIL=
200505160900 METAR MRLB NIL=
200505161000 METAR MRLB NIL=
200505161100 METAR MRLB NIL=
200505161200 METAR MRLB 161200Z 04004KT 9999 FEW030 OVC140 25/23 A2979=
200505161300 METAR MRLB 161300Z 03004KT 9999 FEW035 OVC140 27/24 A2981=
200505161400 METAR MRLB 161400Z 00000KT 9999 FEW035 BKN140 28/23 A2982=
200505161500 METAR MRLB 161500Z 15004KT 9999 SCT030 OVC140 30/23 A2982 RMK RN DST NE=
200505161600 METAR MRLB 161600Z 17004KT 9999 SCT030 BKN130 30/22 A2981 RMK RN DST E NE=
200505161700 METAR MRLB 161700Z 35005KT 1500 RA FEW010 SCT020 OVC100 25/23 A2981=
200505161800 METAR MRLB 161800Z 15003KT 4000 RA SCT015 OVC100 24/23 A2979=
200505161900 METAR MRLB 161900Z 18003KT 2500 RA SCT010 OVC090 24/23 A2979=
200505162000 METAR MRLB 162000Z 23006KT 9999 DZ SCT020 OVC100 23/23 A2977=
200505162100 METAR MRLB 162100Z 00000KT 9999 FEW008 SCT015 OVC100 24/23 A2977=
200505162200 METAR MRLB 162200Z 00000KT 9999 -RA SCT010 OVC090 24/23 A2978=
200505162300 METAR MRLB 162300Z 07004KT 9999 DZ FEW025 OVC100 24/23 A2978=
200505170000 METAR MRLB 170000Z 08005KT 9999 FEW030 OVC100 24/23 A2979=
200505170100 METAR MRLB NIL=
200505170200 METAR MRLB NIL=
200505170300 METAR MRLB NIL=
200505170400 METAR MRLB NIL=
200505170500 METAR MRLB NIL=
200505170600 METAR MRLB NIL=
200505170700 METAR MRLB NIL=
200505170800 METAR MRLB NIL=
200505170900 METAR MRLB NIL=
200505171000 METAR MRLB NIL=
200505171100 METAR MRLB NIL=
200505171200 METAR MRLB 171200Z 08003KT CAVOK 24/22 A2981 RMK OVC100=
200505171300 METAR MRLB 171300Z 00000KT CAVOK 25/23 A2984=
200505171400 METAR MRLB 171400Z 00000KT CAVOK 28/24 A2985=
200505171500 METAR MRLB 171500Z 15003KT 9999 FEW025 OVC120 28/25 A2985=
200505171600 METAR MRLB 171600Z 11004KT 9999 FEW025 BKN120 29/23 A2985=
200505171700 METAR MRLB 171700Z 00000KT 9999 SCT030 BKN120 30/24 A2983=
200505171800 METAR MRLB 171800Z 14003KT 9999 SCT030 SCT120 OVC250 31/23 A2981=
200505171900 METAR MRLB 171900Z 21005KT 9999 SCT025 BKN120 31/23 A2977=
200505172000 METAR MRLB 172000Z 31007KT 9999 SCT025 BKN120 30/24 A2975=
200505172100 METAR MRLB 172100Z 28009KT 9999 SCT020TCU BKN120 29/24 A2973=
200505172200 METAR MRLB 172200Z 19003KT 9999 SCT020 OVC120 24/23 A2975=
200505172300 METAR MRLB 172300Z 36003KT 9999 SCT025 OVC120 25/23 A2976=
200505180000 METAR MRLB 180000Z 00000KT 9999 FEW020 OVC100 25/23 A2978=
200505180100 METAR MRLB NIL=
200505180200 METAR MRLB NIL=
200505180300 METAR MRLB NIL=
200505180400 METAR MRLB NIL=
200505180500 METAR MRLB NIL=
200505180600 METAR MRLB NIL=
200505180700 METAR MRLB NIL=
200505180800 METAR MRLB NIL=
200505180900 METAR MRLB NIL=
200505181000 METAR MRLB NIL=
200505181100 METAR MRLB NIL=
200505181200 METAR MRLB 181200Z 10004KT 9999 -RA OVC020 23/23 A2983=
200505181300 METAR MRLB 181300Z 12005KT 9999 FEW010 OVC090 24/23 A2985=
200505181400 METAR MRLB 181400Z 12006KT 9999 -RA SCT010 OVC100 24/23 A2987=
200505181500 METAR MRLB 181500Z 12005KT 9999 -RA OVC010 25/23 A2988=
200505181600 METAR MRLB 181600Z 12008KT 9999 SCT010 OVC100 26/23 A2987=
200505181700 METAR MRLB 181700Z 14004KT 9999 SCT020 OVC100 27/24 A2986=
200505181800 METAR MRLB 181800Z 14006KT 9999 SCT025 SCT140 OVC250 27/23 A2985=
200505181900 METAR MRLB 181900Z 16005KT 9999 SCT030 OVC250 28/24 A2981=
200505182000 METAR MRLB 182000Z 18005KT 9999 SCT030 OVC250 29/23 A2979=
200505182100 METAR MRLB 182100Z 20008KT 9999 SCT030 OVC250 29/23 A2976 CB NE E=
200505182200 METAR MRLB 182200Z 27005KT 9999 SCT025 BKN120 29/24 A2976=
200505182300 METAR MRLB 182300Z 23003KT 9999 FEW020 BKN120 29/23 A2976=
200505190000 METAR MRLB 190000Z 23005KT 9999 SCT020 OVC120 28/23 A2978=
200505190100 METAR MRLB NIL=
200505190200 METAR MRLB NIL=
200505190300 METAR MRLB NIL=
200505190400 METAR MRLB NIL=
200505190500 METAR MRLB NIL=
200505190600 METAR MRLB NIL=
200505190700 METAR MRLB NIL=
200505190800 METAR MRLB NIL=
200505190900 METAR MRLB NIL=
200505191000 METAR MRLB NIL=
200505191100 METAR MRLB NIL=
200505191200 METAR MRLB NIL=
200505191300 METAR MRLB 191300Z 00000KT 9999 FEW030 BKN250 26/24 A2981=
200505191400 METAR MRLB 191400Z 10003KT 9999 FEW030 BKN250 29/23 A2982=
200505191500 METAR MRLB 191500Z 15004KT 9999 FEW035 OVC250 30/23 A2984=
200505191600 METAR MRLB 191600Z 19008KT 9999 SCT035 BKN250 31/23 A2983=
200505191700 METAR MRLB 191700Z 17005KT 9999 SCT030 BKN140 30/24 A2983=
200505191800 METAR MRLB 191800Z 24007KT 9999 SCT030 BKN130 30/24 A2981=
200505191900 METAR MRLB 191900Z 15006KT 9999 SCT025 OVC120 25/22 A2979=
200505192000 METAR MRLB 192000Z 16005KT 9999 FEW030 OVC130 28/23 A2977=
200505192100 METAR MRLB 192100Z 00000KT 9999 SCT030 OVC130 29/24 A2975 RMK RN DST S=
200505192200 METAR MRLB 192200Z 20005KT 9999 SCT025 OVC130 30/24 A2973 RMK RN DST N/NE=
200505192300 METAR MRLB 192300Z 35003KT 9999 SCT035 BKN140 28/24 A2975 RMK RN DST N=
200505200000 METAR MRLB 200000Z 22003KT 9999 SCT025 OVC130 28/23 A2980 RMK RN DST S/SE/N=
200505200100 METAR MRLB NIL=
200505200200 METAR MRLB NIL=
200505200300 METAR MRLB NIL=
200505200400 METAR MRLB NIL=
200505200500 METAR MRLB NIL=
200505200600 METAR MRLB NIL=
200505200700 METAR MRLB NIL=
200505200800 METAR MRLB NIL=
200505200900 METAR MRLB NIL=
200505201000 METAR MRLB NIL=
200505201100 METAR MRLB NIL=
200505201200 METAR MRLB 201200Z 13004KT 9999 SCT015 OVC100 24/23 A2982=
200505201300 METAR MRLB 201300Z 00000KT 9999 SCT020 BKN120 26/23 A2983 RMK HZ ARND RN DST SW/N=
200505201400 METAR MRLB 201400Z 12006KT 9999 SCT015 OVC120 27/24 A2985 RMK HZ ARND RN DST SW=
200505201500 METAR MRLB 201500Z 12004KT 9999 SCT025 BKN140 29/24 A2985 RMK HZ LGT ARND RN DST S=
200505201600 METAR MRLB 201600Z 15008KT 9999 SCT020 BKN130 29/24 2984 RMK HZ ARND RN DST SW/W=
200505201700 METAR MRLB 201700Z 00000KT 9999 SCT020 BKN140 27/24 A2985 RMK HZY RN DST N/S=
200505201800 METAR MRLB 201800Z 35006KT 5000 RA FEW010 SCT020 OVC100 26/24 A2984=
200505201900 METAR MRLB 201900Z 00000KT 9999 SCT015 OVC100 26/24 A2982 RMK RN DST N/NE/E=
200505202000 METAR MRLB 202000Z 10008KT 3000 RA FEW008 SCT015 OVC100 25/23 A2982=
200505202100 METAR MRLB 202100Z 32004KT 9999 SCT015 OVC100 25/23 A2981 RMK RN DST E NE=
200505202200 METAR MRLB 202200Z 03005KT 7000 -RA FEW008 BKN020 24/23 A2980=
200505202300 METAR MRLB 202300Z 04006KT 9999 SCT015 OVC100 25/23 A2982 RMK RN DST S SE=
200505210000 METAR MRLB 210000Z 05003KT 9999 SCT020 OVC100 25/23 A2983 RMK RN DST N NE S=
200505210100 METAR MRLB NIL=
200505210200 METAR MRLB NIL=
200505210300 METAR MRLB NIL=
200505210400 METAR MRLB NIL=
200505210500 METAR MRLB NIL=
200505210600 METAR MRLB NIL=
200505210700 METAR MRLB NIL=
200505210800 METAR MRLB NIL=
200505210900 METAR MRLB NIL=
200505211000 METAR MRLB NIL=
200505211100 METAR MRLB NIL=
200505211200 METAR MRLB 211200Z 00000KT 9999 FEW015 BKN120 24/23 A2986 HZ=
200505211300 METAR MRLB 211300Z 15003KT 9999 SCT020 BKN120 24/23 A2989 RMK VCFG ARND=
200505211400 METAR MRLB 211400Z 12004KT 9999 SCT015 BKN120 26/24 A2990 RMK RN DST SW=
200505211500 METAR MRLB 211500Z 16006KT 9999 SCT015 OVC250 26/23 A2991 RMK RN DST N SW=
200505211600 METAR MRLB 211600Z 16005KT 9999 SCT020 OVC250 28/24 A2991=
200505211700 METAR MRLB 211700Z 17003KT 9999 -RA SCT010 OVC100 26/23 A2990=
200505211800 METAR MRLB 211800Z 00000KT 9999 SCT020 OVC140 27/24 A2989 RN RMK DST N NE SW=
200505211900 METAR MRLB 211900Z 24006KT 9999 SCT020 OVC140 29/23 A2986 RMK RN DST N E=
200505212000 METAR MRLB 212000Z 30011KT 9999 SCT010 OVC100 27/24 A2985 RMK RN DST N NE SW=
200505212100 METAR MRLB 212100Z 31004KT 9999 FEW020 OVC120 26/23 A2984=
200505212200 METAR MRLB 212200Z 35005KT 9999 FEW025 OVC120 27/24 A2982=
200505212300 METAR MRLB 212300Z 07003KT 9999 FEW025 OVC120 26/23 A2983=
200505220000 METAR MRLB NIL=
200505220100 METAR MRLB NIL=
200505220200 METAR MRLB NIL=
200505220300 METAR MRLB NIL=
200505220400 METAR MRLB NIL=
200505220500 METAR MRLB NIL=
200505220600 METAR MRLB NIL=
200505220700 METAR MRLB NIL=
200505220800 METAR MRLB NIL=
200505220900 METAR MRLB NIL=
200505221000 METAR MRLB NIL=
200505221100 METAR MRLB NIL=
200505221200 METAR MRLB 221200Z 17003KT 0200 FG SCT010 23/22 A2988=
200505221300 METAR MRLB 221300Z 00000KT 3000 BR SCT010 24/23 A2990=
200505221400 METAR MRLB 221400Z 00000KT 9999 SCT015 SCT130 27/24 A2992=
200505221500 METAR MRLB 221500Z 00000KT 9999 BKN020 28/23 A2994=
200505221600 METAR MRLB 221600Z 23009KT 9999 BKN020 28/24 A2994=
200505221700 METAR MRLB 221700Z 28004KT 9999 BKN025 28/23 A2993=
200505221800 METAR MRLB 221800Z 27008KT 9999 SCT020 SCT120 29/24 A2992 RMK RN DIST NE E S SW=
200505221900 METAR MRLB 221900Z 27008KT 9999 FEW020 BKN120 28/24 A2989=
200505222000 METAR MRLB 222000Z 24003KT 9999 SCT025 SCT120 28/24 A2987=
200505222100 METAR MRLB 222100Z 27009KT 9999 SCT020 BKN250 29/25 A2984=
200505222200 METAR MRLB 222200Z 25006KT 9999 FEW020 BKN250 28/23 A2984=
200505222300 METAR MRLB 222300Z 27008KT 9999 FEW025 SCT130 BKN250 27/23 A2984=
200505230000 METAR MRLB 230000Z 28005KT 9999 FEW025 SCT130 OVC250 27/23 A2983=
200505230100 METAR MRLB NIL=
200505230200 METAR MRLB NIL=
200505230300 METAR MRLB NIL=
200505230400 METAR MRLB NIL=
200505230500 METAR MRLB NIL=
200505230600 METAR MRLB NIL=
200505230700 METAR MRLB NIL=
200505230800 METAR MRLB NIL=
200505230900 METAR MRLB NIL=
200505231000 METAR MRLB NIL=
200505231100 METAR MRLB NIL=
200505231200 METAR MRLB 231200Z 00000KT 1000 BR SCT007 SCT130 24/23 A2987=
200505231300 METAR MRLB 231300Z 00000KT 9999 SCT020 SCT130 25/24 A2990=
200505231400 METAR MRLB 231400Z 00000KT 9999 FEW030 SCT250 27/24 A2990=
200505231500 METAR MRLB 231500Z 00000KT 9999 SCT030 BKN250 29/24 A2992=
200505231600 METAR MRLB 231600Z 29006KT 9999 SCT035 SCT250 31/23 A2993=
200505231700 METAR MRLB 231700Z 27007KT 9999 SCT030 BKN250 30/23 A2992=
200505231800 METAR MRLB 231800Z 29011KT 9999 SCT035 BKN250 31/24 A2990=
200505231900 METAR MRLB 231900Z 29012KT 9999 FEW030 BKN250 30/24 A2987=
200505232000 METAR MRLB 232000Z 28014KT 9999 SCT030 BKN250 30/24 A2984=
200505232100 METAR MRLB 232100Z 28009KT 9999 SCT030 BKN140 29/23 A2983=
200505232200 METAR MRLB 232200Z 27009KT 9999 SCT030 BKN130 28/23 A2984=
200505232300 METAR MRLB 232300Z 27006KT 9999 SCT025 OVC130 27/23 A2984=
200505240000 METAR MRLB 240000Z 00000KT 9999 SCT030 BKN130 27/23 A2987=
200505240100 METAR MRLB NIL=
200505240200 METAR MRLB NIL=
200505240300 METAR MRLB NIL=
200505240400 METAR MRLB NIL=
200505240500 METAR MRLB NIL=
200505240600 METAR MRLB NIL=
200505240700 METAR MRLB NIL=
200505240800 METAR MRLB NIL=
200505240900 METAR MRLB NIL=
200505241000 METAR MRLB NIL=
200505241100 METAR MRLB NIL=
200505241300 METAR MRLB 241300Z 00000KT 9999 FEW030 BKN140 26/23 A2990=
200505241400 METAR MRLB 241400Z 00000KT 9999 FEW035 BKN140 28/23 A2991=
200505241500 METAR MRLB 241500Z 24004KT 9999 SCT035 BKN140 29/24 A2990=
200505241600 METAR MRLB 241600Z 26008KT 9999 SCT030 SCT140 30/24 A2990=
200505241700 METAR MRLB 241700Z 28009KT 9999 SCT035 SCT130 31/23 A2988=
200505241800 METAR MRLB 241800Z 28011KT 9999 FEW035 SCT250 32/23 A2987=
200505241900 METAR MRLB 241900Z 29011KT 9999 SCT035 SCT250 31/23 A2984=
200505242000 METAR MRLB 242000Z 27013KT 9999 FEW030 SCT130 BKN250 31/23 A2983=
200505242100 METAR MRLB 242100Z 29012KT 9999 FEW035 BKN250 30/24 A2980=
200505242200 METAR MRLB 242200Z 27013KT 9999 SCT030 BKN250 29/23 A2980 RMK RN DST E=
200505242300 METAR MRLB 242300Z 27011KT 9999 SCT030 BKN250 29/24 A2981=
200505250000 METAR MRLB 250000Z 28011KT 9999 SCT030 BKN240 28/24 A2981=
200505250100 METAR MRLB NIL=
200505250200 METAR MRLB NIL=
200505250300 METAR MRLB NIL=
200505250400 METAR MRLB NIL=
200505250500 METAR MRLB NIL=
200505250600 METAR MRLB NIL=
200505250700 METAR MRLB NIL=
200505250800 METAR MRLB NIL=
200505250900 METAR MRLB NIL=
200505251000 METAR MRLB NIL=
200505251100 METAR MRLB NIL=
200505251300 METAR MRLB 251300Z 31004KT 9999 SCT020 OVC140 25/23 A2987 RMK RN DST S/SW=
200505251400 METAR MRLB 251400Z 28003KT 9999 FEW025 OVC140 27/24 A2989 RMK TCU DST SW=
200505251500 METAR MRLB 251500Z 24004KT 9999 SCT020 OVC130 28/24 A2990=
200505251600 METAR MRLB 251600Z 30006KT 9999 SCT020 OVC130 28/24 A2990 RMK RN DST NE/S/NW=
200505251700 METAR MRLB 251700Z 30008KT 9999 SCT020 OVC130 28/24 A2990 RMK RN DST S/NW=
200505251800 METAR MRLB 251800Z 31007KT 9999 FEW025 OVC240 29/23 A2988=
200505251900 METAR MRLB 251900Z 30008KT 9999 SCT030 OVC250 31/24 A2985=
200505252000 METAR MRLB 252000Z 27011KT 9999 FEW030 OVC250 31/24 A2983 RMK RN DST S=
200505252100 METAR MRLB 252100Z 27013KT 9999 FEW030 OVC250 29/23 A2981 RMK RN DST S=
200505252200 METAR MRLB 252200Z 28008KT 9999 FEW025 OVC250 28/23 A2979 RMK CB DST E SE=
200505252300 METAR MRLB 252300Z 27008KT 9999 FEW025 BKN250 29/24 A2980 RMK RN DST N TCU DST NE=
200505260000 METAR MRLB 260000Z 28005KT 9999 SCT025 BKN250 28/24 A2980=
200505260100 METAR MRLB NIL=
200505260200 METAR MRLB NIL=
200505260300 METAR MRLB NIL=
200505260400 METAR MRLB NIL=
200505260500 METAR MRLB NIL=
200505260600 METAR MRLB NIL=
200505260700 METAR MRLB NIL=
200505260800 METAR MRLB NIL=
200505260900 METAR MRLB NIL=
200505261000 METAR MRLB NIL=
200505261100 METAR MRLB NIL=
200505261200 METAR MRLB 261200Z 00000KT 3000 BR FEW005 OVC250 24/23 A2983=
200505261300 METAR MRLB 261300Z 03003KT 9999 FEW015 OVC250 26/24 A2984=
200505261400 METAR MRLB 261400Z 00000KT 9999 SCT020 BKN250 29/25 A2986=
200505261500 METAR MRLB 261500Z 28004KT 9999 SCT025 BKN250 30/25 A2986=
200505261600 METAR MRLB 261600Z 26005KT 9999 SCT025 OVC250 30/25 A2986=
200505261700 METAR MRLB 261700Z 28008KT 9999 SCT025 OVC250 31/25 A2984=
200505261800 METAR MRLB 261800Z 27009KT 9999 SCT020TCU OVC250 32/26 A2983=
200505261900 METAR MRLB 261900Z 28012KT 9999 SCT020 BKN250 31/26 A2981 RMK TCU SHRA DST NE E=
200505262000 METAR MRLB 262000Z 30010KT 9999 SCT020 BKN250 31/25 A2979 RMK RN DST N NE E=
200505262100 METAR MRLB 262100Z 29011KT 9999 FEW020 BKN250 31/24 A2977=
200505262200 METAR MRLB 262200Z 29009KT 9999 FEW020 BKN120 29/24 A2977=
200505262300 METAR MRLB 262300Z 24006KT 9999 SCT015 OVC120 28/25 A2979=
200505270000 METAR MRLB 270000Z 13004KT 9999 SCT010 OVC120 26/23 A2981=
200505270100 METAR MRLB NIL=
200505270200 METAR MRLB NIL=
200505270300 METAR MRLB NIL=
200505270400 METAR MRLB NIL=
200505270500 METAR MRLB NIL=
200505270600 METAR MRLB NIL=
200505270700 METAR MRLB NIL=
200505270800 METAR MRLB NIL=
200505270900 METAR MRLB NIL=
200505271000 METAR MRLB NIL=
200505271100 METAR MRLB NIL=
200505271200 METAR MRLB 271200Z 00000KT 2000 BR SCT005 BKN250 24/23 A2983=
200505271300 METAR MRLB 271300Z 00000KT 9999 FEW030 BKN250 25/23 A2985=
200505271400 METAR MRLB 271400Z 14003KT CAVOK 27/23 A2987=
200505271500 METAR MRLB 271500Z 09004KT 9999 FEW025 BKN240 29/24 A2988=
200505271600 METAR MRLB 271600Z 09007KT 9999 FEW035 BKN250 31/23 A2987=
200505271700 METAR MRLB 271700Z 10010KT 9999 FEW035 BKN250 32/22 A2986=
200505271800 METAR MRLB 271800Z 09008KT 9999 FEW035 BKN250 33/22 A2984=
200505271900 METAR MRLB 271900Z 13008KT 9999 SCT035 SCT250 34/22 A2982=
200505272000 METAR MRLB 272000Z 05007KT 9999 SCT035 BKN250 35/22 A2980=
200505272100 METAR MRLB 272100Z 28010KT 9999 SCT035 BKN250 31/24 A2980=
200505272200 METAR MRLB 272200Z 27010KT 9999 SCT030 OVC250 31/24 A2980=
200505272300 METAR MRLB 272300Z 29009KT 9999 SCT030 OVC250 29/24 A2981=
200505280000 METAR MRLB 280000Z 27007KT 9999 SCT030 OVC240 29/24 A2984=
200505280100 METAR MRLB NIL=
200505280200 METAR MRLB NIL=
200505280300 METAR MRLB NIL=
200505280400 METAR MRLB NIL=
200505280500 METAR MRLB NIL=
200505280600 METAR MRLB NIL=
200505280700 METAR MRLB NIL=
200505280800 METAR MRLB NIL=
200505280900 METAR MRLB NIL=
200505281000 METAR MRLB NIL=
200505281100 METAR MRLB NIL=
200505281200 METAR MRLB 281200Z 00000KT 9999 SCT025 OVC240 25/23 A2982=
200505281300 METAR MRLB 281300Z 07008KT 9999 SCT030 OVC240 28/22 A2983=
200505281400 METAR MRLB 281400Z 07008KT 9999 SCT030 OVC240 28/22 A2983=
200505281500 METAR MRLB 281500Z 07009KT 9999 FEW035 BKN140 28/22 A2984=
200505281600 METAR MRLB 281600Z 13007KT 9999 FEW035 BKN140 28/22 A2982=
200505281700 METAR MRLB 281700Z 10007KT 9999 FEW035 OVC140 29/21 A2979=
200505281800 METAR MRLB 281800Z 07010KT 9999 FEW035 OVC140 30/20 A2980=
200505281900 METAR MRLB 281900Z 04005KT 9999 FEW035 BKN130 29/21 A2979=
200505282000 METAR MRLB 282000Z 07004KT 9999 FEW035 OVC130 29/21 A2979=
200505282100 METAR MRLB 282100Z 09003KT 9999 FEW035 OVC130 29/21 A2977=
200505282200 METAR MRLB 282200Z 09004KT 9999 FEW035 OVC130 29/21 A2977=
200505282300 METAR MRLB 282300Z 08004KT 9999 FEW030 BKN130 29/22 A2977=
200505290000 METAR MRLB 290000Z 00000KT 9999 FEW030 BKN130 29/23 A2978=
200505290100 METAR MRLB NIL=
200505290200 METAR MRLB NIL=
200505290300 METAR MRLB NIL=
200505290400 METAR MRLB NIL=
200505290500 METAR MRLB NIL=
200505290600 METAR MRLB NIL=
200505290700 METAR MRLB NIL=
200505290800 METAR MRLB NIL=
200505290900 METAR MRLB NIL=
200505291000 METAR MRLB NIL=
200505291100 METAR MRLB NIL=
200505291200 METAR MRLB NIL=
200505291300 METAR MRLB 291300Z 00000KT 9999 FEW030 OVC130 26/24 A2981=
200505291400 METAR MRLB 291400Z 00000KT 9999 FEW030 OVC130 27/24 A2981=
200505291500 METAR MRLB 291500Z 16004KT 9999 FEW030 OVC140 28/25 A2982=
200505291600 METAR MRLB 291600Z 08006KT 9999 FEW035 OVC240 31/24 A2982=
200505291700 METAR MRLB 291700Z 07007KT 9999 FEW035 OVC240 32/24 A2980=
200505291900 METAR MRLB 291900Z 12011KT 9999 FEW035 OVC250 34/23 A2975=
200505292000 METAR MRLB 292000Z 09005KT 9999 FEW035 OVC250 34/22 A2975=
200505292100 METAR MRLB 292100Z 08007KT 9999 FEW035 OVC250 34/22 A2973=
200505292200 METAR MRLB 292200Z 06012KT 9999 FEW035 SCT130 OVC250 32/23 A2972=
200505292300 METAR MRLB 292300Z 08010KT 9999 FEW035 BKN130 31/23 A2972=
200505300000 METAR MRLB 300000Z 09008KT CAVOK 30/22 A2972=
200505300100 METAR MRLB NIL=
200505300200 METAR MRLB NIL=
200505300300 METAR MRLB NIL=
200505300400 METAR MRLB NIL=
200505300500 METAR MRLB NIL=
200505300600 METAR MRLB NIL=
200505300700 METAR MRLB NIL=
200505300800 METAR MRLB NIL=
200505300900 METAR MRLB NIL=
200505301000 METAR MRLB NIL=
200505301100 METAR MRLB NIL=
200505301200 METAR MRLB 301200Z 00000KT 9999 FEW035 OVC130 23/22 A2977=
200505301300 METAR MRLB 301300Z 00000KT 9999 FEW035 OVC130 25/23 A2978=
200505301400 METAR MRLB 301400Z 17005KT 9999 FEW035 OVC140 27/24 A2980=
200505301500 METAR MRLB 301500Z 09007KT 9999 FEW035 OVC220 30/23 A2981=
200505301600 METAR MRLB 301600Z 09010KT 9999 SCT035 OVC220 30/22 A2980=
200505301700 METAR MRLB 301700Z 07008KT 9999 FEW035 BKN140 OVC240 31/22 A2978=
200505301800 METAR MRLB 301800Z 07007KT 9999 FEW035 OVC240 32/22 A2977=
200505301900 METAR MRLB 301900Z 05013KT 9999 FEW035 OVC240 32/21 A2976=
200505302000 METAR MRLB 30200Z 05011KT 9999 SCT040 OVC240 32/21 A2973=
200505302100 METAR MRLB 302100Z 12006KT 9999 FEW040 OVC240 33/22 A2972=
200505302200 METAR MRLB 302200Z 09010KT CAVOK 32/21 A2975=
200505302300 METAR MRLB 302300Z 11007KT CAVOK 31/22 A2971=
200505310000 METAR MRLB 310000Z 12005KT CAVOK 30/22 A2972=
200505310100 METAR MRLB NIL=
200505310200 METAR MRLB NIL=
200505310300 METAR MRLB NIL=
200505310400 METAR MRLB NIL=
200505310500 METAR MRLB NIL=
200505310600 METAR MRLB NIL=
200505310700 METAR MRLB NIL=
200505310800 METAR MRLB NIL=
200505310900 METAR MRLB NIL=
200505311000 METAR MRLB NIL=
200505111100 METAR MRLB NIL=
200505311200 METAR MRLB 311200Z 23003KT 9999 FEW030 BKN130 26/23 A2979=
200505311300 METAR MRLB 311300Z 00000KT 9999 FEW030 BKN130 27/24 A2980 RMK HZY=
200505311400 METAR MRLB 311400Z 00000KT 9999 FEW035 SCT130 OVC250 29/24 A2980 RMK HZY=
200505311500 METAR MRLB 311500Z 24003KT 9999 FEW035 OVC250 29/24 A2982 RMK HZY=
200505311600 METAR MRLB 311600Z 00000KT 9999 SCT035 OVC250 30/24 A2981 RMK HZ ARND=
200505311700 METAR MRLB 311700Z 29005KT 9999 SCT035 OVC240 32/24 A2980 RMK HZY=
200505311800 METAR MRLB 311800Z 32003KT 9999 SCT035 OVC240 34/24 A2978=
200505311900 METAR MRLB 311900Z 10012KT 9999 SCT030 BKN250 34/22 A2975=
200505312000 METAR MRLB 312000Z 09011KT 9999 SCT035 OVC250 34/22 A2974=
200505312100 METAR MRLB 312100Z 08009KT 9999 SCT030 OVC240 34/23 A2974=
200505312200 METAR MRLB 312200Z 35004KT 9999 SCT030 BKN140 30/25 A2975=
200505312300 METAR MRLB 312300Z 00000KT 9999 FEW030 BKN130 28/25 A2978=
200506010000 METAR MRLB 010000Z 00000KT 9999 SCT030 OVC130 28/24 A2981=
200506010100 METAR MRLB NIL=
200506010200 METAR MRLB NIL=
200506010300 METAR MRLB NIL=
200506010400 METAR MRLB NIL=
200506010500 METAR MRLB NIL=
200506010600 METAR MRLB NIL=
200506010700 METAR MRLB NIL=
200506010800 METAR MRLB NIL=
200506010900 METAR MRLB NIL=
200506011000 METAR MRLB NIL=
200506011100 METAR MRLB NIL=
200506011200 METAR MRLB 011200Z 20003KT 9999 FEW030 BKN250 25/23 A2987=
200506011300 METAR MRLB 011300Z 00000KT 9999 FEW0030 SCT130 OVC250 26/23 A2988=
200506011400 METAR MRLB 011400Z 16003KT 9999 FEW030 BKN140 28/23 A2989=
200506011500 METAR MRLB 011500Z 18004KT 9999 FEW035 OVC140 28/23 A2989=
200506011600 METAR MRLB 011600Z 23003KT 9999 SCT035 OVC140 29/23 A2990=
200506011700 METAR MRLB 011700Z 27009KT 9999 SCT030 OVC130 28/24 A2989=
200506011800 METAR MRLB 011800Z 26007KT 9999 SCT025 OVC130 27/24 A2988=
200506011900 METAR MRLB 011900Z 25005KT 9999 SCT020 OVC120 27/24 A2986=
200506012000 METAR MRLB 012000Z 17006KT 9999 SCT020 OVC120 28/24 A2984=
200506012100 METAR MRLB 012100Z 17005KT 9999 FEW030 BKN130 28/24 A2981=
200506012200 METAR MRLB 012200Z 18005KT 9999 FEW030 BKN130 27/23 A2983=
200506012300 METAR MRLB 012300Z 13003KT 9999 FEW030 OVC130 27/23 A2984=
200506020000 METAR MRLB 020000Z 15003KT 9999 FEW035 OVC120 27/23 A2985=
200506020100 METAR MRLB NIL=
200506020200 METAR MRLB NIL=
200506020300 METAR MRLB NIL=
200506020400 METAR MRLB NIL=
200506020500 METAR MRLB NIL=
200506020600 METAR MRLB NIL=
200506020700 METAR MRLB NIL=
200506020800 METAR MRLB NIL=
200506020900 METAR MRLB NIL=
200506021000 METAR MRLB NIL=
200506021100 METAR MRLB NIL=
200506021200 METAR MRLB 021200Z 17003KT 9999 FEW005 OVC130 24/23 A2987 RMK DST FOG BANKS SW W=
200506021300 METAR MRLB 021300Z 14004KT 9999 FEW010 SCT130 OVC280 25/23 A2988=
200506021400 METAR MRLB 021400Z 14004KT 9999 FEW015 OVC250 27/24 A2989=
200506021500 METAR MRLB 021500Z 14003KT 9999 SCT020 BKN250 28/23 A2990=
200506021600 METAR MRLB 021600Z 16004KT 9999 SCT025 SCT250 29/23 A2991=
200506021700 METAR MRLB 021700Z 00000KT 9999 SCT030 SCT250 32/22 A2989=
200506021800 METAR MRLB 021800Z 18005KT 9999 SCT030 32/22 A2987 RMK RN S SW=
200506021900 METAR MRLB 021900Z 26014KT 9999 SCT020 SCT100 31/24 A2985 RMK RASH S SW=
200506022000 METAR MRLB 022000Z 17006KT 9999 3000E -RA SCT020 BKN100 25/23 A2986=
200506022100 METAR MRLB 022100Z 00000KT 9999 FEW010 BKN120 26/23 A2983=
200506022200 METAR MRLB 022200Z 12003KT 9999 FEW020 BKN120 27/23 A2983=
200506022300 METAR MRLB 022300Z 00000KT 9999 FEW020 OVC120 27/24 A2984=
200506030000 METAR MRLB 030000Z 00000KT 9999 FEW025 OVC130 27/24 A2984=
200506030100 METAR MRLB NIL=
200506030200 METAR MRLB NIL=
200506030300 METAR MRLB NIL=
200506030400 METAR MRLB NIL=
200506030500 METAR MRLB NIL=
200506030600 METAR MRLB NIL=
200506030700 METAR MRLB NIL=
200506030800 METAR MRLB NIL=
200506030900 METAR MRLB NIL=
200506031000 METAR MRLB NIL=
200506031100 METAR MRLB NIL=
200506031200 METAR MRLB 031200Z 00000KT CAVOK 24/22 A2986 RMK 8CS250 FG DST SW=
200506031300 METAR MRLB NIL=
200506031400 METAR MRLB 031400Z 05003KT 9999 FEW025 OVC250 27/23 A2990=
200506031500 METAR MRLB 031500Z 17003KT 9999 FEW030 BKN250 29/24 A2991=
200506031600 METAR MRLB 031600Z 19004KT 9999 SCT030 SCT250 30/23 A2990=
200506031700 METAR MRLB 031700Z 23004KT 9999 SCT030 SCT250 31/24 A2988=
200506031800 METAR MRLB 031800Z 25007KT 9999 SCT030 31/25 A2986=
200506031900 METAR MRLB 031900Z 26013KT 9999 SCT030 31/24 A2983=
200506032000 METAR MRLB 032000Z 27011KT 9999 SCT020TCU SCT240 31/23 A2980=
200506032100 METAR MRLB 032100Z 29008KT 9999 BKN025 SCT240 30/23 A2979=
200506032200 METAR MRLB 032200Z 24007KT 9999 SCT025 BKN100 29/23 A2979=
200506032300 METAR MRLB 032300Z 00000KT 9999 FEW025 BKN120 28/24 A2979=
200506040000 METAR MRLB 040000Z 28004KT 9999 SCT025 OVC140 28/23 A2980=
200506040100 METAR MRLB NIL=
200506040200 METAR MRLB NIL=
200506040300 METAR MRLB NIL=
200506040400 METAR MRLB NIL=
200506040500 METAR MRLB NIL=
200506040600 METAR MRLB NIL=
200506040700 METAR MRLB NIL=
200506040800 METAR MRLB NIL=
200506040900 METAR MRLB NIL=
200506041000 METAR MRLB NIL=
200506041100 METAR MRLB NIL=
200506041200 METAR MRLB NIL=
200506041300 METAR MRLB 041300Z 00000KT 9999 FEW030 OVC130 25/24 A2987=
200506041400 METAR MRLB 041400Z 00000KT 9999 FEW035 OVC130 27/24 A2988=
200506041500 METAR MRLB 041500Z 00000KT 9999 FEW035 BKN130 28/25 A2990=
200506041600 METAR MRLB 041600Z 30003KT 9999 SCT030 BKN130 28/24 A2990=
200506041700 METAR MRLB 041700Z 28006KT 9999 SCT030 OVC250 30/24 A2987=
200506041800 METAR MRLB 041800Z 29008KT 9999 SCT035 OVC250 31/23 A2985=
200506041900 METAR MRLB 041900Z 26008KT 9999 SCT035 OVC250 32/24 A2981=
200506042000 METAR MRLB 042000Z 29009KT 9999 SCT030 OVC250 32/24 A2979=
200506042100 METAR MRLB 042100Z 26012KT 9999 SCT035 OVC250 31/24 A2979=
200506042300 METAR MRLB 042300Z 27005KT 9999 SCT025 BKN120 29/24 A2983 RMK RN DST E NE S=
200506050000 METAR MRLB 050000Z 24010KT 1500 RA FEW010 SCT015 OVC100 24/23 A2988=
200506050100 METAR MRLB NIL=
200506050200 METAR MRLB NIL=
200506050300 METAR MRLB NIL=
200506050400 METAR MRLB NIL=
200506050500 METAR MRLB NIL=
200506050600 METAR MRLB NIL=
200506050700 METAR MRLB NIL=
200506050800 METAR MRLB NIL=
200506050900 METAR MRLB NIL=
200506051000 METAR MRLB NIL=
200506051100 METAR MRLB NIL=
200506051200 METAR MRLB 051200Z 00000KT 9999 FEW020 BKN140 23/22 A2988=
200506051300 METAR MRLB 051300Z 00000KT 9999 FEW020 SCT140 OVC250 24/23 A2988=
200506051400 METAR MRLB 051400Z 00000KT 9999 SCT025 OVC250 26/23 A2990=
200506051500 METAR MRLB 051500Z 00000KT 9999 FEW030 BKN250 28/24 A2992=
200506051600 METAR MRLB 051600Z 28004KT 9999 SCT030 BKN250 29/24 A2991=
200506051700 METAR MRLB 051700Z 28010KT 9999 SCT030 OVC250 30/24 A2991 RMK RN DST S SW=
200506051800 METAR MRLB 051800Z 27010KT 9999 SCT025 OVC250 27/24 A2990=
200506051900 METAR MRLB 051900Z 27013KT 9999 SCT025 BKN240 29/24 A2988 RMK RN DST S=
200506052000 METAR MRLB 052000Z 26012KT 9999 FEW020TCU SCT030 OVC250 29/24 A2987 RMK RN DST S SE SW=
200506052100 METAR MRLB 052100Z 22008KT 9999 -RA SCT015 BKN120 25/23 A2990=
200506052200 METAR MRLB 052200Z 00000KT 9999 SCT020 OVC110 25/23 A2984=
200506052300 METAR MRLB 052300Z 10003KT 9999 SCT025 OVC100 25/23 A2984=
200506060000 METAR MRLB NIL=
200506060100 METAR MRLB NIL=
200506060200 METAR MRLB NIL=
200506060300 METAR MRLB NIL=
200506060400 METAR MRLB NIL=
200506060500 METAR MRLB NIL=
200506060600 METAR MRLB NIL=
200506060700 METAR MRLB NIL=
200506060800 METAR MRLB NIL=
200506060900 METAR MRLB NIL=
200506061000 METAR MRLB NIL=
200506061100 METAR MRLB NIL=
200506061200 METAR MRLB 061200Z 10005KT 9999 FEW010 OVC120 23/22 A2987=
200506061300 METAR MRLB 061300Z 10003KT 9999 FEW015 OVC140 25/22 A2987=
200506061400 METAR MRLB 061400Z 08014KT 9999 FEW020 SCT140 OVC140 26/22 A2988=
200506061500 METAR MRLB 061500Z 12004KT CAVOK 26/22 A2989=
200506061600 METAR MRLB 061600Z 19004KT CAVOK 27/23 A2988=
200506061700 METAR MRLB 061700Z 19005KT 9999 FEW030 BKN130 28/23 A2988=
200506061800 METAR MRLB 061800Z 15003KT 9999 FEW030 OVC130 29/23 A2988=
200506061900 METAR MRLB 061900Z 16007KT 9999 FEW030 BKN150 30/24 A2986=
200506062000 METAR MRLB 062000Z 00000KT 9999 FEW030 BKN130 31/23 A2982=
200506062100 METAR MRLB 062100Z 24005KT 9999 SCT025 SCT100 31/23 A2979 RMK RN SW=
200506062200 METAR MRLB 062200Z 32006KT 9999 SCT020 BKN100 27/23 A2979 RMK CB N E=
200506062300 METAR MRLB 062300Z 25005KT 9999 -RA SCT020 BKN100 27/24 A2980=
200506070000 METAR MRLB 070000Z 28003KT 9999 SCT020 OVC100 26/24 A2981 RMK RN DST N NE S SW=
200506070100 METAR MRLB NIL=
200506070200 METAR MRLB NIL=
200506070300 METAR MRLB NIL=
200506070400 METAR MRLB NIL=
200506070500 METAR MRLB NIL=
200506070600 METAR MRLB NIL=
200506070700 METAR MRLB NIL=
200506070800 METAR MRLB NIL=
200506070900 METAR MRLB NIL=
200506071000 METAR MRLB NIL=
200506071100 METAR MRLB NIL=
200506071200 METAR MRLB 071200Z 00000KT 9999 OVC025 24/23 A2983 RMK RN DST NE NW=
200506071300 METAR MRLB 071300Z 17003KT 9999 OVC040 25/23 A2985 RMK W NW=
200506071400 METAR MRLB 071400Z 11004KT 9999 FEW010 SCT040 BKN100 27/24 A2986=
200506071500 METAR MRLB 071500Z 18005KT 9999 4000SW -RA SCT010 OVC100 27/25 A2987=
200506071600 METAR MRLB 071600Z 16004KT 5000 -RA SCT010 OVC100 26/25 A2987=
200506071700 METAR MRLB 071700Z 00000KT 9999 SCT020 BKN100 28/24 A2987 RMK N NE E E SE=
200506071800 METAR MRLB 071800Z 16005KT 9999 5000S -RA SCT020 OVC100 28/24 A2985=
200506071900 METAR MRLB 071900Z 15004KT 4000 -RA FEW010 BKN020 26/24 A2982 RMK VIS W UNL=
200506072000 METAR MRLB 072000Z 14007KT 3000 -RA BR SCT010 BKN120 25/23 A2982=
200506072100 METAR MRLB 072100Z 13003KT 9999 SCT020 OVC100 25/24 A2980=
200506072200 METAR MRLB 072200Z 00000KT 9999 FE010 SCT030 OVC100 26/24 A2979=
200506072300 METAR MRLB 072300Z 13006KT 9999 SCT010 OVC010 OVC100 26/24 A2979=
200506080000 METAR MRLB 080000Z 11003KT 9999 SCT010 OVC100 26/24 A2981=
200506080100 METAR MRLB NIL=
200506080200 METAR MRLB NIL=
200506080300 METAR MRLB NIL=
200506080400 METAR MRLB NIL=
200506080500 METAR MRLB NIL=
200506080600 METAR MRLB NIL=
200506080700 METAR MRLB NIL=
200506080800 METAR MRLB NIL=
200506080900 METAR MRLB NIL=
200506081000 METAR MRLB NIL=
200506081100 METAR MRLB NIL=
200506081200 METAR MRLB NIL=
200506081300 METAR MRLB 081300Z 00000KT 9999 FEW010 SCT020 OVC100 24/23 A2984=
200506081400 METAR MRLB 081400Z 00000KT 9999 -RA SCT010 OVC110 25/23 A2984=
200506081500 METAR MRLB 081500Z 18003KT 9999 FEW008 BKN020 25/24 A2984=
200506081600 METAR MRLB 081600Z 00000KT 9999 FEW015 SCT025 BKN120 26/24 A2983=
200506081700 METAR MRLB 081700Z 22003KT 9999 SCT015 BKN120 27/24 A2984=
200506081800 METAR MRLB 081800Z 27003KT 9999 SCT020 BKN120 27/25 A2982=
200506081900 METAR MRLB 081900Z 22007KT 9999 4000SE VCSH FEW015 SCT025 BKN120 28/25 A2980=
200506082000 METAR MRLB 082000Z 20004KT 9999 5000S -RA SCT015 BKN100 26/24 A2980=
200506082100 METAR MRLB 082100Z 15004KT 9999 SCT015 BKN120 25/24 A29770=
200506082200 METAR MRLB 082200Z 17006KT 9999 SCT010 OVC120 25/24 A2976=
200506082300 METAR MRLB 082300Z 14003KT 9999 SCT025 BKN130 25/24 A2977=
200506090000 METAR MRLB 090000Z 14005KT 9999 SCT020 OVC120 25/24 A2980=
200506090100 METAR MRLB NIL=
200506090200 METAR MRLB NIL=
200506090300 METAR MRLB NIL=
200506090400 METAR MRLB NIL=
200506090500 METAR MRLB NIL=
200506090600 METAR MRLB NIL=
200506090700 METAR MRLB NIL=
200506090800 METAR MRLB NIL=
200506090900 METAR MRLB NIL=
200506091000 METAR MRLB NIL=
200506091100 METAR MRLB NIL=
200506091200 METAR MRLB NIL=
200506091300 METAR MRLB NIL=
200506091400 METAR MRLB 091400Z 19003KT 9999 SCT030 BKN240 27/24 A2986=
200506091500 METAR MRLB 091500Z 19005KT 9999 SCT025 BKN240 28/24 A2985 RN SW=
200506091600 METAR MRLB 091600Z 18004KT 9999 DZ SCT020 BKN130 27/24 A2986=
200506091700 METAR MRLB 091700Z 18006KT 9999 SCT020 BKN130 28/25 A2986 RN S SE=
200506091800 METAR MRLB 091800Z 14005KT 9999 SCT030 BKN130 28/24 A2983 RN SE=
200506091900 METAR MRLB 091900Z 17004KT 9999 FEW030 BKN250 29/24 A2980=
200506092000 METAR MRLB 092000Z 15004KT 9999 SCT025 BKN140 29/25 A2979=
200506092100 METAR MRLB 092100Z 00000KT 9999 -RA SCT015 OVC120 27/25 A2978 RMK 6000SW RA=
200506092200 METAR MRLB 092200Z 32005KT 9999 -RA FEW010 SCT020 BKN120 25/24 A2978=
200506092300 METAR MRLB 092300Z 00000KT 9999 SCT025 BKN140 27/25 A2978=
200506100000 METAR MRLB 100000Z 00000KT 9999 SCT020 BKN120 26/25 A2980 RMK RN DST N SE S=
200506100100 METAR MRLB NIL=
200506100200 METAR MRLB NIL=
200506100300 METAR MRLB NIL=
200506100400 METAR MRLB NIL=
200506100500 METAR MRLB NIL=
200506100600 METAR MRLB NIL=
200506100700 METAR MRLB NIL=
200506100800 METAR MRLB NIL=
200506100900 METAR MRLB NIL=
200506101000 METAR MRLB NIL=
200506101100 METAR MRLB NIL=
200506101200 METAR MRLB 101200Z 00000KT 9999 -RA FEW005 BKN020 25/24 A2983=
200506101300 METAR MRLB 101300Z 00000KT 3000 -RA BR SCT005 BKN020 25/24 A2985=
200506101400 METAR MRLB 101400Z 14004KT 9999 SCT008 OVC100 26/25 A2987=
200506101500 METAR MRLB 101500Z 15004KT 9999 -RA OVC015 26/24 A2989=
200506101600 METAR MRLB 101600Z 13003KT 9999 SCT010 OVC100 28/24 A2987=
200506101700 METAR MRLB 101700Z 12004KT 9999 SCT015 OVC100 29/24 A2986 RMK RN DST S SW=
200506101800 METAR MRLB 101800Z 18004KT 9999 3000SW -RA SCT015 OVC100 28/24 A2985=
200506101900 METAR MRLB 101900Z 19003KT 9999 25000SE -RA SCT008 OVC100 26/25 A2986 RMK TS DST N=
200506102000 METAR MRLB 102000Z 16005KT 9999 -RA SCT007 OVC100 26/24 A2985=
200506102100 METAR MRLB 102100Z 13005KT 9999 -RA BKN010 OVC100 26/24 A2984=
200506102200 METAR MRLB 102200Z 00000KT 9999 -RA FEW020 OVC100 26/24 A2985=
200506102300 METAR MRLB 102300Z 00000KT 9999 SCT020 OVC120 26/23 A2986=
200506110000 METAR MRLB 110000Z 00000KT 9999 SCT020 OVC120 26/23 A2986=
200506110100 METAR MRLB NIL=
200506110200 METAR MRLB NIL=
200506110300 METAR MRLB NIL=
200506110400 METAR MRLB NIL=
200506110500 METAR MRLB NIL=
200506110600 METAR MRLB NIL=
200506110700 METAR MRLB NIL=
200506110800 METAR MRLB NIL=
200506110900 METAR MRLB NIL=
200506111000 METAR MRLB NIL=
200506111100 METAR MRLB NIL=
200506111200 METAR MRLB 111200Z 12003KT 2000 -RA BR OVC005 24/23 A2987=
200506111300 METAR MRLB 111300Z 10005KT 5000 RA FEW007 SCT020 BKN100 24/22 A2987=
200506111400 METAR MRLB 111400Z 12005KT 9999 FEW010 SCT020 24/23 A2989=
200506111500 METAR MRLB 111500Z 11007KT 9999 FEW010 OVC100 25/23 A2990=
200506111600 METAR MRLB 111600Z 11005KT 9999 SCT010 OVC100 26/23 A2989=
200506111700 METAR MRLB 111700Z 00000KT 9999 -RA SCT010 OVC100 27/24 A2989=
200506111800 METAR MRLB 111800Z 01004KT 9999 -RA SCT015 OVC100 27/25 A2988=
200506111900 METAR MRLB 111900Z 00000KT 9999 -RA SCT010 OVC100 28/25 A2987=
200506112000 METAR MRLB 112000Z 18005KT 3000E -RA SCT010 OVC100 27/25 A2985=
200506112100 METAR MRLB 112100Z 20004KT 9999 -RA SCT010 OVC092 27/25 A2993=
200506112200 METAR MRLB 112200Z 22003KT 9999 SCT008 OVC100 26/24 2983=
200506112300 METAR MRLB 112300Z 29003KT 9999 FEW015 OVC100 26/24 A2983=
200506120000 METAR MRLB 120000Z 00000KT 9999 SCT020 OVC120 26/24 A2985=
200506120100 METAR MRLB NIL=
200506120200 METAR MRLB NIL=
200506120300 METAR MRLB NIL=
200506120400 METAR MRLB NIL=
200506120500 METAR MRLB NIL=
200506120600 METAR MRLB NIL=
200506120700 METAR MRLB NIL=
200506120800 METAR MRLB NIL=
200506120900 METAR MRLB NIL=
200506121000 METAR MRLB NIL=
200506121100 METAR MRLB NIL=
200506121200 METAR MRLB NIL=
200506121300 METAR MRLB NIL=
200506121400 METAR MRLB NIL=
200506121500 METAR MRLB 121500Z 00000KT 9999 FEW030 BKN250 29/24 A2986=
200506121600 METAR MRLB 121600Z 27004KT 9999 SCT030 BKN250 30/25 A2986=
200506121700 METAR MRLB 121700Z 29004KT 9999 SCT035 SCT250 31/24 A2984=
200506121800 METAR MRLB 121800Z 27010KT 9999 SCT035 BKN250 30/25 A2982=
200506121900 METAR MRLB 121900Z 29010KT 9999 SCT030 OVC250 31/26 A2980=
200506122000 METAR MRLB 122000Z 27009 9999 SCT025 OVC250 29/25 A2979=
200506122100 METAR MRLB 122100Z 29007KT 9999 SCT030 BKN240 28/25 A2978=
200506122200 METAR MRLB 122200Z 29008KT 9999 SCT030 BKN140 28/25 A2978=
200506122300 METAR MRLB 122300Z 26005KT 9999 SCT025 BKN140 28/25 A2978=
200506130000 METAR MRLB 130000Z 23003KT 9999 SCT025 BKN130 27/25 A2979=
200506130100 METAR MRLB NIL=
200506130200 METAR MRLB NIL=
200506130300 METAR MRLB NIL=
200506130400 METAR MRLB NIL=
200506130500 METAR MRLB NIL=
200506130600 METAR MRLB NIL=
200506130700 METAR MRLB NIL=
200506130800 METAR MRLB NIL=
200506130900 METAR MRLB NIL=
200506131000 METAR MRLB NIL=
200506131100 METAR MRLB NIL=
200506131200 METAR MRLB NIL=
200506131300 METAR MRLB 131300Z 00000KT 9999 SCT025 BKN120 25/24 2984=
200506131400 METAR MRLB 131400Z 30005KT 9999 SCT026 BKN130 26/24 A2985=
200506131500 METAR MRLB 131500Z 26005KT 9999 SCT025 BKN130 27/24 A2985=
200506131600 METAR MRLB 141600Z 23006KT 9999 SCT030 BKN140 28/25 A2985=
200506131700 METAR MRLB 131700Z 25007KT 9999 FEW030 SCT140 OVC250 29/24 A2984=
200506131800 METAR MRLB 131800Z 26007KT 9999 SCT025 BKN140 30/25 A2981=
200506131900 METAR MRLB 131900Z 30007KT 9999 SCT020 BKN130 28/25 A2989=
200506132000 METAR MRLB 132000Z 31008KT 9999 SCT020 OVC130 28/25 A2977=
200506132100 METAR MRLB 132100Z 31006KT 9999 SCT020 BKN130 28/25 A2975=
200506132200 METAR MRLB 132200Z 28007KT 9999 SCT025 BKN130 28/25 A2973=
200506132300 METAR MRLB 132300Z 27006KT 9999 FEW030 SCT130 OVC250 28/25 A2974=
200506140000 METAR MRLB 140000Z 28005KT 9999 SCT030 OVC240 28/25 A2976 RN N=
200506140100 METAR MRLB NIL=
200506140200 METAR MRLB NIL=
200506140300 METAR MRLB NIL=
200506140400 METAR MRLB NIL=
200506140500 METAR MRLB NIL=
200506140600 METAR MRLB NIL=
200506140700 METAR MRLB NIL=
200506140800 METAR MRLB NIL=
200506140900 METAR MRLB NIL=
200506141000 METAR MRLB NIL=
200506141100 METAR MRLB NIL=
200506141200 METAR MRLB 141200Z 16004KT 0400 FG VV/// 23/22 2981=
200506141300 METAR MRLB 141300Z 16004KT 1000 BR SCT002 23/23 A2984=
200506141400 METAR MRLB 141400Z 00000KT 9999 SCT005 BKN010 24/23 A2987=
200506141500 METAR MRLB 141500Z 06003KT 9999 FEW010 SCT120 OVC250 25/23 A2987=
200506141600 METAR MRLB 141600Z 00000KT 9999 FEW020 OVC250 28/24 A2987=
200506141700 METAR MRLB 141700Z 32004KT 9999 SCT020 OVC250 28/24 A2986=
200506141800 METAR MRLB 141800Z 29005KT 9999 SCT025 OVC250 29/24 A2984=
200506141900 METAR MRLB 141900Z 29003KT 9999 SCT030 OVC250 29/24 A2982=
200506142000 METAR MRLB 142000Z 25007KT 9999 SCT030 BKN250 30/25 A2978=
200506142100 METAR MRLB 142100Z 26007KT 9999 FEW030 SCT130 OVC250 30/25 A2977=
200506142200 METAR MRLB 142200Z 26008KT 9999 SCT025 BKN130 30/25 A2977=
200506142300 METAR MRLB 142300Z 27013KT 9999 SCT015 BKN130 27/25 A2979 RMK CB DST N RN DST E S SW=
200506150000 METAR MRLB 150000Z 26006KT 9999 SCT020 OVC130 27/24 A2981 RMK RN DST NE=
200506150100 METAR MRLB NIL=
200506150200 METAR MRLB NIL=
200506150300 METAR MRLB NIL=
200506150400 METAR MRLB NIL=
200506150500 METAR MRLB NIL=
200506150600 METAR MRLB NIL=
200506150700 METAR MRLB NIL=
200506150800 METAR MRLB NIL=
200506150900 METAR MRLB NIL=
200506151000 METAR MRLB NIL=
200506151100 METAR MRLB NIL=
200506151200 METAR MRLB 151200Z 00000KT CAVOK 24/23 A2985=
200506151300 METAR MRLB 151300Z 00000KT 9999 FEW007 OVC250 26/24 A2987=
200506151400 METAR MRLB 151400Z 00000KT 9999 SCT010 OVC250 27/24 A2989=
200506151500 METAR MRLB 151500Z 00000KT 9999 SCT015 OVC250 28/24 A2990=
200506151600 METAR MRLB 151600Z 16003KT 9999 SCT020 OVC250 30/24 A2990=
200506151700 METAR MRLB 151700Z 18004KT 9999 SCT030 BKN250 30/24 A2988=
200506151800 METAR MRLB 151800Z 16004KT 9999 SCT030 BKN250 31/23 A2987=
200506151900 METAR MRLB 151900Z 25004KT 9999 SCT030 BKN250 32/24 A2984 RMK TCU DST S=
200506152000 METAR MRLB 152000Z 29010KT 9999 SCT030 BKN250 31/25 A2980 RMK CB DST S=
200506152100 METAR MRLB 152100Z 29008KT 9999 SCT025 SCT120 30/25 A2979=
200506152200 METAR MRLB 152200Z 28010KT 9999 5000S VCSH SCT010CB SCT120 28/24 A2978=
200506152300 METAR MRLB 152300Z 30005KT 9999 -RA SCT020 BKN120 27/24 A2981=
200506160000 METAR MRLB NIL=
200506160100 METAR MRLB NIL=
200506160200 METAR MRLB NIL=
200506160300 METAR MRLB NIL=
200506160400 METAR MRLB NIL=
200506160500 METAR MRLB NIL=
200506160600 METAR MRLB NIL=
200506160700 METAR MRLB NIL=
200506160800 METAR MRLB NIL=
200506160900 METAR MRLB NIL=
200506161000 METAR MRLB NIL=
200506161100 METAR MRLB NIL=
200506161200 METAR MRLB 161200Z 00000KT 9999 FEW025 OVC120 24/22 A2989=
200506161300 METAR MRLB 161300Z 00000KT 9999 FEW030 OVC120 24/23 A2990=
200506161400 METAR MRLB 161400Z 00000KT 9999 FEW030 BKN130 26/23 A2991=
200506161500 METAR MRLB 161500Z 19004KT 9999 FEW035 BKN130 27/24 A2992=
200506161600 METAR MRLB 161600Z 00000KT 9999 FEW035 OVC250 29/24 A2991=
200506161700 METAR MRLB 161700Z 28004KT 9999 SCT035 OVC250 30/24 A2990=
200506161800 METAR MRLB 161800Z 31004KT 9999 SCT030 OVC240 31/24 A2988=
200506161900 METAR MRLB 161900Z 29005KT 9999 SCT035 BKN240 31/25 A2986=
200506162000 METAR MRLB 162000Z 28008KT 9999 FEW035 BKN240 31/24 A2983=
200506162100 METAR MRLB 162100Z 28009KT 9999 FEW035 BKN250 30/24 A2981=
200506162200 METAR MRLB 162200Z 26009KT CAVOK 30/25 A2981 RMK TCU S=
200506162300 METAR MRLB 162300Z 28008KT CAVOK 29/25 A2982=
200506170000 METAR MRLB 170000Z 28007KT 9999 FEW030 OVC250 28/24 A2983=
200506170100 METAR MRLB NIL=
200506170200 METAR MRLB NIL=
200506170300 METAR MRLB NIL=
200506170400 METAR MRLB NIL=
200506170500 METAR MRLB NIL=
200506170600 METAR MRLB NIL=
200506170700 METAR MRLB NIL=
200506170800 METAR MRLB NIL=
200506170900 METAR MRLB NIL=
200506171000 METAR MRLB NIL=
200506171100 METAR MRLB NIL=
200506171200 METAR MRLB 171200Z 00000KT 9999 SCT015 OVC120 26/25 A2987=
200506171300 METAR MRLB 171300Z 00000KT 9999 SCT020 BKN130 27/25 A2989=
200506171400 METAR MRLB 171400Z 26003KT 9999 SCT030 OVC250 29/25 A2988=
200506171500 METAR MRLB 171500Z 00000KT 9999 SCT030 OVC250 30/25 A2990=
200506171600 METAR MRLB 171600Z 28006KT 9999 SCT030 BKN250 30/25 A2989=
200506171700 METAR MRLB 171700Z 24006KT 9999 SCT035 BKN250 31/26 A2987=
200506171800 METAR MRLB 171800Z 28007KT 9999 FEW035 BKN250 31/25 A2985=
200506171900 METAR MRLB 171900Z 28005KT 9999 FEW035 OVC250 31/25 A2984=
200506172000 METAR MRLB 172000Z 27009KT 9999 SCT025 OVC240 30/24 A2981 RMK RN E NE=
200506172100 METAR MRLB 172100Z 35003KT 9999 -RA SCT020 BKN120 27/25 A2980=
200506172200 METAR MRLB NIL=
200506172300 METAR MRLB NIL=
200506180000 METAR MRLB NIL=
200506180100 METAR MRLB NIL=
200506180200 METAR MRLB NIL=
200506180300 METAR MRLB NIL=
200506180400 METAR MRLB NIL=
200506180500 METAR MRLB NIL=
200506180600 METAR MRLB NIL=
200506180700 METAR MRLB NIL=
200506180800 METAR MRLB NIL=
200506180900 METAR MRLB NIL=
200506181000 METAR MRLB NIL=
200506181100 METAR MRLB NIL=
200506181200 METAR MRLB 181200Z 00000KT 9999 5000SW BR FEW002 OVC250 23/22 A2983=
200506181300 METAR MRLB 181300Z 15003KT 2000 BR FEW005 OVC250 23/23 A2985=
200506181400 METAR MRLB 181400Z 00000KT 5000 BR SCT004 25/24 A2987=
200506181500 METAR MRLB 181500Z 00000KT FEW015 OVC250 28/25 A2988=
200506181600 METAR MRLB 181600Z 00000KT 9999 FEW020 OVC250 30/23 A2987=
200506181700 METAR MRLB 181700Z 35003KT 9999 FEW030 OVC250 32/23 A2985=
200506181800 METAR MRLB 181800Z 29007KT 9999 FEW030 OVC250 32/25 A2983=
200506181900 METAR MRLB 181900Z 26004KT 9999 SCT025 SCT100 31/25 A2981=
200506182000 METAR MRLB 182000Z 28010KT 9999 FEW020 SCT100 BKN250 31/25 A2986=
200506182100 METAR MRLB 182100Z 29009KT 9999 FEW030 BKN120 29/23 A2978 RN NE E S=
200506182200 METAR MRLB 182200Z 17008KT 3000 -TSRA SCT010CB OVC100 25/23 A2982=
200506182300 METAR MRLB 182300Z 16005KT 9999 BKN020 OVC100 25/23 A2982 RN ARND=
200506190000 METAR MRLB 190000Z 04003KT 9999 SCT025 OVC120 25/23 A2982 RN S NW=
200506190100 METAR MRLB NIL=
200506190200 METAR MRLB NIL=
200506190300 METAR MRLB NIL=
200506190400 METAR MRLB NIL=
200506190500 METAR MRLB NIL=
200506190600 METAR MRLB NIL=
200506190700 METAR MRLB NIL=
200506190800 METAR MRLB NIL=
200506190900 METAR MRLB NIL=
200506191000 METAR MRLB NIL=
200506191100 METAR MRLB NIL=
200506191200 METAR MRLB 191200Z 00000KT 0500 FG VV/// 24/23 A2984=
200506191300 METAR MRLB 191300Z 00000KT 0500 FG VV/// 24/23 A2984=
200506191400 METAR MRLB 191400Z 00000KT 9999 SCT010 BKN250 25/24 A2987=
200506191500 METAR MRLB 191500Z 00000KT 9999 FEW020 OVC250 28/24 A2987=
200506191600 METAR MRLB 191600Z 00000KT 9999 FEW025 OVC270 29/25 A2987=
200506191700 METAR MRLB 191700Z 26003KT 9999 FEW030 OVC270 31/24 A2984=
200506191800 METAR MRLB 191800Z 25009KT 9999 FEW030 OVC270 32/25 A2982=
200506191900 METAR MRLB 191900Z 29010KT 9999 SCT025 OVC270 32/25 A2981=
200506192000 METAR MRLB 192000Z 30008KT 9999 SCT025 OVC250 31/26 A2979 RN N=
200506192100 METAR MRLB 192100Z 28008KT 9999 SCT025 OVC250 30/26 A2978=
200506192200 METAR MRLB 192200Z 28009KT 9999 FEW025 OVC250 30/26 A2976 RMK RN DST S=
200506192300 METAR MRLB 192300Z 25009KT 9999 FEW025 SCT120 BKN250 30/25 A2976 RMK TS RN DST E SE=
200506200000 METAR MRLB 200000Z 26007KT 9999 SCT025 BKN120 29/25 A2978 RMK TS RN DST N E=
200506200100 METAR MRLB NIL=
200506200200 METAR MRLB NIL=
200506200300 METAR MRLB NIL=
200506200400 METAR MRLB NIL=
200506200500 METAR MRLB NIL=
200506200600 METAR MRLB NIL=
200506200700 METAR MRLB NIL=
200506200800 METAR MRLB NIL=
200506200900 METAR MRLB NIL=
200506201000 METAR MRLB NIL=
200506201100 METAR MRLB NIL=
200506201200 METAR MRLB 201200Z 00000KT 9999 FEW025 OVC120 25/24 A2980=
200506201400 METAR MRLB 201400Z 00000KT 9999 FEW025 BKN140 28/25 A2983=
200506201500 METAR MRLB 201500Z 12007KT 9999 SCT030 OVC250 29/26 A2986=
200506201600 METAR MRLB 201600Z 14004KT 9999 SCT035 OVC250 30/25 A2985=
200506201700 METAR MRLB 201700Z 19004KT 9999 SCT030 OVC250 31/26 A2984=
200506201800 METAR MRLB 201800Z 10005KT 9999 SCT030 OVC240 32/25 A2982=
200506201900 METAR MRLB 201900Z 10008KT 9999 FEW035 BKN140 30/24 A2980=
200506202000 METAR MRLB 202000Z 13005KT 9999 FEW030 OVC140 31/24 A2979=
200506202100 METAR MRLB 202100Z 10006KT 9999 FEW035 OVC140 31/24 A2979=
200506202200 METAR MRLB 202200Z 10005KT 9999 FEW035 OVC130 30/24 A2978=
200506202300 METAR MRLB 202300Z 10003KT 9999 FEW035 OVC130 29/25 A2978=
200506210000 METAR MRLB 210000Z 10006KT 9999 FEW030 OVC130 28/24 A2978=
200506210100 METAR MRLB NIL=
200506210200 METAR MRLB NIL=
200506210300 METAR MRLB NIL=
200506210400 METAR MRLB NIL=
200506210500 METAR MRLB NIL=
200506210600 METAR MRLB NIL=
200506210700 METAR MRLB NIL=
200506210800 METAR MRLB NIL=
200506210900 METAR MRLB NIL=
200506211000 METAR MRLB NIL=
200506211100 METAR MRLB NIL=
200506211200 METAR MRLB 211200Z 00000KT 9999 FEW030 BKT140 24/23 A2984=
200506211300 METAR MRLB 211300Z 00000KT 9999 FEW030 SCT140 OVC250 25/23 A2985=
200506211400 METAR MRLB 211400Z 00000KT 9999 FEW035 OVC250 27/24 A2987=
200506211500 METAR MRLB 211500Z 18005KT 9999 FEW035 OVC250 27/24 A2989=
200506211600 METAR MRLB 211600Z 16005KT 9999 SCT035 OVC250 29/25 A2990=
200506211700 METAR MRLB 211700Z 15004KT 9999 SCT030 OVC250 30/25 A2988=
200506211800 METAR MRLB 211800Z 16004KT 9999 SCT030 OVC250 30/25 A2986=
200506211900 METAR MRLB 211900Z 20006KT 9999 SCT030 OVC250 31/25 A2984=
200506212000 METAR MRLB 212000Z 29006KT 9999 SCT025 BKN140 29/25 A2983=
200506212100 METAR MRLB 212100Z 34008KT 9999 SCT020 BKN140 26/23 A2982=
200506212200 METAR MRLB 212200Z 00000KT 9999 -RA SCT020 OVC120 26/23 A2982 RMK TS DST S=
200506212300 METAR MRLB 212300Z 15005KT 9999 SCT025 OVC120 26/24 A2984 RMK RN S SW=
200506220000 METAR MRLB 220000Z 15003KT 9999 SCT020 OVC100 25/23 A2986=
200506220100 METAR MRLB NIL=
200506220200 METAR MRLB NIL=
200506220300 METAR MRLB NIL=
200506220400 METAR MRLB NIL=
200506220500 METAR MRLB NIL=
200506220600 METAR MRLB NIL=
200506220700 METAR MRLB NIL=
200506220800 METAR MRLB NIL=
200506220900 METAR MRLB NIL=
200506221000 METAR MRLB NIL=
200506221100 METAR MRLB NIL=
200506221200 METAR MRLB 221200Z 00000KT CAVOK 23/22 A2987 RMK CB DST S W=
200506221300 METAR MRLB 221300Z 00000KT CAVOK 24/22 A2990 RMK BKN140 CB W=
200506221400 METAR MRLB 221400Z 28003KT 9999 FEW024 BKN090 25/23 A2985 RMK CB RN W NW N NW=
200506221500 METAR MRLB 221500Z 00000KT CAVOK 26/23 A2991=
200506221600 METAR MRLB 221600Z 19003KT 9999 FEW020 OVC140 27/24 A2993=
200506221700 METAR MRLB 221700Z 00000KT 9999 SCT020 OVC130 29/24 A2992=
200506221800 METAR MRLB 221800Z 00000KT 9999 SCT025 OVC130 29/24 A2989=
200506221900 METAR MRLB 221900Z 06009KT 9999 SCT030 BKN250 27/18 A3000=
200506222000 METAR MRLB 222000Z 27005KT 9999 SCT025 OVC140 29/24 A2987=
200506222100 METAR MRLB 222100Z 27004KT 9999 FEW025 OVC140 29/24 A2985=
200506222200 METAR MRLB 222200Z 28006KT 9999 FEW025 OVC140 29/23 A2983=
200506230000 METAR MRLB 230000Z 31003KT 9999 FEW025 OVC140 28/24 A2984=
200506230100 METAR MRLB NIL=
200506230200 METAR MRLB NIL=
200506230300 METAR MRLB NIL=
200506230400 METAR MRLB NIL=
200506230500 METAR MRLB NIL=
200506230600 METAR MRLB NIL=
200506230700 METAR MRLB NIL=
200506230800 METAR MRLB NIL=
200506230900 METAR MRLB NIL=
200506231000 METAR MRLB NIL=
200506231100 METAR MRLB NIL=
200506231200 METAR MRLB NIL=
200506231300 METAR MRLB 231300Z 00000KT CAVOK 25/23 A2988=
200506231400 METAR MRLB 231400Z 16005KT 9999 FEW008 OVC250 26/24 A2990=
200506231500 METAR MRLB 231500Z 20003KT 9999 FEW020 OVC250 28/25 A2991=
200506231600 METAR MRLB NIL=
200506231700 METAR MRLB 231700Z 19003KT 9999 SCT030 BKN250 31/24 A2989=
200506231800 METAR MRLB 231800Z 26004KT 9999 SCT030 BKN250 31/24 A2988 CB DST SW=
200506231900 METAR MRLB 231900Z 29008KT 9999 1500NE -TSRA FEW015CB SCT020 28/25 A2987=
200506232000 METAR MRLB 232000Z 16007KT 0500 +RA BKN015 24/22 A2989=
200506232100 METAR MRLB 232100Z 11010KT 2000 -RA BR SCT010 OVC100 23/22 A2988 TS S VSBY W UNL=
200506232200 METAR MRLB 232200Z 05007KT 9999 -RA OVC100 23/22 A2983=
200506232300 METAR MRLB 232300Z 00000KT 9999 -RA OVC100 23/23 A2983=
200506240000 METAR MRLB 240000Z 00000KT 9999 -RA FEW008 OVC100 23/23 A2983=
200506240100 METAR MRLB NIL=
200506240200 METAR MRLB NIL=
200506240300 METAR MRLB NIL=
200506240400 METAR MRLB NIL=
200506240500 METAR MRLB NIL=
200506240600 METAR MRLB NIL=
200506240700 METAR MRLB NIL=
200506240800 METAR MRLB NIL=
200506240900 METAR MRLB NIL=
200506241000 METAR MRLB NIL=
200506241100 METAR MRLB NIL=
200506241200 METAR MRLB 241200Z 00000KT 4000 BR FEW003 SCT008 OVC120 23/22 A2986=
200506241300 METAR MRLB 241300Z 00000KT 9999 SCT010 OVC120 24/23 A2987=
200506241400 METAR MRLB 241400Z 12003KT 9999 FEW020 BKN130 25/23 A2989=
200506241500 METAR MRLB 241500Z 00000KT 9999 FEW025 BKN130 26/24 A2990=
200506241600 METAR MRLB 241600Z 12003KT 9999 SCT030 BKN250 29/24 A2990=
200506241700 METAR MRLB 241700Z 09003KT 9999 SCT035 BKN250 30/24 A2989=
200506241800 METAR MRLB 241800Z 17005KT 9999 SCT030 BKN250 30/24 A2987=
200506241900 METAR MRLB 241900Z 00000KT 9999 SCT030 OVC250 31/23 A2985 CB N=
200506242000 METAR MRLB 242000Z 26005KT 9999 FEW030 SCT140 BKN250 30/24 A2983 RN N NE=
200506242100 METAR MRLB 242100Z 27007KT 9999 FEW030 BKN130 28/24 A2981 RMK RN DST SSW=
200506242200 METAR MRLB 242200Z 25008KT 9999 FEW035 BKN130 28/24 A2981=
200506242300 METAR MRLB 242300Z 06005KT 9999 FEW035 BKN140 29/24 A2982=
200506250000 METAR MRLB 250000Z 18003KT 9999 SCT025 OVC130 27/24 A2984 RMK RN DST E SE=
200506250100 METAR MRLB NIL=
200506250200 METAR MRLB NIL=
200506250300 METAR MRLB NIL=
200506250400 METAR MRLB NIL=
200506250500 METAR MRLB NIL=
200506250600 METAR MRLB NIL=
200506250700 METAR MRLB NIL=
200506250800 METAR MRLB NIL=
200506250900 METAR MRLB NIL=
200506251000 METAR MRLB NIL=
200506251100 METAR MRLB NIL=
200506251200 METAR MRLB 251200Z 00000KT 1500 BR SCT003 SCT010 24/23 A2985=
200506251300 METAR MRLB 251300Z 00000KT 9999 SCT015 BKN130 25/23 A2987=
200506251400 METAR MRLB 251400Z 15004KT 9999 SCT020 BKN130 25/23 A2987=
200506251500 METAR MRLB 251500Z 00000KT 9999 SCT025 BKN140 27/24 A2987=
200506251600 METAR MRLB 251600Z 22003KT 9999 FEW030 BKN130 28/24 A2986=
200506251700 METAR MRLB 251700Z 24004KT 9999 SCT030 SCT140 29/25 A2986=
200506251800 METAR MRLB 251800Z 25004KT 9999 SCT035 BKN140 32/23 A2985=
200506251900 METAR MRLB 251900Z 24007KT 9999 FEW035 BKN140 31/24 A2983 RN DST E N=
200506252000 METAR MRLB 252000Z 28007KT 9999 SCT030 BKN140 29/24 A2980 RMK TS RN DST S/NE=
200506252100 METAR MRLB 252100Z 32006KT 9999 SCT025 BKN130 28/24 A2974=
200506252200 METAR MRLB 252200Z 09005KT 9999 SCT025 OVC130 26/24 A2980=
200506252300 METAR MRLB 252300Z 15003KT 9999 SCT020 OVC130 25/23 A2981=
200506260000 METAR MRLB NIL=
200506260100 METAR MRLB NIL=
200506260200 METAR MRLB NIL=
200506260300 METAR MRLB NIL=
200506260400 METAR MRLB NIL=
200506260500 METAR MRLB NIL=
200506260600 METAR MRLB NIL=
200506260700 METAR MRLB NIL=
200506260800 METAR MRLB NIL=
200506260900 METAR MRLB NIL=
200506261000 METAR MRLB NIL=
200506261100 METAR MRLB NIL=
200506261200 METAR MRLB 261200Z 00000KT 0100 FG VV/// 23/22 A2984=
200506261300 METAR MRLB 261300Z 00000KT 0500 FG SCT001 23/23 A2987=
200506261400 METAR MRLB 261400Z 00000KT 9999 SCT008 OVC250 27/24 A2988=
200506261500 METAR MRLB 261500Z 00000KT 9999 FEW020 OVC250 28/24 A2988=
200506261600 METAR MRLB 261600Z 00000KT 9999 SCT025 OVC250 31/24 A2989=
200506261700 METAR MRLB 261700Z 16003KT 9999 SCT025 OVC250 30/24 A2987=
200506261800 METAR MRLB 261800Z 08003KT 9999 FEW030 BKN240 29/23 A2982=
200506261900 METAR MRLB 261900Z 29003KT 9999 2000E -TSRA FEW010CB SCT015 BKN100 28/24=
200506262000 METAR MRLB 262000Z 23004KT 7000 VCSH SCT015 BKN100 27/25 A2984=
200506262100 METAR MRLB 262100Z 19012KT 9999 OVC010 26/23 A2984 RMK RN NE E=
200506262200 METAR MRLB 262200Z 12004KT 3000 RA BR FEW010 OVC100 24/23 A2984 RMK TSTM N S=
200506262300 METAR MRLB 262300Z 00000KT 9999 FEW010 SCT020 OVC100 24/22 A2985 RMK FG NE S=
200506270000 METAR MRLB 270000Z 13003KT 9999 SCT015 OVC100 25/23 A2987 RMK ST LW N SW=
200506270100 METAR MRLB NIL=
200506270200 METAR MRLB NIL=
200506270300 METAR MRLB NIL=
200506270400 METAR MRLB NIL=
200506270500 METAR MRLB NIL=
200506270600 METAR MRLB NIL=
200506270700 METAR MRLB NIL=
200506270800 METAR MRLB NIL=
200506270900 METAR MRLB NIL=
200506271000 METAR MRLB NIL=
200506271100 METAR MRLB NIL=
200506271200 METAR MRLB 271200Z 00000KT 0200 FG VV/// 22/21 A2987=
200506271300 METAR MRLB 271300Z 03003KT 2000 BR SCT004 OVC250 23/22 A2988=
200506271400 METAR MRLB 271400Z 00000KT CAVOK 26/23 A2988=
200506271500 METAR MRLB 271500Z 00000KT CAVOK 28/23 A2989=
200506271600 METAR MRLB 271600Z 25003KT CAVOK 29/24 A2988=
200506271700 METAR MRLB 271700Z 00000KT 9999 FEW030 OVC250 31/24 A2986=
200506271800 METAR MRLB 271800Z 00000KT 9999 SCT030 OVC250 32/24 A2985=
200506271900 METAR MRLB 271900Z 09008KT 9999 FEW030 OVC250 32/23 A2983=
200506272000 METAR MRLB 272000Z 10006KT 9999 FEW030 OVC250 32/23 A2980=
200506272100 METAR MRLB 272100Z 10004KT 9999 FEW030 OVC150 32/23 A2978=
200506272300 METAR MRLB 272300Z 10008KT 9999 FEW035 OVC130 31/23 A2977=
200506280000 METAR MRLB 280000Z 09004KT 9999 FEW040 SCT130 OVC240 30/23 A2978=
200506280100 METAR MRLB NIL=
200506280200 METAR MRLB NIL=
200506280300 METAR MRLB NIL=
200506280400 METAR MRLB NIL=
200506280500 METAR MRLB NIL=
200506280600 METAR MRLB NIL=
200506280700 METAR MRLB NIL=
200506280800 METAR MRLB NIL=
200506280900 METAR MRLB NIL=
200506281000 METAR MRLB NIL=
200506281100 METAR MRLB NIL=
200506281200 METAR MRLB 281200Z 00000KT 9999 FEW030 OVC250 24/23 A2981=
200506281300 METAR MRLB 281300Z 04003KT 9999 FEW035 OVC250 26/24 A2981=
200506281400 METAR MRLB 281400Z 00000KT 9999 FEW035 SCT130 OVC250 27/24 A2985=
200506281500 METAR MRLB 281500Z 12004KT 9999 FEW035 BKN140 29/24 A2987=
200506281600 METAR MRLB 281600Z 13007KT 9999 SCT035 BKN140 30/24 A2987=
200506281700 METAR MRLB 281700Z 12006KT 9999 SCT035 SCT140 30/24 A2984=
200506281800 METAR MRLB 281800Z 10004KT 9999 SCT030 BKN250 31/23 A2982=
200506281900 METAR MRLB 281900Z 13004KT 9999 SCT030 OVC240 31/24 A2981=
200506282000 METAR MRLB 282000Z 18004KT 9999 SCT030 OVC130 30/24 A2981=
200506282100 METAR MRLB 282100Z 09011KT 2500 -TSRA FEW010CB SCT015 OVC100 24/23 A2980=
200506282200 METAR MRLB 282200Z 10006KT 9999 SCT025 OVC120 24/23 A2981=
200506282300 METAR MRLB 282300Z 00000KT 6000 -RA SCT010 BKN025 24/23 A2983=
200506290000 METAR MRLB 290000Z 00000KT 9999 SCT025 OVC120 24/23 A2982=
200506290100 METAR MRLB NIL=
200506290200 METAR MRLB NIL=
200506290300 METAR MRLB NIL=
200506290400 METAR MRLB NIL=
200506290500 METAR MRLB NIL=
200506290600 METAR MRLB NIL=
200506290700 METAR MRLB NIL=
200506290800 METAR MRLB NIL=
200506290900 METAR MRLB NIL=
200506291000 METAR MRLB NIL=
200506291100 METAR MRLB NIL=
200506291200 METAR MRLB 291200Z 12004KT 9999 FEW015 OVC120 23/22 A2987=
200506291300 METAR MRLB 291300Z 12003KT 9999 FEW025 BKN140 24/22 A2987=
200506291400 METAR MRLB 291400Z 14004KT 9999 SCT020 OVC130 27/24 A2985=
200506291500 METAR MRLB 291500Z 15006KT 3000RA ASCT010 BKN020 22/21=
200506291600 METAR MRLB 291600Z 00000KT 9999 FEW025 OVC130 24/22=
200506291700 METAR MRLB 291700Z 12004KT 9999 FEW030 OVC140 25/23=
200506291800 METAR MRLB 291800Z 08006KT 9999 FEW035 BKN140 26/22 A2988=
200506291900 METAR MRLB 291900Z 00000KT 9999 FEW035 OVC140 27/22 A2985=
200506292000 METAR MRLB 292000Z 35003KT 9999 FEW035 OVC140 27/22 A2982=
200506292100 METAR MRLB 292100Z 36004KT 9999 FEW035 BKN140 27/22 A2981=
200506292200 METAR MRLB 292200Z 00000KT 9999 FEW035 BKN140 27/22 A2980=
200506292300 METAR MRLB 292300Z 00000KT 9999 FEW035 OVC140 27/23 A2980=
200506300000 METAR MRLB 300000Z 00000KT 9999 FEW035 OVC130 26/23 A2982=
200506300100 METAR MRLB NIL=
200506300200 METAR MRLB NIL=
200506300300 METAR MRLB NIL=
200506300400 METAR MRLB NIL=
200506300500 METAR MRLB NIL=
200506300600 METAR MRLB NIL=
200506300700 METAR MRLB NIL=
200506300800 METAR MRLB NIL=
200506300900 METAR MRLB NIL=
200506301000 METAR MRLB NIL=
200506301100 METAR MRLB NIL=
200506301200 METAR MRLB 301200Z 04003KT 9999 SCT020 24/22 A2984=
200506301300 METAR MRLB 301300Z 00000KT 9999 SCT020 BKN130 25/23 A2988 RMK RN DST SW=
200506301400 METAR MRLB NIL=
200506301500 METAR MRLB 301500Z 17004KT 9999 FEW025 BKN140 27/24 A2990=
200506301600 METAR MRLB 301600Z 00000KT 9999 FEW025 BKN130 28/24 A2991=
200506301700 METAR MRLB 301700Z 00000KT 9999 SCT025 SCT100 BKN250 31/24 A2990=
200506301800 METAR MRLB 301800Z 16003KT 9999 SCT025 BKN120 OVC250 31/23 A2989=
200506301900 METAR MRLB 301900Z 11004KT 9999 SCT025 OVC120 31/25 A2987=
200506302000 METAR MRLB 302000Z 18003KT 9999 -RA SCT020 OVC100 30/25 A2985=
200506302100 METAR MRLB 302100Z 23003KT 9999 SCT020 OVC100 28/23 A2983=
200506302200 METAR MRLB 302200Z 24004KT 9999 SCT025 OVC120 28/25 A2983=
200506302300 METAR MRLB 302300Z 28004KT 9999 FEW025 OVC130 28/25 A2984=
200507010000 METAR MRLB 010000Z 26005KT 9999 FEW025 OVC130 27/24 A2985=
200507010100 METAR MRLB NIL=
200507010200 METAR MRLB NIL=
200507010300 METAR MRLB NIL=
200507010400 METAR MRLB NIL=
200507010500 METAR MRLB NIL=
200507010600 METAR MRLB NIL=
200507010700 METAR MRLB NIL=
200507010800 METAR MRLB NIL=
200507010900 METAR MRLB NIL=
200507011000 METAR MRLB NIL=
200507011100 METAR MRLB NIL=
200507011200 METAR MRLB 011200Z 15004KT CAVOK 24/23 A2986=
200507011300 METAR MRLB 011300Z 00000KT 9999 SCT010 OVC130 26/24 A2990=
200507011400 METAR MRLB 011400Z 00000KT 9999 SCT015 OVC130 26/24 A2991=
200507011500 METAR MRLB 011500Z 00000KT 9999 SCT020 OVC130 27/24 A2992=
200507011600 METAR MRLB 011600Z 00000KT 9999 BKN020 OVC130 28/24 A2993=
200507011700 METAR MRLB 011700Z 03004KT 9999 SCT020 OVC100 29/24 A2992=
200507011800 METAR MRLB 011800Z 32004KT 9999 FEW025 OVC120 30/24 A2990=
200507011900 METAR MRLB 011900Z 34005KT 9999 FEW030 OVC120 31/23 A2988 RMK TCU RN DST S SW=
200507012000 METAR MRLB 012000Z 35003KT 9999 FEW025 BKN240 32/22 A2986=
200507012100 METAR MRLB 012100Z 29008KT 9999 SCT025 BKN250 30/24 A2985 RN S SW=
200507012200 METAR MRLB 012200Z 21007KT 9999 SCT020TCU BKN250 29/24 A2984 RN NE=
200507012300 METAR MRLB 012300Z 27003KT 9999 SCT020TCU OVC250 29/24 A2984 TSTM RN NE=
200507020000 METAR MRLB 020000Z 30004KT 9999 SCT015 OVC100 29&24 A2985 RMK RN DST E=
200507020100 METAR MRLB NIL=
200507020200 METAR MRLB NIL=
200507020300 METAR MRLB NIL=
200507020400 METAR MRLB NIL=
200507020500 METAR MRLB NIL=
200507020600 METAR MRLB NIL=
200507020700 METAR MRLB NIL=
200507020800 METAR MRLB NIL=
200507020900 METAR MRLB NIL=
200507021000 METAR MRLB NIL=
200507021100 METAR MRLB NIL=
200507021200 METAR MRLB 021200Z 00000KT CAVOK 24/23 A2987=
200507021300 METAR MRLB 021300Z 00000KT CAVOK 26/23 A2988 RMK ST LOW S SW=
200507021400 METAR MRLB 021400Z 00000KT 9999 FEW012 28/24 A2989=
200507021500 METAR MRLB 021500Z 00000KT 9999 FEW025 29/24 A2990=
200507021600 METAR MRLB 021600Z 23004KT 9999 FEW030 30/24 A2991=
200507021700 METAR MRLB 021700Z 25005KT 9999 FEW030TCU 31/23 A2990=
200507021800 METAR MRLB 021800Z 26005KT 9999 FEW030 SCT300 31/23 A2989 RMK CB N NE S RN S=
200507021900 METAR MRLB 021900Z 27010KT 9999 FEW035 SCT250 31/23 A2988 RMK RS S N=
200507022000 METAR MRLB 022000Z 27010KT 9999 -RA FEW020TCU SCT030 OVC240 28/25 A2984=
200507022100 METAR MRLB 022100Z 22005KT 9999 SCT030 BKN250 29/24 A2984=
200507022300 METAR MRLB 022300Z 24005KT 9999 SCT020 BKN130 28/25 A2984 RMK RN DST E NE=
200507030000 METAR MRLB 030000Z 07005KT 9999 SCT020 BKN120 26/24 A2989=
200507030100 METAR MRLB NIL=
200507030200 METAR MRLB NIL=
200507030300 METAR MRLB NIL=
200507030400 METAR MRLB NIL=
200507030500 METAR MRLB NIL=
200507030600 METAR MRLB NIL=
200507030700 METAR MRLB NIL=
200507030800 METAR MRLB NIL=
200507030900 METAR MRLB NIL=
200507031000 METAR MRLB NIL=
200507031100 METAR MRLB NIL=
200507031200 METAR MRLB 031200Z 00000KT 9999 FEW020 BKN130 23/22 A2989=
200507031300 METAR MRLB 031300Z 10005KT 9999 FEW030 BKN130 24/22 A2991=
200507031400 METAR MRLB 031400Z 12003KT 9999 FEW030 BKN140 26/23 A2994=
200507031500 METAR MRLB 031500Z 09005KT 9999 FEW030 OVC250 28/23 A2994=
200507031600 METAR MRLB 031600Z 11005KT 9999 FEW035 BKN250 30/24 A2993=
200507031700 METAR MRLB 031700Z 20003KT 9999 SCT035 BKN250 30/24 A2992=
200507031800 METAR MRLB 031800Z 21005KT 9999 SCT035 OVC250 31/24 A2990=
200507031900 METAR MRLB 031900Z 20004KT 9999 SCT030 BKN250 31/25 A2989=
200507032000 METAR MRLB 032000Z 29010KT 9999 SCT025 OVC250 29/24 A2987=
200507032100 METAR MRLB 032100Z 34007KT 9999 SCT030 OVC250 28/24 A2986=
200507032200 METAR MRLB 032200Z 35004KT 9999 SCT035 OVC250 28/23 A2986=
200507032300 METAR MRLB 032300Z 26006KT 9999 SCT030 OVC240 28/24 A2987=
200507040000 METAR MRLB 040000Z 29005KT 9999 FEW030 OVC240 27/24 A2989=
200507040100 METAR MRLB NIL=
200507040200 METAR MRLB NIL=
200507040300 METAR MRLB NIL=
200507040400 METAR MRLB NIL=
200507040500 METAR MRLB NIL=
200507040600 METAR MRLB NIL=
200507040700 METAR MRLB NIL=
200507040800 METAR MRLB NIL=
200507040900 METAR MRLB NIL=
200507041000 METAR MRLB NIL=
200507041100 METAR MRLB NIL=
200507041200 METAR MRLB 041200Z 00000KT 9999 FEW007 OVC250 24/23 A2991=
200507041300 METAR MRLB 041300Z 00000KT CAVOK 26/24 A2991=
200507041400 METAR MRLB 041400Z 22003KT CAVOK 28/24 A2994=
200507041500 METAR MRLB 041500Z 34003KT CAVOK 30/25 A2995=
200507041600 METAR MRLB 041600Z 10011KT 9999 FEW030 BKN250 31/22 A2994=
200507041700 METAR MRLB 041700Z 06010KT 9999 FEW035 SCT250 32/22 A2993=
200507041800 METAR MRLB 041800Z 07006KT 9999 FEW035 BKN250 33/23 A2993=
200507041900 METAR MRLB 041900Z 05004KT 9999 SCT035 OVC250 33/22 A2989=
200507042000 METAR MRLB 042000Z 03009KT 9999 SCT035 OVC250 34/23 A2987=
200507042100 METAR MRLB 042100Z 07011KT 9999 SCT030 OVC120 29/23 A2986=
200507042200 METAR MRLB 042200Z 07015KT 9999 FEW045 OVC120 30/22 A2986=
200507042300 METAR MRLB 042300Z 06007KT CAVOK 29/22 A2985 RMK OVC120 AS=
200507050000 METAR MRLB 050000Z 08010KT CAVOK 29/21 A2984 RMK OVC120 AS=
200507050100 METAR MRLB NIL=
200507050200 METAR MRLB NIL=
200507050300 METAR MRLB NIL=
200507050400 METAR MRLB NIL=
200507050500 METAR MRLB NIL=
200507050600 METAR MRLB NIL=
200507050700 METAR MRLB NIL=
200507050800 METAR MRLB NIL=
200507050900 METAR MRLB NIL=
200507051000 METAR MRLB NIL=
200507051100 METAR MRLB NIL=
200507051200 METAR MRLB 051200Z 00000KT 9999 FEW035 BKN250 24/21 A2988=
200507051300 METAR MRLB 051300Z 07003KT 9999 FEW035 SCT130 BKN250 28/22 A2989=
200507051400 METAR MRLB 051400Z 08008KT 9999 FEW035 SCT130 BKN250 29/22 A2990 RMK HZ N NE=
200507051500 METAR MRLB 051500Z 10007KT 9999 SCT020 BKN080 29/23 A2991 RMK RN DST E=
200507051600 METAR MRLB 051600Z 07006KT 9999 FEW035 BKN250 31/23 A2991=
200507051700 METAR MRLB 051700Z 08009KT 9999 FEW035 BKN250 32/22 A2990=
200507051800 METAR MRLB 051800Z 09010KT 9999 FEW035 SCT250 33/22 A2988=
200507051900 METAR MRLB 051900Z 07007KT 9999 FEW035 BKN250 33/22 A2985=
200507052000 METAR MRLB 052000Z 08008KT 9999 FEW035 OVC250 34/21 A2983=
200507052100 METAR MRLB 052100Z 12008KT 9999 FEW035 OVC250 33/21 A2982=
200507052200 METAR MRLB 052200Z 14003KT 9999 FEW035 OVC250 33/23 A2980=
200507052300 METAR MRLB 052300Z 34005KT 9999 FEW035 BKN120 OVC250 31/24 A2980=
200507060000 METAR MRLB 060000Z 29007KT 9999 FEW030 SCT120 OVC250 29/24 A2981=
200507060100 METAR MRLB NIL=
200507060200 METAR MRLB NIL=
200507060300 METAR MRLB NIL=
200507060400 METAR MRLB NIL=
200507060500 METAR MRLB NIL=
200507060600 METAR MRLB NIL=
200507060700 METAR MRLB NIL=
200507060800 METAR MRLB NIL=
200507060900 METAR MRLB NIL=
200507061000 METAR MRLB NIL=
200507061100 METAR MRLB NIL=
200507061200 METAR MRLB 061200Z 06004KT CAVOK 23/22 A2986=
200507061300 METAR MRLB 061300Z 09003KT CAVOK 27/23 A2988=
200507061400 METAR MRLB 061400Z 00000KT CAVOK 29/23 A2988=
200507061500 METAR MRLB NIL=
200507061600 METAR MRLB 061600Z 16004KT CAVOK 31/23 A2988=
200507061700 METAR MRLB 061700Z 15007KT CAVOK 32/21 A2987=
200507061800 METAR MRLB 061800Z 13007KT 9999 FEW030 BKN250 33/21 A2987=
200507061900 METAR MRLB 061900Z 15008KT 9999 FEW035 BKN250 32/23 A2985=
200507062100 METAR MRLB 062100Z 28012KT 9999 SCT030 BKN250 31/24 A2981=
200507062200 METAR MRLB 062200Z 28010KT 9999 SCT035 OVC250 30/25 A2979=
200507062300 METAR MRLB 062300Z 28008KT 9999 SCT030 OVC250 29/25 A2982 RMK RN S=
200507070000 METAR MRLB NIL=
200507070100 METAR MRLB NIL=
200507070200 METAR MRLB NIL=
200507070300 METAR MRLB NIL=
200507070400 METAR MRLB NIL=
200507070500 METAR MRLB NIL=
200507070600 METAR MRLB NIL=
200507070700 METAR MRLB NIL=
200507070800 METAR MRLB NIL=
200507070900 METAR MRLB NIL=
200507071000 METAR MRLB NIL=
200507071100 METAR MRLB NIL=
200507071200 METAR MRLB 071200Z 17003KT 9999 FEW020 OVC240 24/23 A2987=
200507071300 METAR MRLB 071300Z 18005KT 9999 FEW010 SCT020 OVC240 25724 A2989=
200507071400 METAR MRLB 071400Z 07004KT 9999 SCT025 OVC250 27/24 A2989=
200507071500 METAR MRLB 071500Z 00000KT 9999 SCT030 OVC250 28/24 A2990=
200507071600 METAR MRLB 071600Z 00000KT 9999 SCT030 OVC240 29/24 A2990=
200507071700 METAR MRLB 071700Z 34003KT 9999 FEW035 OVC240 30/25 A2988=
200507071800 METAR MRLB 071800Z 29004KT 9999 SCT030 OVC240 31/25 A2986=
200507071900 METAR MRLB 071900Z 31007KT 9999 SCT035 OVC250 31/25 A2984=
200507072000 METAR MRLB 072000Z 28009KT 9999 SCT030 BKN250 31/25 A2982 RMK RN S=
200507072100 METAR MRLB 072100Z 27006KT 9999 4000E VCSH FEW010CB SCT020 BKN130 29/24 A2982=
200507072200 METAR MRLB 072200Z 00000KT 9999 -RA SCT020 BKN120 25/23 A2981=
200507072300 METAR MRLB 072300Z 00000KT 9999 SCT025 BKN130 26/24 A2982=
200507080000 METAR MRLB 080000Z 00000KT 9999 FEW030 BKN140 26/24 A2984=
200507080100 METAR MRLB NIL=
200507080200 METAR MRLB NIL=
200507080300 METAR MRLB NIL=
200507080400 METAR MRLB NIL=
200507080500 METAR MRLB NIL=
200507080600 METAR MRLB NIL=
200507080700 METAR MRLB NIL=
200507080800 METAR MRLB NIL=
200507080900 METAR MRLB NIL=
200507081000 METAR MRLB NIL=
200507081100 METAR MRLB NIL=
200507081200 METAR MRLB 081200Z 00000KT 0200 FG SCT001 OVC250 24/23 A2987=
200507081300 METAR MRLB 081300Z 00000KT 0500 FG SCT001 OVC250 25/24 A2990=
200507081400 METAR MRLB 081400Z 00000KT 9999 FEW007 BKN250 26/25 A2990=
200507081500 METAR MRLB 081500Z 00000KT 9999 FEW020 BKN250 29/25 A2990=
200507081600 METAR MRLB 081600Z 00000KT 9999 SCT030 31/25 A2989=
200507081700 METAR MRLB 081700Z 27006KT 9999 SCT030 31/14 A2988=
200507081800 METAR MRLB 081800Z 00000KT 9999 SCT030 31/24 A2986=
200507081900 METAR MRLB 081900Z 29008KT 9999 SCT025 SCT120 30/25 A2984=
200507082000 METAR MRLB 082000Z 30009KT 9999 FEW020 BKN120 29/25 A2983=
200507082100 METAR MRLB 082100Z 33006KT 9999 FEW015 BKN120 28/25 A2982=
200507082200 METAR MRLB 082200Z 16005KT 9999 FEW020 OVC120 27/24 A2980=
200507082300 METAR MRLB 082300Z 02004KT CAVOK 27/23 A2980=
200507090000 METAR MRLB 090000Z 36003KT 9999 FEW020 BKN140 27/24 A2981=
200507090100 METAR MRLB NIL=
200507090200 METAR MRLB NIL=
200507090300 METAR MRLB NIL=
200507090400 METAR MRLB NIL=
200507090500 METAR MRLB NIL=
200507090600 METAR MRLB NIL=
200507090700 METAR MRLB NIL=
200507090800 METAR MRLB NIL=
200507090900 METAR MRLB NIL=
200507091000 METAR MRLB NIL=
200507091100 METAR MRLB NIL=
200507091200 METAR MRLB 091200Z 02004KT 9999 FEW040 SCT120 OVC250 24/23 A2984 RMK ST LOW SW N=
200507091300 METAR MRLB 091300Z 00000KT CAVOK 27/25 A2985=
200507091400 METAR MRLB 091400Z 00000KT CAVOK 30/25 A2985=
200507091500 METAR MRLB 091500Z 00000KT 9999 SCT025 BKN260 30/25 A2986=
200507091600 METAR MRLB NIL=
200507091700 METAR MRLB NIL=
200507091800 METAR MRLB 091800Z 29006KT 9999 FEW030 32/25 A2983=
200507091900 METAR MRLB 091900Z 27010KT 9999 FEW020 SCT100 31/25 A2980=
200507092000 METAR MRLB 092000Z 02010KT 9999 -RA SCT020 BKN100 27/24 A2980=
200507092100 METAR MRLB 092100Z 01005KT 9999 FEW025 BKN120 27/24 A2977=
200507092200 METAR MRLB 092200Z 32005KT 9999 FEW025 BKN120 30/25 A2977 RMK CB RN DST NE=
200507092300 METAR MRLB 092300Z 28007KT 9999 FEW025 BKN120 30/25 A2978 RMK CB DST E=
200507100000 METAR MRLB 100000Z 29006KT 9999 FEW020 OVC120 29/25 A2978=
200507100100 METAR MRLB NIL=
200507100200 METAR MRLB NIL=
200507100300 METAR MRLB NIL=
200507100400 METAR MRLB NIL=
200507100500 METAR MRLB NIL=
200507100600 METAR MRLB NIL=
200507100700 METAR MRLB NIL=
200507100800 METAR MRLB NIL=
200507100900 METAR MRLB NIL=
200507101000 METAR MRLB NIL=
200507101100 METAR MRLB NIL=
200507101200 METAR MRLB 101200Z 00000KT CAVOK 24/23 A2978=
200507101300 METAR MRLB 101300Z 00000KT CAVOK 27/24 A2979=
200507101400 METAR MRLB 101400Z 22004KT CAVOK 28/24 A2981=
200507101500 METAR MRLB 101500Z 05004KT CAVOK 31/24 A2983=
200507101600 METAR MRLB 101600Z 08009KT CAVOK 32/23 A2982=
200507101700 METAR MRLB 101700Z 10008KT 9999 FEW035 BKN250 33/24 A2983=
200507101800 METAR MRLB 101800Z 09006KT 9999 FEW035 BKN250 33/23 A2981=
200507101900 METAR MRLB 101900Z 11008KT 9999 FEW035 SCT250 34/24 A2979=
200507102000 METAR MRLB 102000Z 13006KT 9999 FEW035 BKN250 34/25 A2977=
200507102100 METAR MRLB 102100Z 15006KT 9999 FEW035 OVC250 33/25 A2977=
200507102200 METAR MRLB 102200Z 23006KT 9999 SCT030 OVC250 33/25 A2973=
200507102300 METAR MRLB 102300Z 29008KT 9999 SCT025 OVC240 30/25 A2975=
200507110000 METAR MRLB 110000Z 35005KT 9999 SCT025 BKN140 28/25 A2977 RMK RN DST=
200507110100 METAR MRLB NIL=
200507110200 METAR MRLB NIL=
200507110300 METAR MRLB NIL=
200507110400 METAR MRLB NIL=
200507110500 METAR MRLB NIL=
200507110600 METAR MRLB NIL=
200507110700 METAR MRLB NIL=
200507110800 METAR MRLB NIL=
200507110900 METAR MRLB NIL=
200507111000 METAR MRLB NIL=
200507111100 METAR MRLB NIL=
200507111200 METAR MRLB 111200Z 00000KT 9999 FEW025 OVC240 24/23 A2981=
200507111300 METAR MRLB 111300Z 00000KT 9999 FEW030 OVC240 25/23 A2983=
200507111400 METAR MRLB 111400Z 00000KT 9999 FEW035 OVC240 27/24 A2984=
200507111500 METAR MRLB 111500Z 00000KT 9999 FEW035 OVC240 27/24 A2986=
200507111600 METAR MRLB 111600Z 18005KT 9999 FEW035 BKN140 28/25 A2987=
200507111700 METAR MRLB 111700Z VRB03KT 9999 FEW033 SCT140 BKN280 30/23 A2979 RMK CB DST N HZY CB RN DST SW=
200507111800 METAR MRLB 111800Z 24004KT 9999 SCT030 BKN140 29/25 A2984 RMK RN DST N=
200507111900 METAR MRLB 111900Z 30009KT 9999 4000N -RA SCT025 OVC130 29/25 A2986=
200507112000 METAR MRLB 112000Z 05011KT 2000 RA FEW010TCU SCT020 OVC100 25/23 A2982=
200507112100 METAR MRLB 112100Z 19010KT 9999 -RA SCT015 OVC100 24/22 A2983=
200507112200 METAR MRLB 112200Z 14005KT 9999 SCT020 OVC100 23/22 A2984 RMK RN DST E SE S=
200507112300 METAR MRLB 112300Z 10007KT 9999 RA SCT015 OVC100 23/22 A2987=
200507120000 METAR MRLB 120000Z 10006KT 9999 -RA SCT010 OVC100 23/22 A2987=
200507120100 METAR MRLB NIL=
200507120200 METAR MRLB NIL=
200507120300 METAR MRLB NIL=
200507120400 METAR MRLB NIL=
200507120500 METAR MRLB NIL=
200507120600 METAR MRLB NIL=
200507120700 METAR MRLB NIL=
200507120800 METAR MRLB NIL=
200507120900 METAR MRLB NIL=
200507121000 METAR MRLB NIL=
200507121100 METAR MRLB NIL=
200507121300 METAR MRLB 121300Z 17004KT CAVOK 23/22 A2990=
200507121400 METAR MRLB 121400Z 18004KT 9999 FEW010 BKN130 24/22 A2990=
200507121500 METAR MRLB 121500Z 17003KT 9999 FEW015 BKN130 26/22 A2991=
200507121600 METAR MRLB 121600Z 11003KT CAVOK 28/23 A2993=
200507121700 METAR MRLB 121700Z 11005KT CAVOK 29/22 A2992=
200507121800 METAR MRLB 121800Z 20003KT 9999 FEW030 OVC130 29/23 A2992=
200507121900 METAR MRLB 121900Z 11005KT 9999 FEW030 BKN130 31/22 A2990 RMK CB S SW=
200507122000 METAR MRLB 122000Z 16005KT 9999 FEW030 SCT130 OVC250 31/23 A2987 RMK CB RN S=
200507122100 METAR MRLB 122100Z 16005KT 9999 FEW030 SCT130 OVC250 30/22 A2986 TCU RN N WSW=
200507122200 METAR MRLB 122200Z 18003KT 9999 FEW030 SCT130 OVC250 30/23 A2986=
200507122300 METAR MRLB 122300Z 28007KT 9999 FEW030 OVC250 29/24 A2987=
200507130000 METAR MRLB 130000Z 27003KT 9999 FEW030 OVC140 27/23 A2989=
200507130100 METAR MRLB NIL=
200507130200 METAR MRLB NIL=
200507130300 METAR MRLB NIL=
200507130400 METAR MRLB NIL=
200507130500 METAR MRLB NIL=
200507130600 METAR MRLB NIL=
200507130700 METAR MRLB NIL=
200507130800 METAR MRLB NIL=
200507130900 METAR MRLB NIL=
200507131000 METAR MRLB NIL=
200507131100 METAR MRLB NIL=
200507131200 METAR MRLB 131200Z 00000KT CAVOK 23/22 A2991=
200507131300 METAR MRLB 131300Z 03003KT CAVOK 24/22 A2992=
200507131400 METAR MRLB 131400Z 00000KT 9999 FEW010 BKN250 27/23 A2993=
200507131500 METAR MRLB 131500Z 17003KT 9999 SCT020 BKN250 28/24 A2993=
200507131600 METAR MRLB 131600Z 00000KT 9999 SCT025 BKN250 30/23 A2994=
200507131700 METAR MRLB 131700Z 21003KT 9999 SCT030 BKN250 29/23 A2993=
200507131800 METAR MRLB 131800Z 24004KT 9999 SCT030 BKN250 32/23 A2991=
200507131900 METAR MRLB 131900Z 28008KT 9999 SCT030 BKN250 29/25 A2988=
200507132000 METAR MRLB 132000Z 29012KT 9999 SCT030 BKN250 30/25 A2985=
200507132100 METAR MRLB 132100Z 28011KT 9999 FEW020TCU SCT100 BKN250 30/23 A2980=
200507132200 METAR MRLB 132200Z 30005KT 9999 SCT020TCU BKN120 28/23 A2984=
200507132300 METAR MRLB 132300Z 00000KT 9999 FEW020 OVC120 28/23 A2986=
200507140000 METAR MRLB 140000Z 00000KT 9999 SCT025 OVC120 27/23 A2988=
200507140100 METAR MRLB NIL=
200507140200 METAR MRLB NIL=
200507140300 METAR MRLB NIL=
200507140400 METAR MRLB NIL=
200507140500 METAR MRLB NIL=
200507140600 METAR MRLB NIL=
200507140700 METAR MRLB NIL=
200507140800 METAR MRLB NIL=
200507140900 METAR MRLB NIL=
200507141000 METAR MRLB NIL=
200507141100 METAR MRLB NIL=
200507141200 METAR MRLB 141200Z 00000KT 9999 FEW030 BKN250 23/22 A2987=
200507141300 METAR MRLB 141300Z 00000KT 9999 FEW030 BKN250 25/23 A2989=
200507141400 METAR MRLB 141400Z 00000KT 9999 FEW035 SCT130 BKN250 27/23 A2989=
200507141500 METAR MRLB 141500Z 16004KT 9999 FEW035 BKN250 28/24 A2989=
200507141600 METAR MRLB 141600Z 00000KT 9999 SCT035 BKN250 30/24 A2990=
200507141700 METAR MRLB 141700Z 22003KT 9999 SCT035 OVC250 31/24 A2988=
200507141800 METAR MRLB 141800Z 27007KT 9999 FEW020TCU SCT035 OVC250 30/23 A2985=
200507141900 METAR MRLB 141900Z 29009KT 9999 -RA FEW020TCU SCT030 OVC240 28/24 A2984=
200507142000 METAR MRLB 142000Z 27006KT 9999 SCT025 OVC240 28/25 A2982=
200507142100 METAR MRLB 142100Z 27007KT 9999 SCT025 BKN140 29/24 A2982 RMK RN DST E SE S=
200507142200 METAR MRLB 142200Z 32005KT 9999 DZ SCT020 OVC130 28/24 A2980=
200507142300 METAR MRLB 142300Z 03004KT 9999 -RA SCT020 OVC120 25/23 A2981=
200507150000 METAR MRLB 150000Z 00000KT 9999 SCT025 OVC120 25/23 A2984 RMK RN DST S SW W=
200507150100 METAR MRLB NIL=
200507150200 METAR MRLB NIL=
200507150300 METAR MRLB NIL=
200507150400 METAR MRLB NIL=
200507150500 METAR MRLB NIL=
200507150600 METAR MRLB NIL=
200507150700 METAR MRLB NIL=
200507150800 METAR MRLB NIL=
200507150900 METAR MRLB NIL=
200507151000 METAR MRLB NIL=
200507151100 METAR MRLB NIL=
200507151200 METAR MRLB NIL=
200507151300 METAR MRLB 151300Z 15003KT 9999 FEW030 BKN140 25/23 A2985=
200507151400 METAR MRLB 151400Z 13003KT 9999 FEW030 SCT140 OVC250 27/24 A2986=
200507151500 METAR MRLB 151500Z 19005KT 9999 FEW035 OVC250 27/24 A2987=
200507151600 METAR MRLB 151600Z 13004KT 9999 FEW035 OVC250 28/24 2986=
200507151700 METAR MRLB 151700Z 12005KT 9999 FEW035 OVC240 29/24 A2985=
200507151800 METAR MRLB 151800Z 16007KT 9999 SCT035 OVC240 30/24 A2985=
200507151900 METAR MRLB 151900Z 14006KT 9999 SCT030 OVC240 30/23 A2985 RMK RN DST NE=
200507152000 METAR MRLB 152000Z 16005KT 9999 FEW020TCU SCT030 OVC140 29/24 A2980 RMK RN DST N NE E=
200507152100 METAR MRLB 152100Z 04007KT 9999 SCT020 OVC130 26/23 A2981=
200507152200 METAR MRLB 152200Z 06003KT 9999 -RA SCT015 BKN120 24/22 A2981=
200507152300 METAR MRLB 152300Z 07006KT 9999 FEW020 OVC130 24/22 A2980=
200507160000 METAR MRLB 160000Z 07005KT 9999 SCT020 OVC120 24/22 A2983=
200507160100 METAR MRLB NIL=
200507160200 METAR MRLB NIL=
200507160300 METAR MRLB NIL=
200507160400 METAR MRLB NIL=
200507160500 METAR MRLB NIL=
200507160600 METAR MRLB NIL=
200507160700 METAR MRLB NIL=
200507160800 METAR MRLB NIL=
200507160900 METAR MRLB NIL=
200507161000 METAR MRLB NIL=
200507161100 METAR MRLB NIL=
200507161200 METAR MRLB 161200Z 00000KT 9999 BKN030 OVC120 23/22 A2987 VIS 8000SW BR=
200507161300 METAR MRLB 161300Z 00000KT 9999 FEW030 OVC120 24/22 A2988 RMK LOW ST S/SW TCU W=
200507161400 METAR MRLB 161400Z 00000KT 9999 FEW018 OVC120 25/23 A2989=
200507161500 METAR MRLB 161500Z 21005KT 9999 SCT020 BKN120 OVC250 27/24 A2991=
200507161600 METAR MRLB 161600Z 19004KT 9999 SCT020 OVC120 28/24 A2992=
200507161700 METAR MRLB 161700Z 18003KT 9999 SCT025 OVC120 28/23 A2993=
200507161800 METAR MRLB 161800Z 00000KT 9999 SCT025 OVC120 27/24 A3003=
200507161900 METAR MRLB 161900Z 00000KT 9999 BKN025 OVC120 28/23 A2988=
200507162000 METAR MRLB 162000Z 00000KT 9999 SCT025 OVC120 28/24 A2985=
200507162100 METAR MRLB 162100Z 24005KT 9999 SCT025 OVC120 29/24 A2983=
200507162200 METAR MRLB 162200Z 29008KT 9999 -RA SCT020 SCT120 28/24 A2982=
200507162300 METAR MRLB 162300Z 27008KT 9999 FEW020 BKN120 27/23 A2981 RMK CB RN N NE=
200507170000 METAR MRLB 170000Z 28005KT 9999 FEW020 OVC120 27/23 A2983=
200507170100 METAR MRLB NIL=
200507170200 METAR MRLB NIL=
200507170300 METAR MRLB NIL=
200507170400 METAR MRLB NIL=
200507170500 METAR MRLB NIL=
200507170600 METAR MRLB NIL=
200507170700 METAR MRLB NIL=
200507170800 METAR MRLB NIL=
200507170900 METAR MRLB NIL=
200507171000 METAR MRLB NIL=
200507171100 METAR MRLB NIL=
200507171200 METAR MRLB 171200Z 20004KT 0500 FE SCT001 OVC120 23/22 A2985=
200507171300 METAR MRLB 171300Z 00000KT 9999 FEW010 SCT120 25/23 A2987 RMK CB S ST LOW W=
200507171400 METAR MRLB 171400Z 00000KT 9999 FEW015 SCT130 26/24 A2989=
200507171500 METAR MRLB 171500Z 00000KT 9999 BKN020 28/24 A2989=
200507171600 METAR MRLB 171600Z 18003KT 9999 SCT025 SCT140 29/26 A2989=
200507171700 METAR MRLB 171700Z 00000KT 9999 SCT030 BKN130 29/25 A2988=
200507171800 METAR MRLB 171800Z 24004KT 9999 BKN030 29/24 A2986=
200507171900 METAR MRLB 171900Z 00000KT 9999 BKN030 31/25 A2983=
200507172000 METAR MRLB 172000Z 27007KT 9999 SCT025 31/25 A2980=
200507172100 METAR MRLB 172100Z 30008KT 9999 5000NE -TS VCSH SCT010 OVC120 28/24 A2980=
200507172200 METAR MRLB 172200Z 00000KT 9999 -RA FEW015 BKN120 24/22 A2978=
200507172300 METAR MRLB 172300Z 02004KT 9999 FEW020 BKN120 26/24 A2978 CB DST E S=
200507180000 METAR MRLB 180000Z 00000KT 9999 FEW025 BKN140 26/24 A2979=
200507180100 METAR MRLB NIL=
200507180200 METAR MRLB NIL=
200507180300 METAR MRLB NIL=
200507180400 METAR MRLB NIL=
200507180500 METAR MRLB NIL=
200507180600 METAR MRLB NIL=
200507180700 METAR MRLB NIL=
200507180800 METAR MRLB NIL=
200507180900 METAR MRLB NIL=
200507181000 METAR MRLB NIL=
200507181100 METAR MRLB NIL=
200507181200 METAR MRLB 181200Z 00000KT 9999 FEW020 BKN250 23/22 A2981=
200507181300 METAR MRLB 181300Z 00000KT 9999 FEW030 OVC250 25/23 A2983=
200507181400 METAR MRLB 181400Z 00000KT 9999 FEW030 BKN250 27/25 A2985=
200507181500 METAR MRLB 181500Z 25003KT 9999 FEW035 BKN250 29/25 A2985=
200507181600 METAR MRLB 181600Z 00000KT 9999 FEW035 OVC250 31/25 A2985=
200507181700 METAR MRLB 181700Z 00000KT 9999 FEW035 OVC250 31/25 A2983=
200507181800 METAR MRLB 181800Z 06008KT 9999 SCT035 BKN250 31/24 A2981=
200507181900 METAR MRLB 181900Z 09006KT 9999 SCT035 OVC250 32/24 A2979=
200507182000 METAR MRLB 182000Z 14005KT 9999 SCT030 OVC250 31/24 A2977 RN NE=
200507182100 METAR MRLB 182100Z 04012KT 9999 SCT025 OVC240 30/23 A2976=
200507182200 METAR MRLB 182200Z 06003KT 9999 SCT025 BKN140 26/22 A2976=
200507182300 METAR MRLB 182300Z 10003KT 9999 FEW030 OVC240 26/23 A2975=
200507190000 METAR MRLB 190000Z 00000KT 9999 FEW030 OVC240 26/23 A2976=
200507190100 METAR MRLB NIL=
200507190200 METAR MRLB NIL=
200507190300 METAR MRLB NIL=
200507190400 METAR MRLB NIL=
200507190500 METAR MRLB NIL=
200507190600 METAR MRLB NIL=
200507190700 METAR MRLB NIL=
200507190800 METAR MRLB NIL=
200507190900 METAR MRLB NIL=
200507191000 METAR MRLB NIL=
200507191100 METAR MRLB NIL=
200507191200 METAR MRLB 191200Z 34004KT CAVOK 22/20 A2979=
200507191300 METAR MRLB 191300Z 00000KT CAVOK 24/22 A2980=
200507191400 METAR MRLB 191400Z 00000KT CAVOK 27/23 A2982=
200507191500 METAR MRLB 191500Z 11007KT CAVOK 29/23 A2982=
200507191600 METAR MRLB 191600Z 12008KT 9999 FEW030 OVC250 30/23 A2982=
200507191700 METAR MRLB 191700Z 08009KT 9999 FEW035 BKN250 32/24 A2981=
200507191800 METAR MRLB 191800Z 07011KT 9999 FEW035 BKN250 32/23 A2979=
200507191900 METAR MRLB 191900Z 09007KT 9999 SCT035 OVC250 31/23 A2979=
200507192000 METAR MRLB 192000Z 28005KT 9999 SCT035 34/23 A2979=
200507192100 METAR MRLB 192100Z 10006KT 9999 FEW035 OVC250 34/22 A2973=
200507192200 METAR MRLB 192200Z 00000KT 9999 FEW035 BKN250 33/23 A2973=
200507192300 METAR MRLB 192300Z 29008KT 9999 FEW035 SCT250 30/24 A2974=
200507200000 METAR MRLB 200000Z 29005KT 9999 FEW035 BKN250 29/24 A2976 RMK RN DST SE S=
200507200100 METAR MRLB NIL=
200507200200 METAR MRLB NIL=
200507200300 METAR MRLB NIL=
200507200400 METAR MRLB NIL=
200507200500 METAR MRLB NIL=
200507200600 METAR MRLB NIL=
200507200700 METAR MRLB NIL=
200507200800 METAR MRLB NIL=
200507200900 METAR MRLB NIL=
200507201000 METAR MRLB NIL=
200507201100 METAR MRLB NIL=
200507201200 METAR MRLB 201200Z 07004KT CAVOK 23/22 A2982=
200507201300 METAR MRLB 201300Z 00000KT CAVOK 24/23 A2984=
200507201400 METAR MRLB 201400Z 14003KT CAVOK 25/13 A2986=
200507201500 METAR MRLB 201500Z 00000KT CAVOK 25/23 A2987=
200507201600 METAR MRLB 201600Z 20003KT CAVOK 25/23 A2987=
200507201700 METAR MRLB 201700Z 02004KT 9999 FEW025 OVC140 26/24 A2987 RMK TCU DST E S=
200507201800 METAR MRLB 201800Z 03007KT 9999 SCT020 OVC120 26/24 A2986 RMK RN E=
200507201900 METAR MRLB 201900Z 14003KT 9999 FEW025 OVC130 28/22 A2982 TCU E S SW RN S=
200507202000 METAR MRLB 202000Z 12007KT 9999 FEW025 OVC140 28/22 A2978 RN SW=
200507202100 METAR MRLB 202100Z 13008KT 9999 FEW030 OVC140 27/22 A2978=
200507202200 METAR MRLB 202200Z 13004KT 9999 FEW030 OVC140 27/22 A2995=
200507202300 METAR MRLB 202300Z 09005KT 9999 SCT030 OVC140 26/22 A2979=
200507210000 METAR MRLB 210000Z 11004KT 9999 SCT030 OVC140 25/23 A2981=
200507210100 METAR MRLB NIL=
200507210200 METAR MRLB NIL=
200507210300 METAR MRLB NIL=
200507210400 METAR MRLB NIL=
200507210500 METAR MRLB NIL=
200507210600 METAR MRLB NIL=
200507210700 METAR MRLB NIL=
200507210800 METAR MRLB NIL=
200507210900 METAR MRLB NIL=
200507211000 METAR MRLB NIL=
200507211100 METAR MRLB NIL=
200507211200 METAR MRLB 211200Z 04003KT CAVOK 22/21 A2983=
200507211300 METAR MRLB 211300Z 00000KT 9999 FEW025 OVC100 23/22 A2985=
200507211400 METAR MRLB 211400Z 00000KT 9999 BKN035 OVC100 24/22 A2987=
200507211500 METAR MRLB 211500Z 00000KT 9999 BKN035 OVC100 25/23 A2988=
200507211600 METAR MRLB 211600Z 16005KT 9999 FEW035 BKN120 27/23 A2987=
200507211700 METAR MRLB 211700Z 14004KT 9999 SCT030 BKN100 29/24 A2987=
200507211800 METAR MRLB 211800Z 19007KT 9999 SCT030 BKN100 30/25 A2987=
200507211900 METAR MRLB 211900Z 12006KT 9999 SCT020 BKN100 28/24 A2986=
200507212000 METAR MRLB 212000Z 06006KT 9999 3000NW VCSH BKN020 27/23 A2986=
200507212100 METAR MRLB 212100Z 30004KT 9999 SCT020 BKN100 26/24 A2984 RMK RASH NE N SW W=
200507212200 METAR MRLB 212200Z 22000KT 9999 2000SW -RA FEW015 BKN100 26/24 A2984=
200507212300 METAR MRLB 212300Z 27004KT 9999 -RA FEW010 OVC100 25/24 A2987=
200507220000 METAR MRLB 220000Z 36003KT 9999 -RA SCT015 OVC100 25/24 A2987=
200507220100 METAR MRLB NIL=
200507220200 METAR MRLB NIL=
200507220300 METAR MRLB NIL=
200507220400 METAR MRLB NIL=
200507220500 METAR MRLB NIL=
200507220600 METAR MRLB NIL=
200507220700 METAR MRLB NIL=
200507220800 METAR MRLB NIL=
200507220900 METAR MRLB NIL=
200507221000 METAR MRLB NIL=
200507221100 METAR MRLB NIL=
200507221200 METAR MRLB 221200Z 00000KT CAVOK 23/22 A2986=
200507221300 METAR MRLB 221300Z 00000KT CAVOK 25/23 A2987=
200507221400 METAR MRLB 221400Z 00000KT 9999 FEW030 BKN250 26/24 A2989=
200507221500 METAR MRLB 221500Z 00000KT 9999 SCT030 OVC250 27/25 A2990=
200507221600 METAR MRLB 221600Z 32003KT 9999 SCT035 BKN250 29/25 A2990=
200507221700 METAR MRLB 221700Z 28003KT 9999 SCT035 OVC250 30/25 A2990=
200507221800 METAR MRLB 221800Z 27008KT 9999 SCT030 OVC250 30/24 A2989=
200507221900 METAR MRLB 221900Z 29006KT 9999 SCT030 OVC240 30/25 A2987=
200507222000 METAR MRLB 222000Z 26006KT 9999 SCT030 BKN140 30/25 A2985=
200507222100 METAR MRLB 222100Z 27008KT 9999 SCT035 BKN140 29/24 A2984=
200507222200 METAR MRLB 222200Z 28007KT 9999 FEW035 OVC100 28/25 A2983=
200507222300 METAR MRLB 222300Z 26006KT 9999 FEW035 BKN140 28/24 A2982=
200507230000 METAR MRLB 230000Z 29006KT 9999 FEW035 BKN130 27/24 A2983=
200507230100 METAR MRLB NIL=
200507230200 METAR MRLB NIL=
200507230300 METAR MRLB NIL=
200507230400 METAR MRLB NIL=
200507230500 METAR MRLB NIL=
200507230600 METAR MRLB NIL=
200507230700 METAR MRLB NIL=
200507230800 METAR MRLB NIL=
200507230900 METAR MRLB NIL=
200507231000 METAR MRLB NIL=
200507231100 METAR MRLB NIL=
200507231200 METAR MRLB 231200Z 07003KT 9999 FEW035 BKN250 24/23 A2987 RMK VIS W/SW 8KMS=
200507231300 METAR MRLB 231300Z 00000KT CAVOK 26/24 A2986 CB DST N SE=
200507231400 METAR MRLB 231400Z 12007KT CAVOK 28/25 A2986 CB DST S SW=
200507231500 METAR MRLB 231500Z 12008KT CAVOK 29/25 A2989 CB DST S=
200507231600 METAR MRLB NIL=
200507231700 METAR MRLB 231700Z 12007KT CAVOK 30/24 A2986=
200507232300 METAR MRLB 232300Z 28007KT 9999 SCT030 BKN140 28/24 A2981=
200507240000 METAR MRLB NIL=
200507240100 METAR MRLB NIL=
200507240200 METAR MRLB NIL=
200507240300 METAR MRLB NIL=
200507240400 METAR MRLB NIL=
200507240500 METAR MRLB NIL=
200507240600 METAR MRLB NIL=
200507240700 METAR MRLB NIL=
200507240800 METAR MRLB NIL=
200507240900 METAR MRLB NIL=
200507241000 METAR MRLB NIL=
200507241100 METAR MRLB NIL=
200507241200 METAR MRLB NIL=
200507241300 METAR MRLB NIL=
200507241400 METAR MRLB NIL=
200507241500 METAR MRLB NIL=
200507241600 METAR MRLB 241600Z 00000KT 9999 FEW020 OVC160 28/25 A2991=
200507241700 METAR MRLB 241700Z 19003KT 9999 SCT025 OVC240 29/25 A2990=
200507241800 METAR MRLB 241800Z 22004KT 9999 SCT030 OVC250 30/25 A2988=
200507241900 METAR MRLB 241900Z 07005KT 9999 SCT030 OVC250 31/25 A2985=
200507242000 METAR MRLB 242000Z 12005KT 9999 SCT030 OVC250 32/25 A2982=
200507242100 METAR MRLB 242100Z 10005KT 9999 SCT035 OVC250 33/24 A2980=
200507242200 METAR MRLB 242200Z 28006KT 9999 SCT030 OVC250 32/24 A2979=
200507242300 METAR MRLB 242300Z 27008KT 9999 SCT020 BKN160 30/25 A2980 TS VCSH DST SSW=
200507250000 METAR MRLB 250000Z 26007KT 9999 SCT020 OVC140 28/24 A2981 RMK RN DST SSW=
200507250100 METAR MRLB NIL=
200507250200 METAR MRLB NIL=
200507250300 METAR MRLB NIL=
200507250400 METAR MRLB NIL=
200507250500 METAR MRLB NIL=
200507250600 METAR MRLB NIL=
200507250700 METAR MRLB NIL=
200507250800 METAR MRLB NIL=
200507250900 METAR MRLB NIL=
200507251000 METAR MRLB NIL=
200507251100 METAR MRLB NIL=
200507251200 METAR MRLB 251200Z 00000KT 9999 FEW020 BKN100 24/23 A2985=
200507251300 METAR MRLB 251300Z 00000KT 9999 FEW020 BKN100 25/24 A//// RMK CB DST E SE S=
200507251400 METAR MRLB 251400Z 00000KT 9999 -TSRA FEW020CB BKN100 25/24 A////=
200507251500 METAR MRLB 251500Z 00000KT 9999 SCT010 OVC100 25/24 A//// RETS=
200507251600 METAR MRLB 251600Z 19006KT 9999 FEW020 BKN120 26/24 A2984=
200507251700 METAR MRLB 251700Z 23008KT 9999 FEW030 BKN220 27/26 A2985=
200507251900 METAR MRLB 251900Z 09005KT 9999 SCT025 OVC250 31/26 A2981=
200507252000 METAR MRLB 252000Z 00000KT 9999 FEW030 OVC250 32/26 A2979 RMK TCU DST NE R S=
200507252100 METAR MRLB 252100Z 20006KT 9999 FEW035 OVC250 33/26 A2977=
200507252200 METAR MRLB 252200Z 08006KT CAVOK 33/24 A2977 RMK CB DST N=
200507252300 METAR MRLB 252300Z 07006KT CAVOK 32/24 A2977 RMK 8CI250=
200507260000 METAR MRLB 260000Z 00000KT 9999 FEW035 OVC250 31/24 A2980=
200507260100 METAR MRLB NIL=
200507260200 METAR MRLB NIL=
200507260300 METAR MRLB NIL=
200507260400 METAR MRLB NIL=
200507260500 METAR MRLB NIL=
200507260600 METAR MRLB NIL=
200507260700 METAR MRLB NIL=
200507260800 METAR MRLB NIL=
200507260900 METAR MRLB NIL=
200507261000 METAR MRLB NIL=
200507261100 METAR MRLB NIL=
200507261200 METAR MRLB NIL=
200507261300 METAR MRLB 261300Z 00000KT 9999 SCT020 BKN130 26/25 A////=
200507261400 METAR MRLB 261400Z 04005KT 9999 SCT025 BKN130 27/24 /////=
200507261500 METAR MRLB 261500Z 12006KT 9999 SCT025 BKN140 29/24 A////=
200507261600 METAR MRLB 261600Z 06008KT 9999 FEW030 OVC250 31/24 ////=
200507261700 METAR MRLB 261700Z 07009KT 9999 FEW030 BKN250 32/24 A2979=
200507261800 METAR MRLB 261800Z 09008KT 9999 FEW035 OVC250 32/24 A2978=
200507261900 METAR MRLB 261900Z 06005KT 9999 SCT035 OVC250 33/24 A2976=
200507262000 METAR MRLB 262000Z 10007KT 9999 FEW035 OVC240 33/24 A2975=
200507262100 METAR MRLB 262100Z 10009KT 9999 FEW035 OVC240 32/24 A2974 RMK HZ ARND=
200507262200 METAR MRLB 262200Z 07006KT 9999 SCT030 OVC240 30/23 A2974 RMK HZ ARND=
200507270000 METAR MRLB 270000Z 13006KT 9999 SCT030 OVC240 28/23 A2975 RMK HZ ARND=
200507270100 METAR MRLB NIL=
200507270200 METAR MRLB NIL=
200507270300 METAR MRLB NIL=
200507270400 METAR MRLB NIL=
200507270500 METAR MRLB NIL=
200507270600 METAR MRLB NIL=
200507270700 METAR MRLB NIL=
200507270800 METAR MRLB NIL=
200507270900 METAR MRLB NIL=
200507271000 METAR MRLB NIL=
200507271100 METAR MRLB NIL=
200507271200 METAR MRLB 271200Z 13004KT 9999 FEW030 BKN250 25/22 A2978 RMK RN DST NE=
200507271300 METAR MRLB 271300Z 10003KT 9999 SCT030 BKN250 27/23 A2980=
200507271400 METAR MRLB 271400Z 13003KT 9999 FEW030 BKN250 30/25 A2981=
200507271500 METAR MRLB 271500Z 08003KT 9999 FEW035 BKN250 30/24 A2981=
200507271600 METAR MRLB 271600Z 09007KT 9999 SCT035 BKN250 30/23 A2980=
200507271700 METAR MRLB 271700Z 07008KT 9999 SCT035 OVC250 32/24 A2979=
200507271800 METAR MRLB 271800Z 09006KT 9999 SCT035 OVC250 33/24 A2978=
200507271900 METAR MRLB 271900Z 08007KT 9999 FEW035 OVC250 33/24 A2975=
200507272000 METAR MRLB 272000Z 06007KT 9999 FEW035 OVC250 34/24 A2974=
200507272100 METAR MRLB 272100Z 08007KT 9999 FEW035 OVC250 33/24 A2973=
200507272200 METAR MRLB 272200Z 07014KT 9999 SCT035 OVC250 32/22 A2973=
200507272300 METAR MRLB 272300Z 10014KT 9999 SCT030 BKN140 29/22 A2980=
200507280000 METAR MRLB 280000Z 09005KT 9999 SCT030 BKN130 29/22 A2978=
200507280100 METAR MRLB NIL=
200507280200 METAR MRLB NIL=
200507280300 METAR MRLB NIL=
200507280400 METAR MRLB NIL=
200507280500 METAR MRLB NIL=
200507280600 METAR MRLB NIL=
200507280700 METAR MRLB NIL=
200507280800 METAR MRLB NIL=
200507280900 METAR MRLB NIL=
200507281000 METAR MRLB NIL=
200507281100 METAR MRLB NIL=
200507281200 METAR MRLB 281200Z 11011KT 9999 FEW030 OVC140 27/23 A2979=
200507281300 METAR MRLB 281300Z 12005KT 9999 FEW030 OVC130 26/23 A2981=
200507281400 METAR MRLB 281400Z 08004KT 9999 FEW030 OVC140 28/23 A2981=
200507281500 METAR MRLB 281500Z 11009KT 9999 FEW035 OVC140 28/24 A2984=
200507281600 METAR MRLB 281600Z 11006KT 9999 FEW035 SCT130 OVC240 30/24 A2983=
200507281700 METAR MRLB 281700Z 07012KT 9999 FEW035 BKN120 30/24 A2984 RN DST E=
200507281800 METAR MRLB 281800Z 09012KT 9999 FEW035 OVC250 31/24 A2981=
200507281900 METAR MRLB 281900Z 06009KT 9999 FEW035 OVC250 31/23 A2977=
200507282100 METAR MRLB 282100Z 07013KT 9999 FEW035 BKN120 32/22 A2975=
200507282200 METAR MRLB 282200Z 07013KT 9999 FEW035 SCT120 OVC250 32/23 A2976=
200507282300 METAR MRLB 282300Z 08007KT 9999 FEW035 SCT120 OVC250 31/23 A2977=
200507290000 METAR MRLB 290000Z 11003KT 9999 FEW035 OVC120 29/23 A2977=
200507290100 METAR MRLB NIL=
200507290200 METAR MRLB NIL=
200507290300 METAR MRLB NIL=
200507290400 METAR MRLB NIL=
200507290500 METAR MRLB NIL=
200507290600 METAR MRLB NIL=
200507290700 METAR MRLB NIL=
200507290800 METAR MRLB NIL=
200507290900 METAR MRLB NIL=
200507291000 METAR MRLB NIL=
200507291100 METAR MRLB NIL=
200507291200 METAR MRLB 291200Z 27004KT 9999 FEW020 SCT120 OVC250 24/21 A2981 RMK RN NW=
200507291300 METAR MRLB 291300Z 00000KT 9999 FEW025 BKN120 26/23 A2982=
200507291400 METAR MRLB 291400Z 00000KT 9999 FEW030 BKN130 28/24 A2984=
200507291500 METAR MRLB 291500Z 13004KT 9999 FEW035 BKN250 30/24 A2985=
200507291600 METAR MRLB 291600Z 02004KT 9999 FEW035 BKN250 31/24 A2986=
200507291700 METAR MRLB 291700Z 34009KT 9999 FEW035 BKN250 31/24 A2985=
200507291800 METAR MRLB 291800Z 36008KT 9999 FEW035 SCT130 OVC250 32/24 A2984=
200507291900 METAR MRLB 291900Z 34007KT 9999 FEW035 BKN130 32/24 A2980=
200507292000 METAR MRLB 292000Z 03005KT 9999 FEW040 OVC250 32/23 A2978=
200507292100 METAR MRLB 292100Z 06012KT 9999 FEW040 OVC250 32/23 A2979=
200507292200 METAR MRLB 292200Z 08011KT 9999 FEW040 OVC150 30/22 A2978=
200507292300 METAR MRLB 292300Z 07010KT 9999 FEW040 OVC140 29/22 A2977=
200507300000 METAR MRLB 300000Z 08008KT 9999 FEW040 OVC130 29/22 A2979=
200507300100 METAR MRLB NIL=
200507300200 METAR MRLB NIL=
200507300300 METAR MRLB NIL=
200507300400 METAR MRLB NIL=
200507300500 METAR MRLB NIL=
200507300600 METAR MRLB NIL=
200507300700 METAR MRLB NIL=
200507300800 METAR MRLB NIL=
200507300900 METAR MRLB NIL=
200507301000 METAR MRLB NIL=
200507301100 METAR MRLB NIL=
200507301200 METAR MRLB 301200Z 12011KT 9999 BKN030 SCT250 26/22 A2981=
200507301300 METAR MRLB 301300Z 11008KT 9999 FEW030 SCT120 BKN250 27/23 A3001 RMK RN DST N NE=
200507301400 METAR MRLB 301400Z 05014KT 9999 FEW030 SCT130 BKN250 29/24 A2984 RMK RN DST N CB DST NE=
200507301500 METAR MRLB 301500Z 07015KT 9999 FEW030 SCT130 BKN250 30/23 A2985=
200507301600 METAR MRLB 301600Z 05010KT CAVOK 30/22 A2984=
200507301700 METAR MRLB 301700Z 08009KT 9999 FEW030 BKN250 31/22 A2983=
200507301800 METAR MRLB 301800Z 09014KT 9999 SCT030 BKN250 31/22 A2984=
200507301900 METAR MRLB 301900Z 08011KT 9999 SCT030 OVC250 32/23 A2982=
200507302000 METAR MRLB 302000Z 06015KT 9999 SCT025 BKN140 30/22 A2982 RMK RN DST N=
200507302100 METAR MRLB 302100Z 04010KT 9999 SCT030 BKN140 31/24 A2979=
200507302200 METAR MRLB 302200Z 08010KT 9999 FEW030 SCT140 OVC250 32/22 A2980=
200507302300 METAR MRLB 302300Z 05012KT 9999 FEW035 OVC240 30/22 A2981=
200507310000 METAR MRLB 310000Z 07006KT 9999 FEW035 OVC240 29/21 A2982=
200507310100 METAR MRLB NIL=
200507310200 METAR MRLB NIL=
200507310300 METAR MRLB NIL=
200507310400 METAR MRLB NIL=
200507310500 METAR MRLB NIL=
200507310600 METAR MRLB NIL=
200507310700 METAR MRLB NIL=
200507310800 METAR MRLB NIL=
200507310900 METAR MRLB NIL=
200507311000 METAR MRLB NIL=
200507311100 METAR MRLB NIL=
200507311300 METAR MRLB 311300Z 07015KT CAVOK 27/22 A2982 RMK HZ ARND=
200507311400 METAR MRLB 311400Z 09017KT CAVOK 29/22 A2984=
200507311500 METAR MRLB 311500Z 08014KT 9999 FEW030 BKN250 30/22 A2985=
200507311600 METAR MRLB 311600Z 08013KT 9999 FEW035 BKN250 32/22 A2985=
200507311700 METAR MRLB 311700Z 07015KT 9999 FEW035 BKN250 33/22 A2983=
200507311800 METAR MRLB 311800Z 08016KT 9999 FEW035 OVC250 32/22 A2982=
200507311900 METAR MRLB 311900Z 09014KT 9999 SCT035 OVC150 32/22 A2980=
200507312000 METAR MRLB 312000Z 09011KT 9999 SCT035 OVC250 33/22 A2979=
200507312100 METAR MRLB 312100Z 10008KT 9999 SCT030 OVC250 31/22 A2978=
200507312200 METAR MRLB 312200Z 07014KT 9999 FEW030 SCT130 OVC250 30/22 A2979=
200507312300 METAR MRLB 312300Z 08012KT 9999 FEW030 BKN130 30/22 A2981=
200508010000 METAR MRLB 010000Z 08011KT 9999 FEW030 BKN140 29/21 A2983=
200508010100 METAR MRLB NIL=
200508010200 METAR MRLB NIL=
200508010300 METAR MRLB NIL=
200508010400 METAR MRLB NIL=
200508010500 METAR MRLB NIL=
200508010600 METAR MRLB NIL=
200508010700 METAR MRLB NIL=
200508010800 METAR MRLB NIL=
200508010900 METAR MRLB NIL=
200508011000 METAR MRLB NIL=
200508011100 METAR MRLB NIL=
200508011200 METAR MRLB 011200Z 00000KT 9999 FEW025 OVC250 24/22 A2985 RMK CB DST S SW=
200508011300 METAR MRLB 011300Z 00000KT 9999 SCT030 BKN250 25/23 A2987 RMK CB SW=
200508011400 METAR MRLB 011400Z 00000KT 9999 FEW030 BKN250 27/24 A2988=
200508011500 METAR MRLB 011500Z 30005KT 9999 FEW035 BKN250 28/24 A2990=
200508011600 METAR MRLB 011600Z 26003KT 9999 FEW035 BKN090 30/24 A2989=
200508011700 METAR MRLB 011700Z 09008KT 9999 SCT035 BKN090 32/25 A2989=
200508011800 METAR MRLB 011800Z 07010KT 9999 SCT035 BKN100 30/23 A2988=
200508011900 METAR MRLB 0119000Z 09013KT 9999 FEW035 SCT130 BKN230 32/23 A2985=
200508012000 METAR MRLB 012000Z 09014KT 9999 FEW035 OVC240 30/22 A2982=
200508012100 METAR MRLB 012100Z 98911KT 9999 FEW035 OVC150 30/22 A2982=
200508012200 METAR MRLB 012200Z 08907KT 9999 FEW035 OVC150 25/22 A2981=
200508012300 METAR MRLB 012300Z 12008KT CAVOK 29/22 A2982=
200508020000 METAR MRLB 020000Z 13006KT CAVOK 28/22 A2983=
200508020100 METAR MRLB NIL=
200508020200 METAR MRLB NIL=
200508020300 METAR MRLB NIL=
200508020400 METAR MRLB NIL=
200508020500 METAR MRLB NIL=
200508020600 METAR MRLB NIL=
200508020700 METAR MRLB NIL=
200508020800 METAR MRLB NIL=
200508020900 METAR MRLB NIL=
200508021000 METAR MRLB NIL=
200508021100 METAR MRLB NIL=
200508021200 METAR MRLB 021200Z 00000KT 9999 SCT020 SCT100 23/22 A2982=
200508021300 METAR MRLB 021300Z 00000KT 9999 SCT025 SCT250 24/22 A2984=
200508021400 METAR MRLB 021400Z 00000KT 9999 SCT030 SCT100 25/23 A2986=
200508021500 METAR MRLB 021500Z 00000KT 9999 FEW035 BKN250 29/26 A2988=
200508021600 METAR MRLB 021600Z 07012KT 9999 FEW035 BKN250 31/25 A2987=
200508021700 METAR MRLB 021700Z 07011KT 9999 SCT035 BKN250 31/24 A2985=
200508021800 METAR MRLB 021800Z 07012KT 9999 FEW035 BKN250 32/24 A2983=
200508021900 METAR MRLB 021900Z 09011KT 9999 SCT035 BKN250 33/23 A2982 CB DST N NE=
200508022000 METAR MRLB 022000Z 08008KT 9999 SCT035 BKN250 34/23 A2981=
200508022100 METAR MRLB 022100Z 04012KT 9999 SCT020TCU SCT100 32/22 A2980=
200508022200 METAR MRLB 022200Z 11005KT 9999 FEW035 OVC120 28/22 A2979=
200508022300 METAR MRLB 022300Z 13004KT 9999 FEW035 OVC120 27/22 A2983=
200508030000 METAR MRLB 030000Z 11008KT 9999 FEW030 OVC120 27/22 A2984=
200508030100 METAR MRLB NIL=
200508030200 METAR MRLB NIL=
200508030300 METAR MRLB NIL=
200508030400 METAR MRLB NIL=
200508030500 METAR MRLB NIL=
200508030600 METAR MRLB NIL=
200508030700 METAR MRLB NIL=
200508030800 METAR MRLB NIL=
200508030900 METAR MRLB NIL=
200508031000 METAR MRLB NIL=
200508031100 METAR MRLB NIL=
200508031200 METAR MRLB 031200Z 00000KT 9999 FEW030 OVC250 23/22 A2983=
200508031300 METAR MRLB 031300Z 00000KT 9999 FEW030 BKN250 25/23 A2984=
200508031700 METAR MRLB 031700Z 09010KT 9999 SCT035 BKN250 32/24 A2987=
200508031800 METAR MRLB 031800Z 10013KT 9999 -RA FEW020TCU SCT030 OVC250 33/24 A2985=
200508031900 METAR MRLB 031900Z 03004KT 9999 SCT030 BKN250 33/24 A2984=
200508032000 METAR MRLB 032000Z 06015KT 9999 FEW035 BKN140 31/22 A2984=
200508032100 METAR MRLB 032100Z 07012KT 9999 FEW035 BKN140 29/21 A2981=
200508032200 METAR MRLB 032200Z 09008KT 9999 FEW035 BKN140 29/21 A2979=
200508032300 METAR MRLB 032300Z 09011KT 9999 FEW035 OVC130 28/22 A2980=
200508040000 METAR MRLB 040000Z 12006KT 9999 FEW030 OVC130 28/22 A2981=
200508040100 METAR MRLB NIL=
200508040200 METAR MRLB NIL=
200508040300 METAR MRLB NIL=
200508040400 METAR MRLB NIL=
200508040500 METAR MRLB NIL=
200508040600 METAR MRLB NIL=
200508040700 METAR MRLB NIL=
200508040800 METAR MRLB NIL=
200508040900 METAR MRLB NIL=
200508041000 METAR MRLB NIL=
200508041100 METAR MRLB NIL=
200508041200 METAR MRLB 041200Z 00000KT 9999 FEW030 BKN130 23/22 A2986=
200508041300 METAR MRLB 041300Z 00000KT 9999 FEW035 BKN130 24/22 A2988=
200508041400 METAR MRLB 041400Z 05003KT 9999 FEW035 SCT130 BKN250 26/24 A2990=
200508041500 METAR MRLB 041500Z 16004KT 9999 FEW035 BKN250 29/25 A2991=
200508041600 METAR MRLB 041600Z 06009KT 9999 FEW035 SCT250 32/26 A2991=
200508041700 METAR MRLB 041700Z 06012KT 9999 FEW035 BKN250 33/24 A2990=
200508041800 METAR MRLB 041800Z 07014KT 9999 FEW035 BKN250 33/23 A2989=
200508041900 METAR MRLB 041900Z 09012KT 9999 FEW035 BKN250 33/22 A2986=
200508042000 METAR MRLB 042000Z 07011KT 9999 FEW035 OVC250 33/22 A2980=
200508042100 METAR MRLB 042100Z 07013KT 9999 FEW035 BKN250 33/22 A2979=
200508042200 METAR MRLB 042200Z 06014KT 9999 FEW035 OVC250 33/22 A2978=
200508042300 METAR MRLB 042300Z 09007KT 9999 SCT035 OVC250 32/22 A2980=
200508050000 METAR MRLB 050000Z 08006KT 9999 FEW035 OVC250 30/22 A2982=
200508050100 METAR MRLB NIL=
200508050200 METAR MRLB NIL=
200508050300 METAR MRLB NIL=
200508050400 METAR MRLB NIL=
200508050500 METAR MRLB NIL=
200508050600 METAR MRLB NIL=
200508050700 METAR MRLB NIL=
200508050800 METAR MRLB NIL=
200508050900 METAR MRLB NIL=
200508051000 METAR MRLB NIL=
200508051100 METAR MRLB NIL=
200508051200 METAR MRLB 051200Z 28003KT 9999 FEW030 OVC250 24/22 A2984=
200508051300 METAR MRLB 051300Z 00000KT 9999 FEW035 OVC250 25/23 A2984=
200508051400 METAR MRLB 051400Z 00000KT 9999 FEW035 OVC250 27/24 A2985=
200508051500 METAR MRLB 051500Z 00000KT CAVOK 29/25 A2985=
200508051600 METAR MRLB 051600Z 08012KT 9999 FEW035 SCT100 OVC250 32/24 A2986=
200508051700 METAR MRLB 051700Z 08012KT 9999 FEW035 SCT100 OVC250 32/24 A2986=
200508051800 METAR MRLB 051800Z 06012KT 9999 FEW035 OVC250 33/24 A2985=
200508051900 METAR MRLB 051900Z 05014KT 9999 FEW035 OVC250 33/23 A2984=
200508052000 METAR MRLB 052000Z 07013KT 9999 FEW035 SCT120 OVC240 32/23 A 2981=
200508052100 METAR MRLB 052100Z 08011KT 9999 FEW035 OBV130 31/23 A2980=
200508052200 METAR MRLB 052200Z 07010KT 9999 FEW035 OVC120 30/23 A2980 RMK RN NE=
200508052300 METAR MRLB 052300Z 08009KT 9999 SCT035 OVC120 29/22 A2982=
200508060000 METAR MRLB 060000Z 11007KT 9999 FEW035 OVC120 28/22 A2983=
200508060100 METAR MRLB NIL=
200508060200 METAR MRLB NIL=
200508060300 METAR MRLB NIL=
200508060400 METAR MRLB NIL=
200508060500 METAR MRLB NIL=
200508060600 METAR MRLB NIL=
200508060700 METAR MRLB NIL=
200508060800 METAR MRLB NIL=
200508060900 METAR MRLB NIL=
200508061000 METAR MRLB NIL=
200508061100 METAR MRLB NIL=
200508061200 METAR MRLB 061200Z 19004KT CAVOK 23/21 A2981=
200508061300 METAR MRLB 061300Z 31003KT CAVOK 24/22 A2984=
200508061500 METAR MRLB 061500Z 00000KT CAVOK 29/25 A2986=
200508061600 METAR MRLB 061600Z 33004KT CAVOK 31/24 A2986=
200508061700 METAR MRLB 061700Z 10010KT CAVOK 32/24 A2985=
200508061800 METAR MRLB 061800Z 12008KT 9999 FEW035 BKN130 31/23 A2983=
200508061900 METAR MRLB 061900Z 09010KT 9999 SCT030 OVC100 31/23 A2985=
200508062000 METAR MRLB 062000Z 07008KT 9999 FEW035 OVC120 32/24 A2983=
200508062100 METAR MRLB 062100Z 09006KT 9999 FEW035 OVC120 31/23 A2982=
200508062200 METAR MRLB 062200Z 10005KT 9999 FEW035 OVC120 30/22 A2989=
200508062300 METAR MRLB 062300Z 14004KT CAVOK 29/23 A2983=
200508070000 METAR MRLB 070000Z 00000KT CAVOK 29/23 A2984=
200508070100 METAR MRLB NIL=
200508070200 METAR MRLB NIL=
200508070300 METAR MRLB NIL=
200508070400 METAR MRLB NIL=
200508070500 METAR MRLB NIL=
200508070600 METAR MRLB NIL=
200508070700 METAR MRLB NIL=
200508070800 METAR MRLB NIL=
200508070900 METAR MRLB NIL=
200508071000 METAR MRLB NIL=
200508071100 METAR MRLB NIL=
200508071200 METAR MRLB 071200Z 07004KT 9999 FEW030 BKN140 24/22 A2987=
200508071300 METAR MRLB 071300Z 15003KT 9999 FEW035 BKN130 25/23 A2989=
200508071400 METAR MRLB 071400Z 29004KT 9999 FEW035 OVC130 26/23 A2991=
200508071500 METAR MRLB 071500Z 17003KT 9999 FEW035 BKN130 27/24 A2991=
200508071600 METAR MRLB 071600Z 08013KT 9999 FEW035 BKN140 29/24 A2993=
200508071700 METAR MRLB 071700Z 08016KT 9999 FEW035 SCT140 OVC250 31/24 A2991=
200508071800 METAR MRLB 071800Z 07015KT 9999 FEW025 OVC250 32/22 A2989=
200508071900 METAR MRLB 071900Z 07020KT 9999 FEW035 OVC250 33/20 A2992=
200508072000 METAR MRLB 072000Z 06019KT 9999 FEW035 OVC250 32/20 A2993=
200508072100 METAR MRLB 072100Z 07016KT 9999 FEW035 OVC250 32/21 A2998=
200508072200 METAR MRLB 072200Z 06018KT 9999 FEW035 BKN250 30/20 A2985=
200508072300 METAR MRLB 072300Z 07014KT 9999 FEW035 OVC250 30/19 A2985=
200508080000 METAR MRLB 080000Z 06013KT CAVOK 29/19 A2984=
200508080100 METAR MRLB NIL=
200508080200 METAR MRLB NIL=
200508080300 METAR MRLB NIL=
200508080400 METAR MRLB NIL=
200508080500 METAR MRLB NIL=
200508080600 METAR MRLB NIL=
200508080700 METAR MRLB NIL=
200508080800 METAR MRLB NIL=
200508080900 METAR MRLB NIL=
200508081000 METAR MRLB NIL=
200508081100 METAR MRLB NIL=
200508081200 METAR MRLB 081200Z 13004KT 9999 FEW010KT CAVOK 20/15 A3002 RMK HZ ARND=
200508081400 METAR MRLB 10005KT 9999 FEW035 SCT130 OVC250 29/22 A2993=
200508081402 METAR MRLB 081402Z 10005KT 9999 FEW035 SCT130 OVC250 29/22 A2993=
200508081500 METAR MRLB 081500Z 08009KT 9999 FEW035 BKN130 30/22 A2994=
200508081600 METAR MRLB NIL=
200508081700 METAR MRLB NIL=
200508081800 METAR MRLB 081800Z 08016KT 9999 FEW035 OVC250 33/21 A2987=
200508081900 METAR MRLB 081900Z 09014KT 9999 FEW035 OVC250 32/21 A2986=
200508082000 METAR MRLB 082000Z 08015KT 9999 FEW035 OVC250 33/21 A2990=
200508082100 METAR MRLB 082100Z 08017KT 9999 FEW035 OVC240 33/20 A2990 RMK LEVE HZY=
200508082200 METAR MRLB 082200Z 07014KT 9999 FEW035 OVC240 32/20 A3006=
200508082300 METAR MRLB 082300Z 08012KT 9999 FEW035 OVC240 31/20 A3000 RMK HZY=
200508090000 METAR MRLB 090000Z 08011KT 9999 FEW035 OVC240 29/31 A3009 HZY=
200508090100 METAR MRLB NIL=
200508090200 METAR MRLB NIL=
200508090300 METAR MRLB NIL=
200508090400 METAR MRLB NIL=
200508090500 METAR MRLB NIL=
200508090600 METAR MRLB NIL=
200508090700 METAR MRLB NIL=
200508090800 METAR MRLB NIL=
200508090900 METAR MRLB NIL=
200508091000 METAR MRLB NIL=
200508091100 METAR MRLB NIL=
200508091200 METAR MRLB 091200Z 19003KT 9999 SCT030 OVC250 24/21 A2982=
200508091300 METAR MRLB 091300Z 31005KT 9999 SCT030 BKN100 24/21 A2986 RERA RN DST N NE E=
200508091400 METAR MRLB 091400Z 20004KT 9999 SCT030 BKN100 25/23 A2987 RMK RN DST N NE S SW=
200508091500 METAR MRLB 091500Z 28004KT 9999 FEW030 OVC120 26/24 A2987=
200508091600 METAR MRLB 091600Z 31003KT 9999 SCT030 OVC130 28/25 A2988 RMK RN DST NE=
200508091700 METAR MRLB 091700Z 07014KT 9999 SCT035 OVC130 30/25 A2986=
200508091800 METAR MRLB 091800Z 10011KT 9999 SCT035 OVC130 31/24 A2986=
200508091900 METAR MRLB 091900Z 06009KT 9999 FEW035 BKN130 32/24 A2984=
200508092000 METAR MRLB 092000Z 09006KT 9999 SCT035 OVC130 32/23 A2983=
200508092100 METAR MRLB 092100Z 06012KT 9999 FEW035 OVC130 31/23 A2982=
200508092200 METAR MRLB 092200Z 08007KT 9999 FEW035 OVC120 30/22 A2981=
200508092300 METAR MRLB 092300Z 09005KT 9999 FEW035 OVC120 29/22 A2983=
200508100000 METAR MRLB 100000Z 08007KT 9999 SCT035 OVC120 28/22 A2983=
200508100100 METAR MRLB NIL=
200508100200 METAR MRLB NIL=
200508100300 METAR MRLB NIL=
200508100400 METAR MRLB NIL=
200508100500 METAR MRLB NIL=
200508100600 METAR MRLB NIL=
200508100700 METAR MRLB NIL=
200508100800 METAR MRLB NIL=
200508100900 METAR MRLB NIL=
200508101000 METAR MRLB NIL=
200508101100 METAR MRLB NIL=
200508101200 METAR MRLB 101200Z 05005KT CAVOK 22/20 A2987=
200508101300 METAR MRLB 101300Z 36003KT 9999 FEW010 BKN250 24/22 A2988=
200508101400 METAR MRLB 101400Z 00000KT CAVOK 26/24 A2990=
200508101500 METAR MRLB 101500Z 29004KT 9999 FEW030 SCT250 28/25 A2990=
200508101600 METAR MRLB 101600Z 35003KT 9999 FEW030 SCT140 30/25 A2989=
200508101700 METAR MRLB 101700Z 11009KT 9999 SCT035 SCT250 33/24 A2987=
200508101800 METAR MRLB 101800Z 08007KT 9999 SCT035 34/23 A2985=
200508101900 METAR MRLB 101900Z 13004KT 9999 SCT035 SCT140 34/22 A2982=
200508102100 METAR MRLB 102100Z 26006KT 9999 SCT035 33/24 A2077=
200508102200 METAR MRLB 102200Z 26006KT 9999 SCT035 33/23 A2977 TCU NE=
200508102300 METAR MRLB 102300Z 26004KT 9999 SCT030 SCT120 32/23 A2979 RMK CB RN SW=
200508110000 METAR MRLB 110000Z 11004KT 9999 SCT030 BKN130 31/21 A2981 CB DST N NE CB RN DST SW=
200508110100 METAR MRLB NIL=
200508110200 METAR MRLB NIL=
200508110300 METAR MRLB NIL=
200508110400 METAR MRLB NIL=
200508110500 METAR MRLB NIL=
200508110600 METAR MRLB NIL=
200508110700 METAR MRLB NIL=
200508110800 METAR MRLB NIL=
200508110900 METAR MRLB NIL=
200508111000 METAR MRLB NIL=
200508111100 METAR MRLB NIL=
200508111200 METAR MRLB 111200Z 15006KT 9999 FEW030 BKN250 24/22 A2985=
200508111300 METAR MRLB 111300Z 00000KT 9999 FEW030 SCT250 25/23 A2987=
200508111400 METAR MRLB 111400Z 03003KT 9999 FEW035 BKN250 27/24 A2988=
200508111500 METAR MRLB 111500Z 09010KT 9999 FEW035 BKN250 31/26 A2989=
200508111600 METAR MRLB 111600Z 10009KT 9999 FEW035 SCT250 31/24 A2990=
200508111700 METAR MRLB 111700Z 12007KT 9999 SCT035 BKN250 32/24 A2988=
200508111800 METAR MRLB 111800Z 14006KT 9999 SCT035 BKN250 33/23 A2986=
200508111900 METAR MRLB 111900Z 07007KT 9999 SCT035 OVC250 33/23 A2985=
200508112000 METAR MRLB 112000Z 18004KT 9999 SCT035 BKN250 34/23 A2981 RMK RN SW=
200508112100 METAR MRLB 112100Z 26009KT 9999 SCT030 OVC250 29/23 A2981=
200508112200 METAR MRLB 112200Z 31006KT 9999 SCT025 BKN140 25/22 A2979=
200508112300 METAR MRLB 112300Z 00000KT 9999 -RA SCT020 OVC120 25/23 A2984=
200508120000 METAR MRLB 120000Z 04005KT 9999 SCT025 OVC120 25/23 A2985=
200508120100 METAR MRLB NIL=
200508120200 METAR MRLB NIL=
200508120300 METAR MRLB NIL=
200508120400 METAR MRLB NIL=
200508120500 METAR MRLB NIL=
200508120600 METAR MRLB NIL=
200508120700 METAR MRLB NIL=
200508120800 METAR MRLB NIL=
200508120900 METAR MRLB NIL=
200508121000 METAR MRLB NIL=
200508121100 METAR MRLB NIL=
200508121200 METAR MRLB 121200Z 10003KT 9999 FEW030 OVC250 23/22 A2987=
200508121300 METAR MRLB 121300Z 35003KT 9999 FEW030 BKN250 24/23 A2989=
200508121400 METAR MRLB 121400Z 00000KT 9999 FEW025 BKN250 26/25 A2990=
200508121600 METAR MRLB 121600Z 00000KT 9999 SCT030 OVC250 30/27 A2990=
200508121700 METAR MRLB 121700Z 19003KT 9999 SCT030 OVC250 30/26 A2989=
200508121800 METAR MRLB 121800Z 10006KT 9999 SCT025 OVC240 31/25 A2987=
200508121900 METAR MRLB 121900Z 20005KT 9999 FEW020TCU SCT030 OVC240 30/24 A2985=
200508122000 METAR MRLB 122000Z 04005KT 9999 SCT025 BKN140 27/22 A2984=
200508122100 METAR MRLB 122100Z 09005KT 9999 FEW030 OVC130 26/22 A2981=
200508122200 METAR MRLB 122200Z 05006KT 9999 FEW030 BKN130 27/23 A2982=
200508122300 METAR MRLB 122300Z 08005KT 9999 FEW035 OVC140 27/23 A2983=
200508130000 METAR MRLB 130000Z 09004KT 9999 FEW035 OVC140 26/23 A2984=
200508130100 METAR MRLB NIL=
200508130200 METAR MRLB NIL=
200508130300 METAR MRLB NIL=
200508130400 METAR MRLB NIL=
200508130500 METAR MRLB NIL=
200508130600 METAR MRLB NIL=
200508130700 METAR MRLB NIL=
200508130800 METAR MRLB NIL=
200508130900 METAR MRLB NIL=
200508131000 METAR MRLB NIL=
200508131100 METAR MRLB NIL=
200508131200 METAR MRLB 131200Z 13003KT CAVOK 23/22 A2985=
200508131300 METAR MRLB 131300Z 15004KT CAVOK 25/23 A2989=
200508131400 METAR MRLB 131400Z 15005KT CAVOK 26/24 A2990=
200508131500 METAR MRLB 131500Z 00000KT 9999 FEW030 OVC130 27/25 A2991=
200508131600 METAR MRLB 131600Z 00000KT 9999 FEW030 OVC130 29/25 A2991=
200508131700 METAR MRLB 131700Z 00000KT 9999 SCT030 BKN130 30/24 A2990=
200508131800 METAR MRLB 131800Z 11004KT 9999 SCT030 BKN130 31/24 A2989=
200508131900 METAR MRLB 131900Z 14006KT 9999 SCT030 SCT130 32/24 A2986=
200508132000 METAR MRLB 132000Z 27007KT 5000 -RA SCT015TCU SCT100 28/22 A2983=
200508132100 METAR MRLB 132100Z 00000KT 9999 FEW020 OVC100 25/22 A2985 RMK RN DST S SW=
200508132200 METAR MRLB 132200Z 23005KT 9999 FEW020 OVC100 24/22 A2983=
200508132300 METAR MRLB 132300Z 18003KT 9999 FEW020 OVC120 24/22 A2983=
200508140000 METAR MRLB 140000Z 00000KT 9999 FEW020 OVC120 24/22 A2984=
200508140100 METAR MRLB NIL=
200508140200 METAR MRLB NIL=
200508140300 METAR MRLB NIL=
200508140400 METAR MRLB NIL=
200508140500 METAR MRLB NIL=
200508140600 METAR MRLB NIL=
200508140700 METAR MRLB NIL=
200508140800 METAR MRLB NIL=
200508140900 METAR MRLB NIL=
200508141000 METAR MRLB NIL=
200508141100 METAR MRLB NIL=
200508141200 METAR MRLB 141200Z 00000KT CAVOK 23/21 A2987 3AC130 8CI250=
200508141300 METAR MRLB 141300Z 00000KT 9999 FEW040 BKN250 24/23 A2989 RMK CB DST S SW=
200508141400 METAR MRLB 141400Z 00000KT 9999 SCT040 BKN250 25/23 A2991 RMK CB DST S SW W=
200508141500 METAR MRLB 141500Z 00000KT CAVOK 26/24 A2992 RMK CB DST SW W=
200508141600 METAR MRLB 141600Z 31003KT 9999 FEW030 OVC250 29/25 A2990=
200508141700 METAR MRLB 141700Z 29007KT 9999 SCT030 OVC250 29/24 A2991 RMK RN DST NE=
200508141800 METAR MRLB 141800Z 30006KT 9999 SCT020 OVC250 29/24 A2984 RMK RN DST N S=
200508141900 METAR MRLB 141900Z 29005KT 9999 SCT020 OVC250 30/24 A2985 RMK CB SHRA DST S=
200508142000 METAR MRLB 142000Z 29011KT 9999 SCT015TCU BKN120 29/23 A2984 RMK RN DST N NE SE S=
200508142100 METAR MRLB 142100Z 17005KT 9999 300SW -RA FEW015 OVC100 23/21 A2986/=
200508142200 METAR MRLB 142200Z 00000KT 9999 FEW020 OVC100 25/23 A2984=
200508142300 METAR MRLB 142300Z 22003KT 9999 FEW010 OVC100 24/23 A2085=
200508150000 METAR MRLB 150000Z 17005KT 9999 FEW010 OVC100 23/22 A2987=
200508150100 METAR MRLB NIL=
200508150200 METAR MRLB NIL=
200508150300 METAR MRLB NIL=
200508150400 METAR MRLB NIL=
200508150500 METAR MRLB NIL=
200508150600 METAR MRLB NIL=
200508150700 METAR MRLB NIL=
200508150800 METAR MRLB NIL=
200508150900 METAR MRLB NIL=
200508151000 METAR MRLB NIL=
200508151100 METAR MRLB NIL=
200508151200 METAR MRLB 151200Z 00000KT CAVOK 22/21 A2987=
200508151300 METAR MRLB 151300Z 00000KT CAVOK 24/23 A2989=
200508151400 METAR MRLB 151400Z 00000KT 9999 FEW020 BKN250 25/23 A2992=
200508151500 METAR MRLB 151500Z 17004KT 9999 FEW030 BKN140 25/24 A2993=
200508151600 METAR MRLB 151600Z 00000KT 9999 FEW035 BKN140 27/25 A2992=
200508151700 METAR MRLB 151700Z 00000KT 9999 FEW035 OVC140 28/25 A2992 RMK TCU DIST N SW=
200508151800 METAR MRLB 151800Z 18003KT 9999 SCT035 OVC140 29/25 A2990=
200508151900 METAR MRLB 151900Z 21004KT 9999 SCT030 BKN130 30/25 A2986=
200508152000 METAR MRLB 152000Z 26004KT 9999 SCT025 BKN140 30/25 A2984=
200508152100 METAR MRLB 152100Z 14004KT 9999 SCT020 BKN130 27/23 A2981=
200508152200 METAR MRLB 152200Z 24003KT 9999 FEW025 OVC140 28/24 A2979=
200508152300 METAR MRLB 152300Z 00000KT 9999 FEW030 BKN140 27/24 A2980=
200508160000 METAR MRLB 160000Z 00000KT 9999 FEW030 BKN140 27/24 A2982=
200508160100 METAR MRLB NIL=
200508160200 METAR MRLB NIL=
200508160300 METAR MRLB NIL=
200508160400 METAR MRLB NIL=
200508160500 METAR MRLB NIL=
200508160600 METAR MRLB NIL=
200508160700 METAR MRLB NIL=
200508160800 METAR MRLB NIL=
200508160900 METAR MRLB NIL=
200508161000 METAR MRLB NIL=
200508161100 METAR MRLB NIL=
200508161200 METAR MRLB 161200Z 00000KT 9999 FEW025 BKN130 23/22 A2985=
200508161300 METAR MRLB 161300Z 23003KT 9999 FEW025 OVC130 23/22 A2987=
200508161400 METAR MRLB 161400Z 15003KT 9999 FEW030 BKN140 24/23 A2989=
200508161500 METAR MRLB 161500Z 19003KT 9999 SCT030 OVC250 26/24 A2988=
200508161600 METAR MRLB 161600Z 22004KT 9999 SCT030 28/25 A2988=
200508161700 METAR MRLB 161700Z 19004KT 9999 SCT025 OVC240 28/24 A2988=
200508161800 METAR MRLB 161800Z 12005KT 9999 SCT030 OVC240 30/25 A2986 RMK RN N=
200508161900 METAR MRLB 161900Z 12007KT 9999 SCT035 OVC240 31/25 A2982=
200508162000 METAR MRLB 162000Z 10006KT 9999 SCT035 OVC250 31/25 A2980=
200508162100 METAR MRLB 162100Z 14005KT 9999 SCT035 OVC250 31/24 A2977=
200508162200 METAR MRLB 162200Z 23004KT 9999 SCT030 OVC240 30/24 A2976=
200508162300 METAR MRLB 162300Z 14008KT 9999 4000S VCSH FEW015TCU SCT030 OVC240 29/23 A2979=
200508170000 METAR MRLB 170000Z 19005KT 9999 SCT020 OVC130 24/21 A2981=
200508170100 METAR MRLB NIL=
200508170200 METAR MRLB NIL=
200508170300 METAR MRLB NIL=
200508170400 METAR MRLB NIL=
200508170500 METAR MRLB NIL=
200508170600 METAR MRLB NIL=
200508170700 METAR MRLB NIL=
200508170800 METAR MRLB NIL=
200508170900 METAR MRLB NIL=
200508171000 METAR MRLB NIL=
200508171100 METAR MRLB NIL=
200508171200 METAR MRLB 171200Z 09004KT 9999 FEW020 OVC130 24/22 A2982=
200508171300 METAR MRLB 171300Z 00000KT 9999 FEW030 OVC120 24/23 A2985=
200508171400 METAR MRLB 171400Z 10004KT 9999 FEW040 OVC120 25/23 A2986 CB DST SW WSW=
200508171500 METAR MRLB 171500Z 11007KT CAVOK 27/24 A2987=
200508171600 METAR MRLB 171600Z 13007KT 9999 FEW030 BKN130 28/24 A2987=
200508171700 METAR MRLB 171700Z 14005KT 9999 FEW035 BKN130 29/24 A2985=
200508171800 METAR MRLB 171800Z 15005KT 9999 FEW035 BKN130 30/25 A2983=
200508171900 METAR MRLB 171900Z 15008KT 9999 FEW035 SCT130 OVC250 31/24 A2980=
200508172000 METAR MRLB 172000Z 16007KT 9999 FEW030 BKN130 32/25 A2977 RMK TCU RN N NE S=
200508172100 METAR MRLB 172100Z 16010KT 9999 FEW030 OVC130 30/23 A2975=
200508172200 METAR MRLB 172200Z 12003KT 9999 SCT030 OVC120 28/22 A2975=
200508172300 METAR MRLB 172300Z 07007KT 9999 SCT025 OVC100 27/23 A2978=
200508180000 METAR MRLB 180000Z 08005KT 9999 SCT020 OVC100 26/23 A2979=
200508180100 METAR MRLB NIL=
200508180200 METAR MRLB NIL=
200508180300 METAR MRLB NIL=
200508180400 METAR MRLB NIL=
200508180500 METAR MRLB NIL=
200508180600 METAR MRLB NIL=
200508180700 METAR MRLB NIL=
200508180800 METAR MRLB NIL=
200508180900 METAR MRLB NIL=
200508181000 METAR MRLB NIL=
200508181100 METAR MRLB NIL=
200508181200 METAR MRLB 181200Z 09003KT CAVOK 23/22 A2982=
200508181300 METAR MRLB 181300Z 09003KT CAVOK 24/23 A2984=
200508181400 METAR MRLB 181400Z 11004KT 9999 FEW010 OVC120 26/24 A2987=
200508181500 METAR MRLB 181500Z 10008KT 9999 FEW020 OVC120 26/24 A2987=
200508181600 METAR MRLB 181600Z 15007KT 9999 BKN025 SCT130 28/24 A2988=
200508181700 METAR MRLB 181700Z 12007KT 9999 BKN030 SCT140 29/25 A2987=
200508181800 METAR MRLB 181800Z 11007KT 9999 SCT030 BKN130 30/25 A2986=
200508181900 METAR MRLB 181900Z 09007KT 9999 BKN025 SCT250 31/24 A2982=
200508182000 METAR MRLB 182000Z 11005KT 2000SW 9999E -TSRA SCT008CB SCT020 26/21 A2983=
200508182100 METAR MRLB 182100Z 26005KT 9999 -RA FEW015 OVC080 25/23 A2982 RMK 5000W RA TS DST SW=
200508182200 METAR MRLB 182200Z 00000KT 9999 SCT030 OVC100 25/23 A2980 RMK RN DST N CB DST E S=
200508182300 METAR MRLB 182300Z 02005KT 9999 FEW030 OVC120 24/23 A2981 CB RN DST NE E=
200508190000 METAR MRLB 190000Z 06003KT 9999 FEW025 OVC120 24/23 A2982 RMK RN DST NE=
200508190100 METAR MRLB NIL=
200508190200 METAR MRLB NIL=
200508190300 METAR MRLB NIL=
200508190400 METAR MRLB NIL=
200508190500 METAR MRLB NIL=
200508190600 METAR MRLB NIL=
200508190700 METAR MRLB NIL=
200508190800 METAR MRLB NIL=
200508190900 METAR MRLB NIL=
200508191000 METAR MRLB NIL=
200508191100 METAR MRLB NIL=
200508191200 METAR MRLB 191200Z 00000KT 0600 FG FEW003 SCT008 OVC140 23/22 A2988=
200508191300 METAR MRLB 191300Z 05004KT 9999 3000SW BR FEW004 SCT015 BKN140 24/23 A2990=
200508191400 METAR MRLB 191400Z 00000KT 9999 SCT025 OVC250 25/24 A2993=
200508191500 METAR MRLB 191500Z 00000KT 9999 FEW030 OVC250 26/25 A2993=
200508191600 METAR MRLB 191600Z 35004KT 9999 FEW035 OVC250 28/25 A2991=
200508191700 METAR MRLB 191700Z 32003KT 9999 FEW035 OVC250 29/25 A2989=
200508191800 METAR MRLB 191800Z 34003KT 9999 FEW035 BKN250 30/25 A2986=
200508191900 METAR MRLB 191900Z 27007KT 9999 SCT030 OVC250 31/25 A2985=
200508192000 METAR MRLB 192000Z 27008KT 9999 FEW020TCU SCT030 OVC250 29/24 A2984 RN E N=
200508192100 METAR MRLB 192100Z 28010KT 9999 SCT025 OVC240 29/24 A2982=
200508192200 METAR MRLB 192200Z 28010KT 9999 SCT030 OVC240 28/24 A2981=
200508192300 METAR MRLB 192300Z 17008KT 9999 SCT025 OVC240 27/23 A2982=
200508200000 METAR MRLB 200000Z 27004KT 9999 FEW030 OVC240 27/23 A2983=
200508200100 METAR MRLB NIL=
200508200200 METAR MRLB NIL=
200508200300 METAR MRLB NIL=
200508200400 METAR MRLB NIL=
200508200500 METAR MRLB NIL=
200508200600 METAR MRLB NIL=
200508200700 METAR MRLB NIL=
200508200800 METAR MRLB NIL=
200508200900 METAR MRLB NIL=
200508201000 METAR MRLB NIL=
200508201100 METAR MRLB NIL=
200508201200 METAR MRLB 201200Z 00000KT 9999 FEW015 BKN250 24/22 A2985 BR N/W=
200508201300 METAR MRLB 201300Z 04003KT 9999 FEW025 BKN250 25/23 A2988=
200508201400 METAR MRLB 201400Z 32003KT 9999 FEW030 SCT250 27/25 A2989=
200508201500 METAR MRLB 201500Z 34004KT 9999 FEW035 SCT250 29/26 A2990=
200508201600 METAR MRLB 201600Z 03006KT 9999 SCT035 SCT250 31/25 A2988=
200508201700 METAR MRLB 201700Z 05009KT 9999 FEW035 SCT250 32/24 A2987=
200508201800 METAR MRLB 201800Z 08009KT 9999 SCT035 BKN250 32/23 A2985=
200508201900 METAR MRLB 201900Z 10007KT 9999 SCT035 OVC250 33/24 A2982=
200508202000 METAR MRLB 202000Z 08010KT 9999 SCT030 OVC250 33/23 A2980=
200508202100 METAR MRLB 202100Z 12007KT 9999 SCT025 OVC240 31/22 A2979 RMK RN E NE N=
200508202200 METAR MRLB 202200Z 03004KT 9999 SCT030 BKN130 27/22 A2978=
200508202300 METAR MRLB 202300Z 03004KT 9999 FEW030 OVC130 26/23 A2979=
200508210000 METAR MRLB 210000Z 20005KT 9999 FEW035 BKN130 26/23 A2980=
200508210100 METAR MRLB NIL=
200508210200 METAR MRLB NIL=
200508210300 METAR MRLB NIL=
200508210400 METAR MRLB NIL=
200508210500 METAR MRLB NIL=
200508210600 METAR MRLB NIL=
200508210700 METAR MRLB NIL=
200508210800 METAR MRLB NIL=
200508210900 METAR MRLB NIL=
200508211000 METAR MRLB NIL=
200508211100 METAR MRLB NIL=
200508211200 METAR MRLB 211200Z 00000KT 9999 FEW030 OVC130 24/22 A2985 RMK CB DST NW=
200508211300 METAR MRLB 211300Z 00000KT 9999 FEW025 OVC130 25/23 A2988 RMK RN N NE=
200508211400 METAR MRLB 211400Z 00000KT 9999 FEW030 OVC130 26/24 A2988 RMK RN E=
200508211500 METAR MRLB 211500Z 26003KT 9999 FEW030 OVC120 26/24 A2990=
200508211600 METAR MRLB 211600Z 19003KT 9999 FEW030 OVC130 26/24 A2991 RMK RN N NE CB W=
200508211700 METAR MRLB 211700Z 00000KT 9999 FEW025 OVC140 27/24 A2990=
200508211800 METAR MRLB 211800Z 09003KT 9999 FEW025 OVC140 29/24 A2989 RMK RN S SW=
200508211900 METAR MRLB 211900Z 10006KT 9999 SCT030 OVC160 30/24 A2988 RMK RN SW=
200508212000 METAR MRLB 212000Z 19005KT 9999 SCT030 OVC160 29/24 A2984=
200508212100 METAR MRLB 212100Z 28005KT 9999 SCT025 OVC160 28/24 A2980=
200508212200 METAR MRLB 212200Z 30003KT 9999 FEW030 BKN250 29/22 A2975=
200508212300 METAR MRLB 212300Z 30005KT 9999 FEW020 OVC140 27/23 A2981=
200508220000 METAR MRLB 220000Z 27005KT 9999 FEW020 OVC140 27/23 A2981=
200508220100 METAR MRLB NIL=
200508220200 METAR MRLB NIL=
200508220300 METAR MRLB NIL=
200508220400 METAR MRLB NIL=
200508220500 METAR MRLB NIL=
200508220600 METAR MRLB NIL=
200508220700 METAR MRLB NIL=
200508220800 METAR MRLB NIL=
200508220900 METAR MRLB NIL=
200508221000 METAR MRLB NIL=
200508221100 METAR MRLB NIL=
200508221200 METAR MRLB 221200Z 05003KT CAVOK 23/22 A2983 RMK 8AS160=
200508221300 METAR MRLB 221300Z 23003KT CAVOK 24/23 A2984=
200508221400 METAR MRLB 221400Z 16003KT 9999 FEW010 OVC140 25/24 A2984=
200508221500 METAR MRLB 221500Z 19004KT 9999 FEW020 OVC220 27/25 A2986=
200508221600 METAR MRLB 221600Z 17006KT 9999 SCT025 OVC220 28/25 A2986=
200508221700 METAR MRLB 221700Z 20004KT 9999 SCT030 OVC240 30/26 A2986=
200508221800 METAR MRLB 221800Z 18005KT 9999 FEW020TCU SCT025 30/25 A2985=
200508221900 METAR MRLB 221900Z 15003KT 9999 -TSRA FEW015CB BKN120 27/23 A2982=
200508222000 METAR MRLB 222000Z 30003KT 9999 SCT020 BKN120 27/24 A2980 RMK CB E S RN N=
200508222100 METAR MRLB 222100Z 28004KT 9999 SCT020 OVC120 27/24 A2980 RN NE=
200508222200 METAR MRLB 222200Z 32004KT 9999 SCT015 OVC100 27/24 2980 TS NE=
200508222300 METAR MRLB 222300Z 07012KT 1000 TSRA FEW015CB BKN020 27/24 A2980=
200508230000 METAR MRLB 230000Z 10004KT 8000 -RA OVC020 22/21 A2984 TS DST SSW=
200508230100 METAR MRLB NIL=
200508230200 METAR MRLB NIL=
200508230300 METAR MRLB NIL=
200508230400 METAR MRLB NIL=
200508230500 METAR MRLB NIL=
200508230600 METAR MRLB NIL=
200508230700 METAR MRLB NIL=
200508230800 METAR MRLB NIL=
200508230900 METAR MRLB NIL=
200508231000 METAR MRLB NIL=
200508231100 METAR MRLB NIL=
200508231200 METAR MRLB 231200Z 00000KT 9999 FEW010 OVC130 23/21 A2985 RMK ST LOW NE=
200508231300 METAR MRLB 231300Z 00000KT 9999 FEW015 BKN140 23/22 A2986=
200508231400 METAR MRLB 231400Z 18003KT 9999 3000SW BR FEW003 SCT010 OVC250 24/23 A2987=
200508231500 METAR MRLB 231500Z 13003KT 9999 SCT025 OVC250 25/24 A2989=
200508231600 METAR MRLB 231600Z 00000KT 9999 SCT030 OVC250 26/25 A2989=
200508231700 METAR MRLB NIL=
200508231800 METAR MRLB NIL=
200508231900 METAR MRLB NIL=
200508232000 METAR MRLB NIL=
200508232100 METAR MRLB NIL=
200508232200 METAR MRLB NIL=
200508232300 METAR MRLB NIL=
200508240000 METAR MRLB NIL=
200508240100 METAR MRLB NIL=
200508240200 METAR MRLB NIL=
200508240300 METAR MRLB NIL=
200508240400 METAR MRLB NIL=
200508240500 METAR MRLB NIL=
200508240600 METAR MRLB NIL=
200508240700 METAR MRLB NIL=
200508240800 METAR MRLB NIL=
200508240900 METAR MRLB NIL=
200508241000 METAR MRLB NIL=
200508241100 METAR MRLB NIL=
200508241200 METAR MRLB NIL=
200508241300 METAR MRLB 241300Z 00000KT 9999 FEW020 OVC250 23/22 A2987=
200508241500 METAR MRLB 241500Z 00000KT 9999 FEW030 BKN250 25/24 A2989=
200508241600 METAR MRLB 241600Z 25003KT 9999 FEW035 BKN250 26/25 A2988=
200508241700 METAR MRLB 241700Z 00000KT 9999 SCT035 BKN250 27/25 A2989=
200508241800 METAR MRLB 241800Z 24004KT 9999 SCT030 BKN250 30/24 A2987 RMK RN DST E=
200508241900 METAR MRLB 241900Z 29008KT 9999 FEW020CB SCT030 OVC250 30/25 A2983 RMK TS DST E 8000N VCSH=
200508242000 METAR MRLB 242000Z 34011KT 9999 3000SW RA FEW020TCU SCT030 BKN130 25/23 A2985=
200508242100 METAR MRLB 242100Z 31003KT 9999 FEW030 BKN130 25/23 A2983=
200508242300 METAR MRLB 242300Z 00000KT 9999 FEW030 OVC140 24/23 A2985=
200508250000 METAR MRLB 250000Z 16003KT 9999 FEW025 BKN140 25/23 A2987=
200508250100 METAR MRLB NIL=
200508250200 METAR MRLB NIL=
200508250300 METAR MRLB NIL=
200508250400 METAR MRLB NIL=
200508250500 METAR MRLB NIL=
200508250600 METAR MRLB NIL=
200508250700 METAR MRLB NIL=
200508250800 METAR MRLB NIL=
200508250900 METAR MRLB NIL=
200508251000 METAR MRLB NIL=
200508251100 METAR MRLB NIL=
200508251200 METAR MRLB 251200Z 04003KT CAVOK 22/21 A2988 BR/W=
200508251300 METAR MRLB 251300Z 03005KT CAVOK 23/22 A2989=
200508251400 METAR MRLB 251400Z 04004KT CAVOK 25/23 A2981=
200508251500 METAR MRLB 251500Z 00000KT CAVOK 27/25 A2992=
200508251600 METAR MRLB 251600Z 00000KT 9999 FEW025 BKN120 29/25 A2992=
200508251700 METAR MRLB 251700Z 31004KT 9999 SCT025 BKN120 30/24 A2991=
200508251800 METAR MRLB 251800Z 27004KT 9999 SCT020 BKN120 30/24 A2989=
200508251900 METAR MRLB 251900Z 26005KT 9999 -RA SCT020 BKN250 31/24 A2986=
200508252000 METAR MRLB 252000Z 00000KT 9999 SCT025 BKN250 32/24 A2982=
200508252100 METAR MRLB 252100Z 27007KT 9999 SCT025 OVC250 31/25 A2980=
200508252200 METAR MRLB 252200Z 28008KT 9999 FEW020 OVC250 30/25 A2981 RN N TS/RN S SW=
200508252300 METAR MRLB 252300Z 23005KT 9999 -TS VCSH SCT010CB BKN120 28/25 A2984 VSBY S 7KM=
200508260000 METAR MRLB 260000Z 18006KT 9999 -RA SCT020TCU OVC100 24/22 A2986 TS S SW NW=
200508260100 METAR MRLB NIL=
200508260200 METAR MRLB NIL=
200508260300 METAR MRLB NIL=
200508260400 METAR MRLB NIL=
200508260500 METAR MRLB NIL=
200508260600 METAR MRLB NIL=
200508260700 METAR MRLB NIL=
200508260800 METAR MRLB NIL=
200508260900 METAR MRLB NIL=
200508261000 METAR MRLB NIL=
200508261100 METAR MRLB NIL=
200508261200 METAR MRLB 261200Z 05004KT 0100 FG VV/// 22/22 A2988=
200508261300 METAR MRLB 261300Z 00000KT 0400 FG VV/// 23/22 A2988=
200508261400 METAR MRLB 261400Z 14004KT 9999 SCT008 BKN250 25/24 RMK A2990 CB S SW=
200508261500 METAR MRLB 261500Z 20004KT 9999 FEW020 BKN250 27/23 A2992 CB S SW=
200508261600 METAR MRLB 261600Z 00000KT 9999 SCT030 BKN250 29/24 A2992=
200508261700 METAR MRLB 261700Z 00000KT 9999 SCT030 SCT250 31/24 A2990=
200508261800 METAR MRLB 261800Z 290005KT 9999 SCT030 31/24 A2987=
200508261900 METAR MRLB 261900Z 24006KT 9999 SCT030 SCT120 29/26 A2984 CB RN N S SW=
200508262000 METAR MRLB 262000Z 19005KT 2000 RA SCT0TCU BKN120 27/24 A2982=
200508262100 METAR MRLB 262100Z 04007KT 2000 RA SCT015 BKN120 24/23 A2983=
200508262300 METAR MRLB 262300Z 07004KT 9999 -RA FEW020 OVC120 24/22 A2983=
200508270000 METAR MRLB NIL=
200508270100 METAR MRLB NIL=
200508270200 METAR MRLB NIL=
200508270300 METAR MRLB NIL=
200508270400 METAR MRLB NIL=
200508270500 METAR MRLB NIL=
200508270600 METAR MRLB NIL=
200508270700 METAR MRLB NIL=
200508270800 METAR MRLB NIL=
200508270900 METAR MRLB NIL=
200508271000 METAR MRLB NIL=
200508271100 METAR MRLB NIL=
200508271200 METAR MRLB 271200Z 04003KT 9999 FEW025 BKN130 23/22 A2983=
200508271400 METAR MRLB 271400Z 16004KT 9999 FEW030 OVC250 26/23 A2986=
200508271500 METAR MRLB 271500Z 14003KT 9999 SCT030 OVC250 27/24 A2986=
200508271600 METAR MRLB 271600Z 17004KT 9999 SCT030 OVC250 28/25 A2986=
200508271700 METAR MRLB 271700Z 18005KT 9999 SCT035 BKN250 29/25 A2986=
200508271800 METAR MRLB 271800Z 17004KT 9999 SCT035 BKN250 31/24 A2983 RN DST S SW=
200508271900 METAR MRLB 271900Z 22010KT 5000 1500SW TS RA FEW015CB BKN025 25/23 A2985=
200508272000 METAR MRLB 272000Z 16003KT 9999 FEW025 BKN140 24/23 A2980 RNDST N=
200508272100 METAR MRLB 272100Z 16003KT 9999 SCT030 OVC140 26/24 A2978=
200508272200 METAR MRLB 272200Z 19004KT 9999 FEW030 BKN140 27/24 A2978=
200508272300 METAR MRLB 272300Z 17003KT 9999 FEW035 OVC240 27/24 A2978=
200508280000 METAR MRLB 280000Z 00000KT 9999 FEW035 OVC240 26/24 A2980=
200508280100 METAR MRLB NIL=
200508280200 METAR MRLB NIL=
200508280300 METAR MRLB NIL=
200508280400 METAR MRLB NIL=
200508280500 METAR MRLB NIL=
200508280600 METAR MRLB NIL=
200508280700 METAR MRLB NIL=
200508280800 METAR MRLB NIL=
200508280900 METAR MRLB NIL=
200508281000 METAR MRLB NIL=
200508281100 METAR MRLB NIL=
200508281200 METAR MRLB NIL=
200508281400 METAR MRLB 281400Z 19003KT 9999 FEW025 BKN250 26/24 A2984=
200508281500 METAR MRLB 281500Z 18005KT 9999 SCT030 BKN250 28/25 A2985=
200508281600 METAR MRLB 281600Z 17004KT 9999 SCT030 SCT250 30/24 A2985=
200508281700 METAR MRLB 281700Z 15004KT 9999 SCT035 SCT250 31/23 A2985=
200508281800 METAR MRLB 281800Z 22004KT 9999 SCT035 BKN250 31/23 A2982=
200508281900 METAR MRLB 281900Z 18010KT 9999 FEW020CB SCT030 OVC250 28/24 A2980 VIS 6000 SW/RA=
200508282000 METAR MRLB 282000Z 23005KT 9999 SCT020 BKN130 26/24 A2981=
200508282100 METAR MRLB 282100Z 05004KT 9999 -RA SCT020 OVC130 25/23 A2982=
200508282200 METAR MRLB 282200Z 13004KT 9999 -RA FEW010 SCT020 OVC120 25/23 A2981=
200508282300 METAR MRLB 282300Z 10007KT 9999 SCT015 OVC110 24/23 A2982 RMK RN DST NE=
200508290000 METAR MRLB 290000Z 12003KT 9999 SCT020 OVC110 24/23 A2984 RMK RN DST E=
200508290100 METAR MRLB NIL=
200508290200 METAR MRLB NIL=
200508290300 METAR MRLB NIL=
200508290400 METAR MRLB NIL=
200508290500 METAR MRLB NIL=
200508290600 METAR MRLB NIL=
200508290700 METAR MRLB NIL=
200508290800 METAR MRLB NIL=
200508290900 METAR MRLB NIL=
200508291000 METAR MRLB NIL=
200508291100 METAR MRLB NIL=
200508291200 METAR MRLB 291200Z 00000KT 0400 FG VV/// 22/21 A2988=
200508291300 METAR MRLB 291300Z 00000KT 9999 FEW003 OVC250 24/23 A2999 RMK 5000W BR=
200508291400 METAR MRLB 291400Z 27005KT 9999 FEW030 SCT100 BKN230 28/21 A2987 RMK CB RN DST NW NE E=
200508291500 METAR MRLB 291500Z 17004KT 9999 FEW020 SCT140 BKN250 26/24 A2992=
200508291700 METAR MRLB 291700Z 14003KT CAVOK 29/25 A2988=
200508291800 METAR MRLB 291800Z 16003KT CAVOK 29/26 A2985=
200508291900 METAR MRLB 291900Z 00000KT 9999 FEW030 SCT250 32/26 A2982=
200508292000 METAR MRLB 292000Z 27003KT 9999 SCT030 SCT250 33/26 A2980=
200508292100 METAR MRLB 292100Z 28009KT 9999 SCT020CB SCT120 31/25 A2979=
200508292200 METAR MRLB 292200Z 12003KT 9999 -RA FEW020 BKN120 25/22 A2981=
200508292300 METAR MRLB 292300Z 24004KT 9999 FEW020 BKN120 26/23 A2981=
200508300000 METAR MRLB 300000Z 27003KT 9999 -RA FEW025 OVC120 25/24 A2982=
200508300100 METAR MRLB NIL=
200508300200 METAR MRLB NIL=
200508300300 METAR MRLB NIL=
200508300400 METAR MRLB NIL=
200508300500 METAR MRLB NIL=
200508300600 METAR MRLB NIL=
200508300700 METAR MRLB NIL=
200508300800 METAR MRLB NIL=
200508300900 METAR MRLB NIL=
200508301000 METAR MRLB NIL=
200508301100 METAR MRLB NIL=
200508301200 METAR MRLB 301200Z 00000KT CAVOK 24/24 A2989=
200508301300 METAR MRLB 301300Z 25003KT 9999 FEW005 BKN130 25/24 A2992=
200508301400 METAR MRLB 301400Z 30003KT 9999 FEW010 SCT140 28/26 A2993=
200508301500 METAR MRLB 301500Z 03004KT 9999 FEW020 SCT140 29/26 A2991=
200508301600 METAR MRLB 301600Z 33003KT 9999 FEW025 SCT140 31/25 A2991=
200508301700 METAR MRLB 301700Z 25004KT 9999 FEW030 SCT140 31/26 A2990=
200508301800 METAR MRLB 301800Z 22003KT 9999 BKN030 33/26 A2989=
200508301900 METAR MRLB 301900Z 00000KT 9999 BKN030 32/27 A2985=
200508302000 METAR MRLB 302000Z 26007KT 9999 BKN030 32/26 A2983=
200508302100 METAR MRLB 302100Z 29009KT 9999 SCT030 31/25 A2981=
200508302200 METAR MRLB 302200Z 26009KT 9999 SCT030 BKN250 30/24 A2979=
200508302300 METAR MRLB 302300Z 26007KT 9999 FEW025TCU OVC250 30/25 A2979=
200508310000 METAR MRLB 310000Z 26005KT 9999 FEW025 OVC250 29/25 A2980=
200508310100 METAR MRLB NIL=
200508310200 METAR MRLB NIL=
200508310300 METAR MRLB NIL=
200508310400 METAR MRLB NIL=
200508310500 METAR MRLB NIL=
200508310600 METAR MRLB NIL=
200508310700 METAR MRLB NIL=
200508310800 METAR MRLB NIL=
200508310900 METAR MRLB NIL=
200508311000 METAR MRLB NIL=
200508311100 METAR MRLB NIL=
200508311200 METAR MRLB 311200Z 06004KT 9999 FEW020 OVC250 25/23 A2982=
200508311300 METAR MRLB 311300Z 00000KT 9999 FEW010 SCT025 OVC250 26/25 A2985=
200508311400 METAR MRLB 311400Z 07004KT 9999 SCT030 OVC240 27/25 A2985=
200508311500 METAR MRLB 311500Z 10005KT 9999 FEW030 OVC240 29/26 A2986=
200508311600 METAR MRLB 311600Z 13006KT 9999 FEW035 OVC250 31/26 A2986=
200508311700 METAR MRLB 311700Z 10004KT 9999 FEW035 OVC250 32/25 A2985=
200508311800 METAR MRLB 311800Z 09007KT 9999 FEW035 OVC250 33/24 A2980=
200508311900 METAR MRLB 311900Z 10007KT 9999 SCT035 BKN250 33/23 A2978=
200508312000 METAR MRLB 312000Z 04008KT 9999 FEW035 OVC250 34/23 A2976=
200508312100 METAR MRLB 312100Z 03006KT 9999 SCT035 OVC250 33/23 A2974=
200508312200 METAR MRLB 312200Z 03010KT 9999 SCT030 OVC240 30/23 A2973=
200508312300 METAR MRLB 312300Z 03004KT 9999 FEW030 OVC240 28/23 A2974=
200509010000 METAR MRLB 010000Z 00000KT 9999 FEW030 OVC240 27/23 A2977=
200509010100 METAR MRLB NIL=
200509010200 METAR MRLB NIL=
200509010300 METAR MRLB NIL=
200509010400 METAR MRLB NIL=
200509010500 METAR MRLB NIL=
200509010600 METAR MRLB NIL=
200509010700 METAR MRLB NIL=
200509010800 METAR MRLB NIL=
200509010900 METAR MRLB NIL=
200509011000 METAR MRLB NIL=
200509011100 METAR MRLB NIL=
200509011200 METAR MRLB 011200Z 00000KT 9999 FEW020 BKN250 23/22 A2978=
200509011300 METAR MRLB 011300Z 14005KT 9999 FEW030 BKN250 26/24 A2982=
200509011400 METAR MRLB 011400Z 10006KT 9999 FEW030 BKN250 29/25 A2983=
200509011500 METAR MRLB 011500Z 06007KT 9999 FEW035 BKN250 30/24 A2985=
200509011600 METAR MRLB 011600Z 10008KT 9999 SCT035 BKN250 31/23 A2986=
200509011700 METAR MRLB 011700Z 12007KT 9999 SCT035 OVC250 30/25 A2985=
200509011800 METAR MRLB 011800Z 07008KT 9999 SCT030 OVC240 32/25 A2982 RN DST S=
200509011900 METAR MRLB 011900Z 08007KT 9999 SCT030 BKN140 31/23 A2980 TS RN DST S SE=
200509012000 METAR MRLB 012000Z 17006KT 9999 SCT030 BKN130 29/23 A2979 RN DST S=
200509012100 METAR MRLB 012100Z 16008KT 9999 SCT025 BKN130 27/23 A2978=
200509012200 METAR MRLB 012200Z 19006KT 9999 SCT025 OVC120 26/22 A2977 RN DST N/E=
200509012300 METAR MRLB 012300Z 10007KT 1000 RA FEW010TCU BKN020 24/22 A2982=
200509020000 METAR MRLB 020000Z 18005KT 9999 FEW008 OVC100 24/22 A2983=
200509020100 METAR MRLB NIL=
200509020200 METAR MRLB NIL=
200509020300 METAR MRLB NIL=
200509020400 METAR MRLB NIL=
200509020500 METAR MRLB NIL=
200509020600 METAR MRLB NIL=
200509020700 METAR MRLB NIL=
200509020800 METAR MRLB NIL=
200509020900 METAR MRLB NIL=
200509021000 METAR MRLB NIL=
200509021100 METAR MRLB NIL=
200509021200 METAR MRLB 021200Z 18004KT 9999 FEW008 BKN140 22/22 A2987=
200509021300 METAR MRLB 021300Z 21006KT 2000 BR BKN005 23/22 A2988=
200509021400 METAR MRLB 021400Z 00000KT 9999 FEW005 BKN100 24/23 A2990=
200509021500 METAR MRLB 021500Z 00000KT 9999 SCT010 BKN090 25/24 A2990=
200509021600 METAR MRLB 021600Z 03003KT 9999 FEW020 BKN090 26/25 A2991=
200509021700 METAR MRLB 021700Z 00000KT 9999 FEW030 SCT120 OVC250 29/26 A2990=
200509021800 METAR MRLB 021800Z 00000KT 9999 SCT030 OVC250 30/26 A2988=
200509021900 METAR MRLB 021900Z 24004KT 9999 3000E RA SCT020TCU SCT100 29/24 A2985=
200509022000 METAR MRLB 022000Z 28012KT 9999 FEW010 SCT015 28/24 A2984=
200509022100 METAR MRLB 022100Z 28010KT 9999 FEW015 OVC120 27/23 A2983 RMK RN DST S SW=
200509022200 METAR MRLB 022200Z 30007KT 9999 -RA SCT008 SCT015 25/22 A2985 RMK 5000 W RA TS DST S=
200509022300 METAR MRLB 022300Z 20006KT 9999 -RA FEW08 OVC120 24/22 A2986 RMK TS DST W=
200509030000 METAR MRLB 030000Z 19003KT 9999 -RA FEW005 OVC100 23/21 A2988=
200509030100 METAR MRLB NIL=
200509030200 METAR MRLB NIL=
200509030300 METAR MRLB NIL=
200509030400 METAR MRLB NIL=
200509030500 METAR MRLB NIL=
200509030600 METAR MRLB NIL=
200509030700 METAR MRLB NIL=
200509030800 METAR MRLB NIL=
200509030900 METAR MRLB NIL=
200509031000 METAR MRLB NIL=
200509031100 METAR MRLB NIL=
200509031200 METAR MRLB 031200Z 00000KT 9999 FEW003 BKN030 23/22 A2990=
200509031300 METAR MRLB 031300Z 17003KT 9999 FEW005 BKN080 24/23 A2990=
200509031400 METAR MRLB 031400Z 00000KT 9999 SCT010 SCT080 24/23 A2992=
200509031500 METAR MRLB 031500Z 13005KT 9999 SCT020 BKN130 26/25 A2993=
200509031600 METAR MRLB 031600Z 12007KT 9999 BKN025 SCT250 28/26 A2993=
200509031700 METAR MRLB 031700Z 10005KT 9999 FEW030 SCT130 BKN250 29/25 A2990=
200509031800 METAR MRLB 031800Z 11006KT 9999 SCT030 BKN250 30/26 A2987=
200509031900 METAR MRLB 031900Z 12005KT 9999 FEW020 OVC120 30/24 S2985 RMK RN DST N NE=
200509032000 METAR MRLB 032000Z 05003KT 9999 -RA FEW015TCU OVC100 27/22 A2983 RMK 6000SW SHRA=
200509032100 METAR MRLB 032100Z 00000KT 9999 -RA FEW015 OVC120 26/22 A29840=
200509032200 METAR MRLB 032200Z 25005KT 9999 FEW020 OVC120 25/22 A2984=
200509032300 METAR MRLB 032300Z 00000KT CAVOK 25/23 A2984=
200509040000 METAR MRLB NIL=
200509040100 METAR MRLB NIL=
200509040200 METAR MRLB NIL=
200509040300 METAR MRLB NIL=
200509040400 METAR MRLB NIL=
200509040500 METAR MRLB NIL=
200509040600 METAR MRLB NIL=
200509040700 METAR MRLB NIL=
200509040800 METAR MRLB NIL=
200509040900 METAR MRLB NIL=
200509041000 METAR MRLB NIL=
200509041100 METAR MRLB NIL=
200509041200 METAR MRLB 041200Z 00000KT 0100FG VV/// 22/21 A2985=
200509041300 METAR MRLB 041300Z 00000KT 9999 FEW025 SCT250 24/23 A2988=
200509041400 METAR MRLB 041400Z 00000KT CAVOK 26/24 A2990=
200509041500 METAR MRLB 041500Z 00000KT CAVOK 28/25 A2991=
200509041600 METAR MRLB 041600Z 27003KT 9999 FEW030 BKN250 30/26 A2990=
200509041700 METAR MRLB 041700Z 09004KT 9999 SCT03 BKN250 31/25 A2988=
200509041800 METAR MRLB 041800Z 13004KT 9999 SCT035 BKN250 31/25 A2986=
200509041900 METAR MRLB 041900Z 12004KT 9999 SCT035 BKN250 33/25 A2982=
200509042000 METAR MRLB 042000Z 26003KT 9999 SCT035 SCT250 33/25 A2980=
200509042100 METAR MRLB 042100Z 27005KT 9999 SCT030 BKN250 32/25 A2977=
200509042200 METAR MRLB 042200Z 27009KT 9999 SCT030 OVC250 30/24 A2977=
200509042300 METAR MRLB 042300Z 27008KT 9999 SCT035 BKN250 29/24 A2978=
200509050000 METAR MRLB 050000Z 26005KT 9999 SCT030 OVC250 28/24 A2981 RMK RN DST S=
200509050100 METAR MRLB NIL=
200509050200 METAR MRLB NIL=
200509050300 METAR MRLB NIL=
200509050400 METAR MRLB NIL=
200509050500 METAR MRLB NIL=
200509050600 METAR MRLB NIL=
200509050700 METAR MRLB NIL=
200509050800 METAR MRLB NIL=
200509050900 METAR MRLB NIL=
200509051000 METAR MRLB NIL=
200509051100 METAR MRLB NIL=
200509051200 METAR MRLB 051200Z 00000KT 9999 SCT025 BKN250 24/23 A2983=
200509051300 METAR MRLB 051300Z 15003KT 9999 SCT030 BKN250 25/23 A2985=
200509051400 METAR MRLB 051400Z 00000KT 9999 SCT035 BKN250 26/25 A2984=
200509051500 METAR MRLB 051500Z 09006KT 9999 FEW035 BKN250 29/27 A2985=
200509051600 METAR MRLB 051600Z 27004KT 9999 SCT035 OVC250 31/27 A2985=
200509051700 METAR MRLB 051700Z 24003KT 9999 SCT035 BKN250 31/26 A2984=
200509051800 METAR MRLB 051800Z 20004KT 9999 SCT030 OVC250 31/25 A2983=
200509051900 METAR MRLB 051900Z 17003KT 9999 FEW020TCU SCT030 OVC250 31/26 A2981 RN SE=
200509052000 METAR MRLB 052000Z 28008KT 9999 FEW020CB SCT030 OVC240 29/24 A2979 RMK RN S SE SW=
200509052100 METAR MRLB 052100Z 09003KT 9999 4000SW -TS RA FEW020CB SCT030 OVC100 26/23 A2980=
200509052200 METAR MRLB 052200Z 19005KT 9999 SCT025 OVC120 25/23 A2981=
200509052300 METAR MRLB 052300Z 00000KT 9999 SCT020 OVC110 25/23 A2980 RN DST SW=
200509060000 METAR MRLB 060000Z 17006KT 9999 SCT015 OVC100 24/23 A2982=
200509060100 METAR MRLB NIL=
200509060200 METAR MRLB NIL=
200509060300 METAR MRLB NIL=
200509060400 METAR MRLB NIL=
200509060500 METAR MRLB NIL=
200509060600 METAR MRLB NIL=
200509060700 METAR MRLB NIL=
200509060800 METAR MRLB NIL=
200509060900 METAR MRLB NIL=
200509061000 METAR MRLB NIL=
200509061100 METAR MRLB NIL=
200509061200 METAR MRLB 061200Z 17004KT 0200 FG VV/// 23/23 A2979=
200509061300 METAR MRLB 061300Z 15005KT 9999 FEW020 OVC250 25/24 A2980=
200509061400 METAR MRLB 061400Z 09008KT 9999 FEW030 BKN250 28/27 A2982=
200509061500 METAR MRLB 061500Z 15006KT 9999 FEW035 BKN250 29/26 A2982=
200509061600 METAR MRLB 061600Z 08011KT 9999 SCT035 BKN250 30/25 A2984=
200509061700 METAR MRLB 061700Z 06017KT 9999 SCT035 OVC250 31/24 A2985=
200509061800 METAR MRLB 061800Z 10009KT 9999 SCT035 OVC250 32/24 A2982=
200509061900 METAR MRLB 061900Z 08009KT 9999 SCT035 OVC250 32/24 A2980=
200509062000 METAR MRLB 062000Z 09007KT 9999 FEW035 BKN130 30/23 A2979=
200509062100 METAR MRLB 062100Z 08009KT 9999 FEW035 OVC130 31/23 A2978=
200509062200 METAR MRLB 062200Z 06009KT 9999 FEW035 OVC130 30/23 A2978=
200509062300 METAR MRLB 062300Z 08005KT 9999 FEW040 OVC130 29/23 A2978=
200509070000 METAR MRLB 070000Z 08003KT CAVOK 28/23 A2979=
200509070100 METAR MRLB NIL=
200509070200 METAR MRLB NIL=
200509070300 METAR MRLB NIL=
200509070400 METAR MRLB NIL=
200509070500 METAR MRLB NIL=
200509070600 METAR MRLB NIL=
200509070700 METAR MRLB NIL=
200509070800 METAR MRLB NIL=
200509070900 METAR MRLB NIL=
200509071000 METAR MRLB NIL=
200509071100 METAR MRLB NIL=
200509071200 METAR MRLB 071200Z 00000KT CAVOK 23/21 A2981=
200509071300 METAR MRLB 071300Z 19003KT CAVOK 25/23 A2982=
200509071400 METAR MRLB 071400Z 16003KT CAVOK 26/24 A2985=
200509071500 METAR MRLB 071500Z 17005KT CAVOK 28/25 A2985 BKN250=
200509071600 METAR MRLB 071600Z 18008KT 9999 FEW035 SCT130 BKN250 30/26 A2986=
200509071700 METAR MRLB 071700Z 11005KT 9999 FEW035 SCT180 BKN250 32/25 A2985=
200509071800 METAR MRLB 071800Z 12003KT 9999 FEW035 SCT140 BKN250 33/25 A2983=
200509071900 METAR MRLB 071900Z 26006KT 9999 FEW035 SCT130 BKN250 32/25 A2980=
200509072000 METAR MRLB 072000Z 27008KT 9999 SCT035 SCT250 32/25 A2981=
200509072100 METAR MRLB 072100Z 27008KT 9999 SCT035 BKN250 31/24 2977=
200509072200 METAR MRLB 072200Z 29003KT 9999 SCT035 BKN250 30/25 A2976=
200509072300 METAR MRLB 072300Z 30008KT 9999 FEW025 BKN130 28/24 A2977=
200509080000 METAR MRLB 080000Z 27005KT 9999 FEW025 OVC140 28/24 A2978 RMK CB DST S=
200509080100 METAR MRLB NIL=
200509080200 METAR MRLB NIL=
200509080300 METAR MRLB NIL=
200509080400 METAR MRLB NIL=
200509080500 METAR MRLB NIL=
200509080600 METAR MRLB NIL=
200509080700 METAR MRLB NIL=
200509080800 METAR MRLB NIL=
200509080900 METAR MRLB NIL=
200509081000 METAR MRLB NIL=
200509081100 METAR MRLB NIL=
200509081200 METAR MRLB NIL=
200509081300 METAR MRLB 081300Z 07004KT 9999 FEW030 BKN250 27/25 A2984=
200509081400 METAR MRLB 081400Z 00000KT 9999 FEW030 BKN250 29/26 A2986=
200509081500 METAR MRLB 081500Z 07011KT 9999 SCT040 BKN250 29/25 A2987=
200509081600 METAR MRLB 081600Z 09010KT 9999 FEW035 SCT130 OVC250 30/24 A2987=
200509081700 METAR MRLB 081700Z 06012KT 9999 FEW035 SCT130 BKN250 33/25 A2986=
200509081800 METAR MRLB 081800Z 05012KT 9999 SCT035 BKN130 31/23 A2984=
200509081900 METAR MRLB 081900Z 07013KT 9999 FEW035 BKN140 32/22 A2981=
200509082000 METAR MRLB 082000Z 05010KT 9999 FEW035 OVC140 32/22 A2977=
200509082100 METAR MRLB 082100Z 05004KT 9999 FEW035 OVC130 31/22 A2976=
200509082200 METAR MRLB 082200Z 07009KT 9999 FEW035 BKN130 30/23 A2977=
200509082300 METAR MRLB 082300Z 09010KT 9999 FEW035 BKN140 29/21 A2977=
200509090000 METAR MRLB 090000Z 06008KT 9999 FEW035 BKN140 28/21 A2980=
200509090100 METAR MRLB NIL=
200509090200 METAR MRLB NIL=
200509090300 METAR MRLB NIL=
200509090400 METAR MRLB NIL=
200509090500 METAR MRLB NIL=
200509090600 METAR MRLB NIL=
200509090700 METAR MRLB NIL=
200509090800 METAR MRLB NIL=
200509090900 METAR MRLB NIL=
200509091000 METAR MRLB NIL=
200509091100 METAR MRLB NIL=
200509091200 METAR MRLB 091200Z 16004KT 9999 FEW030 BKN250 23/22 A2982=
200509091300 METAR MRLB 091300Z 36004KT 9999 FEW030 OVC250 25/24 A2984=
200509091400 METAR MRLB 091400Z 00000KT 9999 FEW035 OVC250 29/26 A2986=
200509091500 METAR MRLB 091500Z 07012KT CAVOK 30/25 A2985=
200509091600 METAR MRLB 091600Z 07013KT 9999 FEW035 BKN250 31/24 A2985=
200509091700 METAR MRLB 091700Z 08011KT 9999 FEW035 OVC250 32/24 A2984=
200509091800 METAR MRLB 091800Z 08013KT 9999 SCT035 OVC250 32/24 A2982=
200509091900 METAR MRLB 091900Z 06012KT 9999 FEW035 BKN250 32/24 A2978=
200509092000 METAR MRLB 092000Z 06011KT 9999 FEW035 BKN250 33/24 A2976=
200509092100 METAR MRLB 092100Z 07011KT 9999 SCT035 OVC250 33/23 A2976 RN NE=
200509092200 METAR MRLB 092200Z 06013KT 9999 SCT035 OVC250 32/22 A2975=
200509092300 METAR MRLB 092300Z 08012KT 9999 SCT035 OVC250 30/21 A2977=
200509100000 METAR MRLB 100000Z 09005KT 9999 SCT030 BKN130 29/22 A2980 RN S=
200509100100 METAR MRLB NIL=
200509100200 METAR MRLB NIL=
200509100300 METAR MRLB NIL=
200509100400 METAR MRLB NIL=
200509100500 METAR MRLB NIL=
200509100600 METAR MRLB NIL=
200509100700 METAR MRLB NIL=
200509100800 METAR MRLB NIL=
200509100900 METAR MRLB NIL=
200509101000 METAR MRLB NIL=
200509101100 METAR MRLB NIL=
200509101200 METAR MRLB 101200Z 00000KT CAVOK 24/22 A2982=
200509101300 METAR MRLB 101300Z 00000KT 9999 FEW010 OVC130 24/23 A2984=
200509101400 METAR MRLB 101400Z 12004KT 9999 FEW035 BKN130 27/25 A2986=
200509101500 METAR MRLB 101500Z 12011KT 9999 FEW045 OVC130 28/25 A2987=
200509101600 METAR MRLB 101600Z 17006KT 9999 FEW045 SCT130 BKN250 29/24 A2989=
200509101700 METAR MRLB 101700Z 09010KT 9999 FEW045 OVC250 31/23 A2988=
200509101800 METAR MRLB 101800Z 09008KT 9999 SCT045 OVC250 31/22 A2987=
200509101900 METAR MRLB 101900Z 08007KT 9999 SCT040 SCT130 OVC250 32/22 A2983=
200509102000 METAR MRLB 102000Z 08009KT 9999 FEW035 SCT130 OVC250 32/23 A2981=
200509102100 METAR MRLB 102100Z 0809KT 9999 FEW035 OVC250 32/23 A2980 CB DST E=
200509102200 METAR MRLB 102200Z 08011KT 9999 FEW035 BKN130 32/23 A2979=
200509102300 METAR MRLB 102300Z 11005KT CAVOK 30/22 A2979=
200509110000 METAR MRLB 110000Z 13007KT CAVOK 28/21 A2980=
200509110100 METAR MRLB NIL=
200509110200 METAR MRLB NIL=
200509110300 METAR MRLB NIL=
200509110400 METAR MRLB NIL=
200509110500 METAR MRLB NIL=
200509110600 METAR MRLB NIL=
200509110700 METAR MRLB NIL=
200509110800 METAR MRLB NIL=
200509110900 METAR MRLB NIL=
200509111000 METAR MRLB NIL=
200509111100 METAR MRLB NIL=
200509111200 METAR MRLB 111200Z 00000KT CAVOK 24/22 A2985=
200509111300 METAR MRLB 111300Z 25003KT CAVOK 25/23 A2986=
200509111400 METAR MRLB 111400Z 24004KT CAVOK 28/25 A2987=
200509111500 METAR MRLB 111500Z 11004KT CAVOK 31/27 A2989=
200509111600 METAR MRLB NIL=
200509111700 METAR MRLB 111700Z 09011KT 9999 SCT035 BKN130 33/25 A2988=
200509111800 METAR MRLB 111800Z 09010KT 9999 SCT035 BKN130 32/23 A2987=
200509111900 METAR MRLB 111900Z 36013KT 9999 SCT035 SCT130 33/23 A2984=
200509112000 METAR MRLB 112000Z 08010KT 9999 SCT035 BKN130 33/23 A2983=
200509112100 METAR MRLB 112100Z 34004KT 9999 SCT035 33/24 A2981=
200509112200 METAR MRLB 112200Z 07018KT 9999 FEW035 BKN130 32/22 A2981=
200509112300 METAR MRLB 112300Z 09013KT 9999 FEW035 BKN130 30/21 A2981=
200509120000 METAR MRLB 120000Z 09013KT 9999 FEW040 OVC140 29/22 A2982=
200509120100 METAR MRLB NIL=
200509120200 METAR MRLB NIL=
200509120300 METAR MRLB NIL=
200509120400 METAR MRLB NIL=
200509120500 METAR MRLB NIL=
200509120600 METAR MRLB NIL=
200509120700 METAR MRLB NIL=
200509120800 METAR MRLB NIL=
200509120900 METAR MRLB NIL=
200509121000 METAR MRLB NIL=
200509121100 METAR MRLB NIL=
200509121200 METAR MRLB 121200Z 16003KT 9999 FEW030 BKN250 24/20 A2983=
200509121300 METAR MRLB 121300Z 15005KT 9999 FEW030 BKN250 25/23 A2985=
200509121400 METAR MRLB 121400Z 11005KT 9999 FEW035 OVC250 29/25 A2987=
200509121500 METAR MRLB 121500Z 09008KT 9999 FEW035 BKN250 31/24 A2988=
200509121600 METAR MRLB 121600Z 07014KT 9999 FEW035 SCT130 OVC250 32/24 A2988=
200509121700 METAR MRLB 121700Z 08010KT 9999 FEW035 SCT130 OVC250 32/23 A2988=
200509121800 METAR MRLB 121800Z 08009KT 9999 FEW035 OVC240 32/23 A2986=
200509121900 METAR MRLB 121900Z 09012KT 9999 SCT035 OVC240 33/24 A2984=
200509122000 METAR MRLB 122000Z 06012KT 9999 SCT035 OVC240 34/24 A2981=
200509122100 METAR MRLB 122100Z 8012KT 9999 FEW035 OVC240 33/23 A2980=
200509122200 METAR MRLB 122200Z 05010KT 9999 FEW035 OVC240 31/22 A2980=
200509122300 METAR MRLB 122300Z 09004KT 9999 FEW035 OVC240 30/23 A2982=
200509130000 METAR MRLB 130000Z 13003KT 9999 FEW030 OVC240 29/23 A2983=
200509130100 METAR MRLB NIL=
200509130200 METAR MRLB NIL=
200509130300 METAR MRLB NIL=
200509130400 METAR MRLB NIL=
200509130500 METAR MRLB NIL=
200509130600 METAR MRLB NIL=
200509130700 METAR MRLB NIL=
200509130800 METAR MRLB NIL=
200509130900 METAR MRLB NIL=
200509131000 METAR MRLB NIL=
200509131100 METAR MRLB NIL=
200509131200 METAR MRLB 131200Z 13003KT 9999 -RA SCT020 BKN120 24/23 A2986=
200509131300 METAR MRLB 131300Z 00000KT 9999 SCT025 BKN130 25/24 A2987=
200509131400 METAR MRLB 131400Z 04003KT 9999 SCT030 BKN130 26/24 A2991=
200509131500 METAR MRLB 131500Z 10004KT 9999 SCT030 OVC130 26/24 A2992 RMK RN DST NE=
200509131600 METAR MRLB 131600Z 12007KT 9999 FEW035 BKN130 27/25 A2990=
200509131700 METAR MRLB 131700Z 13008KT 9999 FEW035 OVC130 28/24 A2989=
200509131800 METAR MRLB 131800Z 13007KT 9999 SCT030 OVC120 29/24 A2989 RMK RN DST S=
200509131900 METAR MRLB 131900Z 16010KT 9999 FEW020 SCT035 OVC120 25/21 A2987 RMK 6000 NE RA=
200509132000 METAR MRLB 132000Z 13005KT 9999 SCT025 OVC140 25/22 A2985=
200509132100 METAR MRLB 132100Z 12005KT 9999 FEW030 OVC140 27/23 A2984=
200509132200 METAR MRLB 132200Z 17005KT 9999 FEW035 OVC140 26/23 A2984=
200509132300 METAR MRLB 132300Z 00000KT 9999 FEW035 OVC140 26/23 A2985=
200509140000 METAR MRLB 140000Z 00000KT 9999 FEW035 OVC130 25/23 A2986=
200509140100 METAR MRLB NIL=
200509140200 METAR MRLB NIL=
200509140300 METAR MRLB NIL=
200509140400 METAR MRLB NIL=
200509140500 METAR MRLB NIL=
200509140600 METAR MRLB NIL=
200509140700 METAR MRLB NIL=
200509140800 METAR MRLB NIL=
200509140900 METAR MRLB NIL=
200509141000 METAR MRLB NIL=
200509141100 METAR MRLB NIL=
200509141200 METAR MRLB 141200Z 05005KT CAVOK 23/21 A2989=
200509141300 METAR MRLB 141300Z 00000KT CAVOK 23/22 A2989=
200509141400 METAR MRLB 141400Z 23004KT 9999 FEW010 BKN140 24/23 A2992=
200509141500 METAR MRLB 141500Z 17003KT 9999 FEW025 BKN250 27/26 A2994=
200509141600 METAR MRLB 141600Z 18004KT 9999 SCT030 BKN130 29/26 A2995=
200509141700 METAR MRLB 141700Z 23004KT 9999 SCT030 BKN250 30/25 A2992=
200509141800 METAR MRLB 141800Z 20003KT 9999 SCT030 BKN250 31/24 A2989=
200509141900 METAR MRLB 141900Z 27007KT 9999 SCT020 BKN250 31/24 A2985 RMK RN DIST N NE E=
200509142000 METAR MRLB 142000Z 07016KT 1000 TSRA FEW010CB BKN025 23/18 A2987=
200509142100 METAR MRLB 142100Z 29009KT 9999 -RA FEW025 OVC120 23/20 A2984 RMK S SW=
200509142200 METAR MRLB 142200Z 00000KT 9999 -RA FEW025 OVC120 23/21 A2986=
200509142300 METAR MRLB 142300Z 00000KT 9999 FEW020 OVC120 23/22 A2987=
200509150000 METAR MRLB 150000Z 00000KT 9999 FEW020 OVC120 24/22 A2988=
200509150100 METAR MRLB NIL=
200509150200 METAR MRLB NIL=
200509150300 METAR MRLB NIL=
200509150400 METAR MRLB NIL=
200509150500 METAR MRLB NIL=
200509150600 METAR MRLB NIL=
200509150700 METAR MRLB NIL=
200509150800 METAR MRLB NIL=
200509150900 METAR MRLB NIL=
200509151000 METAR MRLB NIL=
200509151100 METAR MRLB NIL=
200509151200 METAR MRLB 151200Z 26004KT CAVOK 23/22 A2988=
200509151300 METAR MRLB 151300Z 23004KT CAVOK 25/24 A2990=
200509151400 METAR MRLB 151400Z 00000KT CAVOK 27/25 A2993=
200509151500 METAR MRLB 151500Z 08009KT CAVOK 29/26 A2994 NOSIG=
200509151600 METAR MRLB 151600Z 08010KT 9999 FEW030 SCT130 OVC270 30/25 A2993=
200509151700 METAR MRLB 151700Z 08008KT 9999 SCT035 OVC250 30/23 A2990=
200509151800 METAR MRLB 151800Z 07009KT 9999 FEW035 OVC250 31/24 A2988=
200509151900 METAR MRLB 151900Z 09010KT 9999 FEW035 OVC250 32/24 A2986=
200509152000 METAR MRLB 152000Z 8010KT 9999 FEW040 OVC250 32/23 A2984=
200509152100 METAR MRLB 152100Z 09012KT 9999 FEW040 NBKN250 31/21 A2982=
200509152200 METAR MRLB 152200Z 05013KT CAVOK 31/21 A2983=
200509152300 METAR MRLB 152300Z 06010KT CAVOK 31/21 A2984=
200509160000 METAR MRLB 160000Z 07008KT CAVOK 28/20 A2985=
200509160100 METAR MRLB NIL=
200509160200 METAR MRLB NIL=
200509160300 METAR MRLB NIL=
200509160400 METAR MRLB NIL=
200509160500 METAR MRLB NIL=
200509160600 METAR MRLB NIL=
200509160700 METAR MRLB NIL=
200509160800 METAR MRLB NIL=
200509160900 METAR MRLB NIL=
200509161000 METAR MRLB NIL=
200509161100 METAR MRLB NIL=
200509161200 METAR MRLB 161200Z 20004KT 9999 FEW035 BKN250 23/22 A2986=
200509161300 METAR MRLB 161300Z 27003KT 9999 FEW035 SCT250 25/23 A2987=
200509161400 METAR MRLB 161400Z 18006KT 9999 FEW035 BKN250 27/24 A2991=
200509161500 METAR MRLB 161500Z 20006KT 9999 FEW035 BKN140 28/25 A2993=
200509161600 METAR MRLB 161600Z 07010KT 9999 FEW040 OVC140 30/24 A2994=
200509161700 METAR MRLB 161700Z 08009KT 9999 SCT040 BKN140 31/23 A2993=
200509161800 METAR MRLB 161800Z 100007KT 9999 SCT035 BKN140 31/23 A2990=
200509161900 METAR MRLB 161900Z 08007KT 9999 FEW035 BKN140 32/24 A2984=
200509162000 METAR MRLB 162000Z 0601KKT 9999 FEW035 SCT140 OVC250 33/23 A2980=
200509162100 METAR MRLB 162100Z 08010KT 9999 FEW035 BKN130 30/21 A2977=
200509162200 METAR MRLB 162200Z 12010KT 9999 FEW035 OVC130 30/22 A2978=
200509162300 METAR MRLB NIL=
200509170000 METAR MRLB 170000Z 06009KT 9999 FEW035 BKN130 29/21 A2981=
200509170100 METAR MRLB NIL=
200509170200 METAR MRLB NIL=
200509170300 METAR MRLB NIL=
200509170400 METAR MRLB NIL=
200509170500 METAR MRLB NIL=
200509170600 METAR MRLB NIL=
200509170700 METAR MRLB NIL=
200509170800 METAR MRLB NIL=
200509170900 METAR MRLB NIL=
200509171000 METAR MRLB NIL=
200509171100 METAR MRLB NIL=
200509171200 METAR MRLB 171200Z 18003KT 9999 FEW030 BKN140 23/21 A2983=
200509171300 METAR MRLB 171300Z 19006KT 9999 FEW030 SCT140 25/23 A2986=
200509171400 METAR MRLB 171400Z 04006KT 9999 FEW035 BKN250 28/24 A2986=
200509171500 METAR MRLB 171500Z 05004KT 9999 FEW035 BKN250 29/24 A2986=
200509171600 METAR MRLB 171600Z 09006KT 9999 FEW035 SCT250 31/24 A2986=
200509171700 METAR MRLB 171700Z 10011KT 9999 FEW035 BKN250 32/24 A2986=
200509171800 METAR MRLB 171800Z 09007KT 9999 FEW035 BKN250 32/23 A2983=
200509171900 METAR MRLB 171900Z 08009KT 9999 SCT035 BKN250 33/23 A2980=
200509172000 METAR MRLB 172000Z 08007KT 9999 SCT035 OVC250 34/23 A2977=
200509172100 METAR MRLB 172100Z 09005KT 9999 SCT035 OVC250 33/23 A2975=
200509172200 METAR MRLB 172200Z 06010KT 9999 SCT030 BKN240 30/22 A2975 RNK RN DST SW=
200509172300 METAR MRLB 172300Z 08009KT 9999 SCT030 OVC240 29/22 A2975=
200509180000 METAR MRLB 180000Z 04005KT 9999 SCT025 OVC240 29/22 A2978 RMK RN DST SW=
200509180100 METAR MRLB NIL=
200509180200 METAR MRLB NIL=
200509180300 METAR MRLB NIL=
200509180400 METAR MRLB NIL=
200509180500 METAR MRLB NIL=
200509180600 METAR MRLB NIL=
200509180700 METAR MRLB NIL=
200509180800 METAR MRLB NIL=
200509180900 METAR MRLB NIL=
200509181000 METAR MRLB NIL=
200509181100 METAR MRLB NIL=
200509181200 METAR MRLB 181200Z 15003KT CAVOK 23/21 A2979=
200509181300 METAR MRLB 181300Z 24004KT CAVOK 25/23 A2981=
200509181400 METAR MRLB 181400Z 24003KT CAVOK 28/25 A2984=
200509181500 METAR MRLB 181500Z 20004KT CAVOK 30/24 A2983=
200509181600 METAR MRLB 181600Z 08010KT 9999 FEW035 OVC250 31/24 A2984=
200509181700 METAR MRLB 181700Z 08012KT 9999 FEW035 OVC250 32/23 A2981=
200509181800 METAR MRLB 181800Z 08013KT 9999 FEW035 OVC250 33/23 A2980=
200509181900 METAR MRLB 181900Z 07008KT 9999 SCT035 OVC250 33/26 A2976=
200509182000 METAR MRLB 182000Z 11009KT 9999 FEW035 SCT140 OVC250 32/22 A2973=
200509182100 METAR MRLB 182100Z 06014KT 9999 SCT035 OVC250 31/21 A2972=
200509182200 METAR MRLB 182200Z 08007KT 9999 FEW035 OVC250 31/22 A2973=
200509182300 METAR MRLB 182300Z 08007KT 9999 FEW035 SCT130 OVC250 30/22 A2975=
200509190000 METAR MRLB 190000Z 08005KT CAVOK 29/22 A2976=
200509190100 METAR MRLB NIL=
200509190200 METAR MRLB NIL=
200509190300 METAR MRLB NIL=
200509190400 METAR MRLB NIL=
200509190500 METAR MRLB NIL=
200509190600 METAR MRLB NIL=
200509190700 METAR MRLB NIL=
200509190800 METAR MRLB NIL=
200509190900 METAR MRLB NIL=
200509191000 METAR MRLB NIL=
200509191100 METAR MRLB NIL=
200509191200 METAR MRLB 191200Z 00000KT CAVOK 24/22 A2982=
200509191300 METAR MRLB 191300Z 00000KT 9999 FEW008 BKN130 25/23 A2984=
200509191400 METAR MRLB 191400Z 21005KT CAVOK 27/25 A2987=
200509191500 METAR MRLB 191500Z 23003KT 9999 FEW030 BKN130 28/26 A2988=
200509191600 METAR MRLB 191600Z 00000KT 9999 SCT030 BKN270 30/25 A2987=
200509191700 METAR MRLB 191700Z 09006KT 9999 SCT035 SCT140 BKN270 32/25 A2985=
200509191800 METAR MRLB 191800Z 10004KT 9999 SCT035 BKN250 32/24 A2983=
200509191900 METAR MRLB 191900Z 07006KT 9999 SCT035 BKN250 33/24 A2979=
200509192100 METAR MRLB 192100Z 26007KT 9999 SCT020TCU BKN250 31/24 A2976 RN S SW=
200509192200 METAR MRLB 192200Z 20012KT 9999 2000SW -RA SCT010 BKN020 25/22 A2978=
200509192300 METAR MRLB 192300Z 15003KT 9999 -RA FEW020 OVC120 25/24 A2981 TS NW=
200509200000 METAR MRLB 200000Z 00000KT 9999 -RA OVC020 25/24 A2982 TS N=
200509200100 METAR MRLB NIL=
200509200200 METAR MRLB NIL=
200509200300 METAR MRLB NIL=
200509200400 METAR MRLB NIL=
200509200500 METAR MRLB NIL=
200509200600 METAR MRLB NIL=
200509200700 METAR MRLB NIL=
200509200800 METAR MRLB NIL=
200509200900 METAR MRLB NIL=
200509201000 METAR MRLB NIL=
200509201100 METAR MRLB NIL=
200509201200 METAR MRLB 201200Z 03004KT CAVOK 23/22 A2987=
200509201300 METAR MRLB 201300Z 00000KT 9999 FEW030 SCT130 OVC250 24/23 A2991=
200509201400 METAR MRLB 201400Z 15003KT 9999 SCT030 BKN140 26/24 A2993=
200509201500 METAR MRLB 201500Z 15004KT 9999 SCT035 BKN140 27/25 A2993=
200509201600 METAR MRLB 201600Z 14003KT 9999 SCT030 OVC140 27/24 A2993=
200509201700 METAR MRLB 201700Z 25005KT 9999 SCT035 BKN130 29/24 A2993=
200509201800 METAR MRLB 201800Z 13007KT 9999 SCT035 OVC130 30/25 A2990=
200509201900 METAR MRLB 201900Z 14006KT 9999 SCT030 BKN130 30/22 A2983=
200509202000 METAR MRLB 202000Z 15009KT 9999 SCT030 BKN130 29/21 A2980 RN SW=
200509202100 METAR MRLB 202100Z 19006KT 9999 SCT030 BKN130 27/23 A2980=
200509202200 METAR MRLB 202200Z 18004KT 9999 FEW030 BKN140 28/23 A2981=
200509202300 METAR MRLB 202300Z 12003KT 9999 FEW035 OVC140 27/23 A2981=
200509210000 METAR MRLB 210000Z 00000KT 9999 SCT020 OVC120 24/22 A2984=
200509210100 METAR MRLB NIL=
200509210200 METAR MRLB NIL=
200509210300 METAR MRLB NIL=
200509210400 METAR MRLB NIL=
200509210500 METAR MRLB NIL=
200509210600 METAR MRLB NIL=
200509210700 METAR MRLB NIL=
200509210800 METAR MRLB NIL=
200509210900 METAR MRLB NIL=
200509211000 METAR MRLB NIL=
200509211100 METAR MRLB NIL=
200509211200 METAR MRLB 211200Z 10004KT 9999 FEW030 BKN130 24/22 A2983 RMK LOW ST SW=
200509211300 METAR MRLB NIL=
200509211400 METAR MRLB NIL=
200509211500 METAR MRLB NIL=
200509211600 METAR MRLB 211600Z 15007KT 9999 SCT035 BKN140 29/24 A2986=
200509211700 METAR MRLB 211700Z 19006KT 9999 -RA FEW020 SCT030 BKN130 27/24 A2985=
200509211800 METAR MRLB 211800Z 16004KT 9999 SCT020 OVC120 25/23 A2984 RN DST S SW N=
200509211900 METAR MRLB 211900Z 13006KT 9999 FEW010 SCT025 BKN130 27/24 A2981 RN DST S SE N=
200509212000 METAR MRLB 212000Z 20004KT 7000 2000N RA FEW010 BKN020 25/24 A2979=
200509212100 METAR MRLB 212100Z 34005KT 9999 FEW015 SCT025 OVC120 25/24 A2978 RN DST SW N=
200509212200 METAR MRLB 212200Z 07008KT 9999 SCT010 BKN020 24/23 A2980 6000E/RA=
200509212300 METAR MRLB 212300Z 06003KT 9999 SCT015 OVC100 24/23 A2981 RN DST E NE SW=
200509220000 METAR MRLB 220000Z 00000KT 9999 -RA SCT015 OVC100 24/22 A2983=
200509220100 METAR MRLB NIL=
200509220200 METAR MRLB NIL=
200509220300 METAR MRLB NIL=
200509220400 METAR MRLB NIL=
200509220500 METAR MRLB NIL=
200509220600 METAR MRLB NIL=
200509220700 METAR MRLB NIL=
200509220800 METAR MRLB NIL=
200509220900 METAR MRLB NIL=
200509221000 METAR MRLB NIL=
200509221100 METAR MRLB NIL=
200509221200 METAR MRLB 221200Z 1003KT 9999 FEW005 OVC120 22/22 A2985=
200509221300 METAR MRLB 221300Z 11004KT 9999 SCT008 OVC120 23/22 A2984=
200509221400 METAR MRLB 221400Z 14006KT 9999 SCT010 OVC120 24/23 A2986=
200509221500 METAR MRLB 221500Z 13004KT 9999 -RA SCT015 OVC120 24/22 A2986 VIS 6000/SW=
200509221600 METAR MRLB 221600Z 11006KT 9999 -DZ SCT010 OVC120 25/23 A2987=
200509221700 METAR MRLB 221700Z 12004KT 9999 -RA BKN010 25/23 A2988=
200509221800 METAR MRLB 221800Z 14003KT 3000 -RA BR OVC010 25/24 A2987=
200509221900 METAR MRLB 221900Z 21004KT 1000 RA SCT010 OVC100 24/24 A2984=
200509222000 METAR MRLB 222000Z 14005KT 4000 -RA BKN010 24/24 A2981 VIS 9999 W=
200509222100 METAR MRLB 222100Z 21006KT 5000 -RA SCT010 OVC100 25/24 A2979 RMK 9999W=
200509222200 METAR MRLB 222200Z 18004KT 9999 -RA SCT010 OVC120 25/24 A2980=
200509222300 METAR MRLB 222300Z 31006KT 1000 +RA OVC010 23/23 A2981=
200509230000 METAR MRLB 230000Z 00000KT 5000 RA OVC010 23/23 A2982=
200509230100 METAR MRLB NIL=
200509230200 METAR MRLB NIL=
200509230300 METAR MRLB NIL=
200509230400 METAR MRLB NIL=
200509230500 METAR MRLB NIL=
200509230600 METAR MRLB NIL=
200509230700 METAR MRLB NIL=
200509230800 METAR MRLB NIL=
200509230900 METAR MRLB NIL=
200509231000 METAR MRLB NIL=
200509231100 METAR MRLB NIL=
200509231200 METAR MRLB NIL=
200509231300 METAR MRLB 231300Z 15004KT 9999 SCT008 OVC100 23/23 A2990=
200509231400 METAR MRLB 231400Z 15004KT 9999 SCT008 OVC100 24/23 A2992 RMK RN DST SW=
200509231500 METAR MRLB 231500Z 19005KT 9999 -RA SCT010 BKN100 25/24 A2992=
200509231600 METAR MRLB 231600Z 21004KT 9999 -RA OVC010 26/24 A2991=
200509231700 METAR MRLB 231700Z 26010KT 9999 SCT010 BKN100 27/23 A2991 RMK RN DST ARND=
200509231800 METAR MRLB 231800Z 26011KT 9999 SCT010 OVC100 28/23 A2990 RMK RN DST N NE SW=
200509231900 METAR MRLB 231900Z 26013KT 9999 BKN015 28/23 A2987 RMK RN DST N E SW=
200509232000 METAR MRLB 232000Z 25012KT 9999 BKN015 27/23 A2985 RMK RN DST N NE E S SW=
200509232100 METAR MRLB 232100Z 26010KT 9999 OVC015 26/23 A2984=
200509232200 METAR MRLB 232200Z 24010KT 9999 BKN015 26/23 A2984=
200509232300 METAR MRLB 232300Z 24009KT 9999 4000E -RA BKN010 25/23 A2985=
200509240000 METAR MRLB 240000Z 23007KT 5000 VCSH BR SCT010 OVC080 25/23 A2987 RMK VIS 9999E=
200509240100 METAR MRLB NIL=
200509240200 METAR MRLB NIL=
200509240300 METAR MRLB NIL=
200509240400 METAR MRLB NIL=
200509240500 METAR MRLB NIL=
200509240600 METAR MRLB NIL=
200509240700 METAR MRLB NIL=
200509240800 METAR MRLB NIL=
200509240900 METAR MRLB NIL=
200509241000 METAR MRLB NIL=
200509241100 METAR MRLB NIL=
200509241200 METAR MRLB 241200Z 16003KT 9999 -RA SCT015 OVC100 23/23 A2992=
200509241300 METAR MRLB 241300Z 14005KT 9999 SCT015 OVC100 23/23 A2994 RMK RN DIST N-NE=
200509241400 METAR MRLB 241400Z 15004KT 9999 FEW010 SCT020 OVC100 24/23 A2996 RMK RN DST S SW=
200509241500 METAR MRLB 241500Z 00000KT 9999 FEW010 BKN025 25/23 A2996 RN DIST SW N=
200509241600 METAR MRLB 241600Z 26006KT 3000 -RA FEW008 BKN020 25/24 A2996=
200509241700 METAR MRLB 241700Z 29007KT 9999 4000SE -RA FEW010 OVC020 25/23 A2995=
200509241800 METAR MRLB 241800Z 25008KT 9999 FEW010 SCT020 OVC100 26/24 A2992 RMK RN DIST ARND=
200509241900 METAR MRLB 241900Z 25007KT 9999 3000E -RA FEW010 BKN020 25/23 A2989=
200509242000 METAR MRLB 242000Z 26007KT 9999 -RA SCT010 BKN025 25/23 A2987=
200509242100 METAR MRLB 242100Z 27008KT 9999 -RA SCT010 OVC100 25&23 A2986=
200509242200 METAR MRLB 242200Z 26003KT 3000 RA FEW010 BKN020 24/23 A2986=
200509242300 METAR MRLB 242300Z 25003KT 4000 -RA FEW008 OVC020 24/23 A2986=
200509250000 METAR MRLB 250000Z 25004KT 2000 RA FEW007 BKN015 24/23 A2987=
200509250100 METAR MRLB NIL=
200509250200 METAR MRLB NIL=
200509250300 METAR MRLB NIL=
200509250400 METAR MRLB NIL=
200509250500 METAR MRLB NIL=
200509250600 METAR MRLB NIL=
200509250700 METAR MRLB NIL=
200509250800 METAR MRLB NIL=
200509250900 METAR MRLB NIL=
200509251000 METAR MRLB NIL=
200509251100 METAR MRLB NIL=
200509251200 METAR MRLB 251200Z 03003KT 9999 SCT015 BKN120 22/22 A2991 RMK RN DST SW=
200509251300 METAR MRLB 251300Z 03004KT 9999 SCT015 BKN100 23/22 A2993 RN S SW=
200509251400 METAR MRLB 251400Z 03004KT 4000 -RA FEW010 BKN025 24/23 A2995=
200509251500 METAR MRLB 251500Z 00000KT 5000 RA FEW010 OVC020 25/24 A2996=
200509251600 METAR MRLB 251600Z 00000KT 9999 DZ SCT010 BKN100 25/24 A2995 VSBY SW 6KM DUE RN=
200509251700 METAR MRLB 251700Z 26007KT 5000 -RA FEW010 SCT020 OVC100 25/24 A2995=
200509251800 METAR MRLB 251800Z 24006KT 2500 RA FEW008 OVC020 23/23 A2992=
200509251900 METAR MRLB 251900Z 2508KT 2000 RA FEW007 OVC020 23/23 A2990=
200509252000 METAR MRLB 252000Z 25005KT 7000 DZ SCT010 BKN020 24/23 A2987=
200509252100 METAR MRLB 252100Z 15004KT 6000 RA FEW008 BKN020 24/23 A2985=
200509252200 METAR MRLB 252200Z 26007KT 7000 RA BKN015 24/23 A2985=
200509252300 METAR MRLB 252300Z 26004KT 4000 RA FEW007 BKN015 24/23 A2986=
200509260000 METAR MRLB 260000Z 26005KT 4000 -RA FEW008 OVC020 24/24 A2987=
200509260100 METAR MRLB NIL=
200509260200 METAR MRLB NIL=
200509260300 METAR MRLB NIL=
200509260400 METAR MRLB NIL=
200509260500 METAR MRLB NIL=
200509260600 METAR MRLB NIL=
200509260700 METAR MRLB NIL=
200509260800 METAR MRLB NIL=
200509260900 METAR MRLB NIL=
200509261000 METAR MRLB NIL=
200509261100 METAR MRLB NIL=
200509261200 METAR MRLB 261200Z 04004KT FEW015 OVC080 23/23 A2988 RMK RN DIST SE/S=
200509261300 METAR MRLB 261300Z 02005KT 9999 FEW025 OVC100 24/24 A2990 RN DST E/S=
200509261400 METAR MRLB 261400Z 00000KT 9999 FEW010 BKN120 25/24 A2991=
200509261500 METAR MRLB 261500Z 00000KT 9999 SCT012 OVC100 27/25 A2993=
200509261600 METAR MRLB 261600Z 27003KT 4000 -RA BKN015 27/25 A2992=
200509261700 METAR MRLB 261700Z 26004KT 3000 -RA BR FEW010 OVC100 24/24 A2992=
200509261800 METAR MRLB 261800Z 26008KT 9999 -RA FEW010 OVC100 25/24 A2990=
200509261900 METAR MRLB 261900Z 30005KT 9999 SCT010 OVC100 26/25 A2987=
200509262000 METAR MRLB 262000Z 27007KT 9999 BKN010 27/25 A2984=
200509262100 METAR MRLB 262100Z 29003KT 9999 SCT015 BKN100 26/24 A2980 RERA CB RN N NE=
200509262200 METAR MRLB 262200Z 30004KT 9999 SCT010 OVC120 26/25 A2981 RN DST N E=
200509262300 METAR MRLB 262300Z 28005KT 9999 SCT015 BKN120 26/24 A2981=
200509270000 METAR MRLB 270000Z 28003KT 9999 SCT015 BKN120 25/24 A2984=
200509270100 METAR MRLB NIL=
200509270200 METAR MRLB NIL=
200509270300 METAR MRLB NIL=
200509270400 METAR MRLB NIL=
200509270500 METAR MRLB NIL=
200509270600 METAR MRLB NIL=
200509270700 METAR MRLB NIL=
200509270800 METAR MRLB NIL=
200509270900 METAR MRLB NIL=
200509271000 METAR MRLB NIL=
200509271100 METAR MRLB NIL=
200509271200 METAR MRLB 271200Z 00000KT 0300 FG VV/// 23/22 A2985=
200509271300 METAR MRLB 271300Z 00000KT 3000 BR SCT003 24/23 A2987=
200509271400 METAR MRLB 271400Z 00000KT 9999 SCT010 26/24 A2989=
200509271500 METAR MRLB 271500Z 00000KT 9999 BKN015 27/24 A2991=
200509271600 METAR MRLB 271600Z 26003KT 9999 FEW015TCU SCT020 28/24 A2991 RN DST SW=
200509271700 METAR MRLB 271700Z 27006KT 9999 SCT010TCU SCT120 29/24 A2988 RN DST SE SW=
200509271800 METAR MRLB 271800Z 21007KT 9999 SCT010TCU SCT120 28/25 A2987 RN DST S=
200509271900 METAR MRLB 271900Z 18005KT 9999 FEW020 BKN120 29/24 A2982 RN NE DST=
200509272000 METAR MRLB 272000Z 18005KT 9999 FEW025 SCT140 BKN250 30/24 A2979 CB RN N NE=
200509272100 METAR MRLB 272100Z 23005KT 9999 FEW025 BKN250 29/25 A2978 RMK RN DST N NE=
200509272200 METAR MRLB 272200Z 28009KT 9999 SCT020 BKN100 27/24 A2978 RMK RN DST N NE SW=
200509272300 METAR MRLB 272300Z 30005KT 9999 SCT015 BKN025 27/24 A2981 RMK RN DST N NE S=
200509280000 METAR MRLB 280000Z 31005KT 9999 SCT010TCU BKN020 26/24 A2982 RN DST N NE E S=
200509280100 METAR MRLB NIL=
200509280200 METAR MRLB NIL=
200509280300 METAR MRLB NIL=
200509280400 METAR MRLB NIL=
200509280500 METAR MRLB NIL=
200509280600 METAR MRLB NIL=
200509280700 METAR MRLB NIL=
200509280800 METAR MRLB NIL=
200509280900 METAR MRLB NIL=
200509281000 METAR MRLB NIL=
200509281100 METAR MRLB NIL=
200509281200 METAR MRLB 281200Z 00000KT 9999 SCT015 OVC100 24/23 A2987=
200509281300 METAR MRLB 281300Z 34003KT 9999 FEW008 SCT015 OVC100 24/23 A2989 RMK RN DST N=
200509281400 METAR MRLB 281400Z 35003KT 9999 4000SW VCSH FEW008 BKN020 24/24 A2991=
200509281500 METAR MRLB 281500Z 29005KT 9999 DZ FEW010 SCT020 OVC100 24/23 A2992 RMK 6000SW VCSH=
200509281600 METAR MRLB 281600Z 29003KT 9999 SCT015 OVC100 24/23 A2992 RMK RN DST N NE S=
200509281700 METAR MRLB 281700Z 29005KT 9999 SCT020 BKN120 27/24 A2991 RMK RN DST S=
200509281800 METAR MRLB 281800Z 27005KT 9999 SCT020 BKN120 28/24 A2988 RMK RN DST S SW N=
200509281900 METAR MRLB 281900Z 29005KT 9999 SCT015 OVC100 26/23 A2987 RMK RN DST SW N NE=
200509282000 METAR MRLB 282000Z 29005KT 9999 DZ SCT015 OVC100 25/24 A2984 RMK 6000SW RA=
200509282100 METAR MRLB 282100Z 32004KT 9999 -RA SCT020 OVC100 24/23 A2984=
200509282200 METAR MRLB 282200Z 08003KT 7000 -RA FEW010 BKN020 24/23 A2984 RMK VIS N 2KMS/BR=
200509282300 METAR MRLB 282300Z 05005KT 9999 FEW010 SCT020 OVC100 24/23 A2986 RMK RN DST E/ NE/N=
200509290000 METAR MRLB 290000Z 05005KT 9999 SCT015 OVC100 24/23 A2988 RMK RN DST E/NE/N=
200509290100 METAR MRLB NIL=
200509290200 METAR MRLB NIL=
200509290300 METAR MRLB NIL=
200509290400 METAR MRLB NIL=
200509290500 METAR MRLB NIL=
200509290600 METAR MRLB NIL=
200509290700 METAR MRLB NIL=
200509290800 METAR MRLB NIL=
200509290900 METAR MRLB NIL=
200509291000 METAR MRLB NIL=
200509291100 METAR MRLB NIL=
200509291200 METAR MRLB 291200Z 00000KT 9999 FEW008 SCT020 BKN120 23/23 A2989 RMK VIS SW 6000 DUE RA=
200509291300 METAR MRLB 291300Z 14003KT 9999 DZ FEW010 BKN025 23/23 A2991 RMK VIS S 6KMS/RN=
200509291400 METAR MRLB 291400Z 17004KT 2500 RA FEW008 OVC020 23/23 A2993=
200509291500 METAR MRLB 291500Z 12005KT 9999 DZ FEW008 SCT020 OVC100 24/23 A2994 RMK VIS N 7KMS=
200509291600 METAR MRLB 291600Z 04003KT 9999 DZ FEW010 BKN020 24/23 A2994=
200509291700 METAR MRLB 291700Z 05004KT 9999 SCT015 OVC110 26/24 A2993=
200509291800 METAR MRLB 291800Z 00000KT 9999 SCT015 OVC120 27/24 A2989=
200509291900 METAR MRLB 291900Z 20004KT 9999 SCT020 OVC120 27/24 A2985=
200509292000 METAR MRLB 292000Z 22004KT 9999 SCT020 OVC120 28/24 A2983 RMK RN DIST SW=
200509292100 METAR MRLB 292100Z 25007KT 9999 4000S VCSH SCT015 OVC110 25/24 A2982=
200509292200 METAR MRLB 292200Z 15004KT 9999 SCT020 OVC110 25/24 A2981 RN S E=
200509292300 METAR MRLB 292300Z 00000KT 9999 SCT025 OVC120 25/24 A2981=
200509300000 METAR MRLB 300000Z 00000KT 9999 SCT025 OVC120 24/24 A2982=
200509300100 METAR MRLB NIL=
200509300200 METAR MRLB NIL=
200509300300 METAR MRLB NIL=
200509300400 METAR MRLB NIL=
200509300500 METAR MRLB NIL=
200509300600 METAR MRLB NIL=
200509300700 METAR MRLB NIL=
200509300800 METAR MRLB NIL=
200509300900 METAR MRLB NIL=
200509301000 METAR MRLB NIL=
200509301100 METAR MRLB NIL=
200509301200 METAR MRLB 301200Z 00000KT 9999 3000S BR SCT005 OVC120 23/23 A2984=
200509301300 METAR MRLB 301300Z 00000KT 9999 FEW010 BKN120 24/23 A2986 ST N W=
200509301400 METAR MRLB 301400Z 17004KT 9999 BKN015 SCT120 25/24 A2988=
200509301500 METAR MRLB 301500Z 16006KT 9999 SCT020 SCT250 27/24 A2988=
200509301600 METAR MRLB 301600Z 17004KT 9999 SCT020 BKN120 28/25 A2989 RN N SW=
200509301700 METAR MRLB 301700Z 25010KT 1000 SHRA FEW010 BKN020 23/23 A2988 VSBY E UNL=
200509301800 METAR MRLB 301800Z 00000KT 9999 -RA SCT015 BKN100 25/24 A2984=
200509301900 METAR MRLB 301900Z 18006KT 9999 BKN015 SCT100 26/24 A2981 RN N E S=
200509302000 METAR MRLB 302000Z 30009KT 9999 3000E -RA SCT010 BKN100 27/24 A2977=
200509302100 METAR MRLB 302100Z 28009KT 9999 SCT015 BKN120 27/24 A2976 CB DST NE/E/SE=
200509302200 METAR MRLB 302200Z 28010KT 9999 FEW020 BKN100 27/23 A2976=
200509302300 METAR MRLB 302300Z 27007KT 9999 FEW025 OVC250 26/23 A2978=
200510010000 METAR MRLB 010000Z 27004KT 9999 FEW020TCU OVC250 25/23 A2979=
200510010100 METAR MRLB NIL=
200510010200 METAR MRLB NIL=
200510010300 METAR MRLB NIL=
200510010400 METAR MRLB NIL=
200510010500 METAR MRLB NIL=
200510010600 METAR MRLB NIL=
200510010700 METAR MRLB NIL=
200510010800 METAR MRLB NIL=
200510010900 METAR MRLB NIL=
200510011000 METAR MRLB NIL=
200510011100 METAR MRLB NIL=
200510011200 METAR MRLB 011200Z 00000KT 9999 SCT010 OVC120 23/23 A2982 ST BJS AL W=
200510011300 METAR MRLB 011300Z 13004KT 9999 SCT010 BKN120 24/23 A2984=
200510011400 METAR MRLB 011400Z 00000KT 9999 2000W RA BKN010 25/24 A2986=
200510011500 METAR MRLB 011500Z 00000KT 9999 RA OVC010 25/24 A2987=
200510011600 METAR MRLB 011600Z 31005KT 9999 2000W -RA BKN010 25/24 A2988=
200510011700 METAR MRLB 011700Z 05005KT 9999 3000SW -RA SCT010 BKN100 25/24 A2986=
200510011800 METAR MRLB 011800Z 31003KT 9999 3000N -RA SCT008 BKN100 25/24 A2984=
200510011900 METAR MRLB 011900Z 27007KT 9999 SCT010 OVC100 27/24 A2980=
200510012000 METAR MRLB 012000Z 29007KT 9999 SCT010TCU BKN100 27/25 A2978=
200510012100 METAR MRLB 012100Z 27006KT 9999 SCT008TCU BKN100 27/24 A2977=
200510012200 METAR MRLB 012200Z 19005KT 8000 -RA FEW002 SCT010 BKN100 25/24 A2977=
200510012300 METAR MRLB 012300Z 23007KT 9999 -RA SCT005 BKN100 24/24 A2978=
200510020000 METAR MRLB 020000Z 21004KT 9999 -RA FEW005 BKN100 24/23 A2981=
200510020100 METAR MRLB NIL=
200510020200 METAR MRLB NIL=
200510020300 METAR MRLB NIL=
200510020400 METAR MRLB NIL=
200510020500 METAR MRLB NIL=
200510020600 METAR MRLB NIL=
200510020700 METAR MRLB NIL=
200510020800 METAR MRLB NIL=
200510020900 METAR MRLB NIL=
200510021000 METAR MRLB NIL=
200510021100 METAR MRLB NIL=
200510021200 METAR MRLB 021200Z 12003KT 9999 SCT015 OVC100 24/23 A2983 RMK RN ARND=
200510021300 METAR MRLB 021300Z 00000KT 9999 DZ FEW010 SCT020 OVC100 24/23 A2984=
200510021400 METAR MRLB 021400Z 19003KT 7000 DZ FEW010 BKN020 24/24 A2986=
200510021500 METAR MRLB 021500Z 00000KT 9999 FEW028 BKN090 26/23 A2984=
200510021600 METAR MRLB 021600Z 20005KT 9999 SCT015 BKN110 25/24 A2987 7000 E/RA=
200510021700 METAR MRLB 021700Z 23006KT 9999 4000SW -RA FEW008 BKN020 26/24 A2986=
200510021800 METAR MRLB 021800Z 22006KT 2000 RA FEW008 BKN020 24/24 A2984=
200510021900 METAR MRLB 021900Z 20005KT 9999 DZ FEW008 SCT015 OVC100 24/24 A2981 7000E/RA=
200510022000 METAR MRLB 022000Z 20004KT 9999 -RA SCT010 OVC100 25/24 A2979=
200510022100 METAR MRLB 022100Z 18004KT 9999 SCT015 OVC100 24/24 A2978 RMK RN DST E NE N=
200510022200 METAR MRLB 022200Z 14003KT 9999 SCT020 OVC100 24/24 A2980 RMK RN DST S N=
200510022300 METAR MRLB 022300Z 14003KT 9999 -RA SCT015 OVC100 24/ 24 A2982=
200510030000 METAR MRLB 030000Z 00000KT 9999 DZ SCT015 OVC100 24/24 A2983=
200510030100 METAR MRLB NIL=
200510030200 METAR MRLB NIL=
200510030300 METAR MRLB NIL=
200510030400 METAR MRLB NIL=
200510030500 METAR MRLB NIL=
200510030600 METAR MRLB NIL=
200510030700 METAR MRLB NIL=
200510030800 METAR MRLB NIL=
200510030900 METAR MRLB NIL=
200510031000 METAR MRLB NIL=
200510031100 METAR MRLB NIL=
200510031200 METAR MRLB 031200Z 00000KT 2500 -RA FEW010 BKN020 23/23 A2984=
200510031300 METAR MRLB 031300Z 00000KT 3500 RA FEW008 OVC020 23/23 A2986=
200510031400 METAR MRLB 031400Z 10003KT 9999 FEW010 SCT020 OVC110 24/23 A2987 RMK RN DST N NE=
200510031500 METAR MRLB 031500Z 16003KT 9999 SCT015 OVC120 25/24 A2988 RMK RN DST N=
200510031600 METAR MRLB 031600Z 17004KT 9999 DZ FEW010 SCT020 OVC120 26/24 A2988 RMK 6000SW VCSH=
200510031700 METAR MRLB 031700Z 23008KT 9999 SCT020 BKN120 26/24 A2985 RMK RN DST E=
200510031800 METAR MRLB 031800Z 22008KT 9999 SCT020 OVC120 26/24 A2983 RMK RN DST E N=
200510031900 METAR MRLB 031900Z 24007KT 9999 SCT015 OVC110 26/24 A2981 RMK RN DST SW E=
200510032000 METAR MRLB 032000Z 25008KT 9999 SCT020 OVC110 26/24 A2979 RMK RN DST E S=
200510032100 METAR MRLB 032100Z 25009KT 9999 4000SW -RA SCT015 OVC100 24/24 A2978=
200510032200 METAR MRLB 032200Z 22006KT 9999 SCT020 OVC100 25/24 A2978 RMK RN DIST=
200510032300 METAR MRLB 032300Z 22005KT 9999 DZ SCT015 OVC100 24/24 A2978=
200510040000 METAR MRLB 040000Z 22003KT 9999 DZ SCT020 OVC100 24/23 A2980=
200510040100 METAR MRLB NIL=
200510040200 METAR MRLB NIL=
200510040300 METAR MRLB NIL=
200510040400 METAR MRLB NIL=
200510040500 METAR MRLB NIL=
200510040600 METAR MRLB NIL=
200510040700 METAR MRLB NIL=
200510040800 METAR MRLB NIL=
200510040900 METAR MRLB NIL=
200510041000 METAR MRLB NIL=
200510041100 METAR MRLB NIL=
200510041200 METAR MRLB 041200Z 00000KT 9999 FEW010 OVC080 23/23 A2982=
200510041300 METAR MRLB 041300Z 14003KT 9999 FEW010 BKN080 24/23 A2985=
200510041400 METAR MRLB 041400Z 17003KT 9999 SCT010 BKNN100 24/24 A2986=
200510041500 METAR MRLB 041500Z 17005KT 9999 SCT010 BKN100 25/24 A2987=
200510041600 METAR MRLB 041600Z 22005KT 9999 SCT010 BKN100 26/24 A2987=
200510041700 METAR MRLB 041700Z 25006KT 9999 SCT015 BKN100 27/25 A2984 RMK RN DST NE N SW=
200510041800 METAR MRLB 041800Z 26009KT 9999 BKN015 SCT100 26/24 A2983 RMK RN DST N NE E SW=
200510041900 METAR MRLB 041900Z 25009KT 9999 SCT020 BKN100 26/24 A2981=
200510042000 METAR MRLB 042000Z 26010KT 9999 SCT015 BKN090 27/24 A2979 RMK RN E SE SW=
200510042200 METAR MRLB 042200Z 22007KT 9999 SCT015 BKN090 26/23 A2977 RMK RN N NE SW=
200510042300 METAR MRLB 042300Z 24005KT 9999 SCT015 BKN080 25/24 A2978 RMK RN N NE=
200510050000 METAR MRLB 050000Z 24003KT 9999 SCT015 OVC080 25/23 A2980 RN N NE E S=
200510050100 METAR MRLB NIL=
200510050200 METAR MRLB NIL=
200510050300 METAR MRLB NIL=
200510050400 METAR MRLB NIL=
200510050500 METAR MRLB NIL=
200510050600 METAR MRLB NIL=
200510050700 METAR MRLB NIL=
200510050800 METAR MRLB NIL=
200510050900 METAR MRLB NIL=
200510051000 METAR MRLB NIL=
200510051100 METAR MRLB NIL=
200510051200 METAR MRLB 051200Z 17003KT 9999 SCT010 BKN250 23/23 A2985 RMK RN DST E DUE ST W=
200510051300 METAR MRLB 051300Z 15003KT 9999 SCT010 BKN100 23/23 A2987 RN SE=
200510051400 METAR MRLB 051400Z 21003KT 9999 SCT010 BKN250 25/24 A2988 RN N=
200510051500 METAR MRLB 051500Z 23005KT 9999 -RA SCT010 SCT250 26/24 A2988=
200510051600 METAR MRLB 051600Z 28009KT 9999 SCT015 BKN250 28/23 A2989 RN E S=
200510051700 METAR MRLB 051700Z 28011KT 9999 SCT020 BKN250 28/23 A2988 RN E=
200510051800 METAR MRLB 051800Z 27011KT 9999 SCT020 BKN250 28/23 A2986=
200510051900 METAR MRLB 051900Z 27011KT 9999 SCT025 SCT250 29/23 A2984=
200510052000 METAR MRLB 052000Z 28012KT 9999 SCT025 SCT250 28/23 A2982=
200510052100 METAR MRLB 052100Z 28013KT 9999 SCT025 BKN250 27/22 A2981=
200510052200 METAR MRLB 052200Z 27011KT 9999 SCT025 BKN250 27/2 A2981=
200510052300 METAR MRLB 052300Z 27006KT 9999 FEW030 OVC250 26/23 A2982=
200510060000 METAR MRLB 060000Z 29004KT 9999 FEW040 OVC250 25/23 A2983=
200510060100 METAR MRLB NIL=
200510060200 METAR MRLB NIL=
200510060300 METAR MRLB NIL=
200510060400 METAR MRLB NIL=
200510060500 METAR MRLB NIL=
200510060600 METAR MRLB NIL=
200510060700 METAR MRLB NIL=
200510060800 METAR MRLB NIL=
200510060900 METAR MRLB NIL=
200510061000 METAR MRLB NIL=
200510061100 METAR MRLB NIL=
200510061200 METAR MRLB 061200Z 27004KT 9999 DZ SCT015 OVC100 23/23 A2988 RMK VIS 6KMS E /RN=
200510061300 METAR MRLB 061300Z 34004KT 3000 -RA FEW010 BKN020 23/23 A2990=
200510061400 METAR MRLB 061400Z 00000KT 9999 FEW008 SCT020 OVC100 24/23 A2991 6000 E DUE RN=
200510061500 METAR MRLB 061500Z 13003KT 5000 -RA FEW010 BKN020 24/24 A2993=
200510061600 METAR MRLB 061600Z 00000KT 9999 DZ SCT015 OVC100 25/24 A2993=
200510061700 METAR MRLB 061700Z 25006KT 9999 SCT025 BKN120 26/24 A2991=
200510061800 METAR MRLB 061800Z 28013KT 9999 SCT030 BKN240 28/23 A2989 RN DST S=
200510061900 METAR MRLB 061900Z 27014KT 9999 SCT030 BKN250 28/23 A2987=
200510062000 METAR MRLB 062000Z 27014KT 9999 SCT035 SCT250 28/23 A2984=
200510062100 METAR MRLB 062100Z 17011KT 9999 SCT035 BKN250 28/22 A2983=
200510062200 METAR MRLB 062200Z 27012KT 9999 SCT035 BKN250 27/23 A2983=
200510062300 METAR MRLB 062300Z 26010KT 9999 FEW035 BKN250 26/22 A2982=
200510070000 METAR MRLB 070000Z 26007KT 9999 SCT030 BKN250 24/22 A2983=
200510070100 METAR MRLB NIL=
200510070200 METAR MRLB NIL=
200510070300 METAR MRLB NIL=
200510070400 METAR MRLB NIL=
200510070500 METAR MRLB NIL=
200510070600 METAR MRLB NIL=
200510070700 METAR MRLB NIL=
200510070800 METAR MRLB NIL=
200510070900 METAR MRLB NIL=
200510071000 METAR MRLB NIL=
200510071100 METAR MRLB NIL=
200510071200 METAR MRLB 071200Z 14003KT 9999 SCT015 OVC100 24/23 A2985 RN N S=
200510071300 METAR MRLB 071300Z 10003KT 9999 SCT020 OVC110 24/23 A2988=
200510071400 METAR MRLB 071400Z 15003KT 9999 SCT020 BKN120 25/24 A2989=
200510071500 METAR MRLB 071500Z 16003KT 9999B SCT020 BKN120 26/24 A2991 RN DST N NE=
200510071600 METAR MRLB 071600Z 20003KT 9999 SCT025 BKN110 26/24 A2990 RN DST N SW=
200510071700 METAR MRLB 071700Z 25009KT 9999 SCT025 OVC120 26/23 A2988 RN DST SE=
200510071800 METAR MRLB 071800Z 24008KT 9999 SCT025 BKN120 27/23 A2987 RN DST SW=
200510071900 METAR MRLB 071900Z 24004KT 9999 SCT020 OVC120 26/24 A2985 RN DST E NE=
200510072000 METAR MRLB 072000Z 23006KT 9999 SCT025 BKN130 26/24 A2982=
200510072100 METAR MRLB 072100Z 23005KT 9999 SCT030 BKN130 27/23 A2980 RMK RN DST S=
200510072200 METAR MRLB 072200Z 25008KT 9999 FEW015 SCT030 BKN130 25/24 A2980 RMK RN DST SW E=
200510072300 METAR MRLB 072300Z 24005KT 9999 SCT025 BKN130 25/24 A2982 RMK RN DST E NE=
200510080000 METAR MRLB 080000Z 25004KT 9999 SCT020 BKN130 24/23 A2983 RMK RN DST NE=
200510080100 METAR MRLB NIL=
200510080200 METAR MRLB NIL=
200510080300 METAR MRLB NIL=
200510080400 METAR MRLB NIL=
200510080500 METAR MRLB NIL=
200510080600 METAR MRLB NIL=
200510080700 METAR MRLB NIL=
200510080800 METAR MRLB NIL=
200510080900 METAR MRLB NIL=
200510081000 METAR MRLB NIL=
200510081100 METAR MRLB NIL=
200510081200 METAR MRLB 081200Z 17004KT 9999 -RA SCT008 BKN100 24/23 A2988=
200510081300 METAR MRLB 081300Z 14005KT 9999 -RA SCT010 BKN100 24/24 A2990=
200510081400 METAR MRLB 081400Z 14005KT 9999 SCT010 BKN100 25/24 A2992 RMK RN DST N E=
200510081500 METAR MRLB 081500Z 15006KT 9999 SCT010 BKN100 25/24 A2993 RMK 6000 W N VCSH=
200510081600 METAR MRLB 081600Z 21006KT 4000 RA SCT010 BKN090 24/24 A2993=
200510081700 METAR MRLB 081700Z 23003KT 9999 -RA SCT010 BKN090 26/25 A2992=
200510081800 METAR MRLB 081800Z 27004KT 9999 4000E FEW010 OVC080 25/25 A2990=
200510081900 METAR MRLB 081900Z 24007KT 9999 -RA FEW010 OVC080 28/24 A2988 RMK 5000E=
200510082000 METAR MRLB 082000Z 26007KT 9999 -RA SCT015 BKN080 27/24 A2986=
200510082100 METAR MRLB 082100Z 25008KT 9999 -RA SCT010 BKN080 26/24 A2985 RMK VIS N 5KMS=
200510082200 METAR MRLB 082200Z 22005KT 9999 SCT010 BKN080 25/23 A2985=
200510082300 METAR MRLB 082300Z 22004KT 9999 SCT010 BKN080 25/23 A2986 RMK RN DIST N/ NE/ E/ S/ SW=
200510090000 METAR MRLB 090000Z 24003KT 9999 SCT010 BKN080 24/23 A2989 RMK RN DST N/NE/E/S=
200510090100 METAR MRLB NIL=
200510090200 METAR MRLB NIL=
200510090300 METAR MRLB NIL=
200510090400 METAR MRLB NIL=
200510090500 METAR MRLB NIL=
200510090600 METAR MRLB NIL=
200510090700 METAR MRLB NIL=
200510090800 METAR MRLB NIL=
200510090900 METAR MRLB NIL=
200510091000 METAR MRLB NIL=
200510091100 METAR MRLB NIL=
200510091200 METAR MRLB 091200Z 14003KT 9999 -RA BKN015 23/23 A2990=
200510091300 METAR MRLB 091300Z 06004KT 9999 -RA SCT010 BKN100 24/23 A2991 RMK VIS N KMS=
200510091400 METAR MRLB 091400Z 15005KT 9999 BKN010 25/24 A2993 RMK VIS N 5KMS/RN=
200510091500 METAR MRLB 091500Z 17005KT 9999 4000N -RA OVC010 26/25 A2995=
200510091600 METAR MRLB 091600Z 18007KT 9999 BKN015 SCT120 28/25 A2994 RMK RN DST N/ NE/ S=
200510091700 METAR MRLB 091700Z 20011KT 9999 SCT02 SCT140 29/24 A2993 RMK RN DIST=
200510091800 METAR MRLB 091800Z 26011KT 9999 SCT020 BKN120 29/24 A2990=
200510091900 METAR MRLB 091900Z 27010KT 9999 SCT020 BKN220 29/24 A2987 RMK RN DIST N/E=
200510092000 METAR MRLB 092000Z 26011KT 9999 SCT015 BKN120 28/24 A2986 RMK RN DST N/E/S=
200510092100 METAR MRLB 092100Z 27010KT 9999 SCT015 BKN120 27/24 A2985 RN ARND=
200510092200 METAR MRLB 092200Z 26009KT 9999 SCT015 BKN250 28/24 A2985 RMK RN N NE E SW=
200510092300 METAR MRLB 092300Z 25008KT 9999 SCT015 BKN250 26/24 A2986 RN N NE E SW=
200510100000 METAR MRLB 100000Z 30005KT 9999 SCT010 BKN020 24/23 A2988 RN E SW=
200510100100 METAR MRLB NIL=
200510100200 METAR MRLB NIL=
200510100300 METAR MRLB NIL=
200510100400 METAR MRLB NIL=
200510100500 METAR MRLB NIL=
200510100600 METAR MRLB NIL=
200510100700 METAR MRLB NIL=
200510100800 METAR MRLB NIL=
200510100900 METAR MRLB NIL=
200510101000 METAR MRLB NIL=
200510101100 METAR MRLB NIL=
200510101200 METAR MRLB 101200Z 16003KT 9999 SCT015 BKN120 23/23 A2987 RMK RN DST N=
200510101300 METAR MRLB 101300Z 15004KT 9999 SCT015 OVC120 24/23 A2990=
200510101400 METAR MRLB 101400Z 16004KT 9999 DZ FEW010 SCT020 OVC120 25/24 A2992 VSBY E 7KM DUE RN=
200510101500 METAR MRLB 101500Z 17004KT 9999 SCT020 BKN120 26/24 A2993 RMK RN E=
200510101600 METAR MRLB 101600Z 21004KT 9999 SCT020 BKN130 27/25 A2991 RMK RN N=
200510101700 METAR MRLB 101700Z 27010KT 9999 DZ FEW010 SCT020 BKN130 25/24 A2991=
200510101800 METAR MRLB 101800Z 27013KT 9999 SCT020 BKN130 26/24 A2988 VSBY S 7KM DUE RN=
200510101900 METAR MRLB 101900Z 27009KT 9999 BKN020 27/24 A2985 RMK RN NE=
200510102000 METAR MRLB 102000Z 25006KT 9999 SCT020 BKN120 26/24 A2983 RN N=
200510102100 METAR MRLB 102100Z 27008KT 9999 DZ SCT020 BKN120 26/24 A2982=
200510102200 METAR MRLB 102200Z 30006KT 9999 -RA FEW010 BKN020 26/24 A2981 7000 S DUE RA=
200510102300 METAR MRLB 102300Z 23006KT 9999 DZ FEW010 BKN025 24/23 A2981=
200510110000 METAR MRLB 110000Z 20005KT 9999 SCT020 BKN120 24/23 A2982=
200510110100 METAR MRLB NIL=
200510110200 METAR MRLB NIL=
200510110300 METAR MRLB NIL=
200510110400 METAR MRLB NIL=
200510110500 METAR MRLB NIL=
200510110600 METAR MRLB NIL=
200510110700 METAR MRLB NIL=
200510110800 METAR MRLB NIL=
200510110900 METAR MRLB NIL=
200510111000 METAR MRLB NIL=
200510111100 METAR MRLB NIL=
200510111200 METAR MRLB 111200Z 16004KT 9999 DZ SCT015 OVC100 24/23 A2983=
200510111300 METAR MRLB 111300Z 16004KT 9999 SCT015 OVC100 24/24 A2984=
200510111400 METAR MRLB 111400Z 17005KT 9999 SCT015 BKN120 24/24 A2986 RN DST N=
200510111500 METAR MRLB 111500Z 18004KT 9999 SCT015 OVC110 25/24 A2987 RN DST SW N=
200510111600 METAR MRLB 111600Z 20004KT 9999 SCT020 BKN120 26/24 A2988 RN DST S=
200510111700 METAR MRLB 111700Z 25008KT 9999 SCT025 SCT130 28/24 A2986=
200510111800 METAR MRLB 111800Z 25009KT 9999 SCT030 BKN250 29/23 A2984 RN DST E=
200510111900 METAR MRLB 111900Z 26007KT 9999 SCT030 SCT250 29/24 A2981=
200510112000 METAR MRLB 112000Z 26006KT 9999 SCT025 BKN250 28/24 A2978 RN DST SW W=
200510112100 METAR MRLB 112100Z 27008KT 4000 RA FEW010 BKN020 23/23 A2979=
200510112200 METAR MRLB 112200Z 27005KT 5000 RA FEW008 BKN020 23/23 A2979=
200510112300 METAR MRLB 112300Z 00000KT 9999 SCT020 BKN120 23/23 A2980 RN DST SW=
200510120000 METAR MRLB 120000Z 08003KT 9999 SCT015 BKN120 23/23 A2981=
200510120100 METAR MRLB NIL=
200510120200 METAR MRLB NIL=
200510120300 METAR MRLB NIL=
200510120400 METAR MRLB NIL=
200510120500 METAR MRLB NIL=
200510120600 METAR MRLB NIL=
200510120700 METAR MRLB NIL=
200510120800 METAR MRLB NIL=
200510120900 METAR MRLB NIL=
200510121000 METAR MRLB NIL=
200510121100 METAR MRLB NIL=
200510121200 METAR MRLB 121200Z 27006KT 1000 RA SCT008 OVC080 23/23 A2980=
200510121300 METAR MRLB 121300Z 12004KT 2000 -RA SCT005 BKN020 23/23 A2983=
200510121400 METAR MRLB 121400Z 21003KT 2000 -RA BR SCT005 BKN080 23/23 A2986=
200510121500 METAR MRLB 121500Z 18004KT 2000 -RA BR SCT008 BKN080 23/23 A2987 VIS 9999 W=
200510121600 METAR MRLB 121600Z 36006KT 2000 -RA BR FEW002 OVC080 23/22 A2987=
200510121700 METAR MRLB 121700Z 04004KT 2000 -RA BR FEW004 OVC080 22/22 A2986=
200510121800 METAR MRLB 121800Z 00000KT 2000 -RA BR FEW004 OVC080 23/23 A2983=
200510121900 METAR MRLB 121900Z 00000KT 9999 4000E -RA FEW005 OVC080 23/23 A2981=
200510122000 METAR MRLB 122000Z 00000KT 9999 SCT008 BKN080 24/23 A2978 RN DST NE=
200510122100 METAR MRLB 122100Z 16003KT 9999 3000W -RA SCT005 BKN080 24/23 A2978=
200510122200 METAR MRLB 122200Z 00000KT 3000 -RA SCT008 BKN080 24/24 A2978=
200510122300 METAR MRLB 122300Z 15004KT 9999 SCT008 BKN080 23/23 A2979 RMK RN DST S NE=
200510130000 METAR MRLB 130000Z 14003KT 9999 FEW005 OVC100 23/23 A2982 RMK LOW ST ARND=
200510130100 METAR MRLB NIL=
200510130200 METAR MRLB NIL=
200510130300 METAR MRLB NIL=
200510130400 METAR MRLB NIL=
200510130500 METAR MRLB NIL=
200510130600 METAR MRLB NIL=
200510130700 METAR MRLB NIL=
200510130800 METAR MRLB NIL=
200510130900 METAR MRLB NIL=
200510131000 METAR MRLB NIL=
200510131100 METAR MRLB NIL=
200510131200 METAR MRLB 131200Z 10003KT 9999 SCT020 BKN120 23/22 A2981=
200510131300 METAR MRLB 131300Z 00000KT 9999 SCT010 BKN120 24/23 A2983=
200510131400 METAR MRLB 131400Z 13004KT 9999 SCT010 BKN100 24/23 A2984=
200510131500 METAR MRLB 131500Z 13005KT 9999 SCT010 BKN100 25/23 A2985 RMK RN DST N=
200510131600 METAR MRLB 131600Z 14005KT 9999 FEW010 SCT020 BKN120 26/24 A2985 RMR RN DST NW SW=
200510131700 METAR MRLB 131700Z 15004KT 9999 SCT015 BKN100 27/24 A2983 RMR RN DST N S SW=
200510131800 METAR MRLB 131800Z 17008KT 9999 SCT020 BKN100 27/24 A2981 RMK RN DST N S SW=
200510131900 METAR MRLB 131900Z 18008KT 2000 RA SCT015 BKN100 24/23 A2980=
200510132000 METAR MRLB 132000Z 15005KT 9999 3000E -RA SCT010 BKN100 24/23 A2977=
200510132100 METAR MRLB 132100Z 14005KT 9999 -RA SCT010 BKN100 24/23 A2975=
200510132200 METAR MRLB 132200Z 13004KT 9999 RA FEW008 SCT020 BKN100 24/23 A2975=
200510132300 METAR MRLB 132300Z 00000KT 9999 SCT005 BKN100 24/24 A2998 RMK N NE S=
200510140000 METAR MRLB 140000Z 00000KT 9999 FEW005 OVC100 24/24 A2979=
200510140100 METAR MRLB NIL=
200510140200 METAR MRLB NIL=
200510140300 METAR MRLB NIL=
200510140400 METAR MRLB NIL=
200510140500 METAR MRLB NIL=
200510140600 METAR MRLB NIL=
200510140700 METAR MRLB NIL=
200510140800 METAR MRLB NIL=
200510140900 METAR MRLB NIL=
200510141000 METAR MRLB NIL=
200510141100 METAR MRLB NIL=
200510141200 METAR MRLB 141200Z 00000KT 9999 DZ BKN020 23/23 A2983=
200510141300 METAR MRLB 141300Z 00000KT 9999 -RA FEW010 BKN020 24/23 A2985=
200510141400 METAR MRLB 141400Z 13004KT 9999 DZ SCT015 BKN120 25/24 A2987=
200510141500 METAR MRLB 141500Z 16004KT 9999 SCT015 OVC110 24/24 A2987=
200510141600 METAR MRLB 141600Z 15004KT 9999 SCT020 BKN130 27/24 A2987 RMK RN DST NE=
200510141700 METAR MRLB 141700Z 18006KT 9999 SCT020 BKN130 27/24 A2986 RMK RN DST N NE=
200510141800 METAR MRLB 141800Z 19005KT 9999 SCT025 OVC130 27/23 A2983 RMK RN DST E=
200510141900 METAR MRLB 141900Z 23007KT 9999 FEW015 SCT025 BKN130 26/24 A2981 RMK RN DST S=
200510142000 METAR MRLB 142000Z 26005KT 9999 SCT020 BKN130 28/24 A2978=
200510142100 METAR MRLB 142100Z 327004KT 9999 SCT025 BKN130 27/24 A2978 RN E NE=
200510142200 METAR MRLB 142200Z 13004KT 9999 -RA FEW015 BKN025 25/24 A2978 VSBY S 7KM=
200510142300 METAR MRLB 142300Z 03004KT 9999 2000E RA FEW010 BKN025 24/24 A2980=
200510150000 METAR MRLB 150000Z 10003KT 9999 DZ SCT015 BKN100 24/24 A2981 RMK VSBY 6000E DUE RN=
200510150100 METAR MRLB NIL=
200510150200 METAR MRLB NIL=
200510150300 METAR MRLB NIL=
200510150400 METAR MRLB NIL=
200510150500 METAR MRLB NIL=
200510150600 METAR MRLB NIL=
200510150700 METAR MRLB NIL=
200510150800 METAR MRLB NIL=
200510150900 METAR MRLB NIL=
200510151000 METAR MRLB NIL=
200510151100 METAR MRLB NIL=
200510151200 METAR MRLB 151200Z 17004KT 9999 DZ SCT015 OVC100 23/23 A2983=
200510151300 METAR MRLB 151300Z 00000KT 9999 DZ SCT020 OVC110 23/23 A2984=
200510151400 METAR MRLB 151400Z 36003KT 9999 SCT020 BKN120 24/23 A2986=
200510151500 METAR MRLB 151500Z 00000KT 9999 SCT025 OVC130 25/23 A2986=
200510151600 METAR MRLB 151600Z 00000KT 9999 SCT025 BKN130 26/23 A2986=
200510151700 METAR MRLB 151700Z 25003KT 9999 SCT030 BKN130 27/23 A2983=
200510151800 METAR MRLB 151800Z W22005KT 9999 SCT030 BKN140 28/23 A2980=
200510151900 METAR MRLB 151900Z 26007KT 9999 SCT030 BKN140 28/24 A2978 RMK RN S=
200510152000 METAR MRLB 152000Z 29010KT 9999 SCT035 OVC140 28/24 A2976=
200510152100 METAR MRLB 152100Z 29008KT 9999 SCT030 OVC140 27/24 A2974 RN DST N=
200510152200 METAR MRLB 152200Z 28008KT 9999 SCT030 OVC130 26/23 A2977=
200510152300 METAR MRLB 152300Z 28005KT 9999 SCT030 OVC130 25/23 A2976=
200510160000 METAR MRLB 160000Z 29004KT 9999 SCT025 OVC130 25/24 A2977=
200510160100 METAR MRLB NIL=
200510160200 METAR MRLB NIL=
200510160300 METAR MRLB NIL=
200510160400 METAR MRLB NIL=
200510160500 METAR MRLB NIL=
200510160600 METAR MRLB NIL=
200510160700 METAR MRLB NIL=
200510160800 METAR MRLB NIL=
200510160900 METAR MRLB NIL=
200510161000 METAR MRLB NIL=
200510161100 METAR MRLB NIL=
200510161200 METAR MRLB 161200Z 16005KT 9999 -RA SCT005 BKN100 23/23 A2982=
200510161300 METAR MRLB 161300Z 16004KT 9999 3000E -RA BR SCT005 BKN100 23/23 A2984=
200510161400 METAR MRLB 161400Z 14004KT 9999 3000W -RA BR FEW005 SCT080 23/23 A2986=
200510161500 METAR MRLB 161500Z 13003KT 9999 3000E -RA BR SCT006 BKN100 24/23 A2988=
200510161600 METAR MRLB 161600Z 15003KT 9999 -RA SCT005 SCT008 25/24 A2988=
200510161700 METAR MRLB 161700Z 17005KT 8000 -RA SCT005 BKN100 25/23 A2985=
200510161800 METAR MRLB 161800Z 09004KT 9999 SCT010 BKN100 26/24 A2984 RN DST N NE S SW=
200510161900 METAR MRLB 161900Z 00000KT 9999 -RA SCT010 BKN100 27/24 A2980=
200510162000 METAR MRLB 162000Z 25004KT 9999 -RA BKN010 26/24 A2977=
200510162100 METAR MRLB 162100Z 00000KT 9999 SCT010 BKN100 27/24 A2976 RN DST NE S=
200510162200 METAR MRLB 162200Z 22003KT 9999 SCT010 BKN100 26/24 A2975=
200510162300 METAR MRLB 162300Z 15004KT 9999 FEW010 OVC090 25/24 A2976 RN DST N S NW=
200510170000 METAR MRLB 170000Z 10003KT 9999 FEW010 OVC090 24/23 A2977 RN N SE S=
200510170100 METAR MRLB NIL=
200510170200 METAR MRLB NIL=
200510170300 METAR MRLB NIL=
200510170400 METAR MRLB NIL=
200510170500 METAR MRLB NIL=
200510170600 METAR MRLB NIL=
200510170700 METAR MRLB NIL=
200510170800 METAR MRLB NIL=
200510170900 METAR MRLB NIL=
200510171000 METAR MRLB NIL=
200510171100 METAR MRLB NIL=
200510171200 METAR MRLB 171200Z 12004KT 9999 FEW030 SCT140 BKN250 23/22 A2981=
200510171300 METAR MRLB 171300Z 00000KT 9999 FEW030 BKN100 24/23 A2982=
200510171400 METAR MRLB 171400Z 14003KT 9999 SCT015 SCT250 27/24 A2983=
200510171500 METAR MRLB 171500Z 19005KT 9999 BKN020 27/24 A2985=
200510171600 METAR MRLB 171600Z 15005KT 9999 BKN020 29/24 A2986=
200510171700 METAR MRLB 171700Z 18005KT 9999 BKN025 28/23 A2984 RN DST SW=
200510171800 METAR MRLB 171800Z 26003KT 9999 SCT025 BKN080 29/24 A2981 RN DST N NE SW=
200510171900 METAR MRLB 171900Z 29007KT 9999 SCT020TCU SCT080 29/24 A2977 RN N NE S=
200510172000 METAR MRLB 172000Z 29006KT 9999 -RA SCT015 BKN080 28/24 A2975 VIS 5000 N=
200510172100 METAR MRLB 172100Z 28005KT 9999 FEW020 BKN080 26/24 A2974 RMK RN DST S S SW=
200510172200 METAR MRLB 172200Z 27008KT 9999 SCT020 SCT080 27/24 A2974 RMK RN DST E S=
200510172300 METAR MRLB 172300Z 29006KT 9999 FEW020 SCT100 BKN250 27/24 A2975 RMK RN DST N E S=
200510180000 METAR MRLB 180000Z 31003KT 9999 FEW020 OVC080 26/24 A2976 RMK RN DST S=
200510180100 METAR MRLB NIL=
200510180200 METAR MRLB NIL=
200510180300 METAR MRLB NIL=
200510180400 METAR MRLB NIL=
200510180500 METAR MRLB NIL=
200510180600 METAR MRLB NIL=
200510180700 METAR MRLB NIL=
200510180800 METAR MRLB NIL=
200510180900 METAR MRLB NIL=
200510181000 METAR MRLB NIL=
200510181100 METAR MRLB NIL=
200510181200 METAR MRLB 181200Z 00000KT 9999 FEW030 BKN130 24/23 A2979=
200510181300 METAR MRLB 181300Z 00000KT 9999 FEW030 SCT130 BKN250 25/23 A2981=
200510181400 METAR MRLB 181400Z 15005KT 9999 SCT025 BKN250 26/23 A2983=
200510181500 METAR MRLB 181500Z 16005KT 9999 SCT030 BKN250 28/24 A2984=
200510181600 METAR MRLB 181600Z 16005KT 9999 SCT030 SCT250 29/24 A2984=
200510181700 METAR MRLB 181700Z 17003KT 9999 SCT030 BKN250 30/24 A2982 RMK RN DST SW=
200510181800 METAR MRLB 181800Z 27009KT 9999 -RA FEW030 SCT030 BKN250 26/24 A2980=
200510181900 METAR MRLB 181900Z 27007KT 9999 SCT025 BKN130 28/24 A2976 RMK RN DST NE=
200510182000 METAR MRLB 182000Z 28008KT 9999 SCT030 BKN250 28/24 A2975 RMK RN DST S=
200510182100 METAR MRLB 182100Z 29009KT 9999 FEW010TCU SCT020 BKN250 28/24 A2973 RMK VIS 7KMS SE DUE RN=
200510182200 METAR MRLB 182200Z 27007KT 9999 SCT020 BKN240 27/24 A2974 RMK RN DST S/SE=
200510182300 METAR MRLB 182300Z 26003KT 9999 SCT025 OVC240 26/24 A2975 RMK RN DST SE=
200510190000 METAR MRLB 190000Z 00000KT 9999 SCT025 BKN140 25/24 A2977 RMK RN DST S=
200510190100 METAR MRLB NIL=
200510190200 METAR MRLB NIL=
200510190300 METAR MRLB NIL=
200510190400 METAR MRLB NIL=
200510190500 METAR MRLB NIL=
200510190600 METAR MRLB NIL=
200510190700 METAR MRLB NIL=
200510190800 METAR MRLB NIL=
200510190900 METAR MRLB NIL=
200510191000 METAR MRLB NIL=
200510191100 METAR MRLB NIL=
200510191200 METAR MRLB 191200Z 00000KT 9999 DZ FEW010 BKN020 24/23 A2982=
200510191300 METAR MRLB 191300Z 08003KT 9999 DZ FEW008 SCT020 OVC100 24/24 A2982=
200510191400 METAR MRLB 191400Z 10003KT 9999 -RA FEW008 BKN020 24/24 A2983=
200510191500 METAR MRLB 191500Z 04003KT 9999 DZ FEW007 SCT020 OVC100 25/24 A2984 RMK VIS S 8KMS /RA=
200510191600 METAR MRLB 191600Z 29004KT 9999 4000E -RA FEW008 SCT020 OVC100 25/24 A2984=
200510191700 METAR MRLB 191700Z 25007KT 9999 SCT020 BKN120 26/25 A2982 RMK RN DST SW NE=
200510191800 METAR MRLB 191800Z 26009KT 9999 FEW015 SCT025 BKN120 26/25 A2981 RMK RN DST S SE=
200510191900 METAR MRLB 191900Z 22006KT 9999 FEW015 SCT025 BKN130 26/25 A2979 RN DST S SE=
200510192000 METAR MRLB 192000Z 15004KT 9999 SCT020 OVC130 26/25 A2977 RMK RN DST E/N=
200510192100 METAR MRLB 192100Z 29005KT 9999 SCT020 OBV120 25/23 A2977 RN N NE=
200510192200 METAR MRLB 192200Z 32003KT 9999 FEW010 SCT020 OVC120 23/23 A2978 RERA RKM VSBY E 6000 DUE RN=
200510192300 METAR MRLB 192300Z 19003KT 9999 SCT020 BKN130 24/24 A2978 RN E=
200510200000 METAR MRLB 200000Z 00000KT 9999 SCT020 BKN120 24/24 A2979 RN N NE=
200510200100 METAR MRLB NIL=
200510200200 METAR MRLB NIL=
200510200300 METAR MRLB NIL=
200510200400 METAR MRLB NIL=
200510200500 METAR MRLB NIL=
200510200600 METAR MRLB NIL=
200510200700 METAR MRLB NIL=
200510200800 METAR MRLB NIL=
200510200900 METAR MRLB NIL=
200510201000 METAR MRLB NIL=
200510201100 METAR MRLB NIL=
200510201200 METAR MRLB 201200Z 00000KT 9999 OVC010 24/23 A2981 RMK DUE ST=
200510201300 METAR MRLB 201300Z 12005KT 9999 BKN010 24/24 A2983=
200510201400 METAR MRLB 201400Z 13004KT 9999 BKN010 SCT250 26/24 A2983=
200510201500 METAR MRLB 201500Z 15005KT 9999 -RA SCT010 BKN080 25/24 A2984=
200510201600 METAR MRLB 201600Z 00000KT 9999 BKN015 SCT250 28/25 A2985=
200510201700 METAR MRLB 201700Z 00000KT 9999 SCT015 SCT250 29/25 A2983 RMK RN NE E S SW=
200510201800 METAR MRLB 201800Z 29007KT 9999 SCT015 SCT250 2824 A2981 VSBY S 5KM=
200510201900 METAR MRLB 201900Z 29010KT 9999 SCT015 SCT250 29/25 A2978 RN E=
200510202000 METAR MRLB 202000Z 29011KT 9999 SCT020TCU BKN250 29/24 A2976 RASH E=
200510202100 METAR MRLB 202100Z 29010KT 9999 SCT020 BKN250 29/24 A2975=
200510202200 METAR MRLB 202200Z 27008KT 9999 FEW020 SCT120 BKN250 27/24 A2976=
200510202300 METAR MRLB 202300Z 28004KT 9999 FEW020 BKN120 26/24 A2978=
200510210000 METAR MRLB 210000Z 23003KT 9999 FEW020 OVC120 26/24 A2979=
200510210100 METAR MRLB NIL=
200510210200 METAR MRLB NIL=
200510210300 METAR MRLB NIL=
200510210400 METAR MRLB NIL=
200510210500 METAR MRLB NIL=
200510210600 METAR MRLB NIL=
200510210700 METAR MRLB NIL=
200510210800 METAR MRLB NIL=
200510210900 METAR MRLB NIL=
200510211000 METAR MRLB NIL=
200510211100 METAR MRLB NIL=
200510211200 METAR MRLB 211200Z 00000KT 9999 SCT008 BKN130 24/24 A2982 LOW ST E=
200510211300 METAR MRLB 211300Z 18003KT 9999 FEW005 BKN030 25/24 A2982=
200510211400 METAR MRLB 211400Z 00000KT 9999 FEW005 SCT030 BKN100 26/24 A2984 RN DST S SW=
200510211500 METAR MRLB 211500Z 20005KT 9999 2000 E -RA SCT010 BKN080 24/23 A2986=
200510211600 METAR MRLB 211600Z 13004KT 3000 -RA BR SCT008 BKN080 25/24 A2986=
200510211700 METAR MRLB 211700Z 11003KT 5000 -RA BKN007 SCT030 25/24 A2983=
200510211800 METAR MRLB 211800Z 00000KT 5000 -RA SCT005 SCT010 25/24 A2981 VSB W UNL=
200510211900 METAR MRLB 211900Z 20004KT 5000 -RA FEW005 BKN010 25/24 A2979=
200510212000 METAR MRLB 212000Z 21003KT 8000 -RA FEW008 OVC010 25/24 A2977=
200510212100 METAR MRLB 212100Z 00000KT 2000 RA FEW005 BKN010 25/24 A2976=
200510212200 METAR MRLB 212200Z 00000KT 8000 2000E -RA SCT008 BKN015 24/24 A2977=
200510212300 METAR MRLB 212300Z 15003KT 9999 -RA BKN010 SCT020 24/24 A2978=
200510220000 METAR MRLB 220000Z 17004KT 9999 -RA SCT005 OVC100 24/24 A2978=
200510220100 METAR MRLB NIL=
200510220200 METAR MRLB NIL=
200510220300 METAR MRLB NIL=
200510220400 METAR MRLB NIL=
200510220500 METAR MRLB NIL=
200510220600 METAR MRLB NIL=
200510220700 METAR MRLB NIL=
200510220800 METAR MRLB NIL=
200510220900 METAR MRLB NIL=
200510221000 METAR MRLB NIL=
200510221100 METAR MRLB NIL=
200510221200 METAR MRLB 221200Z 12003KT 9999 DZ SCT015 OVC100 23/23 A2981=
200510221300 METAR MRLB 221300Z 13003KT 9999 SCT020 BKN130 24/24 A2983 RN DST S=
200510221400 METAR MRLB 221400Z 16006KT 9999 -RA FEW010 BKN020 24/24 A2984=
200510221500 METAR MRLB 221500Z 15005KT 9999 DZ FEW008 BKN020 24/24 A2986=
200510221600 METAR MRLB 221600Z 20006KT 9999 SCT020 BKN130 27/25 A2985 RMX RN DST N=
200510221700 METAR MRLB 221700Z 20007KT 9999 SCT025 BKN130 27/24 A2982 RMX RN DST SW/NE=
200510221800 METAR MRLB 221800Z 27007KT 9999 DZ FEW015 SCT025 OVC130 24/23 A2981=
200510221900 METAR MRLB 221900Z 23004KT 9999 SCT020 BKN120 25/24 A2980 RMX RN DST N/NE=
200510222000 METAR MRLB 222000Z 20005KT 9999 SCT020 OVC100 25/23 A2978 RMX RN DST ENE=
200510222100 METAR MRLB 222100Z 18005KT 9999 SCT025 OVC110 25/24 A2977 RMK RN DST N=
200510222200 METAR MRLB 222200Z 16004KT 9999 SCT030 OVC120 25/24 A2977=
200510222300 METAR MRLB 222300Z 14005KT 9999 SCT025 OVC120 24/24 A2979 RMK RN DST S=
200510230000 METAR MRLB 230000Z 15004KT 9999 SCT020 OVC120 24/23 A2980 RMK RN DST S=
200510230100 METAR MRLB NIL=
200510230200 METAR MRLB NIL=
200510230300 METAR MRLB NIL=
200510230400 METAR MRLB NIL=
200510230500 METAR MRLB NIL=
200510230600 METAR MRLB NIL=
200510230700 METAR MRLB NIL=
200510230800 METAR MRLB NIL=
200510230900 METAR MRLB NIL=
200510231000 METAR MRLB NIL=
200510231100 METAR MRLB NIL=
200510231200 METAR MRLB 231200Z 14004KT 9999 SCT015 OVC100 23/22 A2983 RN DST N NE=
200510231300 METAR MRLB 231300Z 13003KT 9999 FEW010 SCT020 BKN120 23/23 A2985=
200510231400 METAR MRLB 231400Z 16006KT 9999 SCT020 BKN120 24/23 A2986=
200510231500 METAR MRLB 231500Z 14006KT 9999 SCT020 OVC120 25/23 A2989 RMK RN DST N NE=
200510231600 METAR MRLB 231600Z 17006KT 9999 SCT025 BKN130 26/24 A2989 RMK RN DST NE=
200510231700 METAR MRLB 231700Z 17004KT 9999 DZ FEW015 SCT025 BKN120 26/24 A2987=
200510231800 METAR MRLB 231800Z 23008KT 9999 SCT020 BKN130 27/24 A2985 RMK RN DST E NE=
200510231900 METAR MRLB 231900Z 26008KT 9999 SCT025 BKN250 28/24 A2983 RNK RN DST E=
200510232000 METAR MRLB 232000Z 23009KT 9999 SCT030 SCT250 29/23 A2982=
200510232100 METAR MRLB 232100Z 25008KT 9999 SCT030 BKN250 29/23 A2982=
200510232200 METAR MRLB 232200Z 25007KT 9999 FEW030 BKN250 28/23 A2982=
200510232300 METAR MRLB 232300Z 24007KT 9999 FEW030 SCT130 BKN250 27/23 A2984=
200510240000 METAR MRLB 240000Z 23004KT 9999 SCT030 BKN240 25/23 A2985=
200510240100 METAR MRLB NIL=
200510240200 METAR MRLB NIL=
200510240300 METAR MRLB NIL=
200510240400 METAR MRLB NIL=
200510240500 METAR MRLB NIL=
200510240600 METAR MRLB NIL=
200510240700 METAR MRLB NIL=
200510240800 METAR MRLB NIL=
200510240900 METAR MRLB NIL=
200510241000 METAR MRLB NIL=
200510241100 METAR MRLB NIL=
200510241200 METAR MRLB 241200Z 00000KT 3000 BR SCT04 BKN100 23/22 A2992=
200510241300 METAR MRLB 241300Z 11004KT 9999 SCT005 BKN100 23/23 A2993=
200510241400 METAR MRLB 241400Z 13003KT 9999 SCT010 BKN100 24/23 A2994=
200510241500 METAR MRLB 241500Z 15003KT 9999 BKN010 SCT100 25/23 A2995 RMK PCPN DST NE=
200510241600 METAR MRLB 241600Z 00000KT 9999 SCT020 SCT120 26/23 A2995 RMK RN DST S SW=
200510241700 METAR MRLB 241700Z 00000KT 9999 BKN020 27/24 A2994=
200510241800 METAR MRLB 241800Z 17005KT 9999 BKN020 28/24 A2990 RKM RN DST NE=
200510241900 METAR MRLB 241900Z 28005KT 9999 SCT025 28/24 A2987 RMK RN DST ENE=
200510242000 METAR MRLB 242000Z 26009KT 9999 SCT025 29/24 A2984 RMK RN DST N=
200510242100 METAR MRLB 242100Z 28008KT 9999 SCT025 29/23 A2983 RN N E=
200510242200 METAR MRLB 242200Z 28009KT 9999 SCT025 SCT100 28/24 A2983 RMK RN N=
200510242300 METAR MRLB 242300Z 29007KT 9999 SCT015TCU BKN100 27/24 A2986 RASH N NE=
200510250000 METAR MRLB 250000Z 01004KT 9999 BKN010 SCT100 24/24 A2987 RMK RN N NE W=
200510250100 METAR MRLB NIL=
200510250200 METAR MRLB NIL=
200510250300 METAR MRLB NIL=
200510250400 METAR MRLB NIL=
200510250500 METAR MRLB NIL=
200510250600 METAR MRLB NIL=
200510250700 METAR MRLB NIL=
200510250800 METAR MRLB NIL=
200510250900 METAR MRLB NIL=
200510251000 METAR MRLB NIL=
200510251100 METAR MRLB NIL=
200510251200 METAR MRLB 251200Z 00000KT 9999 -RA FEW020 OVC100 23/23 A2990 RMK DUE ST W=
200510251300 METAR MRLB 251300Z 00000KT 0500 -RA FG FEW002 OVC100 23/23 A2992=
200510251400 METAR MRLB 251400Z 00000KT 5000 -RA SCT005 BKN090 24/23 A2994=
200510251500 METAR MRLB 251500Z 04005KT 1000 RA OVC010 23/23 A2997=
200510251600 METAR MRLB 251600Z 32005KT 9999 FEW010 OVC080 23/22 A2996 RN S SW=
200510251700 METAR MRLB 251700Z 22006KT 9999 FEW015 OVC090 24/22 A2993 RN S SW=
200510251800 METAR MRLB 251800Z 21004KT CAVOK 25/23 A2991=
200510251900 METAR MRLB 251900Z 21004KT CAVOK 25/23 A2991=
200510252000 METAR MRLB 252000Z 24005KT CAVOK 26/22 A2996=
200510252100 METAR MRLB 252100Z 20005KT CAVOK 25/22 A2984=
200510252200 METAR MRLB 252200Z 20004KT CAVOK 26/23 A2983=
200510252300 METAR MRLB 252300Z 00000KT CAVOK 26/23 A2984=
200510260000 METAR MRLB 260000Z 22003KT CAVOK 25/23 A2984=
200510260100 METAR MRLB NIL=
200510260200 METAR MRLB NIL=
200510260300 METAR MRLB NIL=
200510260400 METAR MRLB NIL=
200510260500 METAR MRLB NIL=
200510260600 METAR MRLB NIL=
200510260700 METAR MRLB NIL=
200510260800 METAR MRLB NIL=
200510260900 METAR MRLB NIL=
200510261000 METAR MRLB NIL=
200510261100 METAR MRLB NIL=
200510261200 METAR MRLB 261200Z 00000KT 9999 FEW030 BKN130 21/20 A2987=
200510261300 METAR MRLB 261300Z 00000KT 9999 FEW030 OVC130 23/21 A2989=
200510261400 METAR MRLB 261400Z 20003KT 9999 FEW035 BKN130 24/21 A2990=
200510261500 METAR MRLB 261500Z 24003KT 9999 FEW035 BKN130 25/22 A2990=
200510261600 METAR MRLB 261600Z 25006KT CAVOK 26/22 A2989=
200510261700 METAR MRLB 261700Z 22004KT CAVOK 27/22 A2986=
200510261800 METAR MRLB 261800Z 21005KT 9999 FEW035 BKN130 28/22 A2984=
200510261900 METAR MRLB 261900Z 20005KT CAVOK 29/21 A2980=
200510262000 METAR MRLB 262000Z 29005KT CAVOK 30/21 A2977 SCT130=
200510262100 METAR MRLB 262100Z 28007KT 9999 FEW035 BKN130 29/21 A2977=
200510262200 METAR MRLB 262200Z 28005KT 9999 FEW035 BKN120 28/22 A2978=
200510262300 METAR MRLB 262300Z 22003KT 9999 FEW035 OVC120 27/23 A2979=
200510270000 METAR MRLB 270000Z 21003KT 9999 FEW030 OVC120 25/23 A2981=
200510270100 METAR MRLB NIL=
200510270200 METAR MRLB NIL=
200510270300 METAR MRLB NIL=
200510270400 METAR MRLB NIL=
200510270500 METAR MRLB NIL=
200510270600 METAR MRLB NIL=
200510270700 METAR MRLB NIL=
200510270800 METAR MRLB NIL=
200510270900 METAR MRLB NIL=
200510271000 METAR MRLB NIL=
200510271100 METAR MRLB NIL=
200510271200 METAR MRLB 271200Z 00000KT 9999 FEW025 BKN140 22/22 A2985=
200510271300 METAR MRLB 271300Z 07003KT CAVOK 23/22 A2987=
200510271400 METAR MRLB 271400Z 20005KT CAVOK 26/21 A2988=
200510271500 METAR MRLB 271500Z 17003KT CAVOK 28/21 A2990=
200510271600 METAR MRLB 271600Z 23003KT CAVOK 29/21 A2989=
200510271700 METAR MRLB 271700Z 21004KT 9999 FEW035 SCT250 30/20 A2987=
200510271800 METAR MRLB 271800Z 22005KT 9999 FEW035 SCT250 30/20 A2984=
200510271900 METAR MRLB 271900Z 27006KT 9999 SCT035 SCT250 30/20 A2981=
200510272000 METAR MRLB 272000Z 26008KT 9999 FEW035 SCT250 30/22 A2979=
200510272100 METAR MRLB 272100Z 25008KT 9999 FEW035 BKN250 29/22 A2978=
200510272200 METAR MRLB 272200Z 25006KT 9999 FEW035 BKN250 28/22 A2979=
200510272300 METAR MRLB 272300Z 25004KT 9999 FEW035 SCT250 27/23 A2980=
200510280000 METAR MRLB 280000Z 24003KT CAVOK 24/23 A2982=
200510280100 METAR MRLB NIL=
200510280200 METAR MRLB NIL=
200510280300 METAR MRLB NIL=
200510280400 METAR MRLB NIL=
200510280500 METAR MRLB NIL=
200510280600 METAR MRLB NIL=
200510280700 METAR MRLB NIL=
200510280800 METAR MRLB NIL=
200510280900 METAR MRLB NIL=
200510281000 METAR MRLB NIL=
200510281100 METAR MRLB NIL=
200510281200 METAR MRLB 281200Z 10003KT 9999 SCT020 BKN250 23/22 A2986 RN DST S=
200510281300 METAR MRLB 281300Z 00000KT 9999 FEW010 BKN250 24/23 A2988=
200510281400 METAR MRLB 281400Z 00000KT 9999 FEW010 SCT120 BKN250 26/24 A2990=
200510281500 METAR MRLB 281500Z 26004KT 9999 SCT020 SCT120 27/24 A2991=
200510281600 METAR MRLB 281600Z 27005KT 9999 -RA SCT020 SCT100 28/23 A2990=
200510281700 METAR MRLB 281700Z 27005KT 9999 SCT020 BKN100 28/23 A2988 RMK RN DST N NE=
200510281800 METAR MRLB 281800Z 28004KT 9999 -RA SCT020 OVC100 27/23 A2986=
200510281900 METAR MRLB 281900Z 21003KT 9999 SCT020 BKN100 27/24 A2984 RMK RN DST S=
200510282000 METAR MRLB 282000Z 28007KT 9999 FEW020 BKN090 29/23 A2981=
200510282100 METAR MRLB 282100Z 28009KT 9999 FEW025 BKN250 28/24 A2980=
200510282200 METAR MRLB 282200Z 27009KT 9999 FEW025 BKN120 27/23 A2980=
200510282300 METAR MRLB 282300Z 28006KT 9999 SCT025 SCT250 26/24 A2981 RMK CB DST E=
200510290000 METAR MRLB 290000Z 28005KT 9999 SCT025 SCT250 25/24 A2983=
200510290100 METAR MRLB NIL=
200510290200 METAR MRLB NIL=
200510290300 METAR MRLB NIL=
200510290400 METAR MRLB NIL=
200510290500 METAR MRLB NIL=
200510290600 METAR MRLB NIL=
200510290700 METAR MRLB NIL=
200510290800 METAR MRLB NIL=
200510290900 METAR MRLB NIL=
200510291000 METAR MRLB NIL=
200510291100 METAR MRLB NIL=
200510291200 METAR MRLB 291200Z 24003KT 9999 SCT020 BKN100 23/22 A2988 RN DST E=
200510291300 METAR MRLB 291300Z 00000KT 9999 FEW020 24/23 A2989=
200510291400 METAR MRLB 291400Z 25004KT 9999 FEW020 BKN100 26/23 A2991=
200510291500 METAR MRLB 291500Z 2926003KT 9999 SCT020 BKN120 27/24 A2993=
200510291600 METAR MRLB 291600Z 27005KT 9999 SCT020 BKN100 27/24 A2992=
200510291700 METAR MRLB 291700Z 28007KT 9999 SCT020 BKN100 29/24 A2989=
200510291800 METAR MRLB 291800Z 28008KT 9999 SCT020 BKN100 28/24 A2986 RMK RN DST N NE=
200510291900 METAR MRLB 291900Z 29010KT 9999 SCT020 BKN100 29/24 A2993=
200510292000 METAR MRLB 292000Z 28009KT 9999 SCT020 BKN100 29/24 A2980=
200510292100 METAR MRLB 292100Z 29009KT 9999 FEW025 OVC100 28/23 A2978 RN N NE=
200510292200 METAR MRLB 292200Z 28008KT 9999 FEW025 BKN100 28/24 A2979 RN NE=
200510292300 METAR MRLB 292300Z 27006KT 9999 SCT015 BKN100 26/24 A2979 RMK RN NE=
200510300000 METAR MRLB 300000Z 27004KT 9999 FEW020 OVC080 26/24 A2980 RMK RN DST N NE=
200510300100 METAR MRLB NIL=
200510300200 METAR MRLB NIL=
200510300300 METAR MRLB NIL=
200510300400 METAR MRLB NIL=
200510300500 METAR MRLB NIL=
200510300600 METAR MRLB NIL=
200510300700 METAR MRLB NIL=
200510300800 METAR MRLB NIL=
200510300900 METAR MRLB NIL=
200510301000 METAR MRLB NIL=
200510301100 METAR MRLB NIL=
200510301300 METAR MRLB 301300Z 00000KT 9999 SCT025 OVC120 25/24 A2987=
200510301400 METAR MRLB 301400Z 00000KT 9999 SCT025 OVC120 27/24 A2989=
200510301500 METAR MRLB 301500Z 30004KT 9999 SCT025 BKN120 28/25 A2989=
200510301600 METAR MRLB 301600Z 28007KT 9999 SCT030 BKN120 27/24 A2989=
200510301700 METAR MRLB 301700Z 28008KT 9999 FEW020 SCT030 OVC120 27/24 A2987=
200510301800 METAR MRLB 301800Z 28007KT 9999 SCT025 OVC130 28/24 2985=
200510301900 METAR MRLB 301900Z 29008KT 9999 SCT030 OVC130 27/24 A2982 RN NE=
200510302000 METAR MRLB 302000Z 27007KT 9999 SCT025 BKN130 27/24 A2979=
200510302100 METAR MRLB 302100Z 27009KT 9999 SCT025 OVC130 27/24 A2977=
200510302200 METAR MRLB 302200Z 28008KT 9999 FEW030 OVC120 27/23 A2997=
200510302300 METAR MRLB 302300Z 28005KT 9999 FEW030 BKN120 26/22 A2978=
200510310000 METAR MRLB 310000Z 29005KT 9999 FEW030 BKN120 25/21 A2980=
200510310100 METAR MRLB NIL=
200510310200 METAR MRLB NIL=
200510310300 METAR MRLB NIL=
200510310400 METAR MRLB NIL=
200510310500 METAR MRLB NIL=
200510310600 METAR MRLB NIL=
200510310700 METAR MRLB NIL=
200510310800 METAR MRLB NIL=
200510310900 METAR MRLB NIL=
200510311000 METAR MRLB NIL=
200510311100 METAR MRLB NIL=
200510311200 METAR MRLB 311200Z 00000KT 7000 DZ FEW010 SCT020 OVC100 23/22 A2985=
200510311300 METAR MRLB 311300Z 00000KT 6000 DZ FEW010 BKN025 23/22 A2987=
200510311400 METAR MRLB 311400Z 03003KT 9999 SCT020 OVC110 23/22 A2988=
200510311500 METAR MRLB 311500Z 00000KT 9999 SCT020 BKN120 25/23 A2990=
200510311700 METAR MRLB 311700Z 00000KT 9999 SCT025 OVC130 27/23 A2988=
200510311800 METAR MRLB 311800Z 14005KT 9999 SCT030 OVC120 27/23 A2985=
200510311900 METAR MRLB 311900Z 14006KT 9999 FEW030 BKN130 28/23 A2982=
200510312000 METAR MRLB 312000Z 17005KT 9999 FEW030 BKN130 28/23 A2979=
200510312100 METAR MRLB 312100Z 12003KT 9999 FEW025 BKN130 29/23 A2979=
200510312200 METAR MRLB 312200Z 00000KT 9999 FEW030 BKN130 29/22 A2979=
200510312300 METAR MRLB 312300Z 25004KT 9999 SCT025 BKN130 26/24 A2981=
200511010000 METAR MRLB 010000Z 27003KT 9999 SCT020 BKN120 24/24 A2982=
200511010100 METAR MRLB NIL=
200511010200 METAR MRLB NIL=
200511010300 METAR MRLB NIL=
200511010400 METAR MRLB NIL=
200511010500 METAR MRLB NIL=
200511010600 METAR MRLB NIL=
200511010700 METAR MRLB NIL=
200511010800 METAR MRLB NIL=
200511010900 METAR MRLB NIL=
200511011000 METAR MRLB NIL=
200511011100 METAR MRLB NIL=
200511011200 METAR MRLB 011200Z 00000KT 3000 BR FEW001 OVC100 23/23 A2986=
200511011300 METAR MRLB 011300Z 00000KT 9999 FEW005 OVC100 24/23 A2989 BR W=
200511011400 METAR MRLB 011400Z 00000KT 9999 FEW010 OVC100 26/23 A2991=
200511011500 METAR MRLB 011500Z 35004KT 9999 SCT015 OVC100 26/24 A2993 RN N DST=
200511011800 METAR MRLB 011800Z 00000KT 9999 FEW020 BKN120 29/23 A2987 RN SE=
200511011900 METAR MRLB 011900Z 31004KT 9999 SCT025 SCT120 30/24 A2983 CB NE=
200511012000 METAR MRLB 012000Z 25005KT 9999 SCT030 SCT240 31/24 A2981=
200511012100 METAR MRLB 012100Z 27006KT 9999 3000SE -RA SCT015TCU BKN080 30/24 A2979=
200511012200 METAR MRLB 012200Z 00000KT 9999 FEW010 BKN100 24/24 A2979 RMK RN DST SW=
200511012300 METAR MRLB 012300Z 19003KT 9999 FEW020 BKN100 25/24 A2981 RMK RN DST N W=
200511020000 METAR MRLB 020000Z 00000KT 9999 FEW020 BKN100 25/25 A2983=
200511020100 METAR MRLB NIL=
200511020200 METAR MRLB NIL=
200511020300 METAR MRLB NIL=
200511020400 METAR MRLB NIL=
200511020500 METAR MRLB NIL=
200511020600 METAR MRLB NIL=
200511020700 METAR MRLB NIL=
200511020800 METAR MRLB NIL=
200511020900 METAR MRLB NIL=
200511021000 METAR MRLB NIL=
200511021100 METAR MRLB NIL=
200511021200 METAR MRLB 021200Z 00000KT 9999 FEW020 OVC250 23/22 A2984=
200511021300 METAR MRLB 021300Z 00000KT 9999 FEW025 BKN100 OVC250 23/23 A2987=
200511021400 METAR MRLB 021400Z 20004KT 9999 FEW025 BKN120 27/24 A2990=
200511021500 METAR MRLB 021500Z 20006KT 9999 FEW030 BKN120 27/24 A2991=
200511021600 METAR MRLB 021600Z 20004KT 9999 FEW030 BKN120 28/24 A2991 RMK RN DST S=
200511021700 METAR MRLB 021700Z 23004KT 9999 FEW030 SCT090 29/23 A2988=
200511021800 METAR MRLB 021800Z 21004KT 9999 FEW030 OVC100 28/24 A2986=
200511021941 METAR MRLB 211900Z 24003KT 9999 FEW030 OVC120 29/23 A2985=
200511022000 METAR MRLB 022000Z 25006KT 9999 FEW030 OVC120 29/24 A2981=
200511022100 METAR MRLB 022100Z 26004KT CAVOK 29/24 A2980 RMK 8AS120=
200511022300 METAR MRLB 022300Z 21004KT CAVOK 26/24 A2980 OVC120=
200511030000 METAR MRLB 030000Z 25003KT 9999 FEW035 OVC120 25/24 A2982=
200511030100 METAR MRLB NIL=
200511030200 METAR MRLB NIL=
200511030300 METAR MRLB NIL=
200511030400 METAR MRLB NIL=
200511030500 METAR MRLB NIL=
200511030600 METAR MRLB NIL=
200511030700 METAR MRLB NIL=
200511030800 METAR MRLB NIL=
200511030900 METAR MRLB NIL=
200511031000 METAR MRLB NIL=
200511031100 METAR MRLB NIL=
200511031200 METAR MRLB 031200Z 25003KT 9999 FEW025 OVC120 23/22 A2987=
200511031300 METAR MRLB 031300Z 23004KT 9999 FEW025 BKN130 24/22 A2988=
200511031400 METAR MRLB 031400Z 25004KT 9999 FEW030 BKN130 25/23 A2990=
200511031500 METAR MRLB 031500Z 28003KT 9999 FEW030 BKN130 26/23 A2991=
200511031600 METAR MRLB 031600Z 25005KT 9999 FEW035 BKN130 27/23 A2992=
200511031700 METAR MRLB 031700Z 20004KT 9999 FEW035 BKN140 30/23 A2990=
200511031800 METAR MRLB 031800Z 25007KT 9999 SCT035 OVC140 28/23 A2988=
200511031900 METAR MRLB 031900Z 10006KT 9999 SCT030 OVC130 27/23 A2986=
200511032000 METAR MRLB 032000Z 10005KT 9999 FEW030 OVC120 27/23 A2985=
200511032100 METAR MRLB 032100Z 16003KT 9999 SCT020 OVC100 26/24 A2985 RERA RMK RN E S SW=
200511032200 METAR MRLB 032200Z 14003KT 9999 SCT025 OVC120 25/24 A2984=
200511032300 METAR MRLB NIL=
200511040000 METAR MRLB 040000Z 20003KT 9999 SCT025 OVC110 24/23 A2985=
200511040100 METAR MRLB NIL=
200511040200 METAR MRLB NIL=
200511040300 METAR MRLB NIL=
200511040400 METAR MRLB NIL=
200511040500 METAR MRLB NIL=
200511040600 METAR MRLB NIL=
200511040700 METAR MRLB NIL=
200511040800 METAR MRLB NIL=
200511040900 METAR MRLB NIL=
200511041000 METAR MRLB NIL=
200511041100 METAR MRLB NIL=
200511041200 METAR MRLB 041200Z 00000KT 9999 FEW025 BKN130 23/22 A2980=
200511041300 METAR MRLB 041300Z 18007KT 9999 FEW030 BKN130 23/22 A2982=
200511041400 METAR MRLB 041400Z 09005KT 9999 FEW030 BKN140 25/23 A2986=
200511041500 METAR MRLB 041500Z 12007KT 9999 FEW030 BKN140 28/23 A2988=
200511041600 METAR MRLB 041600Z 12010KT 9999 SCT030 BKN130 28/23 A2988=
200511041700 METAR MRLB 041700Z 12008KT 9999 SCT035 OVC130 30/23 A2987=
200511041800 METAR MRLB 041800Z 12006KT 9999 SCT035 BKN130 30/23 A2985=
200511041900 METAR MRLB 041900Z 28005KT 9999 SCT030 OVC130 28/24 A2983 RMK RN NE=
200511042000 METAR MRLB 042000Z 28007KT 9999 SCT025 OVC130 27/23 A2981=
200511042100 METAR MRLB 042100Z 27004KT 9999 FEW035 OVC120 27/23 A2979=
200511042200 METAR MRLB 042200Z 27003KT 9999 FEW020TCU SCT030 OVC120 27/24 A2980 RN DST E NE=
200511042300 METAR MRLB 042300Z 06007KT 9999 SCT020 OVC100 24/22 A2981 RN DST E=
200511050000 METAR MRLB 050000Z 09004KT 9999 SCT025 OVC120 24/21 A2982=
200511050100 METAR MRLB NIL=
200511050200 METAR MRLB NIL=
200511050300 METAR MRLB NIL=
200511050400 METAR MRLB NIL=
200511050500 METAR MRLB NIL=
200511050600 METAR MRLB NIL=
200511050700 METAR MRLB NIL=
200511050800 METAR MRLB NIL=
200511050900 METAR MRLB NIL=
200511051000 METAR MRLB NIL=
200511051100 METAR MRLB NIL=
200511051200 METAR MRLB 051200Z 00000KT 9999 2000W BR FEW020 SCT250 22/22 A2981=
200511051300 METAR MRLB 051300Z 00000KT 9999 FEW020 SCT250 24/23 A2982=
200511051400 METAR MRLB 051400Z 00000KT 9999 BKN020 25/23 A2984=
200511051500 METAR MRLB 051500Z 23003KT 9999 SCT025 27/23 A2986=
200511051600 METAR MRLB NIL=
200511051800 METAR MRLB 051800Z 30004KT 9999 BKN035 31/24 A2979=
200511051900 METAR MRLB 051900Z 26004KT 9999 BKN035 31/23 A2977=
200511052000 METAR MRLB 052000Z 28008KT 9999 SCT035 31/24 A2973=
200511052100 METAR MRLB 052100Z 29007KT 9999 BKN035 30/24 A2973=
200511052200 METAR MRLB 052200Z 28006KT 9999 FEW035 29/24 A2973=
200511052300 METAR MRLB 052300Z 27005KT 9999 FEW030 27/23 A2975=
200511060000 METAR MRLB 060000Z 26003KT 9999 BKN025 26/23 A2976 RN DST SSE=
200511060100 METAR MRLB NIL=
200511060200 METAR MRLB NIL=
200511060300 METAR MRLB NIL=
200511060400 METAR MRLB NIL=
200511060500 METAR MRLB NIL=
200511060600 METAR MRLB NIL=
200511060700 METAR MRLB NIL=
200511060800 METAR MRLB NIL=
200511060900 METAR MRLB NIL=
200511061000 METAR MRLB NIL=
200511061100 METAR MRLB NIL=
200511061200 METAR MRLB 061200Z 00000KT 0200 FG VV/// 22/22 A2982=
200511061400 METAR MRLB 061400Z 00000KT 9999 FEW010 BKN250 26/24 A2985=
200511061500 METAR MRLB 061500Z 00000KT 9999 FEW025 BKN250 29/24 A2985=
200511061600 METAR MRLB 061600Z 09010KT 9999 FEW030 BKN080 30/22 A2984 RN DST ESE=
200511061700 METAR MRLB 061700Z 08010KT 9999 FEW035 BKN250 31/22 A2981=
200511061800 METAR MRLB 061800Z 08010KT 9999 FEW035 BKN250 30/23 A2979=
200511061900 METAR MRLB 061900Z 10007KT 9999 FEW035 BKN250 32/21 A2976=
200511062000 METAR MRLB 062000Z 07009KT 9999 FEW040 BKN250 32/21 A2975=
200511062100 METAR MRLB 062100Z 07010KT 9999 FEW040 SCT250 32/21 A2977=
200511062200 METAR MRLB 062200Z 06010KT 9999 FEW045 BKN250 31/21 A2973=
200511062300 METAR MRLB 062300Z 07006KT CAVOK 29/21 A2973=
200511070000 METAR MRLB NIL=
200511070100 METAR MRLB NIL=
200511070200 METAR MRLB NIL=
200511070300 METAR MRLB NIL=
200511070400 METAR MRLB NIL=
200511070500 METAR MRLB NIL=
200511070600 METAR MRLB NIL=
200511070700 METAR MRLB NIL=
200511070800 METAR MRLB NIL=
200511070900 METAR MRLB NIL=
200511071000 METAR MRLB NIL=
200511071100 METAR MRLB NIL=
200511071200 METAR MRLB 071200Z 00000KT 9999 SCT025 BKN250 24/22 A2980=
200511071300 METAR MRLB 071300Z 09003KT 9999 SCT030 SCT250 26/22 A2983=
200511071400 METAR MRLB 071400Z 04004KT 9999 FEW030 SCT250 29/22 A2984=
200511071500 METAR MRLB 071500Z 06010KT 9999 SCT030 SCT250 30/22 A2985=
200511071600 METAR MRLB 071600Z 07014KT 9999 SCT035 SCT250 31/23 A2983=
200511071700 METAR MRLB 071700Z 09015KT 9999 SCT035 SCT140 30/22 A2982=
200511071800 METAR MRLB 071800Z 07014KT 9999 SCT030 BKN130 30/22 A2981 RN DST NE=
200511071900 METAR MRLB 071900Z 07011KT 9999 SCT030 SCT130 31/23 A2978 RMK RN DST N=
200511072000 METAR MRLB 072000Z 07013KT 9999 SCT030 BKN130 29/23 A2976 RMK RN DST E NE=
200511072100 METAR MRLB 072100Z 08009KT 9999 SCT025 BKN120 28/23 A2976 RMK RN DST N NE=
200511072200 METAR MRLB 072200Z 09006KT 9999 FEW030 OVC120 27/23 A2975=
200511072300 METAR MRLB 072300Z 08003KT 9999 FEW030 OVC120 26/23 A2976=
200511080000 METAR MRLB 080000Z 06004KT 9999 FEW030 BKN130 25/22 A2976=
200511080100 METAR MRLB NIL=
200511080200 METAR MRLB NIL=
200511080300 METAR MRLB NIL=
200511080400 METAR MRLB NIL=
200511080500 METAR MRLB NIL=
200511080600 METAR MRLB NIL=
200511080700 METAR MRLB NIL=
200511080800 METAR MRLB NIL=
200511080900 METAR MRLB NIL=
200511081000 METAR MRLB NIL=
200511081100 METAR MRLB NIL=
200511081200 METAR MRLB 081200Z 00000KT 9999 SCT015 OVC100 23/23 A2982 RN DST N NE=
200511081300 METAR MRLB 081300Z 31003KT 9999 SCT020 OVC100 24/23 A2982 RMK RN DST N=
200511081400 METAR MRLB 081400Z 05003KT 9999 SCT025 OVC120 25/23 A2984=
200511081500 METAR MRLB 081500Z 19004KT 9999 FEW030 BKN120 26/24 A2986 RMK RN DST S=
200511081600 METAR MRLB 081600Z 15008KT 9999 DZ SCT025 OVC120 24/23 A2986=
200511081700 METAR MRLB 081700Z 29003KT 9999 FEW030 BKN130 28/24 A2985=
200511081800 METAR MRLB 081800Z 07011KT 9999 FEW035 BKN140 31/22 A2981=
200511081900 METAR MRLB 081900Z 08010KT 9999 FEW035 BKN120 29/22 A2978=
200511082000 METAR MRLB 082000Z 10009KT 9999 FEW035 BKN120 28/22 A2975=
200511082100 METAR MRLB 082100Z 08007KT 9999 FEW035 OVC120 27/21 A2973=
200511082200 METAR MRLB 082200Z 08004KT 9999 FEW035 OVC120 27/21 A2974=
200511082300 METAR MRLB 082300Z 10010KT 9999 FEW035 OVC120 27/21 A2975=
200511090000 METAR MRLB 090000Z 13007KT 9999 FEW035 BKN120 25/22 A2977=
200511090100 METAR MRLB NIL=
200511090200 METAR MRLB NIL=
200511090300 METAR MRLB NIL=
200511090400 METAR MRLB NIL=
200511090500 METAR MRLB NIL=
200511090600 METAR MRLB NIL=
200511090700 METAR MRLB NIL=
200511090800 METAR MRLB NIL=
200511090900 METAR MRLB NIL=
200511091000 METAR MRLB NIL=
200511091100 METAR MRLB NIL=
200511091200 METAR MRLB 091200Z 00000KT 0100 FG VV/// 22/22 A2982=
200511091300 METAR MRLB 091300Z 00000KT 9999 FEW035 BKN100 24/24 A2985=
200511091400 METAR MRLB 091400Z 01006KT 9999 FEW035 SCT250 27/23 A2987=
200511091500 METAR MRLB 091500Z 34005KT 9999 FEW035 BKN100 27/24 A2987=
200511091600 METAR MRLB 091600Z 36005KT 9999 FEW035 BKN100 29/24 A2986 RMK RN N=
200511091700 METAR MRLB 091700Z 35005KT 9999 FEW035 SCT100 BKN250 30/24 A2984=
200511091800 METAR MRLB 091800Z 36010KT 9999 FEW035 SCT100 BKN250 29/23 A2981 RN N=
200511091900 METAR MRLB 091900Z 08009KT 9999 FEW035 BKN120 29/23 A2977=
200511092000 METAR MRLB 092000Z 08012G23KT 9999 FEW035 BKN120 30/22 A2974=
200511092100 METAR MRLB 092100Z 32005KT 9999 FEW035 0VC120 29/23 A2975=
200511092200 METAR MRLB 092200Z 09009KT 9999 FEW035 BKN120 28/22 A2974=
200511092300 METAR MRLB 092300Z 08012KT 9999 FEW040 OVC120 28/21 A2974=
200511100000 METAR MRLB 100000Z 10009KT CAVOK 27/22 A2976=
200511100100 METAR MRLB NIL=
200511100200 METAR MRLB NIL=
200511100300 METAR MRLB NIL=
200511100400 METAR MRLB NIL=
200511100500 METAR MRLB NIL=
200511100600 METAR MRLB NIL=
200511100700 METAR MRLB NIL=
200511100800 METAR MRLB NIL=
200511100900 METAR MRLB NIL=
200511101000 METAR MRLB NIL=
200511101100 METAR MRLB NIL=
200511101200 METAR MRLB 101200Z 20003KT 9999 SCT035 OVC120 23/22 A2981=
200511101300 METAR MRLB 101300Z 00000KT 9999 FEW035 SCT120 BKN250 25/24 A2982/ REDZ=
200511101400 METAR MRLB 101400Z 00000KT 9999 SCT035 BKN120 28/23 A2985 RN DST N ENE=
200511101500 METAR MRLB 101500Z 07010KT 9999 FEW035 OVC120 28/23 A2986 RN DST N NE=
200511101600 METAR MRLB 101600Z 06009KT 9999 FEW035 BKN120 29/23 A2986 RN DST E NE S=
200511101700 METAR MRLB 101700Z 06008KT 9999 FEW035 BKN120 29/23 A2983 RN DST N NE=
200511101800 METAR MRLB 101800Z 35003KT 9999 SCT035 BKN120 29/23 A2982=
200511101900 METAR MRLB 101900Z 07011KT 9999 FEW035 BKN120 30/23 A2977=
200511102000 METAR MRLB 102000Z 08006KT 9999 FEW035 OVC120 29/22 A2974=
200511102100 METAR MRLB 102100Z 35004KT 9999 FEW035 OVC120 29/24 A2973=
200511102200 METAR MRLB 102200Z 04007KT 9999 FEW035 OVC120 28/22 A2974 RN DST N NE=
200511102300 METAR MRLB 102300Z 08008KT 9999 FEW030 OVC100 26/22 A2975 RN N E=
200511110000 METAR MRLB 110000Z 07014KT 9999 FEW030 OVC100 26/22 A2975 RN DST NE E S=
200511110100 METAR MRLB NIL=
200511110200 METAR MRLB NIL=
200511110300 METAR MRLB NIL=
200511110400 METAR MRLB NIL=
200511110500 METAR MRLB NIL=
200511110600 METAR MRLB NIL=
200511110700 METAR MRLB NIL=
200511110800 METAR MRLB NIL=
200511110900 METAR MRLB NIL=
200511111000 METAR MRLB NIL=
200511111100 METAR MRLB NIL=
200511111200 METAR MRLB 111200Z 00000KT 9999 FEW030 BKN130 23/21 A2980=
200511111300 METAR MRLB 111300Z 26004KT 9999 FEW030 BKN140 24/22 A2982=
200511111400 METAR MRLB 111400Z 00000KT 9999 FEW035 BKN250 27/22 A2984=
200511111500 METAR MRLB 111500Z 24004KT 9999 FEW035 OVC250 28/22 A2985=
200511111600 METAR MRLB 111600Z 23003KT 9999 FEW035 BKN250 29/23 A2982=
200511111700 METAR MRLB 111700Z 21007KT 9999 FEW035 OVC250 29/23 A2980=
200511111800 METAR MRLB 111800Z 29005KT 9999 FEW035 BKN250 30/23 A2979=
200511111900 METAR MRLB 111900Z 28005KT 9999 SCT035 OVC240 30/23 A2976=
200511112000 METAR MRLB 112000Z 10007KT 9999 SCT035 BKN240 32/22 A2973=
200511112100 METAR MRLB 112100Z 28008KT 9999 SCT035 OVC240 30/23 A2972=
200511112200 METAR MRLB 112200Z 27004KT 9999 SCT030 BKN140 29/23 A2974=
200511112300 METAR MRLB 112300Z 10007KT 9999 SCT030 BKN140 27/21 A2976=
200511120000 METAR MRLB 120000Z 14007KT 9999 SCT030 BKN130 26/21 A2977=
200511120100 METAR MRLB NIL=
200511120200 METAR MRLB NIL=
200511120300 METAR MRLB NIL=
200511120400 METAR MRLB NIL=
200511120500 METAR MRLB NIL=
200511120600 METAR MRLB NIL=
200511120700 METAR MRLB NIL=
200511120800 METAR MRLB NIL=
200511120900 METAR MRLB NIL=
200511121000 METAR MRLB NIL=
200511121100 METAR MRLB NIL=
200511121200 METAR MRLB 121200Z 00000KT 9999 FEW030 BKN130 22/21 A2982=
200511121300 METAR MRLB 121300Z 22003KT 9999 FEW030 BKN130 23/22 A2984=
200511121400 METAR MRLB 121400Z 26003KT 9999 SCT030 SCT140 26/23 A2985=
200511121500 METAR MRLB 121500Z 23003KT 9999 FEW035 SCT140 29/23 A2986=
200511121600 METAR MRLB 121600Z 24003KT 9999 FEW030 BKN140 29/22 A2984=
200511121700 METAR MRLB 121700Z 24006KT 9999 SCT030 SCT140 30/23 A2981=
200511121800 METAR MRLB 121800Z 27008KT 9999 SCT035 BKN140 30/24 A2980=
200511121900 METAR MRLB 121900Z 29007KT 9999 SCT035 BKN130 32/23 A2077=
200511122000 METAR MRLB 122000Z 32007KT 9999 SCT030 BKN130 30/23 A2975 RMK RN DST NE=
200511122100 METAR MRLB 122100Z 00000KT 9999 SCT030 OVC130 28/23 A2974 RMK RN DST SW=
200511122200 METAR MRLB 122200Z 28004KT 9999 FEW030 0VC120 28/23 A2975=
200511122300 METAR MRLB 122300Z 30004KT 9999 SCT030 OVC120 26/22 A2978=
200511130000 METAR MRLB 130000Z 24003KT 9999 SCT025 OVC120 25/22 A2980=
200511130100 METAR MRLB NIL=
200511130200 METAR MRLB NIL=
200511130300 METAR MRLB NIL=
200511130400 METAR MRLB NIL=
200511130500 METAR MRLB NIL=
200511130600 METAR MRLB NIL=
200511130700 METAR MRLB NIL=
200511130800 METAR MRLB NIL=
200511130900 METAR MRLB NIL=
200511131000 METAR MRLB NIL=
200511131100 METAR MRLB NIL=
200511131200 METAR MRLB 131200Z 00000KT 9999 SCT030 SCT100 22/21 A2984 RN DST N E S=
200511131300 METAR MRLB 131300Z 00000KT 9999 FEW030 OVC100 23/22 A2987 RMK RN DST E/S=
200511131400 METAR MRLB 131400Z 00000KT 9999 SCT030 BKN100 25/23 A2987=
200511131500 METAR MRLB 131500Z 02006KT 9999 FEW030 OVC100 26/23 A2989 RMK RN DST E=
200511131600 METAR MRLB NIL=
200511131700 METAR MRLB 131700Z 11004KT 9999 FEW035 BKN100 28/23 A2988=
200511131800 METAR MRLB 131800Z 11004KT 9999 FEW035 BKN100 29/23 A2986=
200511131900 METAR MRLB 131900Z 07005KT 9999 FEW035 OVC100 29/23 A2982=
200511132000 METAR MRLB 132000Z 07006KT 9999 SCT030 BKN100 29/23 A2980 RMK RN N NE E=
200511132100 METAR MRLB 132100Z 03006KT 999 FEDW030 BKN100 29/23 A2978 RKM RN NE S=
200511132200 METAR MRLB 132200Z 01004KT 9999 FEW025 BKN090 27/23 A2979 RN SW=
200511132300 METAR MRLB 132300Z 35003KT 9999 FEW020 BKLN250 26/24 A2979 RN E SW=
200511140000 METAR MRLB 140000Z 00000KT 9999 FEW020 SCT100 BKN250 25/24 A2980=
200511140100 METAR MRLB NIL=
200511140200 METAR MRLB NIL=
200511140300 METAR MRLB NIL=
200511140400 METAR MRLB NIL=
200511140500 METAR MRLB NIL=
200511140600 METAR MRLB NIL=
200511140700 METAR MRLB NIL=
200511140800 METAR MRLB NIL=
200511140900 METAR MRLB NIL=
200511141000 METAR MRLB NIL=
200511141100 METAR MRLB NIL=
200511141200 METAR MRLB 141200Z 00000KT 9999 BKN035 SCT100 24/21 A2983=
200511141300 METAR MRLB 141300Z 07010KT 9999 FEW035 BKN100 26/21 A2984=
200511141400 METAR MRLB 141400Z 10009KT 9999 FEW035 BKN100 28/21 A2986=
200511141500 METAR MRLB 141500Z 09010KT 9999 SCT035 BKN100 28/21 A2986=
200511141600 METAR MRLB 141600Z 09010KT 9999 SCT035 BKN100 28/21 A2986=
200511141700 METAR MRLB 141700Z 09011KT 9999 SCT035 BKN100 31/22 A2984 RN E=
200511141800 METAR MRLB 141800Z 09009KT 9999 SCT035 BKN100 28/22 A2982 RN N E=
200511141900 METAR MRLB 141900Z 05011KT 9999 SCT035 BKN100 29/22 A2979=
200511142000 METAR MRLB 142000Z 09009KT 9999 SCT035 BKN100 29/22 A2976 RMK RN E S=
200511142200 METAR MRLB 142200Z 09005KT 9999 FEW035 BKN090 28/22 A2974 RN DST NE E=
200511142300 METAR MRLB 142300Z 05008KT 9999 -RA FEW030 OVC090 27/22 A2976=
200511150100 METAR MRLB NIL=
200511150200 METAR MRLB NIL=
200511150300 METAR MRLB NIL=
200511150400 METAR MRLB NIL=
200511150500 METAR MRLB NIL=
200511150600 METAR MRLB NIL=
200511150700 METAR MRLB NIL=
200511150800 METAR MRLB NIL=
200511150900 METAR MRLB NIL=
200511151000 METAR MRLB NIL=
200511151100 METAR MRLB NIL=
200511151200 METAR MRLB 151200Z 24003KT 9999 FEW030 BKN130 23/22 A2978=
200511151300 METAR MRLB 151300Z 22005KT 9999 FEW030 OVC130 23/22 A2980=
200511151400 METAR MRLB 151400Z 19005KT 9999 FEW025 BKN130 25/23 A2982=
200511151500 METAR MRLB 151500Z 22004KT 9999 FEW030 OVC130 27/24 A2983=
200511151600 METAR MRLB 151600Z 27007KT 9999 FEW035 OVC130 29/23 A2983=
200511151700 METAR MRLB 151700Z 24005KT 9999 FEW035 OVC140 28/22 A2982=
200511151800 METAR MRLB 151800Z 07009KT 9999 FEW035 OVC140 29/22 A2978=
200511151900 METAR MRLB 151900Z 10006KT 9999 FEW035 OVC130 28/22 A2976=
200511152000 METAR MRLB 152000Z 09004KT 9999 FEW035 28/22 A2973=
200511152100 METAR MRLB 152100Z 29007KT 9999 FEW035 OVC130 27/23 A2973=
200511152200 METAR MRLB 152200Z 23005KT 9999 FEW035 OVC130 27/23 A2973=
200511152300 METAR MRLB 152300Z 15003KT 9999 FEW035 BKN130 26/22 A2974=
200511160000 METAR MRLB 160000Z 09003KT 9999 FEW030 BKN130 25/22 A2975=
200511160100 METAR MRLB NIL=
200511160200 METAR MRLB NIL=
200511160300 METAR MRLB NIL=
200511160400 METAR MRLB NIL=
200511160500 METAR MRLB NIL=
200511160600 METAR MRLB NIL=
200511160700 METAR MRLB NIL=
200511160800 METAR MRLB NIL=
200511160900 METAR MRLB NIL=
200511161000 METAR MRLB NIL=
200511161100 METAR MRLB NIL=
200511161200 METAR MRLB 161200Z 35003KT 9999 SCT025 BKN120 22/21 A2980 RN E NE=
200511161300 METAR MRLB 161300Z 04004KT 9999 SCT030 BKN120 23/22 A2983=
200511161400 METAR MRLB 161400Z 03006KT 9999 FEW030 BKN130 25/23 A2984=
200511161500 METAR MRLB 161500Z 03003KT 9999 FEW030 OVC130 27/23 A2984=
200511161600 METAR MRLB 161600Z 35004KT 9999 FEW035 BKN130 28/23 A2985=
200511161700 METAR MRLB 161700Z 03012KT 9999 FEW035 OVC130 29/22 A2983=
200511161800 METAR MRLB 161800Z 03008KT 9999 FEW035 BKN130 28/23 A2981 RN DST N/E=
200511161900 METAR MRLB 161900Z 04010KT 9999 FEW035 OVC120 27/23 A2978 RN DST N NE=
200511162000 METAR MRLB 162000Z 35012KT 9999 FEW035 OVC120 27/22 A2976 RN DST N=
200511162100 METAR MRLB 162100Z 36009KT 9999 FEW035 OVC120 27/22 A2975 RMK RN DST N NE=
200511162200 METAR MRLB 162200Z 35006KT 9999 FEW035 OVC120 25/22 A2976=
200511162300 METAR MRLB 162300Z 32004KT 9999 DZ SCT030 OVC110 24/23 A2976=
200511170000 METAR MRLB 170000Z 34003KT 9999 FEW030 OVC110 23/22 A2976 RMK RN DST NE=
200511170100 METAR MRLB NIL=
200511170200 METAR MRLB NIL=
200511170300 METAR MRLB NIL=
200511170400 METAR MRLB NIL=
200511170500 METAR MRLB NIL=
200511170600 METAR MRLB NIL=
200511170700 METAR MRLB NIL=
200511170800 METAR MRLB NIL=
200511170900 METAR MRLB NIL=
200511171000 METAR MRLB NIL=
200511171100 METAR MRLB NIL=
200511171200 METAR MRLB 171200Z 00000KT 9999 FEW030 BKN120 23/22 A2978=
200511171300 METAR MRLB 171300Z 00000KT 9999 FEW035 SCT120 25/22 A2980=
200511171400 METAR MRLB 171400Z 00000KT 9999 FEW035 BKN120 26/22 A2983=
200511171500 METAR MRLB 171500Z 17003KT 9999 SCT030 BKN120 26/22 A2985 RMK RN DST N NE=
200511171600 METAR MRLB 171600Z 22003KT 9999 SCT030 BKN120 29/24 A2984=
200511171700 METAR MRLB 171700Z 22004KT 9999 3000N -RA BKN020 SCT090 27/23 A2982 RMK RN DST NE W NW=
200511171800 METAR MRLB 171800Z 00000KT 9999 -RA SCT020 BKN090 24/24 A2980 RMK 5000 E S VCSH=
200511171900 METAR MRLB 171900Z 00000KT 9999 -RA FEW015 OVC100 26/25 A2977=
200511172000 METAR MRLB 172000Z 27004KT 9999 -RA FEW010 OVC100 26/24 A2975=
200511172100 METAR MRLB 172100Z 22003KT 9999 FEW010 BKN100 28/24 A2973 RMK RN DST S SW=
200511172200 METAR MRLB 172200Z 23003KT 9999 FEW020 BKN120 27/24 A2972 RN E SW=
200511172300 METAR MRLB 172300Z 16004KT 9999 SCT020 BKN120 26/24 A2974=
200511180000 METAR MRLB 180000Z 15003KT 9999 SCT020 BKN120 25/24 A2975 RMK N/S/SW=
200511180100 METAR MRLB NIL=
200511180200 METAR MRLB NIL=
200511180300 METAR MRLB NIL=
200511180400 METAR MRLB NIL=
200511180500 METAR MRLB NIL=
200511180600 METAR MRLB NIL=
200511180700 METAR MRLB NIL=
200511180800 METAR MRLB NIL=
200511180900 METAR MRLB NIL=
200511181000 METAR MRLB NIL=
200511181100 METAR MRLB NIL=
200511181200 METAR MRLB 181200Z 00000KT 9999 FEW030 BKN080 23/23 A2980=
200511181300 METAR MRLB 181300Z 00000KT 9999 FEW010 BKN080 24/23 A2982=
200511181400 METAR MRLB 181400Z 13005KT 9999 SCT015 BKN080 26/24 A2984=
200511181500 METAR MRLB 181500Z 15004KT 9999 2000W -RA BN015 SCT080 26/24 A2985 RMK RN W=
200511181600 METAR MRLB 181600Z OOOOOKT 9999 FEW015 OVC100 24/23 A2985 RMK RN N NE E=
200511181700 METAR MRLB 181700Z 11003KT 9999 FEW020 OVC100 25/23 A2984 RMK NE E=
200511181800 METAR MRLB 181800Z 14004KT 9999 FEW020 OVC100 26/23 A2982=
200511181900 METAR MRLB 181900Z 14004KT 9999 FEW020 OVC100 26/23 A2978 RMK RN DST N NW=
200511182000 METAR MRLB 182000Z 30009KT 2000 RA SCT010 SCT020 23/22 A2978 RMK VIS E UNLTD=
200511182100 METAR MRLB 182100Z 01004KT 9999 3000E -RA FEW020 BKN080 23/23 A2977=
200511190000 METAR MRLB 190000Z 00000KT 9999 4000SW -RA FEW010 BKN020 23/23 A2978=
200511190100 METAR MRLB NIL=
200511190200 METAR MRLB NIL=
200511190300 METAR MRLB NIL=
200511190400 METAR MRLB NIL=
200511190500 METAR MRLB NIL=
200511190600 METAR MRLB NIL=
200511190700 METAR MRLB NIL=
200511190800 METAR MRLB NIL=
200511190900 METAR MRLB NIL=
200511191000 METAR MRLB NIL=
200511191100 METAR MRLB NIL=
200511191200 METAR MRLB 191200Z 10003KT 9999 SCT020 OVC100 22/22 A2984 RMK RN DST ENE=
200511191300 METAR MRLB 191300Z 0000KT 9999 FEW030 OVC120 23/22 A2985=
200511191400 METAR MRLB 191400Z 17003KT 9999 SCT030 BKN120 24/23 A2987=
200511191500 METAR MRLB 191500Z 00000KT 9999 FEW030 BKN250 28/24 A2988=
200511191600 METAR MRLB 191600Z 15004KT 9999 SCT030 BKN250 28/24 A2988=
200511191700 METAR MRLB 191700Z 18003KT 9999 SCT035 BKN250 30/23 A2986=
200511191800 METAR MRLB 191800Z 24004KT 9999 SCT035 OVC250 28/24 A2983=
200511191900 METAR MRLB 191900Z 26005KT 9999 SCT035 BKN250 30/23 A2980=
200511192000 METAR MRLB 192000Z 28006KT 9999 SCT035 SCT250 30/24 A2978=
200511192100 METAR MRLB 192100Z 29008KT 9999 FEW035 BKN250 29/24 A2977=
200511192200 METAR MRLB 192200Z 28007KT 9999 SCT035 BKN250 27/24 A2977 RN DST E NE=
200511192300 METAR MRLB 192300Z 30005KT 9999 FEW035 OVC250 26/24 A2978=
200511200000 METAR MRLB 200000Z 34003KT 9999 SCT035 BKN250 25/23 A2979=
200511200100 METAR MRLB NIL=
200511200200 METAR MRLB NIL=
200511200300 METAR MRLB NIL=
200511200400 METAR MRLB NIL=
200511200500 METAR MRLB NIL=
200511200600 METAR MRLB NIL=
200511200700 METAR MRLB NIL=
200511200800 METAR MRLB NIL=
200511200900 METAR MRLB NIL=
200511201000 METAR MRLB NIL=
200511201100 METAR MRLB NIL=
200511201200 METAR MRLB 201200Z 00000KT 9999 FEW030 BKN120 23/23 A2985=
200511201300 METAR MRLB 201300Z 00000KT 9999 FEW030 BKN120 25/23 A2986=
200511201400 METAR MRLB 201400Z 00000KT 9999 FEW035 BKN130 26/23 A2987=
200511201500 METAR MRLB 201500Z 20003KT 9999 FEW035 OVC250 28/24 A2989=
200511201600 METAR MRLB 201600Z 20003KT 9999 SCT035 OVC250 30/23 A2989=
200511201700 METAR MRLB 201700Z 28006KT 9999 SCT030 OVC250 30/24 A2987=
200511201800 METAR MRLB 201800Z 09003KT 9999 -RA FEW020 SCT030 OVC250 26/25 A2984 7000 S DUE RN=
200511201900 METAR MRLB 201900Z 26007KT 9999 SCT025 OVC240 27/25 A2981=
200511202000 METAR MRLB 202000Z 25007KT 9999 SCT030 BKN140 27/24 A2979=
200511202100 METAR MRLB 202100Z 28009KT 9999 SCT020 BKN120 28/23 A2978 RMK RN DST E/NE=
200511202200 METAR MRLB 202200Z 27006KT 9999 -RA SCT020 OVC110 27/24 A2978=
200511202300 METAR MRLB 202300Z 20003KT 9999 SCT015 BKN110 25/24 A2980 RN DST S N=
200511210000 METAR MRLB 210000Z 00000KT 9999 SCT020 BKN110 24/23 A2981 RN DST S NE=
200511210100 METAR MRLB NIL=
200511210200 METAR MRLB NIL=
200511210300 METAR MRLB NIL=
200511210400 METAR MRLB NIL=
200511210500 METAR MRLB NIL=
200511210600 METAR MRLB NIL=
200511210700 METAR MRLB NIL=
200511210800 METAR MRLB NIL=
200511210900 METAR MRLB NIL=
200511211000 METAR MRLB NIL=
200511211100 METAR MRLB NIL=
200511211200 METAR MRLB 211200Z 00000KT 0500 FG VV/// 23/22 A2986=
200511211300 METAR MRLB 211300Z 00000KT 2000 BR SCT002 23/23 A2988=
200511211400 METAR MRLB 211400Z 00000KT 9999 BKN008 25/23 A2990=
200511211500 METAR MRLB 211500Z 00000KT 9999 FEW020 28/23 A2992=
200511211600 METAR MRLB 211600Z 26004KT 9999 FEW030 29/23 A2990=
200511211700 METAR MRLB 211700Z 00000KT 9999 SCT035 31/23 A2988=
200511211800 METAR MRLB 211800Z 00000KT 9999 SCT035 31/22 A2985=
200511211900 METAR MRLB 211900Z 30006KT 9999 BKN035 30/24 A2982=
200511212000 METAR MRLB 212000Z 26006KT 9999 SCT035 30/24 A2979 RN DST SW=
200511212100 METAR MRLB 212100Z 26006KT 9999 BKN030 28/23 A2978 RMK RN DST N=
200511212200 METAR MRLB 212200Z 36008KT 9999 FEW020 BKN080 26/24 A2978 RMK RN DST N E SW W=
200511212300 METAR MRLB 212300Z 08003KT 9999 FEW030 BKN100 27/23 A2980 RMK RN DST E SW=
200511220000 METAR MRLB 220000Z 00000KT 9999 FEW030 BKN100 26/24 A2981 RMK RN DST S=
200511220100 METAR MRLB NIL=
200511220200 METAR MRLB NIL=
200511220300 METAR MRLB NIL=
200511220400 METAR MRLB NIL=
200511220500 METAR MRLB NIL=
200511220600 METAR MRLB NIL=
200511220700 METAR MRLB NIL=
200511220800 METAR MRLB NIL=
200511220900 METAR MRLB NIL=
200511221000 METAR MRLB NIL=
200511221100 METAR MRLB NIL=
200511220100 METAR MRLB 220100Z 00000KT 9999 FEW035 BKN120 25/24 A2983=
200511221200 METAR MRLB 221200Z 18003KT 9999 -RA SCT030 OVC100 23/23 A2988=
200511221300 METAR MRLB 221300Z 00000KT 9999 FEW005 SCT035 OVC100 24/23 A2989 RMK 8000 S SW VCFG=
200511221400 METAR MRLB 221400Z 18003KT 9999 SCT035 BKN120 25/24 A2991 RMK DUE ST NW N=
200511221500 METAR MRLB 221500Z 22004KT 9999 FEW035 SCT120 BKN250 27/24 A2990=
200511221600 METAR MRLB 221600Z 18004KT CAVOK 28/23 A2988=
200511221700 METAR MRLB 221700Z 19005KT 9999 FEW035 SCT140 BKN250 30/22 A2987=
200511221800 METAR MRLB 221800Z 22007KT 9999 FEW035 OVC250 30/22 A2984=
200511221900 METAR MRLB 221900Z 19008KT 9999 FEW035 OVC250 30/22 A2981=
200511222000 METAR MRLB 222000Z 22008KT 9999 SCT035 BKN120 32/22 A2979 RMK RN DST NE=
200511222100 METAR MRLB 222100Z 24003KT 9999 SCT035 BKN035 29/22 A2979=
200511222200 METAR MRLB 222200Z 24004KT 9999 SCT030 BKN120 28/23 A2980=
200511222300 METAR MRLB 222300Z 00000KT 9999 SCT030 BKN120 27/23 A2981=
200511230000 METAR MRLB NIL=
200511230100 METAR MRLB NIL=
200511230200 METAR MRLB NIL=
200511230300 METAR MRLB NIL=
200511230400 METAR MRLB NIL=
200511230500 METAR MRLB NIL=
200511230600 METAR MRLB NIL=
200511230700 METAR MRLB NIL=
200511230800 METAR MRLB NIL=
200511230900 METAR MRLB NIL=
200511231000 METAR MRLB NIL=
200511231100 METAR MRLB NIL=
200511231200 METAR MRLB 231200Z 03005KT 9999 SCT040 OVC130 21/19 A2990=
200511231300 METAR MRLB 231300Z 00000KT 9999 FEW040 BKN130 22/20 A2992=
200511231400 METAR MRLB 231400Z 21006KT 9999 SCT040 BKN130 24/20 A2994=
200511231500 METAR MRLB 231500Z 28005KT 9999 FEW040 BKN130 26/20 A2996=
200511231600 METAR MRLB 231600Z 31005KT CAVOK 29/18 A2996 RMK BKN130=
200511231700 METAR MRLB 231700Z 26008KT 9999 FEW040 BKN130 27/19 A2994=
200511231800 METAR MRLB 231800Z 13004KT 9999 FEW040 BKN130 29/17 A2991=
200511231900 METAR MRLB 231900Z 08010KT CAVOK 30/16 A2989 RMK BKN130 SCT250=
200511232000 METAR MRLB 232000Z 08009KT CAVOK 29/16 A2987=
200511232100 METAR MRLB 232100Z 08011KT 9999 FEW035 BKN130 27/17 A2986=
200511232200 METAR MRLB 232200Z 10003KT 9999 FEW035 BKN130 28/16 A2986=
200511232300 METAR MRLB NIL=
200511240000 METAR MRLB 240000Z 16003KT 9999 FEW035 BKN130 24/17 A2989=
200511240100 METAR MRLB 240100Z 22004KT 9999 FEW030 OVC130 22/18 A2992=
200511240200 METAR MRLB NIL=
200511240300 METAR MRLB NIL=
200511240400 METAR MRLB NIL=
200511240500 METAR MRLB NIL=
200511240600 METAR MRLB NIL=
200511240700 METAR MRLB NIL=
200511240800 METAR MRLB NIL=
200511240900 METAR MRLB NIL=
200511241000 METAR MRLB NIL=
200511241100 METAR MRLB NIL=
200511241200 METAR MRLB 241200Z 00000KT 9999 FEW030 SCT140 19/18 A2991=
200511241300 METAR MRLB 241300Z 00000KT CAVOK 21/19 A2993=
200511241400 METAR MRLB 241400Z 00000KT CAVOK 24/20 A2995=
200511241500 METAR MRLB 241500Z 22004KT CAVOK 27/20 A2995=
200511241600 METAR MRLB 241600Z 21003KT CAVOK 29/18 A2993=
200511241700 METAR MRLB 241700Z 00000KT CAVOK 30/18 A2990=
200511241800 METAR MRLB 241800Z 00000KT CAVOK 30/18 A2987=
200511241900 METAR MRLB 241900Z 10008KT CAVOK 30/18 A2984=
200511242000 METAR MRLB 242000Z 09008KT CAVOK 30/18 A2981=
200511242100 METAR MRLB 242100Z 10007KT CAVOK 30/19 A2981=
200511242200 METAR MRLB 242200Z 10007KT CAVOK 29/19 A2982=
200511242300 METAR MRLB 242300Z 11006KT 9999 SKC 27/19 A2983=
200511250000 METAR MRLB 250000Z 10006KT 9999 SKC 25/19 A2985=
200511250100 METAR MRLB NIL=
200511250200 METAR MRLB NIL=
200511250300 METAR MRLB NIL=
200511250400 METAR MRLB NIL=
200511250500 METAR MRLB NIL=
200511250600 METAR MRLB NIL=
200511250700 METAR MRLB NIL=
200511250800 METAR MRLB NIL=
200511250900 METAR MRLB NIL=
200511251000 METAR MRLB NIL=
200511251100 METAR MRLB NIL=
200511251200 METAR MRLB 251200Z 00000KT 9999 SKC 19/18 A2990=
200511251300 METAR MRLB 251300Z 00000KT CAVOK 22/20 A2992=
200511251400 METAR MRLB 251400Z 00000KT 9999 SKC 24/20 A2994=
200511251500 METAR MRLB 251500Z 25003KT 9999 SKC 26/21 A2995=
200511251600 METAR MRLB 251600Z 23003KT CAVOK 28/21 A2994=
200511251700 METAR MRLB 251700Z 32004KT CAVOK 30/20 A2991=
200511252000 METAR MRLB 252000Z 11009KT 9999 FEW040 31/20 A2984=
200511252100 METAR MRLB 252100Z 12008KT 9999 FEW040 30/19 A2982=
200511252200 METAR MRLB 252200Z 11004KT 9999 SCT040 30/20 A2983=
200511252300 METAR MRLB 252300Z 02005KT 9999 FEW045 28/20 A2985=
200511260000 METAR MRLB 260000Z 00000KT 9999 SKC 26/21 A2986=
200511260100 METAR MRLB NIL=
200511260200 METAR MRLB NIL=
200511260300 METAR MRLB NIL=
200511260400 METAR MRLB NIL=
200511260500 METAR MRLB NIL=
200511260600 METAR MRLB NIL=
200511260700 METAR MRLB NIL=
200511260800 METAR MRLB NIL=
200511260900 METAR MRLB NIL=
200511261000 METAR MRLB NIL=
200511261100 METAR MRLB NIL=
200511261200 METAR MRLB 261200Z 05003KT CAVOK 19/18 A2986=
200511261300 METAR MRLB 261300Z 00000KT CAVOK 21/20 A2987=
200511261400 METAR MRLB 261400Z 00000KT CAVOK 24/20 A2990=
200511261500 METAR MRLB 261500Z 21005KT CAVOK 26/20 A2991 FEW140=
200511261600 METAR MRLB 261600Z 24004KT CAVOK 29/21 A2990=
200511261700 METAR MRLB 261700Z 04004KT CAVOK 30/21 A2988=
200511261800 METAR MRLB 261800Z 17003KT CAVOK 31/18 A2985 FEW140=
200511261900 METAR MRLB 261900Z 24003KT CAVOK 32/21 A2982=
200511262000 METAR MRLB 262000Z 27005KT 9999 FEW035 29/21 A2979=
200511262100 METAR MRLB 262100Z 29007KT 9999 FEW035 SCT140 30/22 A2979=
200511262200 METAR MRLB 262200Z 26006KT 9999 SCT035 SCT140 27/21 A2979=
200511262300 METAR MRLB 262300Z 25004KT 9999 FEW035 SCT140 27/21 A2980=
200511270000 METAR MRLB 270000Z 00000KT 9999 FEW030 SCT140 25/22 A2982=
200511270100 METAR MRLB 270100Z 21003KT 9999 SCT030 SCT130 24/21 A2984=
200511270200 METAR MRLB NIL=
200511270300 METAR MRLB NIL=
200511270400 METAR MRLB NIL=
200511270500 METAR MRLB NIL=
200511270600 METAR MRLB NIL=
200511270700 METAR MRLB NIL=
200511270800 METAR MRLB NIL=
200511270900 METAR MRLB NIL=
200511271000 METAR MRLB NIL=
200511271100 METAR MRLB NIL=
200511271200 METAR MRLB 271200Z 00000KT CAVOK 20/19 A29893=
200511271300 METAR MRLB 271300Z 03003KT CAVOK 22/20 A2984=
200511271400 METAR MRLB 271400Z 00000KT CAVOK 26/22 A2986=
200511271500 METAR MRLB 271500Z 00000KT CAVOK 27/23 A2987=
200511271600 METAR MRLB 271600Z 00000KT 9999 SCT035 BKN280 29/22 A2985=
200511271700 METAR MRLB 271700Z 00000KT 9999 SCT035 SCT280 29/22 A2983=
200511271800 METAR MRLB 271800Z 28003KT 9999 SCT035 30/22 A2981=
200511271900 METAR MRLB 271900Z 30004KT 9999 BKN035 31/22 A2977=
200511272000 METAR MRLB 272000Z 29009KT 9999 BKN035 28/23 A2974=
200511272100 METAR MRLB 272100Z 27008KT 9999 SCT035 29/23 A2973=
200511272200 METAR MRLB 272200Z 27006KT 9999 SCT040 28/23 A2972=
200511272300 METAR MRLB 272300Z 29004KT 6000 SCT040 SCT250 27/22 A2974=
200511280000 METAR MRLB 280000Z 24003KT 9999 FEW035 SCT250 25/23 A2975=
200511280100 METAR MRLB 280100Z 00000KT 9999 SCT035 BKN250 24/23 A2978=
200511280200 METAR MRLB NIL=
200511280300 METAR MRLB NIL=
200511280400 METAR MRLB NIL=
200511280500 METAR MRLB NIL=
200511280600 METAR MRLB NIL=
200511280700 METAR MRLB NIL=
200511280800 METAR MRLB NIL=
200511280900 METAR MRLB NIL=
200511281000 METAR MRLB NIL=
200511281100 METAR MRLB NIL=
200511281200 METAR MRLB 281200Z 00000KT 5000 2000W BR FEW005 SCT030 22/22 A2981=
200511281300 METAR MRLB 281300Z 00000KT 9999 FEW008 24/23 A2983 RMK ST BAJOS AL SW W NW VIS 6KMS W/VCFG=
200511281400 METAR MRLB 281400Z 00000KT 9999 FEW012 25/23 A2984 RMK ST BAJOS SW W NW=
200511281500 METAR MRLB 281500Z 00000KT 9999 FEW018 27/23 A2985=
200511281600 METAR MRLB 281600Z 26003KT 9999 SCT030 29/23 A2985=
200511281700 METAR MRLB 281700Z 23003KT 9999 BKN030 30/23 A2983=
200511281800 METAR MRLB 281800Z 26005KT 9999 FEW025TCU SCT030 32/23 A2980=
200511281900 METAR MRLB 281900Z 29007KT 9999 SCT030 31/23 A2976=
200511282000 METAR MRLB 282000Z 10007KT 9999 FEW026TCU SCT030 31/23 A2973=
200511282100 METAR MRLB 282100Z 29006KT 9999 SCT030 31/23 A2972=
200511282200 METAR MRLB 282200Z 28006KT 9999 SCT030 29/24 A2972=
200511282300 METAR MRLB 282300Z 26005KT 9999 SCT025 28/23 A2973=
200511290000 METAR MRLB 290000Z 00000KT 9999 FEW025 26/23 A2975=
200511290100 METAR MRLB 290100Z 00000KT CAVOK 25/23 A2977=
200511290200 METAR MRLB NIL=
200511290300 METAR MRLB NIL=
200511290400 METAR MRLB NIL=
200511290500 METAR MRLB NIL=
200511290600 METAR MRLB NIL=
200511290700 METAR MRLB NIL=
200511290800 METAR MRLB NIL=
200511290900 METAR MRLB NIL=
200511291000 METAR MRLB NIL=
200511291100 METAR MRLB NIL=
200511291200 METAR MRLB 291200Z 00000KT CAVOK 20/20 A2982 RMK DUE ST DST S SW N=
200511291300 METAR MRLB 291300Z 00000KT CAVOK 23/21 A2985=
200511291400 METAR MRLB 291400Z 00000KT CAVOK 25/23 A2987=
200511291500 METAR MRLB 291500Z 2103KT 9999 FEW025 28/23 A2987=
200511291600 METAR MRLB 291600Z 00000KT 9999 SCT025 29/22 A2986=
200511291700 METAR MRLB 291700Z 00000KT 9999 SCT030 31/22 A2983=
200511291800 METAR MRLB 291800Z 24005KT 9999 SCT030 31/23 A2980=
200511291900 METAR MRLB 291900Z 29007KT 9999 SCT030 30/23 A2978=
200511292000 METAR MRLB 292000Z 27007KT 9999 SCT035 31/23 A2976=
200511292100 METAR MRLB 292100Z 28009KT 9999 SCT035 30/23 A2975=
200511292200 METAR MRLB 292200Z 26006KT 9999 FEW035 29/23 A2975=
200511292300 METAR MRLB 292300Z 26005KT 9999 SCT035 28/23 A2976=
200511300000 METAR MRLB 300000Z 00000KT 9999 SCT035 SCT250 26/23 A2978=
200511300100 METAR MRLB NIL=
200511300200 METAR MRLB NIL=
200511300300 METAR MRLB NIL=
200511300400 METAR MRLB NIL=
200511300500 METAR MRLB NIL=
200511300600 METAR MRLB NIL=
200511300700 METAR MRLB NIL=
200511300800 METAR MRLB NIL=
200511300900 METAR MRLB NIL=
200511301000 METAR MRLB NIL=
200511301100 METAR MRLB NIL=
200511301200 METAR MRLB 301200Z 00000KT 9999 FEW030 SCT250 22/21 A2982=
200511301300 METAR MRLB 301300Z 07003KT 9999 FEW035 25/21 A2984=
200511301400 METAR MRLB 301400Z 08009KT CAVOK 28/22 A2987=
200511301500 METAR MRLB 301500Z 07011KT 9999 FEW035 29/21 A2988=
200511301600 METAR MRLB 301600Z 08010KT 9999 FEW035 30/21 A2987=
200511301700 METAR MRLB 301700Z 08010KT 9999 FEW035 31/21 A2984=
200511301800 METAR MRLB 301800Z 07009KT 9999 FEW035 32/21 A2981=
200511301900 METAR MRLB 301900Z 08009KT 9999 FEW035 32/20 A2978=
200511302000 METAR MRLB 302000Z 08008KT 9999 FEW035 32/20 A2976=
200511302100 METAR MRLB 302100Z 11007KT 9999 SCT035 33/21 A2974=
200511302200 METAR MRLB 302200Z 06006KT 9999 FEW035 31/22 A2974=
200511302300 METAR MRLB 302300Z 03005KT 9999 SCT040 30/23 A2976=
200512010000 METAR MRLB 010000Z 06004KT 9999 BKN035 28/23 A2978=
200512010100 METAR MRLB 010100Z 00000KT 9999 FEW035 27/23 A2981=
200512010200 METAR MRLB NIL=
200512010300 METAR MRLB NIL=
200512010400 METAR MRLB NIL=
200512010500 METAR MRLB NIL=
200512010600 METAR MRLB NIL=
200512010700 METAR MRLB NIL=
200512010800 METAR MRLB NIL=
200512010900 METAR MRLB NIL=
200512011000 METAR MRLB NIL=
200512011100 METAR MRLB NIL=
200512011200 METAR MRLB 011200Z 00000KT 9999 FEW035 20/20 A2984=
200512011300 METAR MRLB 011300Z 00000KT 9999 FEW035 24/21 A2987=
200512011400 METAR MRLB 011400Z 28003KT 9999 SCT035 26/22 A2988=
200512011500 METAR MRLB 011500Z 06007KT 9999 SCT035 28/21 A2989=
200512011600 METAR MRLB 011600Z 31003KT 9999 SCT035 28/21 A2989=
200512011700 METAR MRLB 011700Z 08009KT 9999 SCT035 SCT120 29/21 A2986 RN DST NE=
200512011800 METAR MRLB 011800Z 09010KT 9999 BKN030 29/21 A2984 RN DST N=
200512011900 METAR MRLB 011900Z 35005KT 9999 SCT030 BKN080 29/22 A2982 RN DST N NE=
200512012000 METAR MRLB 012000Z 36009KT 9999 SCT030 BKN080 28/22 A2980 RN DST N=
200512012100 METAR MRLB 012100Z 05010KT 9999 SCT030 BKN080 27/21 A2979 RMK RN DST N SW=
200512012200 METAR MRLB 012200Z 04010KT 9999 FEW030 BKN100 27/20 A2979=
200512012300 METAR MRLB 012300Z 05009KT CAVOK 26/20 A2980=
200512020000 METAR MRLB 020000Z 06006KT CAVOK 25/20 A2981=
200512020100 METAR MRLB 020100Z 07005KT CAVOK 25/20 A2981=
200512020200 METAR MRLB NIL=
200512020300 METAR MRLB NIL=
200512020400 METAR MRLB NIL=
200512020500 METAR MRLB NIL=
200512020600 METAR MRLB NIL=
200512020700 METAR MRLB NIL=
200512020800 METAR MRLB NIL=
200512020900 METAR MRLB NIL=
200512021000 METAR MRLB NIL=
200512021100 METAR MRLB NIL=
200512021200 METAR MRLB 021200Z 23004KT 9999 FEW035 22/20 A2983=
200512021300 METAR MRLB 021300Z 00000KT 9999 FEW030 25/21 A2986=
200512021400 METAR MRLB 021400Z 36004KT 9999 FEW035 27/22 A2989=
200512021500 METAR MRLB 021500Z 06014KT 9999 FEW035 29/21 A2989=
200512021600 METAR MRLB 021600Z 07012KT 9999 FEW035 30/21 A2989=
200512021700 METAR MRLB 021700Z 07013KT 9999 SCT035 30/21 A2987=
200512021800 METAR MRLB 021800Z 06011KT 9999 SCT030 31/20 A2983=
200512021900 METAR MRLB 021900Z 07010KT 9999 SCT030 31/21 A2980=
200512022000 METAR MRLB 022000Z 06009KT 9999 SCT035 31/21 A2978=
200512022100 METAR MRLB 022100Z 05011KT 9999 SCT035 31/20 A2976=
200512022200 METAR MRLB 022200Z 05009KT 9999 SCT035 30/21 A2977=
200512022300 METAR MRLB 022300Z 07006KT 9999 SCT035 28/21 A2979=
200512030000 METAR MRLB 030000Z 07007KT 9999 SCT035 26/21 A2980=
200512030100 METAR MRLB NIL=
200512030200 METAR MRLB NIL=
200512030300 METAR MRLB NIL=
200512030400 METAR MRLB NIL=
200512030500 METAR MRLB NIL=
200512030600 METAR MRLB NIL=
200512030700 METAR MRLB NIL=
200512030800 METAR MRLB NIL=
200512030900 METAR MRLB NIL=
200512031000 METAR MRLB NIL=
200512031100 METAR MRLB NIL=
200512031200 METAR MRLB 031200Z 03004KT 9999 FEW030 BKN250 24/20 A2984=
200512031300 METAR MRLB 031300Z 00000KT 9999 SCT030 BKN250 25/21 A2987=
200512031400 METAR MRLB 031400Z 07010KT 9999 FEW035 SCT250 28/20 A2988=
200512031500 METAR MRLB 031500Z 08013KT 9999 FEW035 SCT250 29/20 A2989=
200512031600 METAR MRLB 031600Z 08012KT 9999 FEW035 BKN250 30/20 A2989=
200512031700 METAR MRLB 031700Z 06013KT 9999 FEW035 OVC250 30/19 A2988=
200512031800 METAR MRLB 031800Z 07012KT 9999 FEW035 BKN250 31/19 A2984=
200512031900 METAR MRLB 031900Z 06010KT 9999 FEW035 BKN250 31/20 A2982=
200512032000 METAR MRLB 032000Z 06011KT 9999 FEW035 OVC250 31/20 A2980=
200512032100 METAR MRLB 032100Z 06010KT 9999 FEW040 OVC250 31/20 A2979=
200512032200 METAR MRLB 032200Z 07009KT 9999 FEW045 OVC250 30/21 A2979=
200512032300 METAR MRLB 032300Z 07006KT 9999 FEW045 OVC250 28/21 A2981=
200512040000 METAR MRLB 040000Z 08004KT CAVOK 26/21 A2983=
200512040100 METAR MRLB 040100Z 09004KT CAVOK 25/21 A2986=
200512040200 METAR MRLB NIL=
200512040300 METAR MRLB NIL=
200512040400 METAR MRLB NIL=
200512040500 METAR MRLB NIL=
200512040600 METAR MRLB NIL=
200512040700 METAR MRLB NIL=
200512040800 METAR MRLB NIL=
200512040900 METAR MRLB NIL=
200512041000 METAR MRLB NIL=
200512041100 METAR MRLB NIL=
200512041200 METAR MRLB 041200Z 00000KT 9999 SCT040 BKN250 22/21 A2987=
200512041300 METAR MRLB 041300Z 00000KT 9999 FEW040 BKN250 25/21 A2990=
200512041400 METAR MRLB 041400Z 00000KT 9999 FEW040 BKN250 27/21 A2993=
200512041500 METAR MRLB 041500Z 02003KT 9999 FEW040 BKN250 29/22 A2992=
200512041600 METAR MRLB 041600Z 06015KT 9999 FEW035 SCT250 30/20 A2996=
200512041700 METAR MRLB 041700Z 07012KT 9999 FEW035 SCT250 20/21 A2989=
200512041800 METAR MRLB 041800Z 07012KT 9999 FEW040 SCT250 31/20 A2987=
200512041900 METAR MRLB 041900Z 08008KT 9999 FEW040 SCT250 31/21 A2984=
200512042000 METAR MRLB 042000Z 07008KT 9999 FEW040 SCT080 30/21 A2982=
200512042100 METAR MRLB 042100Z 07007KT 9999 FEW040 SCT080 31/21 A2981=
200512042200 METAR MRLB 042200Z 07008KT 9999 FEW035 SCT090 30/21 A2982=
200512042300 METAR MRLB 042300Z 09004KT 9999 FEW035 BKN090 28/21 A2983=
200512050000 METAR MRLB 050000Z 10004KT 9999 FEW030 BKN090 26/21 A2984=
200512050100 METAR MRLB NIL=
200512050200 METAR MRLB NIL=
200512050300 METAR MRLB NIL=
200512050400 METAR MRLB NIL=
200512050500 METAR MRLB NIL=
200512050600 METAR MRLB NIL=
200512050700 METAR MRLB NIL=
200512050800 METAR MRLB NIL=
200512050900 METAR MRLB NIL=
200512051000 METAR MRLB NIL=
200512051100 METAR MRLB NIL=
200512051200 METAR MRLB 051200Z 07004KT CAVOK 19/19 A2991 RMK FEW250=
200512051300 METAR MRLB 051300Z 04003KT CAVOK 21/20 A2992=
200512051400 METAR MRLB 051400Z 00000KT CAVOK 25/21 A2994=
200512051500 METAR MRLB 051500Z 20003KT CAVOK 27/22 A2994=
200512051600 METAR MRLB 051600Z 19004KT CAVOK 29/22 A2993=
200512051700 METAR MRLB 051700Z 09007KT 9999 FEW035 31/20 A2990=
200512051800 METAR MRLB 051800Z 11007KT 9999 SCT040 32/20 A2987=
200512051900 METAR MRLB 051900Z 10007KT 9999 FEW040 SCT300 32/20 A2984=
200512052000 METAR MRLB 052000Z 05007KT 9999 FEW040 SCT270 33/18 A2982=
200512052100 METAR MRLB 052100Z 09004KT 9999 FEW040 BKN270 32/18 A2980=
200512052200 METAR MRLB 052200Z 10007KT 9999 FEW040 BKN270 31/18 A2980=
200512052300 METAR MRLB 052300Z 28003KT 9999 FEW035 OVC250 28/22 A2981=
200512060000 METAR MRLB 060000Z 27004KT 9999 FEW035 BKN250 25/22 A2982=
200512060100 METAR MRLB NIL=
200512060200 METAR MRLB NIL=
200512060300 METAR MRLB NIL=
200512060400 METAR MRLB NIL=
200512060500 METAR MRLB NIL=
200512060600 METAR MRLB NIL=
200512060700 METAR MRLB NIL=
200512060800 METAR MRLB NIL=
200512060900 METAR MRLB NIL=
200512061000 METAR MRLB NIL=
200512061100 METAR MRLB NIL=
200512060100 METAR MRLB 060100Z 32003KT 9999 FEW035 BKN250 24/22 A2984=
200512061200 METAR MRLB 061200Z 00000KT 9999 SKC 19/18 A2986=
200512061300 METAR MRLB 061300Z 00000KT CAVOK 23/20 A2988=
200512061400 METAR MRLB 061400Z 00000KT CAVOK 27/20 A2990=
200512061500 METAR MRLB 061500Z 07009KT CAVOK 29/20 A2991=
200512061600 METAR MRLB 061600Z 06012KT 9999 FEW035 BKN250 30/19 A2990=
200512061700 METAR MRLB 061700Z 07013KT 9999 SCT035 BKN250 31/19 A2988=
200512061800 METAR MRLB 061800Z 06014KT 9999 SCT035 31/19 A2985=
200512061900 METAR MRLB 061900Z 06012KT 9999 SCT035 32/19 A2982=
200512062000 METAR MRLB 062000Z 07009KT 9999 SCT035 32/20 A2978=
200512062100 METAR MRLB 062100Z 04008KT 9999 SCT035 31/20 A2976=
200512062200 METAR MRLB 062200Z 07008KT 9999 SCT035 SCT250 30/20 A2976=
200512062300 METAR MRLB 062300Z 04007KT 9999 SCT035 SCT250 28/21 A2977=
200512070000 METAR MRLB 070000Z 04007KT 9999 SCT035 BKN250 26/21 A2978=
200512070100 METAR MRLB NIL=
200512070200 METAR MRLB NIL=
200512070300 METAR MRLB NIL=
200512070400 METAR MRLB NIL=
200512070500 METAR MRLB NIL=
200512070600 METAR MRLB NIL=
200512070700 METAR MRLB NIL=
200512070800 METAR MRLB NIL=
200512070900 METAR MRLB NIL=
200512071000 METAR MRLB 071000Z 05008KT 9999 SCT030 BKN250 26/20 A2980=
200512071100 METAR MRLB NIL=
200512071200 METAR MRLB 071200Z 34003KT 9999 FEW040 BKN090 23/20 A2981=
200512071300 METAR MRLB 071300Z 00000KT 9999 FEW040 BKN090 23/21 A2985 RMK RN DST N=
200512071400 METAR MRLB 071400Z 06011KT 9999 SCT040 BKN100 27/21 A2986 RMK RN DST N=
200512071500 METAR MRLB 071500Z 06012KT 9999 SCT040 BKN100 28/21 A2987 RMK RN DST N=
200512071600 METAR MRLB 071600Z 06011KT 9999 FEW040 SCT120 29/21 A2986=
200512071700 METAR MRLB 071700Z 06012KT 9999 BKN035 SCT120 29/21 A2984 RMK RN DST N=
200512071800 METAR MRLB 071800Z 08010KT 9999 SCT035 31/21 A2980=
200512071900 METAR MRLB 071900Z 05010KT 9999 BKN030 SCT120 28/22 A2978 RERA RMK RN DST WSW=
200512072000 METAR MRLB 072000Z 09008KT 9999 BKN035 31/20 A2975=
200512072100 METAR MRLB 072100Z 07010KT 9999 SCT030 31/19 A2974 RMK RN SE E=
200512072200 METAR MRLB 072200Z 07012KT 9999 FEW035 SCT120 28/19 A2975=
200512072300 METAR MRLB 072300Z 09006KT 9999 FEW035 28/20 A2977=
200512080000 METAR MRLB 080000Z 06003KT CAVOK 25/20 A2978=
200512080100 METAR MRLB 080100Z 08009KT 9999 CAVOK 26/20 A2981=
200512080200 METAR MRLB NIL=
200512080300 METAR MRLB NIL=
200512080400 METAR MRLB NIL=
200512080500 METAR MRLB NIL=
200512080600 METAR MRLB NIL=
200512080700 METAR MRLB NIL=
200512080800 METAR MRLB NIL=
200512080900 METAR MRLB NIL=
200512081000 METAR MRLB NIL=
200512081100 METAR MRLB NIL=
200512081200 METAR MRLB 081200Z 08014KT CAVOK 25/18 A2982 SCT300=
200512081300 METAR MRLB 081300Z 09015KT CAVOK 26/19 A2984=
200512081400 METAR MRLB 081400Z 05011KT CAVOK 28/19 A2986=
200512081500 METAR MRLB 081500Z 08016KT CAVOK 29/18 A2986=
200512081600 METAR MRLB 081600Z 07017KT CAVOK 30/17 A2986=
200512081700 METAR MRLB 081700Z 07013KT CAVOK 31/18 A2984=
200512081800 METAR MRLB 081800Z 07014KT CAVOK 32/18 A2981=
200512081900 METAR MRLB 081900Z 05013KT CAVOK 32/19 A2978=
200512082000 METAR MRLB 082000Z 06014KT 9999 FEW030 SCT260 31/19 A2976=
200512082100 METAR MRLB 082100Z 06013KT 9999 FEW035 BKN260 31/19 A2976=
200512082200 METAR MRLB 082200Z 07013KT 9999 FEW035 BKN260 30/19 A2977=
200512082300 METAR MRLB 082300Z 07010KT 9999 FEW035 SCT250 28/19 A2979=
200512090000 METAR MRLB 090000Z 07007KT CAVOK 26/19 A2980=
200512090100 METAR MRLB NIL=
200512090200 METAR MRLB NIL=
200512090300 METAR MRLB NIL=
200512090400 METAR MRLB NIL=
200512090500 METAR MRLB NIL=
200512090600 METAR MRLB NIL=
200512090700 METAR MRLB NIL=
200512090800 METAR MRLB NIL=
200512090900 METAR MRLB NIL=
200512091000 METAR MRLB NIL=
200512091100 METAR MRLB NIL=
200512091200 METAR MRLB 091200Z 00000KT 9999 FEW030 24/20 A2983=
200512091300 METAR MRLB 091300Z 08009KT 9999 SCT030 26/20 A2986=
200512091400 METAR MRLB 091400Z 03006KT 9999 SCT035 27/21 A2989=
200512091500 METAR MRLB 091500Z 08017KT 9999 FEW035 29/20 A2988=
200512091600 METAR MRLB 091600Z 07017KT 9999 SCT035 30/19 A2988=
200512091700 METAR MRLB 091700Z 06013KT 9999 FEW035 29/20 A2985=
200512091800 METAR MRLB 091800Z 05015KT 9999 FEW035 31/20 A2982=
200512091900 METAR MRLB 091900Z 05011KT 9999 FEW035 32/19 A2978=
200512092000 METAR MRLB 092000Z 07015KT 9999 FEW035 33/20 A2976=
200512092100 METAR MRLB 092100Z 04010KT 9999 FEW035 31/20 A2974=
200512092200 METAR MRLB 092200Z 03012KT 9999 SCT040 27/20 A2975=
200512092300 METAR MRLB 092300Z 03004KT 9999 FEW040 27/21 A2976=
200512100000 METAR MRLB 100000Z 06005KT 9999 SKC 26/20 A2977=
200512100100 METAR MRLB NIL=
200512100200 METAR MRLB NIL=
200512100300 METAR MRLB NIL=
200512100400 METAR MRLB NIL=
200512100500 METAR MRLB NIL=
200512100600 METAR MRLB NIL=
200512100700 METAR MRLB NIL=
200512100800 METAR MRLB NIL=
200512100900 METAR MRLB NIL=
200512101000 METAR MRLB NIL=
200512101100 METAR MRLB NIL=
200512101200 METAR MRLB 101200Z 18002KT 9999 FEW020 BKN090 22/21 A2981=
200512101300 METAR MRLB 101300Z 12005KT CAVOK 24/22 A2982=
200512101400 METAR MRLB 101400Z 16004KT CAVOK 27/23 A2985=
200512101500 METAR MRLB 101500Z 12006KT CAVOK 29/21 A2985=
200512101600 METAR MRLB 101600Z 11006KT 9999 SCT035 30/22 A2984=
200512101700 METAR MRLB 101700Z 06009KT 9999 SCT035 31/21 A2983=
200512101800 METAR MRLB 101800Z 05010KT 9999 SCT035 31/21 A2980=
200512101900 METAR MRLB 101900Z 05007KT 9999 SCT040 32/20 A2976=
200512102000 METAR MRLB 102000Z 09006KT 9999 FEW040 33/19 A2973=
200512102100 METAR MRLB 102100Z 10006KT 9999 FEW040 33/21 A2972=
200512102200 METAR MRLB 102200Z 05004KT 9999 FEW040 SCT120 32/20 A2971=
200512102300 METAR MRLB 102300Z 30003KT 9999 FEW045 28/23 A2974=
200512110000 METAR MRLB 110000Z 29003KT 9999 SCT040 26/23 A2976 TCU NE=
200512110100 METAR MRLB 110100Z 22003KT 9999 SCT040 SCT120 25/23 A2979=
200512110200 METAR MRLB NIL=
200512110300 METAR MRLB NIL=
200512110400 METAR MRLB NIL=
200512110500 METAR MRLB NIL=
200512110600 METAR MRLB NIL=
200512110700 METAR MRLB NIL=
200512110800 METAR MRLB NIL=
200512110900 METAR MRLB NIL=
200512111000 METAR MRLB NIL=
200512111100 METAR MRLB NIL=
200512111200 METAR MRLB 111200Z 21003KT 9999 FEW035 BKN120 22/21 A2978=
200512111300 METAR MRLB 111300Z 18005KT 9999 SCT045 BKN120 23/22 A2980=
200512111400 METAR MRLB 111400Z 23003KT 9999 FEW040 BKN130 25/22 A2983=
200512111500 METAR MRLB 111500Z 23004KT 9999 FEW040 BKN130 28/23 A2985=
200512111600 METAR MRLB 111600Z 21005KT 9999 FEW035 SCT130 30/23 A2983=
200512111700 METAR MRLB 111700Z 12004KT 9999 SCT035 BKN130 29/22 A2981=
200512111800 METAR MRLB 111800Z 31008KT 9999 SCT030 BKN130 30/23 A2979 RN DST W=
200512111900 METAR MRLB 111900Z 26003KT 9999 SCT035 BKN130 32/23 A2976 RN DST NE E=
200512112000 METAR MRLB 112000Z 10007KT 9999 SCT035 BKN130 31/22 A2974=
200512112100 METAR MRLB 112100Z 35004KT 9999 -RA SCT030 BKN130 30/22 A2973=
200512112200 METAR MRLB 112200Z 00000KT 9999 SCT030 SCT140 29/25 A2974 RMK RMK RN DST SW=
200512112300 METAR MRLB 112300Z 35005KT 9999 SCT030 SCT140 26/24 A2976 RMK RN DST N NE=
200512120000 METAR MRLB 120000Z 36010KT 9999 SCT030 BKN140 25/23 A2977 RMK RN DST NE=
200512120100 METAR MRLB 120100Z 35007KT 9999 SCT025 BKN130 25/23 A2978=
200512120200 METAR MRLB NIL=
200512120300 METAR MRLB NIL=
200512120400 METAR MRLB NIL=
200512120500 METAR MRLB NIL=
200512120600 METAR MRLB NIL=
200512120700 METAR MRLB NIL=
200512120800 METAR MRLB NIL=
200512120900 METAR MRLB NIL=
200512121000 METAR MRLB NIL=
200512121100 METAR MRLB NIL=
200512121200 METAR MRLB 121200Z 32005KT 9999 FEW030 OVC250 24/22 A2978=
200512121300 METAR MRLB 121300Z 05003KT 9999 SCT030 BKN250 24/22 A2981 RMK RN DST N NE=
200512121400 METAR MRLB 121400Z 00000KT 9999 SCT030 BKN250 27/23 A2984 RMK RN DST N NE=
200512121500 METAR MRLB 121500Z 01003KT 9999 SCT030 BKN250 27/22 A2984 RMK RN DST N NE=
200512121600 METAR MRLB 121600Z 22005KT 9999 SCT035 SCT250 29/22 A2983 RMK RN DST NE=
200512121700 METAR MRLB 121700Z 31005KT 9999 BKN035 SCT250 30/21 A2982 RMK RN DST N NE=
200512121800 METAR MRLB 121800Z 32007KT 9999 BKN035 SCT250 31/22 A2979=
200512121900 METAR MRLB 121900Z 06016KT 9999 SCT035 BKN250 31/21 A2976=
200512122000 METAR MRLB 122000Z 04008KT 9999 SCT035 OVC250 30/21 A2974=
200512122100 METAR MRLB 122100Z 36011KT 9999 SCT035 BKN250 30/22 A2973 RMK RN N NE=
200512122200 METAR MRLB 122200Z 36006KT 9999 SCT035 SCT250 29/22 A2974 RMK RN N NE=
200512122300 METAR MRLB 122300Z 05010KT 9999 SCT035 SCT130 28/22 A2975 RMK RN NE=
200512130000 METAR MRLB 130000Z 07009KT 9999 FEW035 BKN130 27/21 A2977=
200512130100 METAR MRLB 130100Z 04004KT 9999 SCT030 BKN130 26/21 A2980=
200512130200 METAR MRLB NIL=
200512130300 METAR MRLB NIL=
200512130400 METAR MRLB NIL=
200512130500 METAR MRLB NIL=
200512130600 METAR MRLB NIL=
200512130700 METAR MRLB NIL=
200512130800 METAR MRLB NIL=
200512130900 METAR MRLB NIL=
200512131000 METAR MRLB NIL=
200512131100 METAR MRLB NIL=
200512131200 METAR MRLB 131200Z 22007KT 9999 FEW035 OVC250 22/19 A2981=
200512131300 METAR MRLB 131300Z 30003KT 9999 FEW035 OVC250 23/20 A2984=
200512131400 METAR MRLB 131400Z 16005KT 9999 FEW035 OVC250 24/20 A2986=
200512131500 METAR MRLB 131500Z 25004KT 9999 FEW035 OVC250 26/21 A2987=
200512131600 METAR MRLB 131600Z 28006KT 9999 FEW035 BKN250 30/21 A2985=
200512131700 METAR MRLB 131700Z 36006KT 9999 FEW035 BKN250 31/20 A2982=
200512131800 METAR MRLB 131800Z 09010KT 9999 FEW035 BKN250 23/19 A2979=
200512131900 METAR MRLB 131900Z 09005KT 9999 FEW035 BKN250 34/20 A2976=
200512132000 METAR MRLB 132000Z 09009KT 9999 FEW040 OVC250 32/18 A2973=
200512132100 METAR MRLB 132100Z 08012KT 9999 FEW040 OVC250 31/17 A2973=
200512132200 METAR MRLB 132200Z 0607KT 9999 FEW040 OVC250 31/15 A2973=
200512132300 METAR MRLB 132300Z 11007KT 9999 FEW045 OVC250 28/18 A2975=
200512140100 METAR MRLB 140100Z 08006KT CAVOK 26/18 A2975=
200512140200 METAR MRLB NIL=
200512140300 METAR MRLB NIL=
200512140400 METAR MRLB NIL=
200512140500 METAR MRLB NIL=
200512140600 METAR MRLB NIL=
200512140700 METAR MRLB NIL=
200512140800 METAR MRLB NIL=
200512140900 METAR MRLB NIL=
200512141000 METAR MRLB NIL=
200512141100 METAR MRLB NIL=
200512141200 METAR MRLB 141200Z 11005KT 9999 FEW040 SCT250 21/20 A2980=
200512141300 METAR MRLB 141300Z 26003KT CAVOK 24/21 A2983=
200512141400 METAR MRLB 141400Z 22005KT CAVOK 26/21 A2985=
200512141500 METAR MRLB 141500Z 24005KT 9999 FEW040 29/21 A2985=
200512141600 METAR MRLB 141600Z 09011KT 9999 FEW040 BKN120 30/21 A2984=
200512141700 METAR MRLB 141700Z 06006KT 9999 FEW035 BKN120 30/21 A2983=
200512141800 METAR MRLB 141800Z 07017KT 9999 SCT035 31/21 A2979=
200512141900 METAR MRLB 141900Z 08013KT 9999 BKN035 32/21 A2978=
200512142000 METAR MRLB 142000Z 09011KT 9999 SCT035 31/22 A2975=
200512142100 METAR MRLB 142100Z 08009KT 9999 SCT035 30/21 A2974=
200512142200 METAR MRLB 142200Z 06013KT 9999 FEW035 SCT130 29/20 A2974=
200512142300 METAR MRLB 142300Z 07010KT 9999 FEW040 SCT250 28/20 A2974=
200512150000 METAR MRLB 150000Z 08007KT 9999 FEW040 SCT250 26/19 A2975=
200512150100 METAR MRLB 150100Z 09006KT 9999 FEW035 BKN250 25/19 A2978=
200512150200 METAR MRLB NIL=
200512150300 METAR MRLB NIL=
200512150400 METAR MRLB NIL=
200512150500 METAR MRLB NIL=
200512150600 METAR MRLB NIL=
200512150700 METAR MRLB NIL=
200512150800 METAR MRLB NIL=
200512150900 METAR MRLB NIL=
200512151000 METAR MRLB NIL=
200512151100 METAR MRLB NIL=
200512151200 METAR MRLB 151200Z 00000KT 9999 FEW030 BKN130 20/19 A2979=
200512151300 METAR MRLB 151300Z 00000KT 9999 FEW035 SCT130 24/20 A2981=
200512151400 METAR MRLB 151400Z 00000KT 9999 FEW035 SCT130 23/23 A2984=
200512151500 METAR MRLB 151500Z 27003KT CAVOK 27/21 A2985=
200512151600 METAR MRLB 151600Z 20003KT CAVOK 29/21 A2984=
200512151700 METAR MRLB 151700Z 26003KT CAVOK 31/21 A2981=
200512151800 METAR MRLB 151800Z 09005KT 9999 FEW035 SCT250 33/19 A2979=
200512151900 METAR MRLB 151900Z 09008KT 9999 FEW035 SCT250 33/20 A2976=
200512152000 METAR MRLB 152000Z 09007KT 9999 FEW040 33/19 A2973=
200512152100 METAR MRLB 152100Z 13004KT 9999 FEW040 33/20 A2972=
200512152200 METAR MRLB 152200Z 09005KT 9999 FEW040 32/20 A2971=
200512152300 METAR MRLB 152300Z 07006KT CAVOK 30/20 A2972=
200512160000 METAR MRLB 160000Z 00000KT CAVOK 26/22 A2973=
200512160100 METAR MRLB 160100Z 00000KT CAVOK 25/22 A2976=
200512160200 METAR MRLB NIL=
200512160300 METAR MRLB NIL=
200512160400 METAR MRLB NIL=
200512160500 METAR MRLB NIL=
200512160600 METAR MRLB NIL=
200512160700 METAR MRLB NIL=
200512160800 METAR MRLB NIL=
200512160900 METAR MRLB NIL=
200512161000 METAR MRLB NIL=
200512161100 METAR MRLB NIL=
200512161200 METAR MRLB 161200Z 10007KT CAVOK 22/19 A2979=
200512161300 METAR MRLB 161300Z 11005KT CAVOK 25/20 A2981=
200512161400 METAR MRLB 161400Z 14006KT CAVOK 28/20 A2983=
200512161500 METAR MRLB 161500Z 10006KT CAVOK 30/20 A2984=
200512161600 METAR MRLB 161600Z 06013KT CAVOK 31/20 A2984=
200512161700 METAR MRLB 161700Z 07010KT CAVOK 31/19 A2982=
200512161800 METAR MRLB 161800Z 08010KT CAVOK 32/19 A2979=
200512161900 METAR MRLB 161900Z 10011KT CAVOK 32/18 A2976=
200512162000 METAR MRLB 162000Z 09011KT 9999 FEW040 BKN250 32/18 A2975=
200512162100 METAR MRLB 162100Z 08007KT CAVOK 32/18 A2974=
200512162200 METAR MRLB 162200Z 08009KT CAVOK 31/16 A2975=
200512162300 METAR MRLB 162300Z 04006KT 9999 FEW045 OVC250 29/20 A2977=
200512170000 METAR MRLB 170000Z 06004KT 9999 FEW040 OVC250 26/20 A2980=
200512170100 METAR MRLB 170100Z 08005KT 9999 FEW040 OVC250 25/20 A2981=
200512170200 METAR MRLB NIL=
200512170300 METAR MRLB NIL=
200512170400 METAR MRLB NIL=
200512170500 METAR MRLB NIL=
200512170600 METAR MRLB NIL=
200512170700 METAR MRLB NIL=
200512170800 METAR MRLB NIL=
200512170900 METAR MRLB NIL=
200512171000 METAR MRLB NIL=
200512171100 METAR MRLB NIL=
200512171200 METAR MRLB 171200Z 14003KT CAVOK 19/18 A2989=
200512171300 METAR MRLB 171300Z 35003KT CAVOK 20/19 A2991=
200512171400 METAR MRLB 171400Z 08004KT CAVOK 27/21 A2993=
200512171500 METAR MRLB 171500Z 08009KT CAVOK 30/20 A2994=
200512171600 METAR MRLB 171600Z 09007KT 9999 FEW040 BKN250 31/20 A2994=
200512171700 METAR MRLB 171700Z 11009KT CAVOK 33/18 A2992=
200512171800 METAR MRLB 171800Z 09011KT CAVOK 33/16 A2990=
200512171900 METAR MRLB 171900Z 09011KT CAVOK 33/16 A2987=
200512172000 METAR MRLB 172000Z 10012KT CAVOK 33/16 A2985=
200512172100 METAR MRLB 172100Z 07012KT CAVOK 32/16 A2984=
200512172200 METAR MRLB 172200Z 07011KT CAVOK 31/16 A2984=
200512172300 METAR MRLB 172300Z 08007KT CAVOK 29/17 A2985=
200512180000 METAR MRLB 18000Z 07005KT CAVOK 26/19 A2987=
200512180100 METAR MRLB NIL=
200512180200 METAR MRLB NIL=
200512180300 METAR MRLB NIL=
200512180400 METAR MRLB NIL=
200512180500 METAR MRLB NIL=
200512180600 METAR MRLB NIL=
200512180700 METAR MRLB NIL=
200512180800 METAR MRLB NIL=
200512180900 METAR MRLB NIL=
200512181000 METAR MRLB NIL=
200512181100 METAR MRLB NIL=
200512181200 METAR MRLB 181200Z 00000KT CAVOK 21/19 A2992=
200512181300 METAR MRLB 181300Z 00000KT CAVOK 23/19 A2993=
200512181400 METAR MRLB 181400Z 00000KT CAVOK 25/19 A2996=
200512181500 METAR MRLB 181500Z 00000KT CAVOK 29/19 A2996=
200512181600 METAR MRLB 181600Z 06011KT CAVOK 31/17 A2996=
200512181700 METAR MRLB 181700Z 06010KT CAVOK 33/19 A2994=
200512181800 METAR MRLB 181800Z 07014KT CAVOK 32/18 A2992=
200512181900 METAR MRLB 181900Z 06013KT CAVOK 33/17 A2990=
200512182000 METAR MRLB 182000Z 05012KT CAVOK 33/18 A2988=
200512182100 METAR MRLB 182100Z 05016KT 9999 FEW040 32/20 A2986=
200512182200 METAR MRLB 182200Z 06013KT CAVOK 31/20 A2986=
200512182300 METAR MRLB 182300Z 05014KT CAVOK 29/20 A2986=
200512190000 METAR MRLB 190000Z 05013KT CAVOK 27/20 A2988=
200512190100 METAR MRLB 190100Z 06008KT CAVOK 27/19 A2991=
200512190200 METAR MRLB NIL=
200512190300 METAR MRLB NIL=
200512190400 METAR MRLB NIL=
200512190500 METAR MRLB NIL=
200512190600 METAR MRLB NIL=
200512190700 METAR MRLB NIL=
200512190800 METAR MRLB NIL=
200512190900 METAR MRLB NIL=
200512191000 METAR MRLB NIL=
200512191100 METAR MRLB NIL=
200512191200 METAR MRLB 191200Z 08007KT 9999 SCT040 24/19 A2990=
200512191300 METAR MRLB 191300Z 09009KT 9999 FEW040 SCT140 26/19 A2991=
200512191400 METAR MRLB 191400Z 08015KT CAVOK 28/19 A2993=
200512191500 METAR MRLB 191500Z 07015KT CAVOK 29/19 A2884=
200512191600 METAR MRLB 191600Z 07017KT 9999 FEW040 30/19 A2994=
200512191700 METAR MRLB 191700Z 07016KT 9999 FEW040 31/19 A2992=
200512191800 METAR MRLB 191800Z 07015KT 9999 SCT035 31/19 A2991 RN N NE=
200512191900 METAR MRLB 191900Z 07012KT 9999 SCT040 31/17 A2987=
200512192000 METAR MRLB 192000Z 06011KT 9999 FEW040 BKN100 32/18 A2984=
200512192100 METAR MRLB 192100Z 07010KT 9999 FEW040 31/19 A2983=
200512192200 METAR MRLB 192200Z 09009KT 9999 FEW040 31/18 A2983=
200512192300 METAR MRLB 192300Z 06009KT 9999 FEW040 29/18 A2984=
200512200000 METAR MRLB 200000Z 06007KT CAVOK 26/19 A2985=
200512200100 METAR MRLB 200100Z 06006KT CAVOK 25/19 A2987=
200512200200 METAR MRLB NIL=
200512200300 METAR MRLB NIL=
200512200400 METAR MRLB NIL=
200512200500 METAR MRLB NIL=
200512200600 METAR MRLB NIL=
200512200700 METAR MRLB NIL=
200512200800 METAR MRLB NIL=
200512200900 METAR MRLB NIL=
200512201000 METAR MRLB NIL=
200512201100 METAR MRLB NIL=
200512201200 METAR MRLB 201200Z 00000KT CAVOK 20/18 A2988=
200512201300 METAR MRLB 201300Z 00000KT CAVOK 22/19 A2989=
200512201400 METAR MRLB 201400Z 08010KT CAVOK 28/19 A2991=
200512201500 METAR MRLB 201500Z 08016KT CAVOK 29/19 A2992=
200512201600 METAR MRLB 201600Z 09013KT CAVOK 30/19 A2991=
200512201700 METAR MRLB 201700Z 07011KT 9999 FEW040 BKN250 31/19 A2990=
200512201800 METAR MRLB 201800Z 06014KT 9999 FEW040 SCT250 32/19 A2987=
200512201900 METAR MRLB 201900Z 06009KT 9999 BKN040 31/19 A2984 RN DST N=
200512202000 METAR MRLB 202000Z 07010KT 9999 BKN040 31/19 A2982=
200512202100 METAR MRLB 202100Z 07009KT 9999 SCT035 SCT250 30/19 A2982=
200512202200 METAR MRLB 202200Z 06010KT 9999 FEW035 BKN250 30/19 A2982=
200512202300 METAR MRLB 202300Z 08007KT 9999 SCT035 BKN250 27/19 A2983=
200512210000 METAR MRLB 210000Z 08006KT 9999 SCT035 BKN250 26/18 A2984=
200512210100 METAR MRLB NIL=
200512210200 METAR MRLB NIL=
200512210300 METAR MRLB NIL=
200512210400 METAR MRLB NIL=
200512210500 METAR MRLB NIL=
200512210600 METAR MRLB NIL=
200512210700 METAR MRLB NIL=
200512210800 METAR MRLB NIL=
200512210900 METAR MRLB NIL=
200512211000 METAR MRLB NIL=
200512211100 METAR MRLB NIL=
200512211200 METAR MRLB 211200Z 03004KT CAVOK 19/18 A2991=
200512211300 METAR MRLB 211300Z 05003KT CAVOK 20/19 A2993=
200512211400 METAR MRLB 211400Z 08003KT CAVOK 27/20 A2996=
200512211500 METAR MRLB 211500Z 08012KT CAVOK 30/19 A2995=
200512211600 METAR MRLB 211600Z 08015KT CAVOK 30/19 A2994=
200512211700 METAR MRLB 211700Z 08013KT 9999 FEW035 SCT260 31/19 A2992=
200512211800 METAR MRLB 211800Z 07016KT 9999 FEW035 SCT260 31/19 A2989=
200512211900 METAR MRLB 211900Z 07015KT 9999 FEW035 SCT260 31/19 A2986=
200512212000 METAR MRLB 212000Z 07013KT 9999 FEW035 BKN260 31/19 A2984=
200512212100 METAR MRLB 212100Z 08015KT 9999 FEW035 BKN250 31/18 A2982=
200512212200 METAR MRLB 212200Z 07012KT CAVOK 30/18 A2982=
200512212300 METAR MRLB 212300Z 08012KT CAVOK 28/18 A2984=
200512220000 METAR MRLB 220000Z 09010KT CAVOK 27/19 A2985=
200512220100 METAR MRLB 220100Z 09012KT CAVOK 26/19 A2986=
200512220200 METAR MRLB NIL=
200512220300 METAR MRLB NIL=
200512220400 METAR MRLB NIL=
200512220500 METAR MRLB NIL=
200512220600 METAR MRLB NIL=
200512220700 METAR MRLB NIL=
200512220800 METAR MRLB NIL=
200512220900 METAR MRLB NIL=
200512221000 METAR MRLB NIL=
200512221100 METAR MRLB NIL=
200512221200 METAR MRLB 221200Z 06003KT CAVOK 19/18 A2989=
200512221300 METAR MRLB 221300Z 00000KT CAVOK 23/20 A2991=
200512221400 METAR MRLB 221400Z 00000KT CAVOK 26/20 A2993=
200512221500 METAR MRLB 221500Z 30004KT CAVOK 28/20 A2994=
200512221600 METAR MRLB 221600Z 09011KT 9999 FEW040 30/19 A2993=
200512221700 METAR MRLB 221700Z 08012KT 9999 FEW040 31/19 A2991=
200512221800 METAR MRLB 221800Z 08012KT 9999 SCT040 31/19 A2989=
200512221900 METAR MRLB 221900Z 05010KT 9999 SCT040 31/19 A2987 RMK RN DST N=
200512222000 METAR MRLB 222000Z 07009KT 9999 FEW040 SCT100 32/19 A2985 RMK RN DST N NE=
200512222100 METAR MRLB 222100Z 04013KT 9999 FEW040 BKN100 29/19 A2984=
200512222200 METAR MRLB 222200Z 03010KT 9999 FEW040 SCT100 30/19 A2984=
200512222300 METAR MRLB 222300Z 02010KT 9999 FEW035 BKN100 27/24 A2987 RMK RN N NE=
200512230000 METAR MRLB 230000Z 04005KT 9999 BKN035 25/21 A2988 RMK RN DST SE=
200512230100 METAR MRLB 230100Z 07007KT 9999 FEW035 25/19 A2981=
200512230200 METAR MRLB NIL=
200512230300 METAR MRLB NIL=
200512230400 METAR MRLB NIL=
200512230500 METAR MRLB NIL=
200512230600 METAR MRLB NIL=
200512230700 METAR MRLB NIL=
200512230800 METAR MRLB NIL=
200512230900 METAR MRLB NIL=
200512231000 METAR MRLB NIL=
200512231100 METAR MRLB NIL=
200512231200 METAR MRLB 231200Z 00000KT CAVOK 22/19 A2987=
200512231300 METAR MRLB 231300Z 01005KT 9999 FEW040 25/19 A2989=
200512231400 METAR MRLB 231400Z 09005KT 9999 FEW040 28/19 A2992=
200512231500 METAR MRLB 231500Z 06008KT CAVOK 29/20 A2992=
200512231600 METAR MRLB 231600Z 09014KT 9999 FEW040 30/20 A2992=
200512231800 METAR MRLB 231800Z 09011KT 9999 FEW040 30/20 A2988=
200512231900 METAR MRLB 231900Z 08012KT 9999 FEW040 31/19 A2984=
200512232000 METAR MRLB 232000Z 06013KT 9999 FEW040 31/20 A2981=
200512232100 METAR MRLB 232100Z 07012KT 9999 FEW040 31/20 A2980=
200512232200 METAR MRLB 232200Z 07011KT 9999 FEW040 30/19 A2981=
200512232300 METAR MRLB 232300Z 07009KT 9999 FEW040 28/19 A2982=
200512240000 METAR MRLB 240000Z 07007KT 9999 FEW035 SCT250 26/19 A2984=
200512240100 METAR MRLB 240100Z 07011KT 9999 FEW035 SCT250 26/19 A2986=
200512240200 METAR MRLB NIL=
200512240300 METAR MRLB NIL=
200512240400 METAR MRLB NIL=
200512240500 METAR MRLB NIL=
200512240600 METAR MRLB NIL=
200512240700 METAR MRLB NIL=
200512240800 METAR MRLB NIL=
200512240900 METAR MRLB NIL=
200512241000 METAR MRLB NIL=
200512241100 METAR MRLB NIL=
200512241200 METAR MRLB 241200Z 00000KT CAVOK 19/18 A2988=
200512241300 METAR MRLB 241300Z 00000KT CAVOK 21/19 A2990=
200512241400 METAR MRLB 241400Z 00000KT CAVOK 26/21 A2991 NOSIG=
200512241500 METAR MRLB 241500Z 28004KT CAVOK 27/21 A2992 NOSIG=
200512241600 METAR MRLB NIL=
200512241700 METAR MRLB 241700Z 03005KT 9999 FEW040 31/20 A2989=
200512241800 METAR MRLB 241800Z 11009KT 9999 FEW040 32/18 A2985=
200512241900 METAR MRLB 241900Z 09006KT 9999 FEW040 32/18 A2982=
200512242000 METAR MRLB 242000Z 08007KT 9999 FEW040 33/19 A2980=
200512242100 METAR MRLB 242100Z 08006KT 9999 FEW040 32/18 A2979=
200512242200 METAR MRLB 242200Z 10006KT 9999 FEW040 SCT150 32/17 A2979=
200512242300 METAR MRLB 242300Z 08006KT 9999 SCT040 BKN150 31/17 A2981=
200512250000 METAR MRLB 250000Z 00000KT 9999 SCT040 BKN140 27/22 A2982=
200512250100 METAR MRLB 250100Z 00000KT 9999 FEW040 BKN140 25/20 A2985=
200512250200 METAR MRLB NIL=
200512250300 METAR MRLB NIL=
200512250400 METAR MRLB NIL=
200512250500 METAR MRLB NIL=
200512250600 METAR MRLB NIL=
200512250700 METAR MRLB NIL=
200512250800 METAR MRLB NIL=
200512250900 METAR MRLB NIL=
200512251000 METAR MRLB NIL=
200512251100 METAR MRLB NIL=
200512251200 METAR MRLB 251200Z 10003KT CAVOK 21/21 A2988=
200512251300 METAR MRLB 251300Z 00000KT CAVOK 24/22 A2990=
200512251400 METAR MRLB 251400Z 00000KT CAVOK 26/22 A2993=
200512251500 METAR MRLB 251500Z 00000KT CAVOK 28/22 A2994=
200512251600 METAR MRLB 251600Z 29003KT 9999 FEW035 SCT140 29/21 A2994=
200512251700 METAR MRLB 251700Z 35003KT 9999 FEW035 SCT140 31/20 A2992=
200512251800 METAR MRLB 251800Z 34005KT 9999 FEW035 32/20 A2989=
200512251900 METAR MRLB 251900Z 08004KT 9999 SCT035 33/19 A2985=
200512252000 METAR MRLB 252000Z 11004KT 9999 BKN035 32/19 A2982=
200512252100 METAR MRLB 252100Z 28005KT 9999 SCT035 32/22 A2981=
200512252200 METAR MRLB 252200Z 25006KT 9999 SCT035 32/23 A2980=
200512252300 METAR MRLB 252300Z 25005KT 9999 BKN035 30/22 A2982=
200512260000 METAR MRLB 260000Z 11005KT 9999 SCT035 28/20 A2983 TCU DST E=
200512260100 METAR MRLB 260100Z 11006KT 9999 FEW035 26/20 A2986=
200512260200 METAR MRLB NIL=
200512260300 METAR MRLB NIL=
200512260400 METAR MRLB NIL=
200512260500 METAR MRLB NIL=
200512260600 METAR MRLB NIL=
200512260700 METAR MRLB NIL=
200512260800 METAR MRLB NIL=
200512260900 METAR MRLB NIL=
200512261000 METAR MRLB NIL=
200512261100 METAR MRLB NIL=
200512261200 METAR MRLB 261200Z 22004KT CAVOK 21/20 A2988=
200512261300 METAR MRLB 261300Z 24005KT 9999 FEW006 OVC030 23/21 A2995 RN DST ARND=
200512261400 METAR MRLB 261400Z 08004KT CAVOK 26/20 A2995 BKN130 FEW280=
200512261500 METAR MRLB 261500Z VRB03KT CAVOK 27/21 A2997 FEW130 BKN250=
200512261600 METAR MRLB 261600Z 04004KT CAVOK 29/20 A2997 BKN250=
200512261700 METAR MRLB 261700Z 02005KT CAVOK 30/19 A2995 BKN250=
200512261800 METAR MRLB 261800Z 05014KT 9999 FEW035 BKN230 31/18 A2992=
200512261900 METAR MRLB 261900Z 05015KT 9999 FEW035 BKN230 31/19 A2988=
200512262000 METAR MRLB 262000Z 06012KT 9999 FEW035 BKN250 31/18 A2986=
200512262100 METAR MRLB 262100Z 09011KT 9999 SCT035 BKN250 30/19 A2985=
200512262200 METAR MRLB 262200Z 04007KT 9999 FEW035 OVC250 30/19 A2984=
200512262300 METAR MRLB 262300Z 03005KT 9999 SCT030 OVC230 28/20 A2987 RMK RN DST E=
200512270000 METAR MRLB 270000Z 07011KT 9999 SCT030 BKN130 27/20 A2988=
200512270100 METAR MRLB 270100Z 03005KT 9999 SCT030 BKN130 26/20 A2991=
200512270200 METAR MRLB NIL=
200512270300 METAR MRLB NIL=
200512270400 METAR MRLB NIL=
200512270500 METAR MRLB NIL=
200512270600 METAR MRLB NIL=
200512270700 METAR MRLB NIL=
200512270800 METAR MRLB NIL=
200512270900 METAR MRLB NIL=
200512271000 METAR MRLB NIL=
200512271100 METAR MRLB NIL=
200512271200 METAR MRLB 271200Z 17005KT 9999 FEW030 BKN120 21/19 A2990=
200512271300 METAR MRLB 271300Z 22006KT 9999 SCT030 SCT130 22/19 A2992=
200512271400 METAR MRLB 271400Z 25006KT 9999 FEW035 SCT130 26/20 A2995=
200512271500 METAR MRLB 271500Z 26005KT 9999 FEW035 SCT250 28/19 A2995=
200512271600 METAR MRLB 271600Z 32004KT 9999 FEW035 BKN250 30/19 A2994=
200512271700 METAR MRLB 271700Z 29004KT 9999 FEW035 BKN130 29/18 A2992=
200512271800 METAR MRLB 271800Z 08007KT 9999 FEW035 SCT130 32/19 A2988=
200512271900 METAR MRLB 271900Z 08012KT 9999 SCT035 SCT140 30/19 A2987=
200512272000 METAR MRLB 272000Z 10013KT 9999 SCT035 SCT130 30/19 A2985 RMK RN DST N=
200512272100 METAR MRLB 272100Z 08012KT 9999 SCT035 BKN120 30/19 A2985=
200512272200 METAR MRLB 272200Z 08008KT 9999 FEW035 SCT130 30/20 A2984=
200512272300 METAR MRLB 272300Z 10007KT 9999 SCT035 BKN130 27/20 A2986=
200512280000 METAR MRLB 280000Z 07007KT 9999 FEW040 BKN130 26/20 A2986=
200512280100 METAR MRLB 280100Z 33003KT CAVOK 24/20 A2988=
200512280200 METAR MRLB NIL=
200512280300 METAR MRLB NIL=
200512280400 METAR MRLB NIL=
200512280500 METAR MRLB NIL=
200512280600 METAR MRLB NIL=
200512280700 METAR MRLB NIL=
200512280800 METAR MRLB NIL=
200512280900 METAR MRLB NIL=
200512281000 METAR MRLB NIL=
200512281100 METAR MRLB NIL=
200512281200 METAR MRLB 281200Z 00000KT CAVOK 21/20 A2989=
200512281400 METAR MRLB 281400Z 16004KT CAVOK 25/21 A2993=
200512281500 METAR MRLB 281500Z 20003KT CAVOK 27/21 A2994=
200512281600 METAR MRLB 281600Z 29004KT 9999 FEW025 SCT130 BKN250 28/22 A2993=
200512281700 METAR MRLB 281700Z 26004KT 9999 FEW040 SCT130 BKN250 30/21 A2992=
200512281800 METAR MRLB 281800Z 17005KT 9999 FEW035 BKN250 32/21 A2989=
200512281900 METAR MRLB 281900Z 10006KT 9999 FEW035 BKN250 32/20 A2985=
200512282000 METAR MRLB 282000Z 17003KT 9999 SCT035 BKN130 31/21 A2982=
200512282100 METAR MRLB 282100Z 10007KT 9999 FEW035 BKN130 30/21 A2981=
200512282200 METAR MRLB 282200Z 11005KT 9999 FEW035 SCT130 30/20 A2980=
200512282300 METAR MRLB 282300Z 09005KT CAVOK 22/20 A2980=
200512290000 METAR MRLB 290000Z 11004KT CAVOK 27/20 A2981=
200512290100 METAR MRLB 290100Z 07004KT CAVOK 26/20 A2984=
200512290200 METAR MRLB NIL=
200512290300 METAR MRLB NIL=
200512290400 METAR MRLB NIL=
200512290500 METAR MRLB NIL=
200512290600 METAR MRLB NIL=
200512290700 METAR MRLB NIL=
200512290800 METAR MRLB NIL=
200512290900 METAR MRLB NIL=
200512291000 METAR MRLB NIL=
200512291100 METAR MRLB NIL=
200512291200 METAR MRLB 291200Z 04003KT CAVOK 19/19 A2983=
200512291300 METAR MRLB 291300Z 05003KT CAVOK 21/20 A2986=
200512291400 METAR MRLB 291400Z VRB03KT CAVOK 25/21 A2989=
200512291500 METAR MRLB 291500Z 13003KT CAVOK 28/21 A2991=
200512291600 METAR MRLB 291600Z 09005KT CAVOK 30/21 A2989=
200512291700 METAR MRLB 291700Z 12006KT 9999 FEW035 BKN250 32/21 A2987=
200512291800 METAR MRLB 291800Z 15004KT 9999 SCT035 BKN250 33/21 A2984=
200512291900 METAR MRLB 291900Z 18004KT 9999 SCT035 BKN280 33/21 A2980=
200512292000 METAR MRLB 292000Z 17004KT 9999 SCT035 BKN250 33/22 A2977=
200512292100 METAR MRLB 292100Z 26010KT 9999 SCT035 BKN250 30/22 A2977=
200512292200 METAR MRLB 292200Z 27009KT 9999 SCT035 SCT250 28/22 A2977=
200512292300 METAR MRLB 292300Z 27007KT 9999 SCT035 BKN250 27/22 A2979=
200512300000 METAR MRLB 300000Z 30003KT 9999 SCT035 OVC250 26/22 A2982=
200512300100 METAR MRLB NIL=
200512300200 METAR MRLB NIL=
200512300300 METAR MRLB NIL=
200512300400 METAR MRLB NIL=
200512300500 METAR MRLB NIL=
200512300600 METAR MRLB NIL=
200512300700 METAR MRLB NIL=
200512300800 METAR MRLB NIL=
200512300900 METAR MRLB NIL=
200512301000 METAR MRLB NIL=
200512301100 METAR MRLB NIL=
200512301200 METAR MRLB 301200Z 18003KT FEW004 20/20 A2982=
200512301300 METAR MRLB 301300Z 00000KT CAVOK 23/22 A2985=
200512301400 METAR MRLB 301400Z 00000KT 9999 FEW040 26/23 A2988=
200512301500 METAR MRLB 301500Z 00000KT 9999 FEW035 BKN100 26/22 A2989=
200512301600 METAR MRLB 301600Z 12004KT 9999 FEW035 BKN100 29/22 A2989=
200512301700 METAR MRLB 301700Z 09008KT 9999 SCT035 33/20 A2987=
200512301800 METAR MRLB 301800Z 06009KT 9999 SCT035 33/19 A2984=
200512301900 METAR MRLB 301900Z 05011KT 9999 SCT035 33/18 A2980=
200512302000 METAR MRLB 302000Z 05008KT 9999 SCT035 33/19 A2977=
200512302100 METAR MRLB 302100Z 08007KT 9999 SCT035 34/18 A2975=
200512302200 METAR MRLB 302200Z 06009KT 9999 FEW035 32/19 A2975=
200512302300 METAR MRLB 302300Z 06010KT 9999 FEW035 30/19 A2976=
200512310000 METAR MRLB 310000Z 03003KT 9999 FEW035 27/19 A2978=
200512310100 METAR MRLB 310100Z 04003KT 9999 FEW035 SCT250 26/19 A2980=
200512310200 METAR MRLB NIL=
200512310300 METAR MRLB NIL=
200512310400 METAR MRLB NIL=
200512310500 METAR MRLB NIL=
200512310600 METAR MRLB NIL=
200512310700 METAR MRLB NIL=
200512310800 METAR MRLB NIL=
200512310900 METAR MRLB NIL=
200512311000 METAR MRLB NIL=
200512311100 METAR MRLB NIL=
200512311200 METAR MRLB 311200Z 26003KT CAVOK 18/16 A2981=
200512311300 METAR MRLB 311300Z 35003KT 9999 SKC 20/16 A2984=
200512311400 METAR MRLB 311400Z VRB03KT CAVOK 24/17 A2986=
200512311500 METAR MRLB 311500Z 17003KT 9999 SKC 29/17 A2987=
200512311600 METAR MRLB 311600Z 12008KT 9999 SKC 31/14 A2986=
200512311700 METAR MRLB 311700Z 08010KT 9999 SKC 32/14 A2985=
200512311800 METAR MRLB 311800Z 05010KT 9999 SKC 34/15 A2982=
200512311900 METAR MRLB 311900Z 06012KT CAVOK 32/16 A2979=
200512312000 METAR MRLB 312000Z 06011KT CAVOK 33/17 A2978=
200512312100 METAR MRLB 312100Z 07007KT 9999 FEW030 SCT300 27/21 A2982 RMK HZY=
200512312200 METAR MRLB 312200Z 07010KT CAVOK 31/17 A2977=
200512312300 METAR MRLB 312300Z 07008KT CAVOK 30/17 A2978=
