200601010000 METAR MRLB 010000Z 06008KT CAVOK 27/18 A2979=
200601010100 METAR MRLB 010100Z 05005KT CAVOK 25/19 A2981=
200601010200 METAR MRLB NIL=
200601010300 METAR MRLB NIL=
200601010400 METAR MRLB NIL=
200601010500 METAR MRLB NIL=
200601010600 METAR MRLB NIL=
200601010700 METAR MRLB NIL=
200601010800 METAR MRLB NIL=
200601010900 METAR MRLB NIL=
200601011000 METAR MRLB NIL=
200601011100 METAR MRLB NIL=
200601011200 METAR MRLB NIL=
200601011300 METAR MRLB 011300Z 00000KT 9999 FEW040 21/18 A2987=
200601011400 METAR MRLB 011400Z 00000KT 9999 FEW045 25/19 A2989=
200601011500 METAR MRLB 011500Z 24005KT CAVOK 25/20 A2989=
200601011600 METAR MRLB 011600Z 06007KT CAVOK 30/19 A2989=
200601011700 METAR MRLB 011700Z 08010KT 9999 FEW035 32/19 A2987=
200601011800 METAR MRLB 011800Z 07010KT 9999 FEW035 SCT280 31/19 A2984=
200601011900 METAR MRLB 011900Z 07011KT 9999 FEW035 SCT250 32/19 A2981 RMK CB DST NE=
200601012000 METAR MRLB 012000Z 08010KT 9999 SCT035 BKN250 32/19 A2979=
200601012100 METAR MRLB 012100Z 05012KT 9999 SCT035 BKN250 30/20 A2978=
200601012200 METAR MRLB 012200Z 05011KT 9999 SCT030 OVC250 31/290 A2980=
200601012300 METAR MRLB 012300Z 07007KT 9999 SCT035 BKN130 26/21 A2981=
200601020000 METAR MRLB 020000Z 05007KT 9999 SCT030 BKN130 25/21 A2983=
200601020100 METAR MRLB 020100Z 04004KT 9999 SCT030 BKN130 25/21 A2984=
200601020200 METAR MRLB NIL=
200601020300 METAR MRLB NIL=
200601020400 METAR MRLB NIL=
200601020500 METAR MRLB NIL=
200601020600 METAR MRLB NIL=
200601020700 METAR MRLB NIL=
200601020800 METAR MRLB NIL=
200601020900 METAR MRLB NIL=
200601021000 METAR MRLB NIL=
200601021100 METAR MRLB NIL=
200601021200 METAR MRLB 021200Z 05003KT 9999 FEW030 BKN130 21/20 A2988=
200601021300 METAR MRLB 021300Z 07003KT 9999 FEW035 BKN130 22/20 A2990=
200601021400 METAR MRLB 021400Z 10005KT 9999 FEW035 SCT140 27/20 A2992=
200601021500 METAR MRLB 021500Z 13006KT 9999 FEW035 SCT140 29/21 A2993=
200601021600 METAR MRLB 021600Z 08010KT 9999 FEW035 SCT140 31/19 A2992=
200601021700 METAR MRLB 021700Z 07013KT 9999 FEW035 SCT250 32/19 A2990=
200601021800 METAR MRLB 021800Z 07010KT 9999 FEW035 BKN250 32/18 A2989=
200601021900 METAR MRLB 021900Z 05012KT 9999 SCT035 BKN140 33/18 A2986=
200601022000 METAR MRLB 022000Z 07009KT 9999 FEW035 SCT140 32/18 A2983=
200601022100 METAR MRLB 022100Z 07009KT 9999 FEW035 SCT250 32/18 A2982=
200601022200 METAR MRLB 022200Z 08008KT 9999 FEW040 BKN250 31/19 A2982=
200601022300 METAR MRLB 022300Z 07009KT 9999 FEW040 BKN240 29/20 A2984=
200601030000 METAR MRLB 030000Z 08006KT 9999 FEW040 BKN150 28/20 A2986=
200601030100 METAR MRLB 030100Z 08007KT 9999 FEW040 BKN140 27/20 A2987=
200601030200 METAR MRLB NIL=
200601030300 METAR MRLB NIL=
200601030400 METAR MRLB NIL=
200601030500 METAR MRLB NIL=
200601030600 METAR MRLB NIL=
200601030700 METAR MRLB NIL=
200601030800 METAR MRLB NIL=
200601030900 METAR MRLB NIL=
200601031000 METAR MRLB NIL=
200601031100 METAR MRLB NIL=
200601031200 METAR MRLB 031200Z 00000KT CAVOK 21/19 A2989=
200601031300 METAR MRLB 031300Z 00000KT CAVOK 21/20 A2991=
200601031400 METAR MRLB 031400Z 00000KT CAVOK 24/20 A2995=
200601031500 METAR MRLB 031500Z 00000KT CAVOK 25/20 A2996=
200601031600 METAR MRLB 031600Z 00000KT CAVOK 27/21 A2995=
200601031700 METAR MRLB 031700Z 06003KT 9999 FEW035 BKN220 29/20 A2993=
200601031800 METAR MRLB 031800Z 06007KT 9999 FEW035 OVC230 31/19 A2991 NOSIG=
200601031900 METAR MRLB 031900Z 08006KT 9999 SCT035 BKN250 31/21 A2989=
200601032000 METAR MRLB 032000Z 10006KT 9999 SCT035 BKN150 30/19 A2987=
200601032100 METAR MRLB 032100Z 07006KT 9999 SCT035 BKN240 21/20 A2986=
200601032200 METAR MRLB 032200Z 08007KT 9999 SCT030 BKN220 30/20 A2985=
200601032300 METAR MRLB 032300Z 10006KT 9999 SCT035 BKN150 28/20 A2985=
200601040000 METAR MRLB 040000Z 10004KT CAVOK 26/21 A2985=
200601040100 METAR MRLB NIL=
200601040200 METAR MRLB NIL=
200601040300 METAR MRLB NIL=
200601040400 METAR MRLB NIL=
200601040500 METAR MRLB NIL=
200601040600 METAR MRLB NIL=
200601040700 METAR MRLB NIL=
200601040800 METAR MRLB NIL=
200601040900 METAR MRLB NIL=
200601041000 METAR MRLB NIL=
200601041100 METAR MRLB NIL=
200601041200 METAR MRLB 041200Z 05003KT CAVOK 18/18 A2990=
200601041300 METAR MRLB 041300Z 00000KT CAVOK 20/19 A2992=
200601041400 METAR MRLB 041400Z 02003KT CAVOK 23/20 A2994=
200601041500 METAR MRLB 041500Z 00000KT CAVOK 28/20 A2994=
200601041600 METAR MRLB 041600Z 08008KT 9999 FEW040 31/20 A2992=
200601041700 METAR MRLB 041700Z 03010KT 9999 FEW040 SCT280 32/20 A2990=
200601041800 METAR MRLB 041800Z 08012KT 9999 FEW040 SCT280 33/19 A2987=
200601041900 METAR MRLB 041900Z 08013KT 9999 FEW040 SCT280 34/19 A2983=
200601042000 METAR MRLB 042000Z 08010KT 9999 FEW040 SCT280 33/19 A2980=
200601042100 METAR MRLB 042100Z 07011KT 9999 FEW040 BKN250 32/19 A2979=
200601042200 METAR MRLB 042200Z 08012KT 9999 FEW035 BKN250 31/18 A2979=
200601042300 METAR MRLB 042300Z 07011KT 9999 SCT035 SCT250 30/18 A2981=
200601050000 METAR MRLB 050000Z 07010KT 9999 SCT035 BKN250 28/19 A2983=
200601050100 METAR MRLB 050100Z 08009KT 9999 SCT035 BKN250 27/19 A2985=
200601050200 METAR MRLB NIL=
200601050300 METAR MRLB NIL=
200601050400 METAR MRLB NIL=
200601050500 METAR MRLB NIL=
200601050600 METAR MRLB NIL=
200601050700 METAR MRLB NIL=
200601050800 METAR MRLB NIL=
200601050900 METAR MRLB NIL=
200601051000 METAR MRLB NIL=
200601051100 METAR MRLB NIL=
200601051200 METAR MRLB 051200Z 01003KT 9999 FEW035 BKN120 20/19 A2986=
200601051300 METAR MRLB 051300Z 00000KT 9999 FEW035 BKN120 21/19 A2989=
200601051400 METAR MRLB 051400Z 00000KT CAVOK 23/20 A2991 SCT120=
200601051500 METAR MRLB 051500Z 00000KT CAVOK 27/20 A2993 SCT120=
200601051600 METAR MRLB 051600Z 03005KT 9999 FEW040 BKN130 29/20 A2992=
200601051700 METAR MRLB 051700Z 08008KT 9999 SCT040 BKN140 30/20 A2990=
200601051800 METAR MRLB 051800Z 08010KT 9999 SCT035 SCT130 31/19 A2987 RN DST N=
200601051900 METAR MRLB 051900Z 08011KT 9999 SCT035 BKN130 30/19 A2983=
200601052000 METAR MRLB 052000Z 34007KT 9999 SCT035 BKN130 28/20 A2981 RN DST N=
200601052100 METAR MRLB 052100Z 07010KT 9999 SCT030 BKN130 29/19 A2979=
200601052200 METAR MRLB 052200Z 09012KT 9999 FEW035 BKN140 28/19 A2979=
200601052300 METAR MRLB 052300Z 32006KT 9999 FEW035 SCT140 26/20 A2979=
200601060000 METAR MRLB 060000Z 17006KT 9999 FEW035 BKN130 25/19 A2981=
200601060100 METAR MRLB 060100Z 09010KT 9999 FEW035 BKN130 26/18 A2983=
200601060200 METAR MRLB NIL=
200601060300 METAR MRLB NIL=
200601060400 METAR MRLB NIL=
200601060500 METAR MRLB NIL=
200601060600 METAR MRLB NIL=
200601060700 METAR MRLB NIL=
200601060800 METAR MRLB NIL=
200601060900 METAR MRLB NIL=
200601061000 METAR MRLB NIL=
200601061100 METAR MRLB NIL=
200601061200 METAR MRLB 061200Z 13004KT 9999 SCT045 SCT120 20/18 A2987=
200601061300 METAR MRLB 061300Z VRB03KT CAVOK 22/19 A2990=
200601061400 METAR MRLB 061400Z 25003KT CAVOK 24/19 A2993=
200601061500 METAR MRLB 061500Z 23003KT CAVOK 27/18 A2993 RMK LEVE HZY=
200601061600 METAR MRLB 061600Z 16004KT CAVOK 29/15 A2993 RMK LEVE HZY=
200601061700 METAR MRLB 061700Z 21005KT CAVOK 31/16 A2990=
200601061800 METAR MRLB 061800Z 27006KT CAVOK 32/15 A2987 RMK LEVE HZY=
200601061900 METAR MRLB 061900Z 12003KT CAVOK 31/09 A2984=
200601062000 METAR MRLB 062000Z 10011KT 9999 -RA OVC120 23/13 A2982=
200601062100 METAR MRLB 062100Z 00000KT CAVOK 26/12 A2981=
200601062200 METAR MRLB 062200Z 25005KT CAVOK 25/15 A2982=
200601062300 METAR MRLB 062300Z 00000KT CAVOK 25717 A2984=
200601070000 METAR MRLB 070000Z 04006KT CAVOK 25/14 A2985=
200601070100 METAR MRLB 070100Z 00000KT CAVOK 25/14 A2987=
200601070200 METAR MRLB NIL=
200601070300 METAR MRLB NIL=
200601070400 METAR MRLB NIL=
200601070500 METAR MRLB NIL=
200601070600 METAR MRLB NIL=
200601070700 METAR MRLB NIL=
200601070800 METAR MRLB NIL=
200601070900 METAR MRLB NIL=
200601071000 METAR MRLB NIL=
200601071100 METAR MRLB NIL=
200601071200 METAR MRLB 071200Z 18007KT CAVOK 23/15 A2986 BKN120=
200601071300 METAR MRLB 071300Z 27006KT CAVOK 23/16 A2990=
200601071400 METAR MRLB 071400Z 26010KT CAVOK 26/16 A2993=
200601071500 METAR MRLB 071500Z 16004KT CAVOK 29/14 A2994=
200601071600 METAR MRLB NIL=
200601071608 METAR MRLB 081608Z 22007KT CAVOK 30/13 A2992=
200601071700 METAR MRLB 071700Z 07015KT CAVOK 31/14 A2990=
200601071800 METAR MRLB 071800Z 16008KT CAVOK 32/14 A2987=
200601071900 METAR MRLB 071900Z 10016G26KT CAVOK 31/14 A2984=
200601072000 METAR MRLB 072000Z 12012KT CAVOK 31/15 A2984=
200601072100 METAR MRLB 072100Z 08015KT 9999 FEW035 BKN140 29/15 A2984=
200601072200 METAR MRLB 072200Z 06012KT 9999 FEW035 BKN140 29/16 A2984=
200601072300 METAR MRLB 072300Z 08013KT 9999 FEW035 SCT140 26/15 A2986=
200601080000 METAR MRLB 080000Z 28004KT 9999 FEW035 BKN130 25/16 A2987=
200601080100 METAR MRLB 080100Z 11005KT 9999 FEW035 BKN130 25/15 A2989=
200601080200 METAR MRLB NIL=
200601080300 METAR MRLB NIL=
200601080400 METAR MRLB NIL=
200601080500 METAR MRLB NIL=
200601080600 METAR MRLB NIL=
200601080700 METAR MRLB NIL=
200601080800 METAR MRLB NIL=
200601080900 METAR MRLB NIL=
200601081000 METAR MRLB NIL=
200601081100 METAR MRLB NIL=
200601081200 METAR MRLB 081200Z 17004KT 9999 FEW030 BKN130 20/15 A2987=
200601081300 METAR MRLB 081300Z 26003KT CAVOK 21/16 A2990=
200601081400 METAR MRLB 081400Z 23008KT CAVOK 25/16 A2990=
200601081500 METAR MRLB 081500Z 26009KT CAVOK 27/17 A2991=
200601081600 METAR MRLB 081600Z 25005KT 9999 FEW040 SCT260 29/17 A2991=
200601081700 METAR MRLB 081700Z 29006KT 9999 FEW040 SCT130 31/17 A2990=
200601081800 METAR MRLB 081800Z 10013KT 9999 FEW040 BKN130 31/17 A2987=
200601081900 METAR MRLB 081900Z 09012KT 9999 FEW040 SCT130 31/17 A2985=
200601082000 METAR MRLB 082000Z 08018KT 9999 FEW040 SCT130 31/17 A2982=
200601082100 METAR MRLB 082100Z 09015KT 9999 FEW040 31/17 A2980=
200601082200 METAR MRLB 082200Z 08012KT 9999 FEW040 SCT140 29/16 A2981=
200601082300 METAR MRLB 082300Z 06012KT 9999 FEW040 SCT140 27/17 A2984=
200601090000 METAR MRLB 090000Z 00000KT 9999 FEW040 26/17 A2985=
200601090100 METAR MRLB NIL=
200601090200 METAR MRLB NIL=
200601090300 METAR MRLB NIL=
200601090400 METAR MRLB NIL=
200601090500 METAR MRLB NIL=
200601090600 METAR MRLB NIL=
200601090700 METAR MRLB NIL=
200601090800 METAR MRLB NIL=
200601090900 METAR MRLB NIL=
200601091000 METAR MRLB NIL=
200601091100 METAR MRLB NIL=
200601091200 METAR MRLB 091200Z 09010KT CAVOK 24/18 A2985=
200601091300 METAR MRLB 091300Z 07012KT CAVOK 25/19 A2987=
200601091400 METAR MRLB 091400Z 08012KT CAVOK 27/19 A2990=
200601091500 METAR MRLB 091500Z 08014KT 9999 FEW040 SCT130 29/19 A2991=
200601091600 METAR MRLB 091600Z 07015KT 9999 FEW040 SCT130 30/19 A2991=
200601091700 METAR MRLB 091700Z 07017KT 9999 FEW040 30/19 A2988=
200601091800 METAR MRLB 091800Z 06017KT 9999 FEW040 31/19 A2986=
200601091900 METAR MRLB 091900Z 06017KT 9999 FEW040 32/19 A2983=
200601092000 METAR MRLB 092000Z 06016 SCT040 31/19 31/19 A2980=
200601092100 METAR MRLB 092100Z 06017KT 9999 FEW040 32/18 A2978=
200601092200 METAR MRLB 092200Z 07014KT 9999 FEW040 31/19 A2977=
200601092300 METAR MRLB 092300Z 06013KT CAVOK 29/19 A2978=
200601100000 METAR MRLB 100000Z 08008KT CAVOK 27/19 A2980=
200601100100 METAR MRLB NIL=
200601100200 METAR MRLB NIL=
200601100300 METAR MRLB NIL=
200601100400 METAR MRLB NIL=
200601100500 METAR MRLB NIL=
200601100600 METAR MRLB NIL=
200601100700 METAR MRLB NIL=
200601100800 METAR MRLB NIL=
200601100900 METAR MRLB NIL=
200601101000 METAR MRLB NIL=
200601101100 METAR MRLB NIL=
200601101200 METAR MRLB 101200Z 06006KT 9999 SKC 22/18 A2982=
200601101300 METAR MRLB 101300Z 06010KT 9999 SKC 26/18 A2984=
200601101400 METAR MRLB 101400Z 04011KT 9999 SKC 28/18 A2988=
200601101500 METAR MRLB 101500Z 07018KT 9999 FEW040 30/18 A2989=
200601101600 METAR MRLB 101600Z 06014KT CAVOK 31/18 A2988=
200601101700 METAR MRLB 101700Z 05014KT 9999 FEW040 32/18 A2986=
200601101800 METAR MRLB 101800Z 05016KT 9999 FEW040 33/19 A2983=
200601101900 METAR MRLB 101900Z 07014KT 9999 FEW040 33/19 A2980=
200601102000 METAR MRLB 102000Z 06012KT 9999 SCT040 32/19 A2978=
200601102100 METAR MRLB 102100Z 08011KT 9999 FEW040 33/19 A2977=
200601102200 METAR MRLB 102200Z 06011KT 9999 FEW040 32/19 A2978=
200601102300 METAR MRLB 102300Z 07012KT 9999 FEW040 29/18 A2979=
200601110000 METAR MRLB 110000Z 07009KT CAVOK 27/19 A2980=
200601110100 METAR MRLB 110100Z 10005KT CAVOK 26/19 A2982=
200601110200 METAR MRLB NIL=
200601110300 METAR MRLB NIL=
200601110400 METAR MRLB NIL=
200601110500 METAR MRLB NIL=
200601110600 METAR MRLB NIL=
200601110700 METAR MRLB NIL=
200601110800 METAR MRLB NIL=
200601110900 METAR MRLB NIL=
200601111000 METAR MRLB NIL=
200601111100 METAR MRLB NIL=
200601111200 METAR MRLB 111200Z 00000KT CAVOK 21/19 A2981=
200601111300 METAR MRLB 111300Z 22005KT 9999 FEW040 22/20 A2984=
200601111400 METAR MRLB 111400Z 21006KT 9999 FEW040 26/20 A2986=
200601111500 METAR MRLB 111500Z 30005KT CAVOK 28/20 A2987=
200601111600 METAR MRLB 111600Z 35004KT 9999 FEW040 30/19 A2986=
200601111700 METAR MRLB 111700Z 07016KT 9999 SCT040 32/18 A2984=
200601111800 METAR MRLB 111800Z 08019KT 9999 SCT040 31/19 A2981=
200601111900 METAR MRLB 111900Z 08016KT 9999 SCT040 33/18 A2979=
200601112000 METAR MRLB 112000Z 07012KT 9999 SCT040 33/19 A2976=
200601112100 METAR MRLB 112100Z 08013KT 9999 SCT035 32/19 A2975=
200601112200 METAR MRLB 112200Z 07012KT 9999 FEW035 31/19 A2975=
200601112300 METAR MRLB 112300Z 08013KT 9999 FEW035 30/18 A2975=
200601120000 METAR MRLB 120000Z 08010KT 9999 SCT035 28/19 A2977=
200601120100 METAR MRLB 120100Z 06008KT 9999 SCT035 27/19 A2979=
200601120200 METAR MRLB NIL=
200601120300 METAR MRLB NIL=
200601120400 METAR MRLB NIL=
200601120500 METAR MRLB NIL=
200601120600 METAR MRLB NIL=
200601120700 METAR MRLB NIL=
200601120800 METAR MRLB NIL=
200601120900 METAR MRLB NIL=
200601121000 METAR MRLB NIL=
200601121100 METAR MRLB NIL=
200601121200 METAR MRLB 121200Z 00000KT 9999 SKC 21/19 A2978=
200601121300 METAR MRLB 121300Z VRB02KT 9999 SKC 23/19 A2980=
200601121400 METAR MRLB 121400Z 03004KT 9999 SKC 25/20 A2983=
200601121500 METAR MRLB 121500Z 03003KT CAVOK 29/20 A2983=
200601121600 METAR MRLB 121600Z 07014KT CAVOK 31/18 A2982=
200601121700 METAR MRLB 121700Z 09012KT 9999 FEW040 32/19 A2981=
200601121900 METAR MRLB 121900Z 09012KT 9999 SCT040 32/20 A2975=
200601122000 METAR MRLB 122000Z 09010KT 9999 SCT040 32/19 A2972=
200601122100 METAR MRLB 122100Z 07012KT 9999 BKN040 32/19 A2972=
200601122200 METAR MRLB 122200Z 09010KT 9999 SCT040 31/19 A2971=
200601122300 METAR MRLB 122300Z 08011KT CAVOK 29/20 A2972=
200601130100 METAR MRLB 130100Z 12008KT CAVOK 27/19 A2974=
200601130200 METAR MRLB NIL=
200601130300 METAR MRLB NIL=
200601130400 METAR MRLB NIL=
200601130500 METAR MRLB NIL=
200601130600 METAR MRLB NIL=
200601130700 METAR MRLB NIL=
200601130800 METAR MRLB NIL=
200601130900 METAR MRLB NIL=
200601131000 METAR MRLB NIL=
200601131100 METAR MRLB NIL=
200601131200 METAR MRLB 131200Z 05004KT 9999 SKC 19/18 A2976=
200601131300 METAR MRLB 131300Z 15003KT 9999 SKC 22/20 A2979=
200601131400 METAR MRLB 131400Z 25004KT 9999 SKC 26/21 A2982=
200601131500 METAR MRLB 131500Z 00000KT 9999 FEW025 SCT100 27/22 A2988=
200601131600 METAR MRLB 131600Z 06011KT 9999 FEW040 31/20 A2983=
200601131700 METAR MRLB 131700Z 08014KT 9999 FEW040 32/19 A2981=
200601131800 METAR MRLB 131800Z 08013KT 9999 FEW040 33/18 A2978=
200601131900 METAR MRLB 131900Z 08015KT 9999 FEW040 33/18 A2974=
200601132000 METAR MRLB 132000Z 07011KT 9999 FEW040 33/18 A2973=
200601132100 METAR MRLB 132100Z 09010KT 9999 FEW040 33/18 A2972=
200601132200 METAR MRLB 132200Z 08013KT 9999 FEW040 32/19 A2971=
200601132300 METAR MRLB 132300Z 08011KT 9999 FEW040 31/20 A2973=
200601140000 METAR MRLB 140000Z 10012KT CAVOK 28/19 A2974=
200601140100 METAR MRLB 140100Z 08011KT CAVOK 28/19 A2977=
200601140200 METAR MRLB NIL=
200601140300 METAR MRLB NIL=
200601140400 METAR MRLB NIL=
200601140500 METAR MRLB NIL=
200601140600 METAR MRLB NIL=
200601140700 METAR MRLB NIL=
200601140800 METAR MRLB NIL=
200601140900 METAR MRLB NIL=
200601141000 METAR MRLB NIL=
200601141100 METAR MRLB NIL=
200601141200 METAR MRLB 141200Z 23004KT 9999 FEW035 SCT250 23/20 A2984=
200601141300 METAR MRLB 141300Z 24005KT 9999 FEW035 SCT250 25/20 A2986=
200601141400 METAR MRLB 141400Z 03006KT 9999 SCT035 SCT250 29/20 A2988=
200601141500 METAR MRLB 141500Z 03010KT 9999 FEW035 BKN250 29/20 A2990=
200601141600 METAR MRLB 141600Z 05015KT 9999 FEW035 BKN250 30/20 A2989=
200601141700 METAR MRLB 141700Z 05013KT 9999 SCT035 SCT250 32/20 A2987=
200601141800 METAR MRLB 141800Z 07015KT 9999 FEW035 BKN250 32/20 A2984=
200601141900 METAR MRLB 141900Z 07016KT 9999 SCT035 BKN250 33/20 A2986=
200601142000 METAR MRLB 142000Z 09015KT 9999 SCT035 BKN250 31/21 A2979=
200601142100 METAR MRLB 142100Z 03005KT 9999 SCT035 BKN100 30/20 A2979=
200601142200 METAR MRLB 142200Z 07013KT 9999 SCT035 BKN100 29/20 A2980=
200601142300 METAR MRLB 142300Z 09013KT 9999 SCT030 BKN100 27/21 A2981=
200601142352 METAR MRLB 150000Z 08013KT 9999 BKN030 27/20 A2982=
200601150000 METAR MRLB 150000Z 08013KT 9999 BKN030 27/20 A2982=
200601150100 METAR MRLB 150100Z 07014KT 9999 BKN030 27/20 A2983=
200601150200 METAR MRLB NIL=
200601150300 METAR MRLB NIL=
200601150400 METAR MRLB NIL=
200601150500 METAR MRLB NIL=
200601150600 METAR MRLB NIL=
200601150700 METAR MRLB NIL=
200601150800 METAR MRLB NIL=
200601150900 METAR MRLB NIL=
200601151000 METAR MRLB NIL=
200601151100 METAR MRLB NIL=
200601151200 METAR MRLB 151200Z 32004KT 9999 BKN040 24/19 A2985=
200601151300 METAR MRLB 151300Z 36003KT 9999 SCT040 SCT120 25/19 A2988=
200601151400 METAR MRLB 151400Z VRB02KT 9999 SCT040 SCT120 26/19 A2989=
200601151500 METAR MRLB 151500Z 04008KT 9999 BKN040 SCT120 28/19 A2989=
200601151600 METAR MRLB 151600Z 01012KYT 9999 BKN040 28/19 A2988=
200601151800 METAR MRLB 151800Z 36005KT 9999 BKN040 SCT120 28/20 A2984=
200601151900 METAR MRLB 151900Z 33005KT 9999 FEW040 SCT120 30/20 A2982=
200601152000 METAR MRLB 152000Z 01007KT 9999 BKN035 30/20 A2979 RMK RN DIST N/ E/ SE=
200601152100 METAR MRLB 152100Z 07013KT 9999 BKN035 30/19 A2978 RNK RN DST N NE E=
200601152200 METAR MRLB 152200Z 08011KT 9999 SCT030 SCT100 29/19 A2978 RNK RN DST N S SW=
200601152300 METAR MRLB 152300Z 35005KT 9999 SCT035 SCT100 27/20 A2982 RMK RN DST N NE SW=
200601160000 METAR MRLB 160000Z 04006KT 9999 SCT035 26/19 A2983=
200601160100 METAR MRLB 160100Z 04003KT 9999 SCT035 25/18 A2985=
200601160200 METAR MRLB NIL=
200601160300 METAR MRLB NIL=
200601160400 METAR MRLB NIL=
200601160500 METAR MRLB NIL=
200601160600 METAR MRLB NIL=
200601160700 METAR MRLB NIL=
200601160800 METAR MRLB NIL=
200601160900 METAR MRLB NIL=
200601161000 METAR MRLB NIL=
200601161100 METAR MRLB NIL=
200601161200 METAR MRLB 161200Z 17003KT CAVOK 19/17 A2986=
200601161300 METAR MRLB 161300Z 25003KT CAVOK 20/17 A2987=
200601161400 METAR MRLB 161400Z 24003KT CAVOK 23/17 A2990=
200601161500 METAR MRLB 161500Z 24007KT CAVOK 24/17 A2990=
200601161600 METAR MRLB 161600Z 21004KT CAVOK 28/17 A2990=
200601161700 METAR MRLB 161700Z 11013KT 9999 FEW045 SCT130 30/17 A2987=
200601161800 METAR MRLB 161800Z 09015KT 9999 FEW045 SCT130 30/17 A2986=
200601161900 METAR MRLB 161900Z 10012KT 9999 FEW040 SCT130 29/17 A2984=
200601162000 METAR MRLB 162000Z 10014KT 9999 FEW040 SCT130 30/17 A2981=
200601162100 METAR MRLB 162100Z 10013KT 9999 FEW040 BKN130 30/18 A2980=
200601162200 METAR MRLB 162200Z 08014KT 9999 FEW040 BKN130 25/19 A2980=
200601162300 METAR MRLB 162300Z 09007KT 9999 FEW035 SCT140 26/19 A2980=
200601170000 METAR MRLB 170000Z 09009KT 9999 FEW035 SCT250 25/18 A2981=
200601170100 METAR MRLB 170100Z 12006KT 9999 FEW035 BKN250 24/18 A2983=
200601170200 METAR MRLB NIL=
200601170300 METAR MRLB NIL=
200601170400 METAR MRLB NIL=
200601170500 METAR MRLB NIL=
200601170600 METAR MRLB NIL=
200601170700 METAR MRLB NIL=
200601170800 METAR MRLB NIL=
200601170900 METAR MRLB NIL=
200601171000 METAR MRLB NIL=
200601171100 METAR MRLB NIL=
200601171200 METAR MRLB 171200Z 00000KT CAVOK 19/18 A2988=
200601171300 METAR MRLB 171300Z 00000KT CAVOK 21/19 A2989=
200601171400 METAR MRLB 171400Z 00000KT CAVOK 24/19 A2992=
200601171500 METAR MRLB 171500Z 00000KT CAVOK 27/20 A2992=
200601171600 METAR MRLB 171600Z 20003KT 9999 FEW040 29/20 A2992=
200601171700 METAR MRLB 171700Z 08004KT 9999 SCT040 32/19 A2990=
200601171800 METAR MRLB 171800Z 36004KT 9999 SCT040 31/20 A2988=
200601171900 METAR MRLB 171900Z 26007KT 9999 BKN035 33/20 A2985=
200601172000 METAR MRLB 172000Z 28009KT 9999 BKN035 29/21 A2984=
200601172100 METAR MRLB 172100Z 30007KT 9999 SCT035 31/21 A2982=
200601172200 METAR MRLB 172200Z 28006KT 9999 SCT035 30/21 A2983=
200601172300 METAR MRLB 172300Z 27007KT 9999 FEW035 SCT250 29/21 A2983=
200601180100 METAR MRLB 180100Z 17003KT 9999 FEW035 BKN250 25/20 A2988=
200601180200 METAR MRLB NIL=
200601180300 METAR MRLB NIL=
200601180400 METAR MRLB NIL=
200601180500 METAR MRLB NIL=
200601180600 METAR MRLB NIL=
200601180700 METAR MRLB NIL=
200601180800 METAR MRLB NIL=
200601180900 METAR MRLB NIL=
200601181000 METAR MRLB NIL=
200601181100 METAR MRLB NIL=
200601181200 METAR MRLB NIL=
200601181300 METAR MRLB 181300Z 01005KT 9999 FEW040 20/19 A2997=
200601181400 METAR MRLB 181400Z 26003KT 9999 FEW040 25/20 A2998=
200601181500 METAR MRLB 181500Z 36006KT 9999 FEW040 29/20 A2998=
200601181600 METAR MRLB 181600Z 06016KT 9999 SCT040 31/19 A2996=
200601181700 METAR MRLB 181700Z 06018KT 9999 SCT040 31/18 A2994=
200601181800 METAR MRLB 181800Z 06022KT 9999 SCT035 32/18 A2991=
200601181900 METAR MRLB 181900Z 07018KT 9999 SCT035 BKN100 32/19 A2988 RN DST S SW=
200601182000 METAR MRLB 182000Z 07019KT 9999 SCT035 SCT100 32/18 A2985 RMK RN DST E=
200601182100 METAR MRLB 182100Z 06022G33KT 9999 SCT040 31/18 A2992=
200601182200 METAR MRLB 182200Z 05023G33KT 9999 SCT040 31/18 A2983=
200601182300 METAR MRLB 182300Z 06023KT 9999 FEW040 30/18 A2984=
200601190000 METAR MRLB 190000Z 06014KT 9999 FEW040 28/19 A2986=
200601190100 METAR MRLB 190100Z 06014KT 9999 FEW040 28/19 A2986=
200601190200 METAR MRLB NIL=
200601190300 METAR MRLB NIL=
200601190400 METAR MRLB NIL=
200601190500 METAR MRLB NIL=
200601190600 METAR MRLB NIL=
200601190700 METAR MRLB NIL=
200601190800 METAR MRLB NIL=
200601190900 METAR MRLB NIL=
200601191000 METAR MRLB NIL=
200611191100 METAR MRLB NIL=
200611191200 METAR MRLB NIL=
200601191300 METAR MRLB 191300Z 05017KT 9999 FEW035 25/19 A2987=
200601191400 METAR MRLB 191400Z 06020KT 9999 FEW035 27/18 A2989=
200601191500 METAR MRLB 191500Z 06021KT 9999 SCT035 29/18 A2989=
200601191600 METAR MRLB 191600Z 07023G43KT 9999 SCT040 29/18 A2988=
200601191700 METAR MRLB 191700Z 07021G40KT 9999 SCT040 30/19 A2986=
200601191800 METAR MRLB 191800Z 07019KT 9999 SCT040 31/17 A2983=
200601191900 METAR MRLB 191900Z 07017KT 9999 SCT035 31/16 A2979=
200601192000 METAR MRLB 192000Z 07016KT 9999 FEW035 32/16 A2976=
200601192100 METAR MRLB 192100Z 06017KT 9999 SCT035 31/16 A2975=
200601192200 METAR MRLB 192200Z 08016KT 9999 FEW035 30/15 A2977=
200601192300 METAR MRLB 192300Z 06014KT 9999 FEW035 29/15 A2979=
200601200000 METAR MRLB 200000Z 06010KT 9999 FEW035 SCT250 27/17 A2980=
200601200100 METAR MRLB 200100Z 07010KT 9999 FEW035 SCT250 26/16 A2981=
200601200200 METAR MRLB NIL=
200601200300 METAR MRLB NIL=
200601200400 METAR MRLB NIL=
200601200500 METAR MRLB NIL=
200601200600 METAR MRLB NIL=
200601200700 METAR MRLB NIL=
200601200800 METAR MRLB NIL=
200601200900 METAR MRLB NIL=
200601201000 METAR MRLB NIL=
200601201100 METAR MRLB NIL=
200601201200 METAR MRLB NIL=
200601201300 METAR MRLB 201300Z 20003KT 9999 SCT035 25/20 A2981=
200601201400 METAR MRLB 201400Z 09003KT 9999 SCT035 28/20 A2983 RN DST N=
200601201500 METAR MRLB 201500Z 07009KT 9999 SCT040 30/19 A2982=
200601201600 METAR MRLB 201600Z 08013KT 9999 SCT035 31/19 A2981=
200601201700 METAR MRLB 201700Z 09016KT 9999 SCT035 32/18 A2979=
200601201800 METAR MRLB 201800Z 09015KT 9999 SCT035 32/18 A2976=
200601201900 METAR MRLB 201900Z 08016KT 9999 BKN035 33/17 A2971=
200601202000 METAR MRLB 202000Z 09014KT 9999 BKN035 32/18 A2968=
200601202100 METAR MRLB 202100Z 07013KT 9999 BKN035 31/18 A2968=
200601202200 METAR MRLB 202200Z 07014KT 9999 SCT035 SCT130 30/20 A2969=
200601202300 METAR MRLB 202300Z 07014KT 9999 FEW035 SCT130 29/19 A2971=
200601210000 METAR MRLB 210000Z 05010KT 9999 FEW035 SCT250 27/20 A2973=
200601210100 METAR MRLB 210100Z 06011KT 9999 SCT035 SCT259 26/19 A2975=
200601210200 METAR MRLB NIL=
200601210300 METAR MRLB NIL=
200601210400 METAR MRLB NIL=
200601210500 METAR MRLB NIL=
200601210600 METAR MRLB NIL=
200601210700 METAR MRLB NIL=
200601210800 METAR MRLB NIL=
200601210900 METAR MRLB NIL=
200601211000 METAR MRLB NIL=
200601211100 METAR MRLB NIL=
200601211200 METAR MRLB NIL=
200601211300 METAR MRLB 211300Z 10006KT CAVOK 25/19 A2978=
200601211400 METAR MRLB 211400Z 08009KT CAVOK 28/19 A2981=
200601211500 METAR MRLB 211500Z 07013KT CAVOK 30/18 A2981=
200601211600 METAR MRLB 211600Z 05012KT 9999 FEW040 32/17 A2980=
200601211700 METAR MRLB 211700Z 05014KT 9999 FEW040 32/17 A2977=
200601211800 METAR MRLB 211800Z 06016KT 9999 FEW040 32/17 A2977=
200601211900 METAR MRLB 211900Z 07015KT 9999 FEW040 33/18 A2970=
200601212000 METAR MRLB 212000Z 06015KT 9999 FEW040 33/18 A2967=
200601212100 METAR MRLB 212100Z 07012KT 9999 FEW040 33/18 A2967=
200601212200 METAR MRLB 212200Z 06015KT 9999 FEW040 32/18 A2966=
200601212300 METAR MRLB 212300Z 06016KT CAVOK 31/18 A2968=
200601220000 METAR MRLB 220000Z 06009KT CAVOK 28/19 A2970=
200601220100 METAR MRLB 220100Z 06014KT CAVOK 27/19 A2972=
200601220200 METAR MRLB NIL=
200601220300 METAR MRLB NIL=
200601220400 METAR MRLB NIL=
200601220500 METAR MRLB NIL=
200601220600 METAR MRLB NIL=
200601220700 METAR MRLB NIL=
200601220800 METAR MRLB NIL=
200601220900 METAR MRLB NIL=
200601221000 METAR MRLB NIL=
200601221100 METAR MRLB NIL=
200601221200 METAR MRLB NIL=
200601221300 METAR MRLB 221300Z 10004KT CAVOK 25/20 A2979=
200601221400 METAR MRLB 221400Z 11003KT CAVOK 27/20 A2981=
200601221500 METAR MRLB 221500Z 07009KT 9999 FEW040 29/19 A2981=
200601221600 METAR MRLB 221600Z 06012KT 9999 FEW040 31/18 A2981=
200601221700 METAR MRLB 221700Z 06014KT 9999 FEW040 31/18 A2979=
200601221800 METAR MRLB 221800Z 07017KT 9999 SCT040 33/18 A2977=
200601221900 METAR MRLB 221900Z 09012KT 9999 SCT040 33/18 A2974=
200601222000 METAR MRLB 222000Z 06012KT 9999 SCT040 33/18 A2970=
200601222100 METAR MRLB 222100Z 08011KT 9999 FEW040 33/18 A2969=
200601222200 METAR MRLB 222200Z 07011KT 9999 FEW040 33/18 A2969=
200601222300 METAR MRLB 222300Z 06011KT 9999 FEW040 31/18 A2971=
200601230000 METAR MRLB 230000Z 07008KT 9999 FEW040 20/19 A2973=
200601230100 METAR MRLB NIL=
200601230200 METAR MRLB NIL=
200601230300 METAR MRLB NIL=
200601230400 METAR MRLB NIL=
200601230500 METAR MRLB NIL=
200601230600 METAR MRLB NIL=
200601230700 METAR MRLB NIL=
200601230800 METAR MRLB NIL=
200601230900 METAR MRLB NIL=
200601231000 METAR MRLB NIL=
200601231100 METAR MRLB NIL=
200601231200 METAR MRLB NIL=
200601231300 METAR MRLB 231300Z 09003KT CAVOK 21/20 A2978=
200601231400 METAR MRLB 231400Z 00000KT CAVOK 25/21 A2981=
200601231500 METAR MRLB 231500Z 26003KT CAVOK 28/21 A2981=
200601231600 METAR MRLB 231600Z 26005KT 9999 FEW035 29/21 A2981=
200601231700 METAR MRLB 231700Z 08007KT 9999 FEW035 33/19 A2979=
200601231800 METAR MRLB 231800Z 07007KT 9999 SCT035 34/20 A2976=
200601231900 METAR MRLB 231900Z 08008KT 9999 SCT035 24/19 A2975=
200601232000 METAR MRLB 232000Z 27008KT 9999 SCT035 32/21 A2972=
200601232100 METAR MRLB 232100Z 28007KT 9999 SCT035 32/21 A2971=
200601232200 METAR MRLB 232200Z 29008KT 9999 SCT035 SCT250 29/22 A2972=
200601232300 METAR MRLB 232300Z 27006KT 9999 FEW035 SCT250 29/22 A2973=
200601240000 METAR MRLB 240000Z 00000KT 9999 FEW035 SCT250 27/23 A2975=
200601240100 METAR MRLB 240100Z 09004KT 9999 FEW035 SCT250 28/20 A2976=
200601240200 METAR MRLB NIL=
200601240300 METAR MRLB NIL=
200601240400 METAR MRLB NIL=
200601240500 METAR MRLB NIL=
200601240600 METAR MRLB NIL=
200601240700 METAR MRLB NIL=
200601240800 METAR MRLB NIL=
200601240900 METAR MRLB NIL=
200601241000 METAR MRLB NIL=
200601241100 METAR MRLB NIL=
200601241200 METAR MRLB NIL=
200601241300 METAR MRLB 241300Z 06004KT CAVOK 23/21 A2975=
200601241400 METAR MRLB 241400Z 29003KT CAVOK 27/21 A2978=
200601241500 METAR MRLB 241500Z 06007KT 9999 FEW035 30/21 A2979=
200601241600 METAR MRLB 241600Z 07018KT 9999 SCT035 31/20 A2979=
200601241700 METAR MRLB 241700Z 06017KT 9999 SCT035 32/21 A2978=
200601241800 METAR MRLB 241800Z 08012KT 9999 SCT035 31/20 A2977=
200601241900 METAR MRLB 241900Z 06018KT 9999 BKN035 32/20 A2974=
200601242000 METAR MRLB 242000Z 06015KT 9999 SCT035 33/20 A2971=
200601242100 METAR MRLB 242100Z 07015KT 9999 BKN035 32/19 A2970=
200601242200 METAR MRLB 242200Z 08011KT 9999 SCT035 31/20 A2971=
200601242300 METAR MRLB 242300Z 06012KT 9999 FEW035 30/20 A2972=
200601250000 METAR MRLB 250000Z 07013KT 9999 FEW035 28/20 A2975=
200601250100 METAR MRLB 250100Z 07012KT 9999 FEW035 SCT250 27/20 A2977=
200601250200 METAR MRLB NIL=
200601250300 METAR MRLB NIL=
200601250400 METAR MRLB NIL=
200601250500 METAR MRLB NIL=
200601250600 METAR MRLB NIL=
200601250700 METAR MRLB NIL=
200601250800 METAR MRLB NIL=
200601250900 METAR MRLB NIL=
200601251000 METAR MRLB NIL=
200601251100 METAR MRLB NIL=
200601251200 METAR MRLB NIL=
200601251300 METAR MRLB 251300Z 07017KT 9999 SKC 27/18 A2980=
200601251400 METAR MRLB 251400Z 07014KT 9999 SKC 28/19 A2985=
200601251500 METAR MRLB 251500Z 08018KT CAVOK 30/18 A2986=
200601251600 METAR MRLB 251600Z 08018KT 9999 FEW040 31/18 A2986=
200601251700 METAR MRLB 251700Z 08020G30 9999 FEW040 31/18 A2984=
200601251800 METAR MRLB 251800Z 09017KT 9999 FEW040 32/19 A2980=
200601251900 METAR MRLB 251900Z 07016KT 9999 SCT040 32/19 A2979=
200601252000 METAR MRLB 252000Z 08021KT 9999 SCT035 31/19 A2977 RN DST E=
200601252100 METAR MRLB 252100Z 06018KT 9999 SCT040 32/18 A2976 RMK RN DST N NE=
200601252200 METAR MRLB 252200Z 07019KT 9999 SCT040 31/19 A2976 RMK RN DST N=
200601252300 METAR MRLB 252300Z 06010KT 9999 FEW040 29/19 A2976=
200601260000 METAR MRLB 260000Z 08014KT CAVOK 28/19 A2976=
200601260100 METAR MRLB 260100Z 31007KT CAVOK 26/20 A2978=
200601260200 METAR MRLB NIL=
200601260300 METAR MRLB NIL=
200601260400 METAR MRLB NIL=
200601260500 METAR MRLB NIL=
200601260600 METAR MRLB NIL=
200601260700 METAR MRLB NIL=
200601260800 METAR MRLB NIL=
200601260900 METAR MRLB NIL=
200601261000 METAR MRLB NIL=
200601261100 METAR MRLB NIL=
200601261200 METAR MRLB NIL=
200601261300 METAR MRLB 261300Z 07015KT CAVOK 27/19 A2982=
200601261400 METAR MRLB 261400Z 08015KT CAVOK 29/19 A2984=
200601261500 METAR MRLB 261500Z 08017KT CAVOK 30/19 A2985=
200601261600 METAR MRLB 261600Z 08018KT 9999 FEW040 31/19 A2985=
200601261700 METAR MRLB 261700Z 08018KT 9999 FEW040 32/19 A2985=
200601261800 METAR MRLB 261800Z 08016KT 9999 FEW040 33/18 A2983=
200601261900 METAR MRLB 261900Z 08017KT 9999 FEW040 33/20 A2981=
200601262100 METAR MRLB 262100Z 07019KT 9999 FEW040 32/19 A2978=
200601262200 METAR MRLB 262200Z 08020G32KT 9999 FEW040 30/19 A2978=
200601262300 METAR MRLB 262300Z 09018KT 9999 FEW040 30/20 A2979=
200601270000 METAR MRLB 270000Z 09009KT CAVOK 28/20 A2981=
200601270100 METAR MRLB NIL=
200601270200 METAR MRLB NIL=
200601270300 METAR MRLB NIL=
200601270400 METAR MRLB NIL=
200601270500 METAR MRLB NIL=
200601270600 METAR MRLB NIL=
200601270700 METAR MRLB NIL=
200601270800 METAR MRLB NIL=
200601270900 METAR MRLB NIL=
200601271000 METAR MRLB NIL=
200601271100 METAR MRLB NIL=
200601271200 METAR MRLB NIL=
200601271300 METAR MRLB 271300Z 24005KT CAVOK 26/19 A2987=
200601271400 METAR MRLB 271400Z 25005KT CAVOK 28/19 A2989=
200601271500 METAR MRLB 271500Z 03004KT CAVOK 30/18 A2989=
200601271600 METAR MRLB 271600Z 07016KT CAVOK 32/17 A2989=
200601271700 METAR MRLB 271700Z 06024KT CAVOK 32/18 A2987=
200601271800 METAR MRLB 271800Z 07024KT CAVOK 32/18 A2985=
200601271900 METAR MRLB 271900Z 06025KT 9999 FEW035 33/18 A2982=
200601272000 METAR MRLB 272000Z 16023KT 9999 FEW035 32/18 A2980=
200601272100 METAR MRLB 272100Z 08020KT 9999 FEW040 31/20 A2978=
200601272200 METAR MRLB 272200Z 07020KT 9999 FEW040 30/19 A2979=
200601272300 METAR MRLB 272300Z 06012KT CAVOK 29/19 A2980=
200601270000 METAR MRLB NIL=
200601280100 METAR MRLB 280100Z 08018KT CAVOK 27/19 A2984=
200601280200 METAR MRLB NIL=
200601280300 METAR MRLB NIL=
200601280400 METAR MRLB NIL=
200601280500 METAR MRLB NIL=
200601280600 METAR MRLB NIL=
200601280700 METAR MRLB NIL=
200601280800 METAR MRLB NIL=
200601280900 METAR MRLB NIL=
200601281000 METAR MRLB NIL=
200601281100 METAR MRLB NIL=
200601281200 METAR MRLB NIL=
200601281300 METAR MRLB 281300Z 21003KT CAVOK 26/18 A2985=
200601281400 METAR MRLB 281400Z 03007KT 9999 FEW030 BKN250 28/19 A2986=
200601281500 METAR MRLB 281500Z 09012KT 9999 FEW035 BKN250 30/19 A2987=
200601281600 METAR MRLB 281600Z 07006KT 9999 FEW035 OVC250 31/18 A2989=
200601281700 METAR MRLB 281700Z 09020KT 9999 FEW035 OVC250 31/19 A2986=
200601281800 METAR MRLB 281800Z 08017KT 9999 FEW035 OVC250 33/19 A2984=
200601281900 METAR MRLB 281900Z 09016KT 9999 FEW035 BKN250 33/19 A2979=
200601282000 METAR MRLB 282000Z 08017KT 9999 FEW035 BKN250 33/20 A2978=
200601282200 METAR MRLB 282200Z 07017KT 9999 FEW035 BKN250 31/20 A2979=
200601282300 METAR MRLB 282300Z 07018KT 9999 SCT035 OVC250 29/21 A2980=
200601290000 METAR MRLB 290000Z 07020KT 9999 SCT035 OVC240 27/20 A2982=
200601290100 METAR MRLB NIL=
200601290200 METAR MRLB NIL=
200601290300 METAR MRLB NIL=
200601290400 METAR MRLB NIL=
200601290500 METAR MRLB NIL=
200601290600 METAR MRLB NIL=
200601290700 METAR MRLB NIL=
200601290800 METAR MRLB NIL=
200601290900 METAR MRLB NIL=
200601291000 METAR MRLB NIL=
200601291100 METAR MRLB NIL=
200601291200 METAR MRLB NIL=
200601291300 METAR MRLB 291300Z 08009KT 9999 FEW040 26/19 A2983=
200601291400 METAR MRLB 291400Z 09009KT 9999 FEW040 29/19 A2986=
200601291500 METAR MRLB 291500Z 07017KT 9999 SCT040 30/19 A2987=
200601291600 METAR MRLB 291600Z 06015KT 9999 FEW040 SCT130 31/19 A2986=
200601291700 METAR MRLB 291700Z 06013KT 9999 FEW040 BKN130 32/19 A2986=
200601291800 METAR MRLB 291800Z 06016KT 9999 FEW040 BKN130 33/19 A2984=
200601291900 METAR MRLB 291900Z 07012KT 9999 FEW040 BKN130 33/19 A2980=
200601292000 METAR MRLB 292000Z 08014KT 9999 FEW040 BKN110 33/18 A2978=
200601292100 METAR MRLB 292100Z 05014KT CAVOK 32/19 A2976 BKN120=
200601292200 METAR MRLB 292200Z 07014KT CAVOK 32/19 A2976 BKN120=
200601292300 METAR MRLB 292300Z 06014KT CAVOK 30/19 A2977 BKN120=
200601300000 METAR MRLB 300000Z 05014KT CAVOK 29/20 A2979=
200601300100 METAR MRLB NIL=
200601300200 METAR MRLB NIL=
200601300300 METAR MRLB NIL=
200601300400 METAR MRLB NIL=
200601300500 METAR MRLB NIL=
200601300600 METAR MRLB NIL=
200601300700 METAR MRLB NIL=
200601300800 METAR MRLB NIL=
200601300900 METAR MRLB NIL=
200601301000 METAR MRLB NIL=
200601301100 METAR MRLB NIL=
200601301200 METAR MRLB NIL=
200601301300 METAR MRLB 301300Z 11007KT 9999 FEW040 BKN250 26/20 A2982=
200601301400 METAR MRLB 301400Z 08011KT 9999 FEW040 BKN250 28/20 A2984=
200601301500 METAR MRLB 301500Z 06010KT 9999 SCT040 BKN250 29/20 A2986=
200601301600 METAR MRLB 301600Z 07010KT 9999 SCT040 BKN250 32/20 A2984=
200601301700 METAR MRLB 301700Z 06012KT 9999 SCT040 BKN250 32/19 A2983=
200601301800 METAR MRLB 301800Z 06013KT 9999 SCT040 BKN250 32/19 A2981=
200601301900 METAR MRLB 301900Z 08010KT 9999 SCT040 BKN250 34/19 A2979=
200601302000 METAR MRLB 302000Z 06022KT 9999 SCT040 BKN250 33/20 A2976=
200601302100 METAR MRLB 302100Z 08011KT 9999 FEW040 OVC240 31/19 A2975=
200601302200 METAR MRLB 302200Z 06015KT 9999 FEW040 BKN240 30/20 A2975=
200601302300 METAR MRLB 302300Z 07013KT 9999 FEW040 BKN240 29/20 A2977=
200601310000 METAR MRLB 310000Z 07012KT 9999 FEW035 BKN250 28/20 A2979 RMK CB DST E=
200601310100 METAR MRLB 310100Z 09006KT 9999 FEW035 SCT120 27/20 A2981=
200601310200 METAR MRLB NIL=
200601310300 METAR MRLB NIL=
200601310400 METAR MRLB NIL=
200601310500 METAR MRLB NIL=
200601310600 METAR MRLB NIL=
200601310700 METAR MRLB NIL=
200601310800 METAR MRLB NIL=
200601310900 METAR MRLB NIL=
200601311000 METAR MRLB NIL=
200601311100 METAR MRLB NIL=
200601311200 METAR MRLB 311200Z 05018KT 9999 SCT035 BKN250 30/21 A2977=
200601311300 METAR MRLB 311300Z 23003KT 9999 FEW035 BKN250 25/21 A2981=
200601311400 METAR MRLB 311400Z 00000KT 9999 FEW035 OVC250 27/21 A2983=
200601311500 METAR MRLB 311500Z 05007KT 9999 FEW035 BKN250 29/21 A2984=
200601311600 METAR MRLB 311600Z 08016KT 9999 FEW024 BKN250 31/20 A2983=
200601311700 METAR MRLB 311700Z 09016KT 9999 FEW035 SCT250 32/20 A2982=
200601311800 METAR MRLB 311800Z 08017KT 9999 FEW035 BKN250 33/20 A2979=
200601311900 METAR MRLB 311900Z 07017KT 9999 SCT035 BKN250 31/21 A2979=
200601312100 METAR MRLB 312100Z 06017KT 9999 SCT035 OVC250 31/20 A2975=
200601312200 METAR MRLB 312200Z 07016KT 9999 SCT035 BKN240 30/19 A2975=
200601312300 METAR MRLB 312300Z 07015KT 9999 SCT030 BKN130 28/20 2976=
200602010000 METAR MRLB 010000Z 07015KT 9999 SCT030 BKN130 28720 A2979=
200602010100 METAR MRLB NIL=
200602010200 METAR MRLB NIL=
200602010300 METAR MRLB NIL=
200602010400 METAR MRLB NIL=
200602010500 METAR MRLB NIL=
200602010600 METAR MRLB NIL=
200602010700 METAR MRLB NIL=
200602010800 METAR MRLB NIL=
200602010900 METAR MRLB NIL=
200602011000 METAR MRLB NIL=
200602011100 METAR MRLB NIL=
200602011200 METAR MRLB NIL=
200602011300 METAR MRLB 011300Z 05010KT 9999 FEW035 OVC250 26/18 A2980=
200602011400 METAR MRLB 011400Z 08014KT 9999 FEW035 OVC240 27/17 A2980=
200602011500 METAR MRLB 011500Z 09013KT 9999 FEW035 OVC240 28/17 A2982=
200602011600 METAR MRLB 011600Z 09014KT 9999 FEW040 OVC240 29/16 A2982=
200602011700 METAR MRLB 011700Z 05010KT CAVOK 31/17 A2981=
200602012000 METAR MRLB 012000Z 07015KT CAVOK 33/17 A2973=
200602012100 METAR MRLB 012100Z 07013KT CAVOK 32/16 A2972=
200602012200 METAR MRLB 012200Z 06015KT CAVOK 32/16 A2972=
200602012300 METAR MRLB 012300Z 07012KT CAVOK 31/16 A2973=
200602020000 METAR MRLB 020000Z 07009KT CAVOK 28/17 A2975=
200602020100 METAR MRLB 020100Z 07008KT CAVOK 27/17 A2976=
200602020200 METAR MRLB NIL=
200602020300 METAR MRLB NIL=
200602020400 METAR MRLB NIL=
200602020500 METAR MRLB NIL=
200602020600 METAR MRLB NIL=
200602020700 METAR MRLB NIL=
200602020800 METAR MRLB NIL=
200602020900 METAR MRLB NIL=
200602021000 METAR MRLB NIL=
200602021100 METAR MRLB NIL=
200602021200 METAR MRLB NIL=
200602021300 METAR MRLB 021300Z 00000KT CAVOK 22/19 A2983 RMK 8CI250=
200602021400 METAR MRLB 021400Z 00000KT CAVOK 26/19 A2984=
200602021500 METAR MRLB 021500Z 05003KT CAVOK 28/19 A2985=
200602021600 METAR MRLB 021600Z 10006KT CAVOK 31/19 A2984=
200602021700 METAR MRLB 021700Z 18004KT CAVOK 31/19 A2982=
200602021800 METAR MRLB 021800Z 14006KT 9999 FEW040 OVC250 33/19 A2980=
200602021900 METAR MRLB 021900Z 33005KT 9999 SCT040 SCT130 32/19 A2977=
200602022000 METAR MRLB 022000Z 27007KT 9999 SCT035 SCT130 32/19 A2974=
200602022100 METAR MRLB 022100Z 28010KT 9999 BKN035 SCT250 32/20 A2973=
200602022200 METAR MRLB 022200Z 29010KT 9999 BKN035 SCT250 30/19 A2972=
200602022300 METAR MRLB 022300Z 26009KT 9999 BKN035 29/19 A2974=
200602030000 METAR MRLB NIL=
200602030100 METAR MRLB NIL=
200602030100 METAR MRLB NIL=
200602030200 METAR MRLB NIL=
200602030300 METAR MRLB NIL=
200602030400 METAR MRLB NIL=
200602030500 METAR MRLB NIL=
200602030600 METAR MRLB NIL=
200602030700 METAR MRLB NIL=
200602030800 METAR MRLB NIL=
200602030900 METAR MRLB NIL=
200602031000 METAR MRLB NIL=
200602031100 METAR MRLB NIL=
200602031200 METAR MRLB NIL=
200602031300 METAR MRLB 031300Z 04005KT 9999 OVC025 23/21 A2981 RN DST N=
200602031400 METAR MRLB 031400Z 04004KT 9999 SCT025 BKN130 25/22 A2983=
200602031500 METAR MRLB 031500Z 00000KT 9999 FEW025 OVC130 27/22 A2985=
200602031600 METAR MRLB 031600Z 34003KT 9999 SCT030 BKN130 30/20 A2985=
200602031700 METAR MRLB 031700Z 27004KT 9999 SCT030 BKN130 29/21 A2983=
200602031800 METAR MRLB 031800Z 29006KT 9999 SCT030 BKN250 30/21 A2982=
200602031900 METAR MRLB 031900Z 27008KT 9999 FEW035 OVC250 29/21 A2979=
200602032000 METAR MRLB 032000Z 27011KT 9999 FEW030 SCT130 BKN250 29/21 A2976 RN DST N TCU NE=
200602032100 METAR MRLB 032100Z 27010KT 9999 FEW030 BKN120 28/21 A2976 RN DST NE E=
200602032200 METAR MRLB 032200Z 26011KT 9999 FEW030 BKN120 27/22 A2975 RN DST E SE=
200602032300 METAR MRLB 032300Z 27009KT 9999 SCT025 BKN120 26/22 A2977 RN DST N E=
200602040000 METAR MRLB 040000Z 27004KT 9999 FEW025 OVC120 26/22 A2978 RN DST NE E=
200602040100 METAR MRLB NIL=
200602040200 METAR MRLB NIL=
200602040300 METAR MRLB NIL=
200602040400 METAR MRLB NIL=
200602040500 METAR MRLB NIL=
200602040600 METAR MRLB NIL=
200602040700 METAR MRLB NIL=
200602040800 METAR MRLB NIL=
200602040900 METAR MRLB NIL=
200602041000 METAR MRLB NIL=
200602041100 METAR MRLB NIL=
200602041200 METAR MRLB NIL=
200602041300 METAR MRLB 041300Z 00000KT 6000 VCFG FEW002 SCT010 BKN120 24/23 A2986=
200602041400 METAR MRLB 041400Z 32003KT 5000 DZ SCT008 BKN020 23/23 A2988=
200602041500 METAR MRLB 041500Z 24003KT 9999 SCT015 OVC120 24/23 A2990 RN DST N NE=
200602041600 METAR MRLB 041600Z 00000KT 9999 SCT020 OVC130 25/23 A2990 RN DST S=
200602041700 METAR MRLB 041700Z 26004KT 9999 SCT030 OVC130 26/24 A2989=
200602041800 METAR MRLB 041800Z 28009KT 9999 SCT035 OVC130 27/22 A2985 RN DST E=
200602041900 METAR MRLB 041900Z 29003KT 9999 SCT035 OVC120 25/22 A2983 RN DST E=
200602042000 METAR MRLB 042000Z 26003KT 9999 FEW035 BKN120 26/21 A2981=
200602042100 METAR MRLB 042100Z 26004KT 9999 FEW035 BKN130 27/21 A2979=
200602042200 METAR MRLB 042200Z 24005KT 9999 FEW035 OVC130 26/22 A2979=
200602042300 METAR MRLB 042300Z 29004KT 9999 FEW035 BKN130 26/22 A2980=
200602050000 METAR MRLB 050000Z 00000KT 9999 FEW030 OVC130 26/22 A2982=
200602050100 METAR MRLB 050100Z 00000KT 9999 FEW030 OVC130 25/23 A2983=
200602050200 METAR MRLB NIL=
200602050300 METAR MRLB NIL=
200602050400 METAR MRLB NIL=
200602050500 METAR MRLB NIL=
200602050600 METAR MRLB NIL=
200602050700 METAR MRLB NIL=
200602050800 METAR MRLB NIL=
200602050900 METAR MRLB NIL=
200602051000 METAR MRLB NIL=
200602051100 METAR MRLB NIL=
200602051200 METAR MRLB NIL=
200602051300 METAR MRLB 051300Z 11004KT 9999 FEW030 BKN130 25/19 A2982=
200602051400 METAR MRLB 051400Z 35005KT 9999 FEW035 BKN130 26/20 A2984=
200602051600 METAR MRLB 051600Z 09011KT 9999 FEW040 SCT140 31/19 A2988=
200602051700 METAR MRLB 051700Z 08018KT 9999 FEW040 SCT250 31/18 A2986=
200602051800 METAR MRLB 051800Z 08017KT 9999 FEW040 SCT250 32/19 A2984=
200602051900 METAR MRLB 051900Z 09016KT 9999 SCT040 SCT250 33/18 A2981=
200602052000 METAR MRLB 052000Z 08018KT 9999 SCT040 SCT250 33/17 A2978=
200602052200 METAR MRLB 052200Z 08017KT 9999 FEW035 SCT140 31/19 A2978=
200602052300 METAR MRLB 052300Z 08012KT 9999 SCT035 SCT140 31/18 A2977=
200602060000 METAR MRLB 060000Z 08011KT 9999 SCT035 SCT250 27/19 A2981=
200602060100 METAR MRLB 060100Z 07013KT 9999 SCT035 BKN250 27/19 A2981=
200602060200 METAR MRLB NIL=
200602060300 METAR MRLB NIL=
200602060400 METAR MRLB NIL=
200602060500 METAR MRLB NIL=
200602060600 METAR MRLB NIL=
200602060700 METAR MRLB NIL=
200602060800 METAR MRLB NIL=
200602060900 METAR MRLB NIL=
200602061000 METAR MRLB NIL=
200602061100 METAR MRLB NIL=
200602061200 METAR MRLB NIL=
200602061300 METAR MRLB 061300Z 28003KT CAVOK 22/20 A2984=
200602061400 METAR MRLB 061400Z 32004KT CAVOK 26/20 A2987=
200602061500 METAR MRLB 061500Z 27006KT CAVOK 28/20 A2988=
200602061600 METAR MRLB NIL=
200602061700 METAR MRLB 061700Z 23008KT 9999 SCT035 31/20 A2985=
200602061800 METAR MRLB 061800Z 09013KT 9999 FEW035 SCT140 31/18 A2985=
200602061900 METAR MRLB 061900Z 10012KT 9999 FEW040 SCT140 32/19 A2983=
200602062000 METAR MRLB 062000Z 07015KT 9999 FEW040 BKN130 32/19 A2981=
200602062100 METAR MRLB 062100Z 09013KT 9999 FEW035 BKN130 30/20 A2979=
200602062200 METAR MRLB 062200Z 10014KT 9999 FEW040 BKN120 29/20 A2979=
200602062300 METAR MRLB 062300Z 08014KT 9999 FEW035 BKN120 28/20 A2980 RMK RN DST N=
200602070000 METAR MRLB 070000Z 07012KT 9999 FEW035 BKN120 27/19 A2981=
200602070100 METAR MRLB 070100Z 08014KT 9999 FEW035 BKN120 26/20 A2983=
200602070200 METAR MRLB NIL=
200602070300 METAR MRLB NIL=
200602070400 METAR MRLB NIL=
200602070500 METAR MRLB NIL=
200602070600 METAR MRLB NIL=
200602070700 METAR MRLB NIL=
200602070800 METAR MRLB NIL=
200602070900 METAR MRLB NIL=
200602071000 METAR MRLB NIL=
200602071100 METAR MRLB NIL=
200602071200 METAR MRLB NIL=
200602071300 METAR MRLB 071300Z 06006KT 9999 SKC 24/17 A2985=
200602071400 METAR MRLB 071400Z 34004KT 9999 SKC 26/18 A2988=
200602071500 METAR MRLB 071500Z 04007KT 9999 SKC 29/19 A2989=
200602071600 METAR MRLB 071600Z 07006KT 9999 SKC 30/19 A2989=
200602071700 METAR MRLB 071700Z 10014KT CAVOK 31/17 A2988=
200602071800 METAR MRLB 071800Z 08013KT 9999 SKC 32/17 A2985=
200602071900 METAR MRLB 071900Z 08012KT 9999 SKC 32/16 A2982=
200602072000 METAR MRLB 072000Z 07013KT 9999 SKC 32/16 A2979=
200602072100 METAR MRLB 072100Z 08014KT CAVOK 33/14 A2978=
200602072200 METAR MRLB 072200Z 05015KT CAVOK 32/17 A2979=
200602072300 METAR MRLB 072300Z 05014KT 9999 FEW045 31/18 A2980=
200602080000 METAR MRLB 080000Z 03012KT 9999 FEW040 BKN250 29/19 A2981=
200602080100 METAR MRLB 080100Z 05011KT 9999 FEW040 BKN250 28/19 A2984=
200602080200 METAR MRLB NIL=
200602080300 METAR MRLB NIL=
200602080400 METAR MRLB NIL=
200602080500 METAR MRLB NIL=
200602080600 METAR MRLB NIL=
200602080700 METAR MRLB NIL=
200602080800 METAR MRLB NIL=
200602080900 METAR MRLB NIL=
200602081000 METAR MRLB NIL=
200602081100 METAR MRLB NIL=
200602081200 METAR MRLB NIL=
200602081300 METAR MRLB 081300Z 07014KT 9999 SCT030 25/19 A2986=
200602081400 METAR MRLB 081400Z 06014KT 9999 BKN035 26/19 A2989 RN DST NE=
200602081500 METAR MRLB 081500Z 06015KT 9999 SCT035 BKN130 27/19 A2990 RN DST NE=
200602081600 METAR MRLB 081600Z 06016KT 9999 SCT035 SCT130 28/18 A2989=
200602081700 METAR MRLB 081700Z 05017KT 9999 SCT035 29/18 A2987=
200602081800 METAR MRLB 081800Z 08014KT 9999 SCT035 31/17 A2984=
200602081900 METAR MRLB 081900Z 05013KT 9999 SCT35 31/18 A2982=
200602082000 METAR MRLB 082000Z 04015KT 9999 FEW035 SCT250 30/18 A2979=
200602082100 METAR MRLB 082100Z 05018KT 9999 SCT035 SCT250 30/17 A2977=
200602082200 METAR MRLB 082200Z 05020KT 9999 SCT035 BKN250 30/18 A2977=
200602082300 METAR MRLB 082300Z 06017KT 9999 SCT035 BKN250 30/18 A2979=
200602090000 METAR MRLB 090000Z 05016KT 9999 FEW035 SCT250 27/18 A2982=
200602090100 METAR MRLB 090100Z 07009KT 9999 SCT035 SCT250 25/18 A2983=
200602090200 METAR MRLB NIL=
200602090300 METAR MRLB NIL=
200602090400 METAR MRLB NIL=
200602090500 METAR MRLB NIL=
200602090600 METAR MRLB NIL=
200602090700 METAR MRLB NIL=
200602090800 METAR MRLB NIL=
200602090900 METAR MRLB NIL=
200602091000 METAR MRLB NIL=
200602091100 METAR MRLB NIL=
200602091200 METAR MRLB NIL=
200602091300 METAR MRLB 091300Z 08014KT 9999 SCT035 25/18 A2989=
200602091400 METAR MRLB 091400Z 08016KT 9999 SCT035 27/18 A2991=
200602091500 METAR MRLB 091500Z 08021KT 9999 SCT035 28/18 A2992=
200602091600 METAR MRLB 091600Z 08022KT 9999 FEW035 29/18 A2991=
200602091700 METAR MRLB 091700Z 07022KT 9999 FEW035 31/18 A2990=
200602091800 METAR MRLB 091800Z 07020KT 9999 SCT035 31/18 A2987=
200602091900 METAR MRLB 091900Z 06021KT 9999 FEW035 32/18 A2985=
200602092000 METAR MRLB 092000Z 06020KT 9999 FEW035 32/19 A2982=
200602092100 METAR MRLB 092100Z 06021KT 9999 FEW035 30/19 A2981=
200602092200 METAR MRLB 092200Z 07019KT 9999 FEW035 30/18 A2980=
200602092300 METAR MRLB 092300Z 06019KT 9999 FEW040 29/19 A2981=
200602100000 METAR MRLB 100000Z 07015KT 9999 FEW040 SCT250 27/18 A2982=
200602100100 METAR MRLB 100100Z 08018KT 9999 FEW040 SCT250 26/18 A2984=
200602100200 METAR MRLB NIL=
200602100300 METAR MRLB NIL=
200602100400 METAR MRLB NIL=
200602100500 METAR MRLB NIL=
200602100600 METAR MRLB NIL=
200602100700 METAR MRLB NIL=
200602100800 METAR MRLB NIL=
200602100900 METAR MRLB NIL=
200602101000 METAR MRLB NIL=
200602101100 METAR MRLB NIL=
200602101200 METAR MRLB NIL=
200602101300 METAR MRLB 101300Z 08017KT CAVOK 26/17 A2988=
200602101400 METAR MRLB 101400Z 08016KT CAVOK 28/17 A2990=
200602101500 METAR MRLB 101500Z 07014KT CAVOK 30/17 A2991=
200602101600 METAR MRLB 101600Z 06018KT CAVOK 30/17 A2991=
200602101700 METAR MRLB 101700Z 07015KT CAVOK 32/16 A2989=
200602101800 METAR MRLB 101800Z 06014KT CAOK 33/16 A2987=
200602101900 METAR MRLB 101900Z 06017KT CAVOK 33/17 A2984=
200602102000 METAR MRLB 102000Z 06018KT 9999 FEW040 34/17 A2981=
200602102100 METAR MRLB 102100Z 06018KT 9999 FEW040 33/17 A2980=
200602102200 METAR MRLB 102200Z 06020KT 9999 FEW040 32/17 A2979=
200602102300 METAR MRLB 102300Z 07016KT CAVOK 31/16 A2980=
200602110000 METAR MRLB 110000Z 08012KT CAVOK 29/15 A2982=
200602110100 METAR MRLB 110100Z 08013KT CAVOK 27/16 A2983=
200602110200 METAR MRLB NIL=
200602110300 METAR MRLB NIL=
200602110400 METAR MRLB NIL=
200602110500 METAR MRLB NIL=
200602110600 METAR MRLB NIL=
200602110700 METAR MRLB NIL=
200602110800 METAR MRLB NIL=
200602110900 METAR MRLB NIL=
200602111000 METAR MRLB NIL=
200602111100 METAR MRLB NIL=
200602111200 METAR MRLB NIL=
200602111300 METAR MRLB 111300Z 00000KT 9999 SKC 19/17 A2989=
200602111400 METAR MRLB 111400Z 00000KT 9999 SKC 23/18 A2991=
200602111500 METAR MRLB 111500Z 27004KT 9999 SKC 27/18 A2993=
200602111800 METAR MRLB 111800Z 11006KT CAVOK 33/13 A2988=
200602112000 METAR MRLB 112000Z 07009KT CAVOK 34/15 A2983=
200602112100 METAR MRLB 112100Z 08012KT CAVOK 34/15 A2981=
200602112200 METAR MRLB 112200Z 08011KT CAVOK 33/14 A2981=
200602112300 METAR MRLB 112300Z 06012KT 9999 SKC 31/14 A2982=
200602120000 METAR MRLB 120000Z 07010KT 9999 SKC 29/16 A2983=
200602120100 METAR MRLB 120100Z 08010KT 9999 SKC 28/17 A2986=
200602120200 METAR MRLB NIL=
200602120300 METAR MRLB NIL=
200602120400 METAR MRLB NIL=
200602120500 METAR MRLB NIL=
200602120600 METAR MRLB NIL=
200602120700 METAR MRLB NIL=
200602120800 METAR MRLB NIL=
200602120900 METAR MRLB NIL=
200602121000 METAR MRLB NIL=
200602121100 METAR MRLB NIL=
200602121200 METAR MRLB NIL=
200602121300 METAR MRLB 121300Z 16004KT CAVOK 22/18 A2987=
200602121400 METAR MRLB 121400Z 03004KT CAVOK 23/18 A2990=
200602121500 METAR MRLB 121500Z 26006KT CAVOK 28/18 A2992=
200602121600 METAR MRLB 121600Z 25005KT CAVOK 31/17 A2991=
200602121700 METAR MRLB 121700Z 07014KT CAVOK 33/16 A2988=
200602121800 METAR MRLB 121800Z 08012KT CAVOK 34/16 2985=
200602121900 METAR MRLB 121900Z 07017KT CAVOK 34/15 A2982=
200602122000 METAR MRLB 122000Z 07018KT CAVOK 33/16 A2979=
200602122100 METAR MRLB 122100Z 08020KT CAVOK 34/17 A2978=
200602122200 METAR MRLB 122200Z 07018KT CAVOK 32/18 A2979=
200602122300 METAR MRLB 122300Z 07018KT CAVOK 30/19 A2981=
200602130000 METAR MRLB 130000Z 07017KT CAVOK 29/16 A2984=
200602130100 METAR MRLB 130100Z 08017KT CAVOK 28/18 A2985=
200602130200 METAR MRLB NIL=
200602130300 METAR MRLB NIL=
200602130400 METAR MRLB NIL=
200602130500 METAR MRLB NIL=
200602130600 METAR MRLB NIL=
200602130700 METAR MRLB NIL=
200602130800 METAR MRLB NIL=
200602130900 METAR MRLB NIL=
200602131000 METAR MRLB NIL=
200602131100 METAR MRLB NIL=
200602131200 METAR MRLB NIL=
200602131300 METAR MRLB 131300Z 16005KT 9999 FEW035 SCT250 26/18 A2990=
200602131400 METAR MRLB 131400Z 25012KT 9999 FEW035 SCT250 27/18 A2991=
200602131500 METAR MRLB 131500Z 27011KT 9999 FEW035 BKN250 29/18 A2991=
200602131600 METAR MRLB 131600Z 30008KT 9999 FEW035 BKN250 31/17 A2990=
200602131700 METAR MRLB 131700Z 12017KT 9999 FEW035 SCT250 31/17 A2988=
200602131800 METAR MRLB 131800Z 06020KT 9999 FEW035 BKN250 30/17 A2989=
200602131900 METAR MRLB 131900Z 08019KT 9999 FEW040 SCT250 31/17 A2985=
200602132000 METAR MRLB 132000Z 09019KT 9999 FEW040 SCT250 31/17 A2982=
200602132100 METAR MRLB 132100Z 09020KT 9999 FEW040 SCT250 30/17 A2990=
200602132200 METAR MRLB 132200Z 09020KT 9999 FEW040 SCT250 29/17 A2979=
200602132300 METAR MRLB 132300Z 09009KT 9999 FEW035 28/16 A2983=
200602140000 METAR MRLB 140000Z 07016KT 9999 FEW035 SCT250 25/16 A2986=
200602140100 METAR MRLB 140100Z 13010KT 9999 FEW035 SCT250 25/16 A2987=
200602140200 METAR MRLB NIL=
200602140300 METAR MRLB NIL=
200602140400 METAR MRLB NIL=
200602140500 METAR MRLB NIL=
200602140600 METAR MRLB NIL=
200602140700 METAR MRLB NIL=
200602140800 METAR MRLB NIL=
200602140900 METAR MRLB NIL=
200602141000 METAR MRLB NIL=
200602141100 METAR MRLB NIL=
200602141200 METAR MRLB NIL=
200602141300 METAR MRLB 141300Z 21008KT CAVOK 22/15 A2988=
200602141400 METAR MRLB 141400Z 20010KT CAVOK 26/16 A2989=
200602141500 METAR MRLB 141500Z 26010KT CAVOK 27/16 A2991=
200602141600 METAR MRLB 141600Z 28012KT CAVOK 29/16 A2990=
200602141700 METAR MRLB 141700Z 08019G30KT CAVOK 31/16 A2987=
200602141800 METAR MRLB 141800Z 08021KT CAVOK 31/16 A2986=
200602141900 METAR MRLB 141900Z 06020KT CAVOK 31/16 A2983=
200602142000 METAR MRLB 142000Z 08020KT CAVOK 31/16 A2982=
200602142100 METAR MRLB 142100Z 07018KT CAVOK 30/17 A2980=
200602142200 METAR MRLB 142200Z 07021G31KT CAVOK 29/17 A2981=
200602142300 METAR MRLB 142300Z 07020KT CAVOK 28/17 A2981=
200602150000 METAR MRLB 150000Z 09014KT 9999 SKC 26/17 A2981=
200602150100 METAR MRLB 150100Z 10013KT 9999 SKC 26/17 A2982=
200602150200 METAR MRLB NIL=
200602150300 METAR MRLB NIL=
200602150400 METAR MRLB NIL=
200602150500 METAR MRLB NIL=
200602150600 METAR MRLB NIL=
200602150700 METAR MRLB NIL=
200602150800 METAR MRLB NIL=
200602150900 METAR MRLB NIL=
200602151000 METAR MRLB NIL=
200602151100 METAR MRLB NIL=
200602151200 METAR MRLB NIL=
200602151300 METAR MRLB 151300Z 29005KT CAVOK 23/18 A2984=
200602151400 METAR MRLB 151400Z 20008KT CAVOK 27/18 A2984=
200602151600 METAR MRLB 151600Z 09018KT CAVOK 31/18 A2983=
200602151700 METAR MRLB 151700Z 09018KT CAVOK 31/18 A2983=
200602151900 METAR MRLB 151900Z 09023KT CAVOK 32/17 A2977=
200602152000 METAR MRLB 152000Z 08022KT CAVOK 32/17 A2975=
200602152100 METAR MRLB 152100Z 08015KT CAVOK 32/17 A2973=
200602152200 METAR MRLB 152200Z 07023G36KT CAVOK 31/18 A2973=
200602152300 METAR MRLB 152300Z 08024KT CAVOK 29/18 A2975=
200602160000 METAR MRLB 160000Z 07017KT CAVOK 27/18 A2977=
200602160100 METAR MRLB 160100Z 08020G33KT CAVOK 27/19 A2978=
200602160200 METAR MRLB NIL=
200602160300 METAR MRLB NIL=
200602160400 METAR MRLB NIL=
200602160500 METAR MRLB NIL=
200602160600 METAR MRLB NIL=
200602160700 METAR MRLB NIL=
200602160800 METAR MRLB NIL=
200602160900 METAR MRLB NIL=
200602161000 METAR MRLB NIL=
200602161100 METAR MRLB NIL=
200602161200 METAR MRLB NIL=
200602161300 METAR MRLB 161300Z 07017KT CAVOK 26/18 A2984=
200602161400 METAR MRLB 161400Z 07014KT CAVOK 28/18 A2986=
200602161500 METAR MRLB 161500Z 07015KT CAVOK 29/17 A2987=
200602161600 METAR MRLB 161600Z 06017KT 9999 FEW035 31/18 A2986=
200602161700 METAR MRLB 161700Z 05015KT 9999 SCT035 31/19 A2985=
200602161800 METAR MRLB 161800Z 06016KT 9999 SCT035 31/18 A2983=
200602161900 METAR MRLB 161900Z 05019KT 9999 SCT040 32/18 A2979=
200602162000 METAR MRLB 162000Z 07016KT 9999 SCT040 32/18 A2979=
200602162100 METAR MRLB 162100Z 06016KT 9999 SCT040 32/19 A2975=
200602162200 METAR MRLB 162200Z 07016KT 9999 FEW040 31/19 A2974=
200602162300 METAR MRLB 162300Z 08007KT 9999 FEW040 30/18 A2975=
200602170000 METAR MRLB 170000Z 08018KT CAVOK 28/19 A2976 RMK 2CI260=
200602170100 METAR MRLB NIL=
200602170200 METAR MRLB NIL=
200602170300 METAR MRLB NIL=
200602170400 METAR MRLB NIL=
200602170500 METAR MRLB NIL=
200602170600 METAR MRLB NIL=
200602170700 METAR MRLB NIL=
200602170800 METAR MRLB NIL=
200602170900 METAR MRLB NIL=
200602171000 METAR MRLB NIL=
200602171100 METAR MRLB NIL=
200602171200 METAR MRLB NIL=
200602171300 METAR MRLB 171300Z 08017KT CAVOK 27/18 A2982=
200602171400 METAR MRLB 171400Z 08016KT CAVOK 29/18 A2984=
200602171500 METAR MRLB 171500Z 07017KT CAVOK 30/18 A2985=
200602171600 METAR MRLB 171600Z 07022KT CAVOK 31/18 A2985=
200602171700 METAR MRLB 171700Z 06023KT CAVOK 32/18 A2984=
200602171800 METAR MRLB 171800Z 07020KT CAVOK 33/17 A2982=
200602171900 METAR MRLB 171900Z 08017KT CAVOK 33/18 A2980=
200602172000 METAR MRLB 172000Z 07019KT CAVOK 33/17 A2978=
200602172100 METAR MRLB 172100Z 08018KT CAVOK 32/18 A2976=
200602172200 METAR MRLB 172200Z 08019KT CAVOK 31/17 A2976=
200602172300 METAR MRLB 172300Z 08021KT CAVOK 31/18 A2976=
200602180000 METAR MRLB 180000Z 08016KT CAVOK 28/18 A2978=
200602180100 METAR MRLB 180100Z 07020KT CAVOK 27/18 A2979 RMX 3CI250=
200602180200 METAR MRLB NIL=
200602180300 METAR MRLB NIL=
200602180400 METAR MRLB NIL=
200602180500 METAR MRLB NIL=
200602180600 METAR MRLB NIL=
200602180700 METAR MRLB NIL=
200602180800 METAR MRLB NIL=
200602180900 METAR MRLB NIL=
200602181000 METAR MRLB NIL=
200602181100 METAR MRLB NIL=
200602181200 METAR MRLB NIL=
200602181300 METAR MRLB 181300Z 03008KT 9999 SKC 25/17 A2986=
200602181400 METAR MRLB 181400Z 08016KT CAVOK 29/17 A2980=
200602181500 METAR MRLB 181500Z 08017KT CAVOK 30/18 A2987=
200602181600 METAR MRLB 181600Z 07023KT 9999 FEW040 30/19 A2987=
200602181700 METAR MRLB 181700Z 07025KT CAVOK 32/18 A2986=
200602181800 METAR MRLB 181800Z 07023KT CAVOK 32/18 A2983=
200602181900 METAR MRLB 181900Z 07024G35KT CAVOK 32/18 A2998=
200602182000 METAR MRLB 182000Z 08022KT CAVOK 32/17 A2977=
200602182100 METAR MRLB 182100Z 08021KT 9999 SKC 32/17 A2976=
200602182200 METAR MRLB 182200Z 07023KT 9999 SKC 31/19 2975=
200602182300 METAR MRLB 182300Z 08019KT 9999 SKC 29/18 A2976=
200602190000 METAR MRLB 190000Z 08022KT CAVOK 28/18 A2977=
200602190100 METAR MRLB NIL=
200602190200 METAR MRLB 190200Z 07022G32KT CAVOK 27/19 A2979=
200602190300 METAR MRLB NIL=
200602190400 METAR MRLB NIL=
200602190500 METAR MRLB NIL=
200602190600 METAR MRLB NIL=
200602190700 METAR MRLB NIL=
200602190800 METAR MRLB NIL=
200602190900 METAR MRLB NIL=
200602191000 METAR MRLB NIL=
200602191100 METAR MRLB NIL=
200602191200 METAR MRLB NIL=
200602191300 METAR MRLB 191300Z 08005KT CAVOK 26/17 A2986=
200602191400 METAR MRLB 191400Z 06017KT CAVOK 28/18 A2988=
200602191500 METAR MRLB 191500Z 07028KT 9999 FEW035 29/19 A2987=
200602191600 METAR MRLB 191600Z 08026KT CAVOK 31/16 A2989=
200602191700 METAR MRLB 191700Z 07025G35KT 9999 SKC 31/17 A2989=
200602191800 METAR MRLB 191800Z 07029KT 9999 SKC 32/16 A2985=
200602191900 METAR MRLB 191900Z 06030KT 9999 FEW040 32/16A2983=
200602192000 METAR MRLB 192000Z 06028KT CAVOK 33/16 A2981=
200602192100 METAR MRLB 192100Z 0630KT CAVOK 32/13 A2980=
200602192200 METAR MRLB 192200Z 07025KT 9999 SKC 31/14 A2979=
200602192300 METAR MRLB 192300Z 06025KT 9999 SKC 30/15 A2980=
200602200000 METAR MRLB 200000Z 07021KT 9999 SKC 28/14 A2982=
200602200100 METAR MRLB NIL=
200602200200 METAR MRLB NIL=
200602200300 METAR MRLB NIL=
200602200400 METAR MRLB NIL=
200602200500 METAR MRLB NIL=
200602200600 METAR MRLB NIL=
200602200700 METAR MRLB NIL=
200602200800 METAR MRLB NIL=
200602200900 METAR MRLB NIL=
200602201000 METAR MRLB NIL=
200602201100 METAR MRLB NIL=
200602201200 METAR MRLB NIL=
200602201300 METAR MRLB 201300Z 08018KT CAVOK 26/16 A2985=
200602201400 METAR MRLB 201400Z 08017KT CAVOK 28/16 A2987=
200602201500 METAR MRLB 201500Z 08019KT CAVOK 30/15 A2988=
200602201600 METAR MRLB 201600Z 08018KT CAVOK 31/15 A2988=
200602201700 METAR MRLB 201700Z 07020KT CAVOK 32/14 A2986=
200602201800 METAR MRLB 201800Z 06021KT CAVOK 33/14 A2984=
200602201900 METAR MRLB 201900Z 06020KT CAVOK 33/15 A2982=
200602202000 METAR MRLB 202000Z 06018KT CAVOK 34/14 A2979=
200602202100 METAR MRLB 202100Z 06022KT CAVOK 33/15 A2977=
200602202200 METAR MRLB 202200Z 07020KT CAVOK 32/15 A2977=
200602202300 METAR MRLB 202300Z 06018KT CAVOK 30/15 A2978=
200602210000 METAR MRLB 210000Z 06017KT CAVOK 28/16 A2978=
200602210100 METAR MRLB 210100Z 07019KT CAVOK 27/17 A29/80=
200602210200 METAR MRLB NIL=
200602210300 METAR MRLB NIL=
200602210400 METAR MRLB NIL=
200602210500 METAR MRLB NIL=
200602210600 METAR MRLB NIL=
200602210700 METAR MRLB NIL=
200602210800 METAR MRLB NIL=
200602210900 METAR MRLB NIL=
200602211000 METAR MRLB NIL=
200602211100 METAR MRLB NIL=
200602111200 METAR MRLB NIL=
200602211300 METAR MRLB 211300Z 08016KT CAVOK 08016KT 26/18 A2984=
200602211400 METAR MRLB 211400Z 08022KT CAVOK 27/18 A2986=
200602211500 METAR MRLB 211500Z 08020KT CAVOK 28/17 A2987=
200602211600 METAR MRLB 211600Z 08022KT CAVOK 30/16 A2988=
200602211700 METAR MRLB 211700Z 07021KT CAVOK 31/15 A2987=
200602211800 METAR MRLB 211800Z 08019KT CAVOK 32/14 A2984=
200602211900 METAR MRLB 211900Z 07021KT CAVOK 33/16 A2981=
200602212000 METAR MRLB 21200Z 07019KT CAVOK 32/15 A2978=
200602212100 METAR MRLB NIL=
200602212200 METAR MRLB NIL=
200602212300 METAR MRLB NIL=
200602220000 METAR MRLB NIL=
200602220100 METAR MRLB NIL=
200602220200 METAR MRLB NIL=
200602220300 METAR MRLB NIL=
200602220400 METAR MRLB NIL=
200602220500 METAR MRLB NIL=
200602220600 METAR MRLB NIL=
200602220700 METAR MRLB NIL=
200602220800 METAR MRLB NIL=
200602220900 METAR MRLB NIL=
200602221000 METAR MRLB NIL=
200602221100 METAR MRLB NIL=
200602221200 METAR MRLB NIL=
200602221300 METAR MRLB 221300Z 00000KT 9999 SKC 23/16 A2984=
200602221400 METAR MRLB 221400Z 13005KT CAVOK 28/18 A2986=
200602221500 METAR MRLB 221500Z 05010KT 9999 FEW040 30/18 A2987=
200602221600 METAR MRLB 221600Z 06016KT 9999 SCT040 31/18 A2987=
200602221700 METAR MRLB 221700Z 06015KT 9999 SCT040 32/18 A2986=
200602221800 METAR MRLB 221800Z 05020KT 9999 SCT040 33/18 A2983=
200602221900 METAR MRLB 221900Z 06018KT 9999 SCT040 33/18 A2980=
200602222000 METAR MRLB 222000Z 06020KT 9999 FEW040 33/17 A2977=
200602222100 METAR MRLB 222100Z 06020KT 9999 FEW040 33/17 A2976=
200602222200 METAR MRLB 222200Z 06021KT CAVOK 32/18 A2975=
200602222300 METAR MRLB 222300Z 06020KT 9999 SKC 31/14 A2994=
200602230000 METAR MRLB 230000Z 07012KT 9999 SKC 29/18 A2977=
200602230100 METAR MRLB 230100Z 07012KT 9999 SKC 28/18 A2978=
200602230200 METAR MRLB NIL=
200602230300 METAR MRLB NIL=
200602230400 METAR MRLB NIL=
200602230500 METAR MRLB NIL=
200602230600 METAR MRLB NIL=
200602230700 METAR MRLB NIL=
200602230800 METAR MRLB NIL=
200602230900 METAR MRLB NIL=
200602231000 METAR MRLB NIL=
200602231100 METAR MRLB NIL=
200602231200 METAR MRLB NIL=
200602231300 METAR MRLB 231300Z 35007KT CAVOK 26/18 A2980=
200602231400 METAR MRLB 231400Z 09013KT CAVOK 29/17 A2980=
200602231500 METAR MRLB 231500Z 05014KT CAVOK 31/17 A2982=
200602231600 METAR MRLB 231600Z 08020KT CAVOK 31/17 A2983=
200602231700 METAR MRLB 231700Z 08022KT CAVOK CAVOK 32/17 A2982=
200602231800 METAR MRLB 231800Z 07018KT CAVOK 32/17 A2980=
200602231900 METAR MRLB 231900Z 08020KT CAVOK 34/17 A2977=
200602232000 METAR MRLB 232000Z 06018KT 9999 FEW030 BKN300 34/17 A2975=
200602232100 METAR MRLB 232100Z 09016KT CAVOK 34/16 A2973=
200602232200 METAR MRLB 232200Z 08017KT CAVOK 32/18 A2972=
200602232300 METAR MRLB 232300Z 08016KT CAVOK 31/17 A2973=
200602240000 METAR MRLB 240000Z 08014KT CAVOK 29/17 A2974=
200602240100 METAR MRLB 240100Z 09016KT CAVOK 28/19 A2976=
200602240200 METAR MRLB NIL=
200602240300 METAR MRLB NIL=
200602240400 METAR MRLB NIL=
200602240500 METAR MRLB NIL=
200602240600 METAR MRLB NIL=
200602240700 METAR MRLB NIL=
200602240800 METAR MRLB NIL=
200602240900 METAR MRLB NIL=
200602241000 METAR MRLB NIL=
200602241100 METAR MRLB NIL=
200602241200 METAR MRLB NIL=
200602241300 METAR MRLB 241300Z 04008KT 9999 FEW030 24/19 A2981=
200602241400 METAR MRLB 241400Z 06014KT 9999 FEW035 28/19 A2983=
200602241500 METAR MRLB 241500Z 05009KT 9999 FEW035 31/19 A2984=
200602241600 METAR MRLB 241600Z 07019KT 9999 FEW035 SCT130 31/18 A2983=
200602241700 METAR MRLB 241700Z 08019KT 9999 FEW035 BKN130 31/18 A2983=
200602241900 METAR MRLB 241900Z 09022KT 9999 FEW035 SCT140 32/20 A2978=
200602242000 METAR MRLB 242000Z 08016KT 9999 FEW035 SCT140 32/19 A2976=
200602242100 METAR MRLB 242100Z 08022KT 9999 FEW035 SCT140 31/19 A2973=
200602242200 METAR MRLB 242200Z 07021KT 9999 FEW035 SCT140 30/19 A2974=
200602242300 METAR MRLB 242300Z 08019KT 9999 FEW035 BKN130 29/18 A2974=
200602250000 METAR MRLB 250000Z 08014KT 9999 FEW035 SCT130 28/18 A2976=
200602250100 METAR MRLB 250100Z 07019KT 9999 FEW035 SCT130 28/17 A2977=
200602250200 METAR MRLB NIL=
200602250300 METAR MRLB NIL=
200602250400 METAR MRLB NIL=
200602250500 METAR MRLB NIL=
200602250600 METAR MRLB NIL=
200602250700 METAR MRLB NIL=
200602250800 METAR MRLB NIL=
200602250900 METAR MRLB NIL=
200602251000 METAR MRLB NIL=
200602251100 METAR MRLB NIL=
200602251200 METAR MRLB NIL=
200602251300 METAR MRLB 251300Z 07004KT CAVOK 27/18 A2982=
200602251400 METAR MRLB 251400Z 04009KT CAVOK 28/18 A2985=
200602251500 METAR MRLB 251500Z 09016KT CAVOK 29/18 A2983=
200602251600 METAR MRLB 251600Z 07020KT CAVOK 31/16 A2984=
200602251700 METAR MRLB 251700Z 08020KT CAVOK 32/16 A2983=
200602251800 METAR MRLB 251800Z 08022KT CAVOK 31/17 A2981=
200602251900 METAR MRLB 251900Z 07022KT CAVOK 32/15 A2979=
200602252000 METAR MRLB 252000Z 07021KT CAVOK 33/15 A2978=
200602252100 METAR MRLB 252100Z 07022KT CAVOK 32/15 A2976=
200602252200 METAR MRLB 252200Z 06021KT CAVOK 32/15 A2976=
200602252300 METAR MRLB 252300Z 08017KT CAVOK 30/17 A2976=
200602260000 METAR MRLB 260000Z 07016KT CAVOK 27/16 A2977=
200602260100 METAR MRLB 260100Z 08017KT CAVOK 27/15 A2978=
200602260200 METAR MRLB NIL=
200602260300 METAR MRLB NIL=
200602260400 METAR MRLB NIL=
200602260500 METAR MRLB NIL=
200602260600 METAR MRLB NIL=
200602260700 METAR MRLB NIL=
200602260800 METAR MRLB NIL=
200602260900 METAR MRLB NIL=
200602261000 METAR MRLB NIL=
200602261100 METAR MRLB NIL=
200602261200 METAR MRLB NIL=
200602261300 METAR MRLB 261300Z 00000KT 9999 SKC 20/15 A2987=
200602261400 METAR MRLB 261400Z 00000KT 9999 SKC 23/16 A2989=
200602261500 METAR MRLB 261500Z 22004KT 9999 SKC 28/16 A2990=
200602261600 METAR MRLB 261600Z NIL=
200602261700 METAR MRLB 261700Z 10008KT 9999 SKC 33/14 A2987=
200602261800 METAR MRLB 261800Z 09011KT 9999 CAVOK 33/14 A2984=
200602261900 METAR MRLB 261900Z 09011KT 9999 FEW040 33/15 A2982=
200602262000 METAR MRLB 262000Z 08013KT 9999 FEW040 34/15 A2979=
200602262100 METAR MRLB 262100Z 07014KT 9999 FEW040 34/16 A2977=
200602262300 METAR MRLB 262300Z 07017KT CAVOK 31/18 A2979=
200602270000 METAR MRLB NIL=
200602270100 METAR MRLB NIL=
200602270200 METAR MRLB NIL=
200602270300 METAR MRLB NIL=
200602270400 METAR MRLB NIL=
200602270500 METAR MRLB NIL=
200602270600 METAR MRLB NIL=
200602270700 METAR MRLB NIL=
200602270800 METAR MRLB NIL=
200602270900 METAR MRLB NIL=
200602271000 METAR MRLB NIL=
200602271100 METAR MRLB NIL=
200602271200 METAR MRLB NIL=
200602271300 METAR MRLB 271300Z 03009KT CAVOK 25/17 A2988=
200602271400 METAR MRLB 271400Z 06013KT CAVOK 28/17 A2988=
200602271500 METAR MRLB 271500Z 06013KT CAVOK 30/16 A2988=
200602271600 METAR MRLB 271600Z 07022KT CAVOK 31/15 A2988 RMK 3AC130=
200602271700 METAR MRLB 271700Z 07023G34KT CAVOK 31/16 A2987=
200602271800 METAR MRLB 271800Z 06023KT 9999 FEW040 32/17 A2985=
200602271900 METAR MRLB 271900Z 07022KT 9999 FEW040 33/17 A2983=
200602272000 METAR MRLB 272000Z 06022KT 9999 FEW040 33/16 A2983=
200602272100 METAR MRLB 272100Z 07021KT CAVOK 32/17 A2980=
200602272200 METAR MRLB 272200Z 07019KT CAVOK 32/15 A2979=
200602272300 METAR MRLB 272300Z 07020KT CAVOK 30/16 A2979=
200602280000 METAR MRLB 280000Z 08012KT CAVOK 28/17 A2980=
200602280100 METAR MRLB NIL=
200602280200 METAR MRLB NIL=
200602280300 METAR MRLB NIL=
200602280400 METAR MRLB NIL=
200602280500 METAR MRLB NIL=
200602280600 METAR MRLB NIL=
200602280700 METAR MRLB NIL=
200602280800 METAR MRLB NIL=
200602280900 METAR MRLB NIL=
200602281000 METAR MRLB NIL=
200602281100 METAR MRLB NIL=
200602281200 METAR MRLB NIL=
200602281225 METAR MRLB 281225Z 09017KT CAVOK 26/17 A2983=
200602281300 METAR MRLB 281300Z 09016KT CAVOK 26/18 A2984=
200602281400 METAR MRLB 281400Z 08016KT CAVOK 28/16 A2985=
200602281500 METAR MRLB 281500Z 07020KT CAVOK 30/16 A2986=
200602281600 METAR MRLB 281600Z 08020KT CAVOK 31/17 A2986=
200602281700 METAR MRLB 281700Z 08020KT CAVOK 31/17 A2984=
200602281800 METAR MRLB 281800Z 08021KT CAVOK 31/17 A2981=
200602281900 METAR MRLB 281900Z 08016KT CAVOK 32/16 A2979=
200602282000 METAR MRLB 282000Z 07022KT CAVOK 33/15 A2977=
200602282100 METAR MRLB 282100Z 08017KT CAVOK 32/16 A2975=
200602282200 METAR MRLB 282200Z 08019KT CAVOK 31/14 A2975=
200602282300 METAR MRLB 282300Z 08017KT CAVOK 30/14 A2975=
200603010000 METAR MRLB 010000Z 08014KT CAVOK 28/15 A2977=
200603010200 METAR MRLB NIL=
200603010300 METAR MRLB NIL=
200603010400 METAR MRLB NIL=
200603010500 METAR MRLB NIL=
200603010600 METAR MRLB NIL=
200603010700 METAR MRLB NIL=
200603010800 METAR MRLB NIL=
200603010900 METAR MRLB NIL=
200603011000 METAR MRLB NIL=
200603011100 METAR MRLB NIL=
200603011200 METAR MRLB 011200Z 00000KT 9999 SKC 21/16 A2983=
200603011300 METAR MRLB 011300Z 01002KT 9999 SKC 21/17 A2984=
200603011400 METAR MRLB 011400Z 31002KT 9999 SKC 26/17 A2986=
200603011500 METAR MRLB 011500Z 08014KT CAVOK 30/17 A2986=
200603011600 METAR MRLB 011600Z 08015KT CAVOK 31/18 A2986=
200603011700 METAR MRLB 011700Z 07018KT CAVOK 32/18 A2984=
200603011800 METAR MRLB 011800Z 08016KT 9999 FEW040 33/19 A2981=
200603011900 METAR MRLB 011900Z 08014KT 9999 FEW040 33/19 A2978=
200603012000 METAR MRLB 012000Z 08016KT 9999 FEW040 33/18 A2976=
200603012100 METAR MRLB 012100Z 08014KT 9999 FEW040 33/19 A2974=
200603012200 METAR MRLB 012200Z 07015KT CAVOK 32/18 A2975=
200603012300 METAR MRLB 012300Z 07018KT CAVOK 29/18 A2995=
200603020000 METAR MRLB 020000Z 07017KT CAVOK 28/19 A2977=
200603020100 METAR MRLB NIL=
200603020200 METAR MRLB NIL=
200603020300 METAR MRLB NIL=
200603020400 METAR MRLB NIL=
200603020500 METAR MRLB NIL=
200603020600 METAR MRLB NIL=
200603020700 METAR MRLB NIL=
200603020800 METAR MRLB NIL=
200603020900 METAR MRLB NIL=
200603021000 METAR MRLB NIL=
200603021100 METAR MRLB NIL=
200603021200 METAR MRLB 021200Z 08011KT 9999 SKC 26/18 A2982=
200603021300 METAR MRLB 021300Z 08011KT 9999 SKC 27/19 A2985=
200603021400 METAR MRLB 021400Z 08016KT 9999 SKC 29/18 A2986=
200603021500 METAR MRLB 021500Z 07016KT 9999 SKC 31/17 A2988=
200603021600 METAR MRLB 021600Z 08016KT 9999 SKC 32/16 A2988=
200603021700 METAR MRLB 021700Z 08016KT CAVOK 33/17 A2986=
200603021800 METAR MRLB 021800Z 08015KT CAVOK 33/16 A2983=
200603021900 METAR MRLB 021900Z 07012KT 9999 FEW040 34/16 A2980=
200603022000 METAR MRLB 022000Z 07014KT 9999 FEW040 34/17 A2978=
200603022100 METAR MRLB 022100Z 05015KT 9999 FEW040 34/17 A2979=
200603022200 METAR MRLB 022200Z 07014KT 9999 FEW040 33/17 A2974=
200603022300 METAR MRLB 022300Z 08012KT CAVOK 33/17 A2975=
200603030000 METAR MRLB 030000Z 07014KT 9999 SKC 30/17 A2977=
200603030100 METAR MRLB NIL=
200603030200 METAR MRLB NIL=
200603030300 METAR MRLB NIL=
200603030400 METAR MRLB NIL=
200603030500 METAR MRLB NIL=
200603030600 METAR MRLB NIL=
200603030700 METAR MRLB NIL=
200603030800 METAR MRLB NIL=
200603030900 METAR MRLB NIL=
200603031000 METAR MRLB NIL=
200603031100 METAR MRLB NIL=
200603031200 METAR MRLB 031200Z NIL=
200603031300 METAR MRLB 031300Z 00000KT 9999 SKC 21/18 A2987=
200603031400 METAR MRLB 031400Z 00000KT CAVOK 25/18 A2989=
200603031500 METAR MRLB 031500Z 26004KT CAVOK 28/18 A2990=
200603031600 METAR MRLB 031600Z 11004KT CAVOK 32/17 A2990=
200603031700 METAR MRLB 031700Z 07010KT 9999 FEW045 SCT250 32/17 A2987=
200603031800 METAR MRLB 031800Z 07008KT 9999 FEW040 BKN250 34/17 A2985=
200603031900 METAR MRLB 031900Z 10008KT 9999 SCT040 SCT250 34/16 A2982=
200603032000 METAR MRLB 032000Z 07007KT 9999 SCT040 SCT250 34/16 A2979=
200603032100 METAR MRLB 032100Z 06010KT 9999 SCT040 34/16 A2977=
200603032200 METAR MRLB 032200Z 08012KT 9999 FEW040 33/17 A2976=
200603032300 METAR MRLB 032300Z 07010KT 9999 FEW040 33/18 A2976=
200603040000 METAR MRLB 040000Z 06012KT CAVOK 31/19 A2977=
200603040100 METAR MRLB NIL=
200603040200 METAR MRLB NIL=
200603040300 METAR MRLB NIL=
200603040400 METAR MRLB NIL=
200603040500 METAR MRLB NIL=
200603040600 METAR MRLB NIL=
200603040700 METAR MRLB NIL=
200603040800 METAR MRLB NIL=
200603040900 METAR MRLB NIL=
200603041000 METAR MRLB NIL=
200603041100 METAR MRLB NIL=
200603041200 METAR MRLB 041200Z 069005KT 9999 SKC 21/19 A2985=
200603041300 METAR MRLB 041300Z 00000KT 9999 SKC 25/19 A2987=
200603041400 METAR MRLB 041400Z 30004KT 9999 SKC 27/19 A2987=
200603041500 METAR MRLB 041500Z 36005KT 9999 SKC 30/18 A2989=
200603041600 METAR MRLB 041600Z 09017KT CAVOK 33/17 A2986=
200603041700 METAR MRLB 041700Z 08019KT CAVOK 33/17 A2985=
200603041800 METAR MRLB 041800Z 08020KT CAVOK 34/17 A2983=
200603041900 METAR MRLB 041900Z 07018KT 9999 FEW040 35/17 A2980=
200603042000 METAR MRLB 042000Z 06022KT 9999 FEW040 35/16 A2978=
200603042100 METAR MRLB 042100Z 07021KT CAVOK 35/17 A2976=
200603042200 METAR MRLB 042200Z 07022KT CAVOK 33/17 A2975=
200603042300 METAR MRLB 042300Z 07018KT 9999 SKC 32/18 A2975=
200603050000 METAR MRLB NIL=
200603050100 METAR MRLB NIL=
200603050200 METAR MRLB 050200Z 08018KT CAVOK 28/19 A2981=
200603050300 METAR MRLB 050300Z 07019KT CAVOK 27/18 A2982=
200603050400 METAR MRLB NIL=
200603050500 METAR MRLB NIL=
200603050600 METAR MRLB NIL=
200603050700 METAR MRLB NIL=
200603050800 METAR MRLB NIL=
200603050900 METAR MRLB NIL=
200603051000 METAR MRLB NIL=
200603051100 METAR MRLB NIL=
200603051200 METAR MRLB 051200Z 08017KT CAVOK 26/16 A2983=
200603051300 METAR MRLB 051300Z 07021KT CAVOK 27/16 A2984=
200603051400 METAR MRLB 051400Z 09019KT CAVOK 29/17 A2986=
200603051500 METAR MRLB 051500Z 08022KT 9999 SKC 30/17 A2986=
200603051600 METAR MRLB 051600Z 08024KT 9999 SKC 31/16 A2987=
200603051700 METAR MRLB 051700Z 07026KT CAVOK 31/16 A2985=
200603051800 METAR MRLB 051800Z 07027G37KT CAVOK 32/16 A2984=
200603051900 METAR MRLB 051900Z 07027G37KT CAVOK 32/17 A2982=
200603052000 METAR MRLB 052000Z 06028KT 9999 SKC 33/15 A2981=
200603052200 METAR MRLB 052200Z 06025KT CAVOK 32/16 A2980 RMK RAFAGAS DE 32KT=
200603060000 METAR MRLB 060000Z 07021KT 9999 SKC 28/17 A2982=
200603060100 METAR MRLB NIL=
200603060200 METAR MRLB NIL=
200603060300 METAR MRLB NIL=
200603060400 METAR MRLB NIL=
200603060500 METAR MRLB NIL=
200603060600 METAR MRLB NIL=
200603060700 METAR MRLB NIL=
200603060800 METAR MRLB NIL=
200603060900 METAR MRLB NIL=
200603061000 METAR MRLB NIL=
200603061100 METAR MRLB NIL=
200603061200 METAR MRLB NIL=
200603061300 METAR MRLB 061300Z 04005KT 9999 SKC 24/17 A2987=
200603061400 METAR MRLB 061400Z 04010KT 9999 SKC 29/16 A2989=
200603061500 METAR MRLB 061500Z 05015KT 9999 SKC 31/16 A2990=
200603061600 METAR MRLB 061600Z 07022KT 9999 SKC 32/17 A2990=
200603061700 METAR MRLB 061700Z 07021KT 9999 SKC 32/17 A2989=
200603061800 METAR MRLB 061800Z 07025KT 9999 SKC 32/16 A2986=
200603061900 METAR MRLB 061900Z 07024KT CAVOK 33/27 A2984=
200603062000 METAR MRLB 062000Z 07022KT CAVOK 33/18 A2983=
200603062100 METAR MRLB 062100Z 07026KT CAVOK 33/14 A2981=
200603062200 METAR MRLB 062200Z 08021KT CAVOK 32/15 A2981=
200603062300 METAR MRLB 062300Z 07019KT CAVOK 30/16 A2982=
200603070000 METAR MRLB 070000Z 08017KT CAVOK 29/17 A2983=
200603070100 METAR MRLB NIL=
200603070200 METAR MRLB NIL=
200603070300 METAR MRLB NIL=
200603070400 METAR MRLB NIL=
200603070500 METAR MRLB NIL=
200603070600 METAR MRLB NIL=
200603070700 METAR MRLB NIL=
200603070800 METAR MRLB NIL=
200603070900 METAR MRLB NIL=
200603071000 METAR MRLB NIL=
200603071100 METAR MRLB NIL=
200603071200 METAR MRLB NIL=
200603071300 METAR MRLB 071300Z 15003KT 9999 SKC 24/16 A2990=
200603071400 METAR MRLB 071400Z 24005KT 9999 SKC 28/15 A2991=
200603071500 METAR MRLB 071500Z 33005KT 9999 SKC 29/14 A2991=
200603071600 METAR MRLB 071600Z 05004KT 9999 SKC 31/14 A2990=
200603071700 METAR MRLB 071700Z 08015KT 9999 SKC 33/14 A2986=
200603071800 METAR MRLB 071800Z 08018KT 9999 SKC 33/14 A2984=
200603071900 METAR MRLB 071900Z 08021KT 9999 SKC 33/15 A2982=
200603072000 METAR MRLB 072000Z 07022KT 9999 SKC 33/15 A2980=
200603072100 METAR MRLB 072100Z 08021KT 9999 SKC 33/16 A2979=
200603072200 METAR MRLB 072200Z 07020KT CAVOK 32/17 A2979=
200603072300 METAR MRLB 072300Z 07022KT CAVOK 30/17 A2980=
200603080000 METAR MRLB 080000Z 08017KT CAVOK 28/18 A2982=
200603080100 METAR MRLB NIL=
200603080200 METAR MRLB NIL=
200603080300 METAR MRLB NIL=
200603080400 METAR MRLB NIL=
200603080500 METAR MRLB NIL=
200603080600 METAR MRLB NIL=
200603080700 METAR MRLB NIL=
200603080800 METAR MRLB NIL=
200603080900 METAR MRLB NIL=
200603081000 METAR MRLB NIL=
200603081100 METAR MRLB NIL=
200603081200 METAR MRLB 081200Z 00000KT 9999 SKC 21/15 A2987=
200603081300 METAR MRLB 081300Z 00000KT 9999 SKC 25/16 A2988=
200603081400 METAR MRLB 081400Z 05008KT 9999 SKC 27/16 A2988=
200603081500 METAR MRLB 081500Z 06013G23KT 9999 SKC 29/17 A2989=
200603081600 METAR MRLB 081600Z 08015KT CAVOK 31/17 A2989=
200603081700 METAR MRLB 081700Z 09015KT 9999 SKC 31/16 A2988=
200603081800 METAR MRLB 081800Z 07014KT CAVOK 31/16 A2986=
200603081900 METAR MRLB 081900Z 08014KT CAVOK 32/16 A2983=
200603082000 METAR MRLB 082000Z 08016KT CAVOK 33/16 A2981=
200603082100 METAR MRLB 082100Z 07016KT CAVOK 32/16 A2978=
200603082200 METAR MRLB 082200Z 07015KT CAVOK 31/16 A2977=
200603082300 METAR MRLB 082300Z 07017KT CAVOK 31/16 A2978=
200603090000 METAR MRLB 090000Z 07013KT CAVOK 28/16 A2980=
200603090100 METAR MRLB NIL=
200603090200 METAR MRLB 090200Z 08011KT CAVOK 26/17 A2984=
200603090300 METAR MRLB 090300Z 09010KT CAVOK 26/17 A2986=
200603090400 METAR MRLB NIL=
200603090500 METAR MRLB NIL=
200603090600 METAR MRLB NIL=
200603090700 METAR MRLB NIL=
200603090800 METAR MRLB NIL=
200603090900 METAR MRLB NIL=
200603091000 METAR MRLB NIL=
200603091100 METAR MRLB NIL=
200603091200 METAR MRLB 091200Z 04003KT 9999 SKC 19/17 A2985=
200603091300 METAR MRLB 091300Z 00000KT 9999 SKC 22/18 A2988=
200603091400 METAR MRLB 091400Z 00000KT 9999 SKC 26/19 A2989=
200603091500 METAR MRLB 091500Z 06006KT 9999 FEW040 29/18 A2990=
200603091600 METAR MRLB 091600Z 07012KT 9999 FEW040 31/18 A2990=
200603091700 METAR MRLB 091700Z 10008KT 9999 FEW040 32/18 A2988=
200603091800 METAR MRLB 091800Z 08012KT 9999 FEW040 33/17 A2984=
200603091900 METAR MRLB 091900Z 09009KT 9999 FEW040 33/17 A2981=
200603092000 METAR MRLB 092000Z 08010KT 9999 FEW045 33/17 A2978=
200603092100 METAR MRLB 092100Z 12007KT 9999 FEW040 34/15 A2976=
200603092200 METAR MRLB 092200Z 28012KT 9999 SCT040 32/19 A2976=
200603092300 METAR MRLB 092300Z 28010KT 9999 SCT040 30/19 A2977=
200603100000 METAR MRLB 100000Z 28007KT 9999 FEW040 29/19 A2978=
200603100100 METAR MRLB NIL=
200603101200 METAR MRLB 101200Z 00000KT CAVOK 20/17 A2983=
200603101300 METAR MRLB 101300Z 00000KT CAVOK 21/18 A2987=
200603100400 METAR MRLB NIL=
200603100500 METAR MRLB NIL=
200603100600 METAR MRLB NIL=
200603100700 METAR MRLB NIL=
200603100800 METAR MRLB NIL=
200603100900 METAR MRLB NIL=
200603101000 METAR MRLB NIL=
200603101100 METAR MRLB NIL=
200603101200 METAR MRLB NIL=
200603101300 METAR MRLB NIL=
200603101400 METAR MRLB 101400Z 00000KT 9999 SKC 26/19 A2989=
200603101500 METAR MRLB 101500Z 13003KT 9999 SKC 29/18 A2989=
200603101600 METAR MRLB 101600Z 35003KT 9999 FEW035 31/18 A2989=
200603101900 METAR MRLB 101900Z 07006KT 9999 BKN035 33/17 A2981=
200603102000 METAR MRLB 102000Z 00000KT 9999 SCT035 33/18 A2978=
200603102100 METAR MRLB 102100Z 07007KT 9999 SCT035 33/16 A2975=
200603102200 METAR MRLB 102200Z 07012KT 9999 FEW035 33/17 A2975=
200603102300 METAR MRLB 102300Z 07010KT 9999 FEW035 33/18 A2975=
200603110000 METAR MRLB 110000Z 08012KT 9999 FEW035 30/18 A2977=
200603110100 METAR MRLB NIL=
200603110200 METAR MRLB NIL=
200603110300 METAR MRLB NIL=
200603110400 METAR MRLB NIL=
200603110500 METAR MRLB NIL=
200603110600 METAR MRLB NIL=
200603110700 METAR MRLB NIL=
200603110800 METAR MRLB NIL=
200603110900 METAR MRLB NIL=
200603111000 METAR MRLB NIL=
200603111100 METAR MRLB NIL=
200603111200 METAR MRLB 111200Z 00000KT 9999 SKC 20/18 A2984=
200603111300 METAR MRLB 111300Z 00000KT 9999 SKC 22/18 A2986=
200603111400 METAR MRLB 111400Z 14003KT 9999 SKC 27/18 A2987=
200603111500 METAR MRLB 111500Z 04006KT 9999 SKC 31/17 A2988=
200603111600 METAR MRLB 111600Z 09012KT 9999 SKC 33/16 A2987=
200603111700 METAR MRLB 111700Z 09008KT 9999 SKC 34/16 A2986=
200603111800 METAR MRLB 111800Z 12009KT CAVOK 35/16 A2983=
200603111900 METAR MRLB 111900Z 11010KT CAVOK 35/16 A2980=
200603112000 METAR MRLB 112000Z 09006KT 9999 FEW040 35/16 A2980=
200603112100 METAR MRLB 112100Z 09010KT 9999 FEW040 34/17 A2978=
200603112200 METAR MRLB 112200Z 07013KT 9999 FEW040 33/17 A2977=
200603112300 METAR MRLB 112300Z 08012KT 9999 FEW040 32/17 A2979=
200603120000 METAR MRLB 120000Z 06011KT CAVOK 30/18 A2981=
200603120100 METAR MRLB 120100Z 06011KT CAVOK 30/18 A2981=
200603120200 METAR MRLB 120200Z 08004KT 9999 SKC 28/17 A2986=
200603120300 METAR MRLB NIL=
200603120400 METAR MRLB NIL=
200603120500 METAR MRLB NIL=
200603120600 METAR MRLB NIL=
200603120700 METAR MRLB NIL=
200603120800 METAR MRLB NIL=
200603120900 METAR MRLB NIL=
200603121000 METAR MRLB NIL=
200603121100 METAR MRLB NIL=
200603121200 METAR MRLB NIL=
200603121300 METAR MRLB NIL=
200603121400 METAR MRLB NIL=
200603121500 METAR MRLB NIL=
200603121600 METAR MRLB NIL=
200603121700 METAR MRLB NIL=
200603121800 METAR MRLB NIL=
200603121900 METAR MRLB NIL=
200603122000 METAR MRLB NIL=
200603122100 METAR MRLB 122100Z 05016KT CAVOK 34/17 A2977=
200603122200 METAR MRLB 122200Z 06018KT CAVOK 32/17 A2976=
200603122300 METAR MRLB 122300Z 07019KT CAVOK 30/18 A2978=
200603130000 METAR MRLB 130000Z 08014KT CAVOK 29/18 A2977=
200603130100 METAR MRLB NIL=
200603130200 METAR MRLB NIL=
200603130300 METAR MRLB NIL=
200603130400 METAR MRLB NIL=
200603130500 METAR MRLB NIL=
200603130600 METAR MRLB NIL=
200603130700 METAR MRLB NIL=
200603130800 METAR MRLB NIL=
200603130900 METAR MRLB NIL=
200603131000 METAR MRLB NIL=
200603131100 METAR MRLB NIL=
200603131200 METAR MRLB NIL=
200603131300 METAR MRLB 131300Z 00000KT CAVOK 25/18 A2981=
200603131400 METAR MRLB 131400Z 28004KT CAVOK 27/18 A2985=
200603131500 METAR MRLB 131500Z 131600Z07012KT CAVOK 33/16 A2985=
200603131600 METAR MRLB 131600Z07012KT CAVOK 33/16 A2985=
200603131700 METAR MRLB 131700Z 09011KT CAVOK 33/16 A2982=
200603131800 METAR MRLB 131800Z 09013KT CAVOK 34/15 A2980=
200603131900 METAR MRLB 131900Z 08013KT CAVOK 34/16 A2977=
200603132000 METAR MRLB 132000Z 08014KT CAVOK 35/17 A2974=
200603132100 METAR MRLB NIL=
200603132200 METAR MRLB NIL=
200603132300 METAR MRLB NIL=
200603140000 METAR MRLB 140000Z 07013KT 9999 SKC 30/18 A2972 RMK FU E/SE=
200603140100 METAR MRLB NIL=
200603140200 METAR MRLB NIL=
200603140300 METAR MRLB NIL=
200603140400 METAR MRLB NIL=
200603140500 METAR MRLB NIL=
200603140600 METAR MRLB NIL=
200603140700 METAR MRLB NIL=
200603140800 METAR MRLB NIL=
200603140900 METAR MRLB NIL=
200603141000 METAR MRLB NIL=
200603141100 METAR MRLB NIL=
200603141200 METAR MRLB 141200Z 00000KT 9999 SKC 19/16 A2978=
200603141300 METAR MRLB 141300Z 00000KT 9999 SKC 23/17 A2981=
200603141400 METAR MRLB 141400Z 30013KT 9999 SKC 26/17 A2983=
200603141500 METAR MRLB 141500Z 04004KT 9999 SKC 29/17 A2984=
200603141600 METAR MRLB 141600Z 08012KT 9999 SKC 32/15 A2985=
200603141700 METAR MRLB 141700Z 06010KT CAVOK 33/16 A2984=
200603141800 METAR MRLB 141800Z 08012KT 9999 FEW045 33/16 A2983=
200603141900 METAR MRLB 141900Z 09011KT 9999 FEW045 34/16 A2979=
200603142000 METAR MRLB 142000Z 05015KT 9999 FEW045 33/17 A2976=
200603142100 METAR MRLB 142100Z 08015KT 9999 FEW045 SCT120 33/17 A2975=
200603142200 METAR MRLB 142200Z 06019KT 9999 SCT045 32/17 A2975=
200603142300 METAR MRLB 142300Z 06020KT 9999 FEW045 30/17 A2976=
200603150000 METAR MRLB 150000Z 07018KT 9999 FEW045 29/18 A2977=
200603150100 METAR MRLB NIL=
200603150200 METAR MRLB NIL=
200603150300 METAR MRLB NIL=
200603150400 METAR MRLB NIL=
200603150500 METAR MRLB NIL=
200603150600 METAR MRLB NIL=
200603150700 METAR MRLB NIL=
200603150800 METAR MRLB NIL=
200603150900 METAR MRLB NIL=
200603151000 METAR MRLB NIL=
200603151100 METAR MRLB NIL=
200603151200 METAR MRLB 151200Z 07013KT CAVOK 25/18 A2983=
200603151300 METAR MRLB 151300Z 09016KT CAVOK 27/18 A2984=
200603151400 METAR MRLB 151400Z 06019KT CAVOK 29/17 A2988=
200603151500 METAR MRLB 151500Z 06020KT CAVOK 30/17 A2990=
200603151600 METAR MRLB 151600Z 06021KT CAVOK 31/17 A2989=
200603151700 METAR MRLB 151700Z 05020KT 9999 FEW040 32/17 A2987=
200603151800 METAR MRLB 151800Z 06020KT 9999 FEW040 33/15 A2984=
200603151900 METAR MRLB 151900Z 07016KT 9999 FEW040 34/17 A2982=
200603152000 METAR MRLB 152000Z 05018KT 9999 FEW040 34/15 A2979=
200603152100 METAR MRLB 152100Z 06020KT 9999 FEW040 34/15 A2978=
200603152200 METAR MRLB 152200Z 05024KT 9999 FEW040 33/15 A2977=
200603152300 METAR MRLB 152300Z 06020KT 9999 SKC 31/17 A2979=
200603160000 METAR MRLB 160000Z 06020KT 9999 SKC 28/18 A2980=
200603160100 METAR MRLB NIL=
200603160200 METAR MRLB NIL=
200603160300 METAR MRLB 160300Z 08020KT 9999 SKC 27/17 A2985=
200603160400 METAR MRLB NIL=
200603160500 METAR MRLB NIL=
200603160600 METAR MRLB NIL=
200603160700 METAR MRLB NIL=
200603160800 METAR MRLB NIL=
200603160900 METAR MRLB NIL=
200603161000 METAR MRLB NIL=
200603161100 METAR MRLB NIL=
200603161200 METAR MRLB NIL=
200603161300 METAR MRLB 161300Z 07018KT 9999 SKC 27/17 A2986=
200603161400 METAR MRLB 161400Z 07021KT 9999 SKC 28/17 A2986=
200603161500 METAR MRLB 161500Z 08020KT 9999 SKC 29/15 A2988=
200603161600 METAR MRLB 161600Z 07022KT 9999 SKC 32/14 A2988=
200603161700 METAR MRLB 161700Z 08018KT 9999 SKC 33/14 A2986=
200603161800 METAR MRLB 161800Z 06017KT 9999 SKC 33/15 A2984=
200603161900 METAR MRLB 161900Z 05021KT 9999 SKC 34/15 A2981=
200603162000 METAR MRLB 162000Z 06019KT 9999 SKC 34/15 A2979=
200603162100 METAR MRLB 162100Z 06021KT 9999 SKC 34/19 A2978=
200603162200 METAR MRLB 162200Z 06021KT 9999 SKC 34/14 A2976=
200603162300 METAR MRLB 162300Z 06022KT 9999 SKC 32/15 A2977=
200603170000 METAR MRLB 170000Z 02009KT 9999 BKN024 27/23 A2987 RMK RN E SE S SW W=
200603170100 METAR MRLB NIL=
200603170200 METAR MRLB NIL=
200603170300 METAR MRLB NIL=
200603170400 METAR MRLB NIL=
200603170500 METAR MRLB NIL=
200603170600 METAR MRLB NIL=
200603170700 METAR MRLB NIL=
200603170800 METAR MRLB NIL=
200603170900 METAR MRLB NIL=
200603171000 METAR MRLB NIL=
200603171100 METAR MRLB NIL=
200603171200 METAR MRLB 171200Z 09012KT 9999 SKC 26/17 A2982=
200603171300 METAR MRLB 17130Z 09017KT 9999 SKC 27/18 A2984=
200603171400 METAR MRLB 171400Z 09017KT 9999 SKC 28/18 A2986=
200603171500 METAR MRLB 171500Z 07023G33KT CAVOK 30/17 A2989=
200603171600 METAR MRLB 171600Z 07022KT CAVOK 31/17 A2989=
200603171700 METAR MRLB 171700Z 07015KT 9999 FEW040 33/17 A2989=
200603171800 METAR MRLB 171800Z 06019KT 9999 FEW040 32/17 A2987=
200603171900 METAR MRLB 171900Z 07011KT 9999 FEW040 34/16 A2984=
200603172100 METAR MRLB 172100Z 06022KT 9999 FEW040 33/18 A2979=
200603172200 METAR MRLB 172200Z 08016KT CAVOK 32/18 A2978=
200603172300 METAR MRLB 172300Z 07015KT CAVOK 31/18 A2978=
200603180000 METAR MRLB 180000Z 08016KT CAVOK 29/19 A2979=
200603180100 METAR MRLB NIL=
200603180200 METAR MRLB NIL=
200603180300 METAR MRLB NIL=
200603180400 METAR MRLB NIL=
200603180500 METAR MRLB NIL=
200603180600 METAR MRLB NIL=
200603180700 METAR MRLB NIL=
200603180800 METAR MRLB NIL=
200603180900 METAR MRLB NIL=
200603181000 METAR MRLB NIL=
200603181100 METAR MRLB NIL=
200603181200 METAR MRLB 181200Z 05005KT CAVOK 21/17 A2982=
200603181300 METAR MRLB 181300Z 03003KT CAVOK 26/18 A2984=
200603181400 METAR MRLB 181400Z 04006KT 9999 SKC 28/17 A2985=
200603181500 METAR MRLB 181500Z 08019KT 9999 SKC 31/16 A2986=
200603181600 METAR MRLB 181600Z 07024KT CAVOK 32/15 A2986=
200603181700 METAR MRLB 181700Z 07021KT CAVOK 34/13 A2984=
200603181800 METAR MRLB 181800Z 09016KT CAVOK 34/14 A2982=
200603181900 METAR MRLB 181900Z 07014KT 34/15 A2979=
200603182000 METAR MRLB 182000Z 08015KT CAVOK 34/16 A2976=
200603182100 METAR MRLB 182100Z 05019KT 9999 SKC 33/15 A2975=
200603182300 METAR MRLB 182300Z 06019KT 9999 SKC 31/17 A2976=
200603190000 METAR MRLB 190000Z 06018KT 9999 SKC 29/17 A2977=
200603190100 METAR MRLB 190100Z 07015KT 9999 SKC 28/17 A2979=
200603190200 METAR MRLB 190200Z 07020KT 9999 SKC 27/17 A2980=
200603190300 METAR MRLB 190300Z 07022KT 9999 SKC 26/18 A2982=
200603190400 METAR MRLB NIL=
200603190500 METAR MRLB NIL=
200603190600 METAR MRLB NIL=
200603190700 METAR MRLB NIL=
200603190800 METAR MRLB NIL=
200603190900 METAR MRLB NIL=
200603191000 METAR MRLB NIL=
200603191100 METAR MRLB NIL=
200603191200 METAR MRLB 191200Z 04003KT 9999 SKC 22/16 A2980=
200603191300 METAR MRLB 191300Z 00000KT 9999 SKC 27/17 A2981=
200603191400 METAR MRLB 191400Z 09012KT 9999 SKC 29/16 A2982=
200603191500 METAR MRLB 191500Z 07014KT 9999 SKC 31/15 A2983=
200603191600 METAR MRLB 191600Z 07014KT 9999 SKC 33/15 A2983=
200603191700 METAR MRLB 191700Z 09013KT 9999 SKC 33/15 A2982=
200603191800 METAR MRLB 191800Z 07015KT 9999 SKC 34/15 A2980=
200603191900 METAR MRLB 191900Z 05018KT 9999 FEW040 34/16 A2977=
200603192000 METAR MRLB 192000Z 08015KT 9999 FEW040 34/16 A2976=
200603192100 METAR MRLB 192100Z 06015KT 9999 FEW040 35/16 A2973=
200603192200 METAR MRLB 192200Z 06016KT 9999 FEW040 33/17 A2972=
200603192300 METAR MRLB 192300Z 07015KT CAVOK 32/17 A2973=
200603200000 METAR MRLB 200000Z 06014KT 999 SKC 30/18 A2987=
200603200100 METAR MRLB NIL=
200603200200 METAR MRLB NIL=
200603200300 METAR MRLB NIL=
200603200400 METAR MRLB NIL=
200603200500 METAR MRLB NIL=
200603200600 METAR MRLB NIL=
200603200700 METAR MRLB NIL=
200603200800 METAR MRLB NIL=
200603200900 METAR MRLB NIL=
200603201000 METAR MRLB NIL=
200603201100 METAR MRLB NIL=
200603201200 METAR MRLB 201200Z 06004KT 9999 SKC 19/17 A2981=
200603201300 METAR MRLB 201300Z 00000KT 9999 SKC 23/17 A2983=
200603201400 METAR MRLB 201400Z 32003KT 9999 SKC 26/17 A2985=
200603201500 METAR MRLB 201500Z 05004KT 9999 SKC 30//16 A2986=
200603201600 METAR MRLB 201600Z 09011KT 9999 SKC 33/14 A2985=
200603201700 METAR MRLB 201700Z 07009KT CAVOK 34/14 A2982=
200603201800 METAR MRLB 201800Z 07010KT CAVOK 35/15 A2980=
200603201900 METAR MRLB 201900Z 07005KT 9999 FEW040 35/15 A2976=
200603202000 METAR MRLB 202000Z 07007KT 9999 SCT040 35/15 A2973=
200603202100 METAR MRLB 202100Z 07008KT 9999 SCT040 34/15 A2971=
200603202200 METAR MRLB 202200Z 07008KT 9999 FEW040 34/14 A2970=
200603202300 METAR MRLB 202300Z 05010KT 9999 FEW045 33/15 A2971=
200603210000 METAR MRLB 210000Z 36003KT 9999 FEW045 31/16 A2973=
200603210100 METAR MRLB NIL=
200603210200 METAR MRLB NIL=
200603210300 METAR MRLB NIL=
200603210400 METAR MRLB NIL=
200603210500 METAR MRLB NIL=
200603210600 METAR MRLB NIL=
200603210700 METAR MRLB NIL=
200603210800 METAR MRLB NIL=
200603210900 METAR MRLB NIL=
200603211000 METAR MRLB NIL=
200603211100 METAR MRLB NIL=
200603211200 METAR MRLB 211200Z 00000KT 9999 SKC 19/16 A2980=
200603211300 METAR MRLB 211300Z 00000KT 9999 SKC 23/17 A2983=
200603211400 METAR MRLB 211400Z 00000KT 9999 SKC 27/17 A2985=
200603211500 METAR MRLB 211500Z 15004KT 9999 SKC 29/17 A2986=
200603211600 METAR MRLB NIL=
200603211700 METAR MRLB 211700Z 10008KT CAVOK 34/16 A2982=
200603211800 METAR MRLB 211800Z 09007KT 9999 FEW040 35/16 A2980=
200603211900 METAR MRLB 211900Z 10009KT 9999 FEW040 35/16 A2977=
200603212000 METAR MRLB 212000Z 09004KT 9999 FEW040 35/16 A2975=
200603212100 METAR MRLB 212100Z 25006KT 9999 FEW040 35/18 A2973=
200603212200 METAR MRLB 212200Z 28010KT 9999 FEW040 33/18 A2973=
200603212300 METAR MRLB 212300Z 30006KT 9999 FEW040 31/17 A2974=
200603220000 METAR MRLB 220000Z 29006KT CAVOK 30/18 A2975=
200603220100 METAR MRLB NIL=
200603220200 METAR MRLB NIL=
200603220300 METAR MRLB NIL=
200603220400 METAR MRLB NIL=
200603220500 METAR MRLB NIL=
200603220600 METAR MRLB NIL=
200603220700 METAR MRLB NIL=
200603220800 METAR MRLB NIL=
200603220900 METAR MRLB NIL=
200603221000 METAR MRLB NIL=
200603221100 METAR MRLB NIL=
200603221200 METAR MRLB 221200Z 00000KT 9999 SKC 20/18 A2984=
200603221300 METAR MRLB 221300Z 22003KT 9999 SKC 23/19 A2986=
200603221400 METAR MRLB 221400Z 35003KT 9999 SKC 25/19 A2987=
200603221500 METAR MRLB 221500Z 05003KT CAVOK 30/19 A2989=
200603221600 METAR MRLB 221600Z 07010KT CAVOK 33/17 A2988=
200603221700 METAR MRLB 221700Z 12010KT 9999 FEW040 34/18 A2986=
200603221800 METAR MRLB 221800Z 08011KT 9999 FEW040 BKN130 33/17 A2983=
200603221900 METAR MRLB 221900Z 09012KT 9999 FEW040 BKN130 34/18 A2980=
200603222000 METAR MRLB 222000Z 08010KT 9999 FEW040 BKN130 33/18 A2978=
200603222100 METAR MRLB 222100Z 08010KT 9999 FEW040 BKN120 34/17 A2976=
200603222200 METAR MRLB 222200Z 07012KT 9999 FEW040 BKN120 33/17 A2975=
200603222300 METAR MRLB 222300Z 08011KT 9999 FEW040 BKN120 32/17 A2977 RMK FU DST E=
200603230000 METAR MRLB 230000Z 07010KT CAVOK 31/18 A2977=
200603230100 METAR MRLB 230100Z 08011KT CAVOK 29/18 A2980/RMK FU E=
200603230200 METAR MRLB 230200Z 09010KT CAVOK 28/18 A2983=
200603230300 METAR MRLB 230300Z 09011KT CAVOK 29/19 A2984=
200603230400 METAR MRLB NIL=
200603230500 METAR MRLB NIL=
200603230600 METAR MRLB NIL=
200603230700 METAR MRLB NIL=
200603230800 METAR MRLB NIL=
200603230900 METAR MRLB NIL=
200603231000 METAR MRLB NIL=
200603231100 METAR MRLB NIL=
200603231200 METAR MRLB 231200Z 32003KT CAVOK 21/18 A2985 HZY=
200603231300 METAR MRLB 231300Z 06003KT CAVOK 23/19 A2988=
200603231400 METAR MRLB 231400Z 20004KT CAVOK 28/19 A2990=
200603231500 METAR MRLB 231500Z 11012KT CAVOK 31/17 A2991=
200603231600 METAR MRLB 231600Z 11012KT CAVOK 32/17 A2990=
200603231700 METAR MRLB 231700Z 07009KT CAVOK 34/16 A2988=
200603231800 METAR MRLB 231800Z 10006KT 9999 FEW040 35/16 A2986=
200603231900 METAR MRLB 231900Z 08006KT 9999 SCT040 35/16 A2982=
200603232000 METAR MRLB 232000Z 35004KT 9999 SCT040 34/15 A2988=
200603232100 METAR MRLB 232100Z 09004KT 9999 SCT035 34/16 A2978 RMK CB DST SE S HZY=
200603232200 METAR MRLB 232200Z 10005KT 9999 SCT040 33/16 A2976 RMK HZ S QD=
200603232300 METAR MRLB 232300Z 07009KT 9999 SCT045 32/17 A2977=
200603240000 METAR MRLB NIL=
200603240100 METAR MRLB NIL=
200603240200 METAR MRLB NIL=
200603240300 METAR MRLB NIL=
200603240400 METAR MRLB NIL=
200603240500 METAR MRLB NIL=
200603240600 METAR MRLB NIL=
200603240700 METAR MRLB NIL=
200603240800 METAR MRLB NIL=
200603240900 METAR MRLB NIL=
200603241000 METAR MRLB NIL=
200603241100 METAR MRLB NIL=
200603241200 METAR MRLB 241200Z 00000KT CAVOK 20/18 A2986=
200603241300 METAR MRLB 241300Z 03004KT 9999 SKC 22/18 A2989=
200603241400 METAR MRLB 241400Z 00000KT CAVOK 26/17 A2990 FEW CC=
200603241500 METAR MRLB 241500Z 20004KT 9999 SKC 29/17 A2991=
200603241600 METAR MRLB 241600Z 13009KT 9999 SKC 32/17 A2990=
200603241700 METAR MRLB 241700Z 09013KT 9999 SKC 34/16 A2988=
200603241800 METAR MRLB 241800Z 30009KT CAVOK 35/16 A2986=
200603241900 METAR MRLB 241900Z 11004KT 9999 FEW040 34/15 A2982=
200603242000 METAR MRLB 242000Z 26007KT 9999 FEW040 36/14 A2979=
200603242100 METAR MRLB 242100Z 36014KT 9999 FEW040 36/10 A2997=
200603242200 METAR MRLB 242200Z 08012KT CAVOK FEW040 35/15 A2975=
200603242300 METAR MRLB 242300Z 08013KT CAVOK 33/17 A2976=
200603250000 METAR MRLB 250000Z 07011KT CAVOK 32/19 A2978=
200603250100 METAR MRLB NIL=
200603250200 METAR MRLB NIL=
200603250300 METAR MRLB NIL=
200603250400 METAR MRLB NIL=
200603250500 METAR MRLB NIL=
200603250600 METAR MRLB NIL=
200603250700 METAR MRLB NIL=
200603250800 METAR MRLB NIL=
200603250900 METAR MRLB NIL=
200603251000 METAR MRLB NIL=
200603251100 METAR MRLB NIL=
200603251200 METAR MRLB 251200Z 09003KT 9999 SKC 25/18 A2983 LEVE HZ ARND=
200603251300 METAR MRLB 251300Z 07004KT 9999 SKC 24/18 A2985=
200603251400 METAR MRLB 251400Z 07012KT CAVOK 30/16 A2988=
200603251500 METAR MRLB 251500Z 03012KT CAVOK 31/16 A2989=
200603251600 METAR MRLB 251600Z 09017KT CAVOK 32/17 A2989=
200603251700 METAR MRLB 251700Z 09017KT CAVOK 33/16 A2987=
200603251800 METAR MRLB 251800Z 08016KT 9999 FEW040 SCT280 34/16 A2985=
200603251900 METAR MRLB 251900Z 08017KT 9999 FEW040 34/16 A2981=
200603252000 METAR MRLB 252000Z 07017KT 9999 FEW040 35/16 A2979 FEW130=
200603252100 METAR MRLB 252100Z 07018KT 9999 FEW040 34/17 A2977=
200603252200 METAR MRLB 252200Z 08017KT 9999 FEW040 32/18 A2976=
200603252300 METAR MRLB 252300Z 08019KT CAVOK 31/18 A2976=
200603260000 METAR MRLB 260000Z 08018KT CAVOK SKC 29/18 A2978=
200603260100 METAR MRLB 260100Z 08018KT 9999 SKC 29/18 A2986=
200603260200 METAR MRLB NIL=
200603260300 METAR MRLB 260300Z 08016KT 9999 SKC 27/17 A2986=
200603260200 METAR MRLB NIL=
200603260300 METAR MRLB NIL=
200603260400 METAR MRLB NIL=
200603260500 METAR MRLB NIL=
200603260600 METAR MRLB NIL=
200603260700 METAR MRLB NIL=
200603260800 METAR MRLB NIL=
200603260900 METAR MRLB NIL=
200603261000 METAR MRLB NIL=
200603261100 METAR MRLB NIL=
200603261200 METAR MRLB 261200Z 03003KT CAVOK 20/16 A2984 RMK 7CI250=
200603261300 METAR MRLB 261300Z 02004KT CAVOK 25/16 A2986 BKN250=
200603261400 METAR MRLB 261400Z 26004KT CAVOK 28/16 A2988 SCT250=
200603261500 METAR MRLB 261500Z 08022KT CAVOK 30/14 A2988 SCT250=
200603261600 METAR MRLB 261600Z 07020KT CAVOK 36/14 A2989=
200603261700 METAR MRLB 261700Z 07023G34KT CAVOK 32/15 A2987=
200603261800 METAR MRLB 261800Z 07022G32KT CAVOK 33/14 A2984 FEW280=
200603261900 METAR MRLB 261900Z 07022KT CAVOK 34/13 A2980 FEW280=
200603262000 METAR MRLB 262000Z 07019KT CAVOK 34/14 A2977 SCT250=
200603262100 METAR MRLB 262100Z 07022KT CAVOK 33/13 A2976=
200603262200 METAR MRLB 262200Z 06022KT CAVOK 33/14 A2995=
200603262300 METAR MRLB 262300Z 07019KT CAVOK 31/12 A2976=
200603270000 METAR MRLB 270000Z 08018KT CAVOK 30/13 A2978=
200603270100 METAR MRLB NIL=
200603270200 METAR MRLB NIL=
200603270300 METAR MRLB NIL=
200603270400 METAR MRLB NIL=
200603270500 METAR MRLB NIL=
200603270600 METAR MRLB NIL=
200603270700 METAR MRLB NIL=
200603270800 METAR MRLB NIL=
200603270900 METAR MRLB NIL=
200603271000 METAR MRLB NIL=
200603271100 METAR MRLB NIL=
200603271200 METAR MRLB 271200Z 36003KT CAVOK 23/18 A2986=
200603271300 METAR MRLB 271300Z 08014KT CAVOK 27/17 A2987 5AC140=
200603271400 METAR MRLB 271400Z 08016KT CAVOK 28/18 A2989=
200603271500 METAR MRLB 271500Z 08020KT CAVOK 30/17 A2990=
200603271700 METAR MRLB 271700Z 08019KT CAVOK 32/18 A2987=
200603271800 METAR MRLB 271800Z 09020KT CAVOK 32/17 A2985=
200603271900 METAR MRLB 271900Z 07012KT CAVOK 32/18 A2982=
200603272000 METAR MRLB 272000Z 07023KT CAVOK 32/18 A2981=
200603272100 METAR MRLB 272100Z 08020KT CAVOK 31/17 A2979=
200603272200 METAR MRLB 272200Z 08021KT CAVOK 31/18 A2979=
200603272300 METAR MRLB 272300Z 07020KT CAVOK 29/18 A2980=
200603280000 METAR MRLB 280000Z 08019KT CAVOK 28/17 A2981=
200603280100 METAR MRLB NIL=
200603280200 METAR MRLB NIL=
200603280300 METAR MRLB NIL=
200603280400 METAR MRLB NIL=
200603280500 METAR MRLB NIL=
200603280600 METAR MRLB NIL=
200603280700 METAR MRLB NIL=
200603280800 METAR MRLB NIL=
200603280900 METAR MRLB NIL=
200603281000 METAR MRLB NIL=
200603281100 METAR MRLB NIL=
200603281200 METAR MRLB 281200Z 35003KT CAVOK 24/16 A2986 FEW130 SCT280=
200603281300 METAR MRLB 281300Z 22004KT CAVOK 24/17 A2989=
200603281400 METAR MRLB 281400Z 24003KT CAVOK 28/17 A2990=
200603281500 METAR MRLB 281500Z 03004KT CAVOK 31/16 A2992=
200603281600 METAR MRLB 281600Z 07016KT CAVOK 32/16 A2991=
200603281700 METAR MRLB 281700Z 07018KT CAVOK 33/16 A2989=
200603281800 METAR MRLB 281800Z 09017KT CAVOK 33/16 A2986=
200603281900 METAR MRLB 281900Z 08017KT CAVOK 33/16 A2984=
200603282000 METAR MRLB 282000Z 07019KT CAVOK 33/16 A2981=
200603282100 METAR MRLB 282100Z 06021KT CAVOK 33/16 A2979=
200603282200 METAR MRLB 282200Z 07022KT CAVOK 32/16 A2978=
200603282300 METAR MRLB 282300Z 07016KT CAVOK 31/17 A2978=
200603290000 METAR MRLB 290000Z 08014KT 9999 SKC 29/18 A2980=
200603290100 METAR MRLB NIL=
200603290200 METAR MRLB NIL=
200603290300 METAR MRLB NIL=
200603290400 METAR MRLB NIL=
200603290500 METAR MRLB NIL=
200603290600 METAR MRLB NIL=
200603290700 METAR MRLB NIL=
200603290800 METAR MRLB NIL=
200603290900 METAR MRLB NIL=
200603291000 METAR MRLB NIL=
200603291100 METAR MRLB NIL=
200603291200 METAR MRLB 291200Z 09009KT CAVOK 26/19 A2979=
200603291300 METAR MRLB 291300Z 07016KT CAVOK 28/19 A2983=
200603291400 METAR MRLB 291400Z 07019KT CAVOK 30/19 A2984=
200603291500 METAR MRLB 291500Z 07023G33KT CAVOK 32/19 A2985=
200603291600 METAR MRLB 291600Z 07020KT CAVOK 24/18 A2986 RMK 4AC140=
200603291700 METAR MRLB 291700Z 09017KT CAVOK 33/18 A2984 RMK BKN130=
200603291800 METAR MRLB 291800Z 09020KT CAVOK 32/20 A2982 BKN120=
200603291900 METAR MRLB 291900Z 08023G34KT 9999 FEW045 BKN130 32/17 A2980 RMK HZ LGT ARND=
200603292000 METAR MRLB 292000Z 09016KT CAVOK 33/19 A2977 BKN130 HZ LGT ARND=
200603292100 METAR MRLB 292100Z 08020KT 9999 FEW040 BKN130 33/19 A2976=
200603292200 METAR MRLB 292200Z 10016KT 9999 FEW040 OVC130 31/19 A2975 HZ ARND=
200603292300 METAR MRLB 292300Z 08014KT 9999 FEW035 BKN130 30/19 A2976 HZ ARND=
200603300000 METAR MRLB 300000Z 10014KT 9999 FEW035 BKN130 29/20 A2976=
200603300100 METAR MRLB 300100Z 08018KT 9999 FEW035 OVC130 28/20 A2980=
200603300200 METAR MRLB 300200Z 08015KT 9999 FEW035 BKN130 27/19 A2981=
200603300300 METAR MRLB 300300Z 10014KT 9999 FEW035 BKN130 27/19 A2983=
200603300400 METAR MRLB NIL=
200603300500 METAR MRLB NIL=
200603300600 METAR MRLB NIL=
200603300700 METAR MRLB NIL=
200603300800 METAR MRLB NIL=
200603300900 METAR MRLB NIL=
200603301000 METAR MRLB NIL=
200603301100 METAR MRLB NIL=
200603301200 METAR MRLB 301200Z 07003KT CAVOK 26/19 A2979=
200603301300 METAR MRLB 301300Z 07011KT CAVOK 29/19 A2980=
200603301400 METAR MRLB 301400Z 06014KT CAVOK 31/19 A2984=
200603301500 METAR MRLB 301500Z 07013KT CAVOK 32/19 A2985=
200603301600 METAR MRLB 301600Z 08019KT 9999 FEW030 SCT260 33/18 A2986=
200603301700 METAR MRLB 301700Z 08020KT 9999 FEW035 BKN260 34/17 A2983=
200603301800 METAR MRLB 301800Z 08017KT 9999 FEW040 SCT260 34/19 A2982=
200603301900 METAR MRLB 301900Z 07020KT 9999 FEW040 SCT260 35/19 A2980=
200603302000 METAR MRLB 302000Z 08021KT 9999 FEW040 BKN250 33/19 A2978 HZ ARND=
200603302100 METAR MRLB 302100Z 06019KT 9999 FEW040 BKN250 33/19 A2977=
200603302200 METAR MRLB 302200Z 07016KT 9999 FEW040 BKN130 32/19 A2977 HZ ARND=
200603302300 METAR MRLB 302300Z 07014KT 9999 FEW035 BKN130 31/20 A2978 HZ ARND=
200603310000 METAR MRLB 310000Z 07016KT 9999 FEW035 BKN130 30/19 A2980=
200603210100 METAR MRLB NIL=
200603310200 METAR MRLB NIL=
200603310300 METAR MRLB NIL=
200603310400 METAR MRLB NIL=
200603310500 METAR MRLB NIL=
200603310600 METAR MRLB NIL=
200603310700 METAR MRLB NIL=
200603310800 METAR MRLB NIL=
200603310900 METAR MRLB NIL=
200603311000 METAR MRLB NIL=
200603311100 METAR MRLB NIL=
200603311200 METAR MRLB 311200Z 04008KT 9999 FEW045 SCT130 24/19 A2984 RMK HZ LGT ARND=
200603311300 METAR MRLB 311300Z 06011KT CAVOK 28/18 A2986 HZ ARND=
200603311400 METAR MRLB 311400Z 07020KT CAVOK 30/18 A2988 BKN250=
200603311500 METAR MRLB 311500Z 07021KT CAVOK 31/18 A2990 HZ LEVE ARND=
200603311600 METAR MRLB 311600Z 08017KT CAVOK 33/17 A2989 HZ LEVE=
200603311700 METAR MRLB 311700Z 07019KT CAVOK 33/18 A2988 HZ LEVE=
200603311800 METAR MRLB 311800Z 06019KT CAVOK 33/18 A2987 HZ LEVE ARND=
200603311900 METAR MRLB 311900Z 07015KT CAVOK 34/17 A2984 HZ LEVE ARND=
200603312000 METAR MRLB 312000Z 05016KT CAVOK 34/17 A2982 HZ LEVE ARND=
200603312100 METAR MRLB 312100Z 06019KT CAVOK 34/16 A2980=
200603312200 METAR MRLB 312200Z 07018KT CAVOK 33/17 A2981=
200603312300 METAR MRLB 312300Z 06021KT CAVOK 31/17 A2982=
200604010000 METAR MRLB 010000Z 06017KT CAVOK 30/18 A2984=
200604010100 METAR MRLB NIL=
200604010200 METAR MRLB NIL=
200604010300 METAR MRLB NIL=
200604010400 METAR MRLB NIL=
200604010500 METAR MRLB NIL=
200604010600 METAR MRLB NIL=
200604010700 METAR MRLB NIL=
200604010800 METAR MRLB NIL=
200604010900 METAR MRLB NIL=
200604011000 METAR MRLB NIL=
200604011100 METAR MRLB NIL=
200604011200 METAR MRLB 011200Z 10007KT CAVOK 26/20 A2988=
200604011300 METAR MRLB 011300Z 09009KT CAVOK 27/19 A2989 RMK LEVE HZ ARND=
200604011400 METAR MRLB 011400Z 06016KT CAVOK 29/19 A2990 RMK HZ LEVE ARND=
200604011500 METAR MRLB 011500Z 07014KT CAVOK 31/18 A2991=
200604011600 METAR MRLB 011600Z 07013KT 9999 FEW035 BKN250 31/19 A2991=
200604011700 METAR MRLB 011700Z 07015KT 9999 FEW035 BKN250 32/19 A2990=
200604011800 METAR MRLB 011800Z 05015KT 9999 FEW035 BKN250 33/19 A2988=
200604011900 METAR MRLB 011900Z 06015KT 9999 SCT035 BKN250 34/18 A2985=
200604012000 METAR MRLB 012000Z 05017KT 9999 FEW035 BKN280 33/18 A2982=
200604012100 METAR MRLB 012100Z 05019KT 9999 FEW035 BKN260 32/19 A2982=
200604012200 METAR MRLB 012200Z 06017KT 9999 FEW035 OVC260 32/19 A2980=
200604012300 METAR MRLB 012300Z 06018KT 9999 FEW035 OVC260 30/19 A2981=
200604020000 METAR MRLB 020000Z 06020KT 9999 FEW035 OVC250 28/19 A2982=
200604020100 METAR MRLB 020100Z 07019KT 9999 FEW035 BKN250 28/17 A2982=
200604020200 METAR MRLB 020200Z 07015KT 9999 SCT035 OVC250 27/17 A2982=
200604020300 METAR MRLB 020300Z 08014KT 9999 FEW035 BKN250 27/17 A2983=
200604020400 METAR MRLB NIL=
200604020500 METAR MRLB NIL=
200604020600 METAR MRLB NIL=
200604020700 METAR MRLB NIL=
200604020800 METAR MRLB NIL=
200604020900 METAR MRLB NIL=
200604021000 METAR MRLB NIL=
200604021100 METAR MRLB NIL=
200604021200 METAR MRLB 021200Z 03005KT CAVOK 22/17 A2983=
200604021300 METAR MRLB 021300Z 07006KT CAVOK 28/18 A2985=
200604021400 METAR MRLB 021400Z 08016KT CAVOK 30/17 A2987=
200604021500 METAR MRLB 021500Z 06018KT CAVOK 31/17 A2988=
200604021700 METAR MRLB 021700Z 07015KT 9999 FEW035 BKN260 32/18 A2987=
200604021800 METAR MRLB 021800Z 08016KT 9999 FEW035 BKN260 32/18 A2985=
200604021900 METAR MRLB 021900Z 06015KT 9999 FEW035 OVC250 33/18 A2982=
200604022000 METAR MRLB 022000Z 06016KT 9999 FEW035 OVC250 32/18 A2981=
200604022100 METAR MRLB 022100Z 07014KT 9999 FEW035 BKN250 32/17 A2979=
200604022200 METAR MRLB 022200Z 08015KT 9999 FEW035 OVC250 30/17 A2978=
200604022300 METAR MRLB 022300Z 08016KT 9999 FEW035 BKN250 30/17 A2978=
200604030000 METAR MRLB 030000Z 07014KT 9999 FEW035 BKN250 28/18 A2979=
200604030100 METAR MRLB NIL=
200604030200 METAR MRLB NIL=
200604030300 METAR MRLB NIL=
200604030400 METAR MRLB NIL=
200604030500 METAR MRLB NIL=
200604030600 METAR MRLB NIL=
200604030700 METAR MRLB NIL=
200604030800 METAR MRLB NIL=
200604030900 METAR MRLB NIL=
200604031000 METAR MRLB NIL=
200604031100 METAR MRLB NIL=
200604031200 METAR MRLB 031200Z 05004KT CAVOK 20/16 A2981=
200604031300 METAR MRLB 031300Z 05003KT CAVOK 23/17 A2983=
200604031400 METAR MRLB 031400Z 27003KT CAVOK 27/16 A2984=
200604031500 METAR MRLB 031500Z 04004KT CAVOK 30/15 A2987=
200604031600 METAR MRLB 031600Z 06013KT CAVOK 33/15 A2986=
200604031700 METAR MRLB 031700Z 07020KT CAVOK 32/14 A2984=
200604031800 METAR MRLB 031800Z 08020KT CAVOK 33/16 A2983=
200604031900 METAR MRLB 031900Z 07019KT 9999 FEW035 BKN260 34/16 A2979=
200604032000 METAR MRLB 032000Z 07018KT 9999 FEW035 BKN260 34/17 A2977=
200604032100 METAR MRLB 032100Z 06019KT 9999 FEW035 SCT260 33/16 A2975=
200604032200 METAR MRLB 032200Z 96918KT CAVOK 33/13 A2974=
200604032300 METAR MRLB 032300Z 07020KT CAVOK 31/15 A2974=
200604040000 METAR MRLB 040000Z 07016KT CAVOK 29/15 A2975=
200604040100 METAR MRLB NIL=
200604040200 METAR MRLB NIL=
200604040300 METAR MRLB NIL=
200604040400 METAR MRLB NIL=
200604040500 METAR MRLB NIL=
200604040600 METAR MRLB NIL=
200604040700 METAR MRLB NIL=
200604040800 METAR MRLB NIL=
200604040900 METAR MRLB NIL=
200604041000 METAR MRLB NIL=
200604041100 METAR MRLB NIL=
200604041200 METAR MRLB 041200Z 03004KT CAVOK 19/14 A2981=
200604041300 METAR MRLB 041300Z 04003KT CAVOK 23/15 A2984=
200604041400 METAR MRLB 041400Z 26004KT CAVOK 27/15 A2986=
200604041500 METAR MRLB 041500Z 30003KT CAVOK 30/15 A2986=
200604041600 METAR MRLB 041600Z 31006KT CAVOK 31/14 A2985=
200604041700 METAR MRLB 041700Z 12009KT CAVOK 34/15 A2983=
200604041900 METAR MRLB 041900Z 07012KT CAVOK 34/15 A2980=
200604042000 METAR MRLB 042000Z 10014KT CAVOK 33/17 A2978=
200604042100 METAR MRLB 042100Z 08016KT CAVOK 33/16 A2976 BKN250=
200604042200 METAR MRLB 042200Z 06017KT CAVOK 32/15 A2976 BKN250=
200604042300 METAR MRLB NIL=
200604050000 METAR MRLB NIL=
200604050100 METAR MRLB NIL=
200604050200 METAR MRLB NIL=
200604050300 METAR MRLB NIL=
200604050400 METAR MRLB NIL=
200604050500 METAR MRLB NIL=
200604050600 METAR MRLB NIL=
200604050700 METAR MRLB NIL=
200604050800 METAR MRLB NIL=
200604050900 METAR MRLB NIL=
200604051000 METAR MRLB NIL=
200604051100 METAR MRLB NIL=
200604051200 METAR MRLB NIL=
200604051300 METAR MRLB 051300Z 35003KT CAVOK 24/18 A2986 FEW140 BKN250=
200604051400 METAR MRLB 051400Z 29005KT CAVOK 27/18 A2988 BKN250=
200604051500 METAR MRLB 051500Z 32003KT CAVOK 29/18 A2988 BKN250=
200604051600 METAR MRLB 051600Z 03007KT CAVOK 31/17 A2987 BKN250=
200604051700 METAR MRLB 051700Z 09016KT CAVOK 33717 A2985 BKN250=
200604051800 METAR MRLB 051800Z 08017KT 9999 FEW045 BKN270 33/16 A2983=
200604051900 METAR MRLB 051900Z 09016KT 9999 FEW045 SCT280 34/15 A2980=
200604052000 METAR MRLB 052000Z 08013KT 9999 FEW040 SCT300 33/17 A2978=
200604052100 METAR MRLB 052100Z 08019KT CAVOK 33/16 A2976=
200604052200 METAR MRLB 052200Z 08020KT CAVOK 31/17 A2976=
200604052300 METAR MRLB 05230Z 07018KT CAVOK 30/17 A2977=
200604060000 METAR MRLB 060000Z 08019KT CAVOK 29/16 A2979=
200604060100 METAR MRLB NIL=
200604060200 METAR MRLB NIL=
200604060300 METAR MRLB NIL=
200604060400 METAR MRLB NIL=
200604060500 METAR MRLB NIL=
200604060600 METAR MRLB NIL=
200604060700 METAR MRLB NIL=
200604060800 METAR MRLB NIL=
200604060900 METAR MRLB NIL=
200604061000 METAR MRLB NIL=
200604061100 METAR MRLB NIL=
200604061200 METAR MRLB 061200Z 06003KT CAVOK 20/16 A2983=
200604061300 METAR MRLB 061300Z 06003KT CAVOK 25/17 A2985=
200604061400 METAR MRLB 061400Z 29004KT CAVOK 27/18 A2987=
200604061500 METAR MRLB 061500Z 03004KT CAVOK 31/17 A2988=
200604061600 METAR MRLB 061600Z 10012KT CAVOK 31/16 A2987=
200604061700 METAR MRLB 061700Z 09011KT CAVOK 33/16 A2985=
200604061800 METAR MRLB 061800Z 09009KT 9999 FEW035 SCT270 33/16 A2982=
200604061900 METAR MRLB 061900Z 07009KT 9999 FEW035 BKN260 35/17 A2979=
200604062000 METAR MRLB 062000Z 08010KT 9999 FEW035 BKN260 33/17 A2976=
200604062100 METAR MRLB 062100Z 08007KT 9999 FEW035 BKN260 34/16 A2974=
200604062200 METAR MRLB 062200Z 30008KT 9999 FEW035 SCT260 33/19 A2973=
200604062300 METAR MRLB 062300Z 29009KT 9999 FEW035 SCT250 31/19 A2974=
200604070000 METAR MRLB 070000Z 30008KT 9999 FEW035 SCT250 28/20 A2976=
200604070100 METAR MRLB NIL=
200604070200 METAR MRLB NIL=
200604070300 METAR MRLB NIL=
200604070400 METAR MRLB NIL=
200604070500 METAR MRLB NIL=
200604070600 METAR MRLB NIL=
200604070700 METAR MRLB NIL=
200604070800 METAR MRLB NIL=
200604070900 METAR MRLB NIL=
200604071000 METAR MRLB NIL=
200604071100 METAR MRLB NIL=
200604071200 METAR MRLB 071200Z 00000KT CAVOK 20/18 A2983=
200604071300 METAR MRLB 071300Z 22003KT CAVOK 25/19 A2985=
200604071400 METAR MRLB 071400Z 30003KT CAVOK 28/19 A2986=
200604071500 METAR MRLB 071500Z 08004KT CAVOK 31/17 A2987=
200604071600 METAR MRLB 071600Z 10011KT CAVOK 33/14 A2986=
200604071700 METAR MRLB 071700Z 08010KT CAVOK 34/15 A2984=
200604071800 METAR MRLB 071800Z 06008KT 9999 FEW035 SCT260 35/15 A2982=
200604071900 METAR MRLB 071900Z 07007KT 9999 FEW035 SCT260 34/16 A2979=
200604072000 METAR MRLB 072000Z 12010KT 9999 SCT035 SCT260 36/14 A2976=
200604072100 METAR MRLB 072100Z 09010KT 9999 FEW035 BKN250 35/14 A2974=
200604072200 METAR MRLB 072200Z 29011KT 9999 SCT035 BKN250 33/19 A2974=
200604072300 METAR MRLB 072300Z 07008KT 9999 FEW025 BKN250 29/23 A2981 RMK RN DST S/SW=
200604080000 METAR MRLB 080000Z 29008KT 9999 FEW035 BKN250 30/20 A2977=
200604080100 METAR MRLB NIL=
200604080200 METAR MRLB NIL=
200604080300 METAR MRLB NIL=
200604080400 METAR MRLB NIL=
200604080500 METAR MRLB NIL=
200604080600 METAR MRLB NIL=
200604080700 METAR MRLB NIL=
200604080800 METAR MRLB NIL=
200604080900 METAR MRLB NIL=
200604081000 METAR MRLB NIL=
200604081100 METAR MRLB NIL=
200604081200 METAR MRLB 081200Z 00000KT CAVOK 20/18 A2984=
200604081300 METAR MRLB 081300Z 05003KT CAVOK 23/19 A2986 RMK OVC250=
200604081400 METAR MRLB 081400Z 30002KT CAVOK 26/20 A2988 RMK OVC250=
200604081500 METAR MRLB 081500Z 24003KT CAVOK 29/19 A2989 RMK OVC250=
200604081600 METAR MRLB 081600Z 24005KT CAVOK 31/17 A2988=
200604081700 METAR MRLB 081700Z 12005KT 9999 FEW035 BKN250 33/16 A2987=
200604081800 METAR MRLB 081800Z 13004KT 9999 FEW035 BKN250 34/16 A2983=
200604081900 METAR MRLB 081900Z 27013KT 9999 SCT040 SCT300 34/18 A2980=
200604082000 METAR MRLB 082000Z 29010KT 9999 FEW040 SCT300 33/19 A2977=
200604082100 METAR MRLB 082100Z 28013KT 9999 FEW040 33/18 A2976=
200604082200 METAR MRLB 082200Z 27011KT 9999 FEW040 32/20 A2975=
200604082300 METAR MRLB 082300Z 27010KT CAVOK 31/20 A2976=
200604090000 METAR MRLB 090000Z 27007KT 9999 FEW040 29/21 A2979=
200604090100 METAR MRLB NIL=
200604090200 METAR MRLB NIL=
200604090300 METAR MRLB NIL=
200604090400 METAR MRLB NIL=
200604090500 METAR MRLB NIL=
200604090600 METAR MRLB NIL=
200604090700 METAR MRLB NIL=
200604090800 METAR MRLB NIL=
200604090900 METAR MRLB NIL=
200604091000 METAR MRLB NIL=
200604091100 METAR MRLB NIL=
200604091200 METAR MRLB 091200Z 05004KT CAVOK 20/19 A2992 RMK LEVE HZY=
200604091300 METAR MRLB 091300Z 06003KT CAVOK 24/20 A2985 HZ ARND=
200604091400 METAR MRLB 091400Z 24003KT CAVOK 28/20 A2987 HZ ARND=
200604091500 METAR MRLB 091500Z 32004KT CAVOK 29/20 A2987=
200604091600 METAR MRLB 091600Z 05009KT 9999 FEW040 BKN250 31/18 A2986=
200604091700 METAR MRLB 091700Z 08008KT 9999 FEW040 BKN240 34/18 A2983=
200604091800 METAR MRLB 091800Z 10009KT 9999 FEW040 BKN240 34/18 A2980=
200604091900 METAR MRLB 091900Z 10006KT 9999 FEW040 BKN230 34/18 A2976=
200604092000 METAR MRLB 092000Z 08009KT 9999 FEW040 BKN240 35/18 A2973=
200604092100 METAR MRLB 092100Z 06005KT 9999 SCT040 BKN250 34/18 A2972=
200604092200 METAR MRLB 092200Z 21006KT 9999 SCT040 SCT260 34/19 A2969=
200604092300 METAR MRLB 092300Z 27006KT 9999 SCT035 32/19 A2970=
200604100000 METAR MRLB 100000Z 23005KT 9999 BKN040 31/19 A2973 HZ LEVE ARND=
200604100100 METAR MRLB NIL=
200604100200 METAR MRLB NIL=
200604100300 METAR MRLB NIL=
200604100400 METAR MRLB NIL=
200604100500 METAR MRLB NIL=
200604100600 METAR MRLB NIL=
200604100700 METAR MRLB NIL=
200604100800 METAR MRLB NIL=
200604100900 METAR MRLB NIL=
200604101000 METAR MRLB NIL=
200604101100 METAR MRLB NIL=
200604101200 METAR MRLB NIL=
200604101300 METAR MRLB 101300Z 04004KT CAVOK 25/19 A2980=
200604101400 METAR MRLB 101400Z 35003KT CAVOK 28/20 A2983=
200604101500 METAR MRLB 101500Z 27003KT CAVOK 31/17 A2983=
200604101600 METAR MRLB 101600Z 10014KT CAVOK 33/17 A2981=
200604101700 METAR MRLB 101700Z 09016KT 9999 FEW035 BKN250 34/17 A2980=
200604101800 METAR MRLB 101800Z 08013KT 9999 FEW035 BKN250 35/17 A2977=
200604101900 METAR MRLB 101900Z 10009KT 9999 FEW035 SCT250 35/18 A2973=
200604102000 METAR MRLB 102000Z 11007KT 9999 FEW035 BKN250 35/18 A2970=
200604102100 METAR MRLB 102100Z 08009KT 9999 SCT035 BKN250 35/18 A2968=
200604102200 METAR MRLB 102200Z 07009KT 9999 SCT035 SCT250 34/19 A2968=
200604102300 METAR MRLB 102300Z 07013KT 9999 SCT035 BKN250 33/18 A2970=
200604110000 METAR MRLB 110000Z 07012KT 9999 FEW035 BKN250 31/19 A2973=
200604110100 METAR MRLB NIL=
200604110200 METAR MRLB NIL=
200604110300 METAR MRLB NIL=
200604110400 METAR MRLB NIL=
200604110500 METAR MRLB NIL=
200604110600 METAR MRLB NIL=
200604110700 METAR MRLB NIL=
200604110800 METAR MRLB NIL=
200604110900 METAR MRLB NIL=
200604111000 METAR MRLB NIL=
200604111100 METAR MRLB NIL=
200604111200 METAR MRLB 111200Z 05005KT CAVOK 23/20 A2977=
200604111300 METAR MRLB 111300Z 23003KT CAVOK 27/20 A2980=
200604111400 METAR MRLB 111400Z 26006KT CAVOK 29/20 A2982=
200604111500 METAR MRLB 111500Z 08016KT 9999 FEW035 BKN250 32/19 A2982=
200604111600 METAR MRLB 111600Z 07015KT 9999 FEW035 SCT250 32/18 A2982=
200604111700 METAR MRLB 111700Z 08019KT 9999 FEW035 SCT250 34/16 A2980=
200604111800 METAR MRLB 111800Z 08018KT 9999 SCT035 SCT250 34/17 A2979=
200604111900 METAR MRLB 111900Z 08019KT 9999 SCT035 BKN250 33/18 A2976=
200604112000 METAR MRLB 112000Z 08021KT 9999 FEW035 SCT250 33/17 A2973=
200604112100 METAR MRLB 112100Z 08020KT 9999 SCT035 BKN250 33/16 A2972=
200604112200 METAR MRLB 112200Z 08021KT 9999 SCT035 SCT250 32/16 A2971=
200604112300 METAR MRLB 112300Z 08022KT 9999 SCT035 BKN250 30/18 A2972=
200604120000 METAR MRLB 120000Z 07020KT 9999 SCT035 BKN250 29/18 A2974=
200604120100 METAR MRLB NIL=
200604120200 METAR MRLB NIL=
200604120300 METAR MRLB NIL=
200604120400 METAR MRLB NIL=
200604120500 METAR MRLB NIL=
200604120600 METAR MRLB NIL=
200604120700 METAR MRLB NIL=
200604120800 METAR MRLB NIL=
200604120900 METAR MRLB NIL=
200604121000 METAR MRLB NIL=
200604121100 METAR MRLB NIL=
200604121200 METAR MRLB 121200Z 18003KT CAVOK 26/18 A2981 FEW140 OVC250=
200604121300 METAR MRLB 121300Z 03005KT CAVOK 28/18 A2983=
200604121400 METAR MRLB 121400Z 02003KT CAVOK 29/18 A2987=
200604121500 METAR MRLB 121500Z 06020KT CAVOK 31/18 A2986=
200604121600 METAR MRLB 121600Z 08015KT CAVOK 32/16 A2985=
200604121800 METAR MRLB 121800Z 06019KT 9999 SCT040 33/17 A2983=
200604121900 METAR MRLB 121900Z 08014KT 9999 FEW040 33/17 A2982=
200604122000 METAR MRLB 122000Z 07018KT 9999 FEW040 SCT270 32/17 A2978 RMK CB DST S TCU S/SE=
200604122300 METAR MRLB 122300Z 07020KT CAVOK 31/16 A2979 RMK CB DST S SCT250=
200604130000 METAR MRLB 130000Z 08014KT CAVOK 29/16 A2981 RMK TCU DST SE/S SCT120 BKN250=
200604130100 METAR MRLB NIL=
200604130200 METAR MRLB NIL=
200604130300 METAR MRLB NIL=
200604130400 METAR MRLB NIL=
200604130500 METAR MRLB NIL=
200604130600 METAR MRLB NIL=
200604130700 METAR MRLB NIL=
200604130800 METAR MRLB NIL=
200604130900 METAR MRLB NIL=
200604131000 METAR MRLB NIL=
200604131100 METAR MRLB NIL=
200604131200 METAR MRLB 131200Z 29005KT CAVOK 21/15 A2985=
200604131300 METAR MRLB 131300Z 24003KT CAVOK 25/16 A2987=
200604131400 METAR MRLB 131400Z 22005KT CAVOK 28/18 A2989=
200604131600 METAR MRLB 131600Z 25004KT CAVOK 31/16 A2989=
200604131700 METAR MRLB 131700Z 26005KT CAVOK 32/15 A2988=
200604131800 METAR MRLB 131800Z 10009KT 9999 FEW035 BKN260 33/14 A2986=
200604131900 METAR MRLB 131900Z 10015KT 9999 FEW035 BKN250 33/14 A2982=
200604132000 METAR MRLB 132000Z 10012KT 9999 FEW035 OVC250 34/14 A2980=
200604132100 METAR MRLB 132100Z 08010KT 9999 FEW035 OVC250 34/14 A2979=
200604132200 METAR MRLB 132200Z 09011KT 9999 FEW035 BKN250 33/15 A2978=
200604132300 METAR MRLB 132300Z 07014KT 9999 FEW035 BKN250 32/16 A2978=
200604140000 METAR MRLB 140000Z 07012KT CAVOK 29/17 A2981=
200604140100 METAR MRLB NIL=
200604140200 METAR MRLB NIL=
200604140300 METAR MRLB NIL=
200604140400 METAR MRLB NIL=
200604140500 METAR MRLB NIL=
200604140600 METAR MRLB NIL=
200604140700 METAR MRLB NIL=
200604140800 METAR MRLB NIL=
200604140900 METAR MRLB NIL=
200604141000 METAR MRLB NIL=
200604141100 METAR MRLB NIL=
200604141200 METAR MRLB 141200Z 00000KT CAVOK 22/16 A2985=
200604141300 METAR MRLB 141300Z 00000KT CAVOK 23/17 A2988=
200604141400 METAR MRLB 141400Z 24006KT CAVOK 27/17 A2989=
200604141500 METAR MRLB 141500Z 25005KT CAVOK 29/16 A2990=
200604141600 METAR MRLB 141600Z 30006KT CAVOK 31/14 A2989=
200604141700 METAR MRLB 141700Z 05008KT CAVOK 33/12 A2988=
200604141800 METAR MRLB 141800Z 11011KT 9999 FEW035 SCT260 33/12 A2985=
200604141900 METAR MRLB 141900Z 09010KT 9999 FEW035 SCT260 34/13 A2981=
200604142000 METAR MRLB 142000Z 08005KT 9999 FEW035 BKN250 33/13 A2978=
200604142100 METAR MRLB 142100Z 09006KT 9999 FEW035 BKN250 34/13 A2976=
200604142200 METAR MRLB 142200Z 08010KT 9999 FEW035 SCT250 33/14 A2974=
200604142300 METAR MRLB 142300Z 09009KT 9999 FEW035 SCT250 32/14 A2975=
200604150000 METAR MRLB 150000Z 09010KT CAVOK 30/14 A2987=
200604150100 METAR MRLB NIL=
200604150200 METAR MRLB NIL=
200604150300 METAR MRLB NIL=
200604150400 METAR MRLB NIL=
200604150500 METAR MRLB NIL=
200604150600 METAR MRLB NIL=
200604150700 METAR MRLB NIL=
200604150800 METAR MRLB NIL=
200604150900 METAR MRLB NIL=
200604151000 METAR MRLB NIL=
200604151100 METAR MRLB NIL=
200604151200 METAR MRLB 151200Z 05003KT CAVOK 18/15 A2986=
200604151300 METAR MRLB 151300Z VRB02KT CAVOK 21/16 A2988 SCT140=
200604151400 METAR MRLB 151400Z 00000KT CAVOK 25/16 A2990 SCT140=
200604151500 METAR MRLB 151500Z 07002KT CAVOK 29/15 A2991=
200604151600 METAR MRLB 151600Z 02003KT CAVOK 32/14 A2989=
200604151700 METAR MRLB 151700Z 13004KT CAVOK 35/14 A2986=
200604151800 METAR MRLB 151800Z 10004KT CAVOK 34/12 A2984=
200604151900 METAR MRLB 151900Z 28013KT 9999 FEW040 34/15 A2981=
200604152000 METAR MRLB 152000Z 28011KT 9999 FEW040 34/16 A2978=
200604152200 METAR MRLB 152200Z 25012KT 9999 SCT040 33/17 A2977=
200604152300 METAR MRLB 152300Z 26009KT 9999 FEW035 32/17 A2978=
200604160000 METAR MRLB 160000Z 22009KT 9999 FEW040 SCT280 30/17 A2980=
200604160100 METAR MRLB NIL=
200604160200 METAR MRLB NIL=
200604160300 METAR MRLB NIL=
200604160400 METAR MRLB NIL=
200604160500 METAR MRLB NIL=
200604160600 METAR MRLB NIL=
200604160700 METAR MRLB NIL=
200604160800 METAR MRLB NIL=
200604160900 METAR MRLB NIL=
200604161000 METAR MRLB NIL=
200604161100 METAR MRLB NIL=
200604161200 METAR MRLB 161200Z 05003KT 9999 SKC 21/18 A2989=
200604161300 METAR MRLB 161300Z 04004KT 9999 SKC 24/18 A2991=
200604161400 METAR MRLB 161400Z 03004KT 9999 SKC 26/18 A2993=
200604161500 METAR MRLB 161500Z 06003KT 9999 SKC 30/17 A2993=
200604161600 METAR MRLB 161600Z 10010KT CAVOK 33/16 A2992=
200604161700 METAR MRLB 161700Z 09006KT 9999 FEW035 33/15 A2991=
200604161800 METAR MRLB 161800Z 04004KT 9999 SCT040 34/15 A2988=
200604161900 METAR MRLB 161900Z 30010KT 9999 SCT040 34/17 A2984=
200604162000 METAR MRLB 162000Z 28011KT 9999 SCT040 34/18 A2981=
200604162100 METAR MRLB 162100Z 26013KT 9999 SCT040 33/18 A2980=
200604162200 METAR MRLB 162200Z 27011KT 9999 SCT040 32/19 A2980=
200604162300 METAR MRLB 162300Z 28008KT 9999 FEW045 32/19 A2980=
200604170000 METAR MRLB 170000Z 21006KT 9999 FEW040 SCT300 31/18 A2982=
200604170100 METAR MRLB NIL=
200604170200 METAR MRLB NIL=
200604170300 METAR MRLB NIL=
200604170400 METAR MRLB NIL=
200604170500 METAR MRLB NIL=
200604170600 METAR MRLB NIL=
200604170700 METAR MRLB NIL=
200604170800 METAR MRLB NIL=
200604170900 METAR MRLB NIL=
200604171000 METAR MRLB NIL=
200604171100 METAR MRLB NIL=
200604171200 METAR MRLB 171200Z 04003KT CAVOK 22/19 A2988=
200604171300 METAR MRLB 171300Z 00000KT CAVOK 25/18 A2990=
200604171400 METAR MRLB 171400Z 00000KT CAVOK 28/18 A2992=
200604171500 METAR MRLB 171500Z 00000KT CAVOK 29/17 A2992=
200604171600 METAR MRLB 171600Z 03004KT CAVOK 31/17 A2990=
200604171700 METAR MRLB 171700Z 10004KT 9999 FEW035 BKN250 34/16 A2989=
200604171800 METAR MRLB 171800Z 24006KT 9999 FEW035 BKN250 34/16 A2986=
200604171900 METAR MRLB 171900Z 26007KT 9999 FEW035 OVC250 34/18 A2983=
200604172000 METAR MRLB 172000Z 27010KT 9999 SCT035 OVC250 33/17 A2980=
200604172100 METAR MRLB 172100Z 27013KT 9999 SCT035 OVC250 31/19 A2980=
200604172200 METAR MRLB 172200Z 27013KT 9999 SCT035 OVC250 31/19 A2980=
200604172300 METAR MRLB 172300Z 28010KT 9999 FEW035 OVC240 29/20 A2981=
200604180000 METAR MRLB 180000Z 27006KT 9999 FEW035 OVC240 28/20 A2982=
200604180100 METAR MRLB NIL=
200604180200 METAR MRLB NIL=
200604180300 METAR MRLB NIL=
200604180400 METAR MRLB NIL=
200604180500 METAR MRLB NIL=
200604180600 METAR MRLB NIL=
200604180700 METAR MRLB NIL=
200604180800 METAR MRLB NIL=
200604180900 METAR MRLB NIL=
200604181000 METAR MRLB NIL=
200604181100 METAR MRLB NIL=
200604181200 METAR MRLB 181200Z 11003KT 9999 FEW035 BKN250 22/19 A2985=
200604181400 METAR MRLB 181400Z 00000KT 9999 SCT035 OVC250 27/22 A2988 HZY=
200604181500 METAR MRLB 181500Z 10003KT 9999 FEW035 BKN250 29/22 A2988=
200604181600 METAR MRLB 181600Z 35004KT 9999 FEW035 BKN250 31/22 A2986=
200604181700 METAR MRLB 181700Z 17004KT 9999 SCT035 BKN250 32/20 A2985=
200604181800 METAR MRLB 181800Z 27006KT 9999 SCT035 BKN250 34/20 A2982=
200604181900 METAR MRLB 181900Z 28010KT 9999 SCT035 OVC250 33/21 A2980=
200604182000 METAR MRLB 182000Z 28014KT 9999 FEW035 BKN250 33/22 A2978 RMK HZ ARND=
200604182100 METAR MRLB 182100Z 28015KT 9999 FEW035 BKN250 31/21 A2977=
200604182200 METAR MRLB 182200Z 27014KT 9999 FEW035 BKN250 30/22 A2976=
200604182300 METAR MRLB 182300Z 27011KT 9999 FEW035 BKN250 29/22 A2977=
200604190000 METAR MRLB 190000Z 26011KT 9999 FEW035 BKN250 28/22 A2979 HZ ARND=
200604190100 METAR MRLB NIL=
200604190200 METAR MRLB NIL=
200604190300 METAR MRLB NIL=
200604190400 METAR MRLB NIL=
200604190500 METAR MRLB NIL=
200604190600 METAR MRLB NIL=
200604190700 METAR MRLB NIL=
200604190800 METAR MRLB NIL=
200604190900 METAR MRLB NIL=
200604191000 METAR MRLB NIL=
200604191100 METAR MRLB NIL=
200604191200 METAR MRLB 191200Z 03003KT CAVOK 23/21 A2981 RMK HZY=
200604191300 METAR MRLB 191300Z 04005KT CAVOK 25/21 A2983=
200604191400 METAR MRLB 191400Z 03003KT CAVOK 28/21 A2985=
200604191500 METAR MRLB 191500Z 21002KT 9999 FEW035 30/21 A2986 HZ ARND=
200604191600 METAR MRLB 191600Z 04003KT 9999 FEW035 31/21 A2983=
200604191800 METAR MRLB 191800Z 26009KT 9999 SCT035 34/21 A2980 HZ ARND=
200604191900 METAR MRLB 191900Z 28013KT 9999 FEW035 32/22 A2977 HZ ARND=
200604192000 METAR MRLB 192000Z 29013KT 9999 FEW035TCU 32/22 A2975 HZ ARND=
200604192200 METAR MRLB 192200Z 27013KT 9999 BKN040 30/22 A2973 HZ ARND=
200604192300 METAR MRLB 192300Z 28008KT 9999 BKN040 29/23 A2975 HZ ARND=
200604200000 METAR MRLB 200000Z 27008KT 9999 BKN040 28/23 A2976=
200604200100 METAR MRLB NIL=
200604200200 METAR MRLB NIL=
200604200300 METAR MRLB NIL=
200604200400 METAR MRLB NIL=
200604200500 METAR MRLB NIL=
200604200600 METAR MRLB NIL=
200604200700 METAR MRLB NIL=
200604200800 METAR MRLB NIL=
200604200900 METAR MRLB NIL=
200604201000 METAR MRLB NIL=
200604201100 METAR MRLB NIL=
200604201200 METAR MRLB 201200Z 14004KT 9999 SCT025 SCT280 23/21 A2979 HZY=
200604201300 METAR MRLB 201300Z 22003KT 9999 BKN025 25/22 A2982 HZ ARND=
200604201400 METAR MRLB 201400Z 08003KT CAVOK 28/21 A2983 HZ ARND=
200604201500 METAR MRLB 201500Z 27003KT CAVOK 30/21 A2984 HZ ARND=
200604201600 METAR MRLB 201600Z 05005KT CAVOK 32/18 A2982 HZ ARND=
200604201700 METAR MRLB NIL=
200604201800 METAR MRLB 201800Z 12008KT 9999 FEW035 35/16 A2978 HZ ARND=
200604201900 METAR MRLB 201900Z 12005KT 9999 SCT035 36/17 A2975 HZ ARND=
200604202000 METAR MRLB 202000Z 28011KT 9999 FEW030 SCT035 33/21 A2972 HZ ARND=
200604202100 METAR MRLB 202100Z 27012KT 9999 SCT035 33/19 A2972=
200604202200 METAR MRLB 202200Z 27010KT 9999 SCT035 32/21 A2972=
200604202300 METAR MRLB 202300Z 26009KT 9999 SCT035 32/21 A2972 CB S=
200604210000 METAR MRLB 210000Z 22004KT 9999 BKN035 30/22 A2975 CB S=
200604210100 METAR MRLB NIL=
200604210200 METAR MRLB NIL=
200604210300 METAR MRLB NIL=
200604210400 METAR MRLB NIL=
200604210500 METAR MRLB NIL=
200604210600 METAR MRLB NIL=
200604210700 METAR MRLB NIL=
200604210800 METAR MRLB NIL=
200604210900 METAR MRLB NIL=
200604211000 METAR MRLB NIL=
200604211100 METAR MRLB NIL=
200604211200 METAR MRLB 211200Z 14003KT CAVOK 23/21 A2979=
200604211300 METAR MRLB 211300Z 00000KT CAVOK 26/21 A2981=
200604211400 METAR MRLB 211400Z 14003KT CAVOK 29/22 A2982=
200604211500 METAR MRLB 211500Z 28003KT 9999 FEW035 SCT260 31/21 A2982=
200604211600 METAR MRLB 211600Z 14004KT 9999 FEW035 SCT260 32/20 A2981=
200604211700 METAR MRLB 211700Z 07009KT 9999 SCT035 SCT260 35/20 A2979=
200604211800 METAR MRLB 211800Z 08009KT 9999 SCT035 SCT250 34/20 A2977=
200604211900 METAR MRLB 211900Z 08010KT 9999 SCT035 BKN250 34/20 A2974=
200604212100 METAR MRLB 212100Z 06008KT 9999 SCT035 BKN250 35/20 A2969=
200604212200 METAR MRLB 212200Z 07015KT 9999 SCT035 SCT250 33/19 A2970=
200604212300 METAR MRLB 212300Z 08011KT 9999 SCT035 SCT250 32/19 A2971=
200604220000 METAR MRLB 220000Z 07014KT 9999 FEW035 BKN250 31/20 A2973=
200604220100 METAR MRLB NIL=
200604220200 METAR MRLB NIL=
200604220300 METAR MRLB NIL=
200604220400 METAR MRLB NIL=
200604220500 METAR MRLB NIL=
200604220600 METAR MRLB NIL=
200604220700 METAR MRLB NIL=
200604220800 METAR MRLB NIL=
200604220900 METAR MRLB NIL=
200604221000 METAR MRLB NIL=
200604221100 METAR MRLB NIL=
200604221200 METAR MRLB 221200Z 07010KT 9999 SCT030 BKN260 28/21 A2978=
200604221300 METAR MRLB 221300Z 04006KT 9999 FEW035 SCT260 29/21 A2980=
200604221400 METAR MRLB 221400Z 05009KT 9999 FEW035 SCT260 31/21 A2982=
200604221600 METAR MRLB 221600Z 07019KT 9999 SCT035 SCT260 34/20 A2982=
200604221700 METAR MRLB 221700Z 06017KT 9999 SCT035 SCT260 35/21 A2980=
200604221800 METAR MRLB 221800Z 07014KT 9999 SCT035 BKN260 34/21 A2978=
200604221900 METAR MRLB 221900Z 06013KT 9999 SCT035 SCT260 35/20 A2974=
200604222000 METAR MRLB 222000Z 06015KT 9999 FEW035 SCT260 35/20 A2971=
200604222100 METAR MRLB 222100Z 06020KT 9999 FEW035 BKN250 35/20 A2969=
200604222200 METAR MRLB NIL=
200604222300 METAR MRLB NIL=
200604230000 METAR MRLB 230000Z 07014KT 9999 FEW035 BKN250 31/21 A2971=
200604230100 METAR MRLB NIL=
200604230200 METAR MRLB NIL=
200604230300 METAR MRLB NIL=
200604230400 METAR MRLB NIL=
200604230500 METAR MRLB NIL=
200604230600 METAR MRLB NIL=
200604230700 METAR MRLB NIL=
200604230800 METAR MRLB NIL=
200604230900 METAR MRLB NIL=
200604231000 METAR MRLB NIL=
200604231100 METAR MRLB NIL=
200604231200 METAR MRLB 231200Z 07012KT CAVOK 28/20 A2978=
200604231300 METAR MRLB 231300Z 08014KT CAVOK 29/20 A2981 HZY=
200604231400 METAR MRLB 231400Z 07016KT CAVOK 31/20 A2983 RMK HZY=
200604231500 METAR MRLB 231500Z 07021KT CAVOK 32/19 A2983 RMK HZY BKN270=
200604231600 METAR MRLB 231600Z 07023KT CAVOK 33/19 A2982 RMK BKN270 RFGS 31KTS=
200604231700 METAR MRLB 231700Z 07020KT CAVOK 34/19 A2981 BKN270=
200604231800 METAR MRLB 231800Z 06018KT CAVOK 35/18 A2978 RMK BKN270=
200604231900 METAR MRLB 231900Z 05019KT CAVOK 36/17 A2975=
200604232000 METAR MRLB 232000Z 07016KT CAVOK 37/17 A2972 RMK SCT270=
200604232100 METAR MRLB 232100Z 06020KT CAVOK 36/17 A2972=
200604232200 METAR MRLB 232200Z 06019KT CAVOK 35/16 A2972=
200604232300 METAR MRLB 232300Z 06018KT CAVOK 34/16 A2973=
200604240000 METAR MRLB NIL=
200604240100 METAR MRLB NIL=
200604240200 METAR MRLB NIL=
200604240300 METAR MRLB NIL=
200604240400 METAR MRLB NIL=
200604240500 METAR MRLB NIL=
200604240600 METAR MRLB NIL=
200604240700 METAR MRLB NIL=
200604240800 METAR MRLB NIL=
200604240900 METAR MRLB NIL=
200604241000 METAR MRLB NIL=
200604241100 METAR MRLB NIL=
200604241200 METAR MRLB 241200Z 00000KT CAVOK 23/19 A2978 RMK HZY=
200604241300 METAR MRLB 241300Z 29004KT CAVOK 27/20 A2980 HZ ARND=
200604241400 METAR MRLB 241400Z 09011KT CAVOK 30/18 A2980 HZ ARND=
200604241500 METAR MRLB 241500Z 07016KT CAVOK 31/17 A2982 HZ ARND=
200604241600 METAR MRLB 241600Z 09015KT CAVOK 33/16 A2981 HZ ARND=
200604241700 METAR MRLB 241700Z 09015KT CAVOK 34/16 A2980=
200604241800 METAR MRLB 241800Z 08016KT CAVOK 35/16 A2979=
200604241900 METAR MRLB 241900Z 06016KT CAVOK 36/16 A2975=
200604242000 METAR MRLB 242000Z 06014KT 9999 FEW040 37/17 A2973=
200604242100 METAR MRLB 242100Z 05016KT 9999 FEW040 36/16 A2972=
200604242200 METAR MRLB 242200Z 05017KT 9999 FEW040 35/17 A2971 HZ ARND CB SE=
200604242300 METAR MRLB 242300Z 06017KT CAVOK 33/17 A2974 HZ ARND BKN250=
200604250000 METAR MRLB 250000Z 08012KT 9999 FEW040 SCT120 BKN240 31/18 A2978 HZ ARND=
200604250100 METAR MRLB NIL=
200604250200 METAR MRLB NIL=
200604250300 METAR MRLB NIL=
200604250400 METAR MRLB NIL=
200604250500 METAR MRLB NIL=
200604250600 METAR MRLB NIL=
200604250700 METAR MRLB NIL=
200604250800 METAR MRLB NIL=
200604250900 METAR MRLB NIL=
200604251000 METAR MRLB NIL=
200604251100 METAR MRLB NIL=
200604251200 METAR MRLB 251200Z 00000KT CAVOK 24/20 A2982 RMK LGT HZ ARND SCT130 SCT270=
200604251300 METAR MRLB 251300Z 27004KT CAVOK 27/20 A2985 HZ ARND FEW130 BKN250=
200604251400 METAR MRLB 251400Z 26003KT CAVOK 29/20 A2984 HZ LEVE ARND SCT140 BKN250=
200604251500 METAR MRLB 251500Z 22004KT CAVOK 30/20 A2986 HZ LEVE ARND BKN130 SCT250=
200604251600 METAR MRLB 251600Z 27008KT CAVOK 32/19 A2985 HZ LEVE ARND SCT130 BKN250=
200604251700 METAR MRLB 251700Z 11010KT 9999 SCT035 BKN120 33/19 A2985 HZ LEVE ARND=
200604251800 METAR MRLB 251800Z 11011KT 9999 SCT040 BKN220 33/18 A2981 HZ ARND=
200604251900 METAR MRLB 251900Z 09013KT 9999 SCT035 BKN160 33/18 A2978 HZ ARND=
200604252000 METAR MRLB 252000Z 05011KT 9999 SCT035 BKN150 33/17 A2977=
200604252100 METAR MRLB 252100Z 06007KT 9999 FEW040 SCT130 BKN250 33/17 A2975 CB S=
200604252200 METAR MRLB 252200Z 26008KT 9999 FEW040 BKN130 32/20 A2975=
200604252300 METAR MRLB 252300Z 32006KT CAVOK 30/21 A2976=
200604260000 METAR MRLB 260000Z 07005KT 9999 FEW040 BKN130 31/18 A2979=
200604260100 METAR MRLB NIL=
200604260200 METAR MRLB NIL=
200604260300 METAR MRLB NIL=
200604260400 METAR MRLB NIL=
200604260500 METAR MRLB NIL=
200604260600 METAR MRLB NIL=
200604260700 METAR MRLB NIL=
200604260800 METAR MRLB NIL=
200604260900 METAR MRLB NIL=
200604261000 METAR MRLB NIL=
200604261100 METAR MRLB NIL=
200604261200 METAR MRLB 261200Z 36004KT 9999 FEW030 BKN130 23/20 A2986=
200604261300 METAR MRLB 261300Z 04004KT 9999 FEW035 BKN250 24/20 A2987=
200604261400 METAR MRLB 261400Z 35004KT 9999 FEW035 BKN250 29/21 A2988=
200604261500 METAR MRLB 261500Z 10004KT 9999 FEW035 BKN250 30/19 A2989=
200604261600 METAR MRLB 261600Z 22004KT 9999 SCT035 OVC250 32/20 A2988=
200604261700 METAR MRLB 261700Z 13003KT 9999 SCT035 OVC250 32/19 A2986=
200604261800 METAR MRLB 261800Z 32009KT 9999 SCT035 OVC250 33/20 A2986=
200604261900 METAR MRLB 261900Z 26010KT 9999 SCT035 OVC250 34/20 A2981=
200604262000 METAR MRLB 262000Z 29012KT 9999 SCT030 OVC240 32/21 A2979=
200604262100 METAR MRLB 262100Z 26008KT 9999 SCT035 OVC240 33/21 A2976 HZY=
200604262200 METAR MRLB 262200Z 28006KT 9999 SCT035 OVC240 33/20 A2975 RMK RN DST SE=
200604262300 METAR MRLB 262300Z 15004KT 9999 SCT030 BKN140 30/20 A2977 REDZ RMK RN DST S=
200604270000 METAR MRLB 270000Z 16004KT 9999 SCT035 BKN240 30/20 A2979 RMK RN DST S=
200604270100 METAR MRLB NIL=
200604270200 METAR MRLB NIL=
200604270300 METAR MRLB NIL=
200604270400 METAR MRLB NIL=
200604270500 METAR MRLB NIL=
200604270600 METAR MRLB NIL=
200604270700 METAR MRLB NIL=
200604270800 METAR MRLB NIL=
200604270900 METAR MRLB NIL=
200604271000 METAR MRLB NIL=
200604271100 METAR MRLB NIL=
200604271200 METAR MRLB 271200Z 10002KT CAVOK 23/20 A2986=
200604271300 METAR MRLB 271300Z 23003KT CAVOK 25/21 A2988=
200604271400 METAR MRLB 271400Z 17003KT CAVOK 28/21 A2990=
200604271500 METAR MRLB 271500Z 32003KT 9999 FEW035 SCT260 31/20 A2991=
200604271600 METAR MRLB 271600Z 13004KT 9999 SCT035 SCT260 32/20 A2990=
200604271700 METAR MRLB 271700Z 16009KT 9999 SCT035 SCT260 32/21 A2988=
200604271800 METAR MRLB 271800Z 16006KT 9999 SCT035 BKN250 33/20 A2986=
200604272000 METAR MRLB 272000Z 26007KT 9999 SCT030 OVC240 33/21 A2981=
200604272100 METAR MRLB 272100Z 25009KT 9999 SCT035 OVC240 33/20 A2980=
200604272200 METAR MRLB 272200Z 26008KT 9999 SCT035 OVC240 32/20 A2979=
200604272300 METAR MRLB 272300Z 28005KT 9999 SCT030 OVC240 30/22 A2980=
200604280000 METAR MRLB 280000Z 30004KT 9999 SCT035 OVC240 29/21 A2981=
200604280100 METAR MRLB NIL=
200604280200 METAR MRLB NIL=
200604280300 METAR MRLB NIL=
200604280400 METAR MRLB NIL=
200604280500 METAR MRLB NIL=
200604280600 METAR MRLB NIL=
200604280700 METAR MRLB NIL=
200604280800 METAR MRLB NIL=
200604280900 METAR MRLB NIL=
200604281000 METAR MRLB NIL=
200604281100 METAR MRLB NIL=
200604281200 METAR MRLB 281200Z VRB03KT CAVOK 22/20 A2987=
200604281300 METAR MRLB 281300Z 12005KT CAVOK 27/20 A2988 RMK HZY BKN250=
200604281400 METAR MRLB 281400Z 08009KT CAVOK 30/20 A2989 RMK HZY BKN250=
200604281500 METAR MRLB 281500Z 05010KT CAVOK 31/19 A2989 RMK BKN120 SCT250=
200604281600 METAR MRLB 281600Z 04012KT 9999 SCT040 SCT120 31/19 A2989=
200604281700 METAR MRLB NIL=
200604281800 METAR MRLB 281800Z 09009KT 9999 SCT040 BKN270 35/18 A2984=
200604281900 METAR MRLB 281900Z 07010KT 9999 SCT035 BKN270 35/17 A2981=
200604282000 METAR MRLB 282000Z 09008KT 9999 SCT035 BKN250 36/17 A2978=
200604282100 METAR MRLB 282100Z 06011KT 9999 SCT040 BKN250 34/18 A2977=
200604282200 METAR MRLB 282200Z 07010KT 9999 SCT040 SCT130 34/17 A2975 CB RASH DST S=
200604282300 METAR MRLB 282300Z 08009KT 9999 BKN040 SCT250 32/18 A2976=
200604290000 METAR MRLB 290000Z 08008KT 9999 SCT045 SCT250 31/19 A2979=
200604290100 METAR MRLB NIL=
200604290200 METAR MRLB NIL=
200604290300 METAR MRLB NIL=
200604290400 METAR MRLB NIL=
200604290500 METAR MRLB NIL=
200604290600 METAR MRLB NIL=
200604290700 METAR MRLB NIL=
200604290800 METAR MRLB NIL=
200604290900 METAR MRLB NIL=
200604291000 METAR MRLB NIL=
200604291100 METAR MRLB NIL=
200604291200 METAR MRLB 291200Z 02003KT CAVOK 21/18 A2981=
200604291300 METAR MRLB 291300Z 00000KT CAVOK 26/19 A2983=
200604291400 METAR MRLB 291400Z 32004KT CAVOK 29/19 A2984=
200604291500 METAR MRLB 291500Z 08014KT CAVOK 32/14 A2984=
200604291600 METAR MRLB 291600Z 09014KT CAVOK 33/18 A2983=
200604291700 METAR MRLB 291700Z 07012KT 9999 FEW040 34/17 A2982=
200604291800 METAR MRLB 291800Z 07010KT 9999 FEW040 35/18 A2979=
200604291900 METAR MRLB 291900Z 11008KT 9999 SCT040 36/17 A2977=
200604292000 METAR MRLB 292000Z 10007KT 9999 SCT035 35/17 A2975=
200604292100 METAR MRLB 292100Z 30006KT 9999 SCT035 33/20 A2974=
200604292200 METAR MRLB 292200Z 31005KT 9999 FEW040 33/19 A2972=
200604292300 METAR MRLB 292300Z 28008KT 9999 FEW040 32/20 A2973=
200604300000 METAR MRLB 300000Z 29006KT 9999 FEW040 31/20 A2975 HZ ARND TCU DST SE=
200604300100 METAR MRLB NIL=
200604300200 METAR MRLB NIL=
200604300300 METAR MRLB NIL=
200604300400 METAR MRLB NIL=
200604300500 METAR MRLB NIL=
200604300600 METAR MRLB NIL=
200604300700 METAR MRLB NIL=
200604300800 METAR MRLB NIL=
200604300900 METAR MRLB NIL=
200604301000 METAR MRLB NIL=
200604301100 METAR MRLB NIL=
200604301200 METAR MRLB 301200Z 03003KT CAVOK 21/18 A2981=
200604301300 METAR MRLB 301300Z 03003KT CAVOK 24/19 A2983=
200604301400 METAR MRLB 301400Z 23003KT CAVOK 28/19 A2984=
200604301500 METAR MRLB 301500Z 07011KT CAVOK 32/17 A2984=
200604301600 METAR MRLB 301600Z 06012KT CAVOK 33/16 A2983=
200604301700 METAR MRLB 301700Z 06013KT CAVOK 34/15 A2981=
200604301800 METAR MRLB 301800Z 09011KT 9999 FEW035 BKN260 35/15 A2978=
200604301900 METAR MRLB 301900Z 08010KT 9999 FEW035 BKN260 36/16 A2976=
200604302000 METAR MRLB 302000Z 08011KT 9999 SCT035 BKN260 36/15 A2974=
200604302100 METAR MRLB 302100Z 06012KT 9999 SCT035 OVC250 35/15 A2972=
200604302200 METAR MRLB 302200Z 06011KT 9999 SCT035 OVC250 35/15 A2971=
200604302300 METAR MRLB 302300Z 05013KT 9999 FEW035 BKN250 34/16 A2971=
200605010000 METAR MRLB 010000Z 06012KT 9999 FEW035 BKN250 31/16 A2973=
200605010100 METAR MRLB NIL=
200605010200 METAR MRLB NIL=
200605010300 METAR MRLB NIL=
200605010400 METAR MRLB NIL=
200605010500 METAR MRLB NIL=
200605010600 METAR MRLB NIL=
200605010700 METAR MRLB NIL=
200605010800 METAR MRLB NIL=
200605010900 METAR MRLB NIL=
200605011000 METAR MRLB NIL=
200605011100 METAR MRLB NIL=
200605011200 METAR MRLB 011200Z 18006KT CAVOK 23/18 A2981=
200605011300 METAR MRLB 011300Z 19004KT 9999 FEW028 SCT280 24/21 A2984=
200605011400 METAR MRLB 011400Z 10008KT CAVOK 29/18 A2983=
200605011500 METAR MRLB 011500Z 05009KT CAVOK 31/17 A2984=
200605011700 METAR MRLB 011700Z 06008KT 9999 FEW035 SCT260 33/16 A2981=
200605011800 METAR MRLB 011800Z 07010KT 9999 FEW035 BKN260 34/16 A2978=
200605011900 METAR MRLB 011900Z 10007KT 9999 FEW035 BKN2690 35/16 A2976=
200605012000 METAR MRLB 012000Z 10012KT 9999 SCT035 SCT260 36/16 A2974=
200605012100 METAR MRLB 012100Z 05010KT 9999 FEW035 BKN260 36/15 A2972=
200605012200 METAR MRLB 012200Z 08010KT 9999 FEW035 BKN250 35/14 A2972=
200605012300 METAR MRLB 012300Z 07013KT 9999 FEW035 SCT250 33/15 A2973=
200605020000 METAR MRLB 020000Z 06014KT 9999 FEW035 BKN250 32/17 A2976=
200605020100 METAR MRLB NIL=
200605020200 METAR MRLB NIL=
200605020300 METAR MRLB NIL=
200605020400 METAR MRLB NIL=
200605020500 METAR MRLB NIL=
200605020600 METAR MRLB NIL=
200605020700 METAR MRLB NIL=
200605020800 METAR MRLB NIL=
200605020900 METAR MRLB NIL=
200605021000 METAR MRLB NIL=
200605021100 METAR MRLB NIL=
200605021200 METAR MRLB 021200Z 03003KT CAVOK 22/19 A2983=
200605021300 METAR MRLB 021300Z 00000KT CAVOK 26/18 A2984=
200605021400 METAR MRLB 021400Z 36003KT CAVOK 29/28 A2985=
200605021500 METAR MRLB 021500Z 35005KT CAVOK 31/17 A2985=
200605021600 METAR MRLB 021600Z 08009KT CAVOK 33/15 A2982=
200605021700 METAR MRLB 021700Z 07010KT CAVOK 34/15 A2981=
200605021800 METAR MRLB 021800Z 07009KT CAVOK 34/15 A2978=
200605021900 METAR MRLB 021900Z 06012KT CAVOK 36/15 A2976=
200605022000 METAR MRLB 022000Z 07008KT CAVOK 36/15 A2974=
200605022100 METAR MRLB 022100Z 10013KT CAVOK 36/13 A2974=
200605022200 METAR MRLB 022200Z 09010KT CAVOK 36/14 A2974=
200605022300 METAR MRLB 022300Z 09012KT CAVOK 35/14 A2976=
200605030000 METAR MRLB 030000Z 06014KT CAVOK 32/15 A2979=
200605030100 METAR MRLB NIL=
200605030200 METAR MRLB NIL=
200605030300 METAR MRLB NIL=
200605030400 METAR MRLB NIL=
200605030500 METAR MRLB NIL=
200605030600 METAR MRLB NIL=
200605030700 METAR MRLB NIL=
200605030800 METAR MRLB NIL=
200605030900 METAR MRLB NIL=
200605031000 METAR MRLB NIL=
200605031100 METAR MRLB NIL=
200605031200 METAR MRLB 031200Z 00000KT CAVOK 20/17 A2986=
200605031300 METAR MRLB 031300Z 00000KT CAVOK 24/18 A2987=
200605031400 METAR MRLB 031400Z 26005KT CAVOK 28/18 A2989 RMK SCT250=
200605031500 METAR MRLB 031500Z VRB03KT CAVOK 31/17 A2988 RMK BKN250=
200605031600 METAR MRLB 031600Z 10018KT CAVOK 31/18 A2987 RMK BKN250=
200605031700 METAR MRLB 031700Z 08013KT CAVOK 31/18 A2986 RMK SCT160 BKN240=
200605031800 METAR MRLB 031800Z 09013KT CAVOK 32/18 A2984 RMK BKN240=
200605031900 METAR MRLB 031900Z 08015KT CAVOK 32/18 A2982 RMK BKN150 SCT240=
200605032000 METAR MRLB 032000Z 09012KT CAVOK 32/18 A2979 RMK BKN140 SCT240=
200605032100 METAR MRLB 032100Z 09015KT CAVOK 30/19 A2978=
200605032200 METAR MRLB 032200Z 10010KT CAVOK 31/18 A2977=
200605032300 METAR MRLB 032300Z 09012KT CAVOK 30/19 A2977=
200605040000 METAR MRLB 040000Z 09012KT CAVOK 29/18 A2978=
200605040100 METAR MRLB NIL=
200605040200 METAR MRLB NIL=
200605040300 METAR MRLB NIL=
200605040400 METAR MRLB NIL=
200605040500 METAR MRLB NIL=
200605040600 METAR MRLB NIL=
200605040700 METAR MRLB NIL=
200605040800 METAR MRLB NIL=
200605040900 METAR MRLB NIL=
200605041000 METAR MRLB NIL=
200605041100 METAR MRLB NIL=
200605041200 METAR MRLB 041200Z 00000KT CAVOK 22/18 A2985=
200605041300 METAR MRLB 041300Z 00000KT CAVOK 25/19 A2986=
200605041400 METAR MRLB 041400Z 08012KT CAVOK 30/18 A2987=
200605041500 METAR MRLB 041500Z 04011KT CAVOK 31/17 A2987=
200605041600 METAR MRLB 041600Z 08014KT CAVOK 33/16 A2986=
200605041700 METAR MRLB 041700Z 08013KT CAVOK 33/16 A2985=
200605041800 METAR MRLB 041800Z 08012KT CAVOK 35/17 A2983=
200605041900 METAR MRLB 041900Z 09011KT CAVOK 36/16 A2980=
200605042000 METAR MRLB 042000Z 06013KT CAVOK 36/16 A2977=
200605042100 METAR MRLB 042100Z 10008KT CAVOK 35/15 A2976=
200605042200 METAR MRLB 042200Z 05014KT 9999 FEW035 BKN140 35/16 A2975=
200605042300 METAR MRLB 042300Z 10010KT 9999 FEW035 BKN250 24/16 A2976=
200605050000 METAR MRLB 050000Z 07012KT 9999 FEW035 BKN240 32/16 A2979=
200605050100 METAR MRLB NIL=
200605050200 METAR MRLB NIL=
200605050300 METAR MRLB NIL=
200605050400 METAR MRLB NIL=
200605050500 METAR MRLB NIL=
200605050600 METAR MRLB NIL=
200605050700 METAR MRLB NIL=
200605050800 METAR MRLB NIL=
200605050900 METAR MRLB NIL=
200605051000 METAR MRLB NIL=
200605051100 METAR MRLB NIL=
200605051200 METAR MRLB 051200Z 00000KT CAVOK 23/18 A2983=
200605051300 METAR MRLB 051300Z 36003KT CAVOK 26/19 A2985=
200605051400 METAR MRLB 051400Z 00000KT CAVOK 28/19 A2987=
200605051500 METAR MRLB 051500Z 25003KT CAVOK 30/19 A2987=
200605051600 METAR MRLB 051600Z 09008KT 9999 FEW035 BKN260 32/18 A2986=
200605051700 METAR MRLB 051700Z 13008KT 9999 FEW035 BKN260 35/17 A2985=
200605051800 METAR MRLB 051800Z 12006KT 9999 SCT035 BKN260 35/17 A2983=
200605051900 METAR MRLB 051900Z 26007KT 9999 SCT035 OVC260 34/19 A2980=
200605052100 METAR MRLB 052100Z 29011KT 9999 SCT035 BKN250 32/20 A2977=
200605052200 METAR MRLB 052200Z 28010KT 9999 SCT0T35 OVC250 32/20 A2977=
200605052300 METAR MRLB 052300Z 30008KT 9999 SCT035 OVC250 31/21 A2978=
200605060000 METAR MRLB 060000Z 23006KT 9999 SCT035 OVC240 30/20 A2980=
200605060100 METAR MRLB NIL=
200605060200 METAR MRLB NIL=
200605060300 METAR MRLB NIL=
200605060400 METAR MRLB NIL=
200605060500 METAR MRLB NIL=
200605060600 METAR MRLB NIL=
200605060700 METAR MRLB NIL=
200605060800 METAR MRLB NIL=
200605060900 METAR MRLB NIL=
200605061000 METAR MRLB NIL=
200605061100 METAR MRLB NIL=
200605061200 METAR MRLB 061200Z 08005KT CAVOK 23/19 A2984=
200605061300 METAR MRLB 061300Z 00000KT CAVOK 26/20 A2986=
200605061400 METAR MRLB 061400Z 23003KT CAVOK 27/21 A2988=
200605061500 METAR MRLB 061500Z 17005KT CAVOK 30/20 A2988=
200605061600 METAR MRLB 061600Z 05005KT 9999 FEW035 BKN250 33/18 A2988=
200605061700 METAR MRLB 061700Z 10008KT 9999 SCT035 BKN250 33/17 A2986=
200605061800 METAR MRLB 061800Z 16006KT 9999 SCT035 BKN250 35/19 A2984=
200605061900 METAR MRLB 061900Z 26005KT 9999 BKN035 SCT250 33/20 A2980=
200605062000 METAR MRLB 062000Z 28010KT 9999 SCT035 SCT250 33/22 A2978=
200605062100 METAR MRLB 062100Z 28011KT 9999 SCT035 BKN250 31/21 A2977=
200605062200 METAR MRLB 062200Z 28011KT 9999 SCT035 BKN250 30/22 A2977=
200605062300 METAR MRLB 062300Z 29007KT 9999 SCT035 BKN250 30/23 A2978 RMK TCU DST SSE=
200605070000 METAR MRLB 070000Z 31006KT 9999 FEW025TCU SCT035 29/23 A2979 RMK VIS 8000 SSE RN DST SE S E HZY=
200605070100 METAR MRLB NIL=
200605070200 METAR MRLB NIL=
200605070300 METAR MRLB NIL=
200605070400 METAR MRLB NIL=
200605070500 METAR MRLB NIL=
200605070600 METAR MRLB NIL=
200605070700 METAR MRLB NIL=
200605070800 METAR MRLB NIL=
200605070900 METAR MRLB NIL=
200605071000 METAR MRLB NIL=
200605071100 METAR MRLB NIL=
200605071200 METAR MRLB 071200Z 06003KT CAVOK 22/21 A2986 HZ ARND=
200605071300 METAR MRLB 071300Z 00000KT CAVOK 26/22 A2988 RMK HZY=
200605071400 METAR MRLB 071400Z 14004KT CAVOK 29/21 A2988 RMK LEVE HZY=
200605071500 METAR MRLB 071500Z 17007KT 9999 FEW030 SCT270 30/22 A2988 RMK LEVE HZY=
200605071600 METAR MRLB 071600Z 19008KT 9999 FEW035 SCT270 31/21 A2986=
200605071700 METAR MRLB 071700Z 14007KT 9999 FEW035 34/18 A2985=
200605071800 METAR MRLB 071800Z 12005KT 9999 FEW035 34/19 A2982=
200605071900 METAR MRLB 071900Z 23006KT 9999 SCT035 35/20 A2979=
200605072000 METAR MRLB 072000Z 26009KT 9999 SCT035 34/21 A2976=
200605072100 METAR MRLB 072100Z 25011KT 9999 SCT035 33/20 A2974=
200605072200 METAR MRLB 072200Z 26011KT 9999 FEW035 32/20 A2974=
200605072300 METAR MRLB 072300Z 29010KT 9999 FEW040 31/22 A2975=
200605080000 METAR MRLB 080000Z 28005KT 9999 SCT035 30/22 A2978 RMK TCU LINE E/SE=
200605080100 METAR MRLB NIL=
200605080200 METAR MRLB NIL=
200605080300 METAR MRLB NIL=
200605080400 METAR MRLB NIL=
200605080500 METAR MRLB NIL=
200605080600 METAR MRLB NIL=
200605080700 METAR MRLB NIL=
200605080800 METAR MRLB NIL=
200605080900 METAR MRLB NIL=
200605081000 METAR MRLB NIL=
200605081100 METAR MRLB NIL=
200605081200 METAR MRLB 081200Z 06004KT CAVOK 22/20 A2985=
200605081300 METAR MRLB 081300Z 00000KT CAVOK 26/21 A2987=
200605081400 METAR MRLB 081400Z 20003KT CAVOK 28/22 A2987=
200605081500 METAR MRLB 081500Z 23003KT 9999 FEW030 BKN270 29/20 A2988=
200605081600 METAR MRLB 081600Z 09005KT 9999 FEW035 SCT260 32/19 A2985=
200605081700 METAR MRLB 081700Z 36006KT 9999 FEW035 BKN270 34/16 A2984=
200605081800 METAR MRLB 081800Z 30006KT 9999 FEW035 BKN260 35/17 A2981=
200605081900 METAR MRLB 081900Z 28009KT 9999 SCT035 BKN260 35/20 A2978=
200605082000 METAR MRLB 082000Z 28009KT 9999 SCT035 SCT260 35/19 A2974=
200605082100 METAR MRLB 082100Z 27010KT 9999 SCT035 BKN250 32/21 A2972=
200605082200 METAR MRLB 082200Z 24011KT 9999 SCT030 OVC240 32/21 A2972=
200605082300 METAR MRLB 082300Z 20008KT 9999 SCT030 BKN140 31/21 A2973=
200605090000 METAR MRLB 090000Z 19005KT 9999 SCT030 OVC130 30/22 A2974 RMK RN DIST S=
200605090100 METAR MRLB NIL=
200605090200 METAR MRLB NIL=
200605090300 METAR MRLB NIL=
200605090400 METAR MRLB NIL=
200605090500 METAR MRLB NIL=
200605090600 METAR MRLB NIL=
200605090700 METAR MRLB NIL=
200605090800 METAR MRLB NIL=
200605090900 METAR MRLB NIL=
200605091000 METAR MRLB NIL=
200605091100 METAR MRLB NIL=
200605091200 METAR MRLB 091200Z 33004KT 9999 FEW030 BKN130 24/23 A2979=
200605091300 METAR MRLB 091300Z 00000KT 9999 FEW030 BKN130 26/24 A2981=
200605091400 METAR MRLB 091400Z 25002KT 9999 FEW035 SCT130 OVC250 28/23 A2983=
200605091500 METAR MRLB 091500Z 17003KT 9999 SCT035 OVC250 26/19 A2984=
200605091600 METAR MRLB 091600Z 18003KT 9999 SCT035 BKN250 32/22 A2983=
200605091700 METAR MRLB 091700Z 12005KT 9999 SCT030 OVC250 31/22 A2979=
200605091800 METAR MRLB 091800Z 22005KT 9999 SCT035 OVC240 31/22 A2978=
200605091900 METAR MRLB 091900Z 14004KT 9999 FEW025TCU SCT035 BKN240 32/22 A2975 RMK RN DST E NE=
200605092000 METAR MRLB 092000Z 32007KT 9999 2000N RA FEW020TCU SCT030 OVC130 28/24 A2973=
200605092100 METAR MRLB 092100Z 34003KT 9999 SCT025 OVC110 25/24 A2974 RN DST NE SW=
200605092200 METAR MRLB 092200Z 20006KT 9999 2000E -RA FEW015TCU BKN030 24/23 A2977=
200605092300 METAR MRLB 092300Z 21005KT 9999 4000S -RA SCT015 OVC100 23/22 A2980=
200605100000 METAR MRLB 100000Z 16003KT 9999 DZ SCT020 OVC100 23/23 A2981=
200605100100 METAR MRLB NIL=
200605100200 METAR MRLB NIL=
200605100300 METAR MRLB NIL=
200605100400 METAR MRLB NIL=
200605100500 METAR MRLB NIL=
200605100600 METAR MRLB NIL=
200605100700 METAR MRLB NIL=
200605100800 METAR MRLB NIL=
200605100900 METAR MRLB NIL=
200605101000 METAR MRLB NIL=
200605101100 METAR MRLB NIL=
200605101200 METAR MRLB 101200Z 00000KT CAVOK 23/23 A2982 RMK SCT130 BKN250=
200605101300 METAR MRLB 101300Z 00000KT CAVOK 25/23 A2983 SCT130 BKN250=
200605101400 METAR MRLB 101400Z 00000KT CAVOK 26/23 A2984 BKN130=
200605101500 METAR MRLB 101500Z 00000KT CAVOK 28/23 A2985 FEW130 BKN250=
200605101600 METAR MRLB 101600Z 12004KT 9999 FEW030 BKN250 30/23 A2984=
200605101700 METAR MRLB 101700Z 17003KT 9999 FEW030 BKN250 31/24 A2984=
200605101800 METAR MRLB 101800Z 18008KT 9999 FEW025TCU SCT030 BKN250 32/23 A2982 CB DST S=
200605101900 METAR MRLB 101900Z 06006KT 9999 FEW025TCU SCT030 BKN250 30/23 A2980 CB RN DST E=
200605102000 METAR MRLB 102000Z 28012KT 9999 SCT030 BKN250 31/24 A2978 CB RN DST E NE=
200605102100 METAR MRLB 102100Z 28011KT 9999 BKN030 SCT250 29/23 A2977 RMK CB RN S SE RN NE E=
200605102200 METAR MRLB 102200Z 27011KT 9999 SCT030 SCT130 28/24 A2977 CB TS E S RN N NE=
200605102300 METAR MRLB 102300Z 30009KT 9999 BKN030 28/24 A2978 CB TS RASH E SE RN N=
200605110000 METAR MRLB 110000Z 32006KT 9999 FEW020 BKN030 28/24 A2980 RN E SE NE N=
200605110100 METAR MRLB NIL=
200605110200 METAR MRLB NIL=
200605110300 METAR MRLB NIL=
200605110400 METAR MRLB NIL=
200605110500 METAR MRLB NIL=
200605110600 METAR MRLB NIL=
200605110700 METAR MRLB NIL=
200605110800 METAR MRLB NIL=
200605110900 METAR MRLB NIL=
200605111000 METAR MRLB NIL=
200605111100 METAR MRLB NIL=
200605111200 METAR MRLB 111200Z 14004KT 9999 3000SW BR FEW008 BKN030 23/23 A2984=
200605111300 METAR MRLB 111300Z 06004KT 9999 FEW008 SCT014 BKN130 25/23 A2986=
200605111400 METAR MRLB 111400Z 10004KT 9999 FEW015 SCT130 27/24 A2988=
200605111500 METAR MRLB 111500Z 15006KT 9999 SCT023 28/23 A2989=
200605111600 METAR MRLB 111600Z 12006KT 9999 SCT030 BKN130 30/22 A2988=
200605111700 METAR MRLB 111700Z 18007KT 9999 SCT030 BKN130 31/23 A2987=
200605111800 METAR MRLB NIL=
200605111900 METAR MRLB 111900Z 20003KT 9999 FEW025 BKN030 32/23 A2982 CB RN NW S=
200605112000 METAR MRLB NIL=
200605112100 METAR MRLB NIL=
200605112200 METAR MRLB NIL=
200605112300 METAR MRLB NIL=
200605120000 METAR MRLB NIL=
200605120100 METAR MRLB NIL=
200605120200 METAR MRLB NIL=
200605120300 METAR MRLB NIL=
200605120400 METAR MRLB NIL=
200605120500 METAR MRLB NIL=
200605120600 METAR MRLB NIL=
200605120700 METAR MRLB NIL=
200605120800 METAR MRLB NIL=
200605120900 METAR MRLB NIL=
200605121000 METAR MRLB NIL=
200605121100 METAR MRLB NIL=
200605121200 METAR MRLB 121200Z 00000KT 1500 BR FEW003 BKN008 23/23 A2983=
200605121300 METAR MRLB 121300Z 18003KT 4000 BR FEW003 SCT008 BKN250 24/23 A2985=
200605121400 METAR MRLB 121400Z 17004KT 9999 SCT025 BKN250 26/24 A2985=
200605121500 METAR MRLB 121500Z 23004KT 9999 SCT030 BKN250 28/24 A2986=
200605121600 METAR MRLB 121600Z 21004KT 9999 SCT035 BKN250 30/23 A2984=
200605121700 METAR MRLB 121700Z 24005KT 9999 SCT035 OVC250 32/25 A2984=
200605121800 METAR MRLB 121800Z 12007KT 9999 SCT035 OVC250 33/21 A2982 RMK RN DST W=
200605121900 METAR MRLB 121900Z 10006KT 9999 SCT035 OVC250 34/20 A2980=
200605122000 METAR MRLB 122000Z 27010KT 9999 SCT035 BKN250 30/23 A2977=
200605122100 METAR MRLB 122100Z 08012KT 9999 SCT035 BKN250 31/23 A2975=
200605122200 METAR MRLB NIL=
200605122300 METAR MRLB NIL=
200605130000 METAR MRLB NIL=
200605130100 METAR MRLB NIL=
200605130200 METAR MRLB NIL=
200605130300 METAR MRLB NIL=
200605130400 METAR MRLB NIL=
200605130500 METAR MRLB NIL=
200605130600 METAR MRLB NIL=
200605130700 METAR MRLB NIL=
200605130800 METAR MRLB NIL=
200605130900 METAR MRLB NIL=
200605131000 METAR MRLB NIL=
200605131100 METAR MRLB NIL=
200605131200 METAR MRLB 131200Z 14004KT 9999 FEW025 OVC240 24/23 A2982 LW ST SW=
200605131300 METAR MRLB 131300Z 12007KT 9999 FEW030 OVC240 25/21 A2984=
200605131400 METAR MRLB 131400Z 05003KT 9999 FEW030 OVC250 26/23 A2986=
200605131500 METAR MRLB 131500Z 08003KT 9999 FEW030 OVC250 29/23 A2986=
200605131600 METAR MRLB 131600Z 15004KT 9999 FEW035 BKN250 31/20 A2986=
200605131700 METAR MRLB 131700Z 09007KT 9999 FEW035 OVC250 32/21 A2984=
200605131800 METAR MRLB 131800Z 08012KT 9999 SCT035 OVC250 32/20 A2983=
200605131900 METAR MRLB 131900Z 07006KT 9999 SCT035 OVC250 33/19 A2980=
200605132000 METAR MRLB 132000Z 07006KT 9999 SCT035 OVC250 34/19 A2978=
200605132100 METAR MRLB 132100Z 08004KT 9999 SCT035 OVC250 34/17 A2976=
200605132200 METAR MRLB 132200Z 26008KT 9999 SCT035 BKN250 34/19 A2977=
200605132300 METAR MRLB 132300Z 26007KT 9999 FEW035 OVC250 30/22 A2978=
200605140000 METAR MRLB 140000Z 24006KT 9999 FEW035 OVC240 28/23 A2981=
200605140100 METAR MRLB NIL=
200605140200 METAR MRLB NIL=
200605140300 METAR MRLB NIL=
200605140400 METAR MRLB NIL=
200605140500 METAR MRLB NIL=
200605140600 METAR MRLB NIL=
200605140700 METAR MRLB NIL=
200605140800 METAR MRLB NIL=
200605140900 METAR MRLB NIL=
200605141000 METAR MRLB NIL=
200605141100 METAR MRLB NIL=
200605141200 METAR MRLB 141200Z 00000KT CAVOK 23/21 A2983=
200605141300 METAR MRLB 141300Z 35003KT CAVOK 26/21 A2986 RMK CB DST S=
200605141500 METAR MRLB 141500Z 07005KT CAVOK 29/22 A2987=
200605141600 METAR MRLB 141600Z 09012KT CAVOK 31/19 A2986=
200605141700 METAR MRLB 141700Z 09007KT CAVOK 32//19 A2986=
200605141800 METAR MRLB 141800Z 13008KT 9999 FEW035 BKN250 33/19 A2983=
200605141900 METAR MRLB 141900Z 13005KT 9999 SCT035 BKN250 33/19 A2980=
200605142000 METAR MRLB 142000Z 27009KT 9999 BKN030 SCT250 31/22 A2978 TCU DST E=
200605142100 METAR MRLB 142100Z 29014KT 9999 FEW030TCU SCT035 BKN250 30/23 A2978=
200605142200 METAR MRLB 142200Z 29013KT 9999 SCT035 BKN250 29/23 A2977 CB RN DST E=
200605142300 METAR MRLB 142300Z 30010KT 9999 FEW035 BKN250 29/23 A2978 TCU RN DST E CB RN SE S=
200605150000 METAR MRLB 150000Z 28008KT 9999 SCT035 BKN250 28/24 A2979 CB RN DST S=
200605150100 METAR MRLB NIL=
200605150200 METAR MRLB NIL=
200605150300 METAR MRLB NIL=
200605150400 METAR MRLB NIL=
200605150500 METAR MRLB NIL=
200605150600 METAR MRLB NIL=
200605150700 METAR MRLB NIL=
200605150800 METAR MRLB NIL=
200605150900 METAR MRLB NIL=
200605151000 METAR MRLB NIL=
200605151100 METAR MRLB NIL=
200605151200 METAR MRLB 151200Z 00000KT 9999 FEW040 BKN250 24/22 A2986 RMK CB DST SSW=
200605151300 METAR MRLB 151300Z 00000KT CAVOK 26/23 A2987 SCT280=
200605151400 METAR MRLB 151400Z 31003KT 9999 FEW030 BKN300 27/23 A2987 CB DST SW=
200605151500 METAR MRLB 151500Z 25005KT 9999 FEW030 SCT300 29/22 A2989=
200605151600 METAR MRLB 151600Z 22006KT 9999 FEW030 SCT300 30/22 A2988=
200605151700 METAR MRLB 151700Z 15005KT 9999 SCT035 32/21 A2987=
200605151800 METAR MRLB 151800Z 28004KT 9999 SCT035 33/21 A2985=
200605151900 METAR MRLB 151900Z 27008KT 9999 SCT032 34/22 A2981 TCU ESE E=
200605152000 METAR MRLB 152000Z 27010KT 9999 SCT030 32/22 A2979 CB DST ESE=
200605152100 METAR MRLB 152100Z 27012KT 9999 FEW030TCU 32/22 A2978=
200605152200 METAR MRLB 152200Z 27012KT 9999 FEW035TCU 31/22 A2978=
200605152300 METAR MRLB 152300Z 27011KT 9999 BKN035 SCT280 30/22 A2979 TCU RASH NE SE S=
200605160000 METAR MRLB 160000Z 27005KT 9999 SCT035 BKN250 30/22 A2982 CB RN SE=
200605160100 METAR MRLB NIL=
200605160200 METAR MRLB NIL=
200605160300 METAR MRLB NIL=
200605160400 METAR MRLB NIL=
200605160500 METAR MRLB NIL=
200605160600 METAR MRLB NIL=
200605160700 METAR MRLB NIL=
200605160800 METAR MRLB NIL=
200605160900 METAR MRLB NIL=
200605161000 METAR MRLB NIL=
200605161100 METAR MRLB NIL=
200605161200 METAR MRLB 161200Z 28004KT 9999 FEW030 BKN130 24/23 A2986 RN DST S SW=
200605161300 METAR MRLB 161300Z 00000KT 9999 FEW030 OVC120 24/23 A2987 RN DST S=
200605161400 METAR MRLB 161400Z 13003KT 9999 FEW035 OVC120 25/23 A2989=
200605161500 METAR MRLB 161500Z 00000KT 9999 FEW035 OVC130 26/24 A2987=
200605161600 METAR MRLB 161600Z 17004KT 9999 FEW035 OVC130 26/24 A2989=
200605161700 METAR MRLB 161700Z 20003KT 9999 FEW035 OVC130 29/24 A2988=
200605161800 METAR MRLB 161800Z 29005KT 9999 FEW035 BKN140 31/23 A2986=
200605161900 METAR MRLB 161900Z 27006KT 9999 SCT035 BKN140 32/23 A2983=
200605162000 METAR MRLB 162000Z 29009KT 9999 SCT035 OVC140 30/24 A2980=
200605162100 METAR MRLB 162100Z 26007KT 9999 FEW035 OVC140 30/23 A2978=
200605162200 METAR MRLB 162200Z 25007KT 9999 FEW035 OVC140 29/23 A2978=
200605162300 METAR MRLB 162300Z 25005KT 9999 FEW035 OVC240 29/23 A2978=
200605170000 METAR MRLB 170000Z 28004KT 9999 FEW030 OVC240 28/22 A2980=
200605170100 METAR MRLB NIL=
200605170200 METAR MRLB NIL=
200605170300 METAR MRLB NIL=
200605170400 METAR MRLB NIL=
200605170500 METAR MRLB NIL=
200605170600 METAR MRLB NIL=
200605170700 METAR MRLB NIL=
200605170800 METAR MRLB NIL=
200605170900 METAR MRLB NIL=
200605171000 METAR MRLB NIL=
200605171100 METAR MRLB NIL=
200605171200 METAR MRLB 171200Z 04004KT 9999 SCT025 BKN130 25/24 A2985 RN DST S=
200605171300 METAR MRLB 171300Z 07004KT 9999 SCT030 BKN130 25/24 A2985=
200605171400 METAR MRLB 171400Z 07004KT 9999 SCT030 BKN140 27/24 A2987=
200605171500 METAR MRLB 171500Z 29006KT 9999 -RA FEW015 SCT025 BKN120 25/24 A2988=
200605171600 METAR MRLB 171600Z 22004KT 9999 SCT020 BKN110 26/23 A2989 RMK RN DST S SW N=
200605171700 METAR MRLB 171700Z 28004KT 9999 SCT020 OVC100 25/23 A2989 RMK RN DST SW N=
200605171900 METAR MRLB 171900Z 34004KT 9999 FEW030 OVC120 26/23 A2985=
200605172000 METAR MRLB 172000Z 30003KT 9999 FEW035 BKN130 28/23 A2984=
200605172100 METAR MRLB 172100Z 25004KT 9999 FEW035 BKN140 30/24 A2982=
200605172200 METAR MRLB 172200Z 24003KT 9999 SCT030 OVC140 29/24 A2981=
200605172300 METAR MRLB 172300Z 27004KT 9999 DZ SCT030 OVC130 27/24 A2983=
200605180000 METAR MRLB NIL=
200605180100 METAR MRLB NIL=
200605180200 METAR MRLB NIL=
200605180300 METAR MRLB NIL=
200605180400 METAR MRLB NIL=
200605180500 METAR MRLB NIL=
200605180600 METAR MRLB NIL=
200605180700 METAR MRLB NIL=
200605180800 METAR MRLB NIL=
200605180900 METAR MRLB NIL=
200605181000 METAR MRLB NIL=
200605181100 METAR MRLB NIL=
200605181200 METAR MRLB 181200Z 00000KT 0500 FG FEW001 BKN250 23/23 A2989=
200605181300 METAR MRLB 181300Z O0000KT 9999 FEW005 SCT120 BKN250 24/24 A2991=
200605181400 METAR MRLB 181400Z 13003KT 9999 SCT010 BKN250 25/24 A2993=
200605181500 METAR MRLB 181500Z 00000KT 9999 SCT020 BKN250 28/24 A2994=
200605181600 METAR MRLB 181600Z 16005KT 9999 SCT030 BKN250 30/22 A2992=
200605181700 METAR MRLB 181700Z 09010KT 9999 SCT030 BKN250 32/21 A2990=
200605181900 METAR MRLB 181900Z 14004KT 9999 SCT030 BKN120 32/19 A2987 RMK RN DST NE=
200605182000 METAR MRLB 182000Z 29008KT 9999 SCT035 BKN100 31/23 A2986 RMK RN DST S SW=
200605182100 METAR MRLB 182100Z 23004KT 9999 SCT030 BKN120 31/22 A2984=
200605182200 METAR MRLB 182200Z 22006KT 9999 FEW035 BKN120 29/23 A2984 RMK RN DST S=
200605182300 METAR MRLB 182300Z 22006KT CAVOK 28/24 A2984=
200605190000 METAR MRLB 190000Z 24006KT CAVOK 27/23 A2985=
200605190100 METAR MRLB NIL=
200605190200 METAR MRLB NIL=
200605190300 METAR MRLB NIL=
200605190400 METAR MRLB NIL=
200605190500 METAR MRLB NIL=
200605190600 METAR MRLB NIL=
200605190700 METAR MRLB NIL=
200605190800 METAR MRLB NIL=
200605190900 METAR MRLB NIL=
200605191000 METAR MRLB NIL=
200605191100 METAR MRLB NIL=
200605191200 METAR MRLB 191200Z 00000KT CAVOK 22/21 A2989=
200605191300 METAR MRLB 191300Z 00000KT CAVOK 24/22 A2991=
200605191400 METAR MRLB 191400Z 00000KT CAVOK 25/22 A2992=
200605191500 METAR MRLB 191500Z 00000KT CAVOK 28/21 A2993=
200605191600 METAR MRLB 191600Z 24004KT 9999 FEW035 BKN130 30/21 A2993=
200605191700 METAR MRLB 191700Z 07009KT 9999 FEW035 SCT130 32/21 A2992=
200605191800 METAR MRLB 191800Z 10011KT 9999 SCT035 BKN130 31/21 A2990=
200605191900 METAR MRLB 191900Z 08015KT 9999 SCT030 BKN120 33/21 A2987=
200605192000 METAR MRLB 192000Z 10012KT 9999 FEW030 BKN120 32/20 A2985=
200605192100 METAR MRLB 192100Z 10012KT 9999 SCT030 BKN120 32/21 A2982=
200605192200 METAR MRLB 192200Z 08011KT 9999 SCT030 BKN110 31/20 A2983 RN DST N NE NW CB W=
200605192300 METAR MRLB 192300Z 08009KT 9999 SCT035 BKN120 29/21 A2985=
200605200000 METAR MRLB 200000Z 09008KT 9999 FEW035 OVC120 29/21 A2987=
200605200100 METAR MRLB NIL=
200605200200 METAR MRLB NIL=
200605200300 METAR MRLB NIL=
200605200400 METAR MRLB NIL=
200605200500 METAR MRLB NIL=
200605200600 METAR MRLB NIL=
200605200700 METAR MRLB NIL=
200605200800 METAR MRLB NIL=
200605200900 METAR MRLB NIL=
200605201000 METAR MRLB NIL=
200605201100 METAR MRLB NIL=
200605201200 METAR MRLB 201200Z 00000KT 9999 FEW030 BKN130 23/21 A2985=
200605201300 METAR MRLB 201300Z 26003KT 9999 FEW030 OVC130 25/22 A2986=
200605201400 METAR MRLB 201400Z 29003KT 9999 FEW030 BKN130 26/21 A2987=
200605201500 METAR MRLB 201500Z 04003KT 9999 FEW035 BKN140 30/21 A2987=
200605201600 METAR MRLB 201600Z 10010KT 9999 FEW035 BKN140 32/19 A2986=
200605201700 METAR MRLB 201700Z 09009KT 9999 FEW035 OVC130 31/18 A2986=
200605201800 METAR MRLB 201800Z 10009KT 9999 FEW035 OVC130 31/20 A2986=
200605201900 METAR MRLB 201900Z 10009KT 9999 FEW035 BKN130 32/20 A2983=
200605202100 METAR MRLB 202100Z 1006KT 9999 FEW035 BKN140 33/21 A2977=
200605202200 METAR MRLB 202200Z 10009KT 9999 SCT035 BKN140 32/21 A2977=
200605202300 METAR MRLB 202300Z 13006KT 9999 SCT035 BKN130 31/21 A2978=
200605210000 METAR MRLB 210000Z 12007KT 9999 SCT030 BKN130 30/20 A2980=
200605210100 METAR MRLB NIL=
200605210200 METAR MRLB NIL=
200605210300 METAR MRLB NIL=
200605210400 METAR MRLB NIL=
200605210500 METAR MRLB NIL=
200605210600 METAR MRLB NIL=
200605210700 METAR MRLB NIL=
200605210800 METAR MRLB NIL=
200605210900 METAR MRLB NIL=
200605211000 METAR MRLB NIL=
200605211100 METAR MRLB NIL=
200605211200 METAR MRLB 211200Z 00000KT 9999 FEW030 BKN130 24/22 A2983=
200605211300 METAR MRLB 211300Z 22003KT 9999 FEW030 SCT140 26/23 A2983=
200605211400 METAR MRLB 211400Z 17006KT 9999 FEW035 SCT250 28/23 A2983=
200605211500 METAR MRLB 211500Z 09011KT 9999 FEW035 BKN250 31/21 A2982=
200605211600 METAR MRLB 211600Z 10010KT 9999 SCT035 SCT250 31/21 A2983=
200605211800 METAR MRLB 211800Z 10006KT 9999 SCT030 BKN250 33/21 A2980=
200605211900 METAR MRLB 211900Z 30005KT 9999 SCT030 BKN250 32/23 A2977=
200605212000 METAR MRLB 212000Z 27011KT 9999 SCT030 OVC240 30/23 A2974 RMK RN DST N=
200605212100 METAR MRLB 212100Z 29007KT 9999 3000SW -RA SCT020 BKN130 25/24 A2974=
200605212200 METAR MRLB 212200Z 16009KT 9999 SCT025 OVC120 25/24 A2974 RMK 7000S=
200605212300 METAR MRLB 212300Z 21005KT 9999 FEW015 SCT025 OVC120 24/23 A2976 RMK RN DST S=
200605220000 METAR MRLB 220000Z 00000KT 9999 SCT025 OVC120 24/23 A2979 RMK RN DST S=
200605220100 METAR MRLB NIL=
200605220200 METAR MRLB NIL=
200605220300 METAR MRLB NIL=
200605220400 METAR MRLB NIL=
200605220500 METAR MRLB NIL=
200605220600 METAR MRLB NIL=
200605220700 METAR MRLB NIL=
200605220800 METAR MRLB NIL=
200605220900 METAR MRLB NIL=
200605221000 METAR MRLB NIL=
200605221100 METAR MRLB NIL=
200605221200 METAR MRLB 221200Z 18005KT 0200 FG VV/// 23/22 A2982=
200605221300 METAR MRLB 221300Z 00000KT 9999 FEW005 BKN250 24/24 A2984 RMK CB DST SW W=
200605221400 METAR MRLB 221400Z 18004KT 9999 FEW010 BKN130 25/24 A2987=
200605221500 METAR MRLB 221500Z 17006KT 9999 FEW025 BKN130 26/24 A2988=
200605221600 METAR MRLB 221600Z 28006KT 9999 FEW025 BKN130 27/23 A2989 RMK RN DST E=
200605221700 METAR MRLB 221700Z 17005KT 9999 -RA FEW025 BKN130 28/23 A2987=
200605221800 METAR MRLB 221800Z 13006KT 9999 FEW025 BKN120 28/23 A2983 RMK RN DST SE S=
200605221900 METAR MRLB 221900Z 09006KT CAVOK 30/24 A2978=
200605222000 METAR MRLB 222000Z 17007KT CAVOK 28/24 A2974=
200605222200 METAR MRLB 222200Z 20008KT 9999 -RA OVC130 26/23 A2977=
200605222300 METAR MRLB 222300Z 18005KT CAVOK 27/22 A2978 RMK OVC130=
200605230000 METAR MRLB 230000Z 04005KT CAVOK 27/23 A2980 RMK OVC130=
200605230100 METAR MRLB NIL=
200605230200 METAR MRLB NIL=
200605230300 METAR MRLB NIL=
200605230400 METAR MRLB NIL=
200605230500 METAR MRLB NIL=
200605230600 METAR MRLB NIL=
200605230700 METAR MRLB NIL=
200605230800 METAR MRLB NIL=
200605230900 METAR MRLB NIL=
200605231000 METAR MRLB NIL=
200605231100 METAR MRLB NIL=
200605231200 METAR MRLB NIL=
200605231300 METAR MRLB 231300Z 0000OKT CAVOK 24/21 A2987=
200605231400 METAR MRLB 231400Z 00000KT CAVOK 27/22 A2988 RMK BKN250=
200605231500 METAR MRLB 231500Z 00000KT CAVOK 29/22 A2989 7CI280=
200605231600 METAR MRLB 231600Z 00000KT 9999 FEW030 BKN250 30/22 A2989=
200605231700 METAR MRLB 231700Z 16007KT 9999 SCT030 BKN250 30/23 A2997 RMK CB DST SW=
200605231800 METAR MRLB 231800Z 18005KT 9999 FEW030 SCT130 BKN250 31/22 A2986 RMK CB RN DST SSW=
200605231900 METAR MRLB 231900Z 19006KT 9999 SCT020TCU BKN120 30/23 A2984 RN N NE SW=
200605232000 METAR MRLB 232000Z 22013KT 9999 SCT010TCU SCT100 27/23 A2984 RMK RASH N=
200605232100 METAR MRLB 232100Z 07008KT 3000 -RA FEW005 BKN020 25/22 A2985=
200605232200 METAR MRLB 232200Z 02007KT 2000 RA SCT010 BKN100 23/22 A2987 RMK TS W=
200605232300 METAR MRLB 232300Z 02004KT 9999 SCT020 BKN100 23/22 A2986 RMK TS RN DST SW=
200605240000 METAR MRLB 240000Z 00000KT 9999 SCT0190 BKN120 23/23 A2986 RMK RN DST NE SW=
200605240100 METAR MRLB NIL=
200605240200 METAR MRLB NIL=
200605240300 METAR MRLB NIL=
200605240400 METAR MRLB NIL=
200605240500 METAR MRLB NIL=
200605240600 METAR MRLB NIL=
200605240700 METAR MRLB NIL=
200605240800 METAR MRLB NIL=
200605240900 METAR MRLB NIL=
200605241000 METAR MRLB NIL=
200605241100 METAR MRLB NIL=
200605241200 METAR MRLB 241200Z 00000KT 2000 BR FEW002 SCT006 BKN130 23/22 A2991=
200605241300 METAR MRLB 241300Z 10003KT 9999 FEW020 BKN130 24/23 A2983 RMK LOW ST W=
200605241400 METAR MRLB 241400Z 21003KT 9999 SCT025 BKN130 25/23 A2994=
200605241500 METAR MRLB 241500Z 23004KT 9999 SCT030 BKN250 26/24 A2994=
200605241600 METAR MRLB 241600Z 26003KT 9999 SCT035 SCT250 28/23 A2993=
200605241700 METAR MRLB 241700Z 26006KT 9999 SCT035 SCT250 29/23 A2991=
200605241800 METAR MRLB 241800Z 29008KT 9999 FEW035 BKN250 30/23 A2990 RMK RN DST E NE=
200605241900 METAR MRLB 241900Z 28010KT 9999 SCT030 BKN140 30/23 A2988 RMK RN DST E NE N=
200605242000 METAR MRLB 242000Z 32009KT 9999 FEW020TCU SCT030 BKN130 28/23 A2987 RMK RN DST E NE N=
200605242100 METAR MRLB 242100Z 32005KT 9999 FEW035 BKN130 27/23 A2985=
200605242200 METAR MRLB 242200Z 30006KT 9999 FEW035 BKN130 28/23 A2984=
200605242300 METAR MRLB 242300Z 29007KT 9999 FEW035 OVC140 27/23 A2983=
200605250000 METAR MRLB 250000Z 28004KT 9999 FEW035 BKN140 26/23 A2985=
200605250100 METAR MRLB NIL=
200605250200 METAR MRLB NIL=
200605250300 METAR MRLB NIL=
200605250400 METAR MRLB NIL=
200605250500 METAR MRLB NIL=
200605250600 METAR MRLB NIL=
200605250700 METAR MRLB NIL=
200605250800 METAR MRLB NIL=
200605250900 METAR MRLB NIL=
200605251000 METAR MRLB NIL=
200605251100 METAR MRLB NIL=
200605251200 METAR MRLB 251200Z 00000KT 9999 FEW030 BKN250 24/23 A2986=
200605251300 METAR MRLB 251300Z 00000KT 9999 FEW030 BKN250 27/24 A2986=
200605251400 METAR MRLB 251400Z 00000KT 9999 FEW035 BKN250 28/24 A2987=
200605251500 METAR MRLB 251500Z 26004KT 9999 FEW035 BKN250 30/23 A2987=
200605251600 METAR MRLB 251600Z 33003KT 9999 SCT035 SCT250 30/23 A2985=
200605251700 METAR MRLB 251700Z 09007KT 9999 SCT035 SCT250 32/21 A2983=
200605251800 METAR MRLB 251800Z 07008KT 9999 SCT035 BKN250 33/21 A2982=
200605252000 METAR MRLB 252000Z 24005KT 9999 SCT035 SCT260 32/24 A2977=
200605252100 METAR MRLB 252100Z 24003KT 9999 SCT030 BKN260 32/23 A2975=
200605252200 METAR MRLB 252200Z 27006KT 9999 SCT035 BKN260 32/23 A2974 RN NE=
200605252300 METAR MRLB 252300Z 25005KT 9999 SCT035 OVC250 31/23 A2975 RN N=
200605260000 METAR MRLB 260000Z 18010KT 9999 2000SW -RA FEW015TCU SCT025 BKN140 27/24 A2978=
200605260100 METAR MRLB NIL=
200605260200 METAR MRLB NIL=
200605260300 METAR MRLB NIL=
200605260400 METAR MRLB NIL=
200605260500 METAR MRLB NIL=
200605260600 METAR MRLB NIL=
200605260700 METAR MRLB NIL=
200605260800 METAR MRLB NIL=
200605260900 METAR MRLB NIL=
200605261000 METAR MRLB NIL=
200605261100 METAR MRLB NIL=
200605261200 METAR MRLB 261200Z 36003KT 9999 FEW003 OVC250 23/22 A2980=
200605261300 METAR MRLB 261300Z 19003KT CAVOK 25/23 A2982=
200605261400 METAR MRLB 261400Z 21005KT CAVOK 27/23 A2983=
200605261500 METAR MRLB 261500Z 23003KT CAVOK 29/23 A2983=
200605261600 METAR MRLB 261600Z 04003KT 9999 FEW030 BKN250 31/23 A2983=
200605261700 METAR MRLB 261700Z 05009KT 9999 SCT030 BKN250 32/22 A2981=
200605261800 METAR MRLB 261800Z 06015KT 9999 SCT030 BKN250 31/23 A2980=
200605261900 METAR MRLB 261900Z 08012KT 9999 SCT035 BKN250 32/22 A2978=
200605262000 METAR MRLB 262000Z 07009KT 9999 SCT035 BKN250 33/22 A2977 CB N=
200605262100 METAR MRLB 262100Z 08010KT 9999 SCT035 BKN250 33/21 A2975=
200605262200 METAR MRLB 262200Z 10010KT 9999 FEW035 SCT130 BKN250 32/21 A2974=
200605262300 METAR MRLB 262300Z 08013KT 9999 FEW035 BKN120 31/21 A2974=
200605270000 METAR MRLB 270000Z 11009KT 9999 SCT035 BKN100 29/21 A2976=
200605270100 METAR MRLB NIL=
200605270200 METAR MRLB NIL=
200605270300 METAR MRLB NIL=
200605270400 METAR MRLB NIL=
200605270500 METAR MRLB NIL=
200605270600 METAR MRLB NIL=
200605270700 METAR MRLB NIL=
200605270800 METAR MRLB NIL=
200605270900 METAR MRLB NIL=
200605271000 METAR MRLB NIL=
200605271100 METAR MRLB NIL=
200605271200 METAR MRLB 271200Z 00000KT CAVOK 22/22 A2980=
200605271300 METAR MRLB 271300Z 21004KT CAVOK 24/22 A2982 RMK CB DST SSW=
200605271400 METAR MRLB 271400Z 17003KT CAVOK 27/22 A2983=
200605271500 METAR MRLB 271500Z 00000KT CAVOK 28/22 A2984=
200605271600 METAR MRLB 271600Z 30003KT 9999 FEW030 OVC250 31/22 A2984=
200605271700 METAR MRLB 271700Z 09007KT 9999 FEW035 BKN250 31/21 A2982=
200605271800 METAR MRLB 271800Z 12009KT 9999 FEW035 OVC250 31/22 A2980=
200605271900 METAR MRLB 271900Z 11010KT 9999 FEW035 OVC250 31/21 A2979 RMK CB DST S=
200605272000 METAR MRLB 272000Z 10010KT 9999 FEW035 SCT130 BKN250 31/20 A2978 RMK CB DST S=
200605272100 METAR MRLB 2103Z 11015KT 9999 TSVCSH SCT020CB BKN120 31/20 A2977 RMK VIS N 5KMS=
200605272200 METAR MRLB 272200Z 05006KT 9999 SCT020 BKN100 26/22 A2979 RETS RN DSTN TS RASH DST W=
200605272300 METAR MRLB 272300Z 06006KT 9999 FEW020 OVC100 26/23 A2981 RN N NE E=
200605280000 METAR MRLB NIL=
200605280100 METAR MRLB NIL=
200605280200 METAR MRLB NIL=
200605280300 METAR MRLB NIL=
200605280400 METAR MRLB NIL=
200605280500 METAR MRLB NIL=
200605280600 METAR MRLB NIL=
200605280700 METAR MRLB NIL=
200605280800 METAR MRLB NIL=
200605280900 METAR MRLB NIL=
200605281000 METAR MRLB NIL=
200605281100 METAR MRLB NIL=
200605281200 METAR MRLB 281200Z 33003KT 9999 FEW025 BKN140 22/21 A2985=
200605281300 METAR MRLB 281300Z 25003KT 9999 FEW030 BKN140 24/22 A2987=
200605281400 METAR MRLB 281400Z 00000KT 9999 FEW035 OVC140 27/23 A2988=
200605281500 METAR MRLB 281500Z 26006KT 9999 FEW035 BKN250 28/24 A2987=
200605281600 METAR MRLB 281600Z 23005KT 9999 FEW035 BKN250 30/23 A2987=
200605281700 METAR MRLB 281700Z 08012KT 9999 FEW035 BKN250 31/22 A2987=
200605281800 METAR MRLB 281800Z 09014KT 9999 SCT035 OVC250 32/21 A2984=
200605281900 METAR MRLB 281900Z 08011KT 9999 SCT035 BKN250 32/22 A2982=
200605282000 METAR MRLB 282000Z 12007KT 9999 SCT035 BKN250 32/22 A2981=
200605282100 METAR MRLB 282100Z 07010KT 9999 SCT035 OVC250 32/22 A2979=
200605282200 METAR MRLB 282200Z 07013KT 9999 FEW035 BKN250 31/20 A2980=
200605282300 METAR MRLB 282300Z 08011KT 9999 FEW035 BKN250 30/19 A2979=
200605290000 METAR MRLB 290000Z 08007KT 9999 FEW035 BKN240 29/19 A2981=
200605290100 METAR MRLB NIL=
200605290200 METAR MRLB NIL=
200605290300 METAR MRLB NIL=
200605290400 METAR MRLB NIL=
200605290500 METAR MRLB NIL=
200605290600 METAR MRLB NIL=
200605290700 METAR MRLB NIL=
200605290800 METAR MRLB NIL=
200605290900 METAR MRLB NIL=
200605291000 METAR MRLB NIL=
200605291100 METAR MRLB NIL=
200605291200 METAR MRLB 291200Z 00000KT 9999 FEW030 BKN250 23/21 A2986=
200605291300 METAR MRLB 291300Z 00000KT 9999 FEW030 SCT250 25/21 A2987=
200605291400 METAR MRLB 291400Z 00000KT 9999 FEW035 SCT250 28/22 A2988=
200605291500 METAR MRLB 291500Z 10011KT 9999 FEW035 BKN250 29/22 A2986=
200605291600 METAR MRLB 291600Z 09014KT 9999 FEW035 BKN250 31/21 A2986=
200605291800 METAR MRLB 291800Z 10009KT 9999 SCT035 BKN250 32/22 A2983=
200605291900 METAR MRLB 291900Z 08009KT 9999 SCT035 SCT250 33/21 A2982=
200605292000 METAR MRLB 292000Z 06009KT 9999 SCT035 BKN250 32/21 A2980=
200605292100 METAR MRLB 292100Z 09006KT 9999 SCT035 BKN250 31/22 A2978=
200605292200 METAR MRLB 292200Z 07011KT 9999 SCT035 BKN240 30/21 A2978=
200605292300 METAR MRLB 292300Z 08009KT 9999 SCT030 SCT240 31/20 A2980=
200605300000 METAR MRLB 30000Z 08007KT 9999 FEW035 BKN240 29/21 A2982=
200605300100 METAR MRLB NIL=
200605300200 METAR MRLB NIL=
200605300300 METAR MRLB NIL=
200605300400 METAR MRLB NIL=
200605300500 METAR MRLB NIL=
200605300600 METAR MRLB NIL=
200605300700 METAR MRLB NIL=
200605300800 METAR MRLB NIL=
200605300900 METAR MRLB NIL=
200605301000 METAR MRLB NIL=
200605301100 METAR MRLB NIL=
200605301200 METAR MRLB 301200Z 12004KT CAVOK 22/21 A2981 OVC250 CB S SW=
200605301300 METAR MRLB 301300Z 00000KT CAVOK 25/22 A2982=
200605301400 METAR MRLB 301400Z 24005KT CAVOK 27/23 A2983 RMK CB SW=
200605301500 METAR MRLB 301500Z 32003KT 9999 FEW030 OVC250 30/22 A2983=
200605301600 METAR MRLB 301600Z 04004KT 9999 FEW030 BKN250 29/23 A2983 RMK HZ LGT ARND=
200605301700 METAR MRLB 301700Z 07010KT 9999 SCT035 BKN250 32/21 A2982 RMK CB DST S=
200605301800 METAR MRLB 301800Z 07011KT 9999 SCT035 BKN250 32/21 A2980=
200605301900 METAR MRLB 301900Z 09007KT 9999 SCT035 BKN250 33/21 A2978=
200605302000 METAR MRLB 302000Z 05012KT 9999 SCT030 SCT120 BKN250 33/21 A2976=
200605302100 METAR MRLB 302100Z 05013KT 9999 FEW035 SCT130 BKN250 32/22 A2976 TCU NE E=
200605302200 METAR MRLB 302200Z 06010KT 9999 FEW035 BKN250 32/21 A2975 CB RASH S SW=
200605302300 METAR MRLB 302300Z 08008KT 9999 FEW035 BKN250 31/20 A2975 CB E SW=
200605310000 METAR MRLB 310000Z 09008KT 9999 FEW035 BKN250 30/20 A2976 CB E=
200605310100 METAR MRLB NIL=
200605310200 METAR MRLB NIL=
200605310300 METAR MRLB NIL=
200605310400 METAR MRLB NIL=
200605310500 METAR MRLB NIL=
200605310600 METAR MRLB NIL=
200605310700 METAR MRLB NIL=
200605310800 METAR MRLB NIL=
200605310900 METAR MRLB NIL=
200605311000 METAR MRLB NIL=
200605311100 METAR MRLB NIL=
200605311200 METAR MRLB 311200Z 00000KT CAVOK 21/20 A2979=
200605311300 METAR MRLB 311300Z 00000KT CAVOK 25/21 A2981 RMK OVC250 CB DST S=
200605311400 METAR MRLB 311400Z 00000KT CAVOK 27/21 A2983=
200605311500 METAR MRLB 311500Z 00000KT CAVOK 29/20 A2983 CB S SW=
200605311600 METAR MRLB 311600Z 35007KT 9999 FEW035 BKN250 31/20 A2982=
200605311700 METAR MRLB 311700Z 11008KT 9999 SCT035 BKN250 32/20 A2980=
200605311800 METAR MRLB 311800Z 12006KT 9999 SCT035 BKN250 32/20 A2981=
200605311900 METAR MRLB 311900Z 09005KT 9999 SCT035 BKN250 32/21 A2979=
200605312000 METAR MRLB 312000Z 06008KT 9999 SCT035 SCT120 33/21 A2977 CB RN NE E SE=
200605312100 METAR MRLB 312100Z 26010KT 9999 -RA BKN025 30/21 A2977=
200605312200 METAR MRLB 312200Z 26005KT 9999 FEW015TCU BKN025 26/23 A2978 RMK SHRA DST S SW W=
200605312300 METAR MRLB 312300Z 24006KT 9999 BKN025 SCT100 26/25 A2979 RMK RN DST N SE S SW=
200606010000 METAR MRLB 010000Z 17004KT 9999 FEW025 SCT120 BKN250 26/23 A2981 RN DST S=
200606010100 METAR MRLB NIL=
200606010200 METAR MRLB NIL=
200606010300 METAR MRLB NIL=
200606010400 METAR MRLB NIL=
200606010500 METAR MRLB NIL=
200606010600 METAR MRLB NIL=
200606010700 METAR MRLB NIL=
200606010800 METAR MRLB NIL=
200606010900 METAR MRLB NIL=
200606011000 METAR MRLB NIL=
200606011100 METAR MRLB NIL=
200606011200 METAR MRLB 011200Z 00000KT 9999 FEW030 BKN250 23/22 2985=
200606011300 METAR MRLB NIL=
200606011400 METAR MRLB NIL=
200606011500 METAR MRLB 011500Z 26003KT 9999 FEW035 BKN250 29/22 A2988=
200606011600 METAR MRLB 011600Z 08002KT 9999 SCT035 BKN250 30/20 A2987=
200606011700 METAR MRLB 011700Z 29006KT 9999 SCT035 BKN250 30/22 A2984=
200606011800 METAR MRLB 011800Z 32003KT 9999 FEW035 BKN250 32/21 A2982=
200606011900 METAR MRLB 011900Z VRB03KT 9999 FEW035 BKN250 33/21 A2979=
200606012000 METAR MRLB 012000Z 26008KT 9999 SCT035 BKN250 32/22 A2977=
200606012100 METAR MRLB 012100Z 28009KT 9999 SCT035 BKN250 30/22 A2976=
200606012200 METAR MRLB NIL=
200606012300 METAR MRLB 012300Z 26004KT 9999 FEW035 BKN250 31/22 A2975=
200606020000 METAR MRLB NIL=
200606020100 METAR MRLB NIL=
200606020200 METAR MRLB NIL=
200606020300 METAR MRLB NIL=
200606020400 METAR MRLB NIL=
200606020500 METAR MRLB NIL=
200606020600 METAR MRLB NIL=
200606020700 METAR MRLB NIL=
200606020800 METAR MRLB NIL=
200606020900 METAR MRLB NIL=
200606021000 METAR MRLB NIL=
200606021100 METAR MRLB NIL=
200606021200 METAR MRLB 021200Z 03003KT 9999 FEW030 BKN140 24/22 A2987=
200606021300 METAR MRLB 021300Z 05005KT 9999 FEW035 BKN140 25/22 A2989=
200606021400 METAR MRLB 021400Z 07005KT 9999 FEW035 BKN140 26/22 A2991=
200606021500 METAR MRLB 021500Z 10003KT 9999 FEW035 BKN140 27/22 A2991=
200606021600 METAR MRLB 021600Z 34004KT 9999 FEW035 OVC140 28/22 A2990=
200606021700 METAR MRLB NIL=
200606021800 METAR MRLB NIL=
200606021900 METAR MRLB NIL=
200606022000 METAR MRLB NIL=
200606022100 METAR MRLB NIL=
200606022200 METAR MRLB NIL=
200606022300 METAR MRLB NIL=
200606030000 METAR MRLB 030000Z 20004KT 9999 SCT025 OVC12027/22 A2983=
200606030100 METAR MRLB NIL=
200606030200 METAR MRLB NIL=
200606030300 METAR MRLB NIL=
200606030400 METAR MRLB NIL=
200606030500 METAR MRLB NIL=
200606030600 METAR MRLB NIL=
200606030700 METAR MRLB NIL=
200606030800 METAR MRLB NIL=
200606030900 METAR MRLB NIL=
200606031000 METAR MRLB NIL=
200606031100 METAR MRLB NIL=
200606031200 METAR MRLB NIL=
200606031300 METAR MRLB 031300Z 13003KT 9999 FEW020 BKN120 24/22 A2991=
200606031400 METAR MRLB 031400Z 00000KT 9999 FEW020 BKN120 25/23 A2981=
200606031500 METAR MRLB 031500Z 00000KT 9999 FEW020 SCT120 BKN250 27/24 A2981=
200606031700 METAR MRLB 031700Z 00000KT 9999 FEW025 BKN120 28/24 A2991=
200606031900 METAR MRLB 031900Z 35005KT 9999 FEW025 BKN140 28/24 A2986 RMK CB DST E S SW=
200606032000 METAR MRLB 032000Z 32004KT 9999 FEW030 BKN130 29/24 A2986 RMK CB DST S SW=
200606032100 METAR MRLB 032100Z 28012KT 9999 FEW030 SCT120 BKN250 29/24 A2983 RMK CB S SW=
200606032200 METAR MRLB 032200Z 29007KT 9999 FEW020TCU SCT130 BKN250 29/24 A2981 RMK TCU RASH E NE=
200606032300 METAR MRLB 032300Z 30007KT 9999 -TS FEW015CB BKN130 27/24 A2982 RMK RAASH N SE=
200606040000 METAR MRLB 040000Z 16005KT 9999 TSVCSH SCT010CB BKN020 25723 A2984 RMK VIS SW 5KM/RASH=
200606040100 METAR MRLB NIL=
200606040200 METAR MRLB NIL=
200606040300 METAR MRLB NIL=
200606040400 METAR MRLB NIL=
200606040500 METAR MRLB NIL=
200606040600 METAR MRLB NIL=
200606040700 METAR MRLB NIL=
200606040800 METAR MRLB NIL=
200606040900 METAR MRLB NIL=
200606041000 METAR MRLB NIL=
200606041100 METAR MRLB NIL=
200606041200 METAR MRLB NIL=
200606041300 METAR MRLB 041300Z 00000KT 9999 FEW025 OVC120 24/23 A2987 RMK FG SW W=
200606041400 METAR MRLB 041400Z 00000KT 9999 FEW030 BKN130 27/24 A2988=
200606041500 METAR MRLB 041500Z 00000KT 9999 FEW030 BKN250 29/24 A2990=
200606041600 METAR MRLB 041600Z 18004KT 9999 FEW030 OVC250 28/24 A2989=
200606041700 METAR MRLB 041700Z 23004KT 9999 FEW030 BKN250 29/24 A2986=
200606041800 METAR MRLB 041800Z 00000KT 9999 SCT030 BKN250 31/23 A2983 RMK CB S SW=
200606041900 METAR MRLB 041900Z 29009KT 9999 FEW030 OVC250 30/23 A2982 RM CB N=
200606042000 METAR MRLB 042000Z 28012KT 9999 FEW030 SCT130 BKN250 30/23 A2980 RMK RN N CB RN S SW=
200606042100 METAR MRLB 042100Z 28012KT 9999 FEW030 SCT130 BKN250 28/23 A2977 RMK CB NE E S RASH SE=
200606042200 METAR MRLB 042200Z 28012KT 9999 SCT025 BKN130 277/23 A2975 CB RN E=
200606042300 METAR MRLB 042300Z 26006KT 9999 FEW025 BKN130 27/23 A2976 RN NE E SE=
200606050000 METAR MRLB 050000Z 27006KT 9999 FEW025 OVC140 27/23 A2978 CB DST NE SE=
200606050100 METAR MRLB NIL=
200606050200 METAR MRLB NIL=
200606050300 METAR MRLB NIL=
200606050400 METAR MRLB NIL=
200606050500 METAR MRLB NIL=
200606050600 METAR MRLB NIL=
200606050700 METAR MRLB NIL=
200606050800 METAR MRLB NIL=
200606050900 METAR MRLB NIL=
200606051000 METAR MRLB NIL=
200606051100 METAR MRLB NIL=
200606051200 METAR MRLB 051200Z 09003KT 9999 SCT030 OVC140 23/22 A2984 RMK LOW ST SW W=
200606051300 METAR MRLB 051300Z 15004KT 9999 FEW030 OVC140 24/23 A2985 LW ST S SW=
200606051400 METAR MRLB 051400Z 14003KT 9999 SCT013 OVC230 25/23 A2986=
200606051500 METAR MRLB 051500Z 12003KT 9999 FEW015 OVC230 27/23 A2987=
200606051600 METAR MRLB 051600Z 17005KT 9999 SCT025 OVC240 28/24 A2985=
200606051700 METAR MRLB 051700Z 17005KT 9999 FEW025 OVC230 28/23 A2985=
200606051800 METAR MRLB 051800Z 23003KT 9999 SCT025 OVC230 30/23 A2983=
200606051900 METAR MRLB 051900Z 27009KT 9999 BKN030 SCT230 27/24 A2980 RERA RMK RN SW=
200606052000 METAR MRLB 052000Z 28007KT 9999 FEW030TCU FEW035 OVC250 28/24 A2978 RN S=
200606052100 METAR MRLB 052100Z 28009KT 9999 SCT035 OVC250 29/23 A2976=
200606052200 METAR MRLB 052200Z 15004KT 9999 FEW025TCU SCT035 OVC240 26/23 A2975 RMK RN DST S SE=
200606052300 METAR MRLB 052300Z 17004KT 9999 SCT025 BKN140 26/23 A2977 RMK RN DST S SE=
200606060000 METAR MRLB 060000Z 14003KT 9999 -RA SCT020 OVC120 25/24 A2979=
200606060100 METAR MRLB 060100Z 11003KT 9999 -DZ SCT025 OVC120 25/24 A2981=
200606060200 METAR MRLB 060200Z 09003KT 9999 SCT030 OVC120 25/24 A2984=
200606060300 METAR MRLB 060300Z 12003KT 9999 SCT025 OVC100 24/23 A2985=
200606060400 METAR MRLB NIL=
200606060500 METAR MRLB NIL=
200606060600 METAR MRLB NIL=
200606060700 METAR MRLB NIL=
200606060800 METAR MRLB NIL=
200606060900 METAR MRLB NIL=
200606061000 METAR MRLB NIL=
200606061100 METAR MRLB NIL=
200606061200 METAR MRLB 061200Z 11005KT 9999 SCT030 BKN270 23/22 A2982 ST LOW SW=
200606061300 METAR MRLB 061300Z 11005KT 9999 FEW030 BKN250 24/22 A2984 RMK CB DST SW LINEA TCU DST W NW=
200606061400 METAR MRLB 061400Z 11007KT 9999 SCT020 BKN250 26/23 A2985 RMK CB DST SW=
200606061500 METAR MRLB 061500Z 14007KT 9999 BKN025 SCT250 26/22 A2987 RMK CB DST SW W RN DST W=
200606061600 METAR MRLB 061600Z 11006KT 9999 SCT025 SCT130 27/23 A2988 RMK CB RN DST S SW=
200606061700 METAR MRLB 061700Z 16010KT 9999 4000S BKN025TCU SCT130 27/22 A2988 RMK 5000SW VCSH=
200606061800 METAR MRLB 061800Z 25004KT 9999 -RA SCT010 SCT020 24/23 A2986 RMK VIS 7000 N NW VCSH=
200606061900 METAR MRLB 061900Z 28007KT 9999 SCT014 BKN120 26/23 A2984 RMK RN DST NE=
200606062000 METAR MRLB 062000Z 29006KT 9999 BKN020 SCT120 26/23 A2983 RMK RN DST S SW W=
200606062100 METAR MRLB 062100Z 30006KT 9999 SCT020 OVC120 26/23 A2979 RMK RN DST S SW=
200606062200 METAR MRLB 062200Z 30004KT 4000S -RA SCT020 OVC100 25/23 A2979=
200606062300 METAR MRLB 062300Z 32002KT 9999 SCT025 OVC110 25/23 A2980 RMK RN DST SW=
200606070000 METAR MRLB NIL=
200606070100 METAR MRLB 070100Z 34004KT 4000 RA FEW010 BKN025 23/22 A2984=
200606070200 METAR MRLB NIL=
200606070300 METAR MRLB 070300Z 13006KT 5000 RA SCT020 OVC100 22/22 A2990=
200606070400 METAR MRLB NIL=
200606070500 METAR MRLB NIL=
200606070600 METAR MRLB NIL=
200606070700 METAR MRLB NIL=
200606070800 METAR MRLB NIL=
200606070900 METAR MRLB NIL=
200606071000 METAR MRLB NIL=
200606071100 METAR MRLB NIL=
200606071200 METAR MRLB NIL=
200606071300 METAR MRLB NIL=
200606071400 METAR MRLB 071400Z 14003KT 9999 FEW006 SCT012 BKN130 24/23 A2992 RMK LOW ST S SW NW=
200606071500 METAR MRLB 071500Z 14004KT 9999 FEW008 SCT015 BKN130 25/23 A2992 RMK RN DST E=
200606071600 METAR MRLB 071600Z 15004KT 9999 FEW013 SCT020 BKN130 27/23 A2992 RMK RASH DST SW RN NE NW TCU W=
200606071700 METAR MRLB 071700Z 19004KT 9999 BKN020 SCT130 27/23 A2991 RERA RMK RASH NE RN SSE=
200606071800 METAR MRLB 071800Z 25004KT 9999 FEW015TCU SCT020 29/23 A2989 RMK SCT130 RN DST NE E=
200606071900 METAR MRLB 071900Z 22009KT 9999 SCT025 BKN130 28/22 A2987 RMK CB/TCU DST NE E TCU LINE W NW=
200606072000 METAR MRLB 072000Z 25008KT 9999 SCT025 BKN250 28/22 A2985 RMK RN DST NE=
200606072100 METAR MRLB 072100Z 28008KT 9999 FEW020 BKN250 29/21 A2983 RMK RN DST E SE=
200606072200 METAR MRLB 072200Z 24008KT 9999 SCT020 BKN250 22/22 A2983=
200606072300 METAR MRLB 072300Z 22008KT 9999 FEW020 SCT140 BKN250 28/22 A2983 RMK TCU RASH DST NE=
200606080000 METAR MRLB 080000Z 00000KT 9999 FEW025 SCT140 BKN250 27/23 A2985=
200606080100 METAR MRLB NIL=
200606080200 METAR MRLB 080200Z 20003KT 9999 FEW025 BKN130 25/22 A2990=
200606080300 METAR MRLB 080300Z 00000KT 9999 FEW025 SCT130 25/22 A2990=
200606080400 METAR MRLB NIL=
200606080500 METAR MRLB NIL=
200606080600 METAR MRLB NIL=
200606080700 METAR MRLB NIL=
200606080800 METAR MRLB NIL=
200606080900 METAR MRLB NIL=
200606081000 METAR MRLB NIL=
200606081100 METAR MRLB NIL=
200606081200 METAR MRLB 081200Z 00000KT 9999 FEW025 SCT130 BKN250 23/22 A2990 RMK DUE LOW ST SW=
200606081300 METAR MRLB 081300Z 13002KT 9999 SCT025 BKN250 24/22 A2992 RMK LOW ST SW=
200606081400 METAR MRLB 081400Z 00000KT 9999 SCT025 BKN250 27/23 A2993=
200606081500 METAR MRLB 081500Z 16003KT 9999 SCT030 BKN250 27/23 A2994=
200606081600 METAR MRLB 081600Z 18005KT 9999 SCT030 OVC250 27/23 A2993=
200606081700 METAR MRLB 081700Z 18004KT 9999 DZ FEW020 SCT030 OVC250 27/23 A2992=
200606081800 METAR MRLB 081800Z 14004KT 9999 -RA FEW020TCU SCT030 BKN140 26/23 A2991 RMK 6000 S DUE RA=
200606081900 METAR MRLB 081900Z 09002KT 9999 SCT025 BKN140 28/24 A2988=
200606082000 METAR MRLB 082000Z 28005KT 9999 SCT030 BKN140 27/24 A2985=
200606082200 METAR MRLB 082200Z 28009KT 9999 SCT020 BKN130 27/23 A2983=
200606082300 METAR MRLB 082300Z 27008KT 9999 FEW025 SCT140 28/23 A2984 RMK TCU RN NE CB SE S=
200606090000 METAR MRLB 090000Z 25007KT 9999 FEW025 BKN140 27/23 A2986 RMK RN DST ENE=
200606090100 METAR MRLB 090100Z 25004KT 9999 FEW025 BKN140 25/23 A2988=
200606090200 METAR MRLB 090200Z 20003KT 9999 FEW025 BKN130 25/23 A2991=
200606090300 METAR MRLB NIL=
200606090400 METAR MRLB NIL=
200606090500 METAR MRLB NIL=
200606090600 METAR MRLB NIL=
200606090700 METAR MRLB NIL=
200606090800 METAR MRLB NIL=
200606090900 METAR MRLB NIL=
200606091000 METAR MRLB NIL=
200606091100 METAR MRLB NIL=
200606091200 METAR MRLB 091200Z 22002KT 9999 4000SW -DZ BR SCT008 BKN020 23/23 A2986=
200606091300 METAR MRLB 091300Z 00000KT 9999 FEW012 SCT025 BKN130 24/23 A2988 RMK RN N SE ST LOW SE NW=
200606091400 METAR MRLB 091400Z 00000KT 9999 DZ FEW007 SCT020 BKN130 24/23 A2990 RMK VIS 5KM NE=
200606091600 METAR MRLB 091600Z 23003KT 9999 FEW020 SCT130 27/24 A2991 RMK VIS 8KMS SW DUE TCU RASH RN E SE=
200606091700 METAR MRLB 091700Z 19005KT 9999 SCT025 SCT120 26/24 A2991 RMK 8000 E SE DUE RASH=
200606091800 METAR MRLB 091800Z 26010KT 9999 FEW025 BKN130 27/23 A2988 RMK TCU CB E SE=
200606091900 METAR MRLB 091900Z 28010KT 9999 SCT025 BKN130 28/23 A2985 RMK CB SE=
200606092000 METAR MRLB 092000Z 28010KT 9999 SCT025 BKN130 28/23 A2985 RMK CB SE=
200606092100 METAR MRLB 092100Z 28010KT 9999 SCT030 BKN240 28/23 A2981=
200606092200 METAR MRLB 092200Z 28011KT 9999 SCT030 BKN250 27/23 A2979 RN E SE=
200606092300 METAR MRLB 092300Z 26010KT 9999 4000SW VCSH FEW020 SCT030 OVC240 26/23 A2980=
200606100000 METAR MRLB 100000Z 26007KT 9999 SCT020 OVC110 23/22 A2983 RN S SE E=
200606100100 METAR MRLB 100100Z 07003KT 4000 RA FEW015 SCT025 OVC110 24/23 A2985=
200606100200 METAR MRLB 100200Z 08003KT 9999 -RA SCT020 OVC100 23/23 A2987=
200606100300 METAR MRLB NIL=
200606100400 METAR MRLB NIL=
200606100500 METAR MRLB NIL=
200606100600 METAR MRLB NIL=
200606100700 METAR MRLB NIL=
200606100800 METAR MRLB NIL=
200606100900 METAR MRLB NIL=
200606101000 METAR MRLB NIL=
200606101100 METAR MRLB NIL=
200606101200 METAR MRLB 101200Z 00000KT 9999 SCT020 BKN120 23/22 A2983 RMK RN DST N E=
200606101300 METAR MRLB 101300Z 11005KT 9999 -RA SCT020 BKN120 23/23 A2985=
200606101400 METAR MRLB 101400Z 12004KT 5000 -RA SCT010 BKN100 24/23 A2986=
200606101500 METAR MRLB 101500Z 11004KT 9999 SCT015 BKN250 26/24 A2987 RN NE=
200606101600 METAR MRLB 101600Z 13004KT 9999 SCT020 BKN250 27/23 A2987=
200606101700 METAR MRLB 101700Z 00000KT 9999 BKN025 SCT250 28/23 A2986 RN SW=
200606101800 METAR MRLB 101800Z 00000KT 9999 BKN020 SCT250 29/23 A2985 CB S SW=
200606101900 METAR MRLB 101900Z 26009KT 9999 4000SW -RA BKN020 26/24 A2983=
200606102000 METAR MRLB 102000Z 19005KT 9999 -RA FEW010TCU BKN120 25/24 A2980=
200606102100 METAR MRLB 102100Z 00000KT 9999 -RA FEW015 OVC120 25/24 A2979 RMK CB DST NE S=
200606102200 METAR MRLB 102200Z 27003KT 9999 -RA FEW015 OVC120 25/24 A2980=
200606102300 METAR MRLB 102300Z 00000KT 9999 FEW020 OVC120 25/24 A2981=
200606110000 METAR MRLB 110000Z 00000KT 9999 FEW020 OVC130 25/24 A2984 RMK RN DST E=
200606110100 METAR MRLB NIL=
200606110200 METAR MRLB NIL=
200606110300 METAR MRLB NIL=
200606110400 METAR MRLB NIL=
200606110500 METAR MRLB NIL=
200606110600 METAR MRLB NIL=
200606110700 METAR MRLB NIL=
200606110800 METAR MRLB NIL=
200606110900 METAR MRLB NIL=
200606111000 METAR MRLB NIL=
200606111100 METAR MRLB NIL=
200606111200 METAR MRLB 111200Z 00000KT 9999 SCT025 BKN130 22/22 A2983=
200606111300 METAR MRLB 111300Z 15002KT 9999 SCT030 BKN130 23/22 A2986 RMK DUE ST S=
200606111400 METAR MRLB 111400Z 15004KT 9999 SCT025 BKN130 24/23 A2987=
200606111500 METAR MRLB 111500Z VRB03KT 9999 DZ SCT030 BKN130 25/23 A2988=
200606111600 METAR MRLB 111600Z 14002KT 9999 FEW035 BKN250 28/24 A2987=
200606111700 METAR MRLB 111700Z 18003KT 9999 SCT035 SCT250 28/23 A2986 RMK RN DST SW=
200606111800 METAR MRLB 111800Z 25009KT 9999 SCT035 BKN250 29/24 A2985 RMK RN DST N=
200606111900 METAR MRLB 111900Z 29009KT 9999 SCT035 BKN250 29/23 A2983 RMK RN DST E=
200606112000 METAR MRLB 112000Z 28008KT 9999 FEW025 SCT035 BKN250 27/23 A2981 RMK RN DST SE=
200606112200 METAR MRLB 112200Z 29006KT 9999 SCT030 OVC240 27/23 A2981=
200606112300 METAR MRLB 112300Z 28007KT 9999 SCT035 0VC240 27/23 A2981=
200606120000 METAR MRLB 120000Z 27004KT 9999 FEW030 OVC140 26/23 A2982=
200606120100 METAR MRLB NIL=
200606120200 METAR MRLB NIL=
200606120300 METAR MRLB NIL=
200606120400 METAR MRLB NIL=
200606120500 METAR MRLB NIL=
200606120600 METAR MRLB NIL=
200606120700 METAR MRLB NIL=
200606120800 METAR MRLB NIL=
200606120900 METAR MRLB NIL=
200606121000 METAR MRLB NIL=
200606121100 METAR MRLB NIL=
200606121200 METAR MRLB 121200Z 00000KT 9999 FEW020 23/23 A2985 CB SW W=
200606121300 METAR MRLB 121300Z 36003KT 9999 FEW025 25/23 A2986 RMK CB DST WSW=
200606121400 METAR MRLB 121400Z 32004KT 9999 FEW025 SCT130 27/23 A2987=
200606121500 METAR MRLB 121500Z 34008KT 9999 FEW025 BKN130 28/23 A2988=
200606121600 METAR MRLB 121600Z 33006KT 9999 FEW030 SCT250 29/23 A2987 CB DST SW=
200606121700 METAR MRLB 121700Z 33006KT 9999 FEW030 SCT130 BKN250 30/23 A2986=
200606121800 METAR MRLB 121800Z 30006KT 9999 FEW030 OVC250 30/23 A2984=
200606121900 METAR MRLB 121900Z 29008KT 9999 SCT030 BKN250 30/23 A2981=
200606122000 METAR MRLB NIL=
200606122100 METAR MRLB NIL=
200606122200 METAR MRLB NIL=
200606122300 METAR MRLB NIL=
200606130000 METAR MRLB 130000Z 27005KT 9999 FEW030 OVC130 28/23 A2977=
200606130100 METAR MRLB NIL=
200606130200 METAR MRLB NIL=
200606130300 METAR MRLB NIL=
200606130400 METAR MRLB NIL=
200606130500 METAR MRLB NIL=
200606130600 METAR MRLB NIL=
200606130700 METAR MRLB NIL=
200606130800 METAR MRLB NIL=
200606130900 METAR MRLB NIL=
200606131000 METAR MRLB NIL=
200606131100 METAR MRLB NIL=
200606131200 METAR MRLB 131200Z 00000KT CAVOK 23/23 A2979=
200606131300 METAR MRLB 131300Z 00000KT CAVOK 25/23 A2980=
200606131400 METAR MRLB 131400Z 00000KT CAVOK 27/24 A2982=
200606131500 METAR MRLB 131500Z 00000KT CAVOK 28/24 A2985=
200606131600 METAR MRLB 131600Z 08003KT 9999 FEW030 OVC250 29/23 A2984=
200606131700 METAR MRLB 131700Z 16003KT 9999 SCT030 BKN250 30/22 A2982=
200606131800 METAR MRLB 131800Z 17006KT 9999 SCT030 BKN250 30/24 A2981=
200606131900 METAR MRLB 131900Z 15005KT 9999 FEW030 OVC250 30/24 A2978 RMK CB S=
200606132000 METAR MRLB 132000Z 00000KT 9999 SCT035 OVC250 31/25 A2976=
200606132100 METAR MRLB 132100Z 18004KT 9999 SCT030 BKN250 31/23 A2975 RN DST N NE=
200606132200 METAR MRLB 132200Z 28005KT 9999 SCT020TCU SCT120 29/24 A2974 RN DST N E=
200606132300 METAR MRLB 132300Z 32008KT 1000 TSRA SCT010CB BKN020 27/23 A2975 VIS 9999 W=
200606140000 METAR MRLB 140000Z 00000KT 9999 -RA SCT020 BKN130 24/23 A2978 TS DST SW=
200606140100 METAR MRLB NIL=
200606140200 METAR MRLB NIL=
200606140300 METAR MRLB NIL=
200606140400 METAR MRLB NIL=
200606140500 METAR MRLB NIL=
200606140600 METAR MRLB NIL=
200606140700 METAR MRLB NIL=
200606140800 METAR MRLB NIL=
200606140900 METAR MRLB NIL=
200606141000 METAR MRLB NIL=
200606141100 METAR MRLB NIL=
200606141200 METAR MRLB 141200Z 00000KT 9999 FEW025 BKN130 24/23 A2984=
200606141300 METAR MRLB 141300Z 00000KT 9999 FEW030 BKN130 24/23 A2985=
200606141400 METAR MRLB 141400Z 00000KT 9999 FEW030 BKN130 25/23 A2987=
200606141500 METAR MRLB 141500Z 00000KT 9999 FEW035 BKN130 27/24 A2988=
200606141600 METAR MRLB 141600Z 00000KT 9999 SCT035 SCT130 29/25 A2987=
200606141700 METAR MRLB 141700Z 20003KT 9999 SCT035 SCT250 29/24 A2986 RN DST S=
200606141800 METAR MRLB 141800Z 19008KT 9999 SCT030 BKN250 29/24 A2984 RN DST S E=
200606141900 METAR MRLB 141900Z 17010KT 9999 SCT030 BKN140 27/23 A2982 TS RN DST N NE=
200606142000 METAR MRLB 142000Z 06003KT 9999 SCT025 BKN130 27/23 A2982 RN DST E NE=
200606142100 METAR MRLB 142100Z 08005KT 9999 FEW030 BKN120 25/23 A2980=
200606142200 METAR MRLB 142200Z 10003KT 9999 FEW030 BKN120 26/23 A2980=
200606142300 METAR MRLB 142300Z 10003KT 9999 DZ FEW030 OVC120 25/23 A2982=
200606150000 METAR MRLB 150000Z 10003KT 9999 FEW030 OVC120 24/22 A2983 RN DST E=
200606150100 METAR MRLB NIL=
200606150200 METAR MRLB NIL=
200606150300 METAR MRLB NIL=
200606150400 METAR MRLB NIL=
200606150500 METAR MRLB NIL=
200606150600 METAR MRLB NIL=
200606150700 METAR MRLB NIL=
200606150800 METAR MRLB NIL=
200606150900 METAR MRLB NIL=
200606151000 METAR MRLB NIL=
200606151100 METAR MRLB NIL=
200606151200 METAR MRLB 151200Z 00000KT 9999 FEW025 BKN130 22/21 A2987=
200606151300 METAR MRLB 151300Z 00000KT 9999 FEW030 BKN130 23/22 A2989=
200606151400 METAR MRLB 151400Z 00000KT 9999 FEW030 SCT130 BKN250 26/23 A2990=
200606151500 METAR MRLB 151500Z 00000KT 9999 FEW030 BKN130 27/23 A2991=
200606151600 METAR MRLB 151600Z 19004KT 9999 FEW035 BKN140 28/23 A2992=
200606151700 METAR MRLB 151700Z 23003KT 9999 FEW035 BKN140 29/23 A2990=
200606151800 METAR MRLB 151800Z 23005KT 9999 SCT035 BKN250 30/24 A2987 RN E=
200606151900 METAR MRLB 151900Z 29004KT 9999 SCT030 BKN250 30/23 A2983 RN N NE=
200606152000 METAR MRLB 152000Z 31006KT 9999 FEW020TCU SCT030 BKN250 28/23 A2982=
200606152100 METAR MRLB 152100Z 30007KT 9999 FEW030 BKN240 29/24 A2980=
200606152200 METAR MRLB 152200Z 29007KT 9999 SCT030 OVC240 29/24 A2979=
200606152300 METAR MRLB 152300Z 29007KT 9999 SCT030 OVC240 28/24 A2980=
200606160000 METAR MRLB 160000Z 26005KT 9999 FEW020 SCT030 BKN130 27/23 A2982=
200606160100 METAR MRLB NIL=
200606160200 METAR MRLB NIL=
200606160300 METAR MRLB NIL=
200606160400 METAR MRLB NIL=
200606160500 METAR MRLB NIL=
200606160600 METAR MRLB NIL=
200606160700 METAR MRLB NIL=
200606160800 METAR MRLB NIL=
200606160900 METAR MRLB NIL=
200606161000 METAR MRLB NIL=
200606161100 METAR MRLB NIL=
200606161200 METAR MRLB 161200Z 00000KT 0100 FG VV// 22/22 A2983=
200606161300 METAR MRLB 161300Z 00000KT 9999 2000E BR FEW002 SCT005 23/22 A2984=
200606161400 METAR MRLB 161400Z VRB03KT 9999 SCT010 24/23 A2984=
200606161500 METAR MRLB 161500Z 36006KT 9999 SCT025 26/22 A2985=
200606161600 METAR MRLB 161600Z 00000KT 9999 FEW030 28/24 A2985=
200606161700 METAR MRLB 161700Z 09003KT 9999 SCT030 30/24 A2983=
200606161800 METAR MRLB 161800Z 00000KT 9999 SCT030 31/23 A2981=
200606161900 METAR MRLB 161900Z 12006KT 9999 BKN030 31/22 A2980=
200606162000 METAR MRLB 162000Z 16004KT 9999 SCT030 BKN250 32/23 A2978=
200606162100 METAR MRLB 162100Z 26008KT 9999 SCT030 BKN250 31/24 A2975=
200606162200 METAR MRLB 162200Z 27008KT 9999 -RA SCT020TCU BKN250 29/24 A2974 RMK RASH DST S=
200606162300 METAR MRLB 162300Z 30007KT 9999 FEW030 BKN130 28/24 A2976 TS DST S=
200606170000 METAR MRLB 170000Z 28004KT 9999 SCT015TCU BKN130 27/24 A2980 RMK RASH DST S=
200606170100 METAR MRLB NIL=
200606170200 METAR MRLB NIL=
200606170300 METAR MRLB NIL=
200606170400 METAR MRLB NIL=
200606170500 METAR MRLB NIL=
200606170600 METAR MRLB NIL=
200606170700 METAR MRLB NIL=
200606170800 METAR MRLB NIL=
200606170900 METAR MRLB NIL=
200606171000 METAR MRLB NIL=
200606171100 METAR MRLB NIL=
200606171200 METAR MRLB 171200Z 01004KT 0200 FG VV/// 23/22 A2980=
200606171300 METAR MRLB 171300Z 00000KT 9999 FEW005 SCT130 25/23 A2983=
200606171400 METAR MRLB 171400Z 00000KT 9999 FEW030 SCT140 26/24 A2984=
200606171500 METAR MRLB 171500Z 00000KT 9999 FEW030 SCT140 28/24 A2984=
200606171600 METAR MRLB 171600Z 00000KT 9999 SCT030 SCT130 29/24 A2984=
200606171700 METAR MRLB 171700Z 06010KT 9999 FEW030 SCT130 30/22 A2984=
200606171800 METAR MRLB 171800Z 07012KT 9999 SCT035 BKN250 31/22 A2982=
200606171900 METAR MRLB 171900Z 07011KT 9999 FEW035 BKN140 31/22 A2980 RMK CB DST N E SW=
200606172000 METAR MRLB 172000Z 07014KT 9999 FEW035 BKN130 31/22 A2979 RMK CB DST E/S=
200606172100 METAR MRLB 172100Z 06017KT CAVOK 30/22 A2979=
200606172200 METAR MRLB 172200Z 08011KT 9999 FEW040 OVC130 28/21 A2977=
200606172300 METAR MRLB 172300Z 10008KT 9999 FEW040 0VC130 28/21 A2976 RMK RN SW S=
200606180000 METAR MRLB 180000Z 11009KT CAVOK 27/21 A2974 RMK RN DST S=
200606180100 METAR MRLB NIL=
200606180200 METAR MRLB NIL=
200606180300 METAR MRLB NIL=
200606180400 METAR MRLB NIL=
200606180500 METAR MRLB NIL=
200606180600 METAR MRLB NIL=
200606180700 METAR MRLB NIL=
200606180800 METAR MRLB NIL=
200606180900 METAR MRLB NIL=
200606181000 METAR MRLB NIL=
200606181100 METAR MRLB NIL=
200606181200 METAR MRLB 181200Z 04002KT CAVOK 22/20 A2982=
200606181300 METAR MRLB 181300Z 00000KT CAVOK 26/22 A2984=
200606181400 METAR MRLB 181400Z 29003KT CAVOK 27/23 A2985=
200606181500 METAR MRLB 181500Z 09010KT CAVOK 29/21 A2985=
200606181600 METAR MRLB 181600Z 10008KT CAVOK 30/22 A2984=
200606181700 METAR MRLB 181700Z 08007KT 9999 FEW030 SCT250 31/21 A2984=
200606181800 METAR MRLB 181800Z 09007KT 9999 FEW035 BKN250 31/21 A2981=
200606181900 METAR MRLB 181900Z 10006KT 9999 FEW035 BKN250 32/22 A2980=
200606182000 METAR MRLB NIL=
200606182100 METAR MRLB NIL=
200606182200 METAR MRLB NIL=
200606182300 METAR MRLB NIL=
200606190000 METAR MRLB 190000Z 28003KT 9999 FEW035 BKN250 29/23 A2977=
200606190100 METAR MRLB NIL=
200606190200 METAR MRLB NIL=
200606190300 METAR MRLB NIL=
200606190400 METAR MRLB NIL=
200606190500 METAR MRLB NIL=
200606190600 METAR MRLB NIL=
200606190700 METAR MRLB NIL=
200606190800 METAR MRLB NIL=
200606190900 METAR MRLB NIL=
200606191000 METAR MRLB NIL=
200606191100 METAR MRLB NIL=
200606191200 METAR MRLB 191200Z 30003KT CAVOK 22/21 A2980=
200606191300 METAR MRLB 191300Z 35002KT CAVOK 25/22 A2982 HZ ARND=
200606191400 METAR MRLB 191400Z 03003KT CAVOK 27/23 A2982=
200606191500 METAR MRLB 191500Z 26003KT CAVOK 29/23 A2984=
200606191600 METAR MRLB 191600Z 08011KT 9999 FEW035 SCT270 30/22 A2983=
200606191700 METAR MRLB 191700Z 08016KT 9999 FEW035 SCT270 31/21 A2983=
200606191800 METAR MRLB 191800Z 10007KT 9999 FEW035 SCT270 32/22 A2981=
200606191900 METAR MRLB 191900Z 10008KT 9999 SCT035 32/22 A2979=
200606192000 METAR MRLB 192000Z 08007KT 9999 SCT035 SCT260 32/22 A2978=
200606192100 METAR MRLB 192100Z 08009KT 9999 FEW035 SCT260 32/21 A2976=
200606192200 METAR MRLB 192200Z 05012KT 9999 FEW035 BKN260 32/22 A2977=
200606192300 METAR MRLB 192300Z 06010KT 9999 FEW035 BKN250 30/21 A2078=
200606200000 METAR MRLB 200000Z 07006KT 9999 FEW035 BKN250 29/22 A2980=
200606200100 METAR MRLB NIL=
200606200200 METAR MRLB NIL=
200606200300 METAR MRLB NIL=
200606200400 METAR MRLB NIL=
200606200500 METAR MRLB NIL=
200606200600 METAR MRLB NIL=
200606200700 METAR MRLB NIL=
200606200800 METAR MRLB NIL=
200606200900 METAR MRLB NIL=
200606201000 METAR MRLB NIL=
200606201100 METAR MRLB NIL=
200606201200 METAR MRLB NIL=
200606201300 METAR MRLB 201300Z 00000KT CAVOK 25/22 A2982 RMK BKN250 CB/RN DST N=
200606201400 METAR MRLB 201400Z 000000KT CAVOK 27/23 A2982=
200606201500 METAR MRLB 201500Z 09011KT CAVOK 27/23 A2982=
200606201600 METAR MRLB 201600Z 08012KT CAVOK 31/21 A2981=
200606201700 METAR MRLB 201700Z 07012KT 9999 FEW035 BKN250 31/22 A2982=
200606201800 METAR MRLB 201800Z 07015KT 9999 SCT035 BKN250 32/22 A2980=
200606201900 METAR MRLB 201900Z 08013KT 9999 SCT035 BKN250 32/22 A2978=
200606202000 METAR MRLB 202000Z 09012KT 9999 SCT035 BKN250 31/22 A2978=
200606202100 METAR MRLB 202100Z 10011KT 9999 SCT035 BKN250 31/21 A2977=
200606202200 METAR MRLB 202200Z 06009KT 9999 FEW035 BKN250 31/22 A2976=
200606202300 METAR MRLB 202300Z 06012KT CAVOK 30/22 A2975=
200606210000 METAR MRLB 210000Z 07011KT CAVOK 29/21 A2979=
200606210100 METAR MRLB NIL=
200606210200 METAR MRLB NIL=
200606210300 METAR MRLB NIL=
200606210400 METAR MRLB NIL=
200606210500 METAR MRLB NIL=
200606210600 METAR MRLB NIL=
200606210700 METAR MRLB NIL=
200606210800 METAR MRLB NIL=
200606210900 METAR MRLB NIL=
200606211000 METAR MRLB NIL=
200606211100 METAR MRLB NIL=
200606211200 METAR MRLB 211200Z 21005KT CAVOK 24/22 A2979 SCT140 CB S DST=
200606211300 METAR MRLB 211300Z 20004KT CAVOK 25/23 A2981=
200606211400 METAR MRLB 211400Z 00000KT 9999 SCT040 BKN250 28/23 A2983=
200606211500 METAR MRLB 211500Z 00000KT 9999 FEW040 BKN250 29/23 A2984=
200606211600 METAR MRLB 211600Z 09010KT 9999 FEW035 SCT140 BKN250 30/22 A2984=
200606211700 METAR MRLB 211700Z 09014KT 9999 FEW035 BKN130 31/22 A2985=
200606211800 METAR MRLB 211800Z 06014KT 9999 FEW035 BKN130 31/22 A2983=
200606211900 METAR MRLB 211900Z 10007KT 9999 SCT030 BKN120 32/22 A2982 RMK RN DST N NE=
200606212000 METAR MRLB 212000Z 06018KT 9999 FEW025 BKN120 28/21 A2980 RMK RN DST N S SW=
200606212100 METAR MRLB 212100Z 09008KT CAVOK 29/21 A2977 RMK CB DST SSW=
200606212200 METAR MRLB 212200Z 12004KT CAVOK 30/22 A2978 RMK BKN130 CB DST NE=
200606212300 METAR MRLB 212300Z 06010KT 9999 FEW035 BKN130 29/22 RMK RN DST N/S=
200606220000 METAR MRLB 220000Z 11005KT 9999 FEW035 OVC130 28/22 A2982 RMK RN DST N/S=
200606220100 METAR MRLB NIL=
200606220200 METAR MRLB NIL=
200606220300 METAR MRLB NIL=
200606220400 METAR MRLB NIL=
200606220500 METAR MRLB NIL=
200606220600 METAR MRLB NIL=
200606220700 METAR MRLB NIL=
200606220800 METAR MRLB NIL=
200606220900 METAR MRLB NIL=
200606221000 METAR MRLB NIL=
200606221100 METAR MRLB NIL=
200606221200 METAR MRLB 221200Z 00000KT CAVOK 23/22 A2983=
200606221300 METAR MRLB 221300Z 00000KT 9999 FEW030 BKN250 25/23 A2985=
200606221400 METAR MRLB 221400Z 00000KT 9999 FEW035 BKN250 28/23 A2986=
200606221500 METAR MRLB 221500Z 16003KT 9999 FEW035 BKN250 29/23 A2987=
200606221600 METAR MRLB 221600Z 18004KT 9999 SCT035 SCT250 29/23 A2988=
200606221700 METAR MRLB 221700Z 19004KT 9999 SCT035 SCT250 30/24 A2987=
200606221800 METAR MRLB 221800Z 23002KT 9999 SCT030 BKN250 31/23 A2984=
200606221900 METAR MRLB 221900Z 28009KT 9999 FEW020TCU SCT030 BKN250 27/23 A2982 RMK RN DST N/NE=
200606222000 METAR MRLB 222000Z 26007KT 9999 VCSH SCT025 BKN140 27/25 A2980 RMK VIS SW 6KMS=
200606222100 METAR MRLB 222100Z 27008KT 9999 SCT030 BKN140 27/24 A2978=
200606222200 METAR MRLB 222200Z 29003KT 9999 DZ SCT020 BKN130 27/24 A2979=
200606222300 METAR MRLB 222300Z 00000KT 9999 SCT030 BKN120 24/22 A2979=
200606230000 METAR MRLB 230000Z 10003KT 9999 SCT025 OVC120 24/23 A2981 RMK RN DST E NE=
200606230100 METAR MRLB NIL=
200606230200 METAR MRLB NIL=
200606230300 METAR MRLB NIL=
200606230400 METAR MRLB NIL=
200606230500 METAR MRLB NIL=
200606230600 METAR MRLB NIL=
200606230700 METAR MRLB NIL=
200606230800 METAR MRLB NIL=
200606230900 METAR MRLB NIL=
200606231000 METAR MRLB NIL=
200606231100 METAR MRLB NIL=
200606231200 METAR MRLB 231200Z 13002KT 9999 FEW025 BKN130 23/22 A2981=
200606231300 METAR MRLB 231300Z 00000KT 9999 FEW020 SCT130 BKN250 23/22 A2983=
200606231400 METAR MRLB 231400Z 05003KT 9999 SCT030 BKN250 25/24 A2984=
200606231500 METAR MRLB 231500Z 20003KT 9999 FEW030 BKN250 28/24 A2985=
200606231600 METAR MRLB 231600Z 23007KT 9999 SCTCT035 BKN250 29/24 A2985=
200606231700 METAR MRLB 231700Z 12004KT 9999 SCT030 BKN250 30/24 A2985=
200606231800 METAR MRLB 231800Z 10007KT 9999 SCT035 OVC250 31/23 A2983=
200606231900 METAR MRLB 231900Z 07011KT 9999 SCT035 OVC250 32/23 A2980=
200606232000 METAR MRLB 232000Z 08008KT 9999 SCT035 BKN140 30/23 A2979=
200606232100 METAR MRLB 232100Z 08009KT 9999 FEW035 BKN140 31/22 A2977=
200606232200 METAR MRLB 232200Z 08010KT 9999 FEW035 OVC140 30/23 A2976=
200606232300 METAR MRLB 232300Z 09008KT 9999 FEW035 OVC140 29/22 A2976=
200606240000 METAR MRLB 240000Z 10005KT 9999 FEW035 BKN140 28/22 A2976=
200606240100 METAR MRLB NIL=
200606240200 METAR MRLB NIL=
200606240300 METAR MRLB NIL=
200606240400 METAR MRLB NIL=
200606240500 METAR MRLB NIL=
200606240600 METAR MRLB NIL=
200606240700 METAR MRLB NIL=
200606240800 METAR MRLB NIL=
200606240900 METAR MRLB NIL=
200606241000 METAR MRLB NIL=
200606241100 METAR MRLB NIL=
200606241200 METAR MRLB NIL=
200606241300 METAR MRLB 241300Z 00000KT CAVOK 25/23 A2980 CB DST SW SCT250=
200606241400 METAR MRLB 241400Z 27004KT 9999 FEW030 OVC250 27/24 A2982=
200606241500 METAR MRLB 241500Z 23004KT 9999 SCT030 BKN250 28/25 A2983=
200606241600 METAR MRLB 241600Z 19005KT 9999 BKN030 29/23 A2984=
200606241700 METAR MRLB 241700Z 00000KT 9999 BKN030 30/24 A2983=
200606241800 METAR MRLB 241800Z 27005KT 9999 BKN025 SCT250 30/24 A2980 TCU N S RN DST NW=
200606241900 METAR MRLB 241900Z 27009KT 9999 SCT020TCU SCT025 28/24 A2979 RMK RN=
200606242000 METAR MRLB 242000Z 27008KT 9999 FEW020TCU SCT120 28/26 A2976 RN DST NE E S=
200606242100 METAR MRLB 242100Z 26010KT 9999 FEW020TCU SCT025 29/25 A2975 RASH N NE E=
200606242200 METAR MRLB 242200Z 11012KT 1000 +RA BKN010 SCT100 25/23 2978 TS E=
200606242300 METAR MRLB 242300Z 00000KT 9999 -RA FEW010 OVC100 23/22 A2978 TS N=
200606250000 METAR MRLB 250000Z 01005KT 9999 -RA FEW010 OVC100 23/22 A2979=
200606250100 METAR MRLB NIL=
200606250200 METAR MRLB NIL=
200606250300 METAR MRLB NIL=
200606250400 METAR MRLB NIL=
200606250500 METAR MRLB NIL=
200606250600 METAR MRLB NIL=
200606250700 METAR MRLB NIL=
200606250800 METAR MRLB NIL=
200606250900 METAR MRLB NIL=
200606251000 METAR MRLB NIL=
200606251100 METAR MRLB NIL=
200606251200 METAR MRLB 251200Z 00000KT CAVOK 23/22 A2980=
200606251300 METAR MRLB 251300Z 00000KT CAVOK 24/23 A2982 RMK BKN140=
200606251400 METAR MRLB 251400Z 00000KT 9999 FEW015 BKN140 25/23 A2983=
200606251500 METAR MRLB 251500Z 00000KT CAVOK 26/23 A2983=
200606251600 METAR MRLB 251600Z 00000KT 9999 FEW020 BKN140 28/24 A2984=
200606251700 METAR MRLB 251700Z 24003KT 9999 FEW025 BKN140 29/24 A2983=
200606251800 METAR MRLB 251800Z 22004KT 9999 SCT030 BKR140 30/24 A2981=
200606252000 METAR MRLB 252000Z 16003KT 9999 SCT025TCU BKN130 31/24 A2976 RN NE NW=
200606252100 METAR MRLB 252100Z 29007KT 9999 SCT020TCU SCT130 29/24 A2974 RMK SHRA DST N E CB DST S=
200606252200 METAR MRLB 252200Z 36005KT 9999 FEW020 BKN130 28/23 A2973 RNK TCU SHRA DST S SW=
200606252300 METAR MRLB 252300Z 25005KT 9999 SCT020 BKN120 29/24 A2974 RMK SHRA DST E S SW=
200606260000 METAR MRLB 260000Z 15006KT 9999 SCT020 BKN120 23/22 A2979 RMK RN DST N E S SW=
200606260100 METAR MRLB NIL=
200606260200 METAR MRLB NIL=
200606260300 METAR MRLB NIL=
200606260400 METAR MRLB NIL=
200606260500 METAR MRLB NIL=
200606260600 METAR MRLB NIL=
200606260700 METAR MRLB NIL=
200606260800 METAR MRLB NIL=
200606260900 METAR MRLB NIL=
200606261000 METAR MRLB NIL=
200606261100 METAR MRLB NIL=
200606261200 METAR MRLB 261200Z 22002KT 9999 4000SW BR SCT003 BKN250 22/22 A2979=
200606261300 METAR MRLB 261300Z VRB03KT 1000 BR SCT002 SCT008 23/22 A2981=
200606261400 METAR MRLB 261400Z 04002KT 9999 SCT030 SCT250 25/24 A2992=
200606261500 METAR MRLB 261500Z 17004KT 9999 FEW035 SCT130 27/24 A2982=
200606261600 METAR MRLB 261600Z 17006KT 9999 FEW035 SCT250 28/24 A2982=
200606261700 METAR MRLB 261700Z 12008KT 9999 FEW035 BKN250 29/23 A2980=
200606261800 METAR MRLB NIL=
200606261900 METAR MRLB 261900Z VRB03KT 9999 FEW035 BKN250 30/24 A2979=
200606262000 METAR MRLB 262000Z 13005KT 9999 SCT035 BKN250 31/23 A2976=
200606262100 METAR MRLB 262100Z 10008KT 9999 FEW035 BKN250 31/22 A2973=
200606262200 METAR MRLB 262200Z 00000KT 9999 FEW035 OVC250 31/22 A2972=
200606262300 METAR MRLB 262300Z 9006KT 9999 -RA SCT025 BKN130 27/23 A2974=
200606270000 METAR MRLB NIL=
200606270100 METAR MRLB NIL=
200606270200 METAR MRLB NIL=
200606270300 METAR MRLB NIL=
200606270400 METAR MRLB NIL=
200606270500 METAR MRLB NIL=
200606270600 METAR MRLB NIL=
200606270700 METAR MRLB NIL=
200606270800 METAR MRLB NIL=
200606270900 METAR MRLB NIL=
200606271000 METAR MRLB NIL=
200606271100 METAR MRLB NIL=
200606271200 METAR MRLB 271200Z 26003KT CAVOK 22/21 A2980=
200606271300 METAR MRLB 271300Z 28004KT CAVOK 24/22 A2981=
200606271400 METAR MRLB 271400Z 05004KT CAVOK 25/23 A2981=
200606271500 METAR MRLB 271500Z 25002KT CAVOK 27/23 A2982=
200606271600 METAR MRLB 271600Z 30003KT 9999 FEW035 BKN250 30/23 A2982=
200606271700 METAR MRLB 271700Z 09008KT 9999 FEW035 BKN250 31/23 A2982=
200606271800 METAR MRLB 271800Z 36012KT 9999 FEW025TCU SCT240 30/25 A2982 CB NW W TUC S HZY=
200606271900 METAR MRLB 271900Z 06011KT 9999 FEW035 SCT250 31/23 A2978=
200606272000 METAR MRLB 272000Z 08008KT 9999 SCT035 SCT250 32/23 A2977=
200606272100 METAR MRLB 272100Z 07008KT 9999 SCT035 BKN250 31/22 A2975=
200606272200 METAR MRLB 272200Z 12005KT 9999 SCT035 BKN250 30/23 A2975=
200606272300 METAR MRLB 272300Z 00000KT 9999 SCT030 BKN140 31/24 A2976=
200606280000 METAR MRLB 280000Z 10005KT 9999 SCT035 OVC240 29/23 A2977=
200606280100 METAR MRLB NIL=
200606280200 METAR MRLB NIL=
200606280300 METAR MRLB NIL=
200606280400 METAR MRLB NIL=
200606280500 METAR MRLB NIL=
200606280600 METAR MRLB NIL=
200606280700 METAR MRLB NIL=
200606280800 METAR MRLB NIL=
200606280900 METAR MRLB NIL=
200606281000 METAR MRLB NIL=
200606281100 METAR MRLB NIL=
200606281200 METAR MRLB 281200Z 08005KT CAVOK 26/22 A2979=
200606281300 METAR MRLB 281300Z 04006KT 9999 BKN040 27/23 A2981 RMK RN E=
200606281400 METAR MRLB 281400Z 10008KT 9999 -RA FEW030 BKN100 26/22 A2983=
200606281500 METAR MRLB 281500Z 16005KT 9999 -RA FEW030 OVC120 25/23 A2986=
200606281600 METAR MRLB 281600Z 08011KT 9999 -RA FEW030 OVC120 25723 A2987=
200606281700 METAR MRLB 281700Z 07012KT 9999 -RA FEW025 OVC120 24/23 A2986=
200606281800 METAR MRLB 281800Z 05006KT 9999 -RA FEW025 OVC120 25/23 A2984=
200606281900 METAR MRLB 281900Z 27003KT 9999 -RA FEW025 OVC120 25/24 A2980=
200606282000 METAR MRLB 282000Z 17007KT 9999 FEW010 OVC130 25/24 A2978=
200606282100 METAR MRLB 282100Z 13007KT 9999 SCT035 BKN130 26/24 A2977=
200606282200 METAR MRLB 282200Z 09005KT 9999 SCT035 BKN120 26/24 A2977=
200606282300 METAR MRLB 282300Z 06004KT 9999 FEW030 OVC120 27/24 A2978=
200606290000 METAR MRLB 290000Z 03003KT 9999 FEW035 OVC130 26/24 A2980=
200606290100 METAR MRLB NIL=
200606290200 METAR MRLB NIL=
200606290300 METAR MRLB NIL=
200606290400 METAR MRLB NIL=
200606290500 METAR MRLB NIL=
200606290600 METAR MRLB NIL=
200606290700 METAR MRLB NIL=
200606290800 METAR MRLB NIL=
200606290900 METAR MRLB NIL=
200606291000 METAR MRLB NIL=
200606291100 METAR MRLB NIL=
200606291200 METAR MRLB 291200Z 08005KT 9999 -RA FEW030 BKN120 25/23 A2979=
200606291300 METAR MRLB 291300Z 08007KT 9999 SCT030 BKN120 26/23 A2980 RN DST N NE E=
200606291400 METAR MRLB 291400Z 10005KT 9999 FEW030 BKN120 27/24 A2981 RN DST E=
200606291500 METAR MRLB 291500Z 06004KT 9999 FEW030 BKN120 28/24 A2982=
200606291600 METAR MRLB 291600Z 07015KT 9999 FEW030 SCT130 BKN250 30/23 A2980 RN DST SE S=
200606291700 METAR MRLB 291700Z 08017KT 9999 FEW030 BKN120 30/23 A2979 RN DST E=
200606291800 METAR MRLB 291800Z 07015KT 9999 SCT025 BKN120 30/23 A2979 RN DST E SE S=
200606291900 METAR MRLB 291900Z 12011KT 9999 SCT025 BKN120 28/23 A2978 RN DST NE E S SW=
200606292100 METAR MRLB 292100Z 12004KT 9999 FEW030 BKN120 30/25 A2974 CB N RN E=
200606292200 METAR MRLB 292200Z 17012KT 9999 -RA FEW030 OVC100 26/23 A2976=
200606292300 METAR MRLB 292300Z 07006KT 9999 -RA FEW030 OVC100 27/24 A2076=
200606300000 METAR MRLB 300000Z 10005KT 9999 FEW030 OVC100 25/24 A2976 RN DST N NE E=
200606300100 METAR MRLB NIL=
200606300200 METAR MRLB NIL=
200606300300 METAR MRLB NIL=
200606300400 METAR MRLB NIL=
200606300500 METAR MRLB NIL=
200606300600 METAR MRLB NIL=
200606300700 METAR MRLB NIL=
200606300800 METAR MRLB NIL=
200606300900 METAR MRLB NIL=
200606301000 METAR MRLB NIL=
200606301100 METAR MRLB NIL=
200606301200 METAR MRLB NIL=
200606301300 METAR MRLB 301300Z 20003KT 9999 FEW035 BKN120 25/22 A2977=
200606301400 METAR MRLB 301400Z 05004KT 9999 SCT030 BKN120 27/22 A2978 RN E NE=
200606301500 METAR MRLB 301500Z 07014KT 9999 SCT035 BKN130 28/22 A2977=
200606301600 METAR MRLB 301600Z 07013KT 9999 FEW035 BKN130 28/22 A2976 RN E=
200606301700 METAR MRLB 301700Z 08014KT 9999 SCT035 BKN130 28/22 A2975=
200606301800 METAR MRLB 301800Z 07018KT 9999 FEW025 BKN140 29/23 A2973=
200606301900 METAR MRLB 301900Z 08016KT 9999 FEW035 OVC140 30/22 A2970=
200606302000 METAR MRLB 302000Z 10013KT 9999 FEW035 BKN140 31/23 A2967=
200606302100 METAR MRLB 302100Z 09014KT 9999 FEW035 OVC140 30/23 A2966=
200606302200 METAR MRLB 302200Z 10015KT 9999 SCT035 BKN140 29/22 A2968=
200606302300 METAR MRLB 302300Z 09015KT 9999 FEW035 BKN130 29/22 A2968=
200607010000 METAR MRLB 010000Z 09016KT 9999 FEW035 BKN130 28/22 A2970=
200607010100 METAR MRLB NIL=
200607010200 METAR MRLB NIL=
200607010300 METAR MRLB NIL=
200607010400 METAR MRLB NIL=
200607010500 METAR MRLB NIL=
200607010600 METAR MRLB NIL=
200607010700 METAR MRLB NIL=
200607010800 METAR MRLB NIL=
200607010900 METAR MRLB NIL=
200607011000 METAR MRLB NIL=
200607011100 METAR MRLB NIL=
200607011200 METAR MRLB 011200Z 22003KT 9999 FEW030 SCT250 25/22 A2976=
200607011300 METAR MRLB 011300Z 24006KT 9999 FEW035 SCT250 26/23 A2977=
200607011400 METAR MRLB 011400Z 08003KT 9999 FEW035 BKN270 29/23 A2977=
200607011500 METAR MRLB 011500Z 06013KT 9999 FEW035 SCT270 30/23 A2977=
200607011600 METAR MRLB 011600Z 09014KT 9999 SCT035 SCT270 31/22 A2976=
200607011700 METAR MRLB 011700Z 08015KT 9999 FEW035 BKN250 31/23 A2974=
200607011800 METAR MRLB 011800Z 09015KT 9999 SCT035 BKN250 32/23 A2973=
200607011900 METAR MRLB 011900Z 08013KT 9999 SCT035 BKN250 32/23 A2973=
200607012000 METAR MRLB 012000Z 07007KT 9999 SCT035 OVC250 32/24 A2973=
200607012100 METAR MRLB 012100Z 09012KT 9999 SCT035 OVC250 32/23 A2971=
200607012200 METAR MRLB 012200Z 07010KT 9999 FEW035 BKN250 32/23 A2971=
200607012300 METAR MRLB 012300Z 07011KT CAVOK 31/23 A2972=
200607020000 METAR MRLB NIL=
200607020100 METAR MRLB NIL=
200607020200 METAR MRLB NIL=
200607020300 METAR MRLB NIL=
200607020400 METAR MRLB NIL=
200607020500 METAR MRLB NIL=
200607020600 METAR MRLB NIL=
200607020700 METAR MRLB NIL=
200607020800 METAR MRLB NIL=
200607020900 METAR MRLB NIL=
200607021000 METAR MRLB NIL=
200607021100 METAR MRLB NIL=
200607021200 METAR MRLB 021200Z 00000KT CAVOK 25/23 A2980=
200607021300 METAR MRLB 021300Z 00000KT CAVOK 25/23 A2982 RMK OVC250=
200607021400 METAR MRLB 021400Z 09011KT CAVOK 29/23 A2983 OVC250=
200607021500 METAR MRLB 021500Z 10014KT CAVOK 30/23 A2982 RMK OVC250=
200607021600 METAR MRLB 021600Z 09010KT CAVOK 31/23 A2981 RMK OVC250=
200607021700 METAR MRLB 021700Z 10012KT 9999 FEW035 OVC250 31/23 A2978=
200607021800 METAR MRLB 021800Z 09012KT 9999 FEW035 OVC250 32/23 A2978=
200607021900 METAR MRLB 021900Z 08011KT 9999 FEW035 OVC250 32/23 A2977=
200607022000 METAR MRLB 022000Z 08012KT 9999 SCT035 BKN250 33/24 A2975=
200607022100 METAR MRLB 022100Z 09007KT 9999 SCT035 BKN250 33/23 A2975=
200607022200 METAR MRLB 022200Z 10006KT 9999 SCT035 BKN250 31/24 A2976 RMK RN N NE=
200607022300 METAR MRLB 022300Z 09006KT 9999 SCT030 SCT130 29/24 A2977 RMK RN E=
200607030000 METAR MRLB 030000Z 08006KT 9999 SCT030 SCT250 28/24 A2980 RMK RN DST W=
200607030100 METAR MRLB NIL=
200607030200 METAR MRLB NIL=
200607030300 METAR MRLB NIL=
200607030400 METAR MRLB NIL=
200607030500 METAR MRLB NIL=
200607030600 METAR MRLB NIL=
200607030700 METAR MRLB NIL=
200607030800 METAR MRLB NIL=
200607030900 METAR MRLB NIL=
200607031000 METAR MRLB NIL=
200607031100 METAR MRLB NIL=
200607031200 METAR MRLB 031200Z 00000KT 9999 FEW040 OVC140 23/21 A2987=
200607031300 METAR MRLB 031300Z 00000KT 9999 FEW040 OVC140 23/22 A2988=
200607031400 METAR MRLB 031400Z 00000KT SCT040 BKN250 26/23 A2988=
200607031500 METAR MRLB 031500Z 00000KT 9999 FEW040 OVC140 23/22 A2988=
200607031600 METAR MRLB 031600Z 00000KT 9999 SCT030 SCT100 29/25 A2989 RMK RN E SE=
200607031700 METAR MRLB 031700Z 14003KT 9999 FEW030 SCT120 BKN250 30/25 A2988=
200607031800 METAR MRLB 031800Z 12005KT 9999 SCT030 BKN250 31/25 A2986=
200607031900 METAR MRLB 031900Z 12006KT 9999 FEW035 OVC250 31/24 A2984=
200607032000 METAR MRLB 032000Z 29007KT 9999 BKN030 31/25 A2982=
200607032100 METAR MRLB 032100Z 29010KT 9999 3000NE -RA SCT020TCU BKN120 29/25 A2981 TS E DST=
200607032200 METAR MRLB 032200Z 29004KT 9999 FEW020 OVC100 27/25 A2980 CB DST E S SW=
200607032300 METAR MRLB 032300Z 21004KT 9999 FEW015 OVC120 27/26 A2982 CB DST NE=
200607040000 METAR MRLB 040000Z 16005KT 9999 FEW020 OVC120 28/24 A2980 CB RN DST E/S=
200607040100 METAR MRLB NIL=
200607040200 METAR MRLB NIL=
200607040300 METAR MRLB NIL=
200607040400 METAR MRLB NIL=
200607040500 METAR MRLB NIL=
200607040600 METAR MRLB NIL=
200607040700 METAR MRLB NIL=
200607040800 METAR MRLB NIL=
200607040900 METAR MRLB NIL=
200607041000 METAR MRLB NIL=
200607041100 METAR MRLB NIL=
200607041200 METAR MRLB 041200Z 00000KT 9999 SCT030 BKN250 24/23 A2984=
200607041300 METAR MRLB 041300Z 18004KT 9999 FEW030 BKN250 25/24 A2985=
200607041400 METAR MRLB 041400Z 29003KT 9999 FEW035 OVC250 27/25 A2985=
200607041500 METAR MRLB 041500Z 00000KT 9999 FEW035 OVC250 28/25 A2987=
200607041700 METAR MRLB 041700Z 35004KT 9999 SCT035 OVC250 30/25 A2986=
200607041800 METAR MRLB 041800Z 05016KT 9999 SCT035 BKN140 30/23 A2984 RN DST NE=
200607041900 METAR MRLB 041900Z 08013KT 9999 FEW035 BKN140 29/23 A2980=
200607042000 METAR MRLB 042000Z 08009KT 9999 FEW035 BKN130 29/22 A2978=
200607042100 METAR MRLB 042100Z 10009KT 9999 FEW035 BKN130 28/22 A2976=
200607042200 METAR MRLB 042200Z 10011KT 9999 FEW035 OVC130 28/22 A2977=
200607042300 METAR MRLB 042300Z 10009KT 9999 FEW030 OVC130 27/22 A2978=
200607050000 METAR MRLB 050000Z 09011KT 9999 FEW030 BKN130 27/22 A2979=
200607050100 METAR MRLB NIL=
200607050200 METAR MRLB NIL=
200607050300 METAR MRLB NIL=
200607050400 METAR MRLB NIL=
200607050500 METAR MRLB NIL=
200607050600 METAR MRLB NIL=
200607050700 METAR MRLB NIL=
200607050800 METAR MRLB NIL=
200607050900 METAR MRLB NIL=
200607051000 METAR MRLB NIL=
200607051100 METAR MRLB NIL=
200607051200 METAR MRLB 051200Z 12003KT 9999 FEW030 BKN140 23/21 A2984=
200607051300 METAR MRLB 051300Z 14003KT 9999 FEW030 BKN140 23/22 A2987=
200607051400 METAR MRLB 051400Z 19003KT 9999 FEW035 BKN140 25/23 A2988=
200607051500 METAR MRLB 051500Z 18004KT 9999 FEW035 OVC240 27/24 A2988=
200607051600 METAR MRLB 051600Z 20004KT 9999 FEW035 SCT130 OVC240 28/24 A2987=
200607051700 METAR MRLB 051700Z 20004KT 9999 FEW035 OVC240 29/24 A2987=
200607051800 METAR MRLB 051800Z 18005KT 9999 SCT035 OVC240 29/25 A2986=
200607051900 METAR MRLB 051900Z 13005KT 9999 SCT035 BKN140 30/23 A2984=
200607052000 METAR MRLB 052000Z 13005KT 9999 SCT035 OVC130 29/22 A2982=
200607052100 METAR MRLB 052100Z 12004KT 9999 SCT035 OVC130 28/23 A2983=
200607052200 METAR MRLB 052200Z 13004KT 9999 FEW035 OVC130 28/23 A2981=
200607052300 METAR MRLB 052300Z 00000KT 9999 FEW035 BKN130 28/23 A2982=
200607060000 METAR MRLB 060000Z VRB03KT 9999 FEW030 OVC130 27/23 A2984=
200607060100 METAR MRLB 060100Z 00000KT 9999 FEW035 BKN130 26/23 A2985=
200607060200 METAR MRLB 060200Z 24004KT 9999 FEW030 BKN130 25/22 A2987=
200607060300 METAR MRLB NIL=
200607060400 METAR MRLB NIL=
200607060500 METAR MRLB NIL=
200607060600 METAR MRLB NIL=
200607060700 METAR MRLB NIL=
200607060800 METAR MRLB NIL=
200607060900 METAR MRLB NIL=
200607061000 METAR MRLB NIL=
200607061100 METAR MRLB NIL=
200607061200 METAR MRLB 061200Z 00000KT CAVOK 23/22 A2986 SCT140 CB DST S SW=
200607061300 METAR MRLB 061300Z 16004KT 9999 SCT040 SCT100 24/23 A2990=
200607061400 METAR MRLB 061400Z 00000KT CAVOK 26/23 A2990=
200607061500 METAR MRLB 061500Z 18003KT CAVOK 27/23 A2990=
200607061600 METAR MRLB 061600Z 19004KT 9999 FEW030 28/24 A2989=
200607061700 METAR MRLB 061700Z 18005KT 9999 FEW035 30/24 A2987=
200607061800 METAR MRLB 061800Z 07004KT 9999 FEW035 31/23 A2985=
200607061900 METAR MRLB 061900Z 11003KT 9999 SCT035 32/23 A2982=
200607062000 METAR MRLB 062000Z 23006KT 9999 BKN035 31/24 A2981 RMK CB DST E=
200607062100 METAR MRLB 062100Z 28007KT 9999 SCT035 30/24 A2979 RMK RN DST NE ENE=
200607062200 METAR MRLB 062200Z 29010KT 9999 1000E +TSRA FEW010CB SCT120 30/24 A2979=
200607062300 METAR MRLB 062300Z 30004KT 9999 SCT020 BKN120 27/24 A2982 RMK RN NE TS DST S=
200607070000 METAR MRLB 070000Z 04005KT 9999 SCT020 BKN120 26/24 A2985 RMK RN DST N/SW=
200607070100 METAR MRLB NIL=
200607070200 METAR MRLB NIL=
200607070300 METAR MRLB NIL=
200607070400 METAR MRLB NIL=
200607070500 METAR MRLB NIL=
200607070600 METAR MRLB NIL=
200607070700 METAR MRLB NIL=
200607070800 METAR MRLB NIL=
200607070900 METAR MRLB NIL=
200607071000 METAR MRLB NIL=
200607071100 METAR MRLB NIL=
200607071200 METAR MRLB 071200Z 16003KT CAVOK 24/24 A2986=
200607071300 METAR MRLB 071300Z 00000KT 9999 FEW005 BKN120 25/24 A2985=
200607071400 METAR MRLB 071400Z 32004KT 9999 FEW010 BKN120 25/24 A2984=
200607071500 METAR MRLB 071500Z 22006KT 9999 FEW025 BKN120 27/25 A2983=
200607071600 METAR MRLB 071600Z 19007KT 9999 FEW030 BKN130 29/24 A2983=
200607071700 METAR MRLB 071700Z 19005KT 9999 SCT030 BKN120 30/25 A2984=
200607071800 METAR MRLB 071800Z 17004KT 9999 SCT030 BKN120 30/25 A2984=
200607071900 METAR MRLB 071900Z 09012KT FEW030 BKN120 31/24 A2982=
200607072000 METAR MRLB 072000Z 10010KT 9999 SCT035 BKN140 32/23 A2980=
200607072100 METAR MRLB 072100Z 07014KT 9999 FEW030 SCT120 31/21 A2979 RN N CB S TS RN W=
200607072200 METAR MRLB 072200Z 09006KT 9999 FEW030 BKN120 29/22 A2979 RMK RN S SW W=
200607072300 METAR MRLB 072300Z 09012KT CAVOK 28/21 A2978 RMK CB SW=
200607080000 METAR MRLB 080000Z 10008KT CAVOK 28/21 A2979=
200607080100 METAR MRLB NIL=
200607080200 METAR MRLB NIL=
200607080300 METAR MRLB NIL=
200607080400 METAR MRLB NIL=
200607080500 METAR MRLB NIL=
200607080600 METAR MRLB NIL=
200607080700 METAR MRLB NIL=
200607080800 METAR MRLB NIL=
200607080900 METAR MRLB NIL=
200607081000 METAR MRLB NIL=
200607081100 METAR MRLB NIL=
200607081200 METAR MRLB 081200Z 15003KT CAVOK 23/22 A2981=
200607081300 METAR MRLB 081300Z 22003KT CAVOK 25/23 A2983=
200607081400 METAR MRLB 081400Z 21004KT CAVOK 26/23 A2982=
200607081800 METAR MRLB 081800Z 09007KT 9999 FEW035 OVC250 31/23 A2981=
200607081900 METAR MRLB 081900Z 07007KT 9999 SCT035 OVC250 32/23 A2978=
200607082000 METAR MRLB 082000Z 08006KT 9999 SCT030 OVC240 32/23 A2976 RMK RN NE=
200607082100 METAR MRLB 082100Z 03010KT 9999 SCT035 BKN140 31/23 A2976=
200607082200 METAR MRLB 082200Z 05010KT 9999 SCT030 BKN140 30/23 A2974=
200607082300 METAR MRLB 082300Z 35004KT 9999 SCT030 OVC130 28/23 A2976 RMK RN DST N=
200607090000 METAR MRLB 090000Z 33003KT 9999 SCT030 OVC120 27/23 A2977 A2977=
200607090100 METAR MRLB NIL=
200607090200 METAR MRLB NIL=
200607090300 METAR MRLB NIL=
200607090400 METAR MRLB NIL=
200607090500 METAR MRLB NIL=
200607090600 METAR MRLB NIL=
200607090700 METAR MRLB NIL=
200607090800 METAR MRLB NIL=
200607090900 METAR MRLB NIL=
200607091000 METAR MRLB NIL=
200607091100 METAR MRLB NIL=
200607091200 METAR MRLB NIL=
200607091300 METAR MRLB 091300Z 00000KT 9999 FEW030 BKN140 25/24 A2980=
200607091400 METAR MRLB 091400Z 10003KT 9999 FEW030 BKN140 26/24 A2982=
200607091500 METAR MRLB 091500Z 00000KT 9999 SCT030 OVC140 28/25 A2983=
200607091600 METAR MRLB 091600Z 24003KT 9999 SCT035 BKN130 28/24 A2983=
200607091700 METAR MRLB 091700Z 19004KT 9999 4000SW -RA SCT030 BKN130 27/25 A2983=
200607091800 METAR MRLB 091800Z 29006KT 9999 SCT030 BKN120 27/25 A2981 RMK RN DST N NE=
200607091900 METAR MRLB 091900Z 28008KT 9999 SCT025 OVC120 27/25 A2979 RMK RN DST E S SW=
200607092000 METAR MRLB 092000Z 27009KT 5000 -RA FEW015TCU SCT025 OVC110 26/24 A2976=
200607092100 METAR MRLB 092100Z 24005KT 2500 RA FEW008 BKN020 22/22 A2979 TS SW=
200607092200 METAR MRLB 092200Z 14003KT 9999 SCT020 OVC100 22/22 A2979 RN S=
200607092300 METAR MRLB 092300Z 07004KT 8000 -RA SCT015 OVC090 23/22 A2980=
200607100000 METAR MRLB 100000Z 03004KT 9999 -RA SCT015 OVC090 22/22 A2981=
200607100100 METAR MRLB NIL=
200607100200 METAR MRLB NIL=
200607100300 METAR MRLB NIL=
200607100400 METAR MRLB NIL=
200607100500 METAR MRLB NIL=
200607100600 METAR MRLB NIL=
200607100700 METAR MRLB NIL=
200607100800 METAR MRLB NIL=
200607100900 METAR MRLB NIL=
200607101000 METAR MRLB NIL=
200607101100 METAR MRLB NIL=
200607101200 METAR MRLB NIL=
200607101300 METAR MRLB 101300Z 18004KT CAVOK 22/22 A2981 FG S SW=
200607101400 METAR MRLB 101400Z 18004KT 9999 SCT008 BKN130 24/24 A2982=
200607101600 METAR MRLB 101600Z 27002KT 9999 SCT025 SCT130 25/25 A2983=
200607101700 METAR MRLB 101700Z 21003KT 9999 SCT030 SCT140 29/// A2982=
200607101800 METAR MRLB 101800Z 12003KT 9999 FEW030 BKN140 30/24 A2979=
200607101900 METAR MRLB 101900Z 10006KT 9999 FEW035 SCT140 30/23 A2978=
200607102000 METAR MRLB 102000Z 10011KT 9999 SCT035 SCT130 31/22 A2975=
200607102100 METAR MRLB 102100Z 09009KT 9999 FEW035 BKN250 31/23 A2974=
200607102200 METAR MRLB 102200Z 07009KT 9999 FEW035 SCT140 BKN250 31/21 A2972=
200607102300 METAR MRLB 102300Z 10007KT CAVOK 30/22 A2973=
200607110000 METAR MRLB 110000Z 11007KT CAVOK 28/21 A2975=
200607110100 METAR MRLB NIL=
200607110200 METAR MRLB NIL=
200607110300 METAR MRLB NIL=
200607110400 METAR MRLB NIL=
200607110500 METAR MRLB NIL=
200607110600 METAR MRLB NIL=
200607110700 METAR MRLB NIL=
200607110800 METAR MRLB NIL=
200607110900 METAR MRLB NIL=
200607111000 METAR MRLB NIL=
200607111100 METAR MRLB NIL=
200607111200 METAR MRLB 111200Z 10009KT CAVOK 26/21 A2978=
200607111300 METAR MRLB 111300Z 08012KT CAVOK 28/22 A2980 RMK 3CI250=
200607111400 METAR MRLB 111400Z 08012KT CAVOK 29/22 A2981 RMK 3CI250=
200607111500 METAR MRLB 111500Z 09010KT CAVOK 29/22 A2983=
200607111600 METAR MRLB 111600Z 09012KT 9999 FEW040 SCT130 BKN250 30/22 A2983=
200607111700 METAR MRLB 111700Z 07011KT 9999 FEW040 SCT130 BKN250 30/22 A2981=
200607111800 METAR MRLB 111800Z 06009KT 9999 FEW040 SCT140 BKN250 31/23 A2979=
200607111900 METAR MRLB 111900Z 05012KT 9999 FEW040 BKN140 32/23 A2976=
200607112000 METAR MRLB 112000Z 05013KT 9999 FEW040 BKN140 32/23 A2974=
200607112100 METAR MRLB 112100Z 06010KT 9999 SCT035 SCT130 32/23 A2974=
200607112200 METAR MRLB 112200Z 09008KT 9999 SCT035 SCT130 32/23 A2974 RMK CB RASH DST NE=
200607112300 METAR MRLB 112300Z 08008KT 9999 SCT035 SCT130 31/23 A2974 RMK RN DST N E=
200607120000 METAR MRLB 120000Z 07012KT 9999 SCT030 SCT130 29/22 A2977 RMK RN DST=
200607120100 METAR MRLB NIL=
200607120200 METAR MRLB NIL=
200607120300 METAR MRLB NIL=
200607120400 METAR MRLB NIL=
200607120500 METAR MRLB NIL=
200607120600 METAR MRLB NIL=
200607120700 METAR MRLB NIL=
200607120800 METAR MRLB NIL=
200607120900 METAR MRLB NIL=
200607121000 METAR MRLB NIL=
200607121100 METAR MRLB NIL=
200607121200 METAR MRLB 121200Z 09006KT 9999 FEW030 BKN250 26/21 A2978=
200607121300 METAR MRLB 121300Z 07009KT 9999 FEW035 OVC250 27/22 A2981=
200607121400 METAR MRLB 121400Z 09011KT 9999 SCT035 BKN250 29/22 A2983=
200607121500 METAR MRLB 121500Z 07010KT 9999 FEW035 OVC250 30/22 A2985=
200607121600 METAR MRLB 121600Z 08011KT 9999 FEW035 BKN250 30/23 A2983=
200607121700 METAR MRLB 121700Z 08012KT 9999 SCT035 BKN250 30/24 A2982=
200607121800 METAR MRLB 121800Z 07012KT 9999 SCT035 OVC250 31/23 A2981=
200607121900 METAR MRLB 121900Z 09009KT 9999 SCT035 BKN250 32/23 A2979=
200607122000 METAR MRLB 122000Z 07009KT 9999 FEW035 SCT270 32/23 A2976=
200607122100 METAR MRLB 122100Z 05011KT 9999 SCT035 BKN260 32/23 A2975=
200607122200 METAR MRLB 122200Z 07013KT 9999 SCT035 SCT260 31/23 A2973=
200607122300 METAR MRLB 122300Z 08009KT 9999 FEW035 BKN140 29/22 A2974=
200607130000 METAR MRLB 130000Z 09010KT 9999 SCT035 BN130 28/22 A2976=
200607130100 METAR MRLB NIL=
200607130200 METAR MRLB NIL=
200607130300 METAR MRLB NIL=
200607130400 METAR MRLB NIL=
200607130500 METAR MRLB NIL=
200607130600 METAR MRLB NIL=
200607130700 METAR MRLB NIL=
200607130800 METAR MRLB NIL=
200607130900 METAR MRLB NIL=
200607131000 METAR MRLB NIL=
200607131100 METAR MRLB NIL=
200607131200 METAR MRLB 131200Z 10003KT 9999 SCT030 BKN250 25/22 A2977=
200607131300 METAR MRLB 131300Z 07013KT 9999 SCT030 BKN250 27/22 A2978 RMK RN NE=
200607131400 METAR MRLB 131400Z 09011KT 9999 SCT035 OVC250 28/22 A2980=
200607131500 METAR MRLB 131500Z 08008KT 9999 SCT035 OVC250 29/23 A2981=
200607131600 METAR MRLB 131600Z 08007KT 9999 SCT035 BKN140 29/23 A2981=
200607131700 METAR MRLB 131700Z 07011KT 9999 FEW035 BKN140 30/23 A2982=
200607131800 METAR MRLB 131800Z 10011KT 9999 SCT035 OVC240 30/23 A2981=
200607131900 METAR MRLB 131900Z 09011KT 9999 FEW035 OVC250 31/22 A2979 RMK CB NNE=
200607132000 METAR MRLB 132000Z 05013KT 9999 SCT030 OVC250 30/24 A2978 RERA RMK TCU CB NE E RN SE=
200607132100 METAR MRLB 132100Z 06010KT 9999 SCT035 SCT120 30/23 A2978 RMK CB DST NE E RNDST NW N E SW=
200607132200 METAR MRLB 132200Z 08006KT 9999 SCT035 OVC130 28/23 A2978=
200607132300 METAR MRLB 132300Z 07010KT 9999 FEW035 BKN130 28/22 A2978=
200607140000 METAR MRLB 140000Z 08007KT 9999 RA BKN035 SCT130 27/22 A2980=
200607140100 METAR MRLB NIL=
200607140200 METAR MRLB NIL=
200607140300 METAR MRLB NIL=
200607140400 METAR MRLB NIL=
200607140500 METAR MRLB NIL=
200607140600 METAR MRLB NIL=
200607140700 METAR MRLB NIL=
200607140800 METAR MRLB NIL=
200607140900 METAR MRLB NIL=
200607141000 METAR MRLB NIL=
200607141100 METAR MRLB NIL=
200607141200 METAR MRLB 141200Z 25003KT 9999 SCT005 BKN120 23/23 A2981=
200607141300 METAR MRLB 141300Z 22004KT 9999 FEW005 OVC120 23/23 A2982=
200607141400 METAR MRLB 141400Z 24004KT 9999 FEW005 OVC120 24/23 A2981 RMK RN DST ARND=
200607141500 METAR MRLB 141500Z 21005KT 9999 FEW010 OVC120 24/23 A2983=
200607141600 METAR MRLB 141600Z 18006KT 9999 FEW035 OVC120 25/23 A2984=
200607141700 METAR MRLB 141700Z 17006KT 9999 FEW020 OVC120 26/24 A2984=
200607141800 METAR MRLB 141800Z 09007KT 9999 FEW025 OVC120 27/24 A2983=
200607141900 METAR MRLB 141900Z 09005KT 9999 FEW030 OVC130 27/23 A2980=
200607142000 METAR MRLB 142000Z 09006KT 9999 SCT030 BKN130 28/24 A2978=
200607142100 METAR MRLB 142100Z 00000KT 9999 SCT030 BKN130 28/24 A2978=
200607142200 METAR MRLB 142200Z 17002KT 9999 FEW030 OVC130 28/24 A2978=
200607142300 METAR MRLB 142300Z 00000KT 9999 FEW030 OVC130 28/24 A2979 RN N=
200607150000 METAR MRLB 150000Z 00000KT 9999 FEW030 OVC130 27/23 A2982 RN N S=
200607150100 METAR MRLB NIL=
200607150200 METAR MRLB NIL=
200607150300 METAR MRLB NIL=
200607150400 METAR MRLB NIL=
200607150500 METAR MRLB NIL=
200607150600 METAR MRLB NIL=
200607150700 METAR MRLB NIL=
200607150800 METAR MRLB NIL=
200607150900 METAR MRLB NIL=
200607151000 METAR MRLB NIL=
200607151100 METAR MRLB NIL=
200607151200 METAR MRLB 151200Z 09006KT CAVOK 24/20 A2983=
200607151300 METAR MRLB 151300Z 11008KT CAVOK 26/21 A2985 RMK BKN130=
200607151400 METAR MRLB 151400Z 15005KT CAVOK 28/22 A2985 2AC140 6CI250=
200607151500 METAR MRLB 151500Z 36003KT CAVOK 29/22 A2985 BKN250=
200607151600 METAR MRLB 151600Z 09004KT 9999 FEW035 BKN250 31/23 A2985=
200607151700 METAR MRLB 151700Z 08007KT 9999 FEW040 BKN250 31/22 A2984=
200607151800 METAR MRLB 151800Z 11005KT 9999 SCT035 SCT250 31/22 A2983=
200607151900 METAR MRLB 151900Z 11004KT 9999 SCT035 SCT250 32/23 A2981=
200607152100 METAR MRLB 152100Z 12005KT 9999 FEW035 BKN250 32/23 A2979 RMK CB DST S=
200607152300 METAR MRLB 152300Z 29006KT 9999 BKN030 SCT120 29/24 A2979=
200607160000 METAR MRLB 160000Z 32004KT 9999 SCT035 SCT120 27/23 A2982=
200607160100 METAR MRLB NIL=
200607160200 METAR MRLB NIL=
200607160300 METAR MRLB NIL=
200607160400 METAR MRLB NIL=
200607160500 METAR MRLB NIL=
200607160600 METAR MRLB NIL=
200607160700 METAR MRLB NIL=
200607160800 METAR MRLB NIL=
200607160900 METAR MRLB NIL=
200607161000 METAR MRLB NIL=
200607161100 METAR MRLB NIL=
200607161200 METAR MRLB 161200Z 21003KT CAVOK 23/21 A2979=
200607161300 METAR MRLB 161300Z 23003KT CAVOK 25/23 A2980=
200607161400 METAR MRLB 161400Z 35005KT CAVOK 27/23 A2981=
200607161500 METAR MRLB 161500Z 26003KT CAVOK 29/23 A2982=
200607161600 METAR MRLB 161600Z 09012KT 9999 FEW030 BKN250 30/22 A2982=
200607161700 METAR MRLB 161700Z 07010KT 9999 SCT035 BKN250 31/22 A2981=
200607161800 METAR MRLB 161800Z 09009KT 9999 SCT035 BKN250 31/23 A2979=
200607161900 METAR MRLB 161900Z 07018KT 9999 SCT030 OVC250 30/22 A2978=
200607162000 METAR MRLB 162000Z 08014KT 9999 SCT035 OVC250 30/22 A2976=
200607162100 METAR MRLB 162100Z 09012KT 9999 FEW035 OVC240 30/21 A2974=
200607162200 METAR MRLB 162200Z 09008KT 9999 FEW035 OVC240 29/22 A2974=
200607162300 METAR MRLB 162300Z 10007KT 9999 FEW035 BKN240 28/22 A2975=
200607170000 METAR MRLB 170000Z 10003KT 9999 FEW035 BKN240 27/22 A2977=
200607170100 METAR MRLB NIL=
200607170200 METAR MRLB NIL=
200607170300 METAR MRLB NIL=
200607170400 METAR MRLB NIL=
200607170500 METAR MRLB NIL=
200607170600 METAR MRLB NIL=
200607170700 METAR MRLB NIL=
200607170800 METAR MRLB NIL=
200607170900 METAR MRLB NIL=
200607171000 METAR MRLB NIL=
200607171100 METAR MRLB NIL=
200607171200 METAR MRLB 171200Z 00000KT 9999 FEW030 BKN140 23/22 A2980=
200607171300 METAR MRLB 171300Z 00000KT 9999 FEW035 OVC140 24/22 A2982=
200607171400 METAR MRLB 171400Z 28002KT 9999 FEW035 BKN140 25/22 A2984=
200607171500 METAR MRLB 171500Z 32002KT 9999 FEW035 BKN140 27/23 A2984=
200607171600 METAR MRLB 171600Z 18002KT 9999 FEW035 BKN140 28/22 A2984=
200607171700 METAR MRLB 171700Z 09002KT 9999 FEW035 BKN250 29/22 A2982=
200607171800 METAR MRLB 171800Z 10007KT 9999 SCT035 BKN240 31/22 A2981=
200607171900 METAR MRLB 171900Z 14006KT 9999 SCT030 BKN130 29/22 A2981 RMK RN DST S SE=
200607172000 METAR MRLB 172000Z 20008KT 9999 VCSH SCT030 OVC120 26/23 A2982 RMK VIS SW 6KMS=
200607172100 METAR MRLB 172100Z 24004KT 9999 SCT025 OVC110 24/23 A2981 RERA RMK RN N S=
200607172200 METAR MRLB 172200Z 32002KT 9999 SCT020 OVC100 25/23 A2982 RMK RN N=
200607172300 METAR MRLB 172300Z 34003KT 9999 SCT025 OVC110 24/23 A2983=
200607180000 METAR MRLB 180000Z 23003KT 9999 SCT030 OVC110 24/23 A2983=
200607180100 METAR MRLB NIL=
200607180200 METAR MRLB NIL=
200607180300 METAR MRLB NIL=
200607180400 METAR MRLB NIL=
200607180500 METAR MRLB NIL=
200607180600 METAR MRLB NIL=
200607180700 METAR MRLB NIL=
200607180800 METAR MRLB NIL=
200607180900 METAR MRLB NIL=
200607181000 METAR MRLB NIL=
200607181100 METAR MRLB NIL=
200607181200 METAR MRLB 181200Z 00000KT 1000 BR SCT002 23/22 A2983=
200607181300 METAR MRLB 181300Z 00000KT 9999 FEW003 BKN100 23/22 A2984=
200607181400 METAR MRLB 181400Z 00000KT 28/24 A2983=
200607181500 METAR MRLB 181500Z 17003KT 9999 FEW015 BKN120 26/23 A2986=
200607181700 METAR MRLB 181700Z 20003KT 9999 SCT030 BKN130 29/24 A2985=
200607181800 METAR MRLB 181800Z 22003KT 9999 SCT030 BKN130 30/24 A2983=
200607182000 METAR MRLB 182000Z 26003KT 9999 SCT025 BKN250 30/24 A2978 RMK TCU RASH E=
200607182100 METAR MRLB 182100Z 28005KT 9999 4000NE VCSH FEW020TCU SCT025 32/24 A2976 RMK RASH NE=
200607182200 METAR MRLB 182200Z 15006KT 9999 -RA FEW020 BKN100 23/22 A2978 RMK VSB 5000 N TS DST W=
200607182300 METAR MRLB 182300Z 23006KT 9999 -RA FEW020 BKN120 26/24 A2978 RMK TS DST SW=
200607190000 METAR MRLB 190000Z 21004KT 9999 FEW020 OVC120 24/23 A2979=
200607190100 METAR MRLB NIL=
200607190200 METAR MRLB NIL=
200607190300 METAR MRLB NIL=
200607190400 METAR MRLB NIL=
200607190500 METAR MRLB NIL=
200607190600 METAR MRLB NIL=
200607190700 METAR MRLB NIL=
200607190800 METAR MRLB NIL=
200607190900 METAR MRLB NIL=
200607191000 METAR MRLB NIL=
200607191100 METAR MRLB NIL=
200607191200 METAR MRLB 191200Z 00000KT CAVOK 23/22 A2981 RMK OVC130=
200607191300 METAR MRLB 191300Z 35002KT CAVOK 24/23 A2983=
200607191400 METAR MRLB 191400Z 00000KT CAVOK 26/24 A2982=
200607191500 METAR MRLB 191500Z 24002KT 9999 FEW020 OVC250 27/24 A2984=
200607191600 METAR MRLB 191600Z 23006KT 9999 FEW025 BKN130 29/24 A2985=
200607191700 METAR MRLB 191700Z 12003KT 9999 FEW025 BKN120 30/24 A2985 RMK RN DST SW=
200607191800 METAR MRLB 191800Z 08006KT 9999 FEW030 VJB120 30/24 A2984=
200607191900 METAR MRLB 191900Z 08003KT 9999 VCSH SCT020TCU BKN120 30/24 A2982 RMK 6000 N NW DUE RASH=
200607192000 METAR MRLB 192000Z 30006KT 9999 SCT015TCU SCT035 27/23 A2980 RMK RN DST N S SW=
200607192100 METAR MRLB 192100Z 17003KT 9999 FEW020 OVC120 26/23 A2980 RN S=
200607192300 METAR MRLB 192300Z 14005KT CAVOK 24/22 A2981 8AS120 RN E=
200607200000 METAR MRLB 200000Z 15005KT 9999 FEW030 OVC100 24/22 A2981 RN DST E=
200607200100 METAR MRLB NIL=
200607200200 METAR MRLB NIL=
200607200300 METAR MRLB NIL=
200607200400 METAR MRLB NIL=
200607200500 METAR MRLB NIL=
200607200600 METAR MRLB NIL=
200607200700 METAR MRLB NIL=
200607200800 METAR MRLB NIL=
200607200900 METAR MRLB NIL=
200607201000 METAR MRLB NIL=
200607201100 METAR MRLB NIL=
200607201200 METAR MRLB 201200Z 15004KT 9999 FEW035 BKN250 23/22 A2983=
200607201300 METAR MRLB 201300Z 16003KT 9999 FEW030 OVC130 23/22 A2985=
200607201400 METAR MRLB 201400Z 14002KT 9999 FEW030 BKN130 26/24 A2987=
200607201500 METAR MRLB 201500Z 19005KT 9999 FEW035 BKN130 28/24 A2988=
200607201600 METAR MRLB 201600Z 14005KT 9999 FEW035 OVC130 29/24 A2989=
200607201700 METAR MRLB 201700Z 15006KT 9999 SCT035 BKN140 29/25 A2987=
200607201800 METAR MRLB 201800Z 20003KT 9999 SCT035 OVC130 29/24 A2986=
200607201900 METAR MRLB 201900Z 29006KT 9999 SCT030 BKN250 30/25 A2984=
200607202000 METAR MRLB 202000Z 27008KT 9999 FEW020TCU SCT030 BKN250 28/25 A2981=
200607202100 METAR MRLB 202100Z 29007KT 9999 FEW035 BKN250 29/25 A2978=
200607202200 METAR MRLB 202200Z 28007KT 9999 FEW035 BKN250 29/25 A2977=
200607202300 METAR MRLB 202300Z 28006KT 9999 FEW035 OVC250 29/24 A2979=
200607210000 METAR MRLB 210000Z 27006KT 9999 FEW035 BKN250 27/24 A2980=
200607210100 METAR MRLB NIL=
200607210200 METAR MRLB NIL=
200607210300 METAR MRLB NIL=
200607210400 METAR MRLB NIL=
200607210500 METAR MRLB NIL=
200607210600 METAR MRLB NIL=
200607210700 METAR MRLB NIL=
200607210800 METAR MRLB NIL=
200607210900 METAR MRLB NIL=
200607211000 METAR MRLB NIL=
200607211100 METAR MRLB NIL=
200607211200 METAR MRLB 211200Z 05002KT 9999 SCT025 BKN140 23/23 A2983=
200607211300 METAR MRLB 211300Z 00000KT 9999 SCT030 BKN140 24/23 A2984 BR SW=
200607211400 METAR MRLB 211400Z 00000KT 9999 FEW030 BKN250 26/24 A2987=
200607211500 METAR MRLB 211500Z 20002KT 9999 SCT030 BKN250 28/24 A2989=
200607211600 METAR MRLB 211600Z 24005KT 9999 SCT035 BKN250 29/24 A2987=
200607211700 METAR MRLB 211700Z 25003KT 9999 SCT035 OVC250 30/24 A2986=
200607211800 METAR MRLB 211800Z 27005KT 9999 SCT035 BKN250 31/25 A2983=
200607211900 METAR MRLB 211900Z 28007KT 9999 SCT030 BKN250 30/25 A2980 RN DST NE=
200607212000 METAR MRLB 212000Z 29006KT 9999 4000NE -TSRA FEW020CB SCT030 BKN130 28/24 A2980=
200607212100 METAR MRLB 212100Z 0908KT 3000 TSRA FEW015CB SCT025 OVC110 22/22 A2981=
200607212200 METAR MRLB 212200Z 34003KT 9999 SCT030 OVC100 23/22 A2981 RMK RN DST S=
200607212300 METAR MRLB 212300Z 12003KT 9999 SCT025 OVC110 23/22 A2982 RN DST SE RERA=
200607220000 METAR MRLB NIL=
200607220100 METAR MRLB NIL=
200607220200 METAR MRLB NIL=
200607220300 METAR MRLB NIL=
200607220400 METAR MRLB NIL=
200607220500 METAR MRLB NIL=
200607220600 METAR MRLB NIL=
200607220700 METAR MRLB NIL=
200607220800 METAR MRLB NIL=
200607220900 METAR MRLB NIL=
200607221000 METAR MRLB NIL=
200607221100 METAR MRLB NIL=
200607221200 METAR MRLB 221200Z 10004KT CAVOK 22/21 A2982=
200607221300 METAR MRLB 221300Z 20003KT 9999 FEW005 OVC250 22/22 A2984=
200607221400 METAR MRLB 221400Z 20003KT 9999 FEW020 OVC250 25/23 A2985 RMK TCU DST S SW=
200607221500 METAR MRLB 221500Z 26004KT 9999 FEW030 OVC250 27/24 A2986 RMK TCU DST S SW=
200607221600 METAR MRLB 221600Z 13003KT 9999 FEW030 OVC250 29/24 A2987 RMK CB DST N/SW=
200607221700 METAR MRLB 221700Z 11005KT 9999 SCT030 BKN250 31/24 A2986 RMK CB DST NNE=
200607221800 METAR MRLB 221800Z 07009KT 9999 SCT030 SCT130 31/23 A2984=
200607221900 METAR MRLB 221900Z 10005KT 9999 FEW035 SCT250 BKN250 30/23 A2983=
200607222000 METAR MRLB 222000Z 09005KT 9999 SCT035 SCT120 31/23 A2981=
200607222100 METAR MRLB 222100Z 08005KT 9999 SCT035 BKN250 31/22 A2978=
200607222200 METAR MRLB 222200Z 09005KT 9999 -RA SCT025 BKN100 30/22 A2977=
200607222300 METAR MRLB 222300Z 12005KT 9999 FEW035 OVC120 29/24 A2978 RMK CB E RN S=
200607230000 METAR MRLB 230000Z 12005KT 9999 FEW035 BKN120 28/24 A2979=
200607230100 METAR MRLB NIL=
200607230200 METAR MRLB NIL=
200607230300 METAR MRLB NIL=
200607230400 METAR MRLB NIL=
200607230500 METAR MRLB NIL=
200607230600 METAR MRLB NIL=
200607230700 METAR MRLB NIL=
200607230800 METAR MRLB NIL=
200607230900 METAR MRLB NIL=
200607231000 METAR MRLB NIL=
200607231100 METAR MRLB NIL=
200607231200 METAR MRLB 231200Z 05004KT CAVOK 21/20 A2984 SCT250=
200607231300 METAR MRLB 231300Z 00000KT CAVOK 24/22 A2985=
200607231400 METAR MRLB 231400Z 26003KT CAVOK 26/22 A2986=
200607231500 METAR MRLB 231500Z 20005KT CAVOK 27/22 A2986=
200607231600 METAR MRLB 231600Z 10007KT CAVOK 30/22 A2984=
200607231700 METAR MRLB 231700Z 08014KT 9999 FEW035 BKN250 31/21 A2984=
200607231800 METAR MRLB 231800Z 09011KT 9999 FEW040 OVC250 31/21 A2984=
200607231900 METAR MRLB 231900Z 08010KT 9999 FEW040 BKN250 32/22 A2982=
200607232000 METAR MRLB 232000Z 09010KT 9999 FEW035 BKN250 31/22 A2980=
200607232100 METAR MRLB 232100Z 23009KT 9999 BKN025 SCT130 30/25 A2981 RMK RN E SE NW=
200607232200 METAR MRLB 232200Z 09008KT 9999 FEW040 SCT250 31/21 A2978 RMK CB DST S SW=
200607232300 METAR MRLB 232300Z 10009KT 9999 FEW040 BKN250 30/21 A2979=
200607240000 METAR MRLB 240000Z 10004KT 9999 FEW040 BKN250 28/21 A2980=
200607240100 METAR MRLB NIL=
200607240200 METAR MRLB NIL=
200607240300 METAR MRLB NIL=
200607240400 METAR MRLB NIL=
200607240500 METAR MRLB NIL=
200607240600 METAR MRLB NIL=
200607240700 METAR MRLB NIL=
200607240800 METAR MRLB NIL=
200607240900 METAR MRLB NIL=
200607241000 METAR MRLB NIL=
200607241100 METAR MRLB NIL=
200607241200 METAR MRLB 241200Z 20004KT 9999 FEW030 BKN250 24/22 A2983=
200607241300 METAR MRLB 241300Z 06002KT 9999 FEW030 SCT130 BKN250 24/23 A2986=
200607241400 METAR MRLB 241400Z 03003KT 9999 FEW035 SCT130 BKN250 25/23 A2986=
200607241500 METAR MRLB 241500Z 30003KT 9999 FEW035 BKN250 29/24 A2986=
200607241600 METAR MRLB 241600Z 12004KT 9999 FEW035 BKN250 31/23 A2986=
200607241700 METAR MRLB 241700Z 09007KT 9999 FEW035 BKN250 31/23 A2985=
200607241800 METAR MRLB 241800Z 06010KT 9999 FEW035 BKN250 32/22 A2983=
200607241900 METAR MRLB 241900Z 10007KT 9999 SCT035 BKN250 32/23 A2980=
200607242000 METAR MRLB 242000Z 09008KT 9999 SCT035 OVC250 33/22 A2978=
200607242100 METAR MRLB 242100Z 07012KT 9999 SCT035 OVC250 32/22 A2977=
200607242200 METAR MRLB 242200Z 07012KT 9999 SCT030 BKN140 29/21 A2996 RN NE=
200607242300 METAR MRLB 242300Z 06013KT 9999 SCT030 OVC130 28/22 A2979 RN N NE=
200607250000 METAR MRLB 250000Z 08009KT 9999 SCT025 OVC120 25/20 A2979 RN DST N NE E=
200607250100 METAR MRLB NIL=
200607250200 METAR MRLB NIL=
200607250300 METAR MRLB NIL=
200607250400 METAR MRLB NIL=
200607250500 METAR MRLB NIL=
200607250600 METAR MRLB NIL=
200607250700 METAR MRLB NIL=
200607250800 METAR MRLB NIL=
200607250900 METAR MRLB NIL=
200607251000 METAR MRLB NIL=
200607251100 METAR MRLB NIL=
200607251200 METAR MRLB 251200Z 08002KT 9999 SCT030 OVC250 23/22 A2982=
200607251300 METAR MRLB 251300Z 09003KT 9999 SCT030 BKN130 25/23 A2983=
200607251400 METAR MRLB 251400Z 00000KT 9999 SCT035 BKN250 28/24 A2984=
200607251500 METAR MRLB 251500Z 34004KT 9999 SCT030 BKN250 28/23 A2985=
200607251600 METAR MRLB 251600Z 08009KT 9999 SCT030 BKN130 28/22 A2985 RN E=
200607251700 METAR MRLB 251700Z 07010KT 9999 FEW035 BKN250 30/23 A2984=
200607251800 METAR MRLB 251800Z 06010KT 9999 SCT035 OVC250 31/23 A2982=
200607251900 METAR MRLB 251900Z 05014KT 9999 SCT035 BKN250 30/23 A2980=
200607252000 METAR MRLB 252000Z 09007KT 9999 SCT035 OVC250 31/23 A2978=
200607252100 METAR MRLB 252100Z 09012KT 9999 FEW035 OVC250 31/21 A2975=
200607252200 METAR MRLB 252200Z 08010KT 9999 SCT030 OVC240 30/21 A2977=
200607252300 METAR MRLB 252300Z 08009KT 9999 SCT030 BKN140 28/20 A2977 RN DST NE=
200607260000 METAR MRLB 260000Z 07005KT 9999 SCT030 BKN140 27/21 A2980=
200607260100 METAR MRLB NIL=
200607260200 METAR MRLB NIL=
200607260300 METAR MRLB NIL=
200607260400 METAR MRLB NIL=
200607260500 METAR MRLB NIL=
200607260600 METAR MRLB NIL=
200607260700 METAR MRLB NIL=
200607260800 METAR MRLB NIL=
200607260900 METAR MRLB NIL=
200607261000 METAR MRLB NIL=
200607261100 METAR MRLB NIL=
200607261200 METAR MRLB 261200Z 11004KT CAVOK 24/21 A2983 RMK HZ ARND=
200607261300 METAR MRLB 261300Z 12004KT CAVOK 26/22 A2985 OVC250 HZ ARND=
200607261400 METAR MRLB 261400Z 12004KT CAVOK 28/22 A2986 OVC250 HZ ARND=
200607261500 METAR MRLB 261500Z 12004KT 9999 FEW040 SCT140 BKN250 30/22 A2988 HZ ARND=
200607261600 METAR MRLB 261600Z 13004KT 9999 FEW035 BKN130 28/22 A2987 HZ ARND=
200607261700 METAR MRLB 261700Z 07006KT 9999 FEW035 BKN130 30/22 A2987 HZ ARND=
200607261800 METAR MRLB 261800Z 10003KT 9999 FEW035 OVC130 30/21 A2985 HZ ARND=
200607261900 METAR MRLB 261900Z 27005KT 9999 SCT035 BKN120 29/23 A2984 HZ ARND=
200607262000 METAR MRLB 262000Z 27012KT 5000 -RA SCT010 BKN100 22/20 A2983 VIS 9999 E=
200607262100 METAR MRLB 262100Z 25003KT 9999 FEW020 OVC100 24/22 A2983 RMK RN DST E/S=
200607262200 METAR MRLB 262200Z 20003KT 9999 FEW030 OVC100 23/22 A2983 RN E=
200607262300 METAR MRLB 262300Z 27004KT 9999 -RA FEW030 OVC100 23/22 A2985=
200607270000 METAR MRLB 270000Z 00000KT 9999 -RA FEW030 OVC120 23/22 A2986=
200607270100 METAR MRLB NIL=
200607270200 METAR MRLB NIL=
200607270300 METAR MRLB NIL=
200607270400 METAR MRLB NIL=
200607270500 METAR MRLB NIL=
200607270600 METAR MRLB NIL=
200607270700 METAR MRLB NIL=
200607270800 METAR MRLB NIL=
200607270900 METAR MRLB NIL=
200607271000 METAR MRLB NIL=
200607271100 METAR MRLB NIL=
200607271200 METAR MRLB 271200Z 00000KT CAVOK 22/22 A2984 8AS120=
200607271300 METAR MRLB 271300Z 22003KT CAVOK 23/22 A2986 RMK BKN120=
200607271400 METAR MRLB 271400Z 23005KT 9999 DZ OVC110 24/23 A2986 RMK CB RN DST N=
200607271500 METAR MRLB 271500Z 22003KT CAVOK 25/23 A2988 RMK BKN120=
200607271600 METAR MRLB 271600Z 24002KT CAVOK 27/23 A2989 RMK BKN130=
200607271700 METAR MRLB 271700Z 26003KT 9999 FEW035 BKN130 29/23 A2988=
200607271800 METAR MRLB 271800Z 00000KT 9999 FEW035 BKN130 31/24 A2987=
200607271900 METAR MRLB 271900Z 14004KT 9999 SCT035 BKN130 30/24 A2986=
200607272000 METAR MRLB 272000Z 09006KT 9999 FEW035 BKN130 31/22 A2986 RMK CB DST S=
200607272100 METAR MRLB 272100Z 27005KT 9999 SCT030 BKN130 30/24 A2985 RMK CB S=
200607272200 METAR MRLB 272200Z 19008KT 9999 SCT020TCU SCT025 26/22 A2984 RMK RN SW=
200607272300 METAR MRLB 272300Z 24004KT 9999 SCT020TCU BKN100 25/22 A2986 RMK RN N=
200607280000 METAR MRLB 280000Z 34002KT 9999 SCT020 BKN120 25/23 A2988 RMK TSRN N=
200607280100 METAR MRLB NIL=
200607280200 METAR MRLB NIL=
200607280300 METAR MRLB NIL=
200607280400 METAR MRLB NIL=
200607280500 METAR MRLB NIL=
200607280600 METAR MRLB NIL=
200607280700 METAR MRLB NIL=
200607280800 METAR MRLB NIL=
200607280900 METAR MRLB NIL=
200607281000 METAR MRLB NIL=
200607281100 METAR MRLB NIL=
200607281200 METAR MRLB 281200Z 19003KT 9999 FEW030 SCT250 22/21 A2988=
200607281300 METAR MRLB 281300Z 18005KT CAVOK 23/22 A2989=
200607281400 METAR MRLB 281400Z 16003KT 9999 FEW035 SCT250 26/23 A2992=
200607281500 METAR MRLB 281500Z 30002KT 9999 FEW035 SCT260 28/23 A2995=
200607281600 METAR MRLB 281600Z 13002KT 9999 FEW035 SCT260 29/22 A2994=
200607281700 METAR MRLB 281700Z 29005KT 9999 FEW035 BKN260 30/23 A2992=
200607281800 METAR MRLB 281800Z 28003KT 9999 SCT030 BKN260 31/22 A2981 RMK RN SE=
200607281900 METAR MRLB 281900Z 21004KT 9999 SCT035 BKN250 30/23 A2988 RMK RN SW=
200607282000 METAR MRLB 282000Z 29005KT 9999 SCT035 SCT250 30/23 A2985=
200607282100 METAR MRLB 282100Z 28007KT 9999 SCT035 BKN250 30/23 A2983 RMK RN DST S=
200607282200 METAR MRLB 282200Z 16008KT 9999 2500SW RA FEW015TCU SCT025 BKN130 24/21 A2986=
200607282300 METAR MRLB 282300Z 27004KT 9999 SCT030 BKN130 23/22 A2984 RMK RN DST SW=
200607290000 METAR MRLB 290000Z 16004KT 9999 SCT035 BKN130 23/22 A2985=
200607290100 METAR MRLB NIL=
200607290200 METAR MRLB NIL=
200607290300 METAR MRLB NIL=
200607290400 METAR MRLB NIL=
200607290500 METAR MRLB NIL=
200607290600 METAR MRLB NIL=
200607290700 METAR MRLB NIL=
200607290800 METAR MRLB NIL=
200607290900 METAR MRLB NIL=
200607291000 METAR MRLB NIL=
200607291100 METAR MRLB NIL=
200607291200 METAR MRLB 291200Z 00000KT 9999 FEW030 OVC250 22/21 A2989=
200607291300 METAR MRLB 291300Z 00000KT 9999 FEW030 OVC250 24/23 A2990=
200607291400 METAR MRLB 291400Z 00000KT 9999 SCT030 OVC250 25/23 A2992=
200607291500 METAR MRLB 291500Z 07004KT 9999 FEW035 BKN250 27/24 A2994=
200607291600 METAR MRLB 291600Z 08004KT 9999 SCT035 BKN250 28/23 A2993=
200607291700 METAR MRLB 291700Z 15003KT 9999 SCT030 OVC250 29/23 A2991=
200607291800 METAR MRLB 291800Z 19002KT 9999 SCT030 BKN250 30/23 A3005=
200607291900 METAR MRLB 291900Z 29008KT 9999 SCT030 OVC250 30/24 A2987 RMK RN DST S SW=
200607292000 METAR MRLB 292000Z 23007KT 3000 TSRA FEW015CB SCT025 BKN130 24/22 A2985=
200607292100 METAR MRLB 292100Z 10002KT 9999 -RA SCT020 BKN120 23/22 A2094=
200607292200 METAR MRLB 292200Z 08003KT 9999 -RA FEW010 SCT020 BKN120 24/23 A2985=
200607292300 METAR MRLB 292300Z 05005KT 9999 -RA SCT025 OVC110 23/22 A2986=
200607300000 METAR MRLB 300000Z 10003KT 9999 -RA SCT020 BKN120 23/22 A2985=
200607300100 METAR MRLB NIL=
200607300200 METAR MRLB NIL=
200607300300 METAR MRLB NIL=
200607300400 METAR MRLB NIL=
200607300500 METAR MRLB NIL=
200607300600 METAR MRLB NIL=
200607300700 METAR MRLB NIL=
200607300800 METAR MRLB NIL=
200607300900 METAR MRLB NIL=
200607301000 METAR MRLB NIL=
200607301100 METAR MRLB NIL=
200607301200 METAR MRLB 301200Z 10003KT CAVOK 22/21 A2984=
200607301300 METAR MRLB 301300Z 00000KT CAVOK 22/22 A2984 RMK BKN130=
200607301400 METAR MRLB 301400Z 08003KT CAVOK 25/23 A2985=
200607301500 METAR MRLB 301500Z 12002KT 9999 FEW025 BKN130 27/23 A2987=
200607301600 METAR MRLB 301600Z 14004KT 9999 SCT030 SCT250 28/23 A2987 CB N SW=
200607301700 METAR MRLB 301700Z 17006KT 9999 SCT030 28/24 A2987 CB SW=
200607301800 METAR MRLB 301800Z 17004KT 9999 SCT035 29/23 A2985 CB RN SW=
200607301900 METAR MRLB 301900Z 22004KT 9999 SCT030 SCT250 30/21 A2982 CB RN N NE S SW=
200607302000 METAR MRLB 302000Z 25009KT 9999 SCT030 BKN130 29/24 A2979 RN DST N NE=
200607302100 METAR MRLB 302100Z 29008KT 9999 SCT015TCU BKN130 26/23 A2978 RN DST E/S=
200607302200 METAR MRLB 302200Z 29005KT 9999 FEW020 BKN130 26/23 A2978 RN DST E=
200607302300 METAR MRLB 302300Z 28006KT 9999 FEW020 SCT130 26/23 A2980 RN DST E CB RN S=
200607310000 METAR MRLB 310000Z 35003KT 9999 FEW020 BKN130 27/23 A2982 RN DST E/S=
200607310100 METAR MRLB NIL=
200607310200 METAR MRLB NIL=
200607310300 METAR MRLB NIL=
200607310400 METAR MRLB NIL=
200607310500 METAR MRLB NIL=
200607310600 METAR MRLB NIL=
200607310700 METAR MRLB NIL=
200607310800 METAR MRLB NIL=
200607310900 METAR MRLB NIL=
200607311000 METAR MRLB NIL=
200607311100 METAR MRLB NIL=
200607311200 METAR MRLB 311200Z 03002KT CAVOK 23/23 A2984=
200607311300 METAR MRLB 311300Z 00000KT CAVOK 25/23 A2986 BKN130=
200607311400 METAR MRLB 311400Z 14003KT 9999 SCT010 SCT250 25/23 A2988=
200607311500 METAR MRLB 311500Z 20002KT 9999 SCT020 BKN250 26/23 A2991=
200607311600 METAR MRLB 311600Z 00000KT 9999 SCT025 BKN250 29/23 A2991=
200607311700 METAR MRLB 311700Z 33002KT 9999 BKN030 29/23 A2989=
200607311800 METAR MRLB 311800Z 02002KT 9999 SCT030 30/23 A2987 CB DST N/S=
200607311900 METAR MRLB 311900Z 24002KT 9999 SCT030 31/23 A2985 CB RN DST N S SW=
200607312000 METAR MRLB 312000Z 18003KT 9999 SCT030 31/21 A2982 CB DST NE S SW=
200607312200 METAR MRLB 312200Z 29008KT 9999 SCT020 BKN130 27/24 A2980 RMK RASH DST N E=
200607312300 METAR MRLB 312300Z 28005KT 9999 FEW015TCU BKN025 26/24 A2982 RASH DST ENE=
200608010000 METAR MRLB 010000Z 26003KT 9999 3000E -RA FEW010TCU BKN025 26/24 A2984=
200608010100 METAR MRLB NIL=
200608010200 METAR MRLB NIL=
200608010300 METAR MRLB NIL=
200608010400 METAR MRLB NIL=
200608010500 METAR MRLB NIL=
200608010600 METAR MRLB NIL=
200608010700 METAR MRLB NIL=
200608010800 METAR MRLB NIL=
200608010900 METAR MRLB NIL=
200608011000 METAR MRLB NIL=
200608011100 METAR MRLB NIL=
200608011200 METAR MRLB 011200Z 00000KT 9999 FEW030 SCT250 23/23 A2985=
200608011300 METAR MRLB 011300Z 00000KT 3000N BR SCT003 SCT015 24/24 A2988=
200608011400 METAR MRLB 011400Z 00000KT 9999 SCT025 26/25 A2989=
200608011500 METAR MRLB 011500Z 00000KT 9999 SCT035 28/25 A2990=
200608011600 METAR MRLB 011600Z 03002KT 9999 SCT035 SCT250 29/24 A2990=
200608011700 METAR MRLB 011700Z 14002KT 9999 SCT035 30/24 A2988=
200608011800 METAR MRLB 011800Z 09004KT 9999 SCT035 32/23 A2985=
200608011900 METAR MRLB 011900Z 14005KT 9999 SCT035 32/24 A2984=
200608012000 METAR MRLB 012000Z 28007KT 9999 SCT030 SCT250 31/24 A2982=
200608012100 METAR MRLB 012100Z 28007KT 9999 SCT035 BKN250 30/25 A2981=
200608012200 METAR MRLB 012200Z 28009KT 9999 FEW035 SCT250 30724 A2980 RMKRN S=
200608012300 METAR MRLB 012300Z 26010KT 9999 SCT035 SCT250 29/24 A2981=
200608020000 METAR MRLB 020000Z 25005KT 9999 SCT035 BKN250 28/24 A2982 RMK RN SE=
200608020100 METAR MRLB NIL=
200608020200 METAR MRLB NIL=
200608020300 METAR MRLB NIL=
200608020400 METAR MRLB NIL=
200608020500 METAR MRLB NIL=
200608020600 METAR MRLB NIL=
200608020700 METAR MRLB NIL=
200608020800 METAR MRLB NIL=
200608020900 METAR MRLB NIL=
200608021000 METAR MRLB NIL=
200608021100 METAR MRLB NIL=
200608021200 METAR MRLB 021200Z 24003KT 9999 FEW030 BKN240 23/22 A2984=
200608021300 METAR MRLB 021300Z 20003KT CAVOK 26/23 A2985=
200608021400 METAR MRLB 021400Z 10002KT CAVOK 28/24 A2987=
200608021500 METAR MRLB 021500Z 07008KT CAVOK 30/23 A2988=
200608021600 METAR MRLB 021600Z 09008KT 9999 FEW035 BKN250 29/22 A2990=
200608021700 METAR MRLB NIL=
200608021800 METAR MRLB 021800Z 09007KT 9999 FEW035 OVC250 31/23 A2987=
200608021900 METAR MRLB 021900Z 10006KT 9999 FEW035 OVC250 31/26 A2984=
200608022000 METAR MRLB 022000Z 08007KT 9999 FEW035 BKN250 32/22 A2982=
200608022100 METAR MRLB 022100Z 12007KT 9999 FEW035 OVC250 31/23 A2980=
200608022200 METAR MRLB 022200Z 08005KT 9999 FEW035 OVC250 31/25 A2978=
200608022300 METAR MRLB 022300Z 12007KT 9999 FEW035 OVC250 31/23 A2980=
200608030000 METAR MRLB NIL=
200608030100 METAR MRLB NIL=
200608030200 METAR MRLB NIL=
200608030300 METAR MRLB NIL=
200608030400 METAR MRLB NIL=
200608030500 METAR MRLB NIL=
200608030600 METAR MRLB NIL=
200608030700 METAR MRLB NIL=
200608030800 METAR MRLB NIL=
200608030900 METAR MRLB NIL=
200608031000 METAR MRLB NIL=
200608031100 METAR MRLB NIL=
200608031200 METAR MRLB 031200Z 00000KT 9999 FEW040 OVC250 23/22 A2984 RMK CB DST S SW=
200608031300 METAR MRLB 031300Z 00000KT 9999 FEW040 OVC250 25/24 A2987 RMK HZ SW=
200608031400 METAR MRLB 031400Z 34003KT 9999 FEW040 SCT120 BKN250 27/25 A2986=
200608031500 METAR MRLB 031500Z 289003KT 9999 FEW030 OVC250 28/25 A2988=
200608031600 METAR MRLB 031600Z 29002KT 9999 FEW025TCU FEW030 BKN250 29/24 A2987=
200608031700 METAR MRLB 031700Z 27002KT 9999 BKN030 SCT250 29/24 A2988=
200608031800 METAR MRLB 031800Z 07003KT 9999 SCT030 BKN250 31/24 A2985=
200608031900 METAR MRLB 031900Z 12004KT 9999 SCT035 BKN250 32/23 A2982=
200608032000 METAR MRLB 032000Z 19008KT 9999 SCT035 BKN250 31/25 A2981=
200608032100 METAR MRLB 032100Z 28010KT 9999 SCT030 BKN250 31/25 A2979=
200608032200 METAR MRLB 032200Z 27010KT 9999 SCT030 BKN150 29/25 A2979 CB N TS E=
200608032300 METAR MRLB 032300Z 29010KT 9999 3000E TSRA FEW015CB SCT025 28/24 A2981=
200608040000 METAR MRLB 040000Z 12003KT 9999 -RA SCT020 BKN120 26/24 A2983 TS DST SW=
200608040100 METAR MRLB NIL=
200608040200 METAR MRLB NIL=
200608040300 METAR MRLB NIL=
200608040400 METAR MRLB NIL=
200608040500 METAR MRLB NIL=
200608040600 METAR MRLB NIL=
200608040700 METAR MRLB NIL=
200608040800 METAR MRLB NIL=
200608040900 METAR MRLB NIL=
200608041000 METAR MRLB NIL=
200608041100 METAR MRLB NIL=
200608041200 METAR MRLB 041200Z 00000KT 2000 BR FEW001 BKN250 22/22 A2985=
200608041300 METAR MRLB 041300Z 14003KT 9999 FEW040 OVC250 24/23 A2986=
200608041400 METAR MRLB 041400Z 00000KT 9999 FEW010 OVC250 25/24 A2987=
200608041500 METAR MRLB 041500Z 29003KT CAVOK 27/25 A2988=
200608041600 METAR MRLB 041600Z 27002KT 9999 FEW030 OVC250 30/25 A2987=
200608041700 METAR MRLB 041700Z 36002KT 9999 FEW035 BKN250 31/25 A2986=
200608041800 METAR MRLB 041800Z 08008KT 9999 FEW035 OVC250 32/24 A2983=
200608041900 METAR MRLB 041900Z 06008KT 9999 FEW035 OVC250 33/24 A2980=
200608042000 METAR MRLB 042000Z 10006KT 9999 FEW035 OVC250 32/23 A2978=
200608042100 METAR MRLB 042100Z 09009KT 9999 SCT030 BKN150 31/22 A2976 RMK RN DST N CB DST E=
200608042200 METAR MRLB 042200Z 08005KT 9999 FEW035 BKN140 30/25 A2975=
200608042300 METAR MRLB 042300Z 11004KT CAVOK 27/24 A2974 RMK CB DST ENE=
200608050000 METAR MRLB 050000Z 09004KT CAVOK 26/22 A2975=
200608050100 METAR MRLB NIL=
200608050200 METAR MRLB NIL=
200608050300 METAR MRLB NIL=
200608050400 METAR MRLB NIL=
200608050500 METAR MRLB NIL=
200608050600 METAR MRLB NIL=
200608050700 METAR MRLB NIL=
200608050800 METAR MRLB NIL=
200608050900 METAR MRLB NIL=
200608051000 METAR MRLB NIL=
200608051100 METAR MRLB NIL=
200608051200 METAR MRLB 051200Z 10002KT 9999 FEW030 BKN030 22/21 A2978=
200608051300 METAR MRLB 051300Z 00000KT 9999 FEW035 SCT250 23/22 A2979=
200608051400 METAR MRLB 051400Z 00000KT 9999 FEW035 SCT250 27/24 A2979=
200608051500 METAR MRLB 051500Z 04006KT 9999 FEW035 BKN240 27/22 A2980=
200608051600 METAR MRLB 051600Z 09011KT 09011KT 9999 FEW035 SCT130 BKN250 27/22 A2979=
200608051700 METAR MRLB 051700Z 08010KT 9999 FEW035 BKN250 29/22 A2978=
200608051800 METAR MRLB 051800Z 12006KT 9999 SCT035 BKN240 30/24 A2977=
200608051900 METAR MRLB 051900Z 09011KT 9999 FEW035 BKN240 31/23 A2975=
200608052000 METAR MRLB 052000Z 10010KT 9999 FEW035 BKN250 31/23 A2975=
200608052100 METAR MRLB 052100Z 08007KT 9999 FEW035 OVC250 31/22 A2973=
200608052200 METAR MRLB 052200Z 08008KT 9999 FEW035 OVC250 31/21 A2972=
200608052300 METAR MRLB 052300Z 08006KT 9999 FEW035 OVC250 30/22 A2972=
200608060000 METAR MRLB NIL=
200608060100 METAR MRLB NIL=
200608060200 METAR MRLB NIL=
200608060300 METAR MRLB NIL=
200608060400 METAR MRLB NIL=
200608060500 METAR MRLB NIL=
200608060600 METAR MRLB NIL=
200608060700 METAR MRLB NIL=
200608060800 METAR MRLB NIL=
200608060900 METAR MRLB NIL=
200608061000 METAR MRLB NIL=
200608061100 METAR MRLB NIL=
200608061200 METAR MRLB 061200Z 25003KT CAVOK 22/20 A2978=
200608061300 METAR MRLB 061300Z 10003KT CAVOK 22/21 A2978=
200608061400 METAR MRLB 061400Z 00000KT 9999 FEW030 BKN250 24/22 A2979=
200608061500 METAR MRLB 061500Z 22004KT 9999 FEW030 BKN130 25/23 A2980=
200608061600 METAR MRLB 061600Z 08008KT 9999 FEW035 BKN130 27/23 A2981=
200608061700 METAR MRLB 061700Z 32003KT 9999 FEW035 BKN130 29/23 A2979=
200608061800 METAR MRLB 061800Z 07010KT 9999 FEW035 BKN250 29/23 A2978=
200608061900 METAR MRLB 061900Z 06009KT 9999 FEW035 OVC250 31/23 A2976=
200608062000 METAR MRLB 062000Z 06009KT 9999 SCT035 BKN250 30/23 A2974=
200608062100 METAR MRLB 062100Z 06010KT 9999 FEW035 OVC250 33/23 A2974=
200608062200 METAR MRLB 062200Z 06010KT 9999 SCT035 BKN250 31/22 A2974=
200608062300 METAR MRLB 062300Z 09010KT 9999 FEW035 OVC250 30/21 A2975=
200608070000 METAR MRLB 070000Z 08011KT 9999 FEW035 OVC250 28/21 A2976=
200608070100 METAR MRLB NIL=
200608070200 METAR MRLB NIL=
200608070300 METAR MRLB NIL=
200608070400 METAR MRLB NIL=
200608070500 METAR MRLB NIL=
200608070600 METAR MRLB NIL=
200608070700 METAR MRLB NIL=
200608070900 METAR MRLB NIL=
200608071100 METAR MRLB NIL=
200608071200 METAR MRLB 071200Z 08014KT CAVOK 26/21 A2977=
200608071300 METAR MRLB 071300Z 04006KT CAVOK 26/21 A2980=
200608071400 METAR MRLB 071400Z 03004KT CAVOK 29/22 A2980=
200608071500 METAR MRLB 071500Z 01004KT 9999 FEW035 BKN250 28725 A2982=
200608071600 METAR MRLB 071600Z 09011KT 9999 FEW035 BKN250 30/23 A2980=
200608071700 METAR MRLB NIL=
200608071800 METAR MRLB 071800Z 08010KT 9999 SCT035 BKN270 32/22 A2979=
200608071900 METAR MRLB 071900Z 10010KT 9999 SCT035 BKN270 32/23 A2977 RMK CB NE=
200608072000 METAR MRLB 072000Z 10010KT 9999 FEW025 BKN035 30/22 A2976 RN DST N=
200608072100 METAR MRLB 072100Z 08008KT 9999 FEW035 SCT120 BKN250 31/22 A2974=
200608072200 METAR MRLB 072200Z 09006KT 9999 FEW035 BKN120 29/21 A2974 CB DST S=
200608072300 METAR MRLB 072300Z 08011KT 9999 FEW040 OVC220 30/21 A2973=
200608080000 METAR MRLB 080000Z 07013KT 9999 FEW040 OVC160 29/21 A2975 CB DST E=
200608080100 METAR MRLB NIL=
200608080200 METAR MRLB NIL=
200608080300 METAR MRLB NIL=
200608080400 METAR MRLB NIL=
200608080500 METAR MRLB NIL=
200608080600 METAR MRLB NIL=
200608080700 METAR MRLB NIL=
200608080800 METAR MRLB NIL=
200608080900 METAR MRLB NIL=
200608081000 METAR MRLB NIL=
200608081100 METAR MRLB NIL=
200608081200 METAR MRLB 081200Z 25005KT CAVOK 22/20 A2973 RMK OVC250=
200608081300 METAR MRLB 081300Z 00000KT CAVOK 24/21 A2974 BKN250=
200608081400 METAR MRLB 081400Z 25002KT CAVOK 27/23 A2976 BKN250=
200608081500 METAR MRLB 081500Z 08014KT CAVOK 30/22 A2977 BKN250=
200608081600 METAR MRLB 081600Z 09015KT CAVOK 30/21 A2978 BKN250=
200608081700 METAR MRLB 081700Z 08015KT CAVOK 30/21 A2977 BKN250=
200608081800 METAR MRLB 081800Z 07017KT CAVOK 32/22 A2977 SCT250=
200608081900 METAR MRLB 081900Z 08010KT 9999 FEW040 SCT250 32/22 A2975=
200608082000 METAR MRLB 082000Z 10012KT 9999 FEW040 32/21 A2975=
200608082100 METAR MRLB 082100Z 07010KT 9999 FEW040 32/21 A2974=
200608082200 METAR MRLB 082200Z 10011KT 9999 FEW040 SCT250 31/20 A2973 CB SE S=
200608082300 METAR MRLB 082300Z 10009KT 9999 FEW040 SCT250 31/20 A2974 CB NE SE SW=
200608090000 METAR MRLB 090000Z 11006KT 9999 FEW040 BKN250 29/20 A2976 CB DST S=
200608090100 METAR MRLB NIL=
200608090200 METAR MRLB NIL=
200608090300 METAR MRLB NIL=
200608090400 METAR MRLB NIL=
200608090500 METAR MRLB NIL=
200608090600 METAR MRLB NIL=
200608090700 METAR MRLB NIL=
200608090800 METAR MRLB NIL=
200608090900 METAR MRLB NIL=
200608091000 METAR MRLB NIL=
200608091100 METAR MRLB NIL=
200608091200 METAR MRLB 091200Z 00000KT 9999 FEW030 BKN130 22/21 A2976=
200608091300 METAR MRLB 091300Z 06003KT 9999 FEW035 BKN130 23/21 A2978=
200608091400 METAR MRLB 091400Z 00000KT 9999 FEW035 OVC130 25/23 A2981=
200608091500 METAR MRLB 091500Z 00000KT 9999 FEW035 BKN130 26/23 A2982=
200608091600 METAR MRLB 091600Z 29004KT 9999 FEW035 BKN130 29/23 A2983=
200608091700 METAR MRLB 091700Z 09002KT 9999 FEW035 OVC140 30/23 A2982=
200608091800 METAR MRLB 091800Z 32007KT 9999 SCT030 BKN140 30/22 A2984 RN N NE=
200608091900 METAR MRLB 091900Z 08008KT 9999 SCT025 BKN120 25/21 A2983 RN S SW=
200608092000 METAR MRLB 092000Z 15004KT 9999 SCT030 OVC120 26/22 A2978=
200608092100 METAR MRLB 092100Z 16006KT 9999 SCT030 OVC130 26/22 A2976=
200608092200 METAR MRLB 092200Z 13004KT 9999 FEW030 OVC130 25/22 A2977=
200608092300 METAR MRLB 092300Z 14005KT 9999 SCT035 OVC130 24/22 A2977=
200608100000 METAR MRLB 100000Z 15004KT 9999 SCT035 OVC130 24/22 A2978=
200608100100 METAR MRLB NIL=
200608100200 METAR MRLB NIL=
200608100300 METAR MRLB NIL=
200608100400 METAR MRLB NIL=
200608100500 METAR MRLB NIL=
200608100600 METAR MRLB NIL=
200608100700 METAR MRLB NIL=
200608100800 METAR MRLB NIL=
200608100900 METAR MRLB NIL=
200608101000 METAR MRLB NIL=
200608101100 METAR MRLB NIL=
200608101200 METAR MRLB 101200Z 03003KT CAVOK 22/21 A2978=
200608101300 METAR MRLB 101300Z 27002KT CAVOK 24/22 A2980=
200608101400 METAR MRLB 101400Z 00000KT 9999 FEW030 SCT260 28/24 A2980=
200608101500 METAR MRLB 101500Z 06007KT 9999 SCT030 SCT140 29/23 A2981 RMK RN DST N=
200608101600 METAR MRLB 101600Z 08009KT 9999 FEW035 BKN250 30/23 A2981=
200608101700 METAR MRLB 101700Z 08011KT 9999 SCT035 BKN250 30/23 A2979=
200608101800 METAR MRLB 101800Z 09008KT 9999 FEW035 BKN250 31/23 A2976=
200608101900 METAR MRLB 101900Z 09008KT 9999 SCT035 BKN250 32/23 A2974=
200608102000 METAR MRLB 102000Z 09007KT 9999 SCT035 OVC250 33/23 A2972=
200608102100 METAR MRLB 102100Z 06010KT 9999 SCT035 OVC250 33/22 A2971=
200608102200 METAR MRLB 102200Z 07009KT 9999 FEW035 BKN240 30/22 A2970=
200608102300 METAR MRLB 102300Z 09006KT 9999 SCT035 BKN140 29/21 A2973=
200608110000 METAR MRLB 110000Z 33003KT 9999 SCT030 BKN130 28/22 A2974=
200608110100 METAR MRLB NIL=
200608110200 METAR MRLB NIL=
200608110300 METAR MRLB NIL=
200608110400 METAR MRLB NIL=
200608110500 METAR MRLB NIL=
200608110600 METAR MRLB NIL=
200608110700 METAR MRLB NIL=
200608110800 METAR MRLB NIL=
200608110900 METAR MRLB NIL=
200608111000 METAR MRLB NIL=
200608111100 METAR MRLB NIL=
200608111200 METAR MRLB 111200Z 00000KT 9999 FEW040 BKN250 23/22 A2977=
200608111300 METAR MRLB 111300Z 22003KT 9999 FEW040 SCT140 24/23 A2979=
200608111400 METAR MRLB 111400Z 26002KT 9999 FEW040 BKN140 25/23 A2980=
200608111500 METAR MRLB 111500Z 12005KT 9999 FEW040 BKN140 28/24 A2981=
200608111600 METAR MRLB 111600Z 04004KT CAVOK 28/24 A2981 RMK BKN130=
200608111800 METAR MRLB 111800Z 10007KT 9999 FEW040 BKN130 31/23 A2976=
200608111900 METAR MRLB 111900Z 07011KT 9999 FEW035 SCT130 BKN250 31/23 A2973=
200608112000 METAR MRLB 112000Z 08007KT 9999 FEW035 SCT130 BKN250 32/23 A2971=
200608112100 METAR MRLB 112100Z 07010KT 9999 FEW035 SCT130 BKN250 31/22 A2971=
200608112200 METAR MRLB 112200Z 03005KT 9999 FEW035 SCT130 BKN250 31/23 A2969 RMK CB NE SE S=
200608112300 METAR MRLB 112300Z 05007KT CAVOK 30/22 A2970 RMK CB SE SW=
200608120000 METAR MRLB 120000Z 05004KT 9999 FEW040 OVC250 29/22 RMK CB DST SW=
200608120100 METAR MRLB NIL=
200608120200 METAR MRLB NIL=
200608120300 METAR MRLB NIL=
200608120400 METAR MRLB NIL=
200608120500 METAR MRLB NIL=
200608120600 METAR MRLB NIL=
200608120700 METAR MRLB NIL=
200608120800 METAR MRLB NIL=
200608120900 METAR MRLB NIL=
200608121000 METAR MRLB NIL=
200608121100 METAR MRLB NIL=
200608121200 METAR MRLB 121200Z 12004KT 9999 FEW035 OVC250 23/22 A2979=
200608121300 METAR MRLB 121300Z 13002KT 9999 FEW040 OVC250 24/23 A2979 RMK CB SE NW=
200608121400 METAR MRLB 121400Z 09005KT 9999 FEW030 BKN250 27/24 A2980=
200608121500 METAR MRLB 121500Z 13003KT 9999 FEW030 SCT130 BKN250 28/24 A2979=
200608121600 METAR MRLB 121600Z 12004KT 9999 FEW035 OVC250 30/24 A2979=
200608121700 METAR MRLB 121700Z 32004KT 9999 SCT030 BKN250 30/24 A2978=
200608121800 METAR MRLB 121800Z 23002KT 9999 SCT030 BKN250 31/23 A2975=
200608121900 METAR MRLB 121900Z 05008KT 9999 SCT030 SCT130 32/24 A2973=
200608122000 METAR MRLB 122000Z 32007KT 9999 -RA SCT020TCU SCT030 29/23 A2972=
200608122100 METAR MRLB NIL=
200608122200 METAR MRLB 122200Z 25006KT 9999 FEW020 BKN130 27/24 A2970 CB DST E S SW=
200608122300 METAR MRLB 122300Z 21006KT 9999 FEW025 BKN130 27/24 A2970 CB DST E/S=
200608130000 METAR MRLB 130000Z 18004KT 9999 FEW020 BKN130 26/23 A2973=
200608130100 METAR MRLB NIL=
200608130200 METAR MRLB NIL=
200608130300 METAR MRLB NIL=
200608130400 METAR MRLB NIL=
200608130500 METAR MRLB NIL=
200608130600 METAR MRLB NIL=
200608130700 METAR MRLB NIL=
200608130800 METAR MRLB NIL=
200608130900 METAR MRLB NIL=
200608131000 METAR MRLB NIL=
200608131100 METAR MRLB NIL=
200608131200 METAR MRLB 131200Z 00000KT 9999 FEW030 OVC240 23/22 A2979=
200608131300 METAR MRLB 131300Z 03002KT 9999 FEW030 BKN140 24/23 A2981=
200608131400 METAR MRLB 131400Z 00000KT 9999 FEW035 BKN140 25/24 A2982=
200608131500 METAR MRLB 131500Z 19002KT 9999 FEW035 BKN140 27/25 A2982=
200608131600 METAR MRLB 131600Z 00000KT 9999 FEW035 SCT140 BKN250 29/25 A2982=
200608131700 METAR MRLB 131700Z 26003KT 9999 FEW035 BKN250 30/25 A2982=
200608131800 METAR MRLB 131800Z 10004KT 9999 SCT035 BKN250 32/25 A2979=
200608131900 METAR MRLB 131900Z 09005KT 9999 FEW035 BKN250 33/24 A2977=
200608132000 METAR MRLB 132000Z 06009KT 9999 FEW035 BKN250 33/23 A2975=
200608132100 METAR MRLB 132100Z 07008KT 9999 FEW035 BKN250 32/22 A2974=
200608132200 METAR MRLB 132200Z 06006KT 9999 FEW035 OVC250 32/22 A2974=
200608132300 METAR MRLB 132300Z 06005KT 9999 SCT035 OVC240 30/22 A2974=
200608140000 METAR MRLB 140000Z 07005KT 9999 SCT035 BKN140 29/22 A2977=
200608140100 METAR MRLB NIL=
200608140200 METAR MRLB NIL=
200608140300 METAR MRLB NIL=
200608140400 METAR MRLB NIL=
200608140500 METAR MRLB NIL=
200608140600 METAR MRLB NIL=
200608140700 METAR MRLB NIL=
200608140800 METAR MRLB NIL=
200608140900 METAR MRLB NIL=
200608141000 METAR MRLB NIL=
200608141100 METAR MRLB NIL=
200608141200 METAR MRLB 141200Z 05003KT 9999 FEW030 OVC250 26/21 A2977=
200608141300 METAR MRLB 141300Z 06004KT 9999 FEW035 BKN250 28/23 A2978=
200608141400 METAR MRLB 141400Z 06014KT 9999 FEW035 BKN270 29/22 A2980=
200608141500 METAR MRLB 141500Z 07012KT 9999 FEW035 BKN270 30/22 A2981=
200608141600 METAR MRLB 141600Z 09014KT 9999 FEW035 SCT260 30/22 A2980=
200608141700 METAR MRLB 141700Z 07014KT 9999 FEW035 BKN260 32/22 A2980=
200608141800 METAR MRLB 141800Z 07012KT 9999 FEW025 BKN270 30/22 A2981=
200608141900 METAR MRLB 141900Z 07011KT 9999 SCT035 BKN240 32/23 A2977=
200608142000 METAR MRLB 142000Z 08011KT 9999 SCT035 OVC240 32/23 A2976=
200608142100 METAR MRLB 142100Z 06015KT 9999 SCT035 BKN140 30/22 A2975=
200608142200 METAR MRLB 142200Z 06010KT 9999 SCT030 BKN140 30/23 A2975=
200608142300 METAR MRLB 142300Z 06013KT 9999 SCT035 OVC140 29/22 A2976=
200608150000 METAR MRLB 150000Z 07010KT 9999 SCT030 OVC130 28/21 A2978=
200608150100 METAR MRLB NIL=
200608150200 METAR MRLB NIL=
200608150300 METAR MRLB NIL=
200608150400 METAR MRLB NIL=
200608150500 METAR MRLB NIL=
200608150600 METAR MRLB NIL=
200608150700 METAR MRLB NIL=
200608150800 METAR MRLB NIL=
200608150900 METAR MRLB NIL=
200608151000 METAR MRLB NIL=
200608151100 METAR MRLB NIL=
200608151200 METAR MRLB 151200Z 06009KT 9999 FEW040 OVC250 26/20 A2979=
200608151300 METAR MRLB 151300Z 07010KT 9999 FEW040 BKN250 27/21 A2981=
200608151400 METAR MRLB 151400Z 07015KT 9999 FEW040 BKN250 29/21 A2981=
200608151500 METAR MRLB 151500Z 07017KT CAVOK 30/22 A2981=
200608151600 METAR MRLB 151600Z 08016KT CAVOK 31/21 A2981=
200608151700 METAR MRLB 151700Z 07019KT CAVOK 32/21 A2982=
200608151800 METAR MRLB 151800Z 08012KT CAVOK 33/22 A2980=
200608151900 METAR MRLB 151900Z 08012KT 9999 FEW045 OVC250 33/21 A2979=
200608152000 METAR MRLB 152000Z 08014KT CAVOK 33/20 A2976=
200608152100 METAR MRLB 152100Z 09012KT CAVOK 31/19 A2975 RMK OVC250=
200608152200 METAR MRLB 152200Z 09011KT CAVOK 30/20 A2995 RMK BKN140=
200608152300 METAR MRLB 152300Z 08014KT CAVOK 30/20 A2976 RMK OVC130=
200608160000 METAR MRLB 160000Z 08008KT CAVOK 29/18 A2977 RMK OVC130=
200608160100 METAR MRLB NIL=
200608160200 METAR MRLB NIL=
200608160300 METAR MRLB NIL=
200608160400 METAR MRLB NIL=
200608160500 METAR MRLB NIL=
200608160600 METAR MRLB NIL=
200608160800 METAR MRLB NIL=
200608160900 METAR MRLB NIL=
200608161000 METAR MRLB NIL=
200608161100 METAR MRLB NIL=
200608161200 METAR MRLB 161200Z 30004KT CAVOK 24/21 A2976 OVC140=
200608161300 METAR MRLB 161300Z 26004KT CAVOK 24/22 A2978 RMK OVC140=
200608161400 METAR MRLB 161400Z 18006KT CAVOK 25/22 A2980 RMK OVC140=
200608161500 METAR MRLB 161500Z 06012KT 9999 FEW035 OVC220 28/23 A2980=
200608161600 METAR MRLB 161600Z 34002KT 9999 SCT035 BKN240 30/23 A2983=
200608161700 METAR MRLB 161700Z 08013KT 9999 SCT035 BKN250 32/22 A2982=
200608161800 METAR MRLB 161800Z 06015KT 9999 SCT035 BKN250 32/22 A2981=
200608161900 METAR MRLB 161900Z 10007KT 9999 SCT035 BKN250 32/21 A2980 CB DST NE=
200608162000 METAR MRLB 162000Z 08012KT 9999 FEW020 SCT030 BKN130 30/21 A2978 RMK RN DST N NE E RASH NW=
200608162100 METAR MRLB 162100Z 08012KT 9999 FEW030 BKN130 30/22 A2977 RMK RN N NE=
200608162200 METAR MRLB 162200Z 08005KT 9999 FEW035 OVC130 29/22 A2977 RMK CB N SW=
200608162300 METAR MRLB 162300Z 09006KT 9999 FEW035 OVC130 28/22 A2981 RMK CB N=
200608170000 METAR MRLB 170000Z 09005KT 9999 FEW030 OVC130 27/21 A2984 RMK RN DST N NE E=
200608170100 METAR MRLB NIL=
200608170200 METAR MRLB NIL=
200608170300 METAR MRLB NIL=
200608170400 METAR MRLB NIL=
200608170500 METAR MRLB NIL=
200608170600 METAR MRLB NIL=
200608170700 METAR MRLB NIL=
200608170800 METAR MRLB NIL=
200608170900 METAR MRLB NIL=
200608171000 METAR MRLB NIL=
200608171100 METAR MRLB NIL=
200608171200 METAR MRLB 171200Z 11003KT 9999 FEW030 BKN250 22/21 A2982=
200608171300 METAR MRLB 171300Z 00000KT 9999 FEW035 BKN250 25/23 A2983=
200608171400 METAR MRLB 171400Z 00000KT FEW035 BKN140 27/24 A2984=
200608171500 METAR MRLB 171500Z 08006KT 9999 FEW035 BKN140 29/24 A2985=
200608171600 METAR MRLB 171600Z 17003KT 9999 SCT035 OVC140 29/23 A2986=
200608171700 METAR MRLB 171700Z 09008KT 9999 SCT035 OVC130 30/23 A2985=
200608171800 METAR MRLB 171800Z 07010KT 9999 SCT035 OVC130 30/23 A2983=
200608171900 METAR MRLB 171900Z 07007KT 9999 FEW035 OVC130 30/22 A2980=
200608172000 METAR MRLB 172000Z 07008KT 9999 FEW035 BKN140 32/23 A2977=
200608172100 METAR MRLB 172100Z 15009KT 9999 SCT030 BKN130 28/20 A2976 RMK RN DST S SE=
200608172200 METAR MRLB 172200Z 13004KT 9999 FEW030 OVC120 26/23 A2977=
200608172300 METAR MRLB 172300Z 13004KT 9999 DZ SCT030 OVC120 25/23 A2979=
200608180000 METAR MRLB 180000Z 22002KT 9999 SCT030 OVC110 25/23 A2981=
200608180100 METAR MRLB NIL=
200608180200 METAR MRLB NIL=
200608180300 METAR MRLB NIL=
200608180400 METAR MRLB NIL=
200608180500 METAR MRLB NIL=
200608180700 METAR MRLB NIL=
200608180800 METAR MRLB NIL=
200608180900 METAR MRLB NIL=
200608181000 METAR MRLB NIL=
200608181100 METAR MRLB NIL=
200608181200 METAR MRLB 181200Z 00000KT 9999 FEW030 BKN130 22/21 A2981=
200608181300 METAR MRLB 181300Z 06003KT 9999 SCT030 BKN130 23/22 A2983=
200608181400 METAR MRLB NIL=
200608181500 METAR MRLB 181500Z 04002KT 9999 FEW035 BKN250 27/24 A2984=
200608181600 METAR MRLB 181600Z 07006KT 9999 FEW035 BKN250 30/24 A2983=
200608181700 METAR MRLB 181700Z 08010KT 9999 SCT035 SCT250 31/23 A2984=
200608181800 METAR MRLB 181800Z 08007KT 9999 FEW035 BKN250 43/33 A2981=
200608181900 METAR MRLB 181900Z 08010KT 9999 SCT035 BKN250 33/21 A2978=
200608182100 METAR MRLB 182100Z 07009KT 9999 FEW035 BKN140 31/21 A2975=
200608182200 METAR MRLB 182200Z 10008KT 9999 SCT035 BKN130 30/21 A2975=
200608182300 METAR MRLB 182300Z 10006KT 9999 SCT030 OVC130 29/22 A2976=
200608190000 METAR MRLB 190000Z 15004KT 9999 FEW030 BKN130 28/22 A2978=
200608190100 METAR MRLB NIL=
200608190200 METAR MRLB NIL=
200608190300 METAR MRLB NIL=
200608190400 METAR MRLB NIL=
200608190500 METAR MRLB NIL=
200608190600 METAR MRLB NIL=
200608190700 METAR MRLB NIL=
200608190800 METAR MRLB NIL=
200608190900 METAR MRLB NIL=
200608191000 METAR MRLB NIL=
200608191100 METAR MRLB NIL=
200608191200 METAR MRLB 191200Z 00000KT CAVOK 22/21 A2980=
200608191300 METAR MRLB 191300Z 00000KT CAVOK 24/23 A2981=
200608191400 METAR MRLB 191400Z 22002KT CAVOK 26/24 A2982=
200608191500 METAR MRLB 191500Z 22004KT 9999 FEW030 OVC250 28/24 A2982=
200608191600 METAR MRLB 191600Z 15002KT 9999 FEW035 BKN250 30/24 A2981=
200608191700 METAR MRLB 191700Z 08011KT 9999 SCT035 BKN250 32/23 A2980=
200608191800 METAR MRLB 191800Z 13005KT 9999 -RA BKN030 SCT250 32/22 A2979=
200608191900 METAR MRLB 191900Z 25006KT 9999 4000SW -RA SCT020 BKN100 28/24 A2977=
200608192000 METAR MRLB 192000Z 27007KT 9999 3000NE -TSRA SCT010CB SCT020 28/24 A2975=
200608192100 METAR MRLB 192100Z 27005KT 9999 -RA SCT020 BKN030 22/20 A2993 RMK TS DST W=
200608192200 METAR MRLB 192200Z NIL=
200608192300 METAR MRLB NIL=
200608200000 METAR MRLB 200000Z 16006KT 9999 FEW020 OVC100 23/22 A2981=
200608200100 METAR MRLB NIL=
200608200200 METAR MRLB NIL=
200608200300 METAR MRLB NIL=
200608200400 METAR MRLB NIL=
200608200500 METAR MRLB NIL=
200608200600 METAR MRLB NIL=
200608200700 METAR MRLB NIL=
200608200800 METAR MRLB NIL=
200608200900 METAR MRLB NIL=
200608201000 METAR MRLB NIL=
200608201100 METAR MRLB NIL=
200608201200 METAR MRLB 201200Z 04004KT 3000 BR FEW001 BKN250 22/22 A2980=
200608201300 METAR MRLB 201300Z 14003KT 9999 4000N BR FEW004 BKN250 23/23 A2983=
200608201400 METAR MRLB 201400Z 11002KT 9999 FEW010 OVC250 24/24 A2984=
200608201500 METAR MRLB 201500Z 16005KT 9999 SCT020 BKN250 26/24 A2986=
200608201600 METAR MRLB 201600Z 18003KT 9999 SCT025 BKN250 28/24 A2986=
200608201700 METAR MRLB 201700Z 20004KT 9999 SCT025 BKN250 29/24 A2985=
200608201800 METAR MRLB 201800Z 19004KT 9999 SCT030 SCT250 30/24 A2983 RMK RN DST N NE E CB RN S SW=
200608201900 METAR MRLB 201900Z 29009KT 9999 SCT020 BKN120 30/23 A2981 RMK SHRA DST NE E SW=
200608202000 METAR MRLB 202000Z 24012KT 3000 -TSRA FEW005 FEW008CB BKN020 23/20 A2981=
200608202100 METAR MRLB 202100Z 01004KT 9999 FEW020 OVC120 22/22 A2979 RMK RN DST N NE S=
200608202200 METAR MRLB 202200Z 00000KT 9999 -RA FEW020 OVC120 23/22 A2978=
200608202300 METAR MRLB 202300Z 04004KT 9999 -RA FEW020 OVC120 23/22 A2980=
200608210000 METAR MRLB NIL=
200608210100 METAR MRLB NIL=
200608210200 METAR MRLB NIL=
200608210300 METAR MRLB NIL=
200608210400 METAR MRLB NIL=
200608210500 METAR MRLB NIL=
200608210600 METAR MRLB NIL=
200608210700 METAR MRLB NIL=
200608210800 METAR MRLB NIL=
200608210900 METAR MRLB NIL=
200608211000 METAR MRLB NIL=
200608211100 METAR MRLB NIL=
200608211200 METAR MRLB 211200Z 00000KT 0200 FG VV/// 21/21 A2983=
200608211300 METAR MRLB 211300Z 00000KT 0800 FG SCT002 SCT008 22/21 A2986=
200608211400 METAR MRLB 211400Z 00000KT 9999 SCT025 BKN130 23/22 A2988=
200608211500 METAR MRLB 211500Z 26003KT 9999 SCT030 BKN130 24/23 A2989=
200608211600 METAR MRLB 211600Z 33003KT 9999 SCT030 BKN130 25/24 A2989=
200608211700 METAR MRLB 211700Z 03003KT 9999 FEW035 OVC140 27/25 A2988=
200608211800 METAR MRLB 211800Z 07005KT 9999 FEW035 BKN240 29/25 A2986=
200608211900 METAR MRLB 211900Z 10007KT 9999 SCT035 OVC240 30/24 A2984=
200608212000 METAR MRLB 212000Z 08007KT 9999 FEW035 OVC240 31/23 A2981=
200608212100 METAR MRLB 212100Z 05005KT 9999 FEW035 BKN240 31/23 A2978=
200608212200 METAR MRLB 212200Z 10003KT 9999 FEW035 BKN240 31/23 A2978=
200608212300 METAR MRLB 212300Z 10004KT 9999 FEW035 BKN140 29722 A2978=
200608220000 METAR MRLB 220000Z 32003KT 9999 FEW035 OVC140 28/23 A2979=
200608220100 METAR MRLB NIL=
200608220200 METAR MRLB NIL=
200608220300 METAR MRLB NIL=
200608220400 METAR MRLB NIL=
200608220500 METAR MRLB NIL=
200608220600 METAR MRLB NIL=
200608220700 METAR MRLB NIL=
200608220800 METAR MRLB NIL=
200608220900 METAR MRLB NIL=
200608221000 METAR MRLB NIL=
200608221100 METAR MRLB NIL=
200608221200 METAR MRLB 221200Z 00000KT 9999 FEW030 BKN250 23/22 A2984=
200608221300 METAR MRLB 221300Z 00000KT 9999 SCT030 BKN250 24/23 A2986=
200608221400 METAR MRLB 221400Z 09007KT 9999 FEW035 BKN250 28/24 A2988=
200608221500 METAR MRLB 221500Z 09009KT 9999 FEW035 BKN240 28/23 A2990=
200608221600 METAR MRLB 221600Z 10009KT 9999 FEW035 BKN240 28/23 A2990=
200608221700 METAR MRLB 221700Z 10008KT 9999 FEW035 BKN140 28/23 A2990=
200608221800 METAR MRLB 221800Z 09008KT 9999 FEW035 OVC140 28/22 A2987=
200608221900 METAR MRLB 221900Z 10003KT 9999 FEW035 OVC140 29/23 A2983=
200608222000 METAR MRLB 222000Z 08005KT 9999 FEW035 BKN130 30/23 A2981=
200608222100 METAR MRLB 222100Z 36004KT 9999 FEW035 BKN140 30/23 A2980=
200608222200 METAR MRLB 222200Z 12003KT 9999 FEW035 SCT140 BKN250 31/23 A2979=
200608222300 METAR MRLB 222300Z 00000KT 9999 FEW035 BKN130 30/22 A2977=
200608230000 METAR MRLB 230000Z 19002KT 9999 FEW035 BKN130 28/23 A2980=
200608230100 METAR MRLB NIL=
200608230200 METAR MRLB NIL=
200608230300 METAR MRLB NIL=
200608230400 METAR MRLB NIL=
200608230500 METAR MRLB NIL=
200608230600 METAR MRLB NIL=
200608230700 METAR MRLB NIL=
200608230800 METAR MRLB NIL=
200608230900 METAR MRLB NIL=
200608231000 METAR MRLB NIL=
200608231100 METAR MRLB NIL=
200608231200 METAR MRLB 231200Z 06003KT 9999 SCT030 BKN120 24/22 A2984 RMK CB DST S SW=
200608231300 METAR MRLB 231300Z 36003KT 9999 FEW030 BKN120 25/24 A2985 RN DST N CB DST S SW=
200608231400 METAR MRLB 231400Z 06003KT 9999 SCT030 BKN120 28/24 A2987 RN DST N NE E=
200608231700 METAR MRLB 231700Z 05008KT 9999 SCT030 BKN250 30/24 A2987 RMK RN DIT N=
200608231800 METAR MRLB 231800Z 04008KT 9999 FEW035 BKN150 30/23 A2984 CB DST N NE E=
200608231900 METAR MRLB 231900Z 06007KT 9999 FEW035 OVC240 30/23 A2981 CB DST N NE=
200608232000 METAR MRLB 232000Z 08010KT 9999 FEW035 BKN140 31/23 A2979=
200608232100 METAR MRLB 232100Z 09008KT 9999 FEW035 SCT140 31/22 A2977=
200608232200 METAR MRLB 232200Z 10007KT 9999 FEW035 BKN140 31/22 A2979=
200608232300 METAR MRLB 232300Z 08006KT 9999 FEW035 BKN140 30/23 A2976=
200608240000 METAR MRLB 240000Z 10004KT 9999 FEW035 OVC140 28/22 A2977=
200608240100 METAR MRLB NIL=
200608240200 METAR MRLB NIL=
200608240300 METAR MRLB NIL=
200608240400 METAR MRLB NIL=
200608240500 METAR MRLB NIL=
200608240600 METAR MRLB NIL=
200608240700 METAR MRLB NIL=
200608240800 METAR MRLB NIL=
200608240900 METAR MRLB NIL=
200608241000 METAR MRLB NIL=
200608241100 METAR MRLB NIL=
200608241200 METAR MRLB 241200Z 10003KT 9999 FEW035 BKN250 23/21 A2977=
200608241300 METAR MRLB 241300Z 20002KT 9999 FEW035 BKN250 24/22 A2978=
200608241400 METAR MRLB 241400Z 24004KT 9999 FEW035 BKN120 25/23 A2981 CB RN N NE SE=
200608241500 METAR MRLB 241500Z 23004KT 9999 SCT030 BKN200 26/24 A2984 RN DST N NE E SE=
200608241600 METAR MRLB NIL=
200608241700 METAR MRLB 241700Z 11007KIT 9999 -BR FEW025 OVC120 24/23 A2985=
200608241800 METAR MRLB NIL=
200608241900 METAR MRLB 241900Z 10007KT 9999 FEW020 OVC100 25/23 A2983=
200608242000 METAR MRLB 242000Z 11007KT 9999 FEW020 OVC100 26/23 A2980=
200608242100 METAR MRLB 242100Z 15005KT 9999 FEW020 OVC100 26/23 A2977=
200608242200 METAR MRLB 242200Z 13004KT 9999 FEW020 OVC120 26/24 A2975=
200608242300 METAR MRLB 242300Z 18002KT CAVOK 26/23 A2976 OVC120=
200608250000 METAR MRLB 250000Z 00000KT 9999 FEW020 OVC120 25/23 A2979 RN DST N=
200608250100 METAR MRLB NIL=
200608250200 METAR MRLB NIL=
200608250300 METAR MRLB NIL=
200608250400 METAR MRLB NIL=
200608250500 METAR MRLB NIL=
200608250600 METAR MRLB NIL=
200608250700 METAR MRLB NIL=
200608250800 METAR MRLB NIL=
200608250900 METAR MRLB NIL=
200608251000 METAR MRLB NIL=
200608251100 METAR MRLB NIL=
200608251200 METAR MRLB 251200Z 00000KT 9999 FEW030 BKN240 21/21 A2989=
200608251300 METAR MRLB 251300Z 00000KT 9999 FEW030 BKN140 23/22 A2982=
200608251400 METAR MRLB 251400Z 00000KT 9999 FEW035 OVC140 24/22 A2984=
200608251500 METAR MRLB 251500Z 00000KT 9999 FEW035 BKN140 26/23 A2985=
200608251600 METAR MRLB 251600Z 20003KT 9999 FEW035 OVC140 27/24 A2985=
200608251700 METAR MRLB 251700Z 24003KT 9999 FEW035 BKN130 28/23 A2984=
200608251800 METAR MRLB 251800Z 30002KT 9999 FEW035 BKN140 29/24 A2982=
200608251900 METAR MRLB 251900Z 28003KT 9999 SCT035 BKN140 30/23 A2980=
200608252000 METAR MRLB 252000Z 26005KT 9999 SCT030 BKN130 30/23 A2976 RMK RN DST E=
200608252100 METAR MRLB 252100Z 26008KT 9999 SCT030 BKN130 29/23 A2976 RMK RN DST N/NE=
200608252200 METAR MRLB 252200Z 29008KT 2000 RA FEW015TCU SCT025 OVC130 27/22 A2976=
200608252300 METAR MRLB 252300Z 03006KT 9999 4000SW -RA FEW010 BKN025 22/21 A2976=
200608260000 METAR MRLB 260000Z 00000KT 9999 -RA SCT015 BKN100 22/22 A2978=
200608260100 METAR MRLB NIL=
200608260200 METAR MRLB NIL=
200608260300 METAR MRLB NIL=
200608260400 METAR MRLB NIL=
200608260500 METAR MRLB NIL=
200608260600 METAR MRLB NIL=
200608260700 METAR MRLB NIL=
200608260800 METAR MRLB NIL=
200608260900 METAR MRLB NIL=
200608261000 METAR MRLB NIL=
200608261100 METAR MRLB NIL=
200608261200 METAR MRLB 261200Z 00000KT 9999 FEW030 BKN130 22/22 A2978=
200608261300 METAR MRLB 261300Z 08005KT 9999 FEW030 OVC130 23/22 A2981=
200608261400 METAR MRLB 261400Z 07003KT 9999 FEW035 OVC130 23/23 A2989=
200608261500 METAR MRLB 261500Z 12005KT 9999 FEW035 OVC130 24/24 A2986=
200608261600 METAR MRLB 261600Z 12006KT 9999 FEW035 OVC130 26/25 A2985=
200608261700 METAR MRLB 261700Z 11007KT 9999 FEW035 BKN140 28/25 A2985=
200608261800 METAR MRLB 261800Z 12008KT 9999 FEW035 BKN140 30/24 A2983=
200608261900 METAR MRLB 261900Z 08002KT 9999 SCT035 OVC130 30/22 A2980=
200608262000 METAR MRLB 262000Z 24005KT 9999 SCT035 BKN130 28/23 A2978=
200608262100 METAR MRLB 262100Z 25004KT 9999 SCT030 OVC130 28/24 A2979 RMK RN DST N QUAD=
200608262200 METAR MRLB 262200Z 16004KT 9999 FEW015TCU SCT025 OVC120 27/23 A2977 RMK RN DST NE E=
200608262300 METAR MRLB 262300Z 03005KT 9999 SCT030 OVC120 26/22 A2979 RMK RN DST N=
200608270000 METAR MRLB 270000Z 04003KT 9999 SCT025 OVC110 24/22 A2981 RMK RN DST NE=
200608270100 METAR MRLB NIL=
200608270200 METAR MRLB NIL=
200608270300 METAR MRLB NIL=
200608270400 METAR MRLB NIL=
200608270500 METAR MRLB NIL=
200608270600 METAR MRLB NIL=
200608270700 METAR MRLB NIL=
200608270800 METAR MRLB NIL=
200608270900 METAR MRLB NIL=
200608271000 METAR MRLB NIL=
200608271100 METAR MRLB NIL=
200608271200 METAR MRLB 271200Z 06004KT CAVOK 22/21 A2981=
200608271300 METAR MRLB 271300Z 02003KT CAVOK 22/22 A2982=
200608271400 METAR MRLB 271400Z 04004KT CAVOK 23/23 A2983=
200608271500 METAR MRLB 271500Z 19004KT CAVOK 26/24 A2984=
200608271600 METAR MRLB 271600Z NIL=
200608271700 METAR MRLB 271700Z 19003KT 9999 SCT025 BKN140 29/24 A2986=
200608271800 METAR MRLB 271800Z 00000KT 9999 SCT025 SCT140 29/23 A2983 HZ E S=
200608271900 METAR MRLB 271900Z 28008KT 9999 SCT025 SCT130 30/24 A2981 RMK HZ E S=
200608272000 METAR MRLB 272000Z 27007KT 9999 SCT025 SCT130 30/24 A2979 TCU RN DST ENE E S=
200608272100 METAR MRLB 272100Z 30008KT 9999 SCT020TCU SCT250 30/24 A2977 CB/E RN DST NE S=
200608272200 METAR MRLB 272200Z 12004KT 9999 -RA FEW015 BKN120 26/21 A2977 TS DST S=
200608272300 METAR MRLB 272300Z 20005KT 9999 FEW020 BKN120 25/22 A2979 TCU RN NE E TS S/SW=
200608280000 METAR MRLB 280000Z 10006KT 9999 -RA SCT010TCU BKN020 25/22 A2982 RASH DST N/NE/E=
200608280100 METAR MRLB NIL=
200608280200 METAR MRLB NIL=
200608280300 METAR MRLB NIL=
200608280400 METAR MRLB NIL=
200608280500 METAR MRLB NIL=
200608280600 METAR MRLB NIL=
200608280700 METAR MRLB NIL=
200608280800 METAR MRLB NIL=
200608280900 METAR MRLB NIL=
200608281000 METAR MRLB NIL=
200608281100 METAR MRLB NIL=
200608281200 METAR MRLB 281200Z 36002KT 9999 SCT008 SCT015 22/22 A2982=
200608281300 METAR MRLB 281300Z 06002KT 9999 2000SW BR FEW002 SCT008 23/22 A2983=
200608281400 METAR MRLB 281400Z 00000KT 9999 BKN010 24/22 A2985=
200608281500 METAR MRLB 281500Z 12003KT 9999 FEW025 25/24 A2985=
200608281600 METAR MRLB 281600Z 09003KT 9999 FEW030 28/24 A2985=
200608281700 METAR MRLB 281700Z 32002KT 9999 SCT030 30/24 A2984=
200608281800 METAR MRLB 281800Z 19003KT 9999 SCT030 30/24 A2982=
200608281900 METAR MRLB 281900Z 30004KT 9999 SCT030 31/23 A2979=
200608282000 METAR MRLB 282000Z 28009KT 9999 SCT030 31/23 A2977=
200608282100 METAR MRLB 282100Z 28008KT 9999 SCT030 31/24 A2975 RN SE=
200608282200 METAR MRLB 282200Z 28008KT 9999 SCT030 29/23 A2973 RN E=
200608282300 METAR MRLB 282300Z 27007KT 9999 SCT020 29/22 A2973 TCU RN NE E SE S=
200608290000 METAR MRLB 290000Z 26003KT 9999 4000E -RA OVC020 28/22 A2975=
200608290100 METAR MRLB NIL=
200608290200 METAR MRLB NIL=
200608290300 METAR MRLB NIL=
200608290400 METAR MRLB NIL=
200608290500 METAR MRLB NIL=
200608290700 METAR MRLB NIL=
200608290800 METAR MRLB NIL=
200608290900 METAR MRLB NIL=
200608291000 METAR MRLB NIL=
200608291100 METAR MRLB NIL=
200608291200 METAR MRLB NIL=
200608291300 METAR MRLB 291300Z 00000KT 3000 BR SCT003 SCT250 24/23 A2982=
200608291400 METAR MRLB 291400Z 00000KT 9999 SCT025 SCT250 26/24 A2984=
200608291500 METAR MRLB 291500Z 19004KT 9999 FEW030 BKN250 27/25 A2985=
200608291600 METAR MRLB 291600Z 00000KT 9999 SCT035 BKN250 29/25 A2984=
200608291700 METAR MRLB 291700Z 13003KT 9999 SCT035 BKN250 29/25 A2983=
200608291800 METAR MRLB 291800Z 18002KT 9999 SCT035 BKN250 30/24 A2981=
200608291900 METAR MRLB 291900Z 14004KT 9999 SCT035 BKN250 32/24 A2977=
200608292000 METAR MRLB 292000Z 28003KT 9999 SCT035 OVC250 31/23 A2974=
200608292100 METAR MRLB 292100Z 29010KT 9999 SCT035 OVC250 30/25 A2974=
200608292200 METAR MRLB 292200Z 28009KT 9999 SCT035 OVC250 30/24 A2973=
200608292300 METAR MRLB 292300Z 25008KT 9999 SCT030 OVC250 28/24 A2974=
200608300000 METAR MRLB 300000Z 28005KT 9999 SCT020 BKN130 28/23 A2976 RMK RN DST E NE=
200608300100 METAR MRLB NIL=
200608300200 METAR MRLB NIL=
200608300300 METAR MRLB NIL=
200608300400 METAR MRLB NIL=
200608300500 METAR MRLB NIL=
200608300600 METAR MRLB NIL=
200608300700 METAR MRLB NIL=
200608300800 METAR MRLB NIL=
200608300900 METAR MRLB NIL=
200608301000 METAR MRLB NIL=
200608301100 METAR MRLB NIL=
200608301200 METAR MRLB 301200Z 05004KT 9999 SCT015 OVC250 24/23 A2980 RMK BR W=
200608301300 METAR MRLB 301300Z 06002KT 9999 FEW025 BKN250 25/24 A2983=
200608301400 METAR MRLB 301400Z 05002KT 9999 FEW030 BKN250 27/25 A2985=
200608301500 METAR MRLB 301500Z 28002KT 9999 FEW035 BKN250 28/25 A2986=
200608301600 METAR MRLB 301600Z 16004KT 9999 SCT035 BKN250 29/24 A2988=
200608301700 METAR MRLB 301700Z 10003KT 9999 SCT035 OVC250 31/25 A2985=
200608301800 METAR MRLB 301800Z 12005KT 9999 SCT035 OVC250 32/24 A2982=
200608301900 METAR MRLB 301900Z 27007KT 9999 SCT035 BKN250 31/25 A2979=
200608302000 METAR MRLB 302000Z 29006KT 9999 SCT035 OVC250 31/25 A2975=
200608302100 METAR MRLB 302100Z 27006KT 9999 SCT035 OVC250 32/25 A2973=
200608302200 METAR MRLB 302200Z 27005KT 9999 FEW035 BKN250 32/25 A2973=
200608302300 METAR MRLB 302300Z 23004KT 9999 SCT030 OVC250 29/24 A2974=
200608310000 METAR MRLB 310000Z 24002KT 9999 SCT030 OVC240 28/24 A2976=
200608310100 METAR MRLB NIL=
200608310200 METAR MRLB NIL=
200608310300 METAR MRLB NIL=
200608310400 METAR MRLB NIL=
200608310500 METAR MRLB NIL=
200608310600 METAR MRLB NIL=
200608310700 METAR MRLB NIL=
200608310800 METAR MRLB NIL=
200608310900 METAR MRLB NIL=
200608311000 METAR MRLB NIL=
200608311100 METAR MRLB NIL=
200608311200 METAR MRLB 311200Z 14003KT 9999 BKN025 23/22 A2982 RN N NE E=
200608311300 METAR MRLB 311300Z 00000KT 9999 -RA BKN025 SCT120 24/23 A2985=
200608311400 METAR MRLB 311400Z 09003KT 9999 -RA SCT020 BKN120 24/23 A2989=
200608311500 METAR MRLB 311500Z 00000KT 9999 FEW020 BKN120 26/25 A2988 RMK RN DST E/SE=
200608311600 METAR MRLB 311600Z 13005KT 9999 FEW025 BKN20 27/25 A2989=
200608311700 METAR MRLB 311700Z 14004KT 9999 FEW030 BKN130 29/25 A2987=
200608311800 METAR MRLB 311800Z 11006KT 9999 FEW030 BKN140 30/24 A2983=
200608311900 METAR MRLB 311900Z 17008KT 9999 FEW035 BKN130 29/23 A2981 RMK CB DST N/E=
200608312000 METAR MRLB 312000Z 15007KT 9999 FEW035 BKN130 29/24 A2981 RMK CB DST S=
200608312100 METAR MRLB 312100Z 20008KT 9999 FEW030 BKN130 30724 A2981=
200608312200 METAR MRLB 312200Z 22004KT 9999 FEW030 BKN130 31/24 A2979 RMK CB RN N NE S=
200608312300 METAR MRLB 312300Z 17003KT 9999 4000 N VCSH SCT010TCU SCT120 28/24 A2980=
200609010000 METAR MRLB 01000Z 36009KT 9999 -TSRA FEW010CB FEW015 BKN120 22/20 A2983=
200609010100 METAR MRLB NIL=
200609010200 METAR MRLB NIL=
200609010300 METAR MRLB NIL=
200609010400 METAR MRLB NIL=
200609010500 METAR MRLB NIL=
200609010600 METAR MRLB NIL=
200609010700 METAR MRLB NIL=
200609010800 METAR MRLB NIL=
200609010900 METAR MRLB NIL=
200609011000 METAR MRLB NIL=
200609011100 METAR MRLB NIL=
200609011200 METAR MRLB 011200Z 02003KT CAVOK 22/21 A2983 RMK CB DST W=
200609011300 METAR MRLB 011300Z 05004KT 9999 SCT020 SCT130 24/23 A2985=
200609011400 METAR MRLB 011400Z 00000KT 9999 FEW025 SCT130 25/24 A2988=
200609011500 METAR MRLB 011500Z 21002KT 9999 SCT025 27/24 A2988 RMK CB SE W=
200609011600 METAR MRLB 011600Z 23003KT 9999 SCT030 SCT120 29/24 A2988=
200609011700 METAR MRLB 011700Z 21003KT 9999 SCT030 BKN250 29/23 A2987 RMK CB SW NW=
200609011800 METAR MRLB 011800Z 28009KT 9999 BKN020 SCT250 30/24 RMK RN N NE=
200609011900 METAR MRLB 011900Z 26009KT 9999 2000E -TSRA FEW010CB BKN015 27/24 A2981=
200609012000 METAR MRLB 012000Z 29006KT 9999 -RA FEW020 OVC120 24/23 A2980 RMK TS SW=
200609012100 METAR MRLB 012100Z 24002KT 9999 FEW010 OVC120 24/23 A2978 TCU RN DST N TCU E NE S E RN DST SW=
200609012200 METAR MRLB 012200Z 19003KT 9999 FEW020 OVC120 24/23 A2977 CB DST E=
200609012300 METAR MRLB 012300Z 24002KT 9999 FEW025 OVC120 25/24 A2979 RN DST E SW=
200609020000 METAR MRLB 020000Z 36009KT 9999 -TSRA FEW020 OVC120 25/24 A2981=
200609020100 METAR MRLB NIL=
200609020200 METAR MRLB NIL=
200609020300 METAR MRLB NIL=
200609020400 METAR MRLB NIL=
200609020500 METAR MRLB NIL=
200609020600 METAR MRLB NIL=
200609020700 METAR MRLB NIL=
200609020800 METAR MRLB NIL=
200609020900 METAR MRLB NIL=
200609021000 METAR MRLB NIL=
200609021100 METAR MRLB NIL=
200609021200 METAR MRLB 021200Z 00000KT 1500 BR SCT003 SCT010 21/21 A2983=
200609021300 METAR MRLB 021300Z 22002KT 9999 SCT015 BKN130 23/22 A2983=
200609021400 METAR MRLB 021400Z 00000KT 9999 FEW030 BKN250 24/24 A2983=
200609021500 METAR MRLB 021500Z 09002KT 9999 FEW035 OVC250 25/24 A2985=
200609021600 METAR MRLB 021600Z 27002KT 9999 FEW035 OVC250 28/25 A2984=
200609021700 METAR MRLB 021700Z 29004KT 9999 SCT035 OVC250 29/24 A2983=
200609021800 METAR MRLB 021800Z 00000KT 9999 SCT035 OVC240 29/24 A2981=
200609021900 METAR MRLB 021900Z 28003KT 9999 FEW035 BKN240 28/24 A2978=
200609022000 METAR MRLB 022000Z 29004KT 9999 SCT035 OVC240 29/24 A2975=
200609022100 METAR MRLB 022100Z 28004KT 9999 SCT035 BKN250 30/25 A2975=
200609022200 METAR MRLB 022200Z 27004KT 9999 SCT035 BKN250 31/24 A2974 RN S SW=
200609022300 METAR MRLB NIL=
200609030000 METAR MRLB 0300000Z 15004KT 9999 SCT025 OVC120 25/22 A2979 RN DST S=
200609030100 METAR MRLB NIL=
200609030200 METAR MRLB NIL=
200609030300 METAR MRLB NIL=
200609030400 METAR MRLB NIL=
200609030500 METAR MRLB NIL=
200609030600 METAR MRLB NIL=
200609030700 METAR MRLB NIL=
200609030800 METAR MRLB NIL=
200609030900 METAR MRLB NIL=
200609031000 METAR MRLB NIL=
200609031100 METAR MRLB NIL=
200609031200 METAR MRLB 031200Z 08003KT 9999 1500 E BR SCT001 SCT020 22/21 A2982=
200609031300 METAR MRLB 031300Z 19002KT 9999 SCT025 BKN130 24/23 A2984=
200609031400 METAR MRLB 031400Z 00000KT 9999 FEW030 BKT250 25/24 A2985=
200609031500 METAR MRLB 031500Z 15003KT 9999 FEW035 OVC250 27/25 A2985=
200609031600 METAR MRLB 031600Z 22003KT 9999 SCT035 BKN250 29/25 A2985=
200609031700 METAR MRLB 031700Z 23003KT 9999 SCT035 OVC250 29/24 A2984=
200609031800 METAR MRLB 031800Z 23004KT 9999 SCT035 OVC250 29/24 A2983=
200609031900 METAR MRLB 031900Z 09003KT 9999 SCT030 OVC250 30/24 A2981=
200609032000 METAR MRLB 032000Z 13003KT 999 SCT035 BKN250 31/23 A2978=
200609032100 METAR MRLB 032100Z 29010KT 9999 SCT035 BKN240 29/23 A2976=
200609032200 METAR MRLB 032200Z 28006KT 9999 SCT035 BKN240 30/24 A2975 RMK RN DST S=
200609032300 METAR MRLB 032300Z 27007KT 9999 SCT030 OVC240 28/23 A2976=
200609040000 METAR MRLB 040000Z 18009KT 9999 2000SE -RA FEW015TCU SCT025 BKN120 26/22 A2981=
200609040100 METAR MRLB NIL=
200609040200 METAR MRLB NIL=
200609040300 METAR MRLB NIL=
200609040400 METAR MRLB NIL=
200609040500 METAR MRLB NIL=
200609040600 METAR MRLB NIL=
200609040700 METAR MRLB NIL=
200609040800 METAR MRLB NIL=
200609040900 METAR MRLB NIL=
200609041000 METAR MRLB NIL=
200609041100 METAR MRLB NIL=
200609041200 METAR MRLB 041200Z 04004KT CAVOK 21/21 A2983 RMK BKN140 BR DIST ARND=
200609041300 METAR MRLB 041300Z 00000KT CAVOK 22/22 A2984 RMK BANCO NIEBLA DST N W=
200609041400 METAR MRLB 041400Z 20005KT 9999 FEW008 OVC240 23/23 A2985=
200609041500 METAR MRLB 041500Z 20005KT CAVOK 24/24 A2986=
200609041600 METAR MRLB 041600Z 22005KT CAVOK 26/25 A2986=
200609041700 METAR MRLB 041700Z 26005KT 9999 FEW030 BKN140 29/25 A2986=
200609041800 METAR MRLB 041800Z 31003KT 9999 FEW030 SCT130 BKN250 30/24 A2984=
200609041900 METAR MRLB 041900Z 30006KT 9999 SCT030 BKN250 30/24 A2981=
200609042000 METAR MRLB 042000Z 26005KT 9999 SCT030 BKN250 31/24 A2979=
200609042100 METAR MRLB 042100Z 11004KT 9999 FEW030 OVC250 31/23 A2977 RMK CB DST S=
200609042200 METAR MRLB 042200Z 10003KT 9999 FEW035 BKN130 30/22 A2977 RMK CB DST E=
200609042300 METAR MRLB 042300Z 09006KT 9999 FEW035 SCT130 31/22 A2979=
200609050000 METAR MRLB 050000Z 07006KT 9999 FEW035 BKN130 29/21 A2980 RMK CB DST E=
200609050100 METAR MRLB NIL=
200609050200 METAR MRLB NIL=
200609050300 METAR MRLB NIL=
200609050400 METAR MRLB NIL=
200609050500 METAR MRLB NIL=
200609050600 METAR MRLB NIL=
200609050700 METAR MRLB NIL=
200609050800 METAR MRLB NIL=
200609050900 METAR MRLB NIL=
200609051000 METAR MRLB NIL=
200609051100 METAR MRLB NIL=
200609051200 METAR MRLB 051200Z 09005KT 9999 FEW035 SCT250 23/22 A2986 CB NE=
200609051300 METAR MRLB 051300Z 01003KT 9999 FEW035 SCT100 23/22 A2988=
200609051400 METAR MRLB 051400Z 01006KT 9999 FEW035 BKN120 25/23 A2990=
200609051500 METAR MRLB 051500Z 05005KT 9999 FEW035 BKN120 27/24 A2991=
200609051600 METAR MRLB 051600Z 08008KT 9999 SCT035 BKN270 31/24 A2988=
200609051700 METAR MRLB 051700Z 06011KT 9999 SCT035 BKN270 32/22 A2986 RMK CB RN DST N NE=
200609051800 METAR MRLB 051800Z 06011KT 9999 FEW035 SCT270 32/22 A2982 RMK RN DST S SW=
200609051900 METAR MRLB 051900Z 09011KT 9999 FEW040 BKN130 30/21 A2981=
200609052000 METAR MRLB 052000Z 09012KT 9999 FEW040 SCT130 32/21 A2979=
200609052100 METAR MRLB 052100Z 08014KT 9999 FEW035 BKN250 32/21 A2977=
200609052200 METAR MRLB 052200Z 10004KT 9999 FEW035 OVC250 31/22 A2975 RMK TCU NE E S=
200609052300 METAR MRLB 052300Z 12005KT 9999 FEW030 BKN160 30722 A2978 RMK RN NE=
200609060000 METAR MRLB 060000Z 09003KT 9999 BKN025 SCT130 29/21 A2980 RMK CB RN DST NE SE=
200609060100 METAR MRLB NIL=
200609060200 METAR MRLB NIL=
200609060300 METAR MRLB NIL=
200609060600 METAR MRLB NIL=
200609060700 METAR MRLB NIL=
200609060800 METAR MRLB NIL=
200609060900 METAR MRLB NIL=
200609061000 METAR MRLB NIL=
200609061100 METAR MRLB NIL=
200609061200 METAR MRLB 061200Z 12003KT 9999 FEW025 BKN250 22/21 A2982=
200609061300 METAR MRLB 061300Z 00000KT 9999 FEW030 BKN250 24/22 A2984=
200609061400 METAR MRLB 061400Z 15003KT 9999 FEW035 BKN250 27/24 A2986=
200609061500 METAR MRLB 061500Z 15003KT 9999 FEW035 OVC250 29/25 A2987=
200609061600 METAR MRLB 061600Z 12010KT 9999 FEW035 OVC250 30/23 A2986=
200609061700 METAR MRLB 061700Z 09009KT 9999 FEW028 OVC250 32/23 A2983=
200609061800 METAR MRLB 061800Z 03007KT 9999 FEW035 OVC250 32/23 A2982=
200609061900 METAR MRLB 061900Z 09010KT 9999 SCT035 BKN250 32/22 A2980=
200609062000 METAR MRLB 062000Z 10006KT 9999 SCT035 BKN250 32/22 A2976=
200609062100 METAR MRLB 062100Z 09006KT 9999 SCT035 OVC240 31/22 A2977=
200609062200 METAR MRLB 062200Z 10008KT 9999 -RA SCT030 BKN130 29/21 A2978=
200609062300 METAR MRLB 062300Z 15005KT 9999 SCT030 OVC130 28/22 A2978=
200609070000 METAR MRLB 070000Z 09004KT 9999 FEW030 OVC120 26/22 A2982 RN DST S=
200609070100 METAR MRLB NIL=
200609070200 METAR MRLB NIL=
200609070300 METAR MRLB NIL=
200609070400 METAR MRLB NIL=
200609070500 METAR MRLB NIL=
200609070600 METAR MRLB NIL=
200609070700 METAR MRLB NIL=
200609070800 METAR MRLB NIL=
200609070900 METAR MRLB NIL=
200609071000 METAR MRLB NIL=
200609071100 METAR MRLB NIL=
200609071200 METAR MRLB 071200Z 06003KT 9999 FEW030 OVC250 22/21 A2979=
200609071300 METAR MRLB NIL=
200609071400 METAR MRLB NIL=
200609071500 METAR MRLB 071500Z 19005KT 9999 FEW035 BKN250 27/24 A2983=
200609071600 METAR MRLB 071600Z 20005KT 9999 FEW035 BKN250 30/24 A2984=
200609071700 METAR MRLB NIL=
200609071800 METAR MRLB NIL=
200609071900 METAR MRLB 071900Z 27007KT 9999 SCT030 BKN250 31/22 A2979=
200609072000 METAR MRLB 072000Z 27009KT 9999 4000N -RA FEW015CB SCT025 BKN240 29/22 A2977=
200609072100 METAR MRLB 072100Z 25007KT 9999 SCT025 BKN140 26/23 A2975 RN S=
200609072200 METAR MRLB 072200Z 16004KT 9999 SCT025 BKN130 24/22 A2976=
200609072300 METAR MRLB 072300Z 09005KT 9999 SCT030 BKN120 24/22 A2977=
200609080000 METAR MRLB 080000Z 08004KT 9999 SCT030 BKN120 24/22 A2979=
200609080100 METAR MRLB NIL=
200609080200 METAR MRLB NIL=
200609080300 METAR MRLB 080300Z 29010KT 9999 2000E -TSRA FEW008 FEW010CB BKN120 27/22 A2980=
200609080400 METAR MRLB NIL=
200609080500 METAR MRLB NIL=
200609080600 METAR MRLB NIL=
200609080700 METAR MRLB NIL=
200609080800 METAR MRLB NIL=
200609080900 METAR MRLB NIL=
200609081000 METAR MRLB NIL=
200609081100 METAR MRLB NIL=
200609081200 METAR MRLB NIL=
200609081300 METAR MRLB 081300Z 00000KT 9999 FEW005 SCT030 BKN240 23/23 A2986=
200609081400 METAR MRLB NIL=
200609081500 METAR MRLB NIL=
200609081600 METAR MRLB 081600Z 36002KT 9999 SCT025 BKN250 27/26 A2988=
200609081700 METAR MRLB NIL=
200609081800 METAR MRLB 081800Z 29004KT 9999 BKN030 SCT250 30/24 A2984=
200609081900 METAR MRLB 081900Z 27008KT 9999 SCT025 BKN250 30/24 A2981 RN NE=
200609082000 METAR MRLB 082000Z 26012KT 9999 FEW020 SCT120 BKN250 29/23 A2979 TS RASH NE E=
200609082100 METAR MRLB 082100Z 29010KT 9999 2000E -TSRA FEW008 FEW010CB BKN120 27/22 A2980=
200609082200 METAR MRLB 082200Z 04004KT 9999 -RA FEW015 BKN020 24/22 A2980 RMK TS DST S=
200609082300 METAR MRLB 082300Z 15004KT 9999 3000SW -TSRA FEW015CB BKN120 24/22 A2982=
200609090000 METAR MRLB 090000Z 11004KT 9999 -RA FEW015 OVC120 23/22 A2982=
200609090100 METAR MRLB NIL=
200609090200 METAR MRLB NIL=
200609090300 METAR MRLB NIL=
200609090400 METAR MRLB NIL=
200609090500 METAR MRLB NIL=
200609090600 METAR MRLB NIL=
200609090700 METAR MRLB NIL=
200609090800 METAR MRLB NIL=
200609090900 METAR MRLB NIL=
200609091000 METAR MRLB NIL=
200609091100 METAR MRLB NIL=
200609091200 METAR MRLB 091200Z 18002KT CAVOK 22/22 A2983 RMK OVC250 CB DIST S/SW=
200609091300 METAR MRLB 091300Z 00000KT 9999 SCT010 BKN250 22/22 A2986 RMK DUE ST SW=
200609091400 METAR MRLB 091400Z 00000KT 9999 FEW010 BKN140 24/23 A2988=
200609091500 METAR MRLB 091500Z 24003KT 9999 FEW015 SCT140 BKN250 25/24 A2989=
200609091600 METAR MRLB 091600Z 25004KT 9999 SCT020 BKN130 27/25 A2989 RMK CB SHRA DST NE TCU SHRA DST SW=
200609091700 METAR MRLB 091700Z 28005KT 9999 SCT020 BKN130 27/24 A2986 RMK RN DST NE=
200609091800 METAR MRLB NIL=
200609091900 METAR MRLB 091900Z 33006KT 9999 SCT020 BKN130 24/22 A2983 RMK TSRA DST S=
200609092000 METAR MRLB 092000Z 25006KT 9999 FEW020 BKN130 27/23 A2981 RMK RN DST SE S SW=
200609092100 METAR MRLB 092100Z 21004KT 9999 -RA SCT015 BKN120 26/22 A2979=
200609092200 METAR MRLB 092200Z 17003KT 9999 -RA FEW010 OVC100 25/23 A2978=
200609092300 METAR MRLB 092300Z 15003KT 9999 -RA FEW010 OVC120 24/23 A2979=
200609100000 METAR MRLB NIL=
200609100100 METAR MRLB NIL=
200609100200 METAR MRLB NIL=
200609100300 METAR MRLB NIL=
200609100400 METAR MRLB NIL=
200609100500 METAR MRLB NIL=
200609100600 METAR MRLB NIL=
200609100700 METAR MRLB NIL=
200609100800 METAR MRLB NIL=
200609100900 METAR MRLB NIL=
200609101000 METAR MRLB NIL=
200609101100 METAR MRLB NIL=
200609101200 METAR MRLB 101200Z 16003KT 9999 SCT020 BKN120 22/22 A2983 RN S=
200609101300 METAR MRLB 101300Z 15005KT 9999 FEW010 SCT020 BKN120 22/22 A2986 RMK RN DST S=
200609101400 METAR MRLB 101400Z 16005KT 9999 2000SW RA SCT010 OVC110 22/22 A2989=
200609101500 METAR MRLB NIL=
200609101600 METAR MRLB 101600Z 20004KT 9999 RA FEW008 SCT020 OVC100 22/22 A2991=
200609101700 METAR MRLB 101700Z 24002KT 9999 SCT020 BKN100 23/23 A2990 RMK RN DST S=
200609101800 METAR MRLB 101800Z 27003KT 9999 SCT030 BKN130 24/24 A2987 RMK RN DST NE=
200609101900 METAR MRLB 101900Z 19003KT 9999 SCT030 OVC120 24/23 A2985 RMK RN DST N=
200609102000 METAR MRLB 102000Z 24002KT 9999 SCT030 OVC120 24/24 A2982 RMK RN DST E/NE=
200609102100 METAR MRLB NIL=
200609102200 METAR MRLB 102200Z 07002KT 9999 SCT030 OVC130 24/24 A2975=
200609102300 METAR MRLB 102300Z 14002KT 9999 FEW030 OVC130 24724 A2977=
200609110000 METAR MRLB 110000Z 18003KT 9999 FEW030 OVC120 24/24 A2981=
200609110100 METAR MRLB NIL=
200609110200 METAR MRLB NIL=
200609110300 METAR MRLB NIL=
200609110400 METAR MRLB NIL=
200609110500 METAR MRLB NIL=
200609110600 METAR MRLB NIL=
200609110700 METAR MRLB NIL=
200609110800 METAR MRLB NIL=
200609110900 METAR MRLB NIL=
200609111000 METAR MRLB NIL=
200609111100 METAR MRLB NIL=
200609111200 METAR MRLB 111200Z 00000KT 9999 FEW030 BKN250 22/22 A2984=
200609111300 METAR MRLB 111300Z 03004KT 9999 FEW030 BKN250 23/22 A2986=
200609111400 METAR MRLB 111400Z 00000KT 9999 FEW035 OVC250 25/24 A2989=
200609111500 METAR MRLB 111500Z 00000KT 9999 SCT035 OVC250 26/24 A2991=
200609111600 METAR MRLB 111600Z 28007KT 9999 SCT035 BKN250 27/24 A2992=
200609111700 METAR MRLB 111700Z 28006KT 9999 SCT035 BKN250 28/25 A2990=
200609111800 METAR MRLB 111800Z 27006KT 9999 SCT035 BKN250 29/25 A2988=
200609111900 METAR MRLB 111900Z 28008KT 9999 SCT035 BKN250 29/24 A2984=
200609112000 METAR MRLB 112000Z 28010KT 9999 SCT035 OVC250 29/24 A2983=
200609112100 METAR MRLB 112100Z 28009KT 9999 FEW035 OVC250 29/24 A2980=
200609112200 METAR MRLB 112200Z 27009KT 9999 FEW035 BKN250 28/23 A2978=
200609112300 METAR MRLB 112300Z 26008KT 9999 FEW025 BKN250 27/23 A2978=
200609120000 METAR MRLB 120000Z 27006KT 9999 FEW035 BKN250 26/23 A2981=
200609120100 METAR MRLB NIL=
200609120200 METAR MRLB NIL=
200609120300 METAR MRLB NIL=
200609120400 METAR MRLB NIL=
200609120500 METAR MRLB NIL=
200609120600 METAR MRLB NIL=
200609120700 METAR MRLB NIL=
200609120800 METAR MRLB NIL=
200609120900 METAR MRLB NIL=
200609121000 METAR MRLB NIL=
200609121100 METAR MRLB NIL=
200609121200 METAR MRLB 121200Z 00000KT CAVOK 23/23 A2983 RMK OVC250 CB DST SW W=
200609121300 METAR MRLB 121300Z 03002KT 9999 FEW005 OVC250 24/24 A2984=
200609121400 METAR MRLB 121400Z 00000KT 9999 SCT010 BKN250 26/25 A2987=
200609121500 METAR MRLB 121500Z 27004KT 9999 SCT020 BKN250 26/25 A2988=
200609121600 METAR MRLB 121600Z 22003KT 9999 SCT025 BKN250 29/25 A2986=
200609121700 METAR MRLB 121700Z 10006KT 9999 SCT030 BKN250 31/25 A2986=
200609121800 METAR MRLB 121800Z 14004KT 9999 SCT030 BKN250 32/24 A2985 RN DST W E=
200609121900 METAR MRLB 121900Z 28007KT 9999 BKN025 SCT250 29/23 A2983 TCU RN DST S/W=
200609122000 METAR MRLB 122000Z 25007KT 9999 SCT020 SCT120 29/24 A2981 TS RN DST N TCU RASH NE/E=
200609122100 METAR MRLB 122100Z 3004KT 9999 -RA FEW020 BKN120 23/20 A2983 TS W=
200609122200 METAR MRLB 122200Z 23003KT 9999 -RA OVC120 23/21 A2982=
200609122300 METAR MRLB 122300Z 18003KT CAVOK 23/21 A2982 OVC120=
200609130000 METAR MRLB 130000Z 13003KT CAVOK 23/22 A2981 OVC130=
200609130100 METAR MRLB NIL=
200609130200 METAR MRLB NIL=
200609130300 METAR MRLB NIL=
200609130400 METAR MRLB NIL=
200609130500 METAR MRLB NIL=
200609130600 METAR MRLB NIL=
200609130700 METAR MRLB NIL=
200609130800 METAR MRLB NIL=
200609130900 METAR MRLB NIL=
200609131000 METAR MRLB NIL=
200609131100 METAR MRLB NIL=
200609131200 METAR MRLB 131200Z 00000KT 0200 FG VV/// 21/20 A2983=
200609131300 METAR MRLB 131300Z 01003KT 1000 BR SCT002 BKN250 21/21 A2984=
200609131400 METAR MRLB 131400Z 04002KT 9999 FEW005 BKN250 23/22 A2988=
200609131500 METAR MRLB 131500Z 14002KT CAVOK 25/24 A2987=
200609131600 METAR MRLB 131600Z 25004KT CAVOK 27/25 A2985=
200609131700 METAR MRLB 131700Z 28005KT CAVOK 29/25 A2983=
200609131800 METAR MRLB 131800Z 31003KT 9999 FEW030 BKN250 30/24 A2982=
200609131900 METAR MRLB 131900Z 07012KT 9999 SCT035 BKN250 31/22 A2980=
200609132000 METAR MRLB 132000Z 08010KT 9999 FEW035 BKN250 32/22 A2977 CB E=
200609132100 METAR MRLB 132100Z 08009KT 9999 FEW035 BKN250 32/21 2975 RMK CB DST N/E=
200609132200 METAR MRLB 132200Z 09008KT CAVOK 31/21 A2974 RMK CB DST E=
200609132300 METAR MRLB 132300Z 10008KT CAVOK 29/21 A2976 RMK CB DST E TCU DST SE=
200609140000 METAR MRLB 140000Z 10006KT CAVOK 28/21 A2977 RMK CB DST E SE S=
200609140100 METAR MRLB NIL=
200609140200 METAR MRLB NIL=
200609140300 METAR MRLB NIL=
200609140400 METAR MRLB NIL=
200609140500 METAR MRLB NIL=
200609140600 METAR MRLB NIL=
200609140700 METAR MRLB NIL=
200609140800 METAR MRLB NIL=
200609140900 METAR MRLB NIL=
200609141000 METAR MRLB NIL=
200609141100 METAR MRLB NIL=
200609141200 METAR MRLB 141200Z 00000KT 9999 FEW030 BKN250 22/21 A2986=
200609141300 METAR MRLB 141300Z 00000KT 9999 SCT030 BKN250 24/22 A2989=
200609141400 METAR MRLB 141400Z 10003KT 9999 FEW035 SCT250 26/24 A2990=
200609141500 METAR MRLB 141500Z 13004KT 9999 FEW035 BKN250 28/24 A2990=
200609141600 METAR MRLB 141600Z 10004KT 9999 SCT035 BKN250 30/24 A2990=
200609141700 METAR MRLB 141700Z 28005KT 9999 SCT035 BKN250 30/23 A2990=
200609141800 METAR MRLB 141800Z 26005KT 9999 SCT035 BKN250 30/23 A2987 RMK RN DST N=
200609141900 METAR MRLB 141900Z 28010KT 9999 FEW020TCU SCT030 OVC250 30/24 A2983 RMK RN DST E NE N=
200609142000 METAR MRLB 142000Z 33003KT 9999 SCT025 BKN120 25/22 A2979 RMK RN DST S SW=
200609142100 METAR MRLB 142100Z 19005KT 9999 SCT030 OVC120 25/23 A2983 RMK RN DST S=
200609142200 METAR MRLB 142200Z 15007KT 9999 SCT030 OVC130 22/21 A2982=
200609142300 METAR MRLB 142300Z 13004KT 9999 DZ SCT025 OVC120 22/21 A2984=
200609150000 METAR MRLB 150000Z 20003KT 9999 SCT030 BKN120 22/21 A2985 RMK RN DST S=
200609150100 METAR MRLB NIL=
200609150200 METAR MRLB NIL=
200609150300 METAR MRLB NIL=
200609150400 METAR MRLB NIL=
200609150500 METAR MRLB NIL=
200609150700 METAR MRLB NIL=
200609150800 METAR MRLB NIL=
200609150900 METAR MRLB NIL=
200609151000 METAR MRLB NIL=
200609151100 METAR MRLB NIL=
200609151200 METAR MRLB 151200Z 03004KT 9999 FEW035 BKN250 21/20 A2988=
200609151300 METAR MRLB 151300Z 08002KT CAVOK 22/21 A2988=
200609151400 METAR MRLB 151400Z 03002KT CAVOK 24/23 A2990=
200609151500 METAR MRLB 151500Z 00000KT CAVOK 26/24 A2991=
200609151600 METAR MRLB 151600Z 26004KT 9999 FEW035 BKN250 27/24 A2989=
200609151700 METAR MRLB 151700Z 09010KT 9999 FEW035 BKN250 28/24 A2988=
200609151800 METAR MRLB 151800Z 08015KT 9999 FEW035 BKN250 32/22 A2984=
200609151900 METAR MRLB 151900Z 07017KT 9999 FEW035 BKN250 31/20 A2982=
200609152000 METAR MRLB 152000Z 27018KT 9999 FEW035 OVC250 31/21 A2980=
200609152100 METAR MRLB 152100Z 08015KT 9999 FEW035 BKN250 31/21 A2978=
200609152200 METAR MRLB 152200Z 10009KT 9999 SCT035 BKN250 30/20 A2977=
200609152300 METAR MRLB 152300Z 11009KT 9999 FEW035 OVC250 28/20 A2978=
200609160000 METAR MRLB 160000Z 09006KT 9999 FEW035 BKN250 27/19 A2981=
200609160100 METAR MRLB NIL=
200609160200 METAR MRLB NIL=
200609160300 METAR MRLB NIL=
200609160400 METAR MRLB NIL=
200609160500 METAR MRLB NIL=
200609160600 METAR MRLB NIL=
200609160700 METAR MRLB NIL=
200609160800 METAR MRLB NIL=
200609160900 METAR MRLB NIL=
200609161000 METAR MRLB NIL=
200609161100 METAR MRLB NIL=
200609161200 METAR MRLB 161200Z 05002KT CAVOK 21/19 A2986=
200609161300 METAR MRLB 161300Z 00000KT CAVOK 22/20 A2989=
200609161400 METAR MRLB 161400Z 00000KT 23/21 A2990=
200609161500 METAR MRLB 161500Z 00000KT CAVOK 24/22 A2990=
200609161600 METAR MRLB NIL=
200609161700 METAR MRLB 161700Z 13004KT 9999 FEW030 OVC130 27/23 A2989=
200609161800 METAR MRLB 161800Z 12003KT 9999 FEW030 OVC120 28/24 A2987=
200609161900 METAR MRLB 161900Z 12003KT 9999 FEW030 OVC120 29/24 A2984=
200609162000 METAR MRLB 162000Z 17004KT 9999 FEW030 OVC120 28/23 A2980=
200609162100 METAR MRLB 162100Z 18003KT 9999 SCT020 BKN120 28/24 A2979=
200609162200 METAR MRLB 162200Z 19002KT 9999 FEW030 OVC130 29/24 A2979 CB DST E=
200609162300 METAR MRLB 162300Z 20002KT 9999 FEW020 OVC120 28/24 A2979 CB DST E=
200609170000 METAR MRLB 170000Z 03009KT 9999 3000N FEW008 SCT012 26/23 A2982 TS DST W=
200609170100 METAR MRLB NIL=
200609170200 METAR MRLB NIL=
200609170300 METAR MRLB NIL=
200609170400 METAR MRLB NIL=
200609170500 METAR MRLB NIL=
200609170700 METAR MRLB NIL=
200609170800 METAR MRLB NIL=
200609170900 METAR MRLB NIL=
200609171000 METAR MRLB NIL=
200609171100 METAR MRLB NIL=
200609171200 METAR MRLB 171200Z 00000KT CAVOK 22/21 A2983 RMK BKN130=
200609171300 METAR MRLB 171300Z 00000KT CAVOK 22/22 A2984 SCT130 CB DST SW=
200609171400 METAR MRLB 171400Z 00000KT CAVOK 23/23 A2986 SCT130 CB DST S SW=
200609171500 METAR MRLB 171500Z 00000KT CAVOK 26/24 A2986 SCT250 CB DST SW=
200609171600 METAR MRLB 171600Z 26004KT 9999 FEW030 BKN250 28/24 A2986 CB DST SW=
200609171700 METAR MRLB 171700Z 26003KT 9999 BKN030 SCT250 29/23 A2985=
200609171800 METAR MRLB 171800Z 19003KT 9999 BKN030 SCT250 30/23 A2982=
200609171900 METAR MRLB 171900Z 30004KT 9999 SCT035 BKN250 31/23 A2979=
200609172000 METAR MRLB 172000Z 30006KT 9999 SCT030 BKN250 30/23 A2974=
200609172100 METAR MRLB NIL=
200609172105 METAR MRLB 172105Z 27007KT 9999 SCT030 BKN250 30/23 A2974=
200609172200 METAR MRLB 172200Z 25008KT 9999 FEW010TCU OVC160 28723 A2973 TS/RN DST S=
200609172300 METAR MRLB 172300Z 23004KT 9999 SCT015 BKN150 27/23 A2976 RN DST SE S SW=
200609180000 METAR MRLB 180000Z 19005KT 9999 SCT010 BKN020 26/23 A2979 RASH DST E S SW=
200609180100 METAR MRLB NIL=
200609180300 METAR MRLB NIL=
200609180400 METAR MRLB NIL=
200609180500 METAR MRLB NIL=
200609180700 METAR MRLB NIL=
200609180800 METAR MRLB NIL=
200609180900 METAR MRLB NIL=
200609181000 METAR MRLB NIL=
200609181100 METAR MRLB NIL=
200609181200 METAR MRLB 181200Z 24003KT 9999 FEW030 OVC250 24/23 A2983=
200609181300 METAR MRLB 181300Z 16002KT 9999 FEW035 BKN250 25/23 A2987=
200609181400 METAR MRLB 181400Z 18003KT 9999 FEW035 BKN250 26/24 A2989=
200609181500 METAR MRLB 181500Z 25006KT 9999 FEW020TCU SCT030 BKN250 26/24 2991 RN SW=
200609181600 METAR MRLB 181600Z 26005KT 9999 FEW020TCU SCT035 OVC250 27/24 A2991 RN E SE=
200609181700 METAR MRLB 181700Z 29006KT 9999 SCT030 BKN250 28/24 A2989 RN E NE=
200609181800 METAR MRLB 181800Z 33006KT 9999 FEW015TCU SCT025 BKN130 26/22 A2989 RN E NE S=
200609181900 METAR MRLB 181900Z 33002KT 9999 DZ FEW035 BKN120 26/23 A2984=
200609182000 METAR MRLB NIL=
200609182300 METAR MRLB 182300Z 14006KT 9999 SCT030 BKN130 27/24 A2981 RMK RN DST N=
200609190000 METAR MRLB 190000Z 13005KT 9999 SCT025 BKN120 25/23 A2984 RMK RN DST E/NE=
200609190100 METAR MRLB NIL=
200609190300 METAR MRLB NIL=
200609190400 METAR MRLB NIL=
200609190500 METAR MRLB NIL=
200609190600 METAR MRLB NIL=
200609190700 METAR MRLB NIL=
200609190800 METAR MRLB NIL=
200609190900 METAR MRLB NIL=
200609191000 METAR MRLB NIL=
200609191100 METAR MRLB NIL=
200609191200 METAR MRLB 191200Z 35003KT 9999 DZ FEW010 BKN025 22/21 A2993=
200609191300 METAR MRLB NIL=
200609191400 METAR MRLB 191400Z 05003KT 9999 SCT035 BKN120 23/22 A2996 RMK RN DST S=
200609191500 METAR MRLB 191500Z 05004KT 9999 FEW035 BKN120 25/23 A2996=
200609191600 METAR MRLB 191600Z 00000KT 9999 FEW035 BKN130 26/23 A2995=
200609191700 METAR MRLB 191700Z 24004KT 9999 SCT035 BKN250 28/24 A2993=
200609191800 METAR MRLB 191800Z 26004KT 9999 SCT035 BKN250 29/24 A2989=
200609191900 METAR MRLB 191900Z 27006KT 9999 FEW035 BKN250 29/23 A2985=
200609192000 METAR MRLB 192000Z 26006KT 9999 FEW035 OVC250 29/23 A2983=
200609192100 METAR MRLB 192100Z 26008KT 9999 FEW035 BKN250 28/22 A2983 RMK RN DST E=
200609192200 METAR MRLB 192200Z 26008KT 9999 SCT030 BKN240 28/22 A2982 RMK RN DST E/NE/N=
200609192300 METAR MRLB 192300Z 05004KT 9999 SCT030TCU BKN140 26/22 A2985 RMK RN DST NE E=
200609200000 METAR MRLB 200000Z 05002KT 9999 SCT025 BKN120 25/21 A2986 RMK RN DST E/NE=
200609200100 METAR MRLB NIL=
200609200200 METAR MRLB NIL=
200609200300 METAR MRLB NIL=
200609200400 METAR MRLB NIL=
200609200500 METAR MRLB NIL=
200609200600 METAR MRLB NIL=
200609200700 METAR MRLB NIL=
200609200800 METAR MRLB NIL=
200609200900 METAR MRLB NIL=
200609201000 METAR MRLB NIL=
200609201100 METAR MRLB NIL=
200609201200 METAR MRLB 201200Z 00000KT 9999 SCT020 BKN030 23/22 A2988 RN NE/S/SW=
200609201300 METAR MRLB 201300Z 06002KT 9999 2000E -RA SCT005 BKN020 23/23 A2992=
200609201400 METAR MRLB 201400Z 01006KT 9999 -RA FEW010 OVC100 23/23 A2992=
200609201500 METAR MRLB 201500Z 36003KT 9999 -RA FEW010 OVC120 24/24 A2993=
200609201600 METAR MRLB 201600Z 31004KT 9999 FEW020 OVC120 26/24 A2994=
200609201700 METAR MRLB 201700Z 31008KT 9999 FEW020 OVC100 28/24 A2990 RMK CBS RN DST E=
200609201800 METAR MRLB 201800Z 26004KT 9999 SCT020 BKN120 28/24 A2987 TCU RASH DST NE E=
200609201900 METAR MRLB 201900Z 27005KT 9999 SCT020 BKN130 28/24 A2983=
200609202000 METAR MRLB 202000Z 05003KT 9999 SCT020 BKN130 28/24 A2980=
200609202100 METAR MRLB 202100Z 31004KT 9999 FEW020 OVC130 28/24 A2978=
200609202200 METAR MRLB 202200Z 28005KT 9999 FEW020TCU OVC120 27/24 A2980 RMK RN S SW=
200609202300 METAR MRLB 202300Z 29004KT 9999 FEW020TCU OVC130 26/24 A2981 RMK RN S SW=
200609210000 METAR MRLB NIL=
200609210100 METAR MRLB NIL=
200609210200 METAR MRLB NIL=
200609210300 METAR MRLB NIL=
200609210400 METAR MRLB NIL=
200609210500 METAR MRLB NIL=
200609210600 METAR MRLB NIL=
200609210700 METAR MRLB NIL=
200609210800 METAR MRLB NIL=
200609210900 METAR MRLB NIL=
200609211000 METAR MRLB NIL=
200609211100 METAR MRLB NIL=
200609211200 METAR MRLB 211200Z 00000KT 2000 BR FEW001 BKN020 22/22 A2983 RMK 9999 E=
200609211300 METAR MRLB 211300Z 19003KT 5000 BR SCT005 SCT120 23/23 A2985=
200609211400 METAR MRLB 211400Z 17006KT 9999 FEW010 SCT120 25/23 A2988=
200609211500 METAR MRLB 211500Z 17008KT 9999 SCT020 BKN130 26/24 A2990=
200609211600 METAR MRLB 211600Z 11006KT 9999 FEW030 BKN140 28/23 A2990 RMK CB WSW=
200609211700 METAR MRLB 211700Z 10006KT 9999 FEW030 BKN130 29/23 A2987=
200609211800 METAR MRLB 211800Z 08008KT 9999 FEW035 BKN140 30/22 A2984=
200609211900 METAR MRLB 211900Z 16006KT 9999 SCT030 SCT250 30/23 A2982=
200609212000 METAR MRLB 212000Z 26006KT 9999 SCT020 SCT100 29/24 A2981=
200609212100 METAR MRLB 212100Z 28011KT 9999 SCT020CB BKN120 27/24 A2979 TS/RASH N RN NE E S SW=
200609212200 METAR MRLB 212200Z 33006KT 9999 FEW010 BKN100 24/21 A2979 TS RASH S RN E SW W=
200609212300 METAR MRLB 212300Z 13004KT 9999 4000E -RA SCT008 BKN020 23/22 A2983=
200609220000 METAR MRLB 220000Z 03006KT 9999 -RA FEW020 OVC120 23/22 A2984=
200609220100 METAR MRLB NIL=
200609220200 METAR MRLB NIL=
200609220300 METAR MRLB NIL=
200609220400 METAR MRLB NIL=
200609220500 METAR MRLB NIL=
200609220600 METAR MRLB NIL=
200609220700 METAR MRLB NIL=
200609220800 METAR MRLB NIL=
200609220900 METAR MRLB NIL=
200609221000 METAR MRLB NIL=
200609221100 METAR MRLB NIL=
200609221200 METAR MRLB 221200Z 06003KT CAVOK 22/21 A2984=
200609221300 METAR MRLB 221300Z 14003KT CAVOK 24/22 A2986=
200609221400 METAR MRLB 221400Z 14004KT 9999 FEW030 SCT250 25/22 A2989=
200609221500 METAR MRLB 221500Z 16004KT 9999 FEW035 BKN250 27/22 A2990=
200609221600 METAR MRLB 221600Z 10005KT 9999 FEW035 BKN250 29/23 A2991=
200609221700 METAR MRLB 221700Z 16006KT 9999 FEW035 SCT250 30/23 A2989=
200609221800 METAR MRLB 221800Z 14005KT 9999 SCT035 BKN250 30/22 A2986=
200609221900 METAR MRLB 221900Z 15004KT 9999 SCT035 SCT250 31/22 A2983=
200609222000 METAR MRLB 222000Z 15004KT 9999 SCT035 BKN250 32/22 A2980=
200609222100 METAR MRLB 222100Z 28009KT 9999 2000NW RA FEW020CB SCT030 BKN140 30/24 A2978 RASH NW=
200609222200 METAR MRLB 222200Z 27006KT 9999 SCT030 OVC240 26/24 A2978 RN N S=
200609222300 METAR MRLB 222300Z 26005KT 9999 SCT030 BKN140 27/24 A2979 RN NE=
200609230000 METAR MRLB 230000Z 35003KT 9999 SCT030 BKN140 26/24 A2981=
200609230100 METAR MRLB NIL=
200609230200 METAR MRLB NIL=
200609230300 METAR MRLB NIL=
200609230400 METAR MRLB NIL=
200609230500 METAR MRLB NIL=
200609230600 METAR MRLB NIL=
200609230700 METAR MRLB NIL=
200609230800 METAR MRLB NIL=
200609230900 METAR MRLB NIL=
200609231000 METAR MRLB NIL=
200609231100 METAR MRLB NIL=
200609231200 METAR MRLB 231200Z 04003KT 9999 FEW030 SCT250 22/21 A2980=
200609231300 METAR MRLB 231300Z 14003KT 9999 FEW030 SCT250 25/22 A2982=
200609231400 METAR MRLB 231400Z 12005KT CAVOK 28/23 A2983=
200609231500 METAR MRLB 231500Z 12004KT 9999 FEW035 SCT250 30/23 A2985=
200609231600 METAR MRLB 231600Z 33003KT 9999 SCT035 BKN250 31/23 2986=
200609231700 METAR MRLB 231700Z 11003KT 9999 SCT035 BKN250 31/23 A2983=
200609231800 METAR MRLB 231800Z 10005KT 9999 SCT035 BKN250 32/23 A2980=
200609231900 METAR MRLB 231900Z 10007KT 9999 SCT035 BKN250 33/22 A2977=
200609232000 METAR MRLB 232000Z 08006KT 9999 SCT035 OVC250 32/22 A2974=
200609232100 METAR MRLB 232100Z 07008KT 9999 FEW035 BKN250 31/22 A2973 RMK RN DST E=
200609232200 METAR MRLB 232200Z 06009KT 9999 SCT030 BKN140 29/21 A2973=
200609232300 METAR MRLB 232300Z 06006KT 9999 SCT030 BKN140 28/22 A2972=
200609240000 METAR MRLB 240000Z 13004KT 9999 SCT035 BKN140 27/22 A2975=
200609240100 METAR MRLB NIL=
200609240200 METAR MRLB NIL=
200609240300 METAR MRLB NIL=
200609240400 METAR MRLB NIL=
200609240500 METAR MRLB NIL=
200609240600 METAR MRLB NIL=
200609240700 METAR MRLB NIL=
200609240800 METAR MRLB NIL=
200609240900 METAR MRLB NIL=
200609241000 METAR MRLB NIL=
200609241100 METAR MRLB NIL=
200609241200 METAR MRLB 241200Z 28003KT CAVOK 21/21 A2975 OVC250=
200609241300 METAR MRLB 241300Z 22002KT CAVOK 25/22 A2977=
200609241400 METAR MRLB 241400Z 06009KT CAVOK 28/21 A2977=
200609241500 METAR MRLB 241500Z 08013KT CAVOK 30/20 A2977=
200609241600 METAR MRLB NIL=
200609241700 METAR MRLB 241700Z 08015KT CAVOK 32/20 A2978=
200609241800 METAR MRLB 241800Z 08009KT 9999 FEW035 SCT250 33/20 A2977=
200609241900 METAR MRLB 241900Z 09009KT 9999 FEW035 SCT250 33/20 A2975=
200609242000 METAR MRLB 242000Z 09010KT 9999 FEW035 BKN250 33/19 A2972=
200609242100 METAR MRLB 242100Z 09009KT 9999 FEW035 OVC250 33/19 A2970 RMK CB DST SE=
200609242200 METAR MRLB 242200Z 08007KT 9999 FEW035 OVC250 32/21 A2970 RMK CB DST SE=
200609242300 METAR MRLB 242300Z 09005KT 9999 FEW035 BKN250 31/21 A2972 RMK CB DST S=
200609250000 METAR MRLB 250000Z 09005KT CAVOK 29/21 A2973 RMK FEWCU 8CI250=
200609250100 METAR MRLB NIL=
200609250200 METAR MRLB NIL=
200609250300 METAR MRLB NIL=
200609250400 METAR MRLB NIL=
200609250500 METAR MRLB NIL=
200609250600 METAR MRLB NIL=
200609250700 METAR MRLB NIL=
200609250800 METAR MRLB NIL=
200609250900 METAR MRLB NIL=
200609251000 METAR MRLB NIL=
200609251100 METAR MRLB NIL=
200609251200 METAR MRLB 251200Z 01003KT CAVOK 20/20 A2981=
200609251300 METAR MRLB 251300Z 10003KT CAVOK 22/21 A2982 RMK BKN250=
200609251400 METAR MRLB 251400Z 19003KT CAVOK 26/22 A2984 RMK SCT250=
200609251500 METAR MRLB 251500Z 27004KT CAVOK 27/22 A2985 RMK SCT250=
200609251600 METAR MRLB 251600Z 31003KT 9999 FEW030 SCT250 29/22 A2986=
200609251700 METAR MRLB 251700Z 20006KT 9999 FEW030 SCT030 31/22 A2985=
200609251800 METAR MRLB 251800Z 09008KT 9999 FEW030 SCT140 32/20 A2982=
200609251900 METAR MRLB 251900Z 09003KT 9999 SCT035 SCT140 32/20 A2979=
200609252000 METAR MRLB 252000Z 24003KT 9999 SCT035 SCT250 33/23 A2977=
200609252100 METAR MRLB 252100Z 28008KT 9999 SCT030 BKN250 30/23 A2976 RMK TCU NE E=
200609252200 METAR MRLB 252200Z 28007KT 9999 SCT030 BKN250 30/23 A2978 RMK TCU RN E S=
200609252300 METAR MRLB 252300Z 30005KT 9999 SCT025 BKN250 28/23 A2977=
200609260000 METAR MRLB 260000Z 27003KT 9999 SCT025 BKN250 27/23 A2978 RMK TCU DST E HZ ARND=
200609260100 METAR MRLB 260100Z 27003KT 9999 SCT025 BKN250 27/23 A2978 RMK TCU DST E HZ ARND=
200609260200 METAR MRLB NIL=
200609260300 METAR MRLB NIL=
200609260400 METAR MRLB NIL=
200609260500 METAR MRLB NIL=
200609260600 METAR MRLB NIL=
200609260700 METAR MRLB NIL=
200609260800 METAR MRLB NIL=
200609260900 METAR MRLB NIL=
200609261000 METAR MRLB NIL=
200609261100 METAR MRLB NIL=
200609261200 METAR MRLB 261200Z 09003KT 9999 FEW030 SCT250 22/22 A2983=
200609261300 METAR MRLB 261300Z 35003KT 9999 FEW030 SCT250 24/22 A2984=
200609261400 METAR MRLB 261400Z 00000KT CAVOK 27/23 A2986=
200609261500 METAR MRLB 261500Z 35004KT CAVOK 29/22 A2987=
200609261600 METAR MRLB 261600Z 06004KT 9999 FEW035 SCT260 30/22 A2987=
200609261700 METAR MRLB 261700Z 05005KT 9999 SCT035 SCT260 31/21 A2986=
200609261800 METAR MRLB 261800Z 09010KT 9999 SCT035 SCT260 32/21 A2983=
200609261900 METAR MRLB 261900Z 09006KT 9999 SCT030 32/21 A2979=
200609262000 METAR MRLB 262000Z 10004KT 9999 SCT035 32/20 A2977=
200609262100 METAR MRLB 262100Z 12006KT 9999 SCT035 32/20 A2975=
200609262200 METAR MRLB 262200Z 14002KT 9999 SCT030 SCT130 32/21 A2975=
200609262300 METAR MRLB 262300Z 26004KT 9999 FEW035 SCT130 29/23 A2977=
200609270000 METAR MRLB 270000Z 26003KT 9999 FEW035 SCT130 28/23 A2979=
200609270100 METAR MRLB NIL=
200609270200 METAR MRLB NIL=
200609270300 METAR MRLB NIL=
200609270400 METAR MRLB NIL=
200609270500 METAR MRLB NIL=
200609270600 METAR MRLB NIL=
200609270700 METAR MRLB NIL=
200609270800 METAR MRLB NIL=
200609270900 METAR MRLB NIL=
200609271000 METAR MRLB NIL=
200609271100 METAR MRLB NIL=
200609271200 METAR MRLB 271200Z 00000KT CAVOK 22/21 A2980=
200609271300 METAR MRLB 271300Z 00000KT CAVOK 26/22 A2983=
200609271400 METAR MRLB 271400Z 00000KT 9999 FEW030 SCT250 27/23 A2986=
200609271500 METAR MRLB NIL=
200609271600 METAR MRLB 271600Z 07011KT 9999 FEW035 SCT250 32/22 A2985=
200609271700 METAR MRLB 271700Z 10012KT 9999 SCT030 SCT250 31/21 A2983=
200609271800 METAR MRLB 271800Z 09010KT 9999 FEW035 32/22 A2981 TCU DST NW=
200609271900 METAR MRLB 271900Z 10010KT 9999 SCT035 33/23 A2978 TCU DST N CB DST ENE=
200609272000 METAR MRLB 272000Z 08010KT 9999 SCT035 SCT250 33/23 A2976 CB RN DST NNE CB E=
200609272100 METAR MRLB 272100Z 08010KT 9999 SCT035 SCT250 32/22 A2975=
200609272200 METAR MRLB 272200Z 08009KT 9999 SCT030 BKN240 30/22 A2975=
200609272300 METAR MRLB 272300Z 08008KT 9999 FEW030 BKN240 29/22 A2975=
200609280000 METAR MRLB 280000Z 10009KT 9999 FEW035 BKN240 28/22 A2977=
200609280100 METAR MRLB NIL=
200609280200 METAR MRLB NIL=
200609280300 METAR MRLB NIL=
200609280400 METAR MRLB NIL=
200609280500 METAR MRLB NIL=
200609280600 METAR MRLB NIL=
200609280700 METAR MRLB NIL=
200609280800 METAR MRLB NIL=
200609280900 METAR MRLB NIL=
200609281000 METAR MRLB NIL=
200609281100 METAR MRLB NIL=
200609281200 METAR MRLB 281200Z 26004KT 9999 FEW035 BKN100 23/22 A2981=
200609281300 METAR MRLB 281300Z 21004KT 9999 FEW035 SCT100 BKN250 24/23 A2983=
200609281400 METAR MRLB 281400Z 11007KT 9999 FEW035 SCT100 BKN250 27/23 A2984 RN E=
200609281500 METAR MRLB 281500Z 01006KT 9999 FEW035 OVC250 28/23 A2984=
200609281600 METAR MRLB 281600Z 06015KT 9999 FEW035 OVC250 31/21 A2983=
200609281700 METAR MRLB 281700Z 09012KT 9999 FEW035 OVC250 32/21 A2982=
200609281800 METAR MRLB 281800Z 10012KT 9999 FEW035 SCT130 BKN250 31/23 A2980=
200609281900 METAR MRLB 281900Z 07016KT 9999 FEW035 BKN130 31/22 A2978=
200609282000 METAR MRLB 282000Z 06010KT 9999 FEW035 SCT130 BKN250 32/22 A2976=
200609282100 METAR MRLB 282100Z 07008KT 9999 FEW040 OVC250 32/21 A2974=
200609282200 METAR MRLB 282200Z 08007KT CAVOK 32/21 A2972=
200609282300 METAR MRLB 282300Z 11007KT CAVOK 30/21 A2972=
200609290000 METAR MRLB 290000Z 10008KT CAVOK 28/21 A2974=
200609290100 METAR MRLB NIL=
200609290200 METAR MRLB NIL=
200609290300 METAR MRLB NIL=
200609290400 METAR MRLB NIL=
200609290500 METAR MRLB NIL=
200609290600 METAR MRLB NIL=
200609290700 METAR MRLB NIL=
200609290800 METAR MRLB NIL=
200609290900 METAR MRLB NIL=
200609291000 METAR MRLB NIL=
200609291100 METAR MRLB NIL=
200609291200 METAR MRLB 291200Z 06002KT CAVOK 21/20 A2979=
200609291300 METAR MRLB 291300Z 00000KT CAVOK 24/21 A2981=
200609291400 METAR MRLB 291400Z 19003KT CAVOK 26/22 A2982=
200609291500 METAR MRLB 291500Z 21004KT CAVOK 29/22 A2983=
200609291600 METAR MRLB 291600Z 08013KT 9999 FEW035 OVC250 31/21 A2983=
200609291700 METAR MRLB 291700Z 07010KT 9999 FEW035 OVC250 32/22 A2981=
200609291800 METAR MRLB 291800Z 09011KT 9999 SCT035 BKN250 33/22 A2979=
200609291900 METAR MRLB 291900Z 07009KT 9999 SCT035 BKN250 33/22 A2977=
200609292000 METAR MRLB 292000Z 08007KT 9999 SCT035 BKN250 33/22 A2974=
200609292100 METAR MRLB 292100Z 08007KT 9999 SCT035 SCT250 32/22 A2972 RMK CB SE DST=
200609292200 METAR MRLB 292200Z 10005KT 9999 SCT030 SCT250 31/22 A2972 RMK RN DST S SW=
200609292300 METAR MRLB 292300Z 25003KT 9999 FEW030 SCT130 BKN250 28/24 A2975 RMK CB RN DST N RN DST S=
200609300000 METAR MRLB 300000Z 22004KT 9999 SCT020 SCT130 27/24 Q////=
200609300100 METAR MRLB NIL=
200609300200 METAR MRLB NIL=
200609300300 METAR MRLB NIL=
200609300400 METAR MRLB NIL=
200609300500 METAR MRLB NIL=
200609300600 METAR MRLB NIL=
200609300700 METAR MRLB NIL=
200609300800 METAR MRLB NIL=
200609300900 METAR MRLB NIL=
200609301000 METAR MRLB NIL=
200609301100 METAR MRLB NIL=
200609301200 METAR MRLB 301200Z 00000KT 9999 FEW030 BKN140 23/22 A2979=
200609301300 METAR MRLB NIL=
200609301400 METAR MRLB 301400Z 25004KT 9999 FEW035 OVC240 25/23 A2982=
200609301500 METAR MRLB NIL=
200609301600 METAR MRLB 301600Z 06004KT 9999 FEW035 BKN250 31/22 A2982=
200609301700 METAR MRLB 301700Z 03005KT 9999 FEW035 BKN250 32/22 A2981=
200609301800 METAR MRLB 301800Z 08015KT 9999 FEW035 OVC250 32/21 A2978=
200609301900 METAR MRLB 301900Z 08014KT 9999 SCT035 OVC250 33/21 A2978=
200609302000 METAR MRLB 302000Z 07011KT 9999 SCT035 BKN250 33/21 A2976=
200609302100 METAR MRLB 302100Z 07009KT 9999 FEW035 OVC250 33/21 A2974=
200609302200 METAR MRLB 302200Z 07012KT 9999 FEW035 BKN250 31/21 A2974=
200609302300 METAR MRLB 302300Z 08008KT 9999 FEW035 BKN250 29/21 A2977=
200610010000 METAR MRLB 010000Z 10004KT 9999 SCT030 BKN240 27/22 A2979 RMK RN DST S=
200610010100 METAR MRLB NIL=
200610010200 METAR MRLB NIL=
200610010300 METAR MRLB NIL=
200610010400 METAR MRLB NIL=
200610010500 METAR MRLB NIL=
200610010600 METAR MRLB NIL=
200610010700 METAR MRLB NIL=
200610010800 METAR MRLB NIL=
200610010900 METAR MRLB NIL=
200610011000 METAR MRLB NIL=
200610011100 METAR MRLB NIL=
200610011200 METAR MRLB 011200Z 060004KT CAVOK 21/20 A2977=
200610011300 METAR MRLB 011300Z 00000KT CAVOK 24/21 A2979=
200610011400 METAR MRLB 011400Z 20004KT 9999 FEW030 BKN250 26/22 A2983=
200610011500 METAR MRLB 011500Z 10009KT 9999 FEW035 BKN250 29/22 A2986=
200610011600 METAR MRLB 011600Z 08009KT 9999 FEW035 BKN250 30/23 A2986=
200610011700 METAR MRLB 011700Z NIL=
200610011800 METAR MRLB 011800Z 08008KT 9999 SCT035 SCT250 33/20 A2980=
200610011900 METAR MRLB 011900Z 08009KT 9999 SCT030 SCT250 33/21 A2979=
200610012000 METAR MRLB 012000Z 10009KT 9999 SCT030 BKN250 33/20 A2975 RN DST NE=
200610012100 METAR MRLB 012100Z 14007KT 9999 -RA FEW020TCU SCT030 BKN130 27/23 A2976=
200610012200 METAR MRLB 012200Z 24003KT 9999 SCT030 BKN140 25/23 A2977 RN DST W=
200610012300 METAR MRLB 012300Z 06009KT 9999 SCT030 BKN130 26/24 A2979=
200610020000 METAR MRLB 020000Z 10004KT 9999 SCT030 OVC120 26/22 A2981 RN DST S=
200610020100 METAR MRLB NIL=
200610020400 METAR MRLB NIL=
200610020500 METAR MRLB NIL=
200610020600 METAR MRLB NIL=
200610021000 METAR MRLB NIL=
200610021100 METAR MRLB NIL=
200610021200 METAR MRLB 021200Z 12005KT CAVOK 25/21 A2981=
200610021300 METAR MRLB 021300Z 11005KT CAVOK 27/22 A2982 SCT250 CB DST S=
200610021400 METAR MRLB 021400Z 10006KT CAVOK 28/21 A2984 SCT250 CB DST S=
200610021500 METAR MRLB 021500Z 09008KT CAVOK 30/21 A2984 FEW250=
200610021600 METAR MRLB 021600Z 07014KT 9999 FEW035 30/21 A2983=
200610021700 METAR MRLB 021700Z 08011KT 9999 SCT040 31/21 A2983=
200610021800 METAR MRLB 021800Z 06010KT 9999 BKN035 31/21 A2980=
200610021900 METAR MRLB 021900Z 08008KT 9999 BKN035 32/21 A2977 RN DST NE=
200610022000 METAR MRLB 022000Z 07012KT 9999 SCT030 BKN100 29/21 A2974 CB DST NE=
200610022100 METAR MRLB 02210Z 08009KT 9999 FEW035 BKN250 31/21 A2972=
200610022200 METAR MRLB 022200Z 04010KT 9999 FEW030 BKN250 31/21 A2970 RN N CB NE=
200610022300 METAR MRLB 022300Z 06008KT 9999 FEW030 BKN250 30/22 A2972 CB RN NE NW=
200610030000 METAR MRLB 030000Z 07007KT 9999 SCT025 BKN120 27/23 A2976 RERA RN E=
200610030100 METAR MRLB NIL=
200610030200 METAR MRLB NIL=
200610030300 METAR MRLB NIL=
200610030400 METAR MRLB NIL=
200610030500 METAR MRLB NIL=
200610030600 METAR MRLB NIL=
200610030800 METAR MRLB NIL=
200610030900 METAR MRLB NIL=
200610031000 METAR MRLB NIL=
200610031100 METAR MRLB NIL=
200610031200 METAR MRLB 031200Z 20003KT CAVOK 24/22 A2976=
200610031300 METAR MRLB 031300Z 28003KT CAVOK 24/22 A2976 RMK BKN100=
200610031400 METAR MRLB 031400Z 23007KT 9999 FEW035 SCT120 BKN250 27/22 A2977=
200610031500 METAR MRLB 031500Z 08011KT 9999 FEW035 SCT130 BKN250 29/22 A2979=
200610031600 METAR MRLB 031600Z 07016KT 9999 FEW035 SCT130 31/22 A2980=
200610031700 METAR MRLB 031700Z 07016KT 9999 FEW035 SCT250 32/22 A2978=
200610031800 METAR MRLB 031800Z 09014KT 9999 SCT035 32/22 A2975 RN N NE SW=
200610031900 METAR MRLB 031900Z 07015KT 9999 FEW035 BKN120 28/21 A2974 RN N NE=
200610032000 METAR MRLB 032000Z 14006KT CAVOK 26/23 A2971=
200610032100 METAR MRLB 032100Z 11009KT 9999 FEW035 BKN130 28/22 A2970 RMK CB DST S=
200610032200 METAR MRLB NIL=
200610032300 METAR MRLB 032300Z 09007KT CAVOK 28/22 A2972=
200610040000 METAR MRLB 040000Z 08008KT 9999 FEW035 BKN130 27/23 A2976=
200610040100 METAR MRLB NIL=
200610040200 METAR MRLB NIL=
200610040300 METAR MRLB NIL=
200610040400 METAR MRLB NIL=
200610040500 METAR MRLB NIL=
200610040600 METAR MRLB NIL=
200610040700 METAR MRLB NIL=
200610040800 METAR MRLB NIL=
200610040900 METAR MRLB NIL=
200610041000 METAR MRLB NIL=
200610041200 METAR MRLB 041200Z 00000KT CAVOK 22/21 A2975=
200610041300 METAR MRLB 041300Z 00000KT 9999 FEW030 BKN250 25/21 A2977=
200610041400 METAR MRLB 041400Z 26003KT 9999 FEW035 BKN250 27/22 A2978=
200610041500 METAR MRLB NIL=
200610041600 METAR MRLB 041600Z 09010KT 9999 FEW035 OVC250 31/21 A2977=
200610041700 METAR MRLB 041700Z 08011KT 9999 FEW035 OVC250 31/21 A2975=
200610041800 METAR MRLB 041800Z 08011KT 9999 FEW035 BKN250 33/21 A2972=
200610041900 METAR MRLB 041900Z 07008KT 9999 FEW035 BKN250 33/21 A2969=
200610042000 METAR MRLB 042000Z 07008KT 9999 SCT035 BKN250 32/21 A2966=
200610042100 METAR MRLB 042100Z 06010KT 9999 SCT035 BKN250 32/21 A2965=
200610042200 METAR MRLB 042200Z 06015KT 9999 SCT030 OVC250 31/21 A2966 RMK RN DST NWE=
200610042300 METAR MRLB 042300Z 09012KT 9999 SCT030 BKN250 28/20 A2965=
200610050000 METAR MRLB 050000Z 10013KT 9999 SCT030 BKN240 27/20 A2969=
200610050100 METAR MRLB NIL=
200610050200 METAR MRLB NIL=
200610050300 METAR MRLB NIL=
200610050400 METAR MRLB NIL=
200610050500 METAR MRLB NIL=
200610050600 METAR MRLB NIL=
200610050700 METAR MRLB NIL=
200610050800 METAR MRLB NIL=
200610050900 METAR MRLB NIL=
200610051000 METAR MRLB NIL=
200610051100 METAR MRLB NIL=
200610051200 METAR MRLB 051200Z 18004KT 9999 FEW030 SCT250 22/20 A2971=
200610051300 METAR MRLB 051300Z 22003KT CAVOK 24/21 A2974=
200610051400 METAR MRLB 051400Z 23002KT CAVOK 27/22 A2975=
200610051500 METAR MRLB 051500Z 05006KT 9999 FEW035 BKN250 30/22 A2976=
200610051600 METAR MRLB 051600Z 05008KT 9999 FEW035 BKN250 31/21 A2976=
200610051700 METAR MRLB 051700Z 08012KT 9999 SCT035 BKN250 32/21 A2973=
200610051800 METAR MRLB 051800Z 07012KT 9999 SCT035 BKN250 32/21 A2970=
200610051900 METAR MRLB 051900Z 10009KT 9999 SCT035 BKN250 33/21 A2966=
200610052000 METAR MRLB 052000Z 07008KT 9999 SCT035 BKN250 32/21 A2965=
200610052100 METAR MRLB 052100Z 07006KT 9999 SCT035 BKN250 33/21 A2963=
200610052200 METAR MRLB 052200Z 08006KT 9999 SCT035 OVC250 32/20 A2963=
200610052300 METAR MRLB 052300Z 11006KT 9999 SCT030 OVC250 30/22 A2965=
200610060000 METAR MRLB 060000Z 06004KT 9999 SCT030 OVC240 28/23 A2968 RMK RN DST S=
200610060100 METAR MRLB NIL=
200610060200 METAR MRLB NIL=
200610060300 METAR MRLB NIL=
200610060400 METAR MRLB NIL=
200610060500 METAR MRLB NIL=
200610060600 METAR MRLB NIL=
200610060700 METAR MRLB NIL=
200610060800 METAR MRLB NIL=
200610060900 METAR MRLB NIL=
200610061000 METAR MRLB NIL=
200610061100 METAR MRLB NIL=
200610061200 METAR MRLB 061200Z 05002KT CAVOK 22/21 A2977 RMK CB DST N=
200610061300 METAR MRLB 061300Z 00000KT CAVOK 24/22 A2980 RMK CB N=
200610061400 METAR MRLB 061400Z 00000KT CAVOK 25/23 A2981=
200610061500 METAR MRLB 061500Z 00000KT CAVOK 27/24 A2982 RMK CB N=
200610061600 METAR MRLB 061600Z 30002KT 9999 FEW030 BKN130 29/23 A2982=
200610061700 METAR MRLB 061700Z 24002KT 9999 FEW030 OVC240 29/23 A2980 RMK CB N=
200610061800 METAR MRLB 061800Z 19003KT 9999 FEW035 OVC250 31/23 A2977=
200610061900 METAR MRLB 061900Z 00000KT 9999 SCT035 BKN250 31/22 A2974=
200610062000 METAR MRLB 062000Z 28005KT 9999 SCT035 BKN250 32/23 A2970=
200610062100 METAR MRLB NIL=
200610062200 METAR MRLB 062200Z 29008KT 9999 FEW030 OVC250 29/24 A2990 CB DST NE=
200610062300 METAR MRLB 062300Z 24005KT 9999 FEW020TCU BKN250 28/24 A2972 TCU RN NE S SW=
200610070000 METAR MRLB 070000Z 17002KT 9999 SCT020 BKN250 27/24 A2974 RN DST E/SE/S TS SE=
200610070100 METAR MRLB NIL=
200610070200 METAR MRLB NIL=
200610070300 METAR MRLB NIL=
200610070400 METAR MRLB NIL=
200610070500 METAR MRLB NIL=
200610070600 METAR MRLB NIL=
200610070700 METAR MRLB NIL=
200610070800 METAR MRLB NIL=
200610070900 METAR MRLB NIL=
200610071000 METAR MRLB NIL=
200610071100 METAR MRLB NIL=
200610071200 METAR MRLB 071200Z 05003KT CAVOK 22/22 A2979 RMK OVC250=
200610071300 METAR MRLB 071300Z 07002KT CAVOK 24/22 A2980 OVC250=
200610071400 METAR MRLB 071400Z 05003KT CAVOK 27/23 A2981 OVC250=
200610071500 METAR MRLB 071500Z 27003KT 9999 FEW030 OVC250 28/23 A2981=
200610071600 METAR MRLB 071600Z 25006KT 9999 FEW030 OVC250 30/23 A2982=
200610071700 METAR MRLB 071700Z 18006KT 9999 SCT035 BKN250 31/23 A2981=
200610071800 METAR MRLB 071800Z 06010KT 9999 SCT035 BKN250 32/22 A2978=
200610071900 METAR MRLB 071900Z 11007KT 9999 SCT035 BKN250 32/22 A2975=
200610072000 METAR MRLB 072000Z 14005KT 9999 SCT035 BKN250 33/22 A2973 TCU RN DST SE S=
200610072100 METAR MRLB 072100Z 23004KT 9999 SCT030 BKN250 31/24 A2972 RN SE=
200610072200 METAR MRLB 072200Z 11005KT 9999 FEW020TCU SCT130 BKN250 30/21 A2970 CB E/S RN SW=
200610072300 METAR MRLB 072300Z 11007KT CAVOK 28/20 A2973=
200610080000 METAR MRLB 080000Z 13004KT CAVOK 27/24 A2974 6AC130=
200610080100 METAR MRLB NIL=
200610080200 METAR MRLB NIL=
200610080300 METAR MRLB NIL=
200610080400 METAR MRLB NIL=
200610080500 METAR MRLB NIL=
200610080600 METAR MRLB NIL=
200610080700 METAR MRLB NIL=
200610080800 METAR MRLB NIL=
200610080900 METAR MRLB NIL=
200610081000 METAR MRLB NIL=
200610081100 METAR MRLB NIL=
200610081200 METAR MRLB 081200Z 05005KT CAVOK 24/22 A2981=
200610081300 METAR MRLB NIL=
200610081400 METAR MRLB 081400Z 17003KT CAVOK 26/23 A2984=
200610081500 METAR MRLB 081500Z 27002KT CAVOK 27/23 A2985=
200610081600 METAR MRLB 081600Z 15003KT 9999 FEW030 BKN250 29/23 A2985=
200610081700 METAR MRLB 081700Z 17004KT 9999 SCT035 OVC250 31/24 A2983=
200610081800 METAR MRLB 081800Z 16007KT 9999 SCT035 OVC250 32/23 A29678 RN E=
200610081900 METAR MRLB 081900Z 19006KT 9999 SCT030 OVC240 31/23 A2974 RN E NE=
200610082000 METAR MRLB 082000Z 32007KT 9999 -RA FEW020TCU SCT030 BKN140 24/23 A2973=
200610082100 METAR MRLB 082100Z 10004KT 9999 DZ SCT025 BKN120 25/23 A2972=
200610082200 METAR MRLB 082200Z 32004KT 9999 SCT030 BKN120 25/24 A2973 RMK RN DST N=
200610082300 METAR MRLB 082300Z 30004KT 9999 FEW030 OVC120 24/23 A2974=
200610090000 METAR MRLB 090000Z 00000KT 9999 SCT030 OVC120 24/23 A2978=
200610090100 METAR MRLB NIL=
200610090200 METAR MRLB NIL=
200610090300 METAR MRLB NIL=
200610090400 METAR MRLB NIL=
200610090500 METAR MRLB NIL=
200610090600 METAR MRLB NIL=
200610090700 METAR MRLB NIL=
200610090800 METAR MRLB NIL=
200610090900 METAR MRLB NIL=
200610091000 METAR MRLB NIL=
200610091100 METAR MRLB NIL=
200610091200 METAR MRLB 091200Z 08002KT 9999 FEW030 BKN130 23/22 A2979=
200610091300 METAR MRLB 091300Z 00000KT 9999 FEW030 BKN130 24/23 A2981=
200610091400 METAR MRLB 091400Z 26002KT 9999 FEW035 BKN250 27/23 A2983=
200610091500 METAR MRLB 091500Z 33002KT 9999 FEW035 SCT250 28/24 A2984=
200610091600 METAR MRLB 091600Z 25002KT 9999 SCT035 BKN250 29/24 A2985=
200610091700 METAR MRLB 091700Z 26005KT 9999 FEW020TCU SCT030 BKN250 29/23 A2983 RMK RN DST NE=
200610091800 METAR MRLB 091800Z 14007KT 9999 FEW020TCU SCT030 OVC250 31/22 A2980 RMK RN DST N=
200610091900 METAR MRLB 091900Z 36006KT 9999 SCT030 BKN250 29/24 A2978=
200610092000 METAR MRLB 092000Z 14008KT 9999 FEW020CB SCT030 BKN250 29/24 A2975 RMK RN DST S SW=
200610092100 METAR MRLB 092100Z 20003KT 9999 SCT025 BKN130 27/24 A2976 RMK TS RN DST SW W=
200610092200 METAR MRLB 092200Z 00000KT 9999 SCT030 BKN130 25/24 A2975 RMK RN DIST N=
200610092300 METAR MRLB 092300Z 00000KT 9999 SCT030 OVC130 25/24 A2977=
200610100000 METAR MRLB 100000Z 00000KT 9999 SCT030 BKN120 25/24 A2979=
200610100100 METAR MRLB NIL=
200610100200 METAR MRLB NIL=
200610100300 METAR MRLB NIL=
200610100400 METAR MRLB NIL=
200610100500 METAR MRLB NIL=
200610100600 METAR MRLB NIL=
200610100700 METAR MRLB NIL=
200610100800 METAR MRLB NIL=
200610100900 METAR MRLB NIL=
200610101000 METAR MRLB NIL=
200610101100 METAR MRLB NIL=
200610101200 METAR MRLB 101200Z 00000KT CAVOK 23/22 A2984 BKN130 SCT250 CB N W=
200610101300 METAR MRLB 101300Z 00000KT CAVOK 23/22 A2985 RMK FEW130 BKN250 CB DST N SW W=
200610101400 METAR MRLB 101400Z 00000KT CAVOK 27/23 A2988 RMK FEW140 BKN250 CB DST N SW W=
200610101500 METAR MRLB 101500Z 00000KT CAVOK 28/23 A2989=
200610101600 METAR MRLB 101600Z 14003KT 9999 FEW030 BKN130 30/24 A2989=
200610101700 METAR MRLB 101700Z 32003KT 9999 FEW030 BKN250 29/23 A2986 RMK RN DST NE=
200610101800 METAR MRLB 101800Z 29004KT 9999 SCT030 BKN250 30/23 A2983 RMK RN DST E S=
200610101900 METAR MRLB 101900Z 10008KT 9999 1000E RA BKN020 28/22 A2979=
200610102000 METAR MRLB 102000Z 07003KT 9999 -RA BKN020 SCT120 25/23 A2980 RMK TS DST TO S=
200610102100 METAR MRLB 102100Z 22003KT 9999 -RA FEW020 BKN120 25/24 A2977 RMK CB NE=
200610102200 METAR MRLB 102200Z 00000KT 9999 SCT020 BKN120 25/23 A2978=
200610102300 METAR MRLB 102300Z 16003KT 9999 FEW020 BKN120 25/24 A2980=
200610110000 METAR MRLB 110000Z 11002KT 9999 FEW020 BKN120 24/23 A2981=
200610110100 METAR MRLB NIL=
200610110200 METAR MRLB NIL=
200610110300 METAR MRLB NIL=
200610110400 METAR MRLB NIL=
200610110500 METAR MRLB NIL=
200610110600 METAR MRLB NIL=
200610110700 METAR MRLB NIL=
200610110800 METAR MRLB NIL=
200610110900 METAR MRLB NIL=
200610111000 METAR MRLB NIL=
200610111100 METAR MRLB NIL=
200610111200 METAR MRLB 111200Z 19002KT CAVOK 23/22 A2980=
200610111300 METAR MRLB 111300Z 15003KT CAVOK 24/23 A2982=
200610111400 METAR MRLB 111400Z 16006KT CAVOK 25/23 A2988=
200610111500 METAR MRLB 111500Z 19005KT 9999 FEW030 BKN130 27/23 A2987=
200610111600 METAR MRLB 111600Z 12003KT 9999 FEW030 BKN130 29/23 A2986=
200610111700 METAR MRLB 111700Z 22005KT 9999 FEW030 BKN130 30/23 A2985=
200610111800 METAR MRLB 111800Z 16003KT 9999 SCT030 SCT130 31/23 A2982 RMK RN N=
200610111900 METAR MRLB 111900Z 18006KT 9999 SCT025TCU BKN250 31/23 A2978 RMK RN NE S NW=
200610112000 METAR MRLB 112000Z 28009KT 9999 BKN020 SCT120 29/23 A2978 RN DST N NE S=
200610112100 METAR MRLB 112100Z 14003KT 9999 4000S -RA FEW010TCU BKN020 26/23 A2979 TS DST NW=
200610112200 METAR MRLB 112200Z 12004KT 9999 4000E -RA SCT020 BKN120 24/23 A2979 TS DST S=
200610112300 METAR MRLB 112300Z 04004KT 9999 FEW020 OVC120 24/24 A2981=
200610120000 METAR MRLB 120000Z 04003KT 9999 FEW020 OVC120 24/24 A2983=
200610120100 METAR MRLB NIL=
200610120200 METAR MRLB NIL=
200610120300 METAR MRLB NIL=
200610120400 METAR MRLB NIL=
200610120500 METAR MRLB NIL=
200610120600 METAR MRLB NIL=
200610120700 METAR MRLB NIL=
200610120800 METAR MRLB NIL=
200610120900 METAR MRLB NIL=
200610121000 METAR MRLB NIL=
200610121100 METAR MRLB NIL=
200610121200 METAR MRLB 121200Z 22002KT 9999 FEW015 BKN240 22/22 A2984 RMK LOW ST SW=
200610121300 METAR MRLB 121300Z 09004KT CAVOK 24/23 A2985=
200610121400 METAR MRLB 121400Z 10006KT 9999 FEW030 BKN250 27/23 A2987=
200610121500 METAR MRLB 121500Z 17003KT 9999 FEW035 BKN250 28/24 A2988=
200610121600 METAR MRLB NIL=
200610121700 METAR MRLB NIL=
200610121800 METAR MRLB 121800Z 18004KT 9999 SCT035 BKN250 31/24 A2982 RN DST S=
200610121900 METAR MRLB 121900Z 22005KT 9999 SCT030 BKN250 31/23 A2978 RN DST E/NE/S=
200610122000 METAR MRLB 122000Z 24009KT 9999 FEW020CB SCT030 BKN250 28/24 A2977 RMK RN DST N/NE/E/S=
200610122100 METAR MRLB 122100Z 09005KT 0800 +RA SCT015CB BKN020 25/24 A2979=
200610122200 METAR MRLB NIL=
200610122300 METAR MRLB 122300Z 08004KT 9999 DZ SCT025 OVC120 24/23 A2979=
200610130000 METAR MRLB 130000Z 04003KT 9999 SCT025 BKN120 24/23 A2981 RN S=
200610130100 METAR MRLB NIL=
200610130200 METAR MRLB NIL=
200610130300 METAR MRLB NIL=
200610130400 METAR MRLB NIL=
200610130500 METAR MRLB NIL=
200610130600 METAR MRLB NIL=
200610130700 METAR MRLB NIL=
200610130800 METAR MRLB NIL=
200610130900 METAR MRLB NIL=
200610131000 METAR MRLB NIL=
200610131100 METAR MRLB NIL=
200610131200 METAR MRLB 131200Z 03003KT 9999 FEW030 BKN250 23/23 A2983=
200610131300 METAR MRLB 131300Z 03004KT 9999 FEW035 SCT250 24/23 A2985=
200610131400 METAR MRLB 131400Z 35003KT 9999 FEW035 SCT250 26/24 A2987=
200610131500 METAR MRLB 131500Z 24002KT 9999 FEW035 SCT250 28/24 A2988=
200610131600 METAR MRLB 131600Z 23003KT 9999 SCT030 29/24 A2987=
200610131700 METAR MRLB 131700Z 34004KT 9999 SCT030 30/24 A2985=
200610131800 METAR MRLB 131800Z 27002KT 9999 SCT030 30/24 A2982=
200610131900 METAR MRLB 131900Z 29006KT 9999 SCT030 30/25 A2978=
200610132000 METAR MRLB 132000Z 27007KT 9999 FEW035 31/25 A2975=
200610132100 METAR MRLB 132100Z 27008KT 9999 SCT035 30/24 A2974=
200610132200 METAR MRLB 132200Z 27006KT 9999 SCT030 SCT250 28/24 A2974 RMK RN DST S=
200610132300 METAR MRLB 132300Z 25005KT 9999 SCT030 BKN250 27/25 A2976=
200610140000 METAR MRLB 140000Z 26004KT 9999 SCT030 BKN250 26/24 A2978=
200610140100 METAR MRLB NIL=
200610140200 METAR MRLB NIL=
200610140300 METAR MRLB NIL=
200610140400 METAR MRLB NIL=
200610140500 METAR MRLB NIL=
200610140600 METAR MRLB NIL=
200610140700 METAR MRLB NIL=
200610140800 METAR MRLB NIL=
200610140900 METAR MRLB NIL=
200610141000 METAR MRLB NIL=
200610141100 METAR MRLB NIL=
200610141200 METAR MRLB 141200Z 36003KT 0200 FG VV/// 22/22 A2981=
200610141300 METAR MRLB 141300Z 00000KT 9999 FEW005 BKN250 24/23 A2983=
200610141400 METAR MRLB 141400Z 20004KT 9999 FEW010 SCT250 26/24 A2986=
200610141500 METAR MRLB 141500Z 12004KT 9999 FEW020 28/23 A2987=
200610141600 METAR MRLB 141600Z 18002KT 9999 SCT025 29/23 A2987=
200610141700 METAR MRLB 141700Z 01004KT 9999 SCT030 31/22 A2983=
200610141800 METAR MRLB 141800Z 34004KT 9999 SCT030 31/22 A2981=
200610141900 METAR MRLB 141900Z 07004KT 9999 SCT035 SCT250 32/22 A2977 RMK TCU DST NE=
200610142000 METAR MRLB 142000Z 08005KT 9999 SCT035 BKN250 33/21 A2974=
200610142100 METAR MRLB 142100Z 29007KT 9999 SCT035 BKN250 30/25 A2972=
200610142200 METAR MRLB 142200Z 28007KT 9999 FEW030 SCT130 BKN250 30/24 A2971 RMK RN DST SE=
200610142300 METAR MRLB 142300Z 34003KT 9999 SCT020 BKN250 29/24 A2972 RMK RASH DST S=
200610150000 METAR MRLB NIL=
200610150100 METAR MRLB NIL=
200610150200 METAR MRLB NIL=
200610150300 METAR MRLB NIL=
200610150400 METAR MRLB NIL=
200610150500 METAR MRLB NIL=
200610150600 METAR MRLB NIL=
200610150700 METAR MRLB NIL=
200610150800 METAR MRLB NIL=
200610150900 METAR MRLB NIL=
200610151000 METAR MRLB NIL=
200610151100 METAR MRLB NIL=
200610151200 METAR MRLB 151200Z 03003KT 0800 FG FEW001 BKN250 22/22 A2981=
200610151300 METAR MRLB 151300Z 14004KT 9999 FEW010 OVC250 25/23 A2983 FG W=
200610151400 METAR MRLB 151400Z 16004KT CAVOK 27/24 A2984 OVC250=
200610151500 METAR MRLB 151500Z 00000KT 9999 FEW025 OVC270 28/23 A2984=
200610151600 METAR MRLB 151600Z 02003KT 9999 SCT030 BKN270 29/22 A2984=
200610151700 METAR MRLB 151700Z 10004KT 9999 SCT035 SCT080 31/22 A2982=
200610151800 METAR MRLB 151800Z 08005KT 9999 SCT035 BKN280 32/21 A2978=
200610151900 METAR MRLB 151900Z 09005KT 9999 SCT035 BKN280 32/20 A2975 RMK CB RN DST E=
200610152000 METAR MRLB 152000Z 26002KT 9999 BKN030 31/23 A2973 RMK RN DST SE S=
200610152100 METAR MRLB 152100Z 25006KT 9999 BKN025 29/23 A2972 RMK RN S W=
200610152200 METAR MRLB 152200Z 20003KT 9999 FEW010 BKN020 27/23 A2974 RMK RAS SW=
200610152300 METAR MRLB 152300Z 19005KT 9999 FEW010TCU SCT015 25/24 A2976=
200610160000 METAR MRLB 160000Z 15002KT 9999 BKN020 24/23 A2978=
200610160100 METAR MRLB NIL=
200610160200 METAR MRLB NIL=
200610160300 METAR MRLB NIL=
200610160400 METAR MRLB NIL=
200610160500 METAR MRLB NIL=
200610160600 METAR MRLB NIL=
200610160700 METAR MRLB NIL=
200610160800 METAR MRLB NIL=
200610160900 METAR MRLB NIL=
200610161000 METAR MRLB NIL=
200610161100 METAR MRLB NIL=
200610161200 METAR MRLB 161200Z 13004KT 9999 SCT025 BKN250 23/22 A2986=
200610161300 METAR MRLB 161300Z 08006KT 9999 SCT025 OVC250 24/22 A2988 RMK RN S=
200610161400 METAR MRLB 161400Z 10006KT 9999 SCT030 BKN250 25/23 A2990 RMK RN S=
200610161500 METAR MRLB 161500Z 12007KT 9999 SCT030 BKN250 26/23 A2991=
200610161600 METAR MRLB 161600Z 13006KT 9999 SCT035 BKN250 26/23 A2992 RMK RN SW=
200610161700 METAR MRLB 161700Z 22005KT 9999 4000SW VCSH SCT030 OVC250 26/24 A2989=
200610161800 METAR MRLB 161800Z 28005KT 9999 -RA FEW015 SCT025 OVC240 26/24 A2987=
200610161900 METAR MRLB 161900Z 27006KT 9999 -RA BKN025 SCT140 26/24 A2984=
200610162000 METAR MRLB 162000Z 28006KT 9999 VCSH FEW015 BKN025 26/23 A2982=
200610162100 METAR MRLB 162100Z 15002KT 9999 -RA FEW015 BKN205 25/24 A2980=
200610162200 METAR MRLB 162200Z 17004KT 9999 SCT020 BKN120 25/23 A2981 RN DST E/NE=
200610162300 METAR MRLB 162300Z 13002KT 9999 SCT025 BKN130 24/23 A2982 RN DST W/SW=
200610170000 METAR MRLB 170000Z 23002KT 9999 4000SW -RA FEW015 SCT025 BKN120 24/23 A2984=
200610170100 METAR MRLB NIL=
200610170200 METAR MRLB NIL=
200610170300 METAR MRLB NIL=
200610170400 METAR MRLB NIL=
200610170500 METAR MRLB NIL=
200610170600 METAR MRLB NIL=
200610170700 METAR MRLB NIL=
200610170800 METAR MRLB NIL=
200610170900 METAR MRLB NIL=
200610171000 METAR MRLB NIL=
200610171100 METAR MRLB NIL=
200610171200 METAR MRLB 171200Z 10003KT 9999 SCT020 BKN120 23/22 A2987 RMK RN DST S=
200610171300 METAR MRLB 171300Z 12003KT 9999 FEW010 SCT025 BKN130 24/23 A2988=
200610171400 METAR MRLB 171400Z 14003KT 9999 FEW010 BKN025 24/23 A2990 RN DST SW=
200610171500 METAR MRLB 171500Z 13003KT 9999 DZ FEW015 SCT025 BKN130 25/24 A2990=
200610171600 METAR MRLB 171600Z 15003KT 9999 FEW020 SCT030 BKN130 26/24 A2990 RN DST S=
200610171700 METAR MRLB 171700Z 18004KT 9999 SCT025 SCT250 28/23 A2988 RN DST SW=
200610171800 METAR MRLB 171800Z 24009KT 9999 3500S VCSH FEW015 BKN025 25/24 A2986=
200610171900 METAR MRLB 171900Z 24004KT 9999 3000SW -RA FEW008 BKN020 25/24 A2984=
200610172000 METAR MRLB 172000Z 26003KT 9999 FEW015 SCT025 BKN120 26/24 A2981 RN DST S=
200610172100 METAR MRLB NIL=
200610172200 METAR MRLB 172200Z 15005KT 9999 VCSH SCT015 BKN110 24/23 A2979=
200610172300 METAR MRLB 172300Z 12002KT 9999 SCT020 BKN110 24/24 A2980 RN E=
200610180000 METAR MRLB 180000Z 12002KT 9999 SCT020 BKN100 24/23 A2981 RN DST E=
200610180100 METAR MRLB NIL=
200610180200 METAR MRLB NIL=
200610180300 METAR MRLB NIL=
200610180400 METAR MRLB NIL=
200610180500 METAR MRLB NIL=
200610180600 METAR MRLB NIL=
200610180700 METAR MRLB NIL=
200610180800 METAR MRLB NIL=
200610180900 METAR MRLB NIL=
200610181000 METAR MRLB NIL=
200610181100 METAR MRLB NIL=
200610181200 METAR MRLB 181200Z 13003KT 9999 2000W -RA SCT010 BKN130 23/23 A2983=
200610181300 METAR MRLB 181300Z 13005KT 2000 -RA BR SCT010 BKN100 23/23 A2985=
200610181400 METAR MRLB 181400Z 16003KT 2000 -RA BR SCT008 BKN100 24/23 A2986=
200610181500 METAR MRLB 181500Z 18004KT 2000 -RA BR SCT005 BKN100 24/24 A2988=
200610181600 METAR MRLB NIL=
200610181700 METAR MRLB 181700Z 18006KT 2000 -RA BR FEW005 SCT010 BKN100 25/23 A2987 VSBY W UNL=
200610181800 METAR MRLB 181800Z 13007KT 9999 -RA SCT006 BKN100 25/24 A2984 VSBY E 5KM=
200610181900 METAR MRLB 181900Z 15006KT 9999 3000W VCSH BKN010 26/23 A2981=
200610182000 METAR MRLB NIL=
200610182100 METAR MRLB 182100Z 13005KT 9999 FEW010 BKN100 24/23 A2978 RMK RA DST ARND=
200610182200 METAR MRLB 182200Z 13004KT 9999 FEW008 BKN100 24/23 A2978 RMK RN DST N NE SW=
200610182300 METAR MRLB 182300Z 13002KT 9999 BKN010 SCT100 24/23 A2979 RMK RN DST NE=
200610190000 METAR MRLB 190000Z 13002KT 9999 FEW010 BKN100 24/23 A2978 RMK RN DST NE=
200610190100 METAR MRLB NIL=
200610190200 METAR MRLB NIL=
200610190300 METAR MRLB NIL=
200610190400 METAR MRLB NIL=
200610190500 METAR MRLB NIL=
200610190600 METAR MRLB NIL=
200610190700 METAR MRLB NIL=
200610190800 METAR MRLB NIL=
200610190900 METAR MRLB NIL=
200610191000 METAR MRLB NIL=
200610191100 METAR MRLB NIL=
200610191200 METAR MRLB 191200Z 00000KT 5000 BR SCT005 BKN100 22/22 A2979 VIS W UNL=
200610191300 METAR MRLB 191300Z 13003KT 9999 FEW010 BKN120 23/22 A2982 RMK FOG BANK SW=
200610191400 METAR MRLB 191400Z 09004KT 9999 FEW005 BKN130 24/23 A2982=
200610191500 METAR MRLB 191500Z 12005KT 9999 SCT010 BKN130 26/23 A2984=
200610191600 METAR MRLB 191600Z 14005KT 9999 SCT015 SCT130 26/23 A2985=
200610191700 METAR MRLB 191700Z 15005KT 9999 BKN020 SCT130 27/23 A2984 RMK RN DST E=
200610191800 METAR MRLB 191800Z 15006KT 9999 SCT020 BKN130 27/23 A2981 RMK RN DST E S=
200610191900 METAR MRLB 191900Z 21005KT 9999 -RA SCT015TCU SCT130 27/23 A2977=
200610192000 METAR MRLB 192000Z 15004KT 9999 -RA FEW010 BKN120 26/24 A2975=
200610192100 METAR MRLB 192100Z 14004KT 9999 SCT020 BKN130 27/23 A2974 RMK N SW=
200610192200 METAR MRLB 192200Z 18004KT 9999 BKN020 SCT100 26/24 A2973 RMK RN DST N SW W=
200610192300 METAR MRLB 192300Z 12005KT 9999 SCT015 BKN100 25/23 A2974 RMK RN DST NW=
200610200000 METAR MRLB 200000Z 14004KT 9999 OVC020 24/23 A2975=
200610200100 METAR MRLB NIL=
200610200200 METAR MRLB NIL=
200610200300 METAR MRLB NIL=
200610200400 METAR MRLB NIL=
200610200500 METAR MRLB NIL=
200610200600 METAR MRLB NIL=
200610200700 METAR MRLB NIL=
200610200800 METAR MRLB NIL=
200610200900 METAR MRLB NIL=
200610201000 METAR MRLB NIL=
200610201100 METAR MRLB NIL=
200610201200 METAR MRLB 201200Z 13005KT 9999 SCT020 BKN130 22/21 A2981=
200610201300 METAR MRLB 201300Z 11005KT 9999 SCT030 BKN140 23/22 A2983=
200610201400 METAR MRLB 201400Z 13005KT 9999 SCT030 BKN240 25/22 A2984=
200610201500 METAR MRLB 201500Z 14006KT 9999 SCT035 BKN240 26/22 A2985=
200610201600 METAR MRLB 201600Z 13008KT 9999 SCT030 OVC240 27/22 A2986 RMK RN DST S=
200610201700 METAR MRLB 201700Z 14006KT 9999 FEW020 SCT030 OVC240 27/22 A2984 RMK RN DST W SW=
200610201800 METAR MRLB NIL=
200610201900 METAR MRLB NIL=
200610202000 METAR MRLB 202000Z 08003KT 9999 DZ SCT020 OVC100 23/23 A2977=
200610202100 METAR MRLB 202100Z 11003KT 9999 SCT015 OVC100 24/23 A2977 RMK RN S=
200610202200 METAR MRLB 202200Z 12003KT 9999 SCT020 OVC100 23/22 A2977 RMK RN S NE=
200610202300 METAR MRLB 202300Z 00000KT 9999 FEW010 BKN020 23/23 A2979 RMK RN S SE=
200610210000 METAR MRLB 210000Z 16003KT 9999 FEW010 SCT020 OVC100 23/22 A2979 RMK RN DST SE=
200610210100 METAR MRLB NIL=
200610210200 METAR MRLB NIL=
200610210300 METAR MRLB NIL=
200610210400 METAR MRLB NIL=
200610210500 METAR MRLB NIL=
200610210600 METAR MRLB NIL=
200610210700 METAR MRLB NIL=
200610210800 METAR MRLB NIL=
200610210900 METAR MRLB NIL=
200610211000 METAR MRLB NIL=
200610211100 METAR MRLB NIL=
200610211200 METAR MRLB 211200Z 10003KT 9999 DZ SCT015 OVC100 22/22 A2983=
200610211300 METAR MRLB 211300Z 16003KT 7000 -RA FEW010 BKN020 22/22 A2986=
200610211400 METAR MRLB 211400Z 14005KT 8000 -RA FEW008 SCT020 OVC100 22/22 A2989=
200610211500 METAR MRLB 211500Z 17004KT 8000 -RA SCT015 OVC090 22/22 A2992=
200610211600 METAR MRLB 211600Z 13003KT 9999 DZ SCT010 OVC090 22/22 A2993=
200610211700 METAR MRLB 211700Z 12003KT 9999 DZ SCT010 OVC100 23/22 A2990=
200610211800 METAR MRLB 211800Z 12006KT 9999 DZ SCT015 OVC100 23/22 A2986=
200610211900 METAR MRLB 211900Z 14003KT 9999 -RA FEW010 SCT020 OVC100 23/22 A2984=
200610212000 METAR MRLB 212000Z 10002KT 9999 DZ FE008 SCT020 OVC100 24/23 A2981=
200610212100 METAR MRLB 212100Z 12003KT 9999 SCT010 OVC100 23/23 A2982 RN DST S/SE=
200610212200 METAR MRLB 212200Z 12004KT 9999 DZ SCT020 OVC100 23/22 A2982=
200610212300 METAR MRLB 212300Z 10002KT 9999 SCT025 OVC110 23/22 A2982=
200610220000 METAR MRLB 220000Z 10003KT 9999 SCT030 OVC110 23/22 A2982 RN DST N=
200610220100 METAR MRLB NIL=
200610220200 METAR MRLB NIL=
200610220300 METAR MRLB NIL=
200610220400 METAR MRLB NIL=
200610220500 METAR MRLB NIL=
200610220600 METAR MRLB NIL=
200610220700 METAR MRLB NIL=
200610220800 METAR MRLB NIL=
200610220900 METAR MRLB NIL=
200610221000 METAR MRLB NIL=
200610221100 METAR MRLB NIL=
200610221200 METAR MRLB 221200Z 00000KT CAVOK 22/22 A2988=
200610221300 METAR MRLB 221300Z 19003KT CAVOK 22/22 A2990 OVC100 BR /W=
200610221400 METAR MRLB 221400Z 14005KT 9999 FEW010 OVC120 24/23 A2991=
200610221500 METAR MRLB 221500Z 19005KT 9999 BKN020 SCT120 25/23 A2993=
200610221600 METAR MRLB 221600Z 17005KT 9999 BKN020 SCT120 26/22 A2994=
200610221700 METAR MRLB 221700Z 17004KT 9999 BKN020 SCT120 27/23 A2991=
200610221800 METAR MRLB 221800Z 17004KT 9999 SCT025 SCT120 28/23 A2988 RN DST E=
200610221900 METAR MRLB 221900Z 16003KT 9999 SCT030 SCT130 29/22 A2985 CB DST E RN DST SW=
200610222000 METAR MRLB 222000Z 28010KT 9999 BKN020 28/24 A2982 RN DST NE S SW=
200610222100 METAR MRLB 222100Z 26009KT 9999 SCT020 SCT120 28/24N A2981 RN E=
200610222200 METAR MRLB 222200Z 21006KT 9999 SCT010 SCT015 27/23 A2982 TSRA E=
200610222300 METAR MRLB 222300Z 33004KT 3000 RA SCT006 BKN015 24/23 A2984 VSBY S UNL=
200610230000 METAR MRLB 230000Z 02005KT 3000 TSRA FEW008CB BKN015 22/22 A2986=
200610230100 METAR MRLB NIL=
200610230200 METAR MRLB NIL=
200610230300 METAR MRLB NIL=
200610230400 METAR MRLB NIL=
200610230500 METAR MRLB NIL=
200610230600 METAR MRLB NIL=
200610230700 METAR MRLB NIL=
200610230800 METAR MRLB NIL=
200610230900 METAR MRLB NIL=
200610231000 METAR MRLB NIL=
200610231100 METAR MRLB NIL=
200610231200 METAR MRLB 231200Z 00000KT 0800 FG FEW001 BKN130 22/22 A2989=
200610231300 METAR MRLB 231300Z 00000KT 0500 FG FEW001 BKN130 22/22 A2991=
200610231400 METAR MRLB 231400Z 00000KT 9999 FEW004 BKN130 23/23 A2993=
200610231500 METAR MRLB 231500Z 00000KT 9999 SCT015 SCT130 25/24 A2994=
200610231600 METAR MRLB 231600Z 27003KT 9999 SCT025 SCT140 28/24 A2993=
200610231700 METAR MRLB 231700Z 26007KT 9999 SCT030 BKN140 28/24 A2991=
200610231800 METAR MRLB 231800Z 28008KT 9999 SCT030 BKN130 28/24 A2988=
200610231900 METAR MRLB 231900Z 29006KT 9999 FEW030 BKN130 28/24 A2984 RN N NE=
200610232000 METAR MRLB 232000Z 28011KT 9999 BKN030 SCT120 27/24 A2982 RN N NE E S=
200610232100 METAR MRLB 232100Z 27012KT 9999 SCT020 BKN120 28/24 A2981 RMK RN DST QUAFD E TS DST NE=
200610232200 METAR MRLB 232200Z 28009KT 9999 -RA SCT015 SCT020 27/21 A2982=
200610232300 METAR MRLB 232300Z 29007KT 9999 SCT015 BKN120 26/24 A2984 RMK RN DST QUAD E TS DST NE=
200610240000 METAR MRLB 240000Z 30004KT 9999 SCT015 BKN120 25/24 A2985 RMK RN DST E=
200610240100 METAR MRLB NIL=
200610240200 METAR MRLB NIL=
200610240300 METAR MRLB NIL=
200610240400 METAR MRLB NIL=
200610240500 METAR MRLB NIL=
200610240600 METAR MRLB NIL=
200610240700 METAR MRLB NIL=
200610240800 METAR MRLB NIL=
200610240900 METAR MRLB NIL=
200610241000 METAR MRLB NIL=
200610241100 METAR MRLB NIL=
200610241200 METAR MRLB 241200Z 04003KT 9999 FEW030 BKN130 22/22 A2987=
200610241300 METAR MRLB 241300Z 06004KT 9999 FEW030 BKN130 23/22 A2989=
200610241400 METAR MRLB 241400Z 03004KT 9999 FEW035 SCT130 BKN250 25/23 A2989=
200610241500 METAR MRLB 241500Z 26002KT 9999 FEW035 BKN250 28/23 A2989=
200610241600 METAR MRLB 241600Z 28003KT 9999 FEW035 BKN250 29/24 A2988=
200610241700 METAR MRLB 241700Z 26004KT 9999 FEW035 BKN250 30/24 A2985=
200610241800 METAR MRLB 241800Z 26005KT 9999 SCT035 BKN250 30/24 A2983=
200610241900 METAR MRLB 241900Z 29008KT 9999 SCT035 BKN250 30/23 A2980=
200610242000 METAR MRLB 242000Z 28008KT 9999 SCT035 BKN250 29/24 A2978=
200610242100 METAR MRLB 242100Z 27009KT 9999 FEW020TCU SCT030 OVC250 29/24 A2977 RMK RN DST SE NE=
200610242200 METAR MRLB 242200Z 26005KT 9999 2000N TS RA FEW015CB SCT025 BKN130 27/25 A2979=
200610242300 METAR MRLB 242300Z 27005KT 9999 SCT030 BKN140 25/24 A2979=
200610250000 METAR MRLB 250000Z 26005KT 9999 SCT025 BKN130 25/24 A2981=
200610250100 METAR MRLB NIL=
200610250200 METAR MRLB NIL=
200610250300 METAR MRLB NIL=
200610250400 METAR MRLB NIL=
200610250500 METAR MRLB NIL=
200610250600 METAR MRLB NIL=
200610250700 METAR MRLB NIL=
200610250800 METAR MRLB NIL=
200610250900 METAR MRLB NIL=
200610251000 METAR MRLB NIL=
200610251100 METAR MRLB NIL=
200610251200 METAR MRLB 251200Z 00000KT 0200 FG VV001 23/23 A2986=
200610251300 METAR MRLB 251300Z 00000KT 2000 BR SCT003 SCT010 24/24 A2988=
200610251400 METAR MRLB 251400Z 22003KT 9999 SCT020 OVC250 25/24 A2989=
200610251500 METAR MRLB 251500Z 28003KT 9999 SCT030 OVC250 27/24 A2991=
200610251600 METAR MRLB 251600Z 10004KT 9999 SCT035 BKN250 30/24 A2988=
200610251700 METAR MRLB 251700Z 11007KT 9999 SCT035 BKN250 26/18 A2986=
200610251800 METAR MRLB 251800Z 15005KT 9999 SCT035 BKN250 31/22 A2984=
200610251900 METAR MRLB 251900Z 19003KT 9999 SCT030 BKN240 31/22 A2982=
200610252000 METAR MRLB 252000Z 26006KT 9999 FEW020TCU SCT030 BKN240 29/24 A2980=
200610252100 METAR MRLB 252100Z 26007KT 9999 FEW020TCU SCT030 BKN140 28/24 A2978 RMK TS RN SE=
200610252200 METAR MRLB 252200Z 21004KT 9999 SCT020 BKN120 24/23 A2981 RMK RN N S=
200610252300 METAR MRLB NIL=
200610260000 METAR MRLB 260000Z 17003KT 9999 FEW035 OVC120 23/23 A2984=
200610260100 METAR MRLB NIL=
200610260200 METAR MRLB NIL=
200610260300 METAR MRLB NIL=
200610260400 METAR MRLB NIL=
200610260500 METAR MRLB NIL=
200610260600 METAR MRLB NIL=
200610260700 METAR MRLB NIL=
200610260800 METAR MRLB NIL=
200610260900 METAR MRLB NIL=
200610261000 METAR MRLB NIL=
200610261100 METAR MRLB NIL=
200610261200 METAR MRLB 261200Z 12003KT 9999 FEW025 SCT250 23/22 A2984 RMK FOG BANCS DST W=
200610261300 METAR MRLB 261300Z 00000KT 9999 FEW005 SCT250 23/23 A2986 RMK FG W=
200610261400 METAR MRLB 261400Z 02004KT 9999 FEW020 SCT270 26/24 A2988=
200610261500 METAR MRLB 261500Z 09007KT 9999 FEW030 SCT270 29/24 A2988=
200610261600 METAR MRLB NIL=
200610261700 METAR MRLB 261700Z 09010KT 9999 FEW035 BKN260 30/22 A2986=
200610261800 METAR MRLB 261800Z 09011KT 9999 FEW035 BKN250 31/23 A2984=
200610261900 METAR MRLB 261900Z 08010KT 9999 SCT030 BKN250 32/23 A2981 RMK RN N NE E=
200610262000 METAR MRLB 262000Z 35006KT 9999 FEW035 BKN250 31/24 A2979 RMK RN NW W SW=
200610262100 METAR MRLB 262100Z 07010KT 9999 SCT035 SCT120 31/23 A2979 TCU LINE S RN DST N/S=
200610262200 METAR MRLB 262200Z 09008KT 9999 FEW040 BKN130 29/22 A2977 RN DST SW=
200610262300 METAR MRLB 262300Z 10003KT 9999 FEW045 BKN130 27/22 A2978=
200610270000 METAR MRLB 270000Z 09004KT 9999 FEW045 BKN130 27/22 A2979=
200610270100 METAR MRLB NIL=
200610270200 METAR MRLB NIL=
200610270300 METAR MRLB NIL=
200610270400 METAR MRLB NIL=
200610270500 METAR MRLB NIL=
200610270600 METAR MRLB NIL=
200610270700 METAR MRLB NIL=
200610270800 METAR MRLB NIL=
200610270900 METAR MRLB NIL=
200610271000 METAR MRLB NIL=
200610271100 METAR MRLB NIL=
200610271200 METAR MRLB 271200Z 03002KT CAVOK 21/20 A2983=
200610271300 METAR MRLB 271300Z 00000KT CAVOK 23/21 A2984 BKN250=
200610271400 METAR MRLB 271400Z 17002KT CAVOK 25/22 A2985 BKN250=
200610271500 METAR MRLB 271500Z 15004KT CAVOK 28/23 A2985 BKN250=
200610271600 METAR MRLB 271600Z 10007KT 9999 FEW035 BKN250 30/22 A2986=
200610271700 METAR MRLB 271700Z 10006KT 9999 SCT035 BKN250 31/22 A2983=
200610271800 METAR MRLB 271800Z 09008KT 9999 SCT035 BKN250 32/22 A2981=
200610271900 METAR MRLB 271900Z 11009KT 9999 SCT035 SCT250 32/21 A2979=
200610272000 METAR MRLB 272000Z 11009KT 9999 SCT035 SCT250 32/21 A2976=
200610272100 METAR MRLB 272100Z 10005KT 9999 FEW035 SCT250 32/20 A2975=
200610272200 METAR MRLB 272200Z 28009KT 9999 SCT035 29/23 A2975=
200610272300 METAR MRLB 272300Z 26006KT 9999 FEW035 27/24 A2976=
200610280000 METAR MRLB 280000Z 29003KT 9999 SCT035 26/24 A2978=
200610280100 METAR MRLB NIL=
200610280200 METAR MRLB NIL=
200610280300 METAR MRLB NIL=
200610280400 METAR MRLB NIL=
200610280600 METAR MRLB NIL=
200610280700 METAR MRLB NIL=
200610280800 METAR MRLB NIL=
200610280900 METAR MRLB NIL=
200610281000 METAR MRLB NIL=
200610281100 METAR MRLB NIL=
200610281200 METAR MRLB 281200Z 00000KT CAVOK 22/21 A2983=
200610281300 METAR MRLB 281300Z 32002KT CAVOK 24/22 A2985=
200610281400 METAR MRLB 281400Z 00000KT CAVOK 27/24 A2986=
200610281500 METAR MRLB 281500Z 27002KT CAVOK 28/24 A2987=
200610281600 METAR MRLB 281600Z 29004KT 9999 FEW035 BKN250 30/23 A2985=
200610281700 METAR MRLB 281700Z 06004KT 9999 FEW035 BKN250 31/22 A2984=
200610281800 METAR MRLB 291800Z 28004KT 9999 SCT035 BKN250 31/24 A2981=
200610281900 METAR MRLB 281900Z 28005KT 9999 SCT035 BKN250 30/24 A2978=
200610282000 METAR MRLB 282000Z 28004KT 9999 FEW035 OVC250 31/24 A2974=
200610282100 METAR MRLB 282100Z 32003KT 9999 SCT035 BKN250 31/24 A2972=
200610282200 METAR MRLB 282200Z 06003KT 9999 SCT035 OVC250 31/23 A2972=
200610282300 METAR MRLB 282300Z 08005KT 9999 SCT035 OVC250 29/22 A2974=
200610290000 METAR MRLB 290000Z 09009KT 9999 SCT035 BKN250 27/20 A2976=
200610290100 METAR MRLB NIL=
200610290200 METAR MRLB NIL=
200610290300 METAR MRLB NIL=
200610290400 METAR MRLB NIL=
200610290500 METAR MRLB NIL=
200610290600 METAR MRLB NIL=
200610290700 METAR MRLB NIL=
200610290800 METAR MRLB NIL=
200610290900 METAR MRLB NIL=
200610291000 METAR MRLB NIL=
200610291100 METAR MRLB NIL=
200610291200 METAR MRLB NIL=
200610291300 METAR MRLB 291300Z 00000KT 9999 SCT035 BKN140 25/23 A2987 RMK RN DST E NE=
200610291400 METAR MRLB 291400Z 15002KT 9999 SCT030 BKN130 25/23 A2988 REDZ=
200610291500 METAR MRLB 291500Z 00000KT 9999 SCT030 BKN130 26/23 A2990=
200610291600 METAR MRLB 291600Z 32004KT 9999 SCT030 BKN130 27/24 A2990 RMK RN DST E NE=
200610291700 METAR MRLB 291700Z 32005KT 9999 SCT035 OVC130 26/24 A2987 RMK RN DST S SW=
200610291800 METAR MRLB 291800Z 26004KT 9999 FEW035 BKN240 28/23 A2982=
200610291900 METAR MRLB 291900Z 20002KT 9999 SCT035 SCT250 30/23 A2979=
200610292000 METAR MRLB 292000Z 28003KT 9999 SCT035 BKN250 29/23 A2976 RMK RN DST NE=
200610292100 METAR MRLB 292100Z 35010KT 9999 4000W VCSH FEW020TCU SCT030 BKN130 25/22 A2976=
200610292200 METAR MRLB 292200Z 26004KT 9999 SCT025 BKN120 24/23 A2976=
200610292300 METAR MRLB 292300Z 22003KT 9999 FEW030 OVC130 24/23 A2977=
200610300000 METAR MRLB 300000Z 17004KT 9999 SCT030 BKN130 24/23 A2979=
200610300100 METAR MRLB NIL=
200610300200 METAR MRLB NIL=
200610300300 METAR MRLB NIL=
200610300400 METAR MRLB NIL=
200610300500 METAR MRLB NIL=
200610300600 METAR MRLB NIL=
200610300700 METAR MRLB NIL=
200610300800 METAR MRLB NIL=
200610300900 METAR MRLB NIL=
200610301000 METAR MRLB NIL=
200610301100 METAR MRLB NIL=
200610301200 METAR MRLB 301200Z 21005KT CAVOK 22/22 A2975 OVC130 FG DST NE E=
200610301300 METAR MRLB 301300Z 25005KT CAVOK 23/22 A2979=
200610301400 METAR MRLB 301400Z 00000KT 9999 BKN013 SCT120 24/22 A2983=
200610301500 METAR MRLB 301500Z 36004KT 9999 FEW020 BKN120 25/22 A2986=
200610301600 METAR MRLB NIL=
200610301700 METAR MRLB NIL=
200610301800 METAR MRLB NIL=
200610301900 METAR MRLB 301900Z 10008KT 9999 FEW035 BKN130 29/22 A2978=
200610302000 METAR MRLB 302000Z 13006KT 9999 SCT035 BKN130 28/20 A2976=
200610302100 METAR MRLB 302100Z 18003KT 9999 FEW035 SCT130 BKN250 29/23 A2975 RMK CB E=
200610302200 METAR MRLB 302200Z 27005KT 9999 SCT030 BKN120 28/23 A2976=
200610302300 METAR MRLB 302300Z 26004KT 9999 SCT030 SCT120 27/23 A2977 RMK TCU SE RN S=
200610310000 METAR MRLB 310000Z 26004KT 9999 SCT030 BKN250 26/23 A2978=
200610310100 METAR MRLB NIL=
200610310200 METAR MRLB NIL=
200610310300 METAR MRLB NIL=
200610310400 METAR MRLB NIL=
200610310500 METAR MRLB NIL=
200610310600 METAR MRLB NIL=
200610310700 METAR MRLB NIL=
200610310800 METAR MRLB NIL=
200610310900 METAR MRLB NIL=
200610311000 METAR MRLB NIL=
200610311100 METAR MRLB NIL=
200610311200 METAR MRLB 311200Z 06006KT CAVOK 21/20 A2981 RMK FOG BANK W=
200610311300 METAR MRLB 311300Z 05002KT CAVOK 22/21 A2983=
200610311400 METAR MRLB 311400Z 00000KT CAVOK 25/22 A2984=
200610311500 METAR MRLB 311500Z 00000KT CAVOK 27/23 A2985=
200610311600 METAR MRLB 311600Z 12003KT 9999 SCT030 BKN250 28/23 A2985=
200610311700 METAR MRLB 311700Z 19003KT 9999 SCT030 BKN250 29/23 A2982 RMK RN N=
200610311800 METAR MRLB 311800Z 28003KT 9999 SCT025 BKN250 29/23 A2980 RMK RN N NE E=
200610311900 METAR MRLB 311900Z 32009KT 9999 -RA SCT020 SCT120 25/23 A2977=
200610312000 METAR MRLB 312000Z 36007KT 9999 SCT020 BKN130 28/23 A2975 RMK RN E S=
200610312100 METAR MRLB 312100Z 30004KT 9999 SCT020 BKN130 27/23 A2974 RN DST S=
200610312200 METAR MRLB 312200Z 14006KT 9999 FEW025 OVC130 26/24 A2974=
200610312300 METAR MRLB 312300Z 16006KT 9999 FEW030 OVC140 24/23 A2975=
200611010000 METAR MRLB 010000Z 15003KT 9999 FEW030 OVC140 23/22 A2976=
200611010100 METAR MRLB NIL=
200611010200 METAR MRLB NIL=
200611010300 METAR MRLB NIL=
200611010400 METAR MRLB NIL=
200611010500 METAR MRLB NIL=
200611010600 METAR MRLB NIL=
200611010700 METAR MRLB NIL=
200611010800 METAR MRLB NIL=
200611010900 METAR MRLB NIL=
200611011000 METAR MRLB NIL=
200611011100 METAR MRLB NIL=
200611011200 METAR MRLB 011200Z 13003KT 9999 FEW010 BKN250 21/21 A2982 RMK LOW ST SW=
200611011300 METAR MRLB 011300Z 00000KT 9999 2000W BR FEW003 SCT010 BKN250 22/22 A2983=
200611011400 METAR MRLB 011400Z 00000KT 9999 FEW030 BKN250 25/23 A2985=
200611011500 METAR MRLB 011500Z 32002KT 9999 FEW035 BKN250 27/23 A2986=
200611011600 METAR MRLB 011600Z 24002KT 9999 SCT035 OVC250 28/22 A2986=
200611011700 METAR MRLB 011700Z 19002KT 9999 SCT035 BKN250 28/22 A2982 RN DST E=
200611011800 METAR MRLB 011800Z 25004KT 9999 SCT030 OVC250 30/23 A2978 RN DST E NE=
200611011900 METAR MRLB 011900Z 28006KT 9999 VCSH FEW020TCU SCT030 BKN240 24/23 A2975 VIS 6000 S=
200611012000 METAR MRLB 012000Z 27004KT 9999 SCT030 BKN240 25/24 A2973 RN DST S=
200611012100 METAR MRLB 012100Z 22004KT 9999 SCT030 BKN140 26/24 A2971=
200611012200 METAR MRLB 012200Z 15004KT 9999 FEW035 OVC140 25/24 A2972=
200611012300 METAR MRLB 012300Z 12004KT 9999 FEW035 OVC130 25/24 A2975 RN NE=
200611020000 METAR MRLB 020000Z 10003KT 9999 SCT030 BKN130 24/23 A2977 RN N=
200611020100 METAR MRLB NIL=
200611020200 METAR MRLB NIL=
200611020300 METAR MRLB NIL=
200611020400 METAR MRLB NIL=
200611020500 METAR MRLB NIL=
200611020600 METAR MRLB NIL=
200611020700 METAR MRLB NIL=
200611020800 METAR MRLB NIL=
200611020900 METAR MRLB NIL=
200611021000 METAR MRLB NIL=
200611021100 METAR MRLB NIL=
200611021200 METAR MRLB 021200Z 00000KT 2000 BR SCT002 BKN010 22/22 A2980=
200611021300 METAR MRLB 021300Z 00000KT 9999 SCT008 SCT025 23/23 A2982=
200611021400 METAR MRLB 021400Z 00000KT 9999 FEW010 SCT020 BKN250 24/23 A2984=
200611021500 METAR MRLB 021500Z 22003KT 9999 SCT030 BKN250 26/24 A2985=
200611021600 METAR MRLB 021600Z 29004KT 9999 SCT035 BKN250 27/24 A2985=
200611021700 METAR MRLB 021700Z 29003KT 9999 SCT035 BKN250 29/23 A2982=
200611021800 METAR MRLB 021800Z 28004KT 9999 SCT030 BKN250 30/23 A2979 RN E NE0=
200611021900 METAR MRLB 021900Z 28008KT 9999 3000N RA FEW015TCU SCT025 BKN250 28/23 A2975=
200611022000 METAR MRLB 022000Z 20005KT 9999 SCT025 BKN130 24/23 A2974 RN S SW=
200611022100 METAR MRLB 022100Z 14003KT 9999 SCT030 BKN140 24/23 2971=
200611022200 METAR MRLB 022200Z 12003KT 9999 SCT025 OVC140 25/23 A2973=
200611022300 METAR MRLB 022300Z 10003KT 9999 SCT025 BKN130 25/23 A2975=
200611030000 METAR MRLB 030000Z 12002KT 9999 SCT025 BKN120 25/23 2978 RMK RN DST E=
200611030100 METAR MRLB NIL=
200611030200 METAR MRLB NIL=
200611030300 METAR MRLB NIL=
200611030400 METAR MRLB NIL=
200611030500 METAR MRLB NIL=
200611030600 METAR MRLB NIL=
200611030700 METAR MRLB NIL=
200611030800 METAR MRLB NIL=
200611030900 METAR MRLB NIL=
200611031000 METAR MRLB NIL=
200611031100 METAR MRLB NIL=
200611031200 METAR MRLB 031200Z 00000KT 5000 VCFG FEW001 SCT120 22/22 A2978 VIS 9999 S=
200611031300 METAR MRLB 031300Z 00000KT 9999 FEW004 SCT120 24/23 A2980=
200611031400 METAR MRLB 031400Z 00000KT 9999 FEW010 SCT120 25/23 A2981=
200611031500 METAR MRLB 031500Z 19003KT 9999 FEW015 BKN120 26/24 A2981=
200611031600 METAR MRLB 031600Z 11003KT 9999 SCT025 29/24 A2981=
200611031700 METAR MRLB 031700Z 10007KT 9999 SCT030 30/23 A2979=
200611031800 METAR MRLB 031800Z 10008KT 9999 SCT035 31/22 A2976=
200611031900 METAR MRLB 031900Z 14006KT 9999 -RA SCT030 SCT120 28/23 A2973=
200611032000 METAR MRLB 032000Z 14006KT 9999 SCT020 SCT120 30/23 A2971 RMK RN DST N NW CB NE E=
200611032100 METAR MRLB 032100Z 27007KT 9999 FEW020 BKN250 28/24 A2970 RN DST N NE LINE TCU N=
200611032200 METAR MRLB 032200Z 05012KT 8000 +TSRA FEW005CB BKN015 24/23 A2973 RMK UNL N=
200611032300 METAR MRLB 032300Z 22002KT 9999 FEW025 BKN100 23/22 A2973 RMK CB DST S RN DST SW=
200611040000 METAR MRLB 040000Z 02004KT 9999 FEW025 BKN120 23/22 A2974=
200611040100 METAR MRLB NIL=
200611040200 METAR MRLB NIL=
200611040300 METAR MRLB NIL=
200611040400 METAR MRLB NIL=
200611040500 METAR MRLB NIL=
200611040600 METAR MRLB NIL=
200611040700 METAR MRLB NIL=
200611040800 METAR MRLB NIL=
200611040900 METAR MRLB NIL=
200611041000 METAR MRLB NIL=
200611041100 METAR MRLB NIL=
200611041200 METAR MRLB 041200Z 00000KT 0200 FG VV/// 22/22 A2977=
200611041300 METAR MRLB 041300Z 00000KT 0300 FG VV/// 22/22 A2979/APCH CLOSED=
200611041400 METAR MRLB 041400Z 05003KT 9999 FEW005 BKN120 23/22 A2981=
200611041500 METAR MRLB 041500Z 15002KT 9999 FEW025 SCT120 26/23 A2982=
200611041600 METAR MRLB 041600Z 09006KT 9999 SCT025 SCT120 29/22 A2981=
200611041700 METAR MRLB 041700Z 06008KT 9999 FEW030 BKN120 29/22 A2979=
200611041800 METAR MRLB 041800Z 05010KT 9999 FEW030 BKN120 29/22 A2975 RMK RN N=
200611041900 METAR MRLB 041900Z 05010KT 9999 FEW035 SCT120 31/22 A2972=
200611042000 METAR MRLB 042000Z 02008KT 9999 FEW020 BKN100 30/23 A2970=
200611042100 METAR MRLB 042100Z 35007KT 9999 FEW030 BKN120 27/23 A2970 RMK RN N NW SW=
200611042200 METAR MRLB 042200Z 02006KT 9999 FEW020 BKN100 27/22 A2971 RMK RN ARND=
200611042300 METAR MRLB 042300Z 06009KT 9999 FEW030 BKN100 24/21 A2972 RMK CB SE RN NW=
200611050000 METAR MRLB 050000Z 00000KT 9999 SCT030 BKN100 24/22 A2974 RMK RN DST N W=
200611050100 METAR MRLB NIL=
200611050200 METAR MRLB NIL=
200611050300 METAR MRLB NIL=
200611050400 METAR MRLB NIL=
200611050500 METAR MRLB NIL=
200611050600 METAR MRLB NIL=
200611050700 METAR MRLB NIL=
200611050800 METAR MRLB NIL=
200611050900 METAR MRLB NIL=
200611051000 METAR MRLB NIL=
200611051100 METAR MRLB NIL=
200611051200 METAR MRLB 051200Z 24002KT 9999 FEW030 BKN250 22/21 A2975=
200611051300 METAR MRLB 051300Z 28002KT 9999 FEW030 SCT250 24/21 A2977=
200611051400 METAR MRLB 051400Z 20003KT 9999 FEW035 SCT250 27/22 A2979=
200611051500 METAR MRLB 051500Z 05009KT 9999 FEW035 SCT250 29/22 A2980=
200611051600 METAR MRLB 051600Z 07011KT 9999 SCT035 30/22 A2978=
200611051700 METAR MRLB 051700Z 09011KT 9999 SCT035 30/21 A2976=
200611051800 METAR MRLB 051800Z 17009KT 9999 FEW035 SCT250 30/24 A2974=
200611051900 METAR MRLB 051900Z 08008KT 9999 FEW035 SCT250 31/21 A2972=
200611052000 METAR MRLB 052000Z 08008KT 9999 FEW035 SCT250 32/21 A2968=
200611052100 METAR MRLB 052100Z 07010KT 9999 SCT035 31/22 A2968=
200611052200 METAR MRLB 052200Z 07008KT 9999 SCT035 30/21 A2968=
200611052300 METAR MRLB 052300Z 07006KT 9999 FEW035 SCT250 28/21 A2969=
200611060000 METAR MRLB NIL=
200611060100 METAR MRLB NIL=
200611060200 METAR MRLB NIL=
200611060300 METAR MRLB NIL=
200611060400 METAR MRLB NIL=
200611060500 METAR MRLB NIL=
200611060600 METAR MRLB NIL=
200611060700 METAR MRLB NIL=
200611060800 METAR MRLB NIL=
200611060900 METAR MRLB NIL=
200611061000 METAR MRLB NIL=
200611061100 METAR MRLB NIL=
200611061200 METAR MRLB 061200Z 18003KT 9999 SCT030 BKN250 23/22 A2977=
200611061300 METAR MRLB 061300Z 21002KT 9999 FEW035 SCT250 24/22 A2979=
200611061400 METAR MRLB 061400Z 18004KT 9999 FEW035 SCT250 26/22 A2980=
200611061500 METAR MRLB 061500Z 24002KT 9999 SCT035 SCT250 28/22 A2981=
200611061600 METAR MRLB 061600Z 28003KT 9999 SCT030 BKN140 29/22 A2981 RN DST NE=
200611061700 METAR MRLB 061700Z 35003KT 9999 SCT030 BKN130 30/22 A2979 RN DST E=
200611061800 METAR MRLB 061800Z 09008KT 9999 SCT030 BKN120 27/23 A2976 RN DST NE=
200611061900 METAR MRLB 061900Z 06009KT 9999 FEW035 BKN130 29/22 A2972=
200611062000 METAR MRLB 062000Z 09010KT 9999 SCT035 BKN130 29/22 A2971=
200611062100 METAR MRLB 062100Z 03003KT 9999 -RA FEW020TCU SCT030 BKN130 29/23 A2970=
200611062200 METAR MRLB 062200Z 07011KT 9999 FEW030 BKN130 27/21 A2970 RMK RN DST NE=
200611062300 METAR MRLB 062300Z 03003KT 9999 SCT030 OVC130 26/22 A2972=
200611070000 METAR MRLB 070000Z 07002KT 9999 SCT030 BKN130 25/22 A2973=
200611070100 METAR MRLB NIL=
200611070200 METAR MRLB NIL=
200611070300 METAR MRLB NIL=
200611070400 METAR MRLB NIL=
200611070500 METAR MRLB NIL=
200611070600 METAR MRLB NIL=
200611070700 METAR MRLB NIL=
200611070800 METAR MRLB NIL=
200611070900 METAR MRLB NIL=
200611071000 METAR MRLB NIL=
200611071100 METAR MRLB NIL=
200611071200 METAR MRLB 071200Z 17002KT CAVOK 22/21 A2976 RMK CB S=
200611071300 METAR MRLB 071300Z 06003KT CAVOK 22/21 A2978 BKN250=
200611071400 METAR MRLB 071400Z 00000KT CAVOK 26/22 A2981=
200611071500 METAR MRLB 071500Z 00000KT 9999 FEW030 BKN250 28/22 A2982=
200611071600 METAR MRLB 071600Z 18003KT 9999 SCT030 BKN250 28/23 A2983=
200611071700 METAR MRLB 071700Z 10004KT 9999 SCT030 BKN250 30/23 A2981=
200611071800 METAR MRLB 071800Z 11007KT 9999 SCT025 SCT250 30/22 A2978 RMK RN DST N NE E SW=
200611071900 METAR MRLB 071900Z 31008KT 9999 SCT020 SCT090 27/24 A2977 RMK RN DST N NE SW=
200611072000 METAR MRLB 072000Z 29008KT 9999 FEW030 BKN120 27/24 A2976 CB RN SE SW DST=
200611072100 METAR MRLB 072100Z 22004KT 9999 FEW030 OVC120 27/24 A2974 RMK RN DST SW SE=
200611072200 METAR MRLB 072200Z 21004KT 9999 FEW030 OVC130 27/24 A2974 RMK RN DST S=
200611072300 METAR MRLB 072300Z 21003KT 9999 FEW035 OVC130 26/24 A2973 RMK RN DST DE S=
200611080000 METAR MRLB 080000Z 15005KT 9999 FEW040 OVC130 A2975 RMK RN DST SE SW=
200611080600 METAR MRLB NIL=
200611080700 METAR MRLB NIL=
200611080800 METAR MRLB NIL=
200611080900 METAR MRLB NIL=
200611081000 METAR MRLB NIL=
200611081100 METAR MRLB NIL=
200611081200 METAR MRLB 081200Z 07002KT CAVOK 21/21 A2978 FEW130 CB DST NW=
200611081300 METAR MRLB 081300Z 19003KT CAVOK 21/21 A2980 RMK CB DST NW=
200611081400 METAR MRLB 081400Z 00000KT 9999 FEW0 20 24/22 A2982=
200611081500 METAR MRLB 081500Z 20003KT 9999 SCT020 26/23 A2983=
200611081600 METAR MRLB 081600Z 20002KT 9999 SCT025 27/23 A2983=
200611081700 METAR MRLB 081700Z 36003KT 9999 BKN025 28/23 A2982 RMK RN DST N NE=
200611081800 METAR MRLB 081800Z 33004KT 9999 SCT030 28/24 A2978 RMK RN DST W=
200611081900 METAR MRLB 081900Z 26004KT 9999 SCT030 28/23 A2975 RMK RN DST SW=
200611082000 METAR MRLB 082000Z 24006KT 9999 SCT030 30/24 A2971=
200611082100 METAR MRLB 082100Z 27004KT 9999 SCT030 30/23 A2970 RMK RN DST S SW=
200611082200 METAR MRLB 082200Z 29004KT 9999 SCT030 30/24 A2970 RMK CB RN DST SE S=
200611082300 METAR MRLB 082300Z 17009KT 9999 SCT020 SCT120 27/24 A2973 RMK CB DST SE RASH DST SW=
200611090000 METAR MRLB NIL=
200611090100 METAR MRLB NIL=
200611090200 METAR MRLB NIL=
200611090300 METAR MRLB NIL=
200611090400 METAR MRLB NIL=
200611090500 METAR MRLB NIL=
200611090600 METAR MRLB NIL=
200611090700 METAR MRLB NIL=
200611090800 METAR MRLB NIL=
200611090900 METAR MRLB NIL=
200611091000 METAR MRLB NIL=
200611091100 METAR MRLB NIL=
200611091200 METAR MRLB 091200Z 00000KT 2000 BR SCT003 SCT010 21/21 A2982=
200611091300 METAR MRLB 091300Z 18003KT 0800 FG SCT002 BKN010 22/22 A2983=
200611091400 METAR MRLB 091400Z 32002KT 9999 FEW010 SCT020 BKN250 23/21 A2985=
200611091500 METAR MRLB 091500Z 15002KT 9999 SCT025 OVC250 26/23 A2987=
200611091600 METAR MRLB 091600Z 29003KT 9999 SCT035 OVC250 28/23 A2986=
200611091700 METAR MRLB 091700Z 26002KT 9999 SCT035 OVC250 29/23 A2984=
200611091800 METAR MRLB NIL=
200611091900 METAR MRLB 091900Z 20004KT 9999 SCT035 BKN250 30/22 A2977=
200611092000 METAR MRLB 092000Z 13004KT 9999 SCT035 BKN250 31/21 A2975=
200611092100 METAR MRLB 092100Z 26005KT 9999 SCT035 BKN250 30/23 A2974=
200611092200 METAR MRLB 092200Z 27009KT 9999 FEW035 OVC250 28/23 A2975=
200611092300 METAR MRLB 092300Z 28007KT 9999 SCT030 OVC250 27/23 A2976 RMK RN E SE=
200611100000 METAR MRLB 100000Z 18004KT 5000 -RA FEW015TCU SCT025 BKN130 25/24 A2978=
200611100100 METAR MRLB NIL=
200611100200 METAR MRLB NIL=
200611100300 METAR MRLB NIL=
200611100400 METAR MRLB NIL=
200611100500 METAR MRLB NIL=
200611100700 METAR MRLB NIL=
200611100800 METAR MRLB NIL=
200611100900 METAR MRLB NIL=
200611101000 METAR MRLB NIL=
200611101100 METAR MRLB NIL=
200611101200 METAR MRLB 101200Z 00000KT 2000 BR SCT002 SCT008 21/21 A2983=
200611101300 METAR MRLB 101300Z 05002KT 9999 2000SW BR SCT003 SCT250 22/22 A2984=
200611101400 METAR MRLB 101400Z 00000KT 9999 FEW030 SCT250 25/23 A2985=
200611101500 METAR MRLB 101500Z 32003KT 9999 FEW035 SCT250 27/23 A2987=
200611101600 METAR MRLB 101600Z 09007KT 9999 SCT035 29/21 A2986=
200611101700 METAR MRLB 101700Z 07008KT 9999 SCT035 BKN250 29/22 A2984=
200611101800 METAR MRLB 101800Z 10006KT 9999 SCT035 BKN250 29/22 A2982=
200611101900 METAR MRLB 101900Z 11008KT 9999 SCT035 SCT140 30/21 A2980=
200611102000 METAR MRLB 102000Z 17006KT 9999 SCT030 BKN130 30/23 A2978=
200611102100 METAR MRLB 102100Z 15004KT 9999 SCT030 BKN130 25/24 A2976 RN DST E=
200611102200 METAR MRLB 102200Z 34004KT 9999 SCT025 BKN120 26/23 A2978 RN DST N NE=
200611102300 METAR MRLB 102300Z 07003KT 9999 SCT030 OVC120 25/24 A2980 RN DST N/W=
200611110000 METAR MRLB 110000Z 03004KT 9999 -RA SCT025 BKN100 24/23 A2982 RN DST N=
200611110100 METAR MRLB NIL=
200611110200 METAR MRLB NIL=
200611110300 METAR MRLB NIL=
200611110400 METAR MRLB NIL=
200611110500 METAR MRLB NIL=
200611110600 METAR MRLB NIL=
200611110700 METAR MRLB NIL=
200611110800 METAR MRLB NIL=
200611110900 METAR MRLB NIL=
200611111000 METAR MRLB NIL=
200611111100 METAR MRLB NIL=
200611111200 METAR MRLB 111200Z 04002KT CAVOK 21/21 A2984 RMK CB DST SW=
200611111300 METAR MRLB 111300Z 20003KT CAVOK 23/22 A2986 FEW250 CB DST SW=
200611111400 METAR MRLB 111400Z 21004KT 9999 SCT010 24/23 A2988=
200611111500 METAR MRLB 111500Z 25003KT 9999 SCT020 25/23 A2989=
200611111600 METAR MRLB 111600Z 20003KT 9999 SCT030 27/23 A2989=
200611111700 METAR MRLB 111700Z 29003KT 9999 FEW035 29/23 A2987=
200611111800 METAR MRLB 111800Z 31003KT 9999 SCT035 30/23 A2984=
200611111900 METAR MRLB 111900Z 30002KT 9999 SCT035 30/23 A2980=
200611112000 METAR MRLB 112000Z 27003KT 9999 BKN030 31/22 A2978 RN DST N CB DST NE=
200611112100 METAR MRLB 112100Z 34009KT 9999 -RA SCT020TCU SCT130 28/23 A2978=
200611112200 METAR MRLB 112200Z 07007KT 9999 FEW030 BKN030 27/22 A2977 RN DST SE SW=
200611112300 METAR MRLB 112300Z 09004KT 9999 FEW035 BKN130 26/22 A2978 CB DST S=
200611120000 METAR MRLB 120000Z 15004KT 9999 FEW004 OVC130 25/22 A2981=
200611120100 METAR MRLB NIL=
200611120200 METAR MRLB NIL=
200611120300 METAR MRLB NIL=
200611120400 METAR MRLB NIL=
200611120500 METAR MRLB NIL=
200611120700 METAR MRLB NIL=
200611120800 METAR MRLB NIL=
200611120900 METAR MRLB NIL=
200611121000 METAR MRLB NIL=
200611121100 METAR MRLB NIL=
200611121200 METAR MRLB 121200Z 00000KT CAVOK 20/19 A2985 OVC240=
200611121300 METAR MRLB 121300Z 00000KT CAVOK 22/21 A2987 OVC240=
200611121400 METAR MRLB 121400Z 05005KT CAVOK 24/22 A2988 OVC240=
200611121500 METAR MRLB 121500Z 31003KT CAVOK 25/22 A2987 OVC=
200611121600 METAR MRLB 121600Z 25002KT CAVOK 27/22 A2986 OVC250=
200611121700 METAR MRLB 121700Z 21006KT 9999 FEW035 SCT130 BKN250 28/22 A2984=
200611121800 METAR MRLB 121800Z 09008KT 9999 FEW035 BKN250 29/22 A2981=
200611121900 METAR MRLB 121900Z 10012KT 9999 FEW035 OVC250 30/21 A2979=
200611122000 METAR MRLB 122000Z 10008KT 9999 FEW035 OVC250 30/21 A2977=
200611122100 METAR MRLB 122100Z 06009KT 9999 FEW035 OVC250 29/20 A2977=
200611122200 METAR MRLB 122200Z 10006KT CAVOK 28/21 A2977=
200611122300 METAR MRLB 122300Z 11006KT CAVOK 26/20 A2979 RMK CB DST SE SW=
200611130000 METAR MRLB 130000Z 06005KT CAVOK 25/21 A2980=
200611130100 METAR MRLB NIL=
200611130200 METAR MRLB NIL=
200611130300 METAR MRLB NIL=
200611130400 METAR MRLB NIL=
200611130500 METAR MRLB NIL=
200611130600 METAR MRLB NIL=
200611130700 METAR MRLB NIL=
200611130800 METAR MRLB NIL=
200611130900 METAR MRLB NIL=
200611131300 METAR MRLB NIL=
200611131400 METAR MRLB 131400Z 30002KT CAVOK 24/21 A2988=
200611131500 METAR MRLB 131500Z 13005KT CAVOK 27/22 A2989=
200611131600 METAR MRLB 131600Z 08005KT 9999 FEW035 SCT300 29/21 A2988=
200611131700 METAR MRLB 131700Z 08007KT 9999 FEW035 30/22 A2985=
200611131800 METAR MRLB 131800Z 11007KT 9999 SCT035 31/22 A2983=
200611131900 METAR MRLB 131900Z 10006KT 9999 SCT035 31/21 A2980=
200611132000 METAR MRLB 132000Z 09005KT 9999 FEW035 31/20 A2977=
200611132100 METAR MRLB 132100Z 08004KT 9999 FEW035 SCT140 31/20 A2977=
200611132200 METAR MRLB NIL=
200611132300 METAR MRLB 132300Z 28005KT 9999 SCT035 BKN140 27/24 A2979=
200611140000 METAR MRLB 140000Z 34004KT 5000 RA SCT020 BKN120 25/24 A2981=
200611140100 METAR MRLB NIL=
200611140200 METAR MRLB NIL=
200611140300 METAR MRLB NIL=
200611140400 METAR MRLB NIL=
200611140500 METAR MRLB NIL=
200611140600 METAR MRLB NIL=
200611140700 METAR MRLB NIL=
200611140800 METAR MRLB NIL=
200611140900 METAR MRLB NIL=
200611141000 METAR MRLB NIL=
200611141100 METAR MRLB NIL=
200611141200 METAR MRLB 141200Z 03003KT 0500 FG SCT002 SCT008 20/20 A2983=
200611141300 METAR MRLB 141300Z 00000KT 3000 BR SCT003 SCT250 22/22 A2983=
200611141400 METAR MRLB 141400Z 22003KT 9999 SCT025 SCT260 24/23 A2985=
200611141500 METAR MRLB 141500Z 20005KT 9999 FEW035 SCT260 26/22 A2984=
200611141600 METAR MRLB 141600Z 20004KT 9999 FEW035 28/22 A2985=
200611141700 METAR MRLB NIL=
200611141800 METAR MRLB NIL=
200611141900 METAR MRLB 141900Z 26006KT 9999 SCT030 BKN250 30/22 A2977=
200611142000 METAR MRLB 142000Z 28007KT 9999 SCT030 OVC250 30/22 A2974=
200611142100 METAR MRLB 142100Z 29005KT 9999 FEW020TCU SCT030 BKN140 26/23 A2974 RERA RMK RN S NE=
200611142200 METAR MRLB 142200Z 30009KT 9999 SCT025 OVC120 24/21 A2974 RN S SW=
200611142300 METAR MRLB 142300Z 13007KT 9999 -RA SCT020 OVC110 23/21 A2978=
200611150000 METAR MRLB 150000Z 16004KT 9999 SCT025 OVC110 22/21 A2979 RMK RN DST S=
200611150100 METAR MRLB NIL=
200611150200 METAR MRLB NIL=
200611150300 METAR MRLB NIL=
200611150400 METAR MRLB NIL=
200611150500 METAR MRLB NIL=
200611150600 METAR MRLB NIL=
200611150700 METAR MRLB NIL=
200611150800 METAR MRLB NIL=
200611150900 METAR MRLB NIL=
200611151000 METAR MRLB NIL=
200611151100 METAR MRLB NIL=
200611151300 METAR MRLB 151300Z 00000KT 9999 FEW005 BKN130 22/22 A2980=
200611151400 METAR MRLB 151400Z 14002KT 9999 FEW010 BKN130 24/22 A2984=
200611151500 METAR MRLB 151500Z 14003KT 9999 FEW020 BKN130 23/22 A2987 RMK RN SW=
200611151600 METAR MRLB 151600Z 15003KT 9999 -RA FEW020 BKN100 23/22 A2985=
200611151700 METAR MRLB 151700Z 17004KT 9999 -RA SCT015 BKN100 24/22 A2984=
200611151800 METAR MRLB 151800Z 14004KT 9999 FEW020 OVC120 24/22 A2982=
200611152000 METAR MRLB 152000Z 12005KT 9999 FEW020 OVC120 25/22 A2977=
200611152100 METAR MRLB 152100Z 12010KT 9999 FEW020 OVC120 26/22 A2975=
200611152200 METAR MRLB 152200Z 13006KT 9999 FEW020 BKN120 25/21 A2975=
200611152300 METAR MRLB 152300Z 13007KT 9999 FEW030 OVC120 24/21 A2977=
200611160000 METAR MRLB 160000Z 12006KT 9999 FEW030 OVC120 23/20 A2978=
200611160100 METAR MRLB NIL=
200611160200 METAR MRLB NIL=
200611160300 METAR MRLB NIL=
200611160400 METAR MRLB NIL=
200611160500 METAR MRLB NIL=
200611160600 METAR MRLB NIL=
200611160700 METAR MRLB NIL=
200611160800 METAR MRLB NIL=
200611160900 METAR MRLB NIL=
200611161000 METAR MRLB NIL=
200611161100 METAR MRLB NIL=
200611161200 METAR MRLB 161200Z 11003KT 9999 FEW025 BKN130 22/20 A2982=
200611161300 METAR MRLB 161300Z 14003KT CAVOK 24/21 A2983 SCT130 CB DST S SW=
200611161400 METAR MRLB 161400Z 12005KT 9999 SCT025 SCT130 25/21 A2986=
200611161500 METAR MRLB 161500Z 15006KT 9999 SCT030 BKN130 27/22 A2988=
200611161600 METAR MRLB 161600Z 11007KT 9999 SCT030 BKN120 27/21 A2987=
200611161700 METAR MRLB 161700Z 08007KT 9999 -DZ FEW020 OVC100 26/21 A2986 RN DST N E S=
200611161800 METAR MRLB 161800Z 14008KT 9999 -RA FEW020 OVC100 24/22 A2983=
200611161900 METAR MRLB 161900Z 16007KT 9999 FEW025 OVC100 25/22 A2980 TCU RN DST ARND=
200611162000 METAR MRLB 162000Z 17004KT 9999 FEW030 BKN120 26/22 A2977 RN DST N SE E=
200611162100 METAR MRLB NIL=
200611162200 METAR MRLB NIL=
200611162300 METAR MRLB NIL=
200611170000 METAR MRLB NIL=
200611170300 METAR MRLB NIL=
200611171200 METAR MRLB NIL=
200611171300 METAR MRLB NIL=
200611171500 METAR MRLB NIL=
200611171800 METAR MRLB NIL=
200611172100 METAR MRLB 172100Z 12003KT 9999 SCT024 BKN130 24/21 A2975 RN DST SW RERA=
200611172200 METAR MRLB 172200Z 26003KT 9999 SCT030 OVC130 25/23 A2975=
200611172300 METAR MRLB 172300Z 28004KT 9999 SCT035 BKN130 24/23 A2977=
200611180000 METAR MRLB 180000Z 20004KT 9999 SCT035 BKN130 24/22 A2979=
200611180300 METAR MRLB NIL=
200611180900 METAR MRLB NIL=
200611181000 METAR MRLB NIL=
200611181100 METAR MRLB NIL=
200611181200 METAR MRLB NIL=
200611181300 METAR MRLB 181300Z 00000KT 9999 3000SW BR SCT003 SCT010 22/21 A2985=
200611181400 METAR MRLB 181400Z 00000KT 9999 SCT025 BKN250 25/22 A2988=
200611181500 METAR MRLB 181500Z 00000KT 9999 FEW035 SCT250 26/22 A2988=
200611181600 METAR MRLB 181600Z 29003KT 9999 FEW035 SCT250 28/21 A2987=
200611181700 METAR MRLB 181700Z 20002KT 9999 SCT035 29/22 A2985=
200611181800 METAR MRLB 181800Z 24003KT 9999 SCT035 SCT250 29/21 A2982=
200611181900 METAR MRLB 181900Z 19005KT 9999 FEW020TCU SCT030 BKN250 29/22 A2979=
200611182000 METAR MRLB 182000Z 26006KT 9999 SCT030 BKN130 29/22 A2976 RMK RN DST SW NE=
200611182100 METAR MRLB 182100Z 04002KT 9999 DZ SCT025 BKN120 26/22 A2979=
200611182200 METAR MRLB 182200Z 17003KT 9999 SCT030 OVC120 25/22 A2977 RMK RN DST SE=
200611182300 METAR MRLB 182300Z 10002KT 9999 SCT030 OVC100 24/22 A2979 RMK RN DST E=
200611190000 METAR MRLB 190000Z 14003KT 9999 SCT025 BKN120 23/22 A2980=
200611190100 METAR MRLB NIL=
200611190200 METAR MRLB NIL=
200611190300 METAR MRLB NIL=
200611190400 METAR MRLB NIL=
200611190500 METAR MRLB NIL=
200611190600 METAR MRLB NIL=
200611190700 METAR MRLB NIL=
200611190800 METAR MRLB NIL=
200611190900 METAR MRLB NIL=
200611191000 METAR MRLB NIL=
200611191100 METAR MRLB NIL=
200611191200 METAR MRLB 191200Z 05002KT 9999 2000W BR FEW005 BKN250 22/21 A2983=
200611191300 METAR MRLB 191300Z 00000KT 9999 FEW008 BKN250 22/21 A2985=
200611191400 METAR MRLB 191400Z 21003KT 9999 FEW010 SCT250 24/22 A2986=
200611191500 METAR MRLB 191500Z 18002KT 9999 FEW015 SCT250 27/22 A2988=
200611191600 METAR MRLB 191600Z 18004KT 9999 FEW020 SCT250 27/22 A2987=
200611191700 METAR MRLB 191700Z 20004KT 9999 FEW030 BKN250 27/22 A2985=
200611191800 METAR MRLB 191800Z 26004KT 9999 FEW035 SCT250 29/22 A2982=
200611191900 METAR MRLB 191900Z 29002KT 9999 SCT035 29/21 A2979=
200611192000 METAR MRLB 192000Z 29005KT 9999 SCT030 31/21 2976 RMK TCU RN DST SE SW=
200611192100 METAR MRLB NIL=
200611192200 METAR MRLB 192200Z 27006KT 9999 SCT030 27/23 A2976 RMK RN SW S=
200611192300 METAR MRLB 192300Z 28006KT 9999 FEW020TCU SCT030 26/22 A2976 RMK RASH E SE S CB S=
200611200000 METAR MRLB 200000Z 18006KT 9999 BKN020 23/21 A2979 RMK RASH DST E SE S LTNG DST S=
200611200100 METAR MRLB NIL=
200611200200 METAR MRLB NIL=
200611200300 METAR MRLB NIL=
200611200400 METAR MRLB NIL=
200611200500 METAR MRLB NIL=
200611200600 METAR MRLB NIL=
200611200700 METAR MRLB NIL=
200611200800 METAR MRLB NIL=
200611200900 METAR MRLB NIL=
200611201000 METAR MRLB NIL=
200611201100 METAR MRLB NIL=
200611201200 METAR MRLB 201200Z 22003KT CAVOK 22/21 A2982 RMK CB DST SW=
200611201300 METAR MRLB 201300Z 23003KT CAVOK 23/21 A2985 RMK CB SW=
200611201400 METAR MRLB 201400Z 17002KT CAVOK 24/21 A2989=
200611201500 METAR MRLB 201500Z 19004KT CAVOK 26/21 A2990=
200611201600 METAR MRLB NIL=
200611201700 METAR MRLB 201700Z 23004KT CAVOK 28/21 A2988=
200611201800 METAR MRLB 201800Z 21005KT 9999 FEW035 BKN120 30/21 A2985=
200611201900 METAR MRLB 201900Z 26006KT 9999 FEW035 BKN120 31/20 A2981=
200611202000 METAR MRLB 202000Z 17008KT 9999 FEW030 BKN120 30/21 A2979=
200611202100 METAR MRLB 202100Z 35003KT 9999 SCT035 BKN120 29/20 A2980=
200611202200 METAR MRLB 202200Z 15003KT 9999 FEW035 OVC100 28/20 A2980=
200611202300 METAR MRLB 202300Z 29004KT 9999 FEW035 OVC120 27/20 A2981=
200611210000 METAR MRLB 210000Z 23003KT 9999 FEW035 OVC120 25/21 A2982=
200611210100 METAR MRLB NIL=
200611210200 METAR MRLB NIL=
200611210300 METAR MRLB NIL=
200611210400 METAR MRLB NIL=
200611210500 METAR MRLB NIL=
200611210600 METAR MRLB NIL=
200611210700 METAR MRLB NIL=
200611210800 METAR MRLB NIL=
200611210900 METAR MRLB NIL=
200611211000 METAR MRLB NIL=
200611211100 METAR MRLB NIL=
200611211200 METAR MRLB 211200Z 23005KT 9999 FEW030 BKN250 20/18 A2988=
200611211300 METAR MRLB 211300Z 21005KT CAVOK 22/18 A2988=
200611211400 METAR MRLB 211400Z 25005KT CAVOK 25/18 A2990=
200611211500 METAR MRLB 211500Z 23005KT CAVOK 27/18 A2992=
200611211600 METAR MRLB 211600Z 26009KT CAVOK 28/17 A2990=
200611211700 METAR MRLB 211700Z 26008KT CAVOK 29/18 A2990=
200611211800 METAR MRLB NIL=
200611211900 METAR MRLB 211900Z 30006KT CAVOK 30/18 A2985=
200611212000 METAR MRLB 212000Z 09010KT CAVOK 29/17 A2982=
200611212100 METAR MRLB 212100Z 07009KT CAVOK 29/17 A2981=
200611212200 METAR MRLB 212200Z 08012KT CAVOK 28/16 A2982=
200611212300 METAR MRLB 212300Z 08007KT 9999 FEW035 SCT250 25/17 A2984=
200611220000 METAR MRLB 220000Z 08010KT 9999 FEW030 BKN250 24/17 A2986=
200611220100 METAR MRLB 220100Z 06009KT 9999 FEW035 BKN250 23/16 A2988=
200611220200 METAR MRLB NIL=
200611220300 METAR MRLB NIL=
200611220400 METAR MRLB NIL=
200611220500 METAR MRLB NIL=
200611220600 METAR MRLB NIL=
200611220700 METAR MRLB NIL=
200611220800 METAR MRLB NIL=
200611220900 METAR MRLB NIL=
200611221000 METAR MRLB NIL=
200611221100 METAR MRLB NIL=
200611221200 METAR MRLB 221200Z 15005KT CAVOK 18/14 A2988=
200611221300 METAR MRLB 221300Z 28004KT CAVOK 20/14 A2990=
200611221400 METAR MRLB 221400Z 09009KT CAVOK 25/11 A2991=
200611221500 METAR MRLB 221500Z 10004KT CAVOK 26/13 A2993=
200611221600 METAR MRLB 221600Z 05005KT CAVOK 27/13 A2992=
200611221700 METAR MRLB 221700Z 07015KT CAVOK 28/13 A2989=
200611221800 METAR MRLB NIL=
200611221900 METAR MRLB 221900Z 08014KT CAVOK 28/13 A2985=
200611222000 METAR MRLB NIL=
200611222100 METAR MRLB 222100Z 07007KT CAVOK 29/15 A2982=
200611222200 METAR MRLB 222200Z 10009KT CAVOK 26/14 A2982=
200611222300 METAR MRLB 222300Z 09007KT CAVOK 25/14 A2984=
200611230000 METAR MRLB 230000Z 09006KT CAVOK 23/14 A2985=
200611230100 METAR MRLB 230100Z 09005KT CAVOK 22/15 A2987=
200611230200 METAR MRLB NIL=
200611230300 METAR MRLB NIL=
200611230400 METAR MRLB NIL=
200611230500 METAR MRLB NIL=
200611230600 METAR MRLB NIL=
200611230700 METAR MRLB NIL=
200611230800 METAR MRLB NIL=
200611230900 METAR MRLB NIL=
200611231000 METAR MRLB NIL=
200611231100 METAR MRLB NIL=
200611231200 METAR MRLB NIL=
200611231300 METAR MRLB 231300Z 27003KT CAVOK 19/16 A2988=
200611231400 METAR MRLB 231400Z 26003KT CAVOK 22/16 A2991=
200611231500 METAR MRLB 231500Z 25006KT CAVOK 25/15 A2991=
200611231600 METAR MRLB 231600Z 33003KT CAVOK 27/16 A2989=
200611231700 METAR MRLB 231700Z 33003KT CAVOK 28/16 A2987=
200611231800 METAR MRLB 231800Z 12003KT 9999 SKC 29/17 A2984=
200611231900 METAR MRLB 231900Z 07009KT 9999 SKC 29/16 A2982=
200611232000 METAR MRLB 232000Z 07011KT 9999 SKC 29/16 A2979=
200611232100 METAR MRLB 232100Z 09011KT 9999 SKC 28/16 A2978=
200611232200 METAR MRLB 232200Z 08009KT 9999 SKC 27/16 A2978=
200611232300 METAR MRLB 232300Z 08007KT 9999 SKC 26/16 A2980=
200611240000 METAR MRLB 240000Z 07006KT 9999 SKC 24/16 A2982=
200611240100 METAR MRLB NIL=
200611240200 METAR MRLB NIL=
200611240300 METAR MRLB NIL=
200611240400 METAR MRLB NIL=
200611240500 METAR MRLB NIL=
200611240600 METAR MRLB NIL=
200611240700 METAR MRLB NIL=
200611240800 METAR MRLB NIL=
200611240900 METAR MRLB NIL=
200611241000 METAR MRLB NIL=
200611241100 METAR MRLB NIL=
200611241200 METAR MRLB NIL=
200611241300 METAR MRLB 241300Z 02002KT 9999 SKC 19/17 A2984=
200611241400 METAR MRLB 241400Z 19004KT 9999 SKC 21/17 A2985=
200611241500 METAR MRLB 241500Z 25003KT 9999 SKC 25/18 A2986=
200611241600 METAR MRLB 241600Z 30004KT 9999 SKC 27/17 A2985=
200611241700 METAR MRLB 241700Z 30004KT 9999 SKC 29/16 A2983=
200611241800 METAR MRLB 241800Z 06004KT 9999 SKC 29/17 A2981=
200611241900 METAR MRLB 241900Z 09013KT CAVOK 29/17 A2977=
200611242000 METAR MRLB 242000Z 10012KT 9999 FEW035 29/16 A2976=
200611242100 METAR MRLB 242100Z 09011KT CAVOK 29/16 A2976=
200611242200 METAR MRLB 242200Z 08010KT CAVOK 28/17 A2976=
200611242300 METAR MRLB 242300Z 08008KT SKC 26/17 A2977=
200611250000 METAR MRLB NIL=
200611250100 METAR MRLB 250100Z 05003KT SKC 24/17 A2981=
200611250200 METAR MRLB NIL=
200611250300 METAR MRLB NIL=
200611250400 METAR MRLB NIL=
200611250500 METAR MRLB NIL=
200611250600 METAR MRLB NIL=
200611250700 METAR MRLB NIL=
200611250800 METAR MRLB NIL=
200611250900 METAR MRLB NIL=
200611251000 METAR MRLB NIL=
200611251100 METAR MRLB NIL=
200611251200 METAR MRLB 251200Z NIL=
200611251300 METAR MRLB 251300Z 00000KT CAVOK 21/18 A2982=
200611251400 METAR MRLB 251400Z 00000KT CAVOK 23/19 A2986=
200611251500 METAR MRLB 251500Z 27002KT CAVOK 25/19 A2986=
200611251600 METAR MRLB 251600Z 25002KT CAVOK 28/19 A2985=
200611251700 METAR MRLB 251700Z 35004KT CAVOK 29/18 A2984=
200611251800 METAR MRLB 251800Z 20002KT CAVOK 31/17 A2981=
200611251900 METAR MRLB 251900Z 11009KT 9999 FEW040 30/17 A2979=
200611252000 METAR MRLB 252000Z 10008KT 9999 FEW040 30/17 A2976=
200611252100 METAR MRLB 252100Z 09009KT 9999 FEW040 30/18 A2975=
200611252200 METAR MRLB 252200Z 09009KT 9999 FEW040 29/18 A2975=
200611252300 METAR MRLB 252300Z 10010KT CAVOK 27/18 A2976 RMK FEW250=
200611260000 METAR MRLB 260000Z 08007KT 9999 SKC 25/18 A2978=
200611260100 METAR MRLB NIL=
200611260200 METAR MRLB 260200Z 09007KT 9999 SKC 25/18 A2980=
200611260300 METAR MRLB NIL=
200611260400 METAR MRLB NIL=
200611260500 METAR MRLB NIL=
200611260600 METAR MRLB NIL=
200611260700 METAR MRLB NIL=
200611260800 METAR MRLB NIL=
200611260900 METAR MRLB NIL=
200611261000 METAR MRLB NIL=
200611261100 METAR MRLB NIL=
200611261200 METAR MRLB NIL=
200611261300 METAR MRLB 261300Z 21004KT CAVOK 22/19 A2983=
200611261400 METAR MRLB 261400Z 28003KT CAVOK 24/20 A2983=
200611261500 METAR MRLB 261500Z 26002KT CAVOK 27/20 A2987=
200611261600 METAR MRLB 261600Z 29003KT CAVOK 28/20 A2987=
200611261700 METAR MRLB 261700Z 16003KT 9999 FEW035 30/20 A2986=
200611261800 METAR MRLB 261800Z 06007KT 9999 FEW035 31/19 A2983=
200611261900 METAR MRLB 261900Z 09010KT 9999 FEW035 31/20 A2979=
200611262000 METAR MRLB 262000Z 09009KT 9999 FEW035 31/20 A2977=
200611262100 METAR MRLB 262100Z 10008KT CAVOK 31/19 A2975=
200611262200 METAR MRLB 262200Z 10009KT CAVOK 30/19 A2974=
200611262300 METAR MRLB 262300Z 03003KT CAOK 29/21 A2975=
200611270000 METAR MRLB 270000Z 15003KT 9999 SCT040 26/20 A2978=
200611270100 METAR MRLB 270100Z 01003KT CAVOK 26/20 A2980 SCT130=
200611270200 METAR MRLB NIL=
200611270300 METAR MRLB NIL=
200611270400 METAR MRLB NIL=
200611270500 METAR MRLB NIL=
200611270600 METAR MRLB NIL=
200611270700 METAR MRLB NIL=
200611270800 METAR MRLB NIL=
200611270900 METAR MRLB NIL=
200611271000 METAR MRLB NIL=
200611271100 METAR MRLB NIL=
200611271200 METAR MRLB 271200Z 23003KT 9999 FEW035 BKN250 22/20 A2981 RMK RN N NE=
200611271300 METAR MRLB 271300Z 23004KT 9999 FEW035 BKN250 24/21 A2983 RMK RN DST N/NE=
200611271400 METAR MRLB 271400Z 27004KT 9999 SCT035 BKN250 26/22 A2985 RN N NE=
200611271500 METAR MRLB 271500Z 03007KT 9999 SCT035 SCT250 28/21 A2986 RN N NE=
200611271600 METAR MRLB 271600Z 08015KT 9999 SCT035 SCT250 30/21 A2986=
200611271700 METAR MRLB 271700Z 08012KT 9999 SCT035 BKN250 30/21 A2984 RN N NE=
200611271800 METAR MRLB NIL=
200611271900 METAR MRLB NIL=
200611272000 METAR MRLB 272000Z 08010KT 9999 FEW035 SCT100 BKN250 30/21 A2979=
200611272100 METAR MRLB NIL=
200611272200 METAR MRLB 272200Z 07006KT 9999 SCT030 BKN250 27/21 A2974=
200611272300 METAR MRLB 272300Z 06004KT 9999 SCT035 OVC250 27/21 A2976=
200611280000 METAR MRLB 280000Z 07003KT 9999 SCT035 BKN130 26/21 A2978=
200611280100 METAR MRLB 200100Z 09003KT 9999 FEW030 BKN130 25/21 A2981=
200611280200 METAR MRLB NIL=
200611280300 METAR MRLB NIL=
200611280400 METAR MRLB NIL=
200611280500 METAR MRLB NIL=
200611280700 METAR MRLB NIL=
200611280800 METAR MRLB NIL=
200611280900 METAR MRLB NIL=
200611281000 METAR MRLB NIL=
200611281100 METAR MRLB NIL=
200611281200 METAR MRLB 281200Z 00000KT 9999 FEW040 21/20 A2979=
200611281300 METAR MRLB 281300Z 18003KT 9999 SCT040 23/21 A2980=
200611281400 METAR MRLB 281400Z 29005KT 9999 SCT040 25/22 A2983=
200611281500 METAR MRLB 281500Z 21006KT 9999 SCT040 28/22 A2982=
200611281600 METAR MRLB 281600Z 30003KT 9999 FEW035 SCT120 29/22 A2982=
200611281700 METAR MRLB 281700Z 12004KT 9999 FEW035 BKN120 30/21 A2980=
200611281800 METAR MRLB NIL=
200611281900 METAR MRLB 281900Z 13003KT 9999 SCT030 BKN100 29/21 A2976 RMK RN DST NE S SW=
200611282000 METAR MRLB 282000Z 05012KT 9999 DZ SCT035 BKN100 25/22 A2975=
200611282100 METAR MRLB 282100Z 27005KT 9999 SCT035 OVC100 26/21 A2974 RMK RN DST N=
200611282200 METAR MRLB 282200Z 27004KT 9999 FEW030 OVC110 25/22 A2975=
200611282300 METAR MRLB 282300Z 31003KT 9999 FEW035 OVC110 24/22 A2975=
200611290000 METAR MRLB 290000Z 06002KT 9999 SCT030 OVC110 24/21 A2977=
200611290100 METAR MRLB 290100Z 00000KT 9999 SCT030 BKN120 23/21 A2980=
200611290200 METAR MRLB NIL=
200611290300 METAR MRLB NIL=
200611290400 METAR MRLB NIL=
200611290500 METAR MRLB NIL=
200611290600 METAR MRLB NIL=
200611290700 METAR MRLB NIL=
200611290800 METAR MRLB NIL=
200611290900 METAR MRLB NIL=
200611291000 METAR MRLB NIL=
200611291100 METAR MRLB NIL=
200611291200 METAR MRLB 291200Z 25003KT 9999 FEW035 BKN250 21/20 A2977=
200611291300 METAR MRLB 291300Z 16003KT 9999 FEW035 SCT120 BKN250 22/20 A2975=
200611291400 METAR MRLB 291400Z 09002KT CAVOK 25/20 A2981=
200611291500 METAR MRLB 291500Z 05003KT CAVOK 26/21 A2983=
200611291600 METAR MRLB 291600Z 09013KT 9999 FEW035 BKN250 29/20 A2981=
200611291700 METAR MRLB NIL=
200611291800 METAR MRLB NIL=
200611291900 METAR MRLB 291900Z 10012KT 9999 FEW035 BKN120 29/20 A2975=
200611292000 METAR MRLB 292000Z 09014KT 9999 FEW035 BKN120 29/20 A2972=
200611292100 METAR MRLB 292100Z 09009KT 9999 SCT035 BKN130 29/20 A2971=
200611292200 METAR MRLB 292200Z 08010KT 9999 SCT030 BKN120 28/20 A2971=
200611292300 METAR MRLB 292300Z 10011KT 9999 FEW030 OVC120 27/20 A2972=
200611300000 METAR MRLB 300000Z 06011KT 9999 FEW030 BKN120 26/19 A2975=
200611300100 METAR MRLB 300100Z 09011KT 9999 SCT035 BKN130 26/20 A2978=
200611300200 METAR MRLB NIL=
200611300300 METAR MRLB NIL=
200611300400 METAR MRLB NIL=
200611300500 METAR MRLB NIL=
200611300800 METAR MRLB NIL=
200611300900 METAR MRLB NIL=
200611301000 METAR MRLB NIL=
200611301100 METAR MRLB NIL=
200611301300 METAR MRLB 301300Z 00000KT CAVOK 26/21 A2980=
200611301400 METAR MRLB 301400Z 01002KT CAVOK 27/21 A2983=
200611301500 METAR MRLB 301500Z 18004KT 9999 FEW035 SCT140 28/21 A2985=
200611301600 METAR MRLB NIL=
200611301700 METAR MRLB 301700Z 11005KT 9999 SCT035 BKN130 30/21 A2983=
200611301800 METAR MRLB 301800Z 08009KT 9999 SCT035 SCT130 30/21 A2979 RMK TCU RASH NW=
200611301900 METAR MRLB 301900Z 11006KT 9999 FEW035 BKN130 30/21 A2976=
200611302000 METAR MRLB 302000Z 09007KT 9999 FEW035 OVC120 30/20 A2973=
200611302100 METAR MRLB 302100Z 29005KT 9999 FEW035 BKN120 29/22 A2973=
200611302200 METAR MRLB 302200Z 23005KT 9999 SCT035 OVC120 27/23 A2974 RMK RN DST SW=
200611302300 METAR MRLB 302300Z 25003KT 9999 FEW035 OVC120 26/22 A2976=
200612010000 METAR MRLB NIL=
200612010100 METAR MRLB 010100Z 00000KT 9999 SCT030 BKN120 25/23 A2981=
200612010200 METAR MRLB 010200Z 17002KT 9999 SCT030 BKN120 24/22 A2983=
200612010300 METAR MRLB NIL=
200612010400 METAR MRLB NIL=
200612010500 METAR MRLB NIL=
200612010700 METAR MRLB NIL=
200612010800 METAR MRLB NIL=
200612010900 METAR MRLB NIL=
200612011000 METAR MRLB NIL=
200612011100 METAR MRLB NIL=
200612011200 METAR MRLB 011200Z 04003KT 9999 SCT040 BKN120 23/22 A2981=
200612011300 METAR MRLB 011300Z 16002KT 9999 FEW040 BKN130 25/22 A2983=
200612011400 METAR MRLB 011400Z 19003KT CAVOK 25/23 A2985 RMK BKN120=
200612011500 METAR MRLB 011500Z 05003KT CAVOK 28/22 A2985 RMK BKN130=
200612011600 METAR MRLB 011600Z 34005KT CAVOK 29/23 A2985 RMK BKN130=
200612011700 METAR MRLB 011700Z 09012KT 9999 FEW035 BKN120 30/21 A2981=
200612011800 METAR MRLB 011800Z 07008KT 9999 FEW035 BKN120 29/21 A2978=
200612011900 METAR MRLB 011900Z 09011KT 9999 FEW035 BKN120 29/21 A2975=
200612012000 METAR MRLB NIL=
200612012100 METAR MRLB 012100Z 09009KT 9999 FEW035 OVC120 30/21 A2972=
200612012200 METAR MRLB 012200Z 09011KT 9999 SCT035 OVC120 29/21 A2971=
200612012300 METAR MRLB 012300Z 09008KT 9999 FEW030 OVC120 28/21 A2973=
200612020000 METAR MRLB 020000Z 08009KT 9999 FEW030 BKN130 27/20 A2976=
200612020100 METAR MRLB NIL=
200612020200 METAR MRLB NIL=
200612020300 METAR MRLB NIL=
200612020400 METAR MRLB NIL=
200612020500 METAR MRLB NIL=
200612020600 METAR MRLB NIL=
200612020700 METAR MRLB NIL=
200612020800 METAR MRLB NIL=
200612020900 METAR MRLB NIL=
200612021000 METAR MRLB NIL=
200612021100 METAR MRLB NIL=
200612021200 METAR MRLB NIL=
200612021300 METAR MRLB 021300Z 09007KT 9999 BKN035 SCT130 26/21 A2981 RMK RN DST N=
200612021400 METAR MRLB 021400Z 12003KT 9999 FEW035 BKN250 27/22 A2983=
200612021500 METAR MRLB 021500Z 07008KT 9999 SCT035 BKN140 27/21N A2984 RN N=
200612021600 METAR MRLB 021600Z 08013KT 9999 SCT035 BKN120 27/21 A2984 RN NE E=
200612021700 METAR MRLB 021700Z 13008KT 9999 -RA BKN0100 24/22 A2981 RERA=
200612021800 METAR MRLB 021800Z 06005KT 9999 -RA OVC120 25/22 A2979=
200612021900 METAR MRLB 021900Z 08006KT 9999 -RA OVC120 25/21 A2979=
200612022000 METAR MRLB 022000Z 10010KT 9999 -RA FEW035 OVC120 25/21 A2976=
200612022100 METAR MRLB 022100Z 07012KT CAVOK 26/19 A2974=
200612022200 METAR MRLB 022200Z 09010KT CAVOK 26/20 A2973=
200612022300 METAR MRLB 022300Z 10009KT CAVOK 26/19 A2972=
200612030000 METAR MRLB 030000Z 35003KT CAVOK 25/20 A2974=
200612030100 METAR MRLB 030100Z 08013KT CAVOK 26/19 A2976=
200612030200 METAR MRLB NIL=
200612030300 METAR MRLB NIL=
200612030400 METAR MRLB NIL=
200612030500 METAR MRLB NIL=
200612030600 METAR MRLB NIL=
200612030700 METAR MRLB NIL=
200612030800 METAR MRLB NIL=
200612030900 METAR MRLB NIL=
200612031000 METAR MRLB NIL=
200612031100 METAR MRLB NIL=
200612031200 METAR MRLB NIL=
200612031300 METAR MRLB 031300Z 07015KT 9999 FEW040 BKN250 26/19 A2980=
200612031400 METAR MRLB 031400Z 08017KT 9999 FEW040 BKN250 27/19 A2982=
200612031500 METAR MRLB 031500Z 07014KT 9999 FEW040 BKN250 29/20 A2983=
200612031600 METAR MRLB 031600Z 06018KT 9999 FEW040 BKN250 29/20 A2983=
200612031700 METAR MRLB 031700Z 07015KT 9999 FEW040 BKN250 30/20 A2981=
200612031800 METAR MRLB 031800Z 05017KT 9999 FEW040 BKN250 31/20 A2979=
200612031900 METAR MRLB 031900Z 05019KT 9999 SCT035 SCT250 30/20 A2977=
200612032000 METAR MRLB 032000Z 07009KT 9999 FEW035 SCT250 31/20 A2975=
200612032100 METAR MRLB 032100Z 06010KT 9999 BKN035 30/20 A2973=
200612032200 METAR MRLB 032200Z 07010KT 9999 SCT035 29/21 A2974=
200612032300 METAR MRLB 032300Z 07007KT 9999 SCT035 28/21 A2974 RMK RN DST N=
200612040000 METAR MRLB 040000Z 06009KT 9999 FEW035 26/20 A2976=
200612040100 METAR MRLB NIL=
200612040200 METAR MRLB NIL=
200612040300 METAR MRLB NIL=
200612040400 METAR MRLB NIL=
200612040500 METAR MRLB NIL=
200612040600 METAR MRLB NIL=
200612040700 METAR MRLB NIL=
200612040800 METAR MRLB NIL=
200612040900 METAR MRLB NIL=
200612041000 METAR MRLB NIL=
200612041100 METAR MRLB NIL=
200612041200 METAR MRLB 041200Z 07013KT 9999 SCT035 BKN100 26/19 A2981 RN N=
200612041300 METAR MRLB 041300Z 07009KT 9999 SCT035 BKN100 26/19 A2984=
200612041400 METAR MRLB 041400Z 29005KT 9999 SCT030 BKN100 26/21 A2987 RMK RN DST N NE E=
200612041500 METAR MRLB 041500Z 31004KT 9999 SCT030 BKN100 26/21 A2988 RMK DST CHECK TEXT NEW ENDING ADDED KATLYTAA=
200612041600 METAR MRLB 041600Z 34005KT 9999 SCT030 BKN100 27/20 A2989 RMK RN DST N NE S=
200612041700 METAR MRLB 041700Z 06014KT 9999 FEW030 BKN120 29/19 A2988 RMK RN DST N E=
200612041800 METAR MRLB 041800Z 08015KT 9999 SCT030 BKN100 27/19 A2985 RMK RN DST NE=
200612041900 METAR MRLB 041900Z 07017KT 9999 SCT030 BKN100 29/19 A2981 RMK RN DST NE E=
200612042000 METAR MRLB 042000Z 08014KT 9999 SCT030 BKN110 27/19 A2979=
200612042100 METAR MRLB 042100Z 08016KT 9999 SCT035 SCT120 28/20 A2977=
200612042200 METAR MRLB 042200Z 07020KT 9999 SCT035 BKN120 28/19 A2976=
200612042300 METAR MRLB 042300Z 06015KT 9999 FEW035 BKN120 26/18 A2978=
200612050000 METAR MRLB 050000Z 08017KT 9999 FEW035 SCT120 26/18 A2978=
200612050100 METAR MRLB 050100Z 08018KT 9999 FEW030 BKN120 26/18 A2980=
200612050200 METAR MRLB NIL=
200612050300 METAR MRLB NIL=
200612050400 METAR MRLB NIL=
200612050500 METAR MRLB NIL=
200612050600 METAR MRLB NIL=
200612050700 METAR MRLB NIL=
200612050800 METAR MRLB NIL=
200612050900 METAR MRLB NIL=
200612051000 METAR MRLB NIL=
200612051100 METAR MRLB NIL=
200612051200 METAR MRLB 051200Z 08015G25KT CAVOK 25/18 A2982=
200612051300 METAR MRLB 051300Z 07016KT CAVOK 25/18 A2984=
200612051400 METAR MRLB 051400Z 07015KT CAVOK 27/18 A2987=
200612051500 METAR MRLB 051500Z 03007KT CAVOK 29/18 A2988=
200612051600 METAR MRLB 051600Z 32006KT CAVOK 20/17 A2986=
200612051700 METAR MRLB 051700Z 09009KT CAVOK 31/18 A2983=
200612051800 METAR MRLB 051800Z 10006KT CAVOK 32/17 A2981=
200612051900 METAR MRLB 051900Z 30009KT 9999 FEW040 32/18 A2978=
200612052000 METAR MRLB 052000Z 10007KT 9999 FEW040 32/16 A2975=
200612052100 METAR MRLB 052100Z 09007KT 9999 FEW040 31/17 A2974=
200612052200 METAR MRLB 052200Z 09013KT 9999 FEW040 29/18 A2975=
200612052300 METAR MRLB 052300Z 09015KT CAVOK 27/18 A2975=
200612060000 METAR MRLB 060000Z 10007KT CAVOK 26/18 A2978 RMK SCT250=
200612060100 METAR MRLB 060100Z 09012KT CAVOK 26/17 A2997=
200612060200 METAR MRLB NIL=
200612060300 METAR MRLB NIL=
200612060400 METAR MRLB NIL=
200612060500 METAR MRLB NIL=
200612060600 METAR MRLB NIL=
200612060700 METAR MRLB NIL=
200612060800 METAR MRLB NIL=
200612060900 METAR MRLB NIL=
200612061000 METAR MRLB NIL=
200612061100 METAR MRLB NIL=
200612061200 METAR MRLB 061200Z 22006KT 9999 FEW035 20/18 A2981=
200612061300 METAR MRLB 061300Z 25005KT CAVOK 21/18 A2982=
200612061400 METAR MRLB 061400Z 33002KT CAVOK 25/19 A2985 RMK BKN120=
200612061500 METAR MRLB 061500Z 21006KT CAVOK 28/19 A2987 RMK BKN120=
200612061600 METAR MRLB 061600Z 25004KT CAVOK 29/19 A2985 RMK SCT120=
200612061700 METAR MRLB 061700Z 27007KT CAVOK 30/19 A2984 RMK SCT120=
200612061800 METAR MRLB 061800Z 20004KT 9999 FEW030 SCT130 31/19 A2981=
200612061900 METAR MRLB 061900Z 22003KT CAVOK 31/18 A2980 RMK SCT130=
200612062000 METAR MRLB 062000Z 33006KT 9999 FEW035 SCT130 31/19 A2978=
200612062100 METAR MRLB 062100Z 08007KT 9999 FEW035 SCT1390 30/19 A2977=
200612062200 METAR MRLB 062200Z 29007KT 9999 FEW035 SCT130 29/20 A2977=
200612062300 METAR MRLB 062300Z 18003KT 9999 SCT035 28/19 A2978=
200612070000 METAR MRLB 070000Z 29005KT 9999 FEW035 BKN120 26/20 A2979=
200612070100 METAR MRLB 070100Z 22002KT 9999 FEW035 SCT130 24/20 A2981=
200612070200 METAR MRLB NIL=
200612070300 METAR MRLB NIL=
200612070400 METAR MRLB NIL=
200612070500 METAR MRLB NIL=
200612070600 METAR MRLB NIL=
200612070700 METAR MRLB NIL=
200612070800 METAR MRLB NIL=
200612070900 METAR MRLB NIL=
200612071000 METAR MRLB NIL=
200612071100 METAR MRLB NIL=
200612071200 METAR MRLB 071200Z 27003KT 9999 SCT035 BKN300 22/20 A2983=
200612071300 METAR MRLB 071300Z 08004KT 9999 SCT035 25/20 A2986=
200612071400 METAR MRLB 071400Z 26004KT 9999 FEW035 SCT120 25/21 A2988=
200612071500 METAR MRLB 071500Z 09005KT 9999 FEW035 SCT120 27/20 A2988=
200612071600 METAR MRLB 071600Z 06013G23KT 9999 FEW035 SCT120 29/20 A2988=
200612071700 METAR MRLB 071700Z 08013KT 9999 FEW035 BKN130 30/20 A2986=
200612071800 METAR MRLB 071800Z 09014KT 9999 SCT035 BKN120 30/24 A2985=
200612071900 METAR MRLB 071900Z 07011KT 9999 BKN035 SCT120 29/21 A2983=
200612072000 METAR MRLB 072000Z 07009KT 9999 SCT035 BKN120 28/20 A2982=
200612072100 METAR MRLB 072100Z 04008KT 9999 SCT030 BKN120 28/20 A2980=
200612072200 METAR MRLB 072200Z 06011KT 9999 FEW035 SCT130 29/20 A2980=
200612072300 METAR MRLB 072300Z 08009KT 9999 FEW035 SCT250 27/20 A2981=
200612080000 METAR MRLB 080000Z 08009KT 9999 FEW035 BKN250 26/20 A2982=
200612080100 METAR MRLB 080100Z 08005KT 9999 FEW035 BKN250 25/20 A2984=
200612080200 METAR MRLB 080200Z 09005KT 9999 FEW035 SCT250 25/20 A2986=
200612080300 METAR MRLB NIL=
200612080400 METAR MRLB NIL=
200612080500 METAR MRLB NIL=
200612080600 METAR MRLB NIL=
200612080700 METAR MRLB NIL=
200612080800 METAR MRLB NIL=
200612080900 METAR MRLB NIL=
200612081000 METAR MRLB NIL=
200612081100 METAR MRLB NIL=
200612081200 METAR MRLB 081200Z 11004KT 9999 FEW040 22/20 A2985=
200612081300 METAR MRLB 081300Z VRB02KT CAVOK 23/21 A2988=
200612081400 METAR MRLB 081400Z 28003KT CAVOK 25/21 A2991=
200612081500 METAR MRLB 081500Z 28002KT CAVOK 29/20 A2991=
200612081600 METAR MRLB 081600Z 06006KT 9999 FEW035 30/20 A2991=
200612081700 METAR MRLB 081700Z 12004KT 9999 FEW035 31/20 A2989=
200612081800 METAR MRLB 081800Z 30005KT 9999 FEW030 BKN090 30/24 A2986=
200612081900 METAR MRLB 081900Z 23005KT 9999 BKN035 31/21 A2983=
200612082000 METAR MRLB 082000Z 23006KT 9999 SCT035 31/20 A2981=
200612082100 METAR MRLB 082100Z 32007KT 9999 BKN035 31/21 A2980=
200612082200 METAR MRLB 082200Z 10003KT 9999 BKN030 26/22 A2981 REDZ=
200612082300 METAR MRLB 082300Z 25004KT 9999 SCT035 28/22 A2981=
200612090000 METAR MRLB 090000Z 21004KT 9999 SCT030 SCT100 26/22 A2984 RMK RN DST NE=
200612090100 METAR MRLB 090100Z 17003KT 9999 FEW035 BKN100 25/22 A2986=
200612090200 METAR MRLB NIL=
200612090300 METAR MRLB NIL=
200612090400 METAR MRLB NIL=
200612090500 METAR MRLB NIL=
200612090600 METAR MRLB NIL=
200612090700 METAR MRLB NIL=
200612090800 METAR MRLB NIL=
200612090900 METAR MRLB NIL=
200612091000 METAR MRLB NIL=
200612091100 METAR MRLB NIL=
200612091200 METAR MRLB NIL=
200612091300 METAR MRLB 091300Z 20003KT 9999 SCT040 23/21 A2989=
200612091400 METAR MRLB 091400Z 23003KT 9999 FEW045 SCT280 25/22 A2991=
200612091500 METAR MRLB 091500Z 27003KT 9999 FEW045 SCT280 28/23 A2991=
200612091600 METAR MRLB 091600Z 08009KT 9999 FEW040 30/21 A2990=
200612091700 METAR MRLB 091700Z 09013KT 9999 FEW040 SCT140 31/21 A2988=
200612091800 METAR MRLB 091800Z 09013KT 9999 SCT035 BKN120 31/20 A2998 RMK RN DST N NE=
200612091900 METAR MRLB 091900Z 08011KT 9999 FEW035 BKN120 30/20 A2984 RMK RN DST N E=
200612092000 METAR MRLB 092000Z 06010KT 9999 FEW035 BKN120 30/20 A2980=
200612092100 METAR MRLB 092100Z 08008KT 9999 FEW035 BKN120 31/21 A2980 RMK RN N SE=
200612092200 METAR MRLB 092200Z 07009KT 9999 FEW035 BKN120 29/24 A2980=
200612092300 METAR MRLB 092300Z 08010KT 9999 FEW040 BKN120 27/20 A2982=
200612100000 METAR MRLB 100000Z 08007KT 9999 FEW035 BKN120 26/20 A2984=
200612100100 METAR MRLB 100100Z 09007KT 9999 FEW035 SCT120 26/20 A2984=
200612100200 METAR MRLB NIL=
200612100300 METAR MRLB NIL=
200612100400 METAR MRLB NIL=
200612100500 METAR MRLB NIL=
200612100600 METAR MRLB NIL=
200612100700 METAR MRLB NIL=
200612100800 METAR MRLB NIL=
200612100900 METAR MRLB NIL=
200612101000 METAR MRLB NIL=
200612101100 METAR MRLB NIL=
200612101200 METAR MRLB NIL=
200612101300 METAR MRLB 101300Z 33003KT 9999 FEW035 BKN250 22/21 A2989=
200612101400 METAR MRLB 101400Z 20003KT CAVOK 24/22 A2998=
200612101500 METAR MRLB 101500Z 22005KT CAVOK 27/22 A2992=
200612101600 METAR MRLB 101600Z 21005KT 9999 FEW040 SCT130 29/21 A2990=
200612101700 METAR MRLB 101700Z 30004KT 9999 FEW035 BKN100 30/21 A2989=
200612101800 METAR MRLB 101800Z 11006KT 9999 SCT035 BKN100 30/21 A2986 RMK RN S=
200612101900 METAR MRLB 101900Z 12008KT 9999 FEW035 BKN120 31/21 A2983=
200612102000 METAR MRLB 102000Z 10007KT 9999 SCT030 BKN120 32/22 A2980 RMK RN N=
200612102100 METAR MRLB 102100Z 28005KT 9999 FEW030 BKN120 27/23 A2980 RMK RN DST N/W=
200612102200 METAR MRLB 102200Z 07007KT CAVOK 28/21 A2978 RMK BKN120=
200612102300 METAR MRLB 102300Z 13005KT CAVPK 28/20 A2979 RMK BKN120=
200612110000 METAR MRLB 110000Z 12005KT CAVOK 26/20 A2981=
200612110100 METAR MRLB 110100Z 35003KT CAVOK 25/21 A2984/7AC100=
200612110200 METAR MRLB NIL=
200612110300 METAR MRLB NIL=
200612110400 METAR MRLB NIL=
200612110500 METAR MRLB NIL=
200612110600 METAR MRLB NIL=
200612110700 METAR MRLB NIL=
200612110800 METAR MRLB NIL=
200612110900 METAR MRLB NIL=
200612111000 METAR MRLB NIL=
200612111100 METAR MRLB NIL=
200612111200 METAR MRLB 111200Z 06003KT CAVOK 20/19 A2988=
200612111300 METAR MRLB 111300Z 00000KT CAVOK 22/20 A2989 RMK FEW120 BKN250=
200612111400 METAR MRLB 111400Z 18004KT 9999 FEW035 BKN120 23/21 A2992 RMK RN NE E SE=
200612111500 METAR MRLB 111500Z 23006KT 9999 FEW040 BKN120 24/21 A2993 RMK RN DST NE S=
200612111600 METAR MRLB 111600Z 21003KT 9999 FEW035 BKN120 27/22 A2993 RMK RN N NE=
200612111700 METAR MRLB 111700Z 32003KT 9999 -RA FEW025 BKN100 28/22 A2992=
200612111800 METAR MRLB 111800Z 08009KT 9999 FEW035 OVC120 27/21 A2988=
200612111900 METAR MRLB 111900Z 10011KT 9999 FEW035 OVC120 27/20 A2986=
200612112000 METAR MRLB 112000Z 10012KT 9999 FEW035 OVC120 27/20 A2983=
200612112100 METAR MRLB 112100Z 09009KT 999 FEW035 OVC130 28/20 A2981=
200612112200 METAR MRLB 112200Z 09008KT 9999 SCT035 OVC130 27/20 A2981=
200612112300 METAR MRLB 112300Z 12006KT 9999 FEW035 OVC130 26/20 A2984=
200612120000 METAR MRLB 120000Z 08004KT 9999 SCT035 BKN120 24/21 A2985=
200612120100 METAR MRLB 120100Z 06002KT 9999 FEW035 BKN120 24/21 A2987=
200612120200 METAR MRLB 120200Z 18003KT 9999 FEW035 BKN120 24/21 A2988=
200612120300 METAR MRLB NIL=
200612120400 METAR MRLB NIL=
200612120500 METAR MRLB NIL=
200612120600 METAR MRLB NIL=
200612120700 METAR MRLB NIL=
200612120800 METAR MRLB NIL=
200612120900 METAR MRLB NIL=
200612121000 METAR MRLB NIL=
200612121100 METAR MRLB NIL=
200612121200 METAR MRLB 121200Z 30002KT 9999 SCT035 BKN120 21/20 A2988 RMK RN E=
200612121300 METAR MRLB 121300Z 29003KT 9999 FEW035 BKN120 22/21 A2991 RMK HZ ARND=
200612121400 METAR MRLB 121400Z 08005KT 9999 FEW035 SCT120 BKN250 26/21 A2992=
200612121500 METAR MRLB 121500Z 03007KT 9999 FEW035 SCT130 BKN250 28/21 A2994=
200612121600 METAR MRLB 121600Z 07014KT 9999 FEW035 BKN250 30/20 A2991=
200612121700 METAR MRLB 121700Z 07014KT 9999 FEW035 SCT250 31/19 A2989=
200612121800 METAR MRLB 121800Z 07013KT 9999 FEW035 SCT250 31/19 A2987=
200612121900 METAR MRLB 121900Z 07011KT 9999 FEW035 31/19 A2985=
200612122000 METAR MRLB 122000Z 08008KT 9999 SCT035 31/18 A2982=
200612122100 METAR MRLB 122100Z 09006KT 9999 FEW035 SCT250 31/19 A2980=
200612122200 METAR MRLB 122200Z 08009KT 9999 SCT035 SCT250 28/20 A2981=
200612122300 METAR MRLB 122300Z 07005KT 9999 SCT035 BKN250 28/21 A2983=
200612130000 METAR MRLB 130000Z 07006KT 9999 FEW035 BKN250 26/20 A2985=
200612130100 METAR MRLB 130100Z 06004KT 9999 SCT035 BKN250 25/20 A2989=
200612130200 METAR MRLB NIL=
200612130300 METAR MRLB NIL=
200612130400 METAR MRLB NIL=
200612130500 METAR MRLB NIL=
200612130600 METAR MRLB NIL=
200612130700 METAR MRLB NIL=
200612130800 METAR MRLB NIL=
200612130900 METAR MRLB NIL=
200612131000 METAR MRLB NIL=
200612131100 METAR MRLB NIL=
200612131200 METAR MRLB 131200Z 00000KT CAVOK 19/18 A2989 RMK BKN250=
200612131300 METAR MRLB 131300Z 07002KT CAVOK 21/20 A2991=
200612131400 METAR MRLB NIL=
200612131500 METAR MRLB 131500Z 17003KT CAVOK 27/21 A2994=
200612131600 METAR MRLB 131600Z 33003KT CAVOK 29/20 A2993=
200612131700 METAR MRLB 131700Z 06003KT 9999 FEW035 SCT250 31/19 A2990=
200612131800 METAR MRLB 131800Z 36004KT 9999 SCT035 30/20 A2988=
200612131900 METAR MRLB 131900Z 27007KT 9999 SCT035 32/21 A2984=
200612132000 METAR MRLB 132000Z 28008KT 9999 SCT035 31/21 A2982=
200612132100 METAR MRLB 132100Z 27006KT 9999 SCT030 SCT250 30/21 A2980=
200612132200 METAR MRLB 132200Z 26007KT 9999 SCT035 29/21 A2979=
200612132300 METAR MRLB 132300Z 27005KT 9999 FEW035 SCT250 27/22 A2981=
200612140000 METAR MRLB 140000Z 22002KT 9999 SCT035 BKN250 25/21 A2983=
200612140100 METAR MRLB 140100Z 19003KT 9999 SCT035 BKN250 24/21 A2986=
200612140200 METAR MRLB 140200Z 04002KT 9999 SCT035 BKN250 23/21 A2988=
200612140300 METAR MRLB NIL=
200612140400 METAR MRLB NIL=
200612140500 METAR MRLB NIL=
200612140600 METAR MRLB NIL=
200612140700 METAR MRLB NIL=
200612140800 METAR MRLB NIL=
200612140900 METAR MRLB NIL=
200612141000 METAR MRLB NIL=
200612141100 METAR MRLB NIL=
200612141200 METAR MRLB 141200Z 00000KT 0100 FG VV/// 22/21 A2985=
200612141300 METAR MRLB 141300Z 03002KT 0300 FG FEW002 BKN005 22/22 A2987=
200612141400 METAR MRLB 141400Z 00000KT 9999 FEW010 23/22 A2989 RMK LOW ST W SW=
200612141500 METAR MRLB 141500Z 14003KT 9999 SCT030 27/22 A2991=
200612141600 METAR MRLB 141600Z 22003KT 9999 SCT030 SCT250 28/21 A2990=
200612141700 METAR MRLB 141700Z 12003KT 9999 BKN030 29/21 A2987=
200612141800 METAR MRLB 141800Z 00000KT 9999 BKN030 30/21 A2984=
200612141900 METAR MRLB 141900Z 27009KT 9999 VCSH FEW030TCU SCT035 28/22 A2982 RMK RN DST SW RASH E 6000=
200612142000 METAR MRLB 142000Z 26007KT 9999 SCT030 SCT250 25/23 A2978=
200612142100 METAR MRLB 142100Z 28008KT 9999 SCT035 BKN250 28/23 A2977=
200612142200 METAR MRLB 142200Z 27007KT 9999 SCT035 BKN250 27/23 A2977=
200612142300 METAR MRLB 142300Z 25006KT 9999 FEW020 SCT030 BKN250 26/23 A2978 RMK RN E=
200612150000 METAR MRLB 150000Z 30004KT 9999 -RA FEW015 BKN025 25/23 A2981=
200612150100 METAR MRLB 150100Z 27003KT 9999 SCT030 BKN120 24/23 A2981=
200612150200 METAR MRLB 150200Z 00000KT 9999 FEW030 BKN120 24/23 A2985=
200612150300 METAR MRLB NIL=
200612150400 METAR MRLB NIL=
200612150500 METAR MRLB NIL=
200612150600 METAR MRLB NIL=
200612150700 METAR MRLB NIL=
200612150800 METAR MRLB NIL=
200612150900 METAR MRLB NIL=
200612151000 METAR MRLB NIL=
200612151100 METAR MRLB NIL=
200612151200 METAR MRLB 151200Z 31002KT 9999 FEW010 BKN120 22/21 A2980=
200612151300 METAR MRLB 151300Z 14003KT 9999 FEW015 SCT120 BKN250 22/21 A2982=
200612151400 METAR MRLB 151400Z 13006KT 9999 FEW020 SCT120 BKN250 24/21 A2985=
200612151500 METAR MRLB 151500Z 09009KT 9999 FEW025 SCT120 BKN250 26/21 A2987=
200612151600 METAR MRLB 151600Z 11007KT 9999 SCT030 BKN250 28/20 A2986=
200612151700 METAR MRLB 151700Z 09005KT 9999 FEW035 BKN250 29/20 A2985=
200612151800 METAR MRLB 151800Z 11009KT 9999 FEW035 BKN250 31/19 A2982=
200612151900 METAR MRLB 151900Z 08007KT CAVOK 30/19 A2978=
200612152000 METAR MRLB 152000Z 07005KT CAVOK 30/19 A2975=
200612152100 METAR MRLB 152100Z 10005KT 9999 FEW035 BKN250 30/19 A2974=
200612152200 METAR MRLB 152200Z 11006KT 9999 FEW035 OVC250 29/20 A2975=
200612152300 METAR MRLB 152300Z 07003KT 9999 FEW035 OVC250 27/21 A2978=
200612160000 METAR MRLB 160000Z 09003KT 9999 FEW035 BKN250 25/20 A2979=
200612160100 METAR MRLB 160100Z 09004KT 9999 FEW035 BKN250 25/20 A2982=
200612160200 METAR MRLB NIL=
200612160300 METAR MRLB NIL=
200612160400 METAR MRLB NIL=
200612160500 METAR MRLB NIL=
200612160600 METAR MRLB NIL=
200612160700 METAR MRLB NIL=
200612160800 METAR MRLB NIL=
200612160900 METAR MRLB NIL=
200612161000 METAR MRLB NIL=
200612161100 METAR MRLB NIL=
200612161200 METAR MRLB NIL=
200612161300 METAR MRLB 161300Z 01002KT CAVOK 20/19 A2985 RMK SCT250=
200612161400 METAR MRLB 161400Z 09903KT CAVOK 24/19 A2987 FEW250=
200612161500 METAR MRLB 161500Z 02002KT CAVOK 26/20 A2988=
200612161600 METAR MRLB 161600Z 09007KT 9999 FEW035 30/20 A2987=
200612161700 METAR MRLB 161700Z 09008KT 9999 FEW035 31/19 A2985=
200612161800 METAR MRLB 161800Z 10008KT 9999 FEW035 31/20 A2983=
200612161900 METAR MRLB 161900Z 05010KT 9999 SCT035 32/19 A2980=
200612162000 METAR MRLB 162000Z 08008KT 9999 SCT035 31/19 A2977=
200612162100 METAR MRLB 162100Z 06009KT 9999 SCT035 31/19 A2975=
200612162200 METAR MRLB 162200Z 08008KT 9999 SCT040 31/19 A2976=
200612162300 METAR MRLB 162300Z 07006KT CAVOK 29/20 A2977=
200612170000 METAR MRLB 170000Z 08005KT CAVOK 26/20 A2979=
200612170100 METAR MRLB 170100Z 11004KT CAVOK 24/20 A2982/FEWCU=
200612170200 METAR MRLB NIL=
200612170300 METAR MRLB NIL=
200612170400 METAR MRLB NIL=
200612170500 METAR MRLB NIL=
200612170600 METAR MRLB NIL=
200612170700 METAR MRLB NIL=
200612170800 METAR MRLB NIL=
200612170900 METAR MRLB NIL=
200612171000 METAR MRLB NIL=
200612171100 METAR MRLB NIL=
200612171200 METAR MRLB NIL=
200612171300 METAR MRLB 171300Z 09004KT CAVOK 24/19 A2988=
200612171400 METAR MRLB 171400Z 12006KT CAVOK 27/20 A2990=
200612171500 METAR MRLB 171500Z 11007KT 9999 FEW035 28/20 A2990=
200612171600 METAR MRLB 171600Z NIL=
200612171700 METAR MRLB 171700Z 08010KT 9999 SCT035 31/19 A2988=
200612171800 METAR MRLB 171800Z 06010KT 9999 SCT035 32/19 A2985=
200612171900 METAR MRLB 171900Z 07011KT 9999 SCT035 32/19 A2981=
200612172000 METAR MRLB 172000Z 09009KT 9999 SCT035 32/19 A2978=
200612172100 METAR MRLB 172100Z 07011KT 9999 FEW035 32/19 A2976=
200612172200 METAR MRLB 172200Z 07012KT 9999 FEW035 31/19 A2976=
200612172300 METAR MRLB 172300Z NIL=
200612180000 METAR MRLB 180000Z 07011KT 9999 SKC 27/20 A2979=
200612180100 METAR MRLB 180100Z 07010KT 9999 SKC 26/19 A2981=
200612180200 METAR MRLB NIL=
200612180300 METAR MRLB NIL=
200612180400 METAR MRLB NIL=
200612180500 METAR MRLB NIL=
200612180600 METAR MRLB NIL=
200612180700 METAR MRLB NIL=
200612180800 METAR MRLB NIL=
200612180900 METAR MRLB NIL=
200612181000 METAR MRLB NIL=
200612181100 METAR MRLB NIL=
200612181200 METAR MRLB 181200Z 09009KT CAVOK 24/19 A2983=
200612181300 METAR MRLB 181300Z 09009KT CAVOK 26/19 A2986=
200612181400 METAR MRLB 181400Z 08012KT CAVOK 28/19 A2989=
200612181500 METAR MRLB 181500Z 07015KT CAVOK 29/18 A2990=
200612181600 METAR MRLB 181600Z 06015KT CAVOK 30/18 A2989=
200612181700 METAR MRLB 181700Z 06014KT CAVOK 31/18 A2988=
200612181800 METAR MRLB 181800Z 07011G21KT 9999 FEW035 31/19 A2985=
200612181900 METAR MRLB 181900Z 05013KT 9999 FEW035 32/18 A2983=
200612182000 METAR MRLB 182000Z 06014KT 9999 FEW035 32/18 A2979=
200612182100 METAR MRLB 182100Z 05014KR 9999 FEW035 31/19 A2978=
200612182200 METAR MRLB 182200Z 06011KT 9999 FEW035 30/19 A2978=
200612182300 METAR MRLB 182300Z 07009KT 9999 FEW035 28/19 A2979=
200612190000 METAR MRLB 190000Z 07008KT CAVOK 26/19 A2980=
200612190100 METAR MRLB 190100Z 08011KT 9999 FEW035 SCT250 26/19 A2983=
200612190200 METAR MRLB NIL=
200612190300 METAR MRLB NIL=
200612190400 METAR MRLB NIL=
200612190500 METAR MRLB NIL=
200612190600 METAR MRLB NIL=
200612190700 METAR MRLB NIL=
200612190800 METAR MRLB NIL=
200612190900 METAR MRLB NIL=
200612191000 METAR MRLB NIL=
200612191100 METAR MRLB NIL=
200612191200 METAR MRLB 191200Z 35003KT 9999 SCT035 22/19 A2982=
200612191300 METAR MRLB 191300Z 01004KT 9999 FEW035 24/19 A2984=
200612191400 METAR MRLB 191400Z 06010KT 9999 SCT035 28/19 A2986=
200612191500 METAR MRLB 191500Z 08013KT 9999 BKN035 27/20 A2987 RMK FU NE 9000=
200612191600 METAR MRLB 191600Z 07003KT 9999 FEW030 BKN090 29/23 A2985 RMK RN DST E=
200612191700 METAR MRLB 191700Z 08012KT 9999 SCT035 30/20 A2985=
200612191800 METAR MRLB 191800Z 08013KT 9999 SCT035 29/19 A2983=
200612191900 METAR MRLB 191900Z 08010KT 9999 FEW035 30/19 A2981=
200612192000 METAR MRLB 192000Z 08010KT 9999 SCT035 30/19 A2979=
200612192100 METAR MRLB 192100Z 06011KT 9999 SCT035 SCT130 29/19 A2978 RMK RN NE=
200612192200 METAR MRLB 192200Z 35006KT 9999 FEW030 BKN120 24/21 A2979 REDZ=
200612192300 METAR MRLB 192300Z 05011KT 9999 FEW035 SCT130 26/19 A2979=
200612200000 METAR MRLB 200000Z 06010KT 9999 FEW035 SCT120 25/19 A2980=
200612200100 METAR MRLB 200100Z 06010KT 9999 FEW035 SCT120 25/18 A2982=
200612200200 METAR MRLB NIL=
200612200300 METAR MRLB NIL=
200612200400 METAR MRLB NIL=
200612200500 METAR MRLB NIL=
200612200600 METAR MRLB NIL=
200612200700 METAR MRLB NIL=
200612200800 METAR MRLB NIL=
200612200900 METAR MRLB NIL=
200612201000 METAR MRLB NIL=
200612201100 METAR MRLB NIL=
200612201200 METAR MRLB 201200Z 08002KT 9999 FEW035 19/18 A2984=
200612201300 METAR MRLB 201300Z 02003KT CAVOK 21/19 A2987=
200612201400 METAR MRLB 201400Z 28002KT CAVOK 24/19 A2989=
200612201500 METAR MRLB 201500Z 08005KT 9999 FEW035 28/19 A2989=
200612201600 METAR MRLB 201600Z 05006KT 9999 FEW035 30/24 A2988=
200612201700 METAR MRLB 201700Z 06010G24KT 9999 FEW035 31/19 A2986=
200612201800 METAR MRLB 201800Z 11008KT 9999 SCT035 32/20 A2982=
200612201900 METAR MRLB 201900Z 11008KT 9999 FEW035 31/19 A2980=
200612202000 METAR MRLB 202000Z 10011KT 9999 SCT035 31/19 A2976=
200612202100 METAR MRLB 202100Z 09004KT 9999 SCT035 32/19 A2975=
200612202200 METAR MRLB 202200Z 09011KT 9999 FEW025 30/19 A2975=
200612202300 METAR MRLB 202300Z 09012KT 9999 FEW035 27/19 A2976=
200612210000 METAR MRLB 210000Z 07010KT 9999 FEW035 SCT250 27/18 A2978=
200612210100 METAR MRLB 210100Z 10009KT 9999 FEW035 BKN250 26/18 A2980=
200612210200 METAR MRLB 210200Z 08007KT 9999 FEW035 BKN250 25/18 A2984=
200612210300 METAR MRLB NIL=
200612210400 METAR MRLB NIL=
200612210500 METAR MRLB NIL=
200612210600 METAR MRLB NIL=
200612210700 METAR MRLB NIL=
200612210800 METAR MRLB NIL=
200612210900 METAR MRLB NIL=
200612211000 METAR MRLB NIL=
200612211100 METAR MRLB NIL=
200612211200 METAR MRLB 211200Z 06003KT CAVOK 18/17 A2989 RMK CB DST SW=
200612211300 METAR MRLB 211300Z 00000KT CAVOK 21/19 A2991 RMK FEWCI=
200612211400 METAR MRLB 211400Z 00000KT CAVOK 24/20 A2995=
200612211500 METAR MRLB 211500Z 12002KT CAVOK 27/20 A2995=
200612211600 METAR MRLB 211600Z 15004KT 9999 FEW035 30/20 A2995=
200612211700 METAR MRLB 211700Z 12005KT 9999 SCT035 31/19 A2992=
200612211800 METAR MRLB 211800Z 08006KT 9999 SCT035 31/19 A2989=
200612211900 METAR MRLB 211900Z 08006KT 9999 SCT035 31/19 A2985=
200612212000 METAR MRLB 212000Z 30007KT 9999 SCT030 30/20 A2983=
200612212100 METAR MRLB 212100Z 28010KT 9999 SCT035 29/21 A2982=
200612212200 METAR MRLB 212200Z 28008KT 9999 SCT035 28/21 A2982=
200612212300 METAR MRLB 212300Z 28004KT 9999 SCT030 27/21 A2983=
200612220000 METAR MRLB 220000Z 28003KT 9999 FEW035 SCT250 25/22 A2984=
200612220100 METAR MRLB 220100Z 13002KT 9999 FEW035 BKN250 24/22 A2986=
200612220200 METAR MRLB NIL=
200612220300 METAR MRLB NIL=
200612220400 METAR MRLB NIL=
200612220500 METAR MRLB NIL=
200612220600 METAR MRLB NIL=
200612220700 METAR MRLB NIL=
200612220800 METAR MRLB NIL=
200612220900 METAR MRLB NIL=
200612221000 METAR MRLB NIL=
200612221100 METAR MRLB NIL=
200612221200 METAR MRLB 221200Z 03004KT 9999 FEW005 19/18 A2988 FG DST W=
200612221300 METAR MRLB 221300Z 00000KT CAVOK 21/20 A2991=
200612221400 METAR MRLB 221400Z 00000KT CAVOK 25/21 A2983=
200612221500 METAR MRLB 221500Z 00000KT 9999 FEW035 26/22 A2994=
200612221600 METAR MRLB 221600Z 34003KT 9999 FEW035 28/21 A2993=
200612221700 METAR MRLB 221700Z 32004KT 9999 SCT035 30/20 A2991=
200612221800 METAR MRLB 221800Z 28004KT 9999 SCT035 30/20 A2988=
200612221900 METAR MRLB 221900Z 29007KT 9999 BKN035 30/20 A2985=
200612222000 METAR MRLB 222000Z 28009KT 9999 SCT035 30/21 A2983=
200612222100 METAR MRLB 222100Z 27007KT 9999 SCT035 30/21 A2981=
200612222200 METAR MRLB 222200Z 29007KT 9999 SCT035 29/21 A2982=
200612222300 METAR MRLB 222300Z 26006KT 9999 BKN035 27/21 A2982=
200612230000 METAR MRLB 230000Z 25003KT 9999 SCT035 SCT250 26/22 A2984=
200612230100 METAR MRLB NIL=
200612230200 METAR MRLB 230200Z 00000KT 9999 FEW035 BKN250 25/22 A2988=
200612230300 METAR MRLB NIL=
200612230400 METAR MRLB NIL=
200612230500 METAR MRLB NIL=
200612230600 METAR MRLB NIL=
200612230700 METAR MRLB NIL=
200612230800 METAR MRLB NIL=
200612230900 METAR MRLB NIL=
200612231000 METAR MRLB NIL=
200612231100 METAR MRLB NIL=
200612231200 METAR MRLB NIL=
200612231300 METAR MRLB 231300Z 00000KT 9999 FEW008 SCT130 22/21 A2988 RMK LEVE HZY=
200612231400 METAR MRLB 231400Z 18002KT 9999 FEW010 25/22 A2990=
200612231500 METAR MRLB 231500Z 31003KT CAVOK 27/22 A2991=
200612231600 METAR MRLB 231600Z 08004KT 9999 FEW035 30/21 A2990=
200612231700 METAR MRLB 231700Z 10011KT 9999 FEW035 32/20 A2987=
200612231800 METAR MRLB 231800Z 09009KT 9999 SCT035 32/19 A2984=
200612231900 METAR MRLB 231900Z 09013KT 9999 SCT035 33/19 A2981=
200612232000 METAR MRLB 232000Z 08008KT 9999 SCT035 33/19 A2978=
200612232100 METAR MRLB 232100Z 09008KT 9999 SCT035 32/19 A2976 RMK CB DST NE=
200612232200 METAR MRLB 232200Z 08008KT 9999 FEW040 32/19 A2977=
200612232300 METAR MRLB 232300Z 07007KT CAVOK 30/20 A2978=
200612240000 METAR MRLB 240000Z 10008KT CAVOK 28/20 A2979=
200612240100 METAR MRLB 240100Z 11005KT CAVOK 26/20 A2983/FEW AC=
200612240200 METAR MRLB NIL=
200612240300 METAR MRLB NIL=
200612240400 METAR MRLB NIL=
200612240500 METAR MRLB NIL=
200612240600 METAR MRLB NIL=
200612240700 METAR MRLB NIL=
200612240800 METAR MRLB NIL=
200612240900 METAR MRLB NIL=
200612241000 METAR MRLB NIL=
200612241100 METAR MRLB NIL=
200612241200 METAR MRLB NIL=
200612241300 METAR MRLB 241300Z 00000KT CAVOK 23/20 A2983=
200612241400 METAR MRLB 241400Z 33002KT CAVOK 25/21 A2988=
200612241500 METAR MRLB 241500Z 10010KT CAVOK 30/20 A2988=
200612241600 METAR MRLB NIL=
200612241700 METAR MRLB 241700Z 08009KT 9999 FEW035 33/20 A2987=
200612241800 METAR MRLB 241800Z 07010KT 9999 FEW035 32/20 A2984=
200612241900 METAR MRLB 241900Z 09008KT 9999 SCT035 32/20 A2980=
200612242000 METAR MRLB 242000Z 08010KT 9999 SCT035 33/20 A2979=
200612242100 METAR MRLB NIL=
200612242200 METAR MRLB 242200Z 08007KT 9999 FEW035 SCT120 30/20 A2977=
200612242300 METAR MRLB 242300Z 10005KT 9999 FEW040 BKN120 29/20 A2979=
200612250000 METAR MRLB 250000Z 10006KT 9999 FEW040 SCT120 28/19 A2980=
200612250100 METAR MRLB 250100Z 03004KT 9999 FEW040 BKN120 29/19 A2982=
200612250200 METAR MRLB 250200Z 24002KT CAVOK 25/19 A2984=
200612250300 METAR MRLB NIL=
200612250400 METAR MRLB NIL=
200612250500 METAR MRLB NIL=
200612250600 METAR MRLB NIL=
200612250700 METAR MRLB NIL=
200612250800 METAR MRLB NIL=
200612250900 METAR MRLB NIL=
200612251000 METAR MRLB NIL=
200612251100 METAR MRLB NIL=
200612251200 METAR MRLB 251200Z 01002KT CAVOK 21/20 A2983 RMK HZY=
200612251300 METAR MRLB NIL=
200612251400 METAR MRLB NIL=
200612251500 METAR MRLB 251500Z 22005KT 9999 FEW035 28/21 A2989=
200612251600 METAR MRLB 251600Z 16003KT 9999 FEW035 30/21 A2988=
200612251700 METAR MRLB 251700Z 36004KT 9999 SCT035 31/20 A2985=
200612251800 METAR MRLB 251800Z 08012KT 9999 FEW040 31/20 A2982=
200612251900 METAR MRLB NIL=
200612252000 METAR MRLB 252000Z 07015KT 9999 SCT040 32/19 A2976=
200612252100 METAR MRLB 252100Z 07011KT 9999 SCT040 32/19 A2974=
200612252200 METAR MRLB 252200Z 07010KT 9999 SCT035 31/19 A2974=
200612252300 METAR MRLB NIL=
200612260000 METAR MRLB NIL=
200612260100 METAR MRLB NIL=
200612260200 METAR MRLB NIL=
200612260300 METAR MRLB NIL=
200612260400 METAR MRLB NIL=
200612260500 METAR MRLB NIL=
200612260600 METAR MRLB NIL=
200612260700 METAR MRLB NIL=
200612260800 METAR MRLB NIL=
200612260900 METAR MRLB NIL=
200612261000 METAR MRLB NIL=
200612261100 METAR MRLB NIL=
200612261200 METAR MRLB 261200Z 18004KT CAVOK 21/20 A2984=
200612261300 METAR MRLB 261300Z VRB02KT CAVOK 23/21 A2986=
200612261400 METAR MRLB NIL=
200612261500 METAR MRLB 261500Z 23005KT CAVOK 28/21 A2988=
200612261600 METAR MRLB NIL=
200612261700 METAR MRLB 261700Z 06005KT 9999 FEW035 32/18 A2987=
200612261800 METAR MRLB 261800Z 08016KT 9999 FEW035 32/17 A2984=
200612261900 METAR MRLB NIL=
200612262000 METAR MRLB 262000Z 08016KT 9999 FEW035 32/18 A2977=
200612262100 METAR MRLB 262100Z 09016KT 9999 SCT035 31/18 A2977=
200612262200 METAR MRLB NIL=
200612262300 METAR MRLB 262300Z 08015KT 9999 SCT035 29/18 A2979=
200612270000 METAR MRLB 270000Z 07016KT 9999 SCT035 26/19 A2982=
200612270100 METAR MRLB 270100Z 09008KT 9999 FEW035 SCT250 26/19 A2985=
200612270200 METAR MRLB NIL=
200612270300 METAR MRLB NIL=
200612270400 METAR MRLB NIL=
200612270500 METAR MRLB NIL=
200612270600 METAR MRLB NIL=
200612270700 METAR MRLB NIL=
200612270800 METAR MRLB NIL=
200612270900 METAR MRLB NIL=
200612271000 METAR MRLB NIL=
200612271100 METAR MRLB NIL=
200612271200 METAR MRLB 271200Z 17004KT CAVOK 21/16 A2990=
200612271300 METAR MRLB 271300Z 31004KT CAVOK 19/15 A2992 BKN130=
200612271400 METAR MRLB 271400Z 20004KT CAVOK 23/16 2993 BKN130=
200612271500 METAR MRLB 271500Z 28006KT CAVOK 25/16 A2993 BKN130=
200612271600 METAR MRLB 271600Z 24003KT CAVOK 28/15 A2992 BKN130=
200612271700 METAR MRLB 271700Z 28008KT CAVOK 29/16 A2990 BKN130=
200612271800 METAR MRLB 271800Z 28008KT CAVOK 29/16 A2989 BKN130=
200612271900 METAR MRLB 271900Z 10013KT CAVOK 31/15 A2984 SCT130=
200612272000 METAR MRLB 272000Z 09014KT CAVOK 31/16 A2983=
200612272100 METAR MRLB 272100Z 10012KT CAVOK 30/16 A2981=
200612272200 METAR MRLB 272200Z 09010KT CAVOK 30/16 A2982=
200612272300 METAR MRLB 272300Z 09008KT CAVOK 27/17 A2983=
200612280000 METAR MRLB 280000Z 12007KT CAVOK 25/17 A2984=
200612280100 METAR MRLB 280100Z 29002KT 9999 FEW035 SCT250 24/17 A2988=
200612280200 METAR MRLB NIL=
200612280300 METAR MRLB NIL=
200612280400 METAR MRLB NIL=
200612280500 METAR MRLB NIL=
200612280600 METAR MRLB NIL=
200612280700 METAR MRLB NIL=
200612280800 METAR MRLB NIL=
200612280900 METAR MRLB NIL=
200612281000 METAR MRLB NIL=
200612281100 METAR MRLB NIL=
200612281200 METAR MRLB 281200Z 23002KT CAVOK 18/16 A2987 FEW CU=
200612281300 METAR MRLB 281300Z 24002KT CAVOK 20/17 A2983=
200612281400 METAR MRLB 281400Z 22004KT CAVOK 23/18 A2992=
200612281500 METAR MRLB NIL=
200612281600 METAR MRLB 281600Z 09011KT CAVOK 29/18 A2989=
200612281700 METAR MRLB 281700Z 10012KT CAVOK 31/18 A2987=
200612281800 METAR MRLB 281800Z 10014KT 9999 FEW040 30/18 A2985=
200612281900 METAR MRLB 281900Z 10011KT 9999 FEW040 30/18 A2982=
200612282000 METAR MRLB 282000Z 08012KT 9999 FEW040 30/19 A2980=
200612282100 METAR MRLB 282100Z 07013KT 9999 FEW040 30/18 A2979=
200612282200 METAR MRLB 282200Z 07013KT 9999 FEW040 28/19 A2980=
200612282300 METAR MRLB 282300Z 07011KT 9999 FEW035 27/19 A2981=
200612290000 METAR MRLB 290000Z 09008KT 9999 SCT035 26/18 A2982=
200612290100 METAR MRLB 290100Z 10011KT 9999 FEW035 26/18 A2982=
200612290200 METAR MRLB 290200Z 10010KT 9999 FEW035 SCT250 25/18 A2983=
200612290300 METAR MRLB NIL=
200612290400 METAR MRLB NIL=
200612290500 METAR MRLB NIL=
200612290600 METAR MRLB NIL=
200612290700 METAR MRLB NIL=
200612290800 METAR MRLB NIL=
200612290900 METAR MRLB NIL=
200612291000 METAR MRLB NIL=
200612291100 METAR MRLB NIL=
200612291200 METAR MRLB 291200Z 06009KT 9999 SKC 23/18 A2981=
200612291300 METAR MRLB 291300Z 07007KT 9999 CAVOK 25/18 A2984=
200612291400 METAR MRLB 291400Z 07017KT CAVOK 28/19 A2987=
200612291500 METAR MRLB 291500Z 07017KT 9999 SKC 29/18 A2988=
200612291600 METAR MRLB 291600Z 06017KT 9999 SKC 30/17 A2987=
200612291700 METAR MRLB 291700Z 07017KT 9999 SKC 31/19 A2985=
200612291800 METAR MRLB 291800Z 08017KT 9999 FEW040 31/18 A2983=
200612291900 METAR MRLB 291900Z 07017KT 9999 FEW040 32/18 A2979=
200612292000 METAR MRLB 292000Z 07019KT 9999 FEW040 32/17 A2976=
200612292100 METAR MRLB 292100Z 08017KT 9999 FEW040 31/18 A2974=
200612292200 METAR MRLB 292200Z 08017KT CAVOK 30/18 A2974=
200612292300 METAR MRLB 292300Z 07019KT CAVOK 29/18 A2974=
200612300000 METAR MRLB 300000Z 09016KT CAVOK 27/19 A2975=
200612300100 METAR MRLB 300100Z 08018KT CAVOK 27/18 A2976=
200612300200 METAR MRLB 300200Z 09018KT 9999 FEW035 SCT250 26/18 A2979=
200612300300 METAR MRLB NIL=
200612300400 METAR MRLB NIL=
200612300500 METAR MRLB NIL=
200612300600 METAR MRLB NIL=
200612300700 METAR MRLB NIL=
200612300800 METAR MRLB NIL=
200612300900 METAR MRLB NIL=
200612301000 METAR MRLB NIL=
200612301100 METAR MRLB NIL=
200612301200 METAR MRLB NIL=
200612301300 METAR MRLB 301300Z 10012KT CAVOK 25/19 A2983=
200612301400 METAR MRLB 301400Z 09008KT CAVOK 28/19 A2986=
200612301500 METAR MRLB NIL=
200612301600 METAR MRLB 301600Z 07010KT 9999 FEW035 31/19 A2987=
200612301700 METAR MRLB 301700Z 08010KT 9999 FEW035 31/19 A2984=
200612301800 METAR MRLB 301800Z 08012KT 9999 FEW035 32/19 A2982=
200612301900 METAR MRLB 301900Z 09010KT CAVOK 32/18 A2978=
200612302000 METAR MRLB 302000Z 09010KT 9999 SCT035 32/18 A2975=
200612302100 METAR MRLB 302100Z 08012KT 9999 FEW040 32/18 A2974=
200612302200 METAR MRLB NIL=
200612302300 METAR MRLB 302300Z 08013KT CAVOK 29/19 A2976=
200612310000 METAR MRLB 310000Z 08011KT CAVOK 27/18 A2978=
200612310100 METAR MRLB 310100Z 10011KT CAVOK 27/18 A2980=
200612310200 METAR MRLB 310200Z 11012KT CAVOK 26/19 A2983=
200612310300 METAR MRLB NIL=
200612310400 METAR MRLB NIL=
200612310500 METAR MRLB NIL=
200612310600 METAR MRLB NIL=
200612310700 METAR MRLB NIL=
200612310800 METAR MRLB NIL=
200612310900 METAR MRLB NIL=
200612311000 METAR MRLB NIL=
200612311100 METAR MRLB NIL=
200612311200 METAR MRLB 311200Z 06005KT 9999 FEW040 23/19 A2983=
200612311300 METAR MRLB 311300Z 06010KT 9999 FEW040 25/20 A2985=
200612311400 METAR MRLB 311400Z 06012KT 9999 SCT040 28/20 A2987=
200612311500 METAR MRLB 311500Z 07014KT 9999 FEW040 29/19 A2987=
200612311600 METAR MRLB 311600Z 06017KT 9999 FEW035 30/19 A2986=
200612311700 METAR MRLB 311700Z 05018KT 9999 FEW035 31/18 A2985 RMK RFGS 23KT=
200612311800 METAR MRLB 311800Z 06018KT 9999 FEW035 32/18 A2983=
200612311900 METAR MRLB 311900Z 05015KT 9999 FEW035 33/18 A2978 RMK RFGS 21KT=
200612312000 METAR MRLB 312000Z 06014KT CAVOK 33/18 A2977=
200612312100 METAR MRLB NIL=
200612312200 METAR MRLB 312200Z 08012KT CAVOK 31/17 A2974=
200612312300 METAR MRLB 312300Z 08010KT 9999 SKC 30/18 A2975=
