200701010000 METAR MRLB 010000Z 06005KT CAVOK 27/20 A2977=
200701010100 METAR MRLB 010100Z 05007KT CAVOK 26/19 A2979=
200701010200 METAR MRLB NIL=
200701010300 METAR MRLB NIL=
200701010400 METAR MRLB NIL=
200701010500 METAR MRLB NIL=
200701010600 METAR MRLB NIL=
200701010700 METAR MRLB NIL=
200701010800 METAR MRLB NIL=
200701010900 METAR MRLB NIL=
200701011000 METAR MRLB NIL=
200701011100 METAR MRLB NIL=
200701011200 METAR MRLB 011200Z 12002KT 9999 FEW040 SCT120 22/19 A2981=
200701011300 METAR MRLB 011300Z VRB02KT 9999 SCT040 SCT120 22/19 A2984=
200701011400 METAR MRLB 011400Z 36004KT 9999 FEW040 SCT120 26/19 A2986=
200701011500 METAR MRLB 011500Z 07008KT 9999 FEW040 SCT120 28/19 A2987=
200701011600 METAR MRLB 011600Z 08011KT 9999 FEW040 SCT120 28/18 A2985=
200701011700 METAR MRLB 011700Z 07013KT 9999 FEW0340 SCT120 29/19 A2984=
200701011800 METAR MRLB 011800Z 06015KT 9999 FEW040 BKN120 29/19 A2981=
200701011900 METAR MRLB 011900Z 06016KT 9999 FEW040 BKN120 30/19 A2980=
200701012000 METAR MRLB 012000Z 07018KT 9999 FEW040 SCT120 30/18 A2977=
200701012100 METAR MRLB 012100Z 07020KT 9999 SCT040 30/18 A2975=
200701012200 METAR MRLB 012200Z 06018KT 9999 SCT040 29/18 A2975=
200701012300 METAR MRLB 012300Z 07013KT 9999 SCT040 28/18 A2975=
200701020000 METAR MRLB 020000Z 09012KT 9999 FEW040 27/19 A2976=
200701020100 METAR MRLB 020100Z 10010KT 9999 FEW035 SCT250 26/18 A2977=
200701020200 METAR MRLB NIL=
200701020300 METAR MRLB NIL=
200701020400 METAR MRLB NIL=
200701020500 METAR MRLB NIL=
200701020600 METAR MRLB NIL=
200701020700 METAR MRLB NIL=
200701020800 METAR MRLB NIL=
200701020900 METAR MRLB NIL=
200701021000 METAR MRLB NIL=
200701021100 METAR MRLB NIL=
200701021200 METAR MRLB 021200Z 06009KT CAVOK 25/18 A2977=
200701021300 METAR MRLB 021300Z 07004KT 9999 FEW040 25/19 A2980=
200701021400 METAR MRLB NIL=
200701021500 METAR MRLB 021500Z 07017KT 9999 FEW040 29/19 A2983=
200701021600 METAR MRLB 021600Z 06019KT 9999 FEW040 30/18 A2982=
200701021700 METAR MRLB 021700Z 08017KT CAVOK 32/18 A2980=
200701021800 METAR MRLB 021800Z 07021KT CAVOK 32/18 A2977=
200701021900 METAR MRLB 021900Z 06022KT 9999 FEW040 32/18 A29/74=
200701022000 METAR MRLB 022000Z 06023KT 9999 FEW040 32/18 A2972=
200701022100 METAR MRLB 022100Z 06020KT 9999 FEW040 31/18 A2970=
200701022200 METAR MRLB 022200Z 07020KT CAVOK 30/18 A2970=
200701022300 METAR MRLB 022300Z 06019KT CAVOK 28/18 A2972=
200701030000 METAR MRLB 030000Z 07016KT CAVOK 27/18 A2973=
200701030007 METAR MRLB 030HVH031 030002 GG EGZZMCAR KWBCYMYX KWBCYZYX LOZZMMMS MDSDYMYX MKJPYMYX MPZZMAMX MUHAYMYX MYNNYMYX SABMYMYX SBBRYZYX SGZZMAMX SKZZMAMX SPZZMAMX SVZZMAMX TJSJYMYX TNCCYMYX 241503 MHTGYMYX SACA31 MHTG 030007Z METAR METAR=
200701030100 METAR MRLB 030100Z 07019KT CAVOK 27/19 A2976=
200701030200 METAR MRLB 030200Z 07019KT CAVOK 27/19 A2977=
200701030300 METAR MRLB NIL=
200701030400 METAR MRLB NIL=
200701030500 METAR MRLB NIL=
200701030600 METAR MRLB NIL=
200701030700 METAR MRLB NIL=
200701030800 METAR MRLB NIL=
200701030900 METAR MRLB NIL=
200701031000 METAR MRLB NIL=
200701031100 METAR MRLB NIL=
200701031200 METAR MRLB 031200Z 07018KT 9999 FEW035 SCT130 26/18 A2979=
200701031300 METAR MRLB 031300Z 08017KT CAVOK 27/19 A2980=
200701031400 METAR MRLB 031400Z 07020KT CAVOK 28/18 A2983=
200701031500 METAR MRLB 031500Z 08019KT CAVOK 29/18 A2984=
200701031600 METAR MRLB 031600Z 07019KT CAVOK 31/18 A2983=
200701031700 METAR MRLB 031700Z 07020KT CAVOK 31/18 A2981=
200701031800 METAR MRLB 031800Z 07018KT CAVOK 32/17 A2979=
200701031900 METAR MRLB 031900Z 07019KT CAVOK 33/16 A2977=
200701032000 METAR MRLB 032000Z 07017KT CAVOK 32/17 A2975=
200701032100 METAR MRLB 032100Z 06020KT CAVOK 31/18 A2975=
200701032200 METAR MRLB 032200Z 07016KT CAVOK 32/18 A2975=
200701032300 METAR MRLB 032300Z 08016KT CAVOK 28/18 A2977=
200701040000 METAR MRLB 040000Z 07015KT CAVOK 27/18 A2978=
200701040100 METAR MRLB 040100Z 07018KT CAVOK 27/18 A2980=
200701040200 METAR MRLB NIL=
200701040300 METAR MRLB NIL=
200701040400 METAR MRLB NIL=
200701040500 METAR MRLB NIL=
200701040600 METAR MRLB NIL=
200701040700 METAR MRLB NIL=
200701040800 METAR MRLB NIL=
200701040900 METAR MRLB NIL=
200701041000 METAR MRLB NIL=
200701041100 METAR MRLB NIL=
200701041200 METAR MRLB NIL=
200701041300 METAR MRLB 041300Z 17003KT CAVOK 23/19 A2981=
200701041400 METAR MRLB 041400Z 34003KT CAVOK 26/19 A2984=
200701041500 METAR MRLB 041500Z 08015KT CAVOK 30/18 A2983=
200701041600 METAR MRLB 041600Z 08019KT 9999 FEW040 BKN270 31/18 A2983=
200701041700 METAR MRLB 041700Z 08018KT 9999 FEW040 BKN280 31/17 A2982=
200701041800 METAR MRLB 041800Z 08017KT 9999 FEW040 SCT280 32/18 A2980=
200701041900 METAR MRLB 041900Z 08017KT 9999 FEW035 32/18 A2972=
200701042000 METAR MRLB 042000Z 08020KT 9999 FEW035 31/18 A2975=
200701042100 METAR MRLB 042100Z 07014KT 9999 FEW035 31/18 A2974=
200701042200 METAR MRLB 042200Z 08016KT 9999 FEW040 30/18 A2975=
200701042300 METAR MRLB 042300Z 06015KT CAVOK 29/18 A2975=
200701050000 METAR MRLB 050000Z 07015KT CAVOK 27/18 A2977=
200701050100 METAR MRLB 050100Z 09014KT CAVOK 27/18 A2997 1CI250=
200701050200 METAR MRLB 050200Z 10014KT CAVOK 27/18 A2980/ 1CI250=
200701050300 METAR MRLB NIL=
200701050400 METAR MRLB NIL=
200701050500 METAR MRLB NIL=
200701050600 METAR MRLB NIL=
200701050700 METAR MRLB NIL=
200701050800 METAR MRLB NIL=
200701050900 METAR MRLB NIL=
200701051000 METAR MRLB NIL=
200701051100 METAR MRLB NIL=
200701051200 METAR MRLB 051200Z 02004KT CAVOK 20/19 A2994=
200701051300 METAR MRLB 051300Z 20004KT CAVOK 22/19 A2980=
200701051400 METAR MRLB 051400Z 18005KT CAVOK 24/20 A2983=
200701051500 METAR MRLB 051500Z 30004KT CAVOK 28/20 A2983=
200701051600 METAR MRLB 051600Z VRB03KT CAVOK 30/20 A2983=
200701051700 METAR MRLB 051700Z 35007KT CAVOK 31/19 A2979=
200701051800 METAR MRLB 051800Z 08010KT 9999 FEW035 SCT250 33/19 A2975=
200701051900 METAR MRLB 051900Z 08010KT 9999 FEW035 SCT250 33/19 A2975=
200701052000 METAR MRLB 052000Z 10011KT 9999 SCT030 SCT220 32/19 A2972=
200701052100 METAR MRLB 052100Z 08011KT 9999 SCT030 BKN220 31/19 A2972=
200701052200 METAR MRLB 052200Z 08010KT 9999 FEW030 SCT120 29/19 A2973=
200701052300 METAR MRLB 052300Z 07010KT 9999 FEW025 SCT100 28/19 A2975=
200701060000 METAR MRLB 060000Z 08013KT 9999 FEW025 SCT100 27/18 A2976=
200701060100 METAR MRLB 060100Z 06006KT 9999 FEW025 SCT100 27/19 A2978=
200701060200 METAR MRLB NIL=
200701060300 METAR MRLB 060300Z 06009KT CAVOK 26/19 A2982=
200701060400 METAR MRLB NIL=
200701060500 METAR MRLB NIL=
200701060600 METAR MRLB NIL=
200701060700 METAR MRLB NIL=
200701060800 METAR MRLB NIL=
200701060900 METAR MRLB NIL=
200701061000 METAR MRLB NIL=
200701061100 METAR MRLB NIL=
200701061200 METAR MRLB 061200Z 35005KT CAVOK 20/18 A2979=
200701061300 METAR MRLB 061300Z 06003KT CAVOK 22/19 A2980=
200701061400 METAR MRLB 061400Z 08011KT CAVOK 28/18 A2992=
200701061500 METAR MRLB 061500Z 07018KT CAVOK 30/18 A2983=
200701061600 METAR MRLB 061600Z 06020KT CAVOK 31/18 A2981=
200701061700 METAR MRLB 061700Z 170022KT CAOK 31/18 A2980=
200701061800 METAR MRLB 061800Z 07016KT CAVOK 33/18 A2977=
200701061900 METAR MRLB 061900Z 05018KT CAVOK 33/18 A2974=
200701062000 METAR MRLB 062000Z 06014KT CAVOK 33/18 A2972=
200701062100 METAR MRLB 062100Z 06018KT CAVOK 32/19 A2972=
200701062200 METAR MRLB 062200Z 06017KT CAVOK 31/19 A2973=
200701062300 METAR MRLB 062300Z 07018KT CAVOK 29/18 A2975=
200701070000 METAR MRLB 070000Z 07014KT CAVOK 27/17 A2976=
200701070100 METAR MRLB 070100Z 07017KT CAVOK 27/19 A2978=
200701070200 METAR MRLB 070200Z 07016KT CAVOK 26/19 A2980=
200701070300 METAR MRLB NIL=
200701070400 METAR MRLB NIL=
200701070500 METAR MRLB NIL=
200701070600 METAR MRLB NIL=
200701070700 METAR MRLB NIL=
200701070800 METAR MRLB NIL=
200701070900 METAR MRLB NIL=
200701071000 METAR MRLB NIL=
200701071100 METAR MRLB NIL=
200701071200 METAR MRLB NIL=
200701071300 METAR MRLB 071300Z 08012KT CAVOK 26/18 A2983=
200701071400 METAR MRLB 071400Z 07014KT CAVOK 28/17 A2985=
200701071500 METAR MRLB 071500Z 06018KT CAVOK 29/17 A2985=
200701071600 METAR MRLB 071600Z 07018KT CAVOK 30/18 A2984=
200701071700 METAR MRLB 071700Z 07019KT 9999 FEW035 31/18 A2982=
200701071800 METAR MRLB 071800Z 06018KT 9999 FEW035 29/18 A2981=
200701071900 METAR MRLB 071900Z 06012KT 9999 FEW035 30/17 A2977=
200701072000 METAR MRLB 072000Z 08014KT 9999 SCT035 31/16 A2975=
200701072100 METAR MRLB 072100Z 08013KT 9999 FEW035 32/15 A2974=
200701072200 METAR MRLB 072200Z 06013KT 9999 FEW035 31/17 A2974=
200701072300 METAR MRLB 072300Z 07016KT CAVOK 28/18 A2975=
200701080000 METAR MRLB 080000Z 07010KT CAVOK 27/18 A2977=
200701080100 METAR MRLB 080100Z 07011KT CAVOK 25/18 A2979=
200701080200 METAR MRLB 080200Z 07013KT CAVOK 25/18 A2982=
200701080300 METAR MRLB NIL=
200701080400 METAR MRLB NIL=
200701080500 METAR MRLB NIL=
200701080600 METAR MRLB NIL=
200701080700 METAR MRLB NIL=
200701080800 METAR MRLB NIL=
200701080900 METAR MRLB NIL=
200701081000 METAR MRLB NIL=
200701081100 METAR MRLB NIL=
200701081200 METAR MRLB NIL=
200701081300 METAR MRLB 081300Z 09006KT CAVOK 24/17 A2986=
200701081400 METAR MRLB 081400Z 06010KT CAVOK 28/18 A2988=
200701081500 METAR MRLB 081500Z 05016KT CAVOK 29/17 A2988=
200701081600 METAR MRLB 081600Z 09012KT CAVOK 31/17 A2988=
200701081700 METAR MRLB 081700Z 06017KT 9999 FEW035 31/16 A2987=
200701081800 METAR MRLB 081800Z 05017KT 9999 SCT035 32/17 A2984=
200701081900 METAR MRLB 081900Z 06019KT 9999 SCT035 31/18 A2982=
200701082000 METAR MRLB 082000Z 07015KT 9999 FEW035 31/17 A2978=
200701082100 METAR MRLB 082100Z 06018KT 9999 FEW035 30/18 A2978=
200701082200 METAR MRLB 082200Z 07015KT 9999 FEW035 30/16 A2977=
200701082300 METAR MRLB 082300Z 07013KT 9999 FEW035 28/16 A2979=
200701090000 METAR MRLB 090000Z 08017KT CAVOK 27/17 A2980=
200701090100 METAR MRLB 090100Z 08018KT CAVOK 26/18 A2980=
200701090200 METAR MRLB 090200Z 09015KT CAVOK 26/18 A2981 RMK 3CI250=
200701090300 METAR MRLB NIL=
200701090400 METAR MRLB NIL=
200701090500 METAR MRLB NIL=
200701090600 METAR MRLB NIL=
200701090700 METAR MRLB NIL=
200701090800 METAR MRLB NIL=
200701090900 METAR MRLB NIL=
200701091000 METAR MRLB NIL=
200701091100 METAR MRLB NIL=
200701091200 METAR MRLB 091200Z 05008KT CAVOK 22/17 A2984=
200701091300 METAR MRLB 091300Z 04004KT CAVOK 25/18 A2986=
200701091400 METAR MRLB 091400Z 02008KT CAVOK 27/18 A2988=
200701091500 METAR MRLB 091500Z 07017KT 9999 FEW040 29/18 A2989=
200701091600 METAR MRLB NIL=
200701091700 METAR MRLB 091700Z 07022KT 9999 FEW040 29/18 A2985=
200701091800 METAR MRLB 091800Z 07023KT 9999 FEW040 30/18 A2983=
200701091900 METAR MRLB 091900Z 08022KT 9999 FEW040 30/18 A2979=
200701092000 METAR MRLB 092000Z 06022KT 9999 FEW040 29/17 A2979=
200701092100 METAR MRLB 092100Z 07023KT 9999 FEW045 29/17 A2978=
200701092200 METAR MRLB 092200Z 07021KT 9999 FEW040 28/17 A2977=
200701092300 METAR MRLB 092300Z 08024KT 9999 FEW040 27/17 A2979=
200701100000 METAR MRLB 100000Z 07021G31KT CAVOK 26/17 A2980=
200701100100 METAR MRLB 100100Z 08022G32KT 9999 SKC A2980=
200701100200 METAR MRLB 100200Z 08020KT 9999 SKC A2984=
200701100300 METAR MRLB NIL=
200701100400 METAR MRLB NIL=
200701100500 METAR MRLB NIL=
200701100600 METAR MRLB NIL=
200701100700 METAR MRLB NIL=
200701100800 METAR MRLB NIL=
200701100900 METAR MRLB NIL=
200701101000 METAR MRLB NIL=
200701101100 METAR MRLB NIL=
200701101200 METAR MRLB 101200Z 08008KT 9999 FEW040 24/17 A2981=
200701101300 METAR MRLB 101300Z 35004KT 9999 FEW035 24/17 A2984=
200701101400 METAR MRLB 101400Z 09014KT 9999 FEW035 26/18 A2985=
200701101500 METAR MRLB 101500Z 08017KT 9999 FEW040 28/18 A2985=
200701101600 METAR MRLB 101600Z 08014KT 9999 FEW040 30/18 A2985=
200701101700 METAR MRLB 101700Z 10017KT 9999 FEW040 30/18 A2982=
200701101800 METAR MRLB 101800Z 07018KT 9999 SCT040 30/17 A2983=
200701101900 METAR MRLB 101900Z 08021KT 9999 SCT040 30/16 A2979=
200701102000 METAR MRLB 102000Z 06022G32 9999 FEW040 30/16 A2977=
200701102100 METAR MRLB 102100Z 08020KT 9999 FEW040 30/16 A2976=
200701102200 METAR MRLB 102200Z 08017KT 9999 SCT040 29/17 A2976=
200701102300 METAR MRLB 102300Z 08019KT CAVOK 28/15 A2976=
200701110000 METAR MRLB 110000Z 08019KT CAVOK 26/17 A2984=
200701110100 METAR MRLB 110100Z 08018KT CAVOK 26/16 A2978=
200701110200 METAR MRLB 110200 08019KT CAVOK 26/16 A2981=
200701110300 METAR MRLB NIL=
200701110400 METAR MRLB NIL=
200701110500 METAR MRLB NIL=
200701110600 METAR MRLB NIL=
200701110700 METAR MRLB NIL=
200701110800 METAR MRLB NIL=
200701110900 METAR MRLB NIL=
200701111000 METAR MRLB NIL=
200701111100 METAR MRLB NIL=
200701111200 METAR MRLB NIL=
200701111300 METAR MRLB 111300Z 08019KT CAVOK 26/16 A2982=
200701111400 METAR MRLB 111400Z 08020KT CAVOK 27/17 A2985=
200701111500 METAR MRLB 111500Z 06020KT CAVOK 29/17 A2987=
200701111600 METAR MRLB 111600Z 08019KT CAVOK 30/17 A2987=
200701111700 METAR MRLB 111700Z 07024KT CAVOK 31/16 A2984=
200701111800 METAR MRLB 111800Z 07020KT CAVOK 32/15 A2984=
200701111900 METAR MRLB 111900Z 06020G30KT CAVOK 21/17 A2981=
200701112000 METAR MRLB 112000Z 07018KT CAVOK 31/17 A2978=
200701112100 METAR MRLB 112100Z 07022KT CAVOK 30/17 A2977=
200701112200 METAR MRLB 112200Z 08022KT CAVOK 29/16 A2976=
200701112300 METAR MRLB 112300Z 09016KT 9999 SCT030 22/15 A2998=
200701120000 METAR MRLB 120000Z 08020KT CAVOK 26/17 A2977=
200701120100 METAR MRLB NIL=
200701120200 METAR MRLB 120200Z 08020KT CAVOK 26/16 A2980=
200701120300 METAR MRLB NIL=
200701120400 METAR MRLB NIL=
200701120700 METAR MRLB NIL=
200701120800 METAR MRLB NIL=
200701120900 METAR MRLB NIL=
200701121000 METAR MRLB NIL=
200701121100 METAR MRLB NIL=
200701121200 METAR MRLB 121200Z 08018KT CAVOK 25/17 A2975=
200701121300 METAR MRLB 121300Z 08016KT CAVOK 26/17 A2979=
200701121400 METAR MRLB 121400Z 04004KT CAVOK 28/17 A2984=
200701121500 METAR MRLB 121500Z 08022KT 9999 FEW030 SCT180 29/17 A2983=
200701121600 METAR MRLB 121600Z 07020KT 9999 FEW030 SCT170 30/17 A2984=
200701121700 METAR MRLB 121700Z 08020KT 9999 FEW030 SCT150 29/17 A2983=
200701121800 METAR MRLB 121800Z 08022KT 9999 FEW030 SCT150 29/18 A2982=
200701121900 METAR MRLB 121900Z 07020KT 9999 FEW025 SCT180 30/18 A2979=
200701122000 METAR MRLB 122000Z 06020G30KT 9999 FEW030 SCT2000 31/17 A2977 RMK FU ARND=
200701122100 METAR MRLB 122100Z 06020G30KT 9999 FEW035 SCT250 31/18 A2975 RMK FU 07=
200701122200 METAR MRLB 122200Z 06022KT CAVOK 30/17 A2974 RMK FU 07=
200701122300 METAR MRLB 122300Z 08022KT CAVOK 29/17 A2975=
200701130000 METAR MRLB 130000Z 08020KT CAVOK 27/18 A2976=
200701130100 METAR MRLB 130100Z 08018KT CAVOK 26/18 A2978=
200701130200 METAR MRLB 130200Z 07020KT CAVOK 26/18 A2981=
200701130300 METAR MRLB NIL=
200701130400 METAR MRLB NIL=
200701130500 METAR MRLB NIL=
200701130600 METAR MRLB NIL=
200701130700 METAR MRLB NIL=
200701130800 METAR MRLB NIL=
200701130900 METAR MRLB NIL=
200701131000 METAR MRLB NIL=
200701131100 METAR MRLB NIL=
200701131200 METAR MRLB 131200Z 08015KT 9999 SCT035 25/18 A2974=
200701131300 METAR MRLB 131300Z 07013KT 9999 BKN035 26/18 A2981=
200701131400 METAR MRLB 131400Z 07022KT 9999 SCT035 27/19 A2983=
200701131500 METAR MRLB 131500Z 08018KT 9999 SCT035 27/18 A2983=
200701131600 METAR MRLB 131600Z 07022KT 9999 FEW035 30/18 A2982=
200701131700 METAR MRLB 131700Z 06023KT 9999 SCT035 31/18 A2981=
200701131800 METAR MRLB 131800Z 08018KT 9999 SCT040 30/18 A2980=
200701131900 METAR MRLB 131900Z 06022KT 9999 BKN040 29/17 A2977=
200701132000 METAR MRLB 132000Z 06023KT 9999 BKN040 31/18 A2974=
200701132100 METAR MRLB 132100Z 06024KT 9999 SCT040 31/17 A2973=
200701132200 METAR MRLB 132200Z 07015KT 9999 SCT035 SCT130 28/18 A2975=
200701132300 METAR MRLB 132300Z 07021KT 9999 FEW035 SCT130 27/18 A2974=
200701140000 METAR MRLB 140000Z 06024KT 9999 SCT035 27/18 A2975=
200701140100 METAR MRLB 140100Z 06025KT 9999 SCT035 26/18 A2973=
200701140200 METAR MRLB 140200Z 08023KT 9999 SCT035 26/18 A29/77=
200701140300 METAR MRLB NIL=
200701140400 METAR MRLB NIL=
200701140500 METAR MRLB NIL=
200701140600 METAR MRLB NIL=
200701140700 METAR MRLB NIL=
200701140800 METAR MRLB NIL=
200701140900 METAR MRLB NIL=
200701141000 METAR MRLB NIL=
200701141100 METAR MRLB NIL=
200701141200 METAR MRLB NIL=
200701141300 METAR MRLB 141300Z 05019KT 9999 SCT035 26/18 A2978=
200701141400 METAR MRLB 141400Z 08013KT 9999 BKN035 27/18 A2981=
200701141500 METAR MRLB 141500Z 06022KT 9999 SCT035 30/18 A2980=
200701141600 METAR MRLB 141600Z 07024KT 9999 FEW035 30/17 A2979=
200701141700 METAR MRLB 141700Z 07022KT 9999 FEW035 31/18 A2977=
200701141800 METAR MRLB 141800Z 08021KT 9999 FEW035 32/17 A2974=
200701141900 METAR MRLB 141900Z 08024KT 9999 FEW035 32/17 A2972=
200701142000 METAR MRLB 142000Z 08020KT 9999 FEW040 32/17 A2970=
200701142100 METAR MRLB 142100Z 08021KT 9999 FEW040 31/17 A2969=
200701142200 METAR MRLB 142200Z 08023KT 9999 FEW035 30/17 A2968=
200701142300 METAR MRLB 142300Z 08018KT 9999 FEW040 29/18 A2970=
200701150000 METAR MRLB 150000Z 07020KT CAVOK 27/18 A2971=
200701150100 METAR MRLB NIL=
200701150200 METAR MRLB 150200Z 07021KT CAVOK 26/18 A29/75 RMK SCT250=
200701150300 METAR MRLB NIL=
200701150400 METAR MRLB NIL=
200701150500 METAR MRLB NIL=
200701150600 METAR MRLB NIL=
200701150700 METAR MRLB NIL=
200701150800 METAR MRLB NIL=
200701150900 METAR MRLB NIL=
200701151000 METAR MRLB NIL=
200701151100 METAR MRLB NIL=
200701151200 METAR MRLB 151200Z 09019KT 9999 FEW045 25/18 A2972=
200701151300 METAR MRLB 151300Z 09019KT 9999 FEW045 26/17 A2975=
200701151400 METAR MRLB 151400Z 09017KT 9999 FEW045 28/18 A2978=
200701151500 METAR MRLB 151500Z 08023KT 9999 FEW045 29/18 A2979=
200701151600 METAR MRLB 151600Z 07021KT 9999 FEW045 30/18 A2980=
200701151700 METAR MRLB 151700Z 05024KT 9999 FEW045 31/18 A2979=
200701151800 METAR MRLB 151800Z 06025KT 9999 FEW045 33/17 A2977=
200701151900 METAR MRLB 151900Z 07023KT CAVOK 33/17 A2974=
200701152000 METAR MRLB 152000Z 07024KT CAVOK 33/17 A2970=
200701152100 METAR MRLB 152100Z 07022KT CAVOK 32/17 A2969=
200701152200 METAR MRLB 152200Z 08018KT CAVOK 31/17 A2969=
200701152300 METAR MRLB 152300Z 07021KT CAVOK 29/18 A2971=
200701160000 METAR MRLB 160000Z 06022KT CAVOK 27/19 A2973=
200701160100 METAR MRLB 160100Z 07018KT CAVOK 27/18 A2974=
200701160200 METAR MRLB 160200Z 08016KT CAVOK 27/19 A2975=
200701160300 METAR MRLB NIL=
200701160400 METAR MRLB NIL=
200701160500 METAR MRLB NIL=
200701160600 METAR MRLB NIL=
200701160700 METAR MRLB NIL=
200701160800 METAR MRLB NIL=
200701160900 METAR MRLB NIL=
200701161000 METAR MRLB NIL=
200701161100 METAR MRLB NIL=
200701161200 METAR MRLB 161200Z 08020KT CAVOK 26/18 A2975=
200701161300 METAR MRLB 161300Z 08018KT CAVOK 27/18 A2976=
200701161400 METAR MRLB 161400Z 08019KT 9999 SKC 27/18 A2979=
200701161500 METAR MRLB 161500Z 08020KT CAVOK 29/17 A2981=
200701161600 METAR MRLB 161600Z 07025KT 9999 FEW040 31/17 A2982=
200701161700 METAR MRLB 161700Z 06023KT 9999 FEW040 31/17 A2981=
200701161800 METAR MRLB 161800Z 06024KT CAVOK 33/16 A2978=
200701161900 METAR MRLB 161900Z 07025KT CAVOK 33/17 A2975=
200701162000 METAR MRLB 162000Z 07021KT CAVOK 33/17 A2973=
200701162100 METAR MRLB 162100Z 07022KT CAVOK 31/17 A2972=
200701162200 METAR MRLB 162200Z 07022KT CAVOK 30/18 A2972=
200701162300 METAR MRLB 162300Z 08023KT 9999 SKC 28/17 A2973=
200701170000 METAR MRLB 170000Z 08023KT 9999 SKC 27/18 A2973=
200701170100 METAR MRLB 170100Z 07022KT 9999 SKC 27/18 A2976=
200701170200 METAR MRLB 170200Z 08022KT 9999 SKC 26/18 A2979=
200701170300 METAR MRLB NIL=
200701170400 METAR MRLB NIL=
200701170500 METAR MRLB NIL=
200701170600 METAR MRLB NIL=
200701170700 METAR MRLB NIL=
200701170800 METAR MRLB NIL=
200701170900 METAR MRLB NIL=
200701171000 METAR MRLB NIL=
200701171100 METAR MRLB NIL=
200701171200 METAR MRLB 171200Z 06020KT CAVOK 26/17 A2978=
200701171300 METAR MRLB 171300Z 06022G32KT CAVOK 27/17 A2977=
200701171400 METAR MRLB 171400Z 07022G32KT CAVOK 29/16 A2981=
200701171500 METAR MRLB 171500Z 07020G30KT CAVOK 30/17 A2984=
200701171600 METAR MRLB 171600Z 08020KT CAVOK 31/18 A2983=
200701171700 METAR MRLB 171700Z 07020G30KT CAVOK 32/16 A2982=
200701171800 METAR MRLB 171800Z 06020G30KT CAVOK 32/16 A2980=
200701171900 METAR MRLB 171900Z 08024G34KT CAVOK 31/17 A2978=
200701172000 METAR MRLB 172000Z 06023KT CAVOK 31/15 A2976=
200701172100 METAR MRLB 172100Z 08022KT CAVOK 30/17 A2975=
200701172200 METAR MRLB 172200Z 08024KT CAVOK 29/18 A2976=
200701172300 METAR MRLB 172300Z 09020KT CAVOK 28/18 A2979=
200701180000 METAR MRLB 180000Z 08020KT CAVOK 27/17 A2979=
200701180100 METAR MRLB 180100Z 09018KT CAVOK 26/18 A2981=
200701180200 METAR MRLB 180200Z 07015KT CAVOK 26/17 A2985=
200701180300 METAR MRLB NIL=
200701180400 METAR MRLB NIL=
200701180500 METAR MRLB NIL=
200701180600 METAR MRLB NIL=
200701180700 METAR MRLB NIL=
200701180800 METAR MRLB NIL=
200701180900 METAR MRLB NIL=
200701181000 METAR MRLB NIL=
200701181100 METAR MRLB NIL=
200701181200 METAR MRLB 181200Z 07015KT CAVOK 25/15 A2984=
200701181300 METAR MRLB 181300Z 04010KT CAVOK 26/15 A2987=
200701181400 METAR MRLB 181400Z 07020KT CAVOK 29/14 A2989=
200701181500 METAR MRLB 181500Z 08020KT CAVOK 29/16 A2989=
200701181600 METAR MRLB 181600Z 07025G35KT CAVOK 29/13 A2988=
200701181700 METAR MRLB 181700Z 08022G32 CAVOK 30/12 A2987=
200701181800 METAR MRLB 181800Z 08020G30KT CAVOK 31/16 A2985=
200701181900 METAR MRLB 181900Z 07022G32KT CAVOK 31/16 A2984=
200701182000 METAR MRLB 182000Z 07022G32KT CAVOK 31/13 A2981=
200701182100 METAR MRLB 182100Z 07021G31KT CAVOK 31/13 A2979=
200701182200 METAR MRLB NIL=
200701182300 METAR MRLB 182300Z 08020G30KT CAVOK 28/13 A2977=
200701190000 METAR MRLB 190000Z 08022G32KT CAVOK 27/14 A2978=
200701190100 METAR MRLB 190100Z 08025G35KT CAVOK 26/16 A2980=
200701190200 METAR MRLB 190200Z 08022G32KT CAVOK 26/16 A2984=
200701190300 METAR MRLB NIL=
200701190400 METAR MRLB NIL=
200701190500 METAR MRLB NIL=
200701190600 METAR MRLB NIL=
200701190700 METAR MRLB NIL=
200701190800 METAR MRLB NIL=
200701190900 METAR MRLB NIL=
200701191000 METAR MRLB NIL=
200701191100 METAR MRLB NIL=
200701191200 METAR MRLB NIL=
200701191300 METAR MRLB 191300Z 07023KT CAVOK 26/16 A2986=
200701191400 METAR MRLB 191400Z 07024KT CAVOK 26/16 A2988=
200701191500 METAR MRLB 191500Z 06025KT CAVOK 28/15 A2990=
200701191600 METAR MRLB 191600Z 06025KT CAVOK 29/15 A2990=
200701191700 METAR MRLB 191700Z 07025KT CAVOK 30/14 A2989=
200701191800 METAR MRLB 191800Z 06025KT CAVOK 31/14 A2986=
200701191900 METAR MRLB 191900Z 06024KT CAVOK 31/16 A2983=
200701192000 METAR MRLB 192000Z 07022KT CAVOK 32/14 A2981=
200701192100 METAR MRLB 192100Z 07019KT CAVOK 32/15 A2979=
200701192200 METAR MRLB 192200Z 06016KT CAVOK 30/17 A2979=
200701192300 METAR MRLB 192300Z 06020KT CAVOK 28/15 A2979=
200701200000 METAR MRLB 200000Z 07019KT CAVOK 27/16 A2981=
200701200100 METAR MRLB 200100Z 08019KT CAVOK 26/17 A2982=
200701200200 METAR MRLB 200200Z 08020KT CAVOK 25/17 A2985=
200701200300 METAR MRLB NIL=
200701200400 METAR MRLB NIL=
200701200500 METAR MRLB NIL=
200701200600 METAR MRLB NIL=
200701200700 METAR MRLB NIL=
200701200800 METAR MRLB NIL=
200701200900 METAR MRLB NIL=
200701201000 METAR MRLB NIL=
200701201100 METAR MRLB NIL=
200701201200 METAR MRLB 201200Z 07016KT CAVOK 24/17 A2984=
200701201300 METAR MRLB 201300Z 08011KT CAVOK 25/17 A2985=
200701201400 METAR MRLB 201400Z 08015KT CAVOK 28/17 A2988=
200701201500 METAR MRLB 201500Z 07020KT 9999 FEW035 28/17 A2990=
200701201600 METAR MRLB 201600Z 08020KT 9999 FEW040 30/16 A2990=
200701201700 METAR MRLB 201700Z 06021KT 9999 FEW040 31/16 A2988=
200701201800 METAR MRLB 201800Z 06023KT 9999 FEW040 31/16 A2986=
200701201900 METAR MRLB 201900Z 07020KT 9999 FEW040 31/17 A2983=
200701202000 METAR MRLB 202000Z 07017KT 9999 FEW040 31/15 A2980=
200701202100 METAR MRLB 202100Z 07019KT CAVOK 31/15 A2979=
200701202200 METAR MRLB 202200Z 06020KT CAVOK 30/16 A2979=
200701202300 METAR MRLB 202300Z 08014KT CAVOK 29/15 A2978=
200701210000 METAR MRLB NIL=
200701210100 METAR MRLB 210100Z 08015KT CAVOK 26/16 A2981=
200701210200 METAR MRLB 210200Z 09015KT CAVOK 26/17 A2983=
200701210300 METAR MRLB NIL=
200701210400 METAR MRLB NIL=
200701210500 METAR MRLB NIL=
200701210600 METAR MRLB NIL=
200701210700 METAR MRLB NIL=
200701210800 METAR MRLB NIL=
200701210900 METAR MRLB NIL=
200701211000 METAR MRLB NIL=
200701211100 METAR MRLB NIL=
200701211200 METAR MRLB 211200Z 17002KT 9999 SKC 18/17 A2983=
200701211300 METAR MRLB 211300Z 05003KT 9999 SKC 19/17 A2986=
200701211400 METAR MRLB 211400Z 33002KT 9999 SKC 23/18 A2988=
200701211500 METAR MRLB 211500Z 20003KT 9999 SKC 27/18 A2989=
200701211600 METAR MRLB 211600Z 09014KT 9999 SKC 31/14 A2989=
200701211700 METAR MRLB 211700Z 09015KT 9999 SKC 32/14 A2986=
200701211800 METAR MRLB 211800Z 08014KT 9999 SKC 32/15 A2985=
200701211900 METAR MRLB 211900Z 07014KT CAVOK 32/14 A2982=
200701212000 METAR MRLB 212000Z 09013KT CAVOK 33/15 A2980=
200701212100 METAR MRLB 212100Z 08012KT CAVOK 32/15 A2979=
200701212200 METAR MRLB 212200Z 07012KT 9999 SKC 32/15 A2978=
200701212300 METAR MRLB 212300Z 06015KT 9999 SKC 30/17 A2979=
200701220000 METAR MRLB 220000Z 08014KT 9999 SKC 28/18 A2980=
200701220100 METAR MRLB 220100Z 07013KT 9999 SKC 27/17 A2981=
200701220200 METAR MRLB 220200Z 09010KT 9999 SKC 26/17 A2983=
200701220300 METAR MRLB NIL=
200701220400 METAR MRLB NIL=
200701220500 METAR MRLB NIL=
200701220600 METAR MRLB NIL=
200701220700 METAR MRLB NIL=
200701220800 METAR MRLB NIL=
200701220900 METAR MRLB NIL=
200701221000 METAR MRLB NIL=
200701221100 METAR MRLB NIL=
200701221200 METAR MRLB 221200Z 04003KT 9999 SKC 18/15 A2983=
200701221300 METAR MRLB NIL=
200701221400 METAR MRLB NIL=
200701221500 METAR MRLB 221500Z 28004KT 9999 SKC 27/18 A2987=
200701221600 METAR MRLB 221600Z 09012KT 9999 SKC 31/17 A2987=
200701221700 METAR MRLB 221700Z 10012KT CAVOK 31/17 A2985=
200701221800 METAR MRLB 221800Z 09010KT CAVOK 32/17 A2982=
200701221900 METAR MRLB 221900Z 07011KT 9999 FEW040 33/17 A2979=
200701222000 METAR MRLB 222000Z 07011KT 9999 FEW040 32/17 A2977=
200701222100 METAR MRLB 222100Z 08011KT 9999 FEW040 32/17 A2975 RMK FU DST E=
200701222200 METAR MRLB 222200Z 09011KT 9999 FEW040 31/17 A2975 RMK FU DST E=
200701222300 METAR MRLB 222300Z 08011KT CAVOK 30/17 A2975=
200701230000 METAR MRLB 230000Z 07010KT 9999 SKC 28/17 A2976=
200701230100 METAR MRLB 230100Z 09010KT 9999 SKC 28/18 A2977=
200701230200 METAR MRLB 230200Z 09011KT 9999 SKC 27/17 A2979=
200701230300 METAR MRLB NIL=
200701230400 METAR MRLB NIL=
200701230500 METAR MRLB NIL=
200701230600 METAR MRLB NIL=
200701230700 METAR MRLB NIL=
200701230800 METAR MRLB NIL=
200701230900 METAR MRLB NIL=
200701231000 METAR MRLB NIL=
200701231100 METAR MRLB NIL=
200701231200 METAR MRLB 231200Z 20003KT CAVOK 20/18 A2977=
200701231300 METAR MRLB 231300Z 07003KT CAVOK 21/18 A2979=
200701231400 METAR MRLB 231400Z 34003KT CAVOK 25/19 A2982=
200701231500 METAR MRLB 231500Z 01004KT CAVOK 29/19 A2981=
200701231600 METAR MRLB 231600Z 07016KT CAVOK 31/18 A2981=
200701231700 METAR MRLB 231700Z 08016KT CAVOK 32/17 A2980=
200701231800 METAR MRLB 231800Z 08014KT CAVOK 33/18 A2977=
200701231900 METAR MRLB 231900Z 09017KT 9999 FEW030 SCT250 32/18 A2974=
200701232000 METAR MRLB 232000Z 08015KT 9999 FEW035 33/17 A2972=
200701232100 METAR MRLB 232100Z 08017KT CAVOK 32/17 A2969=
200701232200 METAR MRLB 232200Z 09018KT CAVOK 31/18 A2970=
200701232300 METAR MRLB 232300Z 08020KT CAVOK 29/17 A2971=
200701240000 METAR MRLB 240000Z 09016KT CAVOK 27/18 A2971=
200701240100 METAR MRLB 240100Z 09016KT CAVOK 27/18 A2972 RMK FU ARND=
200701240200 METAR MRLB 240200Z 08018KT CAVOK 27/18 A2975=
200701240300 METAR MRLB NIL=
200701240400 METAR MRLB NIL=
200701240500 METAR MRLB NIL=
200701240600 METAR MRLB NIL=
200701240800 METAR MRLB NIL=
200701240900 METAR MRLB NIL=
200701241000 METAR MRLB NIL=
200701241100 METAR MRLB NIL=
200701241200 METAR MRLB 241200Z 00000KT CAVOK 22/17 A2977=
200701241300 METAR MRLB 241300Z 06005KT CAVOK 22/17 A2980=
200701241400 METAR MRLB 241400Z 26003KT CAVOK 28/17 A2983=
200701241500 METAR MRLB 241500Z 04007KT CAVOK 31/17 A2983=
200701241600 METAR MRLB 241600Z 08010KT CAVOK 32/16 A2983=
200701241700 METAR MRLB 241700Z 08016KT CAVOK 33/16 A2983=
200701241800 METAR MRLB 241800Z 08015KT CAVOK 33/16 A2981=
200701241900 METAR MRLB 241900Z 07015KT 9999 FEW035 33/17 A2978=
200701242000 METAR MRLB 242000Z 07016KT 9999 FEW035 33/18 A29/75=
200701242100 METAR MRLB 242100Z 06016KT 9999 FEW035 32/17 A2974=
200701242200 METAR MRLB 242200Z 06015KT CAVOK 31/18 A2974=
200701242300 METAR MRLB 242300Z 07015KT CAVOK 29/18 A2975=
200701250000 METAR MRLB 250000Z 07015KT CAVOK 26/19 A2977=
200701250100 METAR MRLB 250100Z 06016KT CAVOK 26/18 A2978=
200701250200 METAR MRLB 250200Z 08015KT CAVOK 26/18 A2979=
200701250300 METAR MRLB NIL=
200701250400 METAR MRLB NIL=
200701250500 METAR MRLB NIL=
200701250600 METAR MRLB NIL=
200701250700 METAR MRLB NIL=
200701250800 METAR MRLB NIL=
200701250900 METAR MRLB NIL=
200701251000 METAR MRLB NIL=
200701251100 METAR MRLB NIL=
200701251200 METAR MRLB NIL=
200701251300 METAR MRLB NIL=
200701251400 METAR MRLB 251400Z 06002KT 9999 FEW040 BKN250 25/18 A2988=
200701251500 METAR MRLB 251500Z 23003KT 9999 FEW035 BKN250 25/19 A2990=
200701251600 METAR MRLB 251600Z 28003KT 9999 FEW035 BKN130 28/18 A2990=
200701251700 METAR MRLB 251700Z 04002KT 9999 FEW040 SCT130 32/17 A2987=
200701251800 METAR MRLB 251800Z 08013KT 9999 FEW040 BKN140 32/17 A2985=
200701251900 METAR MRLB 251900Z 10011KT 9999 FEW040 BKN140 32/16 A2981=
200701252000 METAR MRLB 252000Z 09012KT 9999 FEW035 OVC140 31/16 A2979=
200701252100 METAR MRLB 252100Z 08013KT 9999 FEW035 SCT130 BKN250 32/16 A2977=
200701252200 METAR MRLB 252200Z 07011KT 9999 FEW035 BKN250 32/15 A2977=
200701252300 METAR MRLB 252300Z 07010KT 9999 FEW035 SCT250 30/17 A2978=
200701260000 METAR MRLB 260000Z 07008KT 9999 FEW035 BKN250 28/17 A2980=
200701260100 METAR MRLB 260100Z 27004KT 9999 FEW035 SCT250 25/16 A2982=
200701260200 METAR MRLB 260200Z 27004KT 9999 FEW035 BKN250 26/17 A2983=
200701260300 METAR MRLB NIL=
200701260400 METAR MRLB NIL=
200701260500 METAR MRLB NIL=
200701260600 METAR MRLB NIL=
200701260700 METAR MRLB NIL=
200701260800 METAR MRLB NIL=
200701260900 METAR MRLB NIL=
200701261000 METAR MRLB NIL=
200701261100 METAR MRLB NIL=
200701261200 METAR MRLB 261200Z 03004KT CAVOK 20/17 A2984=
200701261300 METAR MRLB 261300Z 03003KT CAVOK 24/16 A2985=
200701261400 METAR MRLB 261400Z 32003KT CAVOK 26/17 A2988=
200701261500 METAR MRLB 261500Z 03008KT CAVOK 29/15 A2990=
200701261600 METAR MRLB 261600Z 07019KT CAVOK 31/15 A2989=
200701261700 METAR MRLB 261700Z 07018KT CAVOK 31/17 A2988=
200701261800 METAR MRLB 261800Z 08017KT CAVOK 32/15 A2985=
200701261900 METAR MRLB 261900Z 09015KT CAVOK 32/16 A2983=
200701262000 METAR MRLB 262000Z 08017KT CAVOK 32/16 A2980=
200701262100 METAR MRLB 262100Z 08016KT CAVOK 32/16 A2980=
200701262200 METAR MRLB 262200Z 08014KT CAVOK 30/17 A2979=
200701262300 METAR MRLB 262300Z 07016KT CAVOK 29/16 A2980=
200701270000 METAR MRLB 270000Z 08011KT CAVOK 27/16 A2982=
200701270100 METAR MRLB NIL=
200701270200 METAR MRLB 270200Z 10010KT CAVOK 26/16 A2986=
200701270300 METAR MRLB NIL=
200701270400 METAR MRLB NIL=
200701270500 METAR MRLB NIL=
200701270600 METAR MRLB NIL=
200701270800 METAR MRLB NIL=
200701270900 METAR MRLB NIL=
200701271000 METAR MRLB NIL=
200701271100 METAR MRLB NIL=
200701271200 METAR MRLB 271200Z 08003KT 9999 FEW035 BKN120 22/17 A2985=
200701271300 METAR MRLB 271300Z 00000KT 9999 FEW035 BKN120 23/18 A2986=
200701271400 METAR MRLB 271400Z 00000KT 9999 FEW035 BKN120 24/18 A2989=
200701271500 METAR MRLB 271500Z 06002KT CAVOK 28/16 A2990=
200701271600 METAR MRLB 271600Z 02003KT CAVOK 30/16 A2990=
200701271700 METAR MRLB 271700Z 09013KT 9999 FEW035 BKN130 31/16 A2988=
200701271800 METAR MRLB 271800Z 09014KT 9999 FEW035 BKN120 31/15 A2985=
200701271900 METAR MRLB 271900Z 09012KT 9999 FEW035 BKN130 31/15 A2982=
200701272000 METAR MRLB 272000Z 10011KT 9999 FEW035 BKN130 32/16 A2979=
200701272100 METAR MRLB 272100Z 08011KT CAVOK 31/16 A2978=
200701272200 METAR MRLB 272200Z 09013KT CAVOK 30/15 A2977=
200701272300 METAR MRLB 272300Z 08010KT CAVOK 29/16 A2979=
200701280000 METAR MRLB 280000Z 09007KT CAVOK 28/17 A2980=
200701280100 METAR MRLB 280100Z 08006KT CAVOK 27/17 A2981 RMK 7AC130=
200701280200 METAR MRLB 280200Z 09003KT CAVOK 26/17 A2984 RMK 7AC130=
200701280300 METAR MRLB NIL=
200701280400 METAR MRLB NIL=
200701280500 METAR MRLB NIL=
200701280700 METAR MRLB NIL=
200701280800 METAR MRLB NIL=
200701280900 METAR MRLB NIL=
200701281000 METAR MRLB NIL=
200701281100 METAR MRLB NIL=
200701281200 METAR MRLB 281200Z 34004KT CAVOK 26/17 A2985=
200701281300 METAR MRLB 281300Z 05004KT CAVOK 21/17 A2988=
200701281400 METAR MRLB 281400Z 02002KT CAVOK 24/17 A2991=
200701281500 METAR MRLB 281500Z 28005KT CAVOK 27/17 A2992=
200701281600 METAR MRLB 281600Z 03005KT CAVOK 30/17 A2991=
200701281700 METAR MRLB 281700Z 09012KT CAVOK 31/16 A2988=
200701281800 METAR MRLB 281800Z 10013KT 9999 FEW040 BKN270 32/17 A2986=
200701281900 METAR MRLB 281900Z 08015KT 9999 FEW040 SCT140 BKN270 33/15 A2983=
200701282000 METAR MRLB 282000Z 09016KT 9999 FEW040 BKN150 31/16 A2980=
200701282100 METAR MRLB 282100Z 09015KT CAVOK 31/17 A2979=
200701282200 METAR MRLB 282200Z 07019KT CAVOK 30/15 A2979=
200701282300 METAR MRLB 282300Z 08013KT CAVOK 29/17 A2980=
200701290000 METAR MRLB 290000Z 08014KT CAVOK 27/17 A2983=
200701290100 METAR MRLB 290100Z 07016KT CAVOK 26/16 A2984 RMK 4AC150=
200701290200 METAR MRLB 290200Z 08013KT CAVOK 26/15 A2987=
200701290300 METAR MRLB NIL=
200701290400 METAR MRLB NIL=
200701290500 METAR MRLB NIL=
200701290600 METAR MRLB NIL=
200701290700 METAR MRLB NIL=
200701290800 METAR MRLB NIL=
200701290900 METAR MRLB NIL=
200701291000 METAR MRLB NIL=
200701291100 METAR MRLB NIL=
200701291200 METAR MRLB 291200Z 05008KT CAVOK 24/16 A2986=
200701291300 METAR MRLB 291300Z 05008KT CAVOK 25/16 A2988=
200701291400 METAR MRLB 291400Z 35003KT CAVOK 26/16 A2991=
200701291500 METAR MRLB 291500Z 07020KT CAVOK 29/15 A2991=
200701291600 METAR MRLB 291600Z 08020KT CAVOK 30/16 A2991=
200701291700 METAR MRLB 291700Z 08020KT CAVOK 31/16 A2988=
200701291800 METAR MRLB 291800Z 07020KT 9999 FEW025 SCT200 32/16 A2987=
200701291900 METAR MRLB 291900Z 08015KT 9999 FEW030 SCT200 31/15 A2984=
200701292000 METAR MRLB 292000Z 08020KT 9999 FEW035 SCT200 32/15 A2980=
200701292100 METAR MRLB 292100Z 08015KT CAVOK 32 15 A2979=
200701292200 METAR MRLB 292200Z 08016KT CAVOK 31/15 A2977=
200701292300 METAR MRLB 292300Z 08017KT CAVOK 29/16 A2978=
200701300000 METAR MRLB 300000Z 09016KT CAVOK 27/17 A2978=
200701300100 METAR MRLB 300100Z 09014KT CAVOK 27/16 A2982=
200701300200 METAR MRLB 300200Z 08015KT CAVOK 27/17 A2984=
200701300300 METAR MRLB NIL=
200701300400 METAR MRLB NIL=
200701300500 METAR MRLB NIL=
200701300600 METAR MRLB NIL=
200701300700 METAR MRLB NIL=
200701300800 METAR MRLB NIL=
200701300900 METAR MRLB NIL=
200701301000 METAR MRLB NIL=
200701301200 METAR MRLB 301200Z 09020KT CAVOK 25/18 A2985=
200701301300 METAR MRLB 301300Z 04007KT CAVOK 25/18 A2987=
200701301400 METAR MRLB 301400Z 08017KT CAVOK 28/13 A2988=
200701301500 METAR MRLB 301500Z 08020KT CAVOK 30/17 A2990=
200701301600 METAR MRLB 301600Z 06019KT CAVOK 31/17 A2990=
200701301700 METAR MRLB 301700Z 08020KT CAVOK 30/18 A2989=
200701301800 METAR MRLB 301800Z 09018KT CAVOK 32/17 A2986=
200701301900 METAR MRLB 301900Z 06018KT CAVOK 32/17 A2983=
200701302000 METAR MRLB 302000Z 07020KT CAVOK 33/16 A2981=
200701302100 METAR MRLB 302100Z 08020KT CAVOK 31/17 A2979=
200701302200 METAR MRLB 302200Z 08020KT CAVOK 30/16 A2979=
200701302300 METAR MRLB 302300Z 07020KT CAVOK 29/18 A2980=
200701310000 METAR MRLB 310000Z 08020KT CAVOK 27/18 A2981=
200701310100 METAR MRLB 310100Z 09015KT CAVOK 26/17 A2983=
200701310200 METAR MRLB 310200Z 08016KT CAVOK 26/17 A2984=
200701310300 METAR MRLB NIL=
200701310400 METAR MRLB NIL=
200701310500 METAR MRLB NIL=
200701310600 METAR MRLB NIL=
200701310700 METAR MRLB NIL=
200701310800 METAR MRLB NIL=
200701310900 METAR MRLB NIL=
200701311000 METAR MRLB NIL=
200701311100 METAR MRLB NIL=
200701311200 METAR MRLB 311200Z 15002KT CAVOK 19/16 A2983=
200701311300 METAR MRLB 311300Z 23003KT CAVOK 20/17 A2985=
200701311400 METAR MRLB 311400Z 04004KT CAVOK 23/17 A2988=
200701311500 METAR MRLB 311500Z 03002KT CAVOK 28/17 A2990=
200701311600 METAR MRLB 311600Z 10011KT CAVOK 31/16 A2989=
200701311700 METAR MRLB 311700Z 09015KT CAVOK 32/16 A2988=
200701311800 METAR MRLB 311800Z 09013KT CAVOK 32/16 A2985=
200701311900 METAR MRLB 311900Z 09015KT CAVOK 33/16 A2982=
200701312000 METAR MRLB 312000Z 09013KT CAVOK 33/14 A2979=
200701312100 METAR MRLB 312100Z 06013KT CAVOK 33/16 A2978=
200701312200 METAR MRLB 312200Z 07013KT CAVOK 32/16 A2978=
200701312300 METAR MRLB 312300Z 07014KT CAVOK 30/17 A2977=
200702010000 METAR MRLB 010000Z 08012KT CAVOK 28/17 A2979=
200702010100 METAR MRLB 010100Z 08009KT CAVOK 27/17 A2980=
200702010200 METAR MRLB NIL=
200702010300 METAR MRLB NIL=
200702010400 METAR MRLB NIL=
200702010500 METAR MRLB NIL=
200702010600 METAR MRLB NIL=
200702010700 METAR MRLB NIL=
200702010800 METAR MRLB NIL=
200702010900 METAR MRLB NIL=
200702011000 METAR MRLB NIL=
200702011100 METAR MRLB NIL=
200702011200 METAR MRLB NIL=
200702011300 METAR MRLB 011300Z 22002KT CAVOK 22/18 A2983=
200702011400 METAR MRLB 011400Z 32003KT CAVOK 26/18 A2985=
200702011500 METAR MRLB 011500Z 03004KT CAVOK 28/18 A2986=
200702011600 METAR MRLB 011600Z 07010KT CAVOK 32/18 A2985=
200702011700 METAR MRLB 011700Z 07008KT CAVOK 32/18 A2982=
200702011800 METAR MRLB 011800Z 07010KT 9999 FEW035 34/17 A2980=
200702011900 METAR MRLB 011900Z 04009KT 9999 FEW035 33/18 A2977=
200702012000 METAR MRLB 012000Z 30006KT 9999 SCT035 30/20 A2976=
200702012100 METAR MRLB 012100Z 28010KT 9999 SCT035 30/21 A2975=
200702012200 METAR MRLB 012200Z 28009KT 9999 BKN035 29/20 A2974=
200702012300 METAR MRLB 012300Z 29007KT 9999 SCT035 29/20 A2975=
200702020000 METAR MRLB 020000Z 10007KT 9999 FEW030 SCT080 27/23 A2974=
200702020100 METAR MRLB 020100Z 24003KT 9999 FEW040 27/20 A2979=
200702020200 METAR MRLB NIL=
200702020300 METAR MRLB NIL=
200702020400 METAR MRLB NIL=
200702020500 METAR MRLB NIL=
200702020600 METAR MRLB NIL=
200702020700 METAR MRLB NIL=
200702020800 METAR MRLB NIL=
200702020900 METAR MRLB NIL=
200702021000 METAR MRLB NIL=
200702021100 METAR MRLB NIL=
200702021200 METAR MRLB 021200Z 32003KT CAVOK 20/18 A2983 RMK OVC270=
200702021300 METAR MRLB 021300Z 06002KT CAVOK 22/19 A2986=
200702021400 METAR MRLB 021400Z 00000KT CAVOK 26/19 A2988=
200702021500 METAR MRLB 021500Z 34003KT 9999 28/20 A2989=
200702021600 METAR MRLB 021600Z 35003KT 9999 FEW045 OVC280 31/18 A2988=
200702021700 METAR MRLB 021700Z 09007KT 9999 FEW045 BKN280 32/17 A2986=
200702021800 METAR MRLB 021800Z 07009KT 9999 FEW040 BKN280 33/15 A2983=
200702021900 METAR MRLB 021900Z 09009KT 9999 FEW040 BKN280 34/15 A2979=
200702022000 METAR MRLB 022000Z 06008KT 9999 FEW035 BKN300 34/15 A2976=
200702022100 METAR MRLB 022100Z 09010KT CAVOK 34/16 A2974=
200702022200 METAR MRLB 022200Z 09011KT CAVOK 33/16 A2974=
200702022300 METAR MRLB NIL=
200702030000 METAR MRLB 030000Z 09007KT CAVOK 30/17 A2975=
200702030100 METAR MRLB 030100Z 06006KT CAVOK 27/18 A2977=
200702030200 METAR MRLB 030200Z 02004KT CAVOK 26/18 A2979=
200702030300 METAR MRLB NIL=
200702030400 METAR MRLB NIL=
200702030500 METAR MRLB NIL=
200702030600 METAR MRLB NIL=
200702030700 METAR MRLB NIL=
200702030800 METAR MRLB NIL=
200702030900 METAR MRLB NIL=
200702031000 METAR MRLB NIL=
200702031100 METAR MRLB NIL=
200702031200 METAR MRLB 031200Z 07004KT CAVOK 18/16 A2987=
200702031300 METAR MRLB 031300Z 04002KT CAVOK 20/17 A2988=
200702031400 METAR MRLB 031400Z 35002KT CAVOK 24/17 A2990=
200702031500 METAR MRLB 031500Z 06012KT CAVOK 30/17 A2991=
200702031600 METAR MRLB 031600Z 07017KT CAVOK 31/17 A2991=
200702031700 METAR MRLB 031700Z 06016KT 9999 FEW040 BKN300 31/16 A2989=
200702031800 METAR MRLB 031800Z 07016KT 9999 FEW040 BKN300 32/16 A2986=
200702031900 METAR MRLB 031900Z 06017KT 9999 FEW045 BKN280 33/16 A2983=
200702032000 METAR MRLB 032000Z 07024KT 9999 FEW045 33/17 A2979=
200702032100 METAR MRLB 032100Z 05020KT 9999 FEW040 33/16 A2977=
200702032200 METAR MRLB 032200Z 07015KT 9999 SCT040 32/16 A2977=
200702032300 METAR MRLB 032300Z NIL=
200702040000 METAR MRLB 040000Z 07015KT 9999 SKC 29/16 A2979=
200702040100 METAR MRLB 040100Z 08017KT 9999 SKC 27/16 A2981=
200702040200 METAR MRLB 040200Z 08017KT 9999 SKC 27/18 A2983=
200702040300 METAR MRLB NIL=
200702040400 METAR MRLB NIL=
200702040500 METAR MRLB NIL=
200702040600 METAR MRLB NIL=
200702040700 METAR MRLB NIL=
200702040800 METAR MRLB NIL=
200702040900 METAR MRLB NIL=
200702041000 METAR MRLB NIL=
200702041100 METAR MRLB NIL=
200702041200 METAR MRLB NIL=
200702041300 METAR MRLB 041300Z 09012KT CAVOK 26/16 A2985=
200702041400 METAR MRLB 041400Z 06006KT CAVOK 25/17 A2988=
200702041500 METAR MRLB 041500Z 08020KT CAVOK 30/15 A2989=
200702041600 METAR MRLB 041600Z 06020KT CAVOK 31/15 A2989=
200702041700 METAR MRLB 041700Z 07020KT CAVOK 32/15 A2988=
200702041800 METAR MRLB 041800Z 08018KT CAVOK 33/15 A2985=
200702041900 METAR MRLB 041900Z 08017KT CAVOK 33/15 A2983=
200702042000 METAR MRLB 042000Z 08013KT CAVOK 33/16 A2979=
200702042100 METAR MRLB 042100Z 07017KT CAVOK 33/16 A2977=
200702042200 METAR MRLB 042200Z 07020KT CAVOK 31/16 A2977/=
200702042300 METAR MRLB 042300Z 07018KT CAVOK 30/16 A2977=
200702050000 METAR MRLB 050000Z 08016KT CAVOK 28/16 A2979=
200702050100 METAR MRLB 050100Z 08014KT CAVOK 27/17 A2982=
200702050200 METAR MRLB 050200Z 08015KT CAVOK 27/17 A2984=
200702050300 METAR MRLB NIL=
200702050400 METAR MRLB NIL=
200702050500 METAR MRLB NIL=
200702050600 METAR MRLB NIL=
200702050700 METAR MRLB NIL=
200702050800 METAR MRLB NIL=
200702050900 METAR MRLB NIL=
200702051000 METAR MRLB NIL=
200702051100 METAR MRLB NIL=
200702051200 METAR MRLB 051200Z 05004KT CAVOK 21/17 A2985=
200702051300 METAR MRLB 051300Z 09004KT CAVOK 24/18 A2987=
200702051400 METAR MRLB NIL=
200702051500 METAR MRLB 051500Z 06020KT CAVOK 30/18 A2991=
200702051600 METAR MRLB 051600Z 07017KT CAVOK 31/17 A2991=
200702051700 METAR MRLB 051700Z 07018KT CAVOK 32/17 A2989=
200702051800 METAR MRLB 051800Z 06017KT CAVOK 32/16 A2987=
200702051900 METAR MRLB 051900Z 08017KT 9999 FEW030 33/16 A2984=
200702052000 METAR MRLB 052000Z 07018KT 9999 FEW035 32/16 A2981=
200702052100 METAR MRLB 052100Z 07015KT 9999 FEW035 32/17 A2980=
200702052200 METAR MRLB 052200Z 08015KT CAVOK 31/17 A2980=
200702052300 METAR MRLB 052300Z 06017KT CAVOK 30/17 A2981=
200702060000 METAR MRLB 060000Z 06010KT 06010KT CAVOK 28/17 A2987=
200702060100 METAR MRLB 060100Z 08010KT CAVOK 27/17 A2985=
200702060200 METAR MRLB 060200Z 08012KT CAVOK 27/17 A2986=
200702060300 METAR MRLB NIL=
200702060400 METAR MRLB NIL=
200702060500 METAR MRLB NIL=
200702060600 METAR MRLB NIL=
200702060700 METAR MRLB NIL=
200702060800 METAR MRLB NIL=
200702060900 METAR MRLB NIL=
200702061000 METAR MRLB NIL=
200702061100 METAR MRLB NIL=
200702061200 METAR MRLB 061200Z 05011KT CAVOK 24/18 A2990=
200702061300 METAR MRLB 061300Z 08013KT CAVOK 26/18 A2991=
200702061400 METAR MRLB 061400Z 08019KT CAVOK 28/18 A2994=
200702061500 METAR MRLB 061500Z 08019KT CAVOK 29/18 A2995=
200702061600 METAR MRLB 061600Z 09018KT 9999 SCT035 30/18 A2994=
200702061700 METAR MRLB 061700Z 06023KT 9999 SCT035 30/17 A2994=
200702061800 METAR MRLB 061800Z 08023KT 9999 SCT035 31/18 A2991=
200702061900 METAR MRLB 061900Z 06024KT 9999 FEW035 30/17 A2988=
200702062000 METAR MRLB 062000Z 06025KT 9999 FEW035 30/16 A2985=
200702062100 METAR MRLB 062100Z 07020KT 9999 FEW035 31/16 A2984=
200702062200 METAR MRLB 062200Z 06023KT 9999 FEW035 30/16 A2983=
200702062300 METAR MRLB 062300Z 06021KT CAVOK 25/16 A2984=
200702070000 METAR MRLB 070000Z 06022KT CAVOK 27/17 A2985=
200702070100 METAR MRLB 070100Z 07022KT CAVOK 26/17 A29/87=
200702070200 METAR MRLB NIL=
200702070300 METAR MRLB NIL=
200702070400 METAR MRLB NIL=
200702070500 METAR MRLB NIL=
200702070600 METAR MRLB NIL=
200702070700 METAR MRLB NIL=
200702070800 METAR MRLB NIL=
200702070900 METAR MRLB NIL=
200702071000 METAR MRLB NIL=
200702071100 METAR MRLB NIL=
200702071200 METAR MRLB 071200Z 07015KT CAVOK 24/16 A2989=
200702071300 METAR MRLB 071300Z 07017KT CAVOK 25/16 A2990=
200702071400 METAR MRLB 071400Z 08020KT CAVOK 27/16 A2991=
200702071500 METAR MRLB 071500Z 08022KT CAVOK 29/14 A2993=
200702071600 METAR MRLB 071600Z 08022KT CAVOK 30/11 A2991=
200702071700 METAR MRLB 071700Z 07020KT CAVOK 31/12 A2991=
200702071800 METAR MRLB 071800Z 06023KT CAVOK 32/13 A2988=
200702071900 METAR MRLB 071900Z 07022KT CAVOK 32/14 A2985=
200702072000 METAR MRLB 072000Z 06018KT CAVOK 33/14 A2982=
200702072100 METAR MRLB 072100Z 07016KT CAVOK 32/14 A2980=
200702072200 METAR MRLB 072200Z 07020KT CAVOK 31/14 A2980=
200702072300 METAR MRLB 072300Z 06019KT CAVOK 30/14 A2982=
200702080000 METAR MRLB 080000Z 07013KT CAVOK 28/14 A2983=
200702080100 METAR MRLB 080100Z 07012KT CAVOK 27/14 A29/85=
200702080200 METAR MRLB NIL=
200702080300 METAR MRLB NIL=
200702080400 METAR MRLB NIL=
200702080500 METAR MRLB NIL=
200702080600 METAR MRLB NIL=
200702080700 METAR MRLB NIL=
200702080800 METAR MRLB NIL=
200702080900 METAR MRLB NIL=
200702081000 METAR MRLB NIL=
200702081100 METAR MRLB NIL=
200702081200 METAR MRLB 081200Z 26003KT 9999 SKC 18/15 A2990=
200702081300 METAR MRLB 081300Z 04006KT 9999 SKC 19/15 A2992=
200702081400 METAR MRLB 081400Z 02002KT 9999 SKC 26/16 A2995=
200702081500 METAR MRLB 081500Z 02005KT 9999 SKC 30/16 A2994=
200702081600 METAR MRLB 081600Z 06011KT 9999 SKC 31/14 A2994=
200702081700 METAR MRLB 081700Z 09014KT 9999 SKC 33/12 A2991=
200702081800 METAR MRLB 081800Z 09019KT 9999 SKC 33/12 A2988=
200702081900 METAR MRLB 081900Z 09017KT 9999 SKC 33/12 A2985=
200702082000 METAR MRLB 082000Z 08018KT 9999 SKC 33/13 A2983=
200702082100 METAR MRLB 082100Z 08016KT 9999 SKC 34/14 A2981=
200702082200 METAR MRLB 082200Z 08016KT 9999 SKC 31/13 A2980=
200702082300 METAR MRLB 082300Z 08015KT 9999 SKC 30/13 A2981=
200702090000 METAR MRLB 090000Z 08011KT 9999 SKC 28/13 A2984=
200702090100 METAR MRLB 090100Z 09010KT 9999 SKC 27/14 A2986=
200702090200 METAR MRLB 090200Z 09008KT 9999 SKC 26/14 A2987=
200702090300 METAR MRLB NIL=
200702090400 METAR MRLB NIL=
200702090500 METAR MRLB NIL=
200702090600 METAR MRLB NIL=
200702090700 METAR MRLB NIL=
200702090800 METAR MRLB NIL=
200702090900 METAR MRLB NIL=
200702091000 METAR MRLB NIL=
200702091100 METAR MRLB NIL=
200702091200 METAR MRLB 091200Z 05002KT 9999 SKC 15/13 A2990=
200702091300 METAR MRLB 091300Z 03004KT 9999 SKC 17/14 A2993=
200702091400 METAR MRLB 091400Z 35002KT 9999 SKC 22/15 A2995=
200702091500 METAR MRLB 091500Z 32002KT 9999 SKC 26/15 A2996=
200702091600 METAR MRLB 091600Z 35005KT 9999 SKC 31/12 A2995=
200702091700 METAR MRLB 091700Z 04004KT 9999 SKC 32/11 A2993=
200702091800 METAR MRLB 091800Z 10010KT 9999 SKC 34/08 A2989=
200702091900 METAR MRLB 091900Z 11012KT 9999 SKC 34/09 A2986=
200702092000 METAR MRLB 092000Z 10012KT 9999 34/12 A2983=
200702092100 METAR MRLB 092100Z 08003KT 9999 SKC 33/13 A2982=
200702092200 METAR MRLB 0922=
200702092300 METAR MRLB 092300Z 08015KT 9999 SKC 31/15 A2984=
200702100000 METAR MRLB 100000Z 08011KT 9999 SKC 28/16 A2986=
200702100100 METAR MRLB 100100Z 08012KT 9999 SKC 27/17 A2988=
200702100200 METAR MRLB 100200Z 08011KT 9999 SKC 26/17 A2990=
200702100300 METAR MRLB NIL=
200702100400 METAR MRLB NIL=
200702100500 METAR MRLB NIL=
200702100600 METAR MRLB NIL=
200702100700 METAR MRLB NIL=
200702100800 METAR MRLB NIL=
200702100900 METAR MRLB NIL=
200702101000 METAR MRLB NIL=
200702101100 METAR MRLB NIL=
200702101200 METAR MRLB 101200Z 00000KT CAVOK 17/14 A2992=
200702101300 METAR MRLB 101300Z 00000KT CAVOK 19/15 A2993=
200702101400 METAR MRLB 101400Z 33003KT CAVOK 24/16 A2994=
200702101500 METAR MRLB 101500Z 26003KT CAVOK 28/15 A2995=
200702101600 METAR MRLB 101600Z 00000KT CAVOK 31/14 A2995=
200702101700 METAR MRLB 101700Z 08015KT CAVOK 32/11 A2992=
200702101800 METAR MRLB 101800Z 10015KT CAVOK 33/12 A2989=
200702101900 METAR MRLB 101900Z 09012KT CAVOK 33/12 A2987=
200702102000 METAR MRLB 102000Z 08015KT CAVOK 33/13 A2984=
200702102100 METAR MRLB 102100Z 09014KT CAVOK 32/14 A2983=
200702102200 METAR MRLB 102200Z 07018KT CAVOK 32/14 A2982=
200702102300 METAR MRLB 102300Z 07014KT CAVOK 31/14 A2982=
200702110000 METAR MRLB 110000Z 07013KT CAVOK 28/15 A2983=
200702110100 METAR MRLB 110100Z 08008KT CAVOK 27/15 A2985=
200702110200 METAR MRLB 110200Z 07011KT CAVOK 26/17 A2987=
200702110300 METAR MRLB NIL=
200702110400 METAR MRLB NIL=
200702110500 METAR MRLB NIL=
200702110600 METAR MRLB NIL=
200702110700 METAR MRLB NIL=
200702110800 METAR MRLB NIL=
200702110900 METAR MRLB NIL=
200702111000 METAR MRLB NIL=
200702111100 METAR MRLB NIL=
200702111200 METAR MRLB 111200Z 07003KT CAVOK 17/15 A2990=
200702111300 METAR MRLB 111300Z 04003KT CAVOK 18/15 A2992=
200702111400 METAR MRLB 111400Z 02003KT CAVOK 23/17 A2994=
200702111500 METAR MRLB 111500Z 30004KT CAVOK 27/17 A2995=
200702111600 METAR MRLB 111600Z 26006KT CAVOK 30/17 A2993=
200702111700 METAR MRLB 111700Z 10015KT CAVOK 33/15 A2990=
200702111800 METAR MRLB 111800Z 09010KT CAVOK 33/15 A2988=
200702111900 METAR MRLB 111900Z 09011KT CAVOK 34/15 A2985=
200702112000 METAR MRLB 112000Z 07015KT CAVOK 33/16 A2982=
200702112100 METAR MRLB 112100Z 08014KT 9999 FEW030 33/14 A2980=
200702112200 METAR MRLB 112200Z 07013KT 9999 FEW030 32/12 A2980=
200702112300 METAR MRLB 112300Z 07014KT CAVOK 30/16 A2981=
200702120000 METAR MRLB 120000Z 04006KT CAVOK 28/17 A2983=
200702120100 METAR MRLB 120100Z 07008KT CAVOK 27/17 A2985=
200702120200 METAR MRLB 120200Z 23002KT CAVOK 25/15 A2987=
200702120300 METAR MRLB NIL=
200702120400 METAR MRLB NIL=
200702120500 METAR MRLB NIL=
200702120600 METAR MRLB NIL=
200702120700 METAR MRLB NIL=
200702120800 METAR MRLB NIL=
200702120900 METAR MRLB NIL=
200702121000 METAR MRLB NIL=
200702121100 METAR MRLB NIL=
200702121200 METAR MRLB 121200Z 00000KT CAVOK 19/16 A2987=
200702121300 METAR MRLB 121300Z 00000KT CAVOK 21/16 A2989=
200702121400 METAR MRLB 121400Z 19002KT CAVOK 25/17 A2991=
200702121500 METAR MRLB 121500Z 31003KT CAVOK 28/17 A2992=
200702121600 METAR MRLB 121600Z 04007KT CAVOK 31/17 A2991=
200702121700 METAR MRLB 121700Z 07011KT CAVOK 33/17 A2988=
200702121800 METAR MRLB 121800Z 07008KT CAVOK 33/17 A2985=
200702121900 METAR MRLB 121900Z 09010KT 9999 FEW040 33/17 A2983=
200702122000 METAR MRLB 122000Z 08011KT 9999 FEW040 34/17 A2979=
200702122100 METAR MRLB 122100Z 08012KT 9999 FEW040 34/16 A2978=
200702122200 METAR MRLB 122200Z 07011KT 9999 FEW040 33/16 A2978=
200702122300 METAR MRLB 122300Z 07012KT 9999 FEW040 32/17 A2978=
200702130000 METAR MRLB 130000Z 06011KT CAVOK 29/17 A2979=
200702130100 METAR MRLB 130100Z 05007KT CAVOK 28/18 A2982=
200702130200 METAR MRLB NIL=
200702130300 METAR MRLB NIL=
200702130400 METAR MRLB NIL=
200702130600 METAR MRLB NIL=
200702130700 METAR MRLB NIL=
200702130800 METAR MRLB NIL=
200702130900 METAR MRLB NIL=
200702131000 METAR MRLB NIL=
200702131100 METAR MRLB NIL=
200702131200 METAR MRLB NIL=
200702131300 METAR MRLB 131300Z 05004KT CAVOK 21/17 A2988=
200702131400 METAR MRLB 131400Z 36002KT CAVOK 25/18 A2990=
200702131500 METAR MRLB 131500Z 05002KT CAVOK 28/18 A2992=
200702131600 METAR MRLB 131600Z 07003KT CAVOK 31/17 A2990=
200702131700 METAR MRLB 131700Z 24005KT CAVOK 32/17 A2987=
200702131800 METAR MRLB 131800Z 23003KT 9999 FEW035 33/15 A2984=
200702131900 METAR MRLB 131900Z 28009KT 9999 FEW035 33/17 A2981=
200702132000 METAR MRLB 132000Z 26010KT 9999 FEW035 33/18 A2978=
200702132100 METAR MRLB 132100Z 27012KT 9999 FEW040 32/18 A2977=
200702132200 METAR MRLB 132200Z 26011KT 9999 SCT040 32/17 A2977=
200702132300 METAR MRLB 132300Z 27009KT 9999 FEW040 31/18 A2978=
200702140000 METAR MRLB 140000Z 26007KT 9999 FEW040 29/17 A2979=
200702140100 METAR MRLB NIL=
200702140200 METAR MRLB NIL=
200702140300 METAR MRLB NIL=
200702140400 METAR MRLB NIL=
200702140500 METAR MRLB NIL=
200702140600 METAR MRLB NIL=
200702140700 METAR MRLB NIL=
200702140800 METAR MRLB NIL=
200702140900 METAR MRLB NIL=
200702141000 METAR MRLB NIL=
200702141100 METAR MRLB NIL=
200702141200 METAR MRLB NIL=
200702141300 METAR MRLB 141300Z 05003KT CAVOK 21/18 A2987/HZ ARND=
200702141400 METAR MRLB 141400Z 04002KT CAVOK 26/19 A2989 OVC300=
200702141500 METAR MRLB 141500Z 29002KT CAVOK 28/20 A2990 BKN300 HZY=
200702141600 METAR MRLB 141600Z 24004KT 9999 FEW040 SCT300 31/19 A2990=
200702141700 METAR MRLB 141700Z 32004KT 9999 FEW040 33/17 A2988=
200702141800 METAR MRLB 141800Z 26007KT 9999 SCT040 33/19 A2984=
200702141900 METAR MRLB 141900Z 29010KT 9999 SCT040 33/19 A2981=
200702142000 METAR MRLB 142000Z 28012KT 9999 SCT035 32/19 A2979=
200702142100 METAR MRLB 142100Z 27011KT 9999 FEW035 32/19 A2977=
200702142200 METAR MRLB 142200Z 28011KT 9999 BKN035 32/19 A2976=
200702142300 METAR MRLB 142300Z 27008KT 9999 BKN035 31/18 A2977=
200702150000 METAR MRLB 150000Z 00000KT 9999 SCT035 30/19 A2979=
200702150100 METAR MRLB 150100Z 05004KT 9999 FEW035 28/19 A2981=
200702150200 METAR MRLB 150200Z 14003KT 9999 FEW035 28/18 A2983=
200702150300 METAR MRLB NIL=
200702150400 METAR MRLB NIL=
200702150500 METAR MRLB NIL=
200702150600 METAR MRLB NIL=
200702150700 METAR MRLB NIL=
200702150800 METAR MRLB NIL=
200702150900 METAR MRLB NIL=
200702151000 METAR MRLB NIL=
200702151100 METAR MRLB NIL=
200702151200 METAR MRLB 151200Z 00000KT CAVOK 17/14 A2990=
200702151300 METAR MRLB 151300Z 05003KT 9999 SKC 20/16 A2987=
200702151400 METAR MRLB 151400Z 02003KT 9999 SKC 24/18 A2989=
200702151500 METAR MRLB 151500Z 32003KT 9999 SKC 27/17 A2991=
200702151600 METAR MRLB 151600Z 29003KT 9999 SKC 30/16 A2991=
200702151700 METAR MRLB 151700Z 16004KT 9999 SKC 33/15 A2988=
200702151800 METAR MRLB 151800Z 27004KT 9999 SKC 33/14 A2985=
200702151900 METAR MRLB 151900Z 26009KT CAVOK 35/13 A2982=
200702152000 METAR MRLB 152000Z 27010KT 9999 FEW040 34/13 A2980=
200702152100 METAR MRLB 152100Z 29010KT 9999 FEW040 34/14 A2978=
200702152200 METAR MRLB 152200Z 26011KT 9999 FEW040 32/16 A2978=
200702152300 METAR MRLB 152300Z 26010KT CAVOK 31/15 A2980=
200702160000 METAR MRLB NIL=
200702160100 METAR MRLB NIL=
200702160200 METAR MRLB NIL=
200702160300 METAR MRLB NIL=
200702160400 METAR MRLB NIL=
200702160500 METAR MRLB NIL=
200702160600 METAR MRLB NIL=
200702160700 METAR MRLB NIL=
200702160800 METAR MRLB NIL=
200702160900 METAR MRLB NIL=
200702161000 METAR MRLB NIL=
200702161100 METAR MRLB NIL=
200702161200 METAR MRLB NIL=
200702161300 METAR MRLB 161300Z 00000KT CAVOK 20/14 A2992=
200702161400 METAR MRLB 161400Z NIL=
200702161500 METAR MRLB 161500Z 00000KT CAVOK 27/14 A2993=
200702161600 METAR MRLB 161600Z 00000KT CAVOK 31/13 A2993=
200702161700 METAR MRLB 161700Z 23007KT CAVOK 33/12 A2991=
200702161800 METAR MRLB 161800Z 28008KT CAVOK 34/09 A2987=
200702161900 METAR MRLB 161900Z 08009KT CAVOK 35/07 A2984=
200702162000 METAR MRLB 162000Z 30005KT CAVOK 34/04 A2980=
200702162100 METAR MRLB 162100Z 31006KT CAVOK 35/07 A2978=
200702162200 METAR MRLB 162200Z 09015KT CAVOK 33/06 A2978=
200702162300 METAR MRLB 162300Z 09017KT CAVOK 31/12 A2979=
200702170000 METAR MRLB 170000Z 07014KT CAVOK 29/24 A2981=
200702170100 METAR MRLB 170100Z 07011KT CAVOK 28/15 A2984=
200702170200 METAR MRLB 170200Z 08013KT CAVOK 27/15 A29/87=
200702170300 METAR MRLB NIL=
200702170400 METAR MRLB NIL=
200702170500 METAR MRLB NIL=
200702170700 METAR MRLB NIL=
200702170800 METAR MRLB NIL=
200702170900 METAR MRLB NIL=
200702171000 METAR MRLB NIL=
200702171100 METAR MRLB NIL=
200702171200 METAR MRLB 171200Z 29004KT CAVOK 20/15 A2989=
200702171300 METAR MRLB 171300Z 32006KT CAVOK 23/15 A2991=
200702171400 METAR MRLB 171400Z 04004KT CAVOK 28/14 A2992=
200702171500 METAR MRLB 171500Z 08016KT CAVOK 30/15 A2993=
200702171600 METAR MRLB 171600Z 08019KT CAVOK 31/14 A2993=
200702171700 METAR MRLB 171700Z 08014KT CAVOK 32/14 A2991=
200702171800 METAR MRLB 171800Z 08018KT CAVOK 33/14 A2988=
200702171900 METAR MRLB 171900Z 07017KT 9999 FEW030 33/13 A2985=
200702172000 METAR MRLB 172000Z 07015KT 9999 FEW025 33/14 A2982=
200702172100 METAR MRLB 172100Z 07016KT 9999 FEW030 SCT250 33/14 A2980=
200702172200 METAR MRLB 172200Z 06016KT CAVOK 33/14 A2981=
200702172300 METAR MRLB 172300Z 06016KT CAVOK 31/15 A2982=
200702180000 METAR MRLB 180000Z 07013KT CAVOK 29/16 A2983=
200702180100 METAR MRLB 180100Z 08012KT CAVOK 28/16 A2985=
200702180200 METAR MRLB 180200Z 07016KT CAVOK 27/16 A2987=
200702180300 METAR MRLB NIL=
200702180400 METAR MRLB NIL=
200702180500 METAR MRLB NIL=
200702180600 METAR MRLB NIL=
200702180700 METAR MRLB NIL=
200702180800 METAR MRLB NIL=
200702180900 METAR MRLB NIL=
200702181000 METAR MRLB NIL=
200702181100 METAR MRLB NIL=
200702181200 METAR MRLB NIL=
200702181300 METAR MRLB 181300Z 03007KT CAVOK 24/17 A2994=
200702181400 METAR MRLB 181400Z 31005KT CAVOK 26/17 A2997=
200702181500 METAR MRLB 181500Z 07014KT 9999 FEW035 SCT260 30/15 A2997=
200702181600 METAR MRLB 181600Z 07021KT 9999 FEW035 SCT260 31/14 A2998=
200702181700 METAR MRLB 181700Z 07022KT 9999 SCT035 32/15 A2996=
200702181800 METAR MRLB 181800Z 06025KT 9999 SCT035 31/15 A2993=
200702181900 METAR MRLB 181900Z 07020KT 9999 SCT040 32/16 A2990=
200702182000 METAR MRLB 182000Z 07020KT 9999 BKN035 31/17 A2989=
200702182100 METAR MRLB 182100Z 08021KT 9999 BKN035 30/17 A2988=
200702182200 METAR MRLB 182200Z 08020KT 9999 BKN035 27/17 A2989=
200702182300 METAR MRLB 182300Z 08021KT 9999 BKN035 26/17 A2991=
200702190000 METAR MRLB 190000Z 09021KT 9999 SCT035 SCT250 25/17 A2990=
200702190100 METAR MRLB 190100Z 08016KT 9999 SCT035 BKN250 24/17 A2996=
200702190200 METAR MRLB NIL=
200702190300 METAR MRLB NIL=
200702190400 METAR MRLB NIL=
200702190500 METAR MRLB NIL=
200702190600 METAR MRLB NIL=
200702190700 METAR MRLB NIL=
200702190800 METAR MRLB NIL=
200702190900 METAR MRLB NIL=
200702191000 METAR MRLB NIL=
200702191100 METAR MRLB NIL=
200702191200 METAR MRLB 191200Z 17007KT CAVOK 20/12 A2999=
200702191300 METAR MRLB 191300Z 25010KT CAVOK 22/12 A2993 RMK OVC250=
200702191400 METAR MRLB 191400Z 22007KT CAVOK 25/11 A2995 RMK BKN250=
200702191500 METAR MRLB 191500Z 17005KT CAVOK 28/12 A2995 RMK BKN250=
200702191600 METAR MRLB 191600Z 10018KT CAVOK 28/13 A2992 RMK RFGS 25KT=
200702191700 METAR MRLB 191700Z 10018KT CAVOK 28/13 A2992 RMK RFGS 25KT=
200702191800 METAR MRLB 191800Z 09017G30KT CAVOK 30/13 A2990 RMK BKN250=
200702191900 METAR MRLB 191900Z 08022G34 CAVOK 30/13 A2987 RMK BKN250=
200702192000 METAR MRLB 192000Z 07023KT 9999 FEW040 OVC250 29/15 A2986=
200702192100 METAR MRLB 192100Z 07018KT 9999 FEW040 OVC250 29/15 A2985=
200702192200 METAR MRLB 192200Z 08020KT 9999 FEW040 BKN250 29/15 A2983=
200702192300 METAR MRLB 192300Z 08019KT CAVOK 27/16 A2986 BKN250=
200702200000 METAR MRLB 200000Z 08018KT CAVOK 26/15 A2985=
200702200100 METAR MRLB 200100Z 09015KT CAVOK 25/16 A2987=
200702200200 METAR MRLB 200200Z 06016KT CAVOK 26/15 A2989=
200702200400 METAR MRLB NIL=
200702200500 METAR MRLB NIL=
200702200600 METAR MRLB NIL=
200702200700 METAR MRLB NIL=
200702200800 METAR MRLB NIL=
200702200900 METAR MRLB NIL=
200702201000 METAR MRLB NIL=
200702201100 METAR MRLB NIL=
200702201200 METAR MRLB 201200Z 27006KT CAVOK 20/15 A2987=
200702201300 METAR MRLB 201300Z 23008KT CAVOK 22/16 A2990 RMK BKN130=
200702201400 METAR MRLB 201400Z 25007KT CAVOK 24/16 A2992 RMK BKN130=
200702201500 METAR MRLB 201500Z 24008KT CAVOK 27/16 A2993 RMK BKN130=
200702201600 METAR MRLB 201600Z 27006KT CAVOK 28/16 A2993 RMK SCT130=
200702201700 METAR MRLB 201700Z 34005KT CAVOK 31/15 A2989 RMK BKN130=
200702201800 METAR MRLB 201800Z 09017KT CAVOK 32/15 A2986 RMK BKN250=
200702201900 METAR MRLB 201900Z 09020KT 9999 FEW040 BKN250 31/16 A2985=
200702202000 METAR MRLB 202000Z 09018KT 9999 FEW040 BKN250 31/16 A2982=
200702202100 METAR MRLB 202100Z 09015KT 9999 SCT040 SCT250 31/16 A2981=
200702202200 METAR MRLB 202200Z 09018KT 9999 SCT040 SCT250 30/16 A2980=
200702202300 METAR MRLB 202300Z 09017KT 9999 SCT040 29/17 A2981=
200702210000 METAR MRLB 210000Z 09016KT 9999 FEW040 27/17 A2981=
200702210100 METAR MRLB 210100Z 08014KT 9999 FEW040 27/17 A2983=
200702210200 METAR MRLB 210200Z 10015KT 9999 FEW040 26/17 A2984=
200702210300 METAR MRLB NIL=
200702210400 METAR MRLB NIL=
200702210500 METAR MRLB NIL=
200702210600 METAR MRLB NIL=
200702210700 METAR MRLB NIL=
200702210800 METAR MRLB NIL=
200702210900 METAR MRLB NIL=
200702211100 METAR MRLB NIL=
200702211200 METAR MRLB 211200Z 10007KT CAVOK 23/17 A2984 RMK BKN250=
200702211300 METAR MRLB 211300Z 15004KT CAVOK 24/27 A2986 BKN250=
200702211400 METAR MRLB 211400Z 10009KT CAVOK 28/17 A2988 BKN250=
200702211500 METAR MRLB 211500Z 08014KT CAVOK 29/16 A2989 BKN300=
200702211600 METAR MRLB 211600Z 07014KT CAVOK 31/15 A2989 BKN300=
200702211700 METAR MRLB 211700Z 07014G26KT CAVOK 32/15 A2987 SCT300=
200702211800 METAR MRLB 211800Z 06019KT CAVOK 32/16 2985 SCT300=
200702211900 METAR MRLB NIL=
200702212000 METAR MRLB 212000Z 06018KT 9999 FEW035 34/15 A2979=
200702212100 METAR MRLB 212100Z 05018KT CAVOK 33/15 A2977=
200702212200 METAR MRLB 212200Z 05017KT CAVOK 32/14 A2977=
200702212300 METAR MRLB 212300Z 06017KT CAVOK 31/15 A2979=
200702220000 METAR MRLB 220000Z 05015KT CAVOK 28/16 A2988=
200702220100 METAR MRLB 220100Z 07013KT CAVOK 27/17 A2983=
200702220200 METAR MRLB 220200Z 06012KT CAVOK 26/17 A2984=
200702220300 METAR MRLB NIL=
200702220400 METAR MRLB NIL=
200702220500 METAR MRLB NIL=
200702220600 METAR MRLB NIL=
200702220700 METAR MRLB NIL=
200702220800 METAR MRLB NIL=
200702220900 METAR MRLB NIL=
200702221000 METAR MRLB NIL=
200702221100 METAR MRLB NIL=
200702221200 METAR MRLB 221200Z 07011KT CAVOK 25/16 A2984=
200702221300 METAR MRLB 221300Z 06018KT CAVOK 27/16 A2985=
200702221400 METAR MRLB 221400Z NIL=
200702221500 METAR MRLB 221500Z 06020KT CAVOK 30/15 A2987=
200702221600 METAR MRLB 221600Z 06025KT CAVOK 31/15 A2986=
200702221700 METAR MRLB 221700Z 07022KT CAVOK 32/14 A2983=
200702221800 METAR MRLB 221800Z 07023KT CAVOK 33/15 A2981=
200702221900 METAR MRLB 221900Z 06022G32KT CAVOK 33/15 A2977=
200702222000 METAR MRLB 222000Z 06022G32KT CAVOK 33/15 A2975=
200702222100 METAR MRLB 222100Z 06022KT CAVOK 33/15 A2973=
200702222200 METAR MRLB 222200Z 07025KT CAVOK 31/16 A2974=
200702230400 METAR MRLB NIL=
200702230500 METAR MRLB NIL=
200702230600 METAR MRLB NIL=
200702230700 METAR MRLB NIL=
200702230800 METAR MRLB NIL=
200702230900 METAR MRLB NIL=
200702231000 METAR MRLB NIL=
200702231100 METAR MRLB NIL=
200702231200 METAR MRLB 231200Z 06016KT CAVOK 25/16 A2979 SCT300 GTS 24KT=
200702231300 METAR MRLB 231300Z 08015KT CAVOK 26/17 A2981=
200702231400 METAR MRLB 231400Z 08016KT CAVOK 27/17 A2983 RMK RAFAGAS 22KT=
200702231500 METAR MRLB 231500Z 07023KT CAVOK 29/16 A2984=
200702231600 METAR MRLB 231600Z 07023KT CAVOK 30/17 A2985=
200702231700 METAR MRLB 231700Z 07023KT CAVOK 30/16 A2984 RMK RAFAGAS 32KT=
200702231800 METAR MRLB 231800Z 07020KT CAVOK 31/15 A2983=
200702231900 METAR MRLB 231900Z 06026KT NSC 30/15 A2981=
200702232000 METAR MRLB 232000Z 07020G30KT 9999 NSC 32/13 A2977=
200702232100 METAR MRLB 232100Z 08016KT 9999 NSC 31/13 A2975=
200702232200 METAR MRLB 232200Z 07017KT 9999 SKC 31/14 A2974=
200702232300 METAR MRLB 232300Z 08017KT 9999 SKC 30/16 A2974=
200702240000 METAR MRLB 240000Z 08015KT 9999 SKC 28/12 A2976=
200702240100 METAR MRLB 240100Z 09013KT 9999 SKC 27/14 A2977=
200702240200 METAR MRLB 240200Z 09013KT 9999 SKC 27/13 A2979=
200702240300 METAR MRLB NIL=
200702240400 METAR MRLB NIL=
200702240500 METAR MRLB NIL=
200702240600 METAR MRLB NIL=
200702240700 METAR MRLB NIL=
200702240800 METAR MRLB NIL=
200702240900 METAR MRLB NIL=
200702241000 METAR MRLB NIL=
200702241100 METAR MRLB NIL=
200702241200 METAR MRLB NIL=
200702241300 METAR MRLB 241300Z 07004KT 9999 SKC 21/15 S2983=
200702241400 METAR MRLB 241400Z 00000KT 9999 SKC 27/16 A2985=
200702241500 METAR MRLB 241500Z 08015KT 9999 SKC 30/15 A2985=
200702241600 METAR MRLB 241600Z 08016KT 9999 SKC 31/14 A2985=
200702241700 METAR MRLB 241700Z 09015KT 9999 SKC 32/14 A2984=
200702241800 METAR MRLB 241800Z 09014KT 9999 NSC 33/14 A2981=
200702241900 METAR MRLB 241900Z 08013KT 9999 NSC 34/14 A2978=
200702242000 METAR MRLB 242000Z 09013KT 9999 NSC 24/14 A2976=
200702242100 METAR MRLB 242100Z 06015KT 9999 NSC 33/14 A2974=
200702242200 METAR MRLB 242200Z 08013KT 9999 SKC 33/14 A2973=
200702242300 METAR MRLB 242300Z 08013KT 9999 SKC 31/15 A2973=
200702250000 METAR MRLB 250000Z 09010KT 9999 SKC 29/17 A2974=
200702250100 METAR MRLB 250100Z 08010KT 9999 SKC 28/17 A2976=
200702250200 METAR MRLB 250200Z 09009KT 9999 SKC 27/17 A2978=
200702250400 METAR MRLB NIL=
200702250500 METAR MRLB NIL=
200702250600 METAR MRLB NIL=
200702250700 METAR MRLB NIL=
200702250800 METAR MRLB NIL=
200702250900 METAR MRLB NIL=
200702251000 METAR MRLB NIL=
200702251100 METAR MRLB NIL=
200702251200 METAR MRLB 251200Z 07006KT 9999 SKC 18/15 A2983=
200702251300 METAR MRLB 251300Z 06002KT 9999 SKC 22/17 A2986=
200702251400 METAR MRLB 251400Z 12004KT 9999 SKC 27/17 A2988=
200702251500 METAR MRLB 251500Z 12006KT 9999 SKC 29/17 A2988=
200702251600 METAR MRLB 251600Z 12009KT 9999 SKC 32/16 A2987=
200702251700 METAR MRLB 251700Z 08005KT 9999 SKC 32/16 A2985=
200702251800 METAR MRLB 251800Z 10006KT 9999 NSC 33/16 A2981=
200702251900 METAR MRLB 251900Z 22003KT 9999 NSC 34/15 A2977=
200702252000 METAR MRLB 252000Z 28005KT 9999 NSC 34/16 A2975=
200702252100 METAR MRLB 252100Z 27011KT CAVOK 32/18 A2973=
200702252200 METAR MRLB 252200Z 28010KT CAVOK 31/17 A2973=
200702252300 METAR MRLB 252300Z 27007KT CAVOK 30/17 A2974=
200702260000 METAR MRLB 260000Z 22006KT CAVOK 28/17 A2976=
200702260100 METAR MRLB 260100Z 23004KT CAVOK 27/18 A2978=
200702260200 METAR MRLB 260200Z 10006KT CAVOK 25/19 A2979=
200702260300 METAR MRLB NIL=
200702260400 METAR MRLB NIL=
200702260500 METAR MRLB NIL=
200702260600 METAR MRLB NIL=
200702260700 METAR MRLB NIL=
200702260800 METAR MRLB NIL=
200702260900 METAR MRLB NIL=
200702261100 METAR MRLB NIL=
200702261200 METAR MRLB 261200Z 18003KT 9999 NSC 20/17 A2981=
200702261300 METAR MRLB 261300Z 22005KT CAVOK 23/17 A2984=
200702261400 METAR MRLB 261400Z 25003KT CAVOK 26/17 A2985=
200702261500 METAR MRLB 261500Z 08016KT CAVOK 30/16 A2985=
200702261600 METAR MRLB 261600Z 09012KT CAVOK 32/15 A2985=
200702261700 METAR MRLB 261700Z 06014KT CAVOK 32/16 A2983=
200702261800 METAR MRLB 261800Z 08014KT CAVOK 33/16 A2980=
200702261900 METAR MRLB 261900Z 10012KT CAVOK 34/16 A2977=
200702262000 METAR MRLB 262000Z 07014KT CAVOK 34/16 A2975=
200702262100 METAR MRLB 262100Z 07010KT CAVOK 34/17 A2973=
200702262200 METAR MRLB 262200Z 06013KT CAVOK 32/17 A2972=
200702262300 METAR MRLB 262300Z 07013KT CAVOK 32/17 A2973=
200702270000 METAR MRLB 270000Z 08013KT CAVOK 29/18 A2974=
200702270100 METAR MRLB 270100Z 10012KT CAVOK 29/19 A2975=
200702270200 METAR MRLB 270200Z 09012KT CAVOK 27/17 A2977=
200702270300 METAR MRLB NIL=
200702270400 METAR MRLB NIL=
200702270500 METAR MRLB NIL=
200702270600 METAR MRLB NIL=
200702270700 METAR MRLB NIL=
200702270800 METAR MRLB NIL=
200702270900 METAR MRLB NIL=
200702271000 METAR MRLB NIL=
200702271100 METAR MRLB NIL=
200702271200 METAR MRLB 271200Z 11005KT CAVOK 22/18 A2977 RMK HZ LGT ARND=
200702271300 METAR MRLB 271300Z 06003KT 9999 NSC 24/18 A2979 RMK HZ ARND=
200702271400 METAR MRLB 271400Z VRB03KT 9999 NSC 27/19 A2982 RMK HZ ARND=
200702271500 METAR MRLB 271500Z 06013KT 9999 FEW040 31/19 A2981=
200702271600 METAR MRLB 271600Z 07015KT 99999 FEW040 32/18 A2981=
200702271700 METAR MRLB 271700Z 09010KT 9999 SCT035 33/18 A2980=
200702271800 METAR MRLB 271800Z 09009KT 9999 SCT035 33/18 A2977=
200702271900 METAR MRLB 271900Z 08010KT 9999 SCT035 34/18 A2973=
200702272000 METAR MRLB 272000Z 08009KT 9999 SCT035 35/17 A2970=
200702272100 METAR MRLB 272100Z 05012KT 9999 SCT035 34/18 A2968=
200702272200 METAR MRLB 272200Z 05011KT 9999 SCT035 34/18 A2968=
200702272300 METAR MRLB 272300Z 32007KT 9999 SCT035 31/20 A2970=
200702280000 METAR MRLB 280000Z 29007KT 9999 FEW035 29/20 A2972=
200702280100 METAR MRLB NIL=
200702280200 METAR MRLB 280200Z 01004KT 9999 FEW035 27/21 A2974=
200702280300 METAR MRLB NIL=
200702280400 METAR MRLB NIL=
200702280500 METAR MRLB NIL=
200702280600 METAR MRLB NIL=
200702280700 METAR MRLB NIL=
200702280800 METAR MRLB NIL=
200702280900 METAR MRLB NIL=
200702281000 METAR MRLB NIL=
200702281100 METAR MRLB NIL=
200702281200 METAR MRLB 281200Z 24004KT 9999 FEW035 23/19 A2975 HZY=
200702281300 METAR MRLB 281300Z 22005KT 9999 FEW035 25/20 A2977 RMK HZ ARND=
200702281400 METAR MRLB 281400Z 28004KT 9999 SKC 28/20 A2977 RMK HZ ARND=
200702281500 METAR MRLB 281500Z 01007KT 9999 FEW035 31/19 A2979 RMK HZ ARND=
200702281600 METAR MRLB NIL=
200702281700 METAR MRLB 281700Z 08015KT 9999 FEW035 33/17 A2975=
200702281800 METAR MRLB 281800Z 08013KT 9999 34/18 A2973=
200702281900 METAR MRLB 281900Z 06014KT 9999 SCT035 34/18 A2970=
200702282000 METAR MRLB NIL=
200702282100 METAR MRLB NIL=
200703010300 METAR MRLB NIL=
200703010400 METAR MRLB NIL=
200703010500 METAR MRLB NIL=
200703010600 METAR MRLB NIL=
200703010700 METAR MRLB NIL=
200703010800 METAR MRLB NIL=
200703010900 METAR MRLB NIL=
200703011100 METAR MRLB NIL=
200703011300 METAR MRLB 011300Z 03006KT 9999 NSC 22/19 A2974 RMK LG HZ ARND TRACE CU=
200703011400 METAR MRLB 011400Z 27002KT 9999 NSC 28/19 A2975 RMK HZY=
200703011500 METAR MRLB 011500Z 07017KT 9999 NSC 28/19 A2976 RMK TRACE OF CU=
200703011600 METAR MRLB 011600Z 07017KT 9999 FEW040 32/18 A2976=
200703011700 METAR MRLB 011700Z 09013KT 9999 FEW040 33/17 A2973=
200703011800 METAR MRLB 011800Z 08013KT 9999 FEW040 34/17 A2970=
200703011900 METAR MRLB NIL=
200703012000 METAR MRLB NIL=
200703012100 METAR MRLB NIL=
200703012200 METAR MRLB NIL=
200703012300 METAR MRLB 012300Z 08018KT CAVOK 31/17 A2963=
200703020000 METAR MRLB NIL=
200703020100 METAR MRLB 020100Z 09012KT CAVOK 29/18 A2967=
200703020200 METAR MRLB 020200Z 10006KT CAVOK 28/18 A2971=
200703020300 METAR MRLB NIL=
200703020400 METAR MRLB NIL=
200703020500 METAR MRLB NIL=
200703020600 METAR MRLB NIL=
200703020700 METAR MRLB NIL=
200703020800 METAR MRLB NIL=
200703020900 METAR MRLB NIL=
200703021000 METAR MRLB NIL=
200703021200 METAR MRLB 021200Z 24005KT CAVOK 21/18 A2973=
200703021300 METAR MRLB NIL=
200703021400 METAR MRLB NIL=
200703021500 METAR MRLB 021500Z 08004KT CAVOK 30/18 A2978=
200703021700 METAR MRLB NIL=
200703021800 METAR MRLB 021800Z 08010KT CAVOK 33/15 A2972=
200703021900 METAR MRLB 021900Z 08012KT CAVOK 35/14 A2968=
200703022000 METAR MRLB 022000Z 07014KT CAVOK 35/15 A2966=
200703022100 METAR MRLB 022100Z 07010KT CAVOK 34/15 A2964=
200703022200 METAR MRLB 022200Z 06015KT CAVOK 33/15 A2963=
200703022300 METAR MRLB NIL=
200703030000 METAR MRLB NIL=
200703030100 METAR MRLB NIL=
200703030200 METAR MRLB 030200Z 07012KT CAVOK 27/18 A2972=
200703030300 METAR MRLB NIL=
200703030400 METAR MRLB NIL=
200703030500 METAR MRLB NIL=
200703030600 METAR MRLB NIL=
200703030700 METAR MRLB NIL=
200703030800 METAR MRLB NIL=
200703030900 METAR MRLB NIL=
200703031100 METAR MRLB NIL=
200703031200 METAR MRLB 031200Z 03003KT 9999 NSC 20/17 A2976 RMK TRACE SC HZY=
200703031300 METAR MRLB 031300Z 02004KT 9999 NSC 21/18 A2978 RMK HZ LEVE ARNWD TRACE SC=
200703031400 METAR MRLB 031400Z 28002KT 9999 NSC 26/18 A2979=
200703031500 METAR MRLB 031500Z VRB02KT 9999 NSC 29/18 A2979 TRACE CU=
200703031600 METAR MRLB 031600Z 08015KT 9999 NSC 32/16 A2978 TRACE CU=
200703031700 METAR MRLB 031700Z 10012KT 9999 NSC 33/15 A2976=
200703031800 METAR MRLB 031800Z 08014KT 9999 FEW040 33/17 A2975=
200703031900 METAR MRLB 031900Z 08014KT CAOK 34/16 A2971=
200703032000 METAR MRLB 032000Z 07013KT CAVOK 34/16 A2968=
200703032100 METAR MRLB 032100Z 06015KT 9999 FEW040 36/16 A2966=
200703032200 METAR MRLB 032200Z 07015KT CAVOK 33/16 A2966 RMK FEW CU=
200703032300 METAR MRLB 032300Z 06017KT CAVOK 32/17 A2960 RMK BKN250=
200703040000 METAR MRLB NIL=
200703040100 METAR MRLB 040100Z 07016KT CAVOK 28/18 A2970=
200703040200 METAR MRLB 040200Z NIL=
200703040300 METAR MRLB NIL=
200703040400 METAR MRLB NIL=
200703040500 METAR MRLB NIL=
200703040700 METAR MRLB NIL=
200703040800 METAR MRLB NIL=
200703040900 METAR MRLB NIL=
200703041000 METAR MRLB NIL=
200703041100 METAR MRLB NIL=
200703041200 METAR MRLB 041200Z 30003KT 9999 SKC 22/18 A2980=
200703041300 METAR MRLB 041300Z 35004KT 9999 SKC 23/18 A2982=
200703041500 METAR MRLB NIL=
200703041600 METAR MRLB 041600Z 07011KT 9999 SKC 32/14 A2985=
200703041700 METAR MRLB 041700Z 09022KT 9999 SKC 33/15 A2983 RMK GST28KT=
200703041800 METAR MRLB 041800Z 08021KT 9999 NSC 34/13 A2981 RMK GST29KT TRACE CU=
200703042000 METAR MRLB 042000Z 08020KT 9999 FEW040 35/15 A2975 RMK GST26KT=
200703042100 METAR MRLB 042100Z 07018KT 9999 FEW040 35/15 A2973=
200703042200 METAR MRLB 042200Z 08018KT 9999 FEW040 32/17 A2972=
200703042300 METAR MRLB NIL=
200703050000 METAR MRLB 050000Z 07019KT CAVOK 29/18 A2975=
200703050100 METAR MRLB NIL=
200703050200 METAR MRLB NIL=
200703050300 METAR MRLB NIL=
200703050400 METAR MRLB NIL=
200703050500 METAR MRLB NIL=
200703050600 METAR MRLB NIL=
200703050700 METAR MRLB NIL=
200703050800 METAR MRLB NIL=
200703050900 METAR MRLB NIL=
200703051000 METAR MRLB NIL=
200703051100 METAR MRLB NIL=
200703051200 METAR MRLB 051200Z 07015KT 9999 FEW035 BKN250 25/18 A2984=
200703051300 METAR MRLB 051300Z 07018KT 9999 SCT035 25/18 A2985 RMK RAFAGAS 27KT=
200703051400 METAR MRLB 051400Z 07024KT 9999 FEW035 SCT250 28/17 A2988 RMK RAFAGAS 32KTS=
200703051500 METAR MRLB 051500Z 07029KT 9999 FEW035 BKN250 28/17 A2988 RMK RAFAGAS 38KTS=
200703051600 METAR MRLB 051600Z 06026KT CAVOK 29/17 A2989 RMK BKN250 RAFAGAS 32KTS=
200703051700 METAR MRLB 051700Z 06031KT CAVOK 31/16 A2986 RMK BKN250 RAFAGAS 38KT=
200703051800 METAR MRLB NIL=
200703051900 METAR MRLB 051900Z 06028KT CAVOK 33/14 A2981 RMK FEW250 RAFAGAS 35KT=
200703052000 METAR MRLB 052000Z 07025KT CAVOK 33/15 A2978 RMK SCT250 RAFAGAS 31KT=
200703052100 METAR MRLB NIL=
200703052200 METAR MRLB 052200Z 07026KT CAVOK 32/13 A2976=
200703052300 METAR MRLB 052300Z 07020KT CAVOK 31/12 A2978=
200703060100 METAR MRLB 060100Z 07017KT CAVOK 27/16 A2983=
200703060200 METAR MRLB 060200Z 07018KT CAVOK 26/17 A2986=
200703060300 METAR MRLB NIL=
200703060400 METAR MRLB NIL=
200703060500 METAR MRLB NIL=
200703060600 METAR MRLB NIL=
200703060700 METAR MRLB NIL=
200703060800 METAR MRLB NIL=
200703060900 METAR MRLB NIL=
200703061000 METAR MRLB NIL=
200703061100 METAR MRLB NIL=
200703061200 METAR MRLB 061200Z 08020KT CAVOK 25/14 A2983=
200703061300 METAR MRLB 061300Z 08020KT CAVOK 26/14 A2984=
200703061400 METAR MRLB 061400Z 08020KT CAVOK 28/12 A2987=
200703061500 METAR MRLB 061500Z 06020G30KT CAVOK 29/12 A2988=
200703061600 METAR MRLB 061600Z 07025KT CAVOK 31/13 A2988=
200703061700 METAR MRLB 061700Z 07024KT CAVOK 32/19 A2987=
200703061800 METAR MRLB 061800Z 06020KT CAVOK 33/13 A2985=
200703061900 METAR MRLB 061900Z 06021KT CAVOK 33/14 A2983=
200703062000 METAR MRLB 062000Z 05023KT CAVOK 34/14 A2979=
200703062100 METAR MRLB 062100Z 07020KT CAVOK 33/15 A2977=
200703062200 METAR MRLB 062200Z 07022KT CAVOK 31/17 A2978=
200703062300 METAR MRLB 062300Z 07020KT CAVOK 30/16 A2979=
200703070000 METAR MRLB 070000Z 07020KT CAVOK 27/16 A2982=
200703070100 METAR MRLB 070100Z 08018KT CAVOK 27/15 A2983=
200703070200 METAR MRLB 070200Z 07018KT CAVOK 26/15 A2985=
200703070300 METAR MRLB NIL=
200703070400 METAR MRLB NIL=
200703070500 METAR MRLB NIL=
200703070600 METAR MRLB NIL=
200703070700 METAR MRLB NIL=
200703070800 METAR MRLB NIL=
200703070900 METAR MRLB NIL=
200703071000 METAR MRLB NIL=
200703071100 METAR MRLB NIL=
200703071200 METAR MRLB 071200Z 08019G29KT CAVOK 25/17 A2984 RMK BKN300=
200703071300 METAR MRLB 071300Z 08020KT CAVOK 26/16 A2985 RMK BKN250 RAFAGAS DE 28KT=
200703071400 METAR MRLB 071400Z 09016KT CAVOK 28/17 A2987 RMK BKN250=
200703071500 METAR MRLB 071500Z 07019KT CAVOK 29/16 A2988 RMK BKN250 RAFAGAS DE 26KT=
200703071600 METAR MRLB 071600Z 07020KT CAVOK 31/16 A2989 RMK BKN250 RAFAGAS DE 27KT=
200703071700 METAR MRLB 071700Z 08017KT 9999 FEW035 BKN250 31/16 A2988=
200703071800 METAR MRLB 071800Z 06022KT CAVOK 32/16 A2986 RMK SCT250 TRAZAS CU RAFAGAS DE 27KT=
200703071900 METAR MRLB 071900Z 08017KT CAVOK 32/16 A2983 RMK BKN250=
200703072000 METAR MRLB 072000Z 06016KT CAVOK 33/15 A2980 RMK BKN250=
200703072100 METAR MRLB 072100Z 06019KT CAVOK 31/16 A2979 BKN250=
200703072200 METAR MRLB 072200Z 06018KT CAVOK 32/16 A2978 BKN250=
200703072300 METAR MRLB 072300Z 06019KT CAVOK 29/16 A2980 BKN250=
200703080000 METAR MRLB 080000Z 07019KT CAVOK 28/16 A2980 BKN250=
200703080100 METAR MRLB 080100Z 08014KT CAVOK 27/15 A2982/BKN250=
200703080200 METAR MRLB 080200Z 08014KT CAVOK 27/16 A2984/BKN250=
200703080300 METAR MRLB NIL=
200703080400 METAR MRLB NIL=
200703080500 METAR MRLB NIL=
200703080600 METAR MRLB NIL=
200703080700 METAR MRLB NIL=
200703080800 METAR MRLB NIL=
200703080900 METAR MRLB NIL=
200703081000 METAR MRLB NIL=
200703081200 METAR MRLB NIL=
200703081300 METAR MRLB 081300Z 03003KT CAVOK 22/17 A2986 FEW250=
200703081400 METAR MRLB 081400Z 00000KT CAVOK 26/17 A2987 FEW250=
200703081500 METAR MRLB 081500Z 07013KT CAVOK 30/16 A2988 FEW250=
200703081600 METAR MRLB 081600Z 07019KT CAVOK 31/16 A2987 TRACE CI GTS 26KT=
200703081700 METAR MRLB 081700Z 08018KT CAVOK 33/16 A2985 GTS 24KT TRACE CU=
200703081800 METAR MRLB 081800Z 08014KT 9999 FEW040 33/16 A2983=
200703081900 METAR MRLB 081900Z NIL=
200703082000 METAR MRLB 082000Z 07014KT 9999 FEW040 34/15 A2977=
200703082100 METAR MRLB 082100Z 07017KT 9999 FEW040 34/16 A2976=
200703082200 METAR MRLB 082200Z 07016KT 9999 FEW040 33/15 A2974=
200703082300 METAR MRLB 082300Z 06017KT CAVOK 32/14 A2975 RMK SCT250=
200703090000 METAR MRLB 090000Z 07014KT CAVOK 29/16 A2977 RMK SCT250=
200703090100 METAR MRLB 090100Z 08015KT CAVOK 28/17 A2979=
200703090200 METAR MRLB 090200Z 08014KT CAVOK 27/18 A2981=
200703090400 METAR MRLB NIL=
200703090500 METAR MRLB NIL=
200703090600 METAR MRLB NIL=
200703090700 METAR MRLB NIL=
200703090800 METAR MRLB NIL=
200703090900 METAR MRLB NIL=
200703091000 METAR MRLB NIL=
200703091100 METAR MRLB NIL=
200703091200 METAR MRLB 091200Z 06005KT 9999 NSC 20/16 A2983 RMK TRAZAS DE SC HZ LGT ARND=
200703091300 METAR MRLB 091300Z 02002KT 9999 NSC 23/17 A2984 RMK TRACE SC=
200703091400 METAR MRLB 091400Z 29003KT 9999 NSC 27/17 A2987 RMK TRACE CU=
200703091500 METAR MRLB NIL=
200703091600 METAR MRLB 091600Z 08019KT 9999 NSC 31/15 A2987 RMK TRACE SC=
200703091700 METAR MRLB 091700Z 08017KT 9999 NSC 32/14 A2985 RMK TRACE CU=
200703091800 METAR MRLB 091800Z 09015KT 9999 NSC 33/14 A2983 RMK TRACE CU=
200703091900 METAR MRLB 091900Z 08012KT 9999 NSC 33/14 A2981 RMK TRACE CU=
200703092000 METAR MRLB 092000Z 09014KT 9999 NSC 33/14 A2978 RMK TRACE CU=
200703092100 METAR MRLB 092100Z 09015KT CAVOK 32/14 A2975=
200703092200 METAR MRLB 092200Z 06014KT CAVOK 32/14 A2975=
200703092300 METAR MRLB 092300Z 09013KT CAVOK 31/20 A2976=
200703100000 METAR MRLB 100000Z 09013KT AVOK 29/16 A2979=
200703100100 METAR MRLB 100100Z 08013KT CAVOK 28/16 A2981=
200703100200 METAR MRLB 100200Z 06015KT CAVOK 27/17 A2983=
200703100400 METAR MRLB NIL=
200703100500 METAR MRLB NIL=
200703100700 METAR MRLB NIL=
200703100800 METAR MRLB NIL=
200703100900 METAR MRLB NIL=
200703101000 METAR MRLB NIL=
200703101100 METAR MRLB NIL=
200703101200 METAR MRLB 101200Z 00000KT CAVOK 21/16 A2984=
200703101300 METAR MRLB 101300Z 24003KT CAVOK 23/17 A2985=
200703101400 METAR MRLB 101400Z 00000KT CAVOK 28/17 A2988=
200703101500 METAR MRLB 101500Z 32004KT CAVOK 31/17 A2987=
200703101600 METAR MRLB 101600Z 08016KT CAVOK 31/17 A2987=
200703101700 METAR MRLB 101700Z 08018KT 9999 FEW030 SCT250 32/17 A2982=
200703101800 METAR MRLB 101800Z 07020KT 9999 FEW030 SCT200 32/17 A2983=
200703101900 METAR MRLB 101900Z 07020KT 9999 FEW035 SCT250 32/17 A2981=
200703102000 METAR MRLB 102000Z 07020KT 9999 FEW035 SCT180 31/17 A2980=
200703102100 METAR MRLB 102100Z 07020KT 9999 FEW045 SCT200 30/16 A2977=
200703102200 METAR MRLB 102200Z 08020KT CAVOK 30/16 A2976=
200703102300 METAR MRLB 102300Z 06022KT CAVOK 29/17 A2978=
200703110000 METAR MRLB 110000Z 07018KT CAVOK 28/17 A2980=
200703110100 METAR MRLB 110100Z 08018KT CAVOK 27/17 A2981=
200703110200 METAR MRLB 110200Z 08018KT CAVOK 27/17 A2982=
200703110500 METAR MRLB NIL=
200703110600 METAR MRLB NIL=
200703110700 METAR MRLB NIL=
200703110800 METAR MRLB NIL=
200703110900 METAR MRLB NIL=
200703111100 METAR MRLB NIL=
200703111200 METAR MRLB 111200Z 23005KT 9999 SCT040 SCT120 25/19 A2983 RMK HZ LGT ARND=
200703111300 METAR MRLB 111300Z 30005KT 9999 FEW040 SCT120 25/19 A2985 RMK RN DST N/E OVR RDGS HZY=
200703111400 METAR MRLB 111400Z 08016KT 9999 FEW040 SCT120 28/18 A2985=
200703111500 METAR MRLB 111500Z 07019KT 9999 FEW040 SCT120 31/18 A2987 RMK RFGS 26KT=
200703111600 METAR MRLB 111600Z 09019KT 9999 FEW040 31/18 A2984 RMK RFGS 25KT=
200703111700 METAR MRLB 111700Z 07021KT 9999 FEW040 SCT120 32/18 A2983 RMK RFGS 27KT=
200703111800 METAR MRLB 111800Z 07026G38KT 9999 SCT035 SCT120 31/19 A2984 RMK RN DST N NE=
200703111900 METAR MRLB 111900Z 07021KT 9999 FEW035 SCT120 31/19 A2983 RMK RN DST N NE=
200703112000 METAR MRLB 112000Z 06024KT 9999 FEW035 BKN120 28/18 A2981 RMK RFGS 29KT RN N NE=
200703112100 METAR MRLB 112100Z 07020KT 9999 FEW035 BKN120 30/18 A2978 RMK DST N/NE RAFAGAS DE 28KT=
200703112200 METAR MRLB 112200Z 06022KT 9999 FEW035 BKN120 29/17 A2978 RMK HZY RAFAGAS 27KT=
200703112300 METAR MRLB 112300Z 07021Z 9999 FEW035 BKN120 28/18 A2978 RMK HZY RAFAGAS DE 27KT=
200703120000 METAR MRLB 120000Z 07022KT 9999 FEW035 BKN120 28/18 A2979 RMK HZ ARND=
200703120100 METAR MRLB 120100Z 07015KT 9999 FEW035 SCT120 27/17 A2980=
200703120200 METAR MRLB NIL=
200703120300 METAR MRLB NIL=
200703120400 METAR MRLB NIL=
200703120600 METAR MRLB NIL=
200703120700 METAR MRLB NIL=
200703120800 METAR MRLB NIL=
200703120900 METAR MRLB NIL=
200703121000 METAR MRLB NIL=
200703121100 METAR MRLB NIL=
200703121200 METAR MRLB 121200Z 00000KT CAVOK 25717 A2984 RMK BKN120 HZ ARND=
200703121300 METAR MRLB 121300Z 03005KT CAVOK 26/17 A2986 RMK BKN120 HZ ARND=
200703121400 METAR MRLB 121400Z 05009KT CAVOK 28/17 A2987 RMK BKN130 HZ ARND=
200703121500 METAR MRLB 121500Z 03007KT CAVOK 29/18 A2987 RMK HZ ARND=
200703121600 METAR MRLB 121600Z 08018KT CAVOK 30/17 A2986 RMK BKN130 HZ ARND RAFAGAS DE 25KT=
200703121700 METAR MRLB 121700Z 08021KT CAVOK 31/18 A2985 RMK SCT130 HZ LGT ARND RAFAGAS DE 30KT=
200703121800 METAR MRLB 121800Z 07022KT CAVOK 33/17 A2983 RMK SCT130 HZ LGT ARND RAFAGAS DE 31KT=
200703121900 METAR MRLB 121900Z 07020KT CAVOK 33/17 A2981 RMK SCT130 RAFAGAS DE 26KT=
200703122000 METAR MRLB 122000Z 07022G34KT 9999 FEW040 SCT130 33/18=
200703122100 METAR MRLB 122100Z 07021KT 9999 FEW040 BKN130 33/17 A2977=
200703122200 METAR MRLB 122200Z 07020KT 9999 FEW040 BKN130 31/18 A2977=
200703122300 METAR MRLB 122300Z 07020G30KT 9999 FEW040 BKN130 30/18 A2978=
200703130000 METAR MRLB 130000Z 08014KT CAVOK 29/18 A2980 BKN120=
200703130100 METAR MRLB 130100Z 08018KT CAVOK 28/18 A2982/BKN120=
200703130200 METAR MRLB 130200Z 08018KT CAVOK 27/18 A2986 BKN120=
200703130300 METAR MRLB NIL=
200703130500 METAR MRLB NIL=
200703130600 METAR MRLB NIL=
200703130700 METAR MRLB NIL=
200703130800 METAR MRLB NIL=
200703130900 METAR MRLB NIL=
200703131000 METAR MRLB NIL=
200703131100 METAR MRLB NIL=
200703131200 METAR MRLB 131200Z 06006KT 9999 NSC 23/17 A2987 RMK TRACE CU LGT HZ ARND=
200703131300 METAR MRLB 131300Z 09015KT 9999 NSC 27/16 A2989 HZY TRACE CU=
200703131400 METAR MRLB 131400Z 08017KT 9999 NSC 29/14 A2991 HZY TRACE CU=
200703131500 METAR MRLB 131500Z 08020KT 9999 NSC 30/13 A2992 TRACE CU HZY=
200703131600 METAR MRLB 131600Z 08020KT CAVOK 32/12 A2993 HZY FEW300=
200703131700 METAR MRLB 131700Z 08024KT CAVOK 33/12 A2991 FEW300 HZY=
200703131800 METAR MRLB 131800Z 08019KT CAVOK 33/13 A2988 HZY FEW300=
200703131900 METAR MRLB 131900Z 06020KT CAVOK 34/14 A2986 HZY FEW300=
200703132000 METAR MRLB 132000Z 07020KT CAVOK 33/14 A2983 HZY FEW300=
200703132100 METAR MRLB 132100Z 08019KT CAVOK 33/15 A2980=
200703132300 METAR MRLB 132300Z 05020KT CAVOK 30/13 A2980=
200703140000 METAR MRLB 140000Z 07013KT CAVOK 29/15 A2982=
200703140100 METAR MRLB 140100Z 08012KT CAVOK 27/16 A2983=
200703140200 METAR MRLB 140200Z 08008KT CAVOK 27/16 A2986=
200703140300 METAR MRLB NIL=
200703140400 METAR MRLB NIL=
200703140500 METAR MRLB NIL=
200703140600 METAR MRLB NIL=
200703140700 METAR MRLB NIL=
200703140800 METAR MRLB NIL=
200703140900 METAR MRLB NIL=
200703141100 METAR MRLB NIL=
200703141200 METAR MRLB 141200Z 00000KT CAVOK 21/16 A2986=
200703141300 METAR MRLB 141300Z 05004KT CAVOK 22/16 A2989=
200703141400 METAR MRLB 141400Z 06008KT CAVOK 28/16 A2990=
200703141500 METAR MRLB 141500Z 06011KT CAVOK 30/15 A2990=
200703141600 METAR MRLB 141600Z 09009KT CAVOK 32/14 A2990=
200703141700 METAR MRLB 141700Z 08014KT CAVOK 33/14 A2988=
200703141800 METAR MRLB 141800Z 08011KT CAVOK 34/15 A2985=
200703141900 METAR MRLB 141900Z 10003KT 9999 FEW035 34/16 A2983=
200703142000 METAR MRLB 142000Z 07010KT 9999 FEW035 SCT250 33/15 A2981=
200703142100 METAR MRLB 142100Z 08008KT CAVOK 33/15 A2977=
200703142200 METAR MRLB 142200Z 08006KT CAVOK 33/15 A2977=
200703142300 METAR MRLB 142300Z 06013KT CAVOK 32/15 A2977=
200703150000 METAR MRLB 150000Z 05011KT CAVOK 29/15 A2980=
200703150100 METAR MRLB 150100Z 07012KT CAVOK 28/17 A2981=
200703150200 METAR MRLB 150200Z 08011KT CAVOK 27/17 A2985=
200703150300 METAR MRLB NIL=
200703150400 METAR MRLB NIL=
200703150500 METAR MRLB NIL=
200703150600 METAR MRLB NIL=
200703150700 METAR MRLB NIL=
200703150800 METAR MRLB NIL=
200703150900 METAR MRLB NIL=
200703151000 METAR MRLB NIL=
200703151100 METAR MRLB NIL=
200703151200 METAR MRLB 151200Z 00000KT CAVOK 20/16 A2982 FEW300=
200703151300 METAR MRLB 151300Z 07003KT CAVOK 23/17 A2985 RMK FEW300=
200703151400 METAR MRLB 151400Z 05002KT CAVOK 27/17 A2987 RMK FEW300=
200703151500 METAR MRLB 151500Z 34003KT CAVOK 30/16 RMK FEW300=
200703151600 METAR MRLB 151600Z 08010KT CAVOK 32/14 A2987 RMK FEW300=
200703151700 METAR MRLB 151700Z 05010KT CAVOK 34/14 A2985 RMK FEW300=
200703151800 METAR MRLB 151800Z 09006KT CAVOK 34/14 A2982 RMK FEW300=
200703151900 METAR MRLB 151900Z 27009KT 9999 FEW040 34/16 A2978=
200703152000 METAR MRLB 152000Z 29011KT 9999 SCT040 33/16 A2976=
200703152100 METAR MRLB 152100Z 28012KT 9999 SCT040 32/15 A2974=
200703152200 METAR MRLB 152200Z 30008KT 9999 FEW040 32/15 A2973=
200703152300 METAR MRLB 152300Z 30008KT 9999 FEW040 32/15 A2973=
200703160000 METAR MRLB 160000Z 27004KT CAVOK 30/16 A2976 RMK FEW130=
200703160100 METAR MRLB 160100Z 24003KT CAVOK 28/17 A2979=
200703160200 METAR MRLB 160200Z 21002KT CAVOK 27/17 A2982=
200703160300 METAR MRLB NIL=
200703160400 METAR MRLB NIL=
200703160700 METAR MRLB NIL=
200703160800 METAR MRLB NIL=
200703160900 METAR MRLB NIL=
200703161000 METAR MRLB NIL=
200703161100 METAR MRLB NIL=
200703161200 METAR MRLB 161200Z 00000KT 8000 SCT250 19/16 A2982 RMK FU ARND=
200703161300 METAR MRLB 161300Z 00000KT CAVOK 22/17 A2984 RMK SCT250 FU ARND=
200703161400 METAR MRLB 161400Z 00000KT CAVOK 26/18 A2986 RMK SCT250 FU ARND=
200703161500 METAR MRLB 161500Z 33003KT 28/17 A2987 BKN250=
200703161600 METAR MRLB 161600Z 07004KT CAVOK 32/17 A2986 RMK BKN250=
200703161700 METAR MRLB 161700Z 05007KT CAVOK 33/15 A2984 RMK BKN250=
200703161800 METAR MRLB 161800Z 02004KT 9999 FEW040 SCT250 34/15 A2982=
200703161900 METAR MRLB 161900Z 04008KT 9999 FEW040 36/15 A2978=
200703162000 METAR MRLB 162000Z 07005KT 9999 SCT040 35/15 A2975=
200703162100 METAR MRLB 162100Z 26011KT 9999 SCT040 33/18 A2973=
200703162200 METAR MRLB 162200Z 28011KT 9999 SCT035 32/18 A2973=
200703162300 METAR MRLB 162300Z 29007KT 9999 SCT035 31/18 A2974=
200703170000 METAR MRLB NIL=
200703170100 METAR MRLB NIL=
200703170200 METAR MRLB 170200Z 18005KT CAVOK 27/18 A2982=
200703170300 METAR MRLB NIL=
200703170400 METAR MRLB NIL=
200703170500 METAR MRLB NIL=
200703170600 METAR MRLB NIL=
200703170700 METAR MRLB NIL=
200703171000 METAR MRLB NIL=
200703171100 METAR MRLB NIL=
200703171200 METAR MRLB 171200Z 19002KT CAVOK 21/17 A2988 RMK HZ ARND BKN250=
200703171300 METAR MRLB 171300Z 00000KT CAVOK 23/18 A2990 RMK HZ LGT ARND BKN250=
200703171400 METAR MRLB 171400Z 18005KT CAVOK 26/18 A2991 RMK HZ LGT ARND BKN250=
200703171500 METAR MRLB 171500Z 31004KT CAVOK 29/17 A2993 RMK HZ LGT ARND BKN250=
200703171600 METAR MRLB 171600Z 01005KT CAVOK 31/17 A2992 RMK HZ LGT ARND=
200703171700 METAR MRLB 171700Z 08012KT CAVOK 32/16 A2991 RMK BKN250=
200703171800 METAR MRLB 171800Z 08014KT 9999 FEW040 SCT250 33/15 A2989=
200703171900 METAR MRLB 171900Z 06011G22KT 9999 FEW040 SCT250 33/15 A2984=
200703172000 METAR MRLB 172000Z 08006KT 9999 FEW040 SCT250 34/15 A2981=
200703172100 METAR MRLB 172100Z 06010KT 9999 FEW035 SCT250 33/15 A2979=
200703172200 METAR MRLB 172200Z 05012KT 9999 FEW035 SCT250 34/15 A2977=
200703172300 METAR MRLB 172300Z 07013KT CAVOK 32/15 A2978=
200703180000 METAR MRLB 180000Z 06014KT CAVOK 30/17 A2980=
200703180100 METAR MRLB 180100Z 07013KT CAVOK 29/17 A2983=
200703180200 METAR MRLB 180200Z 07015KT CAVOK 28/17 A2984=
200703180300 METAR MRLB NIL=
200703180500 METAR MRLB NIL=
200703180600 METAR MRLB NIL=
200703180700 METAR MRLB NIL=
200703180800 METAR MRLB NIL=
200703180900 METAR MRLB NIL=
200703181000 METAR MRLB NIL=
200703181200 METAR MRLB 181200Z 03003KT CAVOK 25/17 A2984=
200703181300 METAR MRLB 181300Z 06012KT CAVOK 27/18 A2986=
200703181400 METAR MRLB 181400Z 08017KT CAVOK 29/17 A2990=
200703181500 METAR MRLB 181500Z 08018KT 9999 SCT030 30/18 A2991=
200703181600 METAR MRLB NIL=
200703181700 METAR MRLB 181700Z 08018G28KT 9999 SCT030 30/17 A2988=
200703181800 METAR MRLB 181800Z 08020G30KT 9999 SCT030 31/17 A2987=
200703181900 METAR MRLB 181900Z 08020G30KT 9999 SCT030 32/17 A2985=
200703182000 METAR MRLB 182000Z 08019KT 9999 FEW025 SCT040 31/17 A2981=
200703182100 METAR MRLB 182100Z 07020G30KT 9999 SCT030 31/17 A2979=
200703182200 METAR MRLB 182200Z 07020G30KT 9999 SCT035 29/16 A2979=
200703182300 METAR MRLB 182300Z 08020G30KT 9999 FEW030 SCT100 28/16 A2980=
200703190000 METAR MRLB 190000Z 09018KT 9999 FEW035 SCT150 27/17 A2982=
200703190100 METAR MRLB 190100Z 08020KT CAVOK 27/17 A2985=
200703190200 METAR MRLB 190200Z 07017KT CAVOK 26/17 A2987=
200703190400 METAR MRLB NIL=
200703190600 METAR MRLB NIL=
200703190700 METAR MRLB NIL=
200703190800 METAR MRLB NIL=
200703190900 METAR MRLB NIL=
200703191000 METAR MRLB NIL=
200703191100 METAR MRLB NIL=
200703191200 METAR MRLB 191200Z 29007KT 9999 NSC 23/18 A2984 RMK TRAZAS DE SC=
200703191300 METAR MRLB 191300Z 02006KT 9999 NSC 26/17 A2985 RMK TRACE SC=
200703191400 METAR MRLB 191400Z 28006KT 9999 NSC 27/17 A2987 RMK TRACE CU=
200703191500 METAR MRLB 191500Z 02010KT 9999 NSC 30/17 A2989 RMK TRACE CU=
200703191600 METAR MRLB 191600Z 08020KT 9999 NSC 32/15 A2988 RMK TRACE CU GST29KT=
200703191700 METAR MRLB 191700Z 09019KT 9999 NSC 31/15 A2988 RMK TRACE CU GST27KT=
200703191800 METAR MRLB 191800Z 09017KT 9999 NSC 33/15 A2986 RMK TRACE CU CI=
200703191900 METAR MRLB 191900Z 09020KT CAVOK 32/16 A2984 RMK BKN300 GST27KT=
200703192000 METAR MRLB 192000Z 08022KT 9999 FEW040 BKN300 32/17 A2981 RMK GST29KT=
200703192100 METAR MRLB NIL=
200703192200 METAR MRLB 192200Z 09017KT 9999 FEW045 BKN300 32/18 A2978=
200703192300 METAR MRLB 192300Z 09017KT CAVOK 29/16 A2979 RMK SCT300=
200703200000 METAR MRLB 200000Z 08020KT 9999 NSC 28/17 2990 TRACE CU=
200703200100 METAR MRLB 20100Z 09020G33KT 9999 NSC 27/18 A2983. TRACE CU=
200703200200 METAR MRLB 200200Z 09020KT 9999 NSC 26/18 A2986.TRACE CU=
200703200300 METAR MRLB NIL=
200703200700 METAR MRLB NIL=
200703200900 METAR MRLB NIL=
200703201000 METAR MRLB NIL=
200703201100 METAR MRLB NIL=
200703201200 METAR MRLB 201200Z 25002KT CAVOK 24/18 A2984 SCT270=
200703201300 METAR MRLB 201300Z 05005KT CAVOK 27/18 A2986=
200703201400 METAR MRLB 201400Z 07017KT CAVOK 29/16 A2988 RMK FEW270=
200703201500 METAR MRLB 201500Z 09018KT CAVOK 30/16 A2989 RMK FEW270=
200703201600 METAR MRLB 201600Z 08022KT CAVOK 30/17 A2989 RMK FEW270=
200703201700 METAR MRLB 201700Z 08021KT CAVOK 31/17 A2988 RMK FEW260=
200703201800 METAR MRLB 201800Z 08022KT 9999 NSC 32/17 A2985 RMK TRACE CU=
200703201900 METAR MRLB 201900Z 09019KT 9999 NSC 33/17 A2981 RMK TRACE CU=
200703202000 METAR MRLB 202000Z 07022KT 9999 FEW035 33/17 A2978=
200703202100 METAR MRLB 202100Z 09019KT 9999 FEW035 32/18 A2977=
200703202200 METAR MRLB 202200Z 08023KT 9999 FEW040 31/17 A2977=
200703202300 METAR MRLB 202300Z 09021KT CAVOK 29/16 A2977 RMK FEW260=
200703210000 METAR MRLB 210000Z 08021KT CAVOK 28/15 A2978 RMK SCT260=
200703210100 METAR MRLB 210100Z 08020KT CAVOK 27/13 A2979=
200703210200 METAR MRLB NIL=
200703210300 METAR MRLB NIL=
200703210400 METAR MRLB NIL=
200703210500 METAR MRLB NIL=
200703210700 METAR MRLB NIL=
200703210800 METAR MRLB NIL=
200703210900 METAR MRLB NIL=
200703211000 METAR MRLB NIL=
200703211100 METAR MRLB NIL=
200703211200 METAR MRLB 211200Z 09013KT CAVOK 25/16 A2978 RMK FEW140 FEW250=
200703211300 METAR MRLB 211300Z 06009KT CAVOK 26/17 A2981 RMK SCT140 FEW250=
200703211400 METAR MRLB 211400Z 08017KT CAVOK 28/16 A2983 RMK SCT130=
200703211500 METAR MRLB 211500Z 08014KT CAVOK 30/16 A2985 RMK TRAZAS CU FEW140=
200703211600 METAR MRLB 211600Z 09019KT CAVOK 31/17 A2985 RMK FEWAC/CI=
200703211700 METAR MRLB 211700Z 08021KT CAVOK 31/16 A2985 RMK TRAZAS CU FEW250=
200703211800 METAR MRLB 211800Z 07023KT 9999 FEW040 32/16 A2983 RMK RFGS 32KT=
200703211900 METAR MRLB 211900Z 08023KT 9999 FEW040 33/16 A2980 RMK RFGS 31KT=
200703212000 METAR MRLB 212000Z 07021KT 9999 FEW040 32/16 A2978=
200703212100 METAR MRLB 212100Z 06018KT 9999 FEW040 33/16 A2976=
200703212200 METAR MRLB 212200Z 08019KT CAVOK 32/15 A2975 RMK FEW100=
200703212300 METAR MRLB 212300Z 07018KT CAVOK 31/16 A2976 RMK FEW150=
200703220000 METAR MRLB 220000Z 06017KT CAVOK 29/16 A2978=
200703220100 METAR MRLB 220100Z 09018KT CAVOK 28/17 A2979=
200703220200 METAR MRLB 220200Z 09017KT CAVOK 27/18 A2981 RMK FEWCI=
200703220300 METAR MRLB NIL=
200703220400 METAR MRLB NIL=
200703220500 METAR MRLB NIL=
200703220600 METAR MRLB NIL=
200703220700 METAR MRLB NIL=
200703220800 METAR MRLB NIL=
200703220900 METAR MRLB NIL=
200703221000 METAR MRLB NIL=
200703221200 METAR MRLB 221200Z 00000KT CAVOK 22/18 A2981 RMK FEW250=
200703221300 METAR MRLB 221300Z 29003KT CAVOK 25/18 A2983 RMK FEW250=
200703221400 METAR MRLB 221400Z 25005KT CAVOK 28/18 A2984 RMK FEW200=
200703221500 METAR MRLB 221500Z 09015KT 9999 FEW040 30/17 A2985=
200703221600 METAR MRLB 221600Z 08017KT 9999 FEW040 31/18 A2984=
200703221700 METAR MRLB 221700Z 07022KT 9999 FEW040 32/17 A2982=
200703221800 METAR MRLB 221800Z 07019G29KT 9999 SCT035 32/16 A2979=
200703221900 METAR MRLB 221900Z 07021KT 9999 SCT035 32/16 A2976=
200703222000 METAR MRLB 222000Z 07018KT 9999 FEW040 33/16 A2973=
200703222100 METAR MRLB 222100Z 08017KT 9999 FEW040 32/16 A2972=
200703222200 METAR MRLB 222200Z 06023KT 9999 FEW045 31/16 A2971=
200703222300 METAR MRLB 222300Z 07020KT 9999 FEW045 30/16 A2971=
200703230000 METAR MRLB 230000Z 09016KT CAVOK 28/16 A2972 FEW080=
200703230100 METAR MRLB 230100Z 08018KT CAVOK 27/16 A2978 RMK FEW100=
200703230200 METAR MRLB 230200Z 07018KT CAVOK 26/17 A2978 FEW100=
200703230300 METAR MRLB NIL=
200703230400 METAR MRLB NIL=
200703230700 METAR MRLB NIL=
200703230800 METAR MRLB NIL=
200703230900 METAR MRLB NIL=
200703231000 METAR MRLB NIL=
200703231100 METAR MRLB NIL=
200703231200 METAR MRLB 231200Z 09012KT 9999 NSC 26/18 A2977 RMK TRAZAS SC=
200703231300 METAR MRLB 231300Z 31003KT 9999 NSC 25/18 A2981 TRACE SCT=
200703231400 METAR MRLB 231400Z 09013KT 9999 NSC 29/17 A2981 TRACE CU=
200703231500 METAR MRLB 231500Z 09018KT 9999 NSC 30/16 A2982 TRACE CU=
200703231600 METAR MRLB 231600Z 08019KT 9999 NSC 31/14 A2982 TRACE CU=
200703231700 METAR MRLB 231700Z 08017KT 9999 NSC 32/15 A2981 TRACE CU=
200703231800 METAR MRLB 231800Z 08013KT 9999 NSC 33/15 A2979 TRACE CU=
200703231900 METAR MRLB 231900Z 08014KT 9999 NSC 34/15 A2976 TRACE CU=
200703232000 METAR MRLB 232000Z 06012KT 9999 FEW040 34/15 A2975=
200703232100 METAR MRLB 232100Z 07010KT 9999 FEW040 34/15 A2973=
200703232200 METAR MRLB 232200Z 08012KT 9999 FEW040 33/15 A2973=
200703232300 METAR MRLB 232300Z 06015KT 9999 FEW040 33/16 A2973=
200703240000 METAR MRLB 240000Z 08010KT 9999 FEW040 30/17 A2977=
200703240100 METAR MRLB 240100Z 05006KT 9999 FEW040 28/17 A2976=
200703240200 METAR MRLB 240200Z 08006KT 9999 FEW040 28/17 A2978=
200703240300 METAR MRLB NIL=
200703240400 METAR MRLB NIL=
200703240500 METAR MRLB NIL=
200703240600 METAR MRLB NIL=
200703240700 METAR MRLB NIL=
200703240800 METAR MRLB NIL=
200703240900 METAR MRLB NIL=
200703241000 METAR MRLB NIL=
200703241100 METAR MRLB NIL=
200703241200 METAR MRLB 241200Z 18003KT CAVOK 22/18 A2983 RMK FEW260=
200703241300 METAR MRLB 241300Z 25003KT CAVOK 26/18 A2985 RMK FEW260=
200703241400 METAR MRLB 241400Z 09009KT CAVOK 29/17 A2986 RMK FEW260=
200703241500 METAR MRLB 241500Z 08013KT 9999 FEW035 30/18 A2987=
200703241600 METAR MRLB 241600Z 09018KT 9999 FEW035 30/17 A2986=
200703241700 METAR MRLB 241700Z 09016KT 9999 FEW040 33/16 A2985=
200703241800 METAR MRLB 241800Z 10013KT 9999 FEW040 33/16 A2983=
200703241900 METAR MRLB 241900Z 09015KT 9999 FEW035 32/12 A2981=
200703242000 METAR MRLB 242000Z 08015KT 9999 FEW040 34/16 A2978=
200703242100 METAR MRLB 242100Z 08017KT 9999 FEW040 34/16 A2976=
200703242200 METAR MRLB 242200Z 08016KT 9999 FEW040 32/17 A2976=
200703242300 METAR MRLB 242300Z 08015KT 9999 FEW040 31/16 A2975=
200703250000 METAR MRLB 250000Z 07015KT CAVOK 29/16 A2977 RMK FEW250=
200703250100 METAR MRLB NIL=
200703250200 METAR MRLB NIL=
200703250300 METAR MRLB NIL=
200703250400 METAR MRLB NIL=
200703250500 METAR MRLB NIL=
200703250600 METAR MRLB NIL=
200703250700 METAR MRLB NIL=
200703250800 METAR MRLB NIL=
200703250900 METAR MRLB NIL=
200703251000 METAR MRLB NIL=
200703251100 METAR MRLB NIL=
200703251300 METAR MRLB 251300Z 24003KT 9999 NSC 25/18 A2985 RMK TRACE SC=
200703251400 METAR MRLB 251400Z 24003KT 9999 NSC 27/18 A2987 RMK TRACE CU=
200703251500 METAR MRLB 251500Z 23003KT 9999 NSC 30/17 A2987 RMK TRCE CU=
200703251600 METAR MRLB 251600Z 34004KT 9999 NSC 32/15 A2985 RMK TRACE CU=
200703251700 METAR MRLB 251700Z 08016KT 9999 NSC 33/14 A2983 RMK TRACE CU HU NE=
200703251800 METAR MRLB 251800Z 08017KT 9999 1000N FU NSC 34/15 A2981 RMK TRACE CU GUST 21KT INCENDIO N=
200703251900 METAR MRLB 251900Z 08018KT 9999 NSC 34/15 A2978=
200703252000 METAR MRLB 252000Z 08015KT 9999 FEW040 34/15 A2995=
200703252100 METAR MRLB 252100Z 09015KT 9999 FEW040 33/14 A2974 RMK FU ARND=
200703252200 METAR MRLB 252200Z 07018KT 9999 FEW040 32/16 A2974=
200703252300 METAR MRLB 252300Z 07019KT 9999 FEW030 SCT100 30/16 A2975=
200703260000 METAR MRLB 260000Z 05017KT CAVOK 28/17 A2977 RMK FEW100=
200703260100 METAR MRLB 260100Z 08013KT CAVOK 28/16 A2980=
200703260200 METAR MRLB NIL=
200703260300 METAR MRLB NIL=
200703260400 METAR MRLB NIL=
200703260500 METAR MRLB NIL=
200703260600 METAR MRLB NIL=
200703260700 METAR MRLB NIL=
200703260800 METAR MRLB NIL=
200703260900 METAR MRLB NIL=
200703261000 METAR MRLB NIL=
200703261100 METAR MRLB NIL=
200703261200 METAR MRLB 261200Z 00000KT CAVOK 20/14 A2982 RMK TRACE SC=
200703261300 METAR MRLB 261300Z 00000KT CAVOK 24/16 A2984=
200703261400 METAR MRLB 261400Z 23004KT CAVOK 27/16 A2986 RMK FEW250=
200703261500 METAR MRLB 261500Z 00000KT CAVOK 30/14 A2985 RMK FEW250=
200703261600 METAR MRLB 261600Z 22004KT CAVOK 31/14 A2984 RMK FEW250=
200703261700 METAR MRLB 261700Z 10016KT CAVOK 33/13 A2982 RMK FEW250=
200703261800 METAR MRLB 261800Z 10013KT CAVOK 33/18 A2980 RMK FEW250=
200703261900 METAR MRLB 261900Z 09010KT CAVOK 34/14 A2974 RMK FEW250=
200703262000 METAR MRLB 262000Z 09010KT CAVOK 34/14 A2974 RMK FEW250=
200703262100 METAR MRLB 262100Z 09011KT CAVOK 34/14 A2973 RMK FEW250=
200703262200 METAR MRLB 262200Z 08010KT CAVOK 33/14 A2972 RMK FEW250=
200703262300 METAR MRLB 262300Z 08010KT CAVOK 32/14 A2973 RMK FEW250=
200703270000 METAR MRLB 270000Z 08010KT CAVOK 30/14 A2975 RMK FEW250=
200703270100 METAR MRLB 270100Z 07012KT CAVOK 29/15 A2978 RMK FEW250=
200703270200 METAR MRLB 270200Z 08010KT CAVOK 28/16 A2980 RMK FEW250=
200703270300 METAR MRLB NIL=
200703270400 METAR MRLB NIL=
200703270600 METAR MRLB NIL=
200703270700 METAR MRLB NIL=
200703270800 METAR MRLB NIL=
200703270900 METAR MRLB NIL=
200703271000 METAR MRLB NIL=
200703271100 METAR MRLB NIL=
200703271200 METAR MRLB 271200Z 05006KT 9999 NSC 19/16 A2983 RMK TRACE CI LEVE HZY=
200703271300 METAR MRLB 271300Z 01004KT 9999 NSC 23/17 A2984 RMK HZ LGT ARND TRAZAS CI=
200703271400 METAR MRLB 271400Z 06002KT 9999 NSC 26/17 A2986 RMK HZ LGT ARND TRAZAS CU=
200703271500 METAR MRLB 271500Z 18002KT 9999 NSC 30/16 A2985 RMK TRAZAS DE CU=
200703271600 METAR MRLB 271600Z 30004KT 9999 NSC 32/14 A2984 RMK TRAZAS CU/CI=
200703271700 METAR MRLB 271700Z 01004KT 9999 NSC 34/14 A2982 RMK TRZAS DE CU=
200703271800 METAR MRLB 271800Z 25004KT 9999 FEW040 33/14 A2980=
200703271900 METAR MRLB 271900Z 28010KT 9999 SCT040 35/15 A2976=
200703272000 METAR MRLB 272000Z 28008KT 9999 SCT040 35/15 A2973 RMK FEW300=
200703272100 METAR MRLB 272100Z 28009KT 9999 SCT040 35/16 A2971=
200703272200 METAR MRLB 272200Z 26008KT 9999 SCT040 34/16 A2971=
200703272300 METAR MRLB 272300Z 25006KT 9999 SCT035 33/16 A2973=
200703280000 METAR MRLB 280000Z 21005KT 9999 SCT035 32/17 A2975=
200703280100 METAR MRLB 280100Z 14009KT 9999 SCT035 30/16 A2977=
200703280200 METAR MRLB 280200Z NIL=
200703280300 METAR MRLB NIL=
200703280400 METAR MRLB NIL=
200703280500 METAR MRLB NIL=
200703280600 METAR MRLB NIL=
200703280700 METAR MRLB NIL=
200703280800 METAR MRLB NIL=
200703280900 METAR MRLB NIL=
200703281000 METAR MRLB NIL=
200703281100 METAR MRLB NIL=
200703281200 METAR MRLB 281200Z 08003KT CAVOK 21/20 A2985 RMK BKN260=
200703281300 METAR MRLB 281300Z 35004KT CAVOK 23/18 A2987 BKN260=
200703281400 METAR MRLB 281400Z 28002KT CAVOK 26/18 A2989=
200703281500 METAR MRLB 281500Z 22002KT CAVOK 29/17 A2988 BKN260=
200703281600 METAR MRLB 281600Z 20003KT CAVOK 32/16 A2987 BKN2690=
200703281700 METAR MRLB 281700Z 22005KT 9999 FEW035 BKN250 32/15 A2986=
200703281800 METAR MRLB 281800Z 27008KT 9999 FEW035 OVC250 33/16 A2982=
200703281900 METAR MRLB 281900Z 280010KT 9999 FEW040 OVC250 33/17 A2979=
200703282000 METAR MRLB 282000Z 28012KT 9999 FEW040 BKN250 34/17 A2975=
200703282100 METAR MRLB 282100Z 26012KT 9999 SCT035 OVC250 32/17 A2974=
200703282200 METAR MRLB 292200Z 28010KT 9999 FEW035 BKN250 32/17 A2973=
200703282300 METAR MRLB 282300Z 26007KT 9999 FEW035 BKN250 31/17 A2974=
200703290000 METAR MRLB 290000Z 28005KT 9999 FEW035 OVC250 30/18 A2975=
200703290100 METAR MRLB 290100Z 22003KT 9999 FEW035 BKN250 28/19 A2976=
200703290200 METAR MRLB NIL=
200703290300 METAR MRLB NIL=
200703290400 METAR MRLB NIL=
200703290500 METAR MRLB NIL=
200703290600 METAR MRLB NIL=
200703290700 METAR MRLB NIL=
200703290800 METAR MRLB NIL=
200703290900 METAR MRLB NIL=
200703291000 METAR MRLB NIL=
200703291100 METAR MRLB NIL=
200703291200 METAR MRLB 291200Z 05004KT CAVOK 21/17 A2983 RMK BKN250=
200703291300 METAR MRLB 291300Z 03002KT CAVOK 24/17 A2985 RMK TRACE CU BKN250=
200703291400 METAR MRLB 291400Z 09012KT CAVOK 28/17 A2986 RMK TRACE CU BKN250=
200703291500 METAR MRLB 291500Z 07018KT CAVOK 30/16 A2987 RMK BKN250=
200703291600 METAR MRLB 291600Z 08014KT CAVOK 32/16 A2985 RMK BKN250 TRACE CU=
200703291700 METAR MRLB 291700Z 07016KT CAVOK 33/15 A2983 RMK TRACE CU BKN250=
200703291800 METAR MRLB 291800Z 06014KT CAVOK 34/16 A2980 RMK TRACE CU BKN230=
200703291900 METAR MRLB 291900Z 03008KT CAVOK 34/15 A2977 RMK TRACE CU BKN240=
200703292000 METAR MRLB 292000Z 04009KT 9999 FEW040 BKN250 34/15 A2974=
200703292100 METAR MRLB 292100Z 06010KT 9999 SCT030 BKN250 34/14 A2972=
200703292200 METAR MRLB 292200Z 03010KT 9999 SCT030 BKN250 33/15 A2972=
200703292300 METAR MRLB 292300Z 29008KT 9999 SCT030 BKN250 31/19 A2973=
200703300000 METAR MRLB 300000Z 31004KT CAVOK 29/19 A2976 RMK FEW100=
200703300100 METAR MRLB NIL=
200703300200 METAR MRLB NIL=
200703300300 METAR MRLB NIL=
200703300400 METAR MRLB NIL=
200703300500 METAR MRLB NIL=
200703300600 METAR MRLB NIL=
200703300700 METAR MRLB NIL=
200703300900 METAR MRLB NIL=
200703301000 METAR MRLB NIL=
200703301200 METAR MRLB 301200Z 12012KT CAVOK 21/18 A2980 FEW120=
200703301300 METAR MRLB 301300Z 00000KT CAVOK 26/18 A2982 RMK FEW200=
200703301400 METAR MRLB 301400Z 04005KT CAVOK 28/18 A2983 RMK FEW250=
200703301500 METAR MRLB 301500Z 05016KT 9999 FEW035 SCT250 31/16 A2984=
200703301600 METAR MRLB 301600Z 06014KT 9999 SCT030 32/17 A2984=
200703301700 METAR MRLB 301700Z 07014KT 9999 SCT025 33/16 A2981=
200703301800 METAR MRLB 301800Z 06015KT 9999 SCT025 33/16 A2978=
200703301900 METAR MRLB 301900Z 05013KT 9999 SCT025 34/16 A2975=
200703302000 METAR MRLB 302000Z 05014KT 9999 SCT025 34/15 A2972=
200703302100 METAR MRLB 302100Z 09010KT 9999 SCT030 34/15 A2969=
200703302200 METAR MRLB 302200Z 06016KT 9999 FEW035 34/15 A2968=
200703302300 METAR MRLB 302300Z 06018KT 9999 FEW035 31/14 A2969=
200703310000 METAR MRLB 310000Z 08010KT 9999 FEW040 30/15 A2971=
200703310100 METAR MRLB NIL=
200703310200 METAR MRLB 310200Z 08012KT CAVOK 27/15 A2974=
200703310300 METAR MRLB NIL=
200703310400 METAR MRLB NIL=
200703310500 METAR MRLB NIL=
200703310600 METAR MRLB NIL=
200703310700 METAR MRLB NIL=
200703310800 METAR MRLB NIL=
200703310900 METAR MRLB NIL=
200703311000 METAR MRLB NIL=
200703311100 METAR MRLB NIL=
200703311200 METAR MRLB NIL=
200703311300 METAR MRLB 311300Z 11002KT CAVOK 26/18 A2980 RMK BKN300=
200703311400 METAR MRLB 311400Z 10008KT CAVOK 29/16 A2981 RMK BKN300=
200703311500 METAR MRLB 311500Z 05006KT CAVOK 30/16 A2982 RMK BKN250=
200703311600 METAR MRLB 311600Z 08011KT CAVOK 32/15 A2981 RMK BKN250=
200703311700 METAR MRLB 311700Z 08010KT CAVOK 33/15 A2979 RMK SCT250=
200703311800 METAR MRLB 311800Z 11007KT CAVOK 34/15 A2976 RMK TRAZAS CU SCT250=
200703311900 METAR MRLB 311900Z 08009KT CAVOK 34/15 A2973 RMK TRAZAS CU SCT250=
200703312000 METAR MRLB 312000Z 08010KT 9999 FEW040 BKN250 35/15 A2972=
200703312100 METAR MRLB 312100Z 09011KT 9999 FEW040 BKN250 34/15 A2969=
200703312200 METAR MRLB 312200Z 08008KT 9999 FEW040 BKN250 33/15 A2968=
200703312300 METAR MRLB 312300Z 06008KT 9999 SCT035 OVC250 33/15 A2968=
200704010000 METAR MRLB 010000Z 30003KT 9999 FEW035 OVC250 29/19 A2971=
200704010100 METAR MRLB 010100Z 22002KT 9999 FEW035 BKN250 29/18 A2972=
200704010200 METAR MRLB NIL=
200704010300 METAR MRLB NIL=
200704010400 METAR MRLB NIL=
200704010500 METAR MRLB NIL=
200704010600 METAR MRLB NIL=
200704010700 METAR MRLB NIL=
200704010800 METAR MRLB NIL=
200704010900 METAR MRLB NIL=
200704011100 METAR MRLB NIL=
200704011200 METAR MRLB 011200Z 19003KT CAVOK 22/17 A2978 RMK BKN260=
200704011300 METAR MRLB 011300Z 07005KT CAVOK 23/18 A2980=
200704011400 METAR MRLB 011400Z 30003KT CAVOK 27/18 A2982 RMK BKN260=
200704011500 METAR MRLB 011500Z 08004KT CAVOK 30/18 A2983 RMK BKN260=
200704011600 METAR MRLB 011600Z 12010KT 9999 FEW035 BKN250 32/17 A2982=
200704011700 METAR MRLB 011700Z 09010KT 9999 FEW035 SCT250 34/16 A2980=
200704011800 METAR MRLB 011800Z 10006KT 9999 FEW035 BKN250 35/17 A2978=
200704011900 METAR MRLB 011900Z 05011KT 9999 FEW035 BKN250 35/17 A2976=
200704012000 METAR MRLB 012000Z 07011KT 9999 FEW040 SCT250 35/17 A2973=
200704012100 METAR MRLB 012100Z 09009KT 9999 FEW040 SCT250 36/16 A2970=
200704012200 METAR MRLB 012200Z 09008KT 9999 FEW040 SCT250 34/17 A2970=
200704012300 METAR MRLB 012300Z 06013KT 9999 FEW040 SCT250 33/17 A2971=
200704020000 METAR MRLB 020000Z 06015KT CAVOK 31/17 A2973=
200704020100 METAR MRLB 020100Z 07013KT CAVOK 29/19 A2975=
200704020200 METAR MRLB 020200Z 07016KT CAVOK 28/18 A2977=
200704020300 METAR MRLB NIL=
200704020400 METAR MRLB NIL=
200704020500 METAR MRLB NIL=
200704020600 METAR MRLB NIL=
200704020800 METAR MRLB NIL=
200704020900 METAR MRLB NIL=
200704021000 METAR MRLB NIL=
200704021100 METAR MRLB NIL=
200704021200 METAR MRLB 021200Z 24002KT CAVOK 23/18 A2981 RMK FEW130 FEW300=
200704021300 METAR MRLB 021300Z 04005KT CAVOK 24/18 A2984 FEW130=
200704021400 METAR MRLB 021400Z 05003KT CAVOK 28/18 A2986 FEW300 TRCE SCT=
200704021500 METAR MRLB 021500Z 06015KT CAVOK 32/17 A2985 SCT250=
200704021600 METAR MRLB 021600Z 06013KT CAVOK 32/17 A2985 BKN250=
200704021700 METAR MRLB 021700Z 09009KT CAVOK 33/17 A2983 BKN250=
200704021800 METAR MRLB 021800Z 09009KT CAVOK 35/17 A2980 TCU NE SCT250=
200704021900 METAR MRLB 021900Z 08013KT 9999 FEW040 SCT250 35/17 A2977=
200704022000 METAR MRLB 022000Z 07014KT 9999 FEW040 35/17 A2974=
200704022100 METAR MRLB 022100Z 07013KT 9999 FEW030 SCT200 35/18 A2973=
200704022300 METAR MRLB 022300Z 07017KT 9999 FEW025TCU SCT100 BKN250 32/18 A2974=
200704030000 METAR MRLB 030000Z 07018KT 9999 FEW040 BKN220 30/18 A2977 RMK CB RN DST N=
200704030100 METAR MRLB 030100Z 07016KT 9999 FEW035 SCT150 29/18 A2978=
200704030200 METAR MRLB 030200Z 10018KT CAVOK 28/19 A2981=
200704030300 METAR MRLB NIL=
200704030400 METAR MRLB NIL=
200704030500 METAR MRLB NIL=
200704030600 METAR MRLB NIL=
200704030700 METAR MRLB NIL=
200704030800 METAR MRLB NIL=
200704030900 METAR MRLB NIL=
200704031000 METAR MRLB NIL=
200704031100 METAR MRLB NIL=
200704031200 METAR MRLB 031200Z 00000KT CAVOK 25/19 A2984 FEW100 BKN250=
200704031300 METAR MRLB 031300Z 07005KT 9999 FEW040 SCT250 28/20 A2986=
200704031400 METAR MRLB 031400Z 08010KT 9999 SCT040TCU BKN250 28/20 A2988=
200704031500 METAR MRLB 031500Z 05015KT 9999 DZ FEW025TCU SCT090 BKN200 29/20 A2989 RMK RN DST N NE=
200704031600 METAR MRLB NIL=
200704031700 METAR MRLB 031700Z 07010KT 9999 FEW040 BKN180 29/21 A2989 RERA=
200704031800 METAR MRLB 031800Z 06013KT 9999 SCT045 BKN200 30/20 A2986 RMK RN DST N=
200704031900 METAR MRLB 031900Z 07016KT 9999 FEW020 SCT100 BKN200 30/19 A2982 RMK RN DST N E=
200704032000 METAR MRLB 032000Z 06014KT 9999 FEW030 SCT100 BKN200 30/18 A2980=
200704032100 METAR MRLB NIL=
200704032200 METAR MRLB NIL=
200704032300 METAR MRLB 032300Z 09009KT 9999 FEW035 BKN120 28/18 A2977=
200704040000 METAR MRLB 040000Z 09013KT 9999 FEW045 SCT140 28/19 A2977=
200704040100 METAR MRLB 040100Z 08012KT 9999 FEW045 SCT120 28/19 A29780=
200704040200 METAR MRLB 040200Z 09013KT 9999 FEW045 SCT140 27/19 A2979=
200704040300 METAR MRLB NIL=
200704040400 METAR MRLB NIL=
200704040500 METAR MRLB NIL=
200704040600 METAR MRLB NIL=
200704040800 METAR MRLB NIL=
200704040900 METAR MRLB NIL=
200704041000 METAR MRLB NIL=
200704041100 METAR MRLB NIL=
200704041200 METAR MRLB 041200Z 04004KT CAVOK 23/19 A2979 TRACE SCT SCT140 SCT250=
200704041300 METAR MRLB 041300Z 24003KT CAVOK 26/20 A2981 RMK FEW140 SCT250 CB DST SSE=
200704041400 METAR MRLB 041400Z 06003KT 9999 FEW035 SCT130 29/20 A2984 RMK FEW250=
200704041500 METAR MRLB 041500Z 09014KT 9999 FEW035 SCT120 30/20 A2986 RMR FEW250=
200704041600 METAR MRLB 041600Z 07017KT 9999 FEW035 SCT120 31/19 A2985=
200704041700 METAR MRLB 041700Z 09012KT 9999 FEW035 BKN120 32/19 A2984=
200704041800 METAR MRLB 041800Z 08011KT 9999 SCT040 BKN120 32/18 A2981=
200704041900 METAR MRLB 041900Z 07012KT 9999 FEW040 BKN120 33/19 A2978 RMK FEW250=
200704042000 METAR MRLB 042000Z 11012KT 9999 FEW040 BKN120 34/18 A2974 RMK FEW250=
200704042100 METAR MRLB 042100Z 06014KT 9999 SCT040 BKN120 33/19 A2973=
200704042200 METAR MRLB 042200Z 07010KT 9999 SCT035 BKN120 31/19 A2973=
200704042300 METAR MRLB 042300Z 10010KT 9999 SCT035 OVC120 30/19 A2973=
200704050000 METAR MRLB 050000Z 08007KT 9999 SCT040 OVC130 28/18 A2976=
200704050100 METAR MRLB 050100Z 10005KT 9999 FEW035 BKN130 28/19 A29790=
200704050200 METAR MRLB 050200Z 13005KT 9999 FEW035 BKN130 27/19 A2981=
200704050300 METAR MRLB NIL=
200704050400 METAR MRLB NIL=
200704050600 METAR MRLB NIL=
200704050700 METAR MRLB NIL=
200704050900 METAR MRLB NIL=
200704051000 METAR MRLB NIL=
200704051100 METAR MRLB NIL=
200704051200 METAR MRLB NIL=
200704051300 METAR MRLB 051300Z 32003KT CAVOK 24/19 A2979 RMK SCT260=
200704051400 METAR MRLB 051400Z 00000KT CAVOK 27/20 A2982 RMK SCT260=
200704051500 METAR MRLB 051500Z 24007KT 9999 FEW035 SCT260 30/19 A2984=
200704051600 METAR MRLB 051600Z 10012KT 9999 SCT035 SCT260 32/18 A2984=
200704051700 METAR MRLB 051700Z 09010KT 9999 SCT035 BKN250 32/18 A2983=
200704051800 METAR MRLB 051800Z 09010KT 9999 SCT040 BKN250 34/18 A2981=
200704051900 METAR MRLB 051900Z 29009KT 9999 SCT040 BKN130 32/18 A2977=
200704052000 METAR MRLB 052000Z 05008KT 9999 SCT035 BKN120 32/17 A2974=
200704052100 METAR MRLB 052100Z 26005KT 9999 SCT040 BKN120 30/20 A2974=
200704052200 METAR MRLB 052200Z 32003KT 9999 FEW040 OVC120 30/17 A2974=
200704052300 METAR MRLB 052300Z 13006KT 9999 FEW040 OVC120 31/16 A2975=
200704060000 METAR MRLB 060000Z 12006KT 9999 FEW040 BKN130 30/17 A2977=
200704060100 METAR MRLB 060100Z 09004KT 9999 FEW035 BKN130 29/17 A2978=
200704060200 METAR MRLB NIL=
200704060300 METAR MRLB NIL=
200704060400 METAR MRLB NIL=
200704060500 METAR MRLB NIL=
200704060600 METAR MRLB NIL=
200704060800 METAR MRLB NIL=
200704060900 METAR MRLB NIL=
200704061000 METAR MRLB NIL=
200704061100 METAR MRLB NIL=
200704061200 METAR MRLB NIL=
200704061300 METAR MRLB 061300Z 30004KT CAVOK 23/19 A2983 RMK BKN250=
200704061400 METAR MRLB 061400Z 22003KT CAVOK 26/20 A2984 RMK BKN250=
200704061500 METAR MRLB 061500Z 09007KT CAVOK 29/20 A2985=
200704061600 METAR MRLB 061600Z 05007KT CAVOK 31/19 A2985 RMK FEW100 BKN250=
200704061700 METAR MRLB 061700Z 05007KT 9999 FEW030 BKN250 31/18 A2982=
200704061800 METAR MRLB 061800Z 09011KT 9999 FEW025 SCT250 32/16 A2980=
200704061900 METAR MRLB 061900Z 08014KT 9999 FEW025 BKN250 33/16 A2978=
200704062000 METAR MRLB 062000Z 06011KT 9999 SCT025 BKN250 34/15 A2975=
200704062100 METAR MRLB 072100Z 04007KT 9999 SCT025 BKN250 34/16 A2973=
200704062200 METAR MRLB 062200Z 14005KT 9999 FEW020 SCT045 BKN250 32/18 A2973=
200704062300 METAR MRLB 062300Z 08005KT 9999 FEW015TCU SCT035 BKN250 30/18 A2975 DZ S SW=
200704070000 METAR MRLB 070000Z 08008KT 9999 SCT030 BKN100 29/17 A2978 TCU S=
200704070100 METAR MRLB NIL=
200704070200 METAR MRLB 070200Z 10008KT 9999 FEW040 SCT180 28/17 A2982=
200704070300 METAR MRLB NIL=
200704070400 METAR MRLB NIL=
200704070500 METAR MRLB NIL=
200704070600 METAR MRLB NIL=
200704070700 METAR MRLB NIL=
200704070800 METAR MRLB NIL=
200704070900 METAR MRLB NIL=
200704071000 METAR MRLB NIL=
200704071200 METAR MRLB 071200Z 00000KT CAVOK 23/16 A2984 RMK FEW100 SCT250=
200704071300 METAR MRLB 071300Z 00000KT CAVOK 25/16 A2986 BKN250=
200704071400 METAR MRLB 071400Z 28006KT CAVOK 29/17 A2989 SCT250=
200704071500 METAR MRLB 071500Z 09013KT CAVOK 30/17 A2989 SCT250=
200704071600 METAR MRLB 071600Z 09016KT CAVOKA 31/16 A2987 SCT250=
200704071700 METAR MRLB 071700Z 10018KT CAVOK 33/15 A2986 BKN250=
200704071800 METAR MRLB 071800Z 08016KT CAVOK 34/13 A2984 FEW100 BKN250=
200704071900 METAR MRLB 071900Z 10012KT CAVOK 34/14 A2981 FEW080 SCT250=
200704072000 METAR MRLB 072000Z 07011KT CAVOK 34/14 A2979 SCT250=
200704072100 METAR MRLB 072100Z 06011KT CAVOK 34/15 A2978 RMK FEW100 SCT250=
200704072200 METAR MRLB 072200Z 06014KT CAVOK 33/15 A2978=
200704072300 METAR MRLB 072300Z 09014KT 9999 32/15 A2981=
200704072350 METAR MRLB 080000Z 08011KT CAVOK 310/17 A2983=
200704080000 METAR MRLB 080000Z 08011KT CAVOK 310/17 A2983=
200704080100 METAR MRLB 080100Z 10010KT CAVOK 29/17 A2985=
200704080200 METAR MRLB 080200Z 09013KT CAVOK 28/17 A2987=
200704080300 METAR MRLB NIL=
200704080500 METAR MRLB NIL=
200704080600 METAR MRLB NIL=
200704080700 METAR MRLB NIL=
200704080900 METAR MRLB NIL=
200704081000 METAR MRLB NIL=
200704081100 METAR MRLB NIL=
200704081200 METAR MRLB 081200Z 27002KT CAVOK 24/17 A2988 RMK BKN130 SCT250 HZ LGT ARND=
200704081300 METAR MRLB 081300Z 25004KT CAVOK 25/18 A2991 RMK SCT130 SCT250 LEVE HZY=
200704081400 METAR MRLB 081400Z 25005KT CAVOK 28/17 A2993 RMK BKN120 FEW250 LEVE HZY=
200704081500 METAR MRLB 081500Z 06005KT CAVOK 29/17 A2994 RMK BKN130 SCT250 HZY=
200704081600 METAR MRLB 081600Z 09014KT CAVOK 31/17 A2993 RMK BKN130 FEW250 LEVE HZY=
200704081700 METAR MRLB 081700Z 08012KT CAVOK 33/16 A2991 RMK BKN130 FEW250 LEVE HZY=
200704081800 METAR MRLB 081800Z 09013KT CAVOK 33/17 A2990 RMK BKN130 FEW250=
200704081900 METAR MRLB 081900Z 11012KT CAVOK 34/17 A2987 RMK BKN130=
200704082000 METAR MRLB 082000Z 08013KT CAVOK 34/18 A2985 RMK TRACE CU BKN140=
200704082200 METAR MRLB 082200Z 07010KT 9999 FEW040 BKN130 33/17 A2982=
200704082300 METAR MRLB 082300Z 07012KT 9999 SCT040 BKN130 32/17 A2983=
200704082359 METAR MRLB 090000Z 08012KT 9999 SCT040 BKN130 30/18 A2985=
200704090000 METAR MRLB 090000Z 08012KT 9999 SCT040 BKN130 30/18 A2985=
200704090100 METAR MRLB 090100Z 12008KT 9999 SCT035 BKN130 28/18 A2988=
200704090200 METAR MRLB 090200Z 14006KT 9999 SCT035 BKN130 28/18 A2991=
200704090300 METAR MRLB NIL=
200704090400 METAR MRLB NIL=
200704090500 METAR MRLB NIL=
200704090600 METAR MRLB NIL=
200704090700 METAR MRLB NIL=
200704090800 METAR MRLB NIL=
200704090900 METAR MRLB NIL=
200704091000 METAR MRLB NIL=
200704091100 METAR MRLB NIL=
200704091200 METAR MRLB 091200Z 09003KT CAVOK 22/18 A2990 SCT260=
200704091300 METAR MRLB 091300Z 36003KT CAVOK 25/18 A2991 RMK SCT260=
200704091400 METAR MRLB 091400Z 27004KT CAVOK 27/19 A2995 RMK SCT260=
200704091500 METAR MRLB 091500Z 24005KT CAVOK 30/18 A2996 RMK BKN260=
200704091600 METAR MRLB 091600Z 09008KT 9999 FEW035 SCT260 33/17 A2994=
200704091700 METAR MRLB 091700Z 08007KT 9999 SCT035 SCT260 34/18 A2992=
200704091800 METAR MRLB 091800Z 09008KT 9999 SCT035 BKN250 33/17 A2990=
200704091900 METAR MRLB 091900Z 09011KT 9999 SCT035 BKN250 34/16 A2986=
200704092000 METAR MRLB 092000Z 10007KT 9999 FEW040 OVC250 34/17 A2982=
200704092100 METAR MRLB 092100Z 10006KT 9999 FEW040 OVC250 34/17 A2980=
200704092200 METAR MRLB 092200Z 06008KT 9999 SCT040 BKN250 33/18 A2979=
200704092300 METAR MRLB 092300Z 09007KT 9999 FEW040 BKN250 33/18 A2979=
200704100000 METAR MRLB 100000Z 29008KT 9999 FEW040 BKN250 33/18 A2979=
200704100100 METAR MRLB 100100Z 32005KT 9999 FEW040 SCT250 28/21 A2985=
200704100300 METAR MRLB NIL=
200704100400 METAR MRLB NIL=
200704100500 METAR MRLB NIL=
200704100600 METAR MRLB NIL=
200704100700 METAR MRLB NIL=
200704100800 METAR MRLB NIL=
200704100900 METAR MRLB NIL=
200704101000 METAR MRLB NIL=
200704101100 METAR MRLB NIL=
200704101200 METAR MRLB 101200Z 05003KT CAVOK 23/20 A2986 RMK TCU DST NW OVC250=
200704101300 METAR MRLB 101300Z 06003KT CAVOK 23/21 A2988/HZ LGT ARND TCU DIST W/ BKN250=
200704101400 METAR MRLB 101400Z 07003KT CAVOK 27/21 A29/90 HZY/BKN250=
200704101500 METAR MRLB 101500Z VRB02KT 9999 SCT035 SCT250 29/21 A2991/HZY=
200704101600 METAR MRLB 101600Z 10003KT 9999 SCT035 BKN250 31/19 A2990/HZY=
200704101700 METAR MRLB 101700Z 36003KT 9999 BKN035 SCT250 32/19 A2989/HZY TCU DIST SW=
200704101800 METAR MRLB 101800Z 33006KT 9999 SCT035 BKN250 32/20 A29/85 HZY=
200704101900 METAR MRLB 101900Z 27010KT 9999 FEW035 BKN250 31/21 A2981=
200704102000 METAR MRLB 102000Z 27013KT 9999 FEW035TCU BKN250 31/22 A2977 HZY=
200704102100 METAR MRLB 102100Z 28012KT 9999 FEW030TCU BKN250 31/21 A2975=
200704102200 METAR MRLB 102200Z 28014KT 9999 FEW025TCU SCT100 BKN250 30/22 A2975=
200704102300 METAR MRLB 102300Z 15007KT 9999 SCT020TCU BKN045 27/22 A2979 RMK CB DST S=
200704110000 METAR MRLB 110000Z 14006KT 8000 VCSH SCT020CB SCT060 24/21 A2982 RMK CB S/SE=
200704110100 METAR MRLB 110100Z 13009KT 8000 -TSRA FEW020CB SCT030 OVC100 24/22 A2985=
200704110200 METAR MRLB 110200Z 00000KT 9999 FEW025 BKN120 24/22 A2986 RERA=
200704110300 METAR MRLB NIL=
200704110400 METAR MRLB NIL=
200704110500 METAR MRLB NIL=
200704110600 METAR MRLB NIL=
200704110700 METAR MRLB NIL=
200704110900 METAR MRLB NIL=
200704111000 METAR MRLB NIL=
200704111100 METAR MRLB NIL=
200704111200 METAR MRLB 111200Z 00000KT 9999 FEW040 SCT100 23/20 A2983=
200704111300 METAR MRLB 111300Z 00000KT 9999 FEW040 SCT150 24/23 A2986 RMK CB DST NW=
200704111400 METAR MRLB 111400Z 00000KT 9999 FEW020 SCT200 27/23 A2987 RMK CB DST NW=
200704111500 METAR MRLB 111500Z 00000KT 9999 FEW020TCU SCT040 27/23 A2988=
200704111600 METAR MRLB 111600Z 00000KT 9999 FEW020TCU SCT100 29/22 A2987=
200704111700 METAR MRLB 111700Z 27007KT 9999 FEW020TCU SCT040 BKN180 29/22 A2986=
200704111800 METAR MRLB 111800Z 29006KT 9999 FEW020TCU SCT035 BKN200 30/22 A2983=
200704111900 METAR MRLB 111900Z 27012KT 9999 FEW025TCU BKN220 31/12 A2979=
200704112000 METAR MRLB 112000Z 29016KJT 9999 FEW030TCU BKN200 30/22 A2977 RN NE E=
200704112100 METAR MRLB 112100Z 28012KT 9999 FEW020TCU SCT035 BKN180 30/21 A2977 RN N NE E=
200704112200 METAR MRLB 112200Z 29008KT 9999 FEW020TCU SCT090 BKN180 28/21 A2979 RN NE E=
200704112300 METAR MRLB 112300Z 31005KT 9000 DZ FEW020CB SCT040 BKN100 23/22 A2981=
200704120000 METAR MRLB 120000Z 10004KT 9000 -RA SCT020CB BKN120 24/22 A2982 CB S=
200704120100 METAR MRLB 120100Z 07004KT 8000 -RA FEW020 SCT060 23/22 A2983=
200704120200 METAR MRLB 120200Z 09005KT 9000 DZ FEW020 OVC100 23/20 A2985=
200704120300 METAR MRLB NIL=
200704120400 METAR MRLB NIL=
200704120500 METAR MRLB NIL=
200704120900 METAR MRLB NIL=
200704121000 METAR MRLB NIL=
200704121100 METAR MRLB NIL=
200704121200 METAR MRLB 121200Z 00000KT CAVOK 23/21 A2987 BKN250=
200704121300 METAR MRLB 121300Z 00000KT 9999 FEW030 OVC250 24/22 A2990 LOW ST N=
200704121400 METAR MRLB 121400Z 27003KT 9999 FEW010 BKN270 24/20 A3005=
200704121500 METAR MRLB 121500Z 18002KT 9999 FEW035 BKN250 27/23 A2991=
200704121600 METAR MRLB 121600Z 28002KT 9999 SCT035 BKN250 30/22 A2990=
200704121700 METAR MRLB 121700Z 05002KT 9999 SCT035 OVC250 31/21 A2987=
200704121800 METAR MRLB 121800Z 30008KT 9999 SCT035 OVC250 31/21 A2986=
200704121900 METAR MRLB 121900Z 28009KT 9999 -RA FEW020TCU SCT035 BKN140 30/21 A2983=
200704122000 METAR MRLB 122000Z 27010KT 9999 SCT035 BKN130 29/22 A2980=
200704122100 METAR MRLB 122100Z 27008KT 9999 SCT030 OVC120 27/23 A2979 RERA RMK RN DST N=
200704122200 METAR MRLB 122200Z 28009KT 9999 SCT030 BKN120 27/23 A2978=
200704122300 METAR MRLB 122300Z 28009KT 9999 SCT035 BKN120 27/23 A2978 RMK RN DST E=
200704130000 METAR MRLB 130000Z 28007KT 9999 DZ SCT030 BKN100 27/23 A2981=
200704130100 METAR MRLB 130100Z 24003KT 8000 DZ SCT025 OVC100 26/24 A2985=
200704130200 METAR MRLB NIL=
200704130300 METAR MRLB NIL=
200704130400 METAR MRLB NIL=
200704130500 METAR MRLB NIL=
200704130600 METAR MRLB NIL=
200704130700 METAR MRLB NIL=
200704130800 METAR MRLB NIL=
200704130900 METAR MRLB NIL=
200704131000 METAR MRLB NIL=
200704131100 METAR MRLB NIL=
200704131200 METAR MRLB 131200Z 29002KT 9999 FEW020 BKN250 23/22 A2986 RMK HZ ARND ST W/NW=
200704131300 METAR MRLB 131300Z 04002KT CAVOK 24/23 A2988 RMK HZ ARND LOW ST SW W=
200704131400 METAR MRLB 131400Z 00000KT 9999 FEW020 BKN250 26/24 A2991 RMK HZ ARND=
200704131500 METAR MRLB 131500Z 27003KT 9999 FEW030 BKN250 28/23 A2990 RMK HZ ARND=
200704131600 METAR MRLB 131600Z 08003KT 9999 SCT030 BKN250 30/22 A2989=
200704131700 METAR MRLB 131700Z 05003KT 9999 SCT030 BKN250 31/21 A2987 RMK HZ LGT ARND=
200704131800 METAR MRLB 131800Z 08008KT 9999 SCT035 BKN250 32/21 A2984 RMK HZ LG ARND=
200704131900 METAR MRLB 131900Z 09009KT 9999 FEW035 BKN250 34/21 A2981 RMK HZ LGT ARND=
200704132000 METAR MRLB 132000Z 10009KT 9999 FEW040 BKN250 34/19 A2978 RMK HZ LGT ARND=
200704132100 METAR MRLB 132100Z 10011KT 9999 SCT040 OVC250 33/19 A2976=
200704132200 METAR MRLB 132200Z 10008KT 9999 FEW040 BKN240 33/19 A2975=
200704132300 METAR MRLB 132300Z 11007KT 9999 FEW040 OVC240 32/20 A2975=
200704140000 METAR MRLB 140000Z 10008KT 9999 SCT035 OVC240 31/20 A2977=
200704140100 METAR MRLB 140100Z 13006KT 9999 SCT035 BKN240 29/21 A2981=
200704140200 METAR MRLB 140200Z VRB03KT 9999 SCT030 BKN240 28/20 A2981=
200704140300 METAR MRLB NIL=
200704140400 METAR MRLB NIL=
200704140500 METAR MRLB NIL=
200704140600 METAR MRLB NIL=
200704140700 METAR MRLB NIL=
200704140800 METAR MRLB NIL=
200704141000 METAR MRLB NIL=
200704141100 METAR MRLB NIL=
200704141200 METAR MRLB 141200Z 17003KT CAVOK 23/21 A2984 FEW130 BKN250 BKN250 HZY CB S=
200704141300 METAR MRLB 141300Z 21005KT CAVOK 25/21 A2985 RMK FEW130 BKN250 LEVE HZY=
200704141400 METAR MRLB 141400Z 17003KT CAVOK 27/21 A2987 RMK FEW130 BKN250 LEVE HZY=
200704141500 METAR MRLB 141500Z 10004KT CAVOK 30/21 A2988 RMK SCT130 BKN250 LEVE HZY=
200704141600 METAR MRLB 141600Z 06003KT CAVOK 31/20 A2988 RMK TRACE CU SCT130 SCT250=
200704141700 METAR MRLB 141700Z 08013KT 9999 FEW035 BKN250 33/19 A2985=
200704141800 METAR MRLB 141800Z 09011KT 9999 FEW035 BKN250 33/17 A2984=
200704141900 METAR MRLB 141900Z 10006KT 9999 FEW035 BKN250 33/19 A2980=
200704142000 METAR MRLB 142000Z 26008KT 9999 FEW035 BKN250 33/21 A2976=
200704142100 METAR MRLB 142100Z 25010KT 9999 FEW030 BKN250 32/20 A2994=
200704142200 METAR MRLB 142200Z 27008KT 9999 FEW040 BKN250 32/20 A2974=
200704142300 METAR MRLB 142300Z 25005KT 9999 FEW040 BKN250 31/21 A2995=
200704150000 METAR MRLB 150000Z 12006KT 9999 FEW045 BKN180 30/19 A2978=
200704150100 METAR MRLB 150100Z 15005KT 9999 FEW045 SCT150 29/18 A2980=
200704150200 METAR MRLB 150200Z 13008KT 9999 FEW045 SCT200 28/20 A2982=
200704150300 METAR MRLB NIL=
200704150400 METAR MRLB NIL=
200704150600 METAR MRLB NIL=
200704150700 METAR MRLB NIL=
200704150800 METAR MRLB NIL=
200704150900 METAR MRLB NIL=
200704151000 METAR MRLB NIL=
200704151100 METAR MRLB NIL=
200704151200 METAR MRLB 151200Z 00000KT CAVOK 24/20 A2986 RMK BKN250=
200704151300 METAR MRLB 151300Z 00000KT CAVOK 25/21 A2988=
200704151400 METAR MRLB 151400Z 01004KT CAVOK 27/20 A2991 FEW100 SCT200=
200704151500 METAR MRLB 151500Z 00000KT CAVOK 29/21 A2992 FEW120 BKN250=
200704151600 METAR MRLB 151600Z 00000KT 9999 FEW030 BKN220 31/21 A2991=
200704151700 METAR MRLB 151700Z 00000KT 9999 FEW030 SCT250 32/20 A2989=
200704151800 METAR MRLB 151800Z 10010KT 9999 FEW025 SCT250 32/18 A2985=
200704151900 METAR MRLB 151900Z 12004KT 9999 SCT025 BKN250 32/18 A2982=
200704152000 METAR MRLB 152000Z 26009KT 9999 FEW025 SCT250 31/21 A2980=
200704152100 METAR MRLB 152100Z 28009KT 9999 FEW030 SCT250 32/20 A2978=
200704152200 METAR MRLB 152200Z 27010KT 9999 FEW020 BKN250 31/20 A2977=
200704152300 METAR MRLB 152300Z 28011KT 9999 FEW030 SCT100 BKN250 29/21 A2978=
200704160000 METAR MRLB 160000Z 28008KT 9999 FEW040TCU BKN250 28/22 A2981=
200704160100 METAR MRLB 160100Z 27006KT 9999 FEW040 SCT150 28/22 A2983=
200704160200 METAR MRLB 160200Z 28008KT 9999 SCT040 BKN180 27/22 A2986=
200704160300 METAR MRLB NIL=
200704160500 METAR MRLB NIL=
200704160600 METAR MRLB NIL=
200704160800 METAR MRLB NIL=
200704160900 METAR MRLB NIL=
200704161100 METAR MRLB NIL=
200704161200 METAR MRLB 161200Z 03008KT CAVOK 26/19 A2988 RMK FEW130 BKN250=
200704161300 METAR MRLB 161300Z 06010KT CAVOK 27/19 A2989 RMK SCT250 TRAZAS DE CU=
200704161400 METAR MRLB 161400Z 08016G26KT 9999 NSC 29/18 A2990 RMK TRAZAS CU/CI=
200704161500 METAR MRLB 161500Z 09017KT 9999 FEW040 31/18 A2990 RMK RAFAGAS DE 22KT=
200704161600 METAR MRLB 161600Z 07020KT CAVOK 32/17 A2989 RMK FEW250 TRAZAS DE CU RAFAGAS DE 27KT=
200704161700 METAR MRLB 161700Z 08023G33KT 9999 FEW040 32/16 A2988=
200704161800 METAR MRLB 161800Z 08019KT 9999 FEW040 33/17 A2984 RMK FEW250=
200704161900 METAR MRLB 161900Z 05022KT 9999 FEW040 35/17 A2982 RMK RAFAGAS DE 29KT=
200704162000 METAR MRLB 162000Z 05019KT 9999 FEW040 34/16 A2979=
200704162100 METAR MRLB 162100Z 06017KT 9999 FEW040 35/16 A2977=
200704162200 METAR MRLB 162200Z 07015KT 9999 FEW040 33/15 A2976=
200704162300 METAR MRLB 162300Z 07016KT 9999 FEW040 BKN250 32/15 A2976=
200704170000 METAR MRLB 170000Z 08015KT CAVOK 30/16 A2977 SCT250=
200704170100 METAR MRLB 170100Z 12012KT CAVOK 29/15 A2979 RMK BKN250=
200704170200 METAR MRLB NIL=
200704170300 METAR MRLB NIL=
200704170400 METAR MRLB NIL=
200704170500 METAR MRLB NIL=
200704170600 METAR MRLB NIL=
200704170700 METAR MRLB NIL=
200704170800 METAR MRLB NIL=
200704170900 METAR MRLB NIL=
200704171000 METAR MRLB NIL=
200704171100 METAR MRLB NIL=
200704171200 METAR MRLB 171200Z 08011KT CAVOK 26/18 A2984/BKN250=
200704171300 METAR MRLB 171300Z 06009KT CAVOK 28/18 A2986 BKN250 TRACE CU=
200704171400 METAR MRLB 171400Z 08016KT CAVOK 29/18 A2988 SCT260=
200704171500 METAR MRLB 171500Z 08016KT CAVOK 30/17 A2988 SCT260 TRACE CU=
200704171600 METAR MRLB 171600Z 09014KT 9999 SCT035 31/17 A2987=
200704171700 METAR MRLB 171700Z 08013KT 9999 FEW040 SCT260 32/17 A2984=
200704171800 METAR MRLB 171800Z 06015KT 9999 FEW040 SCT260 33/17 A2981=
200704171900 METAR MRLB 171900Z 06014KT 9999 FEW040 33/17 A2979=
200704172000 METAR MRLB 172000Z 09012KT 9999 FEW030 BKN250 33/17 A2976=
200704172100 METAR MRLB 172100Z 08011KT 9999 FEW040 SCT250 33/16 A2973=
200704172200 METAR MRLB 172200Z 07015KT 9999 FEW040 SCT250 33/16 A2972=
200704172300 METAR MRLB 172300Z 06013KT 9999 FEW040 BKN250 32/17 A2972=
200704180000 METAR MRLB 180000Z 06010KT CAVOK 30/18 A2973 RMK BKN250=
200704180100 METAR MRLB 180100Z 07011KT CAVOK 28/19 A2977 RMK TRACE CU=
200704180200 METAR MRLB 180200Z 06010KT CAVOK 26/19 A2978 RMK TRACE SC=
200704180300 METAR MRLB NIL=
200704180400 METAR MRLB NIL=
200704180500 METAR MRLB NIL=
200704180700 METAR MRLB NIL=
200704180800 METAR MRLB NIL=
200704180900 METAR MRLB NIL=
200704181000 METAR MRLB NIL=
200704181100 METAR MRLB NIL=
200704181200 METAR MRLB 181200Z 07002KT CAVOK 20/17 A2977 RMK BKN250=
200704181300 METAR MRLB 181300Z 00000KT CAVOK 24/18 A2980 RMK BKN250=
200704181400 METAR MRLB 181400Z 00000KT CAVOK 26/16 A2981 RMK BKN250=
200704181500 METAR MRLB 181500Z 02003KT CAVOK 29/17 A2982 RMK BKN250=
200704181600 METAR MRLB 181600Z 16003KT CAVOK 31/17 A2982 RMK BKN250=
200704181700 METAR MRLB 181700Z 28003KT CAVOK 34/15 A2979 RMK BKN250=
200704181800 METAR MRLB 181800Z 26009KT CAVOK 34/15 A2976 RMK BKN250=
200704181900 METAR MRLB 181900Z 29010KT CAVOK 35/15 A2974 RMK BKN250 TRACE CU=
200704182000 METAR MRLB 182000Z 29012KT CAVOK 34/16 A2972 RMK BKN250=
200704182100 METAR MRLB 182100Z 27013KT CAVOK 32/17 A2971 RMK SCT250=
200704182200 METAR MRLB 182200Z 28013KT CAVOK 31/17 A2970=
200704182300 METAR MRLB 182300Z 28009KT CAVOK 29/19 A2971 SCT250=
200704190000 METAR MRLB 190000Z 28008KT CAVOK 28/20 A2974 RMK 150=
200704190100 METAR MRLB 190100Z 30004KT CAVOK 26/21 A2977 RMK FEW150=
200704190200 METAR MRLB 190200Z 33003KT CAVOK 26/21 A2979 RMK FEW200=
200704190300 METAR MRLB NIL=
200704190400 METAR MRLB NIL=
200704190500 METAR MRLB NIL=
200704190600 METAR MRLB NIL=
200704190700 METAR MRLB NIL=
200704190800 METAR MRLB NIL=
200704190900 METAR MRLB NIL=
200704191000 METAR MRLB NIL=
200704191100 METAR MRLB NIL=
200704191200 METAR MRLB 191200Z 05004KT CAVOK 22/19 A2981 BKN250=
200704191300 METAR MRLB 191300Z 00000KT CAVOK 25/20 A2982 RMK BKN250=
200704191400 METAR MRLB 191400Z 00000KT CAVOK 28/22 A2984 RMK BKN250=
200704191500 METAR MRLB 191500Z 00000KT 9999 SCT025 BKN250 29/21 A2984=
200704191600 METAR MRLB 191600Z 00000KT 9999 SCT025 BKN250 31/20 A2982=
200704191700 METAR MRLB 191700Z 30008KT 9999 SCT030 BKN250 31/20 A2981=
200704191800 METAR MRLB 191800Z 25006KT 9999 SCT030 BKN250 32/19 A2979=
200704191900 METAR MRLB 191900Z 26012KT 9999 FEW030 SCT250 33/19 A2975=
200704192000 METAR MRLB 192000Z 26015KT 9999 FEW030 BKN250 32/20 A2974=
200704192100 METAR MRLB 192100Z 27015KT 9999 FEW030 SCT180 30/20 A2974=
200704192200 METAR MRLB 192200Z 28012KT 9999 FEW040 SCT250 30/20 A2974/TCU S=
200704192300 METAR MRLB 192300Z 26014KT CAVOK 29/20 A2995=
200704200000 METAR MRLB 200000Z 27006KT CAVOK 28/20 A2977/SCT250 TCU DIST S=
200704200100 METAR MRLB 200100Z 28003KT CAVOK 27/21 A2981=
200704200200 METAR MRLB 200200Z 28004KT CAVOK 27/21 A2983=
200704200400 METAR MRLB NIL=
200704200600 METAR MRLB NIL=
200704200700 METAR MRLB NIL=
200704200800 METAR MRLB NIL=
200704200900 METAR MRLB NIL=
200704201200 METAR MRLB 201200Z 00000KT CAVOK 22/20 A2985 RMK BKN250 HZ LGT ARND=
200704201300 METAR MRLB 201300Z 03004KT CAVOK 24/20 A29.86 SCT250 HZY=
200704201400 METAR MRLB 201400Z 02003KT CAVOK 27/20 A2988/SCT250 HZY=
200704201500 METAR MRLB 201500Z VRB02KT CAVOK 30/18 A2988/BKN250 HZ LGT ARND=
200704201600 METAR MRLB 201600Z VRB04KT CAVOK 32/18 A2987/BKN250 TRACE CU=
200704201700 METAR MRLB 201700Z VRB05KT CAVOK 33/16 A2985 BKN250 HZY=
200704201800 METAR MRLB NIL=
200704201900 METAR MRLB 201900Z 26008KT CAVOK 34/19 A2979/ OVC250 TRACE CU /HZY=
200704202100 METAR MRLB 202100Z 28013KT 9999 FEW035 OVC250 31/22 A2976 RMK HZ ARND=
200704202200 METAR MRLB 202200Z 26011KT 9999 FEW040 OVC250 29/22 2976 RMK HZ ARND=
200704202300 METAR MRLB 202300Z 26007KT 9999 FEW040 BKN250 29/21 A2977 RMK HZ ARND=
200704210000 METAR MRLB 210000Z 27004KT 9999 FEW040 OVC250 28/21 A2979 RMK HZ ARND=
200704210100 METAR MRLB 210100Z 00000KT 9999 FEW040 OVC250 27/22 A2982 RMK HZ ARND=
200704210200 METAR MRLB NIL=
200704210400 METAR MRLB NIL=
200704210500 METAR MRLB NIL=
200704210600 METAR MRLB NIL=
200704210700 METAR MRLB NIL=
200704210800 METAR MRLB NIL=
200704210900 METAR MRLB NIL=
200704211000 METAR MRLB NIL=
200704211100 METAR MRLB NIL=
200704211200 METAR MRLB 211200Z 03003KT CAVOK 22/21 A2989 RMK OVC250 HZY=
200704211300 METAR MRLB 211300Z 05003KT CAVOK 24/21 A2991 RMK OVC250 HZ ARND=
200704211400 METAR MRLB 211400Z 08002KT CAVOK 27/21 A2993 RMK HZ ARND TRAZAS CU=
200704211500 METAR MRLB 211500Z 07003KT 9999 FEW035 OVC250 29/21 A2992 RMK HZ ARND=
200704211600 METAR MRLB 211600Z 17002KT 9999 SCT035 OVC250 31/20 A2991 RMK HZ ARND=
200704211700 METAR MRLB 211700Z 26007KT 9999 FEW035 BKN250 31/20 A2990 RMK HZ ARND=
200704211800 METAR MRLB 211800Z 27005KT 9999 SCT040 BKN250 32/20 A2987 RMK HZ ARND=
200704211900 METAR MRLB 211900Z 28010KT 9999 SCT040 BKN250 33/20 A2983 RMK HZ ARND=
200704212000 METAR MRLB 212000Z 28011KT 9999 SCT040 OVC250 33/21 A2981 RMK HZ ARND=
200704212100 METAR MRLB 212100Z 27011KT 9999 FEW040 OVC250 32/22 A2979 HZY=
200704212200 METAR MRLB 212200Z 28011KT 9999 FEW040 BKN250 30/21 A2978 HZY=
200704212300 METAR MRLB 212300Z 28010KT 9999 NSC 29/20 A2978 TRACE CU HZY=
200704220000 METAR MRLB 220000Z 29006KT CAVOK 28/21 A2980 OVC250 HZY=
200704220100 METAR MRLB 220100Z 30002KT CAVOK 27/22 A2982 RMK BKN250=
200704220500 METAR MRLB NIL=
200704220600 METAR MRLB NIL=
200704220700 METAR MRLB NIL=
200704220800 METAR MRLB NIL=
200704220900 METAR MRLB NIL=
200704221000 METAR MRLB NIL=
200704221100 METAR MRLB NIL=
200704221200 METAR MRLB 221200Z 14003KT CAVOK 23/20 A2985/SCT250 HZ LGT ARND=
200704221300 METAR MRLB 221300Z 15003KT NSC 25/21 A2987 TRACE CU HZY=
200704221400 METAR MRLB 221400Z 16006KT CAVOK 27/21 A2989 SCT300 HZY=
200704221500 METAR MRLB 221500Z 13005KT CAVOK 29/18 A2989 SCT300=
200704221600 METAR MRLB 221600Z 11006KT CAVOK 32/17 A2988 SCT300=
200704221700 METAR MRLB 221700Z 11008KT CAVOK 33/16 A2987 SCT300=
200704221800 METAR MRLB 221800Z 14004KT 9999 FEW040 34/16 A2986 FEW300=
200704221900 METAR MRLB 221900Z 10008KT 9999 FEW040 36/15 A2982=
200704222000 METAR MRLB 222000Z 26007KT 9999 SCT040 32/20 A2981=
200704222100 METAR MRLB 222100Z 29010KT 9999 SCT030 BKN250 33/19 A2981=
200704222200 METAR MRLB 222200Z 29010KT 9999 SCT025 BKN250 31/22 A2980 RMK TCU DST S=
200704222300 METAR MRLB 222300Z 30009KT 9999 SCT025 BKN250 30/22 A2980 RMK TCU S=
200704230000 METAR MRLB 230000Z 32005KT 9999 SCT025TCU BKN250 28/22 A2982=
200704230100 METAR MRLB 230100Z 34004KT 9999 FEW030 SCT180 27/22 A2985=
200704230200 METAR MRLB 230200Z 00000KT 9999 FEW030 SCT200 27/22 A2987=
200704230300 METAR MRLB NIL=
200704230500 METAR MRLB NIL=
200704230600 METAR MRLB NIL=
200704230700 METAR MRLB NIL=
200704230800 METAR MRLB NIL=
200704231000 METAR MRLB NIL=
200704231100 METAR MRLB NIL=
200704231200 METAR MRLB 231200Z 07005KT CAVOK 24/19 A2987 RMK FEW100 SCT250=
200704231300 METAR MRLB 231300Z 07010KT CAVOK 28/19 A2988 RMK FEW080 SCT250=
200704231400 METAR MRLB 231400Z 01010KT 9999 FEW040 SCT080 BKN180 26/20 A2991 RMK DZ N NE=
200704231500 METAR MRLB 231500Z 01009KT 9999 FEW040 SCT100 BKN180 27/19 A2992 RMK DZ DST N NE=
200704231600 METAR MRLB 231600Z 34010KT 9999 FEW040 SCT150 29/20 A2992 RMK DZ N NE=
200704231700 METAR MRLB 231700Z 02013KT 9999 SCT030 BKN250 31/19 A2991=
200704231800 METAR MRLB 231800Z 05018KT 9999 FEW020 SCT150 32/18 A2989=
200704231900 METAR MRLB 231900Z 03014KT 9999 FEW030 SCT180 33/17 A2984=
200704232000 METAR MRLB 232000Z 05014KT 9999 FEW030 33/17 A2981=
200704232100 METAR MRLB 232100Z 05018KT 9999 FEW040 SCT150 33/15 A2980=
200704232200 METAR MRLB 232200Z 07011KT 9999 FEW040 33/17 A2979=
200704232300 METAR MRLB 232300Z 07015KT 9999 FEW040 31/18 A2981=
200704240000 METAR MRLB 240000Z 07019KT CAVOK 28/19 A2983 RMK FEW100=
200704240100 METAR MRLB 240100Z 08015KT CAVOK 27/20 A2983 RMK FEW100=
200704240200 METAR MRLB 240200Z 07016KT CAVOK 27/21 A2987 RMK SCT100=
200704240300 METAR MRLB NIL=
200704240400 METAR MRLB NIL=
200704240500 METAR MRLB NIL=
200704240600 METAR MRLB NIL=
200704240700 METAR MRLB NIL=
200704240800 METAR MRLB NIL=
200704240900 METAR MRLB NIL=
200704241100 METAR MRLB NIL=
200704241200 METAR MRLB 241200Z 05005KT CAVOK 22/18 A2985 TRACE CU FEW250=
200704241300 METAR MRLB 241300Z 06003KT CAVOK 26/19 A2988 RMK TRACE CU FEW250=
200704241400 METAR MRLB 241400Z 34005KT 9999 NSC 28/19 A2990 RMK TRACE CU CI=
200704241500 METAR MRLB 241500Z 14003KT 9999 NSC 30/18 A2990 RMK TRACE CU CI=
200704241600 METAR MRLB 241600Z 09012KT 9999 FEW040 31/18 A2988=
200704241700 METAR MRLB 241700Z 09014KT 9999 FEW040 32/18 A2987=
200704241800 METAR MRLB 241800Z 11011KT 9999 FEW040 33/18 A2985=
200704241900 METAR MRLB 241900Z 09008KT 9999 FEW040 34/17 A2981=
200704242000 METAR MRLB 242000Z 07008KT 9999 FEW040 35/17 A2978=
200704242100 METAR MRLB 242100Z 08007KT 9999 FEW040 33/17 A2977=
200704242200 METAR MRLB 242200Z 08004KT 9999 SCT040 33/16 A2976=
200704242300 METAR MRLB 242300Z 30007KT 9999 SCT040 30/19 A2978=
200704250000 METAR MRLB 250000Z 30006KT 9999 SCT040 SCT250 30/19 A2980=
200704250100 METAR MRLB 250100Z 19004KT 9999 FEW040 SCT250 28/19 A29/83=
200704250200 METAR MRLB NIL=
200704250300 METAR MRLB NIL=
200704250400 METAR MRLB NIL=
200704250500 METAR MRLB NIL=
200704250800 METAR MRLB NIL=
200704251000 METAR MRLB NIL=
200704251100 METAR MRLB NIL=
200704251200 METAR MRLB 251200Z 18006KT 9999 FEW035 SCT250 28/19 A2985=
200704251300 METAR MRLB 251300Z 00000KT CAVOK 26/18 A2988/SCT250 TRACE CU=
200704251400 METAR MRLB 251400Z 00000KT CAVOK 28/19 A2989/BKN250=
200704251500 METAR MRLB 251500Z 00000KT CAVOK 31/20 A2988=
200704251600 METAR MRLB 251600Z 00000KT CAVOK 31/20 A2986 BKN250=
200704251700 METAR MRLB 251700Z 15002KT 9999 FEW040 SCT250 34/20 A2983=
200704251800 METAR MRLB 251800Z 09006KT 9999 FEW040 SCT250 35/20 A2980=
200704251900 METAR MRLB 251900Z 09004KT 9999 SCT040 SCT250 34/18 A2977=
200704252000 METAR MRLB 252000Z 07003KT 9999 SCT035 SCT250 35/18 A2975=
200704252100 METAR MRLB 252100Z 30005KT 9999 SCT035 BKN250 34/18 A2973=
200704252200 METAR MRLB 252200Z 23004KT 9999 SCT035 BKN250 32/21 A2972 RMK RN DST S=
200704252300 METAR MRLB 252300Z 20002KT 9999 SCT035 BKN250 30/22 A2976=
200704260000 METAR MRLB 260000Z 00000KT 9999 SCT035 OVC250 28/20 A2979 RMK RN DST SW=
200704260100 METAR MRLB 260100Z 00000KT 9999 SCT030 OVC250 26/22 A2982=
200704260200 METAR MRLB 260200Z 00000KT 9999 SCT035 BKN250 26/22 A2985=
200704260300 METAR MRLB NIL=
200704260400 METAR MRLB NIL=
200704260500 METAR MRLB NIL=
200704260600 METAR MRLB NIL=
200704260700 METAR MRLB NIL=
200704260900 METAR MRLB NIL=
200704261000 METAR MRLB NIL=
200704261200 METAR MRLB 261200Z 00000KT CAVOK 24/22 A2982 RMK OVC120 LEVE HZY=
200704261300 METAR MRLB 261300Z 00000KT CAVOK 26/22 A2984 RMK BKN120 HZ LGT ARND=
200704261400 METAR MRLB 261400Z 00000KT CAVOK 29/22 A2985 RMK BKN120 FEW250 HZ LGT ARND=
200704261500 METAR MRLB 261500Z 02003KT CAVOK 30/21 A2986 RMK SCT120 SCT250=
200704261600 METAR MRLB 261600Z 09008KT 9999 SCT030 SCT250 33/21 A2984=
200704261700 METAR MRLB 261700Z 10010KT 9999 BKN035 33/20 A2984=
200704261800 METAR MRLB 261800Z 13010KT 9999 FEW030TCU SCT035 33/20 A2982=
200704261900 METAR MRLB 261900Z 10012KT 9999 BKN035 35/20 A2978 RMK FEW250=
200704262000 METAR MRLB 262000Z 10012KT 9999 SCT035 36/18 A2975 RMK CB DST S TCU DST NE/E FEW130=
200704262100 METAR MRLB 262100Z VRB03KT 9999 FEW025TCU SCT050 35/18 A2973=
200704262200 METAR MRLB 262200Z 27010KT 8000 TSRA SCT015CB BKN080 30/19 A2974=
200704262300 METAR MRLB 262300Z 28008KT 8000 TSRA SCT015CB BKN100 25/22 A2977=
200704270000 METAR MRLB 270000Z 15004KT 9999 -DZ SCT025CB BKN150 25/22 A2980=
200704270100 METAR MRLB 270100Z 00000KT 8000 -RA FEW025 OVC100 25/21 A2982=
200704270200 METAR MRLB 270200Z 00000KT 9000 DZ FEW025 OVC100 25/22 A2984=
200704270300 METAR MRLB NIL=
200704270400 METAR MRLB NIL=
200704270600 METAR MRLB NIL=
200704270700 METAR MRLB NIL=
200704270800 METAR MRLB NIL=
200704270900 METAR MRLB NIL=
200704271000 METAR MRLB NIL=
200704271200 METAR MRLB 271200Z 06004KT CAVOK 23/22 A2982/FEW150=
200704271300 METAR MRLB 271300Z 00000KT CAVOK 26/23 A2985 FEW150=
200704271400 METAR MRLB 271400Z 00000KT CAVOK 28/24 A2986 FEW150=
200704271500 METAR MRLB 271500Z 11009KT 9999 FEW045 SCT250 32/23 A2985=
200704271600 METAR MRLB 271600Z 09010KT 9999 SCT025 BKN250 32/21 A2985=
200704271700 METAR MRLB 271700Z 12012KT 9999 SCT025 BKN250 33/21 A2983=
200704271800 METAR MRLB 271800Z 12012KT SCT025TCU BKN250 33/20 A2992=
200704271900 METAR MRLB 271900Z 12009KT 9999 FEW020TCU SCT050 34/20 A2979=
200704272000 METAR MRLB 272000Z 08013KT 9999 SCT020TCU BKN180 33/21 A2978=
200704272100 METAR MRLB 272100Z 30008KT 9999 FEW020CB SCT040 BKN180 30/23 A2978 RMK RN S SW=
200704272200 METAR MRLB 272200Z 26008KT 9999 SCT025CB BKN180 28/24 A2979 RMK RN S SW=
200704272300 METAR MRLB 272300Z 35003KT 9999 FEW030TCU SCT090 BKN200 28/22 A2980=
200704280000 METAR MRLB 280000Z 09008KT 9999 FEW030 SCT100 BKN200 29/21 A2983=
200704280100 METAR MRLB 280100Z 13005KT 9999 FEW030 SCT100 28/21 A2985=
200704280200 METAR MRLB 280200Z 10004KT 9999 FEW040 BKN150 28/22 A2986=
200704280300 METAR MRLB NIL=
200704280500 METAR MRLB NIL=
200704280700 METAR MRLB NIL=
200704280800 METAR MRLB NIL=
200704280900 METAR MRLB NIL=
200704281100 METAR MRLB NIL=
200704281200 METAR MRLB 281200Z 12002KT 9999 SCT030 BKN250 24/21 2984=
200704281300 METAR MRLB 281300Z 12008KT 9999 FEW035 BKN250 27/20 A2986=
200704281400 METAR MRLB 281400Z 09014KT CAVOK 29/18 A2987 RMK TRACE CU BKN250=
200704281500 METAR MRLB 281500Z 08017KT CAVOK 32/19 A2988 RMK TRACE CU FEW130 BKN250=
200704281600 METAR MRLB 281600Z 08017KT CAVOK 31/19 A2988 RMK TRACE CU FEW130 BKN250=
200704281700 METAR MRLB 281700Z NIL=
200704281800 METAR MRLB 281800Z 07017KT 9999 FEW035 BKN250 34/19 A2985=
200704282000 METAR MRLB 282000Z 11013KT 9999 SCT040 SCT120 32/19 A2982=
200704282100 METAR MRLB 282100Z 10012KT 9999 SCT040 BKN120 33/19 A2981=
200704282200 METAR MRLB 282200Z 09010KT 9999 SCT040 BKN130 31/19 A2980=
200704282300 METAR MRLB NIL=
200704290000 METAR MRLB 290000Z 08014KT 9999 SCT035 BKN130 28/20 A2985=
200704290100 METAR MRLB 290100Z 10011KT 9999 FEW035 BKN130 28/20 A2987=
200704290200 METAR MRLB 290200Z 10009KT 9999 FEW035 BKN120 27/20 A29/90=
200704290300 METAR MRLB NIL=
200704290500 METAR MRLB NIL=
200704290600 METAR MRLB NIL=
200704290700 METAR MRLB NIL=
200704290800 METAR MRLB NIL=
200704290900 METAR MRLB NIL=
200704291000 METAR MRLB NIL=
200704291100 METAR MRLB NIL=
200704291200 METAR MRLB 291200Z 05005KT CAVOK 25/20 A2986 BKN250=
200704291300 METAR MRLB 291300Z 08007KT CAVOK 29/20 A2988 RMK BKN250=
200704291400 METAR MRLB 291400Z 09014KT CAVOK 30/19 A2989 RMK BKN260=
200704291600 METAR MRLB 291600Z 08012KT 9999 FEW035 SCT260 33/19 A2988=
200704291700 METAR MRLB 291700Z 08012KT 9999 FEW035 SCT260 34/19 A2987=
200704291800 METAR MRLB 291800Z 09010KT 9999 SCT040 35/17 A2984=
200704291900 METAR MRLB 291900Z 11014KT 9999 SCT040 35/18 A2981=
200704292000 METAR MRLB 292000Z 08012KT 9999 SCT040 35/19 A2979=
200704292100 METAR MRLB 292100Z 07009KT 9999 SCT040 34/18 A2978=
200704292200 METAR MRLB 292200Z 10010KT 9999 FEW040 SCT250 33/18 A2977=
200704292300 METAR MRLB 292300Z 07010KT 9999 FEW040 SCT250 33/19 A2978=
200704300000 METAR MRLB 300000Z 07007KT 9999 FEW040 BKN250 31/20 A2981=
200704300100 METAR MRLB 300100Z 28005KT 9999 FEW040 BKN250 28/22 A2984=
200704300200 METAR MRLB 300200Z 25004KT 9999 FEW040 27/22 A2986=
200704300400 METAR MRLB NIL=
200704300500 METAR MRLB NIL=
200704300700 METAR MRLB NIL=
200704300800 METAR MRLB NIL=
200704300900 METAR MRLB NIL=
200704301100 METAR MRLB NIL=
200704301200 METAR MRLB 301200Z 20002KT CAVOK 23/21 A2984 RMK SCT250 TRACE CU=
200704301300 METAR MRLB 301300Z 20005KT 9999 NSC 26/22 A2985/TRACE CU AC CI=
200704301400 METAR MRLB 301400Z 2004KT 9999 NSC 29/22 A2987 TRACE CU AC CI=
200704301500 METAR MRLB 301500Z 20007KT 9999 FEW040 30/21 A2986/ FEW130=
200704301600 METAR MRLB 301600Z 27003KT 9999 SCT035 32/21 A2986 RN E ENE=
200704301700 METAR MRLB 301700Z 36004KT 9999 FEW030 SCT035 32/20 A2984 RND DIS ENE=
200704301800 METAR MRLB 301800Z 09013KT 9999 BKN035 SCT120 33/21 A2982 RN DIST NE E=
200704301900 METAR MRLB 301900Z 08012KT 9999 FEW030 BKN120 33/19 A2979/RN NW W/ CB DIST NE=
200704302000 METAR MRLB 302000Z 06015KT 9999 SCT040 BKN120 32/20 A2977/RN SW NW NE TCU SE=
200704302100 METAR MRLB 302100Z 10014KT 9999 SCT030TCU BKN130 32/19 A2982=
200704302200 METAR MRLB 302200Z 11010KT 9999 SCT030TCU BKN150 32/20 A2974=
200704302300 METAR MRLB 302300Z 10012KT 9999 FEW035 BKN170 32/19 A2975=
200705010000 METAR MRLB 010000Z 12008KT 9999 FEW040 SCT140 30/19 A2976=
200705010100 METAR MRLB 010100Z 12012KT CAVOK 29/19 A2979 RMK FEW100=
200705010200 METAR MRLB 010200Z 10015KT CAVOK 29/20 A2980 RMK FEW120=
200705010300 METAR MRLB NIL=
200705010400 METAR MRLB NIL=
200705010600 METAR MRLB NIL=
200705010700 METAR MRLB NIL=
200705010800 METAR MRLB NIL=
200705010900 METAR MRLB NIL=
200705011000 METAR MRLB NIL=
200705011100 METAR MRLB NIL=
200705011200 METAR MRLB 011200Z 00000KT CAVOK 24/20 A2979 FEW200=
200705011300 METAR MRLB 011300Z 00000KT CAVOK 27/21 A2982 RMK FEW200=
200705011400 METAR MRLB 011400Z 10006KT CAVOK 30/21 A2982 RMK FEW250=
200705011500 METAR MRLB 011500Z 11012KT 9999 FEW030 SCT250 32/20 A2983=
200705011600 METAR MRLB 011600Z 09012KT 9999 SCT030 32/21 A2982=
200705011700 METAR MRLB 011700Z 06015KT 9999 SCT030 33/20 A2980=
200705011800 METAR MRLB 011800Z 07006KT 9999 FEW025 BKN090 30/25 A2977 RMK RN DST NE/ENE HZ ARND=
200705012000 METAR MRLB 012000Z 08013KT 9999 SCT025 BKN250 34/20 A2972=
200705012100 METAR MRLB 012100Z 08011KT 9999 FEW030 SCT250 34/19 A2971=
200705012200 METAR MRLB 012200Z 09012KT 9999 FEW025TCU SCT090 BKN250 32/19 A2972 TCU RN S W=
200705012300 METAR MRLB 012300Z 11012KT 9999 FEW035 SCT100 BKN250 32/20 A2973=
200705012358 METAR MRLB 020000Z 10015KT 9999 FEW030TCU SCT080 30/21 A2977=
200705020000 METAR MRLB 020000Z 10015KT 9999 FEW030TCU SCT080 30/21 A2977=
200705020100 METAR MRLB 020100Z 11010KT 9999 FEW030CB SCT100 29/20 A2980=
200705020200 METAR MRLB 020200Z 09012KT 9999 FEW025TCU SCT120 28/21 A2983=
200705020300 METAR MRLB NIL=
200705020400 METAR MRLB NIL=
200705020500 METAR MRLB NIL=
200705020600 METAR MRLB NIL=
200705020900 METAR MRLB NIL=
200705021100 METAR MRLB NIL=
200705021200 METAR MRLB 021200Z 20004KT 9999 FEW035 BKN140 26/22 A2983/HZ LGT ARND=
200705021300 METAR MRLB 021300Z 36002KT CAVOK 25/21 A2984 RMK OVC120 TRACE SC=
200705021400 METAR MRLB 021400Z 36005KT CAVOK 27/22 A2985 OVC130 HZY=
200705021500 METAR MRLB 021500Z 32002KT CAVOK 29/21 A2984 BKN140 FEW250=
200705021600 METAR MRLB 021600Z 32004KT CAVOK 31/21 A2983 FEW140 BKN230=
200705021700 METAR MRLB 021700Z 28004KT CAVOK 31/21 A2982 OVC250 TRACE CU=
200705021800 METAR MRLB 021800Z 07005KT 9999 FEW035 BKN240 32/19 A2980=
200705021900 METAR MRLB 021900Z 32003KT 9999 SCT035 BKN250 33/21 A2977=
200705022000 METAR MRLB 022000Z 27004KT 9999 SCT035 BKN250 34/21 A2974 TCU RN N=
200705022100 METAR MRLB 022100Z 29010KT 9999 SCT035 BKN250 31/22 A2972=
200705022200 METAR MRLB 022200Z 29009KT 9999 SCT035 BKN140 29/23 A2975=
200705022300 METAR MRLB 022300Z 30005KT 9999 FEW040 BKN130 29/22 A2976=
200705030000 METAR MRLB 030000Z 23003KT 9999 FEW040 BKN130 28/22 A2979=
200705030100 METAR MRLB 030100Z 17003KT 9999 FEW040 SCT130 BKN240 27/23 A2982=
200705030200 METAR MRLB 030200Z 19004KT 9999 FEW040 BKN240 26/23 A2983=
200705030300 METAR MRLB NIL=
200705030400 METAR MRLB NIL=
200705030500 METAR MRLB NIL=
200705030600 METAR MRLB NIL=
200705030800 METAR MRLB NIL=
200705030900 METAR MRLB NIL=
200705031000 METAR MRLB NIL=
200705031100 METAR MRLB NIL=
200705031200 METAR MRLB 031200Z 05002KT CAVOK 23/22 A2984 RMK BKN250 HZ ARND=
200705031300 METAR MRLB 031300Z 06002KT CAVOK 25/22 A2984 RMK HZ ARND BKN250=
200705031400 METAR MRLB 031400Z 34002KT CAVOK 27/22 A2986 RMK HZ LGT ARND BKN250=
200705031500 METAR MRLB 031500Z 16003KT 9999 FEW035 BKN250 29/22 A2986 RMK HZ ARND=
200705031600 METAR MRLB 031600Z 19004KT 9999 FEW035 BKN250 31/22 A2987=
200705031800 METAR MRLB 031800Z 12002KT 9999 SCT035 BKN250 32/21 A2981=
200705031900 METAR MRLB 031900Z 29009KT 9999 FEW020TCU SCT030 OVC250 33/22 A2979 RMK RN DST N NE=
200705032000 METAR MRLB 032000Z 06015KT 9999 -RA SCT025 BKN120 27/23 A2979=
200705032100 METAR MRLB 032100Z 26004KT 9999 SCT030 BKN140 30/23 A2977 RMK RN DST S SE=
200705032200 METAR MRLB 032200Z 18004KT 9999 SCT030 BKN130 26/24 A2978 RMK RN DST S=
200705032300 METAR MRLB 032300Z 10007KT 9999 2500SW VCSH FEW020TCU SCT030 BKN120 26/24 A2980 RMK RN DST E NE=
200705040000 METAR MRLB 040000Z 03005KT 3000 RA SCT015 OVC100 24/24 A2983=
200705040100 METAR MRLB 040100Z 00000KT 9999 DZ SCT025 OVC120 24/24 A2986=
200705040200 METAR MRLB 040200Z 24003KT 9999 FEW035 BKN130 24/24 A29/87=
200705040300 METAR MRLB NIL=
200705040400 METAR MRLB NIL=
200705040500 METAR MRLB NIL=
200705040600 METAR MRLB NIL=
200705040700 METAR MRLB NIL=
200705040800 METAR MRLB NIL=
200705040900 METAR MRLB NIL=
200705041200 METAR MRLB 041200Z 09002KT 9999 BKN035 SCT250 23/23 A2983 FG SW W N=
200705041300 METAR MRLB 041300Z 06002KT CAVOK 24/24 A2985 RMK FEW120 BKN250 ST W SW=
200705041400 METAR MRLB 041400Z VRB02KT 9999 FEW013 BKN250 26/24 A2986 RMK ST SW W=
200705041500 METAR MRLB 041500Z 23002KT 9999 SCT025 BKN250 29/24 A2986=
200705041600 METAR MRLB 041600Z 17002KT 9999 SCT030 BKN250 29/24 A2985=
200705041700 METAR MRLB 041700Z 24003KT 9999 SCT030 BKN250 31/24 A2983=
200705041800 METAR MRLB 041800Z 14004KT 9999 BKN035 SCT250 32/22 A2981=
200705041900 METAR MRLB 041900Z 12005KT 9999 BKN035 SCT300 33/21 A2978=
200705042000 METAR MRLB 042000Z 29006KT 9999 FEW030TCU SCT035 33/24 A2975 RMK FEW120=
200705042100 METAR MRLB 042100Z 30007KT 9999 FEW025TCU SCT100 BKN250 31/24 A2973=
200705042200 METAR MRLB 042200Z 29009KT 9999 FEW025TCU SCT100 BKN250 31/24 A2971=
200705042300 METAR MRLB 042300Z 28008KT 9999 SCT025TCU BKN250 30/23 A2972/TCU RN=
200705050000 METAR MRLB 050000Z 28005KT 9999 SCT025TCU BKN250 28/23 A2976/ TCU RN S SE SW=
200705050100 METAR MRLB 050100Z 26004KT 9999 FEW020TCU SCT100 28/25 A2978=
200705050200 METAR MRLB 050200Z 00000KT CAVOK 26/24 A2979=
200705050300 METAR MRLB NIL=
200705050400 METAR MRLB NIL=
200705050500 METAR MRLB NIL=
200705050600 METAR MRLB NIL=
200705050700 METAR MRLB NIL=
200705050800 METAR MRLB NIL=
200705050900 METAR MRLB NIL=
200705051000 METAR MRLB NIL=
200705051100 METAR MRLB NIL=
200705051300 METAR MRLB 051300Z 00000KT CAVOK 27/24 A2980 SCT250=
200705051400 METAR MRLB 051400Z 00000KT 9999 FEW020 SCT250 29/24 A2981=
200705051500 METAR MRLB 051500Z 22004KT 9999 SCT025 BKN250 31/24 A2980=
200705051600 METAR MRLB 051600Z 12008KT 9999 SCT025 BKN250 32/22 A2979=
200705051700 METAR MRLB 051700Z 15003KT 9999 FEW020 SCT040 BKN250 33/22 A2978=
200705051800 METAR MRLB 051800Z 00000KT 9999 FEW020TCU SCT040 BKN200 32/22 A2976=
200705051900 METAR MRLB NIL MRPV 051900Z 26003KT 9999 2000E TSSH FE010 SCT015CB BKN030 24/20 A2992=
200705052000 METAR MRLB 052000Z 28009KT 9999 SCT025TCU BKN250 32/23 A2971=
200705052200 METAR MRLB 052200Z 29006KT 9999 SCT020TCU BKN250 31/24 A2969 RMK RN DST N/SE/S=
200705052300 METAR MRLB 052300Z 12010KT 9999 3000NW TSRA SCT010CB BKN045 25/23 A2975=
200705060000 METAR MRLB 060000Z 19006KT 9999 FEW015TCU SCT090 BKN250 25/23 A2975=
200705060100 METAR MRLB 060100Z 18004KT 9999 FEW025 SCT100 25/23 A2977=
200705060200 METAR MRLB 060200Z 00000KT 9999 FEW025 SCT170 25/22 A2979=
200705060300 METAR MRLB NIL=
200705060500 METAR MRLB NIL=
200705060600 METAR MRLB NIL=
200705060700 METAR MRLB NIL=
200705060800 METAR MRLB NIL=
200705060900 METAR MRLB NIL=
200705061000 METAR MRLB NIL=
200705061100 METAR MRLB NIL=
200705061200 METAR MRLB 061200Z 14003KT CAVOK 23/23 A2979 RMK SCT130 SCT250 LEVE HZY=
200705061300 METAR MRLB 061300Z 00000KT CAVOK 25/23 A2980 RMK HZ LGT ARND SCT130 BKN230=
200705061400 METAR MRLB 061400Z 00000KT CAVOK 26/23 A2982 RMK SCT140 BKN230 HZ LGT ARND=
200705061500 METAR MRLB 061500Z 15002KT CAVOK 28/23 A2981 RMK HZ LHT ARND SCT140 BKN230=
200705061600 METAR MRLB 061600Z 27004KT CAVOK 29/24 2982 RMK HZ LGT ARND SCT140 BKN240=
200705061700 METAR MRLB 061700Z 25003KT CAVOK 30/23 A2981 RMK FEW140 BKN240=
200705061800 METAR MRLB 061800Z 28003KT CAVOK 32/22 A2979 RMK OVC250 TRAZAS CU=
200705061900 METAR MRLB 061900Z 11003KT 9999 FEW035 BKN250 34/21 A2974=
200705062000 METAR MRLB 062000Z 12004KT 9999 SCT035 BKN250 34/21 A2972=
200705062100 METAR MRLB 062100Z 26008KT 9999 SCT035 OVC250 33/23 A2970=
200705062200 METAR MRLB 062200Z 25008KT 9999 SCT040 BKN250 33/22 A2971=
200705062300 METAR MRLB 062300Z 16004KT 9999 FEW040 BKN250 33/21 A2972=
200705070000 METAR MRLB 070000Z 23002KT 9999 SCT035 OVC250 31/20 A2973=
200705070200 METAR MRLB NIL=
200705070300 METAR MRLB NIL=
200705070400 METAR MRLB NIL=
200705070500 METAR MRLB NIL=
200705070600 METAR MRLB NIL=
200705070700 METAR MRLB NIL=
200705070800 METAR MRLB NIL=
200705071000 METAR MRLB NIL=
200705071100 METAR MRLB NIL=
200705071200 METAR MRLB 071200Z 00000KT CAVOK 24/22 A2976/ HZ ARND/ BKN250=
200705071300 METAR MRLB 071300Z 25002KT CAVOK 25/23 A2977 BKN250=
200705071400 METAR MRLB 071400Z 18005KT CAVOK 28/24 A2979 HZY BKN250=
200705071500 METAR MRLB 071500Z 20005KT 9999 FEW035 OVC250 30/23 A2980 HZY=
200705071600 METAR MRLB 071600Z 13010KT 9999 FEW035 OVC250 31/23 A2979=
200705071700 METAR MRLB 071700Z 09006KT 9999 SCT035 BKN250 32/23 A2977=
200705071800 METAR MRLB 071800Z 12011KT 9999 SCT030 BKN250 33/21 A2976=
200705071900 METAR MRLB 071900Z 13008KT 9999 SCT035 OVC250 34/21 A2973=
200705072000 METAR MRLB 072000Z 10005KT 9999 SCT040 OVC250 34/20 A2987=
200705072100 METAR MRLB 072100Z 29006KT 9999 SCT040 OVC250 32/22 A2968=
200705072200 METAR MRLB 072200Z 25005KT 9999 SCT040 BKN250 32/23 A2968=
200705072300 METAR MRLB 072300Z 24004KT 9999 FEW040 BKN250 32/23 A2969=
200705080000 METAR MRLB 080000Z 19003KT 9999 FEW040 OVC250 30/22 A2971=
200705080100 METAR MRLB 080100Z 16005KT 9999 FEW035 BKN250 29/22 A2973=
200705080200 METAR MRLB 080200Z 14007KT 9999 FEW035 BKN250 26/21 A2975=
200705080300 METAR MRLB NIL=
200705080500 METAR MRLB NIL=
200705080600 METAR MRLB NIL=
200705080900 METAR MRLB NIL=
200705081000 METAR MRLB NIL=
200705081100 METAR MRLB NIL=
200705081200 METAR MRLB 081200Z 00000KT CAVOK 23/21 A2979 RMK OVC250 TRAZAS SC=
200705081300 METAR MRLB 081300Z 12002KT CAVOK 26/22 A2980 RMK BKN250 TRACE SC=
200705081400 METAR MRLB 081400Z 14002KT CAVOK 27/22 A2981 RMK BKN250 TRACE CU=
200705081500 METAR MRLB 081500Z 00000KT CAVOK 29/22 A2982 RMK BKN250 TRACE CU=
200705081600 METAR MRLB 081600Z 13003KT CAVOK 31/21 A2981 RMK BKN250 TRACE CU=
200705081700 METAR MRLB 081700Z 36006KT 9999 SCT035 SCT250 33/20 A2979=
200705081800 METAR MRLB 081800Z 11006KT 9999 FEW035 SCT250 34/21 A2976=
200705081900 METAR MRLB 081900Z 06004KT 9999 SCT035 34/21 A2974=
200705082000 METAR MRLB 092000Z 15005KT 9999 SCT035 35/20 A2970=
200705082100 METAR MRLB 082100Z 29004KT 9999 BKN030 32/23 A2968 RMK CB DST N SE=
200705082200 METAR MRLB 082200Z 32006KT 9999 BKN030 33/23 A2969 RMK TCU DST NE=
200705082300 METAR MRLB 082300Z 27004KT 9999 BKN030 31/22 A2972 RMK TCU RN DST NE SE=
200705090000 METAR MRLB 090000Z 22002KT 9999 SCT020TCU BKN025 30/22 A2975 RMK TSRN DST S=
200705090100 METAR MRLB 090100Z 20005KT 9999 SCT025 27/24 A2978=
200705090200 METAR MRLB 090200Z 16006KT 9999 FEW030 26/24 A2979=
200705090300 METAR MRLB NIL=
200705090600 METAR MRLB NIL=
200705090700 METAR MRLB NIL=
200705090800 METAR MRLB NIL=
200705091000 METAR MRLB NIL=
200705091100 METAR MRLB NIL=
200705091200 METAR MRLB 091200Z 14003KT 9999 FEW010 OVC140 24/23 A2983=
200705091400 METAR MRLB 091400Z 00000KT CAVOK 28/23 A2985 RMK OVC240 CB DST S=
200705091500 METAR MRLB 091500Z 26006KT CAVOK 30/22 A2985 RMK BKN250=
200705091600 METAR MRLB 091600Z 12007KT 9999 FEW035 BKN250 32/21 A2985=
200705091700 METAR MRLB 091700Z 10007KT 9999 SCT035 SCT250 33/20 A2984=
200705091900 METAR MRLB 091900Z 15005KT 9999 SCT035 SCT250 35/20 A2979=
200705092000 METAR MRLB 092000Z 31010KT 9999 -RA BKN025 27/24 A2979=
200705092100 METAR MRLB 092100Z 31009KT 9999 -RA SCT025 SCT120 27/23 A2980=
200705092200 METAR MRLB 092200Z 30005KT 9999 FEW025 BKN120 28/25 A2980 RMK RN DST S SW=
200705092300 METAR MRLB 092300Z 00000KT 9999 FEW025 BKN120 28/25 A2981 RN S SW=
200705100000 METAR MRLB 100000Z 20003KT CAVOK 27/24 A2983 RMK OVC120=
200705100100 METAR MRLB 100100Z 11002KT CAVOK 26/24 A29/84 RMK BKN120=
200705100200 METAR MRLB NIL=
200705100300 METAR MRLB NIL=
200705100400 METAR MRLB NIL=
200705100500 METAR MRLB NIL=
200705100600 METAR MRLB NIL=
200705100700 METAR MRLB NIL=
200705100800 METAR MRLB NIL=
200705100900 METAR MRLB NIL=
200705101000 METAR MRLB NIL=
200705101100 METAR MRLB NIL=
200705101200 METAR MRLB 101200Z 00000KT CAVOK 23/22 A2983 RMK SCT250 CB DST SE=
200705101300 METAR MRLB 101300Z 17002KT CAVOK 25/23 A2984/ FEW 250=
200705101400 METAR MRLB 101400Z 26002KT CAVOK 28/23 A2985 FEW250=
200705101500 METAR MRLB 101500Z 27005KT CAVOK 27/22 A2986- SCT250 TRACE CU=
200705101600 METAR MRLB 101600Z 04006KT 9999 FEW035 SCT250 31/22 A2985=
200705101700 METAR MRLB 101700Z 20004KT 9999 SCT035 SCT250 31/22 A2983=
200705101800 METAR MRLB 101800Z 22004KT 9999 SCT035 SCT250 34/22 A2981=
200705101900 METAR MRLB 101900Z 20006KT 9999 FEW030TCU SCT035 34/20 A2978/ FEW250=
200705102000 METAR MRLB 102000Z 29010KT 9999 FEW030TCU SCT035 31/23 A2976 RMK FEW250=
200705102100 METAR MRLB 102100Z 29011KT 9999 SCT030 BKN250 31/23 A2976 RMK RN DST N NE=
200705102200 METAR MRLB 102200Z 32006KT 9999 SCT030 OVC240 28/25 A2977=
200705102300 METAR MRLB 102300Z 32006KT 9999 SCT035 BKN240 29/25 A2977=
200705110000 METAR MRLB 110000Z 26003KT 9999 SCT035 OVC240 28/24 A2979=
200705110100 METAR MRLB 110100Z 00000KT 9999 SCT030 BKN240 28/24 A2981=
200705110200 METAR MRLB NIL=
200705110300 METAR MRLB NIL=
200705110400 METAR MRLB NIL=
200705110500 METAR MRLB NIL=
200705110600 METAR MRLB NIL=
200705110700 METAR MRLB NIL=
200705110800 METAR MRLB NIL=
200705110900 METAR MRLB NIL=
200705111000 METAR MRLB NIL=
200705111100 METAR MRLB NIL=
200705111200 METAR MRLB 111200Z 00000KT 9999 FEW035 BKN250 24/23 A2982=
200705111300 METAR MRLB 111300Z 05003KT 9999 FEW035 BKN250 25/24 A2983=
200705111400 METAR MRLB 111400Z 26002KT 9999 FEW035 SCT260 29/24 A2986=
200705111500 METAR MRLB 111500Z 23002KT 9999 FEW035 SCT260 29/23 A2985=
200705111600 METAR MRLB 111600Z 00000KT 9999 FEW040 SCT260 31/24 A2983=
200705111700 METAR MRLB 111700Z 23003KT 9999 SCT040 SCT260 33/22 A2981=
200705111800 METAR MRLB 111800Z 27004KT 9999 SCT040 BKN260 33/21 A2978=
200705111900 METAR MRLB 111900Z 17002KT 9999 SCT035 BKN250 34/20 A2976=
200705112000 METAR MRLB 112000Z 28006KT 9999 SCT035 OVC250 33/22 A2974=
200705112100 METAR MRLB 112100Z 29006KT 9999 SCT040 BKN250 34/22 A2972=
200705112200 METAR MRLB 112200Z 30007KT 9999 SCT040 SCT250 33/25 A2971=
200705112300 METAR MRLB 112300Z 30004KT 9999 SCT035 BKN250 31/23 A2973=
200705120000 METAR MRLB 120000Z 25004KT 9999 FEW035 BKN250 30/22 A2976=
200705120100 METAR MRLB 120100Z 24005KT 9999 FEW035 BKN250 29/23 A2978=
200705120200 METAR MRLB NIL=
200705120300 METAR MRLB NIL=
200705120400 METAR MRLB NIL=
200705120500 METAR MRLB NIL=
200705120600 METAR MRLB NIL=
200705120700 METAR MRLB NIL=
200705120800 METAR MRLB NIL=
200705120900 METAR MRLB NIL=
200705121000 METAR MRLB NIL=
200705121100 METAR MRLB NIL=
200705121200 METAR MRLB 121200Z 03004KT CAVOK 24/23 A2982/ SCT300=
200705121300 METAR MRLB 121300Z 05002KT CAVOK 26/23 A2985=
200705121400 METAR MRLB 121400Z 00000KT CAVOK 30/23 A2986 SCT300=
200705121500 METAR MRLB 121500Z 31004KT 9999 FEW035 SCT300 31/23 A2986=
200705121600 METAR MRLB 121600Z 02004KT 9999 BKN035 32/22 A2985 FEW300=
200705121700 METAR MRLB 121700Z 31004KT 9999 BKN035 32/23 A2983 FEW300=
200705121800 METAR MRLB 121800Z 32005KT 9999 BKN035 33/23 A2980 FEW250=
200705121900 METAR MRLB 121900Z 28004KT 9999 BKN035 34/24 A2977 FEW250=
200705122000 METAR MRLB 122000Z 31005KT 9999 FEW030TCU SCT035 34/23 A2975=
200705122100 METAR MRLB 122100Z 27006KT 9999 FEW039TCU SCT035 35/24 A2973 RMK RN DST N RASH E 7000 FEW250=
200705122200 METAR MRLB 122200Z 01007KT 9999 RA FEW025TCU SCT035 BKN100 27/24 A2976 RMK 6000 NW N RASH CB DST E=
200705122300 METAR MRLB 122300Z 18008KT 9999 -RA BKN030 SCT100 27/25 A2980 RMK CB TS DST SW S=
200705130000 METAR MRLB 130000Z 18003KT 9999 SCT030 BKN120 26/25 A2982 RMK RN DST S W CB DST NE SE S LOW SCT S SE=
200705130100 METAR MRLB NIL=
200705130200 METAR MRLB NIL=
200705130300 METAR MRLB NIL=
200705130400 METAR MRLB NIL=
200705130500 METAR MRLB NIL=
200705130600 METAR MRLB NIL=
200705130700 METAR MRLB NIL=
200705130800 METAR MRLB NIL=
200705130900 METAR MRLB NIL=
200705131000 METAR MRLB NIL=
200705131100 METAR MRLB NIL=
200705131200 METAR MRLB 131200Z 00000KT CAVOK 25/24 A2988 RMK OVC130=
200705131300 METAR MRLB 131300Z 07002KT CAVOK 26/24 A2990 RMK OVC140=
200705131400 METAR MRLB 131400Z 22002KT 9999 FEW015 OVC220 27/24 A2990=
200705131500 METAR MRLB 131500Z 25004KT 9999 FEW020 OVC240 29/25 A2990=
200705131600 METAR MRLB 131600Z 25002KT 9999 SCT025 BKN240 31/25 A2989=
200705131700 METAR MRLB 131700Z 21003KT 9999 SCT030 BKN250 31/24 A2986=
200705131800 METAR MRLB 131800Z 20004KT 9999 SCT030 BKN130 33/24 A2983=
200705131900 METAR MRLB 131900Z 14003KT 9999 SCT030 SCT130 33/24 A2980=
200705132000 METAR MRLB 132000Z 17004KT 9999 SCT030 SCT130 34/24 A2976=
200705132100 METAR MRLB 132100Z 29007KT 9999 SCT030 34/25 A2974=
200705132200 METAR MRLB 132200Z 30009KT 9999 BKN030 33/25 A2974 RMK RN DST SW=
200705132300 METAR MRLB 132300Z 28009KT 9999 -TS FEW020CB SCT025 30/25 A2976 RN DST E SE=
200705140000 METAR MRLB 140000Z 12015KT 3000 -TSRA SCT010CB BKN020 26/23 A2984 RMK 9999W=
200705140100 METAR MRLB 140100Z 15004KT 9999 -RA SCT020 BKN120 25/24 A2984=
200705140200 METAR MRLB NIL=
200705140300 METAR MRLB NIL=
200705140400 METAR MRLB NIL=
200705140500 METAR MRLB NIL=
200705140600 METAR MRLB NIL=
200705140700 METAR MRLB NIL=
200705140800 METAR MRLB NIL=
200705140900 METAR MRLB NIL=
200705141000 METAR MRLB NIL=
200705141100 METAR MRLB NIL=
200705141200 METAR MRLB 141200Z 07002KT 9999 FEW030 BKN250 24/23 A2984=
200705141300 METAR MRLB 141300Z 10002KT 9999 SCT030 SCT100 26/24 A2988 RMK RN DST N=
200705141400 METAR MRLB 141400Z 36005KT 9999 FEW030 BKN100 25/24 A2988 RMK RN DSTN=
200705141500 METAR MRLB 141500Z 00000KT 9999 FEW030 BKN100 28/24 A2989 RMK RN DST NE=
200705141600 METAR MRLB 141600Z 11004KT 9999 FEW030 SCT130 30/24 A2988=
200705141700 METAR MRLB 141700Z 12010KT 9999 FEW030 BKN130 32/23 A2987=
200705141800 METAR MRLB 141800Z 09007KT 9999 FEW035 BKN130 32/24 A2985=
200705141900 METAR MRLB 141900Z 08004KT 9999 FEW035 SCT130 33/23 A2982=
200705142000 METAR MRLB 142000Z 05003KT 9999 SCT035 SCT130 34/23 A2977=
200705142100 METAR MRLB 142100Z 04005KT 9999 SCT035 BKN130 33/23 A2976 RMK RN DST NE=
200705142200 METAR MRLB 142200Z 24003KT 9999 SCT035 BKN240 29/25 A2976 RMK RN DST S RERA=
200705142300 METAR MRLB 142300Z 08010KT 9999 SCT030 BKN240 30/23 A2977=
200705150000 METAR MRLB 150000Z 09011KT 9999 SCT035 OVC240 30/21 A2979 RMK RN DST N=
200705150100 METAR MRLB 150100Z 10012KT 9999 SCT035 BKN240 29/21 A2981=
200705150200 METAR MRLB NIL=
200705150300 METAR MRLB NIL=
200705150400 METAR MRLB NIL=
200705150500 METAR MRLB NIL=
200705150600 METAR MRLB NIL=
200705150700 METAR MRLB NIL=
200705150800 METAR MRLB NIL=
200705150900 METAR MRLB NIL=
200705151000 METAR MRLB NIL=
200705151100 METAR MRLB NIL=
200705151200 METAR MRLB 151200Z 00000KT CAVOK 24/22 A2981 RMK SCT260=
200705151300 METAR MRLB 151300Z 27002KT CAVOK 26/23 A2982 RMK BKN260=
200705151400 METAR MRLB 151400Z 00000KT CAVOK 29/23 A2984 RMK SCT260 TAZAS CU=
200705151500 METAR MRLB 151500Z 28002KT 9999 FEW035 BKN260 30/22 A2984=
200705151600 METAR MRLB 151600Z 10008KT 9999 SCT035 BKN260 32/22 A2984=
200705151700 METAR MRLB 151700Z 10007KT 9999 SCT040 SCT260 33/23 A2983=
200705151800 METAR MRLB 151800Z 10009KT 9999 SCT040 BKN260 34/22 A2980=
200705151900 METAR MRLB 151900Z 07008KT 9999 SCT040 SCT250 34/22 A2977=
200705152000 METAR MRLB 152000Z 10003KT 9999 -RA FEW020TCU SCT030 OVC100 33/22 A2976=
200705152100 METAR MRLB 152100Z 30007KT 9999 SCT035 OVC240 31/24 A2974 RMK RN E=
200705152200 METAR MRLB 152200Z 29009KT 9999 SCT035 BKN240 31/24 A2974=
200705152300 METAR MRLB 152300Z 27005KT 9999 FEW035 BKN240 31/25 A2975 RMK RN S=
200705160000 METAR MRLB 160000Z 19006KT 9999 SCT030 BKN140 28/25 A2979 RMK RN DST E SE S=
200705160100 METAR MRLB 160100Z 15004KT 9999 -RA FEW020TCU SCT030 BKN120 25/24 A2983=
200705160200 METAR MRLB 160200Z 09003KT 5000 RA SCT020 BKN100 25/24 A2987=
200705160300 METAR MRLB NIL=
200705160400 METAR MRLB NIL=
200705160500 METAR MRLB NIL=
200705160600 METAR MRLB NIL=
200705160700 METAR MRLB NIL=
200705160800 METAR MRLB NIL=
200705160900 METAR MRLB NIL=
200705161000 METAR MRLB NIL=
200705161100 METAR MRLB NIL=
200705161200 METAR MRLB 161200Z 00000KT 9999 FEW040 SCT280 24/24 A2979 RMK CB DST N NW=
200705161300 METAR MRLB 161300Z 180002KT 9999 FEW040 SCT300 26/24 A2981 RMK CB N=
200705161400 METAR MRLB 161400Z 19003KT CAVOK 27/25 A2982 TRACE CU SCT250=
200705161500 METAR MRLB 161500Z 27005KT CAVOK 29/25 A2982 RMK SCT300 TRACE CU=
200705161600 METAR MRLB 161600Z 26005KT 9999 FEW035 SCT300 31/24 A2981=
200705161700 METAR MRLB 161700Z 20003KT 9999 SCT035 32/23 A2981 RMK FEW300=
200705161800 METAR MRLB 161800Z 28003KT 9999 FEW035 SCT300 33/24 A2979=
200705161900 METAR MRLB 161900Z 33006KT 9999 FEW030TCU SCT035 34/24 A2976 RMK TRACE CI=
200705162000 METAR MRLB 162000Z 29004KT 9999 SCT035 34/23 A2973 RMK RN S=
200705162100 METAR MRLB 162100Z 32004KT 9999 SCT035 34/22 A2971 CB SW=
200705162200 METAR MRLB 162200Z 28006KT 9999 SCT035 SCT120 34/23 A2970 CB SE=
200705162300 METAR MRLB 162300Z 27005KT 9999 SCT030 SCT120 34/23 A2970 RN E S CB SE=
200705170000 METAR MRLB 170000Z 20004KT 9999 FEW035 BKN120 31/21 A2974 RN DST E=
200705170100 METAR MRLB 170100Z 19006KT 9999 FEW035 BKN120 28/23 A2975=
200705170200 METAR MRLB 170200Z 14006KT 9999 FEW035 BKN120 28/22 A2980=
200705170300 METAR MRLB NIL=
200705170400 METAR MRLB NIL=
200705170500 METAR MRLB NIL=
200705170600 METAR MRLB NIL=
200705170800 METAR MRLB NIL=
200705170900 METAR MRLB NIL=
200705171000 METAR MRLB NIL=
200705171100 METAR MRLB NIL=
200705171200 METAR MRLB 171200Z 00000KT 9999 VCFG FEW001 BKN250 25/24 A2981 RMK TRAZAS SC HZ ARND CB DST W VIS 7KMS TO S=
200705171300 METAR MRLB 171300Z 00000KT CAVOK 27/24 A2984 TRACE CU BKN250 HZY=
200705171400 METAR MRLB 171400Z 00000KT 9999 FEW030 BKN250 28/25 A2986 HZY=
200705171500 METAR MRLB 171500Z 21003KT 9999 FEW030 BKN250 29/24 A2986 HZY=
200705171600 METAR MRLB 171600Z 26004KT 9999 FEW030 BKN250 30/24 A2985 HZY=
200705171700 METAR MRLB 171700Z 31006KT 9999 FEW030 BKN250 31/24 A2983 HZY=
200705171800 METAR MRLB 171800Z 04004KT 9999 FEW030 BKN250 32/23 A2979 HZY=
200705171900 METAR MRLB 171900Z 30008KT 9999 SCT035TCU 33/25 A2976 RN NE HZY=
200705172000 METAR MRLB 172000Z 29007KT 9999 FEW030 SCT120 33/25 A2974 CB RN SE HZY=
200705172100 METAR MRLB 172100Z 30008KT 9999 FEW030 BKN120 32/25 A2973 RMK CB RN DST S=
200705172200 METAR MRLB NIL=
200705172300 METAR MRLB 172300Z 17003KT 9999 FEW030 BKN130 28/24 A2976 RMK RN DST S=
200705180000 METAR MRLB 180000Z 16005KT 9999 FEW030 OVC130 28/24 A2979=
200705180100 METAR MRLB NIL=
200705180200 METAR MRLB 180200Z 13006KT 9999 FEW030 BKN130 27/24 A2984=
200705180300 METAR MRLB NIL=
200705180400 METAR MRLB NIL=
200705180500 METAR MRLB NIL=
200705180600 METAR MRLB NIL=
200705180700 METAR MRLB NIL=
200705180800 METAR MRLB NIL=
200705180900 METAR MRLB NIL=
200705181000 METAR MRLB NIL=
200705181100 METAR MRLB NIL=
200705181200 METAR MRLB 181200Z 00000KT CAVOK 24/23 A2980 RMK FEW150 BKN250=
200705181300 METAR MRLB 181300Z 00000KT CAVOK 26/24 A2981 RMK BKN250=
200705181400 METAR MRLB 181400Z 19005KT CAVOK 28/24 A2982=
200705181500 METAR MRLB 181500Z 19005KT CAVOK 30/24 A2984 RMK BKN250=
200705181600 METAR MRLB 181600Z 25004KT 9999 FEW030 BKN250 32/23 A2983=
200705181700 METAR MRLB 181700Z 25006KT 9999 FEW030 BKN250 32/19 A2983=
200705181800 METAR MRLB 181800Z 23008KT 9999 FEW030 BKN250 33/24 A2981=
200705181900 METAR MRLB 181900Z 31008KT 9999 SCT025 BKN250 33/22 A2979=
200705182000 METAR MRLB 182000Z 15005KT 9999 SCT025TCU BKN180 32/23 A2977 RMK RN NE S=
200705182100 METAR MRLB 182100Z 16006KT 9999 -TSDZ FEW010CB BKN180 27/25 A2977 RMK RN DST S SW=
200705182200 METAR MRLB 182200Z 20005KT 9999 FEW030 BKN180 26/24 A2979 RMK RN DST S=
200705182300 METAR MRLB 182300Z 05004KT 9999 FEW025 SCT100 BKN250 27/20 A2980=
200705190000 METAR MRLB 190000Z 14006KT 9999 FEW030 SCT180 26/24 A2983=
200705190100 METAR MRLB 190100Z 10003KT 9999 FEW030 SCT150 26/24 A2985=
200705190200 METAR MRLB 190200Z 00000KT 9999 FEW040 SCT180 26/23 A2987=
200705190300 METAR MRLB NIL=
200705190400 METAR MRLB NIL=
200705190500 METAR MRLB NIL=
200705190600 METAR MRLB NIL=
200705190700 METAR MRLB NIL=
200705190800 METAR MRLB NIL=
200705190900 METAR MRLB NIL=
200705191000 METAR MRLB NIL=
200705191100 METAR MRLB NIL=
200705191200 METAR MRLB 191200Z 00000KT 9999 SCT035 BKN130 25/23 A2986 RN DST S=
200705191300 METAR MRLB 191300Z 15003KT 9999 SCT035 BKN140 26/24 A2988=
200705191400 METAR MRLB 191400Z 17004KT 9999 SCT035 BKN140 27/24 A2989=
200705191500 METAR MRLB 191500Z 18003KT 9999 SCT030 OVC240 29/24 A2989=
200705191600 METAR MRLB 191600Z 19005KT 9999 FEW035 OVC240 29/24 A2988=
200705191700 METAR MRLB 191700Z 18006KT 9999 FEW035 BKN240 30/24 A2986=
200705191800 METAR MRLB 191800Z 18003KT 9999 SCT035 BKN140 31/23 A2983=
200705191900 METAR MRLB 191900Z 20004KT 9999 SCT035 BKN130 32/23 A2982=
200705192000 METAR MRLB 192000Z 29004KT 9999 SCT030 OVC130 32/22 A2980=
200705192100 METAR MRLB 192100Z 27003KT 9999 SCT035 BKN130 30/24 A2979 RMK RN DST SW=
200705192200 METAR MRLB 192200Z 23005KT 9999 FEW035 BKN130 30/24 A2978=
200705192300 METAR MRLB 192300Z 20004KT 9999 FEW040 SCT130 BKN250 29/24 A2978=
200705200000 METAR MRLB 200000Z 18002KT 9999 FEW040 BKN130 28/24 A2979=
200705200100 METAR MRLB NIL=
200705200200 METAR MRLB NIL=
200705200300 METAR MRLB NIL=
200705200400 METAR MRLB NIL=
200705200500 METAR MRLB NIL=
200705200600 METAR MRLB NIL=
200705200700 METAR MRLB NIL=
200705200800 METAR MRLB NIL=
200705200900 METAR MRLB NIL=
200705201000 METAR MRLB NIL=
200705201100 METAR MRLB NIL=
200705201200 METAR MRLB 201200Z 03004KT 9999 FEW035 SCT120 24/23 A2985 RMK CB DST S SW=
200705201300 METAR MRLB 201300Z 17004KT 9999 SCT035 SCT120 25/24 A2986=
200705201400 METAR MRLB 201400Z 22002KT 9999 FEW040 SCT130 29/23 A2986 RMK FEW250 CB DST S=
200705201500 METAR MRLB 201500Z 00000KT CAVOK 29/23 A2987 RMK SCT130 SCT250=
200705201600 METAR MRLB 201600Z 24005KT CAVOK 30/23 A2986 RMK TRACE CU SCT130 BKN250=
200705201700 METAR MRLB 201700Z 21005KT 9999 FEW035 BKN250 31/23 A2985=
200705201800 METAR MRLB 201800Z 23004KT 9999 FEW030TCU BKN250 32/23 A2983 RMK RN DST SE=
200705201900 METAR MRLB 201900Z 24003KT 9999 SCT030TCU BKN250 33/24 A2982 RMK RN DST SE S=
200705202000 METAR MRLB 202000Z 18011KT 9999 4000SW VCSH SCT030 SCT035 27/24 A2981 RMK NW S=
200705202100 METAR MRLB 202100Z 17006KT 9999 SCT030 BKN100 27/24 A2978 RMK RN NE SE SW W=
200705202200 METAR MRLB 202200Z 16002KT 9999 FEW030 BKN120 28/24 A2978 RMK RN E SE=
200705202300 METAR MRLB 202300Z 21004KT 9999 FEW030 OVC120 28/25 A2977=
200705210000 METAR MRLB 210000Z 21003KT CAVOK 27/25 A2979 RMK OVC130=
200705210100 METAR MRLB 210100Z 21003KT CAVOK 27/25 A2979 RMK OVC130=
200705210200 METAR MRLB 210200Z 16002KT CAVOK 26/24 A2981 RMK OVC130=
200705210300 METAR MRLB NIL=
200705210400 METAR MRLB NIL=
200705210500 METAR MRLB NIL=
200705210600 METAR MRLB NIL=
200705210700 METAR MRLB NIL=
200705210800 METAR MRLB NIL=
200705210900 METAR MRLB NIL=
200705211000 METAR MRLB NIL=
200705211100 METAR MRLB NIL=
200705211200 METAR MRLB 211200Z 19003KT 9999 BKN040 SCT140 24/23 A2984 RMK CB DST SE=
200705211300 METAR MRLB 211300Z 00000KT 9999 FEW040 SCT130 BKN250 26/23 A2986=
200705211400 METAR MRLB 211400Z 01005KT CAVOK 28/24 A2987 RMK TRACE CU OVC240=
200705211500 METAR MRLB 211500Z 30003KT CAVOK 28/23 A2988 RMK FEW140 BKN240 TRACE CU=
200705211600 METAR MRLB 211600Z 22004KT CAVOK 30/23 A2988 RMK BKN140 SCT240=
200705211700 METAR MRLB 211700Z 25003KT 9999 FEW030 BKN130 32/23 A2988 RMK FEW250=
200705211800 METAR MRLB 211800Z 19005KT 9999 FEW030 BKN130 32/24 A2985 RMK FEW250 TCU SE=
200705211900 METAR MRLB 211900Z 29010KT 9999 -TS RA FEW025CB SCT030 30/24 A2982 RMK 6000 NE RASH FEW130=
200705212000 METAR MRLB 212000Z 29006KT 9999 4000E -RA FEW010 SCT020 BKN100 28/24 A2981 RMK TS SW=
200705212100 METAR MRLB 212100Z 11007KT 3000 -RA BR SCT015 BKN100 25/24 A2982=
200705212200 METAR MRLB 212200Z 35002KT 9999 SCT015 BKN100 29/24 A2982 RN NE SE S=
200705212300 METAR MRLB 212300Z 12003KT 9999 SCT015 BKN100 26/25 A2982 RN SE=
200705220000 METAR MRLB 220000Z 11003KT 9999 SCT010 BKN100 26/25 A2984 RN DST SE=
200705220100 METAR MRLB NIL=
200705220200 METAR MRLB NIL=
200705220300 METAR MRLB NIL=
200705220400 METAR MRLB NIL=
200705220500 METAR MRLB NIL=
200705220600 METAR MRLB NIL=
200705220700 METAR MRLB NIL=
200705220800 METAR MRLB NIL=
200705220900 METAR MRLB NIL=
200705221000 METAR MRLB NIL=
200705221100 METAR MRLB NIL=
200705221200 METAR MRLB 221200Z 00000KT FEW040 SCT150 24/23 A2984=
200705221300 METAR MRLB 221300Z 00000KT CAVOK 27/23 A2985 FEW100 SCT250=
200705221400 METAR MRLB 221400Z 12004KT CAVOK 28/24 A2985 SCT090 BKN250=
200705221500 METAR MRLB 221500Z 00000KT 9999 FEW035 SCT180 28/24 A2985=
200705221600 METAR MRLB 221600Z 18006KT 9999 FEW030TCU SCT100 BKN200 29/25 A2986=
200705221700 METAR MRLB 221700Z 12004KT 9999 SCT020TCU BKN220 29/24 A2985=
200705221800 METAR MRLB 221800Z 08004KT 9999 SCT025TCU BKN200 31/24 A2982=
200705221900 METAR MRLB 221900Z 22004KT 9999 SCT025 BKN250 31/24 A2979=
200705222000 METAR MRLB 222000Z 22004KT 9999 SCT025TCU BKN150 32/23 A2977=
200705222100 METAR MRLB 222100Z 22004KT 9999 SCT025TCU BKN170 31/23 A2975=
200705222200 METAR MRLB 222200Z 27007KT 9999 SCT025 BKN250 31/25 A2973=
200705222300 METAR MRLB 222300Z 28006KT 9999 FEW020TCU SCT120 BKN250 30/24 A2996 RMK RN S SE=
200705230000 METAR MRLB 230000Z 12006KT 1000 +RA SCT010 BKN025 25/23 A2980=
200705230100 METAR MRLB 230100Z 00000KT 8000 -RA SCT020CB BKN100 24/24 A2982=
200705230200 METAR MRLB 230200Z 00000KT 9999 FEW025 OVC100 24/23 A2985=
200705230300 METAR MRLB NIL=
200705230400 METAR MRLB NIL=
200705230500 METAR MRLB NIL=
200705230600 METAR MRLB NIL=
200705230700 METAR MRLB NIL=
200705230800 METAR MRLB NIL=
200705230900 METAR MRLB NIL=
200705231000 METAR MRLB NIL=
200705231100 METAR MRLB NIL=
200705231200 METAR MRLB 231200Z 00000KT 9999 SCT035 BKN250 24/23 A2983=
200705231300 METAR MRLB 231300Z 07003KT 9999 SCT030 OVC240 26/24 A2985=
200705231400 METAR MRLB 231400Z 03003KT 9999 SCT035 OVC250 27/25 A2986=
200705231500 METAR MRLB 231500Z 03002KT 9999 SCT035 BKN250 29/24 A2985=
200705231600 METAR MRLB 231600Z 10002KT 9999 SCT040 30/24 A2984=
200705231700 METAR MRLB 231700Z 17003KT 9999 FEW040 BKN250 30/25 A2981=
200705231800 METAR MRLB 231800Z 23004KT 9999 SCT035 BKN250 31/24 A2978=
200705231900 METAR MRLB 231900Z 21004KT 9999 SCT035 BKN240 30/24 A2975 RMK RN DST E NE=
200705232000 METAR MRLB 232000Z 34005KT 9999 SCT030 OVC240 28/25 A2975 RMK RN DST W=
200705232100 METAR MRLB 232100Z 25004KT 9999 FEW035 BKN240 30/26 A2972 RMK RN DST NE=
200705232200 METAR MRLB 232200Z 29010KT 9999 SCT035 OVC240 29/25 A2971 RMK RN DST E S=
200705232300 METAR MRLB 232300Z 19007KT 7000 RA FEW015TCU SCT025 BKN130 24/23 A2975=
200705232334 METAR MRLB 232334Z 16006KT 1000 TSRA FEW008CB BKN020 23/23 A2977=
200705240000 METAR MRLB 240000Z 23005KT 6000 -RA FEW008 SCT020 OVC100 23/23 A2979=
200705240100 METAR MRLB 240100Z 00000KT 9999 SCT025 BKN120 24/23 A2980=
200705240200 METAR MRLB NIL=
200705240300 METAR MRLB NIL=
200705240400 METAR MRLB NIL=
200705240500 METAR MRLB NIL=
200705240600 METAR MRLB NIL=
200705240700 METAR MRLB NIL=
200705240800 METAR MRLB NIL=
200705240900 METAR MRLB NIL=
200705241100 METAR MRLB NIL=
200705241200 METAR MRLB 241200Z 10005KT 9999 FEW012 SCT025 BKN130 24/23 A2982 RN S=
200705241300 METAR MRLB 241300Z 12005KT 9999 FEW035 BKN130 25/24 A2984 TRACE ST S SW=
200705241400 METAR MRLB 241400Z 14005KT 9999 SCT030 BKN130 26/24 A2986 RMK ST S SW W=
200705241500 METAR MRLB 241500Z 12008KT 9999 FEW012 BKN250 27/24 A2986 RMK TRACE AC=
200705241600 METAR MRLB 241600Z 11007KT 9999 FEW025 BKN250 28/24 A2985 RMK FEW140=
200705241700 METAR MRLB 241700Z 17006KT 9999 SCT030 BKN250 29/25 A2984 RMK FEW140 RN DST WSW=
200705241800 METAR MRLB 241800Z 19011KT 9999 SCT025TCU BKN250 30/24 A2982 RMK RN DST W NW N NE=
200705241900 METAR MRLB 241900Z 21010KT 9999 SCT025 BKN130 29/25 A2980 RMK CB/TSTM DST NW/N/NE=
200705242000 METAR MRLB 242000Z 22004KT 9999 SCT010 BKN130 27/24 A2981 RMK RASH DST N/NE=
200705242100 METAR MRLB 242100Z 04008KT 9999 4000E -RA SCT015 SCT100 25/23 A2980=
200705242200 METAR MRLB 242200Z 04007KT 9999 4000E -RA BR SCT015 SCT030 23/23 A2981=
200705242300 METAR MRLB 242300Z 08003KT 6000 -RA BR SCT015 BKN030 24/23 A2983=
200705250000 METAR MRLB 250000Z 28005KT 9999 SCT035 BKN250 27/24 A2984 RMK RN DST E SE=
200705250100 METAR MRLB NIL=
200705250200 METAR MRLB 250200Z 15004KT 9999 -RA FEW020 OVC100 23/23 A2987=
200705250300 METAR MRLB NIL=
200705250400 METAR MRLB NIL=
200705250500 METAR MRLB NIL=
200705250600 METAR MRLB NIL=
200705250700 METAR MRLB NIL=
200705250800 METAR MRLB NIL=
200705250900 METAR MRLB NIL=
200705251000 METAR MRLB NIL=
200705251100 METAR MRLB NIL=
200705251200 METAR MRLB 251200Z 28002KT 2000 BR SCT003 SCT006 23/23 A2988 RMK UNL E NE=
200705251300 METAR MRLB 251300Z 09003KT 9999 FEW005 SCT018 BKN120 24/23 A2990=
200705251400 METAR MRLB 251400Z 11003KT 9999 FEW010 SCT020 BKN120 26/24 A2992 RMK RN DST SE S SW=
200705251500 METAR MRLB 251500Z 14004KT 9999 3000E -DZ BR FEW010 BKN020 25/24 A2993=
200705251600 METAR MRLB 251600Z 17004KT 9999 SCT025 BKN130 27/24 A2992 RMK RN DST SW=
200705251700 METAR MRLB 251700Z 21006KT 9999 FEW025TCU SCT030 BKN130 29/24 A2990=
200705251800 METAR MRLB 251800Z 25008KT 9999 BKN025 SCT130 28/24 A2987 RMK RN DST N SW=
200705251900 METAR MRLB 251900Z 25009KT 9999 -RA SCT025 SCT130 28/24 A2985=
200705252000 METAR MRLB 252000Z 24010KT 9999 SCT020 SCT130 28/24 A2983 RMK RN DST N NE E=
200705252100 METAR MRLB 252100Z 29008KT 9999 SCT020 SCT130 30/24 A2981 RMK RN NE E=
200705252200 METAR MRLB 252200Z 29008KT 9999 SCT020 BKN130 29/24 A2981 RMK RN N E SE=
200705252300 METAR MRLB 252300Z 29009KT 9999 FEW025 BKN250 28/24 A2982 RMK FEW140 RN NE RASH E=
200705260000 METAR MRLB 260000Z 28005KT 9999 SCT035 BKN250 27/24 A2984 RMK RN DST E SE=
200705260100 METAR MRLB 260100Z 26003KT 9999 FEW035 SCT250 27/24 A2986=
200705260200 METAR MRLB 260200Z 25002KT 9999 FEW035 SCT250 25/22 A2988=
200705260300 METAR MRLB NIL=
200705260400 METAR MRLB NIL=
200705260500 METAR MRLB NIL=
200705260600 METAR MRLB NIL=
200705260700 METAR MRLB NIL=
200705260800 METAR MRLB NIL=
200705260900 METAR MRLB NIL=
200705261000 METAR MRLB NIL=
200705261100 METAR MRLB NIL=
200705261200 METAR MRLB 261200Z 00000KT 1000 BR FEW001 SCT020 24/23 A2987=
200705261300 METAR MRLB 261300Z 05003KT 0300 FG SCT001 BKN008 24/23 A2989=
200705261400 METAR MRLB 261400Z 00000KT 9999 SCT010 BKN180 26/24 A2990=
200705261500 METAR MRLB 261500Z 00000KT 9999 SCT015 BKN200 27/24 A2990=
200705261600 METAR MRLB 261600Z 22004KT 9999 FEW015TCU SCT040 BKN250 29/23 A2990=
200705261700 METAR MRLB 261700Z 24008KT 9999 SCT015TCU BKN100 28/23 A2989=
200705261800 METAR MRLB 261800Z 27007KT 9999 SCT020 BKN200 29/24 A2987=
200705261900 METAR MRLB 261900Z 28009KT 9999 SCT020 BKN220 28/24 A2986=
200705262000 METAR MRLB 262000Z 29013KT 9999 SCT020TCU BKN220 29/24 A2984=
200705262100 METAR MRLB 262100Z 29013KT 9999 SCT020 BKN240 29/23 A2983=
200705262200 METAR MRLB 262200Z 27012KT 9999 FEW020 SCT100 27/23 A2982=
200705262300 METAR MRLB 262300Z 27011KT 9999 FEW020 SCT100 BKN240 27/23 A2873=
200705270000 METAR MRLB 270000Z 26010KT 9999 SCT020 BKN130 26/23 A2985=
200705270100 METAR MRLB 270100Z 23005KT 9999 SCT020 BKN120 26/23 A2987=
200705270200 METAR MRLB NIL=
200705270300 METAR MRLB NIL=
200705270400 METAR MRLB NIL=
200705270500 METAR MRLB NIL=
200705270600 METAR MRLB NIL=
200705270700 METAR MRLB NIL=
200705270800 METAR MRLB NIL=
200705270900 METAR MRLB NIL=
200705271000 METAR MRLB NIL=
200705271100 METAR MRLB NIL=
200705271200 METAR MRLB 271200Z 00000KT 9999 SCT030 BKN120 25/23 A2989 RMK RN DST E NE=
200705271300 METAR MRLB 271300Z 06002KT 9999 SCT035 BKN120 25/23 A2991 RN E=
200705271400 METAR MRLB 271400Z 35002KT 9999 SCT030 OVC120 26/24 A2993 RN N NE=
200705271500 METAR MRLB 271500Z 27009KT 9999 SCT030 BKN120 27/23 A2993 RN E NE=
200705271600 METAR MRLB 271600Z 25007KT 9999 SCT030 BKN130 28/23 A2992 RN NE=
200705271700 METAR MRLB 271700Z 28010KT 9999 FEW035 SCT130 BKN250 29/23 A2991=
200705271800 METAR MRLB 271800Z 29010KT 9999 SCT035 BKN240 28/22 A2989=
200705271900 METAR MRLB 271900Z 27009KT 9999 SCT035 BKN240 28/23 A2988=
200705272000 METAR MRLB 272000Z 27008KT 9999 SCT030 OVC240 28/23 A2985=
200705272100 METAR MRLB 272100Z 28009KT 9999 SCT035 OVC240 27/23 A2984 RMK RN DST N=
200705272200 METAR MRLB 272200Z 27011KT 9999 SCT035 BKN250 27/23 A2983=
200705272300 METAR MRLB 272300Z 26008KT 9999 FEW020 SCT030 BKN140 26/23 A2984 RN DST NE=
200705272355 METAR MRLB 280000Z 26007KT 9999 SCT030 BKN130 26/23 A2985 RN DIST E NE=
200705280000 METAR MRLB 280000Z 26007KT 9999 SCT030 BKN130 26/23 A2985 RN DIST E NE=
200705280100 METAR MRLB 280100Z 24004KT 9999 SCT035 OVC130 26/23 A2986=
200705280200 METAR MRLB 280200Z 23004KT 9999 SCT030 BKN120 25/23 A2988=
200705280300 METAR MRLB NIL=
200705280400 METAR MRLB NIL=
200705280500 METAR MRLB NIL=
200705280600 METAR MRLB NIL=
200705280700 METAR MRLB NIL=
200705280800 METAR MRLB NIL=
200705280900 METAR MRLB NIL=
200705281000 METAR MRLB NIL=
200705281100 METAR MRLB NIL=
200705281200 METAR MRLB 281200Z 07003KT 9999 DZ SCT020 BKN030 25/23 A2988=
200705281300 METAR MRLB 281300Z 14003KT 9999 4000 N -RA VCSH SCT020 BKN030 25/24 A2991=
200705281400 METAR MRLB 281400Z 14005KT 6000 -RA VCFG SCT018 BKN030 24/24 A2992 RMK 4000NW UNL SW W=
200705281500 METAR MRLB 281500Z 10005KT 2000 RA BR SCT015 BKN025 24/24 A2994=
200705281600 METAR MRLB 281600Z 19002KT 6000 -RA VCFG BKN025 SCT120 24/24 A2994=
200705281700 METAR MRLB 281700Z 22003KT 9999 -RA SCT012 BKN020 25/24 A2993 RMK 8000 SW=
200705281800 METAR MRLB 281800Z 20003KT 9999 BKN020 SCT120 26/24 A2991 RMK RN DST N E=
200705281900 METAR MRLB 281900Z 220006KT 9999 BKN025 SCT120 27/24 A2987 RMK RN DST N=
200705282000 METAR MRLB 282000Z 24009KT 9999 SCT020 BKN120 28/24 A2986 RN DST NE=
200705282100 METAR MRLB 282100Z 26006KT 9999 BKN020 SCT100 27/24 A2984 RMK RN DST N NE=
200705282200 METAR MRLB 282200Z 23008KT 9999 BKN020 27/24 A2983 RMK RN DST E=
200705282300 METAR MRLB 282300Z 26006KT 9999 SCT020 BKN100 26/24 A2984 RMK RN DST N NE E=
200705290000 METAR MRLB 290000Z 25006KT 9999 FEW020 BKN120 26/23 A2984 RMK RN DST N NW=
200705290100 METAR MRLB NIL=
200705290200 METAR MRLB 290200Z 23003KT 9999 FEW025 SCT120 25/23 A2988=
200705290300 METAR MRLB NIL=
200705290400 METAR MRLB NIL=
200705290500 METAR MRLB NIL=
200705290600 METAR MRLB NIL=
200705290700 METAR MRLB NIL=
200705290800 METAR MRLB NIL=
200705290900 METAR MRLB NIL=
200705291000 METAR MRLB NIL=
200705291100 METAR MRLB NIL=
200705291200 METAR MRLB 291200Z 00000KT 9999 -DZ SCT025 BKN035 25/23 A2988=
200705291300 METAR MRLB 291300Z 00000KT 9999 FEW025 BKN035 26/23 A2990=
200705291400 METAR MRLB 291400Z 24003KT 9999 SCT025 BKN035 26/23 A2991=
200705291500 METAR MRLB 291500Z 27002KT 9999 BKN025 SCT035 26/24 A2993 RMK RN DST N NE=
200705291600 METAR MRLB 291600Z 29002KT 9999 VCSH SCT020 BKN030 27/24 A2994 RMK VIS 6000 W RN DST S S HVH633 291900 GG KWBCYMYX KWBCYZYX MDSDYMYX MKJPYMYX MPMGYMYX MPZZMAMX 291444 MROCYMYX=
200705291700 METAR MRLB NIL=
200705291800 METAR MRLB NIL=
200705291900 METAR MRLB NIL=
200705292000 METAR MRLB 292000Z 29011KT 9999 SCT025 BKN100 29/24 A2985 RMK RN DST NNE=
200705292100 METAR MRLB 292100Z 27008KT 9999 SCT025 SCT100 28/23 A2983=
200705292200 METAR MRLB 292200Z 28008KT 9999 SCT025 SCT120 28/23 A2981=
200705292300 METAR MRLB 292300Z 29006KT 9999 SCT025 SCT090 27/24 A2981=
200705300000 METAR MRLB 300000Z 26005KT 9999 SCT020 BKN030 26/24 A2984 RMK RN DST N NE E SW W=
200705300100 METAR MRLB NIL=
200705300200 METAR MRLB 300200Z 36002KT 9999 -RA FEW015 BKN030 25/24 A2987=
200705300300 METAR MRLB NIL=
200705300400 METAR MRLB NIL=
200705300500 METAR MRLB NIL=
200705300600 METAR MRLB NIL=
200705300700 METAR MRLB NIL=
200705300800 METAR MRLB NIL=
200705300900 METAR MRLB NIL=
200705301000 METAR MRLB NIL=
200705301100 METAR MRLB NIL=
200705301200 METAR MRLB 301200Z 00000KT 8000 VCFG FEW010 SCT045 24/24 A2984 RERA=
200705301300 METAR MRLB 301300Z 16004KT 8000 VCFG FEW010 SCT045 25/24 A2986=
200705301400 METAR MRLB 301400Z 16005KT 9999 FEW010 SCT040 BKN100 26/24 A2987=
200705301500 METAR MRLB 301500Z 17005KT 9000 -DZ FEW010 SCT030 BKN100 26/25 A2989=
200705301600 METAR MRLB 301600Z 20005KT 8000 RA FEW010 SCT025 BKN100 26/25 A2988=
200705301700 METAR MRLB 301700Z 29004KT 8000 DZ FEW010 SCT025 BKN120 27/25 A2988=
200705301800 METAR MRLB 301800Z 27008KT 9999 -DZ FEW015 SCT025 BKN120 27/24 A2987=
200705301900 METAR MRLB 301900Z 20008KT 9999 FEW010 SCT025 BKN100 26/25 A2985 RERA=
200705302000 METAR MRLB 302000Z 16006KT 9999 DZ FEW006 SCT020 BKN080 25/24 A2983=
200705302100 METAR MRLB 302100Z 29006KT 3000 RA FEW002 SCT010 BKN025 25/24 A2982=
200705302200 METAR MRLB 302200Z 00000KT 5000 DZ FEW010 SCT025 BKN100 24/24 A2981=
200705302300 METAR MRLB 302300Z 00000KT 8000 -RA FEW010 SCT025 BKN100 24/23 A2982=
200705310000 METAR MRLB 310000Z 00000KT 9999 -DZ FEW015 SCT025 BKN100 24/23 A2983=
200705310100 METAR MRLB 310100Z 00000KT 9000 DZ SCT020 OVC100 24/23 A2986 RERA=
200705310200 METAR MRLB 310200Z 00000KT 8000 DZ FEW015 SCT025 OVC100 24/23 A2988=
200705310300 METAR MRLB NIL=
200705310400 METAR MRLB NIL=
200705310500 METAR MRLB NIL=
200705310600 METAR MRLB NIL=
200705310700 METAR MRLB NIL=
200705310800 METAR MRLB NIL=
200705310900 METAR MRLB NIL=
200705311000 METAR MRLB NIL=
200705311100 METAR MRLB NIL=
200705311200 METAR MRLB 311200Z 15003KT 9999 FEW010 SCT020 OVC120 24/24 A2983 RMK RN DST N=
200705311300 METAR MRLB 311300Z 16004KT 9999 SCT020 BKN120 25/24 A2984 RMK ST LOW SW=
200705311400 METAR MRLB 311400Z 17005KT 9999 FEW008 SCT020 BKN120 25/24 A2986 RMK RN S SW=
200705311500 METAR MRLB 311500Z 19006KT 9999 SCT015 BKN100 25/24 A2989 RMK RN S N NE=
200705311600 METAR MRLB 311600Z 22007KT 9999 SCT025 BKN130 27/24 A2989 RMK RN NE=
200705311700 METAR MRLB 311700Z 24008KT 9999 SCT030 BKN240 28/23 A2988=
200705311800 METAR MRLB 311800Z 24011KT 9999 SCT035 BKN250 29/24 A2987 RMK RN DZT E SE=
200705311900 METAR MRLB 311900Z 21008KT 9999 SCT030 BKN140 28/24 A2985 RMK NE=
200705312000 METAR MRLB 312000Z 22009KT 9999 SCT020 BKN130 28/24 A2983=
200705312100 METAR MRLB 312100Z 25010KT 9999 SCT035 OVC130 28/24 A2982 RN NE=
200705312200 METAR MRLB 312200Z 27007KT 9999 SCT030 OVC130 26/24 A2982 RN SW E NE=
200705312300 METAR MRLB 312300Z 25011KT 5000 -RA FEW008 BKN025 24/23 A2984=
200706010000 METAR MRLB 010000Z 28009KT 9999 -RA SCT015 OVC100 23/23 A2986=
200706010100 METAR MRLB NIL=
200706010200 METAR MRLB NIL=
200706010300 METAR MRLB NIL=
200706010400 METAR MRLB NIL=
200706010500 METAR MRLB NIL=
200706010600 METAR MRLB NIL=
200706010700 METAR MRLB NIL=
200706010800 METAR MRLB NIL=
200706010900 METAR MRLB NIL=
200706011000 METAR MRLB NIL=
200706011100 METAR MRLB NIL=
200706011200 METAR MRLB 011200Z 00000KT 9999 FEW010 BKN025 23/23 A2986 RMK RN DST NE E LOW ST SW W=
200706011300 METAR MRLB 011300Z 07002KT 9999 FEW008 BKN120 24/23 A2988 RN NE E=
200706011400 METAR MRLB 011400Z 09002KT 9999 SCT010 SCT020 25/23 A2990 FEW120=
200706011500 METAR MRLB 011500Z 13002KT 9999 DZ VCSH SCT015 BKN020 26/24 A2991 VSBY NE 6KM DUE RN0=
200706011600 METAR MRLB 011600Z 23003KT 9999 4000SW RA BKN020 SCT030 27/24 A2991 VSBY S SW N 4KM DUE RN=
200706011700 METAR MRLB 011700Z 16003KT 9999 VCSH BKN025 SCT130 28/24 A2989 TCU RN S SW VSBY E NE 8KM DUE RN RN DST S SW=
200706011800 METAR MRLB 011800Z 26003KT 9999 3000E -RA BKN025 SCT130 27/25 A29880=
200706011900 METAR MRLB 011900Z 28009KT 9999 -RA SCT025 SCT130 28/24 A2987 RASH E SE=
200706012000 METAR MRLB 012000Z 26005KT 9999 SCT020 BKN120 27/25 A2985 RN E SE0=
200706012100 METAR MRLB 012100Z 25006KT 9999 SCT020 SCT120 28/24 A2984 RMK RN DST ARND.=
200706012200 METAR MRLB 012200Z 24006KT 9999 -RA BKN025 27/24 A2983 RMK VIS E 5000=
200706012300 METAR MRLB 012300Z 12006KT 9999 BKN020 27/23 A2984 RMK RN DST E=
200706012357 METAR MRLB 020000Z 23006KT 9999 BKN020 26/23 A2986 RMK RN N NE E=
200706020000 METAR MRLB 020000Z 23006KT 9999 BKN020 26/23 A2986 RMK RN N NE E=
200706020100 METAR MRLB 020100Z 18003KT 9999 SCT025 SCT120 26/24 A2988=
200706020200 METAR MRLB 020200Z 11002KT 9999 SCT025 SCT120 25/24 A2990=
200706020300 METAR MRLB NIL=
200706020400 METAR MRLB NIL=
200706020500 METAR MRLB NIL=
200706020600 METAR MRLB NIL=
200706020700 METAR MRLB NIL=
200706020800 METAR MRLB NIL=
200706020900 METAR MRLB NIL=
200706021000 METAR MRLB NIL=
200706021100 METAR MRLB NIL=
200706021200 METAR MRLB 021200Z 00000KT 9999 VCSH SCT020 BKN030 24/23 A2988 RMK RN NE E VIS NE 7000MTS ST LOW S SW W=
200706021300 METAR MRLB 021300Z 09003KT 9999 FEW012 BKN025 24/23 A2990 RN NE DIST LOW ST SW W NW N=
200706021400 METAR MRLB 021400Z 32003KT 9999 -DZ VCFG SCT008 BKN015 24/24 A2991 RMK VIS N E 8 KMS=
200706021500 METAR MRLB 021500Z 01007KT 3000 DZ BR FEW008 BKN015 25/24 A2993=
200706021600 METAR MRLB 021600Z 04002KT 9999 FEW015 SCT025 BKN120 27/24 A2993 RMK RDZ RN DST S SE=
200706021700 METAR MRLB 021700Z 28005KT 9999 SCT025 SCT120 28/25 A2992 RMK RN DST S=
200706021800 METAR MRLB 021800Z 28009KT 9999 BKN025 29/24 A2991 RMK FEW120=
200706021900 METAR MRLB 021900Z 28010KT 9999 FEW030 29/24 A2988=
200706022000 METAR MRLB 022000Z 28010KT 9999 SCT030 29/24 A2986 RMK RN NW FEW120=
200706022100 METAR MRLB 022100Z 27010KT 9999 SCT030 28/23 A2985 RMK RN DST ARND=
200706022200 METAR MRLB 022200Z 17011KT 9999 FEW030 SCT100 28/23 A2985 RMK RN DST N=
200706022300 METAR MRLB 022300Z 27009KT 9999 FEW020 BKN035 27/24 A2985 RMK RN DST N NE=
200706030000 METAR MRLB 030000Z 27007KT 9999 FEW020 BKN035 27/23 A2986 RMK RN DST N NE=
200706030100 METAR MRLB 030100Z 26005KT 9999 BKN030 SCT100 26/23 A2988=
200706030200 METAR MRLB 030200Z 27004KT 9999 SCT030 SCT100 26/23 A2991=
200706030300 METAR MRLB NIL=
200706030400 METAR MRLB NIL=
200706030500 METAR MRLB NIL=
200706030600 METAR MRLB NIL=
200706030700 METAR MRLB NIL=
200706030800 METAR MRLB NIL=
200706030900 METAR MRLB NIL=
200706031000 METAR MRLB NIL=
200706031100 METAR MRLB NIL=
200706031200 METAR MRLB NIL=
200706031300 METAR MRLB 031300Z 00000KT 9999 FEW015 SCT180 26/23 A2989=
200706031400 METAR MRLB 031400Z 25004KT 9999 FEW015 SCT150 27/24 A2990=
200706031500 METAR MRLB 031500Z 25005KT 9999 SCT015 BKN120 29/23 A2991=
200706031600 METAR MRLB 031600Z 28008KT 9999 FEW015 SCT035 BKN200 29/23 A2991=
200706031700 METAR MRLB 031700Z 27008KT 9999 FEW020 SCT035 BKN250 29/24 A2989=
200706031800 METAR MRLB 031800Z 26010KT 9999 SCT020 BKN250 29/24 A2988=
200706031900 METAR MRLB 031900Z 28009KT 9999 SCT025 BKN220 29/24 A2987=
200706032000 METAR MRLB 032000Z 28010KT 9999 FEW025 BKN240 29/24 A2985=
200706032100 METAR MRLB 032100Z 28008KT 9999 FEW030 BKN250 28/24 A2983=
200706032200 METAR MRLB 032200Z 26007KT 9999 FEW030 BKN220 27/24 A2984=
200706032300 METAR MRLB 032300Z 27006KT 6000 FEW025 BKN250 27/24 A2983=
200706040000 METAR MRLB 040000Z 25004KT 9999 SCT025 BKN180 27/24 A2985=
200706040100 METAR MRLB 040100Z 18003KT 9999 FEW020 SCT100 26/24 A2987=
200706040200 METAR MRLB NIL=
200706040300 METAR MRLB NIL=
200706040400 METAR MRLB NIL=
200706040500 METAR MRLB NIL=
200706040600 METAR MRLB NIL=
200706040700 METAR MRLB NIL=
200706040800 METAR MRLB NIL=
200706040900 METAR MRLB NIL=
200706041000 METAR MRLB NIL=
200706041100 METAR MRLB NIL=
200706041200 METAR MRLB 041200Z 03002KT 9999 FEW030 OVC140 25/24 A2988=
200706041300 METAR MRLB 041300Z 00000KT 9999 FEW035 OVC140 26/25 A2990=
200706041400 METAR MRLB 041400Z 30002KT 9999 SCT030 BKN140 27/25 A2989=
200706041500 METAR MRLB 041500Z 32004KT 9999 SCT035 OVC240 28/25 A2990=
200706041600 METAR MRLB 041600Z 29004KT 9999 SCT035 BKN250 30/25 A2989=
200706041700 METAR MRLB 041700Z 29006KT 9999 SCT035 BKN240 30/25 A2989=
200706041800 METAR MRLB 041800Z 27008KT 9999 SCT035 BKN240 30/25 A2988=
200706041900 METAR MRLB 041900Z 30009KT 9999 -RA FEW020TCU SCT030 BKN140 28/24 A2987=
200706042000 METAR MRLB 042000Z 28010KT 9999 SCT030 BKN250 28/26 A2984 RMK RN DST S=
200706042100 METAR MRLB 042100Z 29009KT 9999 SCT035 OVC240 29/25 A2982 RMK RN E SE=
200706042200 METAR MRLB 042200Z 31006KT 9999 FEW035 BKN140 27/23 A2982=
200706042300 METAR MRLB 042300Z 25003KT 9999 SCT035 BKN130 26/24 2982 RMK RN SE=
200706050000 METAR MRLB 050000Z 23002KT 9999 DZ SCT035 BKN120 26/24 A2984=
200706050100 METAR MRLB 050100Z 00000KT 9999 FEW035 BKN130 26/25 A2987=
200706050200 METAR MRLB 050200Z 10002KT 9999 FEW030 BKN130 25/24 A2988=
200706050300 METAR MRLB NIL=
200706050400 METAR MRLB NIL=
200706050500 METAR MRLB NIL=
200706050600 METAR MRLB NIL=
200706050700 METAR MRLB NIL=
200706050800 METAR MRLB NIL=
200706050900 METAR MRLB NIL=
200706051000 METAR MRLB NIL=
200706051100 METAR MRLB NIL=
200706051200 METAR MRLB 051200Z 14002KT 9000 2500SW BR SCT030 BKN300 24/24 A2987 RMK CB DST S SW=
200706051300 METAR MRLB 051300Z 01002KT 9999 VCFG FEW004 BKN300 27/25 A2989 VIS W SW 8000MTS DUE ST LOW=
200706051400 METAR MRLB 051400Z 01002KT 9999 FEW008 SCT020 BKN300 27/24 A2990=
200706051500 METAR MRLB 051500Z 19003KT 9999 SCT030 SCT300 28/25 A2991=
200706051600 METAR MRLB 051600Z 22003KT 9999 BKN030 30/26 A2991 FEW300=
200706051700 METAR MRLB 051700Z 27007KT 9999 SCT020 30/25 A2990 RMK FEW300=
200706051800 METAR MRLB 051800Z 28009KT 9999 SCT030 BKN300 30/25 A2988=
200706051900 METAR MRLB 051900Z 28011KT 9999 SCT030 SCT300 30/25 A2986=
200706052000 METAR MRLB 052000Z 28011KT 9999 SCT030 SCT300 30/25 A2984 RMK TCU RN E SE=
200706052100 METAR MRLB 052100Z 29008KT 9999 FEW030 BKN130 29/25 A2982 RN NE S=
200706052200 METAR MRLB 052200Z 28007KT 9999 FEW030 SCT130 29/25 A2979=
200706052300 METAR MRLB 052300Z 24005KT 9999 FEW030 SCT130 29/25 A2982 TCU E RN S=
200706060000 METAR MRLB 060000Z 30004KT 9999 SCT025 SCT130 28/25 A2983 RN E S=
200706060100 METAR MRLB NIL=
200706060200 METAR MRLB 060200Z 10004KT 9999 -RA SCT025 SCT120 26/25 A2988=
200706060300 METAR MRLB NIL=
200706060400 METAR MRLB NIL=
200706060500 METAR MRLB NIL=
200706060800 METAR MRLB NIL=
200706060900 METAR MRLB NIL=
200706061000 METAR MRLB NIL=
200706061100 METAR MRLB NIL=
200706061200 METAR MRLB 061200Z 04002KT 9999 SCT025 SCT300 25/24 A2986 RMK TCU DST W NW=
200706061300 METAR MRLB 061300Z 06003KT 9999 FEW030 SCT300 27/24 A2988 FEW130=
200706061400 METAR MRLB 061400Z 05002KT 9999 SCT025 28/24 A2989 FEW250=
200706061500 METAR MRLB 061500Z 00000KT 9999 SCT025 30/24 A2989=
200706061600 METAR MRLB 061600Z 27006KT 9999 BKN025 29/25 A2988 FEW250=
200706061700 METAR MRLB 061700Z 28004KT 9999 SCT025 31/25 A2987 FEW120=
200706061800 METAR MRLB 061800Z 25004KT 9999 SCT030 BKN250 31/25 A2985=
200706061900 METAR MRLB 061900Z 28009KT 9999 BKN030 SCT250 30/25 A2983 RN NE E TCU SW=
200706062000 METAR MRLB 062000Z 29010KT 9999 SCT020 BKN150 290/25 A2980 RN N=
200706062100 METAR MRLB 062100Z 28007KT 9999 SCT020 BKN140 27/26 A2979 RMK RN DST E TS RASH S=
200706062200 METAR MRLB 062200Z 25006KT 9999 SCT020 SCT140 28/26 A2979 RMK RN DST E=
200706062300 METAR MRLB 062300Z 24005KT 9999 SCT020 SCT120 27/25 A2980 RMK RN DST E=
200706070000 METAR MRLB 070000Z 19004KT 9999 SCT020 SCT120 27/25 A2981 RMK RN DST N NE S=
200706070100 METAR MRLB 070100Z 15006KT 9999 SCT020 BKN120 25/25 A2981 RMK TS DST N S=
200706070300 METAR MRLB NIL=
200706070400 METAR MRLB NIL=
200706070500 METAR MRLB NIL=
200706070600 METAR MRLB NIL=
200706070700 METAR MRLB NIL=
200706070800 METAR MRLB NIL=
200706070900 METAR MRLB NIL=
200706071000 METAR MRLB NIL=
200706071100 METAR MRLB NIL=
200706071200 METAR MRLB 071200Z 00000KT 0500FG SCT001 BKN012 25/24 A2982=
200706071300 METAR MRLB 071300Z 01004KT 5000 VCFG FEW001 SCT015 BKN180 25/24 A2984=
200706071400 METAR MRLB 071400Z 00000KT 9999 FEW015 SCT100 BKN200 27/24 A2985=
200706071500 METAR MRLB 071500Z 00000KT 9999 SCT015 BKN220 29/24 A2985=
200706071600 METAR MRLB 071600Z 00000KT 9999 SCT025 BKN250 30/24 A2983=
200706071700 METAR MRLB 071700Z 22004KT 9999 SCT020 BKN250 30/25 A2983=
200706071800 METAR MRLB 071800Z 24005KT 9999 SCT025 BKN180 30/25 A2981=
200706071900 METAR MRLB 071900Z 30008KT 6000 RA SCT010CB BKN050 25/20 A2979=
200706072000 METAR MRLB 072000Z 28006KT 8000 DZ FEW010CB SCT025 BKN120 25/24 A2980=
200706072100 METAR MRLB 072100Z VRB03KT 6000 -TSRA FEW010CB SCT020 BKN100 25/23 A2979=
200706072200 METAR MRLB NIL=
200706072300 METAR MRLB NIL=
200706080000 METAR MRLB 080000Z 15006KT 9999 FEW010 SCT025 BKN180 25/24 A2982=
200706080100 METAR MRLB 080100Z 14007KT 9999 FEW020 BKN100 24/23 A2984=
200706080200 METAR MRLB 080200Z 16006KT 9999 SCT020 OVC100 24/23 A2986=
200706080300 METAR MRLB NIL=
200706080400 METAR MRLB NIL=
200706080500 METAR MRLB NIL=
200706080600 METAR MRLB NIL=
200706080700 METAR MRLB NIL=
200706080800 METAR MRLB NIL=
200706080900 METAR MRLB NIL=
200706081000 METAR MRLB NIL=
200706081200 METAR MRLB 081200Z 00000KT 9999 SCT010 BKN120 23/22 A2981 LW ST S=
200706081300 METAR MRLB 081300Z 00000KT 2000 BR SCT002 SCT015 23/23 A2982=
200706081600 METAR MRLB NIL=
200706081700 METAR MRLB 081700Z 20003KT 9999 SCT035 BKN130 29/25 A2982=
200706081800 METAR MRLB 081800Z 18005KT 9999 SCT035 BKN120 29/25 A2981=
200706081900 METAR MRLB 081900Z 08003KT 9999 SCT035 OVC120 30/24 A2980 RMK RN DST E=
200706082000 METAR MRLB 082000Z 08010KT 9999 SCT030 OVC120 29/23 A2979=
200706082100 METAR MRLB 082100Z 08007KT 9999 FEW035 BKN130 29/23 A2978=
200706082200 METAR MRLB 082200Z 10006KT 9999 FEW035 BKN130 30/23 A2977=
200706082300 METAR MRLB 082300Z 10002KT 9999 SCT035 OVC130 29/23 A2979=
200706090000 METAR MRLB 090000Z 11004KT 9999 SCT035 BKN130 28/23 A2980=
200706090100 METAR MRLB 090100Z 13005KT 9999 FEW035 BKN140 27/22 A2981=
200706090200 METAR MRLB NIL=
200706090300 METAR MRLB NIL=
200706090400 METAR MRLB NIL=
200706090500 METAR MRLB NIL=
200706090600 METAR MRLB NIL=
200706090700 METAR MRLB NIL=
200706090800 METAR MRLB NIL=
200706090900 METAR MRLB NIL=
200706091000 METAR MRLB NIL=
200706091100 METAR MRLB NIL=
200706091300 METAR MRLB NIL=
200706091400 METAR MRLB NIL=
200706091500 METAR MRLB NIL=
200706091600 METAR MRLB 091600Z 16004KT 9999 SCT030 29/24 A2983 FEW AC CI=
200706091700 METAR MRLB 091700Z 25002KT 9999 BKN030 32/24 A2981 RMK FEW300=
200706091800 METAR MRLB 091800Z 16004KT 9999 BKN030 32/24 A2979 RMK FEW300=
200706091900 METAR MRLB 091900Z 29005KT 9999 FEW025TCU SCT030 32/26 A2977 RMK FEW280=
200706092000 METAR MRLB 092000Z 27006KT 9999 SCT025 SCT270 32/25 A2974 TCU RN SW=
200706092100 METAR MRLB 092100Z 28008KT 9999 SCT025 BKN270 30/25 A2974 RN S SW TCU SE=
200706092200 METAR MRLB 092200Z 29007KT 9999 FEW020TCU SCT025 BKN270 30/25 A2973 RMK TCU RASH NE E S=
200706092300 METAR MRLB 092300Z 12009KT 9999 4000S -TSRA FEW010CB SCT020 26/24 A2976=
200706100000 METAR MRLB 100000Z 20003KT 9999 -RA FEW020 BKN120 25/24 A2978 RMK CB S=
200706100100 METAR MRLB 100100Z 16003KT 9999 FEW025 BKN120 25/24 A2981=
200706100200 METAR MRLB 100200Z 09002KT 9999 FEW025 BKN120 25/24 A2982=
200706100300 METAR MRLB NIL=
200706100400 METAR MRLB NIL=
200706100500 METAR MRLB NIL=
200706100600 METAR MRLB NIL=
200706100700 METAR MRLB NIL=
200706100800 METAR MRLB NIL=
200706100900 METAR MRLB NIL=
200706101000 METAR MRLB NIL=
200706101100 METAR MRLB NIL=
200706101200 METAR MRLB 101200Z 07003KT 9999 FEW035 SCT140 BKN250 23/22 A2977 RMK FOG BANK SW=
200706101300 METAR MRLB 101300Z 03003KT CAVOK 25/22 A2978 RMK OVC240 TRACE AC=
200706101400 METAR MRLB 101400Z 17004KT 9999 FEW025 BKN240 26/24 A2979=
200706101500 METAR MRLB 101500Z 17004KT 9999 SCT025 BKN240 27/24 A2980=
200706101600 METAR MRLB 101600Z 17003KT 9999 FEW025 BKN250 29/24 A2981=
200706101700 METAR MRLB 101700Z 22003KT 9999 SCT025 BKN250 29/23 A2980 RMK TCU RN SW=
200706101800 METAR MRLB 101800Z 22003KT 9999 FEW030 BKN250 30/23 A2979 RMK TCU E SE S=
200706101900 METAR MRLB 101900Z 29008KT 9999 SCT030 BKN250 29/24 A2979 RMK CB RN SE S=
200706102000 METAR MRLB 102000Z 26009KT 9999 SCT025 BKN130 29/23 A2978 RMK CB RN E SE S=
200706102100 METAR MRLB 102100Z 30006KT 9999 4000W -RA BKN020 SCT130 25/24 A2979 TS DST S=
200706102200 METAR MRLB 102200Z 23004KT 9999 SCT025 BKN120 26/24 A2978 RN NE SW=
200706102300 METAR MRLB 102300Z 09003KT 9999 -RA FEW010TCU BKN020 26/24 A2979=
200706110000 METAR MRLB 110000Z 01003KT 9999 FEW020 BKN120 25/23 A2981 RN N NE=
200706110100 METAR MRLB NIL=
200706110200 METAR MRLB 110200Z 00000KT 9999 FEW020 BKN120 25/24 A2982=
200706110300 METAR MRLB NIL=
200706110400 METAR MRLB NIL=
200706110500 METAR MRLB NIL=
200706110600 METAR MRLB NIL=
200706110700 METAR MRLB NIL=
200706110800 METAR MRLB NIL=
200706110900 METAR MRLB NIL=
200706111000 METAR MRLB NIL=
200706111100 METAR MRLB NIL=
200706111200 METAR MRLB 111200Z 00000KT 0500 FG SCT001 24/23 A2981=
200706111300 METAR MRLB 111300Z 00000KT 0500 FG SCT001 24/23 A2983=
200706111400 METAR MRLB 111400Z 00000KT 9999 FEW010 SCT100 BKN250 27/24 A2985=
200706111500 METAR MRLB 111500Z 00000KT 9999 FEW010 SCT030 BKN250 28/24 A2987=
200706111600 METAR MRLB 111600Z 00000KT 9999 FEW020TCU SCT040 BKN250 28/24 A2987=
200706111700 METAR MRLB 111700Z 00000KT 9999 FEW020TCU SCT100 BKN250 29/24 A2985=
200706111800 METAR MRLB 111800Z 20004KT 9999 SCT025TCU BKN250 30/23 A2983=
200706111900 METAR MRLB 111900Z 19004KT 9999 SCT025TCU BKN250 31/24 A2981=
200706112000 METAR MRLB 112000Z 26008KT 9999 SCT025TCU BKN250 31/25 A2980=
200706112100 METAR MRLB 112100Z 28011KT 9999 SCT025TCU BKN250 30/24 A2918=
200706112200 METAR MRLB 112200Z 30008KT 8000 VCSH FEW020CB SCT035 BKN250 29/24 A2978 RMK RN N NE=
200706112300 METAR MRLB 112300Z 27008KT 9999 SCT020 BKN250 28/24 A2976=
200706120000 METAR MRLB 120000Z 28005KT 9999 FEW020 SCT100 BKN250 27/24 A2979=
200706120100 METAR MRLB 120100Z 31004KT 9999 SCT025 BKN100 27/24 A2980=
200706120200 METAR MRLB 120200Z 00000KT 9999 FEW020 SCT100 26/24 A2982 RMK LGTN DST SW=
200706120300 METAR MRLB NIL=
200706120400 METAR MRLB NIL=
200706120500 METAR MRLB NIL=
200706120600 METAR MRLB NIL=
200706120700 METAR MRLB NIL=
200706120800 METAR MRLB NIL=
200706120900 METAR MRLB NIL=
200706121000 METAR MRLB NIL=
200706121100 METAR MRLB NIL=
200706121200 METAR MRLB 121200Z 00000KT 0200 FG VV/// 24/24 A2978=
200706121300 METAR MRLB 121300Z 17003KT 9999 SCT010 SCT250 25/25 A2979 RMK LOW ST SW=
200706121400 METAR MRLB 121400Z 23004KT 9999 SCT025 BKN250 28/25 A2981=
200706121500 METAR MRLB 121500Z 23003KT 9999 SCT030 BKN250 29/24 A2982=
200706121600 METAR MRLB 121600Z 27006KT 9999 SCT035 BKN250 29/25 A2983=
200706121700 METAR MRLB 121700Z 29008KT 9999 SCT035 OVC250 30/25 A2982=
200706121800 METAR MRLB 121800Z 28007KT 9999 SCT035 BKN250 31/25 A2980=
200706121900 METAR MRLB 121900Z 24006KT 9999 FEW035 BKN250 31/24 A2978=
200706122000 METAR MRLB 122000Z 29011KT 9999 SCT035 BKN250 30/24 A2977 RMK RN DST N NE=
200706122100 METAR MRLB 122100Z 29008KT 9999 SCT030 OVC240 28/24 A2976 RMK RN DST E SE=
200706122200 METAR MRLB 122200Z 31004KT 9999 SCT035 BKN140 27/23 A2974 RMK RN DST S=
200706122300 METAR MRLB 122300Z 21003KT 9999 FEW035 BKN140 27/25 A2973=
200706130000 METAR MRLB 130000Z 34002KT 9999 FEW035 OVC140 28/25 A2975=
200706130100 METAR MRLB 130100Z 03002KT 9999 FEW035 BKN140 27/25 A2978=
200706130200 METAR MRLB 130200Z 00000KT 9999 FEW035 OVC140 26/25 A2980=
200706130300 METAR MRLB NIL=
200706130400 METAR MRLB NIL=
200706130500 METAR MRLB NIL=
200706130600 METAR MRLB NIL=
200706130700 METAR MRLB NIL=
200706130800 METAR MRLB NIL=
200706130900 METAR MRLB NIL=
200706131000 METAR MRLB NIL=
200706131100 METAR MRLB NIL=
200706131200 METAR MRLB NIL=
200706131300 METAR MRLB 131300Z 07004KT 0700 FG VV002 25/24 A2975=
200706131400 METAR MRLB 131400Z 11004KT 9999 FEW010 SCT020 27/25 A2976 RMK SCT250=
200706131500 METAR MRLB 131500Z 22005KT 9999 FEW010 SCT025 28/26 A2979 RMK SCT250=
200706131600 METAR MRLB 131600Z 17003KT 9999 SCT025 30/24 A2980 RMK FEW250=
200706131700 METAR MRLB 131700Z 18002KT 9999 SCT025 SCT250 31/25 A2979 RMK TCU RN DST N E=
200706131800 METAR MRLB 131800Z 00000KT 9999 FEW025CB SCT030 30/25 A2977 RMK SCT120 RN DST SE N NW W=
200706131900 METAR MRLB 131900Z 31006KT 9999 FEW030 BKN120 29/25 A2975 RMK CB DST NW N NE=
200706132000 METAR MRLB 132000Z 28007KT 9999 FEW030 BKN250 32/25 A2972 RMK CB DST ENE S SW=
200706132100 METAR MRLB 132100Z 29006KT 9999 FEW030 SCT140 BKN250 32/25 A2969 CB RN DST E SW=
200706132200 METAR MRLB 132200Z 27007KT 9999 FEW030 BKN140 30/25 A2967 TS RN SE=
200706132300 METAR MRLB 132300Z 27004KT 9999 FEW030 BKN130 30/24 A2969 RMK CB RN DST SE=
200706140000 METAR MRLB NIL=
200706140100 METAR MRLB 140100Z 15003KT 9999 BKN025 29/24 A2972 RMK TS DST N NE E=
200706140200 METAR MRLB NIL=
200706140300 METAR MRLB NIL=
200706140400 METAR MRLB NIL=
200706140500 METAR MRLB NIL=
200706140600 METAR MRLB NIL=
200706140700 METAR MRLB NIL=
200706140800 METAR MRLB NIL=
200706140900 METAR MRLB NIL=
200706141000 METAR MRLB NIL=
200706141100 METAR MRLB NIL=
200706141200 METAR MRLB 141200Z 20003KT 9999 FEW040 BKN250 23/22 A2978 RMK CB DST NE SE S FG NE E=
200706141300 METAR MRLB 141300Z 00000KT 9999 SCT012 BKN250 25/23 A2980 RMK LOW ST S SW NE=
200706141400 METAR MRLB 141400Z 00000KT CAVOK 27/23 A2979 RMK TRACE SC OVC250=
200706141500 METAR MRLB 141500Z 14002KT CAVOK 28/24 A2981 RMK OVC250 TRACE SC AC=
200706141600 METAR MRLB 141600Z 16003KT CAVOK 29/24 A2981 RMK TRACE CU AC BKN250=
200706141700 METAR MRLB 141700Z 17004KT 9999 FEW030 BKN250 30/24 A2980 RMK TCU RN DST N NE=
200706141800 METAR MRLB 141800Z 18004KT 9999 FEW035 BKN250 31/23 A2979 RMK TCU RN DST N NE=
200706141900 METAR MRLB 141900Z 25006KT 9999 FEW035 BKN250 32/23 A2975 RMK CB RN DST N TCU E=
200706142000 METAR MRLB 142000Z 24011KT 9999 FEW030 SCT250 30/25 A2974 CB N NE=
200706142100 METAR MRLB 142100Z 35007KT 9999 SCT030 BKN130 28/25 A2973 RMK RN NE E=
200706142200 METAR MRLB NIL=
200706142300 METAR MRLB 142300Z 03002KT 9999 FEW025 BKN120 27/23 A2973 RMK RN S=
200706150000 METAR MRLB 150000Z 05003KT 9999 SCT025 BKN140 26/24 A2974=
200706150100 METAR MRLB 150100Z 10002KT 9999 SCT020 BKN140 26/24 A2978=
200706150200 METAR MRLB 150200Z 16003KT 9999 FEW020 BKN140 26/24 A2982=
200706150300 METAR MRLB NIL=
200706150400 METAR MRLB NIL=
200706150500 METAR MRLB NIL=
200706150600 METAR MRLB NIL=
200706150700 METAR MRLB NIL=
200706150800 METAR MRLB NIL=
200706150900 METAR MRLB NIL=
200706151000 METAR MRLB NIL=
200706151100 METAR MRLB NIL=
200706151200 METAR MRLB NIL=
200706151300 METAR MRLB 151300Z 00000KT CAVOK 25/23 A2981 RMK FEW100 BKN250=
200706151400 METAR MRLB 151400Z 17004KT CAVOK 26/24 A2983 RMK BKN250=
200706151500 METAR MRLB 151500Z 00000KT 9999 FEW012 BKN250 27/24 A2984=
200706151600 METAR MRLB 151600Z 00000KT 9999 FEW020 BKN250 30/25 A2983=
200706151700 METAR MRLB 151700Z 00000KT 9999 FEW020 BKN250 30/24 A2984=
200706151800 METAR MRLB 151800Z 22007KT 9999 SCT025 BKN250 31/24 A2982=
200706151900 METAR MRLB 151900Z 25006KT 7000 VCSH FEW015CB SCT030 BKN150 30/24 A2981=
200706152000 METAR MRLB 152000Z 00000KT 9999 FEW012CB SCT025 BKN200 26/24 A2978 RERA RN S SW=
200706152100 METAR MRLB 152100Z 25005KT 9999 SCT030TCU BKN200 27/24 A2977=
200706152200 METAR MRLB 152200Z 29005KT 9999 TS FEW010CB SCT030 BKN200 29/25 A2976 VSBY NE E 6KM DUE RN=
200706152300 METAR MRLB NIL=
200706160000 METAR MRLB 160000Z 05004KT 9999 FEW015 SCT035TCU BKN180 24/24 A2980=
200706160100 METAR MRLB 160100Z 00000KT 9999 SCT025 BKN100 25/24 A2982 LTNG DST SW=
200706160200 METAR MRLB NIL=
200706160300 METAR MRLB NIL=
200706160400 METAR MRLB NIL=
200706160500 METAR MRLB NIL=
200706160600 METAR MRLB NIL=
200706160700 METAR MRLB NIL=
200706160800 METAR MRLB NIL=
200706160900 METAR MRLB NIL=
200706161000 METAR MRLB NIL=
200706161100 METAR MRLB NIL=
200706161200 METAR MRLB 161200Z 10003KT 9999 FEW030 BKN250 23/23 A2984=
200706161300 METAR MRLB NIL=
200706161400 METAR MRLB 161400Z 00000KT 9999 SCT010 BKN250 26/24 A2986 ST S=
200706161500 METAR MRLB 161500Z 18002KT 9999 SCT025 BKN250 27/24 A2987=
200706161600 METAR MRLB 161600Z 00000KT 9999 FEW035 BKN250 30/25 A2987=
200706161700 METAR MRLB 161700Z 29002KT 9999 FEW035 BKN250 31/25 A2985=
200706161800 METAR MRLB 161800Z 23005KT 9999 SCT035 BKN250 31/26 A2985=
200706161900 METAR MRLB NIL=
200706162000 METAR MRLB 162000Z 08009KT 9999 SCT035 BKN250 31/26 A2981=
200706162100 METAR MRLB 162100Z 27008KT 9999 SCT030 OVC250 29/25 A2980=
200706162200 METAR MRLB 162200Z 21011KT 9999 2000SW -TSRA FEW015CB SCT025 OVC130 25/24 A2981=
200706162300 METAR MRLB 162300Z 24002KT 9999 SCT020 OVC110 25/24 A2983 RMK RN DST S SE=
200706170000 METAR MRLB 170000Z 13003KT 9999 SCT025 BKN110 24/23 A2983 RMK RN DST S=
200706170100 METAR MRLB 170100Z 00000KT 9999 SCT030 OVC120 23/23 A2984=
200706170200 METAR MRLB 170200Z 31002KT 9999 SCT030 BKN120 23/23 A2986=
200706170300 METAR MRLB NIL=
200706170400 METAR MRLB NIL=
200706170500 METAR MRLB NIL=
200706170600 METAR MRLB NIL=
200706170700 METAR MRLB NIL=
200706170800 METAR MRLB NIL=
200706170900 METAR MRLB NIL=
200706171000 METAR MRLB NIL=
200706171100 METAR MRLB NIL=
200706171200 METAR MRLB 171200Z 35002KT 0500 FG VV002 23/23 A2985=
200706171300 METAR MRLB 171300Z 11002KT 9999 VCFG FEW004 SCT250 25/23 A2987 RMK VIS S SW 8000 DUE FG=
200706171400 METAR MRLB 171400Z 00000KT CAVOK 28/24 A2986 RMK CB DST S LOW ST FH S SW=
200706171500 METAR MRLB 171500Z 20004KT CAVOK 28/25 A2984 RMK TRACE CU SCT250=
200706171600 METAR MRLB 171600Z 23004KT 9999 FEW030 SCT250 30/25 A2986=
200706171700 METAR MRLB 171700Z 18004KT 9999 SCT025 SCT250 30/25 A2986=
200706171800 METAR MRLB 171800Z 28002KT 9999 BKN030 32/26 A2984 RMK FEW120 FEW250=
200706171900 METAR MRLB 171900Z 29007KT 9999 VCSH SCT025TCU SCT120 30/25 A2983 RMK RASH SW W NW NE VIS NW 7000=
200706172000 METAR MRLB 172000Z 27010KT 9999 FEW020TCU BKN250 30/25 A2982 RMK RN DST N RASH S SW=
200706172100 METAR MRLB 172100Z 28012KT 9999 FEW030 SCT250 30/25 A2980 RMK RN DST NE S=
200706172200 METAR MRLB 172200Z 27010KT 9999 BKN025 SCT250 29/25 A2979 RMK RN DST E=
200706172300 METAR MRLB NIL=
200706180000 METAR MRLB NIL=
200706180100 METAR MRLB NIL=
200706180200 METAR MRLB NIL=
200706180300 METAR MRLB NIL=
200706180400 METAR MRLB NIL=
200706180500 METAR MRLB NIL=
200706180600 METAR MRLB NIL=
200706180700 METAR MRLB NIL=
200706180800 METAR MRLB NIL=
200706180900 METAR MRLB NIL=
200706181000 METAR MRLB NIL=
200706181100 METAR MRLB NIL=
200706181200 METAR MRLB NIL=
200706181300 METAR MRLB NIL=
200706181400 METAR MRLB 181400Z 27003KT 9999 FEW012 26/24 A2984 RMK FEW250=
200706181500 METAR MRLB 181500Z 25003KT 9999 FEW025 29/25 A2984 RMK FEW130 FEW250=
200706181600 METAR MRLB 181600Z 18004KT 9999 SCT025 30/25 A2983 RMK FEW130=
200706181700 METAR MRLB 181700Z 08010KT 9999 FEW030 32/24 A2982 RMK CB DST NE FEW250=
200706181800 METAR MRLB 181800Z 10007KT 9999 SCT030 SCT120 32/23 A2981 RMK RN DST N=
200706181900 METAR MRLB 181900Z 07011KT 9999 FEW030 BKN120 30/23 A2981 RMK TCUI DST SW FEW250=
200706182000 METAR MRLB 182000Z 09007KT 9999 FEW030 BKN130 29/23 A2979=
200706182100 METAR MRLB 182100Z 11007KT CAVOK 29/23 A2977 RMK OVC130=
200706182200 METAR MRLB 182200Z 07003KT CAVOK 30/23 A2976 RMK OVC130=
200706182300 METAR MRLB 182300Z 12005KT CAVOK 29/23 A2975 RMK OVC140=
200706190000 METAR MRLB 190000Z 06005KT CAVOK 28/23 A2976 RMK OVC140=
200706190100 METAR MRLB 190100Z 13005KT CAVOK 27/23 A2978 RMK BKN140=
200706190200 METAR MRLB NIL=
200706190300 METAR MRLB NIL=
200706190400 METAR MRLB NIL=
200706190500 METAR MRLB NIL=
200706190600 METAR MRLB NIL=
200706190700 METAR MRLB NIL=
200706190800 METAR MRLB NIL=
200706190900 METAR MRLB NIL=
200706191000 METAR MRLB NIL=
200706191100 METAR MRLB NIL=
200706191200 METAR MRLB 191200Z 07005KT CAVOK 26/22 A2981 RMK FEW100 SCT250=
200706191300 METAR MRLB 191300Z 07006KT CAVOK 29/23 A2983 RMK FEW100 SCT250=
200706191400 METAR MRLB 191400Z 09008KT CAVOK 30/23 A2984 RMK FEW100 SCT250=
200706191500 METAR MRLB 191500Z 10010KT CAVOK 31/23 A2985 RMK SCT250=
200706191600 METAR MRLB 191600Z 06010KT 9999 FEW025 SCT250 32/23 A2984=
200706191700 METAR MRLB 191700Z 07010KT 9999 FEW025 SCT250 31/23 A2984=
200706191800 METAR MRLB NIL=
200706191900 METAR MRLB 191900Z 12006KT 9999 FEW025 SCT250 33/2 A2979=
200706192000 METAR MRLB 192000Z 07007KT 9999 FEW030 SCT250 32/23 A2978=
200706192100 METAR MRLB 192100Z 07007KT 9999 FEW030 SCT250 33/23 A2976=
200706192200 METAR MRLB 192200Z 06015KT 9999 FEW035 SCT250 32/23 A2976=
200706192300 METAR MRLB 192300Z 07010KT CAVOK 32/22 A2977 RMK FEW100 SCT250=
200706200000 METAR MRLB 200000Z 07010KT CAVOK 30/23 A2978 RMK SCT250=
200706200100 METAR MRLB 200100Z 05010KT CAVOK 29/23 A2980 RMK SCT280=
200706200200 METAR MRLB NIL=
200706200300 METAR MRLB NIL=
200706200400 METAR MRLB NIL=
200706200500 METAR MRLB NIL=
200706200600 METAR MRLB NIL=
200706200700 METAR MRLB NIL=
200706200800 METAR MRLB NIL=
200706200900 METAR MRLB NIL=
200706201000 METAR MRLB NIL=
200706201100 METAR MRLB NIL=
200706201200 METAR MRLB 201200Z 09010KT CAVOK 27/21 A2981 RMK SCT250=
200706201300 METAR MRLB 201300Z 08009KT CAVOK 29/22 A2981=
200706201400 METAR MRLB 201400Z 08012KT CAVOK 30/22 A2982 RMK BKN250=
200706201500 METAR MRLB 201500Z 08012KT CAVOK 31/22 A2983 RMK BKN250=
200706201600 METAR MRLB 201600Z 08013KT CAVOK 31/22 A2982 RMK BKN250=
200706201700 METAR MRLB 201700Z 06014KT CAVOK 32/23 A2982 RMK BKN250=
200706201800 METAR MRLB 201800Z 07009KT 9999 SCT035 BKN250 32/23 A2982=
200706201900 METAR MRLB 201900Z 06010KT 9999 SCT035 OVC250 32/24 A2981=
200706202000 METAR MRLB 202000Z 07011KT 9999 FEW035 BKN140 31/23 A2980=
200706202100 METAR MRLB 202100Z 08006KT 9999 SCT035 BKN140 31/24 A2979=
200706202200 METAR MRLB 202200Z 07011KT 9999 FEW030 BKN120 26/23 A2980 RN E=
200706202300 METAR MRLB 202300Z 07013KT 9999 SCT035 OVC130 28/24 A2981=
200706210000 METAR MRLB 210000Z 10009KT 9999 FEW035 OVC130 27/22 A2980=
200706210100 METAR MRLB 210100Z 11005KT 9999 FEW035 BKN130 27/21 A2983=
200706210200 METAR MRLB 210200Z 10005KT 9999 FEW035 BKN130 26/21 A2984=
200706210300 METAR MRLB NIL=
200706210400 METAR MRLB NIL=
200706210500 METAR MRLB NIL=
200706210600 METAR MRLB NIL=
200706210700 METAR MRLB NIL=
200706210800 METAR MRLB NIL=
200706210900 METAR MRLB NIL=
200706211000 METAR MRLB NIL=
200706211100 METAR MRLB NIL=
200706211200 METAR MRLB 211200Z 16004KT 9999 -DZ BKN025 SCT035 24/23 A2984 RMK RN DST E SW W=
200706211300 METAR MRLB 211300Z 08007KT 9999 DZ FEW020 BKN030 24/23 A2987 VSBY N NE 7KM DUE RN=
200706211400 METAR MRLB 211400Z 12003KT 9999 -RA SCT030 BKN120 25/24 A2987=
200706211500 METAR MRLB 211500Z 10003KT CAVOK 27/24 A2986 BKN120 FEW250 TRAZAS DE CU=
200706211600 METAR MRLB 211600Z 21002KT 9999 FEW030 BKN120 29/24 A2985 FEW250=
200706211700 METAR MRLB 211700Z 31003KT 9999 FEW030 BKN140 34/24 A2984 FEW250=
200706211800 METAR MRLB 211800Z 25002KT 9999 FEW030 BKN140 31/25 A2982 FEW250=
200706211900 METAR MRLB 211900Z 09010KT 9999 FEW030 BKN140 32/23 A2980 SCT250=
200706212000 METAR MRLB 212000Z 11009KT 9999 FEW035 SCT140 BKN250 31/23 A2978=
200706212100 METAR MRLB 212100Z 05011KT 9999 FEW030 BKN130 31/24 A2976=
200706212200 METAR MRLB 212200Z 06004KT 9999 FEW030 BKN130 31/24 A2978 RMK RN DST E=
200706212300 METAR MRLB 212300Z 11003KT 9999 FEW030 BKN120 30/17 A2976 RMK CB RN DST S=
200706220000 METAR MRLB 220000Z 31002KT 9999 FEW035 BKN140 28/24 A2980 RMK RN DST SW=
200706220100 METAR MRLB 220100Z 17005KT 9999 FEW035 BKN140 28/23 A2984=
200706220200 METAR MRLB 220200Z 20004KT 9999 -RA SCT030 BKN140 25/24 A2986=
200706220300 METAR MRLB NIL=
200706220400 METAR MRLB NIL=
200706220500 METAR MRLB NIL=
200706220600 METAR MRLB NIL=
200706220700 METAR MRLB NIL=
200706220800 METAR MRLB NIL=
200706220900 METAR MRLB NIL=
200706221000 METAR MRLB NIL=
200706221100 METAR MRLB NIL=
200706221200 METAR MRLB 221200Z 12003KT CAVOK 23/23 A2984 RMK TRACE SC FEW130 SCT250=
200706221300 METAR MRLB 221300Z 23003KT CAVOK 26/24 A2986 RMK TRACE SC AC SCT250=
200706221400 METAR MRLB 221400Z 18007KT CAVOK 27/24 A2986 RMK TRACE SC SCT250=
200706221500 METAR MRLB 221500Z 18006KT 9999 FEW030 SCT280 29/24 A2985=
200706221600 METAR MRLB 221600Z 10007KT 9999 FEW030 31/23 A2985=
200706221700 METAR MRLB 221700Z 10007KT 9999 SCT030 32/23 A2984=
200706221800 METAR MRLB 221800Z 12009KT 9999 BKN035 31/23 A2983=
200706221900 METAR MRLB 221900Z 12008KT 9999 BKN030 SCT120 31/23 A2981=
200706222000 METAR MRLB 222000Z 28010KT 9999 BKN030 SCT100 29/24 A2981 RN DST E SE CB DST S=
200706222100 METAR MRLB 222100Z 27008KT 9999 BKN025 SCT100 29/24 A2979 RMK RN DST N NE SW=
200706222200 METAR MRLB 222200Z 29009KT 9999 FEW015TCU BKN025 29/25 A2978 RMK TS RN DST S=
200706222210 SPECI MRLB 222210Z 28008KT 9999 4000S -RA FEW015TCU BKN025 28/25 A2978=
200706222300 METAR MRLB 222300Z 00000KT 9999 BKN020 27/26 A2979=
200706230000 METAR MRLB 230000Z 00000KT 9999 OVC030 27/25 A2980 RMK RN DST NE E S=
200706230100 METAR MRLB 230100Z 35003KT 9999 BKN030 27/26 A2983=
200706230200 METAR MRLB NIL=
200706230300 METAR MRLB 230300Z 35002KT 9999 BKN030 27/25 A2985=
200706230400 METAR MRLB NIL=
200706230500 METAR MRLB NIL=
200706230600 METAR MRLB NIL=
200706230700 METAR MRLB NIL=
200706230800 METAR MRLB NIL=
200706230900 METAR MRLB NIL=
200706231000 METAR MRLB NIL=
200706231100 METAR MRLB NIL=
200706231200 METAR MRLB 231200Z 00000KT 9999 -DZ FEW015 SCT090 BKN180 25/24 A2982=
200706231300 METAR MRLB 231300Z 03005KT 8000 FEW005 SCT015 BKN150 26/24 A2981 RMK FOG BKNS ARND=
200706231400 METAR MRLB 231400Z 02004KT 9999 FEW010 SCT250 28/25 A2982=
200706231500 METAR MRLB 231500Z 00000KT 9999 SCT012 BKN250 30/25 A2983=
200706231600 METAR MRLB 231600Z 00000KT 9999 SCT015 BKN220 30/25 A2983=
200706231700 METAR MRLB 231700Z 21003KT 9999 SCT015TCU BKN200 31/25 A2981=
200706231800 METAR MRLB 231800Z 25009KT 9999 SCT012CB BKN100 29/25 A2980 RNK RN ARND=
200706231900 METAR MRLB 231900Z 28006KT 9000 -RA FEW010 SCT025 BKN120 27/25 A2980=
200706232000 METAR MRLB 232000Z 27006KT 9000 SCT015TCU BKN140 27/25 A2978 RMK RN DST ARND=
200706232100 METAR MRLB 232100Z 28007KT 9999 SCT015 BKN180 27/26 A2976=
200706232200 METAR MRLB 2322200Z 29004KT 9999 SCT015 BKN170 28/26 A2976 RMK RN DST ARND=
200706232300 METAR MRLB 232300Z 00000KT DZ VCSH FEW010 SCT080 BKN250 27/26 A2976 VIS 6KMS S SW=
200706240000 METAR MRLB 240000Z 17004KT 9999 FEW010 SCT035 BKN250 25/25 A2977=
200706240100 METAR MRLB NIL=
200706240200 METAR MRLB 240200Z 00000KT 9999 VCFG SCT012 BKN100 25/25 A2982 RMK=
200706240300 METAR MRLB NIL=
200706240400 METAR MRLB NIL=
200706240500 METAR MRLB NIL=
200706240600 METAR MRLB NIL=
200706240700 METAR MRLB NIL=
200706240900 METAR MRLB NIL=
200706241000 METAR MRLB NIL=
200706241100 METAR MRLB NIL=
200706241200 METAR MRLB 241200Z 18004KT 9999 FEW030 BKN250 24/24 A2976 RMK LOW ST S=
200706241300 METAR MRLB 241300Z 17004KT 9999 SCT030 BKN250 25/24 A2978 RMK ST BJS AL SW=
200706241400 METAR MRLB 241400Z 17006KT 9999 SCT035 OVC240 26/24 A2980=
200706241500 METAR MRLB 241500Z 12008KT 9999 FEW035 OVC250 30/25 A2981=
200706241600 METAR MRLB 241600Z 10010KT 9999 SCT035 BKN250 31/25 A2982=
200706241700 METAR MRLB 241700Z 12010KT 9999 FEW035 BKN250 31/25 A2981=
200706241800 METAR MRLB 241800Z 12007KT 9999 SCT035 OVC240 32/26 A2980=
200706241900 METAR MRLB 241900Z 12005KT 9999 SCT035 BKN140 31/24 A2978=
200706242000 METAR MRLB 242000Z 19002KT 9999 SCT030 BKN140 30/25 A2977 RMK RN DST S SW=
200706242100 METAR MRLB 242100Z 20005KT 9999 SCT035 BKN130 27/25 A2978 RMK RN S E=
200706242200 METAR MRLB 242200Z 20004KT 9999 FEW35 OVC130 27/25 A2987 RMK RN S=
200706242300 METAR MRLB NIL=
200706250000 METAR MRLB 250000Z 20004KT 9999 FEW035 OVC120 26/24 A2980=
200706250100 METAR MRLB 250100Z 32003KT 9999 SCT035 OVC120 25/24 A2981=
200706250200 METAR MRLB NIL=
200706250300 METAR MRLB NIL=
200706250400 METAR MRLB NIL=
200706250500 METAR MRLB NIL=
200706250600 METAR MRLB NIL=
200706250700 METAR MRLB NIL=
200706250800 METAR MRLB NIL=
200706250900 METAR MRLB NIL=
200706251000 METAR MRLB NIL=
200706251100 METAR MRLB NIL=
200706251200 METAR MRLB 251200Z 07009KT 9999 FEW035 BKN130 27/22 A2982 RMK FEW250=
200706251300 METAR MRLB 251300Z 07009KT 9999 FEW035 BKN130 27/22 A2982 RMK FEW250=
200706251400 METAR MRLB 251400Z 06009KT 9999 FEW035 SCT130 BKN250 28/23 A2983 RMK HZ ARND=
200706251500 METAR MRLB 251500Z 07011KT 9999 SCT035 SCT130 28/23 A2984 RMK FEW250 HZ ARND=
200706251600 METAR MRLB 251600Z 08013KT 9999 FEW035 BKN130 29/22 A2986 RMK FEW250 HZ LEVE ARND=
200706251700 METAR MRLB 251700Z 07013KT 9999 FEW040 BKN130 30/23 A2985 RMK HZ ARND=
200706251800 METAR MRLB 251800Z 06007KT 9999 FEW040 BKN120 29/24 A2983 RMK RN DST SE N=
200706251900 METAR MRLB 251900Z 10009KT 9999 FEW040 BKN120 29/23 A2981=
200706252000 METAR MRLB 252000Z 14003KT 9999 FEW040 BKN130 29/24 A2980 RMK RN SW=
200706252100 METAR MRLB 252100Z 11005KT 9999 FEW040 BKN140 30/23 A2980=
200706252200 METAR MRLB 252200Z 08005KT 9999 FEW040 BKN140 30/23 A2979=
200706252300 METAR MRLB NIL=
200706260000 METAR MRLB NIL=
200706260100 METAR MRLB NIL=
200706260200 METAR MRLB NIL=
200706260300 METAR MRLB NIL=
200706260400 METAR MRLB NIL=
200706260500 METAR MRLB NIL=
200706260600 METAR MRLB NIL=
200706260700 METAR MRLB NIL=
200706260800 METAR MRLB NIL=
200706260900 METAR MRLB NIL=
200706261000 METAR MRLB NIL=
200706261100 METAR MRLB NIL=
200706261200 METAR MRLB NIL=
200706261300 METAR MRLB 261300Z PRUEBA 10012 CAVOK 29/22 A2984 RMK SCT130 FEW250 CLD MON=
200706261400 METAR MRLB 261400Z UNA PRUEBA=
200706261401 METAR MRLB 261401Z 09013KT CAVOK 29/22 A2985 RMK TRAZAS CU FEW130 BKN250=
200706261500 METAR MRLB 261500Z 08016KT 9999 FEW035 BKN250 31/21 A2987 RMK FEW130=
200706261600 METAR MRLB 261600Z 08016KT CAVOK 31/22 A2987 RMK TRACE CU SCT130 BKN250=
200706261700 METAR MRLB 261700Z 08015KT 9999 FEW035 BKN250 32/22 A2986 FEW130 G 22KT=
200706261800 METAR MRLB 261800Z 08014KT 9999 FEW035 BKN250 32/23 A2985=
200706261900 METAR MRLB 261900Z 08010KT 9999 FEW035 BKN250 33/23 A2984=
200706261953 METAR MRLB 2620Z 08008KT 9999 SCT035 BKN250 33/23 A2982=
200706262000 METAR MRLB 262000Z 08008KT 9999 SCT035 BKN250 33/23 A2982=
200706262054 METAR MRLB 2621Z 10010KT 9999 FEW035 SCT130 BKN250 31/23 A2980=
200706262100 METAR MRLB 262100Z 10010KT 9999 FEW035 SCT130 BKN250 31/23 A2980=
200706262200 METAR MRLB 262200Z 07012KT 9999 FEW040 OVC250 31/23 A2979=
200706262300 METAR MRLB 262300Z 07012KT 9999 SCT040 BKN250 31/23 A2980=
200706262355 METAR MRLB 2700Z 05010KT FEW040 OVC250 29/23 A2979 RMK CB DST N NE=
200706270000 METAR MRLB 270000Z 05010KT 9999 FEW040 OVC250 29/23 A2979 RMK CB DST N NE=
200706270100 METAR MRLB NIL=
200706270151 METAR MRLB 2702Z 09003KT 9999 FEW040 BKN250 27/23 A2982=
200706270200 METAR MRLB 270200Z 09003KT 9999 FEW040 BKN250 27/23 A2982=
200706270300 METAR MRLB NIL=
200706270400 METAR MRLB NIL=
200706270500 METAR MRLB NIL=
200706270600 METAR MRLB NIL=
200706270700 METAR MRLB NIL=
200706270800 METAR MRLB NIL=
200706270900 METAR MRLB NIL=
200706271000 METAR MRLB NIL=
200706271100 METAR MRLB NIL=
200706271200 METAR MRLB 271200Z 09010KT 9999 FEW025 SCT100 BKN250 28/22 A2977=
200706271300 METAR MRLB 271300Z 09008KT 9999 FEW025 SCT100 BKN250 28/23 A2980=
200706271400 METAR MRLB 271400Z 09007KT 9999 SCT030 BKN250 30/23 A2980=
200706271500 METAR MRLB 271500Z 13007KT 9999 SCT025 BKN250 31/24 A2980=
200706271600 METAR MRLB 271600Z 10007KT 9999 SCT025 SCT150 30/24 A2982 RMK CB DST S=
200706271700 METAR MRLB 271700Z 07008KT 9999 FEW025 SCT100 BKN200 30/24 A2982=
200706271800 METAR MRLB 271800Z 09008KT 9999 FEW020TCU SCT100 BKN200 30/24 A2982=
200706271900 METAR MRLB 271900Z 12010KT 8000 1000NE RA SCT010CB BKN050 28/25 A2983=
200706272000 METAR MRLB NIL=
200706272100 METAR MRLB NIL=
200706272200 METAR MRLB 272200Z 01004KT 9999 SCT030 BKN140 25/24 A2977 REDZ=
200706272300 METAR MRLB 272300Z 00000KT 9999 FEW030 BKN200 25/24 A2976=
200706280000 METAR MRLB 280000Z 00000KT 9999 FEW020 BKN200 25/24 A2977=
200706280100 METAR MRLB 280100Z 00000KT 9999 FEW020 SCT100 25/24 A2980=
200706280200 METAR MRLB 280200Z 00000KT 9999 FEW025 SCT150 26/24 A2982=
200706280300 METAR MRLB NIL=
200706280400 METAR MRLB NIL=
200706280500 METAR MRLB NIL=
200706280600 METAR MRLB NIL=
200706280700 METAR MRLB NIL=
200706280800 METAR MRLB NIL=
200706281000 METAR MRLB NIL=
200706281100 METAR MRLB NIL=
200706281200 METAR MRLB 281200Z 18003KT 9999 FEW035 BKN130 24/23 A2980=
200706281300 METAR MRLB 281300Z 30003KT 9999 FEW035 BKN120 25/24 A2981 RMK RN DST NE=
200706281400 METAR MRLB 281400Z 16003KT 9999 FEW035 BKN130 27/24 A2982=
200706281500 METAR MRLB 281500Z 03005KT 9999 FEW035 BKN240 28/24 A2981=
200706281600 METAR MRLB 281600Z 09003KT 9999 FEW035 BKN250 30/23 A2981=
200706281700 METAR MRLB 281700Z 10010KT 9999 FEW040 BKN250 31/22 A2980=
200706281800 METAR MRLB 281800Z 10005KT 9999 FEW040 BKN250 32/24 A2979=
200706281900 METAR MRLB 281900Z 08006KT 9999 FEW035 OVC250 33/23 A2977=
200706282000 METAR MRLB 282000Z 10007KT 9999 SCT035 BKN250 33/23 A2977=
200706282100 METAR MRLB 282100Z 29009KT 9999 SCT035 OVC250 31/24 A2975 RMK RN DST S SE=
200706282200 METAR MRLB 282200Z 32005KT 9999 SCT030 BKN130 27/25 A2976 RMK RN DST S SW SE=
200706282300 METAR MRLB 282300Z 12005KT 9999 DZ SCT030 OVC110 25/24 A2977=
200706290000 METAR MRLB 290000Z 26002KT 9999 SCT035 BKN120 26/25 A2980 RMK RN DST SE=
200706290100 METAR MRLB 290100Z 27002KT 9999 FEW035 BKN120 25/25 A2983=
200706290200 METAR MRLB NIL=
200706290300 METAR MRLB NIL=
200706290400 METAR MRLB NIL=
200706290500 METAR MRLB NIL=
200706290600 METAR MRLB NIL=
200706290700 METAR MRLB NIL=
200706290800 METAR MRLB NIL=
200706290900 METAR MRLB NIL=
200706291000 METAR MRLB NIL=
200706291100 METAR MRLB NIL=
200706291200 METAR MRLB 291200Z 00000KT 9999 FEW035 SCT140 BKN250 23/23 A2983 RMK CB DST NNE HZ LGT ARND=
200706291300 METAR MRLB 291300Z 14002KT 9999 FEW035 SCT140 BKN250 25/24 A2986 RMK FG BANK S SW=
200706291400 METAR MRLB 291400Z 17004KT 9999 SCT035 BKN120 25/24 A2988 RMK LOW ST W NW N=
200706291500 METAR MRLB 291500Z 32003KT 9999 BKN030 SCT120 25/25 A2990 RMK RN DST N NE S=
200706291600 METAR MRLB 291600Z 16005KT 9999 SCT035 BKN120 27/25 A2988=
200706291700 METAR MRLB 291700Z 11009KT 9999 FEW040 SCT120 BKN230 29/23 A2986=
200706291800 METAR MRLB 291800Z 08011KT 9999 FEW040 BKN240 29/23 A2986 RMK FEW140=
200706291900 METAR MRLB 291900Z 08011KT CAVOK 29/22 A2983 BKN250 SCT240 HZ ARND=
200706292000 METAR MRLB 292000Z 12005KT CAVOK 30/23 A2981 RMK SCT250 BKN240 HZ LGT ARND=
200706292100 METAR MRLB 292100Z 08008KT 9999 FEW035 BKN140 30/23 A2981 RMK SCT240 HZ ARND=
200706292200 METAR MRLB 292200Z 09009KT CAVOK 29/23 A2981 TRACE SCT SCT140 BKN240=
200706292300 METAR MRLB 292300Z 08006KT CAVOK 28/22 A2982 RMK OVC140 HZ ARND=
200706300000 METAR MRLB NIL=
200706300100 METAR MRLB 300100Z 13006KT CAVOK 26/22 A2984 RMK SCT140 BKN250=
200706300200 METAR MRLB 300200Z 07005KT CAVOK 26/22 A2987 RMK BKN250=
200706300300 METAR MRLB NIL=
200706300400 METAR MRLB NIL=
200706300500 METAR MRLB NIL=
200706300600 METAR MRLB NIL=
200706300700 METAR MRLB NIL=
200706300800 METAR MRLB NIL=
200706300900 METAR MRLB NIL=
200706301000 METAR MRLB NIL=
200706301100 METAR MRLB NIL=
200706301200 METAR MRLB 301200Z 08003KT 9999 FEW040 BKN130 22/21 A2981=
200706301300 METAR MRLB NIL=
200706301400 METAR MRLB 301400Z 05006KT 9999 FEW040 BKN130 28/24 A2988 RMK RN NE E=
200706301500 METAR MRLB 301500Z 31002KT 9999 FEW040 BKN130 28/23 A2989 RMK RN NE E=
200706301600 METAR MRLB 301600Z 08009KT 9999 -RA FEW035 BKN100 28/23 A2989=
200706301700 METAR MRLB 301700Z 06013KT 9999 FEW035 BKN120 30/23 A2988 RMK RN N=
200706301800 METAR MRLB 301800Z 10006KT 9999 FEW040 OVC120 30/23 A2987=
200706301900 METAR MRLB 301900Z 11005KT 9999 FEW040 OVC120 30/24 A2988 RMK RN E=
200706302000 METAR MRLB 302000Z 10005KT 9999 FEW040 OVC140 29/24 A2985 RMK RN E=
200706302100 METAR MRLB 302100Z 10003KT CAVOK 31/23 A2983 BKN140 SCT250=
200706302200 METAR MRLB 302200Z 15002KT 9999 FEW040 BKN140 31/23 A2980=
200706302300 METAR MRLB NIL=
200707010000 METAR MRLB 010000Z 25004KT CAVOK 28/25 A2981 FEW140 BKN250=
200707010100 METAR MRLB 010100Z 25002KT CAVOK 28/25 A2981 SCT250=
200707010200 METAR MRLB 010200Z 35002KT CAVOK 26/24 A2986 SCT250=
200707010300 METAR MRLB NIL=
200707010400 METAR MRLB NIL=
200707010500 METAR MRLB NIL=
200707010600 METAR MRLB NIL=
200707010700 METAR MRLB NIL=
200707010800 METAR MRLB NIL=
200707010900 METAR MRLB NIL=
200707011000 METAR MRLB NIL=
200707011100 METAR MRLB NIL=
200707011200 METAR MRLB 011200Z 00000KT 9999 FEW020 SCT100 25/24 A2987=
200707011300 METAR MRLB 011300Z 00000KT 9999 FEW025 SCT250 28/25 A2988=
200707011400 METAR MRLB 011400Z 00000KT 9999 FEW025 SCT250 29/25 A2989=
200707011500 METAR MRLB 011500Z 00000KT 9999 FEW020 SCT250 31/25 A2990=
200707011600 METAR MRLB 011600Z 29006KT 9999 SCT020 BKN250 32/25 A2989=
200707011700 METAR MRLB 011700Z 10007KT 9999 FEW020 BKN250 33/24 A2988=
200707011800 METAR MRLB 011800Z 19006KT 9999 SCT025TCU BKN250 33/25 A2988=
200707011900 METAR MRLB 011900Z 29010KT 9999 SCT025TCU BKN200 30/26 A2985=
200707012000 METAR MRLB 012000Z 28010KT 9999 SCT020TCU BKN250 31/26 A2984=
200707012100 METAR MRLB 012100Z 27009KT 9999 SCT020TCU BKN250 29/26 A2982=
200707012200 METAR MRLB 012200Z 27010KT 9999 TS SCT020CB BKN250 30/26 A2981=
200707012300 METAR MRLB 012300Z 29006KT 9000 -TSDZ SCT015CB BKN120 28/25 A2982 RMK CB RN ARND=
200707020000 METAR MRLB 020000Z 27006KT 7000 -TSRA SCT010CB BKN100 27/25 A2986=
200707020100 METAR MRLB 020100Z 14005KT 9000 FEW010 OVC100 26/25 A2987 RERA RMK HZ ARND=
200707020200 METAR MRLB 020200Z 00000KT 9999 SCT020 BKN100 25/25 A2990=
200707020300 METAR MRLB NIL=
200707020400 METAR MRLB NIL=
200707020500 METAR MRLB NIL=
200707020600 METAR MRLB NIL=
200707020700 METAR MRLB NIL=
200707020800 METAR MRLB NIL=
200707020900 METAR MRLB NIL=
200707021000 METAR MRLB NIL=
200707021100 METAR MRLB NIL=
200707021200 METAR MRLB 021200Z 00000KT 9999 SCT030 BKN250 24/24 A2984 RMK LOW ST SW=
200707021300 METAR MRLB 021300Z 20004KT 9999 FEW035 OVC250 25/24 A2983=
200707021400 METAR MRLB 021400Z 18002KT 9999 FEW035 BKN250 26/25 A2986=
200707021500 METAR MRLB 021500Z 20003KT 9999 SCT035 BKN250 28/25 A2987=
200707021600 METAR MRLB 021600Z 19002KT 9999 FEW035 SCT250 32/26 A2986=
200707021700 METAR MRLB 021700Z 27002KT 9999 SCT035 BKN250 31/25 A2986=
200707021800 METAR MRLB 021800Z 20003KT 9999 SCT035 BKN250 31/25 A2984=
200707021900 METAR MRLB 021900Z 12004KT 9999 SCT035 SCT250 33/24 A2982=
200707022000 METAR MRLB 022000Z 07003KT 9999 SCT035 BKN250 35/24 A2979=
200707022100 METAR MRLB 022100Z 29008KT 9999 SCT035 BKN250 32/26 A2979=
200707022200 METAR MRLB 022200Z 29007KT 9999 SCT030 BKN250 30/25 A2978 RMK RN DST N=
200707022300 METAR MRLB 022300Z 27006KT 9999 FEW035 BKN250 29/25 A2979=
200707030000 METAR MRLB 030000Z 30004KT 9999 FEW035 OVC250 29/25 A2980=
200707030100 METAR MRLB 030100Z 18003KT 9999 SCT035 BKN250 27/26 A2982=
200707030200 METAR MRLB 030200Z 16002KT 9999 FEW035 BKN250 26/25 A2985=
200707030300 METAR MRLB NIL=
200707030400 METAR MRLB NIL=
200707030500 METAR MRLB NIL=
200707030600 METAR MRLB NIL=
200707030700 METAR MRLB NIL=
200707030800 METAR MRLB NIL=
200707030900 METAR MRLB NIL=
200707031000 METAR MRLB NIL=
200707031100 METAR MRLB NIL=
200707031200 METAR MRLB 031200Z 00000KT 9999 -RA SCT030 BKN120 25/24 A2982 CB TS N NE=
200707031300 METAR MRLB 031300Z 36005KT 9999 SCT030 BKN120 25/25 A2984 RMK LOW ST N CB TS DIST N FEW250=
200707031400 METAR MRLB 031400Z 04005KT 9999 SCT030 BKN120 25/24 A2987 RMK CB TS RN DST N NE=
200707031500 METAR MRLB 031500Z 09008KT 9999 -RA OVC100 24/23 A2986=
200707031600 METAR MRLB 031600Z 34003KT 9999 -RA OVC120 25/23 A2983 RMK TRACE SC=
200707031700 METAR MRLB 031700Z 19006KT CAVOK 26/24 A2980 RMK BKN120 TRACE SC=
200707031800 METAR MRLB 031800Z 14007KT CAVOK 29/24 A2980 RMK BKN150 SCT220=
200707031900 METAR MRLB 031900Z 12009KT CAVOK 31/25 A2979 RMK SCT140 BKN250=
200707032000 METAR MRLB 032000Z 03005KT 9999 FEW035 SCT140 BKN250 32/25 A2977=
200707032100 METAR MRLB 032100Z 25002KT 9999 FEW035 BKN140 33/34 A2975=
200707032200 METAR MRLB NIL=
200707032300 METAR MRLB 032300Z 11007KT 9999 FEW030 BKN140 30/24 A2977 TCU DST E S SW=
200707040000 METAR MRLB 040000Z 08008KT 9999 FEW030 BKN140 29/24 A2979 RMK RN DST N SE S SW=
200707040100 METAR MRLB 040100Z 10006KT 9999 FEW030 BKN140 29/24 A2979 RMK LTNG DST N/SW=
200707040200 METAR MRLB 040200Z 10004KT 9999 FEW030 BKN140 27/23 A2982 RMK LTNG DST N/SW=
200707040300 METAR MRLB NIL=
200707040400 METAR MRLB NIL=
200707040500 METAR MRLB NIL=
200707040600 METAR MRLB NIL=
200707040700 METAR MRLB NIL=
200707040800 METAR MRLB NIL=
200707040900 METAR MRLB NIL=
200707041000 METAR MRLB NIL=
200707041100 METAR MRLB NIL=
200707041200 METAR MRLB 041200Z 07003KT 9999 -RA BKN030 25/24 A2980 RMK CB DST N NE VIS NW 7000 VCSH=
200707041300 METAR MRLB 041300Z 00000KT 9999 FEW035 BKN250 27/24 A2982 RMK FEW120 CB DST N=
200707041400 METAR MRLB 041400Z 08002KT 9999 SCT035 BKN250 28/25 A2983 RMK FEW120 RN DST SW=
200707041500 METAR MRLB 041500Z 08011KT 9999 BKN035 SCT250 29/23 A2983 RMK FEW120=
200707041600 METAR MRLB 041600Z 08010KT CAVOK 31/24 A2983 RMK TRACE CU AC BKN250=
200707041700 METAR MRLB 041700Z 09009KT 9999 SCT030 SCT120 31/24 A2981 RMK FEW250 CB DST ENE=
200707041800 METAR MRLB 041800Z 10009KT 9999 SCT035 SCT250 33/24 A2980 RMK TRACE AC CB DST NE=
200707041900 METAR MRLB 041900Z 06013KT 9999 SCT035 33/24 A2980 RMK FEW250 CB DST N SE S TCU RN DST E=
200707042000 METAR MRLB 042000Z 07014KT 9999 FEW035 SCT130 32/23 A2979 RMK RN DST N CB DST S=
200707042100 METAR MRLB 042100Z 06015KT 9999 FEW035 SCT230 31/23 A2977 RMK RN N CB S=
200707042200 METAR MRLB 042200Z 06014KT 9999 FEW035 SCT130 31/23 A2978 RMK RN N NE=
200707042300 METAR MRLB 042300Z 07011KT 9999 SCT035 SCT120 29/23 A2976 RMK RN N NE E=
200707050000 METAR MRLB 050000Z 08013KT 9999 BKN035 SCT100 28/23 A2977 RMK RN N NE E=
200707050100 METAR MRLB 050100Z 08012KT 9999 FEW035 SCT120 28/23 A2978=
200707050200 METAR MRLB 050200Z 07012KT CAVOK 28/22 A2978 RMK FEW120=
200707050300 METAR MRLB NIL=
200707050400 METAR MRLB NIL=
200707050500 METAR MRLB NIL=
200707050600 METAR MRLB NIL=
200707050700 METAR MRLB NIL=
200707050800 METAR MRLB NIL=
200707050900 METAR MRLB NIL=
200707051000 METAR MRLB NIL=
200707051100 METAR MRLB NIL=
200707051200 METAR MRLB 051200Z 00000KT 9000 -DZ FEW020 BKN100 26/22 A2978 RMK RN DST NE SE=
200707051300 METAR MRLB 051300Z 00000KT 9000 -DZ SCT020 BKN120 25/23 A2977 RMK RN NE SE=
200707051400 METAR MRLB 051400Z 00000KT 9999 -DZ FEW020 BKN140 25/23 A2976=
200707051500 METAR MRLB 051500Z 17005KT 9999 FEW025 SCT100 BKN220 26/23 A2980=
200707051600 METAR MRLB 051600Z 12015KT 9999 FEW025 SCT120 BKN240 28/22 A2980=
200707051700 METAR MRLB 051700Z 03011KT 9999 FEW020 SCT120 BKN250 30724 A2981=
200707051800 METAR MRLB 051800Z 09010KT 9999 SCT030 BKN250 30/22 A2979=
200707051900 METAR MRLB 051900Z 07011KT 9999 SCT030 BKN200 29/22 A2979=
200707052000 METAR MRLB 052000Z 10009KT 9999 FEW020 SCT080 BKN220 29/23 A2979=
200707052100 METAR MRLB 052100Z 07007KT 9999 FEW020 SCT100 BKN250 28/24 A2977=
200707052200 METAR MRLB 052200Z 07010KT 9999 FEW025 BKN250 29/23 A2976=
200707052300 METAR MRLB 052300Z 10010KT 9999 FEW035 BKN250 28/23 A2978=
200707060000 METAR MRLB 060000Z 07010KT 9999 FEW040 SCT250 28/23 A2978=
200707060100 METAR MRLB NIL=
200707060200 METAR MRLB NIL=
200707060300 METAR MRLB NIL=
200707060400 METAR MRLB NIL=
200707060500 METAR MRLB NIL=
200707060600 METAR MRLB NIL=
200707060700 METAR MRLB NIL=
200707060800 METAR MRLB NIL=
200707060900 METAR MRLB NIL=
200707061000 METAR MRLB NIL=
200707061100 METAR MRLB NIL=
200707061200 METAR MRLB 061200Z 12006KT 9999 FEW035 SCT250 26/23 A2980=
200707061300 METAR MRLB NIL=
200707061400 METAR MRLB 061400Z 10011KT 9999 SCT035 SCT130 28/23 A2982 RN NE=
200707061500 METAR MRLB 061500Z 08009KT 9999 FEW035 BKN130 30/23 A2985=
200707061600 METAR MRLB 061600Z 08010KT 9999 FEW035 BKN140 30/23 A2984=
200707061700 METAR MRLB 061700Z 08008KT 9999 FEW035 BKN250 32/23 A2982=
200707061800 METAR MRLB 061800Z 06011KT 9999 FEW035 BKN250 33/23 A2980=
200707061900 METAR MRLB 061900Z 08012KT 9999 FEW035 BKN250 32/23 A2978=
200707062000 METAR MRLB 062000Z 07014KT 9999 FEW035 OVC250 32/24 A2977=
200707062100 METAR MRLB 062100Z 07010KT 9999 FEW035 OVC240 31/23 A2977=
200707062200 METAR MRLB 062200Z 06009KT 9999 FEW035 BKN240 32/24 A2977=
200707062300 METAR MRLB 062300Z 08006KT 9999 SCT035 BKN140 30/24 A2978=
200707070000 METAR MRLB 070000Z 07007KT 9999SCT035 BKN140 30/23 A2981=
200707070100 METAR MRLB 070100Z 30005KT 9999 SCT035 OVC140 28/24 A2982=
200707070200 METAR MRLB 070200Z 28003KT 9999 SCT030 BKN130 26/24 A2983=
200707070300 METAR MRLB NIL=
200707070400 METAR MRLB NIL=
200707070500 METAR MRLB NIL=
200707070600 METAR MRLB NIL=
200707070700 METAR MRLB NIL=
200707070800 METAR MRLB NIL=
200707070900 METAR MRLB NIL=
200707071000 METAR MRLB NIL=
200707071100 METAR MRLB NIL=
200707071200 METAR MRLB 071200Z 13002KT 9999 -RA OVC120 24/23 A2978=
200707071300 METAR MRLB 071300Z 16004KT 9999 -RA OVC120 24/24 A2979 RMK LOW ST S SW=
200707071400 METAR MRLB 071400Z 19005KT CAVOK 25/24 A2980 RMK TRACE CU SC=
200707071500 METAR MRLB 071500Z 12006KT 9999 FEW040 SCT130 BKN250 28/23 A2982=
200707071600 METAR MRLB 071600Z 10014KT 9999 SCT040 BKN130 29/23 A2982 RMK FEW250=
200707071700 METAR MRLB 071700Z 10012KT 9999 SCT040 BKN130 30/22 A2982=
200707071800 METAR MRLB 071800Z 10006KT 9999 -RA FEW040 BKN120 29/23 A2980=
200707071900 METAR MRLB 071900Z 35003KT 9999 -RA OVC120 29/24 A2979=
200707072000 METAR MRLB 072000Z 12004KT 9999 -RA OVC120 28/24 A2978=
200707072100 METAR MRLB 072100Z 15003KT 9999 -RA OVC120 27/24 A2978=
200707072200 METAR MRLB 072200Z 21002KT 9999 -RA OVC120 27/24 A2977=
200707072300 METAR MRLB 072300Z 00000KT 9999 -RA OVC130 26/25 A2979=
200707080000 METAR MRLB 080000Z 33002KT 9999 -RA OVC130 25/24 A2980=
200707080100 METAR MRLB 080100Z 20003KT 9999 OVC130 25/24 A2981=
200707080200 METAR MRLB 080200Z 18004KT 9999 FEW035 BKN130 24/23 A2981=
200707080300 METAR MRLB NIL=
200707080400 METAR MRLB NIL=
200707080500 METAR MRLB NIL=
200707080600 METAR MRLB NIL=
200707080700 METAR MRLB NIL=
200707080800 METAR MRLB NIL=
200707080900 METAR MRLB NIL=
200707081000 METAR MRLB NIL=
200707081100 METAR MRLB NIL=
200707081200 METAR MRLB 081200Z 19003KT CAVOK 23/22 A2980 FEW130 SCT250 TRAZAS SCT=
200707081300 METAR MRLB 081300Z 20003KT CAVOK 26/23 A2982 RMK TRACE SC FEW130 SCT250=
200707081400 METAR MRLB 081400Z 00000KT CAVOK 28/23 A2982 RMK TRACE CU FEW140 SCT250 CB DST NNE S=
200707081500 METAR MRLB 081500Z 28003KT 9999 FEW030 SCT250 30/24 A2982=
200707081600 METAR MRLB 081600Z 09011KT 9999 FEW035 SCT250 31/23 A2981=
200707081700 METAR MRLB 081700Z 09014KT 9999 FEW030 BKN250 32/24 A2982 RMK CB DST SSE=
200707081800 METAR MRLB 081800Z 07015KT 9999 FEW030 BKN250 32/22 A2981 RMK CB DST SE S RN DST NNE=
200707081900 METAR MRLB 081900Z 08010KT 9999 SCT030 BKN250 33/23 A2981 RMK CB DST S SE RN DST N SSE=
200707082000 METAR MRLB 082000Z 07010KT 9999 SCT030 BKN250 31/23 A2978 RMK RN DST E SE CB DST S=
200707082100 METAR MRLB 082100Z 08011KT 9999 FEW030 BKN130 30/23 A2979 RMK RN DST S TCU SW=
200707082200 METAR MRLB 082200Z 11007KT 9999 SCT025 BKN130 29/24 A2982 RN DST S SW=
200707082300 METAR MRLB 082300Z 12007KT 9999 SCT025 BKN130 27/24 A2984 RMK RN DST SE=
200707090000 METAR MRLB 090000Z 13004KT CAVOK 26/24 A2985 RMK OVC120=
200707090100 METAR MRLB 090100Z 15004KT CAVOK 25/24 A2985 OVC120=
200707090200 METAR MRLB 090200Z 16007KT CAVOK 24/23 A 2984 OVC120=
200707090300 METAR MRLB NIL=
200707090400 METAR MRLB NIL=
200707090500 METAR MRLB NIL=
200707090600 METAR MRLB NIL=
200707090700 METAR MRLB NIL=
200707090800 METAR MRLB NIL=
200707090900 METAR MRLB NIL=
200707091000 METAR MRLB NIL=
200707091100 METAR MRLB NIL=
200707091200 METAR MRLB 091200Z 00000KT 9999 SCT010 BKN130 23/23 A2987 RMK LOW ST S=
200707091300 METAR MRLB 091300Z 00000KT 9999 FEW030 OVC130 24/23 A2988 RMK LOW ST N=
200707091400 METAR MRLB 091400Z 00000KT 9999 FEW035 BKN130 27/24 A2989=
200707091500 METAR MRLB 091500Z 27002KT 9999 FEW035 OVC130 28/23 A2989=
200707091600 METAR MRLB 091600Z 22002KT 9999 FEW035 BKN140 30/24 A2989=
200707091700 METAR MRLB 091700Z 16003KT 9999 FEW035 BKN250 30/24 A2988=
200707091800 METAR MRLB 091800Z 27003KT 9999 FEW020TCU SCT030 OVC250 30/24 A2986=
200707091900 METAR MRLB 091900Z 18005KT 9999 FEW015TCU SCT030 BKN140 25/24 A2986 RMK RN DST S SW=
200707092000 METAR MRLB 092000Z 25007KT 9999 SCT025 BKN120 25/24 A2983 RMK RN DST S SW=
200707092100 METAR MRLB 092100Z 25006KT 9999 DZ SCT025 OVC120 24/24 A2983=
200707092200 METAR MRLB 092200Z 12006KT 9999 DZ FEW015 SCT025 OVC100 24/23 A2984=
200707092300 METAR MRLB 092300Z 17005KT 5000 -RA FEW010 BKN025 23/23 A2986=
200707100000 METAR MRLB 100000Z 32004KT 8000 -RA SCT015 OVC100 23/23 A2989=
200707100100 METAR MRLB 100100Z 27003KT 9999 SCT025 OVC110 23/23 A2986=
200707100200 METAR MRLB 100200Z 00000KT 9999 SCT030 OVC110 23/23 A2988=
200707100300 METAR MRLB NIL=
200707100400 METAR MRLB NIL=
200707100500 METAR MRLB NIL=
200707100600 METAR MRLB NIL=
200707100700 METAR MRLB NIL=
200707100800 METAR MRLB NIL=
200707100900 METAR MRLB NIL=
200707101000 METAR MRLB NIL=
200707101100 METAR MRLB NIL=
200707101200 METAR MRLB 101200Z 12004KT 9999 FEW035 BKN140 24/22 A2985 RMK CB DST SE=
200707101300 METAR MRLB 101300Z 06004KT 9999 FEW035 BKN140 24/22 A2987 RMK CB SE=
200707101400 METAR MRLB 101400Z 00000KT CAVOK 27/23 A2988 RMK BKN130 TRACE CU=
200707101500 METAR MRLB 101500Z 10005KT 9999 FEW035 BKN130 29/23 A2988=
200707101600 METAR MRLB 101600Z 10005KT 9999 BKN035 SCT130 30/23 A2988=
200707101700 METAR MRLB 101700Z 07010KT 9999 FEW035 SCT250 31/23 A2988 TRACE AC=
200707101800 METAR MRLB 101800Z 11006KT 9999 BKN035 SCT250 30/22 A2985=
200707101900 METAR MRLB 101900Z 09006KT 9999 SCT035 BKN250 31/22 A2984=
200707102000 METAR MRLB 102000Z 07008KT 9999 SCT035 BKN250 31/23 A2981=
200707102100 METAR MRLB 102100Z 06011KT 9999 FEW035 BKN250 32/22 A2980=
200707102200 METAR MRLB 102200Z 08008KT 9999 FEW035 OVC250 31/23 A2979=
200707102300 METAR MRLB 102300Z 08006KT 9999 FEW035 SCT140 BKN250 30/22 A2979=
200707110000 METAR MRLB 110000Z 10005KT CAVOK 28/22 A2980 OVC140=
200707110100 METAR MRLB 110100Z 07004KT CAVOK 27/21 A2982 RMK OVC140=
200707110200 METAR MRLB 110200Z 09010KT CAVOK 27/20 A2982 RMK OVC1400=
200707110300 METAR MRLB NIL=
200707110400 METAR MRLB NIL=
200707110500 METAR MRLB NIL=
200707110600 METAR MRLB NIL=
200707110700 METAR MRLB NIL=
200707110800 METAR MRLB NIL=
200707110900 METAR MRLB NIL=
200707111000 METAR MRLB NIL=
200707111100 METAR MRLB NIL=
200707111200 METAR MRLB 111200Z 08003KT CAVOK 23/22 A2981 RMK SCT120 FEW250=
200707111300 METAR MRLB 111300Z 01003KT CAVOK 24/23 A2983 BKN120 FEW250=
200707111400 METAR MRLB 111400Z 34002KT CAVOK 27/23 A2984 SCT120 SCT250=
200707111500 METAR MRLB 111500Z 24002KT CAVOK 30/24 A2983 BKN250=
200707111600 METAR MRLB 111600Z 13007KT 9999 FEW030 BKN250 31/24 A2983 FEW130=
200707111700 METAR MRLB 111700Z 12005KT 9999 BKN030 31/24 A2983=
200707111800 METAR MRLB 111800Z 11006KT 9999 FEW030TCU SCT130 32/24 A2983 RN S SCT250=
200707111900 METAR MRLB 111900Z 13006KT 9999 FEW030 BKN250 33/24 A2979 CB E=
200707112000 METAR MRLB 112000Z 08006KT 9999 SCT030 BKN250 34/23 A2977 CB NW=
200707112100 METAR MRLB 112100Z 06010KT 9999 FEW035 SCT120 BKN250 31/22 A2975 RMK TCU DST NE=
200707112200 METAR MRLB 112200Z 06010KT CAVOK 32/22 A2975 RMK CB DST SE SCT130 BKN250=
200707112300 METAR MRLB 112300Z 06011KT 9999 FEW035 BKN120 31/22 A2978 RMK SCT250 CB DST SE S=
200707120000 METAR MRLB 120000Z 08010KT 9999 FEW035 SCT130 BKN250 29/23 A2978 RMK CB DST S=
200707120100 METAR MRLB 120100Z 07013KT 9999 FEW035 SCT130 BKN250 28/20 A2981 RMK CB LGTN NE=
200707120200 METAR MRLB NIL=
200707120300 METAR MRLB NIL=
200707120400 METAR MRLB NIL=
200707120500 METAR MRLB NIL=
200707120600 METAR MRLB NIL=
200707120700 METAR MRLB NIL=
200707120800 METAR MRLB NIL=
200707120900 METAR MRLB NIL=
200707121000 METAR MRLB NIL=
200707121100 METAR MRLB NIL=
200707121200 METAR MRLB 121200Z 08013KT 9999 FEW030 BKN130 26/21 A2980=
200707121300 METAR MRLB 121300Z 08014KT 9999 FEW035 BKN130 27/19 A2980=
200707121400 METAR MRLB 121400Z 07016KT 9999 FEW035 SCT100 28/20 A2983=
200707121500 METAR MRLB 121500Z 07014KT 9999 FEW035 SCT130 30/21 A2984=
200707121600 METAR MRLB 121600Z 08012KT 9999 SCT035 SCT140 30/21 A2984=
200707121700 METAR MRLB 121700Z 08012KT 9999 FEW035 BKN140 31/22 A2984=
200707121800 METAR MRLB 121800Z 08015KT 9999 FEW035 BKN130 30/22 A2984=
200707121900 METAR MRLB 121900Z 07011KT 9999 FEW035 BKN140 30/22 A2982=
200707122000 METAR MRLB 122000Z 08013KT 9999 SCT035 BKN240 31/21 A2979=
200707122100 METAR MRLB 122100Z 10012KT 9999 SCT035 BKN140 30/21 A2978=
200707122200 METAR MRLB 122200Z 09011KT 9999 FEW035 BKN140 30/21 A2978=
200707122300 METAR MRLB 122300Z 07010KT 9999 SCT035 OVC130 28/20 A2979=
200707130000 METAR MRLB 130000Z 08011KT 9999 FEW035 OVC130 27/21 A2981=
200707130100 METAR MRLB 130100Z 13004KT 9999 SCT035 BKN120 26/21 A2984=
200707130200 METAR MRLB 130200Z 12003KT 9999 FEW035 BKN130 26/22 A2986=
200707130300 METAR MRLB NIL=
200707130400 METAR MRLB NIL=
200707130500 METAR MRLB NIL=
200707130600 METAR MRLB NIL=
200707130700 METAR MRLB NIL=
200707130800 METAR MRLB NIL=
200707130900 METAR MRLB NIL=
200707131000 METAR MRLB NIL=
200707131100 METAR MRLB NIL=
200707131200 METAR MRLB NIL=
200707131300 METAR MRLB 131300Z 00000KT 9999 FEW010 BKN140 26/23 A2985=
200707131400 METAR MRLB 131400Z 21003KT 9999 SCT020 BKN140 25/23 A2987=
200707131500 METAR MRLB 131500Z 20002KT 9999 FEW030 BKN240 27/23 A2987 RMK TRACE AC=
200707131600 METAR MRLB 131600Z 00000KT 9999 FEW035 SCT140 BKN250 29/24 A2987=
200707131700 METAR MRLB 131700Z 32003KT 9999 SCT035 BKN130 30/24 A2986=
200707131800 METAR MRLB 131800Z 27002KT 9999 BKN030 SCT120 32/24 A2986=
200707131900 METAR MRLB 131900Z 28005KT 9999 BKN030 30/24 A2984 RMK RN DST SW=
200707132000 METAR MRLB 132000Z 28006KT 9999 SCT035 BKN250 31/25 A2981 RMK TCU RN DST SW FEW130=
200707132100 METAR MRLB 132100Z 29005KT 9999 SCT030 BKN100 31/25 A2980 RMK RN DST SW=
200707132200 METAR MRLB 132200Z 28004KT 9999 FEW030 SCT100 BKN250 A30/25 A2979 RMK RN DST SW=
200707132300 METAR MRLB 132300Z 28004KT 9999 FEW030 SCT100 BKN250 A30/25 A2979 RMK RN DST SW=
200707140000 METAR MRLB 140000Z 23006KT 9999 SCT025 SCT120 28/25 A2980=
200707140100 METAR MRLB NIL=
200707140200 METAR MRLB 140200Z 21003KT 9999 FEW025 SCT120 26/25 A2984=
200707140300 METAR MRLB NIL=
200707140400 METAR MRLB NIL=
200707140500 METAR MRLB NIL=
200707140600 METAR MRLB NIL=
200707140700 METAR MRLB NIL=
200707140800 METAR MRLB NIL=
200707140900 METAR MRLB NIL=
200707141000 METAR MRLB NIL=
200707141100 METAR MRLB NIL=
200707141200 METAR MRLB 141200Z 05003KT 9999 BKN030 24/23 A2983 RMK CB DST SW=
200707141300 METAR MRLB 141300Z 01003KT 9999 FEW035 BKN250 26/23 A2984 RMK FEW130 CB DST S SW N=
200707141400 METAR MRLB 141400Z 05004KT 9999 FEW035 BKN250 28/24 A2984 RMK CB DST S SW=
200707141500 METAR MRLB 141500Z 17003KT 9999 FEW035 SCT130 BKN250 29/24 A2986 RMK CB DST S SW=
200707141600 METAR MRLB 141600Z 17004KT 9999 FEW030 SCT130 BKN250 30/24 A2986 RMK CB DST SW RN DST N=
200707141700 METAR MRLB 141700Z 19003KT 9999 FEW030TCU BKN035 30/24 A2985 RMK FEW250 RN DST N SSE=
200707141800 METAR MRLB 141800Z 35009KT 9999 4000W -RA FEW020TCU BKN030 25/24 A2984 RMK RASH W NW N=
200707141900 METAR MRLB 141900Z 01004KT 9999 FEW030TCU SCT120 BKN250 28/24 A2980 RMK RN DST NE=
200707142000 METAR MRLB 142000Z 12002KT 9999 FEW030 SCT130 BKN250 29/24 A2978 CB DST NE S=
200707142100 METAR MRLB 142100Z 16007KT 9999 SCT030 SCT130 28/25 A2978 RMK CB RN SW=
200707142200 METAR MRLB 142200Z 19007KT 9999 SCT025 BKN130 27/25 A2978=
200707142300 METAR MRLB 142300Z 19005KT 9999 SCT025 BKN130 27/25 A2979=
200707150000 METAR MRLB NIL=
200707150100 METAR MRLB NIL=
200707150200 METAR MRLB NIL=
200707150300 METAR MRLB NIL=
200707150400 METAR MRLB NIL=
200707150500 METAR MRLB NIL=
200707150600 METAR MRLB NIL=
200707150700 METAR MRLB NIL=
200707150800 METAR MRLB NIL=
200707150900 METAR MRLB NIL=
200707151000 METAR MRLB NIL=
200707151100 METAR MRLB NIL=
200707151200 METAR MRLB 151200Z 00000KT 9999 SCT020 BKN130 25/24 A2985=
200707151300 METAR MRLB 151300Z 07002KT 9999 SCT030 SCT140 26/24 A2986=
200707151400 METAR MRLB 151400Z 17003KT 9999 SCT030 SCT250 27/24 A2987=
200707151500 METAR MRLB 151500Z 21004KT 9999 FEW035 BKN250 28/24 A2989=
200707151600 METAR MRLB 151600Z 18005KT 9999 FEW035 BKN250 29/24 A2990=
200707151700 METAR MRLB 151700Z 19003KT 9999 SCT035 OVC240 29/24 A2989=
200707151800 METAR MRLB 151800Z 27007KT 9999 FEW020TCU SCT030 BKN130 28/25 A2988 RMK RN E NE=
200707151900 METAR MRLB 151900Z 27004KT 7000 -RA SCT020 OVC100 24/23 A2985=
200707152000 METAR MRLB 152000Z 30004KT 9999 SCT030 BKN120 24/24 A2988 RMK RN N=
200707152100 METAR MRLB 152100Z 30003KT 9999 FEW030 OVC120 26/25 A2983 RN S=
200707152200 METAR MRLB 152200Z 27003KT 9999 SCT035 OVC120 26/25 A2983 RN S=
200707152300 METAR MRLB 152300Z 20003KT 9999 SCT030 OVC120 25/24 A2983=
200707160000 METAR MRLB 160000Z 17002KT 9999 SCT025 OVC130 24/24 A2984=
200707160100 METAR MRLB 160100Z 00000KT 9999 SCT030 OVC120 24/24 A2985=
200707160200 METAR MRLB 160200Z 00000KT 9999 SCT030 OVC120 23/23 A2987=
200707160300 METAR MRLB NIL=
200707160400 METAR MRLB NIL=
200707160500 METAR MRLB NIL=
200707160600 METAR MRLB NIL=
200707160700 METAR MRLB NIL=
200707160800 METAR MRLB NIL=
200707160900 METAR MRLB NIL=
200707161000 METAR MRLB NIL=
200707161100 METAR MRLB NIL=
200707161200 METAR MRLB 161200Z 23003KT 9999 FEW005 BKN140 23/22 A2983=
200707161300 METAR MRLB 161300Z 18002KT 9999 FEW010 SCT140 25/23 A2984=
200707161400 METAR MRLB 161400Z 04002KT 9999 FEW015 27/24 A2875 FEW140=
200707161500 METAR MRLB 161500Z 01002KT 9999 FEW020 29/24 A2986 TRAZAS SCT=
200707161600 METAR MRLB 161600Z 29004KT 9999 FEW025 30/24 A2986=
200707161700 METAR MRLB 161700Z 08012KT 9999 FEW030 31/20 A2985 FEW270=
200707161800 METAR MRLB 161800Z 08009KT 9999 FEW035 32/21 A2985 FEW270=
200707161900 METAR MRLB 161900Z 07009KT 9999 SCT035 32/21 A2984 FEW130=
200707162000 METAR MRLB 162000Z 10009KT 9999 FEW035 33/20 A2981=
200707162100 METAR MRLB 162100Z 09010KT 9999 FEW040 33/20 A2980=
200707162200 METAR MRLB 162200Z 08009KT CAVOK 32/18 A2979 RMK TRACE AC CI=
200707162300 METAR MRLB 162300Z 07007KT CAVOK 31/19 A2980 RMK SCT130 HZ ARND=
200707170000 METAR MRLB 170000Z 07006KT CAVOK 29/22 A2981 RMK SCT130 HZ ARND=
200707170100 METAR MRLB 170100Z 09004KT CAVOK 27/22 A2984 RMK FEW130=
200707170200 METAR MRLB 170200Z 14005KT CAVOK 26/22 A2986 TRAZAS AC=
200707170300 METAR MRLB NIL=
200707170400 METAR MRLB NIL=
200707170500 METAR MRLB NIL=
200707170600 METAR MRLB NIL=
200707170700 METAR MRLB NIL=
200707170800 METAR MRLB NIL=
200707170900 METAR MRLB NIL=
200707171000 METAR MRLB NIL=
200707171200 METAR MRLB 171200Z 14003KT 9999 NSC 21/20 A2986 RMK TRACE SC CI HZ ARND=
200707171300 METAR MRLB 171300Z 02003KT CAVOK 22/21 A2987 RMK FEW300 HZ ARND=
200707171400 METAR MRLB 171400Z 28002KT 9999 NSC 25/22 A2989 RMK TRACE SC CI HZ LGT ARND=
200707171500 METAR MRLB 171500Z 30003KT 9999 NSC 28/23 A2988 RMK TRACE CU CI HZ LGT ARND=
200707171600 METAR MRLB 171600Z 06003KT 9999 NSC 30/22 A2990 RMK TRACE CU CI HZ LGT ARND=
200707171700 METAR MRLB 171700Z 05002KT 9999 FEW030 SCT250 32/22 A2990 RMK HZ LGT ARND=
200707171800 METAR MRLB 171800Z 10006KT 9999 SCT030 SCT250 32/26 A2988 RMK HZ LGT ARND=
200707171900 METAR MRLB 171900Z 13006KT 9999 FEW030 BKN250 33/23 A2985 RMK HZ LGT ARND=
200707172000 METAR MRLB 172000Z 11006KT 9999 SCT030TCU BKN250 32/23 A2982 RMK HZ LGT ARND RASH DST NE CB DST E=
200707172100 METAR MRLB 172100Z 34007KT 9999 SCT030TCU BKN120 29/23 A2984 RMK CB TS SHRA DST N NW S=
200707172200 METAR MRLB 172200Z 31005KT 9999 SCT035 BKN120 27/23 A2983 RMK CB RN DST SW=
200707172300 METAR MRLB 172300Z 00000KT 9999 FEW035 BKN120 27/23 A2982 RMK CB DST SW TCU DST SE S=
200707180000 METAR MRLB 180000Z 36002KT 9999 FEW040 BKN120 26/24 A2986 RMK CB DST S LEVE HZY=
200707180100 METAR MRLB 180100Z 16004KT 9999 FEW040 BKN130 25/24 A2986 RMK LTNG CB DST SE S=
200707180200 METAR MRLB NIL=
200707180300 METAR MRLB NIL=
200707180400 METAR MRLB NIL=
200707180500 METAR MRLB NIL=
200707180600 METAR MRLB NIL=
200707180700 METAR MRLB NIL=
200707180800 METAR MRLB NIL=
200707180900 METAR MRLB NIL=
200707181000 METAR MRLB NIL=
200707181100 METAR MRLB NIL=
200707181200 METAR MRLB 181200Z 06002KT 9999 FEW035 SCT250 23/21 A2987=
200707181300 METAR MRLB 181300Z 15003KT 9999 FEW035 SCT140 25/21 A2988=
200707181400 METAR MRLB 181400Z 17006KT 9999 FEW035 SCT250 25/22 A2989=
200707181500 METAR MRLB 181500Z 17004KT 9999 FEW035 BKN130 29/23 A2989=
200707181600 METAR MRLB 181600Z VRB02KT 9999 FEW030 BKN250 31/23 A2988=
200707181700 METAR MRLB 181700Z 10009KT 9999 FEW035 SCT130 BKN240 31/22 A2989=
200707181800 METAR MRLB 181800Z 12006KT 9999 SCT035 BKN130 32/23 A2988=
200707181900 METAR MRLB 181900Z 09007KT 9999 SCT030 OVC120 31/23 A2987 RMK RN DST SE=
200707182000 METAR MRLB 182000Z 12006KT 9999 FEW020TCU SCT030 OVC120 29/24 A2986 RMK RN DST NE=
200707182100 METAR MRLB 182100Z 08009KT 9999 SCT025 OVC100 24/22 A2985 RMK RN DST W N=
200707182200 METAR MRLB 182200Z 27004KT 9999 FEW030 OVC120 26/23 A2984=
200707182300 METAR MRLB 182300Z 19003KT 9999 FEW035 OVC120 26/24 A2984=
200707190000 METAR MRLB 190000Z 13004KT 9999 FEW035 OVC120 26/23 A2985=
200707190100 METAR MRLB 190100Z 18003KT 9999 FEW035 BKN130 25/23 A2987=
200707190200 METAR MRLB NIL=
200707190300 METAR MRLB NIL=
200707190400 METAR MRLB NIL=
200707190500 METAR MRLB NIL=
200707190600 METAR MRLB NIL=
200707190700 METAR MRLB NIL=
200707190800 METAR MRLB NIL=
200707190900 METAR MRLB NIL=
200707191000 METAR MRLB NIL=
200707191100 METAR MRLB NIL=
200707191200 METAR MRLB 191200Z 10002KT 9999 SCT035 BKN250 23/22 A2987=
200707191300 METAR MRLB 191300Z 05003KT 9999 SCT035 BKN250 24/23 A2988=
200707191400 METAR MRLB 191400Z 05002KT 9999 SCT035 BKN270 27/23 A2989=
200707191500 METAR MRLB 191500Z 11003KT 9999 FEW030 OVC280 29/23 A2989=
200707191600 METAR MRLB 191600Z 15003KT 9999 070V150 SCT030 BKN280 30/24 A2990=
200707191700 METAR MRLB 191700Z 20005KT 9999 BKN030 SCT300 30/24 A2989 RMK HZ E=
200707191800 METAR MRLB 191800Z 32005KT 9999 BKN025 SCT250 30/25 A2988 RMK TCU DST SW W=
200707191900 METAR MRLB 191900Z 26007KT 9999 BKN025 SCT250 31/25 A2987 RMK TCU RN DST W=
200707192000 METAR MRLB 192000Z 27010KT 9999 SCT020TCU SCT120 29/25 A2983 RMK RN DST N NE E=
200707192100 METAR MRLB 192100Z 30007KT 9999 SCT020 BKN120 26/25 A2984 RMK RN N NE E W=
200707192200 METAR MRLB 192200Z NIL=
200707192300 METAR MRLB 192300Z 00000KT 9999 FEW020 OVC120 25/24 A2985 RMK RN NE E TSTM S=
200707200000 METAR MRLB 200000Z 36002KT 9999 -RA OVC120 25/24 A2986=
200707200100 METAR MRLB 200100Z 17002KT 9999 -RA FEW025 OVC120 24/24 A2987=
200707200200 METAR MRLB NIL=
200707200300 METAR MRLB NIL=
200707200400 METAR MRLB NIL=
200707200500 METAR MRLB NIL=
200707200600 METAR MRLB NIL=
200707200700 METAR MRLB NIL=
200707200800 METAR MRLB NIL=
200707200900 METAR MRLB NIL=
200707201000 METAR MRLB NIL=
200707201100 METAR MRLB NIL=
200707201200 METAR MRLB 201200Z 00000KT 9999 FEW025 SCT250 23/22 A2986 RMK DUE LOW ST ARND=
200707201300 METAR MRLB 201300Z 00000KT 9999 FEW010 BKN250 25/23 A2988=
200707201400 METAR MRLB 201400Z 00000KT 9999 FEW015 BKN250 27/24 A2990=
200707201500 METAR MRLB 201500Z 00000KT 9999 FEW020 SCT150 BKN250 29/24 A2990=
200707201600 METAR MRLB 201600Z 00000KT 9999 FEW020 BKN250 30/24 A2990=
200707201700 METAR MRLB 201700Z 00000KT 9999 SCT020 BKN250 31/24 A2989=
200707201800 METAR MRLB 201800Z 12006KT 9999 SCT020 BKN250 31/23 A2986=
200707201900 METAR MRLB 201900Z 11006KT 9999 SCT025 BKN250 32/23 A2983=
200707202000 METAR MRLB 202000Z 08006KT 9999 SCT025 BKN250 32/22 A2981=
200707202100 METAR MRLB 202100Z 29010KT 9999 SCT035 BKN250 31/25 A2980=
200707202200 METAR MRLB NIL=
200707202300 METAR MRLB 202300Z 25005KT 9999 SCT015TCU BKN250 28/25 A2980 TCU NW S SW=
200707210000 METAR MRLB 210000Z 00000KT 9999 SCT015TCU BKN250 27/25 A2983=
200707210100 METAR MRLB 210100Z 00000KT 9999 FEW020TCU SCT045 26/25 A2985 LTNG DST S=
200707210200 METAR MRLB NIL=
200707210300 METAR MRLB NIL=
200707210400 METAR MRLB NIL=
200707210500 METAR MRLB NIL=
200707210600 METAR MRLB NIL=
200707210700 METAR MRLB NIL=
200707210800 METAR MRLB NIL=
200707210900 METAR MRLB NIL=
200707211000 METAR MRLB NIL=
200707211100 METAR MRLB NIL=
200707211200 METAR MRLB 211200Z 00000KT 9999 FEW030 SCT250 23/22 A2989=
200707211300 METAR MRLB 211300Z 00000KT CAVOK 24/23 A2992 SCT250=
200707211400 METAR MRLB 211400Z 00000KT CAVOK 28/24 A2994 SCT250=
200707211500 METAR MRLB 211500Z 22004KT 9999 SCT015 BKN250 29/24 A2995=
200707211600 METAR MRLB 211600Z 23004KT 9999 SCT020 BKN250 30/23 A2995=
200707211700 METAR MRLB 211700Z 29005KT 9999 SCT025TCU BKN250 31/23 A2993=
200707211800 METAR MRLB 211800Z 29010KT 9999 SCT020TCU BKN200 31/24 A2991 RN E N S=
200707211900 METAR MRLB 211900Z 30006KT 9999 SCT025 BKN250 28/25 A2989 RERA=
200707212000 METAR MRLB 212000Z 30007KT 9999 SCT025 BKN250 30/24 A2986=
200707212100 METAR MRLB 212100Z 28010KT 9999 FEW015 BKN250 29/24 A2983=
200707212200 METAR MRLB 212200Z 28008KT 9999 SCT020 BKN250 30/25 A2982=
200707212300 METAR MRLB 212300Z 26007KT 9999 FEW020 BKN250 29/25 A2985=
200707220000 METAR MRLB 220000Z 28005KT 1000 +TSRA SCT010CB BKN080 27/25 A2987=
200707220100 METAR MRLB 220100Z 22007KT 9000 -TSRA FEW010CB OVC100 22/21 A2992=
200707220200 METAR MRLB 220200Z 00000KT 9999 DZ FEW015CB BKN100 23/22 A2989=
200707220300 METAR MRLB NIL=
200707220400 METAR MRLB NIL=
200707220500 METAR MRLB NIL=
200707220600 METAR MRLB NIL=
200707220700 METAR MRLB NIL=
200707220800 METAR MRLB NIL=
200707220900 METAR MRLB NIL=
200707221000 METAR MRLB NIL=
200707221100 METAR MRLB NIL=
200707221200 METAR MRLB 221200Z 00000KT 0800 FG VV/// 22/22 A2990=
200707221300 METAR MRLB 221300Z 07002KT 1000 BR VV/// 23/23 A2992=
200707221400 METAR MRLB 221400Z 05002KT 9999 SCT025 SCT130 26/24 A2993=
200707221500 METAR MRLB 221500Z 00000KT 9999 SCT025 BKN140 28/24 A2993=
200707221600 METAR MRLB 221600Z 34002KT 9999 FEW030 BKN140 29/24 A2993=
200707221700 METAR MRLB 221700Z 16002KT 9999 FEW035 OVC140 31/23 A2991=
200707221800 METAR MRLB 221800Z 23004KT 9999 SCT035 BKN140 30/24 A2989=
200707221900 METAR MRLB 221900Z 25004KT 9999 SCT035 OVC130 30/25 A2987 RMK RN DST E=
200707222000 METAR MRLB 222000Z 27004KT 9999 FEW020TCU SCT035 OVC130 31/25 A2984 RMK RN DST E NE=
200707222100 METAR MRLB 222100Z 18004KT 9999 SCT025 BKN130 27/23 A2983 RMK RN DST S=
200707222200 METAR MRLB 222200Z 15003KT 9999 FEW030 BKN120 26/25 A2982=
200707222300 METAR MRLB 222300Z 18004KT 9999 FEW035 BKN120 26/24 A2983=
200707230000 METAR MRLB 230000Z 15005KT 9999 SCT035 BKN120 25/24 A2986 RMK RN DST S=
200707230100 METAR MRLB 230100Z 10004KT 9999 SCT030 OVC120 25/23 A2987=
200707230200 METAR MRLB NIL=
200707230300 METAR MRLB NIL=
200707230400 METAR MRLB NIL=
200707230500 METAR MRLB NIL=
200707230600 METAR MRLB NIL=
200707230700 METAR MRLB NIL=
200707230800 METAR MRLB NIL=
200707230900 METAR MRLB NIL=
200707231000 METAR MRLB NIL=
200707231100 METAR MRLB NIL=
200707231200 METAR MRLB 231200Z 00000KT 6000 1500W BR SCT003 SCT120 23/23 A2988 CB DST SE=
200707231300 METAR MRLB 231300Z 00000KT VCFG FEW004 24/23 2989 RMK VIS 7KM S/SW CB DST NW=
200707231400 METAR MRLB 231400Z 18003KT 9999 SCT010 25/23 A2990 RMK CB DST S/SW TRAZAS AC=
200707231500 METAR MRLB 231500Z 22004KT CAVOK 27/24 A2990 FEW030 BKN250 CB S SW W N=
200707231600 METAR MRLB 231600Z 16003KT 9999 FEW025 BKN250 30/24 A2991 CB S SW=
200707231700 METAR MRLB 231700Z 15003KT 9999 FEW025 31/23 A2989 RMK FEW250=
200707231800 METAR MRLB 231800Z 14005KT 9999 FEW030TCU SCT035 31/24 A2988 RMK FEW250=
200707231900 METAR MRLB 231900Z 22003KT 9999 SCT030TCU BKN250 31/24 A2986 RMK CB DST SE S=
200707232000 METAR MRLB 232000Z 28009KT 9999 BKN020 SCT140 29/25 A2983 RMK RN DST N/S=
200707232100 METAR MRLB 232100Z 29009KT 9999 BKN020 SCT140 30/24 A2981 RMK RN DST N NE E CB DST S=
200707232200 METAR MRLB 232200Z 19005KT 9999 2000S -RA SCT010 BKN100 26/24 A2981 RMK TS DST S=
200707232300 METAR MRLB 232300Z 14003KT 9999 SCT020 BKN120 25/25 A2981=
200707240000 METAR MRLB 240000Z 08003KT 9999 -RA SCT025 BKN120 25/25 A2982=
200707240100 METAR MRLB 240100Z 00000KT 9999 SCT025 BKN120 26/25 A2982=
200707240200 METAR MRLB 240200Z 13003KT 9999 FEW025 BKN120 25/25 A2987=
200707240300 METAR MRLB NIL=
200707240400 METAR MRLB NIL=
200707240500 METAR MRLB NIL=
200707240600 METAR MRLB NIL=
200707240700 METAR MRLB NIL=
200707240800 METAR MRLB NIL=
200707240900 METAR MRLB NIL=
200707241000 METAR MRLB NIL=
200707241100 METAR MRLB NIL=
200707241200 METAR MRLB 241200Z 00000KT 9999 2000S BR FEW004 BKN250 23/22 A2983 RMK CB FG NW=
200707241300 METAR MRLB 241300Z 00000KT 9999 4000SE BR BKN250 25/23 A2984 RMK CB DST NNE TRACE ST SC=
200707241400 METAR MRLB 241400Z 17008KT 9999 FEW0004 BKN250 25/23 A2987 RMK CB DST N=
200707241500 METAR MRLB 241500Z 17003KT CAVOK 28/23 A2987 RMK BKN250 TRACE CU=
200707241600 METAR MRLB 241600Z 15005KT CAVOK 30/23 A2988 RMK TRACE CU BKN250=
200707241700 METAR MRLB 241700Z 13005KT 9999 FEW035 BKN250 31/23 A2986=
200707241800 METAR MRLB 241800Z 13004KT 9999 SCT035 SCT250 32/24 A2984=
200707241900 METAR MRLB 241900Z 21006KT 9999 BKN035 31/24 A2982 RMK FEW250 CB DST S=
200707242000 METAR MRLB 242000Z 26009KT 9999 SCT030 SCT250 30/24 A2980 CB RN DST N S=
200707242100 METAR MRLB 242100Z 30010KT 9999 SCT020TCU SCT120 31/25 A2977 RMK RASH N NE E=
200707242200 METAR MRLB 242200Z 32004KT 1000 TSRA FEW010CB SCT020 SCT100 24/24 A2979=
200707242300 METAR MRLB 242300Z 12003KT 9999 SCT020 BKN120 25/24 A2978 RMK TSTM DST S=
200707250000 METAR MRLB 250000Z 08002KT 9999 SCT020 BKN120 25/25 A2989 RMK RN DST N NE E=
200707250100 METAR MRLB 250100Z 35002KT 9999 SCT025 BKN120 25/25 A2983 RMK LTNG DST E=
200707250200 METAR MRLB 250200Z 09005KT 9999 -TSRA FEW010CB SCT020 23/23 A2987 RMK TS DST W=
200707250300 METAR MRLB NIL=
200707250400 METAR MRLB NIL=
200707250500 METAR MRLB NIL=
200707250600 METAR MRLB NIL=
200707250700 METAR MRLB NIL=
200707250800 METAR MRLB NIL=
200707250900 METAR MRLB NIL=
200707251000 METAR MRLB NIL=
200707251100 METAR MRLB NIL=
200707251200 METAR MRLB 251200Z 00000KT 9999 FEW010 SCT250 23/22 A2984=
200707251300 METAR MRLB 251300Z 00000KT 9999 FEW010 SCT250 26/23 A2986=
200707251400 METAR MRLB 251400Z 00000KT 9999 FEW015 SCT250 28/23 A2987=
200707251500 METAR MRLB 251500Z 00000KT 9999 FEW015 SCT250 29/24 A2989=
200707251600 METAR MRLB 251600Z 00000KT 9999 FEW015 SCT100 BKN250 31/25 A2989=
200707251700 METAR MRLB 251700Z 24004KT 9999 SCT020 BKN250 31/25 A2988=
200707251800 METAR MRLB 251800Z 11006KT 9999 SCT020 BKN200 31/24 A2986=
200707251900 METAR MRLB 251900Z 08006KT 9999 SCT020TCU BKN200 31/24 A2984=
200707252000 METAR MRLB 252000Z 10006KT 9999 FEW020TCU BKN220 31/23 A2982=
200707252030 METAR MRLB 252030Z 12006KT 9999 SCT020 BKN200 31/23 A2982=
200707252100 METAR MRLB 252100Z 10006KT 9999 FEW020 SCT100 BKN250 30/23 A2982 CB SE=
200707252200 METAR MRLB 252200Z 11006KT 9999 FEW020 SCT1490 BKN250 29/24 A2983=
200707252300 METAR MRLB 252300Z 06007KT 9999 FEW025 BKN250 28/24 A2982=
200707260000 METAR MRLB 260000Z 25005KT 9999 SCT015 BKN200 27/25 A2984=
200707260100 METAR MRLB 260100Z 11005KT 9999 FEW025 SCT120 25/24 A2985=
200707260200 METAR MRLB 260200Z 10004KT 9999 FEW020 SCT100 25/24 A2987=
200707260300 METAR MRLB NIL=
200707260400 METAR MRLB NIL=
200707260500 METAR MRLB NIL=
200707260600 METAR MRLB NIL=
200707260700 METAR MRLB NIL=
200707260800 METAR MRLB NIL=
200707260900 METAR MRLB NIL=
200707261000 METAR MRLB NIL=
200707261100 METAR MRLB NIL=
200707261200 METAR MRLB 261200Z 06003KT 0600 FG VV/// 22/22 A2987=
200707261300 METAR MRLB 261300Z 36002KT 9999 SCT020 BKN250 24/23 A2988 LW ST W=
200707261400 METAR MRLB 261400Z 28002KT 9999 SCT030 BKN250 26/23 A2990=
200707261500 METAR MRLB 261500Z 34002KT 9999 FEW035 BKN250 29/23 A2991=
200707261600 METAR MRLB 261600Z 27002KT 9999 FEW035 SCT250 30/23 A2992=
200707261700 METAR MRLB 261700Z 20002KT 9999 FEW035 BKN250 31/23 A2989=
200707261800 METAR MRLB 261800Z 00000KT 9999 SCT035 BKN250 32/23 A2986=
200707261900 METAR MRLB 261900Z 28008KT 9999 SCT035 OVC250 30/24 A2985=
200707262000 METAR MRLB 262000Z 29007KT 9999 SCT030 BKN140 27/25 A2983 RN E RERA=
200707262100 METAR MRLB 262100Z 29005KT 9999 FEW035 OVC130 28/25 A2981=
200707262200 METAR MRLB 262200Z 28005KT 9999 FEW035 OVC130 28/25 A2980=
200707262300 METAR MRLB 262300Z 27004KT 9999 FEW035 BKN130 27/24 A2981=
200707270000 METAR MRLB 270000Z 26006KT 9999 FEW035 BKN130 27/24 A2983=
200707270100 METAR MRLB 270100Z 12002KT 9999 FEW035 OVC130 26/24 A2985=
200707270200 METAR MRLB 270200Z 16002KT 9999 FEW035 BKN130 25/24 A2998=
200707270300 METAR MRLB NIL=
200707270400 METAR MRLB NIL=
200707270500 METAR MRLB NIL=
200707270600 METAR MRLB NIL=
200707270700 METAR MRLB NIL=
200707270800 METAR MRLB NIL=
200707270900 METAR MRLB NIL=
200707271000 METAR MRLB NIL=
200707271100 METAR MRLB NIL=
200707271200 METAR MRLB 271200Z 00000KT 2000SW BR FEW030 SCT250 24/23 A2984=
200707271300 METAR MRLB 271300Z 11002KT 9999 4000N BR SCT250 26/24 A2986 RMK TCU DST SW FG SW W=
200707271400 METAR MRLB 271400Z 34002KT 9999 FEW025 BKN250 28/25 A2988 RMK FEW120 LOW ST SW W=
200707271500 METAR MRLB 271500Z 18004KT 9999 FEW025 SCT130 30/24 A2988 RMK FEW250=
200707271600 METAR MRLB 271600Z 19004KT 9999 FEW025 SCT120 BKN250 29/25 A2988=
200707271700 METAR MRLB 271700Z 18003KT 9999 SCT030 BKN250 32/24 A2988 RMK FEW120=
200707271800 METAR MRLB 271800Z 15005KT 9999 FEW030 BKN250 33/23 A2985=
200707271900 METAR MRLB 271900Z 21004KT 9999 SCT030 BKN250 32/25 A2981=
200707272000 METAR MRLB 272000Z 29008KT 9999 SCT030 SCT250 31/25 A2979=
200707272100 METAR MRLB 272100Z 28007KT 9999 SCT030 SCT250 31/26 A2977 RMK TCU DST N NE=
200707272200 METAR MRLB 272200Z 28007KT 9999 FEW020TCU SCT030 SCT250 30/25 A2977 RMK RN DST E S TS RN DST SW=
200707272300 METAR MRLB 272300Z 24007KT 9999 4000E -TSRA FEW010CB SCT020 SCT100 27/24 A2979=
200707280000 METAR MRLB 280000Z 02003KT 9999 3000E TSRA FEW010CB SCT020 SCT100 25/24 A2981=
200707280100 METAR MRLB 280100Z 29003KT 9999 -RA SCT025 BKN100 23/23 A2984 RMK TS DST W=
200707280200 METAR MRLB 280200Z 16003KT 9999 -RA FEW030 BKN100 24/23 A2984 RMK LTNG W=
200707280300 METAR MRLB NIL=
200707280400 METAR MRLB NIL=
200707280500 METAR MRLB NIL=
200707280600 METAR MRLB NIL=
200707280700 METAR MRLB NIL=
200707280800 METAR MRLB NIL=
200707280900 METAR MRLB NIL=
200707281000 METAR MRLB NIL=
200707281100 METAR MRLB NIL=
200707281200 METAR MRLB 281200Z 06002KT 9999 3000SW BR BKN140 23/23 A2979 TRAZAS SCT FEW250=
200707281300 METAR MRLB 281300Z 00000KT CAVOK 26/24 A2981 RMK FOG BANK S SW FEW140 BKN250=
200707281400 METAR MRLB 281400Z 00000KT 9999 FEW010 BKN250 27/24 A2983=
200707281500 METAR MRLB 281500Z 23002KT 9999 FEW030 BKN250 29/24 A2983=
200707281600 METAR MRLB 281600Z 34004KT 9999 FEW030 BKN250 30/24 A2983=
200707281700 METAR MRLB 281700Z 01002KT 9999 FEW035 BKN250 32/24 A2981=
200707281800 METAR MRLB 281800Z 11006KT 9999 BKN035 32/23 A2979 RMK TRACE CI=
200707281900 METAR MRLB 281900Z 09008KT 9999 FEW035TCU SCT250 33/24 A2977=
200707282000 METAR MRLB 282000Z 08006KT 9999 SCT035 BKN250 33/23 A2974=
200707282100 METAR MRLB 282100Z 08008KT 9999 FEW035 BKN250 33/23 A2973=
200707282200 METAR MRLB 282200Z 09008KT FEW030 BKN090 33/22 A2972 CB DST E S RN NW=
200707282300 METAR MRLB 282300Z 08008KT 9999 FEW030 SCT140 BKN250 32/23 A2973=
200707290000 METAR MRLB 290000Z 08007KT 9999 SCT035 SCT140 30/23 A2976 RMK RN DST SW=
200707290100 METAR MRLB 290100Z 10004KT 9999 FEW035 SCT140 28/24 A2977=
200707290200 METAR MRLB 290200Z 16003KT 9999 FEW035 SCT140 27/25 A2979=
200707290300 METAR MRLB NIL=
200707290400 METAR MRLB NIL=
200707290500 METAR MRLB NIL=
200707290600 METAR MRLB NIL=
200707290700 METAR MRLB NIL=
200707290800 METAR MRLB NIL=
200707290900 METAR MRLB NIL=
200707291000 METAR MRLB NIL=
200707291100 METAR MRLB NIL=
200707291200 METAR MRLB 291200Z 00000KT 1000 BR SCT001 BKN250 24/22 A2978=
200707291300 METAR MRLB 291300Z 00000KT 9999 FEW010 BKN250 24/23 A2980=
200707291400 METAR MRLB 291400Z 17005KT 9999 FEW030 BKN250 25/24 A2982=
200707291500 METAR MRLB 291500Z 00000KT 9999 FEW025 BKN250 27/25 A2982=
200707291600 METAR MRLB 291600Z 12005KT 9999 FEW025 BKN250 29/24 A2981=
200707291700 METAR MRLB 291700Z 09008KT 9999 FEW025 BKN250 31/24 A2981=
200707291800 METAR MRLB 291800Z 10007KT 9999 SCT020 BKN250 32/22 A2980=
200707291900 METAR MRLB 291900Z 08010KT 9999 SCT020 BKN250 32/23 A2979=
200707292000 METAR MRLB 292000Z 07006KT 9999 FEW030 SCT250 33/23 A2976=
200707292100 METAR MRLB 292100Z 07010KT 9999 FEW025 SCT250 32/22 A2974=
200707292200 METAR MRLB 292200Z 08008KT 9999 FEW025 SCT250 30/22 A2972=
200707292300 METAR MRLB 292300Z 08009KT 9999 FEW035 BKN250 30/23 A2974=
200707300000 METAR MRLB 300000Z 10006KT CAVOK 29/23 A2976 RMK FEW120 BKN250=
200707300100 METAR MRLB 300100Z 10004KT CAVOK 27/23 A2977 RMK SCT250=
200707300200 METAR MRLB 300200Z 13003KT CAVOK 27/24 A2978 RMK FEW200=
200707300300 METAR MRLB NIL=
200707300400 METAR MRLB NIL=
200707300500 METAR MRLB NIL=
200707300600 METAR MRLB NIL=
200707300700 METAR MRLB NIL=
200707300800 METAR MRLB NIL=
200707300900 METAR MRLB NIL=
200707301000 METAR MRLB NIL=
200707301100 METAR MRLB NIL=
200707301200 METAR MRLB 301200Z 10003KT CAVOK 23/22 A2979 RMK BKN250=
200707301300 METAR MRLB 301300Z 06002KT CAVOK 25/23 A2982 RMK BKN250=
200707301400 METAR MRLB 301400Z 00000KT 9999 FEW025 BKN250 28/24 A2983=
200707301500 METAR MRLB 301500Z 17004KT 9999 FEW035 BKN250 29/24 A2984=
200707301600 METAR MRLB 301600Z 13002KT 9999 FEW035 OVC250 30/25 A2984=
200707301700 METAR MRLB 301700Z 17004KT 9999 SCT035 BKN250 31/24 A2983=
200707301800 METAR MRLB 301800Z 10005KT 9999 SCT035 OVC250 33/23 A2981=
200707301900 METAR MRLB 301900Z 08004KT 9999 FEW020TCU SCT030 OVC250 29/25 A2978 RMK RN N=
200707302000 METAR MRLB 302000Z 28008KT 9999 SCT030 BKN140 30/25 A2977=
200707302100 METAR MRLB 302100Z 30008KT 9999 SCT030 BKN130 30/25 A2977=
200707302200 METAR MRLB 302200Z 25006KT 9999 SCT035 BKN130 29/25 A2976 RN N SW=
200707302300 METAR MRLB 302300Z 22004KT 9999 SCT035 OVC140 28/25 A2976 RN S=
200707310000 METAR MRLB 310000Z 24002KT 9999 SCT030 BKN130 27/25 A2979=
200707310100 METAR MRLB 310100Z 19003KT 9999 FEW035 BKN130 26/25 A2980=
200707310200 METAR MRLB 310200Z 15002KT 9999 SCT035 BKN130 25/24 A2983=
200707310300 METAR MRLB NIL=
200707310400 METAR MRLB NIL=
200707310500 METAR MRLB NIL=
200707310600 METAR MRLB NIL=
200707310700 METAR MRLB NIL=
200707310800 METAR MRLB NIL=
200707310900 METAR MRLB NIL=
200707311000 METAR MRLB NIL=
200707311100 METAR MRLB NIL=
200707311200 METAR MRLB 311200Z 01002KT 9999 4000NE BR FEW035 BKN250 24/23 A2977 RMK CB DST S=
200707311300 METAR MRLB 311300Z 04002KT CAVOK 25/24 A2978 BKN150 TRAZAS CU=
200707311400 METAR MRLB 311400Z 00000KT 9999 BKN040 SCT250 27/24 A2981 HZY=
200707311500 METAR MRLB 311500Z 36003KT 9999 SCT040 SCT120 28/24 A2982 HZ FEW250=
200707311600 METAR MRLB 311600Z 05006KT 9999 FEW040 SCT120 32/24 A2981 SCT250=
200707311700 METAR MRLB 311700Z 02006KT 9999 SCT040 BKN250 32/24 A2979 FEW120=
200707311800 METAR MRLB 311800Z 05009KT 9999 SCT035 BKN250 32/23 A2979=
200707311900 METAR MRLB 311900Z 07006KT 9999 SCT035 BKN250 32/24 A2976=
200707312000 METAR MRLB 312000Z 08005KT 9999 SCT035 BKN250 33/24 A2974 TCU RN NE SE=
200707312100 METAR MRLB 312100Z 07009KT 9999 FEW015TCU BKN035 32/24 A2974 RMK RASH DST E S TS DST S=
200707312200 METAR MRLB 312200Z 10006KT 9999 -RA FEW020 BKN100 25/24 A2974 RMK TS DST S SW W=
200707312300 METAR MRLB 312300Z 27003KT 9999 -RA FEW020 OVC100 25/24 A2978=
200708010000 METAR MRLB 010000Z 00000KT 9999 -RA FEW020 OVC100 25/24 A2978=
200708010100 METAR MRLB 010100Z 07002KT 9999 FEW025 OVC120 25/24 A2981=
200708010200 METAR MRLB 010200Z 00000KT 9999 FEW025 OVC120 25/24 A2981=
200708010300 METAR MRLB NIL=
200708010400 METAR MRLB NIL=
200708010500 METAR MRLB NIL=
200708010600 METAR MRLB NIL=
200708010700 METAR MRLB NIL=
200708010800 METAR MRLB NIL=
200708010900 METAR MRLB NIL=
200708011000 METAR MRLB NIL=
200708011100 METAR MRLB NIL=
200708011200 METAR MRLB 011200Z 06003KT 9999 VCFG SCT140 BKN250 23/23 A2978 RMK VIS W NW 6000MTS=
200708011300 METAR MRLB 011300Z VRB03KT 9999 2500SW FEW005 SCT120 25/24 A2980=
200708011400 METAR MRLB 011400Z 34002KT 9999 FEW010 SCT120 27/24 A2981 RMK FEW250=
200708011500 METAR MRLB 011500Z 00000KT 9999 FEW035 30/24 A2981 RMK FEW250=
200708011600 METAR MRLB 011600Z 26003KT 9999 BKN025 29/24 A2981 RMK FEW250=
200708011700 METAR MRLB 011700Z 18003KT 9999 FEW025TCU SCT030 31/25 A2979=
200708011800 METAR MRLB 011800Z 29005KT 9999 BKN030 31/25 A2978=
200708011900 METAR MRLB 011900Z 27009KT 9999 FEW025TCU SCT030 30/25 A2976 RMK FEW250=
200708012000 METAR MRLB 012000Z 26006KT 9999 SCT030 32/25 A2970 RMK TRACE CI TCU DST N RN SW=
200708012100 METAR MRLB 012100Z 28010KT 9999 BKN020 32/25 A2971 RMK RN DST S FEW250=
200708012200 METAR MRLB 012200Z 28008KT 9999 FEW010TCU FEW020 SCT250 30/26 A2971 RMK SHRA DST E S=
200708012300 METAR MRLB 012300Z 27005KT 9999 FEW010TCU FEW020 SCT120 31/25 A2973 RMK TS SHRA DST SE S RN DST SW=
200708020000 METAR MRLB 020000Z 20002KT 9999 SCT015 BKN120 24/23 A2977 RMK TS SHRA DST E W=
200708020100 METAR MRLB 020100Z 00000KT 9999 FEW020 BKN120 25/24 A2977=
200708020200 METAR MRLB NIL=
200708020300 METAR MRLB NIL=
200708020400 METAR MRLB NIL=
200708020500 METAR MRLB NIL=
200708020600 METAR MRLB NIL=
200708020700 METAR MRLB NIL=
200708020800 METAR MRLB NIL=
200708020900 METAR MRLB NIL=
200708021000 METAR MRLB NIL=
200708021100 METAR MRLB NIL=
200708021200 METAR MRLB 021200Z 00000KT 9999 FEW010 SCT100 23/22 A2978=
200708021300 METAR MRLB 021300Z 00000KT 9999 FEW010 SCT100 BKN250 26/24 A2980=
200708021400 METAR MRLB 021400Z 34005KT 9999 FEW012 SCT100 BKN250 27/25 A2983=
200708021500 METAR MRLB 021500Z 00000KT 9999 FEW015 BKN250 29/24 A2983=
200708021600 METAR MRLB 021600Z 03009KT 9999 SCT020 BKN250 31/24 A2983=
200708021700 METAR MRLB 021700Z 10007KT 9999 SCT020 BKN250 32/22 A2982=
200708021800 METAR MRLB 021800Z 09009KT 9999 SCT025 BKN250 32/22 A2980=
200708021900 METAR MRLB 021900Z 08010KT 9999 SCT020 BKN240 32/22 A2977=
200708022000 METAR MRLB 022000Z 08010KT 9999 FEW035 SCT250 32/22 A2976=
200708022100 METAR MRLB 022100Z 10010KT 9999 FEW035 SCT250 32/21 A2974=
200708022200 METAR MRLB 022200Z 08006KT CAVOK 31/22 A2974 RMK FEW100 SCT250=
200708022300 METAR MRLB 022300Z 10008KT CAVOK 30/22 A2975 RMK FEW100 BKN250=
200708030000 METAR MRLB 030000Z 10005KT CAVOK 28/22 A2977 RMK FEW100 BKN250 TUC DST S=
200708030100 METAR MRLB 030100Z 12006KT 9999 FEW030 SCT120 26/22 A2980 LTNG DST SW=
200708030200 METAR MRLB NIL=
200708030300 METAR MRLB NIL=
200708030400 METAR MRLB NIL=
200708030500 METAR MRLB NIL=
200708030600 METAR MRLB NIL=
200708030700 METAR MRLB NIL=
200708030800 METAR MRLB NIL=
200708030900 METAR MRLB NIL=
200708031000 METAR MRLB NIL=
200708031100 METAR MRLB NIL=
200708031200 METAR MRLB 031200Z 00000KT 9999 FEW035 BKN130 24/22 A2981=
200708031300 METAR MRLB 031300Z 12002KT 9999 FEW035 BKN130 25/23 A2984=
200708031400 METAR MRLB 031400Z 16002KT 9999 FEW035 OVC130 27/23 A2985=
200708031500 METAR MRLB 031500Z 31003KT 9999 FEW040 BKN140 29/24 A2985=
200708031600 METAR MRLB 031600Z 19002KT 9999 FEW040 SCT130 BKN250 31/24 A2985=
200708031700 METAR MRLB 031700Z 32002KT 9999 FEW035 OVC250 31/23 A2985=
200708031800 METAR MRLB 031800Z 07004KT 9999 SCT035 BKN250 33/23 A2983=
200708031900 METAR MRLB 031900Z 08008KT 9999 SCT035 BKN250 33/22 A2981=
200708032000 METAR MRLB 032000Z 08009KT 9999 SCT035 OVC250 33/22 A2979=
200708032100 METAR MRLB 032100Z 10005KT 9999 SCT035 BKN250 33/23 A2978 RMK RN N=
200708032200 METAR MRLB 032200Z 06011KT 9999 SCT030 BKN140 31/22 A2979 RMK RN SW=
200708032300 METAR MRLB 032300Z 10009KT 9999 FEW035 BKN130 29/22 A2979=
200708040000 METAR MRLB 040000Z 10008KT 9999 FEW035 BKN130 28/22 A2981=
200708040100 METAR MRLB 040100Z 13008KT 9999 FEW035 BKN130 27/22 A2985=
200708040200 METAR MRLB 040200Z 14005KT 9999 SCT035 BN120 26/23 A2987=
200708040300 METAR MRLB NIL=
200708040400 METAR MRLB NIL=
200708040500 METAR MRLB NIL=
200708040600 METAR MRLB NIL=
200708040700 METAR MRLB NIL=
200708040800 METAR MRLB NIL=
200708040900 METAR MRLB NIL=
200708041000 METAR MRLB NIL=
200708041100 METAR MRLB NIL=
200708041200 METAR MRLB 041200Z 00000KT 9999 FEW030 BKN120 24/23 A2982 RMK LEVE HZY=
200708041300 METAR MRLB 041300Z 19002KT CAVOK 26/24 A2984 RMK HZ LEVE ARND BKN130=
200708041400 METAR MRLB 041400Z 00000KT CAVOK 27/24 A2986 RMK HZ ARND BKN130=
200708041500 METAR MRLB 041500Z 12002KT 9999 FEW025 BKN130 29/24 A2986=
200708041600 METAR MRLB 041600Z 35002KT 9999 FEW030 31/23 A2986 RMK FEW130 FEW250 HZ ARND=
200708041700 METAR MRLB 041700Z 11005KT 9999 SCT030 BKN250 32/23 A2986 RMK FEW130=
200708041800 METAR MRLB 041800Z 12004KT 9999 SCT030 BKN250 32/24 A2983=
200708041900 METAR MRLB 041900Z 14004KT 9999 SCT030 BKN140 33/25 A2982 RMK HZ ARND=
200708042000 METAR MRLB 042000Z 15005KT 9999 SCT030 BKN130 32/24 A2979 RMK HZ ARND=
200708042100 METAR MRLB 042100Z 19005KT 9999 FEW030 BKN130 33/24 A2977 HZY=
200708042300 METAR MRLB NIL=
200708050000 METAR MRLB 050000Z 35005KT 9999 FEW010 BKN020 25/24 A2985 TS RASH DST SW TS NW=
200708050100 METAR MRLB 050100Z 18002KT 9999 -RA BKN020 25/24 A2985 LTNG DST W=
200708050200 METAR MRLB 050200Z 00000KT 9999 -RA BKN025 25/24 A2988 LTNG DST W=
200708050300 METAR MRLB NIL=
200708050400 METAR MRLB NIL=
200708050500 METAR MRLB NIL=
200708050600 METAR MRLB NIL=
200708050700 METAR MRLB NIL=
200708050800 METAR MRLB NIL=
200708050900 METAR MRLB NIL=
200708051000 METAR MRLB NIL=
200708051100 METAR MRLB NIL=
200708051200 METAR MRLB 051200Z VRB02KT 0500 FG FEW130 BKN250 23/23 A2985 RMK VIS E S SE UNLT CB DST SE=
200708051300 METAR MRLB 051300Z 00000KT 1300 FG SCT005 BKN250 24/23 A2988 RMK 9999 NW/NE/E CB DST NW=
200708051400 METAR MRLB 051400Z 23002KT 9999 FEW006 BKN130 25/24 A2987 CB NW=
200708051500 METAR MRLB 051500Z 22004KT 9999 FEW012 BKN120 26/25 A2990=
200708051600 METAR MRLB 051600Z 18004KT 9999 SCT025 SCT120 26/25 A2992 FEW250=
200708051700 METAR MRLB 051700Z 00000KT 9999 SCT030 SCT120 31/24 A2989 FEW250=
200708051800 METAR MRLB NIL=
200708051900 METAR MRLB 051900Z 28006KT 9999 SCT030 BKN250 31/24 A2984 TCU S=
200708052000 METAR MRLB 052000Z 29007KT 9999 SCT025 SCT140 29/25 A2983 RASH E=
200708052100 METAR MRLB 052100Z 31008KT 9999 FEW020 BKN120 28/24 A2981 RMK RN DST E S=
200708052200 METAR MRLB 052200Z 26006KT 9999 -RA SCT020 BKN120 27/25 A2982=
200708052300 METAR MRLB 052300Z 15011KT 0800 TS SHRA FEW005CB SCT010 SCT020 23/22 A2988=
200708060000 METAR MRLB 060000Z 10006KT 8000 -RA SCT020 BKN100 23/23 A2991 RMK LTNG DST W NW=
200708060100 METAR MRLB 060100Z 05006KT 9999 -RA SCT020 BKN100 23/23 A2990=
200708060200 METAR MRLB NIL=
200708060300 METAR MRLB NIL=
200708060400 METAR MRLB NIL=
200708060500 METAR MRLB NIL=
200708060600 METAR MRLB NIL=
200708060700 METAR MRLB NIL=
200708060800 METAR MRLB NIL=
200708060819 METAR MRLB 060819Z 27008KT 9999 SCT020TCU BKN250 31/26 A2984 MRLM 060819Z 04005KT 9999 FEW030 BKN110 30/23 A2986 RN DST NE E HZ ARND=
200708060900 METAR MRLB NIL=
200708061000 METAR MRLB NIL=
200708061100 METAR MRLB NIL=
200708061200 METAR MRLB 061200Z 00000KT 0500 FG SCT001 22/22 A2987=
200708061300 METAR MRLB 061300Z 00000KT 9999 FEW010 SCT250 24/23 A2988=
200708061400 METAR MRLB 061400Z 00000KT 9999 FEW012 SCT250 27/24 A2991=
200708061500 METAR MRLB NIL=
200708061600 METAR MRLB 061600Z 00000KT 9999 SCT020 BKN250 30/24 A2989=
200708061700 METAR MRLB 061700Z 00000KT 9999 SCT020 BKN250 31/24 A2989=
200708061800 METAR MRLB 061800Z 29006KT 9999 DZ FEW015TCU SCT030 BKN250 A2925 A2987=
200708061900 METAR MRLB NIL=
200708062000 METAR MRLB 062000Z 29007KT 9999 FEW015TCU SCT040 BKN250 31/25 A2982=
200708062100 METAR MRLB 062100Z 30007KT 9999 2000NE RA SCT010CB BKN100 28/25 A2981=
200708062200 METAR MRLB 062200Z 25005KT 9999 FEW015TCU SCT100 BKN250 27/25 A2980 RMK RN DST S SW=
200708062300 METAR MRLB 062300Z 16005KT 9999 SCT025 BKN250 26/24 A2984=
200708070000 METAR MRLB 070000Z 00000KT 9999 FEW020 SCT040 BKN250 26/25 A2986=
200708070100 METAR MRLB 070100Z 00000KT 9999 -RA FEW025TCU SCT100 25/24 A2987 RMK=
200708070200 METAR MRLB 070200Z 00000KT 9999 FEW020 SCT100 25/24 A2989 RMK LTNG DST SW W=
200708070300 METAR MRLB NIL=
200708070400 METAR MRLB NIL=
200708070500 METAR MRLB NIL=
200708070600 METAR MRLB NIL=
200708070700 METAR MRLB NIL=
200708070800 METAR MRLB NIL=
200708070900 METAR MRLB NIL=
200708071000 METAR MRLB NIL=
200708071100 METAR MRLB NIL=
200708071200 METAR MRLB 071200Z 00000KT 0200 FG VV/// 23/23 A2987=
200708071300 METAR MRLB 071300Z 03004KT 9999 FEW035 SCT250 24/23 A2987=
200708071400 METAR MRLB 071400Z 04004KT CAVOK 27/24 A2987 RMK BKN250 TRACE CU=
200708071500 METAR MRLB 071500Z 20002KT 9999 FEW035 BKN250 28/24 A2989=
200708071600 METAR MRLB 071600Z 22004KT 9999 SCT035 BKN250 30/24 A2989=
200708071700 METAR MRLB 071700Z 10006KT 9999 SCT035 BKN250 31/22 A2986=
200708071800 METAR MRLB 071800Z 11004KT 9999 FEW035 BKN250 32/24 A2984=
200708071900 METAR MRLB 071900Z 10004KT 9999 FEW035 SCT250 33/23 A2982=
200708072000 METAR MRLB 072000Z 12004KT 9999 SCT035 BKN250 33/22 A2980=
200708072100 METAR MRLB 072100Z 10003KT 9999 SCT035 BKN250 34/23 A2978 RMK RN DST NE=
200708072200 METAR MRLB 072200Z 19002KT 9999 SCT030TCU BKN240 30/24 A2979 RMK RN DST S=
200708072300 METAR MRLB NIL=
200708080000 METAR MRLB 080000Z 26003KT 9999 SCT035 BKN030 28/25 A2983 RN DST SE=
200708080100 METAR MRLB 080100Z 00000KT 9999 SCT035 OVC130 27/25 A2985=
200708080200 METAR MRLB 080200Z 00000KT 9999 SCT035 BKN130 26/25 A2986=
200708080300 METAR MRLB NIL=
200708080400 METAR MRLB NIL=
200708080500 METAR MRLB NIL=
200708080600 METAR MRLB NIL=
200708080700 METAR MRLB NIL=
200708080800 METAR MRLB NIL=
200708080900 METAR MRLB NIL=
200708081000 METAR MRLB NIL=
200708081100 METAR MRLB NIL=
200708081200 METAR MRLB 081200Z 05003KT 9999 4000N BR SCT120 23/22 A2981 FEW250=
200708081300 METAR MRLB 081300Z 00000KT 9999 4000NW BR BKN120 24/23 A2983 RMK TRACE CU=
200708081400 METAR MRLB 081400Z 00000KT CAVOK 26/23 A2984 BKN120 LOW ST NW=
200708081500 METAR MRLB 081500Z 11002KT CAVOK 28/23 A2984 RMK BKN120 TRACE CU=
200708081600 METAR MRLB 081600Z 04002KT 9999 FEW030 31/22 A2984=
200708081700 METAR MRLB 081700Z 10002KT 9999 SCT030 32/23 A2982=
200708081800 METAR MRLB 081800Z 11005KT 9999 SCT030 SCT250 32/23 A2981=
200708081900 METAR MRLB 081900Z 15004KT 9999 SCT035 BKN250 32/24 A2979=
200708082000 METAR MRLB 082000Z 13004KT 9999 SCT035 BKN250 32/24 A2978 RMK CB DST S=
200708082100 METAR MRLB 082100Z 27008KT 9999 SCT035 BKN250 31/25 A2976=
200708082200 METAR MRLB 082200Z 27008KT 9999 FEW020TCU FEW030 SCT250 31/25 A2976 RMK RN N NE S FEW120=
200708082300 METAR MRLB 082300Z 35009KT 9999 3000 S -RA SCT020 BKN100 25/24 A2979 RMK TS S=
200708090000 METAR MRLB 090000Z 21004KT 9999 -RA SCT020 BKN100 24/23 A2981 RMK TS DST SW=
200708090100 METAR MRLB NIL=
200708090200 METAR MRLB 090200Z 00000KT -RA FEW025 BKN120 24/24 A2983 RMK LTNG DST W=
200708090300 METAR MRLB NIL=
200708090400 METAR MRLB NIL=
200708090500 METAR MRLB NIL=
200708090600 METAR MRLB NIL=
200708090700 METAR MRLB NIL=
200708090800 METAR MRLB NIL=
200708090900 METAR MRLB NIL=
200708091000 METAR MRLB NIL=
200708091100 METAR MRLB NIL=
200708091200 METAR MRLB 091200Z 20004KT 9999 4000NW BR FEW005 BKN250 23/23 A2982 RMK CB DST SW W FOG BANK W N=
200708091300 METAR MRLB 091300Z 18003KT 9999 3000 NE BR SCT005 BKN250 26/24 A2985 RMK CB SW W=
200708091400 METAR MRLB 091400Z 06003KT 9999 FEW010 BKN250 27/24 A2986 RMK FEW130 TCU N NE=
200708091500 METAR MRLB 091500Z 00000KT 9999 SCT025 SCT250 29/24 A2987 RMK CB N NE=
200708091600 METAR MRLB 091600Z 25003KT 9999 SCT025 SCT250 31/25 A2987 RMK FEW130=
200708091700 METAR MRLB 091700Z 27005KT 9999 SCT025 SCT250 31/25 A2984 TRACE AC=
200708091800 METAR MRLB 091800Z 26006KT 9999 FEW025TCU SCT030 31/25 A2982 RMK TRACE CI AC=
200708091900 METAR MRLB 091900Z 28006KT 9999 SCT030 BKN120 31/25 A2978 RMK TCU SE S=
200708092000 METAR MRLB 092000Z 28006KT 9999 FEW020TCU BKN120 30/25 A2975 RMK TS RASH DST NE E=
200708092100 METAR MRLB 092100Z 07004KT 9999 -RA SCT020 BKN100 25/24 A2977 VSBY S SW W 6KM TS SW W=
200708092200 METAR MRLB 092200Z 31003KT 9999 FEW030 BKN120 26/25 A2974 CB N NE SE S SW=
200708092300 METAR MRLB 092300Z 29004KT 9999 SCT020 BKN120 27/26 A2976 CB SW=
200708100000 METAR MRLB 100000Z 27002KT 9999 FEW020 BKN120 27/26 A2978 RN DST N=
200708100100 METAR MRLB 100100Z 21002KT 9999 -RA SCT020 BKN120 26/25 A2981 LTNG DST SE S=
200708100200 METAR MRLB 100200Z 10004KT 9999 SCT020 BKN120 26/25 A2983=
200708100300 METAR MRLB NIL=
200708100400 METAR MRLB NIL=
200708100500 METAR MRLB NIL=
200708100600 METAR MRLB NIL=
200708100700 METAR MRLB NIL=
200708100800 METAR MRLB NIL=
200708100900 METAR MRLB NIL=
200708101000 METAR MRLB NIL=
200708101100 METAR MRLB NIL=
200708101200 METAR MRLB 101200Z 00000KT 0500 FG SCT001 23/23 A2982=
200708101300 METAR MRLB 101300Z 00000KT 8000 VCFG SCT003 BKN250 24/23 A2983=
200708101400 METAR MRLB 101400Z 00000KT 9999 SCT010 BKN250 28/24 A2984 BR ARND=
200708101500 METAR MRLB 101500Z 00000KT 9999 FE025 SCT250 29/24 A2983=
200708101600 METAR MRLB 101600Z 22005KT 9999 FEW025 SCT250 30/25 A2982=
200708101700 METAR MRLB 101700Z 25010KT 9999 SCT015 BKN250 29/24 A2981=
200708101800 METAR MRLB 101800Z 26007KT 9999 SCT015TCU BKN220 31/25 A2979=
200708101900 METAR MRLB 101900Z 24006KT 9999 SCT015 BKN220 30/25 A2976=
200708102000 METAR MRLB 102000Z 25006KT 9999 DZ SCT015TCU BKN150 29/26 A2973 CB S=
200708102100 METAR MRLB 102100Z 27007KT 9000 DZ FEW010TCU SCT030 BKN220 27/26 A2972=
200708102200 METAR MRLB 102200Z 22008KT 9999 FEW020TCU SCT040 28/26 A2970 RERA RMK TCU S SW=
200708102300 METAR MRLB 102300Z 18005KT 18005KT 9999 FEW020 SCT040 BKN200 27/25 A2973 RMK RN DST S SE=
200708110000 METAR MRLB NIL=
200708110100 METAR MRLB 110100Z 06007KT 9999 TS -DZ SCT020CB BKN120 25/24 A2977=
200708110200 METAR MRLB 110200Z 00000KT 9999 VCTS SCT020CB BKN100 25/25 A2982 LTNG=
200708110300 METAR MRLB NIL=
200708110400 METAR MRLB NIL=
200708110500 METAR MRLB NIL=
200708110600 METAR MRLB NIL=
200708110700 METAR MRLB NIL=
200708110800 METAR MRLB NIL=
200708110900 METAR MRLB NIL=
200708111000 METAR MRLB NIL=
200708111100 METAR MRLB NIL=
200708111200 METAR MRLB 111200Z 00000KT 9999 FEW030 BKN130 23/22 A2983=
200708111300 METAR MRLB 111300Z 18004KT 9999 SCT025 BKN120 24/23 A2986 RMK LOW ST S SW=
200708111400 METAR MRLB 111400Z 14004KT 9999 SCT025 BKN130 25/24 A2987=
200708111500 METAR MRLB 111500Z 14003KT 9999 SCT035 BKN250 28/24 A2987=
200708111600 METAR MRLB 111600Z 19002KT 9999 SCT035 OVC250 28/24 A2988=
200708111700 METAR MRLB 111700Z 21005KT 9999 SCT035 OVC250 29/24 A2988=
200708111800 METAR MRLB 111800Z 26005KT 9999 SCT035 BKN250 31/24 A2985=
200708111900 METAR MRLB 111900Z 28008KT 9999 SCT035 OVC250 30/25 A2982=
200708112000 METAR MRLB 112000Z 29008KT 9999 FEW020TCU SCT030 BKN130 26/24 A2981 RMK RN DST E=
200708112100 METAR MRLB 112100Z 27007KT 9999 SCT025 BKN120 26/24 A2980 RMK RN DST S SE=
200708112200 METAR MRLB 112200Z 21006KT 9999 DZ FEW015 SCT025 BKN120 25/24 A2980=
200708112300 METAR MRLB 112300Z 13003KT 9999 -RA SCT020 OVC100 24/24 A2983=
200708120000 METAR MRLB 120000Z 10002KT 9999 DZ SCT020 OVC100 24/24 A2985=
200708120100 METAR MRLB 120100Z 11003KT 9999 -RA SCT025 OVC100 24/24 A2986=
200708120200 METAR MRLB 120200Z 06003KT 9999 DZ FEW030 OVC100 24/24 A2988=
200708120300 METAR MRLB NIL=
200708120400 METAR MRLB NIL=
200708120500 METAR MRLB NIL=
200708120600 METAR MRLB NIL=
200708120700 METAR MRLB NIL=
200708120800 METAR MRLB NIL=
200708120900 METAR MRLB NIL=
200708121000 METAR MRLB NIL=
200708121100 METAR MRLB NIL=
200708121200 METAR MRLB 121200Z 14002KT 9999 -DZ BKN020 SCT120 24/23 A2984 LW ST SW W NW=
200708121300 METAR MRLB 121300Z 00000KT 9999 4000SW -RA BR SCT005 BKN010 24/24 A2988=
200708121400 METAR MRLB 121400Z 23003KT 9999 VCSH SCT007 SCT015 25/24 A2991 RMK FEW120 VIS 8000 SW RN DST SE S=
200708121500 METAR MRLB NIL=
200708121600 METAR MRLB 121600Z 30006KT 3000 1000E RA BR SCT006 BKN015 23/23 A2994=
200708121700 METAR MRLB 121700Z 33004KT 9999 -RA FEW030 OVC100 24/24 A2994=
200708121800 METAR MRLB 121800Z 29003KT 9999 -RA SCT030 BKN100 24/24 A2992 RMK DUE ST NE=
200708121900 METAR MRLB 121900Z 00000KT 9999 -RA SCT012 BKN100 25/24 A2988=
200708122000 METAR MRLB 122000Z 00000KT 9999 -RA FEW010 BKN120 25/24 A2986=
200708122100 METAR MRLB 122100Z 28002KT 9999 -RA SCT010 BKN100 25/24 A2984=
200708122200 METAR MRLB 122200Z 22003KT 9999 -RA FEW010 SCT020 BKN100 25/24 A2984=
200708122300 METAR MRLB 122300Z 25002KT 9999 -RA SCT020 BKN100 25/24 A2985=
200708130000 METAR MRLB 130000Z 16002KT 9999 SCT020 BKN100 25/24 A2986=
200708130100 METAR MRLB NIL=
200708130200 METAR MRLB 130200Z 00000KT 9999 SCT020 BKN100 25/24 A2988=
200708130300 METAR MRLB NIL=
200708130400 METAR MRLB NIL=
200708130500 METAR MRLB NIL=
200708130600 METAR MRLB NIL=
200708130700 METAR MRLB NIL=
200708130800 METAR MRLB NIL=
200708130900 METAR MRLB NIL=
200708131000 METAR MRLB NIL=
200708131100 METAR MRLB NIL=
200708131200 METAR MRLB 131200Z 01002KT 9999 SCT035 BKN250 23/22 A2986 RMK FEW130=
200708131300 METAR MRLB 131300Z 36003KT 9999 SCT030 BKN250 24/22 A2987 RMK FEW130=
200708131400 METAR MRLB 131400Z 00000KT 9999 SCT030 SCT130 26/23 A2989 RMK FEW250=
200708131500 METAR MRLB 131500Z 00000KT 9999 SCT025 SCT130 27/23 A2990 RMK FEW250 RN DIST SSW=
200708131600 METAR MRLB 131600Z 22003KT 9999 SCT025 SCT250 29/24 A2989 RMK RN DST SSW=
200708131700 METAR MRLB 131700Z 24005KT 9999 SCT030 BKN250 29/24 A2987 RMK RN DST SW=
200708131800 METAR MRLB 131800Z 25006KT 9999 FEW030 SCT130 30/24 A2985 RMK SCT250 TCU RN DST S CB DST SW W=
200708131900 METAR MRLB 131900Z 26008KT 9999 FEW030 BKN250 31/25 A2983 RMK FEW130 CB DST NE S SW W RN DST S SW=
200708132000 METAR MRLB 132000Z 27009KT 9999 FEW020TCU BKN120 29/25 A2981 RMK TCU RASH DST NE S RN DST SW=
200708132100 METAR MRLB 132100Z 28007KT 9999 FEW020 BKN120 26/24 A2981 RMK RN NE E SE S SW=
200708132200 METAR MRLB 132200Z 27009KT 9999 FEW020 BKN120 26/23 A2980 RMK RN NE E S=
200708132300 METAR MRLB 132300Z 00000KT 9999 -RA FEW020 OVC120 26/24 A2980=
200708140000 METAR MRLB 140000Z 15002KT 9999 FEW020 OVC120 25/24 A2981 RMK RN DST SE=
200708140100 METAR MRLB 140100Z 11003KT 9999 FEW020 OVC120 25/24 A2985=
200708140200 METAR MRLB 140200Z 17003KT 9999 -RA FEW020 BKN120 25/20 A2987=
200708140300 METAR MRLB NIL=
200708140400 METAR MRLB NIL=
200708140500 METAR MRLB NIL=
200708140600 METAR MRLB NIL=
200708140700 METAR MRLB NIL=
200708140800 METAR MRLB NIL=
200708140900 METAR MRLB NIL=
200708141000 METAR MRLB NIL=
200708141100 METAR MRLB NIL=
200708141200 METAR MRLB 141200Z NIL=
200708141300 METAR MRLB 141300Z 00000KT 9999 SCT010 BKN120 25/24 A2985 REDZ=
200708141400 METAR MRLB NIL=
200708141500 METAR MRLB 141500Z 00000KT 9999 SCT012 BKN180 28/25 A2989=
200708141600 METAR MRLB 141600Z 00000KT 9999 FEW010TCU SCT025 BKN220 29/25 A2987 RMK RN SW TCU N=
200708141700 METAR MRLB 141700Z 24006KT 9999 SCT015TCU BKN250 30/24 A2986=
200708141800 METAR MRLB 141800Z 28009KT 9999 SCT015TCU BKN250 30/25 A2983 RMK RN SW=
200708141900 METAR MRLB 141900Z 27007KT 9999 FEW015TCU SCT030 BKN250 29/25 A2981 RMK RN N NE=
200708142000 METAR MRLB 142000Z 26009KT 9999 FEW015CB SCT240 27/24 A2979 RMK CB N TCU NE=
200708142100 METAR MRLB NIL=
200708142200 METAR MRLB 242200Z 30005KT 9999 DZ SCT015TCU BKN200 27/25 A2978 TCU N NE=
200708142300 METAR MRLB 142300Z 27006KT 9999 SCT015CB BKN180 26/24 A2980 RN ARND=
200708150000 METAR MRLB 150000Z 00000KT 9999 DZ SCT015 BKN180 25/24 A2982=
200708150100 METAR MRLB 150100Z 10005KT 9999 SCT015CB BKN120 25/24 A2983 LTNG DST NE E DZ ARND=
200708150200 METAR MRLB NIL=
200708150300 METAR MRLB NIL=
200708150400 METAR MRLB NIL=
200708150500 METAR MRLB NIL=
200708150600 METAR MRLB NIL=
200708150700 METAR MRLB NIL=
200708150800 METAR MRLB NIL=
200708150900 METAR MRLB NIL=
200708151000 METAR MRLB NIL=
200708151100 METAR MRLB NIL=
200708151200 METAR MRLB 151200Z 00000KT 9999 SCT020 BKN130 23/22 A2983 RMK LOW ST N=
200708151300 METAR MRLB 151300Z 00000KT 9999 SCT025 BKN130 24/23 A2985=
200708151400 METAR MRLB 151400Z 00000KT 9999 FEW030 BKN140 28/23 A2986=
200708151500 METAR MRLB 151500Z 16002KT 9999 FEW035 SCT140 29/23 A2987=
200708151600 METAR MRLB 151600Z 25004KT 9999 FEW035 SCT140 BKN250 30/24 A2985=
200708151700 METAR MRLB 151700Z 29004KT 9999 FEW035 BKN250 31/25 A2984=
200708151800 METAR MRLB 151800Z 27007KT 9999 SCT035 BKN250 30/24 A2983=
200708151900 METAR MRLB 151900Z 18009KT 9999 SCT030 BKN250 30/24 A2982 RN N=
200708152000 METAR MRLB 152000Z 28010KT 9999 FEW020TCU SCT030 BKN140 28/25 A2980 TS E NE=
200708152100 METAR MRLB 152100Z 27006KT 9999 SCT025 BKN130 27/25 A2979 RMK RN DST E SE=
200708152200 METAR MRLB 152200Z 29006KT 9999 SCT025 BKN120 26/24 A2980 RMK RN DST S SE=
200708152300 METAR MRLB 152300Z 17002KT 9999 SCT020 OVC100 25/24 A2981 RMK RN DSTS SW=
200708160000 METAR MRLB 160000Z 15003KT 9999 SCT020 BKN100 25/24 A2982 RMK RN DST NE S=
200708160100 METAR MRLB 160100Z 00000KT 9999 SCT025 OVC110 24/23 A2985=
200708160200 METAR MRLB 160200Z 00000KT 9999 SCT025 OVC120 23/23 A2987=
200708160300 METAR MRLB NIL=
200708160400 METAR MRLB NIL=
200708160500 METAR MRLB NIL=
200708160600 METAR MRLB NIL=
200708160700 METAR MRLB NIL=
200708160800 METAR MRLB NIL=
200708160900 METAR MRLB NIL=
200708161000 METAR MRLB NIL=
200708161100 METAR MRLB NIL=
200708161200 METAR MRLB 161200Z 36003KT 0800 FG SCT030 22/22 A2985=
200708161300 METAR MRLB NIL=
200708161400 METAR MRLB NIL=
200708161500 METAR MRLB NIL=
200708161600 METAR MRLB NIL=
200708161700 METAR MRLB 161700Z 002KT 9999 SCT030 BKN250 31/24 A2987=
200708161800 METAR MRLB 161800Z 24003KT 9999 BKN020 SCT250 31/25 A2984=
200708161900 METAR MRLB 161900Z 19006KT 9999 SCT020 BKN250 30/24 A2981=
200708162000 METAR MRLB 162000Z 28008KT 9999 SCT030 BKN250 30/25 A2978=
200708162100 METAR MRLB 162100Z 27009KT 9999 SCT030 BKN250 31/25 A2977 RMK CB DST NNE=
200708162200 METAR MRLB NIL=
200708162300 METAR MRLB 162300Z 26002KT 9999 FEW030 SCT140 BKN250 31/25 A2977 RMK CB DST NNE S=
200708170000 METAR MRLB NIL=
200708170100 METAR MRLB 170100Z 14005KT 9999 FEW030 BKN130 27/23 A2979 RMK SCT250=
200708170200 METAR MRLB 170200Z 15004KT CAVOK 27/23 A2981 RMK BKN130 SCT250=
200708170300 METAR MRLB NIL=
200708170400 METAR MRLB NIL=
200708170500 METAR MRLB NIL=
200708170600 METAR MRLB NIL=
200708170700 METAR MRLB NIL=
200708170800 METAR MRLB NIL=
200708170900 METAR MRLB NIL=
200708171000 METAR MRLB NIL=
200708171100 METAR MRLB NIL=
200708171200 METAR MRLB NIL=
200708171300 METAR MRLB 171300Z 34003KT CAVOK 25/23 A2983 RMK FEW140 OVC250=
200708171400 METAR MRLB 171400Z 00000KT CAVOK 29/24 A2985 RMK FEW140 BKN250 CB DST N=
200708171500 METAR MRLB 171500Z 29002KT CAVOK 30/23 A2984 RMK SCT140 BKN250=
200708171600 METAR MRLB 171600Z 20003KT 9999 FEW030 BKN250 31/24 A2984 RMK FEW140=
200708171700 METAR MRLB 171700Z 12007KT 9999 FEW035 BKN250 32/23 A2981 RMK FEW140=
200708171800 METAR MRLB 171800Z 04005KT 9999 SCT035 BKN250 32/23 A2979=
200708171900 METAR MRLB 171900Z 30005KT 9999 BKN030 SCT250 32/25 A2978=
200708172000 METAR MRLB 172000Z 24004KT 9999 SCT025TCU SCT030 32/25 A2976 RMK SHRA DST S RN DST N NE=
200708172100 METAR MRLB NIL=
200708172200 METAR MRLB 172200Z 32005KT 9999 FEW030 BKN250 28/24 A2975 RMK CB DST E S SW W=
200708172300 METAR MRLB 172300Z 00000KT 9999 FEW030 SCT130 BKN250 29/25 A2976 RMK CB DST S SW=
200708180000 METAR MRLB 180000Z 16004KT 9999 FEW030 BKN130 27/25 A2979 RMK SCT250 CB DST S=
200708180100 METAR MRLB 180100Z 15003KT 9999 FEW030 BKN130 26/25 A2982=
200708180200 METAR MRLB NIL=
200708180300 METAR MRLB NIL=
200708180400 METAR MRLB NIL=
200708180500 METAR MRLB NIL=
200708180600 METAR MRLB NIL=
200708180700 METAR MRLB NIL=
200708180800 METAR MRLB NIL=
200708180900 METAR MRLB NIL=
200708181000 METAR MRLB NIL=
200708181100 METAR MRLB NIL=
200708181200 METAR MRLB 181200Z 00000KT 9999 FEW012 BKN250 24/23 A2984=
200708181300 METAR MRLB 181300Z 00000KT 9999 FEW015 BKN250 26/23 A2985=
200708181400 METAR MRLB NIL=
200708181500 METAR MRLB 181500Z 00000KT 9999 FEW025 SCT250 29/24 A2984=
200708181600 METAR MRLB 181600Z 00000KT 9999 FEW020 SCT250 31/24 A2982=
200708181700 METAR MRLB 181700Z 19005KT 9999 FEW020 SCT250 31/24 A2981=
200708181800 METAR MRLB 181800Z 10010KT 9999 FEW025 SCT250 33/22 A2979=
200708181900 METAR MRLB NIL=
200708182000 METAR MRLB 182000Z 09008KT 9999 SCT025TCU BKN220 33/22 A2976 RMK RN DST N E S=
200708182100 METAR MRLB 182100Z 06012KT 9999 SCT020TCU BKN150 29/21 A2974 RMK RN ARND=
200708182200 METAR MRLB 182200Z 00000KT 9999 -RA SCT025 BKN170 26/24 A2978=
200708182300 METAR MRLB 182300Z 16006KT 9999 FEW025 SCT100 BKN220 25/24 A2980 REDZ=
200708190000 METAR MRLB 190000Z 12010KT 9999 FEW025 BKN150 25/23 A2981=
200708190100 METAR MRLB 190100Z 13003KT 9999 FEW020 BKN100 27/23 A2980=
200708190200 METAR MRLB 190200Z 12005KT 9999 -DZ SCT020 BKN100 25/22 A2984 RMK LTNG DST SW W=
200708190300 METAR MRLB NIL=
200708190400 METAR MRLB NIL=
200708190500 METAR MRLB NIL=
200708190600 METAR MRLB NIL=
200708190700 METAR MRLB NIL=
200708190800 METAR MRLB NIL=
200708190900 METAR MRLB NIL=
200708191000 METAR MRLB NIL=
200708191100 METAR MRLB NIL=
200708191200 METAR MRLB 191200Z 00000KT 9999 FEW030 BKN250 23/22 A2982=
200708191300 METAR MRLB 191300Z 17004KT 9999 FEW035 SCT250 25/23 A2984=
200708191400 METAR MRLB 191400Z 10002KT 9999 FEW035 BKN250 28/23 A2984=
200708191500 METAR MRLB 191500Z 14005KT 9999 FEW035 BKN250 29/24 A2985=
200708191600 METAR MRLB 191600Z 14005KT 9999 SCT035 BKN250 29/24 A2984=
200708191700 METAR MRLB 191700Z 15006KT 9999 SCT035 OVC250 31/24 A2984=
200708191800 METAR MRLB 191800Z 15005KT 9999 SCT030 BKN250 31/24 A2982 RMK RN DST N NE=
200708191900 METAR MRLB 191900Z 31009KT 9999 SCT035 OVC240 29/24 A2980 RMK RN NE=
200708192000 METAR MRLB 192000Z 29009KT 9999 FEW020TCU SCT030 BKN240 28/25 A2979 RMK RN S SW W=
200708192100 METAR MRLB 192100Z 34006KT 3000 RA SCT015 OVC100 25/24 A2979=
200708192200 METAR MRLB 192200Z 34007KT 9999 SCT020 DZ OVC100 24/23 A2979 RN S NE=
200708192300 METAR MRLB 192300Z 32O004KT 9999 DZ SCT025 OVC110 24/23 A2980=
200708200000 METAR MRLB 200000Z 34003KT 9999 SCT030 OVC120 24/23 A2982 RN DST SE=
200708200100 METAR MRLB 200100Z 00000KT 9999 FEW035 BKN120 24/23 A2981=
200708200200 METAR MRLB 200200Z 04003KT 9999 SCT035 BKN130 24/23 A2983=
200708200300 METAR MRLB NIL=
200708200400 METAR MRLB NIL=
200708200500 METAR MRLB NIL=
200708200600 METAR MRLB NIL=
200708200700 METAR MRLB NIL=
200708200800 METAR MRLB NIL=
200708200900 METAR MRLB NIL=
200708201000 METAR MRLB NIL=
200708201100 METAR MRLB NIL=
200708201200 METAR MRLB 201200Z 00000KT 0100 FG VV/// 22/22 A2979=
200708201300 METAR MRLB 201300Z 10002KT 2000 BR BKN005 23/23 A2981 VSBY NE E UNL=
200708201400 METAR MRLB 201400Z 15002KT 9999 VCFG SCT006 SCT015 25/24 A2982 VSBY SW W 8KM=
200708201500 METAR MRLB 201500Z 22002KT 9999 SCT020 28/24 A2982 FEW250=
200708201600 METAR MRLB 201600Z 16002KT 9999 SCT025 29/24 A2982 FEW250=
200708201700 METAR MRLB 201700Z 20004KT 9999 SCT025 SCT250 30/23 A2982=
200708201800 METAR MRLB 201800Z 22004KT 9999 SCT025 BKN250 31/23 A2981 CB NE TCU RN SW S=
200708201900 METAR MRLB 201900Z 24008KT 9999 SCT025 BKN250 29/25 A2979 CB S NE RASH SW=
200708202000 METAR MRLB 202000Z 25008KT 9999 FEW020 BKN130 30/24 A2976 RN NE S SW CB S=
200708202100 METAR MRLB 202100Z 26006KT 9999 SCT020 BKN130 28/25 A2976 RMK RN DST NE=
200708202200 METAR MRLB 202200Z 28005KT 9999 SCT020 BKN130 28/25 A2975 RMK RN DST NE E=
200708202300 METAR MRLB 202300Z 25006KT 9999 SCT020 BKN130 28/24 A2976 RMK RN DST NE E S CB DST SW=
200708210000 METAR MRLB 210000Z 24003KT 9999 SCT020 BKN120 27/24 A2977 RMK RN DST S=
200708210100 METAR MRLB 210100Z 24005KT 9999 SCT020 BKN120 26/24 A2980=
200708210200 METAR MRLB NIL=
200708210300 METAR MRLB NIL=
200708210400 METAR MRLB NIL=
200708210500 METAR MRLB NIL=
200708210600 METAR MRLB NIL=
200708210700 METAR MRLB NIL=
200708210800 METAR MRLB NIL=
200708210900 METAR MRLB NIL=
200708211000 METAR MRLB NIL=
200708211100 METAR MRLB NIL=
200708211200 METAR MRLB 211200Z 09004KT 9999 SCT020 BKN130 23/23 A2981=
200708211300 METAR MRLB 211300Z 12005KT 9999 SCT020 BKN130 25/23 A2982=
200708211400 METAR MRLB 211400Z 12004KT 9999 FEW020 BKN130 27/23 A2987=
200708211500 METAR MRLB 211500Z 15005KT 9999 BKN020 SCT250 28/24 A2987=
200708211600 METAR MRLB 211600Z 14004KT 9999 SCT025 BKN220 29/24 A2986 RMK TCU DST SW=
200708211700 METAR MRLB 211700Z 14004KT 9999 SCT025 BKN220 30/24 A2986 RMK RN DST S SW=
200708211800 METAR MRLB 211800Z 16004KT 9999 SCT030 BKN220 31/24 A2983 RMK RN DST S SW=
200708211900 METAR MRLB 211900Z 24011KT 9999 FEW010TCU BKN020 27/24 A2982 RMK RASH DST S SW RN DST W N=
200708212000 METAR MRLB 212000Z 22006KT 9999 -RA SCT020 BKN030 25/24 A2982 RMK VIS 6000E=
200708212100 METAR MRLB 212100Z 25004KT 9999 SCT012 BKN120 26/25 A2980 RMK RN DST S SSW=
200708212200 METAR MRLB 212200Z 25006KT 9999 3000SW -RA SCT010 SCT020 25/24 A2982 RMK FEW130=
200708212300 METAR MRLB 212300Z 10002KT 9999 -DZ BKN015 24/23 A2982 RMK FEW130 RN DST NE=
200708220000 METAR MRLB 220000Z 00000KT 9999 -RA SCT015 SCT120 24/23 A2984 RMK TCU SHRA DST NE=
200708220100 METAR MRLB 220100Z 00000KT 9999 -RA SCT020 BKN100 24/23 A2984=
200708220200 METAR MRLB NIL=
200708220300 METAR MRLB NIL=
200708220400 METAR MRLB NIL=
200708220500 METAR MRLB NIL=
200708220600 METAR MRLB NIL=
200708220700 METAR MRLB NIL=
200708220800 METAR MRLB NIL=
200708220900 METAR MRLB NIL=
200708221000 METAR MRLB NIL=
200708221100 METAR MRLB NIL=
200708221200 METAR MRLB NIL=
200708221300 METAR MRLB 221300Z 00000KT 9999 SCT010 BKN140 24/23 A2987=
200708221400 METAR MRLB 221400Z 00000KT 9999 FEW008 SCT020 BKN150 25/23 A2988=
200708221500 METAR MRLB 221500Z 00000KT 9999 SCT012 BKN250 27/24 A2989=
200708221600 METAR MRLB 221600Z 00000KT 99999 SCT012 BKN250 29/23 A2989=
200708221700 METAR MRLB 221700Z 31004KT 9999 FEW020 BKN250 29/24 A2986=
200708221800 METAR MRLB 221800Z 35004KT 9999 FEW025 SCT250 31/23 A2984=
200708221900 METAR MRLB 221900Z 28007KT 9999 SCT020TCU BKN250 32/24 A2981=
200708222000 METAR MRLB 222000Z 28010KT 9999 SCT020TCU BKN250 31/25 A2980 RMK RN DST NE E=
200708222100 METAR MRLB 222100Z 26009KT 8000 VCSH FEW010CB SCT030 BKN200 28/24 A2980 RN N NE E SE=
200708222200 METAR MRLB 222200Z 26007KT 9999 -DZ SCT020TCU BKN180 26/24 A2979=
200708222300 METAR MRLB 222300Z 21005KT 9999 SCT020TCU BKN180 26/24 A2981RERA RN DST N S=
200708230000 METAR MRLB 230000Z 00000KT 9999 SCT020TCU BKN180 25/24 A2983=
200708230100 METAR MRLB 230100Z 29005KT 9999 TS SCT020CB BKN100 25/24 A2984=
200708230200 METAR MRLB NIL=
200708230300 METAR MRLB NIL=
200708230400 METAR MRLB NIL=
200708230500 METAR MRLB NIL=
200708230600 METAR MRLB NIL=
200708230700 METAR MRLB NIL=
200708230800 METAR MRLB NIL=
200708230900 METAR MRLB NIL=
200708231000 METAR MRLB NIL=
200708231100 METAR MRLB NIL=
200708231200 METAR MRLB 231200Z 00000KT 9999 FEW030 BKN130 24/23 A2986=
200708231300 METAR MRLB 231300Z 33002KT 9999 FEW030 OVC130 24/23 A2987=
200708231400 METAR MRLB 231400Z 00000KT 9999 FEW035 OVC120 25/24 A2989=
200708231500 METAR MRLB 231500Z 30002KT 9999 FEW035 BKN130 26/24 A2990=
200708231600 METAR MRLB 231600Z 28003KT 9999 SCT035 BKN250 28/24 A2989=
200708231700 METAR MRLB 231700Z 28004KT 9999 SCT035 BKN250 30/25 A2988=
200708231800 METAR MRLB 231800Z 28006KT 9999 SCT035 BKN250 30/24 A2986 RMK RN DST N=
200708231900 METAR MRLB 231900Z 28007KT 9999 FEW035 BKN250 29/24 A2984=
200708232000 METAR MRLB 232000Z 30007KT 9999 SCT030 BKN250 31/24 A2981 RMK RN DST E=
200708232100 METAR MRLB 232100Z 27005KT 9999 SCT035 BKN250 30/24 A2980 RMK RN E=
200708232200 METAR MRLB 232200Z 26004KT 9999 SCT035 BKN140 28/24 A2980 RMK RN S SE=
200708232300 METAR MRLB 232300Z 17003KT 9999 SCT035 OVC1130 27/24 A2981 RMK RN NE=
200708240000 METAR MRLB 240000Z 00000KT 9999 FEW035 BKN130 26/24 A2982=
200708240100 METAR MRLB 240100Z 14003KT 9999 FEW035 BKN130 25/24 A2985=
200708240200 METAR MRLB NIL=
200708240300 METAR MRLB NIL=
200708240400 METAR MRLB NIL=
200708240500 METAR MRLB NIL=
200708240600 METAR MRLB NIL=
200708240700 METAR MRLB NIL=
200708240800 METAR MRLB NIL=
200708240900 METAR MRLB NIL=
200708241000 METAR MRLB NIL=
200708241100 METAR MRLB NIL=
200708241200 METAR MRLB 241200Z 35003KT 0100 FG VV/// 24/23 A2985=
200708241300 METAR MRLB 241300Z 06003KT 1000 BR SCT003 24/24 A2986=
200708241400 METAR MRLB 241400Z 34002KT 9999 SCT010 SCT250 27/24 A2987=
200708241500 METAR MRLB 241500Z 01002KT 9999 FEW020 BKN300 29/25 A2987=
200708241600 METAR MRLB 241600Z 21003KT 9999 SCT025 BKN300 31/24 A2987=
200708241700 METAR MRLB 241700Z 24003KT 9999 SCT030 BKN250 31/25 A2986=
200708241800 METAR MRLB 241800Z 25007KT 9999 BKN030 SCT250 31/25 A2985=
200708241900 METAR MRLB 241900Z 28008KT 9999 SCT030 BKN250 31/25 A2982 RMK TCU SW=
200708242000 METAR MRLB 242000Z 28010KT 9999 -RA SCT025CB SCT120 29/25 A2979 RMK VIS E 6000MTS DUE RASH=
200708242100 METAR MRLB 242100Z 25005KT 9999 FEW025TCU BKN250 28/26 A2979 RERZ FEW120 CB SE S=
200708242200 METAR MRLB 242200Z 28007KT 9999 FEW030 SCT130 BKN250 30/25 A2977 CB N S E=
200708242300 METAR MRLB 242300Z 29006KT 9999 -RA FEW030 BKN120 29/24 A2977 FEW250 CB RASH NE=
200708250000 METAR MRLB 250000Z 250000Z24003KT 9999 SCT030 BKN250 28/25 A2979 FEW120 CB SE=
200708250100 METAR MRLB 250100Z 33002KT 9999 FEW030 BKN250 27/25 A2981 FEW120=
200708250200 METAR MRLB NIL=
200708250300 METAR MRLB NIL=
200708250400 METAR MRLB NIL=
200708250500 METAR MRLB NIL=
200708250600 METAR MRLB NIL=
200708250700 METAR MRLB NIL=
200708250800 METAR MRLB NIL=
200708250900 METAR MRLB NIL=
200708251000 METAR MRLB NIL=
200708251100 METAR MRLB NIL=
200708251200 METAR MRLB 251200Z 13003KT 2500 RA BR BKN025 24/24 A2983 RMK FEW120=
200708251300 METAR MRLB 251300Z 10002KT 9999 SCT025 BKN120 24/24 A2985 RN E LOW ST S SW W=
200708251400 METAR MRLB 251400Z 03003KT 9999 -RA SCT030 BKN120 24/23 A2988 ST S SW N=
200708251500 METAR MRLB 251500Z 30003KT 9999 FEDW030 OVC120 25/24 A2988 LW ST NE E=
200708251600 METAR MRLB 251600Z 34003KT CAOK 27/25 A2987 SCT140 BKN200 TRAZAS CU=
200708251700 METAR MRLB 251700Z 34003KT CAVOK 27/25 A2987 SCT140 BKN200 TRAZAS CU=
200708251800 METAR MRLB 251800Z 23007KT 9999 FEW025 BKN250 30/23 A2983 FEW130 CB SE=
200708251900 METAR MRLB 251900Z 14003KT 9999 SCT025TCU BKN200 30/25 A2981 FEW130 RASH S=
200708252000 METAR MRLB 252000Z 18006KT 9999 -RA SCT020 BKN140 28/24 A2978=
200708252100 METAR MRLB 252100Z 21004KT 9999 VCSH SCT020 BKN140 29/24 A2977 RMK VIS SE 6000=
200708252200 METAR MRLB 252200Z 10004KT 9999 3000N -RA FEW010 SCT020 BKN120 24/23 A2977 RMK TS DST SW NW=
200708252300 METAR MRLB 252300Z 08005KT 9999 SCT010 BKN120 25/24 A2978 RMK RN DST NE E SE S=
200708260000 METAR MRLB 260000Z 12003KT 9999 -RA FEW020 OVC120 24/23 A2980=
200708260100 METAR MRLB 260100Z 15003KT 9999 -RA FEW020 OVC120 23/23 A2981 RMK LTNG DST W=
200708260200 METAR MRLB NIL=
200708260300 METAR MRLB NIL=
200708260400 METAR MRLB NIL=
200708260500 METAR MRLB NIL=
200708260600 METAR MRLB NIL=
200708260700 METAR MRLB NIL=
200708260800 METAR MRLB NIL=
200708260900 METAR MRLB NIL=
200708261000 METAR MRLB NIL=
200708261100 METAR MRLB NIL=
200708261200 METAR MRLB 261200Z 00000KT 9999 FEW025 SCT100 BKN250 23/22 A2980=
200708261300 METAR MRLB 261300Z 00000KT 9999 FEW025 SCT250 24/23 A2985=
200708261400 METAR MRLB 261400Z 00000KT 9999 FEW025 BKN250 25/23 A2985=
200708261600 METAR MRLB NIL=
200708261700 METAR MRLB 261700Z 00000KT 9999 FEW015 SCT025 BKN180 30/24 A2983=
200708261800 METAR MRLB 261800Z 17006KT 9999 SCT015TCU BKN200 29/25 A2982=
200708261900 METAR MRLB 261900Z 16007KT 9999 SCT020 BKN250 30/24 A2979=
200708262000 METAR MRLB 262000Z 15006KT 9999 FEW015TCU BKN250 29/23 A2977=
200708262100 METAR MRLB 262100Z 00000KT 9999 FEW020TCU BKN180 29/24 A2976=
200708262200 METAR MRLB 262200Z 30007KT 9999 SCT015TCU BKN200 27/24 A2974=
200708262300 METAR MRLB 262300Z 00000KT 9999 FEW015 BKN200 27/25 A2975=
200708270000 METAR MRLB 270000Z 00000KT 9999 FEW020 SCT100 BKN250 26/24 A2978=
200708270100 METAR MRLB 270100Z 00000KT 9999 SCT020 BKN150 26/24 A2980=
200708270200 METAR MRLB 270200Z 00000KT 9999 FEW025 SCT100 25/23 A2983=
200708270300 METAR MRLB NIL=
200708270400 METAR MRLB NIL=
200708270500 METAR MRLB NIL=
200708270600 METAR MRLB NIL=
200708270700 METAR MRLB NIL=
200708270800 METAR MRLB NIL=
200708270900 METAR MRLB NIL=
200708271000 METAR MRLB NIL=
200708271100 METAR MRLB NIL=
200708271200 METAR MRLB NIL=
200708271300 METAR MRLB 271300Z 07005KT 9999 FEW035 BKN130 25/23 A2983=
200708271400 METAR MRLB 271400Z 10006KT 9999 FEW035 SCT130 BKN250 28/24 A2984=
200708271500 METAR MRLB 271500Z 15006KT 9999 FEW035 BKN250 29/24 A2986=
200708271600 METAR MRLB 271600Z 14004KT 9999 SCT035 OVC250 30/25 A2986=
200708271700 METAR MRLB NIL=
200708271800 METAR MRLB 271800Z 16004KT 9999 SCT035 BKN140 31/24 A2981 RMK RN DST SW N=
200708271900 METAR MRLB 271900Z 25011KT 9999 VCSH FEW020TCU SCT030 BKN140 26/24 A2980 RMK 7000 S SE=
200708272000 METAR MRLB 272000Z 21002KT 9999 -RA SCT025 OVC110 24/24 A2980=
200708272100 METAR MRLB 272100Z 03006KT 9999 SCT030 OVC120 24/24 A2977 RMK RN DST E=
200708272200 METAR MRLB 272200Z 24002KT 9999 DZ SCT025 OVC120 24/24 A2979=
200708272300 METAR MRLB NIL=
200708280000 METAR MRLB NIL=
200708280100 METAR MRLB NIL=
200708280200 METAR MRLB NIL=
200708280300 METAR MRLB NIL=
200708280400 METAR MRLB NIL=
200708280500 METAR MRLB NIL=
200708280600 METAR MRLB NIL=
200708280700 METAR MRLB NIL=
200708280800 METAR MRLB NIL=
200708280900 METAR MRLB NIL=
200708281100 METAR MRLB NIL=
200708281200 METAR MRLB 281200Z 00000KT CAVOK 23/22 A2981 RMK FEW140 BKN250=
200708281300 METAR MRLB NIL=
200708281400 METAR MRLB 281400Z 27002KT 999 SCT015 BKN250 26/24 A2984=
200708281500 METAR MRLB 281500Z 13003KT 9999 SCT020 SCT250 28/24 A2983 CB DST SW=
200708281600 METAR MRLB 281600Z 18005KT 9999 BKN025 28/24 A2985 RMK FEW250=
200708281700 METAR MRLB 281700Z 13005KT 9999 SCT030 SCT220 29/24 A2985 RMK CB DST SE S SW RN DST N SSW=
200708281800 METAR MRLB 281800Z 14004KT 9999 SCT030 31/23 A2984 RMK FEW220 CB RN DST S SW=
200708281900 METAR MRLB 281900Z 26008KT 9999 FEW015TCU SCT025 30/25 A2982 RMK RASH SW DST=
200708282000 METAR MRLB 282000Z 23009KT 9999 FEW030 SCT120 28/25 A2979 RMK FEW250 CB DST ARND TCU NE E RASH N=
200708282100 METAR MRLB 282100Z 24004KT 9999 BKN030 SCT130 29/25 A2978 RMK CB RN NE E=
200708282200 METAR MRLB 282200Z 17004KT 9999 SCT020TCU BKN130 27/24 A2978 RMK FEW250 RN W N NE=
200708282300 METAR MRLB 282300Z 30003KT 9999 SCT020 BKN030 26/24 A2979=
200708290000 METAR MRLB 290000Z 06002KT 9999 VCSH SCT020 BKN025 26/25 A2981 RMK VIS N 8000MTS=
200708290100 METAR MRLB 290100Z 13002KT 9999 SCT025 SCT120 26/24 A2984=
200708290200 METAR MRLB NIL=
200708290300 METAR MRLB NIL=
200708290400 METAR MRLB NIL=
200708290500 METAR MRLB NIL=
200708290600 METAR MRLB NIL=
200708290700 METAR MRLB NIL=
200708290800 METAR MRLB NIL=
200708290900 METAR MRLB NIL=
200708291000 METAR MRLB NIL=
200708291100 METAR MRLB NIL=
200708291200 METAR MRLB 291200Z 00000KT 2000 BR FEW001 BKN250 23/23 A2986 RMK FEW130=
200708291300 METAR MRLB 291300Z 00000KT 9999 3000W BR FEW005 BKN250 26/24 A2987=
200708291400 METAR MRLB 291400Z 07002KT 9999 SCT010 SCT250 27/24 A2990=
200708291500 METAR MRLB 291500Z 17002KT 9999 SCT020 SCT120 28/24 A2991 RMK FEW250=
200708291600 METAR MRLB 291600Z 21003KT 9999 SCT030 SCT250 30/24 A2991=
200708291700 METAR MRLB 291700Z 12003KT 9999 SCT030 BKN250 30/24 A2991=
200708291800 METAR MRLB 291800Z 27004KT 9999 SCT030 BKN250 31/24 A2989 RMK FEW120=
200708291900 METAR MRLB 291900Z 29010KT 9999 SCT030 BKN250 30/25 A2986 RMK RN NE S=
200708292000 METAR MRLB 292000Z 29011KT 9999 SCT025 BKN250 29/24 A2982 RMK FEW130 CB RASH N NE E TCU SE=
200708292100 METAR MRLB 292100Z 29008KT 9999 SCT025 BKN120 27/24 A2982 CB/TS/RASH E SE RN NE=
200708292200 METAR MRLB 292200Z 28004KT 9999 -RA BKN030 SCT120 26/24 A2982=
200708292300 METAR MRLB 292300Z 26003KT 9999 FEW025 BKN035 26/24 A2983 FEW250=
200708300000 METAR MRLB 300000Z 27004KT 9999 FEW020 BKN030 26/24 A2985 RN N FEW120=
200708300100 METAR MRLB NIL=
200708300200 METAR MRLB NIL=
200708300300 METAR MRLB NIL=
200708300400 METAR MRLB NIL=
200708300500 METAR MRLB NIL=
200708300600 METAR MRLB NIL=
200708300700 METAR MRLB NIL=
200708300800 METAR MRLB NIL=
200708300900 METAR MRLB NIL=
200708301000 METAR MRLB NIL=
200708301100 METAR MRLB NIL=
200708301200 METAR MRLB 301200Z 23004KT 9999 FEW006 BKN100 24/24 A2986=
200708301300 METAR MRLB 301300Z 23006KT 9999 FEW006 SCT100 BKN250 25/24 A2988=
200708301400 METAR MRLB 301400Z 24005KT 9999 SCT010 BKN200 26/24 A2991=
200708301500 METAR MRLB 301500Z 24005KT 9999 FEW010 SCT025 BKN200 28/25 A2991=
200708301600 METAR MRLB 301600Z 24010KT 9999 SCT015TCU BKN220 27/24 A2992 TCU N E S=
200708301700 METAR MRLB 301700Z 29010KT 9999 FEW012TCU BKN200 26/24 2991 VSBY N 7KM=
200708301800 METAR MRLB 301800Z 28006KT 9999 -DZ SCT015 BKN180 25/24 A2989=
200708301900 METAR MRLB NIL=
200708302000 METAR MRLB 302000Z 32006KT 9999 SCT015 BKN250 29/24 A2982=
200708302100 METAR MRLB 302100Z 29010KT 9999 FEW015 SCT030 BKN220 29/25 A2981 RMK RMK RN DST N=
200708302200 METAR MRLB 302200Z 33006KT 3000 RA SCT010CB BKN050 26/24 A2982=
200708302300 METAR MRLB 302300Z 00000KT 9000 +DZ SCT015 BKN100 25/24 A2982 RMK RN TS S=
200708310000 METAR MRLB 310000Z 00000KT 9000 DZ SCT010 OVC100 25/25 A2985=
200708310100 METAR MRLB 310100Z 00000KT 9000 -DZ FEW005 SCT020 OVC100 25/25 A2986 RMK LTNG DST E S=
200708310200 METAR MRLB 310200Z 00000KT 9000 -DZ FEW010 SCT025 OVC100 25/24 A2988 RMK LTNG DST S SW=
200708310300 METAR MRLB NIL=
200708310400 METAR MRLB NIL=
200708310500 METAR MRLB NIL=
200708310600 METAR MRLB NIL=
200708310700 METAR MRLB NIL=
200708310800 METAR MRLB NIL=
200708310900 METAR MRLB NIL=
200708311100 METAR MRLB NIL=
200708311200 METAR MRLB 311200Z 04003KT 0300 FG VV/// 21/21 A2985=
200708311300 METAR MRLB 311300Z 04002KT 9999 FEW030 BKN250 25/22 A2986=
200708311400 METAR MRLB 311400Z 13002KT 9999 FEW035 SCT250 27/21 A2988=
200708311500 METAR MRLB 311500Z 15003KT 9999 FEW035 BKN250 29/22 A2988=
200708311600 METAR MRLB 311600Z 25002KT 9999 FEW035 SCT250 30/24 A2987=
200708311700 METAR MRLB 311700Z 26004KT 9999 FEW040 SCT250 31/23 A2987=
200708311800 METAR MRLB 311800Z 24004KT 9999 SCT040 SCT250 32/21 A2986=
200708311900 METAR MRLB 311900Z 28003KT 9999 SCT035 BKN250 31/23 A2984 RMK RN DST E=
200708312000 METAR MRLB 312000Z 25005KT 9999 SCT035 BKN250 30/24 A2981=
200708312100 METAR MRLB 312100Z 01009KT 9999 FEW025 BKN250 30/25 A2981 RMK CB DST ARND RN SW=
200708312200 METAR MRLB 312200Z 28009KT 9999 SCT030 OVC250 29/24 A2979 RMK RN DST E/NE=
200708312300 METAR MRLB 312300Z 31006KT 9999 SCT030 BKN140 27/23 A2981 RMK RN DST E/NE/N=
200709010000 METAR MRLB 010000Z 13002KT 9999 SCT030 BKN130 25/22 A2985 RMK RN DST N/S=
200709010100 METAR MRLB 010100Z 25003KT 9999 SCT035 OVC130 24/23 A2986=
200709010200 METAR MRLB 010200Z 10003KT 9999 SCT035 BKN130 24/23 A2989=
200709010300 METAR MRLB NIL=
200709010400 METAR MRLB NIL=
200709010500 METAR MRLB NIL=
200709010600 METAR MRLB NIL=
200709010700 METAR MRLB NIL=
200709010800 METAR MRLB NIL=
200709010900 METAR MRLB NIL=
200709011000 METAR MRLB NIL=
200709011100 METAR MRLB NIL=
200709011200 METAR MRLB 011200Z 07002KT CAVOK 22/22 A2984 BKN120 RMK FEW250=
200709011300 METAR MRLB 011300Z 13003KT CAVOK 24/23 A2987 RMK BKN120 FEW250=
200709011400 METAR MRLB 011400Z 13004KT 9999 FEW025 SCT120 27/24 A2989 RMK FEW250=
200709011500 METAR MRLB 011500Z 15004KT 9999 SCT030 29/25 A2991 RMK FEW120=
200709011600 METAR MRLB 011600Z 17005KT 9999 SCT030 30/24 A2990=
200709011700 METAR MRLB 011700Z 16005KT 9999 BKN030 30/24 A2990=
200709011800 METAR MRLB 011800Z 19005KT 9999 SCT030 31/24 A2988 RMK TRAZAS AC TCU/RN DST N/NE=
200709011900 METAR MRLB 011900Z 19006KT 9999 SCT025 32/25 A2985 RMK FEW130 CB/RN DST N/NE=
200709012000 METAR MRLB 012000Z 31009KT 9999 -TSRA SCT010CB SCT025 28/25 A2984 RMK VIS N 5KMS=
200709012100 METAR MRLB 012100Z 31005KT 9999 FEW025 BKN130 26/24 A2982 RMK RN NW SW FEW250=
200709012200 METAR MRLB 012200Z 31004KT 9999 SCT025 BKN130 27/24 A2983 RMK RN DST N E SW=
200709012300 METAR MRLB 012300Z 31003KT 9999 SCT025 BKN130 27/24 A2983 RMK RN DST E CB RN DST S=
200709020000 METAR MRLB 020000Z 07003KT 9999 SCT020 BKN130 26/25 A2986 RMK RN DTS W S=
200709020100 METAR MRLB 020100Z 04004KT 9999 FEW025 BKN130 26/24 A2987 RMK LTNG DST N S=
200709020200 METAR MRLB 020200Z 12002KT 9999 FEW025 BKN130 26/24 A2990=
200709020300 METAR MRLB NIL=
200709020400 METAR MRLB NIL=
200709020500 METAR MRLB NIL=
200709020600 METAR MRLB NIL=
200709020700 METAR MRLB NIL=
200709020800 METAR MRLB NIL=
200709020900 METAR MRLB NIL=
200709021000 METAR MRLB NIL=
200709021100 METAR MRLB NIL=
200709021200 METAR MRLB 021200Z 00000KT 9999 VCFG FEW250 23/23 A2987 RMK BANCOS FG S SW N NE VIS SW N 6000 TCU DST SW W=
200709021300 METAR MRLB 021300Z 00000KT 2000SW BR FEW003 25/23 A2990 RMK FEW250=
200709021400 METAR MRLB 021400Z 16003KT 9999 VCFG FEW003 SCT012 25/23 A2991 RMK TCU DST N VIS S SW 6KMS=
200709021500 METAR MRLB 021500Z 18003KT 9999 SCT008 BKN015 26/24 A2992=
200709021600 METAR MRLB 021600Z 17002KT 9999 SCT025 29/24 A2993 RMK TCU DST NW=
200709021700 METAR MRLB 021700Z 22004KT 9999 SCT030 30/24 A2992 RMK TCU DST NNW=
200709021800 METAR MRLB 021800Z 25004KT 9999 SCT030 32/25 A2989 RMK CB RASH DST E=
200709021900 METAR MRLB 021900Z 29004KT 9999 FEW020 SCT030 30/24 A29086 RMK RASH E=
200709022000 METAR MRLB 022000Z 31005KT 9999 -RA SCT020 BKN120 25/24 A2984=
200709022100 METAR MRLB 022100Z 25005KT 9999 FEW020 BKN130 27/25 A2982 RMK CB RN NE SW=
200709022200 METAR MRLB 022200Z 24006KT 9999 SCT020 BKN130 28/25 A2984 RMK TS RASH NE=
200709022300 METAR MRLB 022300Z 16007KT 9999 -TS RA FEW010CB BKN015 25/23 A2986=
200709030000 METAR MRLB 030000Z 00000KT 9999 FEW020 OVC120 24/23 A2986=
200709030100 METAR MRLB 030100Z 02003KT 9999 FEW025 BKN120 23/23 A2987=
200709030200 METAR MRLB NIL=
200709030300 METAR MRLB NIL=
200709030400 METAR MRLB NIL=
200709030500 METAR MRLB NIL=
200709030600 METAR MRLB NIL=
200709030700 METAR MRLB NIL=
200709030800 METAR MRLB NIL=
200709030900 METAR MRLB NIL=
200709031000 METAR MRLB NIL=
200709031100 METAR MRLB NIL=
200709031200 METAR MRLB 031200Z 00000KT 100MTS FG SCT001 BKN250 22/22 A2987=
200709031300 METAR MRLB 031300Z 00000KT 9999 FEW003 BKN250 24/23 A2989 RMK HZ ARND=
200709031400 METAR MRLB 031400Z 20004KT 9999 FEW006 SCT250 26/25 A2990=
200709031500 METAR MRLB 031500Z 22005KT 9999 FEW010 SCT250 28/25 A2991=
200709031600 METAR MRLB 031600Z 25005KT 9999 SCT015TCU BKN250 31/24 A2991=
200709031700 METAR MRLB 031700Z 24004KT 9999 SCT020TCU BKN250 30/24 A2990=
200709031800 METAR MRLB 031800Z 25005KT 9999 SCT020TCUN250 31/25 A2988 RMK RN N E=
200709031900 METAR MRLB 031900Z 34010KT 9000 DZ SCT010CB BKN180 25/24 A2984=
200709032000 METAR MRLB 032000Z 31004KT 9999 SCT020CB BKN200 30/24 A2982 RERA RMK CB RN SES=
200709032100 METAR MRLB 032100Z 33006KT 9999 SCT020CB BKN200 28/24 A2981 CB RN SE S=
200709032200 METAR MRLB 032200Z 15005KT 9999 FEW020 SCT100 BKN220 27/25 A2982 RN N E=
200709032300 METAR MRLB 032300Z 15005KT 9999 -DZ FEW020 BKN190 25/23 A2982=
200709040000 METAR MRLB 040000Z 15005KT 9999 -DZ SCT025 BKN180 25/24 A2984=
200709040100 METAR MRLB NIL=
200709040200 METAR MRLB 040200Z 14005KT 9999 DZ SCT020 BKN100 25/24 A2987 LTNG DST S=
200709040300 METAR MRLB NIL=
200709040400 METAR MRLB NIL=
200709040500 METAR MRLB NIL=
200709040600 METAR MRLB NIL=
200709040700 METAR MRLB NIL=
200709040800 METAR MRLB NIL=
200709040900 METAR MRLB NIL=
200709041000 METAR MRLB NIL=
200709041100 METAR MRLB NIL=
200709041200 METAR MRLB 041200Z 19002KT 9999 FEW030 OVC130 23/22 A2983=
200709041300 METAR MRLB 041300Z 15002KT 9999 FEW035 BKN130 24/23 A2986=
200709041400 METAR MRLB 041400Z 14003KT 9999 SCT030 BKN130 26/24 A2987=
200709041500 METAR MRLB 051500Z 14002KT 9999 SCT035 BKN140 27/24 A2989=
200709041600 METAR MRLB 041600Z 10004KT 9999 SCT035 BKN250 29/23 A2989=
200709041700 METAR MRLB 041700Z 13004KT 9999 SCT035 OVC240 30/23 A2987=
200709041800 METAR MRLB 041800Z 17005KT 9999 SCT030 OVC240 30/23 A2985=
200709041900 METAR MRLB NIL=
200709042000 METAR MRLB NIL=
200709042100 METAR MRLB NIL=
200709042200 METAR MRLB 042200Z 15003KT 9999 SCT035 OVC130 26/23 A2980=
200709042300 METAR MRLB 042300Z 16002KT 9999 FEW035 BKN130 26/24 A2980=
200709050000 METAR MRLB 050000Z 15003KT 9999 SCT035 OVC120 25/24 A2981 RMK RN DST S=
200709050100 METAR MRLB 050100Z 00000KT 9999 FEW035 BKN120 25/24 A2981=
200709050200 METAR MRLB 050200Z 10002KT 9999 SCT035 BKN120 24/23 A2989=
200709050300 METAR MRLB NIL=
200709050400 METAR MRLB NIL=
200709050500 METAR MRLB NIL=
200709050600 METAR MRLB NIL=
200709050700 METAR MRLB NIL=
200709050800 METAR MRLB NIL=
200709050900 METAR MRLB NIL=
200709051000 METAR MRLB NIL=
200709051100 METAR MRLB NIL=
200709051200 METAR MRLB 051200Z 18002KT CAVOK 24/23 A2983 RMK SCT140 BKN250 BANCOS DE NIEBLA W=
200709051300 METAR MRLB 051300Z 19003KT 9999 FEW005 BKN140 25/24 A2986 RMK SCT250=
200709051400 METAR MRLB 051400Z 17002KT 9999 FEW010 SCT140 BKN250 27/24 A2987=
200709051500 METAR MRLB 051500Z 16002KT 9999 FEW020 SCT140 29/24 A2988 RMK SCT250=
200709051600 METAR MRLB 051600Z 15004KT 9999 FEW030 BKN250 30/24 A2988=
200709051700 METAR MRLB 051700Z 17005KT 9999 SCT030 BKN250 31/25 A2987=
200709051800 METAR MRLB 051800Z 16004KT 9999 FEW035 BKN250 30/25 A2985=
200709051900 METAR MRLB 051900Z 26006KT 9999 SCT030 BKN250 32/24 A2983 RMK RN DST NE TS RN DST SW=
200709052000 METAR MRLB 052000Z 28009KT 9999 4000E -TSRA SCT010CB BKN130 29/25 A2980 RMK TS DST S=
200709052100 METAR MRLB 052100Z 09009KT 1000 RA OVC015 23/22 A2994 RKM TS DST S/W=
200709052200 METAR MRLB 052200Z 03002KT 9999 -RA FEW010 OVC100 23/23 A2983 RMK RS DST E/S=
200709052300 METAR MRLB 052300Z 03004KT 9999 -RA FEW010 OVC100 22/22 A2987 RMK TS DST W=
200709060000 METAR MRLB 060000Z 05004KT 9999 -RA FEW010 OVC100 22/22 A2988 RMK TS DST S/SW=
200709060100 METAR MRLB 060100Z 09003KT 9999 -RA OVC100 23/22 A2989=
200709060200 METAR MRLB 060200Z 12006KT CAVOK 23/23 A2993 OVC120=
200709060300 METAR MRLB NIL=
200709060400 METAR MRLB NIL=
200709060500 METAR MRLB NIL=
200709060600 METAR MRLB NIL=
200709060700 METAR MRLB NIL=
200709060800 METAR MRLB NIL=
200709060900 METAR MRLB NIL=
200709061000 METAR MRLB NIL=
200709061100 METAR MRLB NIL=
200709061200 METAR MRLB 061200Z 00000KT 9999 FEW030 SCT180 22/21 A2988=
200709061300 METAR MRLB 061300Z 17005KT 9999 FEW030 SCT250 24/22 A2991=
200709061400 METAR MRLB 061400Z 00000KT 9999 FEW040 SCT250 27/23 A2994 RMK TCU DST S/SW=
200709061500 METAR MRLB 061500Z 00000KT 9999 FEW040 SCT250 29/23 A2995 RMK TCU DST S/SW=
200709061600 METAR MRLB 061600Z 17006KT 9999 FEW020 SCT250 31/22 A2995 RMK TCU DST S/SW=
200709061700 METAR MRLB 061700Z 14006KT 9999 SCT020 BKN250 30/23 A2992=
200709061800 METAR MRLB 061800Z 14004KT 9999 SCT020TCU BKN220 31/23 A2990=
200709061900 METAR MRLB 061900Z 18004KT 9999 SCT015TCU BKN150 30/23 A2987=
200709062000 METAR MRLB 062000Z 28007KT 9000 FEW010CB SCT030 BKN180 28/24 A2986 RMK CB/RN N/NE/E=
200709062100 METAR MRLB 062100Z 30005KT 9999 SCT010CB BKN200 24/22 A2985 RMK RERA CB RN SW W=
200709062200 METAR MRLB 062200Z 03005KT 9999 FEW020 SCT100 BKN250 24/23 A2984 RMK TCU DST S=
200709062300 METAR MRLB 062300Z 00000KT 9999 FEW020 SCT120 BKN250 25/23 A2984=
200709070000 METAR MRLB 070000Z 00000KT 9999 FEW025 SCT100 BKN250 25/24 A2987=
200709070100 METAR MRLB 070100Z 17003KT 9999 FEW025 SCT110 24/23 A2986=
200709070200 METAR MRLB 070200Z 21003KT 9999 FEW020 SCT150 24/23 A2987=
200709070300 METAR MRLB NIL=
200709070400 METAR MRLB NIL=
200709070500 METAR MRLB NIL=
200709070600 METAR MRLB NIL=
200709070700 METAR MRLB NIL=
200709070800 METAR MRLB NIL=
200709070900 METAR MRLB NIL=
200709071000 METAR MRLB NIL=
200709071100 METAR MRLB NIL=
200709071200 METAR MRLB 071200Z 19003KT CAVOK 23/23 A2985 RMK SCT130 FEW250 BANCOS FG SW W=
200709071300 METAR MRLB 071300Z 18005KT 9999 VCFG BKN130 25/23 A2987 RMK VIS NE 7KMS=
200709071400 METAR MRLB 071400Z 06005KT CAVOK 26/24 A2989 RMK FEW130 TRACE CU=
200709071500 METAR MRLB 071500Z 02003KT CAVOK 30/24 A2989 RMK FEW130 FEW250 TRACE CU=
200709071600 METAR MRLB 071600Z 07003KT 9999 FEW030 SCT300 31/24 A2988 RMK FEW130=
200709071700 METAR MRLB 071700Z 10007KT 9999 SCT030 31/23 A2987 RMK FEW250=
200709071800 METAR MRLB 071800Z 12005KT 9999 SCT030 32/23 A2984 RMK TRACE CI=
200709071900 METAR MRLB 071900Z 11005KT 9999 SCT030 34/23 A2981 RMK FEW250=
200709072000 METAR MRLB 072000Z 29005KT 9999 SCT030 33/25 A2979 RMK TRACE CI=
200709072100 METAR MRLB 072100Z 27008KT 9999 BKN025 32/24 A2978 RMK FEW250 TCU E=
200709072200 METAR MRLB 072200Z 28009KT 9999 -TSRA FEW020CB SCT030 32/25 A2977 RMK FEW250 VIS E 5000 DUE RASH=
200709072300 METAR MRLB 072300Z 27006KT 9999 -RA SCT020 BKN120 24/23 A2978 RMK CB TS SW W N TCU W NW VIS SW 7000=
200709080000 METAR MRLB 080000Z 00000KT 9999 SCT025 BKN120 25/24 A2980 RMK CB SW NE RN E SE S=
200709080100 METAR MRLB 080100Z 06009KT 9999 TSRA SCT020CB SCT025 SCT120 24/24 A2984=
200709080200 METAR MRLB NIL=
200709080300 METAR MRLB NIL=
200709080400 METAR MRLB NIL=
200709080500 METAR MRLB NIL=
200709080600 METAR MRLB NIL=
200709080700 METAR MRLB NIL=
200709080800 METAR MRLB NIL=
200709080900 METAR MRLB NIL=
200709081000 METAR MRLB NIL=
200709081100 METAR MRLB NIL=
200709081200 METAR MRLB 081200Z 20002KT 9999 FEW030 OVC120 22/22 A2984=
200709081300 METAR MRLB 081300Z 24002KT 9999 2500SW BR SCT020 OVC120 23/22 A2985=
200709081400 METAR MRLB 081400Z 21003KT 9999 SCT025 BKN120 24/23 A2986 RMK ST LOW S SW=
200709081500 METAR MRLB 081500Z 22003KT 9999 SCT025 BKN120 25/24 A2986=
200709081600 METAR MRLB 081600Z 17002KT 9999 FEW025 OVC240 28/23 A2985=
200709081700 METAR MRLB 081700Z 23002KT 9999 FEW035 OVC240 40/23 A2985=
200709081800 METAR MRLB 081800Z 14008KT 9999 FEW035 OVC250 30/23 A2983=
200709081900 METAR MRLB 081900Z 09014KT 9999 SCT035 BKN250 31/21 A2981=
200709082000 METAR MRLB 082000Z 09008KT 9999 FEW035 BKN250 31/22 A2978=
200709082100 METAR MRLB 082100Z 09005KT 9999 FEW035 BKN250 31/21 A2975=
200709082200 METAR MRLB NIL=
200709082300 METAR MRLB 082300Z 07004KT 9999 FEW035 SCT130 BKN250 29/22 A2974=
200709090000 METAR MRLB 090000Z 10003KT 9999 FEW035 BKN130 28/23 A2979=
200709090100 METAR MRLB 090100Z 08002KT 9999 FEW035 BKN130 26/23 A2981=
200709090200 METAR MRLB NIL=
200709090300 METAR MRLB NIL=
200709090400 METAR MRLB NIL=
200709090500 METAR MRLB NIL=
200709090600 METAR MRLB NIL=
200709090700 METAR MRLB NIL=
200709090800 METAR MRLB NIL=
200709090900 METAR MRLB NIL=
200709091000 METAR MRLB NIL=
200709091100 METAR MRLB NIL=
200709091200 METAR MRLB 091200Z 00000KT CAVOK 23/22 A2983 RMK SCT120 BKN250 TRAZAS CU NIEBLA AL NW=
200709091300 METAR MRLB 091300Z 12002KT CAVOK 26/23 A2984 SCT120 BKN250 TCU S SW=
200709091400 METAR MRLB 091400Z 18002KT CAVOK 28/23 A2985 FEW120 BKN250 CB N S SW=
200709091500 METAR MRLB 091500Z 16003KT CAVOK 29/23 A2987 BKN250 CB S SW=
200709091600 METAR MRLB 091600Z 13002KT 9999 FEW035 BKN250 31/23 A2986=
200709091700 METAR MRLB 091700Z 28003KT 9999 SCT035 SCT250 31/23 A2984=
200709091800 METAR MRLB 091800Z 30003KT 9999 SCT035 SCT250 33/23 A2981 TCU N E=
200709091900 METAR MRLB 091900Z 28008KT 9999 SCT030TCU SCT250 32/23 A2978 CB RN N NE E SE=
200709092000 METAR MRLB 092000Z 13007KT 0500 TSRA FEW010CB BKN020 25/20 A2980=
200709092100 METAR MRLB 092100Z 23004KT 9999 -RA FEW015 OVC100 24/23 A2978 RMK TS DST SW=
200709092200 METAR MRLB 092200Z 05005KT 9999 -RA FEW020 OVC100 24/24 A2978=
200709092300 METAR MRLB 092300Z 05004KT 9999 -RA FEW020 OVC100 24/24 A2980=
200709100000 METAR MRLB 100000Z 09004KT 9999 -RA FEW010 OVC100 24/24 A2980=
200709100100 METAR MRLB 100100Z 10004KT CAVOK 24/23 A2980 RMK OVC120=
200709100200 METAR MRLB NIL=
200709100300 METAR MRLB NIL=
200709100400 METAR MRLB NIL=
200709100500 METAR MRLB NIL=
200709100600 METAR MRLB NIL=
200709100700 METAR MRLB NIL=
200709100800 METAR MRLB NIL=
200709100900 METAR MRLB NIL=
200709101000 METAR MRLB NIL=
200709101100 METAR MRLB NIL=
200709101200 METAR MRLB 101200Z 08002KT 9999 VCFG FEW130 SCT250 22/22 A2982 VIS SW 7000MTS=
200709101300 METAR MRLB 101300Z 18003KT CAVOK 23/23 A2985 RMK LOW ST SW W NW FEW130 FEW250=
200709101400 METAR MRLB 101400Z 18003KT CAVOK 26/23 A2987 RMK LOW ST CB DST S SW SCT250=
200709101500 METAR MRLB 101500Z 17003KT CAVOK 28/24 A2988 RMK SCT250 CB DST S TRACE CU AC=
200709101600 METAR MRLB 101600Z 19005KT 9999 FEW030 SCT250 29/23 A2987 RMK TRACE AC CB DST SW=
200709101700 METAR MRLB 101700Z 18004KT 9999 SCT030 BKN140 31/23 A2985=
200709101800 METAR MRLB 101800Z 22003KT 9999 SCT030 31/23 A2982 RMK TRACE CI=
200709101900 METAR MRLB 101900Z 28004KT 9999 FEW025TCU SCT030 32/23 A2978 RMK CB DST S=
200709102000 METAR MRLB 102000Z 29009KT 9999 FEW020TCU SCT030 31/24 A2975 RMK RASH DST E=
200709102100 METAR MRLB 102100Z 02007KT 9999 2000E -TSRA FEW010CB BKN020 27/24 A2976=
200709102200 METAR MRLB 102200Z 07005KT 9999 1000S -RA SCT010 SCT020 25/24 A2977 RMK TS DST SW=
200709102300 METAR MRLB 102300Z 00000KT 9999 FEW015 OVC120 25/24 A2977 RMK RN DST N/W=
200709110000 METAR MRLB 110000Z 02003KT 9999 -RA FEW020 OVC120 24/24 A2979=
200709110100 METAR MRLB 110100Z 02003KT 9999 -RA FEW020 OVC120 24/23 A2981=
200709110200 METAR MRLB NIL=
200709110300 METAR MRLB NIL=
200709110400 METAR MRLB NIL=
200709110500 METAR MRLB NIL=
200709110600 METAR MRLB NIL=
200709110700 METAR MRLB NIL=
200709110800 METAR MRLB NIL=
200709110900 METAR MRLB NIL=
200709111000 METAR MRLB NIL=
200709111100 METAR MRLB NIL=
200709111200 METAR MRLB 111200Z 00000KT 9999 FEW035 SCT250 23/22 A2981=
200709111300 METAR MRLB 111300Z 00000KT 9999 FEW035 SCT250 25/23 A2982=
200709111400 METAR MRLB 111400Z 00000KT 9999 FEW030 SCT250 29/24 A2983=
200709111500 METAR MRLB 111500Z 05005KT 9999 FEW030 SCT250 30/24 A2984=
200709111600 METAR MRLB 111600Z 09010KT 9999 FEW030 SCT250 31/23 A2984=
200709111700 METAR MRLB 111700Z 08010KT 9999 SCT020 BKN250 32/23 A2982=
200709111800 METAR MRLB 111800Z 10010KT 9999 SCT025 BKN250 32/18 A2980=
200709111900 METAR MRLB 111900Z 10007KT 9999 SCT025 BKN250 32/23 A2977=
200709112000 METAR MRLB NIL=
200709112100 METAR MRLB NIL=
200709112200 METAR MRLB NIL=
200709112300 METAR MRLB NIL=
200709120000 METAR MRLB 120000Z 00000KT 9999 SCT015TCU BKN250 25/24 A2976=
200709120100 METAR MRLB NIL=
200709120200 METAR MRLB 120200Z 00000KT 9999 FEW025 SCT180 25/24 A2980 LTNG DIST S=
200709120300 METAR MRLB NIL=
200709120400 METAR MRLB NIL=
200709120500 METAR MRLB NIL=
200709120600 METAR MRLB NIL=
200709120700 METAR MRLB NIL=
200709120800 METAR MRLB NIL=
200709120900 METAR MRLB NIL=
200709121000 METAR MRLB NIL=
200709121100 METAR MRLB NIL=
200709121200 METAR MRLB 121200Z 03003KT 0300FG VV/// 24/23 A2978=
200709121300 METAR MRLB 121300Z 00000KT 9999 FEW035 BKN250 24/23 A2980=
200709121400 METAR MRLB 121400Z 34004KT 9999 FEW035 SCT250 26/24 A2981=
200709121500 METAR MRLB 121500Z 23006KT 9999 FEW035 BKN250 30/24 A2979=
200709121600 METAR MRLB 121600Z 10009KT 9999 FEW035 BKN250 31/23 A2981=
200709121700 METAR MRLB 121700Z 08013KT 9999 SCT035 BKN250 32/22 A2981=
200709121800 METAR MRLB 121800Z 10012KT 9999 FEW035 BKN250 32/22 A2978=
200709121900 METAR MRLB 121900Z 08011KT 9999 SCT035 BKN250 32/22 A2975=
200709122000 METAR MRLB 122000Z 08013KT 9999 SCT035 BKN250 31/22 A2972=
200709122100 METAR MRLB 122100Z 08011KT 9999 FEW035 OVC250 32/23 A2970=
200709122200 METAR MRLB 122200Z 12010KT 9999 FEW035 OVC250 31/22 A2969=
200709122300 METAR MRLB 122300Z 08006KT 9999 BKN020 OVC100 23/17 A2981 RMK CB RN SW W=
200709130000 METAR MRLB 130000Z 08009KT 9999 FEW035 OVC250 28/22 A2974=
200709130100 METAR MRLB 130100Z 08007KT 999 FEW030 OVC250 27/20 A2997=
200709130200 METAR MRLB NIL=
200709130300 METAR MRLB NIL=
200709130400 METAR MRLB NIL=
200709130500 METAR MRLB NIL=
200709130600 METAR MRLB NIL=
200709130700 METAR MRLB NIL=
200709130800 METAR MRLB NIL=
200709130900 METAR MRLB NIL=
200709131000 METAR MRLB NIL=
200709131100 METAR MRLB NIL=
200709131200 METAR MRLB 131200Z 14004KT 9999 SCT035 BKN250 23/22 A2980 RMK FEW140=
200709131300 METAR MRLB 131300Z 15004KT CAVOK 25/23 A2981 RMK TRACE SC AC BKN250=
200709131400 METAR MRLB 131400Z 16002KT CAVOK 28/24 A2984 RMK TRACE CU FEW140 SCT250=
200709131500 METAR MRLB 131500Z 17005KT 9999 FEW030 BKN130 29/23 A2984 RMK TRACE CI=
200709131600 METAR MRLB 131600Z 07010KT 9999 SCT025 BKN120 25/17 A2999=
200709131700 METAR MRLB 131700Z 12005KT 9999 SCT030 BKN130 31/23 A2985=
200709131800 METAR MRLB 131800Z 08003KT 9999 SCT030 BKN130 32/23 A2981 RMK CB NE TCU NW=
200709131900 METAR MRLB 131900Z 09005KT 9999 VCSH SCT030 SCT120 28/25 A2978 RMK CB TS RASH N NW VIS 6000MTS=
200709132000 METAR MRLB 132000Z 29004KT 9999 SCT020TCU BKN120 26/24 A2975 RMK RN S SW=
200709132100 METAR MRLB 132100Z 27004KT 9999 FEW025 BKN120 26/24 A2987=
200709132200 METAR MRLB 132200Z 32003KT 9999 SCT025 BKN120 26/25 A2974 TS RN S=
200709132300 METAR MRLB 132300Z 31002KT 9999 SCT025 BKN120 26/24 A2975 RN NE/SE=
200709140000 METAR MRLB NIL=
200709140100 METAR MRLB 140100Z 00000KT 9999 SCT025 SCT120 26/25 A2979=
200709140200 METAR MRLB 140200Z 13003KT 9999 -RA SCT025 SCT120 25/25 A2980 LTNG DST S W=
200709140300 METAR MRLB NIL=
200709140400 METAR MRLB NIL=
200709140500 METAR MRLB NIL=
200709140600 METAR MRLB NIL=
200709140700 METAR MRLB NIL=
200709140800 METAR MRLB NIL=
200709140900 METAR MRLB NIL=
200709141000 METAR MRLB NIL=
200709141100 METAR MRLB NIL=
200709141200 METAR MRLB 141200Z 19002KT 0700 FG VV002 23/23 A2980=
200709141300 METAR MRLB 141300Z 00000KT 9000 SCT003 BKN120 24/23 A2982=
200709141400 METAR MRLB 141400Z 14002KT 9999 SCT012 SCT120 26/24 A2984 FEW250=
200709141500 METAR MRLB 141500Z 27002KT 9999 FEW020 BKN250 28/24 A2987 FEW120=
200709141600 METAR MRLB 141600Z 26004KT 9999 FEW030 BKN250 29/24 A2985 FEW130=
200709141700 METAR MRLB 141700Z 22002KT 9999 BKN030 SCT250 31/24 A2985=
200709141800 METAR MRLB 141800Z 08008KT 9999 FEW030 BKN250 32/22 A29892 FEW130=
200709141900 METAR MRLB 141900Z 30008KT 9999 BKN025 SCT130 30/24 A2979 RN N=
200709142000 METAR MRLB 142000Z 09008KT 9999 FEW025 BKN130 29/21 A2979 CB S RN W=
200709142100 METAR MRLB 142100Z 13011KT 9999 FEW030 OVC130 28/21 A2976 RMK CB DST SW=
200709142200 METAR MRLB 142200Z 13008KT CAVOK 27/21 A2974 RMK OVC130=
200709142300 METAR MRLB 142300Z 17003KT CAVOK 26/21 A2972 RMK OVC130=
200709150000 METAR MRLB 150000Z 12007KT CAVOK 25/21 A2977 RMK OVC130=
200709150100 METAR MRLB 150100Z 11004KT CAVOK 25/21 A2980 RMK OVC130=
200709150200 METAR MRLB 150200Z 15003KT CAVOK 24/21 A2981 RMK BKN130=
200709150300 METAR MRLB NIL=
200709150400 METAR MRLB NIL=
200709150500 METAR MRLB NIL=
200709150600 METAR MRLB NIL=
200709150700 METAR MRLB NIL=
200709150800 METAR MRLB NIL=
200709150900 METAR MRLB NIL=
200709151000 METAR MRLB NIL=
200709151100 METAR MRLB NIL=
200709151200 METAR MRLB 151200Z 00000KT 999 FEW025 BKN150 23/22 A2983=
200709151300 METAR MRLB 151300Z 00000KT 9999 FEW025 BKN180 24/22 A2985=
200709151400 METAR MRLB 151400Z 17005KT 9999 FEW020 BKN180 27/23 A2988=
200709151500 METAR MRLB 151500Z 15006KT 9999 FEW020 BKN180 27/23 A2988=
200709151600 METAR MRLB 151600Z 10008KT 9999 FEW020 SCT100 BKN200 28/23 A2989=
200709151700 METAR MRLB 151700Z 03005KT 9999 FEW020 BKN180 29/23 A2988=
200709151800 METAR MRLB 151800Z 07007KT 9999 SCT020 BKN200 30/23 A2984 RMK RN DST S=
200709151900 METAR MRLB 151900Z 09011KT 9999 SCT020TCU 30/22 A2982 RMK RNDST N=
200709152000 METAR MRLB 152000Z 09012KT 9999 FEW020 SCT100 BKN220 30/22 A2988=
200709152100 METAR MRLB 152100Z 30007KT 9999 SCT020TCU BKN120 28/23 A2979=
200709152200 METAR MRLB NIL=
200709152300 METAR MRLB 152300Z 04003KT 9999 FEW010 SCT025 BKN150 24/23 A2981 RMK RERA RN DST S/SW=
200709160000 METAR MRLB 160000Z 25006KT 9999 -DZ FEW007 BKN090 24/22 A2986 RMK CB RN DST QUANDS N/S FEWAS120=
200709160100 METAR MRLB 160100Z 00000KT 9999 SCT020 BKN100 24/23 A2985=
200709160200 METAR MRLB 160200Z 00000KT 9999 SCT020 BKN100 24/23 A29856=
200709160300 METAR MRLB NIL=
200709160400 METAR MRLB NIL=
200709160500 METAR MRLB NIL=
200709160600 METAR MRLB NIL=
200709160700 METAR MRLB NIL=
200709160800 METAR MRLB NIL=
200709160900 METAR MRLB NIL=
200709161000 METAR MRLB NIL=
200709161100 METAR MRLB NIL=
200709161200 METAR MRLB 161200Z 00000KT 9999 FEW030 BKN120 23/23 A2986 LOW ST S SW=
200709161300 METAR MRLB 161300Z 00000KT 9999 SCT030 BKN120 24/23 A2987=
200709161400 METAR MRLB 161400Z 00000KT 9999 SCT035 BKN120 26/23 A2989=
200709161500 METAR MRLB 161500Z 00000KT 9999 FEW035 BKN130 28/24 A2989=
200709161600 METAR MRLB 161600Z 29003KT 9999 SCT035 BKN130 30/23 A2988=
200709161700 METAR MRLB 161700Z 23004KT 9999 SCT035 OVC130 30/23 A2987=
200709161800 METAR MRLB 161800Z 28003KT 9999 SCT035 OVC130 30/23 A2984=
200709161900 METAR MRLB 161900Z 23004KT 9999 SCT035 BKN130 30/24 A2980=
200709162000 METAR MRLB 162000Z 27005KT 9999 SCT030 BKN130 29/24 A2978 RMK RN DST S=
200709162100 METAR MRLB 162100Z 12010KT 2000 RA FEW010TCU SCT025 OVC100 23/22 A2978=
200709162200 METAR MRLB 162200Z 28002KT 9999 SCT030 OVC120 23/23 A2980 RMK RN DST E NE=
200709162300 METAR MRLB NIL=
200709170000 METAR MRLB 170000Z 19002KT 9999 FEW035 BKN120 24/23 A2982=
200709170100 METAR MRLB 170100Z 00000KT 9999 SCT035 OVC120 24/23 A2984=
200709170200 METAR MRLB NIL=
200709170300 METAR MRLB NIL=
200709170400 METAR MRLB NIL=
200709170500 METAR MRLB NIL=
200709170600 METAR MRLB NIL=
200709170700 METAR MRLB NIL=
200709170800 METAR MRLB NIL=
200709170900 METAR MRLB NIL=
200709171000 METAR MRLB NIL=
200709171100 METAR MRLB NIL=
200709171200 METAR MRLB 171200Z 04002KT 0700 FG BKN120 23/22 A2984=
200709171300 METAR MRLB 171300Z 15003KT CAVOK 24/23 A2986 RMK TRACE ST SC BKN120 RMK CB DST SW=
200709171400 METAR MRLB 171400Z 17003KT 9999 FEW015 SCT130 26/23 A2988=
200709171500 METAR MRLB 171500Z 18005KT 9999 FEW030 28/24 A2988 RMK FEW130=
200709171600 METAR MRLB 171600Z 15005KT 9999 BKN035 29/24 A2988 RMK FEW130=
200709171700 METAR MRLB 171700Z 18004KT 9999 BKN030 SCT130 29/24 A2986=
200709171800 METAR MRLB 171800Z 17007KT 9999 SCT030TCU BKN120 29/25 A2983 RMK CB DST S RASH DST NE=
200709171900 METAR MRLB 171900Z 19008KT 9999 -RA FEW015CB SCT020TCU BKN120 28/24 A2981 RMK RASH N NE E VIS N 9KMS=
200709172000 METAR MRLB 172000Z 35006KT 9999 -TS VCSH SCT015CB SCT020 25/24 A2980 VIS E 5KMS DUE RN=
200709172100 METAR MRLB 172100Z 33004KT 9999 -RA FEW020 BKN100 25/23 A2977 RMK CB NE E S=
200709172200 METAR MRLB 172200Z 10005KT 9999 3000E -RA SCT020 BKN100 26/24 A2979=
200709172300 METAR MRLB 172300Z 02003KT 9999 -RA SCT020 BKN100 25/24 A2979 RMK TS S=
200709180000 METAR MRLB 180000Z 17003KT 9999 SCT020 BKN100 25/24 A2979 RMK TS RN DST SW=
200709180100 METAR MRLB 180100Z 0302KT 9999 -RA FEW020 BKN100 24/23 A2982=
200709180200 METAR MRLB 180200Z 14002KT 9999 -RA FEW020 BKN100 24/24 A2984=
200709180300 METAR MRLB NIL=
200709180400 METAR MRLB NIL=
200709180500 METAR MRLB NIL=
200709180600 METAR MRLB NIL=
200709180700 METAR MRLB NIL=
200709180800 METAR MRLB NIL=
200709180900 METAR MRLB NIL=
200709181000 METAR MRLB NIL=
200709181100 METAR MRLB NIL=
200709181200 METAR MRLB 181200Z 07004KT CAVOK 23/22 A2982 RMK TRAZAS CU/SC SCT250 BANCOS NIEBLA SW/W/NW=
200709181300 METAR MRLB 181300Z 00000KT CAVOK 26/23 A2984 RMK ST LOW S SW W TRACE AC SCT250=
200709181400 METAR MRLB 181400Z 00000KT CAVOK 28/23 A2987 RMK TRACE CU BKN120 FEW250=
200709181500 METAR MRLB 181500Z 25004KT 9999 FEW030 BKN120 28/24 A2988 RMK FEW250=
200709181600 METAR MRLB 181600Z 24003KT 9999 SCT020 SCT130 30/24 A2986=
200709181700 METAR MRLB 181700Z 25006KT 9999 BKN030 SCT120 30/24 A2986=
200709181800 METAR MRLB 181800Z 25005KT 9999 FEW030 BKN250 30/25 A2983 RMK TCU E FEW130=
200709181900 METAR MRLB 181900Z 26011KT 9999 FEW020TCU SCT030 30/25 A2981 RMK FEW120 FEW250 RN SW N NE E=
200709182000 METAR MRLB 182000Z 29011KT 9999 VCSH SCT010TCU FEW020 SCT120 30/25 A2980 RMK VIS E 7000 RASH S=
200709182100 METAR MRLB 182100Z 29010KT 9999 VCSH SCT015 BKN120 28/24 A2980 VSBY NE 6KM=
200709182200 METAR MRLB 182200Z 27010KT 9999 SCT015 BKN120 28/24 A2979=
200709182300 METAR MRLB 182300Z 26006KT 9999 FEW020 BKN120 27/24 A2980 RN N NE=
200709190000 METAR MRLB NIL=
200709190100 METAR MRLB 190100Z 28004KT 9999 FEW020 BKN100 26/24 A2983=
200709190200 METAR MRLB NIL=
200709190300 METAR MRLB NIL=
200709190400 METAR MRLB NIL=
200709190500 METAR MRLB NIL=
200709190600 METAR MRLB NIL=
200709190700 METAR MRLB NIL=
200709190800 METAR MRLB NIL=
200709190900 METAR MRLB NIL=
200709191100 METAR MRLB NIL=
200709191200 METAR MRLB 191200Z 34004KT 8000 VCFG SCT005CB BKN025 24/24 A2982 DZ ARND=
200709191300 METAR MRLB 191300Z 31005KT 8000 DZ VCFG SCT010CB BKN030 24/24 A2984=
200709191400 METAR MRLB 191400Z 27005KT 8000 DZ FEW010CB SCT020 24/24 A2986=
200709191500 METAR MRLB 191500Z 24003KT 9000 DZ FEW010 SCT025 BKN120 24/23 A2987=
200709191600 METAR MRLB 191600Z 26005KT 9000 DZ FEW010 BKN100 24/23 A2987 LOW ST ARND=
200709191700 METAR MRLB 191700Z 24005KT 8000 DZ SCT008 BKN025 24/23 A2985=
200709191800 METAR MRLB NIL=
200709191900 METAR MRLB 191900Z 28007KT 9999 SCT010 BKN180 26/24 A2981 RERA=
200709192000 METAR MRLB 192000Z 29010KT 9999 SCT010 BKN200 27/23 A2978=
200709192100 METAR MRLB 192100Z 29007KT 9999 SCT012 BKN250 27/24 A2977=
200709192200 METAR MRLB 192200Z 28009KT 9999 SCT015 BKN250 27/24 A2977=
200709192300 METAR MRLB 192300Z 26007KT 9999 FEW012 SCT150 BKN250 26/24 A2978=
200709200000 METAR MRLB 200000Z 26007KT 9999 FEW015 BKN180 25/24 A2980=
200709200100 METAR MRLB 200100Z 29005KT 9999 SCT012 BKN150 25/24 A2983=
200709200200 METAR MRLB 200200Z 28004KT 9999 SCT015 BKN180 25/24 A2985=
200709200300 METAR MRLB NIL=
200709200400 METAR MRLB NIL=
200709200500 METAR MRLB NIL=
200709200600 METAR MRLB NIL=
200709200700 METAR MRLB NIL=
200709200800 METAR MRLB NIL=
200709200900 METAR MRLB NIL=
200709201000 METAR MRLB NIL=
200709201100 METAR MRLB NIL=
200709201200 METAR MRLB 201200Z 04004KT 3000SW -RA BR SCT010 BKN020 24/24 A2981 RMK BANCOS DE NIEBLA AL N=
200709201300 METAR MRLB 201300Z 04002KT 4000 1500SW DZBR OVC012 24/24 A2983=
200709201400 METAR MRLB 201400Z 06002KT 9999 FEW010 SCT030 BKN100 24/24 A2983 RMK LOW ST SW W N=
200709201500 METAR MRLB 201500Z 16002KT 9999 SCT035 BKN100 25/24 A2985 RMK LOW ST S SW=
200709201600 METAR MRLB 201600Z 17004KT 9999 SCT020 SCT120 27/25 A2984=
200709201700 METAR MRLB 201700Z 19005KT 9999 BKN025 SCT120 27/24 A2983 RMK RN DST N NE=
200709201800 METAR MRLB 201800Z 19006KT 9999 -RA SCT020 BKN030 27/25 A2981 RMK RASH DST N NE=
200709201900 METAR MRLB 201900Z 17008KT 9999 4000NW DZBR SCT010 SCT020 25/24 A2979 RMK RN N NE CB DST N=
200709202000 METAR MRLB 202000Z 25004KT 2000 RA BR SCT010 SCT020 25/25 A2977 RMK UNL SE=
200709202100 METAR MRLB 202100Z 24004KT 6000 -RA SCT010 BKN080 25/24 A2977 RMK VIS W UNL=
200709202200 METAR MRLB 202200Z 22005KT 6000 -RA BR SCT005 BKN090 24/24 A2976=
200709202300 METAR MRLB 202300Z 24004KT 9999 -RA SCT008 BKN090 24/24 A2977 RMK SW 5KMS=
200709210000 METAR MRLB 210000Z 23003KT 9999 OVC010 24/24 A2978 RMK RN DST SW=
200709210100 METAR MRLB 210100Z 23002KT 9999 SCT015 SCT100 24/24 A2980=
200709210200 METAR MRLB 210200Z 00000KT 9999 SCT015 SCT100 24/24 A2983=
200709210300 METAR MRLB NIL=
200709210400 METAR MRLB NIL=
200709210500 METAR MRLB NIL=
200709210600 METAR MRLB NIL=
200709210700 METAR MRLB NIL=
200709210800 METAR MRLB NIL=
200709210900 METAR MRLB NIL=
200709211000 METAR MRLB NIL=
200709211100 METAR MRLB NIL=
200709211200 METAR MRLB 211200Z 22003KT 9999 2000SW -RA BR SCT015 SCT100 24/24 A2980=
200709211300 METAR MRLB 211300Z 14002KT 7000 SCT010 SCT100 24/24 A2982 RMK VIS NE/E/SE UNL=
200709211400 METAR MRLB 211400Z 13003KT 9999 FEW005 BKN012 25/24 A2985 RMK FEW120 VIS S 8KMS DUE SCT BAJOS=
200709211500 METAR MRLB 211500Z 17003KT 9999 SCT010 BKN100 25/25 A2986=
200709211600 METAR MRLB 211600Z 20003KT 9999 FEW010 SCT020 BKN120 26/24 A2987 RMK RN DST S/SW=
200709211700 METAR MRLB 211700Z 25006KT 9999 -DZ SCT008 SCT018 25/25 A2986 RMK FEW120=
200709211800 METAR MRLB 211800Z 25004KT 9999 -RA VCSH SCT010 BKN100 25/24 A2984 RMK VIS N/NE 6KMS=
200709211900 METAR MRLB 211900Z 27004KT 9999 -RA SCT010 BKN100 25/24 A2983=
200709212000 METAR MRLB 212000Z 24003KT 9999 -RA SCT010 BKN100 25/24 A2980=
200709212100 METAR MRLB NIL=
200709212200 METAR MRLB 212200Z 25005KT 9999 -RA SCT010 BKN100 25/24 A2980=
200709212300 METAR MRLB 212300Z 25004KT 9999 4000SW -RA BR SCT005 SCT010 24/24 A2980=
200709220000 METAR MRLB 220000Z 22002KT 9999 -RA OVC010 25/24 A2982=
200709220100 METAR MRLB NIL=
200709220200 METAR MRLB NIL=
200709220300 METAR MRLB NIL=
200709220400 METAR MRLB NIL=
200709220500 METAR MRLB NIL=
200709220600 METAR MRLB NIL=
200709220700 METAR MRLB NIL=
200709220800 METAR MRLB NIL=
200709220900 METAR MRLB NIL=
200709221000 METAR MRLB NIL=
200709221100 METAR MRLB NIL=
200709221200 METAR MRLB NIL=
200709221300 METAR MRLB 221300Z 03003KT 3000 DZ SCT008 OVC090 24/24 A2985=
200709221400 METAR MRLB 221400Z 03003KT 6000 2000SW -RA SCT010 OVC090 25/24 A2987=
200709221500 METAR MRLB 221500Z 00000KT 4000 SCT010 OVC100 26/24 A2988=
200709221600 METAR MRLB 221600Z 28007KT 9999 DZ FEW010 BKN025 26/24 A2988=
200709221700 METAR MRLB 221700Z 28005KT 9999 SCT020 BKN120 29/25 A2985 RMK RN DST N=
200709221800 METAR MRLB 221800Z 27005KT 9999 SCT025 BKN130 28/25 A2983 RMK RN DST E NE=
200709221900 METAR MRLB 221900Z 29008KT 9999 SCT025 OVC130 28/25 A2981 RMK RN DST N=
200709222000 METAR MRLB 222000Z 30007KT 9999 3000E RA FEW010TCU SCT025 OVC120 27/24 A2980=
200709222100 METAR MRLB 222100Z 27006KT 9999 SCT025 BKN120 27/25 A2979 RMK RN S=
200709222200 METAR MRLB 222200Z 27007KT 9999 SCT030 BKN130 27/24 A2979=
200709222300 METAR MRLB 222300Z 28008KT 9999 FEW030 OVC130 27/24 A2981=
200709230000 METAR MRLB 230000Z 26005KT 9999 SCT030 BKN120 26/24 A2982 RMK RN DST NE=
200709230100 METAR MRLB 230100Z 00000KT 9999 DZ SCT030 OVC120 26/25 A2985=
200709230200 METAR MRLB 230200Z 13002KT 6000 -RA SCT020 OVC100 24/24 A2988=
200709230300 METAR MRLB NIL=
200709230400 METAR MRLB NIL=
200709230500 METAR MRLB NIL=
200709230600 METAR MRLB NIL=
200709230700 METAR MRLB NIL=
200709230800 METAR MRLB NIL=
200709230900 METAR MRLB NIL=
200709231000 METAR MRLB NIL=
200709231100 METAR MRLB NIL=
200709231200 METAR MRLB 231200Z 00000KT 0500 FG SCT001 BKN020 24/24 A2987=
200709231300 METAR MRLB 231300Z 00000KT 6000 BR FEW001 SCT012 BKN100 25/24 A2989=
200709231400 METAR MRLB 231400Z 00000KT 9999 SCT010 BKN250 27/24 A2991 RMK HZ ARND=
200709231500 METAR MRLB 231500Z 00000KT 9999 SCT012 BKN250 28/24 A2992=
200709231600 METAR MRLB 231600Z 30004KT 9999 SCT015 BKN220 28/24 A2991=
200709231700 METAR MRLB 231700Z 28005KT 9999 SCT025 BKN240 30/24 A2989=
200709231800 METAR MRLB 231800Z 30007KT 9999 SCT015TCU BKN240 30/24 A2986=
200709231900 METAR MRLB 231900Z 28008KT 9999 FEW015TCU SCT100 BKN240 29/24 A2983=
200709232000 METAR MRLB NIL=
200709232100 METAR MRLB 232100Z 27008KT 9999 SCT025TCU BKN230 29/25 A2979 CB E SE=
200709232200 METAR MRLB 232200Z 28005KT 9999 SCT020 BKN240 27/25 A2979=
200709232300 METAR MRLB 232300Z 28005KT 9999 SCT020 BKN230 27/25 A2981=
200709240000 METAR MRLB 240000Z 23004KT 9999 SCT020 BKN120 26/25 A2984=
200709240100 METAR MRLB 240100Z 00000KT 9999 SCT020 BKN140 26/25 A2986 LTNG DIST S=
200709240200 METAR MRLB 240200Z 00000KT 9999 SCT020 BKN100 25/24 A2988=
200709240300 METAR MRLB NIL=
200709240400 METAR MRLB NIL=
200709240500 METAR MRLB NIL=
200709240600 METAR MRLB NIL=
200709240700 METAR MRLB NIL=
200709240800 METAR MRLB NIL=
200709240900 METAR MRLB NIL=
200709241000 METAR MRLB NIL=
200709241100 METAR MRLB NIL=
200709241200 METAR MRLB 241200Z 00000KT 0200 FG VV/// 24/24 A2987=
200709241300 METAR MRLB 241300Z 10002KT 2000 BR SCT003 SCT010 24/23 A2989=
200709241400 METAR MRLB 241400Z 27004KT 9999 SCT008 SCT020 25/24 A2990=
200709241500 METAR MRLB 241500Z 28003KT 9999 SCT030 BKN250 28/24 A2991=
200709241600 METAR MRLB 241600Z 28003KT 9999 FEW035 BKN250 29/25 A2990=
200709241700 METAR MRLB 241700Z 28002KT 9999 FEW035 BKN250 30/24 A2987=
200709241800 METAR MRLB 241800Z 34002KT 9999 SCT035 BKN250 31/25 A2983=
200709241900 METAR MRLB 241900Z 28007KT 9999 SCT035 OVC250 31/24 A2980=
200709242000 METAR MRLB 242000Z 28007KT 9999 SCT035 OVC250 30/24 A2976=
200709242100 METAR MRLB 242100Z 27005KT 9999 FEW035 BKN140 28/25 A2975 RMK RN DST S=
200709242200 METAR MRLB 242200Z 27004KT 9999 FEW035 BKN140 28/25 A2976=
200709242300 METAR MRLB 242300Z 23003KT 9999 FEW035 OVC140 27/25 A2978=
200709250000 METAR MRLB 250000Z 20004KT 9999 FEW035 BKN140 26/25 A2980=
200709250100 METAR MRLB 250100Z 14005KT 9999 FEW035 BKN220 26/24 A2982=
200709250200 METAR MRLB NIL=
200709250300 METAR MRLB NIL=
200709250400 METAR MRLB NIL=
200709250500 METAR MRLB NIL=
200709250600 METAR MRLB NIL=
200709250700 METAR MRLB NIL=
200709250800 METAR MRLB NIL=
200709250900 METAR MRLB NIL=
200709251000 METAR MRLB NIL=
200709251100 METAR MRLB NIL=
200709251200 METAR MRLB 251200Z 04003KT 0400 FG SCT250 23/23 A2984 RMK CB S W=
200709251300 METAR MRLB 251300Z 00000KT 0800 FG FEW005 SCT250 25/24 A2987 RMK VIS UNL SE/S/SW=
200709251400 METAR MRLB 251400Z 19002KT 9999 FEW005 SCT012 26/24 2989 RMK FEW250 CD DST SW=
200709251500 METAR MRLB 251500Z 18005KT 9999 FEW030 28/24 A2991 RMK FEW250=
200709251600 METAR MRLB 251600Z 12004KT 9999 FEW030 30/24 A2990 RMK FEW250=
200709251700 METAR MRLB 251700Z 11006KT 9999 SCT030 32/22 A2988 RMK FEW250=
200709251800 METAR MRLB 251800Z 11007KT 9999 SCT030 34/21 A2986 RMK FEW250=
200709251900 METAR MRLB 251900Z 13007KT 9999 SCT03033/21 2983 RMK FEW250 TCU DST S/SE=
200709252000 METAR MRLB 252000Z 28010KT 9999 SCT030 31/25 A2980 RMK TCU DST E/S FEW250=
200709252100 METAR MRLB 252100Z 28010KT 9999 FEW030 SCT250 30/25 A2979 RMK CB DST SSW=
200709252200 METAR MRLB 252200Z 28010KT 9999 SCT025 BKN250 30/25 A2981 RMK RN DST=
200709252300 METAR MRLB 252300Z 21006KT 9999 -RA BKN020 28/25 A2982 RMK TS DST E=
200709260000 METAR MRLB 260000Z 30003KT 9999 -TSRA FEW010CB FEW020 SCT120 24/23 A2986=
200709260100 METAR MRLB 260100Z 02004KT 9999 FEW020 SCT120 23/22 A2987=
200709260200 METAR MRLB 260200Z 36004KT 9999 FEW020 NBKN120 23/22 A2988=
200709260300 METAR MRLB NIL=
200709260400 METAR MRLB NIL=
200709260500 METAR MRLB NIL=
200709260600 METAR MRLB NIL=
200709260700 METAR MRLB NIL=
200709260800 METAR MRLB NIL=
200709260900 METAR MRLB NIL=
200709261000 METAR MRLB NIL=
200709261100 METAR MRLB NIL=
200709261200 METAR MRLB 271200Z 00000KT 9999 3000S BR BKN030 23/23 A2989 CB DSTSW FG BANK S SW=
200709261300 METAR MRLB 261300Z 00000KT 9999 FEW010 BKN250 26/24 A2991 ST BAJOS S/SW/W BANCOS NIEBLA N=
200709261400 METAR MRLB 261400Z 23002KT 9999 SCT020 BKN250 27/25 A2992=
200709261500 METAR MRLB 261500Z 27003KT 9999 SCT030 BKN250 28/24 A2993=
200709261600 METAR MRLB 261600Z 36003KT 9999 SCT030 SCT250 30/24 A2992=
200709261700 METAR MRLB 261700Z 28005KT 9999 BKN030 SCT250 31/24 A2989=
200709261800 METAR MRLB 261800Z 30005KT 9999 BKN030 30/24 A2986 FEW250=
200709261900 METAR MRLB 261900Z 28009KT 9999 FEW025TCU SCT030 30/25 A2984 RMK FEW250 CB DST NNW RN DST NE/SSE=
200709262000 METAR MRLB 262000Z 27010KT 9999 SCT015TCU SCT120 28/24 A2983 RMK RN DST N/NW RASH E/SW=
200709262100 METAR MRLB 262100Z 27006KT 9999 FEW020 BKN120 27/25 A2981 RMK RN DST E LINEA DE TCU N SE=
200709262200 METAR MRLB 262200Z 08007KT 9999 SCT020 BK0N120 27/25 A2981 RMK CBS DST N NE RN NE=
200709262300 METAR MRLB 262300Z 26005KT 9999 FEW020 BKN120 27/25 A2982 RMK FEW250 CB DST NE=
200709270000 METAR MRLB 270000Z 22003KT 9999 FEW020 BKN120 26/25 A2983 RMK CB DST SE=
200709270100 METAR MRLB NIL=
200709270200 METAR MRLB 270200Z 18002KT 9999 FEW025 SCT120 26/25 A2985=
200709270300 METAR MRLB NIL=
200709270400 METAR MRLB NIL=
200709270500 METAR MRLB NIL=
200709270600 METAR MRLB NIL=
200709270700 METAR MRLB NIL=
200709270800 METAR MRLB NIL=
200709270900 METAR MRLB NIL=
200709271000 METAR MRLB NIL=
200709271100 METAR MRLB NIL=
200709271200 METAR MRLB 271200Z 00000KT 9999 SCT010 BKN250 23/23 A2986 RMK FOG BKNS DST ARND=
200709271300 METAR MRLB 271300Z 31004KT 0300 FG SCT001 BKN010 24/24 A2987=
200709271400 METAR MRLB 271400Z 04004KT 9999 FEW010 BKN250 27/24 A2987=
200709271500 METAR MRLB 271500Z 00000KT 9999 FEW015 SCT250 29/25 A2986=
200709271600 METAR MRLB 271600Z 25006KT 9999 SCT020 BKN250 29/24 A2987=
200709271700 METAR MRLB 271700Z 28008KT 9999 SCT025TCU BKN250 31/24 A2985=
200709271800 METAR MRLB 271800Z 28007KT 9999 FEW020TCU SCT035 BKN250 31/23 A2982 RN DST S N=
200709271900 METAR MRLB 271900Z 25010KT 9999 SCT025TCU BKN250 31/25 A2978 RN DST N=
200709272000 METAR MRLB 272000Z 28007KT 9999 SCT015CB BKN240 29/25 A2976 RERA=
200709272100 METAR MRLB 272100Z 28010KT 9999 SCT020TCU BKN250 31/24 A2975 RMK RN NE E S=
200709272200 METAR MRLB 272200Z 24004KT 9000 DZ SCT015CB BKN100 25/25 A2975=
200709272300 METAR MRLB 272300Z 19007KT 9999 -DZ FEW010CB SCT025 BKN200 24/24 A2976RMK CB RN S SW=
200709280000 METAR MRLB 280000Z 26004KT 9999 SCT020CB BKN180 24/24 A2978 RMK CB S SW=
200709280100 METAR MRLB 280100Z 00000KT 9999 SCT020CB BKN150 24/23 A2980 RMK LTNG DST W=
200709280200 METAR MRLB 280200Z 00000KT 9999 SCT020 BKN120 24/23 A2982=
200709280300 METAR MRLB NIL=
200709280400 METAR MRLB NIL=
200709280500 METAR MRLB NIL=
200709280600 METAR MRLB NIL=
200709280700 METAR MRLB NIL=
200709280800 METAR MRLB NIL=
200709280900 METAR MRLB NIL=
200709281000 METAR MRLB NIL=
200709281100 METAR MRLB NIL=
200709281200 METAR MRLB 281200Z 00000KT 1500 BR SCT002 SCT250 24/23 A2980=
200709281300 METAR MRLB 281300Z 00000KT 9999 2000SW BR SCT004 BKN130 25/24 A2982=
200709281400 METAR MRLB 281400Z 21003KT 9999 SCT030 BKN240 26/25 A2984=
200709281500 METAR MRLB 281500Z 19003KT 9999 FEW035 BKN250 28/25 A2985=
200709281600 METAR MRLB 281600Z 19005KT 9999 SCT035 BKN250 30/25 A2984=
200709281700 METAR MRLB 281700Z 13005KT 9999 SCT035 BKN250 31/24 A2983=
200709281800 METAR MRLB 281800Z 10004KT 9999 SCT035 OVC250 33/24 A2979=
200709281900 METAR MRLB 281900Z 08005KT 9999 FEW035 BKN250 33/22 A2976=
200709282000 METAR MRLB 282000Z 15003KT 9999 SCT035 OVC250 31/24 A2974=
200709282100 METAR MRLB 282100Z 20003KT 9999 SCT035 OVC250 30/25 A2972=
200709282200 METAR MRLB 282200Z 08006KT 9999 SCT035 OVC240 30/22 A2972=
200709282300 METAR MRLB 282300Z 23003KT 9999 FEW035 BKN220 28/23 A2973=
200709290000 METAR MRLB 290000Z 13005KT 9999 FEW030 BKN140 27/23 A2975=
200709290100 METAR MRLB 290100Z 15007KT 9999 SCT035 SCT140 26/23 A2977=
200709290200 METAR MRLB NIL=
200709290300 METAR MRLB NIL=
200709290400 METAR MRLB NIL=
200709290500 METAR MRLB NIL=
200709290600 METAR MRLB NIL=
200709290700 METAR MRLB NIL=
200709290800 METAR MRLB NIL=
200709290900 METAR MRLB NIL=
200709291000 METAR MRLB NIL=
200709291100 METAR MRLB NIL=
200709291200 METAR MRLB 291200Z 00000KT 9999 2000SW BR BKN120 23/22 A2979=
200709291300 METAR MRLB 291300Z 00000KT 9999 VCFG BKN120 24/23 A2982 RMK VIS S/SW 7KM HZ LEVE ARND LOW ST W/NE=
200709291400 METAR MRLB 291400Z 00000KT 9999 SCT015 27/24 A2984 RMK FEW120=
200709291500 METAR MRLB 291500Z 19003KT 9999 FEW030 29/24 A2985 TRAZAS AC=
200709291600 METAR MRLB 291600Z 16003KT 9999 SCT030 31/24 A2985=
200709291700 METAR MRLB 291700Z 17004KT 9999 FEW025 SCT030 32/24 A2982=
200709291800 METAR MRLB 291800Z 12007KT 9999 FEW025 SCT035 32/23 A2980=
200709291900 METAR MRLB 291900Z 10005KT 9999 SCT035 SCT130 33/23 A2977=
200709292000 METAR MRLB 292000Z 30008KT 9999 BKN030 31/24 A2976=
200709292100 METAR MRLB 292100Z 29004KT 9999 FEW020 BKN030 30/26 A2974 RMK RASH DST W=
200709292200 METAR MRLB 292200Z 28007KT 9999 FEW010CB FEW020 SCT250 30/25 A2974 RMK RAH DST S=
200709292300 METAR MRLB 292300Z 25006KT 9999 SCT020 SCT120 29/24 A2976 RMK RN DST E/SE/S FEW250=
200709300000 METAR MRLB 300000Z 18005KT 9999 BKN020 SCT120 27/25 A2979 RMK RN DST E/S=
200709300100 METAR MRLB 300100Z 18007KT 9999 SCT025 SCT130 26/25 A2981 RMK LTNG DST S=
200709300200 METAR MRLB 300200Z 20003KT 9999 SCT025 BKN130 25/25 A2980=
200709300300 METAR MRLB NIL=
200709300400 METAR MRLB NIL=
200709300500 METAR MRLB NIL=
200709300600 METAR MRLB NIL=
200709300700 METAR MRLB NIL=
200709300800 METAR MRLB NIL=
200709300900 METAR MRLB NIL=
200709301000 METAR MRLB NIL=
200709301100 METAR MRLB NIL=
200709301200 METAR MRLB 301200Z 18002KT 0100 FG VV002 23/23 A2983=
200709301300 METAR MRLB 301300Z 00000KT 2500 BR SCT020 BKN250 24/24 A2987 RMK CB DST W=
200709301400 METAR MRLB 301400Z 00000KT 9999 FEW008 SCT120 BKN250 26/25 A2989 RMK TCU DST NE=
200709301500 METAR MRLB 301500Z 02003KT 9999 FEW015 BKN120 27/25 A2990 RMK FEW200 TCU DST NE=
200709301600 METAR MRLB 301600Z 36003KT 9999 FEW020TCU BKN120 28/25 A2990 RMK CB DST NE=
200709301700 METAR MRLB 301700Z 28006KT 9999 SCT025 SCT120 29/25 A2990=
200709301800 METAR MRLB NIL=
200709301900 METAR MRLB 301900Z 27003KT 9999 FEW030 SCT120 29/24 A2982=
200709302000 METAR MRLB 302000Z 30005KT 9999 SCT030 BKN130 29/24 A2978=
200709302100 METAR MRLB 302100Z 26007KT 9999 FEW030 SCT130 BKN250 30/25 A2978=
200709302200 METAR MRLB 302200Z 22004KT 9999 FEW020 BKN130 28/25 A2977 FEW250=
200709302300 METAR MRLB 302300Z 31004KT 9999 FEW025 BKN130 27/25 A2979 RMK RN DST S=
200710010000 METAR MRLB 010000Z 30003KT 9999 FEW025 BKN120 26/25 A2981=
200710010100 METAR MRLB 010100Z 00000KT 9999 FEW025 BKN120 26/25 A2984=
200710010200 METAR MRLB NIL=
200710010300 METAR MRLB NIL=
200710010400 METAR MRLB NIL=
200710010500 METAR MRLB NIL=
200710010600 METAR MRLB NIL=
200710010700 METAR MRLB NIL=
200710010800 METAR MRLB NIL=
200710010900 METAR MRLB NIL=
200710011000 METAR MRLB NIL=
200710011100 METAR MRLB NIL=
200710011200 METAR MRLB 011200Z 05004KT CAVOK 23/22 A2986 FEW100 SCT250 CB S SW=
200710011300 METAR MRLB 011300Z 03004KT CAVOK 25/23 A2987 TCU DST W SCT250=
200710011400 METAR MRLB 011400Z 00000KT CAVOK 27/23 A2989 SCT250=
200710011500 METAR MRLB 011500Z 00000KT 9999 FEW020 SCT250 29/24 A2987=
200710011600 METAR MRLB 011600Z 16007KT 9999 SCT015 BKN250 30/24 A2987=
200710011700 METAR MRLB 011700Z 17004KT 9999 SCT015TCU BKN250 32/24 A2985=
200710011800 METAR MRLB 011800Z 28007KT 9999 SCT020TCU BKN250 31/24 A2983=
200710011900 METAR MRLB 011900Z 26012KT 9999 SCT020TCU BKN250 32/25 A2980 RMK RN DST S/E=
200710012000 METAR MRLB 012000Z 25010KT 9999 SCT015CB BKN250 28/26 A2978 RMK CB/RN DST S/E=
200710012100 METAR MRLB 012100Z 00000KT 9999 SCT015TCU BKN250 27/26 A2979=
200710012200 METAR MRLB 012200Z 00000KT 9999 SCT020TCU BKN250 27/26 A2979 RERA=
200710012300 METAR MRLB 012300Z 05009KT 0300 +RA SCT001 BKN020 24/23 A2981 RMK VIS N UNLTD=
200710020000 METAR MRLB 02000Z 09004KT 9999 FEW010 SCT025 BKN140 24/23 A2982=
200710020100 METAR MRLB 020100Z 00000KT 9999 -DZ SCT012 BKN100 24/23 A2985 LTNG DST S=
200710020200 METAR MRLB 020200Z 00000KT 9999 SCT020 BKN120 24/23 A2987=
200710020300 METAR MRLB NIL=
200710020400 METAR MRLB NIL=
200710020500 METAR MRLB NIL=
200710020600 METAR MRLB NIL=
200710020700 METAR MRLB NIL=
200710020800 METAR MRLB NIL=
200710020900 METAR MRLB NIL=
200710021000 METAR MRLB NIL=
200710021100 METAR MRLB NIL=
200710021200 METAR MRLB 021200Z 06003KT 9999 SCT030 BKN130 23/23 A2985=
200710021300 METAR MRLB 021300Z 10002KT 9999 SCT035 25/23 A2986=
200710021400 METAR MRLB 021400Z 00000KT 9999 SCT035 BKN240 27/25 A2988=
200710021500 METAR MRLB 021500Z 16004KT 9999 SCT035 OVC250 28/25 A2988=
200710021600 METAR MRLB 021600Z 16006KT 9999 SCT035 OVC250 28/24 A2989=
200710021700 METAR MRLB 021700Z 13006KT 9999 SCT035 BKN250 30/24 A2988=
200710021800 METAR MRLB 021800Z 10004KT 9999 FEW020TCU SCT030 OVC250 32/24 A2985 RMK RN DST SW=
200710021900 METAR MRLB 021900Z 22013KT 1000 +RA BR FEW010 FEW015CB BKN020 25/23 A2985=
200710022000 METAR MRLB 022000Z 14005KT 9999 SCT030 BKN130 24/23 A2981 RMK RN DST E=
200710022100 METAR MRLB 022100Z 18002KT 9999 SCT035 BKN140 25/24 A2982=
200710022200 METAR MRLB 022200Z 09003KT 9999 SCT030 OVC130 26/24 A2981 RMK RN S=
200710022300 METAR MRLB 022300Z 04002KT 9999 SCT030 BKN140 25724 A2982 RMK RN E NE=
200710030000 METAR MRLB 030000Z 10004KT 9999 SCT035 BKN140 25/24 A2983 RMK RN N=
200710030100 METAR MRLB 030100Z 30003KT 9999 FEW030 OVC130 25/24 A2985=
200710030200 METAR MRLB 030200Z 00000KT 9999 SCT030 BKN130 25/24 A2986=
200710030300 METAR MRLB NIL=
200710030400 METAR MRLB NIL=
200710030500 METAR MRLB NIL=
200710030600 METAR MRLB NIL=
200710030700 METAR MRLB NIL=
200710030800 METAR MRLB NIL=
200710030900 METAR MRLB NIL=
200710031000 METAR MRLB NIL=
200710031100 METAR MRLB NIL=
200710031200 METAR MRLB 031200Z 10002KT 9999 -RA SCT020 BKN120 25/22 A2985=
200710031300 METAR MRLB 031300Z 11002KT 9999 FEW005 SCT020 BKN120 25/24 A2987=
200710031400 METAR MRLB 031400Z 20003KT 9999 BKN015 SCT020 26/24 A2988 RMK RN S=
200710031500 METAR MRLB 031500Z 20004KT 9999 -RA SCT015 BKN120 25/24 A 2990=
200710031600 METAR MRLB 031600Z 18005KT 999 SCT015 BKN120 27/25 A29990 RMK RN NE=
200710031700 METAR MRLB 031700Z 20005KT 9999 SCT020 BKN120 29/25 A2989 RMK RN SE FEW250=
200710031800 METAR MRLB 031800Z 19005KT 9999 SCT020 SCT120 30/26 A2987 RMK RN SE S N FEW250=
200710031900 METAR MRLB 031900Z 14007KT 9999 SCT015TCU BKN130 28/24 A2984 RMK RASH N SW W NW=
200710032000 METAR MRLB 032000Z 25003KT 9999 -RA SCT010 BKN100 25/24 A2983=
200710032100 METAR MRLB 032100Z 00000KT 9999 -RA FEW015 BKN100 26/24 A2983 RMK TCU S SW=
200710032200 METAR MRLB 032200Z 34003KT 9999 FEW020 BKN120 26/24 A2980 RMK RN S SW=
200710032300 METAR MRLB 032300Z 30002KT 9999 SCT020 BKN120 27/24 A2983 RMK CB RN S SW=
200710040000 METAR MRLB 040000Z 35002KT 9999 FEW020 BKN120 26/24 A2984 RN DST SW=
200710040100 METAR MRLB 040100Z 19002KT 9999 FEW020 BKN120 25/24 A2986=
200710040200 METAR MRLB 040200Z 00000KT 9999 FEW020 BKN120 25/24 A2988=
200710040300 METAR MRLB NIL=
200710040400 METAR MRLB NIL=
200710040500 METAR MRLB NIL=
200710040600 METAR MRLB NIL=
200710040700 METAR MRLB NIL=
200710040800 METAR MRLB NIL=
200710040900 METAR MRLB NIL=
200710041000 METAR MRLB NIL=
200710041100 METAR MRLB NIL=
200710041200 METAR MRLB 041200Z 00000KT 1000 BR SCT001 BKN060 24/24 A2984=
200710041300 METAR MRLB 041300Z 12004KT 9999 FEW005 BKN250 25/24 A2986 LW ST SW W=
200710041400 METAR MRLB 041400Z 15004KT 9999 SCT010 BKN250 26/25 A2987=
200710041500 METAR MRLB 041500Z 17005KT 9999 SCT015 BKN250 28/25 A2988=
200710041600 METAR MRLB 041600Z 22005KT 9999 SCT020TCU BKN250 28/25 A2987=
200710041700 METAR MRLB 041700Z 24007KT 9999 FEW015TCU SCT040 BKN250 30/25 A2982=
200710041800 METAR MRLB 041800Z 24007KT 9999 FEW015TCU SCT040 BKN250 30/25 A2982=
200710041900 METAR MRLB 041900Z 29010KT 9999 SCT015TCU BKN220 30/24 A2980 RN N E S=
200710042000 METAR MRLB 042000Z 30007KT 9999 FEW015TCU SCT100 BKN220 28/24 A2978=
200710042100 METAR MRLB 042100Z 28004KT 9999 SCT015TCU BKN220 27/24 A2978=
200710042200 METAR MRLB 042200Z 24005KT 9999 SCT020 BKN140 27/24 A2978=
200710042300 METAR MRLB 042300Z 22004KT 9999 FEW025 BKN220 27/24 A2980=
200710050000 METAR MRLB 050000Z 17004KT 9999 SCT020 BKN100 26/24 A2981 RMK RN E/S=
200710050100 METAR MRLB 050100Z 00000KT 9999 DZ SCT020 BKN150 26/25 A2983 RMK LTNG N=
200710050200 METAR MRLB NIL=
200710050300 METAR MRLB NIL=
200710050400 METAR MRLB NIL=
200710050500 METAR MRLB NIL=
200710050600 METAR MRLB NIL=
200710050700 METAR MRLB NIL=
200710050800 METAR MRLB NIL=
200710050900 METAR MRLB NIL=
200710051000 METAR MRLB NIL=
200710051100 METAR MRLB NIL=
200710051200 METAR MRLB NIL=
200710051300 METAR MRLB 051300Z 04002KT CAVOK 25/23 A2985 RMK BKN250=
200710051400 METAR MRLB 051400Z 08002KT CAVOK 27/24 A2986 RMK BKN250 TRAZAS CU=
200710051500 METAR MRLB 051500Z 17002KT 9999 FEW035 BKN250 28/24 A2987=
200710051600 METAR MRLB 051600Z 00000KT 9999 FEW035 BKN250 30/25 A2986=
200710051700 METAR MRLB 051700Z 28003KT 9999 SCT035 SCT250 31/24 A2984=
200710051800 METAR MRLB 051800Z 27006KT 9999 SCT035 BKN250 31/25 A2981=
200710051900 METAR MRLB 051900Z 29008KT 9999 SCT030 BKN140 29/24 A2979 RMK RN DST E/NE=
200710052000 METAR MRLB 052000Z 00000KT 9999 SCT030 BKN120 28/24 A2977 RERA RMK RN DST N/NE=
200710052100 METAR MRLB 052100Z 13005KT 9999 SCT030 OVC120 25/23 A2976 RN DST S=
200710052200 METAR MRLB 052200Z 10003KT 9999 FEW035 BKN120 25/23 A2977 RN DST N=
200710052300 METAR MRLB 052300Z 04002KT 9999 FEW030 OVC120 25/24 A2978 RN DST N=
200710060000 METAR MRLB 060000Z 10002KT 9999 SCT035 OVC120 25/24 A2979 RN DST NE=
200710060100 METAR MRLB 060100Z 00000KT 9999 SCT030 BKN130 25/24 A2982=
200710060200 METAR MRLB NIL=
200710060300 METAR MRLB NIL=
200710060400 METAR MRLB NIL=
200710060500 METAR MRLB NIL=
200710060600 METAR MRLB NIL=
200710060700 METAR MRLB NIL=
200710060800 METAR MRLB NIL=
200710060900 METAR MRLB NIL=
200710061000 METAR MRLB NIL=
200710061100 METAR MRLB NIL=
200710061200 METAR MRLB 061200Z 05002KT CAVOK 23/23 A2981 OVC250=
200710061300 METAR MRLB 061300Z 06002KT 9999 SCT020 BKN250 25/23 A2983=
200710061400 METAR MRLB 061400Z 15003KT 9999 SCT015 BKN250 27/25 A2984=
200710061500 METAR MRLB 061500Z 08005KT 9999 SCT020 SCT250 28/25 A2984 RN DST S=
200710061600 METAR MRLB NIL=
200710061700 METAR MRLB NIL=
200710061800 METAR MRLB 061800Z 20005KT 9999 SCT025 SCT250 30/25 A2980 TCU DST NE=
200710061900 METAR MRLB 061900Z 17011KT 9999 SCT025 BKN120 29/25 A2975 RN DST NE/S=
200710062000 METAR MRLB 062000Z 28008KT 9999 FEW025 BKN120 28/24 A2972 RN DST TS DST S=
200710062100 METAR MRLB 062100Z 29007KT 9999 FEW025 OVC120 27/24 A2972=
200710062200 METAR MRLB 062200Z 28003KT 9999 FEW020 OVC120 26/24 A2972=
200710062300 METAR MRLB NIL=
200710070000 METAR MRLB NIL=
200710070100 METAR MRLB 070100Z 13003KT CAVOK 25/24 A2976 OVC120=
200710070200 METAR MRLB 070200Z 11004KT CAVOK 24/23 A2976 BKN120=
200710070300 METAR MRLB NIL=
200710070400 METAR MRLB NIL=
200710070500 METAR MRLB NIL=
200710070600 METAR MRLB NIL=
200710070700 METAR MRLB NIL=
200710070800 METAR MRLB NIL=
200710070900 METAR MRLB NIL=
200710071000 METAR MRLB NIL=
200710071100 METAR MRLB NIL=
200710071200 METAR MRLB NIL=
200710071300 METAR MRLB 071300Z 00000KT 9000 FEW003 SCT250 25/23 A2978 FG ARND=
200710071400 METAR MRLB 071400Z 20005KT 9999 FEW010 SCT250 27/25 A2979=
200710071500 METAR MRLB 071500Z 17006KT 9999 SCT020TCU BKN250 27/24 A2980 RMK TCU ARND=
200710071600 METAR MRLB 071600Z 20007KT 9999 SCT020TCU BKN180 27/24 A2980 RMK RN DST SW W=
200710071700 METAR MRLB 071700Z 20006KT 9999 -RA SCT020TCU BKN150 24/23 A2978=
200710071800 METAR MRLB 071800Z 15005KT 9999 -RA FEW025TCU BKN220 24/23 A2976=
200710071900 METAR MRLB 071900Z 00000KT 9999 FEW025 BKN250 26/24 A2973 RERA=
200710072000 METAR MRLB 072000Z 20006KT 9999 SCT020TCU BKN120 26/24 A2971 RN ARND=
200710072100 METAR MRLB 072100Z 00000KT 9999 -DZ FEW010 SCT025 BKN150 25/24 A2971 RMK RN ARND=
200710072200 METAR MRLB 072200Z 10005KT 9999 SCT025 BKN250 24/23 A2970 RERA RMK TCU ARND=
200710072300 METAR MRLB 072300Z 12005KT 9999 SCT025 BKN240 24/24 A2971=
200710080000 METAR MRLB 080000Z 11003KT 9999 FEW015 BKN140 24/23 A2975 RMK DZ DST W NW=
200710080100 METAR MRLB 080100Z 00000KT 9999 SCT020 BKN150 24/24 A2977=
200710080200 METAR MRLB 080200Z 25003KT 9999 SCT025 BKN120 24/23 A2979=
200710080300 METAR MRLB NIL=
200710080400 METAR MRLB NIL=
200710080500 METAR MRLB NIL=
200710080600 METAR MRLB NIL=
200710080700 METAR MRLB NIL=
200710080800 METAR MRLB NIL=
200710080900 METAR MRLB NIL=
200710081000 METAR MRLB NIL=
200710081100 METAR MRLB NIL=
200710081200 METAR MRLB 081200Z 00000KT 9999 SCT030 BKN100 23/23 A2977 RN DST S/SW=
200710081300 METAR MRLB 081300Z 13002KT 9999 FEW015 SCT025 BKN100 24/23 A2979 RMK RN S SW=
200710081400 METAR MRLB 081400Z 12002KT 9999 FEW010 SCT020 BKN120 25/24 A2981 RMK RN S=
200710081500 METAR MRLB 081500Z 13005KT 9999 3000SW -RA FEW008 BKN025 25/24 A2982=
200710081600 METAR MRLB 081600Z 13004KT 9999 SCT020 BKN120 26/24 A2983 RMK RN E=
200710081700 METAR MRLB 081700Z 14006KT 9999 SCT015 OVC120 27/24 A2981 RMK RN S=
200710081800 METAR MRLB 081800Z 17006KT 9999 VCSH FEW010 SCT020 OVC100 25/24 A2979 RERA RMK 6000E=
200710081900 METAR MRLB 081900Z 16003KT 9999 SCT025 BKN130 28725 A2975 RMK RN S=
200710082000 METAR MRLB 082000Z 19005KT 9999 3000SW -RA SCT020 BKN120 27/24 A2972=
200710082100 METAR MRLB 082100Z 16008KT 9999 SCT020 BKN120 26/24 A2971 RN S SW E=
200710082200 METAR MRLB 082200Z 14006KT 4000 -RA FEW008 BKN020 24/23 A2973=
200710082300 METAR MRLB 082300Z 14006KT 9999 VCSH FEW010 SCT020 OVC100 24/23 A2974 VSBY E 6KM=
200710090000 METAR MRLB 090000Z 12004KT 9999 SCT025 BKN120 24/23 A2975 RN DST NE=
200710090100 METAR MRLB 090100Z 12006KT 9999 DZ SCT020 OVC120 24/23 A2978=
200710090200 METAR MRLB NIL=
200710090300 METAR MRLB NIL=
200710090400 METAR MRLB NIL=
200710090500 METAR MRLB NIL=
200710090600 METAR MRLB NIL=
200710090700 METAR MRLB NIL=
200710090800 METAR MRLB NIL=
200710090900 METAR MRLB NIL=
200710091000 METAR MRLB NIL=
200710091100 METAR MRLB NIL=
200710091200 METAR MRLB 091200Z 00000KT 5000 -RA BR OVC010 24/23 A2981 VIS W NW UNLTD=
200710091300 METAR MRLB 091300Z 12004KT 9999 -RA SCT010 BKN100 24/24 A2983=
200710091400 METAR MRLB 091400Z 14004KT 9999 -RA SCT0190 BKN100 25/24 A2986=
200710091500 METAR MRLB 091500Z 13004KT 9999 -RA BKN010 SCT100 25/24 A2988=
200710091600 METAR MRLB 091600Z 12002KT 9999 BKN010 27/25 A2987 RN ARND=
200710091700 METAR MRLB 091700Z 14005KT 9999 -RA SCT010 BKN020 27/25 A2986=
200710091800 METAR MRLB 091800Z 15005KT 9999 SCT010 SCT120 27/25 A2984 RN DST ARND=
200710091900 METAR MRLB 091900Z 21002KT 9999 -RA SCT010 SCT120 27/25 A2981=
200710092000 METAR MRLB 092000Z 25006KT 9999 -RA SCT010 BKN100 27/25 A2978=
200710092100 METAR MRLB 092100Z 17003KT 9999 -RA OVC010 26/24 A2977=
200710092200 METAR MRLB 092200Z 17002KT 0000 SCT010 SCT120 27/25 A2978 RMK RN DST ARND=
200710092300 METAR MRLB 092300Z 18006KT 9999 -RA SCT010 SCT020 25/24 A2974=
200710100000 METAR MRLB 100000Z 19003KT 9999 SCT015 SCT120 25/24 A2980 RMK RN DST ARND=
200710100100 METAR MRLB 100100Z 11003KT 9999 SCT015 SCT120 24/24 A2983=
200710100200 METAR MRLB 100200Z 16003KT 9999 SCT015 SCT120 25/24 A2986=
200710100300 METAR MRLB NIL=
200710100400 METAR MRLB NIL=
200710100500 METAR MRLB NIL=
200710100600 METAR MRLB NIL=
200710100700 METAR MRLB NIL=
200710100800 METAR MRLB NIL=
200710100900 METAR MRLB NIL=
200710101000 METAR MRLB NIL=
200710101100 METAR MRLB NIL=
200710101200 METAR MRLB 101200Z 00000KT 9000 DZ SCT015 BKN150 24/23 A2984=
200710101300 METAR MRLB 101300Z 17006KT 1000 RA SCT010 BKN080 24/24 A2986=
200710101400 METAR MRLB 101400Z 17005KT 9000 SCT010 BKN120 25/24 RERA RMK FOG BANKS ARND=
200710101500 METAR MRLB 101500Z 16005KT 7000 RA SCT010 BKN100 25/24 A2990=
200710101600 METAR MRLB 101600Z 21006KT 8000 -RA SCT010 BKN100 25/24 A2991=
200710101700 METAR MRLB 101700Z 22005KT 8000 DZ VCFG SCT010 BKN100 24/23 A2988=
200710101800 METAR MRLB 101800Z 19005KT 9999 SCT010 BKN150 25/24 A2986 RERA RMK RN DST E/S=
200710101900 METAR MRLB 101900Z 22008KT 9999 SCT010 BKN100 27/25 A2983 RMK RN DST ARND=
200710102000 METAR MRLB 102000Z 24008KT 9999 SCT015TCU BKN250 28/24 A2981 RMK RN DST ARND=
200710102100 METAR MRLB 102100Z 22010KT 9000 DZ SCT015TCU BKN180 27/23 A2979=
200710102200 METAR MRLB 102200Z 22010KT 9000 DZ SCT010 BKN100 25/23 A2978=
200710102300 METAR MRLB 102300Z 22004KT 9999 SCT015 BKN220 26/24 A2979 RN ARND=
200710110000 METAR MRLB 110000Z 20004KT 9999 SCT015 BKN150 25/24 A2981 RN DST ARND=
200710110100 METAR MRLB 110100Z 00000KT 9000 SCT010 BKN100 25/24 A2986 RN ARND=
200710110200 METAR MRLB NIL=
200710110300 METAR MRLB NIL=
200710110400 METAR MRLB NIL=
200710110500 METAR MRLB NIL=
200710110600 METAR MRLB NIL=
200710110700 METAR MRLB NIL=
200710110800 METAR MRLB NIL=
200710110900 METAR MRLB NIL=
200710111000 METAR MRLB NIL=
200710111100 METAR MRLB NIL=
200710111200 METAR MRLB 111200Z 16003KT 9999 SCT015 BKN120 24/23 A2984 RN S=
200710111300 METAR MRLB 111300Z 14003KT 9999 FEW008 SCT020 BKN120 24/24 A2986 RN DST N/NE=
200710111400 METAR MRLB 111400Z 17004KT 9999 SCT010 BKN100 26/25 A2988 RN DST S/W=
200710111500 METAR MRLB 111500Z 15004KT 9999 DZ FEW010 SCT020 BKN110 26/25 A2988 RN DST S/NE=
200710111600 METAR MRLB 111600Z 25008KT 9999 SCT020 BKN240 28/24 A2988 RN DST S=
200710111700 METAR MRLB 111700Z 26007KT 9999 SCT020 BKN230 28/24 A2986 RN DST S=
200710111800 METAR MRLB 111800Z 25010KT 9999 SCT025 OVC250 28/23 A2983 RN DST E=
200710111900 METAR MRLB 111900Z 26009KT 9999 SCT025 BKN250 30/25 A2982=
200710112000 METAR MRLB 112000Z 25009KT 9999 -RA FEW010 SCT025 BKN240 26/23 A2980=
200710112100 METAR MRLB 112100Z 24010KT 9999 SCT020 BKN140 27/24 A2978 RMK RN DST S E=
200710112200 METAR MRLB 112200Z 25005KT 9999 BKN025 27/24 A2978 RMK RN DST S SW=
200710112300 METAR MRLB 112300Z 19005KT 9999 FEW010 SCT020 BKN140 25/23 A2979 RMK RN DST E NE RERA=
200710120000 METAR MRLB 120000Z 16003KT 9999 SCT020 BKN130 24/23 A2980 RMK RN DST SW=
200710120100 METAR MRLB 120100Z 16003KT 9999 SCT020 OVC110 24/24 A2983=
200710120200 METAR MRLB NIL=
200710120300 METAR MRLB NIL=
200710120400 METAR MRLB NIL=
200710120500 METAR MRLB NIL=
200710120600 METAR MRLB NIL=
200710120700 METAR MRLB NIL=
200710120800 METAR MRLB NIL=
200710120900 METAR MRLB NIL=
200710121000 METAR MRLB NIL=
200710121100 METAR MRLB NIL=
200710121200 METAR MRLB 121200Z 12002KT 9999 -RA OVC010 24/23 A2982=
200710121300 METAR MRLB 121300Z 19003KT 9999 -DZ SCT010 SCT130 25/24 A2984 RMK RN ARND DST FEW250=
200710121400 METAR MRLB 121400Z 23003KT 9999 -RA BKN010 SCT130 25/24 A2986=
200710121500 METAR MRLB 121500Z 26004KT 9999 BKN015 SCT130 27/25 A2987 RMK RN DST ARND=
200710121600 METAR MRLB 121600Z 26009KT 9999 -RA BKN015 28/24 A2988=
200710121700 METAR MRLB 121700Z 28014KT 9999 -RA SCT010 SCT100 28/24 A2984 RMK FEW250=
200710121800 METAR MRLB 121800Z 28014KT 9999 -RA SCT010 SCT100 28/24 A2984 RMK FEW250=
200710121900 METAR MRLB 121900Z 27012KT 9999 SCT015 SCT250 28/25 A2982 RN DST ARND=
200710122000 METAR MRLB 122000Z 25012KT 9999 -RA BKN010 SCT250 28/24 A2980=
200710122100 METAR MRLB 122100Z 25011KT 9999 SCT015 BKN130 29/24 A2979 RMK RN DST ARND=
200710122200 METAR MRLB 122200Z 25007KT 9999 SCT015 BKN100 27/23 A2979 RMK RN ARND=
200710122300 METAR MRLB 122300Z 21002KT 9999 FEW010 OVC100 25/24 A2980 RMK RN ARND=
200710130000 METAR MRLB 130000Z 21002KT 9999 SCT015 BKN100 25/24 A2982 RMK RN DST N E S=
200710130100 METAR MRLB 130100Z 17004KT 9999 SCT015 SCT100 25/24 A2985 RERA=
200710130200 METAR MRLB 130200Z 00000KT 9999 -RA SCT010 SCT100 25/24 A2986=
200710130300 METAR MRLB NIL=
200710130400 METAR MRLB NIL=
200710130500 METAR MRLB NIL=
200710130600 METAR MRLB NIL=
200710130700 METAR MRLB NIL=
200710130800 METAR MRLB NIL=
200710130900 METAR MRLB NIL=
200710131000 METAR MRLB NIL=
200710131100 METAR MRLB NIL=
200710131200 METAR MRLB 131200Z 00000KT 9000 SCT010 BKN100 24/ND A2984=
200710131300 METAR MRLB 131300Z 13004KT 9999 SCT010 BKN150 25/24 A2985 RMK BR ARND=
200710131400 METAR MRLB 131400Z 16004KT 9999 SCT015 BKN120 26/24 A2987 RMK BR ARND=
200710131500 METAR MRLB 131500Z 22005KT 9999 SCT010TCU BKN100 27/24 A2988 RMK RN ARND=
200710131600 METAR MRLB 131600Z 24008KT 9999 -DZ SCT010TCU BKN100 25/24 A2988 RMK RN ARND=
200710131700 METAR MRLB 131700Z 29010KT 9999 FEW010TCU SCT035 BKN220 28/24 A2985 RMK RN ARND=
200710131800 METAR MRLB 131800Z 28014KT 9999 SCT020TCU BKN220 29/24 A2984=
200710131900 METAR MRLB 131900Z 27013KT 9999 SCT015TCU BKN200 29/24 A2981 RMK RN ARND=
200710132000 METAR MRLB 132000Z 28014KT 9999 SCT020TCU BKN200 28/24 A2978=
200710132100 METAR MRLB 132100Z 27011KT 9999 SCT020TCU BKN240 28/23 A2977=
200710132200 METAR MRLB 132200Z 26009KT 9999 FEW015TCU SCT150 BKN240 27/23 A2976=
200710132300 METAR MRLB 132300Z 25003KT 9999 -DZ SCT015TCU BKN100 26/24 A2978=
200710140000 METAR MRLB 140000Z 26005KT 9999 SCT015 BKN100 25/24 A2980 REDZ RMK RN DST S E N=
200710140100 METAR MRLB 140100Z 00000KT 9000 VCFG SCT015 BKN120 25/24 A2982 RMK=
200710140200 METAR MRLB 140200Z VRB03KT 9999 SCT015 BKN100 25/24 A2985 RMK RN DST=
200710140300 METAR MRLB NIL=
200710140400 METAR MRLB NIL=
200710140500 METAR MRLB NIL=
200710140600 METAR MRLB NIL=
200710140700 METAR MRLB NIL=
200710140800 METAR MRLB NIL=
200710140900 METAR MRLB NIL=
200710141000 METAR MRLB NIL=
200710141100 METAR MRLB NIL=
200710141200 METAR MRLB 141200Z 14002KT 9999 SCT015 OVC100 24/23 A2980 RMK RN DST E NE=
200710141300 METAR MRLB 141300Z 17004KT 9999 DZ FEW010 SCT020 BKN120 25/24 A2982=
200710141400 METAR MRLB 141400Z 16004KT 9999 VCSH FEW008 BKN025 25/24 A2984 VSBY SW 6KM=
200710141500 METAR MRLB 141500Z 22006KT 9999 SCT020 BKN110 25/24 A2985 RERA RN N NE=
200710141600 METAR MRLB 141600Z 26007KT 9999 SCT020 BKN120 27/25 A2985 RN S SW=
200710141700 METAR MRLB 141700Z 26005KT 9999 DZ FEW008 BKN020 25/24 A2983 RERA=
200710141800 METAR MRLB 141800Z 25007KT 9999 DZ FEW010 SCT020 OVC100 25/24 A2980=
200710141900 METAR MRLB 141900Z 25008KT 4000 RA FEW010 BKN020 25/24 A2978=
200710142000 METAR MRLB 142000Z 26006KT 6000 -RA BKN020 24/23 A2976=
200710142100 METAR MRLB 142100Z 26005KT 8000 DZ FEW010 SCT020 OVC100 24/24 A2975=
200710142200 METAR MRLB 142200Z 27003KT 8000 DZ FEW010 BKN020 25/24 A2975=
200710142300 METAR MRLB 142300Z 23005KT 9999 BKN025 25/24 A2975 RMK RN DST N NE E=
200710150000 METAR MRLB 150000Z 24003KT 9999 SCT020 BKN120 24/24 A2976 A2976=
200710150100 METAR MRLB 150100Z 22002KT 9999 SCT025 BKN120 24/24 A2978=
200710150200 METAR MRLB 150200Z 14003KT 9999 SCT025 BKN120 24/24 A2982=
200710150300 METAR MRLB NIL=
200710150700 METAR MRLB NIL=
200710150800 METAR MRLB NIL=
200710150900 METAR MRLB NIL=
200710151000 METAR MRLB NIL=
200710151100 METAR MRLB NIL=
200710151200 METAR MRLB 151200Z 15004KT 9999 FEW005 SCT010 SCT100 24/24 A2978 RMK RN N=
200710151300 METAR MRLB 151300Z 18004KT 8000 -RA SCT008 BKN100 24/24 A2980=
200710151400 METAR MRLB 151400Z 16004KT 3000 -RA BR FEW005 BKN010 25/24 A2982=
200710151500 METAR MRLB 151500Z 20007KT 3000 RA BR BKN010 SCT100 24/24 A2984=
200710151600 METAR MRLB 151600Z 19005KT 3000 RA BR BKN010 SCT100 24/24 A2984=
200710151700 METAR MRLB 151700Z 24007KT 2000 RA BR OVC010 24/24 A2983=
200710151800 METAR MRLB 151800Z 03007KT 3000 RA BR OVC010 23/23 A2981=
200710151900 METAR MRLB 151900Z 35005KT 3000 -RA BR BKN010 SCT100 23/23 A2978=
200710152000 METAR MRLB 152000Z 32003KT 9999 -RA SCT010 BKN100 24/24 A2975 RMK VIS 5000 SW=
200710152100 METAR MRLB 152100Z 00000KT 9999 -RA BKN010 SCT100 25/24 A2974=
200710152200 METAR MRLB 152200Z 00000KT 9999 4000S -RA BKN010 SCT100 25/25 A2974=
200710152300 METAR MRLB 152300Z 17002KT 9999 FEW010 SCT120 BKN250 25/24 A2975 RN DST NNE=
200710160000 METAR MRLB 160000Z 00000KT 9999 FEW010 SCT120 BKN250 25/24 A2976 RN DST SW=
200710160100 METAR MRLB 160100Z 10002KT 9999 FEW010 BKN250 24/24 A2979=
200710160200 METAR MRLB NIL=
200710160300 METAR MRLB NIL=
200710160400 METAR MRLB NIL=
200710160500 METAR MRLB NIL=
200710160600 METAR MRLB NIL=
200710160700 METAR MRLB NIL=
200710160800 METAR MRLB NIL=
200710160900 METAR MRLB NIL=
200710161000 METAR MRLB NIL=
200710161100 METAR MRLB NIL=
200710161200 METAR MRLB 161200Z NIL=
200710161300 METAR MRLB 161300Z 31004KT 9999 FEW008 BKN120 24/23 A2983 RMK RN DST SW=
200710161400 METAR MRLB 161400Z 12003KT 9999 4000SW -RA FEW010 BKN020 25/24 A2984=
200710161500 METAR MRLB 161500Z 13003KT 9999 VCSH FEW007 SCT015 OVC100 26/25 A2985 VIS SW 6KMS=
200710161600 METAR MRLB 161600Z 28003KT 3000 RA BR FEW008 BKN020 24/23 A2986=
200710161700 METAR MRLB 161700Z 25005KT 9999 DZ SCT010 BKN100 25/24 A2984=
200710161800 METAR MRLB 161800Z 22007KT 9999 DZ SCT015 OVC100 24/23 A2982=
200710161900 METAR MRLB 161900Z 23006KT 9999 SCT025 OVC100 24/23 A2980 RN DST S/N=
200710162000 METAR MRLB 162000Z 26005KT 9999 SCT020 OVC100 24/23 A2979=
200710162100 METAR MRLB 162100Z 3003KT 9999 SCT030 OVC100 24/23 A2978=
200710162200 METAR MRLB 162200Z 00000KT 9999 SCT030 OVC100 24/23 A2978=
200710162300 METAR MRLB 162300Z 09003KT 9999 SCT025 OVC100 24/23 A2978 RMK RN DST N=
200710170000 METAR MRLB 170000Z 08002KT 9999 DZ SCT020 OVC100 24/23 A2981=
200710170100 METAR MRLB 170100Z 09002KT 9999 -RA SCT015 BKN100 24/23 A2983=
200710170200 METAR MRLB NIL=
200710170300 METAR MRLB NIL=
200710170400 METAR MRLB NIL=
200710170500 METAR MRLB NIL=
200710170600 METAR MRLB NIL=
200710170700 METAR MRLB NIL=
200710170800 METAR MRLB NIL=
200710170900 METAR MRLB NIL=
200710171000 METAR MRLB NIL=
200710171100 METAR MRLB NIL=
200710171200 METAR MRLB 171200Z 06002KT 9999 SCT020 BKN110 23/23 A2987 RMK RN DST S=
200710171300 METAR MRLB 171300Z 00000KT 9999 FEW008 SCT020 BKN120 24/23 A2988 RN DST S=
200710171400 METAR MRLB 171400Z 14002KT 9999 SCT015 OVC100 24/24 A2991 RMK RN DST S SE=
200710171500 METAR MRLB 171500Z 00000KT 9999 SCT015 OVC110 26/24 A2992=
200710171600 METAR MRLB NIL=
200710171700 METAR MRLB 171700Z 20004KT 9999 DZ SCT015 BKN110 25/24 A2990=
200710171800 METAR MRLB 171800Z 18003KT 9999 SCT020 BKN110 26/24 A2987 RMK RN DST N=
200710171900 METAR MRLB 171900Z 16004KT 9999 SCT020 SCT120 26/24 A2985 RMK RN DST E NE SW=
200710172000 METAR MRLB 172000Z 17004KT 9999 4000SW DZ FEW008 SCT015 OVC100 26/24 A2982=
200710172100 METAR MRLB 172100Z 00000KT 9999 SCT025 BKN120 27/25 A2979 RMK RN E NE=
200710172200 METAR MRLB 172200Z 18003KT 9999 FEW010 BKN020 26/24 A2981 RMK RN S SW=
200710172300 METAR MRLB 172300Z 17004KT 2500 RA FEW008 BKN020 23/23 A2983=
200710180000 METAR MRLB 180000Z 00000KT 5000 -RA FEW007 SCT015 OVC100 23/23 A2984=
200710180100 METAR MRLB 180100Z 07003KT 9999 SCT015 OVC100 23/23 A2987=
200710180200 METAR MRLB 180200Z 03002KT 9999 -RA SCT015 OVC110 23/23 A2989=
200710180300 METAR MRLB NIL=
200710180400 METAR MRLB NIL=
200710180500 METAR MRLB NIL=
200710180600 METAR MRLB NIL=
200710180700 METAR MRLB NIL=
200710180800 METAR MRLB NIL=
200710180900 METAR MRLB NIL=
200710181000 METAR MRLB NIL=
200710181100 METAR MRLB NIL=
200710181200 METAR MRLB NIL=
200710181300 METAR MRLB 181300Z 11003KT 9999 -RA FEW005 BKN020 24/23 A2988=
200710181400 METAR MRLB 181400Z 17003KT 3000 -RA BR SCT008 BKN020 24/24 A2990 RMK UNL W=
200710181500 METAR MRLB 181500Z 16004KT 9999 SCT008 BKN020 25724 A2991 RMK RN ARND=
200710181600 METAR MRLB 181600Z 16006KT 3000 -RA FEW005 BKN010 25/24 A2992=
200710181700 METAR MRLB 181700Z 16006KT 3000 -RA BR SCT008 BKN100 24/24 A2990=
200710181800 METAR MRLB 181800Z 14005KT 3000 +RA BR SCT008 BKN100 25/24 A2987=
200710181900 METAR MRLB 181900Z 11005KT 4000 -RA BR SCT008 BKN100 24/24 A2985=
200710182000 METAR MRLB 182000Z 14004KT 3000 -RA SCT007 BKN100 25724 A2983 RMK VIS SW UNL=
200710182100 METAR MRLB 182100Z 36005KT 9999 -RA SCT007 BKN100 25/25 A2981=
200710182200 METAR MRLB 182200Z 02003KT 9999 -RA SCT007 BKN100 25/24 A2981=
200710182300 METAR MRLB 182300Z 00000KT 9999 -RA SCT008 BKN100 25/24 A2982=
200710190000 METAR MRLB 190000Z 04003KT 9999 -RA SCT008 BKN100 25/24 A2983=
200710190100 METAR MRLB 190100Z 26002KT 9999 -RA SCT008 BKN100 24/23 A2985=
200710190200 METAR MRLB NIL=
200710190300 METAR MRLB NIL=
200710190400 METAR MRLB NIL=
200710190500 METAR MRLB NIL=
200710190600 METAR MRLB NIL=
200710190700 METAR MRLB NIL=
200710190800 METAR MRLB NIL=
200710190900 METAR MRLB NIL=
200710191000 METAR MRLB NIL=
200710191100 METAR MRLB NIL=
200710191200 METAR MRLB 191200Z 00000KT 9999 FEW010 SCT120 24/23 A2988=
200710191300 METAR MRLB 191300Z 00000KT 6000 DZ FEW007 BKN020 24/23 A2990=
200710191400 METAR MRLB 191400Z 00000KT 9999 FEW008 SCT015 OVC100 24/24 A2992=
200710191500 METAR MRLB 191500Z 15003KT 9999 FEW007 BKN020 25/24 A2992 RN S W=
200710191600 METAR MRLB 191600Z 27002KT 9999 SCT015 BKN100 27/25 A2991 RN N NE=
200710191700 METAR MRLB 191700Z 29003KT 9999SCT015 OVC110 27/25 A2989 RN SW W=
200710191800 METAR MRLB 191800Z 26006KT 9999 4000S -RA SCT010 OVC100 25/24 A2987=
200710191900 METAR MRLB 191900Z 26007KT 9999 VCSH FEW008 BKN020 25/24 A2983 VSBY SW 7KM=
200710192000 METAR MRLB 192000Z 30006KT 8000 DZ SCT008 BKN020 24/23 A2983=
200710192100 METAR MRLB 192100Z 28006KT 7000 -RA SCT010 OVC100 24/23 A2980=
200710192200 METAR MRLB 192200Z 25006KT 8000 DZ BKN020 24/24 A2981=
200710192300 METAR MRLB 192300Z 24004KT 9999 FEW008 BKN020 24/24 A2982 RMK RN DST ARND=
200710200000 METAR MRLB 200000Z 15003KT 9999 DZ SCT012 OVC100 24/23 A2984=
200710200100 METAR MRLB 200100Z 15003KT 6000 -RA SCT010 OVC100 23/23 A2986=
200710200200 METAR MRLB NIL=
200710200300 METAR MRLB NIL=
200710200400 METAR MRLB NIL=
200710200500 METAR MRLB NIL=
200710200600 METAR MRLB NIL=
200710200700 METAR MRLB NIL=
200710200800 METAR MRLB NIL=
200710200900 METAR MRLB NIL=
200710201000 METAR MRLB NIL=
200710201100 METAR MRLB NIL=
200710201200 METAR MRLB 201200Z 13003KT 3000 RA FEW007 BKN020 23/23 A2987=
200710201300 METAR MRLB 201300Z 15004KT 2000 RA BR FEW006 BKN020 23/23 A2990=
200710201400 METAR MRLB 201400Z 16005KT 5000 DZ SCT006 BKN020 23/23 A2992=
200710201500 METAR MRLB 201500Z 16005KT 9999 DZ SCT010 OVC100 24/24 A2993=
200710201600 METAR MRLB 201600Z 14004KT 9999 SCT012 BKN100 25/24 A2992 RMK RN DST SW E=
200710201700 METAR MRLB 201700Z 18004KT 9999 VCSH FEW008 SCT015 OVC100 24/24 A2991 RMK 6000E RERA=
200710201800 METAR MRLB 201800Z 13003KT 9999 SCT010 OVC100 25/24 A2988 RMK RN DST S E NE=
200710201900 METAR MRLB 201900Z 18002KT 9999 SCT015 OVC120 25/24 A2986 RMK RN DST N=
200710202000 METAR MRLB 202000Z 23003KT 9999 SCT020 OVC120 26/24 A2983=
200710202100 METAR MRLB 202100Z 27005KT 9999 SCT020 OVC120 26/24 A2981 RN DST SW=
200710202200 METAR MRLB 202200Z 28005KT 9999 SCT025 OVC100 25/23 A2982 RN DST S/SW=
200710202300 METAR MRLB 202300Z OOOOOKT 9999 -RA SCT020 OVC100 24/23 A2983=
200710210000 METAR MRLB 210000Z 28005KT 9999 FEW035 BKN130 30/21 A2972 RMK RN DST N=
200710210100 METAR MRLB 210100Z 00000KT 9999 SCT020 OVC110 24/23 A2987=
200710210200 METAR MRLB NIL=
200710210300 METAR MRLB NIL=
200710210400 METAR MRLB NIL=
200710210500 METAR MRLB NIL=
200710210600 METAR MRLB NIL=
200710210700 METAR MRLB NIL=
200710210800 METAR MRLB NIL=
200710210900 METAR MRLB NIL=
200710211000 METAR MRLB NIL=
200710211100 METAR MRLB NIL=
200710211200 METAR MRLB 261200Z 00000KT 9999 SCT020 BKN120 23/23 A2984 LW ST SW=
200710211300 METAR MRLB NIL=
200710211400 METAR MRLB NIL=
200710211500 METAR MRLB NIL=
200710211600 METAR MRLB NIL=
200710211700 METAR MRLB NIL=
200710211800 METAR MRLB NIL=
200710211900 METAR MRLB 211900Z 28006KT 9999 FEW020TCU SCT030 28/23 A2985 SCT130 CB DST N/S RN DST NE/E/S/SW=
200710212000 METAR MRLB 212000Z 27010KT 9999 FEW020TCU SCT030 28/24 A2983 SCT130 RN DST N/E/SE/SW=
200710212100 METAR MRLB 212100Z 23006KT 9999 3000SW -RA BR FEW025TCU BKN030 25/23 A2983=
200710212200 METAR MRLB 212200Z 28004KT 4000 RA BR FEW015 SCT020 BKN100 24/23 A2985=
200710212300 METAR MRLB 212300Z 24003KT 9999 -RA FEW010 SCT025 BKN100 23/24 A2986=
200710220000 METAR MRLB 220000Z 15002KT 9999 -RA SCT025 BKN100 24/23 A2987 LOW ST S SE=
200710220100 METAR MRLB NIL=
200710220200 METAR MRLB NIL=
200710220300 METAR MRLB NIL=
200710220400 METAR MRLB NIL=
200710220500 METAR MRLB NIL=
200710220600 METAR MRLB NIL=
200710220700 METAR MRLB NIL=
200710220800 METAR MRLB NIL=
200710220900 METAR MRLB NIL=
200710221000 METAR MRLB NIL=
200710221100 METAR MRLB NIL=
200710221200 METAR MRLB NIL=
200710221300 METAR MRLB 221300Z 04003KT 9999 FEW010 SCT120 BKN250 24/22 A2989 LOW ST SW W=
200710221400 METAR MRLB 221400Z 29006KT 9999 FEW015 SCT250 26/24 A2990=
200710221500 METAR MRLB 221500Z 28006KT 9999 SCT015 BKN250 28/24 A2992=
200710221600 METAR MRLB 221600Z 28009KT 9999 SCT015TCU BKN200 29/24 A2992 RMK RN DST N E=
200710221700 METAR MRLB 221700Z 28008KT 9999 SCT015TCU BKN150 27/24 A2990 RERA=
200710221800 METAR MRLB 221800Z 29010KT 9999 FEW010TCU SCT035 BKN200 29/24 A2987=
200710221900 METAR MRLB NIL=
200710222000 METAR MRLB 222000Z 27009KT 9999 DZ SCT015 BKN180 25/24 A2981=
200710222100 METAR MRLB 222100Z 30010KT 9999 SCT025 BKN220 27/25 A2979=
200710222200 METAR MRLB 222200Z 29006KT 9999 FEW020 SCT250 27/24 A2980 TCU SE=
200710222300 METAR MRLB 222300Z 28005KT 9999 FEW020 BKN150 27/24 A2981 RMK CB RN DST E=
200710230000 METAR MRLB 230000Z 29004KT 9999 SCT025 BKN140 26/24 A2983 RMK RN DST N=
200710230100 METAR MRLB NIL=
200710230200 METAR MRLB NIL=
200710230300 METAR MRLB NIL=
200710230400 METAR MRLB NIL=
200710230500 METAR MRLB NIL=
200710230600 METAR MRLB NIL=
200710230700 METAR MRLB NIL=
200710230800 METAR MRLB NIL=
200710230900 METAR MRLB NIL=
200710231000 METAR MRLB NIL=
200710231100 METAR MRLB NIL=
200710231200 METAR MRLB 231200Z 29002KT CAVOK 22/21 A2984 BKN250 ST BAJOS SW=
200710231300 METAR MRLB 231300Z 00000KT CAVOK 25724 A2966 RMK BKN250=
200710231400 METAR MRLB 231400Z 13002KT 9999 FEW030 BKN250 27/24 A2988=
200710231500 METAR MRLB 231500Z 23002KT 9999 FEW035 BKN250 27/24 A2989=
200710231600 METAR MRLB 231600Z 19003KT 9999 SCT035 SCT250 29/23 A2989=
200710231700 METAR MRLB 231700Z 20002KT 9999 SCT035 SCT250 30/23 A2986=
200710231800 METAR MRLB 231800Z 18003KT 9999 SCT035 BKN250 31/23 A2983 RMK RN E=
200710231900 METAR MRLB 231900Z 27004KT 9999 SCT035 BKN250 31/23 A2979 RMK RN NE=
200710232000 METAR MRLB 232000Z 28007KT 9999 SCT030 BKN250 30/24 A2976 RMK RN N=
200710232100 METAR MRLB 232100Z 35006KT 9999 2000N RA FEW010TCU SCT020 BKN140 27/23 A2975=
200710232200 METAR MRLB 232200Z 29004KT 9999 SCT035 BKN250 28/25 A2974 RN E=
200710232300 METAR MRLB 232300Z 24005KT 9999 SCT035 OVC250 27/24 A2976=
200710240000 METAR MRLB 240000Z 29002KT 9999 SCT035 OVC250 26/24 A2978 RN DST N=
200710240100 METAR MRLB 240100Z 00000KT 9999 FEW035 BKN240 26/24 A2982=
200710240200 METAR MRLB NIL=
200710240300 METAR MRLB NIL=
200710240400 METAR MRLB NIL=
200710240500 METAR MRLB NIL=
200710240700 METAR MRLB NIL=
200710240800 METAR MRLB NIL=
200710240900 METAR MRLB NIL=
200710241000 METAR MRLB NIL=
200710241100 METAR MRLB NIL=
200710241200 METAR MRLB NIL=
200710241300 METAR MRLB 241300Z 13003KT 9999 FEW010 SCT120 25/24 A2984=
200710241400 METAR MRLB 241400Z 14003KT 9999 SCT015 SCT120 27/25 A2987 RN SW=
200710241500 METAR MRLB 241500Z 12003KT 9999 FEW020 BKN250 28/24 A2987=
200710241600 METAR MRLB 241600Z 13003KT 9999 SCT025 BKN250 29/24 A2987=
200710241700 METAR MRLB 241700Z 23003KT 9999 SCT025 BKN250 30/24 A2985=
200710241800 METAR MRLB 241800Z 19002KT 9999 SCT030 BKN250 30/23 A2982 CB DST S=
200710241900 METAR MRLB 241900Z 26005KT 9999 SCT025 BKN250 32/23 A2978 RN N SW CB S=
200710242000 METAR MRLB NIL=
200710242100 METAR MRLB 242100Z 13007KT 9999 4000S -RA BKN020 SCT120 26/24 A2975=
200710242200 METAR MRLB 242200Z 11004KT 9999 -RA BKN020 SCT120 26/24 A2977=
200710242300 METAR MRLB 242300Z 14002KT 9999 SCT020 SCT120 25/24 A2979 RMK RN DST S SW FEW250=
200710250000 METAR MRLB 250000Z 02003KT 9999 FEW020 BKN250 25/24 A2979=
200710250100 METAR MRLB NIL=
200710250200 METAR MRLB 250200Z 10004KT CAVOK 24/23 A2984 RMK SCT120 SCT250=
200710250300 METAR MRLB NIL=
200710250400 METAR MRLB NIL=
200710250500 METAR MRLB NIL=
200710250600 METAR MRLB NIL=
200710250700 METAR MRLB NIL=
200710250800 METAR MRLB NIL=
200710250900 METAR MRLB NIL=
200710251000 METAR MRLB NIL=
200710251100 METAR MRLB NIL=
200710251200 METAR MRLB NIL=
200710251300 METAR MRLB 251300Z 00000KT 9999 FEW015 SCT250 24/23 A2985=
200710251400 METAR MRLB 251400Z 15005KT 9999 SCT010 BKN150 25/24 A2987=
200710251500 METAR MRLB 251500Z 15004KT 9999 SCT015TCU BKN240 26/24 A2989=
200710251600 METAR MRLB 251600Z 18004KT 9999 SCT015TCU BKN250 28/24 A2987=
200710251700 METAR MRLB 251700Z 20004KT 9999 SCT020 BKN250 30/24 A2985=
200710251800 METAR MRLB 251800Z 20007KT 9999 SCT025 BKN250 30/23 A2981=
200710251900 METAR MRLB 251900Z 28010KT 9999 SCT025TCU BKN250 30/24 A2977 RMK RN DST NE=
200710252000 METAR MRLB 252000Z 29012KT 9999 SCT025TCU BKN220 29/24 A2976 RMK RN DST E N S=
200710252100 METAR MRLB 252100Z 27003KT 9999 -RA SCT012TCU BKN180 26/23 2976=
200710252200 METAR MRLB 252200Z 26007KT 9999 SCT025TCU BKN250 28/25 A2977 RN DST S=
200710252300 METAR MRLB 252300Z 28004KT 9999 FEW015 SCT250 27/25 A2978=
200710260000 METAR MRLB 260000Z 18003KT 9999 FEW020 SCT250 26/25 A2980 TCU DST W=
200710260100 METAR MRLB NIL=
200710260200 METAR MRLB NIL=
200710260300 METAR MRLB NIL=
200710260400 METAR MRLB NIL=
200710260500 METAR MRLB NIL=
200710260600 METAR MRLB NIL=
200710260800 METAR MRLB NIL=
200710260900 METAR MRLB NIL=
200710261000 METAR MRLB NIL=
200710261100 METAR MRLB NIL=
200710261200 METAR MRLB 261200Z 00000KT 9999 SCT020 BKN120 23/23 A2984 LW ST SW=
200710261300 METAR MRLB 261300Z 00000KT 9999 SCT025 BKN130 24/23 A2985 ST BAJOS SW=
200710261400 METAR MRLB 261400Z 35003KT 9999 SCT030 BKN130 24/23 A2987 RN DST N=
200710261500 METAR MRLB 261500Z 35003KT 9999 FEW035 BKN130 25/24 A2987=
200710261600 METAR MRLB 261600Z 16002KT 9999 FEW035 BKN130 28/18 A2987=
200710261700 METAR MRLB 261700Z 20003KT 9999 SCT035 BKN140 30/24 A2984=
200710261800 METAR MRLB 261800Z 13003KT 9999 FEW020TCU SCT030 BKN130 29/24 A2982 RN DST S=
200710261900 METAR MRLB 261900Z 18003KT 9999 SCT030 BKN120 29/23 A2979 RN DST SW=
200710262000 METAR MRLB 262000Z 25004KT 9999 FEW035 OVC120 27/24 A2978=
200710262100 METAR MRLB 262100Z 27005KT 9999 FEW035 BKN130 29/24 A2976=
200710262200 METAR MRLB 262200Z 25004KT 9999 FEW035 SCT130 OVC250 29/23 A2977=
200710262300 METAR MRLB 262300Z 24003KT 9999 FEW035 BKN250 28/24 A2978=
200710270000 METAR MRLB 270000Z 28002KT 9999 FEW035 OVC250 26/23 A2980=
200710270100 METAR MRLB 270100Z 29002KT 9999 SCT035 BKN250 25/23 A2982=
200710270200 METAR MRLB NIL=
200710270300 METAR MRLB NIL=
200710270400 METAR MRLB NIL=
200710270500 METAR MRLB NIL=
200710270600 METAR MRLB NIL=
200710270700 METAR MRLB NIL=
200710270800 METAR MRLB NIL=
200710270900 METAR MRLB NIL=
200710271000 METAR MRLB NIL=
200710271100 METAR MRLB NIL=
200710271200 METAR MRLB 271200Z 06002KT 9999 FEW010 BKN250 22/21 A2982 RMK CB DST SW=
200710271300 METAR MRLB 271300Z 05002KT 9999 FEW010 BKN250 24/23 A2983=
200710271400 METAR MRLB 271400Z 00000KT 9999 FEW020 BKN250 27/24 A2986=
200710271500 METAR MRLB 271500Z 26004KT 9999 FEW025 BKN250 28/24 A2986=
200710271600 METAR MRLB 271600Z 28005KT 9999 SCT030 BKN250 29/24 A2985=
200710271700 METAR MRLB 271700Z 15002KT 9999 SCT030 BKN250 31/23 A2983 RMK CB DST SW=
200710271800 METAR MRLB 271800Z 28009KT 9999 SCT030 BKN250 31/23 A2981=
200710271900 METAR MRLB 271900Z 29009KT 9999 SCT025 SCT250 30/23 A2979 RMK RASH DST E=
200710272000 METAR MRLB 272000Z 28008KT 9999 FEW025 SCT120 29/24 A2976 RMK TUC RN S FEW250=
200710272100 METAR MRLB 272100Z 27007KT 9999 FEW025 BKN120 28/23 A2975 RMK TCU RN N E S=
200710272200 METAR MRLB 272200Z 26005KT 9999 FEW030 BKN120 27/24 A2976 RMK RN E=
200710272300 METAR MRLB 272300Z 27007KT 9999 FEW030 OVC140 27/24 A2997 RMK TCU SE=
200710280000 METAR MRLB 280000Z 27004KT 9999 FEW030 BKN140 26/24 A2978 RMK RN DST N NE=
200710280100 METAR MRLB 280100Z 29002KT 9999 FEW030 BKN140 26/24 A2980=
200710280200 METAR MRLB 280200Z 23005KT 9999 -RA BKN020 25/24 A2982=
200710280300 METAR MRLB NIL=
200710280400 METAR MRLB NIL=
200710280500 METAR MRLB NIL=
200710280600 METAR MRLB NIL=
200710280700 METAR MRLB NIL=
200710280800 METAR MRLB NIL=
200710280900 METAR MRLB NIL=
200710281000 METAR MRLB NIL=
200710281100 METAR MRLB NIL=
200710281200 METAR MRLB NIL=
200710281300 METAR MRLB 281300Z 19004KT 9999 FEW015 SCT220 25/24 A2983=
200710281400 METAR MRLB 281400Z 28004KT 9999 SCT010 BKN240 26/24 A2985 RMK HZ DST ARND=
200710281500 METAR MRLB 281500Z 28007KT 9999 SCT015TCU BKN220 27/25 A2986=
200710281600 METAR MRLB 281600Z 29007KT 9999 SCT020 BKN250 29/24 A2985=
200710281700 METAR MRLB 281700Z 28009KT 9999 SCT025 BKN250 29/24 A2982=
200710281800 METAR MRLB 281800Z 26010KT 9999 SCT025 BKN250 30/24 A2979=
200710282300 METAR MRLB 282300Z 27007KT 9999 FEW035 SCT250 27/24 A2975=
200710290000 METAR MRLB 290000Z 28005KT 9999 FEW030 SCT250 26/23 A2977=
200710290100 METAR MRLB NIL=
200710290200 METAR MRLB NIL=
200710290300 METAR MRLB NIL=
200710290400 METAR MRLB NIL=
200710290700 METAR MRLB NIL=
200710290800 METAR MRLB NIL=
200710290900 METAR MRLB NIL=
200710291100 METAR MRLB NIL=
200710291200 METAR MRLB 291200Z 09003KT 9999 FEW030 BKN120 24/23 A2982 RMK RN DST S SW=
200710291300 METAR MRLB 291300Z 00000KT 9999 FEW035 BKN130 25/24 A2984=
200710291400 METAR MRLB 291400Z 00000KT 9999SCT035 BKN130 27/24 A2986=
200710291500 METAR MRLB 291500Z 34003KT 9999 SCT035 BKN130 28/24 A2987=
200710291600 METAR MRLB 291600Z 26003KT 9999 SCT030 BKN250 28/24 A2986=
200710291700 METAR MRLB 291700Z 32008KT 9999 2000SW RA FEW015TCU SCT025 BKN120 25/23 A2985=
200710291800 METAR MRLB 291800Z 15002KT 9999 SCT035 BKN130 25/24 A298 HVH725 291824 GG TJSJYMYX TNCAYMYX TNCCYMYX KWBCYMYX 291758 MGGTYMYX=
200710291900 METAR MRLB 291900Z 28007KT 9999 SCT030 OVC130 27/25 A2980 RN E N=
200710292000 METAR MRLB 292000Z 28005KT 9999 DZ FEW025 BKN120 27/24 A 2978 CB DIST NE=
200710292100 METAR MRLB 292100Z 35006KT 9999 -RA SCT020 OVC120 24/22 A2977=
200710292200 METAR MRLB 292200Z 34002KT 9999 9999 FEW030 BKN120 24/23 A2977 RMK RN DST S SW=
200710292300 METAR MRLB 292300Z 28002KT 9999 DZ FEW025 OVC110 24/23 A2977 RERA=
200710300000 METAR MRLB 300000Z 03003KT 9999 SCT025 BKN130 24/23 A2978 RMK RN DST SW=
200710300100 METAR MRLB 300100Z 05003KT 9999 FEW030 BKN140 24/23 A2981=
200710300200 METAR MRLB 300200Z 07003KT 9999 SCT035 BKN140 24/23 A2983=
200710300300 METAR MRLB NIL=
200710300400 METAR MRLB NIL=
200710300800 METAR MRLB NIL=
200710301000 METAR MRLB NIL=
200710301100 METAR MRLB NIL=
200710301200 METAR MRLB 301200Z 36003KT 0100 FG VV/// 24/23 A2983=
200710301300 METAR MRLB 301300Z 03003KT 2000 -RA BR FEW002 BKN100 24/22 A2985 RMK FEW010=
200710301400 METAR MRLB 301400Z 00000KT 9999 FEW005 BKN100 25/25 A2987 RMK TCU DST W=
200710301500 METAR MRLB 301500Z 26007KT 9999 BKN015 SCT100 26/25 A29988=
200710301600 METAR MRLB 301600Z 27005KT 9999 SCT020 SCT100 27/25 A2988=
200710301700 METAR MRLB 301700Z 28006KT 9999 FEW025 BKN100 27/24 A2985 RMK RN DST N=
200710301800 METAR MRLB 301800Z 30009KT 9999 SCT025 BKN120 29/24 A2983 RMK RN DST N NE S=
200710301900 METAR MRLB 301900Z 28008KT 9999 FEW025 BKN120 27/24 A2980 RMK RN DST E SE S=
200710302000 METAR MRLB 302000Z 28006KT 9999 SCT020 BKN100 27/24 A2979 RN DIST S SW=
200710302100 METAR MRLB 302100Z 29009KT 9999 SCT020 SCT100 28/24 A2977 RN DST S/SW=
200710302200 METAR MRLB 302200Z 27007KT 9999 SCT020 BKN120 27/24 A2977 RN DST N/NE=
200710302300 METAR MRLB 302300Z 28006KT 9999 SCT030 BKN130 26/24 A2979=
200710310000 METAR MRLB 310000Z 27004KT 9999 SCT030 BKN120 25/24 A2980=
200710310100 METAR MRLB 210100Z 27002KT 9999 FEW025 BKN130 25/24 A2982=
200710310200 METAR MRLB 310200Z 15002KT 9999 FEW025 SCT140 25/23 A2985=
200710310300 METAR MRLB NIL=
200710310400 METAR MRLB NIL=
200710310500 METAR MRLB NIL=
200710310600 METAR MRLB NIL=
200710310700 METAR MRLB NIL=
200710310800 METAR MRLB NIL=
200710310900 METAR MRLB NIL=
200710311000 METAR MRLB NIL=
200710311100 METAR MRLB NIL=
200710311200 METAR MRLB NIL=
200710311300 METAR MRLB 311300Z 00000KT 9999 SCT010 BKN120 24/23 A2985 ST BAJOS ARND=
200710311400 METAR MRLB 311400Z 18003KT 9999 FEW012 SCT040 26/24 A2987 ST BAJOS ARND=
200710311500 METAR MRLB 311500Z 24004KT 9999 SCT010TCU BKN100 26/24 A2989 RN DST N=
200710311600 METAR MRLB 311600Z 26010KT 9999 SCT010TCU BKN220 27/24 A2988 RN DST ARND=
200710311700 METAR MRLB 311700Z 24009KT 9999 FEW010TCU SCT100 BKN240 26/24 A2986 RN SW=
200710311800 METAR MRLB 311800Z 26010KT 9999 SCT015 BKN200 28/24 A2983=
200710311900 METAR MRLB 311900Z 29010KT 9999 SCT020 BKN170 27/24 A2980=
200710312000 METAR MRLB NIL=
200710312100 METAR MRLB 312100Z 28010KT 9999 SCT020TCU BKN120 27/24 A2977 RMK RN DST E=
200710312200 METAR MRLB 312200Z 26006KT 9999 SCT015TCU BKN180 25/23 A2978 RMK RN W E=
200710312300 METAR MRLB 312300Z 25004KT 9999 SCT010 BKN120 25/24 A2978 RMK DZ ARND=
200711010000 METAR MRLB 010000Z 26004KT 9999 SCT015TCU BKN100 25/23 A2980=
200711010100 METAR MRLB NIL=
200711010200 METAR MRLB NIL=
200711010400 METAR MRLB NIL=
200711010500 METAR MRLB NIL=
200711010600 METAR MRLB NIL=
200711010700 METAR MRLB NIL=
200711010800 METAR MRLB NIL=
200711010900 METAR MRLB NIL=
200711011000 METAR MRLB NIL=
200711011100 METAR MRLB NIL=
200711011200 METAR MRLB 011200Z 00000KT 15000 BR SCT010 SCT120 23/22 A2982=
200711011300 METAR MRLB 011300Z 14002KT 9999 SCT025 BKN140 24/23 A2984=
200711011400 METAR MRLB 011400Z 00000KT 9999 SCT030 SCT140 26/24 A2986=
200711011500 METAR MRLB 011500Z 19003KT 9999 SCT030 BKN250 27/24 A2987=
200711011600 METAR MRLB 011600Z 19004KT 9999 SCT035 SCT250 28/24 A2987=
200711011800 METAR MRLB 011800Z 25007KT 9999 SCT030 BKN130 29/24 A2981 RMK RN DST NE=
200711011900 METAR MRLB 011900Z 29009KT 9999 SCT035 BKN130 30/24 A2979 RN DST NE=
200711012000 METAR MRLB 012000Z 29008KT 9999 SCT035 BKN140 29/23 A2977 RMK RN DST E NE=
200711012100 METAR MRLB 012100Z 28009KT 9999 SCT035 BKN140 29/24 A2976 RMK RN N NE=
200711012200 METAR MRLB 012200Z 29007KT 9999 FEW035 BKN140 28/24 A2976 RMK RN E=
200711012300 METAR MRLB 012300Z 29004KT 9999 FEW035 BKN140 27/23 A2977=
200711020000 METAR MRLB 020000Z 28004KT 9999 SCT035 OVC240 2//23 A2978=
200711020100 METAR MRLB 020100Z 14002KT 9999 FEW035 BKN240 25/23 A2982=
200711020200 METAR MRLB 020200Z 00000KT 9999 SCT025 BKN240 25/24 A2984=
200711020300 METAR MRLB NIL=
200711020400 METAR MRLB NIL=
200711020500 METAR MRLB NIL=
200711020600 METAR MRLB NIL=
200711020700 METAR MRLB NIL=
200711020800 METAR MRLB NIL=
200711020900 METAR MRLB NIL=
200711021000 METAR MRLB NIL=
200711021200 METAR MRLB 021200Z 03002KT 9999 2000S BR SCT005 BKN100 22/22 A2985=
200711021300 METAR MRLB 021300Z 17003KT 5000 1000SW FG SCT003 BKN010 23/23 A2987=
200711021400 METAR MRLB 021400Z 16003KT 9999 VCFG SCT005 SCT010 24/24 A2988 RMK VIS SW 6000MTS=
200711021500 METAR MRLB 021500Z 20004KT 9999 BKN010 26/25 A2990=
200711021600 METAR MRLB 021600Z 19003KT 9999 SCT020 28/24 A2989 RMK FEW130=
200711021700 METAR MRLB 021700Z 16003KT 9999 SCT025 SCT130 30/24 A2986=
200711021800 METAR MRLB 021800Z 17003KT 9999 SCT030 SCT130 30/23 A2983 RMK CB W=
200711021900 METAR MRLB 021900Z 27007KT 999 BKN030 30/25 A2980 RMK RN NE FEW130=
200711022000 METAR MRLB 022000Z 28012KT 9999 SCT025 SCT120 29/24 A2978 RMK TCU RN NE=
200711022100 METAR MRLB 022100Z 28011KT 9999 SCT025 SCT120 28/24 A2977=
200711022200 METAR MRLB 022200Z 29009KT 9999 SCT020 SCT120 28/24 A2978=
200711022300 METAR MRLB 022300Z 27007KT 9999 SCT020 SCT120 27/24 A2979=
200711022357 METAR MRLB 030000Z 28003KT 9999 SCT020 BKN120 26/24 A2981=
200711030000 METAR MRLB 030000Z 28003KT 9999 SCT020 BKN120 26/24 A2981=
200711030100 METAR MRLB 030100Z 00000KT 9999 FEW020 BKN120 26/24 A2985=
200711030200 METAR MRLB NIL=
200711030300 METAR MRLB 030300Z 25008KT 9999 FEW025 BKN250 28/24 A2976=
200711030400 METAR MRLB NIL=
200711030500 METAR MRLB NIL=
200711030600 METAR MRLB NIL=
200711030700 METAR MRLB NIL=
200711030800 METAR MRLB NIL=
200711030900 METAR MRLB NIL=
200711031000 METAR MRLB NIL=
200711031100 METAR MRLB NIL=
200711031200 METAR MRLB 031200Z 00000KT 9999 FEW025 SCT250 23/23 A2987=
200711031300 METAR MRLB 031300Z 13005KT 4000 BR SCT002 BKN250 24/23 A2987=
200711031400 METAR MRLB 031400Z 00000KT 9999 SCT010 BKN250 26/24 A2989=
200711031500 METAR MRLB 031500Z 16005KT 9999 FEW030 SCT250 28/25 A2989=
200711031600 METAR MRLB 031600Z 20005KT 9999 SCT025 BKN250 30/24 A2988=
200711031700 METAR MRLB 031700Z 00000KT 9999 SCT020TCU BKN250 31/24 A2986=
200711031800 METAR MRLB 031800Z 27008KT 9999 SCT020TCU BKN180 28/14 A2983 RERA RN E S=
200711031900 METAR MRLB NIL=
200711032000 METAR MRLB 032000Z 23006KT 9999 SCT025 BKN250 28/24 A2970 TCU RN S=
200711032100 METAR MRLB NIL=
200711032200 METAR MRLB 032200Z 24007KT 9999 FEW025 BKN250 27/24 A2977=
200711032300 METAR MRLB 032300Z 24007KT CAVOK 27/24 A2978 RMK FEW070 BKN250=
200711040000 METAR MRLB 040000Z 25006KT CAVOK 26/24 A2980 RMK FEW100=
200711040100 METAR MRLB 040100Z 26005KT CAVOK 26/24 A2982 RMK FEW100=
200711040200 METAR MRLB NIL=
200711040300 METAR MRLB NIL=
200711040400 METAR MRLB NIL=
200711040500 METAR MRLB NIL=
200711040600 METAR MRLB NIL=
200711040700 METAR MRLB NIL=
200711040800 METAR MRLB NIL=
200711040900 METAR MRLB NIL=
200711041000 METAR MRLB NIL=
200711041100 METAR MRLB NIL=
200711041200 METAR MRLB NIL=
200711041300 METAR MRLB 041300Z 22002KT CAVOK 24/24 A2981 RMK BKN250 DUE ST W=
200711041400 METAR MRLB 041400Z 20004KT CAVOK 26/24 A2983 RMK SCT250=
200711041500 METAR MRLB 041500Z 34003KT CAVOK 30/24 A2983 RMK SCT250=
200711041600 METAR MRLB 041600Z 03013KT CAVOK 31/20 A2981 RMK BKN250 TRACE CU=
200711041700 METAR MRLB 041700Z 35012KT 9999 FEW035 SCT250 32/21 A2979=
200711041800 METAR MRLB 041800Z 35010KT 9999 SCT035 SCT250 32/20 A2975=
200711041900 METAR MRLB 041900Z 35010KT 9999 SCT035 SCT250 31/21 A2973=
200711042000 METAR MRLB 042000Z 36011KT 9999 SCT035 BKN250 30/21 A2970=
200711042100 METAR MRLB 042100Z 35009KT 9999 SCT035 BKN250 29/21 A2970=
200711042200 METAR MRLB 042200Z 34005KT 9999 SCT035 BKN250 28/21 A2970=
200711042300 METAR MRLB 042300Z 35008KT 9999 SCT035 OVC250 27/21 A2971=
200711050000 METAR MRLB 050000Z 08002KT 9999 SCT035 OVC250 26/21 A2973=
200711050100 METAR MRLB 050100Z 20003KT 9999 FEW035 BKN250 25/22 A2974=
200711050200 METAR MRLB 050200Z 03004KT 9999 SCT035 BKN250 25/21 A2978=
200711050300 METAR MRLB NIL=
200711050400 METAR MRLB NIL=
200711050500 METAR MRLB NIL=
200711050600 METAR MRLB NIL=
200711050700 METAR MRLB NIL=
200711050800 METAR MRLB NIL=
200711050900 METAR MRLB NIL=
200711051000 METAR MRLB NIL=
200711051100 METAR MRLB NIL=
200711051200 METAR MRLB 051200Z 14002KT 9999 SCT035 SCT250 22/22 A2975 RN N SW=
200711051300 METAR MRLB 051300Z 00000KT 9999 SCT035 SCT100 23/22 A2978 RN DST N/NE/S=
200711051400 METAR MRLB 051400Z 30002KT 9999 SCT035 BKN250 26/24 A2980 RN DST N=
200711051500 METAR MRLB 051500Z 26003KT 9999 SCT035 BKN250 28/23 A2980 RN DST N/NE=
200711051600 METAR MRLB 051600Z 35005KT 9999 BKN030 SCT100 27/24 A2980 RN DST N/NE/W=
200711051700 METAR MRLB 051700Z 32005KT 9999 SCT030 BKN250 29/25 A2977 RN DST N/NE=
200711051800 METAR MRLB 051800Z 01002KT 9999 SCT030 SCT120 30/24 A2974 RN DST N/S/SW=
200711051900 METAR MRLB 051900Z 33005KT 9999 SCT030 SCT250 30/24 A2970 RN DST S FEW120=
200711052000 METAR MRLB 052000Z 10008KT 9999 SCT030 SCT250 32/24 A2966 TCU/RN DST S=
200711052100 METAR MRLB 052100Z 34008KT 9999 SCT030 SCT100 30/24 A2966 RMK TCU DST NE RN S FEW250=
200711052200 METAR MRLB 052200Z 21005KT 9999 SCT030 SCT220 29/24 A2967 RMK RN DST S TS RN DST SW FEW100=
200711052300 METAR MRLB 052300Z 23005KT 9999 SCT030 SCT220 27/24 A2969 RN SE S FEW100=
200711060000 METAR MRLB 060000Z 23004KT 9999 OVC030 26/24 A2971 RMK RN DST N S SW=
200711060100 METAR MRLB 060100Z 19006KT 9999 OVC030 25/24 A2975=
200711060200 METAR MRLB 060200Z 19006KT 9999 OVC030 25/24 A2975 LTNG DST NE E=
200711060300 METAR MRLB NIL=
200711060400 METAR MRLB NIL=
200711060500 METAR MRLB NIL=
200711060600 METAR MRLB NIL=
200711060700 METAR MRLB NIL=
200711060800 METAR MRLB NIL=
200711060900 METAR MRLB NIL=
200711061000 METAR MRLB NIL=
200711061100 METAR MRLB NIL=
200711061200 METAR MRLB NIL=
200711061300 METAR MRLB 061300Z 00000KT 9999 SCT010 BKN250 25/24 A2979 RMK BR DST ARND=
200711061400 METAR MRLB 061400Z 00000KT 9999 SCT012 BKN240 27/24 A2981=
200711061500 METAR MRLB 061500Z 18004KT 9999 FE015 SCT150 27/24 A2983=
200711061600 METAR MRLB 061600Z 00000KT 9999 SCT020 BKN220 29/23 A2981=
200711061700 METAR MRLB 061700Z 00000KT 9999 FEW0 15TCU SCT100 BKN250 30/24 A2976 RMK TCU S SW=
200711061800 METAR MRLB 061800Z 30005KT 9999 FEW010TCU SCT120 BKN250 30/24 A2975 RMK RN DST N SW=
200711061900 METAR MRLB 061900Z 02006KT 9999 SCT020TCU SCT120 28/24 A2973 REDZ RMK RN DST ESE S=
200711062000 METAR MRLB 062000Z 02005KT 9999 FEW012TCU SCT100 BKN220 28/25 A2971 RMK RN E S=
200711062100 METAR MRLB 062100Z 22004KT 9999 FEW015TCU SCT100 BKN220 27/25 A2971=
200711062200 METAR MRLB 062200Z 16006KT 9999 SCT025TCU BKN140 27/25 A2973 RMK RN N E S=
200711062300 METAR MRLB 062300Z 18005KT 9000 -DZ SCT015 BKN100 25/24 A2975=
200711070000 METAR MRLB 070000Z 23005KT 9000 DZ SCT015 BKN100 25/24 A2977 RMK BR ARND=
200711070100 METAR MRLB 070100Z 26003KT 9000 -DZ SCT020 BKN100 24/24 A2981 BR DST ARND=
200711070200 METAR MRLB NIL=
200711070300 METAR MRLB NIL=
200711070400 METAR MRLB NIL=
200711070500 METAR MRLB NIL=
200711070600 METAR MRLB NIL=
200711070700 METAR MRLB NIL=
200711070800 METAR MRLB NIL=
200711070900 METAR MRLB NIL=
200711071000 METAR MRLB NIL=
200711071100 METAR MRLB NIL=
200711071200 METAR MRLB 071200Z 18006KT 9999 FEW030 OVC120 22/21 A2978=
200711071300 METAR MRLB 071300Z 21006KT 9999 FEW035 OVC120 23/21 A2981 RMK RN NE=
200711071400 METAR MRLB 071400Z 22005KT 9999 FEW035 BKN120 24/22 A2983=
200711071500 METAR MRLB 071500Z 22006KT 9999 FEW040 SCT140 OVC250 27/23 A2984=
200711071600 METAR MRLB 071600Z 23007KT 9999 FEW035 BKN140 28/22 A2982=
200711071700 METAR MRLB 071700Z 23007KT 9999 FEW035 BKN140 29/22 A2980=
200711071800 METAR MRLB 071800Z 21007KT 9999 FEW035 BKN250 30/22 A2976=
200711071900 METAR MRLB 071900Z 28008KT 9999 FEW035 BKN250 31/21 A2974=
200711072000 METAR MRLB 072000Z 14004KT 9999 FEW035 SCT140 BKN250 30/23 A2972=
200711072100 METAR MRLB 072100Z 28006KT 9999 FEW035 OVC250 30/21 A2970=
200711072200 METAR MRLB 072200Z 13003KT 9999 SCT035 BKN250 29/21 A2971=
200711072300 METAR MRLB 072300Z 16002KT 9999 SCT035 BKN230 28/22 A2972=
200711080000 METAR MRLB 080000Z 20004KT 9999 FEW035 OVC240 27/22 A2973=
200711080100 METAR MRLB 080100Z 19004KT 9999 SCT035 BKN240 26/22 A2976=
200711080200 METAR MRLB 080200Z 21004KT 9999 FEW035 BKN240 25/22 A2978=
200711080300 METAR MRLB NIL=
200711080400 METAR MRLB NIL=
200711080500 METAR MRLB NIL=
200711080600 METAR MRLB NIL=
200711080700 METAR MRLB NIL=
200711080800 METAR MRLB NIL=
200711080900 METAR MRLB NIL=
200711081000 METAR MRLB NIL=
200711081100 METAR MRLB NIL=
200711081200 METAR MRLB 081200Z 18005KT 9999 FEW025 BKN120 22/21 A2978 RMK RN DST N NE=
200711081300 METAR MRLB 081300Z 25012KT 3000 RA FEW010 BKN015 23/21 A2986=
200711081400 METAR MRLB 081400Z 19008KT 9999 FEW030 SCT130 27/22 A2981 RN N NE SCT250=
200711081500 METAR MRLB 081500Z 19006KIT 9999 FEW030 SCT130 BKN250 28/22 A2983 RN N NE=
200711081600 METAR MRLB 081600Z 25005KT 9999 FEW035 OVC250 30/21 A2981 RN N NE=
200711081700 METAR MRLB 081700Z 19006KT 9999 SCT035 BKN250 30/22 A2979 RN N NE=
200711081800 METAR MRLB 081800Z 30006KT 9999 SCT035 SCT130 30/22 A2977 RN N NE=
200711081900 METAR MRLB 081900Z 36005KT 9999 SCT035 BKN130 29/21 A2975 RN N NE=
200711082000 METAR MRLB 082000Z 34009KT 9999 SCT035 SCT130 30/21 A2973 RN N FEW250=
200711082100 METAR MRLB NIL=
200711082200 METAR MRLB 082200Z 34004KT 9999 FEW035 OVC120 29/21 A2973=
200711082300 METAR MRLB 082300Z 25007KT 9999 FEW035 OVC100 28/22 A2974=
200711090000 METAR MRLB 090000Z 21005KT 9999 FEW035 OVC100 26/22 A2974=
200711090100 METAR MRLB NIL=
200711090200 METAR MRLB NIL=
200711090300 METAR MRLB NIL=
200711090400 METAR MRLB NIL=
200711090500 METAR MRLB NIL=
200711090600 METAR MRLB NIL=
200711090700 METAR MRLB NIL=
200711090800 METAR MRLB NIL=
200711090900 METAR MRLB NIL=
200711091000 METAR MRLB NIL=
200711091100 METAR MRLB NIL=
200711091200 METAR MRLB NIL=
200711091300 METAR MRLB 091300Z 30006KT CAVOK 22/20 A2982 RMK BKN220=
200711091400 METAR MRLB 091400Z 24006KT CAVOK 25/20 A2983 RMK SCT250=
200711091500 METAR MRLB 091500Z 22007KT CAVOK 28/19 A2985 RMK BKN250=
200711091600 METAR MRLB 091600Z 24009KT CAVOK 28/20 A2985 RMK BKN250=
200711091700 METAR MRLB 091700Z 22008KT CAVOK 30/21 A2982 RMK FEW100 SCT250=
200711091800 METAR MRLB 091800Z 30009KT CAVOK 31/21 A2980 RMK FEW150 SCT250=
200711091900 METAR MRLB 091900Z 28006KT CAVOK 31/20 A2978 RMK BKN150 SCT250=
200711092000 METAR MRLB 092000Z 32009KT CAVOK 30/20 A2977 RMK BKN150=
200711092100 METAR MRLB 092100Z 30005KT CAVOK 31/20 A2976 FEW100 SCT250=
200711092200 METAR MRLB 092200Z 16005KT CAVOK 30/19 A2977 SCT200=
200711092300 METAR MRLB 092300Z 30007KT CAVOK 27/20 A2978 FEW100 BKN250=
200711100000 METAR MRLB 100000Z 27004KT CAVOK 25/20 A2980 SCT250=
200711100100 METAR MRLB 100100Z 24006KT CAVOK 25/20 A2982 SCT180=
200711100200 METAR MRLB 100200Z 26005KT CAVOK 24/20 A2984 FEW250=
200711100300 METAR MRLB NIL=
200711100400 METAR MRLB NIL=
200711100500 METAR MRLB NIL=
200711100600 METAR MRLB NIL=
200711100700 METAR MRLB NIL=
200711100800 METAR MRLB NIL=
200711100900 METAR MRLB NIL=
200711101000 METAR MRLB NIL=
200711101100 METAR MRLB NIL=
200711101200 METAR MRLB 101200Z 00000KT 9999 FEW030 OVC130 20/19 A2982=
200711101300 METAR MRLB 101300Z 30004KT CAVOK 21/19 A2982 BKN130=
200711101400 METAR MRLB 101400Z 24002KT CAVOK 24/20 A2984 BKN130=
200711101500 METAR MRLB 101500Z 20004KT 9999 FEW035 OVC130 25/20 A2986=
200711101600 METAR MRLB 101600Z 23003KT 9999 FEW040 BKN130 26/20 A2985=
200711101700 METAR MRLB 101700Z 26005KT 9999 FEW040 OVC130 27/20 A2984=
200711101800 METAR MRLB 101800Z 32004KT 9999 FEW040 BKN130 29/19 A2981=
200711101900 METAR MRLB 101900Z 27004KT 9999 FEW040 BKN140 30/18 A2979=
200711102000 METAR MRLB 102000Z 30003KT 9999 FEW040 BKN140 30/19 A2977=
200711102100 METAR MRLB 102100Z 28006KT 9999 FEW035 OVC130 28/19 A2977=
200711102200 METAR MRLB 102200Z 31004KT 9999 FEW035 OVC130 27/20 A2977=
200711102300 METAR MRLB 102300Z 34003KT 9999 FEW035 BKN130 26/21 A2978=
200711110000 METAR MRLB 110000Z 110000Z23004KT 9999 FEW035 BKN120 24/21 A2979=
200711110100 METAR MRLB 110100Z 21004KT 9999 FEW035 BKN120 23/21 A2980=
200711110200 METAR MRLB 110200Z 20004KT 9999 FEW040 BKN130 23/21 A2982=
200711110300 METAR MRLB NIL=
200711110400 METAR MRLB NIL=
200711110500 METAR MRLB NIL=
200711110600 METAR MRLB NIL=
200711110700 METAR MRLB NIL=
200711110800 METAR MRLB NIL=
200711110900 METAR MRLB NIL=
200711111000 METAR MRLB NIL=
200711111100 METAR MRLB NIL=
200711111200 METAR MRLB 111200Z 19003KT 9999 FEW045 BKN130 20/19 A2979=
200711111300 METAR MRLB 111300Z 23002KT 9999 FEW040 SCT130 BKN220 23/19 A2981=
200711111400 METAR MRLB 111400Z 32002KT 9999 FEW040 SCT130 BKN220 23/20 A2983=
200711111500 METAR MRLB 111500Z 26002KT CAVOK 27/20 A2985 RMK FEW140 BKN250=
200711111600 METAR MRLB 111600Z 26004KT CAVOK 28/18 A2984 RMK FEW140 BKN250=
200711111700 METAR MRLB 111700Z 29004KT CAVOK 30/18 A2984 RMK FEW140 BKN250=
200711111800 METAR MRLB 111800Z 27006KT CAVOK 30/19 A2979 RMK FEW130 BKN250=
200711111900 METAR MRLB 111900Z 28006KT CAVOK 30/19 A2977 RMK FEW130 BKN250=
200711112000 METAR MRLB NIL=
200711112100 METAR MRLB 112100Z 12003KT CAVOK 29/19 A2974 RMK OVC140=
200711112200 METAR MRLB 112200Z 34003KT CAVOK 28/20 A2974 RMK OVC140=
200711112300 METAR MRLB 112300Z 17002KT CAVOK 26/21 A2975 RMK OVC140=
200711120000 METAR MRLB 120000Z 16003KT 9999 FEW040 BKN140 24/20 A2976=
200711120100 METAR MRLB 120100Z 22004KT 9999 FEW040 BKN140 23/20 A2979=
200711120200 METAR MRLB 120200Z 21004KT CAVOK 23/21 A2982 RMK BKN140=
200711120300 METAR MRLB NIL=
200711120400 METAR MRLB NIL=
200711120500 METAR MRLB NIL=
200711120600 METAR MRLB NIL=
200711120700 METAR MRLB NIL=
200711120800 METAR MRLB NIL=
200711120900 METAR MRLB NIL=
200711121000 METAR MRLB NIL=
200711121100 METAR MRLB NIL=
200711121200 METAR MRLB 121200Z 12002KT CAVOK 16/15 A2996 FEW100 BKN270 TRAZAS SCT=
200711121300 METAR MRLB 121300Z 00000KT 9999 FEW035 SCT250 23/21 A2985=
200711121400 METAR MRLB 121400Z 00000KT 9999 FEW025 SCT120 BKN250 26722 A2986=
200711121500 METAR MRLB 121500Z 00000KT 9999 FEW025 SCT180 27/21 A2986=
200711121600 METAR MRLB 121600Z 28006KT 9999 SCT025 BKN180 28/22 A2985=
200711121700 METAR MRLB 121700Z 32005KT 9999 SCT025 BKN150 29/22 A2984=
200711121800 METAR MRLB 121800Z 29007KT 9999 SCT025 BKN220 29/22 A2981=
200711121900 METAR MRLB 121900Z 35008KT 9999 SCT020 BKN250 29/22 A2979=
200711122000 METAR MRLB 122000Z 27007KT 9999 SCT025 BKN250 29/22 A2978=
200711122100 METAR MRLB 122100Z 28007KT 9999 FEW020 SCT250 29/22 A2976=
200711122200 METAR MRLB 122200Z 29010KT 9999 FEW020 SCT250 27/22 A2976=
200711122300 METAR MRLB 122300Z 29008KT 9999 FEW030 SCT250 26/21 A2977=
200711130000 METAR MRLB 130000Z 28007KT 9999 FEW040 25/20 A2980=
200711130100 METAR MRLB 130100Z 29006KT CAVOK 24/21 A2981 SCT200=
200711130300 METAR MRLB NIL=
200711130400 METAR MRLB NIL=
200711130500 METAR MRLB NIL=
200711130600 METAR MRLB NIL=
200711130700 METAR MRLB NIL=
200711130800 METAR MRLB NIL=
200711130900 METAR MRLB NIL=
200711131000 METAR MRLB NIL=
200711131100 METAR MRLB NIL=
200711131200 METAR MRLB 131200Z 00000KT 9999 FEW035 SCT250 22/21 A2983=
200711131300 METAR MRLB 131300Z 03003KT CAVOK 24/22 A2985 FEW130 SCT250=
200711131400 METAR MRLB 131400Z 04003KT 9999 SCT030 BKN250 25/23 A2986=
200711131500 METAR MRLB 131500Z 05002KT 9999 FEW035 SCT250 28/23 A2986=
200711131600 METAR MRLB 131600Z 32004KT 9999 SCT035 SCT250 28/23 A2986=
200711131700 METAR MRLB 131700Z 28005KT 9999 SCT035 SCT250 29/23 A2984=
200711131800 METAR MRLB 131800Z 29007KT 9999 SCT035 BKN250 29/23 A2981=
200711131900 METAR MRLB 131900Z 27006KT 9999 SCT035 BKN250 30/23 A2977=
200711132000 METAR MRLB 132000Z 28008KT 9999 FEW035 BKN250 30/24 A2976=
200711132100 METAR MRLB 132100Z 29008KT 9999 SCT035 BKN250 29/23 A2975=
200711132200 METAR MRLB 132200Z 29008KT 9999 FEW035 SCT250 28/23 A2974=
200711132300 METAR MRLB 132300Z 34004KT 9999 DZ SCT030 BKN120 26/24 A2976 RERA=
200711140000 METAR MRLB 140000Z 23003KT 9999 SCT030 BKN120 25/24 A2977 RN DST S=
200711140100 METAR MRLB 140100Z 18002KT 9999 FEW035 BKN130 24/23 A2980=
200711140200 METAR MRLB 140200Z 16003KT 9999 FEW035 BKN130 24/23 A2981=
200711140300 METAR MRLB NIL=
200711140400 METAR MRLB NIL=
200711140500 METAR MRLB NIL=
200711140600 METAR MRLB NIL=
200711140700 METAR MRLB NIL=
200711140800 METAR MRLB NIL=
200711140900 METAR MRLB NIL=
200711141000 METAR MRLB NIL=
200711141100 METAR MRLB NIL=
200711141200 METAR MRLB 141200Z 24006KT 9999 FEW040 BKN250 22/22 A2973=
200711141300 METAR MRLB NIL=
200711141400 METAR MRLB 141400Z 18003KT 9999 FEW035 BKN250 26/23 A2977=
200711141500 METAR MRLB 141500Z 07016KT 9999 FEW035 BKN250 29/21 A2978 RMK FEW130=
200711141600 METAR MRLB 141600Z 08013KT 9999 FEW035 BKN250 30/21 A2976 RMK GUST 17KT=
200711141700 METAR MRLB 141700Z 09012KT 9999 FEW035 BKN130 31/22 A2975 RMK GUST 19KT=
200711141800 METAR MRLB 141800Z 09014KT 9999 FEW035 BKN130 30/22 A2973 RMK GUST 20KT=
200711141900 METAR MRLB 141900Z 10011KT 9999 FEW035 OVC120 30/22 A2971 RMK RN DST NE E=
200711142000 METAR MRLB 142000Z 10008KT 9999 -RA FEW030 OVC100 27/23 A2969=
200711142100 METAR MRLB 142100Z 10007KT 9999 FEW030 OVC100 26/23 A2968 RN DST N/E=
200711142200 METAR MRLB 142200Z 12005KT 9999 FEW030 BKN120 27/23 A2968 RN DST N/E=
200711142300 METAR MRLB 142300Z 17002KT 9999 FEW035 BKN120 26/24 A2970 FEW250=
200711150000 METAR MRLB NIL=
200711150100 METAR MRLB 150100Z 12006KT 9999 FEW040 BKN250 26/21 A2973=
200711150200 METAR MRLB NIL=
200711150300 METAR MRLB NIL=
200711150400 METAR MRLB NIL=
200711150500 METAR MRLB NIL=
200711150600 METAR MRLB NIL=
200711150700 METAR MRLB NIL=
200711150800 METAR MRLB NIL=
200711150900 METAR MRLB NIL=
200711151000 METAR MRLB NIL=
200711151100 METAR MRLB NIL=
200711151200 METAR MRLB NIL=
200711151300 METAR MRLB 151300Z 28005KT 9999 FEW030 SCT250 26/22 A2977=
200711151400 METAR MRLB 151400Z 07010G20KT 9999 FEW025 SCT120 BKN250 28/20 A2979=
200711151500 METAR MRLB 151500Z 07010G20KT 9999 FEW025 SCT220 29/21 A2980=
200711151600 METAR MRLB 151600Z 08012G22KT 9999 FEW025 SCT240 30/20 A2980=
200711151700 METAR MRLB 151700Z 07018KT 9999 FEW025 SCT220 30/21 A2980=
200711151800 METAR MRLB 151800Z 10013KT 9999 -RA FEW020 BKN100 28/22 A2977=
200711151900 METAR MRLB 151900Z 08017KT 9999 FEW025 BKN150 27/22 A2975=
200711152000 METAR MRLB 152000Z 08014KT 9999 FEW030 BKN170 27/22 A2972=
200711152100 METAR MRLB 152100Z 02008KT 9999 FEW030 BKN200 29/22 A2971=
200711152200 METAR MRLB 152200Z 07018KT 9999 FEW035 BKN220 28/21 A2973=
200711152300 METAR MRLB 152300Z 07015KT 9999 FEW035 SCT150 27/21 A2974=
200711160000 METAR MRLB 160000Z 07014KT 9999 FEW040 SCT180 26/21 A2974=
200711160100 METAR MRLB 160100Z 07012KT 9999 FEW040 SCT150 25/20 A2976=
200711160200 METAR MRLB NIL=
200711160300 METAR MRLB NIL=
200711160400 METAR MRLB NIL=
200711160500 METAR MRLB NIL=
200711160600 METAR MRLB NIL=
200711160700 METAR MRLB NIL=
200711160800 METAR MRLB NIL=
200711160900 METAR MRLB NIL=
200711161000 METAR MRLB NIL=
200711161200 METAR MRLB 161200Z 17006KT 9999 SCT035 22/19 A2980=
200711161300 METAR MRLB 161300Z 23006KT 9999 SCT035 24/19 A2981=
200711161400 METAR MRLB 161400Z 22006KT 9999 SCT035 27/19 A2983 RMK FEW130=
200711161500 METAR MRLB 161500Z 23008KT 9999 FEW035 23/19 A2984 RMK TRACE AC=
200711161600 METAR MRLB 161600Z 23007KT 9999 FEW035 30/19 A2982=
200711161700 METAR MRLB 161700Z 21008KT 9999 SCT035 31/18 A2980 RMK TRACE AC=
200711161800 METAR MRLB 161800Z 29004KT 9999 FEW035 SCT130 32/17 A2978=
200711161900 METAR MRLB 161900Z 16006KT 9999 SCT035 SCT130 29/18 A2976=
200711162000 METAR MRLB 162000Z 26002KT 9999 FEW035 SCT130 31/19 A2973=
200711162100 METAR MRLB 162100Z 20006KT 9999 FEW035 SCT140 31/18 A2972=
200711162200 METAR MRLB 162200Z 08002KT 9999 FEW035 SCT140 30/18 A2973=
200711162300 METAR MRLB 162300Z 28004KT 9999 SCT040 BKN130 27/21 A2974=
200711170000 METAR MRLB 170000Z 24003KT 9999 FEW035 BKN130 25/21 A2974=
200711170100 METAR MRLB 170100Z 18002KT 9999 FEW035 BKN130 25/20 A2976=
200711170200 METAR MRLB 170200Z 23005KT 9999 FEW035 BKN130 24/20 A2979=
200711170300 METAR MRLB NIL=
200711170400 METAR MRLB NIL=
200711170500 METAR MRLB NIL=
200711170600 METAR MRLB NIL=
200711170700 METAR MRLB NIL=
200711170800 METAR MRLB NIL=
200711170900 METAR MRLB NIL=
200711171000 METAR MRLB NIL=
200711171100 METAR MRLB NIL=
200711171200 METAR MRLB 171200Z 23003KT 9999 FEW040 21/19 A2978=
200711171300 METAR MRLB 171300Z 06003KT 9999 FEW040 23/20 A2981=
200711171400 METAR MRLB 171400Z 23009KT 9999 FEW040 27/21 A2983=
200711171500 METAR MRLB 171500Z 22006KT 9999 FEW040 29/21 A2982=
200711171600 METAR MRLB 171600Z 24006KT 9999 FEW040 30/20 A2982=
200711171700 METAR MRLB 171700Z 29008KT 9999 FEW040 31/24 A2979 RMK FEW140=
200711171800 METAR MRLB 171800Z 28008KT 9999 FEW040 SCT140 31/21 A2976=
200711171900 METAR MRLB 171900Z 26008KT 9999 FEW040 BKN140 32/21 A2973=
200711172000 METAR MRLB 172000Z 29009KT 9999 SCT040 SCT130 SCT130 32/21 A2971=
200711172100 METAR MRLB 172100Z 09010KT 9999 FEW040 31/21 A2971 FEW140=
200711172200 METAR MRLB 172200Z 02004KT 9999 SCT040 31/21 A2972=
200711172300 METAR MRLB 17230Z 09007KT 9999 FEW040 SCT130 29/20 A2971=
200711180000 METAR MRLB 180000Z 00000KT 9999 FEW040 28/21 A2975 FEW140=
200711180100 METAR MRLB NIL=
200711180200 METAR MRLB NIL=
200711180300 METAR MRLB NIL=
200711180400 METAR MRLB NIL=
200711180500 METAR MRLB NIL=
200711180600 METAR MRLB NIL=
200711180700 METAR MRLB NIL=
200711180800 METAR MRLB NIL=
200711180900 METAR MRLB NIL=
200711181000 METAR MRLB NIL=
200711181100 METAR MRLB NIL=
200711181200 METAR MRLB 181200Z 28006KT 9999 FEW020 SCT170 23/21 A2976=
200711181300 METAR MRLB 181300Z 26004KT 9999 FEW025 SCT100 BKN240 24/23 A2979=
200711181400 METAR MRLB 181400Z 07006KT 9999 FEW025 SCT240 28/22 A2981=
200711181500 METAR MRLB 181500Z 02006KT 9999 FEW030 SCT250 30/22 A2982=
200711181600 METAR MRLB 181600Z 07015G25KT 9999 SCT030 BKN240 31/22 A2982=
200711181700 METAR MRLB 181700Z 07012G22KT 9999 SCT090 28/23 A2985 RN NW N NE E=
200711181800 METAR MRLB 181800Z 08010G20KT 9999 FEW020 SCT180 32/21 A2977=
200711181900 METAR MRLB 181900Z 06010G20KT 9999 FEW025 SCT200 32/21 A2973=
200711182000 METAR MRLB 182000Z 07013KT 9999 FEW035 SCT200 32/21 A2970=
200711182100 METAR MRLB 182100Z 08014KT 9999 FEW025 SCT250 32/21 A2970=
200711182200 METAR MRLB 182200Z 07013KT 9999 FEW025 SCT200 30/22 A2971=
200711182300 METAR MRLB 182300Z 08010KT 9999 FEW020 SCT200 29/22 A2972=
200711190000 METAR MRLB 190000Z 07008KT 9999 FEW020 SCT150 27/21 A2974=
200711190100 METAR MRLB 190100Z 09008KT 9999 FEW025 SCT150 28/22 A2976=
200711190200 METAR MRLB NIL=
200711190300 METAR MRLB NIL=
200711190400 METAR MRLB NIL=
200711190500 METAR MRLB NIL=
200711190600 METAR MRLB NIL=
200711190700 METAR MRLB NIL=
200711190800 METAR MRLB NIL=
200711190900 METAR MRLB NIL=
200711191000 METAR MRLB NIL=
200711191400 METAR MRLB 191400Z 12007KT 9999 SCT035 29/13 A2978=
200711191500 METAR MRLB 191500Z 09011KT 9999 SCT035 31/22 A2978=
200711191600 METAR MRLB 191600Z 08012KT 9999 SCT035 31/23 A2977 RMK TRACE AC=
200711191700 METAR MRLB 191700Z 09012KT 9999 SCT035 31/23 A2975 RMK FEW130=
200711191800 METAR MRLB 191800Z 08011KT 9999 SCT030 BKN130 31/23 A2973=
200711191900 METAR MRLB 191900Z 07012KT 9999 SCT035 SCT130 31/23 A2971=
200711192000 METAR MRLB 192000Z 07012KT 9999 SCT035 SCT130 32/23 A2968=
200711192100 METAR MRLB 192100Z 07009KT 9999 SCT035 SCT130 32/23 A2966=
200711192200 METAR MRLB 192200Z 08009KT 9999 SCT035 BKN130 30/23 A2967=
200711192300 METAR MRLB 192300Z 08011KT 9999 FEW035 BKN130 29/22 A2967=
200711200000 METAR MRLB 200000Z 12005KT 9999 FEW035 BKN140 27/22 A2968=
200711200100 METAR MRLB 200100Z 05003KT 9999 FEW035 SCT140 27/22 A2974=
200711200200 METAR MRLB NIL=
200711200300 METAR MRLB NIL=
200711200400 METAR MRLB NIL=
200711200500 METAR MRLB NIL=
200711200600 METAR MRLB NIL=
200711200700 METAR MRLB NIL=
200711200800 METAR MRLB NIL=
200711200900 METAR MRLB NIL=
200711201000 METAR MRLB NIL=
200711201100 METAR MRLB NIL=
200711201200 METAR MRLB 201200Z 17005KT 9999 SCT030 BKN100 23/22 A2974 RN N NE=
200711201300 METAR MRLB 201300Z 21003KT 9999 SCT030 BKN100 25/23 A2977 RN DST N/NE/SW=
200711201400 METAR MRLB 201400Z 26008KT 9999 FEW030 BKN100 26/23 A2979 RN DST N/NE=
200711201500 METAR MRLB 201500Z 27008KT 9999 FEW030 BKN100 28/23 A2979 RN DST N/NE=
200711201600 METAR MRLB 201600Z 08022KT 9999 FEW035 SCT120 30/21 A2977 FEW250 RAFAGAS 29 NUDOS=
200711201700 METAR MRLB 201700Z 09019KT 9999 FEW040 SCT140 32/21 A2974 SCT250=
200711201800 METAR MRLB 201800Z 08015KT 9999 FEW040 BKN250 33/22 A2971 FEW140 RAFAGAS 23 NUDOS=
200711201900 METAR MRLB 201900Z 08019KT 9999 FEW040 SCT130 BKN250 31/21 A2969 26 NUDOS=
200711202000 METAR MRLB 202000Z 09018G30KT 9999 FEW040 BKN140 30/21 A2968=
200711202100 METAR MRLB 202100Z 08015KT 9999 FEW040 BKN140 30/21 A2967 RMK GUST 20KT=
200711202200 METAR MRLB 202200Z 09014KT 9999 FEW040 BKN140 30/21 A2967=
200711202300 METAR MRLB 202300Z 09014KT 9999 FEW040 BKN140 29/21 A2969=
200711210000 METAR MRLB 210000Z 09006KT 9999 FEW040 BKN140 27/21 A2971=
200711210100 METAR MRLB 210100Z 10008KT 9999 FEW040 SCT140 26/22 A2974=
200711210200 METAR MRLB NIL=
200711210300 METAR MRLB NIL=
200711210400 METAR MRLB NIL=
200711210500 METAR MRLB NIL=
200711210600 METAR MRLB NIL=
200711210700 METAR MRLB NIL=
200711210800 METAR MRLB NIL=
200711210900 METAR MRLB NIL=
200711211000 METAR MRLB NIL=
200711211100 METAR MRLB NIL=
200711211200 METAR MRLB 211200Z 10012KT 9999 FEW020 BKN180 29/22 A2978=
200711211300 METAR MRLB 211300Z 17010KT 9999 FEW025 SCT100 BKN220 24/22 A2983=
200711211400 METAR MRLB 211400Z 13010KT 9999 SCT030 BKN220 27/22 A2987=
200711211500 METAR MRLB 211500Z 06007KT 9999 FEW030 SCT100 BKN220 28/22 A2987=
200711211600 METAR MRLB 211600Z 10007KT 9999 SCT030 BKN180 30/23 A2988=
200711211700 METAR MRLB 211700Z 02008KT 9999 SCT030 BKN250 32/23 A2985=
200711211800 METAR MRLB 211800Z 07010KT 9999 FEW030 BKN240 31/22 A2982=
200711211900 METAR MRLB 211900Z 10015KT 9999 FEW025 SCT100 BKN240 30/22 A2979=
200711212000 METAR MRLB 212000Z 10012KT 9999 FEW025 SCT150 BKN240 29/22 A2977=
200711212100 METAR MRLB NIL=
200711212200 METAR MRLB 212200Z 09012KT 9999 FEW030 BKN180 28/22 A2979=
200711212300 METAR MRLB 212300Z 08006KT 9999 FEW035 BKN170 28/22 A2979=
200711220000 METAR MRLB 220000Z 10005KT 9999 FEW030 SCT120 26/22 A2981=
200711220100 METAR MRLB 220100Z 08006KT 9999 FEW030 SCT150 26/21 A2983=
200711220200 METAR MRLB NIL=
200711220300 METAR MRLB NIL=
200711220400 METAR MRLB NIL=
200711220500 METAR MRLB NIL=
200711220600 METAR MRLB NIL=
200711220700 METAR MRLB NIL=
200711220800 METAR MRLB NIL=
200711220900 METAR MRLB NIL=
200711221000 METAR MRLB NIL=
200711221100 METAR MRLB NIL=
200711221200 METAR MRLB 221200Z 04004KT 0300 FG VV/// 21/21 A2984=
200711221300 METAR MRLB 221300Z 00000KT CAVOK 23/21 A2980 RMK SCT250=
200711221400 METAR MRLB 221400Z 00000KT CAVOK 25/22 A//// RMK SCT250=
200711221500 METAR MRLB 221500Z 00000KT CAVOK 27/22 A//// RMK BKN250=
200711221600 METAR MRLB 221600Z 00000KT CAVOK 29/23 A//// RMK BKN250 TCU W=
200711221700 METAR MRLB 221700Z 05004KT 9999 FEW035 BKN250 31/23=
200711221800 METAR MRLB 221800Z 07009KT 9999 SCT035 BKN140 29/23 A2984 RMK RN NE=
200711221900 METAR MRLB 221900Z 30006KT 9999 SCT035 BKN140 29/24 A2982 RMK RN NE=
200711222000 METAR MRLB 222000Z 10004KT 9999 SCT035 OVC140 31/23 A2981=
200711222100 METAR MRLB 222100Z 06008KT 9999 FEW035 OVC140 30/22 A2980=
200711222200 METAR MRLB 222200Z 08005KT 9999 FEW035 BKN130 29/22 A2981=
200711222300 METAR MRLB 222300Z 13002KT 9999 FEW035 OVC130 27/23 A2982=
200711230000 METAR MRLB 230000Z 15004KT 9999 FEW035 BKN130 23/23 A2983=
200711230100 METAR MRLB 230100Z 10005KT 9999 FEW035 SCT140 26/22 A2985=
200711230200 METAR MRLB 230200Z 11007KT 9999 FEW035 BKN140 25/22 A2987=
200711230300 METAR MRLB NIL=
200711230400 METAR MRLB NIL=
200711230500 METAR MRLB NIL=
200711230600 METAR MRLB NIL=
200711230700 METAR MRLB NIL=
200711230800 METAR MRLB NIL=
200711230900 METAR MRLB NIL=
200711231000 METAR MRLB NIL=
200711231100 METAR MRLB NIL=
200711231200 METAR MRLB 231200Z 20005KT CAVOK 23/21 A2982 RMK FEW130=
200711231300 METAR MRLB 231300Z 00000KT CAVOK 25/22 A2984 FEW130=
200711231400 METAR MRLB 231400Z 26002KT CAVOK 27/22 A2987 FEW130=
200711231500 METAR MRLB 231500Z 08005KT 9999 FEW040 31/22 A2987=
200711231600 METAR MRLB 231600Z 08013KT 9999 FEW040 31/21 A2985=
200711231700 METAR MRLB 231700Z 06011KT 9999 SCT040 31/22 A2983=
200711231800 METAR MRLB 231800Z 07010KT 9999 SCT040 32/22 A2980=
200711231900 METAR MRLB 231900Z 08009KT 9999 SCT040 33/22 A2976=
200711232000 METAR MRLB 232000Z 07009KT 9999 FEW040 33/22 A2977=
200711232100 METAR MRLB 232100Z 06011KT 9999 SCT040 33/22 A2973=
200711232200 METAR MRLB 232200Z 07010KT 9999 SCT040 32/22 A2973=
200711232300 METAR MRLB 232300Z 06008KT 9999 FEW040 30/22 A2974 RMK RN DST N NE=
200711240000 METAR MRLB 240000Z 03005KT 9999 SCT040 28/22 A2976 RMK FEW140=
200711240100 METAR MRLB 240100Z 03004KT 9999 SCT040 27/22 A2980 RMK FEW140=
200711240200 METAR MRLB NIL=
200711240300 METAR MRLB NIL=
200711240400 METAR MRLB NIL=
200711240500 METAR MRLB NIL=
200711240600 METAR MRLB NIL=
200711240700 METAR MRLB NIL=
200711240800 METAR MRLB NIL=
200711240900 METAR MRLB NIL=
200711241000 METAR MRLB NIL=
200711241100 METAR MRLB NIL=
200711241200 METAR MRLB 241200Z 34004KT CAVOK 23/21 A2980 RMK SCT250=
200711241300 METAR MRLB 241300Z 00000KT CAVOK 26/21 A2983=
200711241400 METAR MRLB 241400Z 09006KT CAVOK 29/22 A2985 RMK FEW250=
200711241500 METAR MRLB 241500Z 10010KT CAVOK 30/21 A2984 RMK SCT250=
200711241600 METAR MRLB 241600Z 08012KT 9999 FEW025 32/22 A2984=
200711241700 METAR MRLB 241700Z 10012KT 9999 SCT025 32/21 A2982=
200711241800 METAR MRLB 241800Z 07012KT 9999 FEW020 SCT040 33/21 A2979=
200711241900 METAR MRLB 241900Z 09010KT 9999 FEW020 SCT040 32/21 A2977=
200711242000 METAR MRLB 242000Z 09010KT 9999 SCT035 32/21 A2975=
200711242100 METAR MRLB 242100Z 05010KT 9999 FEW025 SCT100 32/22 A2974=
200711242200 METAR MRLB 242200Z 31007KT 9999 FEW025 SCT100 30/24 A2975=
200711242300 METAR MRLB 242300Z 09007KT 9999 FEW030 SCT100 BKN250 29/22 A2976=
200711250000 METAR MRLB 250000Z 00000KT CAVOK 27/22 A2977=
200711250100 METAR MRLB 250100Z 10004KT CAVOK 26/22 A2979=
200711250200 METAR MRLB 250200Z 10006KT CAVOK 25/22 A2982=
200711250300 METAR MRLB NIL=
200711250400 METAR MRLB NIL=
200711250500 METAR MRLB NIL=
200711250600 METAR MRLB NIL=
200711250700 METAR MRLB NIL=
200711250900 METAR MRLB NIL=
200711251000 METAR MRLB NIL=
200711251100 METAR MRLB NIL=
200711251200 METAR MRLB 251200Z 09007KT CAVOK 25/21 A2979 SCT250 TRAZAS CU=
200711251300 METAR MRLB 251300Z 08009KT CAVOK 27/22 A2981 SCT250=
200711251400 METAR MRLB 251400Z 09011KT CAVOK 29/21 A2982 SCT250=
200711251500 METAR MRLB 251500Z 08014KT CAVOK 31/21 A2983 SCT250=
200711251600 METAR MRLB 251600Z 08013KT 9999 FEW035 SCT260 32/21 A2981=
200711251700 METAR MRLB 251700Z 08014KT 9999 FEW035 SCT260 32/22 A2979=
200711251800 METAR MRLB 251800Z 06013KT 9999 FEW035 SCT260 33/21 A2976=
200711251900 METAR MRLB 251900Z 06012KT 9999 SCT035 33/22 A2974=
200711252000 METAR MRLB 252000Z 07009KT 9999 SCT040 34/22 A2971=
200711252100 METAR MRLB 252100Z 09006KT 9999 SCT040 33/22 A2970=
200711252200 METAR MRLB 252200Z 07007KT 9999 SCT040 32/22 A2971=
200711252300 METAR MRLB 252300Z 06008KT 9999 SCT035 30/22 A2972=
200711260000 METAR MRLB 260000Z 05004KT 9999 SCT035 SCT250 28/22 A2974=
200711260100 METAR MRLB 260100Z 20002KT 9999 SCT035 BKN250 27/23 A2977=
200711260200 METAR MRLB 260200Z 20003KT 9999 SCT035 SCT250 25/23 A2979=
200711260300 METAR MRLB NIL=
200711260400 METAR MRLB NIL=
200711260500 METAR MRLB NIL=
200711260600 METAR MRLB NIL=
200711260700 METAR MRLB NIL=
200711260800 METAR MRLB NIL=
200711260900 METAR MRLB NIL=
200711261000 METAR MRLB NIL=
200711261100 METAR MRLB NIL=
200711261200 METAR MRLB 261200Z 00000KT 9999 FEW040 SCT140 22/22 A2980=
200711261300 METAR MRLB 261300Z 20003KT 9999 FEW040 25/23 A2980 RMK FEW250=
200711261400 METAR MRLB 261400Z 00000KT 9999 FEW040 BKN250 28/24 A2983=
200711261500 METAR MRLB 261500Z 00000KT 9999 FEW040 SCT130 BKN250 29/24 A2985=
200711261600 METAR MRLB 261600Z 10004KT 9999 FEW040 BKN250 32/23 A2983=
200711261700 METAR MRLB 261700Z 09007KT 9999 FEW040 32/22 A2979 RMK FEW140=
200711261800 METAR MRLB 261800Z 08009KT 9999 FEW040 BKN250 32/22 A2986 RMK FEW140=
200711261900 METAR MRLB 261900Z 13009KT 9999 SCT040 BKN250 33/22 A2974=
200711262000 METAR MRLB 262000Z 09012KT 9999 SCT040 BKN250 33/22 A2973 RMK FEW140=
200711262100 METAR MRLB 262100Z 08012KT 9999 FEW040 SCT130 BKN250 31/22 A2974=
200711262200 METAR MRLB 262200Z 08011KT 9999 SCT040 BKN130 31/22 A2975=
200711262300 METAR MRLB 262300Z 08011KT 9999 -RA SCT025 BKN100 29/22 A2978=
200711270000 METAR MRLB 270000Z 11006KT 9999 FEW025 OVC100 25/23 A2979 RMK RN DST W=
200711270100 METAR MRLB 270100Z 11009KT 9999 FEW030 25/21 A2980 FEW120=
200711270200 METAR MRLB 270200Z 10007KT CAVOK 25/22 A2984 FEW120=
200711270300 METAR MRLB NIL=
200711270400 METAR MRLB NIL=
200711270500 METAR MRLB NIL=
200711270600 METAR MRLB NIL=
200711270700 METAR MRLB NIL=
200711270800 METAR MRLB NIL=
200711270900 METAR MRLB NIL=
200711271000 METAR MRLB NIL=
200711271100 METAR MRLB NIL=
200711271200 METAR MRLB NIL=
200711271300 METAR MRLB 271300Z 19004KT 9999 FEW020 BKN250 26/22 A2986=
200711271400 METAR MRLB 271400Z 16006KT 9999 FEW020 SCT100 BKN250 26/22 A2987=
200711271500 METAR MRLB 271500Z 13006KT 9999 SCT030 BKN250 28/23 A2989=
200711271600 METAR MRLB 271600Z 11005KT 9999 SCT030 BKN250 30/22 A2988=
200711271700 METAR MRLB 271700Z 10008KT 9999 SCT030 BKN240 31/22 A2987=
200711271800 METAR MRLB 271800Z 06010KT 9999 SCT025 BKN250 30/22 A2984=
200711271900 METAR MRLB 271900Z 06013KT 9999 FEW025 BKN250 30722 A2982=
200711272000 METAR MRLB 272000Z 06014KT 9999 FEW025 BKN250 31/21 A2979=
200711272100 METAR MRLB 272100Z 06015KT 9999 SCT025 BKN220 31/22 A2978=
200711272200 METAR MRLB 272200Z 07015KT 9999 FEW025 BKN250 30/22 A2979=
200711272300 METAR MRLB 272300Z 07015KT 9999 SCT025 BKN220 28/21 A2981=
200711280000 METAR MRLB 200000Z 08012KT 9999 FEW025 SCT180 26/22 A2983=
200711280100 METAR MRLB 280100Z 07010KT 9999 FEW025 SCT200 25/22 A2984=
200711280200 METAR MRLB NIL=
200711280300 METAR MRLB NIL=
200711280400 METAR MRLB NIL=
200711280500 METAR MRLB NIL=
200711280600 METAR MRLB NIL=
200711280700 METAR MRLB NIL=
200711280800 METAR MRLB NIL=
200711280900 METAR MRLB NIL=
200711281000 METAR MRLB NIL=
200711281100 METAR MRLB NIL=
200711281200 METAR MRLB 281200Z 04002KT 9999 SCT030 BKN130 24/22 A2985=
200711281300 METAR MRLB 281300Z 35004KT 9999 SCT035 BKN130 26/22 A2987 DZ NE=
200711281400 METAR MRLB 281400Z 05007KT 9999 SCT035 SCT130 28/22 A2989=
200711281500 METAR MRLB 281500Z 06014KT 9999 SCT035 BKN250 30/21 A2988=
200711281600 METAR MRLB 281600Z 06016KT 9999 FEW035 BKN250 31/22 A2987=
200711281700 METAR MRLB 281700Z 07016KT 9999 SCT035 BKN250 32/21 A2985=
200711281800 METAR MRLB 281800Z 05017KT 9999 SCT035 OVC250 32/21 A29830=
200711281900 METAR MRLB 281900Z 07018KT 9999 SCT035 OVC240 31/20 A2980=
200711282000 METAR MRLB 282000Z 06015KT 9999 FEW035 OVC240 32/21 A2977=
200711282100 METAR MRLB 282100Z 05015KT 9999 FEW035 OVC240 31/21 A2977=
200711282200 METAR MRLB 282200Z 04015KT 9999 FEW035 OVC240 31/20 A2977=
200711282300 METAR MRLB 282300Z 07012KT 9999 SCT035 BKN140 28/21 A2980=
200711290000 METAR MRLB 290000Z 07009KT 9999 SCT035 BKN240 27/21 A2981=
200711290100 METAR MRLB 290100Z 08010KT 9999 FEW035 BKN240 26/21 A2984=
200711290200 METAR MRLB NIL=
200711290300 METAR MRLB NIL=
200711290400 METAR MRLB NIL=
200711290500 METAR MRLB NIL=
200711290600 METAR MRLB NIL=
200711290700 METAR MRLB NIL=
200711290800 METAR MRLB NIL=
200711290900 METAR MRLB NIL=
200711291000 METAR MRLB NIL=
200711291100 METAR MRLB NIL=
200711291200 METAR MRLB 291200Z 36003KT 9999 SCT035 25/21 A2985=
200711291300 METAR MRLB 291300Z 09004KT 9999 BKN035 25/21 A2988 RMK RN DST N NE SE=
200711291400 METAR MRLB 291400Z 35005KT 9999 -RA BKN035 26/21 A2990=
200711291500 METAR MRLB 291500Z 09011KT 9999 SCT035 SCT090 29/21 A2990 RMK RN DST NE E=
200711291600 METAR MRLB 291600Z 08010KT 9999 SCT035 BKN090 28/22 A2989 RMK RN DST N NE=
200711291700 METAR MRLB 291700Z 04008KT 9999 SCT035 SCT120 30/22 A2988 RN DST N=
200711291800 METAR MRLB 291800Z 06014KT 9999 FEW035 BKN250 31/21 A2985 RMK RN DST N=
200711291900 METAR MRLB 291900Z 05011KT 9999 SCT035 SCT120 31/21 A2983 RMK RN DST N NE=
200711292000 METAR MRLB 292000Z 06017KT 9999 SCT035 SCT120 31/21 A2981 RMK RN DIST N/NE=
200711292100 METAR MRLB 292100Z 07016KT 9999 FEW035 BKN120 29/21 A2981 RMK RN DST N NE E=
200711292200 METAR MRLB 292200Z 03009KT 9999 FEW035 BKN120 27/22 A2983 RMK RN DST N NE=
200711292300 METAR MRLB 292300Z 06014KT 9999 FEW035 BKN120 27/20 A2983 RMK RN DST N NE=
200711300000 METAR MRLB 300000Z 06013KT 9999 FEW035 BKN120 26/21 A2985=
200711300100 METAR MRLB 300100Z 06013KT 9999 FEW035 BKN120 26/19 A2985=
200711300200 METAR MRLB NIL=
200711300300 METAR MRLB NIL=
200711300400 METAR MRLB NIL=
200711300500 METAR MRLB NIL=
200711300600 METAR MRLB NIL=
200711300700 METAR MRLB NIL=
200711300800 METAR MRLB NIL=
200711300900 METAR MRLB NIL=
200711301000 METAR MRLB NIL=
200711301100 METAR MRLB NIL=
200711301200 METAR MRLB NIL=
200711301300 METAR MRLB 301300Z 07012KT CAVOK 26/20 A2990 RMK SCT250=
200711301400 METAR MRLB 301400Z 10015KT 9999 FEW025 SCT250 28/20 A2991=
200711301500 METAR MRLB 301500Z 02004KT 9999 FEW025 SCT250 30/20 A2994=
200711301600 METAR MRLB 301600Z 07015KT 9999 FEW035 BKN250 30/20 A2993=
200711301700 METAR MRLB 301700Z 07010G20KT 9999 FEW030 BKN240 30/20 A2991=
200711301800 METAR MRLB 301800Z 07013KT 9999 FEW025 BKN250 29/20 A2989=
200711301900 METAR MRLB 301900Z 07015KT 9999 FEW025 BKN250 29/20 A2986=
200711302000 METAR MRLB 302000Z 06015KT 9999 FEW025 BKN250 29/20 A2983=
200711302100 METAR MRLB 302100Z 06010KT 9999 FEW025 BKN250 29/20 A2983=
200711302200 METAR MRLB 302200Z 07013KT 9999 FEW030 SCT250 28/21 A2984=
200711302300 METAR MRLB 302300Z 07015KT 9999 FEW040 SCT250 28/21 A2985=
200712010000 METAR MRLB 010000Z 09010KT CAVOK 26/20 A2986=
200712010100 METAR MRLB 010100Z 10013KT CAVOK 26/20 A2987 RMK FEW180=
200712010200 METAR MRLB 010200Z 10012KT CAVOK 26/20 A299A RMK FEW250=
200712010300 METAR MRLB NIL=
200712010400 METAR MRLB NIL=
200712010500 METAR MRLB NIL=
200712010600 METAR MRLB NIL=
200712010700 METAR MRLB NIL=
200712010800 METAR MRLB NIL=
200712010900 METAR MRLB NIL=
200712011000 METAR MRLB NIL=
200712011100 METAR MRLB NIL=
200712011200 METAR MRLB 011200Z 09004KT 9999 SCT035 21/19 A2990=
200712011300 METAR MRLB 011300Z 25003KT 9999 FEW035 23/19 A2992=
200712011400 METAR MRLB 011400Z 30002KT 9999 FEW035 26/20 A2993=
200712011500 METAR MRLB 011500Z 08012KT 9999 FEW035 29/21 A2993=
200712011600 METAR MRLB 011600Z 07015KT 9999 SCT035 30/20 A2992=
200712011700 METAR MRLB 011700Z 07016KT 9999 SCT035 30/20 A2991=
200712011800 METAR MRLB 011800Z 08015KT 9999 SCT035 31/20 A2988=
200712011900 METAR MRLB 011900Z 06011KT 9999 SCT035 31/20 A2986=
200712012000 METAR MRLB 012000Z 08010KT 9999 SCT035 31/20 A2983=
200712012100 METAR MRLB 012100Z 07011KT 9999 SCT035 31/20 A2984=
200712012200 METAR MRLB 012200Z 06013KT 9999 SCT040 28/20 A2984=
200712012300 METAR MRLB 012300Z 06014KT 9999 FEW040 SCT250 28/19 A2985=
200712020000 METAR MRLB 020000Z 10007KT 9999 FEW035 SCT250 26/19 A2987=
200712020100 METAR MRLB 020100Z 11006KT 9999 SCT035 SCT250 24/18 A2989=
200712020200 METAR MRLB 020200Z 12006KT 9999 FEW030 SCT250 24/19 A2991=
200712020300 METAR MRLB NIL=
200712020400 METAR MRLB NIL=
200712020500 METAR MRLB NIL=
200712020600 METAR MRLB NIL=
200712020700 METAR MRLB NIL=
200712020800 METAR MRLB NIL=
200712020900 METAR MRLB NIL=
200712021000 METAR MRLB NIL=
200712021100 METAR MRLB NIL=
200712021200 METAR MRLB 021200Z 06002KT 9999 NSC 21/19 A2991 RMK TRACE SC=
200712021300 METAR MRLB 021300Z 07007KT 9999 NSC 25/20 A2992 RMK TRACE CU=
200712021400 METAR MRLB 021400Z 36003KT NSC 26/21 A2994 RMK TRACE CU=
200712021500 METAR MRLB 021500Z 08014KT 9999 FEW040 30/19 A2995=
200712021600 METAR MRLB 021600Z NIL=
200712021700 METAR MRLB 021700Z 09010KT 9999 FEW040 31/18 A2993=
200712021800 METAR MRLB 021800Z 09010KT 9999 SCT040 32/19 A2991=
200712021900 METAR MRLB 021900Z 07011KT 9999 SCT040 32/19 A2988=
200712022000 METAR MRLB NIL=
200712022100 METAR MRLB 022100Z 07010KT 9999 SCT040 32/20 A2985=
200712022200 METAR MRLB 022200Z 06011KT 9999 FEW040 30/19 A2985=
200712022300 METAR MRLB 022300Z 07012KT 9999 SCT040 28/20 A2987=
200712030000 METAR MRLB 030000Z 09003KT 9999 FEW040 26/19 A2988=
200712030100 METAR MRLB 030100Z 10006KT 9999 FEW040 25/18 A2991=
200712030200 METAR MRLB NIL=
200712030300 METAR MRLB NIL=
200712030400 METAR MRLB NIL=
200712030500 METAR MRLB NIL=
200712030600 METAR MRLB NIL=
200712030700 METAR MRLB NIL=
200712030800 METAR MRLB NIL=
200712030900 METAR MRLB NIL=
200712031000 METAR MRLB NIL=
200712031100 METAR MRLB NIL=
200712031200 METAR MRLB NIL=
200712031300 METAR MRLB NIL=
200712031400 METAR MRLB 031400Z 00000KT CAVOK 26/20 A2997=
200712031500 METAR MRLB 031500Z 00000KT CAVOK 29/20 A2998 FEW250=
200712031600 METAR MRLB 031600Z 09015KT CAVOK 31/18 A2997=
200712031700 METAR MRLB 031700Z 07013KT 9999 FEW030 31/18 A2994=
200712031800 METAR MRLB 031800Z 08013KT 9999 FEW030 32/18 A2991=
200712031900 METAR MRLB 031900Z 10012KT 9999 FEW025 SCT250 32/18 A2989=
200712032000 METAR MRLB 032000Z 10010KT 9999 FEW025 SCT250 32/18 A2986=
200712032100 METAR MRLB 032100Z 10014KT 9999 FEW030 SCT250 33/19 A2984=
200712032200 METAR MRLB 032200Z 08010KT 9999 FEW030 SCT250 31/20 A2985=
200712032300 METAR MRLB 032300Z 11009KT CAVOK 29/20 A2985 RMK FEW250=
200712040000 METAR MRLB 040000Z 09012KT CAVOK 26/19 A2987 RMK FEW250=
200712040100 METAR MRLB 040100Z 10010KT CAVOK 25/18 A2988 FEW240=
200712040200 METAR MRLB NIL=
200712040300 METAR MRLB NIL=
200712040400 METAR MRLB NIL=
200712040500 METAR MRLB NIL=
200712040600 METAR MRLB NIL=
200712040700 METAR MRLB NIL=
200712040800 METAR MRLB NIL=
200712040900 METAR MRLB NIL=
200712041000 METAR MRLB NIL=
200712041100 METAR MRLB NIL=
200712041200 METAR MRLB 041200Z 04002KT CAVOK 19/18 A2991 RMK BKN250=
200712041300 METAR MRLB 041300Z 32002KT CAVOK 22/19 A2992 RMK BKN250=
200712041400 METAR MRLB 041400Z 30002KT CAVOK 25/20 A2994 RMK SCT250=
200712041500 METAR MRLB 041500Z 22004KT CAVOK 27/20 A2995 RMK SCT250=
200712041600 METAR MRLB 041600Z 24004KT CAVOK 30/19 A2993 RMK SCT260=
200712041700 METAR MRLB 041700Z 35002KT CAVOK 31/18 A2991 RMK SCT260=
200712041800 METAR MRLB 041800Z 10009KT CAVOK 32/17 A2989 RMK FEW250 TRACE CU=
200712041900 METAR MRLB 041900Z 11008KT CAVOK 33/17 A2987 RMK FEW250 TRACE CU=
200712042000 METAR MRLB 042000Z 10006KT 9999 FEW035 32/18 A2985 RMK TRACE CI=
200712042100 METAR MRLB 042100Z 14003KT 9999 FEW035 32/17 A2983=
200712042200 METAR MRLB 042200Z 10003KT 9999 FEW035 SCT250 31/18 A2984=
200712042300 METAR MRLB 042300Z 26003KT 9999 FEW035 SCT250 29/20 A2984=
200712050000 METAR MRLB 050000Z 00000KT CAVOK 26/20 A2985 RMK TRACE CU SCT250=
200712050100 METAR MRLB 050100Z 18002KT CAVOK 26/20 A2989 RMK BKN250=
200712050200 METAR MRLB 050200Z 21003KT CAVOK 24/19 A2991 RMK BKN250=
200712050300 METAR MRLB NIL=
200712050400 METAR MRLB NIL=
200712050500 METAR MRLB NIL=
200712050600 METAR MRLB NIL=
200712050700 METAR MRLB NIL=
200712050800 METAR MRLB NIL=
200712050900 METAR MRLB NIL=
200712051000 METAR MRLB NIL=
200712051100 METAR MRLB NIL=
200712051200 METAR MRLB 051200Z 05003KT CAVOK 19/19 A2989 FEW130=
200712051300 METAR MRLB 051300Z 00000KT CAVOK 22/20 A2990 RMK FEW130 CB DST SW=
200712051400 METAR MRLB 051400Z 00000KT CAVOK 26/21 A2993 FEW140 CB DST SW=
200712051500 METAR MRLB 051500Z 28005KT CAVOK 27/21 A2994 RMK SCT220=
200712051600 METAR MRLB 051600Z 26004KT 9999 FEW040 BKN220 28/21 A2994=
200712051700 METAR MRLB 051700Z 23005KT 9999 FEW040 SCT130 BKN250 30/22 A2992=
200712051800 METAR MRLB 051800Z 20003KT 9999 BKN035 SCT250 31/21 A2989=
200712051900 METAR MRLB 051900Z 30004KT 9999 SCT035 SCT100 30/21 A2985=
200712052000 METAR MRLB 052000Z 25005KT 9999 SCT035 SCT100 31/22 A2983=
200712052100 METAR MRLB 052100Z 27008KT 9999 SCT035 SCT100 28/22 A2983=
200712052200 METAR MRLB 052200Z 27008KT 9999 SCT035 SCT100 28/22 A2983=
200712052300 METAR MRLB 052300Z 29006KT 9999 SCT030 SCT100 26/22 A2987 RMK RN DST SE=
200712060000 METAR MRLB 060000Z 28006KT 9999 -RA BKN030 26/23 A2988=
200712060100 METAR MRLB NIL=
200712060200 METAR MRLB NIL=
200712060300 METAR MRLB NIL=
200712060400 METAR MRLB NIL=
200712060500 METAR MRLB NIL=
200712060600 METAR MRLB NIL=
200712060700 METAR MRLB NIL=
200712060800 METAR MRLB NIL=
200712060900 METAR MRLB NIL=
200712061000 METAR MRLB NIL=
200712061100 METAR MRLB NIL=
200712061200 METAR MRLB NIL=
200712061300 METAR MRLB 061300Z 00000KT 1000 BR SCT001 22/21 A2993=
200712061400 METAR MRLB NIL=
200712061500 METAR MRLB 061500Z 00000KT CAVOK 27/23 A2997=
200712061600 METAR MRLB NIL=
200712061700 METAR MRLB 061700Z 09010KT 9999 FEW030 SCT250 31/21 A2995=
200712061800 METAR MRLB 061800Z 10010KT 9999 FEW025 SCT250 31/21 A2992=
200712061900 METAR MRLB 061900Z 11009KT 9999 SCT025 BKN250 32/21 A2989=
200712062000 METAR MRLB 062000Z 26006KT 9999 SCT025 BKN250 30/22 A2988=
200712062100 METAR MRLB 062100Z 28010KT 9999 SCT020TCU BKN120 30/22 A2986=
200712062200 METAR MRLB 062200Z 24005KT 9999 SCT025 BKN250 29/22 A2988=
200712062300 METAR MRLB 062300Z 24004KT 9999 FEW040 BKN250 27/23 A2989=
200712070000 METAR MRLB 070000Z 00000KT 9999 FEW040 SCT180 26/23 A2991=
200712070100 METAR MRLB 070100Z 27002KT 9999 FEW040 SCT150 26/23 A2993=
200712070200 METAR MRLB 070200Z 06004KT 9999 FEW040 SCT150 26/23 A2997=
200712070300 METAR MRLB NIL=
200712070400 METAR MRLB NIL=
200712070500 METAR MRLB NIL=
200712070600 METAR MRLB NIL=
200712070700 METAR MRLB NIL=
200712070800 METAR MRLB NIL=
200712070900 METAR MRLB NIL=
200712071000 METAR MRLB NIL=
200712071100 METAR MRLB NIL=
200712071200 METAR MRLB 071200Z 19002KT CAVOK 21/20 A2995 RMK TRACE CU FEW140=
200712071300 METAR MRLB 071300Z 32002KT CAVOK 24/21 A2997 RMK FEW140 TRACE CU=
200712071400 METAR MRLB 071400Z 27003KT CAVOK 26/22 A3000 RMK FEW140 TRACE CU=
200712071500 METAR MRLB 071500Z 03011KT CAVOK 29/20 A3000 RMK FEW140 TRACE CU=
200712071600 METAR MRLB 071600Z 07016KT 9999 FEW040 30/20 A2999 RMK FEW140=
200712071700 METAR MRLB 071700Z 06017KT 9999 FEW040 31/20 A2998 RMK FEW130=
200712071800 METAR MRLB 071800Z 06016KT 9999 FEW040 31/20 A2996 RMK FEW130=
200712071900 METAR MRLB 071900Z 06014KT 9999 FEW040 32/20 A2993 RMK FEW130=
200712072000 METAR MRLB 072000Z 05015KT 9999 SCT040 31/20 A2990=
200712072100 METAR MRLB 072100Z 06017KT 9999 SCT035 BKN100 28/20 A2990 RN SE NW=
200712072200 METAR MRLB 072200Z 061017KT 9999 FEW040 SCT120 28/20 A2989=
200712072300 METAR MRLB 072300Z 07012KT 9999 FEW040 SCT120 27/19 A2990=
200712080000 METAR MRLB 080000Z 05009KT% 9999 FEW045 26/20 A2991 FEW140=
200712080100 METAR MRLB 080100Z 06008KT CAVOK 26/20 A2992 RMK FEW140=
200712080200 METAR MRLB 080200Z 08008KT CAVOK 26/20 A2994 RMK FEW140=
200712080300 METAR MRLB NIL=
200712080400 METAR MRLB NIL=
200712080500 METAR MRLB NIL=
200712080600 METAR MRLB NIL=
200712080700 METAR MRLB NIL=
200712080800 METAR MRLB NIL=
200712080900 METAR MRLB NIL=
200712081000 METAR MRLB NIL=
200712081100 METAR MRLB NIL=
200712081200 METAR MRLB 081200Z 00000KT 9999 SCT035 BKN250 21/19 A2989=
200712081300 METAR MRLB 081300Z 29003KT 9999 SCT035 BKN250 25/21 A2991 RN N=
200712081400 METAR MRLB 081400Z 28004KT 9999 SCT040 BKN250 26/21 A2993=
200712081500 METAR MRLB 081500Z 09007KT 9999 SCT040 BKN250 28/21 A2993 FEW130=
200712081600 METAR MRLB 081600Z 06014KT 9999 FEW035 BKN250 30/21 A2992 RAFAGAS 23KT=
200712081700 METAR MRLB 081700Z 05015KT 9999 FEW035 BKN250 31/21 A2990=
200712081800 METAR MRLB NIL=
200712081900 METAR MRLB 081900Z 05014KT 9999 SCT035 BKN250 32/21 A2985=
200712082000 METAR MRLB 082000Z 06013KT 9999 FEW035 BKN250 31/21 A2982=
200712082100 METAR MRLB 082100Z 07012KT 9999 SCT040 SCT120 30/21 A2981 RMK FEW250=
200712082200 METAR MRLB 082200Z 05010KT 9999 SCT040 BKN120 29/21 A2981 RMK FEW250=
200712082300 METAR MRLB 082300Z 06011KT 9999 FEW040 SCT120 27/21 A2982 RMK FEW250=
200712090000 METAR MRLB 090000Z 06007KT 9999 FEW040 26/21 A2981 FEW250=
200712090100 METAR MRLB 090100Z 04008KT 9999 FEW040 BKN120 27/21 A2984=
200712090200 METAR MRLB 090200Z 09006KT 9999 SCT040 BKN120 27/21 A2986=
200712090300 METAR MRLB NIL=
200712090400 METAR MRLB NIL=
200712090500 METAR MRLB NIL=
200712090600 METAR MRLB NIL=
200712090700 METAR MRLB NIL=
200712090800 METAR MRLB NIL=
200712090900 METAR MRLB NIL=
200712091000 METAR MRLB NIL=
200712091100 METAR MRLB NIL=
200712091200 METAR MRLB NIL=
200712091300 METAR MRLB 091300Z 00000KT 9999 SCT020 BKN100 24/22 A2985 RERA=
200712091400 METAR MRLB 091400Z 09010KT 9999 SCT025 BKN080 27/22 A2985=
200712091500 METAR MRLB 091500Z 07010KT 9999 SCT020 BKN100 26/20 A2986 RMK RN DST ARND=
200712091600 METAR MRLB 091600Z 06012KT 9999 SCT025 BKN250 28/22 A2986=
200712091700 METAR MRLB 091700Z 09013KT 9999 FEW025 SCT250 31/20 A2984=
200712091800 METAR MRLB 091800Z 05010G20KT 9999 FEW030 SCT250 32/20 A2980=
200712091900 METAR MRLB 091900Z 05013KT 9999 SCT020TCU BKN240 32/20 A2978 RMK RN DST N=
200712092000 METAR MRLB 092000Z 06013KT 9999 SCT020 BKN250 31/20 A2976=
200712092100 METAR MRLB 092100Z 10010KT 9999 FEW025 SCT250 31/21 A2974=
200712092200 METAR MRLB 092200Z 07010KT 9999 FEW035 SCT250 31/21 A2975=
200712092300 METAR MRLB 092300Z 13004KT 9999 FEW030 SCT250 25/22 A2976 RMK RERA RN DST SW=
200712100000 METAR MRLB 100000Z 09006KT 9999 SCT025 25/22 A2979=
200712100100 METAR MRLB 100100Z 08006KT 9999 FEW040 25/22 A2983=
200712100200 METAR MRLB 100200Z 08006KT 9999 FEW040 25/22 A2983=
200712100300 METAR MRLB NIL=
200712100400 METAR MRLB NIL=
200712100500 METAR MRLB NIL=
200712100600 METAR MRLB NIL=
200712100700 METAR MRLB NIL=
200712100800 METAR MRLB NIL=
200712100900 METAR MRLB NIL=
200712101000 METAR MRLB NIL=
200712101100 METAR MRLB NIL=
200712101200 METAR MRLB 101200Z 07008KT 9999 SCT035 SCT300 25/21 A2981=
200712101300 METAR MRLB 101300Z 06008KT 9999 SCT035 25/21 A2983 RMK FEW300=
200712101400 METAR MRLB 101400Z 07010KT 9999 SCT035 28/22 A2985=
200712101500 METAR MRLB 101500Z 04008KT 9999 SCT035 28/21 A2986 RMK RN DST N=
200712101600 METAR MRLB 101600Z 07010KT 9999 SCT035 SCT120 30/22 A2986 RMK RN DST N=
200712101700 METAR MRLB 101700Z 12007KT 9999 SCT035 31/21 A2984 RMK FEW120=
200712101800 METAR MRLB 101800Z 07010KT 9999 SCT035 SCT120 30/21 A2982=
200712101900 METAR MRLB 101900Z 06014KT 9999 FEW035 SCT120 30/21 A2978 RMK RN DST N TCU DST N NE=
200712102000 METAR MRLB 102000Z 08014KT 9999 FEW035 SCT120 32/20 A2976=
200712102100 METAR MRLB 102100Z 06011KT 9999 SCT035 SCT120 31/21 A2975 RMK RN DST NE E NW=
200712102200 METAR MRLB 102200Z 06006KT 9999 FEW035 BKN120 26/23 A2976 RMK RN DST N NE=
200712102300 METAR MRLB 102300Z 02006KT 9999 SCT035 BKN120 27/22 A2978 RMK RN DST N E=
200712110000 METAR MRLB 110000Z 09008KT 9999 SCT035 SCT120 26/21 A2979 RMK RN DST N NE E=
200712110100 METAR MRLB 110100Z 09004KT 9999 SCT035 SCT120 25/22 A2981=
200712110200 METAR MRLB 110200Z 10008KT 9999 FEW035 25/22 A2984=
200712110300 METAR MRLB NIL=
200712110400 METAR MRLB NIL=
200712110500 METAR MRLB NIL=
200712110600 METAR MRLB NIL=
200712110700 METAR MRLB NIL=
200712110800 METAR MRLB NIL=
200712110900 METAR MRLB NIL=
200712111000 METAR MRLB NIL=
200712111100 METAR MRLB NIL=
200712111200 METAR MRLB 111200Z 09010KT 9999 FEW040 SCT140 BKN250 25/20 A2983=
200712111300 METAR MRLB 111300Z 08012KT 9999 NSC 26/20 A2985 RMK TRACE CU FEW140 BKN250=
200712111400 METAR MRLB 111400Z 07014KT CAVOK 28/19 A2987 RMK BKN250=
200712111500 METAR MRLB 111500Z 08014KT CAVOK 29/19 A2988 RMK BKN250 GUST21KT=
200712111600 METAR MRLB 111600Z 08015KT CAVOK 30/19 A2988 RMK BKN250=
200712111700 METAR MRLB 111700Z 08017KT 9999 FEW035 BKN150 31/18 A2987 RMK GUST24KT=
200712111800 METAR MRLB 111800Z 09015KT CAVOK 32/19 A2985 RMK BKN250=
200712111900 METAR MRLB 111900Z 08011KT CAVOK 31/18 A2982 RMK SCT130 BKN250=
200712112000 METAR MRLB 112000Z 09012KT 9999 FEW035 SCT200 30/20 A2980=
200712112100 METAR MRLB 112100Z 10008KT 9999 SCT030 BKN200 29/21 A2978=
200712112200 METAR MRLB 112200Z 08010G20KT 9999 FEW035 SCT180 30/20 A2978=
200712112300 METAR MRLB 112300Z 06007KT 9999 FEW035 SCT180 28/20 A2980=
200712120000 METAR MRLB 120000Z 10010KT 9999 FEW040 27/20 A2981=
200712120100 METAR MRLB 120100Z 11010KT CAVOK 26/21 A2983 RMK FEW080=
200712120200 METAR MRLB 120200Z 10010KT CAVOK 26/21 A2985 RMK FEW150=
200712120300 METAR MRLB NIL=
200712120400 METAR MRLB NIL=
200712120500 METAR MRLB NIL=
200712120600 METAR MRLB NIL=
200712120700 METAR MRLB NIL=
200712120800 METAR MRLB NIL=
200712120900 METAR MRLB NIL=
200712121000 METAR MRLB NIL=
200712121100 METAR MRLB NIL=
200712121200 METAR MRLB 121200Z 15004KT 9999 SCT040 22/20 A2982=
200712121300 METAR MRLB 121300Z 21003KT 9999 FEW040 SCT120 24/21 A2984=
200712121400 METAR MRLB 121400Z 00000KT 9999 FEW040 SCT120 28/21 A2986=
200712121500 METAR MRLB 121500Z 32005KT 9999 FEW040 BKN130 28/21 A2987=
200712121600 METAR MRLB 121600Z 06002KT 9999 FEW040 BKN130 30/21 A2987=
200712121700 METAR MRLB 121700Z 08013KT 9999 FEW040 BKN130 31/21 A2986=
200712121800 METAR MRLB 121800Z 05009KT 9999 FEW040 BKN130 31/21 A2984=
200712121900 METAR MRLB 121900Z 09014KT 9999 FEW040 SCT130 32/20 A2980=
200712122000 METAR MRLB 12200Z 07012KT 9999 SCT035 SCT130 31/20 A2979=
200712122100 METAR MRLB 122100Z 10013KT 9999 FEW035 SCT130 31/20 A2977=
200712122200 METAR MRLB 122200Z 10010KT 9999 FEW040 BKN120 30/21 A2977=
200712122300 METAR MRLB 122300Z 09013KT 9999 SCT035 SCT130 28/21 A2977=
200712130000 METAR MRLB 130000Z 10006KT 9999 SCT035 SCT130 27/21 A2979=
200712130100 METAR MRLB 130100Z 11009KT 9999 FEW035 SCT130 26/20 A2980=
200712130200 METAR MRLB NIL=
200712130300 METAR MRLB NIL=
200712130400 METAR MRLB NIL=
200712130500 METAR MRLB NIL=
200712130600 METAR MRLB NIL=
200712130700 METAR MRLB NIL=
200712130800 METAR MRLB NIL=
200712130900 METAR MRLB NIL=
200712131000 METAR MRLB NIL=
200712131100 METAR MRLB NIL=
200712131200 METAR MRLB 131200Z 00000KT CAVOK 19/18 A2985 RMK SCT250 HZ LGT ARND=
200712131300 METAR MRLB 131300Z 06003KT CAVOK 22/20 A2987 TRAZAS CI=
200712131400 METAR MRLB 131400Z 20002KT CAVOK 25/20 A2990 TRAZAS CI=
200712131500 METAR MRLB 131500Z 23003KT 9999 SKC 28/20 A2990=
200712131600 METAR MRLB 131600Z 26002KT 9999 NSC 29/20 A2990 TRAZAS CU=
200712131700 METAR MRLB 131700Z 27003KT 9999 NCS 31/20 A2987 TRAZAS CU=
200712131800 METAR MRLB 131800Z 32004KT 9999 FEW035 31/20 A2984=
200712131900 METAR MRLB 131900Z 32003KT 9999 SCT035 31/19 A2981=
200712132000 METAR MRLB 132000Z 08012KT 9999 SCT035 32/19 A2979=
200712132100 METAR MRLB 132100Z 10012KT 9999 SCT030 32/19 A2977=
200712132200 METAR MRLB 132200Z 09010KT CAVOK 31/18 A2977 RMK 250=
200712132300 METAR MRLB 132300Z 07007KT CAVOK 29/17 A2978 FEW250=
200712140000 METAR MRLB 140000Z 00000KT CAVOK 27/20 A2979 RMK FEW250=
200712140100 METAR MRLB 140100Z VRB03KT CAVOK 26/20 A2981 RMK FEW250=
200712140200 METAR MRLB 140200Z 07003KT CAVOK 25/19 A2984=
200712140300 METAR MRLB NIL=
200712140400 METAR MRLB NIL=
200712140500 METAR MRLB NIL=
200712140600 METAR MRLB NIL=
200712140700 METAR MRLB NIL=
200712140800 METAR MRLB NIL=
200712140900 METAR MRLB NIL=
200712141000 METAR MRLB NIL=
200712141100 METAR MRLB NIL=
200712141200 METAR MRLB 141200Z 00000KT 9999 FEW035 19/18 A2986 RMK FEW250 HZ ARND=
200712141300 METAR MRLB 141300Z 15004KT 9999 SCT035 22/20 A2987 RMK HZ LEVE ARND=
200712141400 METAR MRLB 141400Z 26004KT 9999 NSC 25/21 A2989 RMK TRACE CU SC FEW250=
200712141500 METAR MRLB 141500Z 24004KT CAVOK 28/21 A2988 RMK FEW250=
200712141600 METAR MRLB 141600Z 08006KT 9999 FEW035 31/22 A2987 RMK TRACE AC=
200712141700 METAR MRLB 141700Z 09015KT 9999 FEW035 32/19 A2985 RMK FEW250=
200712141800 METAR MRLB 141800Z 09012KT 9999 SCT035 32/19 A2983=
200712141900 METAR MRLB 141900Z 09013KT 9999 SCT035 33/18 A2980=
200712142000 METAR MRLB 142000Z 07009KT 9999 SCT035 33/19 A2978=
200712142100 METAR MRLB 142100Z 11008KT 9999 SCT035 33/20 A2976=
200712142200 METAR MRLB 142200Z 08008KT 9999 FEW040 32/20 A2976=
200712142300 METAR MRLB 142300Z 08007KT 9999 FEW040 30/20 A2977 RN DST N=
200712150000 METAR MRLB NIL=
200712150100 METAR MRLB 150100Z 03003KT 9999 FEW040 25/21 A2982=
200712150200 METAR MRLB NIL=
200712150300 METAR MRLB NIL=
200712150400 METAR MRLB NIL=
200712150500 METAR MRLB NIL=
200712150600 METAR MRLB NIL=
200712150700 METAR MRLB NIL=
200712150800 METAR MRLB NIL=
200712150900 METAR MRLB NIL=
200712151000 METAR MRLB NIL=
200712151100 METAR MRLB NIL=
200712151200 METAR MRLB 151200Z 00000KT 9999 FEW001 SCT250 19/18 A2984 FG PISTA 07=
200712151300 METAR MRLB 151300Z 00000KT CAVOK 22/20 A2987 FEW180=
200712151400 METAR MRLB 151400Z NIL=
200712151500 METAR MRLB 151500Z 00000KT CAVOK 27/21 A2989 RMK FEW250=
200712151600 METAR MRLB 151600Z 20004KT 9999 FEW030 29/20 A2990=
200712151700 METAR MRLB 151700Z 03007KT 9999 SCT025 30/21 A2987=
200712151800 METAR MRLB NIL=
200712151900 METAR MRLB 151900Z 28006KT 9999 SCT020 BKN200 30/21 A2981=
200712152000 METAR MRLB 152000Z 27008KT 9999 FEW030 BKN240 31/22 A2978=
200712152100 METAR MRLB 152100Z 26007KT 9999 SCT025 BKN250 31/22 A2977=
200712152200 METAR MRLB 152200Z 26006KT 9999 SCT035 SCT250 30/22 A2977=
200712152300 METAR MRLB 152300Z 27006KT 9999 FEW035 BKN250 27/22 A2978=
200712160000 METAR MRLB 160000Z 27005KT 9999 FEW035 BKN250 25/22 A2979=
200712160100 METAR MRLB 160100Z 18003KT 9999 FEW035 SCT130 BKN250 25/22 A2982=
200712160200 METAR MRLB 160200Z 17003KT 9999 FEW035 SCT140 BKN250 24/22 A2984=
200712160300 METAR MRLB NIL=
200712160400 METAR MRLB NIL=
200712160500 METAR MRLB NIL=
200712160600 METAR MRLB NIL=
200712160700 METAR MRLB NIL=
200712160800 METAR MRLB NIL=
200712160900 METAR MRLB NIL=
200712161000 METAR MRLB NIL=
200712161100 METAR MRLB NIL=
200712161200 METAR MRLB 161200Z 22002KT CAVOK 22/21 A2983 RMK BKN250 LEVE HZ ARND BANCOS NIEBLA NW=
200712161300 METAR MRLB 161300Z 06003KT 9999 NSC 23/22 A2987 RMK TRACE CU SC HZ LGT ARND FEW250=
200712161400 METAR MRLB 161400Z 16003KT 9999 FEW035 26/22 A2989=
200712161500 METAR MRLB 161500Z 23004KT 9999 SCT030 28/22 A2989=
200712161600 METAR MRLB 161600Z 25003KT 9999 BKN035 28/22 A2989=
200712161700 METAR MRLB 161700Z 28004KT 9999 SCT035 30/22 A2987=
200712161800 METAR MRLB 161800Z 24002KT 9999 SCT035 31/21 A2985=
200712161900 METAR MRLB 161900Z 15002KT 9999 SCT035 33/21 A2981=
200712162000 METAR MRLB 162000Z 29006KT 9999 SCT035 31/22 A2978=
200712162100 METAR MRLB 162100Z 33006KT 9999 BKN035 30/22 A2977=
200712162200 METAR MRLB 162200Z 35007KT 9999 SCT035 SCT120 31/22 A2977 RMK RN NE E S=
200712162300 METAR MRLB 162300Z 02006KT 9999 SCT035 SCT120 30/22 A2978 RMK RN N SE=
200712170000 METAR MRLB 170000Z 05004KT 9999 SCT035 SCT120 28/22 A2981 RMK RN DST NE E=
200712170100 METAR MRLB NIL=
200712170200 METAR MRLB NIL=
200712170300 METAR MRLB NIL=
200712170400 METAR MRLB NIL=
200712170500 METAR MRLB NIL=
200712170600 METAR MRLB NIL=
200712170700 METAR MRLB NIL=
200712170800 METAR MRLB NIL=
200712170900 METAR MRLB NIL=
200712171000 METAR MRLB NIL=
200712171100 METAR MRLB NIL=
200712171200 METAR MRLB 171200Z 00000KT 9999 FEW035 SCT120 BKN250 22/22 A2986 RMK RN DST E=
200712171300 METAR MRLB 171300Z 34003KT 9999 FEW035 SCT120 23/22 A2987 RMK SCT250 RN S=
200712171400 METAR MRLB 171400Z 20004KT CAVOK 26/23 A2990 RMK FEW120 BKN250 TRACE CU=
200712171500 METAR MRLB 171500Z 08009KT CAVOK 29/21 A2989 RMK FEW120 SCT250=
200712171600 METAR MRLB 171600Z 06011KT 9999 FEW035 BKN250 30/21 A2988 RMK FEW130=
200712171700 METAR MRLB 171700Z 05019KT 9999 FEW035 30/21 A2987 RMK FEW130 FEW250 RAFAGS 24KT=
200712171800 METAR MRLB 171800Z 07017KT 9999 FEW035 32/21 A2985 RMK FEW250 RAFAGAS 24KT=
200712171900 METAR MRLB 171900Z 06016KT 9999 FEW035 32/21 A2982 RMK FEW250=
200712172000 METAR MRLB 172000Z 06017KT 9999 SCT030 32/21 A2981=
200712172100 METAR MRLB 172100Z 08015KT 9999 SCT025TCU 31/20 A2979=
200712172140 METAR MRLB 172140Z 06012G24KT -RA SCT010 BKN100 26/20 A2981=
200712172200 METAR MRLB NIL=
200712172300 METAR MRLB 172300Z 07012KT 9999 SCT025 BKN150 26/21 A2983=
200712180000 METAR MRLB 180000Z 07006KT 9999 SCT030 BKN180 25/21 A2986=
200712180100 METAR MRLB 180100Z 08008KT 9999 SCT025 BKN150 25/21 A2986 DZ N=
200712180200 METAR MRLB 180200Z 07006KT 9999 SCT025 BKN120 24/22 A2987 DZ N=
200712180300 METAR MRLB NIL=
200712180400 METAR MRLB NIL=
200712180500 METAR MRLB NIL=
200712180600 METAR MRLB NIL=
200712180700 METAR MRLB NIL=
200712180800 METAR MRLB NIL=
200712180900 METAR MRLB NIL=
200712181000 METAR MRLB NIL=
200712181100 METAR MRLB NIL=
200712181200 METAR MRLB 181200Z 04004KT 9999 FEW005 BKN035 22/22 A2989=
200712181300 METAR MRLB 181300Z 04005KT 9999 FEW035 23/22 A2991=
200712181400 METAR MRLB 181400Z 06006KT 9999 FEW035 27/22 A2994=
200712181500 METAR MRLB 181500Z 07010KT 9999 NSC 29/22 A2994 TRAZAS CU=
200712181600 METAR MRLB 181600Z NIL=
200712181700 METAR MRLB 181700Z 05015KT 9999 FEW035 31/19 A2991=
200712181800 METAR MRLB 181800Z 05010KT 9999 SCT035 32/20 A2989 RN NE=
200712181900 METAR MRLB 181900Z 05014KT 9999 SCT035 BKN100 31/21 A2986 RN N NE=
200712182000 METAR MRLB 182000Z 08011KT 9999 BKN035 25/16 A2998=
200712182100 METAR MRLB 182100Z 04011KT 9999 FEW035 BKN120 29/20 A2983=
200712182200 METAR MRLB 182200Z 06013KT 9999 FEW035 BKN120 29/21 A2983 RMK RN DST N=
200712182300 METAR MRLB 182300Z 06011KT 9999 FEW035 BKN120 28/21 A2984 RMK RN DST N=
200712190000 METAR MRLB 190000Z 01005KT 9999 FEW035 BKN120 26/21 A2986=
200712190100 METAR MRLB 190100Z 04003KT 9999 FEW035 BKN120 24/22 A2988=
200712190200 METAR MRLB 190200Z 07008KT 9999 FEW035 SCT120 26/22 A2991=
200712190300 METAR MRLB NIL=
200712190400 METAR MRLB NIL=
200712190500 METAR MRLB NIL=
200712190600 METAR MRLB NIL=
200712190700 METAR MRLB NIL=
200712190800 METAR MRLB NIL=
200712190900 METAR MRLB NIL=
200712191000 METAR MRLB NIL=
200712191100 METAR MRLB NIL=
200712191200 METAR MRLB 191200Z 00000KT 9999 SCT035 21/20 A2989 RMK FEW250 RN N=
200712191300 METAR MRLB 191300Z 00000KT 9999 SCT040 24/21 A2991 RMK TRACE CI=
200712191400 METAR MRLB 191400Z 23002KT 9999 FEW040 26/21 A2993 RMK TRACE AC=
200712191500 METAR MRLB 191500Z 09011KT 9999 FEW040 SCT120 29/21 A2994=
200712191600 METAR MRLB 191600Z 06012KT 9999 FEW035 30/21 A2993 RMK FEW130=
200712191700 METAR MRLB 191700Z 06017KT 9999 FEW035 31/21 A2991 RMK FEW130=
200712191800 METAR MRLB 191800Z 05012KT 9999 FEW035 SCT120 31/21 A2989=
200712191900 METAR MRLB 191900Z 08011KT 9999 SCT040 SCT120 31/20 A2986 RMK RN DST N=
200712192000 METAR MRLB 192000Z 05014KT 9999 SCT035 BKN120 29/20 A2984 RMK RN DST N=
200712192100 METAR MRLB 192100Z 05015KT 9999 SCT025TCU BKN150 29/21 A2982 RMK RN DST E=
200712192200 METAR MRLB 192200Z 07010KT 9999 FEW035 SCT100 27/21 A2983=
200712192300 METAR MRLB 192300Z 06007KT 9999 FEW035 27/20 A2983=
200712200000 METAR MRLB 200000Z 07008KT CAVOK 26/20 A2984 RMK FEW100=
200712200100 METAR MRLB 200100Z 06009KT CAVOK 25/20 A2987=
200712200200 METAR MRLB 200200Z 08007KT CAVOK 25/20 A2989=
200712200300 METAR MRLB 200300Z 07008KT CAVOK 25/20 A2991 FEW250=
200712200400 METAR MRLB 200400Z 08007KT CAVOK 25/20 A2991 FEW250=
200712200500 METAR MRLB NIL=
200712200600 METAR MRLB NIL=
200712200700 METAR MRLB NIL=
200712200800 METAR MRLB NIL=
200712200900 METAR MRLB NIL=
200712201000 METAR MRLB NIL=
200712201100 METAR MRLB NIL=
200712201200 METAR MRLB 201200Z 25003KT 9999 BKN035 22/21 A2985=
200712201300 METAR MRLB 201300Z 14003KT 9999 BKN035 23/21 A2987=
200712201400 METAR MRLB 201400Z 32004KT 9999 SCT035 SCT120 26/21 A2989 RMK RN DST N=
200712201500 METAR MRLB 201500Z 28003KT 9999 SCT035 28/21 A2990 RMK FEW120 RN DST N=
200712201600 METAR MRLB 201600Z 31007KT 9999 SCT035 30/21 A2989 RMK FEW120 RN DST N=
200712201700 METAR MRLB 201700Z 35007KT 9999 SCT035 SCT120 30/21 A2987 RMK RN DST N=
200712201800 METAR MRLB 201800Z 06007KT 9999 SCT035 BKN120 29/21 A2985 RMK RN DST N=
200712201900 METAR MRLB 201900Z 36007KT 9999 -DZ BKN035 SCT120 29/22 A2982=
200712202000 METAR MRLB 202000Z 02008KT 9999 SCT035 BKN100 29/22 A2979 RMK RN DST N SE=
200712202100 METAR MRLB 202100Z 04011KT 9999 SCT035 BKN100 30/21 A2977 RMK RN DST N E=
200712202200 METAR MRLB 202200Z 04008KT 9999 SCT035 BKN100 28/21 A2977 RMK RN DST NE E=
200712202300 METAR MRLB 202300Z 04009KT 9999 SCT035 BKN100 27/20 A2978 RMK RN DST N NE=
200712210000 METAR MRLB 210000Z 07006KT 9999 SCT035 SCT100 26/20 A2980 RN DIST NW=
200712210100 METAR MRLB 210100Z 06004KT 9999 FEW035 BKN100 25/20 A2982=
200712210200 METAR MRLB NIL=
200712210300 METAR MRLB NIL=
200712210400 METAR MRLB NIL=
200712210500 METAR MRLB NIL=
200712210600 METAR MRLB NIL=
200712210700 METAR MRLB NIL=
200712210800 METAR MRLB NIL=
200712210900 METAR MRLB NIL=
200712211000 METAR MRLB NIL=
200712211100 METAR MRLB NIL=
200712211200 METAR MRLB NIL=
200712211300 METAR MRLB 211300Z 27004KT CAVOK 23/21 A2985 RMK FEW240=
200712211400 METAR MRLB 211400Z 26004KT CAVOK 26/22 A2987 RMK SCT180=
200712211500 METAR MRLB 211500Z 07008KT 9999 FEW025 SCT180 29/21 A2988=
200712211600 METAR MRLB 211600Z 10010KT 9999 SCT025 BKN250 31/21 A2988=
200712211700 METAR MRLB 211700Z 09013KT 9999 SCT025 BKN150 30/21 A2987=
200712211800 METAR MRLB 211800Z 08010KT 9999 SCT025TCU BKN250 30/21 A2983=
200712211900 METAR MRLB 211900Z 06010KT 9999 SCT025TCU BKN250 30/21 A2980=
200712212000 METAR MRLB 212000Z 07010KT 9999 SCT025 BKN120 30/21 A2976=
200712212100 METAR MRLB 212100Z 06012KT 9999 SCT025 BKN120 29/21 A2975=
200712212200 METAR MRLB 212200Z 05010KT 9999 SCT025 BKN150 28/21 A2976=
200712212300 METAR MRLB 212300Z 06015KT 9999 SCT030 BKN100 27/20 A2977=
200712220000 METAR MRLB 220000Z 09008KT 9999 FEW035 SCT100 26/20 A2978=
200712220100 METAR MRLB 220100Z 08010KT 9999 SCT030 BKN100 25/20 A2980=
200712220200 METAR MRLB 220200Z 07009KT 9999 SCT025 BKN100 25/21 A2982=
200712220300 METAR MRLB NIL=
200712220400 METAR MRLB NIL=
200712220500 METAR MRLB NIL=
200712220600 METAR MRLB NIL=
200712220700 METAR MRLB NIL=
200712220800 METAR MRLB NIL=
200712220900 METAR MRLB NIL=
200712221000 METAR MRLB NIL=
200712221100 METAR MRLB NIL=
200712221200 METAR MRLB 221200Z 06003KT 9999 FEW040 SCT100 BKN250 22/20 A2981=
200712221300 METAR MRLB 221300Z 06003KT 9999 BKN040 23/21 A2984 RMK FEW120=
200712221400 METAR MRLB 221400Z 34003KT 9999 FEW040 SCT120 26/21 A2986=
200712221500 METAR MRLB 221500Z 19002KT 9999 FEW040 SCT120 27/21 A2987=
200712221600 METAR MRLB 221600Z 06016KT 9999 NSC 31/20 A2984 RMK TRACE CU RAFAGAS 21KT=
200712221700 METAR MRLB 221700Z 09015KT 9999 FEW035 31/20 A2983=
200712221800 METAR MRLB 221800Z 10015KT 9999 FEW035 31/20 A2981=
200712221900 METAR MRLB 221900Z 08016KT 9999 FEW035 32/20 A2978 RMK TRACE AC=
200712222000 METAR MRLB 222000Z 09015KT 9999 FEW035 SCT120 31/20 A2976=
200712222100 METAR MRLB 222100Z 09012KT 9999 SCT035 SCT120 31/20 A2976=
200712222200 METAR MRLB 222200Z 08010KT 9999 SCT035 SCT120 30/19 A2975=
200712222300 METAR MRLB 222300Z 07015KT 9999 SCT035 BKN100 28/19 A2977 RN SE=
200712230000 METAR MRLB 230000Z 09010KT 9999 SCT035 BKN100 28/19 A2977=
200712230100 METAR MRLB NIL=
200712230200 METAR MRLB NIL=
200712230300 METAR MRLB NIL=
200712230400 METAR MRLB NIL=
200712230500 METAR MRLB NIL=
200712230600 METAR MRLB NIL=
200712230700 METAR MRLB NIL=
200712230800 METAR MRLB NIL=
200712230900 METAR MRLB NIL=
200712231000 METAR MRLB NIL=
200712231100 METAR MRLB NIL=
200712231200 METAR MRLB 231200Z 18002KT 9999 SCT040 BKN100 23/21 A2983=
200712231300 METAR MRLB 231300Z 19003KT 9999 SCT040 BKN100 24/21 A2985=
200712231400 METAR MRLB 231400Z 00000KT 9999 BKN120 25/21 A2989=
200712231500 METAR MRLB 231500Z 22004KT 9999 SCT040 BKN100 27/21 A2989=
200712231600 METAR MRLB 231600Z 32004KT 9999 FEW040 BKN100 29/20 A2989=
200712231700 METAR MRLB 231700Z 29004KT CAVOK 30/19 A2987 TRAZAS CU BKN120=
200712231800 METAR MRLB 231800Z 25006KT 9999 SCT040 BKN120 31/19 A2986=
200712231900 METAR MRLB 231900Z 08013KT 9999 SCT040 BKN120 30/20 A2983 GUST 20KT=
200712232000 METAR MRLB 232000Z 02010KT 9999 SCT035 BKN150 30/20 A2981=
200712232100 METAR MRLB 232100Z 09012KT 9999 SCT030 BKN180 29/20 A2979=
200712232200 METAR MRLB 232200Z 07010KT 9999 SCT030 BKN200 29/20 A2979=
200712232300 METAR MRLB 232300Z 08010G20KT 9999 SCT040 BKN180 27/19 A2979=
200712240000 METAR MRLB 240000Z 08012G24KT 9999 FEW035 SCT100 26/20 A2979=
200712240100 METAR MRLB NIL=
200712240200 METAR MRLB NIL=
200712240300 METAR MRLB NIL=
200712240400 METAR MRLB NIL=
200712240500 METAR MRLB NIL=
200712240600 METAR MRLB NIL=
200712240700 METAR MRLB NIL=
200712240800 METAR MRLB NIL=
200712240900 METAR MRLB NIL=
200712241000 METAR MRLB NIL=
200712241100 METAR MRLB NIL=
200712241200 METAR MRLB 241200Z 20004KT 9999 FEW040 27/19 A2980 RMK FEW140=
200712241300 METAR MRLB 241300Z 23003KT 9999 FEW040 23/20 A2982 RMK FEW130=
200712241400 METAR MRLB 241400Z 26007KT CAVOK 26/21 A2984 RMK TRACE CU FEW140=
200712241500 METAR MRLB 241500Z 20005KT CAVOK 29/20 A2985 RMK TRACE CU FEW140=
200712241600 METAR MRLB 241600Z 29006KT 9999 FEW040 SCT140 30/19 A2985=
200712241700 METAR MRLB 241700Z 08016KT 9999 FEW040 32/19 A2983 RMK FEW140=
200712241800 METAR MRLB 241800Z 09018KT 9999 FEW040 32/19 A2980 RMK GUST 24KT=
200712241900 METAR MRLB 241900Z 09013KT 9999 FEW040 32/19 A2978=
200712242000 METAR MRLB 242000Z 10017KT 9999 FEW040 32/19 A2975 RMK FEW140 GUST 25KT=
200712242100 METAR MRLB 242100Z 09014KT 9999 FEW040 BKN130 30/19 A2975=
200712242200 METAR MRLB 242200Z 08013KT 9999 FEW040 SCT130 29/20 A2975=
200712242300 METAR MRLB 242300Z 08015KT 9999 FEW040 SCT130 28/19 A2975=
200712250000 METAR MRLB 250000Z 08010KT CAVOK 27/17 A2976 RMK SCT130=
200712250100 METAR MRLB 250100Z 07010KT CAVOK 26/18 A2977 RMK FEW130=
200712250200 METAR MRLB 250200Z 09008KT 9999 FEW030 SCT090 21/16 A2993=
200712250300 METAR MRLB NIL=
200712250400 METAR MRLB NIL=
200712250500 METAR MRLB NIL=
200712250600 METAR MRLB NIL=
200712250700 METAR MRLB NIL=
200712250800 METAR MRLB NIL=
200712250900 METAR MRLB NIL=
200712251000 METAR MRLB NIL=
200712251100 METAR MRLB NIL=
200712251200 METAR MRLB NIL=
200712251300 METAR MRLB 251300Z 16003KT 9999 FEW035 SCT120 23/20 A2978=
200712251400 METAR MRLB 251400Z 22003KT 9999 FEW040 27/19 A2981 RMK FEW120=
200712251500 METAR MRLB 251500Z 22006KT 9999 FEW035 29/20 A2984 RMK FEW120=
200712251600 METAR MRLB 251600Z 23006KT 9999 FEW035 30/19 A2984 RMK FEW120=
200712251700 METAR MRLB 251700Z 09014KT 9999 FEW040 SCT120 32/19 A2980=
200712251800 METAR MRLB 251800Z 02005KT 9999 SCT040 SCT120 31/19 A2979=
200712251900 METAR MRLB 251900Z 09017KT 9999 SCT040 SCT120 31/19 A2977 RMK RFGS 23KT=
200712252000 METAR MRLB 252000Z 07013KT 9999 SCT035 BKN120 30/20 A2975=
200712252100 METAR MRLB 252100Z 07017KT 9999 SCT035 BKN180 28/20 A2974=
200712252200 METAR MRLB 252200Z 07015KT 9999 SCT040 BKN180 28/20 A2975=
200712252300 METAR MRLB 252300Z 09012KT 9999 SCT030 BKN170 27/20 A2975=
200712260000 METAR MRLB 260000Z 04008KT 9999 FEW030 SCT100 27/20 A2976=
200712260100 METAR MRLB 260100Z 06010KT 9999 FEW040 SCT140 27/20 A2977=
200712260200 METAR MRLB 260200Z 08012KT 9999 FEW035 SCT120 26/20 A2979=
200712260300 METAR MRLB NIL=
200712260400 METAR MRLB NIL=
200712260500 METAR MRLB NIL=
200712260600 METAR MRLB NIL=
200712260700 METAR MRLB NIL=
200712260800 METAR MRLB NIL=
200712260900 METAR MRLB NIL=
200712261000 METAR MRLB NIL=
200712261100 METAR MRLB NIL=
200712261200 METAR MRLB 261200Z 21004KT CAVOK 22/17 A2974 RMK FEW130 SCT250=
200712261300 METAR MRLB 261300Z 00000KT CAVOK 24/18 A2977 RMK FEW130 SCT250=
200712261400 METAR MRLB 261400Z 28005KT CAVOK 27/19 A2980 RMK SCT250=
200712261500 METAR MRLB 261500Z 26005KT CAVOK 29/19 A2980 RMK TRACE CU FEW250=
200712261600 METAR MRLB 261600Z 09006KT CAVOK 31/19 A2978 RMK FEW250 TRACE CU=
200712261700 METAR MRLB 261700Z 07014KT 9999 FEW035 32/20 A2978=
200712261800 METAR MRLB 261800Z 10019KT 9999 FEW035 31/19 A2975 RMK RFGS 25KT=
200712261900 METAR MRLB 261900Z 11014KT 9999 FEW035 32/20 A2974=
200712262000 METAR MRLB 262000Z 09014KT 9999 FEW035 31/19 A2973=
200712262100 METAR MRLB 262100Z 09015KT 9999 FEW035 30/20 A2973=
200712262200 METAR MRLB 262200Z 08013KT 9999 FEW035 30/19 A2974=
200712262300 METAR MRLB 262300Z 06015KT 9999 FEW040 28/19 A2975=
200712270000 METAR MRLB 270000Z 08010KT CAVOK 27/18 A2975 RMK FEW140=
200712270100 METAR MRLB 270100Z 12012KT CAVOK 26/19 A2977 FEW140=
200712270200 METAR MRLB 270200Z 11012KT CAVOK 25/19 A2978 FEW140=
200712270300 METAR MRLB NIL=
200712270400 METAR MRLB NIL=
200712270500 METAR MRLB NIL=
200712270600 METAR MRLB NIL=
200712270700 METAR MRLB NIL=
200712270800 METAR MRLB NIL=
200712270900 METAR MRLB NIL=
200712271000 METAR MRLB NIL=
200712271100 METAR MRLB NIL=
200712271200 METAR MRLB NIL=
200712271300 METAR MRLB 271300Z 14005KT CAVOK 19/18 A2982 RMK SCT250=
200712271400 METAR MRLB 271400Z 00000KT CAVOK 20/19 A2984 RMK BKN250=
200712271500 METAR MRLB 271500Z 00000KT CAVOK 23/20 A2985 RMK SCT250=
200712271600 METAR MRLB 271600Z 00000KT CAVOK 27/19 A2984 RMK SCT250=
200712271700 METAR MRLB 271700Z 01008KT CAVOK 30/19 A2984 RMK BKN250=
200712271800 METAR MRLB 271800Z 05015KT CAVOK 32/18 A2980 RMK SCT250=
200712271900 METAR MRLB 271900Z 06010KT CAVOK 32/19 A2977 RMK SCT250=
200712272000 METAR MRLB 272000Z 08010KT 9999 FEW030 BKN250 31/20 A2975=
200712272100 METAR MRLB 272100Z 07013KT 9999 FEW025 SCT250 32/19 A2974=
200712272200 METAR MRLB 272200Z 07012KT CAVOK 29/19 A2975 FEW100 BKN250=
200712272300 METAR MRLB 272300Z 09010KT CAVOK 28/19 A2975 FEW120 BKN250=
200712280000 METAR MRLB 280000Z 10008KT CAVOK 26/20 A2976 SCT250=
200712280100 METAR MRLB 280100Z 10014KT CAVOK 26/19 A2977 FEW250=
200712280200 METAR MRLB 280200Z 10010KT CAVOK 25/19 A2980 FEW250=
200712280300 METAR MRLB NIL=
200712280400 METAR MRLB NIL=
200712280500 METAR MRLB NIL=
200712280600 METAR MRLB NIL=
200712280700 METAR MRLB NIL=
200712280800 METAR MRLB NIL=
200712280900 METAR MRLB NIL=
200712281000 METAR MRLB NIL=
200712281100 METAR MRLB NIL=
200712281200 METAR MRLB 281200Z 05003KT 9999 FEW040 SCT250 20/19 A2983 RMK TRACE AC=
200712281300 METAR MRLB 281300Z 04002KT 9999 FEW040 BKN120 21/20 A2985=
200712281400 METAR MRLB 281400Z 24002KT CAVOK 24/20 A2985 SCT120 BKN250=
200712281500 METAR MRLB 281500Z 23002KT CAVOK 27/21 A2987 FEW120 BKN250=
200712281600 METAR MRLB 281600Z 31003KT 9999 FEW035 BKN250 29/21 A2987 FEW120=
200712281700 METAR MRLB 281700Z 01005KT 9999 FEW035 BKN250 32/21 A2984 FEW120=
200712281800 METAR MRLB 281800Z 31008KT 9999 SCT035 SCT120 30/21 A2981=
200712281900 METAR MRLB 281900Z 33006KT 9999 SCT035 BKN100 31/22 A2979 RN N=
200712282000 METAR MRLB 282000Z 01007KT 9999 FEW040 BKN100 31/22 A2977 RN N=
200712282100 METAR MRLB 282100Z 08013KT 9999 SCT040 BKN100 30/21 A2975 RMK RN DST N=
200712282200 METAR MRLB 282200Z 06015KT 9999 BKN040 SCT120 28/21 A2975 RMK GUST 22KT=
200712282300 METAR MRLB 282300Z 08008KT 9999 BKN040 SCT100 28/21 A2977 RMK RN DST N=
200712290000 METAR MRLB 290000Z 08005KT 9999 BKN040 27/21 A2979 RMK FEW100 RN DST N=
200712290100 METAR MRLB 290100Z 06005KT 9999 SCT040 BKN120 26/21 A2980=
200712290200 METAR MRLB 290200Z 13004KT 9999 FEW040 BKN120 26/21 A2981=
200712290300 METAR MRLB NIL=
200712290400 METAR MRLB NIL=
200712290500 METAR MRLB NIL=
200712290600 METAR MRLB NIL=
200712290700 METAR MRLB NIL=
200712290800 METAR MRLB NIL=
200712290900 METAR MRLB NIL=
200712291000 METAR MRLB NIL=
200712291100 METAR MRLB NIL=
200712291200 METAR MRLB 291200Z 01004KT 9999 FEW030 BKN040 26720 A2978 RMK HZ LEVE ARND=
200712291300 METAR MRLB 291300Z 06009KT 9999 SCT040 SCT120 27/20 A2980 RMK FEW250=
200712291400 METAR MRLB 291400Z 09017KT 9999 SCT040 BKN120 28/20 A2982 RMK HZ LEVE ARND GUST 24KT=
200712291500 METAR MRLB 291500Z 08015KT 9999 FEW040 BKN120 28/20 A2984 RMK LEVE HZY FEW250 GUST 21KT=
200712291600 METAR MRLB 291600Z 07017KT CAVOK 30/20 A2984 RMK SCT120 SCT250 GUST 25KT=
200712291700 METAR MRLB 291700Z 07019KT CAVOK 30/19 A2981 RMK BKN130 FEW250 GUST 25KT=
200712291800 METAR MRLB 291800Z 08017KT CAVOK 32/20 A2978 RMK TRACE CU SCT120 GUST 23KT=
200712291900 METAR MRLB 291900Z 07022KT 9999 FEW035 SCT130 33/19 A2976 RMK GUST 31=
200712292000 METAR MRLB 292000Z 08016KT 9999 FEW035 SCT200 33/19 A2973=
200712292100 METAR MRLB 292100Z 07016KT 9999 SCT035 BKN200 31/19 A2973=
200712292200 METAR MRLB 292200Z 07013KT 9999 FEW035 SCT180 30/20 A2972=
200712292300 METAR MRLB 292300Z 09013KT CAVOK 29/20 A2972 RMK SCT120=
200712300000 METAR MRLB 300000Z 10016KT CAVOK 28/20 A2972 RMK TRACE SC=
200712300100 METAR MRLB 300100Z 09018KT CAVOK 27/20 A2975 RMK SCT100 RFGS 23KT=
200712300200 METAR MRLB NIL=
200712300300 METAR MRLB NIL=
200712300400 METAR MRLB NIL=
200712300500 METAR MRLB NIL=
200712300600 METAR MRLB NIL=
200712300700 METAR MRLB NIL=
200712300800 METAR MRLB NIL=
200712300900 METAR MRLB NIL=
200712301000 METAR MRLB NIL=
200712301100 METAR MRLB NIL=
200712301200 METAR MRLB 301200Z 10011KT CAVOK 25/20 A2979 SCT130=
200712301300 METAR MRLB 301300Z 00000KT CAVOK 24/20 A2981 RMK FEW130=
200712301400 METAR MRLB 301400Z 10013KT 9999 NSC 29/20 A2983 TRACE CU=
200712301500 METAR MRLB 301500Z 08015KT CAVOK 30/20 A2984 FEW250=
200712301600 METAR MRLB 301600Z NIL=
200712301700 METAR MRLB 301700Z 09011KT 9999 FEW040 32/20 A2983 RMK FEW250=
200712301800 METAR MRLB 301800Z 08011KT 9999 FEW040 34/19 A2981 RMK FEW250=
200712301900 METAR MRLB 301900Z 10010KT 9999 SCT040 33/19 A2978=
200712302000 METAR MRLB NIL=
200712302100 METAR MRLB 302100Z 09009KT 9999 FEW040 34/19 A2974 RMK FEW250=
200712302200 METAR MRLB 302200Z 07014KT 9999 SCT040 32/20 A2974=
200712302300 METAR MRLB 302300Z 10012KT 9999 FEW040 30/20 A2974=
200712310000 METAR MRLB 310000Z 08007KT 9999 NSC 29/19 A2975 RMK TRACE CU=
200712310100 METAR MRLB 310100Z 08012KT CAVOK SKC 28/19 A2976=
200712310200 METAR MRLB 310200Z 04006KT 9999 SKC 26/19 A2978=
200712310300 METAR MRLB NIL=
200712310400 METAR MRLB NIL=
200712310500 METAR MRLB NIL=
200712310600 METAR MRLB NIL=
200712310700 METAR MRLB NIL=
200712310800 METAR MRLB NIL=
200712310900 METAR MRLB NIL=
200712311000 METAR MRLB NIL=
200712311100 METAR MRLB NIL=
200712311200 METAR MRLB 311200Z 17003KT CAVOK 21/20 A2981RMK TRACE SCT BKN140 SCT250=
200712311300 METAR MRLB 311300Z 00000KT CAVOK 22/20 A2983 RMK TRACE SC BKN130 FEW250 HZ LGT ARND=
200712311400 METAR MRLB 311400Z 00000KT CAVOK 23/21 A2986 RMK TRACE SC OVC140 HZ LGT ARND=
200712311500 METAR MRLB 311500Z 13002KT CAVOK 28/22 A2987 RMK TRACE SC SCT140 BKN200 HZ LGT ARND=
200712311600 METAR MRLB 311600Z 14006KT 9999 FEW030 BKN250 30/21 A2985 RMK HZ LGT ARND=
200712311700 METAR MRLB 311700Z 07013KT CAVOK 32/19 A2984 RMK TRACE SC AC OVC250=
200712311800 METAR MRLB 311800Z 07010KT 9999 FEW035 BKN250 33/18 A2982 RMK FEW130=
200712311900 METAR MRLB 311900Z 07013KT CAVOK 33/19 A2980 RMK TRACE CU AC BKN250=
200712312000 METAR MRLB 312000Z 08012KT 9999 FEW035 BKN250 32/14 A2977=
200712312100 METAR MRLB 312100Z 08013KT CAVOK 32/18 A2977 RMK BKN250=
200712312200 METAR MRLB 312200Z 09010KT CAVOK 31/19 A2977 RMK BKN250=
200712312300 METAR MRLB 312300Z 08010KT CAVOKO 29/20 A2977 RMK BKN250=
