200801010000 METAR MRLB 010000Z 04010KT CAVOK 28/19 A2978 RMK FW150 BKN250=
200801010100 METAR MRLB NIL=
200801010200 METAR MRLB 010200Z 08017KT CAVOK 28/19 A2981 RMK SCT250=
200801010300 METAR MRLB NIL=
200801010400 METAR MRLB NIL=
200801010500 METAR MRLB NIL=
200801010600 METAR MRLB NIL=
200801010700 METAR MRLB NIL=
200801010800 METAR MRLB NIL=
200801010900 METAR MRLB NIL=
200801011000 METAR MRLB NIL=
200801011100 METAR MRLB NIL=
200801011200 METAR MRLB 011200Z 06010KT 9999 FEW040 SCT220 26/20 A2983=
200801011300 METAR MRLB 011300Z 05010KT 9999 FEW040 26/20 A2985 RMK FEW250=
200801011400 METAR MRLB 011400Z 04008KT 9999 FEW040 SCT100 28/20 A2988 RMK RN N NE=
200801011500 METAR MRLB 011500Z 08008KT 9999 SCT040 29/20 A2990=
200801011600 METAR MRLB 011600Z 07009KT 9999 FEW035 SCT100 30/21 A2991 RMK RN NE=
200801011700 METAR MRLB 011700Z 07013KT 9999 SCT035 32/21 A2988=
200801011800 METAR MRLB 011800Z 04011KT 9999 SCT035 31/21 A2985=
200801011900 METAR MRLB 011900Z 07013KT 9999 BKN035 33/20 A2982=
200801012000 METAR MRLB 012000Z 05015KT 9999 BKN035 31/21 A2981 RMK RN E=
200801012100 METAR MRLB 012100Z 06012KT 9999 BKN035 30/21 A2980 RN N NE=
200801012200 METAR MRLB 012200Z 07013KT 9999 FEW035 SCT100 29/20 A2979 RN E NE=
200801012300 METAR MRLB 012300Z 08012KT 9999 SCT035 29/20 A2980=
200801020000 METAR MRLB 020000Z 07017KT 9999 FEW035 27/20 A2981 FEW130=
200801020100 METAR MRLB 020100Z 07018KT 9999 FEW035 27/20 A2985=
200801020200 METAR MRLB NIL=
200801020300 METAR MRLB NIL=
200801020400 METAR MRLB NIL=
200801020500 METAR MRLB NIL=
200801020600 METAR MRLB NIL=
200801020700 METAR MRLB NIL=
200801020800 METAR MRLB NIL=
200801020900 METAR MRLB NIL=
200801021000 METAR MRLB NIL=
200801021100 METAR MRLB NIL=
200801021200 METAR MRLB 021200Z 03005KT 9999 FEW025 25/18 A2983=
200801021300 METAR MRLB NIL=
200801021400 METAR MRLB 021400Z 07007KT 9999 SCT020 29/18 A2989=
200801021500 METAR MRLB 021500Z 08016G26KT 9999 SCT035 29/19 A2989=
200801021600 METAR MRLB 021600Z 09015KT 9999 SCT035 29/19 A2989=
200801021700 METAR MRLB 021700Z 10014KT 9999 SCT035 31/18 A2986=
200801021800 METAR MRLB 021800Z 10018KT 9999 SCT030 31/19 A2986=
200801021900 METAR MRLB 021900Z 10018KT 9999 SCT035 31/18 A2983=
200801022000 METAR MRLB 022000Z 08020G30KT 9999 SCT040 29/17 A2983=
200801022100 METAR MRLB 022100Z 09022G32KT 9999 SCT030 27/18 A2982=
200801022200 METAR MRLB 022200Z 09022G32KT 9999 FEW045 28/18 A2981=
200801022300 METAR MRLB 022300Z 10020G30KT 9999 FEW045 27/18 A2982=
200801030000 METAR MRLB 030000Z 09022G32KT 9999 FEW045 27/18 A2984=
200801030100 METAR MRLB 030100Z 08020KT CAVOK 26/18 A2985 FEW100=
200801030200 METAR MRLB NIL=
200801030300 METAR MRLB NIL=
200801030400 METAR MRLB NIL=
200801030500 METAR MRLB NIL=
200801030600 METAR MRLB NIL=
200801030700 METAR MRLB NIL=
200801030800 METAR MRLB NIL=
200801030900 METAR MRLB NIL=
200801031000 METAR MRLB NIL=
200801031100 METAR MRLB NIL=
200801031200 METAR MRLB 031200Z 04008KT 9999 BKN035 26/17 A2990 RMK RN N=
200801031300 METAR MRLB 031300Z 09013KT 9999 FEW035 26/17 A2993=
200801031400 METAR MRLB 031400Z 09012KT 9999 BKN035 27/16 A2996=
200801031500 METAR MRLB 031500Z 03006KT 9999 BKN030 28/17 A2996 RMK RN DST N NE=
200801031600 METAR MRLB 031600Z 09014KT 9999 SCT030 29/17 A2997 RMK GUST 21KT=
200801031700 METAR MRLB 031700Z 09016KT 9999 BKN035 29/17 A2995 RMK GUST 22KT RN DST N NE=
200801031800 METAR MRLB 031800Z 08018KT 9999 SCT035 30/17 A2991 GUST 25KT=
200801031900 METAR MRLB 031900Z 05007KT 9999 BKN035 30/18 A2989 RN DST N=
200801032000 METAR MRLB NIL=
200801032100 METAR MRLB NIL=
200801032200 METAR MRLB NIL=
200801032300 METAR MRLB NIL=
200801040000 METAR MRLB NIL=
200801040100 METAR MRLB NIL=
200801040200 METAR MRLB NIL=
200801040300 METAR MRLB NIL=
200801040400 METAR MRLB NIL=
200801040500 METAR MRLB NIL=
200801040600 METAR MRLB NIL=
200801040700 METAR MRLB NIL=
200801040800 METAR MRLB NIL=
200801041100 METAR MRLB NIL=
200801041200 METAR MRLB NIL=
200801041300 METAR MRLB 041300Z 07018KT 9999 SCT030 25/18 A2993 RMK RFGS 27KT=
200801041400 METAR MRLB 041400Z 08015KT 9999 SCT030 26/18 A2994=
200801041500 METAR MRLB 041500Z 08019KT 9999 BKN035 27/18 A2996 RMK RFGS 24KT=
200801041600 METAR MRLB 041600Z 09023G33KT 9999 FEW035 28/18 A2994=
200801041700 METAR MRLB 041700Z 09025KT 9999 FEW035 29/17 A2992 RMK RFGS 34KT=
200801041800 METAR MRLB 041800Z 08019KT 9999 FEW035 30/18 A2989 RMK RFGS 26KT=
200801041900 METAR MRLB 041900Z 09020KT 9999 FEW035 30/18 A2985 RMK RFGS 27KT=
200801042000 METAR MRLB 042000Z 09022KT 9999 SCT035 30/17 A2982=
200801042100 METAR MRLB 042100Z 09020G30KT 9999 FEW035 30/17 A2980=
200801042200 METAR MRLB 042200Z 09018KT 9999 SCT035 27/19 A2983 RMK RN DST N=
200801042300 METAR MRLB 042300Z 09022G32KT 9999 SCT030 25/19 A2986=
200801050000 METAR MRLB 050000Z 08020KT 9999 FEW040 25/18 A2986=
200801050100 METAR MRLB 050100Z 08016G26KT CAVOK 25/19 A2987 RMK FEW080=
200801050200 METAR MRLB 050200Z 09020KT CAVOK 25/19 A2989 RMK FEW180 RFGS 27KT=
200801050300 METAR MRLB NIL=
200801050400 METAR MRLB NIL=
200801050500 METAR MRLB NIL=
200801050600 METAR MRLB NIL=
200801050700 METAR MRLB NIL=
200801050800 METAR MRLB NIL=
200801050900 METAR MRLB NIL=
200801051000 METAR MRLB NIL=
200801051100 METAR MRLB NIL=
200801051200 METAR MRLB 051200Z NIL=
200801051300 METAR MRLB 051300Z 11008KT FEW040 25/19 A2988=
200801051400 METAR MRLB 051400Z 09011KT 9999 FEW040 27/19 A2991=
200801051500 METAR MRLB NIL=
200801051600 METAR MRLB 051600Z 08013KT 9999 FEW040 28/19 A2992=
200801051700 METAR MRLB 051700Z 07013KT 9999 SCT040 29/20 2989=
200801051800 METAR MRLB 051800Z 07013KT 9999 SCT040 29/19 A2986=
200801051900 METAR MRLB 051900Z 08011KT 9999 BKN035 31/19 A2983=
200801052000 METAR MRLB 052000Z 07011KT 9999 BKN035 31/20 A2980=
200801052100 METAR MRLB 052100Z 06013KT 9999 SCT040 30/20 A2979=
200801052200 METAR MRLB 052200Z 07012KT 9999 SCT040 30/19 A2980=
200801052300 METAR MRLB 052300Z 07011KT 9999 FEW040 29/19 A2982=
200801060000 METAR MRLB 060000Z 08012KT 9999 SCT040 27/20 A2983=
200801060100 METAR MRLB 060100Z 11011KT 9999 FEW040 26/19 A2984=
200801060200 METAR MRLB 060200Z 10018KT 9999 FEW040 26/19 A2986=
200801060300 METAR MRLB NIL=
200801060400 METAR MRLB NIL=
200801060500 METAR MRLB NIL=
200801060600 METAR MRLB NIL=
200801060700 METAR MRLB NIL=
200801060800 METAR MRLB NIL=
200801060900 METAR MRLB NIL=
200801061000 METAR MRLB NIL=
200801061100 METAR MRLB NIL=
200801061200 METAR MRLB 061200Z 17007KT 9999 FEW035 BKN250 24/20 A2986=
200801061300 METAR MRLB 061300Z 27005KT CAVOK 25/20 A2986 RMK FEW130 FEW250=
200801061400 METAR MRLB 061400Z 30006KT CAVOK 27/21 A2989 RMK FEW130 TRACE SC=
200801061500 METAR MRLB 061500Z 16008KT CAVOK 28/21 A2989 RMK BKN030 TRACE CU=
200801061600 METAR MRLB 061600Z 28005KT CAVOK 30/20 A2989 RMK BKN130 TRACE CU=
200801061700 METAR MRLB 061700Z 09016KT 9999 FEW035 BKN130 31/20 A2987 RMK RAFAGAS 22KT=
200801061800 METAR MRLB 061800Z 08014KT 9999 FEW035 BKN130 31/21 A2986 RMK RN N RAFAGAS 22KT=
200801061900 METAR MRLB 061900Z 08018KT 9999 SCT035 BKN130 28/20 A2984 RMK RAFAGAS 25KT=
200801062000 METAR MRLB 062000Z 09015KT 9999 FEW040 BKN130 28/20 A2981 RMK RAFAGAS 22KT=
200801062100 METAR MRLB 062100Z 08018KT 9999 FEW040 BKN130 28/20 A2978 RAFAGAS 25KT=
200801062200 METAR MRLB 062200Z 10018KT 9999 SCT040 BKN130 28/20 A2977 RAFAGAS 26KT=
200801062300 METAR MRLB 062300Z 09018KT 9999 FEW040 BKN130 27/20 A2979 RAFAGAS 24KT=
200801070000 METAR MRLB 070000Z 09019KT 9999 FEW040 27/18 A2981 FEW130 RAFAGAS 26KT=
200801070100 METAR MRLB NIL=
200801070200 METAR MRLB 070200Z 10019KT CAVOK 27/20 A2984 RMK FEW130 GUST 24KT=
200801070300 METAR MRLB NIL=
200801070400 METAR MRLB NIL=
200801070500 METAR MRLB NIL=
200801070600 METAR MRLB NIL=
200801070700 METAR MRLB NIL=
200801070800 METAR MRLB NIL=
200801070900 METAR MRLB NIL=
200801071000 METAR MRLB NIL=
200801071100 METAR MRLB NIL=
200801071200 METAR MRLB 071200Z 02003KT 9999 FEW040 SCT130 22/20 A2987=
200801071300 METAR MRLB 071300Z 16005KT 9999 FEW040 BKN120 25/20 A2989=
200801071400 METAR MRLB 071400Z 04004KT 9999 FEW040 BKN120 27/19 A2990=
200801071500 METAR MRLB 071500Z 01003KT 9999 BKN035 SCT120 27/20 A2993=
200801071600 METAR MRLB 071600Z 07011KT CAVOK 29/20 A2993 BKN120 TRAZAS SCT=
200801071700 METAR MRLB 071700Z 06011KT 9999 FEW040 BKN120 29/20 A2991=
200801071800 METAR MRLB 071800Z 08018KT CAVOK 30/19 A2988 TRAZAS CU BKN120=
200801071900 METAR MRLB 071900Z 09018KT 9999 FEW040 BKN120 29/20 A2986=
200801072000 METAR MRLB 072000Z 10017KT 9999 FEW040 SCT120 BKN250 31/19 A2982=
200801072100 METAR MRLB 072100Z 11017KT CAVOK 30/17 A2980 RMK FEW130 BKN250=
200801072200 METAR MRLB 072200Z 09019KT CAVOK 29/18 A2979 RMK TRACE AC OVC250=
200801072300 METAR MRLB 072300Z 09015KT CAVOK 29/18 A2975 RMK TRACE AC OVC250=
200801080000 METAR MRLB 080000Z 09017KT CAVOK 28/19 A2982 RMK OVC250=
200801080100 METAR MRLB 080100Z 08016KT CAVOK 27/19 A2985 OVC250=
200801080200 METAR MRLB NIL=
200801080300 METAR MRLB NIL=
200801080400 METAR MRLB NIL=
200801080500 METAR MRLB NIL=
200801080600 METAR MRLB NIL=
200801080700 METAR MRLB NIL=
200801080800 METAR MRLB NIL=
200801080900 METAR MRLB NIL=
200801081000 METAR MRLB NIL=
200801081100 METAR MRLB NIL=
200801081200 METAR MRLB 081200Z 27002KT 9999 FEW030 BKN120 24/19 A2984=
200801081300 METAR MRLB 081300Z 25003KT 9999 FEW035 BKN130 24/20 A2987=
200801081400 METAR MRLB 081400Z 27002KT 9999 FEW035 BKN130 26/20 A2989=
200801081500 METAR MRLB 081500Z 04007KT 9999 FEW035 BKN140 29/20 A2992=
200801081600 METAR MRLB 081600Z 08017KT 9999 FEW035 OVC250 31/19 A2992=
200801081700 METAR MRLB 081700Z 07018KT 9999 FEW035 BKN250 31/19 A2990=
200801081800 METAR MRLB 081800Z 08013KT 9999 FEW035 BKN250 32/18 A2988=
200801081900 METAR MRLB 081900Z 10012KT 9999 FEW035 OVC250 33/18 A2985=
200801082000 METAR MRLB 082000Z 08010KT 9999 FEW035 OVC250 32/18 A2982=
200801082100 METAR MRLB 082100Z 10010KT 9999 FEW035 OVC250 22/17 A2982=
200801082200 METAR MRLB 082200Z 07012KT CAVOK 31/17 A2981 RMK TRACE CU BKN250=
200801082300 METAR MRLB 082300Z 06009KT CAVOK 29/19 A2983 RMK BKN240 TRACE CU=
200801090000 METAR MRLB 090000Z 07008KT CAVOK 27/19 A2984 RMK BKN240=
200801090100 METAR MRLB 090100Z 07008KT 9999 FEW035 BKN250 26/20 A2986=
200801090200 METAR MRLB 090200Z 06009KT 9999 FEW035 BKN240 25/20 A2989=
200801090300 METAR MRLB NIL=
200801090400 METAR MRLB NIL=
200801090500 METAR MRLB NIL=
200801090600 METAR MRLB NIL=
200801090700 METAR MRLB NIL=
200801090800 METAR MRLB NIL=
200801090900 METAR MRLB NIL=
200801091000 METAR MRLB NIL=
200801091100 METAR MRLB NIL=
200801091200 METAR MRLB NIL=
200801091300 METAR MRLB 091300Z 00000KT CAVOK 22/18 A2987 RMK SCT250=
200801091400 METAR MRLB 091400Z 00000KT CAVOK 26/19 A2990 RMK SCT250=
200801091500 METAR MRLB 091500Z 08014KT CAVOK 30/19 A2990 RMK FEW250=
200801091600 METAR MRLB 091600Z 07013KT 9999 FEW030 31/18 A2989=
200801091700 METAR MRLB 091700Z 09015KT 9999 FEW035 32/18 A2987=
200801091800 METAR MRLB NIL=
200801091900 METAR MRLB 091900Z 06016KT 9999 FEW035 33/18 A2981=
200801092000 METAR MRLB 092000Z 09014KT 9999 FEW030 33/18 A2978=
200801092100 METAR MRLB 092100Z 07014KT 9999 FEW030 33/18 A2976=
200801092200 METAR MRLB 092200Z 08012KT 9999 FEW030 32/19 A2976=
200801092300 METAR MRLB 092300Z 08012KT CAVOK 30/19 A2978 RMK FEW200=
200801100000 METAR MRLB 100000Z 08008KT CAVOK 28/20 A2980=
200801100100 METAR MRLB NIL=
200801100200 METAR MRLB NIL=
200801100300 METAR MRLB NIL=
200801100400 METAR MRLB NIL=
200801100500 METAR MRLB NIL=
200801100600 METAR MRLB NIL=
200801100700 METAR MRLB NIL=
200801100800 METAR MRLB NIL=
200801100900 METAR MRLB NIL=
200801101000 METAR MRLB NIL=
200801101100 METAR MRLB NIL=
200801101200 METAR MRLB 101200Z 12006KT CAVOK 23/19 A2984 RMK BKN250=
200801101300 METAR MRLB 101300Z 19002KT CAVOK 22/20 A2986 RMK BKN250=
200801101400 METAR MRLB 101400Z 01003KT CAVOK 27/20 A2989 RMK BKN250=
200801101500 METAR MRLB 101500Z 08011KT CAVOK 30/19 A2989 RMK BKN250 TRACE CU=
200801101600 METAR MRLB 101600Z 08011KT 9999 FEW040 BKN250 31/19 A2990=
200801101700 METAR MRLB 101700Z 08011KT 9999 FEW040 BKN250 31/19 A2988=
200801101800 METAR MRLB 101800Z 05008KT 9999 FEW040 BKN250 32/19 A2985=
200801101900 METAR MRLB 101900Z 07009KT 9999 SCT040 SCT250 33/19 A2981=
200801102000 METAR MRLB 102000Z 08007KT 9999 SCT040 31/19 A2978 RMK FEW250=
200801102100 METAR MRLB 102100Z 09008KT 9999 SCT035 32/20 A2977 RMK FEW250=
200801102200 METAR MRLB 102200Z 12006KT 9999 BKN035 31/19 A2978 RMK FEW250=
200801102300 METAR MRLB 102300Z 28005KT 9999 SCT035 30/21 A2978 RMK FEW250=
200801110000 METAR MRLB 110000Z 31005KT 9999 SCT035 BKN250 28/21 A2980=
200801110100 METAR MRLB 110100Z 24002KT 9999 FEW035 BKN250 27/22 A2982=
200801110200 METAR MRLB NIL=
200801110300 METAR MRLB NIL=
200801110400 METAR MRLB NIL=
200801110500 METAR MRLB NIL=
200801110600 METAR MRLB NIL=
200801110700 METAR MRLB NIL=
200801110800 METAR MRLB NIL=
200801110900 METAR MRLB NIL=
200801111000 METAR MRLB NIL=
200801111100 METAR MRLB NIL=
200801111200 METAR MRLB 111200Z 00000KT CAVOK 20/20 A2983 RMK BKN250=
200801111300 METAR MRLB 111300Z 03002KT CAVOK 21/20 A2986 BKN250=
200801111400 METAR MRLB 111400Z 03002KT CAVOK 24/21 A2988 RMK BKN250=
200801111500 METAR MRLB 111500Z 00000KT CAVOK 25/22 A2989 RMK BKN250 TRACE CU=
200801111600 METAR MRLB 111600Z NIL=
200801111700 METAR MRLB 111700Z 07004KT 9999 SCT035 BKN250 30/20 A2986=
200801111800 METAR MRLB 111800Z 08005KT 9999 SCT035 OVC250 30/20 A2983=
200801111900 METAR MRLB 111900Z 10006KT 9999 SCT035 BKN250 31/19 A2979=
200801112000 METAR MRLB 112000Z 08006KT 9999 SCT035 OVC250 31/20 A2977=
200801112100 METAR MRLB 112100Z 09006KT 9999 SCT035 OVC250 30/20 A2976=
200801112200 METAR MRLB 112200Z 08005KT 9999 SCT035 BKN250 30/19 A2975=
200801112300 METAR MRLB 112300Z 08005KT 9999 SCT040 BKN250 29/20 A2977=
200801120000 METAR MRLB 120000Z 18003KT 9999 SCT035 BKN240 28/21 A2978=
200801120100 METAR MRLB NIL=
200801120200 METAR MRLB NIL=
200801120300 METAR MRLB NIL=
200801120400 METAR MRLB NIL=
200801120500 METAR MRLB NIL=
200801120600 METAR MRLB NIL=
200801120700 METAR MRLB NIL=
200801120800 METAR MRLB NIL=
200801120900 METAR MRLB NIL=
200801121000 METAR MRLB NIL=
200801121100 METAR MRLB NIL=
200801121200 METAR MRLB NIL=
200801121300 METAR MRLB 121300Z NIL=
200801121400 METAR MRLB 121400Z 00000KT CAVOK 26/21 A2985 FEW250=
200801121500 METAR MRLB 121500Z 00000KT CAVOK 29/21 A2986 FEW200=
200801121600 METAR MRLB 121600Z 08011KT 9999 FEW035 31/19 A2984=
200801121700 METAR MRLB 121700Z 08012KT 9999 FEW035 31/18 A2983=
200801121800 METAR MRLB 121800Z 08010KT 9999 FEW030 32/18 A2979=
200801121900 METAR MRLB 121900Z 07011KT 9999 FEW030 33/18 A2976=
200801122000 METAR MRLB NIL=
200801122100 METAR MRLB 122100Z 06012KT 9999 FEW035 33/18 A2971=
200801122200 METAR MRLB 122200Z 08013KT 9999 FEW035 31/18 A2971=
200801122300 METAR MRLB 122300Z 08012KT CAVOK 30/18 A2972 RMK FEW100=
200801130000 METAR MRLB 130000Z 08013KT CAVOK 28/18 A2974 RMK FEW250=
200801130100 METAR MRLB 130100Z 08012KT CAVOK 26/19 A2976 RMK FEW250=
200801130200 METAR MRLB NIL=
200801130300 METAR MRLB NIL=
200801130400 METAR MRLB NIL=
200801130500 METAR MRLB NIL=
200801130600 METAR MRLB NIL=
200801130700 METAR MRLB NIL=
200801130800 METAR MRLB NIL=
200801130900 METAR MRLB NIL=
200801131000 METAR MRLB NIL=
200801131100 METAR MRLB NIL=
200801131200 METAR MRLB 131200Z 04004KT 9999 SKC 17/15 A2982=
200801131300 METAR MRLB 131300Z 28003KT 9999 SKC 18/16 A2984=
200801131400 METAR MRLB 131400Z 23003KT 9999 SKC 24/17 A2986=
200801131500 METAR MRLB 131500Z 00000KT 9999 SKC 28/17 A2987=
200801131600 METAR MRLB 131600Z 08011KT 9999 SKC 31/12 A2985=
200801131700 METAR MRLB 131700Z 10010KT 9999 SKC 32/14 A2984=
200801131800 METAR MRLB 131800Z 10009KT 9999 SKC 32/14 A2981=
200801131900 METAR MRLB 131900Z 08011KT 9999 SKC 32/15 A2978=
200801132000 METAR MRLB 132000Z 07013KT 9999 SKC 32/15 A2975=
200801132100 METAR MRLB 132100Z 07014KT 9999 SKC 32/16 A2974=
200801132200 METAR MRLB 132200Z 07014KT 9999 SKC 31/15 A2975=
200801132300 METAR MRLB 132300Z 07013KT 9999 SKC 30/15 A2976=
200801140000 METAR MRLB 140000Z 07009KT 9999 SKC 28/16 A2978=
200801140100 METAR MRLB 140100Z 08011KT 9999 SKC 27/16 A2980=
200801140200 METAR MRLB NIL=
200801140300 METAR MRLB NIL=
200801140400 METAR MRLB NIL=
200801140500 METAR MRLB NIL=
200801140600 METAR MRLB NIL=
200801140700 METAR MRLB NIL=
200801140800 METAR MRLB NIL=
200801140900 METAR MRLB NIL=
200801141000 METAR MRLB NIL=
200801141100 METAR MRLB NIL=
200801141200 METAR MRLB 141200Z 07007KT CAVOK 24/18 A2984 SCT250=
200801141300 METAR MRLB 141300Z 07008KT CAVOK 25/19 A2986 RMK SCT250=
200801141400 METAR MRLB 141400Z 08010KT CAVOK 28/18 A2988 RMK SCT250=
200801141500 METAR MRLB 141500Z 07018KT CAVOK 29/17 A2989 RMK FEW250=
200801141600 METAR MRLB 141600Z 06017KT CAVOK 31/16 A2987 RMK FEW260=
200801141700 METAR MRLB 141700Z 08012KT CAVOK 32/16 A2985 RMK FEW260=
200801141800 METAR MRLB 141800Z 08014KT CAVOK 32/15 A2982 RMK SCT260=
200801141900 METAR MRLB 141900Z 09012KT CAVOK 33/16 A2979 RMK FEW260=
200801142000 METAR MRLB 142000Z 07012KT CAVOK 32/17 A2978 RMK TRACE CU FEW260=
200801142100 METAR MRLB 142100Z 06015KT 9999 FEW035 SCT250 32/17 A2977=
200801142200 METAR MRLB 142200Z 07014KT 9999 FEW035 SCT260 31/18 A2977=
200801142300 METAR MRLB 142300Z 06017KT CAVOK 29/19 A2978 RMK SCT270=
200801150000 METAR MRLB 150000Z 07012KT CAVOK 27/19 A2980 RMK SCT250=
200801150100 METAR MRLB 150100Z 09013KT CAVOK 26/18 A2983 BKN250=
200801150200 METAR MRLB NIL=
200801150300 METAR MRLB NIL=
200801150400 METAR MRLB NIL=
200801150500 METAR MRLB NIL=
200801150600 METAR MRLB NIL=
200801150700 METAR MRLB NIL=
200801150800 METAR MRLB NIL=
200801150900 METAR MRLB NIL=
200801151000 METAR MRLB NIL=
200801151100 METAR MRLB NIL=
200801151200 METAR MRLB NIL=
200801151300 METAR MRLB 151300Z 00000KT CAVOK 22/19 A2985 RMK FEW200=
200801151400 METAR MRLB 151400Z 00000KT CAVOK 25/20 A2988 RMK FEW250=
200801151500 METAR MRLB 151500Z 06005KT CAVOK 27/20 A2989 RMK FEW220=
200801151600 METAR MRLB 151600Z 01006KT 9999 FEW030 SCT250 29/19 A2988=
200801151700 METAR MRLB 151700Z 08010KT 9999 SCT030 31/19 A2986=
200801151800 METAR MRLB 151800Z 11010KT 9999 SCT030 32/18 A2983=
200801151900 METAR MRLB 151900Z 07008KT 9999 SCT030 32/18 A2981=
200801152000 METAR MRLB 152000Z 08010KT 9999 FEW025 SCT040 32/18 A2977=
200801152100 METAR MRLB 152100Z 05010KT 9999 FEW030 32/19 A2975=
200801152200 METAR MRLB 152200Z 06008KT 9999 FEW030 32/19 A2975=
200801152300 METAR MRLB NIL=
200801160000 METAR MRLB 160000Z 08009KT CAVOK 27/19 A2979 RMK FEW150=
200801160200 METAR MRLB NIL=
200801160300 METAR MRLB NIL=
200801160400 METAR MRLB NIL=
200801160500 METAR MRLB NIL=
200801160700 METAR MRLB NIL=
200801160800 METAR MRLB NIL=
200801160900 METAR MRLB NIL=
200801161000 METAR MRLB NIL=
200801161100 METAR MRLB NIL=
200801161200 METAR MRLB 161200Z NIL=
200801161300 METAR MRLB 161300Z 00000KT CAVOK 23/20 A2984 BKN130=
200801161400 METAR MRLB 161400Z 00000KT CAVOK 26/21 A2985 SCT130=
200801161500 METAR MRLB 161500Z 00000KT 9999 NSC 28/21 A2985 RMK TRAZAS CU=
200801161600 METAR MRLB 161600Z 07010KT 9999 SCT040 30/29 A2982=
200801161700 METAR MRLB 161700Z 06010KT 9999 SCT040 32/20 A2980=
200801161800 METAR MRLB 161800Z 07008KT 9999 SCT040 32/20 A2978=
200801161900 METAR MRLB 161900Z 08010KT 9999 SCT040 32/20 A2975=
200801162000 METAR MRLB 162000Z 08008KT 9999 SCT040 33/20 A2973=
200801162100 METAR MRLB 162100Z 06012KT 9999 BKN030 32/21 A2973=
200801162200 METAR MRLB 162200Z 06013KT 9999 FEW040 32/21 A2973=
200801162300 METAR MRLB 162300Z 06013KT 9999 FEW040 32/21 A2973=
200801170000 METAR MRLB 170000Z 08007KT 9999 FEW040 BKN120 29/20 A2975=
200801170100 METAR MRLB NIL=
200801170200 METAR MRLB NIL=
200801170300 METAR MRLB NIL=
200801170400 METAR MRLB NIL=
200801170500 METAR MRLB NIL=
200801170600 METAR MRLB NIL=
200801170700 METAR MRLB NIL=
200801170800 METAR MRLB NIL=
200801170900 METAR MRLB NIL=
200801171000 METAR MRLB NIL=
200801171100 METAR MRLB NIL=
200801171200 METAR MRLB 171200Z 10005KT CAVOK 23/20 A2981 RMK SCT250=
200801171300 METAR MRLB 171300Z 14004KT CAVOK 25/20 A2983 SCT250=
200801171400 METAR MRLB 171400Z 08008KT CAVOK 28/20 A2986 SCT250=
200801171500 METAR MRLB NIL=
200801171600 METAR MRLB 171600Z 06005KT 9999 FEW035 32/20 A2987=
200801171700 METAR MRLB 171700Z 05014KT 9999 FEW035 32/19 A2985=
200801171800 METAR MRLB NIL=
200801171900 METAR MRLB 171900Z 06014KT 9999 SCT035 34/18 A2977=
200801172000 METAR MRLB 172000Z 06016KT 9999 SCT035 34/18 A2975=
200801172100 METAR MRLB 172100Z 06015KT 9999 FEW035 33/18 A2972=
200801172200 METAR MRLB 172200Z 07018KT 9999 FEW035 32/19 A2973=
200801172300 METAR MRLB 172300Z 08013KT CAVOK 31/19 A2974 RMK TRCE CU FEW250=
200801180000 METAR MRLB 180000Z 07013KT CAVOK 29/19 A2975 RMK TRACE CU SCT250=
200801180100 METAR MRLB NIL=
200801180200 METAR MRLB NIL=
200801180300 METAR MRLB NIL=
200801180400 METAR MRLB NIL=
200801180500 METAR MRLB NIL=
200801180600 METAR MRLB NIL=
200801180700 METAR MRLB NIL=
200801180800 METAR MRLB NIL=
200801180900 METAR MRLB NIL=
200801181000 METAR MRLB NIL=
200801181100 METAR MRLB NIL=
200801181200 METAR MRLB NIL=
200801181300 METAR MRLB 181300Z 14005KT CAVOK 25/19 A2983 RMK FEW250=
200801181400 METAR MRLB 181400Z 10008KT CAVOK 29/19 A2985 RMK FEW250=
200801181500 METAR MRLB 181500Z 08013KT CAVOK 31/19 A2986 RMK FEW250=
200801181600 METAR MRLB 181600Z 08010KT 9999 FEW030 32/19 A2986=
200801181700 METAR MRLB 181700Z 06014KT 9999 SCT030 32/19 A2984=
200801181800 METAR MRLB 181800Z 07015KT 9999 SCT030 32/19 A2982=
200801181900 METAR MRLB 181900Z 08013KT 9999 SCT035 31/20 A2978=
200801182000 METAR MRLB 182000Z 05012KT 9999 SCT030 32/19 A2975=
200801182100 METAR MRLB 182100Z 07012KT 9999 FEW035 32/19 A2974=
200801182200 METAR MRLB 182200Z 07011KT 9999 FEW040 32/19 A2974=
200801182300 METAR MRLB 182300Z 06014KT 9999 FEW040 30/19 A2975=
200801190000 METAR MRLB 190000Z 07012KT 9999 FEW045 28/19 A2976=
200801190100 METAR MRLB 190100Z 08012KT 9999 FEW045 27/20 A2979=
200801190200 METAR MRLB 190200Z 08012KT CAVOK 26/20 A2981 RMK FEW150=
200801190300 METAR MRLB NIL=
200801190400 METAR MRLB NIL=
200801190500 METAR MRLB NIL=
200801190600 METAR MRLB NIL=
200801190700 METAR MRLB NIL=
200801190800 METAR MRLB NIL=
200801190900 METAR MRLB NIL=
200801191000 METAR MRLB NIL=
200801191100 METAR MRLB NIL=
200801191200 METAR MRLB 191200Z 18002KT 9999 SKC 23/19 A2980=
200801191300 METAR MRLB 191300Z 01003KT 9999 SKC 21/19 A2983=
200801191400 METAR MRLB 191400Z 00000KT 9999 SKC 26/20 A2985=
200801191500 METAR MRLB 191500Z 25002KT CAVOK 29/20 A2986 RMK TRACE AC=
200801191600 METAR MRLB 191600Z 06006KT 9999 NSC 32/19 A2985 RMK TRACE CU=
200801191700 METAR MRLB 191700Z 11008KT 9999 FEW040 33/19 A2983=
200801191800 METAR MRLB 191800Z 09010KT 9999 FEW040 33/19 A2981=
200801191900 METAR MRLB 191900Z 09012KT 9999 FEW040 33/20 A2978=
200801192000 METAR MRLB 192000Z 09011KT 9999 SCT040 34/19 A2976=
200801192100 METAR MRLB 192100Z 08011KT 9999 FEW040 33/19 A2975=
200801192200 METAR MRLB 192200Z 09009KT 9999 FEW040 33/20 A2974=
200801192300 METAR MRLB 192300Z 11010KT 9999 NSC 31/20 A2974 RMK TRACE CU=
200801200000 METAR MRLB 200000Z 10007KT 9999 FEW045 29/20 A2976=
200801200100 METAR MRLB 200100Z 09008KT 9999 FEW045 28/19 A2978=
200801200200 METAR MRLB NIL=
200801200300 METAR MRLB NIL=
200801200400 METAR MRLB NIL=
200801200500 METAR MRLB NIL=
200801200600 METAR MRLB NIL=
200801200700 METAR MRLB NIL=
200801200800 METAR MRLB NIL=
200801200900 METAR MRLB NIL=
200801201000 METAR MRLB NIL=
200801201100 METAR MRLB NIL=
200801201200 METAR MRLB 201200Z 09004KT CAVOK 20/19 A2981 RMK SCT250=
200801201300 METAR MRLB 201300Z 08002KT CAVOK 23/20 A2984 RMK SCT250=
200801201400 METAR MRLB 201400Z 30004KT CAVOK 26/20 A2986 RMK FEW260=
200801201500 METAR MRLB 201500Z 27003KT CAVOK 29/20 A2987 RMK FEW260=
200801201600 METAR MRLB 201600Z 09007KT CAVOK 32/20 A2986 RMK FEW260=
200801201700 METAR MRLB 201700Z 07005KT CAVOK 33/19 A2983 RMK FEW260=
200801201800 METAR MRLB 201800Z 09010KT CAVOK 34/18 A2981 RMK FEW260=
200801201900 METAR MRLB 201900Z 10012KT CAVOK 35/18 A2978 RMK TRACE CU SCT260=
200801202000 METAR MRLB 202000Z 09013KT 9999 FEW035 SCT260 35/19 A2975=
200801202100 METAR MRLB 202100Z 09012KT 9999 FEW035 SCT260 34/20 A2974=
200801202200 METAR MRLB 202200Z 10011KT 9999 FEW040 SCT260 33/20 A2975=
200801202300 METAR MRLB 202300Z 07015KT 9999 FEW040 BKN260 29/20 A2977=
200801210000 METAR MRLB 21000Z 09012KT 9999 FEW040 BKN260 27/20 A2980=
200801210100 METAR MRLB 210100Z 09013KT 9999 FEW035 SCT250 26/20 A2983=
200801210200 METAR MRLB NIL=
200801210300 METAR MRLB NIL=
200801210400 METAR MRLB NIL=
200801210500 METAR MRLB NIL=
200801210600 METAR MRLB NIL=
200801210700 METAR MRLB NIL=
200801210800 METAR MRLB NIL=
200801210900 METAR MRLB NIL=
200801211000 METAR MRLB NIL=
200801211100 METAR MRLB NIL=
200801211200 METAR MRLB NIL=
200801211230 METAR MRLB 211230Z 09010KT 9999 FEW045 25/20 A2986=
200801211300 METAR MRLB 211300Z 09014KT 9999 SCT045 27/20 A2986=
200801211400 METAR MRLB 211400Z 08012G24KT 9999 FEW040 28/20 A2989=
200801211500 METAR MRLB 211500Z 07020G30KT 9999 SCT035 30/20 A2990=
200801211600 METAR MRLB 211600Z 06018KT 9999 FEW035 31/20 A2989=
200801211700 METAR MRLB 211700Z 06018KT 9999 SCT035 32/20 A2987=
200801211800 METAR MRLB NIL=
200801211900 METAR MRLB 211900Z 08018KT 9999 SCT030 32/19 A2982=
200801212000 METAR MRLB 212000Z 07020KT 9999 FEW030 32/19 A2978=
200801212100 METAR MRLB 212100Z 08021KT 9999 FEW030 32/18 A2977=
200801212200 METAR MRLB 212200Z 08018KT CAVOK 31/19 A2977 FEW120=
200801212300 METAR MRLB 212300Z 07018KT CAVOK 29/19 A2978 FEW250=
200801220000 METAR MRLB 220000Z 09014KT CAVOK 28/19 A2980 FEW250=
200801220100 METAR MRLB 220100Z 08015KT CAVOK 26/19 A2982 SCT250=
200801220200 METAR MRLB NIL=
200801220300 METAR MRLB NIL=
200801220400 METAR MRLB NIL=
200801220500 METAR MRLB NIL=
200801220600 METAR MRLB NIL=
200801220700 METAR MRLB NIL=
200801220800 METAR MRLB NIL=
200801220900 METAR MRLB NIL=
200801221000 METAR MRLB NIL=
200801221100 METAR MRLB NIL=
200801221200 METAR MRLB 221200Z 08012KT 9999 NSC 25/17 A2984 RMK TRACE CU=
200801221300 METAR MRLB 221300Z 08015KT CAVOK 26/18 A2986 FEW250=
200801221400 METAR MRLB 221400Z 08015KT CAVOK 26/18 A2986 FEW250=
200801221500 METAR MRLB 221500Z 10016KT CAVOK 30/17 A2987 FEW250=
200801221600 METAR MRLB 221600Z 08016KT CAVOK 31/17 A2987 FEW250=
200801221700 METAR MRLB 221700Z 08019KT CAVOK 31/17 A2986 BKN250=
200801221800 METAR MRLB NIL=
200801221900 METAR MRLB 221900Z 08017KT CAVOK 33/17 A2981 BKN250=
200801222000 METAR MRLB 222000Z 08019KT 9999 FEW040 SCT250 32/18 A2979=
200801222100 METAR MRLB 222100Z 08018KT 9999 FEW040 SCT300 31/18 A2978=
200801222200 METAR MRLB 222200Z 09016KT 9999 FEW040 SCT030 31/17 A2976=
200801222300 METAR MRLB 222300Z 08015KT CAVOK 29/18 A2978 RMK BKN300=
200801230000 METAR MRLB 230000Z 10019KT CAVOK 28/18 A2977 RMK BKN300=
200801230100 METAR MRLB 230100Z 11018KT CAVOK 27/17 A2978 RMK BKN300=
200801230200 METAR MRLB NIL=
200801230300 METAR MRLB NIL=
200801230400 METAR MRLB NIL=
200801230500 METAR MRLB NIL=
200801230600 METAR MRLB NIL=
200801230700 METAR MRLB NIL=
200801230800 METAR MRLB NIL=
200801230900 METAR MRLB NIL=
200801231000 METAR MRLB NIL=
200801231100 METAR MRLB NIL=
200801231200 METAR MRLB 231200Z 10002KT CAVOK 20/18 A2981 BKN250=
200801231300 METAR MRLB 231300Z 06008KT CAVOK 23/18 A2983 RMK SCT250=
200801231400 METAR MRLB 231400Z 08003KT CAVOK 28/17 A2985 RMK SCT260=
200801231500 METAR MRLB 231500Z 09017KT CAVOK 30/17 A2985 RMK SCT260=
200801231600 METAR MRLB 231600Z 09018KT CAVOK 31/17 A2985 RMK FEW260 TRACE CU=
200801231700 METAR MRLB 231700Z 09018KT CAVOK 32/17 A2984 RMK FEW260=
200801231800 METAR MRLB 231800Z 08019KT CAVOK 32/17 A2981 RMK TRACE CU FEW260=
200801231900 METAR MRLB 231900Z 10020KT CAVOK 33/19 A2977 RMK FEW250 TRACE CU=
200801232000 METAR MRLB 232000Z 10017KT 9999 FEW035 SCT260 32/19 A2975=
200801232100 METAR MRLB 232100Z 10010KT 9999 FEW040 SCT260 33/18 A2972=
200801232200 METAR MRLB 232200Z 09017KT 9999 FEW040 SCT260 32/17 A2973=
200801232300 METAR MRLB 232300Z 10014KT 9999 FEW040 BKN260 31/17 A2974=
200801240000 METAR MRLB 240000Z 10015KT 9999 FEW035 BKN250 28/20 A2976=
200801240100 METAR MRLB 240100Z 10019KT 9999 FEW035 BKN250 27/19 A2979=
200801240200 METAR MRLB NIL=
200801240300 METAR MRLB NIL=
200801240400 METAR MRLB NIL=
200801240500 METAR MRLB NIL=
200801240600 METAR MRLB NIL=
200801240700 METAR MRLB NIL=
200801240800 METAR MRLB NIL=
200801240900 METAR MRLB NIL=
200801241000 METAR MRLB NIL=
200801241100 METAR MRLB NIL=
200801241200 METAR MRLB NIL=
200801241300 METAR MRLB 241300Z 09018KT 9999 FEW030 26/19 A2981=
200801241400 METAR MRLB 241400Z 09020KT 9999 FEW035 27/19 A2983=
200801241500 METAR MRLB 241500Z 09016G26KT 9999 FEW035 29/19 A2985=
200801241600 METAR MRLB 241600Z 10023G33KT 9999 FEW035 30/19 A2983=
200801241700 METAR MRLB 241700Z 10022KT 9999 FEW030 31/19 A2982=
200801241800 METAR MRLB 241800Z 09020KT 9999 FEW030 32/18 A2981=
200801241900 METAR MRLB 241900Z 09018KT 9999 FEW030 32/19 A2979=
200801242000 METAR MRLB 242000Z 09022KT 9999 FEW030 32/19 A2976=
200801242100 METAR MRLB 242100Z 10022G32 9999 FEW025 31/19 A2976=
200801242200 METAR MRLB 242200Z 09017G27KT 9999 FEW030 30/19 A2977=
200801242300 METAR MRLB 242300Z 09018KT CAVOK 29/17 A2979 RMK FEW080=
200801250000 METAR MRLB 250000Z 10018KT CAVOK 27/18 A2980 RMK SCT250=
200801250100 METAR MRLB 250100Z 08014KT CAVOK 26/19 A2982 RMK FEW250=
200801250200 METAR MRLB NIL=
200801250300 METAR MRLB NIL=
200801250400 METAR MRLB NIL=
200801250500 METAR MRLB NIL=
200801250600 METAR MRLB NIL=
200801250700 METAR MRLB NIL=
200801250800 METAR MRLB NIL=
200801250900 METAR MRLB NIL=
200801251000 METAR MRLB NIL=
200801251100 METAR MRLB NIL=
200801251200 METAR MRLB 251200Z 08015KT 9999 NSC 25/19 A2981 TRACE CU=
200801251300 METAR MRLB 251300Z 09010KT 9999 NSC 26/19 A2990 RMK TRACE CU=
200801251400 METAR MRLB 251400Z 08014KT 9999 FEW040 27/20 A2992=
200801251500 METAR MRLB 251500Z 08015KT 9999 SCT035 29/19 A2993 RMK RN DST N NE=
200801251600 METAR MRLB 251600Z 08020KT 9999 SCT035 27/20 A2993 RMK RN DST N NE VL MX VTO 28KT=
200801251700 METAR MRLB 251700Z 07019KT 9999 FEW040 29/19 A2991 RMK RN DST NE VL MX VTO 25KT=
200801251800 METAR MRLB 251800Z 07021KT 9999 SCT040 30/19 A2988 RMK VL VTO MX 27KT=
200801251900 METAR MRLB 251900Z 09015KT 9999 SCT040 31/19 A2986 RMK RN DST N NE=
200801252000 METAR MRLB 252000Z 07015KT 9999 BKN040 31/19 A2984=
200801252100 METAR MRLB 252100Z 07019KT 9999 SCT040 31/19 A2982=
200801252200 METAR MRLB 252200Z 06019KT 9999 SCT035 30/19 A2983 RMK RN DST E VIENTO MAXIMO 26NUDOS=
200801252300 METAR MRLB 252300Z 10012KT 9999 BKN035 30/19 A2985=
200801260000 METAR MRLB 260000Z 05008KT 9999 FEW040 27/19 A2986=
200801260100 METAR MRLB 260100Z 08006KT 9999 FEW040 25/19 A2989=
200801260200 METAR MRLB NIL=
200801260300 METAR MRLB NIL=
200801260400 METAR MRLB NIL=
200801260500 METAR MRLB NIL=
200801260600 METAR MRLB NIL=
200801260700 METAR MRLB NIL=
200801260800 METAR MRLB NIL=
200801260900 METAR MRLB NIL=
200801261000 METAR MRLB NIL=
200801261100 METAR MRLB NIL=
200801261200 METAR MRLB 261200Z 08003KT 9999 SCT035 BKN250 23/19 A2990=
200801261300 METAR MRLB 261300Z 09005KT 9999 SCT035 SCT250 25/19 A2992=
200801261400 METAR MRLB 261400Z 08012KT 9999 SCT035 27/18 A2994=
200801261500 METAR MRLB 261500Z 07010KT 9999 SCT035 29/18 A2997=
200801261600 METAR MRLB 261600Z 06013KT 9999 SCT035 30/18 A2993=
200801261700 METAR MRLB 261700Z 07016KT 9999 FEW035 31/18 A2991=
200801261800 METAR MRLB 261800Z 06021KT 9999 FEW035 32/16 A2989=
200801261900 METAR MRLB 261900Z 06019KT 9999 FEW040 33/16 A2986=
200801262000 METAR MRLB 262000Z 05020KT 9999 FEW040 32/17 A2983=
200801262100 METAR MRLB 262100Z 06016KT 9999 FEW040 32/17 A2983=
200801262200 METAR MRLB 262200Z 06020KT 9999 FEW040 31/17 A2984=
200801262300 METAR MRLB 262300Z 07015KT 9999 FEW040 29/17 A2985=
200801270000 METAR MRLB 270000Z 07018KT CAVOK 27/16 A2985 RMK TRACE CU SCT250=
200801270100 METAR MRLB 270100Z 07014KT CAVOK 26/17 A2988=
200801270200 METAR MRLB 270200Z 07012KT CAVOK 26/17 A2991=
200801270300 METAR MRLB NIL=
200801270400 METAR MRLB NIL=
200801270500 METAR MRLB NIL=
200801270600 METAR MRLB NIL=
200801270700 METAR MRLB NIL=
200801270800 METAR MRLB NIL=
200801270900 METAR MRLB NIL=
200801271000 METAR MRLB NIL=
200801271100 METAR MRLB NIL=
200801271200 METAR MRLB 271200Z 07015KT 9999 SCT035 26/18 A2989 RMK RFGS 25KT=
200801271300 METAR MRLB 271300Z 08018KT 9999 FEW030 27/19 A2990=
200801271400 METAR MRLB 271400Z 08020KT 9999 FEW025 28/19 A2992=
200801271500 METAR MRLB 271500Z 07018KT 9999 SCT030 30/18 A2995=
200801271600 METAR MRLB 271600Z 08018KT 9999 SCT030 30/19 A2993=
200801271700 METAR MRLB 271700Z 07020KT 9999 SCT030 31/18 A2992=
200801271800 METAR MRLB 271800Z 08018G28KT 9999 SCT035 31/18 A2990=
200801271900 METAR MRLB 271900Z 07020KT 9999 FEW035 32/18 A2987=
200801272000 METAR MRLB 272000Z 07020KT 9999 SCT035 32/19 A2984=
200801272100 METAR MRLB 272100Z 06020KT 9999 FEW030 31/19 A2983=
200801272200 METAR MRLB 272200Z 08018KT 9999 FEW035 31/18 A2983=
200801272300 METAR MRLB 272300Z 06020KT CAVOK 30/16 A2985 RMK FEW100=
200801280000 METAR MRLB 280000Z 06020KT CAVOK 28/17 A2986 RMK SCT250=
200801280100 METAR MRLB 280100Z 06018KT CAVOK 27/18 A2998 RMK FEW250=
200801280200 METAR MRLB NIL=
200801280300 METAR MRLB NIL=
200801280400 METAR MRLB NIL=
200801280500 METAR MRLB NIL=
200801280600 METAR MRLB NIL=
200801280700 METAR MRLB NIL=
200801280800 METAR MRLB NIL=
200801280900 METAR MRLB NIL=
200801281000 METAR MRLB NIL=
200801281100 METAR MRLB NIL=
200801281200 METAR MRLB 281200Z 08017KT 9999 FEW040 26/17 A2984=
200801281300 METAR MRLB 281300Z 11014KT 9999 FEW040 26/18 A2987=
200801281400 METAR MRLB 281400Z 08015KT 9999 FEW040 28/19 A2991=
200801281500 METAR MRLB 281500Z 06015KT 9999 SCT040 29/19 A2995 RMK GUST 23KT=
200801281600 METAR MRLB 281600Z 07015KT 9999 BKN040 28/20 A2995 RMK RN DST N NE=
200801281700 METAR MRLB 281700Z 06019KT 9999 BKN040 30/19 A2994 RMK RN DST N NE=
200801281800 METAR MRLB 281800Z 05016KT 9999 FEW040 31/19 A2991=
200801281900 METAR MRLB 281900Z 06015KT 9999 SCT040 32/18 A2986=
200801282000 METAR MRLB 282000Z 06016KT 9999 SCT040 32/18 A2983=
200801282100 METAR MRLB 282100Z 08013KT 9999 SCT040 32/18 A2981=
200801282200 METAR MRLB 282200Z 04016KT 9999 FEW040 31/19 A2981=
200801282300 METAR MRLB 282300Z 05018KT 9999 FEW040 29/19 A2983 RMK MX VEL VTO 23KT=
200801290000 METAR MRLB 290000Z 06015KT 9999 FEW040 27/19 A2985=
200801290100 METAR MRLB 290100Z 05015KT 9999 FEW040 27/19 A2987=
200801290200 METAR MRLB NIL=
200801290300 METAR MRLB NIL=
200801290400 METAR MRLB NIL=
200801290500 METAR MRLB NIL=
200801290600 METAR MRLB NIL=
200801290700 METAR MRLB NIL=
200801290800 METAR MRLB NIL=
200801290900 METAR MRLB NIL=
200801291000 METAR MRLB NIL=
200801291100 METAR MRLB NIL=
200801291200 METAR MRLB 291200Z 06006KT CAVOK 22/18 A2987 SCT250=
200801291300 METAR MRLB 291300Z 07002KT CAVOK 24/19 A2988 RMK FEW250=
200801291400 METAR MRLB 291400Z 09006KT CAVOK 28/19 A2991 RMK FEW250=
200801291500 METAR MRLB 291500Z 08009KT CAVOK 30/18 A2992 RMK FEW250=
200801291600 METAR MRLB 291600Z 06012KT CAVOK 31/18 A2992 RMK TRACE CU FEW250=
200801291700 METAR MRLB 291700Z 08008KT 9999 FEW035 32/18 A2990 RMK TRACE CI=
200801291800 METAR MRLB 291800Z 07009KT 9999 FEW035 33/17 A2988=
200801291900 METAR MRLB 291900Z 06011KT 9999 FEW040 33/17 A2985=
200801292000 METAR MRLB 292000Z 09009KT 9999 FEW040 32/17 A2981=
200801292100 METAR MRLB 292100Z 08011KT 9999 FEW040 33/18 A2980=
200801292200 METAR MRLB 292200Z 07012KT 9999 FEW040 SCT250 32/18 A2980=
200801292300 METAR MRLB 292300Z 08009KT 9999 FEW035 SCT250 31/16 A2981=
200801300000 METAR MRLB 300000Z 300000X 07007KT CAVOK 28/19 A2983 RMK SCT250=
200801300100 METAR MRLB 300100Z 07008KT CAVOK 27/18 A2985 RMK SCT250=
200801300200 METAR MRLB NIL=
200801300300 METAR MRLB NIL=
200801300400 METAR MRLB NIL=
200801300500 METAR MRLB NIL=
200801300600 METAR MRLB NIL=
200801300700 METAR MRLB NIL=
200801300800 METAR MRLB NIL=
200801300900 METAR MRLB NIL=
200801301000 METAR MRLB NIL=
200801301100 METAR MRLB NIL=
200801301200 METAR MRLB 301200Z NIL=
200801301300 METAR MRLB 301300Z 00000KT CAVOK 20/18 A291 RMK FEW250=
200801301400 METAR MRLB 301400Z 00000KT CAVOK 25/19 A2993 RMK FEW250=
200801301500 METAR MRLB 301500Z 06008KT CAVOK 30/19 A2993 RMK FEW250=
200801301600 METAR MRLB 301600Z 10012KT CAVOK 31/18 A2993 RMK FEW250=
200801301700 METAR MRLB 301700Z 10010KT CAVOK 32/17 A2991 RMK FEW250=
200801301800 METAR MRLB 301800Z 08008KT 9999 FEW035 32/17 A2988=
200801301900 METAR MRLB 301900Z 07010KT 9999 FEW035 33/16 A2985=
200801302000 METAR MRLB 302000Z 08010KT 9999 FEW035 34/15 A2981=
200801302100 METAR MRLB 302100Z 06009KT 9999 FEW030 33/15 A2980=
200801302200 METAR MRLB 302200Z 06010KT 9999 FEW040 33/15 A2979 RMK TCU DST ARND=
200801302300 METAR MRLB 302300Z 07010KT CAVOK 31/15 A2980 RMK FU PISTA 07 FEW250=
200801310000 METAR MRLB 310000Z 08011KT CAVOK 28/17 A2981=
200801310100 METAR MRLB 310100Z 07010KT CAVOK 27/18 A2983 RMK FEW250=
200801310200 METAR MRLB NIL=
200801310300 METAR MRLB NIL=
200801310400 METAR MRLB NIL=
200801310500 METAR MRLB NIL=
200801310600 METAR MRLB NIL=
200801310700 METAR MRLB NIL=
200801310800 METAR MRLB NIL=
200801310900 METAR MRLB NIL=
200801311000 METAR MRLB NIL=
200801311100 METAR MRLB NIL=
200801311200 METAR MRLB 311200Z 09009KT 9999 FEW040 34/13 A2984=
200801311300 METAR MRLB 311300Z 04003KT 9999 SKC 20/18 A2991=
200801311400 METAR MRLB 311400Z 00000KT 9999 SKC 25/18 A2994=
200801311500 METAR MRLB 311500Z 26002KT 9999 SKC 28/19 A2996=
200801311600 METAR MRLB 311600Z 09006KT 9999 FEW040 31/17 A2996=
200801311700 METAR MRLB 311700Z 09005KT 9999 FEW040 32/18 A2996=
200801311800 METAR MRLB NIL=
200801311900 METAR MRLB 311900Z 10007KT 9999 SCT040 33/15 A2987=
200801312000 METAR MRLB NIL=
200801312100 METAR MRLB 312100Z 05012KT 9999 FEW040 33/15 A2983=
200801312200 METAR MRLB 312200Z 06010KT 9999 FEW040 33/13 A2983=
200801312300 METAR MRLB 312300Z 05013KT 9999 FEW040 31/14 A2984=
200801312352 METAR MRLB 010000Z 07011KT 9999 NSC 29/16 A2985 RMK TRACE SC CI=
200802010000 METAR MRLB 010000Z 07011KT 9999 NSC 29/16 A2985 RMK TRACE SC CI=
200802010100 METAR MRLB 010100Z 07007KT 9999 SKC 27/16 A2998=
200802010200 METAR MRLB NIL=
200802010300 METAR MRLB NIL=
200802010400 METAR MRLB NIL=
200802010500 METAR MRLB NIL=
200802010600 METAR MRLB NIL=
200802010700 METAR MRLB NIL=
200802010800 METAR MRLB NIL=
200802010900 METAR MRLB NIL=
200802011000 METAR MRLB NIL=
200802011100 METAR MRLB NIL=
200802011200 METAR MRLB 011200Z 32003KT CAVOK 18/16 A2994 RMK BKN250=
200802011300 METAR MRLB 011300Z 06003KT 9999 FEW035 BKN250 21/18 A2996=
200802011400 METAR MRLB 011400Z 20004KT 9999 FEW035 SCT250 26/19 A2997=
200802011500 METAR MRLB 011500Z 07015KT 9999 FEW035 BKN250 29/19 A2998=
200802011600 METAR MRLB 011600Z 08011KT 9999 FEW035 SCT250 31/18 A2998=
200802011700 METAR MRLB 011700Z 08015KT 9999 FEW035 SCT250 32/18 A2996=
200802011800 METAR MRLB 011800Z 07019KT 9999 SCT035 SCT250 32/18 A2993=
200802011900 METAR MRLB 011900Z 08013KT 9999 SCT035 33/18 A2990=
200802012000 METAR MRLB 012000Z 06022KT 9999 SCT035 33/19 A2987=
200802012100 METAR MRLB 012100Z 07017KT 9999 SCT040 32/18 A2985=
200802012200 METAR MRLB 012200Z 06018KT 9999 SCT040 SCT250 31/17 A2986=
200802012300 METAR MRLB 012300Z 06019KT 9999 FEW040 BKN250 28/19 A2987=
200802020000 METAR MRLB 020000Z 08015KT 9999 FEW035 BKN250 27/18 A2988=
200802020100 METAR MRLB 020100Z 08020KT 9999 FEW035 BKN250 27/18 A2990=
200802020200 METAR MRLB 020200Z 08015KT 9999 FEW035 SCT250 25/18 A2993=
200802020300 METAR MRLB NIL=
200802020400 METAR MRLB NIL=
200802020500 METAR MRLB NIL=
200802020600 METAR MRLB NIL=
200802020700 METAR MRLB NIL=
200802020800 METAR MRLB NIL=
200802020900 METAR MRLB NIL=
200802021000 METAR MRLB NIL=
200802021100 METAR MRLB NIL=
200802021200 METAR MRLB NIL=
200802021300 METAR MRLB 021300Z 10015KT CAVOK 26/16 A2993 RMK SCT250=
200802021400 METAR MRLB 021400Z 08016KT CAVOK 28/17 A2995 RMK FEW250=
200802021500 METAR MRLB 021500Z 08020KT CAVOK 29/16 A2996 RMK FEW250=
200802021600 METAR MRLB 021600Z 08018G28KT CAVOK 30/15 A2996 RMK FEW250=
200802021700 METAR MRLB 021700Z 09020KT CAVOK 31/14 A2994 RMK FEW250=
200802021800 METAR MRLB 021800Z 09018KT CAVOK 32/15 A2993 RMK FEW250=
200802021900 METAR MRLB 021900Z 07018KT CAVOK 33/15 A2990 RMK FEW250=
200802022000 METAR MRLB 022000Z 08015KT 9999 FEW035 33/15 A2983=
200802022100 METAR MRLB 022100Z 08015KT 9999 FEW035 33/14 2986=
200802022200 METAR MRLB 022200Z 08014KT CAVOK 32/15 A2986 RMK FEW250=
200802022300 METAR MRLB 022300Z 07015KT CAVOK 29/16 A2987 RMK FEW250=
200802030000 METAR MRLB 030000Z 07010KT CAVOK 27/17 A2988 RMK SCT250=
200802030100 METAR MRLB 030100Z 08010KT CAVOK 26/18 A2990 RMK SCT250=
200802030200 METAR MRLB NIL=
200802030300 METAR MRLB NIL=
200802030400 METAR MRLB NIL=
200802030500 METAR MRLB NIL=
200802030600 METAR MRLB NIL=
200802030700 METAR MRLB NIL=
200802030800 METAR MRLB NIL=
200802030900 METAR MRLB NIL=
200802031000 METAR MRLB NIL=
200802031100 METAR MRLB NIL=
200802031200 METAR MRLB 031200Z 27003KT 9999 SKC 16/15 A2992=
200802031300 METAR MRLB 031300Z 05003KT 9999 SKC 18/16 A2994=
200802031400 METAR MRLB 031400Z 36002KT 9999 24/17 A2996=
200802031500 METAR MRLB 031500Z 05003KT 9999 SKC 29/17 A2997=
200802031600 METAR MRLB 031600Z 07015KT 9999 SKC 31/16 A2996=
200802031700 METAR MRLB 031700Z 09013KT 9999 NSC 32/16 A2994 RMK TRACE CU=
200802031800 METAR MRLB 031800Z 09013KT 9999 NSC 33/16 A2992 RMK TRACE CU=
200802031900 METAR MRLB 031900Z 08012KT 9999 FEW040 33/17 A2989=
200802032000 METAR MRLB 032000Z 09014KT 9999 FEW040 33/17 A2985=
200802032100 METAR MRLB 032100Z 07015KT 9999 FEW040 33/17 A2983=
200802032200 METAR MRLB 032200Z 06018KT 9999 FEW045 31/17 A2983=
200802032300 METAR MRLB 032300Z 07016KT 9999 FEW045 30/16 A2984=
200802040000 METAR MRLB 040000Z 09015KT 9999 FEW045 28/16 A2985=
200802040100 METAR MRLB 040100Z 09016KT 9999 FEW045 27/16 A2985=
200802040200 METAR MRLB NIL=
200802040300 METAR MRLB NIL=
200802040400 METAR MRLB NIL=
200802040500 METAR MRLB NIL=
200802040600 METAR MRLB NIL=
200802040700 METAR MRLB NIL=
200802040800 METAR MRLB NIL=
200802040900 METAR MRLB NIL=
200802041000 METAR MRLB NIL=
200802041100 METAR MRLB NIL=
200802041200 METAR MRLB 041200Z 10004KT CAVOK 24/16 A2990 RMK FEW250=
200802041300 METAR MRLB 041300Z 08005KT CAVOK 25/17 A2991 RMK FEW250=
200802041400 METAR MRLB 041400Z 07010KT 9999 FEW035 SCT250 28/17 A2993=
200802041500 METAR MRLB 041500Z 06013KT 9999 FEW035 SCT250 30/17 A2994=
200802041600 METAR MRLB 041600Z 07014KT 9999 FEW035 SCT250 30/16 A2993=
200802041700 METAR MRLB 041700Z 08013KT 9999 FEW035 32/17 A2990 RMK TRACE CI=
200802041800 METAR MRLB 041800Z 06014KT 9999 FEW035 33/16 A2988=
200802041900 METAR MRLB 041900Z 08015KT 9999 FEW040 34/16 A2984=
200802042000 METAR MRLB 042000Z 07017KT 9999 SCT040 33/16 A2981=
200802042100 METAR MRLB 042100Z 07015KT 9999 FEW040 34/15 A2979=
200802042200 METAR MRLB 042200Z 06013KT 9999 FEW040 33/17 A2979=
200802042300 METAR MRLB 042300Z 06012KT 9999 FEW040 31/17 A2981=
200802050000 METAR MRLB 050000Z 06010KT CAVOK 29/18 A2982 RMK SCT250=
200802050100 METAR MRLB 050100Z 06011KT CAVOK 27/15 A2985 RMK SCT250 TRACE CU=
200802050200 METAR MRLB NIL=
200802050300 METAR MRLB NIL=
200802050400 METAR MRLB NIL=
200802050500 METAR MRLB NIL=
200802050600 METAR MRLB NIL=
200802050700 METAR MRLB NIL=
200802050800 METAR MRLB NIL=
200802050900 METAR MRLB NIL=
200802051000 METAR MRLB NIL=
200802051100 METAR MRLB NIL=
200802051200 METAR MRLB NIL=
200802051300 METAR MRLB 051300Z 00000KT CAVOK 22/18 A2992 RMK FEW250=
200802051400 METAR MRLB 051400Z 00000KT CAVOK 26/18 A2993 RMK FEW250=
200802051500 METAR MRLB 051500Z 10010KT CAVOK 30/18 A2994 FEW250=
200802051600 METAR MRLB 051600Z 08010KT CAVOK 3/17 A2994 RMK FEW250=
200802051700 METAR MRLB 051700Z 08010KT CAVOK 33/16 A2992=
200802051800 METAR MRLB 051800Z 13008KT 9999 FEW035 34/16 A2988=
200802051900 METAR MRLB 051900Z 13013KT 9999 FEW030 35/14 A2985=
200802052000 METAR MRLB 052000Z 30011KT 9999 SCT025 33/19 A2982=
200802052100 METAR MRLB 052100Z 28010KT 9999 FEW035 32/17 A2981=
200802052200 METAR MRLB 052200Z 26010KT CAVOK 31/17 A2981 FEW250=
200802052300 METAR MRLB 052300Z 28008KT CAVOK 29/18 A2983 FEW100=
200802060000 METAR MRLB 060000Z 29004KT CAVOK 27/19 A2984 FEW100=
200802060100 METAR MRLB 060100Z 30004KT CAVOK 26/19 A2986 FEW100=
200802060200 METAR MRLB NIL=
200802060300 METAR MRLB NIL=
200802060400 METAR MRLB NIL=
200802060600 METAR MRLB NIL=
200802060700 METAR MRLB NIL=
200802060800 METAR MRLB NIL=
200802060900 METAR MRLB NIL=
200802061000 METAR MRLB NIL=
200802061100 METAR MRLB NIL=
200802061200 METAR MRLB 061200Z 05004KT 9999 SKC 19/18 A2990=
200802061300 METAR MRLB 061300Z 00000KT 9999 NSC 20/19 A2991 TRAZAS SCT=
200802061400 METAR MRLB 061400Z 35003KT 9999 NSC 25/20 A2994 TRAZAS SCT=
200802061500 METAR MRLB 061500Z 31004KT 9999 NSC 28/20 A2995 TRAZAS CU=
200802061600 METAR MRLB 061600Z 32006KT 9999 NSC 31/19 A2994 TRAZAS CU=
200802061700 METAR MRLB 061700Z 22003KT 9999 FEW040 32/17 A2992=
200802061800 METAR MRLB 061800Z 30007KT 9999 FEW040 33/19 A2989=
200802061900 METAR MRLB 061900Z 27012KT 999 FEW040 32/20 A2986=
200802062000 METAR MRLB 062000Z 28012KT 9999 FEW040 32/19 A2984=
200802062100 METAR MRLB 062100Z 28011KT 9999 FEW040 32/18 A2982=
200802062200 METAR MRLB 062200Z 27008KT 9999 FEW040 31/21 A2981=
200802062300 METAR MRLB 062300Z 29008KT 9999 FEW040 31/21 A2982=
200802070000 METAR MRLB 070000Z 26006KT NSC 28/21 A2984 RMK TRACE CU=
200802070100 METAR MRLB 070100Z 26004KT 9999 NSC 27/22 A2985 RMK TRACE CU=
200802070200 METAR MRLB NIL=
200802070300 METAR MRLB NIL=
200802070400 METAR MRLB NIL=
200802070500 METAR MRLB NIL=
200802070600 METAR MRLB NIL=
200802070700 METAR MRLB NIL=
200802070800 METAR MRLB NIL=
200802070900 METAR MRLB NIL=
200802071000 METAR MRLB NIL=
200802071100 METAR MRLB NIL=
200802071200 METAR MRLB 071200Z 04004KT CAVOK 19/18 A2987=
200802071300 METAR MRLB 071300Z 09002KT CAVOK 22/20 A2989 RMK FEW250=
200802071400 METAR MRLB 071400Z 03003KT CAVOK 25/20 A2991 RMK FEW250 HZ ARND=
200802071500 METAR MRLB 071500Z 28004KT CAVOK 28/21 A2992 RMK FEW260 HZ ARND=
200802071600 METAR MRLB 071600Z 21004KT CAVOK 31/20 A2990 RMK SCT260=
200802071700 METAR MRLB 071700Z 09010KT CAVOK 33/18 A2987 RMK TRACE CU SCT260=
200802071800 METAR MRLB 071800Z 09011KT 9999 FEW035 SCT250 34/18 A2984=
200802071900 METAR MRLB 071900Z 10010KT 9999 FEW035 SCT250 35/18 A2981=
200802072000 METAR MRLB 072000Z 08009KT 9999 FEW035 BKN250 34/18 A2978=
200802072100 METAR MRLB 072100Z 09010KT 9999 FEW035 BKN250 34/18 A2976=
200802072200 METAR MRLB 072200Z 08012KT 9999 FEW035 SCT250 34/18 A2976=
200802072300 METAR MRLB 072300Z 07013KT 9999 FEW035 SCT250 32/18 A2978=
200802080000 METAR MRLB 080000Z 08011KT 9999 FEW035 BKN250 30/19 A2980=
200802080100 METAR MRLB 080100Z 08010KT 9999 FEW035 SCT250 29/20 A2981=
200802080200 METAR MRLB 080200Z 08010KT 9999 FEW035 BKN250 27/20 A2983=
200802080300 METAR MRLB NIL=
200802080400 METAR MRLB NIL=
200802080500 METAR MRLB NIL=
200802080600 METAR MRLB NIL=
200802080700 METAR MRLB NIL=
200802080800 METAR MRLB NIL=
200802080900 METAR MRLB NIL=
200802081000 METAR MRLB NIL=
200802081100 METAR MRLB NIL=
200802081200 METAR MRLB NIL=
200802081300 METAR MRLB 081300Z 00000KT CAVOK 22/19 A2983 RMK SCT100=
200802081400 METAR MRLB 081400Z 00000KT CAVOK 27/20 A2985 RMK SCT250=
200802081500 METAR MRLB 081500Z 08008KT CAVOK 31/20 A2985 RMK SCT180=
200802081600 METAR MRLB 081600Z 07020KT CAVOK 31/19 A2984 RMK SCT180=
200802081700 METAR MRLB 081700Z 08022KT CAVOK 33/18 A2984 RMK SCT180=
200802081800 METAR MRLB 081800Z 07018G28 CAVOK 34/18 A2980 RMK SCT200=
200802081900 METAR MRLB 081900Z 07018KT CAVOK 34/18 A2978 RMK FEW100 SCT250=
200802082000 METAR MRLB 082000Z 07020KT CAVOK 34/18 A2976 RMK SCT250=
200802082100 METAR MRLB 082100Z 07018KT CAVOK 34/17 A2974 RMK SCT200=
200802082200 METAR MRLB 082200Z 06018KT CAVOK 33/16 A2975 RMK SCT250=
200802082300 METAR MRLB 082300Z 07018KT CAVOK 31/18 A2976 RMK SCT250=
200802090000 METAR MRLB 090000Z 08018KT CAVOK 29/18 A2978 RMK SCT250=
200802090100 METAR MRLB 090100Z 07015KT CAVOK 28/19 A2980 RMK FEW250=
200802090200 METAR MRLB NIL=
200802090300 METAR MRLB NIL=
200802090400 METAR MRLB NIL=
200802090500 METAR MRLB NIL=
200802090600 METAR MRLB NIL=
200802090700 METAR MRLB NIL=
200802090800 METAR MRLB NIL=
200802090900 METAR MRLB NIL=
200802091000 METAR MRLB NIL=
200802091100 METAR MRLB NIL=
200802091200 METAR MRLB 091200Z 12003KT 9999 SKC 21/18 A2981=
200802091300 METAR MRLB 091300Z 01004KT 9999 NSC 20/18 A2983 RMK TRACE CU=
200802091400 METAR MRLB 091400Z 29004KT 9999 NSC 27/19 A2984 RMK TRACE CU=
200802091500 METAR MRLB 091500Z 33005KT CAVOK 29/19 A2985 RMK FEW300=
200802091600 METAR MRLB 091600Z NIL=
200802091700 METAR MRLB 091700Z 08020KT 9999 FEW040 SCT300 34/17 A2983 RMK RFGS 29KT=
200802091800 METAR MRLB 091800Z 08019KT 9999 FEW040 34/18 A2980 RMK FEW300 RFGS 28KT=
200802091900 METAR MRLB 091900Z 08021KT 9999 FEW040 34/18 A2978 RMK FEW300 RFGS 29KT=
200802092000 METAR MRLB 092000Z 07020KT 9999 FEW040 35/17 A2975 RMK RFGS 25KT=
200802092100 METAR MRLB 092100Z 07019KT 9999 FEW040 34/17 A2974 VIENTO MAXIMO 26NUDOS=
200802092200 METAR MRLB 092200Z 07020KT 9999 NSC 33/16 A2974 RMK TRAZAS CU VIENTO MAXIMO 28NUDOS=
200802092300 METAR MRLB 092300Z 07019KT 9999 NSC 32/16 A2975 RMK TRAZAS CU VIENTO MAXIMO 25NUDOS=
200802100000 METAR MRLB 100000Z 08016KT 9999 NSC 30/17 A2976 RMK TRAZAS CU=
200802100100 METAR MRLB 100100Z 09016KT CAVOK 29/17 A2978 RMK FEW140=
200802100200 METAR MRLB NIL=
200802100300 METAR MRLB NIL=
200802100400 METAR MRLB NIL=
200802100500 METAR MRLB NIL=
200802100600 METAR MRLB NIL=
200802100700 METAR MRLB NIL=
200802100800 METAR MRLB NIL=
200802100900 METAR MRLB NIL=
200802101000 METAR MRLB NIL=
200802101100 METAR MRLB NIL=
200802101200 METAR MRLB 101200Z 11003KT CAVOK 23/19 A2981 RMK SCT250=
200802101300 METAR MRLB 101300Z 26003KT CAVOK 25/19 A2982 RMK SCT250=
200802101400 METAR MRLB 101400Z 03004KT CAVOK 27/19 A2984 RMK FEW250=
200802101500 METAR MRLB 101500Z 28004KT CAVOK 30/19 A2986 RMK FEW250=
200802101600 METAR MRLB 101600Z 09016KT 9999 FEW035 31/20 A2984=
200802101700 METAR MRLB 101700Z 08021KT 9999 FEW035 33/20 A2983=
200802101800 METAR MRLB 101800Z 08023KT 9999 FEW035 33/19 A2981 RMK TRAZAS CI=
200802101900 METAR MRLB 101900Z 07022KT 9999 FEW040 34/19 A2979=
200802102000 METAR MRLB 102000Z 07022KT 9999 SCT035 34/19 A2976=
200802102100 METAR MRLB 102100Z 07021KT 9999 FEW040 33/19 A2974=
200802102200 METAR MRLB 102200Z 08016KT 9999 FEW040 SCT250 32/19 A2973=
200802102300 METAR MRLB 102300Z 08018KT 9999 FEW040 SCT250 31/20 A2975=
200802110000 METAR MRLB 110000Z 07021KT 9999 FEW040 SCT250 29/20 A2977=
200802110100 METAR MRLB 110100Z 08017KT 9999 FEW035 BKN250 28/20 A2980=
200802110200 METAR MRLB NIL=
200802110300 METAR MRLB NIL=
200802110400 METAR MRLB NIL=
200802110500 METAR MRLB NIL=
200802110600 METAR MRLB NIL=
200802110700 METAR MRLB NIL=
200802110800 METAR MRLB NIL=
200802110900 METAR MRLB NIL=
200802111000 METAR MRLB NIL=
200802111100 METAR MRLB NIL=
200802111200 METAR MRLB 111200Z 04004KT 9999 SCT045 25/20 A2983=
200802111300 METAR MRLB 111300Z 32004KT 9999 FEW045 SCT250 27/20 A2984=
200802111400 METAR MRLB NIL=
200802111500 METAR MRLB 111500Z 07018KT 9999 FEW040 SCT250 30/19 A2988=
200802111600 METAR MRLB 111600Z 08020KT 9999 FEW035 SCT250 31/18 A2986=
200802111700 METAR MRLB 111700Z 09020KT 9999 SCT030 32/18 A2985=
200802111800 METAR MRLB 111800Z 07018G28KT 9999 FEW035 33/18 A2981=
200802111900 METAR MRLB 111900Z 06018G28KT 9999 FEW035 33/19 A2978=
200802112000 METAR MRLB 112000Z 06020KT 9999 FEW035 SCT250 32/17 A2975=
200802112100 METAR MRLB 112100Z 06020KT 9999 FEW025 SCT250 33/18 A2973=
200802112200 METAR MRLB 112200Z 07020KT CAVOK 32/18 A2973 RMK SCT250=
200802112300 METAR MRLB 112300Z 08018KT CAVOK 30/19 A2974 RMK SCT250=
200802120000 METAR MRLB 120000Z 07020KT CAVOK 28/18 A2976 RMK FEW250=
200802120100 METAR MRLB 120100Z 07017KT CAVOK 27/19 A2978 RMK FEW250=
200802120200 METAR MRLB NIL=
200802120300 METAR MRLB NIL=
200802120400 METAR MRLB NIL=
200802120500 METAR MRLB NIL=
200802120600 METAR MRLB NIL=
200802120700 METAR MRLB NIL=
200802120800 METAR MRLB NIL=
200802120900 METAR MRLB NIL=
200802121000 METAR MRLB NIL=
200802121100 METAR MRLB NIL=
200802121200 METAR MRLB 121200Z 11003KT CAVOK 25/19 A2980 RMK BKN140=
200802121300 METAR MRLB 121300Z NIL=
200802121400 METAR MRLB 121400Z 03002KT CAVOK 29/19 A2983 RMK BKN140 SCT250=
200802121500 METAR MRLB 121500Z 07013KT CAVOK 31/19 A2984 RMK FEW140 BKN250=
200802121600 METAR MRLB 121600Z 05008KT CAVOK 32/18 A2984 RMK FEW140 FEW250=
200802121700 METAR MRLB 121700Z 10015KT CAVOK 33/19 A2981 RMK TRACE CU FEW250=
200802121800 METAR MRLB 121800Z 08015KT 9999 FEW040 34/19 A2979=
200802121900 METAR MRLB 121900Z 07017KT 9999 FEW040 34/19 A2976 RMK FEW250 GUST 24KT=
200802122000 METAR MRLB 122000Z 07018KT 9999 FEW040 34/19 A2973 RMK RAFAGAS DE 23KT=
200802122100 METAR MRLB 122100Z 09015KT 9999 FEW040 33/19 A2972 RMK FEW250=
200802122200 METAR MRLB 122200Z 09014KT 9999 FEW040 SCT250 32/18 A2971=
200802122300 METAR MRLB 122300Z 08015KT 9999 FEW040 31/18 A2973 RMK TRACE CI=
200802130000 METAR MRLB 130000Z 07012KT 9999 NSC 29/18 A2974 RMK TRACE SC=
200802130100 METAR MRLB 130100Z 08013KT 9999 NSC 28/18 A2975 RMK TRZAS SC=
200802130200 METAR MRLB 130200Z 09015KT 9999 NSC 28/18 A2978 RMK TRAZAS AC=
200802130300 METAR MRLB NIL=
200802130400 METAR MRLB NIL=
200802130500 METAR MRLB NIL=
200802130600 METAR MRLB NIL=
200802130700 METAR MRLB NIL=
200802130800 METAR MRLB NIL=
200802130900 METAR MRLB NIL=
200802131200 METAR MRLB 131200Z 08002KT CAVOK 21/19 A2981 SCT250=
200802131300 METAR MRLB 131300Z 05003KT CAVOK 23/19 A2982 RMK SCT250=
200802131400 METAR MRLB 131400Z 34003KT CAVOK 26/20 A2985 RMK SCT250=
200802131500 METAR MRLB 131500Z 17003KT CAVOK 30/19 A2986 RMK FEW270=
200802131600 METAR MRLB 131600Z 05012KT CAVOK 32/19 A2985 RMK TRACE CU FEW260=
200802131700 METAR MRLB 131700Z 08014KT CAVOK 33/19 A2983 RMK FEW260=
200802131800 METAR MRLB 131800Z 08013KT CAVOK 33/19 A2979 RMK TRACE CU FEW260=
200802131900 METAR MRLB 131900Z 07017KT 9999 FEW035 35/17 A2976=
200802132000 METAR MRLB 132000Z 08014KT 9999 FEW040 34/18 A2975=
200802132100 METAR MRLB 132100Z 07018KT 9999 FEW040 34/18 A2972=
200802132200 METAR MRLB 132200Z 07015KT 9999 FEW040 33/19 A2973=
200802132300 METAR MRLB 132300Z 06015KT CAVOK 32/14 A2974 RMK FEW250=
200802140000 METAR MRLB 140000Z 07011KT CAVOK 30/19 A2976 RMK TRACE CU SCT250=
200802140100 METAR MRLB 140100Z 06011KT CAVOK 28/19 A2979 RMK SCT250=
200802140200 METAR MRLB NIL=
200802140300 METAR MRLB NIL=
200802140400 METAR MRLB NIL=
200802140500 METAR MRLB NIL=
200802140600 METAR MRLB NIL=
200802140700 METAR MRLB NIL=
200802140800 METAR MRLB NIL=
200802140900 METAR MRLB NIL=
200802141000 METAR MRLB NIL=
200802141100 METAR MRLB NIL=
200802141200 METAR MRLB 141200Z 06019KT 9999 FEW040 BKN250 27/18 A2986=
200802141300 METAR MRLB 141300Z 07020KT CAVOK 27/18 A2987 RMK RFGS 26KT FEW130 BKN250=
200802141400 METAR MRLB 141400Z 08021KT CAVOK 28/19 A2987 RMK FEW140 BKN250 TRACE SC RFGS 29KT=
200802141500 METAR MRLB 141500Z 08020KT CAVOK 29/19 A2988 RMK BKN140 SCT250 RFGS 29KT=
200802141600 METAR MRLB 141600Z 08023KT CAVOK 30/19 A2989 RMK BKN140 SCT200 RFGS 29KT=
200802141700 METAR MRLB 141700Z 08018KT CAVOK 32/18 A2987 RMK SCT140 BKN250 RFGS 25KT=
200802141800 METAR MRLB 141800Z 09018KT CAVOK 33/18 A2984 RMK FEW140 BKN250 RFGS 24KT=
200802141900 METAR MRLB 141900Z 08022KT CAVOK 34/17 A2981 RMK BKN250 RFGS 31KT=
200802142000 METAR MRLB 142000Z 08019KT CAVOK 34/19 A2979 RMK TRACE CU AC BKN250 RFGS 24KT=
200802142100 METAR MRLB 142100Z 08019G29KT CAVOK 34/19 A2977 RMK FEW130 BKN250=
200802142200 METAR MRLB 142200Z 09020KT CAVOK 31/20 A2978 RMK SCT140 BKN250 RAFAGAS 28KT=
200802142300 METAR MRLB 142300Z 08022KT CAVOK 30/19 A2981 RMK TRACE SC SCT130 BKN250 RAFAGAS 29KT=
200802150000 METAR MRLB 150000Z 08019G30KT CAVOK 29/20 A2983 RMK TRACE SC BKN130 SCT250=
200802150100 METAR MRLB 150100Z 08018KT CAVOK 29/20 A2986 RMK BKN130 FEW250 VIENTO MAXIMO 25NUDOS=
200802150200 METAR MRLB 150200Z 08019KT CAVOK 28/20 A2988 RMK BKN130 FEW250 VIENTO MAXIMO 28NUDOS=
200802150300 METAR MRLB NIL=
200802150400 METAR MRLB NIL=
200802150500 METAR MRLB NIL=
200802150600 METAR MRLB NIL=
200802150700 METAR MRLB NIL=
200802150800 METAR MRLB NIL=
200802150900 METAR MRLB NIL=
200802151000 METAR MRLB NIL=
200802151100 METAR MRLB NIL=
200802151200 METAR MRLB NIL=
200802151300 METAR MRLB 151300Z 08016KT CAVOK 27/19 A2986 RMK BKN130 TRACE CU=
200802151400 METAR MRLB NIL=
200802151500 METAR MRLB 151500Z 10018KT 9999 FEW040 BKN220 28/19 A2989 RMK F130 RAFAGAS 26KT=
200802151600 METAR MRLB 151600Z 06021KT 9999 FEW040 BKN250 31/18 A2991 RMK RAFAGAS 28KT=
200802151700 METAR MRLB 151700Z 07020KT 9999 FEW040 BKN250 31/19 A2990 RMK RAFAGAS 29KT=
200802151800 METAR MRLB 151800Z 07020KT 9999 FEW040 BKN250 32/18 A2987 RMK RAFAGAS 25KT=
200802151900 METAR MRLB 151900Z 07016KT 9999 FEW040 OVC250 31/17 A2984 RMK RAFAGAS 24KT=
200802152000 METAR MRLB 152000Z 06019KT CAVOK 33/18 A2981 RMK OVC250 TRACE CU Y AC RAFAGAS 26KT=
200802152100 METAR MRLB 152100Z 06020KT CAVOK 33/16 A2979 RMK OVC250 TRAZAS AC RAFAGAS 24KT=
200802152200 METAR MRLB 152200Z 07018KT CAVOK 32/17 A2979 RMK OVC250 TRAZAS CU/AC RAFAGAS DE 23KT=
200802152300 METAR MRLB 152300Z 06019KT CAVOK 30/18 A2979 RMK OVC250 TRAZAS CU RAFAGAS DE 24KT=
200802160000 METAR MRLB 160000Z 06015KT CAVOK 28/18 A2982 RMK OVC250 TRAZAS CU=
200802160100 METAR MRLB 160100Z 06013KT CAVOK 28/18 A2984 RMK BKN250=
200802160200 METAR MRLB NIL=
200802160300 METAR MRLB NIL=
200802160400 METAR MRLB NIL=
200802160500 METAR MRLB NIL=
200802160600 METAR MRLB NIL=
200802160700 METAR MRLB NIL=
200802160800 METAR MRLB NIL=
200802160900 METAR MRLB NIL=
200802161000 METAR MRLB NIL=
200802161100 METAR MRLB NIL=
200802161200 METAR MRLB 161200Z NIL=
200802161202 METAR MRLB 161202Z 00000KT 9999 FEW035 BKN250 22/18 A2982=
200802161300 METAR MRLB 161300Z 05002KT 9999 FEW035 BKN250 26/18 A2983=
200802161400 METAR MRLB 161400Z 07006KT CAVOK 27/18 A2985 RMK TRAZAS CU BKN250=
200802161500 METAR MRLB 161500Z 04008KT CAVOK 29/18 A2986 RMK BKN250=
200802161600 METAR MRLB 161600Z 08014KT CAVOK 31/17 A2986 RMK TRAZAS CU BKN250=
200802161700 METAR MRLB 161700Z 07012KT 9999 FEW035 SCT250 32/18 A2984=
200802161800 METAR MRLB 161800Z 06014KT 9999 FEW035 SCT250 33/17 A2980=
200802161900 METAR MRLB 161900Z 06012KT 9999 FEW035 BKN250 34/17 A2977=
200802162000 METAR MRLB 162000Z 08013KT 9999 FEW035 BKN250 33/18 A2976=
200802162100 METAR MRLB 162100Z 07015KT 9999 FEW040 BKN250 32/17 A2973=
200802162200 METAR MRLB 162200Z 08013KT CAVOK 32/18 A2973 RMK BKN250 TRACE CU=
200802162300 METAR MRLB 162300Z 07015KT CAVOK 30/1 A2975 RMK BKN250=
200802170000 METAR MRLB 170000Z 08010KT CAVOK 28/18 A2976 RMK BKN240=
200802170100 METAR MRLB 170100Z 10008KT CAVOK 27/18 A2979 RMK BKN250=
200802170200 METAR MRLB 170200Z 11007KT CAVOK 26/18 A2982 RMK BKN240=
200802170300 METAR MRLB NIL=
200802170400 METAR MRLB NIL=
200802170500 METAR MRLB NIL=
200802170600 METAR MRLB NIL=
200802170700 METAR MRLB NIL=
200802170800 METAR MRLB NIL=
200802170900 METAR MRLB NIL=
200802171000 METAR MRLB NIL=
200802171100 METAR MRLB NIL=
200802171200 METAR MRLB 171200Z 25002KT CAVOK 21/18 A2982 RMK SCT130 SCT250 HZ ARND=
200802171300 METAR MRLB 171300Z 04003KT CAVOK 22/18 A2984 RMK BKN250 TRACE AC=
200802171400 METAR MRLB 171400Z 02003KT CAVOK 26/19 A2986 RMK SCT250=
200802171500 METAR MRLB 171500Z 20004KT CAVOK 26/21 A2991 RMK OVC090 HZ LEVE ARND=
200802171600 METAR MRLB 171600Z 09008KT CAVOK 32/18 A2987 RMK SCT130 FEW250=
200802171700 METAR MRLB 171700Z 10009KT 9999 FEW035 BKN250 34/18 A2985 RMK FEW130=
200802171800 METAR MRLB 171800Z 09008KT 9999 FEW035 BKN250 34/18 A2982 RMK FEW130=
200802171900 METAR MRLB 171900Z 07006KT 9999 FEW035 BKN250 34/18 A2979 RMK FEW130=
200802172000 METAR MRLB 172000Z 13006KT 9999 SCT035 SCT250 34/18 A2976=
200802172100 METAR MRLB 172100Z 29008KT 9999 FEW035 SCT130 BKN250 31/21 A2975=
200802172200 METAR MRLB 172200Z 29008KT 9999 SCT035 SCT250 29/22 A2975=
200802172300 METAR MRLB 172300Z 30008KT 9999 BKN035 SCT250 28/22 A2977 RMK TRACE AC=
200802180000 METAR MRLB 180000Z 30006KT 9999 SCT035 SCT0130 27/22 A2980 RMK FEW250=
200802180100 METAR MRLB 180100Z 33004KT 9999 SCT035 BKN130 27/23 A2983=
200802180200 METAR MRLB NIL=
200802180300 METAR MRLB NIL=
200802180400 METAR MRLB NIL=
200802180500 METAR MRLB NIL=
200802180600 METAR MRLB NIL=
200802180700 METAR MRLB NIL=
200802180800 METAR MRLB NIL=
200802180900 METAR MRLB NIL=
200802181000 METAR MRLB NIL=
200802181100 METAR MRLB NIL=
200802181200 METAR MRLB 181200Z 00000KT CAVOK 23/21 A2987 RMK BKN130=
200802181300 METAR MRLB NIL=
200802181400 METAR MRLB 181400Z 02003KT CAVOK 25/22 A2991 BKN130=
200802181500 METAR MRLB 181500Z 33003KT 9999 FEW040 BKN130 28/21 A2993=
200802181600 METAR MRLB 181600Z 04004KT 9999 FEW040 SCT130 31/20 A2993 RMK FEW250=
200802181700 METAR MRLB 181700Z 11006KT 9999 BKN035 SCT250 32/19 A2991=
200802181800 METAR MRLB 181800Z 09006KT 9999 BKN035 SCT250 32/20 A2987=
200802181900 METAR MRLB 181900Z 29008KT 9999 BKN035 31/21 A2985 RMK RN DST SW=
200802182000 METAR MRLB 182000Z 27011KT 9999 -RA BKN030 SCT100 29/22 A2984=
200802182100 METAR MRLB 182100Z 24007KT 9999 -RA BKN030 SCT100 26/23 A2984=
200802182200 METAR MRLB 182200Z 25004KT 9999 SCT035 BKN100 27/23 A2984 RMK RN DST N E S=
200802182300 METAR MRLB 182300Z 00000KT 9999 SCT030 BKN100 28/22 A2986 RMK RNDST S SE=
200802190000 METAR MRLB 190000Z 02003KT 9999 SCT030 BKN100 27/23 A2988 RMK RN DST E S=
200802190100 METAR MRLB NIL=
200802190200 METAR MRLB 190200Z 12004KT 9999 -RA SCT030 BKN100 25/23 A2994=
200802190300 METAR MRLB NIL=
200802190400 METAR MRLB NIL=
200802190500 METAR MRLB NIL=
200802190600 METAR MRLB NIL=
200802190700 METAR MRLB NIL=
200802190800 METAR MRLB NIL=
200802190900 METAR MRLB NIL=
200802191000 METAR MRLB NIL=
200802191100 METAR MRLB NIL=
200802191200 METAR MRLB 191200Z NIL=
200802191300 METAR MRLB 191300Z 00000KT 9999 FEW030 OVC130 23/22 A2995 RMK LOW ST N=
200802191400 METAR MRLB 191400Z 00000KT 9999 SCT030 OVC130 24/23 A2998 RMK LOW ST SW=
200802191500 METAR MRLB 191500Z 00000KT 9999 FEW035 OVC130 25/23 A3000=
200802191600 METAR MRLB 191600Z 00000KT 9999 FEW035 BKN130 26/23 A3000=
200802191700 METAR MRLB 191700Z 24003KT 9999 FEW035 BKN140 29/22 A2998=
200802191800 METAR MRLB 191800Z 09012KT 9999 SCT035 BKN140 32/20 A2995=
200802191900 METAR MRLB 191900Z 10009KT 9999 FEW040 OVC140 31/19 A2992=
200802192000 METAR MRLB 192000Z 05010KT 9999 SCT040 BKN140 32/20 A2989=
200802192100 METAR MRLB 192100Z 27004KT 9999 FEW035 BKN140 32/22 A2988=
200802192200 METAR MRLB 192200Z 07010KT 9999 FEW035 BKN140 32/18 A2987=
200802192300 METAR MRLB 192300Z 08008KT 9999 SCT035 BKN140 30/20 A2988=
200802200000 METAR MRLB 200000Z 08011KT 9999 FEW035 SCT130 BKN250 28/20 A2990=
200802200100 METAR MRLB 200100Z 08009KT 9999 SCT035 BKN220 27/20 A2992 RMK FEW130=
200802200200 METAR MRLB NIL=
200802200300 METAR MRLB NIL=
200802200400 METAR MRLB NIL=
200802200500 METAR MRLB NIL=
200802200600 METAR MRLB NIL=
200802200700 METAR MRLB NIL=
200802200800 METAR MRLB NIL=
200802200900 METAR MRLB NIL=
200802201000 METAR MRLB NIL=
200802201100 METAR MRLB NIL=
200802201200 METAR MRLB 201200Z 00000KT CAVOK 21/19 A2993 RMK BKN250 TRACE AC=
200802201300 METAR MRLB 201300Z VRB03KT CAVOK 22/20 A2996 RMK SCT250 FEW130=
200802201400 METAR MRLB 201400Z 25002KT CAVOK 24/20 A2996 RMK SCT130 FEW250=
200802201500 METAR MRLB 201500Z 06008KT CAVOK 29/20 A2997 RMK FEW130 FEW250 TRACE CU=
200802201600 METAR MRLB 201600Z 09013KT 9999 FEW040 31/19 A2996 RMK FEW130 FEW250 RAFAGAS 21KT=
200802201700 METAR MRLB NIL=
200802201800 METAR MRLB 201800Z 08013KT 9999 FEW035 32/18 A2992 RMK FEW250 TRACE AC RAFAGAS 22KT=
200802201900 METAR MRLB 201900Z 08014KT 9999 FEW035 33/17 A2989=
200802202000 METAR MRLB 202000Z 09011KT 9999 FEW035 33/17 A2986 RMK FEW250=
200802202100 METAR MRLB 202100Z 10009KT 9999 FEW035 32/17 A2984 RMK FEW250=
200802202200 METAR MRLB 202200Z 10007KT 9999 FEW035 32/18 A2984 RMK FEW130 FEW250=
200802202300 METAR MRLB 202300Z 09012KT 9999 FEW040 SCT130 31/18 A2985=
200802210000 METAR MRLB 210000Z 08012KT 9999 FEW040 SCT250 28/17 A2987=
200802210100 METAR MRLB 210100Z 07010KT 9999 FEW040 SCT120 27/16 A2990=
200802210200 METAR MRLB NIL=
200802210300 METAR MRLB NIL=
200802210400 METAR MRLB NIL=
200802210500 METAR MRLB NIL=
200802210600 METAR MRLB NIL=
200802210700 METAR MRLB NIL=
200802210800 METAR MRLB NIL=
200802210900 METAR MRLB NIL=
200802211000 METAR MRLB NIL=
200802211100 METAR MRLB NIL=
200802211200 METAR MRLB 211200Z 34003KT CAVOK 19/17 A2990=
200802211300 METAR MRLB 211300Z 05003KT CAVOK 21/18 A2992 RMK FEW130 FEW250=
200802211400 METAR MRLB 211400Z 23003KT CAVOK 25/18 A2993 RMK FEW250=
200802211500 METAR MRLB 211500Z 05009KT CAVOK 29/17 A2994 RMK FEW250=
200802211600 METAR MRLB 211600Z 10011KT CAVOK 32/14 A2994 RMK FEW140=
200802211700 METAR MRLB 211700Z 10010KT CAVOK 33/15 A2992 RMK FEW140 TRAZAS CU=
200802211800 METAR MRLB 211800Z 11009KT 9999 FEW040 33/15 A2990 RMK TRAZAS AC/CI=
200802211900 METAR MRLB 211900Z 09008KT 9999 FEW040 34/16 A2987 RMK FEW250=
200802212000 METAR MRLB 212000Z 06011KT 9999 SCT040 SCT250 33/16 A2984=
200802212100 METAR MRLB 212100Z 09012KT 9999 SCT040 BKN250 32/17 A2982=
200802212200 METAR MRLB 212200Z 07012KT 9999 SCT040 BKN250 31/17 A2982=
200802212300 METAR MRLB 212300Z 08010KT CAVOK 31/17 A2983 FEW130 BKN250 TRACE CU=
200802220000 METAR MRLB 22000Z 06008KT CAVOK 29/17 A2984 BKN250 TRACE CU AC=
200802220100 METAR MRLB 220100Z 33003KT CAVOK 27/19 A2987 RMK BKN250 TRAZAS CU=
200802220200 METAR MRLB 220200Z 10002KT CAVOK 26/19 A2989 RMK BKN250=
200802220300 METAR MRLB NIL=
200802220400 METAR MRLB NIL=
200802220500 METAR MRLB NIL=
200802220600 METAR MRLB NIL=
200802220700 METAR MRLB NIL=
200802220800 METAR MRLB NIL=
200802220900 METAR MRLB NIL=
200802221000 METAR MRLB NIL=
200802221100 METAR MRLB NIL=
200802221200 METAR MRLB 221200Z 05003KT CAVOK 19/17 A2989 RMK SCT250=
200802221300 METAR MRLB 221300Z 13003KT CAVOK 21/18 A2991 SCT250=
200802221400 METAR MRLB 221400Z 34002KT CAVOK 25/18 A2993 FEW250=
200802221500 METAR MRLB 221500Z 00000KT CAVOK 28/17 A2994 SCT250=
200802221600 METAR MRLB 221600Z 10004KT CAVOK 31/17 A2993 BKN250=
200802221700 METAR MRLB 221700Z 10008KT CAVOK 33/17 A2991=
200802221800 METAR MRLB 221800Z 12006KT 9999 FEW035 SCT250 34/17 A2988=
200802221900 METAR MRLB 221900Z 11008KT 9999 SCT035 SCT250 34/16 A2985=
200802222000 METAR MRLB 222000Z 27012KT 9999 SCT035 29/19 A2983=
200802222100 METAR MRLB 222100Z 27011KT 9999 SCT040 BKN130 28/20 A2983=
200802222200 METAR MRLB 222200Z 28008KT 9999 FEW040 BKN130 28/22 A2983=
200802222300 METAR MRLB 222300Z 28006KT 9999 FEW040 BKN130 28/23 A2984=
200802230000 METAR MRLB 230000Z 29005KT 9999 FEW035 OVC130 27/23 A2985=
200802230100 METAR MRLB 230100Z 31002KT 9999 SCT035 BKN130 27/23 A2987=
200802230200 METAR MRLB 230200Z 32002KT 9999 FEW035 BKN130 26/23 A2980=
200802230300 METAR MRLB NIL=
200802230400 METAR MRLB NIL=
200802230500 METAR MRLB NIL=
200802230600 METAR MRLB NIL=
200802230700 METAR MRLB NIL=
200802230800 METAR MRLB NIL=
200802230900 METAR MRLB NIL=
200802231000 METAR MRLB NIL=
200802231100 METAR MRLB NIL=
200802231200 METAR MRLB 231200Z 06004KT CAVOK 21/20 A2990 RMK FEW140 HZ LGT ARND=
200802231300 METAR MRLB 231300Z 02003KT CAVOK 23/21 A2992 RMK FEW250 HZ LGT ARND=
200802231400 METAR MRLB 231400Z 07002KT 9999 NSC 27/20 A2992 RMK TRAZAS CI=
200802231500 METAR MRLB 231500Z 33003KT 9999 NSC 29/20 A2993 RMK TRACE CI=
200802231600 METAR MRLB 231600Z 08008KT 9999 NSC 33/17 A2992 RMK TRACE CU CI=
200802231700 METAR MRLB 231700Z 05004KT 9999 NSC 33/17 A2991 RMK TRACE CU CI=
200802231800 METAR MRLB 231800Z 08010KT 9999 FEW035 35/16 A2988 RMK FEW140 TRACE CC=
200802231900 METAR MRLB 231900Z 10010KT 9999 FEW035 35/16 A2986 RMK FEW140 FEW250=
200802232000 METAR MRLB 232000Z 10010KT 9999 SCT035 36/15 A2983 RMK FEW130=
200802232100 METAR MRLB 232100Z 08007KT 9999 BKN035 34/16 A2982 RM FEW130=
200802232200 METAR MRLB 232200Z 05009KT 9999 SCT040 33/17 A2981=
200802232300 METAR MRLB 232300Z 08008KT 9999 SCT040 32/18 A2982 RMK TRACE AC=
200802240000 METAR MRLB 240000Z 290004KT 9999 FEW040 29/21 A2986 RMK FEW250=
200802240100 METAR MRLB 240100Z 30004KT CAVOK 27/22 A2989 RMK FEW120 FEW250=
200802240200 METAR MRLB 240200Z 10002KT CAVOK 27/22 A2991 RMK SCT120 TRACE CU=
200802240300 METAR MRLB NIL=
200802240400 METAR MRLB NIL=
200802240500 METAR MRLB NIL=
200802240600 METAR MRLB NIL=
200802240700 METAR MRLB NIL=
200802240800 METAR MRLB NIL=
200802240900 METAR MRLB NIL=
200802241000 METAR MRLB NIL=
200802241100 METAR MRLB NIL=
200802241200 METAR MRLB 241200Z 27003KT CAVOK 21/19 A2993 FEW250 TRACE SCT=
200802241300 METAR MRLB 241300Z 02003KT 9999 FEW040 22/20 A2995 RMK FEW250=
200802241400 METAR MRLB 241400Z 04004KT 9999 FEW040 25/19 A2996=
200802241500 METAR MRLB 241500Z 33003KT 9999 FEW040 28/19 A2997=
200802241600 METAR MRLB 241600Z 16002KT 9999 FEW040 32/18 A2996=
200802241700 METAR MRLB 241700Z 09014KT 9999 FEW040 33/18 A2994=
200802241800 METAR MRLB 241800Z 09009KT 9999 FEW040 34/18 A2991=
200802241900 METAR MRLB 241900Z 08013KT 9999 FEW040 34/18 A2988=
200802242000 METAR MRLB 242000Z 05014KT 9999 SCT040 34/18 A2986=
200802242100 METAR MRLB 242100Z 06010KT 9999 FEW040 33/19 A2985=
200802242200 METAR MRLB 242200Z 07014KT 9999 FEW040 33/19 A2984=
200802242300 METAR MRLB 242300Z 07015KT 9999 FEW040 31/20 A2985=
200802250000 METAR MRLB 250000Z 07013KT 9999 FEW040 28/19 A2987=
200802250100 METAR MRLB 250100Z 08016KT 9999 FEW040 28/17 A2989=
200802250200 METAR MRLB 250200Z 08016KT 9999 FEW040 28/18 A2990=
200802250300 METAR MRLB NIL=
200802250400 METAR MRLB NIL=
200802250500 METAR MRLB NIL=
200802250600 METAR MRLB NIL=
200802250700 METAR MRLB NIL=
200802250800 METAR MRLB NIL=
200802250900 METAR MRLB NIL=
200802251000 METAR MRLB NIL=
200802251100 METAR MRLB NIL=
200802251200 METAR MRLB 251200Z 08014KT CAVOK 26/19 A2988 RMK SCT250=
200802251300 METAR MRLB 251300Z 07015KT CAVOK 27/19 A2990 RMK BKN250=
200802251400 METAR MRLB 251400Z 08012KT CAVOK 29/19 A2991 RMK BKN250=
200802251500 METAR MRLB 251500Z 08016KT CAVOK 30/19 A2992 RMK BKN250=
200802251600 METAR MRLB 251600Z 09018KT CAVOK 30/17 A2991 RMK BKN250=
200802251700 METAR MRLB 251700Z 08019KT CAVOK 33/17 A2990 RMK BKN240=
200802251800 METAR MRLB 251800Z 08017KT 9999 FEW035 BKN250 33/16 A2988=
200802251900 METAR MRLB 251900Z 09016KT 9999 FEW035 OVC250 33/17 A2986=
200802252000 METAR MRLB 252000Z 08014KT 9999 FEW040 BKN250 34/17 A2984=
200802252100 METAR MRLB NIL=
200802252200 METAR MRLB 252200Z 06017KT 9999 FEW040 SCT250 32/18 A2982=
200802252300 METAR MRLB 252300Z 07017KT 9999 FEW040 BKN250 30/18 A2983=
200802260000 METAR MRLB 260000Z 09016KT 9999 FEW040 SCT250 28/17 A2984=
200802260100 METAR MRLB 260100Z 08015KT CAVOK 27/18 A2985 RMK BKN250 TRAZAS CU=
200802260200 METAR MRLB 260200Z 08014KT CAVOK 26/18 A2987 RMK BKN250 TRAZAS CU=
200802260300 METAR MRLB NIL=
200802260400 METAR MRLB NIL=
200802260500 METAR MRLB NIL=
200802260600 METAR MRLB NIL=
200802260700 METAR MRLB NIL=
200802260800 METAR MRLB NIL=
200802260900 METAR MRLB NIL=
200802261000 METAR MRLB NIL=
200802261100 METAR MRLB NIL=
200802261200 METAR MRLB 261200Z 09004KT CAVOK 19/16 A2987 RMK BKN250=
200802261300 METAR MRLB 261300Z 01003KT CAVOK 20/17 A2989 RMK BKN250=
200802261400 METAR MRLB 261400Z 35003KT CAVOK 24/17 A2991 RMK BKN250=
200802261500 METAR MRLB 261500Z 06002KT CAVOK 28/17 A2992 RMK BKN250=
200802261600 METAR MRLB 261600Z 23002KT CAVOK 31/14 A2993 RMK BKN250=
200802261700 METAR MRLB 261700Z VRB04KT CAVOK 33/13 A2990 RMK BKN250=
200802261800 METAR MRLB 261800Z 33005KT CAVOK 34/14 A2987 RMK BKN250=
200802261900 METAR MRLB 261900Z 10010KT CAVOK 34/15 A2984 RMK BKN250=
200802262000 METAR MRLB 262000Z 11010KT CAVOK 34/14 A2981 RMK BKN250=
200802262100 METAR MRLB 262100Z 10008KT CAVOK 35/15 A2978 SCT250=
200802262200 METAR MRLB 262200Z 10010KT CAVOK 34/15 A2997 SCT250=
200802262300 METAR MRLB 262300Z 09011KT CAVOK 32/15 A2978 FEW250=
200802270000 METAR MRLB 270000Z 08009KT CAVOK 30/15 A2979 RMK FEW250=
200802270100 METAR MRLB 270100Z 06006KT CAVOK 28/17 A2981 RMK FEW250=
200802270200 METAR MRLB 270200Z 05006KT CAVOK 27/17 A2983 RMK FEW250=
200802270300 METAR MRLB NIL=
200802270400 METAR MRLB NIL=
200802270500 METAR MRLB NIL=
200802270600 METAR MRLB NIL=
200802270700 METAR MRLB NIL=
200802270800 METAR MRLB NIL=
200802270900 METAR MRLB NIL=
200802271000 METAR MRLB NIL=
200802271100 METAR MRLB NIL=
200802271200 METAR MRLB 271200Z 05003KT CAVOK 19/17 A2989 RMK BKN250=
200802271300 METAR MRLB 271300Z 06002KT CAVOK 22/18 A2991 RMK BKN250=
200802271400 METAR MRLB 271400Z 00000KT CAVOK 25/19 A2993 RMK SCT250=
200802271500 METAR MRLB 271500Z 00000KT CAVOK 28/18 A2994 FEW250=
200802271600 METAR MRLB 271600Z 16003KT CAVOK 31/16 A2994 FEW250=
200802271700 METAR MRLB 271700Z 22004KT 9999 NSC 33/16 A2991 TRACE CU CI=
200802271800 METAR MRLB 271800Z 08005KT 9999 NSC 34/15 A2987 TRACE CU=
200802271900 METAR MRLB 271900Z 36005KT 9999 FEW040 35/14 A2984=
200802272000 METAR MRLB 272000Z 28012KT 9999 SCT040 33/18 A2982 TRACE CI=
200802272100 METAR MRLB 272100Z 29011KT 9999 SCT040 33/18 A2980 RMK FEW250=
200802272200 METAR MRLB 272200Z 27008KT 9999 SCT040 33/19 A2979 RMK FEW250=
200802272300 METAR MRLB 272300Z 10012KT 9999 FEW045 SCT250 32/17 A2981=
200802280000 METAR MRLB 280000Z 08010KT CAVOK 31/18 A2981 RMK BKN250=
200802280100 METAR MRLB 280100Z 09009KT CAVOK 29/19 A2984 RMK SCT250=
200802280200 METAR MRLB 280200Z 09011KT CAVOK 29/19 A2986 RMK SCT250=
200802280300 METAR MRLB NIL=
200802280400 METAR MRLB NIL=
200802280500 METAR MRLB NIL=
200802280600 METAR MRLB NIL=
200802280700 METAR MRLB NIL=
200802280800 METAR MRLB NIL=
200802280900 METAR MRLB NIL=
200802281000 METAR MRLB NIL=
200802281100 METAR MRLB NIL=
200802281200 METAR MRLB 281200Z 08014KT CAVOK 28/14 A2988 RMK SCT250=
200802281300 METAR MRLB 281300Z 08013KT CAVOK 28/13 A2990 RMK SCT250=
200802281400 METAR MRLB 281400Z 07016KT CAVOK 30/14 A2991 RMK FEW250=
200802281500 METAR MRLB 281500Z 08019KT CAVOK 31/14 A2991 RM FEW250=
200802281600 METAR MRLB 281600Z 09019KT CAVOK 32/15 A2992 RMK SCT250=
200802281700 METAR MRLB 281700Z 08021KT CAVOK 32/15 A2990 RMK SCT250=
200802281800 METAR MRLB 281800Z 07023KT CAVOK 33/15 A2986 RMK SCT250=
200802281900 METAR MRLB 281900Z 08023KT CAVOK 34/15 A2984 RMK TRACE CU BKN250=
200802282000 METAR MRLB 282000Z 08021KT CAVOK 34/15 A2981 RMK BKN250=
200802282100 METAR MRLB 282100Z 07022KT CAVOK 33/15 A2980 RMK SCT250=
200802282200 METAR MRLB 282200Z 07018KT CAVOK 33/14 A2981 RMK FEW250=
200802282300 METAR MRLB 282300Z 08019KT CAVOK 31/13 A2983 RMK SCT250=
200802290000 METAR MRLB 290000Z 08018KT 9999 FEW035 SCT250 29/15 A2984=
200802290100 METAR MRLB 290100Z 07018KT 9999 FEW035 SCT250 28/15 A2987=
200802290200 METAR MRLB 290200Z 08016KT CAVOK 27/15 A2989 RMK TRACE CU SCT250=
200802290300 METAR MRLB NIL=
200802290400 METAR MRLB NIL=
200802290500 METAR MRLB NIL=
200802290600 METAR MRLB NIL=
200802290700 METAR MRLB NIL=
200802290800 METAR MRLB NIL=
200802290900 METAR MRLB NIL=
200802291000 METAR MRLB NIL=
200802291100 METAR MRLB NIL=
200802291200 METAR MRLB 291200Z 08019KT CAVOK 26/17 A2986 SCT250 VEL MAX VTO 28KTS=
200802291300 METAR MRLB 291300Z 07021KT CAVOK 27/16 A2988 RMK SCT250 TRACE SC RFGS 29KT=
200802291400 METAR MRLB 291400Z 08020KT CAVOK 29/16 A2990 RMK SCT250 TRACE SC RFGS 29KT=
200802291500 METAR MRLB 291500Z 07025KT 9999 NSC 30/15 A2992 RMK TRACE SC CI RFGS 32KT=
200802291600 METAR MRLB 291600Z 07022KT 9999 NSC 31/15 A2992 RMK TRACE CI SC RFGS 29KT=
200802291700 METAR MRLB 291700Z 07021KT 9999 NSC 33/15 A2991 RMK TRACE SC CI RFGS 29KT=
200802291800 METAR MRLB 291800Z 07019KT 9999 NSC 34/15 A2988 RMK TRACE CU RFGS 27KT=
200802291900 METAR MRLB 291900Z 07017KT 9999 NSC 34/16 A2984 RMK TRACE CU RFGS 25KT=
200802292000 METAR MRLB 292000Z 06018KT 9999 FEW040 34/15 A2981 RMK RFGS 25KT=
200802292100 METAR MRLB 292100Z 05019KT 9999 FEW040 34/15 A2980 RMK 25KT=
200802292200 METAR MRLB 292200Z 07021KT 9999 NSC 33/15 A2980 RMK TRACE CU=
200802292300 METAR MRLB 292300Z 07021KT 9999 NSC 31/15 A2981 RMK TRACE SC RAFAGAS 28KT=
200803010000 METAR MRLB 010000Z 07017KT 9999 SKC 30/14 A2983 RMK RAFAGAS 23KT=
200803010100 METAR MRLB NIL=
200803010200 METAR MRLB 010200Z 08017KT 9999 SKC 27/17 A2986 RMK RAFAGAS 25KT=
200803010300 METAR MRLB NIL=
200803010400 METAR MRLB NIL=
200803010500 METAR MRLB NIL=
200803010600 METAR MRLB NIL=
200803010700 METAR MRLB NIL=
200803010800 METAR MRLB NIL=
200803010900 METAR MRLB NIL=
200803011000 METAR MRLB NIL=
200803011100 METAR MRLB NIL=
200803011200 METAR MRLB 011200Z 09013KT CAVOK 27/18 A2983 RMK SCT250=
200803011300 METAR MRLB 011300Z 08016KT CAVOK 28/18 A2985 RMK BKN250 RAFAGAS 25KT=
200803011400 METAR MRLB 011400Z 08017KT CAVOK 30/18 A2987 RMK BKN250 RAFAGAS 25KT=
200803011500 METAR MRLB 011500Z 08018KT CAVOK 31/18 A2988 RMK BKN250 RAFAGAS 25KT=
200803011600 METAR MRLB 011600Z 07021 CAVOK 32/18 A2989 RMK BKN250 TRACE CU RAFAGAS 29KT=
200803011700 METAR MRLB 011700Z 08020KT 9999 FEW040 SCT250 33/19 A2987 RMK RAFAGAS 28KT=
200803011800 METAR MRLB 011800Z 07021G31KT 9999 FEW040 SCT250 34/18 A2984=
200803011900 METAR MRLB 011900Z 08020KT 9999 FEW040 BKN250 33/17 A2982 RMK RAFAGAS 27KT=
200803012000 METAR MRLB 012000Z 07019KT 9999 FEW040 BKN250 33/18 A2979 RMK RAFAGAS 28KT=
200803012100 METAR MRLB 012100Z 08018KT CAVOK 32/16 A2987 RMK BKN250 GUST 27KT=
200803012200 METAR MRLB 012200Z 08017KT CAVOK 31/16 A2977 RMK BKN250=
200803012300 METAR MRLB 012300Z 0015KT CAVOK 31/16 A2978 RMK SCT250=
200803020000 METAR MRLB 020000Z 09017KT CAVOK 29/16 A2978 RMK FEW250=
200803020100 METAR MRLB 020100Z 09015KT CAVOK 28/15 A2980 RMK FEW250=
200803020200 METAR MRLB 020200Z 09017KT CAVOK 27/16 A2981 RMK FEW250=
200803020300 METAR MRLB NIL=
200803020400 METAR MRLB NIL=
200803020500 METAR MRLB NIL=
200803020600 METAR MRLB NIL=
200803020700 METAR MRLB NIL=
200803020800 METAR MRLB NIL=
200803020900 METAR MRLB NIL=
200803021000 METAR MRLB NIL=
200803021100 METAR MRLB NIL=
200803021200 METAR MRLB 021200Z 04006KT CAVOK 24/18 A2982 RMK FEW250=
200803021300 METAR MRLB 021300Z 08016KT CAVOK 27/17 A2984 RMK SCT260=
200803021400 METAR MRLB 021400Z 27017KT CAVOK 29/18 A2985 RMK SCT260=
200803021500 METAR MRLB 021500Z 07020KT CAVOK 30/18 A2987 RMK SCT260 GUST 25KT=
200803021600 METAR MRLB 021600Z 07018KT CAVOK 32/17 A2986 RMK FEW260 TRAZAS CU=
200803021700 METAR MRLB 021700Z 07016KT CAVOK 33/16 A2985 RMK FEW260=
200803021800 METAR MRLB 021800Z 07019KT CAVOK 34/16 A2982 RMK FEW260=
200803021900 METAR MRLB 021900Z 07018KT CAVOK 35/14 A2979 RMK FEW260 TRAZAS CU=
200803022000 METAR MRLB 022000Z 06019KT CAVOK 34/15 A2977 RMK FEW260=
200803022100 METAR MRLB 022100Z 06019KT CAVOK 34/19 A2975 RMK FEW260=
200803022200 METAR MRLB 022200Z 06017KT CAVOK 33/13 A2975 FEW260=
200803022300 METAR MRLB 022300Z 07018KT CAVOK 32/15 A2976 SCT250=
200803030000 METAR MRLB 030000Z 07015KT CAVOK 30/16 A2977 FEW250=
200803030100 METAR MRLB 030100Z 08012KT CAVOK 28/17 A2978=
200803030200 METAR MRLB NIL=
200803030300 METAR MRLB NIL=
200803030400 METAR MRLB NIL=
200803030500 METAR MRLB NIL=
200803030600 METAR MRLB NIL=
200803030700 METAR MRLB NIL=
200803030800 METAR MRLB NIL=
200803030900 METAR MRLB NIL=
200803031000 METAR MRLB NIL=
200803031100 METAR MRLB NIL=
200803031200 METAR MRLB 031200Z 34003KT 9999 NSC 19/16 A2986 RMK TRACE SC=
200803031300 METAR MRLB 031300Z 00000KT 9999 NSC 22/17 A2988 TRACE CU=
200803031400 METAR MRLB 031400Z 07002KT 9999 NSC 27/18 A2990 TRACE CU=
200803031500 METAR MRLB 031500Z 08013KT 9999 NSC 30/17 A2990 TRACE CU VEL MAX VTO 21KTS=
200803031600 METAR MRLB 031600Z 07011KT 9999 NSC 32/27 A2990 TRACE CU=
200803031700 METAR MRLB 031700Z 09010KT 9999 NSC 33/16 A2988 TRACE CU=
200803031800 METAR MRLB 031800Z 10006KT 9999 NSC 34/16 A2986 TRACE CU=
200803031900 METAR MRLB 031900Z 05006KT 9999 NSC 35/16 A2982 TRACE CU=
200803032000 METAR MRLB 032000Z 06010KT 9999 NSC 35/15 A2979 TRACE CU=
200803032100 METAR MRLB 032100Z 09012KT 9999 FEW040 35/14 A2977=
200803032200 METAR MRLB 032200Z 08010KT 9999 FEW040 35/14 A2977=
200803032300 METAR MRLB 032300Z 06012KT 9999 FEW040 33/17 A2978=
200803040000 METAR MRLB NIL=
200803040100 METAR MRLB 040100Z 06010KT CAVOK 29/19 A2981 RMK FEW250=
200803040200 METAR MRLB 040200Z 07012KT CAVOK 28/18 A2983 RMK FEW250=
200803040300 METAR MRLB NIL=
200803040400 METAR MRLB NIL=
200803040500 METAR MRLB NIL=
200803040600 METAR MRLB NIL=
200803040700 METAR MRLB NIL=
200803040800 METAR MRLB NIL=
200803040900 METAR MRLB NIL=
200803041000 METAR MRLB NIL=
200803041100 METAR MRLB NIL=
200803041200 METAR MRLB 041200Z 04005KT 9999 SKC 19/17 A2990=
200803041300 METAR MRLB 041300Z 00000KT 9999 SKC 22/18 A2992=
200803041400 METAR MRLB 041400Z 18002KT 9999 SKC 27/19 A2994=
200803041500 METAR MRLB 041500Z 28004KT 9999 SKC 29/19 A2994=
200803041600 METAR MRLB 041600Z 00000KT 9999 NSC 31/19 A2993 RMK TRACE CU=
200803041700 METAR MRLB 041700Z 27004KT 9999 SCT040 32/19 A2989=
200803041800 METAR MRLB 041800Z 01006KT 9999 SCT040 33/18 A2987=
200803041900 METAR MRLB 041900Z 28009KT 9999 BKN035 33/19 A2984=
200803042000 METAR MRLB 042000Z 28011KT 9999 BKN035 33/19 A2982=
200803042100 METAR MRLB 042100Z 26011KT 9999 SCT035 33/19 A2980=
200803042200 METAR MRLB 042200Z 27010KT 9999 BKN035 32/19 A2980=
200803042300 METAR MRLB 042300Z 28009KT 9999 SCT035 31/21 A2981=
200803050000 METAR MRLB 050000Z 30006KT 9999 BKN030 30/21 A2983 RMK RN DST SE=
200803050100 METAR MRLB 050100Z 34005KT 9999 SCT030 28/21 A2985=
200803050200 METAR MRLB 050200Z 02002KT 9999 FEW030 27/21 A2988=
200803050300 METAR MRLB NIL=
200803050400 METAR MRLB NIL=
200803050500 METAR MRLB NIL=
200803050600 METAR MRLB NIL=
200803050700 METAR MRLB NIL=
200803050800 METAR MRLB NIL=
200803050900 METAR MRLB NIL=
200803051000 METAR MRLB NIL=
200803051100 METAR MRLB NIL=
200803051200 METAR MRLB NIL=
200803051300 METAR MRLB NIL=
200803051400 METAR MRLB NIL=
200803051500 METAR MRLB NIL=
200803051600 METAR MRLB NIL=
200803051700 METAR MRLB 051700Z 22004KT CAVOK 32/14 A2993 RMK FEW260 TRACE CU=
200803051800 METAR MRLB 051800Z 16007KT CAVOK 34/14 A2990 RMK SCT260 TRACE CU=
200803051900 METAR MRLB 051900Z 30006KT 9999 FEW035 34/17 A2987 RMK TRACE CI=
200803052000 METAR MRLB 052000Z 28011KT 9999 SCT035 34/17 A2984 RMK TRACE CI=
200803052100 METAR MRLB 052100Z 27011KT 9999 FEW035 33/16 A2982=
200803052200 METAR MRLB NIL=
200803052300 METAR MRLB 052300Z 25009KT 9999 SCT035 32/18 A2093=
200803060000 METAR MRLB NIL=
200803060100 METAR MRLB NIL=
200803060200 METAR MRLB 060200Z 00000KT 9999 FEW035 BKN250 28/17 A2990=
200803060300 METAR MRLB NIL=
200803060400 METAR MRLB NIL=
200803060500 METAR MRLB NIL=
200803060600 METAR MRLB NIL=
200803060700 METAR MRLB NIL=
200803060800 METAR MRLB NIL=
200803060900 METAR MRLB NIL=
200803061000 METAR MRLB NIL=
200803061100 METAR MRLB NIL=
200803061200 METAR MRLB 061200Z 03002KT 9999 SCT045 22/19 A2990 RMK FEW120 HZ LGT ARND=
200803061300 METAR MRLB 061300Z 1003KT CAVOK 24/20 A2991 RMK FEW120 HZ LEVE ARND=
200803061400 METAR MRLB 061400Z 19004KT 9999 NSC 27/20 A2994 RMK TRACE AC CI HZ=
200803061500 METAR MRLB 061500Z 09005KT 9999 NSC 31/17 A2994 RMK TRACE CU HZ ARND=
200803061600 METAR MRLB 061600Z 07006KT 9999 NSC 33/17 A2993 RMK TRACE CU=
200803061700 METAR MRLB 061700Z 36003KT 9999 FEW040 32/17 A2991 RMK FEW250=
200803061800 METAR MRLB 061800Z VRB05KT 9999 SCT040 33/16 A2987 RMK FEW250=
200803061900 METAR MRLB 061900Z 27009KT 9999 BKN040 34/17 A2985 RMK TRACE CI HZ=
200803062000 METAR MRLB 062000Z 31006KT 9999 BKN035 35/17 A2980 RMK HZ LEVE ARND FEW250=
200803062100 METAR MRLB 062100Z 27009KT SCT035 SCT250 35/18 A2978 RMK HZ ANRD=
200803062200 METAR MRLB NIL=
200803062300 METAR MRLB NIL=
200803070000 METAR MRLB NIL=
200803070100 METAR MRLB NIL=
200803070200 METAR MRLB 070200Z 16002KT 9999 FEW040 29/20 A2986=
200803070300 METAR MRLB NIL=
200803070400 METAR MRLB NIL=
200803070500 METAR MRLB NIL=
200803070600 METAR MRLB NIL=
200803070700 METAR MRLB NIL=
200803070800 METAR MRLB NIL=
200803070900 METAR MRLB NIL=
200803071000 METAR MRLB NIL=
200803071100 METAR MRLB NIL=
200803071200 METAR MRLB NIL=
200803071300 METAR MRLB NIL=
200803071400 METAR MRLB 071400Z 02003KT CAVOK 25/20 A2991 RMK OVC300 HZY TRAZAS AC=
200803071500 METAR MRLB NIL=
200803071600 METAR MRLB NIL=
200803071700 METAR MRLB NIL=
200803071800 METAR MRLB NIL=
200803071900 METAR MRLB 071900Z 28012KT 9999 FEW035 SCT300 32/22 A2985 RMK HZ ARND=
200803072000 METAR MRLB NIL=
200803072100 METAR MRLB NIL=
200803072200 METAR MRLB NIL=
200803072300 METAR MRLB NIL=
200803080000 METAR MRLB NIL=
200803080100 METAR MRLB 080100Z 27003KT 9999 SCT035 SCT120 28/22 A2983=
200803080200 METAR MRLB NIL=
200803080300 METAR MRLB NIL=
200803080500 METAR MRLB NIL=
200803080600 METAR MRLB NIL=
200803080700 METAR MRLB NIL=
200803080800 METAR MRLB NIL=
200803081000 METAR MRLB NIL=
200803081100 METAR MRLB NIL=
200803081200 METAR MRLB 081200Z 18003KT CAVOK 2422 A2990 RMK BKN250 TRACE CU=
200803081300 METAR MRLB 081300Z 29002KT 9999 FEW035 BKN250 26/22 A2993 HZ LGT ARND=
200803081400 METAR MRLB NIL=
200803081500 METAR MRLB NIL=
200803081600 METAR MRLB NIL=
200803081700 METAR MRLB NIL=
200803081800 METAR MRLB NIL=
200803081900 METAR MRLB NIL=
200803082000 METAR MRLB NIL=
200803082100 METAR MRLB NIL=
200803082200 METAR MRLB NIL=
200803082300 METAR MRLB 082300Z 06019KT 9999 FEW035 31/19 A2981=
200803090000 METAR MRLB NIL=
200803090100 METAR MRLB NIL=
200803090200 METAR MRLB NIL=
200803090300 METAR MRLB NIL=
200803090400 METAR MRLB NIL=
200803090500 METAR MRLB NIL=
200803090600 METAR MRLB NIL=
200803090700 METAR MRLB NIL=
200803090800 METAR MRLB NIL=
200803090900 METAR MRLB NIL=
200803091000 METAR MRLB NIL=
200803091100 METAR MRLB NIL=
200803091200 METAR MRLB 091200Z 08009KT CAVOK 25/18 A2991 RMK BKN280 TRAZAS CU=
200803091300 METAR MRLB NIL=
200803091400 METAR MRLB NIL=
200803091500 METAR MRLB NIL=
200803091600 METAR MRLB NIL=
200803091700 METAR MRLB NIL=
200803091800 METAR MRLB NIL=
200803091900 METAR MRLB 091900Z 09016KT 9999 FEW040 33/16 A2992 RMK FEW300 VEL MX VTO 22KT=
200803092000 METAR MRLB 092000Z 06015KT 9999 FEW040 34/16 A2986 RMK FEW300=
200803092100 METAR MRLB 092100Z 07012KT 9999 SCT040 35/17 A2983=
200803092200 METAR MRLB NIL=
200803092300 METAR MRLB 092300Z 05019KT 9999 FEW040 32/19 A2984 RMK FEW120 FEW250=
200803100000 METAR MRLB 100000Z 07012KT 9999 FEW040 SCT250 30/17 A2987=
200803100100 METAR MRLB 100100Z 08012KT 9999 NSC 28/18 A2988 RMK TRAZAS AC/CI=
200803100200 METAR MRLB 100200Z 07018KT CAVOK 28/18 A2991 RMK FEW120 VIENTO MAXIMO 25NUDOS=
200803100300 METAR MRLB NIL=
200803100400 METAR MRLB NIL=
200803100500 METAR MRLB NIL=
200803100600 METAR MRLB NIL=
200803100700 METAR MRLB NIL=
200803100800 METAR MRLB NIL=
200803100900 METAR MRLB NIL=
200803101000 METAR MRLB NIL=
200803101100 METAR MRLB NIL=
200803101200 METAR MRLB 101200Z 07008KT 9999 NSC 25/19 A2994 TRACE CU=
200803101300 METAR MRLB 101300Z 08007KT CAVOK 26/19 A2995 RMK FEW250 TRACE CU=
200803101400 METAR MRLB 101400Z 08012KT CAVOK 28/18 A2996 RMK FEW250 TRACE CU=
200803101500 METAR MRLB 101500Z 07019KT CAVOK 30/18 A2996 RMK FEW250 TRACE CU=
200803101600 METAR MRLB 101600Z 07020KT 9999 FEW040 SCT250 32/17 A2996 RMK RFGS 29KT=
200803101700 METAR MRLB 101700Z 07018KT 9999 FEW040 BKN250 33/17 A2994=
200803101800 METAR MRLB 101800Z 06017KT 9999 FEW040 BKN250 35/16 A2991=
200803101900 METAR MRLB 101900Z 06016KT 9999 SCT040 BKN250 35/16 A2988=
200803102000 METAR MRLB 102000Z 05018KT 9999 SCT040 BKN250 35/16 A2986=
200803102100 METAR MRLB 102100Z 06020KT 9999 FEW040 SCT250 34/15 A2984=
200803102200 METAR MRLB 102200Z 07018KT CAVOK 34/15 A2983 RMK FEW250 TRACE CU=
200803102300 METAR MRLB 102300Z 06016KT CAVOK 32/16 A2984 RMK SCT250=
200803110000 METAR MRLB 110000Z 07017KT CAVOK 30/15 A2985 RMK BKN250=
200803110100 METAR MRLB 110100Z 07017KT CAVOK 29/16 A2986 RMK BKN250=
200803110200 METAR MRLB 110200Z 07019KT CAVOK 28/16 A2988 RMK SCT250=
200803110300 METAR MRLB NIL=
200803110400 METAR MRLB NIL=
200803110500 METAR MRLB NIL=
200803110600 METAR MRLB NIL=
200803110700 METAR MRLB NIL=
200803110800 METAR MRLB NIL=
200803110900 METAR MRLB NIL=
200803111000 METAR MRLB NIL=
200803111100 METAR MRLB NIL=
200803111200 METAR MRLB 111200Z 06004KT CAVOK 21/17 A2990 RMK SCT250=
200803111300 METAR MRLB 111300Z 07007KT CAVOK 26/18 A2991 RMK SCT250=
200803111400 METAR MRLB 111400Z 04010KT CAVOK 28/17 A2992 RMK SCT250=
200803111500 METAR MRLB 111500Z 08018KT CAVOK 30/15 A2993 RMK SCT250=
200803111600 METAR MRLB 111600Z 07019KT CAVOK 31/15 A2993 RMK SCT250 TRACE CU=
200803111700 METAR MRLB 111700Z 07017KT CAVOK 33/14 A2992 RMK FEW250=
200803111800 METAR MRLB 111800Z 06018KT CAVOK 34/14 A2988 RMK FEW250 TRACE CU=
200803111900 METAR MRLB NIL=
200803112000 METAR MRLB NIL=
200803112100 METAR MRLB 112100Z 06020KT 9999 FEW035 SCT250 34/14 A2977=
200803112200 METAR MRLB 112200Z 07018KT 9999 FEW035 SCT250 33/14 A2977=
200803112300 METAR MRLB 112300Z 06019KT CAVOK 32/17 A2978 RMK FEW250=
200803120000 METAR MRLB 120000Z 07020KT CAVOK 29/16 A2979 RMK FEW250=
200803120100 METAR MRLB 120100Z 08019KT CAVOK 28/16 A2981 RMK FEW250=
200803120200 METAR MRLB NIL=
200803120300 METAR MRLB NIL=
200803120400 METAR MRLB NIL=
200803120500 METAR MRLB NIL=
200803120600 METAR MRLB NIL=
200803120700 METAR MRLB NIL=
200803120800 METAR MRLB NIL=
200803120900 METAR MRLB NIL=
200803121000 METAR MRLB NIL=
200803121100 METAR MRLB NIL=
200803121200 METAR MRLB 121200Z 10005KT CAVOK 25/17 A2988 RMK SCT300 TRACE CU AC=
200803121300 METAR MRLB 121300Z 06012KT 9999 NSC 24/16 A2989 RMK TRAZAS CU/AC/CI=
200803121400 METAR MRLB 121400Z 10011KT 9999 NSC 29/17 A2990 RMK TRAZAS CU/AC=
200803121500 METAR MRLB 121500Z 08015KT 9999 NSC 30/17 A2992 RMK TRAZAS CU=
200803121600 METAR MRLB 121600Z 07017KT 9999 NSC 31/16 A2992 RMK TRAZAS CU VEL.MAX. VIENTO 23KT=
200803121700 METAR MRLB 121700Z 07012KT 9999 NSC 33/16 A2990 RMK TRAZAS CU=
200803121800 METAR MRLB 121800Z 08012KT 9999 FEW040 33/16 A2987=
200803121900 METAR MRLB 121900Z 08013KT 9999 FEW040 34/16 A2985 RMK VELOC. MAX. VIENTO 21KT=
200803122000 METAR MRLB 122000Z 06014KT 9999 FEW040 34/16 A2981 RMK VELOC. MAX VIENTO 21KT=
200803122100 METAR MRLB 122100Z 05018KT 9999 FEW040 33/16 A2979 VEL MAX VTO 21KTS=
200803122200 METAR MRLB 122200Z 07016KT 9999 NSC 32/17 A2980 TRACE SCT VELT MAX VTO 24KTS=
200803122300 METAR MRLB 122300Z 07016KT 9999 NSC 30/17 A2981 TRACE CU VEL MAX 21KTS=
200803130000 METAR MRLB 130000Z 08011KT 9999 NSC 29/16 A2983 TRACE SCT CI=
200803130100 METAR MRLB 130100Z 09011KT 9999 NSC 27/16 A2985 TRACE SCT=
200803130200 METAR MRLB 130200Z 09011KT 9999 NSC 27/17 A2986 TRACE CI=
200803130300 METAR MRLB NIL=
200803130400 METAR MRLB NIL=
200803130500 METAR MRLB NIL=
200803130600 METAR MRLB NIL=
200803130700 METAR MRLB NIL=
200803130800 METAR MRLB NIL=
200803130900 METAR MRLB NIL=
200803131000 METAR MRLB NIL=
200803131100 METAR MRLB NIL=
200803131200 METAR MRLB 131200Z 15002KT CAVOK 20/16 A2991 RMK BKN250=
200803131300 METAR MRLB 131300Z 02003KT CAVOK 21/16 A2993 BKN250=
200803131400 METAR MRLB 131400Z 00000KT CAVOK 23/17 A2994 BKN250=
200803131500 METAR MRLB 131500Z 04004KT CAVOK 29/16 A2995 BKN250=
200803131600 METAR MRLB 131600Z 05007KT CAVOK 31/16 A2994 TRACE CI BKN250=
200803131700 METAR MRLB 131700Z 10009KT 9999 FEW040 BKN250 32/19 A2993=
200803131800 METAR MRLB 131800Z 08011KT 9999 FEW040 BKN250 34/16 A2990=
200803131900 METAR MRLB NIL=
200803132000 METAR MRLB 132000Z 12005KT 9999 SCT035 34/14 A2984 FEW250=
200803132100 METAR MRLB 132100Z 29012KT 9999 BKN035 31/19 A2983 FEW250=
200803132200 METAR MRLB 132200Z 29011KT 9999 BKN035 SCT130 31/20 A2983=
200803132300 METAR MRLB 132300Z 29009KT 9999 SCT030 BKN250 30/20 A2985=
200803140000 METAR MRLB 140000Z 29009KT 9999 BKN030 29/21 A2987 RMK FEW250 RN DST E=
200803140100 METAR MRLB 140100Z 25004KT 9999 BKN030 28/21 A2990=
200803140200 METAR MRLB NIL=
200803140300 METAR MRLB NIL=
200803140400 METAR MRLB NIL=
200803140500 METAR MRLB NIL=
200803140600 METAR MRLB NIL=
200803140700 METAR MRLB NIL=
200803140800 METAR MRLB NIL=
200803140900 METAR MRLB NIL=
200803141000 METAR MRLB NIL=
200803141100 METAR MRLB NIL=
200803141200 METAR MRLB 141200Z 00000KT 9999 FEW035 BKN130 24/22 A2992=
200803141300 METAR MRLB 141300Z 03002KT 9999 FEW035 BKN130 25/21 A2994=
200803141400 METAR MRLB 141400Z 00000KT 9999 FEW035 OVC130 25/21 A2995=
200803141500 METAR MRLB 141500Z 04003KT 9999 FEW035 BKN140 28/20 A2997=
200803141600 METAR MRLB NIL=
200803141700 METAR MRLB 141700Z 24005KT 9999 FEW040 BKN250 32/19 A2993=
200803141800 METAR MRLB 141800Z 25005KT 9999 FEW040 BKN250 33/18 A2989=
200803141900 METAR MRLB 141900Z 27011KT 9999 SCT035 SCT250 33/19 A2986=
200803142000 METAR MRLB 142000Z 28011KT 9999 SCT035 SCT250 33/20 A2983 RN DST NE=
200803142100 METAR MRLB 142100Z 29010KT 9999 SCT035 BKN250 31/20 A2982 RMK RN DST SW=
200803142200 METAR MRLB 142200Z 27011KT 9999 SCT035 BKN250 31/20 A2980=
200803142300 METAR MRLB 142300Z 27009KT 9999 FEW035 BKN250 30/20 A2981=
200803150000 METAR MRLB 150000Z 25006KT 9999 FEW035 BKN250 29/20 A2983=
200803150100 METAR MRLB 150100Z 22003KT 9999 SCT035 BKN250 28/19 A2984=
200803150200 METAR MRLB NIL=
200803150300 METAR MRLB NIL=
200803150400 METAR MRLB NIL=
200803150500 METAR MRLB NIL=
200803150600 METAR MRLB NIL=
200803150700 METAR MRLB NIL=
200803150800 METAR MRLB NIL=
200803150900 METAR MRLB NIL=
200803151000 METAR MRLB NIL=
200803151100 METAR MRLB NIL=
200803151200 METAR MRLB 151200Z 07003KT CAVOK 23/20 A2989 FEW250 TRACE CU AC HZ LGT ARND=
200803151300 METAR MRLB 151300Z 03004KT 9999 NSC 24/20 A2991 RMK TRACE CU HZ LGT ARND=
200803151400 METAR MRLB 151400Z 01003KT 9999 NSC 28/21 A2992 RMK TRACE CU AC HZ LGT ARND=
200803151500 METAR MRLB 151500Z VRB02KT 9999 FEW035 30/21 A2993 RMK HZ LGT ARND=
200803151600 METAR MRLB 151600Z VRB04KT 9999 SCT035 31/21 A2991 RMK HZ LGT ARND=
200803151700 METAR MRLB 151700Z 33004KT 9999 SCT035 33/19 A2989 RMK HZ LGT ARND=
200803151800 METAR MRLB 151800Z 19009KT 9999 SCT035 34/21 A2986 RMK TRACE AC HZ LGT ARND=
200803151900 METAR MRLB 151900Z 26011KT 9999 SCT035 33/22 A2983 RMK TRACE AC TCU S=
200803152000 METAR MRLB 152000Z 28012KT 9999 FEW035 32/21 A2979 RMK HZ LGT ARND=
200803152100 METAR MRLB 152100Z 29014KT 9999 FEW035 SCT150 32/21 A2977 RMK TCU RN DST S HZ LGT ARND=
200803152200 METAR MRLB 152200Z 29013KT 9999 FEW035TCU SCT250 31/21 A2977 RMK FEW120 RN DST E SE HZ LGT ARND=
200803152300 METAR MRLB 152300Z 28011KT 9999 BKN030 30/21 A2979 RMK TCU RN DST SE RN DST NE=
200803160000 METAR MRLB 160000Z 25006KT 9999 BKN035 30/20 A2981 RMK FEW120 FEW250 CB DST S=
200803160100 METAR MRLB 160100Z 23004KT 9999 FEW035 BKN120 29/21 A2982=
200803160200 METAR MRLB 160200Z 13003KT 9999 FEW035 BKN120 28/21 A2985 RMK FEW250=
200803160300 METAR MRLB NIL=
200803160400 METAR MRLB NIL=
200803160500 METAR MRLB NIL=
200803160600 METAR MRLB NIL=
200803160700 METAR MRLB NIL=
200803160800 METAR MRLB NIL=
200803160900 METAR MRLB NIL=
200803161000 METAR MRLB NIL=
200803161100 METAR MRLB NIL=
200803161200 METAR MRLB 161200Z 07003KT CAVOK 22/20 A2984 RMK TRACE SC FEW250=
200803161300 METAR MRLB 161300Z 00000KT CAVOK 25/21 A2986 RMK FEW250 TRACE SC=
200803161400 METAR MRLB 161400Z 13002KT 9999 NSC 27/20 A2988 RMKTRACE CU=
200803161500 METAR MRLB 161500Z 07011KT 9999 SKC 31/17 A2988=
200803161600 METAR MRLB 161600Z 09010KT 9999 SKC 33/17 A2988=
200803161700 METAR MRLB 161700Z 11008KT 9999 NSC 34/17 A2987 RMK TRACE CU=
200803161800 METAR MRLB 161800Z 10010KT 9999 FEW040 35717 A2985=
200803161900 METAR MRLB 161900Z 08012KT 9999 FEW040 35/16 A2982=
200803162000 METAR MRLB 162000Z 07011KT 999 SCT040 35/17 A2979=
200803162100 METAR MRLB 162100Z 07011KT 9999 SCT040 36/17 A2977=
200803162200 METAR MRLB 162200Z 06019KT 9999 SCT040 34/17 A2977=
200803162300 METAR MRLB 162300Z 07016KT 9999 FEW045 33/18 A2977=
200803170000 METAR MRLB 170000Z 06016KT 9999 SKC 31/17 A2979=
200803170100 METAR MRLB 170100Z 07014KT 9999 SKC 30/17 A2982=
200803170200 METAR MRLB NIL=
200803170300 METAR MRLB NIL=
200803170400 METAR MRLB NIL=
200803170500 METAR MRLB NIL=
200803170600 METAR MRLB NIL=
200803170700 METAR MRLB NIL=
200803170800 METAR MRLB NIL=
200803170900 METAR MRLB NIL=
200803171000 METAR MRLB NIL=
200803171100 METAR MRLB NIL=
200803171200 METAR MRLB 171200Z 21003KT CAVOK 25/18 A2985 RMK SCT250=
200803171300 METAR MRLB 171300Z 06005KT CAVOK 26/18 A2987 RMK SCT250=
200803171400 METAR MRLB 171400Z 07014KT CAVOK 30/20 A2988 RMK FEW250=
200803171500 METAR MRLB 171500Z 06018KT 9999 FEW035 32/20 A2990=
200803171600 METAR MRLB 171600Z 06016KT 9999 FEW035 33/19 A2989=
200803171700 METAR MRLB 171700Z 07013KT 9999 SCT035 33/19 A2987=
200803171800 METAR MRLB 171800Z 07012KT 9999 SCT040 34/19 A2984=
200803171900 METAR MRLB 171900Z 06017KT 9999 SCT040 34/19 A2981=
200803172000 METAR MRLB 172000Z 07016KT 9999 SCT040 34/19 A2978=
200803172100 METAR MRLB 172100Z 06015KT 9999 SCT040 34/19 A2977=
200803172200 METAR MRLB 172200Z 05018KT 9999 SCT040 SCT250 34/20 A2977=
200803172300 METAR MRLB 172300Z 06015KT 9999 SCT035 SCT250 32/20 A2979=
200803172356 METAR MRLB 180000Z 07013KT 9999 FEW035 SCT250 30/20 A2980=
200803180000 METAR MRLB 180000Z 07013KT 9999 FEW035 SCT250 30/20 A2980=
200803180100 METAR MRLB 180100Z 07014KT 9999 FEW035 BKN250 29/20 A2982=
200803180200 METAR MRLB NIL=
200803180300 METAR MRLB NIL=
200803180500 METAR MRLB NIL=
200803180600 METAR MRLB NIL=
200803180700 METAR MRLB NIL=
200803180800 METAR MRLB NIL=
200803180900 METAR MRLB NIL=
200803181000 METAR MRLB NIL=
200803181100 METAR MRLB NIL=
200803181200 METAR MRLB NIL=
200803181300 METAR MRLB 181300Z 09009KT 9999 NSC 28/19 A2986 TRACE SCT CI HZY=
200803181400 METAR MRLB 181400Z 06017KT 9999 NSC 30/19 A2987 TRACE SC HZ ARND VEL MAX 23KTS=
200803181500 METAR MRLB 181500Z 08016KT 9999 NSC 31/19 A2988 TRACE CU HZ ARND=
200803181600 METAR MRLB NIL=
200803181700 METAR MRLB NIL=
200803181800 METAR MRLB 181800Z 05013KT 9999 FEW035 BKN250 35/18 A2983 HZ ARND=
200803181900 METAR MRLB 181900Z 07013G29KT 9999 FEW035 BKN250 35/17 A2980 HZY=
200803182000 METAR MRLB 182000Z 07012G22KT 9999 FEW040 BKN250 26/17 A2977 HZ ARND=
200803182100 METAR MRLB 182100Z 07013KT 9999 FEW040 BKN250 35 /17 A2974 HZ ARND=
200803182200 METAR MRLB 182200Z 06016KT CAVOK 35/17 2973 RMK BKN250 HZY VEL MX VTO 23KT=
200803182300 METAR MRLB 182300Z 07013KT CAVOK 34/17 A2974 RMK TRACE CU BKN250 HZY=
200803190000 METAR MRLB NIL=
200803190100 METAR MRLB NIL=
200803190200 METAR MRLB NIL=
200803190400 METAR MRLB NIL=
200803190500 METAR MRLB NIL=
200803190600 METAR MRLB NIL=
200803190700 METAR MRLB NIL=
200803190800 METAR MRLB NIL=
200803190900 METAR MRLB NIL=
200803191000 METAR MRLB NIL=
200803191100 METAR MRLB NIL=
200803191200 METAR MRLB 191200Z 14002KT CAVOK 21/17 A2983 RMK SCT250=
200803191300 METAR MRLB 191300Z 07002KT CAVOK 22/18 A2986 RMK BKN250=
200803191400 METAR MRLB 191400Z 01002KT CAVOK 24/17 A2987 RMK BKN250=
200803191500 METAR MRLB 191500Z 12004KT CAVOK 30/18 A2988 RMK BKN250=
200803191600 METAR MRLB 191600Z 06007KT CAVOK 33/18 A2988 RMK BKN250=
200803191700 METAR MRLB 191700Z 11012KT CAVOK 33/18 A2987 TRACE CU OVC250=
200803191800 METAR MRLB 191800Z 11009KT CAVOK 33/19 A2985 RMK OVC250 TRACE CU=
200803191900 METAR MRLB 191900Z 09010KT CAVOK 33/19 A2982 TRACE CU OVC250=
200803192000 METAR MRLB 192000Z 08009KT 9999 FEW040 OVC250 33/19 A2980=
200803192100 METAR MRLB 192100Z 10010KT 9999 FEW040 OVC220 33/18 A2977=
200803192200 METAR MRLB 192200Z 09010KT 9999 FEW010 OVC220 33/18 A2977=
200803192300 METAR MRLB 192300Z 09010KT 9999 FEW040 OVC220 31/19 A2977=
200803200000 METAR MRLB 200000Z 36004KT CAVOK 30/20 A2979 RMK TRACE SC AC=
200803200100 METAR MRLB 200100Z 32002KT CAVOK 28/20 A2981 RMK OVC220=
200803200200 METAR MRLB 200200Z 12003KT CAVOK 27/20 A2983 RMK OVC220=
200803200300 METAR MRLB NIL=
200803200400 METAR MRLB NIL=
200803200500 METAR MRLB NIL=
200803200600 METAR MRLB NIL=
200803200700 METAR MRLB NIL=
200803200800 METAR MRLB NIL=
200803200900 METAR MRLB NIL=
200803201000 METAR MRLB NIL=
200803201100 METAR MRLB NIL=
200803201200 METAR MRLB 201200Z 35004KT 9999 SCT040 BKN280 23/20 A2983=
200803201300 METAR MRLB 201300Z 13007KT 9999 BKN045 25/20 A2986 RMK FEW120 RN DST NE=
200803201400 METAR MRLB 201400Z 18005KT 9999 SCT045 SCT120 27/20 A2988=
200803201500 METAR MRLB 201500Z 02010KT 9999 SCT040 BKN120 30/20 A2989 RMK RN DST N NE=
200803201600 METAR MRLB 201600Z 03008KT 9999 SCT040 BKN120 31/20 A2990=
200803201700 METAR MRLB 201700Z 05011KT 9999 SCT040 BKN120 31/20 A2987=
200803201800 METAR MRLB 201800Z 008020KT 9999 FEW040 SCT120 32/20 A2984 RMK RFGS 27KT=
200803201900 METAR MRLB 201900Z 08020KT CAVOK 33/20 A2981 RMK TRACE CU SCT120 RFGS 26KT=
200803202000 METAR MRLB 202000Z 09019KT 9999 FEW040 33/20 A2978 RMK FEW120 RFGS 25KT=
200803202100 METAR MRLB 202100Z 08018KT 9999 FEW040 34/20 A2976 RMK RAFAGAS 25KT=
200803202200 METAR MRLB 202200Z 07020KT 9999 FEW040 32/19 A2976 RMK FEW130 RAFAGAS 25KT=
200803202300 METAR MRLB 202300Z 08019KT CAVOK 31/20 A2977 RMK TRACE CU FEW130 RAFAGAS 26KT=
200803210000 METAR MRLB 210000Z 07017KT 9999 NSC 29/20 A2979 RMK TRACE CU AC RAFAGAS 21KT=
200803210100 METAR MRLB 210100Z 09017KT CAVOK 28/20 A2981 RMK FEW130=
200803210200 METAR MRLB NIL=
200803210300 METAR MRLB NIL=
200803210400 METAR MRLB NIL=
200803210500 METAR MRLB NIL=
200803210700 METAR MRLB NIL=
200803210800 METAR MRLB NIL=
200803210900 METAR MRLB NIL=
200803211000 METAR MRLB NIL=
200803211100 METAR MRLB NIL=
200803211200 METAR MRLB 211200Z 07024KT CAVOK 27/18 A2981 RMK SCT250=
200803211300 METAR MRLB 211300Z 07022KT CAVOK 28/17 A2984 RMK SCT250=
200803211400 METAR MRLB 211400Z 08020KT CAVOK 29/18 A2985 RMK SCT250=
200803211500 METAR MRLB 211500Z 08022KT CAVOK 31/16 A2987 RMK SCT250 RAFAGAS 29KT=
200803211600 METAR MRLB 211600Z 08021KT CAVOK 32/14 A2986 RMK SCT250 RAFAGAS 30KT=
200803211700 METAR MRLB 211700Z 08020KT CAVOK 33/15 A2985 RMK FEW250=
200803211800 METAR MRLB 211800Z 08018KT CAVOK 34/15 A2983 RMK SCT250=
200803211900 METAR MRLB 211900Z 07017KT CAVOK 34/15 A2979 RMK SCT250=
200803212000 METAR MRLB 212000Z 08019KT CAVOK 34/15 A2977 RMK BKN250=
200803212100 METAR MRLB 212100Z 06019KT CAVOK 34/14 A2975 RMK BKN250=
200803212200 METAR MRLB 212200Z 06020KT CAVOK 33/15 A2973 RMK SCT250=
200803212300 METAR MRLB 212300Z 06018KT CAVOK 31/16 A2975 RMK SCT250=
200803220000 METAR MRLB NIL=
200803220100 METAR MRLB NIL=
200803220200 METAR MRLB NIL=
200803220300 METAR MRLB NIL=
200803220400 METAR MRLB NIL=
200803220500 METAR MRLB NIL=
200803220600 METAR MRLB NIL=
200803220800 METAR MRLB NIL=
200803220900 METAR MRLB NIL=
200803221100 METAR MRLB NIL=
200803221200 METAR MRLB 221200Z 00000KT CAVOK 21/16 A2981 RMK OVC250=
200803221300 METAR MRLB 221300Z 08003KT CAVOK 24/17 A2984 RMK BKN250=
200803221400 METAR MRLB 221400Z 29004KT CAVOK 27/17 A2985 RMK BKN250=
200803221500 METAR MRLB 221500Z 32003KT CAVOK 29/17 A2986 RMK BKN250=
200803221600 METAR MRLB NIL=
200803221700 METAR MRLB NIL=
200803221800 METAR MRLB NIL=
200803221900 METAR MRLB 221900Z 06012KT 9999 FEW040 BKN250 35/16 A2978=
200803222000 METAR MRLB 222000Z 06014KT 9999 FEW040 BKN250 35/16 A2976=
200803222100 METAR MRLB 222100Z 07013KT 9999 FEW040 BKN250 34/16 A2974=
200803222200 METAR MRLB 222200Z 07013KT 9999 FEW040 BKN250 34/15 A2974=
200803222300 METAR MRLB 222300Z 07012KT 9999 FEW040 33/16 A2974 FEW250=
200803230000 METAR MRLB 230000Z 07012KT 9999 FEW045 31/17 A2976 FEW250=
200803230100 METAR MRLB 230100Z 07008KT 9999 NSC 29/18 A2978 RMK TRAZAS SC/CI=
200803230200 METAR MRLB 230200Z 08007KT 9999 NSC 29/18 A2979 RMK TRAZAS SC=
200803230300 METAR MRLB NIL=
200803230400 METAR MRLB NIL=
200803230500 METAR MRLB NIL=
200803230600 METAR MRLB NIL=
200803230700 METAR MRLB NIL=
200803230800 METAR MRLB NIL=
200803230900 METAR MRLB NIL=
200803231000 METAR MRLB NIL=
200803231100 METAR MRLB NIL=
200803231200 METAR MRLB 231200Z 06003KT CAVOK 20/17 A2981 RMK BKN250=
200803231300 METAR MRLB 231300Z 00000KT CAVOK 23/18 A2984 BKN260=
200803231400 METAR MRLB 231400Z 24004KT CAVOK 28/18 A2987 BKN260=
200803231500 METAR MRLB 231500Z 15003KT CAVOK 31/17 A2988 BKN260=
200803231600 METAR MRLB 231600Z 08012KT CAVOK 33/16 A2987 BKN250=
200803231700 METAR MRLB 231700Z 09010KT CAVOK 34/15 A2985 BKN250 TRACE CU=
200803231800 METAR MRLB 231800Z 09011KT 9999 FEW035 BKN250 34/15 A2983=
200803231900 METAR MRLB 231900Z 08010KT 9999 SCT035 BKN250 35/14 A2980=
200803232000 METAR MRLB 232000Z 06010KT 9999 SCT035 OVC250 34/14 A2976=
200803232100 METAR MRLB 232100Z 05009KT 9999 SCT035 OVC250 35/15 A2974=
200803232200 METAR MRLB 232200Z 07010KT 9999 SCT035 BKN250 34/17 A2973=
200803232300 METAR MRLB 232300Z 07013KT 9999 SCT035 OVC250 32/18 A2974=
200803240000 METAR MRLB 240000Z 08010KT 9999 FEW035 BKN250 30/18 A2976=
200803240100 METAR MRLB 240100Z 07007KT 9999 FEW035 BKN250 28/18 A2978=
200803240200 METAR MRLB NIL=
200803240300 METAR MRLB NIL=
200803240400 METAR MRLB NIL=
200803240500 METAR MRLB NIL=
200803240600 METAR MRLB NIL=
200803240700 METAR MRLB NIL=
200803240800 METAR MRLB NIL=
200803240900 METAR MRLB NIL=
200803241000 METAR MRLB NIL=
200803241100 METAR MRLB NIL=
200803241200 METAR MRLB 241200Z 00000KT CAVOK 20/17 A2985 RMK BKN250 HZ LGT ARND=
200803241300 METAR MRLB 241300Z 31003KT CAVOK 22/18 A2987 RMK TRACE CU SCT250 LGT HZ ARND=
200803241400 METAR MRLB NIL=
200803241500 METAR MRLB 241500Z 32005KT CAVOK 30/17 A2991 RMK FEW250=
200803241600 METAR MRLB NIL=
200803241700 METAR MRLB NIL=
200803241800 METAR MRLB NIL=
200803241900 METAR MRLB NIL=
200803242300 METAR MRLB 242300Z 07017KT 9999 NSC 33/19 A2978=
200803250000 METAR MRLB 250000Z 07016KT 9999 NSC 31/19 A2980 RMK TRACE CU=
200803250100 METAR MRLB NIL=
200803250200 METAR MRLB 250200Z 07015KT 9999 SKC 29/18 A2985 RMK RFGS 22KT=
200803250300 METAR MRLB NIL=
200803250400 METAR MRLB NIL=
200803250500 METAR MRLB NIL=
200803250600 METAR MRLB NIL=
200803250700 METAR MRLB NIL=
200803250800 METAR MRLB NIL=
200803250900 METAR MRLB NIL=
200803251000 METAR MRLB NIL=
200803251100 METAR MRLB NIL=
200803251200 METAR MRLB 251200Z 06006KT 9999 SKC 26/17 A2987=
200803251300 METAR MRLB 251300Z 36005KT 9999 NSC 26/17 A2990=
200803251400 METAR MRLB 251400Z 03006KT 9999 SKC 28/16 A2991=
200803251500 METAR MRLB 251500Z 07005KT 9999 SKC 30/16 A2992=
200803251600 METAR MRLB 251600Z 05010KT 9999 SKC 34/16 A2991=
200803251700 METAR MRLB 251700Z 08018KT 9999 SKC 34/16 A2989 RMK RFGS 25KT=
200803251800 METAR MRLB 251800Z 07023KT 9999 SKC 34/16 A2986 RMK RFGS 29KT=
200803251900 METAR MRLB 251900Z 06026KT 9999 SKC 35/16 A2983 RMK RFGS 33KT=
200803252000 METAR MRLB 252000Z 06025KT 9999 NSC 35/17 A2981 RMK TRACE CU RFGS 32KT=
200803252100 METAR MRLB 252100Z 06025KT 9999 NSC 34/17 A2979 RMK TRACE CU=
200803252200 METAR MRLB 252200Z 07022KT CAVOK 34/17 A2978 RMK FEW250 TRACE CU AC=
200803252300 METAR MRLB 252300Z 07021KT 9999 NSC 34/18 A2980 TRACE CU CI RAFAGAS 29KT=
200803260000 METAR MRLB 260000Z 07021KT CAVOK 30/18 A2983 RMK FEW250=
200803260100 METAR MRLB 260100Z 07023G33KT CAVOK 29/17 A2984 RMK FEW250=
200803260200 METAR MRLB NIL=
200803260300 METAR MRLB NIL=
200803260400 METAR MRLB NIL=
200803260500 METAR MRLB NIL=
200803260600 METAR MRLB NIL=
200803260700 METAR MRLB NIL=
200803260800 METAR MRLB NIL=
200803260900 METAR MRLB NIL=
200803261000 METAR MRLB NIL=
200803261100 METAR MRLB NIL=
200803261200 METAR MRLB 261200Z 07012KT CAVOK 26/17 A2986 RMK SCT250=
200803261300 METAR MRLB 261300Z 07014KT CAVOK 28/17 A2987 RMK SCT260=
200803261400 METAR MRLB 261400Z 07020KT CAVOK 30/17 A2989 RMK SCT260=
200803261500 METAR MRLB 261500Z 07022KT CAVOK 31/18 A2990 RMK BKN260=
200803261600 METAR MRLB 261600Z 08022KT CAVOK 32/17 A2989 RMK BKN260=
200803261700 METAR MRLB 261700Z 08023KT AVOK 33/16 A2987 RMK BKN260=
200803261800 METAR MRLB 261800Z 06021KT CAVOK 35/16 A2984 RMK BKN260=
200803261900 METAR MRLB 261900Z 07017KT CAVOK 35/17 A2981 RMK BKN250=
200803262000 METAR MRLB 262000Z 05020KT CAVOK 35/17 A2978=
200803262100 METAR MRLB 262100Z 05018KT CAVOK 35/17 A2976 RMK SCT250=
200803262200 METAR MRLB 262200Z 06019KT CAVOK 34/17 A2975 RMK SCT250 TRAZAS CU=
200803262300 METAR MRLB 262300Z 07018KT CAVOK 32/19 A2976 RMK SCT250=
200803270000 METAR MRLB 270000Z 08017KT CAVOK30/18 A2978 RMK BKN250 TRACE CU=
200803270100 METAR MRLB 270100Z 09018KT 9999 FEW035 SCT250 29/19 A2981=
200803270200 METAR MRLB NIL=
200803270300 METAR MRLB NIL=
200803270400 METAR MRLB NIL=
200803270500 METAR MRLB NIL=
200803270600 METAR MRLB NIL=
200803270700 METAR MRLB NIL=
200803270800 METAR MRLB NIL=
200803270900 METAR MRLB NIL=
200803271000 METAR MRLB NIL=
200803271100 METAR MRLB NIL=
200803271200 METAR MRLB 271200Z 09007KT CAVOK 25/19 A2982 RMK TRACE SC BKN280=
200803271300 METAR MRLB 271300Z 01003KT CAVOK 26/19 A2984 RMK TRAZAS SC SCT280=
200803271400 METAR MRLB 271400Z 07014KT CAVOK 30/18 A2983 RMK TRAZAS CU SCT280=
200803271500 METAR MRLB 271500Z 07020KT CAVOK 31/18 A2984 RMK TRAZAS CU SCT280 VELOC. MAX. VIENTO 27KT=
200803271600 METAR MRLB 271600Z 08017KT CAVOK 31/19 A2984 RMK SCT250 VELOC. MAX. VIENTO 22KT=
200803271700 METAR MRLB 271700Z 07016KT CAVOK 33/19 A2983 RMK TRAZAS CU BKN250=
200803271800 METAR MRLB 271800Z 08015KT CAVOK 33/18 A2981 RMK TRAZAS CU BKN250=
200803271900 METAR MRLB 271900Z 07015KT CAVOK 33/18 A2981 RMK TRAZAS CU BKN250 VELOC. MAX. VIENTO 23KT=
200803272000 METAR MRLB 272000Z 08013KT CAVOK 34/18 A2975 RMK TRAZAS CU BKN250=
200803272100 METAR MRLB 272100Z 06012KT CAVOK 34/16 A2973 OVC250=
200803272200 METAR MRLB 272200Z 06016KT CAVOK 34/16 A2972 OVC250=
200803272300 METAR MRLB 272300Z 07015KT CAVOK 32/17 A2973 BKN250=
200803272354 METAR MRLB 280000Z 07015KT CAVOK 30/18 A2994 BKN250 FEW150=
200803280000 METAR MRLB 280000Z 07015KT CAVOK 30/18 A2994 BKN250 FEW150=
200803280100 METAR MRLB 280100Z 08011KT CAVOK 29/17 A2975 RMK BKN250=
200803280200 METAR MRLB 280200Z 09014KT CAVOK 28/17 A2976 RMK BKN2500=
200803280300 METAR MRLB NIL=
200803280400 METAR MRLB NIL=
200803280500 METAR MRLB NIL=
200803280600 METAR MRLB NIL=
200803280700 METAR MRLB NIL=
200803280800 METAR MRLB NIL=
200803280900 METAR MRLB NIL=
200803281000 METAR MRLB NIL=
200803281100 METAR MRLB NIL=
200803281200 METAR MRLB NIL=
200803281300 METAR MRLB NIL=
200803281400 METAR MRLB 281400Z 08015KT CAVOK 30/18 A2984 FEW250=
200803281500 METAR MRLB 281500Z 09014KT CAVOK 31//18 A2985 FEW250=
200803281600 METAR MRLB NIL=
200803281700 METAR MRLB NIL=
200803281800 METAR MRLB NIL=
200803281900 METAR MRLB NIL=
200803282000 METAR MRLB NIL=
200803282100 METAR MRLB NIL=
200803282200 METAR MRLB NIL=
200803282300 METAR MRLB NIL=
200803290000 METAR MRLB NIL=
200803290100 METAR MRLB NIL=
200803290200 METAR MRLB NIL=
200803290300 METAR MRLB NIL=
200803290400 METAR MRLB NIL=
200803290500 METAR MRLB NIL=
200803290600 METAR MRLB NIL=
200803290900 METAR MRLB NIL=
200803291000 METAR MRLB NIL=
200803291100 METAR MRLB NIL=
200803291200 METAR MRLB NIL=
200803291300 METAR MRLB NIL=
200803291400 METAR MRLB NIL=
200803291500 METAR MRLB NIL=
200803291600 METAR MRLB NIL=
200803291700 METAR MRLB NIL=
200803291800 METAR MRLB NIL=
200803291900 METAR MRLB NIL=
200803292000 METAR MRLB NIL=
200803292100 METAR MRLB 292100Z 07013KT CAVOK 36/17 A2975=
200803292200 METAR MRLB 292200Z 06016KT CAVOK 35/16 A2974=
200803292300 METAR MRLB 292300Z 06014KT CAVOK 33/17 A2975=
200803300000 METAR MRLB 300000Z 07013KT CAVOK 31/18 A2977=
200803300100 METAR MRLB 300100Z 08013KT CAVOK 29/18 A2979=
200803300200 METAR MRLB 300200Z 07012KT CAVOK 27/18 A2982=
200803300300 METAR MRLB NIL=
200803300400 METAR MRLB NIL=
200803300500 METAR MRLB NIL=
200803300600 METAR MRLB NIL=
200803300700 METAR MRLB NIL=
200803300900 METAR MRLB NIL=
200803301000 METAR MRLB NIL=
200803301100 METAR MRLB NIL=
200803301200 METAR MRLB NIL=
200803301300 METAR MRLB NIL=
200803301400 METAR MRLB NIL=
200803301500 METAR MRLB NIL=
200803301600 METAR MRLB NIL=
200803301700 METAR MRLB NIL=
200803301800 METAR MRLB NIL=
200803301900 METAR MRLB NIL=
200803302000 METAR MRLB NIL=
200803302100 METAR MRLB 302100Z 09008KT 9999 SCT040 BKN250 25/17 A2977=
200803302200 METAR MRLB NIL=
200803302300 METAR MRLB 302300Z 06013KT 9999 FEW040 BKN250 33/17 A2977=
200803310000 METAR MRLB 310000Z 06010KT CAVOK 31/18 A2979 RMK TRACE SC BKN250=
200803310100 METAR MRLB 310100Z 25002KT CAVOK 30/18 A2982 RMK SCT250=
200803310200 METAR MRLB 310200Z 13006KT CAVOK 29/19 A2984 RMK BKN250=
200803310300 METAR MRLB NIL=
200803310400 METAR MRLB NIL=
200803310500 METAR MRLB NIL=
200803310600 METAR MRLB NIL=
200803310700 METAR MRLB NIL=
200803310800 METAR MRLB NIL=
200803310900 METAR MRLB NIL=
200803311000 METAR MRLB NIL=
200803311100 METAR MRLB NIL=
200803311200 METAR MRLB 311200Z 21002KT CAVOK 21/17 A2985 RMK OVC250=
200803311300 METAR MRLB 311300Z 24003KT CAVOK 23/19 A2987 RMK OVC250=
200803311400 METAR MRLB 311400Z 21005KT CAVOK 28/18 A2989 RMK BKN250=
200803311500 METAR MRLB 311500Z 0010KT CAVOK 31/17 A2989 RMK BKN250=
200803311600 METAR MRLB 311600Z 06009KT CAVOK 32/16 A2988 RMK BKN250 TRACE CU=
200803311700 METAR MRLB 311700Z 07014KT 9999 FEW040 BKN250 34/16 A2986=
200803311800 METAR MRLB 311800Z 06014KT 9999 FEW040 BKN250 35/16 A2984=
200803311900 METAR MRLB 311900Z 07014KT 9999 FEW040 BKN250 35/17 A2981=
200803312000 METAR MRLB 312000Z 08014KT 9999 FEW040 BKN250 35/17 A2979=
200803312100 METAR MRLB 312100Z 06014KT 9999 FEW040 BKN250 35/17 A2977=
200803312200 METAR MRLB 312200Z 05016KT 9999 FEW040 BKN250 34/16 A2976=
200803312300 METAR MRLB 312300Z 06014KT 9999 FEW040 BKN250 32/17 A2977 RMK FEW130=
200804010000 METAR MRLB 010000Z 06012KT 9999 FEW040 BKN250 31/17 A2979 RMK FEW130=
200804010100 METAR MRLB 010100Z 10006KT 9999 FEW040 BKN250 30/17 A2981=
200804010200 METAR MRLB NIL=
200804010300 METAR MRLB NIL=
200804010400 METAR MRLB NIL=
200804010500 METAR MRLB NIL=
200804010600 METAR MRLB NIL=
200804010700 METAR MRLB NIL=
200804010800 METAR MRLB NIL=
200804010900 METAR MRLB NIL=
200804011000 METAR MRLB NIL=
200804011100 METAR MRLB NIL=
200804011200 METAR MRLB 011200Z 08003KT CAVOK 21/18 A2987 RMK BKN250=
200804011300 METAR MRLB 011300Z 04002KT CAVOK 25/19 A2990 RMK BKN260=
200804011400 METAR MRLB 011400Z 30003KT CAVOK 28/18 A2991 RMK BKN260=
200804011500 METAR MRLB 011500Z 10012KT CAVOK 32/17 A2991 RMK SCT250=
200804011600 METAR MRLB 011600Z 07009KT CAVOK 33/17 A2990 RMK SCT250=
200804011700 METAR MRLB 011700Z 09011KT 9999 FEW035 SCT250 34/17 A2988=
200804011800 METAR MRLB 011800Z 07008KT 9999 FEW035 SCT250 35/17 A2985=
200804011900 METAR MRLB 011900Z 05010KT 9999 SCT035 SCT250 34/17 A2982=
200804012000 METAR MRLB 012000Z 07008KT 9999 SCT035 35/16 A2979=
200804012100 METAR MRLB 012100Z 06010KT 9999 SCT040 35/17 A2976 TRACE CI=
200804012200 METAR MRLB 012200Z 06008KT 9999 SCT040 34/17 A2976 TRACE CI=
200804012300 METAR MRLB 012300Z 03003KT 9999 SCT040 34/17 A2977=
200804012359 METAR MRLB 020000Z 06008KT 9999 FEW035 SCT250 31/17 A2979=
200804020000 METAR MRLB 020000Z 06008KT 9999 FEW035 SCT250 31/17 A2979=
200804020100 METAR MRLB 020100Z 06005KT 9999 FEW035 SCT250 30/19 A2982=
200804020200 METAR MRLB NIL=
200804020300 METAR MRLB NIL=
200804020400 METAR MRLB NIL=
200804020500 METAR MRLB NIL=
200804020600 METAR MRLB NIL=
200804020700 METAR MRLB NIL=
200804020800 METAR MRLB NIL=
200804020900 METAR MRLB NIL=
200804021000 METAR MRLB NIL=
200804021100 METAR MRLB NIL=
200804021200 METAR MRLB 021200Z 07004KT CAVOK 22/18 A2987 RMK FEW250=
200804021300 METAR MRLB 021300Z 00000KT CAVOK 27/19 A2988 FEW250=
200804021400 METAR MRLB 021400Z 05004KT CAVOK 29/19 A2990 FEW250=
200804021500 METAR MRLB 021500Z 07020KT CAVOK 32/17 A2990 FEW250=
200804021600 METAR MRLB 021600Z 08018KT CAVOK 33/18 A2989 FEW250=
200804021700 METAR MRLB 021700Z 07015G25KT 9999 FEW030 34/17 A2987=
200804021800 METAR MRLB 021800Z 07020KT 9999 SCT035 35/17 A2983=
200804021900 METAR MRLB 021900Z 09012KT 9999 SCT030 35/17 A2980=
200804022000 METAR MRLB 022000Z 08015KT 9999 SCT030 35/17 A2978=
200804022100 METAR MRLB 022100Z 05015KT 9999 SCT035 35/16 A2976=
200804022200 METAR MRLB 022200Z 06018KT 9999 SCT040 35/16 A2976=
200804022300 METAR MRLB 022300Z 06015KT 9999 FEW045 33/16 A2977=
200804030000 METAR MRLB 030000Z 07015KT 9999 CAVOK 31/17 A2978 RMK FEW250=
200804030100 METAR MRLB 030100Z 08013KT CAVOK 30/18 A2981 FEW220=
200804030200 METAR MRLB 030200Z 07015K CAVOK 29/18 A2983 FEW220=
200804030300 METAR MRLB NIL=
200804030400 METAR MRLB NIL=
200804030500 METAR MRLB NIL=
200804030600 METAR MRLB NIL=
200804030700 METAR MRLB NIL=
200804030800 METAR MRLB NIL=
200804030900 METAR MRLB NIL=
200804031000 METAR MRLB NIL=
200804031100 METAR MRLB NIL=
200804031200 METAR MRLB 031200Z 15002KT CAVOK 23/18 A2986 RMK TRAZAS SC/AC FEW280=
200804031300 METAR MRLB 031300Z 34003KT 9999 NSC 24/19 A2988 RMK TRCE SC CI=
200804031400 METAR MRLB 031400Z VRB03KT 9999 NSC 28/19 A2990 RMK TRCE CU CI=
200804031500 METAR MRLB 031500Z 07005KT CAVOK 31/18 A2990 RMK TRACE CU FEW250=
200804031600 METAR MRLB 031600Z 09011KT CAVOK 33/16 A2988 RMK TRACE CU FEW250=
200804031700 METAR MRLB 031700Z 08008KT CAVOK 34/16 A2986 RMK TRACE CU FEW250=
200804031800 METAR MRLB 031800Z 08008KT 9999 FEW040 34/17 A2983 RMK FEW280=
200804031900 METAR MRLB 031900Z 09008KT 9999 SCT035 35/16 A2979 RMK FEW280=
200804032000 METAR MRLB 032000Z 09011KT 9999 SCT035 35/17 A2976 RMK FEW250=
200804032100 METAR MRLB 032100Z 09010KT 9999 SCT035 35/16 A2974 RMK TRACE CI=
200804032200 METAR MRLB 032200Z 09008KT 9999 FEW035 35/16 A2972=
200804032300 METAR MRLB 032300Z 29006KT 9999 FEW035 33/19 A2974=
200804040000 METAR MRLB 040000Z 24007KT 9999 SCT040 31/10 A2977=
200804040100 METAR MRLB 040100Z 20005KT 9999 BKN040 30/20 A2979=
200804040200 METAR MRLB 040200Z 17006KT 9999 FEW040 29/20 A2982=
200804040300 METAR MRLB NIL=
200804040400 METAR MRLB NIL=
200804040500 METAR MRLB NIL=
200804040600 METAR MRLB NIL=
200804040700 METAR MRLB NIL=
200804040800 METAR MRLB NIL=
200804040900 METAR MRLB NIL=
200804041000 METAR MRLB NIL=
200804041100 METAR MRLB NIL=
200804041200 METAR MRLB 041200Z 00000KT CAVOK 22/18 A2986 FEW260=
200804041300 METAR MRLB 041300Z 14004KT CAVOK 26/20 A2988 RMK FEW260=
200804041400 METAR MRLB 041400Z 04003KT CAVOK 30/19 A2990 RMK SCT260=
200804041500 METAR MRLB 041500Z 07015KT CAVOK 31/19 A2990 RMK FEW260=
200804041600 METAR MRLB 041600Z 13006KT 9999 FEW035 33/18 A2989 RMK TRACE CI=
200804041700 METAR MRLB 041700Z 09007KT 9999 SCT035 34/18 A2987=
200804041800 METAR MRLB 041800Z 17004KT 9999 SCT035 34/18 A2984 RMK TRACE CI=
200804041900 METAR MRLB 041900Z 24005KT 9999 SCT040 33/20 A2981=
200804042000 METAR MRLB 042000Z 27014KT 9999 SCT040 32/20 A2978=
200804042100 METAR MRLB 042100Z 28016KT 9999 SCT035 SCT250 32/22 A2976 RMK RN SE=
200804042200 METAR MRLB 042200Z 09013KT 9999 1000E TSRA FEW010CB BKN025 25/23 A2980=
200804042300 METAR MRLB 042300Z 03007KT 9999 DZ SCT025 BKN120 23/22 A2981=
200804050000 METAR MRLB 050000Z 03006KT 9999 SCT030 BKN130 23/22 A2982 RMK RN DST E SW=
200804050100 METAR MRLB 050100Z 00000KT 9999 SCT030 BKN120 23/22 A2984=
200804050200 METAR MRLB 050200Z 03002KT 9999 SCT030 OVC130 24/23 A2985 RMK REDZ=
200804050300 METAR MRLB NIL=
200804050400 METAR MRLB NIL=
200804050500 METAR MRLB NIL=
200804050600 METAR MRLB NIL=
200804050700 METAR MRLB NIL=
200804050800 METAR MRLB NIL=
200804050900 METAR MRLB NIL=
200804051000 METAR MRLB NIL=
200804051100 METAR MRLB NIL=
200804051200 METAR MRLB NIL=
200804051300 METAR MRLB 051300Z 00000KT 9999 FEW012 SCT100 BKN250 25/23 A2989=
200804051400 METAR MRLB 051400Z 00000KT 9999 FEW012 SCT100 BKN250 25/23 A2989=
200804051500 METAR MRLB 051500Z 00000KT CAVOK 28/24 A2991 RMK SCT250=
200804051600 METAR MRLB 051600Z 00000KT 9999 SCT030 30721 A2991=
200804051700 METAR MRLB 051700Z 00000KT 9999 SCT025 31/21 A2989=
200804051800 METAR MRLB 051800Z VRB03KT 9999 SCT025 33/22 A2986=
200804051900 METAR MRLB 051900Z 27010KT 9999 SCT030 33/22 A2982=
200804052000 METAR MRLB 052000Z 28011KT 9999 SCT025 33/23 A2980 RMK TCU N=
200804052100 METAR MRLB 052100Z 27012KT 9999 SCT030TCU 32/22 A2978=
200804052200 METAR MRLB 052200Z 27013KT 9999 FEW025TCU SCT250 31/21 A2978 TCU RN E SE=
200804052300 METAR MRLB 052300Z 27006KT 9999 FEW035TCU SCT150 30/21 A2980=
200804060000 METAR MRLB 060000Z 27004KT 9999 FEW040 BKN250 29/22 A2980 REDZ=
200804060100 METAR MRLB 060100Z 34004KT 9999 FEW040 SCT150 27/23A 2983=
200804060200 METAR MRLB 060200Z 02004KT 9999 FEW035 SCT140 26/23 A2984=
200804060300 METAR MRLB NIL=
200804060400 METAR MRLB NIL=
200804060500 METAR MRLB NIL=
200804060600 METAR MRLB NIL=
200804060700 METAR MRLB NIL=
200804060800 METAR MRLB NIL=
200804060900 METAR MRLB NIL=
200804061000 METAR MRLB NIL=
200804061100 METAR MRLB NIL=
200804061200 METAR MRLB 061200Z 17002KT 9999 BKN040 SCT120 25/24 A2988 RMK HZ LGT ARND=
200804061300 METAR MRLB 061300Z 16005KT 9999 FEW040 SCT120 26/24 A2989 HZY=
200804061400 METAR MRLB 061400Z 16003KT CAVOK 28/23 A2990 TRAZAS AC FEW280 HZY TCU SW=
200804061500 METAR MRLB 061500Z 17004KT 9999 FEW035 30/22 A2990 FEW280 HZY TCU SW=
200804061600 METAR MRLB 061600Z 07002KT 9999 SCT035 32/21 A2990 HZY=
200804061700 METAR MRLB 061700Z 061700ZVRB02KT 9999 SCT035 33/21 A2988 HZY=
200804061800 METAR MRLB 061800Z 29007KT 9999 SCT035 33/22 A2985 HZY=
200804061900 METAR MRLB NIL=
200804062000 METAR MRLB 062000Z 27014KT 9999 FEW035TCU 32/23 A297 FEW280 CB RN N=
200804062100 METAR MRLB 062100Z 27014KT 9999 FEW030TCU 32/22 A2978 CB RN DIST NE E FEW250 TRACE AC=
200804062200 METAR MRLB 062200Z 27012KT 9999 FEW030TCU SCT040 31/22 A2978 FEW230 CB RN TS DIST E=
200804062300 METAR MRLB NIL=
200804062355 METAR MRLB 070000Z 19004KT 9999 FEW025CB SCT035 SCT140 29/22 A2982 CB TS RASH S RN DIST NE E SE=
200804070000 METAR MRLB 070000Z 19004KT 9999 FEW025CB SCT035 SCT140 29/22 A2982 CB TS RASH S RN DIST NE E SE=
200804070100 METAR MRLB 070100Z 11003KT 9999 SCT035 SCT130 25/22 A2982 RMK CB DST S=
200804070200 METAR MRLB 070200Z 04005KT 9999 FEW035 SCT130 26/22 A2983=
200804070300 METAR MRLB NIL=
200804070400 METAR MRLB NIL=
200804070500 METAR MRLB NIL=
200804070600 METAR MRLB NIL=
200804070700 METAR MRLB NIL=
200804070800 METAR MRLB NIL=
200804070900 METAR MRLB NIL=
200804071000 METAR MRLB NIL=
200804071100 METAR MRLB NIL=
200804071200 METAR MRLB NIL=
200804071300 METAR MRLB 071300Z 00000KT CAVOK 26/22 A2984 BKN250=
200804071400 METAR MRLB 071400Z 00000KT CAVOK 28/23 A2985 SCT250=
200804071500 METAR MRLB 071500Z 00000KT CAVOK 30/22 A2986 BKN270=
200804071600 METAR MRLB 071600Z 04003KT 9999 FEW035 BKN260 33/20 A2985=
200804071700 METAR MRLB 071700Z 27006KT 9999 SCT035 BKN260 33/21 A2983=
200804071800 METAR MRLB 071800Z 23002KT 9999 SCT035 BKN250 34/21 A2981=
200804071900 METAR MRLB 071900Z 27003KT 9999 SCT035 SCT250 34/21 A2977=
200804072000 METAR MRLB NIL=
200804072100 METAR MRLB 072100Z 28010KT 9999 SCT035 BKN250 34/21 A2972=
200804072200 METAR MRLB 072200Z 27010KT 9999 SCT035 SCT250 33/22 A2970=
200804072300 METAR MRLB NIL=
200804080000 METAR MRLB 080000Z 19010KT 9999 SCT035 OVC250 29/22 A2974 RMK RN DST S SE=
200804080100 METAR MRLB 080100Z 17005KT 9999 SCT035 BKN130 25/21 A2978=
200804080200 METAR MRLB NIL=
200804080300 METAR MRLB NIL=
200804080400 METAR MRLB NIL=
200804080500 METAR MRLB NIL=
200804080600 METAR MRLB NIL=
200804080700 METAR MRLB NIL=
200804080800 METAR MRLB NIL=
200804080900 METAR MRLB NIL=
200804081000 METAR MRLB NIL=
200804081200 METAR MRLB 081200Z 03004KT CAVOK 24/22 A2981 BKN250=
200804081300 METAR MRLB 081300Z 21004KT CAVOK 25/22 29/82 SCT250=
200804081400 METAR MRLB 081400Z 18008KT CAVOK 27/22 A2985 SCT250=
200804081500 METAR MRLB NIL=
200804081600 METAR MRLB NIL=
200804081700 METAR MRLB 081700Z 24005KT 9999 FEW040 SCT250 33/20 A2981=
200804081800 METAR MRLB 081800Z 21009KT 9999 SCT035 BKN250 34/20 A2979=
200804081900 METAR MRLB 081900Z 22004KT 9999 SCT030TCU BKN250 35/17 A2975=
200804082000 METAR MRLB 082000Z 21010KT 9999 SCT030 BKN250 33/22 A2974=
200804082100 METAR MRLB 082100Z 27013KT 9999 SCT030 BKN250 24/21 A2974=
200804082200 METAR MRLB 082200Z 27010KT 9999 SCT030TCU BKN250 33/20 A2970=
200804082300 METAR MRLB 082300Z 24008KT 9999 SCT040 BKN180 32/20 A2972=
200804090000 METAR MRLB 090000Z 23005KT 9999 FEW045 SCT250 31/21 A2975 RMK TCU DST E S=
200804090100 METAR MRLB 090100Z 15004KT 9999 FEW040 SCT240 30/21 A2977=
200804090200 METAR MRLB 090200Z VRB03KT 9999 FEW045 SCT150 28/21 A2979=
200804090300 METAR MRLB NIL=
200804090400 METAR MRLB NIL=
200804090500 METAR MRLB NIL=
200804090800 METAR MRLB NIL=
200804090900 METAR MRLB NIL=
200804091000 METAR MRLB NIL=
200804091100 METAR MRLB NIL=
200804091200 METAR MRLB 091200Z 16004KT CAVOK 23/20 A2982 BKN250 HZ ARND TRACE AC=
200804091300 METAR MRLB 091300Z 34004KT CAVOK 26/21 A2984 RMK BKN250 HZ LGT ARND=
200804091400 METAR MRLB 091400Z 04005KT CAVOK 28/20 A2985 RMK BKN250 HZ LGT ARND=
200804091500 METAR MRLB 091500Z 09006KT CAVOK 31/19 A2986 RMK SCT250=
200804091600 METAR MRLB 091600Z 09011KT CAVOK 33/19 A2985 RMK BKN250 TRACE CU=
200804091700 METAR MRLB 091700Z 09005KT CAVOK 33/19 A2983 RMK BKN250 TRACE CU=
200804091800 METAR MRLB 091800Z 07008KT 9999 FEW040 BKN280 34/18 A2981=
200804091900 METAR MRLB 091900Z 07008KT 9999 FEW040 BKN280 35/17 A2978=
200804092000 METAR MRLB 092000Z 04006KT 9999 SCT040 BKN280 36/16 A2975=
200804092100 METAR MRLB 092100Z 07010KT 9999 FEW030TCU FEW040 BKN250 34/19 A2973 RMK TRACE AC=
200804092200 METAR MRLB 092200Z 08013KT 9999 FEW030CB FEW035 BKN250 33/20 A2972 RMK RASH SW=
200804092300 METAR MRLB 092300Z 09009KT 9999 FEW040 BKN130 31/20 A2974 RMK SCT250 RN W SW=
200804100000 METAR MRLB 100000Z 10008KT 9999 FEW040 BKN140 30/20 A2977 RMK FEW250 HZ ARND=
200804100100 METAR MRLB 100100Z 14006KT CAVOK 29/20 A2979 RMK SCT140 SCT250=
200804100200 METAR MRLB 100200Z 10009KT CAVOK 29/19 A2980 SCT140 FEW250=
200804100300 METAR MRLB NIL=
200804100400 METAR MRLB NIL=
200804100500 METAR MRLB NIL=
200804100600 METAR MRLB NIL=
200804100700 METAR MRLB NIL=
200804100800 METAR MRLB NIL=
200804100900 METAR MRLB NIL=
200804101000 METAR MRLB NIL=
200804101100 METAR MRLB NIL=
200804101200 METAR MRLB 101200Z 00000KT CAVOK 22/19 A2981 RMK BKN250=
200804101300 METAR MRLB 101300Z 16005KT CAVOK 25720 A2983 RMK BKN250=
200804101400 METAR MRLB 101400Z 12004KT CAVOK 29/19 A2985 RMK BKN250=
200804101500 METAR MRLB 101500Z 06011KT CAVOK 32/19 A2984 RMK BKN250=
200804101600 METAR MRLB 101600Z 03010KT 9999 FEW035 SCT250 33/18 A2984=
200804101700 METAR MRLB 101700Z 09009KT 9999 FEW035 BKN250 34/19 A2983=
200804101800 METAR MRLB 101800Z 09008KT 9999 SCT035 SCT250 34/18 A2981=
200804101900 METAR MRLB 101900Z 08008KT 9999 SCT040 BKN250 34/18 A2977=
200804102000 METAR MRLB 102000Z 09007KT 9999 SCT040 OVC250 35/18 A2975=
200804102100 METAR MRLB 102100Z 09008KT 9999 SCT035 OVC250 35/17 A2973=
200804102200 METAR MRLB 102200Z 10008KT 9999 SCT035 OVC230 34/19 A2972=
200804102300 METAR MRLB 102300Z 28005KT 9999 SCT035 BKN150 31/22 A2974=
200804110000 METAR MRLB 110000Z 17005KT 9999 SCT035 BKN140 30/21 A2976=
200804110100 METAR MRLB 110100Z 16006KT 9999 SCT035 OVC140 29/21 A2980=
200804110200 METAR MRLB NIL=
200804110300 METAR MRLB NIL=
200804110400 METAR MRLB NIL=
200804110500 METAR MRLB NIL=
200804110600 METAR MRLB NIL=
200804110700 METAR MRLB NIL=
200804110800 METAR MRLB NIL=
200804110900 METAR MRLB NIL=
200804111000 METAR MRLB NIL=
200804111100 METAR MRLB NIL=
200804111200 METAR MRLB 111200Z 02003KT CAVOK 22/20 A2981 RMK SCT250=
200804111300 METAR MRLB 111300Z 03005KT CAVOK 25/20 A2983 SCT250=
200804111400 METAR MRLB 111400Z 03005KT CAVOK 28/20 A2984 SCT250=
200804111500 METAR MRLB 111500Z 05005KT CAVOK 31/20 A2984 SCT250=
200804111600 METAR MRLB 111600Z 09008KT 9999 FEW035 SCT250 32/19 A2983=
200804111700 METAR MRLB 111700Z 07011KT 9999 SCT030 BKN250 33/19 A2981=
200804111800 METAR MRLB NIL=
200804111900 METAR MRLB 111900Z 12010KT 9999 SCT025TCU BKN250 34/19 A2975=
200804112000 METAR MRLB 112000Z 10008KT 9999 SCT030 BKN250 34/19 A2972=
200804112100 METAR MRLB 112100Z 28012KT 9999 SCT025TCU BKN250 32/21 A2970=
200804112200 METAR MRLB 112200Z 28010KT 9999 SCT035TCU BKN250 31/21 A2970=
200804112300 METAR MRLB 112300Z 28010KT 9999 SCT040TCU BKN220 31/22 A2971 RMK TCU RN DST S=
200804120000 METAR MRLB 120000Z 25003KT 9999 SCT040TCU BKN250 30/22 A2974=
200804120100 METAR MRLB 120100Z 20005KT 9999 SCT035CB BKN140 28/23 A2976=
200804120200 METAR MRLB 120200Z VRB03KT 9999 SCT030 BKN120 27/23 A2978=
200804120300 METAR MRLB NIL=
200804120400 METAR MRLB NIL=
200804120500 METAR MRLB NIL=
200804120600 METAR MRLB NIL=
200804120700 METAR MRLB NIL=
200804120800 METAR MRLB NIL=
200804120900 METAR MRLB NIL=
200804121000 METAR MRLB NIL=
200804121100 METAR MRLB NIL=
200804121200 METAR MRLB 121200Z 06004KT CAVOK 22/20 A2980 RMK FEW130 BKN280=
200804121300 METAR MRLB 121300Z 06003KT CAVOK 25/20 A2982 FEW140 SCT280=
200804121400 METAR MRLB 121400Z 05004KT CAVOK 27/20 A2984 SCT140 SCT250=
200804121500 METAR MRLB 121500Z 30005KT CAVOK 30/19 A2985 BKN 140 FEW250=
200804121600 METAR MRLB 121600Z 08008KT CAVOK 33/19 A2985 BKN130 FEW250 TRACE CU=
200804121700 METAR MRLB 121700Z 08008KT 9999 FEW035 SCT130 33/20 A2983 FEW250=
200804121800 METAR MRLB 121800Z 09008KT 9999 SCT035 SCT130 33/18 A2981 FEW250=
200804121900 METAR MRLB 121900Z 08006KT 9999 BKN025 34/19 A2977 FEW 130 FEW250=
200804122000 METAR MRLB 122000Z 26004KT 9999 SCT035 32/20 A2975 FEW130 SCT250=
200804122100 METAR MRLB 122100Z 07007KT 9999 FEW035 BKN250 34/19 A2973 FEW130=
200804122200 METAR MRLB 122200Z 27008KT 9999 SCT040 BKN250 33/21 A2973 FEW130 CB=
200804122300 METAR MRLB 122300Z 26005KT 9999 BKN040 SCT250 32/21 A2094 TRACE AC=
200804122355 METAR MRLB 13000Z 23006KT 9999 SCT040 BKN250 30/22 A2976=
200804130000 METAR MRLB 13000Z 23006KT 9999 SCT040 BKN250 30/22 A2976=
200804130100 METAR MRLB 130100Z 25004KT 9999 BKN040 29/23 A2979 RMK FEW130 FEW250=
200804130200 METAR MRLB 130200Z 17002KT 9999 FEW040 SCT250 28/23 A2980=
200804130300 METAR MRLB NIL=
200804130400 METAR MRLB NIL=
200804130500 METAR MRLB NIL=
200804130600 METAR MRLB NIL=
200804130700 METAR MRLB NIL=
200804130800 METAR MRLB NIL=
200804130900 METAR MRLB NIL=
200804131000 METAR MRLB NIL=
200804131100 METAR MRLB NIL=
200804131200 METAR MRLB 131200Z 00000KT CAVOK 23/21 A2983 SCT250=
200804131300 METAR MRLB 131300Z 00000KT CAVOK 26/21 A2985 RMK BKN250=
200804131400 METAR MRLB 131400Z 00000KT CAVOK 28/21 A2986 RMK BKN250=
200804131500 METAR MRLB 131500Z 10005KT CAVOK 32/20 A2986 RMK BKN250=
200804131600 METAR MRLB 131600Z 09012KT CAVOK 33/18 A2985 RMK SCT250 TRACE CU=
200804131700 METAR MRLB 131700Z 09009KT 9999 FEW035 SCT250 34/18 A2986=
200804131800 METAR MRLB 131800Z 08011KT 9999 SCT035 BKN250 35/18 A2983=
200804131900 METAR MRLB 131900Z 09007KT 9999 SCT035 SCT250 35/18 A2980=
200804132000 METAR MRLB 132000Z 07008KT 9999 FEW035 SCT250 35/17 A2976=
200804132100 METAR MRLB 132100Z 08012KT 9999 SCT035 BKN250 35/18 A2974=
200804132200 METAR MRLB 132200Z 07012KT 9999 SCT035 BKN250 34/19 A2973=
200804132300 METAR MRLB 132300Z 07014KT 9999 FEW035 OVC250 32/17 A2974=
200804140000 METAR MRLB 140000Z 07013KT 9999 FEW035 OVC240 30/19 A2975=
200804140100 METAR MRLB 140100Z 09014KT 9999 FEW035 OVC240 29/20 A2980=
200804140200 METAR MRLB 140200Z 09015KT 9999 FEW035 BKN240 28/18 A2982=
200804140300 METAR MRLB NIL=
200804140400 METAR MRLB NIL=
200804140500 METAR MRLB NIL=
200804140600 METAR MRLB NIL=
200804140700 METAR MRLB NIL=
200804140800 METAR MRLB NIL=
200804140900 METAR MRLB NIL=
200804141000 METAR MRLB NIL=
200804141100 METAR MRLB NIL=
200804141200 METAR MRLB 141200Z 02006KT CAVOK 22/17 A2986 SCT250=
200804141300 METAR MRLB 141300Z 06004KT CAVOK 25/18 A2987 RMK SCT280=
200804141400 METAR MRLB 141400Z 08015KT CAVOK 30/19 A2988 RMK SCT250=
200804141500 METAR MRLB 141500Z 07016KT CAVOK 31/20 A2990 RMK BKN250=
200804141600 METAR MRLB 141600Z 06020KT CAVOK 32/19 A2990 RMK SCT250=
200804141700 METAR MRLB 141700Z 07020KT 9999 FEW045 BKN250 33/18 A2988=
200804141800 METAR MRLB 141800Z 10014KT 9999 FEW040 BKN250 33/18 A2986=
200804141900 METAR MRLB 141900Z 11010KT 9999 SCT030 BKN250 3/17 A2982=
200804142000 METAR MRLB 142000Z 05020KT 9999 SCT025 BKN250 35/17 A2979=
200804142100 METAR MRLB 142100Z 05018KT 999 FEW040 BKN250 35/17 A2977=
200804142200 METAR MRLB NIL=
200804142300 METAR MRLB 142300Z 08018KT CAVOK 32/15 A2978 RMK BKN250=
200804150000 METAR MRLB 150000Z 07016KT CAVOK 30/15 A2981 RMK BKN250=
200804150100 METAR MRLB 150100Z 07010K CAVOK 29715 A2983 RMK SCT250=
200804150200 METAR MRLB 150200Z 08012KT CAVOK 28/16 A2985 SCT250=
200804150300 METAR MRLB NIL=
200804150400 METAR MRLB NIL=
200804150500 METAR MRLB NIL=
200804150600 METAR MRLB NIL=
200804150700 METAR MRLB NIL=
200804150800 METAR MRLB NIL=
200804150900 METAR MRLB NIL=
200804151000 METAR MRLB NIL=
200804151100 METAR MRLB NIL=
200804151200 METAR MRLB 151200Z 05010KT CAVOK 22/17 A2982 RMK FEW280=
200804151300 METAR MRLB 151300Z 08016KT CAVOK 28/19 A2985 RMK FEW280 TRACE SC AC RAFAGAS 20KT=
200804151400 METAR MRLB 151400Z 08019KT 9999 NSC 29/18 A2987 RMK TRACE SC CI RAFAGAS 27KT=
200804151500 METAR MRLB NIL=
200804151600 METAR MRLB 151600Z 07023KT 9999 NSC 32/17 A2986 RMK TRACE CU CI RAFAGAS 31KT=
200804151700 METAR MRLB 151700Z 07022KT 9999 NSC 33/16 A2985 RMK TARCE CU CI RAFAGAS 28KT=
200804151800 METAR MRLB 151800Z 06023KT 9999 NSC 34/16 A2982 RMK TRACE CU CI RAFAGAS 30KT=
200804151900 METAR MRLB 151900Z 06018KT 9999 NSC 35/15 A2979 RMK TRACE CU CI RAFAGAS 24KT=
200804152000 METAR MRLB 152000Z 07018KT 9999 NSC 35/16 A2975 RMK TARCE CU RAFAGAS 24KT=
200804152100 METAR MRLB 152100Z 07018KT 9999 NSC 34/17 A2973 TRAZAS SCT CI RAFAGAS 25KT=
200804152200 METAR MRLB 152200Z 06021KT 9999 NCS 33/17 A2974 TRZAS CU 27KT=
200804152300 METAR MRLB 152300Z 08019KT 9999 NSC 31/17 A2976 TRAZAS CU MAX 25KT=
200804160000 METAR MRLB 160000Z 07019KT CAVOK 30/16 A2978 SCT280=
200804160100 METAR MRLB 160100Z 07017KT CAVOK 29/16 A2980 SCT280 VIENTO MAXIMO 25NUDOS=
200804160200 METAR MRLB NIL=
200804160300 METAR MRLB NIL=
200804160400 METAR MRLB NIL=
200804160500 METAR MRLB NIL=
200804160600 METAR MRLB NIL=
200804160700 METAR MRLB NIL=
200804160800 METAR MRLB NIL=
200804160900 METAR MRLB NIL=
200804161000 METAR MRLB NIL=
200804161100 METAR MRLB NIL=
200804161200 METAR MRLB 161200Z 00000KT CAVOK 25/17 A2979 RMK SCT250=
200804161300 METAR MRLB 161300Z 07003KT CAVOK 27/18 A2982 SCT250=
200804161400 METAR MRLB 161400Z 18003KT CAVOK 29/17 A2983 BKN250=
200804161500 METAR MRLB 161500Z 09019KT CAVOK 31/18 A2982 BKN250=
200804161600 METAR MRLB 161600Z 08021KT CAVOK 32/17 A2981 BKN250=
200804161700 METAR MRLB 161700Z 07021KT CAVOK 33/17 A2981 BKN250 TRAZAS CU=
200804161800 METAR MRLB 161800Z 07021KT CAVOK 33/18 A2978 BKN250=
200804161900 METAR MRLB 161900Z 08019KT CAVOK 34/18 A2974 BKN250=
200804162000 METAR MRLB 162000Z 07015KT CAVOK 34/18 A2972 BKN250=
200804162100 METAR MRLB 162100Z 07017KT CAVOK 34/18 A2970 BKN250 TRACE CU=
200804162200 METAR MRLB 162200Z 08015KT CAVOK 33/19 A2970 BKN250=
200804162300 METAR MRLB NIL=
200804170000 METAR MRLB 170000Z 09016KT 9999 FEW035 BKN250 28/20 A2973=
200804170100 METAR MRLB 170100Z 09017KT 9999 FEW035 BKN250 28/19 A2975=
200804170200 METAR MRLB NIL=
200804170300 METAR MRLB NIL=
200804170500 METAR MRLB NIL=
200804170600 METAR MRLB NIL=
200804170700 METAR MRLB NIL=
200804170800 METAR MRLB NIL=
200804170900 METAR MRLB NIL=
200804171000 METAR MRLB NIL=
200804171100 METAR MRLB NIL=
200804171200 METAR MRLB NIL=
200804171300 METAR MRLB 171300Z 24008KT CAVOK 27/20 A2978 SCT240=
200804171400 METAR MRLB 171400Z 24011KT CAVOK 29/20 A2980 SCT180=
200804171500 METAR MRLB 171500Z 28010KT 9999 FEW040 SCT200 32/20 A2980=
200804171600 METAR MRLB 171600Z 10020KT 9999 FEW040 SCT180 33/20 A2977=
200804171700 METAR MRLB 171700Z 09020KT 9999 FEW040 SCT220 34/20 A2977=
200804171800 METAR MRLB 171800Z 10020KT 9999 SCT035 BKN250 33/20 A2975=
200804171900 METAR MRLB 171900Z 09020KT 9999 SCT030 BKN200 32/20 A2973=
200804172000 METAR MRLB 172000Z 09016G26KT 9999 SCT030 BKN220 31/21 A2973=
200804172100 METAR MRLB 172100Z 09020KT 9999 SCT035 BKN180 31/20 A2973=
200804172200 METAR MRLB 172200Z 08020KT 9999 FEW045 SCT150 31/20 A2972=
200804172300 METAR MRLB 172300Z 08018KT CAVOK 30/20 A2972 RMK FEW120=
200804180000 METAR MRLB 180000Z 10016KT CAVOK 29/20 A2974 RMK FEW100=
200804180100 METAR MRLB 180100Z 08015KT CAVOK 28/21 A2976 RMK FEW120=
200804180200 METAR MRLB 180200Z 07013KT CAVOK 27/20 A2979 RMK FEW120=
200804180300 METAR MRLB NIL=
200804180400 METAR MRLB NIL=
200804180500 METAR MRLB NIL=
200804180600 METAR MRLB NIL=
200804180700 METAR MRLB NIL=
200804180800 METAR MRLB NIL=
200804180900 METAR MRLB NIL=
200804181000 METAR MRLB NIL=
200804181100 METAR MRLB NIL=
200804181200 METAR MRLB 181200Z 00000KT CAVOK 24/21 A2975 BKN300=
200804181300 METAR MRLB 181300Z 20004KT CAVOK 28/21 A2977 RMK FEW300 TRACE SC=
200804181400 METAR MRLB 181400Z 32003KT 9999 NSC 30/21 A2979 RMK TRACE CI AC=
200804181500 METAR MRLB 181500Z 05005KT 9999 NSC 31/20 A2978 RMK TRACE SC=
200804181600 METAR MRLB 181600Z 04007KT 9999 NSC 34/20 A2978 RMK TRACE SC=
200804181700 METAR MRLB 181700Z 09017KT 9999 NSC 35/19 A2977 RMK TRACE CU VEL. MAX. VTO 22KT=
200804181800 METAR MRLB 181800Z 08016KT 9999 FEW040 35/21 A2975=
200804181900 METAR MRLB 181900Z 07020KT 9999 FEW040 35/21 A2973 RMK VEL. MAX. VTO 27KT=
200804182000 METAR MRLB 182000Z 07015KT 9999 FEW040 35/21 A2972 RMK FEW120=
200804182100 METAR MRLB 182100Z 07013KT 9999 FEW040 SCT120 34/21 A2971 RMK FEW250=
200804182200 METAR MRLB 182200Z 08014KT CAVOK 34/20 A2971 RMK TRACE CU FEW120=
200804182300 METAR MRLB 182300Z 07015KT CAVOK 32/20 A2972 RMK SCT120=
200804190000 METAR MRLB 190000Z 08010KT CAVOK 31/20 A2974 RMK FEW120 FEW280=
200804190100 METAR MRLB 190100Z 09015KT CAVOK 30/20 A2975 RMK FEW120 FEW280=
200804190200 METAR MRLB 190200Z 08015KT 9999 NSC 30/21 A2976 RMK TRAZAS AC-CI=
200804190300 METAR MRLB NIL=
200804190400 METAR MRLB NIL=
200804190500 METAR MRLB NIL=
200804190600 METAR MRLB NIL=
200804190700 METAR MRLB NIL=
200804190800 METAR MRLB NIL=
200804190900 METAR MRLB NIL=
200804191000 METAR MRLB NIL=
200804191100 METAR MRLB NIL=
200804191200 METAR MRLB 191200Z 34003KT CAVOK 24/21 A2979 FEW260=
200804191300 METAR MRLB 191300Z 35002KT CAVOK 26/21 A2982 RMK FEW260=
200804191400 METAR MRLB 191400Z 25002KT CAVOK 30/21 A2983 RMK FEW260=
200804191500 METAR MRLB 191500Z 09003KT CAVOK 32/20 A2984 RMK FEW260=
200804191600 METAR MRLB 191600Z 04004KT 9999 FEW035 SCT250 34/19 A2983=
200804191700 METAR MRLB 191700Z 06012KT 9999 FEW040 SCT250 35/19 A2981=
200804191800 METAR MRLB 191800Z 06014KT 9999 FEW040 SCT250 36/18 A2981=
200804191900 METAR MRLB 191900Z 10012KT 9999 FEW040 BKN250 36/18 A2976=
200804192000 METAR MRLB 192000Z 09012KT 9999 SCT040 SCT250 36/18 A2973=
200804192100 METAR MRLB 192100Z 10013KT 9999 FEW040 BKN250 36/19 A2971=
200804192200 METAR MRLB 192200Z 07011KT 9999 SCT040 BKN250 35/19 A2971=
200804192300 METAR MRLB 192300Z 08012KT 9999 FEW040 BKN250 33/20 A2971 RMK HZ ARND=
200804200000 METAR MRLB 200000Z 08015KT 9999 FEW035 OVC250 31/20 A2973 RMK HZ ARND=
200804200100 METAR MRLB 200100Z 09014KT 9999 FEW035 BKN250 30/21 A2975=
200804200200 METAR MRLB NIL=
200804200300 METAR MRLB NIL=
200804200400 METAR MRLB NIL=
200804200500 METAR MRLB NIL=
200804200600 METAR MRLB NIL=
200804200700 METAR MRLB NIL=
200804200800 METAR MRLB NIL=
200804200900 METAR MRLB NIL=
200804201000 METAR MRLB NIL=
200804201100 METAR MRLB NIL=
200804201200 METAR MRLB 201200Z 00000KT CAVOK 25/21 A2977 RMK BKN250=
200804201300 METAR MRLB 201300Z 24004KT CAVOK 27/21 A2979 RMK OVC250=
200804201400 METAR MRLB 201400Z 00000KT CAVOK 30/20 A2981 RMK BKN250=
200804201500 METAR MRLB 201500Z 34005KT CAVOK 33/20 A2981 RMK BKN250=
200804201600 METAR MRLB 201600Z 07015KT CAVOK 34/20 A2980 RMK SCT250=
200804201700 METAR MRLB 201700Z 08018KT CAVOK 35/19 A2979 RMK SCT250=
200804201800 METAR MRLB 201800Z 08015KT 9999 FEW040 SCT250 35/19 A2977=
200804201900 METAR MRLB 201900Z 07018KT 9999 FEW045 SCT250 36/19 A2974=
200804202000 METAR MRLB 202000Z 10014KT 9999 FEW040 SCT250 36/20 A2972=
200804202100 METAR MRLB 202100Z 08018KT 9999 FEW040 SCT250 35/21 A2971=
200804202200 METAR MRLB 202200Z 08017KT 9999 FEW035 SCT250 33/21 A2971=
200804202300 METAR MRLB 202300Z 07017KT 9999 FEW035 BKN250 32/21 A2972=
200804210000 METAR MRLB NIL=
200804210100 METAR MRLB 210100Z 08012KT CAVOK 30/21 A2977 FEW100=
200804210200 METAR MRLB 210200Z 09014KT CAVOK 29/21 A2979 SCT180=
200804210300 METAR MRLB NIL=
200804210400 METAR MRLB NIL=
200804210500 METAR MRLB NIL=
200804210600 METAR MRLB NIL=
200804210700 METAR MRLB NIL=
200804210800 METAR MRLB NIL=
200804210900 METAR MRLB NIL=
200804211000 METAR MRLB NIL=
200804211100 METAR MRLB NIL=
200804211200 METAR MRLB 211200Z 03006KT CAVOK 23/20 A2979 RMK OVC250 TRACE SC HZ LGT ARND=
200804211300 METAR MRLB 211300Z 11002KT CAVOK 28/21 A2981 OVC250 TRACE SCT HZ LGT ARND=
200804211400 METAR MRLB 211400Z 08012KT CAVOK 30/21 A2982 BKN250 HZ ARND=
200804211500 METAR MRLB 211500Z 07014KT CAVOK 32/19 A2982 BKN250 TRACE SCT=
200804211600 METAR MRLB 211600Z 09014KT CAVOK 34/18 A2981 BKN250 TRACE CU=
200804211700 METAR MRLB 211700Z 10014KT CAVOK 35/18 A2980 SCT250 TRACE CU=
200804211800 METAR MRLB 211800Z 08012KT CAVOK 35/18 A2978 BKN250 TRACE CU=
200804211900 METAR MRLB 211900Z 09012KT 9999 FEW040 BKN250 36/18 A2976=
200804212000 METAR MRLB 212000Z 07012KT 9999 FEW040 BKN250 36/18 A2973=
200804212100 METAR MRLB 212100Z 09010KAT 9999 FEW040 BKN250 36/18 A2972=
200804212200 METAR MRLB 212200Z 09009KT 90999 FEW040 BKN250 35/19 A2972=
200804212300 METAR MRLB 212300Z 09011KT 9999 FEW040 BKN250 34/19 A2972=
200804220000 METAR MRLB 220000Z 10009KT CAVOK 32/20 A2974 SCT250=
200804220100 METAR MRLB 220100Z 09007KT CAVOK 30/20 A2977 SCT250=
200804220200 METAR MRLB 220200Z 11007KT CAVOK 29/21 A2978 SCT250=
200804220300 METAR MRLB NIL=
200804220400 METAR MRLB NIL=
200804220500 METAR MRLB NIL=
200804220600 METAR MRLB NIL=
200804220700 METAR MRLB NIL=
200804220800 METAR MRLB NIL=
200804220900 METAR MRLB NIL=
200804221000 METAR MRLB NIL=
200804221100 METAR MRLB NIL=
200804221200 METAR MRLB 221200Z 00000KT CAVOK 23/20 A2980 RMK BKN250=
200804221300 METAR MRLB 221300Z 20003KT CAVOK 26/21 A2981 BKN250=
200804221400 METAR MRLB 221400Z 00000KT CAVOK 29/21 A2983 BKN250=
200804221500 METAR MRLB 221500Z 06002KT CAVOK 31/21 A2982 BKN250 TRACE CU=
200804221600 METAR MRLB 221600Z 12010KT 9999 FEW035 SCT250 33/21 A2983=
200804221700 METAR MRLB NIL=
200804221800 METAR MRLB 221800Z 09011KT 9999 FEW035 BKN250 35/20 A2980=
200804221900 METAR MRLB 221900Z 09013KT 9999 SCT035 BKN250 35/20 A2977=
200804222000 METAR MRLB 222000Z 08011KT 9999 FEW035 SCT250 34/20 A2974=
200804222100 METAR MRLB 222100Z 10010KT 9999 FEW035 SCT250 35/20 A2972=
200804222200 METAR MRLB 222200Z 09010KT 9999 FEW040 SCT250 35/20 A2971=
200804222300 METAR MRLB 222300Z 07008KT 9999 FEW040 BKN250 34/20 A2972=
200804230000 METAR MRLB 230000Z 07004KT 9999 FEW040 OVC250 32/19 A2974=
200804230100 METAR MRLB 230100Z 15003KT 9999 FEW040 BKN240 31/21 A2976=
200804230200 METAR MRLB NIL=
200804230300 METAR MRLB NIL=
200804230400 METAR MRLB NIL=
200804230500 METAR MRLB NIL=
200804230600 METAR MRLB NIL=
200804230700 METAR MRLB NIL=
200804231100 METAR MRLB NIL=
200804231200 METAR MRLB NIL=
200804231300 METAR MRLB NIL=
200804231400 METAR MRLB NIL=
200804231500 METAR MRLB NIL=
200804231600 METAR MRLB NIL=
200804231700 METAR MRLB 231700Z 10011KT CAVOK 34/19 A2983 RMK SCT250=
200804231800 METAR MRLB 231800Z 06013KT 9999 FEW040 SCT250 35/18 A2980=
200804231900 METAR MRLB 231900Z 08010KT 9999 FEW035 SCT250 36/18 A2977=
200804232000 METAR MRLB 232000Z 06016KT 9999 FEW030 SCT250 37/17 A2993=
200804232100 METAR MRLB 232100Z 08013KT 9999 FEW035 SCT250 36/17 A2973=
200804232200 METAR MRLB 232200Z 04014KT 9999 FEW030 SCT250 36/17 A2972 RMK TCU DST S=
200804232300 METAR MRLB 232300Z 07013KT 9999 RFEW035 SCT250 34/18 A2973 RMK TCU DST S=
200804240000 METAR MRLB 240000Z 07010KT 9999 FEW045 SCT250 32/19 A2975 RMK TCU DST S=
200804240100 METAR MRLB 240100Z 09008KT 9999 FEW030 SCT120 31/19 A2978 RMK CB DST S=
200804240200 METAR MRLB 240200Z 10006KT 9999 FEW035 SCT180 29/20 A2980=
200804240300 METAR MRLB NIL=
200804240400 METAR MRLB NIL=
200804240500 METAR MRLB NIL=
200804240600 METAR MRLB NIL=
200804240700 METAR MRLB NIL=
200804240800 METAR MRLB NIL=
200804240900 METAR MRLB NIL=
200804241000 METAR MRLB NIL=
200804241100 METAR MRLB NIL=
200804241200 METAR MRLB 241200Z VRB03KT CAVOK 21/19 A2984 SCT270 HZ LGT ARND=
200804241300 METAR MRLB 241300Z 33003KT CAVOK 24/20 A2987 RMK TRACE AC SCT250 HZY=
200804241400 METAR MRLB 241400Z 23005KT CAVOK 28/20 A2989 RMK FEW250 TRACE SC=
200804241500 METAR MRLB 241500Z 13003KT CAVOK 31/18 A2999 RMK FEW250 TRACE SC=
200804241600 METAR MRLB 241600Z 09010KT CAVOK 33/15 A2988 RMK FEW250 TRACE CU=
200804241700 METAR MRLB 241700Z 09010KT 9999 NSC 35/13 A2986 TRACE CU CI=
200804241800 METAR MRLB 241800Z 10010KT 9999 NSC 36/14 A2984 RMK TRACE CU=
200804241900 METAR MRLB 241900Z 08010KT 9999 NSC 36/14 A2980 RMK TRACE CU CI=
200804242000 METAR MRLB 242000Z 04006KT 9999 NSC 36/14 A2977 RMK TRACE CU CI=
200804242100 METAR MRLB NIL=
200804242200 METAR MRLB NIL=
200804242300 METAR MRLB NIL=
200804250000 METAR MRLB NIL=
200804250100 METAR MRLB 250100Z 20005KT CAVOK 30/20 A2979 RMK BKN250=
200804250200 METAR MRLB NIL=
200804250300 METAR MRLB NIL=
200804250400 METAR MRLB NIL=
200804250500 METAR MRLB NIL=
200804250600 METAR MRLB NIL=
200804250700 METAR MRLB NIL=
200804250800 METAR MRLB NIL=
200804250900 METAR MRLB NIL=
200804251000 METAR MRLB NIL=
200804251100 METAR MRLB NIL=
200804251200 METAR MRLB 251200Z 06003KT CAVOK 21/18 A2982 RMK SCT250=
200804251300 METAR MRLB 251300Z 04003KT CAVOK 25718 A2984 RMK SCT260=
200804251400 METAR MRLB 251400Z 31002KT CAVOK 27/18 A2985 RMK SCT260=
200804251500 METAR MRLB 251500Z 32002KT CAVOK 31/16 A2985 RMK SCT260=
200804251600 METAR MRLB 251600Z 03006KT CAVOK 33/15 A2984 RMK SCT260=
200804251700 METAR MRLB 251700Z 10010KT CAVOK 35/15 A2982 RMK BKN260=
200804251800 METAR MRLB 251800Z 07008KT CAVOK 35/15 A2979 RMK BKN260=
200804251900 METAR MRLB 251900Z 05006KT CAVOK 36/16 A2975 RMK BKN250 TRACE CU=
200804252000 METAR MRLB 252000Z 10008KT CAVOK 36715 A2973 RMK BKN250 TRACE CU=
200804252100 METAR MRLB 252100Z 09011KT 9999 FEW035 BKN250 36/15 A2971=
200804252200 METAR MRLB 252200Z 10009KT 9999 FEW035 BKN250 35/15 A2970=
200804252300 METAR MRLB 252300Z 07010KT 9999 FEW035 BKN250 33/15 A2971=
200804260000 METAR MRLB 260000Z 06007KT 9999 FEW035 OVC250 32/16 A2974=
200804260100 METAR MRLB 260100Z 27003KT 9999 FEW935 BKN250 30/16 A2977=
200804260200 METAR MRLB 260200Z 12003KT 9999 FEW035 BKN240 29/19 A2979=
200804260300 METAR MRLB NIL=
200804260400 METAR MRLB NIL=
200804260500 METAR MRLB NIL=
200804260600 METAR MRLB NIL=
200804260700 METAR MRLB NIL=
200804260800 METAR MRLB NIL=
200804260900 METAR MRLB NIL=
200804261000 METAR MRLB NIL=
200804261100 METAR MRLB NIL=
200804261200 METAR MRLB 261200Z 00000KT CAVOK 20/18 A2982 RMK BKN250=
200804261300 METAR MRLB 261300Z 03004KT CAVOK 24/19 A2983 SCT250=
200804261400 METAR MRLB 261400Z 00000KT CAVOK 29/18 A2984 SCT280=
200804261500 METAR MRLB 261500Z 27005KT CAVOK 30/18 A2985 BKN250=
200804261600 METAR MRLB 261600Z 10008KT CAVOK 33/13 A2985 BKN250=
200804261700 METAR MRLB 261700Z 10009KT CAVOK 34/12 A2983 SCT250=
200804261800 METAR MRLB 261800Z 11006KT CAVOK 35/13 A2981 SCT250=
200804261900 METAR MRLB 261900Z 12007KT CAVOK 36/14 A2977 SCT250=
200804262000 METAR MRLB 262000Z 27012KT CAVOK 36/15 A2974 SCT250=
200804262100 METAR MRLB 262100Z 25012KT 9999 FEW040 SCT250 36/16 A2972=
200804262200 METAR MRLB 262200Z 23012KT 9999 FEW045 SCT250 34/17 A2971=
200804262300 METAR MRLB 262300Z 24009KT 9999 FEW045 SCT250 33/16 A2973=
200804262353 METAR MRLB 270000Z 2106KT CAVOK 31/16 A2975 FEW100 SCT250=
200804270000 METAR MRLB 270000Z 2106KT CAVOK 31/16 A2975 FEW100 SCT250=
200804270100 METAR MRLB 270100Z 18006KT CAVOK 30/18 A2978 FEW150=
200804270200 METAR MRLB 270200Z 15005KT CAVOK 29/19 A2980 FEW150=
200804270300 METAR MRLB NIL=
200804270400 METAR MRLB NIL=
200804270500 METAR MRLB NIL=
200804270600 METAR MRLB NIL=
200804270700 METAR MRLB NIL=
200804270800 METAR MRLB NIL=
200804270900 METAR MRLB NIL=
200804271000 METAR MRLB NIL=
200804271100 METAR MRLB NIL=
200804271200 METAR MRLB 271200Z 05004KT CAVOK 19/15 A2981 RMK BKN250 HZ LEVE ARND=
200804271300 METAR MRLB 271300Z 00000KT CAVOK 24/17 A2984 BKN270 HZ ARND=
200804271400 METAR MRLB 271400Z 00000KT CAVOK 28/16 A2985 SCT270 HZ ARND=
200804271500 METAR MRLB 271500Z 06006KT CAVOK 31/16 A2984 BKN280 HZY=
200804271600 METAR MRLB 271600Z 08013KT CAVOK 33/14 A2983 BKN280 HZY=
200804271700 METAR MRLB 271700Z 07011KT CAVOK 34/15 A2981 BKN250 HZ ARND=
200804271800 METAR MRLB 271800Z 08012KT CAVOK 35/16 A2978 BKN250 HZ ARND=
200804271900 METAR MRLB 271900Z 09008KT CAVOK 35/16 A2976 BKN250 TRACE CU HZY=
200804272000 METAR MRLB 272000Z 09007KT 9999 FEW040 BKN250 35/15 A2973 HZ ARND=
200804272100 METAR MRLB 272100Z 08008KT 9999 FEW040 BKN250 35/17 A2972 RMK HZ LEVE ARND=
200804272200 METAR MRLB 272200Z 11011KT 9999 FEW040 BKN250 34/17 A2971 RMK HZ LEVE ARND=
200804272300 METAR MRLB 272300Z 10010KT CAVOK 33/17 A2973 RMK OVC250 HZ LEVE ARND=
200804280000 METAR MRLB 280000Z 05007KT CAVOK 32/17 A2976 RMK BKN150 SCT250 HZ LEVE ARND=
200804280100 METAR MRLB 280100Z 00000KT CAVOK 30/21 A2979 RMK BKN140 FEW250=
200804280200 METAR MRLB 280200Z 10007KT CAVOK 29/18 A2983 RMK OVC140=
200804280300 METAR MRLB NIL=
200804280400 METAR MRLB NIL=
200804280500 METAR MRLB NIL=
200804280600 METAR MRLB NIL=
200804280700 METAR MRLB NIL=
200804280800 METAR MRLB NIL=
200804280900 METAR MRLB NIL=
200804281000 METAR MRLB NIL=
200804281100 METAR MRLB NIL=
200804281200 METAR MRLB 281200Z 00000KT CAVOK 21/16 A2986 BKN240=
200804281300 METAR MRLB 281300Z 00000KT CAVOK 24/17 A2988 RMK OVC240=
200804281400 METAR MRLB 281400Z 30002KT CAVOK 26/18 A2989 RMK BKN240=
200804281500 METAR MRLB 281500Z 29002KT CAVOK 28/17 A2989 RMK BKN240 HZ ARND=
200804281600 METAR MRLB 281600Z 32002KT CAVOK 33/14 A2987 RMK BKN250 HZ ARND=
200804281700 METAR MRLB 281700Z 06004KT CAVOK 34/14 A2984 RMK BKN250=
200804281800 METAR MRLB 281800Z 32004KT CAVOK 34/15 A2982 RMK BKN250=
200804281900 METAR MRLB 281900Z 28003KT CAVOK 35/15 A2978 RMK BKN250=
200804282000 METAR MRLB 282000Z 06008KT 9999 FEW035 BKN250 35/16 A2975=
200804282100 METAR MRLB 282100Z 07009KT 9999 FEW035 OVC250 26/15 A2974=
200804282200 METAR MRLB 282200Z 07008KT 9999 FEW035 BKN250 35/16 A2973=
200804282300 METAR MRLB 282300Z 06012KT 9999 FEW040 BKN250 34/18 A2974=
200804290000 METAR MRLB 290000Z 06010KT CAVOK 32/19 A2975 RMK BKN240 HZY=
200804290100 METAR MRLB 290100Z 07008KT CAVOK 30/20 A2978 RMK BKN240=
200804290200 METAR MRLB NIL=
200804290300 METAR MRLB NIL=
200804290400 METAR MRLB NIL=
200804290500 METAR MRLB NIL=
200804290600 METAR MRLB NIL=
200804290700 METAR MRLB NIL=
200804290800 METAR MRLB NIL=
200804290900 METAR MRLB NIL=
200804291000 METAR MRLB NIL=
200804291100 METAR MRLB NIL=
200804291200 METAR MRLB 291200Z 26004KT CAVOK 25/20 A2987 SCT250=
200804291300 METAR MRLB 291300Z 30006KT CAVOK 26/20 A2988 RMK SCT250=
200804291400 METAR MRLB 291400Z 30005KT CAVOK 29/20 A2989 RMK SCT250=
200804291500 METAR MRLB 291500Z 00000KT 9999 FEW035 BKN250 31/20 A2989=
200804291600 METAR MRLB 291600Z 08018KT 9999 FEW030 SCT250 33/20 A2987=
200804291700 METAR MRLB 291700Z 08022KT 9999 FEW035 BKN250 33/20 A2985=
200804291800 METAR MRLB 291800Z 07020KT 9999 FEW035 BKN250 34/19 A2983=
200804291900 METAR MRLB 291900Z 06020KT 9999 FEW030 SCT250 35/19 A2981=
200804292000 METAR MRLB 292000Z 06018KT 9999 FEW030 SCT100 BKN250 34/18 A2979=
200804292100 METAR MRLB 292100Z 10013KT 9999 FEW035 SCT100 BKN250 34/18 A2978=
200804292200 METAR MRLB 292200Z 07017KT 9999 FEW040 SCT150 BKN250 32/19 A2978=
200804292300 METAR MRLB 292300Z 06012KT 9999 FEW045 SCT180 BKN250 31/20 A2979=
200804300000 METAR MRLB 300000Z 07010KT CAVOK 30/20 A2981 RMK FEW140 SCT250=
200804300100 METAR MRLB 300100Z 08007KT CAVOK 30/20 A2984 RMK FEW150 SCT250=
200804300200 METAR MRLB NIL=
200804300300 METAR MRLB 300300Z 07015KT 9999 FEW040 BKN250 34/1 A2975 FEW130 HZY=
200804300400 METAR MRLB NIL=
200804300500 METAR MRLB NIL=
200804300600 METAR MRLB NIL=
200804300700 METAR MRLB NIL=
200804300800 METAR MRLB NIL=
200804300900 METAR MRLB NIL=
200804301000 METAR MRLB NIL=
200804301100 METAR MRLB NIL=
200804301200 METAR MRLB 301200Z 17004KT CAVOK 24/20 A2983 RMK BKN140 FEW250 HZ LEVE ARND=
200804301300 METAR MRLB 301300Z 21003KT CAVOK 27/21 A2984 RMK SCT140 BKN250 HZ LGT ARND=
200804301400 METAR MRLB 301400Z 33003KT CAVOK 27/21 A2986 RMK FEW140 BKN200 HZ LGT ARND=
200804301500 METAR MRLB 301500Z 29002KT CAVOK 30/20 A2987 RMK HZ LGT ARND=
200804301600 METAR MRLB 301600Z 05005KT CAVOK 33/20 A2985 RMK BKN250 HZ ARND TRAZAS CU=
200804301700 METAR MRLB 301700Z 09014KT CAVOK 33/20 A2983 RMK BKN250 TRAZAS CU HZ LGT ARND=
200804301800 METAR MRLB 301800Z 08015KT CAVOK 34/19 A2981 RMK TRAZAS CU BKN250 HZ LGT ARND=
200804301900 METAR MRLB 301900Z 09016KT CAVOK 33/19 A2978 RMK SCT140 BKN250 TRAZAS SC HZ LGT ARND=
200804302000 METAR MRLB 302000Z 08016KT CAVOK 35/18 A2976 RMK SCT140 BKN250 HZ LGT ARND=
200804302100 METAR MRLB 302100Z 07015KT 9999 FEW040 BKN250 34/1 A2975 FEW130 HZY=
200804302200 METAR MRLB 302200Z 08015KT 9999 FEW040 SCT130 BKN250 33/20 A2975 TCU SE S=
200804302300 METAR MRLB 302300Z 08014KT CAVOK 32/19 A2977 BKN130 SCT250 CB S HZY=
200805010000 METAR MRLB 010000Z 09012KT 9999 FEW040 BKN130 31/20 A2980 FEW250 HZY=
200805010100 METAR MRLB 010100Z 12008KT 9999 SCT040 BKN130 29/19 A2982=
200805010200 METAR MRLB 010200Z 13008KT 9999 SCT040 BKN120 29/19 A2984=
200805010300 METAR MRLB NIL=
200805010400 METAR MRLB NIL=
200805010500 METAR MRLB NIL=
200805010600 METAR MRLB NIL=
200805010700 METAR MRLB NIL=
200805010800 METAR MRLB NIL=
200805010900 METAR MRLB NIL=
200805011000 METAR MRLB NIL=
200805011100 METAR MRLB NIL=
200805011200 METAR MRLB 011200Z 06006KT CAVOK 24/20 A2984 RMK BKN250=
200805011300 METAR MRLB 011300Z 08002KT CAVOK 28/20 A2986 RMK SCT250 HZ ARND=
200805011400 METAR MRLB 011400Z 19003KT CAVOK 30/20 A2987 RMK BKN250 HZ ARND=
200805011500 METAR MRLB 011500Z 03008KT CAVOK 32/20 A2986 RMK BKN250 HZ ARND=
200805011600 METAR MRLB 011600Z 07011KT CAVOK 33/19 A2985 RMK BKN250=
200805011700 METAR MRLB NIL=
200805011800 METAR MRLB NIL=
200805011900 METAR MRLB 011900Z 15006KT 9999 SCT035 OVC250 34/18 A2978=
200805012000 METAR MRLB 012000Z 29007KT 9999 SCT035 OVC240 34/21 A2976=
200805012100 METAR MRLB 012100Z 29009KT 9999 SCT040 OVC240 33/21 A2974=
200805012200 METAR MRLB 012200Z 29011KT 9999 SCT035 OVC240 32/22 A2974=
200805012300 METAR MRLB 012300Z 29010KT 9999 SCT035 BKN240 30/23 A2976=
200805012354 METAR MRLB 02000Z 29007KT 9999 SCT035 OVC240 29/24 A2978 HZ ARND=
200805020000 METAR MRLB 02000Z 29007KT 9999 SCT035 OVC240 29/24 A2978 HZ ARND=
200805020100 METAR MRLB 020100Z 22003KT 9999 SCT035 OVC220 28/24 A2981=
200805020200 METAR MRLB NIL=
200805020300 METAR MRLB NIL=
200805020400 METAR MRLB NIL=
200805020500 METAR MRLB NIL=
200805020600 METAR MRLB NIL=
200805020700 METAR MRLB NIL=
200805020800 METAR MRLB NIL=
200805020900 METAR MRLB NIL=
200805021000 METAR MRLB NIL=
200805021100 METAR MRLB NIL=
200805021200 METAR MRLB 021200Z 00000KT CAVOK 23/21 A2983 RMK SCT250 HZ ARND=
200805021300 METAR MRLB 021300Z 00000KT CAVOK 26/21 A2986 SCT250=
200805021400 METAR MRLB 021400Z 34008KT CAVOK 28/21 A2987 SCT250=
200805021500 METAR MRLB 021500Z 00000KT CAVOK 30/20 A2987 SCT250=
200805021600 METAR MRLB 021600Z 19006KT CAVOK 33/19 A2986 SCT250=
200805021700 METAR MRLB 021700Z 19007KT 9999 FEWO40 SCT250 34/19 A2984=
200805021800 METAR MRLB 021800Z 15007KT 9999 FEW030 SCT250 34/18 A2981=
200805021900 METAR MRLB 021900Z 20005KT 9999 SCT030 BKN250 34/16 A2978=
200805022000 METAR MRLB 022000Z 27015KT 9999 SCT030 BKN250 33/20 A2976=
200805022100 METAR MRLB 022100Z 27014KT 9999 FEW030 SCT250 32/20 A2974=
200805022200 METAR MRLB 022200Z 26014KT 9999 FEW030 SCT250 32/20 A2974 RMK TCU DST S=
200805022300 METAR MRLB 022300Z 28010KT 9999 FEW030 SCT250 31/22 A2975 RMK TCU DST S=
200805030000 METAR MRLB 030000Z 19007KT 9999 SCT045 BKN250 29/23 A2979 RMK CB DST S=
200805030100 METAR MRLB 030100Z 17008KT 9999 FEW040 SCT150 28/23 A2981=
200805030200 METAR MRLB 030200Z 16007KT 9999 FEW040 SCT180 27/22 A2983=
200805030300 METAR MRLB NIL=
200805030400 METAR MRLB NIL=
200805030500 METAR MRLB NIL=
200805030600 METAR MRLB NIL=
200805030700 METAR MRLB NIL=
200805030800 METAR MRLB NIL=
200805030900 METAR MRLB NIL=
200805031000 METAR MRLB NIL=
200805031100 METAR MRLB NIL=
200805031200 METAR MRLB 031200Z 00000KT 9999 FEW020 BKN230 24/23 A2983 HZY=
200805031300 METAR MRLB 031300Z 14002KT 9999 FEW015 BKN250 25/24 A2985 RMK CB DST W TCU DST SW HZ LEVE ARND=
200805031400 METAR MRLB 031400Z 08003KT CAVOK 28/24 A2986 RMK TRCE CU OVC250 TCU DST S SW HZ LEVE ARND=
200805031500 METAR MRLB 031500Z VRB03KT CAVCOK 30/22 A2986 RMK OVC250 TRACE CU HZ=
200805031600 METAR MRLB 031600Z VRB03KT 9999 FEW035 BKN250 32/19 A2985 RMK HZ LEVE ARND=
200805031700 METAR MRLB 031700Z 23008KT 9999 FEW035 BKN250 33/21 A2984 RMK HZ LEVE ARND=
200805031800 METAR MRLB 031800Z 26006KT 9999 SCT030 BKN230 33/21 A2982 RMK HZ LEVE ARND=
200805031900 METAR MRLB 031900Z 28011KT 9999 FEW030 BKN230 32/21 A2979 RMK HZ LEVE ARND=
200805032000 METAR MRLB 032000Z 28010KT 9999 FEW030 BKN230 33/21 A2976 RMK LEVE HZ ARND=
200805032100 METAR MRLB 032100Z 27003KT 9999 FEW030 BKN230 32/22 A2975 HZ LGT ARND DST S/SE=
200805032200 METAR MRLB 032200Z 27011KT CAVOK 31/22 A2974 RMK OVC200 TRACE CU HZY=
200805032300 METAR MRLB 032300Z 22007KT 9999 FEW035 BKN200 31/22 A2976 RMK FEW140 HZY=
200805040000 METAR MRLB 040000Z 270006KT 9999 FEW035 BKN250 29/23 A2979 RMK FEW140 HZ LGT ARND=
200805040100 METAR MRLB 040100Z 23004KT 999 SCT035 BKN250 29/24 A2981=
200805040200 METAR MRLB 040200Z 13003KT 9999 SCT035 SCT250 28/24 A2983=
200805040300 METAR MRLB NIL=
200805040400 METAR MRLB NIL=
200805040500 METAR MRLB NIL=
200805040600 METAR MRLB NIL=
200805040700 METAR MRLB NIL=
200805040800 METAR MRLB NIL=
200805040900 METAR MRLB NIL=
200805041000 METAR MRLB NIL=
200805041100 METAR MRLB NIL=
200805041200 METAR MRLB 041200Z 15004KT CAVOK 23/21 A2984 SCT250 HZ ARND=
200805041300 METAR MRLB 041300Z 19002KT CAVOK 27/21 A2986 RMK BKN250 HZ ARND=
200805041400 METAR MRLB 041400Z 20005KT CAVOK 29/21 A2987 RMK BKN250 HZ ARND=
200805041500 METAR MRLB 041500Z 12004KT CAVOK 31/19 A2987 BKN250 HZY=
200805041600 METAR MRLB 041600Z 08010KT CAVOK 32/16 A2987 RMK BKN240 HZ ARND=
200805041700 METAR MRLB 041700Z 08009KT CAVOK 33/14 A2985 RMK OVC240 HZY=
200805041800 METAR MRLB 041800Z 06009KT CAVOK 35/15 A2983 RMK BKN240 HZY=
200805041900 METAR MRLB 041900Z 08006KT CAVOK 35/16 A2980 RMK OVC240 HZY=
200805042000 METAR MRLB 042000Z 27005KT 9999 FEW035 OVC240 34/20 A2978=
200805042100 METAR MRLB 042100Z 28012KT 9999 FEW035 OVC240 33/20 A2978 RMK HZ ARND=
200805042200 METAR MRLB 042200Z 28011KT 9999 FEW040 OVC240 30/23 A2978 RMK HZ ARND=
200805042300 METAR MRLB 042300Z 29007KT 9999 FEW040 BKN230 30/24 A2979 RMK HZ ARND=
200805050000 METAR MRLB 050000Z 300005KT 9999 FEW040 OVC240 29/23 A2981 RMK HZ ARND=
200805050100 METAR MRLB 050100Z 32003KT 9999 FEW040 OVC240 27/23 A2983=
200805050200 METAR MRLB NIL=
200805050300 METAR MRLB NIL=
200805050400 METAR MRLB NIL=
200805050500 METAR MRLB NIL=
200805050600 METAR MRLB NIL=
200805050700 METAR MRLB NIL=
200805050800 METAR MRLB NIL=
200805050900 METAR MRLB NIL=
200805051000 METAR MRLB NIL=
200805051100 METAR MRLB NIL=
200805051200 METAR MRLB NIL=
200805051300 METAR MRLB 051300Z 24004KT CAVOK 24/21 A2988 RMK BKN250=
200805051400 METAR MRLB 051400Z 31004KT CAVOK 26/21 A2980 RMK SCT250=
200805051500 METAR MRLB 051500Z 09010KT CAVOK 31/1 A2989 RMK SCT250=
200805051600 METAR MRLB 051600Z 07011KT CAVOK 33/17 A2987 RMK SCT250=
200805051700 METAR MRLB 051700Z 08012KT CAVOK 34/17 A2985 RMK SCT250=
200805051800 METAR MRLB 051800Z 10011KT CAVOK 35/16 A2983 RMK SCT250=
200805051900 METAR MRLB 051900Z 10012KT 9999 SCT030 BKN250 34/16 A2981=
200805052000 METAR MRLB 052000Z 09011KT 9999 SCT025 BKN250 34/18 A2978=
200805052100 METAR MRLB 052100Z 08012KT 9999 FEW035 BKN250 34/18 A2975=
200805052200 METAR MRLB 052200Z 08008KT 9999 FEW045 SCT250 24/17 A2975=
200805052300 METAR MRLB 052300Z 09009KT 9999 FEW045 SCT250 34/18 A2976=
200805060000 METAR MRLB 060000Z 08013KT CAVOK 32/17 A2978 FEW080 BKN250=
200805060100 METAR MRLB 060100Z 08012KT CAVOK 30/17 A2980 SCT250=
200805060200 METAR MRLB 060200Z 09010KT CAVOK 29/19 A2982 SCT250=
200805060300 METAR MRLB NIL=
200805060400 METAR MRLB NIL=
200805060500 METAR MRLB NIL=
200805060600 METAR MRLB NIL=
200805060700 METAR MRLB NIL=
200805060800 METAR MRLB NIL=
200805060900 METAR MRLB NIL=
200805061000 METAR MRLB NIL=
200805061100 METAR MRLB NIL=
200805061200 METAR MRLB 061200Z 00000KT CAVOK 25/19 A2981 RMK TRACE SC FEW140 BKN250=
200805061300 METAR MRLB 061300Z 10010KT CAVOK 29/20 A2983 BKN250 TRAZAS SCT=
200805061400 METAR MRLB 061400Z 06013KT CAVOK 31/19 A2984 TRAZAS SCT BKN250=
200805061500 METAR MRLB 061500Z 07012KT CAVOK 32/19 A2984 TRAZAS CU BKN250=
200805061600 METAR MRLB 061600Z 05014KT CAVOK 34/19 A2982 BKN250 TRAZAS CU=
200805061700 METAR MRLB 061700Z 07010KT 9999 FEW035 BKN250 35/18 A2981=
200805061800 METAR MRLB 061800Z 09011KT 9999 FEW035 SCT250 35/18 A2978=
200805061900 METAR MRLB 061900Z 08008KT 9999 FEW035 SCT250 36/17 A2976=
200805062000 METAR MRLB 062000Z 05009KT 9999 SCT040 37/18 A2973 FEW250=
200805062100 METAR MRLB 062100Z 08010KT 9999 SCT040 36/18 A2971 FEW250=
200805062200 METAR MRLB 062200Z 08010KT 9999 FEW040 36/18 A2970 FEW250=
200805062300 METAR MRLB 062300Z 06016KT 9999 FEW040 34/19 A2971 FEW250=
200805062355 METAR MRLB 070000Z 07010KT CAVOK 32/19 A2974 FEW250 TRACE AC CU TCU DIST SE=
200805070000 METAR MRLB 070000Z 07010KT CAVOK 32/19 A2974 FEW250 TRACE AC CU TCU=
200805070100 METAR MRLB 070100Z 07014KT CAVOK 31/19 A2976 RMK FEW250=
200805070200 METAR MRLB 070200Z 08013KT CAVOK 30/19 A2978 RMK FEW250=
200805070300 METAR MRLB NIL=
200805070400 METAR MRLB NIL=
200805070500 METAR MRLB NIL=
200805070600 METAR MRLB NIL=
200805070700 METAR MRLB NIL=
200805070800 METAR MRLB NIL=
200805070900 METAR MRLB NIL=
200805071000 METAR MRLB NIL=
200805071100 METAR MRLB NIL=
200805071200 METAR MRLB 071200Z 04004KT CAVOK 23/20 A2977 RMK SCT250=
200805071300 METAR MRLB 071300Z 07011KT CAVOK 29/19 A2978 RMK SCT250=
200805071400 METAR MRLB 071400Z 03008KT CAVOPK 30/20 A2979 RMK BKN250 TRACE CU=
200805071500 METAR MRLB 071500Z 08015KT CAVOK 32/19 A2979 RMK BKN250=
200805071600 METAR MRLB 071600Z 06016KT CAVOK 34/18 A2978 RMK BKN250=
200805071700 METAR MRLB 071700Z 09010KT 9999 FEW035 BKN250 35/19 A2977=
200805071800 METAR MRLB 071800Z 07006KT 9999 FEW035 BKN250 35/19 A2995=
200805071900 METAR MRLB 071900Z 08009KT 9999 FEW040 BKN240 35/19 A2972=
200805072000 METAR MRLB 072000Z 08011KT 9999 FEW035 OVC250 36/19 A2969=
200805072100 METAR MRLB 072100Z 08010KT 9999 FEW035 BKN250 35/19 A2967=
200805072200 METAR MRLB 072200Z 06013KT 9999 SCT035 SCT250 35/18 A2967=
200805072300 METAR MRLB 072300Z 06014KT 9999 FEW040 BKN250 34/19 A2968 RMK HZ ARND=
200805080000 METAR MRLB 080000Z 07012KT CAVOK 31/18 A2971 RMK BKN240 HZ ARND=
200805080100 METAR MRLB 080100Z 08009KT CAVOK 30/19 A2972 RMK BKN240=
200805080200 METAR MRLB 080200Z 08010KT CAVOK 29/19 A2975 RMK BKN240=
200805080300 METAR MRLB NIL=
200805080400 METAR MRLB NIL=
200805080500 METAR MRLB NIL=
200805080600 METAR MRLB NIL=
200805080700 METAR MRLB NIL=
200805080800 METAR MRLB NIL=
200805080900 METAR MRLB NIL=
200805081000 METAR MRLB NIL=
200805081100 METAR MRLB NIL=
200805081200 METAR MRLB 081200Z 00000KT CAVOK 25/190 A2977 SCT250=
200805081300 METAR MRLB 081300Z 25005KT CAVOK 26/19 A2978 RMK SCT250=
200805081400 METAR MRLB 081400Z 28007KT CAVOK 30/20 A2978 RMK SCT25=
200805081500 METAR MRLB 081500Z 08010KT CAVOK 32/20 A2978 RMK SCT250=
200805081600 METAR MRLB 081600Z 06007KT 9999 FEW030 SCT250 35/20 A2976=
200805081700 METAR MRLB 081700Z 10013KT 9999 SCT030 BKN250 35/20 A2975=
200805081800 METAR MRLB 081800Z 08012KT 9999 SCT030 BKN250 35/20 A2974=
200805081900 METAR MRLB 081900Z 10012KT 9999 SCT030 BKN250 36/20 A2972=
200805082000 METAR MRLB 082000Z 07015KT 9999 SCT030 BKN250 36/20 A2969=
200805082100 METAR MRLB 082100Z 09018KT 9999 SCT025 BKN250 35/21 A2969=
200805082200 METAR MRLB 082200Z 08012KT 9999 SCT045 BKN250 34/21 A2969=
200805082300 METAR MRLB 082300Z 07013KT 9999 SCT045 BKN250 33/21 A2970=
200805090000 METAR MRLB 090000Z 06010KT CAVOK 32/21 A2971 FEW100 BKN250=
200805090100 METAR MRLB 090100Z 08014KT CAVOK 31/21 A2972 RMK SCT250=
200805090200 METAR MRLB NIL=
200805090300 METAR MRLB NIL=
200805090400 METAR MRLB NIL=
200805090500 METAR MRLB NIL=
200805090600 METAR MRLB NIL=
200805090700 METAR MRLB NIL=
200805090800 METAR MRLB NIL=
200805090900 METAR MRLB NIL=
200805091000 METAR MRLB NIL=
200805091100 METAR MRLB NIL=
200805091200 METAR MRLB 091200Z 00000KT 9999 BKN040 SCT250 26/22 A2977 RMK TRACE AC HZ LGT ARND TCU DIST S=
200805091300 METAR MRLB 091300Z 06005KT 9999 FEW040 BKN230 29/22 A2979 TRACE AC HZ LGT ARND=
200805091400 METAR MRLB 091400Z 28004KT CAVOK 29/22 A2979 RMK BKN230 TRACE SC HZY=
200805091500 METAR MRLB 091500Z 03003KT 9999 FEW040 BKN230 32/22 A2982 RMK LGT HZ ARND=
200805091600 METAR MRLB 091600Z 05012KT CAVOK 33/22 A2980 RMK BKN140 SCT200 TRACE CU HZY=
200805091700 METAR MRLB 091700Z 08014KT 9999 SCT035 BKN200 34/21 A2978 LGT HZ ARND=
200805091800 METAR MRLB 091800Z 07016KT 9999 SCT035 BKN200 35/21 A2977 RMK LGT HZ ARND VEL MX VTO 21KT=
200805091900 METAR MRLB 091900Z 07016KT 9999 FEW035 SCT130 BKN250 33/22 A2976 TCU RN DST N SW LGT HZ ARND=
200805092000 METAR MRLB 092000Z 06014KT 9999 FEW040 BKN250 34/22 A2975 RMK CB DST S LGT HZ ARND=
200805092100 METAR MRLB 092100Z 09009KT 9999 BKN035 SCT130 34/21 A2973 RMK FEW250 CB DST S HZ LGT ARND=
200805092200 METAR MRLB 092200Z 08008KT 9999 BKN040 SCT130 33/22 A2974 RMK HZ LGT ARND=
200805092300 METAR MRLB 092300Z 08006KT 9999 SCT040 BKN130 33/22 A2975 RMK HZ LGT ARND=
200805100000 METAR MRLB 100000Z 12008KT 9999 FEW035 BKN250 31/22 A2076 RMK FEW130 HZ LGT ARND=
200805100100 METAR MRLB 100100Z 12009KT CAVOK 30/22 A2978 RMK FEW130 BKN250=
200805100200 METAR MRLB 100200Z 12008KT CAVOK 30/23 A2981 RMK BKN250=
200805100300 METAR MRLB NIL=
200805100400 METAR MRLB NIL=
200805100500 METAR MRLB NIL=
200805100600 METAR MRLB NIL=
200805100700 METAR MRLB NIL=
200805100800 METAR MRLB NIL=
200805100900 METAR MRLB NIL=
200805101000 METAR MRLB NIL=
200805101100 METAR MRLB NIL=
200805101200 METAR MRLB 101200Z 09003KT CAVOK 25/22 A2979 RMK SCT250 HZ ARND=
200805101300 METAR MRLB 101300Z 15003KT CAVOK 28/22 A2981 RMK SCT250 HZ ARND=
200805101400 METAR MRLB 101400Z 17006KT CAVOK 30/22 A2983 RMK BKN250 HZ ARND=
200805101500 METAR MRLB 101500Z 18005KT 9999 FEW035 SCT250 32/22 A2984 RMK HZ ARND=
200805101600 METAR MRLB 101600Z 16009KT 9999 SCT035 BKN20 33/22 A2983 RMK HZ ARND=
200805101700 METAR MRLB 101700Z 14005KT 9999 SCT035 BKN250 34/22 A2982 RMK HZ ARND=
200805101800 METAR MRLB 101800Z 17005KT 9999 SCT035 OVC240 34/22 A2978 RMK DST NE=
200805101900 METAR MRLB 101900Z 29010KT 9999 SCT035 BKN140 30/23 A2977 RMK RN DST E/SE=
200805102000 METAR MRLB 102000Z 31005KT 9999 SCT030 BKN120 27/25 A2976 RMK RN DST E/NE/N=
200805102100 METAR MRLB 102100Z 30006KT 9999 SCT035 BKN130 27/25 A2976 RN N S=
200805102200 METAR MRLB 102200Z 21007KT 9999 SCT030 OVC130 26/23 A2978 RN E SE=
200805102300 METAR MRLB 102300Z 05004KT 9999 4000E RA SCT025 BKN100 26/24 A2978=
200805110000 METAR MRLB 110000Z 07004KT 9999 SCT030 OVC100 25/24 A2983 RN DST E NE=
200805110100 METAR MRLB 110100Z 09004KT 9999 SCT035 BKN110 25/24 A2984=
200805110200 METAR MRLB NIL=
200805110300 METAR MRLB NIL=
200805110400 METAR MRLB NIL=
200805110500 METAR MRLB NIL=
200805110600 METAR MRLB NIL=
200805110700 METAR MRLB NIL=
200805110800 METAR MRLB NIL=
200805110900 METAR MRLB NIL=
200805111000 METAR MRLB NIL=
200805111100 METAR MRLB NIL=
200805111200 METAR MRLB 111200Z 00000KT 9999 FEW040 BKN220 24/23 A2985=
200805111300 METAR MRLB 111300Z 20004KT 0200 FG SCT001 BKN010 24/23 A2985=
200805111400 METAR MRLB 111400Z 13005KT 9999 FEW010 SCT100 BKN220 25/24 A2988=
200805111500 METAR MRLB 111500Z 13005KT 9999 FEW030 SCT100 BKN220 27/25 A2991=
200805111600 METAR MRLB 111600Z 00000KT 9999 FEW030 BKN200 29/24 A2990=
200805111700 METAR MRLB 111700Z 00000KT 999 SCT030 BKN200 31/24 A2989=
200805111800 METAR MRLB 111800Z 00000KT 9999 SCT025 BKN220 31/24 A2984=
200805111900 METAR MRLB 111900Z 00000KT 9999 FEW025 BKN230 31/24 A2982=
200805112000 METAR MRLB 112000Z 15005KT 9999 SCT025 BKN220 31/25 A2979=
200805112100 METAR MRLB 112100Z 12005KT 9999 SCT030 BKN220 31/24 A2977=
200805112200 METAR MRLB 112200Z 20005KT 9999 SCT025 BKN200 30/24 A2976=
200805112300 METAR MRLB 112300Z 220004KT 9999 FEW045 BKN220 30/24 A2975=
200805112355 METAR MRLB 120000Z 26004KT 9999 FEW040 SCT100 BKN220 29/25 A2978=
200805120000 METAR MRLB 120000Z 26004KT 9999 FEW040 SCT100 BKN220 29/25 A2978=
200805120100 METAR MRLB 120100Z 26005KT 9999 FEW040 SCT250 27/25 A2980=
200805120200 METAR MRLB NIL=
200805120300 METAR MRLB NIL=
200805120400 METAR MRLB NIL=
200805120500 METAR MRLB NIL=
200805120600 METAR MRLB NIL=
200805120700 METAR MRLB NIL=
200805120800 METAR MRLB NIL=
200805120900 METAR MRLB NIL=
200805121000 METAR MRLB NIL=
200805121100 METAR MRLB NIL=
200805121200 METAR MRLB 121200Z 29003KT CAVOK 24/23 A2985 RMK BKN130 FEW250 CB DST=
200805121300 METAR MRLB 121300Z 05003KT CAVOK 26/23 A2987 RMK FEW130 BKN250 TCU CB DIST SW=
200805121357 METAR MRLB 131400Z 00000KT CAVOK 29/22 A2988 RMK TRACE AC BKN250=
200805121400 METAR MRLB 121400Z 00000KT CAVOK 29/22 A2988 RMK TRACE AC BKN250=
200805121500 METAR MRLB 121500Z 13005KT CAVOK 30/22 A2989 RMK CB DIST S TRACE AC CI=
200805121600 METAR MRLB 121600Z 16005KT 9999 FEW035 BKN250 31/23 A2989 RMK CB DIST S=
200805121700 METAR MRLB 121700Z 18003KT 9999 SCT030 33/22 A2987 RMNK FEW250 CB DIST S=
200805121800 METAR MRLB 121800Z 23005KT 9999 SCT035 SCT280 33/23 A2984 RMK CB DI CHECK TEXT NEW ENDING ADDED KATLYTAA=
200805121900 METAR MRLB 121900Z 28008KT 9999 FEW030TCU SCT035 34/23 A2981 RMK FEW280 CB DIST S=
200805122000 METAR MRLB 122000Z 28012KT 9999 FEW030TCU FEW035 33/23 A2977 FEW250=
200805122100 METAR MRLB 122100Z 28013KT 9999 FEW025TCU SCT035 32/23 A2977 RMK CB DST SW FEW280 RN DST E SE S=
200805122125 METAR MRLB 122125Z 26013KT 9999 -RA VCSH FEW025CB SCT030 SCT120 30/25 A2977 RMK 6000 E S FEW250=
200805122200 METAR MRLB 122200Z 23005KT 9999 -TSRA FEW025CB SCT030 BKN120 29/24 A2978 RMK VIS 7000 NE VCSH=
200805122300 METAR MRLB 122300Z 10005KT 9999 -RA FEW025CB SCT035 BKN120 27/25 A2982 RMK TS RN DST S=
200805130000 METAR MRLB 130000Z 07005KT 9999 SCT020 BKN140 25/23 A2982 RMK CB DST S=
200805130100 METAR MRLB 130100Z 05002KT CAVOK 25/24 A2983 RMK SCT140 BKN200=
200805130200 METAR MRLB 130200Z 19003KT CAVOK 25/23 A2984 RMK FEW140 BKN220=
200805130300 METAR MRLB NIL=
200805130400 METAR MRLB NIL=
200805130500 METAR MRLB NIL=
200805130600 METAR MRLB NIL=
200805130700 METAR MRLB NIL=
200805130800 METAR MRLB NIL=
200805130900 METAR MRLB NIL=
200805131000 METAR MRLB NIL=
200805131100 METAR MRLB NIL=
200805131200 METAR MRLB 131200Z 14002KT 9999 FEW030 BKN250 24/23 A2986 LW ST SW=
200805131300 METAR MRLB 131300Z 00000KT 9999 FEW035 BKN250 26/24 A2988=
200805131400 METAR MRLB 131400Z 00000KT 9999 FEW035 SCT250 28/24 A2990=
200805131500 METAR MRLB 131500Z 18002KT 9999 FEW035 SCT250 30/24 A2991=
200805131600 METAR MRLB 131600Z 18004KT 9999 FEW035 BKN250 32/23 A2990=
200805131700 METAR MRLB 131700Z 15005KT 9999 FEW035 BKN250 32/22 A2987=
200805131800 METAR MRLB 131800Z 12004KT 9999 FEW035 BKN250 34/22 A2985=
200805131900 METAR MRLB 131900Z 09004KT 9999 SCT035 SCT250 35/21 A2982=
200805132000 METAR MRLB 132000Z 26009KT 9999 SCT035 SCT250 34/23 A2979=
200805132100 METAR MRLB 132100Z 27010KT 9999 SCT035 BKN250 34/24 A2977 RMK HZ ARND=
200805132200 METAR MRLB 132200Z 28010KT 9999 SCT035 SCT250 33/23 A2977 HZ ARND=
200805132300 METAR MRLB 132300Z 28007KT 9999 FEW035 BKN250 32/23 A2978 RMK HZ ARND=
200805140000 METAR MRLB 140000Z 26006KT 9999 FEW035 BKN240 30/24 A2979 HZ ARND=
200805140100 METAR MRLB 140100Z 27002KT 9999 FEW035 BKN240 29/24 A2981 RMK HZY=
200805140200 METAR MRLB 140200Z 00000KT 9999 FEW035 BKN240 28/24 A2984 RMK HZ ARND=
200805140300 METAR MRLB NIL=
200805140400 METAR MRLB NIL=
200805140500 METAR MRLB NIL=
200805140600 METAR MRLB NIL=
200805140700 METAR MRLB NIL=
200805140800 METAR MRLB NIL=
200805140900 METAR MRLB NIL=
200805141000 METAR MRLB NIL=
200805141100 METAR MRLB NIL=
200805141200 METAR MRLB 141200Z 01005KT CAVOK 26/22 A2982 RMK SCT250=
200805141300 METAR MRLB 141300Z 03004KT CAVOK 29/23 A2984 RMK SCT250=
200805141400 METAR MRLB 141400Z 06013KT CAVOK 32/22 A2985 RMK SCT250=
200805141500 METAR MRLB 141500Z 07018KT CAVOK 33/21 A2985 RMK SCT250=
200805141600 METAR MRLB 141600Z 05016KT 9999 FEW030 SCT250 34/20 A2984=
200805141700 METAR MRLB 141700Z 06015KT 9999 FEW025 SCT250 34/21 A2983=
200805141800 METAR MRLB 141800Z 06018KT 9999 SCT025 BKN250 35/20 A2982=
200805141900 METAR MRLB 141900Z 07015KT 9999 SCT025 BKN250 36/18 A2979=
200805142000 METAR MRLB 142000Z 08016KT 9999 SCT025 BKN250 36/18 A2977=
200805142100 METAR MRLB 142100Z 06015KT 9999 FEW025 SCT250 36718 A2975=
200805142200 METAR MRLB 142200Z 07010KT 9999 FEW035 SCT250 36/18 A2975=
200805142300 METAR MRLB NIL=
200805150000 METAR MRLB 150000Z 08012KT CAVOK 32/20 A2979 RMK FEW100 SCT250=
200805150100 METAR MRLB 150100Z 08007KT CAVOK 31/22 A2983 RMK FEW100=
200805150200 METAR MRLB 150200Z 20002KT CAVOK 30/22 A2986 RMK FEW120=
200805150300 METAR MRLB NIL=
200805150400 METAR MRLB NIL=
200805150500 METAR MRLB NIL=
200805150600 METAR MRLB NIL=
200805150700 METAR MRLB NIL=
200805150800 METAR MRLB NIL=
200805150900 METAR MRLB NIL=
200805151000 METAR MRLB NIL=
200805151100 METAR MRLB NIL=
200805151200 METAR MRLB NIL=
200805151300 METAR MRLB 151300Z 02003KT CAVOK 24/21 A2986 RMK OVC250 CB S HZ LEVE ARND TRACE AC=
200805151400 METAR MRLB 151400Z 00000KT CAVOK 27/21 A2988 RMK BKN250 TRACE CU HZ ARND=
200805151500 METAR MRLB 151500Z 36005KT CAVOK 31/21 A2989 RMK BKN250 TRACE CU HZ ARND=
200805151600 METAR MRLB 151600Z 09011KT CAVOK 32/19 A2989 RMK BKN250 TRACE CU HZ ARND=
200805151700 METAR MRLB 151700Z 08012KT 9999 FEW035 BKN250 34/19 A2986 RMK HZ LEVE ARND=
200805151800 METAR MRLB 151800Z 08011G22KT 9999 FEW035 BKN250 35/20 A2984 RMK HZ ARND=
200805151900 METAR MRLB 151900Z 06008KT 9999 BKN035 SCT250 35/20 A2981 RMK HZ LEVE ARND=
200805152000 METAR MRLB 152000Z 09007KT 9999 SCT035 SCT250 36/20 A2980 RMK CB DST SE HZ ARND=
200805152100 METAR MRLB 152100Z 08011KT 9999 FEW035 BKN250 36/20 A2978 CB SE=
200805152200 METAR MRLB 152200Z 09009KT 9999 FEW035 SCT250 36/18 A2977 CB S SE=
200805152300 METAR MRLB 152300Z 27009KT 9999 BKN035 34/21 A2978 FEW250 HZY RN E=
200805160000 METAR MRLB 160000Z 23008KT 9999 SCT035 SCT250 31/23 A2981 HZY=
200805160100 METAR MRLB 160100Z 18005KT 9999 -RA BKN035 SCT130 30/23 A2985=
200805160200 METAR MRLB 160200Z 16005KT 9999 BKN035 SCT120 28/24 A2986=
200805160300 METAR MRLB NIL=
200805160400 METAR MRLB NIL=
200805160500 METAR MRLB NIL=
200805160600 METAR MRLB NIL=
200805160700 METAR MRLB NIL=
200805160800 METAR MRLB NIL=
200805160900 METAR MRLB NIL=
200805161000 METAR MRLB NIL=
200805161100 METAR MRLB NIL=
200805161200 METAR MRLB 161200Z 10002KT CAVOK 24/22 A2988 RMK BKN240 HZ ARND=
200805161300 METAR MRLB 161300Z 00000KT CAVOK 26/21 A298 OVC240 HZY=
200805161400 METAR MRLB 161400Z 00000KT CAVOK 28/22 A2991 BKN230 HZY=
200805161500 METAR MRLB 161500Z 23004KT CAVOK 29/23 A2991 OVC230 HZY=
200805161600 METAR MRLB 161600Z 14004KT CAVOK 31/21 A2989 BKN230 HZY=
200805161700 METAR MRLB 161700Z 30003KT 9999 FEW035 OVC230 32/21 A2988 HZY=
200805161800 METAR MRLB 161800Z 21005KT 9999 FEW035 BKN240 32/20 A2986 HZY=
200805161900 METAR MRLB 161900Z 07008KT 9999 FEW035 OVC240 34/19 A2983 HZY=
200805162000 METAR MRLB 162000Z 10010KT 9999 SCT035 OVC240 33/19 A2980 HZY=
200805162100 METAR MRLB 162100Z 08011KT 9999 FEW035 BKN240 34/19 A2978=
200805162200 METAR MRLB 162200Z 06010KT 9999 FEW040 OVC240 33/19 A2997=
200805162300 METAR MRLB 162300Z 06007KT 9999 FEW040 OVC240 33/19 A2978=
200805170000 METAR MRLB NIL=
200805170100 METAR MRLB 170100Z 09004KT 9999 FEW035 BKN240 31/21 A2983=
200805170200 METAR MRLB NIL=
200805170300 METAR MRLB NIL=
200805170400 METAR MRLB NIL=
200805170500 METAR MRLB NIL=
200805170600 METAR MRLB NIL=
200805170700 METAR MRLB NIL=
200805170800 METAR MRLB NIL=
200805170900 METAR MRLB NIL=
200805171000 METAR MRLB NIL=
200805171100 METAR MRLB NIL=
200805171200 METAR MRLB 171200Z 13003KT CAVOK 23/21 A2986 RMK SCT250=
200805171300 METAR MRLB 171300Z 18004KT CAVOK 26/22 A2988=
200805171400 METAR MRLB 171400Z 00000KT CAVOK 28/22 2988 RMK SCT250=
200805171500 METAR MRLB 171500Z 09009KT CAVOK 31/21 A2988 RMK SCT250=
200805171600 METAR MRLB 171600Z 10013KT CAVOK 33/18 A2987 RMK SCT250=
200805171700 METAR MRLB 171700Z 08012KT CAVOK 34/18 A2985 RMK SCT250=
200805171800 METAR MRLB 171800Z 08010KT CAVOK 35/8 A2982 RMK SCT250=
200805171900 METAR MRLB 171900Z 05010KT 9999 FEW030 SCT250 36/18 A2980=
200805172000 METAR MRLB 172000Z 08012KT 9999 SCT030 BKN250 36/18 A2977=
200805172100 METAR MRLB 172100Z 08010KT 9999 SCT030 BKN250 36/17 A2976=
200805172200 METAR MRLB 172200Z 28010KT 9999 SCT030 BKN250 33/21 A2976=
200805172300 METAR MRLB 172300Z 29012KT 9999 SCT030 BKN250 32/22 A2977=
200805180000 METAR MRLB 180000Z 30006KT 9999 SCT030TCU BKN250 30/22 A2980 RMK TCU DST E SE S=
200805180100 METAR MRLB 180100Z 26006KT 9999 SCT020CB BKN120 29/22 A2984 RMK CB RN DST S SE SW=
200805180200 METAR MRLB 180200Z 30004KT 8000 VCSH SCT015CB BKN100 27/24 A2986=
200805180300 METAR MRLB NIL=
200805180400 METAR MRLB NIL=
200805180500 METAR MRLB NIL=
200805180600 METAR MRLB NIL=
200805180700 METAR MRLB NIL=
200805180800 METAR MRLB NIL=
200805180900 METAR MRLB NIL=
200805181000 METAR MRLB NIL=
200805181100 METAR MRLB NIL=
200805181200 METAR MRLB 181200Z 13003KT CAVOK 25/23 A2985 OVC250=
200805181300 METAR MRLB 181300Z 31003KT CAVOK 26/22 A2988 RMK OVC250=
200805181400 METAR MRLB 181400Z 12005KT 9999 FEW035 BKN250 29/23 A2990=
200805181500 METAR MRLB 181500Z 14006KT 9999 FEW035 BKN250 31/21 A2991=
200805181600 METAR MRLB 181600Z 12005KT 9999 FEW035 BKN250 32/21 A2990 RMK FEW140=
200805181700 METAR MRLB 181700Z 07002KT 9999 FEW035 BKN130 33/18 A2988=
200805181800 METAR MRLB 181800Z 27008KT 9999 SCT030 BKN130 32/22 A2986=
200805181900 METAR MRLB 181900Z 27011KT 9999 SCT030 BKN130 32/23 A2984 RMK RN DST S=
200805182000 METAR MRLB 182000Z 27012KT 9999 SCT030 SCT130 32/22 A2982 RMK SHRA DST S=
200805182100 METAR MRLB 182100Z 19013KT 9999 FEW030 BKN250 32/21 A2979 RMK CB DST E=
200805182200 METAR MRLB 182200Z 28012KT 9999 FEW025 BKN130 31/21 A2979 RMK RASH DST NE E SE=
200805182300 METAR MRLB 182300Z 13007KT 9999 -RA SCT020 BKN030 28/23 A2983 RMK TS DST SE=
200805190000 METAR MRLB 190000Z 03011KT 9999 -RA SCT015 BKN120 25/24 A2987 RMK TS DST W=
200805190100 METAR MRLB NIL=
200805190200 METAR MRLB 190200Z 10004KT 9999 FEW030 BKN120 25/23 A2991=
200805190300 METAR MRLB NIL=
200805190400 METAR MRLB NIL=
200805190500 METAR MRLB NIL=
200805190600 METAR MRLB NIL=
200805190700 METAR MRLB NIL=
200805190800 METAR MRLB NIL=
200805190900 METAR MRLB NIL=
200805191000 METAR MRLB NIL=
200805191100 METAR MRLB NIL=
200805191200 METAR MRLB 191200Z 14003KT 9999 FEW030 BKN130 21/20 A2984=
200805191300 METAR MRLB 191300Z 25002KT 9999 FEW035 OVC130 23/20 A2986=
200805191400 METAR MRLB 191400Z 04002KT 9999 FEW035 BKN130 25/21 A2987=
200805191500 METAR MRLB 191500Z 17005KT 9999 FEW040 BKN130 28/22 A2989=
200805191600 METAR MRLB 191600Z 25004KT 9999 FEW040 BKN140 29/21 A2989=
200805191700 METAR MRLB 191700Z 04004KT 9999 FEW040 OVC140 31/22 A2989=
200805191800 METAR MRLB 191800Z 07011KT 9999 FEW040 BKN140 32/21 A2987=
200805191900 METAR MRLB 191900Z 09006KT 9999 FEW040 OVC140 33/20 A2984=
200805192000 METAR MRLB 192000Z 25007KT 9999 SCT035 OVC140 32/20 A2981=
200805192100 METAR MRLB 192100Z 16008KT 9999 SCT035 OVC140 31/22 A2980=
200805192200 METAR MRLB 192200Z 15008KT 9999 FEW035 OVC140 31/21 A2980=
200805192300 METAR MRLB 192300Z 15006KT 9999 SCT035 OVC140 30721 A2981=
200805200000 METAR MRLB 200000Z 12006KT 9999 SCT035 BKN130 29/21 A2983=
200805200100 METAR MRLB 200100Z 10005KT 9999 FEW035 BKN130 28/21 A2986=
200805200200 METAR MRLB 200200Z NIL=
200805200300 METAR MRLB NIL=
200805200400 METAR MRLB NIL=
200805200500 METAR MRLB NIL=
200805200600 METAR MRLB NIL=
200805200700 METAR MRLB NIL=
200805200800 METAR MRLB NIL=
200805200900 METAR MRLB NIL=
200805201000 METAR MRLB NIL=
200805201100 METAR MRLB NIL=
200805201200 METAR MRLB NIL=
200805201300 METAR MRLB 201300Z 00000KT CAVOK 26722 A2990 RMK SCT150 BKN250=
200805201400 METAR MRLB 201400Z 20004KT CAVOK 27/23 A2990 RMK SCT250 BKN220=
200805201500 METAR MRLB 201500Z 25004KT CAVOK 29/23 A2990 RMK SCT220=
200805201600 METAR MRLB 201600Z 00000KT 9999 FEW030 SCT250 32/22 A2989=
200805201700 METAR MRLB 201700Z 00000KT 9999 SCT020 BKN250 31/21 A2988=
200805201800 METAR MRLB 201800Z 18005KT 9999 SCT020 BKN250 33/21 A2984 RMK CB DST S=
200805201900 METAR MRLB 201900Z 26005KT 9999 SCT025TCU BKN250 33/21 A2981 RMK TCU W=
200805202000 METAR MRLB 202000Z 26010KT 9999 SCT030TCU BKN250 32/22 A2978=
200805202100 METAR MRLB 202100Z 28012KT 9999 SCT015CB BKN180 30/22 A2978 VSBY E 8KM DUE TS/RASH=
200805202200 METAR MRLB NIL=
200805202300 METAR MRLB 202300Z 09008KT 9999 DZ SCT025CB BKN180 24/22 A2983=
200805210000 METAR MRLB 210000Z 13006KT 9999 -RA SCT025 BKN180 24/23 A2984=
200805210100 METAR MRLB NIL=
200805210200 METAR MRLB NIL=
200805210300 METAR MRLB NIL=
200805210400 METAR MRLB NIL=
200805210500 METAR MRLB NIL=
200805210600 METAR MRLB NIL=
200805210700 METAR MRLB NIL=
200805210800 METAR MRLB NIL=
200805210900 METAR MRLB NIL=
200805211000 METAR MRLB NIL=
200805211100 METAR MRLB NIL=
200805211200 METAR MRLB 211200Z 06002KT 9999 SCT035 BKN100 23/23 A2984=
200805211300 METAR MRLB 211300Z 12002KT 9999 SCT035 BKN100 24/23 A2985 RN NE E=
200805211400 METAR MRLB 211400Z 19003KT 9999 FEW020 BKN120 26/24 A2987=
200805211500 METAR MRLB 211500Z 16005KT 9999 FEW020 BKN120 27/24 A2989=
200805211600 METAR MRLB 211600Z 12007KT 9999 FEW025 BKN120 29/24 A2989=
200805211700 METAR MRLB 211700Z 15007KT 9999 SCT025 BKN120 29/23 A2987=
200805211800 METAR MRLB 211800Z 14007KT 9999 SCT020 BKN120 2/23 A2986 RMK RN NE SW=
200805211900 METAR MRLB 211900Z 17007KT 9999 SCT020 BKN120 30/22 A2983 RN S N SW W=
200805212000 METAR MRLB 212000Z 25012KT 3000 RA FEW010 SCT020 24/23 A2983 VSBY E UNL=
200805212100 METAR MRLB NIL=
200805212200 METAR MRLB NIL=
200805212300 METAR MRLB 212300Z 16009KT 9999 -RA FEW015 OVC100 22/21 A2981=
200805212355 METAR MRLB 220000Z NIL=
200805220000 METAR MRLB NIL=
200805220100 METAR MRLB 220100Z 08006KT CAVOK 23/21 A2982 RMK OVC120=
200805220200 METAR MRLB 220200Z 06003KT CAVOK 23/22 A2984 RMK OVC120=
200805220300 METAR MRLB NIL=
200805220400 METAR MRLB NIL=
200805220500 METAR MRLB NIL=
200805220600 METAR MRLB NIL=
200805220700 METAR MRLB NIL=
200805220800 METAR MRLB NIL=
200805220900 METAR MRLB NIL=
200805221000 METAR MRLB NIL=
200805221100 METAR MRLB NIL=
200805221200 METAR MRLB 221200Z 00000KT 9999 FEW030 BKN130 23/22 A2981 ST LOW SW=
200805221300 METAR MRLB 221300Z 00000KT 9999 FEW035 BKN130 25/23 A2983=
200805221400 METAR MRLB 221400Z 07002KT 9999 FEW035 SCT130 BKN250 27/23 A2983=
200805221500 METAR MRLB 221500Z 10002KT 9999 FEW035 BKN130 29/24 A2986=
200805221600 METAR MRLB NIL=
200805221700 METAR MRLB 221700Z 15003KT 9999 SCT035 BKN250 31/23 A2984 RMK RN DST S=
200805221800 METAR MRLB 221800Z 14004KT 9999 FEW025TCU SCT035 BKN250 32/22 A2982 RMK RN DST S=
200805221900 METAR MRLB 221900Z 18007KT 9999 FEW020TCU SCT035 BKN140 30/23 A2981 RMK RN DST S SW=
200805222000 METAR MRLB 222000Z 21009KT 9999 SCT030 BKN130 26/23 A2980 RMK DST S=
200805222100 METAR MRLB 222100Z 17006KT 9999 SCT035 BKN120 26/23 A2978 RMK RN DST SE=
200805222200 METAR MRLB 222200Z 16006KT 9999 SCT035 OVC120 25/23 A2979 RMK RN DST N=
200805222300 METAR MRLB 222300Z 12004KT 999 FEW035 OVC130 26/22 A2980=
200805230000 METAR MRLB 230000Z 19003KT 9999 FEW035 BKN130 25/23 A2981=
200805230100 METAR MRLB 230100Z 15002KT 9999 FEW035 BKN130 24/23 A2985=
200805230200 METAR MRLB NIL=
200805230300 METAR MRLB NIL=
200805230400 METAR MRLB NIL=
200805230500 METAR MRLB NIL=
200805230600 METAR MRLB NIL=
200805230700 METAR MRLB NIL=
200805230800 METAR MRLB NIL=
200805230900 METAR MRLB NIL=
200805231000 METAR MRLB NIL=
200805231100 METAR MRLB NIL=
200805231200 METAR MRLB 231200Z 00000KT CAVOK 24/23 A2985 FEW100 SCT200=
200805231300 METAR MRLB 231300Z 10003KT CAVOK 26/23 A2986 RMK FEW120 SCT250=
200805231400 METAR MRLB 231400Z 14004KT CAVOK 27/23 A2987 RMK FEW150 SCT250=
200805231500 METAR MRLB 231500Z 16007KT 9999 FEW012 BKN250 28/24 A2988=
200805231600 METAR MRLB 231600Z 16007KT 9999 FEW015 BKN250 29/23 A2988=
200805231700 METAR MRLB 231700Z 17009KT 9999 SCT020TCU BKN250 31/23 A2987 RMK TCU DST ARND=
200805231800 METAR MRLB 231800Z 27008KT 9999 SCT020TCU BKN240 32/22 A2985 A2985 RMK CB RN DST S N SW=
200805231900 METAR MRLB 231900Z 29012KT 9999 SCT015TCU BKN240 32/23 A2982 RMK CB RN DST N S SW=
200805232000 METAR MRLB 232000Z 29009KT 9000 SCT015CB BKN240 31/23 A2981 RMK CB RN DST N E NE S=
200805232100 METAR MRLB 232100Z 08008KT 9999 SCT020TCU BKN200 26/22 A2980 RMK RN DST E SE S=
200805232200 METAR MRLB 232200Z 06006KT 9999 -DZ SCT020TCU BKN180 26/23 A2980 RMK RN DST SE S=
200805232300 METAR MRLB 232300Z 07005KT 9999 FEW020 BKN170 25/23 A2982=
200805240000 METAR MRLB NIL=
200805240100 METAR MRLB NIL=
200805240200 METAR MRLB NIL=
200805240300 METAR MRLB NIL=
200805240500 METAR MRLB NIL=
200805240600 METAR MRLB NIL=
200805240700 METAR MRLB NIL=
200805240800 METAR MRLB NIL=
200805240900 METAR MRLB NIL=
200805241000 METAR MRLB NIL=
200805241100 METAR MRLB NIL=
200805241200 METAR MRLB 241200Z 00000KT CAVOK 23/22 A2983 RMK OVC250 CB DST SW=
200805241300 METAR MRLB 241300Z 13002KT CAVOK 25/22 A2984 RMK FEW130 OVC250 CB DST SW=
200805241400 METAR MRLB 241400Z 16004KT 9999 FEW020 OVC250 26/23 A2986=
200805241500 METAR MRLB 241500Z 17005KT 9999 FEW025 OVC250 28/23 A2988=
200805241600 METAR MRLB 241600Z 14004KT 9999 SCT025 BKN250 30/23 A2986=
200805241700 METAR MRLB 241700Z 18007KT 9999 SCT030 BKN250 31/22 A2985=
200805241800 METAR MRLB 241800Z 22005KT 9999 SCT030 BKN250 32/21 A2983=
200805241900 METAR MRLB 241900Z 29010KT 9999 FEW020TCU SCT030 SCT250 30/24 A2981 RMK RN DST N S SW=
200805242000 METAR MRLB 242000Z 23012KT 9999 3000E RA SCT020 SCT030 29/23 A2980=
200805242100 METAR MRLB 242100Z 30008KT 9999 SCT020 SCT100 29/23 A2978 RMK RN N NE E=
200805242200 METAR MRLB 242200Z 24007KT 9999 FEW010 SCT020 28/23 A2978 RMK RN N NE=
200805242300 METAR MRLB 242300Z 03002KT 9999 SCT020 BKN100 27/24 A2979 RMK RN N NE E=
200805250000 METAR MRLB 250000Z 05006KT 9999 -RA OVC020 26/24 A2982=
200805250100 METAR MRLB 250100Z 07003KT 9999 -RA BKN020 25/24 A2984=
200805250200 METAR MRLB 250200Z 09006KT 9999 -RA BKN020 24/24 A2986=
200805250300 METAR MRLB NIL=
200805250400 METAR MRLB NIL=
200805250500 METAR MRLB NIL=
200805250600 METAR MRLB NIL=
200805250700 METAR MRLB NIL=
200805250800 METAR MRLB NIL=
200805250900 METAR MRLB NIL=
200805251000 METAR MRLB NIL=
200805251100 METAR MRLB NIL=
200805251200 METAR MRLB 251200Z 14003KT 9999 FEW030 BKN130 24/22 A2983 RMK DUE ST S SW=
200805251300 METAR MRLB 251300Z 09004KT 9999 FEW035 BKN130 26723 A2989=
200805251400 METAR MRLB 251400Z 12005KT 9999 FEW035 BKN140 27/23 A2986=
200805251500 METAR MRLB 251500Z 14006KT 9999 FEW035 SCT140 28/23 A2986=
200805251600 METAR MRLB NIL=
200805251700 METAR MRLB 251700Z 12009KT 9999 FEW040 BKN140 30/22 A2984=
200805251800 METAR MRLB 251800Z 12009KT 9999 SCT035 BKN250 31/23 A2980 RMK RN N S=
200805251900 METAR MRLB 251900Z 14011KT 9999 SCT035 BKN230 32/22 A2978 RMK RN SW E=
200805252000 METAR MRLB 252000Z 18010KT 9999 SCT035 BKN140 29/24 A2978 RMK RN N SW=
200805252100 METAR MRLB 252100Z 20008KT 9999 -RA FEW020 SCT030 NKN120 25/23 A2977=
200805252200 METAR MRLB 252200Z 21003KT 9999 SCT030 BKN120 26/24 A2977 RN E NE=
200805252300 METAR MRLB 252300Z 00000KT 9999 SCT035 OVC120 26/24 A2979 RN NE=
200805260000 METAR MRLB 260000Z 04004KT 9999 SCT035 OVC120 25/24 A2981 RN E NE SW=
200805260010 SPECI MRLB 260010KT 06005KT 5000 RA FEW015 SCT030 OVC110 24/23 A2981=
200805260100 METAR MRLB 260100Z 12002KT 6000 -RA SCT025 OVC100 24/23 A2983=
200805260200 METAR MRLB NIL=
200805260300 METAR MRLB NIL=
200805260400 METAR MRLB NIL=
200805260500 METAR MRLB NIL=
200805260600 METAR MRLB NIL=
200805260700 METAR MRLB NIL=
200805260800 METAR MRLB NIL=
200805260900 METAR MRLB NIL=
200805261000 METAR MRLB NIL=
200805261100 METAR MRLB NIL=
200805261200 METAR MRLB 261200Z 10004KT 8000 -DZ SCT010 OVC100 23/22 A2983=
200805261300 METAR MRLB 261300Z 12004KT 4000 -RA BR FEW002 SCT012 OVC100 23/22 A2985=
200805261400 METAR MRLB 261400Z 12004KT 9000 -DZ FEW004 SCT012 BKN150 24/23 A2985=
200805261500 METAR MRLB 261500Z 10005KT 8000 DZ SCT010 BKN140 24/23 A2984=
200805261600 METAR MRLB 261600Z 10010KT 9999 -DZ SCT010 BKN180 25/23 A2982=
200805261700 METAR MRLB 261700Z 12006KT 9999 FEW012 BKN150 26/23 A2981=
200805261800 METAR MRLB 261800Z 16006KT 9999 FEW012 BKN150 26/23 A2979=
200805261900 METAR MRLB 261900Z 12004KT 9999 FEW030 BKN250 28/24 A2976 FEW140=
200805262000 METAR MRLB 262000Z 17005KT 9999 SCT015TCU BKN250 29/23 A2973=
200805262100 METAR MRLB 262100Z 20004KT 9999 SCT025TCU BKN220 29/23 A2970 RN DST N=
200805262200 METAR MRLB 262200Z 29008KT 9999 DZ SCT025TCU BKN240 29/23 A2970=
200805262300 METAR MRLB 262300Z 28008KT 9999 FEW010TCU SCT035 BKN200 27/23 A2971 RMK RN AROUND=
200805262354 METAR MRLB 270000Z 32006KT 32006KT 9999 SCT02TCU BKN150 27/23 A2974 RMK VIS E SE E 8 KMS DUE RN=
200805270000 METAR MRLB 270000Z 32006KT 32006KT 9999 SCT02TCU BKN150 27/23 A2974 RMK VIS E SE E 8 KMS DUE RN=
200805270100 METAR MRLB 270100Z 10008KT 8000 -RA SCT025TCU BKN120 24/22 A2977=
200805270200 METAR MRLB NIL=
200805270300 METAR MRLB NIL=
200805270400 METAR MRLB NIL=
200805270500 METAR MRLB NIL=
200805270600 METAR MRLB NIL=
200805270700 METAR MRLB NIL=
200805270800 METAR MRLB NIL=
200805270900 METAR MRLB NIL=
200805271000 METAR MRLB NIL=
200805271100 METAR MRLB NIL=
200805271200 METAR MRLB 271200Z 15003KT 9999 SCT035 BKN100 23/22 A2975=
200805271300 METAR MRLB 271300Z 18003KT 9999 SCT035 BKN120 24/23 A2976=
200805271400 METAR MRLB 271400Z 16005KT 9999 FEW015 SCT035 BKN120 24/23 A2978=
200805271500 METAR MRLB 271500Z 15004KT 9999 FEW020 OVC120 26/23 A2979=
200805271600 METAR MRLB 271600Z 15005KT 9999 FEW020 OVC120 27/23 A2978=
200805271700 METAR MRLB 271700Z 15007KT 9999 FEW025 OVC120 27/23 A2998 RMK RN DST NE=
200805271800 METAR MRLB 271800Z 17010KT 9999 -RA FEW020 OVC120 26/24 A2976=
200805271900 METAR MRLB 271900Z 15008KT 9999 -RA SCT020 BKN120 26/23 A2974=
200805272000 METAR MRLB 272000Z 13006KT 9999 -RA SCT020 BKN120 27/23 A2973=
200805272100 METAR MRLB 272100Z 09007KT 9999 -RA SCT020 BKN120 26/23 A2971=
200805272200 METAR MRLB 272200Z 11007KT 9999 -RA FEW020 BKN120 26/23 A2971=
200805272300 METAR MRLB 272300Z 12006KT 9999 FEW020 OVC120 26/23 A2972 RMK RN DST N NE S SW=
200805280000 METAR MRLB 280000Z 11005KT 9999 -RA FEW020 BKN100 25/23 A2974=
200805280100 METAR MRLB 280100Z 11004KT 9999 FEW020 OVC120 25/23 A2976=
200805280200 METAR MRLB 280200Z 09003KT 9999 FEW020 OVC120 25/23 A2978=
200805280300 METAR MRLB NIL=
200805280400 METAR MRLB NIL=
200805280500 METAR MRLB NIL=
200805280600 METAR MRLB NIL=
200805280700 METAR MRLB NIL=
200805280800 METAR MRLB NIL=
200805280900 METAR MRLB NIL=
200805281000 METAR MRLB NIL=
200805281100 METAR MRLB NIL=
200805281200 METAR MRLB 281200Z 00000KT 9999 VCFG FEW040 BKN130 23/22 A2974 VSBY S SW 6KM=
200805281300 METAR MRLB 281300Z 11004KT 9999 FEW030 BKN130 24/22 A2976 RMK BANK FOG N=
200805281400 METAR MRLB 281400Z 13007KT 9999 -RA OVC120 24/20 A2977 RMK TRACE CU ST=
200805281500 METAR MRLB 281500Z 11009KT 9999 -RA FEW030 OVC120 24/22 A2979=
200805281600 METAR MRLB 281600Z 12005KT 9999 -RA FEW025 OVC120 24/22 A2979=
200805281700 METAR MRLB 281700Z 10007KT 9999 -RA FEW025 OVC120 24/22 A2977=
200805281800 METAR MRLB 281800Z 11004KT 9000 RA FEW025 OVC100 24/21 A2975=
200805281900 METAR MRLB 281900Z 11007KT 9999 RA SCT012 BKN100 24/22 A2974 RMK VIS 7000SW=
200805282000 METAR MRLB 282000Z 09011KT 9000 RA SCT015 OVC100 23/22 A2972=
200805282100 METAR MRLB 282100Z 10011KT 3000 RA SCT010 OVC090 23/22 A2972=
200805282200 METAR MRLB NIL=
200805282300 METAR MRLB 232300Z 09013KT 9000 -RA SCT020 OVC110 23/22 A2968=
200805290000 METAR MRLB 290000Z 10011KT 8000 RA SCT020 OVC100 23/22 A2968=
200805290100 METAR MRLB 290100Z 10015KT 9999 -RA SCT025 OVC100 23/22 A2970=
200805290200 METAR MRLB 290200Z 09015KT 8000 RA SCT020 OVC100 23/22 A2972=
200805290300 METAR MRLB NIL=
200805290400 METAR MRLB NIL=
200805290500 METAR MRLB NIL=
200805290600 METAR MRLB NIL=
200805290700 METAR MRLB NIL=
200805290800 METAR MRLB NIL=
200805290900 METAR MRLB NIL=
200805291000 METAR MRLB NIL=
200805291100 METAR MRLB NIL=
200805291200 METAR MRLB 291200Z 12010KT 3000 RA SCT010 BKN025 23/22 A2975=
200805291300 METAR MRLB 291300Z 11008KT 4000 -RA BR SCT010 BKN100 23/23 A2977=
200805291400 METAR MRLB 291400Z 10010KT 3000 RA BR SCT008 BKN025 23/22 A2979=
200805291500 METAR MRLB 291500Z 17008KT 4000 RA BR FEW003 SCT010 BKN025 23/23 A2981=
200805291600 METAR MRLB 291600Z 12005KT 9000 RA SCT010 OVC100 23/23 A2980=
200805291700 METAR MRLB 291700Z 15006KT 9000 DZ FEW005 SCT012 BKN100 24/23 A2982=
200805291800 METAR MRLB 291800Z 14008KT 9000 DZ SCT010 OVC120 24/23 A2981=
200805291900 METAR MRLB 291900Z 14006KT 9999 -RA SCT012 BKN120 25/23 A2979=
200805292000 METAR MRLB 292000Z 13005KT 9999 -DZ SCT010 BKN140 25/23 A2977=
200805292100 METAR MRLB NIL=
200805292200 METAR MRLB 292200Z 14007KT 9999 FEW010 SCT035 BKN180 25/23 A2977=
200805292300 METAR MRLB 292300Z 15006KT 9999 SCT020 BKN180 25/23 A2978=
200805300000 METAR MRLB 300000Z 13004KT 9999 SCT018 BKN180 25/23 A2981=
200805300100 METAR MRLB 300100Z 14004KT 9999 SCT020 BKN120 25/23 A2982=
200805300200 METAR MRLB NIL=
200805300300 METAR MRLB NIL=
200805300400 METAR MRLB NIL=
200805300500 METAR MRLB NIL=
200805300600 METAR MRLB NIL=
200805300700 METAR MRLB NIL=
200805300800 METAR MRLB NIL=
200805300900 METAR MRLB NIL=
200805301000 METAR MRLB NIL=
200805301100 METAR MRLB NIL=
200805301200 METAR MRLB 301200Z 13003KT CAVOK 23/22 A2986 RMK SCT120 BKN250=
200805301300 METAR MRLB 301300Z 12004KT CAVOK 25/23 A2988 RMK SCT120 BKN250=
200805301400 METAR MRLB 301400Z 11006KT 9999 FEW020 SCT120 BKN250 27/23 A2990=
200805301500 METAR MRLB 301500Z 17005KT 9999 FEW025 BKN120 28/24 A2991=
200805301600 METAR MRLB 301600Z 16006KT 9999 FEW025 BKN100 28/24 A2991 RMK RN DST S W=
200805301700 METAR MRLB 301700Z 18006KT 9999 3000S -RA FEW020 OVC100 27/23 A2991=
200805301800 METAR MRLB 301800Z 18004KT 9999 SCT025 BKN100 27/23 A2989 RMK RN SW S SE TS S=
200805301900 METAR MRLB 301900Z 17007KT 9999 4000E -RA SCT020 BKN100 24/23 A2989=
200805302000 METAR MRLB 302000Z 33002K 9999 FEW020 OVC100 25/24 A2986 RMK RN DST N S=
200805302100 METAR MRLB 302100Z 00000KT 9999 FEW020 BKN120 26/24 A2983 RN E SW=
200805302200 METAR MRLB 302200Z 11003KT 9999 FEW020 BKN120 28/23 A2982 RN E=
200805302300 METAR MRLB 302300Z 17002KT 9999 FEW020 BKN100 27/23 A2983=
200805310000 METAR MRLB 310000Z 13003KT 9999 FEW020 BKN100 27/23 A2984 RN DST SW=
200805310100 METAR MRLB 210100Z 11004KT 9999 FEW020 BKN100 26/24 A2986=
200805310200 METAR MRLB 310200Z 00000KT 9999 FEW020 BKN100 26/24 A2988=
200805310300 METAR MRLB NIL=
200805310400 METAR MRLB NIL=
200805310500 METAR MRLB NIL=
200805310600 METAR MRLB NIL=
200805310700 METAR MRLB NIL=
200805310800 METAR MRLB NIL=
200805310900 METAR MRLB NIL=
200805311000 METAR MRLB NIL=
200805311100 METAR MRLB NIL=
200805311200 METAR MRLB 311200Z 04003KT CAVOK 23/22 A2987 RMK TRACE ST BKN250=
200805311300 METAR MRLB 311300Z 00000KT CAVOK 25/23 A2989 BKN250 LW ST SW=
200805311400 METAR MRLB 311400Z 21002KT 9999 FEW035 SCT250 27/23 A2991=
200805311500 METAR MRLB NIL=
200805311600 METAR MRLB 311600Z 17003KT 9999 SCT035 BKN250 29/24 A2992=
200805311700 METAR MRLB 311700Z 15004KT 9999 SCT035 BKN250 30/23 A2990=
200805311800 METAR MRLB 311800Z 14005KT 9999 SCT035 OVC250 31/24 A2988=
200805311900 METAR MRLB 311900Z 35002KT 9999 SCT035 BKN250 31/23 A2985 RN S=
200805312000 METAR MRLB 312000Z 27009KT 9999 SCT035 OVC250 30/24 A2982 RN DST S=
200805312100 METAR MRLB NIL=
200805312200 METAR MRLB 312200Z 28007KT 9999 FEW030 OVC230 28/25 A2980=
200805312300 METAR MRLB 312300Z 30005KT 9999 SCT035 BKN140 27/24 A2981=
200805312358 METAR MRLB 010000Z 31004KT 9999 SCT035 BKN140 27/24 A2982=
200806010000 METAR MRLB 010000Z 31004KT 9999 SCT035 BKN140 27/24 A2982=
200806010100 METAR MRLB 010100Z 29003KT 9999 FEW030 BKN130 26/24 A2984=
200806010200 METAR MRLB 010200Z 29003KT 9999 FEW030 BKN130 26/24 A2984=
200806010300 METAR MRLB NIL=
200806010400 METAR MRLB NIL=
200806010500 METAR MRLB NIL=
200806010600 METAR MRLB NIL=
200806010700 METAR MRLB NIL=
200806010800 METAR MRLB NIL=
200806010900 METAR MRLB NIL=
200806011000 METAR MRLB NIL=
200806011100 METAR MRLB NIL=
200806011200 METAR MRLB 011200Z 00000KT 9999 SCT025 BKN140 25/24 A2985=
200806011300 METAR MRLB 011300Z 00000KT 9999 SCT025 BKN120 26/24 A2988=
200806011400 METAR MRLB 011400Z 33003KT 9999 SCT025 BKN180 26/24 A2989=
200806011500 METAR MRLB 011500Z 00000KT 9999 FEW015 BKN220 28/24 A2990=
200806011600 METAR MRLB 011600Z 00000KT 9999 SCT015 BKN240 28/24 A2990=
200806011700 METAR MRLB 011700Z 22004KT 9999 SCT025TCU BKN250 30/24 A2989=
200806011800 METAR MRLB 011800Z 28005KT 9999 SCT015TCU BKN200 30/24 A2986 RMK RN ARND=
200806011900 METAR MRLB 011900Z 27010KT 9999 SCT025 BKN150 28/24 A2985=
200806012000 METAR MRLB 012000Z 31005KT 9999 SCT015TCU BKN220 27/25 A2992=
200806012100 METAR MRLB 012100Z 29009KT 9999 FEW010TCU SCT035 BKN220 28/25 A2979=
200806012200 METAR MRLB 012200Z 29007KT 9999 DZ SCT010TCU BKN100 27/24 A2981=
200806012300 METAR MRLB 012300Z 32007KT 9999 -TSDZ SCT010CB BKN045 25/23 A2982 RMK VIS 7000 E VCSH=
200806020000 METAR MRLB 020000Z 08014KT 8000 -TSRA SCT008CB OVC100 23/22 A2986=
200806020100 METAR MRLB 020100Z 02005KT 8000 -RA SCT015CB OVC100 23/22 A2989=
200806020200 METAR MRLB NIL=
200806020300 METAR MRLB NIL=
200806020400 METAR MRLB NIL=
200806020500 METAR MRLB NIL=
200806020600 METAR MRLB NIL=
200806020700 METAR MRLB NIL=
200806020800 METAR MRLB NIL=
200806020900 METAR MRLB NIL=
200806021000 METAR MRLB NIL=
200806021100 METAR MRLB NIL=
200806021200 METAR MRLB 021200Z 20002KT CAVOK 23/22 A2984 OVC250=
200806021300 METAR MRLB 021300Z 18003KT 9999 FEW005 OVC250 24/23 A2985=
200806021400 METAR MRLB 021400Z 00000KT 9999 FEW015 OVC250 26/24 A2987=
200806021500 METAR MRLB 021500Z 00000KT CAVOK 28/24 A2988 RMK TRACE SC BKN250=
200806021600 METAR MRLB 021600Z 23002KT 9999 FEW035 SCT140 BKN250 30/22 A2988=
200806021700 METAR MRLB 021700Z 30004KT 9999 FEW035 BKN130 31/23 A2987 RMK SCT250=
200806021800 METAR MRLB 021800Z 28007KT 9999 SCT030 BKN250 31/23 A2986 RMK SHRA DST N SW=
200806021900 METAR MRLB 021900Z 26009KT 9999 FEW030 SCT130 BKN250 30/23 A2984 RMK SHRA N RN DST NE S=
200806022000 METAR MRLB 022000Z 29008KT 9999 FEW030 BKN250 30/24 A2981 RMK RN DST N NE S FEW140=
200806022100 METAR MRLB 022100Z NIL=
200806022200 METAR MRLB 022200Z 27008KT 9999 SCT025 BKN140 28/24 A2981 TCU RN DST SE=
200806022300 METAR MRLB 022300Z 27008KT 9999 SCT025 BKN140 28/24 A2981 TCU RN DST SE=
200806030000 METAR MRLB 030000Z 28004KT 9999 FEW025 BKN130 28/24 A2982 RMK RN DST SE=
200806030100 METAR MRLB NIL=
200806030200 METAR MRLB NIL=
200806030300 METAR MRLB NIL=
200806030400 METAR MRLB NIL=
200806030500 METAR MRLB NIL=
200806030600 METAR MRLB NIL=
200806030700 METAR MRLB NIL=
200806030800 METAR MRLB NIL=
200806030900 METAR MRLB NIL=
200806031000 METAR MRLB NIL=
200806031100 METAR MRLB NIL=
200806031200 METAR MRLB 031200Z 09003KT CAVOK 25/23 A2983 RMK BKN250=
200806031300 METAR MRLB 031300Z 12004KT CAVOK 27/24 A2985 RMK BKN250=
200806031400 METAR MRLB 031400Z 00000KT CAVOK 29/24 A2985 RMK BKN250=
200806031500 METAR MRLB 031500Z 13004KT 9999 FEW035 SCT250 28/25 A2987=
200806031600 METAR MRLB 031600Z 14005KT 9999 FEW035 BKN250 29/26 A2986=
200806031700 METAR MRLB 031700Z 15007KT 9999 SCT035 BKN250 30/26 A2985=
200806031800 METAR MRLB 031800Z 14005KT 9999 SCT035 BKN250 31/24 A2983 RMK RN DST NE TCU DST N=
200806031900 METAR MRLB 031900Z 16006KT 9999 FEW020TCU SCT030 BKN250 32/23 A2980=
200806032000 METAR MRLB 032000Z 35008KT 9999 FEW020TCU SCT035 BKN230 27/24 A2980 RMK RN DST N S=
200806032100 METAR MRLB 032100Z 30002KT 9999 RA VCSH FEW015 SCT025 OVC120 26/24 A2981 RMK VIS SW 6000 TS SW=
200806032200 METAR MRLB 032200Z 18005KT 9999 SCT020 OVC120 24/22 A2979 RMK RN S SW=
200806032300 METAR MRLB 032300Z 22002KT 9999 DZ SCT020 OVC110 24/23 A2980=
200806040000 METAR MRLB 040000Z 00000KT 9999 SCT025 OVC100 24/23 A2983 RMK RN DST E S=
200806040100 METAR MRLB 040100Z 09005KT 9999 -RA SCT025 OVC110 24/23 A2985=
200806040200 METAR MRLB NIL=
200806040300 METAR MRLB NIL=
200806040400 METAR MRLB NIL=
200806040500 METAR MRLB NIL=
200806040600 METAR MRLB NIL=
200806040700 METAR MRLB NIL=
200806040800 METAR MRLB NIL=
200806040900 METAR MRLB NIL=
200806041000 METAR MRLB NIL=
200806041100 METAR MRLB NIL=
200806041200 METAR MRLB 041200Z 04003KT 9999 FEW010 BKN250 23/22 A2982 RMK FOG BANKS ARND=
200806041300 METAR MRLB 041300Z 00000KT 9999 FEW015 BKN250 25/23 A2984=
200806041400 METAR MRLB 041400Z 00000KT CAVOK 26/24 A2985 RMK BKN250 CB SW N=
200806041500 METAR MRLB 041500Z 00000KT CAVOK 27/24 A2986 RMK BKN250 CB N=
200806041600 METAR MRLB 041600Z 00000KT 9999 FEW020 BKN250 29/24 A2985=
200806041700 METAR MRLB 041700Z 00000KT 9999 SCT020TCU BKN250 30/24 A2984 RMK TCU W=
200806041800 METAR MRLB 041800Z 24005KT 9999 SCT025TCU BKN250 31/24 A2980 RN N NE=
200806041900 METAR MRLB 041900Z 24005KT 9999 SCT025TCU BKN250 31/24 A2980 RN N NE=
200806042000 METAR MRLB 042000Z 28010KT 9999 DZ SCT020TCU BKN220 29/25 A2979 RMK RASH N SE S=
200806042100 METAR MRLB 042100Z 02007KT 9999 SCT030TCU BKN180 26/24 A2978 RN E S=
200806042200 METAR MRLB 042200Z 03005KT 9999 SCT025 BKN220 26/24 A2977 RERA=
200806042300 METAR MRLB 042300Z 00000KT 9999 SCT020 OVC250 26/24 A2978 REDZ=
200806050000 METAR MRLB 050000Z 04005KT 9999 SCT025 BKN150 26/24 A2981=
200806050100 METAR MRLB 050100Z 04004KT 9999 SCT020 BKN180 25/24 A2982=
200806050200 METAR MRLB NIL=
200806050300 METAR MRLB NIL=
200806050400 METAR MRLB NIL=
200806050500 METAR MRLB NIL=
200806050600 METAR MRLB NIL=
200806050700 METAR MRLB NIL=
200806050800 METAR MRLB NIL=
200806050900 METAR MRLB NIL=
200806051000 METAR MRLB NIL=
200806051100 METAR MRLB NIL=
200806051200 METAR MRLB 051200Z 17002KT 9999 FEW015 OVC140 24/23 A2981=
200806051300 METAR MRLB 051300Z 00000KT 999 FEW015 OVC140 25/24 A2984=
200806051400 METAR MRLB 051400Z 25003KT 9999 FEW015 BKN130 26/25 A2986=
200806051500 METAR MRLB 051500Z 27005KT 9999 SCT020 BKN130 27/25 A2987=
200806051600 METAR MRLB 051600Z 28006KT 9999 SCT020 BKN130 28/24 A2986=
200806051700 METAR MRLB 051700Z 29005KT 9999 FEW030 BKN220 29/25 A2985=
200806051800 METAR MRLB 051800Z 28004KT 9999 FEW030 BKN250 29/21 A2983=
200806051900 METAR MRLB 051900Z 27004KT 9999 SCT030 BKN250 29/24 A2981=
200806052000 METAR MRLB 052000Z 29011KT 9999 SCT025 BKN250 30/26 A2978 RN NE NW=
200806052100 METAR MRLB 052100Z 28010KT 9999 -RA SCT020 BKN120 29/25 A2976=
200806052200 METAR MRLB 052200Z 15004KT 9999 -RA SCT020 BKN120 27/25 A2976 TCU DST S=
200806052300 METAR MRLB 052300Z 25005KT 9999 FEW020 OVC130 27/25 A2976=
200806052358 METAR MRLB 060000Z 26002KT 9999 FEW020 OVC130 27/25 A2978 RMK RN DST SE S TCU DST SE=
200806060000 METAR MRLB 060000Z 26002KT 9999 FEW020 OVC130 27/25 A2978 RMK RN DST SE S TCU DST SE=
200806060100 METAR MRLB 060100Z 18005KT 9999 FEW020 OVC130 26/24 A2981=
200806060200 METAR MRLB 060200Z 17004KT 9999 FEW020 OVC130 25/24 A2983=
200806060300 METAR MRLB NIL=
200806060400 METAR MRLB NIL=
200806060500 METAR MRLB NIL=
200806060600 METAR MRLB NIL=
200806060700 METAR MRLB NIL=
200806060800 METAR MRLB NIL=
200806060900 METAR MRLB NIL=
200806061000 METAR MRLB NIL=
200806061100 METAR MRLB NIL=
200806061200 METAR MRLB 061200Z 29002KT 1500 BR SCT015 BKN250 24/23 A2980=
200806061300 METAR MRLB 061300Z 20003KT 9999 3000SW BR SCT020 BKN250 25/24 A2981=
200806061400 METAR MRLB 061400Z 16005KT 9999 SCT030 BKN250 A2985=
200806061500 METAR MRLB 061500Z 07004KT 9999 FEW035 BKN250 28/24 A2986=
200806061600 METAR MRLB 061600Z 13008KT 9999 SCT035 OVC250 30/24 A2987=
200806061700 METAR MRLB 061700Z 17007KT 9999 SCT035 OVC250 30/24 A2984 RMK RN DST N NE=
200806061800 METAR MRLB 061800Z 33007KT 9999 VCSH FEW020TCU SCT030 BKN130 30/23 A2985 RMK RERA 6000 N=
200806061900 METAR MRLB 061900Z 16005KT 9999 SCT030 BKN130 27/24 A2984=
200806062000 METAR MRLB 062000Z 20002KT 9999 FEW035 OVC130 27/24 A2982=
200806062100 METAR MRLB 062100Z 35004KT 9999 SCT035 BKN130 27/24 A2981=
200806062200 METAR MRLB 062200Z 30005KT 9999 SCT035 BKN140 28/24 A2980=
200806062300 METAR MRLB 062300Z 35003KT 9999 SCT035 OVC140 27/24 A2980=
200806070000 METAR MRLB 070000Z 03003KT 9999 SCT030 OVC130 27/24 A2982 RMK RN DST E NE=
200806070100 METAR MRLB 070100Z 04005KT 9999 DZ SCT030 OVC120 26/24 A2985=
200806070200 METAR MRLB 070200Z 06004KT 9999 -RA SCT025 OVC110 25/24 A2988=
200806070300 METAR MRLB NIL=
200806070400 METAR MRLB NIL=
200806070500 METAR MRLB NIL=
200806070600 METAR MRLB NIL=
200806070700 METAR MRLB NIL=
200806070800 METAR MRLB NIL=
200806070900 METAR MRLB NIL=
200806071000 METAR MRLB NIL=
200806071100 METAR MRLB NIL=
200806071200 METAR MRLB 071200Z 00000KT 9999 FEW010 SCT150 BKN250 24/23 A2981 LW ST ARND=
200806071300 METAR MRLB 071300Z 00000KT 9999 FEW010 SCT150 BKN250 25/23 A2983 RMK FOG BANK ARND=
200806071400 METAR MRLB 071400Z 00000KT 9999 FEW012 BKN250 26/24 A2985=
200806071500 METAR MRLB 071500Z 35003KT 9999 FEW015 BKN250 28/24 A2986=
200806071600 METAR MRLB 071600Z 00000KT 9999 FEW015 BKN250 30/23 A2986=
200806071700 METAR MRLB 071700Z 10010KT 9999 SCT025 BKN250 31/23 A2984=
200806071800 METAR MRLB 071800Z 10010KT 9999 SCT025 BKN250 32/23 A2983=
200806071900 METAR MRLB 071900Z 08008KT 9999 SCT025 BKN250 33/23 A2979=
200806072000 METAR MRLB 072000Z 09010KT 9999 SCT025 BKN250 33/23 A2978=
200806072100 METAR MRLB 072100Z 11007KT 9999 SCT025 BKN250 33/22 A2975 RMK CB RN DST N=
200806072200 METAR MRLB 072200Z 10007KT 9999 SCT020CB BN180 25/23 A2976 RMK VIS W 5KMS DUE RN=
200806072300 METAR MRLB 072300Z 04005KT 9999 SCT030 BKN180 26/23 A2977 RMK CB RN DST S W=
200806080000 METAR MRLB NIL=
200806080100 METAR MRLB 080100Z 13007KT 9999 FEW030 SCT150 26/22 A2981=
200806080200 METAR MRLB NIL=
200806080300 METAR MRLB NIL=
200806080400 METAR MRLB NIL=
200806080500 METAR MRLB NIL=
200806080600 METAR MRLB NIL=
200806080700 METAR MRLB NIL=
200806080800 METAR MRLB NIL=
200806080900 METAR MRLB NIL=
200806081000 METAR MRLB NIL=
200806081100 METAR MRLB NIL=
200806081200 METAR MRLB 081200Z 04002KT 9999 SCT035 BKN130 24/23 A2982=
200806081300 METAR MRLB 081300Z 00000KT 9999 FEW035 SCT130 BKN250 25/23 A2983=
200806081400 METAR MRLB 081400Z 17005KT CAVOK 26/23 A2985 SCT130 BKN250=
200806081500 METAR MRLB 081500Z 11007KT CAVOK 29/23 A2986 RMK FEW130 BKN250=
200806081600 METAR MRLB 081600Z NIL=
200806081700 METAR MRLB 081700Z 12006KT 9999 FEW030 BKN250 31/23 A2986 RMK FEW130=
200806081800 METAR MRLB 081800Z 12003KT 9999 FEW030 BKN250 31/21 A2984 RMK RN DST S SW=
200806081900 METAR MRLB 081900Z 16003KT 9999 SCT030 BKN250 32/23 A2982 RMK RN DST E S=
200806082000 METAR MRLB 082000Z 28009KT 9999 SCT025 BKN250 30/24 A2980 RMK RN DST NE E CB RN DST S SW=
200806082100 METAR MRLB 082100Z 26012KT 9999 4000N -TS VCSH SCT010CB BKN020 29/24 A2980=
200806082200 METAR MRLB 082200Z 05006KT 50000 RA SCT020 BKN100 24/23 A2981 VIS W UNL TS N=
200806082300 METAR MRLB 082300Z 02003KT 9999 4000SE -RA SCT020 BKN100 24/23 A2981 RMK TS S=
200806090000 METAR MRLB 090000Z 01004KT 9999 -RA SCT020 BKN120 24/23 A2982=
200806090100 METAR MRLB 090100Z 00000KT 9999 -RA SCT020 BKN120 24/23 A2985=
200806090200 METAR MRLB NIL=
200806090300 METAR MRLB NIL=
200806090400 METAR MRLB NIL=
200806090500 METAR MRLB NIL=
200806090600 METAR MRLB NIL=
200806090700 METAR MRLB NIL=
200806090800 METAR MRLB NIL=
200806090900 METAR MRLB NIL=
200806091000 METAR MRLB NIL=
200806091100 METAR MRLB NIL=
200806091200 METAR MRLB NIL=
200806091300 METAR MRLB 091300Z 09002KT 9999 SCT030 SCT250 25/23 A2988=
200806091400 METAR MRLB 091400Z 08005KT 9999 FEW130 BKN250 26/23 A2989=
200806091500 METAR MRLB 091500Z 11004KT 9999 FEW035 SCT250 28/24 A2990=
200806091600 METAR MRLB 091600Z 16005KT 9999 SCT035 BKN250 29/24 A2989=
200806091700 METAR MRLB 091700Z 14004KT 9999 SCT035 BKN250 30/23 A2988=
200806091800 METAR MRLB 091800Z 15004KT 9999 SCT035 BKN250 31/23 A2987=
200806091900 METAR MRLB 091900Z 17004KT 9999 SCT035 BKN250 31/24 A2985 RMK RN DST E NE=
200806092000 METAR MRLB 092000Z 35009KT 9999 FEW020TCU SCT030 BKN240 27/23 A2983 RMK RN N NE E=
200806092100 METAR MRLB 092100Z 05005KT 9999 SCT030 BKN140 26/23 A2980 RN S SE=
200806092200 METAR MRLB 092200Z 12002KT 9999 SCT035 BKN140 26/23 A2981 RN S=
200806092300 METAR MRLB 092300Z 23005KT 9999 FEW035 OVC140 26/23 A2982=
200806100000 METAR MRLB 100000Z 26002KT 9999 FEW035 OVC140 26/23 A2983=
200806100100 METAR MRLB 100100Z 00000KT 9999 FEW035 SCT140 BKN250 26/24 A2986=
200806100200 METAR MRLB NIL=
200806100300 METAR MRLB NIL=
200806100400 METAR MRLB NIL=
200806100500 METAR MRLB NIL=
200806100600 METAR MRLB NIL=
200806100700 METAR MRLB NIL=
200806100800 METAR MRLB NIL=
200806100900 METAR MRLB NIL=
200806101000 METAR MRLB NIL=
200806101100 METAR MRLB NIL=
200806101200 METAR MRLB 101200Z 00000KT 9999 SCT025 BKN250 23/22 A2987=
200806101300 METAR MRLB 101300Z 00000KT 9999 FEW025 SCT250 25/23 A2989=
200806101400 METAR MRLB 101400Z 20003KT CAVOK 27/23 A2989 SCT250=
200806101500 METAR MRLB 101500Z 14006KT CAVOK 2824 A2991 SCT250=
200806101600 METAR MRLB 101600Z 15005KT 999 FEW030 SCT250 30/23 A2991=
200806101700 METAR MRLB 101700Z 15004KT 9999 SCT025 BKN250 31/23 A2990=
200806101800 METAR MRLB NIL=
200806101900 METAR MRLB 101900Z 14005KT 9999 SCT020TCU BKN250 29/27 A2985=
200806102000 METAR MRLB NIL=
200806102100 METAR MRLB 102100Z 28010KT 9999 FEW020TCU SCT100 BKN250 28/25 A2980=
200806102200 METAR MRLB 102200Z 27012KT 9999 SCT020TCU BKN250 29/24 A2980 RMK CB RN E SE=
200806102300 METAR MRLB 102300Z 08010KT 9999 SCT015CB BKN200 28/24 A2984 RMK VIS E SE S 9000 DUE CB RN=
200806110000 METAR MRLB 110000Z 07008KT 7000 -TSDZ SCT010CB OVC100 24/23 A2987 RMK BR ARND=
200806110100 METAR MRLB 110100Z 04006KT 7000 TSRA SCT015CB OVC080 24/23 A2989=
200806110200 METAR MRLB 110200Z 02005KT 9999 DZ SCT020CB BKN120 23/23 A2992=
200806110300 METAR MRLB NIL=
200806110400 METAR MRLB NIL=
200806110500 METAR MRLB NIL=
200806110600 METAR MRLB NIL=
200806110700 METAR MRLB NIL=
200806110800 METAR MRLB NIL=
200806110900 METAR MRLB NIL=
200806111000 METAR MRLB NIL=
200806111100 METAR MRLB NIL=
200806111200 METAR MRLB 111200Z 00000KT CAVOK 23/23 A2985 RMK SCT130 BKN250=
200806111300 METAR MRLB NIL=
200806111400 METAR MRLB 111400Z 00000KT 9999 FEW015 SCT130 27/24 A2988=
200806111500 METAR MRLB 111500Z 13003KT 9999 FEW020 SCT250 28/24 A2987=
200806111600 METAR MRLB 111600Z 12006KT 9999 SCT025 SCT250 30/24 A2986=
200806111700 METAR MRLB 111700Z 17005KT 9999 BKN030 30/25 A2985=
200806111800 METAR MRLB 111800Z 12005KT 999 BKN030 31/24 A2983=
200806111900 METAR MRLB 111900Z 15008KT 9999 SCT025 SCT100 31/23 A2981=
200806112000 METAR MRLB 112000Z 29006KT 9999 SCT020 SCT100 30/25 A2979 RMK TCU RN DST NE NW=
200806112100 METAR MRLB 112100Z 28008KT 9999 FEW015TCU SCT020 SCT100 30/25 A2976 RMK RN DST N NE=
200806112200 METAR MRLB 112200Z 30009KT 9999 SCT020 SCT120 29/25 A2976 RMK TCU RN DST S=
200806112300 METAR MRLB 112300Z 29007KT 9999 SCT020 SCT120 29/24 A2977 RMK RN DST S=
200806120000 METAR MRLB 120000Z 28005KT 9999 FEW020 SCT120 28/24 A2978 RMK RN DST S=
200806120100 METAR MRLB 120100Z 00000KT 9999 FEW020 BKN120 28/24 A2982 RMK LTNG S=
200806120200 METAR MRLB 120200Z 00000KT 9999 FEW020 BKN120 27/25A2984 RMK LTNG S=
200806120300 METAR MRLB NIL=
200806120400 METAR MRLB NIL=
200806120500 METAR MRLB NIL=
200806120600 METAR MRLB NIL=
200806120700 METAR MRLB NIL=
200806120800 METAR MRLB NIL=
200806120900 METAR MRLB NIL=
200806121000 METAR MRLB NIL=
200806121100 METAR MRLB NIL=
200806121200 METAR MRLB 121200Z 0000OKT 9999 2000SW BR SCT015 BKN250 24/23 A2982=
200806121300 METAR MRLB 121300Z 00000KT 9999 SCT020 SCT250 26/24 A2985=
200806121400 METAR MRLB 121400Z 25003KT 9999 FEW035 SCT250 27/24 A2985=
200806121500 METAR MRLB 121500Z 03002KT 9999 SCT035 SCT250 29/24 A2986=
200806121600 METAR MRLB 121600Z 13003KT 9999 SCT035 BKN250 30/24 A2985=
200806121700 METAR MRLB 121700Z 09009KT 9999 SCT035 BKN250 32/23 A2986=
200806121800 METAR MRLB 121800Z 08009KT 9999 FEW035 BKN130 31/23 A2983=
200806121900 METAR MRLB 121900Z 11008KT 9999 SCT035 BKN130 31/23 A2980=
200806122000 METAR MRLB 122000Z 09009KT 9999 FEW035 BKN130 30/22 A2979=
200806122100 METAR MRLB 122100Z 13006KT 9999 FEW035 BKN140 30/23 A2976=
200806122200 METAR MRLB 122200Z 10006KT 9999 FEW035 SCT140 OVC250 32/22 A2975=
200806122300 METAR MRLB 122300Z 09008KT 9999 FEW035 BKN140 30/21 A2975=
200806130000 METAR MRLB 130000Z 10006KT 9999 FEW040 BKN140 29/20 A2976=
200806130100 METAR MRLB 130100Z 05004KT 9999 FEW040 BKN140 28/21 A2976=
200806130200 METAR MRLB NIL=
200806130300 METAR MRLB NIL=
200806130400 METAR MRLB NIL=
200806130500 METAR MRLB NIL=
200806130600 METAR MRLB NIL=
200806130700 METAR MRLB NIL=
200806130800 METAR MRLB NIL=
200806130900 METAR MRLB NIL=
200806131000 METAR MRLB NIL=
200806131100 METAR MRLB NIL=
200806131200 METAR MRLB 131200Z 00000KT 9999 FEW025 SCT150 24/23 A2982 RMK BR DST ARND=
200806131300 METAR MRLB 131300Z 00000KT 9999 FEW030 SCT180 26/23 A2983=
200806131400 METAR MRLB 131400Z 28004KT 9999 FEW035 SCT200 28/24 A2984=
200806131500 METAR MRLB 131500Z 08014KT CAVOK 30/22 A2985 RMK FEW100 SCT250=
200806131600 METAR MRLB 131600Z 08014KT CAVOK 31/22 A2983 RMK FEW120 SCT250=
200806131700 METAR MRLB 131700Z 08015KT CAVOK 32/22 A2982 FEW100 SCT250=
200806131800 METAR MRLB 131800Z 09013KT 9999 FEW030 SCT250 32/21 A2982=
200806131900 METAR MRLB 131900Z 08013KT 9999 FEW030 BKN250 32/21 A2980=
200806132000 METAR MRLB NIL=
200806132100 METAR MRLB 132100Z 08010KT 9999 FEW025 BKN250 33/22 A2976 RMK TCU S E=
200806132200 METAR MRLB 132200Z 08014KT 9999 SCT030 BKN250 32/22 A2976=
200806132300 METAR MRLB 132300Z 08010KT 9999 SCT035 BKN180 30/22 A2977=
200806140000 METAR MRLB 140000Z 08009KT 9999 FEW035 SCT180 29/21 A2977=
200806140100 METAR MRLB 140100Z 12006KT 9999 FEW035 SCT150 28/21 A2980=
200806140200 METAR MRLB 140200Z 08010KT 9999 FEW030 SCT200 28/22 A2980=
200806140300 METAR MRLB NIL=
200806140400 METAR MRLB NIL=
200806140500 METAR MRLB NIL=
200806140600 METAR MRLB NIL=
200806140700 METAR MRLB NIL=
200806140800 METAR MRLB NIL=
200806140900 METAR MRLB NIL=
200806141000 METAR MRLB NIL=
200806141100 METAR MRLB NIL=
200806141200 METAR MRLB 141200Z 36002KT 9999 FEW030 OVC120 24/22 A2981 RMK RN DST S=
200806141300 METAR MRLB 141300Z 36002KT 9999 FEW035 OVC120 24/23 A2982 RMK RN S=
200806141400 METAR MRLB 141400Z 21004KT CAVOK 25/23 A2980 RMK OVC120=
200806141500 METAR MRLB 141500Z 31005KT CAVOK 27/23 A2980 RMK OVC150=
200806141600 METAR MRLB 141600Z 25004KT CAVOK 29/23 A2981 RMK OVC220=
200806141700 METAR MRLB 141700Z 33006KT CAVOK 31/23 A2979 RMK OVC250=
200806141800 METAR MRLB 141800Z 32003KT CAVOK 31/22 A2978 RMK OVC250=
200806141900 METAR MRLB 141900Z 24003KT CAVOK 32/22 A2977 RMK OVC250=
200806142000 METAR MRLB 142000Z 10014KT CAVOK 32/20 A2975 RMK OVC250=
200806142100 METAR MRLB 142100Z 09009KT 9999 FEW040 OVC250 33/20 A2973=
200806142200 METAR MRLB NIL=
200806142300 METAR MRLB 142300Z 07003KT 9999 FEW040 SCT140 BKN250 32/22 A2976=
200806150000 METAR MRLB 150000Z 11003KT 9999 FEW040 BKN250 31/23 A2977 CB DST N=
200806150100 METAR MRLB 150100Z 12006KT CAVOK 29/23 FEW140 BKN250=
200806150200 METAR MRLB NIL=
200806150300 METAR MRLB NIL=
200806150400 METAR MRLB NIL=
200806150500 METAR MRLB NIL=
200806150600 METAR MRLB NIL=
200806150700 METAR MRLB NIL=
200806150800 METAR MRLB NIL=
200806150900 METAR MRLB NIL=
200806151000 METAR MRLB NIL=
200806151100 METAR MRLB NIL=
200806151200 METAR MRLB 151200Z 10002KT CAVOK 23/22 A2979 RMK BKN250=
200806151300 METAR MRLB 151300Z 00000KT CAVOK 26/24 A2982 OVC230=
200806151400 METAR MRLB 151400Z 20005KT CAVOK 27/24 A2983 BKN230=
200806151500 METAR MRLB 151500Z 22004KT 9999 FEW035 BKN230 29/24 A2984=
200806151600 METAR MRLB 151600Z 27005KT 9999 FEW035 BKN240 31/23 A2982=
200806151700 METAR MRLB 151700Z 29006KT 9999 SCT035 BKN240 31/23 A2981=
200806151800 METAR MRLB NIL=
200806151900 METAR MRLB 151900Z 15003KT 9999 SCT035 BKN140 31/24 A2979=
200806152000 METAR MRLB 152000Z 27006KT 9999 SCT035 BKN140 30/25 A2977=
200806152100 METAR MRLB 152100Z 29008KT 9999 FEW035 OVC140 30/24 A2975=
200806152200 METAR MRLB NIL=
200806152300 METAR MRLB 152300Z 27007KT 9999 FEW040 BKN140 29/24 A2978=
200806160024 METAR MRLB 160024Z 26004KT 9999 FEW040 SC130 OVC240 28/24 A2978=
200806160100 METAR MRLB 160100Z 27004KT 9999 FEW040 BKN240 27/24 A2980=
200806160200 METAR MRLB NIL=
200806160300 METAR MRLB NIL=
200806160400 METAR MRLB NIL=
200806160500 METAR MRLB NIL=
200806160600 METAR MRLB NIL=
200806160700 METAR MRLB NIL=
200806160800 METAR MRLB NIL=
200806160900 METAR MRLB NIL=
200806161000 METAR MRLB NIL=
200806161100 METAR MRLB NIL=
200806161200 METAR MRLB 161200Z 000000KT 9999 1000W BR FEW001 SCT250 24/23 A2983=
200806161300 METAR MRLB 161300Z 00000KT 9999 0500 FG FEW001 SCT025 25/24 A2985=
200806161400 METAR MRLB 161400Z 21004KT 9999 FEW020 BKN250 28/25 A2986=
200806161500 METAR MRLB 161500Z 02005KT CAVOK 30/23 A2986 RMK FEW120 SCT250=
200806161600 METAR MRLB 161600Z 09011KT CAVOK 32/22 A2985=
200806161700 METAR MRLB 161700Z 11010KT CAVOK 32/22 A2984 RMK FEW120 SCT250=
200806161800 METAR MRLB 161800Z 12010KT CAVOK 32/22 A283 RMK FEW100 BKN250=
200806161900 METAR MRLB 161900Z 10008KT 9999 FEW030 BKN250 33/22 A2981=
200806162000 METAR MRLB 162000Z 10010KT 9999 FEW025 BKN250 32/21 A2980 RMK CB DST S=
200806162100 METAR MRLB 162100Z 12008KT 9999 SCT025 BKN250 33/22 A2978=
200806162200 METAR MRLB 162200Z 30010KT 9999 FEW025 BKN250 31/24 A2978 RMK TCU DST S=
200806162300 METAR MRLB 162300Z 29008KT 9999 SCT020TCU BKN250 29/25 A2980 RMK CB DST SW=
200806170000 METAR MRLB 170000Z 28006KT 9999 FEW010CB SCT030 BKN250 28/25 A2982 RMK RN DST S SE SW=
200806170100 METAR MRLB 170100Z 21005KT 7000 -TSRA SCT015CB OVC100 26/24 A2985=
200806170200 METAR MRLB 170200Z 10003KT CAVOK 27/24 A2984 RMK BKN130=
200806170300 METAR MRLB NIL=
200806170400 METAR MRLB NIL=
200806170500 METAR MRLB NIL=
200806170600 METAR MRLB NIL=
200806170700 METAR MRLB NIL=
200806170800 METAR MRLB NIL=
200806170900 METAR MRLB NIL=
200806171000 METAR MRLB NIL=
200806171100 METAR MRLB NIL=
200806171200 METAR MRLB 171200Z 06003KT 0100 FG VV/// 25/24 A2986=
200806171300 METAR MRLB 171300Z 25005KT 9999 3000N BR FEW002 SCT250 26/25 A2988=
200806171400 METAR MRLB 171400Z 11002KT 9999 SCT010 27/25 A2990 RMK FEW250=
200806171500 METAR MRLB 171500Z 22003KT 9999 FEW025 29/25 A2990 RMK FEW250=
200806171600 METAR MRLB 171600Z 23004KT 9999 FEW030 SCT250 30/25 A2990=
200806171700 METAR MRLB 171700Z 09007KT 9999 FEW035 BKN250 32/23 A2988=
200806171800 METAR MRLB 171800Z 10008KT 9999 FEW035 BKN250 33/23 A2987=
200806171900 METAR MRLB 171900Z 08007KT 9999 BKN030 SCT100 32/22 A2985=
200806172000 METAR MRLB 172000Z 13007KT 9999 SCT030 BKN120 32/23 A2983=
200806172100 METAR MRLB 172100Z 11005KT 9999 FEW030 OVC120 31/24 A2982=
200806172200 METAR MRLB 172200Z 15004KT CAVOK 30/24 A2981 RMK OVC130=
200806172300 METAR MRLB 172300Z 29003KT CAVOK 30/25 A2982 RMK OVC130=
200806180000 METAR MRLB 180000Z 13005KT 9999 FEW025 OVC140 29/24 A2984=
200806180100 METAR MRLB 180100Z 11007KT 9999 FEW030 BKN130 27/23 A2984=
200806180200 METAR MRLB NIL=
200806180300 METAR MRLB NIL=
200806180400 METAR MRLB NIL=
200806180500 METAR MRLB NIL=
200806180600 METAR MRLB NIL=
200806181000 METAR MRLB NIL=
200806181100 METAR MRLB NIL=
200806181200 METAR MRLB NIL=
200806181300 METAR MRLB NIL=
200806181400 METAR MRLB NIL=
200806181500 METAR MRLB 181500Z 24004KT 9999 SCT030 BKN250 29/25 A2987=
200806181600 METAR MRLB 181600Z 22003KT 9999 SCT035 SCT250 29/25 A2988=
200806181700 METAR MRLB 181700Z 25004KT 9999 SCT035 BKN250 30/25 A2987=
200806181800 METAR MRLB 181800Z 12003KT 9999 SCT035 BKN250 31/24 A2985=
200806181900 METAR MRLB 181900Z 24005KT 9999 FEW020 SCT035 BKN250 32/25 A2983=
200806182000 METAR MRLB 182000Z 28005KT 9999 SCT035 BKN250 31/26 A2979=
200806182100 METAR MRLB 182100Z 26006KT 9999 -RA FEW020TCU SCT030 BKN140 31/24 A2978=
200806182200 METAR MRLB 182200Z 22004KT 9999 SCT030 BKN140 28/23 A2977 RMK RN DST S=
200806182300 METAR MRLB 182300Z 22004KT 9999 FEW035 BKN250 29/24 A2977=
200806190000 METAR MRLB NIL=
200806190100 METAR MRLB 190100Z 23002KT 9999 FEW035 OVC240 27/24 A2980=
200806190200 METAR MRLB 190200Z 12003KT 9999 FEW035 BKN240 26/24 A2983=
200806190300 METAR MRLB NIL=
200806190400 METAR MRLB NIL=
200806190500 METAR MRLB NIL=
200806190600 METAR MRLB NIL=
200806190700 METAR MRLB NIL=
200806190800 METAR MRLB NIL=
200806190900 METAR MRLB NIL=
200806191000 METAR MRLB NIL=
200806191100 METAR MRLB NIL=
200806191200 METAR MRLB 191200Z 33004KT CAVOK 24/23 A2983 RMK SCT250 FOG BANK ARND=
200806191300 METAR MRLB 191300Z 04003KT CAVOK 26/24 A2983 RMK SCT250=
200806191400 METAR MRLB 191400Z 00000KT CAVOK 28/24 A2985 RMK SCT250=
200806191500 METAR MRLB 191500Z 00000KT CAVOK 30/23 A2986 RMK SCT200=
200806191600 METAR MRLB 191600Z 29003KT 9999 FEW030 SCT250 31/24 A2987=
200806191700 METAR MRLB 191700Z 07005KT 9999 FEW025 SCT250 32/22 A2985=
200806191800 METAR MRLB 191800Z 07008KT 9999 SCT025 BKN250 33/22 A2984=
200806191900 METAR MRLB 191900Z 00000KT 9999 SCT030 BKN250 33/22 A2982=
200806192000 METAR MRLB NIL=
200806192100 METAR MRLB 192100Z 27008KT 9999 SCT030TCU BKN250 32/23 A2976=
200806192200 METAR MRLB 192200Z 28007KT 9999 FEW025 BKN250 31/24 A2977 CB RN N S=
200806192300 METAR MRLB 192300Z 32003KT 9999 SCT025 BKN250 31/23 A2977 CB RN S=
200806200000 METAR MRLB 200000Z 15007KT 9999 SCT020CB BKN180 28/24 A2980 CB RN W DST=
200806200100 METAR MRLB 200100Z 15007KT 9999 SCT025CB BKN180 27/24 A2982 TS CB RN W=
200806200200 METAR MRLB NIL=
200806200300 METAR MRLB NIL=
200806200400 METAR MRLB NIL=
200806200500 METAR MRLB NIL=
200806200600 METAR MRLB NIL=
200806200700 METAR MRLB NIL=
200806200800 METAR MRLB NIL=
200806200900 METAR MRLB NIL=
200806201000 METAR MRLB NIL=
200806201100 METAR MRLB NIL=
200806201200 METAR MRLB 201200Z 06002KT 9999 3000N BR BKN250 24/23 A2983 RMK CB DST S SW=
200806201300 METAR MRLB 201300Z 09002KT CAVOK 25/23 A2984 BKN250 CB DIST S SW=
200806201400 METAR MRLB 201400Z 15004KT CAVOK 27/24 A2987 BKN250 CB DST S TRAZAS CU=
200806201500 METAR MRLB 201500Z 14006KT 9999 FEW020 29/15 A2988 FEW250=
200806201600 METAR MRLB 201600Z 19006KT 9999 SCT025 30/25 A2987 FEW250=
200806201700 METAR MRLB 201700Z 14004KT 9999 BKN035 31/24 A2987 FEW250 RN DST NE=
200806201800 METAR MRLB 201800Z 10008KT 9999 SCT030 32/23 A2986 FEW250=
200806201900 METAR MRLB 201900Z 10007KT 9999 SCT030 SCT120 333/2 A2982=
200806202000 METAR MRLB 202000Z 28008KT 9999 SCT030 SCT250 30/24 A2992=
200806202100 METAR MRLB 202100Z 28013KT 9999 SCT020 BKN030 29/25 29/23 A2981 RMK RN DST N S=
200806202200 METAR MRLB 202200Z 31010KT 9999 -TS FEW010CB BKN120 27/23 A2982 RMK RN DST SE S SW=
200806202300 METAR MRLB 202300Z 17008KT 9999 FEW020 OVC120 25/23 A2982 RMK CB RN DST S SW=
200806210000 METAR MRLB 210000Z 17004KT 9999 FEW030 OVC120 24/21 A2983 RMK RN DST N S=
200806210100 METAR MRLB 210100Z 04004KT CAVOK 24/22 A2987 RMK OVC130=
200806210200 METAR MRLB NIL=
200806210300 METAR MRLB NIL=
200806210400 METAR MRLB NIL=
200806210500 METAR MRLB NIL=
200806210600 METAR MRLB NIL=
200806210700 METAR MRLB NIL=
200806210800 METAR MRLB NIL=
200806210900 METAR MRLB NIL=
200806211000 METAR MRLB NIL=
200806211100 METAR MRLB NIL=
200806211200 METAR MRLB 211200Z 06004KT 9999 FEW030 BKN250 27/22 A2985=
200806211300 METAR MRLB 211300Z 07010KT 9999 FEW035 BKN250 28/22 A2984=
200806211400 METAR MRLB 211400Z 08014KT 9999 FEW035 BKN250 30/22 A2985=
200806211500 METAR MRLB 211500Z 08015KT 9999 FEW035 BKN250 31/22 A2984=
200806211600 METAR MRLB 211600Z 07017KT 9999 FEW035 SCT250 31/22 A2985=
200806211700 METAR MRLB 211700Z 06018KT 9999 FEW035 FEW035 SCT250 32/22 A2985=
200806211800 METAR MRLB 211800Z 06016KT 9999 FEW035 BKN250 33/22 A2984=
200806211900 METAR MRLB 211900Z 07015KT 9999 FEW035 BKN250 33/22 A2980=
200806212000 METAR MRLB 212000Z 05015KT 9999 FEW035 BKN240 34/21 A2978=
200806212100 METAR MRLB 212100Z 05017KT 9999 FEW035 OVC240 33/20 A2976=
200806212200 METAR MRLB 212200Z 06013KT 9999 FEW035 BKN240 32/21 A2976=
200806212300 METAR MRLB 212300Z 06013KT CAVOK 32/21 A2978 RMK BKN240 TRACE CU=
200806220000 METAR MRLB 220000Z 05012KT CAVOK 30/21 A2980M RMK BKN240=
200806220100 METAR MRLB NIL=
200806220200 METAR MRLB NIL=
200806220300 METAR MRLB NIL=
200806220400 METAR MRLB NIL=
200806220500 METAR MRLB NIL=
200806220600 METAR MRLB NIL=
200806220700 METAR MRLB NIL=
200806220800 METAR MRLB NIL=
200806220900 METAR MRLB NIL=
200806221000 METAR MRLB NIL=
200806221100 METAR MRLB NIL=
200806221200 METAR MRLB 221200Z 07004KT 9999 FEW030 BKN250 24/23 A2980 RERA=
200806221300 METAR MRLB 221300Z 07004KT 9999 FEW030 BKN250 25/23 A2980=
200806221400 METAR MRLB 221400Z 35005KT 9999 FEW030 BKN250 27/24 A2982=
200806221500 METAR MRLB 221500Z 06012KT CAVOK 29/23 A2983 RMK SCT250=
200806221600 METAR MRLB 221600Z 06015KT CAVOK 31/22 A2983 RMK BKN250=
200806221700 METAR MRLB 221700Z 06015KT CAVOK 31/22 A2981 RMK BKN250=
200806221800 METAR MRLB 221800Z 05012KT CAVOK 31/22 A2979 RMK BKN250 CB DST E=
200806221900 METAR MRLB 221900Z 04013KT 9999 SCT030TCU BKN220 32/23 A2979 RMK TCU RN DST E NE=
200806222000 METAR MRLB 222000Z 04010KT 9999 SCT035 BKN180 30/23 A2976=
200806222100 METAR MRLB NIL=
200806222200 METAR MRLB 222200Z 11006KT CAVOK 29/23 A2974 RMK FEW100 BKN240 TCU DST S=
200806222300 METAR MRLB 222300Z 07007KT CAVOK 29/22 A2976 RMK FEW120 BKN240 TCU S DST=
200806230000 METAR MRLB 230000Z 10006KT 9999 FEW030 SCT180 28/22 A2979=
200806230100 METAR MRLB NIL=
200806230200 METAR MRLB NIL=
200806230300 METAR MRLB NIL=
200806230400 METAR MRLB NIL=
200806230500 METAR MRLB NIL=
200806230600 METAR MRLB NIL=
200806230700 METAR MRLB NIL=
200806230800 METAR MRLB NIL=
200806230900 METAR MRLB NIL=
200806231000 METAR MRLB NIL=
200806231100 METAR MRLB NIL=
200806231200 METAR MRLB 231200Z 00000KT 9999 SCT025 BKN120 24/23 A2984=
200806231300 METAR MRLB 231300Z 02004KT 8000 -RA FEW005 OVC020 24/23 A2987=
200806231400 METAR MRLB 231400Z 23005KT 9999 -RA FEW005 OVC120 24/23 A2987=
200806231500 METAR MRLB 231500Z 20003KT 9999 -RA FEW005 OVC120 24/23 A2984=
200806231600 METAR MRLB 231600Z 26002KT 9999 SCT010 BKN120 25/24 A2984=
200806231700 METAR MRLB 231700Z 23002KT 9999 FEW025 OVC120 27/24 A2984 RMK RN DST N=
200806231800 METAR MRLB 231800Z 30007KT 9999 SCT025 BKN120 28/24 A2982 RMK RN DST NE=
200806231900 METAR MRLB 231900Z 28008KT 9999 FEW010 BKN025 29/24 A2981 RMK RN DST N NE E S=
200806232000 METAR MRLB 232000Z 09007KT 9999 -RA FEW020 OVC100 25/22 A2980=
200806232100 METAR MRLB 232100Z 00000KT 9999 SCT020 BKN100 26/23 A2980 RMK RN N E=
200806232200 METAR MRLB 232200Z 19004KT 9999 -RA FEW030 OVC100 25/23 A2980=
200806232300 METAR MRLB 232300Z 19002KT 9999 -RA FEW030 OVC100 25/23 A2981=
200806240000 METAR MRLB 240000Z 15004KT 9999 FEW030 OVC100 24/23 A2981=
200806240100 METAR MRLB 240100Z 13005KT 9999 -RA FEW030 OVC100 24/23 A2985=
200806240200 METAR MRLB 240200Z 11006KT 9999 -RA FEW030 OVC100 24/23 A2987=
200806240300 METAR MRLB NIL=
200806240400 METAR MRLB NIL=
200806240500 METAR MRLB NIL=
200806240600 METAR MRLB NIL=
200806240700 METAR MRLB NIL=
200806240800 METAR MRLB NIL=
200806240900 METAR MRLB NIL=
200806241000 METAR MRLB NIL=
200806241100 METAR MRLB NIL=
200806241200 METAR MRLB 241200Z 13002KT 9999 FEW030 BKN130 23/22 A2988 RMK DUE ST SW=
200806241300 METAR MRLB 241300Z 18002KT 9999 FEW035 OVC130 24/23 A2990 RMK ST LOW SW=
200806241400 METAR MRLB 241400Z 15003KT 9999 FEW035 BKN130 25/23 A2991=
200806241500 METAR MRLB 241500Z 11004KT 9999 FEW035 OVC130 26/24 A2992=
200806241600 METAR MRLB 241600Z 03005KT 9999 FEW030 BKN130 26/24 A2991=
200806241700 METAR MRLB 241700Z 34003KT 9999 FEW035 BKN140 28/24 A2991=
200806241800 METAR MRLB NIL=
200806241900 METAR MRLB 241900Z 10006KT 9999 SCT035 BKN140 31/23 A2987=
200806242000 METAR MRLB 242000Z 11007KT 9999 SCT035 BKN140 31/23 A2985=
200806242100 METAR MRLB 242100Z 09010KT 9999 SCT035 OVC140 31/22 A2984=
200806242200 METAR MRLB 242200Z 09007KT 9999 SCT035 OVC130 29/22 A2984=
200806242300 METAR MRLB 242300Z 10007KT 9999 FEW035 OVC130 28/22 A2984=
200806250000 METAR MRLB 250000Z 32006KT 9999 FEW035 OVC130 28/24 A2985=
200806250100 METAR MRLB 250100Z 07004KT 9999 FEW035 BKN140 26/22 A2987=
200806250200 METAR MRLB NIL=
200806250300 METAR MRLB NIL=
200806250400 METAR MRLB NIL=
200806250500 METAR MRLB NIL=
200806250600 METAR MRLB NIL=
200806250700 METAR MRLB NIL=
200806250800 METAR MRLB NIL=
200806250900 METAR MRLB NIL=
200806251000 METAR MRLB NIL=
200806251100 METAR MRLB NIL=
200806251200 METAR MRLB 251200Z 00000KT CAVOK 22/21 A2987 RMK FEW200=
200806251300 METAR MRLB NIL=
200806251400 METAR MRLB 251400Z 34004KT CAVOK 27/23 A2991 BKN240=
200806251500 METAR MRLB 251500Z 29005KT CAVOK 28/23 A2992 SCT220=
200806251600 METAR MRLB 251600Z 13006KT 9999 FEW030 SCT200 30/23 A2992=
200806251700 METAR MRLB 251700Z 08010KT 9999 SCT030 BKN280 30/23 A2991 TCU DIST S SW=
200806251800 METAR MRLB 251800Z 08006KT 9999 FEW030 SCT250 31/22 A2988=
200806251900 METAR MRLB 251900Z 06010KT 9999 FEW035 SCT250 32/22 A2984=
200806252000 METAR MRLB 252000Z 07008KT 9999 SCT030 SCT250 32/21 A2983=
200806252100 METAR MRLB 252100Z 06012KT 9999 FEW030 SCT250 33/22 A2982=
200806252200 METAR MRLB 252200Z 09008KT 9999 FEW035 SCT240 32/21 A2982=
200806252300 METAR MRLB 252300Z 07010KT 9999 FEW030 BKN250 30/21 A2982=
200806260000 METAR MRLB 260000Z 07010KT CAVOK 29/22 A2982 RMK FEW100 SCT250=
200806260100 METAR MRLB 260100Z 08006KT CAVOK 28/22 A2983 RMK FEW140=
200806260200 METAR MRLB 260200Z 09005KT CAVOK 27/22 A2985 RMK SCT250=
200806260300 METAR MRLB NIL=
200806260400 METAR MRLB NIL=
200806260500 METAR MRLB NIL=
200806260600 METAR MRLB NIL=
200806260700 METAR MRLB NIL=
200806260800 METAR MRLB NIL=
200806260900 METAR MRLB NIL=
200806261000 METAR MRLB NIL=
200806261100 METAR MRLB NIL=
200806261200 METAR MRLB 261200Z 15004KT 9999 SCT030 SCT120 26/23 A2980 RMK RN NE=
200806261300 METAR MRLB 261300Z 00000KT 9999 SCT030 SCT120 26/24 A2983 RMK RN DST N NE=
200806261400 METAR MRLB 261400Z 03005KT 9999 FEW030 BKN120 26/23 A2984 RMK RN E=
200806261500 METAR MRLB 261500Z 02003KT 9999 FEW035 BKN130 27/24 A2985 RMK RN DS N=
200806261700 METAR MRLB 261700Z 15003KT 9999 FEW030 OVC130 27/24 A2984=
200806261800 METAR MRLB NIL=
200806261900 METAR MRLB 261900Z 11006KT 9999 FEW035 OVC140 29/24 A2981=
200806262000 METAR MRLB 262000Z 10005KT 9999 FEW035 SCT140 BKN250 30/24 A2978=
200806262100 METAR MRLB 262100Z 13005KT 9999 FEW035 OVC140 30/23 A2976 RMK RN DST S=
200806262200 METAR MRLB 262200Z 12002KT 9999 SCT035 BKN130 30/24 A2975=
200806262300 METAR MRLB 262300Z 06002KT 9999 SCT035 BKN130 29/24 A2975 RMK CB DST SW=
200806270000 METAR MRLB 270000Z 00000KT 9999 SCT030 BKN130 29/24 A2976 RMK RN DST N=
200806270100 METAR MRLB 270100Z 02002KT 9999 FEW030 OVC130 28/23 A2977=
200806270200 METAR MRLB 270200Z 04002KT 9999 FEW030 OVC130 27/23 A2981=
200806270300 METAR MRLB NIL=
200806270400 METAR MRLB NIL=
200806270500 METAR MRLB NIL=
200806270600 METAR MRLB NIL=
200806270700 METAR MRLB NIL=
200806270800 METAR MRLB NIL=
200806270900 METAR MRLB NIL=
200806271000 METAR MRLB NIL=
200806271100 METAR MRLB NIL=
200806271200 METAR MRLB 271200Z 00000KT 9999 FEW030 BKN130 24/22 A2980=
200806271300 METAR MRLB 271300Z 24003KT 9999 FEW035 BKN130 24/23 A2981=
200806271400 METAR MRLB 271400Z 23003KT 9999 FEW035 BKN130 26/23 A2982=
200806271500 METAR MRLB 271500Z 18002KT 9999 FEW035 BKN250 28/24 A2983=
200806271600 METAR MRLB 271600Z 12002KT 9999 SCT035 BKN250 29/24 A2983=
200806271700 METAR MRLB 271700Z 33005KT 9999 RA FEW020TCU SCT035 BKN140 29/24 A2982=
200806271800 METAR MRLB 271800Z 26003KT 9999 SCT025 OVC130 27/24 A2981 RMK RN DST SW=
200806271900 METAR MRLB 271900Z 24006KT 9999 DZ SCT025 OVC120 26/24 A2981=
200806272000 METAR MRLB 272000Z 19004KT 9999 4000SW RA SCT020 OVC110 24/23 A2979=
200806272100 METAR MRLB 272100Z 28003KT 9999 FEW035 OVC120 25/24 A2978 RN DST NE=
200806272200 METAR MRLB 272200Z 26004KT 9999 SCT030 OVC120 25/24 A2978=
200806272300 METAR MRLB 272300Z 16005KT 9999 FEW030 OVC110 24/23 A2979=
200806280000 METAR MRLB 280000Z 15003KT 9999 FEW035 OVC110 24/23 A2980=
200806280100 METAR MRLB 280100Z 19004KT 9999 FEW030 OVC100 24/23 A2980=
200806280200 METAR MRLB 280200Z 22003KT 9999 FEW030 OVC110 24/23 A2981=
200806280300 METAR MRLB NIL=
200806280400 METAR MRLB NIL=
200806280500 METAR MRLB NIL=
200806280700 METAR MRLB NIL=
200806280800 METAR MRLB NIL=
200806280900 METAR MRLB NIL=
200806281000 METAR MRLB NIL=
200806281100 METAR MRLB NIL=
200806281200 METAR MRLB 281200Z 00000KT 9999 FEW030 SCT250 23/22 A2979=
200806281300 METAR MRLB 281300Z 32005KT 9999 FEW003 SCT025 BKN240 23/22 A2981=
200806281400 METAR MRLB 281400Z 05006KT 9999 FEW025 SCT140 BKN250 26/24 A2984=
200806281500 METAR MRLB 281500Z 10013KT 9999 SCT030 BKN180 28/23 A2985 RMK TCU DST N=
200806281600 METAR MRLB 281600Z 10014KT 9999 SCT030 BKN180 29/23 A2985=
200806281700 METAR MRLB 281700Z 07010KT 9999 FEW020 SCT100 BKN220 29/22 A2985 RMK TCU DST E=
200806281800 METAR MRLB 281800Z 06013KT 9999 FEW025 SCT100 BKN250 29/22 A2983=
200806281900 METAR MRLB 281900Z 08010KT 9999 SCT030 BKN190 30/22 A2982=
200806282000 METAR MRLB 282000Z 10007KT 9999 SCT030 BKN200 29/23 A2980=
200806282100 METAR MRLB NIL=
200806282200 METAR MRLB 282200Z 10010KT 9999 FEW025 SCT150 BKN250 29/22 A2979=
200806282300 METAR MRLB 282300Z 10008KT 9999 FEW025 SCT180 28/22 A2980=
200806290000 METAR MRLB 290000Z 29002KT 9999 SCT028 SCT080 26/23 A2986 RMK CB RN DST ARND HZ ARND FEW230=
200806290100 METAR MRLB 290100Z 12008KT 9999 FEW030 SCT140 27/22 A2982=
200806290200 METAR MRLB NIL=
200806290300 METAR MRLB NIL=
200806290400 METAR MRLB NIL=
200806290500 METAR MRLB NIL=
200806290600 METAR MRLB NIL=
200806290700 METAR MRLB NIL=
200806290800 METAR MRLB NIL=
200806290900 METAR MRLB NIL=
200806291000 METAR MRLB NIL=
200806291100 METAR MRLB NIL=
200806291200 METAR MRLB 291200Z 00000KT CAVOK 22/21 A2983 RMK OVC250=
200806291300 METAR MRLB 291300Z 06002KT CAVOK 24/23 A2986 RMK FEW140 BKN250=
200806291400 METAR MRLB 291400Z 17003KT 9999 FEW035 BKN250 27/23 A2988=
200806291500 METAR MRLB 291500Z 11004KT 9999 FEW035 SCT140 BKN250 29/24 A2990=
200806291600 METAR MRLB 291600Z 16004KT 9999 FEW035 SCT140 BKN250 30/24 A2988=
200806291700 METAR MRLB 291700Z 12005KT 9999 SCT030 BKN250 31/24 A2986=
200806291800 METAR MRLB 291800Z 14005KT 9999 SCT030 BKN250 31/25 A2984=
200806291900 METAR MRLB 291900Z 18007KT 9999 FEW030 BKN250 32/24 A2983 RMK FEW120 TCU N NE=
200806292000 METAR MRLB 292000Z 33009KT 9999 SCT020 BKN100 30/24 A2982 RMK TS N RN NE NW S=
200806292100 METAR MRLB 292100Z 34006KT 9999 FEW020 OVC120 27/24 A2981 RN N E S SW=
200806292200 METAR MRLB 292200Z 22006KT 5000 RA OVC010 25/23 A2983 VSBY W UNL=
200806292300 METAR MRLB 292300Z 34002KT 9999 -RA FEW020 OVC100 23/22 A2983=
200806300000 METAR MRLB 300000Z 03006KT 90999 -RA FEW020 OVC100 24/23 A2986=
200806300100 METAR MRLB 300100Z 11003KT 9999 -RA FEW020 OVC100 24/24 A2988=
200806300200 METAR MRLB 300200Z 19003KT 9999 -RA FEW020 OVC100 24/23 A2990 LTNG DST SW=
200806300300 METAR MRLB NIL=
200806300400 METAR MRLB NIL=
200806300500 METAR MRLB NIL=
200806300600 METAR MRLB NIL=
200806300700 METAR MRLB NIL=
200806300800 METAR MRLB NIL=
200806300900 METAR MRLB NIL=
200806301000 METAR MRLB NIL=
200806301100 METAR MRLB NIL=
200806301200 METAR MRLB 301200Z 09003KT 9999 FEW030 OVC130 23/23 A2986 RMK LOW ST SW=
200806301300 METAR MRLB 301300Z 24002KT 9999 3000SW BR SCT020 OVC130 24/23 A2985=
200806301400 METAR MRLB 301400Z 00000KT 9999 FEW030 BKN130 25/24 A2987=
200806301500 METAR MRLB 301500Z 00000KT 9999 SCT030 BKN230 27/25 A2988=
200806301600 METAR MRLB 301600Z 23002KT 9999 FEW035 BKN140 28/24 A2987=
200806301700 METAR MRLB 301700Z 21006KT 9999 FEW035 SCT140 OVC250 30/25 A2985=
200806301800 METAR MRLB 301800Z 08004KT 9999 FEW035 SCT140 BKN250 31/24 A2983=
200806301900 METAR MRLB 301900Z 13006KT 9999 SCT035 BKN140 32/23 A2980=
200806302000 METAR MRLB 302000Z 27009KT 9999 SCT030 BKN140 31/25 A2979=
200806302100 METAR MRLB 302100Z 08008KT 9999 FEW035 BKN140 30/23 A2978 RMK TS RN DST S=
200806302200 METAR MRLB 302200Z 09009KT 9999 FEW035 OVC230 31/23 A2976=
200806302300 METAR MRLB 302300Z 10007KT 9999 FEW035 OVC230 30/23 A2976=
200807010000 METAR MRLB 010000Z 09006KT 9999 FEW035 BKN140 28/21 A2978=
200807010100 METAR MRLB 010100Z 10005KT 9999 FEW035 OVC140 27/22 A2980=
200807010200 METAR MRLB NIL=
200807010300 METAR MRLB NIL=
200807010400 METAR MRLB NIL=
200807010500 METAR MRLB NIL=
200807010600 METAR MRLB NIL=
200807010700 METAR MRLB NIL=
200807010800 METAR MRLB NIL=
200807010900 METAR MRLB NIL=
200807011000 METAR MRLB NIL=
200807011100 METAR MRLB NIL=
200807011200 METAR MRLB 011200Z 00000KT 9999 FEW030 SCT140 24/23 A2983=
200807011300 METAR MRLB 011300Z 00000KT 9999 FEW030 BKN150 25/23 A2984=
200807011400 METAR MRLB 011400Z 30004KT 9999 FEW030 SCT150 BKN250 26/23 A2995=
200807011500 METAR MRLB 011500Z 26004KT CAVOK 29/24 A2984 RMK BKN250=
200807011555 METAR MRLB 011555Z 26004KT CAVOK 29/24 A2984 RMK BKN250=
200807011600 METAR MRLB 011600Z 25004KT CAVOK 30/24 A2984 RMK BKN250=
200807011700 METAR MRLB 011700Z 27006KT 9999 FEW025 SCT250 30/24 A2985=
200807011800 METAR MRLB 011800Z 32005KT 9999 SCT020 BKN250 30/24 A2982=
200807011900 METAR MRLB 011900Z 27006KT 9999 FEW020 SCT250 31/24 A2979=
200807012000 METAR MRLB 012000Z 11008KT 9999 SCT025 BKN250 32/23 A2976=
200807012100 METAR MRLB 012100Z 12008KT 9999 SCT025 BKN250 32/22 A2976 RMK TCU DST SE=
200807012200 METAR MRLB 012200Z 10010KT 9999 SCT025 BKN250 32/21 A2976 RMK TCU DST S SW=
200807012300 METAR MRLB 012300Z 10005KT 9999 SCT025 BKN250 30/22 A2979 RMK TCU DST W=
200807012355 METAR MRLB 020000Z 13004KT 9999 FEW030 BKN220 29/23 A2980 RMK TCU DST W=
200807020000 METAR MRLB 020000Z 13004KT 9999 FEW030 BKN220 29/23 A2980 RMK TCU DST W=
200807020100 METAR MRLB 020100Z 12005KT 9999 FEW030 SCT180 28/22 A2981 RMK CB DST W=
200807020200 METAR MRLB NIL=
200807020300 METAR MRLB NIL=
200807020400 METAR MRLB NIL=
200807020500 METAR MRLB NIL=
200807020600 METAR MRLB NIL=
200807020700 METAR MRLB NIL=
200807020800 METAR MRLB NIL=
200807020900 METAR MRLB NIL=
200807021000 METAR MRLB NIL=
200807021100 METAR MRLB NIL=
200807021200 METAR MRLB 021200Z 00000KT CAVOK 23/23 A2983 SCT130 BKN250=
200807021300 METAR MRLB 021300Z 15003KT CAVOK 24/23 A2985 RMK FEW130 OVC250=
200807021400 METAR MRLB 021400Z 15002KT 9999 FEW010 SCT130 BKN250 A2987=
200807021500 METAR MRLB 021500Z 08004KT 9999 FEW028 BKN280 29/23 RMK DATOS DE VIENTO ESTIMADO=
200807021600 METAR MRLB 021600Z 15003KT 9999 SCT020 BKN120 29/24 A2989=
200807021700 METAR MRLB 021700Z 19005KT 9999 SCT025 BKN120 30/24 A2989 RMK CB DST S=
200807021800 METAR MRLB 021800Z 21002KT 9999 SCT030 SCT120 30/24 A2987 RMK RN DST N S=
200807021900 METAR MRLB NIL=
200807022000 METAR MRLB 022000Z 29010KT 9999 -RA BKN020 SCT120 28/24 A2982=
200807022100 METAR MRLB NIL=
200807022200 METAR MRLB 022200Z 27007KT 9999 SCT020 BKN100 26/24 A2980 RMK RN DST N E S=
200807022300 METAR MRLB 022300Z 35002KT 9999 SCT020 BKN100 27/25 A2983 RMK RN DST NE E SE=
200807030000 METAR MRLB 030000Z 11004KT 6000 -TSRA FEW010CB BKN100 25/24 A2985=
200807030100 METAR MRLB NIL=
200807030200 METAR MRLB NIL=
200807030300 METAR MRLB NIL=
200807030400 METAR MRLB NIL=
200807030500 METAR MRLB NIL=
200807030600 METAR MRLB NIL=
200807030700 METAR MRLB NIL=
200807030800 METAR MRLB NIL=
200807030900 METAR MRLB NIL=
200807031000 METAR MRLB NIL=
200807031100 METAR MRLB NIL=
200807031200 METAR MRLB 031200Z 08002KT CAVOK 24/23 A2988 RMK LOW ST N=
200807031300 METAR MRLB 031300Z 03004KT 9999 FEW020 SCT130 BKN250 25/23 A2990=
200807031400 METAR MRLB 031400Z 03004KT 9999 FEW030 SCT140 OVC250 26/24 A2992=
200807031500 METAR MRLB 031500Z 07002KT CAVOK 28/24 A2991 RMK TRACE CU OVC250=
200807031600 METAR MRLB 031600Z 34003KT 9999 FEW035 OVC250 30/23 A2990=
200807031700 METAR MRLB 031700Z 28002KT 9999 FEW035 BKN140 30/24 A2990=
200807031800 METAR MRLB NIL=
200807031900 METAR MRLB 031900Z 21004KT 9999 SCT035 BKN140 30/25 A2986=
200807032000 METAR MRLB 032000Z 27007KT 9999 SCT035 BKN140 30/25 A2984 RMK TCU DST NE=
200807032100 METAR MRLB 032100Z 26007KT 9999 FEW020TCU SCT030 BKN140 30/25 A2981 RMK RN DST N=
200807032200 METAR MRLB 032200Z 35006KT 9999 SCT025 OVC130 25723 A2982 RMK RN DST W=
200807032300 METAR MRLB 032300Z 04002KT 9999 SCT030 OVC130 25/22 A2984 RMK RN S SW=
200807040000 METAR MRLB 040000Z 00000KT 9999 SCT030 OVC120 25/23 A2986 RMK RN DST SW=
200807040100 METAR MRLB 040100Z 00000KT 9999 DZ SCT025 OVC110 25/23 A2989=
200807040200 METAR MRLB 040200Z 18002KT 9999 DZ SCT025 OVC100 24/23 A2990=
200807040300 METAR MRLB NIL=
200807040400 METAR MRLB NIL=
200807040500 METAR MRLB NIL=
200807040600 METAR MRLB NIL=
200807040700 METAR MRLB NIL=
200807040800 METAR MRLB NIL=
200807040900 METAR MRLB NIL=
200807041000 METAR MRLB NIL=
200807041100 METAR MRLB NIL=
200807041200 METAR MRLB 041200Z 00000KT CAVOK 23/22 A2987 RMK SCT220 RERA=
200807041300 METAR MRLB 041300Z 00000KT CAVOK 26/23 A2989 RMK SCT250=
200807041400 METAR MRLB 041400Z 00000KT CAVOK 27/23 A2992 RMK SCT240=
200807041500 METAR MRLB NIL=
200807041600 METAR MRLB 041600Z 00000KT 9999 FEW025 SCT250 30/23 A2993=
200807041700 METAR MRLB 041700Z 00000KT 9999 SCT020 BKN200 31/23 A2992 RMK TCU E=
200807041800 METAR MRLB 041800Z 00000KT 9999 SCT025TCU BKN220 30/22 A2990=
200807041900 METAR MRLB 041900Z 29006KT 9999 SCT020TCU BKN200 30/23 A2988 RMK RN NE=
200807042000 METAR MRLB 042000Z 28008KT 9999 FEW010CB SCT035 BKN200 29/24 A2986 RMK CB RN NE SE N=
200807042100 METAR MRLB 042100Z 28005KT 9999 SCT015TCU BKN200 28/24 A2983 TCU RN S=
200807042200 METAR MRLB 042200Z 25007KT 9999 SCT020 BKN250 28/24 A2983 TCU RN S=
200807042300 METAR MRLB 042300Z 23005KT 9999 FEW025 SCT100 BKN250 28/24 A2985=
200807050000 METAR MRLB 050000Z 26006KT 9999 SCT025TCU BKN140 26/23 A2986 TCU RN S E=
200807050100 METAR MRLB 050100Z 15005KT 9999 DZ SCT020CB BKN120 25/23 A2988=
200807050200 METAR MRLB 050200Z 16004KT 9000 SCT020 BKN100 24/23 A2990 RN ARND=
200807050300 METAR MRLB NIL=
200807050400 METAR MRLB NIL=
200807050500 METAR MRLB NIL=
200807050600 METAR MRLB NIL=
200807050700 METAR MRLB NIL=
200807050800 METAR MRLB NIL=
200807050900 METAR MRLB NIL=
200807051000 METAR MRLB NIL=
200807051100 METAR MRLB NIL=
200807051200 METAR MRLB 051200Z 02004KT 9999 -RA FEW015 OVC120 24/23 A2988=
200807051300 METAR MRLB 051300Z 35003KT 9999 FEW020 OVC120 24/23 A2988=
200807051400 METAR MRLB 051400Z 31003KT CAVOK 26/24 A2989 OVC140=
200807051500 METAR MRLB 051500Z 26009KT 9999 FEW030 OVC220 27/24 A2989=
200807051600 METAR MRLB 051600Z 23004KT 9999 SCT025 BKN250 28/25 A2989=
200807051700 METAR MRLB NIL=
200807051800 METAR MRLB 051800Z 14004KT 9999 SCT020 SCT120 28/24 A2987=
200807051900 METAR MRLB 051900Z 18004KT 9999 SCT020 BKN120 29/25 A2985=
200807052000 METAR MRLB 052000Z 21004KT 9999 SCT025 BKN250 29/25 A2983 CB E SE=
200807052100 METAR MRLB 052100Z 25004KT 9999 SCT025 BKN250 29/25 A2981 RMK CB DST SE S=
200807052200 METAR MRLB 052200Z 27005KT 9999 FEW025 SCT130 BKN250 28/24 A2979 RMK CBDST SE SW=
200807052300 METAR MRLB 052300Z 29003KT 9999 FEW020 OVC130 28/25 A2981 RMK CB DST S E=
200807060000 METAR MRLB 060000Z 35004KT 9999 SCT015 BKN120 27/25 A2981 RMK TS RN DST SE S=
200807060100 METAR MRLB 060100Z 17005KT 9999 FEW010 BKN120 25/23 A2986 RMK LTNG DST SW=
200807060200 METAR MRLB NIL=
200807060300 METAR MRLB NIL=
200807060400 METAR MRLB NIL=
200807060500 METAR MRLB NIL=
200807060600 METAR MRLB NIL=
200807060700 METAR MRLB NIL=
200807060800 METAR MRLB NIL=
200807060900 METAR MRLB NIL=
200807061000 METAR MRLB NIL=
200807061100 METAR MRLB NIL=
200807061200 METAR MRLB 061200Z 00000KT CAVOK 18/18 A2999 RMK TRACE SC SCT100 BKN120=
200807061300 METAR MRLB 061300Z 10002KT 9999 FEW030 OVC130 24/22 A2987=
200807061400 METAR MRLB 061400Z 14002KT 9999 FEW035 BKN140 26/22 A2988=
200807061500 METAR MRLB 061500Z 19003KT 9999 FEW035 BKN140 28/23 A2990=
200807061600 METAR MRLB 061600Z 17002KT 9999 FEW035 BKN140 29/23 A2990=
200807061700 METAR MRLB 061700Z 10002KT 9999 FEW040 BKN240 30/21 A2988=
200807061800 METAR MRLB 061800Z 28004KT 9999 FEW040 BKN250 30/24 A2986=
200807061900 METAR MRLB 061900Z 26008KT 9999 SCT035 BKN250 30/23 A2984=
200807062000 METAR MRLB 062000Z 28007KT 9999 FEW020TCU SCT035 OVC250 30/24 A2982 RMK RN DST E NE=
200807062100 METAR MRLB 062100Z 05009KT 9999 RA FEW020TCU SCT030 BKN130 27/25 A2981=
200807062200 METAR MRLB 062200Z 07003KT 9999 SCT030 BKN120 27/24 A2981 RMK RN DST S SW -DZ=
200807062300 METAR MRLB 062300Z 22005KT 9999 DZ FEW015 SCT025 OVC120 24/23 A2984=
200807062355 METAR MRLB 070000Z 19005KT 9999 SCT020 OVC100 23/23 A2986 RMK RN DST S E=
200807070000 METAR MRLB 070000Z 19005KT 9999 SCT020 OVC100 23/23 A2986 RMK RN DST S E=
200807070100 METAR MRLB 070100Z 00000KT 8000 -RA SCT020 OVC100 24/23 A2987=
200807070200 METAR MRLB 070200Z 12002KT 9999 -RA SCT025 OVC100 24/23 A2989=
200807070300 METAR MRLB NIL=
200807070400 METAR MRLB NIL=
200807070500 METAR MRLB NIL=
200807070600 METAR MRLB NIL=
200807070700 METAR MRLB NIL=
200807070800 METAR MRLB NIL=
200807070900 METAR MRLB NIL=
200807071000 METAR MRLB NIL=
200807071100 METAR MRLB NIL=
200807071200 METAR MRLB 071200Z 00000KT 0500 FG SCT001 BKN250 23/23 A2985=
200807071300 METAR MRLB 071300Z 04003K 0400 FG SCT001 BKN250 24/23 A2986=
200807071400 METAR MRLB 071400Z 00000KT 9999 FEW002 SCT250 25/24 A2987 RMK BANCO DE NIEBLA AL W=
200807071500 METAR MRLB 071500Z 00000KT 9999 FEW005 SCT270 27/25 A2986=
200807071600 METAR MRLB 071600Z 25006KT 9999 SCT012 BKN250 28/25 A2986=
200807071700 METAR MRLB 071700Z 23006KT 9999 SCT015 BKN250 29/25 A2986=
200807071800 METAR MRLB 071800Z 22006KT 9999 SCT020 BKN200 30/25 A2985=
200807071900 METAR MRLB 071900Z 28006KT 9999 SCT025 BKN250 30/25 A2982 RMK TCU ARND RN DST N=
200807072000 METAR MRLB 072000Z 27005KT 9999 SCT025 BKN250 31/25 A2980 RMK TCU RN E N=
200807072100 METAR MRLB 072100Z 29008KT 9999 SCT025TCU BKN250 30/25 A2978 RMK TCU RN NE=
200807072200 METAR MRLB 072200Z 00000KT 1500 TSRA SCT010CB BKN030 24/23 A2979 VIS S N UNL=
200807072300 METAR MRLB 072300Z 21004KT 9999 SCT020 BKN250 24/23 A2979 RETSRA CB DST W TCU N=
200807080000 METAR MRLB 080000Z 00000KT 9999 SCT025 BKN250 24/23 A2982 TCU DST S SW W=
200807080100 METAR MRLB NIL=
200807080200 METAR MRLB NIL=
200807080300 METAR MRLB NIL=
200807080400 METAR MRLB NIL=
200807080500 METAR MRLB NIL=
200807080600 METAR MRLB NIL=
200807080700 METAR MRLB NIL=
200807080800 METAR MRLB NIL=
200807080900 METAR MRLB NIL=
200807081000 METAR MRLB NIL=
200807081100 METAR MRLB NIL=
200807081200 METAR MRLB 081200Z 21001KT CAVOK 22/22 Z2981 RMK OVC140 LINE CB DST S=
200807081300 METAR MRLB 081300Z 13003KT CAVOK 24/22 A2983 RMK OVC250 CB DST S=
200807081400 METAR MRLB 081400Z 36002KT CAVOK 26/23 A2985 RMK OVC250 CB DST S=
200807081500 METAR MRLB 081500Z 00000KT CAVOK 28/23 A2985 RMK OVC250=
200807081600 METAR MRLB 081600Z 14003KT 9999 FEW035 OVC250 28/24 A2984=
200807081700 METAR MRLB 081700Z 11007KT 9999 FEW035 OVC250 29/24 A2983=
200807081800 METAR MRLB 081800Z 19002KT 9999 FEW035 OVC250 30/24 A2981=
200807081900 METAR MRLB 081900Z 29006KT 9999 SCT035 BKN250 30/24 A2980=
200807082000 METAR MRLB 082000Z 28006KT 9999 SCT030 BKN220 29/24 A2978=
200807082100 METAR MRLB 082100Z 29005KT 9999 FEW030 OVC220 30/24 A2977=
200807082200 METAR MRLB 082200Z 27004KT 9999 FEW030 OVC220 29/24 A2977=
200807082300 METAR MRLB 082300Z 32004KT 9999 FEW030 SCT140 BKN220 28/25 A2977 RMK TCU S=
200807090000 METAR MRLB 090000Z 26002KT 9999 FEW025 OVC130 28/25 A2979 RMK RN DST SW=
200807090100 METAR MRLB NIL=
200807090200 METAR MRLB NIL=
200807090300 METAR MRLB NIL=
200807090400 METAR MRLB NIL=
200807090500 METAR MRLB NIL=
200807090600 METAR MRLB NIL=
200807090700 METAR MRLB NIL=
200807090800 METAR MRLB NIL=
200807090900 METAR MRLB NIL=
200807091000 METAR MRLB NIL=
200807091100 METAR MRLB NIL=
200807091200 METAR MRLB NIL=
200807091300 METAR MRLB NIL=
200807091400 METAR MRLB NIL=
200807091500 METAR MRLB NIL=
200807091600 METAR MRLB NIL=
200807091700 METAR MRLB 091700Z 25004KT 9999 FEW025 BKN130 30/24 A2985=
200807091800 METAR MRLB 091800Z 27007KT 9999 SCT025TCU BKN140 30/23 A2984 RMK RN ENE=
200807091900 METAR MRLB 091900Z 06006KT 9999 -RA SCT025TCU SCT130 26/24 A2983 RMK 8000 E CB N E=
200807092000 METAR MRLB 092000Z 10009KT 9999 -RA VCTS SCT030CB FEW025 BKN120 24/22 A2981 RMK CB DST SE S=
200807092100 METAR MRLB 092100Z 35003KT 9999 FEW025CB SCT030 BKN120 25/23 A2982 RASH E CB RN S SW=
200807092200 METAR MRLB 092200Z 23003KT 9999 -RA SCT025 BKN120 24/23 A2982=
200807092300 METAR MRLB 092300Z 00000KT 9999 SCT030 OVC120 25/24 A2982=
200807100000 METAR MRLB 100000Z 14006KT 9999 VCSH BKN030 SCT120 24/23 A2985 VISBY NE 8KM=
200807100100 METAR MRLB 100100Z 11005KT 8000 RA SCT030 OVC100 23/22 A2987=
200807100200 METAR MRLB 100200Z 14005KT 9999 -RA SCT030 OVC100 23/22 A2988=
200807100300 METAR MRLB NIL=
200807100400 METAR MRLB NIL=
200807100500 METAR MRLB NIL=
200807100600 METAR MRLB NIL=
200807100700 METAR MRLB NIL=
200807100800 METAR MRLB NIL=
200807100900 METAR MRLB NIL=
200807101000 METAR MRLB NIL=
200807101100 METAR MRLB NIL=
200807101200 METAR MRLB 101200Z 00000KT 0800 FG SCT001 OVC060 23/22 A2986=
200807101300 METAR MRLB 101300Z 00000KT 1000 BR SCT001 OVC060 23/22 A2987=
200807101400 METAR MRLB 101400Z 01003KT 9999 FEW005 SCT025 BKN250 24/23 A2991=
200807101500 METAR MRLB 101500Z 24004KT 9999 FEW015 SCT100 BKN180 25/23 A2992=
200807101600 METAR MRLB 101600Z 14004KT 9999 FEW030 BKN200 28/24 A2991=
200807101700 METAR MRLB 101700Z 20005KT 9999 FEW030 BKN220 29/24 A2990=
200807101800 METAR MRLB 101800Z 13005K 9999 FEW035 BKN200 31/24 A2988=
200807101900 METAR MRLB 101900Z 16006KT 9999 SCT025 BKN250 31/25 A2987=
200807102000 METAR MRLB 102000Z 17007KT 9999 SCT025 BKN250 32/23 A2984 TCU N=
200807102100 METAR MRLB 102100Z 13003KT 9999 DZ SCT025TCU BKN240 31/23 A2983 RMK TCU ARND=
200807102200 METAR MRLB 102200Z 27008KT 9000 TSRA SCT020CB BKN100 26/25 A2983 RMK RN ARND=
200807102300 METAR MRLB 102300Z 03008KT 9999 TS SCT020CB BKN180 25/22 A2986 RMK CB RN N NE=
200807110000 METAR MRLB 110000Z 00000KT 9999 FEW025 BKN180 25/22 A2987 RMK CB DST S=
200807110100 METAR MRLB 110100Z 00000KT 9999 FEW025 SCT120 25/23 A2989 RMK CB DST S=
200807110200 METAR MRLB 110200Z 00000KT 9999 FEW025 SCT120 25/23 A2990 RMK LTNG W=
200807110300 METAR MRLB NIL=
200807110400 METAR MRLB NIL=
200807110500 METAR MRLB NIL=
200807110600 METAR MRLB NIL=
200807110700 METAR MRLB NIL=
200807110800 METAR MRLB NIL=
200807110900 METAR MRLB NIL=
200807111000 METAR MRLB NIL=
200807111100 METAR MRLB NIL=
200807111200 METAR MRLB 111200Z 18004KT CAVOK 23/22 A2989 RMK OVC120=
200807111300 METAR MRLB 111300Z 18005KT CAVOK 24/23 A2991 RMK OVC120 CB DST SW=
200807111400 METAR MRLB 111400Z 13003KT CAVOK 26/24 A2993 RMK BKN130 TRACE CU=
200807111500 METAR MRLB 111500Z 18004KT 9999 FEW030 BKN130 27/24 A2994=
200807111600 METAR MRLB 111600Z 11004KT 9999 FEW035 BKN250 29/24 A2995=
200807111700 METAR MRLB 111700Z 07005KT 9999 SCT030 BKN250 31/24 A2994=
200807111800 METAR MRLB 111800Z 31002KT 9999 SCT030 BKN250 31/14 A2994=
200807111900 METAR MRLB 111900Z 11006KT 9999 BKN030 SCT250 31/24 A2992 RMK RN DST N E W=
200807112000 METAR MRLB 112000Z 29007KT 2000 TSSHRA FEW010CB BKN020 28/25 A2990=
200807112100 METAR MRLB 112100Z 29005KT 9999 RA FEW020 OVC120 24/23 A2989=
200807112200 METAR MRLB 112200Z 24004KT 9999 FEW020 OVC120 24723 A2985 RMK RN DST SW W=
200807112300 METAR MRLB 112300Z 00000KT CAVOK 24/13 A2989 RMK OVC120=
200807112357 METAR MRLB 120000Z 14002KT CAVOK 24/23 A2991 RMK OVC120=
200807120000 METAR MRLB 120000Z 14002KT CAVOK 24/23 A2991 RMK OVC120=
200807120100 METAR MRLB 120100Z 00000KT 9999 FEW020 OVC120 24/23 A2993=
200807120200 METAR MRLB 120200Z 00000KT 9999 FEW020 OVC120 24/23 A2994=
200807120400 METAR MRLB NIL=
200807120500 METAR MRLB NIL=
200807120600 METAR MRLB NIL=
200807120700 METAR MRLB NIL=
200807120800 METAR MRLB NIL=
200807120900 METAR MRLB NIL=
200807121000 METAR MRLB NIL=
200807121100 METAR MRLB NIL=
200807121200 METAR MRLB 121200Z 00000KT 9999 FEDW020 BKN220 23/22 A2990=
200807121300 METAR MRLB 121300Z 21004KT 9999 FEW015 BKN250 24/23 A2989=
200807121400 METAR MRLB 121400Z 24004KT 9999 FEW015 BKN250 26/24 A2992=
200807121500 METAR MRLB 121500Z 00000KT 9999 FEW015 SCT250 28/24 A2993 RMK DZ DS E=
200807121600 METAR MRLB 121600Z 31006KT 9999 FEW012 SCT250 29/23 A2993=
200807121700 METAR MRLB 121700Z 10013KT 9999 SCT020 BKN250 30/22 A2992=
200807121800 METAR MRLB 121800Z 09014KT 9999 SCT025 BKN250 31/23 A2990 RMK TCU N=
200807121900 METAR MRLB 121900Z 09012KT 9999 SCT025 BKN250 32/22 A2987=
200807122000 METAR MRLB 122000Z 07013KT 9999 SCT025TCU BKN130 30/23 A2986 RMK RN N=
200807122100 METAR MRLB 122100Z 10012G22KT 9999 SCT020TCU BKN180 29/22 A2984 RMK RN DST ARND=
200807122200 METAR MRLB 122200Z 07012KT 9999 SCT025TCU BKN170 29/22 A2983 RMK RN DST N E=
200807122300 METAR MRLB 122300Z 07013KT 9999 FEW030 BKN180 28/21 A2984=
200807130000 METAR MRLB 130000Z 10007KT 9999 SCT035 BKN170 26/22 A2986=
200807130100 METAR MRLB 130100Z 10009KT 9999 FEW030 BKN150 26/22 A2986=
200807130200 METAR MRLB 130200Z 10005KT 9999 FEW030 BKN180 25/21 A2987=
200807130300 METAR MRLB NIL=
200807130400 METAR MRLB NIL=
200807130500 METAR MRLB NIL=
200807130600 METAR MRLB NIL=
200807130700 METAR MRLB NIL=
200807130800 METAR MRLB NIL=
200807130900 METAR MRLB NIL=
200807131000 METAR MRLB NIL=
200807131100 METAR MRLB NIL=
200807131200 METAR MRLB 131200Z 09006KT 9999 FEW015 SCT100 BKN180 23/22 A2987=
200807131300 METAR MRLB 131300Z 10005KT 9999 FEW015 SCT100 BKN200 24/22 A2989=
200807131400 METAR MRLB 131400Z 11005KT 9999 FEW020 BKN180 25/22 A2990=
200807131500 METAR MRLB 131500Z 12006KT 9999 FEW025 SCT140 BKN250 27/23 A2991=
200807131600 METAR MRLB 131600Z 13006KT 9999 FEW040 BKN200 28/23 A2991=
200807131700 METAR MRLB 131700Z 13006KT 9999 FEW025 BKN200 29/23 A2990=
200807131800 METAR MRLB 131800Z 14006KT 9999 FEW020 BKN220 30/23 A2988 RMK TCU DST NE E=
200807131900 METAR MRLB 131900Z 10007KT 9999 FEW015 BKN200 30/22 A2985 RMK TCU RN DST N=
200807132000 METAR MRLB 132000Z 16006KT 9999 SCT015TCU BKN180 29/24 A2984 RMK TCU RN N=
200807132100 METAR MRLB 132100Z 16007KT 9999 FEW010CB SCT030 BKN180 28/24 A2983 RMK RN ARND=
200807132200 METAR MRLB 132200Z 34010KT 7000 RA SCT012CB BKN045 25/23 A2983=
200807132300 METAR MRLB 132300Z 06004KT 9999 -DZ FEW010 SCT030 BKN150 24/23 A2983=
200807140000 METAR MRLB 140000Z 24003KT 9999 FEW040 BKN180 24/23 A2984 RERA=
200807140100 METAR MRLB 140100Z 00000KT 9999 FEW035 SCT150 24/23 A2987=
200807140200 METAR MRLB NIL=
200807140300 METAR MRLB NIL=
200807140400 METAR MRLB NIL=
200807140500 METAR MRLB NIL=
200807140600 METAR MRLB NIL=
200807140700 METAR MRLB NIL=
200807140800 METAR MRLB NIL=
200807140900 METAR MRLB NIL=
200807141000 METAR MRLB NIL=
200807141100 METAR MRLB NIL=
200807141200 METAR MRLB 141200Z 08002KT CAVOK 23/22 A2983 RMK SCT120 CB DST S=
200807141300 METAR MRLB 141300Z 00000KT 9999 FEW005 BKN120 24/23 A2986 RMK CB S=
200807141400 METAR MRLB 141400Z 00000KT 9999 FEW010 BKN120 25/24 A2988=
200807141500 METAR MRLB 141500Z 10002KT 9999 FEW020 BKN120 27/23 A2989 RMK FW250=
200807141600 METAR MRLB 141600Z 13003KT 9999 SCT025 SCT250 28/24 A2989=
200807141700 METAR MRLB 141700Z 12005KT 9999 SCT025 SCT100 29/23 A2987 RMK RN SW FEW250=
200807141800 METAR MRLB 141800Z 10004KT 9999 BKN025 SCT100 30/23 A2985 RMK RN SW W=
200807141900 METAR MRLB 141900Z 07008KT 9999 SCT030 BKN250 32/23 A2984 RMK CB E S FEW130=
200807142000 METAR MRLB 142000Z 28007KT 9999 SCT030 BKN250 30/24 A2981 RMK RN E S=
200807142100 METAR MRLB 142100Z 29007KT 9999 3000N -TSRA FEW010 BKN020 28/24 A2980=
200807142200 METAR MRLB 142200Z 34009KT 2000 RA BR FEW005 SCT020 BKN100 24/23 A2982 TS N SE=
200807142300 METAR MRLB 142300Z 19003KT 9999 -RA FEW005 OVC100 23/23 A2983=
200807150000 METAR MRLB 150000Z 00000KT 9999 FEW008 OVC120 23/23 A2985=
200807150100 METAR MRLB 150100Z 01003KT 9999 FEW015 OVC120 24/23 A2987=
200807150200 METAR MRLB 150200Z 12002KT 9999 FEW020 OVC120 24/23 A2989=
200807150300 METAR MRLB NIL=
200807150400 METAR MRLB NIL=
200807150500 METAR MRLB NIL=
200807150600 METAR MRLB NIL=
200807150700 METAR MRLB NIL=
200807150800 METAR MRLB NIL=
200807150900 METAR MRLB NIL=
200807151000 METAR MRLB NIL=
200807151100 METAR MRLB NIL=
200807151200 METAR MRLB 151200Z 05003KT 9999 FEW020 SCT100 BKN180 23/22 A2990=
200807151300 METAR MRLB 151300Z 13004KT 9999 FEW025 BKN250 24/23 A2991 CB RN E=
200807151400 METAR MRLB 151400Z 07006KT 9999 -DZ FEW025 SCT100 BKN180 24/23 A2993=
200807151500 METAR MRLB 151500Z 00000KT 9999 -DZ FEW030 SCT100 BKN220 25/22 A2991=
200807151600 METAR MRLB 151600Z 10003KT 9999 FEW040 BKN250 28/23 A2990=
200807151700 METAR MRLB 151700Z 07014KT 9999 FEW025 BKN250 30/23 A2987=
200807151800 METAR MRLB 151800Z 04006KT CAVOK 29/23 A2986 SCT250=
200807151900 METAR MRLB 151900Z 08012KT CAVOK 30/21 A2983 FEW120 SCT250=
200807152000 METAR MRLB 152000Z 09010KT CAVOK 30/20 A2982 FEW150 SCT250=
200807152100 METAR MRLB 152100Z 09014KT CAVOK 31/22 A2981 RMK SCT280=
200807152200 METAR MRLB 152200Z 08010KT CAVOK 30/22 A2981 RMK SCT250=
200807152300 METAR MRLB 152300Z 11007KT CAVOK 31/22 A2983 RMK SCT250=
200807160000 METAR MRLB 160000Z 14006KT CAVOK 22/16 A2985=
200807160100 METAR MRLB 160100Z 10007KT CAVOK 27/22 A2987 RMK FEW150=
200807160200 METAR MRLB NIL=
200807160300 METAR MRLB NIL=
200807160400 METAR MRLB NIL=
200807160500 METAR MRLB NIL=
200807160600 METAR MRLB NIL=
200807160700 METAR MRLB NIL=
200807160800 METAR MRLB NIL=
200807160900 METAR MRLB NIL=
200807161000 METAR MRLB NIL=
200807161100 METAR MRLB NIL=
200807161200 METAR MRLB 161200Z 00000KT 9999 FEW025 BKN250 23/22 A2992 RMK CB N E=
200807161300 METAR MRLB 161300Z 01009KT 9999 FEW030 BKN250 24/22 A2994 RMK DZ DST N E=
200807161400 METAR MRLB 161400Z 00000KT 9999 FEW020 SCT100 BKN250 26/23 A2995=
200807161500 METAR MRLB 161500Z 00000KT 9999 FEW020 SCT200 27/23 A2993=
200807161600 METAR MRLB 161600Z 29005KT 999 FEW030 SCT250 29/23 A2991=
200807161700 METAR MRLB 161700Z 04004KT 9999 FEW025 SCT250 30/23 A2988=
200807161800 METAR MRLB 161800Z 33004KT CAVOK 32/23 A2985 RMK BKN250=
200807161900 METAR MRLB 161900Z 10013KT 9999 FEW025 SCT250 31/22 A2984=
200807162000 METAR MRLB 162000Z 07014KT 9999 FEW025 SCT250 32/22 A2982=
200807162100 METAR MRLB NIL=
200807162200 METAR MRLB NIL=
200807162300 METAR MRLB 162300Z 35004KT 9999 SCT045 BKN250 28/23 A2982=
200807162359 METAR MRLB 170000Z 00000KT 9999 FEW020 SCT100 BKN250 27/24 A2984=
200807170000 METAR MRLB 170000Z 00000KT 9999 FEW020 SCT100 BKN250 27/24 A2984=
200807170100 METAR MRLB 170100Z 00000KT 9999 FEW020TCU BKN120 A2987 TCU DST N E=
200807170200 METAR MRLB 170200Z NIL=
200807170300 METAR MRLB NIL=
200807170400 METAR MRLB NIL=
200807170500 METAR MRLB NIL=
200807170600 METAR MRLB NIL=
200807170700 METAR MRLB NIL=
200807170800 METAR MRLB NIL=
200807170900 METAR MRLB NIL=
200807171000 METAR MRLB NIL=
200807171100 METAR MRLB NIL=
200807171200 METAR MRLB 171200Z 21002KT 9999 -RA FEW010 OVC120 23/23 A2984=
200807171300 METAR MRLB 171300Z 25002KT 9999 -RA FEW2020 OVC120 23/23 A2985=
200807171400 METAR MRLB 171400Z 24002KT 9999 FEW020 BKN130 24/23 A2985 RMK HZ ARND=
200807171500 METAR MRLB 171500Z 16004KT 9999 SCT020 BKN250 25/24 A2985=
200807171600 METAR MRLB 171600Z 16004KT 9999 SCT020 BKN130 27/23 A2986=
200807171700 METAR MRLB 171700Z 16005KT 9999 SCT020 BKN130 29/24 A2986 RMK RN DST E SW W=
200807171800 METAR MRLB 171800Z 14002KT 9999 -RA SCT020 BKN100 28/24 A2986=
200807171900 METAR MRLB 171900Z 17004KT 9999 SCT020 BKN100 27/24 A2984 RMK RN DST SW=
200807172000 METAR MRLB 172000Z 20003KT 9999 FEW015 BKN110 29/24 A2982 RMK RN DST SE=
200807172100 METAR MRLB 172100Z 18004KT 9999 SCT025 BKN120 29/24 A2979 RMK RN DST NE=
200807172200 METAR MRLB 172200Z 18004KT 9999 SCT020 BKN100 29/24 A2979 RMK RN DST S=
200807172300 METAR MRLB 172300Z 15006KT 9999 OVC020 27/24 A2979=
200807180000 METAR MRLB 180000Z 23005KT 4000SW RA SCT015 BKN100 25/23 A2983=
200807180100 METAR MRLB NIL=
200807180200 METAR MRLB 180200Z 07002KT 9999 FEW020 BKN100 24/23 A2983=
200807180300 METAR MRLB NIL=
200807180400 METAR MRLB NIL=
200807180500 METAR MRLB NIL=
200807180600 METAR MRLB NIL=
200807180700 METAR MRLB NIL=
200807180800 METAR MRLB NIL=
200807180900 METAR MRLB NIL=
200807181000 METAR MRLB NIL=
200807181100 METAR MRLB NIL=
200807181200 METAR MRLB 181200Z 15003KT 9999 VCFG FEW040 BKN120 23/23 A2980 RMK VIS S SW 7000=
200807181300 METAR MRLB 181300Z 13003KT CAVOK 24/23 A2982 RMK SCT120 LOW ST S SW=
200807181400 METAR MRLB 181400Z 15003KT CAVOK 26/23 A2983 RMK SCT130 FEW280=
200807181500 METAR MRLB 181500Z 14007KT 9999 SCT025 27/24 A2984 RMK FEW120=
200807181600 METAR MRLB 181600Z 14008KT 9999 SCT025 28/24 A2984 RMK FEW130 FEW280=
200807181700 METAR MRLB 181700Z 14007KT 9999 SCT025 29/24 A2983 RMK FEW130=
200807181800 METAR MRLB 181800Z 13008KT 9999 FEW030 SCT130 30/23 A2980 RMK CB DST NE S W RN DST S W=
200807181900 METAR MRLB 181900Z 14009KT 9999 SCT025TCU SCT120 30/24 A2979 RMK CB RASH DST SW W=
200807182000 METAR MRLB 182000Z 18004KT 9999 -RA FEW020CB FEW025 BKN120 28/24 A2977 RMK RASH S DST TCU NE=
200807182100 METAR MRLB 182100Z 17004KT 9999 -RA SCT030 OVC100 24/23 A2977=
200807182200 METAR MRLB 182200Z 19004KT 9999 SCT030 BKN120 26/24 A2972 RMK LINE TCU SE S=
200807182300 METAR MRLB 182300Z 16004KT 9999 FEW020CB SCT030 BKN120 27/24 A2979 RMK CB DST S=
200807190000 METAR MRLB 190000Z 17002KT 9999 BKN030 SCT120 26724 A2979 RMK TCU RASH N CB RN S SW SE=
200807190100 METAR MRLB 190100Z 12002KT 9999 -RA SCT025 OVC100 25/23 A2980 RMK VIS SW W 8000=
200807190200 METAR MRLB 190200Z 00000KT 9999 -RA SCT025 OVC100 24/23 A2982=
200807190300 METAR MRLB NIL=
200807190400 METAR MRLB NIL=
200807190500 METAR MRLB NIL=
200807190600 METAR MRLB NIL=
200807190700 METAR MRLB NIL=
200807190800 METAR MRLB NIL=
200807190900 METAR MRLB NIL=
200807191000 METAR MRLB NIL=
200807191100 METAR MRLB NIL=
200807191200 METAR MRLB 191200Z 00000KT CAVOK 24/23 A2980 RMK FEW140 SCT250=
200807191300 METAR MRLB 191300Z 00000KT CAVOK 25/23 A2983 RMK FEW100 SCT250 RMK FG DST W=
200807191400 METAR MRLB 191400Z 00000KT 9999 FEW020 SCT250 26/23 A2985=
200807191500 METAR MRLB 191500Z 15006KT 9999 SCT012 BKN250 28/24 A2985=
200807191600 METAR MRLB 191600Z 15004KT 9999 FEW010TCU SCT030 BKN250 29/24 A2985=
200807191700 METAR MRLB 191700Z 15005KT 9999 FEW012TCU BKN250 30/24 A2984=
200807191800 METAR MRLB 191800Z 16010KT 9999 FEW010TCU SCT035 BKN250 30/24 A2982=
200807191900 METAR MRLB 191900Z 15007KT 9999 FEW010TCU SCT025 BKN220 30/24 A2980=
200807192000 METAR MRLB 192000Z 15005KT 9999 FEW010TCU SCT025 BKN180 29/24 A2979 RMK RN ARND=
200807192100 METAR MRLB NIL=
200807192200 METAR MRLB NIL=
200807192300 METAR MRLB 192300Z 00000KT 9999 -DZ FEW025 BKN150 25/24 A2979=
200807200000 METAR MRLB NIL=
200807200100 METAR MRLB NIL=
200807200200 METAR MRLB NIL=
200807200300 METAR MRLB NIL=
200807200400 METAR MRLB NIL=
200807200500 METAR MRLB NIL=
200807200600 METAR MRLB NIL=
200807200700 METAR MRLB NIL=
200807200800 METAR MRLB NIL=
200807200900 METAR MRLB NIL=
200807201000 METAR MRLB NIL=
200807201100 METAR MRLB NIL=
200807201200 METAR MRLB 201200Z 00000KT 0500 FG FEW001 OVC250 23/23 A2983=
200807201300 METAR MRLB 201300Z 00000KT 0400 FG FEW001 BKN250 24/23 A2984=
200807201400 METAR MRLB 201400Z 17002KT 9999 SCT008 SCT250 25/24 A2986=
200807201500 METAR MRLB 201500Z 17004KT 9999 SCT015 BKN250 26/24 A2989=
200807201600 METAR MRLB 201600Z 12002KT 9999 SCT025 BKN250 28/24 A2990=
200807201700 METAR MRLB NIL=
200807201800 METAR MRLB 201800Z 03002KT 9999 SCT030 SCT250 31/25 A2986=
200807201900 METAR MRLB 201900Z 25004KT 9999 SCT030 30/24 A2984 FEW250 RN N CB RN S=
200807202000 METAR MRLB NIL=
200807202100 METAR MRLB 202100Z 04006KT 9999 -RA FEW010TCU SCT015 SCT120 27/25 A2981 RMK TS N=
200807202200 METAR MRLB 202200Z 29003KT SCT015 BKN120 27/25 A2980 RMK TS RASH DST E=
200807202300 METAR MRLB 202300Z 02003KT 9999 -RA SCT020 SCT120 27/25 A2981=
200807210000 METAR MRLB 210000Z 06004KT 9999 SCT020 BKN120 26/25 A2982 RMK RN DST E=
200807210100 METAR MRLB 210100Z 35002KT 9999 FEW020 BKN120 26/25 A2982=
200807210200 METAR MRLB NIL=
200807210300 METAR MRLB NIL=
200807210400 METAR MRLB NIL=
200807210500 METAR MRLB NIL=
200807210600 METAR MRLB NIL=
200807210700 METAR MRLB NIL=
200807210800 METAR MRLB NIL=
200807210900 METAR MRLB NIL=
200807211000 METAR MRLB NIL=
200807211100 METAR MRLB NIL=
200807211200 METAR MRLB 211200Z 08004KT 9999 FEW030 BKN120 23/23 A2984 RMK FEW250 CB DST NE SW W NW FG SSW=
200807211300 METAR MRLB 211300Z 12004KT 9999 FEW030 BKN120 24/23 A2985 RMK CB DST SW W NW RN NE E BANCOS FG NW=
200807211400 METAR MRLB 211400Z 23004KT 9999 -RA VCFG SCT030 BKN130 24/24 A2985 RMK=
200807211500 METAR MRLB 211500Z 17007KT 9999 FEW030 BKN130 26/24 A2988 RMK FEW250=
200807211600 METAR MRLB 211600Z 12006K CAVOK 27/23 A2987 RMK BKN130 SCT250 TRACE CU=
200807211700 METAR MRLB 211700Z 12005KT CAVOK 29/24 A2988 RMK TRACE CU FEW130 BKN250=
200807211800 METAR MRLB 211800Z 16006KT 9999 SCT025 BKN250 30/25 A2985=
200807211900 METAR MRLB 211900Z 13006KT 9999 SCT025TCU BKN250 31/25 A2982=
200807212000 METAR MRLB 212000Z 15006KT 9999 SCT025TCU BKN250 31/25 A2978=
200807212100 METAR MRLB 212100Z 16004KT 9999 FEW030TCU BKN250 32/25 A2976 RMK FEW130=
200807212200 METAR MRLB 212200Z 24008KT 9999 FEW025TCU SCT030 29/25 A2977 RMK SCT250 RN DST N=
200807212300 METAR MRLB 212300Z 29007KT 9999 FEW020TCU SCT130 28/24 A2978 RMK FEW250 CB TSRA DST NW CB DS N NE S=
200807220000 METAR MRLB 220000Z 29003KT 9999 SCT030TCU BKN130 26/23 A2980 RMK CB TSSHRA DST N NE CB DST W=
200807220100 METAR MRLB 220100Z 02008KT 9999 -RA VCSH SCT025CB SCT030 BKN120 26/24 A2983 RMK VIS 8000 TS SHRAQ NW N=
200807220200 METAR MRLB 220200Z 36003KT 9999 SCT030 OVC100 25/24 A2984 RMK CB LTNG DST N=
200807220300 METAR MRLB NIL=
200807220400 METAR MRLB NIL=
200807220500 METAR MRLB NIL=
200807220600 METAR MRLB NIL=
200807220700 METAR MRLB NIL=
200807220800 METAR MRLB NIL=
200807220900 METAR MRLB NIL=
200807221000 METAR MRLB NIL=
200807221100 METAR MRLB NIL=
200807221200 METAR MRLB 221200Z 06004KT CAVOK 24/23 A2983 FEW120 SCT250=
200807221300 METAR MRLB 221300Z 06003KT CAVOK 25/24 A2985 RMK FEW120 BKN250=
200807221400 METAR MRLB 221400Z 00000KT CAVOK 26/24 A2986 RMK FEW120 SCT250=
200807221500 METAR MRLB 221500Z 19004KT CAVOK 28/25 A2986 RMK BKN250=
200807221600 METAR MRLB 221600Z 12008KT 9999 FEW020 SCT250 30/25 A2986=
200807221700 METAR MRLB 221700Z 08010KT 9999 SCT020 BKN250 31/25 A2986=
200807221800 METAR MRLB 221800Z 10009KT 9999 SCT020 BKN250 31/24 A2983=
200807221900 METAR MRLB 221900Z 11003KT 9999 FEW020 BKN250 31/24 A2981=
200807222000 METAR MRLB 222000Z 00000KT CAVOK 31/24 A2980 RMK FEW100 BKN250=
200807222100 METAR MRLB 222100Z 09008KT CAVOK 31/23 A2979 RMK TCU DST S BKN250=
200807222200 METAR MRLB 222200Z 13004KT CAVOK 30/24 A2979 RMK BKN250 TCU LINE DST S=
200807222300 METAR MRLB 222300Z 10006KT CAVOK 30/23 A2978 RMK BKN250 TCU S DST=
200807230000 METAR MRLB 230000Z 10006KT CAVOK 28/23 A2980 RMK FEW100 BKN250 TCU DST S SW=
200807230100 METAR MRLB 230100Z 09005KT CAVOK 27/23 A2982 RMK SCT250=
200807230200 METAR MRLB NIL=
200807230300 METAR MRLB NIL=
200807230400 METAR MRLB NIL=
200807230500 METAR MRLB NIL=
200807230600 METAR MRLB NIL=
200807230700 METAR MRLB NIL=
200807230800 METAR MRLB NIL=
200807230900 METAR MRLB NIL=
200807231000 METAR MRLB NIL=
200807231100 METAR MRLB NIL=
200807231200 METAR MRLB NIL=
200807231300 METAR MRLB 231300Z 26002KT CAVOK 23/22 A2986 RMK SCT130 BKN250=
200807231400 METAR MRLB 231400Z 35004KT CAVOK 24/23 A2985 RMK OVC250 TRACE AC=
200807231500 METAR MRLB 231500Z 27003KT CAVOK 26/23 A2986 OVC250=
200807231600 METAR MRLB 231600Z 16002KT 9999 FEW030OVC250 30/24 A2986=
200807231700 METAR MRLB 231700Z 10002KT 9999 SCT030 BKN250 31/23 A2985=
200807231800 METAR MRLB 231800Z 19003KT 9999 BKN020 SCT250 30/24 A2982 RMK RN DST N=
200807231900 METAR MRLB 231900Z 31004KT 9999 -RA SCT020 SCT250 30/25 A2979=
200807232000 METAR MRLB 232000Z 27003KT 9999 SCT025 BKN250 32/25 A2976 RMK RN DST N S=
200807232100 METAR MRLB 232100Z 08007KT 9999 FEW015CU FEW020 BKN130 30/24 A2977 RMK RASH E S W=
200807232200 METAR MRLB 232200Z 10006KT 9999 FEW020 OVC130 28/23 A2978 RMK RN NE W=
200807232300 METAR MRLB NIL=
200807240000 METAR MRLB 240000Z 09010KT 9999 SCT030 BKN120 26721 A2978 RMK RN DST E TCU DST S=
200807240100 METAR MRLB 240100Z 11007KT 9999 FEW030 BKN120 26/19 A2981=
200807240200 METAR MRLB NIL=
200807240300 METAR MRLB NIL=
200807240400 METAR MRLB NIL=
200807240500 METAR MRLB NIL=
200807240600 METAR MRLB NIL=
200807240700 METAR MRLB NIL=
200807240800 METAR MRLB NIL=
200807240900 METAR MRLB NIL=
200807241000 METAR MRLB NIL=
200807241100 METAR MRLB NIL=
200807241200 METAR MRLB 241200Z 00000KT 9999 SCT040 BKN120 23/22 A2983=
200807241300 METAR MRLB 241300Z 04004KT 9999 SCT040 BKN120 23/22 A2985=
200807241400 METAR MRLB 241400Z 00000KT 9999 FEW040 BKN120 26/23 A2986=
200807241500 METAR MRLB 241500Z 29002KT 9999 FEW040 BKN120 29/24 A2988=
200807241600 METAR MRLB 241600Z 08006KT CAVOK 30/23 A2988 RMK BKN130 FEW250 TRACE CU=
200807241700 METAR MRLB 241700Z 11009KT CAVOK 31/22 A2987 RMK FEW130 BKN250 RMK TRACE CU=
200807241800 METAR MRLB 241800Z 11008KT 9999 FEW035 SCT140 31/23 A2986 RMK SCT250=
200807241900 METAR MRLB 241900Z 09008KT 9999 FEW035 32/23 A2985 RMK FEW140=
200807242000 METAR MRLB 242000Z 09005KT 9999 FEW030 BKN120 26/19 A2984=
200807242100 METAR MRLB 242100Z 28006KT 9999 SCT030 SCT140 30/25 A2982 CB E SE SW=
200807242200 METAR MRLB 242200Z 24004KT 9999 BKN035 SCT130 29/25 A2981 FEW250 CB S SW NE SE=
200807242300 METAR MRLB 242300Z 24005KT 9999 -RA VCSH FEW025CB BKN030 28/25 A2984 TS NW VSBY NW 5KM FEW140=
200807250000 METAR MRLB 250000Z 09013KT 9999 FEW030 SCT120 28/21 A2981 SCT250 CB DST SW=
200807250100 METAR MRLB 250100Z 04003KT CAVOK 26/22 A2983 SCT120 BKN250=
200807250200 METAR MRLB 250200Z 10010KT 9999 FEW030 SCT120 27/20 A2983 SCT250=
200807250300 METAR MRLB NIL=
200807250400 METAR MRLB NIL=
200807250500 METAR MRLB NIL=
200807250600 METAR MRLB NIL=
200807250700 METAR MRLB NIL=
200807250800 METAR MRLB NIL=
200807250900 METAR MRLB NIL=
200807251000 METAR MRLB NIL=
200807251100 METAR MRLB NIL=
200807251200 METAR MRLB 251200Z 10007KT 9999 FEW030 BKN130 26/22 A2986=
200807251300 METAR MRLB 251300Z 08009KT 9999 FEW035 OVC130 28/22 A2989=
200807251400 METAR MRLB 251400Z 08010KT 9999 FEW035 OVC120 28/22 A2989=
200807251500 METAR MRLB 251500Z 34004KT 9999 FEW035 OVC120 29/23 A2877=
200807251600 METAR MRLB 251600Z 28007KT 9999 FEW040 OVC120 290/23 A2987=
200807251700 METAR MRLB 251700Z 09012KT 9999 FEW040 OVC130 30/22 A2985=
200807251800 METAR MRLB 251800Z 09014KT 9999 FEW040 BKN130 30/22 A2984=
200807251900 METAR MRLB NIL=
200807252000 METAR MRLB 252000Z 08014KT 9999 SCT035 OVC130 30/21 A2982=
200807252100 METAR MRLB 252100Z 08013KT 9999 SCT035 BKN140 31/22 A2982=
200807252200 METAR MRLB 252200Z 07010KT 9999 FEW035 OVC140 30/22 A2982=
200807252300 METAR MRLB 252300Z 08012KT 9999 FEW035 BKN140 29/21 A2984=
200807260000 METAR MRLB 260000Z 07010KT 9999 FEW035 OVC140 28/21 A2984=
200807260100 METAR MRLB 260100Z 08010KT 9999 FEW035 BKN140 27/22 A2986=
200807260200 METAR MRLB 260200Z 09008KT 9999 FEW035 BKN140 26/21 A2988=
200807260300 METAR MRLB NIL=
200807260400 METAR MRLB NIL=
200807260500 METAR MRLB NIL=
200807260600 METAR MRLB NIL=
200807260700 METAR MRLB NIL=
200807260800 METAR MRLB NIL=
200807260900 METAR MRLB NIL=
200807261000 METAR MRLB NIL=
200807261100 METAR MRLB NIL=
200807261200 METAR MRLB 261200Z 20005KT 9999 FEW035 BKN250 24/22 A2982=
200807261300 METAR MRLB 261300Z 19003KT 9999 FEW040 BKN250 26/22 A2984=
200807261400 METAR MRLB 261400Z 28004KT 9999 BKN035 28/23 A2985 RMK FEW250=
200807261500 METAR MRLB 261500Z 07012KT 9999 FEW035 OVC250 30/23 A2986=
200807261600 METAR MRLB 261600Z 33004KT 9999 -RA BKN030 SCT250 30/23 A2988=
200807261700 METAR MRLB 261700Z 07009KT 9999 FEW030 BKN120 29/23 A2987=
200807261800 METAR MRLB 261800Z 07013KT 9999 FEW035 OVC250 31/23 A2988=
200807261900 METAR MRLB 261900Z 08013KT 9999 FEW035 OVC250 32/22 A2983 RMK RN DST E=
200807262000 METAR MRLB 262000Z 06009KT 9999 SCT030 BKN100 30/23 A2983 RMK RN DST N=
200807262100 METAR MRLB 262100Z 08007KT 9999 FEW035 BKN120 30/23 A2981=
200807262200 METAR MRLB 262200Z 07009KT 9999 FEW035 OVC130 30/22 A2979=
200807262300 METAR MRLB 262300Z 07004KT 9999 FEW040 OVC140 30/22 A2981=
200807270000 METAR MRLB 270000Z 09006KT CAVOK 29/22 A2982 RMK OVC140=
200807270100 METAR MRLB 270100Z 09009KT CAVOK 28/21 A2983 RMK OVC140=
200807270200 METAR MRLB 270200Z 08013KT CAVOK 28/22 A2985 RMK OVC140=
200807270300 METAR MRLB NIL=
200807270400 METAR MRLB NIL=
200807270500 METAR MRLB NIL=
200807270600 METAR MRLB NIL=
200807270700 METAR MRLB NIL=
200807270800 METAR MRLB NIL=
200807270900 METAR MRLB NIL=
200807271000 METAR MRLB NIL=
200807271100 METAR MRLB NIL=
200807271200 METAR MRLB 271200Z 08003KT CAVOK 22/21 A2984 SCT150 BKN250 RAZAS SCT=
200807271300 METAR MRLB NIL=
200807271400 METAR MRLB 271400Z 00000KT CAVOK 29/23 A2986 RMK TRACE SC BKN250=
200807271500 METAR MRLB NIL=
200807271600 METAR MRLB 271600Z 10010KT 9999 FEW035 SCT250 30/23 A2988=
200807271700 METAR MRLB 271700Z 11007KT 9999 FEW035 SCT250 31/22 A2985=
200807271800 METAR MRLB 271800Z 04008KT CAVOK 33/33A2984 RMK TRACE CU SCT130 SCT250=
200807271900 METAR MRLB 271900Z 09009KT 9999 FEW035 BKN250 33/22 A2982=
200807272000 METAR MRLB 272000Z 07016KT 9999 FEW030 BKN250 33/21 A2980 RMK FEW130=
200807272100 METAR MRLB 272100Z 09012KT CAVOK 32/21 A2978 RMK TRACE CU BKN250=
200807272200 METAR MRLB 272200Z 10012KT CAVOK 31/22 A2977 RMK BKN250 TRACE CU CB DST E=
200807272300 METAR MRLB 272300Z 09009KT CAVOK 31/22 A2977 RMK TRACE CU AC BKN250=
200807280000 METAR MRLB 280000Z 09010KT CAVOK 29/22 A2979 RMK TRACE CU OVC250=
200807280100 METAR MRLB 280100Z 09010KT CAVOK 28/21 A2980 RMK TRACE CU AC OVC250=
200807280200 METAR MRLB 280200Z 08007KT CAVOK 28/21 A2982 RMK OVC250=
200807280300 METAR MRLB NIL=
200807280400 METAR MRLB NIL=
200807280500 METAR MRLB NIL=
200807280600 METAR MRLB NIL=
200807280700 METAR MRLB NIL=
200807280800 METAR MRLB NIL=
200807280900 METAR MRLB NIL=
200807281000 METAR MRLB NIL=
200807281100 METAR MRLB NIL=
200807281200 METAR MRLB 281200Z 00000KT CAVOK 25/21 A2984 RMK BKN250=
200807281300 METAR MRLB 281300Z 04003KT CAVOK 25/21 A2986 RMK FEW100 SCT250=
200807281400 METAR MRLB 281400Z 19003KT CAVOK 28/21 A2987 RMK BKN250=
200807281500 METAR MRLB 281500Z 07013KT CAVOK 30/21 A2987 RMK SCT250=
200807281600 METAR MRLB 281600Z 08014KT CAVOK 31/21 A2987 RMK SCT250=
200807281700 METAR MRLB 281700Z 05014KT CAVOK 31/21 A2987 RMK SCT250=
200807281800 METAR MRLB 281800Z 10012KT CAVOK 32/21 A2986 RMK SCT250=
200807281900 METAR MRLB 281900Z 08012KT CAVOK 32/21 A2985 RMK SCT250=
200807282000 METAR MRLB 282000Z 09012KT 9999 FEW020 SCT250 33/20 A2983=
200807282100 METAR MRLB 282100Z 10012KT 9999 FEW030 SCT250 32/19 A2982=
200807282200 METAR MRLB 292200Z 12005KT 9999 FEW030 SCT250 32/21 A2981=
200807282300 METAR MRLB NIL=
200807290000 METAR MRLB 290000Z 10007KT CAVOK 29/23 A2986 RMK FEW100 SCT250 TCU SW=
200807290100 METAR MRLB 290100Z 11006KT 9999 FEW035 SCT200 27/23 A2989 RMK TCU S SW DST=
200807290200 METAR MRLB NIL=
200807290300 METAR MRLB NIL=
200807290400 METAR MRLB NIL=
200807290500 METAR MRLB NIL=
200807290600 METAR MRLB NIL=
200807290700 METAR MRLB NIL=
200807290800 METAR MRLB NIL=
200807290900 METAR MRLB NIL=
200807291000 METAR MRLB NIL=
200807291100 METAR MRLB NIL=
200807291200 METAR MRLB 291200Z 16004KT 9999 FEW035 OVC250 23/23 A2988=
200807291300 METAR MRLB 291300Z 00000KT 9999 FEW010 BKN250 25/23 A2989=
200807291400 METAR MRLB 291400Z 16004KT 9999 FEW020 SCT250 27/24 A2981=
200807291500 METAR MRLB 291500Z 20005KT 9999 FEW030 SCT250 29/24 A2991=
200807291600 METAR MRLB 291600Z 28003KT 9999 SCT030 SCT250 30/23 A2990=
200807291700 METAR MRLB 291700Z 31002KT 9999 FEW035 SCT140 BKN250 31/23 A2990=
200807291800 METAR MRLB 291800Z 27002KT 9999 FEW035 SCT140 BKN250 32/23 A2988=
200807291900 METAR MRLB 291900Z 10008KT 9999 SCT030 BKN120 32/22 A2986=
200807292000 METAR MRLB 292000Z 07009KT 9999 TS FEW010CB SCT020 BKN120 31/22 A2985 RASH N W=
200807292100 METAR MRLB 292100Z 04005KT 9999 FEW020 BKN130 29/23 A2983 CB RN SW=
200807292200 METAR MRLB 292200Z 06005KT 9999 FEW030 SCT130 BKN250 30/24 A2982 CB SE S=
200807292300 METAR MRLB NIL=
200807300000 METAR MRLB NIL=
200807300100 METAR MRLB 300100Z 00000KT CAVOK 26/21 A2986 OVC120=
200807300200 METAR MRLB 300200Z NIL=
200807300300 METAR MRLB NIL=
200807300400 METAR MRLB NIL=
200807300500 METAR MRLB NIL=
200807300600 METAR MRLB NIL=
200807300700 METAR MRLB NIL=
200807300800 METAR MRLB NIL=
200807300900 METAR MRLB NIL=
200807301000 METAR MRLB NIL=
200807301100 METAR MRLB NIL=
200807301200 METAR MRLB 301200Z 04004KT CAVOK 22/21 A2987 RMK FEW130 BKN250 CB DST S SW=
200807301300 METAR MRLB 301300Z 06002KT CAVOK 25/21 A2989 SCT130 FEW250=
200807301400 METAR MRLB 301400Z 00000KT CAVOK 28/21 A2989 FEW130 SCT200=
200807301500 METAR MRLB 301500Z 16003KT CAVOK 29/22 A2991 BKN250=
200807301600 METAR MRLB 301600Z 17004KT CAVOK 29/23 A2990 BKN250 CB SW=
200807301700 METAR MRLB 301700Z 23004KT 9999 FEW035 SCT250 30/23 A2988=
200807301800 METAR MRLB 301800Z 12005KT 9999 SCT035 32/23 A2987 FEW140 FEW250 CB SSE=
200807301900 METAR MRLB 301900Z 23003KT 9999 FEW025TCU SCT035 33/22 A2982 SCT250=
200807302000 METAR MRLB 302000Z 25008KT 9999 BKN030TCU 32/24 A2980 CB S=
200807302100 METAR MRLB 302100Z 27010KT 9999 VCSH FEW020CB BKN030 30/23 A2978 RMK TS DST NE VIS N 8000 RASH RN DST E SE=
200807302200 METAR MRLB 302200Z 13010KT 9999 RA FEW015CB SCT025 BKN100 23/22 A2982 RMK TS DST SW VIS S NW N 6000=
200807302300 METAR MRLB 302300Z 26005KT 9999 -DZ SCT020 OVC120 23/22 A2981 RMK CB RN DST SW 8000 S=
200807310000 METAR MRLB 310000Z 03005KT 9999 -RA FEW030 OVC120 23/23 A2982 RMK CB DST SW/W=
200807310100 METAR MRLB 310100Z 04004KT 9999 -RA OVC120 23/23 A2985 RMK LTNG E=
200807310200 METAR MRLB NIL=
200807310300 METAR MRLB NIL=
200807310400 METAR MRLB NIL=
200807310500 METAR MRLB NIL=
200807310600 METAR MRLB NIL=
200807310700 METAR MRLB NIL=
200807310800 METAR MRLB NIL=
200807310900 METAR MRLB NIL=
200807311000 METAR MRLB NIL=
200807311100 METAR MRLB NIL=
200807311200 METAR MRLB 311200Z 22002KT 9999 FEW030 BKN250 23/23 A2985 RMK ST SW=
200807311300 METAR MRLB 311300Z 05002KT 9999 FEW035 SCT250 25/24 A2987 RMK ST SW=
200807311400 METAR MRLB 311400Z 25002KT 9999 SCT030 SCT250 26/24 A2988=
200807311500 METAR MRLB 311500Z 00000KT 9999 FEW035 BKN140 27/24 A2988=
200807311600 METAR MRLB 311600Z 29003KT 9999 FEW035 SCT130 BKN250 29/24 A2987=
200807311700 METAR MRLB 311700Z 00000KT 9999 SCT035 BKN250 30/24 A2986=
200807311800 METAR MRLB 311800Z 18006KT 9999 FEW020TCU SCT035 BKN250 29/25 A2984 RMK RN DST E=
200807311900 METAR MRLB 311900Z 12002KT 9999 SCT030TCU BKN240 30/25 A2988 RMK RN DST NE NW=
200807312000 METAR MRLB 312000Z 32006KT 9999 SCT030 BKN130 27/24 A2979 RMK RN DST S=
200807312100 METAR MRLB 312100Z 03005KT 9999 FEW035 BKN130 26/24 A2979 RMK RN DST S=
200807312200 METAR MRLB 312200Z 16004KT 9999 FEW035 OVC130 26/24 A2977=
200807312300 METAR MRLB 312300Z 15004KT 9999 FEW035 OVC130 25/24 A2978 RMK RN DST S=
200808010000 METAR MRLB 010000Z 15005KT 9999 FEW035 BKN140 24/23 A2980=
200808010100 METAR MRLB 010100Z 14004KT 9999 FEW035 BKN140 24/23 A2981=
200808010200 METAR MRLB NIL=
200808010300 METAR MRLB NIL=
200808010400 METAR MRLB NIL=
200808010500 METAR MRLB NIL=
200808010600 METAR MRLB NIL=
200808010700 METAR MRLB NIL=
200808010800 METAR MRLB NIL=
200808010900 METAR MRLB NIL=
200808011000 METAR MRLB NIL=
200808011100 METAR MRLB NIL=
200808011200 METAR MRLB 011200Z 00000KT 9999 FEW030 OVC250 22/22 A2979 FG BANK ARND=
200808011300 METAR MRLB 011300Z 21002KT 9999 FEW030 OVC250 24/23 A2982=
200808011400 METAR MRLB 011400Z 17003KT 9999 FEW035 OVC250 26/24 A2984 RMK TRACE AC=
200808011500 METAR MRLB 011500Z 09006KT 9999 FEW035 OVC250 28/22 A2986=
200808011600 METAR MRLB 011600Z 08008KT 9999 FEW035 OVC250 30/22 A2986=
200808011700 METAR MRLB 011700Z 11008KT 9999 FEW035 OVC250 31/22 A2986=
200808011800 METAR MRLB 011800Z 11007KT 9999 FEW035 OVC250 32/23 A2985=
200808011900 METAR MRLB 011900Z 11009KT 9999 FEW035 OVC250 32/22 A2983=
200808012000 METAR MRLB 012000Z 12007KT 9999 FEW035 OVC250 32/22 A2981 RMK CB DST SE=
200808012100 METAR MRLB 012100Z 10004KT 9999 SCT030 BKN250 32/22 A2979 RMK RN DST SW=
200808012200 METAR MRLB 012200Z 27008KT 9999 SCT025 SCT120 31/24 A2979 RMK RN DS SW CB DST S=
200808012300 METAR MRLB 012300Z 34007KT 9999 -RA BKN020 SCT120 27/25 A2979=
200808020000 METAR MRLB 020000Z 27003KT 9999 -RA OVC020 27/25 A2981=
200808020100 METAR MRLB 020100Z 11002KT 9999 -RA BKN020 SCT120 26/25 A2983=
200808020200 METAR MRLB 020200Z 11002KT 9999 -RA BKN020 SCT120 26/25 A2983=
200808020300 METAR MRLB 020300Z 20006KT 9999 SCT025TCU BKN130 26/23 A2977 RMK CB DST S SW RASH E=
200808020400 METAR MRLB NIL=
200808020500 METAR MRLB NIL=
200808020600 METAR MRLB NIL=
200808020700 METAR MRLB NIL=
200808020800 METAR MRLB NIL=
200808020900 METAR MRLB NIL=
200808021000 METAR MRLB NIL=
200808021100 METAR MRLB NIL=
200808021200 METAR MRLB 021200Z 06004KT 0200 FG VV001 23/23 A2982=
200808021300 METAR MRLB 021300Z 00000KT 9999 2000N BR SCT003 BKN250 24/24 A2984 RMK FEW130=
200808021400 METAR MRLB 021400Z 24002KT 9999 3000SW BR SCT004 BKN250 25/24 A2984=
200808021500 METAR MRLB 021500Z 00000KT CAVOK 26/24 A2985 RMK FEW130 BKN250 TRACE ST=
200808021600 METAR MRLB 021600Z 25003KT 9999 FEW020 SCT140 BKN250 27/25 A2986=
200808021700 METAR MRLB 021700Z 26004KT 9999 FEW025 BKN250 29/25 A2985 RMK CB DST SE S FEW130=
200808021800 METAR MRLB 021800Z 23004KT 9999 FEW025 SCT120 BKN250 29/24 A2983 RMK CB RN DST N E SE S=
200808021900 METAR MRLB 021900Z 25003KT 9999 FEW025 SCT120 BKN250 30/25 A2981 RMK CB DST NW N S SW=
200808022000 METAR MRLB 022000Z 29007KT 9999 FEW025 BKN250 29/25 A2977 RMK FEW120 CB DST NW NE S=
200808022100 METAR MRLB 022100Z 27007KT 99999 FEW025TCU SCT130 BKN250 29/25 A2977 RMK CB DST E S NE=
200808022200 METAR MRLB 022200Z 30008KT 9999 SCT025TCU BKN200 28/24 A2976 RMK FEW140 CB RN DST SW S=
200808022300 METAR MRLB NIL=
200808030000 METAR MRLB 030000Z 20004KT 9999 BKN025 SCT130 25/24 A2979 RMK RN DST S=
200808030100 METAR MRLB 030100Z 13004KT 9999 SCT030 BKN130 24/23 A2981=
200808030200 METAR MRLB 030200Z 00000KT 9999 FEW030 BKN130 24/23 A2983=
200808030300 METAR MRLB NIL=
200808030400 METAR MRLB NIL=
200808030500 METAR MRLB NIL=
200808030600 METAR MRLB NIL=
200808030700 METAR MRLB NIL=
200808030800 METAR MRLB NIL=
200808030900 METAR MRLB NIL=
200808031000 METAR MRLB NIL=
200808031100 METAR MRLB NIL=
200808031200 METAR MRLB 031200Z 00000KT 9999 FEW010 BKN250 23/22 A2979 RMK FOG BANKS DST ARND CB DST SW=
200808031300 METAR MRLB 031300Z 00000KT 9999 FEW025 BKN250 25/23 A2981=
200808031400 METAR MRLB 031400Z 18003KT CAVOK 26/24 A2983 RMK SCT250 HZ ARND=
200808031500 METAR MRLB 031500Z 17005KT CAVOK 28/25 A2983 RMK FEW100 SCT250=
200808031600 METAR MRLB 031600Z 20005KT 9999 FEW025 SCT250 29/25 A2983=
200808031700 METAR MRLB 031700Z 10007KT 9999 SCT025 BKN250 31/23 A2980=
200808031800 METAR MRLB 031800Z 08012KT 9999 SCT025 BKN250 32/23 A2977=
200808031900 METAR MRLB 031900Z 10008KT 9999 SCT025 BKN250 32/23 A2976=
200808032000 METAR MRLB 032000Z 07007KT 9999 SCT025 BKN250 33/23 A2975 RMK TCU NE=
200808032100 METAR MRLB NIL=
200808032200 METAR MRLB 032200Z 31006KT 9999 SCT025 BKN250 30/25 A2972 CB S TCU E=
200808032300 METAR MRLB 032300Z 29006KT 9999 SCT025 BKN250 29/25 A2974 CB RN S SW=
200808040000 METAR MRLB 040000Z 22006KT 9999 SCT020CB BKN100 27/24 A2976 CB RN ARND=
200808040100 METAR MRLB 040100Z 15007KT 9000 -TS SCT020CB BKN120 25/23 A2979 CB QUAD W=
200808040200 METAR MRLB NIL=
200808040300 METAR MRLB NIL=
200808040400 METAR MRLB NIL=
200808040500 METAR MRLB NIL=
200808040600 METAR MRLB NIL=
200808040700 METAR MRLB NIL=
200808040800 METAR MRLB NIL=
200808040900 METAR MRLB NIL=
200808041000 METAR MRLB NIL=
200808041100 METAR MRLB NIL=
200808041200 METAR MRLB 041200Z 18005KT 3000 BR FEW005 BKN130 24/23 A2979 RMK VIS W UNL=
200808041300 METAR MRLB 041300Z 00000KT 9999 FEW008 BKN130 25/23 A2981 RMK ST N=
200808041400 METAR MRLB 041400Z 03002KT 9999 FEW010 BKN130 27/23 A2982=
200808041500 METAR MRLB 041500Z 19003KT 9999 FEW020 BKN130 28/24 A2984=
200808041600 METAR MRLB 041600Z 28002KT 9999 FEW025 BKN130 29/24 A2983=
200808041700 METAR MRLB 041700Z 27005KT 9999 BKN025 SCT250 30/25 A2983=
200808041800 METAR MRLB 041800Z 22005KT 9999 BKN025 SCT130 30/25 A2981 RN N NE=
200808041900 METAR MRLB 041900Z 36010KT 9999 FEW010TCU SCT015 SCT130 28/23 A2980 RN N NE=
200808042000 METAR MRLB 042000Z 32005KT 9999 FEW020 SCT130 27/24 A2977 RN SW RERA=
200808042100 METAR MRLB 042100Z 30005KT 9999 SCT020CU BKN130 28/25 A2977 RMK RN DST E SW=
200808042200 METAR MRLB 042200Z 19003KT 9999 4000E -TSRA SCT010CB BKN020 27/25 A2998=
200808042300 METAR MRLB 042300Z 12003KT 9999 TSRA FEW010CB FEW020 BKN130 25/24 A2979=
200808050000 METAR MRLB 050000Z 21008KT 9999 -RA SCT020 BKN130 23/23 A2982 RMK TS DST SW=
200808050100 METAR MRLB 050100Z 17003KT 9999 -TSRA FEW015CB FEW020 OVC130 23/23 A2980 RMK TS DST SE=
200808050200 METAR MRLB NIL=
200808050300 METAR MRLB NIL=
200808050400 METAR MRLB NIL=
200808050500 METAR MRLB NIL=
200808050600 METAR MRLB NIL=
200808050700 METAR MRLB NIL=
200808050800 METAR MRLB NIL=
200808050900 METAR MRLB NIL=
200808051000 METAR MRLB NIL=
200808051100 METAR MRLB NIL=
200808051200 METAR MRLB 051200Z 22002KT 9999 SCT030 BKN140 23/22 A2980=
200808051300 METAR MRLB 051300Z 00000KT 9999 SCT035 BKN130 24/23 A2981=
200808051400 METAR MRLB 051400Z 00000KT 9999 FEW035 BKN130 25/24 A2980=
200808051500 METAR MRLB 051500Z 00000KT 9999 SCT035 BKN140 27/25 A2982=
200808051600 METAR MRLB 051600Z 09007KT 9999 SCT035 BKN140 29/23 A2983=
200808051700 METAR MRLB 051700Z 10010KT 9999 SCT035 BKN130 29/24 A2983 RMK RN DST E S=
200808051800 METAR MRLB 051800Z 10007KT 9999 SCT035 OVC130 28/24 A2982=
200808051900 METAR MRLB 051900Z 10006KT 9999 SCT030 OVC130 29/23 A2981 RMK RN DST N=
200808052000 METAR MRLB 052000Z 09009KT 9999 FEW035 OVC130 28/22 A2980=
200808052100 METAR MRLB 052100Z 10009KT 9999 FEW035 OVC130 27/22 A2978=
200808052200 METAR MRLB 052200Z 06010KT 9999 FEW040 OVC130 27/21 A2979=
200808052300 METAR MRLB 052300Z 04012KT 9999 FEW040 OVC120 27/21 A2979=
200808060000 METAR MRLB 060000Z 10013KT 9999 FEW040 OVC120 27/21 A2979=
200808060100 METAR MRLB 060100Z 12008KT 9999 FEW035 OVC120 27/21 A2978=
200808060200 METAR MRLB NIL=
200808060300 METAR MRLB NIL=
200808060400 METAR MRLB NIL=
200808060500 METAR MRLB NIL=
200808060700 METAR MRLB NIL=
200808060800 METAR MRLB NIL=
200808060900 METAR MRLB NIL=
200808061000 METAR MRLB NIL=
200808061100 METAR MRLB NIL=
200808061200 METAR MRLB 061200Z 15003KT 9999 FEW030 SCT250 23/21 A2981=
200808061300 METAR MRLB 061300Z 00000KT 9999 SCT035 BKN250 24/23 A2983=
200808061400 METAR MRLB 061400Z 09007KT 9999 FEW020N SCT100 BKN250 28/23 A2984 RMK DZ DST NE E=
200808061500 METAR MRLB 061500Z 06014KT 9999 FEW025 SCT250 30/23 A2984=
200808061600 METAR MRLB 061600Z 08014KT 9999 FEW025 SCT250 31/23 A2983=
200808061700 METAR MRLB 061700Z 05013KT 9999 FEW020 SCT250 31/23 A2982=
200808061800 METAR MRLB 061800Z 08012KT 9999 FEW025 SCT250 31/23 A2980=
200808061900 METAR MRLB 061900Z 07013KT 9999 FEW020 SCT250 32/23 A2978=
200808062000 METAR MRLB 062000Z 07012KT 9999 FEW025 SCT250 32/23 A2977=
200808062100 METAR MRLB 062100Z 05015KT CAVOK 32/22 A2975 RMK FEW100 SCT240=
200808062200 METAR MRLB 062200Z 05012KT CAVOK 30/22 A2974 RMK FEW100 SCT250=
200808062300 METAR MRLB 062300Z 08010KT 9999 FEW045 SCT180 30/22 A2975 RMK CB DST SE TCU NE=
200808070000 METAR MRLB 070000Z 06013KT 9999 FEW040 SCT100 BKN250 29/22 A2978 RMK DZ DST N NE TCU DST S=
200808070100 METAR MRLB 070100Z 08008KT CAVOK 27/22 A2979 RMK FEW100 DZ DST NE=
200808070200 METAR MRLB NIL=
200808070300 METAR MRLB NIL=
200808070500 METAR MRLB NIL=
200808070600 METAR MRLB NIL=
200808070700 METAR MRLB NIL=
200808070800 METAR MRLB NIL=
200808070900 METAR MRLB NIL=
200808071000 METAR MRLB NIL=
200808071100 METAR MRLB NIL=
200808071200 METAR MRLB 071200Z 14002KT 9999 SCT035 BKN130 24/22 A2976=
200808071300 METAR MRLB 071300Z 02006KT 9999 SCT035 BKN220 26/22 A2978=
200808071400 METAR MRLB 071400Z 05013KT 9999 FEW035 BKN220 28/23 A2979=
200808071500 METAR MRLB 071500Z 06015KT 9999 SCT035 BKN250 30/23 A2980 RMK VEL MX VTO 21KTS=
200808071600 METAR MRLB 071600Z 07015KT 9999 SCT035 BKN250 30/23 A2979 RMK RN DST N NE E VEL MX VTO 20KTS=
200808071700 METAR MRLB 071700Z 07014KT 9999 FEW035 OVC250 31/23 A2978 VEL MX VTO 20KS=
200808071800 METAR MRLB 071800Z 08010KT 9999 FEW035 OVC250 31/23 A2976=
200808071900 METAR MRLB 071900Z 11007KT 9999 FEW035 OVC250 31/23 A2975 RMK RN DST NE=
200808072000 METAR MRLB 072000Z 07011KT 9999 SCT030 SCT100 31/23 A2974=
200808072100 METAR MRLB NIL=
200808072200 METAR MRLB 072200Z 07007KT 9999 SCT030 SCT250 31/23 A2972 RMK TCU NE=
200808072300 METAR MRLB 072300Z 12004KT 9999 SCT030 SCT250 30/24 A2972 RMK RN N NE=
200808080000 METAR MRLB 080000Z 10006KT 9999 SCT020 BKN120 29/23 A2975 RMK RN DST N NE S W=
200808080100 METAR MRLB 080100Z 07007KT 9999 -RA SCT020 BKN120 29/23 A2975 RMK LTNG DST N=
200808080200 METAR MRLB 080200Z 05004KT 9999 -RA SCT020 BKN120 27/23 A2976=
200808080300 METAR MRLB NIL=
200808080400 METAR MRLB NIL=
200808080500 METAR MRLB NIL=
200808080600 METAR MRLB NIL=
200808080700 METAR MRLB NIL=
200808080800 METAR MRLB NIL=
200808080900 METAR MRLB NIL=
200808081000 METAR MRLB NIL=
200808081100 METAR MRLB NIL=
200808081200 METAR MRLB 081200Z 17005KT 9999 FEW030 OVC130 24/23 A2978=
200808081300 METAR MRLB 081300Z 03003KT 9999 FEW035 OVC130 24/23 A2982=
200808081400 METAR MRLB 081400Z 00000KT 9999 FEW035 OVC130 25/24 A2984=
200808081500 METAR MRLB 081500Z 03003KT 9999 FEW035 OVC120 25/23 A2987=
200808081600 METAR MRLB 081600Z 07002KT 9999 FEW035 OVC120 27/23 A2985=
200808081700 METAR MRLB 081700Z 00000KT 9999 FEW035 BKN130 28/24 A2985=
200808081800 METAR MRLB 081800Z 26002KT 9999 FEW040 BKN130 28/24 A2984=
200808081900 METAR MRLB 081900Z 28005KT 9999 SCT035 OVC130 28/24 A2982 RMK RN DST E=
200808082000 METAR MRLB 082000Z 28006KT 9999 SCT035 BKN140 29/24 A2978=
200808082100 METAR MRLB 082100Z 29007KT 9999 SCT035 BKN140 28/24 A2976=
200808082200 METAR MRLB 082200Z 28006KT 9999 FEW035 BKN230 29/24 A2975=
200808082300 METAR MRLB 082300Z 25004KT 9999 FEW035 SCT130 OVC240 29/24 A2974=
200808090000 METAR MRLB 090000Z 26005KT 9999 FEW035 BKN240 28/24 A2976=
200808090100 METAR MRLB 090100Z 25003KT 9999 FEW035 BKN240 26/24 A2979=
200808090200 METAR MRLB NIL=
200808090300 METAR MRLB NIL=
200808090400 METAR MRLB NIL=
200808090500 METAR MRLB NIL=
200808090600 METAR MRLB NIL=
200808090700 METAR MRLB NIL=
200808090800 METAR MRLB NIL=
200808090900 METAR MRLB NIL=
200808091000 METAR MRLB NIL=
200808091100 METAR MRLB NIL=
200808091200 METAR MRLB 091200Z 00000KT CAVOK 23/22 A2982 RMK FEW140 SCT250=
200808091300 METAR MRLB 091300Z 00000KT CAVOK 25/23 A2984 FEW150 SCT250=
200808091400 METAR MRLB 091400Z 00000KT CAVOK 27/24 A2985 SCT250=
200808091500 METAR MRLB 091500Z 21008KT 9999 FEW00 SCT025 BKN220 27/24 A2987 DZ E=
200808091600 METAR MRLB 091600Z 28003KT 9999 SCT012 BKN240 29/24 A2988=
200808091700 METAR MRLB 091700Z 25005KT 9999 SCT012TCU BKN200 30/24 A2987 RN ARND=
200808091800 METAR MRLB 091800Z 30008KT 9999 SCT012TCU BKN200 28/25 A2985 CB RN S SW=
200808091900 METAR MRLB 091900Z 22006KT 9999 SCT030 BKN250 31/25 A2982=
200808092000 METAR MRLB 092000Z 35004KT 9999 SCT025 BKN220 32/24 A29890 CB W=
200808092100 METAR MRLB 092100Z 28006KT 9999 SCT020 BKN200 28/25 A2980 RMK RN DST S=
200808092200 METAR MRLB 092200Z 28007KT 9999 FEW025 SCT140 BKN250 28/25 A2979=
200808092300 METAR MRLB 092300Z 27005KT 9999 SCT025 BKN220 28/25 A2980=
200808100000 METAR MRLB 100000Z 32003KT 9999 SCT025 BKN200 27/25 A2981=
200808100100 METAR MRLB 100100Z 00000KT 9999 FEW025 SCT250 26/24 A2982=
200808100200 METAR MRLB 100200Z 00000KT 9999 SCT020 BKN120 25/24 A2984=
200808100300 METAR MRLB NIL=
200808100400 METAR MRLB NIL=
200808100500 METAR MRLB NIL=
200808100600 METAR MRLB NIL=
200808100700 METAR MRLB NIL=
200808100800 METAR MRLB NIL=
200808100900 METAR MRLB NIL=
200808101000 METAR MRLB NIL=
200808101100 METAR MRLB NIL=
200808101200 METAR MRLB 101200Z 19003KT 9999 FEW035 OVC120 23/22 A2987 RERA=
200808101300 METAR MRLB 101300Z 19007KT 9999 FEW030 OVC120 24/23 A2989=
200808101400 METAR MRLB 101400Z 22006KT 9999 FEW020 BKN120 26/24 A2991 RMK RN DST NE=
200808101500 METAR MRLB 101500Z 24004KT 9999 FEW025 SCT120 BKN250 27/24 A2992=
200808101600 METAR MRLB 101600Z 28004KT 9999 FEW030 OVC250 29/23 A2989=
200808101700 METAR MRLB 101700Z 00000KT 9999 SCT030 BKN250 31/23 A2987=
200808101800 METAR MRLB 101800Z 08012KT 9999 FEW035 BKN250 32/23 A2983=
200808101900 METAR MRLB 101900Z 09011KT 9999 FEW035 BKN250 33/21 A2981=
200808102000 METAR MRLB 102000Z 08011KT CAVOK 33/21 A2979 RMK FEW140 BKN250=
200808102100 METAR MRLB 102100Z 08010KT CAVOK 33/22 A2978 RMK OVC250=
200808102200 METAR MRLB 102200Z 08004KT CAVOK 33/22 A2977 RMK OVC250=
200808102300 METAR MRLB 102300Z 08009KT CAVOK 32/21 A2978 RMK OVC250=
200808110000 METAR MRLB 110000Z 09006KT CAVOK 30/33 A2979 RMK OVC250=
200808110100 METAR MRLB 110100Z 11006KT CAVOKN 28/22 A2981 RMK OVC250=
200808110200 METAR MRLB NIL=
200808110300 METAR MRLB NIL=
200808110400 METAR MRLB NIL=
200808110500 METAR MRLB NIL=
200808110600 METAR MRLB NIL=
200808110700 METAR MRLB NIL=
200808110800 METAR MRLB NIL=
200808110900 METAR MRLB NIL=
200808111000 METAR MRLB NIL=
200808111100 METAR MRLB NIL=
200808111200 METAR MRLB 111200Z 00000KT 9999 SCT030 BKN240 23/22 A2987=
200808111300 METAR MRLB 111300Z 09002KT 9999 FEW035 SCT130 BKN240 24/22 A2989=
200808111400 METAR MRLB 111400Z 00000KT 9999 FEW0Z35 BKN240 26/23 A2990=
200808111500 METAR MRLB 111500Z 16003KT 9999 SCT035 BKN240 28/24 A2991=
200808111600 METAR MRLB 111600Z 14005KT 9999 FEW035 BKN250 29/24 A2990=
200808111700 METAR MRLB 111700Z 13005KT 9999 SCT035 BKN250 31/23 A2989=
200808111800 METAR MRLB 111800Z 19004KT 9999 SCT035 BKN250 32/24 A2987=
200808111900 METAR MRLB 111900Z 18004KT 9999 SCT035 BKN250 32/23 A2983 RMK RN DST NE=
200808112000 METAR MRLB 112000Z 28009KT 9999 FEW020TCU SCT035 BKN250 31/25 A2981 RMK RN DST N NE=
200808112100 METAR MRLB 112100Z 35008KT 9999 SCT025 BKN130 27/23 A2981 RMK RN DST E S=
200808112200 METAR MRLB 112200Z 08004KT 9999 SCT030 OVC130 26/24 A2982 RMK RN DST S=
200808112300 METAR MRLB 112300Z 11003KT 9999 SCT035 OVC130 26/24 A2983=
200808120000 METAR MRLB 120000Z 15005KT 9999 SCT025 OVC120 25/23 A2986 RMK RN DST E=
200808120100 METAR MRLB 120100Z 17004KT 9999 SCT030 BKN120 24/23 A2987=
200808120200 METAR MRLB 120200Z 17002KT 9999 SCT030 BKN130 24/23 A2988=
200808120300 METAR MRLB NIL=
200808120400 METAR MRLB NIL=
200808120500 METAR MRLB NIL=
200808120600 METAR MRLB NIL=
200808120700 METAR MRLB NIL=
200808120800 METAR MRLB NIL=
200808120900 METAR MRLB NIL=
200808121000 METAR MRLB NIL=
200808121100 METAR MRLB NIL=
200808121200 METAR MRLB 121200Z 00000KT CAVOK 23/22 A2986 RMK FEW100 SCT250 TCU DST NE=
200808121300 METAR MRLB 121300Z 12005KT 9999 FEW030 SCT250 26/23 A2988=
200808121400 METAR MRLB 121400Z 08006KT 9999 SCT012 BKN220 27/23 A2990=
200808121500 METAR MRLB 121500Z 09006KT 9999 SCT012 BKN240 29/23 A2990=
200808121600 METAR MRLB 121600Z 20004KT 9999 SCT012TCU BKN180 28/23 A2989 RMK TCU RN N=
200808121700 METAR MRLB 121700Z 15005KT 9999 VCSH FEW010CB SCT030 BKN180 29/23 A2988 VIS N 5KMS=
200808121800 METAR MRLB 121800Z 33006KT 9999 SCT025TCU BKN270 27/23 A2987 RMK RN DST ARND=
200808121900 METAR MRLB 121900Z 28008KT 9999 4000E -RA FEW010TCU SCT025 BKN120 26/23 A2986=
200808122000 METAR MRLB 122000Z 06005KT 9999 VCSH FEW012TCU SCT030 BKN180 26/23 A2984 RERA RMK VIS E 7KMS=
200808122100 METAR MRLB 122100Z 25004KT 9999 4000 N -RA SCT010 BKN045 24/23 A2983=
200808122200 METAR MRLB 122200Z 00000KT 9999 --DZ FEW010 SCT030 BKN180 24/24 A2981=
200808122300 METAR MRLB 122300Z 02003KT 9999 FEW010 SCT100 BKN220 25/24 A2981 RERA BR DST ARND=
200808130000 METAR MRLB 130000Z 08005KT 9999 FEW010 SCT120 BKN240 24/23 A2981=
200808130100 METAR MRLB NIL=
200808130200 METAR MRLB NIL=
200808130300 METAR MRLB NIL=
200808130400 METAR MRLB NIL=
200808130500 METAR MRLB NIL=
200808130600 METAR MRLB NIL=
200808130700 METAR MRLB NIL=
200808130800 METAR MRLB NIL=
200808130900 METAR MRLB NIL=
200808131000 METAR MRLB NIL=
200808131100 METAR MRLB NIL=
200808131200 METAR MRLB 131200Z 04003KT CAVOK 23/22 A2983 RMK BKN130=
200808131300 METAR MRLB 131300Z 04004KT CAVOK 23/22 2986 RMK BKN130=
200808131400 METAR MRLB 131400Z 11002KT CAVOK 25/23 A2987 RMK BKN130 TRACE ST=
200808131500 METAR MRLB 131500Z 04002KT 9999 FEW010 BKN130 27/24 A2989=
200808131600 METAR MRLB 131600Z 18002KT 9999 FEW020 BKN130 28/24 A2989=
200808131700 METAR MRLB 131700Z 31002KT 9999 FEW030 SCT140 30/23 A2988=
200808131800 METAR MRLB 131800Z 25002KT 9999 SCT035 31/23 A2986 RMK FEW140=
200808131900 METAR MRLB 131900Z 26005KT 9999 BKN035 31/25 A2983=
200808132000 METAR MRLB 132000Z 29006KT 9999 BKN030 31/24 A2980=
200808132100 METAR MRLB 132100Z 28008KT 9999 FEW020TCU SCT025 30/24 A2979 RN N NE=
200808132200 METAR MRLB NIL=
200808132300 METAR MRLB 132300Z 29005KT 9999 SCT020 BKN120 28/24 A2979 TS RN NE S=
200808140000 METAR MRLB 140000Z 04005KT 9999 SCT020 SCT120 27/24 A2982 RN SW=
200808140100 METAR MRLB 140100Z 00000KT 9999 SCT020 BKN120 27/24 A2983=
200808140200 METAR MRLB NIL=
200808140300 METAR MRLB NIL=
200808140400 METAR MRLB NIL=
200808140500 METAR MRLB NIL=
200808140600 METAR MRLB NIL=
200808140700 METAR MRLB NIL=
200808140800 METAR MRLB NIL=
200808140900 METAR MRLB NIL=
200808141000 METAR MRLB NIL=
200808141100 METAR MRLB NIL=
200808141200 METAR MRLB 141200Z 05002KT 9999 FEW030 BKN250 24/23 A2985 RMK LOW ST SW=
200808141300 METAR MRLB 141300Z 08003KT CAVOK 26/23 A2988 BKN250=
200808141400 METAR MRLB NIL=
200808141500 METAR MRLB 141500Z 34002KT CAVOK 30/23 A2989 BKN250 TRAZAS CU=
200808141600 METAR MRLB 141600Z 16003KT 9999 FEW035 BKN250 31/23 A2989=
200808141700 METAR MRLB 141700Z 13007KT 9999 SCT035 BKN250 32/23 A2987=
200808141800 METAR MRLB 141800Z 10006KT 9999 SCT035 BKN250 32/23 A2985=
200808141900 METAR MRLB 141900Z 15005KT 9999 SCT035 BKN250 33/24 A2984=
200808142000 METAR MRLB 142000Z 28007KT 9999 SCT035 BKN240 31/25 A2982=
200808142100 METAR MRLB 142100Z 29011KT 9999 FEW020TCU SCT030 BKN240 30/25 A2982 RMK TSRA E NE=
200808142200 METAR MRLB 142200Z 35002KT 9999 SCT030 BKN130 24/23 A2981 RN DST S=
200808142300 METAR MRLB 142300Z 26002KT 9999 SCT035 26/25 A2983=
200808150000 METAR MRLB 150000Z 03004KT 9999 SCT035 OVC120 25/24 A2984 RMK RN DST S=
200808150100 METAR MRLB 150100Z 03003KT 9999 FEW035 BKN120 26/24 A2985=
200808150200 METAR MRLB NIL=
200808150300 METAR MRLB NIL=
200808150400 METAR MRLB NIL=
200808150500 METAR MRLB NIL=
200808150600 METAR MRLB NIL=
200808150700 METAR MRLB NIL=
200808150800 METAR MRLB NIL=
200808150900 METAR MRLB NIL=
200808151000 METAR MRLB NIL=
200808151100 METAR MRLB NIL=
200808151200 METAR MRLB 151200Z 00000KT 9000 FEW010 SCT250 25/24 A2988 RMK HZ ARND=
200808151220 METAR MRLB 151220Z 19003KT 0200 FG SCT001 25/24 A2988=
200808151300 METAR MRLB 151300Z 18004KT 0500 SCT001 25/24 A29899=
200808151400 METAR MRLB 151400Z 21007KT 9999 SCT010 BKN250 26/25 A2990 RMK HZ ARND=
200808151500 METAR MRLB 151500Z 25005KT 9999 FEW012 SCT250 28/25 A2992=
200808151600 METAR MRLB 151600Z 22005KT 9999 SCT020 BKN250 30/24 A2991=
200808151700 METAR MRLB 151700Z 28004KT 9999 SCT020 BKN250 31/24 A2990=
200808151800 METAR MRLB 151800Z 35004KT 9999 SCT020 BKN250 32/24 A2989=
200808151900 METAR MRLB 151900Z 30008KT 9999 SCT025 BKN250 32/24 A2985=
200808152000 METAR MRLB 152000Z 27008KT 9999 SCT025TCU BKN250 32/25 A2983=
200808152100 METAR MRLB 152100Z 29005KT 9999 -RA FEW010TCU SCT025 BKN250 28/24 A2982=
200808152200 METAR MRLB 152200Z 29005KT 9999 SCT025TCU BKN240 28/24 A2982 RERA RMK RN DST N S SE=
200808152300 METAR MRLB 152300Z 25004KT 9999 SCT030 BKN250 28/24 A2984 RMK TCU DST ARND=
200808160000 METAR MRLB 160000Z 06004KT 9999 FEW025 SCT100 BKN250 26/25 A2985=
200808160100 METAR MRLB 160100Z 03004KT 9999 FEW025TCU SCT100 25/24 A2988 RMK LTNG DST S TCU DST ARND=
200808160200 METAR MRLB NIL=
200808160300 METAR MRLB NIL=
200808160400 METAR MRLB NIL=
200808160500 METAR MRLB NIL=
200808160600 METAR MRLB NIL=
200808160700 METAR MRLB NIL=
200808160800 METAR MRLB NIL=
200808160900 METAR MRLB NIL=
200808161000 METAR MRLB NIL=
200808161100 METAR MRLB NIL=
200808161200 METAR MRLB 161200Z 06003KT 1000 FG SCT130 BKN250 22/22 A2990=
200808161300 METAR MRLB 161300Z 03002KT 9999 3000W BR FEW001 BKN250 24/23 A2991=
200808161400 METAR MRLB 161400Z 26002KT 9999 SCT010 BKN250 25/23 A2992=
200808161500 METAR MRLB 161500Z 00000KT 9999 FEW010 BKN250 29/24 A2991=
200808161600 METAR MRLB 161600Z 00000KT 9999 SCT030 BKN250 29/23 A2990=
200808161700 METAR MRLB 161700Z 01003KT 9999 FEW030 SCT250 31/23 A2989=
200808161800 METAR MRLB 161800Z 03003KT 9999 FEW035 32/22 A2987 RMK FEW250=
200808161900 METAR MRLB NIL=
200808162000 METAR MRLB 162000Z 28008KT 9999 SCT030 SCT130 31/23 A2981 RMK CB RN DST NE=
200808162100 METAR MRLB 162100Z 30009KT 9999 SCT020 BKN120 29/24 A2979 RMK RN DST N E SE=
200808162200 METAR MRLB 162200Z 28006KT 9999 SCT020 BKN120 28/24 A2979 RMK TS RN DST N E SE=
200808162300 METAR MRLB 162300Z 14007KT 2000 TSRA FEW008CB BKN015 26/25 A2982=
200808170000 METAR MRLB 170000Z 22007KT 9999 -RA SCT020 BKN100 23/22 A2983 RMK TS DST W=
200808170100 METAR MRLB 170100Z 24006KT 9999 FEW020 OVC100 23/23 A2998=
200808170200 METAR MRLB NIL=
200808170300 METAR MRLB NIL=
200808170500 METAR MRLB NIL=
200808170600 METAR MRLB NIL=
200808170700 METAR MRLB NIL=
200808170800 METAR MRLB NIL=
200808170900 METAR MRLB NIL=
200808171000 METAR MRLB NIL=
200808171100 METAR MRLB NIL=
200808171200 METAR MRLB 171200Z 16002KT 9999 SCT030 BKN130 23/22 A2987=
200808171300 METAR MRLB 171300Z 00000KT 9999 SCT035 BKN140 24/23 A2988=
200808171400 METAR MRLB 171400Z 18002KT 9999 FEW035 OVC130 25/23 A2990=
200808171500 METAR MRLB 171500Z 16003KT 9999 SCT035 BKN140 26/23 A2990=
200808171600 METAR MRLB 171600Z 16003KT 9999 SCT035 BKN230 28/23 A2990=
200808171700 METAR MRLB 171700Z 29002KT 9999 SCT035 BKN240 29/24 A2988=
200808171800 METAR MRLB 171800Z 26010KT 9999 FEW020TCU SCT035 BKN240 28/24 A2986 RMK RN DST S=
200808171900 METAR MRLB 171900Z 27008KT 9999 SCT030 BKN230 29/23 A2983 RMK RN DST E NE=
200808172000 METAR MRLB 172000Z 28009KT 9999 FEW015TCU SCT025 BKN130 26/24 A2981 RN DST N NE N=
200808172100 METAR MRLB 172100Z 29005KT 9999 -RA SCT020 BKN100 26/24 A2981=
200808172200 METAR MRLB 172200Z 28002KT 9999 RA SCT025 OVC100 25/24 A2979=
200808172300 METAR MRLB 172300Z 00000KT 9999 -RA SCT025 OVC100 25/24 A2980=
200808180000 METAR MRLB 180000Z 09002KT 9999 SCT030 BKN130 25/24 A2981=
200808180100 METAR MRLB 180100Z 11002KT 9999 DZ SCT030 OVC120 25/24 A2982=
200808180200 METAR MRLB 180200Z 12004KT 9999 DZ SCT025 OVC120 24/24 A2984=
200808180300 METAR MRLB NIL=
200808180400 METAR MRLB NIL=
200808180500 METAR MRLB NIL=
200808180600 METAR MRLB NIL=
200808180700 METAR MRLB NIL=
200808180800 METAR MRLB NIL=
200808180900 METAR MRLB NIL=
200808181000 METAR MRLB NIL=
200808181100 METAR MRLB NIL=
200808181200 METAR MRLB 181200Z 01003KT CAVOK 23/22 A2985 RMK FEW150=
200808181300 METAR MRLB 181300Z 08003KT CAVOK 24/22 A2986 RMK SCT250=
200808181400 METAR MRLB 181400Z 11003KT CAVOK 26/23 A2988 RMK SCT250=
200808181500 METAR MRLB 181500Z 19003KT 9999 FEW025 SCT250 27/23 A2989=
200808181600 METAR MRLB 181600Z 21004KT 9999 FEW025 SCT250 29/23 A2989=
200808181700 METAR MRLB 181700Z 23005KT 9999 SCT025 BKN250 30/22 A2988=
200808181800 METAR MRLB 181800Z 27006KT 9999 SCT025 BKN250 31/22 A2985=
200808181900 METAR MRLB 181900Z 29007KT 9999 SCT025 BKN250 31/23 A2983 RMK TCU NE=
200808182000 METAR MRLB 182000Z 29008KT 9999 SCT025 BKN250 31/24 A2981 RMK TCU N E SE=
200808182100 METAR MRLB 182100Z 28010KT 9999 SCT025TCU BKN240 29/24 A2979 CB RN E N S=
200808182200 METAR MRLB 182200Z32003KT 9999 -RA FEW025TCU SCT120 BKN250 26/24 A2978=
200808182300 METAR MRLB 182300Z 00000KT CAVOK 27/24 A2977 FEW150 SCT250=
200808190000 METAR MRLB 190000Z 00000KT 9999 FEW030 SCT160 27/24 A2980=
200808190100 METAR MRLB 190100Z 00000KT 9999 -DZ FEW025 SCT140 26/24 A2982 LTNG DST S=
200808190200 METAR MRLB NIL=
200808190300 METAR MRLB NIL=
200808190400 METAR MRLB NIL=
200808190500 METAR MRLB NIL=
200808190600 METAR MRLB NIL=
200808190700 METAR MRLB NIL=
200808190800 METAR MRLB NIL=
200808190900 METAR MRLB NIL=
200808191000 METAR MRLB NIL=
200808191100 METAR MRLB NIL=
200808191200 METAR MRLB 191200Z 00000KT CAVOK 24/23 A2983 SCT130 BKN250=
200808191300 METAR MRLB 191300Z 09003KT CAVOK 26/23 A2984 FEW130 BKN250=
200808191400 METAR MRLB 191400Z 09004KT 9999 FEW015 BKN250 27/23 A2985=
200808191500 METAR MRLB 191500Z 14003KT 9999 SCT025 BKN250 28/24 A2987=
200808191600 METAR MRLB 191600Z 15005KT 9999 SCT030 BKN250 29/24 A2987=
200808191700 METAR MRLB 191700Z 17006KT 9999 SCT030 BKN250 30/24 A2986 FEW130=
200808191800 METAR MRLB 191800Z 18006KT 9999 SCT025 BKN250 31/24 A2984 RN N NE=
200808191900 METAR MRLB 191900Z 16005KT 9999 FEW015TCU SCT020 SCT250 32/24 A2981 RN N NE E NW=
200808192000 METAR MRLB 192000Z 36008KT 9999 FEW010TCU BKN015 30/25 A2981 TS RN N CB NE S=
200808192100 METAR MRLB 192100Z 34004KT 9999 SCT020 BKN120 28/24 A2980 RMK RNDST M SE S SW=
200808192200 METAR MRLB 192200Z 36006KT 9999 SCT020 BKN120 27/24 A2980=
200808192300 METAR MRLB 192300Z 16003KT 9999 -RA SCT020 BKN120 26/25 A2981=
200808200000 METAR MRLB 200000Z 07002KT 9999 -RA SCT020 BKN120 26/25 A2983 RMK TS DST SW=
200808200100 METAR MRLB 200100Z 09004KT 9999 -RA SCT020 BKN100 24/23 A2986 RMK TS DST NW=
200808200200 METAR MRLB 200200Z 11005KT 9999 -RA SCT020 BKN00 24/24 A2987=
200808200300 METAR MRLB NIL=
200808200400 METAR MRLB NIL=
200808200500 METAR MRLB NIL=
200808200700 METAR MRLB NIL=
200808200800 METAR MRLB NIL=
200808200900 METAR MRLB NIL=
200808201000 METAR MRLB NIL=
200808201100 METAR MRLB NIL=
200808201200 METAR MRLB 201200Z 07002KT 9999 FEW035 BKN140 23/22 A2984=
200808201300 METAR MRLB 201300Z 35002KT CAVOK 25/23 A2985 RMK FEW140 BKN250=
200808201400 METAR MRLB 201400Z 00000KT 9999 FEW035 SCT250 27/24 A2987=
200808201500 METAR MRLB 201500Z 18005KT 9999 FEW035 BKN250 28/23 A2988=
200808201600 METAR MRLB 201600Z 18004KT 9999 SCT035 BKN250 29/23 A2988=
200808201700 METAR MRLB 201700Z 20004KT 999 FEW020TCU SCT035 BKN250 30/24 A2987=
200808201800 METAR MRLB 201800Z 20005KT 9999 SCT035TCU BKN240 30/24 A2985=
200808201900 METAR MRLB 201900Z 28009KT 9999 FEW020 SCT030 BKN240 30/25 A2983 RMK RN DST N S=
200808202000 METAR MRLB 202000Z 29011KT 9999 FEW020TCU SCT030 BKN140 28/24 A2981 RMK RN DST N NE SW=
200808202100 METAR MRLB 202100Z 29009KT 9999 -RA VCSH FEW012 SCT020 BKN100 24/23 A2981 RMK 7000 N NE TS DST E=
200808202200 METAR MRLB 202200Z 07005KT 9999 -RA SCT025 OVC100 24/23 A2983=
200808202300 METAR MRLB 202300Z 00000KT 9999 FEW025 OVC120 24/23 A2982=
200808210000 METAR MRLB 210000Z 06002KT 9999 FEW035 BKN120 24/23 A2983=
200808210100 METAR MRLB 210100Z 20002KT 9999 FEW035 OVC120 24/23 A2985=
200808210200 METAR MRLB NIL=
200808210300 METAR MRLB NIL=
200808210400 METAR MRLB NIL=
200808210500 METAR MRLB NIL=
200808210600 METAR MRLB NIL=
200808210700 METAR MRLB NIL=
200808210800 METAR MRLB NIL=
200808210900 METAR MRLB NIL=
200808211000 METAR MRLB NIL=
200808211100 METAR MRLB NIL=
200808211200 METAR MRLB 211200Z 00000KT 9999 FEW010 SCT250 22/22 A2988 ST/TCU ARND=
200808211300 METAR MRLB 211300Z 00000KT 4000 0500E FG FEW001 SCT012 24/23 A2989=
200808211400 METAR MRLB 211400Z 00000KT 9000 SCT010 BKN250 25/23 A2991 RMK FOG BANKS ARND TCU DST S SW=
200808211500 METAR MRLB 211500Z 00000KT 9999 FEW015 SCT250 28/23 A2992=
200808211600 METAR MRLB 211600Z 01003KT 9999 FEW015 SCT250 29/24 A2992=
200808211700 METAR MRLB 211700Z 28007KT 9999 SCT020 BKN250 30/24 A2991=
200808211800 METAR MRLB 211800Z 26010KT 9999 SCT020 BKN250 30/25 A2988=
200808211900 METAR MRLB 211900Z 27010KT 9999 SCT025 BKN250 30/25 A2985 RMK TCU DS N S=
200808212000 METAR MRLB 212000Z 29010KT 9999 SCT025 BKN250 30/25 A2983 RMK TCU RN DST N SE=
200808212100 METAR MRLB 212100Z 29009KT 9999 SCT025 BKN250 30/25 A2982 CB RN DST N=
200808212200 METAR MRLB 212200Z 29009KT 9999 SCT025 BKN250 29/25 A2980 RMK TCU N S=
200808212300 METAR MRLB 212300Z 29008KT 9999 SCT025 BKN250 28/25 A2981 RMK TCU S=
200808220000 METAR MRLB 220000Z 28008KT 9999 FEW035 SCT250 27/25 A2982 RMK TCU S=
200808220100 METAR MRLB NIL=
200808220200 METAR MRLB 220200Z 28004KT 9999 FEW035 SCT120 26/25 A2984 RMK LTNG DST S=
200808220300 METAR MRLB NIL=
200808220400 METAR MRLB NIL=
200808220500 METAR MRLB NIL=
200808220600 METAR MRLB NIL=
200808220700 METAR MRLB NIL=
200808220800 METAR MRLB NIL=
200808220900 METAR MRLB NIL=
200808221000 METAR MRLB NIL=
200808221100 METAR MRLB NIL=
200808221200 METAR MRLB 221200Z 36003KT 0400 FG OVC120 24/24 A2986=
200808221300 METAR MRLB 221300Z 00000KT 2000 BR FEW002 BKN120 25/24 A2987=
200808221400 METAR MRLB 221400Z 00000KT 9999 3000SW BR FEW005 BKN120 25/24 A2988=
200808221500 METAR MRLB 221500Z 14004KT 9999 FEW010 BKN130 27/24 A2988=
200808221600 METAR MRLB 221600Z 26005KT CAVOK 28/24 A2988 RMK TRACE CU OVC130=
200808221700 METAR MRLB 221700Z 19005KT CAVOK 30/24 A2986 RMK BKN130 TRACE CU=
200808221800 METAR MRLB 221800Z 19007KT 9999 FEW035 OVC120 30/24 A2984 RMK FEW280=
200808221900 METAR MRLB 221900Z 10009KT 9999 FEW035 SCT130 BKN220 31/22 A2982=
200808222000 METAR MRLB 222000Z 31006KT 9999 FEW035 SCT130 BKN250 32/24 A2979=
200808222100 METAR MRLB 222100Z 32005KT 9999 FEW035 OVC130 31/23 A2978=
200808222200 METAR MRLB 222200Z 06009KT 9999 FEW035 OVC130 31/22 A2977=
200808222300 METAR MRLB 222300Z 07009KT 9999 FEW035 OVC130 29/22 A2979=
200808230000 METAR MRLB 230000Z 10013KT 9999 FEW045 OVC140 28/22 A2979=
200808230100 METAR MRLB 230100Z 11007KT 9999 FEW035 BKN140 27/22 A2981=
200808230200 METAR MRLB NIL=
200808230300 METAR MRLB NIL=
200808230400 METAR MRLB NIL=
200808230500 METAR MRLB NIL=
200808230600 METAR MRLB NIL=
200808230700 METAR MRLB NIL=
200808230800 METAR MRLB NIL=
200808230900 METAR MRLB NIL=
200808231000 METAR MRLB NIL=
200808231100 METAR MRLB NIL=
200808231200 METAR MRLB 231200Z 06003KT 9999 FEW030 BKN140 24/23 A2984=
200808231300 METAR MRLB 231300Z 05004KT 9999 FEW035 OVC140 25/23 A2986=
200808231400 METAR MRLB 231400Z 04003KT 9999 FEW035 BKN140 27/23 A2986=
200808231500 METAR MRLB 231500Z 28002KT 9999 FEW035 BKN250 29/23 A2987=
200808231600 METAR MRLB 231600Z 08015KT 9999 FEW035 BKN250 31/21 A2986=
200808231700 METAR MRLB 231700Z 09012KT 9999 FEW035 SCT250 31/22 A2985=
200808231800 METAR MRLB 231800Z 10009KT FEW035 BKN250 32/22 A2983=
200808231900 METAR MRLB 231900Z 08006KT 9999 FEW020TCU SCT035 BKN250 33/22 A2981=
200808232000 METAR MRLB 23200Z 30008KT 9999 SCT025TCU BKN230 30724 A2978 RMK RN N E=
200808232100 METAR MRLB 232100Z 31008KT 2000 RA FEW010CB SCT025 OVC120 27/25 A2979=
200808232200 METAR MRLB 232200Z 26003KT 9999 SCT030 OVC120 25/24 A2980 RN S=
200808232300 METAR MRLB 232300Z 25004KT 9999 FEW030 OVC120 25/24 A2983=
200808240000 METAR MRLB 240000Z 19002KT 9999 SCT020 OVC120 24/24 A2984 RN DST S=
200808240100 METAR MRLB 240100Z 08002KT 9999 SCT025 OVC120 25/24 A2986=
200808240200 METAR MRLB NIL=
200808240300 METAR MRLB NIL=
200808240400 METAR MRLB NIL=
200808240500 METAR MRLB NIL=
200808240600 METAR MRLB NIL=
200808240700 METAR MRLB NIL=
200808240800 METAR MRLB NIL=
200808240900 METAR MRLB NIL=
200808241000 METAR MRLB NIL=
200808241100 METAR MRLB NIL=
200808241200 METAR MRLB 241200Z 00000KT 9999 FEW010 SCT150 23/22 A2983=
200808241300 METAR MRLB 241300Z 00000KT 9999 FEW010 SCT180 24/22 A2984 BR ARND=
200808241400 METAR MRLB 241400Z 00000KT 9999 FEW010 SCT240 26/23 A2986 BR ARND=
200808241500 METAR MRLB 241500Z 21003KT 9999 SCT015 BKN240 27/23 A2986=
200808241600 METAR MRLB 241600Z 22004KT 9999 SCT020 BKN250 28/24 A2986=
200808241700 METAR MRLB 241700Z 24005KT 9999 SCT020 BKN250 30/24 A2984 TCU RN E=
200808241800 METAR MRLB 241800Z 20004KT 9999 SCT020TCU BKN200 28/23 A2982 RERA RN ARND=
200808241900 METAR MRLB 241900Z 23006KT 9999 SCT025TCU BKN200 28/24 A2979=
200808242000 METAR MRLB 242000Z 25006KT 9999 SCT025TCU BKN220 30/24 A2977=
200808242100 METAR MRLB 242100Z 26006KT 9999 SCT025TCU BKN180 28/24 A2977 RMK RN N E S=
200808242200 METAR MRLB 242200Z 01006KT 9999 DZ SCT020TCU BKN120 27/24 A2977=
200808242300 METAR MRLB 242300Z 11010KT 1000 TSRA SCT008CB BKN012 23/23 A2981=
200808250000 METAR MRLB 250000Z 32005KT 9999 +DZ SCT025 BKN110 24/23 A2982=
200808250100 METAR MRLB 250100Z 31004KT 9999 -DZ SCT025 BKN140 24/23 A2983=
200808250200 METAR MRLB NIL=
200808250300 METAR MRLB NIL=
200808250400 METAR MRLB NIL=
200808250500 METAR MRLB NIL=
200808250600 METAR MRLB NIL=
200808250700 METAR MRLB NIL=
200808250800 METAR MRLB NIL=
200808250900 METAR MRLB NIL=
200808251000 METAR MRLB NIL=
200808251100 METAR MRLB NIL=
200808251200 METAR MRLB 251200Z 07005KT 9999 FEW005 OVC130 23/23 A2983=
200808251300 METAR MRLB 251300Z 10003KT 9999 FEW010 OVC130 24/23 A2984 RMK CB DST W=
200808251400 METAR MRLB 251400Z 12003KT 9999 BKN010 SCT130 25/23 A2986=
200808251500 METAR MRLB 251500Z 15003KT 9999 SCT020 BKN250 27/23 A2987=
200808251600 METAR MRLB 251600Z 14005KT 9999 FEW030 SCT130 28/23 A2986 RMK SCT250=
200808251700 METAR MRLB 251700Z 14005KT 9999 SCT030 BKN130 30/23 A2985=
200808251800 METAR MRLB NIL=
200808251900 METAR MRLB 251900Z 11006KT 9999 SCT025 SCT250 29/25 A2979 RMK FEW100 RASH DST S SW=
200808252000 METAR MRLB 252000Z 26009KT 9999 3000N -RA SCT010 BKN020 24/24 A2980=
200808252100 METAR MRLB 252100Z 25005KT 9999 -RA FEW010 OVC080 23/23 A2979=
200808252200 METAR MRLB NIL=
200808252300 METAR MRLB 252300Z 05003KT 9999 -RA SCT020 BKN100 23/23 A2982=
200808260000 METAR MRLB 260000Z 05004KT 9999 -RA SCT020 OVC100 24/23 A2983=
200808260100 METAR MRLB 260100Z 10005KT 9999 -RA SCT020 BKN100 23/23 A2985=
200808260200 METAR MRLB NIL=
200808260300 METAR MRLB NIL=
200808260400 METAR MRLB NIL=
200808260500 METAR MRLB NIL=
200808260600 METAR MRLB NIL=
200808260700 METAR MRLB NIL=
200808260800 METAR MRLB NIL=
200808260900 METAR MRLB NIL=
200808261000 METAR MRLB NIL=
200808261100 METAR MRLB NIL=
200808261200 METAR MRLB 261200Z 10005KAT 9999 SCT020 OVC120 23/22 A2984=
200808261300 METAR MRLB 261300Z 12003KT 9999 FEW010 SCT025 BKN120 24/23 A2986 RMK RN DST SW=
200808261400 METAR MRLB 261400Z 11004KT 9999 FEW012 SCT025 BKN140 25/23 A2989 RMK RN DST NE E=
200808261500 METAR MRLB 261500Z 12007KT 9999 SCT020 BKN240 26/24 A2989=
200808261600 METAR MRLB 261600Z 13006KT 9999 SCT030 BKN250 28/24 A2989=
200808261700 METAR MRLB 261700Z 13008KT 9999 FEW020TCU SCT035 BKN250 28/24 A2988=
200808261800 METAR MRLB 261800Z 15007KT 9999 FEW020TCU SCT030 BKN250 29/24 A2986 RMK RN DST S=
200808261900 METAR MRLB 261900Z 16010KT 9999 SCT030TCU BKN250 28/24 A2984 RMK RN DST E=
200808262000 METAR MRLB 262000Z 12006KT 9999 SCT035 BKN240 28/25 A2982 RMK RN DST S=
200808262100 METAR MRLB 262100Z 15005KT 9999 SCT030 BKN140 26/24 A2981 RMK RN DST N=
200808262200 METAR MRLB 262200Z 14005KT 9999 SCT025 BKN140 27/25 A2981 RMK RN DST S SE=
200808262300 METAR MRLB 262300Z 15004KT 9999 SCT020 OVC130 25/24 A2982 RERA RMK RN DST N NE=
200808270000 METAR MRLB 270000Z 16002KT 9999 SCT025 OVC130 25/24 A2985 RMK RN DST S SW=
200808270100 METAR MRLB NIL=
200808270200 METAR MRLB 270200Z 00000KT 9999 DZ SCT030 OVC110 25/24 A2988=
200808270300 METAR MRLB NIL=
200808270400 METAR MRLB NIL=
200808270500 METAR MRLB NIL=
200808270600 METAR MRLB NIL=
200808270700 METAR MRLB NIL=
200808270800 METAR MRLB NIL=
200808270900 METAR MRLB NIL=
200808271000 METAR MRLB NIL=
200808271100 METAR MRLB NIL=
200808271200 METAR MRLB 271200Z 00000KT 9999 SCT030 BKN140 23/22 A2986=
200808271300 METAR MRLB 271300Z 15004KT 9999 SCT020 BKN110 24/23 A2988=
200808271400 METAR MRLB 271400Z 19004KT 9999 -RA FEW010 SCT025 BKN100 24/23 A2991 RMK VIS SE 7KMS=
200808271500 METAR MRLB 271500Z 14003KT 9999 FEW010 SCT025 BKN100 25/24 A2992=
200808271600 METAR MRLB 271600Z 15003KT 9999 SCT025 BKN140 27/24 A2992=
200808271700 METAR MRLB 271700Z 17004KT 9999 SCT015 BKN120 28/24 A2991 DZ DST ARND=
200808271800 METAR MRLB 271800Z 24005KT 9999 FEW012 BKN170 28/24 A2989 RMK DZ DST ARND=
200808271900 METAR MRLB 271900Z 22005KT 9999 DZ BKN020 SCT130 26/24 A2986=
200808272000 METAR MRLB 272000Z 23005KT 9999 SCT015 BKN180 28/24 A2981=
200808272100 METAR MRLB 272100Z 30004KT 9999 SCT015 BKN200 28/24 A2978=
200808272200 METAR MRLB 272200Z 29008KT 9999 FEW015TCU SCT100 BKN220 28/24 A2977 RMK RN S=
200808272300 METAR MRLB 272300Z 27005KT 9999 SCT020TCU BKN250 27/24 A2979 RMK RN E S SE=
200808280000 METAR MRLB 280000Z 24004KT 9999 SCT020TCU BKN240 26/24 A2981=
200808280100 METAR MRLB 280100Z 27005KT 9999 SCT020TCU BKN150 25/24 A2983=
200808280200 METAR MRLB NIL=
200808280300 METAR MRLB NIL=
200808280400 METAR MRLB NIL=
200808280500 METAR MRLB NIL=
200808280600 METAR MRLB NIL=
200808280700 METAR MRLB NIL=
200808280800 METAR MRLB NIL=
200808280900 METAR MRLB NIL=
200808281000 METAR MRLB NIL=
200808281100 METAR MRLB NIL=
200808281200 METAR MRLB 281200Z 05003KT 9999 4000SW -RA OVC015 24/23 A2981=
200808281300 METAR MRLB 281300Z 23004KT 5000 2000W RA SCT010 BKN020 24/23 A2983=
200808281400 METAR MRLB 281400Z 03002KT 9999 SCT008 BKN100 25/24 A2984 RMK RN ARND=
200808281500 METAR MRLB 281500Z 19002KT 9999 BKN015 SCT100 26/24 A2985 RMK RN N SE SW NW=
200808281600 METAR MRLB 281600Z 15002KT 9999 4000NW -RA BKN015 SCT100 28/25 A2984=
200808281700 METAR MRLB 281700Z 18006KT 9999 3000S -RA BKN010 SCT100 27/25 A2985=
200808281800 METAR MRLB 281800Z 23004KT 9999 -RA BKN010 SCT100 28/25 A2982=
200808281900 METAR MRLB 281900Z 25006KT 9999 SCT010 SCT100 28/25 A2980 RMK RN ARND=
200808282000 METAR MRLB 282000Z 27007KT 9999 4000E -RA BKN010 SCT100 27/24 A2977=
200808282100 METAR MRLB 282100Z 13003KT 9999 4000N -RA SCT010 BKN100 26/25 A2976=
200808282200 METAR MRLB 282200Z 22005KT 2000 RA SCT008 BKN100 24/24 A2975=
200808282300 METAR MRLB 282300Z 16011KT 1000 TS RA FEW005CB SCT015 23/23 A2976=
200808290000 METAR MRLB NIL=
200808290100 METAR MRLB NIL=
200808290200 METAR MRLB NIL=
200808290300 METAR MRLB NIL=
200808290400 METAR MRLB NIL=
200808290500 METAR MRLB NIL=
200808290600 METAR MRLB NIL=
200808290700 METAR MRLB NIL=
200808290800 METAR MRLB NIL=
200808290900 METAR MRLB NIL=
200808291000 METAR MRLB NIL=
200808291100 METAR MRLB NIL=
200808291200 METAR MRLB NIL=
200808291300 METAR MRLB NIL=
200808291400 METAR MRLB 291400Z 12003KT 9999 FEW008 SCT020 BKN100 24/24 A2981 RN E NE=
200808291500 METAR MRLB 291500Z 08004KT 9999 FEW025 BKN280 29/23 A2977=
200808291600 METAR MRLB 291600Z 15005KT 9999 FEW015 SCT030 BKN250 27/24 A2982=
200808291700 METAR MRLB 291700Z 15004KT 9999 VCSH FEW015 BKN030 28/24 A2981 VSBY SW 7KM=
200808291714 METAR MRLB 291714Z 19004KT 9999 3000SW -RA FEW010 BKN025 27/24 A2981=
200808291800 METAR MRLB 291800Z 19005KT 8000 -RA FEW010 SCT020 BKN120 24/23 A2980=
200808291900 METAR MRLB 291900Z 03003KT 9999 SCT020 BKN120 25/24 A2978 RN N NE E=
200808292000 METAR MRLB 292000Z 31003KT 9999 SCT020 BKN110 25/24 A2975 RN N=
200808292100 METAR MRLB 292100Z 29004KT 9999 SCT025 BKN120 27/24 A2973 RMK RN DST N NE=
200808292200 METAR MRLB 292200Z 35005KT 9999 FEW015 SCT030 BKN120 25/24 A2971 RMK RN DST N E=
200808292300 METAR MRLB 292300Z 30003KT 9999 SCT020 BKN100 25/23 A2971 RMK RN DST E NE=
200808300000 METAR MRLB 300000Z 00000KT 9999 SCT025 BKN110 25/23 A2973 RMK RN DST NE=
200808300100 METAR MRLB 300100Z 27004KT 8000 -RA SCT020 BKN100 24/23 A2976=
200808300200 METAR MRLB 300200Z 00000KT 9999 SCT020 BKN100 24/23 A2977=
200808300300 METAR MRLB NIL=
200808300400 METAR MRLB NIL=
200808300500 METAR MRLB NIL=
200808300600 METAR MRLB NIL=
200808300700 METAR MRLB NIL=
200808300800 METAR MRLB NIL=
200808300900 METAR MRLB NIL=
200808301000 METAR MRLB NIL=
200808301100 METAR MRLB NIL=
200808301200 METAR MRLB NIL=
200808301230 METAR MRLB 301230Z 10003KT 9000 FEW008 SCT015 24/23 A2976 RMK VCFG=
200808301300 METAR MRLB 301300Z 14003KT 8000 3000E DZ BR FEW002 BKN012 24/23 A2978=
200808301400 METAR MRLB 301400Z 11004KT 9000 SCT020 BKN120 24/23 A2980 REDZ RMK HZ ARND=
200808301500 METAR MRLB 301500Z 14004KT 6000 DZ BR SCT010 BKN025 25/24 A2982=
200808301600 METAR MRLB 301600Z 14005KT 9000 SCT010 BKN070 26/24 A2982 RMK DZ HZ ARND=
200808301700 METAR MRLB 301700Z 18003KT 9999 SCT010 BKN100 26/24 A2981 RMK DZ HZ ARND=
200808301800 METAR MRLB 301800Z 30003KT 9999 DZ SCT020 BKN120 26/24 A2979 RMK HZ DST ARND=
200808301900 METAR MRLB 301900Z 28006KT 9999 SCT0020 BKN180 27/23 A2975 REDZ RMK RN E S=
200808302000 METAR MRLB 302000Z 27004KT 9999 DZ SCT028 BKN270 26/23 A2972=
200808302100 METAR MRLB 302100Z 31003KT 9999 SCT020 BKN200 26/24 A2970 REDZ=
200808302200 METAR MRLB 302200Z 00000KT 9999 SCT020 BKN180 27/24 A2970=
200808302300 METAR MRLB 302300Z 00000KT 9999 SCT025 BKN200 27/24 A2973 RMK RN DST S=
200808310000 METAR MRLB 310000Z 17003KT 9999 DZ FEW015TCU SCT100 BKN220 26/24 A2974 RMK RN DST S=
200808310100 METAR MRLB 310100Z 00000KT 9999 DZ SCT020 BKN140 25/24 A2976 RMK RN DST S=
200808310200 METAR MRLB NIL=
200808310300 METAR MRLB NIL=
200808310400 METAR MRLB NIL=
200808310500 METAR MRLB NIL=
200808310600 METAR MRLB NIL=
200808310700 METAR MRLB NIL=
200808310800 METAR MRLB NIL=
200808310900 METAR MRLB NIL=
200808311000 METAR MRLB NIL=
200808311100 METAR MRLB NIL=
200808311200 METAR MRLB 311200Z 07002KT 0500 FG FEW001 SCT005 23/22 A2977=
200808311300 METAR MRLB 311300Z 15003KT 9999 FEW005 SCT030 BKN100 24/23 A2980=
200808311400 METAR MRLB 311400Z 17004KT 9999 SCT010 BKN100 25/23 A2983 RMK RN DST SW=
200808311500 METAR MRLB 311500Z 15005KT 9999 FEW010 OVC100 25/23 A2985=
200808311600 METAR MRLB 311600Z 19004KT 9999 FEW020 OVC100 26/24 A2984=
200808311700 METAR MRLB 311700Z 15004KT 9999 SCT020 BKN100 27/24 A2983 RMK RN DST N NE S SW=
200808311800 METAR MRLB 311800Z 21004KT 9999 FEW020 OVC100 27/23 A2982 RMK RN DST NE SW=
200808311900 METAR MRLB 311900Z 22004KT 9999 SCT025 BKN120 29/22 A2978=
200808312000 METAR MRLB 312000Z 23004KT 9999 SCT030 BKN120 29/24 A2975 RMK CB DST S=
200808312100 METAR MRLB 312100Z 26005KT 9999 SCT020 BKN120 28/25 A2973 RN DST S SW=
200808312200 METAR MRLB 312200Z 28005KT 9999 SCT020 BKN130 28/24 A2972 RMK RN SCT018 SCT080 TEMPO 2024 VCTSRA SCT025CB BKN080=
200808312300 METAR MRLB 312300Z 30006KT 9999 3000NE -RA SCT010 BKN100 27/25 A2973=
200809010000 METAR MRLB 010000Z 32003KT 9999 -RA SCT020 BKN100 25/24 A2975=
200809010100 METAR MRLB 010100Z 22002KT 9999 SCT020 BKN100 26/24 A2979=
200809010200 METAR MRLB NIL=
200809010300 METAR MRLB NIL=
200809010400 METAR MRLB NIL=
200809010500 METAR MRLB NIL=
200809010600 METAR MRLB NIL=
200809010700 METAR MRLB NIL=
200809010800 METAR MRLB NIL=
200809010900 METAR MRLB NIL=
200809011000 METAR MRLB NIL=
200809011100 METAR MRLB NIL=
200809011200 METAR MRLB 011200Z 03004KT 9999 SCT030 BKN120 24/23 A2981=
200809011300 METAR MRLB 011300Z 06003KT 9999 FEW035 SCT130 BKN250 25/24 A2983=
200809011400 METAR MRLB 011400Z 08003KT 9999 FEW035 BKN250 27/24 A2984=
200809011500 METAR MRLB 011500Z 20002KT 9999 SCT035 SCT240 27/24 A2986=
200809011600 METAR MRLB 011600Z 23002KT 9999 SCT035 BKN250 29/23 A2986=
200809011700 METAR MRLB 011700Z 13003KT 9999 SCT030 BKN240 29/23 A2985=
200809011800 METAR MRLB 011800Z 28004KT 9999 SCT035 BKN240 30/24 A2982=
200809011900 METAR MRLB 011900Z 27005KT 9999 FEW020TCU SCT035 OVC240 30/24 A2980 RMK RN DST S SE=
200809012000 METAR MRLB 012000Z 29010KT 9999 SCT035 BKN230 29/23 A2978 RMK RN DST E=
200809012100 METAR MRLB 012100Z 29006KT 9999 SCT035 BKN140 28/24 A2976=
200809012200 METAR MRLB 012200Z 28006KT 9999 SCT035 BKN130 28/24 A2976=
200809012300 METAR MRLB 012300Z 27003KT 9999 SCT030 BKN120 27/24 A2979 RMK RN DST N=
200809020000 METAR MRLB 020000Z 22003KT 9999 SCT030 OVC120 27/24 A2980 RMK RNDST E NE=
200809020100 METAR MRLB 020100Z 00000KT 9999 SCT035 BKN120 26/24 A2983=
200809020200 METAR MRLB 020200Z 00000KT 9999 SCT030 BKN120 25/24 A2986=
200809020300 METAR MRLB NIL=
200809020400 METAR MRLB NIL=
200809020500 METAR MRLB NIL=
200809020600 METAR MRLB NIL=
200809020700 METAR MRLB NIL=
200809020800 METAR MRLB NIL=
200809020900 METAR MRLB NIL=
200809021000 METAR MRLB NIL=
200809021100 METAR MRLB NIL=
200809021200 METAR MRLB 021200Z 00000KT 9999 FEW015 SCT025 BKN250 24/23 A2982 RMK FOG BANS ARND=
200809021300 METAR MRLB 021300Z 11005KT 9999 SCT020 BKN250 25/24 A2983 RMK HZ ARND=
200809021400 METAR MRLB 021400Z 15003KT 9999 FEW015 SCT025 BKN280 26/24 A2985 RMK VIS W 9000 DUE RN=
200809021500 METAR MRLB 021500Z 00000KT 9999 FEW015TCU SCT025 BKN280 27/24 A2986 RMK RN E S W=
200809021600 METAR MRLB 021600Z 20003KT 9999 FEW015 SCT025 BKN100 26/25 A2996 REDZ RMK RN SW N E=
200809021700 METAR MRLB 021700Z 26005KT 9999 DZ FEW012TCU SCT025 BKN250 26/25 A2985=
200809021800 METAR MRLB 021800Z 25006KT 9999 FEW015TCU SCT025 BKN270 28/25 A2983 REDZ RMK ARND=
200809021900 METAR MRLB 021900Z 24010KT 9999 FEW015TCU SCT020 BKN280 28/25 A2981 RMK RN ARND=
200809022000 METAR MRLB 022000Z 26010KT 9999 SCT020TCU BKN200 29/24 A2979 RMK RN SW=
200809022100 METAR MRLB 022100Z 29006KT 9999 FEW015TCU SCT025 BKN180 27/25 A2978 RN ARND=
200809022200 METAR MRLB 022200Z 26007KT 9999 SCT025TCU BKN240 29/24 A2977 RN S SE=
200809022300 METAR MRLB 022300Z 25005KT 9999 SCT020CU BKN180 27/24 A2978 RN E S SW=
200809030000 METAR MRLB 030000Z 24010KT 8000 -RA SCT015TCU BKN100 25/24 A2981=
200809030100 METAR MRLB 030100Z 26008KT 8000 DZ SCT020 OVC100 24/23 A2983=
200809030200 METAR MRLB NIL=
200809030300 METAR MRLB NIL=
200809030400 METAR MRLB NIL=
200809030500 METAR MRLB NIL=
200809030600 METAR MRLB NIL=
200809030700 METAR MRLB NIL=
200809030800 METAR MRLB NIL=
200809030900 METAR MRLB NIL=
200809031000 METAR MRLB NIL=
200809031100 METAR MRLB NIL=
200809031200 METAR MRLB 031200Z 04002KT 9999 3000SW -RA OVC005 24/23 A2982=
200809031300 METAR MRLB 031300Z 14004KT 9999 2000N -RA FG FEW001 BKN080 24/23 A2983=
200809031400 METAR MRLB 031400Z 14004KT 3000 -RA BR SCT005 BKN090 24/23 A2985=
200809031500 METAR MRLB 031500Z 00000KT 2000 BR SCT008 BKN100 23/23 A2988=
200809031600 METAR MRLB 031600Z 16003KT 4000 -RA SCT008 BKN100 23/23 A2988=
200809031700 METAR MRLB 031700Z 16004KT 9999 -RA SCT010 BKN100 24/23 A2985=
200809031800 METAR MRLB 031800Z 17005KT 9999 -RA SCT010 BKN100 24/24 A2984=
200809031900 METAR MRLB 031900Z 16005KT 9999 -RA SCT010 BKN100 25/24 A2982=
200809032000 METAR MRLB 032000Z 25005KT 5000 -RA FEW919 OVC100 24/23 A2980=
200809032100 METAR MRLB 032100Z 21003KT 9999 -RA FEW008 SCT120 BKN250 25/24 A2977=
200809032200 METAR MRLB 032200Z 24003KT 9999 SCT010 BKN120 25/24 A2975 RERA=
200809032300 METAR MRLB 032300Z 22002KT 9999 SCT010 BKN00 26/24 A2975 RMK RN DST NE S SW=
200809040000 METAR MRLB 040000Z 14003KT 9999 SCT010 BKN100 25/24 A2976 RMK RN DST N NE SW=
200809040100 METAR MRLB 040100Z 16005KT 9999 -RA SCT010 BKN100 25/24 A2976=
200809040200 METAR MRLB 040200Z NIL=
200809040300 METAR MRLB NIL=
200809040400 METAR MRLB NIL=
200809040500 METAR MRLB NIL=
200809040600 METAR MRLB NIL=
200809040700 METAR MRLB NIL=
200809040800 METAR MRLB NIL=
200809040900 METAR MRLB NIL=
200809041000 METAR MRLB NIL=
200809041100 METAR MRLB NIL=
200809041200 METAR MRLB 041200Z 33006KT 1500 RA FEW008 BKN020 23/23 A2979=
200809041300 METAR MRLB 041300Z 35010KT 1000 RA FEW007 OVC020 22/22 A2982=
200809041400 METAR MRLB 041400Z 05003KT 3000 RA FEW008 BKN020 22/22 A2985=
200809041500 METAR MRLB 041500Z 32004 2000 RA BR SCT005 BKN020 22/22 A2984=
200809041600 METAR MRLB 041600Z 13002K 7000 -RA SCT010 OVC090 22/22 A2985=
200809041700 METAR MRLB 041700Z 32003KT 6000 RA SCT008 BKN020 23/23 A2985=
200809041800 METAR MRLB 041800Z 19002KT 7000 -RA SCT010 OVC080 23/23 A2982=
200809041900 METAR MRLB 041900Z 16003KT 9999 DZ SCT008 OVC090 23/23 A2978=
200809042000 METAR MRLB NIL=
200809042100 METAR MRLB 042100Z 17004KT 9999 SCT010 BKN100 24/23 A2976=
200809042200 METAR MRLB 042200Z 17005KT 9999 SCT015 OVC100 24/23 A2976=
200809042300 METAR MRLB 042300Z 16005KT 9999 FEW010 BKN030 24/23 A2975 RMK RN DST W SW=
200809050000 METAR MRLB 050000Z 16004KT 9999 DZ SCT012 OVC090 23/23 A2977=
200809050100 METAR MRLB 050100Z 00000KT 9999 SCT015 OVC100 23/23 A2979 RMK RN DST E NE=
200809050200 METAR MRLB NIL=
200809050300 METAR MRLB NIL=
200809050400 METAR MRLB NIL=
200809050500 METAR MRLB NIL=
200809050600 METAR MRLB NIL=
200809050700 METAR MRLB NIL=
200809050800 METAR MRLB NIL=
200809050900 METAR MRLB NIL=
200809051000 METAR MRLB NIL=
200809051100 METAR MRLB NIL=
200809051200 METAR MRLB 051200Z NIL=
200809051300 METAR MRLB 051300Z NIL=
200809051400 METAR MRLB 051400Z NIL=
200809051500 METAR MRLB 051500Z 10005KT 9999 -RA FEW010 OVC120 24/23 A2988=
200809051600 METAR MRLB 051600Z 12004KT 9999 SCT020 BKN120 26/24 A2988=
200809051700 METAR MRLB 051700Z 15005KT 9999 SCT025 BKN120 27/24 A2986=
200809051800 METAR MRLB 051800Z 15004KT 9999 SCT025 BKN130 28/23 A2985=
200809051900 METAR MRLB 051900Z 18002KT 9999 FEW010 SCT025 BKN130 29/23 A2983 RMK RN DST SW N=
200809052000 METAR MRLB 052000Z 26006KT 9999 SCT025 OVC130 28/24 A2981 RMK RN DST N=
200809052100 METAR MRLB 052100Z 27006KT 9999 SCT025 BKN130 28/24 A2980 RMK RN DST S E=
200809052200 METAR MRLB 052200Z 17005KT 9999 SCT020 OVC120 26/24 A2979 RMK RN DST E SE=
200809052300 METAR MRLB 052300Z 26006KT 9999 SCT025 OVC110 27/24 A2981 RMK RN DST E=
200809060000 METAR MRLB NIL=
200809060100 METAR MRLB 060100Z 21007KT 4000 RA SCT015 OVC100 24/23 A2986=
200809060200 METAR MRLB NIL=
200809060300 METAR MRLB NIL=
200809060400 METAR MRLB NIL=
200809060500 METAR MRLB NIL=
200809060600 METAR MRLB NIL=
200809060700 METAR MRLB NIL=
200809060800 METAR MRLB NIL=
200809060900 METAR MRLB NIL=
200809061000 METAR MRLB NIL=
200809061100 METAR MRLB NIL=
200809061200 METAR MRLB 061200Z 00000KT 9999 FEW030 BKN130 23/23 A2984 RMK LOW ST SW=
200809061300 METAR MRLB 061300Z 06003KT 9999 SCT025 BKN140 24/23 A2986=
200809061400 METAR MRLB 061400Z 00000KT 9999 FEW025 BKN140 26/24 A2989=
200809061500 METAR MRLB 061500Z 32004KT 9999 FEW030 BKN140 28/24 A2989=
200809061600 METAR MRLB 061600Z 29003KT 9999 FEW035 OVC140 29/25 A2989=
200809061700 METAR MRLB 061700Z 27005KT 9999 SCT035 BKN140 30/24 A2987=
200809061800 METAR MRLB 061800Z 29007KT 9999 SCT035 BKN140 30/24 A2986 RMK RN DST E=
200809061900 METAR MRLB 061900Z 28008KT 9999 FEW035 SCT140 BKN250 29/25 A2983=
200809062000 METAR MRLB 062000Z 28010KT 9999 SCT035 BKN120 29/25 A2980=
200809062100 METAR MRLB 062100Z 27010KT 9999 FEW035 BKN130 29/24 A2980 RMK RN DST E NE=
200809062200 METAR MRLB 062200Z 28007KT 9999 DZ SCT030 OVC130 27/24 A2981=
200809062300 METAR MRLB 062300Z 27004KT 9999 -RA SCT025 OVC120 27/25 A2982=
200809070000 METAR MRLB 070000Z 32003KT 9999 -RA SCT025 BKN110 26/25 A2983=
200809070100 METAR MRLB 070100Z 00000KT 9999 FEW030 BKN100 26/25 A2985=
200809070200 METAR MRLB NIL=
200809070300 METAR MRLB NIL=
200809070400 METAR MRLB NIL=
200809070500 METAR MRLB NIL=
200809070600 METAR MRLB NIL=
200809070700 METAR MRLB NIL=
200809070800 METAR MRLB NIL=
200809070900 METAR MRLB NIL=
200809071000 METAR MRLB NIL=
200809071100 METAR MRLB NIL=
200809071200 METAR MRLB 071200Z 29005KT CAVOK 24/23 A2984 RMK BKN300=
200809071300 METAR MRLB 071300Z 30003KT CAVOK 26/24 A2985 RMK SCT300 TRACE ST=
200809071400 METAR MRLB 071400Z 32004KT 9999 NSC 28/24 A2986 RMK TRACE CU CI=
200809071500 METAR MRLB 071500Z 27003KT NSC 29/24 A2986 RMK TRACE CU CI=
200809071600 METAR MRLB 071600Z 23004KT 9999 FEW035 30/25 A2986 RMK TRACE CI=
200809071700 METAR MRLB 071700Z 25006KT 9999 FEW035 30/25 A2984 RMK FEW250=
200809071800 METAR MRLB 071800Z 26005KT 9999 FEW035 SCT250 31/25 A2981=
200809071900 METAR MRLB 071900Z 27005KT 9999 FEW035 SCT250 32/24 A2977=
200809072000 METAR MRLB 072000Z 30009KT 9999 SCT035 SCT250 32/25 A2975=
200809072100 METAR MRLB 072100Z 27009KT 9999 SCT035 SCT250 31/25 A2973=
200809072200 METAR MRLB 072200Z 27008KT 9999 FEW035 BKN250 31/25 A2973=
200809072300 METAR MRLB 072300Z 28007K CAVOK 30/25 A2973 BKN250 TRAZAS CU=
200809080000 METAR MRLB 080000Z 27005KT CAVOK 29/25 A2974 OVC250 TRACE CU=
200809080100 METAR MRLB 080100Z 25005KT CAVOK 27/25 A2977 OVC250 TRACE CU=
200809080200 METAR MRLB NIL=
200809080300 METAR MRLB NIL=
200809080400 METAR MRLB NIL=
200809080500 METAR MRLB NIL=
200809080600 METAR MRLB NIL=
200809080700 METAR MRLB NIL=
200809080800 METAR MRLB NIL=
200809080900 METAR MRLB NIL=
200809081000 METAR MRLB NIL=
200809081100 METAR MRLB NIL=
200809081200 METAR MRLB 081200Z 00000KT 0100 FG BKN001 24/24 A2980=
200809081300 METAR MRLB 081300Z 35004KT 0100 FG BKN001 24/24 A2981=
200809081400 METAR MRLB 081400Z 00000KT 8000 3000SW BR FEW002 SCT015 25/24 A2984=
200809081500 METAR MRLB 081500Z 00000KT 9999 FEW012 BKN250 28/25 A2984=
200809081600 METAR MRLB 081600Z 27004KT 9999 FEW020 BKN250 30/24 A2983=
200809081700 METAR MRLB 081700Z 00000KT 9999 FEW025 SCT250 31/23 A2982=
200809081800 METAR MRLB 081800Z 30004KT 9999 SCT025 BKN250 32/25 A2979=
200809081900 METAR MRLB 081900Z 27006KT 9999 SCT025 BKN260 32/24 A2976=
200809082000 METAR MRLB NIL=
200809082100 METAR MRLB 082100Z 28008KT 9999 FEW015CB SCT030 BKN220 30/25 A2973 RMK CB RN N E S=
200809082200 METAR MRLB 082200Z 01004KT 9999 -DZ SCT025TCU BKN180 28/25 A2973 RMK TCU RASH S=
200809082300 METAR MRLB 082300Z 06003KT 9999 DZ SCT020 BKN140 27/25 A2977 RMK RN ARND=
200809090000 METAR MRLB NIL=
200809090100 METAR MRLB 090100Z 28004KT 9999 SCT020CB OVC140 24/23 A2980 RMK CB DST NW S=
200809090200 METAR MRLB NIL=
200809090300 METAR MRLB NIL=
200809090400 METAR MRLB NIL=
200809090500 METAR MRLB NIL=
200809090600 METAR MRLB NIL=
200809090700 METAR MRLB NIL=
200809090800 METAR MRLB NIL=
200809090900 METAR MRLB NIL=
200809091000 METAR MRLB NIL=
200809091100 METAR MRLB NIL=
200809091200 METAR MRLB 091200Z 13002KT 0500 FG BKN250 24/23 A2983=
200809091300 METAR MRLB 091300Z 20002KT 2000 BR FEW004 BKN250 25/25 A2985=
200809091400 METAR MRLB 091400Z 15004KT 9999 SCT007 BKN250 27/25 A2987=
200809091500 METAR MRLB 091500Z 13005KT 9999 SCT015 28/25 A2988 RMK FEW250=
200809091600 METAR MRLB 091600Z 17003KT 9999 SCT025 30/25 A2987 RMK FEW250=
200809091700 METAR MRLB NIL=
200809091800 METAR MRLB NIL=
200809091900 METAR MRLB 091900Z 26007KT 9999 SCT035 32/26 A2981 RMK FEW250 CB DST E=
200809092000 METAR MRLB 092000Z 28011KT 9999 SCT030 SCT250 31/25 A2980 RMK CB RN DST S=
200809092100 METAR MRLB 092100Z 14008KT 9999 3000SW -RA SCT020 BKN100 24/23 A2981 RMK TS DST S=
200809092200 METAR MRLB 092200Z 03003KT 9999 SCT020 BKN120 25/24 A2981 RERA RMK RN DST N NE=
200809092300 METAR MRLB 092300Z 10004KT 9999 FEW025 OVC120 26/24 A2981 RMK RN DST NE=
200809100000 METAR MRLB 100000Z 09004KT 9999 FEW030 OVC120 25/23 A2982=
200809100100 METAR MRLB 100100Z 07002KT 9999 FEW030 OVC120 26/24 A2984=
200809100200 METAR MRLB NIL=
200809100300 METAR MRLB NIL=
200809100400 METAR MRLB NIL=
200809100500 METAR MRLB NIL=
200809100600 METAR MRLB NIL=
200809100700 METAR MRLB NIL=
200809100800 METAR MRLB NIL=
200809100900 METAR MRLB NIL=
200809101000 METAR MRLB NIL=
200809101100 METAR MRLB NIL=
200809101200 METAR MRLB NIL=
200809101300 METAR MRLB 101300Z 13002KT 9999 FEW025 SCT250 25/24 A2989 RMK ST SW=
200809101400 METAR MRLB 101400Z 19002KT 9999 FEW030 SCT250 26/24 A2990=
200809101500 METAR MRLB 101500Z 19003KT 9999 FEW035 SCT250 28/25 A2991=
200809101600 METAR MRLB 101600Z 19004KT 9999 SCT035 SCT250 29/24 A2991=
200809101700 METAR MRLB 101700Z 27002KT 9999 SCT035 BKN250 30/24 A2989=
200809101800 METAR MRLB 101800Z 21003KT 9999 SCT035 BKN250 31/24 A2986=
200809101900 METAR MRLB 101900Z 27008KT 9999 SCT035 BKN250 31/26 A2983=
200809102000 METAR MRLB 102000Z 28011KT 9999 FEW035TCU BKN240 30/25 A2981 RMK RN DST NE TCU DS S=
200809102100 METAR MRLB NIL=
200809102200 METAR MRLB 102200Z 31006KT 9999 FEW015CB SCT025 BKN120 28/25 A2980 RMK RN DST S SE=
200809102300 METAR MRLB 102300Z 28002KT 9999 SCT025 OVC130 27/25 A2981 RMK RN DST S=
200809110000 METAR MRLB 110000Z 15002KT 9999 SCT030 BKN130 26/25 A2982=
200809110100 METAR MRLB NIL=
200809110200 METAR MRLB NIL=
200809110300 METAR MRLB NIL=
200809110400 METAR MRLB NIL=
200809110500 METAR MRLB NIL=
200809110600 METAR MRLB NIL=
200809110700 METAR MRLB NIL=
200809110800 METAR MRLB NIL=
200809110900 METAR MRLB NIL=
200809111000 METAR MRLB NIL=
200809111100 METAR MRLB NIL=
200809111200 METAR MRLB 111200Z 00000KT 9999 FEW020 SCT100 BKN250 24/23 A2986 RMK BR ARND=
200809111300 METAR MRLB 111300Z 00000KT 8000 VCFG SCT010 BKN250 25/24 A2987=
200809111400 METAR MRLB 111400Z 00000KT 9999 FEW012 28/25 A2988=
200809111500 METAR MRLB 111500Z 00000KT 9999 FEW020 SCT250 29/25 A2989=
200809111600 METAR MRLB 111600Z 00000KT 9999 SCT025 BKN250 31/25 A2989=
200809111700 METAR MRLB 111700Z 18005KT 9999 SCT025TCU BKN250 30/24 A2990=
200809111800 METAR MRLB 111800Z 28006KT 9999 SCT025TCU BKN250 31/24 A2987 RMK RN DST N=
200809111900 METAR MRLB 111900Z 08011KT 9999 DZ SCT020CB BKN220 30/26 A2983=
200809112000 METAR MRLB 112000Z 28006KT 9999 -TSDZ FEW010CB SCT025 BKN180 24/23 A2981 VIS E 7KMS DUE RN=
200809112100 METAR MRLB 112100Z 23005KT 9999 -DZ FEW015CB SCT030 BKN200 25/24 A2982 RMK CB RN NW W=
200809112200 METAR MRLB 112200Z 07003KT 9999 SCT020 BKN150 26/24 A2980 REDZ=
200809112300 METAR MRLB 112300Z 29003KT 9999 FEW020 SCT100 BKN250 26/24 A2981=
200809120000 METAR MRLB 120000Z 00000KT 9999 SCT025 BKN150 26/25 A2984 RMK CB NW=
200809120100 METAR MRLB 120100Z 00000KT 9999 SCT020 BKN100 25/23 A2986=
200809120200 METAR MRLB NIL=
200809120300 METAR MRLB NIL=
200809120400 METAR MRLB NIL=
200809120500 METAR MRLB NIL=
200809120600 METAR MRLB NIL=
200809120700 METAR MRLB NIL=
200809120800 METAR MRLB NIL=
200809120900 METAR MRLB NIL=
200809121000 METAR MRLB NIL=
200809121100 METAR MRLB NIL=
200809121200 METAR MRLB 121200Z 05002KT CAVOK 23/22 A2983 RMK OVC250 TRACE AC=
200809121300 METAR MRLB 121300Z 04003KT CAVOK 24/23 A2985 RMK OVC250 ST LOW DST SW W=
200809121400 METAR MRLB 121400Z 21005KT CAVOK 27/24 A2992 RMK FEW150 BKN270 CB DST N TRACE CU HZ ARND=
200809121500 METAR MRLB 121500Z 00000KT CAVOK 30/24 A2986 RMK OVC250 TRACE CU=
200809121600 METAR MRLB 121600Z 12003KT 9999 SCT030 BKN250 31/25 A2986=
200809121700 METAR MRLB 121700Z 00000KT 9999 SCT035 BKN250 32/25 A2985=
200809121800 METAR MRLB 121800Z 17004KT 9999 SCT035 BKN250 32/24 A2982=
200809121900 METAR MRLB 121900Z 05005KT 9999 SCT035 BKN250 33/23 A2979=
200809122000 METAR MRLB 122000Z 28008KT 9999 SCT030 SCT250 31/25 A2976=
200809122100 METAR MRLB 122100Z 26007KT 9999 SCT035 BKN250 30/24 A29074=
200809122200 METAR MRLB 122200Z 26007KT CAVOK 29/25 A2972 OVC250 TRAZAS CU=
200809122300 METAR MRLB 122300Z 27004KT 9999 SCT025 BKN250 29/25 A2973=
200809130000 METAR MRLB 130000Z 30004KT 9999 SCT020 BKN250 28/25 A2975 RASH DST S=
200809130100 METAR MRLB 130100Z 19003KT 9999 SCT020 BKN250 27/25 A2979=
200809130200 METAR MRLB NIL=
200809130300 METAR MRLB NIL=
200809130400 METAR MRLB NIL=
200809130500 METAR MRLB NIL=
200809130600 METAR MRLB NIL=
200809130700 METAR MRLB NIL=
200809130800 METAR MRLB NIL=
200809130900 METAR MRLB NIL=
200809131000 METAR MRLB NIL=
200809131100 METAR MRLB NIL=
200809131200 METAR MRLB 131200Z 35004KT 9999 FEW030 BKN140 23/23 A2976=
200809131300 METAR MRLB 131300Z 00000KT 2000 BR SCT020 BKN230 24/23 A2977=
200809131400 METAR MRLB 131400Z 27002KT 3000 BR FEW008 BKN025 25/24 A2980=
200809131500 METAR MRLB 131500Z 25003KT 9999 SCT030 BKN240 26/25 A2982=
200809131600 METAR MRLB 131600Z 34002KT 9999 FEW035 SCT250 29/25 A2981=
200809131700 METAR MRLB 131700Z 20003KT 999 SCT035 SCT250 31/26 A2980=
200809131800 METAR MRLB 131800Z 24004KT 999 SCT035 BKN250 31/26 A2977=
200809131900 METAR MRLB 131900Z 29009KT 9999 SCT035 OVC230 30/25 A2975=
200809132000 METAR MRLB 132000Z 30009KT 9999 3000E -RA FEW015TCU SCT025 BKN140 30/25 A2973=
200809132100 METAR MRLB 132100Z 28004KT 9999 -RA SCT025 BKN110 23/21 A2974=
200809132200 METAR MRLB 132200Z 22006KT 9999 FEW035 BKN120 24/22 A2973=
200809132300 METAR MRLB 132300Z 00000KT 9999 FEW035 OVC120 24/22 A2976=
200809140000 METAR MRLB 140000Z 00000KT 9999 FEW030 BKN120 24/23 A2977 RMK RN DST S=
200809140100 METAR MRLB 140100Z 00000KT 9999 FEW035 BKN120 24/23 A2978=
200809140200 METAR MRLB NIL=
200809140300 METAR MRLB NIL=
200809140400 METAR MRLB NIL=
200809140500 METAR MRLB NIL=
200809140600 METAR MRLB NIL=
200809140700 METAR MRLB NIL=
200809140800 METAR MRLB NIL=
200809140900 METAR MRLB NIL=
200809141000 METAR MRLB NIL=
200809141100 METAR MRLB NIL=
200809141200 METAR MRLB 141200Z 09003KT 9999 FEW010 BKN250 23/23 A2980 RMK HZ ARND=
200809141300 METAR MRLB 141300Z 11003KT 9999 FEW010 SCT120 BKN250 24/23 A2981 BR ARND=
200809141400 METAR MRLB 141400Z 00000KT 9999 FEW010 SCT030 BKN220 25/24 A2983 RMK HZ ARND=
200809141500 METAR MRLB 141500Z 20003KT 9999 FEW015 BKN250 27/24 A2985=
200809141600 METAR MRLB 141600Z 29003KT 9999 FEW025 BKN250 29/25 A2985=
200809141700 METAR MRLB 141700Z 00000KT 9999 SCT025 BKN250 30/25 A2982=
200809141800 METAR MRLB 141800Z 11004KT 9999 SCT025TCU BKN220 32/25 A2980=
200809141900 METAR MRLB 141900Z 25007KT 9999 SCT020CB SCT035 BKN250 31/26 A2978=
200809142000 METAR MRLB 142000Z 29008KT 9999 RA SCT015CB BKN100 26/24 A2975=
200809142100 METAR MRLB 142100Z 01012KT 0500 TSRA SCT010CB BKN025 24/23 A2979=
200809142200 METAR MRLB 142200Z 00000KT 9999 -RA SCT015 BKN100 24/23 A2977=
200809142300 METAR MRLB 142300Z 01005KT 9999 -DZ SCT010 BKN100 24/23 A2980=
200809150000 METAR MRLB 150000Z 02004KT 9999 FEW035 SCT180 24/23 A2980=
200809150100 METAR MRLB NIL=
200809150200 METAR MRLB NIL=
200809150300 METAR MRLB NIL=
200809150400 METAR MRLB NIL=
200809150500 METAR MRLB NIL=
200809150600 METAR MRLB NIL=
200809150700 METAR MRLB NIL=
200809150800 METAR MRLB NIL=
200809150900 METAR MRLB NIL=
200809151000 METAR MRLB NIL=
200809151100 METAR MRLB NIL=
200809151200 METAR MRLB 151200Z 18002KT CAVOK 23/23 A2986 OVC250=
200809151300 METAR MRLB 151300Z 01002KT CAVOK 24/22 A2985 RMK OVC250 CB DST SW TRACE ST=
200809151400 METAR MRLB 151400Z 20002KT 9999 SCT015 BKN250 26/23 A2987=
200809151500 METAR MRLB 151500Z 20003KT 9999 SCT025 28/24 A2988 RMK FEW250=
200809151600 METAR MRLB 151600Z 30002KT 9999 SCT030 29/24 A2988 RMK FEW250 CB DST SW=
200809151700 METAR MRLB 151700Z 31005KT 9999 SCT030 31/24 A2986 RMK FEW250=
200809151800 METAR MRLB 151800Z 27004KT 9999 SCT030 BKN250 31/23 A2982=
200809151900 METAR MRLB 151900Z 29007KT 9999 FEW020TCU FEW025 BKN250 31/24 A2980 RMK SHRA DST E=
200809152000 METAR MRLB 152000Z 30007KT 9999 -TS FEW010CB SCT020 SCT250 29/24 A2979 RMK RN DST N NE=
200809152100 METAR MRLB 152100Z 05005KT 9999 -RA SCT010 BKN100 25/23 A2979 RMK TS DST S=
200809152200 METAR MRLB 152200Z 19002KT 9999 SCT020 BKN120 25/23 A2979 RERA RMK TS DST SE RN SW=
200809152300 METAR MRLB 152300Z 02003KT 9999 FEW020 OVC120 25/24 A2979=
200809160000 METAR MRLB 160000Z 07002KT 9999 SCT020 BKN120 25/24 A2983=
200809160100 METAR MRLB NIL=
200809160200 METAR MRLB NIL=
200809160300 METAR MRLB NIL=
200809160400 METAR MRLB NIL=
200809160500 METAR MRLB NIL=
200809160600 METAR MRLB NIL=
200809160700 METAR MRLB NIL=
200809160800 METAR MRLB NIL=
200809160900 METAR MRLB NIL=
200809161000 METAR MRLB NIL=
200809161100 METAR MRLB NIL=
200809161200 METAR MRLB 161200Z 10004KT 0500FG VV/// 24/24 A2987=
200809161300 METAR MRLB 161300Z 17002KT 9999 FEW007 SCT015 BKN120 25/24 A2989 RMK LOW ST S=
200809161400 METAR MRLB 161400Z 18002KT 9999 4000SW BR FEW007 SCT018 BKN130 26/24 A2991=
200809161500 METAR MRLB 161500Z 28002KT 9999 SCT030 BKN250 28/25 A2991=
200809161600 METAR MRLB 161600Z 00000KT 9999 SCT035 BKN230 29/24 A2989=
200809161700 METAR MRLB 161700Z 03002KT 9999 SCT035 OVC230 30/24 A2988=
200809161800 METAR MRLB 161800Z 29005KT 9999 SCT035 OVC230 31/25 A985=
200809161900 METAR MRLB 161900Z 28005KT 9999 SCT035 BKN140 30/25 A2981=
200809162000 METAR MRLB 162000Z 30007KT 9999 FEW035N OVC130 29/25 A2977=
200809162100 METAR MRLB 162100Z 30005KT 9999 FEW035 OVC140 29/24 A2977=
200809162200 METAR MRLB 162200Z 29004KT 9999 SCT035 OVC140 29/25 A2978=
200809162300 METAR MRLB 162300Z 27003KT 9999 FEW035 OVC130 28/25 A2978=
200809170000 METAR MRLB 170000Z 00000KT 9999 FEW035 BKN140 27/25 A2981=
200809170100 METAR MRLB 170100Z 25003KT 9999 SCT035 OVC140 27/25 A2983=
200809170200 METAR MRLB NIL=
200809170300 METAR MRLB NIL=
200809170400 METAR MRLB NIL=
200809170500 METAR MRLB NIL=
200809170600 METAR MRLB NIL=
200809170700 METAR MRLB NIL=
200809170800 METAR MRLB NIL=
200809170900 METAR MRLB NIL=
200809171000 METAR MRLB NIL=
200809171100 METAR MRLB NIL=
200809171200 METAR MRLB 171200Z 15004KT 9999 SCT020 BKN250 24/23 A2985 RMK TCU DST W FOG BANK ARND=
200809171300 METAR MRLB 171300Z 10003KT 9999 FEW025 SCT250 26/23 A2986=
200809171400 METAR MRLB 171400Z 14005KT 9999 FEW015 BKN250 28/23 A2987=
200809171500 METAR MRLB 171500Z 06004KT 9999 SCT025 BKN250 29/23 A2986=
200809171600 METAR MRLB NIL=
200809171700 METAR MRLB 171700Z 17004KT 9999 SCT025 BKN250 29/25 A2985 RMK TCU DST S=
200809171800 METAR MRLB 171800Z 17005KT 9999 SCT025TCU BKN250 30/24 A2981 RMK TCU NW N=
200809171900 METAR MRLB 171900Z 26008KT 9999 SCT015TCU BKN180 30/24 A2979 RMK TCU RN ARND=
200809172000 METAR MRLB 172000Z 10008KT 1000 TSRA SCT010CB BKN025 27/24 A2981 RMK VIS NW UNL=
200809172100 METAR MRLB 172100Z 13005KT 5000 RA BR FEW012CB SCT020 OVC100 23/23 A2980=
200809172200 METAR MRLB 172200Z 12004KT 9999 DZ SCT025 BKN150 24/24 A2980 LW ST ARND=
200809172300 METAR MRLB 172300Z 11003KT 9999 -DZ SCT020 BKN140 24/24 A2982 LW ST ARND=
200809180000 METAR MRLB 180000Z 11004KT 9999 -RA SCT020 OVC120 24/24 A2984 BR ARND=
200809180100 METAR MRLB NIL=
200809180200 METAR MRLB NIL=
200809180300 METAR MRLB NIL=
200809180400 METAR MRLB NIL=
200809180500 METAR MRLB NIL=
200809180600 METAR MRLB NIL=
200809180700 METAR MRLB NIL=
200809180800 METAR MRLB NIL=
200809180900 METAR MRLB NIL=
200809181000 METAR MRLB NIL=
200809181100 METAR MRLB NIL=
200809181200 METAR MRLB 181200Z 07003KT CAVOK 23/23 A2985 OVC120 TRACE ST=
200809181300 METAR MRLB 181300Z 10003KT CAVOK 24/23 A2987 OVC120 TRACE ST=
200809181400 METAR MRLB 181400Z 13003KT CAVOK 25/24 A2990 OVC120 TRAZAS CU=
200809181500 METAR MRLB 181500Z 13005KT 9999 SCT020 BKN120 25/24 A2991=
200809181600 METAR MRLB 181600Z 18004KT 9999 SCT030 BKN120 26/24 A2990=
200809181700 METAR MRLB 181700Z 13004KT 9999 SCT030 BKN130 27/25 A2989=
200809181800 METAR MRLB 181800Z 13003KT 9999 SCT035 BKN250 30/23 A2986 TRACE AC=
200809181900 METAR MRLB 181900Z 12003KT 9999 SCT025 BKN250 30/23 A2982 RN S SW=
200809182000 METAR MRLB 182000Z 26009KT 9999 SCT025 BKN250 28/25 A2981 RN S SW=
200809182100 METAR MRLB 182100Z 26006KT 9999 SCT020TCU BKN250 29/25 A2979 RMK RASH DST SW=
200809182200 METAR MRLB 182200Z 25003KT 9999 RA SCT020 BKN100 25/24 A2981=
200809182300 METAR MRLB 182300Z 32003KT 9999 SCT020 BKN100 26/24 A2980 RERA RMK RN DST N S SW W=
200809190000 METAR MRLB 190000Z 21002KT 9999 SCT020 BKN100 26/24 A2983 RMK RN DST E SE S=
200809190100 METAR MRLB 190100Z 17003KT 9999 SCT020 BKN100 25/24 A2985=
200809190200 METAR MRLB NIL=
200809190300 METAR MRLB NIL=
200809190400 METAR MRLB NIL=
200809190500 METAR MRLB NIL=
200809190600 METAR MRLB NIL=
200809190700 METAR MRLB NIL=
200809190800 METAR MRLB NIL=
200809190900 METAR MRLB NIL=
200809191000 METAR MRLB NIL=
200809191100 METAR MRLB NIL=
200809191200 METAR MRLB NIL=
200809191300 METAR MRLB 191300Z 32003KT 9999 -RA SCT008 BKN100 24/23 A2989=
200809191400 METAR MRLB 191400Z 33002KT 6000 RA FEW006 SCT015 OVC100 24/23 A2991 RMK E UNL=
200809191500 METAR MRLB 191500Z 29002KT 5000 RA FEW008 BKN020 24/24 A2995=
200809191600 METAR MRLB 191600Z 18003KT 9999 -RA VCSH SCT007 BKN020 24/24 A2995 RMK VIS 7000 S=
200809191700 METAR MRLB 191700Z 24002KT 9999 -RA SCT020 OVC100 23/23 A2993=
200809191800 METAR MRLB 191800Z 00000KT 9999 -RA SCT020 OVC110 24/23 A2990=
200809191900 METAR MRLB 191900Z 12004KT 9999 SCT025 OVC120 24/17 A2985=
200809192000 METAR MRLB 192000Z 20002KT 9999 SCT025 OVC180 25/23 A2983=
200809192100 METAR MRLB 192100Z 00000KT 9999 SCT020 OVC120 25/23 A2982=
200809192200 METAR MRLB 192200Z 00000KT 9999 SCT025 BKN120 25/23 A2981=
200809192300 METAR MRLB 192300Z 32002KT 9999 FEW030 OVC130 25/23 A2983=
200809200000 METAR MRLB 200000Z 00000KT 9999 SCT035 OVC120 25/24 A2985=
200809200100 METAR MRLB 200100Z 17002KT 9999 SCT030 BKN120 25/23 A2987=
200809200200 METAR MRLB NIL=
200809200300 METAR MRLB NIL=
200809200400 METAR MRLB NIL=
200809200500 METAR MRLB NIL=
200809200600 METAR MRLB NIL=
200809200700 METAR MRLB NIL=
200809200800 METAR MRLB NIL=
200809200900 METAR MRLB NIL=
200809201000 METAR MRLB NIL=
200809201100 METAR MRLB NIL=
200809201200 METAR MRLB 201200Z 00000KT 9999 SCT020 BKN140 24/23 A2987 DZ W=
200809201300 METAR MRLB 201300Z 15004KT 9999 SCT020 BKN150 24/23 A2988 RMK FOG BANKS ARND=
200809201400 METAR MRLB 201400Z 13003KT 9999 SCT020 BKN120 25/24 A2991 RMK FOG BANKS ARND=
200809201500 METAR MRLB 201500Z 16005KT 9999 SCT020 BKN250 27/25 A2991 RMK FOG BANKS ARND=
200809201600 METAR MRLB 201600Z 19006KT 9999 SCT020 BKN180 28/25 A2992=
200809201700 METAR MRLB 201700Z 24004KT 9999 SCT020TCU BKN200 28/25 A2989 RMK DZ DST N E=
200809201800 METAR MRLB 201800Z 29005KT 9999 SCT020TCU BKN250 29/24 A2986=
200809201900 METAR MRLB 201900Z 28007KT 9999 SCT025 BKN250 29/24 A2982=
200809202000 METAR MRLB 202000Z 29010KT 9999 FEW020 BKN250 29/24 A2980=
200809202100 METAR MRLB 202100Z 29010KT 9999 FEW025 BKN250 29/24 A2978=
200809202200 METAR MRLB 202200Z 28010KT 9999 FEW025 BKN250 28/24 A2977=
200809202300 METAR MRLB 202300Z 28007KT 9999 FEW025 SCT250 27/24 A2979CB DST SE=
200809210000 METAR MRLB 210000Z 26005KT 9999 FEW020 SCT250 26/24 A2980 CB DST SE=
200809210100 METAR MRLB NIL=
200809210200 METAR MRLB NIL=
200809210300 METAR MRLB NIL=
200809210400 METAR MRLB NIL=
200809210500 METAR MRLB NIL=
200809210600 METAR MRLB NIL=
200809210700 METAR MRLB NIL=
200809210800 METAR MRLB NIL=
200809210900 METAR MRLB NIL=
200809211000 METAR MRLB NIL=
200809211100 METAR MRLB NIL=
200809211200 METAR MRLB 211200Z 09003KT 9999 OVC020 23/23 A2986 RMK RN ARND=
200809211300 METAR MRLB 211300Z 15003KT 9999 -RA OVC020 24/23 A2988=
200809211400 METAR MRLB 211400Z 14004KT 9999 SCT010 BKN100 24/23 A2990 RERA RN DST ARND=
200809211500 METAR MRLB 211500Z 14002KT 9999 SCT015 BKN100 25/24 A2991 RMK RN DST NE=
200809211600 METAR MRLB 211600Z 35002KT 9999 SCT020 BKN100 26/24 A2991 RMK RN DST N NE S=
200809211700 METAR MRLB 211700Z 27004KT 9999 SCT020 BKNB100 28/24 A2989=
200809211800 METAR MRLB 211800Z 25006KT 9999 SCT020 BKN100 29/24 A2986 RMK RN DST NE=
200809211900 METAR MRLB 211900Z 27009KT 9999 SCT020 BKN100 29/24 A2983 RMK RN DST N NE E=
200809212000 METAR MRLB 212000Z 27009KT 9999 SCT020 BKN100 29/24 A2983 RMK RN DST ARND=
200809212100 METAR MRLB 212100Z 30005KT 9999 -RA BKN020 SCT100 27/23 A2980=
200809212200 METAR MRLB 212200Z 28003KT 9999 -RA SCT020 BKN120 26/24 A2981=
200809212300 METAR MRLB 212300Z 24003KT 9999 -RA SCT020 BKN120 25/24 A2982=
200809220000 METAR MRLB 220000Z 17002KT 9999 -RA SCT020 BKN120 25/24 A2983=
200809220100 METAR MRLB 220100Z 16003KT 9999 SCT020 BKN120 25/24 A2987=
200809220200 METAR MRLB NIL=
200809220300 METAR MRLB NIL=
200809220400 METAR MRLB NIL=
200809220500 METAR MRLB NIL=
200809220600 METAR MRLB NIL=
200809220700 METAR MRLB NIL=
200809220800 METAR MRLB NIL=
200809220900 METAR MRLB NIL=
200809221000 METAR MRLB NIL=
200809221100 METAR MRLB NIL=
200809221200 METAR MRLB 221200Z 10003KT 9999 SCT030 BKN300 23/23 A2984 RMK ST S SW W CB DST SW TCU DST NW=
200809221300 METAR MRLB 221300Z 11004KT 9999 SCT030 SCT130 24/23 A2988 RMK FEW250 ST LOW SW W=
200809221400 METAR MRLB 221400Z 10006KT 9999 FEW010 BKN120 25/24 A2989=
200809221500 METAR MRLB 221500Z 15004KT 9999 -DZ SCT025 BKN120 26/24 A2991=
200809221600 METAR MRLB 221600Z 17005KT 9999 SCT025 BKN120 27/24 A2992 RMK RN DST SW=
200809221700 METAR MRLB 221700Z 14004KT 9999 FEW020 OVC120 27/24 A2990 RERA RMK RN S SW=
200809221800 METAR MRLB 221800Z 18006KT 9999 -RA SCT020 BKN120 27/24 A2987 RMK LINE TCU DESDE N A E=
200809221900 METAR MRLB 221900Z 17005KT 9999 SCT020TCU SCT120 29/24 A2984 RMK RASH DST S FEW250=
200809222000 METAR MRLB 222000Z 18005KT 9999 SCT025TCU SCT130 30/24 A2981 RMK RASH S W N FEW250=
200809222100 METAR MRLB 222100Z 13006KT 9999 SCT025TCU BKN250 29/23 A2979 FEW130 RN N NE WSW=
200809222200 METAR MRLB 222200Z 13006KT 9999 BKN025 SCT130 28/24 A2980 RN N SW=
200809222300 METAR MRLB 222300Z 13004KT 9999 FEW025TCU BKN130 27/24 A2982 FEW250 CB RN NW=
200809230000 METAR MRLB 230000Z 13004KT CAVOK 26/24 A2984 OVC120 TRAZAS CU CB NW=
200809230100 METAR MRLB 230100Z 12005KT 9999 FEW030 OVC120 25/23 A2986=
200809230200 METAR MRLB NIL=
200809230300 METAR MRLB NIL=
200809230400 METAR MRLB NIL=
200809230500 METAR MRLB NIL=
200809230600 METAR MRLB NIL=
200809230700 METAR MRLB NIL=
200809230800 METAR MRLB NIL=
200809230900 METAR MRLB NIL=
200809231000 METAR MRLB NIL=
200809231100 METAR MRLB NIL=
200809231200 METAR MRLB 231200Z 10003KT 9999 SCT020 BKN180 24/23 A2989 RMK DZ DST S=
200809231300 METAR MRLB 231300Z 10006KT 9999 FEW020 SCT100 BKN250 25/23 A2991 LOW ST W=
200809231400 METAR MRLB 231400Z 09004KT 9999 SCT025 BKN250 26/24 A2992 DZ LOW ST S SW=
200809231500 METAR MRLB 231500Z 24005KT 9999 SCT020 BKN270 27/24 A2993 DZ N=
200809231600 METAR MRLB 231600Z 25004KT 9999 SCT020TCU BKN200 28/23 A2992 RN ARND=
200809231800 METAR MRLB 231800Z 225005KT 9999 SCT020TCU BKN240 30/24 A2986 RN S SW=
200809231900 METAR MRLB 231900Z 26007KT 9000 -DZ SCT020TCU BKN200 26/24 A2985 LW ST ARND=
200809232000 METAR MRLB 232000Z 24005KT 9999 SCT025 BKN240 30/23 A2980 TCU RN N=
200809232100 METAR MRLB 232100Z 20003KT 9999 SCT020TCU BKN150 29/24 A2979 RMK RN N E=
200809232200 METAR MRLB 232200Z 29006KT 9999 SCT020TCU BKN180 28/24 A2978 RMK RN N S SW=
200809232300 METAR MRLB 232300Z 32003KT 9999 SCT020 BKN180 27/24 A2981 RMK RN S=
200809240000 METAR MRLB 240000Z 00000KT 9999 DZ SCT020 BKN100 26/24 A2983 RMK RASH E SE S=
200809240100 METAR MRLB NIL=
200809240200 METAR MRLB NIL=
200809240300 METAR MRLB NIL=
200809240400 METAR MRLB NIL=
200809240500 METAR MRLB NIL=
200809240600 METAR MRLB NIL=
200809240700 METAR MRLB NIL=
200809240800 METAR MRLB NIL=
200809240900 METAR MRLB NIL=
200809241000 METAR MRLB NIL=
200809241100 METAR MRLB NIL=
200809241200 METAR MRLB 241200Z 12003KT 9999 OVC020 24/24 A2984=
200809241300 METAR MRLB 241300Z 04004KT 9999 SCT010 BKN130 25/24 A2986=
200809241400 METAR MRLB NIL=
200809241500 METAR MRLB 241500Z 00000KT 9999 SCT020 BKN250 27/25 A2987=
200809241600 METAR MRLB 241600Z 27003KT 9999 SCT020 SCT250 28/24 A2987 RMK RN DST N=
200809241700 METAR MRLB 241700Z 36004KT 9999 SCT020 BKN100 29/25 A2986=
200809241800 METAR MRLB 241800Z 28006KT 9999 -RA SCT020 BKN100 30/24 A2983=
200809241900 METAR MRLB 241900Z 28006KT 9999 FEW020 BKN100 30/24 A2979 RERA RMK RN DST N NE S=
200809242000 METAR MRLB 242000Z 28009KT 9999 FEW020 BKN100 27/24 A2977 RMK RN DST NE S=
200809242100 METAR MRLB 242100Z 28005KT 9999 FEW020 BKN100 27/25 A2974=
200809242200 METAR MRLB 242200Z 28005KT 9999 FEW020 BKN120 28/25 A2976=
200809242300 METAR MRLB 242300Z 28007KT 9999 SCT020 BKN120 28/24 A2976 RMK RN DST NE E=
200809242359 METAR MRLB 250000Z 26003KT 9999 SCT020 BKN120 27/25 A2978 RMK RN DST S=
200809250000 METAR MRLB 250000Z 26003KT 9999 SCT020 BKN120 27/25 A2978 RMK RN DST S=
200809250100 METAR MRLB 250100Z 25004KT 9999 SCT020 BKN120 26/25 A2981=
200809250200 METAR MRLB NIL=
200809250300 METAR MRLB NIL=
200809250400 METAR MRLB NIL=
200809250500 METAR MRLB NIL=
200809250700 METAR MRLB NIL=
200809250800 METAR MRLB NIL=
200809250900 METAR MRLB NIL=
200809251000 METAR MRLB NIL=
200809251100 METAR MRLB NIL=
200809251200 METAR MRLB 251200Z 12003KT 9999 SCT020 BKN130 25/24 A2981 RN S=
200809251300 METAR MRLB 251300Z 16002KT 9999 SCT020 BKN120 26/25 A2984 RMK RN DST S SW=
200809251400 METAR MRLB 251400Z 32004KT 9999 -RA FEW010 SCT020 BKN110 25/24 A2986=
200809251500 METAR MRLB 251500Z 27004KT 9999 VCSH SCT015 BKN120 26/25 A2987 RMK 6000 S=
200809251600 METAR MRLB 251600Z 22004KT 9999 SCT025 27/24 A2986=
200809251700 METAR MRLB 251700Z 23007KT 9999 4000NW VCSH SCT020 BKN120 28/25 A2986=
200809251800 METAR MRLB 251800Z 32005KT 9999 -DZ RA FEW012CB SCT020 BKN110 26/24 A2984=
200809251900 METAR MRLB 251900Z 34002KT 9999 RA SCT020 OVC120 26/24 A2981=
200809252000 METAR MRLB 252000Z 32002KT 9999 SCT020 BKN120 26/24 A2977=
200809252100 METAR MRLB 252100Z 18002KT 9999 SCT025 BKN130 26/24 A2976=
200809252200 METAR MRLB 252200Z 27003KT 9999 FEW030 BKN130 26/25 A2975=
200809252300 METAR MRLB 252300Z 15003KT 9999 FEW035 BKN130 26/25 A2979=
200809260000 METAR MRLB 260000Z 00000KT 9999 SCT030 BKN140 26/25 A2980=
200809260100 METAR MRLB 260100Z 00000KT 9999 FEW030 BKN140 26/25 A2981=
200809260200 METAR MRLB NIL=
200809260300 METAR MRLB NIL=
200809260400 METAR MRLB NIL=
200809260500 METAR MRLB NIL=
200809260600 METAR MRLB NIL=
200809260700 METAR MRLB NIL=
200809260800 METAR MRLB NIL=
200809260900 METAR MRLB NIL=
200809261000 METAR MRLB NIL=
200809261100 METAR MRLB NIL=
200809261200 METAR MRLB 261200Z 00000KT 8000 VCFG FEW001 SCT120 24/24 A2984 RMK HZ ARND=
200809261300 METAR MRLB 261300Z 00000KT 9999 FEW010 SCT100 BKN250 26/24 A2986=
200809261400 METAR MRLB 261400Z 00000KT 9999 FEW010 BKN035 25/24 A2990=
200809261500 METAR MRLB 261500Z 11004KT 9999 SCT020 BKN250 28/25 A2989=
200809261600 METAR MRLB 261600Z 00000KT 9999 SCT025 BKN250 29/25 A2986=
200809261700 METAR MRLB 261700Z 27009KT 9999 SCT025TCU BKN250 29/26 A2985=
200809261800 METAR MRLB 261800Z 27013KT 9999 SCT020TCU BKN250 29/26 A2983=
200809261900 METAR MRLB 261900Z 30011KT 9999 SCT020 BKN220 28/25 A2981 RMK TCU RN DST E=
200809262000 METAR MRLB 262000Z 29005KT 9999 SCT020 BKN220 27/25 A2979 RMK TCU N NE SE=
200809262100 METAR MRLB 262100Z 29005KT 9999 FEW020 BKN250 27/25 A2976 RMK CB DIST SE=
200809262200 METAR MRLB 262200Z 29005KT 9999 SCT025 BKN250 28/24 A2975 RMK CB DST S=
200809262300 METAR MRLB 262300Z 23004KT 9999 SCT025 BKN200 27/24 A2978=
200809270000 METAR MRLB 270000Z 16003KT 9999 FEW025 SCT180 26/25 A2980=
200809270100 METAR MRLB NIL=
200809270200 METAR MRLB NIL=
200809270300 METAR MRLB NIL=
200809270400 METAR MRLB NIL=
200809270500 METAR MRLB NIL=
200809270600 METAR MRLB NIL=
200809270700 METAR MRLB NIL=
200809270800 METAR MRLB NIL=
200809270900 METAR MRLB NIL=
200809271000 METAR MRLB NIL=
200809271100 METAR MRLB NIL=
200809271200 METAR MRLB 271200Z 16002K 5000 BR OVC130 24/24 A2983 RMK UNL E=
200809271300 METAR MRLB 271300Z 00000KT 2000 BR FEW002 BKN120 25/24 A2986=
200809271400 METAR MRLB 271400Z 00000KT 9999 SCT008 SCT120 27/25 A2988=
200809271500 METAR MRLB 271500Z 29003KT 9999 SCT020 SCT250 28/25 A2987 FEW130=
200809271600 METAR MRLB 271600Z 35004KT 9999 SCT030 SCT250 31/25 A2987=
200809271700 METAR MRLB 271700Z 27005KT 9999 SCT030 BKN250 30/23 A2986=
200809271800 METAR MRLB 271800Z 28008KT 9999 SCT025 BKN250 31/26 A2982 RMK RN N E=
200809271900 METAR MRLB 271900Z 29009KT 9999 -TS FEW010CB BKN100 29/25 A2980 RMK RASH N NE E CB S=
200809272000 METAR MRLB 272000Z 08002KT 9999 FEW010 OVC100 25/24 A2978 RERA RMK RN DST ARND=
200809272100 METAR MRLB 272100Z 12005KT 9999 FEW020 OVC120 25/24 A2977 RN S=
200809272200 METAR MRLB 272200Z 22005KT 9999 SCT020 BKN120 26/25 A2977 RN S SW=
200809272300 METAR MRLB 272300Z 15004KT 999 SCT020 BKN120 26/25 A2980 CB N=
200809280000 METAR MRLB 280000Z 15004KT 9999 OVC020 25/24 A2981 TS DST N=
200809280100 METAR MRLB NIL=
200809280200 METAR MRLB NIL=
200809280300 METAR MRLB NIL=
200809280400 METAR MRLB NIL=
200809280500 METAR MRLB NIL=
200809280600 METAR MRLB NIL=
200809280700 METAR MRLB NIL=
200809280800 METAR MRLB NIL=
200809280900 METAR MRLB NIL=
200809281000 METAR MRLB NIL=
200809281100 METAR MRLB NIL=
200809281200 METAR MRLB 281200Z 00000KT 0500 FG VV/// 24/24 A2984=
200809281300 METAR MRLB 281300Z 18002KT 9999 SCT020 BKN130 26/24 A2986=
200809281400 METAR MRLB 281400Z 16005KT 9999 SCT025 BKN140 26/25 A2987=
200809281500 METAR MRLB 281500Z 16004KT 9999 SCT030 BKN140 28/24 A2989=
200809281600 METAR MRLB 281600Z 15004KT 9999 SCT035 BKN140 29/25 A2989=
200809281700 METAR MRLB 281700Z 25007KT 9999 SCT035 BKN140 28/25 A2987=
200809281800 METAR MRLB NIL=
200809281900 METAR MRLB 281900Z 25006KT 9999 SCT035 OVC240 30/25 A2979=
200809282000 METAR MRLB 282000Z 27006KT 9999 FEW035 BKN240 30/25 A2976=
200809282100 METAR MRLB 282100Z 27005KT 9999 FEW020TCU SCT030 OVC240 30/25 A2976 RMK RN DST N NE=
200809282200 METAR MRLB 282200Z 06004KT 3000 TSRA FEW010CB SCT020 OVC100 24/23 A2979=
200809282300 METAR MRLB 282300Z 12002KT 7000 -RA SCT020 BKN100 24/24 A2983=
200809290000 METAR MRLB 290000Z 09002KT 8000 -RA SCT025 BKN110 24/24 A2983=
200809290100 METAR MRLB 290100Z 08002KT 9999 -RA SCT025 OVC110 24/24 A2985=
200809290200 METAR MRLB NIL=
200809290300 METAR MRLB NIL=
200809290400 METAR MRLB NIL=
200809290500 METAR MRLB NIL=
200809290600 METAR MRLB NIL=
200809290700 METAR MRLB NIL=
200809290800 METAR MRLB NIL=
200809290900 METAR MRLB NIL=
200809291000 METAR MRLB NIL=
200809291100 METAR MRLB NIL=
200809291200 METAR MRLB 291200Z 09003KT 0200FG BKN001 23/22 A2984=
200809291300 METAR MRLB 291300Z 06003KT 8000 VCFG FEW005 SCT020 BKN200 23/23 A2986=
200809291400 METAR MRLB 291400Z 10004KT 9999 FEW015 SCT250 26/23 A2988=
200809291500 METAR MRLB 291500Z 19006KT 9999 SCT018 BKN120 26/24 A2990=
200809291600 METAR MRLB 291600Z 15006KT 9999 SCT020TCU BKN200 28/24 A2989=
200809291700 METAR MRLB 291700Z 19006KT 9999 SCT020TCU BKN250 29/24 A2988 RMK RN DST N SW=
200809291800 METAR MRLB 291800Z 22010KT 9999 SCT020TCU BKN080 27/24 A2986 RMK RN DST ARND=
200809291900 METAR MRLB 291900Z 20008KT 9999 DZ FEW015TCU BKN220 26/24 A2983=
200809292000 METAR MRLB 292000Z 20004KT 9999 -DZ SCT020 BKN200 26/24 A2982=
200809292100 METAR MRLB 292100Z 26005KT 9999 DZ SCT020 BKN200 26/24 A2982=
200809292200 METAR MRLB 292200Z 27005KT 9999 SCT020 BKN220 26/24 A2982 RMK RN DST S SW W=
200809292300 METAR MRLB 292300Z 22003KT 9999 SCT020 BKN150 25/24 A2984 RERA RMK RN DST E SE=
200809300000 METAR MRLB 300000Z 00000KT 9999 -RA SCT020 BKN140 25/24 A2987=
200809300100 METAR MRLB 300100Z 00000KT 9999 DZ SCT020 BKN100 25/23 A2989=
200809300200 METAR MRLB NIL=
200809300300 METAR MRLB NIL=
200809300400 METAR MRLB NIL=
200809300500 METAR MRLB NIL=
200809300600 METAR MRLB NIL=
200809300700 METAR MRLB NIL=
200809300800 METAR MRLB NIL=
200809300900 METAR MRLB NIL=
200809301000 METAR MRLB NIL=
200809301100 METAR MRLB NIL=
200809301200 METAR MRLB 301200Z 00000KT 9999 BKN015 SCT100 24/23 A2988 RN SW=
200809301300 METAR MRLB 301300Z 00000KT 9999 SCT010 BKN100 24/23 A2990 RMK RN DST SW=
200809301400 METAR MRLB 301400Z 00000KT 9999 SCT010 BKN100 24/23 A2990 RMK RN DST S=
200809301500 METAR MRLB 301500Z 14002KT 9999 OVC015 26/24 A2995=
200809301600 METAR MRLB 301600Z 13002KT 9999 BKN020 SCT100 28/23 A2994=
200809301700 METAR MRLB 301700Z 30003KT 9999 SCT025 BKN100 29/23 A2993=
200809301800 METAR MRLB 301800Z 29004KT 9999 FEW030 BKN250 30/24 A2990 RMK FEW090 RN DST N=
200809301900 METAR MRLB 301900Z 28010KT 9999 SCTR025 BKN120 29/23 A2989 RMK RN DST NE SE=
200809302000 METAR MRLB 302000Z 28010KT 9999 SCT020 BKN100 29/24 A2987 RMK RN DST NE N S=
200809302100 METAR MRLB 302100Z 30008KT 9999 SCT020 BKN220 28/24 A2986 RMK RN DST N NE NW=
200809302200 METAR MRLB 302200Z 36007KT 9999 -RA SCT020 BKN120 24/26 A2986=
200809302300 METAR MRLB 302300Z 02003KT 9999 FEW020 BKN120 25/23 A2986 RERA RMK CB DST SE=
200810010000 METAR MRLB NIL=
200810010100 METAR MRLB NIL=
200810010200 METAR MRLB NIL=
200810010300 METAR MRLB NIL=
200810010400 METAR MRLB NIL=
200810010500 METAR MRLB NIL=
200810010600 METAR MRLB NIL=
200810010700 METAR MRLB NIL=
200810010800 METAR MRLB NIL=
200810010900 METAR MRLB NIL=
200810011000 METAR MRLB NIL=
200810011100 METAR MRLB NIL=
200810011200 METAR MRLB 011200Z 05003KT 9999 SCT030 BKN120 24/23 A2988 RMK LOW ST SW=
200810011300 METAR MRLB 011300Z 20002KT 9999 SCT025 BKN120 25/23 A2990=
200810011400 METAR MRLB 011400Z 13004KT 9999 SCT030 BKN130 26/24 A2991=
200810011500 METAR MRLB 011500Z 17004KT 9999 SCT030 BKN130 27/25 A2991 RMK RN DST NW=
200810011600 METAR MRLB 011600Z 28004KT 2500 RA FEW010 BKN025 25/24 A2992=
200810011700 METAR MRLB 011700Z 29005KT 9999 -RA VCSH FEW007 SCT015 OVC100 25/24 A2992 RMK VIS 6KMS SW=
200810011800 METAR MRLB 011800Z 24006KT 9999 RA VCSH SCT010 OVC090 24/23 A2989 RMK VIS 7KMS S SW=
200810011900 METAR MRLB 011900Z 25004KT 9999 -RA SCT015 OVC100 24/23 A2987=
200810012000 METAR MRLB 012000Z 24003KT 9999 -RA SCT010 OVC100 24/23 A2985=
200810012100 METAR MRLB 012100Z 16003KT 9999 DZ SCT015 OVC110 23/23 A2982=
200810012200 METAR MRLB 012200Z 25002KT 9999 SCT020 OVC100 24/23 A2983=
200810012300 METAR MRLB 012300Z 18002KT 9999 SCT025 OVC100 23/23 A2985=
200810020000 METAR MRLB 020000Z 13003KT 9999 SCT025 OVC110 23/23 A2986=
200810020100 METAR MRLB 020100Z 06003KT 9999 SCT030 OVC120 24/23 A2988=
200810020200 METAR MRLB NIL=
200810020300 METAR MRLB NIL=
200810020400 METAR MRLB NIL=
200810020500 METAR MRLB NIL=
200810020600 METAR MRLB NIL=
200810020700 METAR MRLB NIL=
200810020800 METAR MRLB NIL=
200810020900 METAR MRLB NIL=
200810021000 METAR MRLB NIL=
200810021100 METAR MRLB NIL=
200810021200 METAR MRLB 021200Z 06003KT 9999 FEW020 SCT250 23/22 A2986=
200810021300 METAR MRLB 021300Z 00000KT 9999 SCT250 24/23 A2989 RMK HZ ARND=
200810021400 METAR MRLB 021400Z 26004KT 9999 FEW015 BKN020 25723 A2991 RMK HZ ARND FEW250=
200810021500 METAR MRLB 021500Z 00000KT 9999 SCT020 BKN180 26/23 A2991=
200810021600 METAR MRLB 021600Z 00000KT 9999 SCT018 BKN200 27/23 A2991 RMK DZ S SW=
200810021700 METAR MRLB 021700Z 27005KT 9999 SCT020 BKN250 27/24 A2989=
200810021800 METAR MRLB 021800Z 28007KT 9999 SCT020TCU BKN220 26/23 A2981 RMK DZ SW N=
200810021900 METAR MRLB 021900Z 32006KT 9999 -DZ FEW015TCU SCT025 BKN200 26/24 A2984=
200810022000 METAR MRLB 022000Z 26008KT 9999 SCT020 BKN200 27/25 A2981 RMK RN W=
200810022100 METAR MRLB 022100Z 29008KT 9999 SCT020 BKN240 27/24 A2979 TCU RN SE SW N=
200810022200 METAR MRLB 022200Z 28006KT 9999 FEW015 BKN180 27/23 A2978=
200810022300 METAR MRLB 022300Z 26004KT 9999 FEW020 SCT180 26/24 A2979=
200810030000 METAR MRLB 030000Z 24003KT 9999 SCT025 BKN170 25/24 A2981=
200810030100 METAR MRLB 030100Z 00000KT 9999 SCT020 BKN150 25/24 A2983=
200810030200 METAR MRLB NIL=
200810030300 METAR MRLB NIL=
200810030400 METAR MRLB NIL=
200810030500 METAR MRLB NIL=
200810030600 METAR MRLB NIL=
200810030700 METAR MRLB NIL=
200810030800 METAR MRLB NIL=
200810030900 METAR MRLB NIL=
200810031000 METAR MRLB NIL=
200810031100 METAR MRLB NIL=
200810031200 METAR MRLB NIL=
200810031300 METAR MRLB 031300Z 00000KT 9999 FEW007 OVC120 24/23 A2987=
200810031400 METAR MRLB 031400Z 34003KT 9999 FEW010 OVC100 25/24 A2988=
200810031500 METAR MRLB 031500Z 30003KT 9999 BKN010 SCT100 27/24 A2989=
200810031600 METAR MRLB 031600Z 25003KT 9999 BKN010 SCT100 27/24 A2989 RN S=
200810031700 METAR MRLB 031700Z 25005KT 9999 SCT010 BKN100 27/24 A2988 RN S=
200810031800 METAR MRLB 031800Z 28005KT 9999 SCT020 BKN250 28/24 A2984=
200810031900 METAR MRLB 031900Z 27008KT 9999 SCT020 BKN250 28/24 A2980 RN N S=
200810032000 METAR MRLB 032000Z 29008KT 9999 SCT010 BKN100 27/24 A2979 RN ARND=
200810032100 METAR MRLB 032100Z 33005KT 9999 -RA SCT010 BKN100 2624 A2977=
200810032200 METAR MRLB 032200Z 36004KT 9999 -RA FEW010 OVC100 25/24 A2977=
200810032300 METAR MRLB 032300Z 00000KT 9999 -RA OVC100 26/24 A2980=
200810040000 METAR MRLB 040000Z 12002KT 9999 FEW020 OVC100 25/25 A2980=
200810040100 METAR MRLB 040100Z 09002KT 9999 FEW020 OVC100 25/24 A2982=
200810040200 METAR MRLB NIL=
200810040300 METAR MRLB NIL=
200810040400 METAR MRLB NIL=
200810040500 METAR MRLB NIL=
200810040600 METAR MRLB NIL=
200810040700 METAR MRLB NIL=
200810040800 METAR MRLB NIL=
200810040900 METAR MRLB NIL=
200810041000 METAR MRLB NIL=
200810041100 METAR MRLB NIL=
200810041200 METAR MRLB 041200Z 12007KT 9999 SCT030 BKN120 24/23 A2985 RMK RN DST SE=
200810041300 METAR MRLB 041300Z 11009KT 9999 FEW025 BKN120 24/23 A2986=
200810041400 METAR MRLB 041400Z 13008KT 9999 DZ SCT015 OVC130 25/23 A2988=
200810041500 METAR MRLB 041500Z 12008KT 9999 -RA VCSH SCT012 OVC100 25/24 A2990 RMK 6000 S SW=
200810041600 METAR MRLB 041600Z 16004KT 9999 VCSH SCT015 OVC100 25/24 A2990 RMK 6000 S=
200810041700 METAR MRLB 041700Z 12007KT 9999 -RA FEW010 BKN025 25/23 A2989=
200810041800 METAR MRLB NIL=
200810041900 METAR MRLB 041900Z 09006KT 9999 FEW030 BKN120 25/23 A2984=
200810042000 METAR MRLB 042000Z 11005KT 9999 FEW035 BKN120 28/24 A2980=
200810042100 METAR MRLB 042100Z 14004KT 9999 FEW035 BKN130 28/23 A2977=
200810042200 METAR MRLB 042200Z 15003KT 9999 FEW035 OVC130 27/23 A2978=
200810042300 METAR MRLB 042300Z 13002KT 9999 SCT035 OVC130 27/24 A2979=
200810050000 METAR MRLB 050000Z 10002KT 9999 FEW035 BKN120 26/24 A2980=
200810050100 METAR MRLB 050100Z 13002KT 9999 SCT035 BKN120 25/24 A2984=
200810050200 METAR MRLB NIL=
200810050300 METAR MRLB NIL=
200810050400 METAR MRLB NIL=
200810050500 METAR MRLB NIL=
200810050600 METAR MRLB NIL=
200810050700 METAR MRLB NIL=
200810050800 METAR MRLB NIL=
200810050900 METAR MRLB NIL=
200810051000 METAR MRLB NIL=
200810051100 METAR MRLB NIL=
200810051200 METAR MRLB NIL=
200810051300 METAR MRLB NIL=
200810051400 METAR MRLB 051400Z 22005KT CAVOK 25/24 A2989 RMK FEW100 BKN250=
200810051500 METAR MRLB 051500Z 00000KT 9999 FEW025 SCT100 BKN250 27/24 A2991=
200810051600 METAR MRLB NIL=
200810051700 METAR MRLB 051700Z 15005KT 9999 SCT025TCU BKN250 30/24 A2989=
200810051800 METAR MRLB 051800Z 15005KT 9999 SCT020TCU BKN250 31/24 A2985=
200810051900 METAR MRLB 051900Z 16007KT 9999 -RA SCT020TCU BKN180 27/25 A2983=
200810052000 METAR MRLB 052000Z 25004KT 5000 RA SCT010 BKN080 23/22 A2981=
200810052100 METAR MRLB 052100Z 00000KT 9999 DZ SCT020 BKN180 24/23 A2981=
200810052200 METAR MRLB NIL=
200810052300 METAR MRLB NIL=
200810060000 METAR MRLB NIL=
200810060100 METAR MRLB NIL=
200810060200 METAR MRLB NIL=
200810060300 METAR MRLB NIL=
200810060400 METAR MRLB NIL=
200810060500 METAR MRLB NIL=
200810060600 METAR MRLB NIL=
200810060700 METAR MRLB NIL=
200810060800 METAR MRLB NIL=
200810060900 METAR MRLB NIL=
200810061000 METAR MRLB NIL=
200810061100 METAR MRLB NIL=
200810061200 METAR MRLB 061200Z 20002KT 0500 FG SCT130 23/22 A2985=
200810061300 METAR MRLB 061300Z 14004KT 9999 3000W BR FEW002 BKN120 23/23 A2988=
200810061400 METAR MRLB 061400Z 15002KT 9999 FEW010 BKN120 24/23 A2990=
200810061500 METAR MRLB 061500Z 15002KT 9999 FEW015 BKN120 26/24 A2991=
200810061600 METAR MRLB 061600Z 10003KT 9999 SCT020 BKN120 29/24 A2990=
200810061700 METAR MRLB 061700Z 18004KT 9999 BKN025 SCT120 30/24 A2988 RMK RN DST N S SW=
200810061800 METAR MRLB 061800Z 16004KT 9999 -RA BKN025 SCT120 29/24 A2986=
200810061900 METAR MRLB 061900Z 28003KT 9999 SCT025 SCT130 29/25 A2986 RERA RMK RN DST N SE SW=
200810062000 METAR MRLB 062000Z 26003KT 9999 SCT020 SCT120 30/24 A2979 RMK TCU RN DST E SE SW=
200810062100 METAR MRLB 062100Z 06003KT 9999 -RA SCT020 SCT120 26724 A2978 RMK FEW250=
200810062200 METAR MRLB 062200Z 13005KT 9999 BKN020 SCT100 26/24 A2979 RERA RMK RN ARND=
200810062300 METAR MRLB 062300Z 10004KT 9999 SCT020 BKN250 26/25 A2979 RMK FEW140 RN NE=
200810070000 METAR MRLB 070000Z 10003KT 9999 SCT020 SCT250 26/24 A2981 RMK RN DST S NW=
200810070100 METAR MRLB 070100Z 11003KT 9999 SCT020 BKN250 25/24 A2984=
200810070200 METAR MRLB NIL=
200810070300 METAR MRLB NIL=
200810070400 METAR MRLB NIL=
200810070500 METAR MRLB NIL=
200810070600 METAR MRLB NIL=
200810070700 METAR MRLB NIL=
200810070800 METAR MRLB NIL=
200810070900 METAR MRLB NIL=
200810071000 METAR MRLB NIL=
200810071100 METAR MRLB NIL=
200810071200 METAR MRLB 071200Z 00000KT 9999 SCT030 BKN130 23/23 A2984 RMK RN DST E NE=
200810071300 METAR MRLB 071300Z 11003KT 9999 FEW030 SCT130 BKN250 25/24 A2986=
200810071400 METAR MRLB 071400Z 15006KT 9999 SCT035 BKN130 27/242 A2988=
200810071500 METAR MRLB 071500Z 26008KT 2000 RA FEW008 BKN020 23/23 A2990=
200810071600 METAR MRLB NIL=
200810071700 METAR MRLB 071700Z 22005KT 8000 RA FEW007 BKN020 24/23 A2989=
200810071800 METAR MRLB 071800Z 20005KT 9999 SCT020 OVC100 25/23 A2987 RERA RN DST W SE=
200810071900 METAR MRLB 071900Z 19003KT 9999 SCT020 OVC110 26/23 A2984=
200810072000 METAR MRLB 072000Z 16002KT 9999 FEW010 SCT020 OVC110 26723 A2981 RMK RN DST S SE=
200810072100 METAR MRLB 072100Z 10005KT 9999 -RA SCT020 BKN10 25/23 A2979=
200810072200 METAR MRLB 072200Z 14003KT 9999 SCT030 BKN120 25/24 A2979=
200810072300 METAR MRLB 072300Z 15002KT 9999 SCT035 BKN130 26/24 A2980=
200810080000 METAR MRLB 080000Z 12003KT 9999 FEW035 BKN130 25/24 A2982=
200810080100 METAR MRLB 080100Z 11002KT 9999 SCT030 BKN130 24/23 A2984=
200810080200 METAR MRLB NIL=
200810080300 METAR MRLB NIL=
200810080400 METAR MRLB NIL=
200810080500 METAR MRLB NIL=
200810080600 METAR MRLB NIL=
200810080700 METAR MRLB NIL=
200810080800 METAR MRLB NIL=
200810080900 METAR MRLB NIL=
200810081000 METAR MRLB NIL=
200810081100 METAR MRLB NIL=
200810081200 METAR MRLB 081200Z 11004KT 9999 FEW015 SCT100 BKN250 23/22 A2987=
200810081300 METAR MRLB 081300Z 00000KT 9999 FEW015 SCT180 24/22 A2990=
200810081400 METAR MRLB 081400Z 11005KT 9999 FEW015 SCT180 24/23 A2991=
200810081500 METAR MRLB 081500Z 11007KT 9999 FEW020 SCT220 26/25 A2992=
200810081600 METAR MRLB 081600Z 14008KT 9999 SCT025 BKN220 27/23 A2992=
200810081700 METAR MRLB 081700Z 12006KT 9999 SCT020 BKN240 28/24 A2991=
200810081800 METAR MRLB 081800Z 10005KT 9999 SCT020 BKN200 29/23 A2986=
200810081900 METAR MRLB 081900Z 15003KT 9999 SCT020TCU BKN180 29/23 A2983 RN S SW W=
200810082000 METAR MRLB 082000Z 32006KT 9999 -RA FEW015TCU SCT030 BKN180 25/24 A2983=
200810082100 METAR MRLB 082100Z 22007KT 9999 DZ FEW015TCU SCT030 BKN180 26/24 A2982 RMK RASH N E SE=
200810082200 METAR MRLB 082200Z 00000KT 9999 -DZ FEW015TCU SCT100 BKN200 25/23 A2983=
200810082300 METAR MRLB 082300Z 35004KT 9999 FEW015 SCT120 BKN240 25/24 A2985 RERA=
200810090000 METAR MRLB 090000Z 04005KT 9999 SCT020TCU BKN180 24/23 A2987=
200810090100 METAR MRLB 090100Z 00000KT 9999 SCT018 BKN150 24/23 A2990=
200810090200 METAR MRLB NIL=
200810090300 METAR MRLB NIL=
200810090400 METAR MRLB NIL=
200810090500 METAR MRLB NIL=
200810090600 METAR MRLB NIL=
200810090700 METAR MRLB NIL=
200810090800 METAR MRLB NIL=
200810090900 METAR MRLB NIL=
200810091000 METAR MRLB NIL=
200810091100 METAR MRLB NIL=
200810091200 METAR MRLB 091200Z 00000KT 0100 FG VV/// 23/23 A2989=
200810091300 METAR MRLB 091300Z 35002KT 9999 2000SE BR FEW002 BKN100 23/23 A2991=
200810091400 METAR MRLB 091400Z 36003KT 9999 FEW010 OVC100 24/23 A2993=
200810091500 METAR MRLB 091500Z 35002KT 9999 FEW015 OVC100 26/24 A2995=
200810091600 METAR MRLB 091600Z 00000KT 9999 SCT020 BKN100 27/24 A2994=
200810091700 METAR MRLB 091700Z 26004KT 9999 SCT020 BKN120 27/24 A2992=
200810091800 METAR MRLB 091800Z 31004KT 9999 FEW025 OVC100 28/23 A2990=
200810091900 METAR MRLB 091900Z 28006KT 9999 FEW030 OVC100 28/23 A2988=
200810092000 METAR MRLB 092000Z 26005KT 9999 FEW030 OVC100 28/24 A2985=
200810092100 METAR MRLB 092100Z 28006KT 9999 FEW030 OVC100 27/23 A2983 RMK RN DST E=
200810092200 METAR MRLB 092200Z 27005KT 9999 FEW030 OVC100 27/24 A2982=
200810092300 METAR MRLB 092300Z 28004KT 9999 FEW030 OVC120 26/24 A2983=
200810100000 METAR MRLB 100000Z 29003KT 9999 FEW030 OVC120 26/24 A2984=
200810100100 METAR MRLB 100100Z 00000KT 9999 FEW030 OVC120 26/24 A2985=
200810100200 METAR MRLB NIL=
200810100300 METAR MRLB NIL=
200810100400 METAR MRLB NIL=
200810100500 METAR MRLB NIL=
200810100600 METAR MRLB NIL=
200810100700 METAR MRLB NIL=
200810100800 METAR MRLB NIL=
200810100900 METAR MRLB NIL=
200810101000 METAR MRLB NIL=
200810101100 METAR MRLB NIL=
200810101200 METAR MRLB 101200Z 03003KT 9999 FEW030 BKN130 24/23 A2986=
200810101300 METAR MRLB 101300Z 03004KT 9999 FEW035 BKN130 25/24 A2988=
200810101400 METAR MRLB 101400Z 34003KT 9999 SCT035 BKN130 27/24 A2990=
200810101500 METAR MRLB 101500Z 35006KT 9999 SCT035 BKN140 28/24 A2989=
200810101600 METAR MRLB 101600Z 30005KT 9999 SCT030 SCT140 29/24 A2989=
200810101700 METAR MRLB 101700Z 30007KT 9999 SCT035 SCT140 29/24 A2986=
200810101800 METAR MRLB 101800Z 29009KT 9999 SCT035 BKN140 30/24 A2984=
200810101900 METAR MRLB 101900Z 28010KT 9999 SCT030 BKN130 31/25 A2981 RMK RN DST E=
200810102000 METAR MRLB 102000Z 29008KT 9999 4000N -RA FEW015TCU SCT030 BKN120 28/24 A2979=
200810102100 METAR MRLB 102100Z 29006KT 9999 RA SCT020 OVC100 25/24 A2980=
200810102200 METAR MRLB 102200Z 29004KT 9999 SCT030 BKN120 25/25 A2979=
200810102300 METAR MRLB 102300Z 28005KT 9999 SCT030 OVC130 26/24 A2980=
200810110000 METAR MRLB 110000Z 28004KT 9999 SCT035 BKN130 25/24 A2981=
200810110100 METAR MRLB 110100Z 29004KT 9999 FEW035 BKN130 25/24 A2983=
200810110200 METAR MRLB NIL=
200810110300 METAR MRLB NIL=
200810110400 METAR MRLB NIL=
200810110500 METAR MRLB NIL=
200810110600 METAR MRLB NIL=
200810110700 METAR MRLB NIL=
200810110800 METAR MRLB NIL=
200810110900 METAR MRLB NIL=
200810111000 METAR MRLB NIL=
200810111100 METAR MRLB NIL=
200810111200 METAR MRLB 111200Z NIL=
200810111300 METAR MRLB 111300Z 34004KT 9999 FEW020 BKN250 25/23 A2985=
200810111400 METAR MRLB 111400Z 00000KT 9999 FEW020 BKN220 27/24 A2985=
200810111500 METAR MRLB 111500Z 34006KT 9999 SCT020 BKN240 29/24 A2984=
200810111600 METAR MRLB 111600Z 33007KT 9999 SCT025 BKN250 30/24 A2983=
200810111700 METAR MRLB 111700Z 28008KT 9999 SCT020 BKN250 29/24 A2982=
200810111800 METAR MRLB 111800Z 28010KT 9999 SCT025TCU BKN250 29/24 A2979=
200810111900 METAR MRLB 111900Z 28010KT 9999 SCT025 BKN250 29/24 A2977=
200810112000 METAR MRLB 112000Z 08008KT 9999 SCT025 BKN250 30/24 A2972 RMK TCU S E N=
200810112100 METAR MRLB 112100Z 28009KT 9999 SCT020 BKN240 27/24 A2972 REDZ=
200810112200 METAR MRLB 112200Z 29009KT 9999 SCT020 BKN240 27/24 A2974=
200810112300 METAR MRLB 112300Z 00000KT 9999 TSRA FEW020CB BKN150 26/24 A2976 RMK VIS E 5000MTS=
200810120000 METAR MRLB 120000Z 24010KT 8000 TERA FEW015CB SCT020 OVC100 25/24 A2977=
200810120100 METAR MRLB 120100Z 28006KT 9000 -RA SCT020 OVC100 24/24 A2980 RMK LTNG DST S=
200810120200 METAR MRLB NIL=
200810120300 METAR MRLB NIL=
200810120400 METAR MRLB NIL=
200810120500 METAR MRLB NIL=
200810120600 METAR MRLB NIL=
200810120700 METAR MRLB NIL=
200810120800 METAR MRLB NIL=
200810120900 METAR MRLB NIL=
200810121000 METAR MRLB NIL=
200810121100 METAR MRLB NIL=
200810121200 METAR MRLB 121200Z 00000KT 2000 BR SCT025 SCT250 24/23 A2980=
200810121300 METAR MRLB 121300Z 00000KT 9999 3000N BR FEW004 BKN100 24/24 A2980=
200810121400 METAR MRLB 121400Z 20002KT 9999 FEW010 SCT100 BKN250 26/24 A2982=
200810121500 METAR MRLB 121500Z 06002KT 9999 SCT020 BKN100 27/23 A2983 RMK RN N NE=
200810121600 METAR MRLB 121600Z 04002KT 9999 SCT020 SCT100 29/24 A2981 RMK RN ARND=
200810121700 METAR MRLB 121700Z 21004KT 9999 BKN020 SCT100 29/24 A2979 RMK RN N NE S=
200810121800 METAR MRLB 121800Z 17006KT 5000 2000SW RA FEW010 BKN020 25/24 A2979 RMK VIS NW UNL=
200810121900 METAR MRLB 121900Z 19003KT 9999 4000SE -RA SCT020 BKN100 24/24 A2976=
200810122000 METAR MRLB 122000Z 00000KT 9999 FEW010 OVC100 24/24 A2974 RERA RMK RN N=
200810122100 METAR MRLB 122100Z 22003KT 9999 SCT010 SCT100 25/24 A2973 RN N S=
200810122200 METAR MRLB 122200Z 22005KT 9999 FEW010 BKN100 25/24 A2973 RN N NE E S=
200810122300 METAR MRLB 122300Z 11007KT 9999 4000E -RA SCT010 BKN100 24/23 A2975=
200810130000 METAR MRLB 130000Z 11004KT 9999 -RA SCT010 BKN100 23/23 A2978=
200810130100 METAR MRLB NIL=
200810130200 METAR MRLB NIL=
200810130300 METAR MRLB NIL=
200810130400 METAR MRLB NIL=
200810130500 METAR MRLB NIL=
200810130600 METAR MRLB NIL=
200810130700 METAR MRLB NIL=
200810130800 METAR MRLB NIL=
200810130900 METAR MRLB NIL=
200810131000 METAR MRLB NIL=
200810131100 METAR MRLB NIL=
200810131200 METAR MRLB 131200Z 12006KT 9999 FEW020 OVC120 22/21 A2981=
200810131300 METAR MRLB 131300Z 11006KT 9999 FEW030 BKN130 23/22 A2983=
200810131400 METAR MRLB 131400Z 14004KT 9999 SCT030 BKN130 24/22 A2985=
200810131500 METAR MRLB 131500Z 12006KT 9999 SCT035 BKN130 25/22 A2986 RN SW=
200810131600 METAR MRLB 131600Z 13005KT 9999 DZ FEW010 SCT020 OVC120 25/22 A2986=
200810131700 METAR MRLB 131700Z 10004KT 9999 SCT020 BKN130 26/23 A2984=
200810131800 METAR MRLB 131800Z 17003KT 9999 SCT030 BKN140 28/23 A2980=
200810131900 METAR MRLB 131900Z 18004KT 9999 SCT035 BKN240 29/23 A2976=
200810132000 METAR MRLB 132000Z 10006KT 9999 SCT030 BKN140 29/24 A2974 RN SW=
200810132100 METAR MRLB 132100Z 23005KT 9999 FEW020TCU SCT030 BKN130 27/23 A2973 RMK RN DST E NE=
200810132200 METAR MRLB 132200Z 12006KT 9999 2000S RA SCT020 BKN120 26/24 A2972=
200810132300 METAR MRLB 132300Z 11006KT 9999 SCT030 BKN110 25/24 A2975 RERA RMK RN DST N=
200810140000 METAR MRLB 140000Z 15003KT 9999 SCT030 BKN130 24/24 A2977=
200810140100 METAR MRLB 140100Z 18002KT 9999 SCT035 BKN140 24/23 A2980=
200810140200 METAR MRLB NIL=
200810140300 METAR MRLB NIL=
200810140400 METAR MRLB NIL=
200810140500 METAR MRLB NIL=
200810140600 METAR MRLB NIL=
200810140700 METAR MRLB NIL=
200810140800 METAR MRLB NIL=
200810140900 METAR MRLB NIL=
200810141000 METAR MRLB NIL=
200810141100 METAR MRLB NIL=
200810141200 METAR MRLB 141200Z 07004KT 6000 RA BKN008 SCT100 23/23 A2980 RMK VIS E SE UNL=
200810141300 METAR MRLB 141300Z 29006KT 2500 RA BR BKN008 SCT100 23/23 A2983=
200810141400 METAR MRLB 141400Z 18002KT 9000 -RA VCSH BKN012 SCT100 23/23 A2985 RMK 7000 S SW LOW STNW N=
200810141500 METAR MRLB 141500Z 17004KT 9000 -RA BR FEW006 BKN012 23/23 A2988=
200810141600 METAR MRLB 141600Z 17003KT 9999 -RA VCSH BKN025 SCT100 23/23 A2988 RMK 6000 E=
200810141700 METAR MRLB 141700Z 08002KT 9000 4000SW -RA VCSH SCT008 BKN020 24/23 A2986 RMK E SE UNL=
200810141800 METAR MRLB 141800Z 13003KT 9999 SCT006 BKN015 25/24 A2983 RERA RMK RN DST N NE SW=
200810141900 METAR MRLB 141900Z 00000KT 60000 RA BKN015 SCT100 24/24 A2981 RMK UNL SW=
200810142000 METAR MRLB 142000Z 16004KT 9999 2500N -RA BKN015 SCT100 24/23 A2978=
200810142100 METAR MRLB 142100Z 17002KT 9999 -RA BKN020 SCT120 24/23 A2978 RMK ST S N=
200810142200 METAR MRLB 142200Z 00000KT 9999 FEW025 BKN120 25/24 A2976 RERA RMK TCU DST SE S SW=
200810142300 METAR MRLB 142300Z 17002KT 9999 BKN020 SCT120 25/24 A2977 RERA RMK RN DST E NW=
200810150000 METAR MRLB 150000Z 18003KT 9999 SCT015 SCT120 24/23 A2979 RERA RMK RN DST NE E CB DST E NE SE FEW250=
200810150100 METAR MRLB 150100Z 14002KT 9999 FEW015 SCT120 BKN250 24/23 A2980=
200810150200 METAR MRLB NIL=
200810150300 METAR MRLB NIL=
200810150400 METAR MRLB NIL=
200810150500 METAR MRLB NIL=
200810150600 METAR MRLB NIL=
200810150700 METAR MRLB NIL=
200810150800 METAR MRLB NIL=
200810150900 METAR MRLB NIL=
200810151000 METAR MRLB NIL=
200810151100 METAR MRLB NIL=
200810151200 METAR MRLB 151200Z 17004KT 3000 RA BKN020 SCT100 23/23 A2983=
200810151300 METAR MRLB 151300Z 17004KT 3000 -RA BR FEW010 SCT020 BKN100 24/23 A2985=
200810151400 METAR MRLB 151400Z 18004KT 3000 RA FEW008 SCT020 BKN100 24/23 A2986=
200810151500 METAR MRLB 151500Z 18005KT 4000 -RA SCT010 BKN100 25/24 A2987 RMK VIS 9999 E=
200810151600 METAR MRLB NIL=
200810151700 METAR MRLB 151700Z 20005KT 4000 RA BKN010 SCT100 24/23 A2986=
200810151800 METAR MRLB 151800Z 18003KT 9999 4000E -RA SCT010 BKN100 24/24 A2985=
200810151900 METAR MRLB NIL=
200810152000 METAR MRLB 152000Z 20006KT 5000 2000SE RA BKN010 SCT090 24/23 A2981=
200810152100 METAR MRLB 152100Z 19005KT 4000 -RA SCT010 BKN090 23/23 A2980=
200810152200 METAR MRLB 152200Z 16004KT 3000 RA SCT010 BKN090 23/22 A2980=
200810152300 METAR MRLB 152300Z 18005KT 4000 SCT008 SCT090 23/22 A2981=
200810160000 METAR MRLB 160000Z 16006KT 8000 -RA OVC010 23/22 A2982=
200810160100 METAR MRLB NIL=
200810160200 METAR MRLB NIL=
200810160300 METAR MRLB NIL=
200810160400 METAR MRLB NIL=
200810160500 METAR MRLB NIL=
200810160600 METAR MRLB NIL=
200810160700 METAR MRLB NIL=
200810160800 METAR MRLB NIL=
200810160900 METAR MRLB NIL=
200810161000 METAR MRLB NIL=
200810161100 METAR MRLB NIL=
200810161200 METAR MRLB 161200Z NIL=
200810161300 METAR MRLB 161300Z 12005KT 7000 -DZ BR SCT010 OVC080 23/23 A2988=
200810161400 METAR MRLB 161400Z 14005KT 7000 -DZ VCFG SCT010 BKN080 24/23 A2990=
200810161500 METAR MRLB 161500Z 12006KT 8000 -DZ SCT010 BKN090 24/23 A2991=
200810161600 METAR MRLB 161600Z 13005KT 7000 DZ VCFG SCT010 BKN080 24/24 A2991=
200810161700 METAR MRLB 161700Z 13005KT 3000 RA SCT010 OVC060 24/23 A2990=
200810161800 METAR MRLB 161800Z 19005KT 6000 -RA SCT010 BKN060 23/23 A2990=
200810161900 METAR MRLB 161900Z 13003KT 6000 -RA VCFG SCT010 BKN050 23/23 A2987=
200810162000 METAR MRLB 162000Z 15005KT 4000 -RA BR SCT010 OVC070 23/23 A2984=
200810162100 METAR MRLB 162100Z 17005KT 6000 -RA SCT010 BKN070 23/23 A2984=
200810162200 METAR MRLB 162200Z 16005KT 5000 -RA SCT010 BKN080 23/23 A2984=
200810162300 METAR MRLB 162300Z 15004KT 7000 DZ VCFG SCT010 BKN090 23/23 A2985=
200810170000 METAR MRLB 170000Z 15005KT 8000 DZ VCFG SCT010 OVC100 23/22 A2986=
200810170100 METAR MRLB 170100Z 15003KT 6000 -RA SCT010 OVC080 23/22 A2990=
200810170200 METAR MRLB 170200Z 13006KT 5000 RA SCT010 OVC070 23/22 A2993=
200810170300 METAR MRLB NIL=
200810170400 METAR MRLB NIL=
200810170500 METAR MRLB NIL=
200810170600 METAR MRLB NIL=
200810170700 METAR MRLB NIL=
200810170800 METAR MRLB NIL=
200810170900 METAR MRLB NIL=
200810171000 METAR MRLB NIL=
200810171100 METAR MRLB NIL=
200810171200 METAR MRLB 171200Z 10005KT 7000 DZ VCFG SCT010 OVC090 23/22 A2992=
200810171300 METAR MRLB 171300Z 1303KT 2000 RA SCT008 OVC050 23/22 A2995=
200810171400 METAR MRLB 171400Z 08004KT 9999 -DZ FEW010 SCT025 BKN150 24/23 A2996=
200810171500 METAR MRLB 171500Z 00000KT 9000 VCFG SCT010 BKN100 24/23 A2998 REDZ=
200810171600 METAR MRLB 171600Z 10005KT 9999 FEW015 SCT025 BKN100 25/23 A2997=
200810171700 METAR MRLB 171700Z 13005KT 9999 SCT018 BKN180 27/23 A2993=
200810171800 METAR MRLB 171800Z 15004KT 9999 SCT020 BKN240 28/23 A2990 RMK TCU RN S=
200810171900 METAR MRLB 171900Z 22005KT 9999 FEW015 SCT030 BKN240 28/23 A2988 RMK RN S SW=
200810172000 METAR MRLB 172000Z 20004KT 9999 SCT020TCU BKN240 29/23 A2986 RMK TCU RN S=
200810172100 METAR MRLB 172100Z 29005KT 9999 SCT025TCU BKN220 28/24 A2985 TCU/RN S=
200810172200 METAR MRLB 172200Z 28008KT 7000 RA SCT015TCU BKN090 24/24 A2986=
200810172300 METAR MRLB 172300Z 00000KT 9999 SCT025 BKN220 25/24 A2988 RERA=
200810180000 METAR MRLB 180000Z 00000KT 9999 SCT025 BKN150 25/24 A2988=
200810180100 METAR MRLB 180100Z 00000KT 9999 SCT020 BKN100 24/23 A2990=
200810180200 METAR MRLB NIL=
200810180300 METAR MRLB NIL=
200810180400 METAR MRLB NIL=
200810180500 METAR MRLB NIL=
200810180600 METAR MRLB NIL=
200810180700 METAR MRLB NIL=
200810180800 METAR MRLB NIL=
200810180900 METAR MRLB NIL=
200810181000 METAR MRLB NIL=
200810181100 METAR MRLB NIL=
200810181200 METAR MRLB 181200Z 00000KT 9999 BKN020 23/22 A2990 RMK RN DST W=
200810181300 METAR MRLB NIL=
200810181400 METAR MRLB 181400Z 26002KT 9999 BKN015 26/24 A2993=
200810181500 METAR MRLB 181500Z 30002KT 9999 BKN020 27/23 A2994=
200810181600 METAR MRLB 181600Z 29003KT 9999 BKN025 29/23 A2993=
200810181700 METAR MRLB 181700Z 28005KT 9999 SCT030 30/24 A2990=
200810181800 METAR MRLB 181800Z 28007KT 9999 SCT030 30/24 A2988 FEW250 RASH N RN NE S=
200810181900 METAR MRLB 181900Z 29010KT 9999 BKN030 SCT250 29/24 A2986 CB RN N E RN S=
200810182000 METAR MRLB 182000Z 30008KT 9999 SCT025 BKN100 29/24 A2984 RN N NE S=
200810182100 METAR MRLB 1821200Z 31007KT 9999 SCT030 BKN140 27/24 A2983 RMK CB DST E SE NW=
200810182200 METAR MRLB 182200Z 30008KT 9999 FEW030 BKN140 28/23 A2982 RMK CB DST SE=
200810182300 METAR MRLB 182300Z 32006KT 9999 SCT020 BKN140 27/24 A2984 RMK CB DST SE=
200810190000 METAR MRLB 190000Z 33003KT 9999 FEW020 OVC140 27/24 A2984 RMK CB DST SE=
200810190100 METAR MRLB 190100Z 35003KT 99999 FEW020 BKN130 26/24 A2988=
200810190200 METAR MRLB NIL=
200810190300 METAR MRLB NIL=
200810190400 METAR MRLB NIL=
200810190500 METAR MRLB NIL=
200810190600 METAR MRLB NIL=
200810190700 METAR MRLB NIL=
200810190800 METAR MRLB NIL=
200810190900 METAR MRLB NIL=
200810191000 METAR MRLB NIL=
200810191100 METAR MRLB NIL=
200810191200 METAR MRLB 191200Z 00000KT 1500 BR SCT010 BKN120 24/23 A2987=
200810191300 METAR MRLB 191300Z 00000KT 9999 SCT030 BKN130 27/24 A2990=
200810191400 METAR MRLB 191400Z 32005KT 9999 SCT035 BKN130 27/24 A2991=
200810191500 METAR MRLB 191500Z 30003KR 9999 SCT035 BKN230 28/24 A2990=
200810191600 METAR MRLB 191600Z 32007KT 9999 SCT035 OVC240 28/24 A2990=
200810191700 METAR MRLB 191700Z 29007KT 9999 SCT035 BKN240 28/24 A2987=
200810191800 METAR MRLB 191800Z 30009KT 9999 FEW035 OVC240 29/24 A2986 RMK RN DST N=
200810191900 METAR MRLB 191900Z 29009KT 9999 SCT035 BKN240 28/24 A2984=
200810192000 METAR MRLB 192000Z 30008KT 9999 FEW035 OVC240 29/24 A2981=
200810192100 METAR MRLB 192100Z 29009KT 9999 SCT030 BKN230 27/24 A2980=
200810192200 METAR MRLB 192200Z 31009KT 9999 SCT035 OVC230 27/24 A2979 RMK RN DST E=
200810192300 METAR MRLB 192300Z 29007KT 9999 -RA SCT030 BKN140 26/24 A2982=
200810200000 METAR MRLB 200000Z 31006KT 9999 SCT035 BKN140 25/24 A2984=
200810200100 METAR MRLB 200100Z 32003KT 9999 SCT030 OVC140 25/24 A2986=
200810200200 METAR MRLB NIL=
200810200300 METAR MRLB NIL=
200810200400 METAR MRLB NIL=
200810200500 METAR MRLB NIL=
200810200600 METAR MRLB NIL=
200810200700 METAR MRLB NIL=
200810200800 METAR MRLB NIL=
200810200900 METAR MRLB NIL=
200810201000 METAR MRLB NIL=
200810201100 METAR MRLB NIL=
200810201200 METAR MRLB 201200Z 04004KT CAVOK 24/23 A2988 SCT250 TCU W NW=
200810201300 METAR MRLB 201300Z 33003KT CAVOK 27/24 A2989 RMK SCT250=
200810201400 METAR MRLB 201400Z 31005KT 9999 SCT025 BKN250 27/24 A2989=
200810201500 METAR MRLB 201500Z 30004KT 9999 SCT025 BKN250 28/24 A2990=
200810201600 METAR MRLB 281600Z 29004KT 9999 SCT025 BKN250 30/24 A2990=
200810201700 METAR MRLB 281700Z 29008KT 9999 SCT025 BKN240 31/24 A2987 RMK LINEA TCU DST NE S=
200810201800 METAR MRLB 201800Z 28008KT 9999 SCT025TCU BKN250 30/25 A2984 RMK TCU N E=
200810201900 METAR MRLB 201900Z 29006KT 9999 SCT025TCU BKN240 28/25 A2982 RMK RN DST SE S=
200810202000 METAR MRLB 202000Z 29008KT 9999 FEW025 SCT250 30/25 A2977 RMK TCU RN DST E S=
200810202100 METAR MRLB 202100Z 29010KT 9999 FEW030 SCT250 29/24 A2977 RMK TCU RN DST N E=
200810202200 METAR MRLB 202200Z 29008KT 9999 SCT020CB BKN180 27/24 A2978 RN DST NE E=
200810202300 METAR MRLB 202300Z 06007KT 9000 -TSRA FEW015CB SCT025 BKN140 24/23 A2982=
200810210000 METAR MRLB 210000Z 08005KT 9999 FEW020 SCT100 25/24 A2985 RERA RMK CB DST SW N=
200810210100 METAR MRLB NIL=
200810210200 METAR MRLB NIL=
200810210300 METAR MRLB NIL=
200810210400 METAR MRLB NIL=
200810210500 METAR MRLB NIL=
200810210600 METAR MRLB NIL=
200810210700 METAR MRLB NIL=
200810210800 METAR MRLB NIL=
200810210900 METAR MRLB NIL=
200810211000 METAR MRLB NIL=
200810211100 METAR MRLB NIL=
200810211200 METAR MRLB 211200Z 02002KT 3000 BR OVC130 23/23 A2987=
200810211300 METAR MRLB 211300Z 00000KT 9999 4000W BR OVC130 25/23 A2987 RMK CB DST SW=
200810211400 METAR MRLB 211400Z 04003KT 9999 FEW010 BKN250 27/24 A2987 FEW130 CB DST SW=
200810211500 METAR MRLB 211500Z 22003KT 9999 SCT020 BKN250 28/24 A2988=
200810211600 METAR MRLB 211600Z 29002KT 9999 SCT025 SCT250 29/24 A2988 RMK FEW120=
200810211700 METAR MRLB 211700Z 30004KT 9999 BKN030 SCT250 30/24 A2984 RMK LGT HZ ARND FEW140=
200810211800 METAR MRLB 211800Z 29006KT 9999 BKN020 30/25 A2982 RMK RN DST NE E=
200810211900 METAR MRLB NIL=
200810212000 METAR MRLB 212000Z 06006KT 5000 RA SCT020 SCT100 25/24 A2979 RMK VIS NW UNLTD=
200810212100 METAR MRLB 212100Z 32005KT 9999 SCT020 BKN100 25/24 A2978 RMK RN N NE S TS RA SW=
200810212200 METAR MRLB 212200Z 06002KT 9999 FEW020 BKN120 26/25 A2977=
200810212300 METAR MRLB 212300Z 03003KT 9999 SCT020 BKN120 25/25 A2979 RMK RN NE E CB SE=
200810220000 METAR MRLB 220000Z 00000KT 9999 FEW020 OVC120 25/25 A2981 RMK CB DST E SE=
200810220100 METAR MRLB 220100Z 00000KT 9999 FEW020 OVC120 25/24 A2983=
200810220200 METAR MRLB NIL=
200810220300 METAR MRLB NIL=
200810220400 METAR MRLB NIL=
200810220500 METAR MRLB NIL=
200810220600 METAR MRLB NIL=
200810220700 METAR MRLB NIL=
200810220800 METAR MRLB NIL=
200810220900 METAR MRLB NIL=
200810221000 METAR MRLB NIL=
200810221100 METAR MRLB NIL=
200810221200 METAR MRLB 221200Z 00000KT 0500 FG VV/// 23/23 A2985=
200810221300 METAR MRLB 221300Z 00000KT 0800 FG VV/// 24/23 A2986=
200810221400 METAR MRLB 221400Z 07002KT 9999 SCT030 BKN250 25/24 A2986=
200810221500 METAR MRLB 221500Z 00000KT 9999 SCT035 BKN250 27/24 A2986=
200810221600 METAR MRLB 221600Z 21002KT 9999 SCT035 BKN250 28/24 A2986=
200810221700 METAR MRLB 221700Z 35002KT 9999 FEW035 BKN250 30/24 A2984=
200810221800 METAR MRLB 221800Z 27004KT 9999 SCT035 BKN250 30/24 A2981 RMK TCU E=
200810221900 METAR MRLB 221900Z 30002KT 9999 FEW020TCU SCT035 BKN250 31/25 A2976 RN E NE=
200810222000 METAR MRLB 222000Z 08005KT 9999 -RA FEW015CB SCT025 BKN120 27/24 A2977=
200810222100 METAR MRLB 222100Z 32006KT 9999 VCSH SCT020 BKN120 26/24 A2976 VSBY S 7KM=
200810222200 METAR MRLB 222200Z 17002KT 9999 -RA SCT015 BKN110 25/24 A2977=
200810222300 METAR MRLB NIL=
200810230000 METAR MRLB 230000Z 05003KT 9999 FEW030 OVC120 25/24 A2981=
200810230100 METAR MRLB 230100Z 14003KT 9999 -RA SCT030 OVC120 25/24 A2984=
200810230200 METAR MRLB NIL=
200810230300 METAR MRLB NIL=
200810230400 METAR MRLB NIL=
200810230500 METAR MRLB NIL=
200810230600 METAR MRLB NIL=
200810230700 METAR MRLB NIL=
200810230800 METAR MRLB NIL=
200810230900 METAR MRLB NIL=
200810231000 METAR MRLB NIL=
200810231100 METAR MRLB NIL=
200810231200 METAR MRLB NIL=
200810231300 METAR MRLB 231300Z 00000KT 9999 FEW0165 BKN250 25/23 A2987 LOW ST ARND=
200810231400 METAR MRLB 231400Z 00000KT CAVOK 27/23 A2988 SCT250=
200810231500 METAR MRLB 231500Z 00000KT 9999 FEW030 SCT250 29/23 A2988=
200810231600 METAR MRLB 231600Z 22003KT 9999 SCT025 BKN250 30/24 A2988=
200810231700 METAR MRLB 231700Z 00000KT 9999 SCT025 BKN250 31/24 A2985=
200810231800 METAR MRLB 231800Z 23005KT 9999 SCT020 BKN250 31/25 A2982=
200810231900 METAR MRLB 231900Z 18004KT 9999 SCT020 BKN250 32/24 A2979=
200810232000 METAR MRLB 232000Z 30006KT 9999 SCT030 BKN250 31/25 A2976=
200810232100 METAR MRLB 232100Z 30006KT 9999 SCT030 BKN250 30/25 A2975=
200810232200 METAR MRLB 232200Z 30003KT 9999 -TSDZ FEW020CB SCT008 BKN220 27/26 A2977=
200810232300 METAR MRLB 232300Z 00000KT 9999 FEW015CB SCT100 BKN250 26/23 A2978 REDZ RMK CB RN S SW=
200810240000 METAR MRLB 240000Z 00000KT 9999 SCT025 SCT170 26/24 A2980 RMK LTNG DST S W=
200810240100 METAR MRLB 240100Z 00000KT 9999 FEW025 SCT150 25/24 A2982 RMK LTNG DST S=
200810240200 METAR MRLB NIL=
200810240300 METAR MRLB NIL=
200810240400 METAR MRLB NIL=
200810240500 METAR MRLB NIL=
200810240600 METAR MRLB NIL=
200810240700 METAR MRLB NIL=
200810240800 METAR MRLB NIL=
200810240900 METAR MRLB NIL=
200810241000 METAR MRLB NIL=
200810241100 METAR MRLB NIL=
200810241200 METAR MRLB 241200Z 00000KT 9999 FEW020 BKN250 24/23 A2987 RMK FEW130=
200810241300 METAR MRLB 241300Z 19002KT 9999 FEW020 OVC140 25/24 A2988 RMK CB DST N=
200810241400 METAR MRLB 241400Z 20002K 9999 SCT015 BKN130 26/24 A2989=
200810241500 METAR MRLB 241500Z 20002KT 9999 SCT020 BKN100 28/24 A2990=
200810241600 METAR MRLB 241600Z 21003KT 9999 SCT020 BKN220 29/24 A2988 RMK FEW100=
200810241700 METAR MRLB 241700Z 35003KT 9999 SCT025 BKN140 29/24 A2985=
200810241800 METAR MRLB 241800Z 31004KT 9999 SCT025 SCT110 30/23 A2982 RMK RN DST N=
200810241900 METAR MRLB 241900Z 22002KT 9999 BKN025 SCT130 30/24 A2981=
200810242000 METAR MRLB 242000Z 16004KT 9999 FEW025 BKN140 29/24 A2978 RMK RN DST SW=
200810242100 METAR MRLB 242100Z 12006KT 9999 FEW030 OVC120 30/23 A2976=
200810242200 METAR MRLB 242200Z 11008KT 9999 FEW030 OVC120 29/23 A2976 RMK CB DST SE S=
200810242300 METAR MRLB 242300Z 11007KT CAVOK 28/23 A2978 RMK OVC120 TRACE CU=
200810250000 METAR MRLB 250000Z 11006KT CAVOK 27/23 A2979 RMK OVC120=
200810250100 METAR MRLB 250100Z 13006KT CAVOK 26/23 A2982 RMK OVC120=
200810250200 METAR MRLB NIL=
200810250300 METAR MRLB NIL=
200810250400 METAR MRLB NIL=
200810250500 METAR MRLB NIL=
200810250600 METAR MRLB NIL=
200810250700 METAR MRLB NIL=
200810250800 METAR MRLB NIL=
200810250900 METAR MRLB NIL=
200810251000 METAR MRLB NIL=
200810251100 METAR MRLB NIL=
200810251200 METAR MRLB 251200Z 00000KT CAVOK 22/21 A2986 BKN250=
200810251300 METAR MRLB 251300Z 20002KT CAVOK 24/22 A2989 RMK BKN250=
200810251400 METAR MRLB 251400Z 19003KT CAVOK 26/23 A2991 RMK SCT250=
200810251500 METAR MRLB 251500Z 06003KT CAVOK 28/22 A2991 RMK SCT250=
200810251600 METAR MRLB 251600Z 35002KT 9999 FEW030 BKN250 30/23 A2990=
200810251700 METAR MRLB 251700Z 00000KT 9999 SCT035 BKN250 32/23 A2987=
200810251800 METAR MRLB 251800Z 13004KT 9999 SCT035 BKN250 32/23 A2984=
200810251900 METAR MRLB 251900Z 03007KT 9999 RA SCT025TCU OVC230 28/24 A2981=
200810252000 METAR MRLB 252000Z 30005KT 9999 SCT030 OVC230 28/24 A2979=
200810252100 METAR MRLB 252100Z 29005KT 9999 SCT035 OVC220 28/24 A2977=
200810252200 METAR MRLB 252200Z 29004KT 9999 FEW035 BKN140 28/24 A2977=
200810252300 METAR MRLB 252300Z 29005KT 9999 SCT035 OVC140 27/24 A2979=
200810260000 METAR MRLB 260000Z 28003KT 9999 SCT035 BKN140 26/24 A2982=
200810260100 METAR MRLB 260100Z 210002KT 9999 FEW035 BKN140 26/24 A2985=
200810260200 METAR MRLB NIL=
200810260300 METAR MRLB NIL=
200810260400 METAR MRLB NIL=
200810260500 METAR MRLB NIL=
200810260600 METAR MRLB NIL=
200810260700 METAR MRLB NIL=
200810260800 METAR MRLB NIL=
200810260900 METAR MRLB NIL=
200810261000 METAR MRLB NIL=
200810261100 METAR MRLB NIL=
200810261200 METAR MRLB 261200Z 00000KT 9000 FEW010 SCT025 BKN100 24/24 A2987=
200810261300 METAR MRLB 261300Z 16004KT 9999 DZ FEW012 SCT025 BKN140 25/24 A2990=
200810261400 METAR MRLB 261400Z 22005KT 9999 FEW010 SCT025 BKN250 25/24 A2989 REDZ=
200810261500 METAR MRLB 261500Z 30006KT 9999 -DZ SCT025 BKN270 25/24 A2991=
200810261600 METAR MRLB 261600Z 00000KT 9999 SCT020 BKN200 26/24 A2990=
200810261700 METAR MRLB 261700Z 10008KT 9999 FEW030 SCT250 28/23 A2988=
200810261800 METAR MRLB 261800Z 06010KT 9999 SCT020 BKN150 27/23 A2985=
200810261900 METAR MRLB 261900Z 08010KT 9999 FEW030 SCT250 31/23 A2980=
200810262000 METAR MRLB 262000Z 08008KT 9999 FEW025 SCT100 BKN250 30/22 A2977=
200810262100 METAR MRLB 262100Z 04009KT 9999 SCT035 BKN250 31/22 A2976=
200810262200 METAR MRLB 262200Z 08005KT 9999 FEW030 SCT250 31/23 A2976=
200810262300 METAR MRLB 262300Z 00000KT 9999 FEW035 SCT250 31/24 A2977=
200810270000 METAR MRLB 270000Z 00000KT 9999 FEW035 SCT250 27/24 A2981=
200810270100 METAR MRLB 270100Z 00000KT 9999 FEW030 SCT220 26/24 A2983=
200810270200 METAR MRLB NIL=
200810270300 METAR MRLB NIL=
200810270400 METAR MRLB NIL=
200810270500 METAR MRLB NIL=
200810270600 METAR MRLB NIL=
200810270700 METAR MRLB NIL=
200810270800 METAR MRLB NIL=
200810270900 METAR MRLB NIL=
200810271000 METAR MRLB NIL=
200810271100 METAR MRLB NIL=
200810271200 METAR MRLB 271200Z 00000KT 9999 FEW030 BKN250 23/22 A2990 RMK CB DST S FEW130=
200810271300 METAR MRLB 271300Z 36003KT 9999 FEW030 SCT250 26/23 A2991 RMK TRACE AC=
200810271400 METAR MRLB 271400Z 36004KT 9999 FEW035 27/23 A2991 RMK FEW130 FEW250=
200810271500 METAR MRLB 271500Z 03004KT 9999 FEW035 30/23 A2991 RMK FEW130 FEW250=
200810271600 METAR MRLB 271600Z 07014KT 9999 FEW035 SCT130 31/23 A2991 RMK RN NE FEW250=
200810271700 METAR MRLB 271700Z 08016KT 9999 FDEW035 SCT130 32/22 A2987 RMK RN NE FEW250=
200810271800 METAR MRLB 271800Z 08012KT 9999 FEW035 SCT120 33/23 A2986 RMK FEW250=
200810271900 METAR MRLB 271900Z 08013KT 9999 FEW030 BKN120 31/22 A2984 RMK RN NE=
200810272000 METAR MRLB 272000Z 07014KT 9999 SCT025 BKN100 29/22 A2982 RMK RN N NE S NW=
200810272100 METAR MRLB 272100Z 08012KT 9999 FEW035 BKN100 29/22 A2979 FEW250=
200810272200 METAR MRLB 272200Z 08010KT 9999 FEW035 BKN250 30/22 A2980 FEW140=
200810272300 METAR MRLB 272300Z 08009KT 9999 FEW035 OVC250 29/22N A2982 RN NE=
200810280000 METAR MRLB 280000Z 09009KT 9999 FEW030 OVC250 27/22 A2984 RN DST NE=
200810280100 METAR MRLB 280100Z 09011KT 9999 FEW035 BKN250 27/21 A2986=
200810280200 METAR MRLB NIL=
200810280300 METAR MRLB NIL=
200810280400 METAR MRLB NIL=
200810280500 METAR MRLB NIL=
200810280600 METAR MRLB NIL=
200810280700 METAR MRLB NIL=
200810280800 METAR MRLB NIL=
200810280900 METAR MRLB NIL=
200810281000 METAR MRLB NIL=
200810281100 METAR MRLB NIL=
200810281200 METAR MRLB 281200Z 00000KT 9999 FEW030 BKN250 24/21 A2989=
200810281300 METAR MRLB 281300Z 12004KT 9999 SCT035 SCT250 26/22 A2991=
200810281400 METAR MRLB 281400Z 06004KT 9999 FEW035 BKN250 28/22 A2992=
200810281500 METAR MRLB 281500Z 06007KT 9999 FEW035 BKN250 30/21 A2992=
200810281600 METAR MRLB 281600Z 08015KT 9999 FEW035 SCT250 30/20 A2992=
200810281700 METAR MRLB 281700Z 11018KT 9999 FEW035 SCT250 31/20 A2988=
200810281800 METAR MRLB 281800Z 10017KT 9999 SCT035 BKN250 30/20 A2985=
200810281900 METAR MRLB 281900Z 11015KT 9999 SCT035 BKN130 29/21 A2983 RN E=
200810282000 METAR MRLB 282000Z 09014KT 9999 FEW035 BKN130 29/21 A2983=
200810282100 METAR MRLB 282100Z 09013KT 9999 SCT035 OVC130 28/21 A2985=
200810282200 METAR MRLB 282200Z 11005KT 9999 FEW035 BKN140 29/22 A2985=
200810282300 METAR MRLB 282300Z 10002KT 9999 FEW035 BKN140 28/22 A2986=
200810290000 METAR MRLB 290000Z 06010KT 9999 SCT035 BKN130 27/21 A2988=
200810290100 METAR MRLB 290100Z 08005KT 9999 SCT030 BKN130 26/21 A2991=
200810290200 METAR MRLB NIL=
200810290300 METAR MRLB NIL=
200810290400 METAR MRLB NIL=
200810290500 METAR MRLB NIL=
200810290600 METAR MRLB NIL=
200810290700 METAR MRLB NIL=
200810290800 METAR MRLB NIL=
200810290900 METAR MRLB NIL=
200810291000 METAR MRLB NIL=
200810291100 METAR MRLB NIL=
200810291200 METAR MRLB 291200Z 11003KT 9999 -DZ FEW025 SCT100 24/22 A2990=
200810291300 METAR MRLB NIL=
200810291400 METAR MRLB 291400Z 10003KT 9999 FEW025 SCT100 BKN220 26/22 A2992=
200810291500 METAR MRLB NIL=
200810291600 METAR MRLB 291600Z 06018KT 9999 SCT025 BKN240 31/22 A2990=
200810291700 METAR MRLB 291700Z 08018KT 9999 SCT025 BKN250 30/21 A2987=
200810291800 METAR MRLB 291800Z 06019KT 9999 SCT025 BKN220 30/20 A2984=
200810291900 METAR MRLB 291900Z 06018KT 9999 FEW025 SCT100 BKN240 29/22 A2983=
200810292000 METAR MRLB 292000Z 07019KT 9999 SCT030 BKN220 30/21 A2980=
200810292100 METAR MRLB 292100Z 08015KT 9999 FEW030 BKN180 29/21 A2981=
200810292200 METAR MRLB 292200Z 07010KT 9999 FEW030 SCT180 28/21 A2982=
200810292300 METAR MRLB 292300Z 09006KT 9999 FEW025 SCT150 27/21 A2983=
200810300000 METAR MRLB 300000Z 08007KT 9999 FEW025 SCT150 26/21 A2986=
200810300100 METAR MRLB 300100Z 07006KT 9999 FEW030 SCT170 26/21 A2989=
200810300200 METAR MRLB NIL=
200810300300 METAR MRLB NIL=
200810300400 METAR MRLB NIL=
200810300500 METAR MRLB NIL=
200810300600 METAR MRLB NIL=
200810300700 METAR MRLB NIL=
200810300800 METAR MRLB NIL=
200810300900 METAR MRLB NIL=
200810301000 METAR MRLB NIL=
200810301100 METAR MRLB NIL=
200810301200 METAR MRLB 301200Z 34005KT 9999 BKN025 25/20 A2988 FEW250 CB E NE=
200810301300 METAR MRLB 301300Z 10007KT 9999 SCT030 SCT250 27/21 A2991 RMK RN DST N NE=
200810301400 METAR MRLB 301400Z 27006KT 9999 SCT030 SCT080 27/22 A2993 RMK RN DST N NE=
200810301500 METAR MRLB 301500Z 11005KT 9999 FEW030 SCT100 28/22 A2993 RMK FEW250 RN DST N NE=
200810301600 METAR MRLB 301600Z 03004KT 9999 SCT030 BKN100 28/23 A2993 RMK RN DST N NE=
200810301700 METAR MRLB 301700Z 36007KT 9999 SCT030 BKN100 28/23 A2991 RMK RN DST N NE=
200810301800 METAR MRLB 301800Z 01005KT 9999 SCT030 BKN100 28/23 A2989 RMK RN DST N NE E=
200810301900 METAR MRLB 301900Z 36004KT 9999 SCT030 BKN120 28/23 A2987 RERA RMK RN DST NE/E=
200810302000 METAR MRLB 302000Z 11011KT 9999 SCT030 BKN120 27/22 A2986 RMK RN DST N NW=
200810302100 METAR MRLB 302100Z 08013KT 9999 SCT030 BKN120 27/22 A2985=
200810302200 METAR MRLB 302200Z 08012KT 9999 FEW030 OVC120 27/22 A2985 RMK RN DST N=
200810302300 METAR MRLB 302300Z 08012KT 9999 FEW030 OVC12 27/21 A2985=
200810310000 METAR MRLB 310000Z 10010KT CAVOK 26/20 A2984 RMK OVC120=
200810310100 METAR MRLB 310100Z 07002KT CAVOK 25/22 A2987 OVC120=
200810310200 METAR MRLB NIL=
200810310300 METAR MRLB NIL=
200810310400 METAR MRLB NIL=
200810310500 METAR MRLB NIL=
200810310600 METAR MRLB NIL=
200810310700 METAR MRLB NIL=
200810310800 METAR MRLB NIL=
200810310900 METAR MRLB NIL=
200810311000 METAR MRLB NIL=
200810311100 METAR MRLB NIL=
200810311200 METAR MRLB 311200Z 20003KT 9999 -RA SCT020 OVC100 23/22 A2995=
200810311300 METAR MRLB 311300Z 28002KT 9999 DZ FEW030 OVC110 23/22 A2995=
200810311400 METAR MRLB 311400Z 31003KT 9999 FEW035 OVC120 24/23 A2994=
200810311500 METAR MRLB 311500Z 00000KT 9999 FEW035 BKN120 25/23 A2992=
200810311600 METAR MRLB 311600Z 12003KT 9999 FEW040 OVC120 26/24 A2991=
200810311700 METAR MRLB 311700Z 06012KT 9999 FEW040 BKN130 28/22 A2988=
200810311800 METAR MRLB 311800Z 08014KT 9999 FEW040 BKN140 28/21 A2987=
200810311900 METAR MRLB 311900Z 09010KT 9999 FEW035 BKN130 29/22 A2985=
200810312000 METAR MRLB 312000Z 08012KT 9999 FEW035 BKN130 28/21 A2984=
200810312100 METAR MRLB 312100Z 08013KT 9999 FEW035 BKN140 29/22 A2982=
200810312200 METAR MRLB 312200Z 09013KT 9999 SCT035 OVC130 28/21 A2984=
200810312300 METAR MRLB 312300Z 08012KT 9999 SCT035 BKN130 27/21 A2985=
200811010000 METAR MRLB 010000Z 06007KT 9999 SCT035 BKN140 27/21 A2986=
200811010100 METAR MRLB 010100Z 12008KT 9999 SCT035 BKN130 26/21 A2987=
200811010200 METAR MRLB NIL=
200811010300 METAR MRLB NIL=
200811010400 METAR MRLB NIL=
200811010500 METAR MRLB NIL=
200811010600 METAR MRLB NIL=
200811010700 METAR MRLB NIL=
200811010800 METAR MRLB NIL=
200811010900 METAR MRLB NIL=
200811011000 METAR MRLB NIL=
200811011100 METAR MRLB NIL=
200811011200 METAR MRLB 011200Z 17004KT 9999 SCT030 BKN130 23/22 A2989=
200811011300 METAR MRLB 011300Z 18003KT 9999 FEW035 BKN140 24/22 A2991=
200811011400 METAR MRLB 011400Z 17002KT 9999 FEW035 BKN140 26/23 A2992=
200811011500 METAR MRLB 011500Z 19003KT 9999 FEW035 BKN140 28/23 A2993=
200811011600 METAR MRLB 011600Z 26004KT 9999 SCT035 OVC140 29/23 A2992=
200811011700 METAR MRLB 011700Z 26005KT 9999 FEW035 OVC140 29/23 A2990=
200811011800 METAR MRLB 011800Z 28004KT 9999 SCT035 BKN140 29/23 A2986=
200811011900 METAR MRLB 011900Z 35009KT 9999 FEW035 BKN140 29/23 A2984=
200811012000 METAR MRLB 012000Z 03006KT 9999 SCT035 OVC130 29/23 A2982=
200811012100 METAR MRLB 012100Z 34006KT 9999 FEW035 OVC130 28/23 A2980=
200811012200 METAR MRLB 012200Z 18003KT 9999 FEW035 OVC130 28/23 A2981=
200811012300 METAR MRLB 012300Z 20006KT 9999 FEW035 OVC130 27/23 A2982=
200811020000 METAR MRLB 020000Z 25004KT 9999 SCT035 BKN120 26/23 A2985=
200811020100 METAR MRLB NIL=
200811020200 METAR MRLB NIL=
200811020300 METAR MRLB NIL=
200811020400 METAR MRLB NIL=
200811020500 METAR MRLB NIL=
200811020600 METAR MRLB NIL=
200811020700 METAR MRLB NIL=
200811020800 METAR MRLB NIL=
200811020900 METAR MRLB NIL=
200811021000 METAR MRLB NIL=
200811021100 METAR MRLB NIL=
200811021200 METAR MRLB 021200Z 18002KT CAVOK 23/22 A2984 RMK OVC130=
200811021300 METAR MRLB 021300Z 26012KT CAVOK 23/22 A2986 BKN130=
200811021400 METAR MRLB 021400Z 20004KT CAVOK 24/22 A2988 BKN130 SCT250=
200811021500 METAR MRLB 021500Z 22003KT CAVOK 26/23 A2990 BKN120 TRACE CU=
200811021600 METAR MRLB 021600Z 27004KT CAVOK 28/23 A2990 BKN130 TRACE CU=
200811021700 METAR MRLB 021700Z 23004KT 9999 FEW035 BKN130 30/23 A2987=
200811021800 METAR MRLB 021800Z 13006KT 9999 FEW035 SCT140 30/22 A2984 FEW250=
200811021900 METAR MRLB 021900Z 05006KT 9999 SCT035 31/21 A2982 FEW140=
200811022000 METAR MRLB 022000Z 06006KT 9999 SCT035 SCT140 32/20 A2978=
200811022100 METAR MRLB 022100Z 12006KT 9999 SCT035 SCT140 32/21 A2997=
200811022200 METAR MRLB 022200Z 21003KT 9999 SCT035 30/22 A2978 RMK FEW140=
200811022300 METAR MRLB 022300Z 21005KT 9999 FEW040 29/22 A2979 RMK FEW250=
200811030000 METAR MRLB NIL=
200811030100 METAR MRLB NIL=
200811030200 METAR MRLB NIL=
200811030300 METAR MRLB NIL=
200811030400 METAR MRLB NIL=
200811030500 METAR MRLB NIL=
200811030600 METAR MRLB NIL=
200811030700 METAR MRLB NIL=
200811030800 METAR MRLB NIL=
200811030900 METAR MRLB NIL=
200811031000 METAR MRLB NIL=
200811031100 METAR MRLB NIL=
200811031200 METAR MRLB 031200Z 24005KT CAVOK 22/20 A2984 RMK SCT250=
200811031300 METAR MRLB 031300Z 24002KT CAVOK 24/21 A2987 RMK BKN250=
200811031400 METAR MRLB 031400Z 17003KT 9999 FEW035 SCT250 26/22 A2989=
200811031500 METAR MRLB 031500Z 22002KT 9999 FEW035 SCT250 28/22 A2990=
200811031600 METAR MRLB 031600Z 26005KT 9999 FEW035 SCT250 29/21 A2989=
200811031700 METAR MRLB 031700Z 23005KT 9999 FEW035 SCT250 30/21 A2987=
200811031800 METAR MRLB 031800Z 17004KT 9999 FEW035 BKN250 31/22 A2984=
200811031900 METAR MRLB 031900Z 13011KT 9999 SCT035 BKN250 31/22 A2981=
200811032000 METAR MRLB 032000Z 09008KT 9999 SCT035 SCT250 31/21 A2979=
200811032100 METAR MRLB 032100Z 13004KT 9999 FEW035 BKN250 31/21 A2978=
200811032200 METAR MRLB 032200Z 12004KT 9999 FEW040 BKN250 30/22 A2978=
200811032300 METAR MRLB 032300Z 18002KT 9999 FEW040 OVC250 29/22 A2980=
200811040000 METAR MRLB 040000Z 00000KT 9999 FEW035 BKN250 27/22 A2981=
200811040100 METAR MRLB 040100Z 13003KT 9999 SCT035 BKN250 26/22 A2984=
200811040200 METAR MRLB 040200Z 00000KT 9999 SCT035 BN230 25/22 A2987=
200811040300 METAR MRLB NIL=
200811040400 METAR MRLB NIL=
200811040500 METAR MRLB NIL=
200811040600 METAR MRLB NIL=
200811040700 METAR MRLB NIL=
200811040800 METAR MRLB NIL=
200811040900 METAR MRLB NIL=
200811041000 METAR MRLB NIL=
200811041100 METAR MRLB NIL=
200811041200 METAR MRLB 041200Z NIL=
200811041300 METAR MRLB 041300Z 18005KT CAVOK 25/21 A2986 RMK FEW250=
200811041400 METAR MRLB 041400Z 16007KT CAVOK 27/21 A2988 RMK SCT250=
200811041500 METAR MRLB 041500Z 22009KT CAVOK 29/21 A2990 RMK SCT250=
200811041600 METAR MRLB 041600Z 25007KT 9999 FEW030 SCT250 29/21 A2989=
200811041700 METAR MRLB 041700Z 29007KT 9999 FEW025 SCT250 30/21 A2987=
200811041800 METAR MRLB 041800Z 17005KT 9999 SCT025 BKN250 31/20 A2984=
200811041900 METAR MRLB 041900Z 18006KT 9999 SCT025 BKN240 30/21 A2981=
200811042000 METAR MRLB 042000Z 20004KT 9999 SCT030 BKN250 30/22 A2980=
200811042100 METAR MRLB 042100Z 28007KT 9999 FEW030 SCT100 BKN220 29/23 A2979=
200811042200 METAR MRLB 042200Z 26004KT 9999 FEW030 SCT100 BKN220 28/23 A2979=
200811042300 METAR MRLB 042300Z 00000KT 9999 FEW025 SCT100 BKN240 27/23 A2982=
200811050000 METAR MRLB 050000Z 00000KT 9999 FEW025 SC100 BKN220 26/23 A2984=
200811050100 METAR MRLB NIL=
200811050200 METAR MRLB NIL=
200811050300 METAR MRLB NIL=
200811050400 METAR MRLB NIL=
200811050500 METAR MRLB NIL=
200811050600 METAR MRLB NIL=
200811050700 METAR MRLB NIL=
200811050800 METAR MRLB NIL=
200811050900 METAR MRLB NIL=
200811051000 METAR MRLB NIL=
200811051100 METAR MRLB NIL=
200811051200 METAR MRLB 051200Z 07003KT CAVOK 23/22 A2986 RMK BKN120=
200811051300 METAR MRLB 051300Z 10003KT CAVOK 25/23 A2989 RMK BKN120=
200811051400 METAR MRLB 051400Z 14005KT 9999 FEW025 BKN120 26/23 A2990=
200811051500 METAR MRLB 051500Z 10004KT 9999 FEW030 BKN120 27/23 A2990=
200811051600 METAR MRLB 051600Z 15004KT 9999 SCT030 SCT130 28/23 A2991=
200811051700 METAR MRLB 051700Z 17005KT 9999 BKN030 SCT130 30/23 A2989 RMK RN DST N=
200811051800 METAR MRLB 051800Z 20005KT 9999 BKN025 SCT120 30/23 A2986 RMK RN DST N NE NW=
200811051900 METAR MRLB 051900Z 34008KT 5000 RA SCT020 BKN100 25/24 A2984 RMK VIS N UNL=
200811052000 METAR MRLB 052000Z 00000KT 9999 -RA FEW020 OVC100 25/24 A2981=
200811052100 METAR MRLB 052100Z 00000KT 9999 -RA FEW020 OVC100 25/25 A2980=
200811052200 METAR MRLB 052200Z 00000KT 9999 SCT015 BKN100 25/25 A2981 RERA=
200811052300 METAR MRLB 052300Z 15003KT 9999 SCT010 BKN100 25/24 A2982=
200811060000 METAR MRLB 060000Z 17004KT 9999 SCT010 BKN100 24/24 A2983 RMK LOW SCT DST W=
200811060100 METAR MRLB 060100Z 14003KT 9999 SCT010 BKN100 24/24 A2985=
200811060200 METAR MRLB 060200Z 14002KT 9999 SCT015 BKN100 24/24 A2987=
200811060300 METAR MRLB NIL=
200811060400 METAR MRLB NIL=
200811060500 METAR MRLB NIL=
200811060600 METAR MRLB NIL=
200811060700 METAR MRLB NIL=
200811060800 METAR MRLB NIL=
200811060900 METAR MRLB NIL=
200811061000 METAR MRLB NIL=
200811061100 METAR MRLB NIL=
200811061200 METAR MRLB 061200Z 13002KT 9999 FEW030 BKN120 23/23 A2986=
200811061300 METAR MRLB 061300Z 15002KT 9999 SCT030 BKN120 24/23 A2988 RMK ST LOW SW=
200811061400 METAR MRLB 061400Z 17003KT 9999 SCT035 BKN240 26/24 A2989=
200811061500 METAR MRLB 061500Z 15004KT 9999 SCT035 BKN240 27/23 A2990=
200811061600 METAR MRLB 061600Z 15005KT 9999 SCT035 SCT250 28/24 A2990=
200811061700 METAR MRLB 061700Z 16006KT 9999 SCT035 BKN250 29/24 A2987=
200811061800 METAR MRLB 061800Z 15005KT 9999 SCT035 BKN250 29/24 A2985=
200811061900 METAR MRLB 061900Z 21003KT 9999 FEW020TCU SCT035 BKN250 31/24 A2982=
200811062000 METAR MRLB 062000Z 25009KT 9999 FEW020TCU SCT030 OVC240 28/23 A2979 RMK RN S NE=
200811062100 METAR MRLB 062100Z 25007KT 9999 FEW020TCU SCT030 BKN140 27/24 A2979 RN E S=
200811062200 METAR MRLB 062200Z 26008KT 9999 SCT025 BKN130 27/24 A2980 RN E SW=
200811062300 METAR MRLB 062300Z 27003KT 9999 SCT025 BKN120 26/24 A2981 RN NE E/=
200811070000 METAR MRLB 070000Z 17002KT 9999 -RA SCT020 OVC120 25/24 A2983=
200811070100 METAR MRLB 070100Z 06003KT 8000 RA SCT020 OVC100 25/24 A2985=
200811070200 METAR MRLB NIL=
200811070300 METAR MRLB NIL=
200811070400 METAR MRLB NIL=
200811070500 METAR MRLB NIL=
200811070600 METAR MRLB NIL=
200811070700 METAR MRLB NIL=
200811070800 METAR MRLB NIL=
200811070900 METAR MRLB NIL=
200811071000 METAR MRLB NIL=
200811071100 METAR MRLB NIL=
200811071200 METAR MRLB 071200Z 00000KT 3000 1000E BR FEW001 SCT010 24/23 A2985=
200811071300 METAR MRLB 071300Z 00000KT 9999 FEW010 SCT025 BKN120 24/23 A2987=
200811071400 METAR MRLB 071400Z 15004KT 9999 FEW015 SCT025 BKN180 26/24 A2989=
200811071500 METAR MRLB 071500Z 15004KT 9999 SCT025 BKN200 27/24 A2990=
200811071600 METAR MRLB 071600Z 20003KT 9999 SCT020 BKN200 29/24 A2990=
200811071700 METAR MRLB 071700Z 00000KT 9999 SCT025 BKN220 29/24 A2987=
200811071800 METAR MRLB 071800Z 00000KT 9999 SCT025TCU BKN240 30/24 A2984=
200811071900 METAR MRLB 071900Z 30010KT 9999 SCT020TCU BKN200 29/24 A2980 RN N S SW=
200811072000 METAR MRLB 072000Z 21008KT 4000 RA SCT018 BKN100 25/24 A2979=
200811072100 METAR MRLB 072100Z 23005KT 9999 FEW025 SCT100 BKN240 26/24 A2977 RERA=
200811072200 METAR MRLB 072200Z 28004KT 9999 FEW030 SCT220 26/25 A2978=
200811072300 METAR MRLB 072300Z 00000KT 9999 SCT030 BKN220 27/25 A2978=
200811080000 METAR MRLB 080000Z 00000KT 9999 SCT035 BKN250 26/25 A2980=
200811080200 METAR MRLB NIL=
200811080300 METAR MRLB NIL=
200811080400 METAR MRLB NIL=
200811080500 METAR MRLB NIL=
200811080600 METAR MRLB NIL=
200811080700 METAR MRLB NIL=
200811080800 METAR MRLB NIL=
200811080900 METAR MRLB NIL=
200811081000 METAR MRLB NIL=
200811081100 METAR MRLB NIL=
200811081200 METAR MRLB 081200Z 00000KT 3000 BR OVC120 24/23 A2984=
200811081300 METAR MRLB 081300Z 00000KT 6000 VCFG FEW004 BKN120 25/24 A2986=
200811081400 METAR MRLB 081400Z 19002KT 9999 SCT008 SCT120 26/24 A2989=
200811081500 METAR MRLB 081500Z 16004KT 9999 SCT015 SCT130 27/25 A2990 RMK TCU DST SE SW=
200811081600 METAR MRLB 081600Z 27003KT 9999 SCT020 27/24 A2989 RMK FEW140=
200811081700 METAR MRLB 081700Z 28008KT 9999 BKN025 28/24 A2987=
200811081800 METAR MRLB 081800Z 27007KT 9999 SCT030 30/25 A2982 RMK RN DST N NE=
200811081900 METAR MRLB 081900Z 27009KT 9999 SCT025 30/25 A2979 RMK FEW250 RN DST N TS RN DST NE=
200811082000 METAR MRLB 082000Z 03008KT 9999 -TS VCSH FEW012 SCT020 28/24 A2978 RMK VIS E 7000=
200811082100 METAR MRLB 082100Z 35008KT 9999 -RA SCT020 BKN100 26/24 A2978 RMK TS DST NW=
200811082200 METAR MRLB 082200Z 02002KT 9999 FEW020 OVC120 26/24 A2978 RERA RMK CB DST SE=
200811082300 METAR MRLB 082300Z 09003KT 9999 FEW020 OVC120 25/24 A2979 RMK HZ ARND=
200811090000 METAR MRLB 090000Z 15003KT 9999 FEW010 OVC120 27/23 A2982=
200811090100 METAR MRLB 090100Z 17003KT 9999 -RA FEW010 OVC120 24/23 A2984=
200811090200 METAR MRLB NIL=
200811090300 METAR MRLB NIL=
200811090500 METAR MRLB NIL=
200811090600 METAR MRLB NIL=
200811090800 METAR MRLB NIL=
200811090900 METAR MRLB NIL=
200811091000 METAR MRLB NIL=
200811091100 METAR MRLB NIL=
200811091200 METAR MRLB 091200Z 13002KT 0500 FG FEW003 BKN250 23/23 A2981 VSBY NE UNL=
200811091300 METAR MRLB 091300Z 00000KT 0800 FG SCT003 SCT250 24/23 A2982=
200811091400 METAR MRLB 091400Z 20004KT 9999 3000SE BRFEW004 FEW008 SCT250 24/23 A2985=
200811091500 METAR MRLB 091500Z 00000KT 9999 SCT015 SCT250 26/24 A2987 RMK FEW130=
200811091600 METAR MRLB 091600Z 00000KT 9999 FEW020 BKN100 28/25 A2987 RMK FEW250=
200811091700 METAR MRLB 091700Z 13005KT 9999 FEW025 BKN100 29/24 A2984 RMK FEW250 RN DST E=
200811091800 METAR MRLB 091800Z 09010KT 9999 FEW030 BKN250 31/23 A2981 RMK FEW120=
200811091900 METAR MRLB 091900Z 10012KT 9999 SCT035 SCT250 30/23 A2978 RMK FEW120 TCU DST NW=
200811092000 METAR MRLB 092000Z 11009KT 9999 FEW035 SCT120 29/23 A2976 RMK FEW250 TCU DST NW=
200811092100 METAR MRLB 092100Z 12007KT 9999 FEW035 BKN120 30/23 A2976 RMK FEW250 TCU DST NW CB DST SSW=
200811092200 METAR MRLB 092200Z 12008KT 9999 SCT040 BKN120 27/22 A2976=
200811092300 METAR MRLB 092300Z 27004KT 9999 BKN040 SCT120 27/23 A2977=
200811100000 METAR MRLB 100000Z 26003KT 9999 FEW040 BKN120 26/23 A2979=
200811100100 METAR MRLB NIL=
200811100200 METAR MRLB 100200Z 18004KT CAVOK 25/23 A2985 RMK BKN120 SCT250=
200811100300 METAR MRLB NIL=
200811100400 METAR MRLB NIL=
200811100500 METAR MRLB NIL=
200811100600 METAR MRLB NIL=
200811100700 METAR MRLB NIL=
200811100800 METAR MRLB NIL=
200811100900 METAR MRLB NIL=
200811101000 METAR MRLB NIL=
200811101100 METAR MRLB NIL=
200811101200 METAR MRLB 101200Z 08003KT 9999 FEW030 SCT250 22/21 A2983 RMK HZ ARND=
200811101300 METAR MRLB 101300Z 00000KT CAVOK 24/22 A2986 SCT250=
200811101400 METAR MRLB 101400Z 00000KT CAVOK 25/23 A2987 RMK SCT250=
200811101500 METAR MRLB 101500Z 25008KT CAVOK 28/23 A2988 RMK SCT250=
200811101600 METAR MRLB 101600Z 31006KT CAVOK 29/22 A2987 RMK SCT250=
200811101700 METAR MRLB 101700Z 12007KT CAVOK 31/22 A2985 SCT250=
200811101800 METAR MRLB 101800Z 08005KT 9999 FEW035 SCT250 31/23 A2983=
200811101900 METAR MRLB 101900Z 01005KT 9999 FEW030 SCT250 31/23 A2980=
200811102000 METAR MRLB 102000Z 09012KT CAVOK 31/20 A2976 RMK SCT250=
200811102100 METAR MRLB 102100Z 09014KT CAVOK 31/20 A2975 RMK SCT250=
200811102200 METAR MRLB 102200Z 10006KT CAVOK 31/20 A2975 RMK SCT250=
200811102300 METAR MRLB 102300Z 00000KT CAVOK 30/22 A2975 RMK SCT250=
200811110000 METAR MRLB 110000Z 23004KT CAVOK 27/22 A2976 RMK SCT250=
200811110100 METAR MRLB 110100Z 00000KT CAVOK 26/23 A2978 RMK SCT250=
200811110200 METAR MRLB NIL=
200811110300 METAR MRLB NIL=
200811110400 METAR MRLB NIL=
200811110500 METAR MRLB NIL=
200811110600 METAR MRLB NIL=
200811110700 METAR MRLB NIL=
200811110800 METAR MRLB NIL=
200811110900 METAR MRLB NIL=
200811111000 METAR MRLB NIL=
200811111100 METAR MRLB NIL=
200811111200 METAR MRLB 111200Z 20004KT CAVOK 21/21 A2983 RMK FEW250=
200811111300 METAR MRLB 111300Z 19002KT CAVOK 23/22 A2985 FEW250=
200811111400 METAR MRLB 111400Z 21004KT CAVOK 25/23 A2986 FEW250=
200811111500 METAR MRLB 111500Z 30004KT 9999 SKC 27/23 A2987=
200811111600 METAR MRLB NIL=
200811111700 METAR MRLB NIL=
200811111900 METAR MRLB 111900Z 30007KT 9999 SCT040 32/23 A2977=
200811112000 METAR MRLB 112000Z 32005KT 9999 SCT035 31/23 A2975=
200811112100 METAR MRLB 112100Z 10008KT 9999 FEW035 32/22 A2973=
200811112200 METAR MRLB 112200Z 11008KT 9999 FEW040 31/22 A2972=
200811112300 METAR MRLB 112300Z 04005KT 9999 FEW040 30/22 A2974=
200811120000 METAR MRLB 120000Z 00000KT 9999 SCT040 28/23 A2975=
200811120100 METAR MRLB 120100Z 00000KT 9999 SCT040 SCT130 27/23 A2978=
200811120200 METAR MRLB 120200Z 10005KT 9999 FEW040 BKN130 27/22 A2980=
200811120300 METAR MRLB NIL=
200811120400 METAR MRLB NIL=
200811120500 METAR MRLB NIL=
200811120600 METAR MRLB NIL=
200811120700 METAR MRLB NIL=
200811120800 METAR MRLB NIL=
200811120900 METAR MRLB NIL=
200811121000 METAR MRLB NIL=
200811121100 METAR MRLB NIL=
200811121200 METAR MRLB 121200Z 00000KT CAVOK 22/21 A2979 RMK SCT250=
200811121300 METAR MRLB 121300Z 00000KT CAVOK 24/22 A2980 RMK SCT250=
200811121400 METAR MRLB 121400Z 29004KT 9999 FEW010 BKN090 25/23 A2985 REDZ RMK FEW110 RN DST NW N NE S=
200811121500 METAR MRLB 121500Z 16003KT 9999 FEW035 SCT250 28/23 A2983=
200811121600 METAR MRLB 121600Z 20005KT 9999 FEW035 SCT250 29/23 A2982=
200811121700 METAR MRLB 121700Z 32006KT 9999 SCT035 SCT130 30/23 A2980=
200811121800 METAR MRLB 121800Z 28003KT 9999 SCT035 SCT130 31/23 A2977=
200811121900 METAR MRLB 121900Z 24003KT 9999 SCT035 SCT130 32/23 A2975=
200811122000 METAR MRLB 122000Z 12005KT 9999 SCT035 BKN130 31/23 A2973=
200811122100 METAR MRLB 122100Z 26004KT 9999 SCT035 BKN130 30/24 A2970=
200811122200 METAR MRLB NIL=
200811122300 METAR MRLB 122300Z 18003KT 9999 SCT035 BKN130 29/24 A2973 RN E NE=
200811130000 METAR MRLB 130000Z 34004KT 9999 DZ SCT030 OVC120 26/24 A2976=
200811130100 METAR MRLB 130100Z 00000KT 9999 FEW030 BKN130 26/24 A2979=
200811130200 METAR MRLB 130200Z 36002KT 9999 FEW035 BKN140 25/24 A2980=
200811130300 METAR MRLB NIL=
200811130400 METAR MRLB NIL=
200811130500 METAR MRLB NIL=
200811131300 METAR MRLB 131300Z 00000KT 9999 FEW025 24/23 A2979 RMK BR ARND=
200811131400 METAR MRLB 131400Z 30004KT 9999 FEW012 25/24 A2981=
200811131500 METAR MRLB 131500Z 27004KT CAVOK 26/24 A2982 RMK SCT250=
200811131600 METAR MRLB 131600Z 31005KT CAVOK 29/24 A2982 RMK SCT250=
200811131700 METAR MRLB 131700Z 29004KT CAVOK 31/23 A2980 RMK SCT250=
200811131800 METAR MRLB 131800Z 10010KT CAVOK 32/20 A2977 RMK SCT250=
200811131900 METAR MRLB 131900Z 10009KT CAVOK 32/19 A2975 RMK SCT250=
200811132000 METAR MRLB 132000Z 09008KT 9999 FEW030 SCT250 32/20 A2973=
200811132100 METAR MRLB 132100Z 10008KT 9999 FEW035 SCT250 32/20 A2972=
200811132200 METAR MRLB 132200Z 28003KT 9999 FEW035 SCT250 31/22 A2973=
200811132300 METAR MRLB 132300Z 31003KT CAVOK 28/23 A2974 RMK SCT250=
200811140000 METAR MRLB 140000Z 28003KT CAVOK 26/23 A2976 RMK SCT250=
200811140100 METAR MRLB 140100Z 00000KT CAVOK 26/23 A2978 RMK SCT250=
200811140200 METAR MRLB NIL=
200811140300 METAR MRLB NIL=
200811140400 METAR MRLB NIL=
200811140500 METAR MRLB NIL=
200811140600 METAR MRLB NIL=
200811140700 METAR MRLB NIL=
200811140800 METAR MRLB NIL=
200811140900 METAR MRLB NIL=
200811141000 METAR MRLB NIL=
200811141100 METAR MRLB NIL=
200811141200 METAR MRLB 141200Z 06003KT CAVOK 22/21 A2979 BKN140 FG BANK W=
200811141300 METAR MRLB 141300Z 15003KT CAVOK 22/22 A2981 RMK FEW160 BKN250=
200811141400 METAR MRLB 141400Z 21003KT 9999 FEW008 BKN250 23/23 A2982 RMK FEW160=
200811141500 METAR MRLB 141500Z 18004KT 9999 FEW015 BKN250 25/23 A2984 RMK FEW160=
200811141600 METAR MRLB 141600Z 18003KT 9999 FEW025 SCT160 BKN250 26/23 A2983=
200811141700 METAR MRLB 141700Z 18002KT 9999 FEW035 BKN250 28/23 A2982=
200811141800 METAR MRLB 141800Z 12002KT 9999 FEW035 BKN130 31/23 A2982=
200811141900 METAR MRLB 141900Z 31003KT 9999 FEW035 OVC250 30/23 A2976=
200811142000 METAR MRLB 142000Z 34002KT 9999 FEW035 OVC250 30/23 A2973 RMK CB DST ENE=
200811142100 METAR MRLB 142100Z 31002KT 9999 FEW035 BKN250 31/23 A2971=
200811142200 METAR MRLB 142200Z 12003KT 9999 SCTR035 SCT250 31/23 A2971=
200811142300 METAR MRLB 142300Z 29004KT 9999 FEW040 BKN250 29/24 A2972=
200811150000 METAR MRLB NIL=
200811150100 METAR MRLB NIL=
200811150200 METAR MRLB NIL=
200811150300 METAR MRLB NIL=
200811150400 METAR MRLB NIL=
200811150500 METAR MRLB NIL=
200811150600 METAR MRLB NIL=
200811150700 METAR MRLB NIL=
200811150800 METAR MRLB NIL=
200811150900 METAR MRLB NIL=
200811151000 METAR MRLB NIL=
200811151100 METAR MRLB NIL=
200811151200 METAR MRLB 151200Z 00000KT CAVOK 22/21 A2980 RMK SCT250=
200811151300 METAR MRLB 151300Z 00000KT CAVOK 24/22 A2981 RMK BKN250=
200811151400 METAR MRLB 151400Z 26002KT CAVOK 26/23 A2983 RMK BKN250=
200811151500 METAR MRLB 151500Z 25004KT 9999 FEW035 SCT250 28/23 A2984=
200811151600 METAR MRLB 151600Z 19003KT 9999 FEW035 SCT250 30/24 A2984=
200811151700 METAR MRLB 151700Z 14003KT 9999 FEW035 SCT260 31/23 A2981=
200811151800 METAR MRLB 151800Z 29002KT 9999 FEW035 BKN250 32/23 A2978=
200811151900 METAR MRLB 151900Z 08005KT 9999 SCT035 SCT250 32/22 A2976=
200811152000 METAR MRLB 152000Z 30004KT 9999 SCT035 BKN250 31/24 A2973=
200811152100 METAR MRLB 152100Z 26005KT 9999 SCT035 BKN250 31/24 A2971=
200811152200 METAR MRLB 152200Z 35005KT 9999 FEW035 BKN250 30/23 A2972=
200811152300 METAR MRLB 152300Z 10005KT 9999 FEW035 BKN250 29/22 A2973=
200811160000 METAR MRLB 160000Z 08005KT 9999 FEW035 OVC250 28/22 A2977=
200811160100 METAR MRLB 160100Z 13004KT 9999 FEW035 BKN240 26/21 A2979=
200811160200 METAR MRLB 160200Z 06005KT 9999 FEW035 BKN240 25/22 A2983=
200811160300 METAR MRLB NIL=
200811160400 METAR MRLB NIL=
200811160500 METAR MRLB NIL=
200811160600 METAR MRLB NIL=
200811160700 METAR MRLB NIL=
200811160800 METAR MRLB NIL=
200811160900 METAR MRLB NIL=
200811161000 METAR MRLB NIL=
200811161100 METAR MRLB NIL=
200811161200 METAR MRLB 161200Z NIL=
200811161300 METAR MRLB 161300Z 11003KT 9999 SCT030 BKN250 23/22 A2986=
200811161400 METAR MRLB 161400Z 00000KT 9999 FEW030 BKN250 25/22 A2988=
200811161500 METAR MRLB 161500Z 15004KT 9999 FEW025 BKN250 26/23 A2990=
200811161600 METAR MRLB 161600Z 10010KT 9999 FEW025 BKN250 30/23 A2989=
200811161700 METAR MRLB 161700Z 06007KT 9999 SCT030 BKN250 30/22 A2987=
200811161800 METAR MRLB 161800Z 03007KT 9999 SCT030 BKN220 30/23 A2984=
200811161900 METAR MRLB 161900Z 09010KT 9999 SCT035 BKN220 29/22 A2982=
200811162000 METAR MRLB 162000Z 11006KT 9999 SCT035 BKN220 30/22 A2980=
200811162100 METAR MRLB 162100Z 11010KT 9999 -RA SCT025 BKN150 26/22 A2979=
200811162200 METAR MRLB 162200Z 10005KT 9999 SCT040 BKN200 26/23 A2978 RERA=
200811162300 METAR MRLB 162300Z 14003KT 9999 FEW035 SCT120 BKN240 26/23 A2980=
200811170000 METAR MRLB 170000Z 24003KT 9999 FEW030 SCT140 25/23 A2982=
200811170100 METAR MRLB 170100Z 00000KT 9999 FEW030 SCT150 25/23 A2984=
200811170200 METAR MRLB NIL=
200811170300 METAR MRLB NIL=
200811170400 METAR MRLB NIL=
200811170500 METAR MRLB NIL=
200811170600 METAR MRLB NIL=
200811170700 METAR MRLB NIL=
200811170800 METAR MRLB NIL=
200811170900 METAR MRLB NIL=
200811171000 METAR MRLB NIL=
200811171100 METAR MRLB NIL=
200811171200 METAR MRLB 171200Z 16003KT 9999 SCT030 22/22 A2986 RMK RN DST NE=
200811171300 METAR MRLB 171300Z 00000KT 9999 SCT030 24/23 A2989 RN NE=
200811171400 METAR MRLB 171400Z 26004KT 9999 SCT035 26/24 A2990 RN N NE=
200811171500 METAR MRLB 171500Z 27004KT 9999 SCT035 27/23 A2991 RN N NE FEW100=
200811171600 METAR MRLB 171600Z 26005KT 9999 SCT035 29/23 A2989 RN N FEW120=
200811171700 METAR MRLB 171700Z 26006KT 9999 SCT035 30/24 A2988 RN N NE FEW120=
200811171800 METAR MRLB 171800Z 27004KT 999 SCT030 SCT120 30/23 A2985 RN N NE E S SW=
200811171900 METAR MRLB 171900Z 33006KT 9999 FEW025 BKN100 29/24 A2983 RERA RN NE E S SW=
200811172000 METAR MRLB 172000Z 27005KT 9999 3000E -RA SCT020 BKN100 29/23 A2981=
200811172100 METAR MRLB 172100Z 08004KT 9999 -RA FEW020 OVC100 25/24 A2981=
200811172200 METAR MRLB 172200Z 00000KT 9999 FEW020 OVC120 26/24 A2980 RERA RMK RN DST N E S=
200811172300 METAR MRLB 172300Z 19002KT 9999 SCT020 BKN120 26/24 A2981 RMK RN DST N NE E=
200811180000 METAR MRLB 180000Z 27004KT 9999 SCT020 BKN120 26/25 A2982 RMK RN DST N NE E=
200811180100 METAR MRLB 180100Z 15002KT 9999 SCT020 BKN120 25/24 A2985=
200811180200 METAR MRLB NIL=
200811180300 METAR MRLB NIL=
200811180400 METAR MRLB NIL=
200811180500 METAR MRLB NIL=
200811180600 METAR MRLB NIL=
200811180700 METAR MRLB NIL=
200811180800 METAR MRLB NIL=
200811180900 METAR MRLB NIL=
200811181000 METAR MRLB NIL=
200811181100 METAR MRLB NIL=
200811181200 METAR MRLB 181200Z 18005KT 9999 SCT030 BKN240 23/21 A2981=
200811181300 METAR MRLB 181300Z 23005KT 9999 SCT035 BKN240 25/23 A2984=
200811181400 METAR MRLB 181400Z 22007KT 9999 SCT035 SCT130 27/22 A2985=
200811181500 METAR MRLB 181500Z 19007KT 9999 SCT035 BKN130 28/22 A2986=
200811181600 METAR MRLB 181600Z 26010KT 9999 FEW035 BKN130 28/22 A2985=
200811181700 METAR MRLB 181700Z 20006KT 9999 FEW035 BKN130 29/22 A2984=
200811181800 METAR MRLB 181800Z 22006KT 9999 SCT035 BKN130 30/22 A2982=
200811181900 METAR MRLB 181900Z 27006KT 9999 SCT035 OVC130 30/21 A2980=
200811182000 METAR MRLB 182000Z 20006KT 9999 FEW035 BKN130 31/22 A2978=
200811182100 METAR MRLB 182100Z 07003KT 9999 SCT035 OVC140 29/21 A2978=
200811182200 METAR MRLB 182200Z 22006KT 9999 FEW035 OVC140 28/22 A2978=
200811182300 METAR MRLB 182300Z 26007KT 9999 SCT035 OVC140 26/21 A2979=
200811190000 METAR MRLB 190000Z 17005KT 9999 FEW035 BKN140 26/21 A2980=
200811190100 METAR MRLB 190100Z 24006KT 9999 FEW035 BKN140 24/21 A2983=
200811190200 METAR MRLB 190200Z 18006KT 9999 FEW035 BKN130 23/20 A2985=
200811190300 METAR MRLB NIL=
200811190400 METAR MRLB NIL=
200811190500 METAR MRLB NIL=
200811190600 METAR MRLB NIL=
200811190700 METAR MRLB NIL=
200811190800 METAR MRLB NIL=
200811190900 METAR MRLB NIL=
200811191000 METAR MRLB NIL=
200811191100 METAR MRLB NIL=
200811191200 METAR MRLB 191200Z 10004KT 9999 FEW025 SCT100 BKN240 23/22 A2983=
200811191300 METAR MRLB 191300Z 18005KT 9999 FEW025 SCT100 BKN220 24/20 A2986=
200811191400 METAR MRLB 191400Z 22006KT 9999 FEW030 SCT120 BKN250 25/21 A2988=
200811191500 METAR MRLB 191500Z 19009KT 9999 FEW030 SCT150 BKN250 27/20 A2987=
200811191600 METAR MRLB 191600Z 24010KT CAVOK 29/20 A2986 RMK SCT140 BKN250=
200811191700 METAR MRLB 191700Z 23009KT CAVOK 30/19 A2984 RMK SCT150 BKN250=
200811191800 METAR MRLB 191800Z 24010KT CAVOK 30/19 A2980 RMK SCT170 BKN250=
200811191900 METAR MRLB 191900Z 25013KT CAVOK 30/19 A2977 RMK SCT250=
200811192000 METAR MRLB 192000Z 25009KT CAVOK 30/19 A2976 RMK SCT180 BKN250=
200811192100 METAR MRLB 192100Z 31006KT CAVOK 29/19 A2975 RMK SCT140 BKN250=
200811192200 METAR MRLB 192200Z 24006KT CAVOK 29/20 A2976 RMK SCT150 BKN250=
200811192300 METAR MRLB 192300Z 25008KT CAVOK 27/1 A2977 RMK FEW120 BKN250=
200811200000 METAR MRLB 200000Z 21007KT CAVOK 26/19 A2078 RMK FEW140 SCT250=
200811200100 METAR MRLB 200100Z 25006KT CAVOK 25/20 A2980 RMK FEW200=
200811200200 METAR MRLB NIL=
200811200300 METAR MRLB NIL=
200811200400 METAR MRLB NIL=
200811200500 METAR MRLB NIL=
200811200600 METAR MRLB NIL=
200811200700 METAR MRLB NIL=
200811200800 METAR MRLB NIL=
200811200900 METAR MRLB NIL=
200811201000 METAR MRLB NIL=
200811201100 METAR MRLB NIL=
200811201200 METAR MRLB 201200Z 00000KT CAVOK 20/18 A2983 RMK SCT120 BKN250=
200811201300 METAR MRLB 201300Z 18002KT CAVOK 21/19 A2985 RMK SCT120 BKN250=
200811201400 METAR MRLB 201400Z 23004KT CAVOK 23/19 A2986 RMK FEW130 BKN250=
200811201500 METAR MRLB 201500Z 27010KT CAVOK 27/17 A2987 RMK FEW130 SCT250=
200811201600 METAR MRLB 201600Z 27005KT CAVOK 28/17 A2986 RMK FEW130 SCT250=
200811201700 METAR MRLB 201700Z 28007KT CAVOK 29/18 A2984 RMK SCT130 SCT250=
200811201800 METAR MRLB 201800Z 30010KT CAVOK 29/18 A2982=
200811201900 METAR MRLB 201900Z 23006KT CAVOK 30/17 A2979 RMK BKN130 SCT250=
200811202000 METAR MRLB 202000Z 27006KT CAVOK 30/18 A2977 RMK BKN120 FEW250=
200811202100 METAR MRLB 202100Z 25007KT CAVOK 30/18 A2977 RMK OVC120=
200811202200 METAR MRLB 202200Z 28006KT CAVOK 28/18 A2977 RMK OVC100=
200811202300 METAR MRLB NIL=
200811210000 METAR MRLB 210000Z 17005KT CAVOK 25/19 A2980 RMK OVC100=
200811210100 METAR MRLB 210100Z 20002KT CAVOK 24/19 A2982 RMK OVC100=
200811210200 METAR MRLB NIL=
200811210300 METAR MRLB NIL=
200811210400 METAR MRLB NIL=
200811210500 METAR MRLB NIL=
200811210600 METAR MRLB NIL=
200811210700 METAR MRLB NIL=
200811210800 METAR MRLB NIL=
200811210900 METAR MRLB NIL=
200811211000 METAR MRLB NIL=
200811211100 METAR MRLB NIL=
200811211200 METAR MRLB 211200Z 16003KT 9999 FEW030 BKN130 21/18 A2995=
200811211300 METAR MRLB 211300Z 22002KT 9999 FEW035 OVC130 22/19 A2987=
200811211400 METAR MRLB 211400Z 20004KT 9999 FEW035 OVC130 24/19 A2989=
200811211500 METAR MRLB 211500Z 22006KT 9999 FEW035 BKN130 25/19 A2990=
200811211600 METAR MRLB 211600Z 23005KT 9999 SCT035 BKN140 27/19 A2990=
200811211700 METAR MRLB 211700Z 17009KT 9999 FEW035 BKN140 28/19 A2989=
200811211800 METAR MRLB 211800Z 36008KT 9999 FEW035 BKN140 29/19 A2987=
200811211900 METAR MRLB 211900Z 09012KT 9999 FEW035 BKN140 29/20 A2984=
200811212000 METAR MRLB 212000Z 08011KT 9999 FEW035 BKN140 28/19 A2982=
200811212100 METAR MRLB 212100Z 07012KT 999 FEW035 BKN140 29/19 A2980=
200811212200 METAR MRLB 212200Z 08011KT 9999 FEW035 SCT140 BKN250 28/19 A2980=
200811212300 METAR MRLB 212300Z 07004KT 9999 SCT035 BKN130 27/20 A2985=
200811220000 METAR MRLB 220000Z 07010KT 9999 SCT035 BKN130 25/20 A2986=
200811220100 METAR MRLB 220100Z 14002KT 9999 SCT035 BKN130 25/19 A2989=
200811220200 METAR MRLB NIL=
200811220300 METAR MRLB NIL=
200811220400 METAR MRLB NIL=
200811220500 METAR MRLB NIL=
200811220600 METAR MRLB NIL=
200811220700 METAR MRLB NIL=
200811220800 METAR MRLB NIL=
200811220900 METAR MRLB NIL=
200811221000 METAR MRLB NIL=
200811221100 METAR MRLB NIL=
200811221200 METAR MRLB 221200Z 21006KT 9999 FEW030 BKN140 22/19 A2987 RMK DZ DST N=
200811221300 METAR MRLB 221300Z 15006KT 9999 FEW030 SCT150 BKN220 23/22 A2987 DZ=
200811221400 METAR MRLB 221400Z 20004KT 9999 FEW025 SCT150 BKN250 26/20 A2989=
200811221500 METAR MRLB 221500Z 22008KT 9999 FEW025 SCT140 BKN250 28/20 A2991=
200811221600 METAR MRLB 221600Z 19010KT 9999 FEW025 SCT150 BKN250 28/19 A2988=
200811221700 METAR MRLB 221700Z 30006KT 9999 FEW025 SCT150 BKN250 29/20 A2987 DZ N NE=
200811221800 METAR MRLB 221800Z 30005KT 9999 FEW030 SCT140 BKN250 29/20 A2984=
200811221900 METAR MRLB 221900Z 28008KT 9999 FEW025 SCT120 BKN250 29/20 A2981 DZ N=
200811222000 METAR MRLB 222000Z 28008KT 9999 FEW025 SCT120 BKN250 29/20 A2981 DZ N=
200811222100 METAR MRLB NIL=
200811222200 METAR MRLB 222200Z 28009KT 9999 FEW030 SCT120 BKN220 27/21 A2978=
200811222300 METAR MRLB 222300Z 01004KT 9999 SCT030 BKN200 27/20 A2979=
200811230000 METAR MRLB 230000Z 31006KT 9999 SCT025 BKN170 26/21 A2982=
200811230100 METAR MRLB 230100Z 39995KT 9999 SCT025 BKN180 25/21 A2984=
200811230200 METAR MRLB NIL=
200811230300 METAR MRLB NIL=
200811230400 METAR MRLB NIL=
200811230500 METAR MRLB NIL=
200811230600 METAR MRLB NIL=
200811230700 METAR MRLB NIL=
200811230800 METAR MRLB NIL=
200811230900 METAR MRLB NIL=
200811231000 METAR MRLB NIL=
200811231100 METAR MRLB NIL=
200811231200 METAR MRLB 231200Z 23006KT 9999 SCT030 BKN120 23/20 A2981 RMK RN NE=
200811231300 METAR MRLB 231300Z 22006KT 9999 SCT030 BKN120 24/21 A2983 RMK RN DST N E=
200811231400 METAR MRLB 231400Z 29003KT 9999 FEW030 OVC120 27/20 A2985 RMK RN DST E=
200811231500 METAR MRLB 231500Z 04011G21KT 9999 FEW030 BKN120 29/21 A2987 RMK RN DST N NE FEW250=
200811231600 METAR MRLB 231600Z 08011KT 9999 FEW030 BKN120 28/21 A2986 RMK RN DST N NE E=
200811231700 METAR MRLB 231700Z 07016KT 9999 FEW035 BKN120 30/20 A2982 RMK RN DST N=
200811231800 METAR MRLB 231800Z 06014KT 9999 FEW035 SCT120 31/20 A2980=
200811231900 METAR MRLB 231900Z 30004KT 9999 SCT035 SCT120 31/21 A2977=
200811232000 METAR MRLB 232000Z 29009KT 9999 FEW035 BKN120 30/21 A2975=
200811232100 METAR MRLB 232100Z 36003KT 9999 FEW035 OVC120 30/20 A2974=
200811232200 METAR MRLB 232200Z 01003KT 9999 FEW035 OVC120 29/20 A2976=
200811232300 METAR MRLB 232300Z 36003KT 9999 FEW035 OVC120 28/20 A2977=
200811240000 METAR MRLB 240000Z 13002KT 9999 FEW030 OVC100 27/22 A2979=
200811240100 METAR MRLB 240100Z 00000KT 9999 FEW030 OVC100 26/21 A2980=
200811240200 METAR MRLB NIL=
200811240300 METAR MRLB NIL=
200811240400 METAR MRLB NIL=
200811240500 METAR MRLB NIL=
200811240600 METAR MRLB NIL=
200811240700 METAR MRLB NIL=
200811240800 METAR MRLB NIL=
200811240900 METAR MRLB NIL=
200811241000 METAR MRLB NIL=
200811241100 METAR MRLB NIL=
200811241200 METAR MRLB 241200Z 03009KT 9999 SCT030 BKN120 26/20 A2979=
200811241300 METAR MRLB 241300Z 03008KT 9999 SCT030 OVC120 26/20 A2982 RMK RN DST N=
200811241400 METAR MRLB 241400Z 03012KT 9999 SCT035 OVC120 26/21 A2983=
200811241500 METAR MRLB 241500Z 02010KT 9999 FEW035 BKN130 27/21 A2985=
200811241600 METAR MRLB 241600Z 03015KT 9999 FEW035 BKN130 28/22 A2984 RMK RN DST N=
200811241700 METAR MRLB 241700Z 02014KT 9999 SCT035 OVC130 27/21 A2984 RMK RN DST NE=
200811241800 METAR MRLB 241800Z 02017KT 9999 SCT035 OVC130 27/21 A2981 RMK RN DST N NE=
200811241900 METAR MRLB 241900Z 35012KT 9999 FEW035 OVC130 26/21 A2978 RMK RN DST NE=
200811242000 METAR MRLB 242000Z 02016KT 9999 SCT035 BKN130 27/22 A2975=
200811242100 METAR MRLB 242100Z 36013KT 9999 FEW040 OVC130 27/21 A2974 RMK RN DST N=
200811242200 METAR MRLB 242200Z 35012KT 9999 DZ SCT030 OVC120 25/22 A2975=
200811242300 METAR MRLB 242300Z 34009KT 9999 SCT030 OVC110 24/22 A2976 RMK RND DST NE=
200811242355 METAR MRLB 250000Z 35009KT 9999 FEW035 BKN110 25/22 A2977=
200811250000 METAR MRLB 250000Z 35009KT 9999 FEW035 BKN110 25/22 A2977=
200811250100 METAR MRLB NIL=
200811250200 METAR MRLB 250200Z 02013KT 9999 SCT035 BKN120 25/21 A2983=
200811250300 METAR MRLB NIL=
200811250400 METAR MRLB NIL=
200811250500 METAR MRLB NIL=
200811250600 METAR MRLB NIL=
200811250700 METAR MRLB NIL=
200811250800 METAR MRLB NIL=
200811250900 METAR MRLB NIL=
200811251000 METAR MRLB NIL=
200811251100 METAR MRLB NIL=
200811251200 METAR MRLB 251200Z 01007KT 9999 FEW035 SCT120 BKN250 24/21 A2980=
200811251300 METAR MRLB 251300Z 02003KT 9999 FEW035 SCT120 25/21 A2983 RMK FEW250 RN DST N NE=
200811251400 METAR MRLB 251400Z 01008KT 9999 FEW030 SCT120 26/22 A2986 RMK FEW250 RN DST N NE=
200811251500 METAR MRLB 251500Z 01012KT 9999 FEW030 SCT120 28/22 A2987 RMK RN DST N NE=
200811251600 METAR MRLB 251600Z 36014KT 9999 FEW030 SCT120 28/24 A2987 RMK RN DST N NE VEL MAX WIND 21 KNOTS=
200811251700 METAR MRLB 251700Z 01014KT 9999 BKN025 SCT120 28/23 A2986 RMK RN DST N NE=
200811251800 METAR MRLB 251800Z 01015KT 9999 SCT030 SCT120 29/23 A2983 RN DST N NE VEL MAX WIND 20 KTS=
200811251900 METAR MRLB 251900Z 01016KT 9999 SCT030 BKN250 29/23 A2981 RMK FEW130 RN DST N NE=
200811252000 METAR MRLB 252000Z 01012KT 9999 FEW030 SCT130 28/22 A2977 RMK SCT250 RN NE=
200811252100 METAR MRLB 252100Z 36012KT 9999 FEW030 SCT130 29/22 A2975 RMK SCT250=
200811252200 METAR MRLB 252200Z 35009KT 9999 SCT035 SCT130 28/22 A2975 RMK FEW250=
200811252300 METAR MRLB 252300Z 01010KT 9999 SCT030 SCT250 27/22 A2978 RMK FEW130 RN N=
200811260000 METAR MRLB 260000Z 36008KT 9999 BKN025 SCT120 26/22 A2988 RMK RN N NE E=
200811260100 METAR MRLB 260100Z 00000KT 9999 SCT030 BKN120 26/22 A2983=
200811260200 METAR MRLB 260200Z 01004KT 9999 SCT030 SCT120 26/21 A2986=
200811260300 METAR MRLB NIL=
200811260400 METAR MRLB NIL=
200811260500 METAR MRLB NIL=
200811260600 METAR MRLB NIL=
200811260700 METAR MRLB NIL=
200811260800 METAR MRLB NIL=
200811260900 METAR MRLB NIL=
200811261000 METAR MRLB NIL=
200811261100 METAR MRLB NIL=
200811261200 METAR MRLB 261200Z 03013KT 9999 SCT030 BKN120 24/20 A2987 RMK RN DST N NE=
200811261300 METAR MRLB 261300Z 01010KT 9999 SCT030 BKN250 25/19 A2990 RMK FEW120 RN N NE=
200811261400 METAR MRLB 261400Z 07008KT 9999 SCT030 BKN250 26/19 A2992 RMK RN N NE=
200811261500 METAR MRLB 261500Z 03008KT 9999 SCT030 SCT120 28/20 A2993 RMK RN N NE=
200811261600 METAR MRLB 261600Z 01008KT 9999 FEW030 BKN120 28/20 A293 RMK RN NE E=
200811261700 METAR MRLB 261700Z 01009KT 9999 FEW035 BKN120 29/20 A2991 RMK RN NE=
200811261800 METAR MRLB 261800Z 01008KT 9999 FEW035 BKN120 29/18 A2990 RMK RN NE=
200811261900 METAR MRLB 261900Z 36007KT 9999 FEW035 BKN120 30/20 A2988 RMK RN NE=
200811262000 METAR MRLB 262000Z 32004KT 9999 FEW035 BKN120 29/19 A2985 RMK RN NE=
200811262100 METAR MRLB 262100Z 27007KT 9999 FEW035 BKN120 29/19 A2983 RN NE=
200811262200 METAR MRLB 262200Z 22005KT 9999 FEW035 BKN120 29/19 A2984 RN NE=
200811262300 METAR MRLB 262300Z 13004KT 9999 FEW040 SCT130 27/20 A2984=
200811270000 METAR MRLB 270000Z 13004KT 9999 FEW040 SCT130 26/20 A2986=
200811270100 METAR MRLB 270100Z 23004KT CAVOK 24/21 A2987 FEW130=
200811270200 METAR MRLB NIL=
200811270300 METAR MRLB NIL=
200811270400 METAR MRLB NIL=
200811270500 METAR MRLB NIL=
200811270600 METAR MRLB NIL=
200811270700 METAR MRLB NIL=
200811270800 METAR MRLB NIL=
200811270900 METAR MRLB NIL=
200811271000 METAR MRLB NIL=
200811271100 METAR MRLB NIL=
200811271200 METAR MRLB 271200Z 09002KT 9999 FEW030 BKN130 21/19 A2991=
200811271300 METAR MRLB 271300Z 36004KT 9999 FEW035 BKN130 22/20 A2993=
200811271400 METAR MRLB 271400Z 23005KT 9999 FEW035 SCT130 24/20 A2994=
200811271500 METAR MRLB 271500Z 19005KT 9999 FEW035 BKN130 26/20 A2995=
200811271600 METAR MRLB 271600Z 26005KT 9999 FEW035 SCT130 BKN250 28/19 A2994=
200811271700 METAR MRLB 271700Z 27003KT 9999 FEW035 BKN250 30/20 A2992=
200811271800 METAR MRLB 271800Z 07011KT 9999 FEW035 32/19 A2987=
200811271900 METAR MRLB 271900Z 34003KT 9999 FEW035 SCT250 32/20 A2987=
200811272000 METAR MRLB 272000Z 10013KT 9999 FEW035 BKN250 31/20 A2985=
200811272100 METAR MRLB 272100Z 09010KT 9999 FEW035 BKN240 31/21 A2982=
200811272200 METAR MRLB 272200Z 08006KT CAVOK 30/21 A2982 RMK SCT250=
200811272300 METAR MRLB 272300Z 03002KT CAVOK 29/22 A2982 RMK BKN240=
200811280000 METAR MRLB 280000Z 13004KT CAVOK 26/20 A2984 RMK BKN240=
200811280100 METAR MRLB 280100Z 25005KT CAVOK 24/21 A2986=
200811280200 METAR MRLB 280200Z 15004KT CAVOK 24/21 A2990 RMK BKN240=
200811280300 METAR MRLB NIL=
200811280400 METAR MRLB NIL=
200811280500 METAR MRLB NIL=
200811280600 METAR MRLB NIL=
200811280700 METAR MRLB NIL=
200811280800 METAR MRLB NIL=
200811280900 METAR MRLB NIL=
200811281000 METAR MRLB NIL=
200811281100 METAR MRLB NIL=
200811281200 METAR MRLB 281200Z 17004KT CAVOK 19/19 A2987 RMK TRACE SC FEW140 FEW250=
200811281300 METAR MRLB 281300Z 20003KT CAVOK 21/20 A2987 RMK TRACE SC FEW250=
200811281400 METAR MRLB 281400Z 23002KT CAVOK 24/21 A2989 RMK SCT250=
200811281500 METAR MRLB 281500Z 31004KT CAVOK 27/22 A2990 RMK SCT250=
200811281600 METAR MRLB 281600Z 32003KT CAVOK 29/21 A2989 RMK TRACE SC SCT250=
200811281700 METAR MRLB 281700Z 12006KT CAVOK 31/20 A2987 RMK TRACE SC SCT250=
200811281800 METAR MRLB 281800Z 11008KT CAVOK 32/21 A2984 RMK FEW250=
200811281900 METAR MRLB 281900Z 10010KT CAVOK 32/21 A2980 RMK TRACE CU FEW250=
200811282000 METAR MRLB 282000Z 10011KT CAVOK 32/21 A2978 RMK BKN250 TRACE CU=
200811282100 METAR MRLB 282100Z 09009KT CAVOK 31/21 A2976 RMK FEW140 FEW250=
200811282200 METAR MRLB 282200Z 09008KT CAVOK 30/21 A2976 RMK FEW140 FEW250=
200811282300 METAR MRLB 282300Z 11005KT CAVOK 29/22 A2978 RMK FEW130 BKN250=
200811290000 METAR MRLB 290000Z 10008KT CAVOK 27/21 A2979 RMK FEW130 BKN250=
200811290100 METAR MRLB 290100Z 04005KT CAVOK 26/21 A2983 RMK SCT130 BKN250=
200811290200 METAR MRLB 290200Z 09003KT CAVOK 26/21 A2985 RMK SCT130 SCT250=
200811290300 METAR MRLB NIL=
200811290400 METAR MRLB NIL=
200811290500 METAR MRLB NIL=
200811290600 METAR MRLB NIL=
200811290700 METAR MRLB NIL=
200811290800 METAR MRLB NIL=
200811290900 METAR MRLB NIL=
200811291000 METAR MRLB NIL=
200811291100 METAR MRLB NIL=
200811291200 METAR MRLB 291200Z 21003KT CAVOK 21/20 A2981 SCT250=
200811291300 METAR MRLB 291300Z 19006KT CAVOK 23/22 A2983 RMK SCT250=
200811291400 METAR MRLB 291400Z 17003KT CAVOK 25/23 A2986 RMK SCT250 TRACE SC=
200811291500 METAR MRLB 291500Z 24002KT 9999 FEW035 SCT250 27/23 A2987=
200811291600 METAR MRLB 291600Z 07002KT 9999 SCT035 BKN130 29/23 A2987=
200811291700 METAR MRLB 291700Z 05004KT 9999 SCT030 BKN100 30/23 A2984=
200811291800 METAR MRLB 291800Z 10004KT 9999 FEW030 OVC100 30/23 A2981=
200811291900 METAR MRLB 291900Z 12005KT 9999 FEW035 BKN250 31/23 A2978=
200811292000 METAR MRLB 292000Z 10005KT 9999 SCT035 BKN250 31/23 A2976 RMK FEW100=
200811292100 METAR MRLB 292100Z 17003KT 9999 BKN035 SCT100 30/23 A2974 RMK RN DST S=
200811292200 METAR MRLB 292200Z 27005KT 9999 BKN030 SCT100 28/23 A2975 RMK RN DST SE S=
200811292300 METAR MRLB 292300Z 31002KT 9999 BKN025 SCT100 26/24 A2976 RMK RERA RN DS N NE=
200811292349 METAR MRLB 300000Z 06002KT 9999 -RA OVC020 26/24 A2978=
200811300000 METAR MRLB 300000Z 06002KT 9999 -RA OVC020 26/24 A2978=
200811300100 METAR MRLB 300100Z 16002KT 9999 OVC025 25/24 A2981=
200811300200 METAR MRLB NIL=
200811300300 METAR MRLB NIL=
200811300400 METAR MRLB NIL=
200811300500 METAR MRLB NIL=
200811300600 METAR MRLB NIL=
200811300700 METAR MRLB NIL=
200811300800 METAR MRLB NIL=
200811300900 METAR MRLB NIL=
200811301000 METAR MRLB NIL=
200811301100 METAR MRLB NIL=
200811301200 METAR MRLB 301200Z 12002KT 9999 DZ SCT015 OVC120 24/23 A2983=
200811301300 METAR MRLB NIL=
200811301400 METAR MRLB 301400Z 11002KT 9999 DZ SCT025 OVC100 24/23 A2987=
200811301500 METAR MRLB 301500Z 12003KT 9999 SCT030 OVC120 25/24 A2988 RMK RN DST N=
200811301600 METAR MRLB 301600Z 15003KT 9999 SCT025 OVC110 25/24 A2989=
200811301700 METAR MRLB 301700Z 15002KT 9999 SCT030 OVC110 25/24 A2988 RMK RN DST S=
200811301800 METAR MRLB 301800Z 13003KT 1500 RA BR FEW008 BKN025 24/24 A2988=
200811301900 METAR MRLB 301900Z 13002KT 7000 -RA SCT020 OVC100 24/23 A2985=
200811302000 METAR MRLB 302000Z 28004KT 2500 RA BR FEW008 BKN020 23/23 A2984=
200811302100 METAR MRLB 302100Z 27002KT 3000 RA SCT015 OVC090 24/23 A2982=
200811302200 METAR MRLB 302200Z 29002KT 9999 SCT015 OVC100 24/23 A2983 RERA RMK RN E=
200811302300 METAR MRLB 302300Z 28003KT 9999 FEW015 BKN030 24/24 A2983=
200812010000 METAR MRLB 010000Z 00000KT 9999 SCT030 OVC100 24/23 A2985 RMK RN DST S=
200812010100 METAR MRLB 010100Z 12002KT 9999 SCT025 OVC110 24/23 A2986=
200812010200 METAR MRLB 010200Z 02003KT 9999 SCT030 OVC110 24/23 A2987=
200812010300 METAR MRLB NIL=
200812010400 METAR MRLB NIL=
200812010500 METAR MRLB NIL=
200812010600 METAR MRLB NIL=
200812010700 METAR MRLB NIL=
200812010800 METAR MRLB NIL=
200812010900 METAR MRLB NIL=
200812011000 METAR MRLB NIL=
200812011100 METAR MRLB NIL=
200812011200 METAR MRLB 011200Z 00000KT 0500 FG SCT006 23/23 A2992=
200812011300 METAR MRLB 011300Z 00000KT 9000 BR FEW005 SCT020 23/23 SCT130 VIS N NW 5000MTS=
200812011400 METAR MRLB 011400Z 15003KT 9999 FEW005 SCT020 24/23 A2998 RMK SCT130=
200812011500 METAR MRLB 011500Z 20002KT 9999 SCT008 SCT015 24/23 A2999=
200812011600 METAR MRLB 011600Z 20002KT 9999 FEW010 BKN025 25/24 A2999 RMK FEW130=
200812011700 METAR MRLB 011700Z 25004KT 9999 SCT020 BKN130 27/24 A2998=
200812011800 METAR MRLB 011800Z 27008KT 9999 -RA BKN025 SCT130 28/23 A2995 RMK VIS NE 7000=
200812011900 METAR MRLB 011900Z 30006KT 9999 SCT025 BKN120 27/23 A2993 RERA RMK RN S=
200812012000 METAR MRLB 012000Z 28008KT 9999 SCT025 BKN120 28/23 A2991 RMK RN S HZ LEVE ARND=
200812012100 METAR MRLB 012100Z 30006KT 9999 FEW030 BKN120 27/23 A2990 HZY=
200812012200 METAR MRLB 012200Z 29005KT 9999 DZ SCT040 BKN120 27/23 A2990 HZY=
200812012300 METAR MRLB 012300Z 27004KT 9999 SCT040 BKN120 26/24 A2990 REDZ HZY=
200812020000 METAR MRLB 020000Z 27003KT 9999 FEW040 BKN120 26/24 A2992 LW ST SW=
200812020100 METAR MRLB 020100Z 24002KT 9999 SCT035 BKN120 25/24 A2994=
200812020200 METAR MRLB 020200Z 30002KT 9999 SCT035 BKN120 25/24 A2996=
200812020300 METAR MRLB NIL=
200812020400 METAR MRLB NIL=
200812020500 METAR MRLB NIL=
200812020600 METAR MRLB NIL=
200812020700 METAR MRLB NIL=
200812020800 METAR MRLB NIL=
200812020900 METAR MRLB NIL=
200812021000 METAR MRLB NIL=
200812021100 METAR MRLB NIL=
200812021200 METAR MRLB 021200Z 21005KT 9999 FEW035 OVC080 23/23 A2997=
200812021300 METAR MRLB 021300Z 21005KT 9999 -RA FEW035 OVC080 24/23 A2997=
200812021400 METAR MRLB 021400Z 20005KT 9999 FEW035 OVC120 25/24 A2998 RERA RN N=
200812021500 METAR MRLB 021500Z 23005KT 9999 FEW035 BKN120 27/3 A2999=
200812021600 METAR MRLB 021600Z 21004KT 9999 FEW035 BKN120 29/22 A2997=
200812021700 METAR MRLB 021700Z 19004KT 9999 FEW035 BKN120 30/22 A2994=
200812021800 METAR MRLB 021800Z 21006KT 9999 FEW035 BKN120 31/22 A2991 RN N NE=
200812021900 METAR MRLB 021900Z 06004KT 9999 SCT035 SCT120 30/21 A2988 RN N NE=
200812022000 METAR MRLB 022000Z 34014KT 9999 FEW040 30/20 A2986 RN NE FEW130 FEW250=
200812022100 METAR MRLB 022100Z 35013KT 9999 FEW045 BKN130 30/19 30/19 A2985 RMK RN DST NE=
200812022200 METAR MRLB 022200Z 34005KT 9999 FEW035 BKN100 29/19 A2986 RMK RN DST NE=
200812022300 METAR MRLB 022300Z 33009KT 9999 FEW035 SCT120 28/20 A2984 RMK RN DST N NE=
200812030000 METAR MRLB 030000Z 14003KT 9999 FEW035 26/20 A2986 RMK FEW120 RN DST N NE=
200812030100 METAR MRLB NIL=
200812030200 METAR MRLB NIL=
200812030300 METAR MRLB NIL=
200812030400 METAR MRLB NIL=
200812030500 METAR MRLB NIL=
200812030600 METAR MRLB NIL=
200812030700 METAR MRLB NIL=
200812030800 METAR MRLB NIL=
200812030900 METAR MRLB NIL=
200812031000 METAR MRLB NIL=
200812031100 METAR MRLB NIL=
200812031200 METAR MRLB 031200Z 20004KT 9999 FEW030 BKN130 22/20 A2987=
200812031300 METAR MRLB 031300Z 28004KT 9999 FEW035 BKN130 24/20 A2988=
200812031400 METAR MRLB 031400Z 22004KT 9999 FEW035 BKN130 26/21 A2991=
200812031500 METAR MRLB 031500Z 27008KT 9999 FEW035 BKN130 28/21 A2990=
200812031600 METAR MRLB 031600Z 26007KT 9999 FEW035 SCT140 28/21 A2991=
200812031700 METAR MRLB 031700Z 27008KT 9999 FEW040 SCT140 29/21 A2989=
200812031800 METAR MRLB 031800Z 27005KT 9999 FEW040 BKN130 29/21 A2987=
200812031900 METAR MRLB 031900Z 26005KT 9999 SCT040 BKN130 29/21 A2986=
200812032000 METAR MRLB 032000Z 32005KT 9999 SCT040 OVC130 29/21 A2984=
200812032100 METAR MRLB 032100Z 13003KT 9999 DZ SCT035 OVC120 28/22 A2982=
200812032200 METAR MRLB 032200Z 14004KT 9999 SCT030 OVC120 25/22 A2982 RMK RN DST N=
200812032300 METAR MRLB 032300Z 34003KT 9999 SCT030 BKN120 25/22 A2983=
200812040000 METAR MRLB 040000Z 34007KT 9999 FEW035 BKN120 25/21 A2985=
200812040100 METAR MRLB 040100Z 26002KT 9999 SCT035 BKN120 25/21 A2987=
200812040200 METAR MRLB 040200Z 07012KT 9999 SCT035 BKN120 25/21 A2990=
200812040300 METAR MRLB NIL=
200812040400 METAR MRLB NIL=
200812040500 METAR MRLB NIL=
200812040600 METAR MRLB NIL=
200812040700 METAR MRLB NIL=
200812040800 METAR MRLB NIL=
200812040900 METAR MRLB NIL=
200812041000 METAR MRLB NIL=
200812041100 METAR MRLB NIL=
200812041200 METAR MRLB 041200Z 25005KT CAVOK 22/21 A2984 TRACE SCT SCT120 BKN250=
200812041300 METAR MRLB 041300Z 19004KT CAVOK 23/22 A2986 RMK TRACE SC SCT120 BKN250=
200812041400 METAR MRLB 041400Z 29006KT CAVOK 25/22 A2987 RMK SCT120 BKN250=
200812041500 METAR MRLB 041500Z 22003KT CAVOK 27/22 A2988 RMK BKN120 SC250 TRACE SC=
200812041600 METAR MRLB 041600Z 29007KT CAVOK 28/22 A2988 RMK BKN120 FEW250 TRACE SC=
200812041700 METAR MRLB 041700Z 10016KT 9999 FEW035 BKN120 29/21 A2986 RMK FEW250 VEL MAX VTO 23KT=
200812041800 METAR MRLB 041800Z 29002KT 9999 BKN030 SCT120 29/22 A2985=
200812041900 METAR MRLB 041900Z 09009KT 9999 SCT030 SCT120 28/22 A2982 RMK FEW250=
200812042000 METAR MRLB 042000Z 08011KT 9999 BKN030 28/21 A2981 RMK FEW250=
200812042100 METAR MRLB 042100Z 09010KT 9999 BKN035 28/22 A2981=
200812042200 METAR MRLB 042200Z 09008KT 9999 BKN040 SCT110 27/22 A2982 RMK RN DST N NE E=
200812042300 METAR MRLB 042300Z 08008KT 9999 -RA SCT035 BKN100 25/22 A2985=
200812042355 METAR MRLB 050000Z 09006KT 9999 -RA SCT035 BKN100 24/24 A2987=
200812050000 METAR MRLB 050000Z 09006KT 9999 -RA SCT035 BKN100 24/24 A2987=
200812050100 METAR MRLB 050100Z 08002KT 9999 SCT035 BKN100 24/22 A2990 RMK RERA=
200812050200 METAR MRLB NIL=
200812050300 METAR MRLB NIL=
200812050500 METAR MRLB NIL=
200812050600 METAR MRLB NIL=
200812050700 METAR MRLB NIL=
200812050800 METAR MRLB NIL=
200812050900 METAR MRLB NIL=
200812051000 METAR MRLB NIL=
200812051100 METAR MRLB NIL=
200812051200 METAR MRLB 051200Z 11005KT 9999 FEW030 BKN120 25/21 A2985 RMK RN DST N NE=
200812051300 METAR MRLB 051300Z 05010KT 9999 FEW030 SCT120 BKN250 26/22 A2987 RMK RN DST N NE=
200812051400 METAR MRLB 051400Z 07017KT 9999 FEW030 SCT120 27/21 A2989 RN DST N NE=
200812051500 METAR MRLB 051500Z 19012KT 9999 SCT030 BKN120 28/22 A2992 RMK RN N NE E=
200812051600 METAR MRLB 051600Z 07014KT 9999 FEW035 BKN130 28/22 A2992 RMK RN DST NE N E=
200812051700 METAR MRLB 051700Z 08013KT 9999 SCT035 SCT130 29/22 A3001 RMK RN DST NE E=
200812051800 METAR MRLB 051800Z 08015KT 9999 SCT035 SCT130 29/22 A2989 RMK RN DST N NE E=
200812051900 METAR MRLB 051900Z 11011KT 9999 SCT030 SCT120 29/23 A2987 RMK RN DST NE=
200812052000 METAR MRLB 052000Z 06011KT 9999 FEW030 SCT120 30/21 2983 RMK RN DST N=
200812052100 METAR MRLB 052100Z 07013KT 9999 SCT035 30/20 A2982 RMK FEW130 FEW250=
200812052200 METAR MRLB NIL=
200812052300 METAR MRLB 052300Z 06009KT 9999 FEW035 BKN250 28/20 A2984 RMK FEW140=
200812060000 METAR MRLB 060000Z 09009KT 9999 FEW035 26/20 A2988 RMK FEW120=
200812060100 METAR MRLB NIL=
200812060200 METAR MRLB NIL=
200812060300 METAR MRLB NIL=
200812060400 METAR MRLB NIL=
200812060500 METAR MRLB NIL=
200812060600 METAR MRLB NIL=
200812060700 METAR MRLB NIL=
200812060800 METAR MRLB NIL=
200812060900 METAR MRLB NIL=
200812061000 METAR MRLB NIL=
200812061100 METAR MRLB NIL=
200812061200 METAR MRLB 061200Z 27003KT 9999 SCT030 BKN250 23/21 A2986=
200812061300 METAR MRLB 061300Z 00000KT 9999 SCT030 SCT250 25/21 A2988=
200812061400 METAR MRLB 061400Z 06007KT 9999 FEW035 SCT250 27/21 A2990=
200812061500 METAR MRLB 061500Z 09012KT 9999 SCT035 SCT250 27/21 A2991=
200812061600 METAR MRLB 061600Z 35003KT 9999 FEW035 29/22 A2991 FEW120=
200812061700 METAR MRLB NIL=
200812061800 METAR MRLB NIL=
200812061900 METAR MRLB 061900Z 07012KT 9999 SCT035 SCT250 31/21 A2985 RMK RN NE=
200812062000 METAR MRLB 062000Z 06013KT 9999 SCT035 BKN250 30/21 A2983=
200812062100 METAR MRLB 062100Z 08012KT 9999 FEW035 SCT250 30/21 A2982=
200812062200 METAR MRLB 062200Z 060015KT 9999 FEW035 SCT250 28/21 A2982=
200812062300 METAR MRLB 062300Z 08015KT 9999 FEW035 SCT250 28/20 A2984=
200812070000 METAR MRLB 070000Z 09011KT 9999 FEW035 SCT250 27/21 A2985=
200812070100 METAR MRLB 070100Z 04009KT 9999 SCT035 BKN250 26/22 A2987=
200812070200 METAR MRLB 070200Z 07008KT 9999 FEW035 SCT250 25/20 A2990=
200812070300 METAR MRLB NIL=
200812070400 METAR MRLB NIL=
200812070500 METAR MRLB NIL=
200812070600 METAR MRLB NIL=
200812070700 METAR MRLB NIL=
200812070800 METAR MRLB NIL=
200812070900 METAR MRLB NIL=
200812071000 METAR MRLB NIL=
200812071100 METAR MRLB NIL=
200812071200 METAR MRLB 071200Z 25003KT 9999 FEW035 21/20 A2989=
200812071300 METAR MRLB 071300Z 26003KT 9999 FEW035 24/21 A2991=
200812071400 METAR MRLB 071400Z 22006KT 999 FEW035 27/21 A2992=
200812071500 METAR MRLB 071500Z 27005KT 9999 FEW040 28/21 A2992=
200812071600 METAR MRLB NIL=
200812071700 METAR MRLB 071700Z 10014KT 9999 SCT035 30/21 A2989=
200812071800 METAR MRLB 071800Z 08007KT 9999 FEW035 31/21 A2986=
200812071900 METAR MRLB 071900Z 36005KT 9999 SCT035 31/22 A2987=
200812072000 METAR MRLB 072000Z 09011KT 9999 FEW035 31/20 A2982=
200812072100 METAR MRLB 072100Z 08013KT 9999 FEW035 31/21 A2981=
200812072200 METAR MRLB 072200Z 10011KT 9999 FEW035 30/21 A2981=
200812072300 METAR MRLB 072300Z 10009KT 9999 SCT040 28/20 A2982=
200812080000 METAR MRLB 080000Z 06010KT 9999 BKN040 28/19 A2985=
200812080100 METAR MRLB 080100Z 09012KT 9999 FEW035 27/20 A2985=
200812080200 METAR MRLB 080200Z 04008KT 9999 NSC 26/20 A2987 RMK TRACE CU=
200812080300 METAR MRLB NIL=
200812080400 METAR MRLB NIL=
200812080500 METAR MRLB NIL=
200812080600 METAR MRLB NIL=
200812080700 METAR MRLB NIL=
200812080800 METAR MRLB NIL=
200812080900 METAR MRLB NIL=
200812081000 METAR MRLB NIL=
200812081100 METAR MRLB NIL=
200812081200 METAR MRLB 081200Z 19003KT 9999 FEW030 23/20 A2986 RMK RN N NE=
200812081300 METAR MRLB 081300Z 25005KT 9999 FEW030 25/21 A2987 RMK RN DST N NE=
200812081400 METAR MRLB 081400Z 04003KT 9999 FEW035 26/21 A2990 RMK RN DST N NE=
200812081500 METAR MRLB 081500Z 09011KT 9999 BKN035 28/22 A2990 RMK RN DST N NE=
200812081600 METAR MRLB 081600Z 07015K 9999 SCT035 30/21 A2990 RMK RN DST N NE=
200812081700 METAR MRLB 081700Z 07014KT 9999 SCT030 BKN100 29/21 A2989 RMK RN DST N E=
200812081800 METAR MRLB 081800Z 07012KT 9999 SCT035 30/21 A2986 RMK RN DST N NE=
200812081900 METAR MRLB 081900Z 06015KT 9999 SCT035 30/22 A2987 RMK RN DST NE=
200812082000 METAR MRLB 082000Z 05012KT 9999 SCT035 31/21 A2981 RMK RN DST NE FEW250=
200812082100 METAR MRLB 082100Z 07013KT 9999 SCT035 SCT250 30/22 A2979 RMK RN DST N NE=
200812082200 METAR MRLB 082200Z 06013KT 9999 FEW035 SCT250 29/21 A2980 RMK RN DST NE=
200812082300 METAR MRLB 082300Z 07010KT 9999 FEW025 27/21 A2980 RMK FEW250=
200812090000 METAR MRLB 090000Z 07009KT 9999 FEW035 26/21 A2982 RMK FEW250=
200812090100 METAR MRLB 090100Z 07010KT 9999 FEW035 26/20 A2984 RMK FEW250=
200812090200 METAR MRLB NIL=
200812090300 METAR MRLB NIL=
200812090400 METAR MRLB NIL=
200812090500 METAR MRLB NIL=
200812090600 METAR MRLB NIL=
200812090700 METAR MRLB NIL=
200812090800 METAR MRLB NIL=
200812090900 METAR MRLB NIL=
200812091000 METAR MRLB NIL=
200812091100 METAR MRLB NIL=
200812091200 METAR MRLB 091200Z 10002KT 9999 FEW035 BKN130 24/21 A2982=
200812091300 METAR MRLB 091300Z 12004KT 9999 FEW035 BKN130 26/22 A2984=
200812091400 METAR MRLB 091400Z 10005KT 9999 FEW035 SCT140 28/23 A2985=
200812091500 METAR MRLB 091500Z 08008KT 9999 SCT035 SCT250 29/23 A2986=
200812091600 METAR MRLB 091600Z 03004KT 9999 SCT035 31/23 A2985 RMK FEW250=
200812091700 METAR MRLB 091700Z 07009KT 9999 SCT035 SCT250 31/22 A2984=
200812091800 METAR MRLB 091800Z 09007KT 9999 FEW035 BKN250 31/23 A2980=
200812091900 METAR MRLB 091900Z 08011KT 9999 FEW035 BKN250 32/22 A2976=
200812092000 METAR MRLB 092000Z 10011KT 9999 SCT035 SCT250 31/23 A2974=
200812092100 METAR MRLB 092100Z 09010KT 9999 SCT035 BKN240 30/22 A2973=
200812092200 METAR MRLB 092200Z 10007KT 9999 SCT035 BKN240 31/23 A2973 RMK RN DST NE=
200812092300 METAR MRLB 092300Z 08009KT 9999 SCT035 BKN140 28/23 A2976=
200812092357 METAR MRLB 100000Z 08004K 9999 FEW035 BKN230 27/23 A2976=
200812100000 METAR MRLB 100000Z 08004K 9999 FEW035 BKN230 27/23 A2976=
200812100100 METAR MRLB 100100Z 10005KT 9999 SCT035 BKN230 27/23 A2980=
200812100200 METAR MRLB 100200Z 11003KT 9999 FEW035 BKN230 26/23 A2982=
200812100300 METAR MRLB NIL=
200812100400 METAR MRLB NIL=
200812100500 METAR MRLB NIL=
200812100600 METAR MRLB NIL=
200812100700 METAR MRLB NIL=
200812100800 METAR MRLB NIL=
200812100900 METAR MRLB NIL=
200812101000 METAR MRLB NIL=
200812101100 METAR MRLB NIL=
200812101200 METAR MRLB 101200Z 08002KT 9999 FEW035 22/22 A2978=
200812101300 METAR MRLB 101300Z 00000KT 9999 FEW035 SCT120 24/23 A2980=
200812101400 METAR MRLB 101400Z 17002KT 9999 FEW035 SCT120 26/24 A2982 HZ LEVE ARND=
200812101500 METAR MRLB 101500Z VRB03KT 9999 SCT035 SCT120 27/24 A2984 RMK RN DST N NE W=
200812101600 METAR MRLB 101600Z 10004KT 9999 FEW035 SCT120 29/24 A2983=
200812101700 METAR MRLB NIL=
200812101800 METAR MRLB 101800Z 07010KT 9999 FEW035 BKN120 30/23 A2980=
200812101900 METAR MRLB 101900Z 06010KT 9999 FEW035 SCT120 31/23 A2976=
200812102000 METAR MRLB 102000Z 08010KT 9999 FEW030 BKN120 31/23 A2974=
200812102100 METAR MRLB 102100Z 06007KT 9999 FEW030 BKN250 32/24 A2972 RMK FEW130=
200812102200 METAR MRLB 102200Z 06009KT 9999 FEW035 BKN250 31/23 A2972=
200812102300 METAR MRLB 102300Z 06010KT 9999 FEW035 SCT120 BKN250 29/23 A2974=
200812110000 METAR MRLB 110000Z 07007KT 9999 SCT035 BKN250 28/23 A2975=
200812110100 METAR MRLB 110100Z 08009KT CAVOK 27/22 A2978 RMK FEW120 BKN250=
200812110200 METAR MRLB 110200Z 10005KT CAVOK 27/22 A2981 RMK SCT140 BKN250=
200812110300 METAR MRLB NIL=
200812110400 METAR MRLB NIL=
200812110500 METAR MRLB NIL=
200812110600 METAR MRLB NIL=
200812110700 METAR MRLB NIL=
200812110800 METAR MRLB NIL=
200812110900 METAR MRLB NIL=
200812111000 METAR MRLB NIL=
200812111100 METAR MRLB NIL=
200812111200 METAR MRLB 111200Z 04003KT 9999 FEW035 BKN130 23/22 A2980=
200812111300 METAR MRLB 111300Z 25003KT 9999 FEW035 BKN130 24/23 A2981=
200812111400 METAR MRLB 111400Z 00000KT 9999 FEW035 BKN130 26/24 A2984=
200812111500 METAR MRLB 111500Z 25003KT 9999 FEW035 BKN130 27/24 A2985=
200812111600 METAR MRLB 111600Z 27006KT 9999 FEW035 OVC250 28/25 A2985 RMK FEW140=
200812111700 METAR MRLB 111700Z 17002KT 9999 FEW035 OVC250 30/22 A2984=
200812111800 METAR MRLB 111800Z 08011KT 9999 FEW035 OVC250 31/21 A2981 RMK FEW140=
200812111900 METAR MRLB 111900Z 05003KT 9999 SCT030 29/23 A2983 RMK TRACE AC FEW280 HZ ARND=
200812112000 METAR MRLB 112000Z 04010KT 9999 SCT035 BKN250 31/21 A2976 RMK FEW140=
200812112100 METAR MRLB NIL=
200812112200 METAR MRLB NIL=
200812112300 METAR MRLB NIL=
200812120000 METAR MRLB 120000Z 06008KT CAVOK 28/21 A2978 BKN250 TRAZAS AC=
200812120100 METAR MRLB 120100Z 07012KT CAVOK 28/21 A2978 SCT250=
200812120200 METAR MRLB 120200Z 05005KT 9999 SCT035 BKN130 25/20 A2987=
200812120300 METAR MRLB NIL=
200812120400 METAR MRLB NIL=
200812120500 METAR MRLB NIL=
200812120600 METAR MRLB NIL=
200812120700 METAR MRLB NIL=
200812120800 METAR MRLB NIL=
200812120900 METAR MRLB NIL=
200812121000 METAR MRLB NIL=
200812121100 METAR MRLB NIL=
200812121200 METAR MRLB 121200Z 07005KT 9999 SCT030 BKN250 26/21 A2984=
200812121300 METAR MRLB 121300Z 27003KT 9999 SCT035 BKN250 25/21 A2986=
200812121400 METAR MRLB 121400Z 28004KT 9999 FEW035 OVC250 26/21 A2988=
200812121500 METAR MRLB 121500Z 12003KT 9999 FEW035 BKN250 28/21 A2989=
200812121600 METAR MRLB 121600Z 09014KT 9999 SCT035 SCT250 28/21 A2988=
200812121700 METAR MRLB 121700Z 09016KT 9999 SCT035 BKN250 29/22 A2986=
200812121800 METAR MRLB 121800Z 08014KT 9999 SCT035 BKN250 29/21 A2984=
200812121900 METAR MRLB 121900Z 09012KT 9999 SCT030 BKN240 28/21 A2981=
200812122000 METAR MRLB 122000Z 08014KT 9999 SCT035 BKN240 28/21 A2979 RN NE=
200812122100 METAR MRLB 122100Z 09004KT 9999 SCT035 OVC240 27/21 A2979 RMK RN DST N=
200812122200 METAR MRLB 122200Z 08015KT 9999 SCT030 BKN130 26/21 A2981 RMK RN DST SE N=
200812122300 METAR MRLB 122300Z 10012KT 9999 SCT035 BKN120 25/21 A2982 RMK RN DST N=
200812130000 METAR MRLB 130000Z 07006KT 9999 SCT035 BKN130 24/21 A2983=
200812130100 METAR MRLB 130100Z 03006KT 9999 SCT035 SCT130 25/21 A2984=
200812130200 METAR MRLB 130200Z 05005KT 9999 SCT035 BKN130 25/20 A2987=
200812130300 METAR MRLB NIL=
200812130400 METAR MRLB NIL=
200812130500 METAR MRLB NIL=
200812130600 METAR MRLB NIL=
200812130700 METAR MRLB NIL=
200812130800 METAR MRLB NIL=
200812130900 METAR MRLB NIL=
200812131000 METAR MRLB NIL=
200812131100 METAR MRLB NIL=
200812131200 METAR MRLB 131200Z 24003KT 9999 FEW030 OVC250 20/17 A2984=
200812131300 METAR MRLB 131300Z 13004KT 9999 FEW035 BKN250 22/17 A2986=
200812131400 METAR MRLB 131400Z 21002KT 9999 FEW035 BKN250 24/18 A2989=
200812131500 METAR MRLB 131500Z 23008KT 9999 FEW035 BKN250 26/18 A2989=
200812131600 METAR MRLB 131600Z 25010KT 9999 FEW035 SCT250 28/18 A2988=
200812131700 METAR MRLB 131700Z 13007KT 9999 FEW040 SCT250 30/19 A2985=
200812131800 METAR MRLB 131800Z 28011KT 9999 FEW040 SCT250 31/19 A2984=
200812131900 METAR MRLB 131900Z 10011KT 9999 FEW040 SCT250 31/20 A2981=
200812132000 METAR MRLB 132000Z 10013KT 9999 SCT040 SCT250 31/20 A2979=
200812132100 METAR MRLB 132100Z 08007KT 9999 SCT040 30/20 A2978=
200812132200 METAR MRLB 132200Z 08009KT 9999 SCT035 29/19 A2979=
200812132300 METAR MRLB 132300Z 26005KT 9999 FEW035 SCT140 28/20 A2981=
200812140000 METAR MRLB 140000Z 15005KT 9999 SCT035 SCT140 26/20 A29820=
200812140100 METAR MRLB 140100Z 26004KT 9999 SCT035 SCT130 25/20 A2984=
200812140200 METAR MRLB 140200Z 19006KT 9999 SCT035 BKN130 24/20 A2986=
200812140300 METAR MRLB NIL=
200812140400 METAR MRLB NIL=
200812140500 METAR MRLB NIL=
200812140600 METAR MRLB NIL=
200812140700 METAR MRLB NIL=
200812140800 METAR MRLB NIL=
200812140900 METAR MRLB NIL=
200812141000 METAR MRLB NIL=
200812141100 METAR MRLB NIL=
200812141200 METAR MRLB NIL=
200812141300 METAR MRLB 141300Z 09009KT 9999 BKN035 25/20 A2989 RMK FEW130 RN DST N=
200812141400 METAR MRLB 141400Z 10005KT 9999 FEW035 BKN120 26/21 A2990=
200812141500 METAR MRLB 141500Z 07009KT CAVOK 26/21 A2992 RMK TRACE SC BKN120 FEW250 RN DST N=
200812141600 METAR MRLB 141600Z 07009KT CAVOK 28/21 A2991 RMK TRACE SC BKN120 FEW250=
200812141700 METAR MRLB 141700Z 07010KT CAVOK 30/21 A2990 RMK SCTSCT120 SCT250=
200812141800 METAR MRLB 141800Z 09012KT CAVOK 30/21 A2987 RMK TRACE CU SCT120 SCT250=
200812141900 METAR MRLB 141900Z 08011KT 9999 SCT035 29/21 A2984 RMK FEW130 FEW250=
200812142000 METAR MRLB 142000Z 08012KT 9999 FEW035 BKN250 31/21 A2981 RMK FEW130=
200812142100 METAR MRLB 142100Z 08010KT 9999 FEW035 SCT250 30/21 A2981=
200812142200 METAR MRLB 142200Z 06010KT 9999 FEW035 30/21 A2981 RMK FEW250=
200812142300 METAR MRLB 142300Z 07010KT 9999 FEW035 29/21 A2983 RMK FEW250=
200812142357 METAR MRLB 150000Z 07010KT 9999 FEW035 27/21 A2984=
200812150000 METAR MRLB 150000Z 07010KT 9999 FEW035 27/21 A2984=
200812150100 METAR MRLB 150100Z 07008KT CAVOK 26/21 A2987 RMK SCT250=
200812150200 METAR MRLB 150200Z 08006KT CAVOK 26/21 A2988 RMK FEW250=
200812150300 METAR MRLB NIL=
200812150400 METAR MRLB NIL=
200812150500 METAR MRLB NIL=
200812150600 METAR MRLB NIL=
200812150700 METAR MRLB NIL=
200812150800 METAR MRLB NIL=
200812150900 METAR MRLB NIL=
200812151000 METAR MRLB NIL=
200812151100 METAR MRLB NIL=
200812151200 METAR MRLB 151200Z 09012KT CAVOK 26/20 A2987 RMK SCT250=
200812151300 METAR MRLB 151300Z 08015KT CAVOK 27/20 A2990 RMK SCT250=
200812151400 METAR MRLB 151400Z 07019KT CAVOK 29/19 A2991 RMK SCT250=
200812151500 METAR MRLB 151500Z 08015KT CAVOK 30/20 A2992 RMK BKN250=
200812151600 METAR MRLB 151600Z 07019KT 9999 FEW035 SCT250 31/19 A2991=
200812151700 METAR MRLB 151700Z 06020KT 9999 FEW035 SCT250 31/20 A2990=
200812151800 METAR MRLB 151800Z 07015KT 9999 FEW035 SCT250 32/19 A2987=
200812151900 METAR MRLB 151900Z 06017KT 9999 FEW035 BKN250 32/19 A2984=
200812152000 METAR MRLB 152000Z 06016KT 9999 FEW035 BKN250 32/19 A2982=
200812152100 METAR MRLB NIL=
200812152200 METAR MRLB NIL=
200812152300 METAR MRLB NIL=
200812160000 METAR MRLB NIL=
200812160100 METAR MRLB NIL=
200812160200 METAR MRLB NIL=
200812160300 METAR MRLB NIL=
200812160400 METAR MRLB NIL=
200812160500 METAR MRLB NIL=
200812160600 METAR MRLB NIL=
200812160700 METAR MRLB NIL=
200812160800 METAR MRLB NIL=
200812160900 METAR MRLB NIL=
200812161000 METAR MRLB NIL=
200812161100 METAR MRLB NIL=
200812161200 METAR MRLB 161200Z 00000KT 9999 FEW035 OVC250 22/20 A2987 RMK RN DST N=
200812161300 METAR MRLB NIL=
200812161400 METAR MRLB 161400Z 30003KT 9999 FEW035 SCT120 BKN250 26/21 A2991 RMK RN DST N NE=
200812161500 METAR MRLB 161500Z 35006KT 9999 SCT035 BKN120 28/22 A2992 RMK PCPN DST N NE E=
200812161600 METAR MRLB NIL=
200812161700 METAR MRLB 161700Z 08006KT 9999 FEW030 OVC100 27/22 A2990 RERA PCPN DST N NE E SW=
200812161800 METAR MRLB 161800Z 06017KT 9999 FEW030 BKN120 28/20 A2987 RMK PCPN DST NE=
200812161900 METAR MRLB 161900Z 07014KT 9999 FEW035 BKN120 29/21 A2984=
200812162000 METAR MRLB 162000Z 08014KT 9999 FEW035 BKN120 30/20 A2980=
200812162100 METAR MRLB 162100Z 07016KT 9999 FEW035 SCT120 30/19 A2978=
200812162200 METAR MRLB 162200Z 07011KT 9999 FEW035 SCT120 30/20 A2978=
200812162300 METAR MRLB NIL=
200812170000 METAR MRLB 170000Z 13013KT CAVOK 27/21 A2980 SCT120 TRAZAS CU TCU N=
200812170100 METAR MRLB 170100Z 13013KT CAVOK 27/21 A2980 SCT120 TRAZAS CU TCU N=
200812170200 METAR MRLB NIL=
200812170300 METAR MRLB NIL=
200812170400 METAR MRLB NIL=
200812170500 METAR MRLB NIL=
200812170600 METAR MRLB NIL=
200812170700 METAR MRLB NIL=
200812170800 METAR MRLB NIL=
200812170900 METAR MRLB NIL=
200812171000 METAR MRLB NIL=
200812171100 METAR MRLB NIL=
200812171200 METAR MRLB 171200Z 15003KT 9999 FEW035 SCT250 23/20 A2983=
200812171300 METAR MRLB 171300Z 08006KT 9999 FEW035 SCT250 25/20 A2984=
200812171400 METAR MRLB 171400Z 11005KT 9999 SCT035 28/21 A2986 FEW250=
200812171500 METAR MRLB 171500Z 0714KT 9999 BKN035 29/21 A2988 FEW250=
200812171600 METAR MRLB 171600Z 05017KT 9999 SCT035 30/21 A2988 FEW250 RN N NE=
200812171700 METAR MRLB 171700Z 07013KT 9999 SCT035 31/20 A2986 FEW250=
200812171800 METAR MRLB 171800Z 050018KT 9999 FEW035 32/20 A2983 FEW250 RN N=
200812171900 METAR MRLB 171900Z 06013KT 9999 FEW035 33/19 A2979 FEW250=
200812172000 METAR MRLB 172000Z 06018KT 9999 FEW035 32/19 A2977 FEW250=
200812172100 METAR MRLB 172100Z 07013KT 9999 FEW035 32/21 A2977 RMK FEW250=
200812172200 METAR MRLB 172200Z 08012KT 9999 NSC 31/18 A2977 RMK TRACE CU CI=
200812172300 METAR MRLB 172300Z 06015KT 9999 NSC 29/18 A2978 RMK TRACE CU=
200812180000 METAR MRLB 180000Z 06012KT 9999 FEW040 27/19 A2980=
200812180100 METAR MRLB 180100Z 06009KT 9999 NSC 26/19 A2983 RMK TRACE CU=
200812180200 METAR MRLB NIL=
200812180300 METAR MRLB NIL=
200812180400 METAR MRLB NIL=
200812180500 METAR MRLB NIL=
200812180600 METAR MRLB NIL=
200812180700 METAR MRLB NIL=
200812180800 METAR MRLB NIL=
200812180900 METAR MRLB NIL=
200812181000 METAR MRLB NIL=
200812181100 METAR MRLB NIL=
200812181200 METAR MRLB 181200Z 03004KT 9999 SCT030 BKN140 23/20 A2989=
200812181300 METAR MRLB 181300Z 03002KT 9999 SCT035 BKN130 24/21 A2991=
200812181400 METAR MRLB 181400Z 07002KT 9999 SCT035 BKN130 24/21 A2993 RMK RN DST NE=
200812181500 METAR MRLB 181500Z 07008KT 9999 FEW035 OVC130 26/20 A2995=
200812181600 METAR MRLB 181600Z 17003KT 9999 SCT035 BKN130 27/25 A2994=
200812181700 METAR MRLB 181700Z 25004KT 9999 SCT035 OVC130 26/21 A2992 RMK RN DST E=
200812181800 METAR MRLB 181800Z 08011KT 9999 SCT035 BKN130 28/19 A2990=
200812181900 METAR MRLB 181900Z 07017KT 9999 SCT035 BKN140 27/20 A2988=
200812182000 METAR MRLB 182000Z 07018KT 9999 SCT035 SCT140 29/20 A2984=
200812182100 METAR MRLB 182100Z 09018KT 9999 SCT035 SCT250 29/19 A2980=
200812182200 METAR MRLB 182200Z 08012KT 9999 FEW035 SCT250 29/19 A2980=
200812182300 METAR MRLB 182300Z 08014KT 9999 FEW035 SCT250 28/19 A2982=
200812190000 METAR MRLB 190000Z 09014KT 9999 FEW035 SCT250 27/19 A2984=
200812190100 METAR MRLB 190100Z 08012KT 9999 FEW035 BKN250 26/18 A2985=
200812190200 METAR MRLB 190200Z 07014KT 9999 FEW035 BKN250 25/19 A2988=
200812190300 METAR MRLB NIL=
200812190400 METAR MRLB NIL=
200812190500 METAR MRLB NIL=
200812190600 METAR MRLB NIL=
200812190700 METAR MRLB NIL=
200812190800 METAR MRLB NIL=
200812190900 METAR MRLB NIL=
200812191000 METAR MRLB NIL=
200812191100 METAR MRLB NIL=
200812191200 METAR MRLB 191200Z VRB03KT 9999 FEW035 20/19 A2988=
200812191300 METAR MRLB 191300Z 18005KT CAVOK 25/19 A2989 RMK FEW120 TRACE SC=
200812191400 METAR MRLB 191400Z 30003KT CAVOK 24/20 A2992 RMK SCT120 TRACE SC=
200812191500 METAR MRLB 191500Z 24006KT CAVOK 28/20 A2993 RMK BKN120 TRACE CU=
200812191600 METAR MRLB 191600Z 07008KT 9999 FEW040 SCT120 29/20 A2993=
200812191700 METAR MRLB 191700Z 06017KT CAVOK 29/19 A2999 RMK SCT120 TRACE CU VEL. MAX. VTO 24KT=
200812191800 METAR MRLB 191800Z 06016KT CAVOK 29/19 A2987 RMK FEW130 TRACE CU VEL.MAX.VTO 21KT=
200812191900 METAR MRLB 191900Z 06014KT 9999 FEW035 30/20 A2985=
200812192000 METAR MRLB 192000Z 07017KT 9999 SCT035 30/20 A2983 RMK VEL.MAX.VTO 23KT=
200812192100 METAR MRLB 192100Z 06015KT 9999 FEW040 30/20 A2982 RMK FEW130 VEL MAX VIENTO 21 KTS=
200812192200 METAR MRLB 192200Z 06010KT 9999 FEW040 SCT100 29/20 A2983 RMK RN DST N=
200812192300 METAR MRLB 192300Z VRB08KT 9999 SCT040 SCT100 27/20 A2985=
200812192358 METAR MRLB 200000Z 03006KT 9999 BKN040 SCT100 25/20 A2987=
200812200000 METAR MRLB 200000Z 03006KT 9999 BKN040 SCT100 25/20 A2987=
200812200100 METAR MRLB 200100Z 36008KT 9999 SCT040 SCT100 24/20 A2988=
200812200200 METAR MRLB 200200Z 01009KT 9999 SCT040 SCT120 24/20 A2990=
200812200300 METAR MRLB NIL=
200812200400 METAR MRLB NIL=
200812200500 METAR MRLB NIL=
200812200600 METAR MRLB NIL=
200812200700 METAR MRLB NIL=
200812200800 METAR MRLB NIL=
200812200900 METAR MRLB NIL=
200812201000 METAR MRLB NIL=
200812201100 METAR MRLB NIL=
200812201200 METAR MRLB 201200Z 16002KT 9999 BKN030 SCT100 22/21 A2988 RMK RN SDT N NE E=
200812201300 METAR MRLB 201300Z 29003KT 9999 BKN030 SCT100 23/21 A2989 RN DST N NE E=
200812201400 METAR MRLB 201400Z 01003KT 9999 BKN030 SCT100 24/21 A2992 RMK RN DST N NE=
200812201500 METAR MRLB 201500Z 07010KT 9999 SCT030 BKN100 26/20 A2993 RMK RN DS N NE=
200812201600 METAR MRLB 201600Z 07010KT 9999 SCT030 BKN100 28/20 A2992 RMK RN DST N NE=
200812201700 METAR MRLB 201700Z 0100KT 9999 FEW035 BKN100 27/29 A2991 RMK RN DST NE=
200812201800 METAR MRLB 201800Z 06015KT 9999 FEW035 SCT120 30/18 A2987=
200812201900 METAR MRLB 201900Z 07017KT 9999 FEW040 30/17 A2983 RMK TRACE AC=
200812202000 METAR MRLB 202000Z 09013KT 9999 FEW040 30/9 A2980=
200812202100 METAR MRLB 202100Z 08015KT 9999 FEW040 30/18 A2978=
200812202200 METAR MRLB 202200Z 10014KT 9999 NSC 29/18 A2976 RMK TRACE CU=
200812202300 METAR MRLB 202300Z 08007KT 9999 NSC 28/19 A2978 RMK TRACE CU=
200812210000 METAR MRLB 210000Z 09009KT 9999 SKC 26/18 A2979=
200812210100 METAR MRLB NIL=
200812210200 METAR MRLB NIL=
200812210300 METAR MRLB NIL=
200812210400 METAR MRLB NIL=
200812210500 METAR MRLB NIL=
200812210600 METAR MRLB NIL=
200812210700 METAR MRLB NIL=
200812210800 METAR MRLB NIL=
200812210900 METAR MRLB NIL=
200812211000 METAR MRLB NIL=
200812211100 METAR MRLB NIL=
200812211200 METAR MRLB 211200Z 06002KT 9999 FEW030 SCT250 17/16 A2983=
200812211300 METAR MRLB 211300Z 00000KT 9999 FEW035 SCT250 19/18 A2986=
200812211400 METAR MRLB 211400Z 26003KT 9999 FEW035 22/19 A2986=
200812211500 METAR MRLB 211500Z 27005KT CAVOK 25/19 A2987 RMK FEW250=
200812211600 METAR MRLB 211600Z 32003KT CAVOK 27/18 A2987 RMK FEW250=
200812211700 METAR MRLB 211700Z 29002KT CAVOK 29/17 A2986 RMK FEW250=
200812211800 METAR MRLB 211800Z 27005KT CAVOK 31/17 A2982 RMK SCT250=
200812211900 METAR MRLB 211900Z 28006KT 9999 FEW035 SCT130 31/18 A2979=
200812212000 METAR MRLB 212000Z 06013KT 9999 FEW035 SCT130 31/19 A2976=
200812212100 METAR MRLB 212100Z 09012KT 9999 FEW035 30/19 A2975=
200812212200 METAR MRLB 212200Z 08012KT 9999 FEW035 29/19 A2976=
200812212300 METAR MRLB 212300Z 08010KT 9999 FEW035 28/19 A2977=
200812220000 METAR MRLB 220000Z 09010KT 9999 FEW035 SCT250 27/20 A2978=
200812220100 METAR MRLB 220100Z 08013KT 9999 FEW035 BKN250 26/19 A2981=
200812220200 METAR MRLB 220200Z 09011KT 9999 FEW035 SCT250 25/18 A2983=
200812220300 METAR MRLB NIL=
200812220400 METAR MRLB NIL=
200812220500 METAR MRLB NIL=
200812220600 METAR MRLB NIL=
200812220700 METAR MRLB NIL=
200812220800 METAR MRLB NIL=
200812220900 METAR MRLB NIL=
200812221000 METAR MRLB NIL=
200812221100 METAR MRLB NIL=
200812221200 METAR MRLB 221200Z 00000KT 9999 FEW040 BKN120 20/19 A2987=
200812221300 METAR MRLB 221300Z 28002KT CAVOK 22/20 A2989 TRAZAS SCT BKN120=
200812221400 METAR MRLB 221400Z 30003KT CAVOK 25/20 A2991 SCT120=
200812221500 METAR MRLB 221500Z 01004KT CAVOK 28/20 A2992 FEW130 TRAZAS CU=
200812221600 METAR MRLB 221600Z 29005KT 9999 NSC 29/20 A2992 TRAZAS SCT AC=
200812221700 METAR MRLB 221700Z 08013KT 9999 NSC 31/10 A2990 TRAZAS CU=
200812221800 METAR MRLB 221800Z 07011KT 9999 FEW035 32/19 A2987=
200812221900 METAR MRLB 221900Z 09012KT 9999 FEW035 32/18 A2985=
200812222000 METAR MRLB 222000Z 11011KT 9999 FEW035 SCT130 27/15 A2998=
200812222100 METAR MRLB 222100Z 08013KT 9999 FEW035 31/29 A2981 RMK FEW130=
200812222200 METAR MRLB 222200Z 09016KT CAVOK 29/20 A2980 RMK FEW130 TRACE SC=
200812222300 METAR MRLB 222300Z 08013KT CAVOK 28/19 A2982 RMK BKN120=
200812230000 METAR MRLB 230000Z 09006KT CAVOK 27/18 A2983 RMK BKN100 TRACE SC=
200812230100 METAR MRLB 230100Z 09010KT CAVOK 27/18 A2985 RMK BKN100=
200812230200 METAR MRLB 230200Z 07008KT 9999 FEW035 BKN100 27/18 A2986=
200812230300 METAR MRLB NIL=
200812230400 METAR MRLB NIL=
200812230500 METAR MRLB NIL=
200812230600 METAR MRLB NIL=
200812230700 METAR MRLB NIL=
200812230800 METAR MRLB NIL=
200812230900 METAR MRLB NIL=
200812231000 METAR MRLB NIL=
200812231100 METAR MRLB NIL=
200812231200 METAR MRLB 231200Z 15003KT 9999 NSC 23/19 A2986 RMK TRACE CU=
200812231300 METAR MRLB 231300Z 05005KT 9999 NSC 22/19 A2989 RMK TRACE CU=
200812231400 METAR MRLB 231400Z 34003KT CAVOK 24/19 A2992 RMK TRACE CU FEW130=
200812231500 METAR MRLB 231500Z 06014KT 9999 FEW040 26/20 A2993 RMK TRACE AC=
200812231600 METAR MRLB 231600Z 07015KT 9999 FEW040 28/20 A2993 RMK TRACE AC=
200812231700 METAR MRLB 231700Z 06015KT 9999 SCT030 30/20 A2990 RMK FEW140=
200812231800 METAR MRLB 231800Z 08010KT 9999 FEW040 SCT130 30/20 A2988=
200812231900 METAR MRLB 231900Z 06013KT 9999 FEW040 BKN130 29/20 A2985=
200812232000 METAR MRLB 232000Z 05016KT 9999 FEW040 BKN130 31/21 A2983=
200812232100 METAR MRLB 232100Z 06014KT 9999 FEW040 BKN130 31/20 A2981=
200812232200 METAR MRLB 232200Z 05012KT 9999 FEW020 SCT130 30/20 A2981=
200812232300 METAR MRLB 232300Z 06013KT 9999 SCT040 28/20 A2982=
200812240000 METAR MRLB 240000Z 05011KT 9999 SCT040 27/20 A2983=
200812240100 METAR MRLB 240100Z 04010KT 9999 SCT040 26/20 A2986=
200812240200 METAR MRLB NIL=
200812240400 METAR MRLB NIL=
200812240500 METAR MRLB NIL=
200812240600 METAR MRLB NIL=
200812240700 METAR MRLB NIL=
200812240800 METAR MRLB NIL=
200812240900 METAR MRLB NIL=
200812241000 METAR MRLB NIL=
200812241100 METAR MRLB NIL=
200812241200 METAR MRLB 241200Z 00000KT 9999 FEW035 BKN130 22/20 A2987=
200812241300 METAR MRLB 241300Z 17003KT 9999 FEW035 SCT130 24/20 A2989=
200812241400 METAR MRLB 241400Z 08005KT 9999 FEW035 SCT130 26/21 A2991=
200812241500 METAR MRLB 241500Z 08006KT 9999 FEW035 29/21 A2992=
200812241600 METAR MRLB 241600Z 10012KT 9999 FEW035 31/20 A2990=
200812241700 METAR MRLB 241700Z 06014KT 9999 SCT035 31/20 A2990=
200812241800 METAR MRLB 241800Z 05014KT 9999 SCT035 31/20 A2987=
200812241900 METAR MRLB 241900Z 06013KT 9999 SCT035 33/21 A2984=
200812242000 METAR MRLB 242000Z 06015KT 9999 SCT035 SCT140 32/21 A2983=
200812242100 METAR MRLB 242100Z 05016KT 9999 FEW035 BKN140 30/21 A2981=
200812242200 METAR MRLB 242200Z 07012KT 9999 FEW035 BKN140 30/21 A2981=
200812242300 METAR MRLB 242300Z 07010KT 9999 FEW035 OVC130 29/20 A2982=
200812242350 METAR MRLB 250000Z 07012KT 9999 FEW035 BKN130 28/21 A2983=
200812250000 METAR MRLB 250000Z 07012KT 9999 FEW035 BKN130 28/21 A2983=
200812250100 METAR MRLB 250100Z 06010KT 9999 FEW035 BKN130 27/20 A2984=
200812250200 METAR MRLB NIL=
200812250300 METAR MRLB NIL=
200812250400 METAR MRLB NIL=
200812250500 METAR MRLB NIL=
200812250600 METAR MRLB NIL=
200812250700 METAR MRLB NIL=
200812250800 METAR MRLB NIL=
200812250900 METAR MRLB NIL=
200812251000 METAR MRLB NIL=
200812251100 METAR MRLB NIL=
200812251200 METAR MRLB 251200Z 09009KT 9999 FEW040 SCT120 26/21 A2985=
200812251300 METAR MRLB 251300Z 09012KT 9999 FEW040 SCT120 27/21 A2986=
200812251400 METAR MRLB NIL=
200812251500 METAR MRLB 251500Z 05010KT 9999 FEW035 BKN120 28/21 A2991=
200812251600 METAR MRLB 251600Z 07011KT 9999 FEW035 BKN120 29/21 A2990=
200812251700 METAR MRLB 251700Z 06016KT 9999 FEW040 OVC120 29/21 A2988=
200812251800 METAR MRLB 251800Z 04013KT CAVOK 30/21 A2985 RMK BKN130 TRACE CU=
200812251900 METAR MRLB 251900Z 05016KT CAVOK 32/21 A2981 RMK SCT130 TRACE CU=
200812252000 METAR MRLB 252000Z 06012KT CAVOK 32/20 A2978 RMK FEW130 TRACES CU=
200812252100 METAR MRLB 252100Z 05015KT 9999 NSC 32/21 A2977 RMK TRACE CU AC RAFAGAS DE 23KT=
200812252200 METAR MRLB 252200Z 07017KT 9999 BKN040 30/24 A2978 RMK RAFAGAS DE 24KT=
200812252300 METAR MRLB 252300Z 07013KT 9999 BKN040 SCT120 29/21 A2980=
200812260000 METAR MRLB 260000Z 06010KT 9999 SCT040 BKN250 27/21 A2982=
200812260100 METAR MRLB 260100Z 07010KT 9999 SCT040 SCT130 27/22 A2984=
200812260200 METAR MRLB 260200Z 09009KT 9999 SCT040 BKN130 27/21 A2986=
200812260300 METAR MRLB NIL=
200812260400 METAR MRLB NIL=
200812260500 METAR MRLB NIL=
200812260600 METAR MRLB NIL=
200812260700 METAR MRLB NIL=
200812260800 METAR MRLB NIL=
200812260900 METAR MRLB NIL=
200812261000 METAR MRLB NIL=
200812261100 METAR MRLB NIL=
200812261200 METAR MRLB 261200Z 00000KT 9999 -RA OVC025 23/23 A2986=
200812261300 METAR MRLB 261300Z 00000KT 9999 -RA OVC025 24/23 A2988=
200812261400 METAR MRLB 261400Z 10004KT 9999 -RA SCT02 BKN080 24/23 A2990=
200812261500 METAR MRLB 261500Z 08010KT 9999 SCT025 BKN100 26/22 A2990 RERA RMK RN N NE SE=
200812261600 METAR MRLB 261600Z 05012KT 9999 FEW025 BKN100 27/22 A2991 RMK RN N NE=
200812261700 METAR MRLB 261700Z 07013KT 9999 SCT025 BKN100 28722 A2989 RMK RN N NE=
200812261800 METAR MRLB 261800Z 06012KT 9999 SCT025 SCT100 28/21 A2987 RMK RN N NE=
200812261900 METAR MRLB 261900Z 08011KT 9999 BKN025 SCT100 29/22 A2984 RMK RN N NE=
200812262000 METAR MRLB 262000Z 06016KT 9999 SCT030 BKN100 29721 A2981 RMK RN N S W=
200812262100 METAR MRLB 262100Z 09013KT 9999 SCT030 SCT120 29/21 A2981 RN NE S FEW250=
200812262200 METAR MRLB 262200Z 07011KT 9999 SCT035 BKN250 30/21 A2980 CB E=
200812262300 METAR MRLB 262300Z 08010KT 9999 FEW035 BKN250 29/21 A2980=
200812270000 METAR MRLB 270000Z 11004KT 9999 FEW035 27/21 A2982=
200812270100 METAR MRLB 270100Z 12005KT 9999 FEW035 25/21 A2984=
200812270200 METAR MRLB NIL=
200812270300 METAR MRLB NIL=
200812270400 METAR MRLB NIL=
200812270500 METAR MRLB NIL=
200812270600 METAR MRLB NIL=
200812270700 METAR MRLB NIL=
200812270800 METAR MRLB NIL=
200812270900 METAR MRLB NIL=
200812271000 METAR MRLB NIL=
200812271100 METAR MRLB NIL=
200812271200 METAR MRLB 271200Z 09013KT 9999 SCT030 BKN130 26/20 A2982=
200812271300 METAR MRLB 271300Z 09010KT 9999 SCT035 BKN240 26/21 A2985=
200812271400 METAR MRLB 271400Z 07012KT 9999 FEW035 BKN250 28/20 A2987=
200812271500 METAR MRLB 271500Z 09011KT 9999 FEW035 SCT250 29/20 A2987=
200812271600 METAR MRLB 271600Z 06016KT 9999 FEW035 SCT250 31/20 A2987=
200812271700 METAR MRLB 271700Z 05015KT 9999 SCT035 31/20 A2984=
200812271800 METAR MRLB 271800Z 06014KT 9999 SCT035 31/20 A2982=
200812271900 METAR MRLB 271900Z 06016KT 9999 SCT035 31/20 A2980=
200812272000 METAR MRLB 272000Z 06015KT 9999 SCT035 32/19 A2977=
200812272100 METAR MRLB 272100Z 05011KT 9999 FEW035 SCT250 31/19 A2975=
200812272200 METAR MRLB 272200Z 06013KT 9999 FEW035 SCT250 30/20 A2996=
200812272300 METAR MRLB 272300Z 07008KT 9999 FEW035 BKN250 29/20 A2977=
200812280000 METAR MRLB 280000Z 07012KT 9999 FEW035 BKN250 27/19 A2979=
200812280100 METAR MRLB 280100Z 08012KT 9999 FEW035 BKN250 26/19 A2981=
200812280200 METAR MRLB 280200Z 08015KT 9999 FEW035 BKN240 25/20 A2984=
200812280300 METAR MRLB NIL=
200812280400 METAR MRLB NIL=
200812280500 METAR MRLB NIL=
200812280600 METAR MRLB NIL=
200812280700 METAR MRLB NIL=
200812280800 METAR MRLB NIL=
200812280900 METAR MRLB NIL=
200812281000 METAR MRLB NIL=
200812281100 METAR MRLB NIL=
200812281200 METAR MRLB 281200Z 07008KT CAVOK 23/19 A2983 RMK TRACE SC FEW300=
200812281300 METAR MRLB 281300Z 10006KT CAVOK 25/20 A2985 RMK TRACE SC AC FEW300=
200812281400 METAR MRLB 281400Z 07008KT CAVOK 27/20 A2987 RMK TRACE SC FEW300=
200812281500 METAR MRLB 281500Z 07013KT CAVOK 29/20 A2988 RMK TARCE SC FEW300=
200812281600 METAR MRLB 281600Z 06014KT CAVOK 30/19 A2987 RMK TRACE SC FEW300=
200812281700 METAR MRLB 281700Z 07014KT CAVOK 31/20 A2986 RMK TRACE SC FEW130 FEW300=
200812281800 METAR MRLB 281800Z 07014KT CAVOK 31/20 A2986 RMK TRACE SC FEW130 FEW300=
200812281900 METAR MRLB 281900Z 07013KT 9999 FEW035 32/20 A2980 RMK FEW300=
200812282000 METAR MRLB 282000Z 08012KT 9999 FEW040 31/20 A2978=
200812282100 METAR MRLB 282100Z 06012KT 9999 SCT040 32/21 A2977 RMK FEW130=
200812282200 METAR MRLB 282200Z 06013KT 9999 SCT035 30/21 A2978 RMK FEW130=
200812282300 METAR MRLB 282300Z 05012KT 9999 FEW035 28/20 A2980 RMK FEW130=
200812290000 METAR MRLB 290000Z 08010KT CAVOK 26/20 A2980 RMK TRACE SC FEW130=
200812290100 METAR MRLB 290100Z 08012KT CAVOK 26/20 A2982 RMK FEW130=
200812290200 METAR MRLB 290200Z 08011KT CAVOK 26/20 A2985 RMK FEW130=
200812290300 METAR MRLB NIL=
200812290400 METAR MRLB NIL=
200812290500 METAR MRLB NIL=
200812290600 METAR MRLB NIL=
200812290700 METAR MRLB NIL=
200812290800 METAR MRLB NIL=
200812290900 METAR MRLB NIL=
200812291000 METAR MRLB NIL=
200812291100 METAR MRLB NIL=
200812291200 METAR MRLB 291200Z 09012KT 9999 NSC 26/19 A2982 TRAZAS CU=
200812291300 METAR MRLB 291300Z 05008KT 9999 NSC 25/20 A2986 RMK TRACE CU=
200812291400 METAR MRLB 291400Z 08015KT 9999 FEW040 28/20 A2987=
200812291500 METAR MRLB 291500Z 07015KT 9999 FEW040 29/19 A2988=
200812291600 METAR MRLB 291600Z 06017KT 9999 FEW040 30/19 A2989=
200812291700 METAR MRLB 291700Z 07019KT 9999 FEW040 30/19 A2987=
200812291800 METAR MRLB 291800Z 06012KT 9999 FEW040 32/19 A2985=
200812291900 METAR MRLB 291900Z 05019KT 9999 SCT040 32/20 A2983=
200812292000 METAR MRLB 292000Z 06014KT 9999 FEW045 32/19 A2979=
200812292100 METAR MRLB 292100Z 07016KT 9999 NSC 24/12 A2994 RMK TRACES SC VEL MAX WIN 24 KTS=
200812292200 METAR MRLB 292200Z 07012KT 9999 FEW045 31/18 A2977=
200812292300 METAR MRLB 292300Z 08013KT 9999 NSC 29/19 A2979 RMK TRACE CU=
200812292352 METAR MRLB 300000Z 06015KT 9999 NSC 28/19 A2981 RMK TRACES CU=
200812300000 METAR MRLB 300000Z 06015KT 9999 NSC 28/19 A2981 RMK TRACES CU=
200812300100 METAR MRLB 300100Z 08012KT 9999 NSC 27/19 A2983 TRACE CU=
200812300200 METAR MRLB NIL=
200812300300 METAR MRLB NIL=
200812300400 METAR MRLB NIL=
200812300500 METAR MRLB NIL=
200812300600 METAR MRLB NIL=
200812300700 METAR MRLB NIL=
200812300800 METAR MRLB NIL=
200812300900 METAR MRLB NIL=
200812301000 METAR MRLB NIL=
200812301100 METAR MRLB NIL=
200812301200 METAR MRLB 301200Z 00000KT 9999 SCT030 SCT250 24/20 A2985=
200812301300 METAR MRLB 301300Z 06007KT 9999 SCT030 SCT250 25/20 A2988=
200812301400 METAR MRLB 301400Z 07012KT 9999 SCT035 27/20 A2989=
200812301500 METAR MRLB 301500Z 08014KT 9999 SCT035 29/20 A2989=
200812301600 METAR MRLB 301600Z 07018KT 9999 SCT035 30/20 A2990=
200812301700 METAR MRLB 301700Z 08016KT 9999 SCT040 30/20 A2988=
200812301800 METAR MRLB 301800Z 07016KT 9999 SCT035 BKN130 31/21 A2986=
200812301900 METAR MRLB 301900Z 09011KT 9999 SCT035 BKN130 28/20 A2982 RMK RN DST E=
200812302000 METAR MRLB 302000Z 08009KT 9999 SCT030 BKN120 30/21 A2980=
200812302100 METAR MRLB 302100Z 06015KT 9999 FEW035 BKN120 28/21 A2980=
200812302200 METAR MRLB 302200Z 07016KT 9999 SCT035 OVC130 28/20 A2980=
200812302300 METAR MRLB 302300Z 06015KT 9999 SCT035 OVC130 26/20 A2982=
200812310000 METAR MRLB 310000Z 07014KT 9999 SCT035 BKN130 25/19 A2983=
200812310100 METAR MRLB 310100Z 07014KT 9999 FEW035 BKN130 25/18 A2984=
200812310200 METAR MRLB 310200Z 09013KT 9999 FEW035 BKN130 25/19 A2987=
200812310300 METAR MRLB NIL=
200812310400 METAR MRLB NIL=
200812310500 METAR MRLB NIL=
200812310600 METAR MRLB NIL=
200812310700 METAR MRLB NIL=
200812310800 METAR MRLB NIL=
200812310900 METAR MRLB NIL=
200812311000 METAR MRLB NIL=
200812311100 METAR MRLB NIL=
200812311200 METAR MRLB 311200Z 00000KT 9999 NSC 20/18 A2985 RMK TRACE SC CI=
200812311300 METAR MRLB 311300Z 20005KT 9999 NSC 23/19 A2987 RMK TRACE AC CI=
200812311400 METAR MRLB 311400Z 31004KT 9999 NSC 24/20 A2987 RMK TRACE SC CI=
200812311500 METAR MRLB 311500Z 31003KT 9999 NSC 24/19 A2989 RMK TRACE SC=
200812311600 METAR MRLB 311600Z 29004KT 9999 NSC 29/19 A2988 RMK TRACE SC=
200812311700 METAR MRLB 311700Z 06007KT 9999 NSC 31/19 A2986 RMK TRACE SC=
200812311800 METAR MRLB 311800Z 06009KT 9999 SCT035 31/19 A2983=
200812311900 METAR MRLB 311900Z 09016KT 9999 SCT035 31/19 A2980 RMK RAFAGAS 23KT=
200812312000 METAR MRLB 312000Z 09013KT 9999 FEW035 31/20 A2978 RAFAGAS 20KT=
200812312100 METAR MRLB 312100Z 07016KT 9999 FEW040 30/19 A2977 MAX/ WIND 23KT=
200812312200 METAR MRLB 312200Z 09014G24KT 9999 FEW040 29/18 A2977=
200812312300 METAR MRLB 312300Z 08014KT 9999 NSC 28/18 A2978 TRAZAS CU=
