201001010000 METAR MRLB 010000Z 08013KT CAVOK 29/19 A2981 RMK SCT250=
201001010100 METAR MRLB NIL=
201001010200 METAR MRLB 010200Z 06011KT CAVOK 27/18 A2983 RMK BKN250=
201001010300 METAR MRLB NIL=
201001010400 METAR MRLB NIL=
201001010500 METAR MRLB NIL=
201001010600 METAR MRLB NIL=
201001010700 METAR MRLB NIL=
201001010800 METAR MRLB NIL=
201001010900 METAR MRLB NIL=
201001011000 METAR MRLB NIL=
201001011100 METAR MRLB NIL=
201001011200 METAR MRLB NIL=
201001011300 METAR MRLB 011300Z 00000KT CAVOK 27/21 A2984 RMK FEW250=
201001011400 METAR MRLB 011400Z 01004KT CAVOK 26/21 A2986 RMK SCT100=
201001011500 METAR MRLB 011500Z 07018KT CAVOK 30/19 A2987 RMK FEW250=
201001011600 METAR MRLB 011600Z 07018KT CAVOK 31/18 A2987 RMK FEW250=
201001011700 METAR MRLB 011700Z 07017KT CAVOK 33/18 A2986 RMK FEW250=
201001011800 METAR MRLB 011800Z 07018KT 9999 FEW035 33/18 A2984=
201001011900 METAR MRLB 011900Z 07020KT 9999 FEW035 33/18 A2980=
201001012000 METAR MRLB 012000Z 06018KT 9999 FEW030 33/18 A2977=
201001012100 METAR MRLB 012100Z 06020KT CAVOK 33/16 A2976 RMK FEW250=
201001012200 METAR MRLB 012200Z 07018KT CAVOK 32/17 A2976 RMK FEW250=
201001012300 METAR MRLB 012300Z 06015KT CAVOK 30/18 A2977 RMK FEW250=
201001020000 METAR MRLB 020000Z 02018KT CAVOK 28/19 A2977 RMK FEW250=
201001020100 METAR MRLB 020100Z 05018KT CAVOK 28/19 A2978 RMK FEW250=
201001020200 METAR MRLB 020200Z 06018KT CAVOK 27/20 A2980 RMK FEW250=
201001020300 METAR MRLB NIL=
201001020400 METAR MRLB NIL=
201001020500 METAR MRLB NIL=
201001020600 METAR MRLB NIL=
201001020700 METAR MRLB NIL=
201001020800 METAR MRLB NIL=
201001020900 METAR MRLB NIL=
201001021000 METAR MRLB NIL=
201001021100 METAR MRLB NIL=
201001021200 METAR MRLB 021200Z 07016KT 9999 NSC 27/18 A2975 RMK TRAZAS CU=
201001021300 METAR MRLB 021300Z 07016KT 9999 NSC 28/18 A2997 RMK TRACE CU=
201001021400 METAR MRLB 021400Z 07017KT 9999 NSC 29/19 A2980 RMK TRACE CU=
201001021500 METAR MRLB 021500Z 06020KT 9999 NSC 30/19 A2981 RMK TRACE CU=
201001021600 METAR MRLB 021600Z 06020KT 9999 FEW040 31/18 A2981=
201001021700 METAR MRLB 021700Z 06021KT 9999 FEW040 32/18 A2979=
201001021800 METAR MRLB 021800Z 05022KT 9999 FEW040 32/19 A2976=
201001021900 METAR MRLB 021900Z 07017KT 9999 FEW040 32/19 A2973=
201001022000 METAR MRLB 022000Z 06020KT 9999 BKN040 32/20 A2971=
201001022100 METAR MRLB 022100Z 06020KT 9999 FEW040 31/19 A2969=
201001022200 METAR MRLB NIL=
201001022300 METAR MRLB 022300Z 07022KT 9999 NSC 29/19 A2969 RMK TRACE CU=
201001030000 METAR MRLB 030000Z 07014KT 9999 NSC 28/20 A2969=
201001030100 METAR MRLB 030100Z 06018KT 9999 NSC 27/18 A2970 RMK TRACE CU=
201001030200 METAR MRLB 030200Z 07015KT 9999 NCS 27/19 A2973 RMK TRACE CU=
201001030300 METAR MRLB NIL=
201001030400 METAR MRLB NIL=
201001030500 METAR MRLB NIL=
201001030600 METAR MRLB NIL=
201001030700 METAR MRLB NIL=
201001030800 METAR MRLB NIL=
201001030900 METAR MRLB NIL=
201001031000 METAR MRLB NIL=
201001031100 METAR MRLB NIL=
201001031200 METAR MRLB NIL=
201001031300 METAR MRLB 031300Z 03006KT CAVOK 26/18 A2974 RMK SCT250=
201001031400 METAR MRLB 031400Z 08016KT CAVOK 28/18 A2976 RMK FEW250=
201001031500 METAR MRLB 031500Z 07018KT CAVOK 30/17 A2977 RMK FEW250=
201001031600 METAR MRLB 031600Z 06019KT CAVOK 31/17 A2978 RMK FEW250=
201001031700 METAR MRLB NIL=
201001031800 METAR MRLB 031800Z 07016KT CAVOK 33/17 A2974 RMK FEW250=
201001031900 METAR MRLB 031900Z 06013KT 9999 FEW035 33/17 A2971=
201001032000 METAR MRLB 032000Z 06016KT 9999 FEW035 33/18 A2969=
201001032100 METAR MRLB 032100Z 06019KT 9999 FEW035 32/18 A2969=
201001032200 METAR MRLB 032200Z 07019KT 9999 FEW035 31/16 A2970=
201001032300 METAR MRLB 032300Z 07015KT 9999 FEW035 29/17 A2970=
201001040000 METAR MRLB 040000Z 07016KT CAVOK 28/17 A2970 RMK FEW250=
201001040100 METAR MRLB 040100Z 08015KT CAVOK 27/17 A2971 RMK SCT250=
201001040200 METAR MRLB 040200Z 06016KT CAVOK 26/17 A2972 RMK SCT250=
201001040300 METAR MRLB NIL=
201001040400 METAR MRLB NIL=
201001040500 METAR MRLB NIL=
201001040600 METAR MRLB NIL=
201001040700 METAR MRLB NIL=
201001040800 METAR MRLB NIL=
201001040900 METAR MRLB NIL=
201001041000 METAR MRLB NIL=
201001041100 METAR MRLB NIL=
201001041200 METAR MRLB 041200Z 00000KT CAVOK 19/17 A2974 RMK FEW250=
201001041300 METAR MRLB NIL=
201001041400 METAR MRLB 041400Z 30003KT CAVOK 25/19 A2979 RMK FEW250=
201001041500 METAR MRLB 041500Z 30003KT CAVOK 30/19 A2982 RMK FEW250=
201001041600 METAR MRLB 041600Z 05012KT CAVOK 32/19 A2982 RMK FEW250=
201001041700 METAR MRLB 041700Z 08012KT CAVOK 33/18 A2981 RMK FEW250=
201001041800 METAR MRLB 041800Z 07013KT 9999 FEW030 33/19 A2978=
201001041900 METAR MRLB 041900Z 09015KT 9999 FEW030 33/19 A2975=
201001042000 METAR MRLB 042000Z 09014KT 9999 FEW035 33/19 A2972=
201001042100 METAR MRLB 042100Z 09015KT 9999 FEW035 33/20 A2971=
201001042200 METAR MRLB 042200Z 08014KT CAVOK 32/20 A2972 RMK FEW250=
201001042300 METAR MRLB 042300Z 07007KT CAVOK 31/19 A2973 RMK FEW250=
201001050000 METAR MRLB 050000Z 35003KT CAVOK 28/21 A2975 RMK FEW250=
201001050100 METAR MRLB 050100Z 23003KT CAVOK 26/21 A2976 RMK FEW200=
201001050200 METAR MRLB NIL=
201001050300 METAR MRLB NIL=
201001050400 METAR MRLB NIL=
201001050500 METAR MRLB NIL=
201001050600 METAR MRLB NIL=
201001050700 METAR MRLB NIL=
201001050800 METAR MRLB NIL=
201001050900 METAR MRLB NIL=
201001051000 METAR MRLB NIL=
201001051100 METAR MRLB NIL=
201001051200 METAR MRLB 051200Z 31003KT 9999 NSC 21/19 A2983 RMK TRACE CU=
201001051300 METAR MRLB 051300Z 00000KT 9999 NSC 24/20 A2985 RMK TRACE CU=
201001051400 METAR MRLB 051400Z 20005KT 9999 FEW040 26/20 A2988=
201001051500 METAR MRLB 051500Z 30005KT 9999 FEW040 28/20 A2991=
201001051600 METAR MRLB 051600Z 26004KT 9999 FEW040 30/20 A2991=
201001051700 METAR MRLB 051700Z 25005KT 9999 SCT040 31/20 A2989=
201001051800 METAR MRLB 051800Z 32009KT 9999 BKN035 30/20 A2987=
201001051900 METAR MRLB 051900Z 35008KT 9999 SCT040 30/19 A2984=
201001052000 METAR MRLB 052000Z 29006KT 9999 SCT040 30/19 A2980=
201001052100 METAR MRLB 052100Z 08011KT 9999 SCT040 31/20 A2979=
201001052200 METAR MRLB 052200Z 33004KT 9999 SCT040 30/20 A2979=
201001052300 METAR MRLB 052300Z 36003KT 9999 FEW040 29/19 A2980=
201001060000 METAR MRLB 060000Z 03008KT 9999 SCT040 27/19 A2980=
201001060100 METAR MRLB 060100Z 24004KT 9999 SCT040 25/20 A2981=
201001060200 METAR MRLB 060200Z 14003KT 9999 FEW040 26/19 A2983=
201001060300 METAR MRLB NIL=
201001060400 METAR MRLB NIL=
201001060500 METAR MRLB NIL=
201001060600 METAR MRLB NIL=
201001060700 METAR MRLB NIL=
201001060800 METAR MRLB NIL=
201001060900 METAR MRLB NIL=
201001061000 METAR MRLB NIL=
201001061100 METAR MRLB NIL=
201001061200 METAR MRLB 061200Z 22006KT 9999 BKN035 24/18 A2984=
201001061300 METAR MRLB 061300Z 15005KT 9999 BKN035 25/19 A2987=
201001061400 METAR MRLB 061400Z 25007KT 9999 SCT035 26/19 A2988=
201001061500 METAR MRLB 061500Z 17004KT 9999 SCT035 28/18 A2988=
201001061600 METAR MRLB 061600Z 26007KT 9999 FEW035 30/17 A2988=
201001061700 METAR MRLB 061700Z 09015KT 9999 FEW035 32/17 A2985=
201001061800 METAR MRLB 061800Z 06014KT 9999 SCT035 32/16 A2983=
201001061900 METAR MRLB 061900Z 08014KT 9999 SCT035 31/16 A2981=
201001062000 METAR MRLB 062000Z 06015KT 9999 SCT040 32/18 A2978=
201001062100 METAR MRLB 062100Z 07017KT 9999 SCT040 32/17 A2976=
201001062200 METAR MRLB 062200Z 07018KT 9999 FEW040 29/18 A2974=
201001062300 METAR MRLB 062300Z 07016KT 9999 SCT040 28/18 A2976=
201001070000 METAR MRLB 070000Z 08012KT 9999 SCT040 27/18 A2997=
201001070100 METAR MRLB 070100Z 07013KT 9999 FEW035 SCT250 26/19 A2978=
201001070200 METAR MRLB 070200Z 18014KT 9999 SCT035 SCT250 25/18 A2979=
201001070300 METAR MRLB NIL=
201001070400 METAR MRLB NIL=
201001070500 METAR MRLB NIL=
201001070600 METAR MRLB NIL=
201001070700 METAR MRLB NIL=
201001070800 METAR MRLB NIL=
201001070900 METAR MRLB NIL=
201001071000 METAR MRLB NIL=
201001071100 METAR MRLB NIL=
201001071200 METAR MRLB 071200Z 28003KT CAVOK 23/18 A2978 RMK FEW100=
201001071300 METAR MRLB 071300Z 14003KT 9999 FEW040 26/18 A2980=
201001071400 METAR MRLB 071400Z 26005KT 9999 FEW035 SCT180 27/18 A2984=
201001071500 METAR MRLB 071500Z 08014KT 9999 FEW035 30/18 A2985=
201001071600 METAR MRLB 071600Z 09016KT 9999 FEW035 SCT250 31/18 A2984=
201001071700 METAR MRLB 071700Z 09018KT 9999 FEW030 SCT140 31/18 A2984=
201001071800 METAR MRLB 071800Z 08015KT 9999 FEW035 SCT250 31/18 A2981=
201001071900 METAR MRLB 071900Z 08016KT 9999 FEW035 SCT250 31/18 A2978=
201001072000 METAR MRLB 072000Z 10020KT 9999 FEW045 SCT250 30/18 A2975=
201001072100 METAR MRLB 072100Z 10016KT 9999 FEW040 29/19 A2973=
201001072200 METAR MRLB 072200Z 08020KT 9999 FEW040 SCT120 28/19 A2974=
201001072300 METAR MRLB 072300Z 08018G28KT 9999 FEW025 SCT120 27/19 A2975=
201001080000 METAR MRLB 080000Z 10015KT 9999 FEW025 SCT100 26/19 A2974=
201001080100 METAR MRLB 080100Z 09014KT 9999 FEW040 SCT120 26/19 A2976=
201001080200 METAR MRLB 080200Z 10015KT 9999 FEW045 SCT120 26/20 A2977=
201001080300 METAR MRLB NIL=
201001080400 METAR MRLB NIL=
201001080500 METAR MRLB NIL=
201001080600 METAR MRLB NIL=
201001080700 METAR MRLB NIL=
201001080800 METAR MRLB NIL=
201001080900 METAR MRLB NIL=
201001081000 METAR MRLB NIL=
201001081100 METAR MRLB NIL=
201001081200 METAR MRLB 081200Z 23006KT 9999 SKC 22/19 A2979=
201001081300 METAR MRLB 081300Z 20003KT 9999 SKC 24/19 A2980=
201001081400 METAR MRLB 081400Z 28006KT 9999 SKC 26/20 A2982=
201001081500 METAR MRLB 081500Z 26005KT 9999 SKC 28/20 A2984=
201001081600 METAR MRLB 081600Z 24005KT CAVOK 30/19 A2984 RMK FEW140=
201001081700 METAR MRLB 081700Z 06020KT CAVOK 32/18 A2982 RMK FEW140=
201001081800 METAR MRLB 081800Z 06017KT CAVOK 34/19 A2980 RMK SCT140=
201001081900 METAR MRLB 081900Z 07016KT CAVOK 33/19 A2978 RMK FEW140=
201001082000 METAR MRLB 082000Z 08015KT CAVOK 33/19 A2975 RMK BKN140=
201001082100 METAR MRLB 082100Z 07015KT CAVOK 32/19 A2973 RMK BKN140=
201001082200 METAR MRLB 082200Z 07017KT CAVOK 30/19 A2972 RMK BKN130=
201001082300 METAR MRLB 082300Z 07016KT CAVOK 29/19 A2973 RMK BKN130=
201001090000 METAR MRLB 090000Z 07018KT CAVOK 29/19 A2973 RMK BKN130=
201001090100 METAR MRLB 090100Z 08021G33KT CAVOK 28/19 A2974 RMK BKN130=
201001090200 METAR MRLB NIL=
201001090300 METAR MRLB NIL=
201001090400 METAR MRLB NIL=
201001090500 METAR MRLB NIL=
201001090600 METAR MRLB NIL=
201001090700 METAR MRLB NIL=
201001090800 METAR MRLB NIL=
201001090900 METAR MRLB NIL=
201001091000 METAR MRLB NIL=
201001091100 METAR MRLB NIL=
201001091200 METAR MRLB 091200Z 04007KT CAVOK 25/19 A2977 RMK SCT250=
201001091300 METAR MRLB 091300Z 08014KT CAVOK 27/19 A2977 RMK SCT250=
201001091400 METAR MRLB 091400Z 09013KT CAVOK 29/19 A2981 RMK SCT250=
201001091500 METAR MRLB 091500Z 09014KT CAVOK 30/19 A2984 RMK FEW250=
201001091600 METAR MRLB 091600Z 08015KT CAVOK 31/18 A2984 RMK FEW250=
201001091700 METAR MRLB 091700Z 08013KT CAVOK 32 18 A2983 RMK FE250=
201001091800 METAR MRLB 091800Z 08014KT CAVOK 33/18 A2881 FEW250=
201001091900 METAR MRLB 091900Z 08014KT CAVOK 33/19 A2978 RMK FEW250=
201001092000 METAR MRLB 092000Z 08012KT 9999 FEW035 32/18 A2975=
201001092100 METAR MRLB 092100Z 10015KT 9999 FEW035 33/19 A2973=
201001092200 METAR MRLB 092200Z 09014KT 9999 FEW035 31/20 A2973=
201001092300 METAR MRLB 092300Z 08012KT 9999 FEW035 29/19 A2975=
201001100000 METAR MRLB 100000Z 08015KT CAVOK 28/17 A2976 RMK SCT250=
201001100100 METAR MRLB 100100Z 09014KT CAVOK 28/18 A2978 RMK SCT250=
201001100200 METAR MRLB 100200Z 08014KT CAVOK 27/18 A2980 RMK BKN250=
201001100300 METAR MRLB NIL=
201001100400 METAR MRLB NIL=
201001100500 METAR MRLB NIL=
201001100600 METAR MRLB NIL=
201001100700 METAR MRLB NIL=
201001100800 METAR MRLB NIL=
201001100900 METAR MRLB NIL=
201001101000 METAR MRLB NIL=
201001101100 METAR MRLB NIL=
201001101200 METAR MRLB 101200Z 24010KT CAVOK 24/18 A2979 RMK BKN150=
201001101300 METAR MRLB 101300Z 22008KT CAVOK 25/18 A2984 RMK BKN150=
201001101400 METAR MRLB 101400Z 20014KT CAVOK 26/18 A2987 RMK BKN170=
201001101500 METAR MRLB 101500Z 20010KT CAVOK 28/18 A2989 RMK SCT240=
201001101600 METAR MRLB 101600Z 25010KT CAVOK 31/17 A2990 RMK SCT240=
201001101700 METAR MRLB 101700Z 20007KT CAVOK 32/17 A2986 RMK SCT250=
201001101800 METAR MRLB 101800Z 08020KT CAVOK 32/17 A2984 RMK BKN220=
201001101900 METAR MRLB 101900Z 08016KT CAVOK 32/18 A2981 RMK FEW150 SCT240=
201001102000 METAR MRLB 102000Z 09010KT CAVOK 32/17 A2978 RMK FEW120 SCT220=
201001102100 METAR MRLB 102100Z 33015KT 9999 FEW035 SCT250 31/17 A2979=
201001102200 METAR MRLB 102200Z 19003KT 9999 FEW035 BKN220 30/18 A2979=
201001102300 METAR MRLB 102300Z 30005KT 9999 FEW030 SCT170 29/18 A2980=
201001110000 METAR MRLB 110000Z 25006KT CAVOK 27/18 A2981 RMK SCT140=
201001110100 METAR MRLB 110100Z 20007KT CAVOK 27/18 A2982 SCT120=
201001110200 METAR MRLB 110200Z 19005KT CAVOK 26/19 A2983 SCT120=
201001110300 METAR MRLB NIL=
201001110400 METAR MRLB NIL=
201001110500 METAR MRLB NIL=
201001110600 METAR MRLB NIL=
201001110700 METAR MRLB NIL=
201001110800 METAR MRLB NIL=
201001110900 METAR MRLB NIL=
201001111000 METAR MRLB NIL=
201001111100 METAR MRLB NIL=
201001111200 METAR MRLB 111200Z 21008KT 9999 NSC 23/16 A2982 RMK TRACE CU=
201001111300 METAR MRLB NIL=
201001111400 METAR MRLB 111400Z 25013KT CAVOK 26/16 A2987 RMK SCT250=
201001111500 METAR MRLB 111500Z 17012KT CAVOK 28/15 A2988 RMK SCT25=
201001111600 METAR MRLB 111600Z 28010KT CAVOK 29/15 A2990 RMK BKN250=
201001111700 METAR MRLB 111700Z 23012KT CAVOK 31/15 A2986 RMK OVC250=
201001111800 METAR MRLB 111800Z 08012KT CAVOK 31/14 A2984 RMK OVC250=
201001111900 METAR MRLB 111900Z 04005KT CAVOK 33/14 A2982 RMK OVC250=
201001112000 METAR MRLB 112000Z 09015KT CAVOK 31/15 A2980 RMK OVC250=
201001112100 METAR MRLB 112100Z 10011KT CAVOK 30/15 A2980 RMK OVC250=
201001112200 METAR MRLB 112200Z 11012KT CAVOK 29/16 A2981 RMK OVC250=
201001112300 METAR MRLB 112300Z 11009KT CAVOK 27/17 A2983 RMK OVC250=
201001120000 METAR MRLB 120000Z 20004KT CAVOK 26/17 A2985 RMK OVC250=
201001120100 METAR MRLB 120100Z 25004KT CAVOK 24/17 A2985 RMK OVC250=
201001120200 METAR MRLB 120200Z 17006KT CAVOK 24/16 A2986 RMK OVC250=
201001120300 METAR MRLB NIL=
201001120400 METAR MRLB NIL=
201001120500 METAR MRLB NIL=
201001120600 METAR MRLB NIL=
201001120700 METAR MRLB NIL=
201001120800 METAR MRLB NIL=
201001120900 METAR MRLB NIL=
201001121000 METAR MRLB NIL=
201001121100 METAR MRLB NIL=
201001121200 METAR MRLB 121200Z 24008KT CAVOK 21/14 A2986 RMK BKN250=
201001121300 METAR MRLB 121300Z 19007KT CAVOK 22/14 A2988 RMK BKN250=
201001121400 METAR MRLB 121400Z 22008KT CAVOK 24/14 A2990 RMK BKN250=
201001121500 METAR MRLB 121500Z 07010KT CAVOK 26/14 A2993 RMK BKN250=
201001121600 METAR MRLB 121600Z 06011KT CAVOK 28/14 A2993 RMK SCT250=
201001121700 METAR MRLB 121700Z 07011KT CAVOK 30/14 A2991 RMK SCT250=
201001121800 METAR MRLB 121800Z 07018KT CAVOK 30/14 A2987 RMK BKN250=
201001121900 METAR MRLB 121900Z 08015KT CAVOK 31/15 A2986 RMK BKN250=
201001122000 METAR MRLB 122000Z 09013KT CAVOK 30/15 A2984 RMK BKN250=
201001122100 METAR MRLB 122100Z 06016KT CAVOK 30/16 30/16 A2984 RMK BKN250=
201001122200 METAR MRLB 122200Z 25006KT 06017KT CAVOK 28/16 A2983 RMK BKN250=
201001122300 METAR MRLB 122300Z 05015KT CAVOK 26/16 A2985 RMK BKN230=
201001130000 METAR MRLB 130000Z 06013KT CAVOK 25/16 A2986 RMK BKN230=
201001130100 METAR MRLB 130100Z 05016KT CAVOK 24/17 A2989 RMK BKN140=
201001130200 METAR MRLB 130200Z 06015KT CAVOK 23/16 A2991 RMK BKN140=
201001130300 METAR MRLB NIL=
201001130400 METAR MRLB NIL=
201001130500 METAR MRLB NIL=
201001130600 METAR MRLB NIL=
201001130700 METAR MRLB NIL=
201001130800 METAR MRLB NIL=
201001130900 METAR MRLB NIL=
201001131000 METAR MRLB NIL=
201001131100 METAR MRLB NIL=
201001131200 METAR MRLB 131200Z 00000KT CAVOK 21/16 A2986 RMK FEW250=
201001131300 METAR MRLB 131300Z 28006KT CAVOK 24/16 A2985 RMK FEW250=
201001131400 METAR MRLB 131400Z 04015KT CAVOK 28/14 A2988 RMK FEW250=
201001131500 METAR MRLB 131500Z 04012KT CAVOK 29/15 A2990 RMK FEW250=
201001131600 METAR MRLB 131600Z 05015KT CAVOK 31/15 A2989 RMK FEW090=
201001131700 METAR MRLB 131700Z 05015KT CAVOK 31/15 A2988 RMK FEW250=
201001131800 METAR MRLB 131800Z 07016KT CAVOK 31/16 A2984 RMK FEW250=
201001131900 METAR MRLB 131900Z 07020KT CAVOK 31/15 A2981 RMK FEW250=
201001132000 METAR MRLB 132000Z 08018KT CAVOK 30/16 A2979 RMK FEW250=
201001132100 METAR MRLB 132100Z 09016KT CAVOK 30/16 A2997 RMK FEW250=
201001132200 METAR MRLB 132200Z 09017KT CAVOK 30/16 A2976 RMK FEW250=
201001132300 METAR MRLB 132300Z 10015KT CAVOK 28/17 A2977 RMK FEW250=
201001140000 METAR MRLB 140000Z 09014KT CAVOK 26/17 A2978 RMK SCT250=
201001140100 METAR MRLB 140100Z 10010KT CAVOK 25/17 A2979 RMK FEW250=
201001140200 METAR MRLB 140200Z 09015KT CAVOK 25/17 A2981 RMK FEW250=
201001140300 METAR MRLB NIL=
201001140400 METAR MRLB NIL=
201001140500 METAR MRLB NIL=
201001140600 METAR MRLB NIL=
201001140700 METAR MRLB NIL=
201001140800 METAR MRLB NIL=
201001140900 METAR MRLB NIL=
201001141000 METAR MRLB NIL=
201001141100 METAR MRLB NIL=
201001141200 METAR MRLB 141200Z 25005KT 9999 SKC 21/16 A2980=
201001141300 METAR MRLB 141300Z 27004KT 9999 SKC 23/17 A2983=
201001141400 METAR MRLB 141400Z 25005KT 9999 SKC 25/18 A2985=
201001141500 METAR MRLB 141500Z 30007KT 9999 SKC 27/17 A2987=
201001141600 METAR MRLB 141600Z 09016KT 9999 SKC 29/17 A2987=
201001141700 METAR MRLB 141700Z 09015KT 9999 SKC 31/17 A2985=
201001141800 METAR MRLB 141800Z 09016KT 9999 SKC 31/16 A2983=
201001141900 METAR MRLB 141900Z 07018KT 9999 SKC 32/16 A2981=
201001142000 METAR MRLB 142000Z 08016KT 9999 SKC 31/16 A2979=
201001142100 METAR MRLB 142100Z 08014KT 9999 SKC 31/17 A2978=
201001142200 METAR MRLB 142200Z 09015KT 9999 SKC 30/18 A2977=
201001142300 METAR MRLB 142300Z 09011KT 9999 SKC 29/18 A2978=
201001150000 METAR MRLB 150000Z 09012KT 9999 SKC 28/18 A2979=
201001150100 METAR MRLB 150100Z 08012KT 9999 SKC 27/18 A2980=
201001150200 METAR MRLB NIL=
201001150300 METAR MRLB NIL=
201001150400 METAR MRLB NIL=
201001150500 METAR MRLB NIL=
201001150600 METAR MRLB NIL=
201001150700 METAR MRLB NIL=
201001150800 METAR MRLB NIL=
201001150900 METAR MRLB NIL=
201001151000 METAR MRLB NIL=
201001151100 METAR MRLB NIL=
201001151200 METAR MRLB 151200Z 00000KT CAVOK 21/18 A2981 RMK SCT250=
201001151300 METAR MRLB 151300Z 10006KT CAVOK 23/19 A2981 RMK SCT250=
201001151400 METAR MRLB 151400Z 08008KT CAVOK 28/20 A2984 RMK FEW250=
201001151500 METAR MRLB 151500Z 08009KT CAVOK 29/19 A2987 RMK SCT250=
201001151600 METAR MRLB 151600Z 06008KT CAVOK 31/18 A2986 RMK SCT250=
201001151700 METAR MRLB NIL=
201001151800 METAR MRLB 151800Z 06009KT CAVOK 33/16 A2982 RMK BKN250=
201001151900 METAR MRLB 151900Z 07009KT CAVOK 34/16 A2979 RMK BKN250=
201001152000 METAR MRLB NIL=
201001152100 METAR MRLB 152100Z 10011KT CAVOK 34/16 A2975 RMK BKN250=
201001152200 METAR MRLB 152200Z 07009KT CAVOK 33/17 A2976 RMK BKN250=
201001152300 METAR MRLB 152300Z 04011KT CAVOK 32/18 A2976 RMK BKN240=
201001160000 METAR MRLB 160000Z 06008KT 9999 FEW035 BKN240 30/19 A2978=
201001160100 METAR MRLB 160100Z 32002KT 9999 FEW035 BKN240 28/20 A2979=
201001160200 METAR MRLB 160200Z 30002KT 9999 FEW035 BKN240 27/20 A2980=
201001160300 METAR MRLB NIL=
201001160400 METAR MRLB NIL=
201001160500 METAR MRLB NIL=
201001160600 METAR MRLB NIL=
201001160700 METAR MRLB NIL=
201001160800 METAR MRLB NIL=
201001160900 METAR MRLB NIL=
201001161000 METAR MRLB NIL=
201001161100 METAR MRLB NIL=
201001161200 METAR MRLB 161200Z 00000KT CAVOK 21/19 A2979 RMK FEW250=
201001161300 METAR MRLB 161300Z 05003KT CAVOK 23/20 A2981 RMK FEW250=
201001161400 METAR MRLB 161400Z 04003KT CAVOK 26/20 A2984 RMK FEW250=
201001161500 METAR MRLB 161500Z 00000KT CAVOK 29/21 A2986 RMK FEW250=
201001161600 METAR MRLB 161600Z 04004KT 9999 FEW030 SCT250 31/20 A2986=
201001161700 METAR MRLB 161700Z 10008KT 9999 FEW030 SCT250 33/19 A2984=
201001161800 METAR MRLB 161800Z 07010KT 9999 SCT030 BKN250 34/19 A2982=
201001161900 METAR MRLB 161900Z 09007KT 9999 SCT030 BKN250 34/18 A2979=
201001162000 METAR MRLB 162000Z 08008KT 9999 SCT030 BKN250 34/19 A2976=
201001162100 METAR MRLB NIL=
201001162200 METAR MRLB 162200Z 25008KT 9999 SCT035 BKN250 32/22 A2976=
201001162300 METAR MRLB 162300Z 01005KT 9999 FEW035 31/21 A2977=
201001170000 METAR MRLB 170000Z 08010KT CAVOK 30/20 A2978 RMK FEW140=
201001170100 METAR MRLB 170100Z 06006KT CAVOK 29/20 A2980 RMK FEW250=
201001170200 METAR MRLB 170200Z 04005KT CAVOK 28/20 A2982 RMK FEW250=
201001170300 METAR MRLB NIL=
201001170400 METAR MRLB NIL=
201001170500 METAR MRLB NIL=
201001170600 METAR MRLB NIL=
201001170700 METAR MRLB NIL=
201001170800 METAR MRLB NIL=
201001170900 METAR MRLB NIL=
201001171000 METAR MRLB NIL=
201001171100 METAR MRLB NIL=
201001171200 METAR MRLB 171200Z 27002KT 9999 SKC 22/19 A2980=
201001171300 METAR MRLB 171300Z 05005KT 9999 SKC 22/19 A2981=
201001171400 METAR MRLB 171400Z 26003KT 9999 SKC 26/20 A2983=
201001171500 METAR MRLB 171500Z 03015KT 9999 SKC 30/19 A2986=
201001171600 METAR MRLB 171600Z 07017KT 9999 SKC 32/19 A2987=
201001171700 METAR MRLB 171700Z 08016KT 9999 SKC 33/18 A2985=
201001171800 METAR MRLB 171800Z 06020KT 9999 SKC 33/18 A2983=
201001171900 METAR MRLB 171900Z 07020KT 9999 SKC 34/18 A2980=
201001172000 METAR MRLB 172000Z 07018KT 9999 SKC 34/18 A2977=
201001172100 METAR MRLB 172100Z 36018KT 9999 SKC 33/18 A2976=
201001172200 METAR MRLB 172200Z 06016KT 9999 SKC 33/17 A2976=
201001172300 METAR MRLB 172300Z 07014KT 9999 SKC 31/17 A2978=
201001180000 METAR MRLB 180000Z 08012KT 9999 SKC 30/17 A2979=
201001180100 METAR MRLB 180100Z 09013KT 9999 SKC 29/18 A2979=
201001180200 METAR MRLB 180200Z 09012KT 9999 SKC 28/19 A2981=
201001180300 METAR MRLB NIL=
201001180400 METAR MRLB NIL=
201001180500 METAR MRLB NIL=
201001180600 METAR MRLB NIL=
201001180700 METAR MRLB NIL=
201001180800 METAR MRLB NIL=
201001180900 METAR MRLB NIL=
201001181000 METAR MRLB NIL=
201001181100 METAR MRLB NIL=
201001181200 METAR MRLB 181200Z 06003KT CAVOK 22/19 A2984 RMK SCT250=
201001181300 METAR MRLB NIL=
201001181400 METAR MRLB 181400Z 27003KT CAVOK 26/20 A2986 RMK SCT250=
201001181500 METAR MRLB 181500Z 05005KT CAVOK 28/20 A2988 RMK SCT250=
201001181600 METAR MRLB 181600Z 07019KT 9999 SCT035 30/19 A2989=
201001181700 METAR MRLB 181700Z 07016KT 9999 FEW035 32/19 A2987=
201001181800 METAR MRLB 181800Z 06016KT 9999 FEW035 34/18 A2985=
201001181900 METAR MRLB 181900Z 06015KT 9999 FEW035 33/17 A2983=
201001182000 METAR MRLB 182000Z 05016KT 9999 FEW035 33/18 A2980=
201001182100 METAR MRLB 182100Z 06014KT 9999 FEW035 34/18 A2978=
201001182200 METAR MRLB 182200Z 07014KT CAVOK 32/17 A2979 RMK FEW250=
201001182300 METAR MRLB 182300Z 06016KT CAVOK 31/18 A2979 RMK FEW250=
201001190000 METAR MRLB 190000Z 07012KT CAVOK 29/18 A2980 RMK SCT250=
201001190100 METAR MRLB 190100Z 07014KT CAVOK 28/19 A2981 RMK SCT250=
201001190200 METAR MRLB 190200Z 06013KT CAVIK 27/18 A2982 RMK SCT250=
201001190300 METAR MRLB NIL=
201001190400 METAR MRLB NIL=
201001190500 METAR MRLB NIL=
201001190600 METAR MRLB NIL=
201001190700 METAR MRLB NIL=
201001190800 METAR MRLB NIL=
201001190900 METAR MRLB NIL=
201001191000 METAR MRLB NIL=
201001191100 METAR MRLB NIL=
201001191200 METAR MRLB 191200Z 06013KT CAVOK 26/18 A2977 RMK FEW250=
201001191300 METAR MRLB 191300Z 04008KT CAVOK 25/18 A2980 RMK FEW250=
201001191400 METAR MRLB 191400Z 06015KT 9999 SKC 29/17 A2983=
201001191500 METAR MRLB 191500Z 07019KT CAVOK 31/17 A2984 RMK FEW250 VEL MAX VTO 28KT=
201001191600 METAR MRLB 191600Z 07018KT CAVOK 31/17 A2984 RMK SCT280 VEL MAX VTO 25KT=
201001191700 METAR MRLB 191700Z 07017KT 9999 SKC 32/17 A2982=
201001191800 METAR MRLB 191800Z 08016KT CAVOK 32/17 A2980 RMK FEW280 VEL MAX VTO 23KT=
201001191900 METAR MRLB 191900Z 06017KT 9999 NSC 33/17 A2976 TRACE CU=
201001192000 METAR MRLB 192000Z 08013KT 9999 NSC 34/17 A2976 RMK TRACE SC VEL MAX VTO 22KT=
201001192100 METAR MRLB 192100Z 08011KT 9999 NSC 36/16 A2975 RMK TRAZAS SC=
201001192200 METAR MRLB 192200Z 07016KT 9999 NSC 33/17 A2974 RMK TRAZAS SC=
201001192300 METAR MRLB 192300Z 06016KT 9999 NSC 31/18 A2974 RMK TRAZAS SC=
201001200000 METAR MRLB 200000Z 06013KT 9999 SKC 29/18 A2974=
201001200100 METAR MRLB 200100Z 07013KT 9999 SKC 28/18 A2975=
201001200200 METAR MRLB 200200Z 08014KT 9999 SKC 28/18 A2976=
201001200300 METAR MRLB NIL=
201001200400 METAR MRLB NIL=
201001200500 METAR MRLB NIL=
201001200600 METAR MRLB NIL=
201001200700 METAR MRLB NIL=
201001200800 METAR MRLB NIL=
201001200900 METAR MRLB NIL=
201001201000 METAR MRLB NIL=
201001201100 METAR MRLB NIL=
201001201200 METAR MRLB 201200Z 0000KT 9999 SKC 20/18 A2973=
201001201300 METAR MRLB 201300Z 03004KT 9999 SKC 21/18 A2976=
201001201400 METAR MRLB 201400Z 23003KT 9999 SKC 25/19 A2977=
201001201500 METAR MRLB 201500Z 07010KT 9999 SKC 31/18 A2981=
201001201600 METAR MRLB 201600Z 07011KT 9999 SKC 32/21 A2981=
201001201700 METAR MRLB 201700Z 06011KT 9999 SKC 34/17 A2978=
201001201800 METAR MRLB 201800Z 08012KT 9999 NSC 34/18 A2975 RMK TRAZAS CU=
201001201900 METAR MRLB 201900Z 04013KT 9999 FEW040 35/19 A2972=
201001202000 METAR MRLB 202000Z 05012KT 9999 FEW040 35/19 A2969=
201001202100 METAR MRLB 202100Z 06013KT 9999 FEW140 33/20 A2969=
201001202200 METAR MRLB 202200Z 05016KT 9999 NSC 33/19 A2968 RMK TRACE CU=
201001202300 METAR MRLB 202300Z 07013KT 9999 NSC 31/19 A2969 RMK TRACE CU=
201001210000 METAR MRLB 210000Z 07012KT 9999 NSC 30/20 A2970 RMK TRACE CU=
201001210100 METAR MRLB 210100Z 07015KT 9999 NSC 29/19 A2971 RMK TRACE CU=
201001210200 METAR MRLB 210200Z 06016KT 9999 SKC 28/20 A2973=
201001210300 METAR MRLB NIL=
201001210400 METAR MRLB NIL=
201001210500 METAR MRLB NIL=
201001210600 METAR MRLB NIL=
201001210700 METAR MRLB NIL=
201001210800 METAR MRLB NIL=
201001210900 METAR MRLB NIL=
201001211000 METAR MRLB NIL=
201001211100 METAR MRLB NIL=
201001211200 METAR MRLB 211200Z 00000KT CAVOK 22/19 A2972 RMK SCT250=
201001211300 METAR MRLB 211300Z 04002KT CAVOK 29/19 A2974 RMK SCT250=
201001211400 METAR MRLB 211400Z 00000KT CAVOK 26/20 A2977 RMK SCT250=
201001211500 METAR MRLB 211500Z 25002KT CAVOK 28/20 A2980 RMK SCT250=
201001211600 METAR MRLB 211600Z 08013KT CAVOK 30/17 A2980 RMK FEW250=
201001211700 METAR MRLB 211700Z 08010KT CAVOK 32/18 A2979 RMK FW250=
201001211800 METAR MRLB 211800Z 06010KT CAVOK 34/18 A2976 RMK FEW250=
201001211900 METAR MRLB 211900Z 08009KT 9999 FEW035 35/18 A2973=
201001212000 METAR MRLB 212000Z 09007KT 9999 FEW035 34/17 A2971=
201001212100 METAR MRLB 212100Z 04005KT 9999 FEW035 35/17 A2970=
201001212200 METAR MRLB NIL=
201001212300 METAR MRLB 212300Z 07006KT 9999 FEW035 33/18 A2972=
201001220000 METAR MRLB 220000Z 28008KT CAVOK 29/22 A2973 RMK SCT250=
201001220100 METAR MRLB 220100Z 30005KT CAVOK 28/22 A2975 RMK SCT250=
201001220200 METAR MRLB 220200Z 31002KT CAVOK 27/21 A2976 RMK SCT250=
201001220300 METAR MRLB NIL=
201001220400 METAR MRLB NIL=
201001220500 METAR MRLB NIL=
201001220600 METAR MRLB NIL=
201001220700 METAR MRLB NIL=
201001220800 METAR MRLB NIL=
201001220900 METAR MRLB NIL=
201001221000 METAR MRLB NIL=
201001221100 METAR MRLB NIL=
201001221200 METAR MRLB 221200Z 00000KT 9999 SKC 20/18 A2977=
201001221300 METAR MRLB 221300Z 00000KT 9999 SKC 22/19 A2979=
201001221400 METAR MRLB 221400Z 20002KT 9999 SKC 26/20 A2981=
201001221500 METAR MRLB 221500Z 19003KT 9999 SKC 29/20 A2983=
201001221600 METAR MRLB 221600Z 24003KT 9999 SKC 31/20 A2985=
201001221700 METAR MRLB 221700Z 14005KT 9999 SKC 33/17 A2982=
201001221800 METAR MRLB 221800Z 01006KT 9999 SKC 35/13 A2978=
201001221900 METAR MRLB 221900Z 26009KT 9999 SKC 36/18 A2975=
201001222000 METAR MRLB 222000Z 27011KT 9999 NSC 33/20 A2973 RMK TRACE CU=
201001222100 METAR MRLB 222100Z 28010KT 9999 SKC 33/18 A2972=
201001222200 METAR MRLB 222200Z 27009KT 9999 SKC 32/19 A2973=
201001222300 METAR MRLB 222300Z 25007KT 9999 SKC 31/18 A2974=
201001230000 METAR MRLB 230000Z 24004KT 9999 SKC 29/20 A2976=
201001230100 METAR MRLB 230100Z 21003KT SKC 27/20 A2977=
201001230200 METAR MRLB 230200Z 22002KT 9999 SKC 27/21 A2979=
201001230300 METAR MRLB NIL=
201001230400 METAR MRLB NIL=
201001230500 METAR MRLB NIL=
201001230600 METAR MRLB NIL=
201001230700 METAR MRLB NIL=
201001230800 METAR MRLB NIL=
201001230900 METAR MRLB NIL=
201001231000 METAR MRLB NIL=
201001231100 METAR MRLB NIL=
201001231200 METAR MRLB 231200Z 03004KT 9999 FEW040 21/19 A2980 RMK HZ ARND=
201001231300 METAR MRLB 231300Z 03004KT 9999 SKC 22/19 A2981 RMK HZ ARND=
201001231400 METAR MRLB 231400Z 03004KT 9999 SKC 26/20 A2982 RMK HZ ARND=
201001231500 METAR MRLB 231500Z 29002KT 9999 SKC 30/21 A2985 RMK HZ ARND=
201001231600 METAR MRLB 231600Z 25002KT 9999 NSC 32/21 A2984 RMK TRACE CU HZ ARND=
201001231700 METAR MRLB 231700Z 33003KT 9999 FEW040 33/21 A2983 RMK HZ ARND=
201001231800 METAR MRLB 231800Z 26008KT 9999 BKN035 3/20 A2979 RMK HZ ARND=
201001231900 METAR MRLB 231900Z 28007KT 9999 SCT035 30/20 A2975=
201001232000 METAR MRLB 232000Z 25009KT 9999 SCT035 33/20 A2972=
201001232100 METAR MRLB 232100Z 25009KT 9999 BKN035 32/19 A2971=
201001232200 METAR MRLB 232200Z 27009KT 9999 BKN035 32/19 A2971 RMK LGT HZ ARND=
201001232300 METAR MRLB 232300Z 27007KT 9999 SCT035 32/19 A2971 RMK HZY=
201001240000 METAR MRLB 240000Z 23006KT 9999 SCT035 29/20 A2973=
201001240100 METAR MRLB 240100Z 13003KT 9999 FEW035 28/20 A2975=
201001240200 METAR MRLB NIL=
201001240300 METAR MRLB NIL=
201001240400 METAR MRLB NIL=
201001240500 METAR MRLB NIL=
201001240600 METAR MRLB NIL=
201001240700 METAR MRLB NIL=
201001240800 METAR MRLB NIL=
201001240900 METAR MRLB NIL=
201001241000 METAR MRLB NIL=
201001241100 METAR MRLB NIL=
201001241200 METAR MRLB 241200Z 05002KT CAVOK 23/20 A2976 RMK BKN240=
201001241300 METAR MRLB 241300Z 06002KT CAVOK 24/20 A2978 RMK BKN240 HZY=
201001241400 METAR MRLB 241400Z 30002KT CAVOK 26/21 A2981 RMK SCT250 HZY=
201001241500 METAR MRLB 241500Z 32002KT CAVOK 28/21 A2984 RMK SCT250 HZY=
201001241600 METAR MRLB 241600Z 31003KT CAVOK 30/20 A2984 RMK SCT250 HZY=
201001241700 METAR MRLB 241700Z 32006KT 9999 SCT035 32/19 A2982 RMK HZY=
201001241800 METAR MRLB 241800Z 24007KT 9999 SCT035 33/20 A2978 RMK HZ ARND=
201001241900 METAR MRLB 241900Z 30006KT 9999 SCT035 34/20 A2974 RMK HZY=
201001242000 METAR MRLB 242000Z 25008KT 9999 SCT035 34/20 A2971 RMK HZY=
201001242100 METAR MRLB 242100Z 26009KT 9999 SCT035 34/21 A2969 RMK HZ ARND=
201001242200 METAR MRLB 242200Z 11005KT 9999 FEW035 BKN280 30/23 A2975 RMK CB DST S LGT HZ ARND=
201001242300 METAR MRLB 242300Z 25008KT 9999 SCT035 31/21 A2969 RMK HZ ARND=
201001250000 METAR MRLB 250000Z 25009KT 9999 FEW035 SCT240 29/22 A2970 RMK HZ ARND=
201001250100 METAR MRLB 250100Z 16003KT 9999 FEW035 BKN240 28/22 A2972 RMK HZ ARND=
201001250200 METAR MRLB 250200Z 15002KT 9999 FEW035 BKN240 27/22 A2974 RMK HZ ARND=
201001250300 METAR MRLB NIL=
201001250400 METAR MRLB NIL=
201001250500 METAR MRLB NIL=
201001250600 METAR MRLB NIL=
201001250700 METAR MRLB NIL=
201001250800 METAR MRLB NIL=
201001250900 METAR MRLB NIL=
201001251000 METAR MRLB NIL=
201001251100 METAR MRLB NIL=
201001251200 METAR MRLB 251200Z 05004KT CAVOK 22/20 A2977 RMK FEW250 HZ ARND=
201001251300 METAR MRLB 251300Z 04003KT 9999 SKC 23/20 A2980 RMK HZ ARND=
201001251400 METAR MRLB 251400Z 03003KT 9999 SKC 26/20 A2982 RMK HZ ARND=
201001251500 METAR MRLB 251500Z 00000KT 9999 SKC 30/21 A2986 RMK HZ LGT ARND=
201001251600 METAR MRLB 251600Z 22002KT 9999 NSC 31/21 A2985 RMK TRAZAS CU HZ LGT ARND=
201001251700 METAR MRLB 251700Z VRB02KT 9999 SCT035 33/21 A2983 RMK HZ LGT ARND=
201001251800 METAR MRLB 251800Z 12004KT 9999 SCT035 34/19 A2981 RMK HZ LGT ARND=
201001251900 METAR MRLB 251900Z 30003KT 9999 SCT035 33/20 A2977 RMK HZ LGT ARND=
201001252000 METAR MRLB 252000Z 04007KT 9999 FEW035 34/17 A2974 RMK HZ LGT ARND=
201001252100 METAR MRLB 252100Z 08007KT 9999 FEW035 35/16 A2972 RMK HZ ARND=
201001252200 METAR MRLB 252200Z 07008KT 9999 NSC 35/17 A2972 RMK TRACE CU=
201001252300 METAR MRLB 252300Z 06016KT 9999 NSC 32/19 A2973 RMK HZ ARND TRACE SC=
201001260000 METAR MRLB 260000Z 08010KT 9999 NSC 30/18 A2974 RMK TRACE SC AC HZ=
201001260100 METAR MRLB 260100Z 07013KT 9999 NSC 29/20 A2976 RMK TRACE SC=
201001260200 METAR MRLB 260200Z 07012KT CAVOK 29/20 A2978 RMK FEW130=
201001260300 METAR MRLB NIL=
201001260400 METAR MRLB NIL=
201001260500 METAR MRLB NIL=
201001260600 METAR MRLB NIL=
201001260700 METAR MRLB NIL=
201001260800 METAR MRLB NIL=
201001260900 METAR MRLB NIL=
201001261000 METAR MRLB NIL=
201001261100 METAR MRLB NIL=
201001261200 METAR MRLB 261200Z 06018KT 9999 SKC 27/18 A2976=
201001261300 METAR MRLB 261300Z 05011KT 9999 SKC 28/17 A2979=
201001261400 METAR MRLB 261400Z 06020KT 9999 SKC 30/17 A2982=
201001261500 METAR MRLB 261500Z 05021KT 9999 SKC 31/16 A2984=
201001261600 METAR MRLB 261600Z 06020G30KT 9999 SKC 32/15 A2984=
201001261700 METAR MRLB 261700Z 07018G28KT 9999 SKC 33/14 A2982=
201001261800 METAR MRLB 261800Z 07022KT 9999 SKC 33/15 A2979=
201001261900 METAR MRLB 261900Z 06023KT 9999 SKC 33/15 A2976=
201001262000 METAR MRLB 262000Z 06024KT 9999 SKC 34/15 A2973=
201001262100 METAR MRLB 262100Z 06021KT 9999 SKC 33/14 A2973=
201001262200 METAR MRLB 262200Z 06020KT 9999 SKC 32/15 A2973=
201001262300 METAR MRLB 262300Z 06021KT 9999 SKC 31/16 A2974=
201001270000 METAR MRLB 270000Z 00000KT 9999 SCT035 27/21 A2988 RMK FEW100 HZ SE=
201001270100 METAR MRLB 270100Z 07018KT 9999 SKC 28/17 A2997=
201001270200 METAR MRLB 270200Z 07016KT 9999 SKC 27/18 A2977=
201001270300 METAR MRLB NIL=
201001270400 METAR MRLB NIL=
201001270500 METAR MRLB NIL=
201001270600 METAR MRLB NIL=
201001270700 METAR MRLB NIL=
201001270800 METAR MRLB NIL=
201001270900 METAR MRLB NIL=
201001271000 METAR MRLB NIL=
201001271100 METAR MRLB NIL=
201001271200 METAR MRLB 271200Z 06012KT CAVOK 26/17 A2976 RMK SCT250=
201001271300 METAR MRLB 271300Z 07013KT CAVOK 27/17 A2977 RMK SCT250=
201001271400 METAR MRLB 271400Z 07012KT CAVOK 29/18 A2980 RMK FEW250=
201001271500 METAR MRLB 271500Z 06018KT CAVOK 30/18 A2985 RMK FEW250=
201001271600 METAR MRLB 271600Z 06019KT CAVOK 31/16 A2984 RMK FEW250=
201001271700 METAR MRLB 271700Z 06020KT CAVOK 32/17 A2984 RMK FEW250=
201001271800 METAR MRLB 271800Z 07018KT CAVOK 32/16 A2981 RMK FEW250=
201001271900 METAR MRLB 271900Z 06020KT CAVOK 32/15 A2977 RMK FEW250=
201001272000 METAR MRLB 272000Z 06017KT CAVOK 32/15 A2975 RMK FEW250=
201001272100 METAR MRLB 272100Z 06016KT CAVOK 32/15 A2974 RMK SCT250=
201001272200 METAR MRLB 272200Z 06018KT CAVOK 31/16 A2974 RMK SCT250=
201001272300 METAR MRLB 272300Z 06020KT CAVOK 29/16 A2975 RMK SCT250=
201001280000 METAR MRLB 280000Z 06018KT CAVOK 28/16 A2974 RMK SCT250=
201001280100 METAR MRLB 280100Z 08019KT CAVOK 28/17 A2975 RMK BKN250=
201001280200 METAR MRLB 280200Z 07017KT CAVOK 27/17 A2976 RMK BKN250=
201001280300 METAR MRLB NIL=
201001280400 METAR MRLB NIL=
201001280500 METAR MRLB NIL=
201001280600 METAR MRLB NIL=
201001280700 METAR MRLB NIL=
201001280800 METAR MRLB NIL=
201001280900 METAR MRLB NIL=
201001281000 METAR MRLB NIL=
201001281100 METAR MRLB NIL=
201001281200 METAR MRLB 281200Z 07018KT 9999 SKC 26/16 A2973 RMK VL MX VTO 22KT=
201001281300 METAR MRLB 281300Z 07020KT 9999 SKC 27/17 A2976 RMK GUST 28KT=
201001281400 METAR MRLB 281400Z 06025KT 9999 SKC 28/18 A2977 RMK GUST 34KT=
201001281500 METAR MRLB 281500Z 06021KT 9999 SKC 30/17 A2980 RMK GUST 30KT=
201001281600 METAR MRLB 281600Z 06020KT 9999 NSC 31/17 A2981 RMK GUST 27KT TRACE SC=
201001281700 METAR MRLB 281700Z 05018KT 9999 SKC 32/16 A2979 RMK GUST 24KT=
201001281800 METAR MRLB 281800Z 05019KT 9999 SKC 33/16 A2977 RMK GUST 24KT=
201001281900 METAR MRLB 281900Z 05019KT 9999 SKC 34/16 A2973 RMK GUST 26KT=
201001282000 METAR MRLB 282000Z 05019KT 9999 SKC 34/15 A2971 RMK GUST 24KT=
201001282100 METAR MRLB 282100Z 06020KT 9999 SKC 34/14 A2969 RMK VEL MAX VTO 26KT=
201001282200 METAR MRLB 282200Z 06017KT 9999 SKC 33/14 A2969 RMK VEL MAX VTO 25KT=
201001282300 METAR MRLB 282300Z 06019KT 9999 SKC 31/13 A2968 RMK VEL MAX VTO 24KT=
201001290000 METAR MRLB 290000Z 07016KT 9999 SKC 29/15 A2970 RMK VEL MAX VTO 22KT=
201001290100 METAR MRLB 290100Z 07015KT 9999 SKC 28/16 A2971=
201001290200 METAR MRLB 290200Z 09010KT 9999 FEW040 21/13 A2997=
201001290300 METAR MRLB NIL=
201001290400 METAR MRLB NIL=
201001290500 METAR MRLB NIL=
201001290600 METAR MRLB NIL=
201001290700 METAR MRLB NIL=
201001290800 METAR MRLB NIL=
201001290900 METAR MRLB NIL=
201001291000 METAR MRLB NIL=
201001291100 METAR MRLB NIL=
201001291200 METAR MRLB 291200Z 09011KT 9999 SKC 27/17 A2970=
201001291300 METAR MRLB 291300Z 05008KT 9999 SKC 25/18 A2973=
201001291400 METAR MRLB 291400Z 07016KT 9999 SKC 29/18 A2976=
201001291500 METAR MRLB 291500Z 07017KT 9999 SKC 30/18 A2979=
201001291600 METAR MRLB 291600Z 06020KT 9999 NSC 32/18 A2980 RMK TRACE CU=
201001291700 METAR MRLB 291700Z 05018KT 9999 NSC 33/18 A2977 RMK TRACE CU=
201001291800 METAR MRLB 291800Z 06017KT 9999 FEW035 33/18 A2974=
201001291900 METAR MRLB 291900Z 06014KT 9999 FEW035 33/18 A2971=
201001292000 METAR MRLB 292000Z 06014KT 9999 FEW040 34/17 A2968=
201001292100 METAR MRLB 292100Z 05018KT 9999 FEW040 34/17 A2966=
201001292200 METAR MRLB 292200Z 06015KT 9999 NSC 33/16 A2966 RMK TRAZAS CU=
201001292300 METAR MRLB 292300Z 06015KT 9999 FEW040 31/18 A2968=
201001300000 METAR MRLB 300000Z 06016KT 9999 FEW040 29/19 A2969=
201001300100 METAR MRLB 300100Z 07013KT 9999 FEW040 28/19 A2970=
201001300200 METAR MRLB 300200Z 07017KT 9999 FEW040 28/17 A2970=
201001300300 METAR MRLB NIL=
201001300400 METAR MRLB NIL=
201001300500 METAR MRLB NIL=
201001300600 METAR MRLB NIL=
201001300700 METAR MRLB NIL=
201001300800 METAR MRLB NIL=
201001300900 METAR MRLB NIL=
201001301000 METAR MRLB NIL=
201001301100 METAR MRLB NIL=
201001301200 METAR MRLB 301200Z 20004KT CAVOK 23/18 A2969 RMK SCT250=
201001301300 METAR MRLB 301300Z 03005KT 9999 SKC 24/18 A2971=
201001301400 METAR MRLB 301400Z 00000KT 9999 SKC 26/19 A2973=
201001301500 METAR MRLB 301500Z 04009KT 9999 SKC 31/18 A2976=
201001301600 METAR MRLB 301600Z 05004KT 9999 SKC 32/18 A2976=
201001301700 METAR MRLB 301700Z 09011KT 9999 SKC 33/18 A2975=
201001301800 METAR MRLB 301800Z 10011KT 9999 SKC 34/18 A2972=
201001301900 METAR MRLB 301900Z 09012KT 9999 FEW035 34/18 A2969=
201001302000 METAR MRLB 302000Z 08013KT 9999 FEW035 34/18 A2967=
201001302100 METAR MRLB 302100Z 07013KT 9999 FEW035 34/17 A2966=
201001302200 METAR MRLB 302200Z 05013KT 9999 FEW035 34/17 A2965=
201001302300 METAR MRLB 302300Z 06011KT 9999 SKC 32/18 A2966=
201001310000 METAR MRLB 310000Z 07009KT CAVOK 30/19 A2967 RMK SCT250=
201001310100 METAR MRLB 310100Z 07008KT CAVOK 28/19 A2968 RMK SCT250=
201001310200 METAR MRLB NIL=
201001310300 METAR MRLB 310300Z 00000KT CAVOK 27/18 A2970 SCT250=
201001310400 METAR MRLB NIL=
201001310500 METAR MRLB NIL=
201001310600 METAR MRLB NIL=
201001310700 METAR MRLB NIL=
201001310800 METAR MRLB NIL=
201001310900 METAR MRLB NIL=
201001311000 METAR MRLB NIL=
201001311100 METAR MRLB NIL=
201001311200 METAR MRLB NIL=
201001311300 METAR MRLB 311300Z 06003KT 9999 SKC 24/20 A2971=
201001311400 METAR MRLB 311400Z 24004KT 9999 NSC 28/21 A2973=
201001311500 METAR MRLB 311500Z 15002KT 9999 NSC 30/20 A2975=
201001311600 METAR MRLB 311600Z 04008KT 9999 NSC 32/19 A2975=
201001311700 METAR MRLB 311700Z 00808KT 9999 NSC 35/19 A2973 RMK TRACE SC=
201001311800 METAR MRLB 311800Z 08016G26KT CAVOK 34/19 A2971 RMK FEW280=
201001311900 METAR MRLB 311900Z 08018KT 9999 FEW035 SCT250 34/19 A2969 RMK GUST 24KT=
201001312000 METAR MRLB 312000Z 08012KT 9999 FEW035 34/20 A2968 RMK FEW250=
201001312100 METAR MRLB 312100Z 08014KT 9999 FEW035 34/20 A2966 RMK FEW140=
201001312200 METAR MRLB 312200Z 07017KT 9999 FEW035 SCT250 32/20 A2968=
201001312300 METAR MRLB 312300Z 07015KT 9999 FEW035 BKN250 31/19 A2969=
201002010000 METAR MRLB 010000Z 07014KT CAVOK 30/20 A2969 RMK SCT230 GUST 22KT=
201002010100 METAR MRLB 010100Z 08008KT CAVOK 29/21 A2970 FEW250=
201002010200 METAR MRLB 010200Z 09012KT 9999 SKC 28/21 A2970=
201002010300 METAR MRLB NIL=
201002010400 METAR MRLB NIL=
201002010500 METAR MRLB NIL=
201002010600 METAR MRLB NIL=
201002010700 METAR MRLB NIL=
201002010800 METAR MRLB NIL=
201002010900 METAR MRLB NIL=
201002011000 METAR MRLB NIL=
201002011100 METAR MRLB NIL=
201002011200 METAR MRLB 011200Z 11003KT 9999 NSC 25/21 A2971 RMK TRAZAS CU=
201002011300 METAR MRLB 011300Z 06012KT 9999 NSC 27/21 A2972 RMK TRACE CU=
201002011400 METAR MRLB 011400Z 03003KT 9999 NSC 29/21 A2974 RMK TRACE CU=
201002011500 METAR MRLB 011500Z 02006KT 9999 NSC 31/20 A2976 RMK TRACE CU=
201002011600 METAR MRLB 011600Z 08019KT 9999 FEW040 32/20 A2974=
201002011700 METAR MRLB 011700Z 08020KT 9999 FEW040 33/19 A2973=
201002011800 METAR MRLB 011800Z 07021KT 9999 FEW040 34/19 A2970=
201002011900 METAR MRLB 011900Z 08018KT 9999 FEW040 34/20 A2968=
201002012000 METAR MRLB 012000Z 08023KT 9999 FEW040 33/20 A2966=
201002012100 METAR MRLB 012100Z 08018KT 9999 FEW040 34/19 A2996=
201002012200 METAR MRLB 012200Z 07022KT 9999 FEW040 33/20 A2966=
201002012300 METAR MRLB 012300Z 07018KT 9999 NSC 31/20 A2966=
201002020000 METAR MRLB 020000Z 08019KT 9999 SKC 30/20 A2966=
201002020100 METAR MRLB 020100Z 08020KT 9999 SKC 29/20 A2966=
201002020200 METAR MRLB 020200Z 08018KT 9999 SKC 29/20 A2966=
201002020300 METAR MRLB NIL=
201002020400 METAR MRLB NIL=
201002020500 METAR MRLB NIL=
201002020600 METAR MRLB NIL=
201002020700 METAR MRLB NIL=
201002020800 METAR MRLB NIL=
201002020900 METAR MRLB NIL=
201002021000 METAR MRLB NIL=
201002021100 METAR MRLB NIL=
201002021200 METAR MRLB 021200Z 03006KT 9999 FEW035 26/21 A2969=
201002021300 METAR MRLB 021300Z 36006KT 9999 FEW035 28/21 A2971=
201002021400 METAR MRLB 021400Z 06013KT 9999 FEW035 30/21 A2973=
201002021500 METAR MRLB 021500Z 06019KT 9999 FEW035 31/21 A2974=
201002021600 METAR MRLB 021600Z 07019KT 9999 FEW035 32/21 A2974=
201002021700 METAR MRLB 021700Z 07020KT 9999 FEW035 32/20 A2973=
201002021800 METAR MRLB 021800Z 06021KT 9999 FEW035 34/20 A2971=
201002021900 METAR MRLB 021900Z 06021KT 9999 FEW035 34/19 A2968=
201002022000 METAR MRLB 022000Z 07019KT 9999 FEW035 34/19 A2967=
201002022100 METAR MRLB 022100Z 07020KT 9999 FEW035 34/19 A2967=
201002022200 METAR MRLB 022200Z 05019KT 9999 FEW035 33/19 A2966=
201002022300 METAR MRLB 022300Z 05019KT CAVOK 32/20 A2967 FEW250=
201002022356 METAR MRLB 030000Z 05016KT CAVOK 30/19 A2969 SCT250=
201002030000 METAR MRLB 030000Z 05016KT CAVOK 30/19 A2969 SCT250=
201002030100 METAR MRLB 030100Z 04016KT CAVOK 29/21 A2971 SCT250=
201002030200 METAR MRLB 030200Z 05017KT CAVOK 28/20 A2972 SCT250=
201002030300 METAR MRLB NIL=
201002030400 METAR MRLB NIL=
201002030500 METAR MRLB NIL=
201002030600 METAR MRLB NIL=
201002030700 METAR MRLB NIL=
201002030800 METAR MRLB NIL=
201002030900 METAR MRLB NIL=
201002031000 METAR MRLB NIL=
201002031100 METAR MRLB NIL=
201002031200 METAR MRLB 031200Z 08016KT 9999 NSC 28/20 A2970 RMK TRACE SC VEL MAX VTO 24KT=
201002031300 METAR MRLB 031300Z 36006KT 9999 NSC 28/19 A2973 TRACE SCT=
201002031359 METAR MRLB 041400Z 07016KT 9999 NSC 30/20 A2975 TRACE SC VEL MAX VTO 24KTS=
201002031400 METAR MRLB NIL=
201002031500 METAR MRLB 031500Z 08021KT 9999 NSC 32/19 A2976 TRACE SCT VEL MAX VTO 27KTS=
201002031600 METAR MRLB 031600Z 07020KT 9999 NSC 333/20 A2976 TRACE SCT VEL MX VTO 25KTS=
201002031700 METAR MRLB 031700Z 07022KT 9999 FEW035 33/20 A2974 VEL MAX 28KTS=
201002031800 METAR MRLB 031800Z 05027KT 9999 SCT035 33/20 A2973 VEL MAX VTO 35KTS=
201002031900 METAR MRLB 031900Z 06024KT 9999 NSC 35/18 A2968 VEL MX VTO 31KTS=
201002032000 METAR MRLB 032000Z 05019KT 9999 NSC 34/18 A2976 TRAZAS CU=
201002032100 METAR MRLB 032100Z 06022KT 9999 NSC 34/19 A2964 RMK TRAZAS CU VEL.MAX.VTO. 30KT=
201002032200 METAR MRLB 032200Z 06022KT 9999 NSC 33/18 A2963 RMK TRAZAS CU VEL.MAX.VTO. 30KT=
201002032300 METAR MRLB 032300Z 06019KT 9999 SKC 32/19 A2964 RMK VLO.MAX.VTO. 27KT=
201002040000 METAR MRLB 040000Z 07017KT 9999 SKC 30/20 A2965 RMK VEL.MAX.VTO. 23KT=
201002040100 METAR MRLB 040100Z 07017KT 9999 SKC 29/19 A2967 RMK VEL.MAX.VTO. 23KT=
201002040200 METAR MRLB 040200Z 07017KT 9999 SKC 29/20 A2968 RMK VEL.MAX.VTO. 24KT=
201002040300 METAR MRLB NIL=
201002040400 METAR MRLB NIL=
201002040500 METAR MRLB NIL=
201002040600 METAR MRLB NIL=
201002040700 METAR MRLB NIL=
201002040800 METAR MRLB NIL=
201002040900 METAR MRLB NIL=
201002041000 METAR MRLB NIL=
201002041100 METAR MRLB NIL=
201002041200 METAR MRLB 041200Z 06004KT 9999 SKC 24/20 A2973=
201002041300 METAR MRLB 041300Z 07003KT 9999 SKC 26/20 A2975=
201002041400 METAR MRLB 041400Z 10009KT 9999 SKC 30/20 A2978=
201002041500 METAR MRLB 041500Z 10011KT 9999 SKC 32/19 A2980=
201002041600 METAR MRLB 041600Z 08009KT 9999 SKC 32/19 A2980=
201002041700 METAR MRLB 041700Z 08008KT 9999 SKC 34/18 A2979=
201002041800 METAR MRLB 041800Z 09009KT 9999 SCK 35/17 A2976=
201002041900 METAR MRLB 041900Z 08007KT 9999 NSC 36/17 A2975 RMK TRAZAS CU=
201002042000 METAR MRLB 042000Z 10010KT 9999 NSC 36/17 A2969 RMK TRAZAS CU=
201002042100 METAR MRLB 042100Z 08013KT 9999 NSC 35/17 A2967 RMK TRACE CU=
201002042200 METAR MRLB 042200Z 07012KT 9999 NSC 34/17 A2968 RMK TRACE CU=
201002042300 METAR MRLB 042300Z 08013KT 9999 SKC 33/17 A2970=
201002050000 METAR MRLB 050000Z 07012KT 9999 SKC 31/18 A2971=
201002050100 METAR MRLB 050100Z 07010KT 9999 SKC 29/18 A2973=
201002050200 METAR MRLB NIL=
201002050300 METAR MRLB NIL=
201002050400 METAR MRLB NIL=
201002050500 METAR MRLB NIL=
201002050600 METAR MRLB NIL=
201002050700 METAR MRLB NIL=
201002050800 METAR MRLB NIL=
201002050900 METAR MRLB NIL=
201002051000 METAR MRLB NIL=
201002051100 METAR MRLB NIL=
201002051200 METAR MRLB 051200Z 05003KT CAVOK 19/16 A2979 SCT250=
201002051300 METAR MRLB 051300Z 00000KT CAVOK 21/17 A2981 RMK FEW250=
201002051400 METAR MRLB 051400Z 00000KT CAVOK 26/18 A2981 RMK FEW250=
201002051500 METAR MRLB 051500Z 24004KT CAVOK 28/18 A2985 RMK FEW250=
201002051600 METAR MRLB 051600Z 18003KT CAVOK 30/16 A2986 RMK FEW250=
201002051700 METAR MRLB 051700Z 08008KT CAVOK 32/14 A2984 RMK FEW250=
201002051800 METAR MRLB 051800Z 12007KT CAVOK 34/14 A2980 RMK FEW250=
201002051900 METAR MRLB 051900Z 07005KT CAVOK 36/14 A2976 RMK FEW250=
201002052000 METAR MRLB 052000Z 26010KT CAVOK 36/15 A2972 RMK FEW250=
201002052100 METAR MRLB 052100Z 27008KT CAVOK 36/16 A2971 RMK FEW250=
201002052200 METAR MRLB 052200Z 28010KT CAVOK 34/16 A2971 RMK FEW250=
201002052300 METAR MRLB 052300Z 26009KT CAVOK 33/16 A2973 RMK SCT250=
201002060000 METAR MRLB 060000Z 25005KT CAVOK 31/17 A2975 RMK SCT250=
201002060100 METAR MRLB 060100Z 27004KT CAVOK 29/18 A2977 RMK SCT250=
201002060200 METAR MRLB 060200Z 26004KT CAVOK 28/17 A2978 RMK SCT250=
201002060300 METAR MRLB NIL=
201002060400 METAR MRLB NIL=
201002060500 METAR MRLB NIL=
201002060600 METAR MRLB NIL=
201002060700 METAR MRLB NIL=
201002060800 METAR MRLB NIL=
201002060900 METAR MRLB NIL=
201002061000 METAR MRLB NIL=
201002061100 METAR MRLB NIL=
201002061200 METAR MRLB 061200Z 17003KT CAVOK 20/18 A2981 RMK SCT250=
201002061300 METAR MRLB 061300Z 24005KT CAVOK 22/19 A2982 RMK FEW250=
201002061400 METAR MRLB 061400Z 19006KT CAVOK 27/20 A2984 RMK FEW250=
201002061500 METAR MRLB 061500Z 19005KT 9999 NSC 30/19 A2986 RMK TRACE SI=
201002061600 METAR MRLB 061600Z 04004KT 9999 NSC 31/17 A2986 RMK TRACE CI=
201002061700 METAR MRLB 061700Z 05003KT CAVOK 34/16 A2984 RMK FEW250=
201002061800 METAR MRLB 061800Z 01005KT CAVOK 34/15 A2980 RMK FEW280=
201002061900 METAR MRLB NIL=
201002062000 METAR MRLB 062000Z 07014KT CAVOK 35/15 A2974 RMK BKN250=
201002062100 METAR MRLB 062100Z 06016KT CAVOK 35/16 A2972 RMK BKN250=
201002062200 METAR MRLB 062200Z 07013KT CAVOK 34/16 A2973 RMK BKN250=
201002062300 METAR MRLB 062300Z 06014KT CAVOK 32/17 A2973 RMK FEW140 BKN250=
201002070000 METAR MRLB 070000Z 06015KT CAVOK 31/17 A2975 RMK SCT140 BKN250=
201002070100 METAR MRLB 070100Z 07013KT CAVOK 30/17 A2977 RMK SCT140 BKN250=
201002070200 METAR MRLB 070200Z 09011KT CAVOK 29/17 A2978 RMK FEW140 BKN250=
201002070300 METAR MRLB NIL=
201002070400 METAR MRLB NIL=
201002070500 METAR MRLB NIL=
201002070600 METAR MRLB NIL=
201002070700 METAR MRLB NIL=
201002070800 METAR MRLB NIL=
201002070900 METAR MRLB NIL=
201002071000 METAR MRLB NIL=
201002071100 METAR MRLB NIL=
201002071200 METAR MRLB 071200Z 04005KT 9999 SKC 23/18 A2978=
201002071300 METAR MRLB 071300Z 01007KT 9999 SKC 24/18 A2980=
201002071400 METAR MRLB 071400Z 07013KT 9999 SKC 28/19 A2982=
201002071500 METAR MRLB 071500Z 07018KT 9999 SKC 30/18 A2984=
201002071600 METAR MRLB 071600Z 06020KT 9999 SKC 31/16 A2984=
201002071700 METAR MRLB 071700Z 07018KT 9999 SKC 33/15 A2982=
201002071800 METAR MRLB 071800Z 06014KT 9999 SKC 34/13 A2980=
201002071900 METAR MRLB 071900Z 06013KT 9999 FEW040 35/15 A2977=
201002072000 METAR MRLB 072000Z 10007KT 9999 FEW040 35/16 A2973=
201002072100 METAR MRLB 072100Z 04012KT 9999 FEW040 35/17 A2970=
201002072200 METAR MRLB 072200Z 05012KT 9999 FEW040 34/17 A2970=
201002072300 METAR MRLB 072300Z 05012KT 9999 FEW040 33/17 A2970=
201002072355 METAR MRLB 08000Z 07013KT 9999 FEW040 31/18 A2972=
201002080000 METAR MRLB 08000Z 07013KT 9999 FEW040 31/18 A2972=
201002080100 METAR MRLB 080100Z 06015KT 9999 FEW040 30/18 A2974=
201002080200 METAR MRLB NIL=
201002080300 METAR MRLB NIL=
201002080400 METAR MRLB NIL=
201002080500 METAR MRLB NIL=
201002080600 METAR MRLB NIL=
201002080700 METAR MRLB NIL=
201002080800 METAR MRLB NIL=
201002080900 METAR MRLB NIL=
201002081000 METAR MRLB NIL=
201002081100 METAR MRLB NIL=
201002081200 METAR MRLB 081200Z 17002KT 9999 SCT035 24/19 A2979=
201002081300 METAR MRLB 081300Z 19003KT 9999 BKN035 25/19 A2981=
201002081400 METAR MRLB 081400Z 10011KT 9999 BKN040 27/19 A2983=
201002081500 METAR MRLB 081500Z 09010KT 9999 SCT040 29/19 A2986=
201002081600 METAR MRLB 081600Z 11011KT 9999 FEW040 BKN120 31/19 A2986=
201002081700 METAR MRLB 081700Z 10010KT 9999 FEW040 BKN120 31/18 A2984=
201002081800 METAR MRLB 081800Z 09008KT 9999 FEW040 BKN120 32/19 A2982=
201002081900 METAR MRLB 081900Z 10013KT 9999 FEW035 OVC130 32/19 A2980=
201002082000 METAR MRLB 082000Z 12008KT 9999 FEW035 OVC130 31/19 A2977=
201002082100 METAR MRLB 082100Z 13008KT 9999 FEW035 OVC130 31/19 A2977=
201002082200 METAR MRLB 082200Z 08007KT 9999 FEW035 OVC130 31/20 A2976=
201002082300 METAR MRLB 082300Z 07008KT 9999 FEW035 BKN130 30/17 A2976=
201002090000 METAR MRLB 090000Z 08005KT 9999 FEW035 BKN130 29/20 A2976=
201002090100 METAR MRLB 090100Z 07004KT 9999 FEW035 OVC120 28/20 A2977=
201002090200 METAR MRLB 090200Z 08005KT 9999 FEW035 BKN120 27/19 A2978=
201002090300 METAR MRLB NIL=
201002090400 METAR MRLB NIL=
201002090500 METAR MRLB NIL=
201002090600 METAR MRLB NIL=
201002090700 METAR MRLB NIL=
201002090800 METAR MRLB NIL=
201002090900 METAR MRLB NIL=
201002091000 METAR MRLB NIL=
201002091100 METAR MRLB NIL=
201002091200 METAR MRLB 091200Z 00000KT CAVOK 23/20 A2981 RMK BKN120 SCT250=
201002091300 METAR MRLB 091300Z 05003KT CAVOK 24/20 A2983 RMK BKN120=
201002091400 METAR MRLB 091400Z 02004KT CAVOK 26/21 A2985 RMK BKN120=
201002091500 METAR MRLB 091500Z 21002KT CAVOK 29/21 A2988 RMK BKN130=
201002091600 METAR MRLB 091600Z 06004KT 9999 FEW035 BKN130 32/20 A2988=
201002091700 METAR MRLB 091700Z 15009KT 9999 FEW035 BKN130 34/20 A2986 RMK HZ LGT ARND=
201002091800 METAR MRLB 091800Z 30007KT 9999 SCT035 SCT130 35/20 A2983 RMK HZ LGT ARND=
201002091900 METAR MRLB 091900Z 29010KT 9999 SCT030 SCT130 33/20 A2980 RMK HZ LGT ARND=
201002092000 METAR MRLB 092000Z 28012KT 9999 SCT035 BKN130 32/21 A2977 RMK HZ LGT ARND=
201002092100 METAR MRLB 092100Z 29011KT CAVOK 32/21 A2979 RMK SCT130=
201002092200 METAR MRLB 092200Z 29011KT 9999 NSC 32/21 A2973 RMK TRACE CU AC=
201002092300 METAR MRLB 092300Z 27009KT 9999 NSC 31/21 A2974 RMK TRACE CU=
201002100000 METAR MRLB 100000Z 26004KT CAVOK 29/22 A2975 RMK FEW130 FEW250=
201002100100 METAR MRLB 100100Z 24003KT CAVOK 28/22 A2978 RMK FEW130=
201002100200 METAR MRLB 100200Z 23006KT CAVOK 27/23 A2977 RMK FEW130=
201002100300 METAR MRLB NIL=
201002100400 METAR MRLB NIL=
201002100500 METAR MRLB NIL=
201002100600 METAR MRLB NIL=
201002100700 METAR MRLB NIL=
201002100800 METAR MRLB NIL=
201002100900 METAR MRLB NIL=
201002101000 METAR MRLB NIL=
201002101100 METAR MRLB NIL=
201002101200 METAR MRLB 101200Z 32003KT CAVOK 24/23 A2974 BKN130=
201002101300 METAR MRLB 101300Z 05005KT CAVOK 25/21 A2977 RMK BKN130=
201002101400 METAR MRLB 101400Z 21002KT 9999 SCT040 29/21 A2979=
201002101500 METAR MRLB NIL=
201002101600 METAR MRLB 101600Z 36005KT 9999 NSC 33/19 A2979 RMK TRACE CU=
201002101700 METAR MRLB 101700Z 07014KT 9999 SKC 35/17 A2977=
201002101800 METAR MRLB 101800Z 07013KT 9999 SKC 35/16 A2974=
201002101900 METAR MRLB 101900Z 06021KT 9999 SKC 36/17 A2970=
201002102000 METAR MRLB 102000Z 06021KT 9999 SKC 35/18 A2967=
201002102100 METAR MRLB 102100Z 07020KT 9999 SKC 35/18 A2965=
201002102200 METAR MRLB 102200Z 07019KT 9999 SKC 34/18 A2963=
201002102300 METAR MRLB 102300Z 07019KT 9999 SKC 33/18 A2965=
201002110000 METAR MRLB 110000Z 07019KT 9999 SKC 31/18 A2967=
201002110100 METAR MRLB 110100Z 07014KT 9999 SKC 30/18 A2970=
201002110200 METAR MRLB 110200Z 09014KT 9999 SKC 29/18 A2973=
201002110300 METAR MRLB NIL=
201002110400 METAR MRLB NIL=
201002110500 METAR MRLB NIL=
201002110600 METAR MRLB NIL=
201002110700 METAR MRLB NIL=
201002110800 METAR MRLB NIL=
201002110900 METAR MRLB NIL=
201002111000 METAR MRLB NIL=
201002111100 METAR MRLB NIL=
201002111200 METAR MRLB 111200Z 05020KT CAVOK 27/18 A2973 RMK SCT250=
201002111300 METAR MRLB 111300Z 05018KT CAVOK 28/19 A2975 RMK SCT250=
201002111400 METAR MRLB 111400Z 06020KT CAVOK 30/18 A2976 RMK SCT250=
201002111500 METAR MRLB 111500Z 06019KT CAVOK 31/18 A2977 RMK SCT250=
201002111600 METAR MRLB 111600Z 07021KT CAVOK 32/17 A2977 RMK FEW250=
201002111700 METAR MRLB 111700Z 06019KT CAVOK 34/16 A2975 RMK FEW250=
201002111800 METAR MRLB 111800Z 07018KT CAVOK 34/16 A2973 RMK FEW250=
201002111900 METAR MRLB 111900Z 07019KT CAVOK 35/16 A2969 RMK FEW250=
201002112000 METAR MRLB 112000Z 06018KT CAVOK 35/16 A2966 RMK SCT250=
201002112100 METAR MRLB 112100Z 06018KT CAVOK 35/16 A2965 RMK SCT250=
201002112200 METAR MRLB 112200Z 06017KT CAVOK 33/15 A2966 RMK SCT250=
201002112300 METAR MRLB 112300Z 06017KT CAVOK 31/16 A2967 RMK SCT250=
201002120000 METAR MRLB 120000Z 06013KT CAVOK 29/16 A2968 RMK BKN250=
201002120100 METAR MRLB NIL=
201002120200 METAR MRLB 120200Z 06014KT CAVOK 27/17 A2970 RMK BKN 250=
201002120300 METAR MRLB NIL=
201002120400 METAR MRLB NIL=
201002120500 METAR MRLB NIL=
201002120600 METAR MRLB NIL=
201002120700 METAR MRLB NIL=
201002120800 METAR MRLB NIL=
201002120900 METAR MRLB NIL=
201002121000 METAR MRLB NIL=
201002121100 METAR MRLB NIL=
201002121200 METAR MRLB 121200Z 00000KT CAVOK 21/17 A2973 RMK FEW130 FEW250=
201002121300 METAR MRLB 121300Z 05004KT CAVOK 22/17 A2976 RMK FEW130 HZ ARND=
201002121400 METAR MRLB 121400Z 04003KT CAVOK 26/18 A2979 RMK FEW130 HZ ARND=
201002121500 METAR MRLB 121500Z VRB02KT CAVOK 29/18 A2981 RMK FEW130 HZ ARND=
201002121600 METAR MRLB 121600Z 01004KT CAVOK 31/16 A2982 RMK FEW130 HZ LEVE ARND=
201002121700 METAR MRLB 121700Z 12003KT CAVOK 34/16 A2980 RMK FEW250=
201002121800 METAR MRLB 121800Z 17004KT 9999 FEW035 SCT250 35/16 A2977=
201002121900 METAR MRLB 121900Z 20005KT CAVOK 35/16 A2973 RMK SCT140 FEW250=
201002122000 METAR MRLB 122000Z 26011KT CAVOK 35/17 A2971 RMK SCT140 SCT250=
201002122100 METAR MRLB 122100Z 27006KT CAVOK 34/17A2968 FEW140 SCT250=
201002122200 METAR MRLB 122200Z 27006KT CAVOK 32/18 A2967 BKN130 FEW250=
201002122300 METAR MRLB 122300Z 26008KT CAVOK 31/19 A2968 BKN130 FEW250=
201002130000 METAR MRLB 130000Z 27005KT CAVOK 30/20 A2969 BKN130 FEW250=
201002130100 METAR MRLB 130100Z 27006KT CAVOK 28/22 A2971 FEW130 SCT250=
201002130200 METAR MRLB 130200Z 00000KT CAVOK 28/21 A2972 SCT250=
201002130300 METAR MRLB NIL=
201002130400 METAR MRLB NIL=
201002130500 METAR MRLB NIL=
201002130600 METAR MRLB NIL=
201002130700 METAR MRLB NIL=
201002130800 METAR MRLB NIL=
201002130900 METAR MRLB NIL=
201002131000 METAR MRLB NIL=
201002131100 METAR MRLB NIL=
201002131200 METAR MRLB 131200Z 00000KT CAVOK 22/19 A2976 RMK FEW140=
201002131300 METAR MRLB 131300Z 08002KT CAVOK 23/20 A2978 RNK SCT140 HZ ARND=
201002131400 METAR MRLB 131400Z 20002KT CAVOK 27/21 A2987 FEW140 HZ ARND=
201002131500 METAR MRLB 131500Z 14002KT 9999 NSC 31/20 A283 HZ ARND TRACE CU=
201002131600 METAR MRLB 131600Z 11002KT 9999 NSC 33/18 A2983 HZ ARND TRACE CU=
201002131700 METAR MRLB 131700Z 08007KT 9999 NSC 35/17 A2979 TRACE CU=
201002131800 METAR MRLB 131800Z 06014KT 9999 FEW040 36/16 A2977=
201002131900 METAR MRLB 131900Z 07018KT 9999 FEW040 35/15 A2974=
201002132000 METAR MRLB 132000Z 07017KT 9999 FEW040 35/16 A2970=
201002132100 METAR MRLB 132100Z 06020KT 9999 NSC 35/17 A2968 RMK TRAZAS CU=
201002132200 METAR MRLB 132200Z 06015KR 9999 NSC 34/17 A2968 RMK TRAZAS CU=
201002132300 METAR MRLB 132300Z 07013KT CAVOK 32/18 A2971 RMK SCT130=
201002140000 METAR MRLB 140000Z 07012KT CAVOK 30/19 A2972 RMK BKN130=
201002140100 METAR MRLB 140100Z 07015KT CAVOK 29/19 A2974 RMK BKN130=
201002140200 METAR MRLB 140200Z 07017KT CAVOK 28/20 A2975 RMK BKN130=
201002140300 METAR MRLB NIL=
201002140400 METAR MRLB NIL=
201002140500 METAR MRLB NIL=
201002140600 METAR MRLB NIL=
201002140700 METAR MRLB NIL=
201002140800 METAR MRLB NIL=
201002140900 METAR MRLB NIL=
201002141000 METAR MRLB NIL=
201002141100 METAR MRLB NIL=
201002141200 METAR MRLB 141200Z 27004KT 9999 FEW035 BKN250 24/17 A2974=
201002141300 METAR MRLB 141300Z 24004KT 9999 FEW030 BKN240 25/16 A2976=
201002141400 METAR MRLB 141400Z 27005KT 9999 FEW035 OVC240 27/16 A2979=
201002141500 METAR MRLB 141500Z 34002KT 9999 FEW035 OVC240 29/16 A2982=
201002141600 METAR MRLB 141600Z 26006KT 9999 FEW035 BKN140 30/16 A2982=
201002141700 METAR MRLB 141700Z 08009KT 9999 FEW035 BKN140 31/17 A2981=
201002141800 METAR MRLB 141800Z 10012KT 9999 FEW035 BKN140 32/17 A2979=
201002141900 METAR MRLB 141900Z 09011KT 9999 FEW035 BKN140 32/17 A2977=
201002142000 METAR MRLB 142000Z 08013KT 9999 FEW035 BKN140 31/18 A2974=
201002142100 METAR MRLB 142100Z 07011KT 9999 FEW035 OVC230 32/18 A2973=
201002142200 METAR MRLB 142200Z 08011KT 9999 FEW035 OVC230 30/18 A2972=
201002142300 METAR MRLB 142300Z 07011KT 9999 FEW035 OVC140 29/18 A2973=
201002150000 METAR MRLB 150000Z 07010KT 9999 FEW035 BKN140 28/19 A2973=
201002150100 METAR MRLB 150100Z 07012KT 9999 FEW035 BKN140 27/19 A2974=
201002150200 METAR MRLB 150200Z 09010KT 9999 FEW035 BKN140 26/19 A2977=
201002150300 METAR MRLB NIL=
201002150400 METAR MRLB NIL=
201002150500 METAR MRLB NIL=
201002150600 METAR MRLB NIL=
201002150700 METAR MRLB NIL=
201002150800 METAR MRLB NIL=
201002150900 METAR MRLB NIL=
201002151000 METAR MRLB NIL=
201002151100 METAR MRLB NIL=
201002151200 METAR MRLB 151200Z NIL=
201002151300 METAR MRLB NIL=
201002151400 METAR MRLB NIL=
201002151500 METAR MRLB NIL=
201002151600 METAR MRLB 151600Z 21003KT CAVOK 30/20 A2984 RMK BKN130=
201002151700 METAR MRLB 151700Z 13004KT 9999 FEW035 34/20 A2982 RMK FEW280=
201002151800 METAR MRLB 151800Z 11010KT 9999 FEW035 SCT250 34/19 A2978=
201002151900 METAR MRLB 151900Z 10008KT 9999 FEW035 SCT250 35/18 A2975=
201002152000 METAR MRLB 152000Z 09012KT 9999 FEW035 SCT250 35/18 A2972=
201002152100 METAR MRLB 152100Z 08013KT 9999 FEW035 SCT250 34/19 A2971=
201002152200 METAR MRLB 152200Z 08010KT 9999 FEW040 34/19 A2971 RMK FEW250=
201002152300 METAR MRLB 152300Z 09010KT 9999 BKN040 33/19 A2978=
201002160000 METAR MRLB 160000Z 35005KT 9999 SCT040 31/20 A2974=
201002160100 METAR MRLB 160100Z 32005KT 9999 FEW040 29/21 A2975=
201002160200 METAR MRLB 160200Z 29008KT 9999 FEW040 28/21 A2977=
201002160300 METAR MRLB NIL=
201002160400 METAR MRLB NIL=
201002160500 METAR MRLB NIL=
201002160600 METAR MRLB NIL=
201002160700 METAR MRLB NIL=
201002160800 METAR MRLB NIL=
201002160900 METAR MRLB NIL=
201002161000 METAR MRLB NIL=
201002161100 METAR MRLB NIL=
201002161200 METAR MRLB 161200Z 00000KT CAVOK 22/20 A2976 RMK OVC250=
201002161300 METAR MRLB 161300Z 00000KT CAVOK 24/21 A2978 OVC250=
201002161400 METAR MRLB 161400Z 02002KT CAVOK 28/21 A2981 RMK BKN250=
201002161500 METAR MRLB 161500Z 33002KT CAVOK 30/20 A2983 RMK FEW250=
201002161600 METAR MRLB 161600Z 02008KT 9999 NSC 32/20 A2983 RMK TRACE CU=
201002161700 METAR MRLB 161700Z 06016KT 9999 FEW040 34/19 A2981=
201002161800 METAR MRLB 161800Z 06016KT 9999 FEW040 35/18 A2977=
201002161900 METAR MRLB 161900Z 06019KT 9999 FEW040 36/19 A2975=
201002162000 METAR MRLB 162000Z 06023KT 9999 SCT040 35/19 A2972=
201002162100 METAR MRLB 162100Z 06020KT 9999 FEW040 34/19 A2970=
201002162200 METAR MRLB 162200Z 06021KT 9999 NSC 33/19 A2970 RMK TRACE CU=
201002162300 METAR MRLB 162300Z 06018KT 9999 SKC 32/19 A2970=
201002170000 METAR MRLB 170000Z 06018KT 9999 SKC 30/20 A2971=
201002170100 METAR MRLB 170100Z 07018KT 9999 SKC 29/20 A2973=
201002170200 METAR MRLB 170200Z 08018KT 9999 SKC 29/20 A2975=
201002170300 METAR MRLB NIL=
201002170400 METAR MRLB NIL=
201002170500 METAR MRLB NIL=
201002170600 METAR MRLB NIL=
201002170700 METAR MRLB NIL=
201002170800 METAR MRLB NIL=
201002170900 METAR MRLB NIL=
201002171000 METAR MRLB NIL=
201002171100 METAR MRLB NIL=
201002171200 METAR MRLB 171200Z 23006KT CAVOK 24/19 A2974=
201002171300 METAR MRLB 171300Z 21007KT CAVOK 25/19 A2976 RMK FEW250=
201002171400 METAR MRLB 171400Z 24007KT CAVOK 28/19 A2980 RMK FEW250=
201002171500 METAR MRLB 171500Z 20006KT CAVOK 30/19 A2982 RMK FEW250=
201002171600 METAR MRLB 171600Z 24008KT CAVOK 32/18 A2982 RMK FEW250=
201002171700 METAR MRLB 171700Z 28007KT CAVOK 34/17 A2980 RMK FEW250=
201002171800 METAR MRLB 171800Z 24007KT CAVOK 35/17 A2977 RMK FEW100=
201002171900 METAR MRLB 171900Z 06013KT CAVOK 35/17 A2994 RMK SCT250=
201002172000 METAR MRLB 172000Z 06018KT CAVOK 35/16 A2971 RMK SCT250=
201002172100 METAR MRLB 172100Z 08016KT CAVOK 34/17 A2970 SCT250=
201002172200 METAR MRLB 172200Z 08015KT CAVOK 33/18 A2969 SCT250=
201002172300 METAR MRLB 172300Z 07018KT CAVOK 32/19 A2970 SCT250=
201002180000 METAR MRLB 180000Z 06015KT CAVOK 29/19 A2971 SCT200=
201002180100 METAR MRLB 180100Z 07017KT CAVOK 29/20 A2972 FEW200=
201002180200 METAR MRLB 180200Z 06015KT CAVOK 28/20 A2974 FEW200=
201002180300 METAR MRLB NIL=
201002180400 METAR MRLB NIL=
201002180500 METAR MRLB NIL=
201002180600 METAR MRLB NIL=
201002180700 METAR MRLB NIL=
201002180800 METAR MRLB NIL=
201002180900 METAR MRLB NIL=
201002181000 METAR MRLB NIL=
201002181100 METAR MRLB NIL=
201002181200 METAR MRLB 181200Z 14006KT 9999 FEW035 24/18 A2977 RMK DZ DST NE=
201002181300 METAR MRLB 181300Z 00000KT 9999 SCT015 BKN110 23/22 A2991 RN DIST N NE HZT=
201002181400 METAR MRLB 181400Z 24012KT 9999 FEW035 SCT120 27/18 A2980=
201002181500 METAR MRLB 181500Z 15006KT CAVOK 32/17 A2983 SCT120=
201002181600 METAR MRLB 181600Z 18006KT 9999 FEW035 SCT120 31/17 A2982=
201002181700 METAR MRLB 181700Z 32008KT 9999 FEW040 32/17 A2981 FEW120=
201002181800 METAR MRLB 181800Z 32011KT 9999 FEW040 SCT120 31/17 A2978=
201002181900 METAR MRLB 111900Z 08012KT CAVOK 32/17 A2975 FEW030=
201002182000 METAR MRLB 182000Z 08014KT 9999 NSC 33/16 A2971 TRACE CU AC VEL MAX VTO 22KT=
201002182100 METAR MRLB 182100Z 10014KT CAVOK 33/16 A2968 RMK SCT250 VEL.MAX.VTO. 22KT=
201002182200 METAR MRLB 182200Z 09013KT CAVOK 32/17 A2969 RMK BKN140=
201002182300 METAR MRLB NIL=
201002190000 METAR MRLB 190000Z 09008KT CAVOK 30/15 A2969 RMK BKN130=
201002190100 METAR MRLB 190100Z 33003KT CAVOK 30/16 A2970 RMK BKN120=
201002190200 METAR MRLB 190200Z 09006KT CAVOK 29/16 A2973 RMK BKN120=
201002190300 METAR MRLB NIL=
201002190400 METAR MRLB NIL=
201002190500 METAR MRLB NIL=
201002190600 METAR MRLB NIL=
201002190700 METAR MRLB NIL=
201002190800 METAR MRLB NIL=
201002190900 METAR MRLB NIL=
201002191000 METAR MRLB NIL=
201002191100 METAR MRLB NIL=
201002191200 METAR MRLB NIL=
201002191300 METAR MRLB 191300Z 06015KT 9999 FEW040 28/18 A2976=
201002191400 METAR MRLB 191400Z 06020KT 9999 NSC 30/18 A2977 RMK TRAZAS CU=
201002191500 METAR MRLB 191500Z 06021KT 9999 NSC 31/18 A2979 RMK TRAZAS CU=
201002191600 METAR MRLB 191600Z 07020KT 9999 NSC 32/18 A2980 RMK TRAZAS CU=
201002191700 METAR MRLB 191700Z 06024KT 9999 SKC 33/18 A2977=
201002191800 METAR MRLB 191800Z 06020KT CAVOK 35/17 A2975 RMK SCT300=
201002191900 METAR MRLB 191900Z 08019KT CAVOK 34/18 A2973 RMK BKN250=
201002192000 METAR MRLB 192000Z 08018KT CAVOK 34/18 A2971 RMK BKN250=
201002192100 METAR MRLB 192100Z 08019KT CAVOK 33/18 A2970 RMK BKN150=
201002192200 METAR MRLB 192200Z 08018KT CAVOK 32/19 A2972 RMK SCT140=
201002192300 METAR MRLB 192300Z 08015KT CAVOK 31/19 A2973 RMK SCT130=
201002200000 METAR MRLB 200000Z 08019KT 9999 NSC 29/19 A2973 RMK TRACE SC AC=
201002200100 METAR MRLB 200100Z 09012KT 9999 NSC 28/19 A2975 RMK TRACE AC=
201002200200 METAR MRLB 200200Z 08014KT 9999 NSC 28/19 A2978 RMK TRACE AC=
201002200300 METAR MRLB NIL=
201002200400 METAR MRLB NIL=
201002200500 METAR MRLB NIL=
201002200600 METAR MRLB NIL=
201002200700 METAR MRLB NIL=
201002200800 METAR MRLB NIL=
201002200900 METAR MRLB NIL=
201002201000 METAR MRLB NIL=
201002201100 METAR MRLB NIL=
201002201200 METAR MRLB 201200Z 00000KT CAVOK 24/20 A2978 BKN140=
201002201300 METAR MRLB 201300Z 18005KT CAVOK 26/20 A2978 RMK BKN150=
201002201400 METAR MRLB 201400Z 33003KT CAVOK 27/20 A2982 RMK FEW120 BKN240=
201002201500 METAR MRLB 201500Z 00000KT CAVOK 31/20 A2985 RMK BKN200=
201002201600 METAR MRLB 201600Z 08013KT CAVOK 33/20 A2984 RMK BKN240=
201002201700 METAR MRLB 201700Z 08014KT CAVOK 34/20 A2982 RMK SCT250=
201002201800 METAR MRLB 201800Z 10013KT CAVOK 33/20 A2980 RMK SCT280=
201002201900 METAR MRLB 201900Z 10015KT CAVOK 34/20 A2976 RMK FEW100 SCT250=
201002202000 METAR MRLB 202000Z 10014KT 9999 FEW040 SCT250 34/20 A2974=
201002202100 METAR MRLB 202100Z 08015KT 9999 FEW110 SCT250 33/20 A2973=
201002202200 METAR MRLB 202200Z 08014KT CAVOK 32/20 A2973 RMK SCT250=
201002202300 METAR MRLB 202300Z 07015KT CAVOK 30/19 A2974 RMK SCT250=
201002210000 METAR MRLB 210000Z 08015KT CAVOK 29/19 A2975 RMK SCT250=
201002210100 METAR MRLB 210100Z 07012KT CAVOK 29/16 A2977 RMK SCT250=
201002210200 METAR MRLB 210200Z 08012KT CAVOK 28/17 A2978 RMK SCT220=
201002210300 METAR MRLB NIL=
201002210400 METAR MRLB NIL=
201002210500 METAR MRLB NIL=
201002210600 METAR MRLB NIL=
201002210700 METAR MRLB NIL=
201002210800 METAR MRLB NIL=
201002210900 METAR MRLB NIL=
201002211000 METAR MRLB NIL=
201002211100 METAR MRLB NIL=
201002211200 METAR MRLB 211200Z VRB02KT 9999 SKC 22/18 A2976=
201002211300 METAR MRLB 211300Z 24004KT 9999 SKC 25/20 A2979=
201002211400 METAR MRLB 211400Z 14004KT 9999 SKC 30/20 A2981=
201002211500 METAR MRLB 211500Z 11007KT 9999 SKC 32/19 A2983=
201002211600 METAR MRLB 211600Z 09010KT 9999 SKC 34/18 A2982=
201002211700 METAR MRLB 211700Z 07010KT NSC 35/18 A2981 RMK TRACE CU=
201002211800 METAR MRLB 211800Z 12007KT 9999 NSC 35/19 A2977 RMK TRACE CU=
201002211900 METAR MRLB 211900Z 08010KT 9999 FEW040 36/14 A2975=
201002212000 METAR MRLB 212000Z 08010KT 9999 FEW040 36/19 A2972=
201002212100 METAR MRLB 212100Z 07012KT 9999 FEW040 35/19 A2970=
201002212200 METAR MRLB NIL=
201002212300 METAR MRLB 212300Z 07010KT 9999 NSC 34/19 A2972 RMK TRACE CU=
201002220000 METAR MRLB 220000Z 08009KT CAVOK 32/19 A2973 RMK BKN300=
201002220100 METAR MRLB 220100Z 08006KT CAVOK 30/20 A2975 RMK SCT300=
201002220200 METAR MRLB 220200Z 13002KT CAVOK 30/21 A2977 RMK FEW280=
201002220300 METAR MRLB NIL=
201002220400 METAR MRLB NIL=
201002220500 METAR MRLB NIL=
201002220600 METAR MRLB NIL=
201002220700 METAR MRLB NIL=
201002220800 METAR MRLB NIL=
201002220900 METAR MRLB NIL=
201002221000 METAR MRLB NIL=
201002221100 METAR MRLB NIL=
201002221200 METAR MRLB 221200Z 13002KT CAVOK 23/21 A2973 RMK BKN250=
201002221300 METAR MRLB 221300Z 33002KT CAVOK 24/21 A2975 RMK BKN250=
201002221400 METAR MRLB 221400Z 01002KT CAVOK 28/22 A2978 RMK OVC250=
201002221500 METAR MRLB 221500Z 04003KT CAVOK 30/21 A2980 RMK BKN250=
201002221600 METAR MRLB 221600Z 14003KT CAVOK 32/21 A2980 RMK BKN250=
201002221700 METAR MRLB 221700Z 04002KT 9999 FEW040 BKKN250 34/21 A2976=
201002221800 METAR MRLB 221800Z 25004KT 9999 SCT040 SCT250 36/21 A2975=
201002221900 METAR MRLB 221900Z 26011KT 9999 SCT040 SCT250 35/21 A2973=
201002222000 METAR MRLB 222000Z 26014KT 9999 FEW040 SCT250 33/22 A2972 RMK FEW140=
201002222100 METAR MRLB 222100Z 27015KT 9999 FEW040 BKN250 32/22 A2970=
201002222200 METAR MRLB 222200Z 26014KT 9999 FEW035 OVC250 31/23 A2970 FEW140 CB DST SE=
201002222300 METAR MRLB 222300Z 27013KT 9999 FEW035 OVC250 30/24 A2972 CB DST SE=
201002230000 METAR MRLB 230000Z 26008KT 9999 FEW035 OVC250 A2973 CB DST E=
201002230100 METAR MRLB 230100Z 28005KT 9999 FEW035 OVC250 28/24 A2975=
201002230200 METAR MRLB 230200Z 29004KT 9999 FEW035 OVC250 28/24 A2977=
201002230300 METAR MRLB NIL=
201002230400 METAR MRLB NIL=
201002230500 METAR MRLB NIL=
201002230600 METAR MRLB NIL=
201002230700 METAR MRLB NIL=
201002230800 METAR MRLB NIL=
201002230900 METAR MRLB NIL=
201002231000 METAR MRLB NIL=
201002231100 METAR MRLB NIL=
201002231200 METAR MRLB 231200Z 00000KT CAVOK 24/23 A2975 RMK FEW100 SCT250 HZ ARND=
201002231300 METAR MRLB 231300Z 00000KT 9999 FEW040 SCT250 26/24 A2977=
201002231400 METAR MRLB 231400Z 00000KT 9999 FEW035 BKN280 29/24 A2979=
201002231500 METAR MRLB 231500Z 00000KT 9999 SCT025 BKN250 29/24 A2981=
201002231600 METAR MRLB 231600Z 27004KT 9999 SCT025 BKN250 31/23 A2982=
201002231700 METAR MRLB 231700Z 24007KT 9999 SCT025 BKN250 32/22 A2981=
201002231800 METAR MRLB 231800Z 28010KT 9999 SCT025 BKN250 32/23 A2979=
201002231900 METAR MRLB 231900Z 28011KT 9999 FEW030 BKN250 32/23 A2976=
201002232000 METAR MRLB 232000Z 28013KT 9999 FEW035 SCT250 32/21 A2974=
201002232100 METAR MRLB 232100Z 26013KT CAVOK 32/20 A2973 RMK BKN250=
201002232200 METAR MRLB 232200Z 27013KT CAVOK 31/21 A2972 RMK BKN250=
201002232300 METAR MRLB 232300Z 27012KT CAVOK 29/23 A2973 RMK BKN250=
201002240000 METAR MRLB 240000Z 26010KT 9999 FEW040 BKN250 28/23 A2974=
201002240100 METAR MRLB 240100Z 26008KT 9999 FEW040 SCT250 28/23 A2976=
201002240200 METAR MRLB NIL=
201002240300 METAR MRLB NIL=
201002240400 METAR MRLB NIL=
201002240500 METAR MRLB NIL=
201002240600 METAR MRLB NIL=
201002240700 METAR MRLB NIL=
201002240800 METAR MRLB NIL=
201002240900 METAR MRLB NIL=
201002241000 METAR MRLB NIL=
201002241100 METAR MRLB NIL=
201002241200 METAR MRLB 241200Z 10003KT 9999 FEW030 BKN120 24/22 A2982 RMK HZ LGT ARND=
201002241300 METAR MRLB 241300Z 00000KT 9999 FEW030 OVC120 24/22 A2984 RMK HZ ARND=
201002241400 METAR MRLB 241400Z 03002KT 9999 FEW030 OVC120 27/23 A2985 RMK HZ ARND=
201002241500 METAR MRLB 241500Z 00000KT 9999 FEW030 OVC130 29/23 A2988 RMK HZ ARND=
201002241600 METAR MRLB 241600Z 23003KT 9999 SCT030 SCT130 31/23 A2989 RMK HZ LGT ARND=
201002241700 METAR MRLB 241700Z 27007KT 9999 SCT030 BKN230 31/22 A2988 RMK HZ LGT ARND=
201002241800 METAR MRLB 241800Z 27010KT 9999 FEW030 OVC230 31/22 A2986 RMK HZ LGT ARND=
201002241900 METAR MRLB 241900Z 30011KT 9999 FEW030 OVC240 32/21 A2984 RMK HZ LGT ARND=
201002242000 METAR MRLB 242000Z 29010KT CAVOK 31/21 A2980 RMK FEW140 BKN250 HZ LGT ARND=
201002242100 METAR MRLB 242100Z 29012KT CAVOK 30/22 A2978 RMK FEW140 BKN250 HZ LEVE ARND=
201002242200 METAR MRLB 242200Z 29009KT CAVOK 31/21 A2976 RMK FEW140 BKN250 HZ ARND=
201002242300 METAR MRLB 242300Z 28009KT CAVOK 29/22 A2976 RMK SCT140 BKN250 HZ LEVE ARND=
201002250000 METAR MRLB 250000Z 26007KT CAVOK 28/23 A2978 RMK SCT140 BKN250=
201002250100 METAR MRLB 250100Z 27004KT CAVOK 27/23 A2980 FEW140 BKN250=
201002250200 METAR MRLB 250200Z 29003KT CAVOK 27/23 A2981 FEW140 BKN250=
201002250300 METAR MRLB NIL=
201002250400 METAR MRLB NIL=
201002250500 METAR MRLB NIL=
201002250600 METAR MRLB NIL=
201002250700 METAR MRLB NIL=
201002250800 METAR MRLB NIL=
201002250900 METAR MRLB NIL=
201002251000 METAR MRLB NIL=
201002251100 METAR MRLB NIL=
201002251200 METAR MRLB 251200Z 00000KT CAVOK 23/22 A2984 BKN 130 HZ ARND=
201002251300 METAR MRLB 251300Z 05004KT CAVOK 24/22 A2986 RMK FEW130 SCT250 HZ ARND=
201002251400 METAR MRLB 251400Z 00000KT CAVOK 28/23 A2989 RMK BKN250 HZ ARND=
201002251500 METAR MRLB 251500Z 25005KT CAVOK 31/22 A2990 RMK BKN250 HZ ARND=
201002251600 METAR MRLB NIL=
201002251700 METAR MRLB 251700Z 05014KT 9999 FEW040 SCT250 34/20 A2987=
201002251800 METAR MRLB 251800Z 06010KT 9999 SCT040 35/19 A2984 RMK FEW250=
201002251900 METAR MRLB 251900Z 07012KT 9999 SCT040 34/19 A2981=
201002252000 METAR MRLB 252000Z 05015KT 9999 BKN040 34/19 A2979=
201002252100 METAR MRLB 252100Z 05015KT 9999 BKN040 34/19 A2977=
201002252200 METAR MRLB 252200Z 04018KT 9999 BKN035 33/19 A2978=
201002252300 METAR MRLB 252300Z 07016KT 9999 BKN035 31/19 A2979=
201002260000 METAR MRLB 260000Z 06013KT 9999 BKN035 30/20 A2979=
201002260100 METAR MRLB NIL=
201002260200 METAR MRLB NIL=
201002260300 METAR MRLB NIL=
201002260400 METAR MRLB NIL=
201002260500 METAR MRLB NIL=
201002260600 METAR MRLB NIL=
201002260700 METAR MRLB NIL=
201002260800 METAR MRLB NIL=
201002260900 METAR MRLB NIL=
201002261000 METAR MRLB NIL=
201002261100 METAR MRLB NIL=
201002261200 METAR MRLB 261200Z 00000KT CAVOK 22/18 A2980 RMK SCT250=
201002261300 METAR MRLB 261300Z 25005KT CAVOK 23/18 A2982 RMK FEW250=
201002261400 METAR MRLB 261400Z 29004KT CAVOK 27/17 A2985 RMK FEW250=
201002261500 METAR MRLB 261500Z 08010KT CAVOK 31/18 A2987 RMK SCT250=
201002261600 METAR MRLB 261600Z 09013KT CAVOK 32/17 A2988 RMK FEW100 SCT250=
201002261700 METAR MRLB 261700Z 10013KT CAVOK 33/17 A2985 RMK FEW200=
201002261800 METAR MRLB 261800Z 09012KT CAVOK 34/18 A2983 RMK SCT250=
201002261900 METAR MRLB 261900Z 06012KT CAVOK 34/18 A2980 RMK SCT250=
201002262000 METAR MRLB 262000Z 08012KT CAVOK 34/18 A2977 RMK SCT250=
201002262100 METAR MRLB 262100Z 07012KT 9999 FEW040 SCT250 33/19 A2976=
201002262200 METAR MRLB 262200Z 12005KT 9999 FEW035 SCT100 BKN250 32/19 A2977=
201002262300 METAR MRLB 262300Z 26010KT 9999 FEW030 SCT100 BKN180 31/19 A2979=
201002270000 METAR MRLB 270000Z 26004KT 9999 SCT035 BKN140 30/19 A2980=
201002270100 METAR MRLB 270100Z 00000KT 9999 FEW030 SCT100 30/19 A2982=
201002270200 METAR MRLB 270200Z 00000KT 9999 FEW030 SCT120 29/19 A2984=
201002270300 METAR MRLB NIL=
201002270400 METAR MRLB NIL=
201002270500 METAR MRLB NIL=
201002270600 METAR MRLB NIL=
201002270700 METAR MRLB NIL=
201002270800 METAR MRLB NIL=
201002270900 METAR MRLB NIL=
201002271000 METAR MRLB NIL=
201002271100 METAR MRLB NIL=
201002271200 METAR MRLB 271200Z 13003KT CAVOK 24/20 A2980 RMK BKN120 HZ KGT ARND=
201002271300 METAR MRLB 271300Z 00000KT CAVOK 25/21 A2983 RMK BKN120=
201002271400 METAR MRLB 271400Z 00000KT CAVOK 28/21 A2986 RMK BKN120 HZ LGT ARND=
201002271500 METAR MRLB 271500Z 00000KT 9999 NSC 31/22 A2990 RMK TRACE AC CI HZ LGT ARND=
201002271600 METAR MRLB 271600Z 27004KT 9999 FEW035 33/21 A2989 RMK FEW140 HZ LGT ARND=
201002271700 METAR MRLB 271700Z 02006KT 9999 FEW035 35/20 A2986=
201002271800 METAR MRLB NIL=
201002271900 METAR MRLB 271900Z 29014KT 9999 BKN035 SCT250 34/21 A2981=
201002272000 METAR MRLB 272000Z 26013KT 9999 FEW035 BKN250 32/22 A2979=
201002272100 METAR MRLB 272100Z 27010KT 9999 FEW035 SCT140 32/22 A2976 FEW250=
201002272200 METAR MRLB 272200Z 35008KT 9999 FEW035SCT250 35/19 A2975=
201002272300 METAR MRLB 272300Z 01006KT 9999 FEW035 SCT280 35/18 A2975=
201002272356 METAR MRLB 280000Z 09005KT CAVOK 32/20 A2977 BKN280=
201002280000 METAR MRLB 280000Z 09005KT CAVOK 32/20 A2977 BKN280=
201002280100 METAR MRLB 280100Z 10009KT CAVOK 30/20 A2979 RMK SCT130 FEW280=
201002280200 METAR MRLB 280200Z 09010KT CAVOK 30/21 A2981 RMK FEW130 FEW280=
201002280300 METAR MRLB NIL=
201002280400 METAR MRLB NIL=
201002280500 METAR MRLB NIL=
201002280600 METAR MRLB NIL=
201002280700 METAR MRLB NIL=
201002280800 METAR MRLB NIL=
201002280900 METAR MRLB NIL=
201002281000 METAR MRLB NIL=
201002281100 METAR MRLB NIL=
201002281200 METAR MRLB 281200Z 07019KT CAVOK 27/20 A2979 RMK FEW250 TRACE CU=
201002281300 METAR MRLB 281300Z 07013KT CAVOK 28/17 A2980 FEW250=
201002281400 METAR MRLB 281400Z 21006KT CAVOK 30/18 A2985 FEW250=
201002281500 METAR MRLB 281500Z 09013KT CAVOK 32/17 A2984 FEW250=
201002281600 METAR MRLB 281600Z 10012KT CAVOK 32/16 A2984 FEW250=
201002281700 METAR MRLB 281700Z 09016KT CAVOK 32/18 A2983 FEW250=
201002281800 METAR MRLB 281800Z 07021KT 9999 FEW040 33/17A2982 FEW250=
201002281900 METAR MRLB 281900Z 08018KT 9999 FEW040 34/17 A2979 FEW250=
201002282000 METAR MRLB 282000Z 08018KT CAVOK 33/18 A2976 FEW250=
201002282100 METAR MRLB 282100Z 08020KT 9999 NSC 32/18 A2974 RMK TRAZAS CU/CI=
201002282200 METAR MRLB 202200Z 08020KT 9999 NSC 31/18 A2974 RMK TRAZAS CU/CI=
201002282300 METAR MRLB 282300Z 08017KT 9999 NSC 30/18 A2976 RMK TRAZAS CU/CI=
201003010000 METAR MRLB 010000Z 36019KT 9999 NSC 29/18 A2976 RMK TRAZAS CU/CI=
201003010100 METAR MRLB NIL=
201003010200 METAR MRLB NIL=
201003010300 METAR MRLB NIL=
201003010400 METAR MRLB NIL=
201003010500 METAR MRLB NIL=
201003010600 METAR MRLB NIL=
201003010700 METAR MRLB NIL=
201003010800 METAR MRLB NIL=
201003010900 METAR MRLB NIL=
201003011000 METAR MRLB NIL=
201003011100 METAR MRLB NIL=
201003011200 METAR MRLB 011200Z 28004KT CAVOK 22/19 A2978 RMK FEW250=
201003011300 METAR MRLB NIL=
201003011400 METAR MRLB 011400Z 25006KT CAVOK 27/19 A2982 RMK FEW250=
201003011500 METAR MRLB 011500Z 20005KT CAVOK 30/19 A2986 RMK FEW250=
201003011600 METAR MRLB 011600Z 16006KT CAVOK 33/18 A2986 RMK FEW250=
201003011700 METAR MRLB 011700Z 11012KT CAVOK 34/18 A2984 RMK FEW250=
201003011800 METAR MRLB 011800Z 10010KT CAVOK 34/18 A2981 RMK FEW250=
201003011900 METAR MRLB 011900Z 12008KT 9999 FEW035 35/18 A2979=
201003012000 METAR MRLB 012000Z 25008KT 9999 FEW030 34/20 A2976=
201003012100 METAR MRLB 012100Z 27010KT 9999 FEW040 34/19 A2975=
201003012200 METAR MRLB 012200Z 27011KT 9999 FEW040 33/18 A2975=
201003012300 METAR MRLB 012300Z 27010KT CAVOK 31/19 A2977 RMK FEW250=
201003020000 METAR MRLB 020000Z 28007KT CAVOK 30/18 A2978 RMK FEW250=
201003020100 METAR MRLB 020100Z 33005KT CAVOK 29/19 A2980 FEW250=
201003020200 METAR MRLB 020200Z 30005KT CAVOK 28/19 A2982 FEW250=
201003020300 METAR MRLB NIL=
201003020400 METAR MRLB NIL=
201003020500 METAR MRLB NIL=
201003020600 METAR MRLB NIL=
201003020700 METAR MRLB NIL=
201003020800 METAR MRLB NIL=
201003020900 METAR MRLB NIL=
201003021000 METAR MRLB NIL=
201003021100 METAR MRLB NIL=
201003021200 METAR MRLB 021200Z 05003KT CAVOK 22/20 A2977 FEW280=
201003021300 METAR MRLB 021300Z 03003KT 9999 SKC 24/20 A2980=
201003021400 METAR MRLB 021400Z 00000KT 9999 SKC 29/21 A2982=
201003021500 METAR MRLB 021500Z 00000KT 9999 SKC 32/20 A2984=
201003021600 METAR MRLB 021600Z 03002KT 9999 NSC 34/19 A2984 RMK TRACE CU CC=
201003021700 METAR MRLB 021700Z 15006KT 9999 FEW035 35/19 A2981 RMK FEW280=
201003021800 METAR MRLB 021800Z 27012KT 9999 FEW040 35/19 A2979=
201003021900 METAR MRLB 021900Z 26014KT 9999 FEW040 34/20 A2977=
201003022000 METAR MRLB 022000Z 26014KT 9999 FEW040 33/20 A2976=
201003022100 METAR MRLB 022100Z 27014KT 9999 FEW040 SCT250 32/20 A2974=
201003022200 METAR MRLB 022200Z 27012KT 9999 FEW040 SCT280 32/20 A2974=
201003022300 METAR MRLB 022300Z 25010KT 9999 FEW040 32/20 A2975 RMK FEW120=
201003030000 METAR MRLB 030000Z 27003KT 9999 SCT040 31/18 A2977 RMK FEW120 CB DST SE=
201003030100 METAR MRLB 030100Z 29007KT CAVOK 29/23 A2979 RMK FEW140=
201003030200 METAR MRLB 030200Z 30004KT CAVOK 28/23 A2981 RMK SCT250=
201003030300 METAR MRLB NIL=
201003030400 METAR MRLB NIL=
201003030500 METAR MRLB NIL=
201003030600 METAR MRLB NIL=
201003030700 METAR MRLB NIL=
201003030800 METAR MRLB NIL=
201003030900 METAR MRLB NIL=
201003031000 METAR MRLB NIL=
201003031100 METAR MRLB NIL=
201003031200 METAR MRLB 031200Z 17003KT CAVOK 24/23 A2978 BKN250 HZ ARND=
201003031300 METAR MRLB 031300Z 00000KT CAVOK 26/22 A2980 RMK BKN250 HZ ARND=
201003031400 METAR MRLB 031400Z 24006KT CAVOK 28/22 A2983 RMK BKN250 HZ ARND=
201003031500 METAR MRLB 031500Z 05008KT 9999 FEW040 SCT250 32/19 A2985 RMK HZ ARND=
201003031600 METAR MRLB 031600Z 08014KT 9999 FEW040 33/19 A2985=
201003031700 METAR MRLB 031700Z 04011KT 9999 SCT040 34/19 A2983=
201003031800 METAR MRLB 031800Z 08016KT 9999 FEW040 34/19 A2981=
201003031900 METAR MRLB 031900Z 07017KT 9999 FEW040 34/18 A2979=
201003032000 METAR MRLB 032000Z 07018KT 9999 FEW040 34/18 A2977=
201003032100 METAR MRLB 032100Z 07017KT 9999 FEW040 34/18 A2976=
201003032200 METAR MRLB 032200Z 08018KT 9999 FEW040 33/18 A2975=
201003032300 METAR MRLB 032300Z 08016KT 9999 FEW040 32/19 A2977=
201003040000 METAR MRLB 040000Z 08015KT 9999 FEW040 30/19 A2977=
201003040100 METAR MRLB 040100Z 08014KT 9999 NSC 29/19 A2978 RMK TRACE CU=
201003040200 METAR MRLB 040200Z 09016KT 9999 NSC 29/20 A2979 RMK TRACE CU=
201003040300 METAR MRLB NIL=
201003040400 METAR MRLB NIL=
201003040500 METAR MRLB NIL=
201003040600 METAR MRLB NIL=
201003040700 METAR MRLB NIL=
201003040800 METAR MRLB NIL=
201003040900 METAR MRLB NIL=
201003041000 METAR MRLB NIL=
201003041100 METAR MRLB NIL=
201003041200 METAR MRLB 041200Z 00000KT CAVOK 23/18 A2982 RMK SCT250=
201003041300 METAR MRLB 041300Z 15005KT CAVOK 26/17 A2984 RMK SCT250=
201003041400 METAR MRLB 041400Z 27006KT CAVOK 28/18 A2987 RMK SCT250=
201003041500 METAR MRLB 041500Z 27004KT CAVOK 31/18 A2989 RMK SCT250=
201003041600 METAR MRLB 041600Z 33006KT CAVOK 33/18 A2988 RMK SCT250=
201003041700 METAR MRLB 041700Z 08015KT CAVOK 34/17 A2985 RMK SCT250=
201003041800 METAR MRLB 041800Z 10014KT CAVOK 34/17 A2983 RMK SCT250=
201003041900 METAR MRLB 041900Z 10015KT CAVOK 35/17 A2980 RMK SCT250=
201003042000 METAR MRLB 042000Z 10012KT CAVOK 33/17 A2979 RMK SCT250=
201003042100 METAR MRLB 042100Z 07015KT CAVOK 33/17 A2977 SCT250=
201003042200 METAR MRLB 042200Z 08014KT CAVOK 32/18 A2976 SCT250=
201003042300 METAR MRLB 042300Z 08014KT CAV0K 31/18 A2977 SCT250=
201003050000 METAR MRLB 050000Z 08013KT CAVOK 29/18 A2978 SCT250=
201003050100 METAR MRLB 050100Z 08012KT CAVOK 28/18 A2980 SCT250=
201003050200 METAR MRLB NIL=
201003050300 METAR MRLB NIL=
201003050400 METAR MRLB NIL=
201003050500 METAR MRLB NIL=
201003050600 METAR MRLB NIL=
201003050700 METAR MRLB NIL=
201003050800 METAR MRLB NIL=
201003050900 METAR MRLB NIL=
201003051000 METAR MRLB NIL=
201003051100 METAR MRLB NIL=
201003051200 METAR MRLB 051200Z 18003KT CAVOK 23/18 A2980 RMK SCT250 LGT HZ ARND=
201003051300 METAR MRLB 051300Z 28005KT CAVOK 24/18 A2981 BKN250 HZ ARND=
201003051400 METAR MRLB 051400Z 28006KT CAVOK 28/17 A2983 BKN250 HZ ARND=
201003051500 METAR MRLB 051500Z 21003KT CAVOK 30/17 A2984 BKN250 HZ LGT ARND=
201003051600 METAR MRLB 051600Z 07018KT CAVOK 33/16 A2984 BKN230 VEL MX VT 24KTS=
201003051700 METAR MRLB 051700Z 07017KT CAVOK 33/17 A2982 BKN250 VEL MX 21KTS=
201003051800 METAR MRLB 051800Z 06015KT CAVOK 33/17 A2981 BKN250 VEL MX 21KTS=
201003051900 METAR MRLB 051900Z 08015G26KT CAVOK 33/17 A2979 BKN250=
201003052000 METAR MRLB 052000Z 08019KT CAVOK 33/18 A2977 BKN250 VEL/MAX VIENTO 24NUDOS=
201003052100 METAR MRLB 052100Z 07017KT CAVOK 32/18 A2974 RMK BKN250 VEL.MAX.VTO 26KT=
201003052200 METAR MRLB 052200Z 08014KT CAVOK 32/18 A2973 RMK BKN250=
201003052300 METAR MRLB 052300Z 06016KT CAVOK 30/18 A2973 RMK BKN250=
201003060000 METAR MRLB 060000Z 07012KT CAVOK 28/18 A2974 RMK BKN250=
201003060100 METAR MRLB 060100Z 08010KT CAVOK 27/18 A2975 RMK BKN250=
201003060200 METAR MRLB 060200Z 12011KT 9999 FEW030 22/17 A2997=
201003060300 METAR MRLB NIL=
201003060400 METAR MRLB NIL=
201003060500 METAR MRLB NIL=
201003060600 METAR MRLB NIL=
201003060700 METAR MRLB NIL=
201003060800 METAR MRLB NIL=
201003060900 METAR MRLB NIL=
201003061000 METAR MRLB NIL=
201003061100 METAR MRLB NIL=
201003061200 METAR MRLB 061200Z 17004KT CAVOK 23/16 A2979 RMK OVC250=
201003061300 METAR MRLB 061300Z 00000KT CAVOK 24/17 A2981 RMK OVC250=
201003061400 METAR MRLB 061400Z 23008KT CAVOK 26/16 A2983 RMK BKN250=
201003061500 METAR MRLB 061500Z 22006KT CAVOK 29/15 A2984 RMK OVC250=
201003061600 METAR MRLB 061600Z 05007KT CAVOK 31/14 A2983 RMK OVC250=
201003061700 METAR MRLB 061700Z 08016KT CAVOK 32/24 A2982 RMK OVC250=
201003061800 METAR MRLB 061800Z 08020KT CAVOK 31/15 A2979 RMK BKN250=
201003061900 METAR MRLB 061900Z 09020KT CAVOK 32/16 A2977 RMK BKN250=
201003062000 METAR MRLB 062000Z 08018KT CAVOK 33/16 A2975 BKN250=
201003062100 METAR MRLB 062100Z 07019KT CAVOK 32/16 A2974 RMK SCT250=
201003062200 METAR MRLB 062200Z 07022KT CAVOK 32/17 A2974 RMK FEW250=
201003062300 METAR MRLB 062300Z 07022KT CAVOK 30/17 A2975 RMK FEW250=
201003070000 METAR MRLB 070000Z 08016KT CAVOK 29/17 A2975 RMK BKN250=
201003070100 METAR MRLB 070100Z 08013KT CAVOK 27/18 A2975 RMK BKN250=
201003070200 METAR MRLB 070200Z 07014KT CAVOK 27/18 A2978 RMK BKN250=
201003070300 METAR MRLB NIL=
201003070400 METAR MRLB NIL=
201003070500 METAR MRLB NIL=
201003070600 METAR MRLB NIL=
201003070700 METAR MRLB NIL=
201003070800 METAR MRLB NIL=
201003070900 METAR MRLB NIL=
201003071000 METAR MRLB NIL=
201003071100 METAR MRLB NIL=
201003071200 METAR MRLB 071200Z NIL=
201003071300 METAR MRLB 071300Z 23004KT CAVOK 23/15 A2983 RMK SCT250=
201003071400 METAR MRLB 071400Z 00000KT CAVOK 27/15 A2986 RMK SCT250=
201003071500 METAR MRLB 071500Z 07006KT CAVOK 29/14 A2987 RMK SCT250=
201003071600 METAR MRLB 071600Z 05015KT CAVOK 32/14 A2986 RMK SCT250=
201003071700 METAR MRLB 071700Z 07018KT CAVOK 32/14 A2983 RMK FEW250=
201003071800 METAR MRLB 071800Z 08017KT CAVOK 32/14 A2981 RMK FEW150=
201003071900 METAR MRLB 071900Z 08020KT CAVOK 32/15 A2979 RMK FEW250=
201003072000 METAR MRLB 072000Z 07015KT CAVOK 33/15 A2977 RMK FEW250=
201003072100 METAR MRLB 072100Z 09016KT CAVOK 32/15 A2975 RMK SCT250=
201003072200 METAR MRLB 072200Z 07016KT CAVOK 30/16 A2975 RMK SCT250=
201003072300 METAR MRLB 072300Z 07016KT CAVOK 29/17 A2976 RMK SCT250=
201003072359 METAR MRLB 080000Z 08015KT CAVOK 28/16 A2977 RMK SCT250=
201003080000 METAR MRLB 080000Z 08015KT CAVOK 28/16 A2977 RMK SCT250=
201003080100 METAR MRLB 080100Z 07015KT CAVOK 27/16 A2978 RMK FEW250=
201003080200 METAR MRLB NIL=
201003080300 METAR MRLB NIL=
201003080400 METAR MRLB NIL=
201003080500 METAR MRLB NIL=
201003080600 METAR MRLB NIL=
201003080700 METAR MRLB NIL=
201003080800 METAR MRLB NIL=
201003080900 METAR MRLB NIL=
201003081000 METAR MRLB NIL=
201003081100 METAR MRLB NIL=
201003081200 METAR MRLB 081200Z 15004KT CAVOK 21/15 A2981 RMK BKN250=
201003081259 METAR MRLB 031300Z 03004KT CAVOK 24/16 A2982 RMK BKN250=
201003081300 METAR MRLB NIL=
201003081400 METAR MRLB 081400Z 20004KT CAVOK 27/15 A2984 RMK BKN300=
201003081500 METAR MRLB 081500Z 02007KT CAVOK 29/14 A2985 RMK SCT300=
201003081600 METAR MRLB 081600Z 08012KT CAVOK 32/14 A2985 RMK SCT300=
201003081700 METAR MRLB 081700Z 09016KT CAVOK 32/13 A2982 RMK BKN280 VEL MAX VTO 21KT=
201003081800 METAR MRLB 081800Z 09013KT CAVOK 34/14 A2979 RMK BKN280=
201003081900 METAR MRLB 081900Z 09016KT CAVOK 33/14 A2977 RMK BKN280 VEL MAX VTO 23KT=
201003082000 METAR MRLB 082000Z 09015KT CAVOK 33/14 A2974 RMK SCT300=
201003082100 METAR MRLB 082100Z 08016KT CAVOK 33/15 A2972 RMK SCT300 VL MX VTO 23KT=
201003082200 METAR MRLB 082200Z 08015KT CAVOK 33/16 A2972 RMK SCT300=
201003082300 METAR MRLB 082300Z 07015KT CAVOK 31/14 A2973 RMK FEW300=
201003090000 METAR MRLB 090000Z 09013KT CAVOK 30/14 A2973 RMK FEW300=
201003090100 METAR MRLB 090100Z 08010KT 9999 SKC 28/15 A2973=
201003090200 METAR MRLB 090200Z 09007KT 9999 SKC 27/16 A2975=
201003090300 METAR MRLB NIL=
201003090400 METAR MRLB NIL=
201003090500 METAR MRLB NIL=
201003090600 METAR MRLB NIL=
201003090700 METAR MRLB NIL=
201003090800 METAR MRLB NIL=
201003090900 METAR MRLB NIL=
201003091000 METAR MRLB NIL=
201003091100 METAR MRLB NIL=
201003091200 METAR MRLB 091200Z 00000KT 9999 SKC 19/15 A2978=
201003091300 METAR MRLB 091300Z 00000KT 9999 SKC 25/16 A2978=
201003091400 METAR MRLB 091400Z 18005KT CAVOK 26/16 A2979 RMK FEW250=
201003091500 METAR MRLB NIL=
201003091600 METAR MRLB 091600Z 13008KT CAVOK 32/14 A2981 RMK FEW250=
201003091700 METAR MRLB 091700Z 08004KT CAVOK 34/15 A2979 RMK FEW250=
201003091800 METAR MRLB 091800Z 19006KT CAVOK 36/15 A2976 RMK FEW250=
201003091900 METAR MRLB 091900Z 22005KT CAVOK 37/15 A2972 RMK FEW250=
201003092000 METAR MRLB 092000Z 27011KT CAVOK 35/16 A2971 RMK SCT250=
201003092100 METAR MRLB 092100Z 27014KT CAVOK 32/17 A2970 SCT250=
201003092200 METAR MRLB NIL=
201003092300 METAR MRLB 092300Z 19011KT CAVOK 29/19 A2973 SCT250=
201003100000 METAR MRLB 100000Z 09010KT CAVOK 28/20 A2975 FEW130 BKN250=
201003100100 METAR MRLB 100100Z 26007KT CAVOK 28/20 A2976 FEW130 BKN250=
201003100200 METAR MRLB 100200Z 31004KT CAVOK 28/20 A2979 FEW130 SCT250=
201003100300 METAR MRLB NIL=
201003100400 METAR MRLB NIL=
201003100500 METAR MRLB NIL=
201003100600 METAR MRLB NIL=
201003100700 METAR MRLB NIL=
201003100800 METAR MRLB NIL=
201003100900 METAR MRLB NIL=
201003101000 METAR MRLB NIL=
201003101100 METAR MRLB NIL=
201003101200 METAR MRLB 101200Z 00000KT CAVOK 22/19 A2980 RMK SCT250=
201003101300 METAR MRLB 101300Z 02005KT CAVOK 25/19 A2982 SCT250=
201003101400 METAR MRLB 101400Z 03004KT CAVOK 28/20 A2984 FEW250=
201003101500 METAR MRLB 101500Z 01007KT 9999 FEW030 31/22 A2986=
201003101600 METAR MRLB 101600Z 26010KT 9999 SCT030 33/20 A2985=
201003101700 METAR MRLB 101700Z 23007KT 9999 SCT030 34/18 A2983=
201003101800 METAR MRLB 101800Z 27010KT 9999 SCT030 34/17 A2980=
201003101900 METAR MRLB 101900Z 28012KT 9999 SCT030 35/18 A2977=
201003102000 METAR MRLB 102000Z 27012KT 9999 FEW030 35/18 A2973=
201003102100 METAR MRLB 102100Z 30012KT 9999 FEW030 34/17 A2972=
201003102200 METAR MRLB 102200Z 25012KT CAVOK 34/17 A2971 RMK FEW250=
201003102300 METAR MRLB 102300Z 26010KT CAVOK 33/18 A2972 RMK FEW250=
201003110000 METAR MRLB 110000Z 28006KT CAVOK 31/18 A2973 RMK SCT250=
201003110100 METAR MRLB 110100Z 28004KT CAVOK 29/19 A2975 RMK FEW250=
201003110200 METAR MRLB NIL=
201003110300 METAR MRLB NIL=
201003110400 METAR MRLB NIL=
201003110500 METAR MRLB NIL=
201003110600 METAR MRLB NIL=
201003110700 METAR MRLB NIL=
201003110800 METAR MRLB NIL=
201003110900 METAR MRLB NIL=
201003111000 METAR MRLB NIL=
201003111100 METAR MRLB NIL=
201003111200 METAR MRLB 111200Z 05004KT CAVOK 22/20 A2980 RMK SCT140 FEW280 HZ LGT ARND=
201003111300 METAR MRLB 111300Z 06004KT CAVOK 25/21 A2982 RMK SCT130 HZ LEVE ARND=
201003111400 METAR MRLB 111400Z 05003KT CAVOK 29/22 A2984 RMK SCT130 HZ LEVE ARND=
201003111500 METAR MRLB 111500Z 24003KT 9999 SCT030 30/22 A2986 RMK HZ LEVE ARND=
201003111600 METAR MRLB 111600Z 25004KT 9999 SCT030 32/22 A2985 RMK HZ LEVE ARND=
201003111700 METAR MRLB 111700Z 26004KT 9999 SCT035 33/21 A2984 RMK HZ LEVE ARND=
201003111800 METAR MRLB 111800Z 26007KT 9999 FEW035 SCT130 33/22 A2981 RMK HZ LEVE ARND FEW300=
201003111900 METAR MRLB 111900Z 28013KT 9999 FEW035 SCT300 33/22 A2977 RMK HZ LEVE ARND=
201003112000 METAR MRLB 112000Z 27011KT 9999 FEW035 SCT130 33/21 A2975 HZ LGT ARND SCT300=
201003112100 METAR MRLB 112100Z 27013KT CAVOK 32/22 A2978 RMK SCT300 HZ LEVE W=
201003112200 METAR MRLB 112200Z 28011KT CAVOK 31/22 A2971 RMK BKN280 HZ ARND=
201003112300 METAR MRLB 112300Z 27012KT CAVOK 29/23 A2971 RMK BKN250 HZ ARND=
201003120000 METAR MRLB 120000Z 28009KT CAVOK 28/23 A2972 RMK OVC250 HZ LEVE ARND=
201003120100 METAR MRLB 120100Z 28006KT CAVOK 28/23 A2973 RMK OVC250=
201003120200 METAR MRLB 120200Z 30004KT CAVOK 27/2 A2975 RMK BKN250=
201003120300 METAR MRLB NIL=
201003120400 METAR MRLB NIL=
201003120500 METAR MRLB NIL=
201003120600 METAR MRLB NIL=
201003120700 METAR MRLB NIL=
201003120800 METAR MRLB NIL=
201003120900 METAR MRLB NIL=
201003121000 METAR MRLB NIL=
201003121100 METAR MRLB NIL=
201003121200 METAR MRLB 121200Z 08002KT CAVOK 23/21 A2978 SCT250 HZY=
201003121300 METAR MRLB 121300Z 00000KT 9999 BKN030 25/22 A2981=
201003121400 METAR MRLB 121400Z 00000KT 9999 FEW030 SCT130 29/23 A2983 RMK HZ ARND=
201003121500 METAR MRLB 121500Z 26005KT 9999 BKN030 30/23 A2986 RMK HZ ARND=
201003121600 METAR MRLB 121600Z 28008KT 9999 BKN030 31/23 A2985 RMK HZ ARND=
201003121700 METAR MRLB 121700Z 26009KT 9999 FEW035 SCT250 32/21 A2983 RMK HZ ARND=
201003121800 METAR MRLB 121800Z 26011KT 9999 FEW035 BKN250 33/21 A2981=
201003121900 METAR MRLB 121900Z 28010KT 9999 FEW040 BKN250 32/21 A2977=
201003122000 METAR MRLB 122000Z 27011KT CAVOK 33/21 A2975 RMK OVC250=
201003122100 METAR MRLB NIL=
201003122200 METAR MRLB 122200Z 26012KT CAVOK 32/22 A2971 RMK BKN250=
201003122300 METAR MRLB 122300Z 27011KT CAVOK 30/22 A2971 RMK BKN250=
201003130000 METAR MRLB 130000Z 27010KT CAVOK 28/23 A2971 RMK FEW250=
201003130100 METAR MRLB 130100Z 29004KT CAVOK 27/23 A2973 RMK FEW250=
201003130200 METAR MRLB 130200Z 29005KT CAVOK 27/23 A2976 RMK FEW250=
201003130300 METAR MRLB NIL=
201003130400 METAR MRLB NIL=
201003130500 METAR MRLB NIL=
201003130600 METAR MRLB NIL=
201003130700 METAR MRLB NIL=
201003130800 METAR MRLB NIL=
201003130900 METAR MRLB NIL=
201003131000 METAR MRLB NIL=
201003131100 METAR MRLB NIL=
201003131200 METAR MRLB 131200Z 02003KT CAVOK 23/22 A2981 RMK BKN250 HZ ARND=
201003131300 METAR MRLB 131300Z 02004KT CAVOK 25/22 A2983 RMK SCT250=
201003131400 METAR MRLB 131400Z 01004KT CAVOK 28/22 A2985 RMK SCT250=
201003131500 METAR MRLB 131500Z 27006KT 9999 FEW025 SCT250 31/21 A2987=
201003131600 METAR MRLB 131600Z 35007KT 9999 FEW030 SCT220 33/19 A2986=
201003131700 METAR MRLB 131700Z 27010KT 9999 SCT030 32/21 A2983=
201003131800 METAR MRLB 131800Z 28008KT 9999 SCT025 BKN180 32/21 A2980=
201003131900 METAR MRLB 131900Z 27008KT 9999 FEW030 SCT100 BKN200 30/23 A2978=
201003132000 METAR MRLB 132000Z 24010KT 9999 FEW030 BKN200 32/22 A2975=
201003132100 METAR MRLB 132100Z 27010KT 9999 FEW035 BKN220 32/23 A2972=
201003132200 METAR MRLB 132200Z 26012KT 9999 FEW035 BKN200 31/23 A2971=
201003132300 METAR MRLB 132300Z 26010KT CAVOK 30/24 A2971 RMK FEW100 SCT220=
201003140000 METAR MRLB 140000Z 26008KT CAVOK 28/24 A2972 RMK FEW100 BKN250=
201003140100 METAR MRLB 140100Z 26006KT CAVOK 28/24 A2973 RMK FEW100 SCT250=
201003140200 METAR MRLB 140200Z 27006KT CAVOK 27/24 A2975 RMK FEW100 SCT200=
201003140300 METAR MRLB NIL=
201003140400 METAR MRLB NIL=
201003140500 METAR MRLB NIL=
201003140600 METAR MRLB NIL=
201003140700 METAR MRLB NIL=
201003140800 METAR MRLB NIL=
201003140900 METAR MRLB NIL=
201003141000 METAR MRLB NIL=
201003141100 METAR MRLB NIL=
201003141200 METAR MRLB 141200Z 22003KT CAVOK 24/22 A2975 RMK BKN250 HZ LGT ARND=
201003141300 METAR MRLB 141300Z 10010KT CAVOK 29/21 A2978 RMK HZ ARND BKN250=
201003141400 METAR MRLB 141400Z 06008KT CAVOK 29/23 A2981 RMK BKN250 HZ ARND=
201003141500 METAR MRLB 141500Z 08012KT CAVOK 31/21 A2984 RMK BKN280 RMK HZ ARND=
201003141600 METAR MRLB 141600Z 08012KT CAVOK 33/20 A2981 RMK BKN280 HZ LEVE ARND=
201003141700 METAR MRLB 141700Z 08014KT CAVOKO 34/20 A2983 RMK BKN250 HZ LEVE ARND=
201003141800 METAR MRLB 141800Z 08012KT CAVOK 35/20 A2981 RMK BKN250 HZ LEVE ARND=
201003141900 METAR MRLB 141900Z 09011KT CAVOK 35/20 A2978 RMK BKN280 HZ ARND=
201003142000 METAR MRLB 142000Z 07009KT CAVOK 36/20 A2975 RMK HZ LEVE ARND BKN280=
201003142100 METAR MRLB 142100Z 06009KT 9999 FEW040BKN250 36/20 A2973 HZY=
201003142200 METAR MRLB 142200Z 29010KT 9999 BKN035 SCT280 32/24 A2973 HZY=
201003142300 METAR MRLB 142300Z 30010KT 9999 SCT035 SCT280 31/25 A2975 TCU DIST S=
201003150000 METAR MRLB 1500OOZ 31007KT 9999 FEW035 BKN250 29/25 A2976 TCU SW HZY=
201003150100 METAR MRLB 150100Z 32006KT 9999 FEW040 SCT130 BKN250 29/25 A2978=
201003150200 METAR MRLB 150200Z 32006KT CAVOK 29/24 A2980 SCT140 SCT250=
201003150300 METAR MRLB NIL=
201003150400 METAR MRLB NIL=
201003150500 METAR MRLB NIL=
201003150600 METAR MRLB NIL=
201003150700 METAR MRLB NIL=
201003150800 METAR MRLB NIL=
201003150900 METAR MRLB NIL=
201003151000 METAR MRLB NIL=
201003151100 METAR MRLB NIL=
201003151200 METAR MRLB 151200Z 06003KT CAVOK 24/22 A2982 RMK BKN250 HZ ARND=
201003151300 METAR MRLB 151300Z 00000KT CAVOK 27/23 A2983 OVC250 HZY=
201003151400 METAR MRLB 151400Z 18005KT CAVOK 29/22 A2985 OVC250 HZ ARND=
201003151500 METAR MRLB 151500Z 19005KT CAVOK 31/22 A2986 OVC250 HZY=
201003151600 METAR MRLB 151600Z 09003KT 9999 FEW035 OVC250 33/22 A2986 HZY=
201003151700 METAR MRLB 151700Z 04004KT 9999 FEW035 OVC250 35/20 A2984 HZY=
201003151800 METAR MRLB 151800Z 36007KT 9999 BKN035 SCT250 34/21 A2981 HZY=
201003151900 METAR MRLB 151900Z 30005KT 9999 SCT035 SCT250 36/22 A2977 RMK HZ ARND=
201003152000 METAR MRLB 152000Z 26010KT 9999 BKN035 SCT250 35/22 A2976 RMK HZ ARND=
201003152100 METAR MRLB 152100Z 28009KT 9999 BKN035 SCT250 34/22 A2973 RMK HZ ARND=
201003152200 METAR MRLB 152200Z 23004KT 9999 BKN035 SCT250 34/22 A2973 RMK HZ ARND=
201003152300 METAR MRLB 152300Z 26006KT 9999 BKN035 SCT250 34/22 A2974 RMK HZ ARND=
201003160000 METAR MRLB 160000Z 07007KT CAVOK 32/21 A2975 RMK FEW120 BKN250 HZY=
201003160100 METAR MRLB 160100Z 08005KT CAVOK 31/21 A2975 RMK OVC250=
201003160200 METAR MRLB NIL=
201003160300 METAR MRLB NIL=
201003160400 METAR MRLB NIL=
201003160500 METAR MRLB NIL=
201003160600 METAR MRLB NIL=
201003160700 METAR MRLB NIL=
201003160800 METAR MRLB NIL=
201003160900 METAR MRLB NIL=
201003161000 METAR MRLB NIL=
201003161100 METAR MRLB NIL=
201003161200 METAR MRLB 161200Z 00000KT CAVOK 24/21 A2981 RMK BKN250=
201003161300 METAR MRLB 161300Z 05005KT CAVOK 28/21 A2983 RMK SCT250=
201003161400 METAR MRLB 161400Z 04015KT CAVOK 31/20 A2985 RMK SCT250=
201003161500 METAR MRLB 161500Z 08017KT CAVOK 32/19 A2985 RMK SCT250=
201003161600 METAR MRLB 161600Z 07018KT CAVOK 34/18 A2984 RMK SCT250=
201003161700 METAR MRLB 161700Z 09018KT CAVOK 35/17 A2982 RMK BKN250=
201003161800 METAR MRLB 161800Z 06015KT CAVOK 36/18 A2978 RMK BKN250=
201003161900 METAR MRLB 161900Z 06015KT CAVOK 36/17 A2975 RMK SCT250=
201003162000 METAR MRLB 162000Z 05015KT 9999 FEW030 SCT250 37/17 A2991=
201003162100 METAR MRLB 162100Z 06018KT 9999 FEW035 SCT250 36/17 A2969=
201003162200 METAR MRLB 162200Z 06018KT CAVOK 35/17 A2970 RMK SCT250=
201003162300 METAR MRLB 162300Z 05018KT CAVOK 34/17 A2971 RMK SCT250=
201003170000 METAR MRLB 170000Z 06015KT CAVOK 32/17 A2973 RMK SCT250=
201003170100 METAR MRLB 170100Z 09010KT CAVOK 31/18 A2975 RMK SCT250=
201003170200 METAR MRLB 170200Z 08008KT CAVOK 29/19 A2977 RMK SCT250=
201003170300 METAR MRLB NIL=
201003170400 METAR MRLB NIL=
201003170500 METAR MRLB NIL=
201003170600 METAR MRLB NIL=
201003170700 METAR MRLB NIL=
201003170800 METAR MRLB NIL=
201003170900 METAR MRLB NIL=
201003171000 METAR MRLB NIL=
201003171100 METAR MRLB NIL=
201003171200 METAR MRLB 171200Z 18005KT CAVOK 22/18 A2981 BKN250=
201003171300 METAR MRLB 171300Z 16005KT CAVOK 24/19 A2984 RMK BKN250 HZ LGT ARND=
201003171400 METAR MRLB 171400Z 00000KT CAVOK 29/19 A2987 RMK BKN250 HZ LGT ARND=
201003171500 METAR MRLB 171500Z 10006KT CAVOK 31/17 A2988 RMK BKN250 HZ LGT ARND=
201003171600 METAR MRLB 171600Z 05010KT CAVOK 34/15 A2988 RMK BKN250 HZ LGT ARND=
201003171700 METAR MRLB 171700Z 36010KT CAVOK 35/13 A2986 RMK BKN250=
201003171800 METAR MRLB 171800Z 09016G26KT CAVOK 36/13 A2982 RMK BKN250=
201003171900 METAR MRLB 171900Z 09010KT CAVOK 37/15 A2979 RMK BKN250=
201003172000 METAR MRLB 172000Z 08013KT CAVOK 37/16 A2977 RMK BKN250=
201003172100 METAR MRLB 172100Z 06014KT CAVOK 36/16 A2974 RMK BKN280=
201003172200 METAR MRLB 172200Z 07015KT CAVOK 35/16 A2973 RMK BKN280=
201003172300 METAR MRLB 172300Z 08012KT CAVOK 34/15 A2974 RMK BKN280=
201003180000 METAR MRLB 180000Z 07011KT CAVOK 32/17 A2976 RMK BKN250=
201003180100 METAR MRLB 180100Z 08011KT CAVOK 31/17 A2978 RMK BKN250=
201003180200 METAR MRLB 180200Z 09009KT CAVOK 30/17 A2981 BKN250=
201003180300 METAR MRLB NIL=
201003180400 METAR MRLB NIL=
201003180500 METAR MRLB NIL=
201003180600 METAR MRLB NIL=
201003180700 METAR MRLB NIL=
201003180800 METAR MRLB NIL=
201003180900 METAR MRLB NIL=
201003181000 METAR MRLB NIL=
201003181100 METAR MRLB NIL=
201003181200 METAR MRLB 181200Z 04003KT CAVOK 24/17 A2981 RMK FEW140 SCT250=
201003181300 METAR MRLB 181300Z 07004KT CAVOK 28/18 A2983 RMK FEW140 FEW250=
201003181400 METAR MRLB 181400Z 07017KT 9999 SKC 30/18 A2985=
201003181500 METAR MRLB 181500Z 06022G32KT CAVOK 31/19 A2988 RMK FEW250=
201003181600 METAR MRLB 181600Z 07020KT 9999 FEW040 33/18 A2976 RMK FEW250=
201003181700 METAR MRLB 181700Z 07018KT 9999 FEW040 34/18 A2986 RMK FEW250=
201003181800 METAR MRLB 181800Z 06019KT 9999 FEW040 BKN250 36/17 A2983=
201003181900 METAR MRLB 181900Z 09012KT 9999 FEW040 SCT250 36/17 A2981 RMK FEW130=
201003182000 METAR MRLB 182000Z 06014KT 9999 FEW040 BKN250 36/18 A2978 RMK FEW130=
201003182100 METAR MRLB 182100Z 05023KT 9999 FEW040 BKN250 36/17 A2975=
201003182200 METAR MRLB 182200Z 06011KT 9999 FEW040 BKN250 35/17 A2974=
201003182300 METAR MRLB 182300Z 06016KT 9999 FEW040 BKN250 34/18 A2976=
201003190000 METAR MRLB 190000Z 07015KT 9999 FEW040 BKN250 32/19 A2978=
201003190100 METAR MRLB 190100Z 07015KT 9999 FEW040 BKN250 31/19 A2980=
201003190200 METAR MRLB 190200Z 07017KT CAVOK 30/19 A2981 BKN250=
201003190300 METAR MRLB NIL=
201003190400 METAR MRLB NIL=
201003190500 METAR MRLB NIL=
201003190600 METAR MRLB NIL=
201003190700 METAR MRLB NIL=
201003190800 METAR MRLB NIL=
201003190900 METAR MRLB NIL=
201003191000 METAR MRLB NIL=
201003191100 METAR MRLB NIL=
201003191200 METAR MRLB 191200Z 23006KT CAVOK 24/19 A2983 RMK SCT150=
201003191300 METAR MRLB 191300Z 23004KT CAVOK 27/19 A2984 RMK SCT200=
201003191400 METAR MRLB 191400Z 28004KT CAVOK 30/18 A2986 RMK SCT200=
201003191500 METAR MRLB 191500Z 04012KT CAVOK 32/17 A2989 RMK SCT250=
201003191600 METAR MRLB 191600Z 09018KT CAVOK 32/17 A2986 RMK SCT250=
201003191700 METAR MRLB 191700Z 09018KT CAVOK 33/17 A2984 RMK SCT250=
201003191800 METAR MRLB 191800Z 09019KT CAVOK 33/16 A2982 RMK SCT250=
201003191900 METAR MRLB 191900Z 09018KT CAVOK 34/17 A2979 RMK SCT250=
201003192000 METAR MRLB 192000Z 07018KT CAVOK 34/17 A2977 RMK SCT250=
201003192100 METAR MRLB 192100Z 10018KT CAVOK 33/17 A2977 RMK SCT250=
201003192200 METAR MRLB 192200Z 08015KT CAVOK 32/18 A2974 RMK SCT250=
201003192300 METAR MRLB 192300Z 07018KT CAVOK 31/18 A2975 RMK SCT250=
201003200000 METAR MRLB 200000Z 07015KT CAVOK 29/19 A2975 RMK SCT250=
201003200100 METAR MRLB 200100Z 08016KT CAVOK 28/18 A2977 RMK SCT250=
201003200200 METAR MRLB NIL=
201003200300 METAR MRLB NIL=
201003200400 METAR MRLB NIL=
201003200500 METAR MRLB NIL=
201003200600 METAR MRLB NIL=
201003200700 METAR MRLB NIL=
201003200800 METAR MRLB NIL=
201003200900 METAR MRLB NIL=
201003201000 METAR MRLB NIL=
201003201100 METAR MRLB NIL=
201003201200 METAR MRLB 201200Z 19002KT CAVOK 22/19 A2979 RMK FEW280 HZ LGT ARND=
201003201300 METAR MRLB 201300Z 22005KT 9999 4000SW FU FEW280 25/19 A2982=
201003201400 METAR MRLB 201400Z 23007KT CAVOK 28/19 A2984 RMK FEW280 LGT HZ ARND=
201003201500 METAR MRLB 201500Z 34003KT 9999 NSC 31/19 A2986 LGT HZ ARND=
201003201600 METAR MRLB 201600Z 10009KT 9999 NSC 33/18 A2986=
201003201700 METAR MRLB 201700Z 02004KT 5000 DZ VCSH FEW008 SCT015 25/24 A2994 HZY SCT090=
201003201705 METAR MRLB 201705Z 10014KT 9999 NSC 34/19 A2985=
201003201800 METAR MRLB 201800Z 09011KT 9999 NSC 34/19 A2982=
201003201900 METAR MRLB 201900Z 11008KT 9999 FEW040 35/19 A2980=
201003202000 METAR MRLB 202000Z 07008KT 9999 SCT040 35/19 A2977=
201003202100 METAR MRLB 202100Z 08011KT 9999 SCT040 35/19 A2975=
201003202200 METAR MRLB 202200Z 31006KT 9999 BKN035 33/20 A2975=
201003202300 METAR MRLB 202300Z 28010KT 9999 BKN035 31/21 A2977=
201003210000 METAR MRLB 210000Z 28004KT 9999 SCT035 30/20 A2978=
201003210100 METAR MRLB 210100Z 29002KT 9999 FEW035 30/20 A2979=
201003210200 METAR MRLB 210200Z 29003KT 9999 FEW035 29/21 A2980=
201003210300 METAR MRLB NIL=
201003210400 METAR MRLB NIL=
201003210500 METAR MRLB NIL=
201003210600 METAR MRLB NIL=
201003210700 METAR MRLB NIL=
201003210800 METAR MRLB NIL=
201003210900 METAR MRLB NIL=
201003211000 METAR MRLB NIL=
201003211100 METAR MRLB NIL=
201003211200 METAR MRLB 211200Z 35002KT CAVOK 23/20 A2980 RMK BKN250=
201003211300 METAR MRLB 211300Z 03002KT CAVOK 26/21 A2982 RMK BK250=
201003211400 METAR MRLB 211400Z 23002KT CAVOK 30/21 A2984 RMK OVC250=
201003211500 METAR MRLB 211500Z 09006KT CAVOK 32/21 A2986 RMK OVC250=
201003211600 METAR MRLB 211600Z 11012KT 9999 FEW040 OVC250 34/20 A2985=
201003211700 METAR MRLB 211700Z 08012KT 9999 SCT040 BKN250 35/20 A2983=
201003211800 METAR MRLB 211800Z 10009KT 9999 SCT040 BKN250 36/20 A2980=
201003211900 METAR MRLB 211900Z 09011KT 9999 SCT040 BKN250 36/20 A2976=
201003212000 METAR MRLB 212000Z 07010KT 9999 SCT040 BKN250 36/20 A2973=
201003212100 METAR MRLB 212100Z 08011KT 9999 SCT040 BKN250 37/20 A2971=
201003212200 METAR MRLB 212200Z 07015KT 9999 SCT040 BKN250 34/22 A2971=
201003212300 METAR MRLB 212300Z 09014KT 9999 SCT040 BKN250 33/21 A2973=
201003220000 METAR MRLB 220000Z 08013KT 9999 SCT040 BKN150 32/20 A2974=
201003220100 METAR MRLB 220100Z 10012KT 9999 SCT040 BKN150 31/21 A2978=
201003220200 METAR MRLB 220200Z 12008KT 9999 SCT040 BKN150 30/21 A2981=
201003220300 METAR MRLB NIL=
201003220400 METAR MRLB NIL=
201003220500 METAR MRLB NIL=
201003220600 METAR MRLB NIL=
201003220700 METAR MRLB NIL=
201003220800 METAR MRLB NIL=
201003220900 METAR MRLB NIL=
201003221000 METAR MRLB NIL=
201003221100 METAR MRLB NIL=
201003221200 METAR MRLB 221200Z 18005KT CAVOK 25/21 A2976 RMK FEW100 SCT250=
201003221300 METAR MRLB 221300Z 24005KT CAVOK 28/22 A2979 RMK SCT250=
201003221400 METAR MRLB 221400Z 25010KT CAVOK 31/21 A2983 RMK SCT250=
201003221500 METAR MRLB 221500Z 17005KT CAVOK 33/20 A2984 RMK SCT250=
201003221600 METAR MRLB 221600Z 02010KT 9999 FEW035 SCT250 34/20 A2983=
201003221700 METAR MRLB 221700Z 25014KT 9999 SCT030 BKN250 34/20 A2981=
201003221800 METAR MRLB 221800Z 07015KT 9999 SCT030 BKN250 35/19 A2979=
201003221900 METAR MRLB 221900Z 08016KT 9999 SCT035 BKN250 36/17 A2977=
201003222000 METAR MRLB 222000Z 03006KT 9999 SCT035 BKN250 35/18 A2974=
201003222100 METAR MRLB 222100Z 08016KT 9999 SCT030 BKN250 34/20 A2974=
201003222200 METAR MRLB 222200Z 06012KT 9999 SCT035 BKN180 32/20 A2974=
201003222300 METAR MRLB 222300Z 08015KT 9999 SCT035 BKN180 32/20 A2974=
201003230000 METAR MRLB 230000Z 09014KT 9999 FEW020 SCT035 BKN180 28/22 A2973=
201003230100 METAR MRLB 230100Z 07012KT 9999 FEW025 SCT100 29/21 A2974=
201003230200 METAR MRLB NIL=
201003230300 METAR MRLB NIL=
201003230400 METAR MRLB NIL=
201003230500 METAR MRLB NIL=
201003230600 METAR MRLB NIL=
201003230700 METAR MRLB NIL=
201003230800 METAR MRLB NIL=
201003230900 METAR MRLB NIL=
201003231000 METAR MRLB NIL=
201003231100 METAR MRLB NIL=
201003231200 METAR MRLB 231200Z VRBO2KT 9999 FEW030 BKN250 26/20 A2975 RMK FEW130=
201003231300 METAR MRLB 231300Z 08013KT CAVOK 29/19 A2977 RMK BKN250=
201003231400 METAR MRLB 231400Z 08014KT CAVOK 29/20 A2982 RMK BKN250=
201003231500 METAR MRLB 231500Z 07019G29KT CAVOK 32/19 A2982 RMK BKN250=
201003231600 METAR MRLB 231600Z 08022KT CAVOK 32/19 A2982 RMK BKN250=
201003231700 METAR MRLB 231700Z 07024G36KT CAVOK 33/19 A2980 RMK BKN250=
201003231800 METAR MRLB 231800Z 07025KT CAVOK 32/18 A2980 RMK SCT250=
201003231900 METAR MRLB 231900Z 06023KT CAVOK 33/18 A2977 RMK SCT280=
201003232000 METAR MRLB 232000Z 07020G30KT CAVOK 34/18 A2974 RMK BKN280=
201003232100 METAR MRLB 232100Z 06021KT CAVOK 34/18 A2971 RMK BKN250=
201003232200 METAR MRLB 232200Z 08019KT CAVOK 33/17 A2970 RMK BKN250=
201003232300 METAR MRLB 232300Z 08012KT CAVOK 32/18 A2970 RMK BKN250=
201003240000 METAR MRLB 240000Z 08017KT CAVOK 31/18 A2970 RMK BKN250=
201003240100 METAR MRLB 240100Z 08016KT CAVOK 29/18 A2972 RMK BKN250=
201003240200 METAR MRLB 240200Z 06020KT CAVOK 29/19 A2975 RMK BKN250=
201003240300 METAR MRLB NIL=
201003240400 METAR MRLB NIL=
201003240500 METAR MRLB NIL=
201003240600 METAR MRLB NIL=
201003240700 METAR MRLB NIL=
201003240800 METAR MRLB NIL=
201003240900 METAR MRLB NIL=
201003241000 METAR MRLB NIL=
201003241100 METAR MRLB NIL=
201003241200 METAR MRLB 241200Z 07014KT CAVOK 26/17 A2976 RMK FEW250=
201003241300 METAR MRLB 241300Z 08011KT CAVOK 28/17 A2978 RMK FEW250=
201003241400 METAR MRLB 241400Z 04011KT CAVOK 30/17 A2981 RMK BKN250=
201003241500 METAR MRLB 241500Z 07015KT CAVOK 31/17 A2982 RMK BKN250=
201003241600 METAR MRLB 241600Z 06018KT CAVOK 32/16 A2981 RMK BKN250=
201003241700 METAR MRLB 241700Z 07015KT CAVOK 33/16 A2980 RMK BKN250=
201003241800 METAR MRLB 241800Z 07014KT CAVOK 35/17 A2977 RMK BKN250=
201003241900 METAR MRLB 241900Z 05014KT 9999 FEW040 BKN250 35/17 A2974=
201003242000 METAR MRLB 242000Z 07017KT 9999 FEW040 SCT250 34/18 A2972=
201003242100 METAR MRLB 242100Z 07018KT 9999 FEW040 SCT250 33/18 A2970=
201003242200 METAR MRLB 242200Z 07015KT 9999 FEW040 BKN250 33/18 A2970=
201003242300 METAR MRLB 242300Z 07016KT 9999 FEW040 BKN250 32/18 A2970=
201003250000 METAR MRLB 250000Z 07014KT CAVOK 31/19 A2972 RMK BKN250=
201003250100 METAR MRLB 250100Z 07011KT CAVOK 29/19 A2974 RMK BK250=
201003250200 METAR MRLB 250200Z 08009KT CAVOK 29/19 A2977 BKN250=
201003250300 METAR MRLB NIL=
201003250400 METAR MRLB NIL=
201003250500 METAR MRLB NIL=
201003250600 METAR MRLB NIL=
201003250700 METAR MRLB NIL=
201003250800 METAR MRLB NIL=
201003250900 METAR MRLB NIL=
201003251000 METAR MRLB NIL=
201003251100 METAR MRLB NIL=
201003251200 METAR MRLB 251200Z 00000KT CAVOK 23/19 A2980 RMK FEW120=
201003251300 METAR MRLB 251300Z 00000KT CAVOK 27/20 A2983 RMK FEW250=
201003251400 METAR MRLB 251400Z 00000KT CAVOK 31/20 A2986 RMK FEW250=
201003251500 METAR MRLB 251500Z 05006KT CAVOK 33/18 A2987 RMK FEW250=
201003251600 METAR MRLB 251600Z 09007KT CAVOK 34/16 A2986 RMK FEW250=
201003251700 METAR MRLB 251700Z 12010KT CAVOK 35/16 A2983 RMK FEW250=
201003251800 METAR MRLB 251800Z 07010KT 9999 FEW035 SCT250 26/16 A2980=
201003251900 METAR MRLB 251900Z 08003KT 9999 SCT030 36/16 A2978=
201003252000 METAR MRLB 252000Z 09006KT 9999 SCT030 36/16 A2975=
201003252100 METAR MRLB 252100Z 27010KT 9999 FEW035 SCT250 35/17 A2974=
201003252200 METAR MRLB 252200Z 28011KT 9999 FEW040 35/17 A2972=
201003252300 METAR MRLB 252300Z 25008KT 9999 FEW045 33/20 A2974=
201003260000 METAR MRLB 260000Z 27005KT CAVOK 31/22 A2976 RMK FEW080 SCT250=
201003260100 METAR MRLB 260100Z 30003KT CAVOK 29/22 A2977 RMK FEW100=
201003260200 METAR MRLB 260200Z 01004KT CAVOK 28/22 A2979 RMK FEW140=
201003260300 METAR MRLB NIL=
201003260400 METAR MRLB NIL=
201003260500 METAR MRLB NIL=
201003260600 METAR MRLB NIL=
201003260700 METAR MRLB NIL=
201003260800 METAR MRLB NIL=
201003260900 METAR MRLB NIL=
201003261000 METAR MRLB NIL=
201003261100 METAR MRLB NIL=
201003261200 METAR MRLB 261200Z 34003KT CAVOK 25/20 A2980 RMK FEW300 HZ LGT ARND=
201003261300 METAR MRLB 261300Z 00000KT 9999 SKC 27/21 A2981 RMK HZ LEVE ARND=
201003261400 METAR MRLB 261400Z 28002KT 9999 SKC 29/21 A2985 RMK HZ ARND=
201003261500 METAR MRLB 261500Z 21003KT 9999 SKC 31/21 A2986 RMK HZ LEVE ARND=
201003261600 METAR MRLB 261600Z 29005KT 9999 SKC 35/16 A2984 RMK HZ LEVE ARND=
201003261700 METAR MRLB 261700Z 12006KT 9999 NSC 36/17 A2981 RMK HZ LEVE ARND=
201003261800 METAR MRLB 261800Z 31010KT 9999 FEW035 36/17 A2977 RMK HZ LEVE ARND=
201003261900 METAR MRLB 261900Z 35005KT 9999 SCT035 37/17 A2973 RMK HZ LEBE ARND=
201003262000 METAR MRLB 262000Z 10009KT 9999 SCT035 37/17 A2971 RMK HZ LEVE ARND=
201003262100 METAR MRLB 262100Z 07016KT 9999 FEW035 36/16 A2970 RMK HZ LEVE ARND=
201003262200 METAR MRLB 262200Z 06015KT 9999 NSC 36/17 A2969 RMK HZ LEVE ARND=
201003262300 METAR MRLB 262300Z 07012KT 9999 NSC 35/18 A2970 RMK HZ LEVE ARND=
201003270000 METAR MRLB 270000Z 06015KT CAVOK 32/19 A2973 RMK FEW300 HZ LEVE ARND=
201003270100 METAR MRLB 270100Z 07011KT CAVOK 31/19 A2975 RMK FEW280=
201003270200 METAR MRLB 270200Z 08010KT CAVOK 31/20 A2976 RMK SCT280=
201003270300 METAR MRLB NIL=
201003270400 METAR MRLB NIL=
201003270500 METAR MRLB NIL=
201003270600 METAR MRLB NIL=
201003270700 METAR MRLB NIL=
201003270800 METAR MRLB NIL=
201003270900 METAR MRLB NIL=
201003271000 METAR MRLB NIL=
201003271100 METAR MRLB NIL=
201003271200 METAR MRLB 271200Z 24003KT CAVOK 25/19 A2977 RMK OVC250 HZ ARND=
201003271300 METAR MRLB 271300Z 04004KT CAVOK 26/19 A2979 RMK OVC250 HZ ARND=
201003271400 METAR MRLB 271400Z 03004KT CAVOK 30/18 A2983 RMK BKN250 HZ ARND=
201003271500 METAR MRLB 271500Z 08016KT CAVOK 32/18 A2984 RMK BKN250 HZ ARND=
201003271600 METAR MRLB 271600Z 07015KT CAVOK 34/17 A2984 RMK SCT250=
201003271700 METAR MRLB 271700Z 07014KT 9999 FEW040 SCT250 35/17 A2981=
201003271800 METAR MRLB 271800Z 07011KT 9999 FEW040 SCT250 35/17 A2978=
201003271900 METAR MRLB 271900Z 06013KT 9999 FEW040 SCT250 37/17 A2974=
201003272000 METAR MRLB 272000Z 07014KT 9999 FWE040 SCT250 37/16 A2971=
201003272100 METAR MRLB 272100Z 06017KT 9999 FEW040 SCT250 36/17 A2969=
201003272200 METAR MRLB 272200Z 05018KT 9999 FEW040 SCT250 36/17 A2969=
201003272300 METAR MRLB 272300Z 06018KT CAVOK 35/18 A2970 RMK FEW250=
201003280000 METAR MRLB 280000Z 06016KT 9999 SKC 32/18 A2972=
201003280100 METAR MRLB 280100Z 05018KT 9999 SKC 31/18 A2974=
201003280200 METAR MRLB 280200Z 06013KT 9999 SKC 30/18 A2975=
201003280300 METAR MRLB NIL=
201003280400 METAR MRLB NIL=
201003280500 METAR MRLB NIL=
201003280600 METAR MRLB NIL=
201003280700 METAR MRLB NIL=
201003280800 METAR MRLB NIL=
201003280900 METAR MRLB NIL=
201003281000 METAR MRLB NIL=
201003281100 METAR MRLB NIL=
201003281200 METAR MRLB 281200Z 07012KT CAVOK 27/18 A2974 RMK FEW250=
201003281300 METAR MRLB 281300Z 07016KT CAVOK 29/18 A2977 RMK FEW250=
201003281400 METAR MRLB 281400Z 07020KT CAVOK 31/16 A2979 RMK FEW250=
201003281500 METAR MRLB 281500Z 07018G28KT CAVOK 33/14 A2981 RMK FEW250=
201003281600 METAR MRLB 281600Z 07015KT CAVOK 34/13 A2981 FEW250=
201003281700 METAR MRLB 281700Z 06015KT CAVOK 35/13 A2978 RMK FEW250=
201003281800 METAR MRLB 281800Z 06018KT CAVOK 36/14 A2975 RMK FEW250=
201003281900 METAR MRLB 281900Z 10012KT CAVOK 37/14 A2992 RMK FEW250=
201003282000 METAR MRLB 282000Z 15007KT CAVOK 37/15 A2968 RMK FEW250=
201003282100 METAR MRLB 282100Z 08008KT 9999 FEW040 36/15 A2966=
201003282200 METAR MRLB 282200Z 05008KT 9999 FEW035 36/15 A2965=
201003282300 METAR MRLB 282300Z 28007KT 9999 FEW045 34/15 A2967=
201003290000 METAR MRLB 290000Z 24006KT CAVOK 31/15 A2969 RMK SCT100=
201003290100 METAR MRLB 290100Z 24004KT CAVOK 30/16 A2971 RMK FEW100=
201003290200 METAR MRLB 290200Z VRB03KT CAVOK 29/16 A2972 RMK FEW120=
201003290300 METAR MRLB NIL=
201003290400 METAR MRLB NIL=
201003290500 METAR MRLB NIL=
201003290600 METAR MRLB NIL=
201003290700 METAR MRLB NIL=
201003290800 METAR MRLB NIL=
201003290900 METAR MRLB NIL=
201003291000 METAR MRLB NIL=
201003291100 METAR MRLB NIL=
201003291200 METAR MRLB 291200Z 00000KT CAVOK 22/18 A2974 RMK FEW300 HZ LGT ARND=
201003291300 METAR MRLB 291300Z 02003KT 9999 SKC 24/18 A2976 RMK HZ LGT ARND=
201003291400 METAR MRLB NIL=
201003291500 METAR MRLB 291500Z 33003KT 9999 SKC 32/17 A2980 RMK HZ LGT ARND=
201003291600 METAR MRLB 291600Z 08009KT 9999 NSC 34/15 A2980=
201003291700 METAR MRLB 291700Z 09014KT 9999 NSC 35/17 A2977=
201003291800 METAR MRLB 291800Z 09015KT 9999 FEW040 35/17 A2975=
201003291900 METAR MRLB 291900Z 09015KT 9999 FEW040 35/18 A2971=
201003292000 METAR MRLB 292000Z 07018KT 9999 FEW040 36/17 A2969=
201003292100 METAR MRLB 292100Z 07018KT 9999 FEW040 35/18 A2967=
201003292200 METAR MRLB NIL=
201003292300 METAR MRLB 292300Z 07019KT 9999 FEW040 33/18 A2968 RMK FEW100=
201003300000 METAR MRLB 300000Z 07013KT 9999 SCT040 32/16 A2970 RMK FEW100=
201003300100 METAR MRLB 300100Z 08012KT CAVOK 31/17 A2973 RMK FEW120=
201003300200 METAR MRLB 300200Z 09013KT CAVOK 30/18 A2974 RMK FEW120=
201003300300 METAR MRLB NIL=
201003300400 METAR MRLB NIL=
201003300500 METAR MRLB NIL=
201003300600 METAR MRLB NIL=
201003300700 METAR MRLB NIL=
201003300800 METAR MRLB NIL=
201003300900 METAR MRLB NIL=
201003301000 METAR MRLB NIL=
201003301100 METAR MRLB NIL=
201003301200 METAR MRLB 301200Z 03009KT CAVOK 27/17 A2976 OVC250=
201003301300 METAR MRLB 301300Z 04009KT CAVOK 29/17 A2978 RMK OVC250=
201003301400 METAR MRLB 301400Z 03013KT CAVOK 31/16 A2982 RMK OVC250=
201003301500 METAR MRLB 301500Z 07018KT CAVOK 32/17 A2983 RMK OVC250=
201003301600 METAR MRLB 301600Z 08019KT CAVOK 33/16 A2983 RMK OVC250=
201003301700 METAR MRLB 301700Z 07021KT CAVOK 34/16 A2983 RMK OVC250=
201003301800 METAR MRLB 301800Z 07021KT 9999 FEW040 OVC250 35/15 A2982=
201003301900 METAR MRLB 301900Z 06019KT 9999 FEW040 BKN250 25/15 A2979=
201003302000 METAR MRLB 302000Z 05020KT 9999 FEW040 BKN250 36/14 A2976=
201003302100 METAR MRLB 302100Z 36019KT 9999 FEW040 OVC250 36/14 A2974=
201003302200 METAR MRLB 302200Z 06022KT CAVOK 34/15 A2974 RMK OVC250=
201003302300 METAR MRLB 302300Z 07019KT CAVOK 33/14 A2975 RMK OVC250=
201003310000 METAR MRLB 310000Z 07016KT CAVOK 32/15 A2976 RMK OVC250=
201003310100 METAR MRLB 310100Z 08014KT CAVOK 30/15 A2979 RMK OVC250=
201003310200 METAR MRLB 310200Z 08011KT CAVOK 29/14 A2980 RMK OVC250=
201003310300 METAR MRLB NIL=
201003310400 METAR MRLB NIL=
201003310500 METAR MRLB NIL=
201003310600 METAR MRLB NIL=
201003310700 METAR MRLB NIL=
201003310800 METAR MRLB NIL=
201003310900 METAR MRLB NIL=
201003311000 METAR MRLB NIL=
201003311100 METAR MRLB NIL=
201003311200 METAR MRLB 311200Z 00000KT CAVOK 23/17 A2981 RMK SCT250=
201003311300 METAR MRLB 311300Z 25006KT CAVOK 26/17 A2983 RMK SCT250=
201003311400 METAR MRLB 311400Z 28004KT CAVOK 30/18 A2985 RMK SCT250=
201003311500 METAR MRLB 311500Z 01007KT CAVOK 32/17 A2986 RMK SCT250=
201003311600 METAR MRLB 311600Z 09012KT CAVOK 34/16 A2984 RMK BKN250=
201003311700 METAR MRLB 311700Z 09012KT CAVOK 36/16 A2983 RMK SCT250=
201003311800 METAR MRLB 311800Z 08016KT CAVOK 35/17 A2980 RMK SCT250=
201003311900 METAR MRLB 311900Z 10016KT CAVOK 35/18 A2979 RMK FEW250=
201003312000 METAR MRLB 312000Z 07016KT 9999 FEW035 35/18 A2977=
201003312100 METAR MRLB 312100Z 09015KT 9999 FEW040 SCT250 34/19 A2977=
201003312200 METAR MRLB 312200Z 06018KT 9999 FEW045 SCT250 34/19 A2977=
201003312300 METAR MRLB 312300Z 07016KT 9999 FEW045 SCT250 31/19 A2978=
201004010000 METAR MRLB 010000Z 07015KT 9999 FEW045 SCT250 30/19 A2979=
201004010100 METAR MRLB 010100Z 08010KT CAVOK 29/19 A2981 RMK FEW100=
201004010200 METAR MRLB 010200Z 07008KT CAVOK 28/20 A2983 RMK FEW100=
201004010300 METAR MRLB NIL=
201004010400 METAR MRLB NIL=
201004010500 METAR MRLB NIL=
201004010600 METAR MRLB NIL=
201004010700 METAR MRLB NIL=
201004010800 METAR MRLB NIL=
201004010900 METAR MRLB NIL=
201004011000 METAR MRLB NIL=
201004011100 METAR MRLB NIL=
201004011200 METAR MRLB NIL=
201004011300 METAR MRLB 011300Z 34004KT CAVOK 28/20 A2982 RMK BKN250=
201004011400 METAR MRLB 011400Z 09011KT CAVOK 32/18 A2985 RMK BKN250=
201004011500 METAR MRLB 011500Z 08018KT CAVOK 32/19 A2987 RMK BKN250=
201004011600 METAR MRLB 011600Z 08016KT CAVOK 34/18 A2986 RMK SCT250=
201004011700 METAR MRLB 011700Z 07019KT CAVOK 34/17 A2984 RMK FEW250=
201004011800 METAR MRLB 011800Z 08018KT CAVOK 35/17 A2980 RMK FEW250=
201004011900 METAR MRLB 011900Z 08016KT CAVOK 35/18 A2976 RMK FEW250=
201004012000 METAR MRLB 012000Z 07017KT 9999 NSC 36/19 A2973=
201004012100 METAR MRLB 012100Z 06016KT 9999 NSC 36/18 A2971=
201004012200 METAR MRLB 012200Z 06018KT 9999 NSC 34/18 A2971=
201004012300 METAR MRLB 012300Z 06018KT 9999 NSC 33/17 A2971=
201004020000 METAR MRLB 020000Z 07017KT CAVOK 30/19 A2972 RMK FEW250=
201004020100 METAR MRLB 020100Z 08017KT CAVOK 30/19 A2975 RMK FEW250=
201004020200 METAR MRLB 020200Z 09015KT CAVOK 29/18 A2976 RMK FEW250=
201004020300 METAR MRLB NIL=
201004020400 METAR MRLB NIL=
201004020500 METAR MRLB NIL=
201004020600 METAR MRLB NIL=
201004020700 METAR MRLB NIL=
201004020800 METAR MRLB NIL=
201004020900 METAR MRLB NIL=
201004021000 METAR MRLB NIL=
201004021100 METAR MRLB NIL=
201004021200 METAR MRLB 021200Z 07004KT CAVOK 23/19 A2976 RMK FEW140=
201004021300 METAR MRLB 021300Z 00000KT CAVOK 28/20 A2977 RMK FEW140=
201004021400 METAR MRLB 021400Z 29005KT CAVOK 30/20 A2980 RMK FEW140=
201004021500 METAR MRLB 021500Z 30003KT 9999 SKC 32/19 A2981=
201004021600 METAR MRLB 021600Z 34005KT 9999 SKC 34/19 A2980=
201004021700 METAR MRLB 021700Z 09013KT 9999 FEW040 35/19 A2979=
201004021800 METAR MRLB 021800Z 10014KT 9999 FEW040 36/19 A2977=
201004021900 METAR MRLB 021900Z 09011KT 9999 FEW040 36/20 A2974=
201004022000 METAR MRLB NIL=
201004022100 METAR MRLB 022100Z 07012KT 9999 FEW040 SCT130 37/19 A2969=
201004022200 METAR MRLB 022200Z 07011KT 9999 FEW040 SCT130 37/19 A2969=
201004022300 METAR MRLB 022300Z 08011KT 9999 SCT035 BKN120 34/20 A2971=
201004030000 METAR MRLB 030000Z 06008KT 9999 FEW035 BKN120 33/19 A2973=
201004030100 METAR MRLB 030100Z 13005KT 9999 FEW035 31/20 A2975=
201004030200 METAR MRLB NIL=
201004030300 METAR MRLB NIL=
201004030400 METAR MRLB NIL=
201004030500 METAR MRLB NIL=
201004030600 METAR MRLB NIL=
201004030700 METAR MRLB NIL=
201004030800 METAR MRLB NIL=
201004030900 METAR MRLB NIL=
201004031000 METAR MRLB NIL=
201004031100 METAR MRLB NIL=
201004031200 METAR MRLB 031200Z 00000KT CAVOK 25/21 A2974 RMK BKN250=
201004031300 METAR MRLB 031300Z 00000KT CAVOK 28/21 A2975 RMK SCT250=
201004031400 METAR MRLB 031400Z 04004KT CAVOK 30/21 A2977 RMK SCT250=
201004031500 METAR MRLB 031500Z 08015KT CAVOK 33/19 A2977 RMK SCT250=
201004031600 METAR MRLB 031600Z 09015KT CAVOK 35/18 A2976 RMK SCT250=
201004031700 METAR MRLB NIL=
201004031800 METAR MRLB 031800Z 06014KT 9999 SCT030 BKN250 36/18 A2974=
201004031900 METAR MRLB 031900Z 06015KT 9999 SCT030 BKN250 36/18 A2971=
201004032000 METAR MRLB 032000Z 05015KT 9999 FEW035 SCT250 36/17 A2968=
201004032100 METAR MRLB 032100Z 04014KT 9999 SCT035 36/17 A2967=
201004032200 METAR MRLB 032200Z 05013KT 9999 FEW035 36/17 A2966=
201004032300 METAR MRLB 032300Z 06018KT 9999 FEW045 33/19 A2969=
201004040000 METAR MRLB NIL=
201004040100 METAR MRLB 040100Z 08010KT CAVOK 30/20 A2971 RMK FEW100=
201004040200 METAR MRLB NIL=
201004040300 METAR MRLB NIL=
201004040400 METAR MRLB NIL=
201004040500 METAR MRLB NIL=
201004040600 METAR MRLB NIL=
201004040700 METAR MRLB NIL=
201004040800 METAR MRLB NIL=
201004040900 METAR MRLB NIL=
201004041000 METAR MRLB NIL=
201004041100 METAR MRLB NIL=
201004041200 METAR MRLB 041200Z 06003KT CAVOK 22/18 A2975 RMK BKN250=
201004041300 METAR MRLB 041300Z 26003KT CAVOK 25/19 A2976 RMK BKN250=
201004041400 METAR MRLB 041400Z 19004KT CAVOK 29/19 A2979 RMK BKN250=
201004041500 METAR MRLB 041500Z 07017KT CAVOK 33/15 A2982 RMK BKN300=
201004041600 METAR MRLB 041600Z 09016KT CAVOK 34/15 A2981 RMK SCT300=
201004041700 METAR MRLB 041700Z 07013KT CAVOK 35/16 A2980 RMK SCT300=
201004041800 METAR MRLB 041800Z 07012KT CAVOK 36/15 A2977 RMK BKN250=
201004041900 METAR MRLB 041900Z 10009KT CAVOK 37/15 A2974 RMK BKN250=
201004042000 METAR MRLB 042000Z 06011KT CAVOK 37/15 A2971 RMK BKN250=
201004042100 METAR MRLB 042100Z 06012KT CAVOK 37/15 A2971 RMK BKN250=
201004042200 METAR MRLB 042200Z 06012KT CAVOK 37/16 A2969 RMK BKN250=
201004042300 METAR MRLB 042300Z 06014KT CAVOK 35/16 A2970 RMK BKN250=
201004050000 METAR MRLB 050000Z 06012KT CAVOK 33/16 A2972 RMK OVC250=
201004050100 METAR MRLB 050100Z 07011KT CAVOK 32/16 A2974 RMK BKN250=
201004050200 METAR MRLB NIL=
201004050300 METAR MRLB NIL=
201004050400 METAR MRLB NIL=
201004050500 METAR MRLB NIL=
201004050600 METAR MRLB NIL=
201004050700 METAR MRLB NIL=
201004050800 METAR MRLB NIL=
201004050900 METAR MRLB NIL=
201004051000 METAR MRLB NIL=
201004051100 METAR MRLB NIL=
201004051200 METAR MRLB 051200Z 04005KT CAVOK 22/18 A2982 RMK OVC250=
201004051300 METAR MRLB 051300Z 36002KT CAVOK 24/18 A2983 RMK OVC250=
201004051400 METAR MRLB 051400Z 04004KT CAVOK 28/18 A2986 RMK OVC250=
201004051500 METAR MRLB 051500Z 08009KT CAVOK 32/18 A2987 RMK OVC250=
201004051600 METAR MRLB 051600Z 07008KT CAVOK 34/17 A2985 RMK OVC250=
201004051700 METAR MRLB 051700Z 08009KT CAVOK 35/17 A2984 RMK OVC250=
201004051800 METAR MRLB 051800Z 11008KT CAVOK 36/17 A2981 RMK OVC250=
201004051900 METAR MRLB 051900Z 09005KT 9999 FEW040 BKN250 38/16 A2977=
201004052000 METAR MRLB 052000Z 10009KT 9999 FEW040 BKN250 38/16 A2974=
201004052100 METAR MRLB 052100Z 08009KT 9999 FEW040 BKN250 38/16 A2972=
201004052200 METAR MRLB 052200Z 28008KT 9999 FEW040 BKN250 35/19 A2973 RMK FU SW=
201004052300 METAR MRLB 052300Z 19011KT 9999 FEW040 SCT250 33/18 A2975 RMK FU S=
201004060000 METAR MRLB 060000Z 24007KT 9999 FEW040 31/20 A2977=
201004060100 METAR MRLB 060100Z 25007KT 9999 FEW040 30/20 A2980=
201004060200 METAR MRLB NIL=
201004060300 METAR MRLB NIL=
201004060400 METAR MRLB NIL=
201004060500 METAR MRLB NIL=
201004060600 METAR MRLB NIL=
201004060700 METAR MRLB NIL=
201004060800 METAR MRLB NIL=
201004060900 METAR MRLB NIL=
201004061000 METAR MRLB NIL=
201004061100 METAR MRLB NIL=
201004061200 METAR MRLB 061200Z 00000KT CAVOK 23/20 A2980 RMK FEW150 SCT250=
201004061300 METAR MRLB 061300Z 00000KT CAVOK 26/20 A2981 RMK SCT250=
201004061400 METAR MRLB 061400Z 00000KT CAVOK 28/20 A2984 RMK SCT250=
201004061500 METAR MRLB 061500Z 00000KT CAVOK 31/20 A2986 RMK SCT250=
201004061600 METAR MRLB 061600Z 07013KT CAVOK 33/20 A2984 RMK SCT250=
201004061700 METAR MRLB 061700Z 09013KT 9999 FEW035 SCT250 35/19 A2983=
201004061800 METAR MRLB 061800Z 07012KT 9999 SCT035 BKN250 36/18 A2980=
201004061900 METAR MRLB 061900Z 10012KT 9999 SCT035 BKN250 36/19 A2978=
201004062000 METAR MRLB 062000Z 08012KT 9999 SCT030 BKN250 35/19 A2975=
201004062100 METAR MRLB 062100Z 07010KT 9999 FEW040 SCT250 26/19 A2972=
201004062200 METAR MRLB 062200Z 06012KT 9999 FEW045 SCT240 35/18 A2972=
201004062300 METAR MRLB 062300Z 31004KT 9999 FEW045 SCT250 33/20 A2974=
201004070000 METAR MRLB 070000Z 07008KT 9999 FEW045 SCT250 32/18 A2976=
201004070100 METAR MRLB 070100Z 06006KT 9999 FEW045 SCT140 31/19 A2978=
201004070200 METAR MRLB 070200Z 01004KT 9999 FEW045 SCT120 29/20 A2979=
201004070300 METAR MRLB NIL=
201004070400 METAR MRLB NIL=
201004070500 METAR MRLB NIL=
201004070600 METAR MRLB NIL=
201004070700 METAR MRLB NIL=
201004070800 METAR MRLB NIL=
201004070900 METAR MRLB NIL=
201004071000 METAR MRLB NIL=
201004071100 METAR MRLB NIL=
201004071200 METAR MRLB 071200Z 06002KT CAVOK 24/20 A2977 RMK SCT250=
201004071300 METAR MRLB 071300Z 28003KT CAVOK 26/21 A2979 RMK SCT250 HZ ARND=
201004071400 METAR MRLB 071400Z 35002KT CAVOK 30/20 A2983 RMK SCT250 HZ ARND=
201004071500 METAR MRLB 071500Z 09003KT CAVOK 32/19 A2984 RMK SCT250 HZ ARND=
201004071600 METAR MRLB 071600Z 08009KT 9999 FEW035 SCT250 34/18 A2983=
201004071700 METAR MRLB 071700Z 09007KT 9999 SCT035 SCT250 34/18 A29810=
201004071800 METAR MRLB 071800Z 14008KT 9999 SCT035 36/18 A2978=
201004071900 METAR MRLB 071900Z 09005KT 9999 SCT035 36/17 A2975=
201004072000 METAR MRLB 072000Z 23007KT 9999 SCT035 SCT250 34/19 A2972=
201004072100 METAR MRLB 072100Z 05004KT 9999 SCT035 SCT250 35/20 A2971=
201004072200 METAR MRLB 072200Z 27004KT 9999 BKN035 33/20 A2970=
201004072300 METAR MRLB 072300Z 26006KT 9999 BKN035 33/19 A2971=
201004080000 METAR MRLB 080000Z 06005KT 9999 SCT035 32/17 A2973=
201004080100 METAR MRLB 080100Z 15003KT 9999 FEW035 SCT250 30/18 A2976=
201004080200 METAR MRLB 080200Z 12005KT 9999 SCT035 SCT250 29/19 A2976=
201004080300 METAR MRLB NIL=
201004080400 METAR MRLB NIL=
201004080500 METAR MRLB NIL=
201004080600 METAR MRLB NIL=
201004080700 METAR MRLB NIL=
201004080800 METAR MRLB NIL=
201004080900 METAR MRLB NIL=
201004081000 METAR MRLB NIL=
201004081100 METAR MRLB NIL=
201004081200 METAR MRLB 081200Z 06003KT CAVOK 23/19 A2975 RMK SCT250 HZU ARND=
201004081300 METAR MRLB 081300Z 00000KT CAVOK 27/20 A2977 RMK SCT250 HZ ARND=
201004081400 METAR MRLB 081400Z 06004KT CAVOK 31/19 A2981 RMK SCT250 HZ ARND=
201004081500 METAR MRLB 081500Z 10010KT CAVOK 23/19 A2984 RMK FEW250 HZ ARND=
201004081600 METAR MRLB 081600Z 07010KT 9999 FEW040 34/19 A2983 RMK FEW250=
201004081700 METAR MRLB 081700Z 110009KT 9999 SCT040 36/17 A2981=
201004081800 METAR MRLB 081800Z 11012KT 9999 SCT040 37/18 A2979=
201004081900 METAR MRLB 081900Z 09006KT CAVOK SCT035 SCT130 36/17 A2975=
201004082000 METAR MRLB NIL=
201004082100 METAR MRLB 082100Z 28010KT 9999 BKN035 34/20 A2970 RMK FEW130=
201004082200 METAR MRLB 082200Z 30010KT 9999 SCT035 33/20 A2970 RMK FEW130=
201004082300 METAR MRLB 082300Z 24008KT 9999 SCT030 SCT100 33/19 A2971 RMK RN DST S=
201004090000 METAR MRLB 090000Z 18008KT 9999 BKN030 30/22 A2974=
201004090100 METAR MRLB 090100Z 17004KT 9999 BKN030 27/23 A2975=
201004090200 METAR MRLB 090200Z 16004KT 9999 BKN030 27/23 A2976=
201004090300 METAR MRLB NIL=
201004090400 METAR MRLB NIL=
201004090500 METAR MRLB NIL=
201004090600 METAR MRLB NIL=
201004090700 METAR MRLB NIL=
201004090800 METAR MRLB NIL=
201004090900 METAR MRLB NIL=
201004091000 METAR MRLB NIL=
201004091100 METAR MRLB NIL=
201004091200 METAR MRLB 091200Z 00000KT CAVOK 24/21 A2975 RMK SCT250=
201004091300 METAR MRLB 091300Z 29003KT CAVOK 28/21 A2981 RMK SCT250=
201004091400 METAR MRLB 091400Z 20004KT CAVOK 31/20 A2984 RMK SCT250=
201004091500 METAR MRLB 091500Z 07014KT CAVOK 33/19 A2985 RMK SCT250=
201004091600 METAR MRLB 091600Z 07020KT CAVOK 34/19 A2983 RMK SCT250=
201004091700 METAR MRLB 091700Z 07017KT 9999 FEW040 SCT250 35/19 A2982=
201004091800 METAR MRLB 091800Z 06015KT 9999 FEW040 SCT250 36/18 A2978=
201004091900 METAR MRLB 091900Z 05015KT 9999 FEW035 SCT250 36/19 A2976=
201004092000 METAR MRLB 092000Z 06014KT 9999 FEW040 SCT250 37/19 A2973=
201004092100 METAR MRLB 092100Z 06018KT 9999 FEW035 SCT180 36/19 A2972=
201004092200 METAR MRLB 092200Z 07018KT 9999 FEW040 SCT150 35/20 A2972=
201004092300 METAR MRLB 092300Z 07015KT 9999 FEW040 SCT120 32/18 A2975=
201004100000 METAR MRLB 100000Z 07020KT 9999 FEW035 SCT100 31/19 A2976=
201004100100 METAR MRLB 100100Z 08018KT 9999 FEW040 SCT100 30/19 A2979=
201004100200 METAR MRLB 100200Z 07015KT 9999 FEW040 SCT120 29/20 A2981=
201004100300 METAR MRLB NIL=
201004100400 METAR MRLB NIL=
201004100500 METAR MRLB NIL=
201004100600 METAR MRLB NIL=
201004100700 METAR MRLB NIL=
201004100800 METAR MRLB NIL=
201004100900 METAR MRLB NIL=
201004101000 METAR MRLB NIL=
201004101100 METAR MRLB NIL=
201004101200 METAR MRLB 101200Z 06004KT CAVOK 26/20 A2982 RMK BKN250=
201004101300 METAR MRLB 101300Z 05004KT CAVOK 28/20 A2985 RMK BKN250=
201004101400 METAR MRLB 101400Z 35004KT CAVOK 30/20 A2987 RMK BKN250=
201004101500 METAR MRLB 101500Z 08016KT CAVOK 32/19 A2988 RMK BKN250=
201004101600 METAR MRLB 101600Z 07017KT 9999 FEW035 BKN250 34/19 A2987=
201004101700 METAR MRLB 101700Z 07020KT 9999 FEW035 SCT250 36/18 A2986=
201004101800 METAR MRLB 101800Z 06019KT 9999 FEW035 SCT250 36/18 A2984=
201004101900 METAR MRLB 101900Z 05016KT 9999 SCT035 BKN250 36/19 A2981=
201004102000 METAR MRLB 102000Z 08013KT 9999 SCT035 SCT250 35/19 A2980=
201004102100 METAR MRLB 102100Z 06018KT 9999 FEW035 SCT250 35/18 A2978=
201004102200 METAR MRLB 102200Z 06019KT 9999 FEW035 SCT250 35/19 A2977=
201004102300 METAR MRLB 102300Z 07017KT 9999 FEW035 BKN250 33/19 A2977=
201004110000 METAR MRLB 110000Z 07016KT 9999 FEW035 SCT250 31/19 A2979=
201004110100 METAR MRLB 110100Z 08017KT 9999 SCT035 SCT250 30/19 A2980=
201004110200 METAR MRLB 110200Z 07018KT 9999 FEW035 SCT250 29/20 A2982=
201004110300 METAR MRLB NIL=
201004110400 METAR MRLB NIL=
201004110500 METAR MRLB NIL=
201004110600 METAR MRLB NIL=
201004110700 METAR MRLB NIL=
201004110800 METAR MRLB NIL=
201004110900 METAR MRLB NIL=
201004111000 METAR MRLB NIL=
201004111100 METAR MRLB NIL=
201004111200 METAR MRLB 111200Z 36011KT 9999 SCT035 SCT100 28/21 A2981 RMK RN DST N NE=
201004111300 METAR MRLB 111300Z 06010KT 9999 FEW035 BKN100 29/20 A2982=
201004111400 METAR MRLB 111400Z 08018KT 9999 FEW035 BKN120 31/20 A2984=
201004111500 METAR MRLB 111500Z 07022KT 9999 FEW035 OVC120 31/20 A2986=
201004111600 METAR MRLB 111600Z 06021KT 9999 FEW035 BKN120 32/20 A2984=
201004111700 METAR MRLB 111700Z 05027KT 9999 FEW040 SCT120 34/19 A2982=
201004111800 METAR MRLB 111800Z 07022KT 9999 FEW040 SCT120 34/19 A2980=
201004111900 METAR MRLB 111900Z 07023KT 9999 FEW040 SCT120 24/19 A2977=
201004112000 METAR MRLB 112000Z 08023KT 9999 FEW040 SCT120 34/18 A2974=
201004112100 METAR MRLB 112100Z 07021KT 9999 FEW040 BKN120 34/18 A2974=
201004112200 METAR MRLB 112200Z 08018KT 9999 FEW040 BKN120 33/18 A2973=
201004112300 METAR MRLB 112300Z 07019KT 9999 FEW040 BKN120 32/19 A2973=
201004120000 METAR MRLB 120000Z 08012KT 9999 FEW040 BKN120 30/18 A2974=
201004120100 METAR MRLB 120100Z 08018KT 9999 FEW040 BKN120 30/20 A2977=
201004120200 METAR MRLB NIL=
201004120300 METAR MRLB NIL=
201004120400 METAR MRLB NIL=
201004120500 METAR MRLB NIL=
201004120600 METAR MRLB NIL=
201004120700 METAR MRLB NIL=
201004120800 METAR MRLB NIL=
201004120900 METAR MRLB NIL=
201004121000 METAR MRLB NIL=
201004121100 METAR MRLB NIL=
201004121200 METAR MRLB 121200Z 29005KT CAVOK 23/18 A2977 RMK SCT250=
201004121300 METAR MRLB 121300Z 27005KT CAVOK 27/19 A2978 RMK SCT250=
201004121400 METAR MRLB 121400Z 23005KT CAVOK 29/19 A2981 RMK BKN250=
201004121500 METAR MRLB 121500Z 00000KT CAVOK 32/18 A2981 RMK BKN250=
201004121600 METAR MRLB 121600Z 32010KT CAVOK 33/17 A2980 RMK BKN250=
201004121700 METAR MRLB 121700Z 08013KT CAVOK 33/18 A2979 RMK BKN250=
201004121800 METAR MRLB 121800Z 09012KT 9999 FEW040 BKN250 34/18 A2978=
201004121900 METAR MRLB 121900Z 09012KT 9999 FEW035 BKN250 35/18 A2975=
201004122000 METAR MRLB 122000Z 10012KT 9999 FEW040 BKN250 35/18 A2973=
201004122100 METAR MRLB 122100Z 05010KT 9999 FEW045 BKN250 34/18 A2971=
201004122200 METAR MRLB 122200Z 05014KT 9999 FEW045 BKN150 34/18 A2972=
201004122300 METAR MRLB NIL=
201004130000 METAR MRLB 130000Z 07010KT 9999 FEW045 SCT100 BKN250 31/17 A2974=
201004130100 METAR MRLB 130100Z 08010KT 9999 FEW040 SCT100 30/18 A2976=
201004130200 METAR MRLB NIL=
201004130300 METAR MRLB NIL=
201004130400 METAR MRLB NIL=
201004130500 METAR MRLB NIL=
201004130600 METAR MRLB NIL=
201004130700 METAR MRLB NIL=
201004130800 METAR MRLB NIL=
201004130900 METAR MRLB NIL=
201004131000 METAR MRLB NIL=
201004131100 METAR MRLB NIL=
201004131200 METAR MRLB 131200Z 04005KT CAVOK 25/20 A2976 RMK BKN240=
201004131300 METAR MRLB 131300Z 07003KT CAVOK 27/20 A2977 RMK BKN240=
201004131400 METAR MRLB 131400Z 22004KT CAVOK 29/19 A2980 RMK BKN230=
201004131500 METAR MRLB 131500Z 35002KT CAVOK 31/18 A2983 RMK BKN230=
201004131600 METAR MRLB 131600Z 09012KT CAVOK 33/18 A2982 RMK BKN230=
201004131700 METAR MRLB 131700Z 10011KT CAVOK 35/18 A2981 RMK BKN240=
201004131800 METAR MRLB 131800Z 10008KT 9999 FEW035 BKN250 37/17 A2978=
201004131900 METAR MRLB 131900Z 06009KT 9999 FEW035 BKN250 36/18 A2974=
201004132000 METAR MRLB 132000Z 08009KT 9999 FEW035 BKN250 36/19 A2971=
201004132100 METAR MRLB 132100Z 28007KT 9999 SCT035 BKN250 33/19 A2971=
201004132200 METAR MRLB 132200Z 28010KT 9999 SCT035 BKN250 33/21 A2971=
201004132300 METAR MRLB 132300Z 30007KT 9999 SCT035 BKN250 33/22 A2972=
201004140000 METAR MRLB 140000Z 03004KT 9999 SCT035 OVC240 32/20 A2975=
201004140100 METAR MRLB 140100Z 10009KT 9999 SCT035 BKN240 30/19 A2977=
201004140200 METAR MRLB 140200Z 12008KT 9999 SCT035 BKN240 29/20 A2980=
201004140300 METAR MRLB NIL=
201004140400 METAR MRLB NIL=
201004140500 METAR MRLB NIL=
201004140600 METAR MRLB NIL=
201004140700 METAR MRLB NIL=
201004140800 METAR MRLB NIL=
201004140900 METAR MRLB NIL=
201004141000 METAR MRLB NIL=
201004141100 METAR MRLB NIL=
201004141200 METAR MRLB 141200Z 00000KT CAVOK 25/20 A2981 RMK BKN130=
201004141300 METAR MRLB NIL=
201004141400 METAR MRLB 141400Z 18002KT CAVOK 29/20 A2988 RMK BKN130=
201004141500 METAR MRLB 141500Z 25003KT CAVOK 31/20 A2989=
201004141600 METAR MRLB 141600Z 08007KT 9999 FEW040 BKN130 33/19 A2987=
201004141700 METAR MRLB 141700Z 09007KT 9999 SCT035 BKN120 34/18 A2987=
201004141800 METAR MRLB 141800Z 09006KT 9999 SCT035 BKN250 34/18 A2986 RMK FEW130=
201004141900 METAR MRLB 141900Z 16010KT 9999 SCT035 BKN250 35/19 A2982=
201004142000 METAR MRLB 142000Z 28013KT 9999 SCT035 BKN250 32/21 A2980=
201004142100 METAR MRLB 142100Z 28013KT 9999 FEW035 OVC140 31/23 A2978=
201004142200 METAR MRLB 142200Z 30008KT CAVOK 31/22 A2976 RMK OVC140=
201004142300 METAR MRLB 142300Z 29008KT CAVOK 30/23 A2976 RMK OVC140=
201004150000 METAR MRLB 150000Z 30006KT CAVOK 29/24 A2977 RMK BKN140=
201004150100 METAR MRLB 150100Z 27005KT CAVOK 28/24 A2978 RMK BKN140=
201004150200 METAR MRLB NIL=
201004150300 METAR MRLB NIL=
201004150400 METAR MRLB NIL=
201004150500 METAR MRLB NIL=
201004150600 METAR MRLB NIL=
201004150700 METAR MRLB NIL=
201004150800 METAR MRLB NIL=
201004150900 METAR MRLB NIL=
201004151000 METAR MRLB NIL=
201004151100 METAR MRLB NIL=
201004151200 METAR MRLB 151200Z 00000KT CAVOK 23/22 A2980 RMK SCT250=
201004151300 METAR MRLB 151300Z 00000KT CAVOK 29/21 A2982 SCT250=
201004151400 METAR MRLB 151400Z 00000KT CAVOK 30/21 A2986 RMK SCT250=
201004151500 METAR MRLB 151500Z 03005KT CAVOK 32/20 A2987 RMK SCT250=
201004151600 METAR MRLB 151600Z 07009KT 9999 FEW035 SCT250 34/18 A2986=
201004151700 METAR MRLB 151700Z 09010KT 9999 SCT035 BKN250 35/18 A2984=
201004151800 METAR MRLB 151800Z 05010KT 9999 SCT030 BKN250 36/18 A2981=
201004151900 METAR MRLB 151900Z 28008KT 9999 SCT030 BKN250 35/20 A2979=
201004152000 METAR MRLB 152000Z 26012KT 9999 SCT030 BKN250 34/20 A2978=
201004152100 METAR MRLB 152100Z 27012KT 9999 FEW030TCU SCT100 BKN250 33/20 A2976 RMK TCU RN DST N=
201004152200 METAR MRLB 152200Z 29012KT 9999 SCT035TCU BKN280 33/19 A2976 RMK TCU RN DST SE=
201004152300 METAR MRLB 152300Z 15008KT 9999 FEW030TCU SCT100 BKN220 31/19 A2978 RMK TCU RN S=
201004160000 METAR MRLB 160000Z 17006KT 9999 SCT035TCU BKN140 27/23 A2980 RMK TCU RN S=
201004160100 METAR MRLB 160100Z 00000KT 9999 FEW040TCU SCT120 27/23 A2981 RMK TCU DST S=
201004160200 METAR MRLB 16000Z 00000KT 9999 FEW040 SCT120 27/22 A2983 RMK LTNG DST S=
201004160300 METAR MRLB NIL=
201004160400 METAR MRLB NIL=
201004160500 METAR MRLB NIL=
201004160600 METAR MRLB NIL=
201004160700 METAR MRLB NIL=
201004160800 METAR MRLB NIL=
201004160900 METAR MRLB NIL=
201004161000 METAR MRLB NIL=
201004161100 METAR MRLB NIL=
201004161200 METAR MRLB 161200Z 10003KT CAVOK 25/21 A2981 RMK BKN230=
201004161300 METAR MRLB 161300Z 24002KT CAVOK 27/21 A2982 RMK BKN230=
201004161400 METAR MRLB 161400Z 14002KT CAVOK 30/21 A2985 RMK BKN240=
201004161500 METAR MRLB 161500Z 17004KT CAVOK 31/21 A2986 RMK BKN240=
201004161600 METAR MRLB 161600Z 29004KT 9999 FEW035 BKN250 33/19 A2985=
201004161700 METAR MRLB 161700Z 29002KT 9999 FEW035 BKN250 35/18 A2983=
201004161800 METAR MRLB 161800Z 16004KT 9999 FEW035 BKN250 36718 A2978=
201004161900 METAR MRLB 161900Z 25008KT 9999 FEW035 SCT250 36/19 A2976=
201004162000 METAR MRLB 162000Z 27011KT 9999 SCT035 SCT250 36/19 A2973=
201004162100 METAR MRLB 162100Z 28011KT 9999 SCT035 OVC230 34/19 A2972=
201004162200 METAR MRLB 162200Z 25008KT 9999 SCT035 BKN140 34/19 A2971=
201004162300 METAR MRLB 162300Z 19003KT 9999 SCT035 BKN140 23/19 A2972=
201004170000 METAR MRLB 170000Z 16007KT 9999 SCT035 BKN140 32/21 A2974=
201004170100 METAR MRLB 170100Z 16006KT 9999 FEW035 BKN230 30/21 A2976=
201004170200 METAR MRLB 170200Z 13009KT 9999 SCT035 BKN230 30/21 A2978=
201004170300 METAR MRLB NIL=
201004170400 METAR MRLB NIL=
201004170500 METAR MRLB NIL=
201004170600 METAR MRLB NIL=
201004170700 METAR MRLB NIL=
201004170800 METAR MRLB NIL=
201004170900 METAR MRLB NIL=
201004171000 METAR MRLB NIL=
201004171100 METAR MRLB NIL=
201004171200 METAR MRLB 171200Z 02002KT CAVOK 25/21 A2981 RMK BKN250 CB DST NW=
201004171300 METAR MRLB 171300Z 04005KT 9999 FEW020 BKN250 27/21 A2983 RMK HZ ARND=
201004171400 METAR MRLB 171400Z 34003KT 9999 FEW020 SCT130 BKN250 31/23 A2986 RMK HZ ARND=
201004171500 METAR MRLB 171500Z 19004KT 9999 SCT020 BKN130 30/23 A2987=
201004171600 METAR MRLB 171600Z 15006KT 9999 FEW025 OVC140 30/22 A2986 RMK LGT HZ ARND=
201004171700 METAR MRLB 171700Z 18005KT 9999 FEW025 OVC140 30/22 A2987 RMK RN DST SW=
201004171800 METAR MRLB 171800Z 15006KT 9999 -RA FEW025 OVC120 28/24 A2984=
201004171900 METAR MRLB 171900Z 13006KT 9999 FEW030 OVC130 30/22 A2983=
201004172000 METAR MRLB 172000Z 17005KT 9999 FEW030 OVC130 30/23 A2980=
201004172100 METAR MRLB 172100Z 11005KT 9999 FEW030 OVC130 29/23 A2977 RMK HZ ARND=
201004172200 METAR MRLB 172200Z 10005KT CAVOK 28/24 A2973 RMK OVC130 HZ ARND=
201004172300 METAR MRLB 172300Z 00000KT CAVOK 28/22 A2976 RMK OVC130 HZ ARND=
201004180000 METAR MRLB 180000Z 21003KT CAVOK 28/24 A2977 RMK OVC130=
201004180100 METAR MRLB 180100Z 00000KT CAVOK 27/24 A2979 RMK OVC130=
201004180200 METAR MRLB 180200Z 00000KT CAVOK 27/24 A2978 OVC130=
201004180300 METAR MRLB NIL=
201004180400 METAR MRLB NIL=
201004180500 METAR MRLB NIL=
201004180600 METAR MRLB NIL=
201004180700 METAR MRLB NIL=
201004180800 METAR MRLB NIL=
201004180900 METAR MRLB NIL=
201004181000 METAR MRLB NIL=
201004181100 METAR MRLB NIL=
201004181200 METAR MRLB 181200Z 00000KT 9999 FEW012 SCT250 24/21 A2983=
201004181300 METAR MRLB 181300Z 00000KT 9999 FEW025 SCT250 26/21 A2984 RMK HZ ARND=
201004181400 METAR MRLB 181400Z 00000KT CAVOK 31/23 A2987 RMK SCT250 HZ ARND=
201004181500 METAR MRLB 181500Z 18004KT 9999 FEW035 31/23 A2988=
201004181600 METAR MRLB 181600Z 21006KT 9999 SCT030 33/22 A2987=
201004181700 METAR MRLB 181700Z 25010KT 9999 SCT030 34/21 A2986=
201004181800 METAR MRLB 181800Z 26010KT 9999 SCT030 BKN250 34/21 A2984=
201004181900 METAR MRLB 181900Z 28013KT 9999 FEW030 SCT250 34/22 A2980 RMK TCU DST N/NE=
201004182000 METAR MRLB 182000Z 26014KT 9999 FEW030 SCT250 34/22 A2978 RMK TCU DST N/NE=
201004182100 METAR MRLB 182100Z 27012KT 9999 FEW040 SCT250 33/22 A2977=
201004182200 METAR MRLB 182200Z 26014KT 9999 FEW040 SCT250 31/23 A2976 RMK TCU DST SE=
201004182300 METAR MRLB 182300Z 26012KT 9999 FEW040 SCT250 30/24 A2976=
201004190000 METAR MRLB 190000Z 27008KT CAVOK 29/24 A2979 RMK SCT250 TCU DST SE=
201004190100 METAR MRLB 190100Z 27008KT CAVOK 29/24 A2980 RMK FEW250=
201004190200 METAR MRLB NIL=
201004190300 METAR MRLB NIL=
201004190400 METAR MRLB NIL=
201004190500 METAR MRLB NIL=
201004190600 METAR MRLB NIL=
201004190700 METAR MRLB NIL=
201004190800 METAR MRLB NIL=
201004190900 METAR MRLB NIL=
201004191000 METAR MRLB NIL=
201004191100 METAR MRLB NIL=
201004191200 METAR MRLB 191200Z 12003KT CAVOK 26/23 A2982 RMK BKN240 HZ ARND=
201004191300 METAR MRLB 191300Z 00000KT CAVOK 28/24 A2984 RMK BKN240 HZ ARND=
201004191400 METAR MRLB 191400Z 19002KT CAVOK 30/24 A2987 RMK BKN240 HZ ARND=
201004191500 METAR MRLB 191500Z 13006KT CAVOK 32/21 A2988 RMK BKN240 HZ ARND=
201004191600 METAR MRLB 191600Z 08005KT 9999 FEW035 BKN240 34/20 A2988 HZ ARND=
201004191700 METAR MRLB 191700Z 05009KT 9999 FEW035 BKN250 36/19 A2986 HZ ARND=
201004191800 METAR MRLB 191800Z 33004KT 9999 FEW035 BKN250 37/19 A2983=
201004191900 METAR MRLB 191900Z 10006KT 9999 SCT035 BKN250 37/19 A2979=
201004192000 METAR MRLB 192000Z 18004KT 9999 SCT035 BKN250 36/21 A2977=
201004192100 METAR MRLB 192100Z 28006KT 9999 SCT035 BKN250 37/21 A2974=
201004192200 METAR MRLB 192200Z 26007KT 9999 SCT035 SCT250 37/21 A2973=
201004192300 METAR MRLB 192300Z 31004KT 9999 FEW035 SCT250 35/22 A2975=
201004200000 METAR MRLB 200000Z 18006KT 9999 SCT035 BKN250 34/20 A2978=
201004200100 METAR MRLB 200100Z 17005KT 9999 FEW035 BKN250 33/22 A2981=
201004200200 METAR MRLB NIL=
201004200300 METAR MRLB NIL=
201004200400 METAR MRLB NIL=
201004200500 METAR MRLB NIL=
201004200600 METAR MRLB NIL=
201004200700 METAR MRLB NIL=
201004200800 METAR MRLB NIL=
201004200900 METAR MRLB NIL=
201004201000 METAR MRLB NIL=
201004201100 METAR MRLB NIL=
201004201200 METAR MRLB 201200Z 20002KT CAVOK 26/23 A2984 RMK FEW130 BKN250 HZ LGT ARND CB DST SW=
201004201300 METAR MRLB 201300Z 05002KT CAVOK 29/23 A2988 RMK FEW130 BKN250 HZ ARND=
201004201400 METAR MRLB 201400Z 09004KT CAVOK 31/23 A2990 RMK BKN250 HZ LEVE ARND=
201004201500 METAR MRLB 201500Z 15003KT 9999 SCT030 BKN250 34/22 A2990 RMK HZ ARND=
201004201600 METAR MRLB 201600Z 19006KT 9999 FEW030 BKN250 33/22 A2988 RMK HZ LEVE ARND=
201004201700 METAR MRLB 201700Z 16006KT 9999 FEW030 BKN260 31/26 A2992 RMK HZ LEVE ARND=
201004201800 METAR MRLB 201800Z 27010KT 9999 SCT030TCU BKN250 36/22 A2984 RMK HZ=
201004201900 METAR MRLB 201900Z 27010KT 9999 FEW030TCU BKN250 36/22 A2980 RMK HZ=
201004202000 METAR MRLB 202000Z 27012KT 9999 FEW030TCU BKN250 35/21 A2976 RMK HZ=
201004202100 METAR MRLB 202100Z 28012KT 9999 FEW030TCU SCT035 BKN250 34/22 A2975 RMK HZ LEVE ARND=
201004202200 METAR MRLB 202200Z 26011KT 9999 FEW030TCU SCT035 SCT250 33/22 A2974 RMK CB DST SW HZ ARND=
201004202300 METAR MRLB 202300Z 25009KT 9999 FEW030 SCT140 BKN250 33/21 A2974 RMK CB DST S SW TCU DST NE HZ ARND=
201004210000 METAR MRLB 210000Z 23003KT 9999 FEW035 BKN250 33/21 A2976 RMK HZ LEVE ARND=
201004210100 METAR MRLB 210100Z 02002KT CAVOK 31/22 A2979 RMK SCT130 BKN250=
201004210200 METAR MRLB 210200Z 00000KT CAVOK 31/21 A2980 RMK FEW130 BKN250=
201004210300 METAR MRLB NIL=
201004210400 METAR MRLB NIL=
201004210500 METAR MRLB NIL=
201004210600 METAR MRLB NIL=
201004210700 METAR MRLB NIL=
201004210800 METAR MRLB NIL=
201004210900 METAR MRLB NIL=
201004211000 METAR MRLB NIL=
201004211100 METAR MRLB NIL=
201004211200 METAR MRLB 211200Z 00000KT CAVOK 25/21 A2978 RMK SCT250=
201004211300 METAR MRLB 211300Z 00000KT CAVOK 28/21 A2981 RMK SCT250=
201004211400 METAR MRLB 211400Z 05004KT CAVOK 30/21 A2983 RMK SCT250=
201004211500 METAR MRLB 211500Z 08008KT CAVOK 33/19 A2983 RMK SCT250=
201004211600 METAR MRLB 211600Z 08008KT CAVOK 35/18 A2982 RMK SCT250=
201004211700 METAR MRLB 211700Z 10010KT CAVOK 36/18 A2980 RMK SCT250=
201004211800 METAR MRLB 211800Z 10012KT 9999 FEW040 SCT250 37/17 A2978=
201004211900 METAR MRLB 211900Z 08012KT 9999 FEW040 SCT250 38/15 A2974=
201004212000 METAR MRLB 212000Z 03010KT 9999 FEW040 SCT250 38/17 A2970=
201004212100 METAR MRLB 212100Z 27012KT 9999 SCT040 BKN250 35/20 A2970=
201004212200 METAR MRLB 212200Z 26010KT 9999 FEW035 SCT250 35/22 A2970 RMK TCU DST S=
201004212300 METAR MRLB 212300Z 30009KT 9999 FEW035 SCT250 33/22 A2970 RMK TCU DST S=
201004220000 METAR MRLB 220000Z 19008KT 9999 FEW030TCU SCT100 BKN250 31/24 A2972 RMK TCU DST N=
201004220100 METAR MRLB 220100Z 00000KT 9999 FEW030 SCT120 29/24 A2974=
201004220200 METAR MRLB 220200Z 00000KT 9999 FEW040 SCT180 29/24 A2975=
201004220300 METAR MRLB NIL=
201004220400 METAR MRLB NIL=
201004220500 METAR MRLB NIL=
201004220600 METAR MRLB NIL=
201004220700 METAR MRLB NIL=
201004220800 METAR MRLB NIL=
201004220900 METAR MRLB NIL=
201004221000 METAR MRLB NIL=
201004221100 METAR MRLB NIL=
201004221200 METAR MRLB 221200Z 09003KT CAVOK 27/21 A2974 RMK BKN250=
201004221300 METAR MRLB 221300Z 10006KT CAVOK 29/21 A2977 RMK BKN240=
201004221400 METAR MRLB 221400Z 10004KT 9999 FEW035 OVC240 31/21 A2979=
201004221500 METAR MRLB 221500Z 07008KT 9999 FEW035 BKN240 33/21 A2980=
201004221600 METAR MRLB 221600Z 10006KT 9999 FEW035 BKN240 35/20 A2980=
201004221700 METAR MRLB 221700Z 09008KT 9999 FEW035 BKN250 35/19 A2978=
201004221800 METAR MRLB 221800Z 09007KT 9999 FEW035 SCT250 37/17 A2974=
201004221900 METAR MRLB 221900Z 06009KT 9999 FEW035 SCT250 38/16 A2971=
201004222000 METAR MRLB 222000Z 29011KT 9999 FEW035 SCT250 36/21 A2969=
201004222100 METAR MRLB 222100Z 27012KT 9999 FEW035 SCT250 34/23 A2969=
201004222200 METAR MRLB 222200Z 28011KT 9999 FEW035 BKN250 32/23 A2969=
201004222300 METAR MRLB 222300Z 28009KT 9999 FEW035 BKN240 32/23 A2970=
201004230000 METAR MRLB 230000Z 29007KT 9999 SCT035 BKN140 30/24 A2972=
201004230100 METAR MRLB 230100Z 30002KT 9999 SCT035 BKN140 30/24 A2974=
201004230200 METAR MRLB 230200Z 31002KT 9999 SCT035 BKN140 30/24 A2977=
201004230300 METAR MRLB NIL=
201004230400 METAR MRLB NIL=
201004230500 METAR MRLB NIL=
201004230600 METAR MRLB NIL=
201004230700 METAR MRLB NIL=
201004230800 METAR MRLB NIL=
201004230900 METAR MRLB NIL=
201004231000 METAR MRLB NIL=
201004231100 METAR MRLB NIL=
201004231200 METAR MRLB 231200Z 10007KT CAVOK 28/20 A2974 RMK FEW140 BKN240=
201004231300 METAR MRLB 231300Z 06004KT CAVOK 30/20 A2977 RMK BKN250=
201004231400 METAR MRLB 231400Z 06011KT CAVOK 32/21 A2980 RMK BKN250=
201004231500 METAR MRLB 231500Z 08015KT CAVOK 33/20 A2980 RMK BKN280=
201004231600 METAR MRLB 231600Z 06013KT CAVOK 33/21 A2981 RMK BKN130 FEW280=
201004231700 METAR MRLB 231700Z 07012KT CAVOK 34/21 A2979 RMK FEW130 FEW300=
201004231800 METAR MRLB 231800Z 06014KT 9999 SCT040 BKN130 34/21 A2977=
201004231900 METAR MRLB 231900Z 07014KT 9999 SCT045 BKN120 34/21 A2975=
201004232000 METAR MRLB 232000Z 08014KT CAVOK 34/21 A2971 RMK BKN120 SCT250=
201004232100 METAR MRLB 232100Z 07015KT 9999 FEW040 SCT120 36/20 A2970 RMK SCT250=
201004232200 METAR MRLB 232200Z 07014KT CAVOK 35/20 A2970 RMK SCT120 SCT250=
201004232300 METAR MRLB 232300Z 07017KT 9999 FEW040 SCT120 34/20 A2970 RMK SCT250 LGT HZ ARND=
201004240000 METAR MRLB 240000Z 09011KT CAVOK 33/21 A2971 RMK BKN130 SCT280 HZ ARND=
201004240100 METAR MRLB 240100Z 11013KT CAVOK 31/21 A2974 RMK BKN130 FEW280=
201004240200 METAR MRLB 240200Z 09013KT CAVOK 31/21 A2975 RMK BKN120=
201004240300 METAR MRLB NIL=
201004240400 METAR MRLB NIL=
201004240500 METAR MRLB NIL=
201004240600 METAR MRLB NIL=
201004240700 METAR MRLB NIL=
201004240800 METAR MRLB NIL=
201004240900 METAR MRLB NIL=
201004241000 METAR MRLB NIL=
201004241100 METAR MRLB NIL=
201004241200 METAR MRLB 241200Z 09005KT 9999 FEW030 BKN180 28/22 A2977=
201004241300 METAR MRLB 241300Z 08010KT 9999 FEW035 BKN170 30/22 A2978=
201004241400 METAR MRLB 241400Z 07010KT 9999 FEW035 BKN200 32/22 A2981=
201004241500 METAR MRLB 241500Z 09010KT 9999 FEW035 BKN220 32/22 A2984=
201004241600 METAR MRLB 241600Z 05010KT 9999 FEW030 BKN240 33/21 A2982=
201004241700 METAR MRLB 241700Z 07012KT 9999 SCT030 BKN220 35/21 A2980=
201004241800 METAR MRLB 241800Z 07010KT 9999 SCT030 BKN240 35/21 A2979=
201004241900 METAR MRLB 241900Z 07008KT 9999 SCT030 BKN240 35/21 A2975=
201004242000 METAR MRLB 242000Z 27012KT 9999 SCT030 BKN180 33/23 A2974=
201004242100 METAR MRLB 242100Z 28010KT 9999 SCT030 BKN220 33/23 A2973 RMK TCU RN DST SW=
201004242200 METAR MRLB NIL=
201004242300 METAR MRLB 242300Z 24007KT 9999 FEW030 SCT100 BKN240 29/22 A2975 RMK TCU RN DST S=
201004250000 METAR MRLB 250000Z 18004KT 9999 FEW030 SCT100 28/24 A2979 RMK TCU RN DST S=
201004250100 METAR MRLB 250100Z 14005KT 9999 FEW025 SCT100 28/24 A2981=
201004250200 METAR MRLB 250200Z 14004KT 9999 SCT030 BKN100 27/24 A2983=
201004250300 METAR MRLB NIL=
201004250400 METAR MRLB NIL=
201004250500 METAR MRLB NIL=
201004250600 METAR MRLB NIL=
201004250700 METAR MRLB NIL=
201004250800 METAR MRLB NIL=
201004250900 METAR MRLB NIL=
201004251000 METAR MRLB NIL=
201004251100 METAR MRLB NIL=
201004251200 METAR MRLB 251200Z 12003KT 9999 FEW035 OVC130 27/24 A2979=
201004251300 METAR MRLB 251300Z 10003KT 9999 FEW030 OVC130 28/24 A2979=
201004251400 METAR MRLB 251400Z 19002KT 9999 FEW035 BKN140 30/24 A2981=
201004251500 METAR MRLB 251500Z 23004KT 9999 FEW035 BKN140 32/23 A2982=
201004251600 METAR MRLB 251600Z 22006KT 9999 FEW035 BKN230 34/23 A2981=
201004251700 METAR MRLB 251700Z 18008KT 9999 SCT035 BKN250 34/23 A2980=
201004251800 METAR MRLB 251800Z 18005KT 9999 SCT035 BKN230 34/22 A2978=
201004251900 METAR MRLB 251900Z 28010KT 9999 SCT035 OVC230 35/23 A2975 RMK RN DST NE=
201004252000 METAR MRLB 252000Z 28013KT 9999 SCT035 BKN140 34/24 A2973 RMK RN DST E NE=
201004252100 METAR MRLB 252100Z 05006KT 9999 SCT035 BKN120 30/24 A2973 RMK RN E NE=
201004252200 METAR MRLB 252200Z 28010KT 9999 SCT035 OVC120 31/23 A2970=
201004252300 METAR MRLB 252300Z 26007KT 9999 FEW035 OVC130 30/23 A2973 RMK RN DST S=
201004260000 METAR MRLB 260000Z 15008KT 9999 SCT035 OVC110 28725 A2976 RM RN DST SE=
201004260100 METAR MRLB 260100Z 14009KT 9999 SCT035 OVC110 26/23 A2976=
201004260200 METAR MRLB 260200Z 09004KT 9999 DZ SCT030 OVC110 26/24 A2978=
201004260300 METAR MRLB NIL=
201004260400 METAR MRLB NIL=
201004260500 METAR MRLB NIL=
201004260600 METAR MRLB NIL=
201004260700 METAR MRLB NIL=
201004260800 METAR MRLB NIL=
201004260900 METAR MRLB NIL=
201004261000 METAR MRLB NIL=
201004261100 METAR MRLB NIL=
201004261200 METAR MRLB 261200Z 00000KT 9999 FEW035 OVC120 25/24 A2979=
201004261300 METAR MRLB 261300Z 00000KT 9999 FEW040 OVC120 26/24 A2979 RMK FG DST NE SE=
201004261400 METAR MRLB 261400Z 15002KT CAVOK 27/25 A2980 RMK BKN140 SCT230=
201004261500 METAR MRLB 261500Z 13002KT 9999 FEW030 BKN230 28/24 A2981 RMK FEW140=
201004261600 METAR MRLB 261600Z 25003KT 9999 FEW030 OVC230 29/25 A2981=
201004261700 METAR MRLB 261700Z 22004KT 9999 FEW030 OVC230 30/25 A2980 RMK FEW140=
201004261800 METAR MRLB 261800Z 28008KT CAVOK 30/24 A2980 RMK SCT140 BKN230=
201004261900 METAR MRLB 261900Z 28008KT CAVOK 31/25 A2977 RMK SCT140 BKN230 HZ ARND=
201004262000 METAR MRLB 262000Z 28010KT CAVOK 31/25 A2975 RMK FEW140 OVC250=
201004262100 METAR MRLB 262100Z 29012KT CAVOK 30/25 A2973 RMK OVC250 HZ ARND=
201004262200 METAR MRLB 262200Z 27010KT CAVOK 29/25 A2973 RMK BKN120 SCT250 HZ ARND=
201004262300 METAR MRLB 262300Z 15010KT 9999 FEW013 BKN025 27/23 A2976 RMK HZ LGT ARND=
201004270000 METAR MRLB 270000Z 18004KT 9999 SCT030 BKN120 28/23 A2977 RMK RN DST S/SW/E LTNG DST S=
201004270100 METAR MRLB 270100Z 07003KT 9999 -RA FEW030 OVC110 26/24 A2979=
201004270200 METAR MRLB 270200Z 12005KT 9999 -RA OVC100 25/24 A2981=
201004270300 METAR MRLB NIL=
201004270400 METAR MRLB NIL=
201004270500 METAR MRLB NIL=
201004270600 METAR MRLB NIL=
201004270700 METAR MRLB NIL=
201004270800 METAR MRLB NIL=
201004270900 METAR MRLB NIL=
201004271000 METAR MRLB NIL=
201004271100 METAR MRLB NIL=
201004271200 METAR MRLB 271200Z 00000KT 9999 FEW040 SCT100 BKN220 25/25 A2982 RMK LOW ST ARND=
201004271300 METAR MRLB 271300Z 22003KT 9999 FEW040 SCT150 26/25 A2985=
201004271400 METAR MRLB 271400Z 00000KT 29/52 A2986 RMK FEW100 SCT250=
201004271500 METAR MRLB 271500Z 00000KT 9999 FEW025 SCT250 30/25 A2988=
201004271600 METAR MRLB 271600Z 16006KT 9999 SCT025 BKN250 32/25 A2988=
201004271700 METAR MRLB 271700Z 25005KT 9999 SCT030 BKN250 32/25 A2985=
201004271800 METAR MRLB 271800Z 16005KT 9999 SCT035 BKN240 34/20 A2982=
201004271900 METAR MRLB 271900Z 25008KT 9999 FEW030CB BKN180 32/25 A2980 RMK CB/RN DST N=
201004272000 METAR MRLB 272000Z 31010KT 0500 +TSRA SCT002 BKN015 26/25 A2980=
201004272100 METAR MRLB 272100Z 10005KT 5000 -TSRA FEW010CB SCT025 BKN120 24/23 A2978 RMK VIS UNLM S=
201004272200 METAR MRLB 272200Z 04006KT 9999 FEW030 SCT100 BKN180 24/24 A2976 RERA=
201004272300 METAR MRLB 272300Z 05004KT 9999 SCT025 BKN120 25/24 A2977=
201004280000 METAR MRLB 280000Z 00000KT 9999 SCT025 BKN120 25/24 A2980 RMK TCU DST SE=
201004280100 METAR MRLB NIL=
201004280200 METAR MRLB NIL=
201004280300 METAR MRLB NIL=
201004280400 METAR MRLB NIL=
201004280500 METAR MRLB NIL=
201004280600 METAR MRLB NIL=
201004280700 METAR MRLB NIL=
201004280800 METAR MRLB NIL=
201004280900 METAR MRLB NIL=
201004281000 METAR MRLB NIL=
201004281100 METAR MRLB NIL=
201004281200 METAR MRLB 281200Z 00000KT 9999 FEW030 BKN130 25/24 A2984=
201004281300 METAR MRLB 281300Z 00000KT 9999 FEW035 BKN130 26/24 A2987=
201004281400 METAR MRLB 281400Z 06002KT 9999 FEW035 SCT140 BKN240 28/24 A2989=
201004281500 METAR MRLB 281500Z 00000KT 9999 FEW035 BKN140 29/24 A2992=
201004281600 METAR MRLB NIL=
201004281700 METAR MRLB NIL=
201004281800 METAR MRLB 281800Z 29003KT 9999 SCT035 BKN140 33/23 A2988=
201004281900 METAR MRLB 281900Z 26003KT 9999 SCT035 BKN130 34/23 A2984 RMK RN DST E/NE=
201004282000 METAR MRLB 282000Z 28015KT 9999 4000SW -RA SCT020 OVC120 26/25 A2981=
201004282100 METAR MRLB 282100Z 14003KT 4000 RA SCT015 OVC100 25/25 A2982=
201004282200 METAR MRLB 282200Z 18003KT 9999 SCT030 OVC120 25/24 A2979 RERA=
201004282300 METAR MRLB 282300Z 07004KT 9999 -RA SCT030 OVC100 25/25 A2982=
201004290000 METAR MRLB 290000Z 12003KT 9999 SCT035 OVC100 25/25 A2983 RMK RN DST S SE=
201004290100 METAR MRLB 290100Z 13003KT 9999 DZ SCT035 OVC100 25/24 A2987=
201004290200 METAR MRLB 290200Z 00000KT 9999 SCT030 BKN110 25/25 A2989 REDZ=
201004290300 METAR MRLB NIL=
201004290400 METAR MRLB NIL=
201004290500 METAR MRLB NIL=
201004290600 METAR MRLB NIL=
201004290700 METAR MRLB NIL=
201004290800 METAR MRLB NIL=
201004290900 METAR MRLB NIL=
201004291000 METAR MRLB NIL=
201004291100 METAR MRLB NIL=
201004291200 METAR MRLB 291200Z 12003KT 2500 RA BR BKN020 SCT100 25/24 A2988=
201004291300 METAR MRLB 291300Z 09002KT 9999 -RA SCT030 OVC100 25/25 A2988 RMK VIS S SW 7KMS DUE LOW ST=
201004291400 METAR MRLB 291400Z 11002KT 9999 SCT020 BKN120 27/25 A2990 RERA=
201004291500 METAR MRLB 291500Z 16002KT 9999 FEW020 OVC130 28/25 A2982=
201004291600 METAR MRLB 291600Z 00000KT 9999 SCT025 BKN250 30/25 A2993 RMK FEW130=
201004291700 METAR MRLB 291700Z 29003KT 9999 SCT025 BKN250 31/24 A2992 RMK LGT HZ ARND=
201004291800 METAR MRLB 291800Z 31006KT 9999 SCT030 BKN130 32/24 A2989 RMK FEW250 LGT HZ ARND=
201004291900 METAR MRLB 291900Z 28011KT 9999 SCT030 BKN250 32/24 A2986 RMK FEW130 TCU DST SW N=
201004292000 METAR MRLB 292000Z 27013KT 9999 FEW030TCU BKN250 31/24 A2981 RMK CB RN DST N E TS DST E=
201004292100 METAR MRLB 292100Z 28012KT 9999 -RA VCTS VCSH FEW015CB BKN025 29/24 A2980=
201004292200 METAR MRLB 292200Z 22004KT 9999 RA FEW015 SCT025 BKN120 26/25 A2978 VIS 5000N CB DST N SW=
201004292300 METAR MRLB 292300Z 31002KT 9999 -RA BKN025 27/26 A2981 RMK FEW100 CB TS DST S=
201004300000 METAR MRLB 300000Z 14003KT 6000 RA SCT012 BKN020 25/25 A2983=
201004300100 METAR MRLB 300100Z 11007KT 5000 RA BKN020 SCT100 24/24 A2986=
201004300200 METAR MRLB 300200Z 00000KT 9999 -RA FEW010 BKN100 24/24 A2986=
201004300300 METAR MRLB NIL=
201004300400 METAR MRLB NIL=
201004300500 METAR MRLB NIL=
201004300600 METAR MRLB NIL=
201004300700 METAR MRLB NIL=
201004300800 METAR MRLB NIL=
201004300900 METAR MRLB NIL=
201004301000 METAR MRLB NIL=
201004301100 METAR MRLB NIL=
201004301200 METAR MRLB 301200Z 00000KT 0300 FG SCT001 24/24 A2982=
201004301300 METAR MRLB 301300Z 17006KT 9999 FEW010 SCT250 26/25 A2984 RMK LOW ST ARND=
201004301400 METAR MRLB 301400Z 19004KT 9999 FEW015 SCT250 27/25 A2987=
201004301500 METAR MRLB 301500Z 15005KT 9999 FEW015 SCT250 29/25 A2988=
201004301600 METAR MRLB 301600Z 15004KT 9999 SCT020 BKN240 31/25 A2988 RMK TCU DST ARND=
201004301700 METAR MRLB 301700Z 20005KT 9999 SCT020TCU BKN220 32/23 A2986=
201004301800 METAR MRLB 301800Z 25010KT 9999 SCT020TCU BKN180 30/25 A2983 RMK TCU RN DST N E S=
201004301900 METAR MRLB 301900Z 30008KT 8000 DZ FEW015CB SCT025 BKN100 28/24 A2981=
201004302000 METAR MRLB 302000Z 01010KT 9999 DZ BR FEW004 SCT020CB BKN100 24/24 A2980 RMK VIS 5000 W=
201004302100 METAR MRLB 302100Z 35002KT 9999 FEW030 SCT120 BKN200 24/24 A2977=
201004302200 METAR MRLB 302200Z 05006KT 99999 SCT030 BKN180 25/23 A2976=
201004302300 METAR MRLB 302300Z 00000KT 9999 FEW040 BKN180 25/24 A2977=
201006010000 METAR MRLB 010000Z 27007KT 9999 SCT035 BKN240 27/24 A2991=
201006010100 METAR MRLB 010100Z 27006KT 9999 SCT035 BKN250 27/23 A2993=
201006010200 METAR MRLB 010200Z 26005KT 9999 SCT030 BKN230 26/23 A2995=
201006010300 METAR MRLB NIL=
201006010400 METAR MRLB NIL=
201006010500 METAR MRLB NIL=
201006010600 METAR MRLB NIL=
201006010700 METAR MRLB NIL=
201006010800 METAR MRLB NIL=
201006010900 METAR MRLB NIL=
201006011000 METAR MRLB NIL=
201006011100 METAR MRLB NIL=
201006011200 METAR MRLB 011200Z 36004KT 9999 OVC015 26/24 A2992=
201006011300 METAR MRLB 011300Z 04003KT 9999 OVC020 26/24 A2983 RN DST E=
201006011400 METAR MRLB 011400Z 29006KT 9999 BKN020 27/24 A2994 RMK FEW100=
201006011500 METAR MRLB 011500Z 28007KT 9999 BKN020 28/24 A2995 RMK SCT120=
201006011600 METAR MRLB 011600Z 28008KT 9999 SCT025 SCT120 29/24 A2996=
201006011700 METAR MRLB 011700Z 27008KT 9999 SCT025 SCT120 29/24 A2994=
201006011800 METAR MRLB 011800Z 27011KT 9999 SCT030 SCT130 29/25 A2993=
201006011900 METAR MRLB 011900Z 26011KT 9999 FEW030 SCT130 30/25 A2991=
201006012000 METAR MRLB 012000Z 27013KT 9999 FEW030 SCT130 30/24 A2988=
201006012100 METAR MRLB 012100Z 27014KT 9999 SCT025 SCT130 29/25 A2985=
201006012200 METAR MRLB 012200Z 27014KT 9999 SCT025 BKN130 29/25 A2983=
201006012300 METAR MRLB 012300Z 28011KT 9999 SCT020 BKN130 28/25 A2983=
201006020000 METAR MRLB 020000Z 28008KT 9999 SCT020 BKN130 27/25 A2984 RMK TS DST S=
201006020100 METAR MRLB 020100Z 30007KT 9999 -RA SCT020 BKN130 27/25 A2985=
201006020200 METAR MRLB 020200Z 29005KT 9999 -RA SCT020 BKN120 26/25 A2986=
201006020300 METAR MRLB NIL=
201006020400 METAR MRLB NIL=
201006020500 METAR MRLB NIL=
201006020600 METAR MRLB NIL=
201006020700 METAR MRLB NIL=
201006020800 METAR MRLB NIL=
201006020900 METAR MRLB NIL=
201006021000 METAR MRLB NIL=
201006021100 METAR MRLB NIL=
201006021200 METAR MRLB 021200Z 00000KT 9000 VCFG SCT010 BKN020 26/25 A2985=
201006021300 METAR MRLB 021300Z 30005KT 9999 FEW010 BKN250 26/25 A2986=
201006021400 METAR MRLB 021400Z 27006KT 9999 FEW010 SCT025 BKN220 27/25 A2988=
201006021500 METAR MRLB 021500Z 29006KT 9999 SCT015 BKN250 28/25 A2988=
201006021600 METAR MRLB 021600Z 24007KT 9999 SCT020 BKN250 29/25 A2989=
201006021700 METAR MRLB NIL=
201006021800 METAR MRLB 021800Z 27010KT 9999 RA VCSH SCT025CB BKN170 29/25 A2984 RMK VIS N NE 7000MTS=
201006021900 METAR MRLB 021900Z 24006KT 4000 RA FEW015 SCT025TCU BKN150 27/26 A2982 RMK VIS N NW UNL=
201006022000 METAR MRLB 022000Z 27009KT 9999 FEW025 BKN250 29/26 A2978 RMK TCU DST ARND=
201006022100 METAR MRLB 022100Z 27008KT 9999 SCT025 BKN220 29/25 A2977 RMK TCU RN DST S=
201006022200 METAR MRLB 022200Z 27010KT 8000 -RA SCT020 BKN140 27/26 A2977=
201006022300 METAR MRLB 022300Z 29006KT 9999 SCT020TCU BKN170 27/26 A2978 RERA RMK CB RN DST S=
201006030000 METAR MRLB 030000Z 34004KT 2000 -TSRA SCT015 BKN030 26/26 A2980=
201006030100 METAR MRLB 030100Z 14007KT 7000 RA SCT020CB OVC100 25/25 A2982 RETS=
201006030200 METAR MRLB NIL=
201006030300 METAR MRLB NIL=
201006030400 METAR MRLB NIL=
201006030500 METAR MRLB NIL=
201006030600 METAR MRLB NIL=
201006030700 METAR MRLB NIL=
201006030800 METAR MRLB NIL=
201006030900 METAR MRLB NIL=
201006031000 METAR MRLB NIL=
201006031100 METAR MRLB NIL=
201006031200 METAR MRLB 031200Z 12002KT 9999 FEW030 BKN130 25/24 A2984=
201006031300 METAR MRLB 031300Z 12003KT 9999 FEW035 BKN250 27/24 A2985=
201006031400 METAR MRLB 031400Z 13003KT 9999 SCT035 BKN250 28/24 A2986=
201006031500 METAR MRLB 031500Z 13003KT 9999 SCT035 SCT250 29/24 A2987=
201006031600 METAR MRLB 031600Z 19005KT 9999 SCT035 BKN140 29/24 A2988=
201006031700 METAR MRLB 031700Z 17005KT 9999 SCT035 BKN250 30/24 A2987=
201006031800 METAR MRLB 031800Z 17005KT 9999 SCT035 BKN140 30/23 A2986=
201006031900 METAR MRLB 031900Z 28007KT 9999 VCSH FEW015TCU SCT030 BKN130 29/24 A2983 RMK PCPN SW N=
201006032000 METAR MRLB 032000Z 35008KT 9999 FEW030 BKN250 30/25 A2980=
201006032100 METAR MRLB 032100Z 34008KT 9999 VCSH SCT020 BKN110 26/23 A2981 RERA=
201006032200 METAR MRLB 032200Z 03003KT 9999 3000E RA SCT020 BKN100 25/23 A2981=
201006032300 METAR MRLB 032300Z 03003KT 6000 -RA SCT015 BKN100 24/24 A2983=
201006040000 METAR MRLB 040000Z 36002KT 9999 SCT020 BKN100 24/24 A2984=
201006040100 METAR MRLB 040100Z 00000KT 9999 -DZ SCT025 BKN100 24/24 A2986=
201006040200 METAR MRLB 040200Z 13003KT 9999 SCT030 BKN110 24/24 A2988=
201006040300 METAR MRLB NIL=
201006040400 METAR MRLB NIL=
201006040500 METAR MRLB NIL=
201006040600 METAR MRLB NIL=
201006040700 METAR MRLB NIL=
201006040800 METAR MRLB NIL=
201006040900 METAR MRLB NIL=
201006041000 METAR MRLB NIL=
201006041100 METAR MRLB NIL=
201006041200 METAR MRLB 041200Z 09004KT 9999 FEW010 BKN120 24/23 A2986 RMK CB DST NE=
201006041300 METAR MRLB 041300Z 08004KT 9999 FEW010 BKN120 24/23 A2989=
201006041400 METAR MRLB 041400Z 09006KT 9999 FEW010 BKN120 26/23 A2991=
201006041500 METAR MRLB 041500Z 11007KT 9999 FEW025 SCT120 BKN250 28/23 A2994=
201006041600 METAR MRLB 041600Z 12006KT 12006KT 9999 FEW025 BKN250 29/23 A2995=
201006041700 METAR MRLB 041700Z 15005KT 9999 SCT030 BKN250 30/23 A2993=
201006041800 METAR MRLB 041800Z 13003KT 9999 VCSH SCT020 BKN250 31/23 A2993=
201006041900 METAR MRLB 041900Z 22009KT 9999 BKN020 28/25 A2990 RMK RN DST N SW=
201006042000 METAR MRLB 042000Z 21006KT 9999 SCT025 BKN250 29/24 A2988 RMK RN DST N NE W=
201006042100 METAR MRLB 042100Z 25005KT 9999 BKN020 SCT250 29/25 A2987 RMK RN N NE=
201006042200 METAR MRLB 042200Z 07006KT 9999 4000 -RA SCT010 SCT020 27/24 A2986=
201006042300 METAR MRLB 042300Z 31004KT 9999 SCT020 SCT250 26/25 A2985 RERA=
201006050000 METAR MRLB 050000Z 34003KT 9999 FEW030 BKN250 26/25 A2985=
201006050100 METAR MRLB 050100Z 36004KT 9999 SCT030 SCT250 25/25 A2987=
201006050200 METAR MRLB 050200Z 02003KT 9999 SCT030 SCT250 25/24 A2988=
201006050300 METAR MRLB NIL=
201006050400 METAR MRLB NIL=
201006050500 METAR MRLB NIL=
201006050600 METAR MRLB NIL=
201006050700 METAR MRLB NIL=
201006050800 METAR MRLB NIL=
201006050900 METAR MRLB NIL=
201006051000 METAR MRLB NIL=
201006051100 METAR MRLB NIL=
201006051200 METAR MRLB 051200Z 05004KT 9999 SCT020 BKN180 23/23 A2989=
201006051300 METAR MRLB 051300Z 00000KT FEW025 SCT100 BKN250 25/23 A2990=
201006051400 METAR MRLB 051400Z 00000KT 9999 FEW018 SCT200 26/24 A2991=
201006051500 METAR MRLB 051500Z 28006KT 9999 SCT015 BKN220 28/25 A2992=
201006051600 METAR MRLB 051600Z 27005KT 9999 SCT020 BKN200 29/24 A2992=
201006051700 METAR MRLB 051700Z 28007KT 9999 SCT020 BKN240 30/25 A2991=
201006051800 METAR MRLB 051800Z 27007KT 9999 SCT020 BKN220 30/25 A2988=
201006051900 METAR MRLB 051900Z 27009KT 9999 SCT020 BKN240 30/25 A2986 RMK TCU DST E=
201006052000 METAR MRLB 052000Z 28010KT 9999 FEW020 BKN250 31/26 A2983 RMK TCU DST S=
201006052100 METAR MRLB 052100Z 28010KT 9999 FEW020 BKN250 29/25 A2981=
201006052200 METAR MRLB NIL=
201006052300 METAR MRLB 052300Z 27007KT 9999 FEW035 BKN250 29/26 A2980=
201006060000 METAR MRLB 060000Z 26005KT 9999 FEW035 SCT250 28/26 A2979=
201006060100 METAR MRLB 060100Z 00000KT CAVOK 27/26 A2982 FEW100 TCU DST SE=
201006060200 METAR MRLB 060200Z 00000KT CAVOK 27/26 A2984 FEW100 TCU DST S=
201006060300 METAR MRLB NIL=
201006060400 METAR MRLB NIL=
201006060500 METAR MRLB NIL=
201006060600 METAR MRLB NIL=
201006060700 METAR MRLB NIL=
201006060800 METAR MRLB NIL=
201006060900 METAR MRLB NIL=
201006061000 METAR MRLB NIL=
201006061100 METAR MRLB NIL=
201006061200 METAR MRLB 061200Z 00000KT 9999 FEW035 BKN130 25/24 A2985=
201006061300 METAR MRLB 061300Z 12003KT 9999 FEW035 BKN130 26/24 A2986=
201006061400 METAR MRLB 061400Z 20002KT 9999 SCT035 BKN130 26/24 A2989 RMK RN DST E SE=
201006061500 METAR MRLB 061500Z 14003KT 9999 DZ SCT035 BKN120 26/24 A2989=
201006061600 METAR MRLB 061600Z 19004KT 9999 FEW035 BKN120 26/25 A2987=
201006061700 METAR MRLB 061700Z 18005KT 9999 VCSH FEW035 BKN110 26/24 A2986=
201006061800 METAR MRLB 061800Z 18006KT 9999 FEW035 BKN120 28/24 A2984 RMK RN DST S=
201006061900 METAR MRLB 061900Z 03003KT 9999 FEW035 BKN120 30/24 A2983=
201006062000 METAR MRLB 062000Z 11005KT 9999 FEW035 BKN130 30/23 A2980=
201006062100 METAR MRLB 062100Z 34005KT 9999 FEW035 BKN130 31/24 A2980=
201006062200 METAR MRLB 062200Z 06009KT 9999 FEW035 BKN130 30/23 A2977=
201006062300 METAR MRLB 062300Z 08004KT 9999 FEW035 BKN120 30/23 A2978=
201006070000 METAR MRLB 070000Z 26005KT 9999 SCT035 BKN120 28/24 A2977=
201006070100 METAR MRLB 070100Z 00000KT 9999 FEW035 BKN120 28/23 A2979=
201006070200 METAR MRLB 070200Z 00000KT 9999 SCT035 BKN120 27/23 A2981=
201006070300 METAR MRLB NIL=
201006070400 METAR MRLB NIL=
201006070500 METAR MRLB NIL=
201006070600 METAR MRLB NIL=
201006070700 METAR MRLB NIL=
201006070800 METAR MRLB NIL=
201006070900 METAR MRLB NIL=
201006071000 METAR MRLB NIL=
201006071100 METAR MRLB NIL=
201006071200 METAR MRLB 071200Z 14002KT CAVOK 24/22 A2984 RMK OVC250=
201006071300 METAR MRLB 071300Z 02003KT CAVOK 25/23 A2983 RMK OVC250=
201006071400 METAR MRLB 071400Z 22005KT CAVOK 27/23 A2985 RMK OVC250=
201006071500 METAR MRLB 071500Z 23005KT CAVOK 29/23 A2988 RMK SCT130 SCT250=
201006071600 METAR MRLB 071600Z 18003KT CAVOK 31/24 A2988 RMK FEW130 BKN250=
201006071700 METAR MRLB 071700Z 07007KT 9999 SCT030 BKN250 32/22 A2987=
201006071800 METAR MRLB 071800Z 03008KT 9999 SCT030 SCT250 32/22 A2985=
201006071900 METAR MRLB 071900Z 14006KT 9999 SCT030 BKN250 32/23 A2984=
201006072000 METAR MRLB 072000Z 08005KT 9999 FEW030 BKN250 33/23 A2981=
201006072100 METAR MRLB 072100Z 06006KT 9999 FEW030 BKN250 33/22 A2981=
201006072200 METAR MRLB 072200Z 01005KT 9999 FEW030 BKN250 32/23 A2982=
201006072300 METAR MRLB 072300Z 35006KT 9999 FEW020 BKN130 30/24 A2982 RMK RN DST S SW=
201006080000 METAR MRLB 080000Z 17007KT 9999 FEW020 BKN130 27/23 A2984 RMK RN DST SW=
201006080100 METAR MRLB NIL=
201006080200 METAR MRLB 080200Z 00000KT 9999 FEW020 BKN130 26/24 A2988=
201006080300 METAR MRLB NIL=
201006080400 METAR MRLB NIL=
201006080500 METAR MRLB NIL=
201006080600 METAR MRLB NIL=
201006080700 METAR MRLB NIL=
201006080800 METAR MRLB NIL=
201006080900 METAR MRLB NIL=
201006081000 METAR MRLB NIL=
201006081100 METAR MRLB NIL=
201006081200 METAR MRLB 081200Z 00000KT 9999 FEW015 SCT100 BKN180 25/24 A2988=
201006081300 METAR MRLB 081300Z 00000KT 9999 SCT010 BKN180 26/24 A2990 LOW ST ARND=
201006081400 METAR MRLB 081400Z 03007KT 9999 FEW010 BKN170 26/24 A2991=
201006081500 METAR MRLB 081500Z 00000KT 9999 SCT012 BKN180 27/24 A2992=
201006081600 METAR MRLB 081600Z 00000KT 9999 SCT012 BKN180 27/24 A2995=
201006081700 METAR MRLB 081700Z 18003KT 9999 VCSH BKN015 SCT170 27/24 A2995 PCPN W=
201006081800 METAR MRLB 081800Z 28006KT 9999 VCSH SCT012 BKN150 28/24 A2993=
201006081900 METAR MRLB 081900Z 02005KT 9999 SCT015 BKN180 27/23 A2991=
201006082000 METAR MRLB 082000Z 32004KT 9999 SCT020 BKN180 29/23 A2990=
201006082100 METAR MRLB 082100Z 29003KT 9999 FEW025 BKN200 29/23 A2988=
201006082200 METAR MRLB 082200Z 26005KT 9999 FEW025 BKN200 28/24 A2988=
201006082300 METAR MRLB 082300Z 27004KT 9999 FEW030 BKN220 27/24 A2989=
201006090000 METAR MRLB 090000Z 24003KT 9999 FEW030 BKN220 27/24 A2991 RMK TCU DST SE=
201006090100 METAR MRLB 090100Z 00000KT CAVOK 26/24 A2993 RMK FEW100 TCU DST S=
201006090200 METAR MRLB 090200Z 00000KT CAVOK 26/24 A2995 RMK FEW100 TCU DST S=
201006090300 METAR MRLB NIL=
201006090400 METAR MRLB NIL=
201006090500 METAR MRLB NIL=
201006090600 METAR MRLB NIL=
201006090700 METAR MRLB NIL=
201006090800 METAR MRLB NIL=
201006090900 METAR MRLB NIL=
201006091000 METAR MRLB NIL=
201006091100 METAR MRLB NIL=
201006091200 METAR MRLB 091200Z 09004KT 9999 FEW030 BKN240 24/24 A2990=
201006091300 METAR MRLB 091300Z 18003KT 9999 FEW035 BKN240 25/24 A2992=
201006091400 METAR MRLB 091400Z 00000KT 9999 FEW035 BKN240 27/24 A2993=
201006091500 METAR MRLB 091500Z 20002KT 9999 SCT035 BKN240 29/24 A2996=
201006091600 METAR MRLB 091600Z 20003KT 9999 SCT035 BKN240 30/24 A2992=
201006091700 METAR MRLB 091700Z 20003KT 9999 SCT035 BKN240 30/24 A2994=
201006091800 METAR MRLB 091800Z 29006KT 9999 SCT035 BKN140 30/24 A2993=
201006091900 METAR MRLB 091900Z 26006KT 9999 FEW020TCU SCT035 BKN130 30/24 A2991=
201006092000 METAR MRLB 092000Z 29006KT 9999 VCSH FEW015TCU SCT035 BKN130 30/24 A2988=
201006092100 METAR MRLB 092100Z 10006KT 3000 TSRA FEW010CB SCT020 BKN100 26/24 A2988=
201006092200 METAR MRLB 092200Z 30002KT 9999 SCT030 BKN110 25/24 A2984 RETS=
201006092300 METAR MRLB 092300Z 07003KT 9999 SCT035 BKN110 26/24 A2985=
201006100000 METAR MRLB 100000Z 05003KT 9999 FEW035 BKN110 26/24 A2988=
201006100100 METAR MRLB 100100Z 08002KT 9999 FEW035 BKN120 25/25 A2989=
201006100200 METAR MRLB 100200Z 03002KT 9999 SCT035 BKN120 25/25 A2993=
201006100300 METAR MRLB NIL=
201006100400 METAR MRLB NIL=
201006100500 METAR MRLB NIL=
201006100600 METAR MRLB NIL=
201006100700 METAR MRLB NIL=
201006100800 METAR MRLB NIL=
201006100900 METAR MRLB NIL=
201006101000 METAR MRLB NIL=
201006101100 METAR MRLB NIL=
201006101200 METAR MRLB 101200Z 00000KT 9999 BKN025 SCT120 25/24 A2990=
201006101300 METAR MRLB 101300Z 12002KT 9999 FEW025 BKN120 26/23 A2991=
201006101400 METAR MRLB NIL=
201006101500 METAR MRLB 101500Z 10002KT CAVOK 28/23 A2994 RMK FEW130 BKN250=
201006101600 METAR MRLB 101600Z 00000KT 9999 FEW020 BKN250 29/24 A2994=
201006101700 METAR MRLB 101700Z 33003KT 9999 FEW030 BKN250 30/23 A2992=
201006101800 METAR MRLB 101800Z 36005KT 9999 FEW030 BKN250 30/24 A2990=
201006101900 METAR MRLB 101900Z 33006KT 9999 FEW030 BKN250 31/24 A2988=
201006102000 METAR MRLB 102000Z 33006KT 9999 FEW030 BKN250 31/23 A2986=
201006102100 METAR MRLB 102100Z 27009KT 9999 FEW025 BKN250 30/24 A2983 RMK RN DST SE=
201006102200 METAR MRLB 102200Z 25007KT 9999 SCT020 BKN120 28/24 A2982 RMK RN DST E/S=
201006102300 METAR MRLB 102300Z 19003KT 9999 FEW020 BKN120 27/24 A2984 RMK CB DST S/SW=
201006110000 METAR MRLB 110000Z 18005KT 9999 FEW020 BKN120 26/24 A2985 RMK RN DST S/SW=
201006110100 METAR MRLB 110100Z 09006KT 9999 FEW020 BKN120 26/24 A2985=
201006110200 METAR MRLB 110200Z 15005KT 9999 FEW020 BKN120 25/24 A2986=
201006110300 METAR MRLB NIL=
201006110400 METAR MRLB NIL=
201006110500 METAR MRLB NIL=
201006110600 METAR MRLB NIL=
201006110700 METAR MRLB NIL=
201006110800 METAR MRLB NIL=
201006110900 METAR MRLB NIL=
201006111000 METAR MRLB NIL=
201006111100 METAR MRLB NIL=
201006111200 METAR MRLB 111200Z 00000KT 9999 SCT025 BKN250 23/23 A2987 RMK LOW ST ARND=
201006111300 METAR MRLB 111300Z 00000KT 9999 FEW010 SCT150 25/23 A2988 RMK ST LOW W=
201006111400 METAR MRLB 111400Z 20003KT 9999 FEW030 SCT180 26/24 A2988=
201006111500 METAR MRLB 111500Z 10001KT CAVOK 29/24 A2990 RMK FEW100 SCT220=
201006111600 METAR MRLB 111600Z 10008KT CAVOK 31/22 A2991 RMK FEW100 SCT250=
201006111700 METAR MRLB 111700Z 11008KT 9999 FEW025 SCT150 31/22 A2991=
201006111800 METAR MRLB 111800Z 12007KT 9999 SCT025 BKN280 32/23 A2989=
201006111900 METAR MRLB 111900Z 18005KT 9999 SCT025TCU BKN180 32/23 A2986 RMK TCU/RN DST S=
201006112000 METAR MRLB 112000Z 19015KT 9999 VCSH SCT025CB BKN150 28/24 A2986=
201006112100 METAR MRLB 112100Z 03008KT 9999 VCSH SCT020CB BKN170 27/22 A2986 RMK CB N NE=
201006112200 METAR MRLB 112200Z 02005KT 9999 FEW020 BKN160 25/23 A2985=
201006112300 METAR MRLB 112300Z 03003KT 9999 DZ FEW025 BKN150 25/23 A2986=
201006120000 METAR MRLB 120000Z 02004KT 9999 FEW030 SCT140 24/23 A2985 REDZ=
201006120100 METAR MRLB 120100Z 03004KT 9999 FEW025 SCT100 24/23 A2988=
201006120200 METAR MRLB 120200Z 04003KT 9999 FEW030 SCT100 25/24 A2989=
201006120300 METAR MRLB NIL=
201006120400 METAR MRLB NIL=
201006120500 METAR MRLB NIL=
201006120600 METAR MRLB NIL=
201006120700 METAR MRLB NIL=
201006120800 METAR MRLB NIL=
201006120900 METAR MRLB NIL=
201006121000 METAR MRLB NIL=
201006121100 METAR MRLB NIL=
201006121200 METAR MRLB 121200Z 05004KT 9999 FEW030 BKN240 24/23 A2989=
201006121300 METAR MRLB 121300Z 35004KT CAVOK 26/23 A2991 RMK BKN240=
201006121400 METAR MRLB 121400Z 03002KT CAVOK 28/24 A2992 RMK BKN240=
201006121500 METAR MRLB 121500Z 35002KT 9999 FEW035 SCT250 29/24 A2994=
201006121600 METAR MRLB 121600Z 29006KT 9999 SCT035 BKN250 29/24 A2994=
201006121700 METAR MRLB 121700Z 28007KT 9999 SCT035 BKN250 30/24 A2992=
201006121800 METAR MRLB 121800Z 28006KT 9999 FEW035 SCT250 31/24 A2991=
201006121900 METAR MRLB 121900Z 26006KT 9999 SCT035 BKN250 31/24 A2989=
201006122000 METAR MRLB 122000Z 27007KT 9999 SCT035 BKN250 31/24 A2985=
201006122100 METAR MRLB 122100Z 13004KT 9999 VCSH SCT035 BKN240 30/24 A2985=
201006122200 METAR MRLB 122200Z 31005KT 9999 SCT035 BKN140 30/25 A2984 RMK RN DST N=
201006122300 METAR MRLB 122300Z 03006KT 9999 FEW035 BKN140 28/23 A2985=
201006130000 METAR MRLB 130000Z 29003KT 9999 SCT035 BKN130 28/23 A2986 RMK RN DST E SE=
201006130100 METAR MRLB 130100Z 15008KT 9999 SCT035 BKN130 25/22 A2987=
201006130200 METAR MRLB 130200Z 16007KT 9999 SCT035 BKN120 24/23 A2989=
201006130300 METAR MRLB NIL=
201006130400 METAR MRLB NIL=
201006130500 METAR MRLB NIL=
201006130600 METAR MRLB NIL=
201006130700 METAR MRLB NIL=
201006130800 METAR MRLB NIL=
201006130900 METAR MRLB NIL=
201006131000 METAR MRLB NIL=
201006131100 METAR MRLB NIL=
201006131200 METAR MRLB 131200Z 24002KT 9999 SCT035 BKN250 24/23 A2984 RMK CB DST SW=
201006131300 METAR MRLB 131300Z 19002KT 9999 SCT035 SCT100 26/23 A2985=
201006131400 METAR MRLB 131400Z 20003KT 9999 SCT035 SCT100 29/24 A2988=
201006131500 METAR MRLB 131500Z 21003KT 9999 SCT030 BKN250 29/23 A2989=
201006131600 METAR MRLB 131600Z 27002KT 9999 SCT030 BKN250 30/23 A2990=
201006131700 METAR MRLB 131700Z 21003KT 9999 SCT030 BKN250 31/23 A2990=
201006131800 METAR MRLB 131800Z 21004KT 9999 SCT030 BKN250 31/23 A2988=
201006131900 METAR MRLB 131900Z 24005KT 9999 SCT030 BKN250 32/24 A2986=
201006132000 METAR MRLB 132000Z 14008KT 4000E TSRA FEW015CB SCT020 SCT250 30/23 A2984=
201006132100 METAR MRLB 132100Z 17007KT 9999 FEW020 BKN120 25/23 A2979 RERA RMK RN DST S SW=
201006132200 METAR MRLB 132200Z 20004KT 9999 FEW020 BKN120 26/24 A2979 RMK RN DST NE SW=
201006132300 METAR MRLB 132300Z 19002KT 9999 SCT025 SCT120 27/24 A2982 RMK RN DST N=
201006140000 METAR MRLB 140000Z 19005KT 9999 FEW025 BKN120 26/24 A2981=
201006140100 METAR MRLB 140100Z 00000KT 9999 FEW025 BKN120 26/25 A2984=
201006140200 METAR MRLB NIL=
201006140300 METAR MRLB NIL=
201006140400 METAR MRLB NIL=
201006140500 METAR MRLB NIL=
201006140600 METAR MRLB NIL=
201006140700 METAR MRLB NIL=
201006140800 METAR MRLB NIL=
201006140900 METAR MRLB NIL=
201006141000 METAR MRLB NIL=
201006141100 METAR MRLB NIL=
201006141200 METAR MRLB 141200Z 00000KT 9999 FEW035 SCT170 24/23 A2982=
201006141300 METAR MRLB 141300Z 00000KT 9999 FEW030 SCT170 26/23 A2984=
201006141400 METAR MRLB 141400Z 00000KT 9999 FEW035 SCT180 29/23 A2985=
201006141500 METAR MRLB 141500Z 27004KT 9999 FEW030 SCT200 29/23 A2986=
201006141600 METAR MRLB 141600Z 29003KT 9999 FEW025 SCT250 30/24 A2986=
201006141700 METAR MRLB 141700Z 00000KT 9999 SCT020 BKN250 32/23 A2986=
201006141800 METAR MRLB 141800Z 15005KT 9999 SCT018 BKN250 32/23 A2984=
201006141900 METAR MRLB 141900Z 26007KT 9999 SCT015 BKN220 32/24 A2982=
201006142000 METAR MRLB 142000Z 28005KT 9999 SCT020 BKN250 32/24 A2978=
201006142100 METAR MRLB 142100Z 25007KT 9999 SCT025 BKN220 33/24 A2977 RMK TCU NE SE=
201006142200 METAR MRLB 142200Z 28005KT 9999 VCSH SCT020TCU BKN170 30/24 A2976 RMK TCU RN S SE E=
201006142300 METAR MRLB 142300Z 14006KT 9000 RA SCT015 BKN100 26/24 A2975 RMK VIS S 5000=
201006150000 METAR MRLB 150000Z 00000KT 9999 FEW030 SCT100 26/24 A2979 RERA=
201006150100 METAR MRLB 150100Z 14005KT 9999 FEW025 SCT100 26/25 A2980 TCU DST S=
201006150200 METAR MRLB 150200Z 12003KT 9999 FEW020 SCT100 26/25 A2981=
201006150300 METAR MRLB NIL=
201006150400 METAR MRLB NIL=
201006150500 METAR MRLB NIL=
201006150600 METAR MRLB NIL=
201006150700 METAR MRLB NIL=
201006150800 METAR MRLB NIL=
201006150900 METAR MRLB NIL=
201006151000 METAR MRLB NIL=
201006151100 METAR MRLB NIL=
201006151200 METAR MRLB 151200Z 09002KT 9999 FEW035 BKN130 25/23 A2983=
201006151300 METAR MRLB 151300Z 09005KT 9999 FEW035 BKN130 26/23 A2985=
201006151400 METAR MRLB 151400Z 13005KT 9999 FEW035 BKN130 28/24 A2986=
201006151500 METAR MRLB 151500Z 18003KT 9999 SCT035 BKN250 29/24 A2987=
201006151600 METAR MRLB 151600Z 15004KT 9999 SCT035 BKN140 28/24 A2989=
201006151700 METAR MRLB 151700Z 13003KT 9999 SCT035 BKN140 29/24 A2989=
201006151800 METAR MRLB 151800Z 14005KT 9999 SCT035 BKN140 30/24 A2987=
201006151900 METAR MRLB 151900Z 13008KT 9999 FEW020TCU SCT035 BKN140 30/24 A2985 RMK RN DST SW=
201006152000 METAR MRLB 152000Z 28009KT 9999 VCSH SCT035 BKN130 27/24 A2982=
201006152100 METAR MRLB 152100Z 27006KT 9999 VCSH FEW010TCU SCT020 BKN120 25/24 A2980 RERA=
201006152200 METAR MRLB 152200Z 13003KT 9999 -RA FEW010 BKN025 25/25 A2981=
201006152300 METAR MRLB 152300Z 03003KT 9999 SCT030 BKN120 25/24 A2981=
201006160000 METAR MRLB 160000Z 04004KT 9999 FEW035 BKN120 25/24 A2982 RMK RN DST N=
201006160100 METAR MRLB 160100Z 04005KT 9999 SCT035 BKN120 25/24 A2984=
201006160200 METAR MRLB 160200Z 05004KT 9999 SCT035 BKN130 25/25 A2987=
201006160300 METAR MRLB NIL=
201006160400 METAR MRLB NIL=
201006160500 METAR MRLB NIL=
201006160600 METAR MRLB NIL=
201006160700 METAR MRLB NIL=
201006160800 METAR MRLB NIL=
201006160900 METAR MRLB NIL=
201006161000 METAR MRLB NIL=
201006161100 METAR MRLB NIL=
201006161200 METAR MRLB 161200Z 04002KT CAVOK 23/23 A2985 RMK FEW130 BKN250 CB DST N NE S=
201006161300 METAR MRLB 161300Z 19003KT CAVOK 25/23 A2986 RMK SCT130 SCT250 TCU DST SW=
201006161400 METAR MRLB 161400Z 24002KT 9999 FEW020 BKN250 27/24 A2988=
201006161500 METAR MRLB 161500Z 18004KT 9999 SCT020 SCT250 28/24 A2990=
201006161600 METAR MRLB 161600Z 16005KT 9999 SCT030 SCT250 30/25 A2990=
201006161700 METAR MRLB 161700Z 09005KT 9999 SCT025 SCT250 31/24 A2989 RMK FEW130=
201006161800 METAR MRLB 161800Z 11005KT 9999 BKN025 SCT130 31/24 A2989=
201006161900 METAR MRLB 161900Z 06007KT 9999 FEW030 SCT130 BKN250 31/23 A2987 RMK RN DST W=
201006162000 METAR MRLB 162000Z 08008KT 9999 FEW030 SCT130 32/23 A2985=
201006162100 METAR MRLB 162100Z 08011KT 9999 FEW030 SCT130 32/21 A2983 RMK SCT250 RN DST S=
201006162200 METAR MRLB 162200Z 09008KT 9999 FEW030 SCT130 BKN250 33/23 A2981=
201006162300 METAR MRLB 162300Z 31004KT 9999 BKN030 SCT250 29/25 A2982=
201006170000 METAR MRLB 170000Z 28006KT 9999 SCT030 SCT130 28/25 A2984=
201006170100 METAR MRLB 170100Z 10005KT 9999 FEW030 BKN130 28/22 A2984 RMK LTNG DST SW=
201006170200 METAR MRLB 170200Z 10005KT 9999 FEW030 BKN130 28/22 A2984=
201006170300 METAR MRLB NIL=
201006170400 METAR MRLB NIL=
201006170500 METAR MRLB NIL=
201006170600 METAR MRLB NIL=
201006170700 METAR MRLB NIL=
201006170800 METAR MRLB NIL=
201006170900 METAR MRLB NIL=
201006171000 METAR MRLB NIL=
201006171100 METAR MRLB NIL=
201006171200 METAR MRLB 171200Z 00000KT 9999 FEW035 SCT170 24/22 A2985=
201006171300 METAR MRLB 171300Z 17003KT 9999 FEW030 SCT220 26723 A2986=
201006171400 METAR MRLB 171400Z 00000KT CAVOK 28/23 A2988 RMK FEW100 SCT180=
201006171500 METAR MRLB 171500Z 12007KT CAVOK 29/23 A2989 RMK FEW140 SCT250=
201006171600 METAR MRLB 171600Z 13007KT 9999 FEW030 SCT240 30/23 A2989=
201006171700 METAR MRLB 171700Z 12007KT 9999 SCT025 BKN220 30/23 A2989=
201006171800 METAR MRLB 171800Z 12004KT 9999 SCT025 BKN250 32/23 A2988=
201006171900 METAR MRLB 171900Z 15005KT 9999 SCT020 BKN200 22/22 A2986 RMK RN ARND=
201006172000 METAR MRLB 172000Z 06013KT 9999 SCT025TCU BKN170 31/22 A2985 RMK RN ARND=
201006172100 METAR MRLB 172100Z 03004KT 9999 SCT020CB BKN200 29/22 A2983 RMK TS RN DST W=
201006172200 METAR MRLB 172200Z 28006KT 9999 FEW030 BKN150 27/24 A2980=
201006172300 METAR MRLB 172300Z 26005KT 9999 FEW035 BKN170 27/24 A2981=
201006180000 METAR MRLB 180000Z 26004KT CAVOK 26/24 A2983 RMK BKN150=
201006180100 METAR MRLB NIL=
201006180200 METAR MRLB 180200Z 00000KT CAVOK 25/24 A2987 RMK SCT180=
201006180300 METAR MRLB NIL=
201006180400 METAR MRLB NIL=
201006180500 METAR MRLB NIL=
201006180600 METAR MRLB NIL=
201006180700 METAR MRLB NIL=
201006180800 METAR MRLB NIL=
201006180900 METAR MRLB NIL=
201006181000 METAR MRLB NIL=
201006181100 METAR MRLB NIL=
201006181200 METAR MRLB 181200Z 08002KT 9999 FEW030 BKN240 24/23 A2985=
201006181300 METAR MRLB 181300Z 18002KT CAVOK 26/22 A2985 RMK BKN250=
201006181400 METAR MRLB 181400Z 17002KT CAVOK 28/23 A2987 RMK BKN250=
201006181500 METAR MRLB 181500Z 12005KT CAVOK 30/23 A2989 RMK BKN250=
201006181600 METAR MRLB 181600Z 07004KT 9999 FEW035 BKN250 32/22 A2987=
201006181700 METAR MRLB 181700Z 07008KT 9999 SCT035 SCT250 32/22 A2988=
201006181800 METAR MRLB 181800Z 08006KT 9999 SCT035 BKN250 32/22 A2986=
201006181900 METAR MRLB 181900Z 08007KT 9999 SCT035 BKN250 33/22 A2984=
201006182000 METAR MRLB 182000Z 09005KT 9999 SCT035 BKN250 33/22 A2981 RMK RN DST N=
201006182100 METAR MRLB 182100Z 27005KT 9999 SCT035 BKN240 32/24 A2979=
201006182200 METAR MRLB 182200Z 32004KT 9999 VCSH SCT035 BKN140 31/24 A2980=
201006182300 METAR MRLB 182300Z 10006KT 9999 VCSH SCT035 BKN140 30/22 A2981=
201006190000 METAR MRLB 190000Z 11009KT 9999 SCT035 BKN130 28/21 A2983 RMK RN DST S=
201006190100 METAR MRLB 190100Z 12008KT 9999 SCT035 BKN130 27/21 A2982=
201006190200 METAR MRLB 190200Z 13007KT 9999 SCT035 BKN120 26/21 A2984=
201006190300 METAR MRLB NIL=
201006190400 METAR MRLB NIL=
201006190500 METAR MRLB NIL=
201006190600 METAR MRLB NIL=
201006190700 METAR MRLB NIL=
201006190800 METAR MRLB NIL=
201006190900 METAR MRLB NIL=
201006191000 METAR MRLB NIL=
201006191100 METAR MRLB NIL=
201006191200 METAR MRLB 191200Z 03002KT 9999 FEW020 BKN130 24/23 A2988=
201006191300 METAR MRLB 191300Z 12003KT 9999 4000S -RA BKN020 SCT130 25/23 A2991=
201006191400 METAR MRLB 191400Z 12003KT 9999 VCSH SCT015 BKN120 25/25 A2992=
201006191500 METAR MRLB 191500Z 08005KT 9999 SCT020 BKN120 27/25 A2992 RMK RN DST N S=
201006191600 METAR MRLB 191600Z 10003KT 9999 FEW020 BKN130 28/23 A2991=
201006191700 METAR MRLB 191700Z 03004KT 9999 FEW030 BKN130 30/23 A2988=
201006191800 METAR MRLB 191800Z 18002KT 9999 FEW030 BKN130 32/23 A2985 RMK FEW250=
201006191900 METAR MRLB 191900Z 23002KT 9999 FEW030 BKN130 32/23 A2983=
201006192000 METAR MRLB 192000Z 12009KT 9999 FEW030 BKN130 32/23 A2980=
201006192100 METAR MRLB 192100Z 07012KT 9999 FEW030 BKN130 22/22 A2979=
201006192200 METAR MRLB 192200Z 08006KT 9999 FEW030 BKN130 30/22 A2978=
201006192300 METAR MRLB 192300Z 07014KT CAVOK 29/21 A2978 RMK OVC130=
201006200000 METAR MRLB 200000Z 08012KT CAVOK 29/21 A2980 RMK OVC130=
201006200100 METAR MRLB 200100Z 10013KT CAVOK 28/19 A2979 RMK OVC130=
201006200200 METAR MRLB NIL=
201006200300 METAR MRLB NIL=
201006200400 METAR MRLB NIL=
201006200500 METAR MRLB NIL=
201006200600 METAR MRLB NIL=
201006200700 METAR MRLB NIL=
201006200800 METAR MRLB NIL=
201006200900 METAR MRLB NIL=
201006201000 METAR MRLB NIL=
201006201100 METAR MRLB NIL=
201006201200 METAR MRLB 201200Z 06004KT CAVOK 22/21 A2983 RMK FEW100 SCT250=
201006201300 METAR MRLB 201300Z 03006KT CAVOK 24/21 A2986 RMK SCT100 BKN250=
201006201400 METAR MRLB 201400Z 00000KT CAVOK 26/22 A2986 RMK SCT100 BKN250=
201006201500 METAR MRLB 201500Z 00000KT CAVOK 27/23 A2985 RMK SCT100 BKN250=
201006201600 METAR MRLB 201600Z 17008KT 9999 FEW030 SCT250 29/24 A2986=
201006201700 METAR MRLB 201700Z 18006KT 9999 FEW030 SCT100 BKN250 30/24 A2985=
201006201800 METAR MRLB 201800Z 16008KT 9999 FEW025TCU SCT220 31/20 A2984 RMK RA E NE=
201006201900 METAR MRLB 201900Z 17008KT 9999 SCT025 BKN200 31/22 A2982=
201006202000 METAR MRLB 202000Z 15006KT 9999 SCT025TCU BKN200 32/21 A2980 RA NE=
201006202100 METAR MRLB 202100Z 15007KT 9999 VCSH SCT020CB BKN150 28/23 A2979=
201006202200 METAR MRLB 202200Z 04012KT 9999 4000E TSRA SCT010CB BKN100 26/24 A2980=
201006202300 METAR MRLB 202300Z 34009KT 9000 DZ SCT010 BKN100 24/24 A2981 RERA=
201006202358 METAR MRLB 210000Z 06005KT 9000 -RA SCT012CB BKN100 24/24 A2985 RMK CB S W=
201006210000 METAR MRLB 210000Z 06005KT 9000 -RA SCT012CB BKN100 24/24 A2985 RMK CB S W=
201006210100 METAR MRLB 210100Z 02004KT 9000 -RA BR SCT012 BKN100 24/24 A2987 RMK=
201006210200 METAR MRLB 210200Z 05005KT 9999 -RA BR SCT010 OVC100 24/24 A2989 RMK=
201006210300 METAR MRLB NIL=
201006210400 METAR MRLB NIL=
201006210500 METAR MRLB NIL=
201006210600 METAR MRLB NIL=
201006210700 METAR MRLB NIL=
201006210800 METAR MRLB NIL=
201006210900 METAR MRLB NIL=
201006211000 METAR MRLB NIL=
201006211100 METAR MRLB NIL=
201006211200 METAR MRLB 211200Z 00000KT 9999 FEW030 BKN130 24/24 A2986=
201006211300 METAR MRLB 211300Z 00000KT 9999 FEW035 BKN130 25/24 A2987 RMK LIW ST SW=
201006211400 METAR MRLB 211400Z 16002KT 9999 FEW035 BKN130 26/24 A2988=
201006211500 METAR MRLB 211500Z 14004KT 9999 FEW035 BKN230 28/24 A2990=
201006211600 METAR MRLB 211600Z 13004KT 9999 SCT035 BKN240 29/23 A2991=
201006211700 METAR MRLB 211700Z 16007KT 9999 SCT035 BKN240 29/24 A2989=
201006211800 METAR MRLB 211800Z 13003KT 9999 SCT035 BKN240 31/24 A2987 RMK RN DST S=
201006211900 METAR MRLB 211900Z 24007KT 9999 VCSH FEW020TCU SCT035 BKN240 29/24 A2985=
201006212000 METAR MRLB 212000Z 23008KT 9999 RA FEW015TCU SCT030 BKN140 26/24 A2982=
201006212100 METAR MRLB 212100Z 28005KT 9999 SCT035 BKN130 26/24 A2982 RERA RMK RN D CHECK TEXT NEW ENDING ADDED KATLYTAA=
201006212200 METAR MRLB 212200Z 29004KT 9999 SCT035 BKN120 27/24 A2984=
201006212300 METAR MRLB 212300Z 32004KT 9999 FEW035 BKN120 27/24 A2983=
201006220000 METAR MRLB 220000Z 35004KT 9999 FEW035 BKN120 27/24 A2984=
201006220100 METAR MRLB 220100Z 03004KT 9999 SCT035 BKN130 26/24 A2986=
201006220200 METAR MRLB NIL=
201006220300 METAR MRLB NIL=
201006220400 METAR MRLB NIL=
201006220500 METAR MRLB NIL=
201006220600 METAR MRLB NIL=
201006220700 METAR MRLB NIL=
201006220800 METAR MRLB NIL=
201006220900 METAR MRLB NIL=
201006221000 METAR MRLB NIL=
201006221100 METAR MRLB NIL=
201006221200 METAR MRLB 221200Z 15002KT CAVOK 24/24 A2986 RMK OVC130 CB DST W=
201006221300 METAR MRLB 221300Z 00000KT 9999 FEW035 BKN130 26/24 A2987=
201006221400 METAR MRLB 221400Z 18003KT 9999 SCT010 BKN250 26/24 A2989=
201006221500 METAR MRLB 221500Z 23003KT 9999 SCT015 BKN250 28/24 A2989=
201006221600 METAR MRLB 221600Z 18004KT 9999 BKN020 SCT250 28/24 A2989=
201006221700 METAR MRLB 221700Z 16002KT 9999 BKN025 SCT250 30/24 A2991=
201006221800 METAR MRLB 221800Z 27008KT 9999 FEW030 BKN250 29/24 A2989 RMK RA NE=
201006221900 METAR MRLB 221900Z 28010KT 9999 SCT030 BKN250 30/25 A2986 RMK CB SW=
201006222000 METAR MRLB 222000Z 26011KT 9999 SCT025 BKN250 29/25 A2984 RMK RA DST N NE S=
201006222100 METAR MRLB NIL=
201006222200 METAR MRLB 222200Z 25005KT 9999 FEW020 BKN100N 27/24 A2983 RMK RN TS DST SE S=
201006222300 METAR MRLB 222300Z 29003KT 9999 -RA SCT020 BKN100 27/24 A2983=
201006230000 METAR MRLB 230000Z 00000KT 9999 FEW020 BKN120 27/25 A2983=
201006230100 METAR MRLB 230100Z 13002KT 9999 FEW020 BKN120 26/25 A2985=
201006230200 METAR MRLB NIL=
201006230300 METAR MRLB NIL=
201006230400 METAR MRLB NIL=
201006230500 METAR MRLB NIL=
201006230600 METAR MRLB NIL=
201006230700 METAR MRLB NIL=
201006230800 METAR MRLB NIL=
201006230900 METAR MRLB NIL=
201006231000 METAR MRLB NIL=
201006231100 METAR MRLB NIL=
201006231200 METAR MRLB 231200Z 27003KT 3000 BR FEW001 BKN015 25/24 A2986=
201006231300 METAR MRLB 231300Z 14003KT 9999 4000E BR FEW002 SCT012 BKN100 25/25 A2987=
201006231400 METAR MRLB 231400Z 00000KT 9999 SCT010 BKN120 27/25 A2989=
201006231500 METAR MRLB 231500Z 28003KT 9999 SCT015 BKN180 29/25 A2990=
201006231600 METAR MRLB 231600Z 27008KT 9999 SCT020 BKN220 30/25 A2991=
201006231700 METAR MRLB 231700Z 25010KT 9999 SCT020TCU BKN200 30/25 A2989 TCU RN E=
201006231800 METAR MRLB 231800Z 30003KT 9999 SCT020TCU BKN250 31/24 A2981 RMK TCU RN E SE S=
201006231900 METAR MRLB 231900Z 28004KT 9999 SCT020 BKN180 30/24 A2984=
201006232000 METAR MRLB 232000Z 26003KT 9999 FEW025 SCT250 32/24 A2982=
201006232100 METAR MRLB 232100Z 28007KT 9999 SCT030 BKN250 32/25 A2979=
201006232200 METAR MRLB 232200Z 27010KT 9999 FEW025 SCT180 30/25 A2978=
201006232300 METAR MRLB 232300Z 27010KT 9999 FEW020 BKN170 28/25 A2978=
201006240000 METAR MRLB 240000Z 27008KT 9999 FEW020 SCT150 27/25 A2978 RMK TCU DST SE=
201006240100 METAR MRLB 240100Z 28005KT 9999 FEW015 SCT170 27/25 A2980=
201006240200 METAR MRLB 240200Z 31004KT 9999 FEW020 SCT180 26/25 A2982=
201006240300 METAR MRLB NIL=
201006240400 METAR MRLB NIL=
201006240500 METAR MRLB NIL=
201006240600 METAR MRLB NIL=
201006240700 METAR MRLB NIL=
201006240800 METAR MRLB NIL=
201006240900 METAR MRLB NIL=
201006241000 METAR MRLB NIL=
201006241100 METAR MRLB NIL=
201006241200 METAR MRLB 241200Z 13004KT 9999 -RA SCT020 SCT130 25/25 A2980=
201006241300 METAR MRLB 241300Z 34002KT 9999 SCT010 BKN130 26/25 A2982=
201006241400 METAR MRLB 241400Z 23005KT 9999 SCT015 SCT120 27/26 A2984=
201006241500 METAR MRLB 241500Z 23003KT 9999 SCT020 BKN120 27/25 A2985=
201006241600 METAR MRLB 241600Z 20003KT 9999 SCT025 BKN120 29/25 A2987=
201006241700 METAR MRLB 241700Z 26004KT 9999 SCT025 BKN120 30/24 A2986=
201006241800 METAR MRLB 241800Z 29007KT 9999 SCT025 SCT250 30/26 A2983 RMK RN DST E=
201006241900 METAR MRLB 241900Z 26003KT 9999 FEW030 BKN250 31/25 A2980=
201006242000 METAR MRLB 242000Z 26003KT 9999 FEW030 BKN250 33/25 A2976=
201006242100 METAR MRLB 242100Z 30004KT 9999 FEW035 BKN250 33/26 A2973=
201006242200 METAR MRLB 242200Z 22005KT 9999 SCT030 SCT250 33/26 A2972=
201006242300 METAR MRLB 242300Z 27007KT 9999 FEW030 BKN250 32/25 A2972 RMK RN NE E S SW=
201006250000 METAR MRLB 250000Z 10003KT 9999 VCSH SCT025 BKN120 29/25 A2986=
201006250100 METAR MRLB 250100Z 23007KT 9999 4000E TSRA FEW010CB BKN020 27/25 A2976=
201006250200 METAR MRLB 250200Z 09004KT 9999 -RA BKN020 26/25 A2980 RETS RMK TS DST S=
201006250300 METAR MRLB NIL=
201006250400 METAR MRLB NIL=
201006250500 METAR MRLB NIL=
201006250600 METAR MRLB NIL=
201006250700 METAR MRLB NIL=
201006250800 METAR MRLB NIL=
201006250900 METAR MRLB NIL=
201006251000 METAR MRLB NIL=
201006251100 METAR MRLB NIL=
201006251200 METAR MRLB 251200Z 03002KT 9999 FEW030 BKN120 25/24 A2979 RMK LOW ST SW=
201006251300 METAR MRLB 251300Z 00000KT 9999 SCT020 BKN130 27/25 A2981=
201006251400 METAR MRLB 251400Z 04002KT 9999 SCT030 BKN130 28/25 A2982=
201006251500 METAR MRLB 251500Z 19002KT 9999 SCT035 BKN230 28/25 A2982=
201006251600 METAR MRLB 251600Z 20003KT 9999 SCT035 BKN240 29/25 A2981=
201006251700 METAR MRLB 251700Z 18004KT 9999 SCT035 BKN230 29/25 A2981=
201006251800 METAR MRLB 251800Z 25006KT 9999 SCT035 BKN230 30/26 A2981=
201006251900 METAR MRLB 251900Z 27007KT 9999 SCT035 BKN230 31/25 A2980=
201006252000 METAR MRLB 252000Z 27012KT 9999 SCT030 BKN140 29/25 A2978 RMK RN DST S NE=
201006252100 METAR MRLB 252100Z 27008KT 9999 VCSH SCT035 BKN130 28/25 A2976=
201006252200 METAR MRLB 252200Z 28007KT 9999 VCSH SCT030 BKN120 27/25 A2975=
201006252300 METAR MRLB 252300Z 16004KT 9999 VCSH SCT030 BKN110 26/25 A2975=
201006260000 METAR MRLB 260000Z 28005KT 6000 RA FEW010 BKN025 25/25 A2978=
201006260100 METAR MRLB 260100Z 13004KT 9999 DZ SCT020 BKN100 25/25 A2978=
201006260200 METAR MRLB 260200Z 08004KT 9999 -RA SCT020 BKN100 25/25 A2981=
201006260300 METAR MRLB NIL=
201006260400 METAR MRLB NIL=
201006260500 METAR MRLB NIL=
201006260600 METAR MRLB NIL=
201006260700 METAR MRLB NIL=
201006260800 METAR MRLB NIL=
201006260900 METAR MRLB NIL=
201006261000 METAR MRLB NIL=
201006261100 METAR MRLB NIL=
201006261200 METAR MRLB 261200Z 13004KT 8000 -RA SCT010 BKN070 24/23 A2981=
201006261300 METAR MRLB 261300Z 08005KT 8000 -RA SCT010 BKN050 24/24 A2983=
201006261400 METAR MRLB 261400Z 10003KT 9000 DZ SCT010 BKN070 24/24 A2984=
201006261500 METAR MRLB 261500Z 12005KT 8000 DZ SCT010 BKN050 25/24 A2985=
201006261600 METAR MRLB 261600Z 13006KT 9000 DZ SCT010 BKN070 26/25 A2985=
201006261700 METAR MRLB 261700Z 10004KT 8000 -RA SCT010 BKN030 26/24 A2985=
201006261800 METAR MRLB 261800Z 16010KT 3000 RA BR FEW002 SCT010 BKN025 24/24 A2985 RMK VIS N UNL=
201006261900 METAR MRLB 261900Z 14004KT 9999 DZ FEW015 BKN150 25/24 A2983=
201006262000 METAR MRLB 262000Z 14004KT 9999 -RA SCT012 BKN100 26/24 A2981=
201006262100 METAR MRLB 262100Z 17003KT 9999 SCT010 BKN100 26/25 A2979 RERA RMK RN ARND=
201006262200 METAR MRLB 262200Z 22006KT 9999 FEW010 BKN200 26/24 A2978 RMK RN E=
201006262300 METAR MRLB 262300Z 00000KT 9999 SCT015 BKN180 26/24 A2979=
201006270000 METAR MRLB 270000Z 18004KT 9999 SCT015 BKN100 25/24 A2980=
201006270100 METAR MRLB 270100Z 00000KT 9999 SCT012 OVC100 25/24 A2982=
201006270200 METAR MRLB 270200Z 00000KT 9999 SCT010 OVC080 25/24 A2985=
201006270300 METAR MRLB NIL=
201006270400 METAR MRLB NIL=
201006270500 METAR MRLB NIL=
201006270600 METAR MRLB NIL=
201006270700 METAR MRLB NIL=
201006270800 METAR MRLB NIL=
201006270900 METAR MRLB NIL=
201006271000 METAR MRLB NIL=
201006271100 METAR MRLB NIL=
201006271200 METAR MRLB 271200Z 00000KT 2000 BR SCT002 BKN030 24/24 A2981=
201006271300 METAR MRLB 271300Z 16002KT 9999 SCT020 BKN130 25/24 A2982=
201006271400 METAR MRLB 271400Z 14002KT 9999 FEW035 BKN130 26/24 A2983=
201006271500 METAR MRLB 271500Z 15002KT 9999 FEW035 BKN240 28/24 A2983=
201006271600 METAR MRLB 271600Z 16003KT 9999 FEW035 BKN240 30/24 A2985=
201006271700 METAR MRLB 271700Z 24003KT 9999 SCT035 BKN230 30/24 A2984=
201006271800 METAR MRLB 271800Z 19003KT 9999 SCT035 BKN230 29/24 A2984=
201006271900 METAR MRLB 271900Z 29007KT 9999 SCT035 BKN230 30/24 A2982=
201006272000 METAR MRLB 272000Z 28007KT 9999 SCT035 SCT250 30/24 A2980=
201006272100 METAR MRLB 272100Z 27008KT 9999 FEW035 BKN250 30/23 A2979=
201006272200 METAR MRLB 272200Z 26007KT 9999 FEW035 BKN250 29/24 A2978=
201006272300 METAR MRLB 272300Z 28006KT 9999 FEW035 BKN250 29/24 A2979=
201006280000 METAR MRLB 280000Z 27006KT 9999 FEW035 BKN230 28/23 A2980=
201006280100 METAR MRLB 280100Z 31003KT 9999 SCT035 BKN230 27/24 A2982=
201006280200 METAR MRLB 280200Z 31003KT 9999 SCT035 BKN140 26/24 A2984=
201006280300 METAR MRLB NIL=
201006280400 METAR MRLB NIL=
201006280500 METAR MRLB NIL=
201006280600 METAR MRLB NIL=
201006280700 METAR MRLB NIL=
201006280800 METAR MRLB NIL=
201006280900 METAR MRLB NIL=
201006281000 METAR MRLB NIL=
201006281100 METAR MRLB NIL=
201006281200 METAR MRLB 281200Z 25002KT 9999 FEW020 BKN100 24/24 A2984=
201006281300 METAR MRLB 281300Z 01003KT 9999 FEW020 BKN100 25/24 A2985=
201006281400 METAR MRLB 281400Z 00000KT 9999 FEW020 BKN100 28/24 A2986 RMK RN DST SW=
201006281500 METAR MRLB 281500Z 27008KT 9999 -RA OVC020 26/24 A2986=
201006281600 METAR MRLB 281600Z 09002KT 9999 FEW020 BKN130 29/24 A2985=
201006281700 METAR MRLB 281700Z 36002KT 9999 SCT025 BKN130 31/24 A2984=
201006281800 METAR MRLB 281800Z 28011KT 9999 SCT025 BKN120 30/25 A2984=
201006281900 METAR MRLB 281900Z 29008KT 9999 FEW030 BKN120 30/22 A2983=
201006282000 METAR MRLB 282000Z 02003KT 9999 FEW030 BKN120 29/23 A2981 RMK RN DST E=
201006282100 METAR MRLB 282100Z 28010KT 9999 SCT030 BKN120 30/24 A2981 RMK RN DST E=
201006282200 METAR MRLB 282200Z 29006KT 9999 FEW030 SCT120 BKN250 28/24 A2970 RMK CB DST E=
201006282300 METAR MRLB 282300Z 27007KT 9999 -RA SCT020 BKN100 28/24 A2979=
201006290000 METAR MRLB 290000Z 29005KT 9999 -RA SCT020 BKN100 25/24 A2979=
201006290100 METAR MRLB 290100Z 04004KT 9999 SCT020 BKN100 25/24 A2981=
201006290200 METAR MRLB 290200Z 08002KT 9999 FEW020 BKN100 25/24 A2983=
201006290300 METAR MRLB NIL=
201006290400 METAR MRLB NIL=
201006290500 METAR MRLB NIL=
201006290600 METAR MRLB NIL=
201006290700 METAR MRLB NIL=
201006290800 METAR MRLB NIL=
201006290900 METAR MRLB NIL=
201006291000 METAR MRLB NIL=
201006291100 METAR MRLB NIL=
201006291200 METAR MRLB 291200Z 10003KT 9999 FEW035 BKN140 25/24 A2983 RMK LOW ST ARND=
201006291300 METAR MRLB 291300Z 00000KT 9999 FEW035 SCT100 BKN200 25/24 A2986=
201006291400 METAR MRLB 291400Z 16002KT 9999 FEW030 SCT100 BKN200 26/24 A2987 RMK LOW ST S W N=
201006291500 METAR MRLB 291500Z 00000KT 9999 FEW010 SCT030 BKN150 27/24 A2988=
201006291600 METAR MRLB 291600Z 24004KT 9999 FEW012 SCT100 BKN220 28/25 A2988=
201006291700 METAR MRLB 291700Z 28004KT 9999 FEW015 BKN120 28/25 A2987=
201006291800 METAR MRLB 291800Z 28006KT 9999 FEW015 BKN140 28/24 A2986=
201006291900 METAR MRLB 291900Z 28006KT 9999 FEW015 BKN120 28/25 A2985=
201006292000 METAR MRLB 292000Z 28007KT 9999 FEW020 BKN140 28/24 A2983=
201006292100 METAR MRLB 292100Z 28008KT 9999 FEW025 BKN120 28/24 A2982=
201006292200 METAR MRLB 292200Z 27006KT 9999 FEW030 BKN120 28/24 A2981=
201006292300 METAR MRLB 292300Z 29003KT 9999 FEW025 BKN140 28/24 A2983=
201006300000 METAR MRLB 300000Z 00000KT 9999 FEW025 SCT140 27/24 A2983=
201006300100 METAR MRLB 300100Z 28003KT 9999 FEW025 SCT100 27/24 A2984=
201006300200 METAR MRLB 300200Z 00000KT 9999 FEW025 SCT100 26/24 A2985=
201006300300 METAR MRLB NIL=
201006300400 METAR MRLB NIL=
201006300500 METAR MRLB NIL=
201006300600 METAR MRLB NIL=
201006300700 METAR MRLB NIL=
201006300800 METAR MRLB NIL=
201006300900 METAR MRLB NIL=
201006301000 METAR MRLB NIL=
201006301100 METAR MRLB NIL=
201006301200 METAR MRLB 301200Z 00000KT 9999 FEW030 BKN140 25/24 A2985=
201006301300 METAR MRLB 301300Z 00000KT 9999 FEW035 SCT230 25/24 A2986=
201006301400 METAR MRLB 301400Z 00000KT 9999 FEW035 SCT250 27/25 A2986=
201006301500 METAR MRLB 301500Z 31006KT 9999 FEW035 SCT250 29/24 A2988=
201006301600 METAR MRLB 301600Z 28003KT 9999 SCT035 SCT250 31/24 A2988=
201006301700 METAR MRLB 301700Z 24005KT 9999 SCT035 SCT250 31/25 A2987=
201006301800 METAR MRLB 301800Z 26007KT 9999 SCT035 BKN250 31/24 A2986=
201006301900 METAR MRLB 301900Z 26004KT 9999 VCSH SCT035 BKN140 30/25 A2987=
201006302000 METAR MRLB 302000Z 28009KT 9999 SCT035 BKN230 28/26 A2983 RERA=
201006302100 METAR MRLB 302100Z 29007KT 9999 SCT035 BKN240 30/25 A2982=
201006302200 METAR MRLB 302200Z 27008KT 9999 FEW035 BKN240 30/25 A2981=
201006302300 METAR MRLB 302300Z 08011KT 1500 TSRA SCT008CB BKN025 27/24 A2985=
201007010000 METAR MRLB 010000Z 03004KT 9999 FEW035 BKN120 23/22 A2982 RETSRA RMK RN DST S=
201007010100 METAR MRLB 010100Z 06006KT 9999 SCT035 BKN120 24/22 A2983=
201007010200 METAR MRLB 010200Z 08005KT 9999 SCT030 BKN120 24/22 A2985=
201007010300 METAR MRLB NIL=
201007010400 METAR MRLB NIL=
201007010500 METAR MRLB NIL=
201007010600 METAR MRLB NIL=
201007010700 METAR MRLB NIL=
201007010800 METAR MRLB NIL=
201007010900 METAR MRLB NIL=
201007011000 METAR MRLB NIL=
201007011100 METAR MRLB NIL=
201007011200 METAR MRLB 011200Z 11002KT CAVOK 23/23 A2984 RMK OVC250 CB DST S=
201007011300 METAR MRLB 011300Z 00000KT 9999 FEW005 BKN250 26/24 A2984=
201007011400 METAR MRLB 011400Z 00000KT 9999 FEW010 BKN250 28/25 A2984=
201007011500 METAR MRLB 011500Z 00000KT CAVOK 29/24 A2986 OVC250=
201007011600 METAR MRLB 011600Z 14002KT 9999 FEW025 BKN250 31/25 A2986=
201007011700 METAR MRLB 011700Z 08011KT 9999 FEW030 BKN250 32/23 A2986=
201007011800 METAR MRLB 011800Z 07010KT 9999 SCT030 BKN250 33/24 A2985=
201007011900 METAR MRLB 011900Z 08007KT 9999 SCT030 BKN250 33/23 A2983=
201007012000 METAR MRLB 012000Z 00000KT 9999 SCT020 SCT240 28/24 A2985 REDZ FEW110 CB DST SW/N HZ ARND=
201007012100 METAR MRLB 012100Z 06007KT 9999 FEW030 BKN250 33/23 A2978=
201007012200 METAR MRLB 012200Z 31006KT 9999 SCT030 BKN250 30/25 A2978 RMK CB DST S=
201007012300 METAR MRLB 012300Z 29006KT 9999 SCT030 BKN250 29/25 A2980 RMK CB DST SE S SW=
201007020000 METAR MRLB 020000Z 27004KT 9999 SCT030 BKN130 29/25 A2981 RMK CB DST SE S SW=
201007020100 METAR MRLB 020100Z 15002KT 9999 SCT025 BKN120 28/25 A2982=
201007020200 METAR MRLB 020200Z 11005KT 9999 FEW025 BKN120 26/25 A2984=
201007020300 METAR MRLB NIL=
201007020400 METAR MRLB NIL=
201007020500 METAR MRLB NIL=
201007020600 METAR MRLB NIL=
201007020700 METAR MRLB NIL=
201007020800 METAR MRLB NIL=
201007020900 METAR MRLB NIL=
201007021000 METAR MRLB NIL=
201007021100 METAR MRLB NIL=
201007021200 METAR MRLB 021200Z 00000KT CAVOK 24/23 A2982 RMK FEW100 SCT220=
201007021300 METAR MRLB 021300Z 00000KT CAVOK 25/23 A2983 RMK FEW100 SCT250=
201007021400 METAR MRLB 021400Z 00000KT 9999 FEW010 SCT250 26/24 A2986=
201007021500 METAR MRLB 021500Z 00000KT 9999 FEW012 BKN250 28/24 A2986=
201007021600 METAR MRLB 021600Z 20004KT 9999 SCT012 BKN250 29/25 A2987=
201007021700 METAR MRLB 021700Z 05004KT 9999 SCT015 BKN250 30/24 A2986=
201007021800 METAR MRLB 021800Z 00000KT 9999 SCT020 BKN250 32/23 A2984=
201007021900 METAR MRLB 021900Z 00000KT 9999 FEW010TCU SCT025 BKN150 32/23 A2982 RMK CB RA N NE=
201007022000 METAR MRLB 022000Z 32008KT 9999 RA VCTS SCT015CB BKN100 26/25 A2979 RMK VIS 7KMS W=
201007022100 METAR MRLB 022100Z 06006KT 9999 VCSH SCT012CB BKN140 25/24 A2978 VIS 8KMS W=
201007022200 METAR MRLB 022200Z 08010KT 2000 -TSRA SCT010CB BKN025 23/22 A2983=
201007022300 METAR MRLB 022300Z 15004KT 9000 DZ FEW010CB SCT020 OVC100 23/22 A2982=
201007030000 METAR MRLB 030000Z 15003KT 9000 -RA FEW012 OVC100 23/22 A2983=
201007030100 METAR MRLB 030100Z 08003KT 7000 -RA FEW015 OVC080 23/22 A2984=
201007030200 METAR MRLB NIL=
201007030300 METAR MRLB NIL=
201007030400 METAR MRLB NIL=
201007030500 METAR MRLB NIL=
201007030600 METAR MRLB NIL=
201007030700 METAR MRLB NIL=
201007030800 METAR MRLB NIL=
201007030900 METAR MRLB NIL=
201007031000 METAR MRLB NIL=
201007031100 METAR MRLB NIL=
201007031200 METAR MRLB 031200Z 00000KT 0300 FG VV/// 23/23 A2982=
201007031300 METAR MRLB 031300Z 05002KT 3000 BR SCT002 SCT020 24/23 A2983 RMK VIS E UNLTD=
201007031400 METAR MRLB 031400Z 07002KT 9999 SCT025 SCT250 25/24 A2986=
201007031500 METAR MRLB 031500Z 00000KT 9999 FEW035 SCT250 27/24 A2988=
201007031600 METAR MRLB 031600Z 32002KT 9999 SCT035 BKN250 29/23 A2990=
201007031700 METAR MRLB 031700Z 13002KT 9999 SCT035 BKN250 31/22 A2989=
201007031800 METAR MRLB 031800Z 19004KT 9999 SCT035 BKN250 30/23 A2987=
201007031900 METAR MRLB 031900Z 14004KT 9999 SCT035 BKN250 31/23 A2984=
201007032000 METAR MRLB NIL=
201007032100 METAR MRLB 032100Z 24004KT 9999 SCT035 BKN230 30/24 A2981=
201007032200 METAR MRLB 032200Z 22006KT 9999 FEW035 BKN140 28/25 A2980=
201007032300 METAR MRLB 032300Z 23004KT 9999 FEW035 BKN140 28/24 A2981=
201007040000 METAR MRLB 040000Z 21004KT 9999 SCT035 BKN140 28/24 A2982 RMK RN DST E SE=
201007040100 METAR MRLB 040100Z 09003KT 9999 SCT035 BKN130 27/24 A2984=
201007040200 METAR MRLB 040200Z 36002KT 9999 SCT030 BKN130 26/24 A2986=
201007040300 METAR MRLB NIL=
201007040400 METAR MRLB NIL=
201007040500 METAR MRLB NIL=
201007040600 METAR MRLB NIL=
201007040700 METAR MRLB NIL=
201007040800 METAR MRLB NIL=
201007040900 METAR MRLB NIL=
201007041000 METAR MRLB NIL=
201007041100 METAR MRLB NIL=
201007041200 METAR MRLB 041200Z 13002KT CAVOK 24/24 A2987 RMK OVC130=
201007041300 METAR MRLB 041300Z 17002KT 9999 1000W BR FEW002 BKN130 25/24 A2989=
201007041400 METAR MRLB 041400Z 16003KT 9999 FEW005 BKN130 26/25 A2988 RMK LOW ST SW=
201007041500 METAR MRLB 041500Z 14005KT 9999 SCT010 BKN130 27/25 A2990=
201007041600 METAR MRLB 041600Z 16004KT 9999 SCT020 BKN130 28/24 A2991=
201007041700 METAR MRLB 041700Z 13004KT 9999 SCT020 BKN130 30/24 A2992=
201007041800 METAR MRLB 041800Z 14003KT 9999 SCT025 BKN250 30/25 A2990 RMK CB DST S RN DST SW W=
201007041900 METAR MRLB 041900Z 28008KT 9999 BKN020 SCT250 30/25 A2989 RMK CB RN DST SE S=
201007042000 METAR MRLB 042000Z 17007KT 9999 3000E RA SCT020 BKN120 26/25 A2988 RERA=
201007042100 METAR MRLB 042100Z 27003KT 9999 FEW020TCU BKN120 28/26 A2984 RERA RMK RA N S=
201007042200 METAR MRLB 042200Z 25005KT 9999 VCSH FEW010TCU BKN120 28/25 A2985=
201007042300 METAR MRLB 042300Z 17002KT 9999 VCSH FEW015 BKN120 26/25 A2985 RERA=
201007050000 METAR MRLB 050000Z 09005KT 9999 FEW020 BKN120 25/24 A2986 RMK RA DST N NE=
201007050100 METAR MRLB 050100Z 10004KT 9999 FEW020 BKN120 25/24 A2989=
201007050200 METAR MRLB 050200Z 09002KT 9999 FEW020 BKN120 25/24 A2991=
201007050300 METAR MRLB NIL=
201007050400 METAR MRLB NIL=
201007050500 METAR MRLB NIL=
201007050600 METAR MRLB NIL=
201007050700 METAR MRLB NIL=
201007050800 METAR MRLB NIL=
201007050900 METAR MRLB NIL=
201007051000 METAR MRLB NIL=
201007051100 METAR MRLB NIL=
201007051200 METAR MRLB 051200Z 00000KT 9999 FEW012 BKN100 24/24 A2986 RMK LOW ST ARND=
201007051300 METAR MRLB 051300Z 14004KT 9999 FEW002 SCT025 BKN200 25/24 A2986 RMK ST LOW S SW W=
201007051400 METAR MRLB 051400Z 15003KT 9999 FEW005 SCT025 BKN150 26/25 A2988=
201007051500 METAR MRLB 051500Z 10004KT 9999 SCT012 BKN150 28/25 A2990=
201007051600 METAR MRLB 051600Z 00000KT 9999 SCT012 BKN140 30/24 A2991=
201007051700 METAR MRLB 051700Z 15004KT 9999 SCT020 BKN150 30/24 A2990=
201007051800 METAR MRLB 051800Z 22010KT 9999 SCT015TCU BKN140 28/24 A2989 RMK RA S SW W=
201007051900 METAR MRLB 051900Z 18005KT 9999 VCSH SCT015TCU BKN100 26/24 A2987 RMK VIS S 5KMS=
201007052000 METAR MRLB 052000Z 14003KT 9999 VCSH SCT020TCU BKN150 28/24 A2983=
201007052100 METAR MRLB 052100Z 23003KT 9999 FEW015 BKN240 28/24 A2981=
201007052200 METAR MRLB 052200Z 24003KT 9999 FEW015 SCT100 BKN240 28/25 A2981=
201007052300 METAR MRLB 052300Z 32003KT 9999 FEW025 SCT100 BKN220 27/24 A2982=
201007060000 METAR MRLB 060000Z 00000KT 9999 FEW025 SCT100 27/24 A2982=
201007060100 METAR MRLB 060100Z 00000KT 9999 FEW015 SCT100 26/25 A2984=
201007060200 METAR MRLB 060200Z 00000KT 9999 FEW020 SCT100 26/25 A2986=
201007060300 METAR MRLB NIL=
201007060400 METAR MRLB NIL=
201007060500 METAR MRLB NIL=
201007060600 METAR MRLB NIL=
201007060700 METAR MRLB NIL=
201007060800 METAR MRLB NIL=
201007060900 METAR MRLB NIL=
201007061000 METAR MRLB NIL=
201007061100 METAR MRLB NIL=
201007061200 METAR MRLB 061200Z 00000KT 9999 SCT030 BKN230 25/24 A2982=
201007061300 METAR MRLB 061300Z 13004KT 9999 FEW035 BKN230 27/24 A2985=
201007061400 METAR MRLB 061400Z 14004KT 9999 SCT035 BKN230 28/24 A2986=
201007061500 METAR MRLB 061500Z 16003KT 9999 SCT035 BKN230 29/24 A2988=
201007061600 METAR MRLB 061600Z 17003KT 9999 SCT035 BKN240 29/24 A2988 NOSIG=
201007061700 METAR MRLB 061700Z 27008KT 9999 RA FEW020TCU SCT035 BKN240 28/25 A2986=
201007061800 METAR MRLB 061800Z 28008KT 9999 SCT035 BKN240 29/25 A2986 RERA RMK RN DST S=
201007061900 METAR MRLB 061900Z 27007KT 9999 VCSH SCT035 BKN240 30/24 A2983=
201007062000 METAR MRLB 062000Z 13006KT 2500 -TSRA SCT007CB BKN020 25/24 A2983 RMK VIS UNL W=
201007062100 METAR MRLB 062100Z 05002KT 9999 -RA SCT030 BKN100 25/24 A2980 RERA=
201007062200 METAR MRLB 062200Z 10003KT 9999 -RA SCT035 BKN100 25/24 A2980=
201007062300 METAR MRLB 062300Z 03002KT 9999 DZ SCT030 BKN100 24/24 A2981=
201007070000 METAR MRLB 070000Z 05003KT 9999 DZ SCT030 BKN100 24/24 A2982=
201007070100 METAR MRLB 070100Z 35003KT 9999 -RA SCT025 BKN100 24/24 A2985=
201007070200 METAR MRLB 070200Z 35003KT 9999 -RA SCT020 24/24 A2986=
201007070300 METAR MRLB NIL=
201007070400 METAR MRLB NIL=
201007070500 METAR MRLB NIL=
201007070600 METAR MRLB NIL=
201007070700 METAR MRLB NIL=
201007070800 METAR MRLB NIL=
201007070900 METAR MRLB NIL=
201007071000 METAR MRLB NIL=
201007071100 METAR MRLB NIL=
201007071200 METAR MRLB 071200Z 06002KT 9999 BKN020 SCT130 24/24 A2985 RMK RN DST N E LOW ST W=
201007071300 METAR MRLB 071300Z 10002KT 9999 SCT010 BKN250 26/24 A2985=
201007071400 METAR MRLB 071400Z 13004KT 9999 BKN015 SCT250 26/24 A2986=
201007071500 METAR MRLB 071500Z 07002KT 9999 BKN020 SCT250 27/24 A2989=
201007071600 METAR MRLB 071600Z 19004KT 9999 BKN025 SCT130 28/24 A2991=
201007071700 METAR MRLB 071700Z 19003KT 9999 SCT025 SCT130 30/23 A2989=
201007071800 METAR MRLB 071800Z 19004KT 9999 VCSH BKN020 SCT230 29/23 A2987=
201007071900 METAR MRLB 071900Z 27009KT 9999 -RA FEW010TCU BKN020 26/24 A2983=
201007072000 METAR MRLB 072000Z 26006KT 1000 SHRA SCT010 BKN020 25/24 A2983=
201007072100 METAR MRLB 072100Z 29006KT 2000 RA BR OVC020 24/24 A2983=
201007072200 METAR MRLB 072200Z 19005KT 9999 SCT010 BKN080 24/23 A2982=
201007072300 METAR MRLB 072300Z 30002KT 9999 SCT015 BKN090 23/23 A2983=
201007080000 METAR MRLB 080000Z 05004KT 9999 -RA SCT020 BKN100 23/23 A2984=
201007080100 METAR MRLB 080100Z 07002KT 9999 FEW020 BKN100 23/23 A2986=
201007080200 METAR MRLB 080200Z 17002KT 9999 FEW020 BKN100 23/23 A2988=
201007080300 METAR MRLB NIL=
201007080400 METAR MRLB NIL=
201007080500 METAR MRLB NIL=
201007080600 METAR MRLB NIL=
201007080700 METAR MRLB NIL=
201007080800 METAR MRLB NIL=
201007080900 METAR MRLB NIL=
201007081000 METAR MRLB NIL=
201007081100 METAR MRLB NIL=
201007081200 METAR MRLB 081200Z 20007KT 9999 FEW003 SCT025 BKN100 23/23 A2986 RMK LOW ST ARND=
201007081300 METAR MRLB 081300Z 00000KT 9999 FEW005 SCT020 BKN100 23/23 A2988 RMK LOW ST ARND=
201007081400 METAR MRLB 081400Z 15005KT 9999 DZ FEW005 SCT012 BKN080 24/23 A2989=
201007081500 METAR MRLB 081500Z 21005KT 9999 DZ SCT010 BKN070 24/23 A2992=
201007081600 METAR MRLB 081600Z 20003KT 9999 -DZ SCT010 BKN100 25/23 A2993=
201007081700 METAR MRLB 081700Z 27003KT 9999 SCT010 BKN120 26/23 A2991 REDZ=
201007081800 METAR MRLB 081800Z 00000KT 9999 SCT010 BKN140 26/23 A2990=
201007081900 METAR MRLB 081900Z 00000KT 9999 SCT015 BKN150 27/23 A2988=
201007082000 METAR MRLB 082000Z 29006KT 9999 SCT015 BKN180 28/23 A2984=
201007082100 METAR MRLB 082100Z 03003KT 9999 SCT015 BKN120 28/23 A2983=
201007082200 METAR MRLB 082200Z 33004KT 9999 FEW020 BKN200 28/23 A2982=
201007082300 METAR MRLB 082300Z 28006KT 9999 FEW015 BKN220 27/24 A2980=
201007090000 METAR MRLB 090000Z 00000KT CAVOK 26/24 A2980 RMK FEW100 BKN250=
201007090100 METAR MRLB 090100Z 00000KT CAVOK 25/21 A2982 RMK FEW100 SCT250=
201007090200 METAR MRLB 090200Z 00000KT CAVOK 25/24 A2984 RMK FEW100 SCT180=
201007090300 METAR MRLB NIL=
201007090400 METAR MRLB NIL=
201007090500 METAR MRLB NIL=
201007090600 METAR MRLB NIL=
201007090700 METAR MRLB NIL=
201007090800 METAR MRLB NIL=
201007090900 METAR MRLB NIL=
201007091000 METAR MRLB NIL=
201007091100 METAR MRLB NIL=
201007091200 METAR MRLB 091200Z 03002KT 9999 FEW030 BKN250 24/23 A2984 RMK LOW ET SW=
201007091300 METAR MRLB 091300Z 00000KT 9999 FEW035 BKN250 26/24 A2985=
201007091400 METAR MRLB 091400Z 00000KT 9999 FEW035 BKN250 28/24 A2986=
201007091500 METAR MRLB 091500Z 18004KT 9999 SCT035 BKN250 28/24 A2987=
201007091600 METAR MRLB 091600Z 24004KT 9999 FEW035 BKN250 29/24 A2987=
201007091700 METAR MRLB 091700Z 21002KT 9999 FEW035 BKN250 31/25 A2986=
201007091800 METAR MRLB 091800Z 24002KT 9999 SCT035 BKN250 31/24 A2984=
201007091900 METAR MRLB 091900Z 34003KT 9999 SCT035 BKN250 31/25 A2982=
201007092000 METAR MRLB 092000Z 26006KT 9999 SCT035 BKN250 32/25 A2979=
201007092100 METAR MRLB 092100Z 25008KT 9999 SCT035 BKN250 32/25 A2977=
201007092200 METAR MRLB 092200Z 24006KT 9999 -RA SCT030 BKN240 28/26 A2976 RERA=
201007092300 METAR MRLB 092300Z 29004KT 9999 SCT035 BKN240 29/25 A2975=
201007100000 METAR MRLB 100000Z 24005KT 9999 SCT035 BKN140 28/25 A2977 RMK RN DST S=
201007100100 METAR MRLB 100100Z 16003KT 9999 SCT025 BKN230 27/25 A2977=
201007100200 METAR MRLB 100200Z 17002KT 9999 SCT035 BKN230 26/25 A2979=
201007100300 METAR MRLB NIL=
201007100400 METAR MRLB NIL=
201007100500 METAR MRLB NIL=
201007100600 METAR MRLB NIL=
201007100700 METAR MRLB NIL=
201007100800 METAR MRLB NIL=
201007100900 METAR MRLB NIL=
201007101000 METAR MRLB NIL=
201007101100 METAR MRLB NIL=
201007101200 METAR MRLB 101200Z 20003KT CAVOK 24/24 A2978 RMK OVC130=
201007101300 METAR MRLB 101300Z 25003KT CAVOK 25/24 A2980 RMK OVC130=
201007101400 METAR MRLB 101400Z 21002KT CAVOK 27/24 A2982 RMK OVC130=
201007101500 METAR MRLB 101500Z 31004KT CAVOK 28/24 A2984 RMK OVC130=
201007101600 METAR MRLB 101600Z 26004KT 9999 FEW035 BKN130 30/24 A2984=
201007101700 METAR MRLB 101700Z 21004KT 9999 SCT035 BKN130 31/24 A2984=
201007101800 METAR MRLB 101800Z 10007KT 9999 FEW035 SCT130 BKN250 32/23 A2983=
201007101900 METAR MRLB 101900Z 12006KT 9999 SCT035 BKN130 32/24 A2982=
201007102000 METAR MRLB 102000Z 11004KT 9999 SCT035 BKN130 32/23 A2979 RMK RN DST S=
201007102100 METAR MRLB 102100Z 10004KT 9999 SCT020 SCT100 32/24 A2977 RN DST N S SW=
201007102200 METAR MRLB 102200Z 14007KT 5000 2000E RA SCT020 BKN100 26/24 A2978 RETS DST W=
201007102300 METAR MRLB 102300Z 14005KT 9999 -RA SCT020 SCT100 26/25 A2979=
201007102352 METAR MRLB 110000Z 19002KT 9999 BKN025 SCT120 26/25 A2981=
201007110000 METAR MRLB 110000Z 19002KT 9999 BKN025 SCT120 26/25 A2981=
201007110100 METAR MRLB 110100Z 10002KT 9999 SCT025 SCT120 26/24 A2984=
201007110200 METAR MRLB 110200Z 09002KT 9999 SCT025 BKN120 26/24 A2984=
201007110300 METAR MRLB NIL=
201007110400 METAR MRLB NIL=
201007110500 METAR MRLB NIL=
201007110600 METAR MRLB NIL=
201007110700 METAR MRLB NIL=
201007110800 METAR MRLB NIL=
201007110900 METAR MRLB NIL=
201007111000 METAR MRLB NIL=
201007111100 METAR MRLB NIL=
201007111200 METAR MRLB 111200Z 00000KT 9999 FEW020 SCT100 BKN250 24/24 A2982 RMK LOW ST ARND=
201007111300 METAR MRLB 111300Z 04003KT 9999 FEW020 SCT100 BKN250 25/24 A2983 RMK LOW ST ARND=
201007111400 METAR MRLB 111400Z 02004KT 9999 SCT010 BKN100 25/24 A2987=
201007111500 METAR MRLB 111500Z 00000KT 9999 SCT015 BKN240 27/24 A2988=
201007111600 METAR MRLB 111600Z 29003KT 9999 SCT015 BKN170 28/24 A2989=
201007111700 METAR MRLB 111700Z 30003KT 9999 SCT015 BKN170 28/24 A2988=
201007111800 METAR MRLB 111800Z 00000KT 9999 SCT015 BKN170 30/24 A2985=
201007111900 METAR MRLB 111900Z 17003KT 9999 SCT015 BKN250 31/24 A2983=
201007112000 METAR MRLB 112000Z 00000KT 9999 SCT012 BKN250 31/24 A2981=
201007112100 METAR MRLB 112100Z 26008KT 9999 SCT015TCU BKN150 29/25 A2978=
201007112200 METAR MRLB 112200Z 27010KT 9999 FEW015CB SCT100 BKN180 28/25 A2977 RMK CB RN N NE S=
201007112300 METAR MRLB 112300Z 17010KT 0500 TSRA SCT010CB BKN020 25/25 A2979=
201007120000 METAR MRLB 120000Z 01012KT 3000 +TSRA SCT010CB BKN040 24/24 A2981=
201007120100 METAR MRLB 120100Z 03004KT 8000 DZ SCT012CB OVC100 23/234 A2983 LTNG DST S=
201007120200 METAR MRLB 120200Z 01003KT 8000 -DZ SCT015 BKN120 24/23 A2985 LTNG DST S=
201007120300 METAR MRLB NIL=
201007120400 METAR MRLB NIL=
201007120500 METAR MRLB NIL=
201007120600 METAR MRLB NIL=
201007120700 METAR MRLB NIL=
201007120800 METAR MRLB NIL=
201007120900 METAR MRLB NIL=
201007121000 METAR MRLB NIL=
201007121100 METAR MRLB NIL=
201007121200 METAR MRLB 121200Z 05002KT 9999 FEW035 BKN130 24/23 A2983=
201007121300 METAR MRLB 121300Z 30002KT 9999 FEW035 BKN140 25/24 A2983=
201007121400 METAR MRLB 121400Z 19005KT 9999 SCT035 BKN140 25/24 A2984=
201007121500 METAR MRLB 121500Z 06002KT 9999 FEW035 BKN250 22/18 A2987=
201007121600 METAR MRLB 121600Z 12002KT 9999 SCT035 BKN140 29/24 A2989=
201007121700 METAR MRLB 121700Z 35003KT 9999 SCT035 BKN140 29/24 A2989=
201007121800 METAR MRLB 121800Z 27003KT 9999 SCT035 BKN240 30/23 A2988=
201007121900 METAR MRLB 121900Z 21003KT 9999 FEW035 BKN140 30/23 A2984=
201007122000 METAR MRLB 122000Z 26003KT 9999 SCT035 BKN250 31/24 A2982 RMK RA DST E=
201007122100 METAR MRLB NIL=
201007122200 METAR MRLB 122200Z 28007KT 9999 RA SCT030 BKN120 28/24 A2979=
201007122300 METAR MRLB 122300Z 24006KT 9999 VCSH SCT025 BKN120 24/23 A2980 RERA=
201007130000 METAR MRLB 130000Z 23004KT 9999 -RA SCT025 BKN100 24/23 A2983=
201007130100 METAR MRLB 130100Z 00000KT 9999 SCT030 BKN100 24/23 A2985=
201007130200 METAR MRLB NIL=
201007130300 METAR MRLB NIL=
201007130400 METAR MRLB NIL=
201007130500 METAR MRLB NIL=
201007130600 METAR MRLB NIL=
201007130700 METAR MRLB NIL=
201007130800 METAR MRLB NIL=
201007130900 METAR MRLB NIL=
201007131000 METAR MRLB NIL=
201007131100 METAR MRLB NIL=
201007131200 METAR MRLB 131200Z 05003KT CAVOK 23/22 A2983 RMK OVC120=
201007131300 METAR MRLB 131300Z 06002KT CAVOK 25/24 A2984 RMK OVC120=
201007131400 METAR MRLB 131400Z 18005KT 9999 FEW010 BKN120 26/24 A2985=
201007131500 METAR MRLB 131500Z 15003KT 9999 FEW020 BKN130 27/24 A2988=
201007131600 METAR MRLB NIL=
201007131700 METAR MRLB 131700Z 09005KT 9999 FEW030 BKN130 30/23 A2988=
201007131800 METAR MRLB 131800Z 02003KT 9999 SCT030 BKN130 30/23 A2987=
201007131900 METAR MRLB 131900Z 18002KT 9999 SCT020 BKN120 31/24 A2983 RMK RA DST E CB DST S SW=
201007132000 METAR MRLB 132000Z 32003KT 9999 SCT020 BKN120 31/24 A2982 RMK RN DST SE S SW=
201007132100 METAR MRLB 132100Z 28007KT 9999 SCT020TCU BKN120 30/25 A2979 RMK RA DST E S SW=
201007132135 METAR MRLB 132135Z 21003KT 9999 4000W RA SCT005 BKN100 25/25 A2980 RMK TS DST W RASH=
201007132200 METAR MRLB NIL=
201007132300 METAR MRLB 132300Z 08009KT 3000 RA FEW010 BKN100 23/23 A2984 RMK TS DST W=
201007140000 METAR MRLB 140000Z 08002KT 9999 -RA FEW010 BKN090 23/23 A2982 RERA RMK TS DST S=
201007140100 METAR MRLB 140100Z 34004KT 9999 -RA FEW010 BKN100 23/23 A2983=
201007140200 METAR MRLB 140200Z 03003KT 9999 -RA FEW015 BKN100 23/23 A2985=
201007140300 METAR MRLB NIL=
201007140400 METAR MRLB NIL=
201007140500 METAR MRLB NIL=
201007140600 METAR MRLB NIL=
201007140700 METAR MRLB NIL=
201007140800 METAR MRLB NIL=
201007140900 METAR MRLB NIL=
201007141000 METAR MRLB NIL=
201007141100 METAR MRLB NIL=
201007141200 METAR MRLB 141200Z 00000KT 9999 FEW030 SCT150 22/22 A2984 RMK LOW ST ARND=
201007141300 METAR MRLB 141300Z 00000KT 9999 FEW010 SCT250 23/23 A2985 RMK LOW ST ARND=
201007141400 METAR MRLB 141400Z 22003KT 9999 FEW010 SCT100 BKN250 25/23 A2986=
201007141500 METAR MRLB 141500Z 00000KT 9999 -RA SCT020 BKN100 25/24 A2989=
201007141600 METAR MRLB 141600Z 05006KT 9999 FEW015 SCT100 BKN250 28/22 A2988=
201007141700 METAR MRLB 141700Z 11006KT 9999 FEW025 SCT120 BKN250 29/22 A2988=
201007141800 METAR MRLB 141800Z 06007KT CAVOK 30/23 A2986 RMK FEW100 BKN250=
201007141900 METAR MRLB 141900Z 09008KT CAVOK 32/21 A2983 RMK FEW100 SCT250=
201007142000 METAR MRLB 142000Z 10009KT 9999 FEW020 SCT250 32/22 A2981=
201007142100 METAR MRLB 142100Z 07010KT 9999 FEW020 BKN180 30/22 A2982=
201007142200 METAR MRLB 142200Z 06011KT 9999 FEW035 SCT180 30/22 A2982=
201007142300 METAR MRLB 142300Z 09008KT CAVOK 29/22 A2983 RMK FEW100 SCT220=
201007150000 METAR MRLB 150000Z 08004KT 9999 CAVOK 28/22 A2982 RMK FEW100 SCT250=
201007150100 METAR MRLB 150100Z 08003KT CAVOK 26/23 A2983 RMK FEW120 SCT250=
201007150200 METAR MRLB 150200Z 06003KT CAVOK 26/23 A2985 RMK FEW100 SCT250=
201007150300 METAR MRLB NIL=
201007150400 METAR MRLB NIL=
201007150500 METAR MRLB NIL=
201007150600 METAR MRLB NIL=
201007150700 METAR MRLB NIL=
201007150800 METAR MRLB NIL=
201007150900 METAR MRLB NIL=
201007151000 METAR MRLB NIL=
201007151100 METAR MRLB NIL=
201007151200 METAR MRLB 151200Z 12002KT 9999 SCT030 BKN130 24/22 A2984=
201007151300 METAR MRLB 151300Z 18003KT 9999 FEW035 SCT130 26/23 A2984=
201007151400 METAR MRLB 151400Z 28004KT 9999 FEW035 BKN130 27/23 A2985=
201007151500 METAR MRLB 151500Z 18004KT 9999 FEW035 BKN130 28/23 A2986=
201007151600 METAR MRLB 151600Z 09005KT 9999 SCT035 BKN130 29/22 A2987=
201007151700 METAR MRLB 151700Z 07009KT 999 SCT035 BKN130 29/22 A2986=
201007151800 METAR MRLB 151800Z 10007KT 9999 FEW035 BKN120 28/23 A2985=
201007151900 METAR MRLB 151900Z 11006KT 9999 FEW035 BKN120 28/22 A2984=
201007152000 METAR MRLB 152000Z 14005KT 9999 FEW035 BKN120 28/23 A2982=
201007152100 METAR MRLB 152100Z 12007KT 9999 FEW035 BKN120 28/22 A2981=
201007152200 METAR MRLB 152200Z 09006KT 9999 SCT030 BKN120 28/22 A2981=
201007152300 METAR MRLB 152300Z 08006KT 9999 SCT035 BKN120 27/22 A2981=
201007160000 METAR MRLB NIL=
201007160100 METAR MRLB 160100Z 09004KT 9999 SCT035 BKN120 26/22 A2984=
201007160200 METAR MRLB 160200Z 10005KT 9999 SCT035 BKN120 25/22 A2986=
201007160300 METAR MRLB NIL=
201007160400 METAR MRLB NIL=
201007160500 METAR MRLB NIL=
201007160600 METAR MRLB NIL=
201007160700 METAR MRLB NIL=
201007160800 METAR MRLB NIL=
201007160900 METAR MRLB NIL=
201007161000 METAR MRLB NIL=
201007161100 METAR MRLB NIL=
201007161200 METAR MRLB 161200Z 00000KT 9999 FEW010 BKN120 24/23 A2987=
201007161300 METAR MRLB 161300Z 00000KT 9999 FEW010 25/24 A2990 RMK LOW ST SW=
201007161400 METAR MRLB 161400Z 12003KT 9999 SCT015 BKN120 26/24 A2990=
201007161500 METAR MRLB 161500Z 18004KT 9999 BKN015 SCT130 27/24 A2992=
201007161600 METAR MRLB 161600Z 17004KT 9999 SCT020 SCT250 28/23 A2991=
201007161700 METAR MRLB 161700Z 16003KT 9999 BKN020 SCT130 29/23 A2992 RMK RN DST N=
201007161800 METAR MRLB 161800Z 15007KT 9999 SCT025 BKN130 29/23 A2991=
201007161900 METAR MRLB 161900Z 15009KT 9999 SCT025 BKN130 29/23 A2989 RMK RA DST N NE=
201007162000 METAR MRLB 162000Z 14008KT 9999 SCT020 BKN130 29/24 A2987 RMK RA DST N W NW=
201007162100 METAR MRLB 162100Z 15005KT 9999 BKN015 SCT120 28/24 A2986 RMK RA DST N S W=
201007162145 METAR MRLB 162145Z 26013KT 9999 3000W RA SCT010 BKN020 24/22 A2985=
201007162200 METAR MRLB 162200Z 25013KT 9999 -TSRA FEW010CB BKN020 23/22 A2984=
201007162300 METAR MRLB 162300Z 10003KT 9999 -RA SCT010 BKN100 25/24 A2984 RETS=
201007170000 METAR MRLB 170000Z 10004KT 9999 -RA SCT010 SCT100 25/24 A2986=
201007170100 METAR MRLB 170100Z 10003KT 9999 SCT010 SCT100 25/24 A2986=
201007170200 METAR MRLB 170200Z 09004KT 9999 -RA SCT010 SCT100 25/24 A2990=
201007170300 METAR MRLB NIL=
201007170400 METAR MRLB NIL=
201007170500 METAR MRLB NIL=
201007170600 METAR MRLB NIL=
201007170700 METAR MRLB NIL=
201007170800 METAR MRLB NIL=
201007170900 METAR MRLB NIL=
201007171000 METAR MRLB NIL=
201007171100 METAR MRLB NIL=
201007171200 METAR MRLB 171200Z 00000KT 9999 FEW015 SCT100 24/23 A2991=
201007171300 METAR MRLB 171300Z 09004KT 9999 FEW020 SCT140 25/23 A2992=
201007171400 METAR MRLB 171400Z 10003KT 9999 SCT015 BKN100 25/23 A2994=
201007171500 METAR MRLB 171500Z 10004KT 9999 SCT012 BKN100 25/23 A2995=
201007171600 METAR MRLB 171600Z 12004KT 9999 VCSH SCT012 BKN100 26/23 A2994=
201007171700 METAR MRLB 171700Z 13004KT 9999 VCSH SCT015 BKN100 26/24 A2994=
201007171800 METAR MRLB 171800Z 11005KT 9999 SCT020 BKN120 28/23 A2993 RMK RN ARND=
201007171900 METAR MRLB 171900Z 12004KT 9999 SCT015 BKN120 28723 A2991 RMK RA DST SE=
201007172000 METAR MRLB 172000Z 15007KT 9999 SCT020TCU BKN150 27/24 A2989 RMK RA S SW=
201007172100 METAR MRLB 172100Z 11008KT 9999 VCSH SCT020 BKN150 28/23 A2988=
201007172200 METAR MRLB 172200Z 16006KT 9999 VCSH SCT015 BKN100 27/23 A2986 PCPN S SW=
201007172300 METAR MRLB 172300Z 12004KT 9999 VCSH SCT015 BKN150 27/24 A2986 PCPN NE E SE=
201007180000 METAR MRLB 180000Z 10004KT 9999 FEW020 SCT100 BKN180 25/23 A2988=
201007180100 METAR MRLB 180100Z 11004KT 9999 FEW015 SCT100 25/23 A2990=
201007180200 METAR MRLB NIL=
201007180300 METAR MRLB NIL=
201007180400 METAR MRLB NIL=
201007180500 METAR MRLB NIL=
201007180600 METAR MRLB NIL=
201007180700 METAR MRLB NIL=
201007180800 METAR MRLB NIL=
201007180900 METAR MRLB NIL=
201007181000 METAR MRLB NIL=
201007181100 METAR MRLB NIL=
201007181200 METAR MRLB 181200Z 00000KT 9999 2500SW BR SCT020 BKN130 24/23 A2991=
201007181300 METAR MRLB 181300Z 15002KT 9999 SCT030 BKN130 24/23 A2992=
201007181400 METAR MRLB 181400Z 18003KT 9999 FEW035 BKN130 26/23 A2993=
201007181500 METAR MRLB 181500Z 16004KT 9999 FEW035 BKN130 28/24 A2993=
201007181600 METAR MRLB 181600Z 13003KT 9999 SCT035 SCT140 30/23 A2995=
201007181700 METAR MRLB 181700Z 25003KT 9999 SCT035 BKN140 29/24 A2995=
201007181800 METAR MRLB 181800Z 27008KT 9999 VCSH SCT035 BKN140 30/24 A2993 RMK RN SW=
201007181900 METAR MRLB 181900Z 23011KT 9999 4000SW RA FEW020TCU SCT035 BKN130 27/24 A2991=
201007182000 METAR MRLB 182000Z 27008KT 9999 -RA SCT030 BKN130 26/25 A2988 RERA=
201007182100 METAR MRLB 182100Z 22007KT 9999 SCT030 BKN130 27/24 A2987 RMK RN DST S SE=
201007182200 METAR MRLB 182200Z 22006KT 9999 SCT035 BKN120 26/23 A2986 RMK RA DST S=
201007182300 METAR MRLB 182300Z 00000KT 9999 SCT035 BKN120 26/23 A2986=
201007190000 METAR MRLB 190000Z 00000KT 9999 SCT035 BKN120 26/24 A2988=
201007190100 METAR MRLB 190100Z 06003KT 9999 SCT030 BKN120 25/24 A2990=
201007190200 METAR MRLB 190200Z 22004KT 9999 DZ SCT035 BKN130 24/23 A2992=
201007190300 METAR MRLB NIL=
201007190400 METAR MRLB NIL=
201007190500 METAR MRLB NIL=
201007190600 METAR MRLB NIL=
201007190700 METAR MRLB NIL=
201007190800 METAR MRLB NIL=
201007190900 METAR MRLB NIL=
201007191000 METAR MRLB NIL=
201007191100 METAR MRLB NIL=
201007191200 METAR MRLB 191200Z 00000KT 9999 3000NE BR FEW005 SCT010 BKN120 24/24 A2988=
201007191300 METAR MRLB 191300Z 00000KT 9999 2000NE BR FEW005 SCT010 BKN120 25/24 A2989=
201007191400 METAR MRLB 191400Z 00000KT 9999 SCT010 BKN120 25/24 A2990=
201007191500 METAR MRLB 191500Z 00000KT 9999 -DZ SCT010 SCT120 26/25 A2993=
201007191600 METAR MRLB 191600Z 30002KT 9999 -DZ SCT010 SCT120 27/24 A2993=
201007191700 METAR MRLB 191700Z 02003KT 9999 VCSH SCT010 BKN120 27/25 A2992=
201007191800 METAR MRLB 191800Z 24004KT 9999 -RA BKN010 SCT120 26/25 A2992=
201007191900 METAR MRLB 191900Z 25006KT 9999 SCT010 BKN250 28/25 A2988 RMK RA DST W S SW=
201007192000 METAR MRLB 192000Z 28009KT 9999 SCT010 BKN250 28/25 A2986 RMK CB DST NW S=
201007192100 METAR MRLB 192100Z 04005KT CAVOK 29/24 A2982 BKN240=
201007192200 METAR MRLB 192200Z 28012KT 9999 FEW020 SCT120 BKN250 28/24 A2983 RMK RA N NE=
201007192300 METAR MRLB 192300Z 26008KT 9999 FEW020 BKN120 27/24 A2983=
201007200000 METAR MRLB 200000Z 25004KT 9999 FEW020 BKN250 27/24 A2984=
201007200100 METAR MRLB 200100Z 19004KT 9999 FEW020 BKN250 26/24 A2986=
201007200200 METAR MRLB 200200Z 21003KT 9999 FEW020 BKN250 26/24 A2987=
201007200300 METAR MRLB 200300Z 21003KT 9999 FEW020 BKN250 26/24 A2987=
201007200400 METAR MRLB NIL=
201007200500 METAR MRLB NIL=
201007200600 METAR MRLB NIL=
201007200700 METAR MRLB NIL=
201007200800 METAR MRLB NIL=
201007200900 METAR MRLB NIL=
201007201000 METAR MRLB NIL=
201007201100 METAR MRLB NIL=
201007201200 METAR MRLB 201200Z 00000KT 9999 1000SW BR FEW001 SCT012 BKN100 24/24 A2988=
201007201300 METAR MRLB 201300Z 16003KT 6000 BR FEW001 BKN025 25/25 A2989 RMK VIS S 2KMS=
201007201400 METAR MRLB 201400Z 00000KT 9999 SCT010 BKN100 26/24 A2991=
201007201500 METAR MRLB 201500Z 00000KT 9999 SCT012 BKN100 28/25 A2990=
201007201600 METAR MRLB 201600Z 25005KT 9999 SCT015 BKN100 28/24 A2992=
201007201700 METAR MRLB 201700Z 24007KT 9999 SCT015 BKN100 29/25 A2992 RMK RA DST SW=
201007201800 METAR MRLB 201800Z 26010KT 9999 VCSH SCT015TCU BKN140 29/25 A2991 RMK RA S SW W=
201007201900 METAR MRLB 201900Z 23010KT 9999 4000SW -RA BR SCT012 BKN120 27/25 A2988=
201007202000 METAR MRLB 202000Z 22008KT 2000 RA SCT010 BKN030 25/25 A2987=
201007202100 METAR MRLB 202100Z 23004KT 3000 -RA BR SCT010CB BKN035 24/24 A2987=
201007202200 METAR MRLB 202200Z 13004KT 9000 -RA BR SCT015CB BKN100 24/24 A2986=
201007202300 METAR MRLB 202300Z 31004KT 9000 -RA SCT015 BKN090 24/24 A2987=
201007210000 METAR MRLB 210000Z 14004KT 9000 -RABR SCT010 BKN050 24/24 A2985=
201007210100 METAR MRLB 210100Z 10003KT 9000 -RA SCT010 BKN080 24/24 A2989=
201007210200 METAR MRLB 210200Z 12003KT 8000 -RA SCT010 BKN070 24/24 A2991=
201007210300 METAR MRLB NIL=
201007210400 METAR MRLB NIL=
201007210500 METAR MRLB NIL=
201007210600 METAR MRLB NIL=
201007210700 METAR MRLB NIL=
201007210800 METAR MRLB NIL=
201007210900 METAR MRLB NIL=
201007211000 METAR MRLB NIL=
201007211100 METAR MRLB NIL=
201007211200 METAR MRLB 211200Z 08002KT 9999 FEW030 SCT250 24/23 A2986=
201007211300 METAR MRLB 211300Z 13003KT 9999 SCT035 SCT250 26/24 A2988=
201007211400 METAR MRLB 211400Z 32003KT 9999 FEW035 SCT250 27/24 A2989=
201007211500 METAR MRLB 211500Z 35002KT 9999 SCT035 SCT250 28/24 A2991=
201007211600 METAR MRLB 211600Z 25004KT 9999 SCT035 SCT250 29/24 A2992=
201007211700 METAR MRLB 211700Z 28008KT 9999 SCT035 BKN250 30/24 A2992=
201007211800 METAR MRLB 211800Z 26006KT 9999 SCT035 SCT250 30/24 A2990 RN DST S=
201007211900 METAR MRLB 211900Z 26009KT 9999 SCT035 BKN250 30/24 A2989 RN DST E/S=
201007212000 METAR MRLB 212000Z 28008KT 9999 FEW035 BKN250 29724 A2986=
201007212100 METAR MRLB 212100Z 28010KT 9999 FEW035 BKN130 29/24 A2985 RMK RA DST E NE=
201007212200 METAR MRLB 212200Z 27007KT 9999 SCT035 BKN130 27/24 A2983=
201007212300 METAR MRLB 212300Z 27005KT 9999 SCT035 BKN130 28/24 A2985 RMK RA DST S SE=
201007220000 METAR MRLB 220000Z 32003KT 9999 SCT030 BKN110 27/25 A2985=
201007220100 METAR MRLB 220100Z 20002KT 9999 SCT035 BKN120 26/25 A2987=
201007220200 METAR MRLB 220200Z 17003KT 9999 SCT035 BKN120 26/25 A2989=
201007220300 METAR MRLB NIL=
201007220400 METAR MRLB NIL=
201007220500 METAR MRLB NIL=
201007220600 METAR MRLB NIL=
201007220700 METAR MRLB NIL=
201007220800 METAR MRLB NIL=
201007220900 METAR MRLB NIL=
201007221000 METAR MRLB NIL=
201007221100 METAR MRLB NIL=
201007221200 METAR MRLB 221200Z 03004KT 0100 FG VV/// 24/24 A2986=
201007221300 METAR MRLB 221300Z 00000KT 9999 2000W BR FEW002 SCT010 24/24 A2988=
201007221400 METAR MRLB 221400Z 00000KT 9999 FEW010 BKN250 27/25 A2989 RMK CB DST W=
201007221500 METAR MRLB NIL=
201007221600 METAR MRLB 221600Z 17003KT 9999 SCT025 BKN250 30/24 A2992=
201007221700 METAR MRLB 221700Z 16003KT 9999 SCT025 BKN100 30/25 A2992=
201007221800 METAR MRLB 221800Z 27011KT 9999 BKN025 SCT100 30/25 A2991 RMK RN DST N NE W=
201007221900 METAR MRLB 221900Z 05008KT 9999 VCSH FEW010 BKN120 28/25 A2987 RMK TS DST E=
201007222000 METAR MRLB 222000Z 19004KT 9999 -RA FEW010 BKN120 27/26 A2985 RERA=
201007222100 METAR MRLB 222100Z 32006KT 9999 SCT020 SCT250 29/25 A2982=
201007222200 METAR MRLB 222200Z 29006KT 9999 SCT020 SCT250 30/25 A2982=
201007222300 METAR MRLB 222300Z 26009KT 9999 SCT020 BKN120 29/24 A2982=
201007230000 METAR MRLB 230000Z 27006KT 9999 FEW020 BKN250 28/24 A2984 RMK CB DST S=
201007230100 METAR MRLB 230100Z 27003KT 9999 FEW020 SCT120 BKN250 27/24 A2986=
201007230200 METAR MRLB 230200Z 00000KT 9999 FEW020 BKN120 26/24 A2988 RMK LTNG DST E=
201007230300 METAR MRLB NIL=
201007230400 METAR MRLB NIL=
201007230500 METAR MRLB NIL=
201007230600 METAR MRLB NIL=
201007230700 METAR MRLB NIL=
201007230800 METAR MRLB NIL=
201007230900 METAR MRLB NIL=
201007231000 METAR MRLB NIL=
201007231100 METAR MRLB NIL=
201007231200 METAR MRLB 231200Z 33004KT 6000 VCFG SCT010 BKN250 25/24 A2985=
201007231300 METAR MRLB 231300Z 35003KT 9999 SCT010 BKN170 26/25 A2987=
201007231400 METAR MRLB 231400Z 00000KT 9999 SCT012 BKN250 27/24 A2989=
201007231500 METAR MRLB 231500Z 21005KT 9999 SCT015 BKN220 27/24 A2991=
201007231600 METAR MRLB 231600Z 27005KT 9999 FEW015 SCT035 BKN220 29/24 A2992=
201007231700 METAR MRLB 231700Z 27010KT 9999 SCT020 BKN250 30/24 A2992=
201007231800 METAR MRLB 231800Z 27008KT 9999 SCT020 BKN250 31/24 A2991=
201007231900 METAR MRLB 231900Z 28010KT 9999 SCT020 BKN250 30/25 A2988 RMK PCPN DST E=
201007232000 METAR MRLB 232000Z 29010KT 9999 SCT025 BKN250 30/24 A2986=
201007232100 METAR MRLB 232100Z 28008KT 9999 FEW025 SCT240 31/25 A2983=
201007232200 METAR MRLB 232200Z 28010KT 9999 FEW030 SCT250 30/25 A2983=
201007232300 METAR MRLB 232300Z 26010KT 9999 FEW030 SCT250 29/25 A2981=
201007240000 METAR MRLB 240000Z 28008KT CAVOK 28/25 A2983 RMK FEW100 SCT250 TCU S=
201007240100 METAR MRLB 240100Z 28006KT 9999 FEW040 SCT120 27/25 A2986=
201007240200 METAR MRLB NIL=
201007240300 METAR MRLB NIL=
201007240400 METAR MRLB NIL=
201007240500 METAR MRLB NIL=
201007240600 METAR MRLB NIL=
201007240700 METAR MRLB NIL=
201007240800 METAR MRLB NIL=
201007240900 METAR MRLB NIL=
201007241000 METAR MRLB NIL=
201007241100 METAR MRLB NIL=
201007241200 METAR MRLB 241200Z 08002KT 9999 FEW030 BKN250 25/24 A2982 RMK LOW ST ARND=
201007241300 METAR MRLB 241300Z 22002KT 9999 SCT035 SCT250 26/25 A2985 RMK LOW STRATUS SW=
201007241400 METAR MRLB 241400Z 18004KT 9999 SCT035 BKN250 26/25 A2987=
201007241500 METAR MRLB 241500Z 20004KT 9999 SCT035 BKN250 28/25 A2988=
201007241600 METAR MRLB 241600Z 25003KT 9999 FEW035 BKN250 30/25 A2989=
201007241700 METAR MRLB 241700Z 22002KT 9999 FEW035 BKN250 31/24 A2988=
201007241800 METAR MRLB 241800Z 18002KT 9999 SCT035 BKN250 33/24 A2987=
201007241900 METAR MRLB 241900Z 10007KT 9999 SCT035 BKN250 33/23 A2984=
201007242000 METAR MRLB 242000Z 12006KT 9999 SCT035 BKN250 33/23 A2981=
201007242100 METAR MRLB 242100Z 11004KT 9999 SCT035 BKN250 34/24 A2979=
201007242200 METAR MRLB 242200Z 23006KT 9999 SCT035 BKN240 32/25 A2979=
201007242300 METAR MRLB 242300Z 28005KT 9999 SCT035 BKN230 30/25 A2979=
201007250000 METAR MRLB 250000Z 30004KT 9999 SCT035 BKN140 28/25 A2981 RMK RN DST E=
201007250100 METAR MRLB 250100Z 04006KT 9999 SCT030 BKN130 27/26 A2983=
201007250200 METAR MRLB 250200Z 03004KT 9999 SCT035 BKN130 26/25 A2984=
201007250300 METAR MRLB NIL=
201007250400 METAR MRLB NIL=
201007250500 METAR MRLB NIL=
201007250600 METAR MRLB NIL=
201007250700 METAR MRLB NIL=
201007250800 METAR MRLB NIL=
201007250900 METAR MRLB NIL=
201007251000 METAR MRLB NIL=
201007251100 METAR MRLB NIL=
201007251200 METAR MRLB 251200Z 14003KT CAVOK 23/23 A2982 RMK OVC250 CB DST S SW=
201007251300 METAR MRLB 251300Z 19005KT 4000 1000E BR SCT005 BKN250 25/24 A2983=
201007251400 METAR MRLB 251400Z 00000KT 9999 BKN015 SCT250 26/25 A2985=
201007251500 METAR MRLB 251500Z 15004KT 9999 SCT020 BKN250 28/25 A2987=
201007251600 METAR MRLB 251600Z 08002KT 9999 FEW030 BKN250 30/24 A2985=
201007251700 METAR MRLB 251700Z 26002KT 9999 FEW030 BKN250 31/24 A2985=
201007251800 METAR MRLB 251800Z 29002KT 9999 SCT020 BKN250 33/24 A2985 RMK RA DST SW=
201007251900 METAR MRLB 251900Z 18006KT 9999 SCT025 BKN250 31/26 A2982 RMK RA NE SW=
201007252000 METAR MRLB NIL=
201007252100 METAR MRLB NIL=
201007252200 METAR MRLB NIL=
201007252300 METAR MRLB NIL=
201007260000 METAR MRLB NIL=
201007260100 METAR MRLB 260100Z 20005KT 9999 -RA OVC020 24/24 A2982 RMK LTNG DST W=
201007260200 METAR MRLB 260200Z 12003KT 9999 SCT020 SCT100 24/24 A2983 RMK LTNG DST S=
201007260300 METAR MRLB NIL=
201007260400 METAR MRLB NIL=
201007260500 METAR MRLB NIL=
201007260600 METAR MRLB NIL=
201007260700 METAR MRLB NIL=
201007260800 METAR MRLB NIL=
201007260900 METAR MRLB NIL=
201007261000 METAR MRLB NIL=
201007261100 METAR MRLB NIL=
201007261200 METAR MRLB 261200Z 00000KT 9000 FEW010 SCT100 25/24 A2980 RMK LW ST ARND=
201007261300 METAR MRLB 261300Z NIL=
201007261400 METAR MRLB 261400Z 00000KT 9999 FEW015 SCT170 27/25 A2988=
201007261500 METAR MRLB 261500Z 00000KT 9999 FEW015 SCT140 28/24 A2987=
201007261600 METAR MRLB 261600Z 19005KT 9999 SCT020 BKN120 28/25 A2987=
201007261700 METAR MRLB 261700Z 15004KT 9999 SCT025 BKN140 29/25 A2988=
201007261800 METAR MRLB 261800Z 18004KT 9999 SCT025 BKN140 29/24 A2986=
201007261900 METAR MRLB 261900Z 12003KT 9999 SCT025 BKN120 30/24 A2989=
201007262000 METAR MRLB 262000Z 17003KT 9999 SCT020TCU BKN120 30/24 A2987 RMK RA DST N=
201007262100 METAR MRLB 262100Z 34005KT 9999 2000SE SCT010 BKN070 27/25 A2980=
201007262200 METAR MRLB 262200Z 28003KT 9999 -RA SCT015CB BKN100 25/25 A2978=
201007262300 METAR MRLB 262300Z 22003KT 9999 FEW030 BKN100 25/24 A2979=
201007262355 METAR MRLB 270000Z 00000KT 9999 FEW030 BKN100 25/25 A2981=
201007270000 METAR MRLB 270000Z 00000KT 9999 FEW030 BKN100 25/25 A2981=
201007270100 METAR MRLB 270100Z 00000KT 9999 FEW030 BKN100 25/25 A2983=
201007270200 METAR MRLB 270200Z 00000KT 9999 FEW025 BKN100 25/25 A2985=
201007270300 METAR MRLB NIL=
201007270400 METAR MRLB NIL=
201007270500 METAR MRLB NIL=
201007270600 METAR MRLB NIL=
201007270700 METAR MRLB NIL=
201007270800 METAR MRLB NIL=
201007270900 METAR MRLB NIL=
201007271000 METAR MRLB NIL=
201007271100 METAR MRLB NIL=
201007271200 METAR MRLB 271200Z 00000KT 0300 FG VV/// 24/24 A2982=
201007271300 METAR MRLB 271300Z 00000KT 2000 BR SCT003 SCT130 26/25 A2984=
201007271400 METAR MRLB 271400Z 13002KT 9999 SCT035 BKN140 27/24 A2986=
201007271500 METAR MRLB 271500Z 13002KT 9999 SCT035 BKN220 28/25 A2987=
201007271600 METAR MRLB 271600Z 25005KT 9999 SCT035 BKN240 29/25 A2987=
201007271700 METAR MRLB 271700Z 25005KT 9999 SCT035 BKN240 29/25 A2987=
201007271800 METAR MRLB 271800Z 24007KT 9999 SCT035 BKN240 30/25 A2986=
201007271900 METAR MRLB 271900Z 28007KT 9999 SCT035 BKN130 30/25 A2984 RMK RA DST N NE=
201007272000 METAR MRLB 272000Z 04003KT 9999 2500 SW RA SCT010 BKN030 25/23 A2981=
201007272100 METAR MRLB 272100Z 31004KT 9999 RA SCT025 BKN100 26/24 A2981=
201007272200 METAR MRLB 272200Z 14003KT 9999 SCT030 BKN120 25/25 A2980 RERA=
201007272300 METAR MRLB 272300Z 17003KT 9999 -DZ SCT035 BKN120 24/23 A2977=
201007280000 METAR MRLB 280000Z 18003KT 9999 FEW035 BKN120 24/23 A2978 RMK PCPN DST S=
201007280100 METAR MRLB 280100Z 00000KT 9999 FEW035 BKN120 24/23 A2981=
201007280200 METAR MRLB NIL=
201007280300 METAR MRLB NIL=
201007280400 METAR MRLB NIL=
201007280500 METAR MRLB NIL=
201007280600 METAR MRLB NIL=
201007280700 METAR MRLB NIL=
201007280800 METAR MRLB NIL=
201007280900 METAR MRLB NIL=
201007281000 METAR MRLB NIL=
201007281100 METAR MRLB NIL=
201007281200 METAR MRLB 281200Z 11005KT 9999 BKN030 SCT120 24/23 A2986=
201007281300 METAR MRLB 281300Z 10005KT 9999 SCT030 BKN250 25/23 A2988 RMK FEW120 CB DST SW=
201007281400 METAR MRLB 281400Z 13004KT 9999 FEW010 SCT120 BKN250 27/24 A2988=
201007281500 METAR MRLB 281500Z 18003KT 9999 FEW025 BKN250 28/24 A2991 RMK FEW120=
201007281600 METAR MRLB 281600Z 22002KT 9999 FEW030 BKN250 29/24 A2991=
201007281700 METAR MRLB 281700Z 24003KT 9999 BKN020 SCT120 30/24 A2990 RMK RN DST SE=
201007281800 METAR MRLB 281800Z 26006KT 9999 BKN020 SCT120 30/25 A2990 RMK RN DST N NW=
201007281900 METAR MRLB 281900Z 27008KT 9999 -RA OVC020 28/24 A2988=
201007282000 METAR MRLB 282000Z 28009KT 9999 -RA OVC020 28/24 A2986=
201007282100 METAR MRLB 282100Z 32007KT 9999 -RA SCT010 BKN100 26/25 A2984 RETSRA RMK TS DST W=
201007282200 METAR MRLB NIL=
201007282210 METAR MRLB 282210Z 23007KT 9999 FEW020 BKN100 26/24 A2983 RMK RA DST S=
201007282300 METAR MRLB 282300Z 19003KT 9999 SCT020 BKN100 26/25 A2984=
201007290000 METAR MRLB 290000Z 19004KT 9999 FEW020 BKN100 26/25 A2986=
201007290100 METAR MRLB NIL=
201007290200 METAR MRLB 290200Z 13004KT 9999 FEW020 BKN100 25/24 A2992=
201007290300 METAR MRLB NIL=
201007290400 METAR MRLB NIL=
201007290500 METAR MRLB NIL=
201007290600 METAR MRLB NIL=
201007290700 METAR MRLB NIL=
201007290800 METAR MRLB NIL=
201007290900 METAR MRLB NIL=
201007291000 METAR MRLB NIL=
201007291100 METAR MRLB NIL=
201007291200 METAR MRLB 291200Z 07004KT 9999 FEW020 SCT140 24/24 A2990=
201007291300 METAR MRLB 291300Z 00000KT CAVOK 25/24 A2991 RMK FEW100 SCT250=
201007291400 METAR MRLB 291400Z 20004KT 9999 SCT010 BKN250 25/24 A2991=
201007291500 METAR MRLB 291500Z 18005KT 9999 FEW015 SCT250 27/24 A2991=
201007291600 METAR MRLB 291600Z 24006KT 9999 SCT020 BKN120 29/24 A2992=
201007291700 METAR MRLB 291700Z 27004KT 9999 SCT020 BKN120 30/24 A2992=
201007291800 METAR MRLB 291800Z 25006KT 9999 SCT025 BKN140 30/25 A2991=
201007291900 METAR MRLB 291900Z 26006KT 9999 2000E RA SCT010 BKN090 28/24 A2989=
201007292000 METAR MRLB 292000Z 26005KT 9999 SCT020TCU BKN100 26/25 A2984 RERA RMK TCU RA E S SW=
201007292100 METAR MRLB 292100Z 27006KT 9999 SCT020TCU BKN100 28/25 A2985 RMK TCU RA N E S=
201007292200 METAR MRLB 292200Z 04004KT 2000 RA SCT010CB BKN030 25724 A2986=
201007292300 METAR MRLB 292300Z 20003KT 9999 -RA SCT015 BKN100 24/24 A2985=
201007300000 METAR MRLB 300000Z 15007KT 9999 DZ SCT015 BKN100 24/24 A2988=
201007300100 METAR MRLB 300100Z 14004KT 9000 DZ SCT015 OVC100 24/24 A2990=
201007300200 METAR MRLB NIL=
201007300300 METAR MRLB NIL=
201007300400 METAR MRLB NIL=
201007300500 METAR MRLB NIL=
201007300600 METAR MRLB NIL=
201007300700 METAR MRLB NIL=
201007300800 METAR MRLB NIL=
201007300900 METAR MRLB NIL=
201007301000 METAR MRLB NIL=
201007301100 METAR MRLB NIL=
201007301200 METAR MRLB 301200Z 00000KT 0300 FG VV/// 23/22 A2982=
201007301300 METAR MRLB 301300Z 13002KT 1000 BR VV/// 23/23 A2984=
201007301400 METAR MRLB 301400Z 25003KT 9999 3500SW BR SCT006 BKN020 24/23 A2984=
201007301500 METAR MRLB 301500Z 33002KT 9999 BKN025 26/23 A2986=
201007301600 METAR MRLB 301600Z 24007KT 9999 SCT035 BKN250 28/24 A2986=
201007301700 METAR MRLB 301700Z 28005KT 9999 SCT035 SCT250 29/24 A2985=
201007301800 METAR MRLB 301800Z 26005KT 9999 SCT035 BKN250 30/24 A2983=
201007301900 METAR MRLB 301900Z 29007KT 9999 SCT035 BKN240 30/24 A2981 RMK RA DST SE=
201007302000 METAR MRLB 302000Z 28009KT 9999 VCSH FEW020TCU SCT035 BKN230 28/25 A2979=
201007302100 METAR MRLB 302100Z 31005KT 9999 SCT030 BKN140 27/24 A2978 RMK RA DST NE=
201007302200 METAR MRLB 302200Z 28006KT 9999 SCT035 BKN140 28/25 A2977=
201007302300 METAR MRLB 302300Z 29006KT 9999 SCT035 BKN130 27/24 A2979 RMK RA DST S SE=
201007310000 METAR MRLB 310000Z 26003KT 9999 SCT035 BKN130 27/24 A2980 RMK RA DST S=
201007310100 METAR MRLB 310100Z 16003KT 9999 SCT030 BKN120 26/24 A2981=
201007310200 METAR MRLB 310200Z 08002KT 9999 DZ SCT030 BKN120 25/24 A2984=
201007310300 METAR MRLB NIL=
201007310400 METAR MRLB NIL=
201007310500 METAR MRLB NIL=
201007310600 METAR MRLB NIL=
201007310700 METAR MRLB NIL=
201007310800 METAR MRLB NIL=
201007310900 METAR MRLB NIL=
201007311000 METAR MRLB NIL=
201007311100 METAR MRLB NIL=
201007311200 METAR MRLB 311200Z 00000KT 9999 FEW030 BKN120 23/22 A2997 RMK CB DST SW=
201007311300 METAR MRLB 311300Z 00000KT 9999 FEW030 BKN120 24/23 A2979 RMK CB DST SW=
201007311400 METAR MRLB 311400Z 03003KT 9999 FEW010 SCT030 BKN120 25/23 A2980 RMK RN DST N NE=
201007311500 METAR MRLB 311500Z 09005KT 9999 -RA FEW020 BKN100 24/22 A2981=
201007311600 METAR MRLB 311600Z 34003KT 9999 FEW020 BKN120 26/23 A2981=
201007311700 METAR MRLB NIL=
201007311800 METAR MRLB 311800Z 15005KT 9999 FEW020 BKN120 29/24 A2976=
201007311900 METAR MRLB 311900Z 20007KT 9999 SCT020 BKN120 28/25 A2974=
201007312000 METAR MRLB 312000Z 21005KT 9999 FEW020 BKN120 28/25 A2972=
201007312100 METAR MRLB 312100Z 20004KT 9999 FEW025 BKN120 29/25 A2970=
201007312200 METAR MRLB 312200Z 27004KT 9999 SCT025 BKN120 30/25 A2970=
201007312300 METAR MRLB 312300Z 31004KT 9999 SCT030 BKN120 28/25 A2972=
201008010000 METAR MRLB 010000Z 31004KT 9999 SCT020 BKN120 27/25 A2974=
201008010100 METAR MRLB 010100Z 32002KT 9999 SCT010 BKN120 27/25 A2976=
201008010200 METAR MRLB 010200Z 14002KT 9999 SCT010 BKN120 26/25 A2978=
201008010300 METAR MRLB NIL=
201008010400 METAR MRLB NIL=
201008010500 METAR MRLB NIL=
201008010600 METAR MRLB NIL=
201008010700 METAR MRLB NIL=
201008010800 METAR MRLB NIL=
201008010900 METAR MRLB NIL=
201008011000 METAR MRLB NIL=
201008011100 METAR MRLB NIL=
201008011200 METAR MRLB 011200Z 00000KT 8000 VCFG FEW005 SCT100 24/23 A2974=
201008011300 METAR MRLB 011300Z 00000KT 9999 -DZ FEW010 SCT100 24/24 A2976 RMK LOW ST ARND=
201008011400 METAR MRLB 011400Z 22004KT 9999 FEW015 SCT120 25/24 A2977 RMK LOW ST ARND=
201008011500 METAR MRLB 011500Z 20007KT 9999 FEW025 SCT150 26/24 A2977=
201008011600 METAR MRLB 011600Z 15005KT 9999 FEW035 BKN200 28/23 A2977=
201008011700 METAR MRLB NIL=
201008011800 METAR MRLB 011800Z 32004KT 9999 FEW020 BKN150 29/24 A2976=
201008011900 METAR MRLB 011900Z 24006KT 9999 FEW020 BKN150 29/24 A2972=
201008012000 METAR MRLB 012000Z 15006KT 9999 SCT020 BKN120 29/22 A2968=
201008012100 METAR MRLB 012100Z 20004KT CAVOK 28/24 A2967 RMK FEW100 SCT200=
201008012200 METAR MRLB 012200Z 20004KT 9999 FEW025 BKN150 28/23 A2968=
201008012300 METAR MRLB 012300Z 00000KT 9999 FEW025 SCT140 28/23 A2971=
201008020000 METAR MRLB 020000Z 06005KT 9999 FEW035 SCT120 27/24 A2972=
201008020100 METAR MRLB NIL=
201008020200 METAR MRLB NIL=
201008020300 METAR MRLB NIL=
201008020400 METAR MRLB NIL=
201008020500 METAR MRLB NIL=
201008020600 METAR MRLB NIL=
201008020700 METAR MRLB NIL=
201008020800 METAR MRLB NIL=
201008020900 METAR MRLB NIL=
201008021000 METAR MRLB NIL=
201008021100 METAR MRLB NIL=
201008021200 METAR MRLB 021200Z 00000KT 9999 FEW035 BKN140 23/21 A2977=
201008021300 METAR MRLB 021300Z 00000KT 9999 FEW035 BKN140 25/22 A2978=
201008021400 METAR MRLB 021400Z 22003KT 9999 FEW035 BKN140 26/23 A2981=
201008021500 METAR MRLB 021500Z 17003KT 9999 FEW035 SCT240 28/24 A2982=
201008021600 METAR MRLB 021600Z 16004KT 9999 SCT035 SCT240 30/24 A2980=
201008021700 METAR MRLB 021700Z 16006KT 9999 SCT035 BKN240 30/24 A2979=
201008021800 METAR MRLB 021800Z 15007KT 9999 SCT035 BKN140 30/24 A2977=
201008021900 METAR MRLB 021900Z 16008KT 9999 SCT030 BKN130 30/24 A2975 RMK RN DST S SW=
201008022000 METAR MRLB 022000Z 18005KT 9999 SCT030 BKN130 29/24 A2976=
201008022100 METAR MRLB 022100Z 18003KT 9999 SCT030 BKN120 29/24 A2975=
201008022200 METAR MRLB 022200Z 16002KT 9999 SCT030 BKN120 28/24 A2976=
201008022300 METAR MRLB 022300Z 14003KT 9999 SCT030 BKN120 27/23 A2976=
201008030000 METAR MRLB 030000Z 10006KT 9999 FEW035 BKN120 26/23 A2977=
201008030100 METAR MRLB 030100Z 09004KT 9999 SCT035 BKN130 26/23 A2979=
201008030200 METAR MRLB 030200Z 12002KT 9999 SCT035 BKN130 25/23 A2981=
201008030300 METAR MRLB NIL=
201008030400 METAR MRLB NIL=
201008030500 METAR MRLB NIL=
201008030600 METAR MRLB NIL=
201008030700 METAR MRLB NIL=
201008030800 METAR MRLB NIL=
201008030900 METAR MRLB NIL=
201008031000 METAR MRLB NIL=
201008031100 METAR MRLB NIL=
201008031200 METAR MRLB 031200Z 02002KT 9999 SCT010 BKN100 23/23 A2981 RMK LOW ST SW DST=
201008031300 METAR MRLB 031300Z 00000KT 9999 3000SW BR SCT008 BKN120 25/23 A2982=
201008031400 METAR MRLB 031400Z 00000KT 9999 SCT010 SCT120 27/24 A2984=
201008031500 METAR MRLB 031500Z 00000KT 9999 SCT020 SCT140 28/24 A2985=
201008031600 METAR MRLB 031600Z 35004KT 9999 SCT030 BKN130 30/24 A2983=
201008031700 METAR MRLB 031700Z 29004KT 9999 SCT030 BKN130 30/24 A2982=
201008031800 METAR MRLB 031800Z 29005KT 9999 SCT025 BKN130 31/25 A2980 RMK CB DST E=
201008031900 METAR MRLB 031900Z 28006KT 9999 SCT020 BKN130 30/24 A2978=
201008032000 METAR MRLB 032000Z 32006KT 9999 -RA SCT020 BKN120 27/25 A2979 RERA=
201008032100 METAR MRLB 032100Z 17005KT 9999 FEW020 BKN120 28/25 A2977 RMK RA SW=
201008032200 METAR MRLB 032200Z 30005KT 9999 FEW020 BKN120 28/25 A2977=
201008032300 METAR MRLB 032300Z 27004KT CAVOK 27/24 A2976 RMK OVC120=
201008040000 METAR MRLB 040000Z 20002KT 9999 CAVOK 27/25 A2977 RMK OVC120=
201008040100 METAR MRLB 040100Z 18003KT 9999 CAVOK 26/24 A2979 RMK OVC120=
201008040200 METAR MRLB 040200Z 00000KT CAVOK 26/24 A2981 OVC120=
201008040300 METAR MRLB NIL=
201008040400 METAR MRLB NIL=
201008040500 METAR MRLB NIL=
201008040600 METAR MRLB NIL=
201008040700 METAR MRLB NIL=
201008040800 METAR MRLB NIL=
201008040900 METAR MRLB NIL=
201008041100 METAR MRLB NIL=
201008041200 METAR MRLB 041200Z 00000KT 9999 SCT035 SCT250 24/23 A2977 TCU DST SW=
201008041300 METAR MRLB 041300Z 00000KT CAVOK 27/24 A2980 RMK FEW130 SCT250 TCU S SW=
201008041400 METAR MRLB 041400Z 33002KT 9999 FEW040 SCT250 28/24 A2980=
201008041500 METAR MRLB 041500Z 30003KT 9999 FEW040 BKN100 29/24 A2981 RMK FEW250=
201008041600 METAR MRLB 041600Z 31002KT 9999 FEW035 SCT120 30/24 A2980=
201008041700 METAR MRLB 041700Z 27003KT 9999 SCT035 SCT120 31/24 A2997=
201008041800 METAR MRLB 041800Z 12007KT 9999 SCT030 BKN110 31/23 A2976 RMK RA N=
201008041900 METAR MRLB 041900Z 10008KT 9999 FEW035 BKN120 31/23 A2974 RMK FEW250=
201008042000 METAR MRLB 042000Z 11006KT 9999 VCSH FEW030TCU BKN130 31/24 A2973 RMK CB DST N RA SW=
201008042100 METAR MRLB 042100Z 06004KT 9999 FEW035 BKN140 30/23 A2970=
201008042200 METAR MRLB 042200Z 08003KT 9999 FEW035TCU BKN130 30/24 A2971 RMK FEW250 RN DST SW=
201008042300 METAR MRLB 042300Z 08002KT CAVOK 30/25 A2972 RMK BKN130 SCT250=
201008050000 METAR MRLB 050000Z 11003KT CAVOK 29/24 A2976 RMK FEW130 BKN250=
201008050100 METAR MRLB 050100Z 16003KT CAVOK 27/25 A2978 RMK FEW130 BKN250=
201008050200 METAR MRLB 050200Z 14002KT CAVOK 27/25 A2979 RMK BKN250=
201008050300 METAR MRLB NIL=
201008050400 METAR MRLB NIL=
201008050500 METAR MRLB NIL=
201008050600 METAR MRLB NIL=
201008050700 METAR MRLB NIL=
201008050800 METAR MRLB NIL=
201008050900 METAR MRLB NIL=
201008051000 METAR MRLB NIL=
201008051100 METAR MRLB NIL=
201008051200 METAR MRLB 051200Z 09002KT CAVOK 25/23 A2977 RMK BKN250=
201008051300 METAR MRLB 051300Z 10003KT 9999 FEW030 BKN100 26/23 A2980=
201008051400 METAR MRLB 051400Z 22002KT 9999 FEW035 BKN120 27/24 A2982=
201008051500 METAR MRLB 051500Z 14004KT 9999 FEW035 BKN120 28/24 A2982=
201008051600 METAR MRLB 051600Z 18004KT 9999 SCT035 BKN130 29/24 A2984=
201008051700 METAR MRLB 051700Z 17002KT 9999 SCT035 BKN130 31/25 A2983=
201008051800 METAR MRLB 051800Z 27003KT 9999 3000NE RA FEW015TCU SCT030 BKN100 29/25 A2982=
201008051900 METAR MRLB 051900Z 28004KT 9999 SCT035 BKN120 26/24 A2978 RERA=
201008052000 METAR MRLB 052000Z 25008KT 9999 SCT030 BKN120 28/25 A2980 RMK RN DST E/S=
201008052100 METAR MRLB 052100Z 08006KT 6000 -TSRA FEW010CB BKN025 24/23 A2978=
201008052200 METAR MRLB 052200Z 04004KT 9999 SCT030 BKN100 24/24 A2977=
201008052300 METAR MRLB 052300Z 06005KT 9999 FEW035 BKN110 24/24 A2978=
201008060000 METAR MRLB 060000Z 06004KT 9999 FEW035 BKN100 24/24 A2980=
201008060100 METAR MRLB 060100Z 00000KT 9999 SCT035 BKN110 25/24 A2983=
201008060200 METAR MRLB 060200Z 00000KT 9999 SCT030 BKN120 24/24 A2985=
201008060300 METAR MRLB NIL=
201008060400 METAR MRLB NIL=
201008060500 METAR MRLB NIL=
201008060600 METAR MRLB NIL=
201008060700 METAR MRLB NIL=
201008060800 METAR MRLB NIL=
201008060900 METAR MRLB NIL=
201008061000 METAR MRLB NIL=
201008061100 METAR MRLB NIL=
201008061200 METAR MRLB 061200Z 13002KT 0200 V//// 24/24 A2983=
201008061300 METAR MRLB 061300Z 14002KT 4000 BR SCT005 BKN250 24/24 A2985=
201008061400 METAR MRLB 061400Z 13005KT 9999 SCT008 BKN250 25/24 A2986=
201008061500 METAR MRLB 061500Z 19003KT 9999 OVC020 26/24 A2989=
201008061600 METAR MRLB 061600Z 01002KT 9999 SCT025 BKN250 28/24 A2990=
201008061700 METAR MRLB 061700Z 00000KT 9999 SCT030 BKN250 30/24 A2989 RMK RN DST W=
201008061800 METAR MRLB 061800Z 30004KT 9999 SCT030 SCT100 31/24 A2988 RMK FEW250 RA DST SW=
201008061900 METAR MRLB 061900Z 26008KT 9999 SCT030 SCT250 30/24 A2984 RMK FEW120=
201008062000 METAR MRLB 062000Z 23010KT 9999 BKN020 SCT250 29/25 A2982 RMK RA DST SE=
201008062100 METAR MRLB 062100Z 23009KT 9999 SCT020 BKN120 29/24 A2981 RMK RN DST NE=
201008062200 METAR MRLB 062200Z 22008KT 9999 BKN020 SCT120 28/24 A2981 RMK RN DST NE=
201008062300 METAR MRLB 062300Z 25006KT 9999 -RA SCT010 SCT020 27/24 A2982=
201008070000 METAR MRLB 070000Z 21004KT 9999 -RA SCT020 BKN120 26/24 A2983=
201008070100 METAR MRLB 070100Z 21003KT 9999 SCT020 BKN120 26/25 A2986=
201008070200 METAR MRLB 070200Z 00000KT 9999 SCT020 BKN120 26/25 A2989=
201008070300 METAR MRLB NIL=
201008070400 METAR MRLB NIL=
201008070500 METAR MRLB NIL=
201008070600 METAR MRLB NIL=
201008070700 METAR MRLB NIL=
201008070800 METAR MRLB NIL=
201008070900 METAR MRLB NIL=
201008071000 METAR MRLB NIL=
201008071100 METAR MRLB NIL=
201008071200 METAR MRLB 071200Z 00000KT 9999 FEW010 BKN100 24/24 A2987=
201008071300 METAR MRLB 071300Z 01004KT 9000 -RA SCT010 BKN100 25/24 A2988=
201008071400 METAR MRLB 071400Z 34004KT 9999 FEW015 BKN140 26/24 A2988=
201008071500 METAR MRLB 071500Z 01004KT 9999 FEW010 SCT120 27/24 A2990=
201008071600 METAR MRLB 071600Z 28005KT 9999 SCT015 BKN150 29/24 A2991=
201008071700 METAR MRLB 071700Z 25005KT 9999 SCT015 BKN140 29/24 A2990=
201008071800 METAR MRLB 071800Z 33004KT 9999 SCT015 BKN170 30/24 A2988=
201008071900 METAR MRLB 071900Z 26004KT 9999 FEW020 BKN250 31/23 A2986=
201008072000 METAR MRLB 072000Z 28008KT 9999 FEW020 SCT250 30/23 A2984=
201008072100 METAR MRLB NIL=
201008072200 METAR MRLB 072200Z 29008KT 9999 FEW015 BKN120 28/24 A2983 RMK RA DST NE=
201008072300 METAR MRLB 072300Z 29005KT 9999 DZ FEW015 BKN100 27/25 A2983=
201008080000 METAR MRLB 080000Z 28003KT 9999 DZ FEW015 SCT100 26/25 A2983=
201008080100 METAR MRLB 080100Z 00000KT 9999 FEW015 SCT100 26/25 A2985=
201008080200 METAR MRLB NIL=
201008080300 METAR MRLB NIL=
201008080400 METAR MRLB NIL=
201008080500 METAR MRLB NIL=
201008080600 METAR MRLB NIL=
201008080700 METAR MRLB NIL=
201008080800 METAR MRLB NIL=
201008080900 METAR MRLB NIL=
201008081000 METAR MRLB NIL=
201008081100 METAR MRLB NIL=
201008081200 METAR MRLB 081200Z 00000KT 2000 BR SCT003 SCT030 24/24 A2987=
201008081300 METAR MRLB 081300Z 13002KT 9999 3000S BR SCT004 BKN025 25/24 A2989=
201008081400 METAR MRLB 081400Z 08002KT 9999 SCT030 BKN120 26/24 A2990=
201008081500 METAR MRLB 081500Z 17002KT 9999 SCT035 BKN140 28/24 A2989=
201008081600 METAR MRLB 081600Z 20003KT 9999 SCT035 BKN140 29/24 A2990=
201008081700 METAR MRLB 081700Z 14003KT 9999 VCSH SCT035 BKN140 29/25 A2990=
201008081800 METAR MRLB 081800Z 26007KT 9999 SCT035 BKN140 29/25 A2988=
201008081900 METAR MRLB 081900Z 25008KT 9999 SCT035 BKN140 30/25 A2986 RMK RA DST E NE=
201008082000 METAR MRLB 082000Z 29007KT 9999 VCSH SCT030 BKN130 28/25 A2983=
201008082100 METAR MRLB 082100Z 28007KT 6000 RA FEW010TCU SCT025 BKN120 26/26 A2981=
201008082200 METAR MRLB 082200Z 26007KT 9999 SCT020 BKN100 26/25 A2980 RERA RMK RA DST E NE=
201008082300 METAR MRLB 082300Z 25005KT 9999 3000E RA BR FEW008 BKN020 26/25 A2981=
201008090000 METAR MRLB 090000Z 28010KT 9999 -RA FEW007 SCT015 BKN100 24/24 A2982=
201008090100 METAR MRLB 090100Z 07006KT 4000 RA FEW010 BKN020 24/24 A2985=
201008090200 METAR MRLB 090200Z 22003KT 9999 SCT015 BKN100 24/24 A2985 RERA=
201008090300 METAR MRLB NIL=
201008090400 METAR MRLB NIL=
201008090500 METAR MRLB NIL=
201008090600 METAR MRLB NIL=
201008090700 METAR MRLB NIL=
201008090800 METAR MRLB NIL=
201008090900 METAR MRLB NIL=
201008091000 METAR MRLB NIL=
201008091100 METAR MRLB NIL=
201008091200 METAR MRLB 091200Z 09002KT 9999 SCT030 BKN120 23/23 A2984 CB DST N LOW ST SW W=
201008091300 METAR MRLB 091300Z 08002KT 9999 FEW020 BKN120 24/24 A2985 RMK CB DST NW ST LOW SW=
201008091400 METAR MRLB 091400Z 03003KT 9999 FEW010 BKN120 26/24 A2986=
201008091500 METAR MRLB 091500Z 35002KT 9999 FEW020 BKN120 28/24 A2987=
201008091600 METAR MRLB 091600Z 00000KT 9999 FEW020 BKN120 29/24 A2988=
201008091700 METAR MRLB 091700Z 00000KT 9999 FEW030 BKN130 30724 A2990 RMK FEW240 RA DST NE=
201008091800 METAR MRLB 091800Z 16006KT 9999 FEW025 BKN120 30/25 A2985=
201008091900 METAR MRLB 091900Z 13003KT 9999 FEW020 BKN120 31/24 A2983 RMK RA N NE=
201008092000 METAR MRLB 092000Z 10004KT 9999 SCT020 BKN120 31/24 A2981 RMK RA DST N=
201008092100 METAR MRLB 092100Z 28008KT 9999 SCT020 BKN130 29/26 A2980=
201008092200 METAR MRLB 092200Z 27008KT 9999 TS VCSH FEW010CB FEW020 BKN130 29/25 A2974=
201008092300 METAR MRLB 092300Z 09004KT 9999 3000E RA SCT020 SCT120 27/25 A2981 RETS RMK TS DST S=
201008100000 METAR MRLB 100000Z 15005KT 9999 -RA FEW020 BKN120 25/24 A2979 RERA=
201008100100 METAR MRLB NIL=
201008100200 METAR MRLB 100200Z 18002KT 9999 FEW020 BKN120 25/25 A2982=
201008100300 METAR MRLB NIL=
201008100400 METAR MRLB NIL=
201008100500 METAR MRLB NIL=
201008100600 METAR MRLB NIL=
201008100700 METAR MRLB NIL=
201008100800 METAR MRLB NIL=
201008100900 METAR MRLB NIL=
201008101000 METAR MRLB NIL=
201008101100 METAR MRLB NIL=
201008101200 METAR MRLB 101200Z 00000KT 9999 FEW030 SCT100 24/24 A2983=
201008101203 METAR MRLB NIL=
201008101300 METAR MRLB 101300Z 00000KT 9999 FEW035 SCT250 29/24 A2984=
201008101400 METAR MRLB 101400Z 20003KT 9999 FEW015 SCT250 26/24 A2986=
201008101500 METAR MRLB 101500Z 13004KT 9999 FEW015 SCT250 29/24 A2988=
201008101600 METAR MRLB 101600Z 14006KT 9999 SCT015 BKN140 29/24 A2988=
201008101700 METAR MRLB 101700Z 14005KT 9999 SCT020 BKN120 29/24 A2987 RMK TCU DST NE=
201008101800 METAR MRLB 101800Z 13007KT 9999 SCT015TCU BKN120 31/34 A2984=
201008101900 METAR MRLB 101900Z 15006KT 9999 SCT020 BKN120 31/24 A2982 RMK TCU/RN DST NE=
201008102000 METAR MRLB 102000Z 27005KT 9999 SCT015TCU BKN100 30/25 A2981 RMK RN DST ARND=
201008102100 METAR MRLB 102100Z 11006KT 1000 -TSRA SCT010CB BKN040 26/24 A2980=
201008102200 METAR MRLB 102200Z 01005KT 5000 -TSRA SCT010CB BKN080 23/23 A2980=
201008102300 METAR MRLB 102300Z 10004KT 9000 -TSRA SCT010CB BKN080 24/24 A2982=
201008110000 METAR MRLB 110000Z 04004KT 9999 -DZ SCT020CB BKN100 24/24 A2982=
201008110100 METAR MRLB 110100Z 00000KT 9000 DZ SCT015CB OVC100 24/24 A2984=
201008110200 METAR MRLB 110200Z 00000KT 9000 DZ SCT015 OVC100 24/24 A2986 RMK LTNG W=
201008110300 METAR MRLB NIL=
201008110400 METAR MRLB NIL=
201008110500 METAR MRLB NIL=
201008110600 METAR MRLB NIL=
201008110700 METAR MRLB NIL=
201008110800 METAR MRLB NIL=
201008110900 METAR MRLB NIL=
201008111000 METAR MRLB NIL=
201008111100 METAR MRLB NIL=
201008111200 METAR MRLB 111200Z 14002KT 3000 BR FEW002 SCT010 BKN100 24/24 A2986=
201008111300 METAR MRLB 111300Z 13003KT 9999 DZ FEW008 BKN025 25/24 A2987=
201008111400 METAR MRLB 111400Z 07003KT 9999 FEW030 BKN120 26/24 A298 REDZ RMK RA DST NE=
201008111500 METAR MRLB 111500Z 05002KT 9999 SCT035 BKN130 27/24 A2991 RMK RA DST S=
201008111600 METAR MRLB 111600Z 17002KT 9999 SCT035 BKN130 28/24 A2991=
201008111700 METAR MRLB 111700Z 25005KT 9999 -RA SCT035 BKN120 28/24 A2990=
201008111800 METAR MRLB 111800Z 24004KT 9999 SCT035 BKN180 30/24 A298 RMK RA DST N=
201008111900 METAR MRLB 111900Z 24005KT 9999 SCT035 BKN140 29/25 A2987=
201008112000 METAR MRLB 112000Z 28008KT 9999 SCT035 BKN130 28/24 A2984 RMK RA DST E=
201008112100 METAR MRLB 112100Z 29007KT 8000 RA FEW010 SCT020 BKN100 26/25 A2984=
201008112200 METAR MRLB 112200Z 32006KT 7000 -RA SCT015 BKN090 25/25 A2984=
201008112300 METAR MRLB 112300Z 27003KT 9999 RA SCT020 BKN090 25/25 A2984=
201008120000 METAR MRLB 120000Z 00000KT 9999 DZ SCT025 BKN100 25/25 A2986=
201008120100 METAR MRLB 120100Z 00000KT 9999 SCT025 BKN110 25/25 A2988=
201008120200 METAR MRLB 120200Z 08004KT 9999 SCT030 BKN120 25/25 A2990=
201008120300 METAR MRLB NIL=
201008120400 METAR MRLB NIL=
201008120500 METAR MRLB NIL=
201008120600 METAR MRLB NIL=
201008120700 METAR MRLB NIL=
201008120800 METAR MRLB NIL=
201008120900 METAR MRLB NIL=
201008121000 METAR MRLB NIL=
201008121100 METAR MRLB NIL=
201008121200 METAR MRLB 121200Z 10002KT 0100 FG VV/// 23/23 A2988=
201008121300 METAR MRLB 121300Z 18002KT 0100 FG VV/// 24/24 A2987=
201008121400 METAR MRLB 121400Z 00000KT 2000 BR SCT002 BKN100 24/24 A2989=
201008121500 METAR MRLB 121500Z 00000KT 9999 BKN010 SCT100 26/24 A2990=
201008121600 METAR MRLB 121600Z 29002KT 9999 FEW020 BKN250 28/24 A2992=
201008121700 METAR MRLB 121700Z 27006KT 9999 SCT025 BKN250 29/24 A2992 RMK RN DST N NE=
201008121800 METAR MRLB 121800Z 28008KT 9999 SCT020 BKN100 29/25 A2990 RMK RN DST N NE E=
201008121900 METAR MRLB 121900Z 29008KT 9999 FEW020 BKN120 28/26 A2986 RMK RN DST N S=
201008122000 METAR MRLB 122000Z 29009KT 9999 SCT020 BKN120 29/25 A2985 RMK RN DST N S=
201008122100 METAR MRLB 122100Z 17009KT 9999 SCT020 BKN120 28/25 A2983 RMK RA DST E S=
201008122200 METAR MRLB 122200Z 28009KT 9999 SCT020 BKN120 27/25 A2981=
201008122300 METAR MRLB 122300Z 27006KT 9999 FEW020 BKN120 27/25 A2981=
201008130000 METAR MRLB 130000Z 27005KT 9999 FEW020 BKN120 27/25 A2982 RMK TS RA DST N RA DST NE=
201008130100 METAR MRLB 130100Z 29003KT 9999 FEW020 BKN120 27/25 A2983=
201008130200 METAR MRLB 130200Z 04005KT 9999 FEW020 BKN120 25/25 A2985=
201008130300 METAR MRLB NIL=
201008130400 METAR MRLB NIL=
201008130500 METAR MRLB NIL=
201008130600 METAR MRLB NIL=
201008130700 METAR MRLB NIL=
201008130800 METAR MRLB NIL=
201008130900 METAR MRLB NIL=
201008131000 METAR MRLB NIL=
201008131100 METAR MRLB NIL=
201008131200 METAR MRLB 131200Z 08004KT 9999 FEW020 SCT100 23/23 A2984=
201008131300 METAR MRLB 131300Z 00000KT 9999 FEW025 SCT100 25/25 A2986 RMK LINE TCU DST SE=
201008131400 METAR MRLB 131400Z 00000KT 9999 SCT020 BKN120 25/24 A2987=
201008131500 METAR MRLB 131500Z 12004KT 9999 SCT025 BKN120 26/23 A2989=
201008131600 METAR MRLB 131600Z 11005KT 9999 SCT020 BKN100 27/24 A2991=
201008131700 METAR MRLB 131700Z 14007KT 9999 SCT025 BKN120 29/24 A2990=
201008131800 METAR MRLB 131800Z 14008KT 9999 SCT020 BKN100 24/24 A2988=
201008131900 METAR MRLB 131900Z 14007KT 9999 SCT020 BKN140 30/24 A2986=
201008132000 METAR MRLB 132000Z 12005KT 9999 SCT020 BKN140 29/23 A2984 RMK RA DST NE=
201008132100 METAR MRLB NIL=
201008132200 METAR MRLB 132200Z 14003KT 9999 DZ SCT015 BKN120 27/23 A2981 RMK RA N=
201008132300 METAR MRLB 132300Z 28006KT 9999 SCT015 BKN120 25/23 A2980 RMK RA DST ARND=
201008140000 METAR MRLB 140000Z 00000KT 9999 SCT020 BKN120 24/23 A2981=
201008140100 METAR MRLB NIL=
201008140200 METAR MRLB NIL=
201008140300 METAR MRLB NIL=
201008140400 METAR MRLB NIL=
201008140500 METAR MRLB NIL=
201008140600 METAR MRLB NIL=
201008140700 METAR MRLB NIL=
201008140800 METAR MRLB NIL=
201008140900 METAR MRLB NIL=
201008141000 METAR MRLB NIL=
201008141100 METAR MRLB NIL=
201008141200 METAR MRLB 141200Z 09004KT 9999 FEW030 BKN240 24/23 A2985=
201008141300 METAR MRLB 141300Z 09005KT CAVOK 26/23 A2986 RMK SCT250=
201008141400 METAR MRLB 141400Z 10005KT 9999 FEW035 SCT250 27/24 A2988=
201008141500 METAR MRLB 141500Z 13006KT 9999 SCT035 SCT250 28/24 A2990=
201008141600 METAR MRLB 141600Z 14007KT 9999 SCT035 BKN250 28/24 A2991=
201008141700 METAR MRLB 141700Z 13006KT 9999 SCT035 BKN140 29/24 A2991 RERA=
201008141800 METAR MRLB 141800Z 12009KT 9999 SCT035 BKN140 30/24 A2991=
201008141900 METAR MRLB 141900Z 13007KT 9999 SCT035 BKN250 31/23 A2988=
201008142000 METAR MRLB 142000Z 12008KT 9999 SCT035 BKN240 30/23 A2987=
201008142100 METAR MRLB 142100Z 16006KT 9999 SCT035 BKN240 31/24 A2986=
201008142200 METAR MRLB 142200Z 17004KT 9999 SCT035 BKN140 29/24 A2985=
201008142300 METAR MRLB 142300Z 28005KT 9999 SCT035 BKN130 28/24 A2984=
201008150000 METAR MRLB 150000Z 28003KT 9999 SCT035 VKN130 27/25 A2985=
201008150100 METAR MRLB 150100Z 07004KT 9999 SCT035 BKN130 27/25 A2987=
201008150200 METAR MRLB 150200Z 05003KT 9999 SCT030 BKN120 26/25 A2989=
201008150300 METAR MRLB NIL=
201008150400 METAR MRLB NIL=
201008150500 METAR MRLB NIL=
201008150600 METAR MRLB NIL=
201008150700 METAR MRLB NIL=
201008150800 METAR MRLB NIL=
201008150900 METAR MRLB NIL=
201008151000 METAR MRLB NIL=
201008151100 METAR MRLB NIL=
201008151200 METAR MRLB 151200Z 00000KT 9999 FEW010 BKN120 29/23 A2992=
201008151300 METAR MRLB 151300Z 00000KT 9999 FEW010 BKN120 26/24 A2994=
201008151400 METAR MRLB 151400Z 18002KT 9999 FEW020 BKN130 28/24 A2995=
201008151500 METAR MRLB 151500Z 26004KT 9999 SCT025 BKN250 29/24 A2979=
201008151600 METAR MRLB 151600Z VRB02KT 9999 SCT030 BKN250 30/23 A2995=
201008151700 METAR MRLB 151700Z 29005KT 9999 OVC030 30/23 A2994=
201008151800 METAR MRLB 151800Z 28009KT 9999 SCT030 BKN130 30/24 A2992 RMK RN DST SW=
201008151900 METAR MRLB 151900Z 26011KT 9999 FEW025 SCT120 29/25 A2990 RMK RN DST N/E/S=
201008152000 METAR MRLB 152000Z 28012KT 9999 VCSH SCT020 BKN100 28/24 A2988 RMK TS DST NE=
201008152100 METAR MRLB 152100Z 31009KT 9999 SCT020 BKN100 27/25 A2984 RMK RA DST NE=
201008152200 METAR MRLB 152200Z 25006KT 9999 SCT015 BKN100 27/25 A2082 RMK RA DST SE=
201008152300 METAR MRLB 152300Z 26004KT 9999 FEW020 BKN100 27/25 A2984 RMK RA DST S=
201008160000 METAR MRLB 160000Z 26004KT 9999 FEW020 BKN100 27/25 A2986 RMK RA DST NE SE=
201008160100 METAR MRLB 160100Z 00000KT 9999 -RA FEW020 BKN100 26/25 A2987 RMK LTNG DST E=
201008160200 METAR MRLB NIL=
201008160300 METAR MRLB NIL=
201008160400 METAR MRLB NIL=
201008160500 METAR MRLB NIL=
201008160600 METAR MRLB NIL=
201008160700 METAR MRLB NIL=
201008160800 METAR MRLB NIL=
201008160900 METAR MRLB NIL=
201008161000 METAR MRLB NIL=
201008161100 METAR MRLB NIL=
201008161200 METAR MRLB 161200Z 05003KT 9999 FEW030 SCT250 23/23 A2987 RMK TCU DST SW=
201008161300 METAR MRLB 161300Z 03004KT 9999 FEW030 SCT250 25/23 A2989 RMK TCU DST SW=
201008161400 METAR MRLB 161400Z 00000KT 9999 FEW035 SCT250 28/24 A2991 RMK TCU DST SW=
201008161500 METAR MRLB 161500Z 32004KT 9999 SCT025 BKN120 29/24 A2993 RMK TCU DST SW=
201008161600 METAR MRLB 161600Z 30004KT 9999 SCT020 BKN100 29/23 A2994=
201008161700 METAR MRLB 161700Z 25004KT 9999 SCT020 BKN140 30724 A2992 RMK TCU RA DST N SW=
201008161800 METAR MRLB 161800Z 28012KT 9999 SCT020TCU BKN120 28/24 A2991 RMK TCU RA DST ARND=
201008161900 METAR MRLB 161900Z 28005KT 9999 -RA SCT020 BKN100 26/24 A2987 RERA RMK VIS S SW 4KMS=
201008162000 METAR MRLB 162000Z 25005KT 9999 SCT015 BKN220 28/25 A2983=
201008162100 METAR MRLB 162100Z 06010KT 9999 3000NE RA SCT012CB BKN090 23/22 A2984=
201008162200 METAR MRLB 162200Z 00000KT 9999 -RA SCT020 BKN100 23/23 A2983=
201008162300 METAR MRLB 162300Z 07006KT 9999 DZ SCT020 BKN100 24/23 A2986=
201008170000 METAR MRLB 170000Z 00000KT 9999 -DZ FEW025 BKN100 24/23 A2984=
201008170100 METAR MRLB NIL=
201008170200 METAR MRLB NIL=
201008170300 METAR MRLB NIL=
201008170400 METAR MRLB NIL=
201008170500 METAR MRLB NIL=
201008170600 METAR MRLB NIL=
201008170700 METAR MRLB NIL=
201008170800 METAR MRLB NIL=
201008170900 METAR MRLB NIL=
201008171000 METAR MRLB NIL=
201008171100 METAR MRLB NIL=
201008171200 METAR MRLB 171200Z 00000KT 9999 SCT030 BKN040 23/21 A2987 RMK ST LOW SW=
201008171300 METAR MRLB NIL=
201008171400 METAR MRLB 171400Z 00000KT 9999 FEW035 SCT130 27/23 A2991=
201008171500 METAR MRLB 171500Z 09003KT 9999 FEW035 BKN130 26/23 A2992=
201008171600 METAR MRLB 171600Z 35004KT 9999 FEW035 BKN140 28/24 A2992=
201008171700 METAR MRLB 171700Z 08002KT 9999 FEW035 BKN240 29/24 A2991=
201008171800 METAR MRLB 171800Z 20004KT 9999 SCT035 BKN240 30/23 A2990=
201008171900 METAR MRLB 171900Z 18005KT 9999 SCT035 BKN240 31/23 A2989=
201008172000 METAR MRLB 172000Z 17009KT 9999 SCT035 BKN140 29/25 A2985 RMK RN DST S=
201008172100 METAR MRLB 172100Z 17006KT 9999 VCSH FEW020TCU SCT035 BKN130 28/24 A2983=
201008172200 METAR MRLB 172200Z 03004KT 9999 -DZ SCT020 BKN110 28/24 A2985 RMK CB TS DST QUAD S=
201008172300 METAR MRLB 172300Z 14005KT 9999 2500SW RA FEW015TCU SCT030 BKN120 25/24 A2986=
201008180000 METAR MRLB 180000Z 13003KT 9999 VCSH SCT010 BKN100 24/23 A2989 RERA=
201008180100 METAR MRLB 180100Z 16002KT 9999 SCT030 BKN100 24/23 A2991=
201008180200 METAR MRLB 180200Z 09005KT 9999 SCT030 BKN110 24/24 A2991 NOSIG=
201008180300 METAR MRLB NIL=
201008180400 METAR MRLB NIL=
201008180500 METAR MRLB NIL=
201008180600 METAR MRLB NIL=
201008180700 METAR MRLB NIL=
201008180800 METAR MRLB NIL=
201008180900 METAR MRLB NIL=
201008181000 METAR MRLB NIL=
201008181100 METAR MRLB NIL=
201008181200 METAR MRLB 181200Z 00000KT CAVOK 23/23 A2992 RMK OVC130=
201008181300 METAR MRLB 181300Z 08002KT CAVOK 24/23 A2992 RMK OVC130 LW ST DST W=
201008181400 METAR MRLB 181400Z 18004KT 9999 FEW010 BKN130 25/24 A2994=
201008181500 METAR MRLB 181500Z 10004KT 9999 FEW020 BKN130 28/24 A2995=
201008181600 METAR MRLB 181600Z 07002KT 9999 FEW025 BKN130 28/23 A2997=
201008181700 METAR MRLB 181700Z 23003KT 9999 SCT030 BKN130 29/23 A2996=
201008181800 METAR MRLB 181800Z 25004KT 9999 SCT030 BKN250 30/24 A2994=
201008181900 METAR MRLB 181900Z 28005KT 9999 FEW030 BKN250 31/23 A2991 RMK CB RA DST S=
201008182000 METAR MRLB 182000Z 27010KT 9999 FEW030 SCT130 BKN250 29/23 A2988 RMK RA DST N S=
201008182100 METAR MRLB 182100Z 29010KT 9999 FEW030 BKN130 28/23 A2987 RMK RA NE=
201008182200 METAR MRLB 182200Z 27005KT 9999 FEW025 BKN130 27/24 A2986 RMK RA DST S=
201008182300 METAR MRLB 182300Z 28006KT 9999 FEW030 BKN130 27/24 A2986 RMK CB DST SE=
201008190000 METAR MRLB 190000Z 32002KT 9999 FEW020 BKN130 27/24 A2987=
201008190100 METAR MRLB 190100Z 25002KT 9999 FEW020 BKN130 26/24 A2990=
201008190200 METAR MRLB 190200Z 00000KT 9999 FEW025 BKN130 25/24 A2991 RMK LTNG DST N=
201008190300 METAR MRLB NIL=
201008190400 METAR MRLB NIL=
201008190500 METAR MRLB NIL=
201008190600 METAR MRLB NIL=
201008190700 METAR MRLB NIL=
201008190800 METAR MRLB NIL=
201008190900 METAR MRLB NIL=
201008191000 METAR MRLB NIL=
201008191100 METAR MRLB NIL=
201008191200 METAR MRLB 191200Z 27003KT 9999 FEW030 SCT250 24/24 A2987=
201008191300 METAR MRLB 191300Z 00000KT 9999 FEW030 SCT250 26/24 A2987=
201008191400 METAR MRLB 191400Z 27004KT 9999 SCT012 BKN120 27/24 A2989=
201008191500 METAR MRLB 191500Z 26007KT 9999 SCT020 BKN250 28/24 A2990=
201008191600 METAR MRLB 191600Z 27007KT 9999 SCT020 FEW250 30/24 A2990=
201008191700 METAR MRLB 191700Z 27008KT 9999 SCT025 BKN250 30/24 A2990=
201008191800 METAR MRLB 191800Z 27010KT 9999 SCT025 BKN250 30/24 A2987=
201008191900 METAR MRLB 191900Z 26012KT 9999 SCT025 BKN220 29/24 A2985 RMK TCU RA DST N NE=
201008192000 METAR MRLB 192000Z 27008KT 9999 SCT025 BKN200 27/24 A2980 RMK TCU ARND=
201008192100 METAR MRLB 192100Z 28004KT 9999 SCT020 BKN120 27/24 A2979=
201008192200 METAR MRLB 192200Z 27007KT 9999 SCT025 BKN140 27/24 A2979=
201008192300 METAR MRLB 192300Z 25006KT 9999 SCT020 BKN120 27/24 A2981=
201008200000 METAR MRLB 200000Z 26004KT 9999 SCT025 BKN200 27/24 A2981=
201008200100 METAR MRLB 200100Z 24003KT 9999 FEW020TCU SCT100 26/24 A2983=
201008200200 METAR MRLB NIL=
201008200300 METAR MRLB NIL=
201008200400 METAR MRLB NIL=
201008200500 METAR MRLB NIL=
201008200600 METAR MRLB NIL=
201008200700 METAR MRLB NIL=
201008200800 METAR MRLB NIL=
201008200900 METAR MRLB NIL=
201008201000 METAR MRLB NIL=
201008201100 METAR MRLB NIL=
201008201200 METAR MRLB 201200Z 07003KT 9999 SCT025 BKN110 24/23 A2981 RMK RA DST S=
201008201300 METAR MRLB 201300Z 20002KT 9999 4000S BR FEW002 SCT010 BKN120 24/23 A2983=
201008201400 METAR MRLB 201400Z 00000KT 9999 SCT030 BKN120 25/24 A2983=
201008201500 METAR MRLB 201500Z 32002KT 9999 FEW035 BKN140 27/24 A2984=
201008201600 METAR MRLB 201600Z 23005KT 9999 SCT035 BKN140 29/24 A2987=
201008201700 METAR MRLB 201700Z 26007KT 9999 SCT035 BKN240 29/25 A2986=
201008201800 METAR MRLB 201800Z 27006KT 9999 VCSH SCT035 BKN230 29/24 A2983=
201008201900 METAR MRLB 201900Z 29006KT 9999 VCSH FEW015TCU SCT030 BKN120 27/24 A2981 RMK TS DST E/NE=
201008202000 METAR MRLB 202000Z 33002KT 9999 VCSH SCT025 BKN100 27/24 A2980=
201008202100 METAR MRLB 202100Z 05007KT 9999 3000NE RA FFEW007 BKN020 25/23 A2978=
201008202200 METAR MRLB 202200Z 25007KT 25007KT 4000 RA FEW006 BKN025 24/23 A2978=
201008202300 METAR MRLB 202300Z 20005KT 2500 RA FEW008 BKN020 23/23 A2981=
201008210000 METAR MRLB 210000Z 14006KT 2000 RA FEW007 BKN020 23/22 A2981=
201008210100 METAR MRLB 210100Z 12003KT 3000 RA FEW010 BKN025 23/22 A2980=
201008210200 METAR MRLB 210200Z 08003KT 3000 -RA FEW008 SCT020 BKN090 23/23 A2982=
201008210300 METAR MRLB NIL=
201008210400 METAR MRLB NIL=
201008210500 METAR MRLB NIL=
201008210600 METAR MRLB NIL=
201008210700 METAR MRLB NIL=
201008210800 METAR MRLB NIL=
201008210900 METAR MRLB NIL=
201008211000 METAR MRLB NIL=
201008211100 METAR MRLB NIL=
201008211200 METAR MRLB 211200Z 16002KT 0500 FG SCT002 BKN250 23/22 A2979=
201008211300 METAR MRLB 211300Z 10004KT 9999 FEW008 SCT130 BKN250 23/23 A2981=
201008211400 METAR MRLB 211400Z 18002KT 9999 SCT010 BKN130 25/23 A2984=
201008211500 METAR MRLB 211500Z 27002KT 9999 FEW020 SCT130 27/24 A2985 RMK FEW250=
201008211600 METAR MRLB 211600Z 24002KT 9999 SCT025 28/23 A2990=
201008211700 METAR MRLB 211700Z 25004KT 9999 SCT030 29/24 A2990 RMK RA FDST N NE SE=
201008211800 METAR MRLB 211800Z 23006KT 9999 SCT030 29/23 A2987 RMK FEW130 RA DST NE S=
201008211900 METAR MRLB 211900Z 27006KT 9999 FEW030 SCT130 30/23 A2984 RMK RA DST N NE S=
201008212000 METAR MRLB 212000Z 29008KT 9999 SCT020 BKN130 28/23 A2983 RMK RA DST N NE E S=
201008212100 METAR MRLB 212100Z 30005KT 9999 SCT020 BKN130 27/23 A2981 RMK RN DST N NE E SE S=
201008212200 METAR MRLB 212200Z 29004KT 9999 FEW020 BKN100 27/23 A2981 RMK RN DST SE=
201008212300 METAR MRLB 212300Z 28005KT 9999 SCT020 BKN100 27/23 A2981=
201008220000 METAR MRLB NIL=
201008220100 METAR MRLB NIL=
201008220200 METAR MRLB 220200Z 09002KT 9999 FEW020 BKN100 25/24 A2988=
201008220300 METAR MRLB NIL=
201008220400 METAR MRLB NIL=
201008220500 METAR MRLB NIL=
201008220600 METAR MRLB NIL=
201008220700 METAR MRLB NIL=
201008220800 METAR MRLB NIL=
201008220900 METAR MRLB NIL=
201008221000 METAR MRLB NIL=
201008221100 METAR MRLB NIL=
201008221200 METAR MRLB 221200Z 25003KT 9999 FEW010 SCT30 BKN100 24/23 A2989=
201008221300 METAR MRLB 221300Z 00000KT 9999 FEW020 BKN120 24/23 A2990 RMK ST LOW ARND=
201008221400 METAR MRLB 221400Z 00000KT FEW025 BKN150 25/23 A2992=
201008221500 METAR MRLB 221500Z 30003KT 9999 FEW010 BKN140 26/24 A2993=
201008221600 METAR MRLB 221600Z 35003KT 9999 FEW012 BKN120 27/24 A2994=
201008221700 METAR MRLB 221700Z 00000KT 9999 SCT015 BKN150 28/23 A2993=
201008221800 METAR MRLB 221800Z 24004KT 9999 SCT015 BKN150 29/24 A2990=
201008221900 METAR MRLB 221900Z 26007KT 9999 SCT020 BKN180 29/24 A2987=
201008222000 METAR MRLB 222000Z 27008KT 9999 FEW015 SCT150 29/24 A2985=
201008222100 METAR MRLB 222100Z 27010KT 9999 FEW015 SCT140 29/23 A2983 RMK TCU RA DST NE E=
201008222200 METAR MRLB 222200Z 27008KT 9999 FEW015 SCT120 28/24 A2983 RMK TCU RA NE E=
201008222300 METAR MRLB 222300Z 28006KT 9999 FEW015 SCT100 27/24 A2984 RMK TCU RA N CHECK TEXT NEW ENDING ADDED KATLYTAA=
201008230000 METAR MRLB 230000Z 30003KT 9999 FEW015 SCT120 26/24 A2985=
201008230100 METAR MRLB 230100Z 00000KT 9999 FEW025 SCT100 26/24 A2987=
201008230200 METAR MRLB NIL=
201008230300 METAR MRLB NIL=
201008230400 METAR MRLB NIL=
201008230500 METAR MRLB NIL=
201008230600 METAR MRLB NIL=
201008230700 METAR MRLB NIL=
201008230800 METAR MRLB NIL=
201008230900 METAR MRLB NIL=
201008231000 METAR MRLB NIL=
201008231100 METAR MRLB NIL=
201008231200 METAR MRLB 231200Z 00000KT 9999 FEW030 BKN130 24/23 A2983=
201008231300 METAR MRLB 231300Z 25003KT 9999 FEW035 BKN140 26/24 A2984=
201008231400 METAR MRLB 231400Z 25004KT 9999 SCT035 BKN230 27/24 A2986=
201008231500 METAR MRLB 231500Z 00000KT 9999 SCT035 BKN240 29/24 A2990=
201008231600 METAR MRLB 231600Z 00000KT 9999 SCT035 BKN240 29/24 A2991=
201008231700 METAR MRLB 231700Z 22003KT 9999 SCT035 SCT250 30/23 A2989=
201008231800 METAR MRLB 231800Z 24006KT 9999 SCT035 SCT250 31/23 A2987=
201008231900 METAR MRLB 231900Z 20005KT 9999 SCT035 BKN250 31/23 A2985=
201008232000 METAR MRLB 232000Z 28007KT 9999 FEW035 BKN250 31/24 A2983=
201008232100 METAR MRLB 232100Z 27008KT 9999 SCT035 BKN240 31/25 A2981 RMK RA DST E NE=
201008232200 METAR MRLB NIL=
201008232300 METAR MRLB 232300Z 04005KT 9999 SCT030 BKN110 25/23 A2981=
201008240000 METAR MRLB 240000Z 12004KT 9999 SCT030 BKN120 24/23 A2985 RMK RA DST S REDZ=
201008240100 METAR MRLB 240100Z 18005KT 9999 SCT035 BKN120 24/23 A2985=
201008240200 METAR MRLB NIL=
201008240300 METAR MRLB NIL=
201008240400 METAR MRLB NIL=
201008240500 METAR MRLB NIL=
201008240600 METAR MRLB NIL=
201008240700 METAR MRLB NIL=
201008240800 METAR MRLB NIL=
201008240900 METAR MRLB NIL=
201008241000 METAR MRLB NIL=
201008241100 METAR MRLB NIL=
201008241200 METAR MRLB 241200Z 04003KT 0200 FG VV/// 23/23 A2982=
201008241300 METAR MRLB 241300Z 00000KT 2000 1000NW BR SCT004 BKN100 24/23 A2983=
201008241400 METAR MRLB 241400Z 33002KT 9999 SCT010 BKN120 26/24 A2986=
201008241500 METAR MRLB 241500Z 23002KT 9999 FEW020 BKN250 28/24 A2988=
201008241600 METAR MRLB 241600Z 25002KT 9999 SCT025 SCT250 30/24 A2989=
201008241700 METAR MRLB 241700Z 00000KT 9999 SCT030 SCT250 31/23 A2988=
201008241800 METAR MRLB 241800Z 27004KT 9999 SCT030 BKN250 31/25 A2986=
201008241900 METAR MRLB 241900Z 27007KT 9999 BKN020 SCT250 30/25 A2983 RMK RA N E=
201008242000 METAR MRLB 242000Z 31004KT 9999 3000S TSRA FEW010CB BKN120 27/25 A2980=
201008242100 METAR MRLB 242100Z 21003KT 9999 -RA FEW020 BKN120 27/25 A2977 RETSRA RMK TS DST SE=
201008242200 METAR MRLB 242200Z 13004KT 9999 SCT010 BKN120 26/26 A2977 RMK RA DST S SW=
201008242300 METAR MRLB 242300Z 14007KT 9999 SCT010 BKN100 25/24 A2979=
201008250000 METAR MRLB 250000Z 11003KT 1000 +RA OVC010 25/23 A2981=
201008250100 METAR MRLB 250100Z 05003KT 9999 -RA SCT010 BKN100 24/24 A2984 RMK TS DST W=
201008250200 METAR MRLB 250200Z 22002KT 9999 -RA SCT010 BKN100 24/24 A2983 RMK LTNG DST N W=
201008250300 METAR MRLB NIL=
201008250400 METAR MRLB NIL=
201008250500 METAR MRLB NIL=
201008250600 METAR MRLB NIL=
201008250700 METAR MRLB NIL=
201008250800 METAR MRLB NIL=
201008250900 METAR MRLB NIL=
201008251000 METAR MRLB NIL=
201008251100 METAR MRLB NIL=
201008251200 METAR MRLB 251200Z 00000KT 1000 BR FG SCT001 BKN250 23/23 A2983=
201008251300 METAR MRLB 251300Z 00000KT 9999 FEW015 SCT250 25/24 A2987 RMK ST LOW ARND=
201008251400 METAR MRLB 251400Z 00000KT 9999 FEW010 SCT250 27/25 A2990=
201008251500 METAR MRLB 251500Z 00000KT 9999 FEW015 SCT250 29/25 A2991=
201008251600 METAR MRLB 251600Z 24006KT 9999 FEW020 SCT250 28/24 A2991=
201008251700 METAR MRLB 251700Z 25006KT 9999 SCT020 BKN250 30/24 A2990=
201008251800 METAR MRLB 251800Z 25005KT 9999 SCT020 BKN250 31/24 A2987=
201008251900 METAR MRLB 251900Z 29004KT 9999 SCT020TCU BKN220 31/25 A2984 RMK TCU/RN DST E/SE=
201008252000 METAR MRLB 252000Z 22004KT 9999 SCT020 BKN240 28/26 A2981 RMK TCU DST=
201008252100 METAR MRLB 252100Z 26005KT 9999 FEW020 SCT250 29/25 A2977=
201008252200 METAR MRLB 252200Z 27006KT 9999 FEW030 BKN250 30/25 A2976=
201008252300 METAR MRLB NIL=
201008260000 METAR MRLB 260000Z 23003KT CAVOK 28/25 A2978 RMK BKN250=
201008260100 METAR MRLB 260100Z 00000KT CAVOK 27/25 A2980 RMK FEW100=
201008260200 METAR MRLB NIL=
201008260300 METAR MRLB NIL=
201008260400 METAR MRLB NIL=
201008260500 METAR MRLB NIL=
201008260600 METAR MRLB NIL=
201008260700 METAR MRLB NIL=
201008260800 METAR MRLB NIL=
201008260900 METAR MRLB NIL=
201008261000 METAR MRLB NIL=
201008261100 METAR MRLB NIL=
201008261200 METAR MRLB 261200Z 00000KT 9999 FEW025 BKN120 24/24 A2984 RMK ST LOW SW=
201008261300 METAR MRLB 261300Z 30002KT 9999 4000SW BR FEW003 BKN025 24/23 A2987=
201008261400 METAR MRLB 261400Z 27003KT CAVOK 30/24 A2987 RMK SCT140 BKN260 RMK TCU DST N=
201008261401 METAR MRLB 261401Z 33003KT 9999 SCT025 BKN120 25/24 A2988=
201008261500 METAR MRLB NIL=
201008261600 METAR MRLB 261600Z 03004KT 9999 FEW035 BKN140 28/24 A2985=
201008261700 METAR MRLB 261700Z 19006KT 9999 SCT035 BKN140 28/25 A2986=
201008261800 METAR MRLB 261800Z 22005KT 9999 SCT035 BKN230 29/25 A2985=
201008261900 METAR MRLB 261900Z 25009KT 9999 SCT035 BKN230 30/25 A2983=
201008262000 METAR MRLB 262000Z 27011KT 9999 SCT035 BKN230 29/24 A2981 RMK RN DST E NE SE=
201008262100 METAR MRLB 262100Z 27007KT 9999 SCT030 BKN130 28/25 A2979 RMK RA DST E NE=
201008262200 METAR MRLB 262200Z 27003KT9999 SCT030 BKN120 27/25 A2977=
201008262300 METAR MRLB NIL=
201008270000 METAR MRLB NIL=
201008270100 METAR MRLB NIL=
201008270200 METAR MRLB NIL=
201008270300 METAR MRLB NIL=
201008270400 METAR MRLB NIL=
201008270500 METAR MRLB NIL=
201008270600 METAR MRLB NIL=
201008270700 METAR MRLB NIL=
201008270800 METAR MRLB NIL=
201008270900 METAR MRLB NIL=
201008271000 METAR MRLB NIL=
201008271100 METAR MRLB NIL=
201008271200 METAR MRLB 271200Z 00000KT 9999 3000W BR FEW002 BKN130 24/24 A2982=
201008271300 METAR MRLB 271300Z 00000KT 3000W BR FEW004 BKN130 24/24 A2984=
201008271400 METAR MRLB 271400Z 00000KT 9999 SCT008 BKN120 25/25 A2986=
201008271500 METAR MRLB 271500Z 15003KT 9999 SCT015 BKN120 27/25 A2987=
201008271600 METAR MRLB 271600Z 13004KT 9999 SCT020 BKN120 28/24 A2989=
201008271700 METAR MRLB 271700Z 17004KT 9999 FEW030 BKN120 28/24 A2987=
201008271800 METAR MRLB 271800Z 15003KT 9999 FEW030 BKN130 30/25 A2986=
201008271900 METAR MRLB 271900Z 26006KT 9999 SCT025 BKN130 29/24 A2982 RMK RN SW=
201008272000 METAR MRLB 272000Z 27007KT 9999 FEW010TCU FEW020 BKN120 29/24 A2980 RASH RN DST S=
201008272100 METAR MRLB 272100Z 27007KT 9999 FEW015 BKN130 28/24 A2977 RMK RA DST E SE S=
201008272200 METAR MRLB 272200Z 04016KT 1000 +TSRA FEW005 SCT010CB BKN012 27/25 A2979=
201008272300 METAR MRLB 272300Z 12004KT 9999 -RA SCT020 BKN100 25/24 A2976=
201008280000 METAR MRLB 280000Z 36002KT 9999 -RA SCT020 BKN100 25/24 A2978=
201008280100 METAR MRLB 280100Z 01002KT 9999 -RA SCT020 BKN100 25/24 A2980=
201008280200 METAR MRLB 280200Z 00000KT 9999 -RA SCT020 BKN100 25/24 A2983=
201008280300 METAR MRLB NIL=
201008280400 METAR MRLB NIL=
201008280500 METAR MRLB NIL=
201008280600 METAR MRLB NIL=
201008280700 METAR MRLB NIL=
201008280800 METAR MRLB NIL=
201008280900 METAR MRLB NIL=
201008281000 METAR MRLB NIL=
201008281100 METAR MRLB NIL=
201008281200 METAR MRLB 281200Z 08003KT 9999 FEW015 BKN100 24/24 A2983=
201008281300 METAR MRLB 281300Z 06005KT 9999 FEW025 BKN120 24/24 A2983=
201008281400 METAR MRLB 281400Z 08004KT 9999 FEW010 BKN140 25/24 A2984 RMK LW ST ARND=
201008281500 METAR MRLB 281500Z 13003KT 9999 SCT012 BKN120 26/24 A2986=
201008281600 METAR MRLB 281600Z 17004KT 9999 SCT020 BKN200 27/24 A2987=
201008281700 METAR MRLB 281700Z 18004KT 9999 SCT025 BKN140 29/25 A2985=
201008281800 METAR MRLB 281800Z 25005KT 9999 SCT020 BKN140 29/24 A2983 RMK TCU RA DST N=
201008281900 METAR MRLB 281900Z 24010KT 9999 SCT020 BKN140 30/25 A2980 RMK TCU RA N S=
201008282000 METAR MRLB 282000Z 17007KT 9999 SCT015CB BKN100 26/23 A2979 RMK RA E S=
201008282100 METAR MRLB 282100Z 02003KT 9999 RA SCT015CB BKN100 26/23 A2978=
201008282200 METAR MRLB 282200Z 00000KT 9999 -DZ SCT020 BKN140 26/24 A2976=
201008282300 METAR MRLB 282300Z 06004KT 9999 -RA SCT020 BKN100 25/24 A2978=
201008290000 METAR MRLB 290000Z 06005KT 9000 -RA SCT015 BKN100 24/24 A2980=
201008290100 METAR MRLB 290100Z 08004KT 9000 -RA SCT015 OVC100 24/24 A2982=
201008290200 METAR MRLB NIL=
201008290300 METAR MRLB NIL=
201008290400 METAR MRLB NIL=
201008290500 METAR MRLB NIL=
201008290600 METAR MRLB NIL=
201008290700 METAR MRLB NIL=
201008290800 METAR MRLB NIL=
201008290900 METAR MRLB NIL=
201008291000 METAR MRLB NIL=
201008291100 METAR MRLB NIL=
201008291200 METAR MRLB 291200Z 00000KT 9999 FEW030 BKN130 23/23 A2980 LOW ST SW=
201008291300 METAR MRLB 291300Z 00000KT 9999 FEW030 BKN130 24/23 A2984 RMK ST LOW S SW=
201008291400 METAR MRLB 291400Z 16003KT 9999 SCT030 BKN130 25/24 A2987=
201008291500 METAR MRLB 291500Z 13003KT 9999 SCT035 BKN130 26/24 A2988=
201008291600 METAR MRLB 291600Z 08003KT 9999 SCT035 BKN140 28/24 A2988=
201008291700 METAR MRLB 291700Z 15003KT 9999 SCT035 SCT250 29/23 A2988=
201008291800 METAR MRLB 291800Z 13002KT 9999 SCT035 BKN250 30/24 A2987=
201008291900 METAR MRLB 291900Z 26003KT 9999 SCT035 BKN250 31/23 A2984=
201008292000 METAR MRLB NIL=
201008292100 METAR MRLB 292100Z 22006KT 9999 VCSH SCT030 BKN140 28/24 A2981 RMK RN DST E/NE=
201008292200 METAR MRLB 292200Z 05007KT 9999 2000NE RA FEW010TCU BKN020 25/23 A2982=
201008292300 METAR MRLB 292300Z 06006KT 9999 -RA FEW010 SCT025 BKN100 24/24 A2981=
201008300000 METAR MRLB 300000Z 00000KT 9999 DZ SCT025 BKN100 24/24 A2982=
201008300100 METAR MRLB 300100Z 00000KT 9999 DZ SCT030 BKN110 24/24 A2985=
201008300200 METAR MRLB NIL=
201008300300 METAR MRLB NIL=
201008300400 METAR MRLB NIL=
201008300500 METAR MRLB NIL=
201008300600 METAR MRLB NIL=
201008300700 METAR MRLB NIL=
201008300800 METAR MRLB NIL=
201008300900 METAR MRLB NIL=
201008301000 METAR MRLB NIL=
201008301100 METAR MRLB NIL=
201008301200 METAR MRLB NIL=
201008301300 METAR MRLB 301300Z 13003KT CAVOK 25/24 A2987 RMK OVC130=
201008301400 METAR MRLB 301400Z 16002KT 9999 SCT010 BKN250 26/25 A2988=
201008301500 METAR MRLB 301500Z 26003KT 9999 FEW020 BKN250 28/25 A2988=
201008301600 METAR MRLB 301600Z 26003KT 9999 SCT030 BKN250 29/24 A2990=
201008301700 METAR MRLB 301700Z 27004KT 9999 SCT030 SCT250 30/25 A2990=
201008301800 METAR MRLB 301800Z 27006KT 9999 SCT030 BKN250 30/25 A2988=
201008301900 METAR MRLB 301900Z 20008KT 9999 SCT030 BKN250 31/25 A2986 RMK RN DST N=
201008302000 METAR MRLB 302000Z 28011KT 9999 -TSRA FEW15CB SCT020 SCT120 29/25 A2984=
201008302100 METAR MRLB 302100Z 17003KT 9999 -RA SCT020 BKN100 26/26 A2982 RETSRA=
201008302200 METAR MRLB 302200Z 27006KT 9999 FEW020 SCT120 BKN250 27/26 A2980 RMK CB DST SE=
201008302300 METAR MRLB 302300Z 27008KT 9999 SCT020 BKN250 28/25 A2981=
201008310000 METAR MRLB 310000Z 28008KT 9999 SCT020 BKN130 27/25 A2982=
201008310100 METAR MRLB 310100Z 28004KT 9999 SCT020 BKN130 27/25 A2984=
201008310200 METAR MRLB 310200Z 27005KT 8000 RA BKN020 SCT120 27/25 A2985=
201008310300 METAR MRLB NIL=
201008310400 METAR MRLB NIL=
201008310500 METAR MRLB NIL=
201008310600 METAR MRLB NIL=
201008310700 METAR MRLB NIL=
201008310800 METAR MRLB NIL=
201008310900 METAR MRLB NIL=
201008311000 METAR MRLB NIL=
201008311100 METAR MRLB NIL=
201008311200 METAR MRLB 311200Z 00000KT CAVOK 24/23 A2983 RMK BKN250=
201008311300 METAR MRLB 311300Z 00000KT CAVOK 26/24 A2985 RMK BKN250=
201008311400 METAR MRLB 311400Z 00000KT CAVOK 28/25 A2986 RMK SCT250=
201008311500 METAR MRLB 311500Z 28005KT CAVOK 29/25 A2987 RMK SCT250=
201008311600 METAR MRLB NIL=
201008311700 METAR MRLB 311700Z 26005KT 9999 FEW020 SCT250 31/24 A2985=
201008311800 METAR MRLB 311800Z 25007KT 9999 FEW020 SCT250 31/25 A2984=
201008311900 METAR MRLB 311900Z 26010KT 9999 SCT025 BKN250 31/25 A2981=
201008312000 METAR MRLB 312000Z 27011KT 9999 SCT025 BKN250 31/25 A2978=
201008312100 METAR MRLB 312100Z 28010KT 9999 SCT015 BKN150 31/25 A2978 RMK TCU RN N E SE=
201008312200 METAR MRLB 312200Z 27007KT 9999 DZ SCT020 BKN140 28/25 A2974=
201008312300 METAR MRLB 312300Z 26006KT 9999 FEW020 BKN150 27/26 A2976=
201009010000 METAR MRLB 010000Z 26005KT 9999 SCT015 BKN100 27/26 A2979=
201009010100 METAR MRLB NIL=
201009010200 METAR MRLB NIL=
201009010300 METAR MRLB NIL=
201009010400 METAR MRLB NIL=
201009010500 METAR MRLB NIL=
201009010600 METAR MRLB NIL=
201009010700 METAR MRLB NIL=
201009010800 METAR MRLB NIL=
201009010900 METAR MRLB NIL=
201009011000 METAR MRLB NIL=
201009011100 METAR MRLB NIL=
201009011200 METAR MRLB 011200Z 27002KT 9999 FEW008 BKN020 24/24 A2983 RMK RN DST S=
201009011300 METAR MRLB 011300Z 23004KT 9999 FEW008 SCT015 BKN110 25/24 A2985=
201009011400 METAR MRLB 011400Z 25005KT 9999 SCT025 BKN250 27/24 A2986 RMK RN DST E=
201009011500 METAR MRLB 011500Z 29006KT 9999 SCT035 BKN250 27/24 A2986=
201009011600 METAR MRLB 011600Z 26005KT 9999 SCT035 BKN250 28/24 A2986=
201009011700 METAR MRLB 011700Z 27005KT 9999 SCT035 BKN250 29/24 A2985=
201009011800 METAR MRLB 011800Z 26006KT 9999 SCT035 BKN250 30/24 A2984=
201009011900 METAR MRLB 011900Z 27009KT 9999 FEW035 BKN250 29/24 A2981=
201009012000 METAR MRLB 012000Z 25010KT 9999 FEW035 BKN250 29/23 A2980 RMK RN DST NE=
201009012100 METAR MRLB 012100Z 27011KT 9999 SCT035 BKN240 29/24 A2978 RMK RA DST NE=
201009012200 METAR MRLB 012200Z 26010KT 9999 SCT035 BKN140 28/24 A2978=
201009012300 METAR MRLB 012300Z 28005KT 9999 SCT035 BKN140 27/24 A2979=
201009020000 METAR MRLB 020000Z 19003KT 9999 VCSH SCT035 BKN130 26/24 A2980 RMK RA DST SW=
201009020100 METAR MRLB 020100Z 14004KT 9999 SCT030 BKN120 25/24 A2983 RERA=
201009020200 METAR MRLB NIL=
201009020300 METAR MRLB NIL=
201009020400 METAR MRLB NIL=
201009020500 METAR MRLB NIL=
201009020600 METAR MRLB NIL=
201009020700 METAR MRLB NIL=
201009020800 METAR MRLB NIL=
201009020900 METAR MRLB NIL=
201009021000 METAR MRLB NIL=
201009021100 METAR MRLB NIL=
201009021200 METAR MRLB 021200Z 22002KT CAVOK 4000 -RA BR SCT005 SCT100 23/23 A2986 RMK UNL W=
201009021300 METAR MRLB 021300Z 12005KT 9999 SCT010 BKN100 24/24 A2989 RMK RA DST NE E=
201009021400 METAR MRLB 021400Z 18004KT 9999 SCT010 BKN100 24/24 A2992 RMK CB DST NE S=
201009021500 METAR MRLB 021500Z 15004KT 9999 SCT015 BKN100 25/24 A2992 RMK RA DST NE E SW=
201009021600 METAR MRLB 021600Z 16004KT 9999 SCT020 BKN100 26/24 A2993 RMK RA DST S=
201009021700 METAR MRLB 021700Z 13005KT 9999 4000SW RA SCT020 SCT100 26/24 A2994=
201009021800 METAR MRLB 021800Z 14005KT 9999 VCSH SCT015 BKN100 26/25 A2992 RERA=
201009021900 METAR MRLB 021900Z 29007KT 3000 RA SCT010 BKN100 24/24 A2990 RMK VIS W UNL=
201009022000 METAR MRLB 022000Z 04004KT 9999 VCSH FEW010 BKN100 24/24 A2988 RERA=
201009022100 METAR MRLB 022100Z 05005KT 9999 FEW010 BKN100 25/24 A2987 RMK RA DST NE SW=
201009022200 METAR MRLB 022200Z 13003KT 9999 SCT015 BKN100 25/24 A2988 RMK RA SE S SW=
201009022300 METAR MRLB 022300Z 13003KT 9999 SCT015 BKN100 25/24 A2988 RMK RA SE S SW=
201009030000 METAR MRLB 030000Z 11003KT 9999 VCSH SCT010 SCT100 24/24 A2990 RERA=
201009030100 METAR MRLB 030100Z 10003KT 9999 SCT010 BKN100 24/23 A2991=
201009030200 METAR MRLB 030200Z 18002KT 9999 -RA SCT010 BKN100 24/23 A2994=
201009030300 METAR MRLB NIL=
201009030400 METAR MRLB NIL=
201009030500 METAR MRLB NIL=
201009030600 METAR MRLB NIL=
201009030700 METAR MRLB NIL=
201009030800 METAR MRLB NIL=
201009030900 METAR MRLB NIL=
201009031000 METAR MRLB NIL=
201009031100 METAR MRLB NIL=
201009031200 METAR MRLB 031200Z 20003KT 9999 FEW025 SCT120 23/23 A2993 RMK ST LOW ARND=
201009031300 METAR MRLB 031300Z 17003KT 9999 FEW020 SCT140 24/24 A2995 RMK ST LOW ARND=
201009031400 METAR MRLB 031400Z 10004KT 9999 FEW012 BKN120 26/24 A2998=
201009031500 METAR MRLB 031500Z 00000KT 9999 FEW015 SCT100 27/24 A2999=
201009031600 METAR MRLB 031600Z 17006KT 9999 SCT020 BKN120 28/24 A3000 RMK RA DST ARND=
201009031700 METAR MRLB 031700Z 19004KT 9999 VCSH SCT015 BKN100 29/24 A2999 RMK RASH S SW N=
201009031800 METAR MRLB 031800Z 23011KT 9999 4000S RA BKN020TCU SCT100 26/24 A2996=
201009031900 METAR MRLB 031900Z 25007KT 9000 DZ BR SCT015 BKN100 25724 A2994 RERA=
201009032000 METAR MRLB 032000Z 23007KT 9999 DZ SCT015 BKN100 25/24 A2983=
201009032100 METAR MRLB 032100Z 24003KT 9999 -RA FEW010 SCT025 BKN100 24/24 A2992=
201009032200 METAR MRLB 032200Z 36003KT 9999 -RA SCT015 BKN100 24/24 A2992=
201009032300 METAR MRLB 032300Z 02004KT 9000 -RA SCT015 BKN100 24/24 A2993=
201009040000 METAR MRLB 040000Z 03003KT 9000 -RA FEW015 OVC100 24/23 A2994=
201009040100 METAR MRLB NIL=
201009040200 METAR MRLB NIL=
201009040300 METAR MRLB NIL=
201009040400 METAR MRLB NIL=
201009040500 METAR MRLB NIL=
201009040600 METAR MRLB NIL=
201009040700 METAR MRLB NIL=
201009040800 METAR MRLB NIL=
201009040900 METAR MRLB NIL=
201009041000 METAR MRLB NIL=
201009041100 METAR MRLB NIL=
201009041200 METAR MRLB 041200Z 00000KT 9999 FEW025 BKN120 23/22 A2992 RMK LW ST SW=
201009041300 METAR MRLB 041300Z 00000KT 9999 FEW030 BKN120 24/23 A2994=
201009041400 METAR MRLB 041400Z 00000KT 9999 FEW030 BKN120 25/24 A2995=
201009041500 METAR MRLB 041500Z 00000KT 9999 FEW035 BKN130 26/24 A2996=
201009041600 METAR MRLB 041600Z 30003KT 9999 SCT035 BKN140 28/24 A2997=
201009041700 METAR MRLB 041700Z 25004KT 9999 SCT035 BKN140 29/24 A2996=
201009041800 METAR MRLB 041800Z 26006KT 9999 VCSH SCT035 BKN140 29/24 A2994 RMK RN DST E/NE=
201009041900 METAR MRLB 041900Z 25006KT 9999 VCSH SCT035 BKN130 27/24 A2989 RMK RN DST E/NE=
201009042000 METAR MRLB 042000Z 27005KT 9999 VCSH SCT030 BKN130 27/24 A2987 RMK RN DST E/NE=
201009042100 METAR MRLB 042100Z 26003KT 9999 DZ SCT030 BKN120 27/24 A2985=
201009042200 METAR MRLB 042200Z 28004KT 9999 RA SCT025 BKN110 27/25 A2984=
201009042300 METAR MRLB 042300Z 07004KT 9999 -DZ FEW010 SCT020 BKN100 25/25 A2985 A2985 RERA=
201009050000 METAR MRLB 050000Z 24006KT 9999 3000 SW RA FEW008 SCT020 BKN100 24/23 A2988=
201009050100 METAR MRLB NIL=
201009050200 METAR MRLB NIL=
201009050300 METAR MRLB NIL=
201009050400 METAR MRLB NIL=
201009050500 METAR MRLB NIL=
201009050600 METAR MRLB NIL=
201009050700 METAR MRLB NIL=
201009050800 METAR MRLB NIL=
201009050900 METAR MRLB NIL=
201009051000 METAR MRLB NIL=
201009051100 METAR MRLB NIL=
201009051200 METAR MRLB 051200Z 35003KT 9999 FEW010 BKN130 23/23 A2985 RMK CB DST E=
201009051300 METAR MRLB 051300Z 36004KT CAVOK 24/23 A2986 RMK OVC130=
201009051400 METAR MRLB 051400Z 35007KT 9999 FEW020 SCT130 BKN250 26/24 A2989=
201009051500 METAR MRLB 051500Z 30004KT 9999 SCT025 BKN120 28/23 A2988=
201009051600 METAR MRLB 051600Z 28003KT 9999 SCT030 BKN130 29/24 A2988=
201009051700 METAR MRLB 051700Z 27004KT 9999 SCT030 BKN130 30/25 A2987=
201009051800 METAR MRLB 051800Z 27003KT 9999 SCT030 BKN130 31/24 A2985=
201009051900 METAR MRLB 051900Z 27007KT 9999 SCT025 BKN130 29/25 A2981=
201009052000 METAR MRLB 052000Z 27011KT 9999 FEW023 BKN270 30/24 A2981 RMK CB DST S FEW140 HZ ARND LGT=
201009052100 METAR MRLB 052100Z 25012KT 9999 -TS VCSH FEW010CB SCT020 SCT100 28/25 A2977=
201009052200 METAR MRLB 052200Z 12010KT 5000 2000E TSRA FEW010CB BKN015 23/22 A2979=
201009052300 METAR MRLB 052300Z 00000KT 9999 -RA SCT020 BKN100 22/22 A2981 RMK TS DST W=
201009060000 METAR MRLB 060000Z 08003KT 9999 -RA SCT010 BKN100 23/22 A2982=
201009060100 METAR MRLB 060100Z 10003KT 9999 -RA FEW010 BKN100 23/23 A2985=
201009060200 METAR MRLB 060200Z 10004KT 9999 -RA FEW010 BKN100 23/23 A2985=
201009060300 METAR MRLB NIL=
201009060400 METAR MRLB NIL=
201009060500 METAR MRLB NIL=
201009060600 METAR MRLB NIL=
201009060700 METAR MRLB NIL=
201009060800 METAR MRLB NIL=
201009060900 METAR MRLB NIL=
201009061000 METAR MRLB NIL=
201009061100 METAR MRLB NIL=
201009061200 METAR MRLB 061200Z 00000KT 9999 FEW030 SCT250 23/23 A2987=
201009061300 METAR MRLB 061300Z 18004KT CAVOK 25/23 A2988 RMK FEW100 SCT250=
201009061400 METAR MRLB 061400Z 17004KT CAVOK 26/24 A2990 RMKF EW100 SCT250=
201009061500 METAR MRLB 061500Z 00000KT 9999 FEW020 SCT250 28/24 A2992=
201009061600 METAR MRLB 061600Z 22003KT 9999 FEW020 SCT250 29/24 A2993=
201009061700 METAR MRLB 061700Z 17003KT 9999 FEW020 SCT250 30/23 A2992 RMK TCU DST W=
201009061800 METAR MRLB 061800Z 22005KT 9999 SCT020TCU BKN150 30/22 A2990 RMK RN DST N S=
201009061900 METAR MRLB 061900Z 28006KT 9999 VCSH SCT015TCU BKN100 27/23 A2987 RMK VIS N E 6KMS=
201009062000 METAR MRLB 062000Z 22005KT 6000 RA SCT012 BKN090 23/23 A2987=
201009062100 METAR MRLB 062100Z 06004KT 9999 -DZ SCT025 BKN100 24/23 A2985 RERA=
201009062200 METAR MRLB 062200Z 01003KT 9999 SCT020 BKN100 24/23 A2986 RMK LW ST ARND=
201009062300 METAR MRLB 062300Z 00000KT 9999 FEW020 BKN120 24/24 A2986=
201009070000 METAR MRLB 070000Z 00000KT 9999 FEW020 SCT100 24/24 A2989=
201009070100 METAR MRLB 070100Z 00000KT 9999 FEW015 SCT100 24/24 A2991=
201009070200 METAR MRLB NIL=
201009070300 METAR MRLB NIL=
201009070400 METAR MRLB NIL=
201009070500 METAR MRLB NIL=
201009070600 METAR MRLB NIL=
201009070700 METAR MRLB NIL=
201009070800 METAR MRLB NIL=
201009070900 METAR MRLB NIL=
201009071000 METAR MRLB NIL=
201009071100 METAR MRLB NIL=
201009071200 METAR MRLB 071200Z 00000KT 9999 FEW025 BKN120 23/22 A2993 RMK LOW ST SW=
201009071300 METAR MRLB 071300Z 00000KT 9999 FEW030 BKN120 25/23 A2990=
201009071400 METAR MRLB 071400Z 00000KT 9999 FEW035 BKN130 26/23 A2993=
201009071500 METAR MRLB 071500Z 17004KT 9999 FEW035 BKN130 28/24 A2999=
201009071600 METAR MRLB 071600Z 16004KT 9999 SCT035 BKN130 28/23 A2993=
201009071700 METAR MRLB 071700Z 16002KT 9999 SCT035 BKN140 30/23 A2992=
201009071800 METAR MRLB 071800Z 15002KT 9999 SCT035 BKN250 30/24 A2988=
201009071900 METAR MRLB 071900Z 14002KT 9999 SCT035 BKN250 32/23 A2985=
201009072000 METAR MRLB 072000Z 29009KT 9999 VCSH FEW020TCU SCT035 BKN230 29/24 A2982 RA S SW=
201009072100 METAR MRLB 072100Z 24005KT 9999 -RA SCT025 BKN130 25/23 A2982=
201009072200 METAR MRLB 072200Z 03006KT 9999 VCSH SCT030 BKN120 25/23 A2984 RMK RA DST N NE=
201009072300 METAR MRLB 072300Z 04003KT 9999 SCT030 BKN120 24/23 A2983=
201009080000 METAR MRLB 080000Z 04005KT 9999 FEW035 BKN130 24/23 A2986=
201009080100 METAR MRLB 080100Z 00000KT 99999 SCT035 BKN130 24/23 A2988=
201009080200 METAR MRLB NIL=
201009080300 METAR MRLB NIL=
201009080400 METAR MRLB NIL=
201009080500 METAR MRLB NIL=
201009080600 METAR MRLB NIL=
201009080700 METAR MRLB NIL=
201009080800 METAR MRLB NIL=
201009080900 METAR MRLB NIL=
201009081000 METAR MRLB NIL=
201009081100 METAR MRLB NIL=
201009081200 METAR MRLB 081200Z 05003KT 0100 FG VV/// 23/23 A2986=
201009081300 METAR MRLB 081300Z 04002KT 0800 FG FEW002 SCT010 24/23 A2990=
201009081400 METAR MRLB 081400Z 00000KT 9999 BKN015 26/24 A2991=
201009081500 METAR MRLB 081500Z 17002KT 9999 FEW030 BKN250 28/23 A2989=
201009081600 METAR MRLB 081600Z 36002KT 9999 SCT030 BKN250 30/23 A2989=
201009081700 METAR MRLB 081700Z 27002KT 9999 SCT030 SCT250 31/23 A2986=
201009081800 METAR MRLB 081800Z 23004KT 9999 SCT030 SCT250 32/25 A2983=
201009081900 METAR MRLB 081900Z 28008KT 9999 BKN025 SCT250 30/24 A2981=
201009082000 METAR MRLB 082000Z 29012KT 9999 VCSH SCT020 SCT120 29/24 A2980 RN DST N/NE TS DST E=
201009082100 METAR MRLB 082100Z 26002KT 9999 3000SE -TSRA FEW010CB SCT020 SCT120 27/24 A2991=
201009082200 METAR MRLB 082200Z 23006KT 9999 3000W -TSRA FEW010CB SCT015 SCT100 25/24 A2981=
201009082300 METAR MRLB 082300Z 20005KT 9999 -RA FEW010 BKN100 23/22 A2982 RETSRA RMK TS DST N/NW=
201009090000 METAR MRLB 090000Z 07005KT 9999 -RA FEW020 BKN100 23/22 A2985 RMK TS DST N/NW=
201009090100 METAR MRLB 090100Z 10003KT 9999 -RA FEW020 BKN100 23/22 A2986=
201009090200 METAR MRLB 090200Z 14003KT 9999 FEW020 BKN100 23/22 A2984=
201009090300 METAR MRLB NIL=
201009090400 METAR MRLB NIL=
201009090500 METAR MRLB NIL=
201009090600 METAR MRLB NIL=
201009090700 METAR MRLB NIL=
201009090800 METAR MRLB NIL=
201009090900 METAR MRLB NIL=
201009091000 METAR MRLB NIL=
201009091100 METAR MRLB NIL=
201009091200 METAR MRLB 091200Z 17003KT 0500 FG BKN001 22/22 A2989=
201009091300 METAR MRLB 091300Z 18003KT 7000 FEW005 SCT020 23/22 A2991 RMK ST LOW ARND=
201009091400 METAR MRLB 091400Z 00000KT 9999 FEW010 SCT250 27/23 A2991=
201009091500 METAR MRLB 091500Z 16003KT 9999 SCT020 BKN250 28/24 A2990=
201009091600 METAR MRLB 091600Z 00000KT 9999 SCT020 BKN250 30/23 A2992=
201009091700 METAR MRLB 091700Z 25005KT 9999 SCT020 BKN250 30/23 A2992=
201009091800 METAR MRLB 091800Z 25007KT 9999 SCT020 BKN250 31/23 A2990=
201009091900 METAR MRLB 091900Z 30007KT 9999 SCT020 BKN250 31/24 A2987 RMK TCU DST NE=
201009092000 METAR MRLB 092000Z 26006KT 9999 SCT025 BKN250 31/23 A2983=
201009092100 METAR MRLB 092100Z 30005KT 9999 SCT020TCU BKN240 28/24 A2980 RMK TCU RA S SE=
201009092200 METAR MRLB 092200Z 30005KT 9999 SCT020CB BKN140 27/24 A2980 RMK CB RA S SE=
201009092300 METAR MRLB 092300Z 36004KT 9999 SCT020 BKN150 27/24 A2979=
201009100000 METAR MRLB 100000Z 07003KT 9999 FEW020 SCT100 26/23 A2980=
201009100100 METAR MRLB 100100Z 08003KT 9999 FEW015 SCT120 26/23 A2982 LTNG DST S=
201009100200 METAR MRLB 100200Z 02003KT 9999 FEW020 SCT120 25/23 A2984=
201009100300 METAR MRLB NIL=
201009100400 METAR MRLB NIL=
201009100500 METAR MRLB NIL=
201009100600 METAR MRLB NIL=
201009100700 METAR MRLB NIL=
201009100800 METAR MRLB NIL=
201009100900 METAR MRLB NIL=
201009101000 METAR MRLB NIL=
201009101100 METAR MRLB NIL=
201009101200 METAR MRLB 101200Z 17003KT 9999 FEW025 BKN120 25/23 A2984 RMK LOWST SW=
201009101300 METAR MRLB 101300Z 07002KT 9999 SCT030 BKN250 26/24 A2985=
201009101400 METAR MRLB 101400Z 12002KT 9999 SCT035 BKN250 28/24 A2987=
201009101500 METAR MRLB 101500Z 20003KT 9999 SCT035 BKN250 29/24 A2989=
201009101600 METAR MRLB 101600Z 24003KT 9999 SCT035 BKN250 30/24 A2989=
201009101700 METAR MRLB 101700Z 18004KT 9999 SCT035 BKN250 31/24 A2988=
201009101800 METAR MRLB 101800Z 05002KT 9999 SCT035 BKN240 32/23 A2985=
201009101900 METAR MRLB 101900Z 27008KT 9999 SCT035 BKN240 31/24 A2983=
201009102000 METAR MRLB 102000Z 26009KT 9999 FEW035 BKN240 31/25 A2980=
201009102100 METAR MRLB 102100Z 28010KT 9999 SCT035 BKN130 29/24 A2977 RMK RN DST N NE=
201009102200 METAR MRLB 102200Z 34004KT 9999 4000NE RA FEW010TCU SCT025 BKN110 27/25 A2978=
201009102300 METAR MRLB 102300Z 13008KT 3000 RA FEW010 BKN025 23/22 A2980 RMK VIS N UNL=
201009110000 METAR MRLB 110000Z 18004KT 9999 SCT030 BKN140 23/22 A2980 RMK RN DST S RERA=
201009110100 METAR MRLB 110100Z 03003KT 9999 SCT035 BKN140 23/22 A2981=
201009110200 METAR MRLB NIL=
201009110300 METAR MRLB NIL=
201009110400 METAR MRLB NIL=
201009110500 METAR MRLB NIL=
201009110600 METAR MRLB NIL=
201009110700 METAR MRLB NIL=
201009110800 METAR MRLB NIL=
201009110900 METAR MRLB NIL=
201009111000 METAR MRLB NIL=
201009111100 METAR MRLB NIL=
201009111200 METAR MRLB 111200Z 08003KT 9999 2000N BR SCT020 23/22 A2981=
201009111300 METAR MRLB 111300Z 03002KT 9999 BKN020 24/23 A2982=
201009111400 METAR MRLB 111400Z 18005KT 9999 FEW020 SCT250 26/24 A2984=
201009111500 METAR MRLB 111500Z 17003KT 9999 FEW020 SCT120 29/24 A2986=
201009111600 METAR MRLB 111600Z 24002KT 9999 FEW020 BKN120 30/25 A2987=
201009111700 METAR MRLB 111700Z 29004KT 9999 FEW025 SCT120 31/23 A2985=
201009111800 METAR MRLB 111800Z 25005KT 9999 SCT025 SCT250 32/24 A2982 RMK FEW120=
201009111900 METAR MRLB 111900Z 28007KT 9999 -TS VCSH FEW010CB SCT020 SCT120 31/24 A2991=
201009112000 METAR MRLB 112000Z 36004KT 9999 -RA FEW020 BKN120 26/25 A2978 RETSRA=
201009112100 METAR MRLB 112100Z 02005KT 9999 FEW020 BKN120 25/24 A2975=
201009112200 METAR MRLB 112200Z 02004KT 9999 SCT020 BKN120 25/24 A2975=
201009112300 METAR MRLB 112300Z 00000KT 9999 FEW020 BKN120 26/24 A2975=
201009120000 METAR MRLB 120000Z 16003KT 9999 BKN020 SCT100 25/24 A2977=
201009120100 METAR MRLB 120100Z 14004KT 9999 SCT020 SCT100 25/24 A2980=
201009120200 METAR MRLB 120200Z 00000KT 9999 SCT020 BKN100 25/24 A2982=
201009120300 METAR MRLB NIL=
201009120400 METAR MRLB NIL=
201009120500 METAR MRLB NIL=
201009120600 METAR MRLB NIL=
201009120700 METAR MRLB NIL=
201009120800 METAR MRLB NIL=
201009120900 METAR MRLB NIL=
201009121000 METAR MRLB NIL=
201009121100 METAR MRLB NIL=
201009121200 METAR MRLB 121200Z 01003KT CAVOK 24/23 A2981 RMK SCT250 LOW ST ARND=
201009121300 METAR MRLB 121300Z 03005KT CAVOK 25/24 A2981 RMK SCT250 HZY ARND=
201009121400 METAR MRLB 121400Z 00000KT CAVOK 29/24 A2982 RMK SCT250=
201009121500 METAR MRLB 121500Z 17008KT 9999 SCT015 BKN250 28/24 A2985=
201009121600 METAR MRLB 121600Z 19006KT 9999 SCT015 BKN250 29/24 A2985=
201009121700 METAR MRLB 121700Z 20006KT 9999 SCT020 BKN250 30/25 A2985 RMK TCU RA DST NE=
201009121800 METAR MRLB 121800Z 24004KT 9999 DZ SCT020 BKN140 30/24 A2982 RMK VIS 5000 N=
201009121900 METAR MRLB 121900Z 28006KT 9999 RA SCT015CB BKN120 24/23 A2979=
201009122000 METAR MRLB 122000Z 31005KT 9999 FEW015 SCT100 BKN250 27/25 A2997 RERA RMK TCU RA DST SW=
201009122100 METAR MRLB 122100Z 27010KT 9999 SCT020 BKN100 28/25 A2977=
201009122200 METAR MRLB 122200Z 29007KT 9999 -RA SCT015 BKN100 27/24 A2976=
201009122300 METAR MRLB 122300Z 10003KT 9999 DZ SCT015CB BKN100 26/25 A2978=
201009130000 METAR MRLB 130000Z 04004KT 9000 -RA SCT020 BKN100 25/24 A2979=
201009130100 METAR MRLB 130100Z 03005KT 9000 -RA SCT015 OVC100 25/24 A2981=
201009130200 METAR MRLB NIL=
201009130300 METAR MRLB NIL=
201009130400 METAR MRLB NIL=
201009130500 METAR MRLB NIL=
201009130600 METAR MRLB NIL=
201009130700 METAR MRLB NIL=
201009130800 METAR MRLB NIL=
201009130900 METAR MRLB NIL=
201009131000 METAR MRLB NIL=
201009131100 METAR MRLB NIL=
201009131200 METAR MRLB 131200Z 00000KT 9999 2000SW BCFG SCT003 BKN100 23/22 A2982=
201009131300 METAR MRLB 131300Z 09003KT 9999 FEW030 BKN120 25/23 A2983=
201009131400 METAR MRLB 131400Z 07002KT 9999 FEW035 BKN140 27/23 A2982=
201009131500 METAR MRLB NIL=
201009131600 METAR MRLB 131600Z 19002KT 9999 SCT035 BKN240 28/24 A2983=
201009131700 METAR MRLB 131700Z 24004KT 9999 SCT035 BKN240 30/23 A2983=
201009131800 METAR MRLB 131800Z 15003KT 9999 SCT035 BKN240 31/24 A2981=
201009131900 METAR MRLB 131900Z 25004KT 9999 VCSH FEW015CB SCT030TCU BKN230 30/24 A2979 RMK RA E NE=
201009132000 METAR MRLB 132000Z 27007KT 9999 -RA SCT030 BKN120 28/24 A2976=
201009132100 METAR MRLB 132100Z 31004KT 9999 VCSH SCT025 BKN100 27/24 A2975 RMK RN S=
201009132200 METAR MRLB 132200Z 27002KT 9999 SCT030 BKN110 27/24 A2974 RMK RN DST S=
201009132300 METAR MRLB 132300Z 04003KT 9999 SCT030 BKN100 26/23 A2976 RMK RN DST S/SE=
201009140000 METAR MRLB 140000Z 10003KT 9999 SCT025 BKN100 26/25 A2975 RMK RN DST S/SE=
201009140100 METAR MRLB 140100Z 12005KT 9999 -RA SCT025 BKN100 25/24 A2980=
201009140200 METAR MRLB NIL=
201009140300 METAR MRLB NIL=
201009140400 METAR MRLB NIL=
201009140500 METAR MRLB NIL=
201009140600 METAR MRLB NIL=
201009140700 METAR MRLB NIL=
201009140800 METAR MRLB NIL=
201009140900 METAR MRLB NIL=
201009141000 METAR MRLB NIL=
201009141100 METAR MRLB NIL=
201009141200 METAR MRLB 141200Z 32002KT 0500 FG FEW001 SCT020 BKN120 23/22 A2981 VIS E UNL=
201009141300 METAR MRLB 141300Z 10002KT 9999 FEW005 SCT130 24/23 A2982=
201009141400 METAR MRLB 141400Z 12003KT 9999 SCT010 SCT130 26/23 A2984 RMK RN DST SW=
201009141500 METAR MRLB 141500Z 16004KT 9999 SCT020 SCT250 27/24 A2985=
201009141600 METAR MRLB 141600Z 17005KT 9999 SCT025 BKN250 27/24 A2987=
201009141700 METAR MRLB 141700Z 00000KT 9999 FEW030 BKN250 30/24 A2985=
201009141800 METAR MRLB 141800Z 00000KT 9999 SCT030 BKN250 30/23 A2983 RMK CB DST SW=
201009141900 METAR MRLB 141900Z 28004KT 9999 SCT030 BKN250 30/25 A2980 RMK RN DST S/SW=
201009142000 METAR MRLB 142000Z 23008KT 9999 FEW020 SCT130 BKN250 30/25 A2978 RMK RN DST SE/S/SW=
201009142100 METAR MRLB 142100Z 19008KT 9999 -TSRA FEW008CB BKN100 25/23 A2976=
201009142200 METAR MRLB 142200Z 11002KT 9999 SCT020 BKN100 25/23 A2978 RETS=
201009142300 METAR MRLB 142300Z 11002KT 9999 ZCT020 BKN100 25/23 A2998=
201009150000 METAR MRLB 15000Z 03004KT 9999 FEW004 BKN100 25/24 A2979=
201009150100 METAR MRLB 150100Z 02002KT 9999 FEW020 BKN100 24/23 A2982=
201009150200 METAR MRLB NIL=
201009150300 METAR MRLB NIL=
201009150400 METAR MRLB NIL=
201009150500 METAR MRLB NIL=
201009150600 METAR MRLB NIL=
201009150700 METAR MRLB NIL=
201009150800 METAR MRLB NIL=
201009150900 METAR MRLB NIL=
201009151000 METAR MRLB NIL=
201009151100 METAR MRLB NIL=
201009151200 METAR MRLB 151200Z 00000KT 9999 FEW025 SCT120 25/23 A2982=
201009151300 METAR MRLB 151300Z 11005KT 9999 FEW010 SCT140 26/24 A2983=
201009151400 METAR MRLB 151400Z 09006KT 9999 SCT012 BKN120 28/24 A2986=
201009151500 METAR MRLB 151500Z 15005KT 9999 SCT020 BKN150 29/24 A2988=
201009151600 METAR MRLB 151600Z 16006KT 9999 SCT020 BKN140 29/24 A2988=
201009151700 METAR MRLB 151700Z 20005KT 9999 SCT018TCU BKN150 30/24 A2987 RMK RA DST S=
201009151800 METAR MRLB 151800Z 25004KT 9999 SCT015TCU BKN140 31/24 A2984 RMK RA DST S=
201009151900 METAR MRLB 151900Z 22005KT 9999 SCT015TCU BKN120 30/24 A2982 RMK RA DST ARND=
201009152000 METAR MRLB 152000Z 25006KT 9999 FEW020TCU BKN240 31/25 A2979 RMK RN SW=
201009152100 METAR MRLB 152100Z 28008KT 9999 FEW020TCU BKN250 30/25 A2976 RMK RN DST SW=
201009152200 METAR MRLB 152200Z 00000KT 9999 DZ SCT020 BKN100 27/25 A2974 RERA=
201009152300 METAR MRLB 152300Z 02005KT 9999 SCT020 BKN120 27/25 A2976=
201009160000 METAR MRLB 160000Z 01004KT 9999 -RA SCT015 BKN100 26/25 A2979 RMK LTNG DST SE=
201009160100 METAR MRLB NIL=
201009160200 METAR MRLB NIL=
201009160300 METAR MRLB NIL=
201009160400 METAR MRLB NIL=
201009160500 METAR MRLB NIL=
201009160600 METAR MRLB NIL=
201009160700 METAR MRLB NIL=
201009160800 METAR MRLB NIL=
201009160900 METAR MRLB NIL=
201009161000 METAR MRLB NIL=
201009161100 METAR MRLB NIL=
201009161200 METAR MRLB 161200Z 00000KT 0400 FG VV/// 24/23 A2981=
201009161300 METAR MRLB 161300Z 00000KT 1000 BR SCT003 BKN020 25/24 A2982=
201009161400 METAR MRLB 161400Z 13003KT 9999 SCT025 BKN250 27/24 A2984=
201009161500 METAR MRLB 161500Z 20003KT 9999 SCT035 BKN250 28/24 A2986=
201009161600 METAR MRLB 161600Z 20003KT 9999 SCT035 BKN250 30/24 A2986=
201009161700 METAR MRLB 161700Z 23005KT 9999 SCT035 BKN250 30/24 A2985=
201009161800 METAR MRLB 161800Z 26005KT 9999 SCT035 BKN250 31/24 A2983 RMK RN DST NE=
201009161900 METAR MRLB 161900Z 29008KT 9999 SCT035 BKN230 31/25 A2979 RMK RN DST E NE=
201009162000 METAR MRLB 162000Z 28010KT 9999 4000NE RA FEW010CB SCT020 BKN130 29/25 A2977=
201009162100 METAR MRLB 162100Z 25004KT 9999 SCT035 BKN140 27/25 A2974 RERA RMK RA DST S=
201009162200 METAR MRLB 162200Z 27006KT 9999 SCT035 BKN130 27/25 A2974=
201009162300 METAR MRLB 162300Z 25003KT 9999 FEW035 BKN130 27/25 A2975=
201009170000 METAR MRLB 170000Z 26003KT 9999 FEW035 BKN120 27/25 A2977=
201009170100 METAR MRLB 170100Z 18002KT 9999 -DZ SCT030 BKN120 26/25 A2979=
201009170200 METAR MRLB NIL=
201009170300 METAR MRLB NIL=
201009170400 METAR MRLB NIL=
201009170500 METAR MRLB NIL=
201009170600 METAR MRLB NIL=
201009170700 METAR MRLB NIL=
201009170800 METAR MRLB NIL=
201009170900 METAR MRLB NIL=
201009171000 METAR MRLB NIL=
201009171100 METAR MRLB NIL=
201009171200 METAR MRLB 171200Z 00000KT 4000 0500N FG FEW005 BKN250 24/24 A2976=
201009171300 METAR MRLB 171300Z 00000KT 4000 BR FEW005 BKN250 26/24 A2979=
201009171400 METAR MRLB 171400Z 00000KT 9999 SCT015 BKN250 28/25 A2981=
201009171500 METAR MRLB 171500Z 17003KT 9999 SCT020 BKN250 28/25 A2983=
201009171600 METAR MRLB 171600Z 19003KT 9999 SCT025 BKN250 30/25 A2983=
201009171700 METAR MRLB 171700Z 22004KT 9999 SCT030 BKN250 30/25 A2981=
201009171800 METAR MRLB 171800Z 30005KT 9999 SCT030 BKN250 31/25 A2978=
201009171900 METAR MRLB 171900Z 24006KT 9999 -RA SCT020 SCT140 30/25 A2976=
201009172000 METAR MRLB 172000Z 28006KT 9999 VCSH FEW010TCU SCT020 SCT140 29/25 A2973 RMK RA DST N S=
201009172100 METAR MRLB 172100Z 24004KT 9999 FEW020 BKN250 30/25 A2972 RMK RA SW=
201009172200 METAR MRLB 172200Z 25009KT 9999 FEW025 BKN250 30/25 A2971=
201009172300 METAR MRLB 172300Z 27005KT 9999 FEW025 SCT140 BKN250 28/25 A2972 RMK RA DST NE=
201009180000 METAR MRLB 180000Z 01002KT 9999 3000E -TSRA FEW010CB BKN020 28/25 A2974=
201009180100 METAR MRLB 180100Z 15007KT 9999 -RA FEW020 BKN120 24/23 A2978 RMK TS DST S W=
201009180200 METAR MRLB 180200Z 03004KT 9999 SCT020 BKN120 24/23 A2980=
201009180300 METAR MRLB NIL=
201009180400 METAR MRLB NIL=
201009180500 METAR MRLB NIL=
201009180600 METAR MRLB NIL=
201009180700 METAR MRLB NIL=
201009180800 METAR MRLB NIL=
201009180900 METAR MRLB NIL=
201009181000 METAR MRLB NIL=
201009181100 METAR MRLB NIL=
201009181200 METAR MRLB 181200Z 22004KT CAVOK 22/21 A2982 RMK SCT120 SCT240 CB DST N NE=
201009181300 METAR MRLB 181300Z 10006KT CAVOK 27/23 A2983 RMK SCT250=
201009181400 METAR MRLB 181400Z 12006KT 9999 FEW015 SCT250 28/24 A2984=
201009181500 METAR MRLB 181500Z 13007KT 9999 SCT020 BKN250 29/24 A2986=
201009181600 METAR MRLB 181600Z 14006KT 9999 SCT020 BKN250 29/24 A2987=
201009181700 METAR MRLB 181700Z 12006KT 9999 SCT020 BKN250 30/23 A2985=
201009181800 METAR MRLB 181800Z 15006KT 9999 SCT020 BKN240 31/22 A2985 RMK TCU N NE=
201009181900 METAR MRLB 181900Z 35003KT 9999 SCT020 BKN220 32/22 A2978=
201009182000 METAR MRLB 182000Z 26010KT 9999 SCT015CB BKN120 28/24 A2978 RMK 4000SW DUE RA=
201009182100 METAR MRLB 182100Z 22005KT 9999 FEW025 BKN200 25/23 A2973 RERA=
201009182200 METAR MRLB 182200Z 00000KT 9999 FEW025 BKN250 27/24 A2975 RMK TCU DST N=
201009182300 METAR MRLB 182300Z 20003KT 9999 FEW030 BKN240 27/24 A2978=
201009190000 METAR MRLB 190000Z 00000KT 9999 FEW025 SCT100 26/24 A2979 RMK TCU E/S=
201009190100 METAR MRLB 190100Z 00000KT 9999 FEW025 SCT100 26/24 A2981=
201009190200 METAR MRLB NIL=
201009190300 METAR MRLB NIL=
201009190400 METAR MRLB NIL=
201009190500 METAR MRLB NIL=
201009190600 METAR MRLB NIL=
201009190700 METAR MRLB NIL=
201009190800 METAR MRLB NIL=
201009190900 METAR MRLB NIL=
201009191000 METAR MRLB NIL=
201009191100 METAR MRLB NIL=
201009191200 METAR MRLB 191200Z 00000KT 9999 SCT030 BKN120 24/23 A2987=
201009191300 METAR MRLB 191300Z 00000KT 9999 SCT030 BKN120 25/23 A2989=
201009191400 METAR MRLB 191400Z 12004KT 9999 FEW035 BKN130 26/23 A2989=
201009191500 METAR MRLB 191500Z 14004KT 9999 FEW035 BKN140 28/24 A2991=
201009191600 METAR MRLB 191600Z 15005KT 9999 SCT035 BKN140 29/24 A2992=
201009191700 METAR MRLB 191700Z 22002KT 9999 SCT035 BKN140 28/24 A2991=
201009191800 METAR MRLB 191800Z 13004KT 9999 SCT035 BKN140 30/24 A2988=
201009191900 METAR MRLB 191900Z 24007KT 9999 -RA SCT035 BKN130 27/24 A2986 RMK VIS 6KM S DUE RN=
201009192000 METAR MRLB 192000Z 16004KT 9999 VCSH SCT025 BKN120 26/24 A2982 RMK RN DST N/NE=
201009192100 METAR MRLB 192100Z 09004KT 9999 FEW035 BKN120 26/24 A2980 RMK RA DST N=
201009192200 METAR MRLB 192200Z 10002KT 9999 FEW035 BKN130 27/23 A2980=
201009192300 METAR MRLB 192300Z 15002KT 9999 FEW035 BKN130 26/24 A2982=
201009200000 METAR MRLB 200000Z 12002KT 9999 FEW035 BKN140 26/24 A2983=
201009200100 METAR MRLB 200100Z 19002KT 9999 SCT035 BKN140 25/24 A2985=
201009200200 METAR MRLB 200200Z 18002KT 9999 SCT030 BKN140 25/24 A2987=
201009200300 METAR MRLB NIL=
201009200400 METAR MRLB NIL=
201009200500 METAR MRLB NIL=
201009200600 METAR MRLB NIL=
201009200700 METAR MRLB NIL=
201009200800 METAR MRLB NIL=
201009200900 METAR MRLB NIL=
201009201000 METAR MRLB NIL=
201009201100 METAR MRLB NIL=
201009201200 METAR MRLB NIL=
201009201300 METAR MRLB 201300Z 13002KT 9999 FEW035 BKN130 26/24 A2987=
201009201400 METAR MRLB 201400Z 12006KT 999 SCT030 BKN140 27/24 A2988=
201009201500 METAR MRLB 201500Z 14006KT 9999 SCT030 BKN250 28/24 A2988=
201009201600 METAR MRLB 201600Z 12006KT 9999 SCT030 SCT250 29/23 A2988=
201009201700 METAR MRLB 201700Z 13005KT 9999 SCT030 BKN250 30/23 A2986 RMK RA DST S SW=
201009201800 METAR MRLB 201800Z 16005KT 9999 VCSH SCT020 SCT250 31/24 A2984 RMK RASH DST S SW=
201009201900 METAR MRLB 201900Z 23008KT 3000 RA SCT020 BKN100 24/23 A2981=
201009202000 METAR MRLB 202000Z 18005KT 9999 FEW020 BKN100 27/24 A2978 RMK RA E=
201009202100 METAR MRLB 202100Z 26003KT 9999 FEW020 BKN120 27/24 A2979 RMK RN DST N E=
201009202200 METAR MRLB 202200Z 26002KT 9999 FEW010TCU SCT020 SCT100 27/24 A2977 RMK RN DST E SE=
201009202300 METAR MRLB 202300Z 11004KT 9999 VCSH FEW020 BKN100 25/23 A2978 RMK RN NE E=
201009210000 METAR MRLB 210000Z 07004KT 9999 SCT020 SCT100 24/22 A2980 RMK RN DST S W=
201009210100 METAR MRLB 210100Z 04003KT 9999 SCT020 BKN100 24/23 A2982=
201009210200 METAR MRLB NIL=
201009210300 METAR MRLB NIL=
201009210400 METAR MRLB NIL=
201009210500 METAR MRLB NIL=
201009210600 METAR MRLB NIL=
201009210700 METAR MRLB NIL=
201009210800 METAR MRLB NIL=
201009210900 METAR MRLB NIL=
201009211000 METAR MRLB NIL=
201009211100 METAR MRLB NIL=
201009211200 METAR MRLB 211200Z 07004KT 9999 SCT030 SCT120 23/22 A2982 RERA RMK RN DST N/NE CB DST W=
201009211300 METAR MRLB 211300Z 09003KT 9999 FEW012 SCT025 25/23 A2984 RMK FEW120=
201009211400 METAR MRLB 211400Z 14004KT 9999 SCT012 BKN120 26/24 A2985=
201009211500 METAR MRLB 211500Z 13004KT 9999 SCT020 BKN130 28/24 A2987=
201009211600 METAR MRLB 211600Z 15006KT 9999 FEW015TCU SCT020 BKN130 29/24 A2989 RMK RN DST SW=
201009211700 METAR MRLB 211700Z 15005KT 9999 -RA BKN025 29/23 A2987 RMK FEW130=
201009211800 METAR MRLB 211800Z 15005KT 9999 VCSH SCT025TCU SCT130 31/24 A2984 RMK SH S SW CB DST SW=
201009211900 METAR MRLB 211900Z 21009KT 9999 RA FEW020CB BKN025 25/23 A2981 RMK VIS SW W 5KMS=
201009212000 METAR MRLB 212000Z 08003KT 9999 -RA SCT025 BKN100 24/23 A2980 RETS RMK VIS NW 5KMS=
201009212100 METAR MRLB 212100Z 06004KT 9999 -RA SCT030 BKN100 24/23 A2979=
201009212200 METAR MRLB 07004KT 9999 -RA FEW030 BKN100 25/23 A2978=
201009212201 METAR MRLB 212201Z 07004KT 9999 -RA FEW030 BKN100 25/23 A2978=
201009212300 METAR MRLB 212300Z 10003KT 9999 -RA FEW015 BKN030 29/23 A2979 RMK LW ST S SW=
201009220000 METAR MRLB 220000Z 10004KT 9999 -RA BKN025 SCT100 24/23 A2981 RMK LW ST S SE=
201009220100 METAR MRLB 220100Z 11004KT 9999 SCT025 BKN100 24/22 A2983=
201009220200 METAR MRLB NIL=
201009220300 METAR MRLB NIL=
201009220400 METAR MRLB NIL=
201009220500 METAR MRLB NIL=
201009220600 METAR MRLB NIL=
201009220700 METAR MRLB NIL=
201009220800 METAR MRLB NIL=
201009220900 METAR MRLB NIL=
201009221000 METAR MRLB NIL=
201009221100 METAR MRLB NIL=
201009221200 METAR MRLB 221200Z 00000KT 9999 SCT030 BKN250 23/22 A2982=
201009221300 METAR MRLB 221300Z 00000KT 9999 FEW035 SCT250 25/23 A2984=
201009221400 METAR MRLB 221400Z 13005KT 9999 FEW035 SCT250 27/24 A2986=
201009221500 METAR MRLB 221500Z 19003KT 9999 SCT035 SCT250 29/24 A2988=
201009221600 METAR MRLB 221600Z 16005KT 9999 SCT035 SCT250 29/24 A2988=
201009221700 METAR MRLB 221700Z 22004KT 9999 SCT035 BKN250 30/23 A2987=
201009221800 METAR MRLB 221800Z 25006KT 9999 SCT035 BKN240 30/24 A2984 RMK RA DST E NE=
201009221900 METAR MRLB 221900Z 29006KT 9999 VCSH SCT035 BKN230 29/24 A2982 RMK RA E=
201009222000 METAR MRLB 222000Z 03006KT 9999 3000S RA FEW010TCU SCT030 BKN130 26/24 A2978=
201009222100 METAR MRLB NIL=
201009222200 METAR MRLB 222200Z 10002KT 9999 DZ SCT025 BKN110 24/23 A2976=
201009222300 METAR MRLB 222300Z 10002KT 9999 FEW035 BKN120 25/23 A2976 REDZ=
201009230000 METAR MRLB 230000Z 12002KT 9999 SCT030 BKN120 24/23 A2980=
201009230100 METAR MRLB 230100Z 17002KT 9999 SCT030 BKN120 24/23 A2982=
201009230200 METAR MRLB NIL=
201009230300 METAR MRLB NIL=
201009230400 METAR MRLB NIL=
201009230500 METAR MRLB NIL=
201009230600 METAR MRLB NIL=
201009230700 METAR MRLB NIL=
201009230800 METAR MRLB NIL=
201009230900 METAR MRLB NIL=
201009231000 METAR MRLB NIL=
201009231100 METAR MRLB NIL=
201009231200 METAR MRLB 231200Z 09002KT 9999 -RA SCT015 BKN080 23/22 A2984=
201009231300 METAR MRLB 231300Z 05004KT 9999 FEW005 SCT020 BKN100 24/23 A2985=
201009231400 METAR MRLB 231400Z 09003KT 9999 SCT010 BKN100 25/23 A2987=
201009231500 METAR MRLB 231500Z 15003KT 9999 SCT020 BKN100 27/24 A2988=
201009231600 METAR MRLB 231600Z 15003KT 9999 SCT035 BKN120 28/23 A2989=
201009231700 METAR MRLB NIL=
201009231800 METAR MRLB 231800Z 23008KT 9999 4000SW RA BKN020 SCT120 26/24 A2984=
201009231900 METAR MRLB 231900Z 20004KT 9999 -RA SCT020 BKN120 26/24 A2980 RERA TCU RASH N=
201009232000 METAR MRLB 232000Z 23007KT 9999 SCT015 BKN100 26/24 A2978 RMK RASH S SW=
201009232100 METAR MRLB 232100Z 26008KT 9999 SCT010 BKN100 27/24 A2970 RMK CB DST N/S/SW=
201009232200 METAR MRLB 232200Z 20003KT 9999 FEW010 BKN100 26/24 A2976 RMK RN DST=
201009232300 METAR MRLB 232300Z 16003KT 9999 SCT010 SCT100 25/24 A2978 RMK RN DST=
201009240000 METAR MRLB 240000Z 15003KT 9999 SCT010 BKN100 24/23 A2979 RMK RN DST S=
201009240100 METAR MRLB 240100Z 04003KT 9999 SCT020 BKN100 24/23 A2982=
201009240200 METAR MRLB 240200Z 10002KT 9999 SCT010 BKN100 24/23 A2989 RMK LTNG DST N=
201009240300 METAR MRLB NIL=
201009240400 METAR MRLB NIL=
201009240500 METAR MRLB NIL=
201009240600 METAR MRLB NIL=
201009240700 METAR MRLB NIL=
201009240800 METAR MRLB NIL=
201009240900 METAR MRLB NIL=
201009241000 METAR MRLB NIL=
201009241100 METAR MRLB NIL=
201009241200 METAR MRLB 241200Z 10003KT 3000 -RA FEW001 SCT010 BKN025 23/22 A2982=
201009241300 METAR MRLB 241300Z 10004KT 8000 DZ SCT012 BKN070 23/23 A2983 RMK ST LOW ARND=
201009241400 METAR MRLB 241400Z 11004KT 7000 -DZ SCT010 BKN070 24/23 A2986 RMK ST LOW ARND VIS UNLD N=
201009241500 METAR MRLB 241500Z 14003KT 8000 -RA FEW004 SCT012 BKN080 25/23 A2986 RMK VIS UNLD N=
201009241600 METAR MRLB 241600Z 13004KT 8000 DZ SCT010 BKN080 25/23 A2986 RMK VIS N UNLD=
201009241700 METAR MRLB 241700Z 15004KT 8000 DZ SCT010 BKN080 25/24 A2986 RMK VIS=
201009241800 METAR MRLB 241800Z 14003KT 9999 SCT010 BKN100 26/24 A2983 REDZ=
201009241900 METAR MRLB 241900Z 24005KT 4000 DZ SCT010 BKN080 26/24 A2980 RMK VIS=
201009242000 METAR MRLB 242000Z 20003KT 8000 RA SCT010 BKN060 23/23 A2977=
201009242100 METAR MRLB 242100Z 11003KT 9999 -RA SCT008 BKN008 24/23 A2976=
201009242200 METAR MRLB 242200Z 12003KT 9999 RA SCT010 BKN100 24/21 A2976=
201009242300 METAR MRLB 242300Z 15003KT 2500 RA SCT010 BKN035 23/23 A2978=
201009250000 METAR MRLB 250000Z 13004KT 9000 VCDZ SCT010 BKN090 23/23 A2978=
201009250100 METAR MRLB 250100Z 12003KT 8000 VCRA SCT010 OVC070 23/23 A2980=
201009250200 METAR MRLB NIL=
201009250300 METAR MRLB NIL=
201009250400 METAR MRLB NIL=
201009250500 METAR MRLB NIL=
201009250600 METAR MRLB NIL=
201009250700 METAR MRLB NIL=
201009250800 METAR MRLB NIL=
201009250900 METAR MRLB NIL=
201009251000 METAR MRLB NIL=
201009251100 METAR MRLB NIL=
201009251200 METAR MRLB 251200Z 13005KT 9999 -DZ SCT020 BKN100 23/22 A2979=
201009251300 METAR MRLB 251300Z 10005KT 9999 FEW010 BKN025 24/23 A2981=
201009251400 METAR MRLB 251400Z 12006KT 9999 FEW010 BKN030 25/23 A2983 RMK RN DST SW=
201009251500 METAR MRLB 251500Z 14006KT 6000 -RA FEW008 BKN030 25/23 A2984=
201009251600 METAR MRLB 251600Z 14005KT 9999 BKN025 26/24 A2985 RMK RA DST S E=
201009251700 METAR MRLB 251700Z 15005KT 9999 SCT020 BKN120 26/24 A2984 RMK RA DST E NE S=
201009251800 METAR MRLB 251800Z 12006KT 9999 SCT025 BKN120 26/24 A2983 RMK RA DST NE=
201009251900 METAR MRLB 251900Z 10003KT 9999 -RA SCT020 BKN110 26/24 A2980=
201009252000 METAR MRLB 252000Z 13004KT 9999 4000S RA FEW010 BKN025 26/24 A2978=
201009252100 METAR MRLB 252100Z 18005KT 6000 RA FEW008 BKN020 25/24 A2976=
201009252200 METAR MRLB 252200Z 17003KT 9999 SCT030 BKN120 25/24 A2975 RERA=
201009252300 METAR MRLB 252300Z 20005KT 9999 SCT020 BKN100 25/24 A2977 RMK RN DST E NE=
201009260000 METAR MRLB 260000Z 20004KT 9099 SCT020 BKN100 25/24 A2979 RMK RN DST E NE=
201009260100 METAR MRLB 260100Z 17004KT 6000 RA FEW010 BKN025 24/23 A2981=
201009260200 METAR MRLB 260200Z 15004KT 9999 DZ SCT010 BKN090 24/23 A2984=
201009260300 METAR MRLB NIL=
201009260400 METAR MRLB NIL=
201009260500 METAR MRLB NIL=
201009260600 METAR MRLB NIL=
201009260700 METAR MRLB NIL=
201009260800 METAR MRLB NIL=
201009260900 METAR MRLB NIL=
201009261000 METAR MRLB NIL=
201009261100 METAR MRLB NIL=
201009261200 METAR MRLB 261200Z 11005KT 9999 -RA FEW010 BKN080 21/21 A2987=
201009261300 METAR MRLB 261300Z 10005KT 9999 -RA FEW010 BKN080 21/21 A2987=
201009261400 METAR MRLB NIL=
201009261500 METAR MRLB 261500Z 12003KT 9999 -RA FEW010 BKN100 22/21 A2991=
201009261600 METAR MRLB 261600Z 12004KT 9999 -RA SCT010 BKN100 23/22 A2993=
201009261700 METAR MRLB 261700Z 12005KT 9999 -RA SCT010 BKN100 24/22 A2989=
201009261800 METAR MRLB 261800Z 12005KT 9999 -RA SCT010 BKN100 24/22 A2989=
201009261801 METAR MRLB 261801Z 16004KT 9999 -RA OVC010 24/23 A2986=
201009261900 METAR MRLB 261900Z 13005KT 9999 SCT010 BKN120 25/23 A2984 RMK RN DST NE=
201009262000 METAR MRLB 262000Z 11005KT 9999 SCT010 BKN100 25/23 A2981=
201009262100 METAR MRLB 262100Z 09004KT 9999 SCT010 BKN100 24/23 A2979=
201009262200 METAR MRLB 262200Z 11006KT 9999 SCT010 SCT120 25/22 A2979=
201009262300 METAR MRLB 262300Z 12005KT 9999 FEW010 BKN120 24/23 A2978=
201009270000 METAR MRLB 270000Z 12003KT 9999 BKN010 SCT120 24/23 A2981=
201009270100 METAR MRLB 270100Z 12002KT 9999 SCT010 SCT120 24/23 A2983=
201009270200 METAR MRLB 270200Z 11003KT 9999 SCT020 BKN120 24/23 A2985=
201009270300 METAR MRLB NIL=
201009270400 METAR MRLB NIL=
201009270500 METAR MRLB NIL=
201009270600 METAR MRLB NIL=
201009270700 METAR MRLB NIL=
201009270800 METAR MRLB NIL=
201009270900 METAR MRLB NIL=
201009271000 METAR MRLB NIL=
201009271100 METAR MRLB NIL=
201009271200 METAR MRLB 271200Z 14004KT 9999 FEW010 SCT120 23/22 A2980 RMK LOW ST ARND=
201009271300 METAR MRLB 271300Z 14004KT 9999 SCT008 BKN100 24/23 A2982 RMK LW ST ARND=
201009271400 METAR MRLB 271400Z 15004KT 9999 DZ FEW004 SCT012 BKN100 24/23 A2985 RMK LW ST ARND=
201009271500 METAR MRLB 271500Z 17004KT 9999 VCSH SCT010 BKN100 27/24 A2985 RMK VIS 8KM SW=
201009271600 METAR MRLB 271600Z 20005KT 9999 DZ SCT010 BKN100 26/24 A2986 RMK VIS 6KM SW=
201009271700 METAR MRLB 271700Z 25006KT 9999 SCT015 BKN120 27/24 A2984 RMK RA DST SE=
201009271800 METAR MRLB 271800Z 26010KT 9999 SCT020 BKN140 29/24 A2982 RMK RA DST S=
201009271900 METAR MRLB 271900Z 24007KT 9999 SCT015 BKN120 29/23 A2980=
201009272000 METAR MRLB 272000Z 27011KT 9999 SCT015 BKN120 29/23 A2978 RMK RA DST E NE=
201009272100 METAR MRLB 272100Z 26007KT 9999 SCT020 BKN140 29/23 A2977=
201009272200 METAR MRLB 272200Z 24005KT 9999 SCT020 BKN140 27/23 A2978=
201009272300 METAR MRLB 272300Z 24005KT 9999 FEW020 SCT150 27/23 A2979=
201009280000 METAR MRLB 280000Z 20003KT 9999 FEW020 BKN120 26/24 A2980=
201009280100 METAR MRLB 280100Z 00000KT 9999 FEW015 SCT100 26/24 A2982=
201009280200 METAR MRLB 280200Z 00000KT 9999 FEW015 SCT120 25/24 A2984=
201009280300 METAR MRLB NIL=
201009280400 METAR MRLB NIL=
201009280500 METAR MRLB NIL=
201009280600 METAR MRLB NIL=
201009280700 METAR MRLB NIL=
201009280800 METAR MRLB NIL=
201009280900 METAR MRLB NIL=
201009281000 METAR MRLB NIL=
201009281100 METAR MRLB NIL=
201009281200 METAR MRLB 281200Z 21003KT 9999 4000SW RA FEW010 BKN025 24/23 A2979=
201009281300 METAR MRLB 281300Z 16003KT 9999 SCT030 BKN110 25/23 A2979 RERA=
201009281400 METAR MRLB 281400Z 19003KT 9999 SCT020 BKN120 26/24 A2981=
201009281500 METAR MRLB 281500Z 18005KT 9999 VCSH SCT020 BKN110 27/24 A2983 RMK SH S=
201009281600 METAR MRLB 281600Z 18007KT 9999 SCT030 BKN130 28/24 A2980 RMK RN DST N=
201009281700 METAR MRLB 281700Z 16004KT 9999 SCT030 SCT120 30/24 A2992=
201009281800 METAR MRLB 281800Z 29006KT 9999 SCT030 BKN140 27/25 A2975 RERA RMK RN DST NE=
201009281900 METAR MRLB 281900Z 25011KT 9999 SCT025 BKN140 28/24 A2976 RMK RN DST S/SE=
201009282000 METAR MRLB 282000Z 26011KT 9999 SCT030 BKN140 29/24 A2973 RMK RN DST S=
201009282100 METAR MRLB 282100Z 20006KT 9999 SCT025 BKN140 27724 A2971 RA DST E SE=
201009282200 METAR MRLB 282200Z 24011KT 9999 SCT030 BKN140 28/23 A2971=
201009282300 METAR MRLB 282300Z 22008KT 9999 SCT030 BKN130 26/23 A2973 RMK RA N S=
201009290000 METAR MRLB 290000Z 22005KT 9999 SCT025 BKN130 26/23 A2974=
201009290100 METAR MRLB 290100Z 20004KT 9999 SCT030 BKN120 25/23 A2975=
201009290200 METAR MRLB NIL=
201009290300 METAR MRLB NIL=
201009290400 METAR MRLB NIL=
201009290500 METAR MRLB NIL=
201009290600 METAR MRLB NIL=
201009290700 METAR MRLB NIL=
201009290800 METAR MRLB NIL=
201009290900 METAR MRLB NIL=
201009291000 METAR MRLB NIL=
201009291100 METAR MRLB NIL=
201009291200 METAR MRLB 291200Z 21005KT 9999 -RA FEW010 BKN080 24/23 A2978=
201009291300 METAR MRLB 291300Z 23004KT 9999 -RA SCT010 BKN090 24/23 A2980=
201009291400 METAR MRLB 291400Z 21006KT 9999 -RA SCT010 BKN100 26/24 A2983=
201009291500 METAR MRLB 291500Z 22007KT 9999 FEW010 BKN120 27/24 A2983=
201009291600 METAR MRLB 291600Z 22010KT 9999 BKN015 28/23 A2984 RMK SCT120 RN DST ARND=
201009291700 METAR MRLB 291700Z 23009KT 9999 -RA BKN015 27/24 A2983=
201009291800 METAR MRLB 291800Z 25010KT 9999 SCT010 BKN120 28/24 A2980 RMK RN DST=
201009291900 METAR MRLB 291900Z 25010KT 9999 SCT015 BKN130 30/24 A2978 RMK RN DST N/NE=
201009292000 METAR MRLB 292000Z 24013KT 9999 SCT015 BKN120 29/23 A2976 RMK RN DST N/NE/S=
201009292100 METAR MRLB 292100Z 24008KT 9999 -RA BKN015 SCT100 26/24 A2975=
201009292200 METAR MRLB 292200Z 25007KT 9999 SCT020 BKN100 26/23 A2975 RMK RN DST E=
201009292300 METAR MRLB 292300Z 25008KT 9999 SCT015 BKN120 27/23 A2975 RMK RN DST N NE E=
201009300000 METAR MRLB 300000Z 24005KT 9999 SCT015 BKN120 26/23 A2976 RMK RN DST N NE E=
201009300100 METAR MRLB 300100Z 14002KT 9999 FEW020 BKN120 25/23 A2979=
201009300200 METAR MRLB 300200Z 19003KT 9999 FEW020 BKN120 25/23 A2980=
201009300300 METAR MRLB NIL=
201009300400 METAR MRLB NIL=
201009300500 METAR MRLB NIL=
201009300600 METAR MRLB NIL=
201009300700 METAR MRLB NIL=
201009300800 METAR MRLB NIL=
201009300900 METAR MRLB NIL=
201009301000 METAR MRLB NIL=
201009301100 METAR MRLB NIL=
201009301200 METAR MRLB 301200Z 15004KT 7000 -RA SCT010 BKN040 23/23 A2983=
201009301300 METAR MRLB 301300Z 13003KT 9999 SCT010 BKN100 25/24 A2986=
201009301400 METAR MRLB 301400Z 17004KT 6000 -RA FEW005 SCT010 BKN070 25/24 A2988=
201009301500 METAR MRLB 301500Z 20006KT 8000 DZ BR SCT010 BKN100 25/24 A2989 RMK VIS 9999 N=
201009301600 METAR MRLB NIL=
201009301700 METAR MRLB NIL=
201009301800 METAR MRLB 301800Z 24009KT 9999 VCSH SCT012 BKN100 27/24 A2986 RMK RN DST SW S E=
201009301900 METAR MRLB 301900Z 27010KT 9999 DZ SCT012 BKN100 27/24 A2984=
201009302000 METAR MRLB 302000Z 27011KT 8000 DZ SCT010 BKN100 28/24 A2982=
201009302100 METAR MRLB 302100Z 27008KT 9999 VCSH SCT010 BKN100 26/24 A2979=
201009302200 METAR MRLB 302200Z 27008KT 9999 VCSH SCT010 BKN100 26/24 A2979=
201009302300 METAR MRLB 302300Z 27006KT 4000 -RA SCT010 BKN080 25/24 A2981=
201010010000 METAR MRLB 010000Z 00000KT 9999 -DZ SCT012 BKN100 24/23 A2984=
201010010100 METAR MRLB NIL=
201010010200 METAR MRLB NIL=
201010010300 METAR MRLB NIL=
201010010400 METAR MRLB NIL=
201010010500 METAR MRLB NIL=
201010010600 METAR MRLB NIL=
201010010700 METAR MRLB NIL=
201010010800 METAR MRLB NIL=
201010010900 METAR MRLB NIL=
201010011000 METAR MRLB NIL=
201010011100 METAR MRLB NIL=
201010011200 METAR MRLB 011200Z 00000KT 9999 SCT025 BKN120 24/23 A2985 RMK RN DST S=
201010011300 METAR MRLB 011300Z 17002KT 9999 SCT030 BKN120 25/23 A2987=
201010011400 METAR MRLB 011400Z 15002KT 9999 SCT035 BKN140 27/24 A2989=
201010011500 METAR MRLB 011500Z 24002KT 9999 DZ SCT025 BKN120 27/24 A2990=
201010011600 METAR MRLB 011600Z 26006KT 9999 SCT035 BKN230 29/24 A2991=
201010011700 METAR MRLB 011700Z 26007KT 9999 SCT035 BKN240 30/24 A2989=
201010011800 METAR MRLB 011800Z 29009KT 9999 FEW035 BKN140 29/23 A2985=
201010011900 METAR MRLB 011900Z 27010KT 9999 SCT035 BKN140 30/24 A2984=
201010012000 METAR MRLB 012000Z 28009KT 9999 SCT035 BKN230 29/24 A2983=
201010012100 METAR MRLB 012100Z 28009KT 9999 SCT035 BKN140 28/23 A2980=
201010012200 METAR MRLB 012200Z 27009KT 9999 FEW035 BKN230 28/23 A2980=
201010012300 METAR MRLB 012300Z 26008KT 9999 FEW035 BKN230 27/24 A2980=
201010020000 METAR MRLB 020000Z 26005KT 9999 FEW035 BKN230 26/23 A2981=
201010020100 METAR MRLB 020100Z 30003KT 9999 SCT035 BKN140 25/23 A2984=
201010020200 METAR MRLB NIL=
201010020300 METAR MRLB NIL=
201010020400 METAR MRLB NIL=
201010020500 METAR MRLB NIL=
201010020600 METAR MRLB NIL=
201010020700 METAR MRLB NIL=
201010020800 METAR MRLB NIL=
201010020900 METAR MRLB NIL=
201010021000 METAR MRLB NIL=
201010021100 METAR MRLB NIL=
201010021200 METAR MRLB 021200Z 08002KT 9999 SCT030 SCT130 24/23 A2984=
201010021300 METAR MRLB 021300Z 00000KT 9999 FEW030 BKN130 24/23 A2986=
201010021400 METAR MRLB 021400Z 00000KT 9999 FEW010 BKN130 26/24 A2987=
201010021500 METAR MRLB 021500Z 00000KT 9999 SCT015 BKN130 28/24 A2989=
201010021600 METAR MRLB 021600Z 24002KT 9999 FEW020 BKN250 27/24 A2987=
201010021700 METAR MRLB 021700Z 29004KT 9999 SCT025 BKN250 30/24 A2986=
201010021800 METAR MRLB 021800Z 27010KT 9999 -RA BKN010 SCT100 29/24 A2983=
201010021900 METAR MRLB 021900Z 29008KT 9999 3000E RA BKN010 SCT100 27/24 A2979=
201010022000 METAR MRLB 022000Z 06003KT 9999 -RA FEW010 BKN100 25/23 A2977 RERA RMK TS DST S=
201010022100 METAR MRLB 022100Z 08002KT -RA FEW010 BKN100 24/22 A2975=
201010022200 METAR MRLB 022200Z 00000KT 9999 FEW010 BKN100 25/23 A2978 RMK TS DST S=
201010022300 METAR MRLB 022300Z 10003KT 9999 FEW010 BKN080 25/23 A2979=
201010030000 METAR MRLB 030000Z 11005KT 9999 FEW010 BKN080 24/23 A2981=
201010030100 METAR MRLB NIL=
201010030200 METAR MRLB NIL=
201010030300 METAR MRLB NIL=
201010030400 METAR MRLB NIL=
201010030500 METAR MRLB NIL=
201010030600 METAR MRLB NIL=
201010030700 METAR MRLB NIL=
201010030800 METAR MRLB NIL=
201010030900 METAR MRLB NIL=
201010031000 METAR MRLB NIL=
201010031100 METAR MRLB NIL=
201010031200 METAR MRLB 031200Z 16003KT 9999 FEW030 BKN100 23/22 A2986=
201010031300 METAR MRLB NIL=
201010031400 METAR MRLB 031400Z 08003KT 9999 FEW020 BKN180 26/23 A2989=
201010031500 METAR MRLB 031500Z 15005KT 9999 FEW015 BKN140 27/23 A2990=
201010031600 METAR MRLB 031600Z 20004KT 9999 SCT020 BKN200 28/24 A2992=
201010031700 METAR MRLB 031700Z 17006KT 9999 SCT025 BKN220 29/23 A2990=
201010031800 METAR MRLB 031800Z 18005KT 9999 SCT025TCU BKN180 31/23 A2985=
201010031900 METAR MRLB 031900Z 26005KT 9999 SCT020TCU BKN120 29/23 A2983 RMK RA SW=
201010032000 METAR MRLB 032000Z 28007KT 9999 SCT020 BKN120 27/24 A2980=
201010032100 METAR MRLB 032100Z 28006KT 9999 SCT020 BKN150 26/23 A2979 RMK RN DST S/SW=
201010032200 METAR MRLB 032200Z 20006KT 9999 SCT025 BKN100 25/23 A2980=
201010032300 METAR MRLB 032300Z 00000KT 9999 FEW030 BKN120 25/24 A2982=
201010040000 METAR MRLB 040000Z 00000KT 9999 FEW025 BKN100 25/24 A2984=
201010040100 METAR MRLB 040100Z 00000KT 9999 FEW025 BKN100 25/24 A2986=
201010040200 METAR MRLB NIL=
201010040300 METAR MRLB NIL=
201010040400 METAR MRLB NIL=
201010040500 METAR MRLB NIL=
201010040600 METAR MRLB NIL=
201010040700 METAR MRLB NIL=
201010040800 METAR MRLB NIL=
201010040900 METAR MRLB NIL=
201010041000 METAR MRLB NIL=
201010041100 METAR MRLB NIL=
201010041200 METAR MRLB 041200Z 00000KT 9999 FEW030 BKN130 23/22 A2986=
201010041300 METAR MRLB 041300Z 00000KT 9999 FEW035 BKN130 24/22 A2988=
201010041400 METAR MRLB 041400Z 20004KT 9999 FEW035 BKN130 25/22 A2990=
201010041500 METAR MRLB NIL=
201010041600 METAR MRLB 041600Z 26003KT 9999 FEW035 SCT140 29/22 A2991=
201010041700 METAR MRLB 041700Z 29004KT 9999 FEW035 BKN250 30/22 A2989=
201010041800 METAR MRLB 041800Z 25006KT 9999 FEW035 BKN250 32/20 A2987=
201010041900 METAR MRLB 041900Z 22004KT 9999 FEW035 BKN250 32/21 A2983=
201010042000 METAR MRLB 042000Z 22006KT 9999 FEW035 BKN250 31/20 A2982=
201010042100 METAR MRLB 042100Z 26006KT 9999 FEW035 BKN140 32/20 A2981=
201010042200 METAR MRLB 042200Z 28005KT 9999 FEW035 BKN140 30/22 A2982=
201010042300 METAR MRLB 042300Z 27004KT 9999 FEW035 BKN140 28/22 A2993=
201010050000 METAR MRLB 050000Z 14002KT 9999 FEW035 BKN130 27/23 A2984=
201010050100 METAR MRLB 050100Z 18002KT 9999 SCT035 BKN130 26/23 A2985=
201010050200 METAR MRLB NIL=
201010050300 METAR MRLB NIL=
201010050400 METAR MRLB NIL=
201010050500 METAR MRLB NIL=
201010050600 METAR MRLB NIL=
201010050700 METAR MRLB NIL=
201010050800 METAR MRLB NIL=
201010050900 METAR MRLB NIL=
201010051000 METAR MRLB NIL=
201010051100 METAR MRLB NIL=
201010051200 METAR MRLB 051200Z 22002KT CAVOK 23/22 A2987 RMK BKN130 HZ ARND=
201010051300 METAR MRLB 051300Z 19003KT CAVOK 24/23 A2989 RMK BKN130 HZ ARND=
201010051400 METAR MRLB 051400Z 00000KT 9999 FEW010 BKN130 25/23 A2990 RMK HZ LEVE ARND=
201010051500 METAR MRLB 051500Z 18002KT CAVOK 27/24 A2992 RMK BKN130=
201010051600 METAR MRLB NIL=
201010051700 METAR MRLB 051700Z 24005KT 9999 FEW035 BKN130 30/22 A2990=
201010051800 METAR MRLB 051800Z 23007KT 9999 FEW035 BKN130 30/21 A2987=
201010051900 METAR MRLB 051900Z 28006KT 9999 FEW035 BKN130 31/22 A2985=
201010052000 METAR MRLB 052000Z 27005KT 9999 FEW035 BKN130 31/21 A2982=
201010052100 METAR MRLB NIL=
201010052200 METAR MRLB 052200Z 25004KT CAVOK 30/22 A2980 RMK OVC130=
201010052300 METAR MRLB 052300Z 25004KT CAVOK 28/24 A2981 RMK OVC120=
201010060000 METAR MRLB 060000Z 21004KT CAVOK 26/23 A2981 RMK OVC120=
201010060100 METAR MRLB NIL=
201010060200 METAR MRLB 060200Z 08004KT CAVOK 26/21 A2986 RMK OVC120=
201010060300 METAR MRLB NIL=
201010060400 METAR MRLB NIL=
201010060500 METAR MRLB NIL=
201010060600 METAR MRLB NIL=
201010060700 METAR MRLB NIL=
201010060800 METAR MRLB NIL=
201010060900 METAR MRLB NIL=
201010061000 METAR MRLB NIL=
201010061100 METAR MRLB NIL=
201010061200 METAR MRLB 061200Z 00000KT 9999 FEW030 SCT140 23/22 A2986=
201010061300 METAR MRLB 061300Z 00000KT CAVOK 25/22 A2988 RMK SCT100 BKN250=
201010061400 METAR MRLB 061400Z 00000KT CAVOK 26/23 A2990 RMK FEW100 SCT150=
201010061500 METAR MRLB 061500Z 17004KT CAVOK 27/24 A2991 RMK FEW100 SCT200=
201010061600 METAR MRLB 061600Z 00000KT 9999 FEW030 SCT250 30/23 A2992=
201010061601 METAR MRLB 061601Z 00000KT 9999 FEW030 SCT250 30/23 A2992=
201010061700 METAR MRLB 061700Z 00000KT 9999 FEW030 SCT250 30/23 A2992=
201010061701 METAR MRLB 061701Z 26003KT 9999 FEW025 SCT250 31/23 A2990=
201010061800 METAR MRLB 061800Z 03004KT 9999 FEW030 SCT250 32/22 A2986=
201010061900 METAR MRLB 061900Z 28010KT 9999 FEW030 SCT250 21/24 A2982=
201010062000 METAR MRLB 062000Z 27007KT 9999 FEW030 SCT250 32/24 A2980=
201010062100 METAR MRLB 062100Z 28008KT 9999 FEW030 SCT250 30/24 A2979=
201010062200 METAR MRLB 062200Z 28007KT 9999 FEW025 SCT250 29/24 A2978 RMK TCU DST S=
201010062300 METAR MRLB 062300Z 28005KT 9999 FEW030 SCT100 BKN250 28/23 A2979=
201010070000 METAR MRLB 070000Z 27005KT 9999 SCT025 SCT100 27/23 A2979=
201010070100 METAR MRLB NIL=
201010070200 METAR MRLB NIL=
201010070300 METAR MRLB NIL=
201010070400 METAR MRLB NIL=
201010070500 METAR MRLB NIL=
201010070600 METAR MRLB NIL=
201010070700 METAR MRLB NIL=
201010070800 METAR MRLB NIL=
201010070900 METAR MRLB NIL=
201010071000 METAR MRLB NIL=
201010071100 METAR MRLB NIL=
201010071200 METAR MRLB 071200Z 00000KT 0400 FG VV/// 24/23 A2984=
201010071300 METAR MRLB 071300Z 03003KT CAVOK 26/23 A2986 RMK BKN250=
201010071400 METAR MRLB 071400Z 05003KT CAVOK 28/24 A2989 RMK SCT250=
201010071500 METAR MRLB 071500Z 26004KT 9999 FEW035 SCT250 29/24 A2990=
201010071600 METAR MRLB 071600Z 20004KT 9999 FEW035 SCT250 30/23 A2991=
201010071700 METAR MRLB 071700Z 17003KT 9999 FEW035 BKN140 31/23 A2989=
201010071800 METAR MRLB 071800Z 22004KT 9999 FEW035 BKN140 31/23 A2986=
201010071900 METAR MRLB 071900Z 27006KT CAVOK 32/24 A2983 RMK BKN140=
201010072000 METAR MRLB 072000Z 30008KT 9999 FEW035 SCT140 31/24 A2980=
201010072100 METAR MRLB 072100Z 29009KT 9999 FEW035 SCT140 31/23 A2979=
201010072200 METAR MRLB 072200Z 28009KT 9999 FEW035 SCT250 29/24 A2979=
201010072300 METAR MRLB 072300Z 27007KT 9999 SCT035 SCT250 28/24 A2980=
201010080000 METAR MRLB 080000Z 23003KT 9999 SCT035 BKN250 26/24 A2981=
201010080100 METAR MRLB 080100Z 18003KT 9999 FEW035 BKN250 25/24 A2982=
201010080200 METAR MRLB NIL=
201010080300 METAR MRLB NIL=
201010080400 METAR MRLB NIL=
201010080500 METAR MRLB NIL=
201010080600 METAR MRLB NIL=
201010080700 METAR MRLB NIL=
201010080800 METAR MRLB NIL=
201010080900 METAR MRLB NIL=
201010081000 METAR MRLB NIL=
201010081100 METAR MRLB NIL=
201010081200 METAR MRLB 081200Z 00000KT 0100 FG VV/// 24/23 A2985=
201010081300 METAR MRLB 081300Z 21003KT 2000 BR BKN004 24/24 A2988=
201010081400 METAR MRLB 081400Z 23004KT 9999 FEW015 28/24 A2991=
201010081500 METAR MRLB 081500Z 24002KT 9999 FEW030 30/23 A2992=
201010081600 METAR MRLB 081600Z 28004KT 9999 FEW035 31/22 A2991=
201010081700 METAR MRLB 081700Z 28005KT 9999 FEW035 SCT250 32/23 A2990=
201010081800 METAR MRLB 081800Z 23006KT 9999 FEW035 SCT250 33/22 A2986=
201010081900 METAR MRLB 081900Z 27004KT 9999 SCT035 BKN250 33/21 A2983=
201010082000 METAR MRLB 082000Z 26006KT 9999 SCT035 SCT250 31/23 A2982=
201010082100 METAR MRLB NIL=
201010082200 METAR MRLB 082200Z 22005KT 9999 SCT035 SCT100 31/22 A2981=
201010082300 METAR MRLB 082300Z 22005KT 9999 FEW035 BKN250 29/24 A2982=
201010090000 METAR MRLB 090000Z 20004KT 9999 SCT035 BKN120 26/21 A2986=
201010090100 METAR MRLB 090100Z 19004KT 9999 SCT035 BKN120 27/24 A2985=
201010090200 METAR MRLB NIL=
201010090300 METAR MRLB NIL=
201010090400 METAR MRLB NIL=
201010090500 METAR MRLB NIL=
201010090600 METAR MRLB NIL=
201010090700 METAR MRLB NIL=
201010090800 METAR MRLB NIL=
201010090900 METAR MRLB NIL=
201010091000 METAR MRLB NIL=
201010091100 METAR MRLB NIL=
201010091200 METAR MRLB 091200Z 00000KT CAVOK 23/22 A2985 RMK SCT250=
201010091300 METAR MRLB 091300Z 00000KT CAVOK 27/23 A2987 RMK SCT250=
201010091400 METAR MRLB 091400Z 00000KT CAVOK 29/23 A2990 RMK SCT250=
201010091500 METAR MRLB 091500Z 00000KT CAVOK 29/22 A2992 RMK SCT250=
201010091600 METAR MRLB 091600Z 21005KT CAVOK 31/21 A2991 RMK SCT250=
201010091700 METAR MRLB 091700Z 27006KT 9999 FEW025 SCT250 32/11 A2989=
201010091800 METAR MRLB 091800Z 22005KT 9999 FEW025 SCT250 32/21 A2986=
201010091900 METAR MRLB 091900Z 20005KT 9999 FEW025 SCT250 33/22 A2982=
201010092000 METAR MRLB 092000Z 17003KT 9999 SCT025 BKN250 31/22 A2981=
201010092100 METAR MRLB 092100Z 07010KT 9999 SCT025 BKN250 31/20 A2979=
201010092200 METAR MRLB 092200Z 10010KT 9999 FEW030 SCT100 30/21 A2980=
201010092300 METAR MRLB 092300Z 00000KT 9999 FEW020 SCT100 28/23 A2981=
201010100000 METAR MRLB 100000Z 00000KT CAVOK 27/23 A2981 RMK FEW080 SCT250=
201010100100 METAR MRLB 100100Z 00000KT CAVOK 26/23 A2983 RMK FEW100=
201010100200 METAR MRLB 100200Z 00000KT CAVOK 26/24 A2985 RMK SCT100=
201010100300 METAR MRLB NIL=
201010100400 METAR MRLB NIL=
201010100500 METAR MRLB NIL=
201010100600 METAR MRLB NIL=
201010100700 METAR MRLB NIL=
201010100800 METAR MRLB NIL=
201010100900 METAR MRLB NIL=
201010101000 METAR MRLB NIL=
201010101100 METAR MRLB NIL=
201010101200 METAR MRLB 101200Z 04003KT 9999 FEW035 SCT130 23/21 A2983=
201010101300 METAR MRLB 101300Z 18002KT CAVOK 25/22 A2985 RMK SCT250=
201010101400 METAR MRLB 101400Z 18003KT CAVOK 27/23 A2987 RMK SCT250=
201010101500 METAR MRLB 101500Z 19004KT CAVOK 29/22 A2989 RMK SCT250=
201010101600 METAR MRLB 101600Z 22003KT CAVOK 31/21 A2988 RMK SCT250=
201010101700 METAR MRLB 101700Z 30005KT CAVOK 32/21 A2985 RMK SCT250=
201010101800 METAR MRLB 101800Z 29005KT 9999 FEW035 SCT250 31/21 A2981=
201010101900 METAR MRLB 101900Z 24005KT 9999 FEW035 SCT250 32/20 A2979=
201010102000 METAR MRLB 102000Z 28009KT 9999 FEW035 SCT250 32/22 A2976=
201010102100 METAR MRLB 102100Z 28008KT 9999 FEW035 SCT250 32/23 A2975=
201010102200 METAR MRLB 102200Z 26007KT 9999 FEW035 SCT250 31/22 A2974=
201010102300 METAR MRLB 102300Z 25004KT 9999 FEW035 BKN250 30/22 A2975=
201010110000 METAR MRLB 110000Z 15004KT 9999 FEW035BKN250 27/23 A2976=
201010110100 METAR MRLB 110100Z 15004KT 9999 FEW035 BKN250 26/22 A2977=
201010110200 METAR MRLB NIL=
201010110300 METAR MRLB NIL=
201010110400 METAR MRLB NIL=
201010110500 METAR MRLB NIL=
201010110600 METAR MRLB NIL=
201010110700 METAR MRLB NIL=
201010110800 METAR MRLB NIL=
201010110900 METAR MRLB NIL=
201010111000 METAR MRLB NIL=
201010111100 METAR MRLB NIL=
201010111200 METAR MRLB 111200Z 00000KT 9999 SCT010 BKN120 24/23 A2981 RMK HZ ARND=
201010111300 METAR MRLB 111300Z 00000KT 9999 2000N BR SCT010 BKN120 25/23 A2983=
201010111400 METAR MRLB 111400Z 00000KT 9999 SCT015 BKN250 27/24 A2985 RMK HZY=
201010111500 METAR MRLB 111500Z 12002KT CAVOK 29/24 A2987 RMK OVC250=
201010111600 METAR MRLB 111600Z 28003KT 9999 FEW040 BKN250 32/22 A2986=
201010111700 METAR MRLB 111700Z 35012KT 9999 FEW045 BKN280 31/22 A2982 RMK HZ ARND=
201010111800 METAR MRLB 111800Z 29004KT 9999 SCT035 BKN250 33/22 A2981=
201010111900 METAR MRLB 111900Z 27010KT 9999 SCT035 BKN250 32/23 A2978=
201010112000 METAR MRLB 112000Z 27010KT 9999 SCT035 BKN250 31/24 A2976=
201010112100 METAR MRLB 112100Z 28010KT 9999 FEW030 SCT120 31/24 A2975 RMK SCT250=
201010112200 METAR MRLB 112200Z 26008KT 9999 FEW030 BKN250 30/23 A2975 RMK FEW120 CB DST E=
201010112300 METAR MRLB 112300Z 26007KT 9999 FEW035 SCT120 BKN250 29/24 A2996=
201010120000 METAR MRLB 120000Z 27005KT CAVOK 28/24 A2976 RMK OVC130=
201010120100 METAR MRLB NIL=
201010120200 METAR MRLB NIL=
201010120300 METAR MRLB NIL=
201010120400 METAR MRLB NIL=
201010120500 METAR MRLB NIL=
201010120600 METAR MRLB NIL=
201010120700 METAR MRLB NIL=
201010120800 METAR MRLB NIL=
201010120900 METAR MRLB NIL=
201010121000 METAR MRLB NIL=
201010121100 METAR MRLB NIL=
201010121200 METAR MRLB 121200Z 00000KT 9999 FEW030 SCT250 24/23 A2979=
201010121300 METAR MRLB 121300Z 01003KT 9999 FEW030 SCT250 26/24 A2982 RMK LW ST SW W=
201010121400 METAR MRLB 121400Z 00000KT 9999 FEW025 SCT250 29/24 A2984=
201010121500 METAR MRLB 121500Z 12005KT 9999 SCT025 BKN250 30/24 A2986=
201010121600 METAR MRLB 121600Z 28004KT 9999 SCT025 BKN250 31/23 A2986=
201010121700 METAR MRLB 121700Z 28007KT 9999 SCT025 BKN250 32/23 A2984=
201010121800 METAR MRLB 121800Z 31006KT 9999 SCT025 BKN140 32/23 A2981=
201010121900 METAR MRLB 121900Z 27006KT 9999 SCT025 BKN250 34/23 A2978=
201010122000 METAR MRLB 122000Z 27007KT 9999 FEW025 SCT100 BKN250 33/24 A2975 RMK TCU DST SE=
201010122100 METAR MRLB 122100Z 28010KT 9999 SCT025 BKN240 31/24 A2973=
201010122200 METAR MRLB 122200Z 26005KT 9999 SCT025 BKN250 30/24 A2974 RMK LINE TCU S=
201010122300 METAR MRLB 122300Z 00000KT 9999 SCT025 BKN140 29/25 A2976 RMK TCU DST S=
201010130000 METAR MRLB 130000Z 00000KT 9999 FEW020 SCT150 28/25 A2977 RMK TS DST S=
201010130100 METAR MRLB 130100Z 00000KT 9999 FEW020 SCT080 27/25 A2980 RMK LTNG DST S SW=
201010130200 METAR MRLB NIL=
201010130300 METAR MRLB NIL=
201010130400 METAR MRLB NIL=
201010130500 METAR MRLB NIL=
201010130600 METAR MRLB NIL=
201010130700 METAR MRLB NIL=
201010130800 METAR MRLB NIL=
201010130900 METAR MRLB NIL=
201010131000 METAR MRLB NIL=
201010131100 METAR MRLB NIL=
201010131200 METAR MRLB 131200Z 28002KT 9999 2000E BCFG SCT002 BKN100 24/23 A2980=
201010131300 METAR MRLB 131300Z 20003KT 9999 FEW035 BKN120 25/24 A2983=
201010131400 METAR MRLB 131400Z 25002KT 9999 SCT035 BKN120 27/24 A2985=
201010131500 METAR MRLB NIL=
201010131600 METAR MRLB 131600Z 10005KT 9999 -RA SCT035 BKN110 28/23 A2988=
201010131700 METAR MRLB 131700Z 14002KT 9999 FEW030 BKN120 28/25 A2986 RMK RA W=
201010131800 METAR MRLB 131800Z 29005KT CAVOK 30/26 A2981 RMK SCT130 SCT250=
201010131900 METAR MRLB 131900Z 33005KT 9999 SCT030 BKN250 31/24 A2980=
201010132000 METAR MRLB 132000Z 09010KT 9999 BKN035 SCT230 30/23 A2978=
201010132100 METAR MRLB 132100Z 07010KT CAVOK 31/23 A2975 RMK FEW130 BKN230=
201010132200 METAR MRLB 132200Z 06007KT 9999 FE035 BKN140 31/23 A2977=
201010132300 METAR MRLB 132300Z 28003KT 9999 FEW035 BKN130 29/24 A2978=
201010140000 METAR MRLB 140000Z 16002KT 9999 FEW035 BKN130 28/23 A2979=
201010140100 METAR MRLB 140100Z 26002KT 9999 FEW035 BKN120 27/23 A2980=
201010140200 METAR MRLB NIL=
201010140300 METAR MRLB NIL=
201010140400 METAR MRLB NIL=
201010140500 METAR MRLB NIL=
201010140600 METAR MRLB NIL=
201010140700 METAR MRLB NIL=
201010140800 METAR MRLB NIL=
201010140900 METAR MRLB NIL=
201010141000 METAR MRLB NIL=
201010141100 METAR MRLB NIL=
201010141200 METAR MRLB 141200Z 28002KT 9999 -RA SCT025 BKN100 24/23 A2984=
201010141300 METAR MRLB 141300Z 13003KT 9999 -RA SCT030 BKN250 25/24 A2984=
201010141400 METAR MRLB 141400Z 21002KT 9999 SCT030 BKN120 27/24 A2985=
201010141500 METAR MRLB 141500Z 01008KT 9999 BKN030 28/22 A2987 RMK SCT120=
201010141600 METAR MRLB 141600Z 01005KT 9999 SCT030 SCT120 29/22 A2987=
201010141700 METAR MRLB 141700Z 05011KT 9999 SCT030 BKN120 29/22 A2986 RMK RN DST SW=
201010141800 METAR MRLB 141800Z 08013KT 9999 BKN030 28/22 A2982 RMK SCT120 RN DST NE=
201010141900 METAR MRLB 141900Z 08018KT 9999 BKN030 30/21 A2980=
201010142000 METAR MRLB 142000Z 07016KT 9999 FEW035 BKN250 30/21 A2977=
201010142100 METAR MRLB 142100Z 03008KT 9999 FEW035 BKN250 30/22 A2976=
201010142200 METAR MRLB 142200Z 09010KT 9999 FEW035 BKN250 30/20 A2975=
201010142300 METAR MRLB 142300Z 07013KT 9999 FEW035 BKN140 28/21 A2976=
201010150000 METAR MRLB 150000Z 08010KT 9999 FEW035 BKN140 28/22 A2978=
201010150100 METAR MRLB NIL=
201010150200 METAR MRLB 150200Z 04006KT 9999 FEW035 BKN140 27/21 A2981=
201010150300 METAR MRLB NIL=
201010150400 METAR MRLB NIL=
201010150500 METAR MRLB NIL=
201010150600 METAR MRLB NIL=
201010150700 METAR MRLB NIL=
201010150800 METAR MRLB NIL=
201010150900 METAR MRLB NIL=
201010151000 METAR MRLB NIL=
201010151100 METAR MRLB NIL=
201010151200 METAR MRLB 151200Z 00000KT 9999 FEW030 SCT250 23/21 A2981=
201010151300 METAR MRLB NIL=
201010151400 METAR MRLB 151400Z 22006KT CAVOK 28/22 A2985 RMK FEW100 SCT250=
201010151500 METAR MRLB 151500Z 29010KT 9999 FEW025 SCT250 30/22 A2987=
201010151600 METAR MRLB 151600Z 22005KT 9999 FEW025 SCT250 31/22 A2987=
201010151700 METAR MRLB 151700Z 20009KT 9999 SCT025 BKN250 31/22 A2986=
201010151800 METAR MRLB 151800Z 33005KT 9999 SCT025 BKN120 31/21 A2983=
201010151900 METAR MRLB 151900Z 11007KT 9999 VCSH FEW025 SCT100 BKN250 30/22 A2981 RMK VIS 5000SW=
201010152000 METAR MRLB 152000Z 07013KT 9999 FEW030 SCT100 BKN250 32/21 A2978=
201010152100 METAR MRLB 152100Z 08007KT 9999 FEW035 SCT120 31/21 A2978=
201010152200 METAR MRLB 152200Z 07011KT 9999 FEW030 SCT140 29/21 A2979=
201010152300 METAR MRLB 152300Z 07012KT 9999 FEW025 SCT120 28/21 A2979=
201010160000 METAR MRLB 160000Z 08006KT 9999 FEW025 SCT100 27/21 A2980=
201010160100 METAR MRLB 160100Z 08008KT 9999 FEW020 SCT120 26/22 A2982=
201010160200 METAR MRLB NIL=
201010160300 METAR MRLB NIL=
201010160400 METAR MRLB NIL=
201010160500 METAR MRLB NIL=
201010160600 METAR MRLB NIL=
201010160700 METAR MRLB NIL=
201010160800 METAR MRLB NIL=
201010160900 METAR MRLB NIL=
201010161000 METAR MRLB NIL=
201010161100 METAR MRLB NIL=
201010161200 METAR MRLB 161200Z 22003KT 9999 FEW035 BKN130 24/21 A2985=
201010161300 METAR MRLB 161300Z 18006KT 9999 FEW035 BKN130 25/21 A2988=
201010161400 METAR MRLB 161400Z 20006KT 9999 SCT035 BKN130 27/21 A2991=
201010161500 METAR MRLB 161500Z 21004KT 9999 FEW035 BKN130 29/22 A2993=
201010161600 METAR MRLB 161600Z 31007KT 9999 FEW035 BKN140 29/22 A2993=
201010161700 METAR MRLB 161700Z 25005KT 9999 SCT035 BKN140 29/22 A2991=
201010161800 METAR MRLB 161800Z 28004KT 9999 SCT035 BKN140 30/22 A2988=
201010161900 METAR MRLB 161900Z 12007KT 9999 SCT035 BKN140 30/22 A2985=
201010162000 METAR MRLB 162000Z 10006KT 9999 SCT035 BKN140 31/21 A2983=
201010162100 METAR MRLB 162100Z 36005KT 9999 SCT030 BKN120 26/24 A2982 RERA RMK RA DST N=
201010162200 METAR MRLB 162200Z 32004KT 9999 SCT025 BKN120 26/24 A2982=
201010162300 METAR MRLB 162300Z 34004KT 9999 FEW035 BKN110 25/24 A2985=
201010170000 METAR MRLB 170000Z 03003KT 9999 FEW035 BKN110 25/23 A2986=
201010170100 METAR MRLB 170100Z 36004KT 9999 -DZ SCT035 BKN120 25/23 A2989=
201010170200 METAR MRLB NIL=
201010170300 METAR MRLB NIL=
201010170400 METAR MRLB NIL=
201010170500 METAR MRLB NIL=
201010170600 METAR MRLB NIL=
201010170700 METAR MRLB NIL=
201010170800 METAR MRLB NIL=
201010170900 METAR MRLB NIL=
201010171000 METAR MRLB NIL=
201010171100 METAR MRLB NIL=
201010171200 METAR MRLB 171200Z 19003KT 9999 FEW030 BKN100 23/22 A2989=
201010171300 METAR MRLB 171300Z 24003KT 9999 FEW030 BKN100 24/22 A2992=
201010171400 MRLB 171400Z 21004KT 9999 FEW030 BKN120 26/24 A2993=
201010171500 METAR MRLB 171500Z 21005KT 9999 FEW030 BKN120 27/23 A2995=
201010171600 METAR MRLB 171600Z 20004KT 9999 FEW035 BKN120 28/23 A2995=
201010171700 METAR MRLB 171700Z 21004KT 9999 FEW035 BKN120 30/22 A2993=
201010171800 METAR MRLB 171800Z 24003KT 9999 FEW035 BKN120 31/22 A2990=
201010171900 METAR MRLB 171900Z 16005KT 9999 FEW035 BKN120 28/23 A2987=
201010172000 METAR MRLB 172000Z 18002KT 9999 FEW035 BKN120 28/23 A2985=
201010172100 METAR MRLB 172100Z 14003KT 9999 -RA FEW030 BKN120 27/23 A2983=
201010172200 METAR MRLB 172200Z 11003KT 9999 FEW030 BKN120 26/23 A2982=
201010172300 METAR MRLB 172300Z 19006KT 9999 FEW035 BKN120 25/23 A2982=
201010180000 METAR MRLB 180000Z 22004KT 9999 SCT035 BKN100 25/23 A2984=
201010180100 METAR MRLB 180100Z 20004KT 9999 SCT035 BKN100 24/23 A2986=
201010180200 METAR MRLB 180200Z 00000KT 9999 SCT035 BKN100 24/23 A2989=
201010180300 METAR MRLB NIL=
201010180400 METAR MRLB NIL=
201010180500 METAR MRLB NIL=
201010180600 METAR MRLB NIL=
201010180700 METAR MRLB NIL=
201010180800 METAR MRLB NIL=
201010180900 METAR MRLB NIL=
201010181000 METAR MRLB NIL=
201010181100 METAR MRLB NIL=
201010181200 METAR MRLB 181200Z 17003KT 9999 FEW025 SCT140 22/21 A2988=
201010181300 METAR MRLB 181300Z 17003KT 9999 FEW035 SCT140 24/22 A2990=
201010181400 METAR MRLB 181400Z 17003KT 9999 FEW030 SCT100 25/22 A2992=
201010181500 METAR MRLB 181500Z 20003KT 9999 FEW025 BKN100 26/22 A2994=
201010181600 METAR MRLB 181600Z 29004KT 9999 FEW025 SCT140 29/23 A2994=
201010181700 METAR MRLB 181700Z 00000KT 9999 SCT025 BKN250 30/23 A2991=
201010181800 METAR MRLB 181800Z 20004KT 9999 SCT020TCU BKN170 30/22 A2988=
201010181900 METAR MRLB 181900Z 14004KT 9999 SCT020TCU BKN170 30/22 A2984 RMK RA NE S=
201010182000 METAR MRLB 182000Z 14008KT 9999 VCSH SCT020TCU BKN180 30/22 A2983 RMK RA N NE=
201010182100 METAR MRLB 182100Z 12005KT 9999 SCT020TCU BKN150 28/23 A2981=
201010182200 METAR MRLB 182200Z 15003KT 9999 SCT020 BKN200 28/22 A2980=
201010182300 METAR MRLB 182300Z 12004KT 9999 SCT025 BKN150 27/22 A2981=
201010190000 METAR MRLB 190000Z 00000KT 9999 SCT020 BKN100 26/23 A2983=
201010190100 METAR MRLB NIL=
201010190200 METAR MRLB NIL=
201010190300 METAR MRLB NIL=
201010190400 METAR MRLB NIL=
201010190500 METAR MRLB NIL=
201010190600 METAR MRLB NIL=
201010190700 METAR MRLB NIL=
201010190800 METAR MRLB NIL=
201010190900 METAR MRLB NIL=
201010191000 METAR MRLB NIL=
201010191100 METAR MRLB NIL=
201010191200 METAR MRLB 191200Z 00000KT 9999 SCT030 BKN130 24/22 A2987 RMK LW ST SW=
201010191300 METAR MRLB 191300Z 00000KT 9999 FEW035 SCT250 26/23 A2990=
201010191400 METAR MRLB 191400Z 15003KT 9999 SCT035 28/24 A2993=
201010191500 METAR MRLB 191500Z 16003KT 9999 SCT035 BKN250 28/23 A2994=
201010191600 METAR MRLB 191600Z 19003KT 9999 SCT035 SCT250 30/23 A2993=
201010191700 METAR MRLB 191700Z 13003KT 9999 SCT035 SCT250 30/23 A2991=
201010191800 METAR MRLB 191800Z 16004KT 9999 SCT035 BKN240 31/22 A2989=
201010191900 METAR MRLB 191900Z 27009KT 9999 SCT035 BKN240 30/23 A2986=
201010192000 METAR MRLB 192000Z 27009KT 9999 VCSH FEW020TCU SCT030 BKN140 29/22 A2983 RMK VCSH S SE=
201010192100 METAR MRLB 192100Z 09005KT 9999 VCSH SCT030 BKN120 25/23 A2983 RMK=
201010192200 METAR MRLB 192200Z 06005KT 9999 SCT035 BKN130 27/23 A2982=
201010192300 METAR MRLB 192300Z 05004KT 9999 SCT035 BKN140 26/24 A2983=
201010200000 METAR MRLB 200000Z 03003KT 9999 SCT035 BKN140 25/24 A2984=
201010200100 METAR MRLB 200100Z 03003KT 9999 SCT035 BKN140 26/23 A2987=
201010200200 METAR MRLB NIL=
201010200300 METAR MRLB NIL=
201010200400 METAR MRLB NIL=
201010200500 METAR MRLB NIL=
201010200600 METAR MRLB NIL=
201010200700 METAR MRLB NIL=
201010200800 METAR MRLB NIL=
201010200900 METAR MRLB NIL=
201010201000 METAR MRLB NIL=
201010201100 METAR MRLB NIL=
201010201200 METAR MRLB 201200Z 04002KT 0100 FG VV/// 22/22 A2989=
201010201300 METAR MRLB 201300Z 28002KT 0200 FG VV/// 23/23 A2991=
201010201400 METAR MRLB 201400Z 00000KT 9999 2000S BR SCT004 BKN010 25/24 A2992=
201010201500 METAR MRLB 201500Z 13002KT 9999 SCT010 BKN120 26/24 A2993=
201010201600 METAR MRLB 201600Z 19003KT 9999 SCT020 BKN120 28/24 A2994=
201010201700 METAR MRLB NIL=
201010201800 METAR MRLB 201800Z 25005KT 9999 SCT030 31/23 A2988 RMK FEW120=
201010201900 METAR MRLB 201900Z 28009KT 9999 SCT030 31/22 A2985 RMK RN DST NE=
201010202000 METAR MRLB 202000Z 26009KT 9999 FEW030 SCT120 31/22 A2983 RMK RN DST NE=
201010202100 METAR MRLB 202100Z 27009KT 9999 SCT030 SCT250 30/23 A2982 RMK RN NE S=
201010202200 METAR MRLB 202200Z 28009KT 9999 FEW030 SCT250 29/23 A2981 RMK RN DST S=
201010202300 METAR MRLB 202300Z 28006KT 9999 FEW030 SCT130 BKN250 27/24 A2983=
201010210000 METAR MRLB 210000Z 28005KT 9999 FEW030 BKN120 26/24 A2983 RMK FEW250=
201010210100 METAR MRLB 210100Z 18008KT 9999 FEW030 26/24 A2987=
201010210200 METAR MRLB NIL=
201010210300 METAR MRLB NIL=
201010210400 METAR MRLB NIL=
201010210500 METAR MRLB NIL=
201010210600 METAR MRLB NIL=
201010210700 METAR MRLB NIL=
201010210800 METAR MRLB NIL=
201010210900 METAR MRLB NIL=
201010211000 METAR MRLB NIL=
201010211100 METAR MRLB NIL=
201010211200 METAR MRLB 211200Z 00000KT 6000 FEW010 SCT025 BKN100 24/23 A2987 RMK ST LOW ARND=
201010211300 METAR MRLB 211300Z 00000KT 8000 VCFG FEW010 BKN100 25/24 A2990=
201010211400 METAR MRLB 211400Z 00000KT 9999 BKN015 SCT100 26/24 A2991 HZY=
201010211500 METAR MRLB 211500Z 32003KT 9999 SCT015 BKN100 28/24 A2993 RMK HZ ARND=
201010211600 METAR MRLB 211600Z 18004KT 9999 SCT020 BKN250 30/24 A2993 HZ ARND=
201010211700 METAR MRLB 211700Z 28006KT 9999 SCT020TCU BKN140 31/23 A2989 RMK RN N SE=
201010211800 METAR MRLB 211800Z 31005KT 9999 -RA FEW010 SCT030 BKN100 26/24 A2985 VIS NE 8KMS=
201010211900 METAR MRLB 211900Z 25006KT 9999 SCT025 BKN100 26/24 A2982=
201010212000 METAR MRLB 212000Z 28007KT 9999 SCT025 BKN250 28/24 A2979 RMK RN DST SW=
201010212100 METAR MRLB 212100Z 27007KT 9999 -RA SCT025 BKN100 27/24 A2978 RMK TCU DST N HZ ARND=
201010212200 METAR MRLB 212200Z 24005KT 9999 SCT025 BKN120 26/24 A2978 RMK RA DST SW=
201010212300 METAR MRLB 212300Z 28006KT 9999 FEW020 SCT100 26/24 A2979=
201010220000 METAR MRLB 220000Z 24005KT 9999 FEW025 SCT100 26/24 A2982=
201010220100 METAR MRLB NIL=
201010220200 METAR MRLB NIL=
201010220300 METAR MRLB NIL=
201010220400 METAR MRLB NIL=
201010220500 METAR MRLB NIL=
201010220600 METAR MRLB NIL=
201010220700 METAR MRLB NIL=
201010220800 METAR MRLB NIL=
201010220900 METAR MRLB NIL=
201010221000 METAR MRLB NIL=
201010221100 METAR MRLB NIL=
201010221200 METAR MRLB 221200Z 12003KT 9999 FEW030 BKN130 23/22 A2986 RMK BCFG SW=
201010221300 METAR MRLB 221300Z 17002KT 9999 FEW035 BKN130 25/23 A2989=
201010221400 METAR MRLB 221400Z 07003KT 9999 SCT035 BKN130 27/24 A2990=
201010221500 METAR MRLB 221500Z 19005KT 9999 SCT035 BKN130 28/24 A2993=
201010221600 METAR MRLB 221600Z 18005KT 9999 SCT035 SCT250 29/24 A2994=
201010221700 METAR MRLB 221700Z 15004KT 9999 SCT035 BKN140 30/23 A2992 RMK RA DST NE=
201010221800 METAR MRLB 221800Z 12004KT 9999 -RA FEW020TCU SCT035 BKN130 29/22 A2987=
201010221900 METAR MRLB 221900Z 30006KT 9999 SCT030 BKN140 28/25 A2983=
201010222000 METAR MRLB 222000Z 29009KT 9999 SCT030 BKN140 28/24 A2983 RMK RA DST E S=
201010222100 METAR MRLB 222100Z 28005KT 9999 VCSH SCT030 BKN120 26/24 A2981 RMK SH S SE=
201010222200 METAR MRLB 222200Z 23004KT 9999 -DZ SCT030 BKN120 25/24 A2980=
201010222300 METAR MRLB 222300Z 19003KT 9999 SCT030 BKN130 25/24 A2983=
201010230000 METAR MRLB 230000Z 18003KT 9999 SCT025 BKN130 24/23 A2983=
201010230100 METAR MRLB 230100Z 00000KT 9999 SCT035 BKN120 24/23 A2984=
201010230200 METAR MRLB NIL=
201010230300 METAR MRLB NIL=
201010230400 METAR MRLB NIL=
201010230500 METAR MRLB NIL=
201010230600 METAR MRLB NIL=
201010230700 METAR MRLB NIL=
201010230800 METAR MRLB NIL=
201010230900 METAR MRLB NIL=
201010231000 METAR MRLB NIL=
201010231100 METAR MRLB NIL=
201010231200 METAR MRLB 231200Z 04002KT 0200 FG VV/// 23/22 A2988=
201010231300 METAR MRLB 231300Z 00000KT 2000 BR FEW004 BKN250 25/23 A2988=
201010231400 METAR MRLB NIL=
201010231500 METAR MRLB 231500Z 18003KT 9999 SCT020 SCT250 28/24 A2993=
201010231600 METAR MRLB 231600Z 24003KT 9999BKN020 SCT250 28/23 A2993=
201010231700 METAR MRLB NIL=
201010231800 METAR MRLB 231800Z 28010KT 9999 SCT025 BKN250 30/24 A2989 RMK RA N SW=
201010231900 METAR MRLB 231900Z 28009KT 9999 SCT030 BKN250 29/23 A2986 RMK RA N NE=
201010232000 METAR MRLB 232000Z 26010KT 9999 SCT030 BKN250 30/24 A2983 RMK RA N NE=
201010232100 METAR MRLB 232100Z 28007KT 9999 SCT020 BKN130 28/23 A2981 RMK RN DST N/NE/E=
201010232200 METAR MRLB 232200Z 27006KT 9999 FEW020 BKN130 27/23 A2980 RMK RN DST N/NE/S=
201010232300 METAR MRLB 232300Z 34006KT 9999 -RA OVC020 26/24 A2981=
201010240000 METAR MRLB 240000Z 23003KT 9999 -RA OVC020 25/24 A2983=
201010240100 METAR MRLB 240100Z 20008KT 9999 -RA OVC020 24/23 A2985=
201010240200 METAR MRLB 240200Z 22005KT 9999 -RA SCT020 BKN100 24/23 A2988=
201010240300 METAR MRLB NIL=
201010240400 METAR MRLB NIL=
201010240500 METAR MRLB NIL=
201010240600 METAR MRLB NIL=
201010240700 METAR MRLB NIL=
201010240800 METAR MRLB NIL=
201010240900 METAR MRLB NIL=
201010241000 METAR MRLB NIL=
201010241100 METAR MRLB NIL=
201010241200 METAR MRLB 241200Z 00000KT 9999 FEW010 SCT120 23/23 A2987 RMK LW ST ARND=
201010241300 METAR MRLB 241300Z 16004KT 9999 FEW010 BKN250 24/23 A2988 RMK ST LOW ARND=
201010241400 METAR MRLB 241400Z 17003KT 9999 SCT010 BKN220 27/24 A2989=
201010241500 METAR MRLB 241500Z 25003KT 9999 SCT015 BKN140 28/24 A2991=
201010241600 METAR MRLB 241600Z 28005KT 9999 SCT015 BKN140 29/24 A2991=
201010241700 METAR MRLB 241700Z 22004KT 9999 SCT020 BKN220 31/24 A2988=
201010241800 METAR MRLB 241800Z 28005KT 9999 SCT020 BKN200 30/24 A2985=
201010241900 METAR MRLB 241900Z 27008KT 9999 SCT020 BKN180 30/23 A2982=
201010242000 METAR MRLB 242000Z 28010KT 9999 SCT020CB BKN150 28/24 A2979 RMK CB/RN DST NE/E=
201010242100 METAR MRLB 242100Z 33004KT 9999 VCSH SCT015TCU BKN100 26/24 A2978 RMK=
201010242200 METAR MRLB 242200Z 02005KT 9999 DZ SCT015 BKN100 25/23 A2979=
201010242300 METAR MRLB 242300Z 35004KT 9999 DZ SCT020 BKN100 24/23 A2979=
201010250000 METAR MRLB 250000Z 00000KT 9999 SCT020 BKN100 24/23 A2981=
201010250100 METAR MRLB 250100Z 16004KT 9999 FEW010 BKN250 24/23 A2988 RMK ST BAJOS ARND=
201010250200 METAR MRLB NIL=
201010250300 METAR MRLB NIL=
201010250400 METAR MRLB NIL=
201010250500 METAR MRLB NIL=
201010250600 METAR MRLB NIL=
201010250700 METAR MRLB NIL=
201010250800 METAR MRLB NIL=
201010250900 METAR MRLB NIL=
201010251000 METAR MRLB NIL=
201010251100 METAR MRLB NIL=
201010251200 METAR MRLB 251200Z 00000KT 2500 BR SCT003 BKN015 23/23 A2982=
201010251300 METAR MRLB 251300Z 15004KT 9999 FEW008 BKN020 24/23 A2984=
201010251400 METAR MRLB 251400Z 15003KT 9999 BKN030 25/23 A2985=
201010251500 METAR MRLB 251500Z 00000KT 9999 SCT035 SCT250 27/23 A2986=
201010251600 METAR MRLB 251600Z 00000KT 9999 SCT035 29/23 A2987=
201010251700 METAR MRLB 251700Z 09004KT 9999 SCT035 30/23 A2984=
201010251800 METAR MRLB 251800Z 20003KT 9999 SCT035 SCT240 31/23 A2981=
201010251900 METAR MRLB 251900Z 06013KT 9999 4000NE RA FEW010CB SCT025 BKN140 31/23 A2979=
201010252000 METAR MRLB 252000Z 32007KT 9999 SCT030 BKN140 29/22 A2977=
201010252100 METAR MRLB 252100Z 27009KT 9999 VCSH SCT030 BKN130 28/24 A2976 SH S SW=
201010252200 METAR MRLB 252200Z 24007KT 9999 SCT030 BKN120 27/24 A2975 RMK RN DST SE=
201010252300 METAR MRLB 252300Z 29002KT 9999 RA SCT030 BKN110 26/24 A2976=
201010260000 METAR MRLB 260000Z 00000KT 9999 SCT035 BKN110 26/24 A2978 RMK RN DST E RERA=
201010260100 METAR MRLB 260100Z 06004KT 9999 SCT030 BKN100 25/24 A2979=
201010260200 METAR MRLB NIL=
201010260300 METAR MRLB NIL=
201010260400 METAR MRLB NIL=
201010260500 METAR MRLB NIL=
201010260600 METAR MRLB NIL=
201010260700 METAR MRLB NIL=
201010260800 METAR MRLB NIL=
201010260900 METAR MRLB NIL=
201010261000 METAR MRLB NIL=
201010261100 METAR MRLB NIL=
201010261200 METAR MRLB 261200Z 18003KT 0500 FG FEW004 BKN120 23/23 A2982=
201010261300 METAR MRLB 261300Z 13003KT 9999 3000N BCFG FEW005 BKN250 25/24 A2983=
201010261400 METAR MRLB 261400Z 10004KT 9999 SCT010 BKN250 27/24 A2986=
201010261500 METAR MRLB NIL=
201010261600 METAR MRLB 261600Z 18006KT 9999 SCT025 SCT250 29/24 A2987=
201010261700 METAR MRLB 261700Z 18004KT 9999 SCT030 SCT250 30/23 A2986=
201010261800 METAR MRLB 261800Z 17004KT 9999 BKN030 SCT250 32/23 A2983 RMK RN DST NE E=
201010261900 METAR MRLB 261900Z 17007KT 9999 2000NE RA BKN020 SCT250 31/24 A2980 RMK TS DST SW=
201010262000 METAR MRLB 262000Z 20004KT 9999 -RA BKN020 26/24 A2976 RERA=
201010262100 METAR MRLB 262100Z 28006KT 9999 SCT020 SCT120 27/25 A2975 RMK RA DST N NE=
201010262200 METAR MRLB 262200Z 33006KT 9999 -RA FEW010 BKN020 26/25 A2976=
201010262300 METAR MRLB 262300Z 02006KT 9999 -RA OVC020 24/23 A2978=
201010270000 METAR MRLB 270000Z 04005KT 9999 FEW025 BKN120 24/23 A2978 RMK RA DST S LTNG DST SW=
201010270100 METAR MRLB NIL=
201010270200 METAR MRLB NIL=
201010270300 METAR MRLB NIL=
201010270400 METAR MRLB NIL=
201010270500 METAR MRLB NIL=
201010270600 METAR MRLB NIL=
201010270700 METAR MRLB NIL=
201010270800 METAR MRLB NIL=
201010270900 METAR MRLB NIL=
201010271000 METAR MRLB NIL=
201010271100 METAR MRLB NIL=
201010271200 METAR MRLB NIL=
201010271300 METAR MRLB NIL=
201010271400 METAR MRLB NIL=
201010271500 METAR MRLB 271500Z 19003KT 9999 FEW010 SCT100 BKN250 26/23 A2991=
201010271600 METAR MRLB 271600Z 17005KT 9999 SCT015 BKN100 27/24 A2993=
201010271700 METAR MRLB 271700Z 17005KT 9999 SCT015 BKN250 28/24 A2992=
201010271800 METAR MRLB 271800Z 15006KT 9999 SCT015 BKN250 30/23 A2989=
201010271900 METAR MRLB 271900Z 15003KT 9999 FEW015TCU SCT100 BKN250 30/23 A2985=
201010272000 METAR MRLB 272000Z 13004KT 9999 SCT025 BKN250 31/23 A2983=
201010272100 METAR MRLB 272100Z 27006KT 9999 SCT015 BKN250 31/23 A2981=
201010272200 METAR MRLB 272200Z 29008KT 9999 FEW015 BKN250 28/24 A2980=
201010272300 METAR MRLB 272300Z 30005KT 9999 FEW015 SCT100 BKN250 27/24 A2982=
201010280000 METAR MRLB 280000Z 22004KT 9999 VCSH SCT020 BKN100 26/24 A2984 RA SE=
201010280100 METAR MRLB 280100Z 00000KT 9999 DZ FEW015 SCT100 26/24 A2986=
201010280200 METAR MRLB NIL=
201010280300 METAR MRLB NIL=
201010280400 METAR MRLB NIL=
201010280500 METAR MRLB NIL=
201010280600 METAR MRLB NIL=
201010280700 METAR MRLB NIL=
201010280800 METAR MRLB NIL=
201010280900 METAR MRLB NIL=
201010281000 METAR MRLB NIL=
201010281100 METAR MRLB NIL=
201010281200 METAR MRLB 281200Z 00000KT 0400 FG VV/// 24/23 A2985=
201010281300 METAR MRLB 281300Z 00000KT 9999 4000 SW BR SCT003 SCT020 25/24 A2986=
201010281400 METAR MRLB 281400Z 26003KT 9999 SCT030 SCT250 27/25 A2989=
201010281500 METAR MRLB 281500Z 28004KT 9999 SCT035 SCT250 29/24 A2991=
201010281600 METAR MRLB 281600Z 27006KT 9999 FEW020TCU SCT030 BKN250 28/24 A2991 RMK RA DST E=
201010281700 METAR MRLB 281700Z 24005KT 9999 SCT030 BKN250 30/24 A2988=
201010281800 METAR MRLB 281800Z 27004KT 9999 VCSH SCT025 BKN140 28/25 A2986 RMK 6000 SW DUE SH=
201010281900 METAR MRLB 281900Z 17006KT 9999 VCSH FEW015 SCT030 BKN130 26/25 A2983=
201010282000 METAR MRLB 282000Z 23005KT 9999 SCT035 BKN140 28/25 A2980=
201010282100 METAR MRLB 282100Z 28009KT 9999 -RA SCT030 BKN130 27/24 A2979=
201010282200 METAR MRLB 282200Z 29004KT 9999 FEW035 BKN130 27/25 A2978=
201010282300 METAR MRLB 282300Z 24003KT 9999 SCT035 BKN140 26/24 A2979=
201010290000 METAR MRLB 290000Z 24004KT 9999 FEW035 BKN140 26/24 A2981=
201010290100 METAR MRLB 290100Z 26003KT 9999 SCT035 BKN140 25/24 A2982=
201010290200 METAR MRLB 290200Z 25002KT 9999 SCT030 BKN130 25/24 A2984=
201010290300 METAR MRLB NIL=
201010290400 METAR MRLB NIL=
201010290500 METAR MRLB NIL=
201010290600 METAR MRLB NIL=
201010290700 METAR MRLB NIL=
201010290800 METAR MRLB NIL=
201010290900 METAR MRLB NIL=
201010291000 METAR MRLB NIL=
201010291100 METAR MRLB NIL=
201010291200 METAR MRLB 291200Z 11003KT 0100 FG VV/// 23/22 A2983=
201010291300 METAR MRLB 291300Z 36002KT 0500 FG FEW004 BKN100 24/23 A2985=
201010291400 METAR MRLB 291400Z 06008KT 9999 FEW005 BKN100 25/24 A2986=
201010291500 METAR MRLB 291500Z 04003KT 9999 FEW030 BKN100 28/24 A2990 RMK RN DST NE=
201010291600 METAR MRLB 291600Z 19002KT 9999 FEW030 BKN100 29/24 A2990=
201010291700 METAR MRLB 291700Z 25005KT 9999 SCT030 BKN100 30/24 A2989 RMK RN DST NE S SW=
201010291800 METAR MRLB 291800Z 26005KT 9999 FEW030 BKN100 30/23 A2985=
201010291900 METAR MRLB 291900Z 29003KT 9999 FEW030 SCT120 BKN250 32/23 A2982=
201010292000 METAR MRLB 292000Z 30004KT 9999 FEW030 BKN250 32/22 A2979 RMK RA DST SW=
201010292100 METAR MRLB 292100Z 27005KT 9999 FEW030 BKN250 31/22 A2977 RMK RN DST SW=
201010292200 METAR MRLB 292200Z 15004KT 9999 FEW030 BKN250 30/23 A29760=
201010292300 METAR MRLB 292300Z 29002KT 9999 FEW030 BKN250 30/22 A2979=
201010300000 METAR MRLB 300000Z 11004KT 9999 SCT035 BKN250 27/22 A2979=
201010300100 METAR MRLB 300100Z 11006KT 9999 SCT035 BKN250 26/21 A2980=
201010300200 METAR MRLB 300200Z 09005KT 9999 SCT035 BKN250 25/21 A2983=
201010300300 METAR MRLB NIL=
201010300400 METAR MRLB NIL=
201010300500 METAR MRLB NIL=
201010300600 METAR MRLB NIL=
201010300700 METAR MRLB NIL=
201010300800 METAR MRLB NIL=
201010300900 METAR MRLB NIL=
201010301000 METAR MRLB NIL=
201010301100 METAR MRLB NIL=
201010301200 METAR MRLB 301200Z 10003KT CAVOK 22/21 A2982 RMK FEW100 SCT250=
201010301300 METAR MRLB 301300Z 00000KT CAVOK 26/22 A2984 RMK SCT250=
201010301400 METAR MRLB NIL=
201010301500 METAR MRLB 301500Z 25006KT CAVOK 30/23 A2988 RMK FEW100 SCT250=
201010301600 METAR MRLB 301600Z 23005KT CAVOK 31/22 A2988 FEW100 SCT250=
201010301700 METAR MRLB 301700Z 30005KT 9999 FEW025 SCT250 31/22 A2986=
201010301800 METAR MRLB 301800Z 25005KT 9999 FEW025 SCT250 32/22 A2983=
201010301900 METAR MRLB 301900Z 24004KT 9999 SCT020 BKN250 32/21 A2980=
201010302000 METAR MRLB 302000Z 09014KT 9999 SCT030 BKN250 31/20 A2977=
201010302100 METAR MRLB 302100Z 34006KT 9999 BKN025 29/24 A2979 RMK FEW140 FEW280 CB DST ARND RN SW N NE=
201010302200 METAR MRLB 302200Z 09008KT 9999 FEW025 SCT100 29/21 A2975 RMK TCU RN DST NE SE=
201010302300 METAR MRLB 302300Z 08008KT 9999 FEW025 SCT100 27/21 A2977=
201010310000 METAR MRLB 310000Z 04007KT 9999 SCT025 SCT100 27/21 A2978=
201010310100 METAR MRLB 310100Z 07006KT 9999 FEW030 SCT100 26/21 A2980 RMK LGTN DST S=
201010310200 METAR MRLB NIL=
201010310300 METAR MRLB NIL=
201010310400 METAR MRLB NIL=
201010310500 METAR MRLB NIL=
201010310600 METAR MRLB NIL=
201010310700 METAR MRLB NIL=
201010310800 METAR MRLB NIL=
201010310900 METAR MRLB NIL=
201010311000 METAR MRLB NIL=
201010311100 METAR MRLB NIL=
201010311200 METAR MRLB 311200Z 00000KT 9999 FEW035 22/21 A2984=
201010311300 METAR MRLB 311300Z 00000KT 9999 FEW035 24/21 A2987=
201010311400 METAR MRLB 311400Z NIL=
201010311500 METAR MRLB 311500Z 19003KT 9999 FEW035 28/22 A2991=
201010311600 METAR MRLB 311600Z 18002KT 9999 FEW035 30/22 A2990=
201010311700 METAR MRLB 311700Z 29004KT 9999 SCT035 31/23 A2987=
201010311800 METAR MRLB 311800Z 28006KT 9999 SCT035 31/23 A2983=
201010311900 METAR MRLB 311900Z 26005KT 9999 SCT035 SCT250 32/23 A2981=
201010312000 METAR MRLB 312000Z 26003KT 9999 SCT035 BKN250 31/23 A2979=
201010312100 METAR MRLB 312100Z 23005KT 9999 FEW035 SCT250 32/24 A2977=
201010312200 METAR MRLB 312200Z 22005KT 9999 SCT035 SCT130 30/23 A2978 RMK RA DST NE=
201010312300 METAR MRLB 312300Z 33006KT 9999 VCSH SCT030 BKN130 25/23 A2980 RMK SH N NE=
201011010000 METAR MRLB 010000Z 18002KT 9999 SCT035 BKN140 25/23 A2982=
201011010100 METAR MRLB 010100Z 03003KT 9999 SCT035 BKN140 25/23 A2986=
201011010200 METAR MRLB 010200Z 00000KT 9999 SCT030 BKN140 24/23 A2987=
201011010300 METAR MRLB NIL=
201011010400 METAR MRLB NIL=
201011010500 METAR MRLB NIL=
201011010600 METAR MRLB NIL=
201011010700 METAR MRLB NIL=
201011010800 METAR MRLB NIL=
201011010900 METAR MRLB NIL=
201011011000 METAR MRLB NIL=
201011011100 METAR MRLB NIL=
201011011200 METAR MRLB 011200Z 00000KT 9999 FEW030 BKN250 23/22 A2990=
201011011300 METAR MRLB 011300Z 02002KT 9999 FEW010 BKN250 25/23 A2992=
201011011400 METAR MRLB 011400Z 00000KT 9999 BKN020 SCT250 29/24 A2995=
201011011500 METAR MRLB 011500Z 28003KT 9999 SCT025 BKN250 28/24 A2996=
201011011600 METAR MRLB 011600Z 26003KT 9999 FEW030 BKN250 29/23 A2995=
201011011700 METAR MRLB 011700Z 30005KT 9999 BKN030 SCT250 29/23 A2993=
201011011800 METAR MRLB 011800Z 25007KT 9999 SCT030 SCT250 31/24 A2990 RMK CB DST NE E=
201011011900 METAR MRLB 011900Z 28010KT 9999 SCT025 SCT130 30/24 A2987 RMK RA DST N NE E=
201011012000 METAR MRLB 012000Z 28008KT 9999 -RA SCT010 BKN100 28/23 A2984=
201011012100 METAR MRLB 012100Z 24003KT 9999 -RA SCT010 BKN100 26/24 A2989 RETS=
201011012200 METAR MRLB NIL=
201011012300 METAR MRLB 012300Z 20002KT 9999 SCT020 BKN100 25/24 A2985 RMK RA S=
201011020000 METAR MRLB 020000Z 00000KT 9999 SCT020 SCT100 25/24 A2987=
201011020100 METAR MRLB 020100Z 14002KT 9999 SCT020 BKN100 25/24 A2988=
201011020200 METAR MRLB 020200Z 13002KT 9999 SCT020 BKN100 25/24 A2991 NOSIG=
201011020300 METAR MRLB NIL=
201011020400 METAR MRLB NIL=
201011020500 METAR MRLB NIL=
201011020600 METAR MRLB NIL=
201011020700 METAR MRLB NIL=
201011020800 METAR MRLB NIL=
201011020900 METAR MRLB NIL=
201011021000 METAR MRLB NIL=
201011021100 METAR MRLB NIL=
201011021200 METAR MRLB 021200Z 11003KT 7000 DZ BCFG SCT012 BKN100 24/23 A2989=
201011021300 METAR MRLB 021300Z 00000KT 8000 VCFG FEW005 SCT012 BKN080 24/23 A2991=
201011021400 METAR MRLB 021400Z 07003KT 8000 -RA SCT010 BKN080 25/24 A2992=
201011021500 METAR MRLB 021500Z 14003KT 9999 DZ SCT010 BKN100 25/24 A2992=
201011021600 METAR MRLB 021600Z 18005KT 9999 RA SCT020 BKN100 26/24 A2991 REDZ RMK VIS S SW 6KMS=
201011021700 METAR MRLB 021700Z 16006KT 7000 RA SCT010 BKN080 25/24 A2989=
201011021800 METAR MRLB 021800Z 16005KT 9999 DZ SCT010 BKN100 26/24 A2985=
201011021900 METAR MRLB 021900Z 16004KT 9999 -RA SCT006 SCT012 BKN100 25/24 A2982=
201011022000 METAR MRLB 022000Z 17005KT 9999 DZ SCT010 BKN100 25/24 A2980=
201011022100 METAR MRLB 022100Z 13005KT 6000 -RA SCT010 BKN070 25/24 A2978=
201011022200 METAR MRLB 022200Z 0704KT 9000 -RA SCT007 BKN080 25/24 A2978=
201011022300 METAR MRLB 022300Z 07008KT 2000 SCT006 BKN060 24/23 A2979=
201011030000 METAR MRLB 030000Z 00000KT 5000 RA SCT010 OVC080 23/23 A2981=
201011030100 METAR MRLB 030100Z 00000KT 6000 -RA SCT010 OVC100 24/23 A2983=
201011030200 METAR MRLB NIL=
201011030300 METAR MRLB NIL=
201011030400 METAR MRLB NIL=
201011030500 METAR MRLB NIL=
201011030600 METAR MRLB NIL=
201011030700 METAR MRLB NIL=
201011030800 METAR MRLB NIL=
201011030900 METAR MRLB NIL=
201011031000 METAR MRLB NIL=
201011031100 METAR MRLB NIL=
201011031200 METAR MRLB 031200Z 00000KT 2000 MIFG SCT002 BKN015 24/23 A2982=
201011031300 METAR MRLB 031300Z 11004KT 6000 -DZ FEW005 BKN015 24/23 A2983=
201011031400 METAR MRLB 031400Z 16003KT 8000 DZ SCT006 BKN018 24/23 A2985=
201011031500 METAR MRLB 031500Z 20002KT 8000 -RA SCT008 BKN020 24/23 A2987=
201011031600 METAR MRLB 031600Z 15003KT 9999 SCT015 BKN110 26/24 A2986 RMK RN DST E=
201011031700 METAR MRLB 031700Z 14003KT 9999 VCFG SCT020 BKN100 28/24 A2984 RMK SH S SW=
201011031800 METAR MRLB 031800Z 20006KT 9999 3000SW RA SCT015 BKN100 25/24 A2981=
201011031900 METAR MRLB 031900Z 17003KT 8000 -DZ SCT010 BKN100 25/24 A2976=
201011032000 METAR MRLB 032000Z 20004KT 5000 -RA SCT008 BKN025 25/24 A2973=
201011032100 METAR MRLB 032100Z 27006KT 4000 -RA SCT006 BKN020 24/24 A2972=
201011032200 METAR MRLB 032200Z 25004KT 9999 SCT010 BKN100 25/24 A2972 RMK RN DST E NE=
201011032300 METAR MRLB 032300Z 28002KT 2000 RA SCT007 BKN020 25/24 A2974=
201011040000 METAR MRLB 040000Z 35002KT 5000 -RA SCT010 BKN100 25/24 A2976=
201011040100 METAR MRLB 040100Z 08006KT 3000 RA SCT010 BKN025 23/23 A2980=
201011040200 METAR MRLB 040200Z 16005KT 5000 RA SCT010 BKN090 23/23 A2981=
201011040300 METAR MRLB NIL=
201011040400 METAR MRLB NIL=
201011040500 METAR MRLB NIL=
201011040600 METAR MRLB NIL=
201011040700 METAR MRLB NIL=
201011040800 METAR MRLB NIL=
201011040900 METAR MRLB NIL=
201011041000 METAR MRLB NIL=
201011041100 METAR MRLB NIL=
201011041200 METAR MRLB 041200Z 00000KT 0500 FG SCT005 BKN100 23/22 A2979 RMK E UNL=
201011041300 METAR MRLB 041300Z 17002KT 9999 SCT005 BKN100 24/24 Z2981=
201011041400 METAR MRLB 041400Z 17002KT 9999 -RA SCT010 BKN100 24/24 A2983=
201011041500 METAR MRLB 041500Z 22003KT 9999 SCT010 BKN100 25/24 A2985 RMK RN DST NE=
201011041600 METAR MRLB 041600Z 00000KT 9999 BKN100 26/24 A2986 RMK RN DST NE/S=
201011041700 METAR MRLB 041700Z 17005KT 9999 -DZ SCT012 BKN100 26/24 A2983=
201011041800 METAR MRLB 041800Z 16005KT 9999 SCT015 BKN100 26/24 A2980 RMK RN DST N=
201011041900 METAR MRLB 041900Z 19005KT 9999 SCT020 SCT100 27/24 A2978=
201011042000 METAR MRLB 042000Z 24004KT 9999 SCT025 SCT100 28/24 A2975=
201011042100 METAR MRLB 042100Z 30005KT 9999 SCT020 BKN250 28/24 A2974 RMK RN DST E=
201011042200 METAR MRLB 042200Z 24004KT 9999 -RA SCT020 SCT100 28/23 A2974=
201011042300 METAR MRLB 042300Z 24005KT 9999 SCT020 SCT120 26/23 A2976 RMK RN DST E=
201011050000 METAR MRLB 050000Z 18002KT 9999 FEW020 SCT120 25/23 A2977 RMK RN DST E=
201011050100 METAR MRLB 050100Z 12003KT 9999 FEW020 SCT120 24/23 A2980=
201011050200 METAR MRLB NIL=
201011050300 METAR MRLB NIL=
201011050400 METAR MRLB NIL=
201011050500 METAR MRLB NIL=
201011050600 METAR MRLB NIL=
201011050700 METAR MRLB NIL=
201011050800 METAR MRLB NIL=
201011050900 METAR MRLB NIL=
201011051000 METAR MRLB NIL=
201011051100 METAR MRLB NIL=
201011051200 METAR MRLB 051200Z 10003KT 9000 VCFG FEW020 BKN100 24/23 A2983=
201011051300 METAR MRLB 051300Z 09005KT 9999 SCT010 BKN100 25/23 A2986 RMK VIS S SW 7 KMS DUE RN=
201011051400 METAR MRLB 051400Z 34004KT 7000 -RA SCT010 BKN070 24/23 A2989 LOW ST ARND=
201011051500 METAR MRLB 051500Z 29003KT 7000 DZ SCT010 BKN100 24/23 A2990 RMK VIS N UNL=
201011051600 METAR MRLB 051600Z 00000KT 9999 DZ FEW006 SCT012 BKN100 26/23 A2989=
201011051700 METAR MRLB 051700Z 21004KT 8000 -RA SCT010 BKN100 25/24 A2988 RMK VIS UNL N=
201011051800 METAR MRLB 051800Z 20003KT 7000 -RA SCT010 BKN100 25/24 A2985 VIS UNL N=
201011051900 METAR MRLB 051900Z 08008KT 7000 -RA SCT010 BKN100 24/23 A2983=
201011052000 METAR MRLB 052000Z 24003KT 9999 -RA SCT010 BKN100 24/23 A2981 RMK VIS S SW 6KMS=
201011052100 METAR MRLB 052100Z 00000KT 9999 DZ SCT015 BKN120 24/23 A2981=
201011052200 METAR MRLB 052200Z 22004KT 6000 -RA SCT010 BKN070 24/23 A2983=
201011052300 METAR MRLB 052300Z 24003KT 3000 RA SCT008 BKN050 24/23 A2984=
201011060000 METAR MRLB 060000Z 25003KT 7000 -RA SCT010 OVC100 23/23 A2985=
201011060100 METAR MRLB NIL=
201011060200 METAR MRLB NIL=
201011060300 METAR MRLB NIL=
201011060400 METAR MRLB NIL=
201011060500 METAR MRLB NIL=
201011060600 METAR MRLB NIL=
201011060700 METAR MRLB NIL=
201011060800 METAR MRLB NIL=
201011060900 METAR MRLB NIL=
201011061000 METAR MRLB NIL=
201011061100 METAR MRLB NIL=
201011061200 METAR MRLB 061200Z 18004KT 9999 FEW030 BKN130 22/20 A2990=
201011061300 METAR MRLB 061300Z 00000KT 9999 FEW035 SCT140 23/21 A2991=
201011061400 METAR MRLB 061400Z 00000KT 9999 FEW035 SCT140 25/21 A2992=
201011061500 METAR MRLB 061500Z 04004KT 9999 FEW035 SCT250 27/20 A2995=
201011061600 METAR MRLB 061600Z 30006KT 9999 FEW035 SCT250 29/20 A2995=
201011061700 METAR MRLB 061700Z 19004KT 9999 FEW035 SCT140 30/19 A2992=
201011061800 METAR MRLB 061800Z 25008KT 9999 FEW035 SCT140 30/19 A2990=
201011061900 METAR MRLB 061900Z 08011KT 9999 FEW035 SCT250 31/19 A2987=
201011062000 METAR MRLB NIL=
201011062100 METAR MRLB 062100Z 10007KT 9999 FEW035 BKN120 29/19 A2983=
201011062200 METAR MRLB 062200Z 26007KT 9999 SCT035 BKN140 28/21 A2984=
201011062300 METAR MRLB 062300Z 17006KT 9999 SCT035 BKN130 26/20 A2986=
201011070000 METAR MRLB 070000Z 19005KT 9999 FEW035 BKN130 25/20 A2986=
201011070100 METAR MRLB 070100Z 18003KT 9999 SCT35 BKN130 25/20 A2989=
201011070200 METAR MRLB 070200Z 12002KT 9999 SCT030 BKN130 24/20 A2991=
201011070300 METAR MRLB NIL=
201011070400 METAR MRLB NIL=
201011070500 METAR MRLB NIL=
201011070600 METAR MRLB NIL=
201011070700 METAR MRLB NIL=
201011070800 METAR MRLB NIL=
201011070900 METAR MRLB NIL=
201011071000 METAR MRLB NIL=
201011071100 METAR MRLB NIL=
201011071200 METAR MRLB 071200Z 29005KT CAVOK 20/18 A2989 RMK BKN250=
201011071300 METAR MRLB 071300Z 15003KT CAVOK 22/19 A2991 BKN250=
201011071400 METAR MRLB 071400Z 20003KT CAVOK 25/18 A2993 RMK BKN250=
201011071500 METAR MRLB 071500Z 25007KT 9999 SKC 27/19 A2994=
201011071600 METAR MRLB 071600Z 22006KT 9999 SKC 28/18 A2993=
201011071700 METAR MRLB 071700Z 28006KT CAVOK 30/18 A2991 RMK SCT250=
201011071800 METAR MRLB 071800Z 26007KT CAVOK 31/19 A2988 RMK FEW250=
201011071900 METAR MRLB 071900Z 27004KT CAVOK 31/18 A2986 RMK FEW250=
201011072000 METAR MRLB 072000Z 29006KT CAVOK 31/19 A2984 RMK SCT250=
201011072100 METAR MRLB 072100Z 22005KT CAVOK 31/18 A2982 RMK SCT120=
201011072200 METAR MRLB 072200Z 06007KT CAVOK 30/18 A2982 RMK BKN250=
201011072300 METAR MRLB 072300Z 32005KT CAVOK 28/18 A2983 RMK BKN250=
201011080000 METAR MRLB 080000Z 11006KT CAVOK 25/17 A2982 RMK BKN250=
201011080100 METAR MRLB 080100Z 09002KT CAVOK 25/18 A2984 RMK BKN250=
201011080200 METAR MRLB 080200Z 16004KT CAVOK 23/19 A2985 RMK BKN250=
201011080300 METAR MRLB NIL=
201011080400 METAR MRLB NIL=
201011080500 METAR MRLB NIL=
201011080600 METAR MRLB NIL=
201011080700 METAR MRLB NIL=
201011080800 METAR MRLB NIL=
201011080900 METAR MRLB NIL=
201011081000 METAR MRLB NIL=
201011081100 METAR MRLB NIL=
201011081200 METAR MRLB 081200Z 17005KT CAVOK 20/18 A2986 RMK FEW100 SCT250=
201011081300 METAR MRLB 081300Z 30003KT CAVOK 22/19 A2987 RMK SCT250=
201011081400 METAR MRLB 081400Z 21004KT CAVOK 25/20 A2988 RMK SCT250=
201011081500 METAR MRLB 081500Z 25005KT CAVOK 27/19 A2989 RMK SCT250=
201011081600 METAR MRLB 081600Z 25006KT CAVOK 29/19 A2989=
201011081700 METAR MRLB 081700Z 26005KT CAVOK 30/19 A2987 RMK FEW250=
201011081800 METAR MRLB 081800Z 28007KT CAVOK 31/19 A2983 RMK FEW250=
201011081900 METAR MRLB 081900Z 07010KT CAVOK 31/18 A2980 RMK FEW250=
201011082000 METAR MRLB 082000Z 08015KT CAVOK 30/17 A2978 RMK FEW250=
201011082100 METAR MRLB 082100Z 07010KT CAVOK 30/17 A2978 RMK FEW250=
201011082200 METAR MRLB 082200Z 08010KT CAVOK 29/18 A2978 RMK FEW250=
201011082300 METAR MRLB 082300Z 06010KT CAVOK 27/19 A2978 RMK FEW250=
201011090000 METAR MRLB 090000Z 08008KT CAVOK 24/18 A2979 RMK FEW250=
201011090100 METAR MRLB 090100Z 07005KT CAVOK 24/19 A2982 RMK FEW250=
201011090200 METAR MRLB NIL=
201011090300 METAR MRLB NIL=
201011090400 METAR MRLB NIL=
201011090500 METAR MRLB NIL=
201011090600 METAR MRLB NIL=
201011090700 METAR MRLB NIL=
201011090800 METAR MRLB NIL=
201011090900 METAR MRLB NIL=
201011091000 METAR MRLB NIL=
201011091100 METAR MRLB NIL=
201011091200 METAR MRLB 091200Z 00000KT CAVOK 19/18 A2983 RMK SCT250=
201011091300 METAR MRLB 091300Z 00000KT CAVOK 21/19 A2984 RMK SCT250=
201011091400 METAR MRLB 091400Z 00000KT CAVOK 23/19 A2986 RMK SCT250=
201011091500 METAR MRLB 091500Z 27003KT CAVOK 25/19 A2987 RMK SCT250=
201011091600 METAR MRLB 091600Z 33004KT CAVOK 27/18 A2988 RMK SCT250=
201011091700 METAR MRLB 091700Z 27004KT CAVOK 29/19 A2985 RMK SCT250=
201011091800 METAR MRLB 091800Z 31004KT CAVOK 30/19 A2982 RMK SCT250=
201011091900 METAR MRLB 091900Z 24004KT CAVOK 31/19 AA2979 RMK SCT250=
201011092000 METAR MRLB 092000Z 10008KT 9999 FEW035 SCT250 31/18 A2977=
201011092100 METAR MRLB 092100Z 09008KT 9999 FEW035 SCT250 31/18 A2976=
201011092200 METAR MRLB 092200Z 08007KT CAVOK 30/17 A2975 RMK BKN250=
201011092300 METAR MRLB 092300Z 00000KT CAVOK 29/20 A2976 RMK BKN250=
201011100000 METAR MRLB 100000Z 07002KT CAVOK 26/19 A2976 RMK BKN240=
201011100100 METAR MRLB 100100Z 22002KT CAVOK 24/19 A2977 RMK BKN240=
201011100200 METAR MRLB 100200Z 14004KT 9999 FEW035 BKN240 23/19 A2979=
201011100300 METAR MRLB NIL=
201011100400 METAR MRLB NIL=
201011100500 METAR MRLB NIL=
201011100600 METAR MRLB NIL=
201011100700 METAR MRLB NIL=
201011100800 METAR MRLB NIL=
201011100900 METAR MRLB NIL=
201011101000 METAR MRLB NIL=
201011101100 METAR MRLB NIL=
201011101200 METAR MRLB 101200Z 09003KT 9999 SKC 19/19 A2982=
201011101300 METAR MRLB 101300Z 05003KT 9999 SKC 22/20 A2983=
201011101400 METAR MRLB NIL=
201011101500 METAR MRLB 101500Z 29003KT CAVOK 27/20 A2988 RMK FEW140 FEW250=
201011101600 METAR MRLB 101600Z 31003KT CAVOK 29/21 A2988 RMK SCT140=
201011101700 METAR MRLB 101700Z 13007KT 9999 FEW035 BKN130 30/19 A2986=
201011101800 METAR MRLB 101800Z 11009KT 9999 FEW035 BKN130 30/20 A2983=
201011101900 METAR MRLB 101900Z 11008KT 9999 FEW035 SCT250 31/20 2981 RMK FEW130=
201011102000 METAR MRLB 102000Z 12006KT 9999 FEW035 SCT130 31/19 A2979=
201011102100 METAR MRLB 102100Z 27008KT 9999 SCT035 BKN120 28/22 A2978=
201011102200 METAR MRLB 102200Z 28006KT 9999 SCT035 BKN100 27/21 A2979=
201011102300 METAR MRLB 102300Z 26004KT 9999 SCT035 BKN120 26/22 A2980=
201011110000 METAR MRLB 110000Z 28003KT 9999 FEW035 BKN120 25/22 A2980=
201011110100 METAR MRLB 110100Z 01002KT 9999 FEW035 BKN120 25/23 A2983=
201011110200 METAR MRLB 110200Z 00000KT 9999 FEW035 BKN120 25/23 A2986=
201011110300 METAR MRLB NIL=
201011110400 METAR MRLB NIL=
201011110500 METAR MRLB NIL=
201011110600 METAR MRLB NIL=
201011110700 METAR MRLB NIL=
201011110800 METAR MRLB NIL=
201011110900 METAR MRLB NIL=
201011111000 METAR MRLB NIL=
201011111100 METAR MRLB NIL=
201011111200 METAR MRLB 111200Z 00000KT 9999 FEW030 BKN120 23/22 A2986=
201011111300 METAR MRLB 111300Z 07003KT 9999 FEW030 SCT100 24/22 A2988=
201011111400 METAR MRLB 111400Z 00000KT 9999 FEW025 SCT120 26/22 A2990=
201011111500 METAR MRLB 111500Z 23004KT 9999 FEW025 BKN120 27/21 A2991=
201011111600 METAR MRLB 111600Z 26005KT 9999 FEW025 BKN120 28/22 A2991=
201011111700 METAR MRLB 111700Z 17003KT 9999 FEW020 BKN140 30/21 A2991=
201011111800 METAR MRLB 111800Z 25005KT 9999 FEW020 BKN140 31/20 A2988=
201011111900 METAR MRLB 111900Z 27006KT 9999 FEW020 BKN150 32/20 A2986=
201011112000 METAR MRLB 112000Z 11007KT 9999 FEW025 SCT250 32/19 A2984=
201011112100 METAR MRLB 112100Z 28003KT CAVOK 27/23 A2988 RMK BKN080 FEW100 DZ NW HZ ARND=
201011112200 METAR MRLB 112200Z 15010KT 9999 SCT030 BKN10 29/21 A2984=
201011112300 METAR MRLB 112300Z 08010KT 9999 SCT025 BKN100 27/20 A2983=
201011120000 METAR MRLB 120000Z 04010KT 9999 FEW030 SCT100 27/20 A2987=
201011120100 METAR MRLB 120100Z 07008KT 9999 FEW030 SCT100 27/20 A2989=
201011120200 METAR MRLB NIL=
201011120300 METAR MRLB NIL=
201011120400 METAR MRLB NIL=
201011120500 METAR MRLB NIL=
201011120600 METAR MRLB NIL=
201011120700 METAR MRLB NIL=
201011120800 METAR MRLB NIL=
201011120900 METAR MRLB NIL=
201011121000 METAR MRLB NIL=
201011121100 METAR MRLB NIL=
201011121200 METAR MRLB 121200Z 00000KT 9999 FEW035 BKN140 22/21 A2991=
201011121300 METAR MRLB 121300Z 00000KT CAVOK 24/22 A2991 RMK BKN240=
201011121400 METAR MRLB 121400Z 16003KT CAVOK 26/22 A2993 RMK BKN240=
201011121500 METAR MRLB 121500Z 22004KT 9999 FEW035 SCT250 28/22 A2995=
201011121600 METAR MRLB NIL=
201011121700 METAR MRLB 121700Z 24004KT 9999 SCT035 SCT250 30/22 A2992=
201011121800 METAR MRLB 121800Z 25004KT 9999 SCT035 SCT250 31/20 A2990=
201011121900 METAR MRLB 121900Z 28005KT 9999 SCT035 31/21 A2988=
201011122000 METAR MRLB 122000Z 25006KT 9999 SCT035 31/22 A2985=
201011122100 METAR MRLB 122100Z 26008KT 9999 SCT035 31/22 A2984=
201011122200 METAR MRLB 122200Z 18006KT 9999 SCT035 SCT250 29/23 A2984=
201011122300 METAR MRLB 122300Z 24005KT 9999 FEW035 SCT250 27/22 A2985=
201011130000 METAR MRLB 130000Z 16002KT 9999 SCT035 BKN250 26/22 A2986=
201011130100 METAR MRLB 130100Z 15003KT 9999 SCT035 BKN230 25/22 A2988=
201011130200 METAR MRLB 130200Z 17002KT 9999 SCT030 BKN230 24/22 A2989=
201011130300 METAR MRLB NIL=
201011130400 METAR MRLB NIL=
201011130500 METAR MRLB NIL=
201011130600 METAR MRLB NIL=
201011130700 METAR MRLB NIL=
201011130800 METAR MRLB NIL=
201011130900 METAR MRLB NIL=
201011131000 METAR MRLB NIL=
201011131100 METAR MRLB NIL=
201011131200 METAR MRLB 131200Z 17002KT CAVOK 22/21 A2990 RMK BKN140=
201011131300 METAR MRLB 131300Z 32004KT CAVOK 23/21 A2991 RMK BKN140=
201011131400 METAR MRLB NIL=
201011131500 METAR MRLB 13150Z 23003KT CAVOK 25/21 A2993 RMK BKN130=
201011131600 METAR MRLB 131600Z 22004KT CAVOK 27/21 A2993 RMK BKN130=
201011131700 METAR MRLB 131700Z 26003KT 9999 FEW035 BKN130 29/21 A2992=
201011131800 METAR MRLB 131800Z 19003KT 9999 FEW035 BKN130 30/20 A2989=
201011131900 METAR MRLB 131900Z 27004KT 9999 SCT035 BKN250 20/20 A2987=
201011132000 METAR MRLB 132000Z 27006KT 9999 FEW035 BKN250 31/21 A2983=
201011132100 METAR MRLB 132100Z 28006KT 9999 FEW035 BKN250 30/21 A2983=
201011132200 METAR MRLB 132200Z 24005KT 9999 FEW035 SCT130 BKN250 29/22 A2982=
201011132300 METAR MRLB 132300Z 20002KT 9999 FEW040 BKN130 28/23 A2983=
201011140000 METAR MRLB 140000Z 00000KT 9999 FEW040 BKN130 27/21 A2984=
201011140100 METAR MRLB 140100Z 24003KT 9999 FEW040 BKN130 26/22 A2986=
201011140200 METAR MRLB 140200Z 16003KT 9999 FEW040 BKN130 25/21 A2988=
201011140300 METAR MRLB NIL=
201011140400 METAR MRLB NIL=
201011140500 METAR MRLB NIL=
201011140600 METAR MRLB NIL=
201011140700 METAR MRLB NIL=
201011140800 METAR MRLB NIL=
201011140900 METAR MRLB NIL=
201011141000 METAR MRLB NIL=
201011141100 METAR MRLB NIL=
201011141200 METAR MRLB 141200Z 03004KT CAVOK 22/20 A2987 RMK FEW100 SCT250=
201011141300 METAR MRLB 141300Z 00000KT CAVOK 23/21 A2989 RMK FEW100 SCT250=
201011141400 METAR MRLB 141400Z 25003KT CAVOK 24/21 A2991 RMK FEW100 SCT250=
201011141500 METAR MRLB 141500Z 26003KT CAVOK 27/20 A2994 RMK FEW100 SCT250=
201011141600 METAR MRLB 141600Z 28005KT CAVOK 29/20 A2994 RMK FEW100 SCT250=
201011141700 METAR MRLB 141700Z 29008KT CAVOK 30/20 A2991 RMK SCT250=
201011141800 METAR MRLB 141800Z 26007KT CAVOK 30/19 A2988 RMK SCT250=
201011141900 METAR MRLB 141900Z 27006KT CAVOK 31/18 A2986 RMK SCT250=
201011142000 METAR MRLB 142000Z 28006KT CAVOK 31/18 A2983 RMK SCT250=
201011142100 METAR MRLB 142100Z 30007KT CAVOK 27/20 A2988 RMK BKN120 SCT250 RN DST E HZ A RND=
201011142200 METAR MRLB 142200Z 27006KT CAVOK 30/19 A2982 RMK SCT250=
201011142300 METAR MRLB 142300Z 12003KT CAVOK 28/19 A2983 RMK FEW100 TCU DST SE=
201011150000 METAR MRLB 150000Z 10008KT CAVOK 25/18 A2983 RMK FEW100=
201011150100 METAR MRLB 150100Z 12007KT CAVOK 25/18 A2985 RMK FEW100=
201011150200 METAR MRLB NIL=
201011150300 METAR MRLB NIL=
201011150400 METAR MRLB NIL=
201011150500 METAR MRLB NIL=
201011150600 METAR MRLB NIL=
201011150700 METAR MRLB NIL=
201011150800 METAR MRLB NIL=
201011150900 METAR MRLB NIL=
201011151000 METAR MRLB NIL=
201011151100 METAR MRLB NIL=
201011151200 METAR MRLB 151200Z 03002KT CAVOK 21/19 A2987 RMK SCT250=
201011151300 METAR MRLB 151300Z 16002KT CAVOK 23/20 A2988 RMK SCT250=
201011151400 METAR MRLB 151400Z 35002KT CAVOK 25/20 A2990 RMK SCT250=
201011151500 METAR MRLB 151500Z 20003KT CAVOK 27/20 A2991 RMK FEW250=
201011151600 METAR MRLB 151600Z 29003KT CAVOK 29/20 A2992 RMK FEW250=
201011151700 METAR MRLB 151700Z 32003KT CAVOK 30/21 A2990 RMK FEW250=
201011151800 METAR MRLB 151800Z 26004KT 9999 FEW035 30/21 A2987=
201011151900 METAR MRLB 151900Z 25006KT 9999 FEW035 31/22 A2984=
201011152000 METAR MRLB 152000Z 16010KT 9999 FEW035 29/21 A2982=
201011152100 METAR MRLB 152100Z 27011KT 9999 FEW035 BKN250 28/21 A2980=
201011152200 METAR MRLB 152200Z 27008KT 9999 SCT035 SCT250 28/22 A2981=
201011152300 METAR MRLB 152300Z 26007KT 9999 SCT035 BKN240 27/21 A2981=
201011160000 METAR MRLB 160000Z 24004KT 9999 SCT035 BKN230 25/22 A2982=
201011160100 METAR MRLB 160100Z 26003KT 9999 SCT035 BKN250 25/21 A2984=
201011160200 METAR MRLB 160200Z 25003KT 9999 SCT030 BKN230 24/21 A2976=
201011160300 METAR MRLB NIL=
201011160400 METAR MRLB NIL=
201011160500 METAR MRLB NIL=
201011160600 METAR MRLB NIL=
201011160700 METAR MRLB NIL=
201011160800 METAR MRLB NIL=
201011160900 METAR MRLB NIL=
201011161000 METAR MRLB NIL=
201011161100 METAR MRLB NIL=
201011161200 METAR MRLB 161200Z 00000KT 9999 OVC035 21/21 A2989 RMK HZ ARND=
201011161300 METAR MRLB 161300Z 02002KT 9999 BKN035 SCT130 22/21 A2991 RMK LGT HZ ARND=
201011161400 METAR MRLB 161400Z 04004KT CAVOK 24/22 A2992 RMK OVC130 LGT HZ ARND=
201011161500 METAR MRLB 161500Z 02003KT 9999 FEW030 BKN130 27/22 A2993 RMK LGT HZ ARND=
201011161600 METAR MRLB 161600Z 27003KT 9999 SCT030 BKN130 28/21 A2994 RMK LGT HZ ARND=
201011161700 METAR MRLB 161700Z 00000KT 9999 SCT035 BKN130 30/21 A2991 RMK LGT HZ ARND=
201011161800 METAR MRLB 161800Z 28008KT 9999 BKN030 28/22 A2989 RMK LGT HZ ARND=
201011161900 METAR MRLB 161900Z 28009KT 9999 SCT030 30/21 A2986 RMK LGT HZ ARND=
201011162000 METAR MRLB 162000Z 29010KT 9999 FEW030 29/21 A2983 RMK LGT HZ ARND=
201011162100 METAR MRLB 162100Z 28010KT 9999 NSC 28/21 A2992=
201011162200 METAR MRLB 162200Z 28010KT 9999 NSC 28/21 A2992=
201011162300 METAR MRLB 162300Z 28006KT 9999 NSC 26/22 A2982=
201011170000 METAR MRLB 170000Z 27003KT 9999 NSC 25/21 A2983=
201011170100 METAR MRLB 170100Z 3304KT 9999 NSC 24/21 A2986=
201011170200 METAR MRLB 170200Z 33005KT 9999 NSC 24/21 A2988=
201011170300 METAR MRLB NIL=
201011170400 METAR MRLB NIL=
201011170500 METAR MRLB NIL=
201011170600 METAR MRLB NIL=
201011170700 METAR MRLB NIL=
201011170800 METAR MRLB NIL=
201011170900 METAR MRLB NIL=
201011171000 METAR MRLB NIL=
201011171100 METAR MRLB NIL=
201011171200 METAR MRLB 171200Z 04004KT 9999 FEW030 SCT250 20/19 A2990=
201011171300 METAR MRLB 171300Z 04003KT CAVOK 23/20 A2993 RMK SCT250 HZ ARND=
201011171400 METAR MRLB 171400Z 00000KT CAVOK 26/21 A2994 RMK HZ ARND FEW100=
201011171500 METAR MRLB 171500Z 00000KT 9999 FEW020 SCT100 27/22 A2997=
201011171600 METAR MRLB 171600Z 26006KT 9999 FEW020 SCT100 29/22 A2997=
201011171700 METAR MRLB 171700Z 28008KT 9999 SCT025 BKN250 29/22 A2995=
201011171800 METAR MRLB 171800Z 27010KT 9999 SCT020 BKN250 29/21 A2991=
201011171900 METAR MRLB 171900Z 26010KT 9999 SCT025 BKN250 29/22 A2988=
201011172000 METAR MRLB 172000Z 27010KT 9999 FEW025 SCT250 28/22 A2985=
201011172100 METAR MRLB 172100Z 27010KT 9999 FEW025 SCT250 27/22 A2984=
201011172200 METAR MRLB 172200Z 27010KT 9999 FEW030 SCT250 27/22 A2983=
201011172300 METAR MRLB 172300Z 27006KT 9999 FEW025 SCT018 26/22 A2984=
201011180000 METAR MRLB 180000Z 25004KT 9999 FEW025 25/22 A2986=
201011180100 METAR MRLB 180100Z 24004KT 9999 FEW030 25/22 A2988=
201011180200 METAR MRLB NIL=
201011180300 METAR MRLB NIL=
201011180400 METAR MRLB NIL=
201011180500 METAR MRLB NIL=
201011180600 METAR MRLB NIL=
201011180700 METAR MRLB NIL=
201011180800 METAR MRLB NIL=
201011180900 METAR MRLB NIL=
201011181000 METAR MRLB NIL=
201011181100 METAR MRLB NIL=
201011181200 METAR MRLB 181200Z 05003KT 9999 SCT030 BKN140 23/21 A2990 RMK LGT HZ ARND=
201011181300 METAR MRLB 181300Z 03005KT 9999 FEW035 BKN250 24/21 A2992 RMK HZ ARND=
201011181400 METAR MRLB 181400Z 35004KT 9999 FEW035 26/22 A2994 RMK HZ ARND=
201011181500 METAR MRLB 181500Z 27003KT 9999 SCT035 BKN250 28/23 A2997=
201011181600 METAR MRLB 181600Z 25005KT 9999 SCT035 BKN250 29/23 A2996=
201011181700 METAR MRLB 181700Z 26007KT 9999 SCT035 BKN250 29/23 A2994=
201011181800 METAR MRLB 181800Z 27009KT 9999 SCT035 BKN240 29/23 A2991=
201011181900 METAR MRLB 181900Z 27011KT 9999SCT035 BKN240 28/23 A2988=
201011182000 METAR MRLB 182000Z 28010KT 9999 -DZ SCT030 BKN130 26/24 A2985 RERA=
201011182100 METAR MRLB 182100Z 28008KT 9999 SCT030 BKN140 26/23 A2982 RMK HZ ARND=
201011182200 METAR MRLB 182200Z 27008KT 9999 SCT030 BKN140 25/23 A2982 RMK HZ ARND=
201011182300 METAR MRLB 182300Z 30005KT 9999 SCT030 BKN130 24/23 A2982 RMK HZ ARND=
201011190000 METAR MRLB 190000Z 31003KT 9999 SCT035 BKN130 24/23 A2983 RMK AZ ARND=
201011190100 METAR MRLB 190100Z 29003KT 9999 SCT035 BKN130 24/22 A2985 RMK HZ ARND=
201011190200 METAR MRLB NIL=
201011190300 METAR MRLB NIL=
201011190400 METAR MRLB NIL=
201011190500 METAR MRLB NIL=
201011190600 METAR MRLB NIL=
201011190700 METAR MRLB NIL=
201011190800 METAR MRLB NIL=
201011190900 METAR MRLB NIL=
201011191000 METAR MRLB NIL=
201011191100 METAR MRLB NIL=
201011191200 METAR MRLB 191200Z 06002KT 1000 BR SCT005 BKN100 23/23 A2985=
201011191300 METAR MRLB 191300Z 00000KT 9999 4000NW BR FEW007 BKN120 23/23 A2988=
201011191400 METAR MRLB 191400Z 16005KT 9999 SCT008 SCT120 24/23 A2988 RMK HZY=
201011191500 METAR MRLB 191500Z 16002KT 9999 SCT010 SCT120 26/23 A2990 RMK HZ ARND=
201011191600 METAR MRLB 191600Z 36006KT 9999 SCT025 29/22 A2992 RMK FEW140 HZ ARND=
201011191700 METAR MRLB 191700Z 28002KT 9999 SCT030 30/22 A2989 RMK FEW140 HZY=
201011191800 METAR MRLB 191800Z 09004KT 9999 SCT030 32/22 A2985 RMK FEW140 HZ ARND=
201011191900 METAR MRLB 191900Z 28006KT 9999 SCT030 SCT140 32/23 A2981 RMK HZ ARND=
201011192000 METAR MRLB 192000Z 27007KT 9999 SCT030 31/23 A2978 RMK FEW140=
201011192100 METAR MRLB 192100Z 24008KT 9999 RA SCT020 SCT030 27/24 A2976 RMK TS DST W=
201011192200 METAR MRLB 192200Z 31008KT 9999 SCT020 BKN100 25/23 A2976 RMK RN DST S SW W=
201011192300 METAR MRLB 192300Z 22002KT 9999 SCT020 BKN100 24/23 A2978 RMK RN DST N NE S=
201011200000 METAR MRLB 200000Z 30002KT 9999 -RA SCT020 BKN100 25/23 A2980 RMK LTNG DST S=
201011200100 METAR MRLB 200100Z 14002KT 9999 SCT020 BKN100 24/23 A2983=
201011200200 METAR MRLB NIL=
201011200300 METAR MRLB NIL=
201011200400 METAR MRLB NIL=
201011200500 METAR MRLB NIL=
201011200600 METAR MRLB NIL=
201011200700 METAR MRLB NIL=
201011200800 METAR MRLB NIL=
201011200900 METAR MRLB NIL=
201011201000 METAR MRLB NIL=
201011201100 METAR MRLB NIL=
201011201200 METAR MRLB 201200Z 19003KT 9999 FEW025 SCT100 21/21 A2985 RMK LOW ST ARND=
201011201300 METAR MRLB 201300Z 17003KT 9999 SCT020 BKN100 23/21 A2987=
201011201400 METAR MRLB 201400Z 02004KT 9999 FEW008 SCT020 BKN100 23/22 A2990=
201011201500 METAR MRLB 201500Z 11006KT 9999 SCT025 BKN100 26/22 A2992=
201011201600 METAR MRLB 201600Z 07012KT 9999 SCT020 BKN180 27/21 A2991=
201011201700 METAR MRLB 201700Z 07010KT 9999 SCT020 BKN100 29/21 A2991=
201011201800 METAR MRLB 201800Z 08008KT 9999 SCT020 BKN100 29/20 A2988 RMK TCU RN NE=
201011201900 METAR MRLB 201900Z 06010KT 9999 SCT020 BKN170 30/20 A2985=
201011202000 METAR MRLB 202000Z 07012KT 9999 SCT020 BKN140 28/20 A2983=
201011202100 METAR MRLB 202100Z 15006KT 9999 FEW020 SCT100 29/20 A2980=
201011202200 METAR MRLB 202200Z 12006KT 9999 FEW020 SCT140 27/21 A2980=
201011202300 METAR MRLB 202300Z 06012KT 9999 SCT030 BKN250 27/19 A2982 RMK TCU DST N=
201011210000 METAR MRLB 210000Z 08005KT 9999 FEW040 26/19 A2983 RMK TCU DST SW=
201011210100 METAR MRLB 210100Z 11005KT 9999 FEW045 24/20 A2985=
201011210200 METAR MRLB NIL=
201011210300 METAR MRLB NIL=
201011210400 METAR MRLB NIL=
201011210500 METAR MRLB NIL=
201011210600 METAR MRLB NIL=
201011210700 METAR MRLB NIL=
201011210800 METAR MRLB NIL=
201011210900 METAR MRLB NIL=
201011211000 METAR MRLB NIL=
201011211100 METAR MRLB NIL=
201011211200 METAR MRLB 211200Z 05004KT 9999 SCT035 BKN250 22/20 A2988=
201011211300 METAR MRLB 211300Z 17003KT 9999 SCT035 SCT140 24/21 A2990 RMK RN DST N=
201011211400 METAR MRLB 211400Z 23003KT 9999 SCT035 BKN140 25/21 A2992=
201011211500 METAR MRLB 211500Z 24003KT 9999 SCT035 BKN130 26/21 A2995=
201011211600 METAR MRLB 211600Z 19005KT 9999 SCT035 BKN130 26/21 A2995=
201011211700 METAR MRLB 211700Z 18006KT 9999 SCT035 BKN130 26/21 A2993=
201011211800 METAR MRLB 211800Z 23003KT 9999 SCT035 BKN130 27/21 A2991=
201011211900 METAR MRLB 211900Z 12003KT 9999 SCT035 BKN120 27/21 A2987=
201011212000 METAR MRLB 212000Z 07008KT 9999 SCT035 BKN120 27/21 A2986 RMK RN DST E=
201011212100 METAR MRLB 212100Z 05004KT 9999 SCT030 BKN120 26/22 A2984 RMK RA DST N NE=
201011212200 METAR MRLB 212200Z 09003KT 9999 FREW030 BKN120 26/21 A2983=
201011212300 METAR MRLB 212300Z 10009KT 9999 FEW030 BKN120 26720 A2983=
201011220000 METAR MRLB 220000Z 09009KT 9999 FEW035 BKN120 25/20 A2983=
201011220100 METAR MRLB 220100Z 08007KT 9999 FEW035 BKN120 24/19 A2984=
201011220200 METAR MRLB 220200Z 06009KT 9999 FEW035 BKN130 24/19 A2985=
201011220300 METAR MRLB NIL=
201011220400 METAR MRLB NIL=
201011220500 METAR MRLB NIL=
201011220600 METAR MRLB NIL=
201011220700 METAR MRLB NIL=
201011220800 METAR MRLB NIL=
201011220900 METAR MRLB NIL=
201011221000 METAR MRLB NIL=
201011221100 METAR MRLB NIL=
201011221200 METAR MRLB NIL=
201011221300 METAR MRLB 221300Z 09004KT 9999 SCT035 BKN250 23/20 A2986=
201011221400 METAR MRLB 221400Z 36005KT 9999 FEW035 BKN250 25/21 A2988=
201011221500 METAR MRLB 221500Z 02003KT 9999 FEW035 BKN250 28/20 A2989=
201011221600 METAR MRLB 221600Z 07014KT 9999 FEW035 BKN250 30/19 A2989=
201011221700 METAR MRLB 221700Z 06014KT 9999 SCT035 BKN250 28/19 A2988=
201011221800 METAR MRLB 221800Z 07010KT 9999 FEW035 BKN250 28/21 A2985 RMK RA DST N NE=
201011221900 METAR MRLB 221900Z 06010KT 9999 BKN030 SCT100 29/20 A2982 RMK RA NE=
201011222000 METAR MRLB 222000Z 05013KT 9999 SCT030 SCT100 30/20 A2980 RMK RA N NE E S=
201011222100 METAR MRLB 222100Z 05015KT 9999 -RA SCT030 SCT100 27/21 A2979=
201011222200 METAR MRLB 222200Z 34007KT 9999 SCT030 SCT100 26/22 A2980 RMK RA DST N NE E S=
201011222300 METAR MRLB 222300Z 09007KT 5000 RA SCT020 BKN100 24/22 A2981=
201011230000 METAR MRLB 230000Z 35004KT 9999 RA BKN020 SCT100 23/22 A2983=
201011230100 METAR MRLB 230100Z 31003KT 9999 +RA SCT020 BKN100 23/22 A2984 RERA=
201011230200 METAR MRLB NIL=
201011230300 METAR MRLB NIL=
201011230400 METAR MRLB NIL=
201011230500 METAR MRLB NIL=
201011230600 METAR MRLB NIL=
201011230700 METAR MRLB NIL=
201011230800 METAR MRLB NIL=
201011230900 METAR MRLB NIL=
201011231000 METAR MRLB NIL=
201011231100 METAR MRLB NIL=
201011231200 METAR MRLB 231200Z 29004KT 9999 FEW025 SCT100 22/20 A2980=
201011231300 METAR MRLB 231300Z 20004KT 9999 FEW025 SCT100 22/21 A2980=
201011231400 METAR MRLB 231400Z 22003KT 9999 FEW025 BKN140 24/21 A2982=
201011231500 METAR MRLB 231500Z 28006KT 9999 FEW025 BKN250 26/21 A2983=
201011231600 METAR MRLB 231600Z 30005KT 9999 FEW025 SCT100 BKN250 27/21 A2984=
201011231700 METAR MRLB 231700Z 07011KT 9999 SCT025 BKN100 26/21 A2983=
201011231800 METAR MRLB NIL=
201011231900 METAR MRLB 231900Z 05011KT 9999 SCT025 BKN100 27/20 A2978=
201011232000 METAR MRLB 232000Z 08012KT 9999 SCT020 BKN100 26/20 A2976 RMK DZ DST NE=
201011232100 METAR MRLB 232100Z 06012KT 9999 SCT025 BKN100 26/20 A2975 RMK DZ DST N NE=
201011232200 METAR MRLB 232200Z 07010KT 9999 DZ SCT020 BKN100 25/20 A2974=
201011232300 METAR MRLB 232300Z 07005KT 9999 SCT020 BKN100 24/21 A2974 RMK DZ DST N NE=
201011240000 METAR MRLB 240000Z 08004KT 9999 SCT020 BKN100 23/21 A2976=
201011240100 METAR MRLB 240100Z 06003KT 9999 SCT020 BKN100 23/21 A2978=
201011240200 METAR MRLB NIL=
201011240300 METAR MRLB NIL=
201011240400 METAR MRLB NIL=
201011240500 METAR MRLB NIL=
201011240600 METAR MRLB NIL=
201011240700 METAR MRLB NIL=
201011240800 METAR MRLB NIL=
201011240900 METAR MRLB NIL=
201011241000 METAR MRLB NIL=
201011241100 METAR MRLB NIL=
201011241200 METAR MRLB 241200Z 20004KT 9999 SCT035 BKN240 22/20 A2979=
201011241300 METAR MRLB 241300Z 25003KT 9999 SCT035 BKN240 24/21 A2980=
201011241400 METAR MRLB 241400Z 27002KT 9999 SCT035 BKN250 26/21 A2983=
201011241500 METAR MRLB 241500Z 17002KT 9999 SCT035 BKN250 28/21 A2985=
201011241600 METAR MRLB 241600Z 07011KT 9999 SCT035 SCT250 29/20 A2984=
201011241700 METAR MRLB 241700Z 07012KT 9999 SCT035 SCT250 30/20 A2982=
201011241800 METAR MRLB 241800Z 06011KT 9999 SCT035 BKN250 30/20 A2979=
201011241900 METAR MRLB 241900Z 07010KT 9999 SCT035 BKN250 30/20 A2976=
201011242000 METAR MRLB 242000Z 06007KT 9999 SCT035 BKN140 30/20 A2973=
201011242100 METAR MRLB 242100Z 34007KT 9999 SCT035 BKN130 29/21 A2972=
201011242200 METAR MRLB 242200Z 35006KT 9999 FEW035 BKN130 28/21 A2972=
201011242300 METAR MRLB 242300Z 32003KT 9999 FEW035 BKN130 26/21 A2971=
201011242359 METAR MRLB 250000Z 18003KT 9999 FEW035 BKN130 25/21 A2972=
201011250000 METAR MRLB 250000Z 18003KT 9999 FEW035 BKN130 25/21 A2972=
201011250100 METAR MRLB NIL=
201011250200 METAR MRLB NIL=
201011250300 METAR MRLB NIL=
201011250400 METAR MRLB NIL=
201011250500 METAR MRLB NIL=
201011250600 METAR MRLB NIL=
201011250700 METAR MRLB NIL=
201011250800 METAR MRLB NIL=
201011250900 METAR MRLB NIL=
201011251000 METAR MRLB NIL=
201011251100 METAR MRLB NIL=
201011251200 METAR MRLB 251200Z 00000KT CAVOK 20/20 A2981 RMK BKN250=
201011251300 METAR MRLB 251300Z 26002KT 9999 FEW008 BKN250 22/21 A2981=
201011251400 METAR MRLB 251400Z 06002KT 9999 SCT010 BKN250 23/21 A2985=
201011251500 METAR MRLB 251500Z 11003KT 9999 FEW030 BKN250 26/22 A2987=
201011251600 METAR MRLB 251600Z 11006KT 9999 SCT030 BKN250 28/21 A2986=
201011251700 METAR MRLB 251700Z 07007KT 9999 SCT030 BKN250 29/21 A2984 RMK RN DST N NE=
201011251800 METAR MRLB 251800Z 08008KT 9999 SCT030 BKN250 29/21 A2982=
201011251900 METAR MRLB 251900Z 02008KT 9999 SCT025 BKN080 29/20 A2981 RMK RN DST E S SW NW=
201011252000 METAR MRLB 252000Z 07013KT 9999 FEW030 BKN120 28/20 A2977 RMK RN DST SW=
201011252100 METAR MRLB 252100Z 06013KT 9999 SCT030 BKN120 29/20 A2976=
201011252200 METAR MRLB 252200Z 08011KT 9999 FEW030 BKN120 28/20 A2975=
201011252300 METAR MRLB 252300Z 08011KT 9999 FEW035 SCT120 BKN250 27/19 A2976=
201011260000 METAR MRLB 260000Z 36003KT 9999 FEW035 BKN250 25/21 A2978=
201011260100 METAR MRLB 260100Z 13006KT 9999 FEW035 BKN250 25/20 A2980=
201011260200 METAR MRLB 260200Z 05006KT 9999 FEW035 BKN250 24/20 A2982=
201011260300 METAR MRLB NIL=
201011260400 METAR MRLB NIL=
201011260500 METAR MRLB NIL=
201011260600 METAR MRLB NIL=
201011260700 METAR MRLB NIL=
201011260800 METAR MRLB NIL=
201011260900 METAR MRLB NIL=
201011261000 METAR MRLB NIL=
201011261100 METAR MRLB 261100Z NIL=
201011261200 METAR MRLB NIL=
201011261300 METAR MRLB 261300Z 06003KT CAVOK 23/21 A2984 RMK FEW100 SCT250=
201011261400 METAR MRLB 261400Z 00000KT CAVOK 25/21 A2986 RMK FEW100 SCT250=
201011261500 METAR MRLB 261500Z 25003KT 9999 FEW025 SCT250 28/21 A2988=
201011261600 METAR MRLB 261600Z 24005KT 9999 SCT020 BKN250 29/21 A2988=
201011261700 METAR MRLB 261700Z 24004KT 9999 -RA SCT020 BKN250 27/22 A2984=
201011261800 METAR MRLB 261800Z 23005KT 9999 SCT020TCU BKN250 29/22 A2983=
201011261900 METAR MRLB 261900Z 27010KT 9999 SCT020 BKN250 28/22 A2978=
201011262000 METAR MRLB 262000Z 25008KT 9999 SCT020TCU BKN250 29/22 A2976=
201011262100 METAR MRLB 262100Z 26007KT 9999 SCT025 BKN250 29/22 A2976 RA DST SE=
201011262200 METAR MRLB 262200Z 27006KT 9999 -TSRA SCT015CB BKN100 27/22 A2977 RMK VIS E 5KMS=
201011262300 METAR MRLB 262300Z 28003KT 9999 -RA SCT020 BKN120 25/22 A2975 RMK TCU E S=
201011270000 METAR MRLB 270000Z 15005KT 9999 SCT020 BKN100 24/22 A2978 RERA RMK CB RA DST SW=
201011270100 METAR MRLB 270100Z 15003KT 9999 FEW020 BKN100 23/22 A2981=
201011270200 METAR MRLB 270200Z 18003KT 9999 FEW020 SCT100 23/22 A2983=
201011270300 METAR MRLB NIL=
201011270400 METAR MRLB NIL=
201011270500 METAR MRLB NIL=
201011270600 METAR MRLB NIL=
201011270700 METAR MRLB NIL=
201011270800 METAR MRLB NIL=
201011270900 METAR MRLB NIL=
201011271000 METAR MRLB NIL=
201011271100 METAR MRLB NIL=
201011271200 METAR MRLB 271200Z 13003KT 9999 SCT030 SCT130 22/21 A2983 RMK LOW SW=
201011271300 METAR MRLB 271300Z 17003KT 9999 FEW035 BKN130 23/22 A2984=
201011271400 METAR MRLB 271400Z 23005KT 9999 FEW035 BKN130 24/22 A2985=
201011271500 METAR MRLB 271500Z 21005KT 9999 SCT035 BKN250 26/23 A2987=
201011271600 METAR MRLB 271600Z 26004KT 9999 SCT035 SCT250 28/23 A2987=
201011271700 METAR MRLB 271700Z 29006KT 9999 FEW035 SCT250 29/22 A2986=
201011271800 METAR MRLB 271800Z 23003KT 9999 SCT035 BKN250 29/21 A2983=
201011271900 METAR MRLB 271900Z 09014KT 9999 SCT035 BKN250 30/20 A2980=
201011272000 METAR MRLB 272000Z 08015KT 9999 SCT035 BKN250 30/20 A2978=
201011272100 METAR MRLB 272100Z 07016KT 9999 SCT035 BKN250 29/20 A2977=
201011272200 METAR MRLB 272200Z 09013KT 9999 SCT035 BKN250 27/20 A2977=
201011272300 METAR MRLB 272300Z 08012KT 9999 SCT035 BKN240 26/20 A2978=
201011280000 METAR MRLB NIL=
201011280100 METAR MRLB 280100Z 10011KT 9999 SCT035 BKN230 25/19 A2980=
201011280200 METAR MRLB 280200Z 09013KT 9999 SCT030 BKN220 24/18 A2982=
201011280300 METAR MRLB NIL=
201011280400 METAR MRLB NIL=
201011280500 METAR MRLB NIL=
201011280600 METAR MRLB NIL=
201011280700 METAR MRLB NIL=
201011280800 METAR MRLB NIL=
201011280900 METAR MRLB NIL=
201011281000 METAR MRLB NIL=
201011281100 METAR MRLB NIL=
201011281200 METAR MRLB 281200Z 02002KT 9999 SCT035 BKN120 21/20 A2983=
201011281300 METAR MRLB 281300Z 07005KT 9999 FEW035 BKN100 24/20 A2988=
201011281400 METAR MRLB 281400Z 14004KT 9999 FEW035 BKN100 24/21 A2987=
201011281500 METAR MRLB 281500Z 12005KT 9999 FEW035 BKN250 27/21 A2990=
201011281600 METAR MRLB 281600Z 10008KT 9999 FEW035 BKN250 28/20 A2990=
201011281700 METAR MRLB 281700Z 12005KT 9999 SCT035 BKN120 28/21 A2988=
201011281800 METAR MRLB 281800Z 07006KT 9999 FEW035 SCT120 BKN250 29/20 A2983=
201011281900 METAR MRLB 281900Z 07009KT 9999 FEW035 BKN120 29/20 A2982=
201011282000 METAR MRLB 282000Z 06007KT 9999 FEW035 BKN120 29/20 A2979=
201011282100 METAR MRLB 282100Z 08007KT 9999 FEW040 BKN140 29/19 A2978=
201011282200 METAR MRLB 282200Z 01005KT 9999 FEW040 BKN140 29/21 A2978=
201011282300 METAR MRLB 282300Z 09005KT 9999 SCT030 BKN250 27/20 A2978 RMK RN DST SW=
201011290000 METAR MRLB 290000Z 09005KT 9999 SCT030 BKN250 26/20 A2978 RMK RN DST S=
201011290100 METAR MRLB 290100Z 11007KT 9999 FEW030 BKN250 25/20 A2980=
201011290200 METAR MRLB 290200Z 16006KT 9999 FEW030 BKN250 24/21 A2982=
201011290300 METAR MRLB NIL=
201011290400 METAR MRLB NIL=
201011290500 METAR MRLB NIL=
201011290600 METAR MRLB NIL=
201011290700 METAR MRLB NIL=
201011290800 METAR MRLB NIL=
201011290900 METAR MRLB NIL=
201011291000 METAR MRLB NIL=
201011291100 METAR MRLB NIL=
201011291200 METAR MRLB 291200Z 00000KT 9999 SCT040 BKN120 22/21 A2981=
201011291300 METAR MRLB 291300Z VRB02KT 9999 FEW040 BKN120 23/22 A2983=
201011291400 METAR MRLB 291400Z VRB02KT 9999 FEW035 SCT120 27/22 A2986=
201011291500 METAR MRLB 291500Z 05010KT 9999 FEW035 BKN120 27/21 A2986 RMK DZ DST N NE=
201011291600 METAR MRLB 291600Z 06011KT 9999 FEW035 BKN120 28/21 A2987=
201011291700 METAR MRLB 291700Z 03012KT 9999 FEW035 BKN120 30/21 A2985=
201011291800 METAR MRLB 291800Z 06015KT 9999 FEW035 SCT120 30/20 A2982=
201011291900 METAR MRLB 291900Z 08010KT 9999 FEW040 SCT130 29/20 A2979=
201011292000 METAR MRLB 292000Z 08011KT 9999 FEW035 30/20 A2976 RMK FEW130=
201011292100 METAR MRLB 292100Z 08010KT 9999 FEW035 30/21 A2978 RMK FEW130=
201011292200 METAR MRLB 292200Z 06011KT 9999 FEW035 SCT120 29/20 A2974=
201011292300 METAR MRLB 292300Z 06013KT 9999 FEW035 SCT100 27/20 A2976=
201011300000 METAR MRLB 300000Z 07014KT 9999 FEW040 27/20 A2976 RMK FEW130=
201011300100 METAR MRLB 300100Z 09010KT CAVOK 26/20 A2978 RMK FEW130=
201011300200 METAR MRLB NIL=
201011300300 METAR MRLB NIL=
201011300400 METAR MRLB NIL=
201011300500 METAR MRLB NIL=
201011300600 METAR MRLB NIL=
201011300700 METAR MRLB NIL=
201011300800 METAR MRLB NIL=
201011300900 METAR MRLB NIL=
201011301000 METAR MRLB NIL=
201011301100 METAR MRLB NIL=
201011301200 METAR MRLB 301200Z 00000KT 9999 SCT030 BKN130 22/20 A2977=
201011301300 METAR MRLB 301300Z 16004KT 9999 SCT035 BKN130 23/20 A2979=
201011301400 METAR MRLB 301400Z 26002KT 9999 SCT035 BKN130 24/22 A2981=
201011301500 METAR MRLB 301500Z 00000KT 9999 SCT035 BKN140 26/21 A2982=
201011301600 METAR MRLB 301600Z 35006KT 9999 FEW035 BKN140 27/21 A2982=
201011301700 METAR MRLB 301700Z 03006KT 9999 -DZ SCT035 BKN130 28/22 A2980=
201011301800 METAR MRLB 301800Z 33007KT 9999 SCT030 BKN120 28/22 A2978=
201011301900 METAR MRLB 301900Z 04004KT 9999 FEW030 BKN120 28/22 A2975=
201011302000 METAR MRLB 302000Z 07012KT 9999 FEW035 BKN120 28/21 A2973=
201011302100 METAR MRLB 302100Z 08010KT 9999 FEW035 BKN120 28/21 A2972=
201011302200 METAR MRLB 302200Z 08009KT 9999 SCT035 BKN120 27/21 A2973=
201011302300 METAR MRLB 302300Z 07009KT 9999 SCT035 BKN120 25/21 A2974=
201012010000 METAR MRLB 010000Z 09006KT 9999 SCT035 BKN130 25/21 A2976=
201012010100 METAR MRLB 010100Z 10006KT 9999 SCT030 BKN130 24/21 A2979=
201012010200 METAR MRLB NIL=
201012010300 METAR MRLB NIL=
201012010400 METAR MRLB NIL=
201012010500 METAR MRLB NIL=
201012010600 METAR MRLB NIL=
201012010700 METAR MRLB NIL=
201012010800 METAR MRLB NIL=
201012010900 METAR MRLB NIL=
201012011000 METAR MRLB NIL=
201012011100 METAR MRLB NIL=
201012011200 METAR MRLB 011200Z 23003KT 9999 BKN030 SCT120 22/21 A2981 RMK RN DST S LOW ST E SE=
201012011300 METAR MRLB 011300Z 16004KT 9999 VCFG SCT030 BKN120 22/22 A2984 RMK VIS S 8KM=
201012011400 METAR MRLB 011400Z 18003KT 9999 SCT030 BKN120 23/22 A2985 RMK RA DST E SE S=
201012011500 METAR MRLB 011500Z 29003KT 9999 FEW035 BKN100 25/23 A2985 RMK RA DST E SE S=
201012011600 METAR MRLB 011600Z 22004KT 9999 -RA OVC100 25/22 A2984=
201012011700 METAR MRLB 011700Z 18004KT 9999 -DZ FEW030 BKN100 26/20 A2982=
201012011800 METAR MRLB 011800Z 23004KT 9999 FEW040 BKN100 27/21 A2978=
201012011900 METAR MRLB 011900Z 15004KT 9999 FEW040 BKN120 27/20 A2973=
201012012000 METAR MRLB 012000Z 09017KT 9999 FEW040 BKN120 26/19 A2971 RMK MAX WND SPD 24KT=
201012012100 METAR MRLB 012100Z 08015KT 9999 SCT040 BKN120 28/18 A2969 RMK VEL MAX VTO 24KT=
201012012200 METAR MRLB 012200Z 12012KT CAVOK 27/19 A2969 RMK OVC120=
201012012300 METAR MRLB 012300Z 08005KT CAVOK 26/18 A2973 RMK OVC110=
201012020000 METAR MRLB 020000Z 12004KT 9999 SCT040 BKN130 26/16 A2976=
201012020100 METAR MRLB 020100Z 09008KT 9999 SCT040 BKN130 25/18 A2980=
201012020200 METAR MRLB 020200Z 09006KT CAVOK 25/19 A2981 RMK OVC130=
201012020300 METAR MRLB NIL=
201012020400 METAR MRLB NIL=
201012020500 METAR MRLB NIL=
201012020600 METAR MRLB NIL=
201012020700 METAR MRLB NIL=
201012020800 METAR MRLB NIL=
201012020900 METAR MRLB NIL=
201012021000 METAR MRLB NIL=
201012021100 METAR MRLB NIL=
201012021200 METAR MRLB NIL=
201012021300 METAR MRLB 021300Z 00000KT 9999 FEW035 BKN100 A2982=
201012021400 METAR MRLB 021400Z 22006KT CAVOK 25/24 A2985 RMK BKN120=
201012021500 METAR MRLB 021500Z 32003KT CAVOK 26/20 A2987 RMK BKN120=
201012021600 METAR MRLB 021600Z 30004KT CAVOK 28/19 A2987 RMK BKN120=
201012021700 METAR MRLB 021700Z 27005KT CAVOK 28/19 A2984 RMK BKN120=
201012021800 METAR MRLB 021800Z 32004KT CAVOK 30/18 A2980 RMK BKN120=
201012021900 METAR MRLB 021900Z 28005KT CAVOK 30/18 A2977 RMK BKN120=
201012022000 METAR MRLB 022000Z 31006KT 9999 FEW035 BKN120 31/18 A2975=
201012022100 METAR MRLB 022100Z 30006KT 9999 FEW035 BKN130 30/19 A2973=
201012022200 METAR MRLB 022200Z 30005KT 9999 FEW040 SCT130 BKN250 29/20 A2975=
201012022300 METAR MRLB 022300Z 25004KT 9999 FEW040 SCT130 BKN250 27/20 A2976=
201012030000 METAR MRLB 030000Z 25004KT CAVOK 25/20 A2978 RMK SCT130 BKN250=
201012030100 METAR MRLB 030100Z 26002KT CAVOK 25/20 A2980 RMK SCT130 BKN250=
201012030200 METAR MRLB NIL=
201012030300 METAR MRLB NIL=
201012030400 METAR MRLB NIL=
201012030500 METAR MRLB NIL=
201012030600 METAR MRLB NIL=
201012030700 METAR MRLB NIL=
201012030800 METAR MRLB NIL=
201012030900 METAR MRLB NIL=
201012031000 METAR MRLB NIL=
201012031100 METAR MRLB NIL=
201012031200 METAR MRLB 031200Z 04003KT CAVOK 19/17 A2980 RMK SCT250=
201012031300 METAR MRLB 031300Z 00000KT CAVOK 21/19 A2982 RMK SCT250=
201012031400 METAR MRLB 031400Z 26002KT CAVOK 23/19 A2986 RMK SCT250=
201012031500 METAR MRLB 031500Z 30004KT CAVOK 25/19 A2986 RMK SCT250=
201012031600 METAR MRLB 031600Z 04002KT CAVOK 28/19 A2985 RMK SCT250=
201012031700 METAR MRLB 031700Z 00000KT CAVOK 30/18 A2982 RMK SCT250=
201012031800 METAR MRLB 031800Z 09011KT CAVOK 31/18 A2978=
201012031900 METAR MRLB 031900Z 10015KT CAVOK 31/17 A2975 RMK FEW250=
201012032000 METAR MRLB NIL=
201012032100 METAR MRLB 032100Z 08013KT CAVOK 30/18 A2973 RMK SCT250=
201012032200 METAR MRLB 032200Z 10013KT CAVOK 30/18 A2974 RMK SCT250=
201012032300 METAR MRLB 032300Z 10013KT CAVOK 28/19 A2976 RMK BKN250=
201012040000 METAR MRLB 040000Z 05009KT CAVOK 27/19 A2979 RMK BKN250=
201012040100 METAR MRLB 040100Z 11009KT CAVOK 26/18 A2981 BKN250=
201012040200 METAR MRLB 040200Z 10010KT CAVOK 25/18 A2983 BKN250=
201012040300 METAR MRLB NIL=
201012040400 METAR MRLB NIL=
201012040500 METAR MRLB NIL=
201012040600 METAR MRLB NIL=
201012040700 METAR MRLB NIL=
201012040800 METAR MRLB NIL=
201012040900 METAR MRLB NIL=
201012041000 METAR MRLB NIL=
201012041100 METAR MRLB NIL=
201012041200 METAR MRLB 041200Z 20003KT 9999 SCT035 24/19 A2983=
201012041300 METAR MRLB 041300Z 34005KT 9999 SCT035 24/19 A2985=
201012041400 METAR MRLB 041400Z 10011KT 9999 SCT035 26/17 A2987=
201012041500 METAR MRLB 041500Z 09013KT 9999 FEW035 28/17 A2988=
201012041600 METAR MRLB 041600Z 10016KT 9999 FEW035 29/17 A2987=
201012041700 METAR MRLB 041700Z 10017KT 9999 FEW040 29/18 A2985=
201012041800 METAR MRLB 041800Z 11014KT 9999 SCT035 30/18 A2983 NOSIG=
201012041900 METAR MRLB NIL=
201012042000 METAR MRLB 042000Z 08011KT 9999 SCT040 30/18 A2978=
201012042100 METAR MRLB 042100Z 09013KT 9999 FEW040 30/17 A2977=
201012042200 METAR MRLB 042200Z 09010KT 9999 FEW040 29/18 A2978=
201012042300 METAR MRLB 042300Z 11011KT 9999 BKN035 27/19 A2980 RN DST NE=
201012050000 METAR MRLB 050000Z 11008KT 9999 BKN035 26/19 A2982=
201012050100 METAR MRLB 050100Z 05004KT 9999 SCT035 24/19 A2983=
201012050200 METAR MRLB NIL=
201012050300 METAR MRLB NIL=
201012050400 METAR MRLB NIL=
201012050500 METAR MRLB NIL=
201012050600 METAR MRLB NIL=
201012050700 METAR MRLB NIL=
201012050800 METAR MRLB NIL=
201012050900 METAR MRLB NIL=
201012051000 METAR MRLB NIL=
201012051100 METAR MRLB NIL=
201012051200 METAR MRLB 051200Z VRB02KT 9999 BKN035 SCT100 24/19 A2986 RMK RA DST SW=
201012051300 METAR MRLB NIL=
201012051400 METAR MRLB 051400Z 09013KT 9999 FEW035 26/19 A2987=
201012051500 METAR MRLB 051500Z 07017KT 9999 FEW035 28/18 A2988=
201012051600 METAR MRLB 051600Z 08015KT 9999 FEW035 28/18 A2987=
201012051700 METAR MRLB 051700Z 07015KT 9999 FEW035 30/18 A2985=
201012051800 METAR MRLB 051800Z 07012KT 9999 NSC 30/17 A2982=
201012051900 METAR MRLB 051900Z 07013KT 9999 NSC 31/18 A2979=
201012052000 METAR MRLB 052000Z 06014KT 9999 NSC 31/17 A2976=
201012052100 METAR MRLB 052100Z 07012KT 9999 NSC 30/18 A2975=
201012052200 METAR MRLB 052200Z 08009KT 9999 NSC 30/19 A2976=
201012052300 METAR MRLB 052300Z 09007KT 9999 NSC 28/19 2978=
201012052358 METAR MRLB 060000Z 10005KT 9999 NSC 26/19 A2981=
201012060000 METAR MRLB 060000Z 10005KT 9999 NSC 26/19 A2981=
201012060100 METAR MRLB 060100Z 10004KT 9999 NSC 26/19 A2983=
201012060200 METAR MRLB NIL=
201012060300 METAR MRLB NIL=
201012060400 METAR MRLB NIL=
201012060500 METAR MRLB NIL=
201012060600 METAR MRLB NIL=
201012060700 METAR MRLB NIL=
201012060800 METAR MRLB NIL=
201012060900 METAR MRLB NIL=
201012061000 METAR MRLB NIL=
201012061100 METAR MRLB NIL=
201012061200 METAR MRLB 061200Z 00000KT 9999 SCT035 BKN130 23/19 A2985=
201012061300 METAR MRLB 061300Z 23003KT 9999 SCT035 SCT130 25/19 A2987=
201012061400 METAR MRLB 061400Z 29003KT 9999 FEW035 BKN130 27/19 A2989=
201012061500 METAR MRLB 061500Z 19005KT 9999 SCT035 BKN130 27/19 A2989=
201012061600 METAR MRLB 061600Z 29010KT 9999 FEW035 SCT130 28/19 A2987=
201012061700 METAR MRLB 061700Z 18004KT 9999 FEW035 BKN140 29/18 A2985=
201012061800 METAR MRLB 061800Z 09012KT 9999 SCT035 BKN140 29/18 A2982=
201012061900 METAR MRLB 061900Z 10014KT 9999 FEW035 BKN140 29/18 A2979=
201012062000 METAR MRLB 062000Z 29006KT 9999 FEW035 BKN140 29/19 A2976=
201012062100 METAR MRLB 062100Z 24006KT 9999 FEW035 BKN140 30/19 A2975=
201012062200 METAR MRLB 062200Z 04005KT 9999 FEW035 BKN140 29/18 A2976=
201012062300 METAR MRLB 062300Z 03005KT 9999 SCT035 BKN140 27/19 A2978=
201012070000 METAR MRLB 070000Z 26003KT 9999 SCT035 BKN130 26/19 A2979=
201012070100 METAR MRLB 070100Z 25005KT 9999 SCT035 BKN130 25/19 A2981=
201012070200 METAR MRLB 070200Z 20003KT 9999 SCT030 BKN120 24/18 A2983=
201012070300 METAR MRLB NIL=
201012070400 METAR MRLB NIL=
201012070500 METAR MRLB NIL=
201012070600 METAR MRLB NIL=
201012070700 METAR MRLB NIL=
201012070800 METAR MRLB NIL=
201012070900 METAR MRLB NIL=
201012071000 METAR MRLB NIL=
201012071100 METAR MRLB NIL=
201012071200 METAR MRLB 071200Z 22002KT CAVOK 20/17 A2983 RMK BKN130=
201012071300 METAR MRLB 071300Z 00000KT CAVOK 22/17 A2986 RMK BKN130=
201012071400 METAR MRLB 071400Z 31004KT CAVOK 26/18 A2991 RMK SCT130=
201012071500 METAR MRLB 071500Z 23005KT CAVOK 27/17 A2991 RMK SCT130=
201012071600 METAR MRLB 071600Z 30003KT CAVOK 28/15 A2990 RMK FEW190=
201012071700 METAR MRLB 071700Z 24007KT 9999 NSC 30/14 A2986=
201012071800 METAR MRLB 071800Z 31006KT 9999 SKC 31/13 A2982=
201012071900 METAR MRLB 071900Z 26003KT 9999 SKC 31/11 A2979=
201012072000 METAR MRLB 072000Z 34008KT CAVOK 31/13 A2977 RMK FEW140=
201012072100 METAR MRLB 072100Z 11011KT CAVOK 30/14 A2976 RMK FEW140=
201012072200 METAR MRLB 072200Z 10015KT CAVOK 29/15 A2976 RMK SCT140=
201012072300 METAR MRLB 072300Z 09011KT CAVOK 28/16 A2979 RMK BKN140=
201012080000 METAR MRLB 080000Z 06004KT CAVOK 26/16 A2981 BKN140=
201012080100 METAR MRLB 080100Z 29003KT CAVOK 25/17 A2982 RMK SCT140=
201012080200 METAR MRLB NIL=
201012080300 METAR MRLB NIL=
201012080400 METAR MRLB NIL=
201012080500 METAR MRLB NIL=
201012080600 METAR MRLB NIL=
201012080700 METAR MRLB NIL=
201012080800 METAR MRLB NIL=
201012080900 METAR MRLB NIL=
201012081000 METAR MRLB NIL=
201012081100 METAR MRLB NIL=
201012081200 METAR MRLB 081200Z 24003KT CAVOK 20/17 A2980 RMK FEW140 FEW280=
201012081300 METAR MRLB 081300Z 00000KT CAVOK 20/18 A2983 RMK SCT130=
201012081400 METAR MRLB 081400Z 25003KT CAVOK 23/19 A2986 RMK BKN130=
201012081500 METAR MRLB 081500Z 33004KT CAVOK 25/19 A2989 RMK BKN130=
201012081600 METAR MRLB 081600Z 25004KT CAVOK 28/18 A2988 RMK SCT140=
201012081700 METAR MRLB 081700Z 12013KT CAVOK 30/17 A2984 RMK SCT140=
201012081800 METAR MRLB 081800Z 12011KT CAVOK 30/17 A2982 RMK SCT140=
201012081900 METAR MRLB 081900Z 11016KT 9999 FEW035 30/18 A2980 RMK FEW140=
201012082000 METAR MRLB 082000Z 11014KT 9999 FEW035 30/18 A2978 RMK FEW140=
201012082100 METAR MRLB 082100Z 11014KT 9999 SCT035 28/19 A2978 RMK FEW140=
201012082200 METAR MRLB 082200Z 11012KT CAVOK 28/19 A2978 RMK FEW140=
201012082300 METAR MRLB 082300Z 10008KT CAVOK 26/19 A2979 RMK FEW140=
201012090000 METAR MRLB 090000Z 07004KT CAVOK 25/19 A2981 RMK SCT130=
201012090100 METAR MRLB 090100Z 09006KT CAVOK 24/19 A2982 RMK SCT130=
201012090200 METAR MRLB 090200Z VRB02KT CAVOK 23/19 A2983 RMK FEW130=
201012090300 METAR MRLB NIL=
201012090400 METAR MRLB NIL=
201012090500 METAR MRLB NIL=
201012090600 METAR MRLB NIL=
201012090700 METAR MRLB NIL=
201012090800 METAR MRLB NIL=
201012090900 METAR MRLB NIL=
201012091000 METAR MRLB NIL=
201012091100 METAR MRLB NIL=
201012091200 METAR MRLB 091200Z 00000KT 9999 FEW035 SCT250 21/18 A2982=
201012091300 METAR MRLB 091300Z 00000KT 9999 FEW035 SCT250 23/19 A2985=
201012091400 METAR MRLB 091400Z 00000KT 9999 FEW035 SCT250 25/19 A2987=
201012091500 METAR MRLB 091500Z 29003KT 9999 FEW035 SCT250 27/20 A2988=
201012091600 METAR MRLB 091600Z 24006KT 9999 SCT035 28/19 A2987=
201012091700 METAR MRLB 091700Z 29007KT 9999 FEW035 29/18 A2985=
201012091800 METAR MRLB 091800Z 23005KT 9999 FEW035 30/18 A2981=
201012091900 METAR MRLB 091900Z 05003KT 9999 SCT035 31/18 A2978=
201012092000 METAR MRLB 092000Z 09010KT 9999 SCT035 30/16 A2978=
201012092100 METAR MRLB 092100Z 09012KT 9999 SCT035 30/16 A2976=
201012092200 METAR MRLB 092200Z 10011KT 9999 FEW035 SCT140 28/16 A2976=
201012092300 METAR MRLB 092300Z 09012KT 9999 FEW035 BKN140 27/16 A2977=
201012100000 METAR MRLB 100000Z 09010KT 9999 FEW035 BKN140 26/16 A2979=
201012100100 METAR MRLB 100100Z 08012KT 9999 FEW035 BKN130 26/16 A2980=
201012100200 METAR MRLB 100200Z 09013KT 9999 FEW035 SCT130 25/16 A2983=
201012100300 METAR MRLB NIL=
201012100400 METAR MRLB NIL=
201012100500 METAR MRLB NIL=
201012100600 METAR MRLB NIL=
201012100700 METAR MRLB NIL=
201012100800 METAR MRLB NIL=
201012100900 METAR MRLB NIL=
201012101000 METAR MRLB NIL=
201012101100 METAR MRLB NIL=
201012101200 METAR MRLB 101200Z 34002KT 9999 SKC 19/16 A2979=
201012101300 METAR MRLB 101300Z 26002KT 9999 SKC 23/16 A2981=
201012101400 METAR MRLB 101400Z 26007KT 9999 SKC 26/13 A2985=
201012101500 METAR MRLB 101500Z 33007KT 9999 SKC 28/14 A2985=
201012101600 METAR MRLB 101600Z 30007KT 9999 SKC 30/15 A2984=
201012101700 METAR MRLB 101700Z 08010KT 9999 SKC 30/13 A2982=
201012101800 METAR MRLB 101800Z 11014KT 9999 SKC 30/13 A2981=
201012101900 METAR MRLB 101900Z 10013KT CAVOK 30/14 A2979 RMK FEW140=
201012102000 METAR MRLB 102000Z 11014KT CAVOK 29/14 A2978 RMK FEW140=
201012102100 METAR MRLB 102100Z 10015KT 9999 NSC 29/15 A2978=
201012102200 METAR MRLB 102200Z 10012KT 9999 NSC 28/15 A2979=
201012102300 METAR MRLB 102300Z 11008KT 9999 NSC 26/16 A2980=
201012110000 METAR MRLB 110000Z 12008KT CAVOK 25/16 A2981 RMK SCT140=
201012110100 METAR MRLB 110100Z 18003KT CAVOK 24/16 A2982 RMK SCT140=
201012110200 METAR MRLB NIL=
201012110300 METAR MRLB NIL=
201012110400 METAR MRLB NIL=
201012110500 METAR MRLB NIL=
201012110600 METAR MRLB NIL=
201012110700 METAR MRLB NIL=
201012110800 METAR MRLB NIL=
201012110900 METAR MRLB NIL=
201012111000 METAR MRLB NIL=
201012111100 METAR MRLB NIL=
201012111200 METAR MRLB 111200Z 11003KT 9999 NSC 18/16 A2981=
201012111300 METAR MRLB 111300Z VRB02KT 9999 SKC 21/18 A2983=
201012111400 METAR MRLB 111400Z 31003KT 9999 SKC 23/19 A2988=
201012111500 METAR MRLB 111500Z 00000KT 9999 SKC 26/18 A2989=
201012111600 METAR MRLB 111600Z 28004KT CAVOK 28/16 A2987 RMK SCT300=
201012111700 METAR MRLB 111700Z 24004KT 9999 SKC 30/16 A2983=
201012111800 METAR MRLB 111800Z 30003KT 9999 SKC 31/15 A2981=
201012111900 METAR MRLB 111900Z 12009KT 9999 SKC 31/12 A2978=
201012112000 METAR MRLB 112000Z 11010KT CAVOK 31/13 A2976 RMK FEW300=
201012112100 METAR MRLB 112100Z 11008KT 9999 SKC 31/14 A2976=
201012112200 METAR MRLB 112200Z 10007KT 9999 SKC 30/15 A2976=
201012112300 METAR MRLB 112300Z 11007KT 9999 SKC 28/16 A2977=
201012120000 METAR MRLB 120000Z 05004KT 9999 SKC 26/16 A2979=
201012120100 METAR MRLB 120100Z 11003KT 9999 SKC 24/16 A2981=
201012120200 METAR MRLB NIL=
201012120300 METAR MRLB NIL=
201012120400 METAR MRLB NIL=
201012120500 METAR MRLB NIL=
201012120600 METAR MRLB NIL=
201012120700 METAR MRLB NIL=
201012120800 METAR MRLB NIL=
201012120900 METAR MRLB NIL=
201012121000 METAR MRLB NIL=
201012121100 METAR MRLB NIL=
201012121200 METAR MRLB 121200Z 00000KT CAVOK 19/16 A2981 RMK SCT250=
201012121300 METAR MRLB 121300Z 00000KT CAVOK 21/18 A2984 RMK SCT250=
201012121400 METAR MRLB 121400Z 00000KT CAVOK 23/19 A2989 RMK FEW250=
201012121500 METAR MRLB 121500Z 23003KT CAVOK 25/19 A2990 RMK FEW250=
201012121600 METAR MRLB 121600Z 25003KT CAVOK 27/19 A2989 RMK FEW250=
201012121700 METAR MRLB 121700Z 31004KT CAVOK 29/18 A2987 RMK FEW250=
201012121800 METAR MRLB 121800Z 30004KT 9999 FEW035 30/18 A2982=
201012121900 METAR MRLB 121900Z 29006KT 9999 FEW035 30/19 A2979=
201012122000 METAR MRLB 122000Z 30008KT 9999 FEW035 30/20 A2976=
201012122100 METAR MRLB 122100Z 30005KT 9999 FEW035 30/20 A2975=
201012122200 METAR MRLB 122200Z 29006KT 9999 FEW035 SCT250 29/21 A2976=
201012122300 METAR MRLB 122300Z 30005KT 9999 FEW035 SCT250 27/21 A2976=
201012130000 METAR MRLB 130000Z 23003KT CAVOK 25/21 A2978 RMK SCT250=
201012130100 METAR MRLB 130100Z 19003KT CAVOK 24/20 A2980 RMK SCT250=
201012130200 METAR MRLB 130200Z 20002KT CAVOK 23/19 A2982=
201012130300 METAR MRLB NIL=
201012130400 METAR MRLB NIL=
201012130500 METAR MRLB NIL=
201012130600 METAR MRLB NIL=
201012130700 METAR MRLB NIL=
201012130800 METAR MRLB NIL=
201012130900 METAR MRLB NIL=
201012131000 METAR MRLB NIL=
201012131100 METAR MRLB NIL=
201012131200 METAR MRLB 131200Z 20002KT 9999 NSC 20/18 A2979=
201012131300 METAR MRLB 131300Z 30002KT 9999 NSC 22/19 A2981=
201012131400 METAR MRLB 131400Z 26004KT 9999 NSC 24/20 A2985=
201012131500 METAR MRLB NIL=
201012131600 METAR MRLB 131600Z 31002KT 9999 NSC 28/18 A2983=
201012131700 METAR MRLB 131700Z 36004KT 9999 NSC 30/17 A2979=
201012131800 METAR MRLB 131800Z 31005KT 9999 FEW035 31/18 A2976=
201012131900 METAR MRLB 131900Z 10013KT 9999 SCT035 31/17 A2972=
201012132000 METAR MRLB 132000Z 09012KT 9999 FEW035 SCT250 31/17 A2971=
201012132100 METAR MRLB 132100Z 11010KT CAVOK 31/16 A2971 RMK SCT140 SCT250=
201012132200 METAR MRLB 132200Z 08008KT CAVOK 29/16 A2973 RMK FEW130 SCT250=
201012132300 METAR MRLB 132300Z 09006KT CAVOK 27/16 A2975 RMK BKN130=
201012140000 METAR MRLB 140000Z 10006KT CAVOK 27/16 A2976 RMK OVC130=
201012140100 METAR MRLB 140100Z 12008KT CAVOK 26/17 A2978 RMK BKN130=
201012140200 METAR MRLB NIL=
201012140300 METAR MRLB NIL=
201012140400 METAR MRLB NIL=
201012140500 METAR MRLB NIL=
201012140600 METAR MRLB NIL=
201012140700 METAR MRLB NIL=
201012140800 METAR MRLB NIL=
201012140900 METAR MRLB NIL=
201012141000 METAR MRLB NIL=
201012141100 METAR MRLB NIL=
201012141200 METAR MRLB NIL=
201012141300 METAR MRLB 141300Z 15004KT 9999 FEW030 SCT100 22/16 A2981=
201012141400 METAR MRLB 141400Z 03003KT 9999 FEW030 SCT100 25/16 A2986=
201012141500 METAR MRLB 141500Z 35004KT 9999 FEW035 SCT120 27/14 A2986=
201012141600 METAR MRLB 141600Z 10010KT CAVOK 28/13 A2984 RMK SCT140=
201012141700 METAR MRLB 141700Z 05005KT CAVOK 29/14 A2982 RMK SCT140=
201012141800 METAR MRLB 141800Z 10015KT CAVOK 29/12 A2979 RMK SCT170=
201012141900 METAR MRLB 141900Z 10015KT CAVOK 28/13 A2977 SCT250=
201012142000 METAR MRLB 142000Z 09016KT CAVOK 28/13 A2974 BKN250=
201012142100 METAR MRLB 142100Z 10015KT CAVOK 28/14 A2974 RMK SCT170=
201012142200 METAR MRLB 142200Z 09014KT CAVOK 26/14 A2974 RMK SCT140=
201012142300 METAR MRLB 142300Z 10014KT CAVOK 25/15 A2975 RMK BKN140=
201012150000 METAR MRLB 150000Z 10012KT CAVOK 25/15 A2976 RMK BKN120=
201012150100 METAR MRLB 150100Z 09013KT CAVOK 25/15 A2977 RMK BKN120=
201012150200 METAR MRLB 150200Z 10012KT CAVOK 24/14 A2979 RMK BKN120=
201012150300 METAR MRLB NIL=
201012150400 METAR MRLB NIL=
201012150500 METAR MRLB NIL=
201012150600 METAR MRLB NIL=
201012150700 METAR MRLB NIL=
201012150800 METAR MRLB NIL=
201012150900 METAR MRLB NIL=
201012151000 METAR MRLB NIL=
201012151100 METAR MRLB NIL=
201012151200 METAR MRLB 151200Z 00000KT CAVOK 19/14 A2978 RMK BKN250=
201012151300 METAR MRLB 151300Z 00000KT CAVOK 21/14 A2980 RMK BKN250=
201012151400 METAR MRLB 151400Z 00000KT CAVOK 23/15 A2983 RMK BKN250=
201012151500 METAR MRLB 151500Z 32005KT CAVOK 25/13 A2985 RMK BKN250=
201012151600 METAR MRLB 151600Z 13002KT CAVOK 27/22 A2984 RMK BKN250=
201012151700 METAR MRLB 151700Z 25006KT CAVOK 29/13 A2981 RMK BKN250=
201012151800 METAR MRLB 151800Z 12003KT CAVOK 31/12 A2979 RMK BKN250=
201012151900 METAR MRLB 151900Z 10011KT CAVOK 29/12 A2977 RMK BKN250=
201012152000 METAR MRLB 152000Z 12010KT CAVOK 30/13 A2974 RMK BKN250=
201012152100 METAR MRLB 152100Z 10009KT CAVOK 29/12 A2974 RMK BKN250=
201012152200 METAR MRLB 152200Z 10008KT CAVOK 28/14 A2975 RMK BKN140=
201012152300 METAR MRLB 152300Z 11007KT CAVOK 26/14 A2976 RMK BKN240=
201012160000 METAR MRLB 160000Z 10007KT CAVOK 25/15 A2977 BKN230=
201012160100 METAR MRLB 160100Z 11008KT CAVOK 24/14 A2979 BKN230=
201012160200 METAR MRLB 160200Z 10008KT CAVOK 24/13 A2981 BKN230=
201012160300 METAR MRLB NIL=
201012160400 METAR MRLB NIL=
201012160500 METAR MRLB NIL=
201012160600 METAR MRLB NIL=
201012160700 METAR MRLB NIL=
201012160800 METAR MRLB NIL=
201012160900 METAR MRLB NIL=
201012161000 METAR MRLB NIL=
201012161100 METAR MRLB NIL=
201012161200 METAR MRLB 1612OOZ 00000KT CAVOK 19/17 A2979 RMK OVC130=
201012161300 METAR MRLB 161300Z 00000KT CAVOK 21/18 A2981 RMK OVC130=
201012161400 METAR MRLB 161400Z 00000KT CAVOK 23/18 A2985 RMK BKN130=
201012161500 METAR MRLB 161500Z 30003KT CAVOK 25/18 A2987 RMK SCT140 BKN250=
201012161600 METAR MRLB 161600Z 28003KT CAVOK 27/18 A2986 RMK OVC250=
201012161700 METAR MRLB 161700Z 21002KT CAVOK 29/17 A2983 RMK OVC250=
201012161800 METAR MRLB 161800Z 15007KT 9999 FEW040 BKN250 30/17 A2980=
201012161900 METAR MRLB 161900Z 13007KT 9999 FEW040 SCT140 BKN250 31/16 A2977=
201012162000 METAR MRLB 162000Z 11007KT 9999 SCT040 BKN250 31/17 A2975=
201012162100 METAR MRLB 162100Z 08005KT 9999 SCT040 BKN250 29/18 A2975=
201012162200 METAR MRLB 162200Z 13005KT 9999 SCT040 SCT250 30/17 A2976=
201012162300 METAR MRLB 162300Z 29003KT 9999 FEW040 SCT250 26/19 A2978=
201012170000 METAR MRLB 170000Z 28004KT 9999 NSC 24/19 A2979=
201012170100 METAR MRLB 170100Z 29003KT 9999 NSC 23/19 A2981=
201012170200 METAR MRLB NIL=
201012170300 METAR MRLB NIL=
201012170400 METAR MRLB NIL=
201012170500 METAR MRLB NIL=
201012170600 METAR MRLB NIL=
201012170700 METAR MRLB NIL=
201012170800 METAR MRLB NIL=
201012170900 METAR MRLB NIL=
201012171000 METAR MRLB NIL=
201012171100 METAR MRLB NIL=
201012171200 METAR MRLB 171200Z 00000KT CAVOK 18/17 A2983 RMK SCT250=
201012171300 METAR MRLB 171300Z 00000KT CAVOK 21/18 A2985 RMK SCT250=
201012171400 METAR MRLB 171400Z 23003KT CAVOK 24/19 A2988 RMK SCT250=
201012171500 METAR MRLB 171500Z 00000KT CAVOK 26/19 A2990 RMK SCT250=
201012171600 METAR MRLB 171600Z 03005KT CAVOK 29/19 A2989 RMK SCT250=
201012171700 METAR MRLB 171700Z 10003KT 9999 FEW030 SCT250 30/18 A2987=
201012171800 METAR MRLB 171800Z 30005KT 9999 FEW030 SCT250 30/18 A2983=
201012171900 METAR MRLB 171900Z 30005KT 9999 FEW030 SCT250 30/19 A2980=
201012172000 METAR MRLB 172000Z 31010KT 9999 FEW030 SCT250 30/19 A2978=
201012172100 METAR MRLB 172100Z 30008KT 9999 FEW030 SCT250 30/19 A2977=
201012172200 METAR MRLB 172200Z 29010KT CAVOK 28/19 A2978 RMK SCT250=
201012172300 METAR MRLB 172300Z 30006KT CAVOK 26/19 A2980 RMK SCT250=
201012180000 METAR MRLB 180000Z 30004KT CAVOK 25/20 A2981 RMK SCT250=
201012180100 METAR MRLB 180100Z 29003KT CAVOK 24/19 A2982 NOSIG=
201012180200 METAR MRLB 180200Z 30004KT CAVOK 23/19 A2984 RMK SCT250=
201012180300 METAR MRLB NIL=
201012180400 METAR MRLB NIL=
201012180500 METAR MRLB NIL=
201012180600 METAR MRLB NIL=
201012180700 METAR MRLB NIL=
201012180800 METAR MRLB NIL=
201012180900 METAR MRLB NIL=
201012181000 METAR MRLB NIL=
201012181100 METAR MRLB NIL=
201012181200 METAR MRLB 181200Z 00000KT CAVOK 20/17 A2981 RMK BKN250=
201012181300 METAR MRLB 181300Z 00000KT CAVOK 22/18 A2983 RMK SCT250=
201012181400 METAR MRLB 181400Z 00000KT CAVOK 24/20 A2986 RMK SCT250=
201012181500 METAR MRLB 181500Z 15003KT CAVOK 26/19 A2987 RMK SCT250=
201012181600 METAR MRLB 181600Z 00000KT CAVOK 28/19 A2985 RMK SCT250=
201012181700 METAR MRLB NIL=
201012181800 METAR MRLB 181800Z 03004KT CAVOK 31/17 A2977 RMK SCT250=
201012181900 METAR MRLB 181900Z 25003KT 9999 FEW035 SCT250 31/18 A2974=
201012182000 METAR MRLB 182000Z 29008KT 9999 FEW035 SCT250 31/18 A2973=
201012182100 METAR MRLB 182100Z 30007KT 9999 FEW035 SCT250 30/20 A2971=
201012182200 METAR MRLB 182200Z 29008KT 9999 FEW035 BKN250 28/20 A2972=
201012182300 METAR MRLB 182300Z 29006KT 9999 FEW035 BKN250 27/19 A2973=
201012190000 METAR MRLB 190000Z 29003KT 9999 FEW035 BKN250 26/20 A2975=
201012190100 METAR MRLB 190100Z 17003KT 9999 FEW035 SCT250 25/20 A2978=
201012190200 METAR MRLB 190200Z 15004KT 9999 FEW035 BKN250 24/19 A2981=
201012190300 METAR MRLB NIL=
201012190400 METAR MRLB NIL=
201012190500 METAR MRLB NIL=
201012190600 METAR MRLB NIL=
201012190700 METAR MRLB NIL=
201012190800 METAR MRLB NIL=
201012190900 METAR MRLB NIL=
201012191000 METAR MRLB NIL=
201012191100 METAR MRLB NIL=
201012191200 METAR MRLB 191200Z 09002KT CAVOK 19/18 A2978 RMK FEW140 SCT250=
201012191300 METAR MRLB 191300Z 00000KT CAVOK 21/19 A2980 RMK FEW140 SCT250=
201012191400 METAR MRLB 191400Z 02002KT CAVOK 23/20 A2981 RMK FEW140 BKN250=
201012191500 METAR MRLB 191500Z 21002KT CAVOK 25/20 A2987 RMK BKN250=
201012191600 METAR MRLB 191600Z 22004KT 9999 FEW040 BKN250 28/19 A2985=
201012191700 METAR MRLB 191700Z 10010KT 9999 FEW040 BKN250 30/18 A2981=
201012191800 METAR MRLB 191800Z 09011KT 9999 FEW040 BKN250 30/18 A2978=
201012191900 METAR MRLB 191900Z 09010KT 9999 FEW040 BKN250 31/19 A2976=
201012192000 METAR MRLB 192000Z 09008KT 9999 FEW040 BKN250 31/19 A2973=
201012192100 METAR MRLB 192100Z 10009KT 9999 FEW040 BKN250 32/18 A2972=
201012192200 METAR MRLB 192200Z 11009KT 9999 FEW040 BKN250 31/18 A2972=
201012192300 METAR MRLB 192300Z 12010KT 9999 FEW040 BKN250 28/18 A2979=
201012200000 METAR MRLB 200000Z 11012KT 9999 FEW045 BKN250 27/18 A2976=
201012200100 METAR MRLB 200100Z 11010KT CAVOK 26/18 A2978=
201012200200 METAR MRLB 200200Z 07010KT CAVOK 26/19 A2980=
201012200300 METAR MRLB NIL=
201012200400 METAR MRLB NIL=
201012200500 METAR MRLB NIL=
201012200600 METAR MRLB NIL=
201012200700 METAR MRLB NIL=
201012200800 METAR MRLB NIL=
201012200900 METAR MRLB NIL=
201012201000 METAR MRLB NIL=
201012201100 METAR MRLB NIL=
201012201200 METAR MRLB 201200Z 22004KT 9999 FEW030 BKN100 21/18 A2979=
201012201300 METAR MRLB 201300Z 28003KT 9999 FEW025 BKN100 22/19 A2981=
201012201400 METAR MRLB 201400Z 06003KT 9999 FEW025 SCT100 23/19 A2985=
201012201500 METAR MRLB 201500Z 24003KT 9999 FEW025 BKN100 26/18 A2988=
201012201600 METAR MRLB 201600Z 30006KT 9999 FEW030 BKN120 27/18 A2987=
201012201700 METAR MRLB 201700Z 24004KT 9999 FEW030 BKN140 28/17 A2987=
201012201800 METAR MRLB 201800Z NIL=
201012201900 METAR MRLB 201900Z 11014KT 9999 FEW030 SCT250 30/15 A2981=
201012202000 METAR MRLB 202000Z 10016KT 9999 FEW025 SCT250 30/15 A2978=
201012202100 METAR MRLB 202100Z NIL=
201012202200 METAR MRLB 202200Z 08012KT 9999 FEW030 SCT100 27/18 A2979=
201012202300 METAR MRLB 202300Z 10012KT 9999 FEW020 SCT100 26/16 A2980=
201012210000 METAR MRLB 210000Z 10012KT 9999 FEW030 SCT100 26/17 A2982=
201012210100 METAR MRLB 210100Z 09012KT 9999 FEW030 SCT100 25/17 A2984=
201012210200 METAR MRLB 210200Z 10011KT 9999 FEW020 SCT140 25/17 A2986=
201012210300 METAR MRLB NIL=
201012210400 METAR MRLB NIL=
201012210500 METAR MRLB NIL=
201012210600 METAR MRLB NIL=
201012210700 METAR MRLB NIL=
201012210800 METAR MRLB NIL=
201012210900 METAR MRLB NIL=
201012211000 METAR MRLB NIL=
201012211100 METAR MRLB NIL=
201012211200 METAR MRLB 211200Z 08005KT CAVOK 22/16 A2982 RMK SCT250=
201012211300 METAR MRLB 211300Z 05003KT CAVOK 23/17 A2984 RMK SCT250=
201012211400 METAR MRLB 211400Z 04004KT CAVOK 25/16 A2988 RMK FEW250=
201012211500 METAR MRLB 211500Z 08007KT CAVOK 27/17 A2989 RMK FEW250=
201012211600 METAR MRLB 211600Z 09016KT CAVOK 29/15 A2987 RMK FEW250=
201012211700 METAR MRLB 211700Z 08014KT CAVOK 30/15 A2984 RMK FEW250=
201012211800 METAR MRLB 211800Z 09013KT CAVOK 31/15 A2981 RMK FEW250=
201012211900 METAR MRLB 211900Z 08013KT CAVOK 32/15 A2978 RMK FEW250=
201012212000 METAR MRLB 212000Z 09014KT CAVOK 31/15 A2977 RMK FEW250=
201012212100 METAR MRLB 212100Z 09013KT CAVOK 31/16 A2977 RMK FEW250=
201012212200 METAR MRLB 212200Z 09011KT CAVOK 29/15 A2978 RMK FEW250=
201012212300 METAR MRLB 212300Z 10010KT CAVOK 28/16 A2981 RMK SCT250=
201012220000 METAR MRLB 220000Z 10013KT CAVOK 26/16 A2982 RMK SCT250=
201012220100 METAR MRLB 220100Z 09014KT CAVOK 25/16 A2985 RMK SCT250=
201012220200 METAR MRLB 220200Z 10013KT CAVOK 24/16 A2987 SCT250=
201012220300 METAR MRLB NIL=
201012220400 METAR MRLB NIL=
201012220500 METAR MRLB NIL=
201012220600 METAR MRLB NIL=
201012220700 METAR MRLB NIL=
201012220800 METAR MRLB NIL=
201012220900 METAR MRLB NIL=
201012221000 METAR MRLB NIL=
201012221100 METAR MRLB NIL=
201012221200 METAR MRLB 221200Z 25004KT 9999 SKC 18/16 A2985=
201012221300 METAR MRLB 221300Z 24003KT 9999 SKC 22/17 A2988=
201012221400 METAR MRLB 221400Z VRB02KT 9999 NSC 24/17 A2992=
201012221500 METAR MRLB 221500Z 28003KT 9999 NSC 26/17 A2994=
201012221600 METAR MRLB 221600Z 30009KT 9999 NSC 28/17 A2992=
201012221700 METAR MRLB 221700Z 12003KT 9999 NSC 30/15 A2989=
201012221800 METAR MRLB 221800Z 11011KT 9999 NSC 30/14 A2986=
201012221900 METAR MRLB 221900Z 07008KT 9999 NSC 31/15 A2982=
201012222000 METAR MRLB 222000Z 11009KT 9999 FEW040 31/13 A2981=
201012222100 METAR MRLB 222100Z 12009KT 9999 FEW040 31/13 A2979=
201012222200 METAR MRLB 222200Z 09009KT 9999 NSC 30/12 A2980=
201012222300 METAR MRLB 222300Z 12008KT 9999 SKC 28/14 A2981=
201012230000 METAR MRLB 230000Z 01004KT 9999 SKC 26/14 A2983=
201012230100 METAR MRLB NIL=
201012230200 METAR MRLB NIL=
201012230300 METAR MRLB NIL=
201012230400 METAR MRLB NIL=
201012230500 METAR MRLB NIL=
201012230600 METAR MRLB NIL=
201012230700 METAR MRLB NIL=
201012230800 METAR MRLB NIL=
201012230900 METAR MRLB NIL=
201012231000 METAR MRLB NIL=
201012231100 METAR MRLB NIL=
201012231200 METAR MRLB 231200Z 02005KT CAVOK 17/15 A2985 RMK FEW250=
201012231300 METAR MRLB 231300Z 14004KT CAVOK 21/17 A2987 RMK FEW250=
201012231400 METAR MRLB 231400Z 24003KT CAVOK 24/18 A2990 RMK FEW250=
201012231500 METAR MRLB 231500Z 24006KT CAVOK 27/17 A2991 RMK FEW250=
201012231600 METAR MRLB 231600Z 34006KT CAVOK 29/16 A2989 RMK FEW250=
201012231700 METAR MRLB 231700Z 07005KT CAVOK 30/16 A2987 RMK FEW250=
201012231800 METAR MRLB 231800Z 11013KT CAVOK 31/14 A2984 RMK FEW250=
201012231900 METAR MRLB 231900Z 10014KT CAVOK 30/14 2982 FEW250=
201012232000 METAR MRLB 232000Z 09013KT CAVOK 30/15 A2979 FEW250=
201012232100 METAR MRLB 232100Z 10014KT CAVOK 30/16 A2977 RMK FEW250=
201012232200 METAR MRLB 232200Z 10013KT CAVOK 29/16 A2976 RMK FEW250=
201012232300 METAR MRLB 232300Z 11010KT CAVOK 27/16 A2979 RMK FEW250=
201012240000 METAR MRLB 240000Z 10010KT CAVOK 25/15 A2980 RMK FEW250=
201012240100 METAR MRLB 240100Z 06006KT CAVOK 24/16 A2981 RMK FEW250=
201012240200 METAR MRLB 240200Z 08005KT CAVOK 24/16 A2983 RMK FEW250=
201012240300 METAR MRLB NIL=
201012240400 METAR MRLB NIL=
201012240500 METAR MRLB NIL=
201012240600 METAR MRLB NIL=
201012240700 METAR MRLB NIL=
201012240800 METAR MRLB NIL=
201012240900 METAR MRLB NIL=
201012241000 METAR MRLB NIL=
201012241100 METAR MRLB NIL=
201012241200 METAR MRLB 241200Z 00000KT CAVOK 19/16 A2979 RMK SCT250=
201012241300 METAR MRLB 241300Z 03003KT CAVOK 21/17 A2981 RMK SCT250=
201012241400 METAR MRLB 241400Z 19004KT CAVOK 23/18 A2985 RMK SCT250=
201012241500 METAR MRLB 241500Z 26006KT CAVOK 25/16 A2985 RMK FEW250=
201012241600 METAR MRLB 241600Z 30003KT CAVOK 27/16 A2984 RMK FEW250=
201012241700 METAR MRLB 241700Z 12005KT CAVOK 29/15 A2981 RMK FEW250=
201012241800 METAR MRLB 241800Z 07004KT CAVOK 32/15 A2978 RMK FEW250=
201012241900 METAR MRLB 241900Z 12014KT CAVOK 31/16 A2978 RMK FEW250=
201012242000 METAR MRLB 242000Z 10015KT 9999 SCT035 29/17 A2976=
201012242100 METAR MRLB 242100Z 12011KT 9999 SCT035 28/18 A2975=
201012242200 METAR MRLB 242200Z 13007KT 9999 SCT035 SCT130 28/18 A2975=
201012242300 METAR MRLB 242300Z 12006KT 9999 SCT035 SCT130 27/18 A2977=
201012250000 METAR MRLB 250000Z 32004KT 9999 SCT035 BKN130 25/18 A2978=
201012250100 METAR MRLB 250100Z 29004KT 9999 SCT035 BKN130 25/18 A2981=
201012250200 METAR MRLB 250200Z 30004KT 9999 FEW035 BKN130 24/17 A2983=
201012250300 METAR MRLB NIL=
201012250400 METAR MRLB NIL=
201012250500 METAR MRLB NIL=
201012250600 METAR MRLB NIL=
201012250700 METAR MRLB NIL=
201012250800 METAR MRLB NIL=
201012250900 METAR MRLB NIL=
201012251000 METAR MRLB NIL=
201012251100 METAR MRLB NIL=
201012251200 METAR MRLB 251200Z 00000KT CAVOK 19/17 A2978 RMK BKN120=
201012251300 METAR MRLB 251300Z 00000KT CAVOK 22/18 A2981 RMK BKN120=
201012251400 METAR MRLB 251400Z 05002KT CAVOK 25/18 A2986 RMK BKN120=
201012251500 METAR MRLB 251500Z 30004KT CAVOK 27/18 A2986 RMK SCT120=
201012251600 METAR MRLB 251600Z 19003KT CAVOK 29/16 A2985 RMK SCT120=
201012251700 METAR MRLB NIL=
201012251800 METAR MRLB 251800Z 28010KT 9999 FEW035 SCT120 30/18 A2981=
201012251900 METAR MRLB 251900Z 30009KT 9999 FEW035 SCT120 29/17 A2978=
201012252000 METAR MRLB 252000Z 33008KT 9999 SCT035 SCT120 29/18 A2977=
201012252100 METAR MRLB 252100Z 14005KT 9999 FEW035 SCT120 29/18 A2977=
201012252200 METAR MRLB 252200Z 36005KT 9999 SCT035 30/18 A2976=
201012252300 METAR MRLB 252300Z 10005KT 9999 FEW035 SCT120 29/18 A2978=
201012260000 METAR MRLB 260000Z 29003KT 9999 SCT040 25/18 2979=
201012260100 METAR MRLB 260100Z 28004KT 9999 SCT040 24/18 A2980=
201012260200 METAR MRLB NIL=
201012260300 METAR MRLB NIL=
201012260400 METAR MRLB NIL=
201012260500 METAR MRLB NIL=
201012260600 METAR MRLB NIL=
201012260700 METAR MRLB NIL=
201012260800 METAR MRLB NIL=
201012260900 METAR MRLB NIL=
201012261000 METAR MRLB NIL=
201012261100 METAR MRLB NIL=
201012261200 METAR MRLB 261200Z 23008KT 9999 FEW030 SCT120 31/12 A2980=
201012261300 METAR MRLB 261300Z 08005KT CAVOK 22/18 A2983 RMK SCT100=
201012261400 METAR MRLB 261400Z 26003KT CAVOK 26/17 A2988 RMK SCT100=
201012261500 METAR MRLB 261500Z 26010KT CAVOK 28/16 A2988 RMK SCT100=
201012261600 METAR MRLB 261600Z 26010KT 9999 FEW030 SCT100 29/15 A2986=
201012261700 METAR MRLB 261700Z 24010KT 9999 FEW030 SCT120 31/13 A2982=
201012261800 METAR MRLB 261800Z 23008KT 9999 FEW030 SCT120 31/12 A2980=
201012261900 METAR MRLB 261900Z 12014KT 9999 FEW030 SCT100 29/12 A2978=
201012262000 METAR MRLB 262000Z 03004KT 9999 FEW030 SCT120 30/12 A2977=
201012262100 METAR MRLB 262100Z 11016KT 9999 FEW030 SCT100 27/15 A2975=
201012262200 METAR MRLB 262200Z 08014KT 9999 FEW030 BKN100 27/15 A2978=
201012262300 METAR MRLB 262300Z 11018KT 9999 FEW030 SCT100 26/16 A2979=
201012270000 METAR MRLB 270000Z 11018KT 9999 FEW030 SCT100 25/17 A2991=
201012270100 METAR MRLB 270100Z 10014KT 9999 FEW030 SCT100 25/17 A2982=
201012270200 METAR MRLB 270200Z 10012KT 9999 FEW030 SCT100 24/17 A2983=
201012270300 METAR MRLB NIL=
201012270400 METAR MRLB NIL=
201012270500 METAR MRLB NIL=
201012270600 METAR MRLB NIL=
201012270700 METAR MRLB NIL=
201012270800 METAR MRLB NIL=
201012270900 METAR MRLB NIL=
201012271000 METAR MRLB NIL=
201012271100 METAR MRLB NIL=
201012271200 METAR MRLB 271200Z 19006KT CAVOK 22/14 A2981 RMK SCT250=
201012271300 METAR MRLB 271300Z 27004KT CAVOK 24/13 A2983 RMK SCT250=
201012271400 METAR MRLB 271400Z 25006KT CAVOK 26/13 A2987 RMK FEW250=
201012271500 METAR MRLB 271500Z 27006KT CAVOK 28/14 A2988 RMK FEW250=
201012271600 METAR MRLB 271600Z 28010KT CAVOK 29/14 A2986 RMK FEW250=
201012271700 METAR MRLB 271700Z 19004KT CAVOK 30/14 A2984 RMK FEW250=
201012271800 METAR MRLB 271800Z 18004KT CAVOK 32/15 A2980 RMK FEW250=
201012271900 METAR MRLB 271900Z 13010KT CAVOK 30/15 A2979 RMK FEW250=
201012272000 METAR MRLB 272000Z 10012KT CAVOK 31/15 A2978 RMK FEW250=
201012272100 METAR MRLB 272100Z 10013KT CAVOK 31/15 A2976 RMK FEW250=
201012272200 METAR MRLB 272200Z 09012KT CAVOK 30/16 A2977 RMK FEW250=
201012272300 METAR MRLB 272300Z 12013KT CAVOK 26/16 A2979 RMK FEW250=
201012280000 METAR MRLB 280000Z 12012KT CAVOK 25/16 A2980 RMK SCT250=
201012280100 METAR MRLB 280100Z 10015KT CAVOK 25715 A29820=
201012280200 METAR MRLB 280200Z 09014KT CAVOK 24/15 A2984=
201012280300 METAR MRLB NIL=
201012280400 METAR MRLB NIL=
201012280500 METAR MRLB NIL=
201012280600 METAR MRLB NIL=
201012280700 METAR MRLB NIL=
201012280800 METAR MRLB NIL=
201012280900 METAR MRLB NIL=
201012281000 METAR MRLB NIL=
201012281100 METAR MRLB NIL=
201012281200 METAR MRLB 281200Z 22003KT 9999 SKC 19/15 A2979=
201012281300 METAR MRLB 281300Z 21004KT 9999 SKC 21/15 A2981=
201012281400 METAR MRLB 281400Z 29006KT 9999 SKC 24/15 A2985=
201012281500 METAR MRLB 281500Z 29005KT 9999 NSC 26/14 A2989=
201012281600 METAR MRLB 281600Z 28009KT 9999 NSC 28/15 A2986=
201012281700 METAR MRLB 281700Z 12008KT 9999 NSC 30/14 A2982=
201012281800 METAR MRLB 281800Z 31007KT 9999 NSC 30/14 A2981=
201012281900 METAR MRLB 281900Z 31005KT CAVOK 31/14 A2976 RMK FEW130=
201012282000 METAR MRLB 282000Z 29006KT CAVOK 31/14 A2975 RMK FEW130=
201012282100 METAR MRLB 282100Z 16006KT CAVOK 31/15 A2974 RMK FEW130=
201012282200 METAR MRLB 282200Z 35006KT 9999 NSC 30/16 A2975=
201012282300 METAR MRLB 282300Z 32005KT 9999 NSC 28/16 A2976=
201012290000 METAR MRLB 290000Z 31004KT 9999 NSC 25/16 A2978=
201012290100 METAR MRLB 290100Z 26004KT 9999 NSC 23/16 A2978=
201012290200 METAR MRLB 290200Z 19004KT 9999 NSC 22/17 A2980=
201012290300 METAR MRLB NIL=
201012290400 METAR MRLB NIL=
201012290500 METAR MRLB NIL=
201012290600 METAR MRLB NIL=
201012290700 METAR MRLB NIL=
201012290800 METAR MRLB NIL=
201012290900 METAR MRLB NIL=
201012291000 METAR MRLB NIL=
201012291100 METAR MRLB NIL=
201012291200 METAR MRLB 291200Z 22004KT CAVOK 20/16 A2976 RMK FEW070=
201012291300 METAR MRLB 291300Z 20005KT CAVOK 21/16 A2978 RMK FEW100=
201012291400 METAR MRLB 291400Z 25005KT CAVOK 24/17 A2982 RMK FEW120=
201012291500 METAR MRLB 291500Z 25006KT 9999 FEW030 SCT250 27/17 A2982=
201012291600 METAR MRLB 291600Z 26008KT 9999 FEW030 SCT250 28/17 A2982=
201012291700 METAR MRLB 291700Z 32008KT 9999 FEW030 SCT250 30/17 A2978=
201012291800 METAR MRLB 291800Z 11015KT 9999 FEW025 BKN250 29/17 A2976=
201012291900 METAR MRLB 291900Z 11016KT 9999 SCT030 BKN250 29/17 A2972=
201012292000 METAR MRLB 292000Z 10017KT 9999 FEW030 BKN250 29/17 A2971=
201012292100 METAR MRLB 292100Z 10016KT 9999 FEW030 SCT250 29/18 A2968=
201012292200 METAR MRLB 292200Z 10014KT CAVOK 27/18 A2969 RMK SCT250=
201012292300 METAR MRLB 292300Z 09013KT CAVOK 27/18 A2970 RMK BKN250=
201012300000 METAR MRLB 300000Z 09015KT CAVOK 25/18 A2971 RMK BKN250=
201012300100 METAR MRLB 300100Z 09013KT CAVOK 24/18 A2973 RMK SCT250=
201012300200 METAR MRLB 300200Z 09015KT CAVOK 24/18 A2975 RMK SCT250=
201012300300 METAR MRLB NIL=
201012300400 METAR MRLB NIL=
201012300500 METAR MRLB NIL=
201012300600 METAR MRLB NIL=
201012300700 METAR MRLB NIL=
201012300800 METAR MRLB NIL=
201012300900 METAR MRLB NIL=
201012301000 METAR MRLB NIL=
201012301100 METAR MRLB NIL=
201012301200 METAR MRLB 301200Z 00000KT CAVOK 21/18 A2975 RMK SCT250=
201012301300 METAR MRLB 301300Z 00000KT 9999 FEW035 23/19 A2979=
201012301400 METAR MRLB 301400Z 32004KT 9999 FEW035 25/20 A2982=
201012301500 METAR MRLB 301500Z 05006KT CAVOK 27/19 A2982 RMK FEW250=
201012301600 METAR MRLB 301600Z 08007KT 9999 SCT035 29/20 A2981=
201012301700 METAR MRLB 301700Z 09011KT 9999 SCT035 31/20 A2980=
201012301800 METAR MRLB 301800Z 09012KT 9999 SCT035 31/20 A2987=
201012301900 METAR MRLB 301900Z 10011KT 9999 SCT035 32/20 A2973=
201012302000 METAR MRLB 302000Z 10010KT 9999 SCT035 31/18 A2969=
201012302100 METAR MRLB 302100Z 08009KT 9999 SCT035 30/19 A2969=
201012302200 METAR MRLB 302200Z 09010KT 9999 FEW035 SCT250 30/19 A2970=
201012302300 METAR MRLB 302300Z 09008KT 9999 SCT035 SCT250 29/19 A2971=
201012310000 METAR MRLB 310000Z 09006KT 9999 FEW035 BKN250 27/19 A2973=
201012310100 METAR MRLB 310100Z 10007KT 9999 SCT035 BKN250 26/19 A2975=
201012310200 METAR MRLB 310200Z 11006KT 9999 SCT030 BKN250 25/18 A2977=
201012310300 METAR MRLB NIL=
201012310400 METAR MRLB NIL=
201012310500 METAR MRLB NIL=
201012310600 METAR MRLB NIL=
201012310700 METAR MRLB NIL=
201012310800 METAR MRLB NIL=
201012310900 METAR MRLB NIL=
201012311000 METAR MRLB NIL=
201012311100 METAR MRLB NIL=
201012311200 METAR MRLB 311200Z NIL=
201012311300 METAR MRLB 311300Z 09005KT CAVOK 24/20 A2980 RMK BKN250=
201012311400 METAR MRLB 311400Z 01003KT CAVOK 27/20 A2983 RMK BKN250=
201012311500 METAR MRLB 311500Z 10011KT CAVOK 29/19 A2983 RMK BKN250=
201012311600 METAR MRLB 311600Z 09012KT CAVOK 31/19 A2982 RMK BKN250=
201012311700 METAR MRLB 311700Z 10003KT CAVOK 32/15 A2980 RMK BKN250=
201012311800 METAR MRLB 311800Z 10015KT CAVOK 33/16 A2977 RMK BKN250=
201012311900 METAR MRLB 311900Z 08011KT 9999 FEW035 BKN250 32/17 A2974=
201012312000 METAR MRLB 312000Z 10008KT 9999 FEW035 BKN250 31/19 A2972=
201012312100 METAR MRLB 312100Z 08010KT 9999 SCT035 SCT100 31/19 A2971 RMK RN DST E=
201012312200 METAR MRLB 312200Z 07007KT 9999 SCT040 SCT250 29/19 A2972=
201012312300 METAR MRLB 312300Z 08007KT 9999 FEW040 SCT120 30/19 A2973=
